House number,Street name,Postal code,Latitude,Longitude
47,Bulevardul Lucian Blaga,515800,45.9565138,23.5744529
98a,Strada Augustin Bena,515800,45.9599563,23.5478029
3,Strada Mihai Viteazu,515800,45.9578940,23.5696390
71,Strada Veche,515801,45.9845447,23.5571247
2,Strada Valea Frumoasei,515870,45.9581539,23.5634874
34,Strada Gării,515800,45.9579163,23.5784131
69a,Strada Călărași,515800,45.9633919,23.5849075
71a,Strada Călărași,515800,45.9634802,23.5851416
1,Piața Primăriei,515800,45.9579635,23.5690627
61,Strada Viilor,515800,45.9532836,23.5853744
1,Strada Simion Bărnuțiu,515800,45.9519772,23.5822620
14,Strada Simion Bărnuțiu,515800,45.9525936,23.5830518
15,Strada Viilor,515800,45.9546918,23.5805977
2b,Strada Viilor,515800,45.9544667,23.5803247
45,Strada Dorin Pavel,515800,45.9526407,23.5659782
53,Strada Dorin Pavel,515800,45.9511927,23.5659010
2,Strada Ștefan cel Mare,515870,45.9590397,23.5614058
11,Bulevardul Lucian Blaga,515800,45.9570698,23.5704566
9,Bulevardul Lucian Blaga,515800,45.9570916,23.5703216
13,Bulevardul Lucian Blaga,515800,45.9570505,23.5706209
15,Bulevardul Lucian Blaga,515800,45.9570404,23.5706947
17,Bulevardul Lucian Blaga,515800,45.9570070,23.5709783
19,Bulevardul Lucian Blaga,515800,45.9569920,23.5711105
23,Bulevardul Lucian Blaga,515800,45.9569446,23.5719123
39,Bulevardul Lucian Blaga,515800,45.9567796,23.5730177
39,Bulevardul Lucian Blaga,515800,45.9567910,23.5729447
7,Strada Sava Henția,515800,45.9553656,23.5743469
17,Strada Sava Henția,515800,45.9543240,23.5742771
4,Strada Aurel Vlaicu,515800,45.9508940,23.5806299
12,Strada Fântâna de Aur,515800,45.9483534,23.5817207
26,Strada Tineretului,515800,45.9558986,23.5645111
30,Bulevardul Lucian Blaga,515800,45.9569987,23.5683455
32,Bulevardul Lucian Blaga,515800,45.9569853,23.5685168
32,Bulevardul Lucian Blaga,515800,45.9569749,23.5686480
34,Bulevardul Lucian Blaga,515800,45.9569708,23.5687627
36,Bulevardul Lucian Blaga,515800,45.9569438,23.5688953
38,Bulevardul Lucian Blaga,515800,45.9569303,23.5690086
40,Bulevardul Lucian Blaga,515800,45.9568571,23.5695048
32,Bulevardul Lucian Blaga,515800,45.9570079,23.5681288
34,Bulevardul Lucian Blaga,515800,45.9570150,23.5680348
22,Bulevardul Lucian Blaga,515800,45.9570842,23.5676452
21,Strada Avram Iancu,515800,45.9629231,23.5718260
1,Strada Peneș Curcanul,515800,45.9594438,23.5699008
4,Strada Peneș Curcanul,515800,45.9589400,23.5719217
25,Strada Mihai Viteazu,515800,45.9579328,23.5717626
25,Strada Mihai Viteazu,515800,45.9579348,23.5718846
99,Strada Augustin Bena,515800,45.9594758,23.5415713
17,Strada Pieții,515800,45.9593603,23.5683160
2,Strada Aviator Olteanu,515800,45.9579519,23.5657902
69A,Strada Călărași,515800,45.9631533,23.5848611
69A,Strada Călărași,515800,45.9632054,23.5851219
69A,Strada Călărași,515800,45.9632834,23.5851405
71A,Strada Călărași,515800,45.9630854,23.5853680
26,Strada Mărășești,515800,45.9577784,23.5772852
22,Strada Mărășești,515800,45.9578149,23.5769729
20,Strada Mărășești,515800,45.9578445,23.5768349
18,Strada Mărășești,515800,45.9578954,23.5766682
8,Strada Mărășești,515800,45.9579860,23.5758736
6,Strada Mărășești,515800,45.9579570,23.5757004
4,Strada Mărășești,515800,45.9579212,23.5755454
2A,Strada Mărășești,515800,45.9579272,23.5753135
3,Strada Călărași,515800,45.9578621,23.5741651
6,Strada Călărași,515800,45.9577764,23.5745802
2A,Strada Călărași,515800,45.9574285,23.5744170
22,Strada Gării,515800,45.9585792,23.5776461
17,Strada Viilor,515800,45.9546357,23.5808733
2C,Strada Viilor,515800,45.9542835,23.5807753
4,Strada Viilor,515800,45.9541761,23.5808884
18,Bulevardul Lucian Blaga,515800,45.9515897,23.5815831
13,Strada Aurel Vlaicu,515800,45.9508211,23.5809753
15,Strada Aurel Vlaicu,515800,45.9506705,23.5808891
21,Strada Aurel Vlaicu,515800,45.9502843,23.5808302
23,Strada Aurel Vlaicu,515800,45.9501633,23.5807443
27,Strada Aurel Vlaicu,515800,45.9500228,23.5807239
45,Strada Aurel Vlaicu,515800,45.9489329,23.5801142
49,Strada Aurel Vlaicu,515800,45.9487829,23.5800467
51,Strada Aurel Vlaicu,515800,45.9486324,23.5799809
9,Strada 8 Martie,515800,45.9490880,23.5817417
17,Strada 8 Martie,515800,45.9494663,23.5819433
21,Strada 8 Martie,515800,45.9496953,23.5821445
25,Strada Aurel Vlaicu,515800,45.9499084,23.5814243
32,Strada 8 Martie,515800,45.9500276,23.5827051
24,Strada 8 Martie,515800,45.9495200,23.5824342
22,Strada 8 Martie,515800,45.9493968,23.5823554
20,Strada 8 Martie,515800,45.9492442,23.5822864
14A,Strada 8 Martie,515800,45.9488963,23.5820609
10,Strada Fântâna de Aur,515800,45.9483109,23.5813277
6,Strada Fântâna de Aur,515800,45.9483005,23.5809270
4,Strada Fântâna de Aur,515800,45.9483119,23.5806469
2,Strada Fântâna de Aur,515800,45.9483058,23.5803740
37,Strada Alunelului,515800,45.9504005,23.5788548
30,Strada Răchitei,515800,45.9505011,23.5791931
26,Strada Cântarului,515800,45.9513630,23.5788670
22A,Strada Tudor Vladimirescu,515800,45.9527189,23.5766429
26,Strada Radu Stanca,515800,45.9527743,23.5772590
24,Strada Radu Stanca,515800,45.9527388,23.5769420
32,Strada Tudor Vladimirescu,515800,45.9513921,23.5755611
20,Strada Radu Stanca,515800,45.9526935,23.5757462
18,Strada Radu Stanca,515800,45.9527188,23.5755860
16,Strada Radu Stanca,515800,45.9527197,23.5754528
12,Strada Radu Stanca,515800,45.9526633,23.5750719
10,Strada Radu Stanca,515800,45.9526748,23.5748575
8,Strada Radu Stanca,515800,45.9527178,23.5747171
6,Strada Radu Stanca,515800,45.9526936,23.5745823
4,Strada Radu Stanca,515800,45.9526683,23.5744245
49A,Strada Sava Henția,515800,45.9522168,23.5743079
23,Strada Radu Stanca,515800,45.9529113,23.5758705
11,Strada Radu Stanca,515800,45.9529616,23.5750160
7,Strada Radu Stanca,515800,45.9529233,23.5747183
1,Strada Parângului,515800,45.9547965,23.5693412
3,Strada Parângului,515800,45.9547741,23.5694927
9,Strada Parângului,515800,45.9546955,23.5700032
11,Strada Parângului,515800,45.9547190,23.5704425
13,Strada Parângului,515800,45.9547416,23.5706249
1,Strada Traian,515800,45.9550717,23.5708735
3,Strada Traian,515800,45.9551091,23.5706776
9,Strada Traian,515800,45.9552156,23.5701473
11,Strada Traian,515800,45.9552474,23.5699199
26,Strada Sava Henția,515800,45.9531683,23.5735236
32,Strada Sava Henția,515800,45.9528512,23.5733271
54,Strada Sava Henția,515800,45.9515713,23.5728691
75,Strada Sava Henția,515800,45.9508924,23.5731217
46,Strada Tudor Vladimirescu,515800,45.9504072,23.5751625
48,Strada Tudor Vladimirescu,515800,45.9503015,23.5751214
50,Strada Tudor Vladimirescu,515800,45.9501655,23.5751003
52,Strada Tudor Vladimirescu,515800,45.9500872,23.5750695
54,Strada Tudor Vladimirescu,515800,45.9500217,23.5750647
25,Strada Tudor Vladimirescu,515800,45.9505811,23.5756900
35,Strada Tudor Vladimirescu,515800,45.9501594,23.5754991
44,Strada Răchitei,515800,45.9488731,23.5785301
50,Strada Răchitei,515800,45.9477454,23.5791398
13,Strada Ștefan cel Mare,515800,45.9605110,23.5616152
11,Strada Ștefan cel Mare,515800,45.9602151,23.5613126
9,Strada Ștefan cel Mare,515800,45.9601118,23.5614172
7,Strada Ștefan cel Mare,515800,45.9599726,23.5613716
5,Strada Ștefan cel Mare,515800,45.9597655,23.5613799
3,Strada Ștefan cel Mare,515800,45.9596505,23.5613552
4,Strada Mircea cel Mare,515800,45.9585056,23.5606138
2,Strada Mircea cel Mare,515800,45.9585812,23.5607087
6,Strada Mircea cel Mare,515800,45.9584256,23.5604991
49,Strada Ștefan cel Mare,515800,45.9627204,23.5619195
47,Strada Ștefan cel Mare,515800,45.9626345,23.5619785
45,Strada Ștefan cel Mare,515800,45.9625470,23.5619138
43,Strada Ștefan cel Mare,515800,45.9624581,23.5619716
41,Strada Ștefan cel Mare,515800,45.9623373,23.5619912
41A,Strada Ștefan cel Mare,515800,45.9621820,23.5620205
39,Strada Ștefan cel Mare,515800,45.9620792,23.5618214
2,Strada Ștefan cel Mare,515800,45.9591267,23.5614696
4,Strada Ștefan cel Mare,515800,45.9594027,23.5615981
6,Strada Ștefan cel Mare,515800,45.9595906,23.5616762
2,Piața Libertății,515800,45.9578745,23.5662463
3,Piața Libertății,515800,45.9580703,23.5663261
8,Strada Aviator Olteanu,515800,45.9584723,23.5659469
10B,Strada Aviator Olteanu,515800,45.9589573,23.5662641
10A,Strada Aviator Olteanu,515800,45.9586923,23.5663384
10,Strada Aviator Olteanu,515800,45.9585596,23.5662862
4,Strada Aviator Olteanu,515800,45.9581343,23.5657932
5,Piața Libertății,515800,45.9583124,23.5668072
3,Strada 24 Ianuarie,515800,45.9582719,23.5672950
4,Strada 24 Ianuarie,515800,45.9582457,23.5674134
5,Strada 24 Ianuarie,515800,45.9582338,23.5675298
8,Strada 24 Ianuarie,515800,45.9581833,23.5678975
9,Strada 24 Ianuarie,515800,45.9581166,23.5680451
10,Strada 24 Ianuarie,515800,45.9580616,23.5682194
11,Strada 24 Ianuarie,515800,45.9580500,23.5684120
12,Strada 24 Ianuarie,515800,45.9580961,23.5686324
1,Piața Primăriei,515800,45.9580310,23.5690350
3,Piața Primăriei,515800,45.9579884,23.5696677
149,Strada Ștefan cel Mare,515800,45.9693988,23.5597934
151,Strada Ștefan cel Mare,515800,45.9695625,23.5598309
145,Strada Ștefan cel Mare,515800,45.9688299,23.5603901
143,Strada Ștefan cel Mare,515800,45.9685795,23.5605040
143A,Strada Ștefan cel Mare,515800,45.9680638,23.5604012
141A,Strada Ștefan cel Mare,515800,45.9680853,23.5608677
139,Strada Ștefan cel Mare,515800,45.9679555,23.5609554
137,Strada Ștefan cel Mare,515800,45.9678568,23.5610463
135,Strada Ștefan cel Mare,515800,45.9677335,23.5611398
133,Strada Ștefan cel Mare,515800,45.9676123,23.5611157
131,Strada Ștefan cel Mare,515800,45.9674715,23.5611415
129,Strada Ștefan cel Mare,515800,45.9673721,23.5613003
127,Strada Ștefan cel Mare,515800,45.9672549,23.5613315
125,Strada Ștefan cel Mare,515800,45.9670763,23.5613837
123,Strada Ștefan cel Mare,515800,45.9669692,23.5613410
121,Strada Ștefan cel Mare,515800,45.9668435,23.5613735
119,Strada Ștefan cel Mare,515800,45.9667208,23.5612981
117,Strada Ștefan cel Mare,515800,45.9666150,23.5614006
115,Strada Ștefan cel Mare,515800,45.9664760,23.5613669
113,Strada Ștefan cel Mare,515800,45.9663388,23.5613205
111,Strada Ștefan cel Mare,515800,45.9662244,23.5614257
109,Strada Ștefan cel Mare,515800,45.9660916,23.5614319
107,Strada Ștefan cel Mare,515800,45.9659748,23.5613696
105,Strada Ștefan cel Mare,515800,45.9658521,23.5614749
103,Strada Ștefan cel Mare,515800,45.9657614,23.5614062
99,Strada Ștefan cel Mare,515800,45.9655577,23.5614245
97,Strada Ștefan cel Mare,515800,45.9654609,23.5613581
95,Strada Ștefan cel Mare,515800,45.9653487,23.5613297
91,Strada Ștefan cel Mare,515800,45.9651612,23.5613176
89,Strada Ștefan cel Mare,515800,45.9650685,23.5613304
85,Strada Ștefan cel Mare,515800,45.9649045,23.5613753
83,Strada Ștefan cel Mare,515800,45.9648033,23.5614135
81,Strada Ștefan cel Mare,515800,45.9646873,23.5614263
79,Strada Ștefan cel Mare,515800,45.9645922,23.5614611
75,Strada Ștefan cel Mare,515800,45.9642258,23.5615008
73,Strada Ștefan cel Mare,515800,45.9640967,23.5615121
71,Strada Ștefan cel Mare,515800,45.9639801,23.5615537
69,Strada Ștefan cel Mare,515800,45.9638683,23.5615665
67,Strada Ștefan cel Mare,515800,45.9637491,23.5615681
65,Strada Ștefan cel Mare,515800,45.9636374,23.5616026
63,Strada Ștefan cel Mare,515800,45.9635270,23.5616575
61,Strada Ștefan cel Mare,515800,45.9633819,23.5617309
59,Strada Ștefan cel Mare,515800,45.9632712,23.5616915
57,Strada Ștefan cel Mare,515800,45.9631924,23.5617075
55,Strada Ștefan cel Mare,515800,45.9631076,23.5618195
53,Strada Ștefan cel Mare,515800,45.9629932,23.5618091
164,Strada Ștefan cel Mare,515800,45.9697443,23.5604527
162,Strada Ștefan cel Mare,515800,45.9696546,23.5604515
160,Strada Ștefan cel Mare,515800,45.9695441,23.5604449
158,Strada Ștefan cel Mare,515800,45.9694177,23.5604581
156,Strada Ștefan cel Mare,515800,45.9692919,23.5604904
154,Strada Ștefan cel Mare,515800,45.9691904,23.5605059
152,Strada Ștefan cel Mare,515800,45.9690883,23.5605869
150,Strada Ștefan cel Mare,515800,45.9689665,23.5606763
148,Strada Ștefan cel Mare,515800,45.9687525,23.5607745
146,Strada Ștefan cel Mare,515800,45.9687086,23.5608187
144,Strada Ștefan cel Mare,515800,45.9685848,23.5608809
142,Strada Ștefan cel Mare,515800,45.9684613,23.5610688
140,Strada Ștefan cel Mare,515800,45.9682904,23.5611860
138,Strada Ștefan cel Mare,515800,45.9681792,23.5611719
134,Strada Ștefan cel Mare,515800,45.9679639,23.5612610
132,Strada Ștefan cel Mare,515800,45.9678566,23.5614231
130,Strada Ștefan cel Mare,515800,45.9677442,23.5614562
128,Strada Ștefan cel Mare,515800,45.9676317,23.5615860
126,Strada Ștefan cel Mare,515800,45.9675247,23.5616078
126A,Strada Ștefan cel Mare,515800,45.9674644,23.5617037
122,Strada Ștefan cel Mare,515800,45.9672854,23.5617601
112,Strada Ștefan cel Mare,515800,45.9656494,23.5617288
110,Strada Ștefan cel Mare,515800,45.9654104,23.5617170
108,Strada Ștefan cel Mare,515800,45.9652801,23.5617048
106,Strada Ștefan cel Mare,515800,45.9651861,23.5617156
104,Strada Ștefan cel Mare,515800,45.9650653,23.5617024
102,Strada Ștefan cel Mare,515800,45.9649335,23.5617229
100,Strada Ștefan cel Mare,515800,45.9648896,23.5617391
98,Strada Ștefan cel Mare,515800,45.9647871,23.5617987
96,Strada Ștefan cel Mare,515800,45.9646803,23.5618370
94,Strada Ștefan cel Mare,515800,45.9645422,23.5618228
92,Strada Ștefan cel Mare,515800,45.9644150,23.5618089
88,Strada Ștefan cel Mare,515800,45.9641528,23.5618976
86,Strada Ștefan cel Mare,515800,45.9640561,23.5618656
84,Strada Ștefan cel Mare,515800,45.9639593,23.5619439
82,Strada Ștefan cel Mare,515800,45.9638326,23.5619713
80,Strada Ștefan cel Mare,515800,45.9637151,23.5620319
78,Strada Ștefan cel Mare,515800,45.9635604,23.5620257
76,Strada Ștefan cel Mare,515800,45.9634515,23.5620540
74,Strada Ștefan cel Mare,515800,45.9633562,23.5621066
72,Strada Ștefan cel Mare,515800,45.9632793,23.5621979
70,Strada Ștefan cel Mare,515800,45.9631357,23.5622408
68,Strada Ștefan cel Mare,515800,45.9630158,23.5622513
66,Strada Ștefan cel Mare,515800,45.9628696,23.5623256
1,Strada Anul 1907,515800,45.9628125,23.5628689
3,Strada Anul 1907,515800,45.9627849,23.5630247
5,Strada Anul 1907,515800,45.9627165,23.5631657
7,Strada Anul 1907,515800,45.9627301,23.5633086
9,Strada Anul 1907,515800,45.9626956,23.5634399
64,Strada Ștefan cel Mare,515800,45.9626902,23.5623233
62,Strada Ștefan cel Mare,515800,45.9625541,23.5623294
60,Strada Ștefan cel Mare,515800,45.9624455,23.5623421
58,Strada Ștefan cel Mare,515800,45.9623404,23.5623428
48,Strada Ștefan cel Mare,515800,45.9617662,23.5625433
37,Strada Ștefan cel Mare,515800,45.9619563,23.5618980
33,Strada Ștefan cel Mare,515800,45.9618009,23.5620851
8,Strada Pieții,515800,45.9592009,23.5692688
6,Strada Pieții,515800,45.9590993,23.5691850
4A,Strada Pieții,515800,45.9589491,23.5691642
4,Strada Pieții,515800,45.9587023,23.5690355
2,Strada Pieții,515800,45.9584980,23.5689786
11,Strada Pieții,515800,45.9591182,23.5688546
9,Strada Pieții,515800,45.9590406,23.5687461
7,Strada Pieții,515800,45.9589136,23.5687769
5,Strada Pieții,515800,45.9587349,23.5687476
3,Strada Pieții,515800,45.9585678,23.5687893
7,Strada 9 Mai,515800,45.9576050,23.5713060
1,Strada Mioriței,515800,45.9578262,23.5732785
2,Strada Mărășești,515800,45.9578065,23.5753859
10,Strada Mărășești,515800,45.9579881,23.5760195
14,Strada Mărășești,515800,45.9579674,23.5763088
16,Strada Mărășești,515800,45.9579530,23.5764894
24,Strada Mărășești,515800,45.9578271,23.5771037
53 B,Bulevardul Lucian Blaga,515800,45.9574775,23.5752062
53 Sc. A,Bulevardul Lucian Blaga,515800,45.9572637,23.5751592
Bl. 53 Sc. C,Bulevardul Lucian Blaga,515800,45.9569976,23.5750958
Bl. 53 Sc. D,Bulevardul Lucian Blaga,515800,45.9569707,23.5753437
28,Strada Mărășești,515800,45.9576996,23.5774131
30,Strada Mărășești,515800,45.9575760,23.5775510
32,Strada Mărășești,515800,45.9575135,23.5777136
34,Strada Mărășești,515800,45.9575226,23.5779128
36,Strada Mărășești,515800,45.9574017,23.5780520
1,Strada Mărășești,515800,45.9581687,23.5754575
1A,Strada Mărășești,515800,45.9581790,23.5756505
3,Strada Mărășești,515800,45.9582115,23.5758030
5,Strada Mărășești,515800,45.9582383,23.5759478
33,Strada Traian,515800,45.9555881,23.5668654
31,Strada Traian,515800,45.9555843,23.5670887
29,Strada Traian,515800,45.9555846,23.5673045
27,Strada Traian,515800,45.9555611,23.5675328
25,Strada Traian,515800,45.9554780,23.5677367
23,Strada Traian,515800,45.9555208,23.5679946
21,Strada Traian,515800,45.9554659,23.5682678
17,Strada Traian,515800,45.9553869,23.5687614
2,Strada Dorin Pavel,515800,45.9568534,23.5648792
4,Strada Dorin Pavel,515800,45.9566967,23.5648243
6,Strada Dorin Pavel,515800,45.9565909,23.5647103
8,Strada Dorin Pavel,515800,45.9564825,23.5648571
10,Strada Dorin Pavel,515800,45.9563478,23.5648548
12,Strada Dorin Pavel,515800,45.9561943,23.5648785
14,Strada Dorin Pavel,515800,45.9560137,23.5651140
16,Strada Dorin Pavel,515800,45.9559478,23.5652749
18,Strada Dorin Pavel,515800,45.9558001,23.5655012
20,Strada Dorin Pavel,515800,45.9556439,23.5656673
22,Strada Dorin Pavel,515800,45.9555494,23.5656752
24,Strada Dorin Pavel,515800,45.9554858,23.5656363
26,Strada Dorin Pavel,515800,45.9553641,23.5656126
28,Strada Dorin Pavel,515800,45.9552500,23.5656683
30,Strada Dorin Pavel,515800,45.9549912,23.5657555
32,Strada Dorin Pavel,515800,45.9547356,23.5657068
25,Strada Tineretului,515800,45.9558203,23.5642967
23,Strada Tineretului,515800,45.9556149,23.5643185
19,Strada Tineretului,515800,45.9551382,23.5644784
26,Strada Tineretului,515800,45.9559009,23.5646093
21,Strada Tineretului,515800,45.9553704,23.5644390
17,Strada Tineretului,515800,45.9549551,23.5644898
15,Strada Tineretului,515800,45.9547142,23.5644449
13,Strada Tineretului,515800,45.9546245,23.5643911
11,Strada Tineretului,515800,45.9544426,23.5643326
7,Strada Tineretului,515800,45.9542070,23.5641883
5,Strada Tineretului,515800,45.9540298,23.5640449
64,Strada Mihai Eminescu,515800,45.9559964,23.5636864
62,Strada Mihai Eminescu,515800,45.9558732,23.5636746
60,Strada Mihai Eminescu,515800,45.9557510,23.5637316
58,Strada Mihai Eminescu,515800,45.9556663,23.5636922
56,Strada Mihai Eminescu,515800,45.9555386,23.5636601
54,Strada Mihai Eminescu,515800,45.9554052,23.5637495
52,Strada Mihai Eminescu,515800,45.9552989,23.5635883
50,Strada Mihai Eminescu,515800,45.9551802,23.5635865
48,Strada Mihai Eminescu,515800,45.9550417,23.5635967
46,Strada Mihai Eminescu,515800,45.9549193,23.5636269
44,Strada Mihai Eminescu,515800,45.9547977,23.5635819
31,Strada Ștefan cel Mare,515800,45.9616764,23.5621257
29,Strada Ștefan cel Mare,515800,45.9615186,23.5621169
27,Strada Ștefan cel Mare,515800,45.9613700,23.5621283
25,Strada Ștefan cel Mare,515800,45.9612456,23.5620988
23,Strada Ștefan cel Mare,515800,45.9611588,23.5619535
31,Strada Ștefan cel Mare,515800,45.9610634,23.5619822
19,Strada Ștefan cel Mare,515800,45.9608673,23.5619028
17,Strada Ștefan cel Mare,515800,45.9607292,23.5618131
15,Strada Ștefan cel Mare,515800,45.9606418,23.5617310
54,Strada Ștefan cel Mare,515800,45.9621313,23.5624115
52,Strada Ștefan cel Mare,515800,45.9620439,23.5624556
50,Strada Ștefan cel Mare,515800,45.9619190,23.5623883
46,Strada Ștefan cel Mare,515800,45.9615850,23.5626118
44,Strada Ștefan cel Mare,515800,45.9614648,23.5625775
40,Strada Ștefan cel Mare,515800,45.9613259,23.5628977
42,Strada Ștefan cel Mare,515800,45.9613414,23.5625680
34,Strada Ștefan cel Mare,515800,45.9611894,23.5624366
38,Strada Ștefan cel Mare,515800,45.9611154,23.5627163
32,Strada Ștefan cel Mare,515800,45.9610284,23.5623974
32A,Strada Ștefan cel Mare,515800,45.9609262,23.5626093
30,Strada Ștefan cel Mare,515800,45.9609258,23.5623035
26,Strada Ștefan cel Mare,515800,45.9607420,23.5621890
28,Strada Ștefan cel Mare,515800,45.9607756,23.5623888
24,Strada Ștefan cel Mare,515800,45.9606098,23.5620782
22,Strada Ștefan cel Mare,515800,45.9605066,23.5620625
18,Strada Ștefan cel Mare,515800,45.9602537,23.5619296
16,Strada Ștefan cel Mare,515800,45.9601631,23.5618384
14,Strada Ștefan cel Mare,515800,45.9600740,23.5617985
12,Strada Ștefan cel Mare,515800,45.9599827,23.5617934
10,Strada Ștefan cel Mare,515800,45.9598339,23.5617898
8,Strada Ștefan cel Mare,515800,45.9596867,23.5617047
7,Bulevardul Lucian Blaga,515800,45.9571201,23.5702343
9,Bulevardul Lucian Blaga,515800,45.9571864,23.5703371
11,Bulevardul Lucian Blaga,515800,45.9571580,23.5704704
13,Bulevardul Lucian Blaga,515800,45.9571435,23.5706748
19,Bulevardul Lucian Blaga,515800,45.9570725,23.5711119
19,Bulevardul Lucian Blaga,515800,45.9570445,23.5712289
23,Bulevardul Lucian Blaga,515800,45.9569618,23.5719142
25,Bulevardul Lucian Blaga,515800,45.9570686,23.5720716
27,Bulevardul Lucian Blaga,515800,45.9570243,23.5721579
29,Bulevardul Lucian Blaga,515800,45.9569118,23.5723011
31,Bulevardul Lucian Blaga,515800,45.9569525,23.5724619
39,Bulevardul Lucian Blaga,515800,45.9568627,23.5729990
33,Bulevardul Lucian Blaga,515800,45.9569587,23.5726229
41,Bulevardul Lucian Blaga,515800,45.9568262,23.5732420
76,Bulevardul Lucian Blaga,515800,45.9564990,23.5725967
26,Strada Șurianu,515800,45.9528477,23.5677528
5,Strada Sava Henția,515800,45.9555615,23.5743979
5A,Strada Sava Henția,515800,45.9554623,23.5744286
7,Strada Sava Henția,515800,45.9553620,23.5744062
9,Strada Sava Henția,515800,45.9551828,23.5744578
13,Strada Traian,515800,45.9551853,23.5695905
15,Strada Traian,515800,45.9552537,23.5692654
5,Strada Parângului,515800,45.9547197,23.5696652
7,Strada Parângului,515800,45.9547132,23.5698305
2,Strada Parângului,515800,45.9545775,23.5692659
4,Strada Parângului,515800,45.9544832,23.5693729
6,Strada Parângului,515800,45.9545197,23.5696532
8,Strada Parângului,515800,45.9543791,23.5698327
8A,Strada Parângului,515800,45.9542555,23.5699631
10,Strada Parângului,515800,45.9545026,23.5701194
12,Strada Parângului,515800,45.9544485,23.5702822
14,Strada Parângului,515800,45.9545188,23.5705079
16,Strada Parângului,515800,45.9544868,23.5706948
1A,Strada Spitalului,515800,45.9521830,23.5683876
1B,Strada Spitalului,515800,45.9521969,23.5686352
30,Strada Șurianu,515800,45.9523861,23.5674634
78,Strada Dorin Pavel,515800,45.9512703,23.5654912
34,Strada Sava Henția,515800,45.9529881,23.5724302
34,Strada Dorin Pavel,515800,45.9545712,23.5657898
36,Strada Dorin Pavel,515800,45.9544221,23.5657777
38,Strada Dorin Pavel,515800,45.9542702,23.5656844
40,Strada Dorin Pavel,515800,45.9541153,23.5657406
3,Strada Spitalului,515800,45.9520651,23.5713613
5,Strada Spitalului,515800,45.9519169,23.5713431
7,Strada Spitalului,515800,45.9517796,23.5713109
9,Strada Spitalului,515800,45.9516653,23.5713537
11,Strada Spitalului,515800,45.9515642,23.5713016
13,Strada Spitalului,515800,45.9514463,23.5713118
15,Strada Spitalului,515800,45.9513249,23.5713001
19,Strada Spitalului,515800,45.9510614,23.5712550
2,Strada Spitalului,515800,45.9519870,23.5694591
4,Strada Spitalului,515800,45.9519713,23.5696405
6,Strada Spitalului,515800,45.9519583,23.5698415
8,Strada Spitalului,515800,45.9519465,23.5700517
10,Strada Spitalului,515800,45.9518935,23.5701671
16,Strada Spitalului,515800,45.9518910,23.5707836
18,Strada Spitalului,515800,45.9518786,23.5709792
18B,Strada Spitalului,515800,45.9517582,23.5709662
20,Strada Spitalului,515800,45.9516359,23.5709867
22,Strada Spitalului,515800,45.9515022,23.5709516
24,Strada Spitalului,515800,45.9513701,23.5709179
11,Strada Unirii,515800,45.9514554,23.5705237
9,Strada Unirii,515800,45.9514583,23.5703408
48,Strada Spitalului,515800,45.9516999,23.5694491
46,Strada Spitalului,515800,45.9515737,23.5693926
1,Strada Unirii,515800,45.9514164,23.5694039
3,Strada Unirii,515800,45.9514907,23.5697562
5,Strada Unirii,515800,45.9514888,23.5699476
7,Strada Unirii,515800,45.9515159,23.5701302
2,Strada Unirii,515800,45.9512198,23.5693621
44,Strada Spitalului,515800,45.9511115,23.5693530
4,Strada Unirii,515800,45.9512029,23.5697050
6,Strada Unirii,515800,45.9511923,23.5698955
8,Strada Unirii,515800,45.9511911,23.5700871
14,Strada Unirii,515800,45.9511745,23.5704812
28,Strada Spitalului,515800,45.9510604,23.5708591
26,Strada Spitalului,515800,45.9511367,23.5708812
30,Strada Spitalului,515800,45.9509268,23.5708360
32,Strada Spitalului,515800,45.9507835,23.5708081
40,Strada Spitalului,515800,45.9508020,23.5698433
16,Strada Sava Henția,515800,45.9536602,23.5738631
18,Strada Sava Henția,515800,45.9535534,23.5737169
20,Strada Sava Henția,515800,45.9534634,23.5736710
24,Strada Sava Henția,515800,45.9532505,23.5735756
28,Strada Sava Henția,515800,45.9530277,23.5735017
30,Strada Sava Henția,515800,45.9529435,23.5734576
40,Strada Sava Henția,515800,45.9522968,23.5731073
42,Strada Sava Henția,515800,45.9521740,23.5730485
44,Strada Sava Henția,515800,45.9520532,23.5730345
46,Strada Sava Henția,515800,45.9519424,23.5729861
48,Strada Sava Henția,515800,45.9518261,23.5730220
50,Strada Sava Henția,515800,45.9517314,23.5729222
52,Strada Sava Henția,515800,45.9516585,23.5728225
56,Strada Sava Henția,515800,45.9514387,23.5728962
58,Strada Sava Henția,515800,45.9513164,23.5728323
60,Strada Sava Henția,515800,45.9512020,23.5727950
62,Strada Sava Henția,515800,45.9510626,23.5727110
64,Strada Sava Henția,515800,45.9509403,23.5727172
66,Strada Sava Henția,515800,45.9507834,23.5726503
68,Strada Sava Henția,515800,45.9506461,23.5725691
70,Strada Sava Henția,515800,45.9505504,23.5726118
72,Strada Sava Henția,515800,45.9504553,23.5725113
74,Strada Sava Henția,515800,45.9503454,23.5725647
76,Strada Sava Henția,515800,45.9502523,23.5724300
78,Strada Sava Henția,515800,45.9501190,23.5724860
17,Strada Sava Henția,515800,45.9543297,23.5743755
19,Strada Sava Henția,515800,45.9542437,23.5743400
21,Strada Sava Henția,515800,45.9541489,23.5743324
23,Strada Sava Henția,515800,45.9540100,23.5743554
25,Strada Sava Henția,515800,45.9539471,23.5743432
27,Strada Sava Henția,515800,45.9538641,23.5743192
29A,Strada Sava Henția,515800,45.9537512,23.5742396
42,Strada Dorin Pavel,515800,45.9539903,23.5656576
44,Strada Dorin Pavel,515800,45.9538632,23.5657079
46,Strada Dorin Pavel,515800,45.9537326,23.5656283
48,Strada Dorin Pavel,515800,45.9536102,23.5655942
50,Strada Dorin Pavel,515800,45.9534820,23.5656792
52,Strada Dorin Pavel,515800,45.9533598,23.5656437
54,Strada Dorin Pavel,515800,45.9532294,23.5656483
56,Strada Dorin Pavel,515800,45.9530988,23.5656479
58,Strada Dorin Pavel,515800,45.9529637,23.5656349
60,Strada Dorin Pavel,515800,45.9528245,23.5656677
2,Strada George Coșbuc,515800,45.9528305,23.5651312
4,Strada George Coșbuc,515800,45.9528842,23.5649916
6,Strada George Coșbuc,515800,45.9528914,23.5647296
8,Strada George Coșbuc,515800,45.9529077,23.5645749
10,Strada George Coșbuc,515800,45.9529475,23.5644102
12,Strada George Coșbuc,515800,45.9529421,23.5641330
12,Strada Tineretului,515800,45.9541968,23.5646244
10,Strada Tineretului,515800,45.9539501,23.5645117
8,Strada Tineretului,515800,45.9538233,23.5643563
6B,Strada Tineretului,515800,45.9537201,23.5642841
6C,Strada Tineretului,515800,45.9535991,23.5642644
6,Strada Tineretului,515800,45.9534898,23.5641588
4,Strada Tineretului,515800,45.9533387,23.5642634
2,Strada Tineretului,515800,45.9532629,23.5640277
5,Strada George Coșbuc,515800,45.9527154,23.5641531
3,Strada George Coșbuc,515800,45.9526677,23.5647233
1,Strada George Coșbuc,515800,45.9526411,23.5654519
64,Strada Dorin Pavel,515800,45.9524824,23.5655123
66,Strada Dorin Pavel,515800,45.9523272,23.5655348
68,Strada Dorin Pavel,515800,45.9521809,23.5655570
70,Strada Dorin Pavel,515800,45.9520401,23.5655593
72,Strada Dorin Pavel,515800,45.9519328,23.5655712
76,Strada Dorin Pavel,515800,45.9517148,23.5655841
80,Strada Dorin Pavel,515800,45.9498242,23.5651725
82,Strada Dorin Pavel,515800,45.9493012,23.5652678
84,Strada Dorin Pavel,515800,45.9491783,23.5652489
86,Strada Dorin Pavel,515800,45.9490679,23.5652140
88,Strada Dorin Pavel,515800,45.9489404,23.5651770
90,Strada Dorin Pavel,515800,45.9488008,23.5651287
92,Strada Dorin Pavel,515800,45.9482451,23.5649162
94,Strada Dorin Pavel,515800,45.9478946,23.5647857
96,Strada Dorin Pavel,515800,45.9477893,23.5647565
63,Strada Mihai Eminescu,515800,45.9559495,23.5633305
61,Strada Mihai Eminescu,515800,45.9558477,23.5634319
53,Strada Mihai Eminescu,515800,45.9554459,23.5632934
51,Strada Mihai Eminescu,515800,45.9552995,23.5633119
49,Strada Mihai Eminescu,515800,45.9552202,23.5631020
47,Strada Mihai Eminescu,515800,45.9550754,23.5632730
45,Strada Mihai Eminescu,515800,45.9549497,23.5631900
43,Strada Mihai Eminescu,515800,45.9548266,23.5631544
41,Strada Mihai Eminescu,515800,45.9547046,23.5632126
39,Strada Mihai Eminescu,515800,45.9546010,23.5631360
37,Strada Mihai Eminescu,515800,45.9544714,23.5631236
35,Strada Mihai Eminescu,515800,45.9541843,23.5631625
33,Strada Mihai Eminescu,515800,45.9540085,23.5630645
31,Strada Mihai Eminescu,515800,45.9539164,23.5630760
29,Strada Mihai Eminescu,515800,45.9538068,23.5630979
27,Strada Mihai Eminescu,515800,45.9536875,23.5631151
23,Strada Mihai Eminescu,515800,45.9535703,23.5630856
21,Strada Mihai Eminescu,515800,45.9534388,23.5631195
19,Strada Mihai Eminescu,515800,45.9533222,23.5630438
17,Strada Mihai Eminescu,515800,45.9531965,23.5630783
15,Strada Mihai Eminescu,515800,45.9530969,23.5630321
13,Strada Mihai Eminescu,515800,45.9529476,23.5630571
11,Strada Mihai Eminescu,515800,45.9527637,23.5631623
7,Strada Mihai Eminescu,515800,45.9525105,23.5632493
42,Strada Mihai Eminescu,515800,45.9546610,23.5635781
40,Strada Mihai Eminescu,515800,45.9545585,23.5635226
38,Strada Mihai Eminescu,515800,45.9544225,23.5635235
36,Strada Mihai Eminescu,515800,45.9542834,23.5635061
34,Strada Mihai Eminescu,515800,45.9541344,23.5634119
32,Strada Mihai Eminescu,515800,45.9539111,23.5633866
3,Strada Tineretului,515800,45.9538789,23.5638864
1,Strada Tineretului,515800,45.9537136,23.5638159
30,Strada Mihai Eminescu,515800,45.9537611,23.5634641
28,Strada Mihai Eminescu,515800,45.9536442,23.5633545
26,Strada Mihai Eminescu,515800,45.9535150,23.5633601
24,Strada Mihai Eminescu,515800,45.9534075,23.5634024
22,Strada Mihai Eminescu,515800,45.9532885,23.5633720
18,Strada Mihai Eminescu,515800,45.9530140,23.5633652
16,Strada Mihai Eminescu,515800,45.9529344,23.5633449
8,Strada Mihai Eminescu,515800,45.9527267,23.5634832
6,Strada Mihai Eminescu,515800,45.9525877,23.5635018
4,Strada Mihai Eminescu,515800,45.9524876,23.5634833
2,Strada Mihai Eminescu,515800,45.9523557,23.5634985
2A,Strada Mihai Eminescu,515800,45.9522195,23.5635064
5,Strada Mihai Eminescu,515800,45.9518805,23.5634743
3,Strada Mihai Eminescu,515800,45.9517973,23.5635556
29B,Strada Sava Henția,515800,45.9535995,23.5742495
29,Strada Sava Henția,515800,45.9535058,23.5742493
31,Strada Sava Henția,515800,45.9534086,23.5741511
33,Strada Sava Henția,515800,45.9532757,23.5741292
35,Strada Sava Henția,515800,45.9531037,23.5739458
37,Strada Sava Henția,515800,45.9529802,23.5738850
1,Strada Radu Stanca,515800,45.9528842,23.5739120
3,Strada Radu Stanca,515800,45.9528876,23.5742840
5,Strada Radu Stanca,515800,45.9528680,23.5744338
9,Strada Radu Stanca,515800,45.9529354,23.5748694
13,Strada Radu Stanca,515800,45.9529227,23.5751417
15,Strada Radu Stanca,515800,45.9529631,23.5752789
17,Strada Radu Stanca,515800,45.9529303,23.5754463
19,Strada Radu Stanca,515800,45.9529047,23.5755974
21,Strada Radu Stanca,515800,45.9529078,23.5757398
25,Strada Radu Stanca,515800,45.9529704,23.5760601
27,Strada Radu Stanca,515800,45.9529159,23.5761979
29,Strada Radu Stanca,515800,45.9529338,23.5763776
31,Strada Radu Stanca,515800,45.9529352,23.5765674
33,Strada Radu Stanca,515800,45.9529725,23.5768043
39,Strada Sava Henția,515800,45.9527134,23.5737300
41,Strada Sava Henția,515800,45.9526449,23.5737227
43,Strada Sava Henția,515800,45.9525629,23.5737283
47,Strada Sava Henția,515800,45.9523984,23.5735899
49,Strada Sava Henția,515800,45.9522880,23.5735030
51,Strada Sava Henția,515800,45.9521747,23.5735513
53,Strada Sava Henția,515800,45.9520639,23.5734982
45,Strada Sava Henția,515800,45.9525010,23.5736565
61,Strada Dorin Pavel,515800,45.9492488,23.5656320
63,Strada Dorin Pavel,515800,45.9491637,23.5655971
65,Strada Dorin Pavel,515800,45.9490387,23.5656123
67,Strada Dorin Pavel,515800,45.9488806,23.5655771
69,Strada Dorin Pavel,515800,45.9487618,23.5655190
71,Strada Dorin Pavel,515800,45.9486091,23.5654554
73,Strada Dorin Pavel,515800,45.9484922,23.5654124
75,Strada Dorin Pavel,515800,45.9483795,23.5653773
77,Strada Dorin Pavel,515800,45.9482563,23.5653260
79,Strada Dorin Pavel,515800,45.9481287,23.5652959
81,Strada Dorin Pavel,515800,45.9479653,23.5653435
83,Strada Dorin Pavel,515800,45.9478099,23.5652372
85,Strada Dorin Pavel,515800,45.9476913,23.5651858
87,Strada Dorin Pavel,515800,45.9475244,23.5651344
89,Strada Dorin Pavel,515800,45.9474018,23.5650855
91,Strada Dorin Pavel,515800,45.9472341,23.5651214
14,Strada Radu Stanca,515800,45.9526786,23.5752946
55,Strada Sava Henția,515800,45.9519617,23.5733970
57,Strada Sava Henția,515800,45.9518837,23.5733747
59,Strada Sava Henția,515800,45.9518192,23.5733080
61,Strada Sava Henția,515800,45.9517411,23.5733551
63,Strada Sava Henția,515800,45.9516588,23.5733070
65,Strada Sava Henția,515800,45.9515762,23.5733022
2,Strada Radu Stanca,515800,45.9526390,23.5742673
1A,Strada Tudor Vladimirescu,515800,45.9523284,23.5764389
3,Strada Tudor Vladimirescu,515800,45.9522719,23.5763976
5,Strada Tudor Vladimirescu,515800,45.9521370,23.5763257
7,Strada Tudor Vladimirescu,515800,45.9520597,23.5762988
9,Strada Tudor Vladimirescu,515800,45.9519912,23.5762437
11,Strada Tudor Vladimirescu,515800,45.9518451,23.5761592
13,Strada Tudor Vladimirescu,515800,45.9516462,23.5760642
15,Strada Tudor Vladimirescu,515800,45.9514616,23.5760205
17,Strada Tudor Vladimirescu,515800,45.9513063,23.5759516
19,Strada Tudor Vladimirescu,515800,45.9511909,23.5758890
21,Strada Tudor Vladimirescu,515800,45.9510796,23.5757720
2,Strada Tudor Vladimirescu,515800,45.9527557,23.5762355
4,Strada Tudor Vladimirescu,515800,45.9526595,23.5761853
6,Strada Tudor Vladimirescu,515800,45.9525550,23.5761400
8,Strada Tudor Vladimirescu,515800,45.9524714,23.5760587
10,Strada Tudor Vladimirescu,515800,45.9523674,23.5760654
12,Strada Tudor Vladimirescu,515800,45.9522894,23.5759909
14,Strada Tudor Vladimirescu,515800,45.9521859,23.5759561
16,Strada Tudor Vladimirescu,515800,45.9521194,23.5759220
18,Strada Tudor Vladimirescu,515800,45.9520521,23.5758311
20,Strada Tudor Vladimirescu,515800,45.9519503,23.5758698
22,Strada Tudor Vladimirescu,515800,45.9518786,23.5757979
24,Strada Tudor Vladimirescu,515800,45.9518244,23.5757148
26,Strada Tudor Vladimirescu,515800,45.9516886,23.5756891
28,Strada Tudor Vladimirescu,515800,45.9516118,23.5756739
30,Strada Tudor Vladimirescu,515800,45.9515349,23.5755975
34,Strada Tudor Vladimirescu,515800,45.9512615,23.5755088
36,Strada Tudor Vladimirescu,515800,45.9511206,23.5754511
95,Strada Mircea cel Mare,515800,45.9533181,23.5598769
8,Strada Mircea cel Mare,515800,45.9582794,23.5604765
10,Strada Mircea cel Mare,515800,45.9582136,23.5603624
12,Strada Mircea cel Mare,515800,45.9581085,23.5603176
14,Strada Mircea cel Mare,515800,45.9578149,23.5601282
16,Strada Mircea cel Mare,515800,45.9577206,23.5600024
18,Strada Mircea cel Mare,515800,45.9575749,23.5600302
3,Strada Mircea cel Mare,515800,45.9580645,23.5605855
7,Strada Mircea cel Mare,515800,45.9576165,23.5604229
9,Strada Mircea cel Mare,515800,45.9574904,23.5603555
11,Strada Mircea cel Mare,515800,45.9574047,23.5603373
13,Strada Mircea cel Mare,515800,45.9572748,23.5603574
15,Strada Mircea cel Mare,515800,45.9571521,23.5603870
17,Strada Mircea cel Mare,515800,45.9570292,23.5605313
21,Strada Mircea cel Mare,515800,45.9567028,23.5604925
37,Strada Mircea cel Mare,515800,45.9564998,23.5604807
39,Strada Mircea cel Mare,515800,45.9563900,23.5604314
41,Strada Mircea cel Mare,515800,45.9562998,23.5604918
43,Strada Mircea cel Mare,515800,45.9561599,23.5604188
45,Strada Mircea cel Mare,515800,45.9560450,23.5603830
47,Strada Mircea cel Mare,515800,45.9558658,23.5603979
49,Strada Mircea cel Mare,515800,45.9557554,23.5603361
51,Strada Mircea cel Mare,515800,45.9556637,23.5603585
53,Strada Mircea cel Mare,515800,45.9555643,23.5603287
55,Strada Mircea cel Mare,515800,45.9554566,23.5602988
57,Strada Mircea cel Mare,515800,45.9553598,23.5603751
59,Strada Mircea cel Mare,515800,45.9551789,23.5602467
61,Strada Mircea cel Mare,515800,45.9550495,23.5602873
98,Strada Dorin Pavel,515800,45.9476609,23.5647198
100,Strada Dorin Pavel,515800,45.9475585,23.5646463
102,Strada Dorin Pavel,515800,45.9474372,23.5646225
104,Strada Dorin Pavel,515800,45.9473277,23.5645947
108,Strada Dorin Pavel,515800,45.9471655,23.5645502
110,Strada Dorin Pavel,515800,45.9470396,23.5644953
112,Strada Dorin Pavel,515800,45.9469172,23.5644230
114,Strada Dorin Pavel,515800,45.9467655,23.5643198
106,Strada Dorin Pavel,515800,45.9469716,23.5637152
120,Strada Dorin Pavel,515800,45.9463742,23.5642589
122,Strada Dorin Pavel,515800,45.9461000,23.5642019
124,Strada Dorin Pavel,515800,45.9459648,23.5641287
126,Strada Dorin Pavel,515800,45.9458393,23.5640548
128,Strada Dorin Pavel,515800,45.9455265,23.5640147
130,Strada Dorin Pavel,515800,45.9454030,23.5640309
132,Strada Dorin Pavel,515800,45.9452060,23.5639858
134,Strada Dorin Pavel,515800,45.9450401,23.5638731
136,Strada Dorin Pavel,515800,45.9449062,23.5638569
138,Strada Dorin Pavel,515800,45.9447907,23.5638025
97,Strada Dorin Pavel,515800,45.9451805,23.5644112
99,Strada Dorin Pavel,515800,45.9450717,23.5644427
101,Strada Dorin Pavel,515800,45.9449552,23.5644114
105,Strada Dorin Pavel,515800,45.9448846,23.5643941
107,Strada Dorin Pavel,515800,45.9447878,23.5643345
109,Strada Dorin Pavel,515800,45.9446847,23.5642990
111,Strada Dorin Pavel,515800,45.9445494,23.5643522
140,Strada Dorin Pavel,515800,45.9446881,23.5637641
142,Strada Dorin Pavel,515800,45.9445479,23.5637605
144,Strada Dorin Pavel,515800,45.9443894,23.5637111
146,Strada Dorin Pavel,515800,45.9440620,23.5635444
148,Strada Dorin Pavel,515800,45.9439132,23.5635216
150,Strada Dorin Pavel,515800,45.9437769,23.5634884
154,Strada Dorin Pavel,515800,45.9429564,23.5630393
2,Strada Viitorului,515800,45.9451196,23.5649019
4,Strada Viitorului,515800,45.9451142,23.5650207
6,Strada Viitorului,515800,45.9450858,23.5653053
103,Strada Dorin Pavel,515800,45.9449217,23.5647861
8,Strada Viitorului,515800,45.9450675,23.5654641
38,Strada Stejarului,515800,45.9450468,23.5655349
40,Strada Stejarului,515800,45.9448697,23.5655135
42,Strada Stejarului,515800,45.9447606,23.5654734
44,Strada Stejarului,515800,45.9446641,23.5654488
46,Strada Stejarului,515800,45.9445571,23.5654655
48,Strada Stejarului,515800,45.9444635,23.5653814
50,Strada Stejarului,515800,45.9443517,23.5654101
2,Strada Stejarului,515800,45.9488069,23.5665238
4,Strada Stejarului,515800,45.9486601,23.5664504
6,Strada Stejarului,515800,45.9485065,23.5664583
8,Strada Stejarului,515800,45.9483352,23.5664061
10,Strada Stejarului,515800,45.9481781,23.5663500
12,Strada Stejarului,515800,45.9480365,23.5663020
14,Strada Stejarului,515800,45.9478127,23.5660504
16,Strada Stejarului,515800,45.9476449,23.5661332
18,Strada Stejarului,515800,45.9473899,23.5660826
20,Strada Stejarului,515800,45.9472419,23.5659174
22,Strada Stejarului,515800,45.9468285,23.5659082
24,Strada Stejarului,515800,45.9467165,23.5658958
28,Strada Stejarului,515800,45.9464889,23.5657247
26,Strada Stejarului,515800,45.9465711,23.5657106
30,Strada Stejarului,515800,45.9463926,23.5656292
32,Strada Stejarului,515800,45.9460933,23.5657239
34,Strada Stejarului,515800,45.9459827,23.5656134
5,Strada Stejarului,515800,45.9473673,23.5664482
7,Strada Stejarului,515800,45.9465122,23.5662360
9,Strada Stejarului,515800,45.9463266,23.5662585
11,Strada Stejarului,515800,45.9462577,23.5661228
13,Strada Stejarului,515800,45.9460979,23.5660352
15,Strada Stejarului,515800,45.9459674,23.5660268
17,Strada Stejarului,515800,45.9458271,23.5660194
19,Strada Stejarului,515800,45.9455653,23.5660047
21,Strada Stejarului,515800,45.9453428,23.5660421
23,Strada Stejarului,515800,45.9451519,23.5659349
25,Strada Stejarului,515800,45.9450679,23.5658016
27,Strada Stejarului,515800,45.9449499,23.5657897
29,Strada Stejarului,515800,45.9448503,23.5657547
31,Strada Stejarului,515800,45.9447461,23.5657776
33,Strada Stejarului,515800,45.9446425,23.5657731
35,Strada Stejarului,515800,45.9445371,23.5657065
37,Strada Stejarului,515800,45.9444092,23.5657604
39,Strada Stejarului,515800,45.9442755,23.5658583
41,Strada Stejarului,515800,45.9440630,23.5657656
67,Strada Sava Henția,515800,45.9513755,23.5732396
69,Strada Sava Henția,515800,45.9512755,23.5732184
71,Strada Sava Henția,515800,45.9511371,23.5732081
73,Strada Sava Henția,515800,45.9510414,23.5731047
77,Strada Sava Henția,515800,45.9507974,23.5730686
79,Strada Sava Henția,515800,45.9506353,23.5731341
81,Strada Sava Henția,515800,45.9505742,23.5729990
83,Strada Sava Henția,515800,45.9504509,23.5729793
85,Strada Sava Henția,515800,45.9503261,23.5728770
87,Strada Sava Henția,515800,45.9502130,23.5729177
127,Strada Dorin Pavel,515800,45.9418336,23.5637299
129,Strada Dorin Pavel,515800,45.9416171,23.5637001
131,Strada Dorin Pavel,515800,45.9413279,23.5635839
12,Strada Aviator Olteanu,515800,45.9591118,23.5664217
14A,Strada Aviator Olteanu,515800,45.9593680,23.5665088
24,Strada Aviator Olteanu,515800,45.9604157,23.5668726
22,Strada Aviator Olteanu,515800,45.9602484,23.5667948
18,Strada Aviator Olteanu,515800,45.9600068,23.5667117
20,Strada Aviator Olteanu,515800,45.9600802,23.5667483
16,Strada Aviator Olteanu,515800,45.9598377,23.5667123
7,Strada Aviator Olteanu,515800,45.9595129,23.5662188
5,Strada Aviator Olteanu,515800,45.9593538,23.5660575
3,Strada Aviator Olteanu,515800,45.9592413,23.5660109
1A,Strada Aviator Olteanu,515800,45.9590459,23.5659032
1,Strada Aviator Olteanu,515800,45.9588055,23.5658204
44,Strada Aviator Olteanu,515800,45.9618380,23.5674318
26,Strada Aviator Olteanu,515800,45.9606902,23.5669688
30,Strada Aviator Olteanu,515800,45.9608237,23.5670898
32,Strada Aviator Olteanu,515800,45.9609365,23.5671501
34,Strada Aviator Olteanu,515800,45.9611622,23.5672123
36,Strada Aviator Olteanu,515800,45.9612954,23.5671929
38,Strada Aviator Olteanu,515800,45.9614291,23.5672949
40,Strada Aviator Olteanu,515800,45.9615613,23.5673019
42,Strada Aviator Olteanu,515800,45.9616807,23.5673775
1,Strada Progresului,515800,45.9620864,23.5676306
4,Strada Progresului,515800,45.9624565,23.5681148
9,Strada Aviator Olteanu,515800,45.9597361,23.5662228
11,Strada Aviator Olteanu,515800,45.9598460,23.5662243
35,Strada Aviator Olteanu,515800,45.9618995,23.5670692
37,Strada Aviator Olteanu,515800,45.9619824,23.5670262
33,Strada Aviator Olteanu,515800,45.9618624,23.5669934
31A,Strada Aviator Olteanu,515800,45.9617622,23.5670189
31,Strada Aviator Olteanu,515800,45.9616711,23.5669712
29,Strada Aviator Olteanu,515800,45.9615615,23.5669534
27,Strada Aviator Olteanu,515800,45.9614383,23.5668183
25,Strada Aviator Olteanu,515800,45.9613327,23.5667485
23,Strada Aviator Olteanu,515800,45.9611904,23.5666801
21,Strada Aviator Olteanu,515800,45.9610090,23.5666455
19,Strada Aviator Olteanu,515800,45.9608687,23.5665588
17,Strada Aviator Olteanu,515800,45.9607118,23.5665328
15,Strada Aviator Olteanu,515800,45.9603929,23.5663752
13,Strada Aviator Olteanu,515800,45.9600991,23.5662003
3,Strada Progresului,515800,45.9625279,23.5675536
7,Strada Progresului,515800,45.9629239,23.5678137
52,Strada Progresului,515800,45.9660978,23.5689257
50,Strada Progresului,515800,45.9659562,23.5688764
48,Strada Progresului,515800,45.9658741,23.5689244
44,Strada Progresului,515800,45.9654632,23.5691036
42,Strada Progresului,515800,45.9653393,23.5688225
40,Strada Progresului,515800,45.9651620,23.5688144
38,Strada Progresului,515800,45.9650814,23.5687400
36,Strada Progresului,515800,45.9649487,23.5687280
34,Strada Progresului,515800,45.9647941,23.5686489
32,Strada Progresului,515800,45.9646080,23.5689511
30,Strada Progresului,515800,45.9644807,23.5686494
28,Strada Progresului,515800,45.9643187,23.5686186
26,Strada Progresului,515800,45.9641711,23.5685934
6,Strada Progresului,515800,45.9626904,23.5684361
8,Strada Progresului,515800,45.9628078,23.5682494
12,Strada Progresului,515800,45.9631174,23.5683368
14,Strada Progresului,515800,45.9632746,23.5685870
16,Strada Progresului,515800,45.9634571,23.5684989
18,Strada Progresului,515800,45.9635737,23.5685333
20,Strada Progresului,515800,45.9638015,23.5685901
22,Strada Progresului,515800,45.9639708,23.5685510
24,Strada Progresului,515800,45.9639210,23.5687998
85,Strada Avram Iancu,515800,45.9662707,23.5718515
83,Strada Avram Iancu,515800,45.9661646,23.5717955
81,Strada Avram Iancu,515800,45.9660503,23.5718610
79,Strada Avram Iancu,515800,45.9659573,23.5718535
77,Strada Avram Iancu,515800,45.9658478,23.5718400
89,Strada Progresului,515800,45.9683009,23.5685300
87,Strada Progresului,515800,45.9682034,23.5685211
85,Strada Progresului,515800,45.9680912,23.5684924
83,Strada Progresului,515800,45.9679685,23.5685421
83A,Strada Progresului,515800,45.9678825,23.5685408
81,Strada Progresului,515800,45.9678038,23.5685446
79,Strada Progresului,515800,45.9677212,23.5684227
77,Strada Progresului,515800,45.9676484,23.5684676
73,Strada Progresului,515800,45.9674724,23.5684276
69,Strada Progresului,515800,45.9671965,23.5685069
67,Strada Progresului,515800,45.9670751,23.5684745
65,Strada Progresului,515800,45.9669577,23.5685524
63,Strada Progresului,515800,45.9668399,23.5685385
61,Strada Progresului,515800,45.9667131,23.5685182
59,Strada Progresului,515800,45.9665628,23.5685010
57,Strada Progresului,515800,45.9664131,23.5684940
116,Strada Mircea cel Mare,515800,45.9526589,23.5590471
114,Strada Mircea cel Mare,515800,45.9527690,23.5592561
112,Strada Mircea cel Mare,515800,45.9528728,23.5593263
110,Strada Mircea cel Mare,515800,45.9530327,23.5593766
108,Strada Mircea cel Mare,515800,45.9531266,23.5593772
106,Strada Mircea cel Mare,515800,45.9532631,23.5594840
104,Strada Mircea cel Mare,515800,45.9533429,23.5595461
102,Strada Mircea cel Mare,515800,45.9534912,23.5595867
100,Strada Mircea cel Mare,515800,45.9536118,23.5596816
96,Strada Mircea cel Mare,515800,45.9538744,23.5597606
94,Strada Mircea cel Mare,515800,45.9539851,23.5598290
92,Strada Mircea cel Mare,515800,45.9540848,23.5598668
90,Strada Mircea cel Mare,515800,45.9541822,23.5599051
88,Strada Mircea cel Mare,515800,45.9543247,23.5599345
86,Strada Mircea cel Mare,515800,45.9544444,23.5599470
84,Strada Mircea cel Mare,515800,45.9545653,23.5599960
82,Strada Mircea cel Mare,515800,45.9546665,23.5599803
80,Strada Mircea cel Mare,515800,45.9547848,23.5599317
78,Strada Mircea cel Mare,515800,45.9549022,23.5599577
76,Strada Mircea cel Mare,515800,45.9549991,23.5599582
72,Strada Mircea cel Mare,515800,45.9551859,23.5599318
70,Strada Mircea cel Mare,515800,45.9552700,23.5599379
68,Strada Mircea cel Mare,515800,45.9553845,23.5598744
64,Strada Mircea cel Mare,515800,45.9556051,23.5598950
62,Strada Mircea cel Mare,515800,45.9556982,23.5599413
60,Strada Mircea cel Mare,515800,45.9557870,23.5600379
56,Strada Mircea cel Mare,515800,45.9559851,23.5599509
52,Strada Mircea cel Mare,515800,45.9562093,23.5599247
54,Strada Mircea cel Mare,515800,45.9560851,23.5600264
50,Strada Mircea cel Mare,515800,45.9563265,23.5600851
48,Strada Mircea cel Mare,515800,45.9563919,23.5601176
46,Strada Mircea cel Mare,515800,45.9564811,23.5601408
42,Strada Mircea cel Mare,515800,45.9567586,23.5601825
40,Strada Mircea cel Mare,515800,45.9568743,23.5600705
38,Strada Mircea cel Mare,515800,45.9570042,23.5601155
36,Strada Mircea cel Mare,515800,45.9571385,23.5600753
34,Strada Mircea cel Mare,515800,45.9572517,23.5600293
63,Strada Mircea cel Mare,515800,45.9549464,23.5603380
65,Strada Mircea cel Mare,515800,45.9548500,23.5604094
66,Strada Mircea cel Mare,515800,45.9547314,23.5603231
69,Strada Mircea cel Mare,515800,45.9546251,23.5603380
71,Strada Mircea cel Mare,515800,45.9545206,23.5603521
73,Strada Mircea cel Mare,515800,45.9543581,23.5603402
75,Strada Mircea cel Mare,515800,45.9542823,23.5603179
77,Strada Mircea cel Mare,515800,45.9541968,23.5603425
79,Strada Mircea cel Mare,515800,45.9540860,23.5602270
97,Strada Mircea cel Mare,515800,45.9531075,23.5597429
83,Strada Mircea cel Mare,515800,45.9538850,23.5602449
87,Strada Mircea cel Mare,515800,45.9537253,23.5601574
89,Strada Mircea cel Mare,515800,45.9536566,23.5600645
91,Strada Mircea cel Mare,515800,45.9535682,23.5600645
93,Strada Mircea cel Mare,515800,45.9534005,23.5599731
99,Strada Mircea cel Mare,515800,45.9529107,23.5596921
118,Strada Mircea cel Mare,515800,45.9523814,23.5596781
120,Strada Mircea cel Mare,515800,45.9522874,23.5597522
122,Strada Mircea cel Mare,515800,45.9521536,23.5598156
124,Strada Mircea cel Mare,515800,45.9520052,23.5599070
55,Strada Progresului,515800,45.9661119,23.5682358
53,Strada Progresului,515800,45.9659987,23.5684250
51,Strada Progresului,515800,45.9658746,23.5684331
49,Strada Progresului,515800,45.9657413,23.5683889
47A,Strada Progresului,515800,45.9656227,23.5684331
47,Strada Progresului,515800,45.9655349,23.5684301
45,Strada Progresului,515800,45.9654775,23.5680578
43,Strada Progresului,515800,45.9653630,23.5683753
41,Strada Progresului,515800,45.9652509,23.5683963
41A,Strada Progresului,515800,45.9651425,23.5684019
39,Strada Progresului,515800,45.9650697,23.5683013
37,Strada Progresului,515800,45.9649804,23.5682645
35,Strada Progresului,515800,45.9648722,23.5682751
33,Strada Progresului,515800,45.9647678,23.5682867
31,Strada Progresului,515800,45.9646562,23.5681797
29,Strada Progresului,515800,45.9645503,23.5681964
27,Strada Progresului,515800,45.9644317,23.5682123
25,Strada Progresului,515800,45.9643270,23.5681905
23,Strada Progresului,515800,45.9641343,23.5681778
21,Strada Progresului,515800,45.9639737,23.5681281
19,Strada Progresului,515800,45.9638846,23.5680815
17,Strada Progresului,515800,45.9637967,23.5680623
15,Strada Progresului,515800,45.9637079,23.5680475
13,Strada Progresului,515800,45.9636351,23.5680446
11,Strada Progresului,515800,45.9635159,23.5679794
9,Strada Progresului,515800,45.9633523,23.5679861
7,Strada Traian,515800,45.9551180,23.5703542
15,Strada Anul 1907,515800,45.9624047,23.5642578
17,Strada Anul 1907,515800,45.9623028,23.5645102
13,Strada Anul 1907,515800,45.9625130,23.5640637
109,Strada Mircea cel Mare,515800,45.9522096,23.5601773
126,Strada Mircea cel Mare,515800,45.9517766,23.5599267
130,Strada Mircea cel Mare,515800,45.9516288,23.5599497
128,Strada Mircea cel Mare,515800,45.9517101,23.5599917
132,Strada Mircea cel Mare,515800,45.9514249,23.5599831
132A,Strada Mircea cel Mare,515800,45.9513029,23.5599898
103,Strada Mircea cel Mare,515800,45.9516591,23.5602426
105,Strada Mircea cel Mare,515800,45.9505981,23.5603442
8,Strada Alunului,515800,45.9485885,23.5687495
8,Strada Alunului,515800,45.9483464,23.5694659
9,Strada Alunului,515800,45.9485933,23.5703048
2,Bulevardul Lucian Blaga,515800,45.9547716,23.5783624
4,Bulevardul Lucian Blaga,515800,45.9544695,23.5786770
6,Bulevardul Lucian Blaga,515800,45.9542478,23.5789709
8A,Bulevardul Lucian Blaga,515800,45.9539482,23.5791895
1,Bulevardul Lucian Blaga,515800,45.9550311,23.5786547
3,Bulevardul Lucian Blaga,515800,45.9547566,23.5789178
2,Strada Viilor,515800,45.9548121,23.5792946
5,Bulevardul Lucian Blaga,515800,45.9544521,23.5792845
7,Bulevardul Lucian Blaga,515800,45.9543513,23.5792766
15,Strada Viilor,515800,45.9548304,23.5807855
1,Strada Viilor,515800,45.9552451,23.5792162
3,Strada Viilor,515800,45.9551557,23.5793720
5,Strada Viilor,515800,45.9550627,23.5796110
7,Strada Viilor,515800,45.9549893,23.5799985
9,Strada Viilor,515800,45.9548975,23.5801107
1,Strada Viilor,515800,45.9548012,23.5804792
11,Strada Viilor,515800,45.9548897,23.5802977
19,Strada Viilor,515800,45.9545920,23.5810466
2E,Strada Viilor,515800,45.9545631,23.5797932
2B,Strada Viilor,515800,45.9544204,23.5803190
9,Bulevardul Lucian Blaga,515800,45.9542272,23.5794525
6,Strada Viilor,515800,45.9540906,23.5812854
8,Strada Viilor,515800,45.9540011,23.5815126
10,Strada Viilor,515800,45.9539345,23.5817836
12,Strada Viilor,515800,45.9538389,23.5819479
14,Strada Viilor,515800,45.9537788,23.5821479
16,Strada Viilor,515800,45.9536635,23.5825421
25,Strada Viilor,515800,45.9545362,23.5816925
31,Strada Viilor,515800,45.9542419,23.5819733
35,Strada Viilor,515800,45.9541238,23.5823918
37,Strada Viilor,515800,45.9539898,23.5826694
37A,Strada Viilor,515800,45.9540054,23.5830271
39,Strada Viilor,515800,45.9537055,23.5834660
45,Strada Viilor,515800,45.9535475,23.5840273
47,Strada Viilor,515800,45.9535246,23.5841626
49,Strada Viilor,515800,45.9534572,23.5843902
43,Strada Viilor,515800,45.9535994,23.5838034
41,Strada Viilor,515800,45.9536292,23.5836992
51,Strada Viilor,515800,45.9534000,23.5844764
53,Strada Viilor,515800,45.9533415,23.5847076
55,Strada Viilor,515800,45.9533100,23.5848241
57,Strada Viilor,515800,45.9532616,23.5850586
59,Strada Viilor,515800,45.9532272,23.5851685
61,Strada Viilor,515800,45.9531640,23.5854127
63,Strada Viilor,515800,45.9531304,23.5855252
65,Strada Viilor,515800,45.9530516,23.5857290
67,Strada Viilor,515800,45.9530172,23.5858561
69,Strada Viilor,515800,45.9529251,23.5861786
71,Strada Viilor,515800,45.9528885,23.5863150
76,Strada Viilor,515800,45.9528594,23.5865443
20,Strada Viilor,515800,45.9534538,23.5830835
22,Strada Viilor,515800,45.9534610,23.5832477
25,Strada Viilor,515800,45.9533465,23.5833813
22,Strada Simion Bărnuțiu,515800,45.9531219,23.5835578
22A,Strada Simion Bărnuțiu,515800,45.9529997,23.5835796
20,Strada Simion Bărnuțiu,515800,45.9528892,23.5836197
20,Strada Simion Bărnuțiu,515800,45.9527962,23.5837382
18,Strada Simion Bărnuțiu,515800,45.9527279,23.5833012
16,Strada Simion Bărnuțiu,515800,45.9526521,23.5832363
14,Strada Simion Bărnuțiu,515800,45.9525678,23.5831326
12A,Strada Simion Bărnuțiu,515800,45.9524964,23.5830807
12,Strada Simion Bărnuțiu,515800,45.9524278,23.5830191
10,Strada Simion Bărnuțiu,515800,45.9523566,23.5829622
8,Strada Simion Bărnuțiu,515800,45.9522716,23.5828741
6,Strada Simion Bărnuțiu,515800,45.9521672,23.5827520
4,Strada Simion Bărnuțiu,515800,45.9516385,23.5823603
15,Strada Simion Bărnuțiu,515800,45.9531093,23.5832124
13,Strada Simion Bărnuțiu,515800,45.9529902,23.5830515
11,Strada Simion Bărnuțiu,515800,45.9528344,23.5829861
9,Strada Simion Bărnuțiu,515800,45.9527224,23.5828670
7,Strada Simion Bărnuțiu,515800,45.9524401,23.5825791
5,Strada Simion Bărnuțiu,515800,45.9522980,23.5825281
3,Strada Simion Bărnuțiu,515800,45.9521504,23.5823905
1,Strada Simion Bărnuțiu,515800,45.9520139,23.5822136
1B,Strada Simion Bărnuțiu,515800,45.9520570,23.5822545
29,Strada Viilor,515800,45.9543841,23.5819291
27,Strada Viilor,515800,45.9544020,23.5818570
7,Strada Răstocii,515800,45.9533481,23.5823805
5,Strada Răstocii,515800,45.9531312,23.5821494
3,Strada Răstocii,515800,45.9529940,23.5820025
6,Strada Răstocii,515800,45.9528842,23.5824037
4,Strada Răstocii,515800,45.9527744,23.5822577
2,Strada Răstocii,515800,45.9526435,23.5821295
1,Strada Răstocii,515800,45.9527567,23.5817319
2A,Strada Viilor,515800,45.9547632,23.5793907
37,Bulevardul Lucian Blaga,515800,45.9514336,23.5823943
39,Bulevardul Lucian Blaga,515800,45.9512765,23.5825184
41,Bulevardul Lucian Blaga,515800,45.9512169,23.5826568
43,Bulevardul Lucian Blaga,515800,45.9511646,23.5829088
1,Strada Aurel Vlaicu,515800,45.9518051,23.5814040
20,Bulevardul Lucian Blaga,515800,45.9515124,23.5817182
22,Bulevardul Lucian Blaga,515800,45.9513905,23.5818120
24,Bulevardul Lucian Blaga,515800,45.9512892,23.5819126
26,Bulevardul Lucian Blaga,515800,45.9512176,23.5820265
30,Bulevardul Lucian Blaga,515800,45.9509903,23.5822300
36,Bulevardul Lucian Blaga,515800,45.9507388,23.5824840
38,Bulevardul Lucian Blaga,515800,45.9506240,23.5826029
3,Strada Aurel Vlaicu,515800,45.9514655,23.5812149
5,Strada Aurel Vlaicu,515800,45.9513212,23.5812461
7,Strada Aurel Vlaicu,515800,45.9512354,23.5811774
9,Strada Aurel Vlaicu,515800,45.9510830,23.5811065
11,Strada Aurel Vlaicu,515800,45.9509443,23.5810179
17,Strada Aurel Vlaicu,515800,45.9505532,23.5808372
19,Strada Aurel Vlaicu,515800,45.9504401,23.5807747
29,Strada Aurel Vlaicu,515800,45.9498808,23.5805772
31,Strada Aurel Vlaicu,515800,45.9497651,23.5804891
1,Strada Răchitei,515800,45.9523972,23.5805809
1B,Strada Răchitei,515800,45.9521775,23.5805464
16,Bulevardul Lucian Blaga,515800,45.9522444,23.5809494
1E,Strada Răchitei,515800,45.9520301,23.5805602
3,Strada Răchitei,515800,45.9517975,23.5803570
5,Strada Răchitei,515800,45.9516265,23.5802553
7,Strada Răchitei,515800,45.9514854,23.5801703
9,Strada Răchitei,515800,45.9514051,23.5801127
11,Strada Răchitei,515800,45.9513001,23.5800743
13,Strada Răchitei,515800,45.9512223,23.5800089
15,Strada Răchitei,515800,45.9511418,23.5800653
17,Strada Răchitei,515800,45.9510732,23.5799746
19,Strada Răchitei,515800,45.9509918,23.5799131
19A,Strada Răchitei,515800,45.9509024,23.5798739
21,Strada Răchitei,515800,45.9507993,23.5799155
23,Strada Răchitei,515800,45.9506868,23.5799818
25,Strada Răchitei,515800,45.9506116,23.5799136
2,Strada Aurel Vlaicu,515800,45.9512650,23.5807165
4,Strada Aurel Vlaicu,515800,45.9509474,23.5805648
9,Strada Aurel Vlaicu,515800,45.9508213,23.5805122
27,Strada Răchitei,515800,45.9505477,23.5798051
29,Strada Răchitei,515800,45.9504859,23.5796476
31,Strada Răchitei,515800,45.9503205,23.5796153
8,Strada Aurel Vlaicu,515800,45.9505017,23.5804342
8A,Strada Aurel Vlaicu,515800,45.9502833,23.5802313
33,Strada Răchitei,515800,45.9500393,23.5794863
35,Strada Răchitei,515800,45.9498811,23.5793892
37,Strada Răchitei,515800,45.9497324,23.5793354
37A,Strada Răchitei,515800,45.9495579,23.5792720
41,Strada Răchitei,515800,45.9493826,23.5791804
43,Strada Răchitei,515800,45.9492130,23.5790956
45,Strada Răchitei,515800,45.9490476,23.5790256
47,Strada Răchitei,515800,45.9488822,23.5790412
49,Strada Răchitei,515800,45.9487813,23.5789342
35,Strada Aurel Vlaicu,515800,45.9494795,23.5804417
37,Strada Aurel Vlaicu,515800,45.9493696,23.5802982
41,Strada Aurel Vlaicu,515800,45.9490830,23.5802192
27,Strada Tudor Vladimirescu,515800,45.9505192,23.5756612
29,Strada Tudor Vladimirescu,515800,45.9504440,23.5755575
31,Strada Tudor Vladimirescu,515800,45.9503627,23.5755447
33,Strada Tudor Vladimirescu,515800,45.9502698,23.5754674
37,Strada Tudor Vladimirescu,515800,45.9500598,23.5753786
2,Strada Răchitei,515800,45.9521502,23.5800062
32,Bulevardul Lucian Blaga,515800,45.9508424,23.5823167
28,Bulevardul Lucian Blaga,515800,45.9510740,23.5821589
8,Bulevardul Lucian Blaga,515800,45.9539895,23.5791423
15,Bulevardul Lucian Blaga,515800,45.9531951,23.5806837
32,Strada Răchitei,515800,45.9503611,23.5792602
20,Strada Cântarului,515800,45.9514893,23.5783582
22,Strada Cântarului,515800,45.9514577,23.5785658
24,Strada Cântarului,515800,45.9514059,23.5787215
16,Strada Răchitei,515800,45.9511242,23.5796149
18,Strada Răchitei,515800,45.9510482,23.5795610
20,Strada Răchitei,515800,45.9509283,23.5795419
22,Strada Răchitei,515800,45.9508510,23.5794145
24,Strada Răchitei,515800,45.9507588,23.5793856
26,Strada Răchitei,515800,45.9506693,23.5793226
28,Strada Răchitei,515800,45.9505716,23.5793566
21,Strada Cântarului,515800,45.9516929,23.5787088
23,Strada Cântarului,515800,45.9516143,23.5788197
25,Strada Cântarului,515800,45.9515789,23.5789902
4,Strada Răchitei,515800,45.9519735,23.5799843
6,Strada Răchitei,515800,45.9518631,23.5799009
8,Strada Răchitei,515800,45.9517263,23.5798208
10,Strada Răchitei,515800,45.9516132,23.5797351
12,Strada Răchitei,515800,45.9514893,23.5797419
29,Strada Cântarului,515800,45.9515012,23.5792703
14,Strada Răchitei,515800,45.9513479,23.5796794
27,Strada Cântarului,515800,45.9515473,23.5791148
34,Strada Răchitei,515800,45.9500911,23.5791102
36,Strada Răchitei,515800,45.9499230,23.5789399
38,Strada Răchitei,515800,45.9497193,23.5789792
40,Strada Răchitei,515800,45.9496331,23.5788010
42,Strada Răchitei,515800,45.9494955,23.5788836
46,Strada Răchitei,515800,45.9487794,23.5785189
48,Strada Răchitei,515800,45.9485655,23.5785554
12,Strada Aurel Vlaicu,515800,45.9483019,23.5794188
14,Strada Aurel Vlaicu,515800,45.9480707,23.5791754
50,Strada Răchitei,515800,45.9479589,23.5788856
16,Strada Aurel Vlaicu,515800,45.9476116,23.5789544
18,Strada Aurel Vlaicu,515800,45.9474150,23.5789694
20,Strada Aurel Vlaicu,515800,45.9473228,23.5788834
180,Strada Dorin Pavel,515850,45.9381610,23.5620173
180A,Strada Dorin Pavel,515850,45.9380908,23.5619985
180B,Strada Dorin Pavel,515850,45.9380184,23.5619792
116,Strada Dorin Pavel,515800,45.9466281,23.5643544
118,Strada Dorin Pavel,515800,45.9465243,23.5643215
80,Strada Avram Iancu,515800,45.9662760,23.5722595
78,Strada Avram Iancu,515800,45.9661470,23.5723921
76,Strada Avram Iancu,515800,45.9660718,23.5723635
74,Strada Avram Iancu,515800,45.9659741,23.5723280
72,Strada Avram Iancu,515800,45.9658709,23.5722786
70,Strada Avram Iancu,515800,45.9657008,23.5723057
68,Strada Avram Iancu,515800,45.9655954,23.5724413
66,Strada Avram Iancu,515800,45.9654667,23.5723299
64,Strada Avram Iancu,515800,45.9653181,23.5722638
62,Strada Avram Iancu,515800,45.9651667,23.5722594
60,Strada Avram Iancu,515800,45.9650584,23.5723302
58,Strada Avram Iancu,515800,45.9649522,23.5722495
56,Strada Avram Iancu,515800,45.9648471,23.5726681
52,Strada Avram Iancu,515800,45.9646696,23.5722267
80,Strada Avram Iancu,515800,45.9645881,23.5723470
48,Strada Avram Iancu,515800,45.9644590,23.5722850
46,Strada Avram Iancu,515800,45.9643921,23.5723070
44,Strada Avram Iancu,515800,45.9643047,23.5722404
42,Strada Avram Iancu,515800,45.9641929,23.5722492
42A,Strada Avram Iancu,515800,45.9640980,23.5723693
40B,Strada Avram Iancu,515800,45.9640119,23.5722251
40A,Strada Avram Iancu,515800,45.9639131,23.5722341
40,Strada Avram Iancu,515800,45.9637996,23.5723892
38,Strada Avram Iancu,515800,45.9637094,23.5722471
36,Strada Avram Iancu,515800,45.9635987,23.5722064
34,Strada Avram Iancu,515800,45.9634270,23.5722099
32,Strada Avram Iancu,515800,45.9633340,23.5722021
30,Strada Avram Iancu,515800,45.9632439,23.5722206
28,Strada Avram Iancu,515800,45.9631494,23.5722256
26,Strada Avram Iancu,515800,45.9630625,23.5722070
24,Strada Avram Iancu,515800,45.9629678,23.5721966
22,Strada Avram Iancu,515800,45.9628704,23.5721981
20,Strada Avram Iancu,515800,45.9626808,23.5721928
18,Strada Avram Iancu,515800,45.9625980,23.5721924
16,Strada Avram Iancu,515800,45.9624896,23.5721947
14,Strada Avram Iancu,515800,45.9623804,23.5722964
12,Strada Avram Iancu,515800,45.9622875,23.5722036
10,Strada Avram Iancu,515800,45.9621370,23.5722085
8,Strada Avram Iancu,515800,45.9620767,23.5721880
6,Strada Avram Iancu,515800,45.9619766,23.5722288
4,Strada Avram Iancu,515800,45.9618798,23.5721137
2,Strada Avram Iancu,515800,45.9616879,23.5721219
75,Strada Avram Iancu,515800,45.9657637,23.5718360
3,Strada Avram Iancu,515800,45.9618741,23.5716994
5,Strada Avram Iancu,515800,45.9619559,23.5717401
7,Strada Avram Iancu,515800,45.9620878,23.5717345
9,Strada Avram Iancu,515800,45.9621888,23.5716914
11,Strada Avram Iancu,515800,45.9623033,23.5717971
13,Strada Avram Iancu,515800,45.9624813,23.5717191
15,Strada Avram Iancu,515800,45.9626298,23.5717187
17,Strada Avram Iancu,515800,45.9627251,23.5717123
19,Strada Avram Iancu,515800,45.9628251,23.5716519
23,Strada Avram Iancu,515800,45.9629947,23.5716966
25,Strada Avram Iancu,515800,45.9631278,23.5717609
73,Strada Avram Iancu,515800,45.9656695,23.5718119
71,Strada Avram Iancu,515800,45.9655702,23.5718539
69,Strada Avram Iancu,515800,45.9654703,23.5718046
67,Strada Avram Iancu,515800,45.9652822,23.5718323
65,Strada Avram Iancu,515800,45.9651772,23.5718366
63,Strada Avram Iancu,515800,45.9650872,23.5718174
61,Strada Avram Iancu,515800,45.9649836,23.5717853
59,Strada Avram Iancu,515800,45.9648672,23.5718160
57,Strada Avram Iancu,515800,45.9647791,23.5717715
55,Strada Avram Iancu,515800,45.9646841,23.5717182
53,Strada Avram Iancu,515800,45.9645795,23.5718011
51,Strada Avram Iancu,515800,45.9644796,23.5718389
49,Strada Avram Iancu,515800,45.9643995,23.5718034
47,Strada Avram Iancu,515800,45.9642871,23.5718002
45,Strada Avram Iancu,515800,45.9642183,23.5717144
43,Strada Avram Iancu,515800,45.9641069,23.5718083
41,Strada Avram Iancu,515800,45.9639691,23.5718004
39,Strada Avram Iancu,515800,45.9638855,23.5717958
37,Strada Avram Iancu,515800,45.9638035,23.5717543
35,Strada Avram Iancu,515800,45.9636961,23.5717694
33,Strada Avram Iancu,515800,45.9634961,23.5717545
35A,Strada Avram Iancu,515800,45.9635781,23.5715292
29,Strada Avram Iancu,515800,45.9632929,23.5717641
94,Strada Progresului,515800,45.9690845,23.5689785
92,Strada Progresului,515800,45.9689963,23.5688983
88,Strada Progresului,515800,45.9686781,23.5689255
86,Strada Progresului,515800,45.9684995,23.5689112
84,Strada Progresului,515800,45.9683316,23.5689196
82,Strada Progresului,515800,45.9682034,23.5690009
78,Strada Progresului,515800,45.9679914,23.5690117
76,Strada Progresului,515800,45.9678574,23.5689110
74,Strada Progresului,515800,45.9677308,23.5689461
72,Strada Progresului,515800,45.9676219,23.5690510
70,Strada Progresului,515800,45.9674542,23.5689303
68,Strada Progresului,515800,45.9673279,23.5689139
66,Strada Progresului,515800,45.9672039,23.5689727
64,Strada Progresului,515800,45.9670614,23.5689693
62,Strada Progresului,515800,45.9669127,23.5689732
58,Strada Progresului,515800,45.9666753,23.5689536
56,Strada Progresului,515800,45.9665547,23.5688977
54,Strada Progresului,515800,45.9663932,23.5689098
10,Strada Progresului,515800,45.9629848,23.5683553
28,Strada Aviator Olteanu,515800,45.9607620,23.5670189
2,Strada Ion Luca Caragiale,515800,45.9588548,23.5702364
4,Strada Ion Luca Caragiale,515800,45.9588643,23.5704326
6,Strada Ion Luca Caragiale,515800,45.9589120,23.5707235
8,Strada Ion Luca Caragiale,515800,45.9588706,23.5709985
10,Strada Ion Luca Caragiale,515800,45.9588363,23.5711670
12,Strada Ion Luca Caragiale,515800,45.9588004,23.5714147
1,Strada Patria,515800,45.9587104,23.5718095
3,Strada Ion Luca Caragiale,515800,45.9591342,23.5697086
1,Strada 24 Ianuarie,515800,45.9582228,23.5669399
2,Strada 24 Ianuarie,515800,45.9581998,23.5671155
6,Strada 24 Ianuarie,515800,45.9582262,23.5676510
7,Strada 24 Ianuarie,515800,45.9582183,23.5677685
15,Bulevardul Lucian Blaga,515800,45.9570507,23.5707385
35,Bulevardul Lucian Blaga,515800,45.9568896,23.5727538
37,Bulevardul Lucian Blaga,515800,45.9568746,23.5728425
36,Strada Sava Henția,515800,45.9525611,23.5733117
38,Strada Sava Henția,515800,45.9525101,23.5732890
28,Strada Radu Stanca,515800,45.9527541,23.5774130
38,Strada Tudor Vladimirescu,515800,45.9508998,23.5753422
40,Strada Tudor Vladimirescu,515800,45.9507825,23.5753083
42,Strada Tudor Vladimirescu,515800,45.9506597,23.5752617
44,Strada Tudor Vladimirescu,515800,45.9505352,23.5752204
56,Strada Tudor Vladimirescu,515800,45.9498739,23.5750023
14,Strada Spitalului,515800,45.9519097,23.5705577
12,Strada Spitalului,515800,45.9519133,23.5704402
34,Strada Spitalului,515800,45.9507832,23.5704010
36,Strada Spitalului,515800,45.9507848,23.5702791
5,Strada Traian,515800,45.9551694,23.5704802
24,Strada Aurel Vlaicu,515800,45.9471347,23.5788292
8A,Strada Aurel Vlaicu,515800,45.9503350,23.5802508
47,Strada Aurel Vlaicu,515800,45.9488628,23.5800767
53,Strada Aurel Vlaicu,515800,45.9483296,23.5800010
74,Strada Mircea cel Mare,515800,45.9550839,23.5599419
55,Strada Mihai Eminescu,515800,45.9555961,23.5633684
57,Strada Mihai Eminescu,515800,45.9556506,23.5633787
9,Strada Tineretului,515800,45.9543582,23.5643044
42A,Strada Ștefan cel Mare,515800,45.9613889,23.5624755
116,Strada Ștefan cel Mare,515800,45.9669090,23.5617772
188,Strada Ștefan cel Mare,515800,45.9669968,23.5616919
1,Strada Gării,515800,45.9602213,23.5763463
3,Strada Gării,515800,45.9601701,23.5764333
5,Strada Gării,515800,45.9601072,23.5765134
7,Strada Gării,515800,45.9600585,23.5766646
9,Strada Gării,515800,45.9600035,23.5767519
11,Strada Gării,515800,45.9598875,23.5767563
13,Strada Gării,515800,45.9598155,23.5768585
15,Strada Gării,515800,45.9597700,23.5770100
17,Strada Gării,515800,45.9596846,23.5770729
19,Strada Gării,515800,45.9595965,23.5771611
21A,Strada Gării,515800,45.9594921,23.5773019
21,Strada Gării,515800,45.9593672,23.5774223
21B,Strada Gării,515800,45.9592476,23.5775686
23,Strada Gării,515800,45.9591646,23.5776083
25,Strada Gării,515800,45.9590631,23.5777295
27,Strada Gării,515800,45.9589815,23.5778609
29,Strada Gării,515800,45.9588296,23.5779318
31,Strada Gării,515800,45.9587248,23.5780373
33,Strada Gării,515800,45.9586192,23.5780857
35,Strada Gării,515800,45.9585297,23.5781836
39,Strada Gării,515800,45.9583549,23.5783443
41,Strada Gării,515800,45.9581963,23.5785218
45,Strada Gării,515800,45.9579494,23.5786669
47,Strada Gării,515800,45.9579122,23.5787797
7,Strada Mărășești,515800,45.9582826,23.5762152
9,Strada Mărășești,515800,45.9582269,23.5763681
11,Strada Mărășești,515800,45.9581981,23.5765200
13,Strada Mărășești,515800,45.9582149,23.5767562
15,Strada Mărășești,515800,45.9581678,23.5768834
17,Strada Mărășești,515800,45.9580905,23.5770307
19,Strada Mărășești,515800,45.9580988,23.5771866
19A,Strada Mărășești,515800,45.9580813,23.5773129
21,Strada Mărășești,515800,45.9580141,23.5773389
23,Strada Mărășești,515800,45.9579780,23.5775266
25,Strada Mărășești,515800,45.9578856,23.5776481
27,Strada Mărășești,515800,45.9577825,23.5778103
29,Strada Mărășești,515800,45.9577541,23.5779524
31,Strada Mărășești,515800,45.9577251,23.5781082
33,Strada Mărășești,515800,45.9576205,23.5782197
2B,Strada Gării,515800,45.9600306,23.5760935
2C,Strada Gării,515800,45.9601028,23.5760569
2A,Strada Gării,515800,45.9598527,23.5763361
2,Strada Gării,515800,45.9598006,23.5764059
4,Strada Gării,515800,45.9597448,23.5765650
6,Strada Gării,515800,45.9596457,23.5766001
8,Strada Gării,515800,45.9595578,23.5766998
10,Strada Gării,515800,45.9594430,23.5768871
12,Strada Gării,515800,45.9593433,23.5769709
14,Strada Gării,515800,45.9591082,23.5772563
16,Strada Gării,515800,45.9589785,23.5773316
18,Strada Gării,515800,45.9588903,23.5774495
20,Strada Gării,515800,45.9587419,23.5775211
24,Strada Gării,515800,45.9585130,23.5777765
26,Strada Gării,515800,45.9584042,23.5778581
28,Strada Gării,515800,45.9583077,23.5780144
30,Strada Gării,515800,45.9581090,23.5780656
32,Strada Gării,515800,45.9580719,23.5782248
1A,Strada Gării,515800,45.9602755,23.5763069
43,Strada Gării,515800,45.9581331,23.5786062
12,Strada Mărășești,515800,45.9580213,23.5761561
120,Strada Ștefan cel Mare,515800,45.9671498,23.5617197
51,Strada Ștefan cel Mare,515800,45.9627926,23.5619356
54,Strada Avram Iancu,515800,45.9647408,23.5723161
