House number,Street name,Postal code,Latitude,Longitude
Lote 49,Avenida Andrés Quintana Roo,77500,21.1515871,-86.8475606
51,Calle Nichupté,77533,21.1399056,-86.8520844
41,Avenida Yaxchilán,77500,21.1627690,-86.8291804
Local 3,Avenida XelHa,77509,21.1610625,-86.8331611
260,Av. Tulúm,77500,21.1472099,-86.8238379
Manzana 10 Lote 28,Avenida XelHa,77509,21.1610110,-86.8353704
Manzana 1 Lote 1,Avenida Palenque,77505,21.1557080,-86.8341044
80,Av. Holbox,77500,21.1427700,-86.8270125
36,Calle Punta Conoco,77509,21.1635501,-86.8311401
20,Avenida Tulúm,77500,21.1597238,-86.8250958
69,Avenida Tankah,77509,21.1635212,-86.8344141
"KM 23,5",Boulevard Kukulcán,77500,21.1025850,-86.7656174
"Manzana 14, Lote 1-02",Avenida López Portillo,77525,21.1818013,-86.8104013
69 sm 25,Avenida Yaxchilán,"Benito Jurarez , 77500",21.1613516,-86.8293386
1,Avenida La Luna,77955,21.1432504,-86.8465375
18 y 20,Av. Uxmal,77500,21.1637318,-86.8226602
2,Calle Orquídeas,77500,21.1602434,-86.8286251
lte 64 biz,Boulevard Kukulcán,77500,21.0482154,-86.7827229
286,Avenida Tulúm,77504,21.1402721,-86.8246285
16.5 l-48,Boulevard Kukulcán,77500,21.0748861,-86.7758040
417 c,Av. Puerto Juarez (Talleres),77518,21.1592825,-86.8823761
"49,Quintana Roo","Av.La luna 285,Colonia Supermanzana",77533,21.1414180,-86.8468498
39,Av.Cancun,77507,21.1516186,-86.8471234
Manzana 1,Avenida Bonampack,77500,21.1463358,-86.8222632
3.5,Avenida Kukulcan,75500,21.1495220,-86.7932494
25,Avenida Sunyaxchen,77509,21.1621680,-86.8299882
22,Calle Margaritas,77500,21.1628350,-86.8273461
lote D7,Calle del Puerto,77500,21.1459516,-86.7885122
km 4.5,Boulevard Kukulkan,77500,21.1445116,-86.7879866
SM 5 Mz,Av. Nader,77500,21.1587961,-86.8240629
km 10.5,Boulevard Kukulcán,77500,21.1214254,-86.7563989
148,Av. Nader,77500,21.1570454,-86.8233425
1408,Calle 10,77500,21.1444227,-86.8671562
286,Avenida Tulúm,77504,21.1401897,-86.8244346
Lote 37,Amecueca 261,77533,21.1464663,-86.8494097
11,Piña,77059,21.1589223,-86.8299511
13.5,Boulevard Kukulcán,77500,21.0967640,-86.7689602
392,Libélula,77533,21.1392204,-86.8472787
51,Avenida Yaxchilán,77500,21.1635756,-86.8293151
Sm 2A Mz 04,Avenida Nader,77500,21.1653444,-86.8236386
39,Calle 4,77524,21.1724302,-86.8236036
Cancun International Airport,"Carretera Cancún-Chetumal Km. 22, Benito Juárez",77500,21.0431978,-86.8710112
Cancun International Airport,Carretera Cancún -Tulum Km 22,77565,21.0423977,-86.8719133
"Carretera Cancún-Chetumal, Km 22",Airport,77569,21.0390664,-86.8717609
6,Calle 53 Norte,77514,21.1648793,-86.8394509
No. 22 y 23,Avenida Yaxchilán,77509,21.1637364,-86.8296959
11,"Villas Playa Blanca SM 86, Gupy",77500,21.1928182,-86.8071240
11,Villas Playa Blanca Calle Gupy,77520,21.1927842,-86.8071249
KM14.1,Boulevard Kukulcán,77500,21.0934044,-86.7704864
Plaza Universidades,Carretera Cancun - Aeropuerto Kilometro 17,77500,21.1560058,-86.8224254
Unidad 24,Parque Logistico APQ,77569,21.0425751,-86.8544918
18,Calle 23,77524,21.1758118,-86.8213413
9,Boulevard Kukulcán,77500,21.1341645,-86.7494873
5,Avenida Palenque,77508,21.1616252,-86.8391529
2,Avenida Xcaret,77505,21.1565876,-86.8306753
lote 33,Calle Altavista,77533,21.1436634,-86.8492030
km 19.5,Boulevard Kukulcán,77500,21.0550820,-86.7816620
71-A,Avenida Labná,77500,21.1534855,-86.8290276
Local 220,Avenida Sayil,77500,21.1492315,-86.8200986
1208,Tlaquepaque,77506,21.1499328,-86.8488691
"SMZ 16, MZ 1, L 2",Avenida Kabah,77501,21.1400901,-86.8330100
28,Av. Nader,77500,21.1611645,-86.8250484
Aeropuerto KM13,Carr. Cancún - Tulum,77518,21.0346460,-86.8555988
"Sm 44, Mza 4, Lote 1",Calle Venus,77500,21.1513306,-86.8414664
Edificio V,Calle Guayaba,77539,21.1656220,-86.9254885
51,Puente El Zacatal 201,77533,21.1388155,-86.8406637
25,Avenida Nizuc,77505,21.1451616,-86.8339111
"La Luna, 505",Calle 54,77533,21.1337388,-86.8535578
814,Carr. Tulum - Cancún,77569,21.0447870,-86.8496975
"""Novo Cancún Torre 1” Mz 27 Lt 1-02 UC-20 UP-P Secc.",Avenida Bonampak,77500,21.1669201,-86.8041045
24,90 region 228,77516,21.1809231,-86.8560651
230,Riviera Maya,77516,21.1725407,-86.8577773
SM310 M109 L 4 BLVD. CUMBRES RESIDENCIAL Cumbres Residencial,Boulevard Cumbres,77560,21.1104224,-86.8411115
15,"Carretera Cancún Aeropuerto, Plaza Luxury,",77500,21.0393639,-86.8497233
22,"Aeropuerto Internacional de Cancún (CUN, Cancun - Chetumal KM",77565,21.0385641,-86.8690370
SM 228,Avenida Niños Héroes,77516,21.1751815,-86.8599430
Aeropuerto Internacional de Cancun,Carr. Cancún - Tulum 490-Piso 1,77565,21.0403052,-86.8766801
Sin Nombre,Avenida Nichupté 18-523,77533,21.1402868,-86.8528104
13,Calle Azucenas,77500,21.1628309,-86.8269034
KM 13,"Carretera Cancún - Tulum  Sergio Buitron Colosio, Alfredo V. Bonfil",77560,21.0409117,-86.8501135
2,"Aeropuerto Internacional de Cancún, Carr. Cancún - Tulum",77500,21.0414985,-86.8702351
22,"Carretera Cancún - Chetumal, Km",77500,21.0395075,-86.8746582
01 L3-02,"S2-1 LOCAL 1, MZ, Luis Donaldo Colosio SM-305",77560,21.0509502,-86.8491955
"Lote 9, local 3",Avenida Yaxchilán,77500,21.1602727,-86.8289677
Villas Tropical #82,"Retorno del Rey, Boulevard Kukulcan 14.5",77500,21.0921561,-86.7699738
74,Prolongación Avenida Bonampak,77526,21.1829139,-86.8193663
22,Avenida 20 de Noviembre,77527,21.1905216,-86.8268079
89,Calle 46 Poniente,77527,21.1816981,-86.8284239
16,Calle 60 Oriente,77524,21.1889334,-86.8209904
35,Paseo de Girasoles,77516,21.2023020,-86.8761656
43,Alcatraces,77500,21.1599819,-86.8272127
29,Avenida Palenque,77508,21.1630121,-86.8391630
Km. 12,Avenida Kukulcán,77500,21.1062110,-86.7634858
Smz 336 Mnz 9. Lote 3,Avenida Huayacan,77500,21.0957143,-86.8672383
lote 21,Calle Malva,77534,21.1315091,-86.8656584
35,Avenida Xcaret,77500,21.1566837,-86.8301256
5,Avenida Cobá,77500,21.1578020,-86.8264357
31,Avenida Yaxchilán,77508,21.1619554,-86.8290912
23,Calle Cedro,77500,21.1674599,-86.8273012
13,Quetzal,77500,21.1334204,-86.7573721
257,Avenida Huayacan,77500,21.1177289,-86.8459079
Mz 134 L 3,Calle 131,77535,21.1432143,-86.8751868
7,"Calle Jararte, Av Huayacán Manzana 341",77500,21.1068321,-86.8558278
SM 513 MZ 3 LOTE 1,Calle 121 Edificio Isla del Caribe Local 1 Planta baja,77535,21.1397075,-86.8699952
"KM 8, Lote 11",Quetzal,77500,21.1330637,-86.7573393
"MZ 43, Lote 9",Avenida Huayacan,77560,21.1083718,-86.8554579
13,Avenida XelHa,77509,21.1622646,-86.8350897
1,Calle Ixcún,77503,21.1581123,-86.8417697
Lote 3 E,Av. Bonampak Km 3 Mza 1,77500,21.1583138,-86.8206520
LT 04,AV. PASEO DEL FRESNO MZ 94 SMZA 313,77560,21.1273375,-86.8422093
Manzana 1,Avenida Bonampack,77500,21.1464538,-86.8218281
Manzana 4,Avenida Tulúm,77500,21.1458788,-86.8237363
Manzana 4,Avenida Tulúm,77500,21.1472202,-86.8241222
Manzana 4,Avenida Tulúm,77500,21.1480630,-86.8239677
8,Avenida Bonampak,77503,21.1470745,-86.8212328
Supermanzana 2 Manzana 1 Lote 29,Avenida Carlos Nader,77500,21.1651513,-86.8246039
27,Avenida Tulúm,77500,21.1549518,-86.8255377
Manzana 18 Lote 1-04,Avenida Nichupté,77533,21.1398036,-86.8540190
75,Avenida Tulúm,77500,21.1631505,-86.8262359
7,Avenida XelHa,77509,21.1605781,-86.8336991
308,Avenida Benito Juárez,77500,21.0811596,-86.8448611
55,Avenida Palenque,77508,21.1620501,-86.8390981
Lote 3,"Carretera Cancún - Puerto Morelos km 12.5, Manzana 06",77569,21.0641553,-86.8470280
"Lote 4 Y 5, Local SA 2, Oficina 5","Plaza Vivendi, Av. Nichupte, Supermanza 8, Manzana 1, Lote 4 Y 5",77500,21.1411113,-86.8536834
17.5,"Parque Logistico APQ, Carr. Tulum - Cancún km",77500,21.0429059,-86.8541816
"Manzana 4, Lote 1",Avenida Tulúm,77505,21.1446795,-86.8251764
Km. 17,Avenida Kukulcán,77500,21.0672405,-86.7785114
Lte 64,Boulevard Kukulcán,77500,21.0495702,-86.7824715
Mz 50 Lt 5-Km 9,Avenida Kukulcán,77500,21.1380149,-86.7488381
36,Retorno del Rey,77500,21.0932159,-86.7680630
Km 15.2 Lote 2,Boulevard Kukulcán,77500,21.0793453,-86.7730342
"Blvd. Kukulcán Km.17, Lote 52-04. Zona Hotelera",Avenida Kukulcán,77500,21.0688315,-86.7780022
"Blvd. Kukulcán Km.17, Lote 52-04. Zona Hotelera",Avenida Kukulcán,77500,21.0691436,-86.7788680
"km 8.5, Manzana 50, Lote 4",Boulevard Kukulcán,77500,21.1388799,-86.7502891
"Km. 5,5",Avenida Kukulcán,77500,21.1429939,-86.7747063
24,Avenida Kabah,77500,21.1484022,-86.8355400
21,Av Rodrigo Gomez Mz 4,77505,21.1488501,-86.8361877
"368C+H7, km 17",Avenida Kukulcán,77500,21.0676016,-86.7779178
5,Avenida Tulúm,77500,21.1614293,-86.8247076
Km. 8.5,Boulevard Kukulcán,77500,21.1360619,-86.7537212
15.3,Boulevard Kukulcán,77500,21.0841553,-86.7748454
Super Manzana 5 Manzana 8 Lote 2,Avenida Carlos J. Nader,77500,21.1627275,-86.8243047
316,Avenida López Portillo,77500,21.1684312,-86.8376161
Manzana 4,Avenida Tulúm,77500,21.1465361,-86.8231763
"Km 5,5 Lote 6-C",Avenida Kukulcán,77500,21.1416246,-86.7725678
7,Ocosingo,77506,21.1434485,-86.8446314
"km 7,5",Boulevard Kukulcán,77500,21.1356094,-86.7547767
Manzana 5 Lote 6,Avenida José López Portillo,77520,21.1837025,-86.8073491
73,Avenida Bonampak,77500,21.1568638,-86.8215426
Km 16.5,"Boulevard Kukulkán,",77500,21.0719369,-86.7786388
Manzana 1 Lote 1-A,Avenida Bonampak,77500,21.1549310,-86.8207431
"Calle 143, 102, 77538 Cancún, Q.R.",calle 143,77538,21.1484000,-86.8824374
"102, 77538 Cancún, Q.R.",Calle 20 poniente,77538,21.1484639,-86.8817485
"Calle 20, 102, 77538 Cancún, Q.R.",Calle 20 poniente,77538,21.1485493,-86.8815719
"Av. Jose Lopez Portillo Mz 60 Lt3-5, Col. Benito Juarez, 102, 77538 Cancún, Q.R.",Avenida Lopez Portillo,77538,21.1476051,-86.8809098
"Av. López Portillo, Región 102, Benito Juárez, 77538 Cancún, Q.R.",Avenida Lopez Portillo,77538,21.1475099,-86.8810262
"Paseo López Portillo Mza 60 Lte 9 y 10, Región 102, 102, 77538 Cancún, Q.R.",Avenida Lopez Portillo,77538,21.1474289,-86.8811397
"Av. López Portillo, REGION 102, Benito Juárez, 77538 Cancún, Q.R.",Avenida Lopez Portillo,77538,21.1471335,-86.8817389
"Av. López Portillo Mz 61, 102, 77538 Cancún, Q.R.",Avenida Lopez Portillo,77538,21.1470188,-86.8819870
OUTLET MUEBLES HOGAR CANCUN,Avenida Lopez Portillo,77538,21.1469458,-86.8821588
"Calle 141 Nte., Región 102, Benito Juárez, 77538 Cancún, Q.R.",CALLE 141,77538,21.1491141,-86.8813763
1408,Calle 10,77500,21.1443222,-86.8671494
Mza 14 SM 4 Lote 2,Avenida Tulúm,77500,21.1519331,-86.8242546
"Manzana 14, Lote 1-02",Avenida López Portillo,77525,21.1816759,-86.8088606
Smza. 22 Manzana 28 Lote 1,Margaritas,77500,21.1612073,-86.8275987
67,Calle Venado,77500,21.1548088,-86.8283674
227,Avenida Tulúm,77500,21.1509862,-86.8254323
"SMZ 16, MZ 1, L 2",Avenida Kabah,77501,21.1399925,-86.8330127
SM 311,Boulevard Luis Donaldo Colosio,77560,21.1158747,-86.8382238
77,Avenida 20 de Noviembre,77258,21.1920028,-86.8264373
15,Jardines de la Costa,77528,21.1987908,-86.8195539
154,Avenida Bonampak,77500,21.1579171,-86.8206948
Manzana 2 Lote 1,Carretera Chetumal- Cancún,77565,21.0613740,-86.8442838
24,Calle 90 Region 228,77516,21.1808332,-86.8560129
1712,av niños heroes r. 216,77518,21.1685114,-86.8730937
17,Calle Nube,77500,21.1543086,-86.8219429
"Supermanzana 4 Manzana 1 A, Centro",Avenida Sayil,77500,21.1502586,-86.8197896
83,Xel ha,77509,21.1600326,-86.8343642
371,Avenida Bonampak,77528,21.1320957,-86.8262000
Manzana 12 Lote 1-03,Avenida López Portillo,77525,21.1772558,-86.8074941
1581,Av Leona Vicario,77539,21.1535617,-86.8992215
Manzana 12,Avenida López Portillo,77525,21.1786531,-86.8074305
Manzana 12,Avenida López Portillo,77525,21.1780834,-86.8072523
Lote 1-01,Avenida Bonampak,77500,21.1596119,-86.8197395
Manzana 8,Avenida Tulúm,77500,21.1517928,-86.8255181
24,Calle Pargo,77500,21.1608676,-86.8225223
14,Calle Mojarra,77500,21.1590453,-86.8224700
Manzana 2 Lote 5,Avenida Bonampak,77503,21.1336067,-86.8252942
Manzana 2 Lote 6-04,Avenida Bonampak,77503,21.1350640,-86.8251460
Manzana 01 Lote 1-22,Carretera Cancún - Puerto Morelos,77506,20.9875955,-86.8622315
Manzana 1 Lote 1-22,Carretera Cancún - Puerto Morelos,77506,20.9885601,-86.8620439
"Manzana 1, Lote 8",Avenida 16 de Abril,77503,21.1254559,-86.8302625
"Manzana 1, Lote 8",Avenida 16 de Abril,77503,21.1255836,-86.8297213
"Manzana 1, Lote 8",Avenida 16 de Abril,77503,21.1250000,-86.8300247
"Manzana 1, Lote 8",16 de Abril,77503,21.1254892,-86.8302969
Manzana 6 Lote 1-03,Boulevard Luis Donaldo Colosio,77560,21.0861856,-86.8408759
Manzana 04 Lote 1-03,Boulevard Luis Donaldo Colosio,77569,21.1038460,-86.8377300
Km. 25,Boulevard Kukulkan,77500,21.0237682,-86.8146132
SM51,Avenida Nichupté,77533,21.1414418,-86.8432002
2,Avenida Nichupté,77500,21.1420704,-86.8416753
2,Avenida Nichupté,77500,21.1420766,-86.8414786
Mz52,Avenida Kukulcán,77500,21.1142927,-86.7586735
Km 8.5-Km. 9 Lotes 9 y 9A,Avenida Kukulcán,77500,21.1339517,-86.7449979
"km 8,5",Avenida Kukulcán,77500,21.1346043,-86.7431317
"Manzana 14, Lote 1-02",Avenida López Portillo,77525,21.1807029,-86.8089534
Manzana 1,Avenida Bonampack,77500,21.1465769,-86.8221325
Km. 307,Carretera Reforma Agraria - Puerto Juárez,77580,20.9943836,-86.8625482
Km. 307,Carretera Reforma Agraria - Puerto Juárez,77580,20.9943836,-86.8625482
