House number,Street name,Postal code,Latitude,Longitude
9900,Poplar Tent Road,28027,35.4187948,-80.7427685
130,Gateway Lane Northwest,28027,35.3666608,-80.7094175
7751,Gateway Lane,28027,35.3669940,-80.7102208
1081,Ivey Cline Road,28027,35.4001865,-80.7006136
10050,Edison Square Drive Northwest,28027,35.4022528,-80.7598408
3775,Concord Parkway South,28027,35.3682547,-80.6649977
9301,Aviation Boulevard,28027,35.3888030,-80.7123690
9,Union Street North,28025,35.4107029,-80.5817025
30,Corban Avenue Southeast,28025,35.4093208,-80.5780352
296,Concord Parkway North,28027,35.4033854,-80.6089280
8455,Pit Stop Court,28027,35.3745711,-80.7254960
5945,Concord Parkway South,28027,35.3477650,-80.6918828
4550,Davidson Highway,28027,35.4353563,-80.6533563
150,Concord Commons Pl SW,28027,35.3892879,-80.6227317
660,Concord Parkway North,28027,35.4177810,-80.6128668
7751,Gateway Lane,28027,35.3670712,-80.7101369
3905,Concord Parkway South,28027,35.3666080,-80.6659680
2420,Supercenter Drive Northeast,28083,35.4626100,-80.5947120
184,Academy Ave NW,28027,35.4130935,-80.5955255
1307,Old Charlotte Road SW,28027,35.3688306,-80.5967663
34,Union Street South,28025,35.4097928,-80.5807970
4011,Dearborn Place Northwest,28027,35.3673314,-80.6709145
3815,Concord Parkway South,28027,35.3680599,-80.6662674
3985,Concord Parkway South,28027,35.3662920,-80.6672182
3805,Concord Parkway South,28027,35.3673422,-80.6656508
3805,Concord Parkway South,28027,35.3678628,-80.6652162
219,Branchview Drive Northeast,28025,35.4238050,-80.5775201
10030,Edison Square Dr NW,28027,35.4028533,-80.7589925
7741,Gateway Lane,28027,35.3665991,-80.7093445
8532,Pit Stop Court,28027,35.3731450,-80.7222365
5710,Concord Parkway South,28027,35.3500703,-80.6908456
744,Cabarrus Avenue West,28027,35.3972671,-80.6090995
475,Concord Parkway North,28027,35.4093786,-80.6118152
1094,Concord Parkway North,28027,35.4292939,-80.6087534
1511,Highway 29 North,28025,35.4399197,-80.6075490
74,Union Street South,28025,35.4089945,-80.5799387
8455,Pit Stop Court,28027,35.3746490,-80.7257909
7295,Westwinds Boulevard Northwest,28027,35.3889100,-80.7228398
227,Highland Avenue Southwest,28027,35.3839954,-80.6016499
229,Highland Avenue Southwest,28027,35.3840330,-80.6017433
249,Linden Avenue Southwest,28027,35.3828903,-80.6015919
450,Pitts School Road Northwest,28027,35.3851028,-80.6887999
391,George W Liles Parkway,28027,35.4163093,-80.6696594
3699,Concord Parkway South,28027,35.3700636,-80.6647856
1421,Concord Parkway North,28025,35.4372236,-80.6055822
185,George W. Liles Parkway,28027,35.3961135,-80.6592837
280,Highway 29 South,28027,35.3984982,-80.6113640
475,Concord Parkway North,28027,35.4092923,-80.6120646
541,Warren Coleman Boulevard,28025,35.3833353,-80.5829083
541,Warren Coleman Boulevard,28025,35.3832259,-80.5830968
9,Union Street North,28025,35.4106360,-80.5816143
4,Union Street North,28025,35.4106812,-80.5813471
76,Union Street South,28025,35.4089644,-80.5800585
80,Union Street South,28025,35.4088794,-80.5796348
25,Market Street Southwest,28025,35.4096393,-80.5810993
400,McGill Avenue Northwest,28027,35.4159707,-80.6075639
1045,Union Street South,28025,35.3857351,-80.5531702
7630,Hendrick Auto Plaza Northwest,28027,35.3617124,-80.7045897
1463,Concord Parkway North,28025,35.4380029,-80.6056084
90,Union Street South,28025,35.4087032,-80.5795330
292,Church Street North,28025,35.4187363,-80.5884526
433,Church Street North,28025,35.4225413,-80.5918151
518,Todd Drive Northeast,28025,35.4246783,-80.5935464
244,Betsy Carpenter Southwest Place,28025,35.3724337,-80.5625683
591,Warren C. Coleman Boulevard,28025,35.3831683,-80.5810234
585,Highway 601 Bypass South,28025,35.3832844,-80.5813220
10020,Edison Square Drive,28027,35.4024764,-80.7586011
3775,Concord Parkway South,28027,35.3680706,-80.6650086
3105,Patrick Henry Drive Northwest,28027,35.4344840,-80.6324999
3105,Patrick Henry Drive Northwest,28027,35.4346679,-80.6325353
25,Union Street North,28025,35.4106753,-80.5820269
4124,Margate Street Southwest,28025,35.3606384,-80.5621476
145,Pitts School Road Southwest,28027,35.3681377,-80.6621691
2900,Derita Road,28027,35.3776938,-80.7311598
9900,Poplar Tent Road,28027,35.4193196,-80.7430464
9900,Poplar Tent Road,28027,35.4195329,-80.7429711
5015,Weddington Road,28027,35.3962040,-80.6612710
706,Georgetown Drive Northwest,28027,35.4102630,-80.6568336
8074,Concord Mills Boulevard,28027-4417,35.3726645,-80.7145216
2421,Supercenter Drive Northeast,28083,35.4629064,-80.5904045
25,Barbrick Avenue Southwest,28025,35.4087585,-80.5803273
338,Lawndale Avenue Southeast,28025,35.3990287,-80.5586343
362,Georgia Street Southwest,28025,35.3938426,-80.5836738
5303,Poplar Tent Road,28027,35.4108414,-80.6667222
6570,Bruton Smith Boulevard,28027,35.3620017,-80.6858677
5555,Concord Pkwy S,28027,35.3609103,-80.6872175
5115,Morehead Road,28027,35.3467216,-80.6795014
5400,John Q Hammons Drive Northwest,28027,35.3652831,-80.7015429
6900,Bruton Smith Boulevard,28027,35.3663058,-80.6909435
120,Country Club Drive Northeast,28025,35.4428263,-80.6037973
211,LePhillip Ct NE,28025,35.4427180,-80.5977585
1490,Highway 29,28027,35.4396665,-80.6058848
1508,Concord Parkway North,28025,35.4403571,-80.6067549
1489,Concord Parkway North,28025,35.4387651,-80.6065562
6044,Copperfield Boulevard Northeast,28205,35.4471528,-80.5986697
840,Derita Road,28027,35.4020075,-80.7159245
8670,Concord Mills Boulevard,28027,35.3759964,-80.7276433
16,Union Street North,28025,35.4100713,-80.5811202
14,Union Street North,28025,35.4101118,-80.5812118
12,Union Street North,28025,35.4101598,-80.5812639
61,Union Street South,28025,35.4094897,-80.5789965
65,Union Street South,28025,35.4095412,-80.5794622
27,Union Street North,28025-4793,35.4108449,-80.5822864
1,Union Street South,28025,35.4106268,-80.5810259
11,Union Street South,28025,35.4105327,-80.5806999
21,Union Street South,28025,35.4103193,-80.5806999
11,Cabarrus Avenue East,28025,35.4108607,-80.5811408
42,Union Street North,28025,35.4095462,-80.5807822
29,Cabarrus Avenue East,28025,35.4114055,-80.5805965
3,Union Street South,28025,35.4105638,-80.5809724
29,Union Street South,28025,35.4101385,-80.5805453
25,Union Street South,28025,35.4102835,-80.5805117
31,Union Street South,28025,35.4101260,-80.5804352
23,Union Street North,28025,35.4106782,-80.5820303
1,Union Street North,28025,35.4105099,-80.5816095
21,Union Street North,28025,35.4107178,-80.5818138
30,Union Street North,28025,35.4097644,-80.5809369
14,Union Street North,28025,35.4108728,-80.5813854
48,Union Street North,28025,35.4094333,-80.5804605
1020,Ivey Cline Rd,28027,35.4022685,-80.7018930
220,George W Liles Parkway,28027,35.4019861,-80.6576241
358,George West Liles Parkway Northwest,28027,35.4121702,-80.6632705
65,Church Street Southeast,28025,35.4101729,-80.5781553
41,Cabarrus Avenue West,28025,35.4094667,-80.5821886
34,Church Street Southeast,28025,35.4103420,-80.5793921
66,McCachern Boulevard Southeast,28025,35.4104690,-80.5777435
8054,Concord Mills Boulevard,28027,35.3725999,-80.7168546
8052,Concord Mills Boulevard,28027,35.3726300,-80.7162453
8030,Concord Mills Boulevard,28027,35.3721812,-80.7186440
6841,Poplar Tent Road,28027,35.4028310,-80.6911402
133,Stonecrest Circle Southwest,28027,35.3662889,-80.5935008
274,Concord Parkway South,28027,35.3970555,-80.6105500
505,Highway 49 S,28025,35.3624352,-80.5824290
8058,Concord Mills Boulevard,28027,35.3726857,-80.7157088
8070,Concord Mills Boulevard,28027,35.3727143,-80.7147906
8088,Concord Mills Boulevard,28027,35.3721798,-80.7130511
8034,Concord Mills Boulevard,28027,35.3722467,-80.7182694
325,Mcgill Ave NW,28027,35.4130435,-80.6022534
8020,Concord Mills Boulevard,28027,35.3717323,-80.7175161
7811,Gateway Lane NorthWest,28027,35.3696432,-80.7115231
7740,Bruton Smith Boulevard,28027,35.3657899,-80.7101275
7712,Sossaman Lane Northwest,28027,35.3649258,-80.7088078
7720,Sossoman Lane Northwest,28027,35.3650431,-80.7092129
7725,Sossaman Lane Northwest,28027,35.3640047,-80.7099136
7779,Lyles Lane Northwest,28027,35.3654849,-80.7120424
8041,Concord Mills Boulevard,28027,35.3704879,-80.7183198
8520,Pit Stop Court,28027,35.3736603,-80.7230749
8524,Pit Stop Court,28027,35.3735231,-80.7226424
8480,Pit Stop Court,28027,35.3751132,-80.7242160
8415,Pit Stop Court,28027,35.3747602,-80.7268572
7601,Scott Padgett Parkway,28027,35.3642295,-80.7033287
7701,Gateway Lane Northwest,28027,35.3653860,-80.7075962
7731,Gateway Court,28027,35.3660947,-80.7084996
7761,Gateway Lane Northwest,28027,35.3673394,-80.7106814
7772,Gateway Lane NorthWest,28027,35.3684062,-80.7104912
7800,Gateway Lane,28027,35.3688891,-80.7107320
9850,Weddington Road Extension,28027,35.3692600,-80.7095006
7821,Gateway Lane,28027,35.3703001,-80.7108532
7831,Gateway Lane,28027,35.3706086,-80.7099507
7841,Gateway Lane NorthWest,28027,35.3701606,-80.7091709
4751,NC Highway 49,28025,35.3894184,-80.5015006
150,Concord Commons Place;Concord Commons Place Southwest,28027,35.3889463,-80.6228603
5454,Rocky River Road,28025,35.3420180,-80.5980856
3247,Weddington Road Northwest,28027,35.3956774,-80.6330615
4501,Weddington Road Northwest,28027,35.3907111,-80.6492714
4401,Weddington Road Northwest,28027,35.3950552,-80.6490369
1215,Moss Farm Street Northwest,28027,35.4276415,-80.7384600
6340,Poplar Tent Road,28027,35.4030571,-80.7002662
920,Church Street North,28025,35.4374993,-80.6019844
1245,Concord Parkway North,28025,35.4327033,-80.6059520
70,Union Street North,28025,35.4126947,-80.5828853
2291,Spider Drive Northeast,28083,35.4653798,-80.5897577
2401,Wonder Drive,28083,35.4657854,-80.5889514
2431,Wonder Drive,28083,35.4651408,-80.5885502
2491,Wonder Drive Northeast,28083,35.4639275,-80.5892027
8581,Concord Mills Boulevard,28027,35.3731907,-80.7249712
5825,Thunder Road,28027,35.3786504,-80.7248112
7201,Scott Padgett Parkway,28027,35.3633148,-80.7032308
7425,"Zephyr Place, NW",28027,35.3806029,-80.7146456
9000,Aviation Blvd,28027,35.3856008,-80.7124540
7435,Zephyr Pl. NW,28027,35.3804394,-80.7138163
9101,Aviation Boulevard Northwest,28027,35.3865755,-80.7131771
231,Linden Avenue Southwest,28027,35.3826240,-80.6007547
227,Linden Avenue Southwest,28027,35.3825495,-80.6006005
261,Linden Avenue Southwest,28027,35.3830519,-80.6021037
116,Poplar Street Southwest,28027,35.3836712,-80.6013512
307,Highland Avenue Southwest,28027,35.3843780,-80.6025308
220,Highland Avenue Southwest,28027,35.3840646,-80.6020372
391,Union Street South,28025,35.4008041,-80.5708212
391,Union Street South,28025,35.4007746,-80.5711358
36,Spring Street Southwest,28025,35.4082971,-80.5816242
8475,Pit Stop Court Northwest,28027,35.3743610,-80.7250883
1161,Sandy Bottom Drive Northwest,28027,35.4275868,-80.7563702
112,Poplar Street Southwest,28027,35.3838557,-80.6012495
305,Highland Avenue Southwest,28027,35.3842937,-80.6023699
301,Highland Avenue Southwest,28027,35.3842263,-80.6021798
306,Highland Avenue Southwest,28027,35.3843629,-80.6016000
308,Highland Avenue Southwest,28027,35.3844565,-80.6018308
3520,Coventry Commons Ave SW,28027,35.3707323,-80.6591749
3635,Coventry Commons Ave,28027,35.3691628,-80.6598546
3540,Coventry Commons SW,28027,35.3708680,-80.6597922
3605,Coventry Commons SW,28027,35.3701237,-80.6599417
3590,Coventry Commons SW,28027,35.3701340,-80.6606586
120,Upper Cape St SW,28027,35.3692659,-80.6620568
140,Upper Cape St SW,28027,35.3688727,-80.6616654
160,Upper Cape St SW,28027,35.3685896,-80.6611801
3515,Coventry Commons SW,28027,35.3702196,-80.6592491
195,Mid Cape St SW,28027,35.3698728,-80.6593544
190,Mid Cape St SW,28027,35.3694448,-80.6595905
225,Lower Cape Dr SW,28027,35.3690505,-80.6594626
195,Lower Cape Dr SW,28027,35.3688317,-80.6599351
3535,Coventry Commons SW,28027,35.3703796,-80.6596094
235,Lower Cape Dr SW,28027,35.3694607,-80.6592440
15,Market Street Southwest,28025,35.4099407,-80.5814340
3025,Dale Earnhardt Boulevard,28083,35.4693478,-80.5870528
3770,Concord Parkway South,28027,35.3693206,-80.6665191
290,Concord Parkway South,28027,35.3960685,-80.6121533
278,Concord Parkway South,28027,35.3963625,-80.6119101
258,Concord Parkway,28027,35.4002596,-80.6090442
258,Concord Parkway,28027,35.4005875,-80.6090673
260,State Highway 29 South,28027-6700,35.3993173,-80.6091172
455,Concord Parkway North,28027-6705,35.4086135,-80.6119296
940,Concord Parkway North,28027,35.4257139,-80.6125244
1260,Concord Parkway North,28025,35.4327958,-80.6035911
1475,Concord Parkway North,28025,35.4382911,-80.6058484
1485,Concord Parkway North,28025,35.4385197,-80.6062462
1544,Concord Parkway North,28025,35.4417421,-80.6076374
1365,Concord Parkway North,28025,35.4359474,-80.6046761
1389,Concord Parkway North,28025,35.4365954,-80.6052160
1295,Concord Parkway North,28025,35.4339077,-80.6041460
845,Church Street North,28025,35.4324359,-80.6029113
1516,Concord Parkway North,28025,35.4408654,-80.6063124
1516,Concord Parkway North,28025,35.4411932,-80.6065135
111,Union Street South,28025,35.4085291,-80.5786799
57,Union Street South,28025,35.4096871,-80.5799191
4995,Weddington Road Northwest,28027,35.3957452,-80.6597997
351,Copperfield Boulevard Northeast,28205,35.4468261,-80.5991940
349-L,Copperfield Blvd NE,28025,35.4480431,-80.5996356
349,Copperfield Boulevard Northeast,28205,35.4483887,-80.5988933
270,Copperfield Boulevard Northeast,28025,35.4457148,-80.5991243
51,Tala Drive Southwest,28027,35.3598767,-80.6346420
7285,Westwinds Boulevard Northwest,28027,35.3881382,-80.7231909
7075-A,Aviation Boulevard Northwest,28027,35.3872972,-80.7172399
7810,Lyles Lane Northwest,28027,35.3668818,-80.7122978
222,Cabarrus Avenue West,28025,35.4059816,-80.5881622
228,Cabarrus Avenue West,28025,35.4058554,-80.5882811
8955,Weddington Road,28027,35.3723237,-80.7041531
8695,Weddington Road,28027,35.3733120,-80.7028589
424,Riverglen Drive Northwest,28027,35.3802907,-80.6882610
2725,Clover Road Northwest,28027,35.3770150,-80.6854476
5325,Langford Ave NW,28027,35.4159767,-80.6705182
5345,Vining Street Northwest,28027,35.4153868,-80.6698975
355,John Galt Way NW,28027,35.4152135,-80.6704151
383,George W Liles Parkway,28027,35.4146389,-80.6684394
383,George W Liles Parkway,28027,35.4148083,-80.6681071
374,George W Liles Parkway,28027,35.4140402,-80.6665001
5230,Poplar Tent Road,28027,35.4135075,-80.6662291
368,George W Liles Parkway,28027,35.4116114,-80.6649434
2711,Fishermans Drive Northwest,28027,35.3795248,-80.6875323
2711,Fishermans Drive Northwest,28027,35.3793882,-80.6876870
145,Cabarrus Ave W,28025,35.4059977,-80.5849423
1120,Copperfield Boulevard Northeast,28025,35.4623240,-80.5849324
1175,Copperfield Boulevard Northeast,28025,35.4628160,-80.5871020
151,Academy Avenue Northwest,28025,35.4115848,-80.5902500
24,Spring Street Southwest,28025,35.4077866,-80.5822487
35,Cabarrus Avenue West,28025,35.4097012,-80.5818499
10040,Edison Square Drive,28027,35.4024975,-80.7594185
10020,Edison Square Drive,28027,35.4024652,-80.7586403
10070,Edison Square Drive,28027,35.4009365,-80.7597081
1115,Old Charlotte Road Southwest,28027,35.3749835,-80.5978940
7300,Scott Padgett Parkway Northwest,28027,35.3631001,-80.7016546
151,Academy Avenue Northwest,28025,35.4118383,-80.5902148
147,Academy Avenue Northwest,28025,35.4127523,-80.5907069
7840,Lyles Lane Northwest,28027,35.3663308,-80.7143430
4100,Weddington Road Northwest,28027,35.4018283,-80.6469083
4521,Weddington Rd,28027,35.3898829,-80.6515806
4521,Weddington Road,28027,35.3895689,-80.6517074
755,Old Pitts School Road NW,28027,35.4002795,-80.6972014
1335,Ivey Cline Road,28027,35.3964881,-80.7015803
3709,Concord Parkway South,28027,35.3692860,-80.6639780
4005,Dearborn Place Northwest,28027,35.3669175,-80.6709990
3915,Concord Parkway South,28027,35.3673484,-80.6665332
2675,Concord Farms Road,28027,35.3785263,-80.6570074
961,Concord Parkway South,28027,35.3924556,-80.6210659
929,Concord Parkway South,28027,35.3930636,-80.6179595
268,Concord Parkway South,28027,35.3977175,-80.6097845
750,Cabarrus Avenue West,28027,35.3967705,-80.6092125
730,Cabarrus Avenue West,28027,35.3967570,-80.6077888
970,Rockland Circle Southwest,28027,35.3905908,-80.6040604
1601,Concord Parkway North,28025,35.4435719,-80.6097080
7850,Commons Park Circle Nw,28027,35.3721618,-80.7085767
303,Executive Park Drive Northeast,28025,35.4531375,-80.5968561
4009,Morris Burn Drive Southwest,28027,35.3502954,-80.6525708
4005,Morris Burn Drive Southwest,28027,35.3503114,-80.6521759
570,Lake Concord Drive Northeast,28205,35.4465133,-80.6002535
8955,Weddington Rd Ext,28027,35.3705043,-80.6955330
65,Sunderland Road Southwest,28027,35.3934520,-80.5926661
329,McGill Avenue Northwest,28027,35.4138049,-80.6031184
37,Union Street South,28025,35.4100082,-80.5802590
3600,Concord Parkway South,28027,35.3716654,-80.6650312
14,Cabarrus Avenue East,28025,35.4108307,-80.5806955
15,Transit Street,28025,35.4413828,-80.6089188
1252,Old Charlotte Road,28027,35.3710021,-80.5982218
21,Union Street South,28025,35.4104732,-80.5804997
165,Brumley Avenue Northeast,28025,35.4149861,-80.5776134
455,Corban Avenue Southeast,28025,35.4151170,-80.5608624
235,Branchview Drive Southeast,28025,35.4120522,-80.5687205
290,Copperfield Boulevard Northeast,28025,35.4462620,-80.5980597
834,Union Street South,28025,35.3882308,-80.5615257
550,Concord Parkway North,28027,35.4135121,-80.6122495
788,Church Street North,28025,35.4310664,-80.6007862
27,Branchview Drive Northeast,28025,35.4190966,-80.5716695
362,Church Street North,28025,35.4205540,-80.5899457
1170,Copperfield Boulevard Northeast,28025,35.4635847,-80.5857549
37,Union Street South,28025,35.4098953,-80.5803214
410,Church Street North,28025,35.4221337,-80.5908045
3700,Poplar Tent Road,28027,35.4134719,-80.6393949
50,Branchview Drive Northeast,28025,35.4203490,-80.5730858
836,Florence Street Northwest,28025,35.4282224,-80.6084324
1493,US-29,28025,35.4386825,-80.6074992
4545,Concord Parkway South,28027,35.3589499,-80.6737333
49,Spring Street Northwest,28025,35.4105645,-80.5843553
14,Cabarrus Avenue West,28025,35.4103455,-80.5818330
50,Spring Street NorthWest,28025,35.4059813,-80.5791803
547,Church Street North,28025,35.4249652,-80.5947225
8561,Concord Mills Boulevard,28027,35.3729168,-80.7242265
6600,Bruton Smith Boulevard,28027,35.3589084,-80.6904342
5650,Sandusky Boulevard,28027,35.3527658,-80.6910117
2041,Highway 49 N,28025,35.3765822,-80.5425499
223,Crowell Drive Northwest,28025,35.4098907,-80.5924912
6025,Victory Lane,28027,35.3446857,-80.6756106
284,Ann Street Northwest,28025,35.4133858,-80.5939865
325,McGill Avenue Northwest,28027,35.4145121,-80.6033678
3170,Patrick Henry Drive Northwest,28027,35.4348875,-80.6334675
1592,Concord Parkway North,28025,35.4434965,-80.6082640
151,Rone Avenue Southwest,28025,35.4002964,-80.5798765
360,Exchange Street Northwest,28027,35.4154359,-80.6689102
796,Concord Parkway North,28027,35.4219164,-80.6144613
45,Spring Street Southwest,28025,35.4088970,-80.5810715
73,Corban Avenue Southwest,28025,35.4072155,-80.5818500
40,Cabarrus Avenue East,28025,35.4115000,-80.5795195
30,Church Street Southeast,28025,35.4106276,-80.5796601
47,Cabarrus Avenue West,28025,35.4118115,-80.5799905
2,Church Street Northeast,28025,35.4116690,-80.5801855
38,Church Street Northeast,28025,35.4126157,-80.5812909
34,Church Street N,28025,35.4119310,-80.5814145
31,Union Street North,28025,35.4112815,-80.5825945
76,Spring Street Southwest,28025,35.4080150,-80.5810595
50,Cabarrus Avenue West,28025,35.4095450,-80.5831947
17,Spring Street Northwest,28025,35.4098005,-80.5834210
23,Spring Street Northwest,28025,35.4099260,-80.5836000
40,Cabarrus Avenue West,28025,35.4098915,-80.5828385
47,Spring Street Northwest,28025,35.4104015,-80.5841675
61,Grove Avenue Northwest,28025,35.4103660,-80.5845895
67,Grove Avenue Northwest,28025,35.4102310,-80.5847820
75,Grove Avenue Northwest,28025,35.4100280,-80.5849280
36,Yorktown Street Northwest,28025,35.4097930,-80.5846080
32,Yorktown Street Northwest,28025,35.4096930,-80.5844365
26,Yorktown Street Northwest,28025,35.4095535,-80.5842400
64,Cabarrus Avenue West,28025,35.4091015,-80.5836660
50,Cabarrus Avenue West,28025,35.4092195,-80.5834815
5511,Poplar Tent Road,28027,35.4107115,-80.6686105
5225,Poplar Tent Road,28027,35.4123560,-80.6650430
2263,Spider Drive Northeast,28083,35.4647201,-80.5918650
10023,Weddington Road,28027,35.3647811,-80.7112266
5303,Poplar Tent Road,28027,35.4111622,-80.6674057
846,Union Street South,28025,35.3877273,-80.5608443
3451,Highway 601 South,28025,35.3708615,-80.5489915
3405,US Highway 601 South,28025-0490,35.3714085,-80.5493835
4124,Margate Street Southwest,28025,35.3606725,-80.5621140
1080,Ramsgate Drive Southwest,28025,35.3583430,-80.5663845
4132,Broadstairs Drive Southwest,28025,35.3593175,-80.5640430
4228,Pegwell Avenue Southwest,28025,35.3587675,-80.5666035
1058,Manston Place Southwest,28025,35.3579345,-80.5641645
4178,Clifftonville Avenue Southwest,28025,35.3566450,-80.5657600
26,Pine Street Northwest,28025,35.4060806,-80.5888700
328,Stewart Street Northwest,28027,35.4460990,-80.6197340
5011,Weddington Road Northwest,28027,35.3965418,-80.6613919
165,Brumley Avenue Northeast,28025,35.4152410,-80.5773565
10005,Weddington Road,28027,35.3650821,-80.7111321
5409,Village Drive Northwest,28027,35.4141469,-80.6702202
3481,US-601 S,28027,35.3706493,-80.5480410
3655,Concord Parkway South,28027,35.3710295,-80.6634185
9900,Poplar Tent Road,28027,35.4184002,-80.7426782
349,Concord Lake Road,28205,35.4471189,-80.6002999
2206,Roxie Street,28083,35.4638877,-80.5953927
10009,Weddington Road,28027,35.3649636,-80.7109464
1096,Concord Parkway North,28025,35.4297920,-80.6078480
349,Copperfield Boulevard Northeast,28205,35.4470848,-80.6000881
9,Union Street North,28025,35.4105596,-80.5818072
325,McGill Avenue Northwest,28027,35.4147377,-80.6031202
74,Marsh Avenue Northwest,28025,35.4134400,-80.5883835
80,Marsh Avenue Northwest,28025,35.4133355,-80.5884925
88,Marsh Avenue Northwest,28025,35.4132335,-80.5886335
325,McGill Avenue Northwest,28027,35.4143518,-80.6028955
47,Union Street North,28025,35.4116335,-80.5830461
16;18;20;22,Yorktown Street Northwest,28025,35.4093566,-80.5840441
40,Yorktown Street Northwest,28025,35.4099491,-80.5845288
70,Union Street North,28025,35.4125122,-80.5825875
50,Union Street North,28025,35.4120548,-80.5821193
30,Market Street Southwest,28025,35.4091512,-80.5815113
25,Barbrick Avenue Southwest,28025,35.4085776,-80.5805225
83,Union Street North,28025,35.4123659,-80.5838689
19,Franklin Avenue Northwest,28025,35.4129998,-80.5851745
25,Franklin Avenue Northwest,28025,35.4128253,-80.5853433
31,Franklin Avenue Northwest,28025,35.4127193,-80.5855172
39,Franklin Avenue Northwest,28025,35.4125972,-80.5857160
43,Franklin Avenue Northwest,28025,35.4124519,-80.5858468
49,Franklin Avenue Northwest,28025,35.4123429,-80.5859724
83,Union Street North,28025,35.4122331,-80.5841810
123,Union Street North,28025,35.4135559,-80.5852489
131,Union Street North,28025,35.4137128,-80.5854024
24,Franklin Avenue Northwest,28025,35.4132694,-80.5855691
26,Franklin Avenue Northwest,28025,35.4131404,-80.5857767
40,Franklin Avenue Northwest,28025,35.4129030,-80.5863142
146,Spring Street Northwest,28025,35.4132306,-80.5868739
154,Spring Street Northwest,28025,35.4133683,-80.5870346
57,Marsh Avenue Northwest,28025,35.4136370,-80.5873247
43,Marsh Avenue Northwest,28025,35.4139270,-80.5869738
27,Marsh Avenue Northwest,28025,35.4140678,-80.5867873
21,Marsh Avenue Northwest,28025,35.4142144,-80.5866272
167,Union Street North,28025,35.4145989,-80.5863353
161,Union Street North,28025,35.4144989,-80.5861897
157,Union Street North,28025,35.4143215,-80.5859855
151,Union Street North,28025,35.4141581,-80.5859227
145,Union Street North,28025,35.4140376,-80.5857411
139,Union Street North,28025,35.4139379,-80.5855474
177,Union Street North,28025,35.4148056,-80.5866094
125,Spring Street Northwest,28025,35.4123601,-80.5866625
129,Spring Street Northwest,28025,35.4124979,-80.5868422
135,Spring Street Northwest,28025,35.4126630,-80.5870254
143,Spring Street Northwest,28025,35.4128301,-80.5872340
151,Spring Street Northwest,28025,35.4130148,-80.5874465
155,Spring Street Northwest,28025,35.4131396,-80.5875520
169,Franklin Avenue Northwest,28025,35.4132919,-80.5878825
87,Marsh Avenue Northwest,28025,35.4130019,-80.5882326
158,Beech Street Northwest,28025,35.4128915,-80.5881079
156,Beech Street Northwest,28025,35.4127513,-80.5880080
154,Beech Street Northwest,28025,35.4126808,-80.5878985
150,Beech Street Northwest,28025,35.4125706,-80.5878204
144,Beech Street Northwest,28025,35.4124988,-80.5875884
138,Beech Street Northwest,28025,35.4123977,-80.5874536
74,Franklin Avenue Northwest,28025,35.4119963,-80.5871435
68,Franklin Avenue Northwest,28025,35.4120914,-80.5869913
7,2nd Street Southwest,28027,35.3948363,-80.6031469
413,Church Street North,28025,35.4219539,-80.5915104
7845,Commons Park Circle Nw,28027,35.3716869,-80.7079303
192,Spring Street Southwest,28025,35.4052504,-80.5776392
58,Chestnut Drive Southwest,28025,35.4045323,-80.5779855
59,Chestnut Drive Southwest,28025,35.4039428,-80.5775451
11065,Ellenwood Road,28078,35.4010003,-80.7610748
11065,Ellenwood Road,28078,35.4012854,-80.7612402
1165,Warren C Coleman Boulevard South,28025,35.3793947,-80.5535225
1021,Ramsgate Drive Southwest,28025,35.3588972,-80.5641728
1002,Holden Avenue,28025,35.3114641,-80.5929632
1002,Holden Avenue,28025,35.3114198,-80.5933486
750,NC 49,28025,35.3615631,-80.5910376
750,NC 49,28025,35.3614293,-80.5909425
5801,Poplar Tent,28027,35.4045236,-80.6720945
92,Marsh Avenue Northwest,28025,35.4131563,-80.5888140
1510,Holden Avenue,28025,35.3094538,-80.5842016
7650,Griffins Gate Drive Southwest,28025,35.3084398,-80.5886396
541,Sunnyside Drive Southeast,28025,35.3980575,-80.5662576
505,Highway 49 S,28025,35.3624944,-80.5837837
61,Spring Street Northwest,28025,35.4107994,-80.5860632
