House number,Street name,Postal code,Latitude,Longitude
507,North Clinton Avenue,28334,35.3112394,-78.6050903
1007,East Cumberland Street,28334,35.3013742,-78.6004993
910,West Cumberland Street,28334,35.3124558,-78.6186525
1304,West Cumberland Street,28334,35.3149909,-78.6229118
1285,East Cumberland St,28334,35.3168135,-78.6235556
1122,West Broad Street,28334,35.3161246,-78.6234817
1724,West Cumberland Street,28334,35.3168047,-78.6263612
1802,West Cumberland Street,28334,35.3175532,-78.6276593
1810,West Cumberland Street,28334,35.3181923,-78.6277344
1817,West Cumberland Street,28334,35.3168452,-78.6298078
1903,West Cumberland Street,28334,35.3156459,-78.6295879
1723,West Cumberland Street,28334,35.3164556,-78.6278337
1725,West Cumberland Street,28334,35.3163679,-78.6274381
1923,West Cumberland Street,28334,35.3179915,-78.6301524
1923,West Cumberland Street,28334,35.3178503,-78.6302812
400,Erwin Road,28334,35.3155311,-78.6261292
400,Erwin Road,28334,35.3156243,-78.6261462
1501,West Cumberland Street,28334,35.3148136,-78.6250161
129,East Broad Street,28334,35.3078770,-78.6093597
103,S Clinton Ave,28334,35.3066374,-78.6086014
214,East Broad Street,28334,35.3078741,-78.6102691
988,Erwin Road,28334,35.3150166,-78.6325919
104,Tilghman Drive,28334,35.3130468,-78.6339705
2300,West Cumberland Street,28334,35.3215429,-78.6362021
1102,E Cumberland St,28334,35.2967202,-78.5984212
900,West Broad Street,28334,35.3130871,-78.6182968
2314,West Cumberland Street,28344,35.3228876,-78.6367794
2304,West Cumberland Street,28334,35.3227869,-78.6364307
2332,West Cumberland Street,28334,35.3222880,-78.6387588
2140,West Cumberland Street,28334,35.3220954,-78.6339040
2108,West Cumberland Street,28334,35.3221785,-78.6344887
2400,West Cumberland Street,28334,35.3225550,-78.6395259
2350,West Cumberland Street,28334,35.3230364,-78.6376001
2302,West Cumberland Street,28334,35.3217802,-78.6370744
2100,West Cumberland Street,28334,35.3208304,-78.6338987
106,West Cumberland Street,28334,35.3134715,-78.6207416
1165,East Cumberland Street,28344,35.2941743,-78.5960011
596,East Jackson Boulevard,28339,35.3232125,-78.6459891
594,East Jackson Boulevard,28339,35.3234122,-78.6468796
1001,Fairground Rd,28334,35.3268805,-78.6080965
1209,North Ellis Avenue,28334,35.3211929,-78.6069136
1208,North Ellis Avenue,28334,35.3205232,-78.6068975
1500,North Ellis Avenue,28334,35.3223970,-78.6043581
500,North McKay Avenue,28334,35.3144933,-78.6116849
200,Tilghman Drive,28334,35.3121996,-78.6336217
145,Tilghman Drive,28334,35.3129102,-78.6324688
905,Erwin Road,28334,35.3138172,-78.6326993
851,Erwin Road,28334,35.3139074,-78.6310730
711,Erwin Road,28334,35.3143042,-78.6298889
701,Erwin Road,28334,35.3145412,-78.6290015
303,Tilghman Drive,28334,35.3114723,-78.6324220
1011,East Cumberland Street,28334,35.3008104,-78.5988633
1125,East Broad Street,28334,35.3018277,-78.5965282
611,Springbranch Road,28334,35.2883423,-78.6002805
1000,Interstate Drive,28334,35.2912409,-78.6063745
608,Spring Branch Road,28334,35.2887101,-78.6034026
810,East Cumberland Street,28334,35.3029969,-78.6033686
1304,West Cumberland Street,28334,35.3148331,-78.6230416
810,East Cumberland Street,28334,35.3029630,-78.6033780
741-A,Tilghman Drive,28334,35.3090232,-78.6326763
427,Jonesboro Road,28334,35.3179169,-78.5778044
1126,West Broad Street,28334,35.3165002,-78.6235537
1011,East Cumberland Street,28334,35.3007829,-78.5995347
201,East Broad Street,28334,35.3077205,-78.6090427
416,South Powell Avenue,28334,35.3148983,-78.6305359
506,Erwin Road,28334,35.3155221,-78.6271214
1721,West Cumberland Street,28334,35.3159270,-78.6269471
1409,Erwin Road,28334,35.3134972,-78.6392098
1107,Erwin Road,28334,35.3136114,-78.6348381
1117,West Broad Street,28334,35.3151237,-78.6240093
1415,West Cumberland Street,28334,35.3147800,-78.6242132
1407,West Cumberland Street,28334,35.3146772,-78.6240281
1108,West Cumberland Street,28334,35.3137207,-78.6211099
1001,West Cumberland Street,28334,35.3123397,-78.6201711
1185,East Cumberland Street,28344,35.2931474,-78.5957896
1261,East Cumberland Street,28334,35.2917893,-78.5950865
1269,East Cumberland Street,28334,35.2916585,-78.5950683
601,West Broad Street,28334,35.3109726,-78.6159191
700,West Cumberland Street,28334,35.3116641,-78.6169989
705,West Broad Street,28334,35.3119322,-78.6172047
407,South Clinton Avenue,28334,35.3039353,-78.6107428
603,South Wilson Avenue,28334,35.3025008,-78.6125345
407,South Clinton Avenue,28334,35.3040595,-78.6106774
1501,South Clinton Avenue,28334,35.2947987,-78.6178388
1500,South Clinton Avenue,28334,35.2950589,-78.6191749
908,West Cumberland Street,28334,35.3123962,-78.6185138
106,Carolina Drive,28334,35.3145509,-78.6005034
102,Carolina Drive,28334,35.3144733,-78.6010899
711,Susan Tart Road,28334,35.3041998,-78.6304923
605,Tilghman Drive,28334,35.3097048,-78.6325056
203,North Wilson Avenue,28334,35.3087893,-78.6086382
212,North Wilson Avenue,28334,35.3087652,-78.6081447
610,East Broad Street,28334,35.3047858,-78.6048188
813,West Cumberland Street,28334,35.3027538,-78.6023362
10,Dinan Road,28334,35.2913960,-78.6176482
201,West Cumberland Street,28334,35.3079286,-78.6127697
302,East Broad Street,28334,35.3068411,-78.6082637
110,North Clinton Avenue,28334,35.3073999,-78.6078189
219,East Broad Street,28334,35.3074711,-78.6084877
456,East Cumberland Street,28334,35.3049738,-78.6076955
301,East Broad Street,28334,35.3071937,-78.6080786
128,North Clinton Avenue,28334,35.3076515,-78.6075200
818,East Cumberland Street,28334,35.3021093,-78.6023464
609,East Cumberland Street,28334,35.3042927,-78.6047525
607,East Cumberland Street,28334,35.3045054,-78.6050218
808,East Cumberland Street,28334,35.3026586,-78.6034688
400,East Broad Street,28334,35.3061950,-78.6072657
1140,West Broad Street,28334,35.3176295,-78.6240232
602A,Erwin Road,28334,35.3152463,-78.6287262
1900,West Cumberland Street,28334,35.3183982,-78.6291154
1726,West Cumberland Street,28334,35.3172560,-78.6269499
118,Commerce Drive,28334,35.3187482,-78.6287919
1921,West Cumberland Street,28334,35.3174839,-78.6298185
721,East Cumberland Street,28334,35.3036652,-78.6032411
2102,West Cumberland Street,28334,35.3212805,-78.6353291
1102,West Broad Street,28334,35.3160991,-78.6247975
723,East Cumberland Street,28334,35.3033146,-78.6030885
2202,West Cumberland Street,28334,35.3226413,-78.6354899
325,East Broad Street,28334,35.3070315,-78.6073758
111,Commerce Drive,28334,35.3182529,-78.6282291
600,East Jackson Boulevard,28339,35.3228303,-78.6451877
901,East Cumberland Street,28334,35.3021261,-78.6011221
1004,East Cumberland Street,28334,35.3008964,-78.6009194
900,East Pearsall Street,28334,35.2994312,-78.6024084
100,Jesse Tart Circle,28334,35.3001678,-78.6013957
590,East Jackson Boulevard,28339,35.3206064,-78.6480866
1125,E Broad Street,28334,35.3016846,-78.5964353
598,East Jackson Boulevard,28339,35.3229926,-78.6456025
1006,East Cumberland Street,28334,35.2995273,-78.6007272
901,Jackson Road,28334,35.2982685,-78.6013121
800,West Cumberland Street,28334,35.3120933,-78.6182500
501,Spring Branch Road,28334,35.2942882,-78.6048795
107,South Sampson Avenue,28334,35.3025783,-78.6014933
1283,West Cumberland Street,28334,35.2914889,-78.5949472
1243,East Cumberland Street,28334,35.2920867,-78.5947982
101,West Cumberland Street,28334,35.3072798,-78.6117679
107,West Broad Street,28334,35.3086659,-78.6113612
309,West Broad Street,28334,35.3095741,-78.6132913
1203,North Ellis Avenue,28334,35.3211758,-78.6075369
211,North Clinton Avenue,28334,35.3089579,-78.6078572
224,North Clinton Avenue,28334,35.3084237,-78.6067975
1206,East Cumberland Street,28334,35.2919230,-78.5975039
1989,US-301,28334,35.3021899,-78.6115818
110,East Divine Street,28334;28334-5304,35.3059915,-78.6111860
401,West Cumberland Street,28334,35.3092529,-78.6146806
500,South Clinton Avenue,28334,35.3036915,-78.6116685
205,Spring Branch Road,28334,35.2981810,-78.6056565
714,East Cumberland Street,28334,35.3030485,-78.6040475
700,East Pearsall Street,28334,35.3018245,-78.6062215
101,South Sampson Avenue,28334,35.3027835,-78.6013130
700,East Cumberland Street,28334,35.3035830,-78.6047385
17,J & J Lane,28334,35.3003800,-78.5952325
205,North Wilson Avenue,28334,35.3090775,-78.6084390
200,North Wilson Avenue,28334,35.3085490,-78.6082460
703,North Clinton Avenue,28334,35.3125714,-78.6040914
908,North Clinton Avenue,28334,35.3138165,-78.6020920
1110,East Cumberland Street,28334,35.2942340,-78.5970450
1200,East Cumberland Street,28334,35.2931975,-78.5976175
131,Bud Hawkins Road,28334,35.2889053,-78.6046942
688,Jackson Road,28334,35.2947038,-78.6037989
800,Tilghman Drive,28334,35.3069052,-78.6350377
800,Tilghman Drive,28334,35.3073931,-78.6348747
802,Tilghman Drive,28334,35.3058222,-78.6335629
427,Jonesboro Road,28334,35.3182608,-78.5777236
605,West Cumberland Street,28334,35.3103378,-78.6166760
100,North Powell Avenue,28334,35.3191003,-78.6300787
316,South Powell Avenue,28334,35.3154567,-78.6308361
800,Erwin Road,28334,35.3149385,-78.6310319
209,West Divine Street,28334,35.3074662,-78.6139039
701,South Fayetteville Avenue,28334,35.3036662,-78.6153065
803,Tilghman Drive,28334,35.3071847,-78.6325661
803,Tilghman Drive,28334,35.3067939,-78.6320602
805,Tilghman Drive,28334,35.3056752,-78.6322320
800,Susan Tart Road,28334,35.3060051,-78.6317554
801,Tilghman Drive,28334,35.3080354,-78.6324122
721,Tilghman Drive,28334,35.3085431,-78.6326706
711,Tilghman Drive,28334,35.3090579,-78.6319352
701,Tilghman Drive,28334,35.3089495,-78.6338790
707,Susan Tart Road,28334,35.3041757,-78.6292580
427,Spring Branch Road,28334,35.2948759,-78.6054363
411,Spring Branch Road,28334,35.2952649,-78.6054530
555,Jackson Road,28334,35.2951031,-78.6050162
302,Spring Branch Road,28334,35.2976373,-78.6065616
1115,South Clinton Avenue,28334,35.2972549,-78.6157664
1110,South Clinton Avenue,28334,35.2978747,-78.6167119
1109,South Clinton Avenue,28334,35.2985366,-78.6149386
1100,South Clinton Avenue,28334,35.2992853,-78.6155525
708,South Clinton Avenue,28334,35.3020588,-78.6132391
710,South Clinton Avenue,28334,35.3019326,-78.6133478
709,South Clinton Avenue,28334,35.3014088,-78.6126012
805,South Clinton Avenue,28334,35.3010703,-78.6131790
901,South Clinton Avenue,28334,35.3002400,-78.6135208
813,South Clinton Avenue,28334,35.3006789,-78.6135642
804,South Clinton Avenue,28334,35.3012760,-78.6136030
