House number,Street name,Postal code,Latitude,Longitude
5800,West Friendly Avenue,27410,36.0934692,-79.8886460
603,South Benbow Road,27401,36.0681909,-79.7703079
2005,East Cone Boulevard,27405,36.1147536,-79.7522965
3703,Lawndale Drive,27455,36.1179503,-79.8293882
508,Pisgah Church Road,27405,36.1316000,-79.7989884
505,Pisgah Church Road,27455,36.1306729,-79.7990406
1932,Spring Garden Street,27403,36.0639637,-79.8227844
3219,South Holden Road,27407,36.0216194,-79.8454220
1806,West Vandalia Road,27406,36.0215500,-79.8368121
2010,West Vandalia Road,27407,36.0216628,-79.8408408
3211,South Holden Road,27407,36.0219064,-79.8457123
3700,South Holden Road,27406-9587,36.0095808,-79.8385099
3802,South Holden Road,27406,36.0084373,-79.8369945
3001,Pinecroft Road,27407,36.0205651,-79.8391537
2206,South Holden Road,27407,36.0387707,-79.8500729
3608,West Gate City Boulevard,27407,36.0403301,-79.8493380
4010,Battleground Avenue,27410,36.1475276,-79.8667858
3740,Battleground Avenue,27410,36.1351269,-79.8588786
4016,Battleground Avenue,27410,36.1484113,-79.8692910
4507,West Market Street,27407,36.0699416,-79.8604570
121-C,West McGee Street,27401,36.0684209,-79.7913430
106,West McGee Street,27401,36.0686265,-79.7909418
100,West Washington Street,27401,36.0704913,-79.7909488
201,North Elm Street,27401,36.0736896,-79.7905146
155,East February One Place,27401,36.0716155,-79.7900093
343,South Elm Street,27401,36.0687224,-79.7903896
200,West Market Street,27401,36.0726923,-79.7917369
2221,Martin Luther King Jr Drive,27406,36.0425235,-79.7728980
2729,Horse Pen Creek Road,27410-8395,36.1195368,-79.8784366
3110,Sandy Ridge Road,27235,36.0939865,-79.9954415
5710,West Gate City Boulevard,27407,36.0170183,-79.8976698
5710,West Gate City Boulevard,27407,36.0166369,-79.8986688
5710,West Gate City Boulevard,27407,36.0169995,-79.8981209
5710,West Gate City Boulevard,27407,36.0168288,-79.8967416
5710,West Gate City Boulevard,27407,36.0168428,-79.8960924
1206,Bridford Parkway,27407,36.0586343,-79.9039174
1206,Bridford Parkway,27407,36.0588117,-79.9045190
1208,Bridford Parkway,27407,36.0590923,-79.9073672
1208,Bridford Parkway,27407,36.0580221,-79.9073575
1210,Bridford Parkway,27407,36.0571751,-79.9071522
1212,Bridford Parkway,27407-2645,36.0564770,-79.9072867
5408,Sapp Road,27409,36.0555962,-79.9057859
4427,West Wendover Avenue,27405,36.0551931,-79.9016763
1301,Bridford Parkway,27407,36.0549640,-79.9020768
4409,Landover Road,27407,36.0548245,-79.8948795
4505,West Wendover Avenue,27409,36.0544558,-79.9040056
3302,West Gate City Boulevard,27407,36.0412547,-79.8460922
3300,West Gate City Boulevard,27407,36.0414608,-79.8455259
3003,West Gate City Boulevard,27403-3637,36.0487293,-79.8349933
1500,West Lee Street,27403,36.0625206,-79.8158675
1603,Battleground Avenue,27408,36.0893729,-79.8103958
3705,Elmsley Court,27406,36.0035372,-79.7928094
3707,Elmsley Court,27406,36.0030587,-79.7925506
2701,Lawndale Drive,27408-4820,36.1046534,-79.8215857
2641,Lawndale Drive,27408,36.1042921,-79.8215694
2639,Lawndale Drive,27408,36.1033856,-79.8212604
2637,Lawndale Drive,27408,36.1028621,-79.8211881
2645,Lawndale Drive,27408,36.1028152,-79.8196804
410,Four Seasons Town Centre,27427,36.0392524,-79.8385951
334,Tate Street,27403,36.0684222,-79.8058356
3750,Battleground Avenue,27410,36.1357512,-79.8590754
2211,Flemming Road,27410,36.1254393,-79.9045871
7069,Albert Pick Road,27409,36.0787171,-79.9572649
659,South Regional Road,27409,36.0734449,-79.9571898
517,Hickory Ridge Drive,27409,36.0737311,-79.9597647
514,Hickory Ridge Drive,27409,36.0730997,-79.9598302
514,Gallimore Dairy Road,27409,36.0652527,-79.9599364
121-D,West McGee Street,27401,36.0684194,-79.7912797
1110,Grecade Street,27408,36.0856181,-79.8043608
4405,Landview Drive,27407,36.0566409,-79.8975431
1617,Stanley Road,27407,36.0548236,-79.8921492
3015,West Gate City Boulevard,27403,36.0472401,-79.8362450
2910,West Gate City Boulevard,27403,36.0502880,-79.8349362
2515,West Gate City Boulevard,27403,36.0546279,-79.8313234
4203,West Wendover Avenue,27407,36.0585411,-79.8854512
4211,West Wendover Avenue,27407,36.0567975,-79.8878287
4217,West Wendover Avenue,27407,36.0564353,-79.8864131
4214,West Wendover Avenue,27407,36.0591858,-79.8879279
1715,Spring Garden Street,27403,36.0633584,-79.8201319
3208,West Gate City Boulevard,27407,36.0419672,-79.8440817
3605,West Gate City Boulevard,27407,36.0386280,-79.8489810
3500,West Gate City Boulevard,27407,36.0407306,-79.8475636
3503,West Gate City Boulevard,27407,36.0386026,-79.8476621
3737,West Gate City Boulevard,27407,36.0383747,-79.8535810
3714,West Gate City Boulevard,27407,36.0397667,-79.8519886
811,South Holden Road,27407,36.0622922,-79.8444414
3011,Spring Garden Street,27403,36.0619222,-79.8430073
4620,High Point Road,27407,36.0315569,-79.8685571
4411,High Point Road,27407,36.0335035,-79.8654608
4411,High Point Road,27407,36.0336481,-79.8653510
1206,Bridford Parkway,27407-2744,36.0588002,-79.9048947
1575,New Garden Road,27410,36.1133429,-79.8822291
1577,New Garden Road,27410,36.1137852,-79.8820742
5404,Sapp Road,27409,36.0557783,-79.9045717
306,Pisgah Church Road,27455,36.1325491,-79.7945956
820,South Chapman Street,27403,36.0644038,-79.8241599
5710,West Gate City Boulevard,27407,36.0168397,-79.8983630
5710,West Gate City Boulevard,27407,36.0168018,-79.8984193
3350,West Friendly Avenue,27410,36.0879223,-79.8399589
3350,West Friendly Avenue,27410,36.0881797,-79.8398386
3202,West Friendly Avenue,27408,36.0858652,-79.8340439
622,Green Valley Road,27403,36.0866534,-79.8266177
3354,West Friendly Avenue,27410,36.0888047,-79.8386731
3829-D,West Gate City Boulevard,27407,36.0369042,-79.8574358
3207,South Holden Road,27407,36.0220960,-79.8457125
4012,West Wendover Avenue,27407,36.0602111,-79.8826470
4663,West Market Street,27407,36.0695459,-79.8679861
1101,Summit Avenue,27405,36.0891083,-79.7746132
5945,Lake Brandt Road,27455,36.1674387,-79.8380922
1501,Spring Garden Street,27412,36.0649926,-79.8132246
2700,West Gate City Boulevard,27403,36.0525628,-79.8334507
2600,West Gate City Boulevard,27403,36.0539565,-79.8325056
3357,Battleground Avenue,27455,36.1208242,-79.8458549
808,Friendly Center Road,27408,36.0865495,-79.8295178
3741,Battleground Avenue,27410,36.1352746,-79.8600778
4805,West Market Street,27407,36.0689897,-79.8702911
4800,West Market Street,27407,36.0697464,-79.8702911
4708,West Market Street,27407-1234,36.0699002,-79.8698057
4623,West Market Street,27407,36.0699772,-79.8649540
408,Gallimore Dairy Road,27409,36.0715526,-79.9453040
1200,South Holden Road,27407,36.0565682,-79.8427156
4399,Baylor Street,27455,36.0624776,-79.8228861
5317,Roshni Terrace,27301,36.0579003,-79.6687031
3202,Sandy Ridge Road,27235,36.0949595,-79.9955838
3731,Battleground Avenue,27410,36.1323672,-79.8578713
611,Pembroke Road,27408,36.0844234,-79.8336304
4927,West Market Street,24707,36.0667864,-79.8752064
1050,Alamance Church Road,27406,36.0402211,-79.7706805
2107,Pyramids Village Boulevard,27405,36.1092000,-79.7569000
110,West McGee Street,27401,36.0687833,-79.7910940
621,North Regional Road,27409,36.1164109,-79.9562191
2920,Randleman Road,27406,36.0159211,-79.8053910
3605,Groometown Road,27407,36.0161989,-79.8635800
3605,Groometown Road,27407,36.0170979,-79.8636057
1604,Highwoods Boulevard,27410,36.1123392,-79.8783050
1562,Highwoods Boulevard,27410,36.1121727,-79.8790492
1562,Highwoods Boulevard,27410,36.1122909,-79.8789546
1616,Highwoods Boulevard,27410-2048,36.1123750,-79.8766432
1564,Highwoods Boulevard,27410,36.1119410,-79.8784005
1587,New Garden Road,27410,36.1151659,-79.8809330
2965,Battleground Avenue,27408,36.1140185,-79.8363498
2941,Battleground Avenue,27408,36.1139862,-79.8350735
2939-C,Battleground Avenue,27408,36.1141401,-79.8348032
2921,Battleground Avenue,27408,36.1124419,-79.8343382
3718,Battleground Avenue,27410,36.1337593,-79.8538975
5607,West Friendly Avenue,27410,36.0888026,-79.8855492
5800,West Friendly Avenue,27410,36.0896265,-79.8894366
5803,Hunt Club Road,27410,36.0875317,-79.8896367
5803,Hunt Club Road,27410,36.0873333,-79.8896354
5803,Hunt Club Road,27410,36.0874666,-79.8896354
605,North College Road,27410,36.0873047,-79.8889104
717,Green Valley Road,27408,36.0925278,-79.8218729
1198,Pleasant Ridge Road,27401,36.1165732,-79.9734235
438,Battleground Avenue,27401,36.0781434,-79.7930051
920,North Church Street,27405,36.0872472,-79.7842422
1744,Battleground Avenue,27408,36.0926921,-79.8138592
1611,Westover Terrace,27408,36.0961189,-79.8181552
1609,Westover Terrace,27408,36.0958935,-79.8180171
2274,Golden Gate Drive,27405,36.1042383,-79.7838581
3830,West Gate City Boulevard,27407,36.0369931,-79.8594188
3003,Battleground Avenue,27408,36.1162964,-79.8377899
5108,Chevoit Road,27455,36.1438832,-79.8297937
505,Air Harbor Road,27455,36.1565831,-79.8251174
500,East Cornwallis Drive,27405,36.1013085,-79.7827115
6104,West Market Street,27409,36.0764732,-79.9047284
405,Parkway Avenue,27401,36.0867717,-79.7943161
2803,Battleground Avenue,27408,36.1103087,-79.8312275
2805,Battleground Avenue,27408,36.1106835,-79.8314833
2610,Lawndale Drive,27408,36.1037584,-79.8186156
1805,Spring Garden Street,27403,36.0636454,-79.8215524
2258,Golden Gate Drive,27405,36.1041093,-79.7828120
601,State Street,27405,36.1012075,-79.7830856
615,West Market Street,27401,36.0727158,-79.7979331
1907,Spring Garden Street,27403,36.0636450,-79.8245563
2517,Phillips Avenue,27405,36.0961365,-79.7439077
506,Edwardia Drive,27409,36.0628787,-79.8802187
1216,Bridford Parkway,27407,36.0568502,-79.9040770
2241,Martin Luther King Drive,27406,36.0416359,-79.7723594
6004,Landmark Center Boulevard,27407,36.0520701,-79.8913981
1629,Stanley Road,27407,36.0540044,-79.8904516
1622,Stanley Road,27407,36.0532531,-79.8910284
6909,Downwind Road,27409,36.0823416,-79.9299412
5605,West Friendly Avenue,27410,36.0888015,-79.8855107
5605,West Friendly Avenue,27410,36.0888018,-79.8853581
5603,West Friendly Avenue,27410,36.0889160,-79.8852225
5505,West Friendly Avenue,27410,36.0887492,-79.8831445
704,Pembroke Road,27408,36.0872011,-79.8311419
1617,West Friendly Avenue,27403,36.0752757,-79.8154394
712,West Market Street,27401,36.0731612,-79.7989403
500,West Market Street,27401,36.0732559,-79.7964745
120,West Smith Street,27401,36.0788618,-79.7906024
608,North Elm Street,27401,36.0801384,-79.7894570
2806,Randleman Road,27406,36.0200828,-79.8049527
4401,West Wendover Avenue,27407,36.0555491,-79.8933876
3334,West Wendover Avenue,27407,36.0566613,-79.8874287
4215,West Wendover Avenue,27407,36.0565364,-79.8871174
4931,Mary Street,27409,36.0614693,-79.8829673
516,Stirling Street,27412,36.0676308,-79.8096413
3700,West Gate City Boulevard,27407,36.0400911,-79.8503743
1203,South Holden Road,27407,36.0566160,-79.8412265
2715,Grandview Avenue,27408,36.0860185,-79.8323574
700,Pembroke Road,27408,36.0866173,-79.8324702
106,South Holden Road,27407,36.0708273,-79.8484374
1216-M,Bridford Parkway,27407,36.0568396,-79.9046270
2435,Battleground Avenue,27408,36.1041471,-79.8259429
300,West Gate City Boulevard,27406,36.0651066,-79.7934717
2528,West Gate City Boulevard,27403,36.0544360,-79.8323997
3208,West Gate City Boulevard,27407,36.0420764,-79.8439341
4205,West Wendover Avenue,27407,36.0579289,-79.8870140
4203,West Wendover Avenue,27407,36.0582141,-79.8863331
4212-A,West Wendover Avenue,27407,36.0590589,-79.8874621
4220,West Wendover Avenue,27407,36.0579832,-79.8890613
1300,Battleground Avenue,27408,36.0868486,-79.8056466
3703,West Gate City Boulevard,27407,36.0390982,-79.8511966
3503,West Gate City Boulevard,27407,36.0385874,-79.8480895
3021,Spring Garden Street,27410,36.0617173,-79.8437990
3612-F,Spring Garden Street,27403,36.0612750,-79.8543282
3612-D,Spring Garden Street,27403,36.0612602,-79.8541567
3612-B,Spring Garden Street,27403,36.0612401,-79.8539911
3917,West Wendover Avenue,27407,36.0593630,-79.8798981
1601,Westover Terrace,27408,36.0951005,-79.8171589
1941,New Garden Road,27410,36.1273702,-79.8604304
1941,New Garden Road,27410,36.1272463,-79.8605952
1941,New Garden Road,27410,36.1271971,-79.8606105
1941,New Garden Road,27410,36.1271699,-79.8606517
304,South Elm Street,27401,36.0699654,-79.7907488
5707,West Friendly Avenue,27410,36.0893723,-79.8873501
624,Guilford College Road,27409,36.0646714,-79.9069808
1605,New Garden Road,27410,36.1184083,-79.8759530
2706,St Jude Street,27405,36.1138892,-79.7819427
103,East Elmsley Drive,27406,36.0050745,-79.7909640
4165,Pleasant Garden Road,27406,36.0021940,-79.7768715
310,West Meadowview Road,27406,36.0407360,-79.7988600
4424,West Wendover Avenue,27407,36.0577263,-79.9016210
2190,Lawndale Drive,27408,36.0971068,-79.8168161
2643,Lawndale Drive,27408,36.1022021,-79.8195179
3000,Lawndale Drive,27408,36.1079392,-79.8192502
1704,Battleground Avenue,27408,36.0917515,-79.8126759
3008,West Gate City Boulevard,27403,36.0482573,-79.8363631
3022,West Gate City Boulevard,27403,36.0482622,-79.8387668
2710,Koury Boulevard,27407,36.0408970,-79.8443369
2610,Battleground Avenue,27408,36.1075050,-79.8268390
2828,Battleground Avenue,27408,36.1120180,-79.8314552
2132,Lawndale Drive,27408,36.0954883,-79.8157791
3805,Cardinal Court,27410,36.1305151,-79.9092223
322,South Davie Street,27401,36.0688307,-79.7894780
125,Four Seasons Town Centre,27407,36.0405161,-79.8381396
219,South Elm Street,27401,36.0709636,-79.7902091
227,South Elm Street,27401,36.0706410,-79.7902976
2823-D,Spring Garden Street,27402,36.0633358,-79.8395196
4616,West Market Street,27407,36.0714166,-79.8633923
528,College Road,27410,36.0855842,-79.8889360
705,Green Valley Road,27408,36.0915910,-79.8234001
714,Green Valley Road,27408,36.0907373,-79.8207589
3701,West Gate City Boulevard,27407,36.0145609,-79.8976688
2907,Keeler Street,27407,36.0297445,-79.8640784
1639,Spring Garden Street,27403,36.0633298,-79.8184051
2001,East Cone Boulevard,27405,36.1134020,-79.7532036
3202,Sandy Ridge Road,27235,36.0950072,-79.9951520
5221,West Market Street,27409,36.0704128,-79.8822471
204,South Westgate Drive,27407,36.0673907,-79.8612429
1420,Westover Terrace,27408,36.0913845,-79.8143439
3228,West Gate City Boulevard,27407,36.0416223,-79.8447275
2517,Battleground Avenue,27408,36.1059836,-79.8269931
2507,Battleground Avenue,27410,36.1052991,-79.8265107
2403,Battleground Avenue,27408,36.1031073,-79.8251088
2403-05,Battleground Avenue,27408,36.1030110,-79.8250100
2301,Battleground Avenue,27408,36.1008671,-79.8220466
2511-F,Battleground Avenue,27408,36.1055612,-79.8270291
2509,Battleground Avenue,27408,36.1055624,-79.8266205
2509,Battleground Avenue,27408,36.1055223,-79.8265884
2509,Battleground Avenue,27408,36.1054834,-79.8265607
2403-9,Battleground Avenue,27408,36.1031650,-79.8251503
2511,Battleground Avenue,27408,36.1015855,-79.8212119
4109,Spring Garden Street,27407,36.0667706,-79.8678420
4501,West Market Street,27407,36.0691662,-79.8574340
2300,West Gate City Boulevard,27403,36.0574355,-79.8295452
1733,West Gate City Boulevard,27403,36.0605202,-79.8223585
1703,West Gate City Boulevard,27403,36.0608191,-79.8198906
1605,West Gate City Boulevard,27403,36.0608846,-79.8183640
908-A,Spring Garden Street,27403,36.0666831,-79.8031490
1618,Spring Garden Street,27403,36.0642425,-79.8181492
1618,Spring Garden Street,27403,36.0642087,-79.8183187
1701,Spring Garden Street,27403,36.0635541,-79.8192164
1701-A,Spring Garden Street,27403,36.0635541,-79.8192910
1713,Spring Garden Street,27403,36.0634376,-79.8198850
1808,Spring Garden Street,27403,36.0640790,-79.8223362
1827-A,Spring Garden Street,27403,36.0636121,-79.8229794
1938,Spring Garden Street,27403,36.0639964,-79.8246464
2408-B,Spring Garden Street,27403,36.0645547,-79.8330854
2408-D,Spring Garden Street,27403,36.0645619,-79.8332412
2416,Spring Garden Street,27403,36.0642423,-79.8336809
2418,Spring Garden Street,27403,36.0642474,-79.8337785
2500,Spring Garden Street,27403,36.0644220,-79.8343022
2823,Spring Garden Street,27402,36.0634088,-79.8395295
2827,Spring Garden Street,27403,36.0632621,-79.8401098
3612-E,Spring Garden Street,27403,36.0612696,-79.8542448
3612-C,Spring Garden Street,27403,36.0612511,-79.8540719
2419,Spring Garden Street,27403,36.0638336,-79.8336748
2417,Spring Garden Street,27403,36.0638995,-79.8333861
1932,Spring Garden Street,27407,36.0639924,-79.8244305
3808,West Gate City Boulevard,27407,36.0382806,-79.8564879
4205,West Gate City Boulevard,27407,36.0365859,-79.8618836
2503,Spring Garden Street,27403,36.0638736,-79.8343408
3410-B,Spring Garden Street,27407,36.0606997,-79.8506272
3800,Spring Garden Street,27407,36.0614040,-79.8577480
3023,Randleman Road,27406,36.0123724,-79.8041404
3021,Randleman Road,27406,36.0130512,-79.8040910
3005,Randleman Road,27406,36.0144796,-79.8040028
2934-A,Randleman Road,27406,36.0153660,-79.8054772
2631,Randleman Road,27406,36.0284074,-79.8010513
2501,Randleman Road,27406,36.0321899,-79.8004470
2421,Randleman Road,27406,36.0371217,-79.7995940
2210,North Elm Street,27408,36.1040541,-79.7873776
3712,Lawndale Drive,27455,36.1193572,-79.8285846
3800,Lawndale Drive,27455,36.1201273,-79.8298097
1618,West Friendly Avenue,27403,36.0759282,-79.8152490
1612-A,West Friendly Avenue,27403,36.0753077,-79.8141140
1609,West Friendly Avenue,27403,36.0746898,-79.8141476
330,Tate Street,27403,36.0685811,-79.8058515
337,Tate Street,27403,36.0685235,-79.8054529
342,Tate Street,27403,36.0682367,-79.8058618
407,Tate Street,27403,36.0680711,-79.8052913
411,Tate Street,27403,36.0679365,-79.8052928
413,Tate Street,27403,36.0678714,-79.8052944
427,Tate Street,27403,36.0675862,-79.8053154
435,Tate Street,27403,36.0674869,-79.8052882
2510,West Gate City Boulevard,27403,36.0550993,-79.8320026
3612-A,Spring Garden Street,27403,36.0612313,-79.8539151
608,Merritt Drive,27403,36.0614792,-79.8554609
410,Spring Garden Street,27401,36.0681156,-79.7950815
436,Spring Garden Street,27401,36.0681938,-79.7961882
1618,Spring Garden Street,27403,36.0642238,-79.8182559
1642,Spring Garden Street,27403,36.0640658,-79.8188194
2823,Spring Garden Street,27402,36.0632732,-79.8395090
3006,West Gate City Boulevard,27403,36.0485174,-79.8361639
720,West Market Street,27401,36.0731674,-79.7991449
219,South Elm Street,27401,36.0709281,-79.7902128
121-B,West McGee Street,27401,36.0684239,-79.7914073
121-A,West McGee Street,27401,36.0684257,-79.7914561
1101,West Market Street,27412,36.0730785,-79.8055711
1101,West Market Street,27412,36.0730807,-79.8056326
1107,West Market Street,27412,36.0730981,-79.8059272
348,South Elm Street,27401,36.0686200,-79.7907665
1501,New Garden Road,27410,36.1098238,-79.8832447
4821,Koger Boulevard,27407,36.0497790,-79.8816385
4830,Koger Boulevard,27407,36.0521320,-79.8815149
4832,Koger Boulevard,27407,36.0510752,-79.8816362
1,Marithe Court,27407,36.0495407,-79.8831460
200,East Market Street,27401,36.0719566,-79.7881343
3803,North Church Street,27405,36.1332776,-79.7899398
202,Pisgah Church Road,27455,36.1330160,-79.7932901
1101,West Gate City Boulevard,27403,36.0628199,-79.8101392
1201,West Gate City Boulevard,27403,36.0627622,-79.8107984
2618,Battleground Avenue,27410,36.1080075,-79.8274711
401,Tate Street,27403,36.0681989,-79.8052924
425,Tate Street,27403,36.0676453,-79.8053173
801,Friendly Center Road,27408,36.0867719,-79.8308770
3106,Kathleen Avenue,27408,36.0855782,-79.8315850
3721,Battleground Avenue,27410,36.1313196,-79.8576431
4424,West Wendover Avenue,27407,36.0576751,-79.9018403
2005,East Wendover Avenue,27405,36.0875025,-79.7587816
2005,East Wendover Avenue,27405,36.0876098,-79.7585711
3000,Battleground Avenue,27408,36.1159545,-79.8354806
3610,West Wendover Avenue,27407,36.0605239,-79.8699222
3610,West Wendover Avenue,27407,36.0606746,-79.8697787
605,College Road,27410,36.0871823,-79.8890839
5916,West Market Street,27409,36.0766418,-79.9021923
5916,West Market Street,27409,36.0768554,-79.9021722
2834,Battleground Avenue,27408,36.1124521,-79.8316153
3800,Lawndale Drive,27455,36.1199412,-79.8299765
2834,Battleground Avenue,27408,36.1123795,-79.8317226
514,Gallimore Dairy Road,27409,36.0652154,-79.9596897
3205,Sandy Ridge Road,27235,36.0954186,-79.9965593
3205,Sandy Ridge Road,27235,36.0954327,-79.9968892
3110,Sandy Ridge Road,27235,36.0941122,-79.9954174
1218,Bridford Parkway,27407,36.0565127,-79.9050171
5557,West Market Street,27409,36.0760375,-79.8927905
5700,West Market Street,27409,36.0770119,-79.8938178
5700,West Market Street,27409,36.0770397,-79.8942747
4131,Spring Garden Street,27407,36.0670774,-79.8677819
511,Greenbriar Road,27405,36.1271869,-79.7985107
2516 â€“ A,Oakcrest Avenue,27408,36.1049077,-79.8278739
424,Prescott Street,27401,36.0775878,-79.7990422
3900,West Market Street,27410,36.0697885,-79.8528667
3334,West Friendly Avenue,27410,36.0873447,-79.8392415
437,West Friendly Avenue,27401,36.0735207,-79.7957835
3330,West Friendly Avenue,27410,36.0881665,-79.8380115
4736,Highway 29N,27405,36.1654052,-79.7179402
356,South Elm Street,27401,36.0683174,-79.7907410
5001,Burlington Road,27405,36.0888066,-79.6851645
3919,Burlington Road,27405,36.0868886,-79.7137265
3902,Liberty Road,27406,36.0129683,-79.7576164
300,North Greene Street,27401,36.0754794,-79.7909741
4926,Watlington Road,27405,36.1457928,-79.7666395
4920,Watlington Road,27405,36.1453788,-79.7666305
1904,Lees Chapel Road,27405,36.1438078,-79.7660322
1902,Lees Chapel Road,27405,36.1438424,-79.7662937
21,Westmount Court,27410,36.1248538,-79.8615615
2002,Rockglen Lane,27410,36.1244626,-79.8604786
2000,Rockglen Lane,27410,36.1241601,-79.8604635
4203,Westmount Drive,27410,36.1242259,-79.8599617
4205,Westmount Drive,27410,36.1242129,-79.8595039
4301,Westmount Drive,27410,36.1242951,-79.8589811
2107,Brassfield Road,27410,36.1246429,-79.8600770
430,North Eugene Street,27401,36.0776629,-79.7935560
2300,Albright Drive,27408,36.0982794,-79.8191715
2302,Albright Drive,27408,36.0982016,-79.8193692
2304,Albright Drive,27408,36.0981279,-79.8195802
2306,Albright Drive,27408,36.0980676,-79.8197994
2320,Albright Drive,27408,36.0975963,-79.8216100
2322,Albright Drive,27408,36.0975311,-79.8219452
2328,Albright Drive,27408,36.0975342,-79.8224081
2330,Albright Drive,27408,36.0975363,-79.8226331
2332,Albright Drive,27408,36.0975482,-79.8228622
2334,Albright Drive,27408,36.0975658,-79.8230959
2331,Albright Drive,27408,36.0971407,-79.8229165
2336,Albright Drive,27408,36.0975866,-79.8233292
1106,North Elam Avenue,27408,36.0972482,-79.8237380
2335,Albright Drive,27408,36.0971893,-79.8233798
2333,Albright Drive,27408,36.0971759,-79.8231544
2300,Fernwood Drive,27408,36.0998246,-79.8206160
5140,Dunstan Road,27415,36.1480571,-79.7286390
3005,Martinsville Road,27455,36.1173147,-79.8301766
1,Centerview Drive,27407,36.0501623,-79.8393302
4611,Lawndale Drive,27455,36.1370933,-79.8331329
4609,Lawndale Drive,27455,36.1370674,-79.8330707
4607,Lawndale Drive,27455,36.1370339,-79.8329906
4605,Lawndale Drive,27455,36.1370126,-79.8329395
4603,Lawndale Drive,27455,36.1369682,-79.8328333
4601,Lawndale Drive,27455,36.1369458,-79.8327797
4625,Lawndale Drive,27455,36.1369954,-79.8337171
4623,Lawndale Drive,27455,36.1369922,-79.8336473
4621,Lawndale Drive,27455,36.1369880,-79.8335572
4617,Lawndale Drive,27455,36.1369835,-79.8334610
4615,Lawndale Drive,27455,36.1369798,-79.8333805
4613,Lawndale Drive,27455,36.1369770,-79.8333202
4619,Lawndale Drive,27455,36.1369859,-79.8335117
4627,Lawndale Drive,27455,36.1369985,-79.8337827
4629,Lawndale Drive,27455,36.1370010,-79.8338377
4637,Lawndale Drive,27455,36.1372532,-79.8338943
4635,Lawndale Drive,27455,36.1371967,-79.8338966
4633,Lawndale Drive,27455,36.1371239,-79.8338996
4631,Lawndale Drive,27455,36.1370774,-79.8339015
4647,Lawndale Drive,27455,36.1369739,-79.8343231
4645,Lawndale Drive,27455,36.1370612,-79.8343178
4643,Lawndale Drive,27455,36.1371457,-79.8343142
4639,Lawndale Drive,27455,36.1372941,-79.8343079
4641,Lawndale Drive,27455,36.1372274,-79.8343108
4649,Lawndale Drive,27455,36.1369675,-79.8347432
4651,Lawndale Drive,27455,36.1370138,-79.8347401
4653,Lawndale Drive,27455,36.1370802,-79.8347355
4655,Lawndale Drive,27455,36.1371313,-79.8347320
4657,Lawndale Drive,27455,36.1371742,-79.8347290
4659,Lawndale Drive,27455,36.1372227,-79.8347257
4661,Lawndale Drive,27455,36.1372642,-79.8347228
4663,Lawndale Drive,27455,36.1373086,-79.8347198
4665,Lawndale Drive,27455,36.1373598,-79.8347162
4667,Lawndale Drive,27455,36.1374059,-79.8347131
7345,W Friendly Avenue,27410,36.0853361,-79.9283652
4360,Four Farms Road,27410,36.1451617,-79.8701958
4355,Four Farms Road,27410,36.1448458,-79.8709686
4353,Four Farms Road,27410,36.1445357,-79.8710793
3503,Chance Road,27410,36.1268576,-79.8895453
3505,Chance Road,27410,36.1270375,-79.8893935
3411,Briarbend Drive,27410,36.1261728,-79.8895894
3407,Briarbend Drive,27410,36.1258906,-79.8893229
5597,Garden Village Way,27410,36.1112450,-79.9083288
6,Country Woods Court,27410,36.1206240,-79.8924555
8,Country Woods Court,27410,36.1207222,-79.8927082
3909,Brass Cannon Court,27410,36.1592337,-79.8758224
3911,Brass Cannon Court,27410,36.1592308,-79.8764265
3913,Brass Cannon Court,27410,36.1593067,-79.8768801
3915,Brass Cannon Court,27410,36.1593657,-79.8775642
3917,Brass Cannon Court,27410,36.1593351,-79.8780954
3919,Brass Cannon Court,27410,36.1593317,-79.8787633
4001,Brass Cannon Court,27410,36.1592926,-79.8794225
4003,Brass Cannon Court,27410,36.1592232,-79.8802204
4000,Brass Cannon Court,27410,36.1585842,-79.8802103
1800,Trentwood Drive,27408,36.1151958,-79.8460034
1804,Trentwood Drive,27408,36.1157305,-79.8460668
1806,Trentwood Drive,27408,36.1160495,-79.8461201
1808,Trentwood Drive,27408,36.1164162,-79.8460867
1810,Trentwood Drive,27408,36.1168073,-79.8464729
1802,Trentwood Drive,27408,36.1154972,-79.8461390
1801,Trentwood Drive,27408,36.1153015,-79.8467701
1803,Trentwood Drive,27408,36.1155613,-79.8468299
1707,Lewellyn Drive,27408,36.1142223,-79.8474038
1705,Lewellyn Drive,27408,36.1139992,-79.8473555
1705,Brookcliff Drive,27408,36.1141167,-79.8444897
3107,Robin Hood Drive,27408,36.1143061,-79.8455754
3105,Robin Hood Drive,27408,36.1142779,-79.8452820
3103,Robin Hood Drive,27408,36.1142966,-79.8449687
1707,Brookcliff Drive,27408,36.1143454,-79.8445260
1703,Brookcliff Drive,27408,36.1138590,-79.8443849
3029,Robin Hood Drive,27408,36.1138945,-79.8438546
1701,Brookcliff Drive,27408,36.1135696,-79.8443268
1200,North Elam Avenue,27408,36.0975999,-79.8237207
2324,Albright Drive,27408,36.0975243,-79.8221645
2318,Albright Drive,27408,36.0976559,-79.8211352
2316,Albright Drive,27408,36.0977041,-79.8209234
2314,Albright Drive,27408,36.0977609,-79.8206776
2312,Albright Drive,27408,36.0978327,-79.8204641
2310,Albright Drive,27408,36.0979049,-79.8202482
2308,Albright Drive,27408,36.0979809,-79.8200250
2329,Albright Drive,27408,36.0971381,-79.8226745
2327,Albright Drive,27408,36.0971396,-79.8224480
2325,Albright Drive,27408,36.0971369,-79.8221920
2323,Albright Drive,27408,36.0971391,-79.8219465
2321,Albright Drive,27408,36.0971377,-79.8217057
2319,Albright Drive,27408,36.0971555,-79.8214810
2317,Albright Drive,27408,36.0971927,-79.8212261
2315,Albright Drive,27408,36.0972614,-79.8210045
2313,Albright Drive,27408,36.0973624,-79.8205867
2311,Albright Drive,27408,36.0974359,-79.8203266
2309,Albright Drive,27408,36.0975005,-79.8200990
2305,Albright Drive,27408,36.0976503,-79.8196582
2307,Albright Drive,27408,36.0976024,-79.8198654
2303,Albright Drive,27408,36.0977349,-79.8194408
6784,Ironwood Circle,27410,36.1401763,-79.9392763
6786,Ironwood Circle,27410,36.1402136,-79.9390389
6788,Ironwood Circle,27410,36.1402736,-79.9387947
6790,Ironwood Circle,27410,36.1403676,-79.9385530
6792,Ironwood Circle,27410,36.1404345,-79.9382997
6794,Ironwood Circle,27410,36.1404935,-79.9379574
6796,Ironwood Circle,27410,36.1404013,-79.9376731
6798,Ironwood Circle,27410,36.1403171,-79.9374489
6868,Ironwood Circle,27410,36.1402147,-79.9372461
6870,Ironwood Circle,27410,36.1400683,-79.9370240
6872,Ironwood Circle,27410,36.1398626,-79.9368189
6874,Ironwood Circle,27410,36.1396419,-79.9367080
6876,Ironwood Circle,27410,36.1391484,-79.9368521
6878,Ironwood Circle,27410,36.1389614,-79.9369966
6880,Ironwood Circle,27410,36.1388169,-79.9371770
6882,Ironwood Circle,27410,36.1387242,-79.9374004
6884,Ironwood Circle,27410,36.1386764,-79.9376725
6886,Ironwood Circle,27410,36.1387267,-79.9379436
6888,Ironwood Circle,27410,36.1387904,-79.9381918
6890,Ironwood Circle,27410,36.1388128,-79.9384427
6894,Ironwood Circle,27410,36.1388485,-79.9389506
6896,Ironwood Circle,27410,36.1388780,-79.9392030
7300,Poplar Grove Trail,27410,36.1388701,-79.9395440
6892,Ironwood Circle,27410,36.1388630,-79.9387011
220,West Fisher Avenue,27401,36.0801922,-79.7921526
1103,Lanada Road,27407,36.0547763,-79.8932025
2915,Battleground Avenue,27408,36.1127507,-79.8330677
507,Pisgah Church Road,27455,36.1306245,-79.7994062
431,Pisgah Church Road,27455,36.1312364,-79.7968368
111,West Lewis Street,27403,36.0659963,-79.7914380
111,Bain Street,27403,36.0652786,-79.7918216
3227,Battleground Avenue,27408,36.1201241,-79.8427714
408,South Elm Street,27401,36.0674854,-79.7908400
1701,Swannanoa Drive,27410,36.1030675,-79.8466990
4165,Pleasant Garden Road,27406,36.0012068,-79.7771220
4108,Blumenthal Road,27406,36.0013851,-79.7749821
4102,Blumenthal Road,27406,36.0011072,-79.7738699
4096,Blumenthal Road,27406,36.0011051,-79.7729643
4092,Blumenthal Road,27406,36.0012119,-79.7721753
4086,Blumenthal Road,27406,36.0013355,-79.7711938
4082,Blumenthal Road,27406,36.0015659,-79.7706565
4076,Blumenthal Road,27406,36.0014859,-79.7692621
4072,Blumenthal Road,27406,36.0015284,-79.7689313
4070,Blumenthal Road,27406,36.0022936,-79.7683606
4066,Blumenthal Road,27406,36.0014838,-79.7679388
4064,Blumenthal Road,27406,36.0014987,-79.7675875
4058,Blumenthal Road,27406,36.0015542,-79.7668459
4060,Blumenthal Road,27406,36.0047494,-79.7679699
4054,Blumenthal Road,27406,36.0017460,-79.7660629
4051,Blumenthal Road,27406,36.0009676,-79.7660561
4045,Blumenthal Road,27406,36.0008017,-79.7649159
4039,Blumenthal Road,27406,36.0009327,-79.7636204
4035,Blumenthal Road,27406,36.0007674,-79.7631072
4025,Blumenthal Road,27406,36.0008316,-79.7610603
4026,Blumenthal Road,27406,36.0015702,-79.7621454
4024,Blumenthal Road,27406,36.0016831,-79.7616662
4016,Blumenthal Road,27406,36.0024867,-79.7628933
4003,Blumenthal Road,27406,36.0040169,-79.7597588
1100,Ruayne Road,27406,36.0044359,-79.7606392
1104,Ruayne Road,27406,36.0046186,-79.7601717
1106,Ruayne Road,27406,36.0048075,-79.7598725
1108,Ruayne Road,27406,36.0049949,-79.7596027
1110,Ruayne Road,27406,36.0051126,-79.7592484
1112,Ruayne Road,27406,36.0052108,-79.7589294
1200,Ruayne Road,27406,36.0051269,-79.7584902
1206,Ruayne Road,27406,36.0052066,-79.7580644
1114,Riveria Drive,27406,36.0053324,-79.7610513
1110,Riveria Drive,27406,36.0052605,-79.7617852
1106,Riveria Drive,27406,36.0052460,-79.7625552
1104,Riveria Drive,27406,36.0051840,-79.7628153
1100,Riveria Drive,27406,36.0052588,-79.7635861
4204,Enchanted Lane,27406,36.0051098,-79.7643193
4202,Enchanted Lane,27406,36.0053986,-79.7643220
1113,Riveria Drive,27406,36.0059013,-79.7609145
3930,Blumenthal Road,27406,36.0065079,-79.7608847
3927,Blumenthal Road,27406,36.0070075,-79.7599611
3926,Blumenthal Road,27406,36.0073079,-79.7607382
3925,Blumenthal Road,27406,36.0073575,-79.7600090
3924,Blumenthal Road,27406,36.0076907,-79.7610973
3923,Blumenthal Road,27406,36.0077683,-79.7599980
3921,Blumenthal Road,27406,36.0081912,-79.7599723
3921,Lagrange Drive,27406,36.0101281,-79.7617364
4003,Lagrange Drive,27406,36.0095599,-79.7617785
4007,Lagrange Drive,27406,36.0092173,-79.7617515
4009,Lagrange Drive,27406,36.0089282,-79.7617962
4035,Blumenthal Road,27406,36.0010041,-79.7618682
7055,Albert Pick Road,27409,36.0779298,-79.9531445
2706,Shady Lawn Drive,27408,36.1088489,-79.8341556
4901,West Market Street,27407,36.0683851,-79.8723978
3808,West Gate City Boulevard,27407,36.0388126,-79.8561350
5696,West Gate City Boulevard,27407,36.0179161,-79.8964271
200,Chillingham Court,27405,36.1896317,-79.6876265
103,Bretan Court,27405,36.1886656,-79.6879069
300,Baverhof Court,27405,36.1905725,-79.6884710
202,Rangeland Place,27405,36.1913046,-79.6894371
400,Bandana Court,27405,36.1922243,-79.6899471
5103,Black Forest Drive,27214,36.1838361,-79.6810566
308,Beresford Way,27214,36.1855421,-79.6826117
4635,Reedy Creek Farm Circle,27405,36.1869317,-79.6938698
4700,Reedy Creek Farm Circle,27405,36.1865539,-79.6933776
3222,Highlander Point,27405,36.1862867,-79.6933283
5100,Reedy Creek Farm Circle,27405,36.1814254,-79.6899980
3100,Highlander Point,27405,36.1823336,-79.6895405
5101,Reedy Fork School Road,27405,36.1845643,-79.6927928
5125,Reedy Fork School Road,27405,36.1837793,-79.6906047
3000,Middle Creek Lane,27405,36.1839535,-79.6884578
3100,Middle Creek Lane,27405,36.1847774,-79.6907680
4800,Reedy Creek Farm Circle,27405,36.1851123,-79.6899979
3000,Highlander Point,27405,36.1824404,-79.6874989
5200,Reedy Creek Farm Circle,27405,36.1822155,-79.6932388
1419,Maltese Lane,27405,36.1864688,-79.6866492
1330,Broholmer Lane,27405,36.1867637,-79.6859352
1418,Maltese Lane,27405,36.1861377,-79.6868429
1605,Komondor Trail,27405,36.1853695,-79.6869105
1606,Komondor Trail,27405,36.1858385,-79.6869557
1700,Komondor Trail,27405,36.1863317,-79.6879623
1223,Maltese Lane,27405,36.1872345,-79.6890643
1209,Maltese Lane,27405,36.1872384,-79.6897185
1206,Maltese Lane,27405,36.1868859,-79.6896414
1100,Broholmer Lane,27405,36.1875643,-79.6904733
1200,Broholmer Lane,27405,36.1874637,-79.6886864
1300,Broholmer Lane,27405,36.1870308,-79.6871141
3991,Vinton Drive,27405,36.1517159,-79.7158582
3874,Vinton Drive,27405,36.1511297,-79.7130175
3870,Vinton Drive,27405,36.1510707,-79.7128253
3860,Vinton Drive,27405,36.1507645,-79.7128284
3822,Vinton Drive,27405,36.1502334,-79.7137728
3804,Vinton Drive,27405,36.1505834,-79.7141252
3790,Vinton Drive,27405,36.1509596,-79.7140497
5399,Sarpy Terrace,27405,36.1515213,-79.7150867
3989,Redick Drive,27405,36.1521975,-79.7166394
1,Galgate Court,27405,36.1264107,-79.7275248
9,Galgate Court,27405,36.1261976,-79.7269195
10,Galgate Court,27405,36.1260610,-79.7269465
2,Galgate Court,27405,36.1259728,-79.7276309
2,Arcola Court,27405,36.1275352,-79.7274670
1,Arcola Court,27405,36.1278311,-79.7274461
12,Arcola Court,27405,36.1277178,-79.7267851
9,Arcola Court,27405,36.1278388,-79.7267940
7,Longridge Court,27405,36.1294530,-79.7258220
6,Longridge Court,27405,36.1293171,-79.7257438
2,Longridge Court,27405,36.1290483,-79.7259221
1,Longridge Court,27405,36.1293484,-79.7262690
4116,Falston Drive,27405,36.1294953,-79.7264595
1,Falston Court,27405,36.1266910,-79.7261402
7,Falston Court,27405,36.1269257,-79.7265509
8,Falston Court,27405,36.1271293,-79.7261882
2,Falston Court,27405,36.1267797,-79.7260169
18,Shepway Court,27405,36.1291856,-79.7276836
17,Shepway Court,27405,36.1288771,-79.7276289
1,Shepway Court,27405,36.1283855,-79.7267017
2,Shepway Court,27405,36.1284995,-79.7266579
3810,Sanderston Drive,27405,36.1285964,-79.7277987
212,Pleasant Willow Place,27405,36.1329033,-79.7310166
204,Pleasant Willow Place,27405,36.1329440,-79.7317462
201,Pleasant Willow Place,27405,36.1333357,-79.7320670
213,Pleasant Willow Place,27405,36.1333077,-79.7310132
100,Lemon Lane,27405,36.1325407,-79.7319040
103,Lemon Lane,27405,36.1326098,-79.7325619
117,Lemon Lane,27405,36.1334645,-79.7325129
4,Bexhill Circle,27405,36.1380495,-79.7290596
3,Bexhill Circle,27405,36.1380119,-79.7295775
9,Bexhill Circle,27405,36.1384558,-79.7294337
10,Bexhill Circle,27405,36.1384482,-79.7291908
3504,Wilcox Court,27405,36.1261623,-79.7503201
3528,Wilcox Court,27405,36.1278545,-79.7501463
3610,Wilcox Court,27405,36.1291749,-79.7500669
3626,Wilcox Court,27405,36.1302883,-79.7498929
3246,North O'Henry Boulevard,27405,36.1231141,-79.7489852
100,Brody Way,27455,36.1421733,-79.7892788
101,Brody Way,27455,36.1421599,-79.7897300
111,Brody Way,27455,36.1425223,-79.7897253
110,Brody Way,27455,36.1425357,-79.7892741
1000,Henson Park Drive,27455,36.1428068,-79.7882207
1010,Henson Park Drive,27455,36.1430370,-79.7878701
1007,Henson Park Drive,27455,36.1433504,-79.7881103
1001,Henson Park Drive,27455,36.1432012,-79.7883193
1039,Henson Park Drive,27455,36.1440172,-79.7867638
1038,Henson Park Drive,27455,36.1436558,-79.7868250
100,Stamm Drive,27455,36.1424122,-79.7883958
111,Stamm Drive,27455,36.1425850,-79.7889242
101,Stamm Drive,27455,36.1422461,-79.7888150
108,Stamm Drive,27455,36.1426882,-79.7884879
200,Stamm Drive,27455,36.1430164,-79.7885880
204,Stamm Drive,27455,36.1431621,-79.7886164
224,Stamm Drive,27455,36.1439145,-79.7880464
3,Naima Lane,27455,36.1358145,-79.8026058
8,Naima Lane,27455,36.1356033,-79.8022038
33,Stardust Trail,27455,36.1356134,-79.8030069
2,Stardust Trail,27455,36.1349378,-79.8017408
708,Whitfield Drive,27455,36.1347940,-79.8016643
200,Solacium Lane,27455,36.1351483,-79.8019361
215,Solacium Lane,27455,36.1357385,-79.8019869
212,Solacium Lane,27455,36.1356883,-79.8015248
201,Solacium Lane,27455,36.1353134,-79.8021750
31,Pisgah Forest Circle,27455,36.1376131,-79.8050803
23,Pisgah Forest Circle,27455,36.1378872,-79.8051677
62,Pisgah Forest Circle,27455,36.1379151,-79.8056319
70,Pisgah Forest Circle,27455,36.1376410,-79.8055445
60,Pisgah Forest Circle,27455,36.1382263,-79.8060024
1,Pisgah Forest Circle,27455,36.1373368,-79.8044839
20,Pisgah Forest Circle,27455,36.1357490,-79.8113124
2007,Boulevard Street,27407,36.0413732,-79.8507266
2130,New Garden Road,27410,36.1292546,-79.8555330
405,East Cornwallis Avenue,27405,36.1025878,-79.7834704
3352,West Friendly Avenue,27410,36.0887928,-79.8389918
115,Pomona Drive,27407,36.0668974,-79.8616017
2976,Battleground Avenue,27408,36.1156076,-79.8350091
5105,West Market Street,27409-2613,36.0684462,-79.8784932
3724,Battleground Avenue,27455,36.1337748,-79.8554630
341,South Elm Street,27401,36.0687899,-79.7903398
1327,Beaman Place,27408,36.0846395,-79.8035711
1304,Beaman Place,27408,36.0850547,-79.8034277
1126,North Church Street,27401,36.0923871,-79.7831263
617,Green Valley Road,27408,36.0862038,-79.8282798
806,Green Valley Road,27408,36.0912104,-79.8192622
4500,Blue Violet Drive,27410,36.1329118,-79.8766311
4403,Woodsage Drive,27410,36.1332105,-79.8772431
4504,Blue Violet Drive,27410,36.1328794,-79.8772562
4506,Blue Violet Drive,27410,36.1328813,-79.8774565
4405,Woodsage Drive,27410,36.1332116,-79.8774860
4502,Blue Violet Drive,27410,36.1328883,-79.8768843
3214,Brassfield Road,27410,36.1337956,-79.8593973
3214,Brassfield Road,27410,36.1339096,-79.8596366
3214,Brassfield Road,27410,36.1336929,-79.8593918
3214,Brassfield Road,27410,36.1339816,-79.8595067
3214,Brassfield Road,27410,36.1335978,-79.8593813
3214,Brassfield Road,27410,36.1332172,-79.8598351
3214,Brassfield Road,27410,36.1332437,-79.8600281
3214,Brassfield Road,27410,36.1331933,-79.8598129
3214,Brassfield Road,27410,36.1332004,-79.8599626
3214,Brassfield Road,27410,36.1331440,-79.8601262
3214,Brassfield Road,27410,36.1333854,-79.8595347
3214,Brassfield Road,27410,36.1337671,-79.8594632
3214,Brassfield Road,27410,36.1334397,-79.8597529
3214,Brassfield Road,27410,36.1331506,-79.8599883
3214,Brassfield Road,27410,36.1333462,-79.8596675
3214,Brassfield Road,27410,36.1332780,-79.8599038
3214,Brassfield Road,27410,36.1333020,-79.8596361
3214,Brassfield Road,27410,36.1331853,-79.8601591
3214,Brassfield Road,27410,36.1339227,-79.8594581
3214,Brassfield Road,27410,36.1336481,-79.8593800
3214,Brassfield Road,27410,36.1334371,-79.8594225
3214,Brassfield Road,27410,36.1331105,-79.8600955
3214,Brassfield Road,27410,36.1334812,-79.8596240
3214,Brassfield Road,27410,36.1335342,-79.8595028
3214,Brassfield Road,27410,36.1339977,-79.8594770
3214,Brassfield Road,27410,36.1338118,-79.8593665
3214,Brassfield Road,27410,36.1331670,-79.8601443
3214,Brassfield Road,27410,36.1339105,-79.8594819
3214,Brassfield Road,27410,36.1334581,-79.8596088
3214,Brassfield Road,27410,36.1339253,-79.8596086
3214,Brassfield Road,27410,36.1333019,-79.8599242
3214,Brassfield Road,27410,36.1337048,-79.8593667
3214,Brassfield Road,27410,36.1338235,-79.8593419
3214,Brassfield Road,27410,36.1335877,-79.8593480
3214,Brassfield Road,27410,36.1334113,-79.8597329
3214,Brassfield Road,27410,36.1339683,-79.8595305
3214,Brassfield Road,27410,36.1330884,-79.8600767
3214,Brassfield Road,27410,36.1332391,-79.8598556
3214,Brassfield Road,27410,36.1330628,-79.8600569
3214,Brassfield Road,27410,36.1331699,-79.8600031
3214,Brassfield Road,27410,36.1335591,-79.8595226
3214,Brassfield Road,27410,36.1334605,-79.8594412
3214,Brassfield Road,27410,36.1337545,-79.8594891
3214,Brassfield Road,27410,36.1338435,-79.8595520
3214,Brassfield Road,27410,36.1332218,-79.8599793
3214,Brassfield Road,27410,36.1333233,-79.8599411
3214,Brassfield Road,27410,36.1338966,-79.8595080
3214,Brassfield Road,27410,36.1334074,-79.8595510
3214,Brassfield Road,27410,36.1332460,-79.8600002
3214,Brassfield Road,27410,36.1333245,-79.8596512
3214,Brassfield Road,27410,36.1338536,-79.8595263
3214,Brassfield Road,27410,36.1331316,-79.8599724
3214,Brassfield Road,27410,36.1334836,-79.8594593
3214,Brassfield Road,27410,36.1334309,-79.8595691
3510,Normandy Hills Circle,27410,36.1285349,-79.8678512
100,North Luther Street,27401,36.0735414,-79.7689931
2124,Veasley Street,27407,36.0386255,-79.8456095
2190,Siler Street,27407,36.0384696,-79.8461773
3830,West Gate City Boulevard,27407,36.0387769,-79.8588620
4413,Sellars Avenue,27407,36.0353727,-79.8678808
4721,North O'Henry Boulevard,27405,36.1644475,-79.7212632
411,Parkway Avenue,27401,36.0863353,-79.7945883
717,Green Valley Road,27408,36.0924232,-79.8219177
1500,Mill Street,27408,36.0889692,-79.8122497
5715,West Gate City Boulevard,27407,36.0147478,-79.8958836
3899,Jaycee Park Drive,27455,36.1216680,-79.8357602
1300,Sykes Avenue,27405,36.0942780,-79.7453969
2307,Apache Street,27401,36.0715025,-79.7547335
500,Bingham Street,27401,36.0694039,-79.7593510
116,Poe Street,27403,36.0665357,-79.8201474
3111,Four Seasons Boulevard,27406,36.0244822,-79.8287388
408,Bellemeade Street,27401,36.0764668,-79.7951641
1410,19th Street,27405,36.1104574,-79.7685870
528,South Elm Street,27406,36.0663520,-79.7910369
520,South Elm Street,27406,36.0665907,-79.7910947
526,South Elm Street,27406,36.0664215,-79.7910317
512,South Elm Street,27406,36.0669033,-79.7909475
518,South Elm Street,27406,36.0667112,-79.7910175
516,South Elm Street,27406,36.0667726,-79.7910131
514,South Elm Street,27406,36.0668380,-79.7910076
112,West Lewis Street,27406,36.0662367,-79.7912921
532-536,South Elm Street,27406,36.0661845,-79.7910516
530,South Elm Street,27406,36.0662845,-79.7909936
120,West Lewis Street,27406,36.0664431,-79.7916094
515,South Elm Street,27406,36.0667278,-79.7903510
523,South Elm Street,27406,36.0665155,-79.7904682
500,South Elm Street,27406,36.0672235,-79.7909016
506,South Elm Street,27406,36.0671310,-79.7909343
511,South Elm Street,27406,36.0669007,-79.7904395
513,South Elm Street,27406,36.0668335,-79.7904530
517,South Elm Street,27406,36.0666983,-79.7905277
519,South Elm Street,27406,36.0666214,-79.7904629
527,South Elm Street,27406,36.0663970,-79.7904985
529,South Elm Street,27406,36.0663407,-79.7904687
531,South Elm Street,27406,36.0662407,-79.7902996
408,South Elm Street,27406,36.0674646,-79.7909613
102,Barnhardt Street,27406,36.0673720,-79.7912500
106,Barnhardt Street,27406,36.0672894,-79.7914741
109-115,West McGee Street,27401,36.0683879,-79.7910955
121,West McGee Street,27401,36.0683648,-79.7913667
358,South Elm Street,27401,36.0682256,-79.7909414
358,South Elm Street,27401,36.0681018,-79.7911308
400,South Elm Street,27406,36.0677318,-79.7911710
352,South Elm Street,27401,36.0683747,-79.7908463
356,South Elm Street,27401,36.0682958,-79.7909865
318,South Elm Street,27401,36.0694663,-79.7908822
300,South Elm Street,27401,36.0700865,-79.7908310
304,South Elm Street,27401,36.0699761,-79.7908393
308,South Elm Street,27401,36.0698318,-79.7907910
310,South Elm Street,27401,36.0697576,-79.7907965
312,South Elm Street,27401,36.0696856,-79.7908592
314,South Elm Street,27401,36.0696159,-79.7908645
320,South Elm Street,27401,36.0693920,-79.7908877
324,South Elm Street,27401,36.0692893,-79.7908954
342-344,South Elm Street,27401,36.0687336,-79.7908575
"346, 348",South Elm Street,27401,36.0686226,-79.7908657
110,West McGee Street,27401,36.0686965,-79.7910754
316,South Elm Street,27401,36.0695396,-79.7908767
134,South Elm Street,27401,36.0717573,-79.7907161
100,South Elm Street,27401,36.0722309,-79.7906478
206,South Elm Street,27401,36.0713057,-79.7907731
"236, 238",West Washington Street,27401,36.0704894,-79.7908153
200,South Elm Street,27401,36.0714215,-79.7907651
212,South Elm Street,27401,36.0711969,-79.7907841
226,South Elm Street,27401,36.0708244,-79.7908089
230,South Elm Street,27401,36.0707396,-79.7908034
216,South Elm Street,27401,36.0710270,-79.7907744
219-A,South Elm Street,27401,36.0709341,-79.7907991
232,South Elm Street,27401,36.0706291,-79.7908091
214,South Elm Street,27401,36.0710837,-79.7907701
101,West Friendly Avenue,27401,36.0732666,-79.7907441
220,North Greene Street,27401,36.0747363,-79.7907624
201,North Elm Street,27401,36.0737609,-79.7905580
117,South Elm Street,27401,36.0718635,-79.7900006
125,South Elm Street,27401,36.0716373,-79.7899393
100,North Elm Street,27401,36.0727966,-79.7899800
101,South Elm Street,27401,36.0722169,-79.7899446
106,North Elm Street,27401,36.0728792,-79.7899736
108,North Elm Street,27401,36.0729653,-79.7899121
112-116,North Elm Street,27401,36.0731143,-79.7898968
121,South Elm Street,27401,36.0717752,-79.7900246
123,South Elm Street,27401,36.0717165,-79.7900394
301,North Elm Street,27401,36.0755838,-79.7903350
122,North Elm Street,27401,36.0732895,-79.7898864
113,South Elm Street,27401,36.0720099,-79.7899604
115,South Elm Street,27401,36.0719470,-79.7899643
229,South Elm Street,27401,36.0705196,-79.7901527
215,South Elm Street,27401,36.0710634,-79.7901028
231,South Elm Street,27401,36.0704430,-79.7901591
203-213,South Elm Street,27401,36.0712117,-79.7899623
201,South Elm Street,27401,36.0714527,-79.7900084
227,South Elm Street,27401,36.0706413,-79.7901425
223,South Elm Street,27401,36.0707939,-79.7900659
219,South Elm Street,27401,36.0709377,-79.7900228
221,South Elm Street,27401,36.0708629,-79.7900429
225,South Elm Street,27401,36.0707190,-79.7899859
233,South Elm Street,27401,36.0703720,-79.7901650
315,South Elm Street,27401,36.0696378,-79.7902622
301,South Elm Street,27401,36.0700239,-79.7901117
317,South Elm Street,27401,36.0695413,-79.7901585
323,South Elm Street,27401,36.0694183,-79.7901794
325,South Elm Street,27401,36.0693131,-79.7901827
327,South Elm Street,27401,36.0692169,-79.7901930
341,South Elm Street,27401,36.0687911,-79.7902834
343,South Elm Street,27401,36.0687223,-79.7902885
345,South Elm Street,27401,36.0686380,-79.7902948
116,South Davie Street,27401,36.0693050,-79.7896741
322,South Davie Street,27401,36.0690946,-79.7896777
335,South Davie Street,27401,36.0688287,-79.7890743
337,South Davie Street,27401,36.0687262,-79.7890819
339,South Davie Street,27401,36.0686586,-79.7890870
341,South Davie Street,27401,36.0685896,-79.7890880
111,West Washington Street,27401,36.0700058,-79.7911996
310,South Greene Street,27401,36.0697676,-79.7922396
202,Exchange Place,27401,36.0695469,-79.7922410
206,Exchange Place,27401,36.0695528,-79.7924103
219,West Washington Street,27401,36.0701396,-79.7926669
301,South Greene Street,27401,36.0700128,-79.7913844
"314, 316, 318",South Greene Street,27401,36.0695425,-79.7920144
317,South Greene Street,27401,36.0696028,-79.7913746
313,South Greene Street,27401,36.0697592,-79.7913850
315,South Greene Street,27401,36.0696939,-79.7913898
200,Spring Garden Street,27401,36.0682340,-79.7925190
330,South Greene Street,27401,36.0691539,-79.7921358
360,Spring Garden Street,27401,36.0683227,-79.7933027
320,Federal Place,27401,36.0694641,-79.7933316
301,West Market Street,27401,36.0721503,-79.7926671
219,West Friendly Avenue,27401,36.0734023,-79.7924952
201,South Greene Street,27401,36.0713411,-79.7912715
106,Commerce Place,27401,36.0729795,-79.7924805
108,Commerce Place,27401,36.0730943,-79.7924318
110,Commerce Place,27401,36.0732264,-79.7923826
113,North Greene Street,27401,36.0730817,-79.7917735
119,North Greene Street,27401,36.0732653,-79.7917663
127,North Greene Street,27401,36.0734121,-79.7917605
200-202,West Market Street,27401,36.0728991,-79.7916797
200-202,West Market Street,27401,36.0728010,-79.7917302
218,West Market Street,27401,36.0728237,-79.7921675
220,West Market Street,27401,36.0727995,-79.7923651
117,North Greene Street,27401,36.0732043,-79.7917701
121,North Greene Street,27401,36.0733270,-79.7917624
216,West Market Street,27401,36.0728101,-79.7920325
214,West Friendly Avenue,27401,36.0737507,-79.7922215
224,Commerce Place,27401,36.0743863,-79.7921856
222,Commerce Place,27401,36.0742532,-79.7921975
201,North Greene Street,27401,36.0738482,-79.7918158
217,North Greene Street,27401,36.0742316,-79.7917757
210,Commerce Place,27401,36.0739015,-79.7922913
210,West Friendly Avenue,27401,36.0738030,-79.7921159
218,West Friendly Avenue,27401,36.0737570,-79.7923833
216,Commerce Place,27401,36.0741305,-79.7922085
211,North Greene Street,27401,36.0741162,-79.7917705
214,Commerce Place,27401,36.0740140,-79.7922191
216,West Friendly Avenue,27401,36.0737536,-79.7923046
253,North Greene Street,27401,36.0750483,-79.7916492
209,Bellemeade Street,27401,36.0751226,-79.7918820
231,North Greene Street,27401,36.0745825,-79.7917530
233,North Greene Street,27401,36.0746932,-79.7917139
234,Commerce Place,27401,36.0749070,-79.7920992
235,North Greene Street,27401,36.0748014,-79.7917197
255,North Greene Street,27401,36.0751033,-79.7916584
251,North Greene Street,27401,36.0749990,-79.7916630
1616,Spring Garden Street,27403,36.0644336,-79.8175389
4822,Koger Boulevard,27407,36.0511115,-79.8793873
7846,McCloud Road,27409,36.0870995,-79.9766403
1089,Knox Road,27301-9228,36.0627176,-79.6826628
815,West Market Street,27401,36.0714984,-79.7993293
236,East Washington Street,27401,36.0694768,-79.7877031
700,Creek Ridge Road,27406,36.0306730,-79.8089769
6104,Corporate Park Drive,27214,36.1647896,-79.7376646
6105,Corporate Park Drive,27214,36.1666893,-79.7405490
815,West Market Street,27401,36.0695140,-79.7996629
1500,Dans Road,27401,36.0520534,-79.7518622
2907,East Gate City Boulevard,27401,36.0566088,-79.7451935
1600,Spring Garden Street,27403,36.0653085,-79.8157287
1619,Stanley Road,27407,36.0546137,-79.8910854
2003,Athena Court,27407,36.0437444,-79.8440976
3030,West Gate City Boulevard,27403,36.0461910,-79.8397618
4301,Lawndale Drive,27455,36.1299971,-79.8337050
1100,Lanada Road,27407,36.0554212,-79.8944606
4305,Big Tree Way,27409,36.0580255,-79.8905290
4307,Big Tree Way,27409,36.0583763,-79.8913678
4201,West Wendover Avenue,27407-1908,36.0574167,-79.8835888
4209,West Wendover Avenue,27407-1908,36.0572278,-79.8882392
2006,Veasley Street,27407-4638,36.0425721,-79.8458408
3220,West Gate City Boulevard,27407,36.0422994,-79.8447290
3204,West Gate City Boulevard,27407,36.0423484,-79.8435415
2001,Veasley Street,27407,36.0437734,-79.8447206
1605,Spring Garden Street,27403,36.0642275,-79.8159199
7208,Cessna Drive,27409,36.0851125,-79.9485995
1219,Spring Garden Street,27403,36.0654931,-79.8112148
1205,Spring Garden Street,27403,36.0656691,-79.8106715
611,Forest Street,27403,36.0649560,-79.8095793
1111,Spring Garden Street,27403,36.0656011,-79.8095527
1510,Walker Avenue,27402,36.0691302,-79.8144117
5701,Inman Road,27410,36.1256355,-79.9060071
3738,Battleground Avenue,27410,36.1353776,-79.8554194
3710,Battleground Avenue,27410,36.1323214,-79.8560219
2101,New Garden Road,27410,36.1291990,-79.8584200
3215,Brassfield Road,27410,36.1307136,-79.8602844
3315,Battleground Avenue,27410,36.1198563,-79.8451503
3301,Battleground Avenue,27410,36.1205111,-79.8434604
3001,Battleground Avenue,27408,36.1149355,-79.8377963
8300,Triad Drive,27410,36.0945343,-79.9791172
204,Centreport Drive,27409,36.0829261,-79.9634147
121,West Elmsley Drive,27406,36.0021082,-79.7996768
109,West Elmsley Drive,27406,36.0017567,-79.7955835
4102,Fernhurst Way,27406,36.0030790,-79.7912658
5595,Garden Village Way,27410,36.1121999,-79.9074071
701,Francis King Street,27410,36.0885302,-79.8910421
5901,West Friendly Avenue,27410,36.0896304,-79.8903500
1628,Highwoods Boulevard,27410-2048,36.1139283,-79.8760123
1571,New Garden Road,27410,36.1128414,-79.8816985
1620,New Garden Road,27410,36.1166525,-79.8734324
1507,New Garden Road,27410,36.1107583,-79.8831615
5121,Hedrick Drive,27410,36.1511269,-79.8828996
3000,Battleground Avenue,27408,36.1159180,-79.8356663
2936,Battleground Avenue,27408,36.1146707,-79.8346064
2903,Battleground Avenue,27410,36.1123129,-79.8327573
2812,Battleground Avenue,27408,36.1116087,-79.8309538
2704,Battleground Avenue,27408,36.1104763,-79.8295573
2622,Battleground Avenue,27408,36.1087631,-79.8283256
2622,Battleground Avenue,27408,36.1089616,-79.8281900
2620,Battleground Avenue,27410,36.1086265,-79.8278432
2630,Battleground Avenue,27408,36.1097720,-79.8285237
2618,Battleground Avenue,27408-1924,36.1080503,-79.8274277
2400,Battleground Avenue,27408,36.1029206,-79.8233351
2317,Battleground Avenue,27408,36.1012755,-79.8228069
1517,Westover Terrace,27408,36.0946149,-79.8170974
1607,Battleground Avenue,27408,36.0898268,-79.8114693
1305,Battleground Avenue,27408,36.0860590,-79.8076681
607,Green Valley Road,27408,36.0843246,-79.8295779
3124,Kathleen Avenue,27408,36.0856418,-79.8322819
624,Green Valley Road,27408,36.0865764,-79.8263293
3330,West Friendly Avenue,27410,36.0880228,-79.8374061
1214,Battleground Avenue,27408,36.0851099,-79.8048481
3703,Lawndale Drive,27455,36.1178503,-79.8293058
2007,Pisgah Church Road,27455,36.1178875,-79.8263847
8204,West Market Street,27409,36.0928532,-79.9548583
120,Barnhardt Street,27406,36.0670415,-79.7922652
201,West Market Street,27401,36.0722699,-79.7918919
4425,West Wendover Avenue,27407,36.0540977,-79.9000848
4424,West Wendover Avenue,27407,36.0579458,-79.9010129
4418,West Wendover Avenue,27407,36.0580022,-79.8991764
5402,Sapp Road,27409,36.0558069,-79.9041467
1319,Bridford Parkway,27407,36.0504399,-79.9022298
6102,Landmark Center Boulevard,27407,36.0537592,-79.8993932
4400,West Wendover Avenue,27407,36.0565587,-79.8949079
1103,Lanada Road,27407,36.0547546,-79.8931581
1701,South 40 Drive,27407,36.0539966,-79.8895042
1703,South 40 Drive,27407,36.0533010,-79.8869441
1705,South 40 Drive,27407,36.0524933,-79.8874937
6010,Landmark Center Boulevard,27407,36.0536381,-79.8950461
1201,Lanada Road,27407,36.0536009,-79.8930167
3033,West Gate City Boulevard,27403,36.0449027,-79.8379526
3000,West Gate City Boulevard,27403,36.0491185,-79.8359571
1921,West Gate City Boulevard,27403,36.0590727,-79.8261561
2700,Vanstory Street,27409,36.0371229,-79.8437275
5714,West Gate City Boulevard,27407,36.0396287,-79.8490262
4631,West Gate City Boulevard,27407,36.0300786,-79.8664870
4222,West Gate City Boulevard,27407,36.0369841,-79.8635841
1220,Bridford Parkway,27407,36.0570578,-79.9031227
5421,Hornaday Road,27407,36.0591073,-79.9087646
3902,West Wendover Avenue,27407,36.0606204,-79.8775455
3800,West Wendover Avenue,27407,36.0605083,-79.8748368
3908,West Wendover Avenue,27407,36.0606828,-79.8790391
3900,West Wendover Avenue,27407,36.0607441,-79.8767077
100,South Eugene Street,27401,36.0722246,-79.7945476
5727,West Gate City Boulevard,27407,36.0143791,-79.8964400
6930,West Market Street,27409,36.0813240,-79.9302979
2407,South Holden Road,27407,36.0347763,-79.8470262
3334,West Friendly Avenue,27410,36.0872966,-79.8396102
3701,West Gate City Boulevard,27407,36.0145829,-79.8976463
1601,Spring Garden Street,27403,36.0643337,-79.8156944
1200,West Gate City Boulevard,27403,36.0632208,-79.8110923
4927,West Market Street,24707,36.0665782,-79.8751537
1610,Spring Garden Street,27403,36.0647809,-79.8165251
807,South Josephine Boyd Street,27403,36.0619375,-79.8150574
6006,Landmark Center Boulevard,27407,36.0527697,-79.8915777
1705,Stanley Road,27407,36.0518261,-79.8893355
3005,West Gate City Boulevard,27403,36.0476902,-79.8349841
219,North Church Street,27401,36.0748776,-79.7872318
704,Green Valley Road,27408,36.0891046,-79.8211202
221,Summit Avenue,27401,36.0766387,-79.7872354
401,North Elm Street,27401,36.0774604,-79.7902306
220,North Church Street,27401,36.0752287,-79.7860845
414,North Church Street,27401,36.0782301,-79.7864007
332,Tate Street,27412,36.0688309,-79.8059775
525,Tate Street,27403,36.0649094,-79.8048891
605,College Road,27410,36.0873127,-79.8890102
2856,Horse Pen Creek Road,27410,36.1316038,-79.8858266
3600,Drawbridge Parkway,27410,36.1334778,-79.8805045
3310,Horse Pen Creek Road,27410,36.1466957,-79.8745747
1008,Country Club Drive,27408,36.0990072,-79.8080988
1006,Country Club Drive,27408,36.0991673,-79.8078151
1004,Country Club Drive,27408,36.0991935,-79.8074653
1002,Country Club Drive,27408,36.0993638,-79.8072655
311-A,Pomona Drive,27407,36.0657839,-79.8650633
3901,Battleground Avenue,27410,36.1411736,-79.8681491
4308,Big Tree Way,27409,36.0598821,-79.8892539
501,North Elam Avenue,27403,36.0831454,-79.8259870
1200,North Elm Street,27401,36.0921272,-79.7860754
905,Cridland Road,27408,36.0891601,-79.7942123
3905,Nathanael Green Drive,27455,36.1256100,-79.8365402
715,Summit Avenue,27405,36.0819855,-79.7794144
401,Pisgah Church Road,27455,36.1304469,-79.7956125
2801,Patterson Street,27407,36.0571693,-79.8398328
4,Cardinal Health Court,27407,36.0488707,-79.8869011
4821,Koger Boulevard,27407,36.0497801,-79.8816317
4819,Koger Boulevard,27407,36.0489044,-79.8813811
1425,Huffine Mill Road,27402,36.0961583,-79.7308371
401,Ashland Drive,27403,36.0719471,-79.8399136
208,North Davie Street,27401,36.0745903,-79.7878390
2924,East Gate City Boulevard,27401,36.0567008,-79.7490637
1010,Duke Street,27406,36.0629600,-79.7694632
235,Bingham Street,27401,36.0720916,-79.7598920
1400,Spring Garden Street,27412,36.0683567,-79.8107652
1601,Market Street,27411,36.0776064,-79.7727086
815,West Market Street,27401,36.0710959,-79.8009085
7027,Albert Pick Road,27265,36.0749201,-79.9509435
200,South Aycock Street,27403,36.0715828,-79.8160739
3301,Starmount Drive,27402,36.0749229,-79.8431552
4301,Starmount Drive,27410,36.0833739,-79.8589546
1300,Briarcliff Road,27408,36.0921997,-79.7973138
7,Sharp's Airpark Court,27409,36.0825816,-79.9590666
7623,Thorndike Road,27409,36.0756095,-79.9622911
7619,Thorndike Road,27409,36.0758368,-79.9614469
7617,Thorndike Road,27409,36.0755808,-79.9604639
7615,Thorndike Road,27409,36.0752818,-79.9595858
7800,National Service Road,27409,36.0770302,-79.9599032
7801,National Service Road,27409,36.0770773,-79.9610416
7803,National Service Road,27409,36.0779486,-79.9603902
7811,National Service Road,27409,36.0779483,-79.9615055
7616,Thorndike Road,27409,36.0771088,-79.9618524
605,South Regional Road,27409,36.0764665,-79.9571935
7067,Albert Pick Road,27409,36.0780549,-79.9557434
3910,South Holden Road,27406,36.0064088,-79.8395607
107,Arrow Road,27409,36.0940496,-79.9582472
209,Pisgah Church Road,27455,36.1323831,-79.7923503
305,North Church Street,27401,36.0756043,-79.7869581
116,East Lewis Street,27406,36.0658291,-79.7903507
192,East Lewis Street,27406,36.0657120,-79.7898385
1611,Pisgah Church Road,27455,36.1196903,-79.8193638
4004,Perth Place,27405,36.0549356,-79.7120560
2615,Liberty Road,27406,36.0353908,-79.7687177
2010,Coliseum Boulevard,27403,36.0494121,-79.8227090
2501,Murrayhill Road,27403,36.0412820,-79.8290368
2901,West Florida Street,27407,36.0540122,-79.8384491
3700,Belhaven Drive,27407,36.0463234,-79.8533456
3901,Gentry Street,27407,36.0498816,-79.8582139
4601,Beckford Drive,27407,36.0435113,-79.8710842
4201,Beckford Drive,27407,36.0448792,-79.8656530
1511,Perkins Street,27401,36.0700315,-79.7681235
1200,Willow Road,27402,36.0613670,-79.7623231
1302,Gulf Court,27401,36.0589784,-79.7578448
2630,East Florida Street,27401,36.0549375,-79.7492002
2013,Willow Road,27406,36.0419551,-79.7614623
1901,Acorn Road,27406,36.0399159,-79.7635964
2414,Madre Place,27406,36.0322551,-79.7660557
1809,Eastwood Drive,27402,36.0483094,-79.7570824
208,Erskine Drive East,27410,36.0890268,-79.8598147
4400,Starmount Drive,27410,36.0847510,-79.8609602
1,Sam Sneed Drive,27410,36.0766170,-79.8548427
3299,Starmount Drive,27403,36.0731640,-79.8369244
2907,Springwood Drive,27402,36.0667383,-79.8422267
805,Nealtown Road,27405,36.0991725,-79.7301505
2501,Phillips Avenue;Phillips Ave,27405;27405-5357,36.0952139,-79.7445285
1501,Larchmont Drive,27402,36.1003761,-79.7401872
4115,Donegal Drive,27406,36.0114169,-79.8196243
4100,South Rehobeth Church Road,27406,36.0131060,-79.8150695
3801,Lynhaven Drive,27406,36.0200129,-79.8114887
301,Largo Drive,27406,36.0196697,-79.7989406
3615,Deutzia Street,27407,36.0183117,-79.8592211
2700,West Vandalia Road,27407,36.0146736,-79.8544759
3100,Merryweather Road,27407,36.0261786,-79.8612097
2301,Creekwood Drive,27407,36.0415803,-79.8811884
4700,Hilltop Road,27407,36.0368801,-79.8818105
1420,Price Park Drive,27410,36.1051426,-79.8792512
1420,Price Park Greenway,27410-2044,36.1057252,-79.8776452
1400,New Garden Road,27410,36.1051602,-79.8854542
916,Spring Garden Street,27403,36.0667439,-79.8041605
520,Benjamin Parkway,27408,36.0813067,-79.8075614
101,Elmwood Drive,27408,36.0994022,-79.7888211
700,Blair Street,27408,36.0937762,-79.8014453
901,Nottingham Road,27408,36.0946576,-79.8051561
700,Sunset Drive,27408,36.0977265,-79.7997629
210,Meadowbrook Terrace,27408,36.0950828,-79.7912029
2105,Yanceyville Street,27405,36.1003743,-79.7758171
2200,Yanceyville Street,27405,36.1010965,-79.7741026
2401,Fairview Street,27405,36.1060182,-79.7736198
2401,Fairview Street,27405,36.1062485,-79.7732477
1400,Guest Street,27405,36.1162934,-79.7700147
3701,Murchie Street,27405,36.1296317,-79.7578684
3916,Sheridan Road,27455,36.1304157,-79.8090370
500,Miltwood Drive,27455,36.1270952,-79.8184610
2027,Downing Street,27410,36.1266572,-79.8508114
3110,Forest Lawn Drive,27455,36.1184616,-79.8358047
3901,Forest Lawn Drive,27455,36.1238674,-79.8409065
202,Summit Avenue,27401,36.0763034,-79.7871306
700,North Elm Street,27401,36.0829310,-79.7890374
501,Yanceyville Street,27405,36.0784709,-79.7788350
510,Yanceyville Street,27405,36.0799211,-79.7771598
414,North Regan Street,27405,36.0766950,-79.7801460
401,Cumberland Street,27401,36.0761331,-79.7818677
410,North Dudley Street,27405,36.0773862,-79.7781551
612,College Road,27410,36.0875791,-79.8880525
701,College Road,27410,36.0882079,-79.8888437
700,College Road,27410,36.0881587,-79.8877752
5611,West Friendly Avenue,27410,36.0876613,-79.8862688
5601,West Friendly Avenue,27410,36.0889525,-79.8847498
706,College Road,27410,36.0886657,-79.8879355
712,College Road,27410,36.0889465,-79.8878028
5729,West Friendly Avenue,27410,36.0895011,-79.8883539
711,College Road,27410,36.0889789,-79.8887897
5615,West Friendly Avenue,27410,36.0891879,-79.8861694
601,College Road,27410,36.0864482,-79.8895888
705,Milner Drive,27410,36.0882687,-79.8870720
300,North Eugene Street,27401,36.0758457,-79.7933837
1101,West Market Street,27412,36.0730532,-79.8055871
1107,West Market Street,27412,36.0730837,-79.8059276
903,Knox Road,27301,36.0606394,-79.6576015
1802,Mount Hope Church Road,27406,36.0570975,-79.6599041
5320,Millstream Road,27301,36.0551616,-79.6593574
576,North Eugene Street,27401,36.0785268,-79.7931570
124,East Gate City Boulevard,27406,36.0642096,-79.7898383
5834,Bur-Mill Club Road,27410,36.1676585,-79.8693848
2912,South Elm Eugene Street,27406,36.0332663,-79.7948151
2112,West Meadowview Road,27403,36.0460247,-79.8366923
2108,West Meadowview Road,27403,36.0456222,-79.8362651
2101,West Meadowview Road,27403,36.0441578,-79.8365087
2004,Veasley Street,27407,36.0435841,-79.8458447
3121,West Gate City Boulevard,27407,36.0416307,-79.8411450
1819,Spring Garden Street,27403,36.0632802,-79.8226880
4618,West Market Street,27407,36.0713961,-79.8638011
4616,West Market Street,27407,36.0714752,-79.8632965
6316,Old Oak Ridge Road,27410,36.1290883,-79.9338526
2519,Randleman Road,27406,36.0304770,-79.8010417
2301,West Vandalia Road,27407-7623,36.0190476,-79.8473409
6009,Landmark Center Boulevard,27407,36.0526238,-79.8942475
6007,Landmark Center Boulevard,27407,36.0522789,-79.8934594
3108,Watauga Drive,27410,36.0994115,-79.8422843
804,West Gate City Boulevard,27403,36.0640734,-79.8035110
307,West Gate City Boulevard,27406,36.0642507,-79.7948748
4401,Burlington Road,27405,36.0905746,-79.7011127
5200,West Friendly Avenue,27410,36.0913005,-79.8756629
1414,West Northwood Street,27408,36.0914349,-79.8111248
5608,West Friendly Avenue,27410,36.0896977,-79.8859370
3731,Lawndale Drive,27455,36.1193026,-79.8303826
5717,Bramblegate Road,27409,36.0573781,-79.9130966
1324,Mayfair Avenue,27405,36.0914295,-79.7682422
622,Guilford College Road,27409,36.0647856,-79.9076402
620,Guilford College Road,27409,36.0652905,-79.9076237
618,Guilford College Road,27409,36.0652881,-79.9071806
624,Guilford College Road,27409,36.0646444,-79.9069317
618,Guilford College Road,27409,36.0649249,-79.9064896
615,Guilford College Road,27409,36.0638370,-79.9063084
825,Norwalk Street,27407,36.0571792,-79.8696206
3505,Lawndale Drive,27408,36.1141473,-79.8237600
200,East Gate City Boulevard,27406,36.0641358,-79.7885483
5817,Garden Village Court,27410,36.1112926,-79.9072924
3814,Manor Drive,27403,36.0713570,-79.8465848
5813,Lake Brandt Road,27455,36.1624591,-79.8359531
4103,Cox place,27409,36.0608648,-79.8861169
3524,Camden Falls Circle,27410,36.1326019,-79.8647365
3522,Camden Falls Circle,27410,36.1328603,-79.8644522
3519,Camden Falls Circle,27410,36.1326355,-79.8637925
3517,Camden Falls Circle,27410,36.1329785,-79.8636547
3520,Camden Falls Circle,27410,36.1331361,-79.8643169
3518,Camden Falls Circle,27410,36.1334460,-79.8642184
3802,Camden Falls Court,27410,36.1334158,-79.8651405
3800,Camden Falls Court,27410,36.1330836,-79.8650107
3516,Camden Falls Circle,27410,36.1337026,-79.8643335
3514,Camden Falls Circle,27410,36.1339956,-79.8645091
3512,Camden Falls Circle,27410,36.1342548,-79.8647706
3510,Camden Falls Circle,27410,36.1345149,-79.8650306
3508,Camden Falls Circle,27410,36.1346314,-79.8653429
3506,Camden Falls Circle,27410,36.1347617,-79.8657056
3504,Camden Falls Circle,27410,36.1348226,-79.8660802
3502,Camden Falls Circle,27410,36.1347822,-79.8665061
3500,Camden Falls Circle,27410,36.1346656,-79.8668895
3620,Camden Falls Circle,27410,36.1344822,-79.8671599
3618,Camden Falls Circle,27410,36.1341983,-79.8672914
3616,Camden Falls Circle,27410,36.1338949,-79.8673343
3614,Camden Falls Circle,27410,36.1336242,-79.8671992
3612,Camden Falls Circle,27410,36.1333488,-79.8669888
3610,Camden Falls Circle,27410,36.1330358,-79.8668148
3608,Camden Falls Circle,27410,36.1327343,-79.8665844
3625,Camden Falls Circle,27410,36.1344071,-79.8679749
3623,Camden Falls Circle,27410,36.1339759,-79.8680487
3621,Camden Falls Circle,27410,36.1336595,-79.8680413
3619,Camden Falls Circle,27410,36.1333043,-79.8678320
3617,Camden Falls Circle,27410,36.1330443,-79.8676373
3615,Camden Falls Circle,27410,36.1327571,-79.8673818
3613,Camden Falls Circle,27410,36.1324789,-79.8671751
3611,Camden Falls Circle,27410,36.1322168,-79.8669799
3609,Camden Falls Circle,27410,36.1319258,-79.8667004
3606,Camden Falls Circle,27410,36.1324615,-79.8663787
3604,Camden Falls Circle,27410,36.1322647,-79.8661159
3607,Camden Falls Circle,27410,36.1317374,-79.8663111
3605,Camden Falls Circle,27410,36.1316248,-79.8658494
3603,Camden Falls Circle,27410,36.1316395,-79.8654320
3601,Camden Falls Circle,27410,36.1317419,-79.8650172
3602,Camden Falls Circle,27410,36.1321554,-79.8657633
3600,Camden Falls Circle,27410,36.1321994,-79.8653546
3801,Camden Falls Court,27410,36.1327486,-79.8656078
3803,Camden Falls Court,27410,36.1330084,-79.8657620
3805,Camden Falls Court,27410,36.1333399,-79.8658938
3807,Camden Falls Court,27410,36.1335524,-79.8662712
3809,Camden Falls Court,27410,36.1338275,-79.8665503
3810,Camden Falls Court,27410,36.1341785,-79.8664998
3808,Camden Falls Court,27410,36.1342842,-79.8659264
3806,Camden Falls Court,27410,36.1339936,-79.8656392
3804,Camden Falls Court,27410,36.1337178,-79.8653800
3304,Isler Street,27407,36.0440303,-79.8468629
900,South Benbow Road,27406,36.0640710,-79.7714640
5408,Garden Lake Drive,27410,36.1105958,-79.8850721
5410,Garden Lake Drive,27410,36.1108829,-79.8852511
2425,Randleman Road,27406,36.0365375,-79.7990065
2340,Randleman Road,27406,36.0410075,-79.8013730
2347,Randleman Road,27406,36.0404850,-79.8002850
306,South English Street,27401,36.0715748,-79.7581857
1530,Benjamin Parkway,27408,36.1035053,-79.8301365
2524,Westmoreland Drive,27408,36.1023831,-79.8292857
2522,Westmoreland Drive,27408,36.1024259,-79.8289301
2520,Westmoreland Drive,27408,36.1024321,-79.8286935
2518,Westmoreland Drive,27408,36.1024839,-79.8284134
2516,Westmoreland Drive,27408,36.1024920,-79.8281155
2514,Westmoreland Drive,27408,36.1025010,-79.8278510
2512,Westmoreland Drive,27408,36.1024955,-79.8275710
2510,Westmoreland Drive,27408,36.1024880,-79.8272745
2508,Westmoreland Drive,27408,36.1025112,-79.8269955
2506,Westmoreland Drive,27408,36.1025136,-79.8266941
1106,North Elam Avenue,27408,36.0972451,-79.8237434
2333,Albright Drive,27408,36.0971764,-79.8231536
2331,Albright Drive,27408,36.0971292,-79.8229223
2335,Albright Drive,27408,36.0971334,-79.8233948
2329,Albright Drive,27408,36.0971298,-79.8226813
2500,Westmoreland Drive,27408,36.1024905,-79.8258715
1705,Quail Drive,27408,36.1029430,-79.8264535
2504,Westmoreland Drive,27408,36.1024740,-79.8263993
2502,Westmoreland Drive,27408,36.1024508,-79.8261651
2336,Albright Drive,27408,36.0975842,-79.8233341
2334,Albright Drive,27408,36.0975675,-79.8231034
1306,North Elam Avenue,27408,36.0991509,-79.8235859
2323,Fernwood Drive,27408,36.0990850,-79.8232305
2321,Fernwood Drive,27408,36.0990660,-79.8229950
2319,Fernwood Drive,27408,36.0990345,-79.8227550
2317,Fernwood Drive,27408,36.0990335,-79.8225120
2315,Fernwood Drive,27408,36.0990400,-79.8222640
2313,Fernwood Drive,27408,36.0990516,-79.8219958
2311,Fernwood Drive,27408,36.0990865,-79.8217050
2300,Fernwood Drive,27408,36.0998169,-79.8205978
2302,Fernwood Drive,27408,36.0997413,-79.8208261
2304,Fernwood Drive,27408,36.0996790,-79.8210590
2306,Fernwood Drive,27408,36.0996170,-79.8213060
2308,Fernwood Drive,27408,36.0996040,-79.8215780
2310,Fernwood Drive,27408,36.0995635,-79.8217894
2312,Fernwood Drive,27408,36.0995543,-79.8220286
2316,Fernwood Drive,27408,36.0995190,-79.8224960
2318,Fernwood Drive,27408,36.0995240,-79.8227175
2318,Fernwood Drive,27408,36.0995550,-79.8229400
2322,Fernwood Drive,27408,36.0995350,-79.8231825
2314,Fernwood Drive,27408,36.0995225,-79.8222526
1402,North Elam Avenue,27408,36.0997225,-79.8236050
1400,North Elam Avenue,27408,36.0995385,-79.8236175
1404,North Elam Avenue,27408,36.0999150,-79.8235940
1406,North Elam Avenue,27408,36.1000980,-79.8235720
2317,Markland Drive,27408,36.1000675,-79.8231665
2315,Markland Drive,27408,36.1000655,-79.8229240
2313,Markland Drive,27408,36.1000610,-79.8227095
2311,Markland Drive,27408,36.1000810,-79.8224885
2309,Markland Drive,27408,36.1001220,-79.8222530
2307,Markland Drive,27408,36.1001820,-79.8220375
2305,Markland Drive,27408,36.1002320,-79.8218105
2303,Markland Drive,27408,36.1003005,-79.8215640
2301,Markland Drive,27408,36.1003700,-79.8213155
4922,Mary Street,27409,36.0619930,-79.8816090
1907,Merritt Drive,27407,36.0446755,-79.8615070
2900,Patterson Street,27407,36.0577520,-79.8438765
1201,Coliseum Boulevard,27402,36.0581351,-79.8225432
2022,West Vandalia Road,27407,36.0212445,-79.8424530
3308,Isler Street,27407,36.0449258,-79.8467919
204,Seneca Road,27406,36.0362640,-79.7863735
2838,South Elm Eugene Street,27406,36.0363381,-79.7931234
1621,McKnight Mill Road,27405,36.1180693,-79.7608287
2600,Assembly Road,27405,36.1431973,-79.7446615
2300,Albright Drive,27408,36.0982816,-79.8191595
2302,Albright Drive,27408,36.0982011,-79.8193732
2304,Albright Drive,27408,36.0981331,-79.8195839
2306,Albright Drive,27408,36.0980630,-79.8197978
2308,Albright Drive,27408,36.0979855,-79.8200282
2310,Albright Drive,27408,36.0979085,-79.8202538
2312,Albright Drive,27408,36.0978350,-79.8204635
2318,Albright Drive,27408,36.0976656,-79.8211331
2316,Albright Drive,27408,36.0977224,-79.8209214
2314,Albright Drive,27408,36.0977668,-79.8206767
2320,Albright Drive,27408,36.0975940,-79.8216062
2322,Albright Drive,27408,36.0975429,-79.8219560
2328,Albright Drive,27408,36.0975344,-79.8224050
2324,Albright Drive,27408,36.0975265,-79.8221798
2330,Albright Drive,27408,36.0975583,-79.8226417
2332,Albright Drive,27408,36.0975517,-79.8228731
7905,Triad Center Drive,27409,36.0858313,-79.9655400
4854,Lake Jeanette Road,27455,36.1426070,-79.8136225
4860,Lake Jeanette Road,27455,36.1435041,-79.8129746
1921,New Garden Road,27410,36.1266280,-79.8621285
3504,Brassfield Oaks Drive,27410,36.1267045,-79.8652730
3802,Brassfield Oaks Court,27410,36.1270100,-79.8651860
3804,Brassfield Oaks Court,27410,36.1272425,-79.8653385
3806,Brassfield Oaks Court,27410,36.1273750,-79.8656840
3805,Brassfield Oaks Court,27410,36.1272940,-79.8660210
3803,Brassfield Oaks Court,27410,36.1270715,-79.8662645
3600,Brassfield Oaks Drive,27410,36.1268125,-79.8663905
3606,Brassfield Oaks Drive,27410,36.1268140,-79.8667605
3802,Windy Oaks Court,27410,36.1271380,-79.8668485
3804,Windy Oaks Court,27410,36.1273185,-79.8671030
3803,Windy Oaks Court,27410,36.1270490,-79.8679180
3700,Brassfield Oaks Drive,27410,36.1267440,-79.8678530
3704,Brassfield Oaks Drive,27410,36.1267315,-79.8682410
3706,Brassfield Oaks Drive,27410,36.1267130,-79.8685560
3800,Crosstimbers Drive,27410,36.1267785,-79.8689235
3802,Crosstimbers Drive,27410,36.1270275,-79.8687630
3804,Crosstimbers Drive,27410,36.1271844,-79.8685120
3806,Crosstimbers Drive,27410,36.1274325,-79.8682540
3808,Crosstimbers Drive,27410,36.1276860,-79.8682480
3810,Crosstimbers Drive,27410,36.1278425,-79.8686030
3809,Crosstimbers Drive,27410,36.1277975,-79.8690170
3807,Crosstimbers Drive,27410,36.1276025,-79.8692315
3805,Crosstimbers Drive,27410,36.1273050,-79.8693490
3803,Crosstimbers Drive,27410,36.1270665,-79.8694270
3801,Crosstimbers Drive,27410,36.1267670,-79.8695545
3711,Crosstimbers Drive,27410,36.1264280,-79.8696715
3711,Brassfield Oaks Drive,27410,36.1262415,-79.8690980
3709,Brassfield Oaks Drive,27410,36.1262465,-79.8687615
3707,Brassfield Oaks Drive,27410,36.1262145,-79.8683790
3705,Brassfield Oaks Drive,27410,36.1262115,-79.8680135
3703,Brassfield Oaks Drive,27410,36.1262680,-79.8677010
3701,Brassfield Oaks Drive,27410,36.1262450,-79.8673660
3501,Normandy Hills Circle,27410,36.1279560,-79.8658970
3503,Normandy Hills Circle,27410,36.1279500,-79.8662270
3505,Normandy Hills Circle,27410,36.1279120,-79.8666090
3507,Normandy Hills Circle,27410,36.1278945,-79.8669720
3509,Normandy Hills Circle,27410,36.1279630,-79.8673235
3508,Normandy Hills Circle,27410,36.1286550,-79.8673575
3506,Normandy Hills Circle,27410,36.1286333,-79.8669670
3504,Normandy Hills Circle,27410,36.1285150,-79.8665790
3502,Normandy Hills Circle,27410,36.1284805,-79.8662795
3500,Normandy Hills Circle,27410,36.1285095,-79.8659175
3511,Normandy Hills Circle,27410,36.1282245,-79.8676840
3507,Bromley Woods Lane,27410,36.1288985,-79.8689410
3505,Bromley Woods Lane,27410,36.1296540,-79.8685715
3510,Bromley Woods Lane,27410,36.1299635,-79.8698415
3508,Bromley Woods Lane,27410,36.1303605,-79.8690850
3503,Bromley Woods Lane,27410,36.1303850,-79.8676060
3502,Bromley Woods Lane,27410,36.1309995,-79.8672480
3500,Bromley Woods Lane,27410,36.1306775,-79.8663820
3501,Bromley Woods Lane,27410,36.1299965,-79.8662835
4304,Galax Trail,27410,36.1325080,-79.8775085
4507,Blue Violet Drive,27410,36.1325205,-79.8771670
4501,Blue Violet Drive,27410,36.1324590,-79.8762665
3571,Wildflower Drive,27410,36.1326850,-79.8762765
4307,Galax Trail,27410,36.1324615,-79.8779685
4311,Galax Trail,27410,36.1330060,-79.8779095
4309,Galax Trail,27410,36.1327320,-79.8779190
4401,Woodsage Drive,27410,36.1332745,-79.8769645
4321,Galax Trail,27410,36.1336230,-79.8772025
4319,Galax Trail,27410,36.1338050,-79.8774540
4317,Galax Trail,27410,36.1338230,-79.8777470
4315,Galax Trail,27410,36.1335450,-79.8779165
4313,Galax Trail,27410,36.1332770,-79.8779255
5206,Hedrick Drive,27410,36.1553840,-79.8793142
5204,Hedrick Drive,27410,36.1548625,-79.8798177
5202,Hedrick Drive,27410,36.1546672,-79.8803520
3,Natchez Court,27455,36.1248770,-79.8189995
8,Natchez Court,27455,36.1255230,-79.8194940
1820,Natchez Trace,27455,36.1253515,-79.8186655
1818,Natchez Trace,27455,36.1256605,-79.8186055
1902,Natchez Trace,27455,36.1245750,-79.8185600
"3108,3110",Pisgah Place,27455,36.1240800,-79.8189325
"3116,3118",Pisgah Place,27455,36.1243355,-79.8198815
"3120,3122",Pisgah Place,27455,36.1235770,-79.8198590
"3008,3010",Pisgah Place,27455,36.1235202,-79.8169433
"3012,3014",Pisgah Place,27455,36.1238379,-79.8177179
"3100,3102",Pisgah Place,27455,36.1237279,-79.8183731
"3104,3106",Pisgah Place,27455,36.1240979,-79.8183929
3047,Pisgah Place,27455,36.1225935,-79.8168720
"3043,3045",Pisgah Place,27455,36.1222690,-79.8168965
3,Grace Chapel Court,27405,36.1364425,-79.7621634
6,Chapel Cross Court,27405,36.1377811,-79.7609774
5,Chapel Cross Court,27405,36.1380594,-79.7607638
1600,Independence Road,27408,36.1050905,-79.8088865
1602,Independence Road,27408,36.1050995,-79.8091065
1604,Independence Road,27408,36.1050915,-79.8093975
1606,Independence Road,27408,36.1050810,-79.8096385
1608,Independence Road,27408,36.1051550,-79.8099105
1610,Independence Road,27408,36.1050875,-79.8101485
1747,Mc Knight Mill Road,27405,36.1188420,-79.7537750
3111,Cedar Park Road,27405,36.0536317,-79.7339874
3117,Cedar Park Road,27405,36.0534470,-79.7325831
3918,Hickory Tree Lane,27406,36.0524869,-79.7141599
3916,Hickory Tree Lane,27406,36.0527335,-79.7142635
3914,Hickory Tree Lane,27406,36.0530796,-79.7141180
3917,Hickory Tree Lane,27405,36.0529302,-79.7132869
3919,Hickory Tree Lane,27405,36.0526254,-79.7131495
3915,Hickory Tree Lane,27405,36.0532276,-79.7133604
3913,Hickory Tree Lane,27405,36.0535545,-79.7132931
3912,Hickory Tree Lane,27406,36.0535327,-79.7140657
3910,Hickory Tree Lane,27406,36.0538472,-79.7140439
3908,Hickory Tree Lane,27406,36.0541440,-79.7142295
3907,Hickory Tree Lane,27405,36.0545830,-79.7132640
3909,Hickory Tree Lane,27405,36.0542351,-79.7132016
3905,Hickory Tree Lane,27405,36.0548978,-79.7133037
3903,Hickory Tree Lane,27405,36.0552291,-79.7133390
3904,Hickory Tree Lane,27406,36.0545535,-79.7142580
4000,Perth Place,27405,36.0557449,-79.7136152
4002,Perth Place,27405,36.0557970,-79.7130150
4006,Perth Place,27406,36.0559210,-79.7119405
1300,Youngs Mill Road,27405,36.0556877,-79.7114776
1306,Youngs Mill Road,27405,36.0545793,-79.7112472
1308,Youngs Mill Road,27405,36.0541481,-79.7111619
1310,Youngs Mill Road,27405,36.0537936,-79.7110806
1307,Youngs Mill Road,27405,36.0539737,-79.7102906
1629,Candace Ridge Drive,27406,36.0506105,-79.7058385
1627,Candace Ridge Drive,27406,36.0508005,-79.7058080
1624,Candace Ridge Drive,27406,36.0507775,-79.7063805
1622,Candace Ridge Drive,27406,36.0509675,-79.7063510
1620,Candace Ridge Drive,27406,36.0511635,-79.7063615
1618,Candace Ridge Drive,27406,36.0513540,-79.7063420
1623,Candace Ridge Drive,27406,36.0511865,-79.7058050
1625,Candace Ridge Drive,27406,36.0509920,-79.7057980
1621,Candace Ridge Drive,27406,36.0513790,-79.7057800
1589,Candace Ridge Drive,27405,36.0547120,-79.7061685
1591,Candace Ridge Drive,27405,36.0545180,-79.7061055
1593,Candace Ridge Drive,27406,36.0543245,-79.7060130
1595,Candace Ridge Drive,27406,36.0541220,-79.7059325
1599,Candace Ridge Drive,27406,36.0537160,-79.7057940
1597,Candace Ridge Drive,27406,36.0539150,-79.7058840
1601,Candace Ridge Drive,27406,36.0533135,-79.7057410
1603,Candace Ridge Drive,27406,36.0531165,-79.7057110
1605,Candace Ridge Drive,27406,36.0529185,-79.7057070
1607,Candace Ridge Drive,27406,36.0527295,-79.7057180
1609,Candace Ridge Drive,27406,36.0525350,-79.7057260
1611,Candace Ridge Drive,27406,36.0523410,-79.7057445
1613,Candace Ridge Drive,27406,36.0521480,-79.7057435
1615,Candace Ridge Drive,27406,36.0519540,-79.7057690
1617,Candace Ridge Drive,27406,36.0517635,-79.7057785
1619,Candace Ridge Drive,27406,36.0515690,-79.7057920
1616,Candace Ridge Drive,27406,36.0515465,-79.7063280
1614,Candace Ridge Drive,27406,36.0517490,-79.7063415
1612,Candace Ridge Drive,27406,36.0519275,-79.7063190
1610,Candace Ridge Drive,27406,36.0521215,-79.7063015
1608,Candace Ridge Drive,27406,36.0523235,-79.7063280
4396,Candace Ridge Court,27406,36.0523534,-79.7067294
4394,Candace Ridge Court,27406,36.0524752,-79.7069494
4392,Candace Ridge Court,27406,36.0525797,-79.7071462
4390,Candace Ridge Court,27406,36.0527465,-79.7073069
4397,Candace Ridge Court,27406,36.0527775,-79.7064750
4395,Candace Ridge Court,27406,36.0528618,-79.7066914
4391,Candace Ridge Court,27406,36.0531965,-79.7069306
4393,Candace Ridge Court,27406,36.0530190,-79.7068340
4389,Candace Ridge Court,27406,36.0534071,-79.7068333
4387,Candace Ridge Court,27406,36.0536008,-79.7069274
4385,Candace Ridge Court,27406,36.0537236,-79.7071527
4382,Candace Ridge Court,27406,36.0535438,-79.7075826
4383,Candace Ridge Court,27406,36.0537072,-79.7074096
4384,Candace Ridge Court,27406,36.0533254,-79.7075910
4386,Candace Ridge Court,27406,36.0531364,-79.7074814
4388,Candace Ridge Court,27406,36.0529416,-79.7074077
4399,Candace Ridge Court,27406,36.0527347,-79.7062427
1602,Candace Ridge Drive,27406,36.0530645,-79.7062895
1600,Candace Ridge Drive,27406,36.0532670,-79.7062915
1598,Candace Ridge Drive,27406,36.0534685,-79.7063100
1596,Candace Ridge Drive,27406,36.0536600,-79.7063770
1594,Candace Ridge Drive,27406,36.0538550,-79.7064430
1592,Candace Ridge Drive,27406,36.0540520,-79.7064830
1301,Sharp Ridge Road,27406,36.0543876,-79.7066143
1303,Sharp Ridge Road,27406,36.0543377,-79.7068211
1305,Sharp Ridge Road,27406,36.0542748,-79.7070449
1307,Sharp Ridge Road,27406,36.0542445,-79.7072847
1309,Sharp Ridge Road,27406,36.0541913,-79.7075200
1311,Sharp Ridge Road,27406,36.0541046,-79.7077635
1313,Sharp Ridge Road,27406,36.0539585,-79.7079552
1315,Sharp Ridge Road,27406,36.0537848,-79.7080916
1317,Sharp Ridge Road,27406,36.0535737,-79.7081630
1586,Candace Ridge Drive,27405,36.0547645,-79.7067445
1302,Sharp Ridge Road,27405,36.0547200,-79.7071405
1304,Sharp Ridge Road,27405,36.0546870,-79.7073720
1306,Sharp Ridge Road,27405,36.0546330,-79.7075995
1308,Sharp Ridge Road,27405,36.0545505,-79.7078320
1310,Sharp Ridge Road,27405,36.0544585,-79.7080590
1312,Sharp Ridge Road,27405,36.0543200,-79.7082435
1314,Sharp Ridge Road,27405,36.0541830,-79.7084365
1316,Sharp Ridge Road,27405,36.0539965,-79.7085420
1318,Sharp Ridge Road,27405,36.0538075,-79.7086375
1320,Sharp Ridge Road,27405,36.0536095,-79.7086765
1322,Sharp Ridge Road,27405,36.0534065,-79.7087020
1319,Sharp Ridge Road,27406,36.0533795,-79.7081668
1324,Sharp Ridge Road,27405,36.0531085,-79.7086175
1326,Sharp Ridge Road,27405,36.0529305,-79.7085730
1328,Sharp Ridge Road,27405,36.0527510,-79.7085295
1330,Sharp Ridge Road,27405,36.0525795,-79.7084555
1325,Sharp Ridge Road,27406,36.0527688,-79.7080405
1323,Sharp Ridge Road,27406,36.0529529,-79.7080951
1329,Sharp Ridge Road,27406,36.0524444,-79.7077851
1331,Sharp Ridge Road,27406,36.0523023,-79.7076240
1333,Sharp Ridge Road,27406,36.0521482,-79.7074727
1332,Sharp Ridge Road,27405,36.0524215,-79.7083435
1335,Sharp Ridge Road,27406,36.0520152,-79.7073076
1337,Sharp Ridge Road,27406,36.0518793,-79.7071508
1341,Sharp Ridge Road,27406,36.0515355,-79.7069793
1343,Sharp Ridge Road,27406,36.0513566,-79.7069711
1339,Sharp Ridge Road,27406,36.0517185,-79.7070295
1338,Sharp Ridge Road,27406,36.0517315,-79.7076225
1344,Sharp Ridge Road,27406,36.0511680,-79.7076590
1346,Sharp Ridge Road,27406,36.0509670,-79.7076875
1351,Sharp Ridge Road,27406,36.0507236,-79.7073402
1348,Sharp Ridge Road,27406,36.0508095,-79.7075600
1345,Sharp Ridge Road,27406,36.0511681,-79.7069729
1327,Sharp Ridge Road,27406,36.0526055,-79.7079229
1321,Sharp Ridge Road,27406,36.0531514,-79.7081558
1349,Sharp Ridge Road,27406,36.0508046,-79.7071333
1347,Sharp Ridge Road,27406,36.0510019,-79.7069941
1342,Sharp Ridge Road,27406,36.0513404,-79.7074448
1340,Sharp Ridge Road,27406,36.0515621,-79.7074606
1336,Sharp Ridge Road,27406,36.0518611,-79.7078222
1305,Youngs Mill Road,27405,36.0545160,-79.7103369
1303,Youngs Mill Road,27405,36.0552685,-79.7104509
1410,Glendale Drive,27406,36.0101110,-79.8325905
705,Banner Avenue,27401,36.0644955,-79.7510220
5120,Burlington Road,27405,36.0860312,-79.6809897
3405,Northampton Drive,27408,36.1020095,-79.8395935
3407,Northampton Drive,27408,36.1022815,-79.8397955
3409,Northampton Drive,27408,36.1025065,-79.8395660
3408,Northampton Drive,27408,36.1025420,-79.8392395
3404,Northampton Drive,27408,36.1021905,-79.8388470
3402,Northampton Drive,27408,36.1020075,-79.8386605
3400,Northampton Drive,27408,36.1018505,-79.8384454
3318,Northampton Drive,27408,36.1017095,-79.8382615
3406,Northampton Drive,27408,36.1023986,-79.8390064
3403,Northampton Drive,27408,36.1018744,-79.8393193
3311,Northampton Drive,27408,36.1012921,-79.8385364
3309,Northampton Drive,27408,36.1010870,-79.8382365
3307,Northampton Drive,27408,36.1008965,-79.8380480
3305,Northampton Drive,27408,36.1007135,-79.8378305
3303,Northampton Drive,27408,36.1004899,-79.8376428
3304,Northampton Drive,27408,36.1005445,-79.8370420
3306,Northampton Drive,27408,36.1007405,-79.8371745
3308,Northampton Drive,27408,36.1009235,-79.8373025
3310,Northampton Drive,27408,36.1010800,-79.8374665
3312,Northampton Drive,27408,36.1012505,-79.8376665
3314,Northampton Drive,27408,36.1014285,-79.8378570
3203,Northampton Drive,27408,36.0993745,-79.8379490
3201,Northampton Drive,27408,36.0991345,-79.8379445
3202,Northampton Drive,27408,36.0993290,-79.8373045
3200,Northampton Drive,27408,36.0990825,-79.8373225
3114,Northampton Drive,27408,36.0986880,-79.8373760
3112,Northampton Drive,27408,36.0984310,-79.8373785
3110,Northampton Drive,27408,36.0982285,-79.8373960
3108,Northampton Drive,27408,36.0980065,-79.8374055
2818,Lenoir Drive,27408,36.0980140,-79.8369840
2816,Lenoir Drive,27408,36.0980115,-79.8367155
2814,Lenoir Drive,27408,36.0980495,-79.8364415
2812,Lenoir Drive,27408,36.0980585,-79.8361810
2810,Lenoir Drive,27408,36.0980585,-79.8358920
2808,Lenoir Drive,27408,36.0980645,-79.8356235
2806,Lenoir Drive,27408,36.0980955,-79.8353605
2804,Lenoir Drive,27408,36.0981180,-79.8350735
2802,Lenoir Drive,27408,36.0981775,-79.8348175
3100,Northampton Drive,27408,36.0971010,-79.8374310
3102,Northampton Drive,27408,36.0973335,-79.8374215
3104,Northampton Drive,27408,36.0975880,-79.8373970
2821,Lenoir Drive,27408,36.0975825,-79.8370015
2819,Lenoir Drive,27408,36.0975870,-79.8367305
2817,Lenoir Drive,27408,36.0975805,-79.8364585
2815,Lenoir Drive,27408,36.0975740,-79.8361945
2813,Lenoir Drive,27408,36.0975760,-79.8359135
2809,Lenoir Drive,27408,36.0976320,-79.8353645
2811,Lenoir Drive,27408,36.0976000,-79.8356445
2807,Lenoir Drive,27408,36.0976635,-79.8350735
2805,Lenoir Drive,27408,36.0977160,-79.8348110
2803,Lenoir Drive,27408,36.0978070,-79.8345485
2704,Northampton Drive,27408,36.0954988,-79.8320319
2706,Northampton Drive,27408,36.0953625,-79.8323825
3000,Northampton Drive,27408,36.0955754,-79.8375330
3002,Northampton Drive,27408,36.0958090,-79.8374990
3004,Northampton Drive,27408,36.0960295,-79.8374730
3006,Northampton Drive,27408,36.0962500,-79.8374450
3008,Northampton Drive,27408,36.0964565,-79.8374385
3010,Northampton Drive,27408,36.0966896,-79.8373944
3117,Northampton Drive,27408,36.0987181,-79.8380116
3115,Northampton Drive,27408,36.0984881,-79.8380041
3113,Northampton Drive,27408,36.0982675,-79.8380275
3111,Northampton Drive,27408,36.0980460,-79.8380410
3109,Northampton Drive,27408,36.0978135,-79.8380420
3107,Northampton Drive,27408,36.0975995,-79.8380260
3105,Northampton Drive,27408,36.0973695,-79.8380485
3103,Northampton Drive,27408,36.0971380,-79.8380490
3101,Northampton Drive,27408,36.0969370,-79.8380460
3011,Northampton Drive,27408,36.0967015,-79.8380380
3009,Northampton Drive,27408,36.0964865,-79.8380680
3007,Northampton Drive,27408,36.0962635,-79.8380900
3005,Northampton Drive,27408,36.0960330,-79.8380595
3003,Northampton Drive,27408,36.0958130,-79.8380650
3001,Northampton Drive,27408,36.0955750,-79.8380625
2702,West Cornwallis Drive,27408,36.0945905,-79.8312460
2704,West Cornwallis Drive,27408,36.0944745,-79.8315150
2705,Northampton Drive,27408,36.0950195,-79.8319995
1016,Onslow Drive,27408,36.0938370,-79.8312815
2703,West Cornwallis Drive,27408,36.0940971,-79.8309598
1014,Onslow Drive,27408,36.0936145,-79.8310875
1012,Onslow Drive,27408,36.0934220,-79.8309315
1010,Onslow Drive,27408,36.0932240,-79.8307620
1008,Onslow Drive,27408,36.0930070,-79.8305840
1006,Onslow Drive,27408,36.0927935,-79.8304125
1005,Pembroke Road,27408,36.0921225,-79.8292930
1003,Pembroke Road,27408,36.0921245,-79.8296365
1001,Pembroke Road,27408,36.0919980,-79.8299995
1002,Onslow Drive,27408,36.0922860,-79.8301320
1004,Onslow Drive,27408,36.0925300,-79.8302455
1005,Onslow Drive,27408,36.0924798,-79.8308265
1003,Onslow Drive,27408,36.0922080,-79.8306790
2803,New Hanover Drive,27408,36.0923781,-79.8311745
921,Pembroke Road,27408,36.0919208,-79.8305907
919,Pembroke Road,27408,36.0918935,-79.8308675
917,Pembroke Road,27408,36.0918375,-79.8311250
915,Pembroke Road,27408,36.0917752,-79.8313733
913,Pembroke Road,27408,36.0917140,-79.8316390
911,Pembroke Road,27408,36.0916110,-79.8318920
909,Pembroke Road,27408,36.0914775,-79.8322305
902,Caswell Drive,27408,36.0918660,-79.8323435
904,Caswell Drive,27408,36.0921245,-79.8323685
2809,New Hanover Drive,27408,36.0921867,-79.8320345
2807,New Hanover Drive,27408,36.0922230,-79.8317582
2805,New Hanover Drive,27408,36.0922680,-79.8314670
1000,Caswell Drive,27408,36.0925470,-79.8324510
1002,Caswell Drive,27408,36.0927835,-79.8325445
2806,New Hanover Drive,27408,36.0926340,-79.8320920
2804,New Hanover Drive,27408,36.0927040,-79.8317860
1007,Onslow Drive,27408,36.0928910,-79.8311845
2802,New Hanover Drive,27408,36.0927380,-79.8315105
1009,Onslow Drive,27408,36.0931165,-79.8313810
1011,Onslow Drive,27408,36.0933060,-79.8315520
2801,West Cornwallis Drive,27408,36.0935455,-79.8317510
2803,West Cornwallis Drive,27408,36.0933585,-79.8319890
2805,West Cornwallis Drive,27408,36.0932273,-79.8322451
1004,Caswell Drive,27408,36.0930570,-79.8325885
1005,Caswell Drive,27408,36.0929535,-79.8331110
1003,Caswell Drive,27408,36.0927055,-79.8330530
1001,Caswell Drive,27408,36.0924905,-79.8330180
2902,New Hanover Drive,27408,36.0924530,-79.8333765
2904,New Hanover Drive,27408,36.0924450,-79.8336245
2906,New Hanover Drive,27408,36.0924755,-79.8338940
2908,New Hanover Drive,27408,36.0924680,-79.8341640
2910,New Hanover Drive,27408,36.0925010,-79.8344340
2912,New Hanover Drive,27408,36.0924860,-79.8347095
2914,New Hanover Drive,27408,36.0924710,-79.8349550
2916,New Hanover Drive,27408,36.0924745,-79.8352730
2918,New Hanover Drive,27408,36.0924765,-79.8355325
2920,New Hanover Drive,27408,36.0925080,-79.8357955
2922,New Hanover Drive,27408,36.0925110,-79.8360665
2923,West Cornwallis Drive,27408,36.0930400,-79.8359720
2919,West Cornwallis Drive,27408,36.0930380,-79.8354095
2921,West Cornwallis Drive,27408,36.0930230,-79.8356585
2917,West Cornwallis Drive,27408,36.0930150,-79.8351235
2915,West Cornwallis Drive,27408,36.0930085,-79.8348520
2913,West Cornwallis Drive,27408,36.0929890,-79.8345730
2911,West Cornwallis Drive,27408,36.0929915,-79.8343110
2909,West Cornwallis Drive,27408,36.0929880,-79.8340545
2907,West Cornwallis Drive,27408,36.0929560,-79.8337670
2905,West Cornwallis Drive,27408,36.0929690,-79.8335060
2806,West Cornwallis Drive,27408,36.0935240,-79.8328155
2902,West Cornwallis Drive,27408,36.0934846,-79.8333432
2900,West Cornwallis Drive,27408,36.0935235,-79.8330970
2804,West Cornwallis Drive,27408,36.0936165,-79.8325455
2802,West Cornwallis Drive,27408,36.0937505,-79.8323270
2800,West Cornwallis Drive,27408,36.0939365,-79.8321200
2906,West Cornwallis Drive,27408,36.0934506,-79.8338566
2904,West Cornwallis Drive,27408,36.0934896,-79.8335836
2908,West Cornwallis Drive,27408,36.0934843,-79.8341484
2910,West Cornwallis Drive,27408,36.0935435,-79.8344130
2912,West Cornwallis Drive,27408,36.0935095,-79.8346685
2914,West Cornwallis Drive,27408,36.0935230,-79.8349270
2916,West Cornwallis Drive,27408,36.0935270,-79.8351975
2918,West Cornwallis Drive,27408,36.0935105,-79.8354735
2821,Northampton Drive,27408,36.0940405,-79.8354020
2823,Northampton Drive,27408,36.0940635,-79.8356950
2825,Northampton Drive,27408,36.0940735,-79.8359615
2819,Northampton Drive,27408,36.0940515,-79.8351405
2815,Northampton Drive,27408,36.0940345,-79.8346085
2817,Northampton Drive,27408,36.0940360,-79.8348565
2813,Northampton Drive,27408,36.0940075,-79.8343100
2811,Northampton Drive,27408,36.0940331,-79.8340347
2809,Northampton Drive,27408,36.0940385,-79.8337360
2807,Northampton Drive,27408,36.0941067,-79.8334597
2805,Northampton Drive,27408,36.0942390,-79.8331775
2803,Northampton Drive,27408,36.0943865,-79.8329290
2801,Northampton Drive,27408,36.0945445,-79.8327100
2800,Northampton Drive,27408,36.0948285,-79.8331565
2802,Northampton Drive,27408,36.0946735,-79.8334350
2804,Northampton Drive,27408,36.0945415,-79.8336620
2808,Northampton Drive,27408,36.0944775,-79.8342030
2806,Northampton Drive,27408,36.0944975,-79.8339310
2810,Northampton Drive,27408,36.0944750,-79.8344885
2812,Northampton Drive,27408,36.0944845,-79.8347635
2814,Northampton Drive,27408,36.0944905,-79.8350210
2816,Northampton Drive,27408,36.0945045,-79.8352895
2818,Northampton Drive,27408,36.0945145,-79.8355705
2820,Northampton Drive,27408,36.0945245,-79.8358420
2822,Northampton Drive,27408,36.0945360,-79.8361195
2900,Northampton Drive,27408,36.0945430,-79.8363885
2902,Northampton Drive,27408,36.0945430,-79.8366540
2904,Northampton Drive,27408,36.0945575,-79.8369285
2906,Northampton Drive,27408,36.0946495,-79.8371930
2908,Northampton Drive,27408,36.0948440,-79.8374175
2917,Northampton Drive,27408,36.0951360,-79.8380785
2915,Northampton Drive,27408,36.0949065,-79.8380320
3016,West Cornwallis Drive,27408,36.0941460,-79.8385260
3014,West Cornwallis Drive,27408,36.0940815,-79.8382575
3012,West Cornwallis Drive,27408,36.0939555,-79.8380335
3010,West Cornwallis Drive,27408,36.0938430,-79.8378160
3008,West Cornwallis Drive,27408,36.0937375,-79.8375855
3006,West Cornwallis Drive,27408,36.0936250,-79.8373290
3004,West Cornwallis Drive,27408,36.0935602,-79.8370880
3002,West Cornwallis Drive,27408,36.0935440,-79.8368270
3000,West Cornwallis Drive,27408,36.0935925,-79.8365640
2901,Northampton Drive,27408,36.0940545,-79.8364910
2903,Northampton Drive,27408,36.0940950,-79.8367975
2905,Northampton Drive,27408,36.0941240,-79.8370760
2909,Northampton Drive,27408,36.0942990,-79.8375779
2907,Northampton Drive,27408,36.0941935,-79.8373460
2911,Northampton Drive,27408,36.0944810,-79.8377925
2913,Northampton Drive,27408,36.0946785,-79.8379775
3017,West Cornwallis Drive,27408,36.0936110,-79.8386030
3015,West Cornwallis Drive,27408,36.0934690,-79.8383690
3014,New Hanover Drive,27408,36.0929560,-79.8384960
3013,West Cornwallis Drive,27408,36.0933725,-79.8381235
3011,West Cornwallis Drive,27408,36.0932640,-79.8378895
3009,West Cornwallis Drive,27408,36.0931970,-79.8376370
3007,West Cornwallis Drive,27408,36.0931130,-79.8373850
3005,West Cornwallis Drive,27408,36.0930730,-79.8371170
3003,West Cornwallis Drive,27408,36.0930475,-79.8368435
3001,West Cornwallis Drive,27408,36.0930550,-79.8365660
3002,New Hanover Drive,27408,36.0925490,-79.8369395
3004,New Hanover Drive,27408,36.0925590,-79.8372100
3008,New Hanover Drive,27408,36.0926800,-79.8377440
3010,New Hanover Drive,27408,36.0927480,-79.8379670
3012,New Hanover Drive,27408,36.0928650,-79.8382370
3006,New Hanover Drive,27408,36.0926000,-79.8374885
2921,New Hanover Drive,27408,36.0920700,-79.8358385
2919,New Hanover Drive,27408,36.0920525,-79.8355705
2917,New Hanover Drive,27408,36.0920490,-79.8352945
2915,New Hanover Drive,27408,36.0920430,-79.8350285
2913,New Hanover Drive,27408,36.0920215,-79.8347415
2911,New Hanover Drive,27408,36.0920050,-79.8344590
2909,New Hanover Drive,27408,36.0920210,-79.8341720
2923,New Hanover Drive,27408,36.0920590,-79.8361085
2925,New Hanover Drive,27408,36.0920749,-79.8363893
3001,New Hanover Drive,27408,36.0921060,-79.8366530
3003,New Hanover Drive,27408,36.0920765,-79.8369010
3005,New Hanover Drive,27408,36.0921135,-79.8372315
3007,New Hanover Drive,27408,36.0921540,-79.8375015
3009,New Hanover Drive,27408,36.0922090,-79.8377745
3011,New Hanover Drive,27408,36.0923020,-79.8380420
3013,New Hanover Drive,27408,36.0923795,-79.8382700
3015,New Hanover Drive,27408,36.0924535,-79.8385540
2905,New Hanover Drive,27408,36.0919745,-79.8336145
2903,New Hanover Drive,27408,36.0920160,-79.8333095
901,Caswell Drive,27408,36.0913125,-79.8329065
903,Caswell Drive,27408,36.0915595,-79.8328630
905,Caswell Drive,27408,36.0918120,-79.8328655
907,Caswell Drive,27408,36.0920611,-79.8329338
905,Pembroke Road,27408,36.0910745,-79.8329490
903,Pembroke Road,27408,36.0908465,-79.8330110
901,Pembroke Road,27408,36.0905895,-79.8330640
899,Pembroke Road,27408,36.0903705,-79.8331260
897,Pembroke Road,27408,36.0901090,-79.8331920
3301,Turfwood Drive,27410,36.0985435,-79.8452051
2922,West Cornwallis Drive,27408,36.0935180,-79.8360025
2920,West Cornwallis Drive,27408,36.0935160,-79.8357475
2501,Fairway Drive,27408,36.0893430,-79.8272775
2503,Fairway Drive,27408,36.0892750,-79.8275615
2505,Fairway Drive,27408,36.0891655,-79.8278960
2507,Fairway Drive,27408,36.0891450,-79.8282060
2509,Fairway Drive,27408,36.0891305,-79.8284875
2513,Fairway Drive,27408,36.0892460,-79.8290955
2511,Fairway Drive,27408,36.0891865,-79.8287895
2515,Fairway Drive,27408,36.0893180,-79.8293590
2517,Fairway Drive,27408,36.0893785,-79.8296455
2601,Fairway Drive,27408,36.0894165,-79.8299235
2603,Fairway Drive,27408,36.0894785,-79.8302340
2605,Fairway Drive,27408,36.0895545,-79.8305714
2607,Fairway Drive,27408,36.0896439,-79.8308286
2609,Fairway Drive,27408,36.0897220,-79.8311230
2611,Fairway Drive,27408,36.0897680,-79.8313755
2701,Fairway Drive,27408,36.0897965,-79.8316760
2703,Fairway Drive,27408,36.0898165,-79.8319745
2705,Fairway Drive,27408,36.0898865,-79.8322915
2707,Fairway Drive,27408,36.0899450,-79.8326395
2706,Fairway Drive,27408,36.0903745,-79.8324740
2704,Fairway Drive,27408,36.0903195,-79.8321315
2702,Fairway Drive,27408,36.0902725,-79.8318065
2700,Fairway Drive,27408,36.0902136,-79.8315055
903,Avery Place,27408,36.0905105,-79.8314100
905,Avery Place,27408,36.0907200,-79.8314840
902,Pembroke Road,27408,36.0906915,-79.8323915
904,Pembroke Road,27408,36.0908635,-79.8322155
906,Pembroke Road,27408,36.0910090,-79.8320115
909,Avery Place,27408,36.0911795,-79.8317045
907,Avery Place,27408,36.0909375,-79.8316215
900,Avery Place,27408,36.0901835,-79.8309485
902,Avery Place,27408,36.0904110,-79.8308900
904,Avery Place,27408,36.0906430,-79.8308755
906,Avery Place,27408,36.0908865,-79.8309025
908,Avery Place,27408,36.0910980,-79.8309924
910,Avery Place,27408,36.0913393,-79.8311007
914,Pembroke Road,27408,36.0914091,-79.8307349
917,Onslow Drive,27408,36.0914594,-79.8303506
915,Onslow Drive,27408,36.0912100,-79.8302606
913,Onslow Drive,27408,36.0910230,-79.8301560
911,Onslow Drive,27408,36.0908205,-79.8300905
909,Onslow Drive,27408,36.0906275,-79.8299945
907,Onslow Drive,27408,36.0904405,-79.8299090
905,Onslow Drive,27408,36.0902485,-79.8297820
903,Onslow Drive,27408,36.0900400,-79.8296965
901,Onslow Drive,27408,36.0898160,-79.8297115
2604,Fairway Drive,27408,36.0900610,-79.8305160
2602,Fairway Drive,27408,36.0899535,-79.8302000
902,Onslow Drive,27408,36.0900140,-79.8291545
2512,Fairway Drive,27408,36.0897320,-79.8291795
2510,Fairway Drive,27408,36.0897089,-79.8288834
2508,Fairway Drive,27408,36.0896365,-79.8286385
2506,Fairway Drive,27408,36.0895810,-79.8283675
2504,Fairway Drive,27408,36.0895935,-79.8281250
2502,Fairway Drive,27408,36.0896550,-79.8278995
901,Benjamin Parkway,27408,36.0897530,-79.8275975
903,Benjamin Parkway,27408,36.0899650,-79.8278330
905,Benjamin Parkway,27408,36.0901625,-79.8280535
904,Onslow Drive,27408,36.0902450,-79.8291745
906,Onslow Drive,27408,36.0904565,-79.8292395
908,Onslow Drive,27408,36.0906705,-79.8293620
911,Benjamin Parkway,27408,36.0907805,-79.8285220
909,Benjamin Parkway,27408,36.0905570,-79.8283860
907,Benjamin Parkway,27408,36.0903600,-79.8282165
912,Onslow Drive,27408,36.0910625,-79.8295530
910,Onslow Drive,27408,36.0908601,-79.8294543
914,Onslow Drive,27408,36.0912695,-79.8296540
913,Benjamin Parkway,27408,36.0909915,-79.8286600
915,Benjamin Parkway,27408,36.0912245,-79.8287930
917,Benjamin Parkway,27408,36.0914385,-79.8288780
1004,Pembroke Road,27408,36.0917021,-79.8290214
1002,Pembroke Road,27408,36.0915865,-79.8293650
916,Onslow Drive,27408,36.0915493,-79.8297800
4317,Big Tree Way,27409,36.0586214,-79.8946311
415,South Swing Road,27409,36.0642555,-79.9088015
508,Stage Coach Court,27409,36.0862170,-79.9134520
6202,Westwind Drive,27408,36.0835884,-79.9009829
6120,Westwind Drive,27408,36.0836675,-79.9003340
6200,Westwind Drive,27408,36.0836508,-79.9006864
6117,Westwind Drive,27408,36.0830195,-79.8996935
6116,Westwind Drive,27408,36.0836425,-79.8997145
6118,Westwind Drive,27408,36.0836615,-79.9000645
6114,Westwind Drive,27408,36.0836555,-79.8994450
6112,Westwind Drive,27408,36.0836600,-79.8991160
6110,Westwind Drive,27408,36.0836330,-79.8988210
6108,Westwind Drive,27408,36.0836330,-79.8985045
6107,Sundown Drive,27408,36.0840521,-79.8985960
6106,Westwind Drive,27408,36.0836640,-79.8981990
6104,Westwind Drive,27408,36.0836330,-79.8979075
6102,Westwind Drive,27408,36.0836495,-79.8975915
6100,Westwind Drive,27408,36.0836845,-79.8973285
6107,Westwind Drive,27408,36.0830675,-79.8984400
6105,Westwind Drive,27408,36.0830835,-79.8980580
6103,Westwind Drive,27408,36.0830730,-79.8976940
2604,Shady Lawn Drive,27408,36.1062030,-79.8326000
2606,Shady Lawn Drive,27408,36.1064400,-79.8325610
2601,Shady Lawn Drive,27408,36.1058785,-79.8331445
2607,Shady Lawn Drive,27408,36.1064415,-79.8332370
2617,Shady Lawn Drive,27408,36.1075480,-79.8337070
2615,Shady Lawn Drive,27408,36.1073490,-79.8335705
2613,Shady Lawn Drive,27408,36.1071555,-79.8334715
2611,Shady Lawn Drive,27408,36.1069340,-79.8333585
2609,Shady Lawn Drive,27408,36.1067165,-79.8332995
2610,Shady Lawn Drive,27408,36.1069270,-79.8327575
2612,Shady Lawn Drive,27408,36.1071695,-79.8328520
2614,Shady Lawn Drive,27408,36.1073980,-79.8329685
2616,Shady Lawn Drive,27408,36.1076034,-79.8331140
2618,Shady Lawn Drive,27408,36.1077880,-79.8332780
2620,Shady Lawn Drive,27408,36.1080255,-79.8334415
2502,Shady Lawn Drive,27408,36.1037125,-79.8330300
2500,Shady Lawn Drive,27408,36.1034360,-79.8332100
2506,Shady Lawn Drive,27408,36.1041600,-79.8328045
2504,Shady Lawn Drive,27408,36.1039070,-79.8329285
2510,Shady Lawn Drive,27408,36.1047955,-79.8325030
2508,Shady Lawn Drive,27408,36.1045450,-79.8325605
2507,Shady Lawn Drive,27408,36.1042725,-79.8333200
2509,Shady Lawn Drive,27408,36.1045115,-79.8332100
2513,Shady Lawn Drive,27408,36.1048935,-79.8330275
2511,Shady Lawn Drive,27408,36.1047015,-79.8331155
2505,Shady Lawn Drive,27408,36.1040790,-79.8334345
2503,Shady Lawn Drive,27408,36.1038520,-79.8335500
2501,Shady Lawn Drive,27408,36.1036475,-79.8337073
2512,Shady Lawn Drive,27408,36.1050545,-79.8324740
2515,Shady Lawn Drive,27408,36.1051030,-79.8330155
2517,Shady Lawn Drive,27408,36.1053665,-79.8330300
2701,Shady Lawn Drive,27408,36.1081640,-79.8342835
2703,Shady Lawn Drive,27408,36.1083870,-79.8344055
2705,Shady Lawn Drive,27408,36.1085125,-79.8345470
2707,Shady Lawn Drive,27408,36.1086480,-79.8346465
2709,Shady Lawn Drive,27408,36.1087960,-79.8347895
2711,Shady Lawn Drive,27408,36.1089995,-79.8350085
2713,Shady Lawn Drive,27408,36.1091115,-79.8351380
2731,Shady Lawn Drive,27408,36.1101950,-79.8367130
2729,Shady Lawn Drive,27408,36.1100590,-79.8365090
2727,Shady Lawn Drive,27408,36.1099220,-79.8363475
2725,Shady Lawn Drive,27408,36.1098050,-79.8361650
2723,Shady Lawn Drive,27408,36.1097020,-79.8359920
2721,Shady Lawn Drive,27408,36.1096120,-79.8358350
2719,Shady Lawn Drive,27408,36.1094940,-79.8356705
2717,Shady Lawn Drive,27408,36.1093885,-79.8354935
2715,Shady Lawn Drive,27408,36.1092645,-79.8353485
2803,Shady Lawn Drive,27408,36.1106205,-79.8373825
2821,Shady Lawn Drive,27408,36.1117110,-79.8393400
2819,Shady Lawn Drive,27408,36.1115345,-79.8390240
2817,Shady Lawn Drive,27408,36.1114150,-79.8388520
2815,Shady Lawn Drive,27408,36.1113060,-79.8386320
2813,Shady Lawn Drive,27408,36.1111895,-79.8384475
2811,Shady Lawn Drive,27408,36.1110855,-79.8382300
2809,Shady Lawn Drive,27408,36.1109970,-79.8380560
2807,Shady Lawn Drive,27408,36.1108870,-79.8378400
2805,Shady Lawn Drive,27408,36.1107395,-79.8375770
2801,Shady Lawn Drive,27408,36.1104695,-79.8371855
2818,Shady Lawn Drive,27408,36.1118100,-79.8386535
2816,Shady Lawn Drive,27408,36.1116975,-79.8384600
2814,Shady Lawn Drive,27408,36.1115965,-79.8382820
2812,Shady Lawn Drive,27408,36.1114875,-79.8380965
2810,Shady Lawn Drive,27408,36.1114010,-79.8378890
2808,Shady Lawn Drive,27408,36.1113140,-79.8376830
2806,Shady Lawn Drive,27408,36.1111890,-79.8374710
2804,Shady Lawn Drive,27408,36.1110725,-79.8372640
2802,Shady Lawn Drive,27408,36.1109380,-79.8370380
2800,Shady Lawn Drive,27408,36.1108145,-79.8367975
5221,West Market Street,27409,36.0703558,-79.8822852
4306,Burlington Road,27405,36.0868758,-79.7086599
1912,Swannanoa Drive,27410,36.1052131,-79.8528433
1911,Swannanoa Drive,27410,36.1046919,-79.8529366
1914,Swannanoa Drive,27410,36.1049722,-79.8530681
1909,Swannanoa Drive,27410,36.1046021,-79.8525674
1907,Swannanoa Drive,27410,36.1047656,-79.8522621
1910,Swannanoa Drive,27410,36.1053949,-79.8525018
1908,Swannanoa Drive,27410,36.1054086,-79.8522023
1905,Swannanoa Drive,27410,36.1049046,-79.8519553
1903,Swannanoa Drive,27410,36.1049655,-79.8516253
1906,Swannanoa Drive,27410,36.1054134,-79.8518598
1703,Pebble Drive,27410,36.1049136,-79.8512259
1902,Swannanoa Drive,27410,36.1054281,-79.8512209
1906,Swannanoa Drive,27410,36.1054422,-79.8514823
1900,Swannanoa Drive,27410,36.1054050,-79.8509453
2511,Battleground Avenue,27408,36.1056889,-79.8268406
634,Ashland Drive,27403,36.0662519,-79.8476866
4500,West Gate City Boulevard,27407,36.0338591,-79.8668143
3919,Pleasant Garden Road,27406,36.0117962,-79.7748857
222,West McGee Street,27401,36.0687657,-79.7923805
1502,Fleming Road,27410,36.1094364,-79.8936523
1504,Fleming Road,27410,36.1097358,-79.8935920
1506,Fleming Road,27410,36.1100985,-79.8933840
1600,Fleming Road,27410,36.1105860,-79.8931495
1602,Fleming Road,27410,36.1109100,-79.8930370
5702,Fleming Terrace Road,27410,36.1119452,-79.8925579
5700,Fleming Terrace Road,27410,36.1118222,-79.8920162
1703,Lakemont Drive,27410,36.1120805,-79.8915020
1705,Lakemont Drive,27410,36.1123290,-79.8913240
1709,Lakemont Drive,27410,36.1128350,-79.8909760
1707,Lakemont Drive,27410,36.1125860,-79.8911400
1702,Fleming Road,27410,36.1122370,-79.8924440
1704,Fleming Road,27410,36.1125162,-79.8923099
1706,Fleming Road,27410,36.1127776,-79.8922115
5707,Brooks Lane,27410,36.1131140,-79.8920835
5705,Brooks Lane,27410,36.1130955,-79.8917160
1711,Lakemont Drive,27410,36.1131570,-79.8908885
1710,Lakemont Drive,27410,36.1130205,-79.8902425
1712,Lakemont Drive,27410,36.1133473,-79.8902945
1708,Lakemont Drive,27410,36.1127295,-79.8903885
1706,Lakemont Drive,27410,36.1123320,-79.8906380
1704,Lakemont Drive,27410,36.1120625,-79.8908080
1702,Lakemont Drive,27410,36.1118005,-79.8910080
1700,Lakemont Drive,27410,36.1115517,-79.8911184
5614,Fleming Terrace Road,27410,36.1117450,-79.8899295
5612,Fleming Terrace Road,27410,36.1119980,-79.8894543
5608,Fleming Terrace Road,27410,36.1122142,-79.8888458
5609,Fleming Terrace Road,27410,36.1116543,-79.8887342
6,Fleming Terrace Circle,27410,36.1114436,-79.8890540
5,Fleming Terrace Circle,27410,36.1112557,-79.8888267
5707,Fleming Terrace Road,27410,36.1114570,-79.8927960
5705,Fleming Terrace Road,27410,36.1113630,-79.8924450
5703,Fleming Terrace Road,27410,36.1112545,-79.8920925
5701,Fleming Terrace Road,27410,36.1111655,-79.8917445
5623,Fleming Terrace Road,27410,36.1110670,-79.8914395
1,Fleming Terrace Circle,27410,36.1109650,-79.8899727
5704,Brooks Lane,27410,36.1136935,-79.8918200
5702,Brooks Lane,27410,36.1137149,-79.8914520
1801,Lakemont Drive,27410,36.1137976,-79.8910906
1803,Lakemont Drive,27410,36.1140958,-79.8911288
1805,Lakemont Drive,27410,36.1144599,-79.8909837
1807,Lakemont Drive,27410,36.1147376,-79.8909403
1806,Fleming Road,27410,36.1147903,-79.8914834
1804,Fleming Road,27410,36.1144765,-79.8916120
1802,Fleming Road,27410,36.1141195,-79.8916735
1802,Lakemont Drive,27410,36.1141297,-79.8904099
1804,Lakemont Drive,27410,36.1145120,-79.8903597
1711,New Bedford Drive,27410,36.1144680,-79.8881330
1801,New Bedford Drive,27410,36.1149440,-79.8878968
1803,New Bedford Drive,27410,36.1152180,-79.8877330
1805,New Bedford Drive,27410,36.1153695,-79.8875270
5702,Country Lane,27410,36.1152740,-79.8885105
5708,Country Lane,27410,36.1150575,-79.8891195
5710,Country Lane,27410,36.1150485,-79.8894065
5800,Country Lane,27410,36.1150815,-79.8896450
5802,Country Lane,27410,36.1150650,-79.8899630
5804,Country Lane,27410,36.1151125,-79.8902075
1809,Lakemont Drive,27410,36.1150847,-79.8908253
1808,Fleming Rd,27410,36.1151215,-79.8914635
5704,Country Lane,27410,36.1150975,-79.8887695
5706,Country Lane,27410,36.1155490,-79.8886385
1807,New Bedford Drive,27410,36.1155885,-79.8873085
1811,New Bedford Drive,27410,36.1158100,-79.8865670
1815,New Bedford Drive,27410,36.1157935,-79.8862800
1817,New Bedford Drive,27410,36.1157405,-79.8860250
1819,New Bedford Drive,27410,36.1155795,-79.8857610
1823,New Bedford Drive,27410,36.1152590,-79.8853780
1821,New Bedford Drive,27410,36.1154295,-79.8855525
1825,New Bedford Drive,27410,36.1150870,-79.8852190
1827,New Bedford Drive,27410,36.1149350,-79.8850235
1829,New Bedford Drive,27410,36.1147515,-79.8848535
1831,New Bedford Drive,27410,36.1146065,-79.8846510
1833,New Bedford Drive,27410,36.1144580,-79.8844240
1835,New Bedford Drive,27410,36.1143820,-79.8841705
1800,New Bedford Drive,27410,36.1147175,-79.8871480
1802,New Bedford Drive,27410,36.1149380,-79.8869860
1804,New Bedford Drive,27410,36.1152845,-79.8868895
1806,New Bedford Drive,27410,36.1153575,-79.8865550
1808,New Bedford Drive,27410,36.1152940,-79.8862275
1812,New Bedford Drive,27410,36.1149960,-79.8858270
1810,New Bedford Drive,27410,36.1151079,-79.8860403
1814,New Bedford Drive,27410,36.1148140,-79.8856350
1816,New Bedford Drive,27410,36.1146085,-79.8854825
1818,New Bedford Drive,27410,36.1144805,-79.8852760
1820,New Bedford Drive,27410,36.1143175,-79.8850965
1822,New Bedford Drive,27410,36.1140995,-79.8848965
1824,New Bedford Drive,27410,36.1140435,-79.8846190
1826,New Bedford Drive,27410,36.1139665,-79.8843820
5500,Country Lane,27410,36.1131145,-79.8848595
5602,Country Lane,27410,36.1132380,-79.8851445
5604,Country Lane,27410,36.1134135,-79.8854310
5606,Country Lane,27410,36.1136050,-79.8856275
5608,Country Lane,27410,36.1137680,-79.8858800
5610,Country Lane,27410,36.1139785,-79.8861090
5612,Country Lane,27410,36.1141940,-79.8863475
5614,Country Lane,27410,36.1143770,-79.8865800
5616,Country Lane,27410,36.1145500,-79.8868180
5619,Country Lane,27410,36.1142545,-79.8875060
5617,Country Lane,27410,36.1140935,-79.8871810
5615,Country Lane,27410,36.1138820,-79.8868920
5611,Country Lane,27410,36.1135510,-79.8865515
5502,Hempstead Drive,27410,36.1134400,-79.8870530
1700,New Bedford Drive,27410,36.1135710,-79.8875865
1702,New Bedford Drive,27410,36.1138365,-79.8876070
1709,New Bedford Drive,27410,36.1141775,-79.8882240
1707,New Bedford Drive,27410,36.1138775,-79.8882250
1705,New Bedford Drive,27410,36.1135840,-79.8882400
1703,New Bedford Drive,27410,36.1132740,-79.8882165
1701,New Bedford Drive,27410,36.1129475,-79.8882255
5505,Hempstead Drive,27410,36.1129535,-79.8872685
5507,Hempstead Drive,27410,36.1129795,-79.8876117
5501,Hempstead Drive,27410,36.1129993,-79.8864837
5503,Hempstead Drive,27410,36.1129495,-79.8869200
5507,Country Lane,27410,36.1131325,-79.8860005
5505,Country Lane,27410,36.1129195,-79.8857510
5503,Country Lane,27410,36.1128040,-79.8854650
5501,Country Lane,27410,36.1126425,-79.8850945
5428,Garden Lake Drive,27410,36.1121633,-79.8878829
5426,Garden Lake Drive,27410,36.1122550,-79.8874265
5424,Garden Lake Drive,27410,36.1122655,-79.8870310
5422,Garden Lake Drive,27410,36.1121229,-79.8866427
5420,Garden Lake Drive,27410,36.1119755,-79.8862024
12,Gamble Place,27410,36.1117603,-79.8854360
5418,Garden Lake Drive,27410,36.1115137,-79.8857194
5425,Garden Lake Drive,27410,36.1113479,-79.8865146
5429,Garden Lake Drive,27410,36.1117321,-79.8870805
5427,Garden Lake Drive,27410,36.1115988,-79.8867795
5423,Garden Lake Drive,27410,36.1110912,-79.8863109
5421,Garden Lake Drive,27410,36.1108502,-79.8860777
5419,Garden Lake Drive,27410,36.1105969,-79.8858766
5417,Garden Lake Drive,27410,36.1103358,-79.8856349
5416,Garden Lake Drive,27410,36.1111263,-79.8854240
5415,Garden Lake Drive,27410,36.1100645,-79.8853534
5413,Garden Lake Drive,27410,36.1097552,-79.8850836
2,Fleming Terrace Circle,27410,36.1108126,-79.8893999
4,Fleming Terrace Circle,27410,36.1108924,-79.8886567
1918,Haven Road,27410,36.1219895,-79.8881065
1920,Haven Road,27410,36.1221388,-79.8881845
1922,Haven Road,27410,36.1222680,-79.8882637
1924,Haven Road,27410,36.1223870,-79.8883361
1926,Haven Road,27410,36.1225123,-79.8884162
1928,Haven Road,27410,36.1226349,-79.8884903
1930,Haven Road,27410,36.1227576,-79.8885712
1932,Haven Road,27410,36.1228797,-79.8886486
1934,Haven Road,27410,36.1230090,-79.8887222
1936,Haven Road,27410,36.1231360,-79.8887800
1938,Haven Road,27410,36.1232646,-79.8888597
1940,Haven Road,27410,36.1233978,-79.8889282
1942,Haven Road,27410,36.1235242,-79.8889888
1944,Haven Road,27410,36.1236535,-79.8890573
1946,Haven Road,27410,36.1237801,-79.8891167
1948,Haven Road,27410,36.1239120,-79.8891785
6102,Auburndale Drive,27408,36.0863770,-79.8980690
6104,Auburndale Drive,27408,36.0863770,-79.8984080
6106,Auburndale Drive,27408,36.0863875,-79.8987430
6108,Auburndale Drive,27408,36.0863610,-79.8990880
6110,Auburndale Drive,27408,36.0863230,-79.8994325
6112,Auburndale Drive,27408,36.0863555,-79.8997650
6114,Auburndale Drive,27408,36.0863555,-79.9000990
6116,Auburndale Drive,27408,36.0863646,-79.9004325
6120,Auburndale Drive,27408,36.0864409,-79.9007651
6124,Auburndale Drive,27408,36.0869060,-79.9012565
6122,Auburndale Drive,27408,36.0866455,-79.9010885
6123,Auburndale Drive,27408,36.0862413,-79.9015524
6121,Auburndale Drive,27408,36.0859340,-79.9010845
6119,Auburndale Drive,27408,36.0857935,-79.9007455
6117,Auburndale Drive,27408,36.0857200,-79.9004025
6115,Auburndale Drive,27408,36.0856775,-79.9000655
6113,Auburndale Drive,27408,36.0856500,-79.8997210
6111,Auburndale Drive,27408,36.0857110,-79.8993685
6109,Auburndale Drive,27408,36.0857290,-79.8990620
6107,Auburndale Drive,27408,36.0857135,-79.8986950
6103,Auburndale Drive,27408,36.0857270,-79.8980470
6105,Auburndale Drive,27408,36.0857170,-79.8983795
6104,Sundown Drive,27408,36.0849801,-79.8982711
6106,Sundown Drive,27408,36.0849578,-79.8987872
6108,Sundown Drive,27408,36.0849415,-79.8992807
6110,Sundown Drive,27408,36.0849328,-79.8995728
6114,Sundown Drive,27408,36.0849348,-79.8999127
6116,Sundown Drive,27408,36.0849380,-79.9002465
6118,Sundown Drive,27408,36.0849355,-79.9005910
6120,Sundown Drive,27408,36.0850180,-79.9009060
6122,Sundown Drive,27408,36.0849855,-79.9013745
528,College Road,27410,36.0855795,-79.8889595
4302,West Friendly Avenue,27410,36.0916630,-79.8635070
1402,Westridge Road,27410,36.1105750,-79.8505430
1400,Westridge Road,27410,36.1099630,-79.8507195
1300,Westridge Road,27410,36.1067245,-79.8519935
1302,Westridge Road,27410,36.1069595,-79.8518410
1304,Westridge Road,27410,36.1072885,-79.8516230
1306,Westridge Road,27410,36.1076025,-79.8514695
1310,Westridge Road,27410,36.1081480,-79.8512765
1312,Westridge Road,27410,36.1084705,-79.8511462
1314,Westridge Road,27410,36.1088085,-79.8510145
1316,Westridge Road,27410,36.1091270,-79.8509510
1318,Westridge Road,27410,36.1094865,-79.8508840
2117,Pebble Drive,27410,36.1101095,-79.8495460
2115,Pebble Drive,27410,36.1098985,-79.8495790
2111,Pebble Drive,27410,36.1096775,-79.8496395
2109,Pebble Drive,27410,36.1094610,-79.8497520
2107,Pebble Drive,27410,36.1092515,-79.8497430
2105,Pebble Drive,27410,36.1090385,-79.8498320
2103,Pebble Drive,27410,36.1088325,-79.8498870
2101,Pebble Drive,27410,36.1085850,-79.8499420
2009,Pebble Drive,27410,36.1083460,-79.8500615
2007,Pebble Drive,27410,36.1081205,-79.8501865
2005,Pebble Drive,27410,36.1078680,-79.8503070
2001,Pebble Drive,27410,36.1075665,-79.8504440
1907,Pebble Drive,27410,36.1073000,-79.8505090
1905,Pebble Drive,27410,36.1070275,-79.8505855
1903,Pebble Drive,27410,36.1067625,-79.8506615
1901,Pebble Drive,27410,36.1064920,-79.8506885
1220B,Westridge Road,27410,36.1054489,-79.8534968
1224,Westridge Road,27410,36.1056530,-79.8532730
1228,Westridge Road,27410,36.1060525,-79.8528255
1220A,Westridge Road,27410,36.1051980,-79.8539925
1220B,Westridge Road,27410,36.1045535,-79.8535068
1216,Westridge Road,28410,36.1047980,-79.8547760
1218,Westridge Road,27410,36.1050485,-79.8543455
1214,Westridge Road,28410,36.1042260,-79.8548705
1210B,Westridge Road,28410,36.1036355,-79.8554190
1210A,Westridge Road,28410,36.1041105,-79.8564170
1206,Westridge Road,28410,36.1034735,-79.8568004
1208,Westridge Road,28410,36.1030551,-79.8557801
1303,Pebble Drive,28410,36.1025235,-79.8548160
1305,Pebble Drive,28410,36.1027160,-79.8546230
1299,Pebble Drive,28410,36.1022129,-79.8552624
1209,Pebble Drive,28410,36.1019965,-79.8554700
1207,Pebble Drive,28410,36.1017920,-79.8556890
1205,Pebble Drive,28410,36.1016015,-79.8558670
1203,Pebble Drive,28410,36.1014010,-79.8560530
1201,Pebble Drive,28410,36.1011920,-79.8562225
1104,Westminster Drive,28410,36.1015555,-79.8564615
1110,Westminster Drive,28410,36.1020845,-79.8572170
1112,Westminster Drive,28410,36.1023975,-79.8575615
1106,Westminster Drive,28410,36.1017790,-79.8567685
1200,Pebble Drive,28410,36.1009945,-79.8556935
1202,Pebble Drive,28410,36.1012105,-79.8554400
1204,Pebble Drive,28410,36.1014130,-79.8552965
1025,Chatfield Drive,28410,36.1017150,-79.8549705
5307,Ainsworth Drive,27410,36.1006400,-79.8799815
3801,Brandywine Drive,27410,36.1218188,-79.8523534
3803,Brandywine Drive,27410,36.1215399,-79.8524265
3805,Brandywine Drive,27410,36.1212692,-79.8524921
3807,Brandywine Drive,27410,36.1210209,-79.8526008
3700,Brandywine Drive,27410,36.1233671,-79.8531163
3702,Brandywine Drive,27410,36.1231368,-79.8529662
3704,Brandywine Drive,27410,36.1228976,-79.8529251
3706,Brandywine Drive,27410,36.1226840,-79.8528796
3708,Brandywine Drive,27410,36.1224174,-79.8528957
3710,Brandywine Drive,27410,36.1221546,-79.8529573
3712,Brandywine Drive,27410,36.1218566,-79.8530203
3714,Brandywine Drive,27410,36.1215874,-79.8530743
3715,Brandywine Drive,27410,36.1222145,-79.8522718
3709,Brandywine Drive,27410,36.1226885,-79.8522304
3707,Brandywine Drive,27410,36.1229114,-79.8522572
3705,Brandywine Drive,27410,36.1231646,-79.8523657
3703,Brandywine Drive,27410,36.1234330,-79.8524425
3701,Brandywine Drive,27410,36.1236661,-79.8526244
3615,Brandywine Drive,27410,36.1239158,-79.8527548
3611,Brandywine Drive,27410,36.1241702,-79.8527870
3609,Brandywine Drive,27410,36.1243898,-79.8528193
3616,Brandywine Drive,27410,36.1238602,-79.8533463
3602,Woodcote Drive,27410,36.1236920,-79.8535883
3605,Brandywine Drive,27410,36.1249221,-79.8527472
3607,Brandywine Drive,27410,36.1246953,-79.8528295
2502,Duck Club Road,27410,36.1236628,-79.8552136
2500,Duck Club Road,27410,36.1235937,-79.8555148
2501,Duck Club Road,27410,36.1236887,-79.8557992
3401,Shaker Drive,27410,36.1265170,-79.8824425
3400,Shaker Drive,27410,36.1262840,-79.8822045
3402,Shaker Drive,27410,36.1262860,-79.8818560
3404,Shaker Drive,27410,36.1265125,-79.8816985
3406,Shaker Drive,27410,36.1267820,-79.8816355
3408,Shaker Drive,27410,36.1270260,-79.8815025
3403,Shaker Drive,27410,36.1267280,-79.8824430
3405,Shaker Drive,27410,36.1269685,-79.8821880
3407,Shaker Drive,27410,36.1271865,-79.8820460
3409,Shaker Drive,27410,36.1274050,-79.8818970
3410,Shaker Drive,27410,36.1273410,-79.8813150
3500,Shaker Drive,27410,36.1275750,-79.8812300
3502,Shaker Drive,27410,36.1278340,-79.8812045
3501,Shaker Drive,27410,36.1278545,-79.8817940
3503,Shaker Drive,27410,36.1280695,-79.8818270
4007,Waynoka Drive,27410,36.1203175,-79.8768065
4005,Waynoka Drive,27410,36.1203200,-79.8764980
4001,Waynoka Drive,27410,36.1203865,-79.8758985
4003,Waynoka Drive,27410,36.1203170,-79.8762180
4009,Plantation Drive,27410,36.1198925,-79.8751810
4011,Plantation Drive,27410,36.1200170,-79.8754395
4007,Plantation Drive,27410,36.1197865,-79.8749330
4005,Plantation Drive,27410,36.1197245,-79.8746620
4003,Plantation Drive,27410,36.1196945,-79.8744020
2903,Will Doskey Drive,27410,36.1196980,-79.8739520
4002,Plantation Drive,27410,36.1201885,-79.8742280
4004,Plantation Drive,27410,36.1201690,-79.8745095
4006,Plantation Drive,27410,36.1202260,-79.8747660
4008,Plantation Drive,27410,36.1203280,-79.8750035
4010,Plantation Drive,27410,36.1204495,-79.8752175
3903,Waynoka Drive,27410,36.1208850,-79.8750580
4012,Plantation Drive,27410,36.1206170,-79.8754090
2728,Horse Pen Creek Road,27410,36.1207460,-79.8767690
2730,Horse Pen Creek Road,27410,36.1209985,-79.8768000
4002,Waynoka Drive,27410,36.1207850,-79.8763410
4000,Waynoka Drive,27410,36.1208455,-79.8760865
3906,Waynoka Drive,27410,36.1209470,-79.8758130
3904,Waynoka Drive,27410,36.1210795,-79.8755980
3902,Waynoka Drive,27410,36.1212705,-79.8754220
3900,Waynoka Drive,27410,36.1214545,-79.8753000
3822,Waynoka Drive,27410,36.1216455,-79.8751805
3820,Waynoka Drive,27410,36.1218690,-79.8750590
4006,Talmaga Lane,27410,36.1226000,-79.8758310
4002,Talmaga Lane,27410,36.1227900,-79.8755480
4000,Talmaga Lane,27410,36.1229295,-79.8753030
3003,Bannock Lane,27410,36.1232785,-79.8754845
3005,Bannock Lane,27410,36.1235130,-79.8755150
3007,Bannock Lane,27410,36.1237380,-79.8754845
3009,Bannock Lane,27410,36.1239885,-79.8755135
3011,Bannock Lane,27410,36.1242265,-79.8754945
3013,Bannock Lane,27410,36.1244705,-79.8754720
3015,Bannock Lane,27410,36.1247490,-79.8754015
3017,Bannock Lane,27410,36.1249600,-79.8753745
3019,Bannock Lane,27410,36.1251735,-79.8753385
3406,Tagus Drive,27410,36.1257910,-79.8744035
3404,Tagus Drive,27410,36.1257620,-79.8741035
3402,Tagus Drive,27410,36.1256755,-79.8738470
3101,Amidon Drive,27410,36.1254435,-79.8734455
3103,Amidon Drive,27410,36.1255280,-79.8731460
3105,Amidon Drive,27410,36.1255865,-79.8728520
3107,Amidon Drive,27410,36.1256040,-79.8725830
3018,Bannock Lane,27410,36.1253710,-79.8748430
3405,Tagus Drive,27410,36.1253145,-79.8743575
3403,Tagus Drive,27410,36.1252785,-79.8741035
3015,Amidon Drive,27410,36.1250595,-79.8739450
3016,Bannock Lane,27410,36.1251315,-79.8748165
3014,Bannock Lane,27410,36.1248975,-79.8748315
3012,Bannock Lane,27410,36.1246645,-79.8748370
3011,Amidon Drive,27410,36.1245600,-79.8741905
3013,Amidon Drive,27410,36.1248000,-79.8741110
3010,Bannock Lane,27410,36.1244325,-79.8748505
3008,Bannock Lane,27410,36.1242030,-79.8748825
3006,Bannock Lane,27410,36.1239765,-79.8749320
3004,Bannock Lane,27410,36.1237365,-79.8749495
3002,Bannock Lane,27410,36.1235060,-79.8749425
3904,Talmaga Lane,27410,36.1231130,-79.8748100
3902,Talmaga Lane,27410,36.1231850,-79.8745545
3900,Talmaga Lane,27410,36.1232755,-79.8742450
3003,Amidon Drive,27410,36.1235656,-79.8742648
3005,Amidon Drive,27410,36.1238155,-79.8742457
3007,Amidon Drive,27410,36.1240685,-79.8742336
3009,Amidon Drive,27410,36.1243015,-79.8742315
3800,Bardwell Place,27410,36.1244565,-79.8722335
3804,Bardwell Place,27410,36.1244795,-79.8728095
3802,Bardwell Place,27410,36.1244705,-79.8725020
3806,Bardwell Place,27410,36.1242945,-79.8731270
3807,Bardwell Place,27410,36.1239650,-79.8730910
3805,Bardwell Place,27410,36.1238487,-79.8727443
3007,Bardwell Road,27410,36.1240005,-79.8722915
3005,Bardwell Road,27410,36.1238185,-79.8723125
3003,Bardwell Road,27410,36.1235985,-79.8723370
3001,Bardwell Road,27410,36.1233659,-79.8723832
3802,Talmaga Lane,27410,36.1233036,-79.8728207
3806,Talmaga Lane,27410,36.1231750,-79.8733400
3808,Talmaga Lane,27410,36.1232255,-79.8737215
3804,Talmaga Lane,27410,36.1232168,-79.8730602
3002,Amidon Drive,27410,36.1234995,-79.8736990
3004,Amidon Drive,27410,36.1237270,-79.8736890
3006,Amidon Drive,27410,36.1239425,-79.8736810
3008,Amidon Drive,27410,36.1241725,-79.8736838
3010,Amidon Drive,27410,36.1243825,-79.8736697
3012,Amidon Drive,27410,36.1245880,-79.8735885
3014,Amidon Drive,27410,36.1248156,-79.8734731
3100,Amidon Drive,27410,36.1249885,-79.8732430
3102,Amidon Drive,27410,36.1250775,-79.8730010
3105,Bardwell Road,27410,36.1250973,-79.8723130
3103,Bardwell Road,27410,36.1248270,-79.8723125
3104,Amidon Drive,27410,36.1250895,-79.8727390
3201,Bardwell Road,27410,36.1254915,-79.8721325
3203,Bardwell Road,27410,36.1257005,-79.8720170
3205,Bardwell Road,27410,36.1259000,-79.8719475
3207,Bardwell Road,27410,36.1261030,-79.8718340
3209,Bardwell Road,27410,36.1263040,-79.8718570
3211,Bardwell Road,27410,36.1265080,-79.8719545
3206,Bardwell Road,27410,36.1258475,-79.8713560
3204,Bardwell Road,27410,36.1256335,-79.8714360
3202,Bardwell Road,27410,36.1254165,-79.8715615
3200,Bardwell Road,27410,36.1252090,-79.8716730
3106,Bardwell Road,27410,36.1249895,-79.8717345
3102,Bardwell Road,27410,36.1245325,-79.8717040
3100,Bardwell Road,27410,36.1243015,-79.8716970
3008,Bardwell Road,27410,36.1240730,-79.8717230
3006,Bardwell Road,27410,36.1238545,-79.8717470
3004,Bardwell Road,27410,36.1236350,-79.8717665
3002,Bardwell Road,27410,36.1234110,-79.8718095
3000,Bardwell Road,27410,36.1231795,-79.8718240
2904,Bardwell Road,27410,36.1229585,-79.8718425
2900,Bardwell Road,27410,36.1227480,-79.8717355
2810,Bardwell Road,27410,36.1225644,-79.8715564
2808,Bardwell Road,27410,36.1224185,-79.8713470
2806,Bardwell Road,27410,36.1223020,-79.8711290
2804,Bardwell Road,27410,36.1220885,-79.8709675
2802,Bardwell Road,27410,36.1218520,-79.8708430
2800,Bardwell Road,27410,36.1216235,-79.8707830
2706,Bardwell Road,27410,36.1213945,-79.8707425
2704,Bardwell Road,27410,36.1211700,-79.8706950
2702,Bardwell Road,27410,36.1209710,-79.8706360
2700,Bardwell Road,27410,36.1207535,-79.8705521
2701,Bardwell Road,27410,36.1207095,-79.8711325
2703,Bardwell Road,27410,36.1209235,-79.8712250
2705,Bardwell Road,27410,36.1211840,-79.8712960
3803,Langdon Drive,27410,36.1210565,-79.8716980
3805,Langdon Drive,27410,36.1209805,-79.8719670
3807,Langdon Drive,27410,36.1209105,-79.8722490
3809,Langdon Drive,27410,36.1208670,-79.8725000
3811,Langdon Drive,27410,36.1208325,-79.8727735
3813,Langdon Drive,27410,36.1208035,-79.8730625
3815,Langdon Drive,27410,36.1207995,-79.8733520
3817,Langdon Drive,27410,36.1208060,-79.8736490
3901,Langdon Drive,27410,36.1208340,-79.8739340
3903,Langdon Drive,27410,36.1208800,-79.8742095
3905,Langdon Drive,27410,36.1209255,-79.8744630
2801,Bardwell Road,27410,36.1215905,-79.8713660
3802,Langdon Drive,27410,36.1215275,-79.8718115
3806,Langdon Drive,27410,36.1213725,-79.8723540
3804,Langdon Drive,27410,36.1214450,-79.8720760
3808,Langdon Drive,27410,36.1213205,-79.8726140
3810,Langdon Drive,27410,36.1212780,-79.8728810
3812,Langdon Drive,27410,36.1212565,-79.8731535
3814,Langdon Drive,27410,36.1212575,-79.8734245
3900,Langdon Drive,27410,36.1212715,-79.8737040
3902,Langdon Drive,27410,36.1213050,-79.8739690
3904,Langdon Drive,27410,36.1213515,-79.8742125
3821,Waynoka Drive,27410,36.1214455,-79.8746785
3819,Waynoka Drive,27410,36.1216705,-79.8744870
3817,Waynoka Drive,27410,36.1218015,-79.8742030
3815,Waynoka Drive,27410,36.1218365,-79.8739480
3813,Waynoka Drive,27410,36.1217945,-79.8736805
3811,Waynoka Drive,27410,36.1217555,-79.8733885
3809,Waynoka Drive,27410,36.1217535,-79.8730825
3807,Waynoka Drive,27410,36.1217935,-79.8728020
3805,Waynoka Drive,27410,36.1218365,-79.8725050
3803,Waynoka Drive,27410,36.1219243,-79.8722389
2807,Bardwell Road,27410,36.1222000,-79.8719190
2805,Bardwell Road,27410,36.1220125,-79.8716540
2803,Bardwell Road,27410,36.1218275,-79.8714785
3800,Waynoka Drive,27410,36.1225217,-79.8722385
3802,Waynoka Drive,27410,36.1223318,-79.8725881
3804,Waynoka Drive,27410,36.1222539,-79.8728633
3806,Waynoka Drive,27410,36.1222345,-79.8731215
3808,Waynoka Drive,27410,36.1222185,-79.8734085
3810,Waynoka Drive,27410,36.1222520,-79.8737040
3812,Waynoka Drive,27410,36.1223055,-79.8739945
3814,Waynoka Drive,27410,36.1222765,-79.8743030
3816,Waynoka Drive,27410,36.1221865,-79.8745625
3818,Waynoka Drive,27410,36.1220565,-79.8748085
3901,Waynoka Drive,27410,36.1210985,-79.8749107
4005,Talmaga Lane,27410,36.1223540,-79.8753080
4003,Talmaga Lane,27410,36.1224895,-79.8751235
4001,Talmaga Lane,27410,36.1226145,-79.8748555
3905,Talmaga Lane,27410,36.1226935,-79.8745880
3903,Talmaga Lane,27410,36.1227525,-79.8743170
3901,Talmaga Lane,27410,36.1227655,-79.8740350
3811,Talmaga Lane,27410,36.1227525,-79.8737630
3809,Talmaga Lane,27410,36.1227255,-79.8734655
3807,Talmaga Lane,27410,36.1227205,-79.8731810
3805,Talmaga Lane,27410,36.1227655,-79.8729140
3803,Talmaga Lane,27410,36.1228475,-79.8726305
3801,Talmaga Lane,27410,36.1229035,-79.8723785
3501,Timberoak Drive,27410,36.1228640,-79.8653605
3503,Timberoak Drive,27410,36.1229233,-79.8656701
3505,Timberoak Drive,27410,36.1229150,-79.8660510
3507,Timberoak Drive,27410,36.1228985,-79.8663890
3509,Timberoak Drive,27410,36.1228606,-79.8667835
3601,Timberoak Drive,27410,36.1228335,-79.8671150
3603,Timberoak Drive,27410,36.1228155,-79.8674605
3605,Timberoak Drive,27410,36.1228145,-79.8678000
3607,Timberoak Drive,27410,36.1228082,-79.8681104
3609,Timberoak Drive,27410,36.1227865,-79.8684576
3701,Timberoak Drive,27410,36.1228055,-79.8688605
3703,Timberoak Drive,27410,36.1228600,-79.8692470
3705,Timberoak Drive,27410,36.1229900,-79.8695590
3707,Timberoak Drive,27410,36.1231610,-79.8697715
3711,Timberoak Drive,27410,36.1237322,-79.8700195
3708,Timberoak Drive,27410,36.1234517,-79.8699753
3713,Timberoak Drive,27410,36.1239949,-79.8700233
3715,Timberoak Drive,27410,36.1243135,-79.8700655
3717,Timberoak Drive,27410,36.1245157,-79.8698231
3714,Timberoak Drive,27410,36.1244835,-79.8694765
3712,Timberoak Drive,27410,36.1242107,-79.8692206
3710,Timberoak Drive,27410,36.1239457,-79.8693598
3708,Timberoak Drive,27410,36.1236681,-79.8693889
3706,Timberoak Drive,27410,36.1233980,-79.8692680
3704,Crosstimbers Drive,27410,36.1257900,-79.8687565
3700,Crosstimbers Drive,27410,36.1257475,-79.8683845
3612,Crosstimbers Drive,27410,36.1257325,-79.8680060
3610,Crosstimbers Drive,27410,36.1257335,-79.8676030
3608,Crosstimbers Drive,27410,36.1257505,-79.8672150
3606,Crosstimbers Drive,27410,36.1257515,-79.8668610
3604,Crosstimbers Drive,27410,36.1257720,-79.8665540
3602,Crosstimbers Drive,27410,36.1257655,-79.8662215
3600,Crosstimbers Drive,27410,36.1257410,-79.8658685
3504,Crosstimbers Drive,27410,36.1257595,-79.8655735
3502,Crosstimbers Drive,27410,36.1257485,-79.8651725
3500,Crosstimbers Drive,27410,36.1257755,-79.8648645
3412,Crosstimbers Drive,27410,36.1257745,-79.8645760
3410,Crosstimbers Drive,27410,36.1257670,-79.8642205
3408,Crosstimbers Drive,27410,36.1257455,-79.8639080
3406,Crosstimbers Drive,27410,36.1257345,-79.8635425
3404,Crosstimbers Drive,27410,36.1256340,-79.8631875
3402,Crosstimbers Drive,27410,36.1254340,-79.8629755
3409,Crosstimbers Drive,27410,36.1252710,-79.8643865
3407,Crosstimbers Drive,27410,36.1251835,-79.8640305
3405,Crosstimbers Drive,27410,36.1252130,-79.8636980
3403,Crosstimbers Drive,27410,36.1250780,-79.8634175
3401,Crosstimbers Drive,27410,36.1248850,-79.8630920
3308,Timberview Circle,27410,36.1248780,-79.8643265
3306,Timberview Circle,27410,36.1246570,-79.8643410
3304,Timberview Circle,27410,36.1244135,-79.8641860
3302,Timberview Circle,27410,36.1241475,-79.8640495
3300,Timberview Circle,27410,36.1238640,-79.8642195
3301,Timberview Circle,27410,36.1238415,-79.8646160
3303,Timberview Circle,27410,36.1240445,-79.8648835
3305,Timberview Circle,27410,36.1243345,-79.8649295
3307,Timberview Circle,27410,36.1246365,-79.8649420
3309,Timberview Circle,27410,36.1248820,-79.8649835
3308,High Ridge Court,27410,36.1248875,-79.8655105
3306,High Ridge Court,27410,36.1246545,-79.8654945
3304,High Ridge Court,27410,36.1243915,-79.8654595
3302,High Ridge Court,27410,36.1241085,-79.8653975
3300,High Ridge Court,27410,36.1238480,-79.8656765
3301,High Ridge Court,27410,36.1238620,-79.8660700
3305,High Ridge Court,27410,36.1243585,-79.8661570
3309,High Ridge Court,27410,36.1248975,-79.8661180
3307,High Ridge Court,27410,36.1246285,-79.8661020
3303,High Ridge Court,27410,36.1241080,-79.8662615
3208,Timberoak Court,27410,36.1243470,-79.8667230
3210,Timberoak Court,27410,36.1246440,-79.8667765
3212,Timberoak Court,27410,36.1247335,-79.8670660
3211,Timberoak Court,27410,36.1246335,-79.8674130
3209,Timberoak Court,27410,36.1243615,-79.8674460
3207,Timberoak Court,27410,36.1241165,-79.8673625
3205,Timberoak Court,27410,36.1237955,-79.8674180
3204,Timberoak Court,27410,36.1238530,-79.8668550
3206,Timberoak Court,27410,36.1240810,-79.8668125
3203,Timberoak Court,27410,36.1235545,-79.8673995
3201,Timberoak Court,27410,36.1232575,-79.8673890
3202,Timberoak Court,27410,36.1235485,-79.8668420
3200,Timberoak Court,27410,36.1233140,-79.8668225
3508,Timberoak Drive,27410,36.1233585,-79.8663270
3506,Timberoak Drive,27410,36.1233655,-79.8659610
3504,Timberoak Drive,27410,36.1234140,-79.8656370
3502,Timberoak Drive,27410,36.1233440,-79.8652150
3500,Timberoak Drive,27410,36.1232235,-79.8649125
3500,Brassfield Oaks Drive,27410,36.1268200,-79.8647925
3505,Crosstimbers Drive,27410,36.1252655,-79.8655680
3503,Crosstimbers Drive,27410,36.1252815,-79.8652400
3501,Crosstimbers Drive,27410,36.1252495,-79.8648820
3507,Bally Brook Drive,27410,36.1435422,-79.8830833
3243,Cheswick Drive,27410,36.1262790,-79.9235645
3254,Cheswick Drive,27410,36.1266390,-79.9239020
3252,Cheswick Drive,27410,36.1266830,-79.9236930
3250,Cheswick Drive,27410,36.1267690,-79.9234670
3248,Cheswick Drive,27410,36.1268575,-79.9232565
3246,Cheswick Drive,27410,36.1269640,-79.9230855
3244,Cheswick Drive,27410,36.1271090,-79.9229305
3242,Cheswick Drive,27410,36.1272370,-79.9227755
3240,Cheswick Drive,27410,36.1273317,-79.9226166
3238,Cheswick Drive,27410,36.1274353,-79.9224069
5917,Firewood Trail,27410,36.1229096,-79.9168452
5915,Firewood Trail,27410,36.1229527,-79.9165459
5913,Firewood Trail,27410,36.1228124,-79.9161355
4019,Westmount Drive,27410,36.1224475,-79.8629005
3,Westmount Court,27410,36.1229350,-79.8629420
5,Westmount Court,27410,36.1232665,-79.8630765
7,Westmount Court,27410,36.1236065,-79.8630715
9,Westmount Court,27410,36.1239025,-79.8629705
11,Westmount Court,27410,36.1241545,-79.8627435
15,Westmount Court,27410,36.1244300,-79.8625244
17,Westmount Court,27410,36.1246927,-79.8623201
19,Westmount Court,27410,36.1249120,-79.8620640
21,Westmount Court,27410,36.1248618,-79.8615734
14,Westmount Court,27410,36.1246376,-79.8612922
12,Westmount Court,27410,36.1243400,-79.8614420
10,Westmount Court,27410,36.1241735,-79.8618705
8,Westmount Court,27410,36.1239700,-79.8621000
6,Westmount Court,27410,36.1237540,-79.8622920
4,Westmount Court,27410,36.1234740,-79.8624100
2,Westmount Court,27410,36.1231505,-79.8621940
4103,Westmount Drive,27410,36.1234680,-79.8619150
4105,Westmount Drive,27410,36.1236645,-79.8616895
4107,Westmount Drive,27410,36.1238935,-79.8613960
4109,Westmount Drive,27410,36.1240620,-79.8610525
2000,Rockglen Lane,27410,36.1241535,-79.8603900
2002,Rockglen Lane,27410,36.1244715,-79.8604465
2107,Brassfield Road,27410,36.1246505,-79.8600395
4203,Westmount Drive,27410,36.1242290,-79.8599750
4205,Westmount Drive,27410,36.1242365,-79.8594955
4301,Westmount Drive,27410,36.1242570,-79.8590080
2002,Southern Gates Court,27410,36.1251040,-79.8578815
2004,Southern Gates Court,27410,36.1254420,-79.8577830
4017,Westmount Drive,27410,36.1220780,-79.8628520
4015,Westmount Drive,27410,36.1218075,-79.8628085
4011,Westmount Drive,27410,36.1214495,-79.8626870
4009,Westmount Drive,27410,36.1212300,-79.8624800
4007,Westmount Drive,27410,36.1210420,-79.8622070
4005,Westmount Drive,27410,36.1208725,-79.8619365
4003,Westmount Drive,27410,36.1207765,-79.8615565
4001,Westmount Drive,27410,36.1206785,-79.8612000
3903,Westmount Drive,27410,36.1205000,-79.8608695
3901,Westmount Drive,27410,36.1202235,-79.8606430
1208,Brushy Fork Drive,27406,35.9919361,-79.8135744
1210,Brushy Fork Drive,27406,35.9917879,-79.8136108
1212,Brushy Fork Drive,27406,35.9916249,-79.8135744
1209,Brushy Fork Drive,27406,35.9918849,-79.8131089
1211,Brushy Fork Drive,27406,35.9917518,-79.8131012
1213,Brushy Fork Drive,27406,35.9916063,-79.8131027
914,Wild Wolf Drive,27406,35.9916179,-79.8126548
912,Wild Wolf Drive,27406,35.9915874,-79.8124591
910,Wild Wolf Drive,27406,35.9915734,-79.8122513
908,Wild Wolf Drive,27406,35.9915533,-79.8120166
906,Wild Wolf Drive,27406,35.9914733,-79.8118604
904,Wild Wolf Drive,27406,35.9914023,-79.8116402
911,Wild Wolf Drive,27406,35.9912003,-79.8124634
909,Wild Wolf Drive,27406,35.9911472,-79.8122536
907,Wild Wolf Drive,27406,35.9909710,-79.8121633
905,Wild Wolf Drive,27406,35.9908683,-79.8120066
903,Wild Wolf Drive,27406,35.9908555,-79.8117967
901,Wild Wolf Drive,27406,35.9909188,-79.8116041
900,Wild Wolf Drive,27406,35.9910734,-79.8114579
917,Wild Wolf Drive,27406,35.9912397,-79.8129860
919,Wild Wolf Drive,27406,35.9912401,-79.8131562
1005,Wild Wolf Drive,27410,35.9912457,-79.8138402
4104,South Elm Eugene Street,27406,35.9959426,-79.7934039
1333,Grove Street,27403,36.0533450,-79.8142030
1901,West Florida Street,27403-3362;27403,36.0519955,-79.8208420
504,Hickory Ridge Drive,27409,36.0736507,-79.9614409
6426,Burnt Poplar Road,27409,36.0781031,-79.9476676
831,Greenhaven Drive,27406,36.0229189,-79.8136370
505,Hickory Branch Road,27409,36.0745656,-79.9609581
4904,Koger Boulevard,27407,36.0525014,-79.8845606
3810,North Church Street,27455,36.1337035,-79.7892213
106,Pisgah Church Road,27455,36.1340573,-79.7909002
238,NC Highway 68 South,27409,36.0724468,-79.9603111
601,East Main Street,27282,36.0010995,-79.9154022
4571,Reedy Fork Parkway,27405,36.1863110,-79.6965655
1921,New Garden Road,27410,36.1277102,-79.8629457
5729,West Friendly Avenue,27410,36.0894390,-79.8881407
3700,Obriant Place,27410,36.1284055,-79.9248095
6534,Overland Park Drive,27410,36.1465945,-79.9396940
6532,Overland Park Drive,27410,36.1465624,-79.9394816
6530,Overland Park Drive,27410,36.1465884,-79.9392693
6526,Overland Park Drive,27410,36.1465509,-79.9388219
6524,Overland Park Drive,27410,36.1465624,-79.9386071
6522,Overland Park Drive,27410,36.1465309,-79.9383802
6520,Overland Park Drive,27410,36.1465342,-79.9381701
6518,Overland Park Drive,27410,36.1465330,-79.9379477
6516,Overland Park Drive,27410,36.1465342,-79.9377156
6529,Overland Park Drive,27410,36.1461394,-79.9393692
6527,Overland Park Drive,27410,36.1461340,-79.9391237
6525,Overland Park Drive,27410,36.1461198,-79.9386404
6523,Overland Park Drive,27410,36.1461069,-79.9384299
6521,Overland Park Drive,27410,36.1461177,-79.9382075
6519,Overland Park Drive,27410,36.1460889,-79.9379665
6517,Overland Park Drive,27410,36.1460626,-79.9377543
6515,Overland Park Drive,27410,36.1456950,-79.9372580
6513,Overland Park Drive,27410,36.1455287,-79.9371997
6511,Overland Park Drive,27410,36.1453575,-79.9371410
6500,Overland Park Drive,27410,36.1453176,-79.9365621
6502,Overland Park Drive,27410,36.1454870,-79.9366038
6504,Overland Park Drive,27410,36.1457633,-79.9366663
6506,Overland Park Drive,27410,36.1459391,-79.9367864
6510,Overland Park Drive,27410,36.1462661,-79.9370260
6512,Overland Park Drive,27410,36.1464014,-79.9372461
6514,Overland Park Drive,27410,36.1464559,-79.9374678
6508,Overland Park Drive,27410,36.1460996,-79.9368986
6528,Overland Park Drive,27410,36.1465587,-79.9390332
3220,North O'Henry Boulevard,27405,36.1212454,-79.7498085
3240,North O'Henry Boulevard,27405,36.1220445,-79.7488475
3224,North O'Henry Boulevard,27405,36.1218624,-79.7496658
3109,Shady Lawn Drive,27408,36.1133520,-79.8455090
3113,Shady Lawn Drive,27408,36.1136050,-79.8460379
3115,Shady Lawn Drive,27408,36.1138480,-79.8461460
3119,Shady Lawn Drive,27408,36.1143471,-79.8461677
3108,Shady Lawn Drive,27408,36.1139279,-79.8455971
3106,Shady Lawn Drive,27408,36.1137640,-79.8452917
3104,Shady Lawn Drive,27408,36.1137064,-79.8450091
3117,Shady Lawn Drive,27408,36.1141028,-79.8462022
3102,Shady Lawn Drive,27408,36.1136207,-79.8446997
3107,Shady Lawn Drive,27408,36.1133139,-79.8452504
3111,Shady Lawn Drive,27408,36.1134700,-79.8458034
3105,Shady Lawn Drive,27408,36.1132362,-79.8449756
3103,Shady Lawn Drive,27408,36.1131554,-79.8447187
3019,Shady Lawn Drive,27408,36.1131018,-79.8432647
3017,Shady Lawn Drive,27408,36.1131867,-79.8429659
3011,Shady Lawn Drive,27408,36.1135998,-79.8421315
3009,Shady Lawn Drive,27408,36.1135059,-79.8418284
3007,Shady Lawn Drive,27408,36.1133600,-79.8416590
3005,Shady Lawn Drive,27408,36.1131929,-79.8414708
3001,Shady Lawn Drive,27408,36.1130228,-79.8413041
2913,Shady Lawn Drive,27408,36.1127285,-79.8408800
2911,Shady Lawn Drive,27408,36.1125792,-79.8406407
2907,Shady Lawn Drive,27408,36.1123055,-79.8402340
2905,Shady Lawn Drive,27408,36.1121523,-79.8400237
2820,Shady Lawn Drive,27408,36.1120782,-79.8389942
2904,Shady Lawn Drive,27408,36.1125001,-79.8396557
2906,Shady Lawn Drive,27408,36.1126539,-79.8398531
2908,Shady Lawn Drive,27408,36.1127832,-79.8400561
2910,Shady Lawn Drive,27408,36.1129275,-79.8403160
2730,Shady Lawn Drive,27408,36.1105443,-79.8364197
2728,Shady Lawn Drive,27408,36.1103933,-79.8361881
2726,Shady Lawn Drive,27408,36.1102565,-79.8360038
2724,Shady Lawn Drive,27408,36.1101433,-79.8358184
2722,Shady Lawn Drive,27408,36.1100036,-79.8355947
2720,Shady Lawn Drive,27408,36.1098806,-79.8354260
2718,Shady Lawn Drive,27408,36.1097710,-79.8352666
2716,Shady Lawn Drive,27408,36.1096491,-79.8350830
2714,Shady Lawn Drive,27408,36.1094801,-79.8348657
2712,Shady Lawn Drive,27408,36.1093100,-79.8346895
2710,Shady Lawn Drive,27408,36.1091387,-79.8344608
2708,Shady Lawn Drive,27408,36.1090000,-79.8343370
2704,Shady Lawn Drive,27408,36.1086951,-79.8339949
2702,Shady Lawn Drive,27408,36.1085315,-79.8339051
2700,Shady Lawn Drive,27408,36.1084072,-79.8337910
2816,Stratford Drive,27408,36.1131395,-79.8368215
2820,Stratford Drive,27408,36.1133394,-79.8371521
2822,Stratford Drive,27408,36.1134571,-79.8373294
2900,Stratford Drive,27408,36.1137377,-79.8376945
2902,Stratford Drive,27408,36.1139064,-79.8378794
2904,Stratford Drive,27408,36.1140618,-79.8380719
2906,Stratford Drive,27408,36.1141873,-79.8382380
2908,Stratford Drive,27408,36.1143323,-79.8384698
2912,Stratford Drive,27408,36.1146305,-79.8388921
2914,Stratford Drive,27408,36.1147587,-79.8390711
3000,Stratford Drive,27408,36.1148939,-79.8393037
3006,Stratford Drive,27408,36.1153171,-79.8399172
2910,Stratford Drive,27408,36.1144749,-79.8386674
3002,Stratford Drive,27408,36.1150546,-79.8394882
3004,Stratford Drive,27408,36.1151920,-79.8396954
3008,Stratford Drive,27408,36.1154678,-79.8401219
3010,Stratford Drive,27408,36.1155943,-79.8403633
3014,Stratford Drive,27408,36.1157907,-79.8408793
3016,Stratford Drive,27408,36.1158101,-79.8411665
3018,Stratford Drive,27408,36.1158312,-79.8414407
3020,Stratford Drive,27408,36.1158498,-79.8417053
3024,Stratford Drive,27408,36.1159194,-79.8422526
3022,Stratford Drive,27408,36.1158944,-79.8419817
3028,Stratford Drive,27408,36.1159447,-79.8428038
3100,Stratford Drive,27408,36.1160311,-79.8433523
3104,Stratford Drive,27408,36.1159979,-79.8437354
3106,Stratford Drive,27408,36.1160095,-79.8440730
3109,Stratford Drive,27408,36.1155113,-79.8443322
1800,Brookcliff Drive,27408,36.1160235,-79.8444422
3202,Nathanael Road,27408,36.1169515,-79.8426240
3033,Sourwood Road,27408,36.1164880,-79.8427873
3029,Sourwood Road,27408,36.1164560,-79.8424652
3029,Sourwood Road,27408,36.1164227,-79.8421264
3027,Sourwood Road,27408,36.1164175,-79.8417313
3025,Sourwood Road,27408,36.1164416,-79.8413747
3023,Sourwood Road,27408,36.1163853,-79.8410607
3021,Sourwood Road,27408,36.1163537,-79.8408199
3019,Sourwood Road,27408,36.1163436,-79.8405691
3017,Sourwood Road,27408,36.1163199,-79.8402075
3015,Sourwood Road,27408,36.1163152,-79.8399450
3013,Sourwood Road,27408,36.1162775,-79.8397111
3007,Sourwood Road,27408,36.1161689,-79.8387635
3009,Sourwood Road,27408,36.1160050,-79.8391977
3011,Sourwood Road,27408,36.1160132,-79.8394194
3028,Sourwood Road,27408,36.1170251,-79.8417813
3026,Sourwood Road,27408,36.1169758,-79.8414399
3024,Sourwood Road,27408,36.1169443,-79.8410812
3020,Sourwood Road,27408,36.1170547,-79.8407620
3030,Sourwood Road,27408,36.1170453,-79.8420572
3018,Sourwood Road,27408,36.1169292,-79.8404355
3016,Sourwood Road,27408,36.1168578,-79.8400573
3012,Sourwood Road,27408,36.1168026,-79.8394873
3000,Shady Lawn Drive,27408,36.1134023,-79.8408844
3002,Shady Lawn Drive,27408,36.1135417,-79.8411258
3004,Shady Lawn Drive,27408,36.1136973,-79.8413119
3006,Shady Lawn Drive,27408,36.1138537,-79.8414861
3008,Shady Lawn Drive,27408,36.1140040,-79.8417055
3012,Shady Lawn Drive,27408,36.1140487,-79.8422920
3014,Shady Lawn Drive,27408,36.1139384,-79.8425396
3016,Shady Lawn Drive,27408,36.1138381,-79.8427548
3018,Shady Lawn Drive,27408,36.1137227,-79.8429734
3020,Shady Lawn Drive,27408,36.1135920,-79.8432310
3022,Shady Lawn Drive,27408,36.1135388,-79.8434881
3024,Shady Lawn Drive,27408,36.1135061,-79.8437513
2909,Shady Lawn Drive,27408,36.1124256,-79.8404538
3011,Taliaferro Road,27408,36.1176900,-79.8420055
3003,Taliaferro Road,27408,36.1176428,-79.8405717
3004,Taliaferro Road,27408,36.1181510,-79.8410065
3006,Taliaferro Road,27408,36.1181835,-79.8413275
3008,Taliaferro Road,27408,36.1181996,-79.8416792
3010,Taliaferro Road,27408,36.1182298,-79.8420141
3009,Taliaferro Road,27408,36.1176416,-79.8416365
3007,Taliaferro Road,27408,36.1176248,-79.8413378
3005,Taliaferro Road,27408,36.1176170,-79.8409563
"3057,3059",Pisgah Place,27455,36.1231405,-79.8179800
"3053,3055",Pisgah Place,27455,36.1228965,-79.8176490
"3049,3051",Pisgah Place,27455,36.1226825,-79.8173000
"3035,3037",Pisgah Place,27455,36.1219855,-79.8173650
1401,Ivy Heights,27401,36.0564813,-79.7596765
400,Bellemeade Street,27401,36.0758200,-79.7942657
215,North Eugene Street,27401,36.0749393,-79.7947244
300,North Elm Street,27401,36.0755415,-79.7895685
5201,Easter Lane,27409,36.0660444,-79.9072315
5204,Easter Lane,27409,36.0666741,-79.9080059
1007,Battleground Avenue,27408,36.0800979,-79.7999454
3518,Drawbridge Parkway,27410,36.1390189,-79.8661123
522,Carowill Drive,27455,36.1220049,-79.8189803
524,Carowill Drive,27455,36.1225349,-79.8188749
5500,Summit Avenue,27405,36.1574683,-79.7357740
2706,Glenn Abbey Lane,27214,36.1617893,-79.7314506
2800,Glenn Abbey Lane,27214,36.1609929,-79.7311268
4501,Chapel Ridge Drive,27405,36.1348565,-79.7632740
902,Wild Wolf Drive,27406,35.9912419,-79.8114853
4029,Blumenthal Road,27406,36.0006804,-79.7623249
2504,Duck Club Road,27410,36.1239151,-79.8550946
2506,Duck Club Road,27410,36.1241323,-79.8550832
2508,Duck Club Road,27410,36.1243283,-79.8550946
2510,Duck Club Road,27410,36.1245112,-79.8551238
2512,Duck Club Road,27410,36.1247100,-79.8551068
2514,Duck Club Road,27410,36.1248964,-79.8551307
2516,Duck Club Road,27410,36.1250886,-79.8551326
2518,Duck Club Road,27410,36.1252930,-79.8551177
2520,Duck Club Road,27410,36.1255264,-79.8551237
2522,Duck Club Road,27410,36.1257486,-79.8552436
2600,Duck Club Road,27410,36.1258709,-79.8554125
2602,Duck Club Road,27410,36.1260695,-79.8555664
2606,Duck Club Road,27410,36.1264622,-79.8555571
2612,Duck Club Road,27410,36.1271711,-79.8557826
2614,Duck Club Road,27410,36.1273841,-79.8558847
5,Duck Club Court,27410,36.1267516,-79.8556546
3,Duck Club Court,27410,36.1267500,-79.8553919
1,Duck Club Court,27410,36.1268083,-79.8551328
2,Duck Club Court,27410,36.1270897,-79.8550861
4,Duck Club Road,27410,36.1273103,-79.8552146
6,Duck Club Court,27410,36.1273484,-79.8555298
2603,Duck Club Road,27410,36.1261782,-79.8561647
3700,Stratton Hills Drive,27410,36.1259258,-79.8560898
3701,Stratton Hills Drive,27410,36.1255239,-79.8558250
2517,Duck Club Road,27410,36.1252845,-79.8557321
2515,Duck Club Road,27410,36.1250799,-79.8557453
2513,Duck Club Road,27410,36.1248876,-79.8557230
2511,Duck Club Road,27410,36.1246995,-79.8557148
2509,Duck Club Road,27410,36.1244991,-79.8556937
2507,Duck Club Road,27410,36.1243137,-79.8557187
2505,Duck Club Road,27410,36.1241214,-79.8558030
2503,Duck Club Road,27410,36.1239104,-79.8559355
2000,Stratton Hills Court,27410,36.1241523,-79.8565307
2002,Stratton Hills Court,27410,36.1241947,-79.8562520
2004,Stratton Hills Court,27410,36.1244822,-79.8561184
2006,Stratton Hills Court,27410,36.1246979,-79.8561427
2008,Stratton Hills Court,27410,36.1248871,-79.8561941
2010,Stratton Hills Court,27410,36.1250752,-79.8561767
2005,Stratton Hills Court,27410,36.1250992,-79.8568099
2003,Stratton Hills Court,27410,36.1249168,-79.8567980
2001,Stratton Hills Court,27410,36.1246793,-79.8567712
2600,Southern Gates Drive,27410,36.1261048,-79.8577167
2602,Southern Gates Drive,27410,36.1261777,-79.8576096
2606,Southern Gates Drive,27410,36.1263906,-79.8573242
2608,Southern Gates Drive,27410,36.1265396,-79.8571894
2610,Southern Gates Drive,27410,36.1267104,-79.8571376
2612,Southern Gates Drive,27410,36.1268879,-79.8571823
2607,Southern Gates Drive,27410,36.1267596,-79.8575837
2605,Southern Gates Drive,27410,36.1265403,-79.8577390
2603,Southern Gates Drive,27410,36.1264436,-79.8578933
2601,Southern Gates Drive,27410,36.1263438,-79.8580482
2620,Southern Gates Drive,27410,36.1273395,-79.8578500
2630,Southern Gates Drive,27410,36.1268224,-79.8584709
2626,Southern Gates Drive,27410,36.1270282,-79.8582263
2624,Southern Gates Drive,27410,36.1271363,-79.8580883
2614,Southern Gates Drive,27410,36.1271586,-79.8574772
2616,Southern Gates Drive,27410,36.1274399,-79.8574422
2618,Southern Gates Drive,27410,36.1274325,-79.8577430
2622,Southern Gates Drive,27410,36.1272215,-79.8579869
2628,Southern Gates Drive,27410,36.1269386,-79.8583416
2632,Southern Gates Drive,27410,36.1267381,-79.8585659
3702,Stratton Hills Drive,27410,36.1258608,-79.8563020
3704,Stratton Hills Drive,27410,36.1258169,-79.8565504
3002,Taliaferro Road,27408,36.1181688,-79.8406764
1302,Pebble Drive,28410,36.1022310,-79.8542591
1300,Pebble Drive,28410,36.1020536,-79.8545376
5979,Summit Avenue,27214,36.1875916,-79.7084831
6105,Sundown Drive,27408,36.0843464,-79.8981493
6109,Sundown Drive,27408,36.0843228,-79.8988744
6111,Sundown Drive,27408,36.0843462,-79.8992451
6113,Sundown Drive,27408,36.0843117,-79.8995892
6115,Sundown Drive,27408,36.0843321,-79.8999609
6117,Sundown Drive,27408,36.0842996,-79.9002460
6119,Sundown Drive,27408,36.0843007,-79.9006199
6121,Sundown Drive,27408,36.0842861,-79.9009651
6123,Sundown Drive,27408,36.0842245,-79.9013159
5210,Hedrick Drive,27410,36.1573431,-79.8784655
5212,Hedrick Drive,27410,36.1578635,-79.8784069
5214,Hedrick Drive,27410,36.1586151,-79.8784555
3914,Brass Cannon Court,27410,36.1585242,-79.8767731
3916,Brass Cannon Court,27410,36.1585001,-79.8773025
3918,Brass Cannon Court,27410,36.1585470,-79.8779863
5610,Fleming Terrace Road,27410,36.1121356,-79.8891650
3316,Northampton Drive,27408,36.1015645,-79.8380282
6133,Sundown Drive,27408,36.0845107,-79.9026160
6131,Sundown Drive,27408,36.0842896,-79.9025745
6129,Sundown Drive,27408,36.0841421,-79.9023911
6127,Sundown Drive,27408,36.0841445,-79.9020455
6125,Sundown Drive,27408,36.0843009,-79.9017861
6109,Westwind Drive,27408,36.0830666,-79.8987781
1307,Pebble Drive,28410,36.1028986,-79.8544079
1401,Pebble Drive,28410,36.1031082,-79.8542079
1701,Pebble Drive,28410,36.1046321,-79.8513309
1605,Pebble Drive,28410,36.1045019,-79.8515965
1603,Pebble Drive,28410,36.1044039,-79.8518903
1601,Pebble Drive,28410,36.1043217,-79.8521598
1507,Pebble Drive,28410,36.1042064,-79.8524386
1505,Pebble Drive,28410,36.1041202,-79.8527407
1503,Pebble Drive,28410,36.1039901,-79.8530867
1501,Pebble Drive,28410,36.1037708,-79.8533044
1407,Pebble Drive,28410,36.1035742,-79.8535359
1405,Pebble Drive,28410,36.1034151,-79.8537658
1403,Pebble Drive,28410,36.1032368,-79.8539459
1600,Pebble Drive,28410,36.1038911,-79.8518186
1602,Pebble Drive,28410,36.1039838,-79.8515086
1604,Pebble Drive,28410,36.1041237,-79.8512312
1700,Pebble Drive,28410,36.1045063,-79.8508242
1702,Pebble Drive,28410,36.1047785,-79.8506244
3012,Stratford Drive,27408,36.1157314,-79.8405623
824,Larkwood Drive,27410,36.0946197,-79.8740258
822,Larkwood Drive,27410,36.0943655,-79.8740205
820,Larkwood Drive,27410,36.0941130,-79.8739905
818,Larkwood Drive,27410,36.0938516,-79.8738881
2004,Stanley Road,27407,36.0479628,-79.8908016
2,Stanwick Court,27214,36.1610261,-79.7306679
3506,Bromley Woods Lane,27410,36.1311235,-79.8682045
1504,Pebble Drive,28410,36.1036610,-79.8523158
1502,Pebble Drive,28410,36.1035270,-79.8525892
1500,Pebble Drive,28410,36.1033530,-79.8528164
1402,Pebble Drive,28410,36.1029282,-79.8534581
1404,Pebble Drive,28410,36.1030941,-79.8532006
1400,Pebble Drive,28410,36.1027146,-79.8536821
1816,Natchez Trace,27455,36.1258765,-79.8185560
1806,Natchez Trace,27455,36.1267665,-79.8177260
1808,Natchez Trace,27455,36.1265980,-79.8178775
1810,Natchez Trace,27455,36.1264140,-79.8180395
1812,Natchez Trace,27455,36.1262355,-79.8182175
1804,Natchez Trace,27455,36.1269380,-79.8175895
7000,Lowline Drive,27405,36.1893581,-79.6998913
6900,Lowline Drive,27405,36.1880763,-79.6990820
111,Cardeza Court,27405,36.1908011,-79.6853268
5800,Springer Drive,27405,36.1917668,-79.6912957
200,Aden Place,27405,36.1911596,-79.6916590
208,Aden Place,27405,36.1915161,-79.6909722
100,Aden Place,27405,36.1900333,-79.6924144
4543,Cattle Way,27405,36.1842271,-79.6985710
4500,Cattle Way,27405,36.1826216,-79.6963669
4800,Branding Iron Lane,27405,36.1830139,-79.6975619
4815,Branding Iron Lane,27405,36.1833555,-79.6964789
4900,Steer Lane,27405,36.1837958,-79.6979760
4923,Steer Lane,27405,36.1841024,-79.6962089
4544,Jersey Street,27405,36.1843352,-79.6955763
4500,Jersey Street,27405,36.1811926,-79.6964640
4,Bunkhouse Court,27405,36.1781819,-79.6914552
4011,Bobtail Court,27214,36.1834781,-79.6797851
5147,Nokota Place,27214,36.1847038,-79.6798565
4701,Black Forest Drive,27214,36.1852562,-79.6802005
3882,Ashley Hill Drive,27405,36.1276445,-79.7229711
4,Chadbrook Court,27405,36.1427446,-79.7193472
1959,Rubywood Street,27405,36.1428638,-79.7189853
6011,Landmark Center Boulevard,27407,36.0526908,-79.8952916
1814,Natchez Trace,27455,36.1260679,-79.8183787
1800,Natchez Trace,27455,36.1272919,-79.8172115
1802,Natchez Trace,27455,36.1271255,-79.8173919
4016,Blumenthal Road,27406,36.0024690,-79.7627326
4026,Blumenthal Road,27406,36.0016671,-79.7621850
5101,Black Forest Drive,27214,36.1837264,-79.6812009
127,Saddlehorse Lane,27214,36.1838652,-79.6814678
5104,Nokota Place,27214,36.1848380,-79.6836258
4800,Black Forest Drive,27214,36.1867833,-79.6827760
400,Gulliver Court,27214,36.1865802,-79.6844472
4808,Black Forest Drive,27214,36.1862906,-79.6836461
4945,Reedy Fork School Road,27405,36.1848206,-79.6965650
3,Stanwick Court,27214,36.1613962,-79.7305210
4,Stanwick Court,27214,36.1609755,-79.7304219
3000,Glenn Abbey Lane,27214,36.1590756,-79.7303734
5,Powell Court,27214,36.1597007,-79.7296258
3012,Glenn Abbey Lane,27214,36.1583901,-79.7297657
3601,Torrey Lane,27214,36.1601968,-79.7303564
3617,Torrey Lane,27214,36.1610083,-79.7292542
3900,Bissett Way,27405,36.1280496,-79.7295847
7,Sudberry Court,27405,36.1274585,-79.7310455
5,Sudberry Court,27405,36.1274030,-79.7311950
3,Sudberry Court,27405,36.1272410,-79.7313081
1,Sudberry Court,27405,36.1270737,-79.7313098
2,Sudberry Court,27405,36.1269300,-79.7311550
4,Sudberry Court,27405,36.1269080,-79.7309375
6,Sudberry Court,27405,36.1269449,-79.7307276
8,Sudberry Court,27405,36.1270630,-79.7306275
3802,Shepway Loop,27405,36.1273615,-79.7303455
3804,Shepway Loop,27405,36.1274575,-79.7304965
3806,Shepway Loop,27405,36.1275695,-79.7306216
3811,Shepway Loop,27405,36.1276795,-79.7311476
3813,Shepway Loop,27405,36.1278242,-79.7311784
3203,Blainmore Drive,27405,36.1285468,-79.7311820
3205,Blainmore Drive,27405,36.1284820,-79.7309565
3201,Blainmore Drive,27405,36.1286427,-79.7313298
3901,Bissett Way,27405,36.1281334,-79.7300527
3816,Shepway Loop,27405,36.1282675,-79.7305350
3814,Shepway Loop,27405,36.1281195,-79.7306185
3812,Shepway Loop,27405,36.1279925,-79.7306805
3810,Shepway Loop,27405,36.1278545,-79.7306595
3808,Shepway Loop,27405,36.1277055,-79.7307045
3815,Shepway Loop,27405,36.1279764,-79.7311823
3817,Shepway Loop,27405,36.1281220,-79.7311807
3900,Shepway Loop,27405,36.1283541,-79.7304571
3500,McKnight Mill Road,27405,36.1288953,-79.7308188
3901,Shepway Loop,27405,36.1287935,-79.7305040
3034,Desmond Woods Drive,27405,36.1302148,-79.7314717
3032,Desmond Woods Drive,27405,36.1302560,-79.7316436
4623,Chapel Ridge Drive,27405,36.1376556,-79.7642708
5400,Old Lake Jeanette Road,27455,36.1417385,-79.7903850
5400,Old Lake Jeanette Road,27455,36.1416525,-79.7907645
2401,South Side Boulevard,27406,36.0489589,-79.7701290
3703,Stratton Hills Drive,27410,36.1253971,-79.8560379
3705,Stratton Hills Drive,27410,36.1253551,-79.8562625
913,Wild Wolf Drive,27406,35.9912250,-79.8126487
915,Wild Wolf Drive,27406,35.9912315,-79.8128047
921,Wild Wolf Drive,27406,35.9912382,-79.8133215
1001,Wild Wolf Drive,27406,35.9912390,-79.8135063
1003,Wild Wolf Drive,27406,35.9912418,-79.8136665
110,South Davie Street,27401,36.0716689,-79.7894948
815,West Market Street,27401,36.0720680,-79.7995507
6275,Bryan Park Road,27214,36.1765575,-79.7392395
5700,Cardinal Way,27407,36.1338467,-79.9175491
4100,Keely Road,27301,36.1118268,-79.7078130
5815,West Friendly Avenue,27410,36.0894257,-79.8892852
701,Milner Drive,27410,36.0880443,-79.8873580
1000,A Ted Johnson Parkway,27409,36.1020627,-79.9400482
