House number,Street name,Postal code,Latitude,Longitude
2857,South Main Street,27263,35.9223705,-79.9782314
508,North Hamilton Street,27262,35.9635797,-80.0082565
4849,West Wendover Avenue,27282,36.0453302,-79.9257005
3855,John Gordon Lane,27265,36.0347827,-79.9633011
3885,John Gordon Lane,27265,36.0362025,-79.9623567
5805,Samet Drive,27265-3615,36.0321653,-79.9599825
3900,Brian Jordan Place,27265,36.0318629,-79.9619908
2400,Penny Road,27265,36.0353149,-79.9648814
1240,Guilford College Road,27282,36.0398398,-79.9202241
4701,Piedmont Parkway,27282,36.0447410,-79.9255864
2980,NC 68 South,27265,36.0597176,-79.9610151
4001,Meeting Way,27265,36.0480268,-79.9611657
2815,South Main Street,27263,35.9240967,-79.9810769
2757,South Main Street,27263-1938,35.9249967,-79.9824891
2738,South Main Street,27263,35.9247572,-79.9837862
2722,South Main Street,27263,35.9252559,-79.9845727
2718,South Main Street,27263,35.9255310,-79.9849656
2710,South Main Street,27263,35.9257861,-79.9853513
2701,South Main Street,27263,35.9265506,-79.9848659
265,Eastchester Drive,27262,35.9845800,-80.0183916
265,Eastchester Drive,27262,35.9845649,-80.0191295
265,Eastchester Drive,27262,35.9844137,-80.0199140
265,Eastchester Drive,27262,35.9842815,-80.0206846
201,Eastchester Drive,27262,35.9830722,-80.0207686
274,Eastchester Drive,27262,35.9823618,-80.0176444
274,Eastchester Drive,27262,35.9829020,-80.0172624
2630,North Main Street,27262,35.9927541,-80.0293091
2900,North Main Street,27262,35.9960125,-80.0320603
2705,North Main Street,27265,35.9924132,-80.0316667
2601,North Main Street,27265,35.9910351,-80.0290166
1050,Mall Loop Road,27262-7656,35.9939610,-80.0082301
3911,Tinsley Drive,27265,36.0292247,-79.9680121
3792,Samet Drive,27265,36.0246216,-79.9700017
1589,Skeet Club Road,27265,36.0328892,-79.9683682
1589,Skeet Club Road,27265,36.0313166,-79.9690513
2619,Eastchester Drive,27265,36.0323652,-79.9672613
4053,Eastchester Drive,27265,36.0334043,-79.9662688
3875,John Gordon Lane,27265,36.0358475,-79.9625973
3875,John Gordon Lane,27265,36.0357747,-79.9626631
3935,Brian Jordan Place,27261,36.0332900,-79.9625164
3935,Brian Jordan Place,27265,36.0332768,-79.9627064
2400,North Main Street,27262,35.9869701,-80.0252273
274,Eastchester Drive,27262,35.9829421,-80.0172996
1715,Westchester Drive,27262,35.9479471,-80.0330261
2100,North Main Street,27262,35.9831639,-80.0227326
2312,Westchester Drive,27262,35.9379363,-80.0351765
4008,Brian Jordan Place,27265,36.0326274,-79.9584125
5824,Samet Drive,27265,36.0343349,-79.9588711
4102,Precision Way,27265,36.0288510,-79.9648611
2130,North Main Street,27262,35.9835942,-80.0230373
2726,North Main Street,27265,35.9950116,-80.0311414
2645,North Main Street,27265,35.9919810,-80.0306102
2427,Penny Road,27265,36.0359064,-79.9696117
4000,OSSI Court,27265,36.0359919,-79.9685466
856,Lakecrest Avenue,27265,35.9982846,-80.0107407
2207,North Centennial Street,27265,35.9914766,-80.0005526
805,Westchester Drive,27262,35.9740129,-80.0335153
709,West Lexington Avenue,27262,35.9744505,-80.0332174
1677,Westchester Drive,27262,35.9494826,-80.0330349
2101,Westchester Drive,27262,35.9400265,-80.0336546
2312,Westchester Drive,27262,35.9382084,-80.0351352
4238,Piedmont Parkway,27410,36.0557272,-79.9460483
2005,North Main Street,27262,35.9813461,-80.0248145
1701,Westchester Drive,27262,35.9480078,-80.0319604
1701,Westchester Drive,27262,35.9475100,-80.0321554
2628,South Main Street,27263,35.9253610,-79.9889610
3000,West English Road,27262,35.9306750,-80.0439498
1917,North Centennial Street,27262,35.9871243,-80.0018719
3350,North Main Street,27265,36.0050979,-80.0383078
2806,West English Road,27262,35.9306145,-80.0412143
2816,Westchester Drive,27262,35.9317788,-80.0357201
1112,Eastchester Drive,27265,35.9916018,-79.9988408
422,Eastchester Drive,27262,35.9832288,-80.0115957
321,Eastchester Drive,27262,35.9845150,-80.0124814
3900,Brian Jordan Place,27265,36.0315826,-79.9633271
3850,John Gordon Lane,27265,36.0335543,-79.9633295
1001,Old Plank Road,27265,35.9950170,-80.0612325
2516,South Main Street,27263,35.9287071,-79.9884782
144,Westchester Drive,27262,35.9830725,-80.0266282
1050,Mall Loop Road,27262,35.9935307,-80.0081398
1208,Eastchester Drive,27265,35.9943026,-79.9955927
1901,North Main Street,27262,35.9796641,-80.0217002
2500,North Main Street,27265,35.9897385,-80.0268763
1124,Eastchester Drive,27265,35.9926741,-79.9977899
2000,North Main Street,27262,35.9813175,-80.0219121
2004,North Main Street,27262,35.9816849,-80.0217404
1711,North Main Street,27262,35.9771795,-80.0203445
1701,North Main Street,27262,35.9769676,-80.0199753
1304,North Main Street,27262,35.9723078,-80.0167236
762,North Main Street,27262,35.9640761,-80.0106368
1203,West Market Center Drive,27260,35.9308846,-80.0173237
2766,NC 68,27265,36.0425258,-79.9616163
2762,Highway 68,27265,36.0425279,-79.9611215
2105,Westchester Drive,27262,35.9395591,-80.0337660
2531,Eastchester Drive,27265,36.0302122,-79.9703090
1677,Westchester Drive,27262,35.9497449,-80.0317713
1116,Eastchester Drive,27265,35.9914324,-79.9971253
507,Eastchester Drive,27262,35.9842629,-80.0098326
1809,Eastchester Drive,27265,36.0056085,-79.9898967
2640,South Main Street,27263,35.9265957,-79.9867200
2310,South Main Street,27263,35.9312705,-79.9893895
1800,South Main Street,27260,35.9386428,-79.9965707
1229,South Main Street,27260,35.9435352,-80.0014081
600,North Main Street,27260,35.9615809,-80.0086543
620,North Main Street,27260,35.9621236,-80.0087734
805,North Main Street,27262,35.9647202,-80.0120007
1310,North Main Street,27262,35.9727048,-80.0168794
2313,North Main Street,27262,35.9854770,-80.0252204
2928,North Main Street,27265,35.9983198,-80.0338402
3010,North Main Street,27265,35.9992475,-80.0348050
3010,North Main Street,27265,35.9993306,-80.0345441
3350,North Main Street,27265,36.0053620,-80.0383887
3530,North Main Street,27265,36.0090067,-80.0404542
812,West Lexington Avenue,27262,35.9747587,-80.0357834
611,Burton Avenue,27262,35.9373494,-80.0358823
1027,Eastchester Drive,27262,35.9910831,-80.0008476
1015,Eastchester Drive,27262,35.9905387,-80.0014941
709,West Lexington Avenue,27262,35.9744525,-80.0332658
1,University Parkway,27268,35.9719138,-79.9945891
833,Montlieu Avenue,27262,35.9721158,-79.9945326
2101,North Main Street,27262,35.9832054,-80.0240534
1127,Eastchester Drive,27265,35.9933482,-79.9980876
3815,Tinsley Drive,27265,36.0281832,-79.9695237
2531,Eastchester Drive,27265,36.0304917,-79.9697652
2209,North Main Street,27262,35.9844244,-80.0245484
2531,Eastchester Drive,27265,36.0305892,-79.9696901
635,North Main Street,27262,35.9618554,-80.0095991
2600,South Main Street,27263,35.9282035,-79.9884648
2619,South Main Street,27263,35.9261248,-79.9841324
1706,North Main Street,27262,35.9776577,-80.0196332
1009,North Main Street,27262,35.9682635,-80.0149707
1506,West English Road,27262,35.9492203,-80.0186271
2711,West English Road,27262,35.9296297,-80.0397608
2900,North Main Street,27265,35.9963704,-80.0323427
2907,North Main Street,27265,35.9959472,-80.0332117
1308,North Main Street,27262,35.9725394,-80.0167879
4120,Brian Jordan Place,27265,36.0332611,-79.9554508
1004,North Main Street,27262,35.9681424,-80.0140503
141,West Lexington Avenue,27262,35.9727177,-80.0196050
145,West Lexington Avenue,27262,35.9727177,-80.0197927
1578,Skeet Club Road,27265,36.0321236,-79.9716358
2107,Kirkwood Street,27262,35.9834804,-80.0217070
1912,Eastchester Drive,27265,36.0117373,-79.9819731
3805,Tinsley Drive,27265,36.0273430,-79.9701706
3421,North Main Street,27265,36.0061353,-80.0401736
2929,North Main Street,27265,35.9971066,-80.0342942
2937,North Main Street,27265,35.9975590,-80.0347281
1925,Eastchester Drive,27265,36.0138821,-79.9824967
2008,North Centennial Street,27262,35.9892029,-79.9999871
200,North Centennial Street,27262,35.9615489,-80.0020176
1946,Sandy Ridge Road,27235,36.0558032,-80.0163161
136,West Lexington Avenue,27262,35.9733235,-80.0192278
2612,East Martin Luther King Jr Drive,27260,35.9645620,-79.9593397
1800,North Main Street,27262,35.9790720,-80.0205790
1700,Westchester Drive,27262,35.9480167,-80.0340925
2705,North Main Street,27265,35.9928221,-80.0320698
4145,Johnson Street,27265,36.0348439,-80.0203443
3000,North Main Street,27265,35.9986941,-80.0343731
518,Old Thomasville Road,27260,35.9269503,-80.0351618
2762,NC Highway 68 S,27265,36.0422771,-79.9611268
801,West Fairfield Road,27263,35.9205407,-80.0006037
801,West Fairfield Road,27263,35.9204410,-80.0006350
1800,North Main Street,27262,35.9792259,-80.0201863
1800,North Main Street,27262,35.9791795,-80.0203126
1800,North Main Street,27262,35.9792673,-80.0200736
1800,North Main Street,27262,35.9792988,-80.0199860
1813,North Main Street,27262,35.9784602,-80.0208195
2010,North Main Street,27262,35.9820042,-80.0222352
653,Sonoma Lane,27265,36.0165680,-80.0169338
1800,North Main Street,27262,35.9790662,-80.0195575
1800,North Main Street,27262,35.9793418,-80.0198691
1800,North Main Street,27262,35.9792068,-80.0196361
1800,North Main Street,27262,35.9789479,-80.0194734
1807,North Main Street,27262,35.9783395,-80.0207676
2401,Penny Road,27265,36.0348164,-79.9653893
2401,Penny Road,27265,36.0347535,-79.9653732
2401,Penny Road,27265,36.0346407,-79.9653276
2401,Penny Road,27265,36.0345626,-79.9653008
3925,Kivett Drive,27282,35.9609618,-79.9267491
2411,West English Road,27262,35.9333461,-80.0321070
2106,West English Road,27262,35.9399088,-80.0273074
1823,West English Road,27262,35.9427280,-80.0239230
102,Chestnut Drive,27262,35.9540198,-80.0127361
3805,Tinsley Drive,27265,36.0270750,-79.9703809
1820,Westchester Drive,27262,35.9427169,-80.0346902
620,East Lexington Avenue,27265,35.9758922,-80.0082711
220,East Commerce Avenue,27260,35.9555560,-80.0032534
1325,North Main Street,27262,35.9722898,-80.0172618
141,West Lexington Avenue,27262,35.9727311,-80.0196555
401,Westwood Avenue,27262,35.9602947,-80.0134060
405,Westwood Avenue,27262,35.9601703,-80.0135654
274,Eastchester Drive,27262,35.9823546,-80.0181443
5815,Samet Drive,27265,36.0331109,-79.9607862
5709,Washburn Lane,27235,36.0798043,-80.0157309
5703,Washburn Lane,27235,36.0795576,-80.0157352
5704,Washburn Lane,27235,36.0795479,-80.0153051
5710,Washburn Lane,27235,36.0798127,-80.0153070
1605,Sunny Hill Way,27235,36.0801351,-80.0160498
1621,Sunny Hill Way,27235,36.0801417,-80.0152430
1606,Cedar Hill Way,27235,36.0791962,-80.0160701
1622,Cedar Hill Way,27235,36.0792115,-80.0152431
1597,Oakbluffs Drive,27235,36.0773852,-80.0177367
5645,Marblehead Drive,27235,36.0769064,-80.0166694
5525,Marblehead Drive,27235,36.0765915,-80.0182558
5643,Edgartown Street,27235,36.0767871,-80.0178087
5603,Edgartown Street,27235,36.0751170,-80.0176119
5606,Edgartown Street,27235,36.0751841,-80.0171737
5639,Edgartown Street,27235,36.0765969,-80.0176629
5650,Edgartown Street,27235,36.0768601,-80.0172999
5654,Edgartown Street,27235,36.0770397,-80.0173677
5501,Brant Rock Lane,27235,36.0747287,-80.0196636
5502,Brant Rock Lane,27235,36.0747629,-80.0191889
1425,Oakbluffs,27235,36.0743923,-80.0189112
1453,Oakbluffs,27235,36.0743855,-80.0203126
5542,Brant Rock Lane,27235,36.0763538,-80.0192421
1478,Oakbluffs,27235,36.0754583,-80.0205032
1481,Oakbluffs,27235,36.0755005,-80.0209914
1551,Danvers Place,27235,36.0762225,-80.0200027
1545,Danvers Place,27235,36.0762214,-80.0202818
1545,Hatfield Terrace,27235,36.0755119,-80.0202539
1558,Hatfield Terrace,27235,36.0751482,-80.0196296
1544,Hatfield Terrace,27235,36.0751320,-80.0203669
133,Cornmeal Cove,27265,36.0190739,-80.0358505
149,Cornmeal Cove,27265,36.0191653,-80.0346322
172,Windmill Trail,27265,36.0207345,-80.0350301
109,Windmill Trail,27265,36.0195772,-80.0372545
3715,Wheat Street,27265,36.0192681,-80.0362890
5518,Noble View Drive,27235,36.0708697,-80.0131626
2155,Dragonfly Lane,27265,36.0610500,-80.0083252
2165,Dragonfly Lane,27265,36.0609862,-80.0079637
2193,Dragonfly Lane,27265,36.0611963,-80.0070276
2196,Dragonfly Lane,27265,36.0609350,-80.0067313
3728,Echo Forest Trail,27265,36.0554059,-79.9782558
1030,Mall Loop Road,27262,35.9936260,-80.0066291
921,Eastchester Drive,27262,35.9911394,-80.0056989
4005,Precision Way,27265,36.0298802,-79.9652674
4105,Brian Jordan Place,27265,36.0336628,-79.9570722
3951,Amber Meadows Court,27265,36.0158964,-79.9618962
3953,Amber Meadows Court,27265,36.0158723,-79.9618167
3957,Amber Meadows Court,27265,36.0158118,-79.9615826
3959,Amber Meadows Court,27265,36.0157534,-79.9615453
3963,Amber Meadows Court,27265,36.0155340,-79.9615368
3965,Amber Meadows Court,27265,36.0154752,-79.9615217
3969,Amber Meadows Court,27265,36.0152872,-79.9615210
3971,Amber Meadows Court,27265,36.0152459,-79.9615755
3964,Amber Meadows Court,27265,36.0151918,-79.9618294
3962,Amber Meadows Court,27265,36.0152234,-79.9618897
3401,Amber Meadows Road,27265,36.0142842,-79.9633635
3403,Amber Meadows Road,27265,36.0143313,-79.9633282
3407,Amber Meadows Road,27265,36.0145038,-79.9632154
3409,Amber Meadows Road,27265,36.0145563,-79.9631799
3413,Amber Meadows Road,27265,36.0147267,-79.9630795
3415,Amber Meadows Road,27265,36.0147803,-79.9630466
3419,Amber Meadows Road,27265,36.0149484,-79.9629371
3421,Amber Meadows Road,27265,36.0149999,-79.9629043
3431,Amber Meadows Road,27265,36.0155408,-79.9625767
3433,Amber Meadows Road,27265,36.0155975,-79.9625424
3437,Amber Meadows Road,27265,36.0157615,-79.9624382
3439,Amber Meadows Road,27265,36.0158204,-79.9624052
3443,Amber Meadows Road,27265,36.0160045,-79.9622966
3445,Amber Meadows Road,27265,36.0160688,-79.9622713
3910,Gisbourne Drive,27282,36.0323191,-79.9549428
506,Townsend Avenue,27263,35.9375659,-79.9760046
2006,East Green Drive,27260,35.9528954,-79.9825311
5207,West Wendover Avenue,27265,36.0301359,-79.9439024
5830,Samet Drive,27265,36.0349068,-79.9589364
711,Ridgeworth Avenue,27265,36.0318119,-80.0369515
713,Ridgeworth Avenue,27265,36.0318114,-80.0366944
709,Ridgeworth Avenue,27265,36.0318015,-80.0372067
707,Ridgeworth Avenue,27265,36.0318156,-80.0374720
705,Ridgeworth Avenue,27265,36.0318124,-80.0377513
703,Ridgeworth Avenue,27265,36.0317995,-80.0380379
701,Ridgeworth Avenue,27265,36.0318008,-80.0382957
702,Ridgeworth Avenue,27265,36.0313676,-80.0382666
704,Ridgeworth Avenue,27265,36.0313652,-80.0379707
706,Ridgeworth Avenue,27265,36.0313618,-80.0376964
708,Ridgeworth Avenue,27265,36.0313503,-80.0373244
710,Ridgeworth Avenue,27265,36.0313682,-80.0369810
712,Ridgeworth Avenue,27265,36.0313621,-80.0367166
714,Ridgeworth Avenue,27265,36.0313480,-80.0363173
1800,Westchester Drive,27262,35.9442812,-80.0345140
1744,Westchester Drive,27262,35.9450109,-80.0345023
205,Eastchester Drive,27262,35.9832962,-80.0197900
901,North Main Street,27262,35.9657520,-80.0135245
2300,North Main Street,27262,35.9855803,-80.0225147
2710,North Main Street,27265,35.9943979,-80.0283001
2900,North Main Street,27265,35.9961567,-80.0321701
921,Eastchester Drive,27262,35.9907394,-80.0063431
906,Mall Loop Road,27262,35.9875041,-80.0051648
914,Mall Loop Road,27262,35.9879080,-80.0043730
930,Mall Loop Road,27262,35.9893590,-80.0027110
1000,Mall Loop Road,27262,35.9926683,-80.0048267
1030,Mall Loop Road,27262,35.9937606,-80.0066580
4006,Brian Jordan Place,27265,36.0325692,-79.9589390
1810,South Main Street,27260,35.9377738,-79.9962866
916,Finch Avenue,27263,35.9285516,-80.0034143
4145,Johnson Street,27265,36.0348297,-80.0203035
3929,Johnson Street,27265,36.0242695,-80.0214007
1915,North Centennial Street,27262,35.9861827,-80.0015657
1917,North Centennial Street,27262,35.9878160,-80.0022355
2630,Willard Dairy Road,27265,36.0438634,-79.9650319
808,Farris Avenue West,27262,35.9699571,-80.0251434
4090,Premier Drive,27265,36.0383637,-79.9589087
4005,Precision Way,27265,36.0297799,-79.9652383
110,East Parris Avenue,27262,35.9844045,-80.0233697
601,North Elm Street,27262,35.9618701,-80.0135787
800,Country Club Drive,27262,35.9656630,-80.0289667
2920,School Park Road,27265,36.0024455,-80.0294074
503,Shadybrook Road,27265,36.0037987,-80.0257734
2860,North Main Street,27265,35.9964238,-80.0315346
100,West High Avenue,27260,35.9572442,-80.0061142
802,Westchester Drive,27262,35.9742145,-80.0345677
1814,Westchester Drive,27262,35.9440459,-80.0366830
4125,Johnson Street,27265,36.0320705,-80.0209731
1526,Skeet Club Road,27265,36.0369854,-79.9806114
1491,Sawyer Avenue,27265,36.0463630,-80.0055136
2001,Westchester Drive,27262,35.9408555,-80.0332701
1696,Westchester Drive,27262,35.9489158,-80.0343370
4368,Southwest School Road,27265,36.0446916,-79.9841880
4372,Southwest School Road,27265,36.0448719,-79.9817037
1730,West English Road,27262,35.9461261,-80.0263858
1491,Sawyer Avenue,27265,36.0459604,-80.0052296
1405,Penny Road,27265,36.0097019,-79.9596753
1600,North Centennial Street,27262,35.9800086,-80.0006896
3820,Johnson Street,27265,36.0182808,-80.0127049
3828,Johnson Street,27265,36.0175940,-80.0144262
4321,Barrow Road,27265,36.0413132,-79.9964138
315,East Green Drive,27260,35.9548901,-80.0004478
918,North Main Street,27262,35.9673787,-80.0128204
1345,North Main Street,27262,35.9727866,-80.0176396
1540,North Main Street,27262,35.9750177,-80.0180175
1108,North Main Street,27262,35.9698556,-80.0151609
2001,North Main Street,27262,35.9812871,-80.0224764
400,South Main Street,27260,35.9518915,-80.0051001
211,South Hamilton Street,27260,35.9550904,-80.0020990
716,West Martin Luther King Jr Drive,27262,35.9531715,-80.0137461
405,North Lindsay Street,27262,35.9593958,-80.0143025
303,Rotary Drive,27262,35.9505472,-80.0240120
822,Ferndale Boulevard,27262,35.9584821,-80.0227239
1120,Eastchester Drive,27265,35.9922779,-79.9982904
2409,Ambassador Court,27265,35.9984116,-79.9933304
425,South Main Street,27260,35.9514305,-80.0038890
724,East Washington Drive,27260,35.9608704,-79.9990365
753,East Washington Drive,27260,35.9612506,-79.9980932
201,West Broad Avenue,27260,35.9574855,-80.0068088
6320,Long Leaf Court,27265,36.0010312,-80.0612074
6310,Long Leaf Court,27265,36.0011042,-80.0603768
1004,Old Plank Road,27265,35.9941184,-80.0596880
1001,Old Plank Road,27265,35.9950124,-80.0611924
2701,North Main Street,27265,35.9928096,-80.0307442
2703,North Main Street,27265,35.9930347,-80.0307528
6530,Old Plank Road,27265-1919,36.0053085,-80.0373596
1920,North Centennial Street,27262,35.9866329,-79.9992841
3306,North Main Street,27265,36.0038380,-80.0366093
3350,North Main Street,27265,36.0050496,-80.0382719
3901,Sedgebrook Street,27265,36.0606760,-79.9633149
4400,Regency Drive,27265,36.0614739,-79.9604983
3201,North Main Street,27265,36.0022635,-80.0377534
230,South Road,27262,35.9189022,-80.0443710
231,South Road,27262,35.9196209,-80.0461580
2700,North Main Street,27265,35.9933882,-80.0296277
2414,Ambassador Court,27265,35.9977603,-79.9930991
1800,Deep River Road,27265,35.9994952,-79.9737171
4819,Legacy Drive,27235,36.0596621,-80.0173173
2651,South Main Street,27263,35.9272675,-79.9848853
4076,Saint Johns Street,27265,36.0337249,-80.0332010
4078,Saint Johns Street,27265,36.0335398,-80.0331324
4080,Saint Johns Street,27265,36.0333710,-80.0330495
4082,Saint Johns Street,27265,36.0332200,-80.0329238
4084,Saint Johns Street,27265,36.0330770,-80.0328165
1408,R C Baldwin Avenue,27260,35.9578760,-79.9872145
1004,Old Thomasville Road,27260,35.9192240,-80.0380065
1018,Panther Drive,27262,35.9768507,-79.9963200
2000,Brentwood St Business 85 Loop,27263,35.9392775,-79.9801726
2712,Uwharrie Road,27263,35.9193420,-80.0090180
309,West Fairfield Road,27263,35.9228600,-79.9874775
3495,Hickswood Forest Drive,27265,36.0187214,-79.9655278
3493,Hickswood Forest Drive,27265,36.0186114,-79.9656771
3497,Hickswood Forest Drive,27265,36.0188690,-79.9653772
3919,Hickswood Forest Court,27265,36.0187741,-79.9647825
3921,Hickswood Forest Court,27265,36.0186074,-79.9646744
3923,Hickswood Forest Court,27265,36.0185109,-79.9645249
3925,Hickswood Forest Court,27265,36.0184124,-79.9643494
3927,Hickswood Forest Court,27265,36.0183090,-79.9641928
3929,Hickswood Forest Court,27265,36.0181993,-79.9640184
3931,Hickswood Forest Court,27265,36.0181375,-79.9638426
3933,Hickswood Forest Court,27265,36.0180321,-79.9636561
3935,Hickswood Forest Court,27265,36.0179693,-79.9634579
3939,Hickswood Forest Court,27265,36.0179256,-79.9632518
3941,Hickswood Forest Court,27265,36.0179561,-79.9630469
3947,Hickswood Forest Court,27265,36.0178411,-79.9624749
3949,Hickswood Forest Court,27265,36.0176291,-79.9625072
3948,Hickswood Forest Court,27265,36.0174793,-79.9627062
3944,Hickswood Forest Court,27265,36.0174961,-79.9632907
3940,Hickswood Forest Court,27265,36.0175644,-79.9635381
3938,Hickswood Forest Court,27265,36.0176361,-79.9637783
3936,Hickswood Forest Court,27265,36.0177098,-79.9639787
3932,Hickswood Forest Court,27265,36.0177918,-79.9641819
3930,Hickswood Forest Court,27265,36.0178881,-79.9643653
3928,Hickswood Forest Court,27265,36.0179884,-79.9645368
3924,Hickswood Forest Court,27265,36.0180789,-79.9646989
204,West Parris Avenue,27262,35.9852600,-80.0300781
2418,North Main Street,27260,35.9882274,-80.0256247
3845,Parkway Vista Drive,27409,36.0468175,-79.9369555
3849,Parkway Vista Drive,27409,36.0469184,-79.9368324
3853,Parkway Vista Drive,27409,36.0470181,-79.9367132
3861,Parkway Vista Drive,27409,36.0471815,-79.9363973
3865,Parkway Vista Drive,27409,36.0472093,-79.9361895
3869,Parkway Vista Drive,27409,36.0471469,-79.9359980
3857,Parkway Vista Drive,27409,36.0471271,-79.9365712
3850,Parkway Vista Drive,27409,36.0466845,-79.9364872
3856,Parkway Vista Drive,27409,36.0468418,-79.9363593
3864,Parkway Vista Drive,27409,36.0467154,-79.9362304
3866,Parkway Vista Drive,27409,36.0466543,-79.9360138
3870,Parkway Vista Drive,27409,36.0467581,-79.9358333
3872,Parkway Vista Drive,27409,36.0469153,-79.9357629
3871,Parkway Vista Drive,27409,36.0470566,-79.9358014
3837,Parkway Vista Drive,27409,36.0466336,-79.9372368
3833,Parkway Vista Drive,27409,36.0465253,-79.9373874
3829,Parkway Vista Drive,27409,36.0464354,-79.9375424
3825,Parkway Vista Drive,27409,36.0463077,-79.9377151
3821,Parkway Vista Drive,27409,36.0461701,-79.9378535
3817,Parkway Vista Drive,27409,36.0460012,-79.9379828
3813,Parkway Village Ent,27409,36.0458521,-79.9380439
3809,Parkway Vista Drive,27409,36.0455546,-79.9380735
3805,Parkway Vista Drive,27409,36.0453994,-79.9380891
3803,Parkway Vista Drive,27409,36.0452506,-79.9381001
3801,Parkway Vista Drive,27409,36.0450686,-79.9381433
3800,Parkway Vista Drive,27409,36.0448913,-79.9380510
3802,Parkway Vista Drive,27409,36.0448516,-79.9378373
3808,Parkway Vista Drive,27409,36.0453669,-79.9376570
3812,Parkway Vista Drive,27409,36.0455295,-79.9376415
3816,Parkway Vista Drive,27409,36.0456780,-79.9376352
3820,Parkway Vista Drive,27409,36.0458258,-79.9375951
3824,Parkway Vista Drive,27409,36.0459611,-79.9375352
608,South Hamilton Street,27260,35.9471570,-80.0023399
4612,Village Square Court,28409,36.0456858,-79.9372977
4614,Village Square Court,28409,36.0455142,-79.9372703
4616,Village Square Court,28409,36.0453750,-79.9371258
4618,Village Square Court,28409,36.0453680,-79.9369238
4622,Village Square Court,28409,36.0453836,-79.9366757
4626,Village Square Court,28409,36.0453792,-79.9364768
4630,Village Square Court,28409,36.0452970,-79.9362627
4632,Village Square Court,28409,36.0453379,-79.9360513
4634,Village Square Court,28409,36.0455009,-79.9359189
4635,Village Square Court,28409,36.0456862,-79.9359234
4631,Village Square Court,28409,36.0457843,-79.9361051
4627,Village Square Court,28409,36.0458041,-79.9363095
4623,Village Square Court,28409,36.0457253,-79.9365126
4619,Village Square Court,28409,36.0457700,-79.9366996
4615,Village Square Court,28409,36.0458527,-79.9368679
4611,Village Square Court,28409,36.0459795,-79.9370301
4607,Village Square Court,28409,36.0461120,-79.9371611
4603,Village Square Court,28409,36.0462222,-79.9372694
4617,Allisons Way,28409,36.0461738,-79.9361634
4613,Allisons Way,28409,36.0463549,-79.9361464
4609,Allisons Way,28409,36.0464988,-79.9363133
4605,Allisons Way,28409,36.0465084,-79.9365519
4601,Allisons Way,28409,36.0465966,-79.9367203
4614,Allisons Way,28409,36.0460354,-79.9363227
4612,Allisons Way,28409,36.0460452,-79.9365653
4608,Allisons Way,28409,36.0461233,-79.9367596
4604,Allisons Way,28409,36.0462399,-79.9368909
4600,Allisons Way,28409,36.0463592,-79.9369991
3807,Riverside Court,28409,36.0462315,-79.9390901
3803,Riverside Court,28409,36.0461057,-79.9393165
3810,Riverside Court,28409,36.0462627,-79.9389178
3808,Riverside Court,28409,36.0461676,-79.9387331
3804,Riverside Court,28409,36.0460114,-79.9386852
3802,Riverside Court,28409,36.0458813,-79.9386904
3800,Riverside Court,28409,36.0457762,-79.9387043
4473,Veranda Lake Court,27409,36.0480088,-79.9384412
4471,Veranda Lake Court,27409,36.0479507,-79.9384728
4469,Veranda Lake Court,27409,36.0479101,-79.9385167
4467,Veranda Lake Court,27409,36.0478547,-79.9385432
4465,Veranda Lake Court,27409,36.0478017,-79.9385881
4509,Veranda Lake Court,27409,36.0471948,-79.9372679
4507,Veranda Lake Court,27409,36.0472534,-79.9373305
4505,Veranda Lake Court,27409,36.0473076,-79.9373801
4503,Veranda Lake Court,27409,36.0473596,-79.9374417
4501,Veranda Lake Court,27409,36.0474303,-79.9374944
4497,Veranda Lake Court,27409,36.0475376,-79.9376294
4495,Veranda Lake Court,27409,36.0476139,-79.9376737
4493,Veranda Lake Court,27409,36.0476801,-79.9376932
4491,Veranda Lake Court,27409,36.0477458,-79.9377276
4489,Veranda Lake Court,27409,36.0478169,-79.9377619
4483,Veranda Lake Court,28409,36.0479879,-79.9378648
4481,Veranda Lake Court,28409,36.0480254,-79.9379655
4479,Veranda Lake Court,28409,36.0480197,-79.9380493
4477,Veranda Lake Court,28409,36.0480331,-79.9381301
4475,Veranda Lake Court,28409,36.0480418,-79.9382285
3820,Wesseck Drive,27265,36.0213550,-80.0045766
6534,Old Plank Road,27265,36.0054795,-80.0367528
3721,Morris Farm Drive,27409,36.0447554,-79.9398141
3701,Morris Farm Drive,27409,36.0441502,-79.9390703
3705,Morris Farm Drive,27409,36.0441696,-79.9395768
3709,Morris Farm Drive,27409,36.0442951,-79.9400706
3713,Morris Farm Drive,27409,36.0446405,-79.9403649
3717,Morris Farm Drive,27409,36.0450615,-79.9402262
3725,Morris Farm Drive,27409,36.0452126,-79.9396097
3729,Morris Farm Drive,27409,36.0451535,-79.9390236
3733,Morris Farm Drive,27409,36.0446603,-79.9390717
4438,River Forest Lane,27409,36.0455968,-79.9395985
4440,River Forest Lane,27409,36.0455750,-79.9394630
4442,River Forest Lane,27409,36.0455609,-79.9393212
4444,River Forest Lane,27409,36.0455428,-79.9391823
4446,River Forest Lane,27409,36.0455265,-79.9390410
4448,River Forest Lane,27409,36.0454905,-79.9389030
4450,River Forest Lane,27409,36.0454894,-79.9387591
4452,River Forest Lane,27409,36.0454856,-79.9386220
4426,River Forest Lane,27409,36.0457434,-79.9404866
4428,River Forest Lane,27409,36.0457097,-79.9403425
4430,River Forest Lane,27409,36.0456731,-79.9401972
4432,River Forest Lane,27409,36.0456620,-79.9400548
4434,River Forest Lane,27409,36.0456322,-79.9399103
4436,River Forest Lane,27409,36.0456001,-79.9397724
3840,Eagle Glen Road,27265,36.0194144,-79.9643430
3842,Eagle Glen Road,27265,36.0193247,-79.9641136
3844,Eagle Glen Road,27265,36.0192385,-79.9639048
3846,Eagle Glen Road,27265,36.0191533,-79.9637101
3850,Eagle Glen Road,27265,36.0190263,-79.9632954
3852,Eagle Glen Road,27265,36.0189930,-79.9630612
3856,Eagle Glen Road,27265,36.0189774,-79.9627629
3858,Eagle Glen Road,27265,36.0190190,-79.9625370
3860,Eagle Glen Road,27265,36.0189831,-79.9623182
3848,Eagle Glen Road,27265,36.0190635,-79.9635222
3977,Sorrell Court,27265,36.0171243,-79.9589506
3975,Sorrell Court,27265,36.0170967,-79.9592226
3971,Sorrell Court,27265,36.0170006,-79.9597311
3969,Sorrell Court,27265,36.0169683,-79.9599917
3967,Sorrell Court,27265,36.0170005,-79.9602202
3963,Sorrell Court,27265,36.0170076,-79.9607496
3961,Sorrell Court,27265,36.0169954,-79.9609856
2937,Firethorn Drive,27265,36.0165622,-79.9608164
3973,Sorrell Court,27265,36.0170046,-79.9594751
2935,Firethorn Drive,27265,36.0163546,-79.9608075
2933,Firethorn Drive,27265,36.0161389,-79.9608249
2934,Firethorn Drive,27265,36.0162537,-79.9602800
3970,Sorrell Court,27265,36.0165374,-79.9602750
3965,Sorrell Court,27265,36.0169894,-79.9604896
3972,Sorrell Court,27265,36.0165490,-79.9599577
3974,Sorrell Court,27265,36.0165483,-79.9597044
3978,Sorrell Court,27265,36.0165306,-79.9591834
3980,Sorrell Court,27265,36.0165570,-79.9588882
3981,Sorrell Court,27265,36.0167426,-79.9586237
3976,Sorrell Court,27265,36.0165586,-79.9594453
3979,Sorrell Court,27265,36.0169924,-79.9586950
2932,Firethorn Drive,27265,36.0159946,-79.9602698
3971,Flannery Lane,27265,36.0159326,-79.9599568
3973,Flannery Lane,27265,36.0159564,-79.9596869
3975,Flannery Lane,27265,36.0159522,-79.9594304
3977,Flannery Lane,27265,36.0159875,-79.9591799
3979,Flannery Lane,27265,36.0159922,-79.9588993
3981,Flannery Lane,27265,36.0159872,-79.9586755
3980,Flannery Lane,27265,36.0155534,-79.9586394
3978,Flannery Lane,27265,36.0155495,-79.9588721
2921,McLaurin Court,27265,36.0155308,-79.9593956
2931,Firethorn Drive,27265,36.0159213,-79.9608377
2921,Firethorn Drive,27265,36.0157022,-79.9608731
2919,Firethorn Drive,27265,36.0154723,-79.9609192
2916,McLaurin Court,27265,36.0151893,-79.9588150
2914,McLaurin Court,27265,36.0149829,-79.9587997
2912,McLaurin Court,27265,36.0147788,-79.9587581
2917,McLaurin Court,27265,36.0151051,-79.9593416
2919,McLaurin Court,27265,36.0153279,-79.9593622
2915,McLaurin Court,27265,36.0148983,-79.9593259
3974,Flannery Lane,27265,36.0155057,-79.9598369
3972,Flannery Lane,27265,36.0155155,-79.9601104
3970,Flannery Lane,27265,36.0155524,-79.9604092
2916,Firethorn Drive,27265,36.0152102,-79.9604806
2914,Firethorn Drive,27265,36.0149850,-79.9604900
2912,Firethorn Drive,27265,36.0147567,-79.9605013
3972,Crocker Place,27265,36.0146980,-79.9599551
3975,Crocker Place,27265,36.0148995,-79.9598149
2908,Firethorn Drive,27265,36.0143020,-79.9605103
2910,Firethorn Drive,27265,36.0145268,-79.9604858
2915,Firethorn Drive,27265,36.0149975,-79.9609964
2917,Firethorn Drive,27265,36.0152312,-79.9609973
2910,McLaurin Court,27265,36.0145781,-79.9587274
2911,McLaurin Court,27265,36.0144413,-79.9592828
3974,Crocker Place,27265,36.0144213,-79.9598453
2907,McLaurin Court,27265,36.0140713,-79.9596585
2909,McLaurin Court,27265,36.0141949,-79.9593473
2905,McLaurin Court,27265,36.0138678,-79.9598759
2906,McLaurin Court,27265,36.0141439,-79.9588169
2908,McLaurin Court,27265,36.0143550,-79.9587588
2904,McLaurin Court,27265,36.0138564,-79.9587073
2903,McLaurin Court,27265,36.0136200,-79.9598201
2900,Firethorn Drive,27265,36.0134511,-79.9605558
2902,Firethorn Drive,27265,36.0136515,-79.9604929
2904,Firethorn Drive,27265,36.0138676,-79.9604679
2906,Firethorn Drive,27265,36.0140814,-79.9604620
2907,Firethorn Drive,27265,36.0140638,-79.9609954
2905,Firethorn Drive,27265,36.0138455,-79.9609918
2903,Firethorn Drive,27265,36.0136341,-79.9610335
2901,Firethorn Drive,27265,36.0134354,-79.9610675
2909,Firethorn Drive,27265,36.0142860,-79.9610149
2911,Firethorn Drive,27265,36.0145094,-79.9609903
2913,Firethorn Drive,27265,36.0147509,-79.9610369
3920,Hickswood Forest Court,27265,36.0183030,-79.9650245
3922,Hickswood Forest Court,27265,36.0181875,-79.9648910
3918,Hickswood Forest Court,27265,36.0184150,-79.9651650
3701,Queenswood Lane,27282,36.0280946,-79.9607108
3700,Queenswood Lane,27282,36.0278805,-79.9606049
3705,Queenswood Lane,27282,36.0283905,-79.9603532
3707,Cameron Terrace,27265,36.0273672,-79.9734802
3709,Cameron Terrace,27265,36.0275231,-79.9734385
3711,Cameron Terrace,27265,36.0276022,-79.9732526
3713,Cameron Terrace,27265,36.0275269,-79.9730001
3717,Cameron Terrace,27265,36.0272187,-79.9731291
3719,Harrington Point,27265,36.0272541,-79.9728071
3721,Harrington Point,27265,36.0274615,-79.9727423
3723,Harrington Point,27265,36.0274805,-79.9725038
3725,Harrington Point,27265,36.0273853,-79.9722823
3727,Harrington Point,27265,36.0272454,-79.9723051
3729,Sutton Way,27265,36.0272074,-79.9721052
3731,Pembroke Terrace,27265,36.0273464,-79.9719930
3733,Pembroke Terrace,27265,36.0273671,-79.9717936
3735,Pembroke Terrace,27265,36.0272616,-79.9715963
3737,Pembroke Terrace,27265,36.0270761,-79.9716190
3732,Pembroke Terrace,27265,36.0267172,-79.9718302
3730,Pembroke Terrace,27265,36.0265997,-79.9719726
3728,Pembroke Terrace,27265,36.0265952,-79.9721802
3724,Pembroke Terrace,27265,36.0269149,-79.9722432
3722,Cranbrook Point,27265,36.0269000,-79.9724639
3720,Cranbrook Point,27265,36.0267480,-79.9724930
3718,Cranbrook Point,27265,36.0266565,-79.9727369
3716,Cranbrook Point,27265,36.0267346,-79.9729608
3714,Cranbrook Point,27265,36.0269074,-79.9729760
3712,Sutton Way,27265,36.0268546,-79.9732044
3710,Sutton Way,27265,36.0269125,-79.9734428
3708,Sutton Way,27265,36.0270038,-79.9736104
3706,Sutton Way,27265,36.0269674,-79.9738203
3704,Sutton Way,27265,36.0270532,-79.9740127
3702,Sutton Way,27265,36.0271981,-79.9741870
3700,Sutton Way,27265,36.0273545,-79.9741090
3701,Sutton Way,27265,36.0274858,-79.9740221
3703,Sutton Way,27265,36.0275968,-79.9738962
3705,Sutton Way,27265,36.0275961,-79.9736770
1750,Iona Drive,27235,36.0624791,-80.0117219
1710,Iona Drive,27235,36.0623966,-80.0125814
1615,Iona Drive,27235,36.0617800,-80.0149026
4902,Ayrshire Place,27235,36.0603784,-80.0125750
1702,McCorkle Circle,27235,36.0598523,-80.0126294
4522,Fallowood Terrace,27265,36.0549673,-79.9799817
3722,Queenswood Lane,27282,36.0292605,-79.9583090
3721,Queenswood Lane,27282,36.0294187,-79.9584972
3719,Queenswood Lane,27282,36.0294630,-79.9587832
3713,Queenswood Lane,27282,36.0288740,-79.9595226
3711,Queenswood Lane,27282,36.0287583,-79.9597362
3715,Queenswood Lane,27282,36.0290577,-79.9593385
3708,Queenswood Lane,27282,36.0281821,-79.9597778
3710,Queenswood Lane,27282,36.0282943,-79.9595871
3712,Queenswood Lane,27282,36.0283898,-79.9594058
3723,Tuxford Lane,27282,36.0284499,-79.9589336
3715,Woodpark Drive,27282,36.0282192,-79.9587992
3713,Woodpark Drive,27282,36.0280596,-79.9590028
3707,Woodpark Drive,27282,36.0276983,-79.9595384
3705,Woodpark Drive,27282,36.0276013,-79.9597649
3709,Woodpark Drive,27282,36.0277877,-79.9593425
3722,Tuxford Lane,27282,36.0284580,-79.9581615
3720,Tuxford Lane,27282,36.0282891,-79.9579675
3717,Tuxford Lane,27282,36.0279703,-79.9583756
3715,Tuxford Lane,27282,36.0278284,-79.9582140
3713,Tuxford Lane,27282,36.0276327,-79.9580859
3711,Tuxford Lane,27282,36.0274565,-79.9580275
3767,Windstream Way,27282,36.0271160,-79.9584959
3709,Tuxford Lane,27282,36.0272577,-79.9579652
3769,Windstream Way,27282,36.0271897,-79.9583064
3712,Tuxford Lane,27282,36.0276466,-79.9574961
3716,Tuxford Lane,27282,36.0279808,-79.9576799
3714,Tuxford Lane,27282,36.0278080,-79.9575578
3775,Windstream Way,27282,36.0273607,-79.9574264
3777,Windstream Way,27282,36.0273812,-79.9572137
3759,Windstream Way,27282,36.0266882,-79.9593593
3757,Windstream Way,27282,36.0264751,-79.9593103
3760,Windstream Way,27282,36.0264200,-79.9586996
3701,Tuxford Lane,27282,36.0264222,-79.9577307
3702,Tuxford Lane,27282,36.0264989,-79.9572515
3700,Tuxford Lane,27282,36.0263991,-79.9574512
3704,Tuxford Lane,27282,36.0267459,-79.9572045
3706,Tuxford Lane,27282,36.0269456,-79.9572640
3367,Maid Marion Court,27282,36.0274385,-79.9535274
3375,Maid Marion Court,27282,36.0277687,-79.9532870
3371,Maid Marion Court,27282,36.0276231,-79.9535051
5596,Marblehead Drive,27235,36.0744429,-80.0172547
5608,Marblehead Drive,27235,36.0752935,-80.0160925
2061,Melody Creek Court,27235,36.0695820,-80.0121327
2066,Cold Creek Court,27235,36.0686351,-80.0120949
2071,Cold Creek Court,27235,36.0688144,-80.0121934
2030,Cold Creek Court,27235,36.0676616,-80.0133706
4704,Sandy Village Court,27265,36.0603021,-80.0062360
2211,Sandy Village Drive,27265,36.0607712,-80.0065393
2113,Sandy Village Drive,27265,36.0597560,-80.0107109
4700,Meadow Landing Drive,27265,36.0596731,-80.0103142
4743,Meadow Landing Drive,27265,36.0608401,-80.0095084
2145,Starfall Drive,27265,36.0584540,-80.0100963
2406,North Main Street,27262,35.9877969,-80.0254226
4019,Maid Marion Court,27282,36.0327914,-79.9535094
4021,Maid Marion Court,27282,36.0327937,-79.9532397
4022,Maid Marion Court,27282,36.0326452,-79.9530375
4020,Maid Marion Court,27282,36.0324294,-79.9530262
4018,Maid Marion Court,27282,36.0322467,-79.9531006
4016,Maid Marion Court,27282,36.0320660,-79.9531611
4014,Maid Marion Court,27282,36.0318908,-79.9532515
4012,Maid Marion Court,27282,36.0317623,-79.9533703
4010,Maid Marion Court,27282,36.0316452,-79.9535585
4008,Maid Marion Court,27282,36.0315480,-79.9537347
4006,Maid Marion Court,27282,36.0315038,-79.9539580
4004,Maid Marion Court,27282,36.0314697,-79.9541816
3916,Gisbourne Drive,27282,36.0319196,-79.9543999
4005,Maid Marion Court,27282,36.0319635,-79.9539669
4011,Maid Marion Court,27282,36.0320730,-79.9537644
4013,Maid Marion Court,27282,36.0322418,-79.9536525
4015,Maid Marion Court,27282,36.0324116,-79.9536676
4017,Maid Marion Court,27282,36.0326225,-79.9537004
3922,Gisbourne Drive,27282,36.0325975,-79.9543283
3920,Gisbourne Drive,27282,36.0323565,-79.9543265
3918,Gisbourne Drive,27282,36.0321740,-79.9543449
3372,Maid Marion Court,27282,36.0277581,-79.9530235
3370,Maid Marion Court,27282,36.0276170,-79.9528445
3366,Maid Marion Court,27282,36.0274142,-79.9528311
3363,Maid Marion Court,27282,36.0271714,-79.9534812
3910,Gisbourne Drive,27282,36.0315277,-79.9545232
3701,Woodpark Drive,27282,36.0274574,-79.9602052
3703,Woodpark Drive,27282,36.0275479,-79.9600026
3711,Woodpark Drive,27282,36.0279211,-79.9591687
3765,Windstream Way,27282,36.0270400,-79.9586877
3761,Windstream Way,27282,36.0268554,-79.9591372
3756,Windstream Way,27282,36.0263229,-79.9591148
3758,Windstream Way,27282,36.0263390,-79.9588699
3762,Windstream Way,27282,36.0266037,-79.9585005
3764,Windstream Way,27282,36.0267153,-79.9582931
3705,Tuxford Lane,27282,36.0268578,-79.9579160
3703,Tuxford Lane,27282,36.0266286,-79.9578999
3718,Tuxford Lane,27282,36.0281395,-79.9578063
3706,Queenswood Lane,27282,36.0280473,-79.9599457
3724,Tuxford Lane,27282,36.0285717,-79.9583329
3702,Woodpark Drive,27282,36.0271586,-79.9596257
3725,Tuxford Lane,27282,36.0286131,-79.9590748
3763,Windstream Way,27282,36.0269241,-79.9589225
3702,Queenswood Lane,27282,36.0277428,-79.9603585
3712,Woodpark Drive,27282,36.0277337,-79.9586191
3710,Woodpark Drive,27282,36.0275807,-79.9587870
3708,Woodpark Drive,27282,36.0274375,-79.9589970
3706,Woodpark Drive,27282,36.0273246,-79.9591826
3704,Woodpark Drive,27282,36.0272303,-79.9593854
3700,Woodpark Drive,27282,36.0270552,-79.9598383
3726,Tuxford Lane,27282,36.0287115,-79.9585196
3728,Tuxford Lane,27282,36.0288575,-79.9586435
3720,Queenswood Lane,27282,36.0290639,-79.9582680
3717,Queenswood Lane,27282,36.0291042,-79.9591750
3709,Queenswood Lane,27282,36.0286317,-79.9599350
3707,Queenswood Lane,27282,36.0285046,-79.9601364
3703,Queenswood Lane,27282,36.0283011,-79.9605808
3704,Queenswood Lane,27282,36.0278792,-79.9601106
4501,Calabria Court,27265,36.0295274,-79.9840880
4505,Calabria Court,27265,36.0297078,-79.9837552
2900,McLaurin Court,27265,36.0134566,-79.9595739
2268,Cambridge Oaks Drive,27262,35.9495572,-80.0492953
2245,Cambridge Oaks Drive,27262,35.9480162,-80.0497112
2256,Cambridge Oaks Drive,27262,35.9489091,-80.0493295
2277,Cambridge Oaks Drive,27262,35.9497992,-80.0499075
2248,Cambridge Oaks Drive,27262,35.9484510,-80.0492507
2273,Cambridge Oaks Drive,27262,35.9495670,-80.0499092
2252,Cambridge Oaks Drive,27262,35.9487051,-80.0493350
2249,Cambridge Oaks Drive,27262,35.9482291,-80.0498430
2244,Cambridge Oaks Drive,27262,35.9482334,-80.0491654
2253,Cambridge Oaks Drive,27262,35.9484668,-80.0498971
2272,Cambridge Oaks Drive,27262,35.9497924,-80.0493029
2264,Cambridge Oaks Drive,27262,35.9493441,-80.0493166
2257,Cambridge Oaks Drive,27262,35.9487061,-80.0499128
2260,Cambridge Oaks Drive,27262,35.9491246,-80.0493200
3350,North Main Street,27265,36.0053526,-80.0383702
3400,North Centennial Street,27265,36.0108432,-79.9964022
4364,Barrow Road,27265,36.0466285,-79.9891264
718,West Martin Luther King Jr Drive,27262,35.9528044,-80.0142007
