House number,Street name,Postal code,Latitude,Longitude
111,Roosevelt Road,28540,34.7594000,-77.4198000
425,Yopp Road,28540,34.7499637,-77.4622133
717,Court Street,28540,34.7518022,-77.4309201
1401,West Road,28547,34.6747404,-77.3403423
1238,Birch Street,28547,34.6735102,-77.3375330
84,Holcomb Boulevard,28547,34.6692219,-77.3429940
2200,Gum Branch Road,28540,34.7981975,-77.4368521
375,Western Blvd.,28546,34.7656411,-77.3809265
1106,Western Boulevard,28546,34.7802972,-77.3946207
709,Gardenview Drive,28540,34.7735004,-77.4425610
1231,Birch Street,28547,34.6738078,-77.3397336
116,Center Street,28546,34.7455949,-77.3816541
1146,Gum Branch Road,28546,34.7796214,-77.4140955
911,Lejeune Boulevard,28540,34.7472282,-77.4143938
911,Lejeune Boulevard,28540,34.7466021,-77.4143136
4250,Western Boulevard,28546,34.8009868,-77.4155143
257,D Street,28547,34.6700060,-77.3531082
711,New Bridge Street,28540,34.7497357,-77.4226610
1128,Western Blvd,28546,34.7824099,-77.3964519
353,Western Boulevard,28546,34.7668650,-77.3847997
113,Western Boulevard,28546,34.7466050,-77.3801741
1238,Birch Street,28547,34.6735475,-77.3376051
1231,Holcomb Boulevard,28547,34.6747687,-77.3405591
1231,Holcomb Boulevard,28547,34.6750802,-77.3405975
343,Western Boulevard,28546,34.7653912,-77.3839608
1315,Western Boulevard,28546,34.7847266,-77.4033184
1345,Western Boulevard,28546,34.7865080,-77.4026295
1250,Western Boulevard,28546,34.7873624,-77.3993489
2319,Lejeune Boulevard,28546,34.7383999,-77.3583019
2451,Lejeune Boulevard,28540,34.7359993,-77.3548175
99,McHugh Boulevard,28542,34.6762381,-77.3528032
110,South Marine Boulevard,28540,34.7534573,-77.4371621
375,Western Boulevard,28546,34.7656514,-77.3809907
375,Jacksonville Mall,28546,34.7658245,-77.3810877
375,Jacksonville Mall,28546,34.7659162,-77.3811187
200,Memorial Drive,28546,34.7653891,-77.3866354
2405,North Marine Boulevard,28546,34.7858673,-77.3818150
123,Western Boulevard,28546,34.7481547,-77.3805868
2535,Commerce Road,28546,34.7805324,-77.3866917
830,New Bridge Street,28540,34.7487572,-77.4201346
830,New Bridge Street,28540,34.7489114,-77.4200622
454,Western Boulevard,28546,34.7746403,-77.3886626
454,Western Boulevard,28546,34.7747469,-77.3887807
2400,Gum Branch Road,28540,34.8004018,-77.4387062
6995,Western Boulevard,28546,34.7990128,-77.4385441
6995,Western Boulevard,28546,34.7988690,-77.4382634
1112,Western Boulevard,28546,34.7819150,-77.3940129
1116,Western Boulevard,28546,34.7822275,-77.3944478
1110,Western Boulevard,28546,34.7815478,-77.3937304
2095,North Marine Boulevard,28546,34.7800482,-77.3899952
2207,North Marine Boulevard,28546,34.7820003,-77.3872847
422,Yopp Road,28540,34.7518394,-77.4601420
424,Yopp Road,28540,34.7522668,-77.4609348
1207,North Marine Boulevard,28540,34.7654819,-77.4098144
408,Western Boulevard,28546,34.7688783,-77.3846570
408,Western Boulevard,28546,34.7690454,-77.3847341
1513,Marine Boulevard,28540-6476,34.7674531,-77.4070699
471,Western Boulevard,28546,34.7752370,-77.3909568
1525,North Marine Boulevard,28540-6476,34.7678110,-77.4066777
1693,Halltown Road,28546,34.7718034,-77.3560772
861,Pineygreen Road,28546,34.7716975,-77.3545254
200,Wilmington Highway,28540-3506,34.7519974,-77.4514408
601,Richlands Highway,28540,34.7520259,-77.4534711
420,South Marine Boulevard,28540,34.7526695,-77.4479029
6995,Western Boulevard,28546,34.7989218,-77.4381200
201,Western Boulevard,28546,34.7494424,-77.3806828
1731,Lejeune Boulevard,28540,34.7436217,-77.3798127
95,Western Boulevard,28546-5723,34.7444612,-77.3797284
109 1/2,Western Boulevard,28546,34.7462731,-77.3800183
117,Western Boulevard,28546,34.7471569,-77.3801397
244,South Marine Boulevard,28540,34.7521968,-77.4441041
104,Marine Boulevard,28540,34.7570513,-77.4194410
602,Anne Street,28540,34.7517439,-77.4322442
109,Old Bridge Street,28540,34.7511542,-77.4321169
701,Mill Avenue,28540,34.7516704,-77.4322614
8,Park Place,28540,34.7530800,-77.4176990
415,Western Boulevard,28546,34.7695580,-77.3864412
415,Western Boulevard,28546,34.7694570,-77.3863800
413,Western Boulevard,28546,34.7692613,-77.3863036
321,Western Boulevard,28546,34.7642792,-77.3836827
1241,Hargett Street,28460,34.7518537,-77.4124320
4039,Curtis Road,28540,34.7238867,-77.4574288
2223,North Marine Boulevard,28546,34.7837893,-77.3859342
317,Western Boulevard,28546,34.7627318,-77.3854496
302A,Western Boulevard,28546,34.7585474,-77.3810254
403,Western Boulevard,28546,34.7679116,-77.3854721
474,Western Boulevard,28546,34.7771294,-77.3909224
2405,North Marine Boulevard,28546,34.7858407,-77.3818754
433,Western Boulevard,28546,34.7712947,-77.3875853
302,Western Boulevard,28546,34.7594816,-77.3811647
58,Doris Avenue,28540-5197,34.7778172,-77.4207674
911,Lejeune Blvd,28540,34.7461734,-77.4123652
444,Western Boulevard,28546,34.7722878,-77.3845336
36,Kerr Street,28540,34.7457514,-77.4359531
36,Kerr Street,28540,34.7449898,-77.4355462
36,Kerr Street,28540,34.7452724,-77.4356226
36,Kerr Street,28540,34.7459828,-77.4356805
36,Kerr Street,28540,34.7456117,-77.4355016
2770,Piney Green Road,28544,34.7198480,-77.3211711
911,Lejeune Boulevard,28540,34.7465035,-77.4142661
2830,Piney Green Road,28544,34.7178232,-77.3210023
185,Freedom Way,28544,34.7172989,-77.3249807
910,Corbin Street,28546,34.7468828,-77.3572099
910,Corbin Street,28546,34.7482133,-77.3597200
910,Corbin Street,28546,34.7482142,-77.3578287
910,Corbin Street,28546,34.7475734,-77.3574119
261,Freedom Way,28544,34.7169078,-77.3221102
209,Freedom Way,28544,34.7170615,-77.3238916
2840,Piney Green Road,28544,34.7173671,-77.3212676
2840,Piney Green Road,28544,34.7173646,-77.3208085
2774,Piney Green Road,28544,34.7189675,-77.3207632
2774,Piney Green Road,28544,34.7190363,-77.3206680
111,Carver Drive,28544,34.7209600,-77.3213384
333,Freedom Way,28544,34.7165268,-77.3189254
201,Freedom Way,28544,34.7172635,-77.3243604
165,Freedom Way,28544,34.7174537,-77.3257647
129,Freedom Way,28544,34.7179192,-77.3269754
110,Montford Landing Road,28540,34.7467982,-77.4178094
903,Lejeune Boulevard,28540,34.7485437,-77.4140124
153,Freedom Way,28544,34.7176714,-77.3262078
175,Freedom Way,28544,34.7182884,-77.3238633
175,Freedom Way,28544,34.7183547,-77.3241864
175,Freedom Way,28544,34.7185340,-77.3244548
2865,Piney Green Road,28544,34.7163761,-77.3198808
821,Doris Avenue,28540,34.7767364,-77.4265068
2421,Gum Branch Road,28540,34.8000130,-77.4414752
1237,Birch Street,28547,34.6749115,-77.3367372
1235,Birch Street,28547,34.6754340,-77.3373558
1232,Birch Street Extension,28547,34.6742355,-77.3358942
305,South Marine Boulevard,28540,34.7514470,-77.4458046
403,South Marine Boulevard,28540,34.7514699,-77.4465977
407,South Marine Boulevard,28540,34.7515912,-77.4471358
100,Recreation Lane,28546,34.7938841,-77.3983441
214,Marine Boulevard,28540,34.7539540,-77.4278723
350,Western Boulevard,28546,34.7635450,-77.3780369
1000,Kalli Drive,28546,34.7970584,-77.4172048
2400,Gum Branch Road,28540,34.8003360,-77.4388297
561,Yopp Road,28540,34.7515116,-77.4645160
479,Western Boulevard,28546,34.7742894,-77.3926027
1255,Western Boulevard,28546,34.7832549,-77.4015108
1177,Western Boulevard,28546,34.7828984,-77.3993009
1165,Western Boulevard,28546,34.7817474,-77.3978429
1170,Western Boulevard,28546,34.7841861,-77.3962717
1102,Hampton Inn Way,28546,34.7877116,-77.4065451
1395,Western Boulevard,28546-6663,34.7857824,-77.4047490
1176,Western Boulevard,28546,34.7838345,-77.3981175
1345,Western Boulevard,28546,34.7852010,-77.3993245
1654,Western Boulevard,28546,34.7909678,-77.4048087
1638,Western Boulevard,28546,34.7906195,-77.4044390
110,Western Boulevard,28546,34.7467487,-77.3777138
431,Western Boulevard,28546,34.7708283,-77.3873904
497,Western Boulevard,28546,34.7762931,-77.3927659
1995,N.Marine Boulevard,28546,34.7774715,-77.3936735
404,Western Boulevard,28546-6816,34.7685070,-77.3844230
51,Office Park Drive,28546,34.7665465,-77.3781055
201,Alden Drive,28546,34.7643566,-77.3746813
431,Western Boulevard,28546,34.7703434,-77.3870842
431,Western Boulevard,28546,34.7704039,-77.3871219
431,Western Boulevard,28546,34.7705258,-77.3871992
431,Western Boulevard,28546,34.7706474,-77.3872760
431,Western Boulevard,28546,34.7707071,-77.3873140
431,Western Boulevard,28546,34.7707679,-77.3873521
431,Western Boulevard,28546,34.7710125,-77.3875067
431,Western Boulevard,28546,34.7709540,-77.3874699
431,Western Boulevard,28546,34.7708910,-77.3874300
431,Western Boulevard,28546,34.7704645,-77.3871606
431,Western Boulevard,28546,34.7705870,-77.3872378
4133,Western Boulevard,28546,34.7977407,-77.4138373
400,Northwest Drive,28546,34.7980216,-77.4191150
1012,Henderson Drive,28540,34.7810527,-77.4252394
139,Circuit Lane,28546,34.7820640,-77.4005006
35,McDaniel Drive,28546,34.7824665,-77.3911524
258,South Marine Boulevard,28540,34.7523380,-77.4454164
119,Penny Lane,28546,34.7817077,-77.3902762
130,Workshop Lane,28546,34.7803325,-77.3873680
20,McDaniel Drive,28546,34.7822446,-77.3891227
1016,Jacksonville Parkway,28546,34.7905660,-77.4081623
2201,North Marine Boulevard,28546,34.7828972,-77.3881210
2411,Commerce Road,28546,34.7767706,-77.3898785
603,N Marine Blvd,28540,34.7612948,-77.4167141
2139,North Marine Boulevard,28546,34.7814216,-77.3883878
701,N Marine Blvd,28540,34.7619546,-77.4144471
2149,North Marine Boulevard,28546,34.7818479,-77.3879584
110,Cobia Court,28546,34.7918477,-77.4105566
1323,Lejeune Boulevard,28540,34.7467572,-77.3974419
2115,North Marine Boulevard,28546,34.7814183,-77.3899863
601,N Marine Blvd,28540,34.7607122,-77.4168348
121,Circuit Lane,28546,34.7810997,-77.3988413
129,Circuit Lane,28546,34.7813961,-77.3998847
431,Western Boulevard,28546,34.7709819,-77.3874875
461,Western Boulevard,28546,34.7731626,-77.3900010
461,Western Boulevard,28546,34.7730196,-77.3899000
461,Western Boulevard,28546,34.7731431,-77.3899697
461,Western Boulevard,28546,34.7731863,-77.3900389
461,Western Boulevard,28546,34.7732265,-77.3901032
461,Western Boulevard,28546,34.7732676,-77.3901694
461,Western Boulevard,28546,34.7733068,-77.3902322
461,Western Boulevard,28546,34.7733198,-77.3903187
461,Western Boulevard,28546,34.7733536,-77.3904777
102,Western Boulevard,28546,34.7734653,-77.3891027
245,Memorial Drive,28546,34.7670352,-77.3871678
509,Marine Boulevard,28540,34.7563172,-77.4225714
309,Chaney Avenue,28540,34.7541461,-77.4253731
305,Chaney Avenue,28540,34.7540034,-77.4254495
300,Marine Boulevard,28540,34.7544663,-77.4263942
501,Bordeaux Street,28540,34.7535716,-77.4268879
343,Western Boulevard,28546,34.7658894,-77.3843319
267,Western Boulevard,28546,34.7591705,-77.3824187
302,Western Boulevard,28546,34.7589931,-77.3810767
475,Marine Boulevard,28540,34.7559254,-77.4230076
1365,Western Boulevard,28546,34.7869145,-77.4028441
100,Old Bridge Street,28540,34.7513338,-77.4333920
408,South Marine Boulevard,28540,34.7524158,-77.4474350
248,Wilmington Highway,28540,34.7505847,-77.4570695
570,Yopp Road,28540,34.7543950,-77.4625745
4024,Richlands Highway,28540,34.7536760,-77.4633683
120,Bridget Lane,28540,34.7540957,-77.4557826
419,South Marine Boulevard,28540,34.7515540,-77.4478783
233,South Marine Boulevard,28540,34.7513312,-77.4428821
227,South Marine Boulevard,28540,34.7508791,-77.4421852
221,South Marine Boulevard,28540,34.7512401,-77.4417002
404,South Marine Boulevard,28540,34.7524678,-77.4464138
248,South Marine Boulevard,28540,34.7521234,-77.4445270
234,South Marine Boulevard,28540,34.7520629,-77.4429961
900,North Marine Boulevard,28540,34.7607642,-77.4145856
620,North Marine Boulevard,28540,34.7597783,-77.4158389
109,Marine Boulevard,28540,34.7543174,-77.4316369
111,Marine Boulevard,28540,34.7544102,-77.4303197
44,Marine Boulevard,28540,34.7567647,-77.4205878
717,Court Street,28540,34.7516402,-77.4311742
625,Court Street,28540,34.7511173,-77.4312709
602,Anne Street,28540,34.7514433,-77.4321381
525,Marine Boulevard,28540,34.7600352,-77.4174782
1,Park Place,28540,34.7538058,-77.4166692
8,Park Place,28540,34.7531124,-77.4176967
460,Chaney Avenue,28540,34.7552549,-77.4234997
207,North Marine Boulevard,28540,34.7580859,-77.4200110
305,Marine Boulevard,28540,34.7587747,-77.4189727
401,Marine Boulevard,28540,34.7590677,-77.4185871
224,Brynn Marr Road,28546,34.7485155,-77.3810375
102,Marine Boulevard,28540,34.7534723,-77.4316548
2025,North Marine Boulevard,28546,34.7799425,-77.3931942
1345,Western Boulevard,28546,34.7862542,-77.4025524
1345,Western Boulevard,28546,34.7863000,-77.4024268
139,Moosehaven Road,28546,34.7808557,-77.3986283
