House number,Street name,Postal code,Latitude,Longitude
119,West Clay Street,27302,36.0971868,-79.2686823
137,West Clay Street,27302,36.0973380,-79.2691585
1701,NC-119,27302,36.0664613,-79.2994498
107,East Center Street,27302,36.0963561,-79.2674239
109,East Center Street,27302,36.0962449,-79.2673495
638,North 1st Street,27302,36.1065919,-79.2688042
630,North 1st Street,27302,36.1064214,-79.2678181
622,North 1st Street,27302,36.1058755,-79.2682466
104,West Center Street,27302,36.0964878,-79.2681064
106,West Center Street,27302,36.0965225,-79.2682084
115,North 4th Street,27302,36.0969170,-79.2677692
113,North 4th Street,27302,36.0968704,-79.2677867
111,North 4th Street,27302,36.0967804,-79.2678242
109,North 4th Street,27302,36.0967295,-79.2678443
1244,South 5th Street,27302,36.0730484,-79.2945923
1282,South 5th Street,27302,36.0730619,-79.2952437
1738,NC-119,27302,36.0677289,-79.3001241
1246,South 5th Street,27302,36.0730512,-79.2947612
1020,Mebane Oaks Road,27302,36.0740316,-79.2757250
138,Millstead Drive,27302,36.0640799,-79.2995964
618,North 1st Street,27302,36.1058749,-79.2683683
102,Millstead Drive,27302,36.0636578,-79.3005726
1342,Trollingwood Hawfields Road,27302,36.0660266,-79.3097299
1342,Trollingwood Hawfields Road,27302,36.0657799,-79.3098253
909,Trollingwood Hawfields Road,27302,36.0679258,-79.3137854
428,Compass Dr.,28571,36.0656379,-79.3010242
454,Compass Drive,27302,36.0657542,-79.3014613
108,North Ninth Street,27302,36.0953206,-79.2600184
108,North Ninth Street,27302,36.0952545,-79.2600575
113,South Tenth Street,27302,36.0924255,-79.2590320
111,South Tenth Street,27302,36.0925931,-79.2590582
107,South Tenth Street,27302,36.0928946,-79.2590836
710,North Ninth Street,27302,36.1058875,-79.2600032
105,South Tenth Street,27302,36.0930510,-79.2590857
400,North Ninth Street,27302,36.1006931,-79.2598625
406,North Tenth Street,27302,36.1000404,-79.2583720
218,South Tenth Street,27302,36.0903599,-79.2593906
410,North Ninth Street,27302,36.1015775,-79.2598706
219,South Tenth Street,27302,36.0901212,-79.2588705
211,South Tenth Street,27302,36.0909564,-79.2587842
99,South Tenth Street,27302,36.0934961,-79.2590970
109,South Tenth Street,27302,36.0927473,-79.2590677
601,North Tenth Street,27302,36.1018376,-79.2588747
502,North Tenth Street,27302,36.1005649,-79.2583854
205,South Tenth Street,27302,36.0915964,-79.2589531
706,North Ninth Street,27302,36.1053348,-79.2599696
300,North Ninth Street,27302,36.0991342,-79.2599703
403,North Tenth Street,27302,36.0996468,-79.2589763
306,North Ninth Street,27302,36.1015943,-79.2599955
600,East Brown Street,27302,36.0986218,-79.2593240
702,East Brown Street,27302,36.0984070,-79.2582979
700,East Brown Street,27302,36.0984620,-79.2585472
114,North Oakland Drive,27302,36.1066893,-79.2585233
126,Overland Drive,27302,36.1064390,-79.2572942
110,North Oakland Drive,27302,36.1060910,-79.2583945
106,Overland Drive,27302,36.1052201,-79.2570390
109,Overland Drive,27302,36.1053560,-79.2576228
132,Overland Drive,27302,36.1069074,-79.2573014
137,Overland Drive,27302,36.1071100,-79.2579020
110,Overland Drive,27302,36.1054134,-79.2570886
122,Overland Drive,27302,36.1061538,-79.2572049
136,Overland Drive,27302,36.1072141,-79.2573331
102,North Oakland Drive,27302,36.1049990,-79.2582260
103,North Oakland Drive,27302,36.1051526,-79.2589641
115,North Oakland Drive,27302,36.1068843,-79.2592111
217,South Eleventh Street,27302,36.0916510,-79.2576752
213,South Eleventh Street,27302,36.0917603,-79.2576703
277,South Eleventh Street,27302,36.0898479,-79.2570079
283,South Eleventh Street,27302,36.0891043,-79.2569405
206,South Eleventh Street,27302,36.0912780,-79.2583735
281,South Eleventh Street,27302,36.0891838,-79.2561761
279,South Eleventh Street,27302,36.0898073,-79.2559924
275,South Eleventh Street,27302,36.0898200,-79.2576650
202,South Eleventh Street,27302,36.0918542,-79.2583957
279,South Eleventh Street,27302,36.0898649,-79.2560916
277,South Eleventh Street,27302,36.0899190,-79.2566552
102,South Eleventh Street,27302,36.0932264,-79.2583754
283,South Eleventh Street,27302,36.0892928,-79.2569288
106,South Eleventh Street,27302,36.0929128,-79.2583476
116,Overland Court,27302,36.1067625,-79.2565562
615,Hunters Run,27302,36.1034474,-79.2587204
108,Creeks Edge Court,27302,36.1021237,-79.2578063
709,Hunters Run,27302,36.1030943,-79.2574547
603,East Ashland Drive,27302,36.1044167,-79.2594935
812,Hunters Run,27302,36.1028222,-79.2559015
802,Hunters Run,27302,36.1027390,-79.2564759
706,Hunters Run,27302,36.1026611,-79.2577910
614,Hunters Run,27302,36.1029439,-79.2589182
108,Deer Path Lane,27302,36.1036751,-79.2576252
620,Hunters Run,27302,36.1028809,-79.2586644
805,Hunters Run,27302,36.1032419,-79.2564179
619,Hunters Run,27302,36.1033856,-79.2585240
110,Creeks Edge Court,27302,36.1019744,-79.2574764
114,Creeks Edge Court,27302,36.1022979,-79.2572085
713,Hunters Run,27302,36.1031652,-79.2570990
112,Deer Path Lane,27302,36.1036066,-79.2582060
102,Acadia Court,27302,36.1316006,-79.2589545
700,Mt Ranier Drive,27302,36.1335466,-79.2566544
412,Great Smokey Mountain Drive,27302,36.1325687,-79.2563855
112,Shenandoah Way,27302,36.1324484,-79.2567541
703,Mt Ranier Drive,27302,36.1336363,-79.2570758
402,Great Smokey Mountain Drive,27302,36.1316196,-79.2594666
704,Mt Ranier Drive,27302,36.1341148,-79.2564115
120,North Ninth Street,27302,36.0968571,-79.2599138
401,North Tenth Street,27302,36.0993630,-79.2589890
704,North Ninth Street,27302,36.1050406,-79.2599685
103,South Tenth Street,27302,36.0932204,-79.2590917
500,North Ninth Street,27302,36.1018622,-79.2598913
217,South Tenth Street,27302,36.0903634,-79.2589019
101,South Tenth Street,27302,36.0933760,-79.2591010
404,North Ninth Street,27302,36.1009717,-79.2599058
708,North Ninth Street,27302,36.1056538,-79.2599882
404,North Tenth Street,27302,36.0997095,-79.2582745
308,North Ninth Street,27302,36.0999438,-79.2597194
206,North Ninth Street,27302,36.0980386,-79.2599972
113,North Oakland Drive,27302,36.1066448,-79.2592179
145,Overland Drive,27302,36.1076183,-79.2580099
109,North Oakland Drive,27302,36.1060581,-79.2591373
125,Overland Drive,27302,36.1063581,-79.2577887
118,North Oakland Drive,27302,36.1071895,-79.2585543
107,North Oakland Drive,27302,36.1057272,-79.2591066
113,Overland Drive,27302,36.1056109,-79.2576818
118,Overland Drive,27302,36.1058961,-79.2571555
112,North Oakland Drive,27302,36.1064008,-79.2584547
117,North Oakland Drive,27302,36.1072028,-79.2592256
1010,Oakwood Street,27302,36.0818260,-79.2582126
708,Oakwood Street,27302,36.0872964,-79.2583741
614,Oakwood Street,27302,36.0888485,-79.2590878
614,Oakwood Street,27302,36.0888723,-79.2590071
204,South Ninth Street,27302,36.0918627,-79.2605395
502,East Graham Street,27302,36.0968473,-79.2594297
511,East Webb Street,27302,36.0893051,-79.2602446
412,Mourning Dove Court,27302,36.1004872,-79.2461849
409,Mourning Dove Court,27302,36.1002903,-79.2467305
109,Bobwhite Way,27302,36.0953378,-79.2507337
119,Bobwhite Way,27302,36.0949235,-79.2512899
509,Great Smokey Mountain Drive,27302,36.1329053,-79.2555674
407,Great Smokey Mountain Drive,27302,36.1333094,-79.2578790
702,Mt Ranier Drive,27302,36.1338854,-79.2564184
604,Everglades Drive,27302,36.1340563,-79.2556443
506,Everglades Drive,27302,36.1335952,-79.2583193
108,Shenandoah Way,27302,36.1320157,-79.2569711
707,Mt Ranier Drive,27302,36.1341334,-79.2569739
409,Great Smokey Mountain Drive,27302,36.1333367,-79.2576364
404,Great Smokey Mountain Drive,27302,36.1318234,-79.2591517
202,Supper Club Road,27302,36.0953054,-79.2566429
396,Mockingbird Lane,27302,36.0966540,-79.2507830
521,Mockingbird Lane,27302,36.0993940,-79.2530583
523,Mockingbird Lane,27302,36.0994532,-79.2527781
600,East Washington Street,27302,36.0932880,-79.2595423
504,East Graham Street,27302,36.0966559,-79.2588453
138,Bobwhite Way,27302,36.0940479,-79.2523536
103,Starling Street,27302,36.0962342,-79.2511845
136,Bobwhite Way,27302,36.0941815,-79.2524316
139,Bobwhite Way,27302,36.0939577,-79.2521982
410,Mourning Dove Court,27302,36.1003209,-79.2461981
407,Mourning Dove Court,27302,36.1000539,-79.2467661
108,North Ninth Street,27302,36.0952045,-79.2600202
203,South Tenth Street,27302,36.0918614,-79.2589639
720,North Ninth Street,27302,36.1074942,-79.2601375
716,North Ninth Street,27302,36.1067572,-79.2601329
212,North Ninth Street,27302,36.0985542,-79.2599762
215,South Tenth Street,27302,36.0906553,-79.2588019
116,North Ninth Street,27302,36.0963830,-79.2599228
304,North Tenth Street,27302,36.0979470,-79.2584966
600,North Tenth Street,27302,36.1018511,-79.2584220
503,North Tenth Street,27302,36.1006041,-79.2589792
718,North Ninth Street,27302,36.1071132,-79.2601389
207,South Tenth Street,27302,36.0913198,-79.2589386
201,South Tenth Street,27302,36.0921571,-79.2589655
105,Overland Drive,27302,36.1050932,-79.2575808
114,Overland Drive,27302,36.1056934,-79.2571644
117,Overland Drive,27302,36.1058473,-79.2577674
121,Overland Drive,27302,36.1061209,-79.2577995
116,North Oakland Drive,27302,36.1069232,-79.2585036
823,Ashbury Square,27302,36.0953218,-79.2475247
508,Ashbury Square,27302,36.0950822,-79.2461134
515,Ashbury Square,27302,36.0950527,-79.2462942
412,Ashbury Square,27302,36.0944314,-79.2465539
608,Ashbury Square,27302,36.0953841,-79.2465630
119,Ashbury Square,27302,36.0948929,-79.2478336
203,Ashbury Square,27302,36.0947205,-79.2476544
116,Ashbury Square,27302,36.0948143,-79.2477311
413,Ashbury Square,27302,36.0944534,-79.2466296
408,Ashbury Square,27302,36.0946149,-79.2463462
107,Ashbury Square,27302,36.0948113,-79.2478325
701,Ashbury Square,27302,36.0954860,-79.2468905
722,Ashbury Square,27302,36.0954475,-79.2470354
405,Ashbury Square,27302,36.0946014,-79.2465618
621,Ashbury Square,27302,36.0952848,-79.2464053
802,Ashbury Square,27302,36.0955221,-79.2474521
417,Ashbury Square,27302,36.0946168,-79.2464429
509,Ashbury Square,27302,36.0949976,-79.2461379
718,Ashbury Square,27302,36.0955800,-79.2471635
818,Ashbury Square,27302,36.0952786,-79.2474923
820,Ashbury Square,27302,36.0954314,-79.2475560
816,Ashbury Square,27302,36.0953276,-79.2476536
411,Ashbury Square,27302,36.0944085,-79.2464720
712,Ashbury Square,27302,36.0954215,-79.2469660
502,Ashbury Square,27302,36.0948655,-79.2463259
610,Ashbury Square,27302,36.0953372,-79.2463670
606,Ashbury Square,27302,36.0952390,-79.2466506
105,Ashbury Square,27302,36.0948356,-79.2476690
719,Ashbury Square,27302,36.0955439,-79.2471175
622,Ashbury Square,27302,36.0953369,-79.2465232
205,Ashbury Square,27302,36.0946979,-79.2474150
511,Ashbury Square,27302,36.0948596,-79.2462342
503,Ashbury Square,27302,36.0948935,-79.2464066
609,Ashbury Square,27302,36.0953681,-79.2465096
520,Ashbury Square,27302,36.0949029,-79.2462368
611,East Green Street,27302,36.1017861,-79.2594303
281,South Eleventh Street,27302,36.0892619,-79.2560990
283,South Eleventh Street,27302,36.0892046,-79.2570244
281,South Eleventh Street,27302,36.0891560,-79.2562534
203,South Eleventh Street,27302,36.0920628,-79.2576817
275,South Eleventh Street,27302,36.0898527,-79.2575627
100,South Eleventh Street,27302,36.0933852,-79.2583707
204,South Eleventh Street,27302,36.0915746,-79.2583851
104,South Eleventh Street,27302,36.0930831,-79.2583694
117,Ashbury Square,27302,36.0948383,-79.2478200
320,Ashbury Square,27302,36.0944102,-79.2470203
321,Ashbury Square,27302,36.0944467,-79.2469980
211,Ashbury Square,27302,36.0945902,-79.2476822
704,Ashbury Square,27302,36.0953941,-79.2470625
420,Ashbury Square,27302,36.0944417,-79.2464622
326,Ashbury Square,27302,36.0940226,-79.2469869
602,Ashbury Square,27302,36.0952276,-79.2463468
612,Ashbury Square,27302,36.0952366,-79.2463779
213,Ashbury Square,27302,36.0947151,-79.2476269
301,Ashbury Square,27302,36.0944037,-79.2471046
518,Ashbury Square,27302,36.0950590,-79.2461245
817,Ashbury Square,27302,36.0953086,-79.2475829
406,Ashbury Square,27302,36.0946770,-79.2465212
516,Ashbury Square,27302,36.0950950,-79.2462683
707,Ashbury Square,27302,36.0955246,-79.2472377
306,Ashbury Square,27302,36.0944839,-79.2467477
121,Ashbury Square,27302,36.0949419,-79.2477440
821,Ashbury Square,27302,36.0954174,-79.2475175
501,Ashbury Square,27302,36.0948395,-79.2462415
415,Ashbury Square,27302,36.0945884,-79.2465283
803,Ashbury Square,27302,36.0954851,-79.2473752
519,Ashbury Square,27302,36.0950137,-79.2461751
716,Ashbury Square,27302,36.0954481,-79.2472276
123,Ashbury Square,27302,36.0948585,-79.2477318
721,Ashbury Square,27302,36.0954828,-79.2470108
305,Ashbury Square,27302,36.0945201,-79.2468223
322,Ashbury Square,27302,36.0944811,-79.2469756
307,Ashbury Square,27302,36.0944023,-79.2467816
112,Ashbury Square,27302,36.0950314,-79.2477033
423,Ashbury Square,27302,36.0945794,-79.2464973
124,Ashbury Square,27302,36.0948768,-79.2477893
114,Ashbury Square,27302,36.0949179,-79.2476694
378,Mockingbird Lane,27302,36.0958693,-79.2497875
104,Kestrel Court,27302,36.0953736,-79.2502060
105,Green Pasture Road,27302,36.0991953,-79.2464065
313,Large Oak Lane,27302,36.0996373,-79.2504142
301,Grove Hall Lane,27302,36.0989784,-79.2516587
304,Green Pasture Road,27302,36.0985825,-79.2486608
207,Green Pasture Road,27302,36.0989014,-79.2476157
202,Goldfinch Court,27302,36.0972278,-79.2465142
116,Pink Dogwood Lane,27302,36.0995185,-79.2490423
312,Five Pine Court,27302,36.0992733,-79.2486586
308,Pink Dogwood Lane,27302,36.0982943,-79.2470361
823,Blue Lake Drive,27302,36.1012557,-79.2457648
825,Blue Lake Drive,27302,36.1014144,-79.2456248
209,Goldfinch Court,27302,36.0969000,-79.2456332
210,Goldfinch Court,27302,36.0965971,-79.2459707
404,Five Pine Court,27302,36.0999737,-79.2480306
307,Five Pine Court,27302,36.0989524,-79.2494982
311,Five Pine Court,27302,36.0992824,-79.2492961
302,Pink Dogwood Lane,27302,36.0984640,-79.2477470
607,Oakfield Trail,27302,36.1052144,-79.2542478
808,Blue Lake Drive,27302,36.1000972,-79.2452929
711,Blue Lake Drive,27302,36.0985749,-79.2460106
306,Blue Lake Drive,27302,36.0981258,-79.2507141
606,Oakfield Trail,27302,36.1055020,-79.2538993
505,Blue Lake Drive,27302,36.0980473,-79.2488184
811,Blue Lake Drive,27302,36.1002736,-79.2458009
707,Blue Lake Drive,27302,36.0982726,-79.2460774
202,Blue Lake Drive,27302,36.0988642,-79.2523073
719,Blue Lake Drive,27302,36.0992089,-79.2459303
803,Blue Lake Drive,27302,36.0996715,-79.2459005
810,Blue Lake Drive,27302,36.1002556,-79.2452856
706,Blue Lake Drive,27302,36.0979437,-79.2457041
647,Village Lake Drive,27302,36.1070506,-79.2551436
611,Village Lake Drive,27302,36.1054966,-79.2556529
627,Village Lake Drive,27302,36.1062566,-79.2556664
613,Village Lake Drive,27302,36.1055740,-79.2556679
636,Village Lake Drive,27302,36.1067654,-79.2549370
629,Village Lake Drive,27302,36.1063312,-79.2556519
649,Village Lake Drive,27302,36.1071163,-79.2550777
704,Village Lake Drive,27302,36.1070343,-79.2541594
706,Village Lake Drive,27302,36.1071829,-79.2539900
411,East Center Street,27302,36.0945002,-79.2592572
711,Village Lake Drive,27302,36.1075132,-79.2541522
611,Oakfield Trail,27302,36.1055121,-79.2544534
623,Oakfield Trail,27302,36.1060403,-79.2544931
601,Ashbury Square,27302,36.0953011,-79.2463012
113,Ashbury Square,27302,36.0950030,-79.2476126
202,Ashbury Square,27302,36.0946585,-79.2476858
510,Ashbury Square,27302,36.0948889,-79.2461946
314,Ashbury Square,27302,36.0945262,-79.2469585
526,Ashbury Square,27302,36.0948949,-79.2458289
613,Ashbury Square,27302,36.0951751,-79.2464111
214,Ashbury Square,27302,36.0947048,-79.2475472
204,Ashbury Square,27302,36.0947391,-79.2475297
118,Ashbury Square,27302,36.0948571,-79.2478884
715,Ashbury Square,27302,36.0954724,-79.2471582
323,Ashbury Square,27302,36.0944556,-79.2468539
726,Ashbury Square,27302,36.0958578,-79.2470130
319,Ashbury Square,27302,36.0943817,-79.2468922
115,Ashbury Square,27302,36.0948471,-79.2476977
607,Ashbury Square,27302,36.0953427,-79.2466298
210,Ashbury Square,27302,36.0945530,-79.2476208
104,Ashbury Square,27302,36.0949083,-79.2476327
717,Ashbury Square,27302,36.0955065,-79.2471943
819,Ashbury Square,27302,36.0953518,-79.2476016
507,Ashbury Square,27302,36.0951002,-79.2461804
310,Ashbury Square,27302,36.0943683,-79.2470453
812,Ashbury Square,27302,36.0954829,-79.2474669
808,Ashbury Square,27302,36.0952893,-79.2476696
512,Ashbury Square,27302,36.0948886,-79.2463185
616,Ashbury Square,27302,36.0952521,-79.2466841
120,Ashbury Square,27302,36.0949604,-79.2477856
110,Ashbury Square,27302,36.0949770,-79.2478377
122,Ashbury Square,27302,36.0949307,-79.2477027
201,Ashbury Square,27302,36.0945982,-79.2477155
723,Ashbury Square,27302,36.0954956,-79.2471422
714,Ashbury Square,27302,36.0954244,-79.2470440
605,Ashbury Square,27302,36.0952291,-79.2465923
514,Ashbury Square,27302,36.0949449,-79.2463609
219,Ashbury Square,27302,36.0945404,-79.2474885
813,Ashbury Square,27302,36.0954558,-79.2473924
807,Ashbury Square,27302,36.0952653,-79.2475989
603,Ashbury Square,27302,36.0951682,-79.2463863
422,Ashbury Square,27302,36.0944707,-79.2465540
706,Ashbury Square,27302,36.0954682,-79.2472710
424,Ashbury Square,27302,36.0945524,-79.2464353
224,Ashbury Square,27302,36.0945790,-79.2474675
376,Mockingbird Lane,27302,36.0958530,-79.2496534
110,Kestrel Court,27302,36.0950901,-79.2504274
108,Kestrel Court,27302,36.0951773,-79.2503472
610,Oakwood Street,27302,36.0892542,-79.2593215
612,Oakwood Street,27302,36.0889765,-79.2592818
602,East Oakwood Street,27302,36.0899538,-79.2605302
392,Mockingbird Lane,27302,36.0964616,-79.2505691
394,Mockingbird Lane,27302,36.0965448,-79.2506722
116,Kestrel Court,27302,36.0947876,-79.2507255
112,Kestrel Court,27302,36.0950120,-79.2505345
105,Kestrel Court,27302,36.0952067,-79.2496649
109,Kestrel Court,27302,36.0949980,-79.2497984
100,Kestrel Court,27302,36.0955793,-79.2500686
112,Overland Court,27302,36.1065203,-79.2566158
805,East Ashland Drive,27302,36.1049193,-79.2562135
809,Hunters Run,27302,36.1032720,-79.2561568
603,Hunters Run,27302,36.1034051,-79.2599044
801,East Ashland Drive,27302,36.1048449,-79.2569592
712,Hunters Run,27302,36.1026915,-79.2572372
816,Hunters Run,27302,36.1028892,-79.2556374
607,East Ashland Drive,27302,36.1045867,-79.2587201
705,East Ashland Drive,27302,36.1047876,-79.2574573
716,Hunters Run,27302,36.1026842,-79.2569739
702,East Ashland Drive,27302,36.1041843,-79.2575675
106,Fawn Circle,27302,36.1035978,-79.2563203
802,East Ashland Drive,27302,36.1044123,-79.2563222
611,Hunters Run,27302,36.1034730,-79.2590511
704,East Ashland Drive,27302,36.1043206,-79.2569210
103,Kestrel Court,27302,36.0953189,-79.2496001
418,Mourning Dove Court,27302,36.1009747,-79.2461955
413,Mourning Dove Court,27302,36.1005932,-79.2467041
404,Mourning Dove Court,27302,36.0998664,-79.2463105
102,Bobwhite Way,27302,36.0959788,-79.2508908
107,Bobwhite Way,27302,36.0954402,-79.2506613
105,Starling Street,27302,36.0961362,-79.2512870
135,Bobwhite Way,27302,36.0940017,-79.2518299
109,Starling Street,27302,36.0959188,-79.2514626
422,Mourning Dove Court,27302,36.1012441,-79.2463010
100,Bobwhite Way,27302,36.0960848,-79.2507903
115,Bobwhite Way,27302,36.0950696,-79.2510431
402,Mockingbird Lane,27302,36.0969530,-79.2511056
301,Green Pasture Road,27302,36.0986409,-79.2479818
205,Green Pasture Road,27302,36.0990540,-79.2473429
303,Large Oak Lane,27302,36.0987851,-79.2506823
309,Large Oak Lane,27302,36.0992801,-79.2504131
705,Blue Lake Drive,27302,36.0981095,-79.2461433
205,Pink Dogwood Lane,27302,36.0993133,-79.2480525
609,Blue Lake Drive,27302,36.0978864,-79.2468886
100,Blue Lake Drive,27302,36.0995055,-79.2525146
112,Pink Dogwood Lane,27302,36.0998157,-79.2493224
826,Blue Lake Drive,27302,36.1014591,-79.2454063
404,Blue Lake Drive,27302,36.0979902,-79.2498675
501,Blue Lake Drive,27302,36.0982112,-79.2492589
113,Pink Dogwood Lane,27302,36.0998169,-79.2487401
304,Five Pine Court,27302,36.0985961,-79.2490909
408,Five Pine Court,27302,36.1003816,-79.2479760
111,Pink Dogwood Lane,27302,36.0999978,-79.2489002
309,Pink Dogwood Lane,27302,36.0988399,-79.2467021
302,Five Pine Court,27302,36.0984311,-79.2491581
305,Five Pine Court,27302,36.0987599,-79.2495991
311,Pink Dogwood Lane,27302,36.0987390,-79.2464754
310,Large Oak Lane,27302,36.0993087,-79.2498716
309,Five Pine Court,27302,36.0991173,-79.2494310
824,Blue Lake Drive,27302,36.1013835,-79.2451953
201,Blue Lake Drive,27302,36.0992589,-79.2519448
603,Oakfield Trail,27302,36.1051169,-79.2541511
717,Blue Lake Drive,27302,36.0990378,-79.2459454
621,Oakfield Trail,27302,36.1059768,-79.2545050
511,Blue Lake Drive,27302,36.0978288,-79.2481746
603,Blue Lake Drive,27302,36.0978851,-79.2474978
628,Oakfield Trail,27302,36.1065998,-79.2540339
800,Blue Lake Drive,27302,36.0994825,-79.2453378
718,Blue Lake Drive,27302,36.0988552,-79.2454140
617,Oakfield Trail,27302,36.1057074,-79.2545203
709,Blue Lake Drive,27302,36.0984374,-79.2460441
613,Oakfield Trail,27302,36.1055804,-79.2544777
701,Blue Lake Drive,27302,36.0979421,-79.2464826
704,Blue Lake Drive,27302,36.0978061,-79.2458390
700,Blue Lake Drive,27302,36.0975857,-79.2461430
819,Blue Lake Drive,27302,36.1009199,-79.2457638
813,Blue Lake Drive,27302,36.1004383,-79.2458014
629,Oakfield Trail,27302,36.1063682,-79.2544555
625,Oakfield Trail,27302,36.1061038,-79.2544873
600,Oakfield Trail,27302,36.1053363,-79.2537320
509,Blue Lake Drive,27302,36.0978558,-79.2484116
506,Blue Lake Drive,27302,36.0976075,-79.2489524
805,Blue Lake Drive,27302,36.0998248,-79.2458015
807,Blue Lake Drive,27302,36.0999732,-79.2457941
815,Blue Lake Drive,27302,36.1006221,-79.2457707
302,Blue Lake Drive,27302,36.0983170,-79.2512224
750,Village Lake Drive,27302,36.1075253,-79.2536019
645,Village Lake Drive,27302,36.1069818,-79.2552242
617,Village Lake Drive,27302,36.1057737,-79.2557016
403,East Center Street,27302,36.0944792,-79.2598618
701,Village Lake Drive,27302,36.1072739,-79.2548207
634,Village Lake Drive,27302,36.1065890,-79.2549033
708,Village Lake Drive,27302,36.1072665,-79.2539832
102,Kestrel Court,27302,36.0954702,-79.2501449
101,Kestrel Court,27302,36.0954185,-79.2495467
111,Kestrel Court,27302,36.0949107,-79.2498710
107,Kestrel Court,27302,36.0951039,-79.2497183
113,Kestrel Court,27302,36.0948141,-79.2499435
507,East Webb Street,27302,36.0892753,-79.2608832
416,Mourning Dove Court,27302,36.1008269,-79.2462224
400,Mourning Dove Court,27302,36.0995599,-79.2462731
411,Mourning Dove Court,27302,36.1004308,-79.2466626
415,Mourning Dove Court,27302,36.1004807,-79.2466249
419,Mourning Dove Court,27302,36.1010401,-79.2467237
405,Mourning Dove Court,27302,36.0999135,-79.2467748
131,Bobwhite Way,27302,36.0942342,-79.2516755
101,Bobwhite Way,27302,36.0957555,-79.2504005
129,Bobwhite Way,27302,36.0943523,-79.2516226
107,Starling Street,27302,36.0960239,-79.2513777
105,Bobwhite Way,27302,36.0955309,-79.2505549
125,Bobwhite Way,27302,36.0945847,-79.2515264
111,Bobwhite Way,27302,36.0952431,-79.2508352
403,Mourning Dove Court,27302,36.0997657,-79.2467926
108,Bobwhite Way,27302,36.0956439,-79.2511225
423,Mourning Dove Court,27302,36.1012289,-79.2465103
7721,Lebanon Road,27302,36.1020555,-79.2555691
512,Everglades Drive,27302,36.1338818,-79.2576143
100,Yosimite Court,27302,36.1325972,-79.2562322
103,Acadia Court,27302,36.1318667,-79.2584689
606,Everglades Drive,27302,36.1342764,-79.2555475
101,Yosimite Court,27302,36.1326262,-79.2555261
636,Village Lake Drive,27302,36.1066444,-79.2548294
638,Village Lake Drive,27302,36.1066922,-79.2547884
509,East Center Street,27302,36.0941023,-79.2561324
429,East Center Street,27302,36.0940304,-79.2572078
626,Village Lake Drive,27302,36.1062217,-79.2551437
616,Village Lake Drive,27302,36.1057663,-79.2551510
619,Oakfield Trail,27302,36.1058784,-79.2545329
614,Oakfield Trail,27302,36.1059043,-79.2540012
323,Supper Club Road,27302,36.0977401,-79.2565841
124,Overland Court,27302,36.1070580,-79.2569448
200,South Eleventh Street,27302,36.0921505,-79.2584076
279,South Eleventh Street,27302,36.0899026,-79.2560793
281,South Eleventh Street,27302,36.0892718,-79.2561424
275,South Eleventh Street,27302,36.0898871,-79.2575853
281,South Eleventh Street,27302,36.0891688,-79.2561296
283,South Eleventh Street,27302,36.0891370,-79.2569190
205,South Eleventh Street,27302,36.0920208,-79.2576815
283,South Eleventh Street,27302,36.0893027,-79.2569721
277,South Eleventh Street,27302,36.0899188,-79.2567667
207,South Eleventh Street,27302,36.0919746,-79.2576814
209,South Eleventh Street,27302,36.0919158,-79.2576812
706,East Stagecoach Road,27302,36.1075930,-79.2584313
627,East Stagecoach Road,27302,36.1083254,-79.2593941
900,Lake Michael Way,27302,36.1045989,-79.2554925
1002,Lake Michael Way,27302,36.1046551,-79.2549665
607,Everglades Drive,27302,36.1347485,-79.2560350
410,Great Smokey Mountain Drive,27302,36.1324172,-79.2570192
609,Everglades Drive,27302,36.1349239,-79.2556293
104,Shenandoah Way,27302,36.1318074,-79.2575228
600,Everglades Drive,27302,36.1343916,-79.2563476
602,Everglades Drive,27302,36.1341637,-79.2560315
514,Everglades Drive,27302,36.1339736,-79.2573588
508,Everglades Drive,27302,36.1336860,-79.2580723
103,Yosimite Court,27302,36.1323791,-79.2554950
110,Shenandoah Way,27302,36.1322025,-79.2567173
605,Hunters Run,27302,36.1034580,-79.2595995
600,East Ashland Drive,27302,36.1038387,-79.2599900
601,East Ashland Drive,27302,36.1043078,-79.2600609
602,East Ashland Drive,27302,36.1038847,-79.2596206
700,East Ashland Drive,27302,36.1040963,-79.2581006
110,Fawn Circle,27302,36.1038301,-79.2567678
108,Fawn Circle,27302,36.1037987,-79.2564462
800,East Ashland Drive,27302,36.1043755,-79.2565851
104,Creeks Edge Court,27302,36.1024092,-79.2579055
623,Hunters Run,27302,36.1032434,-79.2582522
804,East Ashland Drive,27302,36.1044657,-79.2560166
705,Mt Ranier Drive,27302,36.1338600,-79.2570930
503,Everglades Drive,27302,36.1334821,-79.2594405
104,Yosimite Court,27302,36.1320222,-79.2562397
504,Everglades Drive,27302,36.1335193,-79.2585671
501,Everglades Drive,27302,36.1332246,-79.2594793
403,Great Smokey Mountain Drive,27302,36.1330705,-79.2583623
706,Mt Ranier Drive,27302,36.1343628,-79.2564533
804,East Stagecoach Road,27302,36.1075633,-79.2573771
624,East Stagecoach Road,27302,36.1075454,-79.2595008
808,East Stagecoach Road,27302,36.1075596,-79.2570261
1101,Lake Michael Way,27302,36.1052354,-79.2535334
1008,Lake Michael Way,27302,36.1046405,-79.2546905
906,Lake Michael Way,27302,36.1046451,-79.2552027
902,Lake Michael Way,27302,36.1046143,-79.2554037
601,Mattress Factory Road,27302,36.0829503,-79.2464841
808,Mattress Factory Road,27302,36.0815261,-79.2442780
705,Hunters Run,27302,36.1030653,-79.2578010
7707,US 70,27302,36.0938941,-79.2527124
401,East Center Street,27302,36.0945615,-79.2600007
710,Village Lake Drive,27302,36.1073477,-79.2539882
610,Oakfield Trail,27302,36.1057772,-79.2539760
607,East Brown Street,27302,36.0989120,-79.2589048
7417,US 70,27302,36.0924818,-79.2478609
380,Mockingbird Lane,27302,36.0959358,-79.2499258
610,Hunters Run,27302,36.1029572,-79.2592495
110,Deer Path Lane,27302,36.1036592,-79.2579122
701,East Ashland Drive,27302,36.1046720,-79.2581654
803,East Ashland Drive,27302,36.1048894,-79.2566306
702,Hunters Run,27302,36.1027064,-79.2581770
624,Hunters Run,27302,36.1027840,-79.2584413
703,East Ashland Drive,27302,36.1047294,-79.2578113
102,Shenandoah Way,27302,36.1318326,-79.2578764
408,Great Smokey Mountain Drive,27302,36.1322984,-79.2580984
106,Shenandoah Way,27302,36.1318514,-79.2571725
507,Great Smokey Mountain Drive,27302,36.1332223,-79.2554558
505,Great Smokey Mountain Drive,27302,36.1334768,-79.2556528
501,Great Smokey Mountain Drive,27302,36.1336438,-79.2563664
502,Everglades Drive,27302,36.1334244,-79.2588715
506,North Tenth Street,27302,36.1009868,-79.2583415
408,North Ninth Street,27302,36.1013753,-79.2598988
305,North Tenth Street,27302,36.0978819,-79.2590368
603,North Ninth Street,27302,36.1027498,-79.2598547
714,North Ninth Street,27302,36.1064653,-79.2599927
302,North Tenth Street,27302,36.0976494,-79.2585626
505,North Tenth Street,27302,36.1009683,-79.2589570
303,North Tenth Street,27302,36.0976283,-79.2590058
204,North Ninth Street,27302,36.0977963,-79.2600124
402,North Tenth Street,27302,36.0993740,-79.2584839
108,North Oakland Drive,27302,36.1058119,-79.2583849
141,Overland Drive,27302,36.1073515,-79.2579103
106,North Oakland Drive,27302,36.1055438,-79.2583500
104,North Oakland Drive,27302,36.1052763,-79.2582754
111,North Oakland Drive,27302,36.1063379,-79.2591426
120,Overland Court,27302,36.1069961,-79.2566848
621,Village Lake Drive,27302,36.1059584,-79.2557169
623,Village Lake Drive,27302,36.1060511,-79.2558853
603,Village Lake Drive,27302,36.1051301,-79.2555565
608,Village Lake Drive,27302,36.1053986,-79.2550853
612,Village Lake Drive,27302,36.1055308,-79.2551310
632,Village Lake Drive,27302,36.1064293,-79.2550620
618,Village Lake Drive,27302,36.1058569,-79.2551601
620,Village Lake Drive,27302,36.1059117,-79.2551633
707,Village Lake Drive,27302,36.1075605,-79.2543763
206,Green Pasture Road,27302,36.0994793,-79.2475770
302,Large Oak Lane,27302,36.0986214,-79.2501741
204,Green Pasture Road,27302,36.0995275,-79.2473244
314,Large Oak Lane,27302,36.0996933,-79.2498728
202,Ashbury Boulevard,27302,36.0956904,-79.2483963
303,Grove Hall Lane,27302,36.0991679,-79.2515636
302,Green Pasture Road,27302,36.0987601,-79.2485521
200,Ashbury Boulevard,27302,36.0960001,-79.2482552
208,Green Pasture Road,27302,36.0993835,-79.2477735
305,Grove Hall Lane,27302,36.0994426,-79.2515644
304,Grove Hall Lane,27302,36.0991418,-79.2508865
306,Pink Dogwood Lane,27302,36.0983002,-79.2472859
205,Goldfinch Court,27302,36.0972291,-79.2458711
804,Blue Lake Drive,27302,36.0997994,-79.2453232
507,Blue Lake Drive,27302,36.0979378,-79.2486150
114,Pink Dogwood Lane,27302,36.0996670,-79.2492182
708,Blue Lake Drive,27302,36.0980812,-79.2456029
500,Blue Lake Drive,27302,36.0978810,-79.2495287
211,Goldfinch Court,27302,36.0967075,-79.2457003
304,Large Oak Lane,27302,36.0987864,-79.2500731
307,Pink Dogwood Lane,27302,36.0987887,-79.2469361
311,Large Oak Lane,27302,36.0994450,-79.2504136
315,Large Oak Lane,27302,36.0998020,-79.2504486
316,Large Oak Lane,27302,36.0998855,-79.2499072
203,Goldfinch Court,27302,36.0973937,-79.2460070
605,Oakfield Trail,27302,36.1051706,-79.2541994
608,Blue Lake Drive,27302,36.0974749,-79.2465827
722,Blue Lake Drive,27302,36.0991656,-79.2453993
631,Oakfield Trail,27302,36.1064268,-79.2544853
622,Oakfield Trail,27302,36.1063014,-79.2539441
300,Blue Lake Drive,27302,36.0983989,-79.2514935
812,Blue Lake Drive,27302,36.1004077,-79.2452782
618,Oakfield Trail,27302,36.1061582,-79.2539650
602,Oakfield Trail,27302,36.1054054,-79.2538005
503,Blue Lake Drive,27302,36.0981293,-79.2489879
602,Blue Lake Drive,27302,36.0974735,-79.2472935
604,Oakfield Trail,27302,36.1054537,-79.2538499
816,Blue Lake Drive,27302,36.1006992,-79.2452244
806,Blue Lake Drive,27302,36.0999578,-79.2452925
715,Blue Lake Drive,27302,36.0988984,-79.2459762
605,Blue Lake Drive,27302,36.0979131,-79.2472610
605,Village Lake Drive,27302,36.1052014,-79.2557671
609,Village Lake Drive,27302,36.1054102,-79.2556306
641,Village Lake Drive,27302,36.1068295,-79.2553780
635,Village Lake Drive,27302,36.1065997,-79.2555389
639,Village Lake Drive,27302,36.1067459,-79.2554329
7411,Oakwood Street,27302,36.0802282,-79.2491500
610,Oakwood Street,27302,36.0892596,-79.2592376
7315,Oakwood Street,27302,36.0805112,-79.2468225
610,East Brown Street,27302,36.0985348,-79.2589780
701,East Brown Street,27302,36.0988096,-79.2584231
215,South Eleventh Street,27302,36.0917056,-79.2576702
275,South Eleventh Street,27302,36.0897632,-79.2576798
110,South Eleventh Street,27302,36.0925867,-79.2583484
275,South Eleventh Street,27302,36.0898605,-79.2576801
222,South Eleventh Street,27302,36.0903939,-79.2582940
277,South Eleventh Street,27302,36.0898763,-79.2566520
219,South Eleventh Street,27302,36.0916006,-79.2576698
218,South Eleventh Street,27302,36.0906606,-79.2582627
214,South Eleventh Street,27302,36.0909455,-79.2584550
105,North Oakland Drive,27302,36.1054811,-79.2590450
129,Overland Drive,27302,36.1066370,-79.2578321
133,Overland Drive,27302,36.1068595,-79.2578529
281,South Eleventh Street,27302,36.0891233,-79.2562688
279,South Eleventh Street,27302,36.0897219,-79.2560045
507,North Tenth Street,27302,36.1011969,-79.2589413
508,North Tenth Street,27302,36.1012249,-79.2583541
504,North Tenth Street,27302,36.1007674,-79.2583787
712,North Ninth Street,27302,36.1062103,-79.2599998
202,North Ninth Street,27302,36.0975188,-79.2599950
114,North Ninth Street,27302,36.0961267,-79.2598180
406,North Ninth Street,27302,36.1011953,-79.2599066
702,North Ninth Street,27302,36.1047183,-79.2599569
307,North Tenth Street,27302,36.0981993,-79.2590249
106,North Ninth Street,27302,36.0950210,-79.2600905
110,North Ninth Street,27302,36.0955120,-79.2601814
400,North Tenth Street,27302,36.0990916,-79.2583758
312,North Ninth Street,27302,36.1002582,-79.2599070
118,North Ninth Street,27302,36.0965838,-79.2598926
601,North Ninth Street,27302,36.1023527,-79.2598544
108,Overland Court,27302,36.1063715,-79.2568894
277,South Eleventh Street,27302,36.0898881,-79.2570080
277,South Eleventh Street,27302,36.0898711,-79.2567572
112,South Eleventh Street,27302,36.0924421,-79.2583343
108,South Eleventh Street,27302,36.0927545,-79.2583543
609,East Green Street,27302,36.1019568,-79.2593929
226,South Eleventh Street,27302,36.0901676,-79.2582785
279,South Eleventh Street,27302,36.0897318,-79.2560602
283,South Eleventh Street,27302,36.0891872,-79.2569718
277,South Eleventh Street,27302,36.0898959,-79.2568997
211,South Eleventh Street,27302,36.0918653,-79.2576758
275,South Eleventh Street,27302,36.0896883,-79.2576671
277,South Eleventh Street,27302,36.0898532,-79.2568903
275,South Eleventh Street,27302,36.0897469,-79.2577197
221,South Eleventh Street,27302,36.0915586,-79.2576697
279,South Eleventh Street,27302,36.0898148,-79.2560295
106,Deer Path Lane,27302,36.1033984,-79.2575190
607,Hunters Run,27302,36.1034981,-79.2593050
608,East Ashland Drive,27302,36.1040217,-79.2586019
808,Hunters Run,27302,36.1027920,-79.2562207
717,Hunters Run,27302,36.1032994,-79.2568964
114,Fawn Circle,27302,36.1034843,-79.2571090
112,Fawn Circle,27302,36.1037684,-79.2570821
718,Hunters Run,27302,36.1026805,-79.2567236
605,East Ashland Drive,27302,36.1045307,-79.2590703
603,East Brown Street,27302,36.0989881,-79.2593281
503,Lebanon Road,27302,36.1033227,-79.2557548
603,Lebanon Road,27302,36.1052137,-79.2562789
7310,Lebanon Road,27302,36.1084660,-79.2521000
649,Mattress Factory Road,27302,36.0840193,-79.2441383
501,East Graham Street,27302,36.0972632,-79.2599975
503,East Graham Street,27302,36.0974075,-79.2594092
504,East Graham Street,27302,36.0965372,-79.2585009
506,East Webb Street,27302,36.0888997,-79.2610277
414,Mourning Dove Court,27302,36.1006644,-79.2461946
421,Mourning Dove Court,27302,36.1011511,-79.2466466
408,Mourning Dove Court,27302,36.1001732,-79.2462113
505,East Graham Street,27302,36.0974134,-79.2590678
123,Bobwhite Way,27302,36.0947067,-79.2514734
104,Bobwhite Way,27302,36.0958763,-79.2509826
103,Bobwhite Way,27302,36.0956412,-79.2504922
417,Mourning Dove Court,27302,36.1008850,-79.2467368
1107,Lake Michael Way,27302,36.1052336,-79.2532806
1004,Lake Michael Way,27302,36.1046534,-79.2548729
904,Lake Michael Way,27302,36.1046297,-79.2553125
1001,Lake Michael Way,27302,36.1050894,-79.2550126
705,Ashbury Square,27302,36.0954452,-79.2471705
810,Ashbury Square,27302,36.0954464,-79.2475957
511,Lebanon Road,27302,36.1039577,-79.2559682
7717,Lebanon Road,27302,36.1023281,-79.2563578
523,Ashbury Square,27302,36.0950397,-79.2462570
215,Ashbury Square,27302,36.0946635,-79.2474307
106,Ashbury Square,27302,36.0947882,-79.2477515
505,Ashbury Square,27302,36.0950667,-79.2463302
504,Ashbury Square,27302,36.0949569,-79.2463956
805,Ashbury Square,27302,36.0952918,-79.2474366
724,Ashbury Square,27302,36.0955177,-79.2471311
222,Ashbury Square,27302,36.0946718,-79.2475647
626,Ashbury Square,27302,36.0956216,-79.2463390
815,Ashbury Square,27302,36.0953058,-79.2474837
303,Ashbury Square,27302,36.0945526,-79.2470308
615,Ashbury Square,27302,36.0952533,-79.2465824
701,Mattress Factory Road,27302,36.0818054,-79.2461924
216,Ashbury Square,27302,36.0946458,-79.2473649
313,Ashbury Square,27302,36.0945406,-79.2469982
311,Ashbury Square,27302,36.0943953,-79.2470770
623,Ashbury Square,27302,36.0952805,-79.2465652
403,Ashbury Square,27302,36.0944242,-79.2466456
418,Ashbury Square,27302,36.0945928,-79.2463610
221,Ashbury Square,27302,36.0946317,-79.2475822
824,Ashbury Square,27302,36.0953408,-79.2475693
517,Ashbury Square,27302,36.0950740,-79.2461939
206,Ashbury Square,27302,36.0946349,-79.2473223
102,Ashbury Square,27302,36.0950600,-79.2476872
720,Ashbury Square,27302,36.0955019,-79.2469984
617,Ashbury Square,27302,36.0953297,-79.2465975
513,Ashbury Square,27302,36.0949136,-79.2463979
713,Ashbury Square,27302,36.0953571,-79.2469905
521,Ashbury Square,27302,36.0949179,-79.2462839
419,Ashbury Square,27302,36.0945404,-79.2464042
108,Ashbury Square,27302,36.0948279,-79.2479053
709,Ashbury Square,27302,36.0955701,-79.2471065
309,Ashbury Square,27302,36.0943559,-79.2469080
324,Ashbury Square,27302,36.0944035,-79.2468773
702,Ashbury Square,27302,36.0954085,-79.2469337
218,Ashbury Square,27302,36.0945277,-79.2474347
506,Ashbury Square,27302,36.0951221,-79.2462598
611,Ashbury Square,27302,36.0953131,-79.2463285
624,Ashbury Square,27302,36.0953117,-79.2465367
304,Ashbury Square,27302,36.0945574,-79.2469375
809,Ashbury Square,27302,36.0953658,-79.2476376
620,Ashbury Square,27302,36.0953130,-79.2463831
710,Ashbury Square,27302,36.0955220,-79.2469886
308,Ashbury Square,27302,36.0943337,-79.2468253
619,Ashbury Square,27302,36.0952566,-79.2464188
109,Ashbury Square,27302,36.0949085,-79.2478772
522,Ashbury Square,27302,36.0949309,-79.2463224
209,Ashbury Square,27302,36.0945031,-79.2475008
226,Ashbury Square,27302,36.0942994,-79.2478116
207,Ashbury Square,27302,36.0945787,-79.2473540
318,Ashbury Square,27302,36.0943451,-79.2468585
407,Ashbury Square,27302,36.0946480,-79.2464294
390,Mockingbird Lane,27302,36.0963902,-79.2504807
106,Kestrel Court,27302,36.0952771,-79.2502670
115,Kestrel Court,27302,36.0946925,-79.2500850
117,Kestrel Court,27302,36.0946632,-79.2506983
510,East Webb Street,27302,36.0890404,-79.2602133
401,Mourning Dove Court,27302,36.0995930,-79.2467928
406,Mourning Dove Court,27302,36.1000254,-79.2462336
420,Mourning Dove Court,27302,36.1011299,-79.2461732
127,Bobwhite Way,27302,36.0944587,-79.2515357
106,Bobwhite Way,27302,36.0957542,-79.2510452
133,Bobwhite Way,27302,36.0941121,-79.2517333
117,Bobwhite Way,27302,36.0949985,-79.2511689
137,Bobwhite Way,27302,36.0939424,-79.2519994
101,Starling Street,27302,36.0963322,-79.2510467
113,Bobwhite Way,27302,36.0951603,-79.2509319
121,Bobwhite Way,27302,36.0948250,-79.2513817
402,Mourning Dove Court,27302,36.0997223,-79.2463191
300,Large Oak Lane,27302,36.0984956,-79.2502607
315,Ashbury Square,27302,36.0944911,-79.2468342
804,Ashbury Square,27302,36.0953743,-79.2473984
811,Ashbury Square,27302,36.0955139,-79.2475550
806,Ashbury Square,27302,36.0952333,-79.2475145
421,Ashbury Square,27302,36.0944537,-79.2465019
220,Ashbury Square,27302,36.0945931,-79.2476015
223,Ashbury Square,27302,36.0946363,-79.2474465
101,Ashbury Square,27302,36.0950843,-79.2477532
618,Ashbury Square,27302,36.0953981,-79.2466027
416,Ashbury Square,27302,36.0944827,-79.2465937
801,Ashbury Square,27302,36.0955501,-79.2475353
302,Ashbury Square,27302,36.0944844,-79.2470663
401,Ashbury Square,27302,36.0943863,-79.2464819
703,Ashbury Square,27302,36.0953471,-79.2469595
217,Ashbury Square,27302,36.0945955,-79.2473986
614,Ashbury Square,27302,36.0952314,-79.2464336
404,Ashbury Square,27302,36.0944937,-79.2466334
822,Ashbury Square,27302,36.0954054,-79.2474791
208,Ashbury Square,27302,36.0945143,-79.2473873
111,Ashbury Square,27302,36.0950523,-79.2477675
402,Ashbury Square,27302,36.0944053,-79.2465699
711,Ashbury Square,27302,36.0954980,-79.2469216
524,Ashbury Square,27302,36.0950267,-79.2462148
604,Ashbury Square,27302,36.0952002,-79.2464496
317,Ashbury Square,27302,36.0944103,-79.2468089
410,Ashbury Square,27302,36.0944297,-79.2464299
409,Ashbury Square,27302,36.0945264,-79.2463683
814,Ashbury Square,27302,36.0953904,-79.2474381
212,Ashbury Square,27302,36.0946431,-79.2476541
312,Ashbury Square,27302,36.0944723,-79.2470327
103,Ashbury Square,27302,36.0950286,-79.2475986
708,Ashbury Square,27302,36.0955951,-79.2472008
386,Mockingbird Lane,27302,36.0961684,-79.2502718
388,Mockingbird Lane,27302,36.0962636,-79.2503867
382,Mockingbird Lane,27302,36.0960069,-79.2500568
114,Kestrel Court,27302,36.0949153,-79.2506569
384,Mockingbird Lane,27302,36.0960877,-79.2501657
307,Grove Hall Lane,27302,36.0995530,-79.2513278
203,Green Pasture Road,27302,36.0991495,-79.2471246
202,Green Pasture Road,27302,36.0995852,-79.2470954
107,Green Pasture Road,27302,36.0992203,-79.2465940
308,Large Oak Lane,27302,36.0991164,-79.2499048
306,Green Pasture Road,27302,36.0983926,-79.2485900
305,Green Pasture Road,27302,36.0982540,-79.2482070
301,Blue Lake Drive,27302,36.0987567,-79.2511561
308,Grove Hall Lane,27302,36.0996087,-79.2509557
103,Green Pasture Road,27302,36.0991893,-79.2462269
201,Pink Dogwood Lane,27302,36.0995780,-79.2484282
822,Blue Lake Drive,27302,36.1011810,-79.2451010
402,Blue Lake Drive,27302,36.0980171,-79.2501384
300,Five Pine Court,27302,36.0983099,-79.2492930
101,Blue Lake Drive,27302,36.0994750,-79.2519982
504,Blue Lake Drive,27302,36.0976895,-79.2491558
710,Blue Lake Drive,27302,36.0982462,-79.2455357
502,Blue Lake Drive,27302,36.0977715,-79.2493591
301,Large Oak Lane,27302,36.0985926,-79.2507833
203,Pink Dogwood Lane,27302,36.0994360,-79.2482124
304,Pink Dogwood Lane,27302,36.0983630,-79.2475360
402,Five Pine Court,27302,36.0997922,-79.2481577
310,Five Pine Court,27302,36.0990911,-79.2488216
305,Pink Dogwood Lane,27302,36.0987439,-79.2471702
110,Pink Dogwood Lane,27302,36.0999774,-79.2494027
208,Goldfinch Court,27302,36.0966514,-79.2462755
406,Five Pine Court,27302,36.1001745,-79.2479754
412,Five Pine Court,27302,36.1007830,-79.2479852
303,Five Pine Court,27302,36.0985675,-79.2496662
627,Oakfield Trail,27302,36.1061916,-79.2544580
620,Oakfield Trail,27302,36.1062198,-79.2539669
612,Oakfield Trail,27302,36.1058247,-79.2539869
801,Blue Lake Drive,27302,36.0995257,-79.2459079
615,Oakfield Trail,27302,36.1056439,-79.2544960
510,Blue Lake Drive,27302,36.0974435,-79.2485119
607,Blue Lake Drive,27302,36.0979134,-79.2470917
624,Oakfield Trail,27302,36.1064847,-79.2539701
714,Blue Lake Drive,27302,36.0985485,-79.2454690
400,Blue Lake Drive,27302,36.0980714,-79.2504432
606,Blue Lake Drive,27302,36.0974469,-79.2468534
809,Blue Lake Drive,27302,36.1001215,-79.2458316
601,Oakfield Trail,27302,36.1050486,-79.2540907
601,Blue Lake Drive,27302,36.0978848,-79.2476671
206,Blue Lake Drive,27302,36.0985355,-79.2518324
204,Blue Lake Drive,27302,36.0986723,-79.2521036
633,Oakfield Trail,27302,36.1064854,-79.2545012
631,Village Lake Drive,27302,36.1064147,-79.2556155
637,Village Lake Drive,27302,36.1066832,-79.2554841
607,Village Lake Drive,27302,36.1053268,-79.2556047
625,Village Lake Drive,27302,36.1061671,-79.2556955
7718,Lebanon Road,27302,36.1020066,-79.2564252
605,Lebanon Road,27302,36.1054544,-79.2563529
7719,Lebanon Road,27302,36.1020120,-79.2559418
7300,Lebanon Road,27302,36.1067848,-79.2492055
507,Lebanon Road,27302,36.1035698,-79.2558429
607,Lebanon Road,27302,36.1057436,-79.2564449
303,Green Pasture Road,27302,36.0984064,-79.2480435
305,Large Oak Lane,27302,36.0989502,-79.2505813
307,Large Oak Lane,27302,36.0991151,-79.2505141
302,Grove Hall Lane,27302,36.0989492,-79.2510552
201,Green Pasture Road,27302,36.0992135,-79.2468047
306,Grove Hall Lane,27302,36.0994167,-79.2507858
307,Green Pasture Road,27302,36.0982725,-79.2484257
301,Five Pine Court,27302,36.0984084,-79.2497543
308,Five Pine Court,27302,36.0989261,-79.2489227
207,Pink Dogwood Lane,27302,36.0991758,-79.2479169
202,Pink Dogwood Lane,27302,36.0990600,-79.2484745
313,Pink Dogwood Lane,27302,36.0985047,-79.2464122
304,Blue Lake Drive,27302,36.0982351,-79.2509852
403,Five Pine Court,27302,36.1000180,-79.2485173
403,Blue Lake Drive,27302,36.0984776,-79.2498463
310,Pink Dogwood Lane,27302,36.0982885,-79.2468019
207,Goldfinch Court,27302,36.0970921,-79.2457015
204,Goldfinch Court,27302,36.0970358,-79.2464121
306,Five Pine Court,27302,36.0987611,-79.2490237
206,Goldfinch Court,27302,36.0968710,-79.2463777
410,Five Pine Court,27302,36.1005629,-79.2479845
414,Five Pine Court,27302,36.1009316,-79.2481452
204,Pink Dogwood Lane,27302,36.0989050,-79.2483065
312,Pink Dogwood Lane,27302,36.0983397,-79.2465600
303,Pink Dogwood Lane,27302,36.0987751,-79.2473967
306,Large Oak Lane,27302,36.0989514,-79.2499720
312,Large Oak Lane,27302,36.0995010,-79.2498722
626,Oakfield Trail,27302,36.1065372,-79.2540044
609,Oakfield Trail,27302,36.1052827,-79.2543142
712,Blue Lake Drive,27302,36.0983836,-79.2455023
820,Blue Lake Drive,27302,36.1010161,-79.2451942
802,Blue Lake Drive,27302,36.0996536,-79.2453306
720,Blue Lake Drive,27302,36.0990136,-79.2454067
702,Blue Lake Drive,27302,36.0976959,-79.2459741
814,Blue Lake Drive,27302,36.1005598,-79.2452552
608,Oakfield Trail,27302,36.1056999,-79.2539800
817,Blue Lake Drive,27302,36.1007742,-79.2457634
821,Blue Lake Drive,27302,36.1010909,-79.2457877
818,Blue Lake Drive,27302,36.1008576,-79.2452249
703,Blue Lake Drive,27302,36.0980249,-79.2463136
200,Blue Lake Drive,27302,36.0990732,-79.2524299
716,Blue Lake Drive,27302,36.0986858,-79.2454694
611,Blue Lake Drive,27302,36.0978961,-79.2466565
604,Blue Lake Drive,27302,36.0974739,-79.2470904
600,Blue Lake Drive,27302,36.0974730,-79.2475304
713,Blue Lake Drive,27302,36.0987397,-79.2460111
512,Blue Lake Drive,27302,36.0973891,-79.2482748
508,Blue Lake Drive,27302,36.0975255,-79.2487491
619,Village Lake Drive,27302,36.1058750,-79.2557092
643,Village Lake Drive,27302,36.1069723,-79.2554710
705,Village Lake Drive,27302,36.1075328,-79.2547042
601,Village Lake Drive,27302,36.1050323,-79.2555240
415,East Center Street,27302,36.0942488,-79.2584026
702,Village Lake Drive,27302,36.1070088,-79.2542758
709,Village Lake Drive,27302,36.1075341,-79.2542724
628,Village Lake Drive,27302,36.1063053,-79.2551034
624,Village Lake Drive,27302,36.1060571,-79.2551667
640,Village Lake Drive,27302,36.1067567,-79.2547328
622,Village Lake Drive,27302,36.1059737,-79.2551664
812,East Stagecoach Road,27302,36.1075521,-79.2566477
1103,Lake Michael Way,27302,36.1051650,-79.2534930
1006,Lake Michael Way,27302,36.1046516,-79.2547957
1005,Lake Michael Way,27302,36.1059150,-79.2548903
703,Village Lake Drive,27302,36.1073307,-79.2547265
630,Village Lake Drive,27302,36.1063697,-79.2550801
700,Village Lake Drive,27302,36.1069819,-79.2543795
606,Village Lake Drive,27302,36.1053316,-79.2550724
614,Village Lake Drive,27302,36.1056031,-79.2551504
616,Oakfield Trail,27302,36.1060827,-79.2539743
1105,Lake Michael Way,27302,36.1052014,-79.2533828
150,Ashbury Boulevard,27302,36.0936468,-79.2482421
7314,Lebanon Road,27302,36.1077374,-79.2516405
610,Village Lake Drive,27302,36.1054676,-79.2551109
628,East Stagecoach Road,27302,36.1075485,-79.2591681
612,Oakwood Street,27302,36.0889659,-79.2593593
7407,Oakwood Street,27302,36.0799891,-79.2490861
7723,Oakwood Street,27302,36.0803537,-79.2533686
612,Oakwood Street,27302,36.0889526,-79.2594496
612,Oakwood Street,27302,36.0889314,-79.2595367
610,Oakwood Street,27302,36.0892435,-79.2594151
614,Oakwood Street,27302,36.0888989,-79.2588297
614,Oakwood Street,27302,36.0888856,-79.2589103
610,Oakwood Street,27302,36.0892729,-79.2591472
411,Great Smokey Mountain Drive,27302,36.1334153,-79.2573413
100,Shenandoah Way,27302,36.1320899,-79.2580629
401,Great Smokey Mountain Drive,27302,36.1330330,-79.2586805
503,Great Smokey Mountain Drive,27302,36.1337066,-79.2559065
104,Acadia Court,27302,36.1316230,-79.2586702
405,Great Smokey Mountain Drive,27302,36.1331938,-79.2581506
516,Everglades Drive,27302,36.1341088,-79.2570688
500,Everglades Drive,27302,36.1331415,-79.2590744
701,Mt Ranier Drive,27302,36.1334590,-79.2567189
413,Great Smokey Mountain Drive,27302,36.1334166,-79.2569694
608,Everglades Drive,27302,36.1346530,-79.2554184
106,Yosimite Court,27302,36.1320143,-79.2558880
105,Yosimite Court,27302,36.1321081,-79.2555297
102,Yosimite Court,27302,36.1323141,-79.2563452
100,Acadia Court,27302,36.1318807,-79.2590989
510,Everglades Drive,27302,36.1337769,-79.2578259
406,Great Smokey Mountain Drive,27302,36.1321146,-79.2585479
7415,Oakwood Street,27302,36.0806815,-79.2492539
1013,Oakwood Street,27302,36.0813713,-79.2570386
653,Mattress Factory Road,27302,36.0836694,-79.2437738
7545,Old Sourwood Trail,27302,36.1236768,-79.2591605
118,Campaign Drive,27302,36.0634679,-79.2612114
114,Campaign Drive,27302,36.0630899,-79.2612487
304,Wallington Court,27302,36.0702800,-79.2581232
300,Wallington Court,27302,36.0706439,-79.2579633
305,Wallington Court,27302,36.0703476,-79.2574343
309,Wallington Court,27302,36.0699959,-79.2574758
306,Wallington Court,27302,36.0701048,-79.2580698
303,Wallington Court,27302,36.0705340,-79.2574969
310,Sutton Place,27302,36.0705004,-79.2623890
303,Sutton Place,27302,36.0705574,-79.2616714
401,Sutton Place,27302,36.0700245,-79.2623065
301,Wallington Court,27302,36.0706463,-79.2576877
308,Wallington Court,27302,36.0699351,-79.2580934
641,Hastings Road,27302,36.0692598,-79.2587094
626,Hastings Road,27302,36.0694896,-79.2600228
619,Hastings Road,27302,36.0701344,-79.2605046
610,Hastings Road,27302,36.0696155,-79.2613982
637,Hastings Road,27302,36.0693941,-79.2590521
634,Hastings Road,27302,36.0691252,-79.2594416
644,Hastings Road,27302,36.0687649,-79.2586331
633,Hastings Road,27302,36.0695951,-79.2593009
636,Hastings Road,27302,36.0690120,-79.2593256
201,Haywards Lane,27302,36.0706470,-79.2594631
217,Haywards Lane,27302,36.0705578,-79.2609081
206,Haywards Lane,27302,36.0715387,-79.2602872
208,Haywards Lane,27302,36.0715445,-79.2604745
120,Tadworth Court,27302,36.0720594,-79.2601475
219,Haywards Lane,27302,36.0705709,-79.2611568
221,Haywards Lane,27302,36.0706543,-79.2613313
110,Bray Drive,27302,36.0714084,-79.2584241
122,Campaign Drive,27302,36.0638123,-79.2611578
618,Hastings Road,27302,36.0696487,-79.2606247
625,Hastings Road,27302,36.0699836,-79.2598437
614,Hastings Road,27302,36.0696479,-79.2610149
643,Hastings Road,27302,36.0692113,-79.2585188
209,Haywards Lane,27302,36.0706023,-79.2601421
211,Haywards Lane,27302,36.0705838,-79.2603856
113,Tadworth Court,27302,36.0723459,-79.2609573
106,Bray Drive,27302,36.0714410,-79.2580507
117,Bray Drive,27302,36.0709280,-79.2589276
104,Bray Drive,27302,36.0714472,-79.2578622
100,Bray Drive,27302,36.0714711,-79.2574568
218,Haywards Lane,27302,36.0712575,-79.2614827
101,Bray Drive,27302,36.0710352,-79.2573949
905,Collington Drive,27302,36.0697013,-79.2586898
906,Collington Drive,27302,36.0702723,-79.2585003
904,Collington Drive,27302,36.0700577,-79.2585305
909,Collington Drive,27302,36.0698539,-79.2589795
912,Collington Drive,27302,36.0706038,-79.2590815
812,Collington Drive,27302,36.0696571,-79.2575569
702,Collington Drive,27302,36.0681031,-79.2584381
628,Collington Drive,27302,36.0686827,-79.2609423
637,Collington Drive,27302,36.0688991,-79.2598208
700,Collington Drive,27302,36.0680654,-79.2587615
638,Collington Drive,27302,36.0683939,-79.2599613
645,Collington Drive,27302,36.0684660,-79.2590491
635,Collington Drive,27302,36.0690189,-79.2599900
210,Collington Drive,27302,36.0733280,-79.2594259
203,Collington Drive,27302,36.0730013,-79.2587286
1009,Collington Drive,27302,36.0721559,-79.2597356
204,Collington Drive,27302,36.0733841,-79.2589162
206,Collington Drive,27302,36.0733521,-79.2590850
1008,Collington Drive,27302,36.0720345,-79.2591466
1014,Collington Drive,27302,36.0724729,-79.2592627
1015,Collington Drive,27302,36.0725648,-79.2598196
318,Collington Drive,27302,36.0733541,-79.2615928
320,Collington Drive,27302,36.0733931,-79.2617774
604,Collington Drive,27302,36.0693928,-79.2633375
612,Collington Drive,27302,36.0688345,-79.2626657
513,Collington Drive,27302,36.0707338,-79.2629535
312,Collington Drive,27302,36.0732684,-79.2610875
502,Collington Drive,27302,36.0715926,-79.2631699
403,Collington Drive,27302,36.0727782,-79.2617657
309,Collington Drive,27302,36.0727256,-79.2605614
210,Norwood Court,27302,36.0722932,-79.2585643
209,Norwood Court,27302,36.0724289,-79.2581022
217,Norwood Court,27302,36.0718081,-79.2581085
204,Norwood Court,27302,36.0727535,-79.2585408
208,Norwood Court,27302,36.0724292,-79.2585486
105,Norwood Court,27302,36.0745582,-79.2586217
107,Norwood Court,27302,36.0744210,-79.2585533
103,Norwood Court,27302,36.0746604,-79.2587399
109,Norwood Court,27302,36.0743025,-79.2584315
302,Wallington Court,27302,36.0704676,-79.2581098
623,Hastings Road,27302,36.0700587,-79.2600247
608,Hastings Road,27302,36.0696137,-79.2616211
613,Hastings Road,27302,36.0701001,-79.2611633
627,Hastings Road,27302,36.0698866,-79.2596930
640,Hastings Road,27302,36.0688660,-79.2589829
632,Hastings Road,27302,36.0692110,-79.2595817
223,Haywards Lane,27302,36.0707654,-79.2614239
204,Haywards Lane,27302,36.0715954,-79.2601570
105,Bray Drive,27302,36.0709997,-79.2578110
116,Bray Drive,27302,36.0713755,-79.2589967
112,Bray Drive,27302,36.0713994,-79.2585912
802,Collington Drive,27302,36.0689153,-79.2576515
708,Collington Drive,27302,36.0685061,-79.2579939
627,Collington Drive,27302,36.0692140,-79.2609529
642,Collington Drive,27302,36.0681807,-79.2596290
625,Collington Drive,27302,36.0691919,-79.2611749
629,Collington Drive,27302,36.0692168,-79.2607338
704,Collington Drive,27302,36.0682052,-79.2582833
641,Collington Drive,27302,36.0686450,-79.2594824
626,Collington Drive,27302,36.0686679,-79.2611110
622,Collington Drive,27302,36.0686022,-79.2615194
207,Collington Drive,27302,36.0729332,-79.2590986
208,Collington Drive,27302,36.0733296,-79.2592394
1011,Collington Drive,27302,36.0722829,-79.2597557
200,Collington Drive,27302,36.0734333,-79.2585752
305,Collington Drive,27302,36.0727528,-79.2602266
304,Collington Drive,27302,36.0731351,-79.2603475
212,Collington Drive,27302,36.0732636,-79.2595807
300,Collington Drive,27302,36.0731874,-79.2600017
100,Crawley Court,27302,36.0740798,-79.2599228
102,Tadworth Court,27302,36.0716311,-79.2621911
103,Tadworth Court,27302,36.0721235,-79.2621151
108,Tadworth Court,27302,36.0717127,-79.2615076
104,Tadworth Court,27302,36.0716316,-79.2619655
119,Tadworth Court,27302,36.0722764,-79.2601559
211,Collington Drive,27302,36.0729013,-79.2594649
514,Collington Drive,27302,36.0705305,-79.2634691
501,Collington Drive,27302,36.0717019,-79.2625097
608,Collington Drive,27302,36.0691332,-79.2630745
503,Collington Drive,27302,36.0715388,-79.2625288
417,Collington Drive,27302,36.0722326,-79.2625020
405,Collington Drive,27302,36.0726650,-79.2619455
311,Collington Drive,27302,36.0727567,-79.2607751
614,Collington Drive,27302,36.0687798,-79.2624227
306,Collington Drive,27302,36.0731347,-79.2605451
416,Collington Drive,27302,36.0723181,-79.2630946
507,Southwick Place,27302,36.0674696,-79.2586639
503,Southwick Place,27302,36.0678211,-79.2587242
214,Haywards Lane,27302,36.0714751,-79.2610196
118,Tadworth Court,27302,36.0719143,-79.2603151
113,Bray Drive,27302,36.0709606,-79.2585436
117,Tadworth Court,27302,36.0724132,-79.2604101
202,Haywards Lane,27302,36.0716015,-79.2599863
107,Tadworth Court,27302,36.0721587,-79.2615695
102,Bray Drive,27302,36.0714563,-79.2576488
911,Collington Drive,27302,36.0699435,-79.2591274
807,Collington Drive,27302,36.0695112,-79.2580719
804,Collington Drive,27302,36.0690371,-79.2575608
917,Collington Drive,27302,36.0702507,-79.2595325
810,Collington Drive,27302,36.0694999,-79.2574859
803,Collington Drive,27302,36.0692130,-79.2581468
910,Collington Drive,27302,36.0706086,-79.2588237
639,Collington Drive,27302,36.0687696,-79.2596368
633,Collington Drive,27302,36.0691170,-79.2602005
710,Collington Drive,27302,36.0686468,-79.2578949
636,Collington Drive,27302,36.0684946,-79.2601245
706,Collington Drive,27302,36.0683444,-79.2581028
801,Collington Drive,27302,36.0690545,-79.2582359
303,Collington Drive,27302,36.0728028,-79.2600512
106,Crawley Court,27302,36.0735100,-79.2600730
102,Crawley Court,27302,36.0738801,-79.2601077
109,Tadworth Court,27302,36.0722201,-79.2613773
110,Tadworth Court,27302,36.0718105,-79.2612682
1010,Collington Drive,27302,36.0721984,-79.2591690
301,Collington Drive,27302,36.0727819,-79.2598312
600,Collington Drive,27302,36.0698458,-79.2634350
400,Collington Drive,27302,36.0733922,-79.2621756
611,Collington Drive,27302,36.0693080,-79.2624245
507,Collington Drive,27302,36.0712074,-79.2627025
322,Collington Drive,27302,36.0733848,-79.2619716
602,Collington Drive,27302,36.0696132,-79.2634742
511,Collington Drive,27302,36.0709074,-79.2628958
506,Collington Drive,27302,36.0712689,-79.2634019
508,Collington Drive,27302,36.0710952,-79.2635082
607,Collington Drive,27302,36.0694259,-79.2625899
407,Collington Drive,27302,36.0725014,-79.2621629
315,Collington Drive,27302,36.0728346,-79.2611157
308,Collington Drive,27302,36.0732061,-79.2607474
213,Norwood Court,27302,36.0721217,-79.2579470
113,Norwood Court,27302,36.0739993,-79.2582859
121,Norwood Court,27302,36.0734570,-79.2581553
101,Norwood Court,27302,36.0746657,-79.2589415
117,Norwood Court,27302,36.0737276,-79.2582145
110,Norwood Court,27302,36.0740466,-79.2587923
404,Sutton Place,27302,36.0702525,-79.2629291
400,Sutton Place,27302,36.0703953,-79.2625486
306,Sutton Place,27302,36.0708868,-79.2622795
302,Sutton Place,27302,36.0709897,-79.2617889
402,Sutton Place,27302,36.0702939,-79.2627726
112,Campaign Drive,27302,36.0628308,-79.2612904
203,Norwood Court,27302,36.0729715,-79.2580628
206,Norwood Court,27302,36.0725794,-79.2585682
216,Norwood Court,27302,36.0718334,-79.2583419
111,Norwood Court,27302,36.0741446,-79.2583334
115,Norwood Court,27302,36.0738658,-79.2582561
106,Norwood Court,27302,36.0741906,-79.2590190
119,Norwood Court,27302,36.0735941,-79.2581642
114,Norwood Court,27302,36.0739060,-79.2587449
102,Norwood Court,27302,36.0744255,-79.2591472
304,Sutton Place,27302,36.0709876,-79.2620777
405,Sutton Place,27302,36.0698648,-79.2626919
307,Sutton Place,27302,36.0703301,-79.2618951
502,Southwick Place,27302,36.0679037,-79.2592964
505,Southwick Place,27302,36.0676426,-79.2587412
300,Sutton Place,27302,36.0711034,-79.2615937
407,Sutton Place,27302,36.0698294,-79.2628988
309,Sutton Place,27302,36.0702689,-79.2620200
308,Sutton Place,27302,36.0707151,-79.2623788
403,Sutton Place,27302,36.0699210,-79.2625018
305,Sutton Place,27302,36.0704334,-79.2617686
120,Campaign Drive,27302,36.0636345,-79.2611892
116,Campaign Drive,27302,36.0632954,-79.2612388
207,Norwood Court,27302,36.0726329,-79.2580455
215,Norwood Court,27302,36.0719436,-79.2579249
635,Hastings Road,27302,36.0694956,-79.2591681
631,Hastings Road,27302,36.0696613,-79.2594433
616,Hastings Road,27302,36.0696456,-79.2608121
615,Hastings Road,27302,36.0701075,-79.2609336
639,Hastings Road,27302,36.0693103,-79.2588807
629,Hastings Road,27302,36.0697648,-79.2595642
617,Hastings Road,27302,36.0701203,-79.2607242
638,Hastings Road,27302,36.0689302,-79.2591397
620,Hastings Road,27302,36.0696219,-79.2603543
605,Hastings Road,27302,36.0700656,-79.2615926
203,Haywards Lane,27302,36.0706509,-79.2596265
205,Haywards Lane,27302,36.0706279,-79.2597909
207,Haywards Lane,27302,36.0706000,-79.2599583
215,Haywards Lane,27302,36.0705578,-79.2607275
106,Tadworth Court,27302,36.0716779,-79.2617140
118,Bray Drive,27302,36.0713548,-79.2592029
109,Bray Drive,27302,36.0709699,-79.2582128
115,Tadworth Court,27302,36.0723272,-79.2607157
107,Bray Drive,27302,36.0709848,-79.2580208
114,Tadworth Court,27302,36.0719258,-79.2608597
210,Haywards Lane,27302,36.0715625,-79.2606655
114,Bray Drive,27302,36.0713875,-79.2587833
212,Haywards Lane,27302,36.0715506,-79.2608469
115,Bray Drive,27302,36.0709457,-79.2587427
108,Bray Drive,27302,36.0714203,-79.2582605
908,Collington Drive,27302,36.0705262,-79.2585232
903,Collington Drive,27302,36.0696318,-79.2585091
808,Collington Drive,27302,36.0693569,-79.2574473
806,Collington Drive,27302,36.0691779,-79.2574878
805,Collington Drive,27302,36.0693496,-79.2580981
630,Collington Drive,27302,36.0687049,-79.2607025
624,Collington Drive,27302,36.0686242,-79.2613211
621,Collington Drive,27302,36.0691477,-79.2615715
644,Collington Drive,27302,36.0680777,-79.2594077
634,Collington Drive,27302,36.0686048,-79.2603054
800,Collington Drive,27302,36.0687860,-79.2577621
209,Collington Drive,27302,36.0729223,-79.2592688
201,Collington Drive,27302,36.0730615,-79.2585225
101,Collington Drive,27302,36.0731332,-79.2581354
307,Collington Drive,27302,36.0727333,-79.2603965
506,Southwick Place,27302,36.0675316,-79.2592309
311,Wallington Court,27302,36.0698217,-79.2575251
307,Wallington Court,27302,36.0701713,-79.2574792
609,Hastings Road,27302,36.0700791,-79.2613693
646,Hastings Road,27302,36.0687125,-79.2584329
630,Hastings Road,27302,36.0693144,-79.2597314
628,Hastings Road,27302,36.0694139,-79.2598764
642,Hastings Road,27302,36.0688155,-79.2588044
624,Hastings Road,27302,36.0695605,-79.2601920
612,Hastings Road,27302,36.0696296,-79.2612276
621,Hastings Road,27302,36.0701090,-79.2602106
213,Haywards Lane,27302,36.0705829,-79.2605547
111,Tadworth Court,27302,36.0722984,-79.2611921
111,Bray Drive,27302,36.0709667,-79.2583835
103,Bray Drive,27302,36.0710261,-79.2576083
119,Bray Drive,27302,36.0709102,-79.2591624
216,Haywards Lane,27302,36.0713993,-79.2613515
913,Collington Drive,27302,36.0700448,-79.2592611
907,Collington Drive,27302,36.0697710,-79.2588295
901,Collington Drive,27302,36.0695705,-79.2583408
915,Collington Drive,27302,36.0701527,-79.2594009
631,Collington Drive,27302,36.0691935,-79.2604258
623,Collington Drive,27302,36.0691722,-79.2613791
640,Collington Drive,27302,36.0682813,-79.2598070
632,Collington Drive,27302,36.0686789,-79.2605011
643,Collington Drive,27302,36.0685341,-79.2592843
701,Collington Drive,27302,36.0684613,-79.2587599
205,Collington Drive,27302,36.0729763,-79.2589190
1013,Collington Drive,27302,36.0724230,-79.2597834
202,Collington Drive,27302,36.0734108,-79.2587504
105,Crawley Court,27302,36.0735868,-79.2595442
103,Crawley Court,27302,36.0738727,-79.2593975
104,Crawley Court,27302,36.0736701,-79.2600593
1002,Collington Drive,27302,36.0716269,-79.2591344
1006,Collington Drive,27302,36.0718883,-79.2591680
101,Crawley Court,27302,36.0740804,-79.2596390
105,Tadworth Court,27302,36.0720686,-79.2618716
1012,Collington Drive,27302,36.0723356,-79.2592295
1007,Collington Drive,27302,36.0720201,-79.2596651
1005,Collington Drive,27302,36.0718784,-79.2596592
1003,Collington Drive,27302,36.0717233,-79.2596750
1001,Collington Drive,27302,36.0715385,-79.2597086
411,Collington Drive,27302,36.0725320,-79.2625903
409,Collington Drive,27302,36.0724773,-79.2623959
606,Collington Drive,27302,36.0691836,-79.2638078
509,Collington Drive,27302,36.0710574,-79.2627894
504,Collington Drive,27302,36.0714268,-79.2633053
316,Collington Drive,27302,36.0733307,-79.2614373
605,Collington Drive,27302,36.0695596,-79.2627457
313,Collington Drive,27302,36.0728016,-79.2609376
419,Collington Drive,27302,36.0720597,-79.2625097
613,Collington Drive,27302,36.0692296,-79.2622397
505,Collington Drive,27302,36.0713653,-79.2625865
302,Collington Drive,27302,36.0731558,-79.2601762
1004,Collington Drive,27302,36.0717598,-79.2591348
116,Tadworth Court,27302,36.0719092,-79.2606200
112,Tadworth Court,27302,36.0718796,-79.2610569
1016,Collington Drive,27302,36.0726190,-79.2593232
518,Collington Drive,27302,36.0701724,-79.2634475
510,Collington Drive,27302,36.0709132,-79.2634601
512,Collington Drive,27302,36.0707099,-79.2634590
516,Collington Drive,27302,36.0703421,-79.2634577
515,Collington Drive,27302,36.0705696,-79.2629275
314,Collington Drive,27302,36.0732917,-79.2612624
418,Collington Drive,27302,36.0721289,-79.2630843
401,Collington Drive,27302,36.0729832,-79.2617275
412,Collington Drive,27302,36.0727124,-79.2630473
317,Collington Drive,27302,36.0728505,-79.2612799
310,Collington Drive,27302,36.0732373,-79.2609126
414,Collington Drive,27302,36.0724994,-79.2630952
610,Collington Drive,27302,36.0689759,-79.2628992
319,Collington Drive,27302,36.0728736,-79.2614576
504,Southwick Place,27302,36.0677157,-79.2592298
212,Norwood Court,27302,36.0721192,-79.2585579
214,Norwood Court,27302,36.0719440,-79.2585250
205,Norwood Court,27302,36.0728070,-79.2580520
116,Norwood Court,27302,36.0737178,-79.2586832
100,Norwood Court,27302,36.0745677,-79.2591078
211,Norwood Court,27302,36.0722573,-79.2580722
4222,Bowman Road,27302,36.0626851,-79.2641695
1314,Mebane Oaks Road,27302,36.0678373,-79.2703687
1054,Mebane Oaks Rd,27302,36.0737873,-79.2737978
801,Mebane Oaks Road,27302,36.0776892,-79.2742411
1056,Mebane Oaks Road,27302,36.0732947,-79.2735875
1050,Mebane Oaks Road,27302,36.0738393,-79.2727635
1004,Mebane Oaks Rd,27302,36.0749770,-79.2744930
904,South Fifth Street,27302,36.0771928,-79.2764910
901,Mebane Oaks Road,27302,36.0769055,-79.2744072
832,South Fifth Street,27302,36.0776409,-79.2756260
1105,Mebane Oaks Road,27302,36.0726139,-79.2734830
1010,Mebane Oaks Road,27302,36.0747176,-79.2759791
1010,Mebane Oaks Rd,27302,36.0748087,-79.2760193
1040,Mebane Oaks Road,27302,36.0733237,-79.2753246
1034,Mebane Oaks Road,27302,36.0735556,-79.2754319
1022,Mebane Oaks Road,27302,36.0736553,-79.2754695
1048,Mebane Oaks Road,27302,36.0729204,-79.2751074
3000,Bermuda Bay Lane,27302,36.0729334,-79.2760891
1006,Mebane Oaks Road,27302,36.0743378,-79.2741747
1951,NC-119,27302,36.0615546,-79.2975048
1939,NC-119,27302,36.0624641,-79.3005887
1903,NC-119,27302,36.0628457,-79.3014089
126,Millstead Drive,27302,36.0639330,-79.2998678
598,Deer Field Trace,27302,36.0645068,-79.2990832
1801,NC-119,27302,36.0652165,-79.2999985
1900,NC-119,27302,36.0645672,-79.3021841
487,Compass Drive,27302,36.0654807,-79.3027445
1999,NC-119,27302,36.0607996,-79.3012688
1945,NC-119,27302,36.0622543,-79.3018077
1146,Hudson Drive,27302,36.0710777,-79.2845263
1014,Mebane Oaks Road,27302,36.0745813,-79.2759290
313,East Center Street,27302,36.0946370,-79.2607443
301,East Center Street,27302,36.0952135,-79.2631637
1921,119 Hwy S,27302,36.0627581,-79.3006280
1105,Mebane Oaks Road,27302,36.0726995,-79.2731973
100,Millstead Drive,27302,36.0636670,-79.3007629
1929,NC-119,27302,36.0627087,-79.3005884
595,Gregory Poole Lane,27302,36.0688509,-79.3121721
1248,South 5th Street,27302,36.0730206,-79.2948863
209,West Jackson Street,27302,36.0940226,-79.2716746
1021,High Point Street,27317,36.0669357,-79.2732738
101,South 1st Street,27302;27302-2601,36.0966484,-79.2714343
200,Lowes Boulevard,27302,36.0674610,-79.3024518
3965,Arrowhead Boulevard,27302,36.0730688,-79.2696382
1151,Holmes Road,27302,36.0739685,-79.2970187
149,Spring Forest Drive,27302,36.0675898,-79.2950826
301,West Washington Street,27032,36.0966702,-79.2735260
300,West Center Street,27302,36.0975017,-79.2711471
206,West Center Street,27302,36.0973977,-79.2706674
204,West Center Street,27302,36.0973083,-79.2703187
109,North 3rd Street,27302,36.0974689,-79.2696422
200,West Center Street,27302,36.0970838,-79.2697898
101,West Washington Street,27302,36.0958461,-79.2684270
102,East Washington Street,27302,36.0956586,-79.2678259
106,East Washington Street,27302,36.0951533,-79.2675965
106,East Washington Street,27302,36.0949741,-79.2671448
101,South 5th Street,27302,36.0948798,-79.2666934
202,East Washington Street,27302,36.0948227,-79.2661734
103,South 5th Street,27302,36.0943950,-79.2652605
123,East Center Street,27302,36.0964308,-79.2668357
112,West Center Street,27302,36.0967125,-79.2683736
114,West Center Street,27302,36.0967011,-79.2685125
116,West Center Street,27302,36.0967889,-79.2688142
107,East Clay Street,27302,36.0971612,-79.2666985
1710,NC-119,27302,36.0660415,-79.2997014
103,Spring Forest Drive,27302,36.0668781,-79.2990357
105,Spring Forest Drive,27302,36.0672106,-79.2982630
135,Spring Forest Drive,27302,36.0673823,-79.2965929
414,West Center Street,27302,36.0982814,-79.2740375
939,South 3rd Street,27302,36.0840480,-79.2774219
939,South 3rd Street,27302,36.0839219,-79.2772827
1014,Corporate Park Drive,27302,36.0756697,-79.2982167
180,North 5th Street,27302,36.0961304,-79.2652388
7320,Oakwood Street Extension,27302,36.0788003,-79.2472444
7600,Oakwood Street Extension,27302,36.0784805,-79.2504603
909,Mattress Factory Road,27302,36.0794531,-79.2462678
900,Mattress Factory Road,27302,36.0803269,-79.2443421
107,North 7th Street,27302,36.0956701,-79.2636045
7753,Oakwood Street,27302,36.0790865,-79.2570642
1126,Mebane Oaks Road,27302,36.0728162,-79.2721083
1312,Mebane Oaks Road,27302,36.0684370,-79.2706084
1316,Mebane Oaks Road,27302,36.0674373,-79.2701076
1483,Dogwood Way,27302,36.0707076,-79.2994134
1016,Corporate Park Drive,27302,36.0775231,-79.2987021
1018,Corporate Park Drive,27302,36.0792870,-79.2981417
1020,Corporate Park Drive,27302,36.0808628,-79.2985072
1022,Corporate Park Drive,27302,36.0819936,-79.2983026
1031,Corporate Park Drive,27302,36.0815812,-79.3003455
1099,Corporate Park Drive,27302,36.0836858,-79.3005131
1027,Corporate Park Drive,27302,36.0803342,-79.3019086
1023,Corporate Park Drive,27302,36.0786676,-79.3006346
1017,Corporate Park Drive,27302,36.0766679,-79.3020384
1410,South 3rd Street,27302,36.0752066,-79.3002031
1409,South 3rd Street,27302,36.0743529,-79.3002845
1416,Dogwood Way,27302,36.0724679,-79.3012085
100,Maple Lane,27302,36.0727914,-79.3036082
1237,Mebane Oaks Road,27302,36.0703556,-79.2703160
1237,Mebane Oaks Road,27302,36.0700816,-79.2701395
1255,Mebane Oaks Road,27302,36.0692461,-79.2711832
408,West Center Street,27302,36.0980179,-79.2735291
904,South Fifth Street,27302,36.0772100,-79.2763091
211,Fieldale Road,27302,36.0759735,-79.2750295
801,Mebane Oaks Road,27302,36.0775982,-79.2743866
214,Fieldale Road,27302,36.0754000,-79.2753850
1217,Trollingwood Hawfields Road,27302,36.0680832,-79.3132562
150,Ashbury Boulevard,27302,36.0936498,-79.2482595
209,West Jackson Street,27302,36.0939803,-79.2720331
111,Spring Forest Drive,27302,36.0671959,-79.2976920
4000,Arrowhead Boulevard,27302,36.0747424,-79.2668914
1700,Saint Andrews Drive,27302,36.1211470,-79.2661080
