House number,Street name,Postal code,Latitude,Longitude
107,East Jefferson Street Ste C,28112,34.9834825,-80.5491552
4705,Indian Trail Fairview Road,28079,34.9823084,-80.5501573
215,E Franklin St,28110,34.9829877,-80.5484491
1010,West Roosevelt Boulevard,28110,34.9942248,-80.5380823
2714,Cureton Street,28112,34.9815040,-80.4983511
212,Pedro Street,28110,34.9973574,-80.5524172
2901,West Highway 74,28110-8435,35.0200904,-80.5814480
2115,West Roosevelt Boulevard,28110,35.0035060,-80.5588731
2325,Hanover Drive,28110,35.0093129,-80.5660506
2118,West Roosevelt Boulevard,28110,35.0073514,-80.5576890
2120,West Roosevelt Boulevard,28110,35.0076853,-80.5585044
2170,West Roosevelt Boulevard,28110,35.0071979,-80.5588599
899,North Johnson Street,28110,34.9888491,-80.5643372
3745,Millington Court,28110,35.0377594,-80.5687054
3746,Millington Court,28110,35.0382156,-80.5684194
121,I B Shive Drive,28110,34.9867488,-80.5514855
1680,Pageland Highway,28112,34.9690967,-80.5101205
350,Venus Street,28112,34.9772999,-80.5195918
555,East Roosevelt Boulevard,28112,34.9769413,-80.5201005
1620,East Roosevelt Boulevard,28112,34.9725436,-80.5127332
2722,West Roosevelt Boulevard,28110,35.0235311,-80.5715915
3740,Millington Court,28110,35.0381165,-80.5682006
600,Hospital Drive,28112,34.9753455,-80.5221355
515,Elizabeth Avenue,28112,34.9777953,-80.5319344
1101,Roosevelt Boulevard,28110-2817,34.9929195,-80.5393404
1,High School Drive,28112,34.9721868,-80.5262549
601,East Sunset Drive,28112,34.9731415,-80.5385490
2207,Lancaster Avenue,28112,34.9607075,-80.5759003
3300,North Rocky River Road,28110,35.0540588,-80.5936960
899,North Johnson Street,28110,34.9880754,-80.5600251
100,Smith Street,28112,34.9851770,-80.5502026
147,Cedar Street,28110,34.9898740,-80.5479097
805,Skyway Drive,28110,34.9884623,-80.5498438
2505,Morgan Mill Road,28110,35.0077357,-80.5193125
1911,Dickerson Boulevard,28110,35.0078879,-80.5639841
101,South Charlotte Avenue,28112,34.9807675,-80.5515160
316,East Windsor Street,28112-4842,34.9809545,-80.5458525
114,Lancaster Avenue,28112,34.9791264,-80.5506756
300,South Charlotte Avenue,28112,34.9793903,-80.5522086
412,West Roosevelt Boulevard,28110,34.9874921,-80.5296590
1639,Dickerson Boulevard,28110,35.0022565,-80.5687895
1243,West Roosevelt Boulevard,28110,34.9942554,-80.5418346
1245,West Roosevelt Boulevard,28110,34.9944800,-80.5420707
608,West Roosevelt Boulevard,28110,34.9898565,-80.5317150
2505,West Roosevelt Boulevard,28110,35.0120205,-80.5694933
4203,West Highway 74,28110,35.0390427,-80.6047398
600,Brewer Drive,28112,34.9725409,-80.5670653
830,M L King Jr Boulevard,28112,34.9710148,-80.5823554
1404,West Roosevelt Boulevard,28110,34.9971727,-80.5436697
2116,West Roosevelt Boulevard,28110,35.0066464,-80.5581991
2104,West Roosevelt Boulevard,28110,35.0061665,-80.5577364
2102,West Roosevelt Boulevard,28110,35.0059725,-80.5572770
2100,West Roosevelt Boulevard,28110,35.0055645,-80.5568810
2350,West Roosevelt Boulevard,28110,35.0121935,-80.5618675
2406,West Roosevelt Boulevard,28110,35.0139130,-80.5641460
2351,West Roosevelt Boulevard,28110,35.0097540,-80.5645953
1825,Williams Road,28110,35.0103686,-80.5687585
2511,Hopewood Lane,28110,34.9984675,-80.5958740
2700,Foxworth Drive,28110,34.9977465,-80.5984777
2404,Gleneagles Drive,28110,34.9977275,-80.5922045
2403,Bearskin Lane,28110,34.9997070,-80.5893605
2300,Gleneagles Drive,28110,34.9962455,-80.5902170
2320,Gleneagles Drive,28110,34.9969885,-80.5913880
2411,Bearskin Lane,28110,34.9997840,-80.5901985
917,Stevens Road,28110,34.9977844,-80.5948389
912,Stevens Road,28110,34.9970425,-80.5943745
2817,Foxworth Drive,28110,34.9958420,-80.5928320
2400,Gleneagles Drive,28110,34.9973421,-80.5919489
1009,White Marsh Court,28110,34.9981280,-80.5910910
1013,White Marsh Court,28110,34.9979545,-80.5906395
1005,White Marsh Court,28110,34.9979615,-80.5915620
2806,Foxworth Drive,28110,34.9957505,-80.5945215
2202,Bearskin Lane,28110,34.9970030,-80.5867255
2310,Gleneagles Drive,28110,34.9964770,-80.5909515
2613,Foxworth Drive,28110,34.9991725,-80.5977245
2201,Bearskin Lane,28110,34.9969700,-80.5880075
2420,Gleneagles Drive,28110,34.9988515,-80.5930330
1102,Stevens Road,28110,34.9991015,-80.5918450
2611,Foxworth Drive,28110,34.9995280,-80.5977035
2522,Hopewood Lane,28110,34.9987150,-80.5969780
916,Stevens Road,28110,34.9975745,-80.5940155
2408,Gleneagles Drive,28110,34.9979850,-80.5923305
2323,Raccoon Run,28110,34.9982225,-80.5903600
2205,Bearskin Lane,28110,34.9973315,-80.5878700
2815,Foxworth Drive,28110,34.9962185,-80.5930170
1101,Stevens Road,28110,35.0002590,-80.5926355
904,Stevens Road,28110,34.9966295,-80.5948435
2105,Foxworth Drive,28110,34.9973300,-80.5971310
2419,Gleneagles Drive,28110,34.9980640,-80.5936925
1009,Stevens Road,28110,34.9999135,-80.5931170
2305,Raccoon Run,28110,34.9981710,-80.5880950
2206,Bearskin Lane,28110,34.9974060,-80.5869455
2510,Foxworth Drive,28110,35.0006525,-80.5946225
2620,Foxworth Drive,28110,34.9980596,-80.5986571
2309,Gleneagles Drive,28110,34.9956436,-80.5915425
909,Stevens Road,28110,34.9972548,-80.5952164
2302,Raccoon Run,28110,34.9989095,-80.5876925
2711,Foxworth Drive,28110,34.9971178,-80.5968379
2518,Foxworth Drive,28110,35.0008012,-80.5962037
2209,Bearskin Lane,28110,34.9976210,-80.5878560
2608,Foxworth Drive,28110,35.0000830,-80.5985040
2504,Stevens Road,28110,35.0005940,-80.5935630
2504,Hopewood Lane,28110,34.9991385,-80.5949630
1201,Stevens Road,28110,35.0007320,-80.5921425
2512,Foxworth Drive,28110,35.0006853,-80.5950559
1100,Stevens Road,28110,34.9994205,-80.5923840
2312,Bearskin Lane,28110,35.0002695,-80.5866810
1200,Stevens Road,28110,35.0005280,-80.5912300
2715,Foxworth Drive,28110,34.9969250,-80.5964435
2317,Bearskin Lane,28110,34.9995955,-80.5881615
2601,Foxworth Drive,28110,35.0001780,-80.5975860
905,Stevens Road,28110,34.9970260,-80.5954065
2304,Bearskin Lane,28110,34.9990115,-80.5869805
2717,Foxworth Drive,28110,34.9968080,-80.5960990
2200,Bearskin Lane,28110,34.9966485,-80.5869550
1204,Stevens Road,28110,35.0007665,-80.5911045
2518,Hopewood Lane,28110,34.9990695,-80.5968045
913,Stevens Road,28110,34.9975170,-80.5950113
2406,Bearskin Lane,28110,35.0003760,-80.5897075
2309,Raccoon Run,28110,34.9974845,-80.5887920
2702,Foxworth Drive,28110,34.9974245,-80.5982160
901,Stevens Road,28110,34.9966160,-80.5957175
1004,White Marsh Court,28110,34.9971165,-80.5906820
2316,Hanover Drive,28110,35.0086902,-80.5645659
4210,Old Charlotte Highway,28110,35.0349764,-80.6175242
1803,Unionville Indian Trail Road,28110,35.0785896,-80.5756439
4105,OConnell Street,28079,35.0780326,-80.5753113
2647,Rolling Hills Drive,28110,35.0302597,-80.5702625
2652,Rolling Hills Drive,28110,35.0303375,-80.5689144
3706,Secrest Short Cut Road,28110,35.0381418,-80.5660884
1406,Courtney Store Road,28110,35.0382294,-80.5655133
3903,Dusty Hollow Road,28110,35.0389079,-80.5659232
3704,Secrest Short Cut Road,28110,35.0379851,-80.5660034
3710,Secrest Short Cut Road,28110,35.0386691,-80.5663223
3705,Avondale Lane,28110,35.0385370,-80.5654402
3806,Secrest Short Cut Road,28110,35.0396719,-80.5667518
3801,Avondale Lane,28110,35.0394076,-80.5661151
3805,Avondale Lane,28110,35.0397595,-80.5663256
3930,Dusty Hollow Road,28110,35.0392277,-80.5665039
3804,Secrest Short Cut Road,28110,35.0394262,-80.5666385
1618,Hilton Meadow Drive,28110,35.0371450,-80.5703373
3716,Richmond Lane,28110,35.0373381,-80.5690588
3751,Millington Court,28110,35.0378540,-80.5690303
3819,Sonoma Way,28110,35.0382090,-80.5704077
3721,Richmond Lane,28110,35.0369789,-80.5696904
3709,Richmond Lane,28110,35.0365989,-80.5692500
3802,Sonoma Way,28110,35.0381107,-80.5694052
1636,Hilton Meadow Drive,28110,35.0368051,-80.5709795
3722,Hilton Meadow Drive,28110,35.0374083,-80.5693586
3808,Sonoma Way,28110,35.0383026,-80.5696279
1612,Hilton Meadow Drive,28110,35.0373330,-80.5701092
3710,Richmond Lane,28110,35.0370931,-80.5688160
1625,Hilton Meadow Drive,28110,35.0365588,-80.5701773
1619,Hilton Meadow Drive,28110,35.0366945,-80.5699467
3807,Sonoma Way,28110,35.0378289,-80.5699423
3715,Richmond Lane,28110,35.0367996,-80.5694847
1626,Hilton Meadow Drive,28110,35.0369640,-80.5706226
3801,Sonoma Way,28110,35.0377144,-80.5697089
3813,Sonoma Way,28110,35.0380482,-80.5701647
1536,Hilton Meadow Drive,28110,35.0385824,-80.5690906
3703,Richmond Lane,28110,35.0368428,-80.5689392
1631,Hilton Meadow Drive,28110,35.0363960,-80.5704351
3816,Sonoma Way,28110,35.0385172,-80.5697990
1521,Hilton Meadow Drive,28110,35.0386128,-80.5681597
3752,Millington Court,28110,35.0383269,-80.5686640
1500,Hilton Meadow Drive,28110,35.0394938,-80.5678181
1524,Hilton Meadow Drive,28110,35.0389206,-80.5688255
1518,Hilton Meadow Drive,28110,35.0390780,-80.5685357
1506,Hilton Meadow Drive,28110,35.0393701,-80.5680067
1512,Hilton Meadow Drive,28110,35.0392337,-80.5682944
1627,Topeka Court,28110,35.0351586,-80.5708025
1633,Topeka Court,28110,35.0350724,-80.5710930
3628,Longpond Lane,28110,35.0347401,-80.5710739
1620,Nazareth Court,28110,35.0374193,-80.5714383
1602,Topeka Court,28110,35.0359625,-80.5701995
1615,Topeka Court,28110,35.0353007,-80.5701781
1609,Topeka Court,28110,35.0355156,-80.5699047
1501,Hilton Meadow Drive,28110,35.0390577,-80.5674732
4112,Secrest Short Cut Road,28110,35.0448570,-80.5715067
4206,Secrest Short Cut Road,28110,35.0460487,-80.5731996
4116,Secrest Short Cut Road,28110,35.0452412,-80.5717560
4200,Secrest Short Cut Road,28110,35.0459479,-80.5725590
4120,Secrest Short Cut Road,28110,35.0456095,-80.5720124
4208,Secrest Short Cut Road,28110,35.0467439,-80.5723864
4104,Secrest Short Cut Road,28110,35.0442948,-80.5708999
3906,Secrest Short Cut Road,28110,35.0414576,-80.5682982
3830,Secrest Short Cut Road,28110,35.0408175,-80.5678276
3900,Secrest Short Cut Road,28110,35.0411438,-80.5680730
3912,Secrest Short Cut Road,28110,35.0419899,-80.5686814
3810,Secrest Short Cut Road,28110,35.0399765,-80.5667186
3814,Secrest Short Cut Road,28110,35.0403068,-80.5668578
3824,Secrest Short Cut Road,28110,35.0406180,-80.5670161
4105,Secrest Short Cut Road,28110,35.0434705,-80.5719251
4101,Secrest Short Cut Road,28110,35.0431094,-80.5714215
4015,Secrest Short Cut Road,28110,35.0423258,-80.5716403
3901,Secrest Short Cut Road,28110,35.0404435,-80.5685916
3907,Secrest Short Cut Road,28110,35.0412481,-80.5699463
3815,Secrest Short Cut Road,28110,35.0396614,-80.5702460
1608,Nazareth Court,28110,35.0378104,-80.5709695
3739,Millington Court,28110,35.0376390,-80.5683932
3627,Secrest Short Cut Road,28110,35.0359632,-80.5693215
4006,Secrest Short Cut Road,28110,35.0431260,-80.5695241
3920,Secrest Short Cut Road,28110,35.0423401,-80.5690175
4002,Secrest Short Cut Road,28110,35.0428361,-80.5692880
4014,Secrest Short Cut Road,28110,35.0436952,-80.5698601
4117,Secrest Short Cut Road,28110,35.0438222,-80.5731839
4113,Secrest Short Cut Road,28110,35.0440207,-80.5722827
2907,Heath Davis Road,28110,35.0445565,-80.5703969
3436,Pebble Drive,28110,35.0447980,-80.5728736
3432,Pebble Drive,28110,35.0446033,-80.5731143
4111,Secrest Short Cut Road,28110,35.0423769,-80.5734869
4109,Secrest Short Cut Road,28110,35.0413191,-80.5731430
3711,Secrest Short Cut Road,28110,35.0384015,-80.5671016
307,Ridge Road,28110,35.0351401,-80.5428761
321,Ridge Road,28110,35.0366049,-80.5435483
309,Ridge Road,28110,35.0354621,-80.5428128
311,Ridge Road,28110,35.0352727,-80.5435870
515,Fowler Road,28110,35.0363012,-80.5450484
313,Ridge Road,28110,35.0353793,-80.5448379
615,Fowler Road,28110,35.0358346,-80.5479592
709,Fowler Road,28110,35.0353901,-80.5496419
713,Fowler Road,28110,35.0350007,-80.5501213
3517,Secrest Short Cut Road,28110,35.0346423,-80.5654245
600,Maple Hill Road,28110,35.0319522,-80.5481745
516,Maple Hill Road,28110,35.0311623,-80.5465934
219,Ridge Road,28110,35.0328796,-80.5433939
102,Griffin Circle,28110,35.0319532,-80.5677323
2655,Rolling Hills Drive,28110,35.0309895,-80.5683177
104,Griffin Circle,28110,35.0312221,-80.5673194
2653,Rolling Hills Drive,28110,35.0310581,-80.5687925
101,Griffin Circle,28110,35.0316994,-80.5683147
2659,Rolling Hills Drive,28110,35.0305058,-80.5672972
2651,Rolling Hills Drive,28110,35.0309716,-80.5692847
2649,Rolling Hills Drive,28110,35.0306394,-80.5699324
2800,Fox Den Drive,28110,35.0314582,-80.5728773
2806,Fox Den Drive,28110,35.0316813,-80.5730586
2801,Fox Den Drive,28110,35.0311382,-80.5730126
4324,Phil Hargett Court,28110,35.0171091,-80.6423023
3106,Montcalm Court,28110,35.0541783,-80.6105102
4806,Aldersbrook Drive,28110,35.0518661,-80.6127000
4615,Winterberry Lane,28110,35.0519458,-80.6098566
4708,Winterberry Lane,28110,35.0525820,-80.6115499
4709,Aldersbrook Drive,28110,35.0502068,-80.6114874
2915,Brekonridge Centre Drive,28110,35.0516073,-80.6108948
3009,Brekonridge Centre Drive,28110,35.0530847,-80.6108663
4909,Aldersbrook Drive,28110,35.0547342,-80.6122970
4610,Winterberry Lane,28110,35.0524377,-80.6093671
4839,Aldersbrook Drive,28110,35.0534244,-80.6130499
4705,Pickford Court,28110,35.0510970,-80.6114807
4717,Aldersbrook Drive,28110,35.0502278,-80.6119883
4720,Winterberry Lane,28110,35.0523727,-80.6124023
4733,Aldersbrook Drive,28110,35.0506969,-80.6128628
3118,Montcalm Court,28110,35.0546053,-80.6109929
4940,Aldersbrook Drive,28110,35.0550796,-80.6106324
4620,Winterberry Lane,28110,35.0525568,-80.6101199
4712,Dewberry Lane,28110,35.0541389,-80.6112937
4700,Aldersbrook Drive,28110,35.0506812,-80.6109752
4715,Winterberry Lane,28110,35.0520736,-80.6120804
2829,Rosemeade Drive,28110,35.0496107,-80.6088506
3013,Lanaken Lane,28110,35.0536345,-80.6117620
4913,Aldersbrook Drive,28110,35.0549225,-80.6122101
3108,Kelly Grove Lane,28110,35.0543647,-80.6091991
4960,Aldersbrook Drive,28110,35.0551041,-80.6093819
3002,Lanaken Lane,28110,35.0529523,-80.6116164
3006,Kelly Grove Lane,28110,35.0530752,-80.6091795
4609,Aldersbrook Drive,28110,35.0501663,-80.6095151
4825,Aldersbrook Drive,28110,35.0526548,-80.6134235
4721,Aldersbrook Drive,28110,35.0502519,-80.6122583
3117,Kelly Grove Lane,28110,35.0547261,-80.6097382
4737,Aldersbrook Drive,28110,35.0508876,-80.6129387
4952,Aldersbrook Drive,28110,35.0550787,-80.6098731
4622,Aldersbrook Drive,28110,35.0506582,-80.6105175
4941,Aldersbrook Drive,28110,35.0555564,-80.6106532
2903,Rosemeade Drive,28110,35.0507758,-80.6088463
4701,Winterberry Lane,28110,35.0520990,-80.6108293
4836,Aldersbrook Drive,28110,35.0530290,-80.6125849
4945,Aldersbrook Drive,28110,35.0555496,-80.6104020
4704,Aldersbrook Drive,28110,35.0506901,-80.6112068
4906,Aldersbrook Drive,28110,35.0544717,-80.6118038
2910,Early Mist Court,28110,35.0515052,-80.6093584
4624,Dewberry Lane,28110,35.0538745,-80.6103011
4704,Pickford Court,28110,35.0517094,-80.6115870
4848,Aldersbrook Drive,28110,35.0535939,-80.6122932
4948,Aldersbrook Drive,28110,35.0550635,-80.6101429
4619,Winterberry Lane,28110,35.0520429,-80.6101485
3008,Lanaken Lane,28110,35.0532951,-80.6112821
2909,Early Mist Court,28110,35.0512238,-80.6099132
4925,Aldersbrook Drive,28110,35.0554033,-80.6116730
2835,Rosemeade Drive,28110,35.0500216,-80.6088533
4832,Aldersbrook Drive,28110,35.0528430,-80.6127056
4716,Aldersbrook Drive,28110,35.0507083,-80.6119586
4718,Pickford Court,28110,35.0516843,-80.6123714
4628,Dewberry Lane,28110,35.0539140,-80.6105708
4847,Aldersbrook Drive,28110,35.0537946,-80.6128133
4608,Dewberry Lane,28110,35.0538551,-80.6090981
4622,Winterberry Lane,28110,35.0525593,-80.6103661
4822,Aldersbrook Drive,28110,35.0524651,-80.6128452
4613,Winterberry Lane,28110,35.0518118,-80.6095873
4703,Winterberry Lane,28110,35.0521117,-80.6110638
2815,Rosemeade Drive,28110,35.0487841,-80.6089069
2913,Brekonridge Centre Drive,28110,35.0514013,-80.6109133
2907,Early Mist Court,28110,35.0510190,-80.6098564
3010,Brekonridge Centre Drive,28110,35.0531078,-80.6102585
4929,Aldersbrook Drive,28110,35.0554834,-80.6114177
3005,Kelly Grove Lane,28110,35.0530364,-80.6098565
4614,Winterberry Lane,28110,35.0524034,-80.6096184
4844,Aldersbrook Drive,28110,35.0533973,-80.6123930
4901,Aldersbrook Drive,28110,35.0543568,-80.6125323
4712,Aldersbrook Drive,28110,35.0506935,-80.6117090
4719,Winterberry Lane,28110,35.0521009,-80.6123568
4714,Pickford Court,28110,35.0516885,-80.6121189
3004,Lanaken Lane,28110,35.0530680,-80.6113554
4932,Aldersbrook Drive,28110,35.0550428,-80.6111455
3015,Brekonridge Centre Drive,28110,35.0534811,-80.6108504
4902,Aldersbrook Drive,28110,35.0542863,-80.6118863
2914,Brekonridge Centre Drive,28110,35.0515927,-80.6103225
4713,Winterberry Lane,28110,35.0521176,-80.6118081
2825,Rosemeade Drive,28110,35.0494033,-80.6088951
2918,Brekonridge Centre Drive,28110,35.0517950,-80.6103101
4917,Aldersbrook Drive,28110,35.0551044,-80.6120966
4612,Dewberry Lane,28110,35.0538532,-80.6093678
4961,Aldersbrook Drive,28110,35.0555800,-80.6093977
3000,Kelly Grove Lane,28110,35.0527457,-80.6092665
4615,Aldersbrook Drive,28110,35.0501821,-80.6100152
4813,Aldersbrook Drive,28110,35.0520106,-80.6134052
3017,Lanaken Lane,28110,35.0537809,-80.6116612
4725,Aldersbrook Drive,28110,35.0503443,-80.6124961
3105,Kelly Grove Lane,28110,35.0541687,-80.6098664
4713,Pickford Court,28110,35.0511885,-80.6119912
4741,Aldersbrook Drive,28110,35.0510841,-80.6130038
4918,Aldersbrook Drive,28110,35.0548285,-80.6115807
4856,Aldersbrook Drive,28110,35.0539558,-80.6120913
2906,Brekonridge Centre Drive,28110,35.0509692,-80.6103912
4709,Winterberry Lane,28110,35.0521273,-80.6115607
4936,Aldersbrook Drive,28110,35.0550548,-80.6108889
2823,Rosemeade Drive,28110,35.0491993,-80.6089219
2919,Brekonridge Centre Drive,28110,35.0518091,-80.6108841
4613,Dewberry Lane,28110,35.0533652,-80.6093815
4949,Aldersbrook Drive,28110,35.0555636,-80.6101568
2813,Rosemeade Drive,28110,35.0485780,-80.6089408
2901,Early Mist Court,28110,35.0506023,-80.6098912
4801,Aldersbrook Drive,28110,35.0514332,-80.6131423
2902,Early Mist Court,28110,35.0507884,-80.6093030
4700,Pickford Court,28110,35.0516045,-80.6113417
4802,Aldersbrook Drive,28110,35.0516224,-80.6126565
4944,Aldersbrook Drive,28110,35.0550711,-80.6103889
4712,Winterberry Lane,28110,35.0525873,-80.6118000
3001,Lanaken Lane,28110,35.0529724,-80.6119161
2908,Brekonridge Centre Drive,28110,35.0511783,-80.6103642
3013,Brekonridge Centre Drive,28110,35.0532873,-80.6108598
4924,Aldersbrook Drive,28110,35.0549539,-80.6113794
2831,Rosemeade Drive,28110,35.0498165,-80.6088689
4828,Aldersbrook Drive,28110,35.0526555,-80.6127929
4953,Aldersbrook Drive,28110,35.0555479,-80.6099030
4609,Dewberry Lane,28110,35.0533446,-80.6091155
4620,Aldersbrook Drive,28110,35.0506759,-80.6102468
4805,Aldersbrook Drive,28110,35.0516175,-80.6132192
3114,Montcalm Court,28110,35.0546032,-80.6106556
4851,Aldersbrook Drive,28110,35.0539830,-80.6127399
4625,Dewberry Lane,28110,35.0534036,-80.6103303
4700,Winterberry Lane,28110,35.0525841,-80.6108088
4701,Pickford Court,28110,35.0513545,-80.6113393
4812,Aldersbrook Drive,28110,35.0522598,-80.6128511
4701,Aldersbrook Drive,28110,35.0502118,-80.6109965
4702,Winterberry Lane,28110,35.0525796,-80.6110466
2903,Early Mist Court,28110,35.0507967,-80.6098876
3006,Brekonridge Centre Drive,28110,35.0529021,-80.6102888
4937,Aldersbrook Drive,28110,35.0555429,-80.6109076
4617,Dewberry Lane,28110,35.0533361,-80.6098467
4609,Winterberry Lane,28110,35.0518585,-80.6093064
4831,Aldersbrook Drive,28110,35.0530486,-80.6132573
4933,Aldersbrook Drive,28110,35.0555392,-80.6111578
4607,Aldersbrook Drive,28110,35.0501561,-80.6092519
4708,Aldersbrook Drive,28110,35.0506974,-80.6114565
3112,Kelly Grove Lane,28110,35.0545926,-80.6091493
4710,Pickford Court,28110,35.0516943,-80.6118699
3005,Lanaken Lane,28110,35.0532157,-80.6119996
4708,Dewberry Lane,28110,35.0540670,-80.6110519
4857,Aldersbrook Drive,28110,35.0541696,-80.6126369
4810,Aldersbrook Drive,28110,35.0520646,-80.6127767
2909,Brekonridge Centre Drive,28110,35.0511914,-80.6109576
4706,Winterberry Lane,28110,35.0525900,-80.6112995
4705,Aldersbrook Drive,28110,35.0502160,-80.6112312
4621,Winterberry Lane,28110,35.0521075,-80.6103806
3005,Brekonridge Centre Drive,28110,35.0528835,-80.6108734
4905,Aldersbrook Drive,28110,35.0545476,-80.6124250
4965,Aldersbrook Drive,28110,35.0555497,-80.6091526
4613,Aldersbrook Drive,28110,35.0501827,-80.6097525
4817,Aldersbrook Drive,28110,35.0522233,-80.6134507
4716,Dewberry Lane,28110,35.0542169,-80.6115420
4713,Aldersbrook Drive,28110,35.0502301,-80.6117356
3109,Kelly Grove Lane,28110,35.0543708,-80.6099368
4717,Pickford Court,28110,35.0512021,-80.6122559
4729,Aldersbrook Drive,28110,35.0504946,-80.6127167
3119,Montcalm Court,28110,35.0544616,-80.6112554
4829,Aldersbrook Drive,28110,35.0528669,-80.6133518
4616,Winterberry Lane,28110,35.0524751,-80.6098807
4620,Dewberry Lane,28110,35.0538850,-80.6100545
2907,Brekonridge Centre Drive,28110,35.0509829,-80.6110330
4707,Winterberry Lane,28110,35.0521044,-80.6113125
2819,Rosemeade Drive,28110,35.0489884,-80.6088859
3009,Lanaken Lane,28110,35.0534578,-80.6119030
3001,Kelly Grove Lane,28110,35.0527538,-80.6097345
4964,Aldersbrook Drive,28110,35.0551005,-80.6091294
2807,Rosemeade Drive,28110,35.0482975,-80.6089581
2900,Early Mist Court,28110,35.0505959,-80.6092833
4821,Aldersbrook Drive,28110,35.0524303,-80.6134388
2906,Early Mist Court,28110,35.0509871,-80.6092948
3113,Kelly Grove Lane,28110,35.0546001,-80.6100220
4843,Aldersbrook Drive,28110,35.0536093,-80.6129288
4707,Dewberry Lane,28110,35.0535553,-80.6112093
4956,Aldersbrook Drive,28110,35.0551016,-80.6096382
4714,Winterberry Lane,28110,35.0526426,-80.6120476
2912,Brekonridge Centre Drive,28110,35.0513861,-80.6103178
4912,Aldersbrook Drive,28110,35.0546470,-80.6116727
2911,Rosemeade Drive,28110,35.0513970,-80.6088359
4840,Aldersbrook Drive,28110,35.0532173,-80.6125072
4957,Aldersbrook Drive,28110,35.0555587,-80.6096556
4619,Aldersbrook Drive,28110,35.0502007,-80.6102623
4809,Aldersbrook Drive,28110,35.0518122,-80.6133157
3110,Montcalm Court,28110,35.0544086,-80.6104768
2908,Early Mist Court,28110,35.0512110,-80.6092402
4616,Dewberry Lane,28110,35.0538567,-80.6098179
4621,Dewberry Lane,28110,35.0533891,-80.6100955
4709,Pickford Court,28110,35.0511459,-80.6117473
4852,Aldersbrook Drive,28110,35.0537756,-80.6121734
4621,Aldersbrook Drive,28110,35.0501923,-80.6105096
4718,Winterberry Lane,28110,35.0526198,-80.6123420
2911,Early Mist Court,28110,35.0514942,-80.6098185
4921,Aldersbrook Drive,28110,35.0552680,-80.6118726
4608,Winterberry Lane,28110,35.0521588,-80.6091865
4835,Aldersbrook Drive,28110,35.0532342,-80.6131358
3116,Kelly Grove Lane,28110,35.0547438,-80.6094263
2837,Rosemeade Drive,28110,35.0502166,-80.6088427
4728,Aldersbrook Drive,28110,35.0508447,-80.6122636
3104,Kelly Grove Lane,28110,35.0541432,-80.6092973
4721,Pickford Court,28110,35.0511646,-80.6124910
3329,Haywood Road,28110,35.0558507,-80.6102398
4832,Tradd Circle,28110,35.0478369,-80.6116569
4706,Chantress Lane,28110,35.0481550,-80.6111037
4931,Tradd Circle,28110,35.0475641,-80.6107189
2649,Brekonridge Centre Drive,28110,35.0462236,-80.6105495
4212,Rogers Road,28110,35.0312061,-80.6254934
4206,Rogers Road,28110,35.0314688,-80.6249472
4216,Rogers Road,28110,35.0310725,-80.6257798
4218,Rogers Road,28110,35.0309338,-80.6260728
4210,Rogers Road,28110,35.0313174,-80.6252156
4122,Rogers Road,28110,35.0321671,-80.6240838
4202,Rogers Road,28110,35.0317561,-80.6245371
4306,Rogers Road,28110,35.0311343,-80.6276019
4222,Rogers Road,28110,35.0306817,-80.6265787
4309,Old Charlotte Highway,28110,35.0337247,-80.6231829
4311,Old Charlotte Highway,28110,35.0339216,-80.6235325
1920,Old Charlotte Highway,28110,35.0340500,-80.6247742
1910,Tower Industrial Drive,28110,35.0343119,-80.6242554
1822,Tower Industrial Drive,28110,35.0330210,-80.6258838
1916,Tower Industrial Drive,28110,35.0334371,-80.6252662
1872,Tower Industrial Drive,28110,35.0332686,-80.6254421
4524,West Highway 74,28110,35.0464648,-80.6125533
2608,Executive Point Drive,28110,35.0473452,-80.6136689
2613,Executive Point Drive,28110,35.0481359,-80.6138613
4630,West Highway 74,28110,35.0477885,-80.6142444
2626,Executive Point Drive,28110,35.0481530,-80.6124172
2614,Executive Point Drive,28110,35.0475104,-80.6130898
2627,Executive Point Drive,28110,35.0487813,-80.6129607
4612,West Highway 74,28110,35.0470670,-80.6132941
2617,Executive Point Drive,28110,35.0484184,-80.6134972
4408,West Highway 74,28110,35.0439880,-80.6089915
1942,Airport Road,28110,35.0298293,-80.6159072
3828,Old Charlotte Highway,28110,35.0292655,-80.6097248
1809,Airport Road,28110,35.0275744,-80.6217355
1900,Airport Road,28110,35.0278936,-80.6171897
1901,Teledyne Road,28110,35.0268592,-80.6115941
1708,Aviation Drive,28110,35.0227355,-80.6178312
1658,Aviation Drive,28110,35.0225794,-80.6187005
1640,Aviation Drive,28110,35.0221808,-80.6192336
1830,Aviation Drive,28110,35.0242161,-80.6162112
1816,Aviation Drive,28110,35.0237320,-80.6165357
4015,Airport Extension Road,28110,35.0233002,-80.6201502
1710,Airport Road,28110,35.0247833,-80.6183769
1820,Aviation Drive,28110,35.0240994,-80.6168150
1558,Aviation Drive,28110,35.0211368,-80.6199193
1718,Aviation Drive,28110,35.0229417,-80.6175597
1650,Aviation Drive,28110,35.0220889,-80.6186870
1704,Aviation Drive,28110,35.0229939,-80.6182524
1709,Airport Road,28110,35.0256937,-80.6228930
1610,Airport Road,28110,35.0227676,-80.6218988
1609,Airport Road,28110,35.0236223,-80.6233006
1407,Airport Road,28110,35.0205202,-80.6256903
1412,Airport Road,28110,35.0199783,-80.6239015
3900,Paul J Helms Drive,28110,35.0199560,-80.6218173
4238,Capital Drive,28110,35.0215575,-80.6330061
4268,Capital Drive,28110,35.0204943,-80.6355932
1310,Airport Road,28110,35.0177368,-80.6254357
1209,Airport Road,28110,35.0163585,-80.6289666
4115,Corporate Center Drive,28110,35.0183829,-80.6273269
4275,Corporate Center Drive,28110,35.0170614,-80.6329593
4320,Goldmine Road,28110,35.0153162,-80.6403831
1100,Coy Way,28110,35.0041608,-80.6079661
1208,North Rocky River Road,28110,35.0066964,-80.6081655
3205,Viola Lane,28110,35.0038264,-80.6086856
1113,Coy Way,28110,35.0049541,-80.6083907
1117,Coy Way,28110,35.0051966,-80.6083653
1121,Coy Way,28110,35.0053413,-80.6081477
1105,Coy Way,28110,35.0044786,-80.6084661
1101,Coy Way,28110,35.0042564,-80.6085583
1214,North Rocky River Road,28110,35.0075926,-80.6080886
1212,North Rocky River Road,28110,35.0071356,-80.6081611
3201,Viola Lane,28110,35.0037845,-80.6084443
1109,Coy Way,28110,35.0047130,-80.6084144
3133,Viola Lane,28110,35.0037138,-80.6079391
3137,Viola Lane,28110,35.0037278,-80.6081871
1104,Coy Way,28110,35.0043980,-80.6079154
1303,North Rocky River Road,28110,35.0086360,-80.6087194
1308,North Rocky River Road,28110,35.0087317,-80.6080658
3208,Goldmine Road,28110,35.0087184,-80.6093321
3217,Westwood Industrial Drive,28110,35.0115249,-80.6100665
3221,Westwood Industrial Drive,28110,35.0119092,-80.6104578
1407,North Rocky River Road,28110,35.0115811,-80.6082844
3308,Westwood Industrial Drive,28110,35.0129413,-80.6117283
3405,Westwood Industrial Drive,28110,35.0122683,-80.6133990
3224,Westwood Industrial Drive,28110,35.0128224,-80.6107948
1403,North Rocky River Road,28110,35.0113435,-80.6083326
3305,Westwood Industrial Drive,28110,35.0119348,-80.6114251
3309,Westwood Industrial Drive,28110,35.0121679,-80.6121052
3313,Westwood Industrial Drive,28110,35.0120720,-80.6125862
3406,Westwood Industrial Drive,28110,35.0128981,-80.6133033
1525,North Rocky River Road,28110,35.0155557,-80.6082891
3213,Union Power Way,28110,35.0137462,-80.6085169
4064,Alloy Way,28110,35.0219172,-80.6134574
6400,Alloy Way,28110,35.0212779,-80.6137291
1419,North Rocky River Road,28110,35.0126941,-80.6081133
1618,Love Road,28110,35.0117504,-80.5908941
2443,Old Charlotte Highway,28110,35.0045534,-80.5749933
2447,Old Charlotte Highway,28110,35.0047534,-80.5752574
2406,Old Charlotte Highway,28110,35.0039498,-80.5729860
2401,Old Charlotte Highway,28110,35.0038650,-80.5740025
2412,Old Charlotte Highway,28110,35.0044770,-80.5736710
2409,Old Charlotte Highway,28110,35.0040108,-80.5743667
2408,Old Charlotte Highway,28110,35.0041773,-80.5733127
2025,Old Charlotte Highway,28110,35.0030401,-80.5728883
2035,Old Charlotte Highway,28110,35.0032695,-80.5731816
2312,Hunter Davis Court,28110,35.0282745,-80.5760097
2117,Fox Hunt Drive,28110,35.0270633,-80.5780417
2207,Fox Hunt Drive,28110,35.0275517,-80.5798539
2314,Hounds Run Court,28110,35.0293747,-80.5773092
2300,Hunter Davis Court,28110,35.0274509,-80.5764405
2337,Hunter Davis Court,28110,35.0300599,-80.5752022
2201,Fox Hunt Drive,28110,35.0271247,-80.5789180
2309,Hunter Davis Court,28110,35.0281740,-80.5768304
2310,Hounds Run Court,28110,35.0289304,-80.5776075
2321,Hunter Davis Court,28110,35.0291220,-80.5763257
2309,Hounds Run Court,28110,35.0290544,-80.5784213
2305,Hounds Run Court,28110,35.0287520,-80.5786414
2206,Fox Hunt Drive,28110,35.0281771,-80.5792232
2316,Hunter Davis Court,28110,35.0285922,-80.5758135
2328,Hunter Davis Court,28110,35.0293474,-80.5752614
2310,Fox Hunt Drive,28110,35.0298535,-80.5793748
2301,Hunter Davis Court,28110,35.0276087,-80.5771390
2304,Fox Hunt Drive,28110,35.0292799,-80.5797502
2304,Hunter Davis Court,28110,35.0277218,-80.5762329
2213,Fox Hunt Drive,28110,35.0277681,-80.5803758
2305,Hunter Davis Court,28110,35.0278788,-80.5770068
2306,Hounds Run Court,28110,35.0285879,-80.5778125
2113,Fox Hunt Drive,28110,35.0269706,-80.5776034
2202,Fox Hunt Drive,28110,35.0280731,-80.5788219
2317,Hunter Davis Court,28110,35.0288192,-80.5764744
2317,Hounds Run Court,28110,35.0297926,-80.5782217
2313,Hounds Run Court,28110,35.0294342,-80.5783021
2320,Hunter Davis Court,28110,35.0288707,-80.5756603
2333,Hunter Davis Court,28110,35.0299863,-80.5756909
2306,Fox Hunt Drive,28110,35.0295657,-80.5795156
2300,Fox Hunt Drive,28110,35.0289596,-80.5799238
2308,Hunter Davis Court,28110,35.0280050,-80.5761209
2121,Fox Hunt Drive,28110,35.0270909,-80.5784653
2212,Fox Hunt Drive,28110,35.0283606,-80.5797944
2318,Hounds Run Court,28110,35.0296833,-80.5770651
2325,Hunter Davis Court,28110,35.0294674,-80.5761855
2336,Hunter Davis Court,28110,35.0298083,-80.5749007
2205,Fox Hunt Drive,28110,35.0273818,-80.5793838
2313,Hunter Davis Court,28110,35.0284588,-80.5766647
2322,Hounds Run Court,28110,35.0300633,-80.5770544
2324,Hunter Davis Court,28110,35.0291181,-80.5755162
2329,Hunter Davis Court,28110,35.0297367,-80.5759942
2120,Fox Hunt Drive,28110,35.0278177,-80.5783033
2116,Fox Hunt Drive,28110,35.0280188,-80.5777728
2222,Fox Hunt Drive,28110,35.0286098,-80.5801596
2229,Fox Hunt Drive,28110,35.0292220,-80.5811002
2309,Fox Hunt Drive,28110,35.0299644,-80.5803408
2217,Fox Hunt Drive,28110,35.0280291,-80.5808841
2305,Fox Hunt Drive,28110,35.0297124,-80.5805830
2223,Fox Hunt Drive,28110,35.0286018,-80.5814651
2301,Fox Hunt Drive,28110,35.0294649,-80.5808222
2221,Fox Hunt Drive,28110,35.0283091,-80.5813270
2225,Fox Hunt Drive,28110,35.0289439,-80.5814120
2028,Fox Hunt Drive,28110,35.0275119,-80.5753403
2024,Fox Hunt Drive,28110,35.0273567,-80.5750218
2033,Fox Hunt Drive,28110,35.0266462,-80.5762050
2021,Fox Hunt Drive,28110,35.0266209,-80.5750898
2027,Fox Hunt Drive,28110,35.0266246,-80.5756499
2020,Fox Hunt Drive,28110,35.0269673,-80.5749333
2041,Fox Hunt Drive,28110,35.0266546,-80.5766591
2218,Goldmine Road,28110,35.0010474,-80.5823350
2522,Foxworth Drive,28110,35.0009488,-80.5969978
2600,Foxworth Drive,28110,35.0009231,-80.5975347
2006,John Moore Road,28110,35.0256949,-80.5870884
3219,West Highway 74,28110,35.0257494,-80.5863219
3231,West Highway 74,28110,35.0259885,-80.5867292
3215,West Highway 74,28110,35.0254371,-80.5858676
3211,West Highway 74,28110,35.0253096,-80.5853778
3209,West Highway 74,28110,35.0251349,-80.5851335
3207,West Highway 74,28110,35.0249892,-80.5849328
3203,West Highway 74,28110,35.0243713,-80.5841751
2014,Bonanza Road,28110,35.0259227,-80.5792177
2111,Bovender Road,28110,35.0261935,-80.5822522
2019,Bonanza Road,28110,35.0261093,-80.5805993
2006,Bonanza Road,28110,35.0250563,-80.5797511
2105,Bovender Road,28110,35.0265329,-80.5828262
2121,Bovender Road,28110,35.0255510,-80.5810705
2125,Bovender Road,28110,35.0252847,-80.5805485
2115,Bovender Road,28110,35.0258544,-80.5816663
2013,Bonanza Road,28110,35.0258259,-80.5800407
3193,West Highway 74,28110,35.0236548,-80.5833564
2030,Bonanza Road,28110,35.0270765,-80.5806463
2216,Fowler Secrest Road,28110,35.0280183,-80.5824756
2036,Bonanza Road,28110,35.0274638,-80.5815531
2304,Fowler Secrest Road,28110,35.0296779,-80.5822107
2218,Fowler Secrest Road,28110,35.0285424,-80.5831127
2300,Fowler Secrest Road,28110,35.0293722,-80.5824553
2226,Fowler Secrest Road,28110,35.0290730,-80.5827015
2308,Fowler Secrest Road,28110,35.0299951,-80.5819518
2222,Fowler Secrest Road,28110,35.0287825,-80.5829152
2206,Fowler Secrest Road,28110,35.0276398,-80.5842052
2210,Fowler Secrest Road,28110,35.0281412,-80.5837179
1917,Windmere Drive,28110,35.0248353,-80.5758364
1912,Windmere Drive,28110,35.0242527,-80.5750689
1901,Windmere Drive,28110,35.0236021,-80.5765936
1920,Windmere Drive,28110,35.0251917,-80.5747721
1824,Windmere Drive,28110,35.0228224,-80.5763441
1923,Windmere Drive,28110,35.0255173,-80.5757027
1825,Windmere Drive,28110,35.0233664,-80.5768768
1924,Windmere Drive,28110,35.0255144,-80.5745624
1928,Windmere Drive,28110,35.0258306,-80.5745153
1902,Windmere Drive,28110,35.0231793,-80.5755361
1900,Windmere Drive,28110,35.0230071,-80.5759916
1909,Windmere Drive,28110,35.0241938,-80.5760920
1916,Windmere Drive,28110,35.0245616,-80.5749896
1919,Windmere Drive,28110,35.0251773,-80.5757382
1818,Windmere Drive,28110,35.0223337,-80.5768332
1931,Windmere Drive,28110,35.0262790,-80.5756018
1932,Windmere Drive,28110,35.0261248,-80.5743705
1906,Windmere Drive,28110,35.0235539,-80.5752054
1817,Windmere Drive,28110,35.0229105,-80.5775392
1905,Windmere Drive,28110,35.0238764,-80.5763169
1918,Windmere Drive,28110,35.0248597,-80.5748540
1820,Windmere Drive,28110,35.0225747,-80.5766044
1913,Windmere Drive,28110,35.0245242,-80.5759393
1927,Windmere Drive,28110,35.0258507,-80.5756568
1821,Windmere Drive,28110,35.0231805,-80.5772239
2930,Goldmine Road,28110,35.0108236,-80.6002548
2928,Goldmine Road,28110,35.0110711,-80.6006708
1908,North Rocky River Road,28110,35.0235251,-80.6039375
1824,North Rocky River Road,28110,35.0224702,-80.6040428
1724,North Rocky River Road,28110,35.0202589,-80.6047555
1718,North Rocky River Road,28110,35.0197299,-80.6048542
2368,Roland Drive,28110,35.0150349,-80.5733082
3617,Old Charlotte Highway,28110,35.0270589,-80.6035928
3611,Old Charlotte Highway,28110,35.0266802,-80.6025138
3615,Old Charlotte Highway,28110,35.0268198,-80.6026447
3609,Old Charlotte Highway,28110,35.0266057,-80.6020246
2303,Fowler Secrest Road,28110,35.0299170,-80.5830222
3221,Secrest Price Road,28110,35.0298966,-80.5853923
2213,Fowler Secrest Road,28110,35.0292902,-80.5834253
3217,Secrest Price Road,28110,35.0297852,-80.5850246
3207,Secrest Price Road,28110,35.0294344,-80.5839283
3211,Secrest Price Road,28110,35.0295878,-80.5842655
2609,Rolling Hills Drive,28110,35.0221825,-80.5750945
2619,Rolling Hills Drive,28110,35.0244445,-80.5738005
2623,Rolling Hills Drive,28110,35.0249176,-80.5735227
2608,Rolling Hills Drive,28110,35.0218050,-80.5744656
2613,Rolling Hills Drive,28110,35.0230294,-80.5745619
2616,Rolling Hills Drive,28110,35.0238089,-80.5733139
2629,Rolling Hills Drive,28110,35.0261363,-80.5730390
2606,Rolling Hills Drive,28110,35.0213490,-80.5748003
2615,Rolling Hills Drive,28110,35.0236224,-80.5742514
2625,Rolling Hills Drive,28110,35.0253453,-80.5735177
2614,Rolling Hills Drive,28110,35.0232801,-80.5734479
2633,Rolling Hills Drive,28110,35.0276532,-80.5737796
2617,Rolling Hills Drive,28110,35.0240454,-80.5740014
2627,Rolling Hills Drive,28110,35.0258016,-80.5732013
2631,Rolling Hills Drive,28110,35.0268603,-80.5733970
2610,Rolling Hills Drive,28110,35.0222065,-80.5740848
2611,Rolling Hills Drive,28110,35.0226041,-80.5748202
2635,Rolling Hills Drive,28110,35.0284192,-80.5733900
2205,Fowler Secrest Road,28110,35.0284164,-80.5842746
2117,Fowler Secrest Road,28110,35.0285145,-80.5856940
2115,Fowler Secrest Road,28110,35.0279964,-80.5851441
2113,Fowler Secrest Road,28110,35.0281949,-80.5860268
2109,Fowler Secrest Road,28110,35.0276966,-80.5855439
3301,West Highway 74,28110,35.0266253,-80.5872695
3302,West Highway 74,28110,35.0271715,-80.5861982
3306,West Highway 74,28110,35.0275239,-80.5866227
3220,West Highway 74,28110,35.0267296,-80.5849813
2603,Rolling Hills Drive,28110,35.0208901,-80.5761200
2607,Rolling Hills Drive,28110,35.0216452,-80.5755259
2605,Rolling Hills Drive,28110,35.0213756,-80.5757711
2841,West Highway 74,28110,35.0201280,-80.5786935
2805,West Highway 74,28110,35.0194991,-80.5779168
2861,West Highway 74,28110,35.0205483,-80.5791880
2741,Heritage Christian Way,28110,35.0109451,-80.5864131
2747,Heritage Christian Way,28110,35.0112819,-80.5865240
1510,Love Road,28110,35.0098474,-80.5886922
2753,Heritage Christian Way,28110,35.0115204,-80.5862189
2800,West Highway 74,28110,35.0202681,-80.5770041
2983,Monroe Way,28110,35.0224673,-80.5796601
2616,West Roosevelt Boulevard,28110,35.0175147,-80.5733173
2626,West Roosevelt Boulevard,28110,35.0184403,-80.5742647
2620,West Roosevelt Boulevard,28110,35.0179422,-80.5736139
3112,West Highway 74,28110,35.0244130,-80.5818201
3122,West Highway 74,28110,35.0249811,-80.5830960
3420,Old Charlotte Highway,28110,35.0257616,-80.5984799
3509,Old Charlotte Highway,28110,35.0251503,-80.6003305
3409,Old Charlotte Highway,28110,35.0243239,-80.5979340
3418,Old Charlotte Highway,28110,35.0255486,-80.5981331
3405,Old Charlotte Highway,28110,35.0241319,-80.5974864
3502,Old Charlotte Highway,28110,35.0259072,-80.5988123
3416,Old Charlotte Highway,28110,35.0253949,-80.5978708
2116,North Rocky River Road,28110,35.0287510,-80.6031416
3612,Old Charlotte Highway,28110,35.0271178,-80.6017948
3614,Old Charlotte Highway,28110,35.0272362,-80.6020248
3606,Old Charlotte Highway,28110,35.0269798,-80.6015228
3518,Old Charlotte Highway,28110,35.0284635,-80.5996345
1825,North Rocky River Road,28110,35.0227755,-80.6056669
1815,North Rocky River Road,28110,35.0221967,-80.6052346
1817,North Rocky River Road,28110,35.0226906,-80.6050623
1803,North Rocky River Road,28110,35.0208780,-80.6062855
1821,North Rocky River Road,28110,35.0231574,-80.6049030
1791,North Rocky River Road,28110,35.0212384,-80.6080348
3702,Old Charlotte Highway,28110,35.0278063,-80.6039891
2111,North Rocky River Road,28110,35.0283563,-80.6040515
3724,Old Charlotte Highway,28110,35.0282835,-80.6066394
3720,Old Charlotte Highway,28110,35.0281695,-80.6063904
2011,North Rocky River Road,28110,35.0260388,-80.6063590
3017,Viola Lane,28110,35.0061933,-80.6064455
3125,Viola Lane,28110,35.0037879,-80.6073145
3121,Viola Lane,28110,35.0039639,-80.6069680
1108,Coy Way,28110,35.0046382,-80.6078073
3012,Viola Lane,28110,35.0064585,-80.6071118
3000,Viola Lane,28110,35.0071481,-80.6062976
3109,Viola Lane,28110,35.0045871,-80.6066661
1120,Coy Way,28110,35.0053083,-80.6078742
3026,Viola Lane,28110,35.0056107,-80.6070122
3025,Viola Lane,28110,35.0055209,-80.6064525
3104,Viola Lane,28110,35.0049700,-80.6072352
1202,Family Circle,28110,35.0068079,-80.6073099
3021,Viola Lane,28110,35.0059779,-80.6063691
3129,Viola Lane,28110,35.0036832,-80.6076700
3126,Viola Lane,28110,35.0041956,-80.6075498
3005,Viola Lane,28110,35.0065959,-80.6063404
3113,Viola Lane,28110,35.0043581,-80.6067127
1116,Coy Way,28110,35.0051062,-80.6077256
3022,Viola Lane,28110,35.0058474,-80.6069181
3008,Viola Lane,28110,35.0069788,-80.6067619
3101,Viola Lane,28110,35.0050564,-80.6066331
3100,Viola Lane,28110,35.0051842,-80.6072086
1120,North Rocky River Road,28110,35.0056746,-80.6077646
3029,Viola Lane,28110,35.0053002,-80.6065701
3118,Viola Lane,28110,35.0043350,-80.6073389
3013,Viola Lane,28110,35.0064117,-80.6065534
3117,Viola Lane,28110,35.0041269,-80.6068011
1112,Coy Way,28110,35.0048616,-80.6078089
3016,Viola Lane,28110,35.0062574,-80.6070756
1204,Family Circle,28110,35.0071707,-80.6071555
3004,Viola Lane,28110,35.0071325,-80.6065789
3105,Viola Lane,28110,35.0048185,-80.6066643
3030,Viola Lane,28110,35.0053897,-80.6071771
3108,Viola Lane,28110,35.0047607,-80.6072384
3112,Viola Lane,28110,35.0045426,-80.6072178
3103,Goldmine Road,28110,35.0079223,-80.6065480
3115,Goldmine Road,28110,35.0079856,-80.6075461
1216,Family Circle,28110,35.0079262,-80.6069932
1318,North Rocky River Road,28110,35.0098202,-80.6080034
1322,North Rocky River Road,28110,35.0097166,-80.6071245
3108,Goldmine Road,28110,35.0086613,-80.6067501
1715,Winthrop Lane,28110,35.0173817,-80.6003977
1402,Williamsburg Lane,28110,35.0128593,-80.6039414
1605,American Lane,28110,35.0165044,-80.6038953
3317,Continental Drive,28110,35.0169822,-80.6032500
1514,Battle Lane,28110,35.0156232,-80.6031104
1412,Winthrop Lane,28110,35.0119793,-80.6023795
1437,Winthrop Lane,28110,35.0132832,-80.6025097
1428,Standish Drive,28110,35.0129639,-80.6029980
1417,Williamsburg Lane,28110,35.0136868,-80.6043547
1509,Williamsburg Lane,28110,35.0147432,-80.6043974
1403,Winthrop Lane,28110,35.0116890,-80.6031402
3431,Continental Drive,28110,35.0176410,-80.6050663
1518,Battle Lane,28110,35.0157029,-80.6028702
3402,Continental Drive,28110,35.0175143,-80.6033537
3312,Continental Drive,28110,35.0173881,-80.6028008
1500,Battle Lane,28110,35.0155697,-80.6038803
1502,Williamsburg Lane,28110,35.0144157,-80.6037905
1432,Winthrop Lane,28110,35.0129726,-80.6020052
1404,Standish Drive,28110,35.0118196,-80.6035950
1405,Williamsburg Lane,28110,35.0130458,-80.6044412
1500,Winthrop Lane,28110,35.0140606,-80.6018254
1445,Standish Drive,28110,35.0139687,-80.6033584
1501,Battle Lane,28110,35.0157836,-80.6039461
3216,Continental Drive,28110,35.0171842,-80.6014794
3417,Continental Drive,28110,35.0176339,-80.6042386
3414,Continental Drive,28110,35.0179744,-80.6038579
1400,Standish Drive,28110,35.0118336,-80.6038961
1608,American Lane,28110,35.0165106,-80.6031803
1433,Standish Drive,28110,35.0133092,-80.6034956
1416,Williamsburg Lane,28110,35.0135704,-80.6038549
3438,Continental Drive,28110,35.0181196,-80.6053767
1619,Battle Lane,28110,35.0168944,-80.6023552
3426,Continental Drive,28110,35.0181687,-80.6046173
1440,Standish Drive,28110,35.0135704,-80.6028837
1409,Standish Drive,28110,35.0122790,-80.6040064
1615,Battle Lane,28110,35.0166801,-80.6023653
1419,Winthrop Lane,28110,35.0124509,-80.6026749
1425,Standish Drive,28110,35.0128686,-80.6035550
1513,Standish Drive,28110,35.0150020,-80.6031502
1406,Williamsburg Lane,28110,35.0131046,-80.6038338
1609,American Lane,28110,35.0167559,-80.6039090
1420,Winthrop Lane,28110,35.0123445,-80.6020971
3308,Continental Drive,28110,35.0174077,-80.6025323
1401,Williamsburg Lane,28110,35.0128407,-80.6043051
1429,Winthrop Lane,28110,35.0128769,-80.6025595
1441,Winthrop Lane,28110,35.0134933,-80.6024837
1421,Williamsburg Lane,28110,35.0139096,-80.6043535
1513,Williamsburg Lane,28110,35.0149507,-80.6043308
1407,Winthrop Lane,28110,35.0119015,-80.6030729
3437,Continental Drive,28110,35.0176494,-80.6054449
3200,Continental Drive,28110,35.0168838,-80.6005456
1510,Williamsburg Lane,28110,35.0148741,-80.6036562
1600,American Lane,28110,35.0163923,-80.6034211
3309,Continental Drive,28110,35.0168959,-80.6027058
1504,Battle Lane,28110,35.0154769,-80.6035988
1517,Standish Drive,28110,35.0151823,-80.6030293
1428,Winthrop Lane,28110,35.0127710,-80.6020532
1408,Standish Drive,28110,35.0120036,-80.6034084
1420,Standish Drive,28110,35.0125576,-80.6030895
1409,Williamsburg Lane,28110,35.0132654,-80.6044179
1448,Winthrop Lane,28110,35.0137908,-80.6018782
3209,Revere Road,28110,35.0138711,-80.6028659
1501,Williamsburg Lane,28110,35.0143218,-80.6043289
3212,Continental Drive,28110,35.0171367,-80.6012293
3421,Continental Drive,28110,35.0177018,-80.6045490
3410,Continental Drive,28110,35.0178133,-80.6036887
1401,Standish Drive,28110,35.0120345,-80.6040469
1513,Battle Lane,28110,35.0160392,-80.6033643
1437,Standish Drive,28110,35.0135253,-80.6034509
1440,Winthrop Lane,28110,35.0133758,-80.6019332
1412,Williamsburg Lane,28110,35.0133467,-80.6038535
3434,Continental Drive,28110,35.0181200,-80.6051152
3405,Continental Drive,28110,35.0173018,-80.6038968
3422,Continental Drive,28110,35.0181248,-80.6043538
1436,Standish Drive,28110,35.0133661,-80.6029223
3401,Continental Drive,28110,35.0171684,-80.6037294
1601,Battle Lane,28110,35.0162347,-80.6028992
1425,Winthrop Lane,28110,35.0126716,-80.6026006
1509,Standish Drive,28110,35.0147832,-80.6032364
1424,Williamsburg Lane,28110,35.0139962,-80.6038194
1613,American Lane,28110,35.0169579,-80.6039055
1408,Winthrop Lane,28110,35.0118207,-80.6024796
3304,Continental Drive,28110,35.0173593,-80.6022786
1412,Standish Drive,28110,35.0122154,-80.6033283
1433,Winthrop Lane,28110,35.0130766,-80.6025323
3201,Revere Road,28110,35.0137815,-80.6023919
3208,Continental Drive,28110,35.0170863,-80.6009906
1425,Williamsburg Lane,28110,35.0141121,-80.6043256
1605,Battle Lane,28110,35.0163910,-80.6027351
1517,Williamsburg Lane,28110,35.0152185,-80.6040100
1411,Winthrop Lane,28110,35.0120672,-80.6029496
1413,Standish Drive,28110,35.0124657,-80.6037908
3316,Continental Drive,28110,35.0174177,-80.6030554
1711,Winthrop Lane,28110,35.0171586,-80.6003982
1506,Williamsburg Lane,28110,35.0146588,-80.6037664
3205,Revere Road,28110,35.0138278,-80.6026375
1601,American Lane,28110,35.0163903,-80.6036886
3313,Continental Drive,28110,35.0169164,-80.6029788
1424,Winthrop Lane,28110,35.0125570,-80.6020577
1510,Battle Lane,28110,35.0155552,-80.6033485
1521,Standish Drive,28110,35.0153643,-80.6029281
1416,Winthrop Lane,28110,35.0121811,-80.6022471
1504,Winthrop Lane,28110,35.0142621,-80.6018004
1424,Standish Drive,28110,35.0127550,-80.6030334
1413,Williamsburg Lane,28110,35.0134643,-80.6044008
1444,Winthrop Lane,28110,35.0135828,-80.6019096
1505,Williamsburg Lane,28110,35.0145285,-80.6043317
3427,Continental Drive,28110,35.0176838,-80.6048013
3406,Continental Drive,28110,35.0176503,-80.6035358
1429,Standish Drive,28110,35.0130758,-80.6035321
1509,Battle Lane,28110,35.0160870,-80.6036227
1441,Standish Drive,28110,35.0137473,-80.6034030
1436,Winthrop Lane,28110,35.0131772,-80.6019830
1505,Battle Lane,28110,35.0160142,-80.6038756
3220,Continental Drive,28110,35.0172442,-80.6017188
1501,Standish Drive,28110,35.0143872,-80.6033007
3409,Continental Drive,28110,35.0174857,-80.6040453
3418,Continental Drive,28110,35.0181074,-80.6040914
1432,Standish Drive,28110,35.0131640,-80.6029577
1612,American Lane,28110,35.0167188,-80.6031404
1517,Battle Lane,28110,35.0161047,-80.6030883
1505,Standish Drive,28110,35.0145883,-80.6032905
1420,Williamsburg Lane,28110,35.0137905,-80.6038427
3300,Continental Drive,28110,35.0173197,-80.6020233
3430,Continental Drive,28110,35.0181464,-80.6048652
1416,Standish Drive,28110,35.0123705,-80.6032107
3204,Continental Drive,28110,35.0169805,-80.6007652
1609,Battle Lane,28110,35.0165333,-80.6025527
1514,Williamsburg Lane,28110,35.0150460,-80.6037974
1415,Winthrop Lane,28110,35.0122638,-80.6028040
1417,Standish Drive,28110,35.0126401,-80.6036374
3200,Revere Road,28110,35.0142425,-80.6023264
1608,Battle Lane,28110,35.0162323,-80.6021208
1616,Battle Lane,28110,35.0165694,-80.6018591
1505,Winthrop Lane,28110,35.0145903,-80.6023287
1620,Battle Lane,28110,35.0167859,-80.6017909
1605,Winthrop Lane,28110,35.0149562,-80.6021095
1600,Battle Lane,28110,35.0159403,-80.6024909
1621,Winthrop Lane,28110,35.0156786,-80.6015915
1506,Standish Drive,28110,35.0145865,-80.6027351
1633,Winthrop Lane,28110,35.0162312,-80.6012342
1641,Winthrop Lane,28110,35.0165737,-80.6009304
1613,Winthrop Lane,28110,35.0153112,-80.6018423
3206,Revere Road,28110,35.0142417,-80.6025704
1604,Battle Lane,28110,35.0160779,-80.6023120
1526,Standish Drive,28110,35.0153558,-80.6022997
3210,Revere Road,28110,35.0143153,-80.6028153
1601,Winthrop Lane,28110,35.0147790,-80.6021970
1512,Standish Drive,28110,35.0147965,-80.6026432
1637,Winthrop Lane,28110,35.0164040,-80.6010763
3209,Continental Drive,28110,35.0166174,-80.6012542
1625,Winthrop Lane,28110,35.0158678,-80.6014981
1530,Standish Drive,28110,35.0155935,-80.6022867
1612,Battle Lane,28110,35.0163758,-80.6019622
1522,Standish Drive,28110,35.0151702,-80.6024247
1518,Standish Drive,28110,35.0149964,-80.6025414
3213,Continental Drive,28110,35.0167053,-80.6014999
1609,Winthrop Lane,28110,35.0151364,-80.6019770
1629,Winthrop Lane,28110,35.0160619,-80.6013803
1617,Winthrop Lane,28110,35.0155011,-80.6017165
1628,Winthrop Lane,28110,35.0157933,-80.6008755
1632,Winthrop Lane,28110,35.0159814,-80.6007685
1604,Winthrop Lane,28110,35.0146814,-80.6016088
1704,Winthrop Lane,28110,35.0166058,-80.6001346
1716,Winthrop Lane,28110,35.0172476,-80.5997923
1624,Winthrop Lane,28110,35.0156111,-80.6010247
1636,Winthrop Lane,28110,35.0161198,-80.6005955
1700,Winthrop Lane,28110,35.0164563,-80.6002979
1612,Winthrop Lane,28110,35.0150403,-80.6014093
1620,Winthrop Lane,28110,35.0154175,-80.6011654
1712,Winthrop Lane,28110,35.0170506,-80.5998698
1640,Winthrop Lane,28110,35.0162794,-80.6004436
1616,Winthrop Lane,28110,35.0152288,-80.6012783
1608,Winthrop Lane,28110,35.0148936,-80.6015418
1708,Winthrop Lane,28110,35.0167764,-80.5999752
1626,Sumpter Lane,28110,35.0154299,-80.5998129
1629,Sumpter Lane,28110,35.0156850,-80.6002169
1638,Sumpter Lane,28110,35.0160543,-80.5996918
1614,Sumpter Lane,28110,35.0148305,-80.6002450
1617,Sumpter Lane,28110,35.0151658,-80.6006098
1604,Sumpter Lane,28110,35.0144213,-80.6005490
1601,Sumpter Lane,28110,35.0144341,-80.6010926
1605,Sumpter Lane,28110,35.0146386,-80.6009992
1634,Sumpter Lane,28110,35.0158650,-80.5995333
3101,Patriot Drive,28110,35.0140525,-80.6013279
1625,Sumpter Lane,28110,35.0155043,-80.6003661
1600,Sumpter Lane,28110,35.0142288,-80.6006857
1621,Sumpter Lane,28110,35.0153502,-80.6004932
1609,Sumpter Lane,28110,35.0147966,-80.6008912
1622,Sumpter Lane,28110,35.0152212,-80.5999409
1630,Sumpter Lane,28110,35.0156307,-80.5996747
3045,Patriot Drive,28110,35.0138121,-80.6009150
1618,Sumpter Lane,28110,35.0150323,-80.6001040
3049,Patriot Drive,28110,35.0139409,-80.6011151
1613,Sumpter Lane,28110,35.0149925,-80.6007659
1610,Sumpter Lane,28110,35.0146293,-80.6003958
1315,Love Road,28110,35.0043442,-80.5900913
1414,Love Road,28110,35.0065063,-80.5896636
1408,Love Road,28110,35.0059263,-80.5895671
1314,Love Road,28110,35.0043252,-80.5891029
1402,Love Road,28110,35.0053957,-80.5894812
1320,Love Road,28110,35.0048729,-80.5893657
2515,Goldmine Road,28110,35.0033968,-80.5915560
2505,Goldmine Road,28110,35.0027557,-80.5912189
2519,Goldmine Road,28110,35.0033911,-80.5920814
2523,Goldmine Road,28110,35.0035345,-80.5924017
2603,Goldmine Road,28110,35.0036929,-80.5930266
1209,Stevens Road,28110,35.0015217,-80.5915180
1219,Stevens Road,28110,35.0023635,-80.5907788
1211,Stevens Road,28110,35.0021014,-80.5916664
1213,Stevens Road,28110,35.0019901,-80.5910205
1212,Stevens Road,28110,35.0014439,-80.5905650
1216,Stevens Road,28110,35.0016453,-80.5904530
2417,Goldmine Road,28110,35.0017445,-80.5888961
2409,Goldmine Road,28110,35.0015591,-80.5878352
2425,Goldmine Road,28110,35.0025824,-80.5895870
2423,Goldmine Road,28110,35.0024374,-80.5891347
2502,Goldmine Road,28110,35.0033133,-80.5897686
2412,Goldmine Road,28110,35.0023731,-80.5875230
2402,Goldmine Road,28110,35.0018030,-80.5864260
2404,Goldmine Road,28110,35.0026807,-80.5862623
2322,Goldmine Road,28110,35.0026205,-80.5843860
2314,Goldmine Road,28110,35.0012223,-80.5850487
2318,Goldmine Road,28110,35.0014416,-80.5854609
2424,Goldmine Road,28110,35.0030411,-80.5890960
1312,Love Road,28110,35.0044253,-80.5878782
1620,North Rocky River Road,28110,35.0171137,-80.6045678
1610,North Rocky River Road,28110,35.0163268,-80.6049796
1600,North Rocky River Road,28110,35.0155054,-80.6046362
1518,North Rocky River Road,28110,35.0150030,-80.6061159
1504,North Rocky River Road,28110,35.0135686,-80.6066887
1604,North Rocky River Road,28110,35.0159733,-80.6059499
1502,North Rocky River Road,28110,35.0132541,-80.6067771
1512,North Rocky River Road,28110,35.0143591,-80.6064010
1522,North Rocky River Road,28110,35.0154728,-80.6060210
1410,North Rocky River Road,28110,35.0115333,-80.6071890
1406,North Rocky River Road,28110,35.0107821,-80.6066582
1404,North Rocky River Road,28110,35.0110837,-80.6074798
2968,Goldmine Road,28110,35.0109950,-80.6027909
2932,Goldmine Road,28110,35.0101178,-80.6037790
2491,Shining Light Church Road,28110,35.0086705,-80.5835873
2451,Shining Light Church Road,28110,35.0069830,-80.5831777
2401,Shining Light Church Road,28110,35.0062612,-80.5815544
2431,Shining Light Church Road,28110,35.0057901,-80.5824535
1502,W H Smith Drive,28110,35.0044206,-80.5800775
824,Wind Carved Lane,28110,35.0019384,-80.5956918
828,Wind Carved Lane,28110,35.0019641,-80.5959153
832,Wind Carved Lane,28110,35.0019816,-80.5961308
836,Wind Carved Lane,28110,35.0020100,-80.5963386
2725,Gusty Lane,28110,35.0026176,-80.5971293
2711,Gusty Lane,28110,35.0024240,-80.5970162
2707,Gusty Lane,28110,35.0022164,-80.5969266
2703,Gusty Lane,28110,35.0020072,-80.5968541
1129,Wind Chime Court,28110,35.0042666,-80.5970744
1139,Wind Chime Court,28110,35.0042037,-80.5967998
1149,Wind Chime Court,28110,35.0043639,-80.5966009
2703,Spring Breeze Way,28110,35.0046162,-80.5963756
2707,Spring Breeze Way,28110,35.0047557,-80.5965828
2715,Spring Breeze Way,28110,35.0048969,-80.5969958
2711,Spring Breeze Way,28110,35.0048056,-80.5967882
2730,Spring Breeze Way,28110,35.0055996,-80.5975025
1023,Wind Carved Lane,28110,35.0038435,-80.5988102
1027,Wind Carved Lane,28110,35.0040069,-80.5987249
1031,Wind Carved Lane,28110,35.0041989,-80.5987212
1035,Wind Carved Lane,28110,35.0043971,-80.5986826
1101,Wind Carved Lane,28110,35.0045900,-80.5986503
1113,Wind Carved Lane,28110,35.0051069,-80.5984159
1109,Wind Carved Lane,28110,35.0049307,-80.5984884
1105,Wind Carved Lane,28110,35.0047682,-80.5985669
1015,Wind Carved Lane,28110,35.0034714,-80.5987665
1007,Wind Carved Lane,28110,35.0031139,-80.5987376
955,Wind Carved Lane,28110,35.0027557,-80.5987401
1003,Wind Carved Lane,28110,35.0029324,-80.5987563
951,Wind Carved Lane,28110,35.0025764,-80.5987263
1019,Wind Carved Lane,28110,35.0036562,-80.5988254
1011,Wind Carved Lane,28110,35.0032889,-80.5987459
1119,Wind Chime Court,28110,35.0043427,-80.5972916
2746,Gusty Lane,28110,35.0031463,-80.5977848
1028,Wind Carved Lane,28110,35.0040652,-80.5981728
1014,Wind Carved Lane,28110,35.0034839,-80.5982144
1115,Wind Chime Court,28110,35.0044604,-80.5974737
1006,Wind Carved Lane,28110,35.0031234,-80.5982335
1010,Wind Carved Lane,28110,35.0032945,-80.5982424
2742,Gusty Lane,28110,35.0031628,-80.5975747
1120,Wind Chime Court,28110,35.0039201,-80.5975151
1020,Wind Carved Lane,28110,35.0036872,-80.5981776
1103,Wind Chime Court,28110,35.0046855,-80.5980739
1034,Wind Carved Lane,28110,35.0042415,-80.5981437
1116,Wind Chime Court,28110,35.0040345,-80.5976993
1107,Wind Chime Court,28110,35.0045940,-80.5978769
1111,Wind Chime Court,28110,35.0045437,-80.5976539
1024,Wind Carved Lane,28110,35.0038911,-80.5981969
2743,Gusty Lane,28110,35.0027141,-80.5976148
2755,Gusty Lane,28110,35.0027195,-80.5982597
2747,Gusty Lane,28110,35.0027289,-80.5978300
2751,Gusty Lane,28110,35.0027146,-80.5980399
2737,Gusty Lane,28110,35.0027306,-80.5973906
947,Wind Carved Lane,28110,35.0023990,-80.5987521
943,Wind Carved Lane,28110,35.0022142,-80.5987200
940,Wind Carved Lane,28110,35.0022886,-80.5981843
920,Wind Carved Lane,28110,35.0020914,-80.5977511
935,Wind Carved Lane,28110,35.0018583,-80.5985169
919,Wind Carved Lane,28110,35.0016462,-80.5976486
912,Wind Carved Lane,28110,35.0021006,-80.5973142
931,Wind Carved Lane,28110,35.0017235,-80.5983246
915,Wind Carved Lane,28110,35.0016461,-80.5974152
924,Wind Carved Lane,28110,35.0021225,-80.5979761
916,Wind Carved Lane,28110,35.0021015,-80.5975323
927,Wind Carved Lane,28110,35.0016642,-80.5980833
911,Wind Carved Lane,28110,35.0016359,-80.5972020
923,Wind Carved Lane,28110,35.0016740,-80.5978676
939,Wind Carved Lane,28110,35.0020106,-80.5986568
2719,Spring Breeze Way,28110,35.0049761,-80.5971722
2713,Wind Carved Lane,28110,35.0051906,-80.5977774
2722,Spring Breeze Way,28110,35.0054279,-80.5971075
2723,Spring Breeze Way,28110,35.0050319,-80.5973782
2726,Spring Breeze Way,28110,35.0055117,-80.5973192
2710,Goldmine Road,28110,35.0063984,-80.5967012
2714,Goldmine Road,28110,35.0065007,-80.5970080
2718,Goldmine Road,28110,35.0064345,-80.5975064
1316,Trull Place,28110,35.0082897,-80.5980919
2720,Goldmine Road,28110,35.0065733,-80.5978626
1314,Trull Place,28110,35.0080121,-80.5980648
1306,Trull Place,28110,35.0068980,-80.5973327
1320,Trull Place,28110,35.0078891,-80.5964206
1310,Trull Place,28110,35.0076380,-80.5975661
1308,Trull Place,28110,35.0071606,-80.5972173
1303,Trull Place,28110,35.0068164,-80.5986998
1309,Trull Place,28110,35.0073809,-80.5987093
1315,Trull Place,28110,35.0079373,-80.5987593
1313,Trull Place,28110,35.0076647,-80.5987364
1319,Trull Place,28110,35.0082014,-80.5987924
1307,Trull Place,28110,35.0070928,-80.5986928
1321,Trull Place,28110,35.0085494,-80.5988178
1305,Mine Shaft Drive,28110,35.0078532,-80.6005145
1310,Mine Shaft Drive,28110,35.0083863,-80.5996434
1307,Mine Shaft Drive,28110,35.0081575,-80.6004870
2816,Goldmine Road,28110,35.0072440,-80.5995321
1312,Mine Shaft Drive,28110,35.0087260,-80.5999048
2818,Goldmine Road,28110,35.0074282,-80.5999511
2812,Goldmine Road,28110,35.0071196,-80.5992044
2902,Goldmine Road,28110,35.0075670,-80.6006290
1306,Mine Shaft Drive,28110,35.0076585,-80.5995803
1308,Mine Shaft Drive,28110,35.0079808,-80.5995568
1311,Mine Shaft Drive,28110,35.0085739,-80.6004009
1303,Prospectors Court,28110,35.0083186,-80.6020240
1300,Prospectors Court,28110,35.0078370,-80.6013694
1301,Prospectors Court,28110,35.0079954,-80.6020714
1312,Prospectors Court,28110,35.0089179,-80.6014563
1304,Prospectors Court,28110,35.0081381,-80.6012768
2926,Goldmine Road,28110,35.0092501,-80.6019088
1305,Prospectors Court,28110,35.0086992,-80.6018720
1308,Prospectors Court,28110,35.0087421,-80.6011070
1419,Trull Place,28110,35.0108709,-80.5973218
2820,Deans Court,28110,35.0098635,-80.5989458
2812,Deans Court,28110,35.0103636,-80.5987179
1402,Trull Place,28110,35.0091195,-80.5977587
1401,Trull Place,28110,35.0092389,-80.5985086
1404,Trull Place,28110,35.0093597,-80.5975395
1325,Trull Place,28110,35.0089925,-80.5986587
2816,Deans Court,28110,35.0101589,-80.5990375
2808,Deans Court,28110,35.0105280,-80.5980926
2800,Deans Court,28110,35.0103917,-80.5974842
2809,Deans Court,28110,35.0099448,-80.5981465
1403,Trull Place,28110,35.0095410,-80.5982293
2804,Deans Court,28110,35.0104265,-80.5977480
1410,Trull Place,28110,35.0096630,-80.5967912
2815,Deans Court,28110,35.0097372,-80.5985639
2801,Deans Court,28110,35.0098593,-80.5978610
2815,Old Charlotte Highway,28110,35.0144485,-80.5853313
2751,Old Charlotte Highway,28110,35.0140689,-80.5849272
2691,West Roosevelt Boulevard,28110,35.0180169,-80.5761662
2804,Spring Breeze Way,28110,35.0057632,-80.5979816
2810,Spring Breeze Way,28110,35.0060030,-80.5983404
2811,Spring Breeze Way,28110,35.0054565,-80.5986466
2814,Spring Breeze Way,28110,35.0060405,-80.5985951
2807,Spring Breeze Way,28110,35.0054646,-80.5983715
2820,Spring Breeze Way,28110,35.0058867,-80.5987963
2806,Spring Breeze Way,28110,35.0058417,-80.5981600
2803,Spring Breeze Way,28110,35.0053850,-80.5981961
2815,Spring Breeze Way,28110,35.0056676,-80.5988294
2811,Goldmine Road,28110,35.0065340,-80.5997174
2805,Goldmine Road,28110,35.0058780,-80.5992570
2809,Goldmine Road,28110,35.0064174,-80.5993313
2815,Goldmine Road,28110,35.0067884,-80.6002035
2821,Goldmine Road,28110,35.0071289,-80.6008776
3010,Goldmine Road,28110,35.0093142,-80.6043205
3008,Goldmine Road,28110,35.0082799,-80.6036578
3012,Goldmine Road,28110,35.0082833,-80.6040063
3018,Goldmine Road,28110,35.0083276,-80.6049584
2924,Goldmine Road,28110,35.0091877,-80.6034640
3014,Goldmine Road,28110,35.0082863,-80.6043593
2915,Goldmine Road,28110,35.0073588,-80.6029307
3009,Goldmine Road,28110,35.0074797,-80.6046904
3011,Goldmine Road,28110,35.0075404,-80.6051138
3019,Goldmine Road,28110,35.0076810,-80.6055476
1404,Tucker Road,28110,35.0078812,-80.5945836
2624,Goldmine Road,28110,35.0054655,-80.5952492
1323,Tucker Road,28110,35.0074615,-80.5953378
1412,Tucker Road,28110,35.0087041,-80.5940322
1320,Tucker Road,28110,35.0069740,-80.5947821
1307,Tucker Road,28110,35.0061294,-80.5958336
1312,Tucker Road,28110,35.0066408,-80.5948882
2620,Goldmine Road,28110,35.0055691,-80.5944938
1319,Tucker Road,28110,35.0071959,-80.5954354
1407,Tucker Road,28110,35.0084153,-80.5951189
1324,Tucker Road,28110,35.0071962,-80.5946800
2700,Goldmine Road,28110,35.0057436,-80.5958895
1327,Tucker Road,28110,35.0077031,-80.5952654
1315,Tucker Road,28110,35.0068640,-80.5956985
1403,Tucker Road,28110,35.0079963,-80.5950163
1328,Tucker Road,28110,35.0075256,-80.5945857
2704,Goldmine Road,28110,35.0058774,-80.5963083
1308,Tucker Road,28110,35.0060494,-80.5950227
1311,Tucker Road,28110,35.0064475,-80.5957169
1603,Walter Hasty Road,28110,35.0158268,-80.5886945
2911,Old Charlotte Highway,28110,35.0173283,-80.5882789
1601,Mackenzie Lane,28110,35.0149642,-80.5881371
1613,Mackenzie Lane,28110,35.0154214,-80.5876262
1625,Mackenzie Lane,28110,35.0158059,-80.5870937
1615,Walter Hasty Road,28110,35.0164886,-80.5878391
1608,Mackenzie Lane,28110,35.0149836,-80.5874720
1614,Walter Hasty Road,28110,35.0160955,-80.5875699
1628,Mackenzie Lane,28110,35.0156080,-80.5865917
2857,Old Charlotte Highway,28110,35.0162218,-80.5870106
1620,Mackenzie Lane,28110,35.0153523,-80.5869497
1601,Walter Hasty Road,28110,35.0156793,-80.5889657
1604,Walter Hasty Road,28110,35.0155421,-80.5883925
1629,Mackenzie Lane,28110,35.0159158,-80.5869067
1605,Walter Hasty Road,28110,35.0159881,-80.5884339
1604,Mackenzie Lane,28110,35.0147926,-80.5876216
1605,Mackenzie Lane,28110,35.0152223,-80.5880221
1617,Mackenzie Lane,28110,35.0155490,-80.5874558
2903,Old Charlotte Highway,28110,35.0167570,-80.5876140
1616,Mackenzie Lane,28110,35.0152299,-80.5871247
2861,Walter Hasty Road,28110,35.0164152,-80.5871743
1602,Walter Hasty Road,28110,35.0152675,-80.5885383
1606,Walter Hasty Road,28110,35.0157451,-80.5880989
2905,Old Charlotte Highway,28110,35.0169175,-80.5877770
1633,Mackenzie Lane,28110,35.0160618,-80.5867122
1600,Mackenzie Lane,28110,35.0147653,-80.5879663
1609,Mackenzie Lane,28110,35.0153026,-80.5878104
1621,Mackenzie Lane,28110,35.0156954,-80.5872784
1609,Walter Hasty Road,28110,35.0162501,-80.5880189
1612,Mackenzie Lane,28110,35.0151002,-80.5872848
1618,Walter Hasty Road,28110,35.0162068,-80.5873902
1632,Mackenzie Lane,28110,35.0157444,-80.5863904
1624,Mackenzie Lane,28110,35.0154771,-80.5867762
2901,Old Charlotte Highway,28110,35.0166311,-80.5874496
2850,Old Charlotte Highway,28110,35.0176566,-80.5843567
1511,Love Road,28110,35.0090836,-80.5910646
1507,Love Road,28110,35.0083484,-80.5908152
1423,Trull Place,28110,35.0109188,-80.5964120
1420,Trull Place,28110,35.0102929,-80.5956302
2602,Goldmine Road,28110,35.0046749,-80.5925350
2526,Goldmine Road,28110,35.0045117,-80.5919369
2612,Goldmine Road,28110,35.0058464,-80.5931663
2606,Goldmine Road,28110,35.0048280,-80.5929804
1415,Love Road,28110,35.0064548,-80.5903451
1403,Love Road,28110,35.0054182,-80.5902414
1409,Love Road,28110,35.0059190,-80.5902546
2606,Spring Breeze Way,28110,35.0047072,-80.5951364
2610,Spring Breeze Way,28110,35.0047719,-80.5953241
2614,Spring Breeze Way,28110,35.0048527,-80.5955060
2618,Spring Breeze Way,28110,35.0049192,-80.5957266
2622,Spring Breeze Way,28110,35.0050326,-80.5959074
2702,Spring Breeze Way,28110,35.0050862,-80.5961087
2706,Spring Breeze Way,28110,35.0051243,-80.5963244
2714,Spring Breeze Way,28110,35.0052825,-80.5967131
2718,Spring Breeze Way,28110,35.0053498,-80.5969104
2562,Spring Breeze Way,28110,35.0038548,-80.5949647
2558,Spring Breeze Way,28110,35.0037087,-80.5950721
2554,Spring Breeze Way,28110,35.0035672,-80.5952058
2550,Spring Breeze Way,28110,35.0034181,-80.5953346
2542,Spring Breeze Way,28110,35.0032524,-80.5954479
2460,Spring Breeze Way,28110,35.0020166,-80.5941950
2464,Spring Breeze Way,28110,35.0021295,-80.5943491
2502,Spring Breeze Way,28110,35.0022379,-80.5945167
2506,Spring Breeze Way,28110,35.0023532,-80.5946969
2510,Spring Breeze Way,28110,35.0024702,-80.5948594
2514,Spring Breeze Way,28110,35.0025903,-80.5950256
2518,Spring Breeze Way,28110,35.0027001,-80.5951903
2524,Spring Breeze Way,28110,35.0028371,-80.5953508
2532,Spring Breeze Way,28110,35.0030232,-80.5954304
2563,Spring Breeze Way,28110,35.0040965,-80.5954409
2557,Spring Breeze Way,28110,35.0039368,-80.5955378
2553,Spring Breeze Way,28110,35.0037939,-80.5956716
2549,Spring Breeze Way,28110,35.0036491,-80.5958189
2545,Spring Breeze Way,28110,35.0034744,-80.5959228
2541,Spring Breeze Way,28110,35.0032930,-80.5960187
2533,Spring Breeze Way,28110,35.0030290,-80.5960100
2529,Spring Breeze Way,28110,35.0028296,-80.5959584
2521,Spring Breeze Way,28110,35.0025034,-80.5956922
2513,Spring Breeze Way,28110,35.0022511,-80.5953490
2505,Spring Breeze Way,28110,35.0020032,-80.5950242
803,Wind Carved Lane,28110,35.0017615,-80.5946156
807,Wind Carved Lane,28110,35.0016240,-80.5947681
811,Wind Carved Lane,28110,35.0015165,-80.5949751
815,Wind Carved Lane,28110,35.0014490,-80.5952075
819,Wind Carved Lane,28110,35.0014562,-80.5954434
823,Wind Carved Lane,28110,35.0014908,-80.5956590
827,Wind Carved Lane,28110,35.0015104,-80.5958743
831,Wind Carved Lane,28110,35.0015280,-80.5960883
835,Wind Carved Lane,28110,35.0015268,-80.5963072
839,Wind Carved Lane,28110,35.0014840,-80.5965371
902,Wind Carved Lane,28110,35.0015165,-80.5967472
907,Wind Carved Lane,28110,35.0016047,-80.5969568
2734,Gusty Lane,28110,35.0031793,-80.5972553
2726,Gusty Lane,28110,35.0030092,-80.5968036
2730,Gusty Lane,28110,35.0031670,-80.5970219
2722,Gusty Lane,28110,35.0028669,-80.5966573
2714,Gusty Lane,28110,35.0025289,-80.5964968
2710,Gusty Lane,28110,35.0023617,-80.5964114
2718,Gusty Lane,28110,35.0026931,-80.5965613
2517,Spring Breeze Way,28110,35.0023561,-80.5955311
2509,Spring Breeze Way,28110,35.0021117,-80.5951937
2003,Shady Lane,28110,35.0257290,-80.5943700
1911,Shady Lane,28110,35.0253757,-80.5945931
2204,Wilson Avenue,28110,35.0282952,-80.5940110
2115,Shady Lane,28110,35.0280180,-80.5930892
2114,Wilson Avenue,28110,35.0273055,-80.5944846
2118,Wilson Avenue,28110,35.0277841,-80.5942691
2102,Wilson Avenue,28110,35.0262599,-80.5950658
2009,Shady Lane,28110,35.0262250,-80.5941189
2210,Wilson Avenue,28110,35.0289405,-80.5935636
2110,Wilson Avenue,28110,35.0270242,-80.5946514
2014,Wilson Avenue,28110,35.0257863,-80.5953368
2016,Wilson Avenue,28110,35.0260337,-80.5951918
2011,Shady Lane,28110,35.0264608,-80.5939202
2106,Wilson Avenue,28110,35.0265223,-80.5949407
2012,Wilson Avenue,28110,35.0255283,-80.5954375
2013,Shady Lane,28110,35.0267480,-80.5937615
2105,Shady Lane,28110,35.0272312,-80.5935057
2117,Shady Lane,28110,35.0283734,-80.5929070
2010,Wilson Avenue,28110,35.0252781,-80.5955802
2008,Wilson Avenue,28110,35.0250056,-80.5957205
3308,Old Charlotte Highway,28110,35.0244778,-80.5956643
1903,Shady Lane,28110,35.0242292,-80.5950945
2107,Shady Lane,28110,35.0274579,-80.5933822
2101,Shady Lane,28110,35.0269888,-80.5936348
2005,Shady Lane,28110,35.0259685,-80.5942115
3312,Old Charlotte Highway,28110,35.0246366,-80.5959825
1909,Shady Lane,28110,35.0249721,-80.5947782
2206,Wilson Avenue,28110,35.0285686,-80.5938430
2109,Shady Lane,28110,35.0277617,-80.5931929
3306,Old Charlotte Highway,28110,35.0243578,-80.5953725
1902,Shady Lane,28110,35.0239532,-80.5945308
2004,Shady Lane,28110,35.0253754,-80.5937234
1906,Shady Lane,28110,35.0243971,-80.5942706
2008,Shady Lane,28110,35.0258653,-80.5934998
1912,Shady Lane,28110,35.0249471,-80.5939157
1910,Shady Lane,28110,35.0247195,-80.5940492
2010,Shady Lane,28110,35.0261386,-80.5933380
2006,Shady Lane,28110,35.0255814,-80.5936326
3202,Gordon Lane,28110,35.0267460,-80.5921789
2112,Shady Lane,28110,35.0277781,-80.5924037
2102,Shady Lane,28110,35.0267732,-80.5929405
2116,Shady Lane,28110,35.0280378,-80.5923248
2110,Shady Lane,28110,35.0275214,-80.5925793
2202,Shady Lane,28110,35.0282989,-80.5920615
2108,Shady Lane,28110,35.0272872,-80.5927225
3201,Gordon Lane,28110,35.0258875,-80.5922623
3203,Gordon Lane,28110,35.0260525,-80.5926599
3414,Old Charlotte Highway,28110,35.0259113,-80.5970236
2003,Wilson Avenue,28110,35.0250825,-80.5964748
3402,Old Charlotte Highway,28110,35.0249604,-80.5968373
2013,Wilson Avenue,28110,35.0257669,-80.5961011
2007,Wilson Avenue,28110,35.0252832,-80.5963709
2015,Wilson Avenue,28110,35.0260385,-80.5959472
2009,Wilson Avenue,28110,35.0255072,-80.5962447
2017,Wilson Avenue,28110,35.0262915,-80.5958103
3412,Old Charlotte Highway,28110,35.0262707,-80.5970808
2101,Wilson Avenue,28110,35.0265112,-80.5957215
2105,Wilson Avenue,28110,35.0269328,-80.5955728
3407,Scotty Lane,28110,35.0282804,-80.5954794
2113,Wilson Avenue,28110,35.0276589,-80.5951664
3409,Scotty Lane,28110,35.0283738,-80.5957502
2117,Wilson Avenue,28110,35.0281110,-80.5948212
2203,Wilson Avenue,28110,35.0285382,-80.5946422
2205,Wilson Avenue,28110,35.0288066,-80.5944952
3410,Scotty Lane,28110,35.0289279,-80.5954706
2303,Wilson Avenue,28110,35.0298101,-80.5939791
2301,Wilson Avenue,28110,35.0295807,-80.5940895
2209,Wilson Avenue,28110,35.0293148,-80.5942654
2103,Melody Drive,28110,35.0283378,-80.5964146
2201,Melody Drive,28110,35.0289145,-80.5963415
2207,Melody Drive,28110,35.0293200,-80.5961126
2302,Wilson Avenue,28110,35.0295086,-80.5933025
2306,Wilson Avenue,28110,35.0297857,-80.5931600
2210,Shady Lane,28110,35.0292358,-80.5927076
3413,West Highway 74,28110,35.0289936,-80.5912415
2204,Shady Lane,28110,35.0288440,-80.5921632
3501,Romany Drive,28110,35.0262008,-80.5914870
3503,Romany Drive,28110,35.0264660,-80.5914171
3505,Romany Drive,28110,35.0267117,-80.5913475
3515,Romany Drive,28110,35.0274274,-80.5912451
3507,Romany Drive,28110,35.0270404,-80.5913445
3419,Romany Drive,28110,35.0259347,-80.5915806
3517,Romany Drive,28110,35.0278235,-80.5910743
3519,Romany Drive,28110,35.0281250,-80.5910948
3516,Romany Drive,28110,35.0272825,-80.5905231
3510,Romany Drive,28110,35.0268776,-80.5906990
3418,Romany Drive,28110,35.0258320,-80.5909965
3506,Romany Drive,28110,35.0266081,-80.5907367
3504,Romany Drive,28110,35.0263312,-80.5908443
3502,Romany Drive,28110,35.0260630,-80.5909137
3518,Romany Drive,28110,35.0276591,-80.5904431
3410,Romany Drive,28110,35.0248872,-80.5909963
3415,Romany Drive,28110,35.0253445,-80.5917344
1909,Overhill Drive,28110,35.0248882,-80.5905422
3416,Romany Drive,28110,35.0255344,-80.5910610
1915,Overhill Drive,28110,35.0251726,-80.5905264
3414,Romany Drive,28110,35.0252786,-80.5911170
3214,Clarkdale Street,28110,35.0252836,-80.5928583
3204,Clarkdale Street,28110,35.0239659,-80.5919960
3208,Clarkdale Street,28110,35.0244050,-80.5923552
3212,Clarkdale Street,28110,35.0248161,-80.5925283
3402,Romany Drive,28110,35.0243337,-80.5905346
1821,Overhill Drive,28110,35.0239679,-80.5911942
1824,Timber Lane Drive,28110,35.0218842,-80.5856363
1825,Timber Lane Drive,28110,35.0222082,-80.5862665
1809,Timber Lane Drive,28110,35.0205738,-80.5872665
1819,Timber Lane Drive,28110,35.0216974,-80.5866397
1800,Timber Lane Drive,28110,35.0195559,-80.5873208
1817,Timber Lane Drive,28110,35.0214403,-80.5867944
1901,Timber Lane Drive,28110,35.0227273,-80.5859733
1810,Timber Lane Drive,28110,35.0204576,-80.5865157
2911,Ava Court,28110,35.0221185,-80.5854750
1811,Timber Lane Drive,28110,35.0208813,-80.5870776
1818,Timber Lane Drive,28110,35.0211758,-80.5860485
2901,Ava Court,28110,35.0217603,-80.5847309
1808,Timber Lane Drive,28110,35.0200837,-80.5867424
1721,Timber Lane Drive,28110,35.0202419,-80.5875344
1820,Timber Lane Drive,28110,35.0214121,-80.5859569
1814,Timber Lane Drive,28110,35.0209137,-80.5862625
1822,Timber Lane Drive,28110,35.0216205,-80.5857999
1829,Timber Lane Drive,28110,35.0224409,-80.5861281
1813,Timber Lane Drive,28110,35.0211515,-80.5868935
1718,Timber Lane Drive,28110,35.0197591,-80.5880779
1708,Timber Lane Drive,28110,35.0190443,-80.5884348
1720,Timber Lane Drive,28110,35.0195967,-80.5878198
1712,Timber Lane Drive,28110,35.0192566,-80.5882271
1914,Timber Lane Drive,28110,35.0234625,-80.5845669
1908,Timber Lane Drive,28110,35.0227549,-80.5850348
1910,Timber Lane Drive,28110,35.0230088,-80.5848863
1916,Timber Lane Drive,28110,35.0236888,-80.5844171
1912,Timber Lane Drive,28110,35.0232394,-80.5847338
1906,Timber Lane Drive,28110,35.0225155,-80.5852422
2905,Ava Court,28110,35.0212608,-80.5853186
1909,Timber Lane Drive,28110,35.0230971,-80.5856569
1911,Timber Lane Drive,28110,35.0234642,-80.5854247
1920,Timber Lane Drive,28110,35.0240406,-80.5842715
1919,Timber Lane Drive,28110,35.0242223,-80.5848926
2900,Ava Court,28110,35.0230065,-80.5841190
2009,Overhill Drive,28110,35.0264186,-80.5898339
2011,Overhill Drive,28110,35.0266924,-80.5897982
2015,Overhill Drive,28110,35.0271256,-80.5896413
2007,Overhill Drive,28110,35.0261602,-80.5899341
2080,Melody Drive,28110,35.0274625,-80.5966406
3205,Clarkdale Street,28110,35.0238594,-80.5929242
3211,Clarkdale Street,28110,35.0243987,-80.5933662
1803,Overhill Drive,28110,35.0227814,-80.5928624
1805,Overhill Drive,28110,35.0229904,-80.5925338
3208,Old Charlotte Highway,28110,35.0230638,-80.5931441
3210,Old Charlotte Highway,28110,35.0233576,-80.5935966
3201,Clarkdale Street,28110,35.0234651,-80.5927207
3110,Old Charlotte Highway,28110,35.0217766,-80.5916214
1816,Overhill Drive,28110,35.0230328,-80.5912354
1906,Overhill Drive,28110,35.0240376,-80.5899605
3311,Ridgewood Avenue,28110,35.0266152,-80.5886373
2002,Overhill Drive,28110,35.0261550,-80.5892559
1916,Overhill Drive,28110,35.0250940,-80.5895449
1925,John Moore Road,28110,35.0253828,-80.5881682
1804,Overhill Drive,28110,35.0224136,-80.5923355
2006,Overhill Drive,28110,35.0256868,-80.5893520
1914,Overhill Drive,28110,35.0249102,-80.5896178
1921,John Moore Road,28110,35.0254607,-80.5886175
2005,John Moore Road,28110,35.0259540,-80.5877510
1918,Overhill Drive,28110,35.0253812,-80.5894913
1910,Overhill Drive,28110,35.0246507,-80.5897115
1822,Overhill Drive,28110,35.0235195,-80.5906279
3309,Ridgewood Avenue,28110,35.0261744,-80.5888015
2001,John Moore Road,28110,35.0256663,-80.5880715
3114,Old Charlotte Highway,28110,35.0221158,-80.5918148
1902,Overhill Drive,28110,35.0237787,-80.5902643
1820,Overhill Drive,28110,35.0233351,-80.5909077
3106,Old Charlotte Highway,28110,35.0213001,-80.5913814
2010,Overhill Drive,28110,35.0265258,-80.5892482
3108,Old Charlotte Highway,28110,35.0215053,-80.5915921
1808,Overhill Drive,28110,35.0226778,-80.5918214
1908,Overhill Drive,28110,35.0243354,-80.5897832
2014,Overhill Drive,28110,35.0268816,-80.5891323
1916,John Moore Road,28110,35.0243245,-80.5879517
1914,John Moore Road,28110,35.0240607,-80.5881351
1910,John Moore Road,28110,35.0237493,-80.5883324
1918,John Moore Road,28110,35.0245971,-80.5878394
1922,John Moore Road,28110,35.0250464,-80.5875597
1920,John Moore Road,28110,35.0248037,-80.5877250
3208,Valleydale Road,28110,35.0245002,-80.5863714
3201,Valleydale Road,28110,35.0236371,-80.5859844
3203,Valleydale Road,28110,35.0237578,-80.5861673
3206,Valleydale Road,28110,35.0243564,-80.5861226
3205,Valleydale Road,28110,35.0239391,-80.5864715
3207,Valleydale Road,28110,35.0241269,-80.5867721
3209,Valleydale Road,28110,35.0242532,-80.5869776
3211,Valleydale Road,28110,35.0244134,-80.5872541
1815,John Moore Road,28110,35.0219959,-80.5900518
1823,John Moore Road,28110,35.0226529,-80.5896316
1819,John Moore Road,28110,35.0224691,-80.5898866
1827,John Moore Road,28110,35.0229844,-80.5894289
1901,John Moore Road,28110,35.0232470,-80.5894800
1907,John Moore Road,28110,35.0237548,-80.5890400
1917,John Moore Road,28110,35.0246014,-80.5885286
1919,John Moore Road,28110,35.0249370,-80.5884287
1824,John Moore Road,28110,35.0223128,-80.5891812
1826,John Moore Road,28110,35.0225744,-80.5889727
3100,Hickory Grove Drive,28110,35.0218531,-80.5875363
3101,Hickory Grove Drive,28110,35.0219301,-80.5879039
3105,Hickory Grove Drive,28110,35.0221948,-80.5880794
3108,Hickory Grove Drive,28110,35.0223617,-80.5872873
3115,Hickory Grove Drive,28110,35.0224586,-80.5880558
3104,Hickory Grove Drive,28110,35.0220797,-80.5872603
1717,Timber Lane Drive,28110,35.0205073,-80.5881517
3020,Old Charlotte Highway,28110,35.0205867,-80.5904595
3016,Old Charlotte Highway,28110,35.0204378,-80.5899180
3024,Old Charlotte Highway,28110,35.0209705,-80.5906338
3012,Old Charlotte Highway,28110,35.0202332,-80.5897090
1810,John Moore Road,28110,35.0212327,-80.5903294
1812,John Moore Road,28110,35.0214681,-80.5899474
3006,Old Charlotte Highway,28110,35.0192761,-80.5892264
3010,Old Charlotte Highway,28110,35.0197233,-80.5895904
2101,Lewis Street,28110,35.0186395,-80.5904925
2010,Pinedell Avenue,28110,35.0185251,-80.5917060
2105,Lewis Street,28110,35.0189193,-80.5901322
2104,Lewis Street,28110,35.0190919,-80.5906828
2006,Pinedell Avenue,28110,35.0180827,-80.5920966
2107,Lewis Street,28110,35.0190952,-80.5898569
2106,Lewis Street,28110,35.0192818,-80.5904169
2008,Pinedell Avenue,28110,35.0182982,-80.5919027
2016,Pinedell Avenue,28110,35.0187207,-80.5912022
2102,Lewis Street,28110,35.0189450,-80.5908893
2108,Lewis Street,28110,35.0194327,-80.5902351
2012,Pinedell Avenue,28110,35.0185896,-80.5913991
2103,Lewis Street,28110,35.0188154,-80.5902740
2008,Lewis Street,28110,35.0178241,-80.5912331
2919,Old Charlotte Highway,28110,35.0179383,-80.5889032
3001,Grimes Street,28110,35.0176571,-80.5901177
3003,Grimes Street,28110,35.0178374,-80.5902826
3001,Old Charlotte Highway,28110,35.0185482,-80.5895869
2109,Longs Trailer Park Road,28110,35.0206785,-80.5926678
3109,Old Charlotte Highway,28110,35.0212049,-80.5922705
2102,Longs Trailer Park Road,28110,35.0201164,-80.5931920
3017,Old Charlotte Highway,28110,35.0201953,-80.5911012
2106,Longs Trailer Park Road,28110,35.0202479,-80.5928757
3019,Old Charlotte Highway,28110,35.0204043,-80.5912929
2116,Longs Trailer Park Road,28110,35.0205220,-80.5922973
3023,Old Charlotte Highway,28110,35.0200861,-80.5920057
2101,Longs Trailer Park Road,28110,35.0205136,-80.5930023
2117,Longs Trailer Park Road,28110,35.0208408,-80.5922563
2114,Longs Trailer Park Road,28110,35.0204680,-80.5924173
3015,Old Charlotte Highway,28110,35.0199980,-80.5909183
3105,Old Charlotte Highway,28110,35.0208617,-80.5918559
2113,Longs Trailer Park Road,28110,35.0207646,-80.5924586
2112,Longs Trailer Park Road,28110,35.0204104,-80.5925244
3103,Old Charlotte Highway,28110,35.0208626,-80.5916067
2108,Longs Trailer Park Road,28110,35.0202951,-80.5927630
3119,Old Charlotte Highway,28110,35.0218982,-80.5933663
3113,Old Charlotte Highway,28110,35.0215898,-80.5927430
3201,Old Charlotte Highway,28110,35.0223436,-80.5934476
3117,Old Charlotte Highway,28110,35.0219603,-80.5930586
3127,Old Charlotte Highway,28110,35.0219836,-80.5941070
3123,Old Charlotte Highway,28110,35.0218848,-80.5937491
3211,Old Charlotte Highway,28110,35.0229747,-80.5941556
3213,Old Charlotte Highway,28110,35.0225734,-80.5946455
3203,Old Charlotte Highway,28110,35.0223425,-80.5942091
3209,Old Charlotte Highway,28110,35.0227718,-80.5942770
2521,Carroll Street,28110,35.0166806,-80.5821098
2534,Carroll Street,28110,35.0174090,-80.5797974
2543,Carroll Street,28110,35.0186254,-80.5790781
2518,Carroll Street,28110,35.0160390,-80.5818595
2524,Carroll Street,28110,35.0164244,-80.5810415
2543,Arnold Drive,28110,35.0173754,-80.5780467
2535,Arnold Drive,28110,35.0166198,-80.5791663
2530,Carroll Street,28110,35.0169440,-80.5803404
2545,Carroll Street,28110,35.0188598,-80.5788666
2522,Carroll Street,28110,35.0163442,-80.5812725
2545,Arnold Drive,28110,35.0175267,-80.5777853
2537,Arnold Drive,28110,35.0168607,-80.5788265
2519,Carroll Street,28110,35.0165258,-80.5823323
2520,Carroll Street,28110,35.0161274,-80.5815410
2547,Arnold Drive,28110,35.0177057,-80.5775038
2523,Carroll Street,28110,35.0168935,-80.5816762
2523,Arnold Drive,28110,35.0157935,-80.5803576
2546,Carroll Street,28110,35.0184463,-80.5782111
2527,Carroll Street,28110,35.0172764,-80.5811675
2540,Carroll Street,28110,35.0179741,-80.5789400
2525,Carroll Street,28110,35.0171179,-80.5814479
2525,Arnold Drive,28110,35.0160418,-80.5800012
2531,Carroll Street,28110,35.0176416,-80.5807200
2538,Carroll Street,28110,35.0177356,-80.5793085
2529,Carroll Street,28110,35.0174449,-80.5809773
2544,Carroll Street,28110,35.0182719,-80.5785073
2531,Arnold Drive,28110,35.0163480,-80.5795897
2519,Arnold Drive,28110,35.0156168,-80.5809657
2533,Carroll Street,28110,35.0178847,-80.5803403
2536,Carroll Street,28110,35.0175683,-80.5795347
2537,Carroll Street,28110,35.0181745,-80.5799198
2526,Carroll Street,28110,35.0166203,-80.5808295
2532,Carroll Street,28110,35.0172030,-80.5800388
2541,Arnold Drive,28110,35.0172069,-80.5783175
2513,Carroll Street,28110,35.0160004,-80.5831010
2515,Carroll Street,28110,35.0161737,-80.5828508
2517,Carroll Street,28110,35.0163523,-80.5825875
2516,Carroll Street,28110,35.0158259,-80.5821531
2512,Carroll Street,28110,35.0154539,-80.5826680
2514,Carroll Street,28110,35.0156261,-80.5824398
2513,Arnold Drive,28110,35.0149337,-80.5816437
2515,Arnold Drive,28110,35.0150908,-80.5813730
2511,Arnold Drive,28110,35.0147630,-80.5819271
2507,Carroll Street,28110,35.0154542,-80.5839321
2509,Carroll Street,28110,35.0156673,-80.5836645
2511,Carroll Street,28110,35.0158232,-80.5833557
2505,Carroll Street,28110,35.0151825,-80.5840999
2024,Olde Towne Drive,28110,35.0184546,-80.5846406
2004,Olde Towne Drive,28110,35.0174906,-80.5860411
1904,Olde Towne Drive,28110,35.0171176,-80.5865614
2020,Olde Towne Drive,28110,35.0182670,-80.5849407
2028,Olde Towne Drive,28110,35.0186399,-80.5844277
2100,Olde Towne Drive,28110,35.0196542,-80.5829069
2000,Olde Towne Drive,28110,35.0172946,-80.5863245
2012,Olde Towne Drive,28110,35.0178935,-80.5855160
2044,Olde Towne Drive,28110,35.0194532,-80.5832926
2036,Olde Towne Drive,28110,35.0190198,-80.5838828
2037,Olde Towne Drive,28110,35.0195916,-80.5843516
2040,Olde Towne Drive,28110,35.0192142,-80.5836216
2025,Olde Towne Drive,28110,35.0190066,-80.5851072
2116,Autumn Drive,28110,35.0197534,-80.5839696
2021,Olde Towne Drive,28110,35.0187735,-80.5853687
1900,Olde Towne Drive,28110,35.0169582,-80.5868617
2017,Olde Towne Drive,28110,35.0185801,-80.5856049
2033,Olde Towne Drive,28110,35.0193923,-80.5846039
2013,Olde Towne Drive,28110,35.0183631,-80.5858934
2110,Autumn Drive,28110,35.0200611,-80.5841289
2016,Olde Towne Drive,28110,35.0180801,-80.5852304
2005,Olde Towne Drive,28110,35.0180228,-80.5864124
2029,Olde Towne Drive,28110,35.0192349,-80.5848585
2009,Olde Towne Drive,28110,35.0182000,-80.5861639
2001,Olde Towne Drive,28110,35.0178436,-80.5866758
2008,Olde Towne Drive,28110,35.0176698,-80.5857448
2544,Arnold Drive,28110,35.0170976,-80.5772997
2524,Arnold Drive,28110,35.0153423,-80.5798613
2542,Arnold Drive,28110,35.0169200,-80.5775784
2540,Arnold Drive,28110,35.0167395,-80.5778401
2536,Arnold Drive,28110,35.0164075,-80.5783390
2538,Arnold Drive,28110,35.0165980,-80.5780379
2528,Arnold Drive,28110,35.0157273,-80.5793862
2534,Arnold Drive,28110,35.0162212,-80.5786564
2530,Arnold Drive,28110,35.0158614,-80.5791398
2920,Old Charlotte Highway,28110,35.0184815,-80.5881275
2500,Carroll Street,28110,35.0144077,-80.5840949
2504,Carroll Street,28110,35.0147432,-80.5837066
2510,Carroll Street,28110,35.0150955,-80.5827134
2508,Carroll Street,28110,35.0151100,-80.5831783
2509,Arnold Drive,28110,35.0146102,-80.5821867
2720,Old Charlotte Highway,28110,35.0141358,-80.5838489
2506,Carroll Street,28110,35.0149287,-80.5834363
2503,Arnold Drive,28110,35.0141221,-80.5830309
2507,Arnold Drive,28110,35.0144284,-80.5826406
2710,Old Charlotte Highway,28110,35.0137972,-80.5835716
2516,Arnold Drive,28110,35.0146619,-80.5809672
2514,Arnold Drive,28110,35.0144897,-80.5812923
2501,Carroll Street,28110,35.0148339,-80.5845602
2743,West Roosevelt Boulevard,28110,35.0192003,-80.5770900
2691,West Roosevelt Boulevard,28110,35.0185860,-80.5762362
2548,Carroll Street,28110,35.0187888,-80.5777588
2733,West Roosevelt Boulevard,28110,35.0188744,-80.5766321
2558,Arnold Drive,28110,35.0183849,-80.5774504
2556,Arnold Drive,28110,35.0182145,-80.5772616
2830,Old Charlotte Highway,28110,35.0153240,-80.5850060
2846,Old Charlotte Highway,28110,35.0157976,-80.5855361
2820,Old Charlotte Highway,28110,35.0150645,-80.5847803
2840,Old Charlotte Highway,28110,35.0155606,-80.5852607
2409,Castleberry Court,28110,35.0159515,-80.5761701
2617,Lancelot Drive,28110,35.0160604,-80.5749900
2610,Lancelot Drive,28110,35.0160595,-80.5739756
2404,Castleberry Court,28110,35.0158201,-80.5753408
2408,Castleberry Court,28110,35.0161415,-80.5756835
2614,Lancelot Drive,28110,35.0162292,-80.5743444
2613,Lancelot Drive,28110,35.0158873,-80.5746255
2610,Nottingham Lane,28110,35.0154044,-80.5753843
2618,Lancelot Drive,28110,35.0164362,-80.5748070
2413,Castleberry Court,28110,35.0164243,-80.5761651
2401,Castleberry Court,28110,35.0156718,-80.5758774
2613,Nottingham Lane,28110,35.0145525,-80.5759920
2715,Nottingham Lane,28110,35.0149318,-80.5773539
2709,Nottingham Lane,28110,35.0147708,-80.5764494
2727,Nottingham Lane,28110,35.0150285,-80.5776720
2730,Nottingham Lane,28110,35.0159702,-80.5777533
2714,Nottingham Lane,28110,35.0157821,-80.5768983
2735,Nottingham Lane,28110,35.0154731,-80.5785468
2600,Nottingham Lane,28110,35.0151393,-80.5749516
2609,Lancelot Drive,28110,35.0155829,-80.5740718
2606,Nottingham Lane,28110,35.0155800,-80.5746017
2608,Nottingham Lane,28110,35.0155318,-80.5750332
2657,West Roosevelt Boulevard,28110,35.0175137,-80.5753868
2617,West Roosevelt Boulevard,28110,35.0169749,-80.5740378
2611,West Roosevelt Boulevard,28110,35.0164248,-80.5732929
2619,West Roosevelt Boulevard,28110,35.0171634,-80.5742900
2613,West Roosevelt Boulevard,28110,35.0166230,-80.5735473
2621,West Roosevelt Boulevard,28110,35.0173384,-80.5745282
2615,West Roosevelt Boulevard,28110,35.0167942,-80.5737721
2854,Old Charlotte Highway,28110,35.0166129,-80.5859988
2337,Roland Drive,28110,35.0134672,-80.5771062
2328,Roland Drive,28110,35.0124114,-80.5771905
2325,Roland Drive,28110,35.0125882,-80.5779651
2331,Roland Drive,28110,35.0129812,-80.5774105
2608,Roland Drive,28110,35.0125855,-80.5789630
2334,Roland Drive,28110,35.0126789,-80.5766331
2342,Roland Drive,28110,35.0134659,-80.5756696
2323,Roland Drive,28110,35.0124389,-80.5781646
2329,Roland Drive,28110,35.0128757,-80.5775967
2340,Roland Drive,28110,35.0130679,-80.5759480
2346,Roland Drive,28110,35.0138787,-80.5751216
2338,Roland Drive,28110,35.0129317,-80.5762120
2321,Roland Drive,28110,35.0123484,-80.5783587
2326,Roland Drive,28110,35.0121606,-80.5775840
2327,Roland Drive,28110,35.0126469,-80.5777348
2343,Roland Drive,28110,35.0139086,-80.5761448
2339,Roland Drive,28110,35.0136302,-80.5763367
2318,Roland Drive,28110,35.0116863,-80.5784358
2322,Roland Drive,28110,35.0118510,-80.5781652
2312,Roland Drive,28110,35.0113729,-80.5789981
2316,Roland Drive,28110,35.0115446,-80.5787182
2500,Arnold Drive,28110,35.0133122,-80.5829993
2510,Arnold Drive,28110,35.0137779,-80.5822180
2622,Old Charlotte Highway,28110,35.0130944,-80.5812449
2620,Old Charlotte Highway,28110,35.0128333,-80.5809769
2212,Walters Division Road,28110,35.0086212,-80.5772367
2516,Pinyan Avenue,28110,35.0104940,-80.5757138
2223,Walters Division Road,28110,35.0095229,-80.5766184
2237,Walters Division Road,28110,35.0099232,-80.5758551
2218,Walters Division Road,28110,35.0090727,-80.5764582
2244,Walters Division Road,28110,35.0098595,-80.5748670
2236,Walters Division Road,28110,35.0094386,-80.5755860
2232,Walters Division Road,28110,35.0093165,-80.5757402
2208,Walters Division Road,28110,35.0085764,-80.5774671
2215,Walters Division Road,28110,35.0093639,-80.5775111
2211,Walters Division Road,28110,35.0092129,-80.5777129
2233,Walters Division Road,28110,35.0097808,-80.5761215
2228,Walters Division Road,28110,35.0092656,-80.5759950
2242,Walters Division Road,28110,35.0097601,-80.5750656
2238,Walters Division Road,28110,35.0096266,-80.5752824
2214,Walters Division Road,28110,35.0087136,-80.5770130
2227,Walters Division Road,28110,35.0096308,-80.5763412
2243,Walters Division Road,28110,35.0101614,-80.5753080
2216,Walters Division Road,28110,35.0088767,-80.5767756
2504,Old Charlotte Highway,28110,35.0088901,-80.5784167
2506,Old Charlotte Highway,28110,35.0090827,-80.5782883
2510,Old Charlotte Highway,28110,35.0091944,-80.5785393
2514,Old Charlotte Highway,28110,35.0094265,-80.5790851
2522,Old Charlotte Highway,28110,35.0098055,-80.5794102
2518,Old Charlotte Highway,28110,35.0096597,-80.5792914
2512,Old Charlotte Highway,28110,35.0092884,-80.5789132
2526,Old Charlotte Highway,28110,35.0099911,-80.5796215
2476,Old Charlotte Highway,28110,35.0083525,-80.5751270
2319,Roland Drive,28110,35.0121888,-80.5786645
2317,Roland Drive,28110,35.0120961,-80.5788611
2315,Roland Drive,28110,35.0119879,-80.5790820
2310,Roland Drive,28110,35.0112544,-80.5792826
2306,Roland Drive,28110,35.0111554,-80.5795947
2307,Roland Drive,28110,35.0115777,-80.5799271
2602,Old Charlotte Highway,28110,35.0112821,-80.5807960
2316,Hargette Road,28110,35.0109938,-80.5777141
2308,Hargette Road,28110,35.0104030,-80.5787701
2307,Hargette Road,28110,35.0107199,-80.5790730
2309,Hargette Road,28110,35.0108246,-80.5787952
2322,Hargette Road,28110,35.0112440,-80.5769662
2317,Hargette Road,28110,35.0113997,-80.5777438
2310,Hargette Road,28110,35.0105230,-80.5785109
2315,Hargette Road,28110,35.0112643,-80.5779482
2312,Hargette Road,28110,35.0107328,-80.5782270
2313,Hargette Road,28110,35.0111611,-80.5783325
2645,Nelda Drive,28110,35.0113656,-80.5743751
2677,Nelda Drive,28110,35.0108912,-80.5749519
2649,Nelda Drive,28110,35.0120403,-80.5747091
2667,Nelda Drive,28110,35.0115391,-80.5755382
2653,Nelda Drive,28110,35.0122760,-80.5748507
2641,Nelda Drive,28110,35.0119990,-80.5740422
2675,Nelda Drive,28110,35.0108046,-80.5753447
2671,Nelda Drive,28110,35.0118078,-80.5751336
2665,Nelda Drive,28110,35.0114869,-80.5761050
2684,Nelda Drive,28110,35.0100690,-80.5745248
2659,Nelda Drive,28110,35.0121133,-80.5760510
2647,Nelda Drive,28110,35.0116162,-80.5747932
2681,Nelda Drive,28110,35.0105259,-80.5747851
2661,Nelda Drive,28110,35.0118056,-80.5764314
2655,Nelda Drive,28110,35.0122165,-80.5752020
2541,Old Charlotte Highway,28110,35.0096462,-80.5813226
2523,Old Charlotte Highway,28110,35.0092547,-80.5804657
2601,Old Charlotte Highway,28110,35.0107140,-80.5818797
2509,Old Charlotte Highway,28110,35.0085591,-80.5793455
2511,Old Charlotte Highway,28110,35.0087068,-80.5795439
2513,Old Charlotte Highway,28110,35.0089052,-80.5797219
2495,Old Charlotte Highway,28110,35.0080786,-80.5786252
2503,Old Charlotte Highway,28110,35.0082182,-80.5789601
2489,Old Charlotte Highway,28110,35.0077393,-80.5781202
2485,Old Charlotte Highway,28110,35.0074469,-80.5777590
2487,Old Charlotte Highway,28110,35.0076264,-80.5779493
2450,Old Charlotte Highway,28110,35.0054332,-80.5747351
2465,Old Charlotte Highway,28110,35.0059314,-80.5762922
2469,Old Charlotte Highway,28110,35.0060387,-80.5766795
2456,Old Charlotte Highway,28110,35.0057381,-80.5751449
2442,Old Charlotte Highway,28110,35.0052110,-80.5743357
1501,Old Charlotte Highway,28110,35.0067535,-80.5774892
2475,Old Charlotte Highway,28110,35.0064678,-80.5769975
2468,Old Charlotte Highway,28110,35.0066272,-80.5745976
2464,Old Charlotte Highway,28110,35.0061151,-80.5754304
2631,Old Charlotte Highway,28110,35.0117600,-80.5825560
2675,Old Charlotte Highway,28110,35.0123459,-80.5838418
3303,Old Charlotte Highway,28110,35.0228386,-80.5961461
3221,Old Charlotte Highway,28110,35.0233164,-80.5950644
3323,Old Charlotte Highway,28110,35.0237492,-80.5959228
3115,Old Charlotte Highway,28110,35.0214811,-80.5942055
1803,Pinedell Avenue,28110,35.0160019,-80.5942756
1807,Winfield Drive,28110,35.0160837,-80.5954510
1836,Winfield Drive,28110,35.0176046,-80.5960394
1818,Winfield Drive,28110,35.0167392,-80.5970665
1809,Winfield Drive,28110,35.0161151,-80.5958589
1816,Winfield Drive,28110,35.0166786,-80.5966976
1703,Pinedell Avenue,28110,35.0151713,-80.5962244
1815,Winfield Drive,28110,35.0161561,-80.5969662
1810,Winfield Drive,28110,35.0166623,-80.5957248
1831,Winfield Drive,28110,35.0175625,-80.5970694
1823,Winfield Drive,28110,35.0166810,-80.5978697
1809,Pinedell Avenue,28110,35.0161829,-80.5939270
1701,Pinedell Avenue,28110,35.0156205,-80.5968459
1711,Pinedell Avenue,28110,35.0156270,-80.5951281
1837,Winfield Drive,28110,35.0177970,-80.5961975
1813,Winfield Drive,28110,35.0161765,-80.5965913
1812,Winfield Drive,28110,35.0166663,-80.5960582
1829,Winfield Drive,28110,35.0173797,-80.5973539
1821,Winfield Drive,28110,35.0164339,-80.5977687
1805,Pinedell Avenue,28110,35.0158487,-80.5946111
1806,Winfield Drive,28110,35.0162972,-80.5949246
1835,Winfield Drive,28110,35.0180007,-80.5965435
1826,Winfield Drive,28110,35.0173938,-80.5960660
1811,Winfield Drive,28110,35.0161132,-80.5961959
1814,Winfield Drive,28110,35.0166704,-80.5963564
1705,Pinedell Avenue,28110,35.0153171,-80.5959322
1825,Winfield Drive,28110,35.0169857,-80.5978122
1817,Winfield Drive,28110,35.0158215,-80.5972229
1808,Winfield Drive,28110,35.0165684,-80.5952966
1707,Pinedell Avenue,28110,35.0154494,-80.5955785
1833,Winfield Drive,28110,35.0178222,-80.5968314
1714,Sue Street,28110,35.0149495,-80.5935371
1708,Sue Street,28110,35.0142442,-80.5930189
1808,Pinedell Avenue,28110,35.0158467,-80.5935763
1711,Love Road,28110,35.0131084,-80.5922555
1715,Love Road,28110,35.0134187,-80.5923948
1716,Sue Street,28110,35.0152067,-80.5936878
1809,Love Road,28110,35.0149132,-80.5928784
1710,Sue Street,28110,35.0144697,-80.5931974
1801,Love Road,28110,35.0140933,-80.5927107
1806,Pinedell Avenue,28110,35.0156623,-80.5939199
1712,Sue Street,28110,35.0147142,-80.5933632
1717,Love Road,28110,35.0137376,-80.5925541
1802,Pinedell Avenue,28110,35.0154220,-80.5945029
1702,Carson Street,28110,35.0130959,-80.5935114
1705,Sue Street,28110,35.0137102,-80.5932821
1722,Carson Street,28110,35.0148833,-80.5947069
1711,Sue Street,28110,35.0145170,-80.5938186
1710,Carson Street,28110,35.0139697,-80.5940808
1704,Carson Street,28110,35.0133305,-80.5936626
1701,Sue Street,28110,35.0133953,-80.5930936
1709,Sue Street,28110,35.0142503,-80.5936383
1712,Carson Street,28110,35.0142895,-80.5942788
1712,Pinedell Avenue,28110,35.0152219,-80.5948942
1715,Sue Street,28110,35.0148174,-80.5940183
1707,Sue Street,28110,35.0139725,-80.5935042
1716,Carson Street,28110,35.0145171,-80.5944071
1706,Carson Street,28110,35.0136040,-80.5938464
2564,Spring Breeze Way,28110,35.0040311,-80.5948995
1206,Tabitha Court,28110,35.0040829,-80.5946579
1210,Tabitha Court,28110,35.0041744,-80.5944691
1214,Tabitha Court,28110,35.0043802,-80.5943356
1211,Tabitha Court,28110,35.0045802,-80.5944581
1207,Tabitha Court,28110,35.0046735,-80.5946929
2602,Spring Breeze Way,28110,35.0045679,-80.5949598
2525,Spring Breeze Way,28110,35.0026504,-80.5958534
2710,Spring Breeze Way,28110,35.0051991,-80.5965229
2607,Spring Breeze Way,28110,35.0043348,-80.5954817
2613,Spring Breeze Way,28110,35.0044113,-80.5957265
1152,Wind Chime Court,28110,35.0042172,-80.5960801
2617,Spring Breeze Way,28110,35.0044912,-80.5959342
1148,Wind Chime Court,28110,35.0040598,-80.5961951
1144,Wind Chime Court,28110,35.0038991,-80.5963555
1136,Wind Chime Court,28110,35.0037595,-80.5968078
1140,Wind Chime Court,28110,35.0037995,-80.5965608
1132,Wind Chime Court,28110,35.0037769,-80.5970433
1128,Wind Chime Court,28110,35.0038258,-80.5972742
2917,Old Charlotte Highway,28110,35.0168681,-80.5904831
1693,Pinedell Avenue,28110,35.0149178,-80.5967246
1812,Love Road,28110,35.0157361,-80.5926874
1718,Love Road,28110,35.0139054,-80.5917062
1716,Love Road,28110,35.0135727,-80.5916232
1711,Virginia Street,28110,35.0131363,-80.5954671
1720,Virginia Street,28110,35.0143502,-80.5956154
1713,Carson Street,28110,35.0140281,-80.5948029
1719,Virginia Street,28110,35.0141305,-80.5961108
1705,Carson Street,28110,35.0131374,-80.5941653
1712,Virginia Street,28110,35.0133865,-80.5949780
1706,Pinedell Avenue,28110,35.0149938,-80.5955295
1709,Virginia Street,28110,35.0129131,-80.5952861
1717,Virginia Street,28110,35.0138917,-80.5959448
1722,Virginia Street,28110,35.0146063,-80.5958021
1715,Virginia Street,28110,35.0136049,-80.5958143
1714,Virginia Street,28110,35.0136355,-80.5951333
1717,Carson Street,28110,35.0145336,-80.5951216
1709,Carson Street,28110,35.0135826,-80.5944695
1703,Virginia Street,28110,35.0121824,-80.5948127
1706,Virginia Street,28110,35.0126071,-80.5944552
1724,Virginia Street,28110,35.0148047,-80.5959168
1707,Virginia Street,28110,35.0126663,-80.5951327
1723,Virginia Street,28110,35.0146129,-80.5965297
1711,Carson Street,28110,35.0138405,-80.5946637
1713,Virginia Street,28110,35.0133825,-80.5956533
1716,Virginia Street,28110,35.0139783,-80.5953407
1715,Carson Street,28110,35.0142976,-80.5949483
1721,Virginia Street,28110,35.0143605,-80.5962692
1707,Carson Street,28110,35.0133521,-80.5943122
1701,Virginia Street,28110,35.0119355,-80.5946531
1710,Virginia Street,28110,35.0131308,-80.5948048
1705,Virginia Street,28110,35.0124177,-80.5949810
1621,Love Road,28110,35.0120254,-80.5921103
1700,Virginia Street,28110,35.0115538,-80.5939460
1705,Love Road,28110,35.0121690,-80.5928758
1617,Love Road,28110,35.0113981,-80.5925447
1619,Love Road,28110,35.0116928,-80.5920388
1615,Love Road,28110,35.0108780,-80.5930241
2405,Gleneagles Drive,28110,34.9972505,-80.5931198
2415,Gleneagles Drive,28110,34.9979099,-80.5934454
2403,Gleneagles Drive,28110,34.9969002,-80.5928963
2409,Gleneagles Drive,28110,34.9976080,-80.5933099
914,Stevens Road,28110,34.9972747,-80.5941088
908,Stevens Road,28110,34.9968327,-80.5946154
900,Stevens Road,28110,34.9963720,-80.5950363
2809,Foxworth Drive,28110,34.9963488,-80.5942557
2811,Foxworth Drive,28110,34.9963960,-80.5936372
2813,Foxworth Drive,28110,34.9964625,-80.5932577
1005,Stevens Road,28110,34.9994130,-80.5935966
2507,Foxworth Drive,28110,34.9998950,-80.5942320
2515,Foxworth Drive,28110,35.0000092,-80.5957910
2519,Foxworth Drive,28110,35.0000792,-80.5965140
2508,Hopewood Lane,28110,34.9992018,-80.5953650
1003,Stevens Road,28110,34.9991095,-80.5938706
2505,Foxworth Drive,28110,34.9998496,-80.5938369
2511,Foxworth Drive,28110,34.9999422,-80.5949705
2517,Foxworth Drive,28110,35.0000449,-80.5962066
1001,Stevens Road,28110,34.9987794,-80.5941324
2502,Hopewood Lane,28110,34.9991007,-80.5945548
2510,Hopewood Lane,28110,34.9992212,-80.5957674
1007,Stevens Road,28110,34.9996752,-80.5933282
2509,Foxworth Drive,28110,34.9999249,-80.5946223
2513,Foxworth Drive,28110,34.9999860,-80.5954257
2512,Hopewood Lane,28110,34.9993051,-80.5961743
2516,Hopewood Lane,28110,34.9992920,-80.5965389
925,Stevens Road,28110,34.9983360,-80.5944468
921,Stevens Road,28110,34.9980494,-80.5946325
2509,Hopewood Lane,28110,34.9984423,-80.5954936
2505,Hopewood Lane,28110,34.9984001,-80.5951230
2521,Hopewood Lane,28110,34.9983654,-80.5968477
2517,Hopewood Lane,28110,34.9983882,-80.5962852
2515,Hopewood Lane,28110,34.9977028,-80.5963192
2513,Hopewood Lane,28110,34.9976864,-80.5957859
2703,Foxworth Drive,28110,34.9976319,-80.5973175
2621,Foxworth Drive,28110,34.9982406,-80.5976845
2701,Foxworth Drive,28110,34.9978653,-80.5975342
2617,Foxworth Drive,28110,34.9985617,-80.5977834
2615,Foxworth Drive,28110,34.9988752,-80.5977920
2609,Foxworth Drive,28110,34.9998583,-80.5976647
2521,Foxworth Drive,28110,35.0000987,-80.5969513
2417,Bearskin Lane,28110,34.9998390,-80.5910462
2316,Raccoon Run,28110,34.9989949,-80.5893569
2306,Raccoon Run,28110,34.9989326,-80.5880719
2401,Bearskin Lane,28110,34.9997059,-80.5889536
2314,Raccoon Run,28110,34.9989883,-80.5889539
2311,Bearskin Lane,28110,34.9995536,-80.5877584
2320,Raccoon Run,28110,34.9990452,-80.5898017
2407,Bearskin Lane,28110,34.9997417,-80.5897610
2310,Raccoon Run,28110,34.9989720,-80.5884861
2413,Bearskin Lane,28110,34.9997982,-80.5906589
2321,Bearskin Lane,28110,34.9996582,-80.5885249
2326,Raccoon Run,28110,34.9990201,-80.5906033
2324,Raccoon Run,28110,34.9990683,-80.5901110
2327,Raccoon Run,28110,34.9984847,-80.5908412
2307,Raccoon Run,28110,34.9981796,-80.5884401
2313,Raccoon Run,28110,34.9982388,-80.5889164
2301,Raccoon Run,28110,34.9981323,-80.5876911
2319,Raccoon Run,28110,34.9983871,-80.5896906
2311,Raccoon Run,28110,34.9976698,-80.5892088
2425,Bearskin Lane,28110,35.0001856,-80.5918594
2421,Bearskin Lane,28110,34.9999533,-80.5916118
1106,Stevens Road,28110,34.9996874,-80.5921149
1004,Stevens Road,28110,34.9991706,-80.5926442
2319,Gleneagles Drive,28110,34.9964356,-80.5923988
2315,Gleneagles Drive,28110,34.9961734,-80.5920873
2401,Gleneagles Drive,28110,34.9966600,-80.5925878
2313,Gleneagles Drive,28110,34.9959220,-80.5919198
2416,Gleneagles Drive,28110,34.9986097,-80.5927366
2412,Gleneagles Drive,28110,34.9983286,-80.5924696
1008,White Marsh Court,28110,34.9974109,-80.5904532
1012,White Marsh Court,28110,34.9976432,-80.5901636
2304,Gleneagles Drive,28110,34.9965762,-80.5905503
2316,Gleneagles Drive,28110,34.9966971,-80.5911582
2816,Foxworth Drive,28110,34.9954629,-80.5924875
2818,Foxworth Drive,28110,34.9950406,-80.5921426
2810,Foxworth Drive,28110,34.9957605,-80.5937877
2804,Foxworth Drive,28110,34.9957121,-80.5949277
2812,Foxworth Drive,28110,34.9955731,-80.5931965
2808,Foxworth Drive,28110,34.9957353,-80.5941370
2802,Foxworth Drive,28110,34.9957593,-80.5952804
2722,Foxworth Drive,28110,34.9960393,-80.5960444
2716,Foxworth Drive,28110,34.9962773,-80.5967876
2800,Foxworth Drive,28110,34.9959049,-80.5956937
2718,Foxworth Drive,28110,34.9961477,-80.5963757
2712,Foxworth Drive,28110,34.9966116,-80.5974215
2704,Foxworth Drive,28110,34.9971168,-80.5979654
2706,Foxworth Drive,28110,34.9968868,-80.5977266
2506,Foxworth Drive,28110,35.0006304,-80.5939576
2514,Foxworth Drive,28110,35.0006964,-80.5954678
2516,Foxworth Drive,28110,35.0007808,-80.5958868
2508,Foxworth Drive,28110,35.0006391,-80.5942745
1203,Stevens Road,28110,35.0004627,-80.5924230
2502,Foxworth Drive,28110,35.0005717,-80.5931682
2520,Foxworth Drive,28110,35.0008806,-80.5966965
2602,Foxworth Drive,28110,35.0008011,-80.5978892
2604,Foxworth Drive,28110,35.0006489,-80.5981149
2606,Foxworth Drive,28110,35.0004038,-80.5983757
2616,Foxworth Drive,28110,34.9987741,-80.5985864
2618,Foxworth Drive,28110,34.9984337,-80.5985921
2612,Foxworth Drive,28110,34.9994272,-80.5986240
2610,Foxworth Drive,28110,34.9998074,-80.5985937
2614,Foxworth Drive,28110,34.9990890,-80.5986029
2303,Gleneagles Drive,28110,34.9958260,-80.5901083
2301,Gleneagles Drive,28110,34.9955737,-80.5896932
2322,Bearskin Lane,28110,35.0002940,-80.5884772
2402,Bearskin Lane,28110,35.0003551,-80.5892867
2318,Bearskin Lane,28110,35.0002607,-80.5880788
2410,Bearskin Lane,28110,35.0004603,-80.5901410
2316,Bearskin Lane,28110,35.0002470,-80.5877060
2400,Bearskin Lane,28110,35.0003160,-80.5888946
2412,Bearskin Lane,28110,35.0004713,-80.5905246
2310,Bearskin Lane,28110,34.9996840,-80.5866141
2300,Bearskin Lane,28110,34.9986957,-80.5869002
2210,Bearskin Lane,28110,34.9977149,-80.5869232
2216,Bearskin Lane,28110,34.9983694,-80.5869488
2308,Bearskin Lane,28110,34.9993969,-80.5866145
2212,Bearskin Lane,28110,34.9980615,-80.5869364
2412,River Chase Drive,28110,34.9973230,-80.5846194
2330,River Chase Drive,28110,34.9965729,-80.5838350
2449,River Chase Drive,28110,34.9992081,-80.5859583
2302,River Chase Drive,28110,34.9957562,-80.5820998
2316,River Chase Drive,28110,34.9961642,-80.5829561
2436,River Chase Drive,28110,34.9985516,-80.5852354
2506,River Chase Drive,28110,34.9998865,-80.5853279
2323,River Chase Drive,28110,34.9959959,-80.5838422
2311,River Chase Drive,28110,34.9955707,-80.5829126
2409,River Chase Drive,28110,34.9969853,-80.5850589
2513,River Chase Drive,28110,35.0003431,-80.5859447
2424,River Chase Drive,28110,34.9979572,-80.5849259
2335,River Chase Drive,28110,34.9963511,-80.5845933
2433,River Chase Drive,28110,34.9982956,-80.5857387
2420,River Chase Drive,28110,34.9977516,-80.5848275
2421,River Chase Drive,28110,34.9975768,-80.5854330
2530,River Chase Drive,28110,35.0003538,-80.5850266
2334,River Chase Drive,28110,34.9967356,-80.5841568
2408,River Chase Drive,28110,34.9971240,-80.5844714
2445,River Chase Drive,28110,34.9989660,-80.5859826
2521,River Chase Drive,28110,35.0006417,-80.5855223
2505,River Chase Drive,28110,34.9998576,-80.5859904
2320,River Chase Drive,28110,34.9962809,-80.5832272
2440,River Chase Drive,28110,34.9987714,-80.5853198
2500,Hunters Way,28110,34.9996043,-80.5853758
2319,River Chase Drive,28110,34.9958588,-80.5835508
2308,River Chase Drive,28110,34.9958771,-80.5823701
2307,River Chase Drive,28110,34.9954587,-80.5826935
2405,River Chase Drive,28110,34.9967648,-80.5849098
2509,River Chase Drive,28110,35.0000950,-80.5859557
2428,River Chase Drive,28110,34.9981539,-80.5850242
2331,River Chase Drive,28110,34.9962382,-80.5843364
2450,River Chase Drive,28110,34.9992068,-80.5853487
2429,River Chase Drive,28110,34.9980940,-80.5856402
2404,River Chase Drive,28110,34.9969283,-80.5843109
2417,River Chase Drive,28110,34.9973716,-80.5852819
2446,River Chase Drive,28110,34.9990072,-80.5853278
2441,River Chase Drive,28110,34.9987460,-80.5859743
2516,River Chase Drive,28110,35.0001312,-80.5852264
2324,River Chase Drive,28110,34.9964182,-80.5835115
2453,River Chase Drive,28110,34.9994131,-80.5859746
2315,River Chase Drive,28110,34.9956742,-80.5832173
2312,River Chase Drive,28110,34.9959917,-80.5826221
2432,River Chase Drive,28110,34.9983838,-80.5851033
2501,River Chase Drive,28110,34.9996442,-80.5859337
2327,River Chase Drive,28110,34.9961340,-80.5840784
2425,River Chase Drive,28110,34.9978058,-80.5855250
2303,River Chase Drive,28110,34.9953109,-80.5824801
2413,River Chase Drive,28110,34.9971703,-80.5851933
2517,River Chase Drive,28110,35.0004779,-80.5856855
2416,River Chase Drive,28110,34.9975448,-80.5846939
2401,River Chase Drive,28110,34.9965141,-80.5848210
2437,River Chase Drive,28110,34.9985241,-80.5858778
2309,Hunters Way,28110,34.9968961,-80.5828850
2415,Hunters Way,28110,34.9985094,-80.5837021
2304,Hunters Way,28110,34.9972205,-80.5823111
2406,Hunters Way,28110,34.9979848,-80.5832335
2405,Hunters Way,28110,34.9980468,-80.5838392
2440,Hunters Way,28110,34.9995360,-80.5840492
2321,Hunters Way,28110,34.9973535,-80.5836530
2452,Hunters Way,28110,34.9996414,-80.5848347
2437,Hunters Way,28110,34.9989990,-80.5842373
2445,Hunters Way,28110,34.9990883,-80.5845385
2428,Hunters Way,28110,34.9991303,-80.5833798
2305,Hunters Way,28110,34.9967349,-80.5827174
2416,Hunters Way,28110,34.9984713,-80.5831180
2308,Hunters Way,28110,34.9973758,-80.5825769
2412,Hunters Way,28110,34.9982479,-80.5831520
2401,Hunters Way,28110,34.9977764,-80.5838356
2317,Hunters Way,28110,34.9971885,-80.5834484
2433,Hunters Way,28110,34.9988607,-80.5840205
2300,Hunters Way,28110,34.9969382,-80.5820577
2432,Hunters Way,28110,34.9992468,-80.5836051
2444,Hunters Way,28110,34.9996901,-80.5843163
2420,Hunters Way,28110,34.9987095,-80.5831113
2312,Hunters Way,28110,34.9975228,-80.5828379
2313,Hunters Way,28110,34.9970747,-80.5832190
2325,Hunters Way,28110,34.9975608,-80.5837871
2301,Hunters Way,28110,34.9966500,-80.5823192
2320,Hunters Way,28110,34.9976762,-80.5831939
2409,Hunters Way,28110,34.9982602,-80.5837993
2427,Hunters Way,28110,34.9987542,-80.5837774
2436,Hunters Way,28110,34.9994244,-80.5838069
2448,Hunters Way,28110,34.9996137,-80.5845817
2449,Hunters Way,28110,34.9991246,-80.5847839
2424,Hunters Way,28110,34.9989424,-80.5831935
2124,Dawn Ridge,28110,34.9975735,-80.5808156
2119,Dawn Ridge,28110,34.9969523,-80.5808890
2104,River Chase Drive,28110,34.9964449,-80.5795429
2108,Dawn Ridge,28110,34.9967385,-80.5799615
2209,Dawn Ridge,28110,34.9976732,-80.5820211
2218,Dawn Ridge,28110,34.9982546,-80.5821394
2120,Dawn Ridge,28110,34.9973863,-80.5805395
2127,Dawn Ridge,28110,34.9972836,-80.5813184
2204,Dawn Ridge,28110,34.9979164,-80.5813711
2107,Dawn Ridge,28110,34.9965414,-80.5805292
2114,River Chase Drive,28110,34.9962614,-80.5798358
2116,Dawn Ridge,28110,34.9971929,-80.5802634
2100,River Chase Drive,28110,34.9966643,-80.5793309
2201,Dawn Ridge,28110,34.9974291,-80.5815470
2213,Dawn Ridge,28110,34.9978097,-80.5823174
2200,Dawn Ridge,28110,34.9977494,-80.5810830
2115,Dawn Ridge,28110,34.9967543,-80.5806160
2123,Dawn Ridge,28110,34.9971425,-80.5810966
2112,Dawn Ridge,28110,34.9970011,-80.5800722
2214,Dawn Ridge,28110,34.9983071,-80.5818475
2205,Dawn Ridge,28110,34.9975764,-80.5817866
2210,Dawn Ridge,28110,34.9980843,-80.5816147
2217,Dawn Ridge,28110,34.9980591,-80.5823907
2210,Goldmine Road,28110,34.9992842,-80.5817234
2202,Goldmine Road,28110,34.9985735,-80.5809457
2212,Goldmine Road,28110,34.9995161,-80.5824026
2204,Goldmine Road,28110,34.9991643,-80.5809123
2220,Goldmine Road,28110,35.0000832,-80.5834843
2308,Goldmine Road,28110,35.0007725,-80.5843711
2302,Goldmine Road,28110,35.0004577,-80.5839424
2214,Goldmine Road,28110,35.0003572,-80.5818587
2224,Goldmine Road,28110,35.0006631,-80.5830267
2201,River Chase Drive,28110,34.9956004,-80.5801408
2215,River Chase Drive,28110,34.9953840,-80.5810758
2101,River Chase Drive,28110,34.9963336,-80.5788119
2113,River Chase Drive,28110,34.9957369,-80.5795005
2209,River Chase Drive,28110,34.9954397,-80.5807688
2109,River Chase Drive,28110,34.9959058,-80.5791909
2205,River Chase Drive,28110,34.9955033,-80.5804489
2219,River Chase Drive,28110,34.9952788,-80.5815977
2105,River Chase Drive,28110,34.9961184,-80.5789640
2117,River Chase Drive,28110,34.9956808,-80.5798243
2103,Dawn Ridge,28110,34.9961496,-80.5803622
2208,River Chase Drive,28110,34.9959825,-80.5808344
2212,River Chase Drive,28110,34.9959194,-80.5810838
2216,River Chase Drive,28110,34.9958774,-80.5813430
2204,River Chase Drive,28110,34.9960085,-80.5805557
3518,Old Charlotte Highway,28110,35.0299157,-80.5990188
5014,Myers Road,28110,35.0540965,-80.5981012
3503,Weddington Road,28110,34.9868890,-80.6141004
5323,Secrest Short Cut Road,28110,35.0586968,-80.6007804
3621,North Rocky River Road,28110,35.0625556,-80.5940337
3609,North Rocky River Road,28110,35.0606036,-80.5933994
3730,Lacee Paige Road,28110,35.0588896,-80.5902942
3606,Lacee Paige Road,28110,35.0587073,-80.5922551
3736,Lacee Paige Road,28110,35.0590539,-80.5898132
3626,Lacee Paige Road,28110,35.0593061,-80.5918497
3603,North Rocky River Road,28110,35.0598239,-80.5934036
4307,North Rocky River Road,28079,35.0753240,-80.5904144
2516,West Unionville Indian Trail Road,28079,35.0753281,-80.5922154
2520,West Unionville Indian Trail Road,28079,35.0753946,-80.5927520
2510,West Unionville Indian Trail Road,28079,35.0752535,-80.5915560
2515,West Unionville Indian Trail Road,28079,35.0752790,-80.5918917
2504,West Unionville Indian Trail Road,28079,35.0751769,-80.5908568
4122,North Rocky River Road,28079,35.0720779,-80.5914695
4106,North Rocky River Road,28079,35.0706067,-80.5923753
4206,North Rocky River Road,28079,35.0726382,-80.5914170
4114,North Rocky River Road,28079,35.0711584,-80.5921338
4102,North Rocky River Road,28079,35.0702297,-80.5925146
4210,North Rocky River Road,28079,35.0732316,-80.5910605
2407,West Unionville Indian Trail Road,28079,35.0741845,-80.5887189
2317,West Unionville Indian Trail Road,28079,35.0741599,-80.5875965
2411,West Unionville Indian Trail Road,28079,35.0743661,-80.5891053
4224,North Rocky River Road,28079,35.0743026,-80.5900437
4241,North Rocky River Road,28079,35.0739115,-80.5908351
2308,West Unionville Indian Trail Road,28110,35.0755228,-80.5866750
4310,North Rocky River Road,28079,35.0753637,-80.5890355
2406,West Unionville Indian Trail Road,28079,35.0748589,-80.5888558
2318,West Unionville Indian Trail Road,28110,35.0747759,-80.5881603
2412,West Unionville Indian Trail Road,28079,35.0749141,-80.5892850
2316,Creekside Drive,28079,35.0716590,-80.5946157
2320,Creekside Drive,28079,35.0719241,-80.5942186
2310,Creekside Drive,28079,35.0711465,-80.5940368
4115,North Rocky River Road,28079,35.0716919,-80.5927124
2511,West Unionville Indian Trail Road,28079,35.0745326,-80.5917087
4209,North Rocky River Road,28079,35.0736556,-80.5916795
4203,North Rocky River Road,28079,35.0725089,-80.5922097
4120,North Rocky River Road,28079,35.0718542,-80.5897637
4304,North Rocky River Road,28079,35.0749142,-80.5900157
4313,North Rocky River Road,28079,35.0759912,-80.5898269
3904,North Rocky River Road,28079,35.0673733,-80.5932562
3915,North Rocky River Road,28110,35.0676118,-80.5942585
3902,North Rocky River Road,28079,35.0665438,-80.5930086
3813,North Rocky River Road,28110,35.0661711,-80.5944563
3913,North Rocky River Road,28110,35.0680039,-80.5948330
3909,North Rocky River Road,28110,35.0670032,-80.5946436
3901,North Rocky River Road,28110,35.0665018,-80.5944896
3812,Perrette Road,28079,35.0653582,-80.5919017
2405,Fox Hunt Drive,28110,35.0317406,-80.5797309
4512,Goldmine Road,28110,35.0143741,-80.6458989
4307,Atkinson Way,28110,35.0487433,-80.6026243
4303,Atkinson Way,28110,35.0481669,-80.6024446
4320,Atkinson Way,28110,35.0505323,-80.6033207
4317,Atkinson Way,28110,35.0499157,-80.6034688
4305,Atkinson Way,28110,35.0484716,-80.6026055
4319,Atkinson Way,28110,35.0501589,-80.6036184
4401,Atkinson Way,28110,35.0509592,-80.6045544
4308,Atkinson Way,28110,35.0491333,-80.6022402
4306,Atkinson Way,28110,35.0488553,-80.6020606
4318,Atkinson Way,28110,35.0503279,-80.6030852
4316,Atkinson Way,28110,35.0500643,-80.6029336
4311,Atkinson Way,28110,35.0492082,-80.6029678
4309,Atkinson Way,28110,35.0489697,-80.6028053
4304,Atkinson Way,28110,35.0486812,-80.6017662
4314,Atkinson Way,28110,35.0498622,-80.6027343
4321,Atkinson Way,28110,35.0504000,-80.6038490
4405,Atkinson Way,28110,35.0511454,-80.6047801
4323,Atkinson Way,28110,35.0505802,-80.6040819
4300,Atkinson Way,28110,35.0483715,-80.6018156
4313,Atkinson Way,28110,35.0494512,-80.6031386
4301,Atkinson Way,28110,35.0481622,-80.6020420
4312,Atkinson Way,28110,35.0496104,-80.6025982
4315,Atkinson Way,28110,35.0497134,-80.6033166
4325,Atkinson Way,28110,35.0506972,-80.6043156
4310,Atkinson Way,28110,35.0493646,-80.6024256
4322,Atkinson Way,28110,35.0507308,-80.6034909
4714,Myers Road,28110,35.0511905,-80.6054611
4712,Myers Road,28110,35.0509800,-80.6056507
4718,Myers Road,28110,35.0513977,-80.6052174
4402,Poxon Lane,28110,35.0484621,-80.6034635
4400,Poxon Lane,28110,35.0482398,-80.6036677
4624,Myers Road,28110,35.0497276,-80.6067665
4412,Poxon Lane,28110,35.0496380,-80.6044677
4419,Poxon Lane,28110,35.0495368,-80.6057977
4417,Poxon Lane,28110,35.0494058,-80.6054625
4415,Poxon Lane,28110,35.0492893,-80.6051021
4410,Poxon Lane,28110,35.0494568,-80.6042035
4421,Poxon Lane,28110,35.0497031,-80.6060942
4622,Myers Road,28110,35.0494702,-80.6069843
4401,Poxon Lane,28110,35.0481705,-80.6040675
4420,Poxon Lane,28110,35.0501136,-80.6056866
4700,Myers Road,28110,35.0503128,-80.6062467
4626,Myers Road,28110,35.0499424,-80.6065776
4403,Poxon Lane,28110,35.0483352,-80.6043955
4418,Poxon Lane,28110,35.0500055,-80.6054034
4408,Poxon Lane,28110,35.0492003,-80.6039834
4710,Myers Road,28110,35.0507568,-80.6058505
4618,Myers Road,28110,35.0492471,-80.6071446
4406,Poxon Lane,28110,35.0489555,-80.6038072
4416,Poxon Lane,28110,35.0498922,-80.6051109
4405,Poxon Lane,28110,35.0486540,-80.6043968
4404,Poxon Lane,28110,35.0487941,-80.6035084
4414,Poxon Lane,28110,35.0497601,-80.6048074
4411,Poxon Lane,28110,35.0491541,-80.6047452
4704,Myers Road,28110,35.0505008,-80.6060549
4407,Poxon Lane,28110,35.0489159,-80.6045198
4401,Hepburn Court,28110,35.0485788,-80.6054532
4408,Hepburn Court,28110,35.0489063,-80.6066266
4405,Hepburn Court,28110,35.0483386,-80.6060432
4608,Myers Road,28110,35.0482759,-80.6077241
4400,Hepburn Court,28110,35.0489292,-80.6055601
4407,Hepburn Court,28110,35.0483427,-80.6063965
4403,Hepburn Court,28110,35.0483190,-80.6056466
4409,Hepburn Court,28110,35.0484090,-80.6067284
4406,Hepburn Court,28110,35.0489758,-80.6062692
4402,Hepburn Court,28110,35.0490385,-80.6059089
4616,Myers Road,28110,35.0489698,-80.6072891
4612,Myers Road,28110,35.0485433,-80.6075444
4411,Hepburn Court,28110,35.0484172,-80.6070409
3116,McGee Lane,28110,35.0519892,-80.6027133
3101,McGee Lane,28110,35.0513185,-80.6042631
3103,McGee Lane,28110,35.0515793,-80.6039791
3113,McGee Lane,28110,35.0522502,-80.6032270
3104,McGee Lane,28110,35.0513601,-80.6035439
3100,McGee Lane,28110,35.0510691,-80.6037745
3107,McGee Lane,28110,35.0518293,-80.6037878
3109,McGee Lane,28110,35.0520620,-80.6034930
3112,McGee Lane,28110,35.0518259,-80.6029646
3201,McGee Lane,28110,35.0525686,-80.6026533
3117,McGee Lane,28110,35.0524334,-80.6029610
3108,McGee Lane,28110,35.0516052,-80.6032895
3203,McGee Lane,28110,35.0526240,-80.6023144
3211,McGee Lane,28110,35.0525921,-80.6009987
3205,McGee Lane,28110,35.0526545,-80.6019903
3200,McGee Lane,28110,35.0521526,-80.6021399
3209,McGee Lane,28110,35.0527534,-80.6013076
3210,McGee Lane,28110,35.0523306,-80.6009965
3207,McGee Lane,28110,35.0526890,-80.6016716
3208,McGee Lane,28110,35.0521211,-80.6012487
4300,Mara Lane,28110,35.0513764,-80.6017002
4209,Mara Lane,28110,35.0502998,-80.6017878
4305,Mara Lane,28110,35.0515736,-80.6024581
3200,Jannock Court,28110,35.0508103,-80.6013852
4211,Mara Lane,28110,35.0505840,-80.6019512
3203,Jannock Court,28110,35.0514590,-80.6012920
4210,Mara Lane,28110,35.0504903,-80.6011860
4213,Mara Lane,28110,35.0508058,-80.6020580
4208,Mara Lane,28110,35.0502196,-80.6010685
4205,Mara Lane,28110,35.0497902,-80.6016367
4301,Mara Lane,28110,35.0510905,-80.6021443
4304,Mara Lane,28110,35.0516621,-80.6018296
4207,Mara Lane,28110,35.0500703,-80.6016721
4206,Mara Lane,28110,35.0499301,-80.6010545
3204,Jannock Court,28110,35.0512873,-80.6010895
4303,Mara Lane,28110,35.0513129,-80.6023223
4202,Mara Lane,28110,35.0492854,-80.6010619
4229,Chatterleigh Drive,28110,35.0503363,-80.6002813
4401,Chatterleigh Drive,28110,35.0523395,-80.6002718
4101,Chatterleigh Drive,28110,35.0484893,-80.5974579
4105,Chatterleigh Drive,28110,35.0485858,-80.5977110
4209,Chatterleigh Drive,28110,35.0493696,-80.5996746
4317,Chatterleigh Drive,28110,35.0516560,-80.6002375
4217,Chatterleigh Drive,28110,35.0496543,-80.6001578
4226,Chatterleigh Drive,28110,35.0502214,-80.5996605
4313,Chatterleigh Drive,28110,35.0514389,-80.6002676
4108,Chatterleigh Drive,28110,35.0491004,-80.5975466
4230,Chatterleigh Drive,28110,35.0504467,-80.5996826
3209,Kirkland Court,28110,35.0528519,-80.5991837
4309,Chatterleigh Drive,28110,35.0512164,-80.6002417
4121,Chatterleigh Drive,28110,35.0490200,-80.5986888
4125,Chatterleigh Drive,28110,35.0490921,-80.5989426
4124,Chatterleigh Drive,28110,35.0495461,-80.5986665
4305,Chatterleigh Drive,28110,35.0509967,-80.6002797
4216,Chatterleigh Drive,28110,35.0499390,-80.5996782
4326,Chatterleigh Drive,28110,35.0521954,-80.5996705
4205,Chatterleigh Drive,28110,35.0492706,-80.5994438
4201,Chatterleigh Drive,28110,35.0491848,-80.5992093
4213,Chatterleigh Drive,28110,35.0494003,-80.6000513
4404,Chatterleigh Drive,28110,35.0526692,-80.5997334
4300,Chatterleigh Drive,28110,35.0506641,-80.5996570
4408,Chatterleigh Drive,28110,35.0528959,-80.5999743
4322,Chatterleigh Drive,28110,35.0519411,-80.5996699
4202,Chatterleigh Drive,28110,35.0496958,-80.5991130
4409,Chatterleigh Drive,28110,35.0528505,-80.6002662
4325,Chatterleigh Drive,28110,35.0521004,-80.6002247
4117,Chatterleigh Drive,28110,35.0489401,-80.5984568
4112,Chatterleigh Drive,28110,35.0492242,-80.5978696
4301,Chatterleigh Drive,28110,35.0507766,-80.6002567
4113,Chatterleigh Drive,28110,35.0487935,-80.5982487
3205,Kirkland Court,28110,35.0527684,-80.5994286
4321,Chatterleigh Drive,28110,35.0518807,-80.6002378
4312,Chatterleigh Drive,28110,35.0514400,-80.5996594
4233,Chatterleigh Drive,28110,35.0505559,-80.6002579
4104,Chatterleigh Drive,28110,35.0489675,-80.5972651
4304,Chatterleigh Drive,28110,35.0509047,-80.5996522
4318,Chatterleigh Drive,28110,35.0517001,-80.5996242
4206,Chatterleigh Drive,28110,35.0497807,-80.5993581
3206,Kirkland Court,28110,35.0522728,-80.5991581
4405,Chatterleigh Drive,28110,35.0525914,-80.6004194
4221,Chatterleigh Drive,28110,35.0498838,-80.6002459
3214,Kirkland Court,28110,35.0525975,-80.5987214
4116,Chatterleigh Drive,28110,35.0493542,-80.5981395
3210,Kirkland Court,28110,35.0523398,-80.5988296
4308,Chatterleigh Drive,28110,35.0511598,-80.5996213
4109,Chatterleigh Drive,28110,35.0487160,-80.5979440
3213,Kirkland Court,28110,35.0528350,-80.5988703
4225,Chatterleigh Drive,28110,35.0501135,-80.6002748
4120,Chatterleigh Drive,28110,35.0494632,-80.5984008
4810,Myers Road,28110,35.0524524,-80.6041976
4814,Myers Road,28110,35.0526762,-80.6039126
4806,Myers Road,28110,35.0522461,-80.6044560
4802,Myers Road,28110,35.0519922,-80.6046968
4818,Myers Road,28110,35.0528596,-80.6035625
4406,Atkinson Way,28110,35.0517795,-80.6049910
3218,Down Wind Drive,28110,35.0506288,-80.5983194
3223,Down Wind Drive,28110,35.0508830,-80.5989615
3222,Down Wind Drive,28110,35.0508791,-80.5983564
3219,Down Wind Drive,28110,35.0506399,-80.5988948
3226,Down Wind Drive,28110,35.0511614,-80.5983234
3215,Down Wind Drive,28110,35.0503932,-80.5988953
3230,Down Wind Drive,28110,35.0513909,-80.5984821
3209,Down Wind Drive,28110,35.0501454,-80.5989350
3210,Down Wind Drive,28110,35.0501445,-80.5983275
3206,Down Wind Drive,28110,35.0499289,-80.5984202
3214,Down Wind Drive,28110,35.0503799,-80.5982790
3227,Down Wind Drive,28110,35.0511409,-80.5990334
3231,Down Wind Drive,28110,35.0513858,-80.5989072
2914,Cripple Creek Court,28110,35.0470592,-80.5982356
2934,Cripple Creek Court,28110,35.0481641,-80.5980410
2912,Cripple Creek Court,28110,35.0468411,-80.5983044
2912,Rainwater Court,28110,35.0476489,-80.5992939
2908,Cripple Creek Court,28110,35.0465824,-80.5983976
2919,Cripple Creek Court,28110,35.0474865,-80.5986670
2924,Rainwater Court,28110,35.0484803,-80.5989869
2911,Cripple Creek Court,28110,35.0470879,-80.5988513
2916,Rainwater Court,28110,35.0479070,-80.5992004
2930,Cripple Creek Court,28110,35.0479445,-80.5978405
4104,John Stevenson Lane,28110,35.0461993,-80.5986814
4100,John Stevenson Lane,28110,35.0459909,-80.5984849
2926,Cripple Creek Court,28110,35.0476786,-80.5978750
2923,Cripple Creek Court,28110,35.0477018,-80.5985968
2400,John Stevenson Lane,28110,35.0468700,-80.5995506
2927,Cripple Creek Court,28110,35.0479211,-80.5985514
4110,John Stevenson Lane,28110,35.0464992,-80.5990759
2915,Cripple Creek Court,28110,35.0472754,-80.5987502
2925,Rainwater Court,28110,35.0486169,-80.5993511
2922,Cripple Creek Court,28110,35.0474683,-80.5980374
2920,Rainwater Court,28110,35.0481458,-80.5990476
2918,Cripple Creek Court,28110,35.0472553,-80.5981234
2906,Rainwater Court,28110,35.0471038,-80.5994599
2931,Cripple Creek Court,28110,35.0481603,-80.5983628
4114,John Stevenson Lane,28110,35.0466453,-80.5993000
2724,Thornburg Court,28110,35.0455341,-80.6002234
2720,Thornburg Court,28110,35.0453428,-80.6004335
2700,Thornburg Court,28110,35.0452829,-80.6019371
2715,Thornburg Court,28110,35.0456502,-80.6010127
4115,Tricia Court,28110,35.0460058,-80.6016186
4111,Tricia Court,28110,35.0460367,-80.6011759
2725,Thornburg Court,28110,35.0458384,-80.6007290
2716,Thornburg Court,28110,35.0452107,-80.6006704
2701,Thornburg Court,28110,35.0455107,-80.6019818
2729,Thornburg Court,28110,35.0460537,-80.6006020
2704,Thornburg Court,28110,35.0451280,-80.6016416
2712,Thornburg Court,28110,35.0451502,-80.6009505
4116,Tricia Court,28110,35.0464455,-80.6018035
4117,John Stevenson Lane,28110,35.0464270,-80.5998581
4112,Tricia Court,28110,35.0465544,-80.6014143
2800,Thornburg Court,28110,35.0460994,-80.5999381
2728,Thornburg Court,28110,35.0458015,-80.6000760
4119,Tricia Court,28110,35.0461806,-80.6018787
2705,Thornburg Court,28110,35.0456974,-80.6017146
2708,Thornburg Court,28110,35.0451465,-80.6012716
2709,Thornburg Court,28110,35.0456497,-80.6013857
4108,Tricia Court,28110,35.0465004,-80.6009897
2903,Rainwater Court,28110,35.0472572,-80.6002088
2907,Rainwater Court,28110,35.0474581,-80.6001633
2801,Thornburg Court,28110,35.0464824,-80.6004392
2911,Rainwater Court,28110,35.0477167,-80.6001477
2805,Thornburg Court,28110,35.0467657,-80.6002888
4213,Richland Court,28110,35.0471669,-80.6017730
4212,Richland Court,28110,35.0475494,-80.6016939
4127,John Stevenson Lane,28110,35.0473187,-80.6010236
3016,Tiffany Drive,28110,35.0471906,-80.6026770
3010,Tiffany Drive,28110,35.0468622,-80.6026417
4300,Richland Court,28110,35.0477220,-80.6032667
3009,Tiffany Drive,28110,35.0466285,-80.6032541
4304,Richland Court,28110,35.0477054,-80.6036553
2920,Northwood Drive,28110,35.0478966,-80.6058713
3005,Tiffany Drive,28110,35.0463345,-80.6030565
4216,Richland Court,28110,35.0476581,-80.6021016
4220,Richland Court,28110,35.0477459,-80.6024131
4400,Richland Court,28110,35.0477319,-80.6043967
4308,Richland Court,28110,35.0476966,-80.6040379
3000,Tiffany Drive,28110,35.0462315,-80.6024140
3004,Tiffany Drive,28110,35.0465595,-80.6023619
4404,Richland Court,28110,35.0478133,-80.6048507
4224,Richland Court,28110,35.0476762,-80.6028384
4408,Richland Court,28110,35.0478185,-80.6052447
3017,Tiffany Drive,28110,35.0471983,-80.6033792
3006,Cameron Woods Drive,28110,35.0471505,-80.6039263
3013,Tiffany Drive,28110,35.0469432,-80.6033908
4217,Richland Court,28110,35.0469640,-80.6022406
3001,Tiffany Drive,28110,35.0460005,-80.6026701
3004,Olde Elizabeth Lane,28110,35.0454420,-80.6025662
3017,Olde Elizabeth Lane,28110,35.0456051,-80.6039643
3011,Olde Elizabeth Lane,28110,35.0454533,-80.6036819
2900,Cameron Woods Drive,28110,35.0453081,-80.6043401
3008,Olde Elizabeth Lane,28110,35.0456398,-80.6029824
2904,Cameron Woods Drive,28110,35.0457629,-80.6043174
3012,Olde Elizabeth Lane,28110,35.0459362,-80.6032225
3007,Olde Elizabeth Lane,28110,35.0452251,-80.6034481
3001,Olde Elizabeth Lane,28110,35.0449405,-80.6030161
3002,Cameron Woods Drive,28110,35.0465234,-80.6040749
3016,Olde Elizabeth Lane,28110,35.0461411,-80.6034983
3020,Olde Elizabeth Lane,28110,35.0462577,-80.6038296
3000,Olde Elizabeth Lane,28110,35.0451138,-80.6025518
3005,Cameron Woods Drive,28110,35.0468505,-80.6046183
3009,Cameron Woods Drive,28110,35.0472014,-80.6045956
2914,Northwood Drive,28110,35.0469336,-80.6059937
2916,Northwood Drive,28110,35.0474058,-80.6059530
4412,Myers Road,28110,35.0457940,-80.6055748
4418,Myers Road,28110,35.0460796,-80.6063177
2905,Cameron Woods Drive,28110,35.0458871,-80.6048895
3001,Cameron Woods Drive,28110,35.0464987,-80.6047547
2901,Cameron Woods Drive,28110,35.0455606,-80.6049958
4414,Myers Road,28110,35.0459300,-80.6059164
2909,Cameron Woods Drive,28110,35.0462060,-80.6047946
4406,Richland Court,28110,35.0474138,-80.6054726
4512,Myers Road,28110,35.0467126,-80.6077369
2903,Myers Road,28110,35.0463493,-80.6069413
2907,Northwood Drive,28110,35.0467107,-80.6068331
4604,Myers Road,28110,35.0478347,-80.6078174
2917,Northwood Drive,28110,35.0477268,-80.6066905
2913,Northwood Drive,28110,35.0472793,-80.6067044
4516,Myers Road,28110,35.0469960,-80.6080176
4109,John Stevenson Lane,28110,35.0458148,-80.5994182
2519,North Rocky River Road,28110,35.0451876,-80.5995631
4101,John Stevenson Lane,28110,35.0455029,-80.5986735
4105,John Stevenson Lane,28110,35.0457050,-80.5989965
4316,Myers Road,28110,35.0448825,-80.6040396
4310,Myers Road,28110,35.0445110,-80.6038002
2801,Waycross Drive,28110,35.0451799,-80.5979191
2805,Waycross Drive,28110,35.0453782,-80.5978288
3106,Blueberry Drive,28110,35.0474491,-80.5933740
2900,Arrowhead Court,28110,35.0455024,-80.5950041
3911,Chatterleigh Drive,28110,35.0476436,-80.5952118
3806,Chatterleigh Drive,28110,35.0476906,-80.5941601
2725,Waycross Drive,28110,35.0447552,-80.5980950
3101,Twin Peaks Court,28110,35.0469774,-80.5928509
3133,Blueberry Drive,28110,35.0485301,-80.5933538
2812,Arrowhead Court,28110,35.0453217,-80.5952143
2812,Waycross Drive,28110,35.0456499,-80.5971077
3707,Chatterleigh Drive,28110,35.0466884,-80.5933323
3037,Twin Peaks Court,28110,35.0465535,-80.5930354
3007,Blueberry Drive,28110,35.0467423,-80.5946364
3136,Blueberry Drive,28110,35.0484684,-80.5927565
2816,Waycross Drive,28110,35.0458446,-80.5970268
3920,Chatterleigh Drive,28110,35.0483583,-80.5953755
3014,Blueberry Drive,28110,35.0467778,-80.5939200
3904,Garrison Court,28110,35.0469713,-80.5953656
3009,Waycross Drive,28110,35.0476659,-80.5968508
3008,Waycross Drive,28110,35.0474185,-80.5963601
3026,Twin Peaks Court,28110,35.0460998,-80.5924710
3918,Southwick Drive,28110,35.0462052,-80.5968112
3007,Twin Peaks Court,28110,35.0452816,-80.5929977
3001,Blueberry Drive,28110,35.0464822,-80.5946432
3142,Blueberry Drive,28110,35.0487445,-80.5926523
2916,Waycross Drive,28110,35.0468659,-80.5965891
3911,Southwick Drive,28110,35.0456522,-80.5964905
3924,Chatterleigh Drive,28110,35.0484727,-80.5956228
3901,Eastridge Court,28110,35.0443638,-80.5966695
2705,Waycross Drive,28110,35.0436664,-80.5984519
3012,Waycross Drive,28110,35.0476209,-80.5962492
2909,Waycross Drive,28110,35.0466255,-80.5972973
3038,Twin Peaks Court,28110,35.0466308,-80.5924020
3019,Blueberry Drive,28110,35.0472029,-80.5942687
2904,Blueberry Drive,28110,35.0455434,-80.5935961
3911,Garrison Court,28110,35.0466506,-80.5960781
2803,Arrowhead Court,28110,35.0449750,-80.5960640
2817,Waycross Drive,28110,35.0459940,-80.5975644
3904,Eastridge Court,28110,35.0446537,-80.5964852
2701,Waycross Drive,28110,35.0434395,-80.5984412
2905,Waycross Drive,28110,35.0464100,-80.5973738
3112,Blueberry Drive,28110,35.0476512,-80.5932473
2904,Arrowhead Court,28110,35.0457198,-80.5948232
3907,Chatterleigh Drive,28110,35.0475273,-80.5949500
3904,Chatterleigh Drive,28110,35.0478604,-80.5944556
3001,Twin Peaks Court,28110,35.0451628,-80.5927116
2721,Waycross Drive,28110,35.0445506,-80.5981867
3127,Blueberry Drive,28110,35.0483067,-80.5934498
2800,Arrowhead Court,28110,35.0447319,-80.5957682
2813,Waycross Drive,28110,35.0458033,-80.5976578
3031,Twin Peaks Court,28110,35.0462933,-80.5930495
3118,Blueberry Drive,28110,35.0478128,-80.5930852
2905,Arrowhead Court,28110,35.0460743,-80.5951493
3903,Chatterleigh Drive,28110,35.0474033,-80.5947543
3908,Chatterleigh Drive,28110,35.0479707,-80.5947135
3932,Chatterleigh Drive,28110,35.0486186,-80.5961233
2910,Blueberry Drive,28110,35.0458958,-80.5934910
3119,Blueberry Drive,28110,35.0481177,-80.5935795
3908,Garrison Court,28110,35.0470958,-80.5956185
3005,Waycross Drive,28110,35.0474498,-80.5969481
3006,Twin Peaks Court,28110,35.0452759,-80.5923891
3904,Southwick Drive,28110,35.0459653,-80.5957292
3025,Twin Peaks Court,28110,35.0460201,-80.5930403
2927,Blueberry Drive,28110,35.0462508,-80.5945291
3151,Blueberry Drive,28110,35.0491906,-80.5931787
3907,Southwick Drive,28110,35.0455738,-80.5962069
3928,Chatterleigh Drive,28110,35.0485103,-80.5958864
4010,Chatterleigh Drive,28110,35.0487129,-80.5965477
3912,Garrison Court,28110,35.0471310,-80.5958743
2717,Waycross Drive,28110,35.0443358,-80.5982809
3017,Waycross Drive,28110,35.0480784,-80.5966890
3910,Eastridge Court,28110,35.0450151,-80.5968908
3113,Twin Peaks Court,28110,35.0473601,-80.5925438
3925,Chatterleigh Drive,28110,35.0480102,-80.5958877
2921,Blueberry Drive,28110,35.0460354,-80.5943519
3907,Garrison Court,28110,35.0465390,-80.5958496
2728,Waycross Drive,28110,35.0447878,-80.5974425
2908,Waycross Drive,28110,35.0464561,-80.5967740
3906,Eastridge Court,28110,35.0448927,-80.5966355
2720,Waycross Drive,28110,35.0443676,-80.5975739
3013,Waycross Drive,28110,35.0478703,-80.5967983
2901,Waycross Drive,28110,35.0462075,-80.5974978
3107,Twin Peaks Court,28110,35.0472091,-80.5927477
3919,Chatterleigh Drive,28110,35.0478601,-80.5956476
3903,Garrison Court,28110,35.0465313,-80.5955403
3145,Blueberry Drive,28110,35.0489629,-80.5932170
2804,Arrowhead Court,28110,35.0448173,-80.5954120
2809,Waycross Drive,28110,35.0455800,-80.5977289
2724,Waycross Drive,28110,35.0445878,-80.5975460
3124,Blueberry Drive,28110,35.0480391,-80.5929479
2916,Blueberry Drive,28110,35.0460888,-80.5937167
3900,Southwick Drive,28110,35.0458745,-80.5954824
3021,Waycross Drive,28110,35.0482792,-80.5966193
3912,Chatterleigh Drive,28110,35.0481130,-80.5949279
2922,Blueberry Drive,28110,35.0463127,-80.5938675
3100,Blueberry Drive,28110,35.0472821,-80.5935157
3113,Blueberry Drive,28110,35.0479557,-80.5937341
2808,Arrowhead Court,28110,35.0451308,-80.5953297
2808,Waycross Drive,28110,35.0454360,-80.5971691
3020,Blueberry Drive,28110,35.0469652,-80.5937867
3014,Twin Peaks Court,28110,35.0455685,-80.5923777
3908,Southwick Drive,28110,35.0460251,-80.5960290
3019,Twin Peaks Court,28110,35.0457401,-80.5930454
3013,Blueberry Drive,28110,35.0469874,-80.5944579
3130,Blueberry Drive,28110,35.0482571,-80.5928678
2811,Arrowhead Court,28110,35.0454667,-80.5957824
3916,Chatterleigh Drive,28110,35.0482175,-80.5951625
4006,Chatterleigh Drive,28110,35.0489807,-80.5964052
3032,Twin Peaks Court,28110,35.0463784,-80.5924672
3000,Blueberry Drive,28110,35.0465264,-80.5940259
3800,Chatterleigh Drive,28110,35.0475578,-80.5939372
3918,Garrison Court,28110,35.0472001,-80.5963785
2713,Waycross Drive,28110,35.0441123,-80.5983877
3001,Waycross Drive,28110,35.0472409,-80.5970319
2917,Waycross Drive,28110,35.0470461,-80.5971334
3020,Twin Peaks Court,28110,35.0458370,-80.5924426
3912,Southwick Drive,28110,35.0461227,-80.5963488
3013,Twin Peaks Court,28110,35.0454868,-80.5931763
2915,Blueberry Drive,28110,35.0458304,-80.5941994
2804,Waycross Drive,28110,35.0452012,-80.5972651
2912,Waycross Drive,28110,35.0466536,-80.5966499
3905,Eastridge Court,28110,35.0443455,-80.5970219
2709,Waycross Drive,28110,35.0438903,-80.5983944
3929,Chatterleigh Drive,28110,35.0480677,-80.5961390
2913,Waycross Drive,28110,35.0468331,-80.5972114
3915,Chatterleigh Drive,28110,35.0477702,-80.5954103
2909,Blueberry Drive,28110,35.0455861,-80.5941234
3900,Garrison Court,28110,35.0467095,-80.5953373
2729,Waycross Drive,28110,35.0449750,-80.5980067
3139,Blueberry Drive,28110,35.0487329,-80.5932940
2807,Arrowhead Court,28110,35.0452560,-80.5959474
4103,Pumpkin Place,28110,35.0476671,-80.5915124
4018,Waxwood Drive,28110,35.0478050,-80.5893880
4006,Waxwood Drive,28110,35.0473945,-80.5891795
3203,Chippendale Road,28110,35.0499464,-80.5910358
3126,Apricot Lane,28110,35.0476628,-80.5899057
4012,Waxwood Drive,28110,35.0476014,-80.5892796
4103,Apricot Lane,28110,35.0480600,-80.5901849
3121,Persing Court,28110,35.0471513,-80.5896685
3109,Apricot Lane,28110,35.0479148,-80.5909451
3109,Persing Court,28110,35.0468818,-80.5900775
4111,Waxwood Drive,28110,35.0482896,-80.5903330
3120,Apricot Lane,28110,35.0475675,-80.5901495
3115,Chippendale Road,28110,35.0491466,-80.5918455
4120,Pumpkin Place,28110,35.0483460,-80.5912657
4117,Waxwood Drive,28110,35.0485386,-80.5904774
4017,Pumpkin Place,28110,35.0468894,-80.5913783
3115,Persing Court,28110,35.0469941,-80.5898264
3114,Apricot Lane,28110,35.0474697,-80.5904036
4125,Waxwood Drive,28110,35.0487953,-80.5905980
4030,Pumpkin Place,28110,35.0474338,-80.5908918
4024,Pumpkin Place,28110,35.0472002,-80.5908417
3127,Chippendale Road,28110,35.0496692,-80.5914391
4114,Pumpkin Place,28110,35.0483116,-80.5908826
4029,Waxwood Drive,28110,35.0480041,-80.5894767
3133,Chippendale Road,28110,35.0498328,-80.5912627
4023,Pumpkin Place,28110,35.0471328,-80.5915049
4138,Waxwood Drive,28110,35.0494361,-80.5902002
4029,Pumpkin Place,28110,35.0473951,-80.5914949
3115,Apricot Lane,28110,35.0479651,-80.5905937
4000,Waxwood Drive,28110,35.0472183,-80.5889847
4132,Waxwood Drive,28110,35.0492166,-80.5901138
4405,Myers Road,28110,35.0449883,-80.6049978
4407,Myers Road,28110,35.0451778,-80.6055728
4417,Myers Road,28110,35.0456617,-80.6066626
4409,Myers Road,28110,35.0453122,-80.6059237
4411,Myers Road,28110,35.0454482,-80.6062174
4309,Myers Road,28110,35.0442613,-80.6046607
4505,Myers Road,28110,35.0459646,-80.6075760
4509,Myers Road,28110,35.0462437,-80.6083239
4512,Varner Drive,28110,35.0528395,-80.6061021
4713,Myers Road,28110,35.0515275,-80.6060264
4621,Myers Road,28110,35.0497274,-80.6075096
4520,Varner Drive,28110,35.0533553,-80.6065311
4515,Marshall Court,28110,35.0510613,-80.6076149
4803,Myers Road,28110,35.0523424,-80.6052940
4522,Varner Drive,28110,35.0536076,-80.6067685
4507,Marshall Court,28110,35.0504879,-80.6076527
4526,Marshall Court,28110,35.0520364,-80.6069629
4513,Varner Drive,28110,35.0526222,-80.6066873
4521,Varner Drive,28110,35.0530633,-80.6070901
4517,Varner Drive,28110,35.0528525,-80.6069085
4711,Myers Road,28110,35.0512816,-80.6062159
4525,Marshall Court,28110,35.0519149,-80.6076288
4707,Myers Road,28110,35.0510370,-80.6064343
4619,Myers Road,28110,35.0495033,-80.6076639
4526,Varner Drive,28110,35.0538756,-80.6071213
4625,Myers Road,28110,35.0502418,-80.6071388
4530,Varner Drive,28110,35.0537679,-80.6074725
4508,Marshall Court,28110,35.0508718,-80.6069354
4609,Varner Drive,28110,35.0523968,-80.6064830
4801,Myers Road,28110,35.0521312,-80.6054953
4511,Marshall Court,28110,35.0507593,-80.6077481
4615,Myers Road,28110,35.0492757,-80.6078244
4527,Marshall Court,28110,35.0521284,-80.6073671
4523,Marshall Court,28110,35.0516130,-80.6076480
4505,Varner Drive,28110,35.0521248,-80.6062353
4500,Marshall Court,28110,35.0505914,-80.6067510
4809,Myers Road,28110,35.0527656,-80.6048302
4623,Myers Road,28110,35.0499596,-80.6073560
4516,Varner Drive,28110,35.0531058,-80.6063257
4519,Marshall Court,28110,35.0513090,-80.6075850
4805,Myers Road,28110,35.0525593,-80.6050676
4527,Varner Drive,28110,35.0534976,-80.6075873
4520,Myers Road,28110,35.0513343,-80.6069528
4506,Varner Drive,28110,35.0526085,-80.6058915
4717,Myers Road,28110,35.0517589,-80.6057990
4523,Varner Drive,28110,35.0532280,-80.6073709
4524,Myers Road,28110,35.0517801,-80.6068522
4904,Myers Road,28110,35.0538089,-80.6019917
4900,Myers Road,28110,35.0532767,-80.6018485
4910,Myers Road,28110,35.0538984,-80.6015644
4858,Myers Road,28110,35.0535375,-80.6025407
4854,Myers Road,28110,35.0533591,-80.6027987
4850,Myers Road,28110,35.0532100,-80.6030965
3105,North Rocky River Road,28110,35.0496096,-80.5972556
3121,North Rocky River Road,28110,35.0509597,-80.5962191
3118,North Rocky River Road,28110,35.0503535,-80.5953886
3122,North Rocky River Road,28110,35.0506035,-80.5954136
3115,North Rocky River Road,28110,35.0504205,-80.5964397
3926,Johnsie Thomas Lane,28110,35.0501399,-80.5948074
3112,North Rocky River Road,28110,35.0497835,-80.5955560
4907,Myers Road,28110,35.0545995,-80.6024681
4901,Myers Road,28110,35.0540710,-80.6029829
4817,Myers Road,28110,35.0530968,-80.6044187
4823,Myers Road,28110,35.0545017,-80.6043538
5010,Myers Road,28110,35.0548855,-80.5984577
5000,Myers Road,28110,35.0542258,-80.5991790
4916,Myers Road,28110,35.0541292,-80.6008270
4920,Myers Road,28110,35.0535339,-80.5998000
4924,Myers Road,28110,35.0535643,-80.6003329
5002,Myers Road,28110,35.0541160,-80.5996415
5018,Myers Road,28110,35.0550713,-80.5975825
5004,Myers Road,28110,35.0534672,-80.6008217
5008,Myers Road,28110,35.0547660,-80.5990011
5006,Myers Road,28110,35.0546346,-80.5995734
4925,Myers Road,28110,35.0562078,-80.6008939
4923,Myers Road,28110,35.0565235,-80.6015726
5001,Myers Road,28110,35.0554270,-80.5997253
5009,Myers Road,28110,35.0558712,-80.5992047
5007,Myers Road,28110,35.0562651,-80.5994422
5011,Myers Road,28110,35.0563091,-80.5985155
5017,Myers Road,28110,35.0555226,-80.5978765
5013,Myers Road,28110,35.0554614,-80.5985692
5101,Myers Road,28110,35.0556580,-80.5970652
5015,Myers Road,28110,35.0554771,-80.5982402
5021,Myers Road,28110,35.0555896,-80.5974550
5107,Myers Road,28110,35.0563593,-80.5964482
5205,Secrest Short Cut Road,28110,35.0578669,-80.5969719
3025,Fowler Secrest Road,28110,35.0436070,-80.5899405
3029,Fowler Secrest Road,28110,35.0438360,-80.5902322
3001,Fowler Secrest Road,28110,35.0420373,-80.5883451
3015,Fowler Secrest Road,28110,35.0431777,-80.5894559
3007,Fowler Secrest Road,28110,35.0423577,-80.5890208
3014,James Hamilton Road,28110,35.0429724,-80.5909707
2922,James Hamilton Road,28110,35.0420934,-80.5917723
3006,James Hamilton Road,28110,35.0424437,-80.5912978
3904,Arbor Creek Court,28110,35.0438628,-80.5915346
3900,Arbor Creek Court,28110,35.0437104,-80.5912874
3001,James Hamilton Road,28110,35.0430427,-80.5930806
3007,James Hamilton Road,28110,35.0435950,-80.5925159
3939,Arbor Creek Court,28110,35.0444212,-80.5944422
3923,Arbor Creek Court,28110,35.0440992,-80.5931696
3938,Arbor Creek Court,28110,35.0447104,-80.5943114
3934,Arbor Creek Court,28110,35.0448301,-80.5939877
3927,Arbor Creek Court,28110,35.0441016,-80.5935319
3931,Arbor Creek Court,28110,35.0441135,-80.5938808
3930,Arbor Creek Court,28110,35.0447012,-80.5935792
3926,Arbor Creek Court,28110,35.0446423,-80.5933048
3935,Arbor Creek Court,28110,35.0441625,-80.5942783
3122,Fowler Secrest Road,28110,35.0457854,-80.5887664
3022,Fowler Secrest Road,28110,35.0440318,-80.5890478
3113,Fowler Secrest Road,28110,35.0459474,-80.5903446
3023,James Hamilton Road,28110,35.0444291,-80.5905389
3106,Fowler Secrest Road,28110,35.0448177,-80.5898233
4815,Secrest Short Cut Road,28110,35.0525113,-80.5907370
4814,Secrest Short Cut Road,28110,35.0528436,-80.5895707
4819,Secrest Short Cut Road,28110,35.0521805,-80.5917859
4817,Secrest Short Cut Road,28110,35.0505364,-80.5918341
4920,Secrest Short Cut Road,28110,35.0550098,-80.5917487
4820,Secrest Short Cut Road,28110,35.0532335,-80.5905672
4809,Secrest Short Cut Road,28110,35.0519842,-80.5896149
4821,Secrest Short Cut Road,28110,35.0529523,-80.5914764
4704,Secrest Short Cut Road,28110,35.0517533,-80.5864483
4701,Secrest Short Cut Road,28110,35.0506708,-80.5865263
4720,Secrest Short Cut Road,28110,35.0521682,-80.5878719
4713,Secrest Short Cut Road,28110,35.0512831,-80.5877310
4611,Secrest Short Cut Road,28110,35.0500816,-80.5845749
3216,Fowler Secrest Road,28110,35.0465620,-80.5866377
4515,Secrest Short Cut Road,28110,35.0487444,-80.5831624
3402,Fowler Secrest Road,28110,35.0483772,-80.5847652
3312,Fowler Secrest Road,28110,35.0469614,-80.5858865
4419,Secrest Short Cut Road,28110,35.0481939,-80.5807119
4501,Secrest Short Cut Road,28110,35.0485059,-80.5810628
4427,Secrest Short Cut Road,28110,35.0466568,-80.5810719
4431,Secrest Shortcut Road,28110,35.0455154,-80.5819365
3208,North Rocky River Road,28110,35.0518346,-80.5948103
3211,North Rocky River Road,28110,35.0524505,-80.5957298
4921,Secrest Short Cut Road,28110,35.0548814,-80.5930755
3310,North Rocky River Road,28110,35.0550824,-80.5937495
3322,North Rocky River Road,28110,35.0557539,-80.5937708
5005,Secrest Short Cut Road,28110,35.0554935,-80.5932554
2800,North Rocky River Road,28110,35.0415217,-80.5983717
2814,North Rocky River Road,28110,35.0427826,-80.5976475
2806,North Rocky River Road,28110,35.0417983,-80.5978640
2815,James Hamilton Road,28110,35.0400769,-80.5948480
2809,James Hamilton Road,28110,35.0398578,-80.5954408
2905,James Hamilton Road,28110,35.0411977,-80.5942223
2723,James Hamilton Road,28110,35.0396399,-80.5962912
2817,James Hamilton Road,28110,35.0402877,-80.5945396
2713,James Hamilton Road,28110,35.0390236,-80.5974997
4807,Myers Road,28110,35.0536774,-80.6056644
4315,Secrest Short Cut Road,28110,35.0462133,-80.5778073
2224,Willis Long Road,28110,35.0534875,-80.5854286
2800,Telefair Lane,28110,35.0409164,-80.5812914
3221,Oglethorpe Lane,28110,35.0432631,-80.5849295
3515,Savannah Way,28110,35.0429134,-80.5795610
2804,Monterrey Lane,28110,35.0402148,-80.5824983
2817,Pulaski Drive,28110,35.0411526,-80.5804314
2722,Fowler Secrest Road,28110,35.0394032,-80.5825962
3109,Country Villa Drive,28110,35.0395766,-80.5818103
3208,Oglethorpe Lane,28110,35.0423049,-80.5845484
2817,Monterrey Lane,28110,35.0403755,-80.5838562
3308,Savannah Way,28110,35.0415816,-80.5824162
2808,Vidalia Court,28110,35.0418403,-80.5774383
2900,Dahlonega Court,28110,35.0418080,-80.5832352
3504,Savannah Way,28110,35.0422876,-80.5804849
2812,Monterrey Lane,28110,35.0406709,-80.5830933
3613,Savannah Way,28110,35.0424603,-80.5765078
2824,Pulaski Drive,28110,35.0419113,-80.5801824
3213,Oglethorpe Lane,28110,35.0427278,-80.5851461
2808,Monterrey Lane,28110,35.0404926,-80.5827966
3217,Oglethorpe Lane,28110,35.0430866,-80.5851682
2833,Pulaski Drive,28110,35.0421335,-80.5811053
3009,Monterrey Lane,28110,35.0422524,-80.5863169
3000,Telefair Lane,28110,35.0429607,-80.5828517
3404,Valdosta Court,28110,35.0427689,-80.5820835
3110,Country Villa Drive,28110,35.0390243,-80.5810940
3605,Savannah Way,28110,35.0427031,-80.5770816
3016,Monterrey Lane,28110,35.0428438,-80.5857084
2800,Pulaski Drive,28110,35.0415048,-80.5789793
2813,Telefair Lane,28110,35.0407365,-80.5822868
2816,Monterrey Lane,28110,35.0408022,-80.5833626
2817,Telefair Lane,28110,35.0410474,-80.5824683
3531,Savannah Way,28110,35.0427446,-80.5781026
3004,Telefair Lane,28110,35.0432129,-80.5831316
3408,Valdosta Court,28110,35.0430858,-80.5821124
3114,Country Villa Drive,28110,35.0392194,-80.5806915
3535,Savannah Way,28110,35.0427274,-80.5777739
3020,Monterrey Lane,28110,35.0431790,-80.5856978
2810,Telefair Lane,28110,35.0410635,-80.5816394
2908,Dahlonega Court,28110,35.0422071,-80.5838173
3511,Savannah Way,28110,35.0429085,-80.5799046
3125,Country Villa Drive,28110,35.0402410,-80.5807133
2813,Pulaski Drive,28110,35.0409178,-80.5801388
3009,Telefair Lane,28110,35.0430033,-80.5838257
2720,Fowler Secrest Road,28110,35.0391514,-80.5822739
3128,Country Villa Drive,28110,35.0405749,-80.5787632
2813,Monterrey Lane,28110,35.0402044,-80.5835918
2905,Telefair Lane,28110,35.0423216,-80.5829409
2818,Telefair Lane,28110,35.0413442,-80.5817204
3205,Savannah Way,28110,35.0415896,-80.5838951
3507,Savannah Way,28110,35.0429196,-80.5802625
3201,Savannah Way,28110,35.0413598,-80.5841846
2809,Pulaski Drive,28110,35.0409030,-80.5797123
3000,Monterrey Lane,28110,35.0422790,-80.5853886
2809,Monterrey Lane,28110,35.0400339,-80.5833195
3404,Savannah Way,28110,35.0418319,-80.5815967
3001,Monterrey Lane,28110,35.0417847,-80.5858647
2829,Pulaski Drive,28110,35.0418850,-80.5809436
3601,Savannah Way,28110,35.0427057,-80.5774148
2913,Monterrey Lane,28110,35.0414543,-80.5853518
2812,Vidalia Court,28110,35.0421568,-80.5774127
2804,Pulaski Drive,28110,35.0416850,-80.5792837
2904,Dahlonega Court,28110,35.0421277,-80.5834359
2809,Telefair Lane,28110,35.0404773,-80.5819700
2917,Monterrey Lane,28110,35.0416289,-80.5856141
2900,Savannah Way,28110,35.0422509,-80.5820768
3212,Oglethorpe Lane,28110,35.0426057,-80.5844311
3527,Savannah Way,28110,35.0428003,-80.5784327
3008,Telefair Lane,28110,35.0432395,-80.5835952
3409,Valdosta Court,28110,35.0431809,-80.5824875
3118,Country Villa Drive,28110,35.0394142,-80.5803813
2901,Pulaski Drive,28110,35.0425344,-80.5813796
3304,Savannah Way,28110,35.0414503,-80.5826934
2908,Monterrey Lane,28110,35.0416154,-80.5845040
3021,Monterrey Lane,28110,35.0432362,-80.5864143
2821,Monterrey Lane,28110,35.0405357,-80.5840900
2908,Pulaski Drive,28110,35.0431057,-80.5807350
2805,Telefair Lane,28110,35.0403712,-80.5815027
3216,Oglethorpe Lane,28110,35.0429288,-80.5843818
2710,Fowler Secrest Road,28110,35.0385980,-80.5813731
3523,Savannah Way,28110,35.0427807,-80.5787981
2825,Pulaski Drive,28110,35.0416201,-80.5808622
3005,Telefair Lane,28110,35.0426692,-80.5836726
3124,Country Villa Drive,28110,35.0397469,-80.5799076
3017,Monterrey Lane,28110,35.0428176,-80.5864846
2820,Monterrey Lane,28110,35.0410068,-80.5836961
2800,Vidalia Court,28110,35.0413730,-80.5778787
3400,Savannah Way,28110,35.0417422,-80.5819238
2807,Vidalia Court,28110,35.0418516,-80.5782504
2902,Pulaski Drive,28110,35.0427957,-80.5806791
2810,Pulaski Drive,28110,35.0415604,-80.5796391
3001,Telefair Lane,28110,35.0425624,-80.5832758
2916,Oglethorpe Lane,28110,35.0419758,-80.5850077
2805,Monterrey Lane,28110,35.0398097,-80.5831128
2901,Telefair Lane,28110,35.0420113,-80.5827830
3610,Savannah Way,28110,35.0421100,-80.5766058
2818,Pulaski Drive,28110,35.0416427,-80.5800326
2909,Monterrey Lane,28110,35.0412583,-80.5851019
3606,Savannah Way,28110,35.0420073,-80.5769563
2909,Dahlonega Court,28110,35.0419618,-80.5840877
2801,Monterrey Lane,28110,35.0398664,-80.5826661
3508,Savannah Way,28110,35.0422893,-80.5801198
3400,Valdosta Court,28110,35.0425166,-80.5823697
2714,Fowler Secrest Road,28110,35.0387821,-80.5818091
3526,Savannah Way,28110,35.0421904,-80.5785630
2905,Pulaski Drive,28110,35.0428221,-80.5814643
2912,Monterrey Lane,28110,35.0417991,-80.5847475
2905,Monterrey Lane,28110,35.0409961,-80.5846324
2909,Pulaski Drive,28110,35.0431588,-80.5814642
3119,Country Villa Drive,28110,35.0398656,-80.5808863
2801,Telefair Lane,28110,35.0406003,-80.5811414
3514,Savannah Way,28110,35.0422702,-80.5796732
3220,Oglethorpe Lane,28110,35.0432367,-80.5845211
3519,Savannah Way,28110,35.0428418,-80.5792630
2821,Pulaski Drive,28110,35.0413373,-80.5806941
3115,Country Villa Drive,28110,35.0397209,-80.5813256
2811,Savannah Way,28110,35.0421816,-80.5781248
3008,Monterrey Lane,28110,35.0424783,-80.5856629
3013,Monterrey Lane,28110,35.0425220,-80.5864696
3300,Savannah Way,28110,35.0412996,-80.5831261
8203,Vidalia Court,28110,35.0415154,-80.5782200
2804,Vidalia Court,28110,35.0414953,-80.5775081
2811,North Rocky River Road,28110,35.0429528,-80.6001429
4402,West Highway 74,28110,35.0433640,-80.6076733
4219,Myers Road,28110,35.0427297,-80.6048309
4118,West Highway 74,28110,35.0397610,-80.6030597
2805,North Rocky River Road,28110,35.0422247,-80.6003286
4120,Myers Road,28110,35.0411653,-80.6023808
2703,North Rocky River Road,28110,35.0401457,-80.6014370
2614,James Hamilton Road,28110,35.0383103,-80.5999906
2802,James Hamilton Road,28110,35.0386104,-80.5949367
2718,James Hamilton Road,28110,35.0381339,-80.5967624
2620,James Hamilton Road,28110,35.0384206,-80.5993182
2722,James Hamilton Road,28110,35.0387011,-80.5956809
4000,West Highway 74,28110,35.0370926,-80.5994038
3916,West Highway 74,28110,35.0366816,-80.5988163
3210,Fowler Secrest Road,28110,35.0443868,-80.5862008
3002,Fowler Secrest Road,28110,35.0429493,-80.5875006
3214,Meadowood Drive,28110,35.0400686,-80.5774472
3112,Meadowood Drive,28110,35.0379032,-80.5793123
2706,Fowler Secrest Road,28110,35.0383611,-80.5809890
2702,Fowler Secrest Road,28110,35.0380084,-80.5805401
3209,Meadowood Drive,28110,35.0395015,-80.5785533
2705,Meadowood Lane,28110,35.0390205,-80.5797365
3203,Meadowood Drive,28110,35.0390819,-80.5788991
3109,Meadowood Drive,28110,35.0383862,-80.5800240
2620,Fowler Secrest Road,28110,35.0374960,-80.5799993
3121,Creekwood Drive,28110,35.0379914,-80.5767035
3125,Creekwood Drive,28110,35.0385392,-80.5767692
3110,Creekwood Drive,28110,35.0365306,-80.5765521
3111,Creekwood Drive,28110,35.0373302,-80.5767197
2608,Fowler Secrest Road,28110,35.0365125,-80.5789513
3112,Creekwood Drive,28110,35.0368151,-80.5759434
3108,Creekwood Drive,28110,35.0363941,-80.5773742
3120,Creekwood Drive,28110,35.0380424,-80.5760083
3124,Creekwood Drive,28110,35.0386826,-80.5761585
3107,Creekwood Drive,28110,35.0371018,-80.5775446
3117,Creekwood Drive,28110,35.0377247,-80.5768693
3100,Creekwood Drive,28110,35.0362377,-80.5779489
3116,Creekwood Drive,28110,35.0374283,-80.5757182
3114,Creekwood Drive,28110,35.0370881,-80.5757186
3103,Creekwood Drive,28110,35.0368430,-80.5783175
3202,Meadowood Drive,28110,35.0384303,-80.5782574
3206,Meadowood Drive,28110,35.0387332,-80.5779562
3210,Meadowood Drive,28110,35.0390655,-80.5779177
3404,Pebble Drive,28110,35.0431286,-80.5757931
3431,Pebble Drive,28110,35.0452258,-80.5739830
4212,Secrest Short Cut Road,28110,35.0464362,-80.5736645
3410,Pebble Drive,28110,35.0432693,-80.5754848
3407,Pebble Drive,28110,35.0443442,-80.5762132
3430,Pebble Drive,28110,35.0444171,-80.5734566
3428,Pebble Drive,28110,35.0442999,-80.5738575
3403,Pebble Drive,28110,35.0436956,-80.5772679
4211,Secrest Short Cut Road,28110,35.0456549,-80.5746547
3427,Pebble Drive,28110,35.0450887,-80.5743904
3414,Pebble Drive,28110,35.0435045,-80.5751586
3423,Pebble Drive,28110,35.0449275,-80.5747421
3416,Pebble Drive,28110,35.0436617,-80.5748288
3401,Pebble Drive,28110,35.0433758,-80.5770593
3435,Pebble Drive,28110,35.0453479,-80.5735218
3400,Pebble Drive,28110,35.0431610,-80.5767695
4216,Secrest Short Cut Road,28110,35.0467153,-80.5739623
3417,Pebble Drive,28110,35.0447205,-80.5750685
3405,Pebble Drive,28110,35.0440929,-80.5766784
3420,Pebble Drive,28110,35.0439349,-80.5745155
3421,Pebble Drive,28110,35.0445980,-80.5754406
3424,Pebble Drive,28110,35.0441189,-80.5742224
2613,Field Master Drive,28110,35.0315773,-80.5743241
2926,Fox Den Drive,28110,35.0318405,-80.5754136
2927,Fox Den Drive,28110,35.0313691,-80.5753295
2607,Field Master Drive,28110,35.0313411,-80.5744490
3014,Hunt Club Avenue,28110,35.0313493,-80.5767088
2932,Fox Den Drive,28110,35.0317420,-80.5757321
2920,Fox Den Drive,28110,35.0319896,-80.5750929
2938,Fox Den Drive,28110,35.0315687,-80.5759886
2945,Fox Den Drive,28110,35.0309273,-80.5757619
2503,Field Master Drive,28110,35.0305406,-80.5749403
2509,Field Master Drive,28110,35.0308135,-80.5747394
2939,Fox Den Drive,28110,35.0311682,-80.5755754
3008,Hunt Club Avenue,28110,35.0311871,-80.5763302
3007,Hunt Club Avenue,28110,35.0306860,-80.5766254
2927,Hunt Club Avenue,28110,35.0304402,-80.5759336
3001,Hunt Club Avenue,28110,35.0305736,-80.5763204
3013,Hunt Club Avenue,28110,35.0308050,-80.5769494
2414,Fowler Secrest Road,28110,35.0324653,-80.5802520
2406,Fowler Secrest Road,28110,35.0316032,-80.5807127
2316,Fowler Secrest Road,28110,35.0305187,-80.5816794
2417,Fox Hunt Drive,28110,35.0328426,-80.5799910
2410,Fowler Secrest Road,28110,35.0320884,-80.5804849
2320,Fowler Secrest Road,28110,35.0310518,-80.5811982
2326,Fox Hunt Drive,28110,35.0311674,-80.5784687
2509,Saddlebred Way,28110,35.0323272,-80.5780620
2508,Saddlebred Way,28110,35.0320940,-80.5774439
2412,Fox Hunt Drive,28110,35.0324494,-80.5790162
2408,Fox Hunt Drive,28110,35.0320556,-80.5788037
2514,Saddlebred Way,28110,35.0323494,-80.5776550
2902,Fox Den Drive,28110,35.0320099,-80.5740401
2708,Field Master Drive,28110,35.0321098,-80.5732987
2715,Field Master Drive,28110,35.0327409,-80.5738482
2709,Field Master Drive,28110,35.0324285,-80.5739035
2812,Fox Den Drive,28110,35.0317926,-80.5734898
2813,Fox Den Drive,28110,35.0313365,-80.5736859
2314,Fox Hunt Drive,28110,35.0301961,-80.5792205
2709,Fowler Secrest Road,28110,35.0379889,-80.5820822
2619,Fowler Secrest Road,28110,35.0367195,-80.5810308
2805,Fowler Secrest Road,28110,35.0392758,-80.5843109
2801,Fowler Secrest Road,28110,35.0389647,-80.5836669
2811,Fowler Secrest Road,28110,35.0399229,-80.5845102
2703,Fowler Secrest Road,28110,35.0371865,-80.5817433
2336,Granville Place,28110,35.0330782,-80.5817206
2402,Granville Place,28110,35.0331570,-80.5819812
2327,Granville Place,28110,35.0335967,-80.5810029
2323,Granville Place,28110,35.0338475,-80.5808048
2332,Granville Place,28110,35.0333104,-80.5815455
2409,Fowler Secrest Road,28110,35.0324821,-80.5812052
2504,Country Side Lane,28110,35.0339534,-80.5800319
2319,Fowler Secrest Road,28110,35.0311428,-80.5821431
2515,Fowler Secrest Road,28110,35.0350071,-80.5802093
2409,Granville Place,28110,35.0336850,-80.5818517
2335,Granville Place,28110,35.0330855,-80.5813870
2413,Granville Place,28110,35.0338820,-80.5816248
2410,Granville Place,28110,35.0336134,-80.5815524
2421,Granville Place,28110,35.0342736,-80.5811097
2311,Fowler Secrest Road,28110,35.0304210,-80.5826777
2315,Fowler Secrest Road,28110,35.0307557,-80.5824621
2310,Belleview Court,28110,35.0329894,-80.5824787
2500,Country Side Lane,28110,35.0337007,-80.5802113
2339,Granville Place,28110,35.0328296,-80.5815883
2508,Country Side Lane,28110,35.0341878,-80.5798583
2414,Granville Place,28110,35.0338467,-80.5812031
2328,Granville Place,28110,35.0335372,-80.5813762
2319,Granville Place,28110,35.0341149,-80.5806156
2505,Country Side Lane,28110,35.0340552,-80.5803151
2417,Granville Place,28110,35.0340990,-80.5813897
2325,Fowler Secrest Road,28110,35.0322005,-80.5823789
2307,Fowler Secrest Road,28110,35.0302010,-80.5828073
2509,Country Side Lane,28110,35.0343111,-80.5801220
2417,Fowler Secrest Road,28110,35.0330401,-80.5806321
2405,Granville Place,28110,35.0334693,-80.5820521
2519,Fowler Secrest Road,28110,35.0355093,-80.5790503
2331,Granville Place,28110,35.0333379,-80.5811997
2406,Granville Place,28110,35.0334085,-80.5817665
2343,Granville Place,28110,35.0326279,-80.5818658
3212,Secrest Price Road,28110,35.0306754,-80.5839587
3218,Secrest Price Road,28110,35.0309686,-80.5843041
2513,Kempsar Lane,28110,35.0338747,-80.5928876
2545,Woodbrook Lane,28110,35.0351519,-80.5937603
2522,Kempsar Lane,28110,35.0345270,-80.5919377
2530,Kempsar Lane,28110,35.0355045,-80.5916740
2515,Kempsar Lane,28110,35.0341488,-80.5928165
2412,Kempsar Lane,28110,35.0324174,-80.5925058
2518,Kempsar Lane,28110,35.0342593,-80.5920869
3824,West Highway 74,28110,35.0341651,-80.5954765
3842,West Highway 74,28110,35.0347077,-80.5962890
2529,Woodbrook Lane,28110,35.0343010,-80.5942321
2561,Woodbrook Lane,28110,35.0360657,-80.5935597
2521,Woodbrook Lane,28110,35.0339477,-80.5942086
2534,Kempsar Lane,28110,35.0358849,-80.5921532
2537,Woodbrook Lane,28110,35.0347269,-80.5934511
2557,Woodbrook Lane,28110,35.0359076,-80.5931427
2532,Kempsar Lane,28110,35.0357389,-80.5919180
2533,Woodbrook Lane,28110,35.0348576,-80.5939406
2517,Kempsar Lane,28110,35.0343708,-80.5927280
2514,Kempsar Lane,28110,35.0337890,-80.5922268
2516,Kempsar Lane,28110,35.0339786,-80.5921029
2519,Kempsar Lane,28110,35.0346248,-80.5925420
2505,Kempsar Lane,28110,35.0333194,-80.5931140
2553,Woodbrook Lane,28110,35.0356069,-80.5930996
2528,Kempsar Lane,28110,35.0350735,-80.5917405
2525,Woodbrook Lane,28110,35.0339929,-80.5937402
2509,Kempsar Lane,28110,35.0336017,-80.5930470
2549,Woodbrook Lane,28110,35.0357434,-80.5935528
2510,Kempsar Lane,28110,35.0334593,-80.5923161
2524,Kempsar Lane,28110,35.0348040,-80.5918213
2521,Kempsar Lane,28110,35.0349115,-80.5924462
2517,Woodbrook Lane,28110,35.0333858,-80.5946205
2508,Kempsar Lane,28110,35.0331378,-80.5923868
3604,West Highway 74,28110,35.0321513,-80.5930187
2513,Woodbrook Lane,28110,35.0331719,-80.5942095
3610,West Highway 74,28110,35.0324563,-80.5933649
2523,Kempsar Lane,28110,35.0351835,-80.5923532
2541,Woodbrook Lane,28110,35.0350112,-80.5933189
3501,North Rocky River Road,28110,35.0577150,-80.5938930
3504,North Rocky River Road,28110,35.0572637,-80.5925637
4209,West Highway 74,28110,35.0396961,-80.6052324
2407,North Rocky River Road,28110,35.0358270,-80.6033031
4013,West Highway 74,28110,35.0367841,-80.6015725
4116,Shiloh Club Road,28110,35.0368004,-80.6035767
4103,West Highway 74,28110,35.0374683,-80.6023486
2411,North Rocky River Road,28110,35.0361019,-80.6024373
2314,North Rocky River Road,28110,35.0330036,-80.6018167
3705,West Highway 74,28110,35.0322733,-80.5951817
2209,Melody Drive,28110,35.0301066,-80.5965622
3701,West Highway 74,28110,35.0320359,-80.5949920
3709,West Highway 74,28110,35.0325360,-80.5955201
3613,West Highway 74,28110,35.0317773,-80.5945624
2305,Wilson Avenue,28110,35.0300585,-80.5938340
3603,West Highway 74,28110,35.0311206,-80.5934624
3513,West Highway 74,28110,35.0304296,-80.5927410
2309,Wilson Avenue,28110,35.0305825,-80.5936890
2920,Rosemeade Drive,28110,35.0518256,-80.6082169
4973,Aldersbrook Drive,28110,35.0555675,-80.6086612
3101,Queensdale Drive,28110,35.0537857,-80.6087332
2915,Rosemeade Drive,28110,35.0516014,-80.6088018
2806,Rosemeade Drive,28110,35.0482469,-80.6083707
2904,Rosemeade Drive,28110,35.0505905,-80.6082186
3104,Queensdale Drive,28110,35.0539488,-80.6081380
2906,Rosemeade Drive,28110,35.0507870,-80.6082404
3000,Queensdale Drive,28110,35.0526981,-80.6083361
3015,Queensdale Drive,28110,35.0534068,-80.6087692
2921,Rosemeade Drive,28110,35.0520083,-80.6088453
3004,Queensdale Drive,28110,35.0528938,-80.6081020
2840,Rosemeade Drive,28110,35.0501792,-80.6082565
3121,Queensdale Drive,28110,35.0548061,-80.6086977
2818,Rosemeade Drive,28110,35.0489407,-80.6082749
2836,Rosemeade Drive,28110,35.0499645,-80.6082616
3117,Queensdale Drive,28110,35.0545999,-80.6087033
2922,Rosemeade Drive,28110,35.0520457,-80.6081098
4969,Aldersbrook Drive,28110,35.0555681,-80.6089216
3112,Queensdale Drive,28110,35.0543577,-80.6081259
2814,Rosemeade Drive,28110,35.0487334,-80.6082887
3108,Queensdale Drive,28110,35.0541554,-80.6081341
2918,Rosemeade Drive,28110,35.0516204,-80.6082266
3011,Queensdale Drive,28110,35.0532278,-80.6087708
2901,Rosemeade Drive,28110,35.0505875,-80.6088246
3128,Queensdale Drive,28110,35.0551658,-80.6081356
2917,Rosemeade Drive,28110,35.0518057,-80.6088247
3008,Queensdale Drive,28110,35.0531390,-80.6081523
2834,Rosemeade Drive,28110,35.0497627,-80.6082433
3113,Queensdale Drive,28110,35.0543952,-80.6087017
2923,Rosemeade Drive,28110,35.0522735,-80.6087380
3012,Queensdale Drive,28110,35.0533346,-80.6081769
3109,Queensdale Drive,28110,35.0541875,-80.6087256
3120,Queensdale Drive,28110,35.0547725,-80.6081518
2905,Rosemeade Drive,28110,35.0509867,-80.6088433
3116,Queensdale Drive,28110,35.0545689,-80.6081336
2828,Rosemeade Drive,28110,35.0495562,-80.6082531
3105,Queensdale Drive,28110,35.0539848,-80.6087384
2912,Rosemeade Drive,28110,35.0512088,-80.6082304
3005,Queensdale Drive,28110,35.0530043,-80.6088247
4977,Aldersbrook Drive,28110,35.0555933,-80.6083996
2916,Rosemeade Drive,28110,35.0514146,-80.6082111
5001,Aldersbrook Drive,28110,35.0555898,-80.6081036
3124,Queensdale Drive,28110,35.0549867,-80.6081273
2924,Rosemeade Drive,28110,35.0522759,-80.6082208
2909,Rosemeade Drive,28110,35.0511875,-80.6088319
2812,Rosemeade Drive,28110,35.0485143,-80.6082857
2910,Rosemeade Drive,28110,35.0510017,-80.6082248
3001,Queensdale Drive,28110,35.0527186,-80.6086631
2900,Rosemeade Drive,28110,35.0503766,-80.6082488
4972,Queensdale Drive,28110,35.0551144,-80.6086442
2928,Rosemeade Drive,28110,35.0523736,-80.6084829
3016,Queensdale Drive,28110,35.0535353,-80.6081826
4968,Aldersbrook Drive,28110,35.0550909,-80.6088916
2820,Rosemeade Drive,28110,35.0491494,-80.6082815
2824,Rosemeade Drive,28110,35.0493529,-80.6082645
3100,Queensdale Drive,28110,35.0537440,-80.6081533
3910,Karrington Place,28110,35.0400042,-80.5922331
3921,Priceton Drive,28110,35.0405429,-80.5915064
3821,Karrington Place,28110,35.0386257,-80.5917754
3914,Karrington Place,28110,35.0402149,-80.5925417
3922,Priceton Drive,28110,35.0410423,-80.5911065
3914,Priceton Drive,28110,35.0403474,-80.5902249
3902,Priceton Drive,28110,35.0392658,-80.5891240
3907,Priceton Drive,28110,35.0393716,-80.5900028
3810,Karrington Place,28110,35.0386288,-80.5902177
3806,Karrington Place,28110,35.0383966,-80.5898343
3817,Karrington Place,28110,35.0384245,-80.5913844
3918,Karrington Place,28110,35.0404847,-80.5928124
3925,Priceton Drive,28110,35.0408375,-80.5919071
3813,Karrington Place,28110,35.0382137,-80.5910373
3805,Karrington Place,28110,35.0377584,-80.5902691
3930,Priceton Drive,28110,35.0416590,-80.5918986
3814,Karrington Place,28110,35.0389333,-80.5906625
3908,Priceton Drive,28110,35.0400238,-80.5897389
3921,Karrington Place,28110,35.0398315,-80.5939357
3822,Karrington Place,28110,35.0394582,-80.5912272
3900,Karrington Place,28110,35.0395667,-80.5916192
3801,Karrington Place,28110,35.0375637,-80.5898198
3913,Priceton Drive,28110,35.0399722,-80.5907736
3809,Karrington Place,28110,35.0380295,-80.5906662
3917,Karrington Place,28110,35.0397051,-80.5935377
3931,Priceton Drive,28110,35.0413032,-80.5923395
3818,Karrington Place,28110,35.0391974,-80.5909511
3901,Priceton Drive,28110,35.0390733,-80.5894610
3909,Karrington Place,28110,35.0391984,-80.5929365
3800,Karrington Place,28110,35.0377609,-80.5894000
3901,Karrington Place,28110,35.0388046,-80.5921984
3802,Karrington Place,28110,35.0381488,-80.5894594
601,East Sunset Drive,28112,34.9732821,-80.5400179
1212,East Sunset Drive,28112,34.9689905,-80.5290605
