House number,Street name,Postal code,Latitude,Longitude
406,West Fleming Drive,28655,35.7346752,-81.6850232
406,West Fleming Drive,28655,35.7347469,-81.6850652
406,West Fleming Drive,28655,35.7348085,-81.6851012
406,West Fleming Drive,28655,35.7348770,-81.6851413
406,West Fleming Drive,28655,35.7349339,-81.6851746
406,West Fleming Drive,28655,35.7350005,-81.6852135
404,West Fleming Drive,28655,35.7358265,-81.6856024
402,West Fleming Drive,28655,35.7350517,-81.6845071
402,West Fleming Drive,28655,35.7352398,-81.6847167
402,West Fleming Drive,28655,35.7352009,-81.6846734
402,West Fleming Drive,28655,35.7351606,-81.6846285
402,West Fleming Drive,28655,35.7351045,-81.6845659
402,West Fleming Drive,28655,35.7349954,-81.6844437
645,West Fleming Drive,28655,35.7283397,-81.7007134
665,West Fleming Drive,28655,35.7288898,-81.7026931
400,Lenoir Road,28655,35.7672864,-81.6905867
524,West Fleming Drive,28655,35.7334077,-81.6884209
522,West Fleming Drive,28655,35.7334374,-81.6883220
208,West Fleming Drive,28655,35.7368690,-81.6804690
1001,North Green Street,28655,35.7527700,-81.7176980
111,Independence Boulevard,28655,35.7510461,-81.7146996
102,Dale Circle,28655,35.7256548,-81.6714987
207,Enola Road,28655,35.7211759,-81.6730806
104,Morganton Heights Blvd #F,28655,35.7290486,-81.7018484
917,North Green Street,28655,35.7531492,-81.7163132
215,Avery Avenue,28655,35.7501688,-81.6875655
304,South Sterling Street,28655,35.7435465,-81.6855026
200,Tate Street,28655,35.7569951,-81.6868867
1600,Burkemont Avenue,28655,35.7105617,-81.7032625
401,Carbon City Road,28655,35.7344458,-81.7279582
400,North Green Street,28655,35.7480327,-81.6913271
611,Independence Boulevard,28655,35.7383552,-81.7227793
204,West Fleming Drive,28655,35.7376855,-81.6800336
810,South College Street,28655,35.7374166,-81.6800077
111,East Union Street,28655,35.7460156,-81.6879988
903,West Union Street,28655,35.7343207,-81.7109603
900,West Union Street,28655,35.7356402,-81.7096077
900,West Union Street,28655,35.7356767,-81.7097579
2205,South Sterling Street,28655,35.7241194,-81.6579284
2205,South Sterling Street,28655,35.7238940,-81.6579431
675,Fleming Drive,28655,35.7292239,-81.7033839
101,Bost Road,28655,35.7543980,-81.7170856
179,Independence Boulevard,28655,35.7513772,-81.7133420
115,Independence Boulevard,28655,35.7508221,-81.7141359
1015,North Green Street,28655,35.7536931,-81.7182751
1101,North Green Street,28655,35.7542787,-81.7198737
1309,Carbon City Road,28655,35.7269115,-81.7632182
605,South Green Street,28655,35.7423180,-81.6820554
500,East Fleming Drive,28655,35.7485467,-81.6589019
109,East Fleming Drive,28655,35.7412458,-81.6802600
411,Carbon City Road,28655,35.7347311,-81.7292519
635,West Fleming Drive,28655,35.7282279,-81.7000114
303,West Fleming Drive,28655,35.7346970,-81.6832241
913,West Union Street,28655,35.7349378,-81.7116355
915,West Union Street,28655,35.7352796,-81.7119493
909,West Union Street,28655,35.7347019,-81.7113322
116,West Union Street,28655,35.7452207,-81.6887762
110,North Sterling Street,28655,35.7459906,-81.6883960
106,West Union Street,28655,35.7454408,-81.6885269
100,West Union Street,28655,35.7455748,-81.6883660
910,Jamestown Road,28655,35.7233785,-81.7482243
746,Jamestown Road,28655,35.7260022,-81.7416046
201,Carbon City Road,28655,35.7365276,-81.7176299
545,East Fleming Drive,28655,35.7521681,-81.6570398
569,East Fleming Drive,28655,35.7527950,-81.6563638
556,East Fleming Drive,28655,35.7515216,-81.6563156
815,North Green Street,28655,35.7506600,-81.7095491
823,North Green Street,28655,35.7506121,-81.7102706
853,North Green Street,28655,35.7516788,-81.7123627
1025,North Green Street,28655,35.7539382,-81.7189422
112,Bost Road,28655,35.7548094,-81.7154525
1248,Burkemont Avenue,28655,35.7152418,-81.6973056
100,Walker Road,28655,35.7126751,-81.6982702
1225,Burkemont Avenue,28655,35.7152838,-81.6962161
1223,Burkemont Avenue,28655,35.7155969,-81.6959298
1209,Burkemont Avenue,28655,35.7174064,-81.6943392
1205,Burkemont Avenue,28655,35.7178164,-81.6941007
1211,Burkemont Avenue,28655,35.7164864,-81.6934267
1227,Burkemont Avenue,28655,35.7156098,-81.6935738
1227,Burkemont Avenue,28655,35.7151385,-81.6937508
1231,Burkemont Avenue,28655,35.7148850,-81.6939615
1235,Burkemont Avenue,28655,35.7146655,-81.6941683
1247,Burkemont Avenue,28655,35.7144540,-81.6942756
1239,Burkemont Avenue,28655,35.7143136,-81.6943770
1239,Burkemont Avenue,28655,35.7142087,-81.6944784
1239,Burkemont Avenue,28655,35.7139843,-81.6946096
1243,Burkemont Avenue,28655,35.7138874,-81.6948263
1251,Burkemont Avenue,28655,35.7141167,-81.6954645
1255,Burkemont Avenue,28655,35.7142926,-81.6957926
1255,Burkemont Avenue,28655,35.7143443,-81.6958999
202,Old Salem Road,28655,35.7112008,-81.7022126
1270,Burkemont Avenue,28655,35.7141596,-81.6982156
609,South Green Street,28655,35.7422236,-81.6819158
111,Bush Drive,28655,35.7239098,-81.6558402
400,Carbon City Road,28655,35.7355862,-81.7277518
1247,Burkemont Avenue,28655,35.7150275,-81.6938737
220,Catawba Meadows Drive,28655,35.7580294,-81.7025715
111,Alphabet Lane,28655,35.7518672,-81.7009989
114,Dixie Boulevard,28655,35.7296750,-81.7412281
507,Bethel Road,28655,35.7411369,-81.6632581
505,Bethel Road,28655,35.7410470,-81.6635924
503,Bethel Road,28655,35.7409699,-81.6639297
501,Bethel Road,28655,35.7408985,-81.6642983
102,Castlegate Drive,28655,35.7413078,-81.6648335
100,Inglewood Drive,28655,35.7414536,-81.6644441
102,Inglewood Drive,28655,35.7415573,-81.6641535
415,Bethel Road,28655,35.7416073,-81.6687091
104,Inglewood Drive,28655,35.7416836,-81.6638304
106,Inglewood Drive,28655,35.7417761,-81.6634720
108,Inglewood Drive,28655,35.7418454,-81.6630985
101,Knollwood Drive,28655,35.7412718,-81.6629158
2203,South Sterling Street,28655,35.7268180,-81.6556140
101,Steakhouse Road,28655,35.7218836,-81.6535018
335,East Parker Road,28655,35.7289092,-81.6571773
341,East Parker Road,28655,35.7291618,-81.6564298
103,Medical Heights Drive,28655,35.7300508,-81.6564523
100,Medical Heights Drive,28655,35.7296527,-81.6558330
350,East Parker Road,28655,35.7286684,-81.6554717
901,Bethel Road,28655,35.7385215,-81.6548832
201,Mollholland Blvd,28655,35.7401634,-81.6551563
106,Bayern Crest,28655,35.7410495,-81.6557224
2451,South Sterling Street,28655,35.7202515,-81.6514167
2402,South Sterling Street,28655,35.7198807,-81.6526728
2302,South Sterling Street,28655,35.7215576,-81.6552027
2107,South Sterling Street,28655,35.7265246,-81.6620907
2101,South Sterling Street,28655,35.7267496,-81.6626658
2507,South Sterling Street,28655,35.7192792,-81.6503353
201,Believers Way,28655,35.7206447,-81.6507615
203,Believers Way,28655,35.7208689,-81.6498707
112,Steakhouse Road,28655,35.7211027,-81.6504154
105,Randall Road,28655,35.7207593,-81.6514215
104,Steakhouse Road,28655,35.7211320,-81.6515845
102,Steakhouse Road,28655,35.7212544,-81.6519154
106,Randall Road,28655,35.7207661,-81.6523376
104,East Bethel Road,28655,35.7411789,-81.6684222
419,Bethel Road,28655,35.7408071,-81.6686552
421,Bethel Road,28655,35.7406601,-81.6685096
420,Bethel Road,28655,35.7403710,-81.6688910
427,Bethel Road,28655,35.7411183,-81.6680309
227,Bethel Road,28655,35.7399083,-81.6679216
101,Coffey Street,28655,35.7396904,-81.6683340
430,Bethel Road,28655,35.7396114,-81.6672773
309,Bethel Street,28655,35.7391588,-81.6673880
305,Bethel Street,28655,35.7390239,-81.6681015
445,Bethel Road,28655,35.7407358,-81.6658372
101,Castlegate Drive,28655,35.7406710,-81.6648192
103,Castlegate Drive,28655,35.7410391,-81.6652931
105,Castlegate Drive,28655,35.7412458,-81.6656585
128,Greenlee Ford Road,28655,35.7399696,-81.7188910
102,East Union Street,28655,35.7456265,-81.6873872
317,N Green St,28655,35.7476326,-81.6909593
313,N Green Street,28655,35.7475773,-81.6908359
311,N Green St,28655,35.7475471,-81.6907503
309,N Green St,28655,35.7475032,-81.6906533
309,N Green St,28655,35.7474939,-81.6905085
307,N Green St,28655,35.7474507,-81.6903564
302,North Sterling Street,28655,35.7472810,-81.6903984
100,Collett Street,28655,35.7473795,-81.6899673
301,North Sterling Street,28655,35.7471224,-81.6905763
309,North Sterling Street,28655,35.7471494,-81.6907087
216,North Sterling Street,28655,35.7470614,-81.6896141
209,N Green St,28655,35.7472250,-81.6893476
214,North Sterling Street,28655,35.7469140,-81.6894892
210,North Sterling Street,28655,35.7468452,-81.6893913
208,North Sterling Street,28655,35.7467714,-81.6893715
204,North Sterling Street,28655,35.7467598,-81.6892675
200,North Sterling Street,28655,35.7466874,-81.6891629
140,North Sterling Street,28655,35.7465375,-81.6889587
138,North Sterling Street,28655,35.7464856,-81.6888863
132,North Sterling Street,28655,35.7464225,-81.6887974
126,North Sterling Street,28655,35.7463452,-81.6886884
120,North Sterling Street,28655,35.7462600,-81.6885690
118,North Sterling Street,28655,35.7461938,-81.6884757
116,North Sterling Street,28655,35.7461517,-81.6884147
114,North Sterling Street,28655,35.7460805,-81.6884039
110,North Sterling Street,28655,35.7460406,-81.6883478
103,N Green St,28655,35.7463280,-81.6880684
105,N Green St,28655,35.7463988,-81.6881715
100,North Sterling Street,28655,35.7458789,-81.6881796
103,East Union Street,28655,35.7459914,-81.6880602
203,South Green Street,28655,35.7456238,-81.6853115
203,South Green Street,28655,35.7452242,-81.6849863
100,East Meeting Street,28655,35.7448324,-81.6866356
108,East Meeting Street,28655,35.7449092,-81.6865547
216,East Union Street,28655,35.7468265,-81.6862924
103,South Green Street,28655,35.7463148,-81.6868476
103,South Green Street,28655,35.7460392,-81.6868100
100,North Green Street,28655,35.7465210,-81.6875010
200,North Green Street,28655,35.7477197,-81.6888244
100,West Union Street,28655,35.7456097,-81.6884106
102,West Union Street,28655,35.7455522,-81.6884559
104,West Union Street,28655,35.7455063,-81.6885081
106,West Union Street,28655,35.7454572,-81.6885575
108,West Union Street,28655,35.7454534,-81.6886947
112,West Union Street,28655,35.7454187,-81.6888025
114,West Union Street,28655,35.7453447,-81.6888341
116,West Union Street,28655,35.7452919,-81.6888921
126,West Union Street,28655,35.7450174,-81.6890488
128,West Union Street,28655,35.7449651,-81.6891060
130,West Union Street,28655,35.7449234,-81.6891479
132,West Union Street,28655,35.7448884,-81.6891860
134,West Union Street,28655,35.7448499,-81.6892257
136,West Union Street,28655,35.7448088,-81.6892711
101,West Union Street,28655,35.7452888,-81.6881045
117,West Union Street,28655,35.7450287,-81.6883974
139,West Union Street,28655,35.7446873,-81.6888503
160,South Sterling Street,28655,35.7447024,-81.6873078
107,South King Street,28655,35.7444092,-81.6884552
207,South King Street,28655,35.7432933,-81.6868034
206,South Sterling Street,28655,35.7439497,-81.6861562
103,West Meeting Street,28655,35.7443311,-81.6871560
201,West Meeting Street,28655,35.7433817,-81.6881447
203,West Meeting Street,28655,35.7428873,-81.6885574
204,South King Street;S King St,28655;28655-3535,35.7428916,-81.6875476
100,South King Street,28655,35.7438943,-81.6890542
225,West Union Street,28655,35.7434137,-81.6894396
106,South King Street,28655,35.7436681,-81.6886458
313,South Sterling Street,28655,35.7438855,-81.6852297
319,South Sterling Street,28655,35.7437795,-81.6850802
323,South Sterling Street,28655,35.7436397,-81.6847020
307,South Green Street,28655,35.7444001,-81.6838439
308,South Sterling Street,28655,35.7431529,-81.6849720
306,South Sterling Street,28655,35.7433684,-81.6854192
305,South College Street,28655,35.7417917,-81.6870641
303,South College Street,28655,35.7420050,-81.6872572
301,South College Street,28655,35.7420910,-81.6874132
401,South College Street,28655,35.7415825,-81.6855464
508,South Sterling Street,28655,35.7423133,-81.6838379
410,South Sterling Street,28655,35.7425372,-81.6841419
400,South Sterling Street,28655,35.7428361,-81.6847738
401,South Sterling Street,28655,35.7433270,-81.6843305
300,Beach Street,28655,35.7426538,-81.6808120
500,South Sterling Street,28655,35.7420737,-81.6835322
506,South Sterling Street,28655,35.7415725,-81.6831607
101,East Fleming Drive,28655,35.7406564,-81.6806153
612,South Sterling Street,28655,35.7403098,-81.6814795
101,West Fleming Drive,28655,35.7385437,-81.6791997
100,West Fleming Drive,28655,35.7388946,-81.6800010
801,South Sterling Street,28655,35.7397092,-81.6793519
333,Eastview Street,28655,35.7352175,-81.6742233
103,Bethel Street,28655,35.7356543,-81.6741378
105,Bethel Street,28655,35.7358072,-81.6738977
108,Bethel Street,28655,35.7355815,-81.6735933
110,Bethel Street,28655,35.7357655,-81.6732720
109,Bethel Street,28655,35.7361396,-81.6734328
111,Bethel Street,28655,35.7362788,-81.6732444
112,Bethel Street,28655,35.7359585,-81.6729982
113,Bethel Street,28655,35.7364156,-81.6729917
116,Bethel Street,28655,35.7362212,-81.6724707
118,Bethel Street,28655,35.7363504,-81.6722539
113 A,Bethel Street,28655,35.7365331,-81.6728878
115,Bethel Street,28655,35.7366322,-81.6727423
117,Bethel Street,28655,35.7366885,-81.6725225
119,Bethel Street,28655,35.7368000,-81.6723427
124,Bethel Street,28655,35.7366322,-81.6717325
200,Bethel Street,28655,35.7367960,-81.6714056
203,Bethel Street,28655,35.7372617,-81.6717608
837,Eastview Street,28655,35.7345721,-81.6736597
406,West Fleming Drive,28655,35.7348470,-81.6851596
408,West Fleming Drive,28655,35.7347822,-81.6853019
402,West Fleming Drive,28655,35.7351269,-81.6845674
412,West Fleming Drive,28655,35.7358762,-81.6858913
416,West Fleming Drive,28655,35.7356876,-81.6852911
418,West Fleming Drive,28655,35.7350616,-81.6864669
F126,Morganton Heights Boulevard,28655,35.7259630,-81.7045204
E142,Morganton Heights Boulevard,28655,35.7250364,-81.7037887
E132,Morganton Heights Boulevard,28655,35.7250304,-81.7032065
E122,Morganton Heights Boulevard,28655-5215,35.7250235,-81.7028395
510,South College Street,28655,35.7396528,-81.6853227
504,West Fleming Drive,28655,35.7339925,-81.6873225
900,North Green Street,28655,35.7531300,-81.7142431
905,North Green Street,28655,35.7526707,-81.7149994
304,South College Street,28655,35.7411910,-81.6871287
302,South College Street,28655,35.7416489,-81.6877036
305,West Meeting Street,28655,35.7415430,-81.6890642
301,West Meeting Street,28655,35.7424569,-81.6889958
204,South College Street,28655,35.7422027,-81.6885298
2041,South College Street,28655,35.7420098,-81.6888266
208,South College Street,28655,35.7420303,-81.6882926
302,West Union Street,28655,35.7427582,-81.6902318
300,West Union Street,28655,35.7430801,-81.6903281
300,N Green St,28655,35.7478212,-81.6896169
306,N Green St,28655,35.7480048,-81.6904794
308,N Green St,28655,35.7479714,-81.6906899
303,Bouchelle Street,28655,35.7483458,-81.6899586
305,Bouchelle Street,28655,35.7483975,-81.6902690
307,Bouchelle Street,28655,35.7484522,-81.6904803
309,Bouchelle Street,28655,35.7485363,-81.6906663
1007,Jamestown Road,28655,35.7202137,-81.7497016
518,West Fleming Drive,28655,35.7338764,-81.6875776
520,West Fleming Drive,28655,35.7335203,-81.6881603
522,West Fleming Drive,28655,35.7334246,-81.6883682
103,Cox Street,28655,35.7343681,-81.6867927
105,Cox Street,28655,35.7345183,-81.6869518
107,Cox Street,28655,35.7346536,-81.6870834
100,Cox Street,28655,35.7346190,-81.6864582
115,Cox Street,28655,35.7352275,-81.6876527
500,West Fleming Drive,28655,35.7342417,-81.6860515
228,West Fleming Drive,28655,35.7357901,-81.6823006
240,West Fleming Drive,28655,35.7362673,-81.6817875
238,West Fleming Drive,28655,35.7360318,-81.6816074
220,West Fleming Drive,28655,35.7364607,-81.6807687
200,West Fleming Drive,28655,35.7379443,-81.6799958
712,South Sterling Street,28655,35.7400155,-81.6821593
109,East Fleming Drive,28655,35.7416987,-81.6805878
200,Avery Avenue,28655,35.7480503,-81.6872374
315,Sanford Drive,28655,35.7469712,-81.7057425
320,Sanford Drive,28655,35.7483528,-81.7033585
655,West Fleming Drive,28655,35.7285586,-81.7015116
123,Romarco Road,28655,35.7303627,-81.7328776
110,Romarco Road,28655,35.7294201,-81.7343001
155,West Parker Road,28655,35.7226886,-81.6618045
801,Carbon City Road,28655,35.7323325,-81.7391384
130,Romarco Road,28655,35.7303071,-81.7299057
308,West Union Street,28655,35.7421200,-81.6906720
306,West Union Street,28655,35.7422938,-81.6905053
120,Carbon City Road,28655,35.7378670,-81.7154159
201,Carbon City Road,28655,35.7369676,-81.7147115
130,Greenlee Ford Road,28655,35.7378251,-81.7173148
204,Carbon City Road,28655,35.7370904,-81.7181373
901,West Union Street,28655,35.7350296,-81.7099679
908,Catawba River Greenway,28655,35.7359399,-81.7112571
901,West Fleming Drive,28655,35.7344363,-81.7092593
118,Bost Road,28655,35.7544969,-81.7145587
868,North Green Street,28655,35.7529034,-81.7131054
863,North Green Street,28655,35.7521675,-81.7135380
107,Independence Boulevard,28655,35.7512643,-81.7148765
855,North Green Street,28655,35.7518714,-81.7128810
647,Hopewell Road,28655,35.7190740,-81.7083423
1001,Jamestown Road,28655,35.7207739,-81.7483131
1016,Jamestown Road,28655,35.7194032,-81.7519572
305,West Concord Street,28655,35.7406575,-81.6883681
500,Golf Course Road,28655,35.7299198,-81.7144911
405,West Fleming Drive,28655,35.7343144,-81.6837959
205,West Union Street,28655,35.7404509,-81.6955109
408,West Union Street,28655,35.7406601,-81.6937578
410,West Union Street,28655,35.7406387,-81.6943940
309,West Union Street,28655,35.7417500,-81.6901376
310,West Union Street,28655,35.7421411,-81.6911981
311,West Union Street,28655,35.7416083,-81.6902870
312,West Union Street,28655,35.7420700,-81.6915831
314,West Union Street,28655,35.7418235,-81.6919415
315,West Union Street,28655,35.7411108,-81.6909036
316,West Union Street,28655,35.7414776,-81.6922177
317,West Union Street,28655,35.7409363,-81.6911634
400,West Union Street,28655,35.7411918,-81.6926514
402,West Union Street,28655,35.7410426,-81.6930046
406,West Union Street,28655,35.7408038,-81.6935170
319,West Union Street,28655,35.7408626,-81.6914659
401,West Union Street,28655,35.7406997,-81.6924399
403,West Union Street,28655,35.7405621,-81.6927283
407,West Union Street,28655,35.7403081,-81.6931343
409,West Union Street,28655,35.7401063,-81.6934840
411,West Union Street,28655,35.7400220,-81.6938090
413,West Union Street,28655,35.7399364,-81.6940448
415,West Union Street,28655,35.7398741,-81.6943036
501,West Union Street,28655,35.7397214,-81.6948158
503,West Union Street,28655,35.7395775,-81.6951053
505,West Union Street,28655,35.7393733,-81.6953636
102,South Anderson Street,28655,35.7403032,-81.6920806
103,South Anderson Street,28655,35.7409562,-81.6919783
104,South Anderson Street,28655,35.7401815,-81.6919538
105,Lyman Court,28655,35.7406932,-81.6896170
105,South Anderson Street,28655,35.7403429,-81.6915520
106,Lyman Court,28655,35.7407242,-81.6900399
106,South Anderson Street,28655,35.7398117,-81.6918839
107,South Anderson Street,28655,35.7401695,-81.6914224
108,Lyman Court,28655,35.7405058,-81.6899068
108,South Anderson Street,28655,35.7396596,-81.6915823
109,South Anderson Street,28655,35.7399855,-81.6912524
110,South Anderson Street,28655,35.7394378,-81.6914544
111,South Anderson Street,28655,35.7397731,-81.6911272
101,Circle Court,28655,35.7385056,-81.6938702
101,Robey Street,28655,35.7388738,-81.6933030
102,Circle Court,28655,35.7380514,-81.6931786
103,Circle Court,28655,35.7384582,-81.6936067
103,Robey Street,28655,35.7390375,-81.6933083
104,Circle Court,28655,35.7380601,-81.6929108
104,Robey Street,28655,35.7390079,-81.6929493
105,Circle Court,28655,35.7385448,-81.6932870
105,Robey Street,28655,35.7392314,-81.6933070
106,Robey Street,28655,35.7392446,-81.6929057
107,Burkemont Avenue,28655,35.7390226,-81.6942978
107,Circle Court,28655,35.7384835,-81.6929885
109,Burkemont Avenue,28655,35.7387874,-81.6943003
109,Circle Court,28655,35.7383892,-81.6927474
111,Burkemont Avenue,28655,35.7385766,-81.6942428
111,Circle Court,28655,35.7382392,-81.6925319
113,Burkemont Avenue,28655,35.7384125,-81.6942032
115,Burkemont Avenue,28655,35.7379747,-81.6941957
416,West Concord School,28655,35.7385113,-81.6922309
101,Haley Place,28655,35.7376674,-81.6938604
105,Haley Place,28655,35.7377454,-81.6934730
106,Haley Place,28655,35.7374115,-81.6934772
108,Burkemont Avenue,28655,35.7388580,-81.6948043
110,Burkemont Avenue,28655,35.7384140,-81.6948039
112,Burkemont Avenue,28655,35.7380794,-81.6948918
117,Burkemont Avenue,28655,35.7377027,-81.6942281
118,Burkemont Avenue,28655,35.7377880,-81.6948503
120,Burkemont Avenue,28655,35.7375631,-81.6948767
619,West Concord School,28655,35.7342079,-81.6908534
119,Asheville Street,28655,35.7367411,-81.6969155
304,Burkemont Avenue,28655,35.7338866,-81.6955520
810,Fleming Drive,28655,35.7336085,-81.7077115
815,West Fleming Drive,28655,35.7336991,-81.7086055
801,West Fleming Drive,28655,35.7325666,-81.7078681
830,Burkemont Avenue,28655,35.7262048,-81.6929123
117,Wilson Drive,28655,35.7248268,-81.6943591
804,Burkemont Avenue,28655,35.7276292,-81.6935962
107,Wilson Drive,28655,35.7255113,-81.6942985
111,Wilson Drive,28655,35.7252108,-81.6943441
206,Barbour Drive,28655,35.7264931,-81.6971459
605,West Fleming Drive,28655,35.7285200,-81.6967682
204,Conley Street,28655,35.7238600,-81.6956879
103,Ross Street,28655,35.7205662,-81.6951650
200,Hopewell Road,28655,35.7245258,-81.6937109
117,Conley Street,28655,35.7234028,-81.6966253
121,Ross Street,28655,35.7215842,-81.6984645
1010,Burkemont Avenue,28655,35.7216439,-81.6942047
104,Ross Street,28655,35.7215340,-81.6952797
102,Ross Street,28655,35.7213034,-81.6950624
102,Ross Street,28655,35.7210660,-81.6951798
108,Ross Street,28655,35.7216435,-81.6958631
104,Ross Street,28655,35.7214236,-81.6953363
102,Ross Street,28655,35.7214193,-81.6950120
102,Ross Street,28655,35.7215445,-81.6949249
108,Ross Street,28655,35.7214461,-81.6959790
100,Ross Street,28655,35.7214023,-81.6946937
100,Ross Street,28655,35.7212786,-81.6947412
104,Ross Street,28655,35.7213102,-81.6953974
104,Ross Street,28655,35.7216370,-81.6952371
100,Ross Street,28655,35.7211476,-81.6947864
104,Ross Street,28655,35.7211967,-81.6954578
106,Ross Street,28655,35.7214259,-81.6956452
106,Ross Street,28655,35.7216824,-81.6955459
203,Hopewell Road,28655,35.7244335,-81.6953374
206,Wilson Drive,28655,35.7235296,-81.6951402
108,Ross Street,28655,35.7213418,-81.6960287
563,Hopewell Road,28655,35.7221719,-81.7016248
106,Ross Street,28655,35.7212405,-81.6957096
106,Ross Street,28655,35.7213311,-81.6956821
100,Ross Street,28655,35.7210404,-81.6948380
619,Hopewell Road,28655,35.7200462,-81.7051194
102,Ross Street,28655,35.7211898,-81.6951075
205,Wilson Drive,28655,35.7238447,-81.6944531
201,Hopewell Road,28655,35.7244328,-81.6949935
122,Ross Street,28655,35.7219659,-81.6982657
120,Ross Street,28655,35.7218126,-81.6978016
204,Wilson Drive,28655,35.7237242,-81.6950389
1018,Burkemont Avenue,28655,35.7210742,-81.6941536
1016,Burkemont Avenue,28655,35.7213879,-81.6942128
133,Starmount Circle,28655,35.7246294,-81.6992593
207,Wilson Drive,28655,35.7235648,-81.6945042
319,Hopewell Road,28655,35.7249139,-81.6970706
604,Hopewell Road,28655,35.7198191,-81.7011574
231,Avery Avenue,28655,35.7507796,-81.6873064
728,West Union Street,28655,35.7362334,-81.7039382
312,West Union Street,28655,35.7350919,-81.7064077
142,Patrick Murphy Drive,28655,35.7246989,-81.6755189
202,Shady Rest Road,28655,35.7279415,-81.6698376
400,Shady Rest Road,28655,35.7272493,-81.6679668
109,Logan Street,28655,35.7275930,-81.6698349
102,Logan Street,28655,35.7274610,-81.6706047
113,Old NC 18,28655,35.7291581,-81.6709381
304,Shady Rest Road,28655,35.7274310,-81.6682507
401,Shady Rest Road,28655,35.7274778,-81.6676481
502,Shady Rest Road,28655,35.7265296,-81.6666857
111,Old NC 18,28655,35.7292945,-81.6709388
100,Hudson Street,28655,35.7281026,-81.6691218
110,Logan Street,28655,35.7274157,-81.6694098
206,Shady Rest Road,28655,35.7278297,-81.6692728
109,Moose Street,28655,35.7285678,-81.6673260
305,Old NC 18,28655,35.7258387,-81.6722993
301,Old NC 18,28655,35.7264530,-81.6720963
100,Shady Rest Road,28655,35.7276889,-81.6712672
204,South Matthews Street,28655,35.7271650,-81.6712384
101,Dale Circle,28655,35.7263912,-81.6715535
102,Shady Rest Road,28655,35.7278390,-81.6709875
307,Old NC 18,28655,35.7255621,-81.6724872
303,Old NC 18,28655,35.7261173,-81.6720613
116,Dale Circle,28655,35.7252437,-81.6708815
211,Old NC 18,28655,35.7268059,-81.6718776
414,Old N C 18,28655,35.7219048,-81.6714437
106,Bluebird Lane,28655,35.7228937,-81.6699393
231,Enola Road,28655,35.7201345,-81.6716029
422,Old N C 18,28655,35.7208041,-81.6700718
127,Enola Road,28655,35.7220344,-81.6732403
419,Old NC 18,28655,35.7214525,-81.6699330
445,Old N C 18,28655,35.7202605,-81.6648446
101,Hawkins Street,28655,35.7211913,-81.6696319
431,Old NC 18,28655,35.7209412,-81.6682498
443,Old N C 18,28655,35.7203039,-81.6650605
101,Golden Lane,28655,35.7209841,-81.6685567
419,Old NC 18,28655,35.7216873,-81.6697482
433,Old NC 18,28655,35.7208698,-81.6679182
108,Golden Lane,28655,35.7215224,-81.6680807
107,Golden Lane,28655,35.7214268,-81.6684495
102,Hawkins Street,28655,35.7214220,-81.6691618
102,Sageview Lane,28655,35.7206838,-81.6640608
423,Old NC 18,28655,35.7214808,-81.6694839
107,Old Jamestown Road,28655,35.7346563,-81.7238897
225,Carbon City Road,28655,35.7351645,-81.7221276
307,Carbon City Road,28655,35.7353401,-81.7242130
309,Carbon City Road,28655,35.7350389,-81.7242145
300,Carbon City Road,28655,35.7361272,-81.7223011
218,Carbon City Road,28655,35.7366548,-81.7203861
226,Carbon City Road,28655,35.7364533,-81.7218139
113,Shuping Street,28655,35.7360791,-81.6708389
116,Shuping Street,28655,35.7359429,-81.6712416
107,Shuping Street,28655,35.7364688,-81.6711676
211,Shuping Street,28655,35.7346358,-81.6695444
225,Shuping Street,28655,35.7336999,-81.6682234
210,Shuping Street,28655,35.7344694,-81.6701155
110,Shuping Street,28655,35.7362958,-81.6715473
220,Shuping Street,28655,35.7331760,-81.6690423
213,Shuping Street,28655,35.7343606,-81.6694114
202,Shuping Street,28655,35.7353166,-81.6707980
201,Shuping Street,28655,35.7356534,-81.6704959
212,Shuping Street,28655,35.7340733,-81.6697659
217,Shuping Street,28655,35.7339251,-81.6690315
107,Stacy Street,28655,35.7360956,-81.6704195
204,Shuping Street,28655,35.7350798,-81.6705640
205,Shuping Street,28655,35.7352458,-81.6701627
115,Shuping Street,28655,35.7360004,-81.6706363
209,Shuping Street,28655,35.7348718,-81.6697285
203,Shuping Street,28655,35.7354411,-81.6703133
206,Shuping Street,28655,35.7349394,-81.6704429
200,Shuping Street,28655,35.7355702,-81.6709423
207,Shuping Street,28655,35.7350580,-81.6700106
208,Shuping Street,28655,35.7347653,-81.6703321
112,Shuping Street,28655,35.7361444,-81.6713492
2117,South Sterling Street,28655,35.7253947,-81.6603396
111,Foothills Drive,28655,35.7260653,-81.6522343
145,Bush Drive,28655,35.7245189,-81.6522362
1020,North Green Street,28655,35.7551675,-81.7180747
102,Barber Street,28655,35.7380152,-81.6716428
110,Coffey Street,28655,35.7402490,-81.6698306
111,Coffey Street,28655,35.7393866,-81.6700124
113,Coffey Street,28655,35.7392380,-81.6702190
115,Coffey Street,28655,35.7390780,-81.6704769
117,Coffey Street,28655,35.7388459,-81.6706636
119,Coffey Street,28655,35.7387027,-81.6709922
121,Coffey Street,28655,35.7385807,-81.6713356
125,Coffey Street,28655,35.7383969,-81.6716127
127,Coffey Street,28655,35.7382310,-81.6718465
204,Bethel Street,28655,35.7369344,-81.6710301
205,Bethel Street,28655,35.7373945,-81.6715261
209,Bethel Street,28655,35.7376352,-81.6711210
211,Bethel Street,28655,35.7378165,-81.6708594
212,Bethel Street,28655,35.7375865,-81.6704153
213,Bethel Street,28655,35.7379620,-81.6706678
215,Bethel Street,28655,35.7381585,-81.6704241
217,Bethel Street,28655,35.7383297,-81.6701285
219,Bethel Street,28655,35.7385216,-81.6699577
220,Bethel Street,28655,35.7381773,-81.6695314
221,Bethel Street,28655,35.7387091,-81.6697607
222,Bethel Street,28655,35.7383827,-81.6690995
224,Bethel Street,28655,35.7383320,-81.6686962
226,Bethel Street,28655,35.7383064,-81.6683689
308,Bethel Street,28655,35.7385336,-81.6679776
310,Bethel Street,28655,35.7386924,-81.6675595
428,Bethel Road,28655,35.7398920,-81.6673742
105,Coffey Street,28655,35.7396248,-81.6690184
111,Shuping Street,28655,35.7363243,-81.6709819
227,Bethel Street,28655,35.7390886,-81.6690966
103,Coffey Street,28655,35.7396295,-81.6686438
108,Stacy Street,28655,35.7359888,-81.6697589
103,Lackey Street,28655,35.7372847,-81.6695281
103,Willowbrook Drive,28655,35.7353581,-81.6692799
106,Stacy Street,28655,35.7358058,-81.6700576
204,Stacy Street,28655,35.7365312,-81.6687046
211,Stacy Street,28655,35.7373408,-81.6678701
100,Lackey Street,28655,35.7372283,-81.6701281
110,Stacy Street,28655,35.7358768,-81.6693765
100,Woodward Avenue,28655,35.7380196,-81.6682359
206,Willowbrook Drive,28655,35.7356798,-81.6674149
112,Stacy Street,28655,35.7362469,-81.6693245
109,Stacy Street,28655,35.7363885,-81.6699831
102,Lackey Street,28655,35.7370403,-81.6699834
203,Lackey Street,28655,35.7360732,-81.6686652
203,Stacy Street,28655,35.7367617,-81.6690877
201,Lackey Street,28655,35.7363777,-81.6689234
204,Woodward Avenue,28655,35.7361785,-81.6673598
105,Lackey Street,28655,35.7370617,-81.6693865
210,Stacy Street,28655,35.7368138,-81.6678980
107,Lackey Street,28655,35.7368892,-81.6692694
212,Stacy Street,28655,35.7368969,-81.6676596
204,Willowbrook Drive,28655,35.7356153,-81.6676572
102,Willowbrook Drive,28655,35.7349652,-81.6690667
205,Willowbrook Drive,28655,35.7360356,-81.6679013
104,Lackey Street,28655,35.7368348,-81.6698274
208,Willowbrook Drive,28655,35.7356708,-81.6670824
206,Stacy Street,28655,35.7366451,-81.6683972
106,Lackey Street,28655,35.7365766,-81.6696403
207,Stacy Street,28655,35.7371387,-81.6684440
209,Stacy Street,28655,35.7372556,-81.6681461
205,Stacy Street,28655,35.7369838,-81.6687227
201,Willowbrook Drive,28655,35.7359227,-81.6681478
202,Woodward Avenue,28655,35.7365093,-81.6675436
200,Willowbrook Drive,28655,35.7354012,-81.6682328
202,Willowbrook Drive,28655,35.7355302,-81.6679801
205,Lackey Street,28655,35.7358477,-81.6684958
208,Stacy Street,28655,35.7367292,-81.6681495
101,Lackey Street,28655,35.7377620,-81.6699251
104,Willowbrook Drive,28655,35.7350911,-81.6688146
101,Lackey Street,28655,35.7374846,-81.6696819
102,Woodward Avenue,28655,35.7378200,-81.6681575
1509,South Sterling Street,28655,35.7319591,-81.6703768
1515,South Sterling Street,28655,35.7321994,-81.6691314
1525,South Sterling Street,28655,35.7320521,-81.6676129
1507,South Sterling Street,28655,35.7316896,-81.6706998
1513,South Sterling Street,28655,35.7322135,-81.6696769
1511,South Sterling Street,28655,35.7318706,-81.6698732
1517,South Sterling Street,28655,35.7319892,-81.6686461
1519,South Sterling Street,28655,35.7324580,-81.6686785
1527,South Sterling Street,28655,35.7324201,-81.6675767
1523,South Sterling Street,28655,35.7321037,-81.6680841
1521,South Sterling Street,28655,35.7322412,-81.6683762
112,Ross Street,28655,35.7214991,-81.6964282
1200,Burkemont Avenue,28655,35.7181154,-81.6950942
1234,Burkemont Avenue,28655,35.7165007,-81.6964513
1236,Burkemont Avenue,28655,35.7161476,-81.6968990
1224,Burkemont Avenue,28655,35.7181694,-81.6970829
1215,Burkemont Avenue,28655,35.7169955,-81.6947546
125,Bush Drive,28655,35.7240299,-81.6533970
2201,South Sterling Street,28655,35.7265026,-81.6550443
215,Woodlawn Drive,28655,35.7379102,-81.6621701
209,Woodlawn Drive,28655,35.7382941,-81.6626861
207,Woodlawn Drive,28655,35.7385678,-81.6630390
205,Woodlawn Drive,28655,35.7387687,-81.6632868
203,Woodlawn Drive,28655,35.7390329,-81.6635888
201,Woodlawn Drive,28655,35.7392589,-81.6639038
105,Woodlawn Drive,28655,35.7395169,-81.6642350
103,Woodlawn Drive,28655,35.7397828,-81.6645615
101,Woodlawn Drive,28655,35.7400092,-81.6648283
406,Willowbrook Drive,28655,35.7362679,-81.6634386
407,Willowbrook Drive,28655,35.7368015,-81.6636505
103,Pinebark Court,28655,35.7371389,-81.6640009
105,Pinebark Court,28655,35.7373651,-81.6642113
107,Pinebark Court,28655,35.7376518,-81.6645215
109,Pinebark Court,28655,35.7378705,-81.6647323
111,Pinebark Court,28655,35.7382017,-81.6648433
110,Pinebark Court,28655,35.7381731,-81.6641369
108,Pinebark Court,28655,35.7379176,-81.6640181
106,Pinebark Court,28655,35.7376927,-81.6637983
104,Pinebark Court,28655,35.7374887,-81.6635560
501,Willowbrook Drive,28655,35.7369172,-81.6630062
505,Willowbrook Drive,28655,35.7370475,-81.6623914
507,Willowbrook Drive,28655,35.7372337,-81.6620692
212,Woodlawn Drive,28655,35.7375377,-81.6625525
210,Woodlawn Drive,28655,35.7377974,-81.6628534
208,Woodlawn Drive,28655,35.7380432,-81.6631656
206,Woodlawn Drive,28655,35.7382629,-81.6634374
204,Woodlawn Drive,28655,35.7384670,-81.6637210
202,Woodlawn Drive,28655,35.7386465,-81.6639718
102,Woodlawn Drive,28655,35.7393083,-81.6648108
100,Woodlawn Drive,28655,35.7395546,-81.6652431
444,Bethel Road,28655,35.7394655,-81.6657263
442,Bethel Road,28655,35.7391816,-81.6660955
440,Bethel Road,28655,35.7389641,-81.6664372
314,Bethel Street,28655,35.7388849,-81.6669006
312,Bethel Street,28655,35.7387763,-81.6672401
207,Willowbrook Drive,28655,35.7360917,-81.6675833
101,Woodward Avenue,28655,35.7381407,-81.6677670
103,Woodward Avenue,28655,35.7378905,-81.6676623
105,Woodward Avenue,28655,35.7376155,-81.6675537
107,Woodward Avenue,28655,35.7373675,-81.6674233
307,Stacy Street,28655,35.7376802,-81.6664295
201,Woodward Avenue,28655,35.7370122,-81.6672681
203,Woodward Avenue,28655,35.7367666,-81.6671492
301,Willowbrook Drive,28655,35.7362572,-81.6668597
305,Willowbrook Drive,28655,35.7363511,-81.6661047
307,Willowbrook Drive,28655,35.7364311,-81.6658003
309,Willowbrook Drive,28655,35.7364532,-81.6653812
122,Oakwood Street,28655,35.7367908,-81.6654373
120,Oakwood Street,28655,35.7371171,-81.6656052
118,Oakwood Street,28655,35.7374335,-81.6657364
116,Oakwood Street,28655,35.7377659,-81.6659088
114,Oakwood Street,28655,35.7381341,-81.6660854
112,Oakwood Street,28655,35.7385130,-81.6662442
110,Oakwood Street,28655,35.7386816,-81.6659940
108,Oakwood Street,28655,35.7388166,-81.6656648
104,Oakwood Street,28655,35.7389620,-81.6653784
102,Oakwood Street,28655,35.7391031,-81.6650797
105,Oakwood Street,28655,35.7387284,-81.6647715
107,Oakwood Street,28655,35.7385316,-81.6651250
111,Oakwood Street,28655,35.7379888,-81.6654267
113,Oakwood Street,28655,35.7377309,-81.6652985
115,Oakwood Street,28655,35.7374809,-81.6651871
117,Oakwood Street,28655,35.7372127,-81.6650519
401,Willowbrook Drive,28655,35.7365674,-81.6647333
403,Willowbrook Drive,28655,35.7366711,-81.6643533
405,Willowbrook Drive,28655,35.7367086,-81.6639967
300,Willowbrook Drive,28655,35.7357732,-81.6666307
302,Willowbrook Drive,28655,35.7358470,-81.6662972
304,Willowbrook Drive,28655,35.7358964,-81.6659694
306,Willowbrook Drive,28655,35.7359786,-81.6656373
308,Willowbrook Drive,28655,35.7359738,-81.6652546
310,Willowbrook Drive,28655,35.7360700,-81.6649259
400,Willowbrook Drive,28655,35.7361157,-81.6645233
402,Willowbrook Drive,28655,35.7362087,-81.6641641
404,Willowbrook Drive,28655,35.7362285,-81.6638354
110,Juniper Street,28655,35.7289831,-81.6583988
330,Juniper Street,28655,35.7334336,-81.6590343
201,East Parker Road,28655,35.7285694,-81.6612511
203,East Parker Road,28655,35.7313980,-81.6615421
102,Hoyle Street,28655,35.7289131,-81.6617765
108,Hoyle Street,28655,35.7296644,-81.6617988
110,Hoyle Street,28655,35.7299132,-81.6620499
112,Hoyle Street,28655,35.7301610,-81.6621137
116,Hoyle Street,28655,35.7309962,-81.6622291
117,Hoyle Street,28655,35.7308548,-81.6628203
115,Hoyle Street,28655,35.7306330,-81.6627247
113,Hoyle Street,28655,35.7303714,-81.6626823
111,Hoyle Street,28655,35.7301248,-81.6625968
109,Hoyle Street,28655,35.7298789,-81.6625160
107,Hoyle Street,28655,35.7294427,-81.6623803
105,Hoyle Street,28655,35.7291543,-81.6622491
103,Hoyle Street,28655,35.7288809,-81.6621959
115,East Parker Road,28655,35.7285825,-81.6620390
450,South College Street,28655,35.7400103,-81.6859455
106,Bethel Street,28655,35.7354659,-81.6737494
104,Bethel Street,28655,35.7352919,-81.6739640
835,Eastview Street,28655,35.7348656,-81.6739288
736,South Sterling Street,28655,35.7392038,-81.6802637
113,Industrial Boulevard,28655,35.7286030,-81.7513812
645,1st Street,28655,35.7515598,-81.7002270
1273,Burkemont Avenue,28655,35.7136934,-81.6972791
141,Stonebridge Drive,28655,35.7464773,-81.6580864
151,Stonebridge Drive,28655,35.7465888,-81.6577946
149,Stonebridge Drive,28655,35.7457753,-81.6574081
151,Stonebridge Drive,28655,35.7460544,-81.6572583
143,Stonebridge Drive,28655,35.7463416,-81.6577276
147,Stonebridge Drive,28655,35.7457987,-81.6580108
145,Stonebridge Drive,28655,35.7460692,-81.6578662
139,Stonebridge Drive,28655,35.7462274,-81.6582911
137,Stonebridge Drive,28655,35.7459835,-81.6585029
1308,Carbon City Road,28655,35.7274197,-81.7630445
1112,Carbon City Road,28655,35.7317989,-81.7471463
710,Carbon City Road,28655,35.7331731,-81.7378592
526,West Fleming Drive,28655,35.7338198,-81.6890571
528,West Fleming Drive,28655,35.7329729,-81.6900181
164,Patrick Murphy Drive,28655,35.7253216,-81.6769186
166,Patrick Murphy Drive,28655,35.7248066,-81.6772576
168,Patrick Murphy Drive,28655,35.7250407,-81.6780012
170,Patrick Murphy Drive,28655,35.7256778,-81.6778144
172,Patrick Murphy Drive,28655,35.7257465,-81.6785970
174,Patrick Murphy Drive,28655,35.7256901,-81.6797569
901,Burkemont Avenue,28655,35.7302493,-81.6860689
1001,Burkemont Avenue,28655,35.7222144,-81.6879149
111,Bush Drive,28655,35.7239025,-81.6558359
114,Silver Creek Road,28655,35.7388634,-81.7025057
1006,Burkemont Avenue,28655,35.7219785,-81.6944869
709,Jamestown Road,28655,35.7253948,-81.7383265
705,Jamestown Road,28655,35.7271721,-81.7372610
1005,Jamestown Road,28655,35.7203899,-81.7491955
115,Bush Drive,28655,35.7241007,-81.6551588
2211,South Sterling Street,28655,35.7236500,-81.6567305
2159,South Sterling Street,28655,35.7245324,-81.6587929
2155,South Sterling Street,28655,35.7247835,-81.6592044
2149,South Sterling Street,28655,35.7249871,-81.6595673
2147,South Sterling Street,28655,35.7258872,-81.6591748
2119,South Sterling Street,28655,35.7251891,-81.6600380
2115,South Sterling Street,28655,35.7256946,-81.6605257
2113,South Sterling Street,28655,35.7258956,-81.6610738
2111,South Sterling Street,28655,35.7262981,-81.6614501
2102,South Sterling Street,28655,35.7259132,-81.6627963
127,West Parker Road,28655,35.7249319,-81.6625572
137,West Parker Road,28655,35.7237998,-81.6617168
135,West Parker Road,28655,35.7242258,-81.6622680
2128,South Sterling Street,28655,35.7247671,-81.6610718
2204,South Sterling Street,28655,35.7234346,-81.6585534
2300,South Sterling Street,28655,35.7216167,-81.6556523
109,Foothills Drive,28655,35.7267856,-81.6515475
103,Sageview Lane,28655,35.7206359,-81.6645708
196,West Parker Road,28655,35.7203461,-81.6642473
441,Old N C 18,28655,35.7204154,-81.6654068
149,West Parker Road,28655,35.7233517,-81.6615920
145,West Parker Road,28655,35.7235124,-81.6606405
435,Old NC 18,28655,35.7208252,-81.6675320
105,Bluebird Lane,28655,35.7234451,-81.6702736
101,Bluebird Lane,28655,35.7229519,-81.6715944
160,West Parker Road,28655,35.7225228,-81.6626599
158,West Parker Road,28655,35.7227206,-81.6624308
152,West Parker Road,28655,35.7230454,-81.6623698
144,West Parker Road,28655,35.7234168,-81.6627212
170,West Parker Road,28655,35.7218363,-81.6628719
168,West Parker Road,28655,35.7221287,-81.6627577
110,Bluebird Lane,28655,35.7226670,-81.6679155
413,Old NC 18,28655,35.7220197,-81.6707516
415,Old NC 18,28655,35.7218379,-81.6705140
409,Old NC 18,28655,35.7222630,-81.6710238
417,Old NC 18,28655,35.7215797,-81.6703993
411,Old NC 18,28655,35.7224829,-81.6712093
425,Old NC 18,28655,35.7211022,-81.6692450
427,Old NC 18,28655,35.7211390,-81.6689040
119,Dale Circle,28655,35.7247376,-81.6718968
124,West Parker Road,28655,35.7247165,-81.6631245
405,Old NC 18,28655,35.7240342,-81.6715480
115,Willow Run Drive,28655,35.7245254,-81.6694366
403,Old NC 18,28655,35.7244865,-81.6726945
123,Dale Circle,28655,35.7248423,-81.6722716
114,Dale Circle,28655,35.7253653,-81.6712523
309,Old NC 18,28655,35.7252268,-81.6725139
126,Dale Circle,28655,35.7252278,-81.6719409
113,Dale Circle,28655,35.7250048,-81.6705054
107,Dale Circle,28655,35.7260551,-81.6696831
202,South Matthews Street,28655,35.7273392,-81.6710088
103,Dale Circle,28655,35.7262025,-81.6702846
203,Old NC 18,28655,35.7277451,-81.6715600
205,Old NC 18,28655,35.7275114,-81.6716130
200,South Matthews Street,28655,35.7275833,-81.6709782
300,Shady Rest Road,28655,35.7276681,-81.6689019
203,South Matthews Street,28655,35.7269912,-81.6706777
106,Logan Street,28655,35.7271864,-81.6700545
104,Logan Street,28655,35.7273510,-81.6704161
108,Logan Street,28655,35.7272761,-81.6695932
201,South Matthews Street,28655,35.7277646,-81.6704167
204,Shady Rest Road,28655,35.7278413,-81.6696065
200,Shady Rest Road,28655,35.7280125,-81.6702100
500,Shady Rest Road,28655,35.7266920,-81.6669557
402,Shady Rest Road,28655,35.7271305,-81.6676523
404,Shady Rest Road,28655,35.7269694,-81.6674851
406,Shady Rest Road,28655,35.7268472,-81.6671799
2012,South Sterling Street,28655,35.7272197,-81.6647602
2088,South Sterling Street,28655,35.7265276,-81.6636951
2006,South Sterling Street,28655,35.7270308,-81.6654027
505,Shady Rest Road,28655,35.7265873,-81.6662083
104,Rockett Street,28655,35.7271737,-81.6661275
100,Rockett Street,28655,35.7268846,-81.6666338
102,Rockett Street,28655,35.7270094,-81.6664284
1908,South Sterling Street,28655,35.7277821,-81.6660032
101,Rockett Street,28655,35.7270884,-81.6669974
105,Rockett Street,28655,35.7274422,-81.6665149
102,Hudson Street,28655,35.7283383,-81.6690597
106,Hudson Street,28655,35.7288674,-81.6688369
109,North Matthews Street,28655,35.7296776,-81.6702136
112,Hudson Street,28655,35.7288955,-81.6681602
104,Hudson Street,28655,35.7285334,-81.6689885
106,North Matthews Street,28655,35.7291471,-81.6698262
103,Moose Street,28655,35.7279653,-81.6674838
108,North Matthews Street,28655,35.7295432,-81.6697656
101,Moose Street,28655,35.7278265,-81.6676853
105,Moose Street,28655,35.7280899,-81.6672425
303,Shady Rest Road,28655,35.7279869,-81.6684613
201,Shady Rest Road,28655,35.7285597,-81.6700144
1400,South Sterling Street,28655,35.7305628,-81.6706224
101,Shady Rest Road,28655,35.7283107,-81.6712605
101,Old NC 18,28655,35.7300735,-81.6707694
115,Old NC 18,28655,35.7288629,-81.6712649
103,Shady Rest Road,28655,35.7283229,-81.6706355
117,Old NC 18,28655,35.7285716,-81.6712715
103,North Matthews Street,28655,35.7288375,-81.6704828
107,North Matthews Street,28655,35.7293727,-81.6703567
179,West Parker Road,28655,35.7208868,-81.6626806
201,Enola Road,28655,35.7216160,-81.6732303
221,Enola Road,28655,35.7205088,-81.6726752
416,Old N C 18,28655,35.7216323,-81.6711857
102,Brick Street,28655,35.7215585,-81.6727744
418,Old N C 18,28655,35.7212385,-81.6707351
416,Old N C 18,28655,35.7214234,-81.6709899
420,Old N C 18,28655,35.7210282,-81.6704414
103,Brick Street,28655,35.7220604,-81.6727188
408,Old N C 18,28655,35.7224169,-81.6718970
408,Old N C 18,28655,35.7230646,-81.6725110
103,Enola Road,28655,35.7238500,-81.6729475
119,Enola Road,28655,35.7225994,-81.6729824
410,Old N C 18,28655,35.7221448,-81.6716862
408,Old N C 18,28655,35.7227471,-81.6723650
109,Enola Road,28655,35.7231074,-81.6729804
A130,Morganton Heights Boulevard,28655,35.7267417,-81.7022372
A114,Morganton Heights Boulevard,28655,35.7269461,-81.7022622
A110,Morganton Heights Boulevard,28655,35.7270715,-81.7022707
A136,Morganton Heights Boulevard,28655,35.7265879,-81.7022404
A142,Morganton Heights Boulevard,28655,35.7265036,-81.7022352
A126,Morganton Heights Boulevard,28655,35.7268127,-81.7022544
A102,Morganton Heights Boulevard,28655,35.7271251,-81.7022740
A132,Morganton Heights Boulevard,28655,35.7266680,-81.7022453
G120,Morganton Heights Boulevard,28655,35.7272011,-81.7050702
D114,Morganton Heights Boulevard,28655,35.7250967,-81.7014683
C102,Morganton Heights Boulevard,28655,35.7268645,-81.6996852
C138,Morganton Heights Boulevard,28655,35.7260584,-81.6997051
C126,Morganton Heights Boulevard,28655,35.7264037,-81.6998742
B114,Morganton Heights Boulevard,28655,35.7269740,-81.7015658
B102,Morganton Heights Boulevard,28655,35.7271409,-81.7015732
B144,Morganton Heights Boulevard,28655,35.7264766,-81.7015045
B140,Morganton Heights Boulevard,28655,35.7265413,-81.7015073
B134,Morganton Heights Boulevard,28655,35.7266251,-81.7015110
695,West Fleming Drive,28655,35.7299377,-81.7046750
685,West Fleming Drive,28655,35.7298179,-81.7041853
304,Hopewell Road,28655,35.7250776,-81.6962453
300,Hopewell Road,28655,35.7248851,-81.6956637
302,Hopewell Road,28655,35.7249809,-81.6959450
116,Wilson Drive,28655,35.7248783,-81.6949202
207,Henredon Road,28655,35.7273456,-81.6967834
312,Hopewell Road,28655,35.7255720,-81.6969946
212,Barbour Drive,28655,35.7261097,-81.6968257
210,Barbour Drive,28655,35.7262772,-81.6969895
310,Henredon Road,28655,35.7284443,-81.6980358
203,Barbour Drive,28655,35.7264995,-81.6961354
200,Barbour Drive,28655,35.7270668,-81.6976420
205,Barbour Drive,28655,35.7269127,-81.6966094
306,Hopewell Road,28655,35.7252189,-81.6965100
306,Henredon Road,28655,35.7283600,-81.6974888
307,Henredon Road,28655,35.7279611,-81.6979417
301,Barbour Drive,28655,35.7276562,-81.6970710
201,Henredon Road,28655,35.7258208,-81.6957053
106,Wilson Drive,28655,35.7256630,-81.6948415
0,Wilson Drive,28655,35.7259410,-81.6947499
300,Henredon Road,28655,35.7279140,-81.6965939
110,Wilson Drive,28655,35.7253499,-81.6948251
304,Henredon Road,28655,35.7281742,-81.6970282
312,Henredon Road,28655,35.7285165,-81.6984325
107,Magnolia Drive,28655,35.7256374,-81.6936397
840,Burkemont Avenue,28655,35.7253172,-81.6929328
802,Burkemont Avenue,28655,35.7278296,-81.6936264
105,Wilson Drive,28655,35.7256874,-81.6943263
103,Wilson Drive,28655,35.7259927,-81.6942908
111,Henredon Road,28655,35.7270708,-81.6940260
109,Henredon Road,28655,35.7273043,-81.6939914
1100,Ross Street,28655,35.7203385,-81.6948194
1022,Ross Street,28655,35.7208163,-81.6943701
111,Ross Street,28655,35.7212014,-81.6967048
110,Ross Street,28655,35.7214489,-81.6962220
108,Ross Street,28655,35.7215512,-81.6959071
108,Ross Street,28655,35.7217545,-81.6958006
100,Ross Street,28655,35.7209295,-81.6948842
106,Ross Street,28655,35.7215243,-81.6956070
529,Hopewell Road,28655,35.7226581,-81.7022989
109,Conley Street,28655,35.7230027,-81.6955729
125,Starmount Circle,28655,35.7235429,-81.6995051
501,Hopewell Road,28655,35.7249540,-81.6996637
105,Starmount Circle,28655,35.7238635,-81.6974954
113,Conley Street,28655,35.7231543,-81.6959982
107,Conley Street,28655,35.7229143,-81.6952403
113,Starmount Circle,28655,35.7229456,-81.6980032
105,Conley Street,28655,35.7228370,-81.6949014
511,Hopewell Road,28655,35.7239614,-81.7006613
103,Conley Street,28655,35.7226952,-81.6942650
129,Starmount Circle,28655,35.7241506,-81.6993540
509,Hopewell Road,28655,35.7242117,-81.7004719
131,Starmount Circle,28655,35.7243731,-81.6993019
107,Starmount Circle,28655,35.7235919,-81.6975672
123,Starmount Circle,28655,35.7236720,-81.7000131
109,Starmount Circle,28655,35.7233208,-81.6976634
513,Hopewell Road,28655,35.7239119,-81.7009822
101,Starmount Circle,28655,35.7250787,-81.6975418
101,Starmount Circle,28655,35.7248015,-81.6975405
111,Starmount Circle,28655,35.7228806,-81.6977342
135,Starmount Circle,28655,35.7250137,-81.6992420
521,Hopewell Road,28655,35.7235776,-81.7015477
115,Starmount Circle,28655,35.7230041,-81.6982871
119,Starmount Circle,28655,35.7231283,-81.6990373
103,Starmount Circle,28655,35.7241507,-81.6974411
103,Conley Street,28655,35.7227560,-81.6945756
117,Starmount Circle,28655,35.7230526,-81.6985965
525,Hopewell Road,28655,35.7229937,-81.7016167
1000,Burkemont Avenue,28655,35.7224558,-81.6938801
132,Starmount Circle,28655,35.7247160,-81.6986854
102,Starmount Circle,28655,35.7247234,-81.6980660
130,Starmount Circle,28655,35.7243869,-81.6987106
126,Starmount Circle,28655,35.7238425,-81.6987864
104,Starmount Circle,28655,35.7243725,-81.6980616
128,Starmount Circle,28655,35.7241461,-81.6987429
106,Starmount Circle,28655,35.7240591,-81.6980788
100,Starmount Circle,28655,35.7250268,-81.6980832
108,Starmount Circle,28655,35.7237736,-81.6981622
110,Starmount Circle,28655,35.7234349,-81.6982424
124,Starmount Circle,28655,35.7235351,-81.6988576
208,Conley Street,28655,35.7232644,-81.6950291
200,Conley Street,28655,35.7234528,-81.6959105
202,Conley Street,28655,35.7236489,-81.6957878
912,Burkemont Avenue,28655,35.7232384,-81.6938600
104,Conley Street,28655,35.7232137,-81.6943026
917,Conley Street,28655,35.7229865,-81.6938300
529,Enola Road,28655,35.7078919,-81.6700958
106,Silver Creek Airport Rd,28655,35.7291908,-81.7353348
1000,South Sterling Street,28655,35.7307862,-81.6758377
114,East Fleming Drive,28655,35.7409970,-81.6788229
110,East Fleming Drive,28655,35.7399181,-81.6785035
108,East Fleming Drive,28655,35.7398274,-81.6785404
106,East Fleming Drive,28655,35.7397699,-81.6785185
104,East Fleming Drive,28655,35.7396536,-81.6783653
112,East Fleming Drive,28655,35.7403630,-81.6785813
100,East Fleming Drive,28655,35.7395018,-81.6783416
1500,East Union Street,28655,35.7519148,-81.6609105
584,East Fleming Drive,28655,35.7518702,-81.6547224
550,Lenoir Road,28655,35.7725876,-81.6875511
701,Lenior Rd,28655,35.7805535,-81.6918627
