House number,Street name,Postal code,Latitude,Longitude
1224,Neal Street,27803,35.9333359,-77.8214197
955,North Wesleyan Boulevard,27804,35.9685227,-77.8092864
506,Sutters Creek Road,27804,35.9689039,-77.8087177
3525,Sunset Avenue,27804,35.9632223,-77.8481052
1522,Jeffreys Drive,27804,35.9735922,-77.8135632
1511,Benvenue Road,27804,35.9781130,-77.8122720
1321,Cobb Corners Drive,27804,35.9774091,-77.8096092
3646,Sunset Avenue,27804,35.9641633,-77.8514431
3646,Sunset Avenue,27804,35.9641973,-77.8519568
3679,Sunset Avenue,27804,35.9627379,-77.8522178
1462,Jeffreys Road,27804,35.9747644,-77.8124119
1100,North Wesleyan Boulevard,27804,35.9750498,-77.8044926
1135,Falls Road,27804,35.9585285,-77.8021559
1147,Falls Road,27804,35.9592653,-77.8016714
1147,Falls Road,27804,35.9592544,-77.8018457
301,South Church Street,27804,35.9396410,-77.7969524
3041,North Church Street,27804,35.9829410,-77.7818917
928,North Winstead Avenue,27804,35.9798931,-77.8441720
3601,Sunset Avenue,27804,35.9633505,-77.8497853
3635,Sunset Avenue,27804,35.9626047,-77.8505900
538,Sutters Creek Boulevard,27804,35.9684054,-77.8094614
546,Sutters Creek Boulevard,27804,35.9683155,-77.8095955
2714,Sunset Avenue,27804,35.9627421,-77.8318920
2804,Sunset Avenue,27804,35.9627731,-77.8324959
2624,Sunset Avenue,27804,35.9624679,-77.8292741
2632,Sunset Avenue,27804,35.9625394,-77.8300815
2605,Sunset Avenue,27804,35.9613520,-77.8287139
1105,North Raleigh Street,27801,35.9436149,-77.7772875
1330,North Raleigh Street,27801,35.9455236,-77.7745262
1120,Fairview Road,27801,35.9435649,-77.7759625
1129,North Fairview Road,27801,35.9442218,-77.7744484
1200,East Raleigh Boulevard,27801,35.9449547,-77.7762347
1115,North Fairview Road,27801,35.9437094,-77.7745302
1459,East Raleigh Boulevard,27801,35.9453716,-77.7728874
1211A,North Raleigh Street,27801,35.9442598,-77.7756473
1211,North Raleigh Street,27801,35.9442463,-77.7753101
1211A,North Raleigh Street,27801,35.9442305,-77.7754261
1123,North Raleigh Street,27801,35.9434949,-77.7767450
1122,North Raleigh Street,27801,35.9445340,-77.7767609
1122,North Raleigh Street,27801,35.9445650,-77.7769097
1212,Bethlehem Road,27803,35.9359059,-77.8319432
1212,Bethlehem Road,27803,35.9360433,-77.8318540
1493,North Wesleyan Boulevard,27804,35.9784355,-77.7901200
1493,North Wesleyan Boulevard,27804,35.9782467,-77.7899256
3016,Sunset Avenue,27804,35.9635164,-77.8360721
3590,Sunset Avenue,27804,35.9642740,-77.8486866
3550,Sunset Avenue,27804,35.9638392,-77.8469450
737,English Road,27804,35.9779100,-77.8442411
3550,Sunset Avenue,27804,35.9638447,-77.8471449
737,English Road,27804,35.9780982,-77.8441090
550,North Wesleyan Boulevard,27804,35.9609691,-77.8217548
4891,Sunset Avenue,27804,35.9710155,-77.8957815
144,Woodridge Court,27804,35.9665857,-77.8509485
1051,Noell Lane,27804,35.9751030,-77.8188650
3460,Sunset Avenue,27804,35.9638501,-77.8463522
940,West Raleigh Boulevard,27802,35.9319339,-77.8132298
418,West Thomas Street,27804,35.9461131,-77.7994679
749,South Wesleyan Boulevard,27803,35.9365785,-77.8291156
200,Enterprise Drive,27804,35.9758907,-77.8457490
1237,Jeffrey's Road,27804,35.9771662,-77.8059469
707,Falls Road,27804-2725,35.9529187,-77.7977728
1150,Falls Road,27804,35.9587153,-77.8036428
1143,Falls Road,27804,35.9591295,-77.8022802
1107,Falls Road,27804,35.9576832,-77.8015415
300,Tarrytown Center,27804,35.9613101,-77.8243533
700,North Wesleyan Boulevard,27804,35.9651837,-77.8213788
101,Coastline Street,27804,35.9379650,-77.7975748
1205,South Franklin Street,27803,35.9294181,-77.8035984
828,Williford Street,27802,35.9285226,-77.8174099
1113,South Wesleyan Boulevard,27803,35.9217802,-77.8303439
2108,Stone Rose Drive,27804,35.9601249,-77.8207482
2120,Stone Rose Drive,27804,35.9604698,-77.8204472
143,North Washington Street,27801,35.9428354,-77.7937632
215,Lexington Street,27801,35.9416578,-77.7905527
120,Arlington Street,27801,35.9402686,-77.7932359
225,Tarboro Street,27801,35.9411198,-77.7935211
213,Southeast Main Street,27801,35.9406454,-77.7954836
201,South Washington Street,27801,35.9404322,-77.7947541
219,Southeast Main Street,27801,35.9405671,-77.7955125
219,South Washington Street,27801,35.9402227,-77.7948402
231,Southeast Main Street,27801,35.9402686,-77.7956566
203,Southeast Main Street,27801,35.9407431,-77.7954542
223,South Washington Street,27801,35.9401329,-77.7948440
223,Southeast Main Street,27801,35.9404813,-77.7955761
235,South Washington Street,27801,35.9400190,-77.7949760
235,Southeast Main Street,27801,35.9402015,-77.7956794
247,South Washington Street,27801,35.9397553,-77.7950781
227,Southeast Main Street,27801,35.9403668,-77.7956143
424,Branch Street,27801,35.9365416,-77.7927860
277,E Raleigh Blvd,27801,35.9370502,-77.7931298
257,E Raleigh Blvd,27801,35.9367518,-77.7936186
450,Edgecombe Street,27801,35.9362370,-77.7927051
418,Branch Street,27801,35.9367244,-77.7928098
233,E Raleigh Blvd,27801,35.9364689,-77.7942983
406,Edgecombe Street,27801,35.9361667,-77.7944311
442,Edgecombe Street,27801,35.9362342,-77.7934030
289,E Raleigh Blvd,27801,35.9372354,-77.7928007
243,E Raleigh Blvd,27801,35.9365739,-77.7939573
426,Edgecombe Street,27801,35.9361925,-77.7938233
414,Branch Street,27801,35.9368889,-77.7928108
227,E Raleigh Blvd,27801,35.9363989,-77.7944298
283,E Raleigh Blvd,27801,35.9371576,-77.7929995
269,E Raleigh Blvd,27801,35.9369750,-77.7933186
1123,North Raleigh Street,27801,35.9436541,-77.7766975
224,South Glendale Drive,27801,35.9253819,-77.7693025
807,Cokey Road,27801,35.9305539,-77.7899953
100,Aqua Court,27801,35.9242388,-77.7875666
1650,Cokey Road,27801,35.9220023,-77.7792954
151,May Drive,27804,35.9538787,-77.8233068
1144,Independence Drive,27804,35.9710729,-77.8001336
949,N.Wesleyan Boulevard,27804,35.9693784,-77.8109391
307,Mosley Court,27804,35.9800592,-77.7868694
1921,N Wesleyan Blvd,27804,35.9866664,-77.7827922
1621,N Wesleyan Blvd,27804,35.9811915,-77.7860762
3030,North Church Street,27804,35.9840813,-77.7830512
731,Sutters Creek Boulevard,27804-8452,35.9722029,-77.8134132
950,North Wesleyan Boulevard,27804,35.9702927,-77.8115874
778,Word Plaza,27804,35.9687689,-77.8162120
1332,Jeffreys Road,27804,35.9768156,-77.8098483
1451,Benvenue Road,27804,35.9791710,-77.8079937
600,North Wesleyan Boulevard,27804,35.9623877,-77.8208463
670,North Wesleyan Boulevard,27804,35.9630790,-77.8203455
1830,Old Mill Road,27803,35.9323602,-77.8487935
991,South Winstead Avenue,27803,35.9511509,-77.8466065
2644,Sunset Avenue,27801,35.9628376,-77.8310455
2640,Sunset Avenue,27801,35.9626401,-77.8306551
3590,Sunset Avenue,27804,35.9641726,-77.8487511
651,North Winstead Avenue,27804,35.9735173,-77.8472784
230,Gateway Boulevard,27804,35.9723897,-77.8438570
210,Gateway Boulevard,27804,35.9731429,-77.8450160
200,Gateway Boulevard,27804,35.9734378,-77.8458598
250,Gateway Boulevard,27804,35.9719318,-77.8432953
530,North Winstead Avenue,27804,35.9721606,-77.8498479
2460,Curtis Ellis Drive,27804,35.9761292,-77.8547902
688,English Road,27804,35.9799055,-77.8457376
672,English Road,27804,35.9793332,-77.8473474
908,English Road,27804,35.9768344,-77.8409376
1200,Benvenue Road,27804,35.9754722,-77.8027673
1340,North Wesleyan Boulevard,27804,35.9768136,-77.7970004
1370,N Wesleyan Blvd,27804,35.9775116,-77.7963430
2054,Fenner Road,27804,36.0044710,-77.7871650
3752,North Wesleyan Boulevard,27809,36.0235094,-77.7695110
5089,Hathaway Street,27809,36.0503087,-77.7513949
4909,Hathaway Street,27809,36.0485351,-77.7528813
5049,Hathaway Street,27809,36.0497927,-77.7517933
5161,Hathaway Street,27809,36.0512868,-77.7506714
5048,Hathaway Street,27809,36.0500850,-77.7525635
5128,Hathaway Street,27809,36.0510450,-77.7515161
7797,NC Highway 48,27809,36.0640900,-77.8172258
7688,Nc 48,27809,36.0639184,-77.8200198
7048,NC Highway 4,27809,36.0623094,-77.8166844
7095,NC 4,27809,36.0605589,-77.8166573
7047,Nc Highway 4,27809,36.0611766,-77.8171712
7564,North Halifax Road,27809,36.0624538,-77.8207158
916,Branch Street,27801,35.9298394,-77.7925469
1151,Falls Road,27804,35.9596102,-77.8022965
1151,Falls Road,27804,35.9595697,-77.8029351
1147,Falls Road,27804,35.9593054,-77.8017649
1135,Falls Road,27804,35.9585751,-77.8020746
1141,Falls Road,27804,35.9588636,-77.8016351
7,East Elm Street,27804,35.9578721,-77.8009222
1118,Falls Road,27804,35.9577159,-77.8022232
2420,North Church Street,27804,35.9735713,-77.7855502
187,Wellspring Drive,27804,35.9803652,-77.8462735
231,Gateway Boulevard,27804,35.9716944,-77.8452367
590,North Wesleyan Boulevard,27804,35.9613907,-77.8215434
1834,East Raleigh Boulevard,27801,35.9463986,-77.7641488
255,Gateway Boulevard,27804,35.9710767,-77.8441069
285,NE Main Street,27801,35.9452253,-77.7932072
727,North Grace Street,27804-4842,35.9490549,-77.7961579
201,Belmont Club Way,27804,36.0298542,-77.7834615
