House number,Street name,Postal code,Latitude,Longitude
1708,Nash Street,27330,35.4676634,-79.1485742
1220,Broadway Road,27332,35.4617300,-79.1246060
901,Raleigh Street,27332,35.4503354,-79.1581156
3004,South Horner Boulevard,27332,35.4506867,-79.1382788
2950,South Horner Boulevard,27332,35.4512300,-79.1386449
2904,South Horner Boulevard,27332,35.4520792,-79.1395099
328,Midland Avenue,27330,35.4842971,-79.1698944
330,Midland Avenue,27330,35.4842836,-79.1698276
109,South 6th Street,27330,35.4830608,-79.1670743
111,South 6th Street,27330,35.4830348,-79.1670119
113,South 6th Street,27330,35.4830098,-79.1670430
115,South 6th Street,27330,35.4829758,-79.1670065
105,South 6th Street,27330,35.4831272,-79.1671108
107,South 6th Street,27330,35.4831236,-79.1670484
313-B,Charlotte Avenue,27330,35.4832529,-79.1707984
313-A,Charlotte Avenue,27330,35.4832984,-79.1708486
334,Temple Avenue,27330,35.4864045,-79.1716899
312,North 3rd Street,27330,35.4862583,-79.1725409
332,Temple Avenue,27330,35.4864573,-79.1717076
310,North 3rd Street,27330,35.4862897,-79.1726650
330,Temple Avenue,27330,35.4863029,-79.1718066
308,North 3rd Street,27330,35.4862781,-79.1727211
328,Temple Avenue,27330,35.4863730,-79.1718902
326,Temple Avenue,27330,35.4864218,-79.1718942
324,Temple Avenue,27330,35.4862562,-79.1719943
322,Temple Avenue,27330,35.4862446,-79.1720575
320,Temple Avenue,27330,35.4863650,-79.1722333
318,Temple Avenue,27330,35.4863230,-79.1722212
316,Temple Avenue,27330,35.4862386,-79.1722400
314,Temple Avenue,27330,35.4862267,-79.1722918
312,Temple Avenue,27330,35.4862878,-79.1723836
310,Temple Avenue,27330,35.4863446,-79.1723947
318,North 3rd Street,27330,35.4861432,-79.1726752
316,North 3rd Street,27330,35.4861491,-79.1726015
336,Temple Avenue,27330,35.4863155,-79.1717399
314,North 3rd Street,27330,35.4862001,-79.1725264
362,Temple Avenue,27330,35.4866466,-79.1704793
360,Temple Avenue,27330,35.4865949,-79.1704547
358,Temple Avenue,27330,35.4865006,-79.1704934
356,Temple Avenue,27330,35.4864921,-79.1705568
354,Temple Avenue,27330,35.4865581,-79.1706428
352,Temple Avenue,27330,35.4866090,-79.1706654
350,Temple Avenue,27330,35.4866173,-79.1708866
348,Temple Avenue,27330,35.4866123,-79.1709585
346,Temple Avenue,27330,35.4865624,-79.1710152
344,Temple Avenue,27330,35.4865139,-79.1710022
342,Temple Avenue,27330,35.4864852,-79.1708898
340,Temple Avenue,27330,35.4864996,-79.1708357
325,Midland Avenue,27330,35.4846880,-79.1702688
323,Midland Avenue,27330,35.4846605,-79.1703744
322,North Avenue,27330,35.4854950,-79.1707928
320,North Avenue,27330,35.4855496,-79.1708096
318,North Avenue,27330,35.4855069,-79.1709934
316,North Avenue,27330,35.4854649,-79.1709786
111,South 8th Street,27330,35.4834365,-79.1645373
109,South 8th Street,27330,35.4835069,-79.1645613
519,McIver Street,27330,35.4832567,-79.1642986
521,McIver Street,27330,35.4832686,-79.1641885
101,North 9th Street,27330,35.4847411,-79.1638841
533,Charlotte Avenue,27330,35.4846361,-79.1639267
531,Charlotte Avenue,27330,35.4846098,-79.1640068
529,Charlotte Avenue,27330,35.4845922,-79.1640816
109,North 9th Street,27330,35.4849563,-79.1639567
107,North 9th Street,27330,35.4849137,-79.1639482
105,North 9th Street,27330,35.4848679,-79.1639325
103,North 9th Street,27330,35.4848067,-79.1639216
622-B,Oakwood Avenue,27330,35.4830005,-79.1607916
622-C,Oakwood Avenue,27330,35.4829732,-79.1607150
622-D,Oakwood Avenue,27330,35.4829342,-79.1606384
622-A,Oakwood Avenue,27330,35.4830435,-79.1608731
230,Talley Avenue,27330,35.4879541,-79.1741902
228,Talley Avenue,27330,35.4879172,-79.1744637
226,Talley Avenue,27330,35.4878976,-79.1745617
224,Talley Avenue,27330,35.4878706,-79.1747816
222,Talley Avenue,27330,35.4878583,-79.1748589
220,Talley Avenue,27330,35.4878409,-79.1751056
218,Talley Avenue,27330,35.4878238,-79.1751888
216,Talley Avenue,27330,35.4878016,-79.1754355
214,Talley Avenue,27330,35.4877917,-79.1755187
212,Talley Avenue,27330,35.4877819,-79.1755990
210,Talley Avenue,27330,35.4877696,-79.1756762
206,Talley Avenue,27330,35.4877376,-79.1759407
204,Talley Avenue,27330,35.4877351,-79.1759972
202,Talley Avenue,27330,35.4877326,-79.1760507
200,Talley Avenue,27330,35.4877301,-79.1760953
233,Talley Avenue,27330,35.4883964,-79.1743131
231,Talley Avenue,27330,35.4883866,-79.1743814
229,Talley Avenue,27330,35.4883792,-79.1744409
227,Talley Avenue,27330,35.4883694,-79.1745003
225,Talley Avenue,27330,35.4883448,-79.1747321
223,Talley Avenue,27330,35.4883398,-79.1748243
217,Talley Avenue,27330,35.4882513,-79.1754543
215,Talley Avenue,27330,35.4882366,-79.1755345
211,Talley Avenue,27330,35.4882218,-79.1757307
209,Talley Avenue,27330,35.4882192,-79.1758110
207,Talley Avenue,27330,35.4881947,-79.1759715
205,Talley Avenue,27330,35.4881800,-79.1760457
203,Talley Avenue,27330,35.4881701,-79.1761171
201,Talley Avenue,27330,35.4881579,-79.1761765
921,Woodland Avenue,27330,35.4693606,-79.1704856
2206,Jefferson Davis Highway,27330,35.4410048,-79.2171272
722,South Horner Boulevard,27330,35.4711842,-79.1737703
1602,South Horner Boulevard,27330,35.4667650,-79.1611290
1813,Horner Boulevard,27330,35.4662298,-79.1582470
2629,South Horner Boulevard,27332,35.4576651,-79.1418619
1518,Westover Drive,27330,35.4475215,-79.2155261
2512,South Horner Boulevard,27330,35.4589377,-79.1451973
2551,Hawkins Avenue,27330,35.5196095,-79.1828249
2831,South Horner Boulevard,27332-8037,35.4546991,-79.1383430
2907,South Horner Boulevard,27332,35.4536047,-79.1370710
2905,Horner Boulevard,27332,35.4536799,-79.1371808
2412,South Horner Boulevard,27332,35.4597809,-79.1474469
3108,South Horner Boulevard,27332,35.4499704,-79.1344081
2600,South Horner Boulevard,27330,35.4584227,-79.1445536
2501,South Horner Boulevard,27330,35.4596188,-79.1449409
3052,South Horner Boulevard,27332,35.4492365,-79.1368293
1949,South Horner Boulevard,27330,35.4661518,-79.1523807
1945,South Horner Boulevard,27330,35.4661159,-79.1525817
4690,NC 87 South,27332,35.4212912,-79.1200965
4530,Highway 87 South,27330,35.4231660,-79.1207733
2515,South Horner Boulevard,27330,35.4588462,-79.1435643
2611,Lee Avenue,27330,35.4554144,-79.1506902
1732,Westover Drive,27330,35.4434368,-79.2159505
413,Wicker Street,27330,35.4769116,-79.1797690
413,Wicker Street,27330,35.4772637,-79.1812910
109,Carbonton Road,27330,35.4760583,-79.1880627
109,Carbonton Road,27330,35.4759486,-79.1882569
103,Carbonton Road,27330,35.4759605,-79.1877962
1027,Spring Lane,27330,35.4840149,-79.2001335
1033,Spring Lane,27330,35.4841160,-79.2005191
203,Hawkins Avenue,27330,35.4833500,-79.1785939
405,East Main Street,27332,35.4591417,-79.1481292
868,Spring Lane,27330,35.4887967,-79.1957973
818,Spring Lane,27330,35.4888567,-79.1943755
101,South Vance Street,27330,35.4784711,-79.1826815
109,South Vance Street,27330,35.4780206,-79.1823167
310,McNeill Road,27330,35.5109399,-79.2066977
200,Independent Drive,27330,35.5053184,-79.2066618
300,Independent Drive,27330,35.5060280,-79.2071419
100,Independent Drive,27330,35.5048468,-79.2063587
1450,North Horner Boulevard,27330,35.5027518,-79.2039930
2234,Jefferson Davis Highway,27330,35.4392099,-79.2191130
1513,Broadway Road,27330,35.4598659,-79.1090929
1115,Broadway Road,27332,35.4639006,-79.1298907
1112,Broadway Road,27332,35.4631317,-79.1301428
1100,Broadway Road,27332,35.4632421,-79.1319831
906,Broadway Road,27332,35.4618336,-79.1369640
715,East Main Street,27332,35.4614394,-79.1414083
1259,Fire Tower Rd,27332,35.4579417,-79.1493557
116,East Main Street,27332,35.4575757,-79.1502222
104,East Main Street,27332,35.4574205,-79.1504100
125,West Main Street,27332,35.4570928,-79.1512871
145,West Main Street,27332,35.4566581,-79.1518906
2502,Lee Avenue,27332,35.4561140,-79.1531217
2512,Lee Avenue,27332,35.4558650,-79.1530439
2520,Lee Avenue,27332,35.4556377,-79.1528749
2534,Lee Avenue,27332,35.4554542,-79.1526630
2538,Lee Avenue,27332,35.4552904,-79.1524780
713,West Main Street,27332,35.4524824,-79.1604924
2224,Jefferson Davis Highway,27330,35.4393937,-79.2190662
703-B,South Horner Boulevard,27330,35.4722834,-79.1743149
1952,South Horner Boulevard,27330,35.4638862,-79.1522320
1946,South Horner Boulevard,27330,35.4637503,-79.1528586
1946,South Horner Boulevard,27330,35.4638707,-79.1526045
2720,South Horner Boulevard,27332,35.4557590,-79.1411382
2823,South Horner Boulevard,27332,35.4551578,-79.1387403
2821,South Horner Boulevard,27332,35.4552223,-79.1388393
2813,South Horner Boulevard,27332,35.4554354,-79.1389610
500,Westover Drive,27330,35.4626613,-79.2064796
1237,North Horner Boulevard,27330,35.4966196,-79.2006684
2409,South Horner Boulevard,27330,35.4604717,-79.1459176
2409,South Horner Boulevard,27330,35.4601232,-79.1456137
2819,Lee Avenue,27332,35.4518961,-79.1463579
536,Ryder Lake Drive,27330,35.4433412,-79.2246456
534,Ryder Lake Drive,27330,35.4433147,-79.2245387
538,Ryder Lake Drive,27330,35.4433557,-79.2247477
540,Ryder Lake Drive,27330,35.4433721,-79.2248681
4470,NC-87,27332,35.4240876,-79.1209965
2301,Nash Street,27330,35.4636688,-79.1416384
2225,South Horner Boulevard,27330,35.4614475,-79.1465442
1420,Tramway Road,27330,35.4480054,-79.1698511
351,Tiffany Drive,27330,35.4722693,-79.2025178
108,Charlotte Avenue,27330,35.4809652,-79.1773517
3305,North Carolina 87,27332,35.4440839,-79.1270997
1007,Hawkins Avenue,27330,35.4941819,-79.1806759
600,Golf Course Lane,27332,35.5162592,-79.1741677
1135,Carthage Street,27339,35.4688504,-79.1868975
2309,Tramway Road,27332,35.4366067,-79.1890403
2301,Tramway Road,27332,35.4351627,-79.1860838
2201,Hawkins Avenue,27330,35.5118696,-79.1793118
3310,Nc Highway 87 South,27332,35.4427957,-79.1305335
3015,South Horner Boulevard,27332,35.4529803,-79.1342889
2910,South Horner Boulevard,27332,35.4529977,-79.1378186
3002,South Horner Boulevard,27332,35.4517895,-79.1363547
2901,South Horner Boulevard,27332,35.4542280,-79.1379083
2825,South Horner Boulevard,27332,35.4549480,-79.1386480
3014,South Horner Boulevard,27332,35.4509258,-79.1354582
3070,South Horner Boulevard,27332,35.4509044,-79.1364247
1413,Broadway Road,27330,35.4598187,-79.1109574
414,East Main Street,27332,35.4587081,-79.1469788
2404,Dalrymple Street,27332,35.4590533,-79.1489533
2570,Lee Avenue,27332,35.4556111,-79.1518929
511,East Main Street,27330,35.4602549,-79.1449949
3115,South Horner Boulevard,27332,35.4504335,-79.1326259
107,Ashby Road,27332,35.4499969,-79.1314991
3109,South Horner Boulevard,27332,35.4504771,-79.1333994
3105,South Horner Boulevard,27332,35.4517679,-79.1336310
3224,NC Highway 87 South,27332,35.4456772,-79.1298860
3284,Nc Highway 87 North,27332,35.4450166,-79.1294965
2940,South Horner Boulevard,27332,35.4524919,-79.1371587
2813,Rosser Road,27332,35.4542807,-79.1362216
713,Grimm Street,27332,35.4562291,-79.1394592
719,Grimm Street,27332,35.4564535,-79.1388147
800,Grimm Street,27332,35.4562436,-79.1382139
804,Grimm Street,27332,35.4564303,-79.1377798
803,Grimm Street,27332,35.4568073,-79.1379474
2708,Rosser Road,27332,35.4561113,-79.1370322
2800,Rosser Road,27332,35.4551570,-79.1370866
2801,Rosser Road,27332,35.4550507,-79.1365928
2716,Rosser Road,27332,35.4555333,-79.1370934
2603,Rosser Road,27332,35.4573040,-79.1364960
2604,Rosser Road,27332,35.4572081,-79.1370895
2518,Rosser Road,27332,35.4578455,-79.1372855
824,East Main Street,27332,35.4615086,-79.1385739
902,Broadway Road,27332,35.4616306,-79.1379303
2919,Watson Avenue,27332,35.4500081,-79.1413390
2915,Watson Avenue,27332,35.4501447,-79.1414266
2913,Watson Avenue,27332,35.4503157,-79.1415719
2911,Watson Avenue,27332,35.4504953,-79.1417208
2909,Watson Avenue,27332,35.4506640,-79.1418437
2905,Watson Avenue,27332,35.4508669,-79.1420160
2901,Watson Avenue,27332,35.4510452,-79.1421615
2902,Cornell Drive,27332,35.4513524,-79.1417374
2906,Cornell Drive,27332,35.4511895,-79.1415904
2912,Cornell Drive,27332,35.4508452,-79.1412894
2914,Cornell Drive,27332,35.4506971,-79.1411572
2916,Cornell Drive,27332,35.4505164,-79.1409637
2920,Cornell Drive,27332,35.4503414,-79.1407961
2922,Cornell Drive,27332,35.4501945,-79.1406727
2926,Cornell Drive,27332,35.4500169,-79.1404900
2930,Cornell Drive,27332,35.4498366,-79.1403176
2932,Cornell Drive,27332,35.4496600,-79.1401613
2927,Cornell Drive,27332,35.4503297,-79.1400508
2925,Cornell Drive,27332,35.4504866,-79.1401720
2917,Cornell Drive,27332,35.4508019,-79.1404797
2915,Cornell Drive,27332,35.4509733,-79.1406406
2911,Cornell Drive,27332,35.4511272,-79.1408038
2907,Cornell Drive,27332,35.4512990,-79.1409632
2903,Cornell Drive,27332,35.4515061,-79.1411355
2901,Cornell Drive,27332,35.4516426,-79.1412807
2855,Cornell Drive,27332,35.4518780,-79.1415324
2923,Watson Avenue,27332,35.4497992,-79.1411588
2925,Watson Avenue,27332,35.4496274,-79.1410259
2929,Watson Avenue,27332,35.4494444,-79.1408614
2933,Watson Avenue,27332,35.4491907,-79.1405039
300,Cornell Drive,27332,35.4494053,-79.1393709
212,Cornell Drive,27332,35.4492144,-79.1395842
210,Cornell Drive,27332,35.4490553,-79.1397461
206,Cornell Drive,27332,35.4489927,-79.1399966
3002,Watson Avenue,27332,35.4484513,-79.1404849
2932,Watson Avenue,27332,35.4487566,-79.1408484
2930,Watson Avenue,27332,35.4490218,-79.1411767
2928,Watson Avenue,27332,35.4491687,-79.1413660
2924,Watson Avenue,27332,35.4494776,-79.1416992
2920,Watson Avenue,27332,35.4496636,-79.1418399
2918,Watson Avenue,27332,35.4498491,-79.1419643
2914,Watson Avenue,27332,35.4500295,-79.1420839
2912,Watson Avenue,27332,35.4502060,-79.1422046
2908,Watson Avenue,27332,35.4503941,-79.1423624
108,East Seawell Street,27332,35.4504905,-79.1428833
205,East Seawell Street,27332,35.4514714,-79.1423935
209,East Seawell Street,27332,35.4516134,-79.1421852
211,East Seawell Street,27332,35.4517213,-79.1420069
2851,Cornell Drive,27332,35.4519555,-79.1422989
2847,Cornell Drive,27332,35.4521183,-79.1424677
201,East Seawell Street,27332,35.4513243,-79.1426101
2851,Watson Avenue,27332,35.4516409,-79.1428360
2847,Watson Avenue,27332,35.4517750,-79.1429668
2701,Rosser Road,27332,35.4565210,-79.1364073
2705,Rosser Road,27332,35.4562698,-79.1364598
2709,Rosser Road,27332,35.4559307,-79.1364935
3103,South Horner Boulevard,27332,35.4512022,-79.1342591
2730,Mount Pisgah Church Road,27332,35.4459088,-79.1099239
3401,Evers Avenue,27332,35.4484576,-79.1113931
1604,Carr Creek Road,27332,35.4477660,-79.1164211
1730,Carr Creek Road,27332,35.4463999,-79.1139449
1728,Carr Creek Road,27332,35.4464877,-79.1140747
1726,Carr Creek Road,27332,35.4465572,-79.1141721
1724,Carr Creek Road,27332,35.4466100,-79.1142445
1720,Carr Creek Road,27332,35.4467602,-79.1143473
1716,Carr Creek Road,27332,35.4468858,-79.1145353
1712,Carr Creek Road,27332,35.4469493,-79.1147907
1708,Carr Creek Road,27332,35.4471041,-79.1150631
1600,Carr Creek Road,27332,35.4480028,-79.1164798
1701,Watts Street,27332,35.4488396,-79.1166104
1620,Prosperity Drive,27332,35.4486226,-79.1148044
1521,Prosperity Drive,27332,35.4474477,-79.1160839
2716,Mount Pisgah Church Road,27332,35.4466600,-79.1093599
2738,Mount Pisgah Church Road,27332,35.4452202,-79.1100163
2728,Mount Pisgah Church Road,27332,35.4457491,-79.1096372
2724,Mount Pisgah Church Road,27332,35.4461241,-79.1095217
2720,Mount Pisgah Church Road,27332,35.4464070,-79.1094337
3203,Tyrone Drive,27332,35.4507487,-79.1097806
3405,Renee Drive,27332,35.4496496,-79.1145202
3401,Renee Drive,27332,35.4498946,-79.1147378
3504,Renee Drive,27332,35.4482259,-79.1139910
3409,Renee Drive,27332,35.4494408,-79.1143289
3402,Renee Drive,27332,35.4495141,-79.1152065
1720,Watts Street,27332,35.4493064,-79.1154612
3513,Renee Drive,27332,35.4481506,-79.1131244
1607,Prosperity Drive,27332,35.4478676,-79.1151359
1611,Prosperity Drive,27332,35.4480166,-79.1148667
1717,Carr Creek Road,27332,35.4473071,-79.1143693
1713,Carr Creek Road,27332,35.4473861,-79.1145633
1709,Carr Creek Road,27332,35.4474526,-79.1147582
2725,Mount Pisgah Church Road,27332,35.4461021,-79.1088290
1729,Carr Creek Road,27332,35.4469410,-79.1137727
1733,Carr Creek Road,27332,35.4467675,-79.1135865
3622,Renee Drive,27332,35.4466533,-79.1133190
3617,Renee Drive,27332,35.4467005,-79.1125621
3613,Renee Drive,27332,35.4469105,-79.1124198
3609,Renee Drive,27332,35.4471689,-79.1122961
3605,Renee Drive,27332,35.4474301,-79.1123573
3610,Renee Drive,27332,35.4471922,-79.1129696
3601,Renee Drive,27332,35.4476344,-79.1125545
3517,Renee Drive,27332,35.4479548,-79.1129158
3600,Renee Drive,27332,35.4474155,-79.1131460
3516,Renee Drive,27332,35.4476187,-79.1133578
3512,Renee Drive,27332,35.4478174,-79.1136039
3508,Renee Drive,27332,35.4480259,-79.1137904
3509,Renee Drive,27332,35.4483643,-79.1133449
3505,Renee Drive,27332,35.4485480,-79.1135442
3501,Renee Drive,27332,35.4487856,-79.1137302
3417,Renee Drive,27332,35.4489976,-79.1139060
3413,Renee Drive,27332,35.4492156,-79.1141584
3500,Renee Drive,27332,35.4484473,-79.1142469
1615,Prosperity Drive,27332,35.4481199,-79.1146274
1601,Prosperity Drive,27332,35.4476675,-79.1153755
1612,Prosperity Drive,27332,35.4483705,-79.1152350
1608,Prosperity Drive,27332,35.4482438,-79.1154561
1604,Prosperity Drive,27332,35.4481310,-79.1156402
1600,Prosperity Drive,27332,35.4479750,-79.1158530
1704,Carr Creek Road,27332,35.4471929,-79.1153669
1700,Carr Creek Road,27332,35.4472869,-79.1156402
1520,Prosperity Drive,27332,35.4470274,-79.1158231
1608,Carr Creek Road,27332,35.4475840,-79.1162845
1603,Carr Creek Road,27332,35.4481977,-79.1163112
1605,Carr Creek Road,27332,35.4482140,-79.1160749
1616,Prosperity Drive,27332,35.4485064,-79.1150062
3414,Renee Drive,27332,35.4488144,-79.1145450
3410,Renee Drive,27332,35.4490943,-79.1147967
3406,Renee Drive,27332,35.4492913,-79.1150210
1712,Watts Street,27332,35.4490439,-79.1158488
1708,Watts Street,27332,35.4489045,-79.1160086
1704,Watts Street,27332,35.4487122,-79.1161516
1709,Watts Street,27332,35.4492200,-79.1164110
1713,Watts Street,27332,35.4493994,-79.1162554
1705,Watts Street,27332,35.4490525,-79.1165522
1700,Watts Street,27332,35.4486507,-79.1164091
1717,Watts Street,27332,35.4495509,-79.1160326
1721,Watts Street,27332,35.4497025,-79.1158558
3320,Renee Drive,27332,35.4498689,-79.1155690
3316,Renee Drive,27332,35.4500686,-79.1157355
3321,Renee Drive,27332,35.4500945,-79.1149865
3317,Renee Drive,27332,35.4502974,-79.1152228
1925,Carr Creek Road,27332,35.4492054,-79.1093582
1818,Carr Creek Road,27332,35.4459654,-79.1114057
1814,Carr Creek Road,27332,35.4458407,-79.1116150
1810,Carr Creek Road,27332,35.4457508,-79.1118722
3621,Renee Drive,27332,35.4464564,-79.1128003
1809,Carr Creek Road,27332,35.4461383,-79.1123314
1813,Carr Creek Road,27332,35.4462263,-79.1119042
1817,Carr Creek Road,27332,35.4463857,-79.1117091
1821,Carr Creek Road,27332,35.4467191,-79.1115403
1825,Carr Creek Road,27332,35.4469770,-79.1114164
1822,Carr Creek Road,27332,35.4461669,-79.1111920
1826,Carr Creek Road,27332,35.4464812,-79.1109604
1830,Carr Creek Road,27332,35.4467073,-79.1107990
1834,Carr Creek Road,27332,35.4469880,-79.1106312
3412,Evers Avenue,27332,35.4473855,-79.1111929
3408,Evers Avenue,27332,35.4476569,-79.1114676
3404,Evers Avenue,27332,35.4478738,-79.1116907
3400,Evers Avenue,27332,35.4481066,-79.1119188
1909,Hope Street,27332,35.4482784,-79.1124818
1913,Hope Street,27332,35.4484214,-79.1122785
1917,Hope Street,27332,35.4485646,-79.1120651
2001,Hope Street,27332,35.4487226,-79.1118375
2005,Hope Street,27332,35.4488971,-79.1116064
2009,Hope Street,27332,35.4490682,-79.1113699
2013,Hope Street,27332,35.4492586,-79.1110513
2017,Hope Street,27332,35.4492132,-79.1106897
2014,Hope Street,27332,35.4489388,-79.1105376
2010,Hope Street,27332,35.4486911,-79.1108163
3405,Evers Avenue,27332,35.4482431,-79.1111683
1920,Carr Creek Road,27332,35.4485003,-79.1091098
1916,Carr Creek Road,27332,35.4482677,-79.1094033
1912,Carr Creek Road,27332,35.4479555,-79.1098481
1908,Carr Creek Road,27332,35.4477409,-79.1100423
1904,Carr Creek Road,27332,35.4475589,-79.1102365
1900,Carr Creek Road,27332,35.4473837,-79.1104354
3413,Evers Avenue,27332,35.4478168,-79.1107384
3409,Evers Avenue,27332,35.4480254,-79.1109432
1913,Carr Creek Road,27332,35.4484438,-79.1101735
1917,Carr Creek Road,27332,35.4486440,-79.1099387
1921,Carr Creek Road,27332,35.4488765,-79.1096762
1924,Carr Creek Road,27332,35.4486613,-79.1089313
2000,Carr Creek Road,27332,35.4488730,-79.1087049
3214,Tyrone Drive,27332,35.4496612,-79.1096300
3210,Tyrone Drive,27332,35.4499702,-79.1098071
2001,Carr Creek Road,27332,35.4494583,-79.1086723
3217,Tyrone Drive,27332,35.4497572,-79.1089221
3213,Tyrone Drive,27332,35.4500065,-79.1090710
3209,Tyrone Drive,27332,35.4502807,-79.1092148
124,Thornwood Loop,27330,35.4620109,-79.1109711
123,Thornwood Loop,27330,35.4618479,-79.1109706
3212,South NC 87,27330,35.4467080,-79.1307350
217,McIver Street,27330,35.4812480,-79.1735903
219,McIver Street,27330,35.4812931,-79.1733837
108,South 2nd Street,27330,35.4817002,-79.1735078
106,South 2nd Street,27330,35.4818674,-79.1735910
216,Charlotte Avenue,27330,35.4821723,-79.1736437
214,Charlotte Avenue,27330,35.4821324,-79.1739612
208,Charlotte Avenue,27330,35.4820805,-79.1744188
203,Charlotte Avenue,27330,35.4824848,-79.1747246
207,Charlotte Avenue,27330,35.4825517,-79.1743961
209,Charlotte Avenue,27330,35.4826071,-79.1741765
215,Charlotte Avenue,27330,35.4826937,-79.1738189
107,North 2nd Street,27330,35.4830174,-79.1738595
111,North 2nd Street,27330,35.4832945,-79.1739636
208,Midland Avenue,27330,35.4834200,-79.1744516
206,Midland Avenue,27330,35.4833881,-79.1746442
204,Midland Avenue,27330,35.4833529,-79.1748027
114,North 1st Street,27330,35.4833097,-79.1750435
110,North 1st Street,27330,35.4830968,-79.1750457
108,North 1st Street,27330,35.4829825,-79.1749449
206,North 1st Street,27330,35.4839701,-79.1752211
210,North 1st Street,27330,35.4842107,-79.1753314
212,North 1st Street,27330,35.4843885,-79.1754078
207,North Avenue,27330,35.4851328,-79.1750943
209,North Avenue,27330,35.4851717,-79.1749010
213,North Avenue,27330,35.4852888,-79.1744086
211,North Avenue,27330,35.4852543,-79.1746220
212,North Avenue,27330,35.4848226,-79.1743505
215,Midland Avenue,27330,35.4839617,-79.1741041
200,North 2nd Street,27330,35.4840203,-79.1736466
202,North 2nd Street,27330,35.4841216,-79.1737139
204,North 2nd Street,27330,35.4842764,-79.1737357
206,North 2nd Street,27330,35.4844097,-79.1738026
208,North 2nd Street,27330,35.4845380,-79.1738369
211,North 2nd Street,27330,35.4844692,-79.1742727
216,North Avenue,27330,35.4848896,-79.1740094
218,North Avenue,27330,35.4849178,-79.1738391
220,North Avenue,27330,35.4849281,-79.1736610
217,North Avenue,27330,35.4853283,-79.1740735
219,North Avenue,27330,35.4853575,-79.1738912
221,North Avenue,27330,35.4853957,-79.1737155
225,North Avenue,27330,35.4854509,-79.1733803
230,Temple Avenue,27330,35.4861176,-79.1735558
226,Temple Avenue,27330,35.4860547,-79.1738333
222,Temple Avenue,27330,35.4860098,-79.1741541
216,Temple Avenue,27330,35.4858885,-79.1746558
221,Temple Avenue,27330,35.4863321,-79.1743524
223,Temple Avenue,27330,35.4863669,-79.1742009
227,Temple Avenue,27330,35.4864283,-79.1738980
231,Temple Avenue,27330,35.4865223,-79.1734232
229,Temple Avenue,27330,35.4864956,-79.1736559
219,Temple Avenue,27330,35.4862963,-79.1745255
215,Temple Avenue,27330,35.4862284,-79.1749355
213,Temple Avenue,27330,35.4861901,-79.1750717
211,Temple Avenue,27330,35.4861113,-79.1751879
209,Temple Avenue,27330,35.4860909,-79.1753197
207,Temple Avenue,27330,35.4860608,-79.1754981
415,Wilson Street,27330,35.4870082,-79.1778183
411,Wilson Street,27330,35.4868081,-79.1777945
407,Wilson Street,27330,35.4865825,-79.1777700
604,Hawkins Avenue,27330,35.4884111,-79.1798190
104,Hawkins Avenue,27330,35.4822572,-79.1773654
200,San-Lee Drive,27330,35.4839742,-79.1586552
616,Matthews Street,27330,35.4824389,-79.1597615
613,Matthews Street,27330,35.4821788,-79.1603423
622,Bragg Street,27330,35.4801530,-79.1582187
607,Bragg Street,27330,35.4808985,-79.1580192
519,Bragg Street,27330,35.4814187,-79.1589192
628,Scott Avenue,27330,35.4828937,-79.1579391
413,San-Lee Drive,27330,35.4838441,-79.1560717
319,North 11th Street,27330,35.4887907,-79.1614019
302,North 11th Street,27330,35.4878570,-79.1606982
516,North Avenue,27330,35.4865042,-79.1654707
501,San-Lee Drive,27330,35.4835872,-79.1552583
427,San-Lee Drive,27330,35.4837195,-79.1556123
428,San-Lee Drive,27330,35.4831915,-79.1559123
414,San-Lee Drive,27330,35.4832577,-79.1562833
410,San-Lee Drive,27330,35.4833012,-79.1564528
417,San-Lee Drive,27330,35.4838030,-79.1559182
409,San-Lee Drive,27330,35.4837652,-79.1563290
405,San-Lee Drive,27330,35.4838723,-79.1566097
401,San-Lee Drive,27330,35.4838971,-79.1569315
404,San-Lee Drive,27330,35.4833947,-79.1568297
400,San-Lee Drive,27330,35.4834690,-79.1570671
308,San-Lee Drive,27330,35.4835435,-79.1573597
304,San-Lee Drive,27330,35.4836023,-79.1575986
640,Scott Avenue,27330,35.4836580,-79.1578882
641,Scott Avenue,27330,35.4837261,-79.1583451
639,Scott Avenue,27330,35.4835958,-79.1583814
635,Scott Avenue,27330,35.4833886,-79.1584238
633,Scott Avenue,27330,35.4832230,-79.1584689
629,Scott Avenue,27330,35.4829508,-79.1584954
624,Scott Avenue,27330,35.4825331,-79.1580984
623,Scott Avenue,27330,35.4825285,-79.1585994
620,Scott Avenue,27330,35.4822165,-79.1581920
619,Scott Avenue,27330,35.4822514,-79.1586626
618,Scott Avenue,27330,35.4820648,-79.1582228
616,Scott Avenue,27330,35.4818729,-79.1582678
603,Bragg Street,27330,35.4809686,-79.1584505
511,Bragg Street,27330,35.4812672,-79.1592952
509,Bragg Street,27330,35.4813280,-79.1594264
507,Bragg Street,27330,35.4813855,-79.1595992
505,Bragg Street,27330,35.4814343,-79.1598507
503,Bragg Street,27330,35.4814622,-79.1600080
501,Bragg Street,27330,35.4814832,-79.1601578
628,Matthews Street,27330,35.4831242,-79.1593383
614,Matthews Street,27330,35.4823114,-79.1598046
612,Matthews Street,27330,35.4821881,-79.1598759
615,Matthews Street,27330,35.4823265,-79.1602566
626,Matthews Street,27330,35.4830193,-79.1594242
632,Matthews Street,27330,35.4833300,-79.1591852
634,Matthews Street,27330,35.4834893,-79.1590804
636,Matthews Street,27330,35.4836139,-79.1589620
635,Matthews Street,27330,35.4836133,-79.1594805
637,Matthews Street,27330,35.4837796,-79.1593391
641,Matthews Street,27330,35.4839452,-79.1592232
114,San-Lee Drive,27330,35.4843362,-79.1592260
115,San-Lee Drive,27330,35.4846157,-79.1588389
111,San-Lee Drive,27330,35.4848783,-79.1591394
700,Charlotte Avenue,27330,35.4849458,-79.1593944
617,Charlotte Avenue,27330,35.4849851,-79.1618686
618,Midland Avenue,27330,35.4858166,-79.1620508
110,North 16th Street,27330,35.4868963,-79.1542831
111,North 16th Street,27330,35.4867037,-79.1547455
115,North 16th Street,27330,35.4868952,-79.1547958
119,North 16th Street,27330,35.4870921,-79.1548705
1104,Charlotte Avenue,27330,35.4857595,-79.1548980
1102,Charlotte Avenue,27330,35.4857194,-79.1551804
1008,Charlotte Avenue,27330,35.4855898,-79.1557379
1004,Charlotte Avenue,27330,35.4855293,-79.1560288
1000,Charlotte Avenue,27330,35.4854714,-79.1562921
910,Charlotte Avenue,27330,35.4854620,-79.1565679
906,Charlotte Avenue,27330,35.4854062,-79.1568314
902,Charlotte Avenue,27330,35.4853661,-79.1571417
1103,Charlotte Avenue,27330,35.4862325,-79.1552991
106,North 15th Street,27330,35.4864463,-79.1553928
112,North 15th Street,27330,35.4868331,-79.1555350
116,North 15th Street,27330,35.4870362,-79.1555680
111,North 15th Street,27330,35.4866504,-79.1560987
107,North 15th Street,27330,35.4863641,-79.1559613
1007,Charlotte Avenue,27330,35.4860886,-79.1559310
1003,Charlotte Avenue,27330,35.4860490,-79.1562920
106,North 14th Street,27330,35.4863402,-79.1563887
110,North 14th Street,27330,35.4865141,-79.1565541
111,North 14th Street,27330,35.4864954,-79.1568747
107,North 14th Street,27330,35.4862767,-79.1570174
103,North 14th Street,27330,35.4859466,-79.1568865
102,North 13th Street,27330,35.4858608,-79.1572421
106,North 13th Street,27330,35.4861921,-79.1574044
110,North 13th Street,27330,35.4864096,-79.1575052
107,North 13th Street,27330,35.4859740,-79.1578678
817,Charlotte Avenue,27330,35.4857501,-79.1578832
729,Charlotte Avenue,27330,35.4856603,-79.1584627
721,Charlotte Avenue,27330,35.4855878,-79.1588199
719,Charlotte Avenue,27330,35.4855541,-79.1590206
711,Charlotte Avenue,27330,35.4854048,-79.1594847
709,Charlotte Avenue,27330,35.4853958,-79.1597183
707,Charlotte Avenue,27330,35.4853029,-79.1599621
631,Charlotte Avenue,27330,35.4851435,-79.1607711
102,North 11th Street,27330,35.4852328,-79.1603058
104,North 11th Street,27330,35.4854289,-79.1603560
107,North 11th Street,27330,35.4855036,-79.1608971
108,North 11th Street,27330,35.4857905,-79.1604658
110,North 11th Street,27330,35.4860149,-79.1604918
112,North 11th Street,27330,35.4862437,-79.1605522
204,North 11th Street,27330,35.4867043,-79.1606710
113,North 11th Street,27330,35.4859437,-79.1611597
309,North 11th Street,27330,35.4881625,-79.1615958
205,North 11th Street,27330,35.4866465,-79.1611676
203,North 11th Street,27330,35.4864525,-79.1611137
211,North 11th Street,27330,35.4870057,-79.1612545
212,North 11th Street,27330,35.4872929,-79.1607322
217,North 11th Street,27330,35.4873879,-79.1612929
219,North 11th Street,27330,35.4875280,-79.1613118
223,North 11th Street,27330,35.4877407,-79.1613990
623,Midland Avenue,27330,35.4863651,-79.1616950
621,Midland Avenue,27330,35.4863138,-79.1619424
617,Midland Avenue,27330,35.4862579,-79.1622016
524,Midland Avenue,27330,35.4853078,-79.1646934
520,Midland Avenue,27330,35.4852678,-79.1649410
518,Midland Avenue,27330,35.4852193,-79.1651193
509,Charlotte Avenue,27330,35.4842680,-79.1655316
507,Charlotte Avenue,27330,35.4842037,-79.1657591
505,Charlotte Avenue,27330,35.4841519,-79.1659744
503,Charlotte Avenue,27330,35.4841406,-79.1661903
501,Charlotte Avenue,27330,35.4840767,-79.1663748
107,North 8th Street,27330,35.4846636,-79.1653602
109,North 8th Street,27330,35.4848017,-79.1654116
111,North 8th Street,27330,35.4849510,-79.1654707
512,Midland Avenue,27330,35.4851789,-79.1655334
615,Midland Avenue,27330,35.4861797,-79.1626501
611,Midland Avenue,27330,35.4861106,-79.1628959
609,Midland Avenue,27330,35.4860836,-79.1631328
605,Midland Avenue,27330,35.4860286,-79.1634342
208,North 10th Street,27330,35.4866686,-79.1621954
213,North 10th Street,27330,35.4867534,-79.1628949
608,North Avenue,27330,35.4868933,-79.1633700
606,North Avenue,27330,35.4868663,-79.1635332
604,North Avenue,27330,35.4868164,-79.1637291
218,North 10th Street,27330,35.4870946,-79.1623325
623,North Avenue,27330,35.4874548,-79.1624130
611,North Avenue,27330,35.4875169,-79.1630667
607,North Avenue,27330,35.4874731,-79.1633022
605,North Avenue,27330,35.4874092,-79.1635586
603,North Avenue,27330,35.4873600,-79.1638057
601,North Avenue,27330,35.4873110,-79.1640530
523,North Avenue,27330,35.4871238,-79.1650713
520,North Avenue,27330,35.4865564,-79.1651216
514,North Avenue,27330,35.4864495,-79.1658429
508,North Avenue,27330,35.4863355,-79.1663341
506,North Avenue,27330,35.4863105,-79.1665445
531,Midland Avenue,27330,35.4859061,-79.1641449
529,Midland Avenue,27330,35.4858292,-79.1644308
527,Midland Avenue,27330,35.4858319,-79.1647098
523,Midland Avenue,27330,35.4857277,-79.1649570
517,Midland Avenue,27330,35.4856788,-79.1652182
511,Midland Avenue,27330,35.4855683,-79.1656304
509,Midland Avenue,27330,35.4855363,-79.1658441
507,Midland Avenue,27330,35.4854943,-79.1660768
505,Midland Avenue,27330,35.4854417,-79.1662724
503,Midland Avenue,27330,35.4853999,-79.1664737
206,North 7th Street,27330,35.4857340,-79.1667904
208,North 7th Street,27330,35.4859141,-79.1668325
501,Midland Avenue,27330,35.4853775,-79.1667012
508,Midland Avenue,27330,35.4850597,-79.1659343
504,Midland Avenue,27330,35.4850304,-79.1661658
114,North 7th Street,27330,35.4848336,-79.1664619
115,North 7th Street,27330,35.4848994,-79.1670774
207,North 6th Street,27330,35.4854853,-79.1682537
201,North 6th Street,27330,35.4851868,-79.1682042
427,Midland Avenue,27330,35.4852875,-79.1670939
207,North 7th Street,27330,35.4856378,-79.1671759
211,North 7th Street,27330,35.4859982,-79.1673679
213,North 7th Street,27330,35.4861595,-79.1674029
427,North Avenue,27330,35.4865795,-79.1674938
416,North Avenue,27330,35.4860417,-79.1678352
408,North Avenue,27330,35.4859005,-79.1686619
404,North Avenue,27330,35.4858056,-79.1690297
400,North Avenue,27330,35.4857576,-79.1693762
206,North 5th Street,27330,35.4852914,-79.1692970
205,North 5th Street,27330,35.4850654,-79.1696759
201,North 5th Street,27330,35.4848070,-79.1695916
200,North 5th Street,27330,35.4849017,-79.1692062
202,North 5th Street,27330,35.4850454,-79.1692496
203,North 4th Street,27330,35.4846479,-79.1711498
305,Midland Avenue,27330,35.4846705,-79.1715592
305,North 6th Street,27330,35.4866836,-79.1685610
303,North 6th Street,27330,35.4864830,-79.1685540
301,North 6th Street,27330,35.4863551,-79.1684893
409,North Avenue,27330,35.4863374,-79.1688848
321,North Avenue,27330,35.4859980,-79.1706651
326,North Avenue,27330,35.4856122,-79.1703789
324,North Avenue,27330,35.4855624,-79.1705724
312,North Avenue,27330,35.4852732,-79.1713335
308,North Avenue,27330,35.4853006,-79.1717098
200,North 3rd Street,27330,35.4843339,-79.1721630
204,North 3rd Street,27330,35.4845572,-79.1722520
305,North 3rd Street,27330,35.4858211,-79.1730734
311,Temple Avenue,27330,35.4867699,-79.1720683
401,North Avenue,27330,35.4862199,-79.1695920
307,North 5th Street,27330,35.4864100,-79.1700697
311,North 5th Street,27330,35.4867986,-79.1702093
309,Temple Avenue,27330,35.4867396,-79.1725053
232,Linden Avenue,27330,35.4871164,-79.1735288
214,Linden Avenue,27330,35.4868294,-79.1747062
500,North 7th Street,27330,35.4889732,-79.1657357
210,Linden Avenue,27330,35.4867631,-79.1749952
206,Linden Avenue,27330,35.4866905,-79.1752768
202,Linden Avenue,27330,35.4866376,-79.1755322
110,North 3rd Street,27330,35.4837006,-79.1719799
106,North 3rd Street,27330,35.4834780,-79.1718763
301,Charlotte Avenue,27330,35.4831226,-79.1717492
231,Charlotte Avenue,27330,35.4831820,-79.1724721
113,North 3rd Street,27330,35.4837652,-79.1725479
109,North 3rd Street,27330,35.4835023,-79.1724665
221,Charlotte Avenue,27330,35.4828035,-79.1733473
223,Charlotte Avenue,27330,35.4828697,-79.1730808
110,North 5th Street,27330,35.4843223,-79.1690286
108,North 5th Street,27330,35.4841575,-79.1689704
106,North 5th Street,27330,35.4839927,-79.1689254
104,North 5th Street,27330,35.4838587,-79.1688832
408,Midland Avenue,27330,35.4846455,-79.1684440
115,North 6th Street,27330,35.4846724,-79.1680133
113,North 6th Street,27330,35.4845673,-79.1679374
114,North 6th Street,27330,35.4847782,-79.1675501
112,North 6th Street,27330,35.4845505,-79.1674792
328,Charlotte Avenue,27330,35.4830935,-79.1691084
108,South 5th Street,27330,35.4826555,-79.1690086
109,South 5th Street,27330,35.4827453,-79.1685414
105,South 5th Street,27330,35.4829540,-79.1686162
408,Charlotte Avenue,27330,35.4833095,-79.1680404
406,Charlotte Avenue,27330,35.4832890,-79.1682581
404,Charlotte Avenue,27330,35.4832543,-79.1684441
400,Charlotte Avenue,27330,35.4831923,-79.1686909
405,Charlotte Avenue,27330,35.4836991,-79.1684554
407,Charlotte Avenue,27330,35.4837751,-79.1681067
413,Charlotte Avenue,27330,35.4838270,-79.1678483
100,South 6th Street,27330,35.4833654,-79.1676819
104,South 6th Street,27330,35.4831510,-79.1676243
106,South 6th Street,27330,35.4829855,-79.1675656
417,McIver Street,27330,35.4827405,-79.1670441
421,McIver Street,27330,35.4828157,-79.1666742
510,Charlotte Avenue,27330,35.4837784,-79.1654127
506,Charlotte Avenue,27330,35.4837260,-79.1656728
504,Charlotte Avenue,27330,35.4836891,-79.1659743
509,McIver Street,27330,35.4831185,-79.1652270
507,McIver Street,27330,35.4830159,-79.1654704
505,McIver Street,27330,35.4829962,-79.1657334
423,McIver Street,27330,35.4828471,-79.1664202
501,McIver Street,27330,35.4829370,-79.1660395
107,South 7th Street,27330,35.4833249,-79.1660997
101,South 7th Street,27330,35.4836310,-79.1661750
424,Charlotte Avenue,27330,35.4835961,-79.1666149
420,Charlotte Avenue,27330,35.4835318,-79.1668873
332,North Avenue,27330,35.4856350,-79.1698139
331,North Avenue,27330,35.4861274,-79.1699677
405,North Avenue,27330,35.4862575,-79.1692858
211,North 6th Street,27330,35.4857611,-79.1683091
419,Midland Avenue,27330,35.4851855,-79.1676986
419,Charlotte Avenue,27330,35.4839164,-79.1672439
421,Charlotte Avenue,27330,35.4840057,-79.1669925
107,North 7th Street,27330,35.4843631,-79.1668438
109,North 7th Street,27330,35.4845239,-79.1669093
209,North 7th Street,27330,35.4858709,-79.1673284
205,North 7th Street,27330,35.4854301,-79.1671224
107,North 5th Street,27330,35.4838975,-79.1693466
329,Charlotte Avenue,27330,35.4835511,-79.1692881
324,Charlotte Avenue,27330,35.4830313,-79.1694130
320,Charlotte Avenue,27330,35.4829737,-79.1697949
311,Charlotte Avenue,27330,35.4832220,-79.1710445
304,Charlotte Avenue,27330,35.4826555,-79.1713361
300,Charlotte Avenue,27330,35.4825823,-79.1716535
319,Charlotte Avenue,27330,35.4833469,-79.1701988
317,Charlotte Avenue,27330,35.4833123,-79.1703643
323,Charlotte Avenue,27330,35.4834291,-79.1699336
332,Midland Avenue,27330,35.4843285,-79.1695579
603,Charlotte Avenue,27330,35.4847007,-79.1633306
107,North 10th Street,27330,35.4852720,-79.1623750
616,Midland Avenue,27330,35.4857169,-79.1624987
604,Midland Avenue,27330,35.4855751,-79.1633085
600,Midland Avenue,27330,35.4854777,-79.1635740
532,Midland Avenue,27330,35.4854149,-79.1640629
525,Charlotte Avenue,27330,35.4845103,-79.1642643
523,Charlotte Avenue,27330,35.4844622,-79.1645293
517,Charlotte Avenue,27330,35.4844111,-79.1648495
605,Charlotte Avenue,27330,35.4848207,-79.1631000
609,Charlotte Avenue,27330,35.4847923,-79.1627855
611,Charlotte Avenue,27330,35.4848643,-79.1625298
319,North Avenue,27330,35.4859828,-79.1709427
210,Temple Avenue,27330,35.4858064,-79.1751628
206,Temple Avenue,27330,35.4857454,-79.1754806
310,North 1st Street,27330,35.4857108,-79.1757902
306,North 1st Street,27330,35.4854876,-79.1757199
304,North 1st Street,27330,35.4852306,-79.1756389
302,North 1st Street,27330,35.4850324,-79.1755717
232,Charlotte Avenue,27330,35.4825010,-79.1721069
324,Midland Avenue,27330,35.4842736,-79.1701133
114,North 4th Street,27330,35.4841883,-79.1704836
110,North 4th Street,27330,35.4839866,-79.1704239
405,North 3rd Street,27330,35.4868123,-79.1734745
107,Hawkins Avenue,27330-4399,35.4823297,-79.1782581
308,Charlotte Avenue,27330,35.4827297,-79.1710312
104,South 4th Street,27330,35.4826050,-79.1705807
312,Charlotte Avenue,27330,35.4828165,-79.1706238
310,Charlotte Avenue,27330,35.4827879,-79.1707910
308,Midland Avenue,27330,35.4839968,-79.1713949
111,North 4th Street,27330,35.4839969,-79.1710272
108,North 4th Street,27330,35.4838509,-79.1703099
325,Charlotte Avenue,27330,35.4834388,-79.1697083
323,North Avenue,27330,35.4860557,-79.1704431
338,North 4th Street,27330,35.4864113,-79.1711853
300,North Avenue,27330,35.4851209,-79.1722476
206,North 3rd Street,27330,35.4847337,-79.1723012
209,North 4th Street,27330,35.4850292,-79.1712984
204,North 4th Street,27330,35.4848250,-79.1707634
413,McIver Street,27330,35.4826817,-79.1674201
619,Oakwood Avenue,27330,35.4834274,-79.1612169
628,Oakwood Avenue,27330,35.4833104,-79.1603882
524,Charlotte Avenue,27330,35.4840140,-79.1644024
520,Charlotte Avenue,27330,35.4839738,-79.1646552
518,Charlotte Avenue,27330,35.4839472,-79.1647983
618,Charlotte Avenue,27330,35.4845529,-79.1617672
615,McIver Street,27330,35.4841508,-79.1615995
532,Charlotte Avenue,27330,35.4841210,-79.1636797
604,Charlotte Avenue,27330,35.4842982,-79.1629371
600,Charlotte Avenue,27330,35.4842430,-79.1632199
111,South 9th Street,27330,35.4837762,-79.1630804
110,South 9th Street,27330,35.4837078,-79.1635218
601,McIver Street,27330,35.4835120,-79.1630090
605,McIver Street,27330,35.4835422,-79.1626976
607,McIver Street,27330,35.4836176,-79.1624572
613,McIver Street,27330,35.4837844,-79.1619549
617,McIver Street,27330,35.4837936,-79.1615326
621,McIver Street,27330,35.4838862,-79.1612074
635,Oakwood Avenue,27330,35.4840760,-79.1607928
646,Charlotte Avenue,27330,35.4846136,-79.1599999
639,Oakwood Avenue,27330,35.4844525,-79.1605694
641,Oakwood Avenue,27330,35.4846383,-79.1605982
632,Charlotte Avenue,27330,35.4847455,-79.1606802
626,Charlotte Avenue,27330,35.4846339,-79.1611594
628,Charlotte Avenue,27330,35.4846721,-79.1609612
527,McIver Street,27330,35.4833859,-79.1636534
523,McIver Street,27330,35.4833195,-79.1639857
517,McIver Street,27330,35.4832148,-79.1645336
102,South 8th Street,27330,35.4832809,-79.1650001
100,South 8th Street,27330,35.4837137,-79.1651451
610,Midland Avenue,27330,35.4856397,-79.1628769
527,North Avenue,27330,35.4873083,-79.1645693
519,North Avenue,27330,35.4871446,-79.1653958
216,McIver Street,27330,35.4807921,-79.1733292
222,McIver Street,27330,35.4809517,-79.1727559
226,McIver Street,27330,35.4810435,-79.1723401
115,North 1st Street,27330,35.4832722,-79.1755617
338,Carthage Street,27330,35.4795425,-79.1819774
705,Wall Street,27330,35.4767958,-79.1779365
707,Wall Street,27330,35.4768238,-79.1776656
711,Wall Street,27330,35.4768827,-79.1774860
713,Wall Street,27330,35.4768682,-79.1773247
412,McIver Street,27330,35.4823009,-79.1671935
416,McIver Street,27330,35.4823560,-79.1669013
418,McIver Street,27330,35.4823933,-79.1667369
420,McIver Street,27330,35.4824466,-79.1665641
608,McIver Street,27330,35.4831902,-79.1621092
606,McIver Street,27330,35.4831499,-79.1623229
604,McIver Street,27330,35.4831182,-79.1625013
602,McIver Street,27330,35.4830968,-79.1627045
600,McIver Street,27330,35.4830540,-79.1628869
530,McIver Street,27330,35.4830335,-79.1632745
210,Bragg Street,27330,35.4824801,-79.1637718
205,South 9th Street,27330,35.4828509,-79.1627261
207,South 9th Street,27330,35.4826876,-79.1627012
209,South 9th Street,27330,35.4825121,-79.1626596
614,Oakwood Avenue,27330,35.4826097,-79.1611848
618,Oakwood Avenue,27330,35.4827451,-79.1610747
1801,Boone Trail Road,27330,35.5143640,-79.2172391
415,Glenwood Drive,27330,35.5124183,-79.2147366
515,Nixon Drive,27330,35.5112573,-79.2165700
508,Nixon Drive,27330,35.5121062,-79.2166568
511,Nixon Drive,27330,35.5124924,-79.2168681
500,Nixon Drive,27330,35.5124964,-79.2160760
512,Glenwood Drive,27330,35.5130974,-79.2167654
535,Nixon Drive,27330,35.5103757,-79.2180747
528,Nixon Drive,27330,35.5119367,-79.2182366
623,Glenwood Drive,27330,35.5126360,-79.2211880
619,Glenwood Drive,27330,35.5125677,-79.2207083
620,Glenwood Drive,27330,35.5134890,-79.2207607
523,Glenwood Drive,27330,35.5124707,-79.2177506
527,Glenwood Drive,27330,35.5124933,-79.2181494
601,Glenwood Drive,27330,35.5125304,-79.2188325
605,Glenwood Drive,27330,35.5125832,-79.2191390
609,Glenwood Drive,27330,35.5125820,-79.2194057
613,Glenwood Drive,27330,35.5126258,-79.2199359
617,Glenwood Drive,27330,35.5126307,-79.2202141
508,Glenwood Drive,27330,35.5131200,-79.2164191
504,Glenwood Drive,27330,35.5130422,-79.2160961
500,Glenwood Drive,27330,35.5130542,-79.2157780
501,Nixon Drive,27330,35.5122560,-79.2153663
507,Nixon Drive,27330,35.5117622,-79.2159178
519,Nixon Drive,27330,35.5112088,-79.2168967
523,Nixon Drive,27330,35.5112516,-79.2172382
527,Nixon Drive,27330,35.5112468,-79.2175812
516,Nixon Drive,27330,35.5119020,-79.2171840
520,Nixon Drive,27330,35.5118956,-79.2175105
524,Nixon Drive,27330,35.5119240,-79.2178575
539,Nixon Drive,27330,35.5114000,-79.2186516
2916,Forest Glen Drive,27330,35.5108775,-79.2187344
2912,Forest Glen Drive,27330,35.5106096,-79.2187264
2908,Forest Glen Drive,27330,35.5103471,-79.2186983
2904,Forest Glen Drive,27330,35.5101593,-79.2186319
2900,Forest Glen Drive,27330,35.5099383,-79.2186876
2901,Forest Glen Drive,27330,35.5098710,-79.2191510
2905,Forest Glen Drive,27330,35.5100240,-79.2193211
2909,Forest Glen Drive,27330,35.5102620,-79.2193139
2913,Forest Glen Drive,27330,35.5105096,-79.2193108
2915,Forest Glen Drive,27330,35.5107381,-79.2193147
2917,Forest Glen Drive,27330,35.5109515,-79.2192819
600,Nixon Drive,27330,35.5119709,-79.2185494
604,Nixon Drive,27330,35.5119815,-79.2188947
606,Nixon Drive,27330,35.5119787,-79.2192337
608,Nixon Drive,27330,35.5119908,-79.2195708
620,Nixon Drive,27330,35.5120300,-79.2202143
628,Nixon Drive,27330,35.5120379,-79.2208709
2921,Forest Glen Drive,27330,35.5114254,-79.2193242
607,Nixon Drive,27330,35.5112504,-79.2198288
611,Nixon Drive,27330,35.5112742,-79.2201022
615,Nixon Drive,27330,35.5113041,-79.2203744
619,Nixon Drive,27330,35.5113720,-79.2206984
623,Nixon Drive,27330,35.5113640,-79.2209694
627,Nixon Drive,27330,35.5113625,-79.2212167
3103,Fitzpatrick Drive,27330,35.5118743,-79.2219355
3107,Fitzpatrick Drive,27330,35.5122948,-79.2219437
524,Glenwood Drive,27330,35.5131606,-79.2177729
528,Glenwood Drive,27330,35.5132205,-79.2183735
600,Glenwood Drive,27330,35.5131857,-79.2188222
602,Glenwood Drive,27330,35.5132182,-79.2191952
608,Glenwood Drive,27330,35.5132078,-79.2197748
612,Glenwood Drive,27330,35.5132235,-79.2201065
616,Glenwood Drive,27330,35.5132414,-79.2205063
624,Glenwood Drive,27330,35.5132705,-79.2212134
3111,Fitzpatrick Drive,27330,35.5128278,-79.2218350
305,South 7th Street,27330,35.4806569,-79.1653407
303,South 7th Street,27330,35.4807902,-79.1653534
408,Maple Avenue,27330,35.4806499,-79.1672619
215,South 5th Street,27330,35.4811025,-79.1681004
213,South 5th Street,27330,35.4812711,-79.1681610
209,South 5th Street,27330,35.4814989,-79.1682220
217,South 5th Street,27330,35.4809534,-79.1680640
109,South 4th Street,27330,35.4823669,-79.1700542
107,South 4th Street,27330,35.4825225,-79.1700359
311,McIver Street,27330,35.4820546,-79.1706016
110,South 3rd Street,27330,35.4818660,-79.1719250
505,Hickory Avenue,27330,35.4802229,-79.1647880
418,Maple Avenue,27330,35.4808685,-79.1664284
414,Maple Avenue,27330,35.4807860,-79.1666678
412,Maple Avenue,27330,35.4806989,-79.1669233
410,Maple Avenue,27330,35.4806670,-79.1671006
305,South 5th Street,27330,35.4801559,-79.1678443
307,South 5th Street,27330,35.4799724,-79.1678094
401,Hickory Avenue,27330,35.4796875,-79.1676778
403,Hickory Avenue,27330,35.4797323,-79.1674486
409,Hickory Avenue,27330,35.4798209,-79.1669088
413,Hickory Avenue,27330,35.4798919,-79.1664658
415,Hickory Avenue,27330,35.4799080,-79.1663023
417,Hickory Avenue,27330,35.4799667,-79.1661423
314,South 7th Street,27330,35.4800373,-79.1656336
312,South 7th Street,27330,35.4801674,-79.1656842
310,South 7th Street,27330,35.4802956,-79.1657107
308,South 7th Street,27330,35.4804374,-79.1657439
306,South 7th Street,27330,35.4805646,-79.1657982
304,South 7th Street,27330,35.4807254,-79.1658314
302,South 7th Street,27330,35.4808963,-79.1658886
301,South 7th Street,27330,35.4809932,-79.1654680
502,Maple Avenue,27330,35.4810307,-79.1653212
504,Maple Avenue,27330,35.4810631,-79.1651557
506,Maple Avenue,27330,35.4810849,-79.1649915
508,Maple Avenue,27330,35.4811278,-79.1648383
206,South 7th Street,27330,35.4821820,-79.1662196
208,South 7th Street,27330,35.4819003,-79.1662015
425,Maple Avenue,27330,35.4813737,-79.1659568
423,Maple Avenue,27330,35.4813227,-79.1661231
419,Maple Avenue,27330,35.4812895,-79.1663758
417,Maple Avenue,27330,35.4812772,-79.1665832
415,Maple Avenue,27330,35.4811954,-79.1667683
411,Maple Avenue,27330,35.4810996,-79.1672692
409,Maple Avenue,27330,35.4811105,-79.1674777
407,Maple Avenue,27330,35.4810428,-79.1676688
405,Maple Avenue,27330,35.4810261,-79.1678395
406,Maple Avenue,27330,35.4806037,-79.1674721
404,Maple Avenue,27330,35.4805129,-79.1676310
402,Maple Avenue,27330,35.4805033,-79.1678539
400,Maple Avenue,27330,35.4804757,-79.1679690
322,Hickory Avenue,27330,35.4790084,-79.1685271
320,Hickory Avenue,27330,35.4789988,-79.1687561
318,Hickory Avenue,27330,35.4789803,-79.1689091
316,Hickory Avenue,27330,35.4789245,-79.1690816
324,Maple Avenue,27330,35.4804062,-79.1685688
322,Maple Avenue,27330,35.4803392,-79.1688871
318,Maple Avenue,27330,35.4802695,-79.1691389
325,Hickory Avenue,27330,35.4795045,-79.1685454
327,Hickory Avenue,27330,35.4795448,-79.1683606
323,Hickory Avenue,27330,35.4794700,-79.1687337
224,Maple Avenue,27330,35.4798094,-79.1714069
222,Maple Avenue,27330,35.4797572,-79.1716486
215,South 4th Street,27330,35.4810146,-79.1695022
329,Maple Avenue,27330,35.4808685,-79.1686245
212,South 5th Street,27330,35.4811496,-79.1686288
211,South 4th Street,27330,35.4812116,-79.1696733
205,South 4th Street,27330,35.4815518,-79.1698328
318,McIver Street,27330,35.4817994,-79.1696258
316,McIver Street,27330,35.4817517,-79.1698951
400,McIver Street,27330,35.4820696,-79.1683783
404,McIver Street,27330,35.4821185,-79.1681088
406,McIver Street,27330,35.4821553,-79.1678650
408,McIver Street,27330,35.4822261,-79.1676246
409,McIver Street,27330,35.4826158,-79.1676725
407,McIver Street,27330,35.4825770,-79.1678639
405,McIver Street,27330,35.4825346,-79.1680852
403,McIver Street,27330,35.4825018,-79.1682548
401,McIver Street,27330,35.4824687,-79.1684848
329,McIver Street,27330,35.4823837,-79.1688728
327,McIver Street,27330,35.4823300,-79.1691426
325,McIver Street,27330,35.4822923,-79.1694499
321,McIver Street,27330,35.4822030,-79.1697324
317,McIver Street,27330,35.4821354,-79.1700125
208,South 3rd Street,27330,35.4807803,-79.1716811
206,South 3rd Street,27330,35.4809469,-79.1716834
233,McIver Street,27330,35.4816115,-79.1718878
107,South 3rd Street,27330,35.4822392,-79.1715429
109,South 3rd Street,27330,35.4820906,-79.1714965
303,McIver Street,27330,35.4818024,-79.1712573
307,McIver Street,27330,35.4819256,-79.1708352
110,South 4th Street,27330,35.4822941,-79.1704898
106,South 4th Street,27330,35.4824382,-79.1705497
404,Bridgewater Drive,27330,35.4802342,-79.2314276
2535,Victory Drive,27330,35.4823264,-79.2336575
240,Palace Drive,27330,35.4824985,-79.2341730
2544,Creek Trail,27330,35.4839975,-79.2348160
2540,Creek Trail,27330,35.4841055,-79.2345229
2527,Creek Trail,27330,35.4835372,-79.2334233
300,Waterside Drive,27330,35.4840648,-79.2355178
251,Palace Drive,27330,35.4834284,-79.2347460
247,Palace Drive,27330,35.4831097,-79.2347467
235,Palace Drive,27330,35.4822725,-79.2350225
239,Palace Drive,27330,35.4825462,-79.2348669
243,Palace Drive,27330,35.4828262,-79.2348068
231,Palace Drive,27330,35.4819304,-79.2348984
232,Palace Drive,27330,35.4819502,-79.2344893
236,Palace Drive,27330,35.4822025,-79.2342333
252,Palace Drive,27330,35.4836168,-79.2341713
248,Palace Drive,27330,35.4829935,-79.2341674
2538,Victory Drive,27330,35.4829495,-79.2338394
2534,Victory Drive,27330,35.4828810,-79.2334919
2530,Victory Drive,27330,35.4828706,-79.2331727
2526,Victory Drive,27330,35.4828905,-79.2327805
2531,Victory Drive,27330,35.4822833,-79.2333196
2511,Victory Drive,27330,35.4824968,-79.2316541
2515,Victory Drive,27330,35.4824350,-79.2319969
2519,Victory Drive,27330,35.4823973,-79.2323320
2516,Victory Drive,27330,35.4829482,-79.2322140
2524,Creek Trail,27330,35.4839395,-79.2329133
1011,Stoneybrook Drive,27330,35.4866604,-79.2301322
436,Petty Road,27330,35.4867286,-79.2312450
424,Petty Road,27330,35.4853073,-79.2334447
406,Petty Road,27330,35.4858044,-79.2335803
410,Petty Road,27330,35.4864112,-79.2339781
416,Petty Road,27330,35.4867823,-79.2333993
309,Waterside Drive,27330,35.4847035,-79.2359459
317,Waterside Drive,27330,35.4851443,-79.2359800
313,Waterside Drive,27330,35.4849197,-79.2359579
306,Waterside Drive,27330,35.4843989,-79.2354670
316,Waterside Drive,27330,35.4850854,-79.2354565
322,Waterside Drive,27330,35.4853777,-79.2354289
321,Waterside Drive,27330,35.4854300,-79.2360346
323,Waterside Drive,27330,35.4857444,-79.2359760
324,Waterside Drive,27330,35.4857548,-79.2354217
326,Waterside Drive,27330,35.4858507,-79.2357311
310,Waterside Drive,27330,35.4847630,-79.2354350
305,Waterside Drive,27330,35.4844715,-79.2359864
301,Waterside Drive,27330,35.4842593,-79.2360645
214,Brookfield Circle,27330,35.4819759,-79.2368148
205,Brookfield Circle,27330,35.4822319,-79.2377755
210,Brookfield Circle,27330,35.4819668,-79.2373037
218,Brookfield Circle,27330,35.4823436,-79.2366170
222,Brookfield Circle,27330,35.4826787,-79.2365482
228,Brookfield Circle,27330,35.4831653,-79.2372534
234,Brookfield Circle,27330,35.4834131,-79.2374193
240,Brookfield Circle,27330,35.4836866,-79.2374276
244,Brookfield Circle,27330,35.4839329,-79.2373289
248,Brookfield Circle,27330,35.4841304,-79.2372211
2619,Creek Trail,27330,35.4842891,-79.2377749
2627,Creek Trail,27330,35.4844494,-79.2384024
2623,Creek Trail,27330,35.4843922,-79.2380711
239,Brookfield Circle,27330,35.4836365,-79.2379986
243,Brookfield Circle,27330,35.4838802,-79.2379404
235,Brookfield Circle,27330,35.4834010,-79.2379773
231,Brookfield Circle,27330,35.4831920,-79.2378784
227,Brookfield Circle,27330,35.4829395,-79.2377000
223,Brookfield Circle,27330,35.4827228,-79.2375710
215,Brookfield Circle,27330,35.4824781,-79.2375462
181,Brookfield Circle,27330,35.4821409,-79.2381123
206,Brookfield Circle,27330,35.4818355,-79.2374841
202,Brookfield Circle,27330,35.4817442,-79.2377711
182,Brookfield Circle,27330,35.4817131,-79.2380692
178,Brookfield Circle,27330,35.4816800,-79.2383568
174,Brookfield Circle,27330,35.4816496,-79.2386467
179,Brookfield Circle,27330,35.4821376,-79.2384163
175,Brookfield Circle,27330,35.4820963,-79.2386910
171,Brookfield Circle,27330,35.4820866,-79.2390175
164,Brookfield Circle,27330,35.4814326,-79.2395526
169,Brookfield Circle,27330,35.4820075,-79.2393383
165,Brookfield Circle,27330,35.4819041,-79.2396288
161,Brookfield Circle,27330,35.4818375,-79.2399310
170,Brookfield Circle,27330,35.4816176,-79.2389606
166,Brookfield Circle,27330,35.4815618,-79.2392302
160,Brookfield Circle,27330,35.4813651,-79.2398987
2605,Mill Creek Court,27330,35.4810316,-79.2398970
2609,Mill Creek Court,27330,35.4808891,-79.2401476
2604,Mill Creek Court,27330,35.4809761,-79.2404824
127,Brookfield Circle,27330,35.4825017,-79.2398678
131,Brookfield Circle,27330,35.4822529,-79.2400839
149,Brookfield Circle,27330,35.4819899,-79.2403934
123,Brookfield Circle,27330,35.4826922,-79.2397174
119,Brookfield Circle,27330,35.4829821,-79.2395719
2704,Millstone Court,27330,35.4828501,-79.2392020
2708,Millstone Court,27330,35.4826136,-79.2388859
2712,Millstone Court,27330,35.4827320,-79.2385290
2713,Millstone Court,27330,35.4830342,-79.2384308
2709,Millstone Court,27330,35.4832138,-79.2387502
2705,Millstone Court,27330,35.4833410,-79.2389897
2701,Millstone Court,27330,35.4835164,-79.2392459
105,Brookfield Circle,27330,35.4838036,-79.2390263
101,Brookfield Circle,27330,35.4839829,-79.2387660
2701,Creek Trail,27330,35.4844132,-79.2387541
156,Brookfield Circle,27330,35.4813739,-79.2406194
152,Brookfield Circle,27330,35.4815037,-79.2408475
148,Brookfield Circle,27330,35.4817290,-79.2409668
144,Brookfield Circle,27330,35.4819293,-79.2410020
140,Brookfield Circle,27330,35.4821631,-79.2409289
136,Brookfield Circle,27330,35.4823719,-79.2407311
132,Brookfield Circle,27330,35.4825723,-79.2405507
128,Brookfield Circle,27330,35.4827487,-79.2403174
124,Brookfield Circle,27330,35.4829780,-79.2401637
120,Brookfield Circle,27330,35.4831961,-79.2400455
116,Brookfield Circle,27330,35.4834354,-79.2399212
112,Brookfield Circle,27330,35.4836464,-79.2397694
108,Brookfield Circle,27330,35.4838760,-79.2396231
104,Brookfield Circle,27330,35.4840580,-79.2394519
100,Brookfield Circle,27330,35.4843649,-79.2393603
311,Brookfield Circle,27330,35.4851557,-79.2375310
319,Brookfield Circle,27330,35.4854741,-79.2375923
327,Brookfield Circle,27330,35.4857945,-79.2377001
333,Brookfield Circle,27330,35.4860167,-79.2377724
337,Brookfield Circle,27330,35.4862436,-79.2378480
341,Brookfield Circle,27330,35.4864738,-79.2379560
351,Brookfield Circle,27330,35.4866599,-79.2382400
2700,Creek Trail,27330,35.4849035,-79.2388533
424,Brookfield Circle,27330,35.4852187,-79.2388323
420,Brookfield Circle,27330,35.4854329,-79.2389490
416,Brookfield Circle,27330,35.4856500,-79.2390751
412,Brookfield Circle,27330,35.4858851,-79.2392627
408,Brookfield Circle,27330,35.4860964,-79.2393877
404,Brookfield Circle,27330,35.4863663,-79.2394416
504,Tuscany Place,27330,35.4869080,-79.2396123
363,Brookfield Circle,27330,35.4867179,-79.2385848
401,Brookfield Circle,27330,35.4865106,-79.2388610
405,Brookfield Circle,27330,35.4862435,-79.2388942
411,Brookfield Circle,27330,35.4859879,-79.2387222
415,Brookfield Circle,27330,35.4857844,-79.2385569
419,Brookfield Circle,27330,35.4855540,-79.2384431
423,Brookfield Circle,27330,35.4853223,-79.2383116
427,Brookfield Circle,27330,35.4850696,-79.2382537
2624,Creek Trail,27330,35.4848737,-79.2379281
303,Brookfield Circle,27330,35.4847605,-79.2375338
300,Brookfield Circle,27330,35.4845519,-79.2370047
304,Brookfield Circle,27330,35.4847925,-79.2370060
308,Brookfield Circle,27330,35.4850481,-79.2369579
314,Brookfield Circle,27330,35.4853249,-79.2370234
320,Brookfield Circle,27330,35.4855552,-79.2370640
326,Brookfield Circle,27330,35.4857967,-79.2371578
330,Brookfield Circle,27330,35.4860631,-79.2372447
334,Brookfield Circle,27330,35.4862904,-79.2373199
338,Brookfield Circle,27330,35.4865223,-79.2374187
342,Brookfield Circle,27330,35.4867212,-79.2375129
346,Brookfield Circle,27330,35.4868907,-79.2376976
350,Brookfield Circle,27330,35.4870391,-79.2379078
354,Brookfield Circle,27330,35.4871320,-79.2381644
358,Brookfield Circle,27330,35.4871872,-79.2384469
362,Brookfield Circle,27330,35.4871314,-79.2387393
366,Brookfield Circle,27330,35.4870506,-79.2389827
4419,Lee Avenue,27332,35.4179435,-79.1469805
4415,Lee Avenue,27332,35.4181070,-79.1467016
4411,Lee Avenue,27332,35.4182674,-79.1464294
4407,Lee Avenue,27332,35.4184368,-79.1461513
4403,Lee Avenue,27332,35.4186068,-79.1458912
4331,Lee Avenue,27332,35.4190460,-79.1449024
4326,Lee Avenue,27332,35.4196981,-79.1452861
4334,Lee Avenue,27332,35.4194260,-79.1456709
4400,Lee Avenue,27332,35.4191750,-79.1460915
4404,Lee Avenue,27332,35.4190114,-79.1463551
4408,Lee Avenue,27332,35.4188622,-79.1466185
4416,Lee Avenue,27332,35.4185708,-79.1471104
4420,Lee Avenue,27332,35.4183856,-79.1474398
4424,Lee Avenue,27332,35.4182375,-79.1477034
4428,Lee Avenue,27332,35.4180815,-79.1479623
4432,Lee Avenue,27332,35.4179496,-79.1482292
4427,Lee Avenue,27332,35.4176379,-79.1475167
4431,Lee Avenue,27332,35.4174883,-79.1478132
202,Lochmere Drive,27332,35.4210134,-79.1360456
204,Lochmere Drive,27332,35.4210486,-79.1359162
206,Lochmere Drive,27332,35.4211309,-79.1357278
208,Lochmere Drive,27332,35.4211413,-79.1355312
210,Lochmere Drive,27332,35.4211992,-79.1353479
212,Lochmere Drive,27332,35.4212561,-79.1351585
214,Lochmere Drive,27332,35.4212925,-79.1349573
216,Lochmere Drive,27332,35.4213509,-79.1347703
218,Lochmere Drive,27332,35.4213912,-79.1345802
220,Lochmere Drive,27332,35.4214329,-79.1343775
222,Lochmere Drive,27332,35.4214954,-79.1342006
224,Lochmere Drive,27332,35.4215304,-79.1340101
226,Lochmere Drive,27332,35.4215589,-79.1338303
228,Lochmere Drive,27332,35.4216037,-79.1335787
227,Lochmere Drive,27332,35.4220388,-79.1338379
225,Lochmere Drive,27332,35.4219972,-79.1340368
223,Lochmere Drive,27332,35.4219439,-79.1342300
221,Lochmere Drive,27332,35.4218652,-79.1344113
219,Lochmere Drive,27332,35.4218277,-79.1345996
217,Lochmere Drive,27332,35.4217901,-79.1347982
215,Lochmere Drive,27332,35.4217345,-79.1349826
213,Lochmere Drive,27332,35.4216853,-79.1351767
211,Lochmere Drive,27332,35.4216563,-79.1353729
209,Lochmere Drive,27332,35.4215930,-79.1355698
207,Lochmere Drive,27332,35.4215420,-79.1357517
205,Lochmere Drive,27332,35.4215019,-79.1359188
203,Lochmere Drive,27332,35.4214501,-79.1360840
201,Lochmere Drive,27332,35.4214134,-79.1362706
102,Lochmere Drive,27332,35.4217144,-79.1365126
104,Lochmere Drive,27332,35.4217524,-79.1362977
106,Lochmere Drive,27332,35.4218324,-79.1361184
108,Lochmere Drive,27332,35.4218720,-79.1359016
110,Lochmere Drive,27332,35.4219335,-79.1357175
112,Lochmere Drive,27332,35.4219826,-79.1355236
114,Lochmere Drive,27332,35.4220329,-79.1353309
116,Lochmere Drive,27332,35.4220799,-79.1351422
118,Lochmere Drive,27332,35.4221256,-79.1349421
120,Lochmere Drive,27332,35.4221791,-79.1347496
122,Lochmere Drive,27332,35.4222195,-79.1345696
124,Lochmere Drive,27332,35.4222716,-79.1343759
126,Lochmere Drive,27332,35.4223101,-79.1341920
128,Lochmere Drive,27332,35.4223580,-79.1340114
130,Lochmere Drive,27332,35.4223926,-79.1338463
132,Lochmere Drive,27332,35.4224356,-79.1336819
229,Lochmere Drive,27332,35.4220782,-79.1336073
231,Lochmere Drive,27332,35.4221197,-79.1334510
230,Lochmere Drive,27332,35.4216624,-79.1333841
232,Lochmere Drive,27332,35.4217287,-79.1331696
234,Lochmere Drive,27332,35.4218299,-79.1327930
143,Lochmere Drive,27332,35.4221418,-79.1329209
141,Lochmere Drive,27332,35.4222856,-79.1330493
139,Lochmere Drive,27332,35.4224734,-79.1331706
137,Lochmere Drive,27332,35.4226189,-79.1332613
133,Lochmere Drive,27332,35.4228308,-79.1333778
131,Lochmere Drive,27332,35.4229110,-79.1335964
129,Lochmere Drive,27332,35.4228482,-79.1337583
127,Lochmere Drive,27332,35.4228268,-79.1339247
115,Lochmere Drive,27332,35.4225030,-79.1352177
125,Lochmere Drive,27332,35.4227852,-79.1340858
123,Lochmere Drive,27332,35.4226826,-79.1344735
121,Lochmere Drive,27332,35.4226287,-79.1346626
119,Lochmere Drive,27332,35.4225866,-79.1348553
117,Lochmere Drive,27332,35.4225425,-79.1350296
113,Lochmere Drive,27332,35.4224387,-79.1354264
111,Lochmere Drive,27332,35.4223799,-79.1356140
109,Lochmere Drive,27332,35.4223391,-79.1357809
107,Lochmere Drive,27332,35.4222983,-79.1359944
105,Lochmere Drive,27332,35.4222424,-79.1361836
103,Lochmere Drive,27332,35.4221949,-79.1363899
101,Lochmere Drive,27332,35.4221569,-79.1365677
99,Lochmere Drive,27332,35.4222171,-79.1369325
4302,Lee Avenue,27332,35.4207257,-79.1437164
4306,Lee Avenue,27332,35.4205481,-79.1439990
4310,Lee Avenue,27332,35.4203815,-79.1442521
4314,Lee Avenue,27332,35.4202043,-79.1445163
4318,Lee Avenue,27332,35.4200460,-79.1448143
4322,Lee Avenue,27332,35.4198568,-79.1450547
5125,South Pointe,27332,35.4182102,-79.1381942
5109,South Pointe,27332,35.4181149,-79.1387175
5117,South Pointe,27332,35.4180645,-79.1384277
5131,South Pointe,27332,35.4183368,-79.1379233
5135,South Pointe,27332,35.4182512,-79.1376183
5132,South Pointe,27332,35.4178085,-79.1376642
5124,South Pointe,27332,35.4176646,-79.1381310
5120,South Pointe,27332,35.4176371,-79.1383920
5112,South Pointe,27332,35.4176958,-79.1389165
5104,South Pointe,27332,35.4179282,-79.1393211
5108,South Pointe,27332,35.4177968,-79.1391412
5100,South Pointe,27332,35.4180822,-79.1395272
1219,First Pointe,27332,35.4188593,-79.1382388
1223,First Pointe,27332,35.4186942,-79.1384067
1227,First Pointe,27332,35.4185778,-79.1385926
1231,First Pointe,27332,35.4184238,-79.1387890
1235,First Pointe,27332,35.4182938,-79.1390331
1215,First Pointe,27332,35.4190723,-79.1381004
5001,North Pointe,27332,35.4200790,-79.1387225
5005,North Pointe,27332,35.4198248,-79.1387742
5021,North Pointe,27332,35.4190120,-79.1394945
5017,North Pointe,27332,35.4191803,-79.1392843
5009,North Pointe,27332,35.4195931,-79.1388826
5013,North Pointe,27332,35.4193942,-79.1390440
4918,South Pointe,27332,35.4190825,-79.1401821
5000,South Pointe,27332,35.4188762,-79.1400884
4914,South Pointe,27332,35.4193007,-79.1402940
4910,South Pointe,27332,35.4194650,-79.1404091
4906,South Pointe,27332,35.4196570,-79.1405416
5007,South Pointe,27332,35.4186645,-79.1393571
1228,First Pointe,27332,35.4187863,-79.1390458
1224,First Pointe,27332,35.4189837,-79.1388001
1214,First Pointe,27332,35.4194057,-79.1384771
1218,First Pointe,27332,35.4191460,-79.1386215
1206,First Pointe,27332,35.4199918,-79.1382766
1210,First Pointe,27332,35.4196776,-79.1383441
1200,First Pointe,27332,35.4201702,-79.1380532
1201,First Pointe,27332,35.4200927,-79.1377844
1205,First Pointe,27332,35.4199006,-79.1376339
4916,North Pointe,27332,35.4203268,-79.1392321
5004,North Pointe,27332,35.4200277,-79.1392303
4912,North Pointe,27332,35.4206115,-79.1393221
5008,North Pointe,27332,35.4197776,-79.1393321
5014,North Pointe,27332,35.4195863,-79.1395289
4913,South Pointe,27332,35.4194407,-79.1398338
4909,South Pointe,27332,35.4196886,-79.1399851
4905,South Pointe,27332,35.4199223,-79.1401699
5004,South Pointe,27332,35.4186692,-79.1399221
5008,South Pointe,27332,35.4184955,-79.1397720
1308,First Pointe,27332,35.4182857,-79.1402762
1312,First Pointe,27332,35.4182464,-79.1405466
1313,First Pointe,27332,35.4178333,-79.1405190
5201,Laurel Ridge Drive,27332,35.4177926,-79.1408236
1309,First Pointe,27332,35.4178876,-79.1401889
5125,Laurel Ridge Drive,27332,35.4182871,-79.1408742
5121,Laurel Ridge Drive,27332,35.4185280,-79.1408799
5117,Laurel Ridge Drive,27332,35.4187649,-79.1408895
5113,Laurel Ridge Drive,27332,35.4189884,-79.1409541
5100,Laurel Ridge Drive,27332,35.4192084,-79.1418148
5104,Laurel Ridge Drive,27332,35.4190425,-79.1416986
5108,Laurel Ridge Drive,27332,35.4188461,-79.1415694
5112,Laurel Ridge Drive,27332,35.4186639,-79.1415120
5116,Laurel Ridge Drive,27332,35.4184566,-79.1414731
5120,Laurel Ridge Drive,27332,35.4182528,-79.1414458
5124,Laurel Ridge Drive,27332,35.4180395,-79.1414368
5200,Laurel Ridge Drive,27332,35.4178237,-79.1414077
5204,Laurel Ridge Drive,27332,35.4176016,-79.1413993
5203,Laurel Ridge Drive,27332,35.4174837,-79.1407204
5205,Laurel Ridge Drive,27332,35.4172979,-79.1406260
4813,North Pointe,27332,35.4215154,-79.1393159
4901,North Pointe,27332,35.4212732,-79.1391670
5109,Laurel Ridge Drive,27332,35.4191978,-79.1410948
5105,Laurel Ridge Drive,27332,35.4194085,-79.1412148
1301,East Pointe,27332,35.4198541,-79.1407125
4901,South Pointe,27332,35.4200985,-79.1403021
1201,East Pointe,27332,35.4204073,-79.1400466
1109,East Pointe,27332,35.4205608,-79.1399047
1105,East Pointe,27332,35.4207384,-79.1397525
1101,East Pointe,27332,35.4208982,-79.1395488
4913,North Pointe,27332,35.4206014,-79.1387803
4909,North Pointe,27332,35.4208326,-79.1388992
4905,North Pointe,27332,35.4211187,-79.1389697
4810,North Pointe,27332,35.4215362,-79.1398798
4806,North Pointe,27332,35.4217386,-79.1400904
4805,North Pointe,27332,35.4219875,-79.1394662
4809,North Pointe,27332,35.4217467,-79.1393835
4801,North Pointe,27332,35.4220180,-79.1397200
4802,North Pointe,27332,35.4219387,-79.1399253
1206,East Pointe,27332,35.4204242,-79.1407330
1300,East Pointe,27332,35.4202703,-79.1409197
1304,East Pointe,27332,35.4201266,-79.1411662
1205,West Pointe,27332,35.4207087,-79.1409087
1200,East Pointe,27332,35.4206292,-79.1405175
1100,East Pointe,27332,35.4213027,-79.1398525
1104,East Pointe,27332,35.4210407,-79.1401682
1204,West Pointe,27332,35.4211427,-79.1405242
1208,West Pointe,27332,35.4211654,-79.1410390
1212,West Pointe,27332,35.4211278,-79.1412861
1209,West Pointe,27332,35.4205636,-79.1412531
1213,West Pointe,27332,35.4205725,-79.1415809
1217,West Pointe,27332,35.4207445,-79.1417552
1216,West Pointe,27332,35.4209970,-79.1416327
1509,East Pointe,27332,35.4175419,-79.1420525
1507,East Pointe,27332,35.4177631,-79.1420361
1505,East Pointe,27332,35.4179679,-79.1420668
1503,East Pointe,27332,35.4181620,-79.1421026
1501,East Pointe,27332,35.4183469,-79.1421530
1407,East Pointe,27332,35.4185364,-79.1421567
1405,East Pointe,27332,35.4187512,-79.1422150
1403,East Pointe,27332,35.4189774,-79.1422174
4301,Lenity Lane,27332,35.4182299,-79.1426354
4303,Lenity Lane,27332,35.4181901,-79.1429528
4305,Lenity Lane,27332,35.4181904,-79.1432663
4304,Lenity Lane,27332,35.4186208,-79.1430226
1408,East Pointe,27332,35.4186760,-79.1427142
1406,East Pointe,27332,35.4189679,-79.1427687
1404,East Pointe,27332,35.4191656,-79.1427056
1402,East Pointe,27332,35.4193522,-79.1425129
5020,Laurel Ridge Drive,27332,35.4195649,-79.1421179
5021,Laurel Ridge Drive,27332,35.4198902,-79.1415556
5017,Laurel Ridge Drive,27332,35.4200842,-79.1417349
5013,Laurel Ridge Drive,27332,35.4202623,-79.1419230
5009,Laurel Ridge Drive,27332,35.4204741,-79.1420923
5005,Laurel Ridge Drive,27332,35.4206612,-79.1422841
5016,Laurel Ridge Drive,27332,35.4197671,-79.1422507
5012,Laurel Ridge Drive,27332,35.4199484,-79.1424093
5008,Laurel Ridge Drive,27332,35.4201243,-79.1425856
5004,Laurel Ridge Drive,27332,35.4202948,-79.1427762
5000,Laurel Ridge Drive,27332,35.4204676,-79.1429512
113,Lantana Circle,27332,35.4529165,-79.1258581
112,Lantana Circle,27332,35.4527774,-79.1258568
111,Lantana Circle,27332,35.4526438,-79.1258629
110,Lantana Circle,27332,35.4525087,-79.1258420
109,Lantana Circle,27332,35.4523719,-79.1258278
108,Lantana Circle,27332,35.4522372,-79.1258187
107,Lantana Circle,27332,35.4521003,-79.1258086
106,Lantana Circle,27332,35.4519607,-79.1258034
105,Lantana Circle,27332,35.4518234,-79.1257992
104,Lantana Circle,27332,35.4516827,-79.1257773
103,Lantana Circle,27332,35.4515789,-79.1257758
86,Sumac Street,27332,35.4532875,-79.1260707
85,Sumac Street,27332,35.4532761,-79.1259137
84,Sumac Street,27332,35.4532899,-79.1257390
83,Sumac Street,27332,35.4532680,-79.1255750
82,Sumac Street,27332,35.4532672,-79.1254118
81,Sumac Street,27332,35.4532494,-79.1252609
80,Sumac Street,27332,35.4532474,-79.1250994
79,Sumac Street,27332,35.4532474,-79.1249156
78,Sumac Street,27332,35.4532385,-79.1247489
77,Sumac Street,27332,35.4532309,-79.1245832
114,Coralberry Circle,27332,35.4528991,-79.1255283
115,Coralberry Circle,27332,35.4527876,-79.1255229
116,Coralberry Circle,27332,35.4526451,-79.1255123
117,Coralberry Circle,27332,35.4525025,-79.1255015
118,Coralberry Circle,27332,35.4523701,-79.1254329
119,Coralberry Circle,27332,35.4522408,-79.1254543
120,Coralberry Circle,27332,35.4520948,-79.1254465
123,Coralberry Circle,27332,35.4516888,-79.1254021
125,Coralberry Circle,27332,35.4514167,-79.1253916
127,Coralberry Circle,27332,35.4511598,-79.1253302
128,Coralberry Circle,27332,35.4510304,-79.1248409
129,Coralberry Circle,27332,35.4511718,-79.1248676
130,Coralberry Circle,27332,35.4513041,-79.1249031
136,Coralberry Circle,27332,35.4521168,-79.1249442
137,Coralberry Circle,27332,35.4522483,-79.1249384
138,Coralberry Circle,27332,35.4523911,-79.1249510
140,Coralberry Circle,27332,35.4526642,-79.1250477
142-A,Sumac Street,27332,35.4529366,-79.1250316
142-B,Sumac Street,27332,35.4527888,-79.1248466
143,Alder Lane,27332,35.4528400,-79.1245644
144,Alder Lane,27332,35.4526968,-79.1245490
145,Alder Lane,27332,35.4525626,-79.1245107
146,Alder Lane,27332,35.4524242,-79.1244923
147,Alder Lane,27332,35.4522913,-79.1244990
148,Alder Lane,27332,35.4521564,-79.1244918
149,Alder Lane,27332,35.4520250,-79.1244704
154,Alder Lane,27332,35.4513388,-79.1243930
155,Alder Lane,27332,35.4512045,-79.1243799
156,Alder Lane,27332,35.4510649,-79.1243652
157,Alder Lane,27332,35.4509290,-79.1243334
158,Alder Lane,27332,35.4507923,-79.1243330
75,Sumac Street,27332,35.4531863,-79.1242524
76,Sumac Street,27332,35.4531963,-79.1244239
73,Alder Lane,27332,35.4528728,-79.1240551
73-A,Alder Lane,27332,35.4527376,-79.1240648
72,Alder Lane,27332,35.4525992,-79.1240241
71,Alder Lane,27332,35.4524700,-79.1239949
70,Alder Lane,27332,35.4523207,-79.1240246
69,Alder Lane,27332,35.4521882,-79.1240059
68,Alder Lane,27332,35.4520459,-79.1240069
67,Alder Lane,27332,35.4519089,-79.1239680
66,Alder Lane,27332,35.4517753,-79.1239532
65,Alder Lane,27332,35.4516423,-79.1239267
64,Alder Lane,27332,35.4515023,-79.1239384
63,Alder Lane,27332,35.4513644,-79.1239053
61,Alder Lane,27332,35.4510939,-79.1238900
60,Alder Lane,27332,35.4509568,-79.1239019
59,Alder Lane,27332,35.4508253,-79.1238928
12,Firethorn Lane,27332,35.4505663,-79.1234430
13,Firethorn Lane,27332,35.4506598,-79.1232461
15,Firethorn Lane,27332,35.4508435,-79.1228340
14,Firethorn Lane,27332,35.4507592,-79.1230463
33,Bayberry Lane,27332,35.4511957,-79.1229325
34,Bayberry Lane,27332,35.4513345,-79.1229197
35,Bayberry Lane,27332,35.4514705,-79.1229277
36,Bayberry Lane,27332,35.4516006,-79.1229584
38,Bayberry Lane,27332,35.4518803,-79.1229876
39,Bayberry Lane,27332,35.4520162,-79.1230003
40,Bayberry Lane,27332,35.4521569,-79.1230428
41,Bayberry Lane,27332,35.4522891,-79.1230184
43,Bayberry Lane,27332,35.4525606,-79.1230639
44,Bayberry Lane,27332,35.4527206,-79.1230205
45,Bayberry Lane,27332,35.4528387,-79.1230935
45-A,Bayberry Lane,27332,35.4529708,-79.1232276
48,Bayberry Lane,27332,35.4523584,-79.1235424
47,Bayberry Lane,27332,35.4524473,-79.1235402
49,Bayberry Lane,27332,35.4522192,-79.1235373
166,Firethorn Lane,27332,35.4504969,-79.1258691
18,Firethorn Lane,27332,35.4513318,-79.1220378
165,Firethorn Lane,27332,35.4499061,-79.1258482
167,Firethorn Lane,27332,35.4499846,-79.1256839
168,Firethorn Lane,27332,35.4500899,-79.1255516
1,Firethorn Lane,27332,35.4501227,-79.1254066
2,Firethorn Lane,27332,35.4501935,-79.1252786
3,Firethorn Lane,27332,35.4502257,-79.1250890
151,Alder Lane,27332,35.4517452,-79.1244152
150,Alder Lane,27332,35.4518395,-79.1244430
152,Alder Lane,27332,35.4516220,-79.1244466
153,Alder Lane,27332,35.4514722,-79.1243977
50,Bayberry Lane,27332,35.4520934,-79.1235368
51,Bayberry Lane,27332,35.4519498,-79.1235211
58,Bayberry Lane,27332,35.4509819,-79.1234054
57,Bayberry Lane,27332,35.4511248,-79.1233993
56,Bayberry Lane,27332,35.4512476,-79.1234036
55,Bayberry Lane,27332,35.4514012,-79.1234151
54,Bayberry Lane,27332,35.4515351,-79.1234480
37,Bayberry Lane,27332,35.4517453,-79.1229915
20,Willow Circle,27332,35.4516961,-79.1219860
21,Willow Circle,27332,35.4518327,-79.1220451
16,Firethorn Lane,27332,35.4510240,-79.1223605
31,Willow Circle,27332,35.4515527,-79.1224761
45-C,Bayberry Lane,27332,35.4528433,-79.1236007
46,Bayberry Lane,27332,35.4526386,-79.1235570
32,Willow Circle,27332,35.4514157,-79.1224634
30,Willow Circle,27332,35.4516849,-79.1225024
27,Willow Circle,27332,35.4521004,-79.1225545
26,Willow Circle,27332,35.4522369,-79.1225487
25,Willow Circle,27332,35.4524110,-79.1225439
2165,Deep River Road,27330,35.5720523,-79.1652682
3101,Seth Drive,27330,35.5298156,-79.1792816
3102,Seth Drive,27330,35.5298262,-79.1785553
3002,Rena Lane,27330,35.5307179,-79.1757514
3006,Rena Lane,27330,35.5308891,-79.1758368
406,Henry Circle,27330,35.5311083,-79.1754457
410,Henry Circle,27330,35.5311747,-79.1751093
414,Henry Circle,27330,35.5314475,-79.1749285
413,Henry Circle,27330,35.5316537,-79.1751296
409,Henry Circle,27330,35.5317068,-79.1754089
404,Wade Drive,27330,35.5318903,-79.1760339
408,Wade Drive,27330,35.5320407,-79.1757133
405,Henry Circle,27330,35.5315046,-79.1757769
3102,Rena Lane,27330,35.5312624,-79.1761557
3106,Rena Lane,27330,35.5314439,-79.1763398
3110,Rena Lane,27330,35.5316435,-79.1764781
3103,Rena Lane,27330,35.5310398,-79.1767074
3009,Rena Lane,27330,35.5308404,-79.1765654
3005,Rena Lane,27330,35.5306327,-79.1763567
3001,Rena Lane,27330,35.5304314,-79.1762514
3213,Rena Lane,27330,35.5325597,-79.1773656
3109,Rena Lane,27330,35.5313200,-79.1769261
322,Wade Drive,27330,35.5312699,-79.1772649
318,Wade Drive,27330,35.5311976,-79.1775607
314,Wade Drive,27330,35.5311985,-79.1778203
310,Wade Drive,27330,35.5311514,-79.1780823
313,Wade Drive,27330,35.5316260,-79.1778565
309,Wade Drive,27330,35.5316205,-79.1781478
305,Wade Drive,27330,35.5315913,-79.1784277
306,Wade Drive,27330,35.5311300,-79.1783601
301,Wade Drive,27330,35.5315456,-79.1786878
3212,Seth Drive,27330,35.5319983,-79.1786674
302,Wade Drive,27330,35.5310964,-79.1786976
3118,Seth Drive,27330,35.5307641,-79.1787116
3114,Seth Drive,27330,35.5305216,-79.1787064
3110,Seth Drive,27330,35.5302926,-79.1786955
3113,Seth Drive,27330,35.5305955,-79.1792552
3109,Seth Drive,27330,35.5303402,-79.1792499
3105,Seth Drive,27330,35.5300776,-79.1792438
3106,Seth Drive,27330,35.5300735,-79.1786933
3117,Seth Drive,27330,35.5308429,-79.1792723
3121,Seth Drive,27330,35.5310912,-79.1792755
3125,Seth Drive,27330,35.5313170,-79.1792874
3201,Seth Drive,27330,35.5315783,-79.1792956
3205,Seth Drive,27330,35.5318215,-79.1792814
3209,Seth Drive,27330,35.5320618,-79.1792392
3213,Seth Drive,27330,35.5322915,-79.1791142
3221,Seth Drive,27330,35.5327470,-79.1787511
3217,Seth Drive,27330,35.5324963,-79.1789429
3216,Seth Drive,27330,35.5322281,-79.1784941
404,Joey Court,27330,35.5321009,-79.1779380
3220,Seth Drive,27330,35.5324121,-79.1783512
405,Joey Court,27330,35.5322513,-79.1776716
401,Joey Court,27330,35.5326350,-79.1777434
3207,Rena Lane,27330,35.5322213,-79.1773288
317,Wade Drive,27330,35.5316645,-79.1776068
3201,Rena Lane,27330,35.5317853,-79.1772828
401,Wade Drive,27330,35.5320743,-79.1767147
3206,Rena Lane,27330,35.5323577,-79.1767762
3304,Seth Drive,27330,35.5326504,-79.1767323
3308,Seth Drive,27330,35.5325679,-79.1763754
405,Wade Drive,27330,35.5323352,-79.1761946
500,Wade Drive,27330,35.5322149,-79.1754360
504,Wade Drive,27330,35.5325216,-79.1751932
505,Wade Drive,27330,35.5327246,-79.1754033
501,Wade Drive,27330,35.5327582,-79.1757370
3313,Seth Drive,27330,35.5329374,-79.1760000
3309,Seth Drive,27330,35.5330426,-79.1762267
3305,Seth Drive,27330,35.5330692,-79.1765214
3301,Seth Drive,27330,35.5331261,-79.1768127
3241,Seth Drive,27330,35.5330946,-79.1774061
3237,Seth Drive,27330,35.5331063,-79.1777896
3233,Seth Drive,27330,35.5330896,-79.1780617
3229,Seth Drive,27330,35.5330209,-79.1783402
3225,Seth Drive,27330,35.5329144,-79.1785766
901,Merchant Court,27330,35.4488266,-79.1920878
903,Merchant Court,27330,35.4487508,-79.1923051
905,Merchant Court,27330,35.4486358,-79.1925164
907,Merchant Court,27330,35.4485197,-79.1927400
909,Merchant Court,27330,35.4484136,-79.1928446
911,Merchant Court,27330,35.4482723,-79.1929708
913,Merchant Court,27330,35.4481509,-79.1931046
915,Merchant Court,27330,35.4479865,-79.1931826
917,Merchant Court,27330,35.4478396,-79.1933138
918,Merchant Court,27330,35.4478737,-79.1938373
916,Merchant Court,27330,35.4482011,-79.1938411
914,Merchant Court,27330,35.4483187,-79.1936388
912,Merchant Court,27330,35.4484340,-79.1934942
910,Merchant Court,27330,35.4485642,-79.1933666
908,Merchant Court,27330,35.4486921,-79.1932403
906,Merchant Court,27330,35.4488189,-79.1930790
904,Merchant Court,27330,35.4489427,-79.1929222
401,Quartermaster Drive,27330,35.4491235,-79.1916992
323,Quartermaster Drive,27330,35.4492757,-79.1917905
321,Quartermaster Drive,27330,35.4494294,-79.1919163
314,Quartermaster Drive,27330,35.4495214,-79.1926557
317,Quartermaster Drive,27330,35.4497386,-79.1921654
315,Quartermaster Drive,27330,35.4498673,-79.1922716
313,Quartermaster Drive,27330,35.4499943,-79.1924533
311,Quartermaster Drive,27330,35.4500748,-79.1927051
802,Plateau Court,27330,35.4504067,-79.1927120
804,Plateau Court,27330,35.4505663,-79.1929295
806,Plateau Court,27330,35.4504907,-79.1932423
310,Quartermaster Drive,27330,35.4496324,-79.1929196
306,Quartermaster Drive,27330,35.4496475,-79.1931961
304,Quartermaster Drive,27330,35.4496639,-79.1934429
302,Quartermaster Drive,27330,35.4497063,-79.1936917
305,Quartermaster Drive,27330,35.4500816,-79.1932784
303,Quartermaster Drive,27330,35.4501521,-79.1935184
301,Quartermaster Drive,27330,35.4503312,-79.1937482
901,Amanda Drive,27330,35.4500139,-79.1941544
903,Amanda Drive,27330,35.4499229,-79.1943349
905,Amanda Drive,27330,35.4498442,-79.1945164
907,Amanda Drive,27330,35.4497372,-79.1946844
909,Amanda Drive,27330,35.4496615,-79.1948585
911,Amanda Drive,27330,35.4495470,-79.1950325
208,Quartermaster Drive,27330,35.4511878,-79.1952494
210,Quartermaster Drive,27330,35.4510623,-79.1951131
212,Quartermaster Drive,27330,35.4509281,-79.1949921
214,Quartermaster Drive,27330,35.4507992,-79.1948648
216,Quartermaster Drive,27330,35.4506642,-79.1947284
900,Amanda Drive,27330,35.4503870,-79.1944658
902,Amanda Drive,27330,35.4502657,-79.1946464
904,Amanda Drive,27330,35.4501606,-79.1948462
906,Amanda Drive,27330,35.4500590,-79.1950279
219,Chownings Drive,27330,35.4503248,-79.1952712
217,Chownings Drive,27330,35.4504546,-79.1953893
215,Chownings Drive,27330,35.4505940,-79.1955020
213,Chownings Drive,27330,35.4507349,-79.1956255
211,Chownings Drive,27330,35.4509004,-79.1957874
209,Chownings Drive,27330,35.4511149,-79.1959827
137,Chownings Drive,27330,35.4512295,-79.1960968
135,Chownings Drive,27330,35.4514039,-79.1961486
133,Chownings Drive,27330,35.4515675,-79.1961862
206,Quartermaster Drive,27330,35.4515100,-79.1954956
204,Quartermaster Drive,27330,35.4516589,-79.1955654
202,Quartermaster Drive,27330,35.4518498,-79.1956234
200,Quartermaster Drive,27330,35.4520245,-79.1956646
903,Golden Horseshoe Lane,27330,35.4519663,-79.1960410
907,Golden Horseshoe Lane,27330,35.4519229,-79.1962550
140,Chownings Drive,27330,35.4509414,-79.1965184
138,Chownings Drive,27330,35.4511021,-79.1965816
136,Chownings Drive,27330,35.4512625,-79.1966560
134,Chownings Drive,27330,35.4514258,-79.1966969
132,Chownings Drive,27330,35.4515891,-79.1967012
130,Chownings Drive,27330,35.4517624,-79.1967600
128,Chownings Drive,27330,35.4519396,-79.1967760
126,Chownings Drive,27330,35.4520989,-79.1967967
124,Chownings Drive,27330,35.4522662,-79.1968556
122,Chownings Drive,27330,35.4524332,-79.1968669
120,Chownings Drive,27330,35.4525967,-79.1968983
118,Chownings Drive,27330,35.4527689,-79.1969082
116,Chownings Drive,27330,35.4529331,-79.1969458
114,Chownings Drive,27330,35.4530968,-79.1969974
112,Chownings Drive,27330,35.4532635,-79.1970036
110,Chownings Drive,27330,35.4534302,-79.1970482
108,Chownings Drive,27330,35.4535970,-79.1970669
106,Chownings Drive,27330,35.4537922,-79.1971056
808,Golden Horseshoe Lane,27330,35.4538034,-79.1920937
812,Golden Horseshoe Lane,27330,35.4536714,-79.1922536
816,Golden Horseshoe Lane,27330,35.4535699,-79.1924315
832,Golden Horseshoe Lane,27330,35.4532450,-79.1932135
836,Golden Horseshoe Lane,27330,35.4531361,-79.1934217
840,Golden Horseshoe Lane,27330,35.4530164,-79.1936168
844,Golden Horseshoe Lane,27330,35.4528947,-79.1938160
848,Golden Horseshoe Lane,27330,35.4527745,-79.1940206
852,Golden Horseshoe Lane,27330,35.4526896,-79.1942253
856,Golden Horseshoe Lane,27330,35.4526146,-79.1944410
864,Golden Horseshoe Lane,27330,35.4525607,-79.1946490
868,Golden Horseshoe Lane,27330,35.4525484,-79.1948555
872,Golden Horseshoe Lane,27330,35.4525222,-79.1950456
876,Golden Horseshoe Lane,27330,35.4524788,-79.1952474
873,Golden Horseshoe Lane,27330,35.4520829,-79.1951571
871,Golden Horseshoe Lane,27330,35.4521162,-79.1949858
869,Golden Horseshoe Lane,27330,35.4521505,-79.1947880
865,Golden Horseshoe Lane,27330,35.4521886,-79.1945966
861,Golden Horseshoe Lane,27330,35.4522074,-79.1943883
857,Golden Horseshoe Lane,27330,35.4522645,-79.1941694
853,Golden Horseshoe Lane,27330,35.4523736,-79.1939290
841,Golden Horseshoe Lane,27330,35.4526829,-79.1933389
837,Golden Horseshoe Lane,27330,35.4528104,-79.1931201
833,Golden Horseshoe Lane,27330,35.4529338,-79.1929152
829,Golden Horseshoe Lane,27330,35.4530066,-79.1926878
825,Golden Horseshoe Lane,27330,35.4530862,-79.1924661
821,Golden Horseshoe Lane,27330,35.4531790,-79.1922417
817,Golden Horseshoe Lane,27330,35.4533040,-79.1920400
813,Golden Horseshoe Lane,27330,35.4534303,-79.1918295
809,Golden Horseshoe Lane,27330,35.4535767,-79.1916590
805,Golden Horseshoe Lane,27330,35.4537862,-79.1915106
238,Palace Green Lane,27330,35.4534533,-79.1954596
234,Palace Green Lane,27330,35.4534897,-79.1952538
230,Palace Green Lane,27330,35.4535194,-79.1950280
226,Palace Green Lane,27330,35.4535537,-79.1947943
224,Palace Green Lane,27330,35.4536126,-79.1945442
220,Palace Green Lane,27330,35.4537351,-79.1943484
210,Palace Green Lane,27330,35.4539988,-79.1946807
206,Palace Green Lane,27330,35.4539658,-79.1949036
204,Palace Green Lane,27330,35.4539305,-79.1951370
200,Palace Green Lane,27330,35.4538803,-79.1955578
202,Palace Green Lane,27330,35.4539189,-79.1953694
235,Palace Green Lane,27330,35.4530258,-79.1953672
233,Palace Green Lane,27330,35.4530631,-79.1951658
231,Palace Green Lane,27330,35.4530801,-79.1949747
229,Palace Green Lane,27330,35.4531232,-79.1947849
227,Palace Green Lane,27330,35.4531611,-79.1945726
225,Palace Green Lane,27330,35.4532064,-79.1943639
223,Palace Green Lane,27330,35.4533197,-79.1941800
221,Palace Green Lane,27330,35.4534133,-79.1939819
219,Palace Green Lane,27330,35.4535855,-79.1938236
217,Palace Green Lane,27330,35.4537969,-79.1938043
215,Palace Green Lane,27330,35.4539877,-79.1939206
213,Palace Green Lane,27330,35.4541597,-79.1940943
211,Palace Green Lane,27330,35.4543048,-79.1942829
209,Palace Green Lane,27330,35.4544086,-79.1945208
207,Palace Green Lane,27330,35.4544217,-79.1947420
205,Palace Green Lane,27330,35.4543829,-79.1950227
203,Palace Green Lane,27330,35.4543523,-79.1953252
201,Palace Green Lane,27330,35.4542995,-79.1955745
105,Cascade Court,27330,35.4540812,-79.1919630
109,Cascade Court,27330,35.4541061,-79.1921894
113,Cascade Court,27330,35.4541327,-79.1924480
117,Cascade Court,27330,35.4540917,-79.1926950
121,Cascade Court,27330,35.4540806,-79.1929013
125,Cascade Court,27330,35.4541678,-79.1931474
132,Cascade Court,27330,35.4543786,-79.1932001
128,Cascade Court,27330,35.4546146,-79.1930874
124,Cascade Court,27330,35.4546634,-79.1928638
120,Cascade Court,27330,35.4545623,-79.1926468
116,Cascade Court,27330,35.4545174,-79.1924628
112,Cascade Court,27330,35.4545239,-79.1922607
108,Cascade Court,27330,35.4545113,-79.1920584
104,Cascade Court,27330,35.4544992,-79.1918567
100,Cascade Court,27330,35.4544907,-79.1916523
728,Golden Horseshoe Lane,27330,35.4545689,-79.1914489
801,Golden Horseshoe Lane,27330,35.4540190,-79.1914054
733,Golden Horseshoe Lane,27330,35.4541580,-79.1912444
729,Golden Horseshoe Lane,27330,35.4542575,-79.1910452
725,Golden Horseshoe Lane,27330,35.4543772,-79.1908533
721,Golden Horseshoe Lane,27330,35.4544741,-79.1906475
717,Golden Horseshoe Lane,27330,35.4546111,-79.1904272
104,James River Court,27330,35.4543743,-79.1901441
108,James River Court,27330,35.4544156,-79.1898660
109,James River Court,27330,35.4546488,-79.1897258
105,James River Court,27330,35.4548599,-79.1898788
101,James River Court,27330,35.4549218,-79.1901376
709,Golden Horseshoe Lane,27330,35.4551694,-79.1900457
705,Golden Horseshoe Lane,27330,35.4553340,-79.1900730
701,Golden Horseshoe Lane,27330,35.4554882,-79.1900418
601,Britton Court,27330,35.4549753,-79.1906719
605,Britton Court,27330,35.4550020,-79.1908663
609,Britton Court,27330,35.4550001,-79.1910747
613,Britton Court,27330,35.4550253,-79.1912752
617,Britton Court,27330,35.4550318,-79.1914805
621,Britton Court,27330,35.4550527,-79.1916893
625,Britton Court,27330,35.4550505,-79.1918790
629,Britton Court,27330,35.4550827,-79.1920921
633,Britton Court,27330,35.4550905,-79.1923082
637,Britton Court,27330,35.4551098,-79.1925637
641,Britton Court,27330,35.4551432,-79.1928241
645,Britton Court,27330,35.4551488,-79.1930828
649,Britton Court,27330,35.4551835,-79.1933242
653,Britton Court,27330,35.4552241,-79.1935603
657,Britton Court,27330,35.4552512,-79.1937839
100,Providence Hall Drive,27330,35.4559225,-79.1899987
102,Providence Hall Drive,27330,35.4560722,-79.1899640
604,Britton Court,27330,35.4553891,-79.1907392
608,Britton Court,27330,35.4554005,-79.1909502
612,Britton Court,27330,35.4554099,-79.1911498
616,Britton Court,27330,35.4554307,-79.1913506
620,Britton Court,27330,35.4554404,-79.1915515
624,Britton Court,27330,35.4554543,-79.1917463
628,Britton Court,27330,35.4554776,-79.1919411
632,Britton Court,27330,35.4554903,-79.1921674
636,Britton Court,27330,35.4555023,-79.1923493
640,Britton Court,27330,35.4555195,-79.1925563
644,Britton Court,27330,35.4555225,-79.1927621
648,Britton Court,27330,35.4555455,-79.1929539
652,Britton Court,27330,35.4555683,-79.1931656
115,Chownings Drive,27330,35.4530873,-79.1964761
117,Chownings Drive,27330,35.4528946,-79.1964308
119,Chownings Drive,27330,35.4527027,-79.1964196
908,Golden Horseshoe Lane,27330,35.4523057,-79.1963485
904,Golden Horseshoe Lane,27330,35.4523518,-79.1961539
122,Quartermaster Drive,27330,35.4524048,-79.1957698
120,Quartermaster Drive,27330,35.4525846,-79.1957833
118,Quartermaster Drive,27330,35.4527635,-79.1958281
116,Quartermaster Drive,27330,35.4529460,-79.1958763
114,Quartermaster Drive,27330,35.4531210,-79.1959319
112,Quartermaster Drive,27330,35.4533085,-79.1959684
110,Quartermaster Drive,27330,35.4534866,-79.1960219
108,Quartermaster Drive,27330,35.4536695,-79.1960446
106,Quartermaster Drive,27330,35.4538481,-79.1960895
104,Quartermaster Drive,27330,35.4540641,-79.1961467
102,Quartermaster Drive,27330,35.4543342,-79.1961487
113,Chownings Drive,27330,35.4532881,-79.1965024
111,Chownings Drive,27330,35.4534834,-79.1965539
109,Chownings Drive,27330,35.4536865,-79.1965866
107,Chownings Drive,27330,35.4539072,-79.1965795
105,Chownings Drive,27330,35.4541295,-79.1965752
103,Chownings Drive,27330,35.4543632,-79.1965513
101,Chownings Drive,27330,35.4545891,-79.1965269
201,Tucker House Court,27330,35.4541381,-79.1970896
203,Tucker House Court,27330,35.4542487,-79.1972290
205,Tucker House Court,27330,35.4543131,-79.1974322
207,Tucker House Court,27330,35.4543100,-79.1976846
209,Tucker House Court,27330,35.4544726,-79.1978975
210,Tucker House Court,27330,35.4546896,-79.1979000
208,Tucker House Court,27330,35.4548489,-79.1976694
206,Tucker House Court,27330,35.4548181,-79.1974109
204,Tucker House Court,27330,35.4546953,-79.1972352
202,Tucker House Court,27330,35.4546270,-79.1970503
311,Providence Hall Drive,27330,35.4562380,-79.1926146
309,Providence Hall Drive,27330,35.4562533,-79.1924130
307,Providence Hall Drive,27330,35.4562553,-79.1922043
305,Providence Hall Drive,27330,35.4562793,-79.1920072
303,Providence Hall Drive,27330,35.4562729,-79.1917968
301,Providence Hall Drive,27330,35.4562887,-79.1915982
207,Providence Hall Drive,27330,35.4562884,-79.1913954
205,Providence Hall Drive,27330,35.4563035,-79.1911942
203,Providence Hall Drive,27330,35.4563052,-79.1909865
201,Providence Hall Drive,27330,35.4563094,-79.1907123
103,Providence Hall Drive,27330,35.4561252,-79.1904919
10,Brafferton Court,27330,35.4563728,-79.1900562
12,Brafferton Court,27330,35.4564777,-79.1898482
14,Brafferton Court,27330,35.4566626,-79.1897115
16,Brafferton Court,27330,35.4568806,-79.1898063
15,Brafferton Court,27330,35.4569260,-79.1900544
13,Brafferton Court,27330,35.4568642,-79.1903098
11,Brafferton Court,27330,35.4566843,-79.1903777
202,Providence Hall Drive,27330,35.4567073,-79.1906528
204,Providence Hall Drive,27330,35.4566909,-79.1908647
206,Providence Hall Drive,27330,35.4566934,-79.1910601
208,Providence Hall Drive,27330,35.4566956,-79.1912480
300,Providence Hall Drive,27330,35.4566884,-79.1917119
302,Providence Hall Drive,27330,35.4566735,-79.1918940
304,Providence Hall Drive,27330,35.4566571,-79.1920970
306,Providence Hall Drive,27330,35.4566559,-79.1923206
308,Providence Hall Drive,27330,35.4566307,-79.1925830
310,Providence Hall Drive,27330,35.4566223,-79.1928783
312,Providence Hall Drive,27330,35.4566140,-79.1931759
314,Providence Hall Drive,27330,35.4566090,-79.1934661
316,Providence Hall Drive,27330,35.4565853,-79.1937438
318,Providence Hall Drive,27330,35.4564960,-79.1939821
320,Providence Hall Drive,27330,35.4563724,-79.1942160
10,Bassett Hall Lane,27330,35.4561385,-79.1945322
12,Bassett Hall Lane,27330,35.4562691,-79.1946691
14,Bassett Hall Lane,27330,35.4563872,-79.1948088
16,Bassett Hall Lane,27330,35.4565360,-79.1949799
401,Bassett Hall Lane,27330,35.4564623,-79.1957155
19,Bassett Hall Lane,27330,35.4563301,-79.1955138
17,Bassett Hall Lane,27330,35.4562104,-79.1953194
15,Bassett Hall Lane,27330,35.4560667,-79.1951715
13,Bassett Hall Lane,27330,35.4559263,-79.1949929
11,Bassett Hall Lane,27330,35.4557837,-79.1948517
313,Providence Hall Drive,27330,35.4562270,-79.1928442
315,Providence Hall Drive,27330,35.4562339,-79.1930968
317,Providence Hall Drive,27330,35.4562224,-79.1933455
319,Providence Hall Drive,27330,35.4561888,-79.1935463
321,Providence Hall Drive,27330,35.4561275,-79.1937628
323,Providence Hall Drive,27330,35.4560385,-79.1939385
325,Providence Hall Drive,27330,35.4559035,-79.1940801
327,Providence Hall Drive,27330,35.4557655,-79.1942060
329,Providence Hall Drive,27330,35.4556275,-79.1943538
401,Providence Hall Drive,27330,35.4554879,-79.1945405
405,Providence Hall Drive,27330,35.4550761,-79.1950358
407,Providence Hall Drive,27330,35.4550247,-79.1952512
409,Providence Hall Drive,27330,35.4549989,-79.1954931
406,Providence Hall Drive,27330,35.4554002,-79.1956392
500,Providence Hall Drive,27330,35.4554617,-79.1959623
504,Providence Hall Drive,27330,35.4556116,-79.1963251
508,Providence Hall Drive,27330,35.4557393,-79.1967015
501,Providence Hall Drive,27330,35.4550806,-79.1960555
503,Providence Hall Drive,27330,35.4551381,-79.1963342
505,Providence Hall Drive,27330,35.4552467,-79.1966238
507,Providence Hall Drive,27330,35.4553753,-79.1969050
509,Providence Hall Drive,27330,35.4554627,-79.1971229
511,Providence Hall Drive,27330,35.4555955,-79.1974755
513,Providence Hall Drive,27330,35.4558780,-79.1975362
512,Providence Hall Drive,27330,35.4560473,-79.1973036
510,Providence Hall Drive,27330,35.4559681,-79.1969952
1620,Columbine Road,27330,35.4943489,-79.2231964
2211,Wilkins Drive,27330,35.4987933,-79.2105794
2106,Brookwood Trail,27330,35.4964146,-79.2114998
2113,Brookwood Trail,27330,35.4968096,-79.2126952
2300,Brookwood Trail,27330,35.4989759,-79.2121336
2208,Brookwood Trail,27330,35.4987703,-79.2126543
2204,Brookwood Trail,27330,35.4983156,-79.2125209
2200,Brookwood Trail,27330,35.4978300,-79.2124295
2114,Brookwood Trail,27330,35.4972657,-79.2120321
2117,Brookwood Trail,27330,35.4971839,-79.2129940
2101,Wilkins Drive,27330,35.4963019,-79.2108110
2105,Wilkins Drive,27330,35.4968940,-79.2107142
2203,Wilkins Drive,27330,35.4975285,-79.2106586
2207,Wilkins Drive,27330,35.4982666,-79.2108904
2408,Brookwood Trail,27330,35.4982479,-79.2083772
2000,Wilkins Drive,27330,35.4957836,-79.2097773
2102,Wilkins Drive,27330,35.4962732,-79.2097131
619,Pineknoll Drive,27330,35.4966815,-79.2094555
615,Pineknoll Drive,27330,35.4967248,-79.2085084
2416,Brookwood Trail,27330,35.4992221,-79.2072126
2412,Brookwood Trail,27330,35.4986269,-79.2073380
2400,Brookwood Trail,27330,35.4983488,-79.2094566
2308,Brookwood Trail,27330,35.4988786,-79.2112239
2304,Brookwood Trail,27330,35.4989200,-79.2116862
2213,Brookwood Trail,27330,35.4993509,-79.2134432
2209,Brookwood Trail,27330,35.4988093,-79.2134838
2205,Brookwood Trail,27330,35.4982389,-79.2134817
2201,Brookwood Trail,27330,35.4977468,-79.2134116
2301,Brookwood Trail,27330,35.4998639,-79.2121509
2407,Brookwood Trail,27330,35.4998206,-79.2088640
2309,Brookwood Trail,27330,35.4998167,-79.2107714
2305,Brookwood Trail,27330,35.4998446,-79.2114751
1410,Gormly Circle,27330,35.4966449,-79.2140083
1418,Gormly Circle,27330,35.4960049,-79.2150430
1422,Gormly Circle,27330,35.4955516,-79.2153579
1502,Gormly Circle,27330,35.4950761,-79.2156647
1414,Gormly Circle,27330,35.4963389,-79.2145651
1402,Gormly Circle,27330,35.4959266,-79.2127483
1320,Gormly Circle,27330,35.4951980,-79.2119309
1405,Gormly Circle,27330,35.4954592,-79.2135704
1409,Gormly Circle,27330,35.4956314,-79.2141341
1417,Gormly Circle,27330,35.4952026,-79.2146086
1501,Gormly Circle,27330,35.4946490,-79.2151042
1401,Par Drive,27330,35.4944502,-79.2145362
1317,Gormly Circle,27330,35.4936594,-79.2135310
1316,Gormly Circle,27330,35.4948473,-79.2117554
1312,Gormly Circle,27330,35.4944980,-79.2116338
1308,Gormly Circle,27330,35.4939911,-79.2114108
2101,Brookwood Trail,27330,35.4957226,-79.2114216
1919,Wilkins Drive,27330,35.4954562,-79.2106823
1915,Wilkins Drive,27330,35.4948540,-79.2104558
1911,Wilkins Drive,27330,35.4943117,-79.2103049
1916,Wilkins Drive,27330,35.4949130,-79.2094973
1905,Windmill Drive,27330,35.4935938,-79.2105186
1909,Windmill Drive,27330,35.4936612,-79.2098232
1811,Windmill Drive,27330,35.4929761,-79.2116520
1307,Gormly Circle,27330,35.4936756,-79.2121568
1304,Gormly Circle,27330,35.4938050,-79.2111555
1908,Wilkins Drive,27330,35.4942213,-79.2090602
2007,Windmill Drive,27330,35.4939278,-79.2080985
1820,Wilkins Drive,27330,35.4927319,-79.2080012
1808,Wilkins Drive,27330,35.4923566,-79.2075978
2024,Windmill Drive,27330,35.4935013,-79.2061268
2020,Windmill Drive,27330,35.4933000,-79.2069675
1824,Wilkins Drive,27330,35.4931181,-79.2084508
1906,Windmill Drive,27330,35.4927757,-79.2098189
1818,Windmill Drive,27330,35.4927525,-79.2105138
1508,Von Cannon Circle,27330,35.4920710,-79.2104694
1815,Wilkins Drive,27330,35.4922609,-79.2087887
1807,Wilkins Drive,27330,35.4917642,-79.2082909
1803,Wilkins Drive,27330,35.4914827,-79.2077340
1802,Wilkins Drive,27330,35.4920371,-79.2070348
1713,Wilkins Drive,27330,35.4905916,-79.2056860
1719,Wilkins Drive,27330,35.4907557,-79.2061903
1725,Wilkins Drive,27330,35.4909592,-79.2066091
1731,Wilkins Drive,27330,35.4911850,-79.2070439
1005,Keats Road,27330,35.4908217,-79.2074439
1503,Von Cannon Circle,27330,35.4913408,-79.2099489
1512,Lord Ashley Drive,27330,35.4912085,-79.2106431
2110,Lakeland Drive,27330,35.4959382,-79.2164930
2116,Lakeland Drive,27330,35.4965562,-79.2160425
2206,Lakeland Drive,27330,35.4974593,-79.2153851
2200,Lakeland Drive,27330,35.4971658,-79.2158959
2210,Lakeland Drive,27330,35.4978203,-79.2150055
2214,Lakeland Drive,27330,35.4984748,-79.2149702
2300,Lakeland Drive,27330,35.4990412,-79.2151920
2406,Lakeland Drive,27330,35.4997616,-79.2155762
2313,Lakeland Drive,27330,35.4998496,-79.2175418
2309,Lakeland Drive,27330,35.4992332,-79.2174920
2301,Lakeland Drive,27330,35.4986292,-79.2159293
2305,Lakeland Drive,27330,35.4985922,-79.2167109
2201,Lakeland Drive,27330,35.4979961,-79.2170605
2207,Lakeland Drive,27330,35.4979529,-79.2161960
2119,Lakeland Drive,27330,35.4970875,-79.2172683
2107,Lakeland Drive,27330,35.4961472,-79.2172716
2115,Lakeland Drive,27330,35.4965968,-79.2172805
1802,Holiday Road,27330,35.4962868,-79.2179472
2306,Westwood Drive,27330,35.4971356,-79.2182401
2300,Westwood Drive,27330,35.4966345,-79.2186459
1509,Lord Ashley Drive,27330,35.4903650,-79.2107736
1718,Windmill Drive,27330,35.4907263,-79.2122648
1519,Lord Ashley Drive,27330,35.4911104,-79.2121385
1515,Lord Ashley Drive,27330,35.4908840,-79.2116570
1511,Lord Ashley Drive,27330,35.4905877,-79.2111613
1501,Lord Ashley Drive,27330,35.4899501,-79.2101301
1807,Windmill Drive,27330,35.4925602,-79.2121627
1810,Windmill Drive,27330,35.4924411,-79.2111003
1806,Windmill Drive,27330,35.4920562,-79.2114023
1522,Lord Ashley Drive,27330,35.4916754,-79.2116989
1516,Lord Ashley Drive,27330,35.4914941,-79.2113247
1508,Lord Ashley Drive,27330,35.4909352,-79.2101873
1700,Lynwood Circle,27330,35.4902322,-79.2111958
1710,Lynwood Circle,27330,35.4904193,-79.2120039
1711,Lynwood Circle,27330,35.4897883,-79.2124401
1707,Lynwood Circle,27330,35.4897585,-79.2119737
1615,Windmill Drive,27330,35.4898973,-79.2128618
1716,Windmill Drive,27330,35.4904711,-79.2125048
1505,Lord Ashley Drive,27330,35.4901067,-79.2104767
1810,Sourwood Circle,27330,35.4929064,-79.2169607
1920,Larkspur Drive,27330,35.4922623,-79.2166331
1705,Lord Ashley Drive,27330,35.4924665,-79.2156060
1713,Lord Ashley Drive,27330,35.4931640,-79.2163905
1804,Lord Ashley Drive,27330,35.4944393,-79.2167881
1712,Lord Ashley Drive,27330,35.4938082,-79.2154865
1803,Windmill Drive,27330,35.4921384,-79.2124261
1606,Lord Ashley Drive,27330,35.4923868,-79.2130399
1610,Lord Ashley Drive,27330,35.4926273,-79.2135966
1700,Lord Ashley Drive,27330,35.4927843,-79.2140691
1704,Lord Ashley Drive,27330,35.4931887,-79.2146414
1708,Lord Ashley Drive,27330,35.4934667,-79.2151139
1717,Windmill Drive,27330,35.4909544,-79.2133771
1809,Periwinkle Road,27330,35.4916342,-79.2142695
1701,Lord Ashley Drive,27330,35.4923209,-79.2147188
1709,Lord Ashley Drive,27330,35.4927927,-79.2158777
1805,Lord Ashley Drive,27330,35.4937459,-79.2170153
1809,Lord Ashley Drive,27330,35.4936973,-79.2177085
1903,Lord Ashley Drive,27330,35.4934813,-79.2182508
1906,Larkspur Drive,27330,35.4916877,-79.2150007
1908,Larkspur Drive,27330,35.4919184,-79.2154849
1914,Larkspur Drive,27330,35.4920404,-79.2159319
1919,Larkspur Drive,27330,35.4915333,-79.2167500
2000,Larkspur Drive,27330,35.4922340,-79.2177630
1932,Larkspur Drive,27330,35.4918158,-79.2180672
1937,Larkspur Drive,27330,35.4914810,-79.2172839
1911,Larkspur Drive,27330,35.4910477,-79.2161055
1933,Larkspur Drive,27330,35.4907459,-79.2172023
2014,Larkspur Drive,27330,35.4907920,-79.2184423
1811,Columbine Road,27330,35.4970685,-79.2231292
1910,Paul Street,27330,35.4958576,-79.2219548
1800,Columbine Road,27330,35.4957126,-79.2225358
1905,Holiday Road,27330,35.4963938,-79.2206417
1909,Holiday Road,27330,35.4965697,-79.2216506
1913,Holiday Road,27330,35.4966720,-79.2223372
2009,Paul Street,27330,35.4959176,-79.2245107
2005,Paul Street,27330,35.4957228,-79.2241236
1711,Columbine Road,27330,35.4954339,-79.2236823
1707,Columbine Road,27330,35.4951417,-79.2239660
1703,Columbine Road,27330,35.4947484,-79.2242763
1616,Columbine Road,27330,35.4940807,-79.2233453
1612,Columbine Road,27330,35.4938671,-79.2236755
1608,Columbine Road,27330,35.4936065,-79.2243414
1604,Columbine Road,27330,35.4933216,-79.2247445
2017,Lord Ashley Drive,27330,35.4933210,-79.2217130
2103,Lord Ashley Drive,27330,35.4929558,-79.2219650
2107,Lord Ashley Drive,27330,35.4925720,-79.2220936
2009,Lord Ashley Drive,27330,35.4935176,-79.2211800
1805,Crepe Myrtle Drive,27330,35.4929941,-79.2207890
1801,Crepe Myrtle Drive,27330,35.4927753,-79.2213592
1709,Crepe Myrtle Drive,27330,35.4923436,-79.2216028
1806,Crepe Myrtle Drive,27330,35.4923893,-79.2202601
1812,Crepe Myrtle Drive,27330,35.4927275,-79.2195677
2001,Lord Ashley Drive,27330,35.4933448,-79.2202087
1909,Lord Ashley Drive,27330,35.4932180,-79.2192822
1904,Lord Ashley Drive,27330,35.4939568,-79.2186354
1908,Lord Ashley Drive,27330,35.4939321,-79.2190395
1912,Lord Ashley Drive,27330,35.4941131,-79.2192816
2000,Lord Ashley Drive,27330,35.4941832,-79.2198402
2006,Lord Ashley Drive,27330,35.4944328,-79.2204191
2010,Lord Ashley Drive,27330,35.4943477,-79.2210559
2016,Lord Ashley Drive,27330,35.4942016,-79.2215564
2018,Lord Ashley Drive,27330,35.4940857,-79.2221069
2100,Lord Ashley Drive,27330,35.4937356,-79.2225059
2104,Lord Ashley Drive,27330,35.4932838,-79.2227415
2200,Lord Ashley Drive,27330,35.4921992,-79.2232764
2204,Lord Ashley Drive,27330,35.4919425,-79.2234981
1706,Crepe Myrtle Drive,27330,35.4913701,-79.2212317
1630,Crepe Myrtle Drive,27330,35.4909701,-79.2214343
1626,Crepe Myrtle Drive,27330,35.4907372,-79.2215779
1900,Sutphin Drive,27330,35.4835662,-79.2102967
1630,Hermitage Road,27330,35.4875687,-79.2101864
1710,Spring Lane,27330,35.4872642,-79.2109562
1804,Spring Lane,27330,35.4878444,-79.2127201
1808,Spring Lane,27330,35.4880560,-79.2132852
1501,Windmill Drive,27330,35.4888167,-79.2148227
1505,Windmill Drive,27330,35.4893767,-79.2159338
1805,Spring Lane,27330,35.4874655,-79.2134226
1809,Spring Lane,27330,35.4876046,-79.2137258
1813,Spring Lane,27330,35.4877422,-79.2139969
1817,Spring Lane,27330,35.4878810,-79.2143119
1821,Spring Lane,27330,35.4879986,-79.2146068
1903,Spring Lane,27330,35.4879706,-79.2151025
2203,Tanglewood Drive,27330,35.4876431,-79.2174544
2001,Spring Lane,27330,35.4882669,-79.2169589
1911,Spring Lane,27330,35.4882310,-79.2160803
2201,Plantation Drive,27330,35.4877987,-79.2159444
1901,Autumn Court,27330,35.4873291,-79.2160019
1906,Autumn Court,27330,35.4878894,-79.2162773
1908,Autumn Court,27330,35.4879217,-79.2166103
1910,Autumn Court,27330,35.4876352,-79.2168834
1907,Autumn Court,27330,35.4873299,-79.2168351
1905,Autumn Court,27330,35.4873622,-79.2163348
2043,Plantation Drive,27330,35.4869931,-79.2161684
2041,Plantation Drive,27330,35.4867522,-79.2161238
2037,Plantation Drive,27330,35.4864026,-79.2159878
1811,Saddlewood Lane,27330,35.4867256,-79.2154075
1514,Columbine Road,27330,35.4925910,-79.2254071
1625,Briarcliffe Drive,27330,35.4889450,-79.2136861
1621,Briarcliffe Drive,27330,35.4885961,-79.2131346
1617,Briarcliffe Drive,27330,35.4885117,-79.2125508
1613,Briarcliffe Drive,27330,35.4886293,-79.2120808
1510,Landor Circle,27330,35.4882779,-79.2106436
1509,Landor Circle,27330,35.4882381,-79.2114319
2106,Plantation Drive,27330,35.4874438,-79.2153842
2102,Plantation Drive,27330,35.4871928,-79.2154372
1809,Saddlewood Lane,27330,35.4867942,-79.2151979
1808,Saddlewood Lane,27330,35.4873987,-79.2149733
1807,Saddlewood Lane,27330,35.4868185,-79.2148830
1803,Saddlewood Lane,27330,35.4868313,-79.2145881
1804,Saddlewood Lane,27330,35.4874041,-79.2146605
1802,Saddlewood Lane,27330,35.4872202,-79.2142966
1801,Saddlewood Lane,27330,35.4869892,-79.2142725
1906,Plantation Drive,27330,35.4866905,-79.2134795
1910,Plantation Drive,27330,35.4864575,-79.2136397
1914,Plantation Drive,27330,35.4862745,-79.2138911
2012,Plantation Drive,27330,35.4858038,-79.2147626
2015,Plantation Drive,27330,35.4853089,-79.2156225
2006,North Shoreline Drive,27330,35.4838650,-79.2126640
2010,North Shoreline Drive,27330,35.4837354,-79.2130339
2106,North Shoreline Drive,27330,35.4834868,-79.2137623
2102,North Shoreline Drive,27330,35.4835785,-79.2134250
2110,North Shoreline Drive,27330,35.4833629,-79.2141471
2002,North Shoreline Drive,27330,35.4840485,-79.2123209
1801,Spring Lane,27330,35.4873394,-79.2131267
1905,Plantation Drive,27330,35.4865399,-79.2128197
1909,Plantation Drive,27330,35.4862263,-79.2130150
1915,Plantation Drive,27330,35.4859307,-79.2131856
1919,Plantation Drive,27330,35.4855495,-79.2132755
2001,Plantation Drive,27330,35.4853133,-79.2138123
2005,Plantation Drive,27330,35.4851878,-79.2141794
2009,Plantation Drive,27330,35.4851143,-79.2145305
2310,Sutphin Drive,27330,35.4848632,-79.2150366
2116,North Shoreline Drive,27330,35.4830578,-79.2149447
2211,Knollwood Drive,27330,35.4833652,-79.2153009
2208,Knollwood Drive,27330,35.4842125,-79.2150475
2201,Knollwood Drive,27330,35.4838587,-79.2140979
2205,Knollwood Drive,27330,35.4837510,-79.2144301
2204,Knollwood Drive,27330,35.4843165,-79.2147037
2200,Knollwood Drive,27330,35.4844465,-79.2143555
2115,Knollwood Drive,27330,35.4839887,-79.2137347
2111,Knollwood Drive,27330,35.4841081,-79.2134420
2103,Knollwood Drive,27330,35.4842013,-79.2128003
2107,Knollwood Drive,27330,35.4842036,-79.2131404
1700,Spring Lane,27330,35.4869001,-79.2106608
1626,Hermitage Road,27330,35.4877513,-79.2097852
1626,Briarcliffe Drive,27330,35.4894105,-79.2132612
1620,Briarcliffe Drive,27330,35.4893547,-79.2128183
1614,Briarcliffe Drive,27330,35.4893612,-79.2122811
1608,Briarcliffe Drive,27330,35.4893859,-79.2117575
1522,Briarcliffe Drive,27330,35.4893409,-79.2108212
1602,Briarcliffe Drive,27330,35.4893637,-79.2112311
1518,Briarcliffe Drive,27330,35.4894051,-79.2102646
1605,Briarcliffe Drive,27330,35.4886464,-79.2114423
1521,Briarcliffe Drive,27330,35.4886557,-79.2105795
1517,Briarcliffe Drive,27330,35.4885200,-79.2101459
1513,Briarcliffe Drive,27330,35.4885733,-79.2096973
1514,Briarcliffe Drive,27330,35.4892874,-79.2097534
1417,Lord Ashley Drive,27330,35.4897262,-79.2096735
1415,Lord Ashley Drive,27330,35.4894603,-79.2092956
1408,Lord Ashley Drive,27330,35.4898436,-79.2082812
1414,Lord Ashley Drive,27330,35.4900525,-79.2086210
1418,Lord Ashley Drive,27330,35.4903798,-79.2091257
1502,Lord Ashley Drive,27330,35.4907046,-79.2097571
1516,Brentwood Place,27330,35.4912875,-79.2089622
1505,Brentwood Place,27330,35.4906356,-79.2087705
1501,Brentwood Place,27330,35.4903985,-79.2082476
1400,Brentwood Place,27330,35.4899049,-79.2057131
1410,Brentwood Place,27330,35.4903603,-79.2066224
1414,Brentwood Place,27330,35.4905667,-79.2070259
1419,Brentwood Place,27330,35.4901780,-79.2078321
1413,Brentwood Place,27330,35.4899816,-79.2073757
1706,Wilkins Drive,27330,35.4920284,-79.2044406
1722,Wilkins Drive,27330,35.4913995,-79.2059144
1716,Wilkins Drive,27330,35.4912372,-79.2055155
1707,Wilkins Drive,27330,35.4903922,-79.2053123
1701,Wilkins Drive,27330,35.4901615,-79.2049024
1201,Hermitage Road,27330,35.4895548,-79.2042551
1210,Hermitage Road,27330,35.4893495,-79.2048773
2030,Windmill Drive,27330,35.4941491,-79.2036486
2004,Shannon Drive,27330,35.4952551,-79.2046189
2014,Shannon Drive,27330,35.4955557,-79.2062472
2010,Shannon Drive,27330,35.4951744,-79.2060809
2011,Shannon Drive,27330,35.4949586,-79.2070778
909,Botany Woods Drive,27330,35.4953655,-79.2076644
913,Botany Woods Drive,27330,35.4951842,-79.2081530
917,Botany Woods Drive,27330,35.4950915,-79.2086265
916,Botany Woods Drive,27330,35.4960205,-79.2088170
912,Botany Woods Drive,27330,35.4960102,-79.2083182
908,Botany Woods Drive,27330,35.4961082,-79.2078265
2018,Shannon Drive,27330,35.4963755,-79.2060146
611,Pineknoll Drive,27330,35.4967375,-79.2077558
607,Pineknoll Drive,27330,35.4967865,-79.2071147
603,Pineknoll Drive,27330,35.4968474,-79.2066705
601,Pineknoll Drive,27330,35.4968975,-79.2060934
618,Pineknoll Drive,27330,35.4974747,-79.2090106
608,Pineknoll Drive,27330,35.4975526,-79.2074163
602,Pineknoll Drive,27330,35.4976274,-79.2063831
1415,Columbine Road,27330,35.4905154,-79.2262847
1503,Columbine Road,27330,35.4908491,-79.2264210
1507,Columbine Road,27330,35.4916627,-79.2266487
1511,Columbine Road,27330,35.4920769,-79.2266179
1513,Columbine Road,27330,35.4925446,-79.2264667
2405,Wintergreen Road,27330,35.4928986,-79.2264465
2409,Wintergreen Road,27330,35.4931069,-79.2269000
1510,Columbine Road,27330,35.4920673,-79.2256083
1506,Columbine Road,27330,35.4916287,-79.2255957
1502,Columbine Road,27330,35.4910443,-79.2256815
2209,Lord Ashley Drive,27330,35.4911011,-79.2232848
2205,Lord Ashley Drive,27330,35.4913719,-79.2230199
1800,Crepe Myrtle Drive,27330,35.4921086,-79.2206387
2111,Lord Ashley Drive,27330,35.4920731,-79.2223056
1705,Crepe Myrtle Drive,27330,35.4918904,-79.2218767
2212,Lord Ashley Drive,27330,35.4916443,-79.2242276
2208,Lord Ashley Drive,27330,35.4916742,-79.2238332
2304,Lord Ashley Drive,27330,35.4914028,-79.2248047
2215,Lord Ashley Drive,27330,35.4909235,-79.2239516
2407,Laurel Drive,27330,35.4901306,-79.2239854
2408,Laurel Drive,27330,35.4906808,-79.2234867
2411,Laurel Drive,27330,35.4903303,-79.2243330
2203,Lord Ashley Drive,27330,35.4906191,-79.2247552
2307,Lord Ashley Drive,27330,35.4904008,-79.2252541
2111,Spring Lane,27330,35.4872334,-79.2194114
2107,Spring Lane,27330,35.4875558,-79.2189736
2103,Spring Lane,27330,35.4878385,-79.2184210
2212,Tanglewood Drive,27330,35.4870933,-79.2189124
2208,Tanglewood Drive,27330,35.4872647,-79.2183225
2207,Tanglewood Drive,27330,35.4867837,-79.2174397
2211,Tanglewood Drive,27330,35.4866355,-79.2179890
2215,Tanglewood Drive,27330,35.4865356,-79.2184924
2219,Tanglewood Drive,27330,35.4861318,-79.2191655
2115,Spring Lane,27330,35.4867536,-79.2197948
2201,Spring Lane,27330,35.4862281,-79.2200675
2209,Sutphin Drive,27330,35.4831793,-79.2160260
2213,Sutphin Drive,27330,35.4834641,-79.2160273
2303,Knollwood Drive,27330,35.4834967,-79.2164690
2305,Knollwood Drive,27330,35.4834944,-79.2167375
2307,Knollwood Drive,27330,35.4834462,-79.2169217
2308,Knollwood Drive,27330,35.4836962,-79.2173980
2306,Knollwood Drive,27330,35.4838556,-79.2172197
2312,Knollwood Drive,27330,35.4835709,-79.2176203
2424,Westgate Drive,27330,35.4841518,-79.2183601
2600,Taton Court,27330,35.4844076,-79.2184144
2604,Taton Court,27330,35.4845481,-79.2182917
2616,Taton Court,27330,35.4848480,-79.2176605
2620,Taton Court,27330,35.4849461,-79.2174833
2613,Taton Court,27330,35.4851269,-79.2180915
2609,Taton Court,27330,35.4850328,-79.2182671
2605,Taton Court,27330,35.4849365,-79.2184740
2601,Taton Court,27330,35.4848785,-79.2186832
2433,Westgate Drive,27330,35.4844294,-79.2190186
2429,Westgate Drive,27330,35.4842544,-79.2189630
2425,Westgate Drive,27330,35.4840966,-79.2189545
2421,Westgate Drive,27330,35.4839374,-79.2188938
2309,Knollwood Drive,27330,35.4833046,-79.2171537
2314,Knollwood Drive,27330,35.4833700,-79.2179014
2412,Westgate Drive,27330,35.4835678,-79.2180791
2413,Westgate Drive,27330,35.4835708,-79.2189567
2409,Westgate Drive,27330,35.4834190,-79.2186153
2405,Westgate Drive,27330,35.4832110,-79.2185144
2404,Knollwood Drive,27330,35.4830102,-79.2183654
2511,Wellington Drive,27330,35.4915280,-79.2297421
2505,Wellington Drive,27330,35.4917343,-79.2288763
2512,Westgate Drive,27330,35.4853267,-79.2192262
2516,Westgate Drive,27330,35.4855995,-79.2195502
2521,Westgate Drive,27330,35.4855982,-79.2203657
2517,Westgate Drive,27330,35.4853345,-79.2200072
2513,Westgate Drive,27330,35.4851503,-79.2197539
1012,Cool Springs Road,27330,35.4849483,-79.2203904
2207,Spring Lane,27330,35.4854193,-79.2208336
2204,Spring Lane,27330,35.4865447,-79.2209606
1104,Cool Springs Road,27330,35.4864750,-79.2220571
1125,Cool Springs Road,27330,35.4866385,-79.2236092
915,Gilmore Drive,27330,35.4858887,-79.2239531
2508,Brighton Point,27330,35.4854379,-79.2256101
2515,Brighton Point,27330,35.4843177,-79.2263496
2505,Brighton Point,27330,35.4838212,-79.2251011
2501,Brighton Point,27330,35.4838178,-79.2244309
1001,Cool Springs Road,27330,35.4836864,-79.2212044
1005,Cool Springs Road,27330,35.4841092,-79.2209412
1009,Cool Springs Road,27330,35.4846030,-79.2212525
1105,Cool Springs Road,27330,35.4855244,-79.2219492
1101,Cool Springs Road,27330,35.4851383,-79.2215442
912,Gilmore Drive,27330,35.4845031,-79.2227713
909,Gilmore Drive,27330,35.4848570,-79.2240403
908,Gilmore Drive,27330,35.4841026,-79.2231230
900,Gilmore Drive,27330,35.4834918,-79.2225153
2517,Buckingham Drive,27330,35.4899489,-79.2304379
2515,Buckingham Drive,27330,35.4896795,-79.2302373
2510,Buckingham Drive,27330,35.4898366,-79.2296784
2504,Buckingham Drive,27330,35.4896998,-79.2292733
2505,Buckingham Drive,27330,35.4892411,-79.2292078
2509,Buckingham Drive,27330,35.4892947,-79.2299163
519,Petty Road,27330,35.4893805,-79.2304415
515,Petty Road,27330,35.4894059,-79.2306950
508,Petty Road,27330,35.4888486,-79.2312591
500,Petty Road,27330,35.4885335,-79.2318899
1400,Cool Springs Road,27330,35.4922812,-79.2274742
2506,Wellington Drive,27330,35.4924733,-79.2290921
2510,Wellington Drive,27330,35.4924098,-79.2295585
2601,Wellington Drive,27330,35.4914700,-79.2316376
2501,Chadwick Circle,27330,35.4923073,-79.2300517
2502,Chadwick Circle,27330,35.4925715,-79.2299991
2504,Chadwick Circle,27330,35.4927484,-79.2301699
2506,Chadwick Circle,27330,35.4927539,-79.2305129
1606,Cambridge Drive,27330,35.4929282,-79.2309435
1602,Cambridge Drive,27330,35.4926752,-79.2309308
2503,Chadwick Circle,27330,35.4921345,-79.2302964
2505,Chadwick Circle,27330,35.4921667,-79.2306049
1506,Cambridge Drive,27330,35.4922282,-79.2310036
1502,Cambridge Drive,27330,35.4919892,-79.2310375
1501,Cambridge Drive,27330,35.4920296,-79.2317145
1505,Cambridge Drive,27330,35.4922281,-79.2316976
2605,Chadwick Circle,27330,35.4925027,-79.2324181
2604,Chadwick Circle,27330,35.4928796,-79.2321424
1601,Cambridge Drive,27330,35.4927163,-79.2316657
1605,Cambridge Drive,27330,35.4929733,-79.2316477
437,Petty Road,27330,35.4890360,-79.2337662
2609,Buckingham Drive,27330,35.4901639,-79.2329192
2619,Buckingham Drive,27330,35.4901675,-79.2332281
524,Petty Road,27330,35.4880819,-79.2297779
518,Petty Road,27330,35.4883350,-79.2290767
532,Petty Road,27330,35.4884532,-79.2285753
1215,Cool Springs Road,27330,35.4869674,-79.2260009
1201,Cool Springs Road,27330,35.4868037,-79.2254011
536,Petty Road,27330,35.4868228,-79.2279214
824,Stoneybrook Drive,27330,35.4831371,-79.2277950
900,Stoneybrook Drive,27330,35.4833905,-79.2276696
904,Stoneybrook Drive,27330,35.4837677,-79.2275477
908,Stoneybrook Drive,27330,35.4841120,-79.2276050
916,Stoneybrook Drive,27330,35.4845927,-79.2278075
1008,Stoneybrook Drive,27330,35.4864595,-79.2288876
3201,Foggy Mountain Loop,27330,35.4853179,-79.2306831
3209,Foggy Mountain Loop,27330,35.4853875,-79.2299541
3213,Foggy Mountain Loop,27330,35.4854854,-79.2296789
923,Stoneybrook Drive,27330,35.4846999,-79.2290653
931,Stoneybrook Drive,27330,35.4849390,-79.2291780
3206,Foggy Mountain Loop,27330,35.4848075,-79.2297493
3112,Foggy Mountain Loop,27330,35.4845592,-79.2303721
3101,Foggy Mountain Loop,27330,35.4835685,-79.2305069
2504,Brighton Point,27330,35.4855540,-79.2247133
2512,Brighton Point,27330,35.4853626,-79.2262693
912,Stoneybrook Drive,27330,35.4843357,-79.2277006
920,Stoneybrook Drive,27330,35.4848206,-79.2281196
926,Stoneybrook Drive,27330,35.4850433,-79.2281884
930,Stoneybrook Drive,27330,35.4853346,-79.2283010
1000,Stoneybrook Drive,27330,35.4858411,-79.2285870
1004,Stoneybrook Drive,27330,35.4861007,-79.2287013
934,Stoneybrook Drive,27330,35.4856190,-79.2284322
1003,Stoneybrook Drive,27330,35.4856246,-79.2293456
3121,Foggy Mountain Loop,27330,35.4850885,-79.2315008
3205,Foggy Mountain Loop,27330,35.4853801,-79.2303610
3117,Foggy Mountain Loop,27330,35.4845562,-79.2314020
3113,Foggy Mountain Loop,27330,35.4841849,-79.2312754
905,Stoneybrook Drive,27330,35.4837144,-79.2284949
915,Stoneybrook Drive,27330,35.4841560,-79.2287310
3006,Foggy Mountain Loop,27330,35.4837658,-79.2289179
3005,Foggy Mountain Loop,27330,35.4830745,-79.2288786
3012,Foggy Mountain Loop,27330,35.4837311,-79.2294045
3100,Foggy Mountain Loop,27330,35.4840384,-79.2299101
3104,Foggy Mountain Loop,27330,35.4842419,-79.2301658
3109,Foggy Mountain Loop,27330,35.4839430,-79.2310082
3105,Foggy Mountain Loop,27330,35.4837749,-79.2307218
3021,Foggy Mountain Loop,27330,35.4832174,-79.2302595
3017,Foggy Mountain Loop,27330,35.4831490,-79.2299776
3013,Foggy Mountain Loop,27330,35.4830962,-79.2296495
3009,Foggy Mountain Loop,27330,35.4831006,-79.2293381
1220,Cool Springs Road,27330,35.4891050,-79.2246583
1600,Crepe Myrtle Drive,27330,35.4896789,-79.2221475
1620,Crepe Myrtle Drive,27330,35.4901610,-79.2219361
1624,Crepe Myrtle Drive,27330,35.4904657,-79.2217994
2404,Laurel Drive,27330,35.4905623,-79.2230143
2405,Laurel Drive,27330,35.4898856,-79.2233811
2401,Laurel Drive,27330,35.4897652,-79.2229713
1603,Crepe Myrtle Drive,27330,35.4904628,-79.2226051
1615,Crepe Myrtle Drive,27330,35.4911041,-79.2223782
1701,Crepe Myrtle Drive,27330,35.4914642,-79.2221134
2201,Lord Ashley Drive,27330,35.4917106,-79.2226060
2112,Lord Ashley Drive,27330,35.4925109,-79.2230005
2108,Lord Ashley Drive,27330,35.4928243,-79.2228602
1712,Columbine Road,27330,35.4950692,-79.2226929
1801,Columbine Road,27330,35.4961125,-79.2234894
2006,Paul Street,27330,35.4963584,-79.2239283
2018,Jasany Drive,27330,35.4970656,-79.2249895
2113,Jasany Drive,27330,35.4953649,-79.2266670
2105,Wolftrap Place,27330,35.4947182,-79.2259814
2118,Jasany Drive,27330,35.4946031,-79.2270032
2117,Jasany Drive,27330,35.4956084,-79.2271962
1500,Cool Springs Road,27330,35.4963129,-79.2271444
2105,Jasany Drive,27330,35.4960592,-79.2259586
2101,Jasany Drive,27330,35.4963522,-79.2257569
2109,Jasany Drive,27330,35.4953899,-79.2261168
2107,Jasany Drive,27330,35.4957010,-79.2258829
2108,Jasany Drive,27330,35.4953335,-79.2253497
2104,Wolftrap Place,27330,35.4950311,-79.2251368
1609,Columbine Road,27330,35.4940986,-79.2250073
1605,Columbine Road,27330,35.4937110,-79.2253817
2410,Wintergreen Road,27330,35.4936864,-79.2266223
1600,Columbine Road,27330,35.4929747,-79.2251865
2406,Wintergreen Road,27330,35.4935213,-79.2261548
1601,Columbine Road,27330,35.4933186,-79.2258662
2413,Wintergreen Road,27330,35.4930668,-79.2274277
2417,Wintergreen Road,27330,35.4931999,-79.2279450
2418,Wintergreen Road,27330,35.4938676,-79.2275794
1420,Cool Springs Road,27330,35.4943209,-79.2279356
2122,Jasany Drive,27330,35.4948603,-79.2276133
2126,Jasany Drive,27330,35.4949018,-79.2280474
1507,Briarcliffe Drive,27330,35.4887968,-79.2089744
1405,Lord Ashley Drive,27330,35.4891549,-79.2085167
1402,Lord Ashley Drive,27330,35.4893663,-79.2074698
1409,Brentwood Place,27330,35.4897655,-79.2069412
1401,Brentwood Place,27330,35.4896051,-79.2065113
1312,Hermitage Road,27330,35.4888470,-79.2068261
1302,Hermitage Road,27330,35.4891311,-79.2058751
1216,Hermitage Road,27330,35.4892362,-79.2052641
1202,Wilkins Drive,27330,35.4899085,-79.2033530
1009,Wilkins Drive,27330,35.4851344,-79.2039765
1216,Caviness Drive,27330,35.4839233,-79.2043780
1220,Caviness Drive,27330,35.4842213,-79.2044604
939,Wilkins Drive,27330,35.4840034,-79.2036762
1001,Wilkins Drive,27330,35.4844900,-79.2038153
1005,Wilkins Drive,27330,35.4848265,-79.2038577
1212,Caviness Drive,27330,35.4834225,-79.2042271
935,Wilkins Drive,27330,35.4836713,-79.2035956
931,Wilkins Drive,27330,35.4833753,-79.2034912
1208,Caviness Drive,27330,35.4831264,-79.2041434
1228,Lemmond Drive,27330,35.4836051,-79.2054302
1220,Lemmond Drive,27330,35.4832228,-79.2059132
1224,Lemmond Drive,27330,35.4833991,-79.2056636
1207,Caviness Drive,27330,35.4830010,-79.2047914
1211,Caviness Drive,27330,35.4832181,-79.2049612
1213,Caviness Drive,27330,35.4835907,-79.2049413
1217,Caviness Drive,27330,35.4839867,-79.2050235
1809,Sutphin Drive,27330,35.4851743,-79.2094171
1820,Sutphin Drive,27330,35.4841900,-79.2094997
1824,Sutphin Drive,27330,35.4839443,-79.2094292
1832,Sutphin Drive,27330,35.4834428,-79.2092780
1828,Sutphin Drive,27330,35.4837045,-79.2093553
1816,Sutphin Drive,27330,35.4844984,-79.2096076
1812,Sutphin Drive,27330,35.4847976,-79.2098429
1915,Knollwood Drive,27330,35.4847309,-79.2113358
1911,Knollwood Drive,27330,35.4848849,-79.2108986
1907,Knollwood Drive,27330,35.4849658,-79.2105546
1903,Knollwood Drive,27330,35.4850420,-79.2101861
1805,Sutphin Drive,27330,35.4854619,-79.2096182
1813,Sutphin Drive,27330,35.4849298,-79.2091681
2500,Waterford Court,27330,35.4838985,-79.2165787
2504,Waterford Court,27330,35.4840491,-79.2166019
2516,Waterford Court,27330,35.4844767,-79.2161433
2512,Waterford Court,27330,35.4844518,-79.2164497
2508,Waterford Court,27330,35.4842604,-79.2165140
2501,Waterford Court,27330,35.4840491,-79.2171302
2505,Waterford Court,27330,35.4843950,-79.2170723
2509,Waterford Court,27330,35.4846180,-79.2169555
2513,Waterford Court,27330,35.4847859,-79.2168125
2517,Waterford Court,27330,35.4849506,-79.2166240
2301,Sutphin Drive,27330,35.4839142,-79.2159769
2305,Sutphin Drive,27330,35.4841887,-79.2159292
2520,Waterford Court,27330,35.4846200,-79.2158406
2524,Waterford Court,27330,35.4848870,-79.2158323
2525,Waterford Court,27330,35.4850898,-79.2160745
2521,Waterford Court,27330,35.4851549,-79.2163220
1008,Cool Springs Road,27330,35.4843324,-79.2202189
929,Cool Springs Road,27330,35.4832599,-79.2207161
1000,Cool Springs Road,27330,35.4835887,-79.2200077
926,Cool Springs Road,27330,35.4830946,-79.2198240
919,Gilmore Drive,27330,35.4860752,-79.2230176
1118,Cool Springs Road,27330,35.4868026,-79.2224939
1128,Cool Springs Road,27330,35.4872378,-79.2227618
1200,Cool Springs Road,27330,35.4875806,-79.2232613
1204,Cool Springs Road,27330,35.4877442,-79.2236918
1208,Cool Springs Road,27330,35.4879109,-79.2239309
1212,Cool Springs Road,27330,35.4880797,-79.2242063
1225,Cool Springs Road,27330,35.4878664,-79.2267995
1227,Cool Springs Road,27330,35.4885746,-79.2271980
542,Petty Road,27330,35.4887161,-79.2279041
2512,Buckingham Drive,27330,35.4900362,-79.2297664
2514,Buckingham Drive,27330,35.4901944,-79.2299502
2516,Buckingham Drive,27330,35.4903179,-79.2301517
511,Petty Road,27330,35.4894677,-79.2310306
507,Petty Road,27330,35.4895333,-79.2314286
503,Petty Road,27330,35.4895085,-79.2317223
1301,Wimbledon Drive,27330,35.4895105,-79.2326621
445,Petty Road,27330,35.4893454,-79.2331408
441,Petty Road,27330,35.4892305,-79.2334364
2621,Windsor Place,27330,35.4895450,-79.2337343
2619,Windsor Place,27330,35.4897535,-79.2334512
2620,Windsor Place,27330,35.4901029,-79.2335576
2624,Windsor Place,27330,35.4902045,-79.2338517
2610,Buckingham Drive,27330,35.4907698,-79.2330814
2606,Buckingham Drive,27330,35.4907526,-79.2327043
2600,Buckingham Drive,27330,35.4906962,-79.2323320
2532,Buckingham Drive,27330,35.4906401,-79.2318135
2601,Buckingham Drive,27330,35.4901533,-79.2325225
2519,Buckingham Drive,27330,35.4900063,-79.2306719
2523,Buckingham Drive,27330,35.4900125,-79.2309628
2529,Buckingham Drive,27330,35.4900244,-79.2312865
2533,Buckingham Drive,27330,35.4900589,-79.2316005
2537,Buckingham Drive,27330,35.4901036,-79.2318857
2500,Buckingham Drive,27330,35.4897680,-79.2287211
2408,Buckingham Drive,27330,35.4900583,-79.2286655
2404,Buckingham Drive,27330,35.4901385,-79.2280958
2402,Buckingham Drive,27330,35.4900850,-79.2278920
2401,Buckingham Drive,27330,35.4898631,-79.2278184
2403,Buckingham Drive,27330,35.4896721,-79.2277602
1300,Cool Springs Road,27330,35.4896357,-79.2267300
2515,Wellington Drive,27330,35.4914559,-79.2301623
2519,Wellington Drive,27330,35.4913662,-79.2306806
2523,Wellington Drive,27330,35.4914553,-79.2311387
2605,Wellington Drive,27330,35.4915204,-79.2321419
2603,Chadwick Circle,27330,35.4922212,-79.2322019
2621,Wellington Drive,27330,35.4919860,-79.2337914
2617,Wellington Drive,27330,35.4919658,-79.2334177
2613,Wellington Drive,27330,35.4917982,-79.2329673
2609,Wellington Drive,27330,35.4916761,-79.2325907
2614,Wellington Drive,27330,35.4925652,-79.2329734
2618,Wellington Drive,27330,35.4927134,-79.2333818
2622,Wellington Drive,27330,35.4927481,-79.2338187
1901,Tomberlin Road,27330,35.4977446,-79.2232353
1601,Tomberlin Road,27330,35.4978432,-79.2239194
2002,Jasany Drive,27330,35.4979653,-79.2246070
2009,Jasany Drive,27330,35.4973715,-79.2257895
2121,Jasany Drive,27330,35.4954726,-79.2277386
2125,Jasany Drive,27330,35.4955302,-79.2281598
1510,Cool Springs Road,27330,35.4972625,-79.2275218
1610,Cool Springs Road,27330,35.4978059,-79.2275098
2003,Vantage Point,27330,35.4979210,-79.2268367
2004,Vantage Point,27330,35.4977106,-79.2261735
1709,Tomberlin Road,27330,35.4986313,-79.2259900
1715,Spring Lane,27330,35.4868018,-79.2123545
1709,Spring Lane,27330,35.4865028,-79.2112175
1701,Spring Lane,27330,35.4861730,-79.2105739
1602,Spring Lane,27330,35.4867864,-79.2088739
1619,Hermitage Road,27330,35.4872343,-79.2092585
1608,Hermitage Road,27330,35.4882198,-79.2083923
1314,Hermitage Road,27330,35.4887029,-79.2072874
1602,Hermitage Road,27330,35.4883426,-79.2078460
1614,Hermitage Road,27330,35.4880998,-79.2088210
1620,Hermitage Road,27330,35.4879502,-79.2092989
1617,Hermitage Road,27330,35.4874656,-79.2087339
1605,Hermitage Road,27330,35.4877599,-79.2077607
1611,Hermitage Road,27330,35.4876541,-79.2082024
1317,Hermitage Road,27330,35.4879184,-79.2072201
1313,Hermitage Road,27330,35.4880817,-79.2067841
1309,Hermitage Road,27330,35.4882044,-79.2063886
1301,Hermitage Road,27330,35.4883738,-79.2057753
1105,Wilkins Drive,27330,35.4888854,-79.2040546
1108,Wilkins Drive,27330,35.4894347,-79.2031719
1104,Wilkins Drive,27330,35.4889455,-79.2030331
1094,Wilkins Drive,27330,35.4876737,-79.2030503
1089,Wilkins Drive,27330,35.4873702,-79.2042131
1206,Spring Lane,27330,35.4882338,-79.2043311
1214,Spring Lane,27330,35.4881950,-79.2048909
1302,Spring Lane,27330,35.4879653,-79.2056524
1310,Spring Lane,27330,35.4877222,-79.2060385
1402,Spring Lane,27330,35.4875248,-79.2064800
1403,Spring Lane,27330,35.4866204,-79.2062567
1410,Spring Lane,27330,35.4870728,-79.2075517
1412,Spring Lane,27330,35.4869243,-79.2079588
1416,Spring Lane,27330,35.4867274,-79.2084612
1610,Spring Lane,27330,35.4866810,-79.2099934
1606,Spring Lane,27330,35.4866043,-79.2093379
1605,Spring Lane,27330,35.4859485,-79.2093531
1609,Spring Lane,27330,35.4859705,-79.2097549
1904,Knollwood Drive,27330,35.4856921,-79.2104359
1908,Knollwood Drive,27330,35.4855920,-79.2108400
1912,Knollwood Drive,27330,35.4854349,-79.2113679
1916,Knollwood Drive,27330,35.4853039,-79.2117213
1922,Knollwood Drive,27330,35.4851059,-79.2122459
1926,Knollwood Drive,27330,35.4850365,-79.2127232
2110,Knollwood Drive,27330,35.4846681,-79.2136346
2112,Knollwood Drive,27330,35.4845592,-79.2139593
2104,Lakeland Drive,27330,35.4955062,-79.2166672
2100,Lakeland Drive,27330,35.4952556,-79.2173019
1803,Holiday Road,27330,35.4955941,-79.2185309
1807,Holiday Road,27330,35.4959119,-79.2191966
2100,Jasany Drive,27330,35.4956631,-79.2252074
2013,Paul Street,27330,35.4960799,-79.2250001
2016,Paul Street,27330,35.4967192,-79.2248879
2010,Paul Street,27330,35.4965567,-79.2244065
2014,Jasany Drive,27330,35.4973973,-79.2249711
2001,Jasany Drive,27330,35.4978213,-79.2256058
1701,Tomberlin Road,27330,35.4987010,-79.2253162
1607,Tomberlin Road,27330,35.4983588,-79.2245203
2307,Rockwood Drive,27330,35.4988805,-79.2237272
1608,Tomberlin Road,27330,35.4990848,-79.2244326
1605,Willshire Circle,27330,35.4996148,-79.2243175
2311,Rockwood Drive,27330,35.4993912,-79.2234713
1519,Tomberlin Road,27330,35.4979897,-79.2221884
1912,Holiday Road,27330,35.4975994,-79.2222644
1811,Holiday Road,27330,35.4963433,-79.2197185
2301,Westwood Drive,27330,35.4970908,-79.2192597
1814,Holiday Road,27330,35.4972232,-79.2197992
2312,Westwood Drive,27330,35.4978144,-79.2197922
2313,Westwood Drive,27330,35.4993807,-79.2191031
1415,Crepe Myrtle Drive,27330,35.4871663,-79.2219372
1501,Crepe Myrtle Drive,27330,35.4880822,-79.2224522
1505,Crepe Myrtle Drive,27330,35.4884852,-79.2226555
1513,Crepe Myrtle Drive,27330,35.4892855,-79.2231369
1509,Crepe Myrtle Drive,27330,35.4888256,-79.2228801
1508,Crepe Myrtle Drive,27330,35.4889594,-79.2220045
1502,Crepe Myrtle Drive,27330,35.4885862,-79.2218158
1420,Crepe Myrtle Drive,27330,35.4880278,-79.2215011
2114,Spring Lane,27330,35.4873515,-79.2207356
2110,Spring Lane,27330,35.4882200,-79.2201960
2001,Windsong Drive,27330,35.4886658,-79.2198321
1901,Windsong Drive,27330,35.4883521,-79.2194920
1902,Windsong Drive,27330,35.4885208,-79.2188823
1908,Windsong Drive,27330,35.4889155,-79.2191328
1912,Windsong Drive,27330,35.4892134,-79.2195736
1916,Windsong Drive,27330,35.4893134,-79.2200489
1514,Cranberry Lane,27330,35.4899763,-79.2197417
1520,Cranberry Lane,27330,35.4903764,-79.2192947
1501,Cranberry Lane,27330,35.4891182,-79.2207065
1505,Cranberry Lane,27330,35.4896867,-79.2208945
1509,Cranberry Lane,27330,35.4900656,-79.2208227
1513,Cranberry Lane,27330,35.4904934,-79.2203836
1517,Cranberry Lane,27330,35.4909129,-79.2201347
1523,Cranberry Lane,27330,35.4911904,-79.2197763
2012,Spring Lane,27330,35.4887976,-79.2179053
2100,Spring Lane,27330,35.4886788,-79.2182840
2104,Ashford Circle,27330,35.4994345,-79.2252050
2007,Vantage Point,27330,35.4985176,-79.2267886
2211,Tomberlin Road,27330,35.4983955,-79.2273023
1802,Tomberlin Road,27330,35.4992321,-79.2261478
1614,Cool Springs Road,27330,35.4996043,-79.2275154
1612,Cool Springs Road,27330,35.4989668,-79.2275991
2620,Buckingham Drive,27330,35.4907996,-79.2334771
2624,Buckingham Drive,27330,35.4907994,-79.2338463
135,Chatham Street,27330,35.4809385,-79.1762917
148,South Moore Street,27330,35.4803451,-79.1776540
126,South Moore Street,27330,35.4805478,-79.1778727
118,South Moore Street,27330,35.4808534,-79.1780462
110,South Moore Street,27330,35.4809304,-79.1781379
147,Chatham Street,27330,35.4806738,-79.1763000
147,Chatham Street,27330,35.4807244,-79.1763377
143,Chatham Street,27330,35.4808091,-79.1762555
139,Chatham Street,27330,35.4808746,-79.1762739
131,Chatham Street,27330,35.4810027,-79.1763098
129,Chatham Street,27330,35.4810641,-79.1763270
125,Chatham Street,27330,35.4811651,-79.1763393
121,Chatham Street,27330,35.4813005,-79.1763770
120,South Moore Street,27330,35.4805013,-79.1782201
109,South Steele Street,27330,35.4807266,-79.1788424
111,South Steele Street,27330,35.4806441,-79.1787737
115,South Steele Street,27330,35.4805929,-79.1787299
121,South Steele Street,27330,35.4804569,-79.1786084
129,South Steele Street,27330,35.4802776,-79.1784346
133,South Steele Street,27330,35.4802072,-79.1783748
139,South Steele Street,27330,35.4801093,-79.1782914
147,South Steele Street,27330,35.4799673,-79.1781458
143,South Steele Street,27330,35.4800206,-79.1781912
155,South Steele Street,27330,35.4797590,-79.1780823
130,Wicker Street,27330,35.4799387,-79.1778515
152,South Moore Street,27330,35.4800988,-79.1774744
218,Maple Avenue,27330,35.4797420,-79.1719765
216,Maple Avenue,27330,35.4797035,-79.1721463
214,Maple Avenue,27330,35.4796800,-79.1723071
212,Maple Avenue,27330,35.4796423,-79.1724698
410,Wall Street,27330,35.4762693,-79.1803346
1013,Martin Street,27330,35.4673402,-79.1696573
1112,Martin Street,27330,35.4662757,-79.1686678
609,West Rose Street,27330,35.4648528,-79.1705242
507,Pineland Street,27330,35.4674665,-79.1720165
505,Pineland Street,27330,35.4675338,-79.1717544
511,Pineland Street,27330,35.4672754,-79.1720791
515,Pineland Street,27330,35.4671077,-79.1721942
610,Greenland Drive,27330,35.4669315,-79.1752383
908,Lansing Street,27330,35.4664449,-79.1745166
906,Lansing Street,27330,35.4665412,-79.1747053
912,Lansing Street,27330,35.4661688,-79.1738557
916,Lansing Street,27330,35.4660631,-79.1736289
608,West Makepeace Street,27330,35.4661021,-79.1725029
1004,Hall Street,27330,35.4661486,-79.1716490
1012,Hall Street,27330,35.4657431,-79.1711222
1110,Pinehurst Street,27330,35.4638777,-79.1709469
1106,Pinehurst Street,27330,35.4641091,-79.1709815
1102,Pinehurst Street,27330,35.4643413,-79.1710990
1200,Pinehurst Street,27330,35.4636865,-79.1709294
1204,Pinehurst Street,27330,35.4634516,-79.1707618
1206,Pinehurst Street,27330,35.4632758,-79.1707013
1208,Pinehurst Street,27330,35.4630737,-79.1706183
1201,Pinehurst Street,27330,35.4638357,-79.1701803
1205,Pinehurst Street,27330,35.4636619,-79.1699292
713,West Garden Street,27330,35.4626872,-79.1692685
825,Juniper Drive,27330,35.4624718,-79.1738661
1004,Woodland Avenue,27330,35.4684054,-79.1698633
1006,Woodland Avenue,27330,35.4683184,-79.1696819
1008,Woodland Avenue,27330,35.4682293,-79.1695138
1010,Woodland Avenue,27330,35.4681113,-79.1693363
1012,Woodland Avenue,27330,35.4680287,-79.1691334
1009,Martin Street,27330,35.4674424,-79.1698656
1005,Martin Street,27330,35.4675901,-79.1701075
417,West Makepeace Street,27330,35.4677474,-79.1705563
505,West Makepeace Street,27330,35.4673423,-79.1708762
507,West Makepeace Street,27330,35.4671786,-79.1709934
509,West Makepeace Street,27330,35.4670080,-79.1710860
513,West Makepeace Street,27330,35.4668574,-79.1712103
501,West Makepeace Street,27330,35.4674733,-79.1707565
1004,Martin Street,27330,35.4672040,-79.1704508
1012,Martin Street,27330,35.4670106,-79.1699602
510,West Rose Street,27330,35.4664047,-79.1701048
521,West Makepeace Street,27330,35.4665303,-79.1714601
517,West Makepeace Street,27330,35.4666723,-79.1713400
1009,Hall Street,27330,35.4664433,-79.1710155
1011,Hall Street,27330,35.4663402,-79.1708589
1015,Hall Street,27330,35.4661586,-79.1706506
518,West Rose Street,27330,35.4659924,-79.1704128
515,West Rose Street,27330,35.4659495,-79.1698494
509,West Rose Street,27330,35.4661323,-79.1695309
503,West Rose Street,27330,35.4665314,-79.1692055
415,West Rose Street,27330,35.4669723,-79.1690107
1109,Martin Street,27330,35.4667842,-79.1684561
1116,Martin Street,27330,35.4660650,-79.1683414
1122,Martin Street,27330,35.4659749,-79.1680171
615,West Garden Street,27330,35.4637149,-79.1684979
611,West Garden Street,27330,35.4639403,-79.1683099
609,West Garden Street,27330,35.4641197,-79.1681904
605,West Garden Street,27330,35.4642910,-79.1680593
709,West Garden Street,27330,35.4628897,-79.1691917
705,West Garden Street,27330,35.4630509,-79.1690556
703,West Garden Street,27330,35.4632412,-79.1689173
701,West Garden Street,27330,35.4634031,-79.1687239
712,West Garden Street,27330,35.4630048,-79.1698600
704,West Garden Street,27330,35.4633848,-79.1696024
702,West Garden Street,27330,35.4635358,-79.1694491
700,West Garden Street,27330,35.4637188,-79.1693126
616,West Garden Street,27330,35.4639149,-79.1691571
612,West Garden Street,27330,35.4640911,-79.1690126
608,West Garden Street,27330,35.4642813,-79.1688761
606,West Garden Street,27330,35.4644677,-79.1687388
602,West Garden Street,27330,35.4646417,-79.1685735
600,West Garden Street,27330,35.4648355,-79.1684155
508,West Garden Street,27330,35.4655001,-79.1679137
506,West Garden Street,27330,35.4656676,-79.1677712
502,West Garden Street,27330,35.4658269,-79.1676519
610,West McIntosh Street,27330,35.4637817,-79.1677205
612,West McIntosh Street,27330,35.4636115,-79.1678605
614,West McIntosh Street,27330,35.4634762,-79.1679844
700,West McIntosh Street,27330,35.4631219,-79.1682724
702,West McIntosh Street,27330,35.4629647,-79.1684139
704,West McIntosh Street,27330,35.4627758,-79.1685435
706,West McIntosh Street,27330,35.4625791,-79.1686851
710,West McIntosh Street,27330,35.4623986,-79.1688233
616,West Spruce Street,27330,35.4644219,-79.1701178
612,West Spruce Street,27330,35.4646190,-79.1699794
610,West Spruce Street,27330,35.4647895,-79.1698473
606,West Spruce Street,27330,35.4649861,-79.1696793
617,West Spruce Street,27330,35.4639613,-79.1697820
615,West Spruce Street,27330,35.4641495,-79.1696258
611,West Spruce Street,27330,35.4643377,-79.1694772
609,West Spruce Street,27330,35.4645215,-79.1693533
605,West Spruce Street,27330,35.4647236,-79.1691766
603,West Spruce Street,27330,35.4648919,-79.1690493
601,West Spruce Street,27330,35.4650529,-79.1688904
1411,Pinehurst Street,27330,35.4619311,-79.1677750
1407,Pinehurst Street,27330,35.4621093,-79.1680377
1403,Pinehurst Street,27330,35.4622112,-79.1682865
801,West McIntosh Street,27330,35.4618055,-79.1686169
806,West McIntosh Street,27330,35.4618920,-79.1692716
800,West McIntosh Street,27330,35.4620857,-79.1691312
801,West Garden Street,27330,35.4623371,-79.1696278
1212,Pinehurst Street,27330,35.4627815,-79.1705752
800,West Garden Street,27330,35.4626450,-79.1701281
805,West Garden Street,27330,35.4621383,-79.1697392
807,West Garden Street,27330,35.4619415,-79.1698438
804,West Garden Street,27330,35.4624558,-79.1702751
808,West Garden Street,27330,35.4622875,-79.1704050
810,West Garden Street,27330,35.4620970,-79.1705735
814,West Garden Street,27330,35.4619173,-79.1707239
1111,Crest Street,27330,35.4630658,-79.1712674
1113,Crest Street,27330,35.4628793,-79.1712963
1115,Crest Street,27330,35.4626679,-79.1713690
1199,Crest Street,27330,35.4624798,-79.1714396
1201,Crest Street,27330,35.4623005,-79.1714714
1205,Crest Street,27330,35.4621194,-79.1714171
1211,Crest Street,27330,35.4619294,-79.1713558
1213,Crest Street,27330,35.4618069,-79.1712458
1204,Crest Street,27330,35.4619472,-79.1720003
1202,Crest Street,27330,35.4621771,-79.1720493
805,Juniper Drive,27330,35.4621694,-79.1725013
815,Juniper Drive,27330,35.4622765,-79.1730941
809,Juniper Drive,27330,35.4622409,-79.1728466
821,Juniper Drive,27330,35.4623236,-79.1733333
823,Juniper Drive,27330,35.4623925,-79.1735984
809,West Rose Street,27330,35.4633136,-79.1726394
811,West Rose Street,27330,35.4632981,-79.1729360
815,West Rose Street,27330,35.4631904,-79.1732109
805,West Rose Street,27330,35.4633467,-79.1723929
1102,Crest Street,27330,35.4634244,-79.1720802
1104,Crest Street,27330,35.4632208,-79.1719705
1106,Crest Street,27330,35.4630108,-79.1718725
1108,Crest Street,27330,35.4628350,-79.1718726
800,Juniper Drive,27330,35.4626274,-79.1720553
802,Juniper Drive,27330,35.4627166,-79.1723533
804,Juniper Drive,27330,35.4627314,-79.1725992
806,Juniper Drive,27330,35.4627519,-79.1728590
808,Juniper Drive,27330,35.4627328,-79.1731033
822,Juniper Drive,27330,35.4628800,-79.1735293
814,Juniper Drive,27330,35.4627918,-79.1733141
1012,Juniper Drive,27330,35.4630943,-79.1741089
816,West Rose Street,27330,35.4635503,-79.1735729
814,West Rose Street,27330,35.4637349,-79.1733273
812,West Rose Street,27330,35.4637926,-79.1730182
810,West Rose Street,27330,35.4638169,-79.1727999
808,West Rose Street,27330,35.4638154,-79.1725544
1107,Pinehurst Street,27330,35.4642575,-79.1704386
1103,Pinehurst Street,27330,35.4646127,-79.1705683
706,West Rose Street,27330,35.4644811,-79.1716405
612,West Rose Street,27330,35.4648944,-79.1713254
608,West Rose Street,27330,35.4650814,-79.1711650
1018,Hall Street,27330,35.4655739,-79.1707124
1016,Hall Street,27330,35.4656835,-79.1708743
1008,Hall Street,27330,35.4660187,-79.1714332
610,Pineland Street,27330,35.4674007,-79.1731929
608,Pineland Street,27330,35.4673843,-79.1729786
1213,Freeman Drive,27330,35.4676141,-79.1732030
1211,Freeman Drive,27330,35.4677784,-79.1731916
1209,Freeman Drive,27330,35.4679445,-79.1731764
1207,Freeman Drive,27330,35.4681093,-79.1731609
1205,Freeman Drive,27330,35.4682720,-79.1731441
1203,Freeman Drive,27330,35.4684368,-79.1731296
1201,Freeman Drive,27330,35.4686004,-79.1731098
503,Pineland Street,27330,35.4677530,-79.1717125
501,Pineland Street,27330,35.4678915,-79.1716268
925,Martin Street,27330,35.4680900,-79.1711220
412,West Makepeace Street,27330,35.4682050,-79.1708106
502,West Makepeace Street,27330,35.4676846,-79.1712821
506,West Makepeace Street,27330,35.4675336,-79.1713912
508,West Makepeace Street,27330,35.4673772,-79.1714986
512,West Makepeace Street,27330,35.4672227,-79.1716376
514,West Makepeace Street,27330,35.4670518,-79.1717572
516,West Makepeace Street,27330,35.4669069,-79.1718691
520,West Makepeace Street,27330,35.4666989,-79.1720278
604,West Makepeace Street,27330,35.4663357,-79.1723224
602,West Makepeace Street,27330,35.4665056,-79.1721807
1002,Hall Street,27330,35.4662723,-79.1718071
609,West Makepeace Street,27330,35.4658481,-79.1720746
918,Lansing Street,27330,35.4659869,-79.1734117
922,Lansing Street,27330,35.4658933,-79.1731848
926,Lansing Street,27330,35.4657799,-79.1729390
928,Lansing Street,27330,35.4657147,-79.1727251
925,Lansing Street,27330,35.4662599,-79.1728164
921,Lansing Street,27330,35.4663331,-79.1729974
919,Lansing Street,27330,35.4664315,-79.1732370
915,Lansing Street,27330,35.4665227,-79.1734582
913,Lansing Street,27330,35.4666203,-79.1736983
900,Lansing Street,27330,35.4667200,-79.1751017
902,Lansing Street,27330,35.4666302,-79.1749116
909,Lansing Street,27330,35.4667884,-79.1739447
907,Lansing Street,27330,35.4668555,-79.1741735
609,Greenland Drive,27330,35.4670091,-79.1746052
607,Greenland Drive,27330,35.4672253,-79.1745092
603,Pineland Street,27330,35.4674285,-79.1744128
608,Greenland Drive,27330,35.4671471,-79.1751494
606,Greenland Drive,27330,35.4673112,-79.1750923
600,Greenland Drive,27330,35.4678604,-79.1747877
602,Greenland Drive,27330,35.4676673,-79.1748826
604,Greenland Drive,27330,35.4674977,-79.1749886
1111,Woodland Avenue,27330,35.4678116,-79.1676794
1107,Woodland Avenue,27330,35.4679150,-79.1678617
1103,Woodland Avenue,27330,35.4680094,-79.1680454
1101,Woodland Avenue,27330,35.4680938,-79.1682181
733,South Horner Boulevard,27330,35.4716598,-79.1728083
813,South Horner Boulevard,27330,35.4714617,-79.1720048
317,Oakwood Avenue,27330,35.4781216,-79.1687902
323,Oakwood Avenue,27330,35.4782430,-79.1682797
326,Oakwood Avenue,27330,35.4778041,-79.1678006
322,Oakwood Avenue,27330,35.4777707,-79.1680966
320,Oakwood Avenue,27330,35.4776933,-79.1683875
310,Oakwood Avenue,27330,35.4775037,-79.1693883
308,Oakwood Avenue,27330,35.4774580,-79.1696492
509,South 3rd Street,27330,35.4768441,-79.1700661
511,South 3rd Street,27330,35.4766766,-79.1700200
515,South 3rd Street,27330,35.4765091,-79.1699385
700,Wall Street,27330,35.4763739,-79.1781774
510,Wall Street,27330,35.4763789,-79.1791588
506,Wall Street,27330,35.4763476,-79.1795026
417,Price Street,27330,35.4750548,-79.1803015
421,Price Street,27330,35.4750931,-79.1800279
600,Oddfellow Street,27330,35.4754516,-79.1798134
503,Carthage Street,27330,35.4781586,-79.1830865
500,Wicker Street,27330,35.4776592,-79.1826665
402,Wicker Street,27330,35.4781805,-79.1817549
412,Wicker Street,27330,35.4777030,-79.1818624
415,Birch Street,27330,35.4639630,-79.1633534
420,Hughes Street,27330,35.4625209,-79.1617268
410,West Courtland Drive,27330,35.4650445,-79.1649002
414,West Courtland Drive,27330,35.4649081,-79.1651011
406,West Courtland Drive,27330,35.4653953,-79.1646827
1509,Pinehurst Street,27330,35.4615113,-79.1668698
1503,Pinehurst Street,27330,35.4616005,-79.1672613
601,West Garden Street,27330,35.4644546,-79.1679242
414,Birch Street,27330,35.4641867,-79.1637477
410,Birch Street,27330,35.4644451,-79.1635477
409-A,Birch Street,27330,35.4644343,-79.1629387
409-B,Birch Street,27330,35.4642881,-79.1629990
411-B,Birch Street,27330,35.4641697,-79.1630864
413,Birch Street,27330,35.4640850,-79.1632099
314,Jefferson Street,27330,35.4646152,-79.1616021
306,Jefferson Street,27330,35.4650687,-79.1612679
310,Jefferson Street,27330,35.4648298,-79.1614443
1702,Woodland Avenue,27330,35.4639836,-79.1613336
1610,Woodland Avenue,27330,35.4643581,-79.1619931
422,West Courtland Drive,27330,35.4643529,-79.1652272
438,West Courtland Drive,27330,35.4633743,-79.1654583
427,West Courtland Drive,27330,35.4640450,-79.1646777
1510,Goldston Boulevard,27330,35.4639977,-79.1641944
1508,Woodland Avenue,27330,35.4651250,-79.1634909
515,West Garden Street,27330,35.4649416,-79.1675920
511,West Garden Street,27330,35.4650994,-79.1674692
507,West Garden Street,27330,35.4652741,-79.1673439
505,West Garden Street,27330,35.4654334,-79.1672289
501,West Garden Street,27330,35.4655889,-79.1671290
315,Jefferson Street,27330,35.4644149,-79.1611581
1611,Woodland Avenue,27330,35.4647480,-79.1617821
1607,Woodland Avenue,27330,35.4648853,-79.1620374
1603,Woodland Avenue,27330,35.4650080,-79.1622239
1612,Woodland Avenue,27330,35.4642338,-79.1618357
1608,Woodland Avenue,27330,35.4644296,-79.1621999
1606,Woodland Avenue,27330,35.4645632,-79.1624114
1604,Woodland Avenue,27330,35.4646493,-79.1625746
1600,Woodland Avenue,27330,35.4647468,-79.1627609
1516,Woodland Avenue,27330,35.4649572,-79.1631229
1512,Woodland Avenue,27330,35.4650542,-79.1633104
407,West Courtland Drive,27330,35.4651013,-79.1642696
409,West Courtland Drive,27330,35.4649549,-79.1643642
413,West Courtland Drive,27330,35.4648090,-79.1644861
418,West Courtland Drive,27330,35.4647243,-79.1652773
602,West McIntosh Street,27330,35.4641875,-79.1674287
514,West McIntosh Street,27330,35.4645193,-79.1671166
510,West McIntosh Street,27330,35.4647359,-79.1669495
506,West McIntosh Street,27330,35.4649820,-79.1667697
500,West McIntosh Street,27330,35.4652633,-79.1665538
417,West McIntosh Street,27330,35.4651992,-79.1659279
417,West Courtland Drive,27330,35.4646276,-79.1645802
423,West Courtland Drive,27330,35.4642638,-79.1646183
431,West Courtland Drive,27330,35.4638480,-79.1647210
601,West Courtland Drive,27330,35.4627829,-79.1647171
543,West Courtland Drive,27330,35.4630423,-79.1647851
539,West Courtland Drive,27330,35.4632688,-79.1648086
437,West Courtland Drive,27330,35.4634324,-79.1647504
435,West Courtland Drive,27330,35.4636518,-79.1647786
1709,Campbell Drive,27330,35.4626663,-79.1624510
1713,Campbell Drive,27330,35.4626331,-79.1622028
417,Hughes Street,27330,35.4626627,-79.1611464
500,Hughes Street,27330,35.4621068,-79.1618804
502,Hughes Street,27330,35.4619764,-79.1619276
510,Hughes Street,27330,35.4615339,-79.1620840
506,Hughes Street,27330,35.4617177,-79.1620331
505,Hughes Street,27330,35.4618963,-79.1614026
416,Hughes Street,27330,35.4627522,-79.1616315
412,Hughes Street,27330,35.4629436,-79.1615771
406,Hughes Street,27330,35.4633949,-79.1613402
410,Hughes Street,27330,35.4631247,-79.1615136
1712,Campbell Drive,27330,35.4622119,-79.1623307
1708,Campbell Drive,27330,35.4622889,-79.1625870
1706,Campbell Drive,27330,35.4623385,-79.1628245
603,Goldston Boulevard,27330,35.4623957,-79.1631502
605,Goldston Boulevard,27330,35.4621767,-79.1632117
609,Goldston Boulevard,27330,35.4620022,-79.1632540
611,Goldston Boulevard,27330,35.4617891,-79.1633156
615,Goldston Boulevard,27330,35.4615887,-79.1633790
614,Goldston Boulevard,27330,35.4615348,-79.1639222
612,Goldston Boulevard,27330,35.4617179,-79.1638831
610,Goldston Boulevard,27330,35.4619281,-79.1638322
602,Goldston Boulevard,27330,35.4623377,-79.1637363
600,Goldston Boulevard,27330,35.4625204,-79.1636616
506,Goldston Boulevard,27330,35.4631204,-79.1635426
504,Goldston Boulevard,27330,35.4633507,-79.1635073
1705,Campbell Drive,27330,35.4627320,-79.1627238
511,Goldston Boulevard,27330,35.4628189,-79.1630239
509,Goldston Boulevard,27330,35.4630223,-79.1629691
505,Goldston Boulevard,27330,35.4632269,-79.1629305
503,Goldston Boulevard,27330,35.4634764,-79.1628532
501,Goldston Boulevard,27330,35.4637063,-79.1628820
1518,Goldston Boulevard,27330,35.4636491,-79.1635358
1516,Goldston Boulevard,27330,35.4637346,-79.1636816
1514,Goldston Boulevard,27330,35.4638196,-79.1638411
1512,Goldston Boulevard,27330,35.4638962,-79.1640362
615,West Courtland Drive,27330,35.4617452,-79.1646453
611,West Courtland Drive,27330,35.4619594,-79.1646427
607,West Courtland Drive,27330,35.4622641,-79.1645880
426,West Courtland Drive,27330,35.4635781,-79.1654860
540,West Courtland Drive,27330,35.4631044,-79.1654764
548,West Courtland Drive,27330,35.4628332,-79.1654768
715,Primrose Lane,27330,35.4617178,-79.1663292
711,Primrose Lane,27330,35.4619915,-79.1663485
1501,Pinehurst Street,27330,35.4617706,-79.1675300
816,West Garden Street,27330,35.4617385,-79.1708573
809,West Garden Street,27330,35.4617761,-79.1700637
813,West Garden Street,27330,35.4616328,-79.1701786
810,West McIntosh Street,27330,35.4617157,-79.1694131
805,West McIntosh Street,27330,35.4616235,-79.1687254
711,North Steele Street,27330,35.4897385,-79.1870543
405A,North Vance Street,27330,35.4829757,-79.1873913
313,Green Street,27330,35.4819635,-79.1836625
309,Green Street,27330,35.4821800,-79.1833176
311,Green Street,27330,35.4820521,-79.1835057
221,North Horner Boulevard,27330,35.4824047,-79.1829102
219,North Horner Boulevard,27330,35.4822399,-79.1827650
215,North Horner Boulevard,27330,35.4820734,-79.1826193
211,North Horner Boulevard,27330,35.4818436,-79.1824178
304,Summit Drive,27330,35.4816990,-79.1826070
308,Summit Drive,27330,35.4815940,-79.1828671
310,Summit Drive,27330,35.4814742,-79.1830515
314,Summit Drive,27330,35.4813752,-79.1832620
318,Summit Drive,27330,35.4812287,-79.1835337
216,North Gulf Street,27330,35.4814394,-79.1837352
220,North Gulf Street,27330,35.4817946,-79.1840348
223,North Gulf Street,27330,35.4815522,-79.1845230
219,North Gulf Street,27330,35.4813849,-79.1844704
409,Green Street,27330,35.4812743,-79.1849787
311,North Gulf Street,27330,35.4823446,-79.1851603
310,North Vance Street,27330,35.4820548,-79.1856871
308,North Vance Street,27330,35.4818684,-79.1855225
304,North Vance Street,27330,35.4817072,-79.1853858
301,North Gulf Street,27330,35.4818075,-79.1847144
305,North Gulf Street,27330,35.4819763,-79.1848668
309,North Gulf Street,27330,35.4821406,-79.1850640
315,Cross Street,27330,35.4827298,-79.1843798
311,Cross Street,27330,35.4829374,-79.1840159
313,Cross Street,27330,35.4828224,-79.1842219
306,North Gulf Street,27330,35.4823892,-79.1845460
304,North Gulf Street,27330,35.4822548,-79.1844085
300,North Gulf Street,27330,35.4820870,-79.1842585
312,Green Street,27330,35.4823015,-79.1838983
310,Green Street,27330,35.4824280,-79.1837349
308,Green Street,27330,35.4824981,-79.1835612
304,North Horner Boulevard,27330,35.4830884,-79.1828981
318,Cross Street,27330,35.4828705,-79.1849984
316,Cross Street,27330,35.4829504,-79.1848251
310,Cross Street,27330,35.4831893,-79.1843949
306,Cross Street,27330,35.4832999,-79.1842034
304,Cross Street,27330,35.4834016,-79.1840304
321,West Chisholm Street,27330,35.4832735,-79.1853340
312,North Vance Street,27330,35.4823534,-79.1859674
321,North Gulf Street,27330,35.4828800,-79.1856808
325,North Gulf Street,27330,35.4830583,-79.1857705
407,West Chisholm Street,27330,35.4828046,-79.1861237
411,West Chisholm Street,27330,35.4826810,-79.1863192
504,Cross Street,27330,35.4820041,-79.1865404
507,West Chisholm Street,27330,35.4822587,-79.1870037
323,North Vance Street,27330,35.4825380,-79.1867124
411,North Vance Street,27330,35.4832583,-79.1874497
507,Bracken Street,27330,35.4830839,-79.1876754
509,Bracken Street,27330,35.4829717,-79.1878412
513,Bracken Street,27330,35.4828824,-79.1880467
515,Bracken Street,27330,35.4827739,-79.1882127
517,Bracken Street,27330,35.4826637,-79.1884196
521,Bracken Street,27330,35.4825569,-79.1885967
523,Bracken Street,27330,35.4824545,-79.1887775
525,Bracken Street,27330,35.4823666,-79.1889485
529,Bracken Street,27330,35.4822427,-79.1891527
531,Bracken Street,27330,35.4821443,-79.1893487
535,Bracken Street,27330,35.4819214,-79.1897249
405,North Vance Street,27330,35.4830404,-79.1871671
401,North Vance Street,27330,35.4828074,-79.1869421
506,West Chisholm Street,27330,35.4827023,-79.1872095
508,West Chisholm Street,27330,35.4826173,-79.1873892
510,West Chisholm Street,27330,35.4824661,-79.1875754
512,West Chisholm Street,27330,35.4823887,-79.1877108
516,West Chisholm Street,27330,35.4823181,-79.1879478
518,West Chisholm Street,27330,35.4821684,-79.1882184
522,West Chisholm Street,27330,35.4820480,-79.1884468
526,West Chisholm Street,27330,35.4819520,-79.1886807
528,West Chisholm Street,27330,35.4818318,-79.1888624
530,West Chisholm Street,27330,35.4816942,-79.1890650
534,West Chisholm Street,27330,35.4815563,-79.1893285
405,North Gulf Street,27330,35.4835258,-79.1861165
406,North Vance Street,27330,35.4833702,-79.1867926
410,West Chisholm Street,27330,35.4830247,-79.1865920
406,West Chisholm Street,27330,35.4831548,-79.1863674
401,North Gulf Street,27330,35.4833110,-79.1860442
407,North Gulf Street,27330,35.4836657,-79.1862789
500,North Gulf Street,27330,35.4844323,-79.1861353
504,North Gulf Street,27330,35.4845903,-79.1862522
312,Bracken Street,27330,35.4845519,-79.1859745
310,Bracken Street,27330,35.4846931,-79.1858820
308,Bracken Street,27330,35.4847485,-79.1856407
306,Bracken Street,27330,35.4848388,-79.1853737
311,West Weatherspoon Street,27330,35.4850756,-79.1862269
309,West Weatherspoon Street,27330,35.4851866,-79.1860153
404,North Gulf Street,27330,35.4837582,-79.1856487
400,North Gulf Street,27330,35.4835936,-79.1855268
310,West Chisholm Street,27330,35.4837868,-79.1851869
308,West Chisholm Street,27330,35.4838724,-79.1849796
303,North Horner Boulevard,27330,35.4826924,-79.1831749
307,North Horner Boulevard,27330,35.4829359,-79.1834307
309,North Horner Boulevard,27330,35.4830565,-79.1835224
636,Palmer Drive,27330,35.4809737,-79.1945161
622,Palmer Drive,27330,35.4811907,-79.1941236
603,Denada Path,27330,35.4814397,-79.1936947
601,Palmer Drive,27330,35.4811468,-79.1916493
508,North Vance Street,27330,35.4841875,-79.1874557
505,North Vance Street,27330,35.4837477,-79.1878284
501,North Vance Street,27330,35.4835911,-79.1876217
506,Bracken Street,27330,35.4834142,-79.1879733
510,Bracken Street,27330,35.4833127,-79.1881496
512,Bracken Street,27330,35.4832523,-79.1883403
514,Bracken Street,27330,35.4831255,-79.1885177
518,Bracken Street,27330,35.4830462,-79.1887229
522,Bracken Street,27330,35.4828079,-79.1890804
520,Bracken Street,27330,35.4829352,-79.1888954
507,West Weatherspoon Street,27330,35.4838748,-79.1883073
537,West Weatherspoon Street,27330,35.4827260,-79.1903756
533,West Weatherspoon Street,27330,35.4828187,-79.1901921
531,West Weatherspoon Street,27330,35.4829415,-79.1900252
526,Bracken Street,27330,35.4827249,-79.1892706
528,Bracken Street,27330,35.4825979,-79.1894608
530,Bracken Street,27330,35.4825060,-79.1896457
534,Bracken Street,27330,35.4824051,-79.1898354
536,Bracken Street,27330,35.4823160,-79.1900426
612,West Chisholm Street,27330,35.4806436,-79.1916202
622,West Chisholm Street,27330,35.4803670,-79.1922886
620,West Chisholm Street,27330,35.4805336,-79.1919376
608,West Chisholm Street,27330,35.4807690,-79.1911904
602,West Chisholm Street,27330,35.4809105,-79.1907122
600,West Chisholm Street,27330,35.4810114,-79.1903661
540,West Chisholm Street,27330,35.4813880,-79.1897903
541,Bracken Street,27330,35.4816898,-79.1900897
605,Carr Street,27330,35.4790676,-79.1889443
626,Sunset Drive,27330,35.4796241,-79.1904299
622,Sunset Drive,27330,35.4797202,-79.1901968
609,West Chisholm Street,27330,35.4801911,-79.1909309
607,West Chisholm Street,27330,35.4803461,-79.1905296
601,West Chisholm Street,27330,35.4805677,-79.1901907
421,Carbonton Road,27330,35.4793423,-79.1940595
335,Carbonton Road,27330,35.4783558,-79.1929005
327,Carbonton Road,27330,35.4778730,-79.1924512
704,Fitts Street,27330,35.4775248,-79.1918383
708,Fitts Street,27330,35.4772626,-79.1919793
712,Fitts Street,27330,35.4770104,-79.1920631
205,Hill Avenue,27330,35.4898254,-79.1874712
624,North Horner Boulevard,27330,35.4873957,-79.1863423
707,North Steele Street,27330,35.4895817,-79.1869281
202,Randolph Street,27330,35.4892360,-79.1866624
640,North Steele Street,27330,35.4889540,-79.1856451
622,North Steele Street,27330,35.4882759,-79.1847636
612,North Steele Street,27330,35.4876365,-79.1842903
611,North Steele Street,27330,35.4870556,-79.1849011
139,East Chisholm Street,27330,35.4862137,-79.1783621
501,Hawkins Avenue,27330,35.4869283,-79.1801115
505,Hawkins Avenue,27330,35.4871326,-79.1801329
507,Hawkins Avenue,27330,35.4873626,-79.1801444
412,Hawkins Avenue,27330,35.4867644,-79.1792897
413,Hawkins Avenue,27330,35.4866098,-79.1799644
402,Hawkins Avenue,27330,35.4860868,-79.1789582
318,Hawkins Avenue,27330,35.4856634,-79.1788985
409,Hawkins Avenue,27330,35.4863726,-79.1798897
405,Hawkins Avenue,27330,35.4861092,-79.1797782
408,Hawkins Avenue,27330,35.4865260,-79.1792049
404,Hawkins Avenue,27330,35.4863056,-79.1791175
315,Hawkins Avenue,27330,35.4851892,-79.1795141
319,Hawkins Avenue,27330,35.4853852,-79.1795218
103,East Chisholm Street,27330,35.4855073,-79.1811360
408,Greensboro Avenue,27330,35.4860869,-79.1806131
404,Greensboro Avenue,27330,35.4859145,-79.1805104
113,East Chisholm Street,27330,35.4857152,-79.1802793
118,East Chisholm Street,27330,35.4854791,-79.1798035
114,East Chisholm Street,27330,35.4854102,-79.1800467
112,East Chisholm Street,27330,35.4853546,-79.1802248
110,East Chisholm Street,27330,35.4853076,-79.1803747
106,East Chisholm Street,27330,35.4852749,-79.1805722
104,East Chisholm Street,27330,35.4852110,-79.1808251
209,North 2nd Street,27330,35.4843338,-79.1742187
208,North Avenue,27330,35.4847690,-79.1746868
811,West Whitford Street,27330,35.4750173,-79.1906026
813,West Whitford Street,27330,35.4747936,-79.1906200
800,Tryon Street,27330,35.4752944,-79.1896017
305,Park Avenue,27330,35.4756267,-79.1911161
215,Park Avenue,27330,35.4754851,-79.1905194
211,Park Avenue,27330,35.4754375,-79.1902697
207,Park Avenue,27330,35.4753538,-79.1900135
506,Cross Street,27330,35.4818843,-79.1867370
317,North Vance Street,27330,35.4822566,-79.1864423
502,Cross Street,27330,35.4821202,-79.1863146
510,Cross Street,27330,35.4817647,-79.1869461
516,Cross Street,27330,35.4815197,-79.1873455
505,Cross Street,27330,35.4816451,-79.1862164
507,Cross Street,27330,35.4815225,-79.1863831
511,Cross Street,27330,35.4813835,-79.1865848
515,Cross Street,27330,35.4812453,-79.1868128
517,Cross Street,27330,35.4811326,-79.1870733
519,Cross Street,27330,35.4810267,-79.1872331
217,North Gulf Street,27330,35.4812499,-79.1842741
303,North Vance Street,27330,35.4813630,-79.1858216
301,North Vance Street,27330,35.4812191,-79.1856700
227,North Vance Street,27330,35.4810563,-79.1855355
223,North Vance Street,27330,35.4807605,-79.1852475
502,Summit Drive,27330,35.4804530,-79.1849329
504,Summit Drive,27330,35.4804160,-79.1851471
506,Summit Drive,27330,35.4803113,-79.1853409
510,Summit Drive,27330,35.4803160,-79.1856062
516,Summit Drive,27330,35.4803756,-79.1858525
524,Summit Drive,27330,35.4805529,-79.1863830
526,Summit Drive,27330,35.4806251,-79.1867180
503,Summit Drive,27330,35.4800645,-79.1845872
507,Summit Drive,27330,35.4798768,-79.1850698
509,Summit Drive,27330,35.4798161,-79.1853397
513,Summit Drive,27330,35.4798076,-79.1855944
515,Summit Drive,27330,35.4798446,-79.1858448
519,Summit Drive,27330,35.4798800,-79.1860739
521,Summit Drive,27330,35.4799863,-79.1862874
523,Summit Drive,27330,35.4800559,-79.1864883
527,Summit Drive,27330,35.4800912,-79.1867247
529,Summit Drive,27330,35.4801803,-79.1869502
533,Summit Drive,27330,35.4802200,-79.1872033
535,Summit Drive,27330,35.4802456,-79.1873864
539,Summit Drive,27330,35.4802654,-79.1876494
552,Cross Street,27330,35.4798243,-79.1885305
514,Sunset Drive,27330,35.4792769,-79.1850831
520,Sunset Drive,27330,35.4792200,-79.1855104
510,Sunset Drive,27330,35.4793506,-79.1848772
530,Sunset Drive,27330,35.4793617,-79.1861813
534,Sunset Drive,27330,35.4794898,-79.1864856
538,Sunset Drive,27330,35.4796892,-79.1869139
544,Sunset Drive,27330,35.4798341,-79.1872924
550,Sunset Drive,27330,35.4799050,-79.1878094
522,Sunset Drive,27330,35.4792483,-79.1857654
516,Sunset Drive,27330,35.4792519,-79.1852909
506,Sunset Drive,27330,35.4794387,-79.1846681
502,Sunset Drive,27330,35.4796616,-79.1842513
504,Sunset Drive,27330,35.4795239,-79.1844536
319,North Steele Street,27330,35.4843883,-79.1825391
315,North Steele Street,27330,35.4842583,-79.1824045
206,Cross Street,27330,35.4840588,-79.1827979
208,Cross Street,27330,35.4839499,-79.1829624
213,Cross Street,27330,35.4836042,-79.1828512
311,North Steele Street,27330,35.4840185,-79.1822430
309,North Steele Street,27330,35.4839142,-79.1821408
305,North Steele Street,27330,35.4836172,-79.1818597
306,North Steele Street,27330,35.4839751,-79.1815899
207,West Chisholm Street,27330,35.4844798,-79.1831606
211,West Chisholm Street,27330,35.4843674,-79.1833278
213,West Chisholm Street,27330,35.4842870,-79.1834949
215,West Chisholm Street,27330,35.4842360,-79.1836859
217,West Chisholm Street,27330,35.4841314,-79.1838285
400,North Horner Boulevard,27330,35.4844344,-79.1840324
210,West Chisholm Street,27330,35.4846863,-79.1836464
208,West Chisholm Street,27330,35.4847713,-79.1834797
405,North Steele Street,27330,35.4851617,-79.1831834
205,Bracken Street,27330,35.4853558,-79.1836984
207,Bracken Street,27330,35.4852727,-79.1838018
209,Bracken Street,27330,35.4851958,-79.1839472
411,North Steele Street,27330,35.4855002,-79.1834470
407,North Steele Street,27330,35.4853341,-79.1833433
403,North Steele Street,27330,35.4850050,-79.1830533
203,West Chisholm Street,27330,35.4847157,-79.1828046
323,North Steele Street,27330,35.4846117,-79.1827273
321,North Steele Street,27330,35.4844990,-79.1826311
106,West Chisholm Street,27330,35.4852325,-79.1822101
104,West Chisholm Street,27330,35.4852859,-79.1820117
620,North Horner Boulevard,27330,35.4871450,-79.1862510
615,North Steele Street,27330,35.4873401,-79.1851763
609,North Steele Street,27330,35.4867808,-79.1845456
605,North Steele Street,27330,35.4866050,-79.1844153
106,West Weatherspoon Street,27330,35.4870561,-79.1836873
103,East Weatherspoon Street,27330,35.4874742,-79.1828124
102,West Weatherspoon Street,27330,35.4872021,-79.1834105
607,North Moore Street,27330,35.4875338,-79.1836725
618,North Steele Street,27330,35.4879841,-79.1845756
630,North Steele Street,27330,35.4885903,-79.1852145
106,McGill Street,27330,35.4891887,-79.1838139
102,McGill Street,27330,35.4891413,-79.1841923
716,Greensboro Avenue,27330,35.4906697,-79.1816314
703,Hawkins Avenue,27330,35.4897661,-79.1806152
715,Hawkins Avenue,27330,35.4906315,-79.1808683
713,Hawkins Avenue,27330,35.4904682,-79.1808365
711,Hawkins Avenue,27330,35.4902999,-79.1808143
706,Hawkins Avenue,27330,35.4900851,-79.1802057
614,Hawkins Avenue,27330,35.4891983,-79.1797495
620,Hawkins Avenue,27330,35.4894970,-79.1797874
700,Hawkins Avenue,27330,35.4897133,-79.1800774
135,McGill Street,27330,35.4897353,-79.1808631
131,McGill Street,27330,35.4897362,-79.1811680
712,Greensboro Avenue,27330,35.4903454,-79.1816114
715,Greensboro Avenue,27330,35.4906187,-79.1821883
711,Greensboro Avenue,27330,35.4901986,-79.1822069
801,North Steele Street,27330,35.4902387,-79.1874482
811,North Steele Street,27330,35.4908160,-79.1879029
807,North Steele Street,27330,35.4905518,-79.1877178
802,North Steele Street,27330,35.4905754,-79.1870947
804,North Steele Street,27330,35.4907010,-79.1871682
806,North Steele Street,27330,35.4908177,-79.1872647
800,North Steele Street,27330,35.4904486,-79.1870072
717,North Steele Street,27330,35.4899850,-79.1872424
712,North Steele Street,27330,35.4900400,-79.1866692
716,North Steele Street,27330,35.4902078,-79.1868255
708,North Steele Street,27330,35.4898611,-79.1865054
704,North Steele Street,27330,35.4896966,-79.1863754
700,North Steele Street,27330,35.4894363,-79.1861680
102,Randolph Street,27330,35.4898211,-79.1857447
708,Lawrence Street,27330,35.4899220,-79.1831064
710,Lawrence Street,27330,35.4900699,-79.1831136
712,Lawrence Street,27330,35.4902052,-79.1831222
714,Lawrence Street,27330,35.4903562,-79.1831221
716,Lawrence Street,27330,35.4905549,-79.1831275
717,Lawrence Street,27330,35.4905670,-79.1836919
715,Lawrence Street,27330,35.4903827,-79.1836706
713,Lawrence Street,27330,35.4902310,-79.1836768
711,Lawrence Street,27330,35.4900703,-79.1836714
112,McGill Street,27330,35.4891849,-79.1828819
120,McGill Street,27330,35.4892108,-79.1821968
122,McGill Street,27330,35.4892028,-79.1820069
123,McGill Street,27330,35.4897219,-79.1820820
119,McGill Street,27330,35.4897116,-79.1822960
117,McGill Street,27330,35.4897037,-79.1825156
115,McGill Street,27330,35.4896807,-79.1827394
113,McGill Street,27330,35.4896615,-79.1829722
110,McGill Street,27330,35.4891601,-79.1831335
113,Jackson Street,27330,35.4887758,-79.1828065
115,Jackson Street,27330,35.4887784,-79.1826405
110,Jackson Street,27330,35.4883207,-79.1830488
116,Jackson Street,27330,35.4882244,-79.1824658
118,Jackson Street,27330,35.4882278,-79.1823128
105,East Weatherspoon Street,27330,35.4875518,-79.1825234
606,Lawrence Street,27330,35.4881013,-79.1830922
610,Lawrence Street,27330,35.4878937,-79.1830565
607,Lawrence Street,27330,35.4883019,-79.1835272
108,McGill Street,27330,35.4891670,-79.1835252
817,North Horner Boulevard,27330,35.4903050,-79.1897335
605,North Horner Boulevard,27330,35.4860581,-79.1860072
309,Queens Road,27330,35.4866991,-79.1874532
623,North Horner Boulevard,27330,35.4869030,-79.1868263
616,North Horner Boulevard,27330,35.4868585,-79.1859897
618,North Horner Boulevard,27330,35.4869846,-79.1861504
212,Marks Street,27330,35.4871361,-79.1857088
208,Marks Street,27330,35.4872224,-79.1854439
110,West Weatherspoon Street,27330,35.4868640,-79.1840797
208,West Weatherspoon Street,27330,35.4863618,-79.1848773
210,West Weatherspoon Street,27330,35.4862050,-79.1850683
209,Marks Street,27330,35.4868063,-79.1853036
610,North Horner Boulevard,27330,35.4865311,-79.1857941
606,North Horner Boulevard,27330,35.4863657,-79.1856538
604,North Horner Boulevard,27330,35.4862149,-79.1854938
212,West Weatherspoon Street,27330,35.4861040,-79.1852201
503,North Horner Boulevard,27330,35.4850207,-79.1851169
505,North Horner Boulevard,27330,35.4851793,-79.1852951
507,North Horner Boulevard,27330,35.4853268,-79.1854053
511,North Horner Boulevard,27330,35.4854894,-79.1855660
306,West Weatherspoon Street,27330,35.4856563,-79.1860848
308,West Weatherspoon Street,27330,35.4855442,-79.1863105
310,West Weatherspoon Street,27330,35.4854046,-79.1865277
549,Summit Drive,27330,35.4801801,-79.1880460
550,Cross Street,27330,35.4800290,-79.1885970
130,Hillcrest Drive,27330,35.4783889,-79.1861587
208,Hillcrest Drive,27330,35.4787124,-79.1868444
204,Hillcrest Drive,27330,35.4785643,-79.1867105
202,Hillcrest Drive,27330,35.4784375,-79.1865818
200,Hillcrest Drive,27330,35.4782899,-79.1864196
113,Hillcrest Drive,27330,35.4776827,-79.1865676
115,Hillcrest Drive,27330,35.4778507,-79.1868142
620,Sunset Drive,27330,35.4797217,-79.1899194
615,Sunset Drive,27330,35.4793057,-79.1893962
609,Sunset Drive,27330,35.4793218,-79.1888365
217,Hillcrest Drive,27330,35.4788792,-79.1878030
213,Hillcrest Drive,27330,35.4786978,-79.1875612
207,Hillcrest Drive,27330,35.4784097,-79.1872469
205,Hillcrest Drive,27330,35.4781883,-79.1870577
631,Highland Street,27330,35.4783526,-79.1882277
629,Highland Street,27330,35.4786004,-79.1884379
625,Highland Street,27330,35.4788476,-79.1887316
615,Carr Street,27330,35.4783447,-79.1894172
620,Carr Street,27330,35.4785572,-79.1902204
624,Carr Street,27330,35.4782570,-79.1904684
312,Carbonton Road,27330,35.4778485,-79.1909237
704,West Whitford Street,27330,35.4767421,-79.1905407
301,Carbonton Road,27330,35.4770180,-79.1904337
211,Carbonton Road,27330,35.4769460,-79.1899826
209,Carbonton Road,27330,35.4768800,-79.1897772
207,Carbonton Road,27330,35.4768068,-79.1895252
205,Carbonton Road,27330,35.4767485,-79.1892652
201,Carbonton Road,27330,35.4766953,-79.1890449
121,Carbonton Road,27330,35.4766253,-79.1887938
117,Carbonton Road,27330,35.4765397,-79.1885274
115,Carbonton Road,27330,35.4765011,-79.1883008
550,Bracken Street,27330,35.4818339,-79.1909684
546,Bracken Street,27330,35.4819046,-79.1907768
542,Bracken Street,27330,35.4819861,-79.1905644
540,Bracken Street,27330,35.4820923,-79.1903753
545,West Weatherspoon Street,27330,35.4822376,-79.1912602
547,West Weatherspoon Street,27330,35.4820845,-79.1916051
543,West Weatherspoon Street,27330,35.4823376,-79.1910252
539,West Weatherspoon Street,27330,35.4824799,-79.1907525
529,West Weatherspoon Street,27330,35.4830325,-79.1898285
525,West Weatherspoon Street,27330,35.4831359,-79.1896293
523,West Weatherspoon Street,27330,35.4832393,-79.1894455
521,West Weatherspoon Street,27330,35.4833627,-79.1892664
517,West Weatherspoon Street,27330,35.4834535,-79.1890715
515,West Weatherspoon Street,27330,35.4835707,-79.1888994
509,West Weatherspoon Street,27330,35.4836871,-79.1886995
509,North Vance Street,27330,35.4840058,-79.1879212
707,Lawrence Street,27330,35.4898919,-79.1836773
109,McGill Street,27330,35.4896512,-79.1835813
105,McGill Street,27330,35.4896157,-79.1839810
103,McGill Street,27330,35.4896055,-79.1841414
101,McGill Street,27330,35.4895907,-79.1843328
704,Bennett Street,27330,35.4898616,-79.1842994
710,Bennett Street,27330,35.4901892,-79.1842187
207,Hill Avenue,27330,35.4897070,-79.1875950
105,Charlotte Avenue,27330,35.4817568,-79.1780443
611,Carthage Street,27330,35.4764299,-79.1861737
204,Park Avenue,27330,35.4757787,-79.1895614
206,Park Avenue,27330,35.4758298,-79.1898159
210,North Monroe Avenue,27330,35.4748382,-79.1901252
804,Tryon Street,27330,35.4749483,-79.1896475
810,Tryon Street,27330,35.4745586,-79.1896275
200,Park Avenue,27330,35.4757444,-79.1892936
112,Park Avenue,27330,35.4755768,-79.1887277
110,Park Avenue,27330,35.4755655,-79.1885585
108,Park Avenue,27330,35.4755479,-79.1883793
106,Park Avenue,27330,35.4755422,-79.1881252
809,Carthage Street,27330,35.4747082,-79.1872743
203,North Monroe Avenue,27330,35.4741091,-79.1897708
209,North Monroe Avenue,27330,35.4742287,-79.1902354
810,West Whitford Street,27330,35.4751848,-79.1911526
814,West Whitford Street,27330,35.4748643,-79.1911910
900,West Whitford Street,27330,35.4746052,-79.1913482
904,West Whitford Street,27330,35.4743012,-79.1913811
903,West Whitford Street,27330,35.4742983,-79.1906604
907,West Whitford Street,27330,35.4739437,-79.1907396
910,West Whitford Street,27330,35.4739873,-79.1915298
212,Park Avenue,27330,35.4759574,-79.1902326
302,Park Avenue,27330,35.4761123,-79.1908378
306,Park Avenue,27330,35.4762043,-79.1911708
821,Fitts Street,27330,35.4746611,-79.1921210
822,Fitts Street,27330,35.4747580,-79.1929863
912,Fitts Street,27330,35.4743124,-79.1930074
922,Fitts Street,27330,35.4739585,-79.1931855
822-A,Fitts Street,27330,35.4747486,-79.1941197
332,Park Avenue,27330,35.4768276,-79.1935390
803,Park Avenue,27330,35.4762289,-79.1937549
805,Park Avenue,27330,35.4761510,-79.1940046
331,Park Avenue,27330,35.4762577,-79.1933765
327,Park Avenue,27330,35.4761708,-79.1930991
323,Park Avenue,27330,35.4760859,-79.1927761
319,Park Avenue,27330,35.4760401,-79.1925048
318,Park Avenue,27330,35.4765289,-79.1922865
310,Park Avenue,27330,35.4762861,-79.1914284
717,Fitts Street,27330,35.4765230,-79.1916551
713,Fitts Street,27330,35.4768804,-79.1915174
322,Park Avenue,27330,35.4765886,-79.1925882
324,Park Avenue,27330,35.4766640,-79.1928800
330,Park Avenue,27330,35.4767449,-79.1932056
807,Park Avenue,27330,35.4760534,-79.1942613
809,Park Avenue,27330,35.4759861,-79.1944866
811,Park Avenue,27330,35.4758854,-79.1947505
813,Park Avenue,27330,35.4758028,-79.1949895
815,Park Avenue,27330,35.4757240,-79.1952294
817,Park Avenue,27330,35.4756422,-79.1954712
336,Park Avenue,27330,35.4767194,-79.1939854
806,Park Avenue,27330,35.4765856,-79.1942074
808,Park Avenue,27330,35.4764800,-79.1944875
812,Park Avenue,27330,35.4763323,-79.1949849
814,Park Avenue,27330,35.4762300,-79.1952172
816,Park Avenue,27330,35.4761667,-79.1954611
818,Park Avenue,27330,35.4760886,-79.1957138
410,Carbonton Road,27330,35.4795641,-79.1927926
422,Carbonton Road,27330,35.4799680,-79.1932257
628,West Chisholm Street,27330,35.4801601,-79.1927403
600,Palmer Drive,27330,35.4819137,-79.1922230
610,Palmer Drive,27330,35.4816472,-79.1928927
501,Carbonton Road,27330,35.4797347,-79.1944872
601,Carbonton Road,27330,35.4794496,-79.1956767
610,Carbonton Road,27330,35.4805208,-79.1965041
504,Carbonton Road,27330,35.4807953,-79.1949312
508,Carbonton Road,27330,35.4807052,-79.1952931
600,Carbonton Road,27330,35.4805350,-79.1959312
502,North Vance Street,27330,35.4838287,-79.1871879
505,North Gulf Street,27330,35.4843108,-79.1867867
503,North Gulf Street,27330,35.4841563,-79.1866504
507,North Gulf Street,27330,35.4844513,-79.1869155
621,Carbonton Road,27330,35.4797892,-79.1972584
611,Carbonton Road,27330,35.4794680,-79.1964263
615,Halifax Street,27330,35.4810476,-79.1971085
700,Carbonton Road,27330,35.4805830,-79.1979277
618,Halifax Street,27330,35.4809547,-79.1979500
610,Halifax Street,27330,35.4812440,-79.1979439
610,Pinecrest Lane,27330,35.4809483,-79.1961679
613,Palmer Drive,27330,35.4810658,-79.1927749
612,Denada Path,27330,35.4820607,-79.1933911
616,Denada Path,27330,35.4823400,-79.1935313
622,Denada Path,27330,35.4826620,-79.1937253
713,Denada Path,27330,35.4823810,-79.1954373
707,Denada Path,27330,35.4823435,-79.1949217
613,Denada Path,27330,35.4819087,-79.1941441
700,Denada Path,27330,35.4829644,-79.1944478
719,Denada Path,27330,35.4825486,-79.1960015
729,Denada Path,27330,35.4830617,-79.1968715
645,North Gulf Street,27330,35.4866410,-79.1894889
633,North Gulf Street,27330,35.4862806,-79.1886218
628,Spring Lane,27330,35.4859719,-79.1890427
616,Spring Lane,27330,35.4856007,-79.1880766
513,Walnut Drive,27330,35.4837081,-79.1905785
515,Walnut Drive,27330,35.4835737,-79.1907694
519,Walnut Drive,27330,35.4834690,-79.1909995
615,Brinn Drive,27330,35.4827945,-79.1929027
611,Brinn Drive,27330,35.4826227,-79.1926006
607,Brinn Drive,27330,35.4825191,-79.1923527
603,Brinn Drive,27330,35.4823297,-79.1920157
538,West Weatherspoon Street,27330,35.4829697,-79.1909251
536,West Weatherspoon Street,27330,35.4830689,-79.1906762
542,West Weatherspoon Street,27330,35.4827996,-79.1912099
544,West Weatherspoon Street,27330,35.4827032,-79.1913748
546,West Weatherspoon Street,27330,35.4826108,-79.1915633
534,West Weatherspoon Street,27330,35.4831952,-79.1905051
530,West Weatherspoon Street,27330,35.4833002,-79.1903100
528,West Weatherspoon Street,27330,35.4833912,-79.1901230
526,West Weatherspoon Street,27330,35.4835078,-79.1899430
522,West Weatherspoon Street,27330,35.4836145,-79.1897345
520,West Weatherspoon Street,27330,35.4837183,-79.1895669
518,West Weatherspoon Street,27330,35.4838111,-79.1893683
514,West Weatherspoon Street,27330,35.4839488,-79.1891566
602,North Vance Street,27330,35.4844187,-79.1887886
500,West Weatherspoon Street,27330,35.4844749,-79.1883268
627,Spring Lane,27330,35.4853667,-79.1892625
710,North Vance Street,27330,35.4855166,-79.1914259
706,North Vance Street,27330,35.4853374,-79.1911080
612,North Gulf Street,27330,35.4856186,-79.1872399
614,North Gulf Street,27330,35.4858798,-79.1874351
616,North Gulf Street,27330,35.4861960,-79.1874809
622,North Gulf Street,27330,35.4861660,-79.1878024
628,North Gulf Street,27330,35.4864254,-79.1878825
314,West Weatherspoon Street,27330,35.4853010,-79.1866807
318,West Weatherspoon Street,27330,35.4851565,-79.1869706
604,Spring Lane,27330,35.4852125,-79.1874515
409,West Weatherspoon Street,27330,35.4843423,-79.1875373
511,North Gulf Street,27330,35.4846607,-79.1870749
400,West Weatherspoon Street,27330,35.4848342,-79.1875541
615,Spring Lane,27330,35.4848773,-79.1882018
619,Spring Lane,27330,35.4851366,-79.1887792
621,Spring Lane,27330,35.4852510,-79.1890402
700,Spring Lane,27330,35.4866252,-79.1909697
646,Spring Lane,27330,35.4863799,-79.1903857
701,North Gulf Street,27330,35.4867835,-79.1898945
711,North Gulf Street,27330,35.4870803,-79.1907079
710,Lynn Avenue,27330,35.4871519,-79.1910611
403,Queens Road,27330,35.4874446,-79.1909954
513,Queens Road,27330,35.4878244,-79.1923123
316,Knotty Pine Trail,27330,35.4899870,-79.1910312
319,Knotty Pine Trail,27330,35.4893754,-79.1904557
815,Lynn Avenue,27330,35.4885781,-79.1916163
822,North Gulf Street,27330,35.4888406,-79.1891765
701,North Vance Street,27330,35.4846403,-79.1910463
715,Spring Lane,27330,35.4866594,-79.1924074
719,North Vance Street,27330,35.4851875,-79.1925326
503,Brinn Drive,27330,35.4853939,-79.1929826
522,Brinn Drive,27330,35.4841983,-79.1939167
811,Southall Place,27330,35.4844046,-79.1943555
500,Brinn Drive,27330,35.4857320,-79.1938725
516,Maplewood Drive,27330,35.4841528,-79.1923855
631,Spring Lane,27330,35.4854574,-79.1895555
633,Spring Lane,27330,35.4855424,-79.1897902
637,Spring Lane,27330,35.4856374,-79.1900073
637,North Gulf Street,27330,35.4864069,-79.1889383
525,Walnut Drive,27330,35.4832097,-79.1914559
529,Walnut Drive,27330,35.4830764,-79.1917773
533,Walnut Drive,27330,35.4829230,-79.1920077
509,Walnut Drive,27330,35.4838513,-79.1903278
505,Walnut Drive,27330,35.4840004,-79.1899899
501,Walnut Drive,27330,35.4841542,-79.1897590
628,North Vance Street,27330,35.4850109,-79.1902602
520,Maplewood Drive,27330,35.4837673,-79.1924116
520,Walnut Drive,27330,35.4838715,-79.1912614
514,Walnut Drive,27330,35.4840468,-79.1909493
510,Walnut Drive,27330,35.4841793,-79.1907131
506,Walnut Drive,27330,35.4843538,-79.1904256
612,North Vance Street,27330,35.4847417,-79.1892575
616,North Vance Street,27330,35.4847831,-79.1896454
622,North Vance Street,27330,35.4849361,-79.1899183
702,North Vance Street,27330,35.4852426,-79.1908012
728,North Vance Street,27330,35.4860040,-79.1927611
724,North Vance Street,27330,35.4858795,-79.1924733
718,North Vance Street,27330,35.4857529,-79.1921125
714,North Vance Street,27330,35.4856327,-79.1917509
705,North Vance Street,27330,35.4846638,-79.1914936
511,Maplewood Drive,27330,35.4844166,-79.1914841
515,Maplewood Drive,27330,35.4841408,-79.1915319
709,North Vance Street,27330,35.4848714,-79.1915831
510,Maplewood Drive,27330,35.4844953,-79.1923990
506,Maplewood Drive,27330,35.4847792,-79.1923362
815,Southall Place,27330,35.4845020,-79.1946972
817,Southall Place,27330,35.4845941,-79.1951749
518,Brinn Drive,27330,35.4845326,-79.1938677
514,Brinn Drive,27330,35.4848503,-79.1937602
523,Brinn Drive,27330,35.4841385,-79.1930899
517,Brinn Drive,27330,35.4846838,-79.1931018
513,Brinn Drive,27330,35.4850267,-79.1930794
506,Brinn Drive,27330,35.4853223,-79.1938324
816,Southall Place,27330,35.4851272,-79.1946051
529,Brinn Drive,27330,35.4838046,-79.1929261
521,Brinn Drive,27330,35.4844192,-79.1931187
633,Spottswood Drive,27330,35.4838704,-79.1943452
625,Spottswood Drive,27330,35.4840045,-79.1947657
606,Spottswood Drive,27330,35.4846336,-79.1961385
602,Spottswood Drive,27330,35.4851758,-79.1960908
512,Spottswood Drive,27330,35.4854615,-79.1959464
508,Spottswood Drive,27330,35.4857237,-79.1959121
502,Spottswood Drive,27330,35.4859964,-79.1958295
410,Spottswood Drive,27330,35.4862435,-79.1958719
406,Spottswood Drive,27330,35.4865417,-79.1959054
905,Spring Lane,27330,35.4869369,-79.1960055
811,North Vance Street,27330,35.4856518,-79.1947287
410,Brinn Drive,27330,35.4863349,-79.1937740
808,North Vance Street,27330,35.4863250,-79.1942819
812,North Vance Street,27330,35.4863717,-79.1946110
816,North Vance Street,27330,35.4864092,-79.1949394
820,North Vance Street,27330,35.4864963,-79.1952215
411,Brinn Drive,27330,35.4863330,-79.1931168
403,Brinn Drive,27330,35.4868751,-79.1930918
407,Brinn Drive,27330,35.4866167,-79.1931259
817,North Gulf Street,27330,35.4891614,-79.1900423
816,North Gulf Street,27330,35.4886356,-79.1894414
406,Brinn Drive,27330,35.4866962,-79.1937600
711,Spring Lane,27330,35.4865276,-79.1921286
707,Spring Lane,27330,35.4864024,-79.1918571
701,Spring Lane,27330,35.4862228,-79.1914173
649,Spring Lane,27330,35.4860326,-79.1911791
645,Spring Lane,27330,35.4858737,-79.1906702
643,Spring Lane,27330,35.4857882,-79.1904138
641,North Gulf Street,27330,35.4865318,-79.1892078
634,Spring Lane,27330,35.4860538,-79.1895844
642,Spring Lane,27330,35.4862860,-79.1901413
648,Spring Lane,27330,35.4865003,-79.1906716
813,Lynn Avenue,27330,35.4884994,-79.1912972
810,Lynn Avenue,27330,35.4883574,-79.1906318
402,Queens Road,27330,35.4879966,-79.1907312
800,North Gulf Street,27330,35.4879023,-79.1901486
812,North Gulf Street,27330,35.4884603,-79.1895923
804,North Gulf Street,27330,35.4881516,-79.1899721
339,Queens Road,27330,35.4872589,-79.1897790
327,Queens Road,27330,35.4870321,-79.1889511
321,Queens Road,27330,35.4869084,-79.1883313
317,Queens Road,27330,35.4868003,-79.1880881
313,Queens Road,27330,35.4867508,-79.1877842
314,Queens Road,27330,35.4872489,-79.1878279
325,Queens Road,27330,35.4869334,-79.1887281
331,Queens Road,27330,35.4871160,-79.1892416
335,Queens Road,27330,35.4871822,-79.1895302
341,Queens Road,27330,35.4873272,-79.1900828
300,Queens Road,27330,35.4872618,-79.1870289
306,Queens Road,27330,35.4872040,-79.1873543
320,Queens Road,27330,35.4873746,-79.1882719
324,Queens Road,27330,35.4874637,-79.1886256
338,Queens Road,27330,35.4877297,-79.1896364
340,Queens Road,27330,35.4878098,-79.1899189
326,Queens Road,27330,35.4875350,-79.1888608
334,Queens Road,27330,35.4876570,-79.1893586
330,Queens Road,27330,35.4876406,-79.1890959
1001,Spring Lane,27330,35.4870819,-79.1989306
870,Spring Lane,27330,35.4878687,-79.1958754
704,Spring Lane,27330,35.4867997,-79.1913131
708,Spring Lane,27330,35.4868806,-79.1916016
710,Spring Lane,27330,35.4869908,-79.1918941
714,Spring Lane,27330,35.4871579,-79.1922321
718,Spring Lane,27330,35.4872260,-79.1925277
501,Queens Road,27330,35.4876420,-79.1915500
507,Queens Road,27330,35.4877225,-79.1919240
819,Lynn Avenue,27330,35.4887626,-79.1919034
825,Lynn Avenue,27330,35.4888532,-79.1922199
502,Queens Road,27330,35.4881783,-79.1914108
508,Queens Road,27330,35.4882771,-79.1917806
512,Queens Road,27330,35.4883618,-79.1921131
170,Thornwood Loop,27330,35.4631630,-79.1102514
171,Thornwood Loop,27330,35.4633714,-79.1100454
172,Thornwood Loop,27330,35.4635379,-79.1099278
26,Thornwood Drive,27330,35.4637577,-79.1059850
19,Thornwood Drive,27330,35.4629035,-79.1059684
16,Thornwood Drive,27330,35.4625628,-79.1060154
14,Thornwood Drive,27330,35.4622927,-79.1061194
12,Thornwood Drive,27330,35.4620868,-79.1062479
10,Thornwood Drive,27330,35.4618713,-79.1064126
59,Thornwood Court,27330,35.4625948,-79.1069243
58,Thornwood Court,27330,35.4627591,-79.1068739
57,Thornwood Court,27330,35.4629320,-79.1067805
56,Thornwood Court,27330,35.4631171,-79.1067832
55,Thornwood Court,27330,35.4632491,-79.1068265
27,Thornwood Drive,27330,35.4639101,-79.1060591
28,Thornwood Drive,27330,35.4639853,-79.1061957
30,Thornwood Drive,27330,35.4639417,-79.1065168
32,Thornwood Drive,27330,35.4639820,-79.1067389
34,Thornwood Drive,27330,35.4639632,-79.1069849
36,Thornwood Drive,27330,35.4639392,-79.1072506
38,Thornwood Drive,27330,35.4639541,-79.1074914
40,Thornwood Drive,27330,35.4639420,-79.1077662
42,Thornwood Drive,27330,35.4639505,-79.1079657
45,Thornwood Drive,27330,35.4639495,-79.1086714
97,Thornwood Drive,27330,35.4621358,-79.1094486
96,Thornwood Drive,27330,35.4622897,-79.1093654
95,Thornwood Drive,27330,35.4624582,-79.1092792
94,Thornwood Drive,27330,35.4625951,-79.1092104
93,Thornwood Drive,27330,35.4627489,-79.1090881
92,Thornwood Drive,27330,35.4628945,-79.1090143
91,Thornwood Drive,27330,35.4630374,-79.1089362
90,Thornwood Drive,27330,35.4633134,-79.1088256
89,Thornwood Drive,27330,35.4635521,-79.1086278
88,Thornwood Drive,27330,35.4635351,-79.1084342
86,Thornwood Court,27330,35.4632777,-79.1085071
84,Thornwood Court,27330,35.4629730,-79.1086309
83,Thornwood Court,27330,35.4628177,-79.1086980
82,Thornwood Court,27330,35.4626442,-79.1087996
80,Thornwood Court,27330,35.4624837,-79.1088907
78,Thornwood Court,27330,35.4623199,-79.1089592
79,Thornwood Court,27330,35.4623044,-79.1084570
81,Thornwood Court,27330,35.4624387,-79.1083669
85,Thornwood Court,27330,35.4626865,-79.1081865
87,Thornwood Court,27330,35.4628427,-79.1081418
47,Thornwood Court,27330,35.4629400,-79.1080021
49,Thornwood Court,27330,35.4627429,-79.1078055
51,Thornwood Court,27330,35.4628159,-79.1076058
53,Thornwood Court,27330,35.4629070,-79.1072893
60,Thornwood Court,27330,35.4626720,-79.1073788
63,Thornwood Court,27330,35.4623731,-79.1076525
69,Thornwood Court,27330,35.4622850,-79.1077710
72,Thornwood Court,27330,35.4623419,-79.1080170
62,Thornwood Court,27330,35.4624897,-79.1075159
61,Thornwood Court,27330,35.4624177,-79.1070398
64,Thornwood Court,27330,35.4622615,-79.1071518
65,Thornwood Court,27330,35.4621026,-79.1072114
66,Thornwood Court,27330,35.4619494,-79.1072887
71,Thornwood Court,27330,35.4619525,-79.1080954
70,Thornwood Court,27330,35.4619528,-79.1079160
67,Thornwood Court,27330,35.4618828,-79.1075001
68,Thornwood Court,27330,35.4619353,-79.1076977
73,Thornwood Court,27330,35.4619669,-79.1082853
74,Thornwood Court,27330,35.4619572,-79.1084891
48,Thornwood Court,27330,35.4633053,-79.1080482
41,Thornwood Drive,27330,35.4635660,-79.1080880
52,Thornwood Court,27330,35.4633037,-79.1075905
37,Thornwood Drive,27330,35.4635543,-79.1076078
35,Thornwood Drive,27330,35.4635794,-79.1073518
54,Thornwood Court,27330,35.4632978,-79.1070649
33,Thornwood Drive,27330,35.4635782,-79.1070883
31,Thornwood Drive,27330,35.4635544,-79.1067597
29,Thornwood Drive,27330,35.4635486,-79.1065578
25,Thornwood Drive,27330,35.4634397,-79.1063857
23,Thornwood Drive,27330,35.4632857,-79.1063625
21,Thornwood Drive,27330,35.4631201,-79.1063297
20,Thornwood Drive,27330,35.4629251,-79.1063391
18,Thornwood Drive,27330,35.4627386,-79.1064017
17,Thornwood Drive,27330,35.4625622,-79.1064510
15,Thornwood Drive,27330,35.4624363,-79.1065985
13,Thornwood Drive,27330,35.4622844,-79.1066531
11,Thornwood Drive,27330,35.4621534,-79.1067635
9,Thornwood Drive,27330,35.4619896,-79.1068170
7,Thornwood Drive,27330,35.4618094,-79.1069497
5,Thornwood Drive,27330,35.4615463,-79.1070208
8,Thornwood Drive,27330,35.4617170,-79.1064861
6,Thornwood Drive,27330,35.4615476,-79.1065477
4,Thornwood Drive,27330,35.4613547,-79.1066578
3,Thornwood Drive,27330,35.4611338,-79.1067266
2,Thornwood Drive,27330,35.4608829,-79.1068378
1,Thornwood Drive,27330,35.4606234,-79.1069409
166,Thornwood Drive,27330,35.4638317,-79.1089975
165,Thornwood Drive,27330,35.4637014,-79.1090301
164,Thornwood Drive,27330,35.4635786,-79.1091308
163,Thornwood Drive,27330,35.4634584,-79.1091864
162,Thornwood Drive,27330,35.4633010,-79.1092771
160,Thornwood Drive,27330,35.4630176,-79.1094665
159,Thornwood Drive,27330,35.4628775,-79.1095629
158,Thornwood Point,27330,35.4626110,-79.1096001
157,Thornwood Point,27330,35.4627098,-79.1097806
156,Thornwood Point,27330,35.4625892,-79.1100187
152,Thornwood Point,27330,35.4623044,-79.1098744
153,Thornwood Drive,27330,35.4621600,-79.1099485
150,Thornwood Loop,27330,35.4619439,-79.1100956
151,Thornwood Loop,27330,35.4619476,-79.1099034
98,Thornwood Loop,27330,35.4619626,-79.1095472
99,Thornwood Loop,27330,35.4619564,-79.1093766
100,Thornwood Loop,27330,35.4619427,-79.1092081
76,Thornwood Court,27330,35.4620351,-79.1089597
75,Thornwood Court,27330,35.4619521,-79.1088262
101,Thornwood Loop,27330,35.4617331,-79.1087311
112,Thornwood Loop,27330,35.4611605,-79.1087804
111,Thornwood Loop,27330,35.4608957,-79.1087719
110,Thornwood Loop,27330,35.4606615,-79.1087636
109,Thornwood Loop,27330,35.4605444,-79.1087148
102,Thornwood Loop,27330,35.4614900,-79.1085903
103,Thornwood Loop,27330,35.4612314,-79.1084913
104,Thornwood Loop,27330,35.4610294,-79.1083860
105,Thornwood Loop,27330,35.4608826,-79.1083143
106,Thornwood Loop,27330,35.4607353,-79.1081216
107,Thornwood Loop,27330,35.4606444,-79.1077431
113,Thornwood Loop,27330,35.4614772,-79.1089913
114,Thornwood Loop,27330,35.4615463,-79.1092431
115,Thornwood Loop,27330,35.4615743,-79.1094126
116,Thornwood Loop,27330,35.4615644,-79.1096569
117,Thornwood Loop,27330,35.4615681,-79.1098641
118,Thornwood Loop,27330,35.4615649,-79.1100729
119,Thornwood Loop,27330,35.4615802,-79.1102760
120,Thornwood Loop,27330,35.4615845,-79.1104893
121,Thornwood Loop,27330,35.4616195,-79.1106816
122,Thornwood Loop,27330,35.4617212,-79.1108765
148,Thornwood Loop,27330,35.4620114,-79.1104835
155,Thornwood Loop,27330,35.4622429,-79.1103818
147,Thornwood Loop,27330,35.4624380,-79.1104703
146,Thornwood Loop,27330,35.4626586,-79.1102695
145,Thornwood Loop,27330,35.4628347,-79.1101112
144,Thornwood Loop,27330,35.4630342,-79.1099318
143,Thornwood Loop,27330,35.4632131,-79.1097213
142,Thornwood Loop,27330,35.4634582,-79.1095600
141,Thornwood Loop,27330,35.4637166,-79.1094786
140,Thornwood Loop,27330,35.4638586,-79.1096339
139,Thornwood Loop,27330,35.4638987,-79.1098143
138,Thornwood Loop,27330,35.4638987,-79.1100425
137,Thornwood Loop,27330,35.4638798,-79.1102639
167,Thornwood Loop,27330,35.4635591,-79.1102943
168,Thornwood Loop,27330,35.4634169,-79.1103112
169,Thornwood Loop,27330,35.4632339,-79.1103691
126,Thornwood Loop,27330,35.4623683,-79.1108975
127,Thornwood Loop,27330,35.4625712,-79.1108643
129,Thornwood Loop,27330,35.4628505,-79.1105793
128,Thornwood Loop,27330,35.4629477,-79.1107280
130,Thornwood Loop,27330,35.4630825,-79.1108291
131,Thornwood Loop,27330,35.4632773,-79.1108181
132,Thornwood Loop,27330,35.4634658,-79.1107891
133,Thornwood Loop,27330,35.4636219,-79.1107781
134,Thornwood Loop,27330,35.4637550,-79.1107301
1301,Douglas Drive,27330,35.4890304,-79.1984548
1351,Plaza Boulevard,27330,35.4899838,-79.2007702
1325,Plaza Boulevard,27330,35.4885501,-79.2014865
1015,Spring Lane,27330,35.4839026,-79.1992306
1065,Spring Lane,27330,35.4850145,-79.2019829
1009,Spring Lane,27330,35.4854159,-79.1993241
1002,Spring Lane,27330,35.4880834,-79.1994345
1005,Spring Lane,27330,35.4871409,-79.1994757
1065,Spring Lane,27330,35.4861163,-79.2024944
1891,Bragg Street,27330,35.4665751,-79.1512921
2100,Dalrymple Street,27330,35.4631602,-79.1516367
2110,Dalrymple Street,27330,35.4624869,-79.1513350
2108,South Horner Boulevard,27330,35.4624673,-79.1493783
2116,South Horner Boulevard,27330,35.4619311,-79.1492430
422,East Main Street,27332,35.4589671,-79.1464298
2502,South Horner Boulevard,27332,35.4590304,-79.1458385
2614,South Horner Boulevard,27330,35.4571286,-79.1445478
521,East Main Street,27330,35.4607946,-79.1445271
2303,South Horner Boulevard,27330,35.4608761,-79.1464822
149,Market Street,27332,35.4370117,-79.2165485
133,Marketplace Drive,27332,35.4365070,-79.2181982
2244,Jefferson Davis Highway,27330,35.4386800,-79.2197008
2240,Jefferson Davis Highway,27330,35.4389325,-79.2194000
2255,Jefferson Davis Highway,27330,35.4377566,-79.2177429
2278,Jefferson Davis Highway,27330,35.4377402,-79.2201857
2286,Jefferson Davis Highway,27330,35.4372613,-79.2197513
2280,Jefferson Davis Highway,27330,35.4377499,-79.2193733
2219,Jefferson Davis Highway,27330,35.4391672,-79.2165307
1701,Broadway Road,27330,35.4611596,-79.1041275
1611,Broadway Road,27330,35.4620533,-79.1054475
1521,Broadway Road,27330,35.4599508,-79.1083224
600,West Main Street,27332,35.4547527,-79.1572957
510,West Main Street,27332,35.4548589,-79.1570329
407,West Main Street,27332,35.4547464,-79.1554320
316,West Main Street,27332,35.4562109,-79.1548527
2741,Lee Avenue,27332,35.4529451,-79.1482293
1907,K M Wicker Memorial Drive,27330,35.4678898,-79.1901134
1125,Carthage Street,27330,35.4700370,-79.1879129
1107,Carthage Street,27330,35.4702417,-79.1865395
1953,South Horner Boulevard,27330-5840,35.4649699,-79.1520661
1923,South Horner Boulevard,27330,35.4656302,-79.1540197
1910,South Horner Boulevard,27330,35.4648670,-79.1549739
1904,South Horner Boulevard,27330,35.4637243,-79.1553265
1300,South Horner Boulevard,27330,35.4685280,-79.1645915
3209,NC 87 South,27332,35.4476904,-79.1290329
2204,Jefferson Davis Highway,27330-8972,35.4412114,-79.2174001
1909,Pendergrass Road,27330,35.4421071,-79.2164884
1219,North Horner Boulevard,27330-9497,35.4971612,-79.1989819
1216,North Horner Boulevard,27330,35.4975576,-79.1979702
1143,North Horner Boulevard,27330,35.4959572,-79.1979844
704,Horner Boulevard,27330,35.4715373,-79.1744447
1003,Spring Lane,27330,35.4872549,-79.1998928
1217,North Horner Boulevard,27330,35.4967229,-79.1999146
1403,North Horner Boulevard,27330,35.5000583,-79.2042323
2903,South Horner Boulevard,27332,35.4544683,-79.1372579
3243,Nc 87 South,27332,35.4460407,-79.1280497
1410,McNeill Road,27330,35.5064853,-79.1864875
110,Charlotte Avenue,27330,35.4814770,-79.1773660
3006,Hawkins Avenue,27330,35.5275770,-79.1849495
100,Park Avenue,27330,35.4754780,-79.1877721
405,Carthage Street,27330,35.4786434,-79.1823653
815,Wicker Street,27330,35.4740162,-79.1870977
508,Wicker Street,27330,35.4773269,-79.1830678
6015,Enterprise Park Drive,27330,35.5576630,-79.1651912
1492,Abercorn Lane,27330,35.4600406,-79.2019593
1496,Abercorn Lane,27330,35.4602250,-79.2019454
1488,Abercorn Lane,27330,35.4603895,-79.2019703
1484,Abercorn Lane,27330,35.4605514,-79.2020055
1480,Abercorn Lane,27330,35.4607229,-79.2020236
1468,Abercorn Lane,27330,35.4612373,-79.2021070
1472,Abercorn Lane,27330,35.4610541,-79.2020945
1476,Abercorn Lane,27330,35.4608878,-79.2020601
1493,Abercorn Lane,27330,35.4602004,-79.2014227
1489,Abercorn Lane,27330,35.4604037,-79.2014426
1485,Abercorn Lane,27330,35.4605787,-79.2014766
1481,Abercorn Lane,27330,35.4607548,-79.2015188
1477,Abercorn Lane,27330,35.4609321,-79.2015497
1473,Abercorn Lane,27330,35.4611094,-79.2015667
1469,Abercorn Lane,27330,35.4612885,-79.2015287
1433,Abercorn Lane,27330,35.4613310,-79.2011311
1429,Abercorn Lane,27330,35.4611727,-79.2010192
1425,Abercorn Lane,27330,35.4610065,-79.2009781
1421,Abercorn Lane,27330,35.4608355,-79.2009647
1417,Abercorn Lane,27330,35.4606663,-79.2009595
1413,Abercorn Lane,27330,35.4604882,-79.2009660
1405,Abercorn Lane,27330,35.4601483,-79.2010006
1409,Abercorn Lane,27330,35.4603094,-79.2009767
1401,Abercorn Lane,27330,35.4599380,-79.2010364
1400,Abercorn Lane,27330,35.4598684,-79.2005303
1416,Abercorn Lane,27330,35.4605611,-79.2004443
1432,Abercorn Lane,27330,35.4612358,-79.2004871
1444,Abercorn Lane,27330,35.4617320,-79.2010447
1448,Abercorn Lane,27330,35.4617238,-79.2012680
1452,Abercorn Lane,27330,35.4617071,-79.2014789
1456,Abercorn Lane,27330,35.4616780,-79.2017016
208,East Main Street,27332,35.4578181,-79.1495149
234,East Main Street,27332,35.4581282,-79.1487212
710,East Main Street,27332,35.4606556,-79.1413212
816,East Main Street,27332,35.4613856,-79.1390457
2715,South Horner Boulevard,27332,35.4561303,-79.1401082
912,Broadway Road,27332,35.4619808,-79.1366021
500,Westover Drive,27330,35.4625967,-79.2063179
248,Saddlebrook Drive,27330,35.4448775,-79.2248641
148,Cumberland Drive,27332,35.4463646,-79.1662594
728,Biltmore Drive,27332,35.4445575,-79.1673712
724,Biltmore Drive,27332,35.4447433,-79.1672934
926,Brenda Street,27332,35.4444297,-79.1669810
922,Brenda Street,27332,35.4443664,-79.1667382
925,Brenda Street,27332,35.4441511,-79.1670869
921,Brenda Street,27332,35.4440834,-79.1668241
847,Biltmore Drive,27332,35.4424729,-79.1687123
839,Biltmore Drive,27332,35.4424554,-79.1681920
843,Biltmore Drive,27332,35.4424260,-79.1684790
850,Biltmore Drive,27332,35.4428793,-79.1688214
830,Biltmore Drive,27332,35.4429262,-79.1681253
834,Biltmore Drive,27332,35.4427647,-79.1684544
802,Biltmore Drive,27332,35.4443062,-79.1674508
806,Biltmore Drive,27332,35.4441006,-79.1675301
810,Biltmore Drive,27332,35.4438825,-79.1676094
814,Biltmore Drive,27332,35.4436878,-79.1676926
818,Biltmore Drive,27332,35.4434876,-79.1677725
822,Biltmore Drive,27332,35.4432996,-79.1678618
826,Biltmore Drive,27332,35.4431219,-79.1679704
527,Troy Drive,27332,35.4431797,-79.1686980
917,Brenda Street,27332,35.4440090,-79.1665764
