House number,Street name,Postal code,Latitude,Longitude
1400,National Highway,27360-2320,35.9186205,-80.0578882
210,Arthur Drive,27360,35.8606427,-80.0654478
903,Randolph Street,27360,35.8699535,-80.0729559
520,National Highway,27360,35.8956808,-80.0711602
724,National Highway,27360,35.9003878,-80.0673429
1412,Highpoint-Thomasville Road,27360,35.9199669,-80.0585723
900,West Cooksey Drive,27360,35.8974643,-80.0911003
106,West Main Street,27360,35.8824198,-80.0847348
122,West Main Street,27360,35.8820264,-80.0865110
1122,Randolph Street,27360,35.8571425,-80.0742813
1122,Randolph Street,27360,35.8571109,-80.0742105
1015,Randolph Street,27360,35.8682753,-80.0723551
401,Randolph Street,27360,35.8765331,-80.0770581
401,Randolph Street,27360,35.8766314,-80.0771748
813,Randolph Street,27360,35.8714079,-80.0745448
705,Randolph Street,27360,35.8735444,-80.0754721
1587,Liberty Drive,27360,35.8546354,-80.0669540
600,National Highway,27360,35.8966657,-80.0707442
704,East Main Street,27360,35.8869594,-80.0735044
1,National Highway,27360,35.8875099,-80.0716287
811,Fisher Ferry Street,27360,35.8677550,-80.0880869
809,Randolph Street,27360,35.8721350,-80.0751633
710,East Main Street,27360,35.8872674,-80.0728454
1033,Randolph Street,27360,35.8643116,-80.0698417
1033,Randolph Street,27360,35.8642456,-80.0698417
900,West Cooksey Drive,27360,35.8974299,-80.0915636
1122,Randolph Street,27360,35.8569915,-80.0739699
175,West Holly Hill Road,27360,35.8689212,-80.0786934
104,Colonial Drive,27360,35.8794038,-80.0843491
200,Arthur Drive,27360,35.8606850,-80.0658624
104,Cloninger Drive,27360,35.8655796,-80.0673918
102,Cloninger Drive,27360,35.8650057,-80.0683154
720,National Highway,27360,35.8997555,-80.0676246
1025,National Highway,27360,35.9063676,-80.0615041
304,West Main Street,27360,35.8809514,-80.0905310
202,West Main Street,27360,35.8815421,-80.0878172
914,Randolph Street,27360,35.8691965,-80.0741843
638,National Highway,27360,35.8985762,-80.0684246
500,National Highway,27360,35.8944397,-80.0713769
109,Salem Street,27360,35.8850503,-80.0826906
300,National Highway,27360,35.8919864,-80.0718675
1221,National Highway,27360,35.9125524,-80.0595485
1329,National Highway,27360,35.9159484,-80.0577644
1339,National Highway,27360,35.9171072,-80.0573834
11,West Holly Hill Road,27360,35.8698891,-80.0764111
220,Cedar Lodge Road,27360,35.8494523,-80.0798379
100,Hedrick Drive,27360,35.8444596,-80.1059757
915,East Sunrise Avenue,27360,35.8764667,-80.0599609
8229,East Holly Grove Road,27360,35.8407212,-80.0988324
42,Salem Street,27360,35.8843225,-80.0826330
6,West Main Street,27360,35.8832371,-80.0821704
1340,National Highway,27360,35.9178678,-80.0582721
630,National Highway,27360,35.8983371,-80.0684408
303,National Highway,27360,35.8920852,-80.0712336
22,Winston Street,27360,35.8838518,-80.0849544
100,West Guilford Street,27360,35.8842434,-80.0852131
104,Lines Street,27360,35.8722692,-80.0735600
1122,Randolph Street,27360,35.8591273,-80.0749667
110,Randolph Street,27360,35.8790298,-80.0807360
900-G,West Cooksey Drive,27360,35.8974398,-80.0914317
117,Liberty Drive,27360,35.8828361,-80.0647539
1122,Randolph Street,27360,35.8570145,-80.0740103
201-E,Idol Street,27360,35.8757354,-80.0982228
609,National Highway,27360,35.8968048,-80.0691814
1031,Randolph Street,27360,35.8636116,-80.0720655
15,High Tech Boulevard,27360,35.8516925,-80.1002186
310,Kendall Mill Road,27360,35.8555965,-80.0976668
1042,West Holly Hill Road,27360,35.8634255,-80.0957714
1010,West Holly Hill Road,27360,35.8664303,-80.0917851
601,Julian Avenue,27360,35.8754882,-80.0705936
385,North Drive,27360,35.9094838,-80.0688626
3B,East Main Street,27360,35.8825950,-80.0808527
512,National Highway,27360,35.8952360,-80.0713348
636,National Highway,27360,35.8985530,-80.0684460
634,National Highway,27360,35.8985172,-80.0684681
632,National Highway,27360,35.8984787,-80.0684945
1055,Randolph Street,27360,35.8619770,-80.0719326
1585,Liberty Drive,27360,35.8552285,-80.0659124
1031,Randolph Street,27360,35.8635945,-80.0718355
1036,Randolph Street,27360,35.8643755,-80.0730037
315,Randolph Street,27360,35.8769161,-80.0778296
1044,Randolph Street,27360,35.8626015,-80.0729216
1124,Randolph Street,27360,35.8580775,-80.0732556
1126,Randolph Street,27360,35.8576983,-80.0735656
1015,Randolph Street,27360,35.8681209,-80.0723862
1019,Randolph Street,27360,35.8673711,-80.0721279
943,Randolph Street,27360,35.8687398,-80.0730923
1026,Randolph Street,27360,35.8652654,-80.0726990
1032,Randolph Street,27360,35.8649669,-80.0726389
839,Julian Avenue,27360,35.8668791,-80.0712388
1025,Randolph Street,27360,35.8642888,-80.0718982
904,Randolph Street,27360,35.8699861,-80.0746854
706,Randolph Street,27360,35.8723709,-80.0762464
709,Randolph Street,27360,35.8731260,-80.0755141
402,Randolph Street,27360,35.8757275,-80.0780033
14,Randolph Street,27360,35.8813867,-80.0812341
18,Randolph Street,27360,35.8806741,-80.0814441
101,Randolph Street,27360,35.8803202,-80.0792384
21,Randolph Street,27360,35.8811316,-80.0801344
817,Randolph Street,27360,35.8712256,-80.0744160
901,Randolph Street,27360,35.8705935,-80.0739497
816,Randolph Street,27360,35.8708200,-80.0752781
1011,Randolph Street,27360,35.8658428,-80.0716603
1026,Randolph Street,27360,35.8660117,-80.0726319
7,Laura Lane,27360,35.8629752,-80.0699274
13,Cloninger Drive,27360,35.8663189,-80.0698604
900,Randolph Street,27360,35.8704050,-80.0749125
410,Randolph Street,27360,35.8754213,-80.0777076
101,West Main Street,27360,35.8814655,-80.0844563
11,East Main Street,27360,35.8827216,-80.0806416
1115,Randolph Street,27360,35.8588545,-80.0719048
920,Randolph Street,27360,35.8683641,-80.0736883
5,Laura Lane,27360,35.8629924,-80.0711633
237,Cedar Lodge Road,27360,35.8464389,-80.0816652
138,Fairgrove Church Road,27360,35.8514345,-80.0789535
895,Lake Road,27360,35.8565148,-80.1053088
959,Lake Road,27360,35.8564821,-80.1043087
1200,West Holly Hill Road,27360,35.8567130,-80.1022110
801,National Highway,27360,35.9000000,-80.0662895
500,Old Dominion Way,27360,35.9089197,-80.0588492
19,Wexford Circle,27360,35.8818220,-80.0485587
902,West Cooksey Drive,27360,35.8976167,-80.0924857
19,East Guilford Street,27360,35.8847250,-80.0811262
11,Randolph Street,27360,35.8820232,-80.0807416
1031,Randolph Street,27360,35.8636125,-80.0720407
941,Randolph Street,27360,35.8690043,-80.0731320
1585,Liberty Drive,27360,35.8557204,-80.0654177
2,East Main Street,27360,35.8834393,-80.0818080
8,East Main Street,27360,35.8835012,-80.0816531
18,West Main Street,27360,35.8831760,-80.0826051
36,West Main Street,27360,35.8829439,-80.0831232
26,West Main Street,27360,35.8829863,-80.0828310
118,Salem Street,27360,35.8860386,-80.0840434
108,Salem Street,27360,35.8853971,-80.0836163
17,East Main Street,27360,35.8828715,-80.0798614
19,East Main Street,27360,35.8829688,-80.0794468
103,Church Street,27360,35.8835397,-80.0874827
100,Lines Street,27360,35.8721547,-80.0738915
608,Randolph Street,27360,35.8743135,-80.0770328
407,Randolph Street,27360,35.8760508,-80.0771698
407,Randolph Street,27360,35.8760703,-80.0774291
201,Kern Street,27360,35.8886861,-80.0785035
1010,Lexington Avenue,27360,35.8827578,-80.1048901
1,Hinkle Street,27360,35.8727938,-80.0766897
202,West Holly Hill Road,27360,35.8696399,-80.0787729
1,Cloninger Drive,27360,35.8665525,-80.0714160
315,Spring Street,27360,35.8775517,-80.0900124
508,Fisher Ferry Street,27360,35.8722097,-80.0864005
603,Randolph Street,27360,35.8745296,-80.0764821
4249,Old US Highway 29,27360,35.8790748,-80.1358530
14,East Guilford Street,27360,35.8854778,-80.0811451
46,Salem Street,27360,35.8843867,-80.0828128
50,Salem Street,27360,35.8845000,-80.0828735
28,Salem Street,27360,35.8838942,-80.0824831
18,Salem Street,27360,35.8837135,-80.0824121
422,Liberty Drive,27360,35.8779964,-80.0666777
943,Ball Park Road,27360,35.9034936,-80.0870133
1810,Liberty Drive,27360,35.8558479,-80.0720106
830,Julian Avenue,27360,35.8686737,-80.0717475
115,Unity Street,27360,35.8968972,-80.0870895
12,East Guilford Street,27360,35.8849794,-80.0817138
1116,Lexington Avenue,27360,35.8830473,-80.1075740
1360,Fisher Ferry Road,27360,35.8546672,-80.0906486
1057,Johnsontown Road,27360,35.8709423,-80.1092482
283,Pilot School Road,27360,35.8773143,-80.1329147
194,Pilot School Road,27360,35.8777733,-80.1344306
207,Old Lexington Road,27360,35.8795237,-80.1110736
600,May Road,27360,35.8426740,-80.0835027
1101,Mendenhall Street,27360,35.9077845,-80.0757099
1393,Hasty School Road,27360,35.9128543,-80.0515546
1602,Liberty Drive,27360,35.8567506,-80.0689646
1037,Randolph Street,27360,35.8624277,-80.0717643
9,Commerce Street,27360,35.8842539,-80.0805171
1033,Randolph Street,27360,35.8651179,-80.0698512
250,West Main Street,27360,35.8815814,-80.0892896
14,West Guilford Street,27360,35.8845924,-80.0841068
12,West Guilford Street,27360,35.8846131,-80.0840448
202,National Highway,27360,35.8906096,-80.0720414
