House number,Street name,Postal code,Latitude,Longitude
2824,Teakwood Court,27106,36.1410613,-80.3009212
1046,Miller Street,27103,36.0793041,-80.2742171
5501,Murray Road,27106,36.1923601,-80.3081067
1055,Yorkshire Road,27106,36.1065264,-80.3106070
3500,Sally Kirk Road,27106,36.1165265,-80.3206073
741,North Highland Avenue,27101,36.1032806,-80.2321236
1600,Union Cross Road,27284,36.0684703,-80.1125439
200,North Main Street,27101,36.0965728,-80.2442857
1450,Professional Park Drive,27103,36.0745741,-80.3199606
3331,Healy Drive,27103-9998,36.0760782,-80.3102793
3637,Old Vineyard Road,27104,36.0783236,-80.3185501
3637,Old Vineyard Road,27104,36.0789089,-80.3202291
300,Marshall Street South,27101,36.0908667,-80.2468265
415,West Clemmonsville Road,27127,36.0472535,-80.2454495
2015,Frontis Plaza Boulevard,27103,36.0620321,-80.3040793
1834,Wake Forest Rd,27109,36.1363981,-80.2783352
252,South Stratford Road,27103,36.0928876,-80.2819711
290,South Stratford Road,27103,36.0917829,-80.2820094
237,South Stratford Road,27103,36.0922804,-80.2802087
1046,Miller Street,27103,36.0795172,-80.2738666
508,Harvey Street,27103,36.0816249,-80.2992459
450,Spring Street North,27101,36.0985726,-80.2532578
939,Burke Street Northwest,27101,36.0956343,-80.2564931
1150,Louise Road,27107,36.0558803,-80.2105327
141,Evergreen Drive,27106,36.1201657,-80.3038378
105,Vest Mill Circle,27103,36.0753223,-80.3139211
301,North Church Street,27101,36.0983350,-80.2425671
606,S Stratford Rd,27103,36.0866941,-80.2904431
3372,Robinhood Road,27106,36.1152097,-80.3142958
407,Petree Road,27106,36.1286169,-80.3163247
2050,Peace Haven Road North,27106,36.1200548,-80.3120938
2095,Peace Haven Road North,27106,36.1195002,-80.3111373
1955,Peace Haven Road,27106,36.1179878,-80.3107081
3324,Robinhood Road,27106,36.1155264,-80.3127931
3437,Robinhood Road,27106,36.1176715,-80.3153841
3449,Robinhood Road,27106,36.1185295,-80.3166823
3273,Robinhood Road,27106,36.1154126,-80.3108248
3277,Robinhood Road,27106,36.1155112,-80.3108000
3288,Robinhood Road,27106,36.1150524,-80.3118476
3374,Robinhood Road,27106,36.1156156,-80.3144065
3450,Robinhood Road,27106-4702,36.1166291,-80.3160681
3440,Robinhood Road,27106,36.1166978,-80.3161548
2600,Peters Creek Parkway,27107,36.0610404,-80.2594225
546,East Sprague Street,27107,36.0686100,-80.2273082
2201,Old Lexington Road,27107,36.0692578,-80.2266757
2251,Old Lexington Road,27107,36.0689543,-80.2266704
801,Silas Creek Parkway,27127,36.0669891,-80.2500122
805-B,Silas Creek Parkway,27127,36.0668570,-80.2511237
1299,Silas Creek Parkway,27127,36.0665725,-80.2576046
1425,Silas Creek Parkway,27127,36.0665360,-80.2592697
1085,Hanes Mall Boulevard,27103,36.0641655,-80.3179332
2345,Griffith Road,27103,36.0536287,-80.3075288
675,West 5th Street,27101,36.0990984,-80.2528957
701,North Liberty Street,27101,36.1029933,-80.2452041
110,Oakwood Drive,27103,36.0900558,-80.2829405
2147,Bethabara Road,27106,36.1558239,-80.2972691
566,South Stratford Road,27103,36.0878560,-80.2888729
180,Harvey Street,27103,36.0862535,-80.2941906
263,Harvey Street,27103,36.0838628,-80.2951546
248,Konnoak Village Circle,27127,36.0426750,-80.2438531
1475,New Walkertown Road,27101,36.1025148,-80.2271921
301,North Main Street,27101,36.0981618,-80.2435019
1420,West 1st Street,27101,36.0923528,-80.2643029
101,Eden Terrace Street,27103,36.0922554,-80.2672318
5039,University Parkway,27106,36.1607901,-80.2768044
615,St. George Square Court,27103,36.0713618,-80.3335580
678,Saint George Square Court,27103,36.0704258,-80.3337314
1605,Westbrook Plaza Drive,27103,36.0690113,-80.3105572
2561,Peters Creek Parkway,27127,36.0627683,-80.2578826
2561,Peters Creek Parkway,27127,36.0627533,-80.2578835
1460,Trade Mart Boulevard,27107,36.0602816,-80.2593911
201,South Stratford Road,27103,36.0930590,-80.2794439
3125,Peters Creek Parkway,27127,36.0477851,-80.2590947
1673,Westbrook Plaza Drive,27103,36.0693697,-80.3072509
8,West 3rd Street,27101,36.0975175,-80.2441919
125,West Hanes Mill Road,27105,36.1893765,-80.2780980
3331,Thomasville Road,27107,36.0561220,-80.2094919
3331,Thomasville Road,27107,36.0563104,-80.2094064
3324,Thomasville Road,27107,36.0562111,-80.2106849
200,Charlois Blvd,27103,36.0835641,-80.3040405
725,Highland Oaks Drive,27103,36.0612283,-80.3026285
725,Highland Oaks Drive,27103,36.0613841,-80.3025558
2003,Frontis Plaza Boulevard,27103,36.0620444,-80.3045752
2013,Frontis Plaza Boulevard,27103,36.0620072,-80.3041851
2005,Frontis Plaza Boulevard,27103,36.0620148,-80.3044421
2009,Frontis Plaza Boulevard,27103,36.0620393,-80.3043094
2025,Frontis Plaza Boulevard,27103,36.0615206,-80.3042608
3333,Brookview Hills Boulevard,27103,36.0616130,-80.3014761
3333,Brookview Hills Boulevard,27103,36.0614982,-80.3013547
3333,Brookview Hills Boulevard,27103,36.0611764,-80.3010410
3333,Brookview Hills Boulevard,27103,36.0613133,-80.3011695
1925,Hampton Inn Court,27103,36.0640736,-80.3069030
504,Hanes Mall Boulevard,27103,36.0638475,-80.3018196
3072-A,Trentwest Drive,27103,36.0796592,-80.2977396
532,Hanes Mall Boulevard,27103,36.0640455,-80.3020506
660,Hanes Mall Boulevard,27103,36.0635366,-80.3052045
2432,Cherokee Lane,27103,36.0740849,-80.2823803
3499,Robinhood Road,27106,36.1189808,-80.3180984
710,Coliseum Drive Northwest,27106,36.1231659,-80.2633532
613,East Sprague Street,27107,36.0689207,-80.2264864
310,West 4th Street,27101,36.0980232,-80.2472080
1543,Hanes Mall Blvd,27103,36.0697364,-80.3348541
4400,Silas Creek Pkwy,27104,36.0906735,-80.3094989
2894,Reynolda Road,27106,36.1437728,-80.2998638
2840,Reynolda Road,27106,36.1424396,-80.3011330
2876,Reynolda Road,27106,36.1429109,-80.3005125
2874,Reynolda Road,27106,36.1427330,-80.3006433
2812,Reynolda Road,27106,36.1418706,-80.3004148
2804,Fairlawn Drive Northwest,27106,36.1424131,-80.2993704
2806,Fairlawn Drive Northwest,27106,36.1426429,-80.2989804
3501,South Main Street,27127,36.0486200,-80.2388611
10,East Clemmonsville Road,27127,36.0473892,-80.2382432
3600,South Main Street,27127,36.0475479,-80.2395666
3600,South Main Street,27127,36.0473449,-80.2395830
1215,West Clemmonsville Road,27127,36.0413264,-80.2589204
2325,Leight Street,27107,36.0682900,-80.1956064
205,South Stratford Road,27103,36.0920001,-80.2793288
1065,Hanes Mall Boulevard,27103,36.0639341,-80.3165359
1055,Hanes Mall Boulevard,27103,36.0638052,-80.3160961
1050,Hanes Mall Boulevard,27103-1309,36.0692058,-80.3211485
3208,Silas Creek Parkway,27103,36.0699508,-80.2938659
128,Hanes Mall Circle,27103,36.0692824,-80.2981630
200,Summit Square Boulevard,27105,36.1844718,-80.2714444
546,East Sprague Street,27107,36.0683867,-80.2274482
1235,Silas Creek Parkway,27127,36.0672844,-80.2561440
203,Peters Creek Parkway,27127,36.0692207,-80.2572931
1527,Peters Creek Parkway,27103,36.0725432,-80.2577609
970,Peters Creek Parkway,27103,36.0766261,-80.2592291
201,Broad Street North,27101,36.0953917,-80.2531167
201,Broad Street North,27101,36.0953462,-80.2531056
425,Cherry Street North,27101,36.0992099,-80.2469614
811,Cherry Street North,27101,36.1048157,-80.2487957
2608,New Walkertown Road Northeast,27101,36.1099876,-80.2132628
5912,University Parkway,27105,36.1843116,-80.2754219
341,East Hanes Mill Road,27105,36.1892328,-80.2731295
359,East Hanes Mill Road,27105,36.1891459,-80.2728040
3320,Silas Creek Parkway,27103,36.0702055,-80.2995842
391,Knollwood Street,27103,36.0914368,-80.2861107
2281,Cloverdale Avenue,27103,36.0911365,-80.2760296
2209,Cloverdale Avenue,27103,36.0915290,-80.2745399
336,E Hanes Mill Road,27105,36.1920794,-80.2732329
145,Columbine Drive,27106,36.1466355,-80.2999222
961,Burke Street Northwest,27101,36.0953380,-80.2571272
4301,Styers Ferry Road,27104,36.0937134,-80.3769656
4301,Styers Ferry Road,27104,36.0935725,-80.3767618
3715,Peters Creek Parkway,27127,36.0203576,-80.2603110
3715,Peters Creek Parkway,27127,36.0203630,-80.2604505
2530,Somerset Center Drive,27103,36.0488769,-80.3290386
2420,South Stratford Road,27103,36.0537120,-80.3211851
2420,South Stratford Road,27103,36.0538497,-80.3213581
2026,South Hawthorne Road,27103,36.0781686,-80.2998977
2026,South Hawthorne Road,27103,36.0779832,-80.2997489
1425,Silas Creek Parkway,27127,36.0668117,-80.2591353
2920,Waughtown Street,27107,36.0759926,-80.1818933
2901,Waughtown Street,27107,36.0768386,-80.1831613
2901,Waughtown Street,27107,36.0767855,-80.1830164
3488,Robinhood Road,27106,36.1183043,-80.3183144
3285,Robinhood Road,27106,36.1157660,-80.3111744
3325,Robinhood Road,27106,36.1164518,-80.3122057
3396,Robinhood Road,27106,36.1161753,-80.3136681
3396,Robinhood Road,27106,36.1160226,-80.3137727
3890,North Glenn Avenue,27105,36.1409408,-80.2316107
500,Akron Drive,27105,36.1384173,-80.2382156
653,Akron Drive,27105,36.1402095,-80.2360521
653,Akron Drive,27105,36.1404272,-80.2359502
606,Coliseum Drive,27106,36.1235790,-80.2592113
2700,University Parkway,27105,36.1247263,-80.2590581
2700,University Parkway,27105,36.1247209,-80.2593209
3598,Yadkinville Road,27106,36.1535554,-80.3173258
3598,Yadkinville Road,27106,36.1533496,-80.3172949
3836,Reynolda Road,27106,36.1632222,-80.3282279
3836,Reynolda Road,27106,36.1630787,-80.3283452
3800,Reynolda Road,27106,36.1613783,-80.3266990
4019,Reynolda Road,27106,36.1662521,-80.3330485
4019,Reynolda Road,27106,36.1663117,-80.3333060
5754,Shattalon Drive,27101,36.1701816,-80.2794962
5420,University Parkway,27105,36.1682080,-80.2791005
5471,University Parkway,27105,36.1707563,-80.2767449
5496,University Parkway,27105,36.1704082,-80.2780041
5434,University Parkway,27105,36.1694676,-80.2775303
5434,University Parkway,27105,36.1693636,-80.2777314
6116,University Parkway,27105,36.1929028,-80.2790616
6205,University Parkway,27105,36.1966291,-80.2783509
6205,University Parkway,27105,36.1967844,-80.2783636
7742,North Point Boulevard,27106,36.1516515,-80.2829108
608,Coliseum Drive Northwest,27106,36.1235916,-80.2597470
1365,Westgate Center Drive,27103,36.0719665,-80.3108327
4908,Reynolda Road,27106,36.1661126,-80.3345505
486,North Patterson Avenue,27101,36.1001014,-80.2415091
875,Bethesda Road,27103,36.0787869,-80.2936408
4400,Old Walkertown Road,27105,36.1504534,-80.2217957
2701,University Parkway,27105,36.1251102,-80.2582057
615,Deacon Boulevard,27105,36.1290291,-80.2599062
619,Deacon Boulevard,27105,36.1290332,-80.2602833
1,Medical Center Boulevard,27157,36.0906899,-80.2700102
1,Medical Center Boulevard,27157,36.0901838,-80.2698032
224,Cherry Street South,27101,36.0918477,-80.2462305
5029,Country Club Road,27104,36.0852782,-80.3496058
114,Reynolda Village,27106,36.1272760,-80.2852660
400,Holly Avenue Northwest,27101,36.0963645,-80.2497770
247,East 5th Street,27101,36.1004473,-80.2416226
231,East 5th Street,27101,36.1004388,-80.2417069
225,East 5th Street,27101,36.1004303,-80.2417990
290,East 4th Street,27101,36.0987661,-80.2410305
218,East 4th Street,27101,36.0987496,-80.2412277
218,East 4th Street,27101,36.0987548,-80.2411936
222,East 4th Street,27101,36.0987605,-80.2411351
308,North Patterson Avenue,27101,36.0985213,-80.2409816
344,North Patterson Avenue,27101,36.0986297,-80.2409979
486,North Patterson Avenue,27101,36.0999116,-80.2417122
492,North Patterson Avenue,27101,36.1001628,-80.2413754
486,North Patterson Avenue,27101,36.1000205,-80.2417326
634,West 4th Street,27101,36.0973555,-80.2505050
551,South Stratford Road,27103,36.0871645,-80.2882522
6428,University Parkway,27045,36.2020316,-80.2812111
1912,Waughtown Street,27107,36.0707202,-80.1982475
1190,Waughtown Street,27107,36.0686764,-80.2141313
1539,Waughtown Street,27107,36.0689516,-80.2052571
3080,Kernersville Road,27107,36.0773565,-80.1757184
2300,Walnut Street,27107,36.0730825,-80.1947407
2100,Waughtown Street,27107,36.0719237,-80.1966280
1538,Waughtown Street,27107,36.0685679,-80.2050844
1306,South Hawthorne Road,27103,36.0781887,-80.2843394
1308,South Hawthorne Road,27103,36.0781844,-80.2844101
1318,South Hawthorne Road,27103,36.0781569,-80.2847094
301,North Main Street,27101,36.0981135,-80.2435136
486,North Patterson Avenue,27101,36.0997147,-80.2415780
486,North Patterson Avenue,27101,36.0997263,-80.2413081
2870,Lyndhurst Avenue,27103,36.0794917,-80.2903787
3254,Silas Creek Parkway,27103,36.0701543,-80.2951415
3258,Silas Creek Parkway,27103,36.0698490,-80.2954391
3274,Silas Creek Parkway,27103,36.0697372,-80.2959694
3214,Silas Creek Parkway,27103,36.0697015,-80.2941104
3278,Silas Creek Parkway,27103,36.0697366,-80.2961708
2475,Hillcrest Center Circle,27103,36.0511396,-80.3269699
3000,Bethesda Place,27103,36.0832161,-80.2938552
3232,Silas Creek Parkway,27103,36.0696871,-80.2947452
3224,Silas Creek Parkway,27103,36.0696919,-80.2944656
480,Wayside Drive,27017,36.0801637,-80.1607305
1,Medical Center Boulevard,27103,36.0901585,-80.2688647
51,East 4th Street,27101,36.0986942,-80.2439462
401,North Main Street,27101,36.0988822,-80.2439844
1760,Jonestown Road,27103,36.0379599,-80.3346321
41,Miller Street,27104,36.0942506,-80.2738634
205,S Stratford Rd,27103,36.0923213,-80.2798210
5621,Reynolda Road,27106,36.1750252,-80.3465794
328,N Spring Street,27101,36.0976179,-80.2555945
301,West 4th Street,27101,36.0982784,-80.2472600
310,West 4th Street,27101,36.0980123,-80.2472936
5414,University Parkway,27105,36.1684852,-80.2776233
2445,Fairlawn Drive,27106,36.1436832,-80.2922316
2835,Reynolda Road,27106,36.1456901,-80.2989748
150,Grant Hill Lane,27104,36.0838308,-80.3468331
3315,Sides Branch Road,27127,36.0323013,-80.2613346
1206,Reynolda Rd,27104,36.1076382,-80.2674741
2405,Buchanan Street,27127,36.0671490,-80.2515153
4655,Yadkinville Road,27040,36.1534933,-80.3592047
5034,Raven Road,27105,36.1881809,-80.2780292
2985,Fairlawn Drive,27106,36.1421069,-80.2923657
305,Jonestown Road,27104,36.0750449,-80.3355969
309,Jonestown Road,27104,36.0749867,-80.3355969
313,Jonestown Road,27104,36.0749273,-80.3355983
317,Jonestown Road,27104,36.0748634,-80.3356026
325,Jonestown Road,27104,36.0748041,-80.3356054
329,Jonestown Road,27104,36.0747448,-80.3356054
331,Jonestown Road,27104,36.0746756,-80.3356121
353,Jonestown Road,27104,36.0745478,-80.3356243
355,Jonestown Road,27104,36.0744653,-80.3356243
357,Jonestown Road,27104,36.0743984,-80.3356230
365,Jonestown Road,27104,36.0743375,-80.3356218
373,Jonestown Road,27104,36.0742569,-80.3356255
393,Jonestown Road,27104,36.0739976,-80.3356391
401,Jonestown Road,27104,36.0738843,-80.3360718
397,Jonestown Road,27104,36.0739377,-80.3356395
3481,Burke Mill Road,27103,36.0597018,-80.3112802
1373,"Westgate Center Dr, Suite 100",27103,36.0717300,-80.3117521
2500,Peters Creek Parkway,27127,36.0645901,-80.2600639
217,Casell Street,27127,36.0551277,-80.2337961
635,Peters Creek Parkway,27103,36.0835340,-80.2565097
2701,Saint George Square Court,27103,36.0713731,-80.3334513
5211,Germanton Road,27105,36.1685712,-80.2588841
5997,Museum Drive,27105,36.1861438,-80.2790069
3565,Vest Mill Road,27103,36.0741715,-80.3052127
1900,Charter Street,27103,36.0768032,-80.3005328
1000,Jonestown Road,27103,36.0619126,-80.3413538
3478,Lee Street,27106,36.1189466,-80.3169557
3464,Polo Road Northwest,27106,36.1197751,-80.3164848
2412,North Liberty Street,27105,36.1210599,-80.2339137
491,North Cleveland Avenue,27103,36.1001484,-80.2308027
1834,Wake Forest Road,27109,36.1352281,-80.2789915
1834,Wake Forest Road,27109,36.1335323,-80.2747516
1834,Wake Forest Road,27109,36.1354621,-80.2792056
1790,Wake Forest Road,27109,36.1347237,-80.2790552
2250,Reynolda Road,27106,36.1257568,-80.2826898
2839,Fairlawn Dr,27106-3805,36.1414174,-80.2995486
2735,Reynolda Road,27106,36.1422251,-80.2971826
750,Marguerite Drive,27106,36.1197810,-80.2900736
401,Deacon Boulevard,27105,36.1297735,-80.2521926
1121,Polo Road,27106,36.1395342,-80.2805509
2147,Bethabara Road,27106,36.1542427,-80.2982964
600,South Main Street,27101,36.0873461,-80.2422205
612,South Main Street,27101,36.0869415,-80.2422395
3,East Academy Street,27101,36.0877196,-80.2419333
649,South Main Street,27101,36.0871256,-80.2418426
801,South Church Street,27101,36.0862586,-80.2413161
626,South Main Street,27101,36.0867500,-80.2421383
532,South Main Street,27101,36.0878982,-80.2423033
720,Salt Street,27101,36.0861881,-80.2430087
3200,Truliant Way,27103,36.0649626,-80.2956310
700,Walnut Forest Rd,27103,36.0601257,-80.3000833
1000,East Hanes Mill Road,27105,36.1890067,-80.2640121
The,Quad Reynolda Road,27109,36.1337320,-80.2782646
500,North Martin Luther King Jr Drive,27101-4331,36.1007912,-80.2291356
589,North Martin Luther King Jr Drive,27101,36.1020140,-80.2276435
780,North Martin Luther King Jr Drive,27101,36.1033566,-80.2300317
701,North Martin Luther King Jr Drive,27101,36.1026837,-80.2282008
1400,West Northwest Boulevard,27104,36.0982384,-80.2660178
301,Hawthorne Road North,27104,36.1005209,-80.2654629
775,West End Boulevard Northwest,27104,36.0965736,-80.2625511
2355,Pleasant Street,27107,36.0644110,-80.2058479
3441,Myer Lee Drive,27101,36.1094752,-80.1717696
3535,Winston Lake Road,27105,36.1227862,-80.1994159
1980,Griffith Road,27103,36.0646866,-80.3083709
164,Hanes Mall Circle,27103,36.0662255,-80.3041151
1600,S Stratford Road,27103,36.0720744,-80.3039921
1995,Hampton Inn Court,27103,36.0643030,-80.3051770
698,Hanes Mall Boulevard,27103,36.0627925,-80.3042669
696,Hanes Mall Boulevard,27103,36.0627167,-80.3037899
1985,Hampton Inn Court,27103,36.0648658,-80.3063570
1990,Hampton Inn Court,27103,36.0653306,-80.3075600
1614,South Stratford Road,27104,36.0700403,-80.3046539
1680,Westbrook Plaza Drive,27103,36.0681538,-80.3068011
2051,Griffith Road,27103,36.0607296,-80.3086020
700,Highland Oaks Drive,27103,36.0620681,-80.3032975
110,Hanes Mall Boulevard,27103,36.0704533,-80.2976171
935,Hanes Mall Boulevard,27103,36.0633453,-80.3138040
924,Hanes Mall Boulevard,27103,36.0650918,-80.3124481
930,Hanes Mall Boulevard,27103,36.0665919,-80.3127430
950,Hanes Mall Boulevard,27103,36.0660200,-80.3139400
975,Hanes Mall Boulevard,27103,36.0635365,-80.3153822
1015,Marroitt Crossing Way,27103,36.0657590,-80.3211248
100,Hanes Square Shop Circle,27103,36.0665021,-80.3183730
1000,Hanes Mall Boulevard,27103,36.0677467,-80.3156410
1150,Hanes Mall Boulevard,27103,36.0690425,-80.3237802
1110,Creekshire Way,27103,36.0670278,-80.3227883
1325,Creekshire Way,27103,36.0657181,-80.3286004
1501,Hanes Mall Boulevard,27103,36.0684050,-80.3342382
4550,Kester Mill Road,27103,36.0676469,-80.3372301
745,Jonestown Road,27103,36.0685271,-80.3387343
701,Jonestown Road,27103,36.0690680,-80.3395687
513,Jonestown Road,27103,36.0715548,-80.3387353
426,Jonestown Road,27104,36.0737573,-80.3380706
1600,Westbrook Plaza Drive,27103,36.0681869,-80.3100720
1067,Francis Asbury Drive,27104,36.1200894,-80.2621982
1250,Bolton Street,27103,36.0743495,-80.2910674
1300,Bolton Street,27103,36.0721785,-80.2910590
1250,South Martin Luther King Jr Drive,27107,36.0826355,-80.2220368
1533,S Main St,27127,36.0768078,-80.2363591
300,South Martin Luther King Jr Drive,27101,36.0936212,-80.2281568
900,Old Salem Road,27101,36.0834941,-80.2428973
2301,West Clemmonsville Road,27103,36.0327347,-80.3016148
301 C,South Liberty Street,27101,36.0920990,-80.2435579
7791,North Point Boulevard,27106,36.1505903,-80.2798583
320,East Hanes Mill Road,27105,36.1924453,-80.2743555
5980,University Parkway,27105,36.1878883,-80.2768417
1600,S Stratford Rd,27103,36.0720668,-80.3041928
5721,University Parkway,27105,36.1779800,-80.2727162
101,North Main Street,27101,36.0952658,-80.2429253
125,South Main Street,27101,36.0941095,-80.2428470
104,West 4th Street,27101,36.0981835,-80.2451510
285,Gloucestershire Road,27104,36.0963465,-80.3252997
3101,Country Club Road,27104,36.0992290,-80.2999298
3325,Robinhood Road,27106,36.1162985,-80.3122171
425,Silas Creek Parkway,27127,36.0663072,-80.2479263
425,Silas Creek Parkway,27127,36.0665830,-80.2483869
295,West 4th Street,27101,36.0983848,-80.2469622
849,Waterworks Road,27101,36.1114437,-80.2024371
3401,Robinhood Road,27106,36.1173116,-80.3145540
3331,Robinhood Road,27106,36.1164379,-80.3126874
3475,Robinhood Road,27106,36.1185841,-80.3169919
3488,Robinhood Road,27106,36.1183846,-80.3184489
946,Marguerite Drive,27106,36.1203840,-80.2824653
148,West Street,27101,36.0865031,-80.2422662
700,South Main Street,27101,36.0865175,-80.2420878
800,South Main Street,27101,36.0854667,-80.2419603
736,South Main Street,27101,36.0857071,-80.2419431
2008,Queen Street,27157,36.0880356,-80.2686766
3333,Silas Creek Parkway Southwest,27103,36.0754900,-80.2964624
1,Medical Center Boulevard,27157,36.0896737,-80.2676274
108,North Martin Luther King Jr Drive,27101,36.0966380,-80.2290205
455,Vine Street,27101,36.0998838,-80.2399307
401,North Research Parkway,27101,36.0999227,-80.2371871
575,North Patterson Avenue,27101,36.1013198,-80.2408045
531,Akron Drive,27105,36.1395484,-80.2378644
3890,North Glenn Avenue,27105,36.1409161,-80.2313668
985,Biloxi Avenue,27284,36.0818277,-80.1083026
587,South Stratford Road,27103,36.0864406,-80.2888839
1600,Union Cross Road,27284,36.0666025,-80.1141188
2635,Reynolda Road,27106,36.1392486,-80.2950184
3799,Old Lexington Road,27107,36.0435685,-80.2195677
4665,Murray Road,27106,36.1701111,-80.3019657
4259,Northampton Drive,27105,36.1527553,-80.1919941
3543,Robinhood Road,27106,36.1212972,-80.3209334
2060,Village Link Road,27106,36.1214071,-80.3684515
5365,Robinhood Village Drive,27106,36.1228699,-80.3682596
5901,University Parkway,27105,36.1828481,-80.2721055
284,Summit Square Boulevard,27105,36.1866857,-80.2714314
5900,University Parkway,27105,36.1839308,-80.2754091
255,Summit Point Lane,27105,36.1853182,-80.2746967
235,Summit Point Lane,27105-1463,36.1846119,-80.2743168
5918,University Parkway,27105,36.1857576,-80.2758635
5998,University Parkway,27105,36.1889276,-80.2774973
300,East Hanes Mill Road,27105,36.1904153,-80.2746882
328,East Hanes Mill Road,27105,36.1903063,-80.2736824
438,East Hanes Mill Road,27105,36.1900271,-80.2704388
1950,South Hawthorne Road,27103,36.0790363,-80.2960857
1990,South Stratford Road,27103,36.0643893,-80.3113317
1976,South Stratford Road,27103,36.0641908,-80.3106600
200,West 2nd Street,27012,36.0956677,-80.2451704
1695,Westbrook Plaza Drive,27103,36.0696313,-80.3048194
460,North Cherry Street,27101,36.0992819,-80.2477177
229,West 5th Street,27101,36.0999585,-80.2467791
241,West 5th Street,27101,36.0999161,-80.2471653
315,West 4th Street,27101,36.0983010,-80.2477238
321,West 4th Street,27101,36.0982901,-80.2478224
405,West 4th Street,27101,36.0984086,-80.2482576
646,West 5th Street,27101,36.0987899,-80.2510621
501,West 5th Street,27101,36.0997973,-80.2496271
550,North Liberty Street,27101,36.1012761,-80.2457006
214,West 4th Street,27101,36.0979803,-80.2468186
401,North Main Street,27101,36.0994965,-80.2437689
201,North Church Street,27101,36.0972328,-80.2424163
709,North Main Street,27101,36.1033004,-80.2445611
525,Vine Street,27101,36.1016201,-80.2399490
725,North Cherry Street,27102,36.1041241,-80.2481501
2701,Shorefair Drive Northwest,27105,36.1242776,-80.2491413
529,South Church Street,27101,36.0881366,-80.2409860
500,East Salem Avenue,27101,36.0883035,-80.2385814
1067,Francis Asbury Drive,27104,36.1200909,-80.2619837
1067,Francis Asbury Drive,27104,36.1200865,-80.2624078
1067,Francis Asbury Drive,27104,36.1200645,-80.2626185
1067,Francis Asbury Drive,27104,36.1200374,-80.2628353
1295,Silas Creek Parkway,27127,36.0664818,-80.2569524
2715,Peters Creek Parkway,27127,36.0542064,-80.2584101
2520,Peters Creek Parkway,27127,36.0646592,-80.2593288
600,Holly Avenue Northwest,27101,36.0961898,-80.2498547
300,Poplar Street North,27101,36.0971283,-80.2498742
720;660,West 5th Street,27101;27101-2755,36.0985773,-80.2524013
1200,North Martin Luther King Jr Drive,27101,36.1043365,-80.2396993
1335,North Martin Luther King Jr Drive,27101,36.1048847,-80.2436178
826,Angelo Bros Ave,27101,36.1049764,-80.2453211
505,Highland Oaks Drive,27103,36.0625070,-80.3009469
200,Capitol Lodging Court,27103,36.0627090,-80.2994441
34,Miller Street,27104-4212,36.0947747,-80.2757825
700,Walnut Forest Rd,27103,36.0608429,-80.3009645
3898,Kernersville Road,27107,36.0862646,-80.1515029
2005,Silas Creek Parkway,27103,36.0702709,-80.2681707
401,Robbins Road,27107,36.0722373,-80.1542933
401,Robbins Road,27107,36.0720984,-80.1544282
3640,Reynolda Road,27106,36.1554935,-80.3168791
805,Jonestown Road,27103,36.0670385,-80.3390227
3425,Frontis Street,27103,36.0616370,-80.3097062
4221,Kernersville Road,27107,36.0913944,-80.1423574
3200,Silas Creek Parkway,27103,36.0703549,-80.2932317
3320,Silas Creek Parkway,27103,36.0678657,-80.3006510
1010,Hanes Mall Boulevard,27103,36.0686662,-80.3177138
1040,Hanes Mall Boulevard,27103-1309,36.0692985,-80.3199911
1030,Hanes Mall Boulevard,27103,36.0687886,-80.3188326
1010,Marroitt Crossing Way,27103,36.0664218,-80.3209528
2505,Somerset Center Drive,27103,36.0489972,-80.3273146
2505,Somerset Center Drive,27103,36.0491208,-80.3269765
390,Business Park Drive,27107,36.0367252,-80.1470461
3640,Glenn Ave NE,27105,36.1390454,-80.2337600
640,West 4th Street,27101,36.0973312,-80.2511753
2078,East 5th Street,27101,36.0978808,-80.2156323
2801,Griffith Road,27103,36.0369147,-80.3069172
1551,Glenn Center Drive,27284,36.0701502,-80.1122394
2020,Walker Road,27106,36.1866877,-80.3115217
5740,Murray Road Northwest,27106,36.1978811,-80.3119947
420,South Broad Street,27101,36.0879265,-80.2500628
994,West 2nd Street,27101,36.0941913,-80.2538986
585,Northwest Boulevard,27104,36.1084103,-80.2520674
1301,Patterson Avenue,27105,36.1109614,-80.2415477
1385,Fairfield Drive,27127,36.0614473,-80.2681626
3665,Patterson Avenue,27105,36.1422710,-80.2430490
1175,Bethania Rural Hall Road,27106,36.2045465,-80.3054981
1417,West Clemmonsville Road,27127,36.0409175,-80.2671926
2901,Reynolda Road,27106,36.1455398,-80.3011224
200,Mercantile Drive,27105,36.1800743,-80.2777486
1250,South Martin Luther King Junior Drive Southeast,27107,36.0836355,-80.2223340
3111,University Parkway,27105,36.1302940,-80.2614171
5218,Germanton Road,27105,36.1701261,-80.2609924
5790,University Parkway,27105,36.1793651,-80.2770359
309,Summit Square Court,27105,36.1880626,-80.2733658
235,Cherry Street North,27101,36.0971381,-80.2466855
7910,North Point Boulevard,27106,36.1513330,-80.2741835
100,Capitol Lodging Court,27103,36.0627698,-80.3005687
5719,University Parkway,27105,36.1771547,-80.2745197
3885,Oxford Station Way,27103,36.0689497,-80.3270222
3810,Patterson Avenue,27105,36.1506777,-80.2453752
420,High Street Southwest,27101,36.0920569,-80.2477142
200,Brookstown Avenue,27101,36.0904441,-80.2454148
5906,University Parkway,27105,36.1837745,-80.2759481
5496,University Parkway,27105,36.1705177,-80.2779976
5471,University Parkway,27105,36.1708622,-80.2767979
5599,University Parkway,27105,36.1725864,-80.2766511
5622,West Hanes Mill Road,27105,36.1738446,-80.2784870
110,Miller Street,27103,36.0924802,-80.2746529
5916,University Parkway,27105,36.1851647,-80.2755952
5988,University Parkway,27105,36.1882550,-80.2770560
5990,University Parkway,27105,36.1885462,-80.2772306
5985,University Parkway,27105,36.1888770,-80.2759342
5995,University Parkway,27105,36.1892693,-80.2762608
6041,University Parkway,27105,36.1916346,-80.2774709
6035,University Parkway,27105,36.1911434,-80.2772111
6000,University Parkway,27105,36.1897173,-80.2776237
5610,University Parkway,27105,36.1901252,-80.2769190
430,Summit Square Boulevard,27105,36.1888847,-80.2737173
150,Hanes Mill Court,27105,36.1885588,-80.2716903
3880,Bethania Station Road,27106,36.1606957,-80.2969169
111,Dellabrook Road,27105,36.1136142,-80.2174081
1632,Sanderstead Road Southwest,27103,36.0678040,-80.2905444
1650,Sanderstead Road Southwest,27103,36.0669446,-80.2905559
1652,Sanderstead Road Southwest,27103,36.0666996,-80.2905307
1708,Sanderstead Road Southwest,27103,36.0664119,-80.2904947
1712,Sanderstead Road Southwest,27103,36.0660978,-80.2905046
1716,Sanderstead Road Southwest,27103,36.0657424,-80.2905134
1800,Sanderstead Road Southwest,27103,36.0654208,-80.2905346
1804,Sanderstead Road Southwest,27103,36.0651187,-80.2905500
1989,Stonewood Drive Southwest,27103,36.0646911,-80.2909498
1985,Stonewood Drive Southwest,27103,36.0646595,-80.2907698
1997,Stonewood Drive Southwest,27103,36.0645459,-80.2909904
1993,Stonewood Drive Southwest,27103,36.0645132,-80.2908080
2007,Stonewood Drive Southwest,27103,36.0643745,-80.2909400
2003,Stonewood Drive Southwest,27103,36.0643432,-80.2907601
2015,Stonewood Drive Southwest,27103,36.0642251,-80.2909802
2011,Stonewood Drive Southwest,27103,36.0641939,-80.2908000
1977,Stonewood Drive Southwest,27103,36.0643296,-80.2904332
1973,Stonewood Drive Southwest,27103,36.0641819,-80.2904779
1965,Stonewood Drive Southwest,27103,36.0642950,-80.2902558
1969,Stonewood Drive Southwest,27103,36.0641448,-80.2902993
1961,Stonewood Drive Southwest,27103,36.0642501,-80.2900279
1957,Stonewood Drive Southwest,27103,36.0641027,-80.2900729
1953,Stonewood Drive Southwest,27103,36.0640667,-80.2898940
1949,Stonewood Drive Southwest,27103,36.0642144,-80.2898488
1945,Stonewood Drive Southwest,27103,36.0642433,-80.2896228
1941,Stonewood Drive Southwest,27103,36.0641043,-80.2896576
1937,Stonewood Drive Southwest,27103,36.0640766,-80.2894868
1933,Stonewood Drive Southwest,27103,36.0642168,-80.2894535
1948,Stonewood Drive Southwest,27103,36.0646794,-80.2898924
1940,Stonewood Drive Southwest,27103,36.0647893,-80.2896891
1944,Stonewood Drive Southwest,27103,36.0646427,-80.2897227
1952,Stonewood Drive Southwest,27103,36.0648233,-80.2898608
1936,Stonewood Drive Southwest,27103,36.0648260,-80.2893687
1932,Stonewood Drive Southwest,27103,36.0646808,-80.2894011
1924,Stonewood Drive Southwest,27103,36.0646450,-80.2892324
1916,Stonewood Drive Southwest,27103,36.0646824,-80.2890053
1929,Stonewood Drive Southwest,27103,36.0642443,-80.2890828
1917,Stonewood Drive Southwest,27103,36.0642182,-80.2889139
1901,Stonewood Drive Southwest,27103,36.0642178,-80.2884894
1897,Stonewood Drive Southwest,27103,36.0643295,-80.2882393
1885,Stonewood Drive Southwest,27103,36.0643008,-80.2880613
1881,Stonewood Drive Southwest,27103,36.0642564,-80.2877224
1869,Stonewood Drive Southwest,27103,36.0642225,-80.2875516
1865,Stonewood Drive Southwest,27103,36.0641788,-80.2873635
1861,Stonewood Drive Southwest,27103,36.0640326,-80.2873193
1857,Stonewood Drive Southwest,27103,36.0640539,-80.2871446
1849,Stonewood Drive Southwest,27103,36.0638354,-80.2871530
1841,Stonewood Drive Southwest,27103,36.0639882,-80.2867971
1829,Stonewood Drive Southwest,27103,36.0639606,-80.2866272
1837,Stonewood Drive Southwest,27103,36.0638508,-80.2868304
1833,Stonewood Drive Southwest,27103,36.0638232,-80.2866597
1825,Stonewood Drive Southwest,27103,36.0639332,-80.2863160
1817,Stonewood Drive Southwest,27103,36.0638096,-80.2861636
1809,Stonewood Drive Southwest,27103,36.0638801,-80.2858913
1801,Stonewood Drive Southwest,27103,36.0638792,-80.2856686
1900,Stonewood Drive Southwest,27103,36.0646826,-80.2885130
1896,Stonewood Drive Southwest,27103,36.0646560,-80.2883341
1884,Stonewood Drive Southwest,27103,36.0646824,-80.2881139
1876,Stonewood Drive Southwest,27103,36.0646578,-80.2879300
1868,Stonewood Drive Southwest,27103,36.0648247,-80.2876770
1872,Stonewood Drive Southwest,27103,36.0646867,-80.2877126
1848,Stonewood Drive Southwest,27103,36.0645509,-80.2874523
1840,Stonewood Drive Southwest,27103,36.0645526,-80.2872527
1832,Stonewood Drive Southwest,27103,36.0645567,-80.2870661
1824,Stonewood Drive Southwest,27103,36.0645590,-80.2868624
1816,Stonewood Drive Southwest,27103,36.0645612,-80.2866584
1808,Stonewood Drive Southwest,27103,36.0644396,-80.2865043
1800,Stonewood Drive Southwest,27103,36.0643164,-80.2863514
1756,Stonewood Drive Southwest,27103,36.0645179,-80.2854205
1760,Stonewood Drive Southwest,27103,36.0643720,-80.2853757
1752,Stonewood Drive Southwest,27103,36.0645552,-80.2852420
1748,Stonewood Drive Southwest,27103,36.0644100,-80.2851956
1740,Stonewood Drive Southwest,27103,36.0645222,-80.2850009
1736,Stonewood Drive Southwest,27103,36.0645592,-80.2848211
1744,Stonewood Drive Southwest,27103,36.0643763,-80.2849540
1732,Stonewood Drive Southwest,27103,36.0644144,-80.2847752
1720,Stonewood Drive Southwest,27103,36.0645635,-80.2844488
1716,Stonewood Drive Southwest,27103,36.0644191,-80.2844024
1708,Stonewood Drive Southwest,27103,36.0645659,-80.2842135
1712,Stonewood Drive Southwest,27103,36.0644199,-80.2842561
1700,Stonewood Drive Southwest,27103,36.0643852,-80.2840767
1704,Stonewood Drive Southwest,27103,36.0645328,-80.2840337
1686,Stonewood Drive Southwest,27103,36.0645729,-80.2835379
1690,Stonewood Drive Southwest,27103,36.0644256,-80.2835801
1678,Stonewood Drive Southwest,27103,36.0643932,-80.2833988
1682,Stonewood Drive Southwest,27103,36.0645399,-80.2833577
1670,Stonewood Drive Southwest,27103,36.0645798,-80.2831317
1674,Stonewood Drive Southwest,27103,36.0644336,-80.2831738
1662,Stonewood Drive Southwest,27103,36.0643988,-80.2829927
1666,Stonewood Drive Southwest,27103,36.0645462,-80.2829521
2515,Alderney Lane Southwest,27103,36.0648554,-80.2835254
2521,Alderney Lane Southwest,27103,36.0650839,-80.2835670
2527,Alderney Lane Southwest,27103,36.0652737,-80.2836275
2533,Alderney Lane Southwest,27103,36.0655286,-80.2837965
2539,Alderney Lane Southwest,27103,36.0656971,-80.2840128
2545,Alderney Lane Southwest,27103,36.0657785,-80.2843048
2551,Alderney Lane Southwest,27103,36.0658119,-80.2845997
2557,Alderney Lane Southwest,27103,36.0658123,-80.2848581
2563,Alderney Lane Southwest,27103,36.0658175,-80.2851311
2569,Alderney Lane Southwest,27103,36.0658343,-80.2854472
2514,Alderney Lane Southwest,27103,36.0648342,-80.2841153
2524,Alderney Lane Southwest,27103,36.0650904,-80.2841328
2536,Alderney Lane Southwest,27103,36.0652915,-80.2843064
2550,Alderney Lane Southwest,27103,36.0653261,-80.2845773
2556,Alderney Lane Southwest,27103,36.0653279,-80.2848468
2562,Alderney Lane Southwest,27103,36.0653555,-80.2851331
2568,Alderney Lane Southwest,27103,36.0653393,-80.2854271
2606,Alderney Lane Southwest,27103,36.0653673,-80.2862536
2618,Alderney Lane Southwest,27103,36.0653733,-80.2867988
2624,Alderney Lane Southwest,27103,36.0653710,-80.2870956
2630,Alderney Lane Southwest,27103,36.0653753,-80.2873425
2680,Alderney Lane Southwest,27103,36.0653629,-80.2877223
2686,Alderney Lane Southwest,27103,36.0651030,-80.2880229
2688,Alderney Lane Southwest,27103,36.0651081,-80.2883820
2690,Alderney Lane Southwest,27103,36.0651138,-80.2887078
2692,Alderney Lane Southwest,27103,36.0651163,-80.2889619
2694,Alderney Lane Southwest,27103,36.0652982,-80.2894058
2698,Alderney Lane Southwest,27103,36.0651788,-80.2899188
5230,Beauchamp Lane,27104,36.0937807,-80.3699366
5175,Brookberry Park Avenue,27104,36.0940176,-80.3674372
3263,Kernersville Road,27107,36.0800012,-80.1718604
3254,Kernersville Road,27107,36.0787012,-80.1709408
3500,Kernersville Road,27107,36.0827524,-80.1633032
3103,Kernersville Road,27107,36.0784282,-80.1750631
3020,Kernersville Road,27107,36.0770364,-80.1765925
3007,Waughtown Street,27107,36.0772480,-80.1799113
3475,Parkway Village Courts,27127,36.0272222,-80.2626239
606,Coliseum Drive,27106,36.1236943,-80.2591632
2283,Cloverdale Avenue,27103,36.0904927,-80.2748086
2900,Reynolda Road,27106,36.1444932,-80.3012894
1010,North Liberty Street,27101,36.1078194,-80.2379246
206,North Green Street,27101,36.0959145,-80.2550259
110,South Broad Street,27101,36.0928200,-80.2530082
3010,Maplewood Avenue,27103,36.0799208,-80.2934115
1700,South Hawthorne Road,27103,36.0783177,-80.2914025
1624,South Hawthorne Road,27103,36.0783732,-80.2908103
1622,South Hawthorne Road,27103,36.0783132,-80.2906323
1612,South Hawthorne Road,27103,36.0782806,-80.2902058
1600,South Hawthorne Road,27103,36.0783456,-80.2897438
1601,South Hawthorne Road,27103,36.0777662,-80.2897433
1615,South Hawthorne Road,27103,36.0778088,-80.2902481
1416,South Hawthorne Road,27103,36.0781757,-80.2856067
1412,South Hawthorne Road,27103,36.0781527,-80.2853852
1305,South Hawthorne Road,27103,36.0777882,-80.2844013
1311,S Hawthorne Rd,27103,36.0777941,-80.2845780
1515,South Hawthorne Road,27103,36.0775925,-80.2871916
414,Deacon Boulevard,27105,36.1279427,-80.2538790
3050,University Parkway,27105-4230,36.1296649,-80.2632585
519,Deacon Boulevard,27105,36.1291377,-80.2586847
521,Deacon Boulevard,27105,36.1291750,-80.2592124
613,Deacon Boulevard,27105,36.1293416,-80.2595273
1102,Reynolds Boulevard,27105,36.1326808,-80.2617633
1110,East 7th Street,27101-4215,36.1021310,-80.2314996
3710,Glenn Avenue Northeast,27105,36.1393240,-80.2334441
4025,Old Vineyard Road,27104,36.0787711,-80.3268343
4403,Country Club Road,27101,36.0846219,-80.3266344
4401,Country Club Road,27101,36.0847106,-80.3259923
4403,Country Club Road,27101,36.0844995,-80.3265292
406,Deacon Boulevard,27101,36.1284224,-80.2525323
501,Deacon Boulevard,27105,36.1291525,-80.2566316
505,Deacon Boulevard,27105,36.1291164,-80.2578062
513,Deacon Boulevard,27105,36.1292556,-80.2582788
3009,Baity Street,27105,36.1295863,-80.2612438
4021,Reynolds Court,27105,36.1376913,-80.2495539
1331,Glenn Center Drive,27284,36.0727849,-80.1114058
175,North Chestnut Street,27101,36.0962774,-80.2410757
545,Power Plant Circle,27101,36.0997878,-80.2386421
511,Green Street South,27101,36.0868563,-80.2503176
513,Green Street South,27101,36.0866968,-80.2501439
525,Green Street South,27101,36.0865226,-80.2500646
603,Green Street South,27101,36.0862346,-80.2500255
607,Green Street South,27101,36.0860982,-80.2499737
609,Green Street South,27101,36.0859066,-80.2498958
509,Green Street South,27101,36.0869766,-80.2504096
806,Bank Street West,27101,36.0873028,-80.2501969
600,South Broad Street,27101,36.0867510,-80.2482368
620,South Broad Street,27101,36.0862983,-80.2478969
622,South Broad Street,27101,36.0861873,-80.2478360
636,South Broad Street,27101,36.0857983,-80.2475805
617,Green Street South,27101,36.0857263,-80.2497958
621,Green Street South,27101,36.0855962,-80.2497330
625,Green Street South,27101,36.0854713,-80.2496757
631,Green Street South,27101,36.0853326,-80.2496175
639,Green Street South,27101,36.0850358,-80.2494122
4915,Lansing Drive,27105-3023,36.1503542,-80.2123107
195,Akron Drive,27105,36.1371259,-80.2435309
1302,Land Grove Drive,27284,36.0857013,-80.1207283
1206,Land Grove Court,27284,36.0879113,-80.1195411
5216,Sedge Hollow Drive,27284,36.0880088,-80.1187677
975,Peters Creek Parkway,27103,36.0764056,-80.2581584
330,Knollwood Street,27104,36.0943263,-80.2873612
2611,New Walkertown Road Northeast,27101,36.1105874,-80.2138607
1208,Bolton Street,27103,36.0757507,-80.2895355
1212,Bolton Street,27103,36.0755359,-80.2896031
1218,Bolton Street,27103,36.0753148,-80.2896558
1224,Bolton Street,27103,36.0751072,-80.2896970
1237,Bolton Street,27103,36.0746582,-80.2897808
1243,Bolton Street,27103,36.0744428,-80.2898153
1248,Bolton Street,27103,36.0742483,-80.2898410
2800,Westridge Road,27103,36.0759782,-80.2901027
2808,Westridge Road,27103,36.0759894,-80.2903671
2868,Hermitage Drive,27103,36.0756395,-80.2919765
2840,Westridge Road,27103,36.0760087,-80.2919246
2836,Westridge Road,27103,36.0760252,-80.2916617
2832,Westridge Road,27103,36.0760055,-80.2914135
2826,Westridge Road,27103,36.0760147,-80.2911549
2814,Westridge Road,27103,36.0759831,-80.2906329
1210,Bolton Street,27103,36.0754028,-80.2908839
2867,Hermitage Drive,27103,36.0759155,-80.2924408
2863,Hermitage Drive,27103,36.0761157,-80.2923874
2859,Hermitage Drive,27103,36.0763147,-80.2923546
2855,Hermitage Drive,27103,36.0765300,-80.2923258
2839,Westridge Road,27103,36.0764406,-80.2917909
2842,Hermitage Drive,27103,36.0766680,-80.2917869
2836,Hermitage Drive,27103,36.0768891,-80.2917005
2830,Hermitage Drive,27103,36.0769183,-80.2914021
2824,Hermitage Drive,27103,36.0768787,-80.2911298
2818,Hermitage Drive,27103,36.0768683,-80.2908510
2812,Hermitage Drive,27103,36.0768899,-80.2905680
2806,Hermitage Drive,27103,36.0768619,-80.2903205
2800,Hermitage Drive,27103,36.0768731,-80.2899817
2801,Westridge Road,27103,36.0763782,-80.2900573
2809,Westridge Road,27103,36.0763906,-80.2902930
2821,Westridge Road,27103,36.0764354,-80.2908561
2827,Westridge Road,27103,36.0764199,-80.2911406
2833,Westridge Road,27103,36.0764098,-80.2913805
2843,Hermitage Drive,27103,36.0771376,-80.2921454
2839,Hermitage Drive,27103,36.0772969,-80.2919378
2835,Hermitage Drive,27103,36.0773295,-80.2916609
2831,Hermitage Drive,27103,36.0773204,-80.2914281
2825,Hermitage Drive,27103,36.0773167,-80.2911393
2819,Hermitage Drive,27103,36.0773150,-80.2908747
2813,Hermitage Drive,27103,36.0773056,-80.2906210
2807,Hermitage Drive,27103,36.0772973,-80.2903718
2805,Hermitage Drive,27103,36.0772663,-80.2900844
2801,Hermitage Drive,27103,36.0773182,-80.2898352
1135,Bolton Street,27103,36.0767546,-80.2893638
1330,South Hawthorne Road,27103,36.0783601,-80.2851663
655,South Hawthorne Road,27103,36.0828099,-80.2703124
647,South Hawthorne Road,27103,36.0828922,-80.2700654
715,Fenimore Street,27103,36.0825343,-80.2703202
723,Fenimore Street,27103,36.0823526,-80.2702985
708,Fenimore Street,27103,36.0825426,-80.2708006
716,Fenimore Street,27103,36.0823281,-80.2707998
707,South Hawthorne Road,27103,36.0823606,-80.2710352
722,Fenimore Street,27103,36.0820976,-80.2708313
726,Fenimore Street,27103,36.0819118,-80.2708257
822,Fenimore Street,27103,36.0816474,-80.2708176
824,Fenimore Street,27103,36.0814464,-80.2708279
803,Fenimore Street,27103,36.0818550,-80.2703503
815,Fenimore Street,27103,36.0814977,-80.2703592
821,Fenimore Street,27103,36.0813299,-80.2703789
825,Fenimore Street,27103,36.0811497,-80.2703678
841,Fenimore Street,27103,36.0809700,-80.2704044
845,Fenimore Street,27103,36.0808366,-80.2703801
826,Fenimore Street,27103,36.0812348,-80.2708528
855,Fenimore Street,27103,36.0801629,-80.2705411
853,Fenimore Street,27103,36.0803419,-80.2704805
851,Fenimore Street,27103,36.0804776,-80.2704607
849,Fenimore Street,27103,36.0806704,-80.2704376
2021,Ardsley Street,27103,36.0800314,-80.2699176
859,Fenimore Street,27103,36.0797558,-80.2705250
857,Fenimore Street,27103,36.0799635,-80.2705514
2180,Gaston Street,27103,36.0803162,-80.2711458
2184,Gaston Street,27103,36.0803282,-80.2713263
2188,Gaston Street,27103,36.0803058,-80.2715303
2194,Gaston Street,27103,36.0803405,-80.2717363
2196,Gaston Street,27103,36.0803127,-80.2719328
1031,Irving Street,27103,36.0798932,-80.2718695
1035,Irving Street,27103,36.0797267,-80.2718540
1039,Irving Street,27103,36.0795490,-80.2718585
2191,Ardsley Street,27103,36.0794612,-80.2713357
872,Fenimore Street,27103,36.0795498,-80.2710803
864,Fenimore Street,27103,36.0797138,-80.2710853
860,Fenimore Street,27103,36.0798870,-80.2710834
856,Fenimore Street,27103,36.0800489,-80.2710843
1043,Irving Street,27103,36.0794056,-80.2718669
1034,Irving Street,27103,36.0793697,-80.2723502
1026,Irving Street,27103,36.0795552,-80.2724106
1020,Irving Street,27103,36.0797871,-80.2723786
1016,Irving Street,27103,36.0799347,-80.2723878
2200,Gaston Street,27103,36.0803300,-80.2722935
2206,Gaston Street,27103,36.0803280,-80.2724654
2197,Gaston Street,27103,36.0807699,-80.2720985
2195,Gaston Street,27103,36.0807507,-80.2719055
2193,Gaston Street,27103,36.0807285,-80.2716898
2191,Gaston Street,27103,36.0807718,-80.2714776
2183,Gaston Street,27103,36.0807425,-80.2712786
2179,Gaston Street,27103,36.0807533,-80.2710729
2175,Gaston Street,27103,36.0807480,-80.2708825
2201,Gaston Street,27103,36.0811416,-80.2717609
2203,Gaston Street,27103,36.0813196,-80.2718264
827,South Hawthorne Road,27103,36.0812601,-80.2729638
821,South Hawthorne Road,27103,36.0813869,-80.2727504
819,South Hawthorne Road,27103,36.0814708,-80.2725752
817,South Hawthorne Road,27103,36.0815800,-80.2723939
805,South Hawthorne Road,27103,36.0817381,-80.2721270
801,South Hawthorne Road,27103,36.0818308,-80.2719443
731,South Hawthorne Road,27103,36.0819768,-80.2717391
727,South Hawthorne Road,27103,36.0820530,-80.2715577
905,Miller Street,27103,36.0809823,-80.2730935
907,Miller Street,27103,36.0808219,-80.2730868
909,Miller Street,27103,36.0806770,-80.2730978
2211,Gaston Street,27103,36.0807870,-80.2727105
2207,Gaston Street,27103,36.0807754,-80.2724594
1029,Miller Street,27103,36.0803597,-80.2730889
1031,Miller Street,27103,36.0802038,-80.2731197
2210,Gaston Street,27103,36.0803152,-80.2726643
1033,Miller Street,27103,36.0800424,-80.2731309
1035,Miller Street,27103,36.0798817,-80.2731452
1037,Miller Street,27103,36.0797039,-80.2731371
1039,Miller Street,27103,36.0795263,-80.2731478
1043,Miller Street,27103,36.0793585,-80.2731662
1045,Miller Street,27103,36.0790259,-80.2731772
1049,Miller Street,27103,36.0788726,-80.2731785
1053,Miller Street,27103,36.0786941,-80.2732153
1055,Miller Street,27103,36.0785353,-80.2731926
2206,Ardsley Street,27103,36.0790115,-80.2726548
2204,Ardsley Street,27103,36.0790169,-80.2724460
2202,Ardsley Street,27103,36.0790095,-80.2722714
1022,Fenimore Street,27103,36.0779277,-80.2711278
1016,Fenimore Street,27103,36.0781687,-80.2711116
920,Fenimore Street,27103,36.0787159,-80.2711042
1012,Fenimore Street,27103,36.0783904,-80.2711191
2194,Ardsley Street,27103,36.0790573,-80.2713643
2106,Ardsley Street,27103,36.0790803,-80.2711954
2100,Ardsley Street,27103,36.0791082,-80.2710174
2034,Ardsley Street,27103,36.0793174,-80.2705902
2026,Ardsley Street,27103,36.0793864,-80.2703720
2020,Ardsley Street,27103,36.0795197,-80.2699922
905,Fenimore Street,27103,36.0790354,-80.2705759
1001,Fenimore Street,27103,36.0787908,-80.2704382
1003,Fenimore Street,27103,36.0786092,-80.2704406
1009,Fenimore Street,27103,36.0784016,-80.2703758
1015,Fenimore Street,27103,36.0782298,-80.2703756
1021,Fenimore Street,27103,36.0780334,-80.2703552
1027,Fenimore Street,27103,36.0778445,-80.2703522
1101,Fenimore Street,27103,36.0776533,-80.2704521
1315,South Hawthorne Road,27103,36.0777146,-80.2847891
1471,Miller Street,27103,36.0702534,-80.2733367
1467,Miller Street,27103,36.0704000,-80.2733427
1465,Miller Street,27103,36.0705687,-80.2733336
705,West Academy Street,27101,36.0868201,-80.2490719
703,West Academy Street,27101,36.0868741,-80.2489160
713,West Academy Street,27101,36.0867730,-80.2494046
708,Laurel Street,27101,36.0844622,-80.2487893
712,Laurel Street,27101,36.0843488,-80.2487054
716,Laurel Street,27101,36.0842051,-80.2486544
720,Laurel Street,27101,36.0840632,-80.2486220
730,Laurel Street,27101,36.0839296,-80.2485703
715,Green Street South,27101,36.0842329,-80.2491108
719,Green Street South,27101,36.0840818,-80.2490811
721,Green Street South,27101,36.0839712,-80.2489825
725,Green Street South,27101,36.0838343,-80.2489272
727,Green Street South,27101,36.0837191,-80.2488491
733,Green Street South,27101,36.0835574,-80.2487989
735,Green Street South,27101,36.0834326,-80.2487580
741,Green Street South,27101,36.0833210,-80.2487000
740,Laurel Street,27101,36.0836901,-80.2484200
801,Washington Street Southwest,27101,36.0834501,-80.2483548
612,West Street Southwest,27101,36.0850227,-80.2477445
608,West Street Southwest,27101,36.0850582,-80.2475728
720,South Broad Street,27101,36.0845412,-80.2470482
724,South Broad Street,27101,36.0844221,-80.2470057
709,Mulberry Street Southwest,27101,36.0848205,-80.2476583
713,Mulberry Street Southwest,27101,36.0846352,-80.2475529
727,Mulberry Street Southwest,27101,36.0841497,-80.2473547
731,Mulberry Street Southwest,27101,36.0839755,-80.2472640
732,South Broad Street,27101,36.0841537,-80.2468503
702,West Street Southwest,27101,36.0849346,-80.2480587
726,South Broad Street,27101,36.0843067,-80.2469155
706,West Street Southwest,27101,36.0848954,-80.2482281
3185,Buchanan Street,27127-3870;27127,36.0547101,-80.2528595
723,South Hawthorne Road,27103,36.0821550,-80.2713572
715,South Hawthorne Road,27103,36.0822921,-80.2712127
1102,Fenimore Street,27103,36.0774162,-80.2710397
1104,Fenimore Street,27103,36.0772421,-80.2710407
1106,Fenimore Street,27103,36.0770580,-80.2710663
1110,Fenimore Street,27103,36.0768885,-80.2710779
1124,Fenimore Street,27103,36.0767298,-80.2710543
1126,Fenimore Street,27103,36.0765559,-80.2710733
1128,Fenimore Street,27103,36.0763851,-80.2710953
1137,Fenimore Street,27103,36.0760522,-80.2704425
1133,Fenimore Street,27103,36.0762164,-80.2704648
1129,Fenimore Street,27103,36.0763989,-80.2704533
1125,Fenimore Street,27103,36.0765692,-80.2704595
1121,Fenimore Street,27103,36.0767533,-80.2704581
1117,Fenimore Street,27103,36.0769405,-80.2704575
1113,Fenimore Street,27103,36.0771053,-80.2704497
1109,Fenimore Street,27103,36.0773003,-80.2704519
1105,Fenimore Street,27103,36.0774643,-80.2704394
811,Jonestown Road,27103,36.0654617,-80.3386507
700,Jonestown Road,27103,36.0688829,-80.3406686
700,Jonestown Road,27103,36.0690787,-80.3404834
3800,Kimwell Drive,27103,36.0455855,-80.3232014
4505,Kester Mill Road,27103,36.0697287,-80.3345248
835,South Hawthorne Road,27103,36.0811649,-80.2730992
2847,Hermitage Drive,27103,36.0769258,-80.2922655
2851,Hermitage Drive,27103,36.0767343,-80.2922783
1450,Lumber Lane,27127,36.0311923,-80.2644870
2355,Pleasant Street,27107,36.0637351,-80.2060039
750,Summit Street,27101,36.1012754,-80.2603122
122,West 4th Street,27101,36.0979624,-80.2457956
1400,West Northwest Boulevard,27104,36.0982659,-80.2655424
1300,Bolton Street,27103,36.0723930,-80.2912012
1250,Bolton Street,27103,36.0741259,-80.2919184
1590,Bolton Street,27103,36.0680289,-80.2942312
526,Brookberry Heights Crossing,27106,36.1005322,-80.3669464
701,Jonestown Road,27103,36.0690628,-80.3397458
511,Cherry Street North,27101,36.1002240,-80.2467478
1790,Quarry Road,27101,36.0825368,-80.2022428
3506,Congress Square,27284,36.0921349,-80.1550989
3610,Contimental Square,27284,36.0919856,-80.1566031
3421,River Farm Drive,27284,36.0924523,-80.1553546
251,Dumont Drive,27107,36.0916296,-80.1544936
247,Dumont Drive,27107,36.0913236,-80.1544392
246,Dumont Drive,27107,36.0913648,-80.1551455
240,Dumont Drive,27107,36.0911030,-80.1551074
236,Dumont Drive,27107,36.0908141,-80.1553243
241,Dumont Drive,27107,36.0910931,-80.1544242
3524,Congress Square,27284,36.0917839,-80.1555062
3611,Contimental Square,27284,36.0919667,-80.1561613
3665,Contimental Square,27284,36.0934564,-80.1568894
698,Foxcroft Drive,27103,36.0657401,-80.3324751
1132,Fenimore Street,27103,36.0760235,-80.2712454
1130,Fenimore Street,27103,36.0761858,-80.2712665
301,Hawthorne Road North,27104,36.1015121,-80.2656251
530,North Patterson Avenue,27101,36.1011026,-80.2418532
601,South Martin Luther King Jr Drive,27110,36.0901127,-80.2252627
501,West 4th Street,27101,36.0983924,-80.2493233
301,Hawthorne Road North,27104,36.1012948,-80.2652954
