House number,Street name,Postal code,Latitude,Longitude
3,Ворошилова улица,98330,45.3354118,36.4520029
1А,Ворошилова улица,298329,45.3338626,36.4528510
9,Маршала Ерёменко улица,98300,45.3603505,36.4655150
1,улица Кирова,298300,45.3531672,36.4743784
86,Свердлова улица,298320,45.3424191,36.4591199
5,Орджоникидзе улица,298313,45.2841922,36.4091264
45,Орджоникидзе улица,298310,45.2916566,36.4176558
27А,Ворошилова улица,298330,45.3401191,36.4382433
37А,улица Ульяновых,298309,45.3013520,36.4304670
1Д,улица Ульяновых,298324,45.3052348,36.4469455
43,улица Кирова,298312,45.3639481,36.4846199
23,улица Горького,298318,45.3682949,36.4960704
23/35,Войкова улица,298306,45.3601085,36.5232149
7Б,улица Маршала Ерёменко,298302,45.3602219,36.4596291
33,Вокзальное шоссе,298302,45.3581097,36.4551848
5У,Галины Петровой улица,298313,45.2178104,36.4018507
1Г,Сморжевского улица,298300,45.3613529,36.5130611
8,Самойленко улица,298300,45.3576567,36.4676983
103,улица Кирова,298319,45.3627538,36.5064033
5,улица Кирова,298300,45.3545146,36.4743465
2,улица Кирова,298300,45.3530485,36.4752521
12,улица Фурманова,298312,45.3655735,36.4836530
101,улица 23 Мая 1919 года,298300,45.3548585,36.4687790
9/2,Курортная улица,298309,45.2986737,36.4307962
2А,улица Кирова,298300,45.3533624,36.4749734
38,улица Карла Маркса,298300,45.3569381,36.4743553
68,Колхозная,298324,45.3039200,36.4578850
21/12,Советская улица,298300,45.3553745,36.4727015
13,улица Кирова,298300,45.3565729,36.4751054
3,1-й Степной переулок,98307,45.3514466,36.5739981
2,улица Горбульского,298302,45.3568635,36.4600890
31В,улица Галины Петровой,298313,45.2265951,36.4079385
162,Чкалова,98300,45.3457037,36.4241282
38,Шлагбаумская улица,298300,45.3565839,36.4600953
11,улица Кирова,298300,45.3556941,36.4743995
23А,улица Свердлова,98300-98399,45.3449669,36.4662170
1Б,улица Ульяновых,98324,45.3050022,36.4434495
14,улица Петрухина,298310,45.2934487,36.4231566
23,улица Суворова,298306,45.3626584,36.5288070
7,улица Марата,298320,45.3401806,36.4564095
3,Ворошилова улица,98330,45.3352429,36.4524643
37 к2,Ворошилова улица,98330,45.3379697,36.4406943
37 к1,Ворошилова улица,98330,45.3376768,36.4414396
17,улица Индустриальное шоссе,298330,45.3420488,36.4317694
32,Будённого улица,298330,45.3375221,36.4361075
19,Будённого улица,299000,45.3360922,36.4401971
19,улица Ворошилова,298300,45.3361177,36.4448897
1А,Ворошилова улица,298329,45.3338828,36.4528081
7,улица Маршала Ерёменко,298300,45.3589738,36.4622860
48,улица Орджоникидзе,298310,45.2926269,36.4203909
3,Юннатов переулок,98315,45.2999281,36.4312121
12,улица Орджоникидзе,98313,45.2841939,36.4103701
3,Пионеров бульвар,98310,45.2858535,36.4143133
18,улица Мира,298310,45.2904608,36.4135853
16,переулок Юннатов,329109,45.2986065,36.4339168
18,переулок Юннатов,298309,45.2984533,36.4326029
14,переулок Юннатов,329109,45.2991500,36.4336471
20,переулок Юннатов,329109,45.2980380,36.4330478
16,шоссе Героев Сталинграда,298300,45.3270872,36.4539810
39,Свердлова улица,298300,45.3419776,36.4597881
58/2,шоссе Героев Сталинграда,298329,45.3139346,36.4452531
58/1,шоссе Героев Сталинграда,298329,45.3143711,36.4448909
56,шоссе Героев Сталинграда,298329,45.3149188,36.4448446
4,улица Свердлова,298300,45.3496389,36.4736869
5,улица Кирова,298300,45.3545237,36.4742773
17,улица Кирова,298300,45.3580415,36.4752539
44,улица Сергея Борзенко,298300,45.3601762,36.4755004
9/16,Советская улица,298300,45.3569837,36.4681662
16,улица Ленина,298300,45.3547989,36.4692618
1,Советская улица,298300,45.3574910,36.4674974
21/12,Советская улица,298300,45.3554395,36.4728375
1,улица Козлова,298300,45.3570410,36.4690444
30,улица Маршала Ерёменко,298300,45.3620473,36.4693600
25,улица Самойленко,298300,45.3593576,36.4667907
6,улица Лейтенанта Бувина,298300,45.3645339,36.4707183
29,улица Пирогова,298300,45.3566484,36.4659414
39,Вокзальное шоссе,298302,45.3584623,36.4516678
37,Вокзальное шоссе,298302,45.3583781,36.4524150
7Б,улица Маршала Ерёменко,298302,45.3602507,36.4599373
35,Вокзальное шоссе,298302,45.3581172,36.4542600
2,Заречная улица,298302,45.3575786,36.4545880
2,улица Сергея Борзенко,298302,45.3580016,36.4608671
4,улица Сергея Борзенко,298302,45.3583380,36.4627430
7,улица Горбульского,298302,45.3578308,36.4626544
5,улица Горбульского,298302,45.3578245,36.4619075
3,улица Горбульского,298302,45.3575948,36.4612233
1,Вишнёвая улица,98312,45.3661228,36.4841847
12,улица Горького,298312,45.3666668,36.4910996
8,улица Козлова,98300,45.3574265,36.4706941
1А,Кавказская улица,98313,45.2801961,36.4074767
138,улица Льва Толстого,298309,45.3005674,36.4228411
7,Майский переулок,298309,45.3008922,36.4325039
2Б,улица Ульяновых,298309,45.3053340,36.4413611
2Е,улица Ульяновых,298309,45.3055562,36.4427276
2Ж,улица Ульяновых,298309,45.3054859,36.4438106
68,Колхозная улица,298324,45.3038772,36.4578738
5,улица Степана Разина,298306,45.3603592,36.5352890
7,улица Спартака,298306,45.3603631,36.5338723
3,улица Степана Разина,298306,45.3593168,36.5348082
75А,улица Кирова,298318,45.3659172,36.4929090
75,улица Кирова,298318,45.3654461,36.4916314
95,улица Кирова,298319,45.3630650,36.5064780
12,улица Капитана Алиева,298306,45.3656511,36.5197881
99,улица Кирова,298319,45.3633214,36.5076198
93,улица Кирова,298319,45.3635006,36.5063037
103,улица Кирова,298319,45.3625788,36.5069230
109,улица Кирова,298319,45.3624960,36.5099567
8А,улица Генерала Петрова,298319,45.3643632,36.5103794
107,улица Кирова,298319,45.3622828,36.5091480
111,улица Кирова,298319,45.3617809,36.5091965
65,улица Кирова,298312,45.3652795,36.4899645
77,улица Кирова,298318,45.3658620,36.4948152
51,улица Кирова,298312,45.3644642,36.4865408
6Ак1,1-й Портовый переулок,298312М,45.3651688,36.4865511
81,улица Кирова,298318,45.3658462,36.4953711
83,улица Кирова,298318,45.3659133,36.4959831
85,улица Кирова,298318,45.3659958,36.4966274
79,улица Кирова,298318,45.3664843,36.4957041
67,улица Кирова,298312,45.3653526,36.4905433
7,улица Лейтенанта Бувина,298300,45.3649119,36.4709029
63,улица Шевякова,298312,45.3681627,36.4771427
32/2,улица Гагарина,298312,45.3669163,36.4901112
63,улица Шевякова,298312,45.3683820,36.4771782
3,улица Горького,298312,45.3661929,36.4852826
1А,Ильи Громозды улица,298300,45.3675302,36.4872100
1,улица Сергея Борзенко,298302,45.3576010,36.4600360
23,улица Горбульского,298302,45.3581542,36.4637120
2,Киевская улица,298318,45.3692281,36.4952391
40,улица Пошивальникова,298318,45.3697699,36.4983634
14,Краснофлотская улица,298318,45.3691370,36.4961076
4/6,Киевская улица,298318,45.3694060,36.4955292
6/8,Киевская улица,298318,45.3696061,36.4958269
80,улица Чкалова,298327,45.3521167,36.4483398
18,улица Московская,298306,45.3543571,36.5202240
17/2,Советская улица,298300,45.3555535,36.4714228
8,улица Энгельса,298306,45.3594604,36.5341152
45,улица Орджоникидзе,98310,45.2916398,36.4174730
5,улица Пирогова,298302,45.3561481,36.4609372
76,Кулакова,298307,45.3503465,36.5708054
17,Металлургов улица,298328,45.3842828,36.5218141
27,улица Ворошилова,298330,45.3392301,36.4384482
5У,Галины Петровой улица,298313,45.2179281,36.4024347
5У,Галины Петровой улица,298313,45.2179456,36.4021928
5У,Галины Петровой улица,298313,45.2174188,36.4021637
5У,Галины Петровой улица,298313,45.2177566,36.4021870
5У,Галины Петровой улица,298313,45.2175979,36.4021807
5У,Галины Петровой улица,298313,45.2177172,36.4025343
5У,Галины Петровой улица,298313,45.2177372,36.4023569
5У,Галины Петровой улица,298313,45.2176866,36.4021130
5У,Галины Петровой улица,298313,45.2177044,36.4026474
5У,Галины Петровой улица,298313,45.2176290,36.4026633
101,улица 23 Мая 1919 года,298300,45.3547165,36.4687165
12,улица 1-го Мая,298306,45.3609615,36.5350161
10,улица 1-го Мая,298306,45.3606525,36.5348561
1,Всесоюзная улица,298319,45.3604407,36.5160325
3/3,Всесоюзная улица,298319,45.3603546,36.5153478
30,Симферопольская улица,298312,45.3763632,36.4735982
40,Симферопольская улица,298312,45.3768974,36.4725897
28,Симферопольская улица,298312,45.3762511,36.4738234
4,Полевая улица,298300,45.3634499,36.4666312
3,Пионеров бульвар,98310,45.2855009,36.4145764
32/1,улица Гагарина,298312,45.3668528,36.4892948
32,улица Гагарина,298312,45.3673098,36.4896394
31В,улица Галины Петровой,298313,45.2266204,36.4079627
162,Чкалова,98300,45.3456762,36.4241371
5Б,улица Свердлова,98300-98399,45.3473800,36.4717862
141,Вокзальне шосе,298303,45.3588147,36.4225717
143,Вокзальне шосе,298303,45.3592003,36.4226144
140,Вокзальное шоссе,298303,45.3648147,36.4094830
8,1-й Степной переулок,298312,45.3510601,36.5733950
8,улица Петрухина,298310,45.2939530,36.4237479
10,улица Петрухина,298310,45.2937304,36.4234026
10А,улица Петрухина,298310,45.2938563,36.4231693
16,улица Петрухина,298310,45.2933228,36.4230237
11,Марата,298320,45.3415100,36.4563483
8,Крестьянская улица,298307,45.3486195,36.5984955
15,Крестьянская улица,298307,45.3484246,36.5965954
17,Крестьянская улица,298307,45.3484074,36.5957916
18,Крестьянская улица,298307,45.3484940,36.5955770
29,улица Чапаева,298307,45.3494515,36.5972277
29А,улица Чапаева,298307,45.3492214,36.5965006
3,улица Чапаева,298307,45.3491260,36.5935041
9,улица Чапаева,298307,45.3489831,36.5942952
11,улица Чапаева,298307,45.3489783,36.5945291
13,улица Чапаева,298307,45.3489408,36.5947992
15,улица Чапаева,298307,45.3488921,36.5950586
19А,улица Чапаева,298307,45.3488210,36.5952800
27,улица Чапаева,298307,45.3488231,36.5963540
41,улица Чапаева,298307,45.3489781,36.5982468
37,улица Чапаева,298307,45.3489484,36.5980607
35,улица Чапаева,298307,45.3489283,36.5977843
31,улица Чапаева,298307,45.3490023,36.5969425
6А,переулок Юннатов,298309,45.3002065,36.4326573
52,Пошивальникова вулиця,298318,45.3669867,36.4966728
145,Вокзальне шосе,298303,45.3593791,36.4230632
147,Вокзальне шосе,298303,45.3591407,36.4235184
41А,Вокзальне шосе,298303,45.3588122,36.4498178
20,улица Горького,298318,45.3669827,36.4929080
27,Симферопольская улица,298312,45.3755042,36.4747198
33,Симферопольская улица,298312,45.3757290,36.4739937
31,Симферопольская улица,298312,45.3757181,36.4742146
29,Симферопольская улица,298312,45.3756121,36.4744979
22,Симферопольская улица,298312,45.3759478,36.4745805
20,Симферопольская улица,298312,45.3758191,36.4747531
24,Симферопольская улица,298312,45.3760708,36.4743280
26,Симферопольская улица,298312,45.3761563,36.4741032
18,Симферопольская улица,298312,45.3756926,36.4749937
