House number,Street name,Postal code,Latitude,Longitude
7,Bulevardul Stadionului,120140,45.1505780,26.8011952
51,Strada Bistriței,120212,45.1500136,26.8247947
45,Strada Bistriței,120212,45.1504473,26.8245741
6,Bulevardul Spiru Haret,120242,45.1492561,26.8104413
1,Strada Mesteacănului,120024,45.1601007,26.8291437
123,Strada Unirii,120000,45.1488926,26.8139974
510,Transilvaniei,120164,45.1742867,26.7746989
50,Bulevardul Nicolae Bălcescu,120360,45.1493056,26.8049630
3,Aleea Episcopiei,120024,45.1571510,26.8197930
57,Strada Ion Heliade Rădulescu,120019,45.1549524,26.8109068
Bl. E2,Bulevardul Unirii,120021,45.1434175,26.8105058
Bl. E1,Bulevardul Unirii,120021,45.1432435,26.8103341
15,Strada Spătarului,500183,45.1276472,26.8115320
15,Șoseaua Spătarului,120226,45.1275507,26.8117519
232,Bulevardul Unirii,120021,45.1626397,26.8177908
5,Strada Cuza Vodă,120038,45.1532378,26.8218952
bl. 1 HASDEU,Strada Bistriței,120000,45.1506847,26.8237616
23,Strada Mesteacănului,120024,45.1585029,26.8271259
508B,Strada Transilvaniei,120164,45.1740304,26.7754183
7,Strada Haiducului,120169,45.1638047,26.7858732
39,Strada Martirilor,120138,45.1535736,26.8031177
204,Strada Transilvaniei,120171,45.1606169,26.7983720
F 3,Strada Bazalt,120182,45.1580792,26.7932262
30,Strada Alexandru Marghiloman,120031,45.1537136,26.8273484
28,Strada Alexandru Marghiloman,120031,45.1539886,26.8264618
57,Strada Cuza Vodă,120038,45.1545937,26.8235968
41,Strada Alexandru Marghiloman,120031,45.1537687,26.8281401
"2, Bl. F3, Parter",Strada Cartier Dorobanți 2,120088,45.1527070,26.8403636
441A,Transilvaniei,120168,45.1751826,26.7639922
Bloc B1,Aleea Tradafirilor,120038,45.1526959,26.8196581
18,Bulevardul Nicolae Bălcescu,120251,45.1527572,26.8169415
17,Strada Brăilei,120118,45.1345721,26.8572983
45,Strada Cuza Vodă,120038,45.1542799,26.8232285
42,Bulevardul Gării,120218,45.1437069,26.8255360
232,Bulevardul Unirii,120021,45.1626187,26.8174862
79,Strada Transilvaniei,120012,45.1575182,26.8124638
Bl A8,Strada Crișan,120009,45.1557281,26.8152603
Bl. A7,Strada Crinului,120009,45.1556076,26.8155660
Bl. 16G,Bulevardul Unirii,120021,45.1552047,26.8165255
Bl. 16F,Bulevardul Unirii,120021,45.1549327,26.8165437
Bl. 16E,Bulevardul Unirii,120021,45.1547229,26.8165763
Bl. 16D,Bulevardul Unirii,120021,45.1544837,26.8166238
Bl. A4,Strada Crișan,120009,45.1546684,26.8159033
Bl. A3,Strada Crișan,120009,45.1544811,26.8159251
Bl. A6,Strada Crișan,120009,45.1554020,26.8157529
24,Strada Crișan,120009,45.1551178,26.8161852
26,Strada Crișan,120009,45.1550138,26.8160172
34,Strada Crișan,120009,45.1548438,26.8157094
32,Strada Crișan,120009,45.1549127,26.8158218
30,Strada Crișan,120009,45.1549696,26.8159130
21,Strada Crinului,120009,45.1548026,26.8154480
19,Strada Crinului,120009,45.1549369,26.8153900
17,Strada Crinului,120009,45.1550453,26.8153325
15,Strada Crinului,120009,45.1551931,26.8152931
13,Strada Crinului,120009,45.1553519,26.8152645
2,Strada Dreaptă,120009,45.1545825,26.8150676
4,Strada Dreaptă,120009,45.1545239,26.8149001
24,Strada Crinului,120009,45.1547972,26.8152388
20,Strada Crinului,120009,45.1550873,26.8151268
22,Strada Crinului,120009,45.1549880,26.8151979
22B,Strada Crinului,120009,45.1549464,26.8152247
15B,Strada Renașterii,120012,45.1550940,26.8148720
20,Strada Renașterii,120012,45.1551261,26.8146762
16B,Strada Renașterii,120012,45.1551537,26.8148000
16,Strada Renașterii,120012,45.1551624,26.8148500
14,Strada Renașterii,120012,45.1551833,26.8149491
1,Strada Prosperității,120011,45.1556576,26.8147741
3,Strada Prosperității,120011,45.1555905,26.8146722
5,Strada Prosperității,120011,45.1554741,26.8145997
18,Strada Renașterii,120012,45.1551403,26.8147430
19,Strada Renașterii,120012,45.1550533,26.8146983
17,Strada Renașterii,120012,45.1550652,26.8147991
12,Strada Prosperității,120011,45.1554895,26.8144207
14,Strada Prosperității,120011,45.1554396,26.8143907
16,Strada Prosperității,120011,45.1554125,26.8143703
18,Strada Prosperității,120011,45.1553238,26.8142961
20,Strada Prosperității,120011,45.1552510,26.8142405
22,Strada Prosperității,120011,45.1551636,26.8142411
24,Strada Prosperității,120011,45.1550047,26.8141181
9,Strada Prosperității,120011,45.1552916,26.8144570
7,Strada Prosperității,120011,45.1553461,26.8144906
11,Strada Prosperității,120011,45.1552377,26.8144250
13,Strada Prosperității,120011,45.1551537,26.8143851
13B,Strada Prosperității,120011,45.1550868,26.8143431
15B,Strada Prosperității,120011,45.1550267,26.8143071
15,Strada Prosperității,120011,45.1549827,26.8142770
17,Strada Prosperității,120011,45.1548625,26.8142062
19,Strada Prosperității,120011,45.1547689,26.8141545
26,Strada Prosperității,120011,45.1549181,26.8140319
28,Strada Prosperității,120011,45.1548470,26.8139785
30,Strada Prosperității,120011,45.1547466,26.8139251
32,Strada Prosperității,120011,45.1545570,26.8139706
20,Strada Dreaptă,120009,45.1544203,26.8139943
22,Strada Dreaptă,120009,45.1543674,26.8139291
22A,Strada Dreaptă,120009,45.1543464,26.8138559
24,Strada Dreaptă,120009,45.1542572,26.8137689
26,Strada Dreaptă,120009,45.1541765,26.8136027
32,Strada Dreaptă,120009,45.1539358,26.8132331
30,Strada Dreaptă,120009,45.1539883,26.8132925
28,Strada Dreaptă,120009,45.1540273,26.8133736
17,Strada Dreaptă,120009,45.1539119,26.8134794
15,Strada Dreaptă,120009,45.1539994,26.8136380
13,Strada Dreaptă,120009,45.1540714,26.8137374
11,Strada Dreaptă,120009,45.1541451,26.8138562
9,Strada Dreaptă,120009,45.1541832,26.8139318
7,Strada Dreaptă,120009,45.1542162,26.8140086
5,Strada Dreaptă,120009,45.1542602,26.8141695
3,Strada Dreaptă,120009,45.1543025,26.8142727
1B,Strada Dreaptă,120009,45.1543364,26.8143699
1A,Strada Dreaptă,120009,45.1543880,26.8146012
1,Strada Dreaptă,120009,45.1544256,26.8149571
25,Strada Crinului,120009,45.1543988,26.8152643
11b,Strada Narciselor,120011,45.1543892,26.8155356
11,Strada Narciselor,120011,45.1542790,26.8156561
25B,Strada Crinului,120009,45.1542415,26.8152643
27,Strada Crinului,120009,45.1541446,26.8152566
31,Strada Crinului,120009,45.1539072,26.8153030
29,Strada Crinului,120009,45.1540304,26.8152775
38,Strada Democrației,120018,45.1536485,26.8154228
36,Strada Democrației,120018,45.1536676,26.8156036
Bl. 16B,Bulevardul Unirii,120021,45.1540208,26.8166954
Bl. 16C,Bulevardul Unirii,120021,45.1542452,26.8168191
Bl. 12E,Bulevardul Unirii,120021,45.1533214,26.8170598
Bl. 12D,Bulevardul Unirii,120021,45.1530958,26.8170979
41,Strada Democrației,120018,45.1536591,26.8164854
18,Strada Mioriței,120019,45.1535172,26.8159023
Bl. H2,Bulevardul Unirii,120021,45.1615513,26.8165609
Bl. H3,Bulevardul Unirii,120021,45.1613033,26.8166032
Bl. PTTR 1,Strada Arhitect Petre Antonescu,120187,45.1526838,26.8180915
Bloc 13A,Bulevardul Nicolae Bălcescu,120187,45.1532379,26.8183824
Bl. 13B,Bulevardul Nicolae Bălcescu,120187,45.1531289,26.8179406
Bl. 13C,Bulevardul Unirii,120021,45.1534529,26.8178345
Bl. 13D,Bulevardul Unirii,120021,45.1537208,26.8177594
Bl. 11B,Bulevardul Nicolae Bălcescu,120187,45.1522636,26.8170898
Bl. 11A,Bulevardul Unirii,120021,45.1520692,26.8171567
Bl. 11C,Bulevardul Nicolae Bălcescu,120187,45.1522050,26.8167556
Bl. 11D,Bulevardul Nicolae Bălcescu,120187,45.1520447,26.8163412
Bl. 11E,Strada Panduri,120019,45.1518192,26.8161322
14,Strada Ostrovului,120195,45.1513717,26.8199022
21,Strada Ostrovului,120188,45.1514178,26.8201106
9,Strada Ostrovului,120195,45.1520261,26.8196819
15,Strada Ostrovului,120195,45.1519034,26.8198618
15A,Strada Ostrovului,120195,45.1518365,26.8199132
17,Strada Ostrovului,120195,45.1517891,26.8199567
19,Strada Ostrovului,120195,45.1515576,26.8200377
25,Strada Ostrovului,120188,45.1512006,26.8203086
27,Strada Ostrovului,120188,45.1510933,26.8203580
29,Strada Ostrovului,120188,45.1509678,26.8203798
12,Strada Independenței,120204,45.1508785,26.8204589
8,Strada Independenței,120204,45.1509734,26.8206052
6,Strada Independenței,120204,45.1511170,26.8207495
4,Strada Independenței,120195,45.1512329,26.8208641
16,Strada Ostrovului,120195,45.1510486,26.8200922
16B,Strada Ostrovului,120195,45.1509747,26.8201258
18,Strada Ostrovului,120195,45.1509078,26.8201831
18B,Strada Ostrovului,120195,45.1508102,26.8202425
16,Strada Independenței,120204,45.1506344,26.8202742
14,Strada Independenței,120204,45.1506814,26.8203490
15,Strada Independenței,120204,45.1506203,26.8205652
13,Strada Independenței,120204,45.1507321,26.8207176
7,Strada Independenței,120204,45.1510385,26.8210297
11,Strada Independenței,120204,45.1508692,26.8208880
10,Bulevardul Unirii,120266,45.1408011,26.8071425
12,Bulevardul Unirii,120266,45.1416179,26.8082087
14,Bulevardul Unirii,120266,45.1418052,26.8084045
16,Bulevardul Unirii,120266,45.1419453,26.8085601
8,Strada Carol Davila,120234,45.1417998,26.8100713
6,Strada Carol Davila,120234,45.1418308,26.8099378
4B,Strada Carol Davila,120234,45.1418802,26.8098128
4A,Strada Carol Davila,120234,45.1419303,26.8096344
10,Strada Carol Davila,120234,45.1417431,26.8101848
12,Strada Carol Davila,120234,45.1417241,26.8102552
14,Strada Carol Davila,120234,45.1416935,26.8103766
16,Strada Carol Davila,120234,45.1416618,26.8104875
22,Strada Carol Davila,120234,45.1415094,26.8110150
20A,Strada Carol Davila,120234,45.1415538,26.8108172
18,Strada Carol Davila,120234,45.1416278,26.8105834
20,Strada Carol Davila,120234,45.1415876,26.8106943
1B,Strada Carol Davila,120234,45.1420548,26.8098292
3,Strada Carol Davila,120234,45.1420208,26.8099347
5,Strada Carol Davila,120234,45.1419795,26.8100452
4,Strada Carol Davila,120234,45.1420021,26.8099844
7,Strada Carol Davila,120234,45.1419027,26.8102887
9,Strada Carol Davila,120234,45.1418583,26.8104467
11,Strada Carol Davila,120234,45.1418139,26.8105836
13,Strada Carol Davila,120234,45.1417944,26.8106698
14,Strada Carol Davila,120234,45.1417741,26.8107427
15,Strada Carol Davila,120234,45.1417414,26.8108476
17,Strada Carol Davila,120234,45.1417110,26.8109249
17A,Strada Carol Davila,120234,45.1416947,26.8109989
19,Strada Carol Davila,120234,45.1416371,26.8111558
Bl. 20F,Bulevardul Unirii,120241,45.1451612,26.8094601
Bl. 20E,Bulevardul Unirii,120021,45.1449689,26.8094031
18,Strada Independenței,120204,45.1505324,26.8201233
20,Strada Independenței,120204,45.1504401,26.8200561
17,Strada Independenței,120204,45.1503986,26.8203358
19,Strada Independenței,120204,45.1502894,26.8202194
20,Strada Independenței,120204,45.1502090,26.8201474
21,Strada Independenței,120204,45.1501108,26.8200381
25,Strada Independenței,120204,45.1497354,26.8196505
27,Strada Independenței,120204,45.1495056,26.8194239
2,Strada Pompiliu Ștefu,120204,45.1501048,26.8204916
4,Strada Pompiliu Ștefu,120204,45.1498329,26.8204244
2,Strada Pompiliu Ștefu,120204,45.1499570,26.8204837
3,Strada Pompiliu Ștefu,120204,45.1500469,26.8206445
5,Strada Pompiliu Ștefu,120204,45.1498719,26.8206201
6,Strada Pompiliu Ștefu,120204,45.1495936,26.8203363
7,Strada Pompiliu Ștefu,120204,45.1497260,26.8205855
9,Strada Pompiliu Ștefu,120204,45.1496744,26.8205519
6A,Strada Pompiliu Ștefu,120204,45.1493195,26.8202294
6B,Strada Pompiliu Ștefu,120204,45.1495022,26.8202768
11,Strada Pompiliu Ștefu,120204,45.1494227,26.8204390
11B,Strada Pompiliu Ștefu,120204,45.1492665,26.8203836
8,Strada Pompiliu Ștefu,120204,45.1491960,26.8202075
29,Strada Independenței,120204,45.1494377,26.8193632
31,Strada Independenței,120204,45.1493185,26.8192105
33,Strada Independenței,120204,45.1492358,26.8191242
35,Strada Independenței,120204,45.1490971,26.8189778
10,Strada Pompiliu Ștefu,120204,45.1490239,26.8201638
10B,Strada Pompiliu Ștefu,120204,45.1489326,26.8201529
14,Strada Pompiliu Ștefu,120204,45.1486641,26.8200454
12A,Strada Pompiliu Ștefu,120204,45.1488029,26.8200891
12,Strada Pompiliu Ștefu,120204,45.1488748,26.8201055
37,Strada Independenței,120204,45.1489937,26.8188902
18,Strada Pompiliu Ștefu,120204,45.1484627,26.8199725
20,Strada Pompiliu Ștefu,120204,45.1483332,26.8199296
13,Strada Pompiliu Ștefu,120204,45.1490826,26.8203255
15,Strada Pompiliu Ștefu,120204,45.1489549,26.8202923
17,Strada Pompiliu Ștefu,120204,45.1488785,26.8202592
19,Strada Pompiliu Ștefu,120204,45.1486721,26.8202095
28,Strada Crizantemelor,120203,45.1485817,26.8204039
26,Strada Crizantemelor,120203,45.1486491,26.8206079
18,Strada Crizantemelor,120203,45.1489028,26.8213383
20,Strada Crizantemelor,120203,45.1488374,26.8210654
22,Strada Crizantemelor,120203,45.1487811,26.8209400
24,Strada Crizantemelor,120203,45.1487442,26.8208287
11,Strada Crizantemelor,120203,45.1488749,26.8217210
9,Strada Crizantemelor,120194,45.1489606,26.8220435
21,Strada Pompiliu Ștefu,120204,45.1480494,26.8200270
23,Strada Pompiliu Ștefu,120204,45.1480011,26.8200337
25,Strada Pompiliu Ștefu,120204,45.1479138,26.8200298
27,Strada Pompiliu Ștefu,120204,45.1477268,26.8200762
26,Strada Pompiliu Ștefu,120204,45.1480120,26.8198523
22,Strada Pompiliu Ștefu,120204,45.1482450,26.8199100
28,Strada Pompiliu Ștefu,120204,45.1478846,26.8198111
30,Strada Pompiliu Ștefu,120204,45.1477510,26.8198781
32,Strada Pompiliu Ștefu,120204,45.1476009,26.8199131
34,Strada Pompiliu Ștefu,120204,45.1474694,26.8199831
42,Strada Pompiliu Ștefu,120204,45.1470335,26.8201201
44,Strada Pompiliu Ștefu,120204,45.1467971,26.8201930
42B,Strada Pompiliu Ștefu,120204,45.1469246,26.8201434
38,Strada Pompiliu Ștefu,120204,45.1472556,26.8200443
40,Strada Pompiliu Ștefu,120204,45.1471589,26.8200851
35,Strada Pompiliu Ștefu,120204,45.1471934,26.8202243
37,Strada Pompiliu Ștefu,120204,45.1470337,26.8202735
39,Strada Pompiliu Ștefu,120204,45.1469460,26.8203242
41,Strada Pompiliu Ștefu,120204,45.1468387,26.8203649
43,Strada Pompiliu Ștefu,120204,45.1467463,26.8203968
45,Strada Pompiliu Ștefu,120204,45.1466852,26.8204092
Bl. 24D,Bulevardul 1 Decembrie 1918,120200,45.1426886,26.8105003
Bl. 24B,Bulevardul 1 Decembrie 1918,120200,45.1427133,26.8109346
Bl. 24C,Bulevardul 1 Decembrie 1918,120200,45.1427256,26.8112348
Bl. B13,Bulevardul Unirii,120021,45.1430176,26.8099320
Bl. B14,Bulevardul Unirii,120021,45.1431598,26.8101620
Bl. B16,Bulevardul Unirii,120021,45.1437278,26.8103496
Bl. E3,Bulevardul Unirii,120021,45.1439454,26.8106297
Bl. E4,Bulevardul Unirii,120021,45.1441417,26.8108263
Bl. E7,Bulevardul Unirii,120021,45.1443393,26.8109870
Bl. C1,Bulevardul Unirii,120021,45.1621850,26.8164653
Bl. H1,Bulevardul Unirii,120021,45.1617779,26.8163450
Bl. 27,Bulevardul Unirii,120021,45.1615624,26.8155955
Bl. E1,Bulevardul Unirii,120021,45.1609954,26.8165176
Bl. E2,Bulevardul Unirii,120021,45.1607027,26.8165492
Bl. 26B,Bulevardul Unirii,120021,45.1612882,26.8155488
Bl. 25,Bulevardul Unirii,120021,45.1607389,26.8157109
Bl. 24B,Bulevardul Unirii,120021,45.1604462,26.8156318
Bl. 24A,Bulevardul Unirii,120021,45.1601729,26.8156753
Bl. C2,Bulevardul Unirii,120021,45.1598584,26.8166815
Bl. 23C,Bulevardul Unirii,120021,45.1596996,26.8157957
Bl. 23AB,Bulevardul Unirii,120021,45.1594285,26.8158332
Bl. 22,Bulevardul Unirii,120021,45.1591544,26.8159547
Bl. 21 C,Bulevardul Unirii,120021,45.1588463,26.8159255
Bl. 21 AB,Bulevardul Unirii,120021,45.1585612,26.8159984
Bl. 20,Bulevardul Unirii,120021,45.1583116,26.8160998
Bl. 18B,Strada Obor,120039,45.1564501,26.8167661
Bl. 15A,Strada Obor,120039,45.1556167,26.8175768
Bl. 14J,Bulevardul Unirii,120021,45.1551359,26.8178854
Bl. 14I,Bulevardul Unirii,120021,45.1549486,26.8177160
Bl. 12F,Bulevardul Unirii,120021,45.1535749,26.8167039
Bl. PTTR 2,Strada Arhitect Petre Antonescu,120187,45.1525472,26.8181217
Bl. PTTR - Tr.1,Bulevardul Unirii,120021,45.1523222,26.8179933
Bl. 106,Bulevardul Spiru Haret,120242,45.1435361,26.8074172
Bl. 10,Bulevardul Spiru Haret,120242,45.1433057,26.8080291
Bl. 104,Bulevardul Unirii,120021,45.1429162,26.8085460
Bl. 1,Bulevardul Spiru Haret,120242,45.1433498,26.8087503
Bl. B7,Bulevardul Unirii,120021,45.1432328,26.8089775
Bl. B6,Bulevardul Unirii,120021,45.1434229,26.8090183
Bl. 3,Bulevardul Unirii,120021,45.1436282,26.8089694
Bl. 4,Bulevardul Unirii,120021,45.1437885,26.8093165
Bl. B4,Bulevardul Unirii,120021,45.1440457,26.8096625
Bl. 8,Bulevardul Unirii,120021,45.1444203,26.8099093
Bl. B3,Bulevardul Unirii,120021,45.1446228,26.8102580
Bl. P13,Bulevardul Unirii,120021,45.1446417,26.8105476
Bl. P12,Bulevardul Unirii,120021,45.1448195,26.8107247
Bl. P11,Bulevardul Unirii,120021,45.1453143,26.8112143
Bl. P10,Bulevardul Unirii,120021,45.1454487,26.8113332
Bl. 19A,Strada Ciucurete,120241,45.1450361,26.8103209
Bl. 19B,Strada Ciucurete,120241,45.1451659,26.8102379
Bl. 19C,Strada Ciucurete,120241,45.1452762,26.8099806
Bl. 20A,Bulevardul Unirii,120021,45.1448253,26.8099701
Bl. 20B,Bulevardul Unirii,120021,45.1446664,26.8098199
Bl. 20C,Bulevardul Unirii,120268,45.1447515,26.8096348
Bl. 20D,Bulevardul Unirii,120268,45.1448556,26.8094014
Bl. 22A,Bulevardul Spiru Haret,120242,45.1449615,26.8089428
Bl. 22B,Bulevardul Spiru Haret,120242,45.1447383,26.8088811
Bl. 22C,Bulevardul Spiru Haret,120242,45.1442341,26.8085829
Bl. 2,Bulevardul Spiru Haret,120242,45.1438727,26.8086050
Bl. C3,Bulevardul Unirii,120021,45.1450568,26.8116402
Bl. S3,Bulevardul Unirii,120021,45.1453453,26.8119568
Bl. E10,Bulevardul Unirii,120021,45.1455616,26.8121439
Bl. E9,Bulevardul Unirii,120021,45.1457342,26.8123453
Bl. O3,Bulevardul Unirii,120021,45.1458525,26.8124246
Bl. L2,Bulevardul Unirii,120021,45.1458481,26.8117751
Bl. P6A,Bulevardul Unirii,120021,45.1465992,26.8124953
Bl. P6,Bulevardul Unirii,120021,45.1465028,26.8123960
Bl. P7,Bulevardul Unirii,120021,45.1463836,26.8122860
Bl. P8,Bulevardul Unirii,120021,45.1461812,26.8120581
Bl. P9,Bulevardul Unirii,120021,45.1460260,26.8119025
Bl. C2,Bulevardul Unirii,120021,45.1462276,26.8128118
Bl. 8G,Bulevardul Unirii,120021,45.1509289,26.8176753
Bl. 8F,Bulevardul Unirii,120021,45.1506963,26.8174339
Bl. 8E,Bulevardul Unirii,120021,45.1504808,26.8173468
Bl. 8C,Bulevardul Unirii,120021,45.1502462,26.8172154
Bl. 8D,Bulevardul Unirii,120021,45.1503919,26.8172288
Bl. 8A,Bulevardul Unirii,120021,45.1500514,26.8168560
Bl. 8B,Bulevardul Unirii,120021,45.1501006,26.8170920
Bl. 6A,Bulevardul Unirii,120021,45.1499019,26.8166575
Bl. 6C,Bulevardul Unirii,120021,45.1495879,26.8166092
Bl. 6B,Bulevardul Unirii,120021,45.1497752,26.8166334
Bl. 6D,Bulevardul Unirii,120021,45.1495633,26.8163303
Bl. 6E,Bulevardul Unirii,120021,45.1493606,26.8162348
Bl. O2,Bulevardul Unirii,120021,45.1467814,26.8134869
Bl. E8,Bulevardul Unirii,120021,45.1466187,26.8131758
Bl. S2,Bulevardul Unirii,120021,45.1463255,26.8130846
2,Strada Iazul Morilor,120030,45.1571037,26.8273846
4,Strada Iazul Morilor,120030,45.1570639,26.8275429
6,Strada Iazul Morilor,120030,45.1570006,26.8276974
8,Strada Iazul Morilor,120030,45.1569506,26.8278393
10,Strada Iazul Morilor,120030,45.1568980,26.8279703
12,Strada Iazul Morilor,120030,45.1568134,26.8282034
14,Strada Iazul Morilor,120030,45.1567869,26.8282906
16,Strada Iazul Morilor,120030,45.1567083,26.8284917
25,Strada Tăbăcari,120033,45.1565363,26.8287226
23,Strada Tăbăcari,120033,45.1564811,26.8287081
21,Strada Tăbăcari,120033,45.1562617,26.8286117
19,Strada Tăbăcari,120033,45.1561488,26.8285644
12,Strada Romaniței,120032,45.1563292,26.8279185
11,Strada Romaniței,120032,45.1562625,26.8278985
10,Strada Romaniței,120032,45.1561886,26.8278603
9,Strada Romaniței,120032,45.1561117,26.8278121
8,Strada Romaniței,120032,45.1561207,26.8276465
7,Strada Romaniței,120032,45.1561399,26.8274883
6,Strada Romaniței,120032,45.1561776,26.8273193
5,Strada Romaniței,120032,45.1562084,26.8271210
4,Strada Romaniței,120032,45.1562330,26.8269524
3,Strada Romaniței,120032,45.1562649,26.8267580
2,Strada Romaniței,120032,45.1562811,26.8265948
1,Strada Romaniței,120032,45.1563162,26.8264115
14,Strada Romaniței,120032,45.1564588,26.8276256
13,Strada Romaniței,120032,45.1563869,26.8278275
15,Strada Romaniței,120032,45.1565127,26.8274564
16,Strada Romaniței,120032,45.1565704,26.8273017
17,Strada Romaniței,120032,45.1566293,26.8271271
18,Strada Romaniței,120032,45.1566804,26.8269715
10,Strada Mesteacănului,120031,45.1569921,26.8271793
8A,Strada Mesteacănului,120031,45.1568754,26.8270789
17,Strada Tăbăcari,120033,45.1560600,26.8285232
15,Strada Tăbăcari,120033,45.1558841,26.8284495
11,Strada Tăbăcari,120033,45.1556051,26.8283127
13,Strada Tăbăcari,120033,45.1557195,26.8283771
19,Strada Poet Grigore Alexandrescu,120029,45.1555445,26.8281665
17,Strada Poet Grigore Alexandrescu,120029,45.1555816,26.8277943
15,Strada Poet Grigore Alexandrescu,120029,45.1556138,26.8276092
13,Strada Poet Grigore Alexandrescu,120029,45.1556603,26.8273343
11,Strada Poet Grigore Alexandrescu,120029,45.1556946,26.8271731
9,Strada Poet Grigore Alexandrescu,120029,45.1557522,26.8268991
5,Strada Poet Grigore Alexandrescu,120029,45.1558566,26.8263830
7,Strada Poet Grigore Alexandrescu,120029,45.1557838,26.8266888
8,Strada Mesteacănului,120031,45.1561091,26.8260343
1,Strada Poet Grigore Alexandrescu,120029,45.1559360,26.8259230
3,Strada Poet Grigore Alexandrescu,120029,45.1558670,26.8262114
3,Strada Alexandru Marghiloman,120031,45.1549611,26.8252379
1,Strada Alexandru Marghiloman,120031,45.1550157,26.8251363
5,Strada Alexandru Marghiloman,120031,45.1549097,26.8253218
7,Strada Alexandru Marghiloman,120031,45.1547672,26.8255806
9,Strada Alexandru Marghiloman,120031,45.1546997,26.8257110
11,Strada Alexandru Marghiloman,120031,45.1546878,26.8257566
13,Strada Alexandru Marghiloman,120031,45.1546160,26.8259028
15,Strada Alexandru Marghiloman,120031,45.1545602,26.8260329
2,Strada Alexandru Marghiloman,120031,45.1548212,26.8249305
4B,Strada Alexandru Marghiloman,120031,45.1545649,26.8254924
4,Strada Alexandru Marghiloman,120031,45.1546245,26.8253677
2B,Strada Alexandru Marghiloman,120031,45.1546850,26.8252309
6,Strada Alexandru Marghiloman,120031,45.1545318,26.8255850
8,Strada Alexandru Marghiloman,120031,45.1544864,26.8256815
10,Strada Clemenței,120038,45.1544542,26.8257513
12,Strada Clemenței,120038,45.1544240,26.8258250
14,Strada Clemenței,120038,45.1543530,26.8260101
16,Strada Alexandru Marghiloman,120031,45.1542991,26.8261268
18,Strada Alexandru Marghiloman,120031,45.1542310,26.8262877
20,Strada Alexandru Marghiloman,120031,45.1541743,26.8264097
17,Strada Alexandru Marghiloman,120031,45.1544883,26.8261590
19,Strada Alexandru Marghiloman,120031,45.1544382,26.8262729
21,Strada Alexandru Marghiloman,120031,45.1543682,26.8264366
23,Strada Alexandru Marghiloman,120031,45.1543266,26.8265398
27,Strada Alexandru Marghiloman,120031,45.1542443,26.8267423
25,Strada Alexandru Marghiloman,120031,45.1542878,26.8266364
22,Strada Alexandru Marghiloman,120031,45.1540930,26.8265948
29,Strada Alexandru Marghiloman,120031,45.1542074,26.8269475
31,Strada Alexandru Marghiloman,120031,45.1540911,26.8273177
33,Strada Alexandru Marghiloman,120031,45.1540372,26.8274813
35,Strada Alexandru Marghiloman,120031,45.1540154,26.8276047
24,Strada Alexandru Marghiloman,120031,45.1540448,26.8267453
26,Strada Alexandru Marghiloman,120031,45.1539981,26.8268668
26B,Strada Alexandru Marghiloman,120031,45.1539622,26.8269817
28,Strada Alexandru Marghiloman,120031,45.1539155,26.8271783
34,Strada Alexandru Marghiloman,120031,45.1537317,26.8279139
32,Strada Alexandru Marghiloman,120031,45.1537644,26.8277349
30,Strada Alexandru Marghiloman,120031,45.1537800,26.8275980
37,Strada Alexandru Marghiloman,120031,45.1539863,26.8278230
39,Strada Alexandru Marghiloman,120031,45.1539125,26.8280510
41,Strada Alexandru Marghiloman,120031,45.1538888,26.8282079
43,Strada Alexandru Marghiloman,120031,45.1538264,26.8283474
45,Strada Alexandru Marghiloman,120031,45.1538104,26.8284761
47,Strada Alexandru Marghiloman,120031,45.1537772,26.8285901
49,Strada Alexandru Marghiloman,120031,45.1537555,26.8287041
51,Strada Alexandru Marghiloman,120031,45.1536660,26.8289127
53,Strada Alexandru Marghiloman,120031,45.1536371,26.8290664
36,Strada Alexandru Marghiloman,120031,45.1536644,26.8282328
38,Strada Alexandru Marghiloman,120031,45.1536380,26.8283587
40,Strada Alexandru Marghiloman,120031,45.1536099,26.8284648
42,Strada Alexandru Marghiloman,120031,45.1535772,26.8285708
44,Strada Alexandru Marghiloman,120031,45.1535476,26.8286923
46,Strada Alexandru Marghiloman,120031,45.1535289,26.8287829
48,Strada Alexandru Marghiloman,120031,45.1535211,26.8288514
50,Strada Alexandru Marghiloman,120031,45.1534432,26.8290833
52,Strada Alexandru Marghiloman,120031,45.1533790,26.8292520
56,Strada Alexandru Marghiloman,120031,45.1532594,26.8295715
54,Strada Alexandru Marghiloman,120031,45.1533310,26.8293668
55A,Strada Alexandru Marghiloman,120031,45.1535507,26.8293005
55,Strada Alexandru Marghiloman,120031,45.1534852,26.8294795
57,Strada Alexandru Marghiloman,120031,45.1533958,26.8297277
55B,Strada Alexandru Marghiloman,120031,45.1534545,26.8295963
59,Strada Alexandru Marghiloman,120031,45.1533391,26.8298270
61,Strada Alexandru Marghiloman,120031,45.1532748,26.8299369
63,Strada Alexandru Marghiloman,120031,45.1532180,26.8300496
65,Strada Alexandru Marghiloman,120031,45.1530861,26.8303241
67,Strada Alexandru Marghiloman,120031,45.1530436,26.8304104
69,Strada Alexandru Marghiloman,120031,45.1529908,26.8305488
71,Strada Alexandru Marghiloman,120031,45.1529402,26.8306693
73,Strada Alexandru Marghiloman,120031,45.1528805,26.8307621
73B,Strada Alexandru Marghiloman,120031,45.1528461,26.8308288
75,Strada Alexandru Marghiloman,120031,45.1527542,26.8310357
77,Strada Alexandru Marghiloman,120031,45.1526417,26.8312490
79,Strada Alexandru Marghiloman,120031,45.1525900,26.8313532
81,Strada Alexandru Marghiloman,120031,45.1525326,26.8314509
83,Strada Alexandru Marghiloman,120031,45.1524866,26.8315909
85,Strada Alexandru Marghiloman,120031,45.1524212,26.8317163
87,Strada Alexandru Marghiloman,120031,45.1523764,26.8318498
89,Strada Alexandru Marghiloman,120031,45.1523213,26.8319508
91,Strada Alexandru Marghiloman,120031,45.1522581,26.8320876
58,Strada Alexandru Marghiloman,120031,45.1531745,26.8297444
60B,Strada Alexandru Marghiloman,120031,45.1530999,26.8299056
60,Strada Alexandru Marghiloman,120031,45.1530298,26.8300570
62,Strada Alexandru Marghiloman,120031,45.1529609,26.8301856
64,Strada Alexandru Marghiloman,120031,45.1529115,26.8303029
66,Strada Alexandru Marghiloman,120031,45.1528759,26.8303924
68,Strada Alexandru Marghiloman,120031,45.1528288,26.8304755
68C,Strada Alexandru Marghiloman,120031,45.1527703,26.8305976
70,Strada Alexandru Marghiloman,120031,45.1526910,26.8307165
72,Strada Alexandru Marghiloman,120031,45.1526497,26.8308321
74,Strada Alexandru Marghiloman,120031,45.1525808,26.8309884
78,Strada Alexandru Marghiloman,120031,45.1524086,26.8313141
80,Strada Alexandru Marghiloman,120031,45.1523661,26.8314297
82,Strada Alexandru Marghiloman,120031,45.1522914,26.8315404
84,Strada Alexandru Marghiloman,120107,45.1522225,26.8317065
8,Strada Chiristigii,120024,45.1574506,26.8229460
10,Strada Chiristigii,120024,45.1578536,26.8235116
32,Strada Vișinului,120026,45.1572874,26.8229261
30,Strada Vișinului,120026,45.1571898,26.8230743
26A,Strada Vișinului,120026,45.1571094,26.8232143
28,Strada Vișinului,120026,45.1571473,26.8231427
20C,Strada Vișinului,120026,45.1569819,26.8233837
20A,Strada Vișinului,120026,45.1568395,26.8236589
20,Strada Vișinului,120026,45.1567867,26.8237810
18,Strada Vișinului,120026,45.1567284,26.8238763
16,Strada Vișinului,120026,45.1566434,26.8240293
14,Strada Vișinului,120026,45.1565780,26.8241628
11,Strada Chiristigii,120024,45.1576929,26.8229396
9,Strada Chiristigii,120024,45.1576154,26.8228055
5,Strada Chiristigii,120024,45.1574905,26.8225850
3C,Strada Chiristigii,120024,45.1573366,26.8223750
B,Strada Chiristigii,120024,45.1572370,26.8221915
3A,Strada Chiristigii,120024,45.1574427,26.8219277
1,Strada Chiristigii,120024,45.1571442,26.8219391
3,Strada Chiristigii,120024,45.1570661,26.8216916
Bl. 10,Strada Obor,120039,45.1559315,26.8218776
Bl. 6A,Strada Vișinului,120026,45.1566849,26.8224217
Bl. 2D,Strada Obor,120039,45.1551940,26.8236000
Bl. 2A,Strada Oltețului,120039,45.1551656,26.8227471
Bl. 2B,Strada Oltețului,120039,45.1553245,26.8229375
Bl. 2C,Strada Obor,120039,45.1552942,26.8231709
Bl. 1A,Strada Obor,120039,45.1554805,26.8216330
Bl. 1B,Strada Obor,120039,45.1554540,26.8219603
Bl. 1C,Strada Obor,120039,45.1554237,26.8222660
1,Strada Bistriței,120038,45.1552947,26.8206669
2,Strada Obor,120039,45.1555604,26.8211212
4,Strada Obor,120039,45.1555582,26.8211701
6,Strada Obor,120039,45.1555249,26.8214567
6,Strada Obor,120039,45.1555444,26.8212922
7,Strada Bicaz,120024,45.1570980,26.8248185
3,Strada Bicaz,120024,45.1568891,26.8246003
5,Strada Bicaz,120024,45.1569993,26.8247061
1,Strada Bicaz,120024,45.1567915,26.8244879
9,Strada Bicaz,120024,45.1572056,26.8249240
11,Strada Bicaz,120024,45.1573158,26.8250348
13,Strada Bicaz,120024,45.1574689,26.8251947
15,Strada Bicaz,120024,45.1575160,26.8252631
17,Strada Bicaz,120024,45.1576527,26.8254211
19,Strada Bicaz,120024,45.1578367,26.8256209
14,Strada Chiristigii,120024,45.1584909,26.8243433
12,Strada Chiristigii,120024,45.1584063,26.8242273
18,Aleea Radu cel Mare,120024,45.1582655,26.8244228
9,Aleea Radu cel Mare,120024,45.1577958,26.8250886
7,Aleea Radu cel Mare,120024,45.1579632,26.8248075
5,Aleea Radu cel Mare,120024,45.1580447,26.8247049
3,Aleea Radu cel Mare,120024,45.1581664,26.8245356
2,Strada Mesteacănului,120031,45.1553399,26.8251947
4,Strada Mesteacănului,120031,45.1556568,26.8254259
2A,Strada Mesteacănului,120031,45.1555328,26.8253298
6,Strada Mesteacănului,120031,45.1557636,26.8256083
14,Strada Poet Grigore Alexandrescu,120029,45.1557464,26.8257955
2,Strada Poet Grigore Alexandrescu,120029,45.1557271,26.8262645
4,Strada Poet Grigore Alexandrescu,120029,45.1556797,26.8264750
4A,Strada Poet Grigore Alexandrescu,120029,45.1556475,26.8266462
6,Strada Poet Grigore Alexandrescu,120029,45.1556210,26.8267826
8,Strada Poet Grigore Alexandrescu,120029,45.1555307,26.8271023
10,Strada Poet Grigore Alexandrescu,120029,45.1554835,26.8274430
8B,Strada Poet Grigore Alexandrescu,120029,45.1555213,26.8272928
6B,Strada Poet Grigore Alexandrescu,120029,45.1556007,26.8268958
1,Fundătura Deltei,120030,45.1545692,26.8269943
3,Fundătura Deltei,120030,45.1547337,26.8271498
3B,Fundătura Deltei,120030,45.1548340,26.8272437
5,Fundătura Deltei,120030,45.1549966,26.8274181
7,Fundătura Deltei,120030,45.1550721,26.8274874
9,Fundătura Deltei,120030,45.1551249,26.8275590
2,Fundătura Deltei,120030,45.1545338,26.8271635
2B,Fundătura Deltei,120030,45.1547792,26.8273623
2C,Fundătura Deltei,120030,45.1549390,26.8275380
4,Fundătura Deltei,120030,45.1550011,26.8276147
5,Strada Tăbăcari,120033,45.1547188,26.8280193
3B,Strada Tăbăcari,120033,45.1546822,26.8280012
3,Strada Tăbăcari,120033,45.1545662,26.8279751
1,Strada Tăbăcari,120033,45.1544790,26.8279507
7,Strada Tăbăcari,120033,45.1550249,26.8281180
9,Strada Tăbăcari,120033,45.1551371,26.8281665
9B,Strada Tăbăcari,120033,45.1553037,26.8282558
16B,Strada Poet Grigore Alexandrescu,120029,45.1553680,26.8281451
12,Strada Poet Grigore Alexandrescu,120029,45.1554591,26.8276218
14,Strada Poet Grigore Alexandrescu,120029,45.1554291,26.8278165
16,Strada Poet Grigore Alexandrescu,120029,45.1554144,26.8279430
55,Strada Bucegi,120077,45.1521692,26.8315141
53,Strada Bucegi,120077,45.1521480,26.8313868
1-3,Strada Crizantemelor,120194,45.1494962,26.8235242
7B,Strada Crizantemelor,120194,45.1490858,26.8224312
14B,Strada Crizantemelor,120194,45.1492518,26.8224047
14,Strada Crizantemelor,120194,45.1493221,26.8226136
12,Strada Crizantemelor,120194,45.1493940,26.8228380
5,Strada Crizantemelor,120194,45.1492730,26.8229364
10,Strada Crizantemelor,120194,45.1494533,26.8230145
3A,Strada Crizantemelor,120194,45.1493272,26.8231321
8,Strada Crizantemelor,120194,45.1494821,26.8230973
6,Strada Crizantemelor,120194,45.1495540,26.8233109
16,Strada Crizantemelor,120203,45.1490227,26.8216839
17,Strada Crizantemelor,120203,45.1484286,26.8203850
53,Strada Independenței,120204,45.1480847,26.8179062
41,Strada Independenței,120204,45.1487292,26.8186177
24,Strada Independenței,120204,45.1488275,26.8183431
26,Strada Independenței,120204,45.1490611,26.8187346
28,Strada Independenței,120204,45.1489844,26.8186476
28A,Strada Independenței,120204,45.1489300,26.8185606
30,Strada Independenței,120204,45.1488715,26.8184954
38B,Strada Independenței,120204,45.1481826,26.8177638
38A,Strada Independenței,120204,45.1482737,26.8178826
38,Strada Independenței,120204,45.1483465,26.8179594
36,Strada Independenței,120204,45.1484786,26.8180734
34B,Strada Independenței,120204,45.1485871,26.8182110
34,Fundătura Șoimului,120204,45.1486489,26.8182723
32,Strada Independenței,120204,45.1487454,26.8183755
22,Strada Independenței,120204,45.1500689,26.8196089
39,Strada Independenței,120204,45.1488181,26.8187211
43,Strada Independenței,120204,45.1486075,26.8184788
45,Strada Independenței,120204,45.1485567,26.8184224
47,Strada Independenței,120204,45.1485093,26.8183588
49,Strada Independenței,120204,45.1483629,26.8182183
51,Strada Independenței,120204,45.1482037,26.8180647
29,Strada Păcii,120195,45.1488360,26.8224224
31,Strada Păcii,120195,45.1486499,26.8224849
10,Strada Războieni,120195,45.1483963,26.8233339
8B,Strada Războieni,120195,45.1484485,26.8234433
12,Strada Războieni,120195,45.1483098,26.8231517
14,Strada Războieni,120195,45.1481968,26.8229383
16,Strada Războieni,120195,45.1480674,26.8226945
6B,Strada Războieni,120195,45.1485854,26.8237194
6A,Strada Războieni,120195,45.1486454,26.8238465
4,Strada Războieni,120195,45.1487163,26.8239955
2,Strada Războieni,120195,45.1488230,26.8241822
1,Strada Verii,120209,45.1533537,26.8281826
3,Strada Verii,120209,45.1531918,26.8281826
5,Strada Verii,120209,45.1531034,26.8281973
7,Strada Verii,120209,45.1529989,26.8281940
9,Strada Verii,120209,45.1529311,26.8282070
11,Strada Verii,120209,45.1528065,26.8282462
13,Strada Verii,120209,45.1526251,26.8283032
13B,Strada Verii,120209,45.1525056,26.8283353
15,Strada Verii,120209,45.1524370,26.8283437
17,Strada Verii,120209,45.1523715,26.8283565
19,Strada Verii,120209,45.1523206,26.8283704
19A,Strada Verii,120209,45.1522209,26.8284040
19,Strada Verii,120209,45.1521477,26.8284198
19C,Strada Verii,120209,45.1520612,26.8284435
23,Strada Verii,120209,45.1518915,26.8285233
25,Strada Verii,120209,45.1517467,26.8285580
4,Strada Verii,120209,45.1530990,26.8280101
4B,Strada Verii,120209,45.1530151,26.8280182
6,Strada Verii,120209,45.1527993,26.8280606
8,Strada Verii,120209,45.1526603,26.8281045
8,Strada Verii,120209,45.1524467,26.8281566
10,Strada Verii,120209,45.1523375,26.8281982
12,Strada Verii,120209,45.1522594,26.8282194
14,Strada Verii,120209,45.1521847,26.8282406
25,Strada Bucegi,120208,45.1516944,26.8283301
23,Strada Bucegi,120208,45.1516691,26.8281150
21,Strada Bucegi,120208,45.1516433,26.8278412
Bl. 15B,Strada Bucegi,120077,45.1516385,26.8269728
17,Strada Bucegi,120208,45.1516155,26.8274515
21,Strada Bucegi,120208,45.1516362,26.8277381
17,Strada Bucegi,120208,45.1516258,26.8276306
10,Strada Speranței,120209,45.1527892,26.8269107
4,Strada Speranței,120209,45.1527699,26.8265432
6,Strada Speranței,120209,45.1527157,26.8267026
27,Strada Bucegi,120208,45.1517599,26.8287880
29,Strada Bucegi,120208,45.1517869,26.8289444
1,Strada Gheorghe Lazăr,120208,45.1519562,26.8290845
1B,Strada Gheorghe Lazăr,120208,45.1520582,26.8291017
3,Strada Gheorghe Lazăr,120208,45.1521668,26.8291872
12,Strada Gheorghe Lazăr,120208,45.1526442,26.8296407
11,Strada Gheorghe Lazăr,120208,45.1525729,26.8295485
9,Strada Gheorghe Lazăr,120208,45.1524396,26.8294104
5,Strada Gheorghe Lazăr,120208,45.1522665,26.8292598
7,Strada Gheorghe Lazăr,120208,45.1523880,26.8293581
51,Strada Bucegi,120077,45.1521103,26.8311719
45,Strada Bucegi,120077,45.1520036,26.8304132
47,Strada Bucegi,120077,45.1520168,26.8305822
49,Strada Bucegi,120077,45.1520394,26.8306971
51,Strada Bucegi,120077,45.1520753,26.8309577
43,Strada Bucegi,120077,45.1519924,26.8303199
39,Strada Bucegi,120077,45.1519530,26.8299930
41,Strada Bucegi,120077,45.1519631,26.8301090
35,Strada Bucegi,120077,45.1519001,26.8296805
37,Strada Bucegi,120077,45.1519454,26.8298232
33,Strada Bucegi,120208,45.1518584,26.8294031
31,Strada Bucegi,120208,45.1518505,26.8292626
2,Strada Gheorghe Lazăr,120208,45.1518879,26.8291446
2B,Strada Gheorghe Lazăr,120208,45.1521035,26.8293042
4,Strada Gheorghe Lazăr,120208,45.1521995,26.8293558
8,Strada Gheorghe Lazăr,120208,45.1523905,26.8295121
10,Strada Gheorghe Lazăr,120208,45.1525913,26.8296755
Bl. L6,Strada Iazul Morilor,120030,45.1533507,26.8309223
Bl. L5,Strada Iazul Morilor,120030,45.1535436,26.8307587
Bl. L4,Strada Iazul Morilor,120030,45.1536580,26.8305766
Bl. L3,Strada Iazul Morilor,120030,45.1538717,26.8303621
Bl. L2,Strada Iazul Morilor,120030,45.1539644,26.8302414
2A,Strada Broșteni,120029,45.1537996,26.8297529
2,Strada Broșteni,120029,45.1537278,26.8296037
1B,Strada Broșteni,120029,45.1537856,26.8294357
Bl. M12,Strada Broșteni,120029,45.1542210,26.8301988
Bl. M11,Strada Iazul Morilor,120030,45.1544196,26.8300669
Bl. M6,Strada Iazul Morilor,120030,45.1554289,26.8296427
Bl. M7,Strada Iazul Morilor,120030,45.1551704,26.8297719
Bl. M8,Strada Iazul Morilor,120030,45.1550145,26.8298483
Bl. M9,Strada Iazul Morilor,120030,45.1548618,26.8299056
Bl. M10,Strada Iazul Morilor,120030,45.1546900,26.8299755
30,Strada Tăbăcari,120033,45.1558522,26.8288920
28,Strada Tăbăcari,120033,45.1556964,26.8286237
26,Strada Tăbăcari,120033,45.1555584,26.8285436
24,Strada Tăbăcari,120033,45.1554391,26.8284881
22,Strada Tăbăcari,120033,45.1553455,26.8284172
20,Strada Tăbăcari,120033,45.1552186,26.8283828
20A,Strada Tăbăcari,120033,45.1550937,26.8283579
18,Strada Tăbăcari,120033,45.1550103,26.8282697
6,Fundătura Agrișelor,120029,45.1552142,26.8294226
2,Fundătura Agrișelor,120029,45.1550546,26.8290846
4,Fundătura Agrișelor,120029,45.1551029,26.8291741
16B,Strada Tăbăcari,120033,45.1549366,26.8282439
16,Strada Tăbăcari,120033,45.1548808,26.8282303
5,Strada Broșteni,120029,45.1540330,26.8299258
7,Strada Broșteni,120029,45.1540874,26.8300378
3,Strada Broșteni,120029,45.1539559,26.8297573
18,Fundătura Agrișelor,120029,45.1549157,26.8289096
1B,Strada Tăbăcari,120033,45.1543273,26.8279322
2,Strada Tăbăcari,120033,45.1543030,26.8280729
4,Strada Tăbăcari,120033,45.1543816,26.8280802
6,Strada Tăbăcari,120033,45.1545190,26.8281129
10,Strada Tăbăcari,120033,45.1546056,26.8281293
10,Strada Tăbăcari,120033,45.1546646,26.8281302
12,Strada Tăbăcari,120033,45.1547301,26.8281439
14,Strada Tăbăcari,120033,45.1548391,26.8282085
20B,Strada Bucegi,120208,45.1515962,26.8286561
22,Strada Bucegi,120077,45.1516250,26.8289091
22B,Strada Bucegi,120077,45.1516858,26.8292857
20,Strada Bucegi,120208,45.1515498,26.8282021
20,Strada Bucegi,120208,45.1515210,26.8279348
20,Strada Bucegi,120208,45.1515009,26.8277158
18,Strada Bucegi,120208,45.1514829,26.8275648
18A,Strada Bucegi,120208,45.1514688,26.8274593
16,Strada Bucegi,120208,45.1514560,26.8273010
14B,Strada Bucegi,120208,45.1514354,26.8272064
10,Strada Bucegi,120208,45.1513687,26.8267043
12,Strada Bucegi,120208,45.1514162,26.8270008
14,Strada Bucegi,120208,45.1514264,26.8270973
8B,Fundătura Virtuții,120209,45.1508231,26.8272371
8A,Fundătura Virtuții,120209,45.1508983,26.8274463
8,Fundătura Virtuții,120209,45.1509206,26.8275892
6,Fundătura Virtuții,120209,45.1509447,26.8277105
10,Fundătura Virtuții,120209,45.1507516,26.8270570
7,Fundătura Virtuții,120209,45.1507244,26.8271266
5,Fundătura Virtuții,120209,45.1505943,26.8271874
3,Fundătura Virtuții,120209,45.1506231,26.8273265
86,Strada Alexandru Marghiloman,120107,45.1520894,26.8319881
93,Strada Alexandru Marghiloman,120107,45.1521159,26.8323308
95,Strada Alexandru Marghiloman,120107,45.1520429,26.8324246
97,Strada Alexandru Marghiloman,120107,45.1519481,26.8325323
99,Strada Alexandru Marghiloman,120107,45.1518763,26.8326351
103,Strada Alexandru Marghiloman,120107,45.1517357,26.8328365
101,Strada Alexandru Marghiloman,120107,45.1518052,26.8327389
105,Strada Alexandru Marghiloman,120107,45.1516778,26.8329526
107,Strada Alexandru Marghiloman,120107,45.1516108,26.8330342
111,Strada Alexandru Marghiloman,120107,45.1514299,26.8332554
109B,Strada Alexandru Marghiloman,120107,45.1515125,26.8331583
109,Strada Alexandru Marghiloman,120107,45.1515808,26.8330817
100,Strada Alexandru Marghiloman,120107,45.1512362,26.8331775
98,Strada Alexandru Marghiloman,120107,45.1513010,26.8330718
2,Strada Parâng,120208,45.1510315,26.8330224
2A,Strada Parâng,120208,45.1509295,26.8329258
1,Strada Gârlași,120077,45.1515782,26.8335976
3,Strada Gârlași,120077,45.1516706,26.8337422
5,Strada Gârlași,120077,45.1517546,26.8338305
7,Strada Gârlași,120077,45.1519772,26.8342041
11,Strada Gârlași,120077,45.1522101,26.8344297
9,Strada Gârlași,120077,45.1520593,26.8342768
11A,Strada Gârlași,120077,45.1521305,26.8343423
13,Strada Gârlași,120077,45.1523249,26.8345425
15A,Strada Gârlași,120077,45.1524228,26.8346412
94,Strada Alexandru Marghiloman,120107,45.1514585,26.8326965
92,Strada Alexandru Marghiloman,120107,45.1517279,26.8324871
90B,Strada Alexandru Marghiloman,120107,45.1518714,26.8323111
90,Strada Alexandru Marghiloman,120107,45.1519153,26.8322859
86B,Strada Alexandru Marghiloman,120107,45.1520447,26.8320598
88,Strada Alexandru Marghiloman,120107,45.1519902,26.8321699
1,Strada Victoriei,120209,45.1493467,26.8259773
41,Strada Bistriței,120212,45.1508450,26.8243255
39,Strada Bistriței,120212,45.1511179,26.8241173
37,Strada Bistriței,120212,45.1511907,26.8240570
40,Strada Bistriței,120212,45.1510641,26.8237988
30-32,Strada Bistriței,120212,45.1512312,26.8237010
35,Strada Bistriței,120212,45.1513933,26.8238795
26,Strada Bistriței,120212,45.1515361,26.8234436
24,Strada Bistriței,120212,45.1516429,26.8233350
1,Strada Bucegi,120208,45.1517333,26.8241086
33,Strada Bistriței,120212,45.1517309,26.8235992
Bl. 3C,Strada Ion Băieșu,120037,45.1517994,26.8222451
Bl. 3B,Strada Ion Băieșu,120037,45.1518306,26.8225079
Bl. 3A HASDEU,Strada Bistriței,120037,45.1518508,26.8228835
Bl. 3A,Strada Ion Băieșu,120037,45.1518503,26.8228111
31,Strada Bistriței,120212,45.1522216,26.8232300
Bl. 3 Sporul,Strada Bistriței,120038,45.1503244,26.8240917
45,Strada Bistriței,120212,45.1505599,26.8244645
47,Strada Bistriței,120212,45.1502619,26.8245962
51,Strada Bistriței,120212,45.1500638,26.8247013
53,Strada Bistriței,120212,45.1494407,26.8249283
33,Strada Păcii,120195,45.1483841,26.8225359
33B,Strada Păcii,120195,45.1482773,26.8225717
35,Strada Păcii,120195,45.1481407,26.8226132
40,Strada Păcii,120195,45.1481885,26.8224192
38,Strada Păcii,120195,45.1482846,26.8223878
36,Strada Păcii,120195,45.1483550,26.8223773
34,Strada Păcii,120195,45.1484639,26.8223527
32,Strada Păcii,120195,45.1485707,26.8223022
30,Strada Păcii,120195,45.1486947,26.8222843
28,Strada Păcii,120195,45.1488164,26.8222658
1A,Fundătura Slănic,120195,45.1476106,26.8211393
2,Fundătura Slănic,120195,45.1476065,26.8212418
3,Fundătura Slănic,120195,45.1475593,26.8213462
3B,Fundătura Slănic,120195,45.1475110,26.8214101
1,Fundătura Slănic,120195,45.1476429,26.8213424
18,Strada Războieni,120195,45.1479699,26.8223542
22,Strada Războieni,120195,45.1478153,26.8222432
20,Strada Războieni,120195,45.1478627,26.8222960
24,Strada Războieni,120195,45.1477460,26.8221677
26,Strada Războieni,120195,45.1476606,26.8221313
30,Strada Războieni,120195,45.1475246,26.8220422
28,Strada Războieni,120195,45.1475663,26.8220613
36,Strada Războieni,120195,45.1470758,26.8217189
34,Strada Războieni,120195,45.1471475,26.8217770
32,Strada Războieni,120195,45.1472758,26.8218686
38,Strada Războieni,120195,45.1468949,26.8215615
40,Strada Războieni,120195,45.1468499,26.8215288
42,Strada Războieni,120195,45.1466960,26.8214296
44,Strada Războieni,120195,45.1465781,26.8213240
42B,Strada Războieni,120195,45.1466154,26.8213594
46,Strada Războieni,120195,45.1464645,26.8212368
39,Strada Războieni,120195,45.1462045,26.8212818
37,Strada Războieni,120195,45.1463489,26.8213761
35,Strada Războieni,120195,45.1464161,26.8214477
33,Strada Războieni,120195,45.1465068,26.8214991
31,Strada Războieni,120195,45.1465734,26.8215786
29,Strada Războieni,120195,45.1466496,26.8216127
27,Strada Războieni,120195,45.1467493,26.8216807
25,Strada Războieni,120195,45.1469076,26.8218006
23,Strada Războieni,120195,45.1471020,26.8219535
21,Strada Războieni,120195,45.1471867,26.8220228
42B,Strada Păcii,120195,45.1472689,26.8226404
40B,Strada Păcii,120195,45.1473595,26.8226122
40B,Strada Păcii,120195,45.1474277,26.8226068
17,Strada Războieni,120195,45.1475659,26.8223199
19,Strada Războieni,120195,45.1474017,26.8222076
1,Strada Războieni,120195,45.1486782,26.8242474
1B,Strada Războieni,120195,45.1486587,26.8241964
3,Strada Războieni,120195,45.1486344,26.8241133
5,Strada Războieni,120195,45.1485742,26.8240301
5A,Strada Războieni,120195,45.1484790,26.8238271
5B,Strada Războieni,120195,45.1483234,26.8235310
5,Strada Războieni,120195,45.1482749,26.8234113
7,Strada Războieni,120195,45.1482037,26.8232571
9,Strada Războieni,120195,45.1481267,26.8231071
11,Strada Războieni,120195,45.1480541,26.8229556
13,Strada Războieni,120195,45.1479966,26.8228354
15,Strada Războieni,120195,45.1479382,26.8227184
39B,Strada Păcii,120195,45.1475663,26.8227516
41,Strada Păcii,120195,45.1474743,26.8227812
43,Strada Păcii,120195,45.1473892,26.8228129
39,Strada Păcii,120195,45.1476643,26.8227263
18,Bulevardul Gării,120218,45.1458781,26.8250909
20,Bulevardul Gării,120218,45.1456459,26.8251206
27,Strada Plevnei,120218,45.1455030,26.8250504
25,Strada Plevnei,120218,45.1453635,26.8249031
75,Strada Păcii,120195,45.1453831,26.8247123
73,Strada Păcii,120195,45.1454646,26.8245790
71,Strada Păcii,120195,45.1455535,26.8244522
73B,Strada Păcii,120195,45.1454991,26.8245639
71B,Strada Păcii,120195,45.1455332,26.8245095
69A,Strada Păcii,120195,45.1457344,26.8242273
69B,Strada Păcii,120195,45.1456477,26.8243705
69,Strada Păcii,120195,45.1458365,26.8240487
69B,Strada Păcii,120195,45.1459334,26.8239383
16B,Bulevardul Gării,120218,45.1460071,26.8250408
16,Bulevardul Gării,120218,45.1461084,26.8250188
14,Bulevardul Gării,120218,45.1463118,26.8249945
10,Bulevardul Gării,120218,45.1467263,26.8249381
12,Bulevardul Gării,120218,45.1465184,26.8249472
8,Bulevardul Gării,120218,45.1471715,26.8248035
2,Bulevardul Gării,120218,45.1481121,26.8245069
4-6,Bulevardul Gării,120218,45.1478734,26.8246379
4-6,Bulevardul Gării,120218,45.1476810,26.8246816
67B,Strada Păcii,120195,45.1460005,26.8238431
67,Strada Păcii,120195,45.1460905,26.8237185
65,Strada Păcii,120195,45.1462082,26.8235319
63B,Strada Păcii,120195,45.1464113,26.8237373
63B,Strada Păcii,120195,45.1463093,26.8233938
61,Strada Păcii,120195,45.1463717,26.8233070
59,Strada Păcii,120195,45.1464153,26.8232485
57,Strada Păcii,120195,45.1464753,26.8231932
55,Strada Păcii,120195,45.1466635,26.8230177
55A,Strada Păcii,120195,45.1465872,26.8230575
55B,Strada Păcii,120195,45.1465396,26.8231017
53,Strada Păcii,120195,45.1467788,26.8229835
51,Strada Păcii,120195,45.1468931,26.8229234
49,Strada Păcii,120195,45.1470739,26.8228969
47,Strada Păcii,120195,45.1471542,26.8228711
45,Strada Păcii,120195,45.1472681,26.8228525
78B,Strada Păcii,120195,45.1452279,26.8246465
78A,Strada Păcii,120195,45.1452253,26.8245137
76,Strada Păcii,120195,45.1455474,26.8241480
78B,Strada Păcii,120195,45.1453973,26.8244082
78,Strada Păcii,120195,45.1453370,26.8245228
78C,Strada Păcii,120195,45.1451817,26.8243736
74,Strada Păcii,120195,45.1457265,26.8239445
74B,Strada Păcii,120195,45.1456206,26.8240646
72,Strada Păcii,120195,45.1458423,26.8237621
72B,Strada Păcii,120195,45.1458165,26.8238030
70,Strada Păcii,120195,45.1459420,26.8236362
68,Strada Păcii,120195,45.1460214,26.8235257
68B,Strada Păcii,120195,45.1459872,26.8235710
66,Strada Păcii,120195,45.1460883,26.8234307
64,Strada Păcii,120195,45.1461778,26.8233189
60,Strada Păcii,120195,45.1462881,26.8231770
62,Strada Păcii,120195,45.1462394,26.8232541
32,Strada Mărăști,120194,45.1460575,26.8227544
30,Strada Mărăști,120194,45.1458322,26.8226387
28,Strada Mărăști,120194,45.1456659,26.8225624
26,Strada Mărăști,120194,45.1455404,26.8225157
42,Strada Păcii,120195,45.1471828,26.8226735
44,Strada Păcii,120195,45.1470573,26.8227130
46,Strada Păcii,120195,45.1469675,26.8227275
48,Strada Păcii,120195,45.1468107,26.8227545
50,Strada Păcii,120195,45.1466665,26.8227954
52,Strada Păcii,120195,45.1465870,26.8228300
54,Strada Păcii,120195,45.1465488,26.8228772
56,Strada Păcii,120195,45.1464875,26.8229324
58,Strada Păcii,120195,45.1464382,26.8229844
43,Strada Mărăști,120194,45.1460304,26.8226328
45,Strada Mărăști,120194,45.1460811,26.8226646
47,Strada Mărăști,120194,45.1461382,26.8226974
49,Strada Mărăști,120194,45.1462486,26.8228257
39,Strada Mărăști,120194,45.1458964,26.8225548
37A,Strada Mărăști,120194,45.1458317,26.8225178
35,Strada Mărăști,120194,45.1457144,26.8224579
37,Strada Mărăști,120194,45.1457747,26.8224908
8,Bulevardul Spiru Haret,120265,45.1468235,26.8091332
1,Bulevardul Unirii,120266,45.1394268,26.8002973
3,Bulevardul Unirii,120266,45.1393380,26.8015737
2E,Bulevardul Unirii,120266,45.1394948,26.8026780
4,Bulevardul Unirii,120266,45.1397117,26.8040516
3,Bulevardul Unirii,120266,45.1393947,26.8035003
8,Bulevardul Unirii,120266,45.1406945,26.8062886
5A,Bulevardul Unirii,120266,45.1394177,26.8045619
5B,Bulevardul Unirii,120266,45.1394387,26.8049629
10,Strada Parâng,120208,45.1505092,26.8323774
8,Strada Parâng,120208,45.1505322,26.8325497
6,Strada Parâng,120208,45.1505731,26.8326050
4,Strada Parâng,120208,45.1506596,26.8326978
2C,Strada Parâng,120208,45.1507426,26.8327712
2D,Strada Parâng,120208,45.1508330,26.8328406
12,Strada Parâng,120208,45.1504716,26.8320416
16,Strada Parâng,120208,45.1504688,26.8319461
16,Strada Parâng,120208,45.1504472,26.8317140
36,Strada Parâng,120208,45.1502835,26.8302372
34,Strada Parâng,120208,45.1503059,26.8305164
2,Aleea Parâng,120208,45.1504746,26.8304959
1A,Strada Pictor Adina-Paula Moscu,120208,45.1505973,26.8301617
1,Aleea Parâng,120208,45.1504789,26.8303716
1B,Strada Pictor Adina-Paula Moscu,120208,45.1505687,26.8299072
1C,Strada Pictor Adina-Paula Moscu,120208,45.1506224,26.8300337
7,Aleea General Ion Jitianu,120209,45.1508963,26.8300195
5,Aleea General Ion Jitianu,120209,45.1510259,26.8299411
4,Aleea General Ion Jitianu,120209,45.1510936,26.8298484
6,Aleea General Ion Jitianu,120209,45.1509145,26.8300645
5,Strada Pictor Adina-Paula Moscu,120208,45.1507751,26.8303168
7,Strada Pictor Adina-Paula Moscu,120208,45.1508388,26.8304378
9,Strada Pictor Adina-Paula Moscu,120208,45.1509303,26.8306103
11,Strada Pictor Adina-Paula Moscu,120208,45.1509867,26.8307438
13,Strada Pictor Adina-Paula Moscu,120208,45.1510226,26.8309328
15,Strada Pictor Adina-Paula Moscu,120208,45.1510539,26.8311890
17,Strada Pictor Adina-Paula Moscu,120208,45.1510781,26.8315999
16,Strada Pictor Adina-Paula Moscu,120208,45.1510204,26.8316087
8,Strada Pictor Adina-Paula Moscu,120208,45.1509007,26.8307384
10,Strada Pictor Adina-Paula Moscu,120208,45.1509348,26.8309745
12,Strada Pictor Adina-Paula Moscu,120208,45.1509672,26.8311788
14,Strada Pictor Adina-Paula Moscu,120208,45.1509828,26.8313511
6,Strada Pictor Adina-Paula Moscu,120208,45.1507945,26.8305452
4,Aleea Parâng,120208,45.1505760,26.8304955
32,Strada Parâng,120208,45.1503267,26.8308417
30,Strada Parâng,120208,45.1503494,26.8309564
26,Strada Parâng,120208,45.1503598,26.8310482
26,Strada Parâng,120208,45.1503906,26.8311715
18,Strada Parâng,120208,45.1504465,26.8316529
20,Strada Parâng,120208,45.1504418,26.8315610
22,Strada Parâng,120208,45.1504177,26.8313870
24,Strada Parâng,120208,45.1504241,26.8313059
15D,Strada Sculpturii,120209,45.1502935,26.8299910
15E,Strada Sculpturii,120209,45.1502863,26.8301458
15,Strada Sculpturii,120209,45.1502453,26.8298134
15A,Strada Sculpturii,120209,45.1502732,26.8294467
15B,Strada Sculpturii,120209,45.1502360,26.8296201
13,Strada Sculpturii,120209,45.1503330,26.8292622
11,Aleea General Ion Jitianu,120209,45.1505047,26.8289726
13,Strada Sculpturii,120209,45.1503713,26.8291720
15,Strada Sculpturii,120209,45.1504632,26.8295481
56,Strada Plevnei,120208,45.1479892,26.8275167
1,Aleea General Ion Jitianu,120209,45.1507387,26.8292197
1B,Aleea General Ion Jitianu,120209,45.1508112,26.8293589
3,Aleea General Ion Jitianu,120209,45.1509561,26.8296344
9,Aleea General Ion Jitianu,120209,45.1505362,26.8288504
9,Strada Sculpturii,120209,45.1506444,26.8287263
7,Strada Sculpturii,120209,45.1507069,26.8286330
3,Strada Sculpturii,120209,45.1507705,26.8285343
1B,Strada Sculpturii,120209,45.1509219,26.8284584
1,Strada Sculpturii,120209,45.1510096,26.8284626
24,Strada Bucegi,120077,45.1517154,26.8294360
24B,Strada Bucegi,120077,45.1517296,26.8295245
24A,Strada Bucegi,120077,45.1517511,26.8297069
26,Strada Bucegi,120077,45.1517736,26.8298685
28,Aleea Sculpturii,120209,45.1514326,26.8302050
28,Aleea Sculpturii,120209,45.1513554,26.8303685
28,Strada Bucegi,120077,45.1518068,26.8300727
28,Strada Bucegi,120077,45.1518687,26.8304526
32,Strada Bucegi,120077,45.1518844,26.8306594
32,Strada Bucegi,120077,45.1519103,26.8307870
34,Strada Bucegi,120077,45.1519306,26.8309217
36,Strada Bucegi,120077,45.1519625,26.8311426
38,Strada Bucegi,120077,45.1519840,26.8312221
40,Strada Bucegi,120077,45.1520057,26.8314570
42,Strada Bucegi,120077,45.1520298,26.8316116
44,Strada Bucegi,120077,45.1520485,26.8317353
113,Strada Alexandru Marghiloman,120107,45.1512407,26.8334866
115,Strada Alexandru Marghiloman,120107,45.1510835,26.8336442
117,Strada Alexandru Marghiloman,120107,45.1509709,26.8337907
119,Strada Alexandru Marghiloman,120107,45.1508730,26.8339251
121,Strada Alexandru Marghiloman,120107,45.1508264,26.8339808
123,Strada Alexandru Marghiloman,120107,45.1507602,26.8340840
125,Strada Alexandru Marghiloman,120107,45.1506895,26.8341475
127,Strada Alexandru Marghiloman,120107,45.1506075,26.8342694
129,Strada Alexandru Marghiloman,120107,45.1505253,26.8343595
131,Strada Alexandru Marghiloman,120107,45.1504554,26.8344391
133,Strada Alexandru Marghiloman,120107,45.1504052,26.8345075
135,Strada Alexandru Marghiloman,120107,45.1503182,26.8346087
135B,Strada Alexandru Marghiloman,120107,45.1502345,26.8346966
137,Strada Alexandru Marghiloman,120107,45.1501912,26.8347484
139,Strada Alexandru Marghiloman,120107,45.1500970,26.8348974
Bl. D4,Strada Gârlași,120077,45.1533349,26.8394938
Bl. D5,Strada Gârlași,120077,45.1533726,26.8397843
Bl. D6,Strada Gârlași,120077,45.1533082,26.8400652
102,Strada Alexandru Marghiloman,120107,45.1510391,26.8334132
102A,Strada Alexandru Marghiloman,120107,45.1509609,26.8332715
104,Strada Alexandru Marghiloman,120107,45.1509764,26.8335075
106,Strada Alexandru Marghiloman,120107,45.1508999,26.8336051
108,Strada Alexandru Marghiloman,120107,45.1508000,26.8337203
110,Strada Alexandru Marghiloman,120107,45.1507000,26.8338140
112,Strada Alexandru Marghiloman,120107,45.1506412,26.8339066
114,Strada Alexandru Marghiloman,120107,45.1505812,26.8339652
116,Strada Alexandru Marghiloman,120107,45.1505043,26.8340691
118,Strada Alexandru Marghiloman,120107,45.1504429,26.8341424
120,Strada Alexandru Marghiloman,120107,45.1503769,26.8342428
122,Strada Alexandru Marghiloman,120107,45.1502986,26.8343278
124,Strada Alexandru Marghiloman,120107,45.1501947,26.8344542
130,Strada Alexandru Marghiloman,120107,45.1499406,26.8347071
126,Strada Alexandru Marghiloman,120107,45.1501087,26.8345762
128,Strada Alexandru Marghiloman,120107,45.1500378,26.8346358
134,Strada Alexandru Marghiloman,120107,45.1496890,26.8350627
1,Strada Soarelui,120094,45.1494692,26.8344624
3,Strada Soarelui,120094,45.1494037,26.8343978
5,Strada Soarelui,120094,45.1492376,26.8343252
5A,Strada Soarelui,120094,45.1491768,26.8343483
7,Strada Soarelui,120094,45.1490888,26.8343555
9,Strada Soarelui,120094,45.1488961,26.8343181
61,Strada Victoriei,120094,45.1484382,26.8342585
63,Strada Victoriei,120094,45.1484506,26.8344380
65,Strada Victoriei,120094,45.1484705,26.8346181
67,Strada Victoriei,120094,45.1484876,26.8348541
69,Strada Victoriei,120094,45.1485099,26.8350735
71,Strada Victoriei,120094,45.1485194,26.8352068
71B,Strada Victoriei,120094,45.1485268,26.8353588
73,Strada Victoriei,120094,45.1486342,26.8362371
2A,Strada Soarelui,120094,45.1496889,26.8346466
2,Strada Soarelui,120094,45.1496171,26.8344719
4,Strada Soarelui,120094,45.1495388,26.8343382
6,Strada Soarelui,120094,45.1494790,26.8342577
6B,Strada Soarelui,120094,45.1494402,26.8342211
8,Strada Soarelui,120094,45.1494036,26.8342075
10,Strada Soarelui,120094,45.1493253,26.8341929
12,Strada Soarelui,120094,45.1491709,26.8341606
14,Strada Soarelui,120094,45.1490487,26.8341540
18,Strada Soarelui,120094,45.1489103,26.8341404
16,Strada Soarelui,120094,45.1489746,26.8341404
22,Strada Soarelui,120094,45.1487828,26.8341328
20,Strada Soarelui,120094,45.1488560,26.8341339
24,Strada Soarelui,120094,45.1487234,26.8341223
26,Strada Soarelui,120094,45.1486517,26.8341118
28,Strada Soarelui,120094,45.1485297,26.8340933
59B,Strada Victoriei,120094,45.1484312,26.8340795
59,Strada Victoriei,120094,45.1484205,26.8339499
57,Strada Victoriei,120094,45.1484147,26.8337715
55,Strada Victoriei,120094,45.1484048,26.8335632
51,Strada Victoriei,120094,45.1483839,26.8333252
53,Strada Victoriei,120094,45.1483996,26.8334106
49,Strada Victoriei,120094,45.1483961,26.8331711
47,Strada Victoriei,120094,45.1483876,26.8330562
45B,Strada Victoriei,120094,45.1483867,26.8328107
45,Strada Victoriei,120094,45.1483687,26.8326861
43,Strada Victoriei,120209,45.1483866,26.8325524
41,Strada Victoriei,120209,45.1483485,26.8322332
42,Strada Sculpturii,120209,45.1485982,26.8321927
40,Strada Sculpturii,120209,45.1487079,26.8321372
38,Strada Sculpturii,120209,45.1487842,26.8321086
36,Strada Sculpturii,120209,45.1489105,26.8320708
34,Strada Sculpturii,120209,45.1490595,26.8319502
32,Strada Sculpturii,120209,45.1491942,26.8318078
30B,Strada Sculpturii,120209,45.1492682,26.8317228
30,Strada Sculpturii,120209,45.1493351,26.8316028
28B,Strada Sculpturii,120209,45.1494027,26.8314589
28,Strada Sculpturii,120209,45.1494414,26.8313763
26,Strada Sculpturii,120209,45.1494724,26.8313285
24,Strada Sculpturii,120209,45.1496066,26.8310641
22,Strada Sculpturii,120209,45.1496453,26.8309675
20,Strada Sculpturii,120209,45.1497269,26.8307907
18,Strada Sculpturii,120209,45.1498225,26.8306238
48,Strada Plevnei,120208,45.1498590,26.8303398
46,Strada Plevnei,120208,45.1497142,26.8301608
1B,Fundătura Virtuții,120209,45.1506888,26.8274424
1,Fundătura Virtuții,120209,45.1507292,26.8275549
15,Strada Aurorei,120207,45.1500785,26.8275871
17,Strada Aurorei,120207,45.1501877,26.8277905
3,Strada Aurorei,120207,45.1496520,26.8267481
5,Strada Aurorei,120207,45.1497142,26.8268896
7C,Strada Aurorei,120207,45.1500699,26.8266563
7B,Strada Aurorei,120207,45.1501124,26.8267819
7,Strada Aurorei,120207,45.1497756,26.8270358
9,Strada Aurorei,120207,45.1498746,26.8272151
11,Strada Aurorei,120207,45.1499638,26.8273736
13,Strada Aurorei,120207,45.1500305,26.8274809
6,Strada Sculpturii,120209,45.1507144,26.8283609
2,Strada Sculpturii,120209,45.1509174,26.8282484
4,Strada Sculpturii,120209,45.1507539,26.8282742
25,Strada Aurorei,120207,45.1505392,26.8284193
21,Strada Aurorei,120207,45.1503680,26.8281172
23,Strada Aurorei,120207,45.1504170,26.8282039
23A,Strada Aurorei,120207,45.1504868,26.8283221
4,Fundătura Virtuții,120209,45.1509970,26.8279025
2,Fundătura Virtuții,120209,45.1511151,26.8282375
3,Strada Parâng,120208,45.1506803,26.8329687
5,Strada Parâng,120208,45.1505349,26.8328139
7,Strada Parâng,120208,45.1504403,26.8327320
9,Strada Parâng,120208,45.1503900,26.8325728
11,Strada Parâng,120208,45.1503694,26.8324926
13,Strada Parâng,120208,45.1503565,26.8324163
15,Strada Parâng,120208,45.1503347,26.8322089
15A,Strada Parâng,120208,45.1503436,26.8323008
17,Strada Parâng,120208,45.1503174,26.8320616
19,Strada Parâng,120208,45.1502974,26.8318271
21,Strada Parâng,120208,45.1502930,26.8317427
23,Strada Parâng,120208,45.1502821,26.8316085
25,Strada Parâng,120208,45.1502651,26.8314396
27,Strada Parâng,120208,45.1502483,26.8312911
29B,Strada Parâng,120208,45.1502391,26.8312025
29,Strada Parâng,120208,45.1502394,26.8311251
25,Strada Sculpturii,120209,45.1497927,26.8310514
17,Strada Sculpturii,120209,45.1500668,26.8302475
35,Strada Parâng,120208,45.1501993,26.8307204
33,Strada Parâng,120208,45.1502111,26.8308559
31,Strada Parâng,120208,45.1502216,26.8309658
19,Strada Sculpturii,120209,45.1500417,26.8303785
21,Strada Sculpturii,120209,45.1499978,26.8305429
23,Strada Sculpturii,120209,45.1499092,26.8308298
29,Strada Sculpturii,120209,45.1496525,26.8313250
27,Strada Sculpturii,120209,45.1497008,26.8312259
31,Strada Sculpturii,120209,45.1496150,26.8313952
35,Strada Sculpturii,120209,45.1495599,26.8315065
33,Strada Sculpturii,120209,45.1495860,26.8314517
37,Strada Sculpturii,120209,45.1494621,26.8316935
39,Strada Sculpturii,120209,45.1493958,26.8317983
39B,Strada Sculpturii,120209,45.1493257,26.8319132
41,Strada Sculpturii,120209,45.1491845,26.8320434
43,Strada Sculpturii,120209,45.1490607,26.8321648
45,Strada Sculpturii,120209,45.1490123,26.8322179
45B,Strada Sculpturii,120209,45.1489718,26.8322554
47,Strada Sculpturii,120209,45.1488880,26.8323017
47B,Strada Sculpturii,120209,45.1488233,26.8323359
49,Strada Sculpturii,120209,45.1486978,26.8323779
51,Strada Sculpturii,120209,45.1485824,26.8324164
147,Strada Alexandru Marghiloman,120107,45.1499361,26.8351862
59,Aleea Sporturilor,120099,45.1501512,26.8353315
37,Strada Victoriei,120209,45.1483456,26.8317930
39,Strada Victoriei,120209,45.1483386,26.8320411
35,Strada Victoriei,120209,45.1483625,26.8316752
33,Strada Victoriei,120209,45.1483749,26.8314774
31,Strada Victoriei,120209,45.1483805,26.8312658
31B,Strada Victoriei,120209,45.1483965,26.8310673
29,Strada Victoriei,120209,45.1484649,26.8307052
25,Strada Victoriei,120209,45.1485842,26.8301599
27,Strada Victoriei,120209,45.1485457,26.8303293
23A,Strada Victoriei,120209,45.1487629,26.8300473
23B,Strada Victoriei,120209,45.1488221,26.8301016
23E,Strada Victoriei,120209,45.1488647,26.8302383
23D,Strada Victoriei,120209,45.1489441,26.8303870
23C,Strada Victoriei,120209,45.1489691,26.8302321
23,Strada Victoriei,120209,45.1486980,26.8297387
21C,Strada Victoriei,120209,45.1487343,26.8296437
19,Strada Victoriei,120209,45.1488376,26.8293625
19A,Strada Victoriei,120209,45.1489113,26.8291899
36,Strada Plevnei,120208,45.1491877,26.8294559
36B,Strada Plevnei,120208,45.1491328,26.8293854
21B,Strada Victoriei,120209,45.1489414,26.8299324
40,Strada Plevnei,120208,45.1493557,26.8296840
38,Strada Plevnei,120208,45.1492688,26.8295646
42,Strada Plevnei,120208,45.1494360,26.8298117
44,Strada Plevnei,120208,45.1495434,26.8299231
46B,Strada Plevnei,120208,45.1496413,26.8300764
Bl. 19C,Bulevardul Unirii,120021,45.1566552,26.8164684
8,Strada Sculpturii,120209,45.1504468,26.8287501
12,Strada Aurorei,120207,45.1503873,26.8284964
12,Strada Sculpturii,120209,45.1502215,26.8291262
12A,Strada Sculpturii,120209,45.1500222,26.8287445
12F,Strada Sculpturii,120209,45.1501985,26.8292376
12E,Strada Sculpturii,120209,45.1501734,26.8293204
14,Strada Sculpturii,120209,45.1501017,26.8295733
14B,Strada Sculpturii,120209,45.1500636,26.8297190
16,Strada Sculpturii,120209,45.1500337,26.8298463
77,Strada Plevnei,120208,45.1499129,26.8301076
75,Strada Plevnei,120208,45.1498168,26.8299854
73,Strada Plevnei,120208,45.1497552,26.8299126
71,Strada Plevnei,120208,45.1496978,26.8298281
69,Strada Plevnei,120208,45.1496619,26.8297863
67,Strada Plevnei,120208,45.1495637,26.8296735
65,Strada Plevnei,120208,45.1494597,26.8295427
63,Strada Plevnei,120208,45.1493853,26.8294582
61,Strada Plevnei,120208,45.1492520,26.8292845
59,Strada Plevnei,120208,45.1491315,26.8291102
15,Strada Victoriei,120209,45.1490141,26.8287116
17,Strada Victoriei,120209,45.1489894,26.8289282
6,Strada Aurorei,120207,45.1502274,26.8281853
10,Strada Aurorei,120207,45.1502993,26.8283297
19,Strada Aurorei,120207,45.1502918,26.8279650
4E,Strada Aurorei,120207,45.1501680,26.8280743
4,Strada Aurorei,120207,45.1500124,26.8277728
4D,Strada Aurorei,120207,45.1500668,26.8278799
2A,Strada Aurorei,120207,45.1497387,26.8272491
2B,Strada Aurorei,120207,45.1498500,26.8274336
2,Strada Aurorei,120207,45.1496125,26.8270293
2B,Strada Aurorei,120207,45.1494535,26.8267324
3,Strada Victoriei,120209,45.1492644,26.8266763
3B,Strada Victoriei,120209,45.1492104,26.8270390
5,Strada Victoriei,120209,45.1491307,26.8274828
7,Strada Victoriei,120209,45.1490918,26.8277648
9,Strada Victoriei,120209,45.1490578,26.8280450
11,Strada Victoriei,120209,45.1490430,26.8281955
11B,Fundătura Victoriei,120209,45.1490353,26.8283228
11A,Fundătura Victoriei,120209,45.1490666,26.8284570
13,Strada Victoriei,120209,45.1490214,26.8285454
13A,Fundătura Victoriei,120209,45.1494729,26.8285694
13B,Fundătura Victoriei,120209,45.1496034,26.8287880
13C,Fundătura Victoriei,120209,45.1497093,26.8289476
13D,Fundătura Victoriei,120209,45.1497826,26.8290575
15E,Fundătura Victoriei,120209,45.1494355,26.8286532
15C,Fundătura Victoriei,120209,45.1493559,26.8285511
1,Strada Libertății,120212,45.1490634,26.8251461
3,Strada Libertății,120212,45.1489980,26.8252430
5,Strada Libertății,120212,45.1489223,26.8253698
7,Strada Libertății,120212,45.1488047,26.8255764
9,Strada Libertății,120212,45.1486889,26.8257596
11,Strada Libertății,120212,45.1485023,26.8260919
13,Strada Libertății,120212,45.1484115,26.8262708
2,Strada Victoriei,120209,45.1491695,26.8254417
4,Strada Victoriei,120209,45.1491762,26.8255998
6,Strada Victoriei,120209,45.1491973,26.8259831
8,Strada Victoriei,120209,45.1492045,26.8261930
10,Strada Victoriei,120209,45.1491603,26.8264487
14,Strada Victoriei,120209,45.1491299,26.8266778
16,Strada Victoriei,120209,45.1490980,26.8268524
15,Strada Libertății,120212,45.1482322,26.8265805
17,Strada Libertății,120212,45.1481776,26.8266942
17A,Strada Libertății,120212,45.1481062,26.8268283
19,Strada Libertății,120212,45.1480286,26.8269584
21,Strada Libertății,120212,45.1478085,26.8272950
55,Strada Plevnei,120213,45.1481997,26.8279580
55,Strada Plevnei,120213,45.1482754,26.8280399
55A,Strada Plevnei,120213,45.1483982,26.8282268
18,Strada Victoriei,120209,45.1490230,26.8273531
20,Strada Victoriei,120209,45.1489579,26.8278329
57B,Strada Plevnei,120213,45.1485001,26.8283363
22,Strada Victoriei,120209,45.1489288,26.8282343
57,Strada Plevnei,120213,45.1486035,26.8284640
22B,Strada Victoriei,120209,45.1489033,26.8285760
23,Strada Libertății,120212,45.1476013,26.8276220
25,Strada Libertății,120212,45.1474975,26.8278138
27,Strada Libertății,120212,45.1474326,26.8279195
27B,Strada Libertății,120212,45.1473894,26.8280065
29,Strada Libertății,120212,45.1473434,26.8280945
31,Strada Libertății,120212,45.1472716,26.8282102
33,Strada Libertății,120212,45.1471816,26.8283684
1,Strada Costache Negruzzi,120213,45.1472967,26.8285878
3,Strada Costache Negruzzi,120213,45.1474256,26.8287391
5,Strada Costache Negruzzi,120213,45.1474793,26.8288162
7,Strada Costache Negruzzi,120213,45.1475697,26.8289128
9,Strada Costache Negruzzi,120213,45.1476006,26.8289437
11,Strada Costache Negruzzi,120213,45.1476746,26.8290233
6,Strada Salvării,120213,45.1480076,26.8292234
4,Strada Salvării,120213,45.1481174,26.8290798
2B,Strada Salvării,120213,45.1482709,26.8288645
34,Strada Plevnei,120213,45.1483371,26.8283663
32,Strada Plevnei,120213,45.1482140,26.8281951
30,Strada Plevnei,120213,45.1480800,26.8280173
28,Strada Plevnei,120213,45.1478541,26.8277047
35,Strada Libertății,120212,45.1470231,26.8286550
35,Strada Libertății,120212,45.1469358,26.8288174
37,Strada Libertății,120212,45.1468914,26.8289201
2,Strada Costache Negruzzi,120213,45.1472290,26.8286899
4,Strada Costache Negruzzi,120213,45.1473349,26.8288047
5,Strada Petroșani,120213,45.1471624,26.8292914
1,Strada Petroșani,120213,45.1470389,26.8291388
3,Strada Petroșani,120213,45.1470929,26.8291971
7,Strada Petroșani,120213,45.1472019,26.8293199
9,Strada Petroșani,120213,45.1472728,26.8293992
11,Strada Petroșani,120213,45.1472982,26.8294296
13,Strada Petroșani,120213,45.1473802,26.8295438
8,Strada Salvării,120213,45.1476625,26.8296522
8,Strada Salvării,120213,45.1478476,26.8294223
10,Strada Costache Negruzzi,120213,45.1476461,26.8291756
8,Strada Costache Negruzzi,120213,45.1475632,26.8290505
6,Strada Costache Negruzzi,120213,45.1474294,26.8289237
24,Strada Gloriei,120057,45.1481037,26.8313186
38,Strada Victoriei,120209,45.1482340,26.8314177
40,Strada Victoriei,120209,45.1482141,26.8317443
40B,Strada Victoriei,120209,45.1482006,26.8318944
42,Strada Victoriei,120209,45.1481530,26.8319568
42A,Strada Victoriei,120209,45.1481943,26.8320286
44,Strada Victoriei,120209,45.1481756,26.8320971
48,Strada Victoriei,120209,45.1481534,26.8324315
50,Strada Victoriei,120094,45.1481183,26.8326446
2B,Strada Decebal,120057,45.1479340,26.8329895
2B,Strada Agriculturii,120055,45.1477926,26.8329473
2,Strada Agriculturii,120055,45.1476565,26.8328379
4,Strada Agriculturii,120055,45.1475738,26.8327841
6,Strada Agriculturii,120055,45.1474170,26.8326561
10,Strada Agriculturii,120055,45.1470675,26.8324712
8,Strada Agriculturii,120055,45.1471848,26.8325439
2,Strada Gloriei,120057,45.1471754,26.8322171
6,Strada Gloriei,120057,45.1473008,26.8320005
4,Strada Gloriei,120057,45.1472306,26.8321309
10,Strada Gloriei,120057,45.1474011,26.8318673
12,Strada Gloriei,120057,45.1474375,26.8318186
14,Strada Gloriei,120057,45.1474798,26.8317427
16,Strada Gloriei,120057,45.1475718,26.8316220
20,Strada Gloriei,120057,45.1478028,26.8312636
18,Strada Gloriei,120057,45.1476741,26.8314789
22,Strada Gloriei,120057,45.1480255,26.8312747
3,Strada Independenței,120204,45.1512463,26.8212608
1,Strada Independenței,120204,45.1513057,26.8213169
5,Strada Independenței,120204,45.1511444,26.8211429
1,Strada Independenței,120204,45.1513813,26.8214064
2,Strada Păcii,120195,45.1514122,26.8214826
1,Strada Păcii,120195,45.1513549,26.8216628
3,Strada Păcii,120195,45.1511738,26.8216628
5A,Strada Păcii,120195,45.1510201,26.8216886
5,Strada Păcii,120195,45.1509533,26.8216886
4,Strada Păcii,120195,45.1509498,26.8215506
7,Strada Păcii,120195,45.1508180,26.8217223
8,Strada Păcii,120195,45.1507388,26.8215727
6,Strada Păcii,120195,45.1507899,26.8215601
9,Strada Păcii,120195,45.1507075,26.8217391
11,Strada Păcii,120195,45.1506393,26.8217559
13,Strada Păcii,120195,45.1505204,26.8217793
10,Strada Păcii,120195,45.1505248,26.8215467
12,Strada Păcii,120195,45.1505011,26.8215905
14,Strada Păcii,120195,45.1504321,26.8216080
16,Strada Păcii,120195,45.1503407,26.8216403
15,Strada Păcii,120195,45.1504056,26.8218117
20,Strada Păcii,120195,45.1501028,26.8217436
18,Strada Păcii,120195,45.1502115,26.8216784
17B,Strada Păcii,120195,45.1501705,26.8218920
17,Strada Păcii,120195,45.1501354,26.8219099
19,Strada Păcii,120195,45.1499932,26.8219761
21,Strada Păcii,120195,45.1498566,26.8220483
23,Strada Păcii,120195,45.1497269,26.8221145
25,Strada Păcii,120195,45.1496704,26.8221432
27,Strada Păcii,120195,45.1494040,26.8222577
25B,Strada Păcii,120195,45.1494899,26.8222175
26,Strada Păcii,120195,45.1493848,26.8220877
24,Strada Păcii,120195,45.1496137,26.8219791
22,Strada Păcii,120195,45.1498517,26.8218738
1,Strada Salvării,120213,45.1485413,26.8287339
3,Strada Salvării,120213,45.1483864,26.8289406
24,Strada Victoriei,120209,45.1487696,26.8291662
26,Strada Victoriei,120209,45.1486501,26.8294658
28,Strada Victoriei,120209,45.1485381,26.8297685
30,Strada Victoriei,120209,45.1484762,26.8299514
3B,Strada Salvării,120213,45.1482501,26.8291196
5,Strada Salvării,120213,45.1481694,26.8292372
7,Strada Salvării,120213,45.1481313,26.8293086
7B,Strada Salvării,120213,45.1480723,26.8294133
9,Strada Salvării,120213,45.1479869,26.8295222
30B,Strada Victoriei,120209,45.1484294,26.8301991
32,Strada Victoriei,120209,45.1483843,26.8304187
36,Strada Victoriei,120209,45.1482492,26.8311186
34,Strada Victoriei,120209,45.1483005,26.8308229
34B,Strada Victoriei,120209,45.1482595,26.8308784
27C,Strada Gloriei,120057,45.1479579,26.8309007
27,Strada Gloriei,120057,45.1479196,26.8307286
27,Strada Gloriei,120057,45.1479881,26.8307440
27B,Strada Gloriei,120057,45.1478609,26.8308915
25,Strada Gloriei,120057,45.1478278,26.8309767
23,Strada Gloriei,120057,45.1477039,26.8311663
11,Strada Salvării,120213,45.1478046,26.8297004
13,Strada Salvării,120213,45.1477065,26.8298589
15,Strada Salvării,120213,45.1476255,26.8300058
15A,Strada Salvării,120213,45.1475798,26.8300585
17,Strada Salvării,120213,45.1475253,26.8301268
17A,Strada Salvării,120213,45.1474513,26.8301848
19,Strada Salvării,120213,45.1473538,26.8303370
21,Strada Salvării,120213,45.1472963,26.8304311
23,Strada Salvării,120213,45.1472453,26.8305283
25,Strada Salvării,120213,45.1471514,26.8306299
27,Strada Salvării,120213,45.1470667,26.8307308
29,Strada Salvării,120213,45.1469987,26.8308064
31,Strada Salvării,120213,45.1469102,26.8309328
33,Strada Salvării,120213,45.1468219,26.8310611
35,Strada Salvării,120213,45.1467289,26.8311798
35A,Strada Salvării,120213,45.1466726,26.8312499
37,Strada Salvării,120213,45.1465978,26.8313803
37A,Strada Salvării,120213,45.1465439,26.8314563
71,Strada Triumfului,120214,45.1463556,26.8317578
41,Strada Salvării,120213,45.1464074,26.8316308
73A,Strada Triumfului,120214,45.1465327,26.8320443
16,Strada Agriculturii,120055,45.1466641,26.8322661
14,Strada Agriculturii,120055,45.1468084,26.8322925
12,Strada Agriculturii,120055,45.1468527,26.8323200
1,Strada Gloriei,120057,45.1469887,26.8321920
3,Strada Gloriei,120057,45.1470408,26.8321175
5,Strada Gloriei,120057,45.1471456,26.8320010
9,Strada Gloriei,120057,45.1472454,26.8318281
11,Strada Gloriei,120057,45.1473015,26.8317402
13,Strada Gloriei,120057,45.1473956,26.8316008
13B,Strada Gloriei,120057,45.1472455,26.8314443
17,Strada Gloriei,120057,45.1475058,26.8314323
15,Strada Gloriei,120057,45.1474349,26.8315411
19,Strada Gloriei,120057,45.1475632,26.8313180
21,Strada Gloriei,120057,45.1476453,26.8312334
41,Strada Libertății,120212,45.1467231,26.8291437
43,Strada Libertății,120212,45.1466187,26.8293256
45,Strada Libertății,120212,45.1465679,26.8294228
47,Strada Libertății,120212,45.1464793,26.8295780
49,Strada Libertății,120212,45.1463975,26.8297185
51,Strada Libertății,120212,45.1463220,26.8298249
53,Strada Libertății,120212,45.1462612,26.8299346
55,Strada Libertății,120212,45.1461918,26.8300454
57,Strada Libertății,120212,45.1461502,26.8301402
59,Strada Libertății,120212,45.1460765,26.8302566
61,Strada Libertății,120212,45.1460061,26.8303812
63,Strada Libertății,120212,45.1459423,26.8305394
65,Strada Libertății,120212,45.1458719,26.8306436
67,Strada Libertății,120212,45.1457913,26.8307752
59,Strada Triumfului,120214,45.1458560,26.8309307
61,Strada Triumfului,120214,45.1459027,26.8309992
63,Strada Triumfului,120214,45.1459865,26.8311406
65,Strada Triumfului,120214,45.1460800,26.8312499
67,Strada Triumfului,120214,45.1461259,26.8313806
69,Strada Triumfului,120214,45.1461979,26.8314935
36,Strada Salvării,120213,45.1464416,26.8312934
34,Strada Salvării,120213,45.1464974,26.8312214
32,Strada Salvării,120213,45.1465519,26.8311452
30,Strada Salvării,120213,45.1465784,26.8311065
30A,Strada Salvării,120213,45.1466174,26.8310557
28,Strada Salvării,120213,45.1466944,26.8309515
26B,Strada Salvării,120213,45.1467946,26.8308033
24,Strada Salvării,120213,45.1469691,26.8305882
26,Strada Salvării,120213,45.1468772,26.8306943
22,Strada Salvării,120213,45.1470136,26.8305348
20,Strada Salvării,120213,45.1470736,26.8304352
18,Strada Salvării,120213,45.1471478,26.8303310
16B,Strada Salvării,120213,45.1472267,26.8302182
16,Strada Salvării,120213,45.1472596,26.8301696
14,Strada Salvării,120213,45.1473245,26.8300891
12,Strada Salvării,120213,45.1473918,26.8299956
10,Strada Salvării,120213,45.1474651,26.8298905
14,Strada Petroșani,120213,45.1473201,26.8296075
12,Strada Petroșani,120213,45.1472158,26.8295062
10,Strada Petroșani,120213,45.1471474,26.8294160
8,Strada Petroșani,120213,45.1470599,26.8293174
6,Strada Petroșani,120213,45.1469960,26.8292467
4,Strada Petroșani,120213,45.1469374,26.8291863
2,Strada Petroșani,120213,45.1468866,26.8291257
46,Strada Filantropiei,120212,45.1463025,26.8294594
44,Strada Filantropiei,120212,45.1462428,26.8293851
42,Strada Filantropiei,120212,45.1461216,26.8292311
40,Strada Filantropiei,120212,45.1460521,26.8291410
38,Strada Filantropiei,120212,45.1459322,26.8290325
40A,Strada Filantropiei,120212,45.1458128,26.8293481
34B,Strada Filantropiei,120212,45.1457681,26.8288411
34,Strada Filantropiei,120212,45.1458117,26.8289118
36,Strada Filantropiei,120212,45.1458738,26.8289691
32,Strada Filantropiei,120212,45.1456252,26.8286320
34,Strada Filantropiei,120212,45.1457060,26.8287433
30,Strada Filantropiei,120212,45.1455522,26.8285562
28,Strada Filantropiei,120212,45.1454567,26.8284220
26,Strada Filantropiei,120212,45.1453652,26.8283220
20,Strada Filantropiei,120212,45.1451700,26.8280886
22,Strada Filantropiei,120212,45.1452335,26.8281714
24,Strada Filantropiei,120212,45.1452848,26.8282378
18,Strada Filantropiei,120212,45.1450806,26.8279783
14,Strada Filantropiei,120212,45.1449507,26.8277900
16,Strada Filantropiei,120212,45.1449803,26.8278529
3,Strada Scânteii,120214,45.1448247,26.8278795
5,Strada Scânteii,120214,45.1447767,26.8279676
7,Strada Scânteii,120214,45.1447362,26.8280256
9,Strada Scânteii,120214,45.1446874,26.8280957
11,Strada Scânteii,120214,45.1446018,26.8282144
21,Strada Triumfului,120214,45.1446944,26.8284382
23,Strada Triumfului,120214,45.1447369,26.8285487
25,Strada Triumfului,120214,45.1447854,26.8286463
27,Strada Triumfului,120214,45.1448296,26.8287477
29,Strada Triumfului,120214,45.1448957,26.8288951
31,Strada Triumfului,120214,45.1449329,26.8289718
33,Strada Triumfului,120214,45.1449688,26.8290499
35,Strada Triumfului,120214,45.1450265,26.8291620
37,Strada Triumfului,120214,45.1450680,26.8292494
39,Strada Triumfului,120214,45.1451399,26.8294068
39B,Strada Triumfului,120214,45.1451974,26.8295474
41,Strada Triumfului,120214,45.1452257,26.8296220
43,Strada Triumfului,120214,45.1452898,26.8297340
45,Strada Triumfului,120214,45.1453328,26.8298232
47,Strada Triumfului,120214,45.1453884,26.8299223
49,Strada Triumfului,120214,45.1454096,26.8299805
51,Strada Triumfului,120214,45.1454549,26.8300758
53,Strada Triumfului,120214,45.1454882,26.8301576
55,Strada Triumfului,120214,45.1455177,26.8302268
55A,Strada Triumfului,120214,45.1455774,26.8303332
57,Strada Triumfului,120214,45.1456135,26.8304151
24,Strada Libertății,120212,45.1458056,26.8304211
16,Strada Libertății,120212,45.1461391,26.8298727
14,Strada Libertății,120212,45.1462053,26.8297315
18,Strada Libertății,120212,45.1460665,26.8300225
20,Strada Libertății,120212,45.1459863,26.8301390
22,Strada Libertății,120212,45.1459433,26.8302272
138,Bulevardul Unirii,120279,45.1482672,26.8159636
40,Strada Independenței,120204,45.1480028,26.8175843
42,Strada Independenței,120204,45.1478636,26.8174551
44,Strada Independenței,120204,45.1476432,26.8172526
44F,Strada Independenței,120204,45.1475313,26.8171496
44A,Strada Independenței,120204,45.1478789,26.8164754
44E,Strada Independenței,120204,45.1478948,26.8165348
48,Strada Independenței,120204,45.1472396,26.8168879
46,Strada Independenței,120204,45.1473686,26.8170180
44B,Strada Independenței,120204,45.1480289,26.8164769
1,Strada Filantropiei,120212,45.1438051,26.8261581
3,Strada Filantropiei,120212,45.1438625,26.8262334
5,Strada Filantropiei,120212,45.1439315,26.8263284
7,Strada Filantropiei,120212,45.1440036,26.8264048
47,Bulevardul Gării,120218,45.1437373,26.8257831
43,Bulevardul Gării,120218,45.1441235,26.8257307
41,Bulevardul Gării,120218,45.1441490,26.8257263
39,Bulevardul Gării,120218,45.1442195,26.8256990
37,Bulevardul Gării,120218,45.1442789,26.8257014
35,Bulevardul Gării,120218,45.1445172,26.8256767
33,Bulevardul Gării,120218,45.1448350,26.8256011
31,Bulevardul Gării,120218,45.1450542,26.8255427
29,Bulevardul Gării,120218,45.1451188,26.8255412
27,Bulevardul Gării,120218,45.1452825,26.8255164
25,Bulevardul Gării,120218,45.1453741,26.8255015
20,Strada Plevnei,120218,45.1456595,26.8254158
21,Bulevardul Gării,120218,45.1454889,26.8254697
23,Bulevardul Gării,120218,45.1454718,26.8254725
42,Bulevardul Gării,120218,45.1437331,26.8255313
12B,Strada Plevnei,120218,45.1445274,26.8243032
12,Strada Plevnei,120218,45.1444889,26.8242557
14,Strada Plevnei,120218,45.1446511,26.8244098
14B,Strada Plevnei,120218,45.1447653,26.8245240
16B,Strada Plevnei,120218,45.1448261,26.8245824
16,Strada Plevnei,120218,45.1448847,26.8246506
16A,Strada Plevnei,120218,45.1449459,26.8247096
18,Strada Plevnei,120218,45.1449847,26.8247532
22,Bulevardul Gării,120218,45.1452745,26.8252719
24,Bulevardul Gării,120218,45.1450063,26.8253416
26,Bulevardul Gării,120218,45.1448978,26.8253487
20,Strada Plevnei,120218,45.1450524,26.8248285
26B,Bulevardul Gării,120218,45.1446641,26.8254239
30,Bulevardul Gării,120218,45.1443448,26.8254937
28,Bulevardul Gării,120218,45.1444121,26.8254783
32,Bulevardul Gării,120218,45.1442880,26.8255157
34,Bulevardul Gării,120218,45.1442415,26.8255240
36,Bulevardul Gării,120218,45.1441267,26.8255331
36A,Bulevardul Gării,120218,45.1440075,26.8255563
38,Bulevardul Gării,120218,45.1439428,26.8255696
40,Bulevardul Gării,120218,45.1438836,26.8255795
5,Strada 13 Decembrie,120217,45.1452428,26.8262419
3,Strada 13 Decembrie,120217,45.1453503,26.8263794
1,Strada 13 Decembrie,120217,45.1454044,26.8264537
6,Strada Scânteii,120214,45.1453838,26.8267691
8,Strada Scânteii,120214,45.1453331,26.8268470
15,Strada 13 Decembrie,120217,45.1451455,26.8269279
13,Strada 13 Decembrie,120217,45.1451022,26.8268590
11B,Strada 13 Decembrie,120217,45.1450208,26.8267676
11A,Strada 13 Decembrie,120217,45.1449159,26.8266010
7,Strada 13 Decembrie,120217,45.1450360,26.8263579
9,Strada 13 Decembrie,120217,45.1449733,26.8264400
9B,Strada 13 Decembrie,120217,45.1449486,26.8264823
5,Strada Triumfului,120214,45.1439843,26.8269728
7,Strada Triumfului,120214,45.1440897,26.8271732
9,Strada Triumfului,120214,45.1441679,26.8273536
4,Strada Filantropiei,120212,45.1443816,26.8271124
11,Strada Triumfului,120214,45.1442548,26.8275441
6,Strada Filantropiei,120212,45.1444780,26.8272281
8,Strada Filantropiei,120212,45.1445532,26.8273380
10,Strada Filantropiei,120212,45.1446229,26.8274152
12,Strada Filantropiei,120212,45.1447170,26.8275362
10,Strada Scânteii,120214,45.1447619,26.8277385
12,Strada Scânteii,120214,45.1447064,26.8278423
14,Strada Scânteii,120214,45.1446265,26.8279425
14,Strada Scânteii,120214,45.1445708,26.8280332
13,Strada Triumfului,120214,45.1443103,26.8276606
15,Strada Triumfului,120214,45.1443400,26.8277250
15,Strada Triumfului,120214,45.1443891,26.8278282
17,Strada Triumfului,120214,45.1444162,26.8278792
2B,Strada Filantropiei,120212,45.1441879,26.8269140
13,Strada Filantropiei,120212,45.1440716,26.8265056
15,Strada Filantropiei,120212,45.1441351,26.8265830
17,Strada Filantropiei,120212,45.1442164,26.8266886
19,Strada Filantropiei,120212,45.1442812,26.8267671
21,Strada Filantropiei,120212,45.1443248,26.8268235
23,Strada Filantropiei,120212,45.1444278,26.8269408
34,Strada 13 Decembrie,120217,45.1451433,26.8271381
32,Strada 13 Decembrie,120217,45.1450586,26.8270393
30,Strada 13 Decembrie,120217,45.1449274,26.8268688
28,Strada 13 Decembrie,120217,45.1448727,26.8268070
27,Strada Filantropiei,120212,45.1445379,26.8270762
29,Strada Filantropiei,120212,45.1445957,26.8271504
31,Strada Filantropiei,120212,45.1446768,26.8272393
33,Strada Filantropiei,120212,45.1447679,26.8273717
35,Strada Filantropiei,120212,45.1448583,26.8274777
20,Strada 13 Decembrie,120217,45.1447500,26.8265645
22,Strada 13 Decembrie,120217,45.1447187,26.8266302
24,Strada 13 Decembrie,120217,45.1447606,26.8266809
26,Strada 13 Decembrie,120217,45.1448114,26.8267387
16,Strada 13 Decembrie,120217,45.1448925,26.8263368
18,Strada 13 Decembrie,120217,45.1448391,26.8264247
12,Strada 13 Decembrie,120217,45.1451106,26.8259533
12B,Strada 13 Decembrie,120217,45.1450430,26.8260821
14,Strada 13 Decembrie,120217,45.1449839,26.8261800
10A,Strada 13 Decembrie,120217,45.1451562,26.8259333
10,Strada 13 Decembrie,120217,45.1452617,26.8260306
8,Strada 13 Decembrie,120217,45.1453005,26.8260789
6,Strada 13 Decembrie,120217,45.1453817,26.8261872
4,Strada 13 Decembrie,120217,45.1454498,26.8262838
2,Strada 13 Decembrie,120217,45.1454995,26.8263575
4,Strada Scânteii,120214,45.1457423,26.8261983
2,Strada Scânteii,120214,45.1458326,26.8260580
24,Strada Plevnei,120218,45.1459910,26.8257543
22,Strada Plevnei,120218,45.1458795,26.8256365
20B,Strada Plevnei,120218,45.1457722,26.8255344
19,Bulevardul Gării,120218,45.1459928,26.8253171
29,Strada Plevnei,120218,45.1461911,26.8257405
33,Strada Plevnei,120218,45.1463861,26.8259473
35,Strada Plevnei,120218,45.1464726,26.8260286
37,Strada Plevnei,120218,45.1466238,26.8261804
39,Strada Plevnei,120218,45.1467174,26.8262786
41,Strada Plevnei,120218,45.1468503,26.8264144
43,Strada Plevnei,120218,45.1469604,26.8265210
45,Strada Plevnei,120218,45.1470501,26.8266000
47,Strada Plevnei,120218,45.1471346,26.8266926
49,Strada Plevnei,120218,45.1472109,26.8267800
49B,Strada Plevnei,120218,45.1472889,26.8268423
51,Strada Plevnei,120213,45.1473777,26.8269400
53,Strada Plevnei,120213,45.1475528,26.8271535
4,Strada Libertății,120212,45.1477323,26.8271511
17,Bulevardul Gării,120218,45.1462726,26.8252416
15,Bulevardul Gării,120218,45.1464227,26.8252187
13,Bulevardul Gării,120218,45.1466469,26.8251887
11,Bulevardul Gării,120218,45.1468330,26.8251550
9,Bulevardul Gării,120218,45.1470016,26.8251196
1,Bulevardul Gării,120218,45.1481436,26.8248830
3,Bulevardul Gării,120218,45.1478233,26.8249515
5B,Bulevardul Gării,120218,45.1474304,26.8250086
5,Bulevardul Gării,120218,45.1475324,26.8249934
7,Bulevardul Gării,120218,45.1472488,26.8249972
1B,Strada Scânteii,120214,45.1450656,26.8274994
37,Strada Filantropiei,120212,45.1450274,26.8276845
1A,Strada Scânteii,120214,45.1451518,26.8273471
39,Strada Filantropiei,120212,45.1451377,26.8278323
43,Strada Filantropiei,120212,45.1452810,26.8280044
45,Strada Filantropiei,120212,45.1453730,26.8281075
47,Strada Filantropiei,120212,45.1454278,26.8281831
49,Strada Filantropiei,120212,45.1454987,26.8282671
51,Strada Filantropiei,120212,45.1455491,26.8283281
53,Strada Filantropiei,120212,45.1456159,26.8284115
55,Strada Filantropiei,120212,45.1456633,26.8284693
57,Strada Filantropiei,120212,45.1457022,26.8285217
59,Strada Filantropiei,120212,45.1457661,26.8285968
61,Strada Filantropiei,120212,45.1458176,26.8286607
61B,Strada Filantropiei,120212,45.1458673,26.8287292
63,Strada Filantropiei,120212,45.1459436,26.8288288
65,Strada Filantropiei,120212,45.1460334,26.8289275
8,Strada Libertății,120212,45.1466299,26.8290262
10,Strada Libertății,120212,45.1465325,26.8292053
12,Strada Libertății,120212,45.1464696,26.8293072
69,Strada Filantropiei,120212,45.1463508,26.8293138
67,Strada Filantropiei,120212,45.1462769,26.8292135
7,Bulevardul Republicii,120219,45.1435043,26.8277373
5,Bulevardul Republicii,120219,45.1435049,26.8274542
5B,Bulevardul Republicii,120219,45.1435144,26.8275644
9,Bulevardul Republicii,120219,45.1435162,26.8278881
9A,Bulevardul Republicii,120219,45.1435222,26.8279901
9B,Bulevardul Republicii,120219,45.1435297,26.8281156
9C,Bulevardul Republicii,120219,45.1435426,26.8282058
9D,Bulevardul Republicii,120219,45.1435501,26.8283325
13,Bulevardul Republicii,120219,45.1435669,26.8285217
26,Strada Scânteii,120219,45.1440206,26.8288944
15,Bulevardul Republicii,120219,45.1435690,26.8288894
13A,Bulevardul Republicii,120219,45.1435606,26.8287524
17,Bulevardul Republicii,120219,45.1435758,26.8290868
19,Bulevardul Republicii,120219,45.1435820,26.8293541
30,Strada Scânteii,120219,45.1437924,26.8292801
28B,Strada Scânteii,120219,45.1438374,26.8292047
28,Strada Scânteii,120219,45.1439102,26.8290645
24,Strada Scânteii,120219,45.1440958,26.8287646
22,Strada Scânteii,120219,45.1441721,26.8286530
18,Strada Scânteii,120219,45.1442493,26.8285005
16,Strada Scânteii,120219,45.1443398,26.8283817
12,Strada Triumfului,120214,45.1443999,26.8281416
10,Strada Triumfului,120214,45.1443100,26.8279720
2,Strada Triumfului,120214,45.1439742,26.8272650
4,Strada Triumfului,120214,45.1440239,26.8273938
4A,Strada Triumfului,120214,45.1440711,26.8275052
4B,Strada Triumfului,120214,45.1441158,26.8275995
4C,Strada Triumfului,120214,45.1441778,26.8277262
6,Strada Triumfului,120214,45.1442159,26.8277933
8,Strada Triumfului,120214,45.1442723,26.8279137
2,Bulevardul 1 Decembrie 1918,120222,45.1433505,26.8249824
2B,Bulevardul 1 Decembrie 1918,120222,45.1433502,26.8247556
4,Bulevardul 1 Decembrie 1918,120222,45.1433453,26.8245738
4B,Bulevardul 1 Decembrie 1918,120222,45.1433496,26.8244991
6,Bulevardul 1 Decembrie 1918,120222,45.1433485,26.8243396
8,Bulevardul 1 Decembrie 1918,120222,45.1433474,26.8242610
10,Bulevardul 1 Decembrie 1918,120217,45.1433419,26.8240727
12,Bulevardul 1 Decembrie 1918,120217,45.1433058,26.8236861
14,Strada Plevnei,120218,45.1432715,26.8230857
2,Strada Plevnei,120218,45.1435702,26.8233259
4,Strada Plevnei,120218,45.1438104,26.8235692
6,Strada Plevnei,120218,45.1439093,26.8236673
8,Strada Plevnei,120218,45.1440587,26.8238297
1B,Strada Plevnei,120218,45.1433044,26.8228463
1,Strada Plevnei,120218,45.1434657,26.8229952
10,Strada Bradului,120218,45.1435030,26.8227494
8,Strada Bradului,120218,45.1435484,26.8226189
6,Strada Bradului,120218,45.1435936,26.8224082
4,Strada Bradului,120218,45.1436378,26.8222726
2A,Strada Bradului,120218,45.1437015,26.8220479
2,Strada Bradului,120218,45.1437333,26.8218917
8,Strada Mărăști,120218,45.1436430,26.8217117
22,Bulevardul 1 Decembrie 1918,120217,45.1431985,26.8220450
20,Bulevardul 1 Decembrie 1918,120217,45.1431961,26.8221751
16,Bulevardul 1 Decembrie 1918,120217,45.1432022,26.8225727
5,Strada Plevnei,120218,45.1438294,26.8233695
3,Strada Plevnei,120218,45.1437384,26.8232831
7,Strada Plevnei,120218,45.1439765,26.8235165
10,Strada Mărăști,120218,45.1439605,26.8218539
1,Strada Bradului,120218,45.1438321,26.8220943
3,Strada Bradului,120218,45.1437943,26.8222553
5,Strada Bradului,120218,45.1437641,26.8223681
7,Strada Bradului,120218,45.1437133,26.8225585
9,Strada Bradului,120218,45.1436954,26.8226447
11,Strada Bradului,120218,45.1436545,26.8227772
13,Strada Bradului,120218,45.1436276,26.8229009
15,Strada Bradului,120218,45.1435887,26.8230302
12B,Strada Mărăști,120218,45.1442074,26.8219428
12,Strada Mărăști,120218,45.1441147,26.8219124
14,Strada Mărăști,120218,45.1442811,26.8219732
14B,Strada Mărăști,120218,45.1443578,26.8220008
16,Strada Mărăști,120218,45.1445153,26.8220509
16B,Strada Mărăști,120218,45.1444423,26.8220273
18,Strada Mărăști,120218,45.1446326,26.8220951
20,Strada Mărăști,120218,45.1447551,26.8221609
22,Strada Mărăști,120218,45.1448276,26.8221935
24,Strada Mărăști,120218,45.1449419,26.8222340
18,Strada Plevnei,120218,45.1442108,26.8237724
3,Bulevardul 1 Decembrie 1918,120222,45.1429391,26.8208326
5,Bulevardul 1 Decembrie 1918,120222,45.1429290,26.8204340
1,Bulevardul 1 Decembrie 1918,120222,45.1429820,26.8215304
5C,Bulevardul 1 Decembrie 1918,120222,45.1427339,26.8197880
5B,Bulevardul 1 Decembrie 1918,120222,45.1429104,26.8199288
5I,Bulevardul 1 Decembrie 1918,120222,45.1428704,26.8193318
7,Bulevardul 1 Decembrie 1918,120200,45.1428339,26.8186487
9,Bulevardul 1 Decembrie 1918,120200,45.1428174,26.8183883
13,Bulevardul 1 Decembrie 1918,120200,45.1424305,26.8182229
11,Bulevardul 1 Decembrie 1918,120200,45.1424889,26.8183725
1,Bulevardul Republicii,120219,45.1429682,26.8257607
2,Bulevardul Republicii,120219,45.1432250,26.8270333
4,Bulevardul Republicii,120219,45.1434119,26.8298965
4,Bulevardul Republicii,120219,45.1436431,26.8341283
4A,Bulevardul Republicii,120219,45.1436961,26.8352427
4B,Bulevardul Republicii,120219,45.1435746,26.8352571
6,Bulevardul Republicii,120219,45.1437428,26.8355641
8B,Bulevardul Republicii,120219,45.1435864,26.8359199
27,Strada Scânteii,120219,45.1439093,26.8293238
25,Strada Scânteii,120219,45.1439702,26.8292350
23,Strada Scânteii,120219,45.1440211,26.8291448
5,Strada Tenor Leonard,120218,45.1440456,26.8302752
5B,Strada Tenor Leonard,120218,45.1440448,26.8300201
3,Strada Tenor Leonard,120218,45.1440799,26.8299196
1,Strada Tenor Leonard,120218,45.1441432,26.8297558
1B,Strada Tenor Leonard,120218,45.1441265,26.8298113
7,Strada Tenor Leonard,120218,45.1441735,26.8304187
9,Strada Tenor Leonard,120218,45.1442687,26.8305083
11,Strada Tenor Leonard,120218,45.1443266,26.8305606
13,Strada Tenor Leonard,120218,45.1444305,26.8306534
15,Strada Tenor Leonard,120218,45.1445224,26.8307392
17,Strada Tenor Leonard,120218,45.1446236,26.8308434
21,Strada Tenor Leonard,120218,45.1447269,26.8309239
23,Strada Tenor Leonard,120218,45.1448302,26.8310176
25,Strada Tenor Leonard,120218,45.1449046,26.8310895
31,Strada Tenor Leonard,120218,45.1451110,26.8312769
29B,Strada Tenor Leonard,120218,45.1450612,26.8312294
27,Strada Tenor Leonard,120218,45.1450078,26.8311841
30,Strada Libertății,120212,45.1453185,26.8313103
28,Strada Libertății,120212,45.1453874,26.8311888
26,Strada Libertății,120212,45.1454925,26.8309983
50,Strada Triumfului,120214,45.1455277,26.8305484
46,Strada Triumfului,120214,45.1454161,26.8303416
48,Strada Triumfului,120214,45.1454578,26.8304062
42,Strada Triumfului,120214,45.1453478,26.8301546
44,Strada Triumfului,120214,45.1452006,26.8304611
40,Strada Triumfului,120214,45.1452872,26.8300473
38,Strada Triumfului,120214,45.1452396,26.8299388
36,Strada Triumfului,120214,45.1451990,26.8298490
32B,Strada Triumfului,120214,45.1451168,26.8296744
34,Strada Triumfului,120214,45.1451554,26.8297628
28,Strada Triumfului,120214,45.1450720,26.8295974
26,Strada Triumfului,120214,45.1450181,26.8294755
21,Strada Scânteii,120219,45.1441018,26.8290248
19B,Strada Scânteii,120219,45.1441660,26.8289184
17,Strada Scânteii,120219,45.1442808,26.8287310
19,Strada Scânteii,120219,45.1442485,26.8287857
15,Strada Scânteii,120219,45.1443280,26.8286629
13,Strada Scânteii,120214,45.1444345,26.8284927
14B,Strada Triumfului,120214,45.1446071,26.8285746
14,Strada Triumfului,120214,45.1446604,26.8287102
16,Strada Triumfului,120214,45.1447207,26.8288302
18,Strada Triumfului,120214,45.1447874,26.8289885
20,Strada Triumfului,120214,45.1448426,26.8291250
20,Strada Triumfului,120214,45.1448939,26.8292214
22,Strada Triumfului,120214,45.1449311,26.8293024
24,Strada Triumfului,120214,45.1449772,26.8293913
49,Strada Transilvaniei,120012,45.1564053,26.8149444
Bl. A14,Strada Transilvaniei,120012,45.1563816,26.8143721
Bl. A15,Strada Zefirului,120014,45.1561336,26.8143253
60,Strada Transilvaniei,120012,45.1565810,26.8150007
62B,Strada Transilvaniei,120012,45.1566862,26.8147387
62,Strada Transilvaniei,120012,45.1566503,26.8148169
59,Strada Transilvaniei,120012,45.1566685,26.8143170
57,Strada Transilvaniei,120012,45.1566089,26.8144152
59A,Strada Transilvaniei,120012,45.1566988,26.8142621
63,Strada Transilvaniei,120012,45.1568124,26.8140081
64,Strada Transilvaniei,120012,45.1567291,26.8146330
66,Strada Transilvaniei,120012,45.1567887,26.8145083
66A,Strada Transilvaniei,120012,45.1568502,26.8144037
68,Strada Transilvaniei,120012,45.1569069,26.8142588
72,Strada Transilvaniei,120012,45.1570543,26.8139353
70,Strada Transilvaniei,120012,45.1569992,26.8140737
65B,Strada Transilvaniei,120012,45.1569026,26.8138068
65,Strada Transilvaniei,120012,45.1569524,26.8137178
67,Strada Transilvaniei,120012,45.1569746,26.8136749
67B,Strada Transilvaniei,120012,45.1570100,26.8136008
69,Strada Transilvaniei,120012,45.1570554,26.8135047
71,Strada Transilvaniei,120012,45.1571082,26.8134070
73,Strada Transilvaniei,120012,45.1571753,26.8132580
75,Strada Transilvaniei,120012,45.1572609,26.8131017
2,Strada Clujului,120154,45.1573233,26.8127074
77,Strada Transilvaniei,120012,45.1574690,26.8126565
79,Strada Transilvaniei,120012,45.1575445,26.8124745
81,Strada Transilvaniei,120012,45.1575965,26.8123659
83,Strada Transilvaniei,120012,45.1576745,26.8122029
1,Strada Turdei,120159,45.1575716,26.8119805
2,Strada Turdei,120159,45.1577071,26.8119295
2,Strada Turdei,120159,45.1576191,26.8117207
85,Strada Transilvaniei,120012,45.1578154,26.8118321
87,Strada Transilvaniei,120012,45.1578901,26.8116181
89,Strada Transilvaniei,120012,45.1579175,26.8115195
93,Strada Transilvaniei,120012,45.1579837,26.8113230
91,Strada Transilvaniei,120012,45.1579515,26.8113981
95,Strada Transilvaniei,120012,45.1580121,26.8112124
97,Strada Transilvaniei,120012,45.1580442,26.8110608
99,Strada Transilvaniei,120012,45.1580589,26.8109927
101,Strada Transilvaniei,120012,45.1580736,26.8109062
103,Strada Transilvaniei,120012,45.1580925,26.8108083
105,Strada Transilvaniei,120012,45.1581245,26.8106502
107,Strada Transilvaniei,120012,45.1581528,26.8105161
109,Strada Transilvaniei,120012,45.1581944,26.8103015
111,Strada Transilvaniei,120012,45.1582602,26.8099414
11A,Strada Transilvaniei,120012,45.1582898,26.8097917
113,Strada Transilvaniei,120012,45.1583372,26.8096256
115,Strada Transilvaniei,120012,45.1583737,26.8094552
117,Strada Transilvaniei,120012,45.1584279,26.8092064
119,Strada Transilvaniei,120012,45.1584567,26.8090794
121,Strada Transilvaniei,120012,45.1584966,26.8086773
123,Strada Transilvaniei,120012,45.1585151,26.8085841
127,Strada Transilvaniei,120012,45.1585744,26.8083880
129,Strada Transilvaniei,120012,45.1585896,26.8082974
131B,Strada Transilvaniei,120012,45.1586899,26.8078507
131,Strada Transilvaniei,120012,45.1586596,26.8079879
129B,Strada Transilvaniei,120012,45.1586267,26.8081264
125,Strada Transilvaniei,120012,45.1585547,26.8084697
141,Strada Transilvaniei,120171,45.1588806,26.8068831
139,Strada Transilvaniei,120171,45.1588637,26.8069684
137,Strada Transilvaniei,120171,45.1588474,26.8070427
133,Strada Transilvaniei,120171,45.1588006,26.8073152
143,Strada Transilvaniei,120171,45.1589562,26.8063677
145,Strada Răscoalei 1907,120158,45.1589764,26.8062219
157,Strada Transilvaniei,120171,45.1592962,26.8048573
155,Strada Transilvaniei,120171,45.1592449,26.8050938
153,Strada Transilvaniei,120171,45.1591942,26.8053431
151,Strada Transilvaniei,120171,45.1591615,26.8055068
149,Strada Transilvaniei,120171,45.1591311,26.8056476
147,Strada Transilvaniei,120171,45.1590825,26.8058961
159,Strada Transilvaniei,120171,45.1593235,26.8046632
161,Strada Transilvaniei,120171,45.1593743,26.8044144
163,Strada Transilvaniei,120171,45.1594582,26.8039390
163A,Strada Transilvaniei,120171,45.1598498,26.8021492
165,Strada Transilvaniei,120171,45.1599216,26.8018563
169,Strada Transilvaniei,120171,45.1600339,26.8013805
169B,Strada Transilvaniei,120171,45.1600597,26.8012607
171,Strada Transilvaniei,120171,45.1600861,26.8011315
221,Strada Transilvaniei,120171,45.1608218,26.7975507
219,Strada Transilvaniei,120171,45.1607673,26.7977759
217,Strada Transilvaniei,120171,45.1607042,26.7980885
215,Strada Transilvaniei,120171,45.1605313,26.7980167
213,Strada Transilvaniei,120171,45.1606606,26.7983083
211,Strada Transilvaniei,120171,45.1606264,26.7984464
209,Strada Transilvaniei,120171,45.1605944,26.7986198
207,Strada Transilvaniei,120171,45.1605467,26.7988191
201,Strada Transilvaniei,120171,45.1604621,26.7992288
203,Strada Transilvaniei,120171,45.1604947,26.7991000
205,Strada Transilvaniei,120171,45.1605155,26.7989726
199,Strada Transilvaniei,120171,45.1604241,26.7994193
197,Strada Transilvaniei,120171,45.1603948,26.7995252
195,Strada Transilvaniei,120171,45.1603594,26.7996889
193,Strada Transilvaniei,120171,45.1603092,26.7998947
191,Strada Transilvaniei,120171,45.1602388,26.8002469
177,Strada Transilvaniei,120171,45.1601740,26.8006012
179,Strada Transilvaniei,120171,45.1602036,26.8004852
173,Strada Transilvaniei,120171,45.1601185,26.8009204
225,Strada Transilvaniei,120171,45.1609865,26.7967824
229,Strada Transilvaniei,120171,45.1610788,26.7963643
231,Strada Transilvaniei,120171,45.1611201,26.7961864
235,Strada Transilvaniei,120171,45.1613004,26.7953059
233,Strada Transilvaniei,120171,45.1611567,26.7960063
247,Strada Transilvaniei,120171,45.1615332,26.7942378
245,Strada Transilvaniei,120171,45.1615036,26.7943769
243,Strada Transilvaniei,120171,45.1614725,26.7945349
241A,Strada Transilvaniei,120171,45.1614366,26.7946884
241,Strada Transilvaniei,120171,45.1614226,26.7947624
239,Strada Transilvaniei,120171,45.1613876,26.7948839
237,Strada Transilvaniei,120171,45.1613393,26.7951115
249,Strada Transilvaniei,120171,45.1615961,26.7939901
253,Strada Transilvaniei,120171,45.1616567,26.7937238
251,Strada Transilvaniei,120171,45.1616402,26.7938009
255,Strada Transilvaniei,120171,45.1616969,26.7935530
261,Strada Transilvaniei,120171,45.1617280,26.7933872
263,Strada Transilvaniei,120171,45.1617652,26.7932180
267,Strada Transilvaniei,120171,45.1618280,26.7929573
265,Strada Transilvaniei,120171,45.1618030,26.7930855
269,Strada Transilvaniei,120171,45.1618607,26.7927944
271,Strada Transilvaniei,120171,45.1618883,26.7926671
271B,Strada Transilvaniei,120171,45.1619101,26.7925597
273,Strada Transilvaniei,120171,45.1619629,26.7923760
277,Strada Transilvaniei,120171,45.1620143,26.7920722
281,Strada Transilvaniei,120171,45.1620942,26.7917422
279,Strada Transilvaniei,120171,45.1620672,26.7918968
283,Strada Transilvaniei,120171,45.1621120,26.7916411
287,Strada Transilvaniei,120171,45.1621762,26.7913745
285,Strada Transilvaniei,120171,45.1621390,26.7915064
287B,Strada Transilvaniei,120171,45.1622057,26.7912444
74,Strada Transilvaniei,120012,45.1571236,26.8137932
76,Strada Transilvaniei,120012,45.1571793,26.8136845
78,Strada Transilvaniei,120012,45.1572175,26.8136130
80,Strada Transilvaniei,120012,45.1572506,26.8135205
80B,Strada Transilvaniei,120012,45.1573080,26.8134118
90,Strada Transilvaniei,120012,45.1576481,26.8126568
88,Strada Transilvaniei,120012,45.1575770,26.8128377
86,Strada Transilvaniei,120012,45.1575289,26.8129415
84A,Strada Transilvaniei,120012,45.1574167,26.8131846
82,Strada Transilvaniei,120012,45.1573469,26.8133281
98,Strada Transilvaniei,120012,45.1579981,26.8118582
96,Strada Transilvaniei,120012,45.1579291,26.8120361
49,Strada Penteleu,120011,45.1580970,26.8123490
49B,Strada Penteleu,120011,45.1581103,26.8122462
94,Strada Transilvaniei,120012,45.1578443,26.8122442
92,Strada Transilvaniei,120012,45.1577364,26.8124729
46,Strada Penteleu,120011,45.1581955,26.8114411
44,Strada Penteleu,120011,45.1581982,26.8115716
100,Strada Transilvaniei,120012,45.1581964,26.8113458
106,Strada Transilvaniei,120012,45.1582719,26.8108055
104,Strada Transilvaniei,120012,45.1582475,26.8109073
102,Strada Transilvaniei,120012,45.1582210,26.8110319
100B,Strada Transilvaniei,120012,45.1581918,26.8111861
108,Strada Transilvaniei,120012,45.1582864,26.8107110
114,Strada Transilvaniei,120012,45.1583350,26.8104838
112,Strada Transilvaniei,120012,45.1583183,26.8105728
110,Strada Transilvaniei,120012,45.1583022,26.8106539
116,Strada Transilvaniei,120012,45.1583817,26.8103119
118,Strada Transilvaniei,120012,45.1583985,26.8102331
122,Strada Transilvaniei,120012,45.1584258,26.8100890
120,Strada Transilvaniei,120012,45.1584131,26.8101622
134,Strada Transilvaniei,120012,45.1585808,26.8094481
132,Strada Transilvaniei,120012,45.1585508,26.8095667
126,Strada Transilvaniei,120012,45.1584558,26.8098594
128,Strada Transilvaniei,120012,45.1584730,26.8097871
136,Strada Transilvaniei,120012,45.1586319,26.8092258
138,Strada Transilvaniei,120012,45.1586858,26.8090257
140,Strada Transilvaniei,120012,45.1587221,26.8089155
142,Strada Transilvaniei,120012,45.1587324,26.8087454
166,Strada Transilvaniei,120171,45.1590351,26.8071933
164,Strada Transilvaniei,120012,45.1590017,26.8073447
158,Strada Transilvaniei,120012,45.1588935,26.8078842
156,Strada Transilvaniei,120012,45.1588719,26.8080086
152,Strada Transilvaniei,120012,45.1588559,26.8080859
154,Strada Transilvaniei,120012,45.1588309,26.8081678
150,Strada Transilvaniei,120012,45.1587988,26.8083397
148,Strada Transilvaniei,120012,45.1587744,26.8084647
146,Strada Transilvaniei,120012,45.1587596,26.8085420
144,Strada Transilvaniei,120012,45.1587423,26.8086068
132,Strada Transilvaniei,120012,45.1593424,26.8061069
132,Strada Transilvaniei,120012,45.1597553,26.8049202
132,Strada Transilvaniei,120012,45.1599859,26.8038156
134,Strada Transilvaniei,120012,45.1601705,26.8023740
204,Strada Transilvaniei,120171,45.1605072,26.8013576
204B,Strada Transilvaniei,120171,45.1603220,26.8010009
206,Strada Transilvaniei,120171,45.1603819,26.8007048
208,Strada Transilvaniei,120171,45.1604166,26.8005668
210,Strada Transilvaniei,120171,45.1604454,26.8004393
212,Strada Transilvaniei,120171,45.1604808,26.8002945
216,Strada Transilvaniei,120171,45.1605670,26.7998499
214,Strada Transilvaniei,120171,45.1605091,26.8001390
218,Strada Transilvaniei,120171,45.1605981,26.7996944
230,Strada Transilvaniei,120171,45.1609397,26.7981907
224,Strada Transilvaniei,120171,45.1607534,26.7990604
226,Strada Transilvaniei,120171,45.1607803,26.7989795
228,Strada Transilvaniei,120171,45.1608425,26.7987302
236,Strada Transilvaniei,120171,45.1610846,26.7974986
240,Strada Transilvaniei,120171,45.1610999,26.7974058
242,Strada Transilvaniei,120171,45.1611237,26.7972912
242A,Strada Transilvaniei,120171,45.1611500,26.7971766
246,Strada Transilvaniei,120171,45.1612428,26.7968147
250B,Strada Transilvaniei,120171,45.1614712,26.7965788
250,Strada Transilvaniei,120171,45.1613303,26.7964634
254,Strada Transilvaniei,120171,45.1614400,26.7958663
252A,Strada Transilvaniei,120171,45.1613922,26.7960691
256,Strada Transilvaniei,120171,45.1614938,26.7956187
264,Strada Transilvaniei,120171,45.1615209,26.7954650
268,Strada Transilvaniei,120171,45.1615675,26.7952326
270,Strada Transilvaniei,120171,45.1616077,26.7951152
294B,Strada Transilvaniei,120171,45.1619771,26.7934508
294,Strada Transilvaniei,120171,45.1619530,26.7935715
292,Strada Transilvaniei,120171,45.1619303,26.7936589
290A,Strada Transilvaniei,120171,45.1618708,26.7938628
288,Strada Transilvaniei,120171,45.1618277,26.7940465
286,Strada Transilvaniei,120171,45.1618017,26.7941773
284,Strada Transilvaniei,120171,45.1617812,26.7942518
282,Strada Transilvaniei,120171,45.1617688,26.7943167
280,Strada Transilvaniei,120171,45.1617316,26.7944750
278,Strada Transilvaniei,120171,45.1616977,26.7946535
276,Strada Transilvaniei,120171,45.1616632,26.7948022
274B,Strada Transilvaniei,120171,45.1616381,26.7949249
300,Strada Transilvaniei,120171,45.1620834,26.7928934
298,Strada Transilvaniei,120171,45.1620541,26.7930257
296,Strada Transilvaniei,120171,45.1620286,26.7931585
302,Strada Transilvaniei,120171,45.1621095,26.7927859
304,Strada Transilvaniei,120171,45.1621323,26.7926829
310,Strada Transilvaniei,120171,45.1622704,26.7925434
312,Strada Transilvaniei,120171,45.1621901,26.7924535
306,Strada Transilvaniei,120171,45.1621570,26.7925783
314,Strada Transilvaniei,120171,45.1622153,26.7923133
316,Strada Transilvaniei,120171,45.1622531,26.7921719
320B,Strada Transilvaniei,120171,45.1623217,26.7918581
318B,Strada Transilvaniei,120171,45.1622989,26.7919715
324,Strada Transilvaniei,120171,45.1623626,26.7916498
326,Strada Transilvaniei,120171,45.1623963,26.7915189
328,Strada Transilvaniei,120171,45.1624107,26.7913977
332,Strada Transilvaniei,120171,45.1624693,26.7911331
330,Strada Transilvaniei,120171,45.1624462,26.7912340
366,Strada Transilvaniei,120164,45.1636512,26.7881304
370,Strada Transilvaniei,120164,45.1637978,26.7879574
372,Strada Transilvaniei,120164,45.1639053,26.7878359
372B,Strada Transilvaniei,120164,45.1639688,26.7877824
376,Strada Transilvaniei,120164,45.1641368,26.7876199
374,Strada Transilvaniei,120164,45.1640408,26.7877171
378,Strada Transilvaniei,120164,45.1642891,26.7874594
380,Strada Transilvaniei,120164,45.1644108,26.7873450
382,Strada Transilvaniei,120164,45.1645159,26.7872509
384,Strada Transilvaniei,120164,45.1645738,26.7871767
386,Strada Transilvaniei,120164,45.1646673,26.7870801
388,Strada Transilvaniei,120164,45.1647496,26.7870026
390,Strada Transilvaniei,120164,45.1648129,26.7869277
392,Strada Transilvaniei,120164,45.1648972,26.7868379
394,Strada Transilvaniei,120164,45.1650062,26.7867230
396,Strada Transilvaniei,120164,45.1651512,26.7866082
398,Strada Transilvaniei,120164,45.1652333,26.7865085
400,Strada Transilvaniei,120164,45.1653331,26.7864148
402,Strada Transilvaniei,120164,45.1654098,26.7863349
406,Strada Transilvaniei,120164,45.1656141,26.7861348
404,Strada Transilvaniei,120164,45.1655083,26.7862518
408,Strada Transilvaniei,120164,45.1657154,26.7860361
410,Strada Transilvaniei,120164,45.1658170,26.7859359
410A,Strada Transilvaniei,120164,45.1659008,26.7858368
412,Strada Transilvaniei,120164,45.1660108,26.7857408
412A,Strada Transilvaniei,120164,45.1661581,26.7855683
414,Strada Transilvaniei,120164,45.1666098,26.7851980
418,Strada Transilvaniei,120164,45.1669111,26.7848596
420,Strada Transilvaniei,120164,45.1669888,26.7847764
422,Strada Transilvaniei,120164,45.1670925,26.7846873
424,Strada Transilvaniei,120164,45.1672898,26.7844698
430,Strada Transilvaniei,120164,45.1676629,26.7840940
428,Strada Transilvaniei,120164,45.1675750,26.7841824
426,Strada Transilvaniei,120164,45.1675249,26.7842379
432,Strada Transilvaniei,120164,45.1677608,26.7840017
434,Strada Transilvaniei,120164,45.1679053,26.7838725
436,Strada Transilvaniei,120164,45.1680157,26.7837530
438,Strada Transilvaniei,120164,45.1681042,26.7836675
440,Strada Transilvaniei,120164,45.1681523,26.7835899
442B,Strada Transilvaniei,120164,45.1682117,26.7835201
442,Strada Transilvaniei,120164,45.1682755,26.7834604
444,Strada Transilvaniei,120164,45.1683461,26.7833882
448,Strada Transilvaniei,120164,45.1684471,26.7832892
446,Strada Transilvaniei,120164,45.1683992,26.7833422
450,Strada Transilvaniei,120164,45.1685026,26.7832308
452,Strada Transilvaniei,120164,45.1685992,26.7831469
454,Strada Transilvaniei,120164,45.1687191,26.7830238
458,Strada Transilvaniei,120164,45.1689431,26.7828295
456,Strada Transilvaniei,120164,45.1688421,26.7829477
460,Strada Transilvaniei,120164,45.1691488,26.7825835
464A,Strada Transilvaniei,120164,45.1693821,26.7823411
464,Strada Transilvaniei,120164,45.1693179,26.7824111
470,Strada Transilvaniei,120164,45.1701353,26.7816211
468,Strada Transilvaniei,120164,45.1697731,26.7819684
470,Strada Transilvaniei,120164,45.1699245,26.7818275
468A,Strada Transilvaniei,120164,45.1698521,26.7818971
464B,Strada Transilvaniei,120164,45.1695377,26.7821896
466,Strada Transilvaniei,120164,45.1696715,26.7820680
472,Strada Transilvaniei,120164,45.1702616,26.7814810
474,Strada Transilvaniei,120164,45.1703621,26.7813611
476,Strada Transilvaniei,120164,45.1704966,26.7812424
476,Strada Transilvaniei,120164,45.1705893,26.7811405
478,Strada Transilvaniei,120164,45.1710316,26.7806933
476B,Strada Transilvaniei,120164,45.1708433,26.7808715
480,Strada Transilvaniei,120164,45.1711368,26.7805770
482,Strada Transilvaniei,120164,45.1712838,26.7804411
506,Strada Transilvaniei,120164,45.1726055,26.7782982
504,Strada Transilvaniei,120164,45.1725486,26.7784156
502,Strada Transilvaniei,120164,45.1725066,26.7785184
500,Strada Transilvaniei,120164,45.1724604,26.7786387
498,Strada Transilvaniei,120164,45.1723825,26.7788456
496,Strada Transilvaniei,120164,45.1723527,26.7788979
494,Strada Transilvaniei,120164,45.1722406,26.7791258
492,Strada Transilvaniei,120164,45.1721068,26.7793973
490,Strada Transilvaniei,120164,45.1720232,26.7795366
490A,Strada Transilvaniei,120164,45.1719454,26.7796569
486,Strada Transilvaniei,120164,45.1717153,26.7799960
488,Strada Transilvaniei,120164,45.1718630,26.7798003
484,Strada Transilvaniei,120164,45.1715553,26.7801670
108,Strada Transilvaniei,120012,45.1729844,26.7772282
315,Strada Transilvaniei,120164,45.1645357,26.7868538
317,Strada Transilvaniei,120164,45.1647047,26.7866642
319,Strada Transilvaniei,120164,45.1648278,26.7865360
321,Strada Transilvaniei,120164,45.1649888,26.7863952
323,Strada Transilvaniei,120164,45.1650765,26.7862958
329,Strada Transilvaniei,120164,45.1653287,26.7860360
327,Strada Transilvaniei,120164,45.1652452,26.7861189
325,Strada Transilvaniei,120164,45.1651869,26.7861790
331,Strada Transilvaniei,120164,45.1654139,26.7859674
333,Strada Transilvaniei,120164,45.1655114,26.7858928
335,Strada Transilvaniei,120164,45.1656668,26.7857143
333B,Strada Transilvaniei,120164,45.1655757,26.7858162
337,Strada Transilvaniei,120164,45.1657496,26.7856099
339,Strada Transilvaniei,120164,45.1658517,26.7855253
341,Strada Transilvaniei,120164,45.1659420,26.7854272
343,Strada Transilvaniei,120164,45.1660997,26.7852737
343B,Strada Transilvaniei,120164,45.1662809,26.7850832
345,Strada Transilvaniei,120164,45.1663636,26.7850001
347,Strada Transilvaniei,120164,45.1664640,26.7849015
347B,Strada Transilvaniei,120164,45.1665653,26.7848042
349,Strada Transilvaniei,120164,45.1666121,26.7847700
351,Strada Transilvaniei,120164,45.1666982,26.7846841
353,Strada Transilvaniei,120164,45.1667947,26.7845893
355,Strada Transilvaniei,120164,45.1669353,26.7843951
365A,Strada Transilvaniei,120164,45.1675012,26.7838413
365,Strada Transilvaniei,120164,45.1674390,26.7839396
363A,Strada Transilvaniei,120164,45.1673993,26.7839750
363,Strada Transilvaniei,120164,45.1673627,26.7840151
361,Strada Transilvaniei,120164,45.1673088,26.7840697
359,Strada Transilvaniei,120164,45.1672187,26.7841504
357,Strada Transilvaniei,120164,45.1670850,26.7842778
367,Strada Transilvaniei,120164,45.1676374,26.7837397
369,Strada Transilvaniei,120164,45.1677485,26.7836224
379,Strada Transilvaniei,120164,45.1681562,26.7831971
377,Strada Transilvaniei,120164,45.1680769,26.7832787
375,Strada Transilvaniei,120164,45.1679704,26.7833916
373,Strada Transilvaniei,120164,45.1679167,26.7834755
371,Strada Transilvaniei,120164,45.1678482,26.7835551
387,Strada Transilvaniei,120164,45.1687635,26.7826091
385,Strada Transilvaniei,120164,45.1686543,26.7827204
383,Strada Transilvaniei,120164,45.1684986,26.7828637
381,Strada Transilvaniei,120164,45.1684311,26.7829322
379,Strada Transilvaniei,120164,45.1683338,26.7830109
391,Strada Transilvaniei,120164,45.1692108,26.7821437
389,Strada Transilvaniei,120164,45.1689546,26.7824438
393,Strada Transilvaniei,120164,45.1694104,26.7819584
401,Strada Transilvaniei,120164,45.1698984,26.7814580
399,Strada Transilvaniei,120164,45.1698150,26.7815585
397,Strada Transilvaniei,120164,45.1697029,26.7816546
395,Strada Transilvaniei,120164,45.1695573,26.7818015
95B,Strada Transilvaniei,120012,45.1695010,26.7818566
421,Strada Transilvaniei,120164,45.1719926,26.7790880
419,Strada Transilvaniei,120164,45.1719348,26.7792058
417,Strada Transilvaniei,120164,45.1718522,26.7793351
415,Strada Transilvaniei,120164,45.1717711,26.7794869
2,Strada Răchitei,120163,45.1711959,26.7800089
411A,Strada Transilvaniei,120164,45.1715009,26.7798603
413,Strada Transilvaniei,120164,45.1716983,26.7796062
6,Strada Lăstunului,120162,45.1700346,26.7812083
401B,Strada Transilvaniei,120164,45.1702418,26.7811277
403,Strada Transilvaniei,120164,45.1704385,26.7808902
411,Strada Transilvaniei,120164,45.1711006,26.7802627
409,Strada Transilvaniei,120164,45.1710110,26.7803434
407,Strada Transilvaniei,120164,45.1708571,26.7804913
405,Strada Transilvaniei,120164,45.1707526,26.7806051
425,Strada Transilvaniei,120164,45.1730360,26.7759831
Bl. 5E,Strada Grâușorului,120203,45.1437290,26.8197372
Bl. 5F,Strada Grâușorului,120203,45.1436732,26.8200031
11,Strada Mărăști,120218,45.1438732,26.8216257
13,Strada Mărăști,120218,45.1439579,26.8216619
15,Strada Mărăști,120218,45.1440506,26.8217064
17,Strada Mărăști,120218,45.1441536,26.8217342
19,Strada Mărăști,120218,45.1442931,26.8217933
21,Strada Mărăști,120218,45.1443941,26.8218366
23,Strada Mărăști,120218,45.1444997,26.8218769
27,Strada Mărăști,120218,45.1447379,26.8219818
29A,Strada Mărăști,120218,45.1448350,26.8220265
29,Strada Mărăști,120218,45.1448965,26.8220325
31,Strada Mărăști,120218,45.1449658,26.8220680
33,Strada Mărăști,120218,45.1450513,26.8221014
5,Strada Grâușorului,120203,45.1437823,26.8202660
3A,Strada Grâușorului,120203,45.1438420,26.8200902
1,Strada Grâușorului,120203,45.1439182,26.8197957
1B,Strada Grâușorului,120203,45.1438754,26.8199617
3,Strada Grâușorului,120203,45.1438578,26.8200277
9,Strada Gheorghe Asachi,120222,45.1436640,26.8181756
11,Strada Gheorghe Asachi,120222,45.1437236,26.8180553
13,Strada Gheorghe Asachi,120222,45.1437899,26.8179504
17,Strada Gheorghe Asachi,120222,45.1438367,26.8178425
19,Strada Gheorghe Asachi,120222,45.1438943,26.8177289
21,Strada Gheorghe Asachi,120222,45.1439297,26.8176677
33,Strada Gheorghe Asachi,120222,45.1441750,26.8171858
31,Strada Gheorghe Asachi,120222,45.1441098,26.8173197
27,Strada Gheorghe Asachi,120222,45.1440505,26.8174469
25,Strada Gheorghe Asachi,120222,45.1439802,26.8175795
49,Strada Lunei,120068,45.1430743,26.8163128
35,Strada Lunei,120204,45.1434424,26.8156025
39,Strada Lunei,120068,45.1432673,26.8157972
37,Strada Lunei,120068,45.1433092,26.8157066
41,Strada Lunei,120068,45.1432316,26.8159289
43,Strada Lunei,120068,45.1431982,26.8160185
45,Strada Lunei,120068,45.1431622,26.8161110
47,Strada Lunei,120068,45.1430964,26.8162501
49,Strada Simion Bărnuțiu,120234,45.1437439,26.8154319
47,Strada Simion Bărnuțiu,120234,45.1437752,26.8154596
45,Strada Simion Bărnuțiu,120234,45.1438832,26.8155696
43,Strada Simion Bărnuțiu,120234,45.1439464,26.8156500
39,Strada Simion Bărnuțiu,120234,45.1440404,26.8157736
35,Strada Simion Bărnuțiu,120234,45.1441336,26.8158649
35,Strada Simion Bărnuțiu,120234,45.1441921,26.8159279
4,Fundătura Daliei,120223,45.1438608,26.8168058
2,Fundătura Daliei,120223,45.1441605,26.8170731
2A,Fundătura Daliei,120223,45.1440961,26.8169980
39,Strada Gheorghe Asachi,120222,45.1442371,26.8167946
43,Strada Gheorghe Asachi,120222,45.1442543,26.8164876
45,Strada Gheorghe Asachi,120222,45.1443119,26.8163407
47,Strada Gheorghe Asachi,120222,45.1443524,26.8162523
49,Strada Gheorghe Asachi,120222,45.1443774,26.8161584
41,Strada Gheorghe Asachi,120222,45.1442426,26.8166002
37,Strada Gheorghe Asachi,120222,45.1442239,26.8168963
35,Strada Gheorghe Asachi,120222,45.1442200,26.8169747
31,Strada Simion Bărnuțiu,120234,45.1442743,26.8160190
29,Strada Simion Bărnuțiu,120223,45.1445224,26.8163415
27,Strada Simion Bărnuțiu,120223,45.1445866,26.8164632
15,Strada Simion Bărnuțiu,120223,45.1449218,26.8174174
17,Strada Simion Bărnuțiu,120223,45.1448863,26.8173358
19,Strada Simion Bărnuțiu,120223,45.1448185,26.8171419
21,Strada Simion Bărnuțiu,120223,45.1447568,26.8169904
23,Strada Simion Bărnuțiu,120223,45.1447070,26.8168738
25,Strada Simion Bărnuțiu,120223,45.1446309,26.8165961
23B,Strada Simion Bărnuțiu,120223,45.1446545,26.8166741
28,Strada Gheorghe Asachi,120222,45.1443487,26.8168439
30,Strada Gheorghe Asachi,120222,45.1443559,26.8166457
26,Strada Gheorghe Asachi,120222,45.1443422,26.8170963
18,Strada Constantin Brâncoveanu,120223,45.1444006,26.8172271
16,Strada Constantin Brâncoveanu,120223,45.1444701,26.8173436
14,Strada Constantin Brâncoveanu,120223,45.1445098,26.8174336
12,Strada Constantin Brâncoveanu,120223,45.1445742,26.8175332
10,Strada Constantin Brâncoveanu,120223,45.1446385,26.8176401
8,Strada Constantin Brâncoveanu,120223,45.1446690,26.8176965
6,Strada Constantin Brâncoveanu,120223,45.1447173,26.8177925
4,Strada Constantin Brâncoveanu,120223,45.1447740,26.8178789
2B,Strada Constantin Brâncoveanu,120223,45.1448269,26.8179891
2A,Strada Constantin Brâncoveanu,120223,45.1449306,26.8181562
7,Strada Simion Bărnuțiu,120223,45.1451406,26.8179894
9,Strada Simion Bărnuțiu,120223,45.1450624,26.8177956
11,Strada Simion Bărnuțiu,120223,45.1449874,26.8175981
13,Strada Simion Bărnuțiu,120223,45.1449647,26.8175333
2,Strada Gheorghe Asachi,120222,45.1435381,26.8186971
2A,Strada Gheorghe Asachi,120222,45.1436104,26.8185400
2B,Strada Gheorghe Asachi,120222,45.1436495,26.8184688
18,Strada Mihail Kogălniceanu,120224,45.1441543,26.8189919
16,Strada Mihail Kogălniceanu,120224,45.1442228,26.8189280
12,Strada Mihail Kogălniceanu,120224,45.1443803,26.8187881
14,Strada Mihail Kogălniceanu,120224,45.1442910,26.8188752
10,Strada Mihail Kogălniceanu,120224,45.1444787,26.8187049
8,Strada Mihail Kogălniceanu,120224,45.1445871,26.8185928
6,Strada Mihail Kogălniceanu,120224,45.1446674,26.8185036
4,Strada Mihail Kogălniceanu,120224,45.1447340,26.8184652
2,Strada Mihail Kogălniceanu,120224,45.1447981,26.8183981
1,Strada Constantin Brâncoveanu,120223,45.1448223,26.8182314
3,Strada Constantin Brâncoveanu,120223,45.1447724,26.8181373
9B,Strada Constantin Brâncoveanu,120223,45.1444136,26.8179516
9,Strada Constantin Brâncoveanu,120223,45.1445957,26.8178289
5,Strada Constantin Brâncoveanu,120223,45.1446751,26.8179739
7,Strada Constantin Brâncoveanu,120223,45.1446353,26.8179017
11,Strada Constantin Brâncoveanu,120223,45.1445229,26.8177355
13,Strada Constantin Brâncoveanu,120223,45.1444898,26.8176742
13B,Strada Constantin Brâncoveanu,120223,45.1444312,26.8175634
15,Strada Constantin Brâncoveanu,120223,45.1442808,26.8173293
24,Strada Gheorghe Asachi,120222,45.1442333,26.8174044
22,Strada Constantin Brâncoveanu,120223,45.1443003,26.8176308
20,Strada Gheorghe Asachi,120222,45.1441865,26.8174823
18,Strada Gheorghe Asachi,120222,45.1441409,26.8175778
16,Strada Gheorghe Asachi,120222,45.1440728,26.8177048
14,Strada Gheorghe Asachi,120222,45.1439956,26.8178283
12,Strada Gheorghe Asachi,120222,45.1439383,26.8179565
10,Strada Gheorghe Asachi,120222,45.1438994,26.8180454
8,Strada Gheorghe Asachi,120222,45.1438440,26.8181355
6,Strada Gheorghe Asachi,120222,45.1437883,26.8182250
4,Strada Gheorghe Asachi,120222,45.1437252,26.8183476
33,Strada Mihail Kogălniceanu,120224,45.1442778,26.8190586
31,Strada Mihail Kogălniceanu,120224,45.1444285,26.8189167
1,Strada Patriei,120204,45.1450458,26.8198538
1A,Strada Simion Bărnuțiu,120223,45.1454723,26.8189242
11,Strada Patriei,120204,45.1453648,26.8192709
9,Strada Patriei,120204,45.1452927,26.8193825
7,Strada Patriei,120204,45.1452198,26.8195231
5,Strada Patriei,120204,45.1451609,26.8196341
3,Strada Patriei,120204,45.1451391,26.8196796
1,Strada Simion Bărnuțiu,120223,45.1454193,26.8187437
3,Strada Simion Bărnuțiu,120223,45.1453705,26.8186200
1A,Strada Mihail Kogălniceanu,120224,45.1451355,26.8182734
5,Strada Simion Bărnuțiu,120223,45.1452853,26.8183985
1,Strada Mihail Kogălniceanu,120224,45.1450362,26.8183717
3,Strada Mihail Kogălniceanu,120224,45.1449648,26.8184338
5,Strada Mihail Kogălniceanu,120224,45.1448749,26.8185215
9,Strada Mihail Kogălniceanu,120224,45.1448682,26.8187905
7,Strada Mihail Kogălniceanu,120224,45.1447874,26.8186131
11,Strada Mihail Kogălniceanu,120224,45.1447280,26.8186710
13,Strada Mihail Kogălniceanu,120224,45.1446879,26.8187152
21,Strada Mihail Kogălniceanu,120224,45.1446300,26.8187629
25,Strada Mihail Kogălniceanu,120224,45.1445850,26.8188114
27,Strada Mihail Kogălniceanu,120224,45.1445313,26.8188572
65,Strada Independenței,120204,45.1470377,26.8169131
63,Strada Independenței,120204,45.1472591,26.8171262
55,Strada Independenței,120204,45.1478431,26.8176576
57,Strada Independenței,120204,45.1477080,26.8175461
61,Strada Independenței,120204,45.1474437,26.8172912
59,Strada Independenței,120204,45.1476158,26.8174728
30B,Strada Patriei,120204,45.1465962,26.8174480
30,Strada Patriei,120204,45.1465334,26.8175589
28,Strada Patriei,120204,45.1464538,26.8177016
26,Strada Patriei,120204,45.1463850,26.8178284
24B,Strada Patriei,120204,45.1463021,26.8180123
24,Strada Patriei,120204,45.1462561,26.8181090
22,Strada Patriei,120204,45.1461893,26.8182149
20B,Strada Patriei,120204,45.1461312,26.8183551
20,Strada Patriei,120204,45.1460585,26.8184746
18,Strada Patriei,120204,45.1460055,26.8185519
2,Strada Patriei,120204,45.1451807,26.8198735
4,Strada Patriei,120204,45.1452552,26.8197526
2A,Strada Patriei,120204,45.1452110,26.8198269
16,Strada Patriei,120204,45.1456591,26.8190992
14,Strada Patriei,120204,45.1455307,26.8193119
12,Strada Patriei,120204,45.1454644,26.8194190
10,Strada Patriei,120204,45.1454269,26.8194751
8,Strada Patriei,120204,45.1453585,26.8195771
6,Strada Patriei,120204,45.1453078,26.8196709
31,Bulevardul Republicii,120219,45.1436871,26.8315342
29,Bulevardul Republicii,120219,45.1436779,26.8314016
25,Bulevardul Republicii,120219,45.1436558,26.8309533
27,Bulevardul Republicii,120219,45.1436712,26.8311355
21B,Bulevardul Republicii,120219,45.1436499,26.8306538
23,Bulevardul Republicii,120219,45.1436569,26.8307755
19B,Bulevardul Republicii,120219,45.1436289,26.8303769
21,Bulevardul Republicii,120219,45.1436350,26.8305270
2,Strada Tenor Leonard,120218,45.1440154,26.8304855
2A,Strada Tenor Leonard,120218,45.1441662,26.8306262
2B,Strada Tenor Leonard,120218,45.1442803,26.8307093
4,Strada Tenor Leonard,120218,45.1443605,26.8307947
16,Strada Oilor,120213,45.1438273,26.8315127
14A,Strada Oilor,120213,45.1439264,26.8314995
14,Strada Oilor,120213,45.1440288,26.8314911
10,Strada Oilor,120213,45.1441279,26.8315704
8,Strada Tenor Leonard,120218,45.1445895,26.8310159
6,Strada Tenor Leonard,120218,45.1445078,26.8309423
14,Strada Tenor Leonard,120218,45.1448483,26.8312494
12,Strada Tenor Leonard,120218,45.1448072,26.8312108
10,Strada Tenor Leonard,120218,45.1447127,26.8311168
8,Strada Oilor,120213,45.1441925,26.8316744
6,Strada Oilor,120213,45.1442484,26.8317568
4,Strada Oilor,120213,45.1443262,26.8318711
2,Strada Oilor,120213,45.1443878,26.8319562
42,Strada Libertății,120212,45.1446996,26.8323376
2B,Strada Oilor,120213,45.1444602,26.8320269
40,Strada Libertății,120212,45.1448018,26.8321757
32,Strada Libertății,120212,45.1451297,26.8316162
16,Strada Tenor Leonard,120218,45.1450049,26.8313885
34,Strada Libertății,120212,45.1450842,26.8317077
34A,Strada Libertății,120212,45.1450355,26.8317922
36,Strada Libertății,120212,45.1449815,26.8318895
38,Strada Libertății,120212,45.1449167,26.8320029
40,Strada Libertății,120212,45.1448715,26.8320762
33,Bulevardul Republicii,120219,45.1436975,26.8318124
35,Bulevardul Republicii,120219,45.1437147,26.8319718
39,Bulevardul Republicii,120219,45.1437439,26.8322632
41,Bulevardul Republicii,120219,45.1437406,26.8324176
1,Strada Oilor,120213,45.1441984,26.8318971
3,Strada Oilor,120213,45.1442813,26.8320116
3A,Strada Oilor,120213,45.1443976,26.8321903
44,Strada Libertății,120212,45.1445926,26.8325244
46,Strada Libertății,120212,45.1444463,26.8327989
44A,Strada Libertății,120212,45.1445178,26.8326653
48,Strada Libertății,120212,45.1443831,26.8329034
50,Strada Libertății,120212,45.1443426,26.8329830
43,Bulevardul Republicii,120219,45.1437534,26.8326691
47,Bulevardul Republicii,120219,45.1437612,26.8329191
45,Bulevardul Republicii,120219,45.1437589,26.8327601
51,Bulevardul Republicii,120219,45.1437714,26.8331754
49,Bulevardul Republicii,120219,45.1437682,26.8330438
53,Bulevardul Republicii,120219,45.1437782,26.8337433
53B,Bulevardul Republicii,120219,45.1438099,26.8335218
52,Strada Libertății,120212,45.1442875,26.8330978
54,Strada Libertății,120212,45.1441627,26.8332879
56,Strada Libertății,120212,45.1440169,26.8335377
6,Strada Ostrovului,120188,45.1527113,26.8188060
111C,Strada Independenței,120234,45.1440206,26.8141044
19B,Strada Lunei,120204,45.1439092,26.8142312
23,Strada Lunei,120204,45.1437955,26.8145011
21,Strada Lunei,120204,45.1438485,26.8143725
25,Strada Lunei,120204,45.1437425,26.8146316
27,Strada Lunei,120204,45.1437104,26.8147561
29,Strada Lunei,120204,45.1437118,26.8148826
62,Strada Simion Bărnuțiu,120234,45.1437335,26.8151693
111B,Strada Independenței,120234,45.1441646,26.8142201
111A,Strada Independenței,120234,45.1442476,26.8143040
60,Strada Simion Bărnuțiu,120234,45.1438826,26.8153725
58,Strada Simion Bărnuțiu,120234,45.1439588,26.8154510
56,Strada Simion Bărnuțiu,120234,45.1440652,26.8155785
40,Strada Simion Bărnuțiu,120223,45.1444946,26.8160452
42,Strada Simion Bărnuțiu,120223,45.1444332,26.8159798
1,Fundătura Rozelor,120225,45.1446828,26.8156422
2,Fundătura Rozelor,120225,45.1447687,26.8156734
2B,Fundătura Rozelor,120225,45.1448190,26.8157873
3,Fundătura Rozelor,120225,45.1448313,26.8158948
44,Strada Simion Bărnuțiu,120223,45.1443837,26.8159300
46,Strada Simion Bărnuțiu,120223,45.1443435,26.8158820
54,Strada Simion Bărnuțiu,120234,45.1441078,26.8156238
52,Strada Simion Bărnuțiu,120234,45.1441696,26.8156982
50,Strada Simion Bărnuțiu,120234,45.1442246,26.8157714
28,Strada Simion Bărnuțiu,120223,45.1448398,26.8168842
24,Strada Simion Bărnuțiu,120223,45.1448947,26.8170700
30,Strada Simion Bărnuțiu,120223,45.1448072,26.8167890
32,Strada Simion Bărnuțiu,120223,45.1447665,26.8166576
34,Strada Simion Bărnuțiu,120223,45.1446913,26.8164410
34,Strada Simion Bărnuțiu,120223,45.1447154,26.8165034
93,Strada Independenței,120234,45.1453144,26.8152303
95,Strada Independenței,120234,45.1452240,26.8151517
97,Strada Independenței,120234,45.1451483,26.8150692
99,Strada Independenței,120234,45.1450806,26.8150065
101,Strada Independenței,120234,45.1450348,26.8149726
101B,Strada Independenței,120234,45.1449538,26.8149019
103,Strada Independenței,120234,45.1448916,26.8148510
105,Strada Independenței,120234,45.1447937,26.8147589
5,Fundătura Viorelelor,120226,45.1456721,26.8166695
1,Fundătura Viorelelor,120226,45.1455309,26.8168406
3,Fundătura Viorelelor,120226,45.1455951,26.8167332
16,Strada Zimbrului,120226,45.1453458,26.8171241
16B,Strada Zimbrului,120226,45.1453000,26.8170369
18,Strada Zimbrului,120226,45.1452276,26.8169336
20,Strada Zimbrului,120226,45.1451007,26.8167405
22,Strada Zimbrului,120226,45.1451561,26.8168112
24,Strada Zimbrului,120226,45.1450454,26.8166930
Bl. C12,Strada Frăsinet,120044,45.1593593,26.8230665
Bl. C11,Strada Frăsinet,120044,45.1595489,26.8224338
Bl. B16,Strada Frăsinet,120044,45.1594903,26.8228451
Bl. C10,Strada Frăsinet,120044,45.1598110,26.8225050
Bl. C14,Strada Frăsinet,120044,45.1594708,26.8238416
Bl. C13,Strada Frăsinet,120044,45.1592171,26.8237348
Bl. B21,Strada Chiristigii,120024,45.1580619,26.8232818
Bl.C20,Strada Chiristigii,120024,45.1582682,26.8236614
Bl. C21,Strada Chiristigii,120024,45.1584383,26.8235784
Bl. 7B,Strada Grâușorului,120203,45.1441522,26.8208686
Bl. 7A,Strada Mărăști,120194,45.1441729,26.8211780
Bl. 6A,Strada Mărăști,120194,45.1438215,26.8213083
Bloc 6B,Strada Mărăști,120194,45.1435826,26.8214158
Bl. 6D,Bulevardul 1 Decembrie 1918,120200,45.1433032,26.8211330
Bl. 5A,Bulevardul 1 Decembrie 1918,120200,45.1432052,26.8196989
Bl. 25A,Strada Independenței,120195,45.1429968,26.8125534
Bl. 25B,Strada Independenței,120195,45.1428612,26.8124133
Bl. 25C,Bulevardul 1 Decembrie 1918,120200,45.1427716,26.8122505
Bl. 25D,Bulevardul 1 Decembrie 1918,120200,45.1427464,26.8120095
Bl. 25E,Bulevardul 1 Decembrie 1918,120200,45.1427349,26.8117066
Bl. 28C,Strada Independenței,120195,45.1435090,26.8130679
Bl. 1F,Strada Independenței,120195,45.1432931,26.8135206
Bl. 1G,Strada Independenței,120195,45.1435136,26.8136932
Bl. 1A,Bulevardul 1 Decembrie 1918,120200,45.1429118,26.8144846
Bl. 1B,Bulevardul 1 Decembrie 1918,120200,45.1428980,26.8140905
Bl. 1C,Bulevardul 1 Decembrie 1918,120200,45.1428888,26.8136378
Bl. 1D,Bulevardul 1 Decembrie 1918,120200,45.1428796,26.8132601
Bl. 2A,Strada Lunei,120068,45.1431914,26.8154108
Bl. 2B,Bulevardul 1 Decembrie 1918,120200,45.1429586,26.8154116
Bl. 2C,Bulevardul 1 Decembrie 1918,120200,45.1429258,26.8150339
Bl. 2D,Strada Lunei,120068,45.1434837,26.8147647
Bl. 2E,Strada Lunei,120068,45.1435113,26.8150513
Bl. 2F,Strada Lunei,120068,45.1435021,26.8153900
Bl.  1C,Strada Patriei,120204,45.1483915,26.8131454
Bl.  1D,Strada Patriei,120204,45.1481530,26.8128883
Bl.  1E,Strada Patriei,120204,45.1479829,26.8126965
Bl.  1F,Strada Patriei,120204,45.1478351,26.8126016
Bl. 3A,Aleea Insulei,120204,45.1489715,26.8118646
Bl. 3B,Strada Patriei,120204,45.1491599,26.8119623
Bl. 3D,Strada Patriei,120204,45.1493988,26.8115682
Bl. 3E,Bulevardul Spiru Haret,120242,45.1494033,26.8113598
Bl. 3F,Bulevardul Spiru Haret,120242,45.1492173,26.8112100
Bl. 2B,Strada Patriei,120204,45.1488199,26.8126560
Bl. 2A,Strada Patriei,120204,45.1487005,26.8128644
Bl. 2D,Aleea Insulei,120204,45.1487970,26.8122261
Bl. 5A,Strada Ciochinescu,120242,45.1479206,26.8105413
Bl. 5B,Strada Ciochinescu,120242,45.1477874,26.8107595
Bl. 5AC,Strada Ciochinescu,120242,45.1478081,26.8110005
Bl. 5D,Strada Ciochinescu,120242,45.1479206,26.8111829
Bl. 4C,Bulevardul Spiru Haret,120242,45.1483846,26.8108051
Bl. 4D,Bulevardul Spiru Haret,120242,45.1482008,26.8107367
Bl. 4A,Bulevardul Spiru Haret,120242,45.1488830,26.8110493
Bl.4B,Bulevardul Spiru Haret,120242,45.1486947,26.8109972
Bl. 11A,Strada Ciochinescu,120242,45.1474612,26.8107367
Bl. 11B,Strada Ciochinescu,120242,45.1475293,26.8103691
Bl. 11C,Bulevardul Spiru Haret,120242,45.1473744,26.8102664
Bl. 13A,Bulevardul Spiru Haret,120242,45.1470465,26.8101149
Bl. 13B,Bulevardul Spiru Haret,120242,45.1468220,26.8100220
Bl. 12C,Strada Unirii,120191,45.1470368,26.8104847
Bl.17A,Strada Unirii,120191,45.1459379,26.8105242
Bl.17B,Strada Unirii,120191,45.1461164,26.8106883
Bl. 18B,Strada Unirii,120191,45.1455726,26.8101624
Bl. 18C,Strada Unirii,120191,45.1457106,26.8102949
Bl. 18A,Strada Ciucurete,120241,45.1454596,26.8103562
Bl. 15B,Strada Ciucurete,120241,45.1458250,26.8094743
Bl. 15C,Strada Ciucurete,120241,45.1457357,26.8097689
Bl. 13C,Bulevardul Spiru Haret,120242,45.1465422,26.8098228
Bl. 13B,Bulevardul Spiru Haret,120242,45.1463383,26.8097169
Bl. 14A,Strada Unirii,120191,45.1466278,26.8106568
Bl. 14B,Strada Unirii,120191,45.1464923,26.8105363
Bl. 14C,Strada Unirii,120191,45.1463269,26.8103637
Bl. 14D,Strada Unirii,120191,45.1462075,26.8102628
Bl. 3A,Bulevardul 1 Decembrie 1918,120200,45.1432233,26.8176771
Bl. 3F,Bulevardul 1 Decembrie 1918,120200,45.1434094,26.8174426
Bl. 4C,Bulevardul 1 Decembrie 1918,120200,45.1431246,26.8180939
Bl. 4B,Bulevardul 1 Decembrie 1918,120200,45.1431337,26.8184294
Bl. D2,Strada Traian Vuia,120262,45.1456760,26.8049941
Bl. 109 C1,Aleea Tineretului,120262,45.1440917,26.8069403
Bl. 109 C2,Aleea Tineretului,120262,45.1439588,26.8071788
Bl. 77A,Strada Traian Vuia,120262,45.1444493,26.8060210
Bl. E1,Strada Traian Vuia,120262,45.1462663,26.8054689
Bl. E2,Strada Zambilelor,120262,45.1462043,26.8057262
Bl. F1,Strada Traian Vuia,120262,45.1462801,26.8062831
Bl.F2,Strada Traian Vuia,120262,45.1462607,26.8065793
Bl. 2,Bulevardul Nicolae Bălcescu,120187,45.1486665,26.8050830
Bl. 4,Bulevardul Nicolae Bălcescu,120187,45.1496621,26.8064432
Bl. 5,Bulevardul Nicolae Bălcescu,120187,45.1500107,26.8071748
Bl. 4A1,Strada Vlăsiei,120133,45.1500151,26.8060585
Bl. 4A2,Bulevardul Nicolae Bălcescu,120187,45.1499559,26.8062866
Bl. B2,Strada Vlăsiei,120133,45.1504981,26.8043570
Bl. B3,Strada Vlăsiei,120133,45.1505316,26.8046772
Bl. B4,Strada Vlăsiei,120133,45.1501523,26.8045705
Bl. B5,Strada Caraiman,120131,45.1499069,26.8046338
7,Strada Cuza Vodă,120038,45.1537478,26.8220542
9,Strada Cuza Vodă,120038,45.1537760,26.8221447
11,Strada Cuza Vodă,120038,45.1538191,26.8222705
17,Strada Cuza Vodă,120038,45.1539391,26.8225853
15,Strada Cuza Vodă,120038,45.1539063,26.8225111
13,Strada Cuza Vodă,120038,45.1538540,26.8223797
22,Strada Cuza Vodă,120038,45.1535256,26.8222035
24,Strada Cuza Vodă,120038,45.1535605,26.8223024
30,Strada Cuza Vodă,120038,45.1536491,26.8225447
26,Strada Cuza Vodă,120038,45.1535953,26.8223973
28,Strada Cuza Vodă,120038,45.1536197,26.8224685
40,Strada Cuza Vodă,120038,45.1537271,26.8227602
36-38,Strada Cuza Vodă,120038,45.1537104,26.8227098
32-34,Strada Cuza Vodă,120038,45.1536769,26.8226238
Bl. A1,Strada Cuza Vodă,120038,45.1537711,26.8228640
Bl. A2,Strada Cuza Vodă,120038,45.1536414,26.8229486
Bl. B1,Strada Ion Băieșu,120037,45.1532863,26.8235070
Bl. B2,Strada Cuza Vodă,120038,45.1534622,26.8233782
Bl. A3,Strada Cuza Vodă,120038,45.1537384,26.8232629
Bl. A4,Strada Cuza Vodă,120038,45.1539389,26.8232709
Bl. A5,Strada Cuza Vodă,120038,45.1540032,26.8234319
Bl. A6,Strada Cuza Vodă,120038,45.1539710,26.8236250
Bl. A7,Strada Cuza Vodă,120038,45.1540335,26.8237967
Bl. A8,Strada Napoca,120039,45.1541148,26.8239871
98,Strada Cuza Vodă,120038,45.1542169,26.8236840
96,Strada Cuza Vodă,120038,45.1542813,26.8236545
94,Strada Cuza Vodă,120038,45.1543626,26.8236250
92,Strada Cuza Vodă,120038,45.1544246,26.8236284
90,Strada Cuza Vodă,120038,45.1546614,26.8238235
82,Strada Cuza Vodă,120038,45.1546221,26.8237799
84,Strada Cuza Vodă,120038,45.1545946,26.8237522
86,Strada Cuza Vodă,120038,45.1545681,26.8237310
88,Strada Cuza Vodă,120038,45.1545280,26.8236920
90,Strada Cuza Vodă,120038,45.1544786,26.8236561
57,Strada Cuza Vodă,120038,45.1546864,26.8235633
55,Strada Cuza Vodă,120038,45.1546141,26.8235079
25,Strada Cuza Vodă,120038,45.1540365,26.8228326
31,Strada Cuza Vodă,120038,45.1541048,26.8230096
35,Strada Cuza Vodă,120038,45.1541511,26.8231179
37,Strada Cuza Vodă,120038,45.1541959,26.8231749
43-45,Strada Cuza Vodă,120038,45.1542970,26.8232628
41,Strada Cuza Vodă,120038,45.1542453,26.8232238
53,Strada Cuza Vodă,120038,45.1545014,26.8234078
51,Strada Cuza Vodă,120038,45.1543820,26.8233215
Bl. 4A,Strada Oltețului,120039,45.1547544,26.8223358
Bl. D1,Strada Ion Băieșu,120037,45.1526655,26.8239154
Bl. D2,Strada Ion Băieșu,120037,45.1527430,26.8241139
Bl. D4,Strada Ion Băieșu,120037,45.1529549,26.8246101
Bl. D3,Strada Ion Băieșu,120037,45.1528641,26.8244116
Bl. C1,Strada Ion Băieșu,120037,45.1531497,26.8234997
Bl. C2,Strada Ion Băieșu,120037,45.1529681,26.8236123
Bl. C3,Strada Ion Băieșu,120037,45.1530703,26.8238886
67,Strada Independenței,120204,45.1467324,26.8166201
33,Strada Patriei,120204,45.1464979,26.8173319
37,Strada Patriei,120204,45.1466012,26.8170990
35,Strada Patriei,120204,45.1465476,26.8172089
31,Strada Patriei,120204,45.1463367,26.8176050
29,Strada Patriei,120204,45.1462309,26.8178642
27,Strada Patriei,120204,45.1461663,26.8179956
4,Strada Zimbrului,120226,45.1459042,26.8177903
2,Strada Zimbrului,120226,45.1459561,26.8178508
6,Strada Zimbrului,120226,45.1458440,26.8177050
6B,Strada Zimbrului,120226,45.1458024,26.8176434
8,Strada Zimbrului,120226,45.1457510,26.8175924
10,Strada Zimbrului,120226,45.1457119,26.8175451
12,Strada Zimbrului,120226,45.1456595,26.8174773
12B,Strada Zimbrului,120226,45.1455592,26.8173533
14,Strada Zimbrului,120226,45.1454446,26.8172258
69,Strada Independenței,120234,45.1465728,26.8164629
71,Strada Independenței,120234,45.1464582,26.8163738
73,Strada Independenței,120234,45.1463248,26.8162412
75,Strada Independenței,120234,45.1462244,26.8161483
81,Strada Independenței,120234,45.1458784,26.8158104
79,Strada Independenței,120234,45.1459772,26.8159123
77,Strada Independenței,120234,45.1460942,26.8160181
83,Strada Independenței,120234,45.1457551,26.8156831
85,Strada Independenței,120234,45.1456717,26.8156159
87,Strada Independenței,120234,45.1455680,26.8155135
91,Strada Independenței,120234,45.1454605,26.8154057
91B,Strada Independenței,120234,45.1453737,26.8153086
89,Strada Independenței,120234,45.1455204,26.8154723
25,Strada Patriei,120204,45.1460172,26.8182395
23,Strada Patriei,120204,45.1459593,26.8183385
21,Strada Patriei,120204,45.1458878,26.8184459
19,Strada Patriei,120204,45.1458004,26.8185739
15,Strada Patriei,120204,45.1457407,26.8186616
13,Strada Patriei,120204,45.1456624,26.8187757
6,Strada Simion Bărnuțiu,120223,45.1453717,26.8182784
4,Strada Simion Bărnuțiu,120223,45.1454212,26.8184218
2,Strada Simion Bărnuțiu,120223,45.1454491,26.8184969
17,Strada Zimbrului,120226,45.1452133,26.8170905
15,Strada Zimbrului,120226,45.1453155,26.8172566
11,Strada Zimbrului,120226,45.1454427,26.8174072
9,Strada Zimbrului,120226,45.1455092,26.8174962
7,Strada Zimbrului,120226,45.1455859,26.8175793
5,Strada Zimbrului,120226,45.1456912,26.8176841
3,Strada Zimbrului,120226,45.1457384,26.8177659
1,Strada Zimbrului,120226,45.1458074,26.8178499
10,Strada Simion Bărnuțiu,120223,45.1452787,26.8180232
8,Strada Simion Bărnuțiu,120223,45.1453108,26.8181211
12,Strada Simion Bărnuțiu,120223,45.1452263,26.8179094
12B,Strada Simion Bărnuțiu,120223,45.1451949,26.8178026
14,Strada Simion Bărnuțiu,120223,45.1451631,26.8176671
16,Strada Simion Bărnuțiu,120223,45.1451338,26.8175900
18,Strada Simion Bărnuțiu,120223,45.1451017,26.8174951
20,Strada Simion Bărnuțiu,120223,45.1450647,26.8173834
22,Strada Simion Bărnuțiu,120223,45.1450236,26.8172954
136,Strada Alexandru Marghiloman,120107,45.1495866,26.8352166
138,Strada Alexandru Marghiloman,120107,45.1494867,26.8353150
140,Strada Alexandru Marghiloman,120107,45.1493724,26.8354518
144,Strada Alexandru Marghiloman,120107,45.1491938,26.8356667
142,Strada Alexandru Marghiloman,120107,45.1492883,26.8355730
149,Strada Alexandru Marghiloman,120107,45.1497482,26.8353369
177,Strada Alexandru Marghiloman,120107,45.1485294,26.8369110
179,Strada Alexandru Marghiloman,120107,45.1484634,26.8370022
175,Strada Alexandru Marghiloman,120107,45.1486225,26.8367453
171,Strada Alexandru Marghiloman,120107,45.1487461,26.8365881
169,Strada Alexandru Marghiloman,120107,45.1488206,26.8364825
167,Strada Alexandru Marghiloman,120107,45.1488860,26.8363845
165,Strada Alexandru Marghiloman,120107,45.1489897,26.8362310
163,Strada Alexandru Marghiloman,120107,45.1491368,26.8360129
161,Strada Alexandru Marghiloman,120107,45.1492130,26.8359346
151,Strada Alexandru Marghiloman,120107,45.1496036,26.8354878
153,Strada Alexandru Marghiloman,120107,45.1495250,26.8355505
155,Strada Alexandru Marghiloman,120107,45.1494731,26.8356175
157,Strada Alexandru Marghiloman,120107,45.1493780,26.8357385
159,Strada Alexandru Marghiloman,120107,45.1493225,26.8358106
56,Strada Agriculturii,120055,45.1448116,26.8340267
58,Strada Agriculturii,120055,45.1447286,26.8341851
60,Strada Agriculturii,120055,45.1446431,26.8343585
62,Strada Agriculturii,120055,45.1445794,26.8344594
64,Strada Agriculturii,120055,45.1445279,26.8345724
66,Strada Agriculturii,120055,45.1444786,26.8346635
72B,Strada Agriculturii,120055,45.1442413,26.8350965
74,Strada Agriculturii,120055,45.1441358,26.8353389
78,Strada Agriculturii,120055,45.1440710,26.8354727
76,Strada Agriculturii,120055,45.1440960,26.8354318
68,Strada Agriculturii,120055,45.1444215,26.8347710
70,Strada Agriculturii,120055,45.1443535,26.8348718
72,Strada Agriculturii,120055,45.1443042,26.8349656
8,Strada Vulturului,120058,45.1446163,26.8337614
6,Strada Vulturului,120058,45.1445178,26.8336819
109,Strada Libertății,120212,45.1442153,26.8334681
2,Strada Vulturului,120058,45.1443701,26.8335262
4,Strada Vulturului,120058,45.1444537,26.8336227
61,Bulevardul Republicii,120219,45.1438233,26.8347322
59,Bulevardul Republicii,120219,45.1438450,26.8345342
119,Strada Libertății,120212,45.1439159,26.8340256
55,Bulevardul Republicii,120219,45.1438542,26.8341742
117,Strada Libertății,120212,45.1439837,26.8339133
111,Strada Libertății,120212,45.1441575,26.8335942
113,Strada Libertății,120212,45.1441061,26.8336729
115,Strada Libertății,120212,45.1440444,26.8337836
63,Bulevardul Republicii,120219,45.1438364,26.8349941
52,Strada Triumfului,120214,45.1457549,26.8310437
54,Strada Triumfului,120214,45.1458267,26.8311835
1,Strada Petru Maior,120213,45.1456894,26.8312684
10,Strada Petru Maior,120213,45.1458760,26.8317843
56,Strada Triumfului,120214,45.1459094,26.8313248
58,Strada Triumfului,120214,45.1461126,26.8316593
60,Strada Triumfului,120214,45.1462132,26.8318269
62,Strada Triumfului,120214,45.1462763,26.8319031
64,Strada Triumfului,120214,45.1463570,26.8320343
66,Strada Triumfului,120214,45.1464335,26.8321851
18,Strada Agriculturii,120055,45.1464491,26.8323762
20,Strada Agriculturii,120055,45.1463704,26.8324060
20B,Strada Agriculturii,120055,45.1462776,26.8324388
22,Strada Agriculturii,120055,45.1462143,26.8324589
24,Strada Agriculturii,120055,45.1460833,26.8325072
26,Strada Agriculturii,120055,45.1460230,26.8325281
28,Strada Agriculturii,120055,45.1459076,26.8325603
30,Strada Agriculturii,120055,45.1458150,26.8325948
34,Strada Agriculturii,120055,45.1455949,26.8326699
32,Strada Agriculturii,120055,45.1456564,26.8326434
32B,Strada Agriculturii,120055,45.1457374,26.8326224
34B,Strada Agriculturii,120055,45.1454930,26.8327940
36,Strada Agriculturii,120055,45.1454485,26.8328718
38,Strada Agriculturii,120055,45.1453814,26.8329684
40,Strada Agriculturii,120055,45.1453161,26.8331011
42,Strada Agriculturii,120055,45.1452387,26.8332572
44,Strada Agriculturii,120055,45.1451871,26.8333598
46,Strada Agriculturii,120055,45.1451370,26.8334503
48,Strada Agriculturii,120055,45.1450711,26.8335665
50,Strada Agriculturii,120055,45.1450237,26.8336512
5,Strada Vulturului,120058,45.1447825,26.8337867
3,Strada Vulturului,120058,45.1446664,26.8336629
52,Strada Agriculturii,120055,45.1450053,26.8336950
54,Strada Agriculturii,120055,45.1449624,26.8337679
1,Strada Vulturului,120058,45.1445407,26.8335100
69,Strada Libertății,120212,45.1456687,26.8309863
2,Strada Petru Maior,120213,45.1456620,26.8314435
71,Strada Petru Maior,120213,45.1455523,26.8312276
4,Strada Petru Maior,120213,45.1457160,26.8315327
6,Strada Petru Maior,120213,45.1457628,26.8316320
8,Strada Petru Maior,120213,45.1458238,26.8317520
73,Strada Libertății,120212,45.1453935,26.8314385
75,Strada Libertății,120212,45.1453574,26.8314888
77,Strada Libertății,120212,45.1453091,26.8315922
79,Strada Libertății,120212,45.1452655,26.8316662
81,Strada Libertății,120212,45.1452296,26.8317419
83,Strada Libertății,120212,45.1452000,26.8317861
85,Strada Libertății,120212,45.1451454,26.8318545
91,Strada Libertății,120212,45.1450237,26.8320691
85A,Strada Libertății,120212,45.1451103,26.8319082
89,Strada Libertății,120212,45.1450757,26.8319625
99,Strada Libertății,120212,45.1446922,26.8326740
97,Strada Libertății,120212,45.1447352,26.8325982
95,Strada Libertății,120212,45.1447988,26.8324868
93,Strada Libertății,120212,45.1448654,26.8323557
101,Strada Libertății,120212,45.1446348,26.8327628
103,Strada Libertății,120212,45.1445538,26.8329069
105,Strada Libertății,120212,45.1444830,26.8330268
107,Strada Libertății,120212,45.1444201,26.8331505
107B,Strada Libertății,120212,45.1443594,26.8332856
Bl. 34,Strada Agriculturii,120055,45.1470135,26.8333667
Bl. 35,Strada Agriculturii,120055,45.1468073,26.8334338
Bl. 36,Strada Agriculturii,120055,45.1466560,26.8330315
Bl. 37,Strada Agriculturii,120055,45.1464611,26.8330610
Bl. 28,Strada Agriculturii,120055,45.1450518,26.8358125
Bl. 29,Strada Agriculturii,120055,45.1450456,26.8355121
Bl. 33H,Strada Luceafărului,120081,45.1471125,26.8404280
Bl. 33I,Strada Luceafărului,120081,45.1472809,26.8405675
Bl. 33J,Strada Luceafărului,120081,45.1474511,26.8407257
Bl. 33A,Strada Luceafărului,120081,45.1476195,26.8405514
Bl. 33B,Strada Luceafărului,120081,45.1477217,26.8402939
Bl. 33C,Strada Columbelor,120089,45.1476384,26.8400740
Bl. 33D,Strada Columbelor,120089,45.1474776,26.8399211
Bl. 33E,Strada Columbelor,120089,45.1473168,26.8398084
Bl. 32B,Strada Luceafărului,120081,45.1489494,26.8412327
Bl. 32A,Strada Luceafărului,120081,45.1488907,26.8414580
Bl. 32M,Strada Luceafărului,120081,45.1487110,26.8417182
Bl. 32L,Strada Luceafărului,120081,45.1485162,26.8416001
Bl. 32C,Strada Columbelor,120089,45.1488124,26.8410657
Bl. 32D,Strada Columbelor,120089,45.1486080,26.8409322
Bl. 32G,Strada Columbelor,120089,45.1481446,26.8405281
Bl. 32F,Strada Columbelor,120089,45.1483092,26.8406649
Bl. 32K,Strada Luceafărului,120081,45.1482127,26.8413515
Bl. 32J,Strada Luceafărului,120081,45.1479763,26.8411450
Bl. 32I,Strada Luceafărului,120081,45.1477719,26.8409867
Bl. 32H1,Strada Luceafărului,120081,45.1479554,26.8404610
Bl. 32H2,Strada Luceafărului,120081,45.1478665,26.8406756
Bl. 29/2,Strada Dorobanți,120077,45.1477929,26.8387580
Bl. 29/3,Strada Dorobanți,120077,45.1476340,26.8389779
Bl. 28/1,Strada Dorobanți,120077,45.1481240,26.8393534
Bl. 28/2,Strada Dorobanți,120077,45.1480332,26.8395948
Bl. 28/3,Strada Columbelor,120089,45.1479386,26.8397987
Bl. 22/1,Strada Dorobanți,120077,45.1483695,26.8395251
Bl. 22/2,Strada Dorobanți,120077,45.1482696,26.8397726
Bl. 22/3,Strada Dorobanți,120077,45.1481582,26.8400348
Bl. 22/4,Strada Columbelor,120089,45.1483339,26.8402010
Bl. 22/5,Strada Columbelor,120089,45.1485888,26.8400592
Bl. 22/6,Strada Luceafărului,120081,45.1486865,26.8398263
Bl. 21,Strada Columbelor,120089,45.1487795,26.8405493
Bl. 27/1,Strada Dorobanți,120077,45.1480102,26.8385184
Bl. 27/2,Strada Dorobanți,120077,45.1481237,26.8387571
Bl. 27/3,Strada Dorobanți,120077,45.1482693,26.8389127
Bl. 27/6,Strada Dorobanți,120077,45.1485796,26.8382180
Bl. 27/7,Strada Dorobanți,120077,45.1484207,26.8379766
Bl. 26/3,Strada Dorobanți,120077,45.1488633,26.8381590
Bl. 26/4,Strada Dorobanți,120077,45.1490203,26.8379524
Bl. 26/5,Strada Dorobanți,120077,45.1491546,26.8377459
Bl. 23/2,Strada Dorobanți,120077,45.1492587,26.8381536
Bl. 23/4,Strada Dorobanți,120077,45.1491565,26.8383601
Bl. 26/6,Strada Dorobanți,120077,45.1490752,26.8374884
Bl. 26/7,Strada Dorobanți,120077,45.1489447,26.8373006
Bl. 16/1,Strada Dorobanți,120077,45.1501779,26.8387941
Bl. 16/2,Strada Dorobanți,120077,45.1502252,26.8385339
Bl. 16/3,Strada Dorobanți,120077,45.1502536,26.8382657
Bl. 16/4,Strada Dorobanți,120077,45.1500417,26.8382067
Bl. 16/5,Strada Dorobanți,120077,45.1498279,26.8381503
Bl. 17/3,Strada Dorobanți,120077,45.1500697,26.8396045
Bl. 17/4,Strada Dorobanți,120077,45.1501099,26.8392789
Bl. 19/1,Strada Luceafărului,120081,45.1495265,26.8398728
Bl. 19/2,Strada Luceafărului,120081,45.1494868,26.8401598
Bl. 18/4,Strada Dorobanți,120077,45.1499786,26.8402563
Bl. 18/3,Strada Dorobanți,120077,45.1499597,26.8405299
Bl. 31A,Strada Leului,120107,45.1502244,26.8369315
Bl. 31B,Strada Leului,120107,45.1501734,26.8372856
Bl. 25/1,Strada Dorobanți,120077,45.1495642,26.8367786
Bl. 25/3,Strada Dorobanți,120077,45.1496740,26.8369530
Bl. 24/3,Strada Dorobanți,120077,45.1492502,26.8372131
Bl. 24/4,Strada Dorobanți,120077,45.1493978,26.8374250
Bl. 15C1,Strada Dorobanți,120077,45.1498764,26.8377523
Bl. 15C2,Strada Dorobanți,120077,45.1501298,26.8378166
Bl. 15B1,Strada Leului,120107,45.1503190,26.8378435
Bl. 15B,Strada Leului,120107,45.1503701,26.8375457
Bl. 6B,Aleea Sporturilor,120099,45.1504779,26.8357111
Bl. 6C,Strada Leului,120107,45.1505782,26.8359471
Bl. 6D,Strada Leului,120107,45.1505479,26.8362824
Bl. 6D1,Strada Leului,120107,45.1505063,26.8366231
Bl. E4,Aleea Sporturilor,120099,45.1508060,26.8348687
Bl. E5,Strada Alexandru Marghiloman,120031,45.1509649,26.8345629
Bl. 7A,Strada Leului,120107,45.1508447,26.8361096
Bl. 7A1,Strada Leului,120107,45.1507955,26.8364691
Bl. 7B1,Aleea Sporturilor,120099,45.1511118,26.8359953
Bl. 13/1,Strada Leului,120107,45.1506710,26.8377388
Bl. 13/2,Strada Luceafărului,120081,45.1506343,26.8379879
Bl. 13A,Strada Luceafărului,120081,45.1509363,26.8377518
Bl. 9C,Strada Luceafărului,120081,45.1505416,26.8383600
Bl. 9D,Strada Luceafărului,120081,45.1507069,26.8384002
Bl. 11C,Strada Columbelor,120089,45.1507664,26.8408007
Bl. 12B,Strada Dorobanți,120077,45.1501971,26.8407297
Bl. 12F,Strada Dorobanți,120077,45.1503916,26.8394501
Bl. 12C,Strada Dorobanți,120077,45.1502457,26.8404374
Bl. 12D,Strada Dorobanți,120077,45.1502937,26.8401175
Bl. 12E,Strada Dorobanți,120077,45.1503391,26.8397700
Bl. K3,Strada Primăverii,120114,45.1507866,26.8450311
Bl. K4,Strada Primăverii,120114,45.1509471,26.8450629
Bl.9,Strada Primăverii,120114,45.1511112,26.8456171
Bl. K5,Strada Primăverii,120114,45.1512363,26.8451161
Bl. K6,Strada Primăverii,120114,45.1514781,26.8451676
Bl. K7,Strada Primăverii,120114,45.1516366,26.8452785
Bl. K8,Strada Primăverii,120114,45.1515988,26.8456133
Bl. H17,Strada Primăverii,120114,45.1511125,26.8445907
Bl. H16,Strada Primăverii,120114,45.1509200,26.8445555
Bl. B16,Strada Columbelor,120089,45.1512854,26.8409464
Bl. B17,Strada Columbelor,120089,45.1515737,26.8410555
Bl. B6,Strada Dimineții,120089,45.1518660,26.8387390
Bl. B7,Strada Dimineții,120089,45.1517087,26.8387064
Bl. A1,Strada Gârlași,120077,45.1531468,26.8368219
Bl. A2,Strada Gârlași,120077,45.1531979,26.8371786
Bl. P21,Aleea Sporturilor,120099,45.1519153,26.8361437
Bl. P16,Aleea Sporturilor,120099,45.1525997,26.8366469
Bl. P16A,Aleea Sporturilor,120099,45.1525928,26.8363066
Bl. P19,Aleea Sporturilor,120099,45.1523249,26.8366060
Bl. P15,Strada Gârlași,120077,45.1528551,26.8366014
Bl. P15A,Strada Gârlași,120077,45.1528436,26.8368324
Bl. C5,Strada Gârlași,120077,45.1532851,26.8382383
Bl. C6,Strada Dimineții,120089,45.1532466,26.8385639
Bl. C7,Strada Dimineții,120089,45.1528950,26.8384912
Bl. C8,Strada Dimineții,120089,45.1526628,26.8384639
Bl. F1,Strada Columbelor,120089,45.1528458,26.8409443
Bl. F2,Strada Columbelor,120089,45.1528997,26.8406805
Bl. F14,Strada Columbelor,120089,45.1524871,26.8413303
Bl. F15,Strada Columbelor,120089,45.1526826,26.8413797
Bl. F16,Strada Columbelor,120089,45.1529743,26.8414486
Bl. F17,Strada Columbelor,120089,45.1530857,26.8412471
Bl. F18,Strada Columbelor,120089,45.1531138,26.8408747
Bl. L3,Strada Primăverii,120114,45.1528312,26.8441903
Bl. L2,Strada Primăverii,120114,45.1526643,26.8441573
Bl. J14,Strada Primăverii,120114,45.1533037,26.8441754
Bl. J15,Strada Primăverii,120114,45.1533227,26.8438413
Bl. J16,Strada Primăverii,120114,45.1533925,26.8435162
Bl. J17,Strada Columbelor,120089,45.1534308,26.8431345
Bl. J1,Strada Columbelor,120089,45.1534455,26.8427765
Bl. J2,Strada Columbelor,120089,45.1534889,26.8424349
Bl. J3,Strada Columbelor,120089,45.1535536,26.8419723
Bl. J4,Strada Columbelor,120089,45.1537798,26.8420340
Bl. J5,Strada Columbelor,120089,45.1539956,26.8422215
Bl. J6,Strada Columbelor,120089,45.1539155,26.8425398
Bl. J7,Strada Columbelor,120089,45.1538355,26.8427891
Bl. J8,Strada Columbelor,120089,45.1538337,26.8432061
Bl. J9,Strada Primăverii,120114,45.1538285,26.8435491
Bl. J10,Strada Primăverii,120114,45.1537929,26.8438736
Bl. A4,Strada Vladimir Maximilian,120099,45.1561116,26.8324272
Bl. A5,Strada Vladimir Maximilian,120099,45.1559401,26.8320179
Bl. B10,Aleea Sporturilor,120099,45.1559010,26.8335046
Bl. B11,Strada Vladimir Maximilian,120099,45.1561132,26.8333165
Bl. N1,Strada Vladimir Maximilian,120099,45.1557898,26.8324240
Bl. N2A,Strada Vladimir Maximilian,120099,45.1558458,26.8326289
Bl. A9,Strada Vladimir Maximilian,120099,45.1553119,26.8305082
Bl. A10,Strada Iazul Morilor,120030,45.1553161,26.8303014
Bl. G4,Strada Broșteni,120029,45.1539829,26.8316813
Bl. G5,Strada Broșteni,120029,45.1538603,26.8313276
Bl. I6,Strada Iazul Morilor,120030,45.1534622,26.8322332
Bl. I7,Strada Iazul Morilor,120030,45.1536637,26.8328262
Bl. I8,Strada Broșteni,120029,45.1537984,26.8330786
Bl. I10,Strada Broșteni,120029,45.1541283,26.8327959
Bl. I11,Strada Broșteni,120029,45.1540297,26.8325029
Bl. K2,Strada Morilor,120031,45.1532078,26.8324399
Bl. K3,Strada Iazul Morilor,120030,45.1531585,26.8321601
Bl. D7,Aleea Sporturilor,120099,45.1533103,26.8354288
Bl. D9,Strada Gârlași,120077,45.1531545,26.8354696
Bl. P9,Strada Gârlași,120077,45.1536662,26.8362245
Bl. P9A,Aleea Sporturilor,120099,45.1535881,26.8359200
Bl. P10,Aleea Sporturilor,120099,45.1534348,26.8358924
Bl. P11,Strada Gârlași,120077,45.1533260,26.8360308
Bl. P1,Aleea Sporturilor,120099,45.1545854,26.8355451
Bl. P1A,Aleea Sporturilor,120099,45.1545045,26.8352921
Bl. P4,Aleea Sporturilor,120099,45.1543372,26.8356993
Bl. P4A,Aleea Sporturilor,120099,45.1543958,26.8359603
Bl. P03,Aleea Sporturilor,120099,45.1544023,26.8363233
Bl. P02,Aleea Sporturilor,120099,45.1546161,26.8361849
Bl. P5A,Aleea Sporturilor,120099,45.1540550,26.8356370
Bl. P8,Aleea Sporturilor,120099,45.1538978,26.8360582
Bl. P8A,Aleea Sporturilor,120099,45.1539523,26.8363162
Bl. D4,Aleea Sporturilor,120099,45.1520616,26.8355953
Bl. D5,Aleea Sporturilor,120099,45.1523103,26.8356230
Bl. D12,Aleea Sporturilor,120099,45.1521603,26.8352864
Bl. D13,Strada Gârlași,120077,45.1523329,26.8353053
Bl. H1,Strada Broșteni,120029,45.1542207,26.8338749
Bl. H2,Strada Broșteni,120029,45.1543950,26.8337164
Bl. H3,Strada Broșteni,120029,45.1543358,26.8334067
Bl. H4,Strada Broșteni,120029,45.1542291,26.8332171
Bl. H7,Strada Broșteni,120029,45.1533228,26.8338487
Bl. H8,Strada Morilor,120031,45.1533608,26.8341111
Bl. H9,Strada Morilor,120031,45.1534503,26.8343049
Bl. C5,Strada Broșteni,120029,45.1535924,26.8346744
Bl. C6,Strada Morilor,120031,45.1536399,26.8349385
Bl. C7,Strada Morilor,120031,45.1537431,26.8351570
Bl. C9,Aleea Sporturilor,120099,45.1541311,26.8348753
Bl. C10,Aleea Sporturilor,120099,45.1543921,26.8346946
Bl. B1,Bulevardul Stadionului,120140,45.1565714,26.7920550
Bl. B2,Bulevardul Stadionului,120140,45.1563624,26.7922732
Bl. B3,Bulevardul Stadionului,120140,45.1561385,26.7924849
Bl. B4,Bulevardul Stadionului,120140,45.1559433,26.7926901
Bl. 27B,Aleea Școlilor,120177,45.1546598,26.7932371
Bl. 24A,Aleea Școlilor,120177,45.1548546,26.7932076
Bl. 9B,Strada General Grigore Baștan,120130,45.1513958,26.7988821
Bl. 9C,Strada General Grigore Baștan,120130,45.1515936,26.7985406
Bl. 15A,Strada General Grigore Baștan,120130,45.1514463,26.7956221
Bl. 16A,Strada General Grigore Baștan,120130,45.1514373,26.7958878
Bl. 44B,Strada General Grigore Baștan,120130,45.1512063,26.7952528
Bl. 43A sc D,Strada 1 Decembrie 1918,120181,45.1516145,26.7938249
Bl. 43B,Strada 1 Decembrie 1918,120181,45.1510650,26.7943403
Bl. B,Strada General Grigore Baștan,120130,45.1505641,26.7948048
Bl. A,Strada General Grigore Baștan,120130,45.1506529,26.7951524
Bl. 5A,Strada 1 Decembrie 1918,120181,45.1527821,26.7911879
Bl. 5B,Strada 1 Decembrie 1918,120181,45.1528476,26.7909242
Bl. 5C,Strada 1 Decembrie 1918,120181,45.1529047,26.7906365
Bl. 4A,Strada 1 Decembrie 1918,120181,45.1525729,26.7921289
Bl. 4B,Strada 1 Decembrie 1918,120181,45.1526388,26.7918351
Bl. 4C,Strada 1 Decembrie 1918,120181,45.1527018,26.7915475
Bl. 3C,Strada 1 Decembrie 1918,120181,45.1522523,26.7928128
Bl. 3B,Strada 1 Decembrie 1918,120181,45.1520346,26.7930016
Bl. 3A,Strada 1 Decembrie 1918,120181,45.1518152,26.7931708
13,Strada Independenței,120204,45.1443335,26.8130781
15,Strada Independenței,120204,45.1442938,26.8131744
17,Strada Independenței,120204,45.1442603,26.8132654
19,Strada Independenței,120204,45.1442247,26.8133860
118,Strada Independenței,120234,45.1442247,26.8139673
116,Strada Independenței,120234,45.1446320,26.8133660
114,Strada Independenței,120234,45.1446063,26.8134291
112,Strada Independenței,120234,45.1445547,26.8135606
110,Strada Independenței,120234,45.1445153,26.8136484
108,Strada Independenței,120234,45.1444555,26.8137898
106,Strada Independenței,120234,45.1444174,26.8138758
104,Strada Independenței,120234,45.1443314,26.8140763
98,Strada Independenței,120234,45.1446579,26.8143492
102,Strada Independenței,120234,45.1444950,26.8142264
96,Strada Independenței,120234,45.1447443,26.8144299
94,Strada Independenței,120234,45.1448535,26.8145392
42,Strada Patriei,120204,45.1476748,26.8153619
40,Strada Patriei,120204,45.1476071,26.8154923
36,Strada Patriei,120204,45.1474454,26.8158211
34,Strada Patriei,120204,45.1473346,26.8159997
32,Strada Patriei,120204,45.1472689,26.8161451
32B,Strada Patriei,120204,45.1474158,26.8162479
50,Strada Independenței,120204,45.1471312,26.8167756
52,Strada Independenței,120204,45.1470330,26.8166707
30A,Strada Patriei,120204,45.1471953,26.8162794
1B,Strada Patriei,120204,45.1473125,26.8149175
55B,Strada Patriei,120204,45.1475547,26.8153053
57,Strada Patriei,120204,45.1475977,26.8152140
61,Strada Patriei,120204,45.1476795,26.8150395
59,Strada Patriei,120204,45.1476475,26.8151057
49,Strada Patriei,120204,45.1473904,26.8156402
55,Strada Patriei,120204,45.1474984,26.8154236
51,Strada Patriei,120204,45.1474308,26.8155603
53,Strada Patriei,120204,45.1474677,26.8154906
41,Strada Patriei,120204,45.1472008,26.8159591
43,Strada Patriei,120204,45.1472561,26.8158471
45,Strada Patriei,120204,45.1472911,26.8157781
39,Strada Patriei,120204,45.1471369,26.8160825
54,Strada Independenței,120234,45.1468134,26.8164460
56,Strada Independenței,120234,45.1466358,26.8162590
62,Strada Independenței,120234,45.1463341,26.8159727
62A,Strada Independenței,120234,45.1462609,26.8159031
60,Strada Independenței,120234,45.1464245,26.8160622
58,Strada Independenței,120234,45.1465429,26.8161726
64,Strada Independenței,120234,45.1461623,26.8158159
66,Strada Independenței,120234,45.1460813,26.8157265
68,Strada Independenței,120234,45.1459294,26.8155833
70,Strada Independenței,120234,45.1458180,26.8154729
72,Strada Independenței,120234,45.1457618,26.8154372
74,Strada Independenței,120234,45.1457018,26.8153819
74B,Strada Independenței,120234,45.1456179,26.8152961
84A,Strada Independenței,120234,45.1454732,26.8145819
80,Strada Independenței,120234,45.1454638,26.8151472
82,Strada Independenței,120234,45.1454056,26.8150956
84,Strada Independenței,120234,45.1452921,26.8149715
76,Strada Independenței,120234,45.1455702,26.8152482
78,Strada Independenței,120234,45.1455064,26.8151833
86B,Strada Independenței,120234,45.1453249,26.8144957
86,Strada Independenței,120234,45.1451621,26.8148624
88A,Strada Independenței,120234,45.1453214,26.8142807
88,Strada Independenței,120234,45.1450383,26.8147299
90,Strada Independenței,120234,45.1449867,26.8146769
92,Strada Independenței,120234,45.1449205,26.8146088
79,Bulevardul Republicii,120121,45.1440276,26.8385686
79B,Bulevardul Republicii,120121,45.1440362,26.8387457
85,Bulevardul Republicii,120121,45.1440721,26.8392231
83,Bulevardul Republicii,120121,45.1440494,26.8389817
81,Bulevardul Republicii,120121,45.1440456,26.8388530
73,Bulevardul Republicii,120121,45.1440229,26.8381282
75,Bulevardul Republicii,120121,45.1440343,26.8383736
2B,Strada Pictorilor,120121,45.1442585,26.8382054
2,Strada Pictorilor,120121,45.1443247,26.8382376
4,Strada Pictorilor,120121,45.1443862,26.8382671
2,Strada Alexandru cel Bun,120118,45.1445470,26.8384951
4,Strada Alexandru cel Bun,120118,45.1444665,26.8386121
6,Strada Alexandru cel Bun,120118,45.1444047,26.8387232
8,Strada Alexandru cel Bun,120118,45.1443639,26.8387984
10,Strada Alexandru cel Bun,120118,45.1443068,26.8388848
12,Strada Alexandru cel Bun,120118,45.1442424,26.8390010
85,Strada Agriculturii,120055,45.1441416,26.8356741
87,Strada Agriculturii,120055,45.1441018,26.8357605
89,Strada Agriculturii,120055,45.1440486,26.8358624
91,Strada Agriculturii,120055,45.1439860,26.8360016
5,Strada Mică,120120,45.1442365,26.8369742
7,Strada Mică,120120,45.1443211,26.8370386
9,Strada Mică,120120,45.1444215,26.8371090
11,Strada Mică,120120,45.1444817,26.8371839
13,Strada Mică,120120,45.1445810,26.8372421
93,Strada Agriculturii,120055,45.1439336,26.8361113
65,Bulevardul Republicii,120121,45.1439220,26.8362492
67,Bulevardul Republicii,120121,45.1439220,26.8363585
1,Strada Mică,120120,45.1440509,26.8368260
3,Strada Mică,120120,45.1441788,26.8369384
1B,Strada Mică,120120,45.1441175,26.8368830
69,Bulevardul Republicii,120121,45.1439620,26.8374295
10,Strada Mică,120120,45.1444694,26.8373497
8,Strada Mică,120120,45.1443962,26.8372967
6,Strada Mică,120120,45.1442770,26.8372072
4,Strada Mică,120120,45.1441991,26.8371465
2,Strada Mică,120120,45.1440667,26.8370515
71,Bulevardul Republicii,120121,45.1439667,26.8376482
71B,Bulevardul Republicii,120121,45.1439722,26.8378459
1,Strada Pictorilor,120121,45.1440709,26.8379682
14,Strada Mică,120120,45.1447678,26.8375794
16,Strada Mică,120120,45.1448099,26.8376093
12,Strada Mică,120120,45.1445964,26.8374524
10B,Strada Mică,120120,45.1445380,26.8373983
3,Strada Pictorilor,120121,45.1441806,26.8380286
5,Strada Pictorilor,120121,45.1442766,26.8380876
7,Strada Pictorilor,120121,45.1443750,26.8381446
27,Strada Plantelor,120083,45.1466522,26.8432089
29,Strada Plantelor,120083,45.1469432,26.8435948
Bl. 1A,Strada Mesteacănului,120024,45.1577336,26.8275399
Bl. 1B,Strada Mesteacănului,120024,45.1578622,26.8277516
Bl. 2A,Strada Mesteacănului,120024,45.1580138,26.8280479
Bl. 2F,Strada Mesteacănului,120024,45.1587923,26.8290380
Bl. 2B,Strada Mesteacănului,120024,45.1581309,26.8282433
Bl. 2C,Strada Mesteacănului,120024,45.1582618,26.8284224
Bl. 2D,Strada Mesteacănului,120024,45.1584662,26.8285853
Bl. 2E,Strada Mesteacănului,120024,45.1586178,26.8288035
Bl. 2C,Aleea Sporturilor,120099,45.1591796,26.8289112
Bl. 2B,Aleea Sporturilor,120099,45.1592988,26.8287345
Bl. 3C,Aleea Sporturilor,120099,45.1594694,26.8284838
Bl. 3B,Aleea Sporturilor,120099,45.1595807,26.8283280
Bl. 4C,Aleea Sporturilor,120099,45.1597584,26.8280759
Bl. 4B,Aleea Sporturilor,120099,45.1598714,26.8279191
20,Aleea Sporturilor,120099,45.1591287,26.8299478
156,Strada Alexandru Marghiloman,120082,45.1483216,26.8368903
154,Strada Alexandru Marghiloman,120082,45.1483673,26.8368075
152,Strada Alexandru Marghiloman,120082,45.1484393,26.8367115
150,Strada Alexandru Marghiloman,120082,45.1484901,26.8366190
158,Strada Alexandru Marghiloman,120082,45.1482577,26.8369788
160,Strada Alexandru Marghiloman,120082,45.1482247,26.8370400
162,Strada Alexandru Marghiloman,120082,45.1481641,26.8371419
164,Strada Alexandru Marghiloman,120082,45.1481226,26.8372030
166,Strada Alexandru Marghiloman,120082,45.1480466,26.8373203
168,Strada Alexandru Marghiloman,120082,45.1479462,26.8374543
170,Strada Alexandru Marghiloman,120082,45.1479048,26.8375275
172,Strada Alexandru Marghiloman,120082,45.1477801,26.8376940
174,Strada Alexandru Marghiloman,120082,45.1477118,26.8377781
176,Strada Alexandru Marghiloman,120082,45.1476373,26.8378838
178,Strada Alexandru Marghiloman,120082,45.1475627,26.8379668
180,Strada Alexandru Marghiloman,120082,45.1475195,26.8380311
190,Strada Alexandru Marghiloman,120082,45.1470691,26.8385155
190B,Strada Alexandru Marghiloman,120082,45.1470294,26.8386709
192,Strada Alexandru Marghiloman,120082,45.1469643,26.8387516
194,Strada Alexandru Marghiloman,120082,45.1469182,26.8388178
196,Strada Alexandru Marghiloman,120082,45.1468234,26.8389355
206,Strada Alexandru Marghiloman,120082,45.1464412,26.8394413
204,Strada Alexandru Marghiloman,120082,45.1465278,26.8393247
202,Strada Alexandru Marghiloman,120082,45.1466136,26.8392110
200,Strada Alexandru Marghiloman,120082,45.1466742,26.8391349
198,Strada Alexandru Marghiloman,120082,45.1467613,26.8390181
222,Strada Alexandru Marghiloman,120082,45.1455297,26.8405852
224,Strada Alexandru Marghiloman,120082,45.1454529,26.8406924
228,Strada Alexandru Marghiloman,120082,45.1452730,26.8409415
216B,Strada Alexandru Marghiloman,120082,45.1458573,26.8401569
218,Strada Alexandru Marghiloman,120082,45.1458127,26.8402211
220,Strada Alexandru Marghiloman,120082,45.1457492,26.8403150
220B,Strada Alexandru Marghiloman,120082,45.1456830,26.8404020
216,Strada Alexandru Marghiloman,120082,45.1459223,26.8400755
214,Strada Alexandru Marghiloman,120082,45.1459817,26.8399880
212,Strada Alexandru Marghiloman,120082,45.1461114,26.8398466
212B,Strada Alexandru Marghiloman,120082,45.1460563,26.8399139
210,Strada Alexandru Marghiloman,120082,45.1462209,26.8397013
208,Strada Alexandru Marghiloman,120082,45.1463073,26.8395965
Bl. B16,Bulevardul Unirii,120021,45.1437089,26.8102961
Bl. 20A,Bulevardul Stadionului,120140,45.1540138,26.7960942
Bl. E5,Bulevardul Unirii,120000,45.1444035,26.8110238
362,Strada Transilvaniei,120164,45.1634912,26.7883037
360,Strada Transilvaniei,120164,45.1634079,26.7883999
358,Strada Transilvaniei,120171,45.1632517,26.7885777
358,Strada Transilvaniei,120171,45.1628073,26.7895273
356,Strada Transilvaniei,120171,45.1627644,26.7896753
354,Strada Transilvaniei,120171,45.1627301,26.7898452
352,Strada Transilvaniei,120171,45.1626939,26.7899965
350,Strada Transilvaniei,120171,45.1626720,26.7901112
289A,Strada Transilvaniei,120171,45.1622939,26.7907853
307,Strada Transilvaniei,120171,45.1625801,26.7895212
305B,Strada Transilvaniei,120171,45.1625523,26.7896553
303,Strada Transilvaniei,120171,45.1624979,26.7898579
301,Strada Transilvaniei,120171,45.1624526,26.7900867
295,Strada Transilvaniei,120171,45.1623623,26.7904900
291,Strada Transilvaniei,120171,45.1623208,26.7906875
293,Strada Transilvaniei,120171,45.1623445,26.7905884
348,Strada Transilvaniei,120171,45.1626330,26.7902781
346,Strada Transilvaniei,120171,45.1626130,26.7903706
344,Strada Transilvaniei,120171,45.1625916,26.7904956
342,Strada Transilvaniei,120171,45.1625689,26.7905815
340,Strada Transilvaniei,120171,45.1625467,26.7907098
338,Strada Transilvaniei,120171,45.1625268,26.7907899
336,Strada Transilvaniei,120171,45.1625001,26.7909022
334,Strada Transilvaniei,120171,45.1626824,26.7910927
15A,Strada Panduri,120019,45.1513812,26.8150560
15,Strada Panduri,120019,45.1514388,26.8151973
13,Strada Panduri,120019,45.1514894,26.8153509
25,Strada Panduri,120019,45.1509003,26.8140423
25,Strada Panduri,120019,45.1509767,26.8141982
23,Strada Panduri,120019,45.1510266,26.8143053
21,Strada Panduri,120019,45.1510803,26.8144158
19,Strada Panduri,120019,45.1511481,26.8145693
19A,Strada Alexandru Golescu,120018,45.1509559,26.8148821
19B,Strada Alexandru Golescu,120018,45.1507826,26.8150918
47,Bulevardul Nicolae Bălcescu,120187,45.1506870,26.8120219
45B,Bulevardul Nicolae Bălcescu,120187,45.1507462,26.8121810
45,Bulevardul Nicolae Bălcescu,120187,45.1507753,26.8123044
43,Bulevardul Nicolae Bălcescu,120187,45.1508352,26.8124655
39,Bulevardul Nicolae Bălcescu,120187,45.1509909,26.8128940
41,Bulevardul Nicolae Bălcescu,120187,45.1508873,26.8126389
1,Strada Bâsca Mare,120187,45.1504580,26.8122360
3,Strada Bâsca Mare,120187,45.1504157,26.8123087
5,Strada Bâsca Mare,120187,45.1503701,26.8124024
5B,Strada Bâsca Mare,120187,45.1504798,26.8125680
7,Strada Bâsca Mare,120187,45.1503085,26.8125180
7B,Strada Bâsca Mare,120187,45.1502482,26.8126289
4,Aleea Bâsca,120187,45.1502364,26.8132112
13A,Strada Bâsca Mare,120187,45.1495980,26.8136017
11,Strada Bâsca Mare,120187,45.1497277,26.8134208
9,Strada Bâsca Mare,120187,45.1498517,26.8132655
60C,Strada Unirii,120191,45.1491314,26.8143013
125,Strada Unirii,120191,45.1490156,26.8141866
123,Strada Unirii,120191,45.1489276,26.8140980
30,Strada Bâsca Mare,120187,45.1494632,26.8136229
19,Strada Bâsca Mare,120187,45.1495013,26.8136589
26,Strada Bâsca Mare,120187,45.1496029,26.8134178
28,Strada Bâsca Mare,120187,45.1495588,26.8135199
22,Strada Bâsca Mare,120187,45.1496833,26.8133170
18,Strada Bâsca Mare,120187,45.1498458,26.8130865
20,Strada Bâsca Mare,120187,45.1497849,26.8131754
1B,Bulevardul Spiru Haret,120242,45.1503731,26.8116616
1A,Bulevardul Spiru Haret,120242,45.1504445,26.8116987
2,Strada Bâsca Mare,120187,45.1503870,26.8121455
3,Bulevardul Spiru Haret,120242,45.1502782,26.8116186
92,Strada Patriei,120243,45.1498213,26.8114331
90,Strada Patriei,120243,45.1497523,26.8115501
88,Strada Patriei,120243,45.1496755,26.8117068
84,Strada Patriei,120243,45.1495602,26.8119078
82,Strada Patriei,120243,45.1495103,26.8120006
80,Strada Patriei,120243,45.1494330,26.8121350
78,Strada Patriei,120243,45.1493535,26.8122543
16,Strada Bâsca Mare,120187,45.1499315,26.8129722
14,Strada Bâsca Mare,120187,45.1499946,26.8128562
12,Strada Bâsca Mare,120187,45.1500935,26.8126828
4,Strada Bâsca Mare,120187,45.1503435,26.8122260
6,Strada Bâsca Mare,120187,45.1502937,26.8123287
10,Strada Bâsca Mare,120187,45.1501792,26.8125319
60,Strada Patriei,120243,45.1487161,26.8133996
62,Strada Patriei,120243,45.1487729,26.8132715
62B,Strada Patriei,120243,45.1488189,26.8131997
64,Strada Patriei,120243,45.1488462,26.8131478
70,Strada Patriei,120243,45.1490973,26.8127096
74,Strada Patriei,120243,45.1491892,26.8125406
72,Strada Patriei,120243,45.1491401,26.8126311
76,Strada Patriei,120243,45.1492585,26.8124279
68,Strada Patriei,120243,45.1490358,26.8128200
66,Strada Patriei,120243,45.1489501,26.8129713
301A,Unirii,120005,45.1634588,26.8133758
"Bloc 28B, Apartament 4, Parter",Bulevardul Unirii,120006,45.1620391,26.8155996
122,Bulevardul Stadionului,120178,45.1552047,26.7961504
44BIS,Strada Independenței,120204,45.1477412,26.8169184
44E,Strada Independenței,120204,45.1478536,26.8166828
44A,Strada Independenței,120204,45.1479878,26.8164056
44B,Strada Independenței,120204,45.1479086,26.8163421
44C,Strada Independenței,120204,45.1477993,26.8166801
33,Bulevardul Nicolae Bălcescu,120017,45.1515149,26.8145334
Bl. 11F,Strada Panduri,120019,45.1516596,26.8162547
3,Strada Panduri,120019,45.1512239,26.8163767
Bl. PTTR - Tr.2,Bulevardul Unirii,120021,45.1521386,26.8181091
202,Bulevardul Unirii,120014,45.1700307,26.8211472
15,Strada Bazalt,120167,45.1584714,26.7937669
18,Bulevardul Nicolae Bălcescu,120251,45.1526401,26.8168618
20,Bulevardul Nicolae Bălcescu,120251,45.1525787,26.8165507
24,Bulevardul Nicolae Bălcescu,120187,45.1523240,26.8161281
26,Bulevardul Nicolae Bălcescu,120187,45.1522030,26.8158080
120,Bulevardul Stadionului,120140,45.1543080,26.7969257
7,Strada Primăverii,120127,45.1570930,26.8445354
8,Strada Primăverii,120127,45.1572084,26.8459596
3,Șoseaua Brăilei,120118,45.1428473,26.8449505
3,Șoseaua Brăilei,120118,45.1429764,26.8447634
10,Strada Mesteacănului,120024,45.1578548,26.8287491
429,Strada Transilvaniei,120164,45.1748360,26.7711315
429,Strada Transilvaniei,120164,45.1737250,26.7699638
429,Strada Transilvaniei,120164,45.1739367,26.7709641
1,Strada Veteranilor,120184,45.1599950,26.7859772
1B,Strada Veteranilor,120184,45.1600053,26.7871562
319A,Strada Transilvaniei,120164,45.1647131,26.7865411
12,Strada Înfrățirea,120169,45.1629043,26.7853179
1A,Strada Căpitan Purcherea Laurențiu,120162,45.1627834,26.7792298
1,Piața Daciei,120187,45.1532285,26.8218623
44A,Șoseaua Spătarului,120226,45.1226383,26.8036271
14,Șoseaua Spătarului,120226,45.1290696,26.8110963
3,Aleea Școlilor,120177,45.1531902,26.7941487
1,Aleea Școlilor,120144,45.1535305,26.7928945
37,Strada Șantierului,120231,45.1411527,26.8251573
16A,Strada Iazul Morilor,120030,45.1554761,26.8288897
Bl. B2,Strada Frăsinet,120044,45.1611802,26.8185428
Bl. B10,Strada Chiristigii,120024,45.1599849,26.8209601
Bl. B6,Strada Frăsinet,120044,45.1605850,26.8197567
Bl. B1,Strada Frăsinet,120044,45.1617892,26.8173263
Bl. B12,Strada Chiristigii,120024,45.1595528,26.8208159
Bl. 24D;24B,Bulevardul 1 Decembrie 1918,120217,45.1427249,26.8107524
Bl. O2;E8;S2,Bulevardul Unirii,120021,45.1465889,26.8133744
84,Bulevardul Unirii,120021,45.1483055,26.8150710
87,Strada Unirii,120191,45.1491366,26.8145915
83,Bulevardul Unirii,120191,45.1484820,26.8142430
9,Bulevardul Spiru Haret,120242,45.1471673,26.8105642
Bl.47,Strada Unirii,120191,45.1469478,26.8110802
59,Bulevardul Nicolae Bălcescu,120000,45.1486407,26.8071006
63,Bulevardul Nicolae Bălcescu,120000,45.1480782,26.8054920
56,Bulevardul Nicolae Bălcescu,120000,45.1492052,26.8087223
55,Bulevardul Nicolae Bălcescu,120000,45.1494941,26.8095771
51,Bulevardul Nicolae Bălcescu,120000,45.1497497,26.8103698
190,Strada Alexandru Marghiloman,120082,45.1472576,26.8382046
Bl. H4,Strada Columbelor,120089,45.1515717,26.8416228
123,Bulevardul Unirii,120021,45.1531318,26.8170458
127,Bulevardul Unirii,120021,45.1535499,26.8168287
Bl. C8,Strada Frăsinet,120044,45.1591493,26.8231935
232,Bulevardul Unirii,120021,45.1630090,26.8177984
54,Bulevardul Nicolae Bălcescu,120000,45.1494102,26.8098923
Bl. 2CFR,Bulevardul Republicii,120121,45.1437511,26.8394476
Bl. 12A,Bulevardul Republicii,120121,45.1437172,26.8381271
Bl. 12B,Bulevardul Republicii,120121,45.1437246,26.8385337
57,Bulevardul Nicolae Bălcescu,120000,45.1488467,26.8082720
58,Bulevardul Nicolae Bălcescu,120000,45.1489380,26.8079418
61,Bulevardul Nicolae Bălcescu,120000,45.1482822,26.8066618
62,Bulevardul Nicolae Bălcescu,120000,45.1483630,26.8063245
11,Strada Obor,120039,45.1559676,26.8223858
12,Strada Obor,120039,45.1558978,26.8230613
17,Strada Crizantemelor,120203,45.1480655,26.8209483
48,Bulevardul Nicolae Bălcescu,120246,45.1504602,26.8099765
517,Strada Transilvaniei,120164,45.1759708,26.7704856
18,Strada Victoriei,120209,45.1487513,26.8273187
140,Bulevardul Unirii,120279,45.1485861,26.8155592
42,Strada Independenței,120204,45.1479363,26.8170966
44,Strada Independenței,120204,45.1477198,26.8171760
44BIS,Strada Independenței,120204,45.1478351,26.8170275
41,Strada Bistriței,120212,45.1508675,26.8244096
18,Strada Crizantemelor,120203,45.1491278,26.8211719
80,Strada Colonel Buzoianu Ion,120204,45.1465916,26.8198795
3,Strada Nicolae Titulescu,120133,45.1510188,26.8097720
5,Strada Crizantemelor,120194,45.1491199,26.8229251
5,Strada Crizantemelor,120194,45.1491315,26.8229400
6,Aleea General Ion Jitianu,120209,45.1509949,26.8301290
115,Strada Alexandru Marghiloman,120107,45.1511692,26.8337783
132,Strada Alexandru Marghiloman,120107,45.1498397,26.8348034
44A,Strada Independenței,120204,45.1480859,26.8164890
44C,Fundătura Independenței no. 44,120204,45.1477613,26.8166167
44A,Fundătura Independenței no. 44,120204,45.1478454,26.8162486
44E,Strada Independenței,120204,45.1479521,26.8167018
3,Bulevardul 1 Decembrie 1918,120222,45.1428872,26.8232796
10,Strada Mesteacănului,120024,45.1578547,26.8288442
Bl. 14A1,Strada Leului,120107,45.1508055,26.8369033
Bl. 1A,Aleea Sporturilor,120099,45.1591795,26.8292178
Bl. 2A,Aleea Sporturilor,120099,45.1594571,26.8287988
Bl. 3A,Aleea Sporturilor,120099,45.1597407,26.8283870
Bl. 4A,Aleea Sporturilor,120099,45.1600383,26.8279637
23,Aleea Sporturilor,120024,45.1592517,26.8268756
32,Șoseaua Spătarului,120226,45.1244413,26.8064249
1,Bulevardul Unirii,120266,45.1396114,26.8001999
2,Șoseaua Brăilei,120118,45.1389888,26.8482568
5,Bulevardul Industriei,120224,45.1342305,26.8456250
12,Bulevardul Industriei,120068,45.1313721,26.8436680
1,Bulevardul 1 Decembrie 1918,120219,45.1430412,26.8251906
4,Bulevardul Industriei,120224,45.1330974,26.8182074
Bl. 3,Bulevardul Republicii,120121,45.1437708,26.8398538
Bl. 1CFR,Bulevardul Republicii,120121,45.1437407,26.8390751
8-12,Bulevardul Republicii,120121,45.1436114,26.8370379
Bl. 4,Bulevardul Republicii,120121,45.1438069,26.8402229
13,Strada Costache Ciochinescu,120191,45.1468440,26.8103932
125,Bulevardul Unirii,120021,45.1533628,26.8169981
9,Bulevardul Nicolae Bălcescu,120187,45.1521834,26.8167853
7,Bulevardul Nicolae Bălcescu,120187,45.1522523,26.8170546
121,Bulevardul Unirii,120021,45.1520477,26.8171211
111,Bulevardul Unirii,120021,45.1508212,26.8166390
109,Bulevardul Unirii,120021,45.1506693,26.8165252
107,Bulevardul Unirii,120021,45.1506260,26.8163085
105,Bulevardul Unirii,120021,45.1505403,26.8162319
103,Bulevardul Unirii,120021,45.1503801,26.8162392
10,Strada Transilvaniei,120012,45.1566797,26.8160831
196,Strada Transilvaniei,120171,45.1608508,26.8024894
28,Bulevardul Nicolae Bălcescu,120187,45.1524264,26.8151498
22,Strada Independenței,120204,45.1498423,26.8188376
22,Strada Independenței,120204,45.1500143,26.8186649
44BIS,Fundătura Independenței no. 44,120204,45.1478386,26.8168806
