House number,Street name,Postal code,Latitude,Longitude
1,площадь Славы,143912,55.7966509,37.9356532
2,Юбилейная улица,143986,55.7424792,38.0161074
54Б,шоссе Энтузиастов,143912,55.7962222,37.9656022
16,Новая улица,143986,55.7479054,38.0154172
8,улица Майкла Лунна,143905,55.8343265,37.9778285
2 к2,Юбилейная улица,143986,55.7417994,38.0170460
10,Саввинское шоссе,143986,55.7435430,38.0146674
80,шоссе Энтузиастов,143900,55.7979967,37.9864846
1,улица Поликахина,143989,55.7402503,37.9992710
10,Саввинское шоссе,143986,55.7435685,38.0148092
4,Рождественская улица,143989,55.7439791,38.0030439
4,Рождественская улица,143989,55.7438134,38.0023209
4,Рождественская улица,143989,55.7439542,38.0036494
4,Рождественская улица,143989,55.7437604,38.0038922
2,проспект Героев,143989,55.7423664,38.0022375
80,шоссе Энтузиастов,143900,55.7979332,37.9853116
22В,Главная улица,143989,55.7466091,37.9903635
32,шоссе Энтузиастов,143912,55.7931025,37.9368526
34,шоссе Энтузиастов,143912,55.7930844,37.9367453
23/5,проспект Ленина,143904,55.7980116,37.9375716
10А,улица Крупской,143904,55.7997584,37.9376530
8А,улица Крупской,143904,55.8001856,37.9332807
4,Рождественская улица,143989,55.7438821,38.0038776
2,проспект Героев,143989,55.7424164,38.0022414
4,Рождественская улица,143989,55.7439933,38.0027837
2,Юбилейная улица,143986,55.7426002,38.0158668
10,Рождественская улица,143989,55.7436642,37.9972733
24,Юбилейная улица,143986,55.7399628,38.0151259
35,Советская улица,143909,55.8191502,37.9527755
4,Рождественская улица,143989,55.7439805,38.0026193
15/7,проспект Ленина,143912,55.7974640,37.9341486
30А,проспект Ленина,143907,55.7972769,37.9568427
1/3,Пролетарская улица,143980,55.7491560,38.0094694
1,улица Поликахина,143989,55.7401810,38.0005734
1,шоссе Энтузиастов,143912,55.7942658,37.9262959
2,Леоновское шоссе,143980,55.7644540,37.9617519
33,Октябрьская улица,143989,55.7513391,37.9988080
20/1,улица Свердлова,143900,55.8230015,37.9702744
4,Рождественская улица,143989,55.7439432,38.0025384
6,Колхозная улица,143987,55.7460608,38.0212475
17,улица Смельчак,143982,55.7550880,37.9548617
2/1,Северный проезд,143903,55.8084609,37.9768802
6,Юбилейная улица,143986,55.7412350,38.0175724
2,Юбилейная улица,143986,55.7425755,38.0159183
17,микрорайон 1 Мая,143911,55.8064423,37.8427963
6,улица Некрасова,143989,55.7514031,37.9950302
33,Октябрьская улица,143980,55.7512627,37.9991035
32,Юбилейная улица,143986,55.7372870,38.0174201
22,Солнечная улица,143909,55.8292618,37.9568405
15,Носовихинское шоссе,143983,55.7513444,37.9885263
4 к2,Саввинское шоссе,143986,55.7443991,38.0099178
1А,шоссе Энтузиастов,143912,55.7942454,37.9270686
18,Балашихинское шоссе,143913,55.8239104,37.9300524
4,Носовихинское шоссе,143930,55.7500009,37.8871488
7,Лётная улица,143900,55.8251949,37.9439810
21,улица 40 лет Победы,143905,55.8304651,37.9748435
83А,Щитниково,143906,55.8209153,37.8582390
5Б,шоссе Энтузиастов (дублёр),143912,55.7948294,37.9305614
9,Московский проезд,143903,55.8081781,37.9798447
16/5,улица Свердлова,143905,55.8215817,37.9694929
3,улица Чехова,143903,55.8040213,37.9780965
8/5,проспект Ленина,143900,55.7966753,37.9328922
16,Советская улица,143904,55.8018144,37.9352362
1Ж,Керамическая улица,143983,55.7395773,37.9600780
12А,улица Твардовского,143900,55.7930139,37.9794867
8,Санаторная улица,143930,55.7806911,37.9343265
10,улица Твардовского,143900,55.7914589,37.9771188
36А,шоссе Энтузиастов,143912,55.7937209,37.9401489
14,пр-кт Ленина,143912,55.7969717,37.9403628
14,пр-кт Ленина,143912,55.7969639,37.9404196
вл1Алит6В,шоссе Энтузиастов,143912,55.7840598,37.8687930
18,улица Твардовского,143900,55.7923721,37.9810005
1/2,Объездное шоссе,143912,55.7909143,37.8939524
1,Объездное шоссе,143912,55.7910309,37.8938781
13А,улица Крупской,143904,55.7995661,37.9363124
5,Октябрьская улица,143980,55.7508736,38.0042066
1,улица Маяковского,143989,55.7476763,38.0049942
15,Октябрьская улица,143980,55.7495025,38.0030867
21,Октябрьская улица,143980,55.7489546,38.0021925
2 к1,Пролетарская улица,143980,55.7494072,38.0060419
4,Пролетарская улица,143980,55.7486269,38.0071924
6,Пролетарская улица,143980,55.7479621,38.0065551
30,Новая улица,143987,55.7479897,38.0244139
32,Новая улица,143987,55.7480052,38.0252383
28,Новая улица,143987,55.7479734,38.0235475
5,Колхозная улица,143987,55.7466724,38.0243291
2,улица Пушкина,143987,55.7471041,38.0252591
4,улица Пушкина,143987,55.7471064,38.0270371
6Б,улица Пушкина,143987,55.7464737,38.0275977
5,Садовая улица,143922,55.7611424,38.0824487
6,Садовая улица,143922,55.7637222,38.0813024
9,Садовая улица,143922,55.7639577,38.0836631
4,Садовая улица,143922,55.7611296,38.0839116
11,улица Ленина,143922,55.7604725,38.0858061
9,улица Ленина,143922,55.7599304,38.0859289
14,Молодёжная улица,143922,55.7600209,38.0788286
1,улица Маршала Батицкого,143922,55.7591374,38.0769211
15,Молодёжная улица,143922,55.7595313,38.0775965
15,улица Гагарина,143922,55.7572966,38.0826665
11,улица Гагарина,143922,55.7568419,38.0844195
9,улица Гагарина,143922,55.7571556,38.0853881
3,улица Ленина,143922,55.7568865,38.0861855
4,Лесная улица,143922,55.7585781,38.0934628
4,улица Гагарина,143922,55.7582768,38.0897017
6,улица Гагарина,143922,55.7582739,38.0889738
7,улица Гагарина,143922,55.7573905,38.0873522
1,Московская улица,143922,55.7562623,38.0836844
15,Советская улица,143922,55.7561318,38.0822431
12,улица Маршала Говорова,143922,55.7580355,38.0789286
7,Пионерская улица,143922,55.7592047,38.0879159
5,Пионерская улица,143922,55.7592011,38.0886261
3,Пионерская улица,143922,55.7591987,38.0893471
20,Молодёжная улица,143922,55.7612201,38.0787117
1,проспект Жуковского,143982,55.7526316,37.9587461
9,проспект Жуковского,143982,55.7533660,37.9589874
11,проспект Жуковского,143982,55.7543922,37.9593571
3,улица Смельчак,143982,55.7542234,37.9585194
3,проспект Жуковского,143982,55.7524636,37.9580553
5,проспект Жуковского,143982,55.7527810,37.9572401
5,улица Смельчак,143982,55.7542960,37.9577690
8,улица Смельчак,143982,55.7545185,37.9563973
2,проспект Жуковского,143982,55.7533872,37.9600371
4,проспект Жуковского,143982,55.7541323,37.9602943
19,Октябрьская улица,143980,55.7503533,38.0019538
23,Октябрьская улица,143980,55.7488362,38.0007574
7,улица Кудаковского,143910,55.8220443,37.9708634
22,улица Свердлова,143905,55.8235529,37.9718388
15,улица Кудаковского,143905,55.8224022,37.9728623
24,улица Свердлова,143905,55.8244034,37.9725260
6,улица Объединения,143905,55.8252254,37.9734342
17,улица 40 лет Победы,143905,55.8248895,37.9748052
16,улица 40 лет Победы,143905,55.8241307,37.9751022
9,улица Кудаковского,143910,55.8213844,37.9715537
11,улица Кудаковского,143910,55.8210285,37.9716345
15,Заречная улица,143905,55.8234208,37.9670763
15/3,улица Свердлова,143905,55.8219590,37.9685984
8,Звёздная улица,143909,55.8254942,37.9554586
4,Звёздная улица,143909,55.8225482,37.9548199
6,Солнечная улица,143909,55.8221735,37.9575546
3,Солнечная улица,143909,55.8211845,37.9571768
5,Солнечная улица,143909,55.8216173,37.9559321
9,Солнечная улица,143909,55.8228154,37.9580543
2,Звёздная улица,143909,55.8211201,37.9545846
1,Солнечная улица,143909,55.8202098,37.9552690
1А,Московский бульвар,143909,55.8259228,37.9605141
13,улица 40 лет Победы,143905,55.8230674,37.9740752
14/6,улица Свердлова,143905,55.8206544,37.9688383
2,улица Свердлова,143910,55.8177152,37.9677394
10,улица Свердлова,143910,55.8198026,37.9681290
6,улица Свердлова,143910,55.8190642,37.9676642
13/4,улица Свердлова,143910,55.8208010,37.9680159
10,Заречная улица,143910,55.8198668,37.9651200
2/2,улица Кудаковского,143910,55.8209666,37.9657268
2/5,улица Кудаковского,143910,55.8211814,37.9667598
2/6,улица Кудаковского,143910,55.8209228,37.9665620
2/4,улица Кудаковского,143910,55.8208847,37.9660990
2/8,улица Кудаковского,143910,55.8207312,37.9668499
2/7,улица Кудаковского,143910,55.8212229,37.9671718
2/9,улица Кудаковского,143910,55.8211319,37.9675972
2/10,улица Кудаковского,143910,55.8207994,37.9673314
8,улица Кудаковского,143910,55.8206529,37.9700701
15,улица Калинина,143910,55.8198767,37.9708564
13,улица Калинина,143910,55.8193763,37.9702927
11,улица Калинина,143910,55.8191073,37.9708588
8,улица Калинина,143905,55.8197456,37.9727150
10,улица 40 лет Победы,143905,55.8197171,37.9741748
8,улица 40 лет Победы,143910,55.8185128,37.9741585
9,улица 40 лет Победы,143905,55.8191654,37.9747586
4,улица Свердлова,143910,55.8185177,37.9674322
17А,улица Свердлова,143910,55.8228459,37.9692802
6А,улица Свердлова,143910,55.8184927,37.9681573
5,улица Калинина,143910,55.8180875,37.9685018
7,улица Калинина,143910,55.8183936,37.9693186
9,улица Калинина,143910,55.8185749,37.9700598
3,улица Калинина,143910,55.8179513,37.9690578
2,улица Калинина,143910,55.8170671,37.9693269
5,улица 40 лет Победы,143910,55.8168445,37.9712289
4,улица 40 лет Победы,143910,55.8163988,37.9703492
8,Спортивная улица,143910,55.8161755,37.9684601
3,улица 40 лет Победы,143910,55.8155294,37.9697494
6,Спортивная улица,143910,55.8153284,37.9681689
4,Спортивная улица,143910,55.8154090,37.9672285
10,Спортивная улица,143910,55.8163876,37.9672097
12,Спортивная улица,143910,55.8167900,37.9674494
5,улица Майкла Лунна,143915,55.8348950,37.9798569
8,улица Майкла Лунна,143915,55.8340423,37.9782727
6,улица Калинина,143905,55.8192563,37.9736735
8,Заречная улица,143910,55.8178317,37.9630974
5,Заречная улица,143910,55.8158952,37.9619400
4,Заречная улица,143910,55.8155826,37.9615965
2,улица 40 лет Победы,143910,55.8145843,37.9683543
1,улица 40 лет Победы,143910,55.8141175,37.9675367
7,Спортивная улица,143910,55.8163770,37.9659480
4,улица Крупешина,143910,55.8138942,37.9638469
11,улица Текстильщиков,143910,55.8126453,37.9647157
15А,улица Текстильщиков,143910,55.8126977,37.9656063
35,улица Свердлова,143905,55.8287900,37.9696283
37,улица Свердлова,143915,55.8296077,37.9710266
31,улица Свердлова,143905,55.8278398,37.9695634
33,улица Свердлова,143905,55.8283281,37.9699007
18,Солнечная улица,143909,55.8292777,37.9583875
17,Солнечная улица,143909,55.8286305,37.9594432
16,Солнечная улица,143909,55.8284194,37.9584069
12,Звёздная улица,143909,55.8282042,37.9572185
17,Парковая улица,143904,55.8029086,37.9379476
13,улица Крупской,143904,55.7995255,37.9358122
7,Парковая улица,143904,55.7990803,37.9372556
23/5,проспект Ленина,143904,55.7978545,37.9371048
12/1,улица Победы,143904,55.7996896,37.9274781
3,улица Крупской,143904,55.7996629,37.9282908
5,улица Крупской,143904,55.7996341,37.9295260
7/8,улица Крупской,143904,55.7996117,37.9303418
2/5,проспект Ленина,143912,55.7967449,37.9282154
1,площадь Славы,143912,55.7962142,37.9366616
10,проспект Ленина,143912,55.7967097,37.9390640
10А,проспект Ленина,143912,55.7960316,37.9391583
13,шоссе Энтузиастов,143912,55.7953352,37.9392394
15,шоссе Энтузиастов,143912,55.7953704,37.9399880
17,шоссе Энтузиастов,143912,55.7954596,37.9407655
3,улица Карла Маркса,143904,55.7987901,37.9311156
24,Советская улица,143904,55.8039337,37.9374420
22,Советская улица,143904,55.8036578,37.9371842
20,Советская улица,143904,55.8034200,37.9367762
22,улица Победы,143904,55.8030683,37.9278494
14/2,улица Победы,143904,55.8004993,37.9276799
45,проспект Ленина,143907,55.7973714,37.9460512
2,улица Быковского,143907,55.8000172,37.9555604
6,Советская улица,143980,55.7497865,38.0132098
16,Советская улица,143987,55.7504893,38.0163854
23,Новая улица,143987,55.7491737,38.0195886
36,Советская улица,143987,55.7501607,38.0256815
3,улица 60 лет Октября,143987,55.7495162,38.0162843
23А,Саввинское шоссе,143986,55.7451059,38.0162634
2,Колхозная улица,143987,55.7476075,38.0219344
1,Колхозная улица,143987,55.7476544,38.0226893
3,Колхозная улица,143987,55.7468801,38.0228619
27,Новая улица,143987,55.7490378,38.0212001
33,Новая улица,143987,55.7491696,38.0236668
9,Северный проезд,143903,55.8097047,37.9781758
7,Северный проезд,143903,55.8091819,37.9781895
13,Северный проезд,143903,55.8091085,37.9797127
7,Пушкинская улица,143903,55.8067165,37.9820096
10,Октябрьская улица,143903,55.8066958,37.9809080
9,Октябрьская улица,143903,55.8065526,37.9799594
18,улица Быковского,143907,55.8016930,37.9579013
10,Комсомольская улица,143903,55.8056664,37.9794242
8,Комсомольская улица,143903,55.8048306,37.9794435
1,Заводской проезд,143903,55.8054506,37.9798563
16,Комсомольская улица,143903,55.8070019,37.9787695
20,Комсомольская улица,143903,55.8079684,37.9789287
16,Пушкинская улица,143903,55.8075077,37.9825694
14,Пушкинская улица,143903,55.8071446,37.9825193
10,улица Чехова,143903,55.8038799,37.9806750
4,Комсомольская улица,143903,55.8035149,37.9798835
5,Комсомольская улица,143903,55.8036453,37.9792891
10,улица Белякова,143903,55.8020876,37.9800968
12,улица Белякова,143903,55.8022682,37.9813238
87,проспект Ленина,143903,55.8015357,37.9815904
14,улица Белякова,143903,55.8019390,37.9821051
85,проспект Ленина,143903,55.8011062,37.9806267
45,шоссе Энтузиастов,143907,55.7982628,37.9701813
47,шоссе Энтузиастов,143907,55.7983340,37.9708320
34,проспект Ленина,143907,55.7988590,37.9704158
38,проспект Ленина,143907,55.7989960,37.9716599
49,шоссе Энтузиастов,143907,55.7983955,37.9714880
51,шоссе Энтузиастов,143907,55.7984653,37.9721398
42,проспект Ленина,143903,55.7995405,37.9738236
46,проспект Ленина,143903,55.7996973,37.9751644
57,шоссе Энтузиастов,143903,55.7988900,37.9754537
61,шоссе Энтузиастов,143903,55.7990623,37.9769369
50,проспект Ленина,143903,55.7998754,37.9766551
63,шоссе Энтузиастов,143903,55.7991449,37.9776251
65,шоссе Энтузиастов,143903,55.7992231,37.9782813
54,проспект Ленина,143903,55.7997264,37.9777335
52,проспект Ленина,143903,55.8002841,37.9775386
56,проспект Ленина,143903,55.8000727,37.9786661
67,шоссе Энтузиастов,143903,55.7992995,37.9789346
71,шоссе Энтузиастов,143903,55.7994682,37.9804035
73,шоссе Энтузиастов,143903,55.7995463,37.9810535
75,шоссе Энтузиастов,143903,55.7996311,37.9817350
77,шоссе Энтузиастов,143903,55.7996936,37.9824411
66,проспект Ленина,143903,55.8004934,37.9821597
64,проспект Ленина,143903,55.8001059,37.9812867
60,проспект Ленина,143903,55.8002783,37.9801990
12,Пушкинская улица,143903,55.8068402,37.9828148
10,Пушкинская улица,143903,55.8063889,37.9827753
8,Пушкинская улица,143903,55.8059102,37.9829428
1,Октябрьская улица,143903,55.8043985,37.9807482
2,Заводской проезд,143903,55.8051554,37.9799682
3,Октябрьская улица,143903,55.8047617,37.9807453
1,Пушкинская улица,143903,55.8046054,37.9827060
3,Пушкинская улица,143903,55.8052710,37.9826027
6,Октябрьская улица,143903,55.8052281,37.9812712
4,Октябрьская улица,143903,55.8048396,37.9813940
4,Пушкинская улица,143903,55.8050217,37.9832503
14,улица Чехова,143903,55.8037984,37.9823734
18,улица Чехова,143903,55.8041688,37.9839468
2,Пушкинская улица,143903,55.8046139,37.9835612
3,улица Белякова,143903,55.8028323,37.9806636
1,Северный проезд,143903,55.8087573,37.9765976
3,Северный проезд,143903,55.8088760,37.9770526
29,Комсомольская улица,143903,55.8088598,37.9775209
80,шоссе Энтузиастов,143900,55.7981111,37.9864439
17,Саввинское шоссе,143986,55.7454855,38.0139501
13,Саввинское шоссе,143986,55.7459355,38.0124106
15,Саввинское шоссе,143986,55.7456248,38.0131382
19,Саввинское шоссе,143986,55.7452532,38.0147387
8,Советская улица,143980,55.7506180,38.0129183
4,Советская улица,143980,55.7496439,38.0117161
18,Новая улица,143986,55.7478613,38.0165225
16,Новая улица,143986,55.7478516,38.0154742
27,Пролетарская улица,143980,55.7460089,38.0090725
4,Пролетарская улица,143912,55.7910386,37.9359276
34А,проспект Ленина,143907,55.7991699,37.9683000
7,улица Фадеева,143900,55.7958200,37.9726335
68,шоссе Энтузиастов,143900,55.7966016,37.9738788
6,улица Фадеева,143900,55.7944069,37.9755356
72,шоссе Энтузиастов,143900,55.7969682,37.9773166
10,улица Фадеева,143900,55.7946503,37.9799321
76,шоссе Энтузиастов,143900,55.7974097,37.9811564
104,Трубецкая улица,143915,55.8358401,37.9766895
106,Трубецкая улица,143915,55.8356603,37.9772284
108,Трубецкая улица,143915,55.8359337,37.9776071
51,улица Свердлова,143915,55.8319599,37.9700574
43,улица Свердлова,143915,55.8309191,37.9710249
57,улица Свердлова,143915,55.8327558,37.9694043
вл 38,улица Свердлова,143915,55.8310159,37.9726445
9,Зелёная улица,143902,55.8092120,37.9404027
6,Зелёная улица,143902,55.8087895,37.9458356
8,Зелёная улица,143902,55.8088093,37.9404537
36,Зелёная улица,143902,55.8081777,37.9402320
32 к2,Зелёная улица,143902,55.8081305,37.9432288
28,Зелёная улица,143902,55.8093856,37.9415834
10,Зелёная улица,143902,55.8091343,37.9433329
21,Зелёная улица,143902,55.8095582,37.9433151
29,Зелёная улица,143902,55.8100218,37.9424504
27,Зелёная улица,143902,55.8104994,37.9433265
3,улица Орджоникидзе,143902,55.8107945,37.9485564
6,Пионерская улица,143900,55.7941432,37.9677139
38,Заречная улица,143915,55.8322020,37.9637395
39,Заречная улица,143915,55.8327592,37.9649334
37,Заречная улица,143915,55.8316153,37.9625672
3,улица Объединения,143905,55.8261958,37.9680280
5,улица Объединения,143905,55.8266713,37.9689100
23,Заречная улица,143915,55.8282400,37.9668282
23,Солнечная улица,143909,55.8288589,37.9563469
21,улица Орджоникидзе,143902,55.8168183,37.9492706
5,улица Орджоникидзе,143902,55.8112992,37.9481839
7,улица Орджоникидзе,143902,55.8122507,37.9483474
9,улица Орджоникидзе,143902,55.8121805,37.9495268
12,улица Орджоникидзе,143902,55.8126874,37.9496169
9А,улица Евстафьева,143912,55.7892482,37.9358577
20,Первомайская улица,143912,55.7887325,37.9385537
11,улица Евстафьева,143912,55.7884083,37.9380769
19,Первомайская улица,143912,55.7894288,37.9392928
9,Первомайская улица,143912,55.7900705,37.9376980
15,улица Евстафьева,143912,55.7878363,37.9392862
5,Леоновское шоссе,143900,55.7920332,37.9579745
2/3,улица Юлиуса Фучика,143900,55.7914830,37.9604839
56,шоссе Энтузиастов,143912,55.7953510,37.9651827
9,Пионерская улица,143900,55.7948944,37.9664736
58,шоссе Энтузиастов,143900,55.7953074,37.9672134
11,улица Карбышева,143900,55.7907680,37.9653983
9,улица Карбышева,143900,55.7904848,37.9649670
25,улица Карбышева,143900,55.7902467,37.9695317
27,улица Карбышева,143900,55.7902050,37.9702358
29,улица Карбышева,143900,55.7900918,37.9709073
16,улица Некрасова,143900,55.7908661,37.9717251
10,улица Некрасова,143900,55.7928166,37.9706570
11,улица Некрасова,143900,55.7928665,37.9736098
3,улица Твардовского,143900,55.7911163,37.9738652
5,улица Твардовского,143900,55.7914697,37.9746749
7,улица Твардовского,143900,55.7918520,37.9755021
13,улица Твардовского,143900,55.7922775,37.9768106
15,улица Твардовского,143900,55.7931021,37.9777078
17,улица Твардовского,143900,55.7937990,37.9790973
13,улица Фадеева,143900,55.7951496,37.9765697
25,улица Фадеева,143900,55.7965049,37.9815308
21,улица Фадеева,143900,55.7956426,37.9809774
27,проспект Ленина,143900,55.7978106,37.9401214
20,Советская улица,143987,55.7502867,38.0195214
28,Советская улица,143987,55.7503428,38.0231172
38,Советская улица,143987,55.7507522,38.0262995
40,Советская улица,143987,55.7507564,38.0270169
41,Новая улица,143987,55.7496416,38.0262735
37,Новая улица,143987,55.7495018,38.0253023
34,Советская улица,143987,55.7507377,38.0248637
18,Советская улица,143987,55.7502702,38.0183412
22,Советская улица,143987,55.7504198,38.0203491
26,Советская улица,143987,55.7504335,38.0211302
31,Новая улица,143987,55.7487715,38.0225045
29,Новая улица,143987,55.7486076,38.0201098
30,Советская улица,143987,55.7507648,38.0220701
35,Новая улица,143987,55.7496992,38.0223673
5,Школьная улица,143986,55.7468482,38.0166941
23,Интернациональная улица,143986,55.7467202,38.0146359
4,Школьная улица,143986,55.7464534,38.0168305
2,Школьная улица,143986,55.7462991,38.0147442
22,Интернациональная улица,143986,55.7467109,38.0137868
4 к1,Саввинское шоссе,143986,55.7436215,38.0124548
6,Саввинское шоссе,143986,55.7446631,38.0124844
4,Саввинское шоссе,143986,55.7447155,38.0112891
24,Новая улица,143987,55.7482693,38.0213434
20,Новая улица,143987,55.7481274,38.0193360
20А,Новая улица,143987,55.7475711,38.0190252
20Б,Новая улица,143987,55.7470889,38.0195547
15А,улица Твардовского,143900,55.7932182,37.9787694
10А,Советская улица,143904,55.7997771,37.9363836
10,Советская улица,143922,55.7559794,38.0797127
12,Советская улица,143922,55.7559814,38.0803446
14,Советская улица,143922,55.7559935,38.0810209
8,Советская улица,143922,55.7559742,38.0790566
6,Советская улица,143922,55.7559742,38.0783974
4,Советская улица,143922,55.7559620,38.0777600
2,Советская улица,143922,55.7559572,38.0770104
3,Советская улица,143922,55.7566696,38.0777338
1,Советская улица,143922,55.7566638,38.0769963
5,Советская улица,143922,55.7566755,38.0783816
7,Советская улица,143922,55.7566891,38.0790260
11,Московская улица,143922,55.7564181,38.0878313
2,улица Маршала Батицкого,143922,55.7591405,38.0774798
11,улица Маршала Говорова,143922,55.7578978,38.0782485
10,улица Маршала Говорова,143922,55.7578832,38.0773342
13,улица Маршала Говорова,143922,55.7574725,38.0773669
14,улица Маршала Говорова,143922,55.7574824,38.0782734
9,улица Маршала Батицкого,143922,55.7586872,38.0773138
8,улица Маршала Батицкого,143922,55.7587027,38.0782236
5,улица Маршала Батицкого,143922,55.7591118,38.0782133
1,Садовая улица,143922,55.7611103,38.0807396
4,улица Маршала Батицкого,143922,55.7591178,38.0797985
12,Пионерская улица,143922,55.7600594,38.0879404
10,Пионерская улица,143922,55.7601932,38.0889053
8,Пионерская улица,143922,55.7603173,38.0897186
6,Пионерская улица,143922,55.7609280,38.0909471
4,Пионерская улица,143922,55.7609255,38.0917052
2,Пионерская улица,143922,55.7609183,38.0924591
3,Садовая улица,143922,55.7616951,38.0835923
2,Садовая улица,143922,55.7622415,38.0835474
15,улица Маршала Говорова,143922,55.7575057,38.0798725
16,улица Маршала Говорова,143922,55.7575212,38.0808099
1,Молодёжная улица,143922,55.7594416,38.0828042
3,Молодёжная улица,143922,55.7594179,38.0819857
4,Молодёжная улица,143922,55.7602749,38.0820890
2,Молодёжная улица,143922,55.7602904,38.0829058
6,Молодёжная улица,143922,55.7602574,38.0815239
8,Молодёжная улица,143922,55.7602439,38.0809173
10,Молодёжная улица,143922,55.7602283,38.0803074
12,Молодёжная улица,143922,55.7602012,38.0796629
6,Лесная улица,143922,55.7574980,38.0934476
2,Лесная улица,143922,55.7593432,38.0934692
7,улица Смельчак,143982,55.7544539,37.9570960
11,улица Маяковского,143989,55.7473551,37.9989629
13,улица Маяковского,143989,55.7470914,37.9971029
21,улица Маяковского,143989,55.7482999,37.9964182
13,улица Некрасова,143989,55.7491703,37.9965003
63,улица Жилгородок,143989,55.7487617,37.9959037
7,улица Некрасова,143989,55.7486015,37.9986944
49,Пролетарская улица,143980,55.7450228,38.0057049
47,Пролетарская улица,143980,55.7448365,38.0064779
48,Пролетарская улица,143980,55.7442661,38.0073834
46,Пролетарская улица,143980,55.7446970,38.0080473
8,Пролетарская улица,143980,55.7463951,38.0073359
12,Пролетарская улица,143980,55.7457826,38.0066139
2,Главная улица,143989,55.7507167,37.9928182
21,Саввинское шоссе,143986,55.7447278,38.0154954
23,Саввинское шоссе,143986,55.7445192,38.0168424
1,Пионерская улица,143986,55.7438205,38.0170267
9,Пионерская улица,143987,55.7443213,38.0268913
21,Пионерская улица,143987,55.7451200,38.0310432
38,Новая улица,143987,55.7484750,38.0293944
40,Новая улица,143987,55.7481211,38.0306552
12,улица Пушкина,143987,55.7471432,38.0305793
6,улица Пушкина,143987,55.7473572,38.0287755
8,улица Пушкина,143987,55.7466915,38.0294008
10,улица Пушкина,143987,55.7459989,38.0285085
23,Пионерская улица,143987,55.7443773,38.0304042
25,Пионерская улица,143987,55.7445973,38.0321517
31,Пионерская улица,143987,55.7445008,38.0333623
27,Пионерская улица,143987,55.7436549,38.0310501
17,Пионерская улица,143987,55.7438401,38.0294806
4,Луговая улица,143987,55.7457771,38.0345402
8,Луговая улица,143987,55.7466750,38.0345499
6,Луговая улица,143987,55.7461272,38.0337368
10,Луговая улица,143987,55.7468121,38.0337198
12,Луговая улица,143987,55.7474057,38.0341179
14,Луговая улица,143987,55.7477581,38.0336023
16,Луговая улица,143987,55.7481000,38.0329651
36,Новая улица,143987,55.7480685,38.0280215
7,Пионерская улица,143987,55.7445863,38.0253469
11,Пионерская улица,143987,55.7436853,38.0274543
24,Пионерская улица,143900,55.7428483,38.0302322
18,Пионерская улица,143986,55.7429122,38.0279888
16А,Пионерская улица,143986,55.7425191,38.0262248
14А,Пионерская улица,143986,55.7425758,38.0254044
14Б,Пионерская улица,143986,55.7425711,38.0246803
8,Пионерская улица,143986,55.7427980,38.0216621
6,Пионерская улица,143986,55.7427988,38.0208824
4,Пионерская улица,143986,55.7427997,38.0200741
2,Пионерская улица,143986,55.7429692,38.0193170
10,Пионерская улица,143986,55.7431213,38.0228418
3,Пионерская улица,143987,55.7442801,38.0233885
27,Октябрьская улица,143980,55.7508177,38.0010287
2,Пролетарская улица,143980,55.7496288,38.0077687
25 к3 лит1-2,Октябрьская улица,143980,55.7497121,38.0006694
17,Октябрьская улица,143980,55.7508255,38.0021399
8,Колхозная улица,143987,55.7453642,38.0215929
19,Парковая улица,143904,55.8035803,37.9379960
16А,Советская улица,143904,55.8018438,37.9360825
15А,Парковая улица,143904,55.8018256,37.9367531
1,Юбилейная улица,143986,55.7422560,38.0186932
3,Юбилейная улица,143986,55.7415376,38.0186580
8 к1,Юбилейная улица,143986,55.7408260,38.0160880
4 к1,Юбилейная улица,143986,55.7413526,38.0149198
4,Юбилейная улица,143986,55.7415443,38.0152918
5,Юбилейная улица,143986,55.7415888,38.0198452
7,Юбилейная улица,143986,55.7410721,38.0205347
83,шоссе Энтузиастов,143903,55.7996355,37.9874311
85,шоссе Энтузиастов,143903,55.7997880,37.9882381
19,улица Маяковского,143989,55.7475699,37.9953663
5,Объездное шоссе,143912,55.7929237,37.8949757
4,шоссе Энтузиастов,143900,55.7945017,37.9032184
12А,Пионерская улица,143986,55.7419979,38.0234734
1,улица Калинина,143986,55.7389318,38.0233982
5А,улица Калинина,143986,55.7407235,38.0240091
5А,улица Калинина,143986,55.7406807,38.0239790
14,Юбилейная улица,143986,55.7390679,38.0207058
11 к3,Юбилейная улица,143986,55.7403131,38.0227906
11 к2,Юбилейная улица,143986,55.7400526,38.0221554
11 к1,Юбилейная улица,143986,55.7398052,38.0215525
12Б,Пионерская улица,143986,55.7413432,38.0232187
10,Юбилейная улица,143986,55.7403234,38.0186425
15,улица Калинина,143986,55.7421072,38.0296297
3,улица Калинина,143986,55.7396422,38.0240879
5,улица Калинина,143986,55.7398895,38.0249112
9,улица Калинина,143986,55.7409188,38.0274593
11,улица Калинина,143986,55.7412226,38.0282430
13,улица Калинина,143986,55.7415328,38.0290033
7,улица Калинина,143986,55.7408037,38.0260090
29,Пионерская улица,143987,55.7436450,38.0327632
4 к2,Саввинское шоссе,143986,55.7441599,38.0103161
50Б,Пролетарская улица,143980,55.7438238,38.0064033
4,улица Маяковского,143989,55.7469682,38.0049734
22 к1,Юбилейная улица,143986,55.7386492,38.0186004
16,Юбилейная улица,143986,55.7380960,38.0214687
16А,Юбилейная улица,143986,55.7375933,38.0203222
20,Юбилейная улица,143986,55.7378043,38.0191540
18,Юбилейная улица,143986,55.7370542,38.0189885
18 к1,Юбилейная улица,143986,55.7371278,38.0182066
4,Автозаводская улица,143986,55.7415616,38.0104896
4А,Юбилейная улица,143986,55.7414166,38.0131083
6,Школьная улица,143986,55.7462678,38.0157490
50А,Пролетарская улица,143980,55.7440883,38.0079942
7Б,Саввинское шоссе,143986,55.7459980,38.0115010
20,Интернациональная улица,143986,55.7473298,38.0136436
42,Новая улица,143987,55.7477959,38.0296106
1,улица 1 Мая,143985,55.7283020,38.0206244
3,улица 1 Мая,143985,55.7281880,38.0216769
7,улица 1 Мая,143985,55.7287692,38.0240352
7 к1,улица 1 Мая,143985,55.7293624,38.0232393
2,улица 1 Мая,143985,55.7267501,38.0212238
3А,улица 1 Мая,143985,55.7287493,38.0216892
5,улица 1 Мая,143985,55.7284666,38.0228069
10,улица 1 Мая,143985,55.7276438,38.0249613
22,улица 1 Мая,143985,55.7309856,38.0324290
4,Транспортная улица,143985,55.7345259,38.0245895
35,Центральная улица,143981,55.7502749,37.9545938
2 к1,Почтовая улица,143981,55.7502977,37.9562701
6,Центральная улица,143981,55.7502013,37.9594268
4,Почтовая улица,143981,55.7489284,37.9575859
3,Южная улица,143982,55.7497257,37.9531619
10,Центральная улица,143981,55.7494634,37.9604160
4,Центральная улица,143981,55.7496493,37.9595148
5 к1,Почтовая улица,143981,55.7486813,37.9582901
5,Носовихинское шоссе,143983,55.7503554,37.9753599
7,Пролетарская улица,143980,55.7446242,38.0090527
4 к3,Юбилейная улица,143986,55.7406809,38.0131685
6,Автозаводская улица,143986,55.7413334,38.0115759
4/2,Автозаводская улица,143986,55.7404090,38.0113426
22,Главная улица,143989,55.7470771,37.9908609
26,Главная улица,143989,55.7461226,37.9901721
24,Главная улица,143989,55.7469132,37.9896918
7,Граничная улица,143989,55.7486199,37.9866682
20,улица Маяковского,143989,55.7465484,37.9932041
18,улица Маяковского,143989,55.7471410,37.9927356
9,Главная улица,143989,55.7462006,37.9917725
34,Граничная улица,143983,55.7427667,37.9849206
28,Граничная улица,143983,55.7452130,37.9837162
5,Граничная улица,143989,55.7495532,37.9862799
39,улица Жилгородок,143989,55.7492204,37.9867343
40,улица Жилгородок,143989,55.7483407,37.9902074
5А,улица Жилгородок,143989,55.7507643,37.9898331
9А,улица Жилгородок,143989,55.7508160,37.9877986
7А,улица Жилгородок,143989,55.7507903,37.9888151
4,улица Некрасова,143989,55.7495370,37.9973969
13,проспект Жуковского,143982,55.7553311,37.9599341
кА,улица Гидрогородок,143982,55.7586024,37.9653978
кБ,улица Гидрогородок,143982,55.7587902,37.9660686
11,Пионерская улица,143900,55.7947274,37.9672147
2,улица Маяковского,143989,55.7463825,38.0059928
8,улица Карбышева,143900,55.7859410,37.9714714
8,Кольцевая улица,143906,55.8229260,37.8812713
12,Кольцевая улица,143906,55.8200276,37.8811769
14,Кольцевая улица,143906,55.8201956,37.8797199
5,Кольцевая улица,143906,55.8231090,37.8793426
10,Кольцевая улица,143906,55.8206219,37.8826237
24,Керамическая улица,143983,55.7480231,37.9734345
7,Южная улица,143982,55.7489467,37.9522663
18,Заводская улица,143983,55.7480266,37.9772326
5,Южная улица,143982,55.7488831,37.9533622
49,Пушкинская улица,143982,55.7538923,37.9503852
12,улица Смельчак,143982,55.7543263,37.9517357
10,улица Смельчак,143982,55.7541249,37.9529675
кВ,улица Гидрогородок,143982,55.7585243,37.9672823
3,улица Гидрогородок,143982,55.7580469,37.9677214
3А,улица Гидрогородок,143982,55.7574747,37.9670150
2/1,улица Кудаковского,143910,55.8214439,37.9660834
2/3,улица Кудаковского,143910,55.8213643,37.9664507
16,Молодёжная улица,143922,55.7601128,38.0778005
25,улица 40 лет Победы,143915,55.8318988,37.9778072
29,улица 40 лет Победы,143915,55.8325445,37.9786991
4 с18,Восточное шоссе,143900,55.7869398,38.0405810
8,Первомайская улица,143912,55.7907328,37.9340252
43,проспект Ленина,143907,55.7978318,37.9454118
1,Восточная улица,143903,55.8048317,37.9845883
5,Октябрьская улица,143903,55.8051466,37.9806048
12,Комсомольская улица,143903,55.8059550,37.9790397
11,Комсомольская улица,143903,55.8053537,37.9787148
4,Заводской проезд,143903,55.8053865,37.9818875
13,Восточная улица,143903,55.8075263,37.9836290
2,Октябрьская улица,143903,55.8044838,37.9816646
14,Комсомольская улица,143903,55.8065542,37.9788365
3,Восточная улица,143903,55.8054832,37.9843441
15,Комсомольская улица,143903,55.8062239,37.9784067
9А,Октябрьская улица,143903,55.8061836,37.9795634
19,Комсомольская улица,143903,55.8075590,37.9776410
18,Комсомольская улица,143903,55.8076312,37.9787220
11,Восточная улица,143903,55.8070658,37.9837969
32,Заречная улица,143915,55.8306360,37.9654586
22,улица Твардовского,143900,55.7934843,37.9847489
62,проспект Ленина,143903,55.8006762,37.9810734
44,проспект Ленина,143903,55.7996206,37.9744953
22,Комсомольская улица,143903,55.8080475,37.9783569
24,Комсомольская улица,143903,55.8083259,37.9782173
36,Граничная улица,143983,55.7440031,37.9833625
22 к2,Граничная улица,143989,55.7461348,37.9834961
14А,Заводская улица,143983,55.7476055,37.9773785
14,Заводская улица,143983,55.7475862,37.9763102
12,Заводская улица,143983,55.7468596,37.9762482
40,Центральная улица,143981,55.7514289,37.9558879
8,Центральная улица,143981,55.7500663,37.9607117
16,Лесопарковая улица,143980,55.7536412,37.9994775
12,Лесопарковая улица,143980,55.7542689,37.9990672
10,Рождественская улица,143989,55.7438052,37.9967956
5/11,улица Третьяка,143909,55.8232069,37.9499196
5/5,Лётная улица,143913,55.8241434,37.9445073
8/7,Лётная улица,143909,55.8239734,37.9467541
2 с10,Кучинское шоссе,143930,55.7795948,37.9507299
7А,улица Свободы,143983,55.7471999,37.9706806
9А,улица Свободы,143983,55.7467432,37.9715441
5,улица Свободы,143983,55.7474845,37.9698463
1,Береговая улица,143983,55.7447395,37.9656727
19,улица Жилгородок,143989,55.7501820,37.9879084
1,Главная улица,143989,55.7506353,37.9941445
17,улица Жилгородок,143989,55.7501586,37.9886216
9,улица Жилгородок,143989,55.7500674,37.9920271
9,улица Некрасова,143989,55.7488073,37.9979309
33,улица Жилгородок,143989,55.7493130,37.9873183
30,улица Жилгородок,143989,55.7495200,37.9890804
35,улица Жилгородок,143989,55.7478378,37.9901416
27,улица Жилгородок,143989,55.7489851,37.9897643
32,улица Жилгородок,143989,55.7496473,37.9882188
41,улица Жилгородок,143989,55.7484281,37.9896610
11,улица Некрасова,143989,55.7489924,37.9971977
5,улица Некрасова,143989,55.7483503,37.9993483
29,улица Жилгородок,143989,55.7491219,37.9888711
34,улица Жилгородок,143989,55.7497971,37.9875437
4,улица Майкла Лунна,143915,55.8341188,37.9746370
50,улица Свердлова,143915,55.8331506,37.9740345
27,улица 40 лет Победы,143915,55.8323394,37.9768581
24,Заречная улица,143915,55.8289250,37.9673535
2,улица Текстильщиков,143910,55.8121225,37.9648933
26,Заречная улица,143915,55.8291524,37.9666716
31,Заречная улица,143915,55.8301752,37.9640277
27,Заречная улица,143915,55.8293269,37.9670431
24 с3,улица Твардовского,143900,55.7956579,37.9882516
20,улица Твардовского,143900,55.7931011,37.9827808
18,улица Твардовского,143900,55.7925072,37.9810324
10,улица Твардовского,143900,55.7913438,37.9773517
12,улица Твардовского,143900,55.7921790,37.9789945
16,улица Твардовского,143900,55.7932088,37.9806877
26,улица Твардовского,143900,55.7941733,37.9822431
1,площадь Славы,143912,55.7965723,37.9356637
22,Солнечная улица,143909,55.8293306,37.9570245
30,Чистопольская улица,143915,55.8422829,37.9765802
32,Чистопольская улица,143915,55.8431736,37.9772312
1Б,Привокзальная площадь,143980,55.7518853,38.0069718
5 к1,улица Соловьёва,143982,55.7642460,37.9665629
3,улица Соловьёва,143982,55.7639245,37.9653984
5,улица Соловьёва,143982,55.7638840,37.9663098
4 с11,Восточное шоссе,143900,55.7873861,38.0396014
16/5,улица Свердлова,143905,55.8219174,37.9697163
30,Зелёная улица,143902,55.8099933,37.9452136
19,Зелёная улица,143902,55.8092916,37.9427467
2,Зелёная улица,143902,55.8095564,37.9422216
3,Зелёная улица,143902,55.8098973,37.9428146
32В,проспект Ленина,143907,55.7976625,37.9618344
32Г,проспект Ленина,143907,55.7978037,37.9630812
10,улица Кожедуба,143900,55.8249903,37.9491798
6/8,Лётная улица,143909,55.8225464,37.9464950
9,Лётная улица,143900,55.8254739,37.9454786
53,улица Лукино,143909,55.8363466,37.9383718
111,Щёлковское шоссе,143912,55.8328263,37.9359320
7,Почтовая улица,143981,55.7497638,37.9553760
3,Почтовая улица,143981,55.7491493,37.9559714
4,Почтовая улица,143980,55.7491747,37.9551539
8,Почтовая улица,143981,55.7488612,37.9543252
2А,Почтовая улица,143981,55.7485131,37.9549548
15,Первомайская улица,143912,55.7894858,37.9382537
22,Первомайская улица,143912,55.7881499,37.9398981
19,улица Евстафьева,143912,55.7877007,37.9404723
13А,улица Евстафьева,143912,55.7883023,37.9389534
14,Первомайская улица,143912,55.7899116,37.9359881
11Б,Пригородная улица,143990,55.7957035,37.9251453
48,Речная улица,143988,55.7447707,37.9597473
4 с1,улица Свободы,143980,55.7482536,37.9668482
15,улица Адмирала Нахимова,143920,55.7526017,38.1162115
16,улица Адмирала Нахимова,143920,55.7524959,38.1148324
14,улица Адмирала Нахимова,143920,55.7529811,38.1152032
55,проспект Ленина,143900,55.7987829,37.9554916
21,проспект Ленина,143904,55.7974873,37.9359242
19,Молодёжная улица,143922,55.7612641,38.0777298
17,Молодёжная улица,143922,55.7604652,38.0767955
6,улица Маршала Батицкого,143922,55.7591177,38.0807485
19,улица Фадеева,143900,55.7960292,37.9790464
49,Новая улица,143987,55.7492545,38.0291853
11,Звёздная улица,143912,55.8311901,37.9482086
3,улица Адмирала Нахимова,143920,55.7515637,38.1150879
14,Граничная улица,143983,55.7475576,37.9841846
5,Восточная улица,143903,55.8046803,37.9841237
23,Комсомольская улица,143903,55.8080037,37.9773841
26,Комсомольская улица,143903,55.8086086,37.9781649
вл87 к2,шоссе Энтузиастов,143903,55.8027012,37.9879430
вл87 к1,шоссе Энтузиастов,143903,55.8030564,37.9873633
2/1,Северный проезд,143903,55.8084653,37.9769777
4,Новая улица,143903,55.8073175,38.0384109
3,Новая улица,143903,55.8070073,38.0385000
1,Новая улица,143903,55.8063832,38.0387023
5,Новая улица,143903,55.8076307,38.0383278
2,Новая улица,143903,55.8066953,38.0386063
24,Граничная улица,143983,55.7458871,37.9858576
12,Граничная улица,143983,55.7485159,37.9837301
1,улица Поликахина,143989,55.7402721,38.0001965
30,Граничная улица,143983,55.7448520,37.9848757
16,Граничная улица,143983,55.7476120,37.9854347
50,Пролетарская улица,143980,55.7436898,38.0071246
6,улица Маяковского,143980,55.7460464,38.0048665
8/1,Юбилейная улица,143986,55.7400082,38.0179827
8,Юбилейная улица,143986,55.7405245,38.0172325
4 к1,улица Жилгородок,143989,55.7498737,37.9900575
6,улица Ленина,143985,55.7292542,38.0337284
6,Колхозная улица,143987,55.7460391,38.0213125
15,Зелёная улица,143902,55.8088640,37.9441354
34А,Зелёная улица,143902,55.8071938,37.9409485
14,Новая улица,143986,55.7477020,38.0144356
13,Октябрьская улица,143980,55.7502784,38.0031278
9,Октябрьская улица,143980,55.7501723,38.0041662
1,Октябрьская улица,143980,55.7505548,38.0048072
3,Октябрьская улица,143980,55.7502339,38.0051366
39,Новая улица,143987,55.7489202,38.0250099
32,Советская улица,143987,55.7507954,38.0232820
12 к1,Юбилейная улица,143986,55.7395012,38.0183077
12,Юбилейная улица,143986,55.7394326,38.0190946
20 к1,Юбилейная улица,143986,55.7378800,38.0183986
22,Юбилейная улица,143986,55.7385778,38.0193852
7,улица Адмирала Горшкова,143920,55.7475379,38.1199462
11,улица Адмирала Горшкова,143920,55.7474549,38.1210546
14,улица Смельчак,143982,55.7547532,37.9540411
17,улица Смельчак,143982,55.7550397,37.9547702
16,улица Смельчак,143982,55.7555043,37.9535758
15,улица Смельчак,143982,55.7549281,37.9528059
13,улица Кудаковского,143905,55.8210667,37.9730513
26,Кольцевая улица,143906,55.8219350,37.8746975
24,Кольцевая улица,143906,55.8216231,37.8735223
3 к3,Кольцевая улица,143906,55.8226523,37.8761145
3 к1,Кольцевая улица,143906,55.8222791,37.8754491
6,улица Некрасова,143989,55.7511363,37.9955094
10,улица Некрасова,143989,55.7502281,37.9968084
8,улица Некрасова,143989,55.7507171,37.9962352
24,улица Маяковского,143989,55.7453877,38.0011301
6,Рождественская улица,143989,55.7439042,38.0010263
1Ж,Керамическая улица,143983,55.7409022,37.9601911
2,Лесопарковая улица,143980,55.7536576,38.0089699
3,Лесопарковая улица,143980,55.7539606,38.0082210
35,Зелёная улица,143902,55.8076947,37.9410043
вл2/6,шоссе Энтузиастов,143915,55.7815363,37.8900138
3,улица Ляхова,143989,55.7485402,37.9877141
11А,шоссе Энтузиастов,143912,55.7889263,37.8885650
1А,Юбилейная улица,143986,55.7428912,38.0176155
9,Новая улица,143980,55.7481359,38.0133845
6,улица Разина,143912,55.7903697,37.9311382
8,улица Разина,143912,55.7898541,37.9311098
4,Рождественская улица,143989,55.7439045,38.0032018
5,Рождественская улица,143989,55.7425879,38.0005986
2,Полевая улица,143912,55.7924799,37.9341901
7,улица Чаплыгина,143982,55.7532876,37.9554302
9,улица Смельчак,143982,55.7539293,37.9544631
22,улица Маяковского,143989,55.7456306,38.0029281
30,улица Маяковского,143989,55.7448285,38.0041250
5,улица Лесные Поляны,143982,55.7573783,37.9523181
3,улица Чаплыгина,143982,55.7538092,37.9525487
43,Центральная улица,143981,55.7506042,37.9508589
36,улица Маяковского,143989,55.7447179,37.9992586
26,улица Маяковского,143989,55.7455143,37.9988372
28,улица Маяковского,143989,55.7458095,37.9976006
8,Рождественская улица,143989,55.7439634,37.9987371
1,Троицкая улица,143988,55.7274578,37.9730153
15,улица Некрасова,143989,55.7493370,37.9956301
15,Железнодорожный проезд,143983,55.7444811,37.9811488
41,Центральная улица,143981,55.7501198,37.9571636
2,Леоновское шоссе,143980,55.7647449,37.9609178
16 с1,Юбилейная улица,143986,55.7370346,38.0212930
17/10 к1,улица Калинина,143910,55.8196912,37.9715243
20,Балашихинское шоссе,143913,55.8243984,37.9306290
12,Балашихинское шоссе,143913,55.8236269,37.9324556
16,Балашихинское шоссе,143913,55.8231212,37.9301638
18,Балашихинское шоссе,143913,55.8238015,37.9303908
2,улица Адмирала Кузнецова,143920,55.7498016,38.1060490
7,улица Адмирала Кузнецова,143920,55.7502793,38.1074824
1,улица Адмирала Кузнецова,143920,55.7497926,38.1073707
28,Заречная улица,143915,55.8295407,37.9657701
26,Чистопольская улица,143915,55.8414146,37.9763219
вл13А,Звёздная улица,143912,55.8300808,37.9455496
17,Лесопарковая улица,143980,55.7531865,37.9985973
42,улица Маяковского,143989,55.7444081,37.9968666
15,Добросельская улица,143903,55.8092782,38.0591651
17,Добросельская улица,143903,55.8093095,38.0596676
19,Добросельская улица,143903,55.8093662,38.0601771
2,Добросельская улица,143903,55.8085482,38.0566049
4,Добросельская улица,143903,55.8086279,38.0572186
6,Добросельская улица,143903,55.8086909,38.0578184
10,Добросельская улица,143903,55.8087594,38.0593576
14,Добросельская улица,143903,55.8088162,38.0599231
12,Добросельская улица,143903,55.8082465,38.0596877
16,Добросельская улица,143903,55.8083156,38.0602911
19,улица Мещёра,143903,55.8100423,38.0549477
21,улица Мещёра,143903,55.8094320,38.0551693
23,улица Мещёра,143903,55.8088171,38.0553862
9,Добросельская улица,143903,55.8095185,38.0582567
13,Добросельская улица,143903,55.8095809,38.0588916
1,Добросельская улица,143903,55.8089417,38.0564847
3,Добросельская улица,143903,55.8090033,38.0569920
5,Добросельская улица,143903,55.8090726,38.0575079
7,Добросельская улица,143903,55.8091262,38.0580091
11,Добросельская улица,143903,55.8091983,38.0586711
16,Приозёрная улица,143987,55.7539709,38.0197401
15,Приозёрная улица,143987,55.7539705,38.0192191
14,Приозёрная улица,143987,55.7539709,38.0186941
5,Пролетарская улица,143980,55.7481699,38.0097551
10,улица Адмирала Нахимова,143920,55.7500450,38.1177661
11,улица Адмирала Нахимова,143920,55.7497029,38.1180557
12,улица Адмирала Нахимова,143920,55.7493606,38.1183456
5,улица Адмирала Нахимова,143920,55.7513822,38.1164242
6,улица Адмирала Нахимова,143920,55.7517287,38.1161858
8,улица Адмирала Нахимова,143920,55.7515051,38.1174750
7,улица Адмирала Нахимова,143920,55.7511646,38.1177147
1,улица Соловьёва,143982,55.7642908,37.9650157
2А,Пионерская улица,143986,55.7430811,38.0187023
56,Советская улица,143902,55.8170419,37.9539530
4А,проспект Героев,143989,55.7417251,38.0001811
3А,улица Струве,143989,55.7412300,37.9978820
7,улица Струве,143980,55.7391195,37.9969338
8,проспект Героев,143980,55.7405101,38.0018271
10,проспект Героев,143980,55.7400418,38.0016798
4,проспект Героев,143980,55.7419196,38.0020502
6,проспект Героев,143980,55.7412089,38.0018719
9 к1,улица Струве,143989,55.7377263,37.9978957
9,улица Струве,143989,55.7377240,37.9961723
2,проспект Героев,143980,55.7423879,38.0020084
39,улица Свердлова,143905,55.8296343,37.9694217
41,улица Свердлова,143915,55.8301835,37.9700550
45,улица Свердлова,143915,55.8309011,37.9694326
47,улица Свердлова,143915,55.8314743,37.9700970
96Б,Вишняковское шоссе,143914,55.7802581,37.9164295
22А,Главная улица,143989,55.7461625,37.9910000
9,улица Гидрогородок,143982,55.7582694,37.9660383
7 к2,Школьная улица,143930,55.7481399,37.9259681
7 к1,Школьная улица,143930,55.7479019,37.9267438
7 к4,Школьная улица,143930,55.7490815,37.9251319
7 к3,Школьная улица,143930,55.7485529,37.9252394
9,Сосновая улица,143903,55.8113311,38.0497709
9,улица Мещёра,143903,55.8097674,38.0516631
2,улица Мещёра,143903,55.8089091,38.0490309
6,Дубовая улица,143903,55.8100410,38.0502235
13,улица Мещёра,143903,55.8099706,38.0531536
10,Сосновая улица,143903,55.8110581,38.0512154
7,улица Мещёра,143903,55.8096960,38.0510219
11,Дубовая улица,143903,55.8106395,38.0513547
17,улица Мещёра,143903,55.8100946,38.0543185
13,Сосновая улица,143903,55.8114930,38.0510580
5,улица Мещёра,143903,55.8096055,38.0503759
11,Сосновая улица,143903,55.8114216,38.0504169
8,Сосновая улица,143903,55.8109867,38.0505743
10,Дубовая улица,143903,55.8102030,38.0515106
6,Сосновая улица,143903,55.8108962,38.0499283
8,Дубовая улица,143903,55.8101315,38.0508695
9,Дубовая улица,143903,55.8105681,38.0507136
7,Дубовая улица,143903,55.8104776,38.0500676
6,улица Мещёра,143903,55.8085020,38.0502524
5,Березняковая улица,143903,55.8123246,38.0508052
14,Дубовая улица,143903,55.8103331,38.0528667
12,Сосновая улица,143903,55.8111387,38.0520304
6,Березняковая улица,143903,55.8118275,38.0504053
18,Дубовая улица,143903,55.8104515,38.0539104
12,Дубовая улица,143903,55.8102715,38.0523594
15,Дубовая улица,143903,55.8107722,38.0526695
4,Березняковая улица,143903,55.8117658,38.0498979
14,Березняковая улица,143903,55.8121611,38.0527134
12,Березняковая улица,143903,55.8120918,38.0521975
19,Сосновая улица,143903,55.8117114,38.0528901
2,Березняковая улица,143903,55.8116896,38.0493687
16,Дубовая улица,143903,55.8104024,38.0533825
13,Дубовая улица,143903,55.8107106,38.0521621
17,Дубовая улица,143903,55.8108415,38.0531853
7,Березняковая улица,143903,55.8124103,38.0515665
1,Березняковая улица,143903,55.8121936,38.0497819
10,Березняковая улица,143903,55.8120301,38.0516901
9,Березняковая улица,143903,55.8124720,38.0520738
17,Сосновая улица,143903,55.8116421,38.0523742
16,Сосновая улица,143903,55.8112698,38.0530536
3,Березняковая улица,143903,55.8122554,38.0502893
15,Сосновая улица,143903,55.8115803,38.0518668
14,Сосновая улица,143903,55.8112005,38.0525378
8,Березняковая улица,143903,55.8118968,38.0509212
20,Дубовая улица,143903,55.8105207,38.0544262
4,улица Мещёра,143903,55.8089072,38.0497721
15,улица Мещёра,143903,55.8099325,38.0537678
11,улица Мещёра,143903,55.8097789,38.0524796
16,улица Мещёра,143903,55.8091484,38.0518475
10,улица Мещёра,143903,55.8084868,38.0509148
8,улица Мещёра,143903,55.8089946,38.0504507
3,улица Мещёра,143903,55.8094625,38.0497968
1,улица Мещёра,143903,55.8093735,38.0491344
12,улица Мещёра,143903,55.8090781,38.0511571
19,Дубовая улица,143903,55.8108940,38.0537032
4,улица Соловьёва,143982,55.7628376,37.9669200
3,улица Брагина,143982,55.7616746,37.9666110
5,улица Брагина,143982,55.7603850,37.9676087
17,Саввинская улица,143985,55.7279992,38.0341035
17А,Саввинская улица,143985,55.7283779,38.0345187
17Б,Саввинская улица,143985,55.7287721,38.0349217
13,Гидрогородок,143982,55.7534751,37.9621565
7 с1,Рождественская улица,143989,55.7423176,37.9989818
14,улица Мещёра,143903,55.8086061,38.0521257
9Б,улица Ленина,143922,55.7594046,38.0838373
3/12,улица Третьяка,143909,55.8218598,37.9496257
2,Троицкая улица,143988,55.7275273,37.9739713
33,Зелёная улица,143902,55.8074455,37.9433244
16А,улица Твардовского,143900,55.7939642,37.9809450
37,улица 1-я Главлита,143930,55.7634568,37.9333288
35,улица 1-я Главлита,143930,55.7630029,37.9322487
38,улица Маяковского,143980,55.7452780,37.9981117
вл11 с2,шоссе Энтузиастов,143912,55.7897325,37.8912704
4,Ореховая улица,143920,55.7420320,38.1373356
22,улица Горького,143920,55.7407102,38.1389600
38,улица Лермонтова,143920,55.7412848,38.1362839
18,Тенистая улица,143920,55.7405363,38.1367721
21/27А,Тенистая улица,143920,55.7407578,38.1380695
42,улица Лермонтова,143920,55.7407859,38.1360432
40,улица Лермонтова,143920,55.7410502,38.1361368
32,улица Лермонтова,143920,55.7421144,38.1369792
21/27,Тенистая улица,143920,55.7405830,38.1378841
34,улица Лермонтова,143920,55.7418357,38.1367259
17,улица Горького,143920,55.7419986,38.1376994
19,улица Горького,143920,55.7417234,38.1379355
2,Лермонтовский тупик,143920,55.7411318,38.1368111
36,улица Лермонтова,143920,55.7415576,38.1365204
1,Первомайский проезд,143912,55.7929144,37.9339163
3,Саввинская улица,143985,55.7296269,38.0309359
3,Автозаводская улица,143986,55.7414926,38.0092305
5А,улица Андрея Белого,143989,55.7408628,38.0089737
3,улица Фадеева,143900,55.7949478,37.9714055
54,шоссе Энтузиастов,143900,55.7952725,37.9629618
11,улица Фадеева,143900,55.7954376,37.9748461
12,улица Некрасова,143900,55.7918406,37.9709642
17,улица Фадеева,143900,55.7958071,37.9781335
78,шоссе Энтузиастов,143900,55.7975471,37.9837455
9,улица Фадеева,143900,55.7953274,37.9738729
5,улица Карбышева,143900,55.7908743,37.9642146
12 с2,улица Маяковского,143980,55.7464533,37.9981297
30,проспект Ленина,143907,55.7965896,37.9514588
12,Речная улица,143981,55.7430472,37.9615249
14,Речная улица,143981,55.7426508,37.9611764
16,Речная улица,143981,55.7428830,37.9603955
18,Речная улица,143981,55.7426696,37.9597126
4,Речная улица,143981,55.7440354,37.9644499
6,Речная улица,143981,55.7435895,37.9639181
8,Речная улица,143981,55.7435193,37.9631081
3,проспект Героев,143989,55.7418470,38.0037100
7,проспект Героев,143989,55.7404545,38.0035428
9,проспект Героев,143989,55.7399520,38.0034893
1,проспект Героев,143989,55.7423984,38.0038434
5,проспект Героев,143989,55.7411131,38.0036449
3,улица Поликахина,143989,55.7398919,38.0049753
5,улица Поликахина,143989,55.7399085,38.0074627
6А,улица Андрея Белого,143989,55.7410144,38.0053554
3,улица Андрея Белого,143989,55.7416979,38.0079090
2А,улица Некрасова,143989,55.7497216,37.9963082
10,улица Дмитриева,143912,55.8340965,37.9258592
2,улица Дмитриева,143912,55.8337407,37.9229426
6,улица Дмитриева,143912,55.8342326,37.9244097
4,улица Дмитриева,143912,55.8326507,37.9235283
12,улица Дмитриева,143912,55.8329893,37.9259267
8,улица Дмитриева,143912,55.8331516,37.9244911
16,Мирской проезд,143930,55.7388895,37.8837743
15,Мирской проезд,143930,55.7382820,37.8826490
10,Мирской проезд,143930,55.7381107,37.8815306
30,улица Дмитриева,143912,55.8343694,37.9327736
24,улица Дмитриева,143912,55.8349379,37.9312028
26,улица Дмитриева,143912,55.8339529,37.9315684
34,улица Дмитриева,143912,55.8349077,37.9344364
32,улица Дмитриева,143912,55.8342294,37.9345067
20,улица Дмитриева,143912,55.8349605,37.9291735
18,улица Дмитриева,143912,55.8343128,37.9279736
14,улица Дмитриева,143912,55.8346394,37.9269121
22,улица Дмитриева,143912,55.8338115,37.9297631
16,улица Дмитриева,143912,55.8335161,37.9274499
51Б,улица Лукино,143909,55.8373779,37.9377176
13,Шестая улица,143989,55.7389991,37.9840782
15,Шестая улица,143989,55.7400010,37.9826432
17,Шестая улица,143989,55.7392372,37.9827077
3,Шестая улица,143989,55.7390301,37.9872812
10,Московская улица,143987,55.7459126,38.0307244
3,Троицкая улица,143988,55.7287750,37.9740546
4,Троицкая улица,143988,55.7279140,37.9756071
4А,улица Андрея Белого,143989,55.7418109,38.0055299
7,Косинское шоссе,143988,55.7200036,37.9738223
24,улица Бояринова,143988,55.7193170,37.9751243
9,улица Бояринова,143988,55.7214052,37.9764589
5/7,Косинское шоссе,143988,55.7216100,37.9751688
10,улица Калинина,143986,55.7392945,38.0300599
8А,Пролетарская улица,143980,55.7452923,38.0078562
141А,Щёлковское шоссе,143909,55.8341072,37.9424452
11,Лесопарковая улица,143980,55.7540658,37.9979870
18,Лесопарковая улица,143980,55.7530753,37.9996709
4 к2,Саввинское шоссе,143986,55.7442892,38.0104337
7,Пролетарская улица,143980,55.7446226,38.0091683
38,улица Маяковского,143980,55.7452076,37.9981369
10,Саввинское шоссе,143986,55.7440906,38.0142661
1 к1,улица Победы,143920,55.7467739,38.1257071
69/23,Разинское шоссе,143930,55.7718121,37.9261533
26/31,Институтская улица,143981,55.7449159,37.9437482
29,улица Горького,143981,55.7449746,37.9427702
3,улица Чапаева,143930,55.7450880,37.9302931
5А,улица Свободы,143930,55.7447961,37.9302050
2/1,Лесопарковая улица,143930,55.7451561,37.9308891
2/3,улица Горького,143930,55.7453777,37.9314995
2А,улица Горького,143930,55.7453598,37.9316841
4,улица Горького,143930,55.7453259,37.9322317
32/6,Дубровинская улица,143930,55.7453151,37.9327004
32А,Дубровинская улица,143930,55.7453592,37.9329895
34,Дубровинская улица,143930,55.7449236,37.9326696
36,Дубровинская улица,143930,55.7446556,37.9326059
38,Дубровинская улица,143930,55.7442852,37.9325556
9,Лесопарковая улица,143930,55.7440730,37.9320951
40,Дубровинская улица,143930,55.7437785,37.9323329
31,Дубровинская улица,143930,55.7452455,37.9335177
19/23,Угловая улица,143981,55.7452461,37.9399516
22А,Институтская улица,143981,55.7457656,37.9432348
24,Институтская улица,143981,55.7452315,37.9433678
7Б,улица Победы,143930,55.7667096,37.9381628
10,Майская улица,143930,55.7668833,37.9380615
2А,улица Чехова,143930,55.7716543,37.9343231
25,улица Мещёра,143903,55.8084353,38.0555301
7,Сосновая улица,143903,55.8112124,38.0490446
1,Сосновая улица,143903,55.8105781,38.0474256
61,улица Жилгородок,143989,55.7489930,37.9950538
4,улица Баландина,143961,55.7770536,37.8924870
1,улица Баландина,143961,55.7755394,37.8929699
2,улица Баландина,143961,55.7760814,37.8935485
3,улица Баландина,143961,55.7746810,37.8919561
5,улица Баландина,143961,55.7738003,37.8910690
9 к1,улица Гидрогородок,143982,55.7580357,37.9659425
8 с1,улица Юннатов,143981,55.7498042,37.9506269
17,микрорайон 1 Мая,143911,55.8065337,37.8430671
35 с7,Советская улица,143909,55.8178980,37.9519626
25,Зелёная улица,143902,55.8103485,37.9443151
8 к2,Балашихинское шоссе,143913,55.8228924,37.9350249
12,Лётная улица,143909,55.8251398,37.9467053
69/21,Разинское шоссе,143930,55.7720283,37.9252754
98А,Трубецкая улица,143915,55.8349805,37.9723309
98В,Трубецкая улица,143915,55.8347524,37.9723635
98Б,Трубецкая улица,143915,55.8345531,37.9722780
1,Приозёрная улица,143987,55.7533837,38.0189254
2,Приозёрная улица,143987,55.7533807,38.0193928
13,Приозёрная улица,143987,55.7536207,38.0189326
12,Приозёрная улица,143987,55.7536192,38.0193935
11,Приозёрная улица,143987,55.7536178,38.0198534
10,Приозёрная улица,143987,55.7536204,38.0203168
9,Приозёрная улица,143987,55.7536683,38.0209685
8,Приозёрная улица,143987,55.7536668,38.0215090
7,Приозёрная улица,143987,55.7536638,38.0220508
17,Приозёрная улица,143987,55.7539709,38.0202666
2 к5,Лесной проезд,143987,55.7542833,38.0192255
2 к10,Лесной проезд,143987,55.7543306,38.0201747
3 к11,Лесной проезд,143987,55.7547057,38.0201874
3 к5,Лесной проезд,143987,55.7546931,38.0190045
18,Приозёрная улица,143987,55.7546795,38.0208494
19,Приозёрная улица,143987,55.7546534,38.0213268
20А,Приозёрная улица,143987,55.7544340,38.0219428
21,Приозёрная улица,143987,55.7540206,38.0221237
5А,Приозёрная улица,143987,55.7533150,38.0221059
5,Приозёрная улица,143987,55.7533106,38.0215641
4,Приозёрная улица,143987,55.7533165,38.0210202
30,улица Корнилаева,143990,55.7350074,38.0075293
28,улица Корнилаева,143980,55.7351189,38.0056256
26,улица Корнилаева,143980,55.7351963,38.0040463
20,улица Корнилаева,143980,55.7354161,37.9995530
18,улица Корнилаева,143980,55.7352701,37.9979402
16,улица Корнилаева,143980,55.7353590,37.9963059
1,улица Корнилаева,143980,55.7363469,37.9974487
16,улица Калинина,143986,55.7396126,38.0316986
18,улица Калинина,143986,55.7413797,38.0317670
4,Спасский бульвар,143986,55.7408135,38.0346680
6,Спасский бульвар,143986,55.7396225,38.0346858
32,Граничная улица,143983,55.7436620,37.9852645
3,Пролетарская улица,143980,55.7489391,38.0107625
9А,Пионерская улица,143987,55.7449418,38.0276126
13,Юбилейная улица,143986,55.7389121,38.0219901
60,Советская улица,143987,55.7500265,38.0459609
22,Граничная улица,143983,55.7459356,37.9838917
20,Граничная улица,143983,55.7468487,37.9840517
3 с7,Керамическая улица,143988,55.7382366,37.9663696
36А,Автозаводская улица,143985,55.7275609,38.0118592
1,улица Романычева,143988,55.7243119,37.9720243
4,Косинское шоссе,143988,55.7247232,37.9731185
2,Косинское шоссе,143988,55.7245282,37.9742950
4,шоссе Энтузиастов,143900,55.7937534,37.9022627
4,Безымянная улица,143986,55.7425988,38.0377239
1,Спасский бульвар,143986,55.7425083,38.0363871
2,Безымянная улица,143986,55.7425671,38.0390168
3,Спасский бульвар,143986,55.7413552,38.0362384
6,Безымянная улица,143986,55.7414149,38.0393299
3,улица Народного Ополчения,143985,55.7348293,38.0286437
1,улица Народного Ополчения,143985,55.7352682,38.0273073
2,улица Народного Ополчения,143985,55.7341151,38.0280104
4,улица Народного Ополчения,143985,55.7336993,38.0291591
15,улица Бояринова,143988,55.7244036,37.9791546
11,улица Бояринова,143988,55.7222607,37.9775556
8,улица Народного Ополчения,143985,55.7328494,38.0315190
6,улица Народного Ополчения,143985,55.7332522,38.0303180
5,улица Народного Ополчения,143985,55.7343965,38.0299051
22,улица Калинина,143986,55.7401377,38.0335615
53А,улица Лукино,143909,55.8365824,37.9390332
7,улица Яганова,143909,55.8339767,37.9558053
28А,Трубецкая улица,143909,55.8353905,37.9578684
20А,Трубецкая улица,143909,55.8353379,37.9582448
2,улица Красный Текстильщик,143985,55.7279480,38.0196109
12,Советская улица,143987,55.7499252,38.0143408
9,Юбилейная улица,143986,55.7402929,38.0202544
55А,Советская улица,143987,55.7520318,38.0211184
4/2,Автозаводская улица,143986,55.7406168,38.0113989
78А,проспект Ленина,143903,55.8008879,37.9857662
5,улица Ляхова,143989,55.7483701,37.9889891
11,улица Струве,143980,55.7365888,37.9961462
2,Юбилейная улица,143986,55.7423060,38.0158509
6,Юбилейная улица,143986,55.7409835,38.0178018
2 к1,Юбилейная улица,143986,55.7420609,38.0164265
2 к2,Юбилейная улица,143986,55.7415912,38.0168518
вл8с8,Ласточкин проезд,143922,55.7539557,38.0838452
10,Реутовская улица,143908,55.7851310,37.8525798
16,Реутовская улица,143908,55.7858102,37.8477058
5,улица Чаплыгина,143982,55.7534221,37.9538906
8,улица Андрея Белого,143989,55.7407074,38.0073974
6,улица Андрея Белого,143989,55.7411133,38.0068318
4,улица Андрея Белого,143989,55.7416368,38.0063650
7,улица Народного Ополчения,143985,55.7340746,38.0308390
9,улица Народного Ополчения,143985,55.7337675,38.0318355
10,улица Народного Ополчения,143985,55.7324428,38.0327055
11,улица Народного Ополчения,143985,55.7333658,38.0330399
3,улица Вешних Вод,143985,55.7391308,38.0330649
3,улица Романычева,143988,55.7232224,37.9718286
23,улица Бояринова,143988,55.7255738,37.9802611
14,проспект Героев,143980,55.7383856,38.0013219
3 к12,Лесной проезд,143987,55.7547037,38.0203331
3 к10,Лесной проезд,143987,55.7547027,38.0200366
3 к9,Лесной проезд,143987,55.7546995,38.0198806
3 к8,Лесной проезд,143987,55.7546971,38.0197196
3 к7,Лесной проезд,143987,55.7546939,38.0195536
3 к6,Лесной проезд,143987,55.7546943,38.0191554
3 к4,Лесной проезд,143987,55.7546897,38.0188465
3 к3,Лесной проезд,143987,55.7546869,38.0186856
3 к2,Лесной проезд,143987,55.7546844,38.0185266
3 к1,Лесной проезд,143987,55.7546850,38.0183695
2 к6,Лесной проезд,143987,55.7542955,38.0193804
2 к4,Лесной проезд,143987,55.7542838,38.0190688
2 к3,Лесной проезд,143987,55.7542791,38.0189159
2 к2,Лесной проезд,143987,55.7542738,38.0187616
2 к1,Лесной проезд,143987,55.7542673,38.0186099
2 к11,Лесной проезд,143987,55.7543267,38.0203353
2 к9,Лесной проезд,143987,55.7543253,38.0200215
2 к8,Лесной проезд,143987,55.7543185,38.0198697
2 к7,Лесной проезд,143987,55.7543238,38.0197086
4А,Приозёрная улица,143987,55.7533732,38.0203195
2А,Приозёрная улица,143987,55.7533784,38.0198542
14,Безымянная улица,143986,55.7396278,38.0395251
10,Безымянная улица,143986,55.7407033,38.0387621
12,Безымянная улица,143986,55.7407203,38.0379225
5,Спасский бульвар,143986,55.7407307,38.0368924
7,проспект Жуковского,143982,55.7534543,37.9580703
30,Реутовская улица,143908,55.7871393,37.8566414
29,Реутовская улица,143908,55.7870099,37.8555487
11,Школьная улица,143930,55.7485999,37.9279211
9,Школьная улица,143930,55.7487589,37.9271725
18,проспект Героев,143989,55.7369389,38.0010706
3,улица Чехова,143903,55.8041248,37.9782934
21,улица Бояринова,143916,55.7252985,37.9807597
17,Проспект Героев,143980,55.7367838,38.0030588
3А,улица Победы,143930,55.7655261,37.9389774
1,улица Победы,143930,55.7652130,37.9392791
5А,улица Победы,143930,55.7660502,37.9386330
7А,улица Победы,143930,55.7664332,37.9384461
12,улица Яганова,143909,55.8322460,37.9566462
8,улица Яганова,143909,55.8324704,37.9547644
13,Проспект Героев,143980,55.7382906,38.0033205
21,улица Горького,143920,55.7415292,38.1379706
23,улица Горького,143920,55.7413782,38.1379383
25,улица Горького,143920,55.7411989,38.1373832
20,улица Калинина,143920,55.7405578,38.1374611
17,Тенистая улица,143920,55.7406374,38.1362849
1,Лермонтовский тупик,143920,55.7415911,38.1370264
13,Школьная улица,143930,55.7484615,37.9286860
15,Школьная улица,143930,55.7480109,37.9282987
19,Школьная улица,143930,55.7476276,37.9279106
19,Школьная улица,143930,55.7475485,37.9272506
21,Школьная улица,143930,55.7472058,37.9276878
23,Школьная улица,143930,55.7471484,37.9269533
25,Школьная улица,143930,55.7468362,37.9274298
27,Школьная улица,143930,55.7466584,37.9281503
29,Школьная улица,143930,55.7463980,37.9277477
4,улица Свободы,143930,55.7446231,37.9307997
6,улица Свободы,143930,55.7445805,37.9305095
4/2,Лесопарковая улица,143930,55.7447262,37.9311360
7,Лесопарковая улица,143930,55.7446690,37.9320553
5,Лесопарковая улица,143930,55.7449034,37.9318011
48,улица Твардовского,143900,55.7979820,37.9847777
228Б,Носовихинское шоссе,111672,55.7509449,37.9240131
25,улица Бояринова,143916,55.7256636,37.9815008
2,Солнечная улица,143909,55.8202966,37.9565649
9,Реутовская улица,143908,55.7839845,37.8530892
10,улица Яганова,143909,55.8318752,37.9543939
9,улица Вешних Вод,143985,55.7386314,38.0369213
16,Безымянная улица,143986,55.7397628,38.0378731
20,улица 8-я Линия,143914,55.7722998,37.8854459
17,Спортивная улица,143910,55.8177375,37.9648735
68/36,улица 9-я Линия,143914,55.7693225,37.9014250
70,улица 9-я Линия,143914,55.7690916,37.9020084
72,улица 9-я Линия,143914,55.7688083,37.9026658
71/74,улица 5-я Линия,143914,55.7685431,37.9029300
69А,улица 5-я Линия,143914,55.7685123,37.9026027
69/34,улица 5-я Линия,143914,55.7685599,37.9021861
34А,Центральная улица,143914,55.7683332,37.9017767
13А,улица Крупской,143904,55.7995413,37.9363190
34,Зелёная улица,143902,55.8071364,37.9418315
40,Граничная улица,143983,55.7424740,37.9835436
3,улица Лесные Поляны,143982,55.7562703,37.9534817
4,улица Лесные Поляны,143982,55.7568435,37.9526799
6,улица Лесные Поляны,143982,55.7580184,37.9520253
72,проспект Ленина,143903,55.8008733,37.9833011
82 к2,проспект Ленина,143903,55.8005938,37.9877828
82 к1,проспект Ленина,143903,55.8004824,37.9868156
4,Лесопарковая улица,143980,55.7532800,38.0080442
13,улица Некрасова,143900,55.7921613,37.9721333
5,улица Некрасова,143900,55.7936059,37.9725074
60,шоссе Энтузиастов,143900,55.7957607,37.9672225
5,улица Фадеева,143900,55.7950285,37.9721103
23,улица Твардовского,143900,55.7967030,37.9827697
13,улица Смельчак,143982,55.7551578,37.9508125
20,Главная улица,143989,55.7474347,37.9894151
13,Носовихинское шоссе,143980,55.7502500,37.9793736
29,Октябрьская улица,143980,55.7505204,37.9993288
10,Пролетарская улица,143980,55.7453531,38.0071760
2,улица Андрея Белого,143989,55.7423646,38.0053686
2,Саввинское шоссе,143986,55.7454676,38.0100415
26,Граничная улица,143983,55.7450688,37.9858246
8,улица 1 Мая,143985,55.7281751,38.0246602
18,Граничная улица,143983,55.7467497,37.9855082
5,Автозаводская улица,143989,55.7402639,38.0092183
6,улица 8-я Линия,143914,55.7738483,37.8812420
14,улица Калинина,143986,55.7401723,38.0309875
12,Реутовская улица,143908,55.7845181,37.8505191
11,Реутовская улица,143908,55.7846000,37.8517419
14,Реутовская улица,143908,55.7844734,37.8480026
15,Реутовская улица,143908,55.7842928,37.8472146
6,Реутовская улица,143908,55.7851632,37.8536024
5,Реутовская улица,143908,55.7852903,37.8546913
51А,улица Лукино,143909,55.8365732,37.9374916
22,улица Бояринова,143988,55.7197671,37.9747544
19,улица Бояринова,143988,55.7250717,37.9817263
1,Косинское шоссе,143988,55.7247839,37.9773231
10,Косинское шоссе,143988,55.7224615,37.9726713
8,Косинское шоссе,143988,55.7230691,37.9734294
6,Косинское шоссе,143988,55.7237430,37.9734815
1,улица Андрея Белого,143980,55.7427934,38.0079808
26,улица Калинина,143986,55.7417495,38.0339985
24,улица Калинина,143986,55.7419761,38.0336726
1,улица Вешних Вод,143985,55.7389796,38.0311623
8,улица Калинина,143986,55.7397665,38.0293848
6,улица Калинина,143986,55.7399398,38.0283754
20,улица Калинина,143986,55.7404433,38.0325866
12,улица Калинина,143986,55.7408925,38.0302809
8,Безымянная улица,143986,55.7412865,38.0378171
1А,Саввинская улица,143985,55.7321337,38.0297519
1Б,Саввинская улица,143985,55.7330120,38.0286115
13,Реутовская улица,143908,55.7849535,37.8491042
2,Горенский бульвар,143923,55.7903356,37.8845510
8,улица Ситникова,143923,55.7898827,37.8832051
6,улица Ситникова,143923,55.7894433,37.8817954
4,улица Ситникова,143923,55.7891722,37.8805038
2,улица Ситникова,143923,55.7888565,37.8791425
5,улица Яганова,143909,55.8342521,37.9547811
11,улица Яганова,143909,55.8339013,37.9568856
9,улица Яганова,143909,55.8348394,37.9568441
3 с1,Главная улица,143989,55.7486515,37.9935927
3,Главная улица,143989,55.7492103,37.9933268
7,Главная улица,143989,55.7482403,37.9927735
5,Главная улица,143989,55.7490566,37.9944056
7 к1,Главная улица,143989,55.7480815,37.9939228
16,проспект Героев,143980,55.7376500,38.0012517
12,Косинское шоссе,143916,55.7216461,37.9721536
5,улица Романычева,143988,55.7219486,37.9713016
1А,улица Разина,143912,55.7926575,37.9324537
3,улица Яганова,143909,55.8347325,37.9543613
26,Реутовская улица,143908,55.7867486,37.8526764
27,Реутовская улица,143908,55.7869008,37.8539970
5,улица Корнилаева,143980,55.7370626,37.9992297
3,улица Корнилаева,143980,55.7363515,37.9991306
10,Лётная улица,143909,55.8245442,37.9480015
28,улица Дмитриева,143912,55.8353162,37.9327149
17/10 к2,улица Калинина,143905,55.8201562,37.9715847
20,Реутовская улица,143908,55.7866621,37.8495871
21,Реутовская улица,143908,55.7867964,37.8511921
28,Чистопольская улица,143915,55.8425210,37.9758319
24,Чистопольская улица,143915,55.8414333,37.9746605
20,Чистопольская улица,143915,55.8399251,37.9750114
15,Проспект Героев,143980,55.7375641,38.0031436
19,Проспект Героев,143980,55.7360710,38.0030410
20,проспект Героев,143980,55.7362103,38.0007514
43,Новая улица,143987,55.7490204,38.0262919
