House number,Street name,Postal code,Latitude,Longitude
91,Каширское шоссе,142004,55.4266430,37.7735576
5А,Станционная улица,142000,55.4430487,37.7759023
6А,улица Дружбы,142003,55.4226461,37.7593438
7 к2,улица Королёва,142007,55.4189513,37.8332281
3А,Каширское шоссе,142000,55.4517249,37.7634793
25,Каширское шоссе,142000,55.4417013,37.7665150
63,Каширское шоссе,142000,55.4316306,37.7686718
10,улица Талалихина,142003,55.4218339,37.7676983
7 к2,улица Королёва,142007,55.4186039,37.8341890
7 к2,улица Королёва,142007,55.4188825,37.8330240
5А,Станционная улица,142000,55.4431998,37.7760745
7А,Станционная улица,142000,55.4427682,37.7771607
5А,Станционная улица,142000,55.4430096,37.7761779
12А,Центральная линия,142000,55.4446017,37.7870527
12,Центральная линия,142000,55.4443983,37.7869596
30,Станционная улица,142000,55.4350236,37.7799051
42,2-я линия,142000,55.4469335,37.7831903
43,2-я линия,142000,55.4468422,37.7834317
44,2-я линия,142000,55.4467616,37.7836811
45,2-я линия,142000,55.4466472,37.7839422
3,Станционная улица,142000,55.4433208,37.7719253
7,Станционная улица,142000,55.4430711,37.7726507
1,Станционная улица,142000,55.4434941,37.7718804
8,Станционная улица,142000,55.4430482,37.7733402
5,Станционная улица,142000,55.4430737,37.7723812
11,Станционная улица,142000,55.4422430,37.7727338
55,2-я линия,142000,55.4455458,37.7866781
58,2-я линия,142000,55.4452476,37.7874237
294,1-я линия,142000,55.4439668,37.7874662
40,2-я линия,142000,55.4473135,37.7827942
46,2-я линия,142000,55.4465501,37.7842025
47,2-я линия,142000,55.4464959,37.7844931
48,2-я линия,142000,55.4463415,37.7846789
49,2-я линия,142000,55.4463519,37.7851296
50,2-я линия,142000,55.4461276,37.7852859
50А,2-я линия,142000,55.4462747,37.7855177
51,2-я линия,142000,55.4459815,37.7856446
57,2-я линия,142000,55.4453510,37.7871770
59,2-я линия,142000,55.4451533,37.7876866
52,2-я линия,142000,55.4458751,37.7858856
53,2-я линия,142000,55.4457729,37.7861302
54,2-я линия,142000,55.4456629,37.7864125
56,2-я линия,142000,55.4454560,37.7869248
41,2-я линия,142000,55.4470458,37.7829766
5,2-я линия,142000,55.4455062,37.7858144
281,2-я линия,142000,55.4463308,37.7838564
3,2-я линия,142000,55.4457025,37.7852431
1,2-я линия,142000,55.4460174,37.7846423
2,2-я линия,142000,55.4458881,37.7849239
4,2-я линия,142000,55.4455062,37.7854121
8,2-я линия,142000,55.4451928,37.7865949
7,2-я линия,142000,55.4452871,37.7863455
6,2-я линия,142000,55.4453906,37.7860880
10,2-я линия,142000,55.4449996,37.7871233
9,2-я линия,142000,55.4450924,37.7869329
11,2-я линия,142000,55.4449038,37.7873835
13,1-я линия,142000,55.4448307,37.7864742
295,1-я линия,142000,55.4438496,37.7875988
26,1-я линия,142000,55.4436542,37.7887292
19,2-я линия,142000,55.4442172,37.7890328
297,1-я линия,142000,55.4436035,37.7879280
296,1-я линия,142000,55.4437150,37.7877774
298,1-я линия,142000,55.4434588,37.7880913
299,1-я линия,142000,55.4433647,37.7882393
31,1-я линия,142000,55.4442287,37.7875504
300,1-я линия,142000,55.4432489,37.7883771
301,1-я линия,142000,55.4431505,37.7885123
32,1-я линия,142000,55.4443836,37.7873284
21,2-я линия,142000,55.4439407,37.7898646
30,1-я линия,142000,55.4441130,37.7878923
29,1-я линия,142000,55.4439827,37.7880734
28,1-я линия,142000,55.4438756,37.7883082
27,1-я линия,142000,55.4437642,37.7885455
24,Правый проезд,142000,55.4435485,37.7891859
25,1-я линия,142000,55.4434212,37.7889945
22,Правый проезд,142000,55.4438032,37.7896350
23,Правый проезд,142000,55.4436267,37.7894538
20,2-я линия,142000,55.4440985,37.7893568
18,2-я линия,142000,55.4443214,37.7888134
14,2-я линия,142000,55.4447584,37.7877545
17,2-я линия,142000,55.4444198,37.7885225
16,2-я линия,142000,55.4445240,37.7883005
15,2-я линия,142000,55.4446282,37.7880300
280А,1-я линия,142000,55.4430840,37.7895099
280,1-я линия,142000,55.4429624,37.7898365
35,Правый проезд,142000,55.4435398,37.7900508
33,Правый проезд,142000,55.4432258,37.7897319
34,Правый проезд,142000,55.4433850,37.7898748
36,Правый проезд,142000,55.4436875,37.7902141
37,2-я линия,142000,55.4438597,37.7903545
39,1-я линия,142000,55.4431114,37.7900330
38,1-я линия,142000,55.4432533,37.7902065
277,2-я линия,142000,55.4433951,37.7904846
279,2-я линия,142000,55.4437150,37.7908469
278,2-я линия,142000,55.4436006,37.7912067
284,2-я линия,142000,55.4435789,37.7919721
68,2-я линия,142000,55.4440102,37.7910715
70,3-я линия,142000,55.4437960,37.7925973
71,3-я линия,142000,55.4439031,37.7923217
72,3-я линия,142000,55.4439957,37.7920946
73,3-я линия,142000,55.4441101,37.7918037
74,3-я линия,142000,55.4441969,37.7915537
75,3-я линия,142000,55.4443170,37.7912858
69,3-я линия,142000,55.4436976,37.7928524
76,3-я линия,142000,55.4444227,37.7910153
4,Северная улица,142001,55.4520793,37.7437804
с1,1-я Коммунистическая улица,142000,55.4445237,37.7492309
59,Рабочая улица,142003,55.4224276,37.7669596
5,Станционная улица,142050,55.3373375,37.8447418
13,Советская улица,142000,55.4404660,37.7630407
17,Краснодарская улица,142000,55.4664262,37.7416997
13,Советская улица,142000,55.4404749,37.7629933
с1,1-я Коммунистическая улица,142001,55.4446703,37.7492043
95Б,Каширское шоссе,142004,55.4257499,37.7746216
3А,Каширское шоссе,142001,55.4521600,37.7629876
9А,Логистическая улица,142000,55.4680367,37.7114868
17 к2,Лунная улица,142003,55.4225845,37.7569008
5А,улица Курыжова,142003,55.4041772,37.7680016
9 к1,улица Кирова,142005,55.4384918,37.7510185
9 к1,улица Кирова,142005,55.4383850,37.7515488
4А,улица Дружбы,142003,55.4236281,37.7579271
с4,улица Дружбы,142003,55.4234818,37.7595570
22,улица 25 лет Октября,142003,55.4246146,37.7578186
1к1,Лунная улица,142003,55.4282850,37.7560089
1к1,Лунная улица,142003,55.4288257,37.7557166
1к1,Лунная улица,142003,55.4285908,37.7560315
1к1,Лунная улица,142003,55.4284293,37.7561469
1к1,Лунная улица,142003,55.4288478,37.7558696
1к1,Лунная улица,142003,55.4279975,37.7563343
1к1,Лунная улица,142003,55.4281851,37.7563300
11,Лунная улица,142003,55.4255157,37.7559833
11,Лунная улица,142003,55.4256502,37.7560301
11,Лунная улица,142003,55.4257585,37.7558428
1к1,Лунная улица,142003,55.4284989,37.7558776
13,Лунная улица,142003,55.4256985,37.7563308
13,Лунная улица,142003,55.4256909,37.7566511
13,Лунная улица,142003,55.4257792,37.7570205
13,Лунная улица,142003,55.4258701,37.7573528
9,Лунная улица,142003,55.4268364,37.7566284
9к1,Лунная улица,142003,55.4268618,37.7571784
9к1,Лунная улица,142003,55.4267019,37.7572344
9к1,Лунная улица,142003,55.4263054,37.7575589
9к1,Лунная улица,142003,55.4263794,37.7576909
9к1,Лунная улица,142003,55.4267470,37.7574170
5к1,Лунная улица,142003,55.4272785,37.7570153
5к1,Лунная улица,142003,55.4275417,37.7568141
5к1,Лунная улица,142003,55.4275984,37.7568263
5к1,Лунная улица,142003,55.4278046,37.7564573
5,Лунная улица,142003,55.4278042,37.7559031
5,Лунная улица,142003,55.4276558,37.7556573
5,Лунная улица,142003,55.4275451,37.7549671
1,Лунная улица,142003,55.4286736,37.7547382
7к1,улица Кирова,142005,55.4387287,37.7507555
1А,Комсомольская улица,142008,55.4558342,37.7592081
1,Донская улица,142072,55.3906326,37.7792122
20,проспект Академика Туполева,142007,55.4112787,37.8283704
13,проспект Академика Туполева,142007,55.4135986,37.8332312
28В,1-я Вокзальная улица,142060,55.2710216,37.8937229
52,Рабочая улица,142003,55.4230895,37.7648981
1,улица Дружбы,142003,55.4248323,37.7601138
7,улица Дружбы,142003,55.4211829,37.7627505
44А,Рабочая улица,142003,55.4264074,37.7627282
89А,Каширское шоссе,142004,55.4275708,37.7731191
8 к1,улица Коломийца,142000,55.4327548,37.7627175
11,Лунная улица,142003,55.4261930,37.7554572
5 к1,улица Кирова,142005,55.4406372,37.7500352
62,Каширское шоссе,142000,55.4329147,37.7655165
2,1-й Советский проезд,142000,55.4413680,37.7696610
12,Речная улица,142001,55.4490725,37.7420296
5А,Речная улица,142001,55.4490559,37.7394817
14/1,Речная улица,142001,55.4485942,37.7409031
14/2,Речная улица,142001,55.4494996,37.7413061
52/9,улица Гагарина,142001,55.4499292,37.7401776
41,улица Гагарина,142001,55.4509550,37.7444246
57 к1,Рабочая улица,142003,55.4230115,37.7669727
59,Рабочая улица,142000,55.4221470,37.7671187
68,Каширское шоссе,142000,55.4320440,37.7659753
27В,Рабочая улица,142003,55.4313166,37.7601166
15А,улица Талалихина,142003,55.4221770,37.7716992
1А,Речная улица,142001,55.4470525,37.7386502
3А,Речная улица,142001,55.4477862,37.7396084
8,улица Корнеева,142000,55.4358807,37.7725257
3,Речная улица,142001,55.4483024,37.7400021
21А,Дачная улица,142001,55.4497913,37.7516090
9А,Кутузовский проезд,142000,55.4359519,37.7692904
66,Успенская улица,142006,55.3875104,37.8062159
65,Успенская улица,142006,55.3878377,37.8062337
78,Успенская улица,142006,55.3871755,37.8090699
1,Парковая улица,142006,55.3951384,37.8162310
5,улица Дружбы,142003,55.4224231,37.7620785
54,Рабочая улица,142003,55.4225165,37.7640581
1,Вокзальная улица,142006,55.3959379,37.8081716
24А,Садовая улица,142006,55.3929367,37.8008263
11 к1,улица Кирова,142005,55.4378871,37.7515142
9 к1,улица Кирова,142005,55.4385587,37.7512166
50А,Рабочая улица,142003,55.4228623,37.7633242
112,Каширское шоссе,142003,55.4189735,37.7717034
10А,улица Текстильщиков,142000,55.4384521,37.7277553
112,Каширское шоссе,142003,55.4201903,37.7754983
112,Каширское шоссе,142003,55.4193788,37.7673542
112,Каширское шоссе,142003,55.4182247,37.7708751
112,Каширское шоссе,142003,55.4180058,37.7727459
17,"микрорайон Южный, улица Курыжова",142000,55.3992784,37.7714844
17 к1,улица Курыжова,142000,55.3998292,37.7725209
23,улица Курыжова,142000,55.3981938,37.7757644
с27,улица Курыжова,142000,55.4005312,37.7747854
с29,"микрорайон Южный, улица Курыжова",142003,55.4003693,37.7765897
7 к4,улица Кирова,142005,55.4392237,37.7524146
7 к5,улица Кирова,142005,55.4400495,37.7520655
15А,Станционная улица,142000,55.4430509,37.7828585
30,Станционная улица,142000,55.4349712,37.7801853
7А,Станционная улица,142000,55.4431086,37.7774101
34,Станционная улица,142000,55.4346221,37.7814250
17,Станционная улица,142000,55.4452564,37.7817455
26,Станционная улица,142000,55.4389273,37.7824682
13,Станционная улица,142000,55.4422894,37.7798095
28,Станционная улица,142000,55.4373437,37.7811748
18,Станционная улица,142000,55.4402086,37.7815425
20,Станционная улица,142000,55.4401212,37.7832266
19к1,Лунная улица,142003,55.4225424,37.7583873
27А,Лунная улица,142003,55.4183729,37.7606834
25к1,Лунная улица,142003,55.4196709,37.7605412
25к2,Лунная улица,142003,55.4190277,37.7601654
33,Лунная улица,142003,55.4161630,37.7606192
вл24,Станционная улица,142000,55.4404158,37.7749335
2,Станционная улица,142000,55.4421907,37.7736077
17Б,Советская улица,142005,55.4410826,37.7516108
22Б,Красноармейская улица,142005,55.4385727,37.7529729
22А,Красноармейская улица,142005,55.4383456,37.7531874
23,Станционная улица,142000,55.4433052,37.7843000
16,1-я Вокзальная улица,142060,55.2680967,37.8943711
4,улица Привато,142050,55.3274591,37.8339879
3А,Станционная улица,142000,55.4447137,37.7746128
3А,Станционная улица,142000,55.4438589,37.7752112
1,Промышленная улица,142000,55.4438875,37.7719620
22,улица 25 лет Октября,142003,55.4244681,37.7577682
17,"микрорайон Южный, улица Курыжова",142000,55.3992103,37.7712412
20,улица Курыжова,142000,55.3944482,37.7736309
28,улица Курыжова,142000,55.3934114,37.7700411
26,улица Курыжова,142000,55.3932437,37.7711673
22,улица Курыжова,142000,55.3938527,37.7732354
16 к1,улица Курыжова,142000,55.3958607,37.7735885
24,улица Курыжова,142000,55.3934142,37.7723247
18,улица Курыжова,142000,55.3952841,37.7732942
28 к1,улица Курыжова,142000,55.3943196,37.7699894
16,улица Курыжова,142000,55.3965184,37.7728668
с18А,улица Курыжова,142000,55.3948584,37.7717332
26 к1,улица Курыжова,142000,55.3937948,37.7711923
18 к1,улица Курыжова,142000,55.3942603,37.7725431
14 к1,улица Курыжова,142000,55.3980082,37.7687309
14 к2,улица Курыжова,142000,55.3984612,37.7698127
14,улица Курыжова,142000,55.3977266,37.7710926
7 к3,улица Курыжова,142000,55.4036355,37.7696574
5 к1,улица Курыжова,142000,55.4036132,37.7670999
7 к1,улица Курыжова,142000,55.4036165,37.7685654
9,Логистическая улица,142000,55.4692249,37.7105962
1Д,улица Заборье,142072,55.3691806,37.7851380
13,Красная улица,142000,55.4393841,37.7573646
15,Красная улица,142000,55.4391696,37.7573333
20Б,Красная улица,142000,55.4378139,37.7565680
20,Красная улица,142000,55.4380793,37.7566121
17А,Красная улица,142000,55.4389098,37.7572122
13Б,Рабочая улица,142000,55.4375329,37.7590824
18,Красная улица,142000,55.4383189,37.7566040
17,Красная улица,142000,55.4386804,37.7572484
21,Красная улица,142000,55.4376973,37.7574537
19,Красная улица,142000,55.4381891,37.7573661
18А,Красная улица,142000,55.4385354,37.7566215
2,улица Привато,142050,55.3268301,37.8344561
6,проспект Госфильмофонда,142050,55.3242934,37.8358544
48,1-я Вокзальная улица,142060,55.2721950,37.8937820
1Б,Лунная улица,142003,55.4290460,37.7542197
5,Донская улица,142072,55.3875157,37.7788702
5А,Станционная улица,142000,55.4431070,37.7760932
13,Станционная улица,142000,55.4425757,37.7794557
3А,Станционная улица,142000,55.4445688,37.7755137
вл21,Станционная улица,142000,55.4427169,37.7847504
12,Центральная линия,142000,55.4444260,37.7869594
12А,Центральная линия,142000,55.4445800,37.7870661
9А,Станционная улица,142000,55.4426397,37.7782122
7А,Станционная улица,142000,55.4427919,37.7771736
1,Промышленная улица,142000,55.4440884,37.7722967
3А,Станционная улица,142000,55.4441715,37.7738632
13,Станционная улица,142000,55.4435201,37.7802963
15,Станционная улица,142000,55.4423353,37.7822075
15А,Станционная улица,142000,55.4432987,37.7833780
17,Станционная улица,142000,55.4454760,37.7822526
вл23,Станционная улица,142000,55.4431440,37.7855224
16,Станционная улица,142000,55.4416688,37.7797748
вл22,Станционная улица,142000,55.4416732,37.7909418
вл22,Станционная улица,142000,55.4416603,37.7909317
2,улица Огнеупорный Завод,142000,55.4421217,37.7745072
4,улица Огнеупорный Завод,142000,55.4415868,37.7743327
вл24,Станционная улица,142000,55.4411326,37.7748974
24А с1,Станционная улица,142000,55.4387531,37.7752267
6А,Центральная линия,142000,55.4349242,37.7830318
25 к3,Лунная улица,142003,55.4189422,37.7586017
3,Донская улица,142072,55.3886640,37.7788206
1,Донская улица,142072,55.3904120,37.7789590
с15Б,улица Курыжова,142003,55.4013911,37.7727738
30,улица Кирова,142000,55.4311310,37.7544240
19,улица Батырева,142000,55.3948544,37.7612154
35,улица Батырева,142000,55.3942475,37.7624442
1Б,улица Малая Гороховка,142000,55.4310892,37.7426974
14,Набережная улица,142001,55.4509288,37.7353781
14/1,Речная улица,142001,55.4490504,37.7410378
1,Речная улица,142001,55.4473000,37.7395302
17к3,Лунная улица,142003,55.4221925,37.7572483
с7А,улица Курыжова,142000,55.4021717,37.7688026
25,Лунная улица,142007,55.4115954,37.8507811
59Б,Вокзальная улица,142020,55.4045199,37.8180693
14,Южнодомодедовская улица,142000,55.4010832,37.7635157
16,Южнодомодедовская улица,142000,55.3997349,37.7652546
43-й км,«Дон»,142072,55.3939982,37.7756931
1 к1,улица Курыжова,142000,55.4061153,37.7658773
27,улица Батырева,142000,55.3920197,37.7609797
28,улица Батырева,142000,55.3918486,37.7615182
21,улица Батырева,142000,55.3946273,37.7609458
20,улица Батырева,142000,55.3945761,37.7615132
22,улица Батырева,142000,55.3942890,37.7608814
1,улица Батырева,142000,55.3938095,37.7623215
12,улица Батырева,142000,55.3940456,37.7616968
13,улица Батырева,142000,55.3937744,37.7612771
14,улица Батырева,142000,55.3933599,37.7611751
15,улица Батырева,142000,55.3928499,37.7610995
33/1,улица Батырева,142008,55.3918491,37.7629498
34/1,улица Батырева,142008,55.3915765,37.7627089
18,улица Батырева,142000,55.3917843,37.7620881
16,улица Батырева,142000,55.3923234,37.7614806
17,улица Батырева,142000,55.3920670,37.7623427
11,улица Батырева,142000,55.3930824,37.7637438
10,улица Батырева,142000,55.3934270,37.7633518
9,улица Батырева,142000,55.3931977,37.7631720
2,улица Батырева,142000,55.3935685,37.7621494
3,улица Батырева,142000,55.3932724,37.7618176
4,улица Батырева,142000,55.3929486,37.7615598
5,улица Батырева,142000,55.3926440,37.7618068
6,улица Батырева,142000,55.3923690,37.7625310
7,улица Батырева,142000,55.3926341,37.7628395
8,улица Батырева,142000,55.3928427,37.7630802
9,Пионерская улица,142060,55.2703671,37.8913877
13,улица Победы,142060,55.2700455,37.8903150
6,Пионерская улица,142060,55.2695930,37.8917114
31к1,Лунная улица,142003,55.4170053,37.7606753
31к1,Лунная улица,142003,55.4171843,37.7613732
37,Лунная улица,142000,55.4158338,37.7618885
15 к1,улица Кирова,142005,55.4353426,37.7521451
49А,улица Чкалова,142060,55.2590651,37.8894136
28,улица Кирова,142000,55.4316220,37.7513181
9,Западная улица,142001,55.4498898,37.7506384
9А,Западная улица,142001,55.4500203,37.7505756
11,Западная улица,142001,55.4502745,37.7504895
13А,Западная улица,142001,55.4505914,37.7501794
15,Западная улица,142001,55.4509156,37.7502072
17,Западная улица,142001,55.4511665,37.7501523
18,Западная улица,142001,55.4500500,37.7512730
20А,Западная улица,142001,55.4506117,37.7510308
51,Каширское шоссе,142000,55.4344792,37.7678193
6,Каширское шоссе,142000,55.4500601,37.7622090
31/9,улица Батырева,142008,55.3921430,37.7641057
30/6,улица Батырева,142008,55.3925746,37.7637650
32/1,улица Батырева,142008,55.3919423,37.7636825
26,улица Батырева,142000,55.3923762,37.7605616
25,улица Батырева,142000,55.3928432,37.7605898
24,улица Батырева,142000,55.3933243,37.7606771
23,улица Батырева,142000,55.3937880,37.7607650
29,улица Батырева,142000,55.3937260,37.7636693
6Ас1,улица Дружбы,142003,55.4230129,37.7594585
32,улица Курыжова,142000,55.3968143,37.7691108
15 к2,улица Кирова,142005,55.4360920,37.7519318
56А,улица Заборье,142006,55.3864862,37.7875372
56Б,улица Заборье,142006,55.3864542,37.7877977
56В,улица Заборье,142006,55.3866276,37.7878367
34,улица Победы,142060,55.2697301,37.8873758
34А/1,улица Победы,142060,55.2696881,37.8876342
26,улица Победы,142060,55.2700109,37.8887133
28,улица Победы,142060,55.2699013,37.8882635
8,Пионерская улица,142060,55.2692603,37.8890387
10,Пионерская улица,142060,55.2694338,37.8899006
15,Промышленная улица,142000,55.4546276,37.7646768
32,улица Победы,142060,55.2697524,37.8877957
8,улица Чехова,142060,55.2695307,37.8857397
10,улица Чехова,142060,55.2696363,37.8857874
6,улица Чехова,142060,55.2694213,37.8857406
3,улица Чернышевского,142060,55.2694340,37.8866158
4,улица Чехова,142060,55.2693115,37.8856692
2,улица Чехова,142060,55.2691745,37.8856269
1,улица Чернышевского,142060,55.2692333,37.8866752
1А,улица Чернышевского,142060,55.2688709,37.8866104
2А,улица Чехова,142060,55.2687789,37.8856032
11,улица Чехова,142060,55.2696720,37.8853487
9,улица Чехова,142060,55.2695007,37.8852701
14,Спортивная улица,142060,55.2695562,37.8842299
12,Спортивная улица,142060,55.2694094,37.8842028
7,улица Чехова,142060,55.2692609,37.8849903
10,Спортивная улица,142060,55.2692530,37.8841384
8,Спортивная улица,142060,55.2690250,37.8840697
5,улица Чехова,142060,55.2691275,37.8851464
3,улица Чехова,142060,55.2690021,37.8846740
1,улица Чехова,142060,55.2687616,37.8848455
6,Спортивная улица,142060,55.2689064,37.8839914
6А,Спортивная улица,142060,55.2688202,37.8839730
4,Спортивная улица,142060,55.2686918,37.8839706
2,Спортивная улица,142060,55.2684665,37.8838260
7,Лесная улица,142060,55.2697369,37.8822636
5,Лесная улица,142060,55.2695966,37.8821990
3,Лесная улица,142060,55.2695030,37.8819558
16А,Лесная улица,142060,55.2699483,37.8832881
13,Спортивная улица,142060,55.2699058,37.8835995
13А,Спортивная улица,142060,55.2698608,37.8839025
11,Спортивная улица,142060,55.2696167,37.8837935
12,Лесная улица,142060,55.2697528,37.8828226
10,Лесная улица,142060,55.2695629,37.8827610
9,Спортивная улица,142060,55.2694123,37.8837025
7,Спортивная улица,142060,55.2692182,37.8836503
5,Спортивная улица,142060,55.2690034,37.8835590
5А,Спортивная улица,142060,55.2689538,37.8833196
8,Лесная улица,142060,55.2693161,37.8826528
6,Лесная улица,142060,55.2691297,37.8825688
1А,Лесная улица,142060,55.2692296,37.8821803
4,Лесная улица,142060,55.2689356,37.8825434
3,Спортивная улица,142060,55.2687542,37.8834165
2,Лесная улица,142060,55.2687398,37.8825355
1,Спортивная улица,142060,55.2685642,37.8833945
26,Спортивная улица,142060,55.2708342,37.8851217
21,улица Чехова,142060,55.2708236,37.8857405
24,Спортивная улица,142060,55.2707388,37.8846521
22,Спортивная улица,142060,55.2704842,37.8845680
20,Спортивная улица,142060,55.2702425,37.8844865
18,Спортивная улица,142060,55.2700582,37.8844501
18А,улица Чернышевского,142060,55.2721590,37.8885122
18,улица Чернышевского,142060,55.2718350,37.8885059
16,улица Чернышевского,142060,55.2715525,37.8881727
14,улица Чернышевского,142060,55.2714154,37.8881163
12,улица Чернышевского,142060,55.2712413,37.8880593
10,улица Чернышевского,142060,55.2710393,37.8879281
8,улица Чернышевского,142060,55.2708837,37.8878389
4,улица Чернышевского,142060,55.2704242,37.8877075
2,улица Чернышевского,142060,55.2701983,37.8876142
3,улица Фрунзе,142060,55.2711676,37.8863583
24,улица Чехова,142060,55.2709046,37.8862843
22,улица Чехова,142060,55.2707070,37.8862021
21,улица Чернышевского,142060,55.2710689,37.8874153
19,улица Чернышевского,142060,55.2709701,37.8873780
17,улица Чернышевского,142060,55.2708027,37.8872267
15,улица Чернышевского,142060,55.2706012,37.8872113
13А,улица Чернышевского,142060,55.2703022,37.8872315
13,улица Чернышевского,142060,55.2704126,37.8871173
13,улица Чехова,142060,55.2699943,37.8854716
20,улица Чехова,142060,55.2704966,37.8860961
18,улица Чехова,142060,55.2703496,37.8860370
16,улица Чехова,142060,55.2701565,37.8859756
14,улица Чехова,142060,55.2700478,37.8859569
12,улица Чехова,142060,55.2698379,37.8858689
11,улица Чернышевского,142060,55.2702312,37.8870769
9,улица Чернышевского,142060,55.2701179,37.8869890
7,улица Чернышевского,142060,55.2699735,37.8870060
5,улица Чернышевского,142060,55.2697230,37.8868798
15,улица Дубки,142060,55.2723316,37.8851080
14,улица Дубки,142060,55.2725401,37.8851952
8,улица Дубки,142060,55.2739153,37.8857852
11,улица Дубки,142060,55.2732239,37.8855197
6,Луговая улица,142060,55.2740605,37.8869816
8,Луговая улица,142060,55.2737985,37.8868608
10,Луговая улица,142060,55.2735677,37.8867401
12,Луговая улица,142060,55.2732361,37.8866422
16,Луговая улица,142060,55.2728336,37.8863566
18,Луговая улица,142060,55.2724370,37.8863204
20,Луговая улица,142060,55.2721788,37.8861970
7,Луговая улица,142060,55.2736724,37.8873677
33,улица Чернышевского,142060,55.2734738,37.8882220
9,Луговая улица,142060,55.2733851,37.8872524
41,улица Чернышевского,142060,55.2732469,37.8881161
43,улица Чернышевского,142060,55.2730253,37.8880142
13,Луговая улица,142060,55.2728083,37.8870365
15,Луговая улица,142060,55.2725719,37.8869441
17,Луговая улица,142060,55.2723428,37.8868263
27,улица Чернышевского,142060,55.2722716,37.8877469
19А,Луговая улица,142060,55.2720430,37.8866838
25,улица Чернышевского,142060,55.2719484,37.8875793
19,Луговая улица,142060,55.2718242,37.8869382
2,улица Фрунзе,142060,55.2712957,37.8873993
4,улица Фрунзе,142060,55.2713306,37.8870841
6,улица Фрунзе,142060,55.2713841,37.8866424
8,улица Победы,142060,55.2712153,37.8928882
46,1-я Вокзальная улица,142060,55.2716527,37.8934988
6,улица Победы,142060,55.2713172,37.8930430
4,улица Победы,142060,55.2713349,37.8931891
2,улица Победы,142060,55.2714095,37.8933871
10,улица Победы,142060,55.2711710,37.8926747
12,улица Победы,142060,55.2710424,37.8921639
14,улица Победы,142060,55.2709761,37.8918231
16,улица Победы,142060,55.2708446,37.8914675
18,улица Победы,142060,55.2706655,37.8909061
20,улица Победы,142060,55.2705327,37.8903588
22,улица Победы,142060,55.2703441,37.8897638
24,улица Победы,142060,55.2701753,37.8892788
16,улица Фрунзе,142060,55.2718871,37.8838988
18,улица Фрунзе,142060,55.2718011,37.8834597
20,улица Фрунзе,142060,55.2718655,37.8830494
15,улица Фрунзе,142060,55.2716144,37.8830018
13,улица Фрунзе,142060,55.2715489,37.8834624
23,Спортивная улица,142060,55.2712234,37.8832995
21,Спортивная улица,142060,55.2710087,37.8830655
11,улица Фрунзе,142060,55.2715188,37.8837750
25,Спортивная улица,142060,55.2714493,37.8842850
14,улица Фрунзе,142060,55.2717023,37.8844085
12,улица Фрунзе,142060,55.2716218,37.8848726
10,улица Фрунзе,142060,55.2715705,37.8853734
8,улица Фрунзе,142060,55.2715026,37.8858503
26,Лесная улица,142060,55.2707233,37.8831907
17А,Спортивная улица,142060,55.2703992,37.8840998
24,Лесная улица,142060,55.2704276,37.8830505
15,Спортивная улица,142060,55.2701206,37.8839527
5,Луговая улица,142060,55.2739624,37.8875599
35,улица Чернышевского,142060,55.2738219,37.8881762
37,улица Чернышевского,142060,55.2740740,37.8884181
3,Луговая улица,142060,55.2742561,37.8876205
39,улица Чернышевского,142060,55.2743728,37.8885277
1,Луговая улица,142060,55.2745117,37.8877291
2,Луговая улица,142060,55.2745534,37.8871886
4,Луговая улица,142060,55.2742845,37.8870771
9,улица Дубки,142060,55.2736096,37.8857610
26,улица Дубки,142060,55.2739650,37.8840141
28,улица Дубки,142060,55.2740269,37.8845231
29,улица Дубки,142060,55.2737379,37.8847757
25,улица Дубки,142060,55.2736120,37.8840438
30,улица Дубки,142060,55.2735031,37.8849879
24,улица Дубки,142060,55.2734105,37.8837874
23,улица Дубки,142060,55.2731754,37.8836431
22,улица Дубки,142060,55.2729954,37.8836087
21,улица Дубки,142060,55.2727914,37.8834690
20,улица Дубки,142060,55.2725131,37.8833667
19,улица Дубки,142060,55.2724291,37.8837456
32,улица Дубки,142060,55.2730464,37.8847588
33,улица Дубки,142060,55.2728343,37.8846566
34,улица Дубки,142060,55.2726033,37.8845482
13,улица Дубки,142060,55.2727766,37.8852746
20,улица Чернышевского,142060,55.2726715,37.8887239
16,Лесная улица,142060,55.2698734,37.8832635
3А,Спортивная улица,142060,55.2688343,37.8835078
16,Спортивная улица,142060,55.2698099,37.8843314
16А,Спортивная улица,142060,55.2697873,37.8844725
34А,улица Чернышевского,142060,55.2741377,37.8896512
30,улица Чернышевского,142060,55.2742926,37.8892088
28,улица Чернышевского,142060,55.2738092,37.8891186
24,улица Чернышевского,142060,55.2733133,37.8889041
26,улица Чернышевского,142060,55.2735579,37.8890059
22,улица Чернышевского,142060,55.2730035,37.8888041
5В,улица Осипенко,142060,55.2706255,37.8810469
3,улица Осипенко,142060,55.2702858,37.8806839
1,улица Осипенко,142060,55.2702391,37.8809998
5А,улица Осипенко,142060,55.2706827,37.8811755
5Б,улица Осипенко,142060,55.2706438,37.8809096
5,улица Осипенко,142060,55.2708661,37.8812781
7А,улица Осипенко,142060,55.2711034,37.8812120
9,улица Осипенко,142060,55.2712856,37.8814189
8,улица Осипенко,142060,55.2711519,37.8820743
6,улица Осипенко,142060,55.2709020,37.8817233
4,улица Осипенко,142060,55.2706793,37.8816323
2,улица Осипенко,142060,55.2705047,37.8815654
15,Лесная улица,142060,55.2707625,37.8826698
13,Лесная улица,142060,55.2705466,37.8825859
11,Лесная улица,142060,55.2703820,37.8825519
20А,улица Чернышевского,142060,55.2727727,37.8890720
13,Западная улица,142001,55.4504487,37.7501628
53,Каширское шоссе,142000,55.4343279,37.7683890
7 к1,улица Кирова,142005,55.4395137,37.7504890
25А,Рабочая улица,142000,55.4326727,37.7597899
25,Рабочая улица,142000,55.4332361,37.7594139
70,Советская улица,142001,55.4461862,37.7366014
91А,Каширское шоссе,142004,55.4267418,37.7725877
29,Лунная улица,142003,55.4179244,37.7589539
31,Лунная улица,142003,55.4168921,37.7595669
35,Лунная улица,142003,55.4169696,37.7621992
50,Рабочая улица,142003,55.4233558,37.7634405
46,Рабочая улица,142003,55.4241942,37.7628409
48,Рабочая улица,142003,55.4241303,37.7641560
3,улица Дружбы,142003,55.4235059,37.7612870
4А,улица Дружбы,142003,55.4234289,37.7578130
с4,улица Дружбы,142003,55.4234982,37.7595160
6А,улица Дружбы,142003,55.4226618,37.7592908
21,Лунная улица,142003,55.4212188,37.7573364
17к2,Лунная улица,142003,55.4227572,37.7570386
17к1,Лунная улица,142003,55.4233218,37.7568237
15,Лунная улица,142003,55.4242503,37.7562451
20,улица 25 лет Октября,142003,55.4250298,37.7571600
20,улица 25 лет Октября,142003,55.4247615,37.7559722
2,улица Дружбы,142003,55.4246970,37.7586020
44к1,Рабочая улица,142003,55.4248296,37.7619837
14,улица 25 лет Октября,142003,55.4256900,37.7600346
13,Лунная улица,142003,55.4257935,37.7568418
9,Лунная улица,142003,55.4267081,37.7561560
5,Лунная улица,142003,55.4276550,37.7554435
1,Лунная улица,142003,55.4286051,37.7547351
9к1,Лунная улица,142003,55.4265925,37.7574131
5к1,Лунная улица,142003,55.4274465,37.7567708
1к1,Лунная улица,142003,55.4283736,37.7560713
с48,Красноармейская улица,142003,55.4293399,37.7553214
11/29,Промышленная улица,142000,55.4495574,37.7722761
59В,Вокзальная улица,142006,55.4042307,37.8177576
15,улица Курыжова,142000,55.4000248,37.7701237
8,Лазурная улица,142006,55.3907803,37.7924608
34,Дачная улица,142001,55.4502725,37.7536652
25,Лунная улица,142003,55.4199871,37.7588102
8В,улица Авенариуса,142050,55.3315603,37.8379402
30/5,улица Батырева,142008,55.3925477,37.7638389
30/4,улица Батырева,142008,55.3925208,37.7639128
30/3,улица Батырева,142008,55.3924940,37.7639868
30/2,улица Батырева,142008,55.3924670,37.7640607
30/1,улица Батырева,142008,55.3924401,37.7641346
32/7,улица Батырева,142008,55.3921093,37.7632341
32/6,улица Батырева,142008,55.3920815,37.7633089
32/5,улица Батырева,142008,55.3920536,37.7633836
32/4,улица Батырева,142008,55.3920258,37.7634583
32/3,улица Батырева,142008,55.3919980,37.7635330
32/2,улица Батырева,142008,55.3919702,37.7636077
31/1,улица Батырева,142008,55.3923614,37.7635283
31/3,улица Батырева,142008,55.3923068,37.7636727
31/4,улица Батырева,142008,55.3922795,37.7637448
31/5,улица Батырева,142008,55.3922522,37.7638170
31/6,улица Батырева,142008,55.3922249,37.7638892
31/7,улица Батырева,142008,55.3921976,37.7639614
31/8,улица Батырева,142008,55.3921703,37.7640336
31/2,улица Батырева,142008,55.3923341,37.7636005
34/2,улица Батырева,142008,55.3915600,37.7627908
34/3,улица Батырева,142008,55.3915434,37.7628728
34/4,улица Батырева,142008,55.3915267,37.7629547
34/5,улица Батырева,142008,55.3915102,37.7630367
34/6,улица Батырева,142008,55.3914936,37.7631186
34/7,улица Батырева,142008,55.3914770,37.7632006
34/8,улица Батырева,142008,55.3914605,37.7632826
34/9,улица Батырева,142008,55.3914439,37.7633645
33/2,улица Батырева,142008,55.3918312,37.7630319
33/3,улица Батырева,142008,55.3918134,37.7631140
33/4,улица Батырева,142008,55.3917954,37.7631961
33/5,улица Батырева,142008,55.3917775,37.7632782
33/6,улица Батырева,142008,55.3917596,37.7633603
33/7,улица Батырева,142008,55.3917416,37.7634425
10,Рябиновая улица,142006,55.3858731,37.7810681
24,Станционная улица,142000,55.4375472,37.7775970
30,улица Курыжова,142000,55.3964352,37.7676149
5,улица Энергетиков,142001,55.4512390,37.7365134
63,улица Гагарина,142001,55.4500957,37.7364683
49,улица Гагарина,142001,55.4508378,37.7414323
57,Каширское шоссе,142000,55.4335436,37.7675198
20,Станционная улица,142000,55.4401605,37.7835628
39,улица Текстильщиков,142002,55.4327340,37.7340547
30 к1,улица Курыжова,142000,55.3952292,37.7689346
11,Южнодомодедовская улица,142000,55.4007699,37.7601869
15,Южнодомодедовская улица,142000,55.4003073,37.7644681
17,Южнодомодедовская улица,142000,55.3993932,37.7638434
5,Каширское шоссе,142000,55.4498512,37.7643966
17 к1,улица Кирова,142005,55.4330534,37.7536366
7,улица Курыжова,142008,55.4029946,37.7667277
3,улица Курыжова,142000,55.4046888,37.7658375
9 к2,Лунная улица,142000,55.4260843,37.7577589
