House number,Street name,Postal code,Latitude,Longitude
к4,микрорайон ИКЕА,141501,55.9133723,37.3962273
14,Московская улица,141402,55.8943234,37.4495710
к1,микрорайон ИКЕА,141501,55.9092652,37.3974328
50,Молодёжная улица,141407,55.8997972,37.4017495
7,Зелёная улица,141411,55.8895904,37.4797268
5,улица Зои Космодемьянской,141402,55.8849921,37.4478411
4,улица Панфилова,141407,55.8833124,37.4279963
15,улица Мичурина,141420,55.9465970,37.3004347
8А,Молодёжная улица,141407,55.8819847,37.4179993
1,улица Горшина,141407,55.8878162,37.4296305
1,улица Горшина,141407,55.8877498,37.4295534
3,Банный переулок,141421,55.9539502,37.3057538
52,Молодёжная улица,141407,55.9009352,37.4000467
17,Новосходненское шоссе,141408,55.9196966,37.3707842
17,Новосходненское шоссе,141408,55.9197879,37.3707325
17,Новосходненское шоссе,141408,55.9197338,37.3706666
1,улица Кирова,141420,55.9502700,37.2989700
4 к1,улица Ватутина,141402,55.8875857,37.4566976
49,улица Микояна,141420,55.9571496,37.2865599
15А,Молодёжная улица,141407,55.8854392,37.4086199
25 к1,улица Микояна,141420,55.9585972,37.2924510
2Б,Ленинский проспект,141401,55.8942779,37.4636902
12,Коммунальный проезд,141001,55.9126686,37.4192330
14,Московская улица,141402,55.8944497,37.4492103
вл5,Ленинградское шоссе,141407,55.8889056,37.4335390
3 пом4,Московская улица,141402,55.8934705,37.4500743
4 к2,улица Ватутина,141402,55.8872791,37.4578751
204Е,улица Пожарского,141406,55.8922075,37.4863125
35,улица Академика Грушина,141401,55.9183096,37.4535459
11,Союзная улица,141402,55.8961980,37.4390032
37,улица Карла Маркса,141401,55.9207000,37.4765000
35,Коммунальный проезд,141401,55.9177473,37.4207227
2/5,Центральная улица,141446,55.9466221,37.3369245
2/5,Центральная улица,141446,55.9466981,37.3367841
10,улица Карла Маркса,141401,55.9189000,37.4728000
25/3,Комсомольская улица,141401,55.9238000,37.4690000
25/2,Комсомольская улица,141401,55.9237700,37.4687500
20А,улица Ворошилова,141401,55.9165700,37.4811600
45Б,Спортивная улица,141401,55.9202500,37.4830600
45А,Спортивная улица,141401,55.9202000,37.4829000
25А,улица Пушкина,141401,55.9177000,37.4789000
35А,Спортивная улица,141401,55.9193000,37.4798000
35Б,Спортивная улица,141401,55.9193600,37.4800000
35,улица Карла Маркса,141401,55.9207000,37.4758000
27 с1,Набережный проезд,141402,55.9574226,37.4464602
с27,Набережный проезд,141402,55.9585865,37.4452347
11Б,Комсомольская улица,141401,55.9225000,37.4663000
7А,Комсомольская улица,141401,55.9218000,37.4664000
3,Транспортный проезд,141401,55.9136347,37.4137446
с27,Набережный проезд,141402,55.9583724,37.4453186
с27,Набережный проезд,141402,55.9583840,37.4454256
с27,Набережный проезд,141402,55.9582709,37.4454211
с27,Набережный проезд,141402,55.9583378,37.4455194
с27,Набережный проезд,141402,55.9581974,37.4455802
с27,Набережный проезд,141402,55.9581536,37.4455708
с27,Набережный проезд,141402,55.9581073,37.4456386
с27,Набережный проезд,141402,55.9581576,37.4457594
с27,Набережный проезд,141402,55.9581178,37.4458048
с27,Набережный проезд,141402,55.9580588,37.4457042
с27,Набережный проезд,141402,55.9580462,37.4458859
с27,Набережный проезд,141402,55.9580164,37.4457577
с27,Набережный проезд,141402,55.9579792,37.4459376
с27,Набережный проезд,141402,55.9579647,37.4458124
с27,Набережный проезд,141402,55.9579149,37.4458707
с27,Набережный проезд,141402,55.9579465,37.4459897
с27,Набережный проезд,141402,55.9578227,37.4459237
27 с1,Набережный проезд,141402,55.9574433,37.4465397
с27,Набережный проезд,141402,55.9579634,37.4460162
с27,Набережный проезд,141402,55.9579940,37.4457807
21,улица Панфилова,141407,55.8800764,37.4334613
8 к1,улица Лётчика Ивана Фёдорова,141402,55.9573558,37.4446387
8 к1,улица Лётчика Ивана Фёдорова,141402,55.9573460,37.4446875
к1,микрорайон ИКЕА,141501,55.9089598,37.3967025
1,"шоссе Ленинградское, километр 23-й",141406,55.9123360,37.3957024
3 к1,Ивановская улица,141435,55.9070837,37.3276507
3 к1,Ивановская улица,141435,55.9068931,37.3274365
7,Зелёная улица,141411,55.8891811,37.4797121
13,Зелёная улица,141411,55.8884753,37.4764618
13,Зелёная улица,141411,55.8882496,37.4765592
14,улица Нахимова,141406,55.8892818,37.4724925
2,Зелёная улица,141411,55.8905027,37.4833715
5к1,улица Марии Рубцовой,141410,55.9089129,37.4013263
1к4,улица Марии Рубцовой,141410,55.9089611,37.4039034
21к1,улица 9 Мая,141410,55.9085558,37.4060562
к4,микрорайон ИКЕА,141501,55.9139023,37.3971512
к1,микрорайон ИКЕА,141501,55.9087585,37.3969230
к1,микрорайон ИКЕА,141501,55.9088376,37.3969461
к1,микрорайон ИКЕА,141501,55.9088023,37.3972327
к1,микрорайон ИКЕА,141501,55.9090366,37.3967851
к1,микрорайон ИКЕА,141501,55.9089976,37.3965772
3А,улица Марии Рубцовой,141410,55.9075214,37.4039882
1,Ленинградское шоссе,141410,55.9114704,37.3979471
4,Ленинградское шоссе,141407,55.8862875,37.4372262
6,улица 8 Марта,141401,55.9046594,37.4559011
4,улица 8 Марта,141401,55.9042193,37.4570913
2,улица 8 Марта,141401,55.9040951,37.4580522
8,улица 8 Марта,141401,55.9053246,37.4543321
1,улица 8 Марта,141401,55.9038070,37.4568807
6/10,улица Бурденко,141401,55.9032279,37.4541875
8,улица Чкалова,141401,55.9026518,37.4553209
23,проспект Мира,141401,55.9032751,37.4570702
21/6,проспект Мира,141401,55.9025907,37.4562814
29,Ленинский проспект,141401,55.9024558,37.4611182
27,Ленинский проспект,141401,55.9020965,37.4620257
25,Ленинский проспект,141401,55.9016637,37.4621240
23,Ленинский проспект,141401,55.9013030,37.4610478
23А,Ленинский проспект,141401,55.9018432,37.4607156
5,улица Бурденко,141401,55.9039110,37.4527066
19/9,проспект Мира,141401,55.9019202,37.4551301
17,проспект Мира,141401,55.9012890,37.4545872
15/8,проспект Мира,141401,55.9011261,37.4536943
4/13,улица Бурденко,141401,55.9026700,37.4534841
2,улица Бурденко,141401,55.9022913,37.4521571
2,Ленинский проспект,141401,55.8990527,37.4584436
4,Ленинский проспект,141401,55.8994406,37.4592746
6,Ленинский проспект,141401,55.8997428,37.4600073
8,Ленинский проспект,141401,55.9000605,37.4607685
12,Ленинский проспект,141401,55.9004612,37.4612322
10,Ленинский проспект,141401,55.8999988,37.4618206
6/20,проспект Мира,141401,55.9007366,37.4554268
2/15,улица Победы,141401,55.8998469,37.4573635
17,Ленинский проспект,141401,55.9000933,37.4584169
19/1,Ленинский проспект,141401,55.9004300,37.4590226
22/7,проспект Мира,141401,55.9013562,37.4564114
2А,Ленинский проспект,141401,55.8951394,37.4549260
11,улица Мичурина,141401,55.9056770,37.4590423
4,улица Мичурина,141401,55.9057289,37.4601166
6,улица Мичурина,141401,55.9065336,37.4599687
13,улица Мичурина,141401,55.9064372,37.4592157
15,улица Мичурина,141401,55.9072207,37.4591315
18/5,проспект Мира,141401,55.8999178,37.4542723
16,проспект Мира,141401,55.8991975,37.4532084
14,проспект Мира,141401,55.8984991,37.4524102
3,улица Победы,141401,55.8996594,37.4554301
11А,проспект Мира,141401,55.8990654,37.4544038
11,Ленинский проспект,141401,55.8987214,37.4552460
14А,проспект Мира,141401,55.8982349,37.4532770
9А,Ленинский проспект,141401,55.8981735,37.4546558
7,Ленинский проспект,141401,55.8974063,37.4541773
12,проспект Мира,141401,55.8978578,37.4522552
10,проспект Мира,141401,55.8975253,37.4521951
8,проспект Мира,141401,55.8973325,37.4510939
6,проспект Мира,141401,55.8966904,37.4512294
3,Ленинский проспект,141401,55.8966266,37.4533760
13/7,проспект Мира,141401,55.9002706,37.4532319
11,проспект Мира,141401,55.8995011,37.4520074
7,проспект Мира,141401,55.8986047,37.4513252
5,проспект Мира,141401,55.8984498,37.4501232
9,проспект Мира,141401,55.8990429,37.4506868
5А,проспект Мира,141401,55.8990582,37.4495864
30,улица Академика Грушина,141401,55.9125999,37.4556628
29,улица Мичурина,141401,55.9122364,37.4565095
27,улица Мичурина,141401,55.9118647,37.4574180
25,улица Мичурина,141401,55.9115029,37.4582904
23,улица Мичурина,141401,55.9110450,37.4589565
21,улица Мичурина,141401,55.9103056,37.4591547
19,улица Мичурина,141401,55.9095674,37.4589685
17,улица Мичурина,141401,55.9085970,37.4587123
18,улица Мичурина,141401,55.9104628,37.4599146
16,улица Мичурина,141401,55.9098998,37.4598443
14,улица Мичурина,141401,55.9093321,37.4597387
12,улица Мичурина,141401,55.9087679,37.4596370
10,улица Мичурина,141401,55.9076289,37.4597700
8,улица Мичурина,141401,55.9071234,37.4600679
31,Ленинский проспект,141401,55.9026211,37.4599743
14 к3,Ленинский проспект,141401,55.9019684,37.4646920
14,Ленинский проспект,141401,55.9009945,37.4623876
24А,улица Академика Грушина,141401,55.9107197,37.4556408
28/1,улица Академика Грушина,141401,55.9118715,37.4551469
29,улица Академика Грушина,141401,55.9123347,37.4553916
вл3А,Юбилейный проспект,141407,55.8856327,37.4234350
2,Кольцевая улица,141402,55.8834002,37.4524840
12,Кольцевая улица,141402,55.8833448,37.4483148
14,Кольцевая улица,141402,55.8834493,37.4476863
3,улица Зои Космодемьянской,141402,55.8842202,37.4480655
1,улица Зои Космодемьянской,141402,55.8841125,37.4486903
16,Кольцевая улица,141402,55.8833586,37.4465539
3А,улица Калинина,141402,55.8852005,37.4510590
26,улица Кирова,141402,55.8850594,37.4521743
28,улица Кирова,141402,55.8846128,37.4524746
4,Кольцевая улица,141402,55.8838388,37.4523165
6А,улица Зои Космодемьянской,141402,55.8849400,37.4498866
5Б,улица Зои Космодемьянской,141402,55.8847114,37.4487084
2,улица Зои Космодемьянской,141402,55.8839369,37.4500047
4,улица Зои Космодемьянской,141402,55.8841151,37.4512179
4А,улица Зои Космодемьянской,141402,55.8845687,37.4517230
11,Спартаковская улица,141402,55.8846316,37.4451664
18,Спартаковская улица,141402,55.8845032,37.4438464
12,Спартаковская улица,141402,55.8856714,37.4460115
5,улица Марины Расковой,141402,55.8860784,37.4454951
16,Спартаковская улица,141402,55.8850068,37.4446687
2,Ленинградская улица,141402,55.8845156,37.4430019
3,Ленинградская улица,141402,55.8850482,37.4423410
1,Спартаковская улица,141402,55.8863791,37.4490028
11А,Ленинградская улица,141402,55.8841134,37.4458723
3,улица Ватутина,141402,55.8874076,37.4549009
5,улица Ватутина,141402,55.8877335,37.4553135
9,улица Ватутина,141402,55.8886128,37.4554267
13,улица Ватутина,141402,55.8890936,37.4559675
11,улица Ватутина,141402,55.8889570,37.4550916
25,улица Кирова,141402,55.8870873,37.4532826
1,улица Ватутина,141402,55.8871181,37.4539990
23/4,Московская улица,141402,55.8856673,37.4422355
4/6,улица Осипенко,141402,55.8868712,37.4451216
19/2,Московская улица,141402,55.8874184,37.4444212
17/15,Московская улица,141402,55.8881734,37.4445332
13,улица Калинина,141402,55.8882059,37.4453212
15,Московская улица,141402,55.8890950,37.4455048
5А,улица Чапаева,141402,55.8896086,37.4487386
11А,Московская улица,141402,55.8902976,37.4478850
6,Аптечная улица,141402,55.8903760,37.4493545
8,Аптечная улица,141402,55.8900283,37.4501923
7,улица Чапаева,141402,55.8882581,37.4497515
3,улица Чапаева,141402,55.8894452,37.4470600
21,улица Кирова,141402,55.8877174,37.4535152
19,улица Кирова,141402,55.8884065,37.4526321
20,улица Кирова,141402,55.8883423,37.4515742
13/1,Московская улица,141402,55.8900095,37.4459561
2А,Аптечная улица,141402,55.8909196,37.4481703
18,улица Кирова,141402,55.8891000,37.4512711
16/10,улица Кирова,141402,55.8899393,37.4513663
7,Аптечная улица,141402,55.8906822,37.4503324
14,улица Кирова,141402,55.8907861,37.4512084
7,улица Кирова,141402,55.8912653,37.4532266
5,Аптечная улица,141402,55.8911885,37.4504431
3,Аптечная улица,141402,55.8916224,37.4496545
14,Зелёная улица,141411,55.8877220,37.4761228
12,Зелёная улица,141411,55.8879560,37.4773017
10,Зелёная улица,141411,55.8882797,37.4789264
8,Зелёная улица,141411,55.8886397,37.4801949
18,Зелёная улица,141411,55.8876614,37.4736457
16,Зелёная улица,141411,55.8879386,37.4748300
7,Зелёная улица,141411,55.8894292,37.4796419
9,Зелёная улица,141411,55.8890813,37.4785816
11,Зелёная улица,141411,55.8886753,37.4775823
13,Зелёная улица,141411,55.8885348,37.4764805
15,Зелёная улица,141411,55.8895668,37.4774405
4,Зелёная улица,141411,55.8900562,37.4804422
15А,Зелёная улица,141411,55.8904948,37.4782359
4,Коммунистическая улица,141402,55.8922049,37.4444749
5,Первомайская улица,141402,55.8928903,37.4449823
4,Первомайская улица,141402,55.8928980,37.4471671
9,улица Гоголя,141401,55.8986486,37.4462591
3/1,Коммунистическая улица,141402,55.8921995,37.4457005
3,Коммунистическая улица,141402,55.8914459,37.4447271
16,Куркинское шоссе,141407,55.8846562,37.4223193
2Б,улица Бабакина,141407,55.8831011,37.4270702
7,улица Строителей,141407,55.8853259,37.4136054
14/30,Молодёжная улица,141407,55.8844237,37.4138260
22,Куркинское шоссе,141407,55.8839684,37.4159618
20,Куркинское шоссе,141407,55.8840969,37.4177139
24,Куркинское шоссе,141407,55.8845743,37.4160607
26,Куркинское шоссе,141407,55.8848564,37.4173851
11,Куркинское шоссе,141407,55.8833299,37.4129248
4,улица Бабакина,141407,55.8819466,37.4231798
6,Куркинское шоссе,141407,55.8837693,37.4237666
12,Куркинское шоссе,141407,55.8835446,37.4218659
14,Куркинское шоссе,141407,55.8841902,37.4213259
3А,улица Строителей,141407,55.8861028,37.4154738
3,улица Строителей,141407,55.8865646,37.4155137
7,Куркинское шоссе,141407,55.8823088,37.4192307
10,Юбилейный проспект,141407,55.8879201,37.4255637
20,Юбилейный проспект,141407,55.8876362,37.4237205
32,Юбилейный проспект,141407,55.8879379,37.4225919
22,Юбилейный проспект,141407,55.8871233,37.4229928
18,Юбилейный проспект,141407,55.8873999,37.4249418
8,Юбилейный проспект,141407,55.8879580,37.4270279
6,Юбилейный проспект,141407,55.8884227,37.4278888
4,Юбилейный проспект,141407,55.8888212,37.4290714
10,улица Строителей,141407,55.8854778,37.4124066
30,улица Маяковского,141402,55.8909685,37.4353426
28,улица Маяковского,141402,55.8913083,37.4358958
24,улица Маяковского,141402,55.8918049,37.4371658
26,улица Маяковского,141402,55.8915614,37.4365362
22,улица Маяковского,141402,55.8920604,37.4378253
20,улица Маяковского,141402,55.8921456,37.4387155
16/10,улица Маяковского,141402,55.8929059,37.4405620
4,улица Маяковского,141402,55.8955049,37.4451312
3,Союзная улица,141402,55.8969785,37.4429727
13,улица Маяковского,141402,55.8932359,37.4427091
19/8,улица Маяковского,141402,55.8925855,37.4412398
21/13,улица Маяковского,141402,55.8920091,37.4395724
23,улица Маяковского,141402,55.8915852,37.4384759
25,улица Маяковского,141402,55.8911252,37.4373329
27,улица Маяковского,141402,55.8905718,37.4367560
40,Юбилейный проспект,141407,55.8872241,37.4190947
50,Юбилейный проспект,141407,55.8878814,37.4165890
60,Юбилейный проспект,141407,55.8888632,37.4146013
33/2,Юбилейный проспект,141407,55.8877109,37.4143366
4,улица Строителей,141407,55.8868765,37.4134442
35,Юбилейный проспект,141407,55.8888848,37.4127504
6,Пролетарская улица,141402,55.8917369,37.4419695
5,улица Розы Люксембург,141402,55.8922671,37.4422783
1,улица Розы Люксембург,141402,55.8915620,37.4434059
Шереметьевское шоссе,Шереметьевское шоссе,141426,55.9854030,37.4310155
вл6,Шереметьевское шоссе,141732,55.9844416,37.4449428
1,улица Панфилова,141407,55.8867429,37.4276142
22,Зелёная улица,141411,55.8903859,37.4758059
21,Зелёная улица,141411,55.8893681,37.4757508
14,улица Нахимова,141406,55.8893130,37.4727485
6,улица Нахимова,141406,55.8900322,37.4729466
4,улица Нахимова,141406,55.8906162,37.4730543
8,улица Нахимова,141406,55.8897249,37.4719317
4А,улица Нахимова,141406,55.8902284,37.4717234
16,улица Нахимова,141406,55.8898888,37.4741845
12,улица Нахимова,141406,55.8894256,37.4710226
2А,улица Нахимова,141406,55.8913450,37.4715739
6,Зелёная улица,141411,55.8895339,37.4817658
6,улица Бабакина,141407,55.8801580,37.4252010
8,улица Бабакина,141407,55.8799736,37.4241362
18,улица Панфилова,141407,55.8783635,37.4249002
16,улица Панфилова,141407,55.8787016,37.4270720
15,улица Панфилова,141407,55.8791403,37.4275631
17,улица Панфилова,141407,55.8784909,37.4258671
3,улица 9 Мая,141407,55.8907505,37.4271734
2,улица 9 Мая,141407,55.8897447,37.4281153
16,Юбилейный проспект,141407,55.8891778,37.4256525
14,Юбилейный проспект,141407,55.8891764,37.4263906
12,Юбилейный проспект,141407,55.8891790,37.4271478
38,Юбилейный проспект,141407,55.8878577,37.4205949
44,Юбилейный проспект,141407,55.8879985,37.4190806
49,Юбилейный проспект,141407,55.8893556,37.4105761
42,Юбилейный проспект,141407,55.8878316,37.4198205
2,улица Лавочкина,141407,55.8919208,37.4250104
4/1,улица 9 Мая,141407,55.8918706,37.4269073
7,проспект Мельникова,141501,55.9012351,37.4027529
15,проспект Мельникова,141501,55.9026202,37.4009903
54,Молодёжная улица,141501,55.9021891,37.3996466
17,улица Гоголя,141401,55.8988329,37.4447557
15,улица Гоголя,141401,55.8991731,37.4456433
19,улица Гоголя,141401,55.8984234,37.4450954
12,улица Гоголя,141401,55.8984181,37.4478169
7,улица Гоголя,141401,55.8980118,37.4471805
21,улица Гоголя,141401,55.8976299,37.4464668
32Б,Московская улица,141402,55.8887771,37.4428625
5/40,Ленинградская улица,141402,55.8859765,37.4414442
6,Ленинградская улица,141402,55.8863959,37.4408281
9А,Ленинградская улица,141402,55.8875857,37.4395537
1,Пролетарская улица,141402,55.8902133,37.4437401
4,Пролетарская улица,141402,55.8908796,37.4436030
24А,Московская улица,141402,55.8916399,37.4456634
11,Московская улица,141402,55.8908409,37.4467033
9,Пролетарская улица,141402,55.8911116,37.4410741
7,Пролетарская улица,141402,55.8908469,37.4415869
5,Пролетарская улица,141402,55.8904811,37.4421938
3,Пролетарская улица,141402,55.8900667,37.4427182
13,улица Кирова,141402,55.8897054,37.4522963
19А,улица Кирова,141402,55.8889239,37.4523448
17,улица Кирова,141402,55.8888339,37.4534328
15,улица Кирова,141402,55.8893566,37.4529855
10 к1,улица Кирова,141402,55.8918919,37.4516367
6,улица Кирова,141402,55.8923063,37.4525260
5,улица Кирова,141402,55.8916621,37.4526805
9,улица Кирова,141402,55.8909600,37.4522520
11,улица Кирова,141402,55.8904038,37.4525019
3,Московская улица,141402,55.8934884,37.4502025
1,Московская улица,141402,55.8935231,37.4512089
4,улица Кирова,141402,55.8929639,37.4525327
6А,улица Кирова,141402,55.8928293,37.4512707
3,проспект Мира,141401,55.8979222,37.4494016
1,проспект Мира,141401,55.8980499,37.4489071
8/2,улица Гоголя,141401,55.8962473,37.4500884
4,проспект Мира,141401,55.8966063,37.4502176
4,улица Гоголя,141401,55.8957615,37.4514094
11,улица Маяковского,141402,55.8935812,37.4440925
9/10,улица Маяковского,141402,55.8938586,37.4448025
7,улица Маяковского,141402,55.8941387,37.4454049
5,улица Маяковского,141402,55.8942775,37.4464131
3,улица Маяковского,141402,55.8946835,37.4469018
36А,Юбилейный проспект,141407,55.8874976,37.4213875
36,Юбилейный проспект,141407,55.8871672,37.4214180
3,улица Панфилова,141407,55.8855596,37.4278137
1,улица Горшина,141407,55.8875630,37.4306397
8,улица Строителей,141407,55.8862969,37.4116329
5А,улица Строителей,141407,55.8861903,37.4168359
7А,улица Строителей,141407,55.8858898,37.4145967
7,Юбилейный проспект,141407,55.8864042,37.4185350
14,Пролетарская улица,141402,55.8945902,37.4363866
25,Пролетарская улица,141402,55.8948907,37.4371980
23,Пролетарская улица,141402,55.8939644,37.4377647
25,улица Энгельса,141402,55.8933856,37.4367517
20,улица Энгельса,141402,55.8941487,37.4343312
16,Пролетарская улица,141402,55.8943539,37.4357722
18А,Ленинградская улица,141402,55.8915698,37.4347335
19,Ленинградская улица,141402,55.8923695,37.4345032
20,Ленинградская улица,141402,55.8924672,37.4334513
26,улица Энгельса,141402,55.8931767,37.4329767
24,улица Энгельса,141402,55.8934051,37.4335693
18,Московская улица,141402,55.8928240,37.4482313
20/2,Московская улица,141402,55.8923340,37.4473142
9/2,Московская улица,141402,55.8913424,37.4479283
4,Аптечная улица,141402,55.8910419,37.4491550
15А,улица Маяковского,141402,55.8930728,37.4433681
8,Московская улица,141402,55.8944293,37.4475209
10,Московская улица,141402,55.8941779,37.4481459
12,Московская улица,141402,55.8939124,37.4487381
16,Московская улица,141402,55.8936619,37.4493219
2,улица Розы Люксембург,141402,55.8919477,37.4437247
4,улица Розы Люксембург,141402,55.8925117,37.4428310
15,улица Маяковского,141402,55.8929076,37.4438136
32,улица Кирова,141402,55.8836578,37.4533282
21А,улица Маяковского,141402,55.8911471,37.4398004
11,улица Чапаева,141402,55.8875786,37.4515476
16А,Спартаковская улица,141402,55.8854458,37.4440317
2,улица Ватутина,141402,55.8867186,37.4553551
5,Московская улица,141402,55.8926137,37.4492945
32А,Московская улица,141402,55.8895158,37.4424876
26,Московская улица,141402,55.8910272,37.4454591
9,улица Чапаева,141402,55.8878008,37.4511971
17/1,Московская улица,141402,55.8919592,37.4483431
11А,улица Кирова,141402,55.8902349,37.4536673
5,улица Чапаева,141402,55.8890546,37.4484164
52,Молодёжная улица,141501,55.9007943,37.4006760
50,Молодёжная улица,141501,55.8992585,37.4014621
8,Молодёжный проезд,141501,55.8989600,37.4046784
6,Молодёжный проезд,141501,55.8998210,37.4043643
5,Молодёжный проезд,141501,55.9004965,37.4026133
1 к4,улица Марии Рубцовой,141410,55.9089887,37.4041385
1 к5,улица Марии Рубцовой,141410,55.9088847,37.4032926
1 к3,улица Марии Рубцовой,141410,55.9087370,37.4048669
1 к1,улица Марии Рубцовой,141410,55.9078500,37.4045878
1 к2,улица Марии Рубцовой,141410,55.9082654,37.4050463
15,улица Лавочкина,141407,55.8905316,37.4190882
5,улица Строителей,141407,55.8854381,37.4146586
22,улица Лавочкина,141407,55.8903516,37.4165038
18,улица Лавочкина,141407,55.8902831,37.4180860
24,улица Лавочкина,141407,55.8898833,37.4149597
23,улица Лавочкина,141407,55.8896900,37.4162619
19,улица Лавочкина,141407,55.8899726,37.4184992
64,Юбилейный проспект,141407,55.8894786,37.4152777
62,Юбилейный проспект,141407,55.8891618,37.4157872
58,Юбилейный проспект,141407,55.8889498,37.4164784
56,Юбилейный проспект,141407,55.8889817,37.4178994
54,Юбилейный проспект,141407,55.8886409,37.4170613
52,Юбилейный проспект,141407,55.8884246,37.4176962
46,Юбилейный проспект,141407,55.8882708,37.4184600
14,улица Лавочкина,141407,55.8911310,37.4184331
16,улица Лавочкина,141407,55.8908854,37.4172200
17,улица Лавочкина,141407,55.8905767,37.4176354
48,Юбилейный проспект,141407,55.8884700,37.4196989
9,улица Лавочкина,141407,55.8912144,37.4234433
5,улица Лавочкина,141407,55.8910858,37.4244771
8,улица Лавочкина,141407,55.8916186,37.4227666
4,улица Лавочкина,141407,55.8911050,37.4252355
3,улица Лавочкина,141407,55.8911196,37.4260003
46А,Юбилейный проспект,141407,55.8894241,37.4189038
12,улица Лавочкина,141407,55.8902911,37.4212830
48А,Юбилейный проспект,141407,55.8890672,37.4199537
43,Юбилейный проспект,141407,55.8876400,37.4129579
45,Юбилейный проспект,141407,55.8879177,37.4123793
47,Юбилейный проспект,141407,55.8881229,37.4117324
66Б,Юбилейный проспект,141407,55.8917014,37.4123867
23А,улица Лавочкина,141407,55.8899463,37.4171889
30,Юбилейный проспект,141407,55.8888568,37.4221794
26,Юбилейный проспект,141407,55.8885764,37.4238582
28,Юбилейный проспект,141407,55.8885684,37.4230210
24,Юбилейный проспект,141407,55.8888699,37.4247435
10,улица Лавочкина,141407,55.8908623,37.4236018
2А,проспект Мельникова,141501,55.9012855,37.4094159
13,улица 9 Мая,141410,55.9023795,37.4118306
18А,улица Панфилова,141407,55.8781027,37.4243558
2,Молодёжная улица,141407,55.8787457,37.4236341
13,улица Панфилова,141407,55.8801343,37.4287842
3А,Юбилейный проспект,141407,55.8860972,37.4231463
1,улица 9 Мая,141407,55.8893558,37.4289057
60,Молодёжная улица,141501,55.9049050,37.3930293
64,Молодёжная улица,141501,55.9049859,37.3910061
68,Молодёжная улица,141501,55.9066276,37.3932999
70,Молодёжная улица,141501,55.9066859,37.3910362
8,улица Панфилова,141407,55.8817094,37.4303171
11,улица Панфилова,141407,55.8799515,37.4301713
9,улица Панфилова,141407,55.8813300,37.4308907
10,улица Панфилова,141407,55.8805383,37.4309358
3,улица Бабакина,141407,55.8811402,37.4248330
7,улица Бабакина,141407,55.8804303,37.4221797
9,улица Бабакина,141407,55.8800786,37.4211303
2А,улица Бабакина,141407,55.8831658,37.4260714
12,улица Родионова,141410,55.9062748,37.4087936
16,улица 9 Мая,141410,55.9030730,37.4096247
17,улица 9 Мая,141410,55.9038474,37.4100136
11,улица Родионова,141410,55.9052201,37.4082085
9А,улица Родионова,141410,55.9048121,37.4074896
6,улица Родионова,141410,55.9056354,37.4061497
8,улица Родионова,141410,55.9062087,37.4068555
2А,улица Родионова,141410,55.9042541,37.4045445
9,улица Родионова,141410,55.9039416,37.4080931
4,улица Родионова,141410,55.9050547,37.4054941
6,проспект Мельникова,141410,55.9028625,37.4070497
8,проспект Мельникова,141410,55.9038894,37.4057220
4,проспект Мельникова,141410,55.9019843,37.4061351
4А,проспект Мельникова,141410,55.9021782,37.4069325
2,улица Родионова,141410,55.9038811,37.4039867
13/18,улица Родионова,141410,55.9055584,37.4092599
18А,улица 9 Мая,141410,55.9047420,37.4107331
18Б,улица 9 Мая,141410,55.9037203,37.4116585
14,улица 9 Мая,141410,55.9020294,37.4103757
3,улица Дружбы,141501,55.9000791,37.4112812
2/1,проспект Мельникова,141501,55.9002385,37.4092727
5,улица Дружбы,141410,55.9011373,37.4122984
7,улица Дружбы,141501,55.9002088,37.4137887
8,улица 9 Мая,141410,55.9008484,37.4150152
9,улица 9 Мая,141410,55.9014114,37.4148368
9,улица Дружбы,141410,55.9011534,37.4131822
12,улица 9 Мая,141410,55.9025537,37.4126722
15,улица 9 Мая,141410,55.9031536,37.4107458
10,улица 9 Мая,141410,55.9016953,37.4139859
7,улица Марии Рубцовой,141410,55.9070190,37.4008417
3,улица Марии Рубцовой,141410,55.9076098,37.4028488
10,улица Дружбы,141501,55.8983186,37.4132498
12,улица Дружбы,141410,55.8983224,37.4142384
14,улица Дружбы,141410,55.8983077,37.4152028
70,Юбилейный проспект,141501,55.8946239,37.4114680
72,Юбилейный проспект,141501,55.8948154,37.4123187
5,Парковая улица,141501,55.8946941,37.4133987
6,Парковая улица,141501,55.8948971,37.4143923
76,Юбилейный проспект,141501,55.8956478,37.4118697
80,Юбилейный проспект,141501,55.8964242,37.4126639
82,Юбилейный проспект,141410,55.8969223,37.4118115
9,Парковая улица,141501,55.8959992,37.4143568
8,Парковая улица,141501,55.8955980,37.4152117
12,Парковая улица,141410,55.8980432,37.4166568
11,Парковая улица,141410,55.8972256,37.4160991
74,Юбилейный проспект,141501,55.8954959,37.4108806
84,Юбилейный проспект,141410,55.8975762,37.4113763
11,улица 9 Мая,141410,55.9022705,37.4137708
5,улица 9 Мая,141410,55.8984113,37.4179741
66,Юбилейный проспект,141407,55.8928306,37.4116283
66А,Юбилейный проспект,141407,55.8924760,37.4126919
68,Юбилейный проспект,141407,55.8934281,37.4114698
68А,Юбилейный проспект,141407,55.8939918,37.4113414
86,Юбилейный проспект,141410,55.8977432,37.4100471
4,улица Дружбы,141501,55.8982952,37.4119042
78,Юбилейный проспект,141501,55.8968267,37.4104576
8,улица Дружбы,141501,55.8992281,37.4133614
6,улица Дружбы,141501,55.8988056,37.4121930
8А,улица Дружбы,141501,55.8997771,37.4149265
7,улица 9 Мая,141410,55.8997428,37.4167245
6,улица 9 Мая,141410,55.8988050,37.4175634
16,улица Дружбы,141410,55.8989375,37.4162853
12А,улица Лавочкина,141407,55.8903727,37.4237289
3А,улица 9 Мая,141407,55.8902058,37.4256060
7,улица Лавочкина,141407,55.8929296,37.4227151
1,Молодёжная улица,141407,55.8783911,37.4215253
3,Молодёжная улица,141407,55.8786779,37.4195375
13,улица Бабакина,141407,55.8793067,37.4181097
1/6,улица Бабакина,141407,55.8819824,37.4284082
74,Молодёжная улица,141501,55.9082553,37.3931503
5,Молодёжная улица,141407,55.8794863,37.4200265
2,Школьная улица,141431,55.9418373,37.3437993
9,Новозаводская улица,141431,55.9415251,37.3489187
5А,Новозаводская улица,141431,55.9398494,37.3471863
4,Новозаводская улица,141431,55.9410900,37.3454758
1,Новозаводская улица,141431,55.9406987,37.3442347
3,Новозаводская улица,141431,55.9407054,37.3451958
5,Новозаводская улица,141431,55.9405691,37.3464685
2,Новозаводская улица,141431,55.9403164,37.3455085
2А,улица Карла Маркса,141401,55.9180824,37.4699247
20А,улица Энгельса,141402,55.8935869,37.4349213
25А,улица Маяковского,141402,55.8905243,37.4376508
38,Московская улица,141402,55.8867521,37.4418258
14,проспект Мельникова,141410,55.9035578,37.4074092
16,проспект Мельникова,141410,55.9041747,37.4066674
18,проспект Мельникова,141410,55.9047364,37.4063928
12,проспект Мельникова,141410,55.9029695,37.4081581
12А,улица 9 Мая,141410,55.9037267,37.4124663
60А,Юбилейный проспект,141407,55.8902385,37.4134963
25,улица Лавочкина,141407,55.8903626,37.4145253
7,улица Ватутина,141402,55.8882645,37.4543870
1А,улица Чапаева,141402,55.8901235,37.4468184
5,улица Бабакина,141407,55.8807091,37.4260776
7,Советская улица,141446,55.9481694,37.3326180
5,улица Чапаева,141420,55.9479023,37.2979627
10,Вишнёвая улица,141420,55.9488876,37.2936738
12,Вишнёвая улица,141420,55.9493924,37.2929547
5,улица Кирова,141421,55.9511644,37.2954222
7,улица Жаринова,141446,55.9511592,37.3328304
25 к2,улица Микояна,141421,55.9557632,37.2859755
24,Соколовская улица 5-й квартал,141435,55.8868389,37.3602142
25,Соколовская улица 5-й квартал,141435,55.8869196,37.3606765
4,Соколовская улица 7-й квартал,141435,55.8877724,37.3582138
6,Соколовская улица 7-й квартал,141435,55.8877723,37.3577232
2,Соколовская улица 7-й квартал,141435,55.8878098,37.3588466
9,Соколовская улица 7-й квартал,141435,55.8873461,37.3570933
8А,улица Ворошилова,141401,55.9158295,37.4771950
41/1,улица Карла Маркса,141401,55.9214511,37.4777505
13/1,Ленинский проспект,141401,55.8992198,37.4562914
22/1,Московская улица,141402,55.8920167,37.4467376
28А,Куркинское шоссе,141407,55.8848392,37.4147044
8,Куркинское шоссе,141407,55.8831842,37.4230658
5,Куркинское шоссе,141407,55.8826101,37.4208498
3,Куркинское шоссе,141407,55.8824495,37.4225737
2Б,Куркинское шоссе,141407,55.8829916,37.4252916
12А,Молодёжная улица,141407,55.8832994,37.4160174
13,Куркинское шоссе,141407,55.8838684,37.4092050
6А,улица Строителей,141407,55.8875429,37.4109105
6Б,улица Строителей,141407,55.8878345,37.4102920
4Б,улица Строителей,141407,55.8870891,37.4142743
4В,улица Строителей,141407,55.8867073,37.4123388
6,улица Строителей,141407,55.8873377,37.4117217
28,Молодёжная улица,141407,55.8872315,37.4080210
6,улица Машенцева,141407,55.8900197,37.4082539
41/1,Юбилейный проспект,141407,55.8910607,37.4105686
5,Юбилейный проспект,141407,55.8861844,37.4208602
5А,Юбилейный проспект,141407,55.8861647,37.4213759
3,Юбилейный проспект,141407,55.8860741,37.4219743
1 к3,Юбилейный проспект,141407,55.8861906,37.4244435
1А,Юбилейный проспект,141407,55.8866889,37.4248549
1 к2,Юбилейный проспект,141407,55.8855362,37.4247495
4,улица Панфилова,141407,55.8841733,37.4262892
2,улица Панфилова,141407,55.8854230,37.4259709
1 к1,Юбилейный проспект,141407,55.8861412,37.4256114
2,улица Бабакина,141407,55.8840264,37.4261128
3 к1,улица Горшина,141407,55.8866855,37.4321738
1,улица Кирова,141421,55.9504195,37.2983593
3/1,улица Кирова,141421,55.9505717,37.2973026
9А,улица Кирова,141421,55.9518171,37.2915567
11,проспект Мельникова,141501,55.9018112,37.4009003
8 с1,Пролетарская улица,141402,55.8923066,37.4405767
13Б,Ленинградская улица,141402,55.8886368,37.4415243
5,улица Зои Космодемьянской,141402,55.8850964,37.4479279
7,Спартаковская улица,141402,55.8844986,37.4472487
6,улица Зои Космодемьянской,141402,55.8845595,37.4504700
9 с1,Спартаковская улица,141402,55.8846990,37.4462693
9 к2,улица Горшина,141407,55.8843013,37.4352332
с52А,Молодёжная улица,141501,55.9007100,37.4016323
с54А,Молодёжная улица,141501,55.9024135,37.4005210
7А,улица Чапаева,141402,55.8888357,37.4503144
9А,улица Чапаева,141402,55.8884281,37.4507832
6,улица Чапаева,141402,55.8891679,37.4493579
15,Соколовская улица 4-й квартал,141435,55.8885554,37.3573320
4,Соколовская улица 4-й квартал,141435,55.8889078,37.3578888
1,Соколовская улица 5-й квартал,141435,55.8890799,37.3598109
1,Соколовская улица 4-й квартал,141435,55.8891433,37.3588423
8,Соколовская улица 4-й квартал,141435,55.8889108,37.3570822
17,Соколовская улица 4-й квартал,141435,55.8885261,37.3564810
18,Соколовская улица 4-й квартал,141435,55.8881689,37.3561386
9,Соколовская улица 4-й квартал,141435,55.8891468,37.3556701
19,Соколовская улица 4-й квартал,141435,55.8885660,37.3557951
3,Соколовская улица 4-й квартал,141435,55.8892932,37.3580764
16,Соколовская улица 4-й квартал,141435,55.8881844,37.3568990
14,Соколовская улица 4-й квартал,141435,55.8880958,37.3573358
13,Соколовская улица 4-й квартал,141435,55.8885132,37.3581767
2,Соколовская улица 4-й квартал,141435,55.8888547,37.3586017
12,Соколовская улица 4-й квартал,141435,55.8881291,37.3581822
2,Соколовская улица 5-й квартал,141435,55.8886689,37.3594956
4,Соколовская улица 5-й квартал,141435,55.8886835,37.3598690
6,Соколовская улица 5-й квартал,141435,55.8888016,37.3603573
10,Соколовская улица 7-й квартал,141435,55.8876078,37.3571264
12,Соколовская улица 7-й квартал,141435,55.8878195,37.3568978
14,Соколовская улица 7-й квартал,141435,55.8878686,37.3563881
16,Соколовская улица 7-й квартал,141435,55.8877826,37.3559823
с1Е,Международное шоссе,141425,55.9648059,37.4126456
31,проспект Мельникова,141501,55.9068150,37.3948079
29,проспект Мельникова,141501,55.9064142,37.3955632
27,проспект Мельникова,141501,55.9068167,37.3964378
25,проспект Мельникова,141501,55.9064113,37.3972442
7,улица Горшина,141407,55.8849382,37.4329587
13 к2,улица Лавочкина,141407,55.8913407,37.4208756
13 к1,улица Лавочкина,141407,55.8914902,37.4214870
10,Новозаводская улица,141431,55.9422014,37.3483695
11,Новозаводская улица,141431,55.9415312,37.3474369
12,Новозаводская улица,141431,55.9407651,37.3484614
3,Соколовская улица 7-й квартал,141435,55.8873743,37.3583979
28,Соколовская улица 6-й квартал,141435,55.8865429,37.3567940
29,Соколовская улица 7-й квартал,141435,55.8865651,37.3562334
18,Соколовская улица 7-й квартал,141435,55.8875073,37.3553504
33,Соколовская улица 7-й квартал,141435,55.8871856,37.3550100
31,Соколовская улица 7-й квартал,141435,55.8866626,37.3552921
19,Соколовская улица 7-й квартал,141435,55.8873709,37.3559899
5,Соколовская улица,141435,55.8871257,37.3579569
15,Соколовская улица 7-й квартал,141435,55.8869919,37.3560321
5,Соколовская улица 4-й квартал,141435,55.8894136,37.3571645
30,Соколовская улица 7-й квартал,141435,55.8866048,37.3557967
17,Соколовская улица 7-й квартал,141435,55.8870834,37.3554974
11,Соколовская улица 7-й квартал,141435,55.8872309,37.3566426
26,Соколовская улица 6-й квартал,141435,55.8866153,37.3577012
7,Соколовская улица 6-й квартал,141435,55.8869950,37.3573788
27,Соколовская улица 6-й квартал,141435,55.8865942,37.3572433
1,Соколовская улица 7-й квартал,141435,55.8875085,37.3589358
20,Соколовская улица 4-й квартал,141435,55.8878787,37.3552863
32,Соколовская улица 7-й квартал,141435,55.8867769,37.3549130
8,Соколовская улица 7-й квартал,141435,55.8874512,37.3577918
7,Соколовская улица 4-й квартал,141435,55.8895610,37.3562847
11,Соколовская улица 5-й квартал,141435,55.8875161,37.3609560
17,Соколовская улица 5-й квартал,141435,55.8882073,37.3605942
14,Соколовская улица 5-й квартал,141435,55.8871740,37.3608849
21,Соколовская улица 7-й квартал,141435,55.8867705,37.3591388
23,Соколовская улица 5-й квартал,141435,55.8867962,37.3597320
20,Соколовская улица 5-й квартал,141435,55.8875753,37.3596052
16,Соколовская улица 5-й квартал,141435,55.8879418,37.3599357
9,Соколовская улица 5-й квартал,141435,55.8878142,37.3611437
22,Соколовская улица 5-й квартал,141435,55.8872209,37.3600795
12,Соколовская улица 5-й квартал,141435,55.8876147,37.3617459
13,Соколовская улица 5-й квартал,141435,55.8875821,37.3603000
21,Соколовская улица 5-й квартал,141435,55.8871484,37.3596381
22,Соколовская улица 7-й квартал,141435,55.8871442,37.3588819
24,Соколовская улица 7-й квартал,141435,55.8869130,37.3585535
15,Соколовская улица 5-й квартал,141435,55.8878783,37.3604722
8,Соколовская улица 5-й квартал,141435,55.8888227,37.3611766
18,Соколовская улица 5-й квартал,141435,55.8882817,37.3593862
10,Соколовская улица 5-й квартал,141435,55.8882550,37.3616543
3,Соколовская улица 5-й квартал,141435,55.8883669,37.3599758
5,Соколовская улица 5-й квартал,141435,55.8884792,37.3607965
93,Соколовская улица,141435,55.8845946,37.3618383
10,Соколовская улица,141435,55.8861186,37.3591364
90,Соколовская улица,141435,55.8853168,37.3615671
4,Соколовская улица,141435,55.8842698,37.3594280
2К,Соколовская улица,141435,55.8859600,37.3583086
2Б,Ленинский проспект,141401,55.8945248,37.4586566
6Г,проспект Мира,141401,55.8968368,37.4523101
вл3,Соколовская улица,141435,55.8893268,37.3622396
14 к2,Ленинский проспект,141401,55.9013173,37.4648455
25/1,Ленинский проспект,141401,55.9019782,37.4629924
14 к4,Ленинский проспект,141401,55.9005068,37.4628680
14А,Ленинский проспект,141401,55.9016244,37.4640115
10,Центральная улица,141446,55.9514774,37.3296371
6А,Юбилейный проспект,141407,55.8882028,37.4264009
с6А,Юбилейный проспект,141407,55.8888925,37.4281809
15А,улица Кирова,141402,55.8894037,37.4540594
7,1-й Первомайский тупик,141421,55.9535967,37.3003778
вл1В,Международное шоссе,141425,55.9600463,37.4129639
6 к2,Центральная улица,141446,55.9489519,37.3307949
1,улица Пушкина,141401,55.9156777,37.4737640
34,Спортивная улица,141401,55.9187539,37.4804608
31,улица Пушкина,141401,55.9190203,37.4832640
23/2,проспект Мельникова,141501,55.9056639,37.3983315
4,Береговая улица,141402,55.9508562,37.4771030
1,Береговая улица,141402,55.9513952,37.4741822
3,Береговая улица,141402,55.9511275,37.4756259
8,Береговая улица,141402,55.9497237,37.4748460
7,улица Кирова,141441,55.9580067,37.2496932
1Б,улица Кирова,141441,55.9593314,37.2498760
21,улица Кирова,141441,55.9558557,37.2481997
8,улица Кирова,141441,55.9553279,37.2473166
29,улица Кирова,141441,55.9546378,37.2481575
15А,улица Кирова,141441,55.9567150,37.2489197
4,улица Кирова,141441,55.9563372,37.2474657
35,улица Кирова,141441,55.9543181,37.2479684
13,улица Кирова,141441,55.9570066,37.2484298
27,улица Кирова,141441,55.9549109,37.2481442
19А,улица Кирова,141441,55.9562329,37.2482613
17,улица Кирова,141441,55.9564940,37.2484799
19,улица Кирова,141441,55.9561104,37.2482520
10,улица Кирова,141441,55.9549646,37.2471966
8А,улица Кирова,141441,55.9555095,37.2473221
2,улица Кирова,141441,55.9567634,37.2476087
12,улица Кирова,141441,55.9543804,37.2470807
16,улица Кирова,141441,55.9534772,37.2470170
18,улица Кирова,141441,55.9529018,37.2469583
25,улица Кирова,141441,55.9552299,37.2482497
34,улица Кирова,141441,55.9508877,37.2464796
33,улица Кирова,141441,55.9544183,37.2480386
36,улица Кирова,141441,55.9504845,37.2463422
37,улица Кирова,141441,55.9541526,37.2482160
38,улица Кирова,141441,55.9499490,37.2462308
41,улица Кирова,141441,55.9533665,37.2477744
45,улица Кирова,141441,55.9528637,37.2477116
47А,улица Кирова,141441,55.9523738,37.2474835
55,улица Кирова,141441,55.9510591,37.2473317
55А,улица Кирова,141441,55.9512674,37.2473314
57,улица Кирова,141441,55.9508031,37.2474665
61,улица Кирова,141441,55.9499228,37.2470902
9А,улица Кирова,141441,55.9575625,37.2484786
9Б,улица Кирова,141441,55.9574635,37.2489878
9,улица Кирова,141441,55.9576286,37.2488570
51,улица Кирова,141441,55.9518641,37.2483701
61,Юбилейный проспект,141407,55.8936160,37.4091255
3 к2,улица Горшина,141407,55.8863107,37.4326717
1А,улица Дружбы,141501,55.8993765,37.4088838
1Б,улица Дружбы,141501,55.8993923,37.4102611
19,проспект Мельникова,141501,55.9037231,37.4003152
17,проспект Мельникова,141501,55.9034165,37.4011013
13,проспект Мельникова,141501,55.9025959,37.4022005
29,Совхозная улица,141406,55.9056477,37.4840642
6,Совхозная улица,141407,55.8984440,37.4795579
14,Совхозная улица,141406,55.9008995,37.4753585
27,Совхозная улица,141406,55.9058417,37.4820021
1 к1,Ленинский проспект,141401,55.8953930,37.4522860
1 к2,Ленинский проспект,141401,55.8957865,37.4526890
1 к3,Ленинский проспект,141401,55.8961821,37.4531002
41А,Юбилейный проспект,141407,55.8904628,37.4108572
51,Юбилейный проспект,141407,55.8899288,37.4112892
вл20 с1,улица 9 Мая,141410,55.9034671,37.4158381
с2Г,проспект Мельникова,141501,55.9019355,37.4052334
4 с1,Юбилейный проспект,141407,55.8885480,37.4293575
10,улица Родионова,141410,55.9065123,37.4080515
вл16A,улица 9 Мая,141410,55.8958738,37.4248709
76,Молодёжная улица,141501,55.9083290,37.3911011
74 с1,Молодёжная улица,141501,55.9077116,37.3925358
4А,улица Панфилова,141407,55.8827435,37.4278146
21,Ленинский проспект,141401,55.9008827,37.4598326
16/2,улица Академика Грушина,141401,55.9083993,37.4542122
17А,улица Мичурина,141401,55.9061110,37.4586837
33,улица Академика Грушина,141401,55.9108967,37.4537976
12А,улица Мичурина,141401,55.9076551,37.4584836
23А,проспект Мира,141401,55.9031959,37.4559337
14,улица Академика Грушина,141401,55.9079001,37.4540773
2/10,улица Академика Грушина,141401,55.9062899,37.4535403
17А,проспект Мира,141401,55.9017578,37.4540527
2,улица Некрасова,141420,55.9449472,37.2813764
7,улица Чапаева,141420,55.9469242,37.2986154
14,Вишнёвая улица,141420,55.9495565,37.2916425
2,1-й Первомайский тупик,141421,55.9536973,37.3022561
2А,1-й Первомайский тупик,141421,55.9540992,37.3025384
1,Ленинградская улица,141421,55.9579081,37.3170738
4 к2,улица 7-й Гвардейской Дивизии,141421,55.9524555,37.3057974
36,улица Фрунзе,141421,55.9588524,37.3025363
33,Горная улица,141421,55.9564683,37.3182286
4А к1,улица Строителей,141407,55.8862369,37.4138880
6,улица Машенцева,141407,55.8899528,37.4083139
77,Юбилейный проспект,141501,55.8969149,37.4062192
34,улица Свердлова,141401,55.9233541,37.4817908
22,улица Свердлова,141401,55.9222702,37.4785244
33,улица Ленина,141401,55.9103949,37.4732732
34А,улица Свердлова,141401,55.9234914,37.4821198
47,улица Карла Маркса,141401,55.9219693,37.4798617
22,Спортивная улица,141401,55.9177248,37.4773428
25,улица Пушкина,141401,55.9176201,37.4792339
27А,улица Пушкина,141401,55.9179779,37.4802044
27/1,улица Пушкина,141401,55.9178665,37.4799540
47/6,улица Карла Маркса,141401,55.9228143,37.4825310
23,улица Пушкина,141401,55.9174471,37.4786808
47/5,улица Карла Маркса,141401,55.9226884,37.4820629
41/2,улица Карла Маркса,141401,55.9215796,37.4781428
1З,улица Ленина,141401,55.9111762,37.4753771
26,Спортивная улица,141401,55.9178123,37.4784351
28,Спортивная улица,141401,55.9180839,37.4782893
1Л,улица Ленина,141401,55.9109131,37.4745817
47/2,улица Карла Маркса,141401,55.9223360,37.4806782
32,улица Свердлова,141401,55.9233004,37.4813353
33А,улица Ленина,141401,55.9104970,37.4734633
26,улица Свердлова,141401,55.9225838,37.4796891
1,улица Ленина,141401,55.9118399,37.4765020
36,улица Лизы Чайкиной,141401,55.9200816,37.4800175
47/1,улица Карла Маркса,141401,55.9221811,37.4802361
47/8,улица Карла Маркса,141401,55.9231669,37.4825454
30,Спортивная улица,141401,55.9183376,37.4789002
26А,улица Свердлова,141401,55.9225110,37.4792842
19,улица Пушкина,141401,55.9172302,37.4781165
47/7,улица Карла Маркса,141401,55.9229257,37.4828546
27,улица Пушкина,141401,55.9178502,37.4791740
45,улица Карла Маркса,141401,55.9218568,37.4793217
32,Спортивная улица,141401,55.9185761,37.4796274
1И,улица Ленина,141401,55.9112252,37.4744848
43,улица Карла Маркса,141401,55.9216111,37.4790667
24,Спортивная улица,141401,55.9178596,37.4777148
47/4,улица Карла Маркса,141401,55.9225467,37.4816929
47/3,улица Карла Маркса,141401,55.9223878,37.4812033
21,улица Пушкина,141401,55.9173251,37.4783531
2А,улица Ленина,141401,55.9116663,37.4758046
24,улица Свердлова,141401,55.9227332,37.4798995
1Е,улица Ленина,141401,55.9116509,37.4730239
1Ж,улица Ленина,141401,55.9118920,37.4748065
1К,улица Ленина,141401,55.9109612,37.4733528
с1,Машкинское шоссе,125466,55.9153780,37.3957101
7А,Юбилейный проспект,141407,55.8866020,37.4187683
9,проспект Мельникова,141501,55.9018433,37.4024208
4,улица Горшина,141407,55.8864747,37.4308374
24,Московская улица,141402,55.8914642,37.4463730
вл2,Ивановская улица,141435,55.9141867,37.3590971
13,улица Кирова,141421,55.9526803,37.2892111
12,улица Кирова,141421,55.9526036,37.2895432
10А,улица Кирова,141421,55.9525226,37.2905688
10,улица Кирова,141421,55.9522075,37.2906744
11,улица Кирова,141421,55.9524794,37.2900322
3 с3,улица Кирова,141421,55.9499807,37.2986902
6 к1,улица Горшина,141407,55.8855648,37.4336540
6 к2,улица Горшина,141407,55.8851404,37.4341068
9 к1,улица Горшина,141407,55.8847162,37.4347526
9А,Молодёжная улица,141407,55.8822377,37.4157838
20/2,улица Свердлова,141401,55.9211882,37.4754324
27,улица Энгельса,141402,55.8929421,37.4355698
5,улица Калинина,141402,55.8866230,37.4481699
8А,Молодёжная улица,141407,55.8819376,37.4180155
21,Московская улица,141402,55.8864762,37.4436108
7,улица Калинина,141402,55.8866825,37.4469062
20,Пролетарская улица,141402,55.8951181,37.4377116
27А,Пролетарская улица,141402,55.8949647,37.4366389
25А,Пролетарская улица,141402,55.8945842,37.4370208
22,Пролетарская улица,141402,55.8954596,37.4373846
12Б,улица 9 Мая,141410,55.9033766,37.4131189
12Д,улица 9 Мая,141410,55.9031355,37.4137053
15А,Молодёжная улица,125466,55.8854427,37.4085915
60 с2,Молодёжная улица,141501,55.9058277,37.3928042
3 к1,Ленинградская улица,141421,55.9581792,37.3164846
62,Заречная улица,141435,55.9049249,37.3651220
38,Заречная улица,141435,55.9044770,37.3632889
1/1,Заречная улица,141435,55.9044441,37.3624804
11/2,Заречная улица,141435,55.9044903,37.3651568
27,Олимпийская улица,141435,55.9027327,37.3577242
11 к105,Заречная улица,141435,55.9045617,37.3605307
1,улица Маяковского,141400,55.8950099,37.4476713
3,Зелёная улица,141411,55.8907119,37.4796238
21А,Московская улица,141402,55.8867287,37.4431699
5,улица Гоголя,141401,55.8951831,37.4509975
5,улица Чайковского,141406,55.8907154,37.4694323
1,улица Чайковского,141406,55.8896492,37.4687719
17,улица Мичурина,141420,55.9454923,37.3008200
4 к1,улица 7-й Гвардейской Дивизии,141421,55.9527049,37.3063801
29Г,Ленинградское шоссе,141408,55.9044309,37.4174169
46,улица Микояна,141421,55.9579693,37.2901351
7А,Ленинградская улица,141402,55.8869605,37.4400773
2 к1,улица Родионова,141410,55.9035600,37.4035466
6 к1,Центральная улица,141446,55.9494131,37.3319309
1 к4,Ленинский проспект,141401,55.8956667,37.4519160
1/2,Ленинский проспект,141401,55.8956920,37.4526110
53,улица Кирова,141441,55.9514913,37.2483549
4А,Центральная улица,141446,55.9478402,37.3338373
4Г,Центральная улица,141446,55.9475360,37.3329482
9,улица 8 Марта,141401,55.9047587,37.4525778
2А,улица 8 Марта,141401,55.9046376,37.4588890
33 к2,Ленинский проспект,141401,55.9043300,37.4639143
33 к1,Ленинский проспект,141401,55.9040619,37.4647599
33 к3,Ленинский проспект,141401,55.9046065,37.4630803
35 к1,Ленинский проспект,141401,55.9044888,37.4651772
35 к2,Ленинский проспект,141401,55.9047545,37.4644218
35 к3,Ленинский проспект,141401,55.9050180,37.4636586
5 к1,улица Опанасенко,141401,55.9049057,37.4655843
5 к2,улица Опанасенко,141401,55.9051465,37.4649034
5 к3,улица Опанасенко,141401,55.9054191,37.4642243
27А,Ленинский проспект,141401,55.9023760,37.4637612
27А к1,Ленинский проспект,141401,55.9023278,37.4632196
14,Ленинский проспект,141401,55.9012246,37.4635434
вл1А,улица Юннатов,141401,55.8952991,37.4589073
16к3,улица Репина,141408,55.9059946,37.4201488
54А,Молодёжная улица,141501,55.9036898,37.3980996
22,Вашутинское шоссе,141402,55.9182163,37.4008035
4Д,Центральная улица,141446,55.9467475,37.3334952
с2,Куркинское шоссе,141407,55.8834051,37.4342578
25 к1,Совхозная улица,141406,55.9032243,37.4786402
25 к2,Совхозная улица,141406,55.9036608,37.4777246
12Д с2,улица 9 Мая,141410,55.9028766,37.4141378
18,Совхозная улица,141406,55.9011799,37.4819150
14А,Московская улица,141402,55.8941415,37.4497341
6 к1,Зелёная улица,141411,55.8891292,37.4812400
с24,улица Мичурина,141401,55.9125502,37.4569357
8А,Ленинский проспект,141401,55.8992620,37.4610500
25 к2,Набережный проезд,141402,55.9571806,37.4457155
18,Набережный проезд,141402,55.9568591,37.4432369
20,Набережный проезд,141402,55.9566742,37.4441392
16,Набережный проезд,141402,55.9562695,37.4436385
14,Набережный проезд,141402,55.9563911,37.4428203
10,Набережный проезд,141402,55.9573910,37.4417415
12,Набережный проезд,141402,55.9571741,37.4424936
1,улица Лётчика Ивана Фёдорова,141402,55.9584186,37.4411968
7,Набережный проезд,141402,55.9580620,37.4397571
6,Набережный проезд,141402,55.9591200,37.4412065
3 к2,улица Лётчика Ивана Фёдорова,141402,55.9590907,37.4424454
7,улица Лётчика Ивана Фёдорова,141402,55.9577446,37.4450878
27 с1,Набережный проезд,141402,55.9574496,37.4465395
22,Набережный проезд,141402,55.9584672,37.4445735
24 к1,Набережный проезд,141402,55.9593228,37.4444355
2 к1,Набережный проезд,141402,55.9598407,37.4433641
1 к2,Набережный проезд,141402,55.9595957,37.4422110
1 к1,Набережный проезд,141402,55.9598552,37.4419503
5,Набережный проезд,141402,55.9595738,37.4404945
3,Набережный проезд,141402,55.9603509,37.4415583
1,Набережный проезд,141402,55.9602400,37.4431614
2,Транспортный проезд,141001,55.9142542,37.4178325
5Б,проспект Мира,141401,55.8999118,37.4511934
4 с1,проспект Мельникова,141410,55.9024643,37.4077020
11 с1,улица Родионова,141410,55.9056573,37.4081396
11,улица Калинина,141402,55.8877238,37.4457199
7 с1,улица Калинина,141402,55.8869815,37.4475259
9,улица Калинина,141402,55.8874009,37.4466977
73,Юбилейный проспект,141501,55.8979241,37.4070562
82А,Юбилейный проспект,141501,55.8972656,37.4129308
4,Санаторная улица,141441,55.9611815,37.2646174
7,Речная улица,141441,55.9610284,37.2654105
5,Санаторная улица,141441,55.9615412,37.2642310
3,Речная улица,141441,55.9607747,37.2653033
10,Комсомольская улица,141441,55.9616915,37.2636016
4,Пионерская улица,141441,55.9621182,37.2641961
6,Санаторная улица,141441,55.9614466,37.2647821
6,Комсомольская улица,141441,55.9612316,37.2632839
7,Санаторная улица,141441,55.9617346,37.2643719
9,Речная улица,141441,55.9614610,37.2657467
3,Санаторная улица,141441,55.9613399,37.2641240
2,Санаторная улица,141441,55.9609830,37.2644727
12,Комсомольская улица,141441,55.9618479,37.2637181
8,Комсомольская улица,141441,55.9614446,37.2634422
9,Санаторная улица,141441,55.9619617,37.2644278
8,Санаторная улица,141441,55.9618495,37.2649065
3,улица Родионова,141410,55.9050166,37.4038842
4А к1,улица 9 Мая,141410,55.8967856,37.4208078
7,улица 8 Марта,141401,55.9050625,37.4533654
49,улица Микояна,141420,55.9572088,37.2865112
59,Родниковая улица,59,55.9398033,37.2752857
1А,Береговая улица,141402,55.9509132,37.4733700
вл24,Ленинградское шоссе,141410,55.9070529,37.4097510
20,улица Горького,141401,55.9227173,37.4722423
35/1,улица Шевченко,141401,55.9234141,37.4763355
42Б,улица Шевченко,141401,55.9235420,37.4772309
2,1-я Лесная улица,141446,55.9463782,37.3323202
4,1-я Лесная улица,141446,55.9474144,37.3313256
15,улица Бабакина,141407,55.8786371,37.4179659
11,Овражная улица,141420,55.9458238,37.3127348
3,улица Чайковского,141406,55.8901705,37.4691032
3 с1,улица Родионова,141410,55.9057057,37.4028275
3 с1,улица Родионова,141410,55.9055433,37.4022020
4 к1,Центральная улица,141446,55.9489001,37.3330470
4 к2,улица Ватутина,141402,55.8868935,37.4573451
10Б,улица 9 Мая,141410,55.9022962,37.4148398
10В,улица 9 Мая,141410,55.9026287,37.4143852
8,Озёрная улица,141401,55.9233743,37.4427958
4,Озёрная улица,141401,55.9235267,37.4446676
10,Озёрная улица,141401,55.9233294,37.4410951
2,улица Академика Глушко,141401,55.9029719,37.4517659
8/5,улица Бурденко,141401,55.9041144,37.4544911
3,улица 8 Марта,141401,55.9037309,37.4555158
33 к1,Железнодорожная улица,141421,55.9472566,37.3158072
33 к3,Железнодорожная улица,141421,55.9469474,37.3176731
2 к4,Ивановская улица,141435,55.9067831,37.3300630
2 к3,Ивановская улица,141435,55.9073983,37.3298300
2,2-й Южный проезд,141402,55.9406187,37.4755126
4,2-й Южный проезд,141402,55.9407628,37.4760285
1,3-й Южный проезд,141402,55.9409944,37.4749874
3,3-й Южный проезд,141402,55.9412137,37.4757714
3,Восточная улица,141402,55.9411256,37.4767087
5,2-й Южный проезд,141402,55.9405275,37.4767583
3,2-й Южный проезд,141402,55.9404633,37.4763104
1,2-й Южный проезд,141402,55.9403636,37.4759172
4,1-й Южный проезд,141402,55.9401012,37.4769319
2,1-й Южный проезд,141402,55.9400337,37.4765224
4,Весенний бульвар,141402,55.9405060,37.4745602
2,Весенний бульвар,141402,55.9399446,37.4756316
4,Восточная улица,141402,55.9392850,37.4764045
53 к1,Ивановская улица,141435,55.9049426,37.3591493
53 к2,Ивановская улица,141435,55.9051264,37.3599502
53 к3,Ивановская улица,141435,55.9055584,37.3606535
51 к3,Ивановская улица,141435,55.9062644,37.3578970
51 к2,Ивановская улица,141435,55.9069112,37.3593937
12,улица Панфилова,141407,55.8795794,37.4298308
6,Озёрная улица,141401,55.9229320,37.4436592
2,Озёрная улица,141401,55.9227707,37.4449744
16,Ленинский проспект,141401,55.9038300,37.4664913
18,Ленинский проспект,141401,55.9042761,37.4668619
20,Ленинский проспект,141401,55.9047248,37.4672410
16 с1,Ленинский проспект,141401,55.9033163,37.4671878
1А,улица Маяковского,141402,55.8947503,37.4482189
21 к2,улица 9 Мая,141410,55.9092409,37.4054531
21 к3,улица 9 Мая,141410,55.9098984,37.4052095
7Б,улица Родионова,141410,55.9075192,37.4058566
7А,улица Родионова,141410,55.9072596,37.4063960
59,Молодёжная улица,141501,55.9035786,37.3933465
61,Молодёжная улица,141501,55.9036156,37.3924029
63 к1,Молодёжная улица,141501,55.9028791,37.3915154
63 к2,Молодёжная улица,141501,55.9032780,37.3911103
63 к3,Молодёжная улица,141501,55.9036871,37.3907614
с27,Набережный проезд,141402,55.9581723,37.4456960
2,Спортивная улица,141401,55.9162692,37.4731849
4,Спортивная улица,141401,55.9163609,37.4734258
6,Спортивная улица,141401,55.9163113,37.4737846
8,Спортивная улица,141401,55.9165832,37.4738872
10,Спортивная улица,141401,55.9167151,37.4744234
3,Спортивная улица,141401,55.9167161,37.4725822
5А,Спортивная улица,141401,55.9168891,37.4728463
5,Спортивная улица,141401,55.9169289,37.4733801
7,Спортивная улица,141401,55.9171159,37.4738631
вл5,Транспортный проезд,141401,55.9150924,37.4116935
48,улица Микояна,141421,55.9576543,37.2904918
18Д,Речная улица,141441,55.9638558,37.2683729
18Б,Речная улица,141441,55.9639108,37.2696368
18А,Речная улица,141441,55.9639284,37.2690363
11,1-я Лесная улица,141446,55.9510902,37.3289463
4с1,Совхозная улица,141407,55.8973967,37.4807346
89,Первомайская улица,141421,55.9666837,37.3079071
2А с1,Ленинский проспект,141401,55.8948172,37.4530929
1,улица Германа Титова,141401,55.9161014,37.4093929
3 к2,улица Германа Титова,141401,55.9149000,37.4088237
15,Транспортный проезд,141401,55.9167558,37.4079990
5 к2,улица Германа Титова,141401,55.9158981,37.4072170
4Г,Вашутинское шоссе,141402,55.9210867,37.4023960
23 к1,улица Микояна,141421,55.9564852,37.2859973
5 к2,проспект Мельникова,141501,55.9012280,37.4040289
5 к1,проспект Мельникова,141501,55.9009308,37.4046299
2,улица Карла Маркса,141401,55.9180786,37.4708845
4А к2,улица 9 Мая,141410,55.8961467,37.4218565
4А к3,улица 9 Мая,141410,55.8954601,37.4217143
с24 к1,улица Мичурина,141401,55.9119745,37.4586134
20 с1,Ленинский проспект,141401,55.9049523,37.4676834
17 к1,Совхозная улица,141406,55.8994550,37.4730680
17 к2,Совхозная улица,141406,55.8990253,37.4729544
16,улица Кудрявцева,141401,55.8973579,37.4644914
11,улица Кудрявцева,141401,55.8954638,37.4638257
10В,улица Кудрявцева,141401,55.8966493,37.4629450
25 с4,Совхозная улица,141406,55.9043660,37.4787968
37,проспект Мельникова,141501,55.9084360,37.3948235
35,проспект Мельникова,141501,55.9081277,37.3952815
33,проспект Мельникова,141501,55.9078085,37.3957367
27 с1,проспект Мельникова,141501,55.9073884,37.3953802
вл39 с1,Шереметьевское шоссе,141426,55.9792821,37.4096906
55А,Ивановская улица,141435,55.9070480,37.3614357
55Б,Ивановская улица,141435,55.9065418,37.3610983
14,Комсомольская улица,141441,55.9622261,37.2638985
29А,улица Кирова,141441,55.9547740,37.2485200
18 к1,улица Панфилова,141407,55.8782221,37.4242397
10 к2,улица Кирова,141402,55.8914515,37.4510997
6,Тепличный проезд,141446,55.9548156,37.3293994
64 c1,Молодёжная улица,141501,55.9043634,37.3927237
37,улица Панфилова,141407,55.8777657,37.4262852
1 с1,улица Германа Титова,141402,55.9135197,37.4114572
1 с2,улица Германа Титова,141401,55.9137315,37.4109630
2Б,улица Лизы Чайкиной,141401,55.9169764,37.4710608
3А,Спортивная улица,141401,55.9165643,37.4715449
204Е,улица Пожарского,141406,55.8921783,37.4861449
5,Тепличный проезд,141446,55.9549902,37.3284661
8,Тепличный проезд,141446,55.9540064,37.3280292
7,Тепличный проезд,141446,55.9539994,37.3269013
4,Тепличный проезд,141446,55.9548069,37.3276405
12 к3,Ивановская улица,141435,55.9085010,37.3273668
12 к2,Ивановская улица,141435,55.9082662,37.3255942
33 к2,Железнодорожная улица,141421,55.9471993,37.3168513
11,улица Генерала Дьяконова,141432,55.9579406,37.4513851
13,улица Генерала Дьяконова,141432,55.9583724,37.4520454
6,улица Генерала Дьяконова,141432,55.9592692,37.4517650
15,улица Генерала Дьяконова,141432,55.9588319,37.4526882
11А,улица Ленина,141441,55.9575454,37.2493194
35А,улица Кирова,141441,55.9540445,37.2487915
8,улица Кирова,141402,55.8924355,37.4508304
12,улица Кирова,141402,55.8920614,37.4503568
вл36В,Вашутинское шоссе,141401,55.9185660,37.4229923
вл36,Вашутинское шоссе,141402,55.9197754,37.4198594
3Б,Комсомольская улица,141401,55.9213192,37.4581930
3,Комсомольская улица,141401,55.9205329,37.4583013
5А,Комсомольская улица,141401,55.9213925,37.4602606
5Б,Комсомольская улица,141401,55.9215243,37.4607768
5,Комсомольская улица,141401,55.9213100,37.4612145
6,Комсомольская улица,141401,55.9222569,37.4617446
6А,Комсомольская улица,141401,55.9221655,37.4625065
8,Комсомольская улица,141401,55.9219870,37.4664784
7,Комсомольская улица,141401,55.9217783,37.4666959
1А,улица Горького,141401,55.9216599,37.4677223
3,улица Горького,141401,55.9218149,37.4678661
4,улица Горького,141401,55.9212629,37.4679486
6В,улица Горького,141401,55.9214141,37.4683495
3,улица Шевченко,141401,55.9206095,37.4686734
5,улица Шевченко,141401,55.9208543,37.4688241
1Б,улица Шевченко,141401,55.9205862,37.4682557
4,улица Шевченко,141401,55.9203223,37.4693150
2,улица Шевченко,141401,55.9199976,37.4688092
5А,улица Свердлова,141401,55.9198050,37.4701029
3А,улица Карла Маркса,141401,55.9197932,37.4695818
3,улица Свердлова,141401,55.9195782,37.4695567
1,улица Свердлова,141401,55.9197398,37.4690225
1,улица Карла Маркса,141401,55.9188037,37.4700466
2,улица Свердлова,141401,55.9191438,37.4696619
4,улица Свердлова,141401,55.9194804,37.4708241
2Б,улица Свердлова,141401,55.9193084,37.4700368
3,улица Карла Маркса,141401,55.9185978,37.4702846
5,улица Карла Маркса,141401,55.9186874,37.4708570
9,улица Карла Маркса,141401,55.9189432,37.4717364
7,улица Карла Маркса,141401,55.9189335,37.4712420
15,улица Карла Маркса,141401,55.9192362,37.4724658
13,улица Карла Маркса,141401,55.9191843,37.4721825
11,улица Карла Маркса,141401,55.9191062,37.4720394
8,улица Карла Маркса,141401,55.9187677,37.4724630
6А,улица Карла Маркса,141401,55.9185803,37.4721061
6,улица Карла Маркса,141401,55.9184908,37.4717686
4,улица Карла Маркса,141401,55.9182677,37.4712330
4А,улица Карла Маркса,141401,55.9181416,37.4716034
7,улица Лизы Чайкиной,141401,55.9179161,37.4725023
5,улица Лизы Чайкиной,141401,55.9178091,37.4721668
3Г,улица Лизы Чайкиной,141401,55.9177490,37.4717983
3Б,улица Лизы Чайкиной,141401,55.9176504,37.4715795
3А,улица Лизы Чайкиной,141401,55.9175549,37.4713517
1,улица Лизы Чайкиной,141401,55.9178246,37.4713084
2,улица Лизы Чайкиной,141401,55.9172915,37.4720224
2А,улица Лизы Чайкиной,141401,55.9172253,37.4719249
4,улица Лизы Чайкиной,141401,55.9175610,37.4728712
6,улица Лизы Чайкиной,141401,55.9174126,37.4734584
10,улица Лизы Чайкиной,141401,55.9178268,37.4743592
8,улица Лизы Чайкиной,141401,55.9178002,37.4737469
11,Спортивная улица,141401,55.9175371,37.4742842
9,Спортивная улица,141401,55.9172009,37.4741319
13,Спортивная улица,141401,55.9175033,37.4748685
15,Спортивная улица,141401,55.9176274,37.4754406
19,Спортивная улица,141401,55.9178771,37.4763284
17,Спортивная улица,141401,55.9177734,37.4758647
18,Спортивная улица,141401,55.9173062,37.4762347
27/1,Спортивная улица,141401,55.9175858,37.4768114
20А,Спортивная улица,141401,55.9173878,37.4770184
17,улица Пушкина,141401,55.9170853,37.4773778
20,Спортивная улица,141401,55.9172208,37.4766724
16,Спортивная улица,141401,55.9172449,37.4757891
11,улица Пушкина,141401,55.9167459,37.4764221
15,улица Пушкина,141401,55.9168753,37.4770994
9А,улица Пушкина,141401,55.9163557,37.4752596
14,улица Пушкина,141401,55.9160841,37.4764550
9,улица Пушкина,141401,55.9163525,37.4757936
2А,Спортивная улица,141401,55.9159356,37.4731865
7,улица Пушкина,141401,55.9161930,37.4750564
5,улица Пушкина,141401,55.9159950,37.4745866
3А,улица Пушкина,141401,55.9158095,37.4744968
3,улица Пушкина,141401,55.9158571,37.4741799
12,улица Пушкина,141401,55.9159051,37.4759607
6,улица Пушкина,141401,55.9154323,37.4750444
8А,улица Пушкина,141401,55.9155115,37.4756332
10,улица Пушкина,141401,55.9157295,37.4757573
8,улица Пушкина,141401,55.9156492,37.4753156
7,улица Ворошилова,141401,55.9153646,37.4767080
5,улица Ворошилова,141401,55.9151966,37.4760430
2,улица Пушкина,141401,55.9152196,37.4741600
4А,улица Пушкина,141401,55.9151719,37.4746432
4,улица Пушкина,141401,55.9154251,37.4745444
вл4,улица Ворошилова,141401,55.9150176,37.4757365
3,улица Ворошилова,141401,55.9148486,37.4752290
2,улица Ворошилова,141401,55.9146973,37.4748520
4А,улица Ворошилова,141401,55.9146746,37.4762213
9,улица Ленина,141401,55.9132955,37.4756713
7,улица Ленина,141401,55.9137731,37.4752691
1Б,улица Ворошилова,141401,55.9139738,37.4749003
1,улица Ворошилова,141401,55.9141810,37.4749925
9А,улица Ленина,141401,55.9132285,37.4754832
8,улица Ленина,141401,55.9134620,37.4753078
12,улица Ленина,141401,55.9124040,37.4761558
2Б,улица Ленина,141401,55.9122912,37.4755256
3,улица Ленина,141401,55.9124722,37.4752314
3А,улица Ленина,141401,55.9125882,37.4749330
1Г,улица Ленина,141401,55.9114402,37.4729964
1Б,улица Ленина,141401,55.9111955,37.4731033
1к2-3,Вашутинское шоссе,141408,55.9233337,37.3967822
2 с5,улица Германа Титова,141401,55.9152406,37.4133000
вл69 с1,улица Некрасова,141420,55.9402183,37.2736232
вл69 с1,улица Некрасова,141420,55.9579444,37.3382054
43,Заречная улица,141435,55.9052386,37.3652777
52,Заречная улица,141435,55.9055811,37.3654212
42,Заречная улица,141435,55.9055670,37.3659530
51,Заречная улица,141435,55.9058385,37.3660515
50,Заречная улица,141435,55.9060617,37.3665580
41,Заречная улица,141435,55.9057832,37.3665251
53,Заречная улица,141435,55.9055430,37.3670531
46,Заречная улица,141435,55.9052167,37.3668831
45,Заречная улица,141435,55.9052815,37.3663170
47,Заречная улица,141435,55.9046551,37.3671990
55,Заречная улица,141435,55.9047590,37.3666822
49,Заречная улица,141435,55.9049804,37.3663059
44,Заречная улица,141435,55.9050722,37.3658131
65,Заречная улица,141435,55.9042231,37.3694191
66,Заречная улица,141435,55.9041649,37.3689466
67,Заречная улица,141435,55.9040646,37.3685810
68,Заречная улица,141435,55.9039832,37.3682815
82,Заречная улица,141435,55.9038105,37.3674394
69,Заречная улица,141435,55.9038566,37.3677844
48,Заречная улица,141435,55.9043242,37.3676296
64,Заречная улица,141435,55.9040271,37.3673610
58,Заречная улица,141435,55.9046496,37.3659921
59,Заречная улица,141435,55.9044796,37.3665323
60,Заречная улица,141435,55.9043509,37.3670094
61,Заречная улица,141435,55.9040691,37.3664451
с2,Машкинское шоссе,125466,55.9156620,37.3967113
1,Комсомольский тупик,141436,55.9442450,37.3350241
30,Московская улица,141402,55.8896474,37.4438570
11,Пролетарская улица,141402,55.8917163,37.4406333
88,Заречная улица,141435,55.9031380,37.3680586
89,Заречная улица,141435,55.9032297,37.3684716
90,Заречная улица,141435,55.9033260,37.3688767
91,Заречная улица,141435,55.9034462,37.3694828
92,Заречная улица,141435,55.9035439,37.3699173
70,Заречная улица,141435,55.9037199,37.3696544
71,Заречная улица,141435,55.9037063,37.3693085
72,Заречная улица,141435,55.9036326,37.3689974
73,Заречная улица,141435,55.9035589,37.3686781
74,Заречная улица,141435,55.9034913,37.3683429
75,Заречная улица,141435,55.9034146,37.3679820
57,Заречная улица,141435,55.9050014,37.3670618
5/3,Заречная улица,141435,55.9048806,37.3643330
4,Заречная улица,141435,55.9051415,37.3635715
35,Заречная улица,141435,55.9070340,37.3634371
40,Заречная улица,141435,55.9072131,37.3628559
39,Заречная улица,141435,55.9075400,37.3627797
36,Заречная улица,141435,55.9075105,37.3633079
33,Заречная улица,141435,55.9072945,37.3638019
31,Заречная улица,141435,55.9074365,37.3641384
29,Заречная улица,141435,55.9074795,37.3648565
27,Заречная улица,141435,55.9072297,37.3644852
25,Заречная улица,141435,55.9069948,37.3640864
19,Заречная улица,141435,55.9069028,37.3650223
17,Заречная улица,141435,55.9067089,37.3646441
15,Заречная улица,141435,55.9065496,37.3642847
21,Заречная улица,141435,55.9070400,37.3653766
23,Заречная улица,141435,55.9070823,37.3658272
20,Заречная улица,141435,55.9068266,37.3656785
18,Заречная улица,141435,55.9066435,37.3653039
16,Заречная улица,141435,55.9064894,37.3649338
14,Заречная улица,141435,55.9063393,37.3646103
11,Заречная улица,141435,55.9062543,37.3631292
1/2,Заречная улица,141435,55.9053003,37.3624562
3/1,Заречная улица,141435,55.9054455,37.3615829
6,Заречная улица,141435,55.9056087,37.3614422
1,Заречная улица,141435,55.9050770,37.3621213
3/2,Заречная улица,141435,55.9054839,37.3621790
56,Заречная улица,141435,55.9055514,37.3630541
10,Заречная улица,141435,55.9058842,37.3633971
13,Заречная улица,141435,55.9061442,37.3635785
12,Заречная улица,141435,55.9060280,37.3640590
5,Заречная улица,141435,55.9056544,37.3619101
6/2,Заречная улица,141435,55.9058493,37.3616966
37,Заречная улица,141435,55.9069668,37.3625672
24,Заречная улица,141435,55.9066238,37.3636125
26,Заречная улица,141435,55.9067418,37.3633443
28,Заречная улица,141435,55.9067227,37.3628835
32,Заречная улица,141435,55.9066461,37.3620296
30,Заречная улица,141435,55.9066799,37.3624086
87,Заречная улица,141435,55.9062964,37.3619956
30,улица Кирова,141402,55.8841929,37.4528320
21/1,проспект Мельникова,141501,55.9044294,37.3997887
45 2,улица Ленина,141421,55.9515389,37.3068420
45 к1,улица Ленина,141421,55.9519620,37.3069961
5,1-я Лесная улица,141446,55.9473025,37.3323199
66Д,Юбилейный проспект,141407,55.8924155,37.4139899
10А,улица Ленина,141401,55.9133706,37.4765230
16,улица Ленина,141401,55.9134019,37.4781263
16А,улица Ленина,141401,55.9132548,37.4782655
15,улица Ленина,141401,55.9129665,37.4777917
14,улица Ленина,141401,55.9130847,37.4771380
13,улица Ленина,141401,55.9126518,37.4767631
11,улица Ленина,141401,55.9128521,37.4756969
10,улица Ленина,141401,55.9130815,37.4757801
26,улица Ленина,141401,55.9144267,37.4777847
27,улица Ленина,141401,55.9145729,37.4780782
28,улица Ленина,141401,55.9147327,37.4785703
29,улица Ленина,141401,55.9148548,37.4789392
30,улица Ленина,141401,55.9150934,37.4793126
31,улица Ленина,141401,55.9154197,37.4792760
9А,улица Ворошилова,141401,55.9151528,37.4783160
9,улица Ворошилова,141401,55.9153070,37.4779803
14,улица Ворошилова,141401,55.9156920,37.4790303
10,улица Ворошилова,141401,55.9152753,37.4786360
6,улица Ворошилова,141401,55.9151002,37.4775736
16,улица Пушкина,141401,55.9163936,37.4774451
14А,улица Пушкина,141401,55.9162410,37.4769752
20,улица Пушкина,141401,55.9164954,37.4780694
18,улица Пушкина,141401,55.9166202,37.4779726
12,улица Ворошилова,141401,55.9160710,37.4786175
12А,улица Ворошилова,141401,55.9160069,37.4784818
11,улица Ворошилова,141401,55.9159242,37.4780603
8,улица Ворошилова,141401,55.9154997,37.4771023
20,улица Ленина,141401,55.9142650,37.4799500
18,улица Ленина,141401,55.9139007,37.4795073
19,улица Ленина,141401,55.9136568,37.4790419
17,улица Ленина,141401,55.9136261,37.4785052
21,улица Ленина,141401,55.9147021,37.4798434
22А,улица Ленина,141401,55.9145617,37.4794020
22,улица Ленина,141401,55.9145199,37.4792568
23,улица Ленина,141401,55.9143646,37.4789114
24,улица Ленина,141401,55.9142375,37.4785819
25,улица Ленина,141401,55.9140823,37.4780622
2,улица Ленина,141401,55.9120475,37.4755495
10/19,улица Энгельса,141402,55.8934483,37.4378688
42,улица Лизы Чайкиной,141401,55.9202574,37.4815483
40,улица Лизы Чайкиной,141401,55.9202524,37.4804285
34,улица Лизы Чайкиной,141401,55.9198072,37.4792127
32А,улица Лизы Чайкиной,141401,55.9196684,37.4788373
32,улица Лизы Чайкиной,141401,55.9195439,37.4783767
26,улица Лизы Чайкиной,141401,55.9190535,37.4770803
24,улица Лизы Чайкиной,141401,55.9188506,37.4766002
22,улица Лизы Чайкиной,141401,55.9184978,37.4763843
33,Спортивная улица,141401,55.9190559,37.4797474
31,Спортивная улица,141401,55.9188868,37.4790500
29,Спортивная улица,141401,55.9187980,37.4786115
27,Спортивная улица,141401,55.9185664,37.4781013
25,Спортивная улица,141401,55.9184462,37.4776844
23,Спортивная улица,141401,55.9182432,37.4773347
21,Спортивная улица,141401,55.9181090,37.4769826
18,улица Лизы Чайкиной,141401,55.9183308,37.4753653
16,улица Лизы Чайкиной,141401,55.9183342,37.4750626
12,улица Лизы Чайкиной,141401,55.9181230,37.4745721
70 с1,Юбилейный проспект,141501,55.8946420,37.4110512
88,Юбилейный проспект,141410,55.8982824,37.4103548
3,проспект Мельникова,141501,55.8995766,37.4061935
1,проспект Мельникова,141501,55.8990696,37.4068034
32А,улица Карла Маркса,141401,55.9208418,37.4782709
32,улица Карла Маркса,141401,55.9207801,37.4778529
28,улица Карла Маркса,141401,55.9203830,37.4770637
41,улица Лизы Чайкиной,141401,55.9201745,37.4789157
39,улица Лизы Чайкиной,141401,55.9200708,37.4784102
37А,улица Лизы Чайкиной,141401,55.9198902,37.4780023
37Б,улица Лизы Чайкиной,141401,55.9197811,37.4777324
35,улица Лизы Чайкиной,141401,55.9196913,37.4771985
33,улица Лизы Чайкиной,141401,55.9195594,37.4769456
26,улица Карла Маркса,141401,55.9201898,37.4764349
24А,улица Карла Маркса,141401,55.9200290,37.4762119
24,улица Карла Маркса,141401,55.9200127,37.4759890
22,улица Карла Маркса,141401,55.9198820,37.4754764
20,улица Карла Маркса,141401,55.9196996,37.4751426
31,улица Лизы Чайкиной,141401,55.9194408,37.4766664
25,улица Лизы Чайкиной,141401,55.9193604,37.4755483
27,улица Лизы Чайкиной,141401,55.9191077,37.4757739
20,улица Лизы Чайкиной,141401,55.9185632,37.4757123
23,улица Лизы Чайкиной,141401,55.9189420,37.4753086
19А,улица Лизы Чайкиной,141401,55.9187735,37.4743742
23Б,улица Лизы Чайкиной,141401,55.9190970,37.4751065
18А,улица Карла Маркса,141401,55.9194899,37.4745942
16,улица Карла Маркса,141401,55.9193121,37.4742567
14А,улица Карла Маркса,141401,55.9191226,37.4740614
12,улица Карла Маркса,141401,55.9189897,37.4734536
15,улица Лизы Чайкиной,141401,55.9184295,37.4737887
11,улица Лизы Чайкиной,141401,55.9183366,37.4729863
4А,улица Строителей,141407,55.8861962,37.4133118
8А,улица 9 Мая,141410,55.9015664,37.4155152
18,Кольцевая улица,141402,55.8833543,37.4456617
78,Молодёжная улица,141501,55.9099703,37.3913852
4,Комсомольская улица,141401,55.9208774,37.4586132
3А,Комсомольская улица,141401,55.9212364,37.4587537
14,Московская улица,141402,55.8944301,37.4491218
23,улица Кирова,141402,55.8874132,37.4524923
10,2-й Дачный переулок,141420,55.9464371,37.2900493
43Г,улица Свердлова,141401,55.9244182,37.4819131
43Б,улица Свердлова,141401,55.9246717,37.4826782
43В,улица Свердлова,141401,55.9248429,37.4838349
41В,улица Свердлова,141401,55.9240082,37.4824421
40,улица Свердлова,141401,55.9240348,37.4839410
57,улица Карла Маркса,141401,55.9237222,37.4850440
55,улица Карла Маркса,141401,55.9236193,37.4846089
53,улица Карла Маркса,141401,55.9234338,37.4841814
49В,улица Карла Маркса,141401,55.9232882,37.4836222
49,улица Карла Маркса,141401,55.9230420,37.4833064
49Б,улица Карла Маркса,141401,55.9231865,37.4831443
36,улица Свердлова,141401,55.9237961,37.4828337
14,Спортивная улица,141401,55.9168680,37.4751543
32,улица Пушкина,141401,55.9175964,37.4806788
34,улица Пушкина,141401,55.9177028,37.4812819
36,улица Пушкина,141401,55.9179089,37.4815933
38,улица Пушкина,141401,55.9180631,37.4822375
22А,улица Ворошилова,141401,55.9171956,37.4819958
23,улица Ворошилова,141401,55.9173205,37.4822912
23А,улица Ворошилова,141401,55.9173627,37.4823904
24,улица Ворошилова,141401,55.9175078,37.4828037
24А,улица Ворошилова,141401,55.9175995,37.4831475
22,улица Ворошилова,141401,55.9171635,37.4818439
21,улица Ворошилова,141401,55.9170266,37.4815337
32А,улица Пушкина,141401,55.9173440,37.4807087
20,улица Ворошилова,141401,55.9169569,37.4811525
28,улица Пушкина,141401,55.9173248,37.4796154
30А,улица Пушкина,141401,55.9174401,37.4801762
30,улица Пушкина,141401,55.9173169,37.4799254
19,улица Ворошилова,141401,55.9167803,37.4807864
18,улица Ворошилова,141401,55.9166350,37.4805055
17,улица Ворошилова,141401,55.9167555,37.4801736
16,улица Ворошилова,141401,55.9165247,37.4800059
26,улица Пушкина,141401,55.9170977,37.4792738
24,улица Пушкина,141401,55.9169503,37.4789375
15,улица Ворошилова,141401,55.9163250,37.4795030
15А,улица Ворошилова,141401,55.9162858,37.4789813
13,улица Ворошилова,141401,55.9164923,37.4788700
22 с1,улица Пушкина,141401,55.9165390,37.4785227
22,улица Пушкина,141401,55.9167579,37.4784284
30,улица Ворошилова,141401,55.9173639,37.4836613
25,улица Ворошилова,141401,55.9181286,37.4838996
26,улица Ворошилова,141401,55.9180816,37.4843846
50,улица Пушкина,141401,55.9192032,37.4851309
48,улица Пушкина,141401,55.9190464,37.4847270
48А,улица Пушкина,141401,55.9189912,37.4845953
46,улица Пушкина,141401,55.9188683,37.4841792
44А,улица Пушкина,141401,55.9185571,37.4841645
44,улица Пушкина,141401,55.9185746,37.4838644
42,улица Пушкина,141401,55.9185557,37.4833798
42А,улица Пушкина,141401,55.9185303,37.4832225
40,улица Пушкина,141401,55.9183318,37.4829645
25,Комсомольская улица,141401,55.9237009,37.4693632
23,Комсомольская улица,141401,55.9235180,37.4688305
9,Комсомольская улица,141401,55.9229049,37.4652914
9А,Комсомольская улица,141401,55.9231738,37.4655072
13Б,Комсомольская улица,141401,55.9229934,37.4658768
25/4,Комсомольская улица,141401,55.9235691,37.4679897
21,Комсомольская улица,141401,55.9233940,37.4679588
19,Комсомольская улица,141401,55.9231487,37.4676462
15,Комсомольская улица,141401,55.9227231,37.4669395
13А,Комсомольская улица,141401,55.9227705,37.4665392
13,Комсомольская улица,141401,55.9225945,37.4665205
11,Комсомольская улица,141401,55.9224875,37.4660537
11А,Комсомольская улица,141401,55.9224241,37.4659099
48,Спортивная улица,141401,55.9201143,37.4839146
56,Спортивная улица,141401,55.9202090,37.4842129
50А,улица Пушкина,141401,55.9196879,37.4850646
49А,улица Пушкина,141401,55.9195371,37.4847249
49,улица Пушкина,141401,55.9194384,37.4843538
46,Спортивная улица,141401,55.9198254,37.4838120
44,Спортивная улица,141401,55.9197540,37.4832782
42,Спортивная улица,141401,55.9197203,37.4826068
40,Спортивная улица,141401,55.9194927,37.4823697
47,улица Пушкина,141401,55.9191852,37.4838340
29Б,улица Пушкина,141401,55.9189424,37.4829012
29,улица Пушкина,141401,55.9187229,37.4821637
29Г,улица Пушкина,141401,55.9190622,37.4825065
44,улица Лизы Чайкиной,141401,55.9206066,37.4815356
46,улица Лизы Чайкиной,141401,55.9207311,37.4817902
46А,улица Лизы Чайкиной,141401,55.9207241,37.4822013
48,улица Лизы Чайкиной,141401,55.9209031,37.4823260
50,улица Лизы Чайкиной,141401,55.9210819,37.4828069
52,улица Лизы Чайкиной,141401,55.9212438,37.4833010
54,улица Лизы Чайкиной,141401,55.9214374,37.4837842
53,Спортивная улица,141401,55.9207490,37.4844088
51,Спортивная улица,141401,55.9207284,37.4842690
47,Спортивная улица,141401,55.9204273,37.4830770
45,Спортивная улица,141401,55.9202508,37.4829496
43,Спортивная улица,141401,55.9200320,37.4821687
41А,Спортивная улица,141401,55.9199081,37.4819492
41,Спортивная улица,141401,55.9198839,37.4817424
39,Спортивная улица,141401,55.9197480,37.4812498
38,улица Лизы Чайкиной,141401,55.9200411,37.4807569
61А,улица Лизы Чайкиной,141401,55.9222329,37.4833165
48А,улица Карла Маркса,141401,55.9225036,37.4830126
46А,улица Карла Маркса,141401,55.9224296,37.4827293
46,улица Карла Маркса,141401,55.9223018,37.4824692
44Б,улица Карла Маркса,141401,55.9219370,37.4819009
44В,улица Карла Маркса,141401,55.9218409,37.4817882
44А,улица Карла Маркса,141401,55.9221256,37.4817051
44,улица Карла Маркса,141401,55.9220378,37.4815160
42А,улица Карла Маркса,141401,55.9219077,37.4813156
42,улица Карла Маркса,141401,55.9218159,37.4810619
40А,улица Карла Маркса,141401,55.9215568,37.4806712
40,улица Карла Маркса,141401,55.9214775,37.4803455
38В,улица Карла Маркса,141401,55.9213111,37.4799429
38Б,улица Карла Маркса,141401,55.9211930,37.4795760
45,улица Лизы Чайкиной,141401,55.9210053,37.4797464
47Б,улица Лизы Чайкиной,141401,55.9207840,37.4798601
47А,улица Лизы Чайкиной,141401,55.9206599,37.4799783
10Б,улица Нахимова,141406,55.8900204,37.4704547
33,улица Свердлова,141401,55.9228035,37.4783228
35,улица Свердлова,141401,55.9229906,37.4789394
37,улица Свердлова,141401,55.9232460,37.4792986
39,улица Свердлова,141401,55.9234627,37.4801267
41,улица Свердлова,141401,55.9236080,37.4806145
43,улица Свердлова,141401,55.9237797,37.4811835
43А,улица Свердлова,141401,55.9237885,37.4816046
34,улица Шевченко,141401,55.9237861,37.4792106
32,улица Шевченко,141401,55.9237167,37.4787317
30/1,улица Шевченко,141401,55.9235492,37.4783304
30А,улица Шевченко,141401,55.9235248,37.4779459
30,улица Шевченко,141401,55.9233828,37.4777427
31В,улица Свердлова,141401,55.9225074,37.4778735
31,улица Свердлова,141401,55.9226577,37.4779310
38А,улица Горького,141401,55.9245483,37.4771214
38,улица Горького,141401,55.9244042,37.4767823
39,улица Шевченко,141401,55.9242467,37.4779218
50,улица Шевченко,141401,55.9246985,37.4781512
37,улица Шевченко,141401,55.9246775,37.4789397
38,улица Шевченко,141401,55.9247196,37.4794923
46,улица Шевченко,141401,55.9247857,37.4799510
48,улица Шевченко,141401,55.9246371,37.4808626
49,улица Шевченко,141401,55.9244971,37.4805169
47,улица Шевченко,141401,55.9243994,37.4801052
44,улица Шевченко,141401,55.9243454,37.4796197
43А,улица Шевченко,141401,55.9242176,37.4791463
43,улица Шевченко,141401,55.9241074,37.4786996
42,улица Шевченко,141401,55.9239396,37.4781620
45,улица Шевченко,141401,55.9238783,37.4775580
50,улица Карла Маркса,141401,55.9229708,37.4841808
63,улица Лизы Чайкиной,141401,55.9222729,37.4843403
52,улица Карла Маркса,141401,55.9227670,37.4837730
59Б,улица Лизы Чайкиной,141401,55.9219798,37.4828438
61,улица Лизы Чайкиной,141401,55.9219460,37.4837960
59,улица Лизы Чайкиной,141401,55.9217986,37.4832952
59А,улица Лизы Чайкиной,141401,55.9216797,37.4829765
57,улица Лизы Чайкиной,141401,55.9216120,37.4826553
55,улица Лизы Чайкиной,141401,55.9214380,37.4820833
53А,улица Лизы Чайкиной,141401,55.9213148,37.4818553
53,улица Лизы Чайкиной,141401,55.9211609,37.4816082
51,улица Лизы Чайкиной,141401,55.9210871,37.4813430
49,улица Лизы Чайкиной,141401,55.9209716,37.4810307
47,улица Лизы Чайкиной,141401,55.9206219,37.4804204
6,улица Свердлова,141401,55.9197059,37.4714590
8,улица Свердлова,141401,55.9198533,37.4717635
10,улица Свердлова,141401,55.9199680,37.4720339
10А,улица Свердлова,141401,55.9198517,37.4721046
12,улица Свердлова,141401,55.9200504,37.4725735
14,улица Свердлова,141401,55.9202550,37.4729434
27,улица Карла Маркса,141401,55.9199983,37.4740541
25А,улица Карла Маркса,141401,55.9197999,37.4740396
25,улица Карла Маркса,141401,55.9196909,37.4737054
23А,улица Карла Маркса,141401,55.9196286,37.4735723
23,улица Карла Маркса,141401,55.9195462,37.4733755
21,улица Карла Маркса,141401,55.9196473,37.4729953
19,улица Карла Маркса,141401,55.9195617,37.4727639
17,улица Карла Маркса,141401,55.9193336,37.4726521
9,улица Лизы Чайкиной,141401,55.9181260,37.4727514
11,улица Свердлова,141401,55.9202092,37.4710231
13,улица Свердлова,141401,55.9202516,37.4715409
13А,улица Карла Маркса,141401,55.9204252,37.4715681
15,улица Свердлова,141401,55.9205056,37.4719284
19,улица Свердлова,141401,55.9207593,37.4726857
17,улица Свердлова,141401,55.9206438,37.4722745
21,улица Свердлова,141401,55.9211533,37.4725636
14,улица Шевченко,141401,55.9210458,37.4719593
12,улица Шевченко,141401,55.9210991,37.4713658
10,улица Шевченко,141401,55.9208046,37.4705553
8,улица Шевченко,141401,55.9206926,37.4701287
6,улица Шевченко,141401,55.9204815,37.4695574
9,улица Свердлова,141401,55.9202145,37.4705313
7,улица Свердлова,141401,55.9201140,37.4700991
5,улица Свердлова,141401,55.9199893,37.4697574
16,улица Горького,141401,55.9222793,37.4714443
16А,улица Горького,141401,55.9221560,37.4711332
14Б,улица Горького,141401,55.9221835,37.4707403
14,улица Горького,141401,55.9220090,37.4701369
14А,улица Горького,141401,55.9219904,37.4699544
12,улица Горького,141401,55.9218995,37.4697746
8,улица Горького,141401,55.9218207,37.4693896
10,улица Горького,141401,55.9217395,37.4692704
10Б,улица Горького,141401,55.9214690,37.4689854
6,улица Горького,141401,55.9215101,37.4685674
19,улица Шевченко,141401,55.9218115,37.4719647
17,улица Шевченко,141401,55.9216831,37.4715831
15,улица Шевченко,141401,55.9215632,37.4711821
13,улица Шевченко,141401,55.9214396,37.4708730
11,улица Шевченко,141401,55.9213073,37.4704666
9,улица Шевченко,141401,55.9211954,37.4700321
7,улица Шевченко,141401,55.9210834,37.4695816
1,улица Шевченко,141401,55.9204972,37.4680157
16,Комсомольская улица,141401,55.9228035,37.4690854
15А,улица Горького,141401,55.9227762,37.4710665
20,Комсомольская улица,141401,55.9231295,37.4696875
22,Комсомольская улица,141401,55.9231416,37.4703822
15,улица Горького,141401,55.9226915,37.4708073
13,улица Горького,141401,55.9225429,37.4701394
11,улица Горького,141401,55.9224555,37.4697934
9,улица Горького,141401,55.9222774,37.4695077
7,улица Горького,141401,55.9221016,37.4688976
5,улица Горького,141401,55.9219633,37.4684145
12А/1,Комсомольская улица,141401,55.9225194,37.4680888
10,Комсомольская улица,141401,55.9223766,37.4674116
25А,улица Свердлова,141401,55.9215042,37.4738811
25Б,улица Свердлова,141401,55.9213715,37.4739039
23,улица Свердлова,141401,55.9210530,37.4735699
25,улица Свердлова,141401,55.9212119,37.4740756
27,улица Свердлова,141401,55.9213787,37.4745604
27А,улица Свердлова,141401,55.9217699,37.4747555
29,улица Свердлова,141401,55.9216718,37.4754362
29/1,улица Свердлова,141401,55.9219910,37.4761649
29/3,улица Свердлова,141401,55.9221456,37.4766666
29/4,улица Свердлова,141401,55.9224506,37.4769147
26А,улица Шевченко,141401,55.9227576,37.4760818
26,улица Шевченко,141401,55.9226192,37.4757644
24,улица Шевченко,141401,55.9225299,37.4753603
24А,улица Шевченко,141401,55.9224678,37.4752474
22,улица Шевченко,141401,55.9223462,37.4748983
20А,улица Шевченко,141401,55.9221164,37.4747233
20,улица Шевченко,141401,55.9220803,37.4744197
35,улица Шевченко,141401,55.9231761,37.4758357
35А,улица Шевченко,141401,55.9231205,37.4755777
33,улица Шевченко,141401,55.9229500,37.4752078
31,улица Шевченко,141401,55.9228073,37.4744094
31А,улица Шевченко,141401,55.9231036,37.4745504
29А,улица Шевченко,141401,55.9224457,37.4736243
27,улица Шевченко,141401,55.9223726,37.4734345
24,улица Горького,141401,55.9228253,37.4734586
22,улица Горького,141401,55.9228132,37.4728418
22А,улица Горького,141401,55.9228914,37.4724669
25,улица Шевченко,141401,55.9223607,37.4727594
23,улица Шевченко,141401,55.9221005,37.4725181
33,улица Горького,141401,55.9239290,37.4739818
29,улица Горького,141401,55.9236805,37.4733653
27,улица Горького,141401,55.9235850,37.4729959
32,Комсомольская улица,141401,55.9241087,37.4723120
26,Комсомольская улица,141401,55.9236877,37.4711586
24,Комсомольская улица,141401,55.9235579,37.4707483
21,улица Горького,141401,55.9232581,37.4719948
36,Комсомольская улица,141401,55.9244487,37.4730681
38,Комсомольская улица,141401,55.9246048,37.4735338
40,Комсомольская улица,141401,55.9247726,37.4739642
42,Комсомольская улица,141401,55.9248966,37.4744641
44,Комсомольская улица,141401,55.9250628,37.4749278
46,Комсомольская улица,141401,55.9251031,37.4754911
37,улица Горького,141401,55.9241808,37.4746368
39,улица Горького,141401,55.9243322,37.4749202
43,улица Горького,141401,55.9244821,37.4755023
45,улица Горького,141401,55.9245930,37.4760003
47,улица Горького,141401,55.9247168,37.4763298
49,улица Горького,141401,55.9249350,37.4765310
1 к1 с1,улица Марии Рубцовой,141410,55.9077764,37.4050986
32А,Юбилейный проспект,141407,55.8874321,37.4222896
38А,улица Пушкина,141401,55.9182415,37.4822594
15 с3,Совхозная улица,141406,55.8992334,37.4737920
17 к3,Совхозная улица,141406,55.8986058,37.4728203
25 с3,Совхозная улица,141406,55.9037575,37.4798391
85,Юбилейный проспект,141501,55.8980501,37.4082710
20/4,улица Свердлова,141401,55.9218792,37.4773077
20/5,улица Свердлова,141401,55.9220670,37.4777448
41,улица Карла Маркса,141401,55.9210759,37.4773680
39,улица Карла Маркса,141401,55.9209187,37.4769536
35А,улица Карла Маркса,141401,55.9205371,37.4760212
33,улица Карла Маркса,141401,55.9203703,37.4755653
31,улица Карла Маркса,141401,55.9202440,37.4752275
29А,улица Карла Маркса,141401,55.9200272,37.4746848
29,улица Карла Маркса,141401,55.9203423,37.4742485
18/1,улица Свердлова,141401,55.9204664,37.4740581
20,улица Свердлова,141401,55.9209018,37.4752503
20А,улица Свердлова,141401,55.9209234,37.4748534
18А,улица Свердлова,141401,55.9208460,37.4746040
18Б,улица Свердлова,141401,55.9207753,37.4744390
18,улица Свердлова,141401,55.9206693,37.4741193
29,улица Лизы Чайкиной,141401,55.9192762,37.4762530
37,улица Лизы Чайкиной,141401,55.9197375,37.4774963
43,улица Лизы Чайкиной,141401,55.9204409,37.4794728
34,улица Карла Маркса,141401,55.9210247,37.4789279
34А,улица Карла Маркса,141401,55.9208412,37.4791377
30,улица Карла Маркса,141401,55.9204854,37.4776937
22А,улица Карла Маркса,141401,55.9199831,37.4757184
20/3,улица Свердлова,141401,55.9215973,37.4768835
25А,Спортивная улица,141401,55.9186396,37.4776805
29А,Спортивная улица,141401,55.9186703,37.4786594
35,Спортивная улица,141401,55.9194512,37.4796518
36А,улица Лизы Чайкиной,141401,55.9198442,37.4802822
30,улица Лизы Чайкиной,141401,55.9194081,37.4780738
26А,улица Лизы Чайкиной,141401,55.9190394,37.4774589
24А,улица Лизы Чайкиной,141401,55.9189175,37.4767987
41,Комсомольская улица,141401,55.9255205,37.4745664
39,Комсомольская улица,141401,55.9253207,37.4739414
33,Комсомольская улица,141401,55.9249168,37.4728497
31,Комсомольская улица,141401,55.9247098,37.4724575
27,Комсомольская улица,141401,55.9244523,37.4715429
36,улица Горького,141401,55.9242785,37.4765043
34,улица Горького,141401,55.9241570,37.4762622
32,улица Горького,141401,55.9240674,37.4759008
30,улица Горького,141401,55.9239200,37.4755521
28,улица Горького,141401,55.9237765,37.4751833
26,улица Горького,141401,55.9236783,37.4747264
26Б,улица Горького,141401,55.9236391,37.4743250
26А,улица Горького,141401,55.9234889,37.4741051
2,улица Генерала Дьяконова,141432,55.9576017,37.4499785
1,улица Генерала Дьяконова,141432,55.9565288,37.4497114
3,улица Генерала Дьяконова,141402,55.9567382,37.4502931
5,улица Генерала Дьяконова,141432,55.9569876,37.4510837
7,улица Генерала Дьяконова,141432,55.9571818,37.4519328
4,улица Генерала Дьяконова,141432,55.9584394,37.4508642
3А,Молодёжная улица,141407,55.8789626,37.4208429
18,улица Карла Маркса,141401,55.9193848,37.4744951
14,улица Карла Маркса,141401,55.9189120,37.4739050
21,улица Лизы Чайкиной,141401,55.9188018,37.4748797
19,улица Лизы Чайкиной,141401,55.9187166,37.4745604
17,улица Лизы Чайкиной,141401,55.9185437,37.4740843
14,улица Лизы Чайкиной,141401,55.9182112,37.4749757
21,улица Шевченко,141401,55.9221278,37.4717076
14А,улица Шевченко,141401,55.9211433,37.4722483
48,Комсомольская улица,141401,55.9262005,37.4723247
47,Комсомольская улица,141401,55.9256711,37.4724052
вл45,Комсомольская улица,141401,55.9253564,37.4719950
14,Комсомольская улица,141401,55.9227018,37.4686583
12,Комсомольская улица,141401,55.9224875,37.4679332
13А,улица Горького,141401,55.9226729,37.4703505
7Г,улица Горького,141401,55.9223361,37.4685106
38А,улица Шевченко,141401,55.9249071,37.4791127
19,улица Горького,141401,55.9230901,37.4717464
29,улица Шевченко,141401,55.9226132,37.4740013
5А,улица Ворошилова,141401,55.9151516,37.4762063
36,Спортивная улица,141401,55.9192509,37.4815866
45А,улица Пушкина,141401,55.9193085,37.4833796
13,улица Пушкина,141401,55.9169379,37.4766740
40А,улица Пушкина,141401,55.9183714,37.4826896
22А,улица Пушкина,141401,55.9169533,37.4785769
8 сБ,улица Пушкина,141401,55.9154896,37.4753338
6А,улица Пушкина,141401,55.9154846,37.4749426
6 с1,улица Пушкина,141401,55.9152703,37.4751484
12А,Спортивная улица,141401,55.9166998,37.4750515
12,Спортивная улица,141401,55.9166534,37.4752637
8А,Спортивная улица,141401,55.9165854,37.4741948
37,Спортивная улица,141401,55.9195695,37.4804122
3А,Спортивная улица,141401,55.9167431,37.4722968
50А,улица Карла Маркса,141401,55.9232049,37.4848637
57Б,улица Лизы Чайкиной,141401,55.9215272,37.4823940
23А,Спортивная улица,141401,55.9184934,37.4771408
60,улица Лизы Чайкиной,141401,55.9218341,37.4858478
58,улица Лизы Чайкиной,141401,55.9217875,37.4854964
56,улица Лизы Чайкиной,141401,55.9219406,37.4852018
28,улица Лизы Чайкиной,141401,55.9191847,37.4775336
14А,улица Лизы Чайкиной,141401,55.9182406,37.4747499
43А,улица Лизы Чайкиной,141401,55.9207071,37.4794019
41Б,улица Лизы Чайкиной,141401,55.9202729,37.4789136
41А,улица Лизы Чайкиной,141401,55.9201898,37.4786709
17А,улица Лизы Чайкиной,141401,55.9186515,37.4742331
15/4,улица Лизы Чайкиной,141401,55.9183574,37.4735720
13,улица Лизы Чайкиной,141401,55.9182407,37.4734076
5А,улица Лизы Чайкиной,141401,55.9177749,37.4720691
12А,улица Карла Маркса,141401,55.9191622,37.4733104
15/2,улица Карла Маркса,141401,55.9194617,37.4722903
7Б,улица Горького,141401,55.9221763,37.4693061
3 с3,улица Лётчика Ивана Фёдорова,141402,55.9590800,37.4433176
53,Комсомольская улица,141401,55.9264068,37.4690015
55,Комсомольская улица,141401,55.9262073,37.4698441
51А,Комсомольская улица,141401,55.9257468,37.4702870
45,Комсомольская улица,141401,55.9258222,37.4729701
12А,Комсомольская улица,141401,55.9225130,37.4675712
29,Комсомольская улица,141401,55.9248346,37.4715339
с27,Набережный проезд,141402,55.9582407,37.4456232
12,улица Панфилова,141407,55.8795100,37.4295726
7А,Речная улица,141441,55.9612077,37.2653880
2,Пионерская улица,141441,55.9617092,37.2652740
2,Зелёная улица,141411,55.8905113,37.4833023
с7,Юбилейный проезд,141420,55.9437331,37.3054047
2/5 с3,Центральная улица,141446,55.9469549,37.3383500
2Б,проспект Мельникова,141501,55.9011966,37.4073485
5к1,улица Марии Рубцовой,141410,55.9089154,37.4013373
59,Юбилейный проспект,141407,55.8926271,37.4096938
6,Молодёжная улица,141407,55.8811913,37.4197013
10,Молодёжная улица,141407,55.8824353,37.4177648
8,Молодёжная улица,141407,55.8818239,37.4187182
11,Куркинское шоссе,141407,55.8822939,37.4135872
14/9,Молодёжная улица,141407,55.8830830,37.4167850
54А,Молодёжная улица,141501,55.9033756,37.3981689
1,Шереметьевское шоссе,141425,55.9665794,37.4157793
2 к2,Набережный проезд,141402,55.9595350,37.4434024
67А,Юбилейный проспект,141407,55.8959091,37.4091165
69,Юбилейный проспект,141407,55.8968133,37.4087851
67Б,Юбилейный проспект,141407,55.8959405,37.4092709
вл7,Соколовская улица,141435,55.8887261,37.3509167
19,улица 9 Мая,141410,55.9046764,37.4090439
7,улица Родионова,141410,55.9068270,37.4055368
5,улица Родионова,141410,55.9059936,37.4044233
4 к1,улица Ватутина,141402,55.8880232,37.4566382
6,Кольцевая улица,141402,55.8834605,37.4515989
23А,улица Маяковского,141402,55.8908289,37.4385563
8,Кольцевая улица,141402,55.8833803,37.4507186
10,Кольцевая улица,141402,55.8832800,37.4497948
12,улица Панфилова,141407,55.8796241,37.4294195
4,улица Академика Грушина,141401,55.9072372,37.4542020
8,улица Германа Титова,141401,55.9181076,37.4111762
10,улица Германа Титова,141401,55.9170149,37.4129348
13 к6,улица Лавочкина,141407,55.8917330,37.4196283
28/2,Московская улица,141402,55.8904658,37.4448375
5А,улица Горшина,141407,55.8857121,37.4296267
с37,Шереметьевское шоссе,141426,55.9801001,37.4150375
вл2 с1,Международное шоссе,141425,55.9638698,37.4054769
10,Парковая улица,141410,55.8969274,37.4148850
7 к1,Молодёжная улица,141407,55.8810335,37.4179935
1А,улица Бабакина,141407,55.8811245,37.4287355
18,Куркинское шоссе,141407,55.8845169,37.4190880
18А,Куркинское шоссе,141407,55.8837502,37.4197494
4,Молодёжный проезд,141501,55.8993844,37.4036124
81/3,Заречная улица,141435,55.9029436,37.3660086
81/2,Заречная улица,141435,55.9030231,37.3659353
81/1,Заречная улица,141435,55.9031027,37.3658618
80/2,Заречная улица,141435,55.9032397,37.3657397
80/1,Заречная улица,141435,55.9033491,37.3656608
76/2,Заречная улица,141435,55.9033024,37.3674827
76/1,Заречная улица,141435,55.9034056,37.3674132
77/1,Заречная улица,141435,55.9031342,37.3669024
77,Заречная улица,141435,55.9032007,37.3668680
77/2,Заречная улица,141435,55.9032725,37.3668310
78/1,Заречная улица,141435,55.9034435,37.3667648
78,Заречная улица,141435,55.9034518,37.3666396
78/2,Заречная улица,141435,55.9034599,37.3665178
79/1,Заречная улица,141435,55.9034554,37.3662810
79/2,Заречная улица,141435,55.9034673,37.3660901
79/3,Заречная улица,141435,55.9034793,37.3658990
83/2,Заречная улица,141435,55.9036895,37.3671060
83/1,Заречная улица,141435,55.9037067,37.3669415
84/2,Заречная улица,141435,55.9037221,37.3666585
84/1,Заречная улица,141435,55.9037410,37.3664856
85/1,Заречная улица,141435,55.9037930,37.3660514
4Б,Центральная улица,141446,55.9472198,37.3337656
6,1-я Лесная улица,141446,55.9483920,37.3314702
10 к2,1-я Лесная улица,141446,55.9514250,37.3283775
10 к1,1-я Лесная улица,141446,55.9508268,37.3281565
2,Шереметьевская улица,141402,55.9388055,37.4753597
4,Загородная улица,141402,55.9405138,37.4725703
2,Загородная улица,141402,55.9398489,37.4738465
5,Загородная улица,141402,55.9399736,37.4716301
3,Загородная улица,141402,55.9393995,37.4726804
1,Загородная улица,141402,55.9388372,37.4737343
9/1,Юбилейный проспект,141407,55.8870083,37.4162501
8,1-я Лесная улица,141446,55.9498242,37.3292687
8,Центральная улица,141446,55.9503596,37.3307703
4А к4,улица 9 Мая,141410,55.8956639,37.4231539
21 к1,улица 9 Мая,141410,55.9087579,37.4060303
1 к1,улица К.И. Вороницына,141401,55.9149217,37.4070349
1 к2,улица К.И. Вороницына,141401,55.9140632,37.4087605
3 к1,улица Германа Титова,141401,55.9159904,37.4091358
10,улица Академика Грушина,141401,55.9090263,37.4561751
24,Ленинский проспект,141401,55.9060171,37.4690236
22,Ленинский проспект,141401,55.9054217,37.4681958
15,Совхозная улица,141406,55.8987854,37.4743598
9,улица Генерала Дьяконова,141432,55.9574053,37.4527432
1,улица Родионова,141410,55.9042948,37.4031144
2 с4,улица Германа Титова,141401,55.9159149,37.4130875
2 к3,улица Германа Титова,141401,55.9158475,37.4141184
2 к2,улица Германа Титова,141401,55.9163032,37.4131184
2 к1,улица Германа Титова,141401,55.9156716,37.4123560
4 с1,улица Германа Титова,141401,55.9166922,37.4110484
4,улица Германа Титова,141401,55.9166759,37.4110237
10А с1,улица Германа Титова,141401,55.9180398,37.4130823
10А,улица Германа Титова,141401,55.9181709,37.4132244
6,улица Германа Титова,141401,55.9177236,37.4088074
10 с1,улица Германа Титова,141401,55.9170149,37.4129348
14 с3,улица Германа Титова,141401,55.9167560,37.4167573
14 к2,улица Германа Титова,141401,55.9170478,37.4170511
14 к1,улица Германа Титова,141401,55.9166106,37.4166607
12 с3,улица Германа Титова,141401,55.9173148,37.4149522
12 к1,улица Германа Титова,141401,55.9172252,37.4144569
12 к2,улица Германа Титова,141401,55.9172426,37.4152849
2 к3,улица Лётчика Ивана Фёдорова,141402,55.9579918,37.4403577
2 к2,улица Лётчика Ивана Фёдорова,141402,55.9578165,37.4413842
6,улица Лётчика Ивана Фёдорова,141402,55.9577257,37.4429837
4,улица Лётчика Ивана Фёдорова,141402,55.9579460,37.4422291
8 к2,улица Лётчика Ивана Фёдорова,141402,55.9574438,37.4435954
8 к1,улица Лётчика Ивана Фёдорова,141402,55.9571559,37.4446502
25 к1,Набережный проезд,141402,55.9566733,37.4450815
5,улица Лётчика Ивана Фёдорова,141402,55.9583344,37.4441730
3 к1,улица Лётчика Ивана Фёдорова,141402,55.9588159,37.4425550
2 с4,улица Лётчика Ивана Фёдорова,141402,55.9578623,37.4408105
2 к1,улица Лётчика Ивана Фёдорова,141402,55.9581540,37.4410037
8,Набережный проезд,141402,55.9574678,37.4405921
8 с1,улица Лётчика Ивана Фёдорова,141402,55.9572022,37.4439786
8 к3,улица Лётчика Ивана Фёдорова,141402,55.9570598,37.4438578
6,улица Гоголя,141401,55.8960666,37.4507399
51 к1,Ивановская улица,141435,55.9078966,37.3606566
10,проспект Мельникова,141410,55.9027646,37.4046558
14,улица Маяковского,141402,55.8936728,37.4422920
2 к2,Ивановская улица,141435,55.9072036,37.3306641
1 к2,Ивановская улица,141435,55.9061192,37.3304335
2 к1,Ивановская улица,141435,55.9070133,37.3293530
1 к1,Ивановская улица,141435,55.9060145,37.3297606
4 к2,Ивановская улица,141435,55.9078726,37.3279944
3 к2,Ивановская улица,141435,55.9068738,37.3284075
4 к1,Ивановская улица,141435,55.9078110,37.3272890
3 к1,Ивановская улица,141435,55.9068111,37.3277006
5 к1,Ивановская улица,141435,55.9078019,37.3258084
6 к1,Ивановская улица,141435,55.9068051,37.3262172
6 к2,Ивановская улица,141435,55.9063120,37.3263690
5 к2,Ивановская улица,141435,55.9073076,37.3259518
7А,Ивановская улица,141435,55.9058165,37.3266438
7Б,Ивановская улица,141435,55.9053124,37.3267927
9,Ивановская улица,141435,55.9048252,37.3270258
11,Ивановская улица,141435,55.9050771,37.3302045
10,Ивановская улица,141435,55.9050611,37.3288053
8 к2,Ивановская улица,141435,55.9058722,37.3288259
8 к1,Ивановская улица,141435,55.9058158,37.3281178
29,Ленинградское шоссе,141408,55.9033817,37.4208223
2А,улица Лавочкина,141407,55.8916912,37.4234305
55,Юбилейный проспект,141407,55.8887574,37.4102899
