House number,Street name,Postal code,Latitude,Longitude
18Б,Вокзальная улица,143405,55.8105748,37.3361588
70,Есенинская улица,143444,55.8161852,37.2657200
8,Ильинский бульвар,143405,55.8171968,37.3717812
24,Красногорский бульвар,143405,55.8196261,37.3756729
65,улица Опалиха,143444,55.8177696,37.2611236
65/1,улица Опалиха,143444,55.8178291,37.2610485
67,улица Опалиха,143444,55.8175451,37.2614086
67/1,улица Опалиха,143444,55.8176242,37.2613066
5,Успенская улица,143409,55.8333889,37.2910167
24,Красногорский бульвар,143405,55.8195048,37.3765097
40,улица Ленина,143409,55.8345405,37.2974257
44А,улица Ленина,143404,55.8359525,37.2933708
34,Павшинский бульвар,143405,55.8109231,37.3632379
2,улица Ленина,143405,55.8195893,37.3202188
4,Красногорский бульвар,143405,55.8158287,37.3627594
27А,Вокзальная улица,143405,55.8152331,37.3480414
29,Вокзальная улица,143405,55.8149752,37.3470440
27,Павшинская улица,143405,55.8152330,37.3491631
2,Ильинское шоссе,143405,55.8146475,37.3482783
12,Вокзальная улица,143405,55.8125303,37.3415881
11,Вокзальная улица,143405,55.8128584,37.3422939
13,Вокзальная улица,143405,55.8122380,37.3408529
14,Вокзальная улица,143405,55.8119243,37.3401235
15,Вокзальная улица,143405,55.8116005,37.3394024
16,Вокзальная улица,143405,55.8122723,37.3389873
2,Вокзальная улица,143405,55.8131624,37.3377318
1,Вокзальная улица,143405,55.8130082,37.3366551
3,Вокзальная улица,143405,55.8132959,37.3386210
8,Вокзальная улица,143405,55.8137230,37.3399442
9,Вокзальная улица,143405,55.8138274,37.3406219
10,Вокзальная улица,143405,55.8139331,37.3413375
19,Вокзальная улица,143405,55.8113198,37.3368080
19А,Вокзальная улица,143405,55.8121534,37.3356200
5,Вокзальная улица,143405,55.8133701,37.3358989
6,Вокзальная улица,143405,55.8135312,37.3369770
7,Вокзальная улица,143405,55.8136925,37.3380783
24,Вокзальная улица,143405,55.8129921,37.3433635
22,Вокзальная улица,143405,55.8136798,37.3424426
11 к1,Вокзальная улица,143405,55.8124138,37.3425179
13 к1,Вокзальная улица,143405,55.8117863,37.3410556
15 к1,Вокзальная улица,143405,55.8111658,37.3396197
18,Вокзальная улица,143405,55.8112311,37.3384177
4,Вокзальная улица,143405,55.8128805,37.3357914
27Б,Вокзальная улица,143405,55.8157955,37.3478601
25А к1,Вокзальная улица,143405,55.8150508,37.3460466
25,Вокзальная улица,143405,55.8146382,37.3449401
6,Ильинское шоссе,143405,55.8141335,37.3436100
5,улица Королёва,143405,55.8078972,37.3222200
42,Промышленная улица,143405,55.8085846,37.3230497
7,улица Королёва,143405,55.8076705,37.3232576
31,Заводская улица,143405,55.8081809,37.3256900
1,улица Королёва,143405,55.8094874,37.3224959
2,улица Королёва,143405,55.8090709,37.3224704
12,Ильинское шоссе,143405,55.8050545,37.3249643
2А,Ильинское шоссе,143405,55.8055954,37.3306202
4,Заводская улица,143405,55.8079992,37.3281096
5,Строительная улица,143405,55.8084881,37.3287890
23,Вокзальная улица,143405,55.8133942,37.3430323
10А,Вокзальная улица,143405,55.8134263,37.3417614
24,Заводская улица,143405,55.8102382,37.3250684
9,улица Королёва,143405,55.8067109,37.3223055
2,Заводская улица,143405,55.8074077,37.3286074
22,Заводская улица,143405,55.8070056,37.3293458
19Б,Вокзальная улица,143405,55.8127813,37.3348601
38,улица Ленина,143409,55.8336051,37.2977774
36,улица Ленина,143409,55.8331996,37.2977773
32,улица Братьев Горожанкиных,143409,55.8315893,37.2983304
18,улица Братьев Горожанкиных,143409,55.8319769,37.2962074
20,улица Братьев Горожанкиных,143409,55.8317644,37.2969535
14,улица Братьев Горожанкиных,143409,55.8312580,37.2963462
10,улица Братьев Горожанкиных,143409,55.8302335,37.2981571
6,улица Братьев Горожанкиных,143409,55.8294343,37.2985921
4,улица Братьев Горожанкиных,143409,55.8297483,37.2994269
26,улица Ленина,143409,55.8312434,37.3016962
28,улица Ленина,143409,55.8321719,37.3016314
30Б,улица Ленина,143409,55.8327497,37.2998267
30А,улица Ленина,143409,55.8329503,37.3002474
29,улица Карбышева,143408,55.8383150,37.2963105
27,улица Карбышева,143408,55.8383204,37.2972799
25,улица Карбышева,143408,55.8383204,37.2982602
19,улица Карбышева,143408,55.8383170,37.2992171
17,улица Карбышева,143408,55.8383246,37.3023997
15,улица Карбышева,143408,55.8383264,37.3034212
13,улица Карбышева,143408,55.8383259,37.3044261
11,улица Карбышева,143408,55.8383242,37.3054396
47 к3,улица Ленина,143408,55.8368078,37.3027841
47 к2,улица Ленина,143408,55.8368069,37.3015269
47 к1,улица Ленина,143408,55.8368020,37.3002455
30,улица Кирова,143408,55.8340707,37.3041823
28,улица Кирова,143408,55.8339221,37.3052596
26,улица Кирова,143408,55.8337770,37.3063433
37,улица Ленина,143408,55.8330748,37.3029717
41,улица Ленина,143408,55.8328077,37.3047583
61 к1,улица Ленина,143408,55.8370767,37.2985067
5,улица Карбышева,143408,55.8361103,37.3050806
7,улица Карбышева,143408,55.8370972,37.3058116
9,улица Карбышева,143408,55.8370951,37.3051170
1,улица Карбышева,143408,55.8350587,37.3058286
3,улица Карбышева,143408,55.8352012,37.3051090
53,улица Ленина,143408,55.8356226,37.3001364
29 к1,улица Карбышева,143408,55.8392011,37.2950359
27 к1,улица Карбышева,143408,55.8394514,37.2968321
36,улица Карбышева,143408,55.8383274,37.2947707
33 к2,улица Карбышева,143408,55.8389482,37.2934992
33 к1,улица Карбышева,143408,55.8384763,37.2933357
33,улица Карбышева,143408,55.8379947,37.2931745
35,улица Карбышева,143408,55.8374670,37.2930188
65,улица Ленина,143408,55.8368275,37.2942020
23 к2,улица Карбышева,143408,55.8391793,37.2989165
23 к1,улица Карбышева,143408,55.8396628,37.2991325
17 к2,улица Карбышева,143408,55.8395605,37.3023583
15 к2,улица Карбышева,143408,55.8391268,37.3028547
49,улица Ленина,143408,55.8345054,37.3001730
57,улица Ленина,143408,55.8358997,37.2975876
67,улица Ленина,143408,55.8373889,37.2947736
59,улица Ленина,143408,55.8364113,37.2981155
47,улица Ленина,143408,55.8374792,37.2997974
51,улица Ленина,143408,55.8349361,37.3008655
12,улица Карбышева,143408,55.8355370,37.3016782
17А,улица Карбышева,143408,55.8392006,37.3039887
4,улица Карбышева,143408,55.8375372,37.3079376
2,улица Карбышева,143408,55.8353645,37.3078767
7,Павшинский бульвар,143405,55.8226642,37.3682675
4,Спасская улица,143405,55.8257941,37.3686300
3,улица Егорова,143405,55.8253136,37.3672251
5,улица Егорова,143405,55.8260324,37.3674622
5,Павшинский бульвар,143405,55.8238237,37.3674819
10,Спасская улица,143405,55.8246819,37.3717783
3,Павшинский бульвар,143405,55.8244426,37.3667477
6,Спасская улица,143405,55.8253168,37.3701372
8,Спасская улица,143405,55.8249998,37.3709832
11,Подмосковный бульвар,143405,55.8228998,37.3718317
7,улица Игната Титова,143405,55.8236611,37.3715076
12,Спасская улица,143405,55.8243830,37.3726305
1,Павшинский бульвар,143405,55.8249881,37.3658109
3,улица Игната Титова,143405,55.8248223,37.3682156
4,улица Игната Титова,143405,55.8235525,37.3683391
5,улица Игната Титова,143405,55.8242109,37.3699067
13,Подмосковный бульвар,143405,55.8237247,37.3739322
5,улица Игната Титова,143405,55.8242276,37.3697971
4,Павшинский бульвар,143405,55.8232432,37.3657233
6,Павшинский бульвар,143405,55.8222005,37.3671326
8,улица Зверева,143405,55.8228129,37.3646747
6,улица Зверева,143405,55.8220391,37.3651636
5,Подмосковный бульвар,143405,55.8211012,37.3675618
7,Подмосковный бульвар,143405,55.8214513,37.3682867
3,Подмосковный бульвар,143405,55.8204465,37.3658743
3А,Подмосковный бульвар,143405,55.8206105,37.3664048
4,улица Зверева,143405,55.8210900,37.3647334
5А,Подмосковный бульвар,143405,55.8214553,37.3663040
8,Подмосковный бульвар,143405,55.8204693,37.3689059
2,улица Зверева,143405,55.8204797,37.3639080
2А,улица Зверева,143405,55.8208116,37.3635781
23,улица Ленина,143404,55.8276546,37.3140317
25,улица Ленина,143404,55.8275211,37.3122633
27,улица Ленина,143404,55.8282233,37.3125376
1В,Железнодорожная улица,143409,55.8159160,37.3355348
7,Железнодорожный проезд,143402,55.8157869,37.3293011
31,улица Ленина,143404,55.8287562,37.3099043
17,улица Ленина,143404,55.8263793,37.3140322
15,улица Ленина,143404,55.8263989,37.3159603
7,улица Ленина,143404,55.8251739,37.3159908
5А,улица Ленина,143404,55.8252114,37.3179901
5Б,улица Ленина,143404,55.8263087,37.3197210
11,улица Ленина,143404,55.8271450,37.3194311
11А,улица Ленина,143404,55.8271350,37.3202625
9,улица Ленина,143404,55.8265165,37.3180260
19,улица Ленина,143404,55.8274153,37.3159653
1,Октябрьская улица,143402,55.8211015,37.3368546
2,Октябрьская улица,143407,55.8216875,37.3368846
18,Школьная улица,143402,55.8226501,37.3300924
20,Школьная улица,143402,55.8230363,37.3296370
20А,Школьная улица,143402,55.8233176,37.3292036
5,Октябрьская улица,143407,55.8229672,37.3358106
4,Октябрьская улица,143407,55.8226222,37.3362939
3,Октябрьская улица,143407,55.8222152,37.3364293
9,Октябрьская улица,143407,55.8245755,37.3342942
7,Октябрьская улица,143407,55.8240129,37.3352546
8,Октябрьская улица,143407,55.8238436,37.3346092
13,Октябрьская улица,143407,55.8269184,37.3326421
14,Октябрьская улица,143407,55.8276934,37.3322990
15,Октябрьская улица,143407,55.8287934,37.3314079
17,Октябрьская улица,143407,55.8298506,37.3302274
3,Лесная улица,143401,55.8313866,37.3262316
5,Первомайская улица,143403,55.8322791,37.3281298
7,Первомайская улица,143403,55.8325315,37.3277175
6,Первомайская улица,143403,55.8326127,37.3297182
10,Первомайская улица,143401,55.8335175,37.3282405
19,Речная улица,143402,55.8344482,37.3276662
12,Первомайская улица,143401,55.8339907,37.3270253
11,Первомайская улица,143401,55.8336489,37.3263680
5,Лесная улица,143401,55.8330502,37.3250995
9,Лесная улица,143401,55.8341067,37.3239454
6,Лесная улица,143401,55.8330403,37.3257589
7,Лесная улица,143401,55.8334163,37.3253924
16,Первомайская улица,143401,55.8355612,37.3247729
15,Первомайская улица,143401,55.8357245,37.3236737
38Б,улица Ленина,143409,55.8338680,37.2990310
38А,улица Ленина,143409,55.8340110,37.2981532
4,улица Циолковского,143406,55.8182019,37.3236185
6,улица Циолковского,143406,55.8182046,37.3246526
11,улица Красная Горка,143404,55.8194902,37.3258167
18,улица Красная Горка,143404,55.8195207,37.3252624
15,улица Красная Горка,143404,55.8203464,37.3256192
16,улица Красная Горка,143404,55.8206103,37.3254960
6,улица Красная Горка,143404,55.8203978,37.3267280
9,улица Красная Горка,143404,55.8197689,37.3268978
10,улица Красная Горка,143404,55.8194322,37.3269905
4,улица Красная Горка,143404,55.8202419,37.3273912
5,улица Красная Горка,143404,55.8206290,37.3272704
2,улица Красная Горка,143404,55.8197953,37.3276203
8,улица Красная Горка,143404,55.8199781,37.3268375
13,улица Красная Горка,143404,55.8199580,37.3256954
12,улица Красная Горка,143404,55.8197275,37.3257682
14,улица Красная Горка,143404,55.8201523,37.3256572
3,улица Красная Горка,143404,55.8199950,37.3274529
8,улица Циолковского,143406,55.8178501,37.3251602
10,улица Циолковского,143406,55.8173123,37.3244222
12,улица Циолковского,143406,55.8166366,37.3236165
14,улица Циолковского,143406,55.8159668,37.3227958
16,улица Циолковского,143406,55.8152425,37.3219670
1А,улица Циолковского,143406,55.8173970,37.3228761
34А,Железнодорожная улица,143406,55.8149045,37.3111710
7,улица 50 лет Октября,143406,55.8190549,37.3109790
5,улица 50 лет Октября,143406,55.8186987,37.3107037
3А,улица 50 лет Октября,143406,55.8182793,37.3098390
3,улица 50 лет Октября,143406,55.8179287,37.3095209
1А,улица 50 лет Октября,143406,55.8175753,37.3087814
22А,улица Райцентр,143405,55.8190730,37.3181662
20,Павшинский бульвар,143405,55.8157743,37.3678755
13,Красногорский бульвар,143405,55.8157685,37.3701141
11,Павшинский бульвар,143405,55.8193356,37.3706346
9,Ильинский бульвар,143405,55.8184670,37.3725865
5,Красногорский бульвар,143405,55.8171943,37.3637140
7,Красногорский бульвар,143405,55.8166249,37.3644197
9,Красногорский бульвар,143405,55.8160581,37.3651867
11,Красногорский бульвар,143405,55.8156234,37.3662377
4,Ильинский бульвар,143405,55.8176447,37.3665852
6,Подмосковный бульвар,143405,55.8199803,37.3676885
3,Ильинский бульвар,143405,55.8186578,37.3668195
12,Павшинский бульвар,143405,55.8194805,37.3693772
2,Ильинский бульвар,143405,55.8176226,37.3649177
2,Подмосковный бульвар,143405,55.8190305,37.3655201
4,Подмосковный бульвар,143405,55.8196552,37.3669225
1 к3,Спасская улица,143405,55.8261394,37.3708932
8,Ильинский бульвар,143405,55.8169168,37.3707131
19,Красногорский бульвар,143405,55.8210755,37.3745971
24,Успенская улица,143409,55.8312583,37.2929881
15,улица Братьев Горожанкиных,143409,55.8308823,37.2936646
5,Успенская улица,143409,55.8334193,37.2908992
7,улица Вилора Трифонова,143409,55.8324768,37.2878451
30В,улица Ленина,143409,55.8332154,37.2998485
3,улица Вилора Трифонова,143409,55.8334750,37.2865345
57,Северная улица,143444,55.8241721,37.2643484
55,Северная улица,143444,55.8246619,37.2638735
53,Северная улица,143444,55.8251657,37.2633840
51,Северная улица,143444,55.8256899,37.2628684
1,Полюсная улица,143444,55.8268183,37.2601293
39,Северная улица,143444,55.8268998,37.2594278
37/22,Северная улица,143444,55.8271443,37.2589672
3,Есенинская улица,143444,55.8244129,37.2542866
10,Павшинский бульвар,143405,55.8193637,37.3680638
28,Успенская улица,143409,55.8343877,37.2934530
32,Успенская улица,143409,55.8351248,37.2929880
23,улица Кирова,143403,55.8328363,37.3082729
35А,улица Ленина,143404,55.8295664,37.3081130
15,улица Мира,143444,55.8239203,37.2622463
18,Осенняя улица,143444,55.8264673,37.2640111
41/2,улица Опалиха,143444,55.8204907,37.2575198
24,улица Чкалова,143444,55.8276662,37.2593873
3,Полюсная улица,143444,55.8272834,37.2605841
11А,Светлая улица,143409,55.8303758,37.2804363
81,Черневская улица,143408,55.8362476,37.2878493
8,улица Вилора Трифонова,143409,55.8311304,37.2872404
5,Светлая улица,143409,55.8321079,37.2826645
1,Светлая улица,143409,55.8326078,37.2815839
8,Светлая улица,143409,55.8327180,37.2822491
6,Светлая улица,143409,55.8331582,37.2810664
7,Светлая улица,143409,55.8322559,37.2816801
1,улица Вилора Трифонова,143409,55.8341485,37.2848047
9,Светлая улица,143409,55.8336527,37.2819388
6,улица Вилора Трифонова,143409,55.8322531,37.2864968
3,Светлая улица,143409,55.8321488,37.2809720
4,улица Вилора Трифонова,143409,55.8331074,37.2853674
2,Светлая улица,143409,55.8317019,37.2830077
4,Светлая улица,143409,55.8317702,37.2822461
1,Ольховая улица,143444,55.8226806,37.2462779
1,Ольховая улица,143444,55.8233454,37.2454888
8,улица Бальмонта,143443,55.8385066,37.2301633
23,улица Ахматовой,143443,55.8391905,37.2310992
25,улица Мира,143444,55.8253189,37.2660276
19,улица Кирова,143403,55.8346694,37.3101087
21,улица Кирова,143403,55.8340271,37.3091286
2,улица Кирова,143403,55.8369340,37.3175607
3,улица Кирова,143403,55.8369092,37.3165917
7,улица Кирова,143403,55.8364603,37.3142129
7А,улица Кирова,143405,55.8356269,37.3138474
18,Павшинский бульвар,143405,55.8164931,37.3685445
6,Ильинский бульвар,143405,55.8166910,37.3667934
7,Ильинский бульвар,143405,55.8184799,37.3707972
8,Успенская улица,143409,55.8279826,37.2943877
16,Успенская улица,143409,55.8281942,37.2923049
6,Успенская улица,143409,55.8283535,37.2960126
4,Успенская улица,143409,55.8291214,37.2963975
15А,улица Ленина,143404,55.8270966,37.3168296
25А,улица Ленина,143404,55.8271431,37.3120302
14,Ильинское шоссе,143405,55.8046063,37.3235076
2,Павшинская улица,143405,55.8156227,37.3503578
18Б,Вокзальная улица,143405,55.8104666,37.3363664
1,Москворецкий бульвар,143405,55.8045805,37.3324485
2,Южный бульвар,143405,55.8074000,37.3256085
6,Южный бульвар,143405,55.8060294,37.3225922
25А,Вокзальная улица,143405,55.8140660,37.3448008
16,Ильинское шоссе,143405,55.8040875,37.3218699
4,Южный бульвар,143405,55.8067603,37.3240584
26,Заводская улица,143405,55.8107492,37.3238642
18,Ильинское шоссе,143405,55.8048025,37.3222638
37,Пролетарская улица,143405,55.8091627,37.3443805
136А,Центральная улица,143405,55.8091144,37.3461889
50,Центральная улица,143405,55.8111766,37.3566948
65,Центральная улица,143405,55.8089410,37.3511249
8,Центральная улица,143405,55.8117918,37.3614350
123,Центральная улица,143405,55.8073459,37.3462473
126,Центральная улица,143405,55.8091103,37.3479777
38,Центральная улица,143405,55.8115249,37.3584472
77,Центральная улица,143405,55.8088631,37.3496107
12,Центральная улица,143405,55.8118865,37.3610830
77Б,Центральная улица,143405,55.8085548,37.3498783
128,Центральная улица,143405,55.8089822,37.3475510
55,Центральная улица,143405,55.8093528,37.3516324
4,Центральная улица,143405,55.8116603,37.3619312
117,Центральная улица,143405,55.8075944,37.3473371
68В,Центральная улица,143405,55.8138558,37.3537662
93,Центральная улица,143405,55.8083132,37.3475078
7В,Центральная улица,143405,55.8104172,37.3611916
36,Центральная улица,143405,55.8126028,37.3567046
64,Центральная улица,143405,55.8111880,37.3553440
67,Центральная улица,143405,55.8091313,37.3503923
14Б,Центральная улица,143405,55.8124880,37.3610846
124,Центральная улица,143405,55.8093906,37.3477284
61,Центральная улица,143405,55.8093102,37.3511698
2А,Центральная улица,143405,55.8121625,37.3620696
132,Центральная улица,143405,55.8093058,37.3469264
12Б,Центральная улица,143405,55.8124272,37.3613136
75А,Центральная улица,143405,55.8086093,37.3503763
125,Центральная улица,143405,55.8071237,37.3456034
95А,Центральная улица,143405,55.8079507,37.3472717
7Г,Центральная улица,143405,55.8104290,37.3616251
63,Центральная улица,143405,55.8092325,37.3508477
15,Лесная улица,143401,55.8355778,37.3221147
20 к2,Речная улица,143402,55.8358631,37.3254857
17,Лесная улица,143401,55.8359896,37.3223935
13,Лесная улица,143401,55.8351485,37.3225418
9,Первомайская улица,143403,55.8329918,37.3273746
20 к4,Речная улица,143402,55.8362329,37.3239902
21,Вокзальная улица,143405,55.8140756,37.3420699
20,Вокзальная улица,143405,55.8143675,37.3416153
5,Причальная улица,143405,55.8145071,37.3528148
27А,Центральная улица,143405,55.8106173,37.3573300
3,Причальная улица,143405,55.8144019,37.3524586
33,Центральная улица,143405,55.8098569,37.3555798
1,Причальная улица,143405,55.8146603,37.3524749
6,Причальная улица,143405,55.8143432,37.3518409
1А,улица Королёва,143405,55.8092843,37.3234427
39,Вокзальная улица,143405,55.8118180,37.3255068
18А,Вокзальная улица,143405,55.8104251,37.3374569
101,Павшинская улица,143405,55.8094215,37.3402057
9,Ильинский тупик,143409,55.8085825,37.3165216
3,Ильинское шоссе,143405,55.8143825,37.3476222
1,Ильинское шоссе,143405,55.8148951,37.3486959
32,Центральная улица,143405,55.8121180,37.3587574
27,Центральная улица,143405,55.8106621,37.3576552
20,Центральная улица,143405,55.8119480,37.3600234
120,Центральная улица,143405,55.8093116,37.3487679
57,Центральная улица,143405,55.8091245,37.3515879
11,Центральная улица,143405,55.8117038,37.3593636
39,Причальная улица,143405,55.8115577,37.3534234
115,Центральная улица,143405,55.8076816,37.3476524
19,Центральная улица,143405,55.8111097,37.3590861
23,Центральная улица,143405,55.8105276,37.3587050
7Б,Центральная улица,143405,55.8103816,37.3607609
14,Центральная улица,143405,55.8118561,37.3605819
9,Центральная улица,143405,55.8116045,37.3597704
105,Центральная улица,143405,55.8078773,37.3452376
27А,Причальная улица,143405,55.8124556,37.3529273
87,Центральная улица,143405,55.8084289,37.3478188
25,Центральная улица,143405,55.8102813,37.3584587
73А,Центральная улица,143405,55.8084835,37.3506881
1А,Центральная улица,143405,55.8112832,37.3616169
89,Центральная улица,143405,55.8078093,37.3481508
17,Центральная улица,143405,55.8112475,37.3591251
19А,Центральная улица,143405,55.8109760,37.3597069
119,Центральная улица,143405,55.8076492,37.3469895
1,Центральная улица,143405,55.8115116,37.3603271
106,Центральная улица,143405,55.8096990,37.3505388
1Б,Центральная улица,143405,55.8114260,37.3607801
36,Центральная улица,143405,55.8123275,37.3583786
44А,Центральная улица,143405,55.8113027,37.3578751
24,Центральная улица,143405,55.8120233,37.3596450
135,Центральная улица,143405,55.8067534,37.3443374
42А,Центральная улица,143405,55.8116216,37.3580745
63Б,Центральная улица,143405,55.8117223,37.3555145
85,Центральная улица,143405,55.8085824,37.3482078
7А,Центральная улица,143405,55.8103945,37.3603897
101,Центральная улица,143405,55.8081460,37.3457532
80,Центральная улица,143405,55.8103802,37.3535584
42,Центральная улица,143405,55.8113468,37.3581901
15,Центральная улица,143405,55.8115323,37.3591152
31,Причальная улица,143405,55.8121567,37.3530817
26,Центральная улица,143405,55.8120173,37.3593658
99,Центральная улица,143405,55.8081593,37.3462660
129,Центральная улица,143405,55.8075394,37.3450145
26Б,Центральная улица,143405,55.8126283,37.3596249
18,Центральная улица,143405,55.8119155,37.3603065
44,Центральная улица,143405,55.8112965,37.3577035
137,Центральная улица,143405,55.8066633,37.3440210
81,Центральная улица,143405,55.8087881,37.3489065
24А,Центральная улица,143405,55.8126206,37.3598681
31,Центральная улица,143405,55.8101625,37.3558499
15А,Центральная улица,143405,55.8115099,37.3592682
25,Причальная улица,143405,55.8125735,37.3527286
83А,Центральная улица,143405,55.8081018,37.3490110
26А,Центральная улица,143405,55.8121956,37.3594434
97,Центральная улица,143405,55.8082632,37.3466868
121,Центральная улица,143405,55.8075712,37.3466983
75,Центральная улица,143405,55.8090614,37.3500312
21,Причальная улица,143405,55.8129973,37.3525626
62,Почтовая улица,143405,55.8209188,37.3445571
37А,Причальная улица,143405,55.8117762,37.3536664
13,Причальная улица,143405,55.8140189,37.3524113
35,Причальная улица,143405,55.8119737,37.3533990
23,Причальная улица,143405,55.8128102,37.3524142
37,Причальная улица,143405,55.8117084,37.3534688
8,Причальная улица,143405,55.8141521,37.3518213
12,Причальная улица,143405,55.8139121,37.3518354
29,Причальная улица,143405,55.8120897,37.3529553
11,Причальная улица,143405,55.8140977,37.3526342
33,Причальная улица,143405,55.8119635,37.3531588
18,Причальная улица,143405,55.8134601,37.3517049
20,Причальная улица,143405,55.8130321,37.3516594
16,Причальная улица,143405,55.8136698,37.3518143
17,Причальная улица,143405,55.8134462,37.3525591
23,Пролетарская улица,143405,55.8099630,37.3479468
96,Центральная улица,143405,55.8099835,37.3516053
31,Пролетарская улица,143405,55.8095225,37.3457511
27,Пролетарская улица,143405,55.8096473,37.3465921
21,Пролетарская улица,143405,55.8101337,37.3483976
37,Центральная улица,143405,55.8100865,37.3545636
13А,Пролетарская улица,143405,55.8104779,37.3494831
35,Пролетарская улица,143405,55.8093185,37.3450023
90,Центральная улица,143405,55.8101563,37.3525248
29,Пролетарская улица,143405,55.8096033,37.3462899
130,Центральная улица,143405,55.8089695,37.3471852
8А,Пролетарская улица,143405,55.8105022,37.3513879
114,Центральная улица,143405,55.8094842,37.3494731
10,Пролетарская улица,143405,55.8100132,37.3493097
47,Центральная улица,143405,55.8097373,37.3531002
134,Центральная улица,143405,55.8088750,37.3467385
45,Центральная улица,143405,55.8098658,37.3533635
82,Центральная улица,143405,55.8107924,37.3532448
53,Центральная улица,143405,55.8093944,37.3518797
138,Центральная улица,143405,55.8086135,37.3459809
17,Пролетарская улица,143405,55.8103285,37.3490103
142,Центральная улица,143405,55.8084822,37.3452647
51,Центральная улица,143405,55.8096084,37.3523136
76,Центральная улица,143405,55.8108365,37.3539338
136,Центральная улица,143405,55.8087364,37.3463493
118,Центральная улица,143405,55.8094427,37.3487897
1,Пролетарская улица,143405,55.8109290,37.3516925
84,Центральная улица,143405,55.8103527,37.3532180
27А,Пролетарская улица,143405,55.8097275,37.3469302
122,Центральная улица,143405,55.8091656,37.3482642
13,Пролетарская улица,143405,55.8106933,37.3499226
140,Центральная улица,143405,55.8087149,37.3456250
144,Центральная улица,143405,55.8084133,37.3449885
80А,Центральная улица,143405,55.8105368,37.3534081
116,Центральная улица,143405,55.8093558,37.3490077
66,Центральная улица,143405,55.8110084,37.3552408
35,Центральная улица,143405,55.8102045,37.3548754
39,Центральная улица,143405,55.8100204,37.3540866
110,Центральная улица,143405,55.8096171,37.3502201
41,Центральная улица,143405,55.8099637,37.3538270
60,Центральная улица,143405,55.8110722,37.3556263
7,Пролетарская улица,143405,55.8108759,37.3514143
19,Пролетарская улица,143405,55.8101455,37.3486018
49,Центральная улица,143405,55.8096585,37.3526610
88,Центральная улица,143405,55.8102101,37.3528351
70,Центральная улица,143405,55.8108779,37.3544706
94,Центральная улица,143405,55.8100455,37.3520256
102,Центральная улица,143405,55.8097563,37.3509121
86,Центральная улица,143405,55.8103095,37.3528266
58,Центральная улица,143405,55.8111081,37.3559250
2,Пролетарская улица,143405,55.8109255,37.3526859
100,Центральная улица,143405,55.8098782,37.3510166
62,Центральная улица,143405,55.8110266,37.3554403
1А,Пролетарская улица,143405,55.8112734,37.3519188
98,Центральная улица,143405,55.8098275,37.3513122
23А,улица Братьев Горожанкиных,143409,55.8325610,37.2945935
68Б,Центральная улица,143405,55.8135843,37.3540364
1,Школьная улица,143401,55.8204805,37.3379185
7,Ремесленная улица,143404,55.8290833,37.3085845
35,улица Ленина,143404,55.8294164,37.3093010
21А,улица Ленина,143404,55.8274211,37.3112742
7А,улица Ленина,143404,55.8246866,37.3158490
39,улица Ленина,143408,55.8325849,37.3036895
29,Заводская улица,143405,55.8088761,37.3249345
1А,Строительная улица,143405,55.8069615,37.3300723
3,Строительная улица,143405,55.8075997,37.3299205
12,Строительная улица,143405,55.8101896,37.3276755
10,Подмосковный бульвар,143405,55.8211320,37.3706584
42,Павшинский бульвар,143405,55.8120948,37.3661813
1 к1,Спасская улица,143405,55.8275874,37.3704101
1 к2,Спасская улица,143405,55.8269196,37.3694075
1А,Спасская улица,143405,55.8275600,37.3689680
39,Запрудная улица,143405,55.8160050,37.2537289
14,Первомайская улица,143401,55.8352687,37.3253129
4,улица Новая Опалиха,143443,55.8349958,37.2618240
31,Ново-Никольская улица,143405,55.8379143,37.2568776
8,улица Новая Опалиха,143443,55.8348929,37.2597431
23,улица Братьев Горожанкиных,143409,55.8326335,37.2937731
26,Успенская улица,143409,55.8329243,37.2930313
42,улица Ленина,143409,55.8347972,37.2964651
25,улица Братьев Горожанкиных,143409,55.8332849,37.2942203
44,улица Ленина,143409,55.8356130,37.2946154
26,улица Братьев Горожанкиных,143409,55.8334840,37.2952277
28,улица Братьев Горожанкиных,143409,55.8337992,37.2959961
30,улица Братьев Горожанкиных,143409,55.8335627,37.2967663
32,улица Братьев Горожанкиных,143409,55.8341501,37.2951207
24,улица Братьев Горожанкиных,143409,55.8332022,37.2961109
1,бульвар Космонавтов,143408,55.8342914,37.2713380
39Б,улица Ленина,143408,55.8326512,37.3030620
67А,улица Ленина,143408,55.8370220,37.2931126
4,улица Карбышева,143408,55.8383769,37.3069818
14,Лесная улица,143403,55.8359567,37.3189656
12,Лесная улица,143403,55.8357965,37.3202764
10,Лесная улица,143403,55.8352182,37.3210964
3А,улица Карбышева,143408,55.8351854,37.3034069
2А,улица Карбышева,143408,55.8348410,37.3080274
2,Крайняя улица,143408,55.8372444,37.2888126
2,Северная улица,143408,55.8373992,37.2911350
61,Черневская улица,143408,55.8370963,37.2911286
69,Черневская улица,143408,55.8366852,37.2898839
83,Черневская улица,143408,55.8360184,37.2876086
67,Черневская улица,143408,55.8368505,37.2904065
4,Северная улица,143408,55.8376792,37.2913515
63,Черневская улица,143408,55.8369629,37.2908273
38,улица Народного Ополчения,143403,55.8321310,37.3095137
33,улица Народного Ополчения,143403,55.8324919,37.3107221
34,улица Народного Ополчения,143403,55.8326916,37.3101444
31А,улица Народного Ополчения,143403,55.8333736,37.3097822
37,улица Народного Ополчения,143403,55.8321046,37.3103249
36,улица Народного Ополчения,143403,55.8329007,37.3094931
35,улица Народного Ополчения,143403,55.8325133,37.3090998
30,улица Народного Ополчения,143403,55.8334211,37.3107936
29,улица Народного Ополчения,143403,55.8337053,37.3110793
27,улица Народного Ополчения,143403,55.8342203,37.3107193
25,улица Народного Ополчения,143403,55.8340677,37.3111839
28,улица Народного Ополчения,143403,55.8334951,37.3117218
31,улица Народного Ополчения,143403,55.8331259,37.3104940
24,улица Народного Ополчения,143403,55.8339294,37.3116125
23,улица Народного Ополчения,143403,55.8337854,37.3120141
32,улица Народного Ополчения,143403,55.8329230,37.3111218
62,улица Ленина,143409,55.8350581,37.2864161
61А,Черневская улица,143408,55.8373756,37.2900872
50,улица Ленина,143408,55.8363963,37.2922841
2Б,улица Братьев Горожанкиных,143409,55.8307940,37.2992324
2А,улица Братьев Горожанкиных,143409,55.8301330,37.3000261
10,Крайняя улица,143408,55.8367006,37.2870486
7,Крайняя улица,143408,55.8370984,37.2868308
5,Крайняя улица,143408,55.8372102,37.2871645
8,Крайняя улица,143408,55.8367994,37.2872943
6,Крайняя улица,143408,55.8368960,37.2876357
1,Крайняя улица,143408,55.8374382,37.2878364
4,Крайняя улица,143408,55.8371534,37.2882665
3,Крайняя улица,143408,55.8374245,37.2872551
11,Крайняя улица,143408,55.8363512,37.2860175
77,Черневская улица,143408,55.8364605,37.2886315
75,Черневская улица,143408,55.8365178,37.2889171
79,Черневская улица,143408,55.8363252,37.2883000
85,Черневская улица,143408,55.8359333,37.2872373
87,Черневская улица,143408,55.8359923,37.2868536
89А,Черневская улица,143408,55.8360883,37.2862111
91,Черневская улица,143408,55.8358532,37.2859377
95,Черневская улица,143408,55.8357237,37.2849742
11,Аннинская улица,143444,55.8347800,37.2789095
3,Аннинская улица,143444,55.8340803,37.2798205
6,Аннинская улица,143444,55.8337777,37.2783129
12,Аннинская улица,143444,55.8349056,37.2798360
9,Аннинская улица,143444,55.8336414,37.2772066
7,Аннинская улица,143444,55.8339138,37.2777910
5А,Аннинская улица,143444,55.8338876,37.2787153
8,Аннинская улица,143444,55.8336165,37.2775341
4,Аннинская улица,143444,55.8338981,37.2793620
2,Аннинская улица,143444,55.8341061,37.2802578
20 к3,Речная улица,143402,55.8361153,37.3246244
17А,улица Ленина,143404,55.8270735,37.3147781
19Б,Октябрьская улица,143407,55.8307165,37.3291720
12,Луговая улица,143443,55.8341656,37.2443061
14,Луговая улица,143443,55.8342856,37.2439252
18,Луговая улица,143443,55.8345641,37.2430243
19,улица Красная Горка,143404,55.8196960,37.3245906
20,улица Красная Горка,143404,55.8196748,37.3236096
21,улица Красная Горка,143404,55.8197296,37.3232940
22,улица Красная Горка,143404,55.8198222,37.3229767
7,улица Красная Горка,143404,55.8201920,37.3267571
9,Оптический проезд,143401,55.8247990,37.3437361
13,Оптический проезд,143401,55.8245250,37.3451069
8А,Первомайская улица,143402,55.8335083,37.3291459
13,улица Циолковского,143406,55.8166137,37.3246649
7,улица Жуковского,143402,55.8155323,37.3246772
61 к2,улица Ленина,143408,55.8370739,37.2969255
3А,Строительная улица,143405,55.8073882,37.3306108
22 к2,улица Райцентр,143405,55.8186957,37.3179435
6,Северная улица,143408,55.8377561,37.2916242
33,Пролетарская улица,143405,55.8094138,37.3453629
136А,Центральная улица,143405,55.8086519,37.3461365
12,Пролетарская улица,143405,55.8098416,37.3486972
103,Центральная улица,143405,55.8076200,37.3456748
1,улица Игоря Мерлушкина,143408,55.8343036,37.2693419
3,улица Игоря Мерлушкина,143408,55.8348284,37.2688617
2,бульвар Космонавтов,143408,55.8341127,37.2734684
6,бульвар Космонавтов,143408,55.8343874,37.2767920
4,бульвар Космонавтов,143408,55.8341859,37.2750321
1А,улица Вилора Трифонова,143409,55.8335185,37.2849770
11,Пролетарская улица,143405,55.8105057,37.3502933
9,Пролетарская улица,143405,55.8108033,37.3508838
4,Причальная улица,143405,55.8146591,37.3519471
18А,Причальная улица,143405,55.8133916,37.3512286
7,Причальная улица,143405,55.8143550,37.3528022
68А,Центральная улица,143405,55.8126149,37.3549625
108,Центральная улица,143405,55.8097007,37.3502975
112,Центральная улица,143405,55.8095625,37.3497888
4,Пролетарская улица,143405,55.8108745,37.3524816
92,Центральная улица,143405,55.8102315,37.3524762
83,Центральная улица,143405,55.8083356,37.3489806
79,Центральная улица,143405,55.8088751,37.3492118
85А,Центральная улица,143405,55.8080434,37.3488032
73,Центральная улица,143405,55.8090759,37.3501476
59,Центральная улица,143405,55.8089112,37.3519134
29,Центральная улица,143405,55.8106522,37.3568463
68,Центральная улица,143405,55.8110770,37.3546865
72,Центральная улица,143405,55.8113538,37.3541427
52,Центральная улица,143405,55.8113071,37.3566654
54,Центральная улица,143405,55.8111652,37.3562170
46,Центральная улица,143405,55.8112924,37.3574152
48,Центральная улица,143405,55.8112210,37.3569495
3,Центральная улица,143405,55.8143069,37.3562016
8,Авангардная улица,143405,55.8131577,37.3611269
2,Авангардная улица,143405,55.8141193,37.3581787
6,Авангардная улица,143405,55.8134220,37.3601152
4,Авангардная улица,143405,55.8137254,37.3590705
2,Молодёжная улица,143405,55.8148224,37.3575854
5,Центральная улица,143405,55.8109848,37.3601204
21,Центральная улица,143405,55.8107215,37.3587905
7,Центральная улица,143405,55.8104553,37.3596139
33,улица Ленина,143404,55.8293235,37.3104900
1,Советская улица,143407,55.8315783,37.3292786
14/2,Центральная улица,143405,55.8118642,37.3607296
18/2,Центральная улица,143405,55.8119018,37.3604220
28,Центральная улица,143405,55.8121180,37.3591030
12А,Центральная улица,143405,55.8117991,37.3610125
10,Центральная улица,143405,55.8118176,37.3613139
4А,Успенская улица,143409,55.8287429,37.2974731
12,Успенская улица,143409,55.8278440,37.2932640
2,улица Братьев Горожанкиных,143409,55.8302370,37.2994822
2/37 с1,улица 50 лет Октября,143406,55.8143573,37.3061692
3 с1,Волоколамское шоссе,143402,55.8191029,37.3383149
20А,Центральная улица,143405,55.8126177,37.3602267
22,Центральная улица,143405,55.8119980,37.3597465
22А,Центральная улица,143405,55.8126046,37.3599856
30А,Центральная улица,143405,55.8126753,37.3593654
61,улица Папанина,143444,55.8219712,37.2619009
59,улица Папанина,143444,55.8221892,37.2617522
63/1,улица Папанина,143444,55.8217697,37.2619708
51/1,улица Папанина,143444,55.8243820,37.2600963
20,Арктическая улица,143444,55.8300093,37.2543789
11,Арктическая улица,143444,55.8307859,37.2526510
43/55,Арктическая улица,143444,55.8293488,37.2598280
21,Арктическая улица,143444,55.8303443,37.2548763
39,Арктическая улица,143444,55.8295108,37.2590029
34,Арктическая улица,143444,55.8291672,37.2587257
41,Арктическая улица,143444,55.8294310,37.2593903
42,Арктическая улица,143444,55.8285232,37.2617258
19,Арктическая улица,143444,55.8304330,37.2544124
37,Арктическая улица,143444,55.8296346,37.2585829
35,Арктическая улица,143444,55.8296828,37.2581318
16,Арктическая улица,143444,55.8301675,37.2536022
51,Арктическая улица,143444,55.8289018,37.2619504
27/33,Арктическая улица,143444,55.8300646,37.2562403
18,Арктическая улица,143444,55.8300593,37.2540412
11А,Большевистская улица,143444,55.8275281,37.2644405
17,Арктическая улица,143444,55.8304722,37.2540558
33,Арктическая улица,143444,55.8297317,37.2577153
28/34,Арктическая улица,143444,55.8294665,37.2570302
31,Арктическая улица,143444,55.8298213,37.2573253
50,Арктическая улица,143444,55.8279074,37.2633828
40/6,Арктическая улица,143444,55.8286373,37.2608681
13,Арктическая улица,143444,55.8306963,37.2531017
24А,Арктическая улица,143444,55.8297721,37.2555624
59,Арктическая улица,143444,55.8279512,37.2649851
14,Арктическая улица,143444,55.8302328,37.2532576
47,Арктическая улица,143444,55.8291295,37.2610449
29/36,Арктическая улица,143444,55.8299365,37.2568730
49,Арктическая улица,143444,55.8290241,37.2615437
12,Арктическая улица,143444,55.8303341,37.2528262
24,Арктическая улица,143444,55.8298826,37.2551777
15,Арктическая улица,143444,55.8305768,37.2536224
38,Арктическая улица,143444,55.8287866,37.2601979
26/31,Арктическая улица,143444,55.8297017,37.2559531
8/39,Арктическая улица,143444,55.8305437,37.2514767
23,Арктическая улица,143444,55.8302617,37.2553486
46/2,улица Чапаева,143444,55.8304460,37.2521827
36/53,Арктическая улица,143444,55.8289828,37.2595668
25,Арктическая улица,143444,55.8301520,37.2557832
44,Арктическая улица,143444,55.8283546,37.2623914
45/32,Арктическая улица,143444,55.8292089,37.2605197
22,Арктическая улица,143444,55.8299538,37.2547667
12,Есенинская улица,143444,55.8242877,37.2516069
16/11,Есенинская улица,143444,55.8243828,37.2525294
16,улица Братьев Горожанкиных,143409,55.8315849,37.2955920
34А,улица Ленина,143409,55.8333569,37.2991706
30,улица Ленина,143409,55.8322728,37.3008286
8,улица Братьев Горожанкиных,143409,55.8295397,37.2977418
36,Есенинская улица,143444,55.8203467,37.2601265
6/1,Малая Комсомольская улица,143444,55.8194472,37.2606026
38,Есенинская улица,143444,55.8202059,37.2604166
6,Рыночный тупик,143444,55.8205894,37.2586689
53,улица Опалиха,143444,55.8193543,37.2590134
6,Рыночный переулок,143444,55.8208735,37.2583712
51,улица Опалиха,143444,55.8195442,37.2587659
12,Рыночный переулок,143444,55.8211613,37.2589722
5,переулок Октябрят,143444,55.8189936,37.2611124
4,Рыночный переулок,143444,55.8207111,37.2580515
12,Рыночный тупик,143444,55.8201890,37.2589772
45,улица Опалиха,143444,55.8201071,37.2578400
47,улица Опалиха,143444,55.8199142,37.2581823
55,улица Опалиха,143444,55.8190077,37.2594754
4,переулок Октябрят,143444,55.8190853,37.2603048
34,Есенинская улица,143444,55.8205510,37.2599082
61,улица Опалиха,143444,55.8183335,37.2604336
57,улица Опалиха,143444,55.8188265,37.2597387
48/7,Есенинская улица,143444,55.8189598,37.2620196
8,Рыночный тупик,143444,55.8207459,37.2589772
1,Малая Комсомольская улица,143444,55.8197001,37.2593212
4,Рыночный тупик,143444,55.8204380,37.2583551
5,улица Герцена,143444,55.8187345,37.2613765
46,Есенинская улица,143444,55.8192331,37.2617049
32,Есенинская улица,143444,55.8209765,37.2592370
3,улица Герцена,143444,55.8185615,37.2609643
43,улица Опалиха,143444,55.8202760,37.2577504
3,Малая Комсомольская улица,143444,55.8197900,37.2600262
4/2,Малая Комсомольская улица,143444,55.8192695,37.2599910
40/5,Есенинская улица,143444,55.8200037,37.2606113
3,переулок Октябрят,143444,55.8192391,37.2608660
6,переулок Октябрят,143444,55.8188217,37.2606959
42/8,Есенинская улица,143444,55.8196771,37.2610552
8,Рыночный переулок,143444,55.8210164,37.2586400
1А,Малая Комсомольская улица,143444,55.8198606,37.2590480
59,улица Опалиха,143444,55.8185227,37.2601762
49,улица Опалиха,143444,55.8197200,37.2585201
3,Рыночный тупик,143444,55.8204799,37.2591372
13/1,Опалиховский переулок,143443,55.8330123,37.2631528
8 к4,Опалиховский переулок,143443,55.8334136,37.2651036
7,Рыночный переулок,143444,55.8211268,37.2578630
9,улица Огарёва,143444,55.8176286,37.2629764
21,Есенинская улица,143444,55.8216376,37.2593588
7,улица Огарёва,143444,55.8178549,37.2627173
29,Есенинская улица,143444,55.8210809,37.2600267
19,Есенинская улица,143444,55.8218446,37.2591006
25,Есенинская улица,143444,55.8213317,37.2597161
54,Есенинская улица,143444,55.8182730,37.2626753
14,улица Огарёва,143444,55.8169957,37.2630620
8,улица Огарёва,143444,55.8176404,37.2622144
50/8,Есенинская улица,143444,55.8187209,37.2623857
30/13,Есенинская улица,143444,55.8215102,37.2586862
2/4,улица Огарёва,143444,55.8182776,37.2613281
58,Есенинская улица,143444,55.8178585,37.2635230
35,улица Опалиха,143444,55.8211760,37.2563437
6,улица Огарёва,143444,55.8178486,37.2619625
15/5,улица Огарёва,143444,55.8170300,37.2639805
11,Рыночный переулок,143444,55.8214100,37.2584852
78,улица Папанина,143444,55.8217440,37.2612596
62,Есенинская улица,143444,55.8174077,37.2640786
76,улица Папанина,143444,55.8219221,37.2611309
84,улица Папанина,143444,55.8212755,37.2615999
86,улица Папанина,143444,55.8210768,37.2616715
35,Есенинская улица,143444,55.8206845,37.2605363
88,улица Папанина,143444,55.8208695,37.2617335
39/7,Есенинская улица,143444,55.8202785,37.2612034
75,улица Опалиха,143444,55.8167837,37.2625620
33,Есенинская улица,143444,55.8208697,37.2603234
71,улица Опалиха,143444,55.8172011,37.2619329
37,Есенинская улица,143444,55.8205547,37.2607723
77,улица Опалиха,143444,55.8165650,37.2628370
66,Есенинская улица,143444,55.8167843,37.2649490
73,улица Опалиха,143444,55.8169806,37.2622580
3,Рыночный переулок,143444,55.8208858,37.2572779
37,улица Опалиха,143444,55.8210890,37.2566073
1/6,улица Огарёва,143444,55.8184702,37.2618102
39,улица Опалиха,143444,55.8207569,37.2570136
5,Рыночный переулок,143444,55.8212244,37.2573949
5,улица Огарёва,143444,55.8180417,37.2623643
12,улица Огарёва,143444,55.8172042,37.2627770
16/3,улица Огарёва,143444,55.8167710,37.2633761
3,улица Огарёва,143444,55.8182683,37.2620491
10,улица Огарёва,143444,55.8173810,37.2624215
4,улица Огарёва,143444,55.8180783,37.2616007
72,улица Папанина,143444,55.8221591,37.2609827
9,Малая Комсомольская улица,143444,55.8204214,37.2615158
64/7,Есенинская улица,143444,55.8171862,37.2644068
63,улица Опалиха,143444,55.8180356,37.2608055
69,улица Опалиха,143444,55.8174090,37.2616465
13,улица Огарёва,143444,55.8171967,37.2635627
9,Рыночный переулок,143444,55.8212661,37.2581443
90/11,улица Папанина,143444,55.8205372,37.2620278
11,улица Огарёва,143444,55.8174180,37.2632296
63А,Черневская улица,143408,55.8372268,37.2902930
71,Черневская улица,143408,55.8366302,37.2896757
73,Черневская улица,143408,55.8366938,37.2893775
3,бульвар Космонавтов,143408,55.8350086,37.2734635
89,Черневская улица,143408,55.8358937,37.2864037
93,Черневская улица,143408,55.8357284,37.2855452
9,Крайняя улица,143408,55.8369613,37.2865754
48,улица Ленина,143408,55.8363279,37.2927877
52,улица Ленина,143408,55.8365187,37.2919838
10,Красногорский бульвар,143405,55.8143545,37.3695512
6 к2,Опалиховский переулок,143443,55.8333788,37.2640258
19 к7,Опалиховский переулок,143443,55.8329062,37.2600370
4 к2,Опалиховский переулок,143443,55.8336092,37.2630922
9 к1,улица Ивана Бунина,143443,55.8466681,37.2482162
5 к1,улица Ивана Бунина,143443,55.8468019,37.2458876
8 к1,улица Александра Блока,143443,55.8461072,37.2489358
7 к1,улица Ивана Бунина,143443,55.8468121,37.2469700
14 к1,улица Александра Блока,143443,55.8457030,37.2465137
6 к1,улица Александра Блока,143443,55.8454685,37.2496336
1,улица Александра Блока,143443,55.8451012,37.2512181
11 к1,улица Александра Блока,143443,55.8453186,37.2460480
12 к8,улица Александра Блока,143443,55.8455469,37.2471956
10 к1,улица Александра Блока,143443,55.8454639,37.2482046
11 к1,улица Ивана Бунина,143443,55.8465475,37.2487797
2 к1,улица Ивана Бунина,143443,55.8463162,37.2461562
3 к1,улица Ивана Бунина,143443,55.8461525,37.2450897
9,улица Александра Блока,143443,55.8450358,37.2479677
3,улица Александра Блока,143443,55.8450471,37.2500419
5,улица Александра Блока,143443,55.8450435,37.2493841
7,улица Александра Блока,143443,55.8450394,37.2486301
49,Луговая улица,143443,55.8373865,37.2440546
16,улица Новая Опалиха,143443,55.8342385,37.2564560
5,Опалиховский переулок,143443,55.8338392,37.2648380
33,Северная улица,143444,55.8273490,37.2575722
45,Северная улица,143444,55.8265208,37.2613147
17А,Вокзальная улица,143405,55.8136727,37.3391234
31А с1,улица Народного Ополчения,143403,55.8338795,37.3102910
1,улица Кирова,143403,55.8365453,37.3182859
6,Октябрьская улица,143407,55.8232742,37.3353372
10,Пионерская улица,143407,55.8240211,37.3333420
8,Пионерская улица,143407,55.8232101,37.3341327
20,Луговая улица,143443,55.8355701,37.2410882
1,Луговая улица,143444,55.8352572,37.2415081
22,Луговая улица,143443,55.8358573,37.2405629
4,Вишнёвый бульвар,143443,55.8350111,37.2432769
15,Луговая улица,143443,55.8347186,37.2440252
3,Вишнёвый бульвар,143443,55.8357513,37.2417751
5,Вишнёвый бульвар,143443,55.8359710,37.2422612
18/5,Вишнёвый переулок,143443,55.8362858,37.2421645
4,Дачный переулок,143443,55.8350178,37.2445295
8,Вишнёвый бульвар,143443,55.8353413,37.2439245
2,Дачный переулок,143443,55.8351311,37.2441190
1А,Малиновая улица,143443,55.8363502,37.2416891
1,Малиновая улица,143443,55.8363238,37.2411283
3,Малиновая улица,143443,55.8363131,37.2406730
5,Малиновая улица,143443,55.8363664,37.2403004
6,Малиновая улица,143443,55.8367299,37.2402731
2,Малиновая улица,143443,55.8367096,37.2419332
8,Малиновая улица,143443,55.8367378,37.2396044
4,Сиреневый проезд,143443,55.8372662,37.2384871
51,Озёрная улица,143443,55.8378237,37.2416272
53,Озёрная улица,143443,55.8378506,37.2412231
55,Озёрная улица,143443,55.8378938,37.2407642
57,Озёрная улица,143443,55.8379362,37.2403126
59,Озёрная улица,143443,55.8379276,37.2399056
61,Озёрная улица,143443,55.8379501,37.2395126
63,Озёрная улица,143443,55.8379544,37.2390679
65,Озёрная улица,143443,55.8379688,37.2387340
67,Озёрная улица,143443,55.8379423,37.2384342
6,Сиреневый проезд,143443,55.8374900,37.2384563
13,Малиновая улица,143443,55.8364414,37.2386958
15,Малиновая улица,143443,55.8364306,37.2382893
23,Малиновая улица,143443,55.8362390,37.2367152
27,Малиновая улица,143443,55.8364870,37.2359229
29,Малиновая улица,143443,55.8364966,37.2355348
31,Малиновая улица,143443,55.8364892,37.2351535
37,Малиновая улица,143443,55.8364651,37.2339105
33,Малиновая улица,143443,55.8364438,37.2344704
5,Сиреневая улица,143443,55.8374117,37.2370573
11А,Сиреневая улица,143443,55.8374352,37.2359338
11,Сиреневая улица,143443,55.8374259,37.2356006
16,Сиреневая улица,143443,55.8380217,37.2350679
18,Сиреневая улица,143443,55.8380344,37.2346055
13,Сиреневая улица,143443,55.8374323,37.2348044
32,Малиновая улица,143443,55.8370491,37.2337875
9,Сиреневая улица,143443,55.8374163,37.2362477
7,Сиреневая улица,143443,55.8373870,37.2366019
15,Сиреневая улица,143443,55.8374405,37.2341991
17,Сиреневая улица,143443,55.8374527,37.2338432
19,Сиреневая улица,143443,55.8373169,37.2333535
34,Малиновая улица,143443,55.8370158,37.2330708
3,Сиреневая улица,143443,55.8373990,37.2374317
1,Сиреневая улица,143443,55.8373657,37.2378851
3,1-й Малиновый переулок,143443,55.8372628,37.2396355
3,Большевистская улица,143444,55.8278212,37.2625170
5,Большевистская улица,143444,55.8276893,37.2628408
7,Большевистская улица,143444,55.8276292,37.2633145
1,Большевистская улица,143444,55.8278952,37.2619777
1А,улица Народного Ополчения,143404,55.8362077,37.3171359
1,улица Новая Опалиха,143443,55.8342321,37.2612314
2 с1,улица 50 лет Октября,143406,55.8144966,37.3057390
2/37 с2,улица 50 лет Октября,143406,55.8143687,37.3055334
28,Красногорский бульвар,143405,55.8218320,37.3769951
16,Красногорский бульвар,143401,55.8162341,37.3730956
1,улица Игоря Мерлушкина,143409,55.8337782,37.2701570
71/13,улица Папанина,143444,55.8207544,37.2626923
15,Малая Комсомольская улица,Пионерский пер,55.8208791,37.2632486
17,Малая Комсомольская улица,Пионерский пер,55.8210280,37.2637193
19,Малая Комсомольская улица,Пионерский пер,55.8210782,37.2640078
21,Малая Комсомольская улица,143444,55.8211899,37.2645507
9,бульвар Космонавтов,143408,55.8358898,37.2789848
26,Красногорский бульвар,143405,55.8208804,37.3771682
32,Красногорский бульвар,143405,55.8223129,37.3771291
36,Красногорский бульвар,143405,55.8237196,37.3774229
10,улица Труда,143444,55.8176188,37.2666773
114,улица Папанина,143444,55.8180040,37.2654408
116/11,улица Папанина,143444,55.8177671,37.2656782
12,улица Труда,143444,55.8177771,37.2669894
2,Красногорская улица,143444,55.8168388,37.2666060
3,Красногорская улица,143444,55.8170750,37.2668648
4,Красногорская улица,143444,55.8172871,37.2670837
5,Красногорская улица,143444,55.8176383,37.2673130
6,улица Труда,143444,55.8172953,37.2659442
63,Есенинская улица,143444,55.8176406,37.2646252
65/9,Есенинская улица,143444,55.8174734,37.2650499
67/4,Есенинская улица,143444,55.8170774,37.2653548
68,Есенинская улица,143444,55.8163482,37.2652770
69,Есенинская улица,143444,55.8169141,37.2656071
71,Есенинская улица,143444,55.8166840,37.2659940
73/1,Есенинская улица,143444,55.8164368,37.2663288
8,улица Труда,143444,55.8174566,37.2662359
8,Зеркальная набережная,143443,55.8357259,37.2282315
10,Зеркальная набережная,143443,55.8355559,37.2272271
3,Зеркальная набережная,143443,55.8351664,37.2262824
1,Якорная улица,143443,55.8369850,37.2298559
1,Зеркальная набережная,143443,55.8365991,37.2299034
2,Якорная улица,143443,55.8367121,37.2305290
1,улица Красная Горка,143404,55.8194770,37.3277419
110А,улица Папанина,143444,55.8183297,37.2649381
110,улица Папанина,143444,55.8183779,37.2648288
106А,улица Папанина,143444,55.8188134,37.2643745
106,улица Папанина,143444,55.8189110,37.2642249
112А,улица Папанина,143444,55.8181625,37.2651977
112,улица Папанина,143444,55.8182254,37.2651441
104,улица Папанина,143444,55.8190967,37.2639193
108А,улица Папанина,143444,55.8186064,37.2646682
108,улица Папанина,143444,55.8186992,37.2645266
102А,улица Папанина,143444,55.8192133,37.2636897
102,улица Папанина,143444,55.8193381,37.2636260
10,Пионерский переулок,143444,55.8217936,37.2639820
12,Пионерский переулок,143444,55.8214302,37.2643709
3,Пионерский переулок,143444,55.8218588,37.2627119
4,Пионерский переулок,143444,55.8215553,37.2629128
5,Пионерский переулок,143444,55.8219637,37.2630385
6,Пионерский переулок,143444,55.8216326,37.2632533
65,улица Папанина,143444,55.8214508,37.2622246
67,улица Папанина,143444,55.8212147,37.2623313
69,улица Папанина,143444,55.8209939,37.2625364
7,Пионерский переулок,143444,55.8220515,37.2634187
8,Пионерский переулок,143444,55.8217245,37.2636455
9,Пионерский переулок,143444,55.8221625,37.2638425
75,улица Папанина,143444,55.8202401,37.2632840
73/14,улица Папанина,143444,55.8204754,37.2630322
2,Школьный переулок,143444,55.8226809,37.2627935
4,Школьный переулок,143444,55.8224688,37.2625527
6,Школьный переулок,143444,55.8223931,37.2630208
77/13,улица Папанина,143444,55.8200803,37.2640545
14А,улица Герцена,143444,55.8195935,37.2644949
16,Малая Комсомольская улица,143444,55.8206487,37.2640637
16,улица Герцена,143444,55.8196644,37.2651882
18,Малая Комсомольская улица,143444,55.8207491,37.2644549
79/14,улица Папанина,143444,55.8195113,37.2642008
81,улица Папанина,143444,55.8193440,37.2652803
83,улица Папанина,143444,55.8191974,37.2658324
85,улица Папанина,143444,55.8186613,37.2652756
87,улица Папанина,143444,55.8183032,37.2658738
87А,улица Папанина,143444,55.8186834,37.2666263
89/13,улица Папанина,143444,55.8182907,37.2668558
15,улица Герцена,143444,55.8201988,37.2647205
17,улица Герцена,143444,55.8202628,37.2650604
82,улица Папанина,143444,55.8215268,37.2614352
70,улица Папанина,143444,55.8222921,37.2609152
74,улица Папанина,143444,55.8220392,37.2610616
41/10,Есенинская улица,143444,55.8199363,37.2615759
98,улица Папанина,143444,55.8197023,37.2630464
100,улица Папанина,143444,55.8195492,37.2632789
47,Есенинская улица,143444,55.8194153,37.2622164
49/9,Есенинская улица,143444,55.8193150,37.2626188
96,улица Папанина,143444,55.8198879,37.2627918
43,Есенинская улица,143444,55.8197767,37.2617590
94,улица Папанина,143444,55.8199903,37.2622291
92/12,улица Папанина,143444,55.8202515,37.2623045
45,Есенинская улица,143444,55.8195986,37.2620582
23,Есенинская улица,143444,55.8215024,37.2594765
27,Есенинская улица,143444,55.8213230,37.2601192
31,Есенинская улица,143444,55.8210109,37.2603862
51/10,Есенинская улица,143444,55.8189223,37.2628982
55,Есенинская улица,143444,55.8185004,37.2634695
57,Есенинская улица,143444,55.8182901,37.2637515
59,Есенинская улица,143444,55.8180536,37.2640345
61,Есенинская улица,143444,55.8178464,37.2644052
53,Есенинская улица,143444,55.8187107,37.2631657
44,Есенинская улица,143444,55.8194202,37.2613802
52,Есенинская улица,143444,55.8184531,37.2626853
56,Есенинская улица,143444,55.8180498,37.2632003
60,Есенинская улица,143444,55.8174770,37.2636945
52Б,Ново-Никольская улица,143443,55.8402605,37.2520999
2В,Ново-Никольская улица,143443,55.8361765,37.2644631
6,улица Игоря Мерлушкина,143443,55.8360649,37.2683736
8,улица Игоря Мерлушкина,143443,55.8365649,37.2672835
12,улица Игоря Мерлушкина,143443,55.8372846,37.2651348
19В,Вокзальная улица,143405,55.8131510,37.3349020
6А,улица Зверева,143405,55.8225032,37.3640379
1,Школьный переулок,143444,55.8228310,37.2633807
1,Южный переулок,143444,55.8238775,37.2656497
10,Осенняя улица,143444,55.8253089,37.2616939
12,Осенняя улица,143444,55.8254429,37.2619085
14/62,Осенняя улица,143444,55.8255879,37.2620401
2,Осенняя улица,143444,55.8244342,37.2607622
29А,улица Мира,143444,55.8246412,37.2684762
3,Южный переулок,143444,55.8236179,37.2658209
30А,улица Мира,143444,55.8244595,37.2686609
31А,улица Мира,143444,55.8241870,37.2690666
4,Осенняя улица,143444,55.8247791,37.2607638
4,Южный переулок,143444,55.8234990,37.2653834
5,Школьный переулок,143444,55.8225291,37.2637105
5,Южный переулок,143444,55.8233577,37.2660044
54,улица Папанина,143444,55.8245408,37.2581130
56,улица Папанина,143444,55.8244388,37.2584483
58,улица Папанина,143444,55.8243540,37.2588102
6,Осенняя улица,143444,55.8249657,37.2610630
6,Южный переулок,143444,55.8231528,37.2654742
60,улица Папанина,143444,55.8242693,37.2591950
61,Северная улица,143444,55.8232981,37.2647082
63,Северная улица,143444,55.8229930,37.2649957
64,Северная улица,143444,55.8252040,37.2626566
64/1,Северная улица,143444,55.8253685,37.2623663
65,Северная улица,143444,55.8227780,37.2650743
66,Северная улица,143444,55.8250671,37.2626485
68,Северная улица,143444,55.8249136,37.2628426
7,Южный переулок,143444,55.8231394,37.2663313
70,Северная улица,143444,55.8247560,37.2629188
72,Северная улица,143444,55.8246236,37.2630387
76,Северная улица,143444,55.8243791,37.2633272
78,Северная улица,143444,55.8242342,37.2634290
8,Осенняя улица,143444,55.8251356,37.2613731
8,Южный переулок,143444,55.8230023,37.2657084
82,Северная улица,143444,55.8231260,37.2642181
84,Северная улица,143444,55.8228823,37.2643636
86,Северная улица,143444,55.8226571,37.2645717
74,Северная улица,143444,55.8244791,37.2630749
88,Северная улица,143444,55.8222394,37.2643775
13,бульвар Космонавтов,143408,55.8367420,37.2825938
11,бульвар Космонавтов,143408,55.8363219,37.2807147
6 с1,улица Игоря Мерлушкина,143443,55.8356239,37.2685534
5,Авангардная улица,143405,55.8134809,37.3628355
11,Большевистская улица,143444,55.8272924,37.2641658
57,Арктическая улица,143444,55.8281510,37.2642034
53,Арктическая улица,143444,55.8285183,37.2631821
55,Арктическая улица,143444,55.8283535,37.2636290
13,Полярная улица,143444,55.8295409,37.2530260
15,Полярная улица,143444,55.8294617,37.2533995
17,Полярная улица,143444,55.8293786,37.2537949
19,Полярная улица,143444,55.8293058,37.2541813
25/25,Полярная улица,143444,55.8290078,37.2556709
23,Полярная улица,143444,55.8291491,37.2549523
21,Полярная улица,143444,55.8294005,37.2547193
32,Арктическая улица,143444,55.8291392,37.2580947
29,Полярная улица,143444,55.8288050,37.2571506
31,Полярная улица,143444,55.8286192,37.2575221
33,Полярная улица,143444,55.8285654,37.2579190
35,Полярная улица,143444,55.8285062,37.2583140
27/28,Полярная улица,143444,55.8288979,37.2563479
30,Арктическая улица,143444,55.8293951,37.2575370
49,улица Чкалова,143444,55.8286162,37.2592309
51,улица Чкалова,143444,55.8287852,37.2594218
3,Тихий переулок,143444,55.8282648,37.2603296
1,Тихий переулок,143444,55.8278828,37.2603585
4,Тихий переулок,143444,55.8282411,37.2608640
2,Тихий переулок,143444,55.8279280,37.2609021
46,Арктическая улица,143444,55.8282516,37.2628677
9,Большевистская улица,143444,55.8274787,37.2639687
16А,Полюсная улица,143444,55.8281036,37.2621133
16,Полюсная улица,143444,55.8281966,37.2622038
48,Арктическая улица,143444,55.8281232,37.2631741
52,Арктическая улица,143444,55.8278630,37.2640249
54,Арктическая улица,143444,55.8277340,37.2643955
10,Авангардная улица,143405,55.8128062,37.3621879
47,улица Чкалова,143444,55.8284011,37.2587130
14,Полярная улица,143444,55.8291445,37.2529134
11,Полярная улица,143444,55.8298642,37.2521166
16,Полярная улица,143444,55.8290624,37.2533653
18,Полярная улица,143444,55.8289734,37.2537562
20,Полярная улица,143444,55.8288692,37.2541808
22,Полярная улица,143444,55.8288093,37.2545348
24,Полярная улица,143444,55.8287532,37.2548683
26/23,Полярная улица,143444,55.8286347,37.2555287
30,Полярная улица,143444,55.8283751,37.2568907
32,Полярная улица,143444,55.8283049,37.2573094
34,Полярная улица,143444,55.8282158,37.2577272
36,Полярная улица,143444,55.8281303,37.2581262
38,Полярная улица,143444,55.8280318,37.2585013
38/45,Полярная улица,143444,55.8279771,37.2588162
28/26,Полярная улица,143444,55.8285036,37.2561756
4,Большевистская улица,143444,55.8273827,37.2621424
6,Большевистская улица,143444,55.8273224,37.2625398
8,Большевистская улица,143444,55.8272539,37.2628986
10,Большевистская улица,143444,55.8271742,37.2632031
11 с1,бульвар Космонавтов,143408,55.8364796,37.2826229
1,бульвар Космонавтов,143408,55.8342114,37.2716184
1,бульвар Космонавтов,143408,55.8344708,37.2712033
25,Пионерская улица,143405,55.8246850,37.3310697
27,улица Жуковского,143402,55.8137254,37.3249971
27,улица Жуковского,143402,55.8138898,37.3241325
2,Кленовая улица,143443,55.8402228,37.2361624
2 с2,улица 50 лет Октября,143406,55.8150665,37.3064733
49,улица Чапаева,143444,55.8317596,37.2528887
47,улица Чапаева,143444,55.8315085,37.2526827
3,Кировский переулок,143444,55.8320771,37.2525895
4,Армейский переулок,143444,55.8316668,37.2521671
6,Армейский переулок,143444,55.8317246,37.2518499
5,Кировский переулок,143444,55.8321240,37.2521990
54,Новая Московская улица,143444,55.8324205,37.2509401
52,Новая Московская улица,143444,55.8322879,37.2507882
50/12,Новая Московская улица,143444,55.8320109,37.2507665
10,Армейский переулок,143444,55.8318924,37.2511652
8,Армейский переулок,143444,55.8318115,37.2514988
12,Вишнёвый бульвар,143443,55.8360676,37.2448296
2,Луговая улица,143443,55.8358319,37.2451904
4,Луговая улица,143443,55.8356677,37.2455978
1А,Вишнёвый бульвар,143443,55.8363874,37.2444304
3А,Вишнёвый бульвар,143443,55.8359538,37.2435195
45/9,Луговая улица,143443,55.8368654,37.2439088
9,Вишнёвый бульвар,143443,55.8366138,37.2437300
7,Вишнёвый бульвар,143443,55.8363241,37.2430995
8,Вишнёвый переулок,143443,55.8366792,37.2429214
6,Вишнёвый переулок,143443,55.8370046,37.2429481
43,Озёрная улица,143443,55.8378328,37.2435962
45,Озёрная улица,143443,55.8378197,37.2430930
47,Озёрная улица,143443,55.8378412,37.2423211
1 к2,Романовский переулок,143443,55.8415886,37.2359660
2,Видная улица,143402,55.8425672,37.3466198
1,Видная улица,143402,55.8425182,37.3453310
5,Видная улица,143402,55.8411404,37.3442324
6,Видная улица,143402,55.8410078,37.3472151
1,улица Народного Ополчения,143404,55.8356619,37.3174240
3,Центральный проезд,143404,55.8353417,37.3183510
9,улица Народного Ополчения,143404,55.8331625,37.3132509
3 с1,Видная улица,143402,55.8421047,37.3472818
3 с2,Видная улица,143402,55.8410159,37.3451152
4,бульвар Космонавтов,143408,55.8336845,37.2756039
20,улица Глинки,143444,55.8263520,37.2177607
10 с1,улица Игоря Мерлушкина,143443,55.8363974,37.2649735
3,Серебряный бульвар,143444,55.8299933,37.2370071
5,Серебряный бульвар,143444,55.8300453,37.2390969
9,улица Бальмонта,143443,55.8383867,37.2301719
7,улица Бальмонта,143443,55.8386125,37.2301547
6,улица Бальмонта,143443,55.8387212,37.2301549
5,улица Бальмонта,143443,55.8388267,37.2301677
4,улица Бальмонта,143443,55.8389314,37.2301752
3,улица Бальмонта,143443,55.8390402,37.2301870
2,улица Бальмонта,143443,55.8391413,37.2301820
1,улица Бальмонта,143443,55.8392521,37.2301925
24,улица Ахматовой,143443,55.8392008,37.2309179
22,улица Ахматовой,143443,55.8391729,37.2312853
21,улица Ахматовой,143443,55.8391587,37.2314736
20,улица Ахматовой,143443,55.8391388,37.2316614
19,улица Ахматовой,143443,55.8391213,37.2318537
18,улица Ахматовой,143443,55.8391137,37.2320407
17,улица Ахматовой,143443,55.8391008,37.2322202
16,улица Ахматовой,143443,55.8390837,37.2323986
15,улица Ахматовой,143443,55.8390708,37.2325708
14,улица Ахматовой,143443,55.8390567,37.2327485
13,улица Ахматовой,143443,55.8390446,37.2329368
12,улица Ахматовой,143443,55.8390223,37.2331310
11,улица Ахматовой,143443,55.8390095,37.2333049
10,улица Ахматовой,143443,55.8389907,37.2334935
9,улица Ахматовой,143443,55.8389741,37.2336773
8,улица Ахматовой,143443,55.8389614,37.2338536
7,улица Ахматовой,143443,55.8389473,37.2340389
6,улица Ахматовой,143443,55.8389328,37.2342241
5,улица Ахматовой,143443,55.8389179,37.2344170
4,улица Ахматовой,143443,55.8389133,37.2345956
3,улица Ахматовой,143443,55.8388990,37.2347757
2,улица Ахматовой,143443,55.8388892,37.2349575
1,улица Ахматовой,143443,55.8388810,37.2351298
6 к1,Опалиховский переулок,143443,55.8333291,37.2641852
6 к3,Опалиховский переулок,143443,55.8334255,37.2639126
6 к4,Опалиховский переулок,143443,55.8334725,37.2638021
6 к5,Опалиховский переулок,143443,55.8335175,37.2636941
6 к6,Опалиховский переулок,143443,55.8335393,37.2635827
8 к5,Опалиховский переулок,143443,55.8334270,37.2652803
8 к3,Опалиховский переулок,143443,55.8334003,37.2649268
8 к2,Опалиховский переулок,143443,55.8333869,37.2647501
8 к1,Опалиховский переулок,143443,55.8333735,37.2645734
4 к1,Опалиховский переулок,143443,55.8336245,37.2632684
4 к3,Опалиховский переулок,143443,55.8335940,37.2629160
4 к4,Опалиховский переулок,143443,55.8335788,37.2627397
4 к5,Опалиховский переулок,143443,55.8335634,37.2625635
12 к1,бульвар Космонавтов,143408,55.8382992,37.2904233
4А,улица Зверева,143405,55.8196463,37.3617754
4А,Вишнёвый бульвар,143443,55.8357234,37.2428697
2А,Малиновая улица,143443,55.8367344,37.2423558
6А,Малиновая улица,143443,55.8366570,37.2406385
22,Сиреневая улица,143443,55.8378107,37.2340087
26,Сиреневая улица,143443,55.8378813,37.2330865
28,Сиреневая улица,143443,55.8378917,37.2326302
10,Сиреневая улица,143443,55.8378391,37.2362816
20,Сиреневая улица,143443,55.8380398,37.2342554
15А,улица Бальмонта,143443,55.8366177,37.2310298
15,улица Бальмонта,143443,55.8367805,37.2309190
19 к6,Опалиховский переулок,143443,55.8330067,37.2600350
19 к5,Опалиховский переулок,143443,55.8330955,37.2600973
19 к4,Опалиховский переулок,143443,55.8331721,37.2601375
19 к3,Опалиховский переулок,143443,55.8332458,37.2601758
19 к2,Опалиховский переулок,143443,55.8333131,37.2602148
19 к1,Опалиховский переулок,143443,55.8333769,37.2602409
13/2,Опалиховский переулок,143443,55.8330312,37.2629752
13/3,Опалиховский переулок,143443,55.8330502,37.2627976
13/4,Опалиховский переулок,143443,55.8330693,37.2626200
13/5,Опалиховский переулок,143443,55.8330882,37.2624425
1 к1,Романовский переулок,143443,55.8415971,37.2362075
11 к7,улица Ивана Бунина,143443,55.8465547,37.2497421
11 к6,улица Ивана Бунина,143443,55.8465535,37.2495817
11 к5,улица Ивана Бунина,143443,55.8465523,37.2494213
11 к4,улица Ивана Бунина,143443,55.8465511,37.2492610
11 к3,улица Ивана Бунина,143443,55.8465499,37.2491005
11 к2,улица Ивана Бунина,143443,55.8465487,37.2489401
11 к8,улица Ивана Бунина,143443,55.8465559,37.2499025
9 к2,улица Ивана Бунина,143443,55.8466081,37.2483758
9 к3,улица Ивана Бунина,143443,55.8465463,37.2485253
7 к5,улица Ивана Бунина,143443,55.8468144,37.2476195
7 к4,улица Ивана Бунина,143443,55.8468138,37.2474572
7 к3,улица Ивана Бунина,143443,55.8468133,37.2472948
7 к2,улица Ивана Бунина,143443,55.8468127,37.2471324
5 к5,улица Ивана Бунина,143443,55.8468041,37.2465372
5 к4,улица Ивана Бунина,143443,55.8468036,37.2463748
5 к3,улица Ивана Бунина,143443,55.8468030,37.2462124
5 к2,улица Ивана Бунина,143443,55.8468025,37.2460500
5 к6,улица Ивана Бунина,143443,55.8468047,37.2466996
6 к8,улица Александра Блока,143443,55.8461131,37.2496122
6 к7,улица Александра Блока,143443,55.8460210,37.2496153
6 к6,улица Александра Блока,143443,55.8459289,37.2496183
6 к5,улица Александра Блока,143443,55.8458368,37.2496214
6 к4,улица Александра Блока,143443,55.8457447,37.2496244
6 к3,улица Александра Блока,143443,55.8456527,37.2496275
6 к2,улица Александра Блока,143443,55.8455606,37.2496306
8 к2,улица Александра Блока,143443,55.8460150,37.2489374
8 к3,улица Александра Блока,143443,55.8459230,37.2489391
8 к4,улица Александра Блока,143443,55.8458308,37.2489408
8 к5,улица Александра Блока,143443,55.8457387,37.2489425
8 к6,улица Александра Блока,143443,55.8456467,37.2489442
8 к7,улица Александра Блока,143443,55.8455546,37.2489459
8 к8,улица Александра Блока,143443,55.8454624,37.2489475
10 к8,улица Александра Блока,143443,55.8461087,37.2481928
10 к7,улица Александра Блока,143443,55.8460166,37.2481945
10 к6,улица Александра Блока,143443,55.8459244,37.2481962
10 к5,улица Александра Блока,143443,55.8458324,37.2481978
10 к4,улица Александра Блока,143443,55.8457402,37.2481995
10 к3,улица Александра Блока,143443,55.8456482,37.2482012
10 к2,улица Александра Блока,143443,55.8455560,37.2482029
12 к7,улица Александра Блока,143443,55.8456346,37.2472454
12 к6,улица Александра Блока,143443,55.8457224,37.2472953
12 к5,улица Александра Блока,143443,55.8458102,37.2473450
12 к4,улица Александра Блока,143443,55.8458979,37.2473947
12 к3,улица Александра Блока,143443,55.8459857,37.2474445
12 к2,улица Александра Блока,143443,55.8460734,37.2474943
12 к1,улица Александра Блока,143443,55.8461612,37.2475441
14 к2,улица Александра Блока,143443,55.8457907,37.2465634
14 к3,улица Александра Блока,143443,55.8458785,37.2466132
14 к4,улица Александра Блока,143443,55.8459663,37.2466630
14 к5,улица Александра Блока,143443,55.8460540,37.2467128
14 к6,улица Александра Блока,143443,55.8461418,37.2467625
14 к7,улица Александра Блока,143443,55.8462296,37.2468123
14 к8,улица Александра Блока,143443,55.8463173,37.2468621
2 к5,улица Ивана Бунина,143443,55.8460157,37.2457805
2 к4,улица Ивана Бунина,143443,55.8460929,37.2458673
2 к3,улица Ивана Бунина,143443,55.8461702,37.2459540
2 к2,улица Ивана Бунина,143443,55.8462474,37.2460408
2 к6,улица Ивана Бунина,143443,55.8459385,37.2456938
3 к2,улица Ивана Бунина,143443,55.8462300,37.2451746
3 к3,улица Ивана Бунина,143443,55.8463074,37.2452594
3 к4,улица Ивана Бунина,143443,55.8463849,37.2453443
3 к5,улица Ивана Бунина,143443,55.8464623,37.2454291
3 к6,улица Ивана Бунина,143443,55.8465398,37.2455140
3 к7,улица Ивана Бунина,143443,55.8466172,37.2455988
11 к2,улица Александра Блока,143443,55.8453552,37.2459360
11 к3,улица Александра Блока,143443,55.8453918,37.2458240
11 к4,улица Александра Блока,143443,55.8454284,37.2457122
11 к5,улица Александра Блока,143443,55.8454649,37.2456002
11 к6,улица Александра Блока,143443,55.8455015,37.2454884
11 к7,улица Александра Блока,143443,55.8455381,37.2453764
11 к8,улица Александра Блока,143443,55.8455746,37.2452646
51,улица Чапаева,143444,55.8319576,37.2527392
2 с3,улица 50 лет Октября,143406,55.8153863,37.3068198
19,улица Глинки,143444,55.8266794,37.2190536
26 с1,Заводская улица,143405,55.8116092,37.3232764
2 с1,улица Карбышева,143408,55.8363879,37.3088644
21,улица Карбышева,143408,55.8392742,37.3005436
11,Светлая улица,143409,55.8314979,37.2841651
13,Первомайская улица,143401,55.8345342,37.3254266
10 к1,улица Карбышева,143408,55.8394824,37.3059262
14,улица Пришвина,143444,55.8193886,37.2471525
3,Успенская улица,143409,55.8333730,37.2917086
17,Красногорский бульвар,143405,55.8196638,37.3736184
14,Красногорский бульвар,143405,55.8153988,37.3728337
18,Красногорский бульвар,143405,55.8166535,37.3739309
20,Красногорский бульвар,143405,55.8180542,37.3752491
24,Красногорский бульвар,143405,55.8192285,37.3765705
23 к1,Красногорский бульвар,143410,55.8267680,37.3732840
50,Красногорский бульвар,143405,55.8265254,37.3755206
48,Красногорский бульвар,143405,55.8258702,37.3762650
46,Красногорский бульвар,143405,55.8251589,37.3765037
34,Красногорский бульвар,143405,55.8227995,37.3774150
10,улица Игоря Мерлушкина,143443,55.8368538,37.2662882
3,Центральная улица,143405,55.8141400,37.3561866
3А,Центральная улица,143405,55.8139852,37.3557015
26А,улица Ленина,143409,55.8315699,37.3020344
8,бульвар Космонавтов,143408,55.8354358,37.2816531
45,улица Ленина,143408,55.8338026,37.3015817
55,улица Ленина,143408,55.8353996,37.2988613
63,улица Ленина,143408,55.8365156,37.2959357
30А,улица Кирова,143408,55.8342078,37.3029948
1,Большая Воскресенская улица,143402,55.8164393,37.3430505
3,Видная улица,143402,55.8416283,37.3456302
4,Видная улица,143402,55.8422464,37.3440979
4,Ильинское шоссе,143405,55.8136141,37.3458181
7,улица Пришвина,143444,55.8159728,37.2470584
17,улица Пришвина,143444,55.8205389,37.2463611
15,улица Пришвина,143444,55.8195648,37.2457313
13,улица Пришвина,143444,55.8191820,37.2484792
16,улица Пришвина,143444,55.8202895,37.2484430
18,улица Пришвина,143444,55.8211912,37.2486645
15,бульвар Космонавтов,143408,55.8373124,37.2843345
17,бульвар Космонавтов,143408,55.8380105,37.2864256
23 к3,Красногорский бульвар,143410,55.8250468,37.3737680
23 к2,Красногорский бульвар,143410,55.8259259,37.3735827
7,Серебряный бульвар,143444,55.8297967,37.2406798
4,Серебряный бульвар,143444,55.8289925,37.2368938
1 к10,Рижская улица,143443,55.8386249,37.2286851
1 к8,Рижская улица,143443,55.8384683,37.2286630
1 к6,Рижская улица,143443,55.8383230,37.2286430
1 к4,Рижская улица,143443,55.8381788,37.2286220
1 к2,Рижская улица,143443,55.8380315,37.2286034
4 к6,Зеркальная набережная,143443,55.8378327,37.2278315
4 к5,Зеркальная набережная,143443,55.8377955,37.2279498
4 к4,Зеркальная набережная,143443,55.8377629,37.2280682
4 к3,Зеркальная набережная,143443,55.8377300,37.2281873
4 к2,Зеркальная набережная,143443,55.8376971,37.2283064
4 к1,Зеркальная набережная,143443,55.8376645,37.2284457
1 к1,Рижская улица,143443,55.8379381,37.2286022
1 к3,Рижская улица,143443,55.8381078,37.2286209
1 к5,Рижская улица,143443,55.8382506,37.2286419
1 к7,Рижская улица,143443,55.8383956,37.2286619
1 к9,Рижская улица,143443,55.8385395,37.2286838
86,Озёрная улица,143443,55.8383226,37.2356043
84,Озёрная улица,143443,55.8383203,37.2357647
82,Озёрная улица,143443,55.8383182,37.2359250
80,Озёрная улица,143443,55.8383159,37.2360855
78,Озёрная улица,143443,55.8383136,37.2362459
76,Озёрная улица,143443,55.8383115,37.2364064
74,Озёрная улица,143443,55.8383092,37.2365668
72,Озёрная улица,143443,55.8383069,37.2367272
70,Озёрная улица,143443,55.8383048,37.2368875
23А,Сиреневая улица,143443,55.8375192,37.2325421
23Б,Сиреневая улица,143443,55.8375218,37.2323879
23В,Сиреневая улица,143443,55.8375244,37.2322336
25А,Сиреневая улица,143443,55.8375270,37.2320794
25Б,Сиреневая улица,143443,55.8375295,37.2319251
25В,Сиреневая улица,143443,55.8375321,37.2317709
25Д,Сиреневая улица,143443,55.8375112,37.2316148
2В,Сиреневая улица,143443,55.8377823,37.2379288
2Б,Сиреневая улица,143443,55.8377828,37.2378113
2А,Сиреневая улица,143443,55.8377833,37.2376937
4Г,Сиреневая улица,143443,55.8378180,37.2375774
4В,Сиреневая улица,143443,55.8378185,37.2374614
4Б,Сиреневая улица,143443,55.8378190,37.2373454
4А,Сиреневая улица,143443,55.8378195,37.2372293
6Б,Сиреневая улица,143443,55.8377964,37.2370918
6А,Сиреневая улица,143443,55.8377972,37.2369332
8Б,Сиреневая улица,143443,55.8377977,37.2367746
8А,Сиреневая улица,143443,55.8377984,37.2366160
20,улица Цветаевой,143443,55.8384347,37.2314569
19,улица Цветаевой,143443,55.8384308,37.2316433
18,улица Цветаевой,143443,55.8384267,37.2318243
17,улица Цветаевой,143443,55.8384251,37.2320087
16,улица Цветаевой,143443,55.8384196,37.2321939
15,улица Цветаевой,143443,55.8384178,37.2323897
14,улица Цветаевой,143443,55.8384112,37.2325722
13,улица Цветаевой,143443,55.8384093,37.2327583
12,улица Цветаевой,143443,55.8384047,37.2329373
11,улица Цветаевой,143443,55.8384011,37.2331193
10,улица Цветаевой,143443,55.8383997,37.2333130
9,улица Цветаевой,143443,55.8383957,37.2335015
8,улица Цветаевой,143443,55.8384126,37.2337158
7,улица Цветаевой,143443,55.8383884,37.2338631
6,улица Цветаевой,143443,55.8383858,37.2340493
5,улица Цветаевой,143443,55.8383813,37.2342348
4,улица Цветаевой,143443,55.8383768,37.2344175
3,улица Цветаевой,143443,55.8383769,37.2346113
2,улица Цветаевой,143443,55.8383719,37.2347958
1,улица Цветаевой,143443,55.8383537,37.2350201
2,улица Александра Блока,143443,55.8454539,37.2509022
11,улица Жуковского,143402,55.8151053,37.3256670
19,улица Пришвина,143444,55.8214940,37.2465844
2,Серебряный бульвар,143444,55.8293576,37.2346080
1,Серебряный бульвар,143444,55.8304262,37.2351599
18 к3,Заводская улица,143405,55.8088137,37.3271634
18 к1,Заводская улица,143405,55.8098462,37.3257842
18 к2,Заводская улица,143405,55.8094202,37.3265743
9А,улица Народного Ополчения,143404,55.8330857,37.3123296
10 к2,улица Карбышева,143408,55.8394360,37.3063232
5,Ильинский бульвар,143405,55.8186094,37.3686381
16,Павшинский бульвар,143405,55.8173261,37.3683629
29,улица Ленина,143404,55.8279843,37.3105188
21,улица Ленина,143404,55.8268227,37.3126052
13,улица Ленина,143404,55.8256106,37.3145590
1,Подмосковный бульвар,143405,55.8198634,37.3644773
9,Подмосковный бульвар,143405,55.8220602,37.3696487
12,бульвар Космонавтов,143408,55.8380784,37.2891123
22,улица Ленина,143409,55.8306919,37.3008708
24,улица Ленина,143409,55.8314919,37.3005222
34,улица Ленина,143409,55.8325801,37.2990893
20 к1,Речная улица,143403,55.8353431,37.3263571
3А,Лесная улица,143402,55.8318883,37.3269313
27,Заводская улица,143405,55.8097640,37.3236659
