House number,Street name,Postal code,Latitude,Longitude
55,Можайское шоссе,143002,55.6729110,37.2707415
36,улица Маршала Жукова,143003,55.6820328,37.2696088
122,Можайское шоссе,143005,55.6858508,37.3062270
153Г,Можайское шоссе,143005,55.6862902,37.3043520
122,Можайское шоссе,143005,55.6861118,37.3076406
38Б,1-я Вокзальная улица,143007,55.6767675,37.2849166
5,Транспортный проезд,143000,55.6656912,37.2790109
49А,улица Ракетчиков,143006,55.6550840,37.2728120
62,улица Чистяковой,143001,55.7046571,37.3214536
33,Кутузовская улица,143005,55.7071373,37.3271738
46,Молодёжная улица,143007,55.6772334,37.2715412
119Б,Можайское шоссе,143005,55.6813736,37.2897568
10,Каштановая улица,143006,55.6541870,37.2709403
10,Белорусская улица,143006,55.6604635,37.2996851
2,Белорусская улица,143006,55.6638436,37.3008756
9Б,Комсомольская улица,143006,55.6667213,37.2923698
20,Советская улица,143007,55.6742596,37.2773194
5 корпус 3,Северная улица,143009,55.6812374,37.2448722
6,улица Маршала Неделина,143002,55.6784371,37.2682175
9,Советская улица,143007,55.6735096,37.2769595
2,улица Чикина,143000,55.6845091,37.2945917
147А,Можайское шоссе,143005,55.6852526,37.2990108
8,улица Чистяковой,143001,55.6939369,37.3276867
34,Можайское шоссе,143007,55.6764629,37.2837490
1А,бульвар Маршала Крылова,143005,55.6865416,37.2939743
1 с2,улица Маршала Бирюзова,143003,55.6877032,37.2613249
16,Молодёжная улица,143002,55.6735218,37.2590630
36Б,Молодёжная улица,143002,55.6745774,37.2652242
29 к1,Можайское шоссе,143005,55.6706951,37.2637041
10,улица Говорова,143000,55.6844895,37.2860639
1,Привокзальная площадь,143005,55.6721790,37.2814950
2,Привокзальная площадь,143007,55.6715631,37.2803682
1,улица Чистяковой,143001,55.6951894,37.3252935
31,Вокзальная улица,143011,55.6800602,37.2910409
62,Можайское шоссе,143000,55.6801868,37.2899704
41,1-я Вокзальная улица,143007,55.6774632,37.2877650
47,1-я Вокзальная улица,143007,55.6778865,37.2886893
45,1-я Вокзальная улица,143007,55.6781170,37.2882314
43,1-я Вокзальная улица,143007,55.6777424,37.2875062
53,1-я Вокзальная улица,143007,55.6781690,37.2891220
8 с23,Транспортная улица,143006,55.6748167,37.2975904
10,Транспортная улица,143006,55.6755659,37.2982560
28А,Сосновая улица,143006,55.6644697,37.2919567
25,Верхне-Пролетарская улица,143006,55.6660588,37.2863094
9,Комсомольская улица,143006,55.6672201,37.2929830
28,Сосновая улица,143006,55.6650793,37.2921188
26,Сосновая улица,143006,55.6652071,37.2939329
34,Сосновая улица,143006,55.6629538,37.2910667
10,Восточная улица,143006,55.6710137,37.3042470
13,улица Маршала Неделина,143001,55.6761781,37.2690910
5,Советская улица,143007,55.6724396,37.2781624
2 с28,Полевая улица,143000,55.6586738,37.2488649
139,Новая улица,143002,55.6656311,37.2315797
1 с4,Транспортный проезд,143005,55.6669927,37.2725454
3,Транспортный проезд,143006,55.6669269,37.2789861
10/1,бульвар Любы Новосёловой,143009,55.6804103,37.2562209
5,Молодёжная улица,143003,55.6743639,37.2575105
35,Северная улица,143009,55.6855300,37.2550610
13Б,Можайское шоссе,143002,55.6701320,37.2604807
9А,улица Маршала Неделина,143002,55.6743943,37.2713596
3А,улица Чикина,143005,55.6844099,37.2926924
26А,улица Говорова,143005,55.6879423,37.2951320
25,бульвар Маршала Крылова,143005,55.6884125,37.3011183
38Б,Можайское шоссе,143007,55.6768900,37.2847397
45А,Вокзальная улица,143011,55.6786034,37.2881823
17,Вокзальная улица,143007,55.6775805,37.2890821
38В,Можайское шоссе,143007,55.6770393,37.2850216
10,Транспортный проезд,143006,55.6663221,37.2775151
11,Будённовское шоссе,143005,55.6824126,37.3242455
13,Будённовское шоссе,143005,55.6820875,37.3238808
9,Будённовское шоссе,143005,55.6827283,37.3245628
63,улица Говорова,143005,55.6920430,37.2948875
33,улица Говорова,143005,55.6915589,37.2952705
113,улица Говорова,143005,55.6932817,37.2974867
15,улица Говорова,143005,55.6905623,37.2961090
93,улица Говорова,143005,55.6910212,37.2978710
55,улица Говорова,143005,55.6916116,37.2943286
27,улица Говорова,143005,55.6909563,37.2951312
47,улица Говорова,143005,55.6908233,37.2938235
17,улица Говорова,143005,55.6907991,37.2963910
41,улица Говорова,143005,55.6904873,37.2929257
57,улица Говорова,143005,55.6914744,37.2946596
25,улица Говорова,143005,55.6904968,37.2945627
95,улица Говорова,143005,55.6911156,37.2987764
65,улица Говорова,143005,55.6925630,37.2955475
21,улица Говорова,143005,55.6912471,37.2960881
67,улица Говорова,143005,55.6924669,37.2947483
97,улица Говорова,143005,55.6914417,37.2982590
69,улица Говорова,143005,55.6926603,37.2949641
101,улица Говорова,143005,55.6918783,37.2970605
23,улица Говорова,143005,55.6905729,37.2952663
45,улица Говорова,143005,55.6909549,37.2934966
81,улица Говорова,143005,55.6919635,37.2959422
115,улица Говорова,143005,55.6935507,37.2974098
13,улица Говорова,143005,55.6903126,37.2955438
53,улица Говорова,143005,55.6913962,37.2940390
91,улица Говорова,143005,55.6911643,37.2972647
35,улица Говорова,143005,55.6909099,37.2944785
7Б,Вокзальная улица,143007,55.6755508,37.2874157
4,Вокзальная улица,143007,55.6731034,37.2824871
13,улица Верхнее Отрадное,143009,55.6866670,37.2517242
3Б,Садовая улица,143002,55.6701804,37.2544339
19,Западная улица,143002,55.6706557,37.2383762
5,Садовая улица,143002,55.6706845,37.2540564
9,Садовая улица,143002,55.6684331,37.2545796
36Б,улица Маршала Жукова,143000,55.6812983,37.2712964
10 с3,Западная улица,143002,55.6717978,37.2387219
10А,бульвар Любы Новосёловой,143009,55.6801074,37.2565446
88А,Можайское шоссе,143005,55.6841702,37.2982098
14,улица Чикина,143005,55.6868699,37.2921793
37,улица Военный Городок,143005,55.6810266,37.3303324
51,улица Военный Городок,143006,55.6794244,37.3290950
16,улица Военный городок,143005,55.6818184,37.3293232
5,Транспортная улица,143006,55.6770863,37.2964675
62,Стольная улица,143005,55.6660053,37.3371914
55,Стольная улица,143002,55.6652877,37.3418001
57,Стольная улица,143005,55.6654508,37.3403611
41,Стольная улица,143005,55.6642638,37.3388360
58,Стольная улица,143005,55.6655810,37.3396757
14,Стольная улица,143005,55.6593393,37.3371334
46/1,Стольная улица,143005,55.6643287,37.3398933
13 с12,Внуковская улица,143006,55.6563644,37.2856366
3,Железнодорожная улица,143002,55.6660111,37.2549945
51,Северная улица,143003,55.6877322,37.2567703
40А,улица Говорова,143005,55.6896722,37.3013136
9,Покровская улица,143005,55.6755313,37.3161625
51А,Вокзальная улица,143005,55.6834152,37.3096202
1,Трудовая улица,143005,55.6823898,37.3162175
13,Белорусская улица,143006,55.6619338,37.3007758
11,Белорусская улица,143006,55.6624265,37.3012618
9,Белорусская улица,143006,55.6628969,37.3015754
115,Озёрная улица,143002,55.6499994,37.2558189
11с9,Внуковская улица,143006,55.6567160,37.2808700
13,Внуковская улица,143006,55.6551989,37.2833163
23,Кутузовская улица,143001,55.7058359,37.3272964
35,Кутузовская улица,143001,55.7073082,37.3250082
33,Кутузовская улица,143001,55.7072195,37.3267520
31,Кутузовская улица,143001,55.7066249,37.3283225
8,улица Маршала Неделина,143002,55.6792640,37.2670492
17,улица Маршала Бирюзова,143003,55.6824281,37.2687931
12,Можайское шоссе,143002,55.6708781,37.2679839
7Б,Комсомольская улица,143006,55.6679749,37.2915408
31,Северная улица,143002,55.6771262,37.2446183
17А,Солнечная улица,143006,55.6658619,37.2877703
80Б,Можайское шоссе,143005,55.6839037,37.2984435
8 с13,Южная улица,143002,55.6605590,37.2623114
8 с14,Южная улица,143002,55.6604050,37.2612632
6Б с7,Транспортная улица,143006,55.6772599,37.2942555
14 с3,Южная улица,143002,55.6593796,37.2650974
6,Белорусская улица,143006,55.6630502,37.2993558
8,Белорусская улица,143006,55.6624372,37.2994374
4,Белорусская улица,143006,55.6636518,37.2992793
120 с1,Новая улица,143002,55.6629269,37.2296761
1,Триумфальная улица,143002,55.6590054,37.2335294
171,Можайское шоссе,143005,55.6890143,37.3097337
11,Комсомольская улица,143006,55.6675363,37.2920461
5Б,Триумфальная улица,143002,55.6600420,37.2366509
29,Кутузовская улица,143005,55.7068144,37.3262268
8,Триумфальная улица,143002,55.6561861,37.2300276
1А,Триумфальная улица,143002,55.6583721,37.2357085
3А,Триумфальная улица,143002,55.6574028,37.2340138
с12А,Триумфальная улица,143002,55.6559313,37.2255813
39,Вокзальный тупик,143005,55.6830197,37.3142718
51Б,Вокзальная улица,143005,55.6832863,37.3090282
16,Южная улица,143002,55.6630656,37.2670961
18/1,улица Говорова,143011,55.6873879,37.2882938
127,Озёрная улица,143000,55.6574073,37.2479575
вл1,Озёрная улица,143000,55.6581188,37.2483299
7Б,Сколковская улица,143001,55.6990061,37.3178308
7А,Сколковская улица,143001,55.6984308,37.3182998
26,улица Маковского,143006,55.6622766,37.2852409
3 с1,улица Маковского,143006,55.6655916,37.2800259
38Г,Можайское шоссе,143007,55.6773648,37.2854711
59,1-я Вокзальная улица,143007,55.6787695,37.2894917
3Б,Сколковская улица,143001,55.6954635,37.3219759
25,Железнодорожная улица,143006,55.6551397,37.2580915
9 с10,Западная улица,143002,55.6697136,37.2440687
3 с4,улица Маковского,143006,55.6652768,37.2808543
10 к1,Каштановая улица,143006,55.6550096,37.2704509
7,Верхне-Пролетарская улица,143006,55.6692021,37.2849476
4,Каштановая улица,143006,55.6537922,37.2667007
1 к1,Рябиновая улица,143006,55.6547476,37.2664655
10,Каштановая улица,143006,55.6542944,37.2708482
12,Каштановая улица,143006,55.6545857,37.2723344
32,Транспортный проезд,143006,55.6638272,37.2814532
1Д,Железнодорожная улица,143002,55.6675191,37.2569116
16А,Коммунальный проезд,143005,55.6711662,37.2727524
8,Можайское шоссе,143002,55.6700135,37.2709030
36,Гвардейская улица,143002,55.6539187,37.2276358
38,Гвардейская улица,143002,55.6539420,37.2270624
34,Гвардейская улица,143002,55.6539432,37.2283168
32,Гвардейская улица,143002,55.6539316,37.2289176
30,Гвардейская улица,143002,55.6539600,37.2296309
18 с5,Западная улица,143002,55.6731282,37.2369457
30,Зелёная улица,143000,55.6751486,37.2316572
2А,Полевая улица,143002,55.6620456,37.2499950
5,Полевая улица,143002,55.6609942,37.2521293
3,Триумфальная улица,143002,55.6574365,37.2355021
19,Полевая улица,143002,55.6599662,37.2531338
8А с1,Южная улица,143002,55.6599332,37.2610164
25А,Железнодорожная улица,143006,55.6554474,37.2591114
21/6,Акуловская улица,143000,55.6579219,37.2499946
9,Рябиновая улица,143006,55.6593223,37.2635180
2,Каштановая улица,143006,55.6533024,37.2652167
1,Рябиновая улица,143006,55.6542856,37.2649602
5,Рябиновая улица,143006,55.6566472,37.2633242
1 с1,Внуковская улица,143006,55.6613870,37.2795079
29 с2,улица Старое Яскино,143002,55.6655739,37.2654821
3А,Садовая улица,143002,55.6686502,37.2553406
2А,Сколковская улица,143001,55.6934353,37.3247702
87,Озёрная улица,143002,55.6500231,37.2532742
11А,улица 1 Мая,143006,55.6787534,37.3309656
9,Комсомольский переулок,143006,55.6773760,37.3282631
1,Парковая аллея,143005,55.6765094,37.3273111
11А,Лесная улица,143005,55.6771288,37.3313402
9Б,Парковая аллея,143005,55.6744731,37.3331935
1,Нагорная улица,143005,55.6770110,37.3386939
28,Будённовский проезд,143005,55.6773664,37.3219954
30/1,Будённовский проезд,143005,55.6768656,37.3223501
1,Будённовский проезд,143005,55.6757449,37.3213298
9А,Парковая аллея,143005,55.6744950,37.3323199
21Б,Лесная улица,143005,55.6745708,37.3347630
21А,Лесная улица,143005,55.6746646,37.3358760
6,Полевая улица,143005,55.6749738,37.3402856
18,Нагорная улица,143005,55.6745344,37.3453394
3А,Сетуньский тупик,143005,55.6735181,37.3455166
49,улица 1 Мая,143005,55.6733334,37.3412132
27,улица имени Иосифа Кобзона,143005,55.6731669,37.3394970
с26А,Лесная улица,143005,55.6729989,37.3386005
25А,Лесная улица,143005,55.6732169,37.3378345
22,Набережная улица,143005,55.6717510,37.3424563
18А,Набережная улица,143005,55.6711263,37.3433348
1А,Сетуньский тупик,143005,55.6725246,37.3472651
159,улица Говорова,143005,55.6922260,37.3042735
89,улица Говорова,143005,55.6929045,37.2991772
87,улица Говорова,143005,55.6905470,37.3001142
43 с1,Можайское шоссе,143002,55.6712425,37.2656408
43 с3,Можайское шоссе,143002,55.6713040,37.2660054
46 с1,Молодёжная улица,143007,55.6775732,37.2722389
8Б,улица Чикина,143005,55.6854443,37.2918079
2А,Баковская улица,143005,55.6814679,37.2950599
32Б,Можайское шоссе,143002,55.6770392,37.2819157
8Г,Союзная улица,143006,55.6720351,37.2872939
45,Стольная улица,143005,55.6637416,37.3404745
41Б,улица Маршала Жукова,143003,55.6815285,37.2636564
3,улица Маршала Бирюзова,143300,55.6863893,37.2605057
7,Рябиновая улица,143006,55.6576401,37.2630811
6,улица Ракетчиков,143006,55.6565570,37.2670323
2,Сколковская улица,143001,55.6927716,37.3254899
с26А,Кутузовская улица,143005,55.6981409,37.3238896
26Б,улица Чистяковой,143001,55.6979334,37.3237513
26В,улица Чистяковой,143005,55.6976296,37.3236540
9Б,Сколковская улица,143001,55.7003765,37.3187373
5А,Сколковская улица,143001,55.6976782,37.3217315
5Б,Сколковская улица,143001,55.6985978,37.3206832
7,Северная улица,143009,55.6825099,37.2440481
2,улица Ракетчиков,143006,55.6557242,37.2679962
5 с1,Северная улица,143009,55.6779877,37.2432316
7 к3,улица Маршала Бирюзова,143003,55.6855281,37.2656554
7 к2,улица Маршала Бирюзова,143003,55.6859703,37.2655772
7 к1,улица Маршала Бирюзова,143003,55.6864285,37.2655016
163А,улица Говорова,143005,55.6899643,37.3044240
10 к1 с1,Каштановая улица,143006,55.6552138,37.2703323
14 к1,Каштановая улица,143006,55.6553887,37.2742794
14,Каштановая улица,143006,55.6550392,37.2735161
6,Триумфальная улица,143002,55.6564357,37.2313781
31А,Вокзальная улица,143011,55.6791718,37.2909384
66Б,Можайское шоссе,143011,55.6812049,37.2910115
26 с2,улица Маковского,143006,55.6629026,37.2838348
1Д,Сколковская улица,143001,55.6951658,37.3233442
9 с2,Северная улица,143009,55.6828255,37.2460070
88,Озёрная улица,143002,55.6501115,37.2536096
8А,улица Чикина,143005,55.6852878,37.2919112
16 к1,Каштановая улица,143006,55.6560719,37.2733231
16,Каштановая улица,143006,55.6557111,37.2725545
57,Озёрная улица,143000,55.6575708,37.2452545
2А,Привокзальная улица,143005,55.6832894,37.3208164
78,Озёрная улица,143002,55.6518289,37.2524945
2,Набережная улица,143005,55.6659827,37.3435908
18 с6,Западная улица,143002,55.6734338,37.2367242
3,Белорусская улица,143006,55.6636132,37.3027070
8,Каштановая улица,143006,55.6543904,37.2689733
6,Каштановая улица,143006,55.6541639,37.2682890
3,Рябиновая улица,143006,55.6556568,37.2639025
3 к1,Рябиновая улица,143006,55.6558792,37.2651139
7 к1,Рябиновая улица,143006,55.6580961,37.2645738
5 к1,Рябиновая улица,143006,55.6572764,37.2647807
5 к2,Северная улица,143009,55.6803154,37.2455410
5 к3,Северная улица,143009,55.6810454,37.2451054
5 к4,Северная улица,143009,55.6819462,37.2456208
13,улица Маршала Бирюзова,143003,55.6836457,37.2657892
9А,Сколковская улица,143001,55.6996162,37.3196743
136Б,Можайское шоссе,143005,55.6842779,37.3120701
136А,Можайское шоссе,143005,55.6843122,37.3112428
100А,Можайское шоссе,143005,55.6844915,37.2997232
7А,Триумфальная улица,143002,55.6583293,37.2343798
9,Гвардейская улица,143002,55.6553320,37.2314018
15,Гвардейская улица,143002,55.6551520,37.2278246
11,Гвардейская улица,143002,55.6553436,37.2296555
31,Вокзальная улица,143011,55.6798124,37.2921630
1А,Сколковская улица,143001,55.6940584,37.3248863
1Б,Сколковская улица,143001,55.6950090,37.3242676
1Г,Сколковская улица,143001,55.6945458,37.3227486
1В,Сколковская улица,143001,55.6938406,37.3232822
5В,Сколковская улица,143001,55.6979070,37.3196070
3В,Сколковская улица,143001,55.6962333,37.3206653
3А,Сколковская улица,143001,55.6962992,37.3228627
3Д,Сколковская улица,143001,55.6962048,37.3213921
7 к4,улица Маршала Бирюзова,143003,55.6855898,37.2668813
9,Северная улица,143009,55.6824984,37.2468370
13,Северная улица,143009,55.6820024,37.2488312
15,Северная улица,143009,55.6825232,37.2493943
11,Северная улица,143009,55.6821754,37.2480130
3,Северная улица,143009,55.6795265,37.2439694
4,улица Ракетчиков,143006,55.6563433,37.2659886
7,Транспортный проезд,143006,55.6636587,37.2694212
4,Южная улица,143002,55.6616473,37.2578412
27,Железнодорожная улица,143006,55.6562352,37.2581609
21,Железнодорожная улица,143006,55.6557062,37.2570635
5,Внуковская улица,143006,55.6588749,37.2791309
26А,Южная улица,143002,55.6616303,37.2791749
137,Новая улица,143002,55.6643212,37.2349700
13,Западная улица,143002,55.6706983,37.2416201
9,улица Маршала Неделина,143002,55.6749497,37.2704119
47,Можайское шоссе,143002,55.6721721,37.2688444
130,Можайское шоссе,143005,55.6863328,37.3099708
72,Можайское шоссе,143005,55.6816171,37.2934635
3,Новоспортивная улица,143007,55.6812790,37.2774026
17А,Подушкинское шоссе,143007,55.6866588,37.2750388
26,улица имени Иосифа Кобзона,143005,55.6733488,37.3395855
4,Нагорная улица,143007,55.6762174,37.3401634
31,улица Военный городок,143005,55.6812781,37.3307344
5,Баковская улица,143005,55.6783466,37.3000518
7,Союзная улица,143006,55.6719503,37.2881831
1 с3,улица Маршала Бирюзова,143003,55.6876230,37.2627910
28,улица Маковского,143006,55.6602010,37.2864898
112А,Можайское шоссе,143005,55.6850448,37.3028770
