House number,Street name,Postal code,Latitude,Longitude
21А,проспект 50 лет Октября,142184,55.3714551,37.5482251
52,Большая Серпуховская улица,142105,55.4120488,37.5494555
58,Большая Серпуховская улица,142105,55.4102600,37.5500434
58,Большая Серпуховская улица,142105,55.4097822,37.5502357
19,улица Багратиона,142108,55.4020805,37.5596286
1 к13,улица Ленина,142180,55.3635179,37.5255159
54,Революционный проспект,142100,55.4328990,37.5509355
46,Комсомольская улица,142100,55.4308019,37.5481957
6/1,проспект Ленина,142106,55.4494546,37.5517120
17,Октябрьский проспект,142119,55.4314192,37.5061317
44 к3,улица Машиностроителей,142115,55.4115639,37.5828819
57,Февральская улица,142100,55.4319093,37.5488537
19,улица Орджоникидзе,142103,55.4180712,37.5741381
21,улица 43-й Армии,142121,55.4185317,37.4956697
67Б,Большая Серпуховская улица,142110,55.4119578,37.5537955
51,Большая Серпуховская улица,142103,55.4171080,37.5486217
7А,Профсоюзная улица,108823,55.4638367,37.5499458
7А,Профсоюзная улица,108823,55.4638367,37.5498085
1 с33,Комсомольская улица,142100,55.4247818,37.5532150
24 с1,улица Академика Доллежаля,142121,55.4181231,37.4790190
33/44,Советская улица,142100,55.4318325,37.5509057
24/42,Советская улица,142100,55.4314597,37.5510935
17,Октябрьский проспект,142119,55.4314531,37.5061258
17,Октябрьский проспект,142119,55.4313389,37.5061375
18 к2,Подольская улица,108823,55.4717407,37.5489197
7,Ленинградская улица,142121,55.4266721,37.5009130
76Б,улица Кирова,142117,55.4197997,37.5085070
24,Комсомольская улица,142116,55.4274004,37.5580910
24,Комсомольская улица,142116,55.4277908,37.5584783
4,Молодёжная улица,142115,55.4064102,37.5684395
38,улица Свердлова,142104,55.4208876,37.5352764
21,улица 43-й Армии,142118,55.4193426,37.4951465
21,улица 43-й Армии,142118,55.4193087,37.4951264
21,улица 43-й Армии,142118,55.4193737,37.4951650
17,улица 43-й Армии,142118,55.4216454,37.4925219
113,проспект Ленина,142100,55.4316464,37.5469176
2,улица Генерала Варенникова,142121,55.4185698,37.4878198
61,Большая Зелёновская улица,142100,55.4312310,37.5399796
16,Рощинская улица,142180,55.3647589,37.5093549
107\49,проспект Ленина,142100,55.4326594,37.5480971
13,Северная улица,142103,55.4229318,37.5797792
192,Большая Серпуховская улица,142108,55.3914641,37.5424612
21,улица 43-й Армии,142118,55.4189248,37.4949571
23А,улица 43-й Армии,142118,55.4184140,37.4973648
23A,улица 43-й Армии,142118,55.4183783,37.4970680
23А,улица 43-й Армии,142118,55.4184756,37.4967470
23А,улица 43-й Армии,142118,55.4183102,37.4976636
21,улица 43-й Армии,142118,55.4196759,37.4957736
23А,улица 43-й Армии,142118,55.4186621,37.4973200
17,улица 43-й Армии,142118,55.4215485,37.4926976
45,Большая Серпуховская улица,142104,55.4206674,37.5477495
20,улица Ленина,142180,55.3588055,37.5200338
21,улица Ленина,142180,55.3566584,37.5227695
4,Октябрьский переулок,142180,55.3557183,37.5204327
1,улица Ленина,142180,55.3635552,37.5228120
16 к1,Колхозная улица,142106,55.4500467,37.5463582
6А,Литейная улица,142104,55.4221227,37.5400162
22,улица Машиностроителей,142115,55.4082909,37.5719181
58А,улица Кирова,142117,55.4256778,37.5224829
58Б,улица Кирова,142117,55.4261077,37.5234944
2Б,улица Маштакова,142110,55.4268916,37.5259108
12,улица Маштакова,142110,55.4320574,37.5241209
7,Парковая улица,142110,55.4330823,37.5219235
5,Госпитальная улица,142110,55.4302144,37.5254667
16,улица 50 лет ВЛКСМ,142110,55.4258940,37.5371531
46,улица Кирова,142110,55.4265392,37.5285586
8,улица Гайдара,142114,55.4213266,37.5269137
3В,Высотная улица,142117,55.4198163,37.5195381
61,улица Кирова,142117,55.4215621,37.5184428
3,Высотная улица,142117,55.4205676,37.5185503
2/24,Большая Серпуховская улица,142100,55.4289755,37.5450644
15,улица Кирова,142110,55.4273843,37.5354927
11,улица Кирова,142110,55.4276496,37.5367433
9,улица Кирова,142110,55.4280083,37.5379106
5,улица Кирова,142110,55.4287904,37.5402275
3,улица Кирова,142110,55.4291370,37.5413365
4А,улица Свердлова,142110,55.4284985,37.5414123
79,улица Ватутина,142114,55.4138082,37.5292002
3,улица Гайдара,142114,55.4209000,37.5288893
5,улица Гайдара,142114,55.4207113,37.5282910
52Б,улица Свердлова,142114,55.4167529,37.5292180
52В,улица Свердлова,142114,55.4169341,37.5286406
5,Большая Серпуховская улица,142100,55.4293236,37.5467319
5,улица Машиностроителей,142115,55.4102974,37.5682737
20,улица Космонавтов,142115,55.4109173,37.5682198
18А,улица 50 лет ВЛКСМ,142110,55.4264197,37.5377004
18,улица 50 лет ВЛКСМ,142110,55.4265137,37.5365828
2А,Клубный переулок,142115,55.4103637,37.5623549
2А,улица Космонавтов,142115,55.4104397,37.5614464
10А,улица Правды,142115,55.4096817,37.5615829
2,улица Космонавтов,142115,55.4116181,37.5616854
16,улица Давыдова,142108,55.4030819,37.5599718
30,улица Машиностроителей,142115,55.4075031,37.5758557
32,улица Машиностроителей,142115,55.4076763,37.5772779
2,улица Филиппова,142115,55.4067517,37.5764997
3,улица Филиппова,142115,55.4068365,37.5780242
7,улица Филиппова,142115,55.4050368,37.5789599
11,улица Долгого,142115,55.4090025,37.5656849
12,улица Машиностроителей,142115,55.4093010,37.5680533
20,улица Правды,142115,55.4079640,37.5620210
8,улица Машиностроителей,142115,55.4100662,37.5668029
10,улица Машиностроителей,142115,55.4097767,37.5676726
8,улица Долгого,142115,55.4083478,37.5647837
17/1,улица Правды,142115,55.4079116,37.5633574
9,улица Долгого,142115,55.4091107,37.5650841
3,Южный проезд,142115,55.4077270,37.5642460
24А,улица Правды,142115,55.4067534,37.5608005
26,улица Правды,142115,55.4060228,37.5607065
24,улица Правды,142115,55.4067046,37.5615114
4,Южный проезд,142115,55.4069288,37.5637654
19/2,улица Правды,142115,55.4071191,37.5627665
5,Южный проезд,142115,55.4076175,37.5647850
4,Молодёжная улица,142115,55.4062497,37.5685581
5,Молодёжная улица,142115,55.4065033,37.5660020
3,Молодёжная улица,142115,55.4062378,37.5651837
1,Молодёжная улица,142115,55.4060340,37.5644021
14,улица Филиппова,142115,55.4047377,37.5689691
12,улица Филиппова,142115,55.4049826,37.5698600
8,улица Филиппова,142115,55.4052300,37.5707441
6,улица Филиппова,142115,55.4066082,37.5731263
7,Молодёжная улица,142115,55.4067477,37.5668223
18,улица Филиппова,142115,55.4053168,37.5677194
20,улица Филиппова,142115,55.4057112,37.5672713
16,улица Филиппова,142115,55.4049094,37.5681578
6,улица Машиностроителей,142115,55.4097739,37.5658801
6А,улица Филиппова,142115,55.4061174,37.5721647
4А,улица Филиппова,142115,55.4061109,37.5740639
4,улица Филиппова,142115,55.4064125,37.5746679
28Б,улица Машиностроителей,142115,55.4071376,37.5749295
26,улица Машиностроителей,142115,55.4083884,37.5735779
28,улица Машиностроителей,142115,55.4081666,37.5752264
11,Южный проезд,142115,55.4075088,37.5667541
10,улица Долгого,142115,55.4082763,37.5663092
24А,улица Машиностроителей,142115,55.4078670,37.5724314
26А,улица Машиностроителей,142115,55.4075440,37.5730187
28А,улица Машиностроителей,142115,55.4072898,37.5742405
15,улица Долгого,142115,55.4087041,37.5672486
13,улица Долгого,142115,55.4088625,37.5664386
9,Южный проезд,142115,55.4075684,37.5662635
7,Южный проезд,142115,55.4075118,37.5653560
11А,Молодёжная улица,142115,55.4079409,37.5682346
11Б,Молодёжная улица,142115,55.4080820,37.5675269
16,улица Машиностроителей,142115,55.4090467,37.5693528
14,улица Машиностроителей,142115,55.4091752,37.5686997
13,Молодёжная улица,142115,55.4082564,37.5697924
17,Плещеевская улица,142101,55.4575145,37.5753064
38,Плещеевская улица,142101,55.4567151,37.5744000
40,Плещеевская улица,142101,55.4569538,37.5773206
67/56,Комсомольская улица,142100,55.4328895,37.5419459
57,улица Карла Маркса,142100,55.4369084,37.5446927
16,Большая Ивановская улица,142100,55.4369910,37.5423941
10,улица Веллинга,142100,55.4325999,37.5378434
14,улица Веллинга,142100,55.4330171,37.5365853
14А,улица Веллинга,142100,55.4337322,37.5362201
10А,улица Веллинга,142100,55.4332730,37.5377315
8,улица Веллинга,142100,55.4327308,37.5391458
86,Комсомольская улица,142100,55.4351130,37.5394821
90А,Комсомольская улица,142100,55.4354938,37.5385313
54/150,Февральская улица,142100,55.4333887,37.5463687
58,Большая Зелёновская улица,142100,55.4323706,37.5411776
68,Комсомольская улица,142100,55.4325112,37.5443152
158,проспект Ленина,142100,55.4321037,37.5457769
88,Революционный проспект,142100,55.4365148,37.5417232
8,Большая Зелёновская улица,142100,55.4359506,37.5461619
14/61,Большая Ивановская улица,142100,55.4372674,37.5430775
5,Индустриальная улица,142104,55.4185399,37.5443204
69А,Комсомольская улица,142100,55.4327844,37.5405472
69,Комсомольская улица,142100,55.4332370,37.5411183
11А,улица Свердлова,142100,55.4260501,37.5431758
15,улица Свердлова,142100,55.4246708,37.5408894
8,улица 50 лет ВЛКСМ,142100,55.4249956,37.5421337
3,улица Свердлова,142110,55.4276431,37.5439284
1,улица Свердлова,142110,55.4283387,37.5437551
4,Большая Серпуховская улица,142110,55.4279214,37.5449811
5А,улица Свердлова,142100,55.4269919,37.5440973
23,Плещеевская улица,142101,55.4575093,37.5778677
25,Плещеевская улица,142101,55.4575224,37.5783517
37А,Плещеевская улица,142101,55.4564742,37.5891156
8,улица Суворова,142101,55.4544649,37.5906594
35А,Плещеевская улица,142101,55.4565677,37.5883939
35,Плещеевская улица,142101,55.4563848,37.5880407
37,Плещеевская улица,142101,55.4563144,37.5885824
39,Плещеевская улица,142101,55.4562162,37.5895014
41,Плещеевская улица,142101,55.4561714,37.5900244
33,Плещеевская улица,142101,55.4565282,37.5863257
48,Плещеевская улица,142101,55.4560397,37.5855394
12,улица Чистова,142104,55.4215248,37.5400284
21,улица Свердлова,142104,55.4236850,37.5392425
11А,Литейная улица,142104,55.4202182,37.5443430
30А,Большая Серпуховская улица,142104,55.4202370,37.5448875
11,Литейная улица,142104,55.4202250,37.5430922
2,Литейная улица,142104,55.4232142,37.5417765
1/7,Литейная улица,142104,55.4234091,37.5428764
3,улица Чистова,142104,55.4212715,37.5454563
4А,Литейная улица,142104,55.4227695,37.5406897
4,Литейная улица,142104,55.4224160,37.5423141
5А,улица Чистова,142104,55.4212498,37.5443750
9/7,улица Чистова,142104,55.4212266,37.5433469
7,улица Чистова,142104,55.4208335,37.5442734
5,улица Чистова,142104,55.4208591,37.5448038
4,улица 50 лет ВЛКСМ,142100,55.4244825,37.5447559
6,улица 50 лет ВЛКСМ,142100,55.4244512,37.5430209
18/1,Большая Серпуховская улица,142100,55.4246060,37.5459246
4,улица Веллинга,142100,55.4314297,37.5383852
60,Большая Зелёновская улица,142100,55.4315519,37.5401269
16,улица Веллинга,142100,55.4327052,37.5349487
16А,улица Веллинга,142100,55.4331654,37.5341222
18,улица Веллинга,142100,55.4336153,37.5351814
12,улица Веллинга,142100,55.4321492,37.5365293
6,улица Веллинга,142100,55.4321203,37.5392529
81,Комсомольская улица,142100,55.4347251,37.5368661
10/1,Большая Серпуховская улица,142100,55.4269084,37.5456954
2,Первомайская улица,142100,55.4266901,37.5449001
78/23,Революционный проспект,142100,55.4347480,37.5462395
82А,Революционный проспект,142100,55.4359631,37.5446848
82/13,Революционный проспект,142100,55.4354753,37.5442980
138,проспект Ленина,142100,55.4345177,37.5488736
26,Пионерская улица,142114,55.4151894,37.5327514
22,Пионерская улица,142114,55.4146811,37.5346715
24,Пионерская улица,142114,55.4149004,37.5336350
23,Пионерская улица,142114,55.4143160,37.5340447
66А,улица Ватутина,142114,55.4147443,37.5309939
29,Пионерская улица,142114,55.4148885,37.5318884
53/70,улица Свердлова,142114,55.4148152,37.5300154
66,улица Ватутина,142114,55.4143878,37.5303294
64,улица Ватутина,142114,55.4142431,37.5310948
62,улица Ватутина,142114,55.4139612,37.5315345
60,улица Ватутина,142114,55.4138173,37.5320634
20/7,Пионерская улица,142114,55.4141846,37.5356600
16,Пионерская улица,142114,55.4134429,37.5379057
19,Пионерская улица,142114,55.4136377,37.5359976
21,Пионерская улица,142114,55.4139282,37.5351054
25А,Индустриальная улица,142114,55.4180101,37.5359930
23А,Индустриальная улица,142114,55.4178203,37.5367645
21А,Индустриальная улица,142114,55.4176963,37.5374338
10А,Народная улица,142114,55.4177198,37.5383140
10,Народная улица,142114,55.4177531,37.5390268
43А,улица Свердлова,142114,55.4175680,37.5339978
45,улица Свердлова,142114,55.4170845,37.5323147
47А,улица Свердлова,142114,55.4163157,37.5326252
28А,Пионерская улица,142114,55.4158063,37.5324812
24А,Пионерская улица,142114,55.4153837,37.5338012
26А,Пионерская улица,142114,55.4159212,37.5338122
47,улица Свердлова,142114,55.4164487,37.5316792
28,Пионерская улица,142114,55.4154934,37.5318397
30/49,Пионерская улица,142114,55.4158709,37.5311279
51/31,улица Свердлова,142114,55.4152405,37.5309122
41А,улица Свердлова,142114,55.4181789,37.5346697
39,улица Свердлова,142114,55.4190957,37.5342865
41,улица Свердлова,142114,55.4184599,37.5336527
3,улица Победы,142114,55.4154104,37.5364076
27/37,Индустриальная улица,142114,55.4191575,37.5354825
25,Индустриальная улица,142114,55.4187508,37.5361959
23,Индустриальная улица,142114,55.4185663,37.5369423
21,Индустриальная улица,142114,55.4183753,37.5376573
3,Литейная улица,142104,55.4226486,37.5429374
5/6,Литейная улица,142104,55.4217248,37.5429577
6/8,Литейная улица,142104,55.4217823,37.5422486
10,улица Чистова,142104,55.4215676,37.5412926
3Б,Рабочая улица,142100,55.4300815,37.5515106
42/24,Февральская улица,142100,55.4313032,37.5514548
51/31,Февральская улица,142100,55.4315221,37.5499674
29,Советская улица,142100,55.4310260,37.5497212
154,проспект Ленина,142100,55.4323036,37.5464079
152/63,проспект Ленина,142100,55.4327890,37.5465645
2,Курская улица,142116,55.4301377,37.5621251
28,Комсомольская улица,142116,55.4284213,37.5567394
4,Курская улица,142116,55.4290857,37.5616728
3А,Рабочая улица,142100,55.4298694,37.5522110
42Б,Комсомольская улица,142100,55.4295824,37.5514194
42А,Комсомольская улица,142100,55.4293475,37.5520553
4А,Курская улица,142116,55.4280954,37.5610144
2,улица Дружбы,142116,55.4292007,37.5582043
4,улица Дружбы,142116,55.4301742,37.5586569
2,Вокзальная улица,142116,55.4312661,37.5612076
17/32,Революционный проспект,142116,55.4310964,37.5588343
3,Товарная улица,142116,55.4294084,37.5594040
1,Вокзальная улица,142116,55.4307390,37.5618891
3,Вокзальная улица,142116,55.4306745,37.5604596
31/30,Революционный проспект,142100,55.4319374,37.5522871
24/23,Рабочая улица,142116,55.4332603,37.5579564
5,улица Пантелеева,142116,55.4329224,37.5592714
4,улица Пантелеева,142116,55.4336167,37.5595312
3,Огородная улица,142116,55.4332023,37.5604886
3,Кооперативный проезд,142116,55.4339254,37.5601626
26,Рабочая улица,142116,55.4340588,37.5588675
1/13,Мраморная улица,142116,55.4389503,37.5653370
3,Мраморная улица,142116,55.4396622,37.5644623
3А,Мраморная улица,142116,55.4394330,37.5635092
3Б,Мраморная улица,142116,55.4391644,37.5626295
6,Парадный проезд,142116,55.4389012,37.5617759
10,Парадный проезд,142116,55.4400414,37.5613508
4,Парадный проезд,142116,55.4379399,37.5619044
11,Рабочая улица,142116,55.4379198,37.5649814
2,Февральская улица,142116,55.4288177,37.5598757
6,Вокзальная улица,142116,55.4308918,37.5592250
19/21,Революционный проспект,142116,55.4308032,37.5575637
17,улица Дружбы,142116,55.4298482,37.5577800
25,Вокзальная улица,142116,55.4303190,37.5575662
4,Товарная улица,142116,55.4297416,37.5600194
21,улица Ульяновых,142116,55.4426991,37.5657377
6А,Мраморная улица,142116,55.4429882,37.5642847
6,Мраморная улица,142116,55.4417272,37.5646461
17,улица Ульяновых,142116,55.4412994,37.5661344
15,улица Ульяновых,142116,55.4403659,37.5662689
4,Мраморная улица,142116,55.4407814,37.5645854
12,Мраморная улица,142116,55.4434958,37.5628974
14,Мраморная улица,142116,55.4440737,37.5634948
25,улица Ульяновых,142116,55.4435956,37.5651108
27,улица Ульяновых,142116,55.4441752,37.5647281
5,Гулёвский проезд,142103,55.4196677,37.5844257
4/3,улица Батырева,142103,55.4198721,37.5835719
3,улица Энтузиастов,142103,55.4197176,37.5793716
5/1,улица Энтузиастов,142103,55.4191491,37.5799529
19,улица Мира,142103,55.4190877,37.5767994
6,Северная улица,142103,55.4199613,37.5756509
3А,Пионерская улица,142105,55.4107295,37.5431486
1,Пионерская улица,142105,55.4109046,37.5441927
3,Пионерская улица,142105,55.4111810,37.5434694
30,улица Ватутина,142105,55.4109180,37.5412289
7,Пионерская улица,142105,55.4115824,37.5422537
5,Пионерская улица,142105,55.4113867,37.5428649
9,Пионерская улица,142105,55.4118061,37.5415962
6,улица Чайковского,142105,55.4104459,37.5440895
62/2,Большая Зелёновская улица,142100,55.4310382,37.5394610
23А,Октябрьский проспект,142119,55.4336919,37.5050765
23,Октябрьский проспект,142119,55.4334261,37.5067782
23,Красногвардейский бульвар,142119,55.4325517,37.4956239
10,Пахринский проезд,142119,55.4316781,37.5000764
8,Пахринский проезд,142119,55.4315321,37.5012619
12,Пахринский проезд,142119,55.4317938,37.4989928
12А,Ленинградская улица,142121,55.4270575,37.4956293
12Б,Ленинградская улица,142121,55.4270027,37.4972333
14,Ленинградская улица,142121,55.4264457,37.4953127
16,Ленинградская улица,142121,55.4261200,37.4947978
18,Ленинградская улица,142121,55.4255874,37.4940672
12,Ленинградская улица,142121,55.4264091,37.4970240
3,улица 43-й Армии,142121,55.4271677,37.4874433
5,улица Свердлова,142110,55.4274699,37.5429763
34,Юбилейная улица,142119,55.4320139,37.4973261
36,Юбилейная улица,142119,55.4316639,37.4961996
15,Октябрьский проспект,142119,55.4303113,37.5046952
13,Октябрьский проспект,142119,55.4295593,37.5054688
36,Рабочая улица,142116,55.4360639,37.5628871
32/24,Рабочая улица,142116,55.4353697,37.5610127
24,Южный посёлок,142184,55.3661156,37.5400334
2,улица 8 Марта,142111,55.4806356,37.5714385
16,Почтовая улица,142111,55.4765560,37.5694135
3,Вишнёвая улица,142111,55.4743460,37.5731962
8,улица Караваева,142100,55.4314569,37.5428414
66,Комсомольская улица,142100,55.4321164,37.5452236
9,Западная улица,142184,55.3760326,37.5373825
34/2,проспект Юных Ленинцев,142111,55.4727968,37.5644311
7,Быковская улица,142111,55.4738535,37.5648822
89/21,Февральская улица,142100,55.4349663,37.5413714
21,Большая Зелёновская улица,142100,55.4353456,37.5464155
136,проспект Ленина,142100,55.4347195,37.5492208
26А,Малая Зелёновская улица,142100,55.4350626,37.5424460
35/33,Советская улица,142100,55.4321017,37.5512229
35,Революционный проспект,142100,55.4322754,37.5505012
150А,проспект Ленина,142100,55.4335428,37.5477201
3А,Соборная площадь,142103,55.4337922,37.5463071
44/33,Февральская улица,142100,55.4317258,37.5505979
8,Художественный проезд,142111,55.4711079,37.5735957
32/2,Быковская улица,142111,55.4726436,37.5736129
28,Быковская улица,142111,55.4726453,37.5724413
4,Художественный проезд,142111,55.4717793,37.5742087
14,Художественный проезд,142111,55.4711279,37.5711971
6,Художественный проезд,142111,55.4711023,37.5742655
28А,Быковская улица,142111,55.4718004,37.5724053
24,Быковская улица,142111,55.4726886,37.5713013
30А,Быковская улица,142111,55.4721330,37.5731049
12,Художественный проезд,142111,55.4711204,37.5718647
24А,Быковская улица,142111,55.4719896,37.5712020
32А,Быковская улица,142111,55.4722051,37.5736658
10,Художественный проезд,142111,55.4711227,37.5729338
25,Сыровская улица,142111,55.4715777,37.5693775
18А,улица Правды,142115,55.4083149,37.5619417
24/6,Бородинская улица,142108,55.3993585,37.5639093
8,Сосновая улица,142108,55.3987287,37.5643642
16/3,улица Правды,142115,55.4086294,37.5627894
2,улица Долгого,142115,55.4091212,37.5624703
18,улица Правды,142115,55.4082003,37.5625170
16А,улица Правды,142115,55.4087004,37.5622080
22,Быковская улица,142111,55.4727571,37.5700068
20,Быковская улица,142111,55.4728917,37.5695233
38,проспект Юных Ленинцев,142111,55.4752754,37.5643467
40,проспект Юных Ленинцев,142111,55.4768543,37.5648434
42,проспект Юных Ленинцев,142111,55.4778405,37.5651698
5,Почтовая улица,142111,55.4753355,37.5658648
2Д,Художественный проезд,142111,55.4700510,37.5737948
21,Трубная улица,142111,55.4701793,37.5687271
15,Быковская улица,142111,55.4736227,37.5696545
13,Быковская улица,142111,55.4735754,37.5689588
3,Почтовая улица,142111,55.4743020,37.5655845
5/36,Быковская улица,142111,55.4739084,37.5642245
36,проспект Юных Ленинцев,142111,55.4743460,37.5643202
5,Профсоюзная улица,108823,55.4639230,37.5518327
84А,проспект Юных Ленинцев,142111,55.4847856,37.5683880
15,Почтовая улица,142111,55.4772537,37.5665051
76,проспект Юных Ленинцев,142111,55.4812236,37.5664379
80,проспект Юных Ленинцев,142111,55.4827892,37.5672533
5,улица 8 Марта,142111,55.4811555,37.5688845
13,Почтовая улица,142111,55.4766814,37.5663318
9,улица 8 Марта,142111,55.4833637,37.5690256
88А,проспект Юных Ленинцев,142111,55.4855890,37.5686762
82А,проспект Юных Ленинцев,142111,55.4838611,37.5679071
11,Почтовая улица,142111,55.4761768,37.5661657
88Б,проспект Юных Ленинцев,142111,55.4855293,37.5693259
17,Почтовая улица,142111,55.4774551,37.5657857
80А,проспект Юных Ленинцев,142111,55.4825963,37.5681917
9,Почтовая улица,142111,55.4759778,37.5653814
84Б,проспект Юных Ленинцев,142111,55.4847075,37.5691164
25,Почтовая улица,142111,55.4797681,37.5661148
78,проспект Юных Ленинцев,142111,55.4821903,37.5665405
84,проспект Юных Ленинцев,142111,55.4849619,37.5677984
88,проспект Юных Ленинцев,142111,55.4856245,37.5677873
7,улица 8 Марта,142111,55.4825338,37.5690918
76А,проспект Юных Ленинцев,142111,55.4810224,37.5675263
17,Октябрьский проспект,142119,55.4312672,37.5058410
19,Октябрьский проспект,142119,55.4318839,37.5060574
21,Октябрьский проспект,142119,55.4324887,37.5062565
9,улица 43-й Армии,142121,55.4258375,37.4898071
25,Юбилейная улица,142121,55.4293947,37.4952385
7,улица 43-й Армии,142121,55.4260997,37.4885419
5,улица 43-й Армии,142121,55.4268350,37.4888504
11,улица 43-й Армии,142121,55.4250758,37.4893486
29В,Красногвардейский бульвар,142121,55.4292229,37.4942547
6,Театральная улица,142184,55.3737812,37.5421232
4,Заводская улица,142181,55.3799148,37.5450613
8,Школьная улица,142180,55.3654239,37.5189865
4,Тепличная улица,142100,55.4698364,37.5513286
8,Профсоюзная улица,108823,55.4648636,37.5506987
9,Тепличная улица,108823,55.4682620,37.5491928
7,Тепличная улица,108823,55.4683243,37.5518651
14А,Подольская улица,108823,55.4705178,37.5475559
9А,Тепличная улица,108823,55.4682065,37.5481769
11,Тепличная улица,108823,55.4681696,37.5470913
9В,Тепличная улица,108823,55.4675211,37.5519044
29А,Народная улица,142105,55.4143010,37.5410414
6,Народный проезд,142105,55.4153428,37.5410351
34А,Литейная улица,142105,55.4147573,37.5427808
22,Народная улица,142114,55.4154496,37.5391924
34/1,улица Свердлова,142104,55.4228270,37.5367212
30/1,улица Свердлова,142104,55.4233395,37.5372563
32/1,улица Свердлова,142104,55.4231095,37.5361883
23Б,Октябрьский проспект,142119,55.4331838,37.5058181
21Б,Октябрьский проспект,142119,55.4328740,37.5042200
23,Юбилейная улица,142121,55.4291793,37.4967348
11А,Юбилейная улица,142121,55.4238254,37.4973239
11Б,Юбилейная улица,142121,55.4229472,37.4973886
13,Юбилейная улица,142121,55.4246508,37.4980051
13А,Юбилейная улица,142121,55.4239362,37.4959075
17А,улица 43-й Армии,142118,55.4221142,37.4940888
15,улица 43-й Армии,142121,55.4229437,37.4926581
7А,Юбилейная улица,142121,55.4223935,37.4963611
23А,улица 43-й Армии,142118,55.4184297,37.4972365
8,улица Шаталова,142114,55.4046943,37.5317392
4,улица Шаталова,142105,55.4040841,37.5353985
50,улица Чайковского,142105,55.4042747,37.5379634
39,Школьная улица,142105,55.4045060,37.5369000
35А,Школьная улица,142105,55.4054714,37.5378858
1А/37,улица Чернышевского,142105,55.4049558,37.5378752
35,Школьная улица,142105,55.4060623,37.5386562
7,улица Ульяновых,142116,55.4366110,37.5657619
5,улица Ульяновых,142116,55.4358088,37.5653297
1,улица Ульяновых,142116,55.4345906,37.5648234
3,улица Ульяновых,142116,55.4349603,37.5649372
10,Мраморная улица,142116,55.4428783,37.5628484
20/23,Подольская улица,142103,55.4719480,37.5459913
23,улица Подольских Курсантов,142114,55.4159149,37.5381347
43,улица Свердлова,142114,55.4178579,37.5330639
12А,Индустриальная улица,142104,55.4192665,37.5411532
5,Народная улица,142104,55.4201938,37.5395491
14/20,Народная улица,142114,55.4165308,37.5391039
12,Индустриальная улица,142104,55.4189946,37.5411761
35/20,улица Свердлова,142114,55.4197384,37.5356420
15,улица Чистова,142104,55.4211660,37.5412726
25,улица Подольских Курсантов,142114,55.4159001,37.5371431
33,улица Свердлова,142114,55.4202035,37.5356417
21/20,улица Подольских Курсантов,142114,55.4159398,37.5389804
29,улица Свердлова,142104,55.4209356,37.5365623
24,Народная улица,142114,55.4148930,37.5388066
26,Народная улица,142114,55.4142324,37.5389042
31,улица Свердлова,142114,55.4205271,37.5363294
24А,Народная улица,142114,55.4150676,37.5379087
1/19,улица Чистова,142104,55.4210428,37.5396572
26А,Народная улица,142114,55.4139767,37.5379833
10,Индустриальная улица,142104,55.4189289,37.5417829
28,Народная улица,142114,55.4137210,37.5393286
17,улица Чистова,142104,55.4211485,37.5403714
3,Народная улица,142104,55.4206599,37.5397143
7,Народная улица,142104,55.4197735,37.5396078
3,Ленинградский проезд,142121,55.4246483,37.5036364
3А,Ленинградский проезд,142121,55.4238764,37.5036648
9А,Октябрьский проспект,142117,55.4230416,37.5039048
7А,Ленинградский проезд,142121,55.4238989,37.5026749
7,Ленинградский проезд,142121,55.4246763,37.5026091
1,Ленинградский проезд,142121,55.4251796,37.5038495
4,улица Энтузиастов,142103,55.4227174,37.5726910
2,улица Энтузиастов,142103,55.4230720,37.5720728
3А,улица Мира,142103,55.4228375,37.5714468
10,улица Энтузиастов,142103,55.4219671,37.5737854
12,улица Энтузиастов,142103,55.4215305,37.5742858
8,улица Энтузиастов,142103,55.4220500,37.5731644
7,улица Мира,142103,55.4219494,37.5724008
5,улица Мира,142103,55.4221035,37.5715316
11,улица Мира,142103,55.4209918,37.5731506
3,улица Мира,142103,55.4225144,37.5709181
11А,улица Мира,142103,55.4212200,37.5737600
6,улица Энтузиастов,142103,55.4223805,37.5726849
9,улица Мира,142103,55.4213557,37.5724820
13,улица Мира,142103,55.4206832,37.5735830
14,улица Энтузиастов,142103,55.4212304,37.5747164
7,Северная улица,142103,55.4203032,37.5750762
15,улица Мира,142103,55.4202387,37.5740855
16,улица Энтузиастов,142103,55.4208439,37.5753864
13,улица Орджоникидзе,142103,55.4197964,37.5720080
8,улица Мира,142103,55.4206440,37.5721602
6,улица Мира,142103,55.4208250,37.5711998
10,улица Мира,142103,55.4201980,37.5727926
17,улица Мира,142103,55.4194078,37.5759774
18,улица Энтузиастов,142103,55.4198099,37.5768505
6,Гулёвский проезд,142103,55.4202571,37.5808425
4,Гулёвский проезд,142103,55.4208392,37.5800693
3,улица Батырева,142103,55.4193020,37.5813960
1,улица Энтузиастов,142103,55.4202260,37.5788351
22,Северная улица,142103,55.4227226,37.5819456
20,Северная улица,142103,55.4222696,37.5809177
8/5,Гулёвский проезд,142103,55.4198871,37.5819885
4,улица Орджоникидзе,142103,55.4211782,37.5629431
6,улица Орджоникидзе,142103,55.4210731,37.5636939
12,Железнодорожная улица,142103,55.4221613,37.5621572
1А,Железнодорожная улица,142155,55.3070175,37.5161995
4,Почтовая улица,142111,55.4764438,37.5673050
30,Сыровская улица,142111,55.4711675,37.5700017
28,Сыровская улица,142111,55.4712564,37.5695556
26,Сыровская улица,142111,55.4713203,37.5690747
24,Сыровская улица,142111,55.4713510,37.5686335
22/9,Сыровская улица,142111,55.4713440,37.5682467
34/2,Литейная улица,142105,55.4152532,37.5432265
5,улица Подольских Курсантов,142105,55.4162074,37.5446722
11,улица Подольских Курсантов,142105,55.4159831,37.5423708
42,Большая Серпуховская улица,142105,55.4159839,37.5463843
23/7,Литейная улица,142105,55.4159662,37.5437864
3,улица Подольских Курсантов,142105,55.4166458,37.5455299
4,Народный проезд,142105,55.4151083,37.5424005
32,Литейная улица,142105,55.4156158,37.5432912
30/9,Литейная улица,142105,55.4160096,37.5429649
13,улица Подольских Курсантов,142105,55.4158692,37.5417583
40/1,Большая Серпуховская улица,142105,55.4166950,37.5466143
12,улица Володи Дубинина,142105,55.4137977,37.5426120
29,Народная улица,142105,55.4142566,37.5400278
38/8,Литейная улица,142105,55.4141964,37.5441360
31,Народная улица,142105,55.4138137,37.5400388
10,улица Володи Дубинина,142105,55.4139321,37.5434449
33,Народная улица,142105,55.4133974,37.5400665
44,Большая Серпуховская улица,142105,55.4155117,37.5475319
36/1,Литейная улица,142105,55.4146045,37.5438135
14,улица Володи Дубинина,142105,55.4135327,37.5415312
16,улица Володи Дубинина,142105,55.4132283,37.5407099
46/2,Большая Серпуховская улица,142105,55.4148601,37.5476270
4,улица Володи Дубинина,142105,55.4146284,37.5466755
19,Народная улица,142104,55.4169145,37.5398182
13/17,Народная улица,142104,55.4183011,37.5397311
22,Литейная улица,142104,55.4179090,37.5426690
28/10,Литейная улица,142105,55.4165015,37.5427476
15,Индустриальная улица,142104,55.4184216,37.5403716
15,Народная улица,142104,55.4178330,37.5397418
11,Индустриальная улица,142104,55.4184640,37.5419773
19А,Народная улица,142104,55.4169670,37.5405046
6,улица Подольских Курсантов,142105,55.4169419,37.5442793
36,Большая Серпуховская улица,142103,55.4180380,37.5464711
3,Индустриальная улица,142104,55.4185798,37.5454509
1,Индустриальная улица,142104,55.4185905,37.5461659
2/38,улица Подольских Курсантов,142105,55.4172125,37.5462756
7,Индустриальная улица,142104,55.4184251,37.5434054
8,улица Подольских Курсантов,142105,55.4170000,37.5435352
4,улица Подольских Курсантов,142105,55.4170132,37.5452582
18,Юбилейная улица,142121,55.4248039,37.4999145
14,Юбилейная улица,142121,55.4230490,37.5006113
69,улица Павлика Морозова,142106,55.4468015,37.5453178
13А,Литейная улица,142104,55.4198023,37.5437223
13,Революционный проспект,142116,55.4316081,37.5612675
7,Гулёвский проезд,142103,55.4209129,37.5819769
23,улица Машиностроителей,142115,55.4130143,37.5788386
1,Октябрьский проспект,142117,55.4207005,37.5082735
76 к2,улица Кирова,142117,55.4201176,37.5077900
3,Октябрьский проспект,142117,55.4216470,37.5074166
28/1,Большая Серпуховская улица,142104,55.4209860,37.5462331
30,Большая Серпуховская улица,142104,55.4202636,37.5463081
3А,Московская улица,142155,55.3176389,37.5267403
1А,Московская улица,142155,55.3178908,37.5274817
7,Серпуховская улица,142184,55.3540255,37.5424916
12А,улица Карла Маркса,142100,55.4345162,37.5522336
6А,Ленинградская улица,142119,55.4291469,37.5022700
4А,Ленинградская улица,142119,55.4296121,37.5038235
30,Юбилейная улица,142119,55.4304182,37.4982270
8А,Ленинградская улица,142119,55.4287138,37.5010135
7,Пахринский проезд,142119,55.4304592,37.5008389
26,Юбилейная улица,142119,55.4289718,37.4988836
4,Ленинградская улица,142119,55.4284434,37.5036563
4Б,Ленинградская улица,142119,55.4293883,37.5030527
28,Юбилейная улица,142119,55.4299700,37.4985920
30А,Юбилейная улица,142119,55.4304147,37.4993769
24,Юбилейная улица,142119,55.4279957,37.4995235
8,Ленинградская улица,142119,55.4275751,37.5008311
6,Школьная улица,142180,55.3652069,37.5196803
5,Садовый проезд,142155,55.3093404,37.5241244
43А,Плещеевская улица,142131,55.4577510,37.5987222
64А,Плещеевская улица,142101,55.4554319,37.5935964
7,Донская улица,142101,55.4545435,37.5982263
3,Донская улица,142101,55.4549034,37.5985051
5,Цементный проезд,142100,55.4617640,37.5685794
54А,Плещеевская улица,142101,55.4549210,37.5881536
11,улица Суворова,142101,55.4545446,37.5933459
56Г,Плещеевская улица,142101,55.4533932,37.5881751
4,улица Левитана,142101,55.4545514,37.5942910
56,Плещеевская улица,142101,55.4552716,37.5895082
64,Плещеевская улица,142101,55.4550160,37.5918116
1,1-й Суворовский тупик,142101,55.4541546,37.5905906
54,Плещеевская улица,142101,55.4557581,37.5883843
22,улица Лобачёва,142116,55.4414668,37.5738453
15,улица Левитана,142101,55.4530759,37.5943278
19,улица Суворова,142101,55.4543025,37.5957259
9,улица Левитана,142101,55.4538008,37.5945710
17,улица Левитана,142101,55.4528258,37.5942516
10,1-й Суворовский тупик,142101,55.4535815,37.5934761
11,1-й Суворовский тупик,142101,55.4538505,37.5936044
16,улица Суворова,142101,55.4542236,37.5932895
18,улица Суворова,142101,55.4541831,37.5937267
7/22,улица Левитана,142101,55.4540415,37.5946604
17,улица Суворова,142101,55.4543439,37.5953241
10/13,улица Левитана,142101,55.4538685,37.5940866
3/2,улица Левитана,142101,55.4546926,37.5948775
14,улица Левитана,142101,55.4531432,37.5938416
11,улица Левитана,142101,55.4535565,37.5944912
8/20,улица Левитана,142101,55.4540888,37.5941749
5/15,улица Левитана,142101,55.4544606,37.5947977
19,улица Левитана,142101,55.4525902,37.5941752
13,улица Левитана,142101,55.4533003,37.5944063
21,Домодедовское шоссе,142116,55.4391741,37.5811226
20,Известковая улица,142116,55.4396776,37.5850853
2/13,улица Свердлова,142110,55.4287283,37.5425482
10/27,Февральская улица,142116,55.4297915,37.5565798
23,Революционный проспект,142116,55.4308568,37.5564867
14,Февральская улица,142100,55.4290467,37.5590615
25/12,Революционный проспект,142116,55.4307051,37.5550657
1,Рабочая улица,142100,55.4292072,37.5524100
6,Курская улица,142116,55.4275938,37.5607167
19,улица Ульяновых,142116,55.4418300,37.5662983
9,Рабочая улица,142116,55.4375942,37.5634240
12,Парадный проезд,142116,55.4415506,37.5619018
18 к1,Подольская улица,108823,55.4714240,37.5476414
6,Профсоюзная улица,108823,55.4664571,37.5514555
5,Нефтебазовский проезд,142101,55.4646220,37.5709569
7с1,Нефтебазовский проезд,142100,55.4652783,37.5751639
11,Западная улица,142184,55.3751617,37.5374481
20Б,проспект 50 лет Октября,142180,55.3716084,37.5374993
7А,Заводская улица,142181,55.3796294,37.5423339
11,улица Победы,142114,55.4137316,37.5345723
12,улица Победы,142114,55.4137745,37.5333573
13,улица Победы,142114,55.4134199,37.5342561
21А,улица Свердлова,142104,55.4232191,37.5385639
25Б,улица Свердлова,142104,55.4221642,37.5374448
10,улица Победы,142114,55.4140220,37.5336030
15,улица Циолковского,142108,55.3970316,37.5579460
9,улица Орджоникидзе,142103,55.4203397,37.5704722
19,улица Орджоникидзе,142103,55.4180733,37.5741378
1А,Октябрьский проспект,142117,55.4209069,37.5062059
78,улица Кирова,142117,55.4201971,37.5059150
5А,Октябрьский проспект,142117,55.4220996,37.5047825
3А,Октябрьский проспект,142117,55.4215164,37.5054802
76 к1,улица Кирова,142117,55.4198248,37.5068580
5,Октябрьский проспект,142117,55.4225670,37.5065994
20,улица Веллинга,142100,55.4341577,37.5351470
12 к1,Заводская улица,142181,55.3809456,37.5471346
23,улица 43-й Армии,142118,55.4177953,37.4969969
14,Профсоюзная улица,108823,55.4653783,37.5479167
16/2,Профсоюзная улица,108823,55.4653699,37.5469461
4,Подольская улица,108823,55.4662438,37.5468755
10,Профсоюзная улица,108823,55.4652941,37.5490963
7,Профсоюзная улица,108823,55.4642568,37.5495853
7А,Профсоюзная улица,108823,55.4638274,37.5502031
13,Профсоюзная улица,108823,55.4644527,37.5474131
5,Московская улица,108823,55.4660294,37.5535775
2/1,Профсоюзная улица,108823,55.4653761,37.5542135
34/29,Революционный проспект,142116,55.4316244,37.5570525
3,улица Машиностроителей,142115,55.4107064,37.5660718
7,Электромонтажный проезд,142115,55.4088663,37.5599543
9,Электромонтажный проезд,142115,55.4083846,37.5596825
5А,Электромонтажный проезд,142115,55.4089586,37.5611670
5,Электромонтажный проезд,142115,55.4093568,37.5602355
9А,Северная улица,142103,55.4220954,37.5782507
7,Московская улица,108823,55.4668446,37.5529767
33А,Революционный проспект,142100,55.4324020,37.5511303
33,Садовая улица,142106,55.4504249,37.5379380
26/5,Калужская улица,142106,55.4504325,37.5493280
48,Колхозная улица,142106,55.4498461,37.5355433
42/36,улица Щорса,142106,55.4499111,37.5370390
5 к1,Садовая улица,142106,55.4519017,37.5457533
35/38,Садовая улица,142106,55.4503619,37.5370449
24/6,Калужская улица,142106,55.4499789,37.5493476
41,Садовая улица,142106,55.4504304,37.5355438
36А,Колхозная улица,142106,55.4501401,37.5387461
46,Колхозная улица,142106,55.4498517,37.5360450
31,Садовая улица,142106,55.4503656,37.5383657
3 к2,Садовая улица,142106,55.4513240,37.5479461
25/37,Садовая улица,142106,55.4503682,37.5364794
39/29,Садовая улица,142106,55.4504280,37.5360254
44/23,Колхозная улица,142106,55.4499196,37.5364861
40,Колхозная улица,142106,55.4498536,37.5379459
4/2,проспект Ленина,142106,55.4499280,37.5514199
38,Колхозная улица,142106,55.4499251,37.5383997
29,Садовая улица,142106,55.4504302,37.5388707
18,Колхозная улица,142106,55.4501356,37.5435877
66,Гражданская улица,142106,55.4486274,37.5358012
19,улица Щорса,142106,55.4489339,37.5365160
64/17,Гражданская улица,142106,55.4486256,37.5363940
10,проспект Ленина,142106,55.4468612,37.5512521
8,проспект Ленина,142106,55.4485393,37.5512536
4А,Овражный тупик,142100,55.4403436,37.5531379
76/2,проспект Ленина,142106,55.4395576,37.5559566
2А,Парковая улица,142100,55.4313240,37.5167857
34/2,Большая Серпуховская улица,142104,55.4191631,37.5461115
4,Индустриальная улица,142104,55.4189446,37.5450188
2,проезд Авиаторов,108823,55.4621738,37.5530191
4,проезд Авиаторов,108823,55.4632876,37.5530730
5,проезд Авиаторов,108823,55.4623846,37.5523370
19,Рязановское шоссе,108823,55.4723212,37.5490235
5,улица Горького,142155,55.3114913,37.5251150
8,Садовый проезд,142155,55.3116640,37.5263336
32/34,Революционный проспект,142116,55.4318224,37.5582139
3,улица Генерала Смирнова,142133,55.4155762,37.4887217
11,улица Генерала Смирнова,142133,55.4138232,37.4830358
7,улица Генерала Смирнова,142133,55.4147105,37.4859167
18,улица Академика Доллежаля,142133,55.4211808,37.4816671
2,улица Генерала Смирнова,142133,55.4173525,37.4911223
14,улица Академика Доллежаля,142133,55.4220430,37.4831524
9,Ленинградский проезд,142121,55.4255563,37.5013469
3,улица Генерала Стрельбицкого,142133,55.4186620,37.4908800
12 к2,бульвар 65-летия Победы,142121,55.4200189,37.4800898
10,улица Генерала Стрельбицкого,142133,55.4204476,37.4906296
2 к2,улица Академика Доллежаля,142133,55.4241089,37.4877925
8,улица Академика Доллежаля,142133,55.4227289,37.4848801
22,улица Академика Доллежаля,142133,55.4208671,37.4806622
3,улица Генерала Варенникова,142133,55.4175128,37.4898974
12,улица Генерала Стрельбицкого,142133,55.4209536,37.4900469
16,улица Академика Доллежаля,142133,55.4218334,37.4820491
4,улица Академика Доллежаля,142133,55.4234219,37.4870793
1,улица Генерала Стрельбицкого,142133,55.4181646,37.4915406
14,бульвар 65-летия Победы,142133,55.4201765,37.4784660
8,улица Генерала Стрельбицкого,142133,55.4199640,37.4912067
10,улица Академика Доллежаля,142133,55.4226327,37.4837371
1,улица Генерала Варенникова,142133,55.4183102,37.4902654
12 к1,бульвар 65-летия Победы,142121,55.4202726,37.4805961
4,улица Генерала Смирнова,142133,55.4170316,37.4900485
2 к1,улица Академика Доллежаля,142133,55.4237326,37.4878422
13,улица Академика Доллежаля,142133,55.4216081,37.4846233
11,Ленинградская улица,142121,55.4254794,37.4974758
17,Ленинградская улица,142121,55.4247249,37.4950146
15,улица Академика Доллежаля,142133,55.4210088,37.4834674
15,Ленинградская улица,142121,55.4251027,37.4962419
19,улица Академика Доллежаля,142133,55.4203122,37.4824668
14,улица Генерала Стрельбицкого,142121,55.4217461,37.4891043
9В,Октябрьский проспект,142119,55.4265770,37.5044166
22А,Большая Серпуховская улица,142100,55.4227082,37.5441505
3,улица 50 лет ВЛКСМ,142100,55.4234067,37.5438652
4,улица Чистова,142104,55.4218240,37.5442373
24,Большая Серпуховская улица,142100,55.4221776,37.5454228
22,Большая Серпуховская улица,142100,55.4227006,37.5453240
36,улица Академика Доллежаля,142133,55.4150635,37.4795776
29,улица Академика Доллежаля,142133,55.4167715,37.4811070
16,улица Генерала Смирнова,142133,55.4148599,37.4818989
33,улица Академика Доллежаля,142133,55.4157943,37.4813305
3,улица Веллинга,142100,55.4306197,37.5384028
5,проспект Ленина,142100,55.4482141,37.5524238
13,улица Генерала Стрельбицкого,142133,55.4246577,37.4836571
9,улица Генерала Стрельбицкого,142133,55.4240240,37.4843951
6,улица Академика Доллежаля,142133,55.4233724,37.4851351
3,Армейский проезд,142133,55.4230083,37.4785045
7,Армейский проезд,142133,55.4222227,37.4781441
9,Армейский проезд,142133,55.4214148,37.4778248
16,бульвар 65-летия Победы,142133,55.4208479,37.4772887
9,бульвар 65-летия Победы,142133,55.4189074,37.4769060
7,Флотский проезд,142133,55.4159006,37.4755961
1,Флотский проезд,142133,55.4178569,37.4764107
3,Флотский проезд,142133,55.4168631,37.4759626
19,улица 43-й Армии,142118,55.4204696,37.4941498
7,улица Генерала Стрельбицкого,142133,55.4216154,37.4874862
7 к1,улица Академика Доллежаля,142133,55.4221728,37.4867115
7 к2,бульвар 65-летия Победы,142121,55.4189559,37.4784825
18,улица Генерала Смирнова,142133,55.4144453,37.4817058
40,улица Академика Доллежаля,142121,55.4136453,37.4806503
5 к1,бульвар 65-летия Победы,142133,55.4184874,37.4821442
7 к2,улица Академика Доллежаля,142133,55.4220964,37.4859460
8 к2,бульвар 65-летия Победы,142133,55.4196295,37.4845706
14,улица Генерала Смирнова,142133,55.4150365,37.4839218
10,улица Генерала Смирнова,142133,55.4157827,37.4863098
9,улица Академика Доллежаля,142133,55.4213180,37.4856779
5,улица Генерала Стрельбицкого,142133,55.4206670,37.4886066
2,бульвар 65-летия Победы,142133,55.4187622,37.4864941
3,бульвар 65-летия Победы,142133,55.4181689,37.4838017
1,бульвар 65-летия Победы,142133,55.4180061,37.4858930
4,улица Генерала Варенникова,142133,55.4170981,37.4881166
2,улица Генерала Варенникова,142133,55.4191761,37.4888819
7 к1,бульвар 65-летия Победы,142121,55.4187382,37.4790671
22,Ленинградская улица,142121,55.4254719,37.4921566
20,Ленинградская улица,142121,55.4256934,37.4928392
14В,Большая Серпуховская улица,142100,55.4257951,37.5439384
14,улица 43-й Армии,142121,55.4230173,37.4894843
21,улица 50 лет ВЛКСМ,142110,55.4304667,37.5294316
3,Парковая улица,142110,55.4331202,37.5251978
5,Госпитальная улица,142110,55.4305835,37.5261103
7,Садовая улица,142106,55.4511640,37.5438851
10А,Курская улица,142116,55.4331116,37.5646704
4,улица Халатова,142116,55.4406365,37.5739795
21,улица Лобачёва,142116,55.4412538,37.5729592
7,улица Веллинга,142100,55.4311224,37.5371043
51,Революционный проспект,142100,55.4341802,37.5460223
15А,улица Кирова,142110,55.4265240,37.5351181
86,Комсомольская улица,142100,55.4346986,37.5389309
59,Февральская улица,142100,55.4321872,37.5483520
9/48,Красная улица,142116,55.4323386,37.5535718
47,Февральская улица,142100,55.4307019,37.5514821
111,проспект Ленина,142100,55.4319586,37.5473768
36,Советская улица,142116,55.4329428,37.5530527
48,Советская улица,142116,55.4332412,37.5539512
109/61,проспект Ленина,142100,55.4323608,37.5478113
22/49,Советская улица,142100,55.4309215,37.5505610
7Б,Тепличная улица,142100,55.4683707,37.5530900
2,Тепличная улица,142100,55.4698037,37.5529206
44А,улица Машиностроителей,142115,55.4118705,37.5812756
2/23,улица Карла Маркса,142116,55.4332966,37.5548302
2/7,Парадный проезд,142116,55.4370370,37.5625550
2/7,Парадный проезд,142116,55.4369801,37.5628721
16А,Революционный проспект,142116,55.4323898,37.5603774
16/33,Рабочая улица,142116,55.4319299,37.5564090
36/14,Революционный проспект,142116,55.4315163,37.5560137
4,улица Дзержинского,142116,55.4361133,37.5643339
3,улица Дзержинского,142116,55.4353298,37.5639783
38,Рабочая улица,142116,55.4369176,37.5643370
8,Парадный проезд,142116,55.4393537,37.5611997
52/39,Революционный проспект,142116,55.4327043,37.5517707
54,Революционный проспект,142100,55.4329161,37.5508900
54А,Революционный проспект,142100,55.4331223,37.5512350
12,Плещеевская улица,142101,55.4508158,37.5706674
14,Плещеевская улица,142101,55.4507192,37.5710217
2,Банная улица,142101,55.4557282,37.5811845
10,Плещеевская улица,142101,55.4509171,37.5703072
20,Плещеевская улица,142101,55.4510785,37.5704820
18,Плещеевская улица,142101,55.4509852,37.5708216
16,Плещеевская улица,142101,55.4508879,37.5711922
28,Трубная улица,142111,55.4696146,37.5686808
81,проспект Юных Ленинцев,142111,55.4866677,37.5664089
13,1-й Деловой проезд,142105,55.4157659,37.5525090
15,1-й Деловой проезд,142105,55.4153964,37.5536694
50,Большая Серпуховская улица,142105,55.4129719,37.5486563
48,Большая Серпуховская улица,142105,55.4139363,37.5480254
10,Пионерская улица,142105,55.4109056,37.5464706
39/12,улица Чайковского,142105,55.4111682,37.5458386
6,Большая Серпуховская улица,142110,55.4273471,37.5451112
26/14,Малая Северовская улица,142105,55.4067254,37.5426832
17/27,улица Белинского,142105,55.4077733,37.5427369
35/22,улица Чайковского,142105,55.4070183,37.5418134
3,улица Володи Дубинина,142105,55.4139785,37.5471213
5А,улица Володи Дубинина,142105,55.4135450,37.5464765
3А,улица Володи Дубинина,142105,55.4135163,37.5471634
31/5,Литейная улица,142105,55.4136236,37.5458104
35 с2,Литейная улица,142105,55.4129753,37.5465424
52,Большая Серпуховская улица,142105,55.4121660,37.5493674
54,Большая Серпуховская улица,142105,55.4114623,37.5495697
56,Большая Серпуховская улица,142105,55.4107748,37.5499806
58,Большая Серпуховская улица,142105,55.4098240,37.5501247
99,проспект Ленина,142100,55.4340047,37.5496858
2А,Юбилейная улица,142118,55.4191879,37.5021508
20А,Рязановское шоссе,142111,55.4717696,37.5468369
17,улица Горького,142155,55.3118933,37.5177293
7 к3,Садовая улица,142100,55.4511076,37.5420922
7 к2,Садовая улица,142106,55.4513141,37.5429243
91/23,проспект Ленина,142100,55.4346075,37.5505194
35,Литейная улица,142105,55.4119279,37.5466931
35А,Литейная улица,142105,55.4119156,37.5473535
8,Пионерская улица,142105,55.4111721,37.5475550
2,Пионерская улица,142105,55.4100773,37.5490580
4,Пионерская улица,142105,55.4102756,37.5483718
6,Пионерская улица,142105,55.4105248,37.5476929
3 к3,Садовая улица,142106,55.4511450,37.5463786
28,улица Панфилова,142103,55.4203007,37.5896781
2,улица Шаталова,142105,55.4037617,37.5369117
47,Плещеевская улица,142101,55.4554993,37.5979625
43,Плещеевская улица,142101,55.4556381,37.5966611
45,Плещеевская улица,142101,55.4554428,37.5972626
31А,Большая Зелёновская улица,142100,55.4324564,37.5425304
6,Ленинградская улица,142119,55.4281085,37.5023125
14А,Плещеевская улица,142101,55.4506901,37.5705789
25,Артёмовская улица,142101,55.4465882,37.5836947
27,Артёмовская улица,142101,55.4466770,37.5844815
4А,Силикатный переулок,142101,55.4474355,37.5828812
14А,Большая Серпуховская улица,142100,55.4251533,37.5457624
12,Красная улица,142180,55.3644379,37.5063605
12/20,улица Циолковского,142108,55.4017158,37.5574524
2Б,Февральская улица,142116,55.4284564,37.5601664
23,Почтовая улица,142111,55.4793156,37.5662468
19,Почтовая улица,142111,55.4780101,37.5658617
21,Почтовая улица,142111,55.4784992,37.5659960
55,улица Чайковского,142105,55.4036221,37.5383212
53,улица Чайковского,142105,55.4038262,37.5385330
51,улица Чайковского,142105,55.4040325,37.5387422
49,улица Чайковского,142105,55.4042411,37.5389501
47,улица Чайковского,142105,55.4044125,37.5391259
45,улица Чайковского,142105,55.4046394,37.5393457
43,улица Чайковского,142105,55.4047605,37.5395537
24,Малая Северовская улица,142105,55.4069768,37.5425125
20,Малая Северовская улица,142105,55.4072785,37.5432846
22,Малая Северовская улица,142105,55.4070881,37.5430875
18/15,Малая Северовская улица,142105,55.4074917,37.5435032
33,улица Чайковского,142105,55.4072434,37.5419811
31,улица Чайковского,142105,55.4074086,37.5421996
29,улица Чайковского,142105,55.4075952,37.5424142
79А,Комсомольская улица,142100,55.4340401,37.5368417
52,улица Ватутина,142114,55.4135230,37.5329555
58,улица Ватутина,142114,55.4136509,37.5325316
15,улица Победы,142114,55.4131287,37.5341326
46,улица Ватутина,142114,55.4129261,37.5347364
44,улица Ватутина,142114,55.4127731,37.5352112
42,улица Ватутина,142114,55.4126155,37.5357074
40,улица Ватутина,142114,55.4124420,37.5361955
38,улица Ватутина,142114,55.4122790,37.5366944
8,улица Калинина,142114,55.4112238,37.5353158
6,улица Калинина,142114,55.4114965,37.5355893
4,улица Калинина,142114,55.4117613,37.5358710
4,улица Калинина,142114,55.4120568,37.5361633
1/51,улица Калинина,142114,55.4119341,37.5366434
3,улица Калинина,142114,55.4116547,37.5363792
4,улица Щеглова,142114,55.4113891,37.5372040
6,улица Щеглова,142114,55.4111615,37.5369626
7,улица Калинина,142114,55.4112049,37.5359071
9,улица Калинина,142114,55.4109749,37.5356805
43А,Плещеевская улица,142101,55.4570036,37.5989530
11А,Рязановское шоссе,108823,55.4727175,37.5522923
13,Беляевская улица,142119,55.4386583,37.4997817
26,Малая Зелёновская улица,142100,55.4349342,37.5427454
7А,улица Машиностроителей,142115,55.4108674,37.5718515
7А,улица Машиностроителей,142115,55.4105555,37.5712910
11А,Матросская улица,142100,55.4282667,37.5491442
3Б,Рощинская улица,142103,55.4280098,37.5739824
44В,Красногвардейский бульвар,142119,55.4320921,37.4939117
3 с2,улица Академика Доллежаля,142118,55.4230106,37.4885088
7,площадь Защитников Отечества,142118,55.4161599,37.4930348
7,Восточная улица,142155,55.3090280,37.5121279
3,Кольцевая улица,142111,55.4804210,37.5672057
3,Садовая улица,142106,55.4504935,37.5504561
48,Парковая улица,142117,55.4250334,37.5180208
2,Парковая улица,142100,55.4315176,37.5185088
10,улица Суворова,142101,55.4543518,37.5917120
8,Артёмовская улица,142101,55.4463044,37.5826152
18,Артёмовская улица,142101,55.4463302,37.5833682
27А,Артёмовская улица,142101,55.4463381,37.5846326
3/1,Горная улица,142101,55.4489167,37.5731086
1,Заречная улица,142100,55.3441015,37.5077080
28,улица Лобачёва,142116,55.4434858,37.5744062
16В,Московская улица,142155,55.3227965,37.5297147
42 к2,Плещеевская улица,142101,55.4559484,37.5794148
29,Домодедовское шоссе,142116,55.4359791,37.5873577
38Д,улица Правды,142110,55.4111621,37.5558115
1лит5Щ,Комсомольская улица,142100,55.4240346,37.5504863
11,улица Генерала Стрельбицкого,142121,55.4235880,37.4828095
16,Подольская улица,108823,55.4711211,37.5458340
4А,улица Мира,142103,55.4212577,37.5708840
11,Юбилейная улица,142121,55.4233878,37.4986254
7,Юбилейная улица,142121,55.4223408,37.4980094
1,Бронницкая улица,142103,55.4327119,37.5735960
16,улица Генерала Стрельбицкого,142121,55.4251536,37.4856060
7,Водопроводная улица,142184,55.3632093,37.5349202
11,Известковая улица,142116,55.4408698,37.5835797
4В,Силикатный переулок,142101,55.4477129,37.5824310
4Г,Силикатный переулок,142101,55.4476578,37.5827449
4Б,Силикатный переулок,142101,55.4473946,37.5824908
23,Артёмовская улица,142101,55.4465467,37.5833937
21,Артёмовская улица,142101,55.4465718,37.5829545
17,Артёмовская улица,142101,55.4467026,37.5825557
19,Артёмовская улица,142101,55.4465402,37.5827949
15,Артёмовская улица,142101,55.4466010,37.5822712
13,Артёмовская улица,142101,55.4465187,37.5817787
9,Артёмовская улица,142101,55.4465107,37.5812750
7,Артёмовская улица,142101,55.4465575,37.5809207
7А,Артёмовская улица,142101,55.4467346,37.5810376
4,Силикатный переулок,142101,55.4476987,37.5820445
2А,Силикатный переулок,142101,55.4477062,37.5817913
20,Нагорная улица,142101,55.4490840,37.5842770
13А,Силикатный переулок,142101,55.4485197,37.5850909
11,Силикатный переулок,142101,55.4482957,37.5841208
1,Силикатный переулок,142101,55.4479887,37.5817131
3,Силикатный переулок,142101,55.4479959,37.5820138
5,Силикатный переулок,142101,55.4480265,37.5823704
7,Силикатный переулок,142101,55.4480436,37.5828413
9,Силикатный переулок,142101,55.4482331,37.5838485
18,Нагорная улица,142101,55.4490732,37.5835430
16,Нагорная улица,142101,55.4489402,37.5833601
14,Нагорная улица,142101,55.4489258,37.5830367
13А,Артёмовская улица,142101,55.4471692,37.5817773
7,Вишнёвая улица,142100,55.4799543,37.5749492
9Б,Вишнёвая улица,142111,55.4818065,37.5767663
188,Большая Серпуховская улица,142108,55.3917379,37.5430640
186,Большая Серпуховская улица,142108,55.3919631,37.5432537
194,Большая Серпуховская улица,142108,55.3911919,37.5426056
196,Большая Серпуховская улица,142108,55.3910010,37.5423834
198,Большая Серпуховская улица,142108,55.3908144,37.5421943
190,Большая Серпуховская улица,142108,55.3915693,37.5427907
184,Большая Серпуховская улица,142108,55.3922334,37.5434547
34,улица Курчатова,142108,55.4011519,37.5547061
38,улица Курчатова,142108,55.4008080,37.5547705
40,улица Курчатова,142108,55.4006347,37.5547464
44/3,улица Курчатова,142108,55.4002382,37.5547180
1А,Бородинская улица,142108,55.4002395,37.5543574
43/1,Весенняя улица,142108,55.4002631,37.5538646
41,Весенняя улица,142108,55.4004653,37.5539169
39А,Весенняя улица,142108,55.4006580,37.5540570
39,Весенняя улица,142108,55.4006428,37.5538854
37,Весенняя улица,142108,55.4008111,37.5539725
35,Весенняя улица,142108,55.4010012,37.5540708
33,Весенняя улица,142108,55.4011529,37.5539833
29,Весенняя улица,142108,55.4015535,37.5539833
30,улица Курчатова,142108,55.4015809,37.5548201
28/10,улица Курчатова,142108,55.4018943,37.5548261
8,улица Багратиона,142108,55.4018684,37.5544386
19,Юбилейная улица,142121,55.4280611,37.4961621
6,Артёмовская улица,142101,55.4462994,37.5820862
10,Артёмовская улица,142101,55.4461053,37.5829980
56В,Плещеевская улица,142101,55.4541687,37.5871835
11,Артёмовская улица,142101,55.4469287,37.5817402
56Б,Плещеевская улица,142101,55.4540768,37.5889168
58,Плещеевская улица,142101,55.4552764,37.5903373
6,Плещеевская улица,142101,55.4501367,37.5698462
24,Комсомольская улица,142116,55.4274544,37.5589399
16 к3,Колхозная улица,142106,55.4504345,37.5457321
16 к2,Колхозная улица,142106,55.4502352,37.5460499
5,Армейский проезд,142121,55.4219695,37.4799319
6,Октябрьский проспект,142119,55.4298470,37.5080620
4,Плещеевская улица,142101,55.4490820,37.5735612
9,Флотский проезд,142121,55.4143243,37.4776295
9,Флотский проезд,142121,55.4148761,37.4769557
40,улица Академика Доллежаля,142133,55.4138648,37.4804460
40,улица Академика Доллежаля,142121,55.4140775,37.4802497
2А,Февральская улица,142116,55.4285388,37.5594569
32,улица Академика Доллежаля,142133,55.4162688,37.4791443
34,улица Академика Доллежаля,142133,55.4155697,37.4787031
38,улица Академика Доллежаля,142133,55.4143538,37.4794074
7Б,Серпуховская улица,142184,55.3550647,37.5418435
19,Парковая улица,142117,55.4265499,37.5230325
35,улица Академика Доллежаля,142133,55.4153172,37.4809975
31,улица Академика Доллежаля,142133,55.4163648,37.4805962
26,улица Академика Доллежаля,142133,55.4175110,37.4791339
30,улица Академика Доллежаля,142133,55.4168736,37.4784295
24,улица Академика Доллежаля,142133,55.4181506,37.4788324
30,Быковская улица,142111,55.4726180,37.5729973
9Г,Тепличная улица,108823,55.4682476,37.5503133
20,Берёзовая улица,142100,55.4364840,37.4948258
7,Быковская улица,142111,55.4738323,37.5649711
12,проезд Авиаторов,108823,55.4623892,37.5513983
8 с8,Шамотная улица,142100,55.4622478,37.5791172
2Д,Художественный проезд,142111,55.4694774,37.5729192
3В,Высотная улица,142117,55.4197710,37.5193224
46Б,Плещеевская улица,142101,55.4549153,37.5837651
3А,Серпуховская улица,142184,55.3549982,37.5394261
54,улица Ватутина,142114,55.4140029,37.5323526
25А,Бородинская улица,142108,55.4003742,37.5636287
14,Большая Серпуховская улица,142100,55.4257188,37.5455119
32 с 5,Гаражный проезд,142106,55.4579809,37.5599649
2А,Мраморная улица,142116,55.4395813,37.5669371
2,Мраморная улица,142116,55.4391922,37.5664518
41/5,Советская улица,142116,55.4336153,37.5521825
113/62,проспект Ленина,142100,55.4315246,37.5469421
46,Комсомольская улица,142100,55.4308625,37.5483119
18Б,улица 50 лет ВЛКСМ,142110,55.4262193,37.5357504
21,проспект 50 лет Октября,142184,55.3694341,37.5396861
7,Ленинградская улица,142121,55.4266520,37.5014268
2/18,улица Победы,142180,55.3595284,37.5205751
49 к4,Симферопольская улица,142184,55.3597551,37.5323796
49 к3,Симферопольская улица,142184,55.3602494,37.5329524
3,Заводская улица,142181,55.3787423,37.5457983
3,Первомайская улица,142184,55.3676994,37.5349152
5,Ленинградский проезд,142121,55.4254326,37.5026578
23,улица Машиностроителей,142115,55.4131186,37.5788846
1,улица Филиппова,142115,55.4073747,37.5792959
10А,улица Филиппова,142115,55.4043910,37.5704143
16,Революционный проспект,142116,55.4320974,37.5605794
2/14,Революционный проспект,142116,55.4324737,37.5619992
1,проезд Авиаторов,142014,55.4601664,37.5574019
4А,Вокзальная площадь,142116,55.4317764,37.5641284
19,Московская улица,142184,55.3669913,37.5304021
23,Народная улица,142105,55.4152878,37.5399379
15 к1,Пионерская улица,142114,55.4130194,37.5370111
15 к3,Пионерская улица,142114,55.4134236,37.5358188
15 к2,Пионерская улица,142114,55.4130038,37.5362275
19,улица Фёдорова,142100,55.4352156,37.5518750
18/38,Рабочая улица,142116,55.4325942,37.5572004
36,улица Дружбы,142116,55.4322260,37.5574159
30,Февральская улица,142116,55.4298567,37.5553865
17,Бородинский бульвар,142108,55.3948518,37.5610627
38,улица Фёдорова,142100,55.4383598,37.5457634
34,улица Фёдорова,142100,55.4381650,37.5466022
14 к1,улица Давыдова,142108,55.4029261,37.5584554
2,Парковая улица,142100,55.4320142,37.5179271
7,Мраморная улица,142116,55.4422955,37.5622094
6,Большая Зелёновская улица,142100,55.4368489,37.5472011
36 к1,улица Ватутина,142114,55.4123152,37.5374838
15,Пионерская улица,142114,55.4129831,37.5377347
5/2,Огородная улица,142116,55.4338246,37.5615643
42 к1,Плещеевская улица,142101,55.4565938,37.5797442
15,улица Дружбы,142116,55.4292920,37.5574374
2 к3,Сосновая улица,142108,55.4022707,37.5618952
2 к2,Сосновая улица,142108,55.4025688,37.5616474
2 к1,Сосновая улица,142108,55.4028776,37.5614050
13/20,Ленинградский проезд,142121,55.4255720,37.5003547
5,Художественный проезд,142111,55.4712241,37.5755570
3,Московская улица,108823,55.4660952,37.5546190
14 к2,улица Давыдова,142108,55.4026214,37.5586984
31,улица Ульяновых,142116,55.4447304,37.5651236
1,Тарутинский проезд,142108,55.3947275,37.5661693
23 к1,Народная улица,142105,55.4158369,37.5403984
7А,Московская улица,108823,55.4670335,37.5542509
