House number,Street name,Postal code,Latitude,Longitude
1,Пушкинское шоссе,141205,55.9961886,37.8639870
35/19,улица 50 лет Комсомола,141200,56.0016810,37.8519469
16,2-й Фабричный проезд,141205,56.0042317,37.8634893
16,2-й Фабричный проезд,141205,56.0043098,37.8634103
7А,Тургеневская улица,141230,55.9774771,37.8218762
190 с3,Ярославское шоссе,141202,56.0046614,37.8768529
6,Кудринское шоссе,141206,55.9908316,37.8520466
27,Московский проспект,141207,56.0082607,37.8551953
35/19,Надсоновская улица,141207,56.0015972,37.8518727
9,Краснофлотская улица,141206,56.0159454,37.8260002
15А,Институтская улица,141202,56.0164200,37.8578287
1А,Пушкинское шоссе,141205,55.9961739,37.8632240
24,улица Чайковского,141230,55.9766957,37.8187758
5,Тургеневская улица,141230,55.9778074,37.8202191
5,Тургеневская улица,141230,55.9778042,37.8202987
5,Тургеневская улица,141230,55.9778057,37.8203511
5,Тургеневская улица,141230,55.9778921,37.8208036
21А,Боткинская улица,141230,55.9680779,37.8326474
12,Полевая улица,141230,55.9639596,37.8309193
119,Центральная улица,141202,56.0141085,37.8725004
104,Красноармейское шоссе,141213,56.0174299,37.8861555
с18,"М8 Холмогоры, 33-й километр",141000,56.0005276,37.8814544
строение 18,"М8 Холмогоры, 33-й километр",141217,55.9997026,37.8807975
12А,улица Марата,141254,56.0433753,37.8611773
8Б,улица Тургенева,141207,56.0122310,37.8472574
8Б,улица Тургенева,141207,56.0122466,37.8471771
8Б,улица Тургенева,141207,56.0122576,37.8471157
21,Московский проспект,141207,56.0093646,37.8517501
40А,Московский проспект,141205,56.0044436,37.8568672
40А,Московский проспект,141205,56.0044570,37.8567742
40А,Московский проспект,141205,56.0044231,37.8568010
16А,Лесная улица,141206,56.0131393,37.8380869
16,2-й Фабричный проезд,141205,56.0044934,37.8634410
19,Институтская улица,141200,56.0148147,37.8623065
17,Институтская улица,141200,56.0139936,37.8624305
21,Институтская улица,141200,56.0155419,37.8612392
10,Институтская улица,141200,56.0159973,37.8615601
2,Московский проспект,141207,56.0110759,37.8417333
5,Писаревский проезд,141207,56.0087034,37.8441495
14,Институтская улица,141200,56.0156025,37.8601632
15,Институтская улица,141200,56.0146682,37.8579168
5,Надсоновский тупик,141203,56.0066571,37.8584162
28,Московский проспект,141207,56.0076941,37.8534605
3,Пушкинское шоссе,141205,55.9961115,37.8654715
1А,Пушкинское шоссе,141205,55.9964981,37.8635527
1,Пушкинское шоссе,141205,55.9962335,37.8638527
1,Набережная улица,141205,55.9967491,37.8640814
6,Набережная улица,141205,55.9987629,37.8686223
15,Вокзальная улица,141254,56.0444597,37.8555140
16/22,улица Коминтерна,141254,56.0457002,37.8490346
5,улица Марата,141254,56.0442124,37.8609102
7,улица Марата,141254,56.0445822,37.8614731
9,улица Марата,141254,56.0448157,37.8619448
20,Рабочая улица,141202,56.0005444,37.8075389
1,Садовая улица,141201,55.9860051,37.8718819
3,Крыловская улица,141230,55.9759116,37.8207358
2,Кольцовская улица,141230,55.9754886,37.8239795
24,улица Чайковского,141230,55.9766589,37.8188562
26,улица Чайковского,141230,55.9772579,37.8191698
32,улица Чайковского,141230,55.9775025,37.8192575
12,Полевая улица,141230,55.9639794,37.8309036
12А,Полевая улица,141230,55.9646798,37.8282622
9Б,Крыловская улица,141230,55.9773641,37.8208183
6,Тургеневская улица,141230,55.9774932,37.8201057
1,улица Марата,141254,56.0452261,37.8594309
1А,улица Горького,141201,55.9878727,37.8402208
1А,улица Горького,141201,55.9878644,37.8395163
1,улица Горького,141201,55.9879029,37.8408390
9/11,улица Чапаева,141201,55.9879113,37.8519675
1,проезд Чапаева,141201,55.9878642,37.8533253
1 к18,Костомаровская улица,141230,55.9722613,37.8469374
1 к17,Костомаровская улица,141200,55.9718827,37.8464615
1 к4,Костомаровская улица,141230,55.9733329,37.8462807
1 к1,Костомаровская улица,141230,55.9723482,37.8460078
1 к20,Костомаровская улица,141230,55.9729351,37.8471258
1 к19,Костомаровская улица,141230,55.9725867,37.8470344
1 к38,Костомаровская улица,141230,55.9726923,37.8477278
1 к3,Костомаровская улица,141230,55.9730074,37.8461877
1 к39,Костомаровская улица,141230,55.9723701,37.8476286
1 к37,Костомаровская улица,141230,55.9730402,37.8478259
1 к2,Костомаровская улица,141230,55.9726799,37.8460904
1 к5,Костомаровская улица,141230,55.9736488,37.8463638
1 к23,Костомаровская улица,141230,55.9736300,37.8475496
1 к35,Костомаровская улица,141230,55.9737304,37.8485192
1 к36,Костомаровская улица,141230,55.9734683,37.8483145
1 к34,Костомаровская улица,141230,55.9739662,37.8487277
1 к24,Костомаровская улица,141230,55.9738841,37.8477257
1 к21,Костомаровская улица,141230,55.9732474,37.8472115
1 к25,Костомаровская улица,141230,55.9741263,37.8479163
1 к33,Костомаровская улица,141230,55.9742083,37.8489234
1 к32,Костомаровская улица,141230,55.9744367,37.8491235
1 к26,Костомаровская улица,141230,55.9743820,37.8481515
1 к16,Костомаровская улица,141230,55.9739050,37.8467812
1 к6,Костомаровская улица,141230,55.9739876,37.8464088
1 к15,Костомаровская улица,141230,55.9741011,37.8469056
1 к7,Костомаровская улица,141230,55.9742458,37.8464714
1 к13,Костомаровская улица,141230,55.9746016,37.8471217
1 к12,Костомаровская улица,141230,55.9747941,37.8475992
1 к9,Костомаровская улица,141230,55.9747429,37.8467501
1 к8,Костомаровская улица,141230,55.9744968,37.8465921
1 к11,Костомаровская улица,141230,55.9750100,37.8477843
1 к27,Костомаровская улица,141230,55.9746206,37.8483500
1 к29,Костомаровская улица,141230,55.9751021,37.8487501
1 к31,Костомаровская улица,141230,55.9746953,37.8493167
1 к10,Костомаровская улица,141230,55.9752378,37.8479685
1 к28,Костомаровская улица,141230,55.9748698,37.8485516
1 к30,Костомаровская улица,141230,55.9749548,37.8495160
1 к14,Костомаровская улица,141230,55.9743773,37.8470682
3,улица Грановского,141230,55.9742642,37.8270321
4А,Акуловский проезд,141202,56.0039948,37.8026323
15 к2,Акуловское шоссе,141206,56.0065555,37.8290493
12,Первомайская улица,141206,56.0088628,37.8299035
15 к1,Акуловское шоссе,141206,56.0068574,37.8280345
5А,улица Маяковского,141206,56.0078422,37.8284271
20Б,улица Льва Толстого,141206,56.0108575,37.8263390
18,улица Чехова,141207,56.0061034,37.8486441
12,Ярославское шоссе,141205,55.9986969,37.8697555
10,Ярославское шоссе,141205,55.9982361,37.8692650
28,Аксаковская улица,141230,55.9708154,37.8319360
9А,Крыловская улица,141230,55.9770199,37.8208319
12А,улица Горького,141207,56.0060081,37.8457341
13А,Писаревская улица,141207,56.0052012,37.8443889
180А,Ярославское шоссе,141202,56.0056860,37.8741854
13,Авиационный проезд,141206,56.0132941,37.8269276
6А,улица Крылова,141207,56.0094540,37.8453452
1,Полевая улица,141230,55.9653607,37.8260713
3,Кировский проезд,141230,55.9654039,37.8270827
14/6,Желябовская улица,141230,55.9651833,37.8289161
7,Кировский проезд,141230,55.9650368,37.8272587
3А,Кировский проезд,141230,55.9657100,37.8268188
5,Кировский проезд,141230,55.9649781,37.8280239
16,Желябовская улица,141230,55.9649614,37.8288572
2,Кировский проезд,141230,55.9660990,37.8268767
1,Кировский проезд,141230,55.9658835,37.8261470
7/1,Кировский проезд,141230,55.9653770,37.8274538
1А,Кировский проезд,141230,55.9656258,37.8262434
8,Полевая улица,141230,55.9649987,37.8257821
10,Полевая улица,141230,55.9647176,37.8254789
5В,Политкаторжанская улица,141230,55.9659452,37.8283014
5Б,Политкаторжанская улица,141230,55.9663106,37.8280362
3,Политкаторжанская улица,141230,55.9662622,37.8273918
7,Политкаторжанская улица,141230,55.9659307,37.8286018
4,Кировский проезд,141230,55.9658815,37.8277714
15,Желябовская улица,141230,55.9653584,37.8304105
15А,Желябовская улица,141230,55.9652993,37.8300736
9А,Политкаторжанская улица,141230,55.9652191,37.8314473
13,Желябовская улица,141230,55.9655640,37.8303326
17,Желябовская улица,141230,55.9649600,37.8298207
12,Политкаторжанская улица,141230,55.9656670,37.8319441
11,Политкаторжанская улица,141230,55.9649963,37.8321186
3,Полевая улица,141230,55.9654347,37.8327556
9,Желябовская улица,141230,55.9659357,37.8309805
13,Политкаторжанская улица,141230,55.9654485,37.8322359
5,Желябовская улица,141230,55.9665924,37.8316742
10,Желябовская улица,141230,55.9661795,37.8304141
7,Желябовская улица,141230,55.9663039,37.8314051
6,Желябовская улица,141230,55.9671718,37.8311623
1,Желябовская улица,141230,55.9674170,37.8323236
8А,Политкаторжанская улица,141230,55.9662093,37.8297693
6,Политкаторжанская улица,141230,55.9663001,37.8294628
36,Боткинская улица,141230,55.9664945,37.8326606
8,Желябовская улица,141230,55.9667070,37.8309341
4,Желябовская улица,141230,55.9674136,37.8313106
8,Политкаторжанская улица,141230,55.9670957,37.8283854
30,Боткинская улица,141230,55.9670506,37.8324193
22/2,Боткинская улица,141230,55.9681595,37.8295988
38,Боткинская улица,141230,55.9664273,37.8338785
28,Боткинская улица,141230,55.9678578,37.8318040
24А,Боткинская улица,141230,55.9682569,37.8307248
22Б,Боткинская улица,141230,55.9688001,37.8293258
24А,2-я улица Пушкинская Горка,141230,55.9675134,37.8296925
24,2-я улица Пушкинская Горка,141230,55.9679733,37.8303218
24В,Боткинская улица,141230,55.9684121,37.8302631
2,Желябовская улица,141230,55.9676448,37.8314322
24Б,Боткинская улица,141230,55.9684968,37.8289226
22Г,Боткинская улица,141230,55.9682618,37.8285468
22В,Боткинская улица,141230,55.9689157,37.8288486
22Д,Боткинская улица,141230,55.9686859,37.8291607
22/8,Боткинская улица,141230,55.9676107,37.8284799
33А с2,Боткинская улица,141230,55.9672092,37.8376150
33А с4,Боткинская улица,141230,55.9677949,37.8375981
33А с3,Боткинская улица,141230,55.9674982,37.8376019
33Б,Боткинская улица,141230,55.9663493,37.8359050
33А с5,Боткинская улица,141230,55.9680985,37.8375876
29А,Боткинская улица,141230,55.9667427,37.8343349
33 с4,Боткинская улица,141230,55.9669248,37.8376183
1,Политкаторжанская улица,141230,55.9665526,37.8269361
11А,Московский проспект,141207,56.0108043,37.8490980
8,Тургеневская улица,141230,55.9774250,37.8204226
13,Набережная улица,141205,56.0184835,37.8549181
2,Кооперативная улица,141205,56.0172596,37.8558896
1,Набережная улица,141205,56.0182086,37.8535973
2,Набережная улица,141205,56.0185825,37.8537264
1,Лесная улица,141205,56.0174747,37.8563874
8,Мирная улица,141201,55.9788412,37.8579202
21,улица Льва Толстого,141206,56.0111112,37.8241979
4А,Учинская улица,141205,55.9992084,37.8383009
11,1-й Добролюбовский проезд,141206,56.0109487,37.8316695
25,2-я Домбровская улица,141206,56.0051752,37.8327489
15А,1-й Добролюбовский проезд,141206,56.0114992,37.8297094
20,1-й Добролюбовский проезд,141206,56.0120418,37.8295515
34,улица 50 лет Комсомола,141207,56.0013745,37.8498633
35/19,улица 50 лет Комсомола,141200,56.0018945,37.8522642
13А,3-я Домбровская улица,141206,56.0082764,37.8312108
57 к2,Московский проспект,141205,55.9970204,37.8612135
57 к1,Московский проспект,141205,55.9975716,37.8605613
57 к3,Московский проспект,141205,55.9973269,37.8625500
4А,2-й Фабричный проезд,141205,56.0030370,37.8613665
14,2-й Фабричный проезд,141205,56.0037635,37.8634111
2,Пушкинское шоссе,141205,55.9957631,37.8633243
5,Садовая улица,141205,56.0189951,37.8581200
7,Садовая улица,141205,56.0195109,37.8581262
67А,Крыловская улица,141230,55.9862391,37.8284362
67Б,Крыловская улица,141230,55.9858361,37.8285617
2А,Гоголевская улица,141240,55.9984492,37.8114968
10,Акуловское шоссе,141206,56.0049962,37.8303314
5,Пушкинское шоссе,141205,55.9967875,37.8668514
6 с4,Кудринское шоссе,141206,55.9918674,37.8539137
7,1-ый Чеховский проезд,141207,56.0069015,37.8521186
5,улица Горького,141200,56.0080179,37.8444389
54,Садовая улица,141205,56.0187171,37.8590186
14,Учинская улица,141207,55.9971884,37.8459273
5,Садовая улица,141205,56.0192004,37.8581466
2,Лесная улица,141205,56.0176589,37.8569525
28,Лесная улица,141205,56.0181477,37.8563351
20,Лермонтовская улица,141200,55.9776088,37.8384516
22,Лермонтовская улица,141200,55.9772506,37.8373523
20,Лермонтовская улица,141200,55.9769367,37.8377923
45А,Московский проспект,141205,56.0044891,37.8592422
138,Центральная улица,141202,56.0152655,37.8704777
152,Центральная улица,141202,56.0144238,37.8706111
136,Центральная улица,141202,56.0153409,37.8711962
140,Центральная улица,141202,56.0150357,37.8712020
20,улица Островского,141206,56.0149931,37.8345784
14,3-я Полевая улица,141230,55.9889843,37.8063427
16,3-я Полевая улица,141230,55.9889375,37.8060051
18,3-я Полевая улица,141230,55.9889130,37.8053017
12,3-я Полевая улица,141230,55.9890113,37.8068263
15,3-я Полевая улица,141230,55.9886459,37.8060082
33А с4,Боткинская улица,141230,55.9669669,37.8356076
33А с4,Боткинская улица,141230,55.9668718,37.8359736
114,Старое Ярославское шоссе,141205,55.9962939,37.8688513
25,Московский проспект,141207,56.0083516,37.8540467
6,1-й Фабричный проезд,141205,56.0029324,37.8639944
13,2-й Фабричный проезд,141205,56.0047868,37.8629493
11,2-й Фабричный проезд,141205,56.0046002,37.8623530
6А,1-й Фабричный проезд,141205,56.0026090,37.8636051
10А,2-й Фабричный проезд,141205,56.0033448,37.8628043
16,2-й Фабричный проезд,141205,56.0042810,37.8636827
16,2-й Фабричный проезд,141205,56.0043974,37.8640769
4,1-й Фабричный проезд,141205,56.0028175,37.8623383
27,2-я Домбровская улица,141206,56.0046120,37.8323197
7А,Тургеневская улица,141230,55.9774741,37.8218800
2 к1,улица Степана Разина,141254,56.0466565,37.8601486
1,улица Просвещения,141202,56.0229020,37.8545211
3 к1,улица Просвещения,141202,56.0233372,37.8548174
9,Краснофлотская улица,141206,56.0159103,37.8259992
59,Московский проспект,141205,55.9967027,37.8624456
4,Пушкинское шоссе,141205,55.9955745,37.8654842
6А,Пушкинское шоссе,141205,55.9954889,37.8664626
57 к4,Московский проспект,141205,55.9979585,37.8624257
11,Институтская улица,141200,56.0166036,37.8563243
3 к2,улица Просвещения,141202,56.0232557,37.8541389
3 к4,улица Просвещения,141202,56.0231634,37.8528892
3 к3,улица Просвещения,141202,56.0232519,37.8534884
18,Учинская улица,141200,55.9972812,37.8502338
11 к3,улица Просвещения,141202,56.0262806,37.8546810
11 к1,улица Просвещения,141202,56.0261802,37.8533166
11 к2,улица Просвещения,141202,56.0268262,37.8534480
9,улица Просвещения,141202,56.0252555,37.8529652
13 к3,улица Просвещения,141202,56.0277593,37.8547784
13 к1,улица Просвещения,141202,56.0273826,37.8535179
13 к2,улица Просвещения,141202,56.0280187,37.8535163
13,улица Кузнецкий Мост,141240,55.9961721,37.8217598
4 к1,улица Просвещения,141202,56.0233827,37.8571838
2,улица Просвещения,141202,56.0234738,37.8564272
1,Кудринское шоссе,141205,55.9969316,37.8572912
19,Писемская улица,141230,55.9763121,37.8426919
2А,1-я улица Пушкинская Горка,141230,55.9695106,37.8319393
6,1-я улица Пушкинская Горка,141230,55.9696932,37.8325658
5,Тургеневская улица,141230,55.9778716,37.8204427
7А,Тургеневская улица,141230,55.9780492,37.8213955
17А,Лермонтовская улица,141230,55.9783846,37.8365931
2,1-я улица Пушкинская Горка,141230,55.9694438,37.8313610
2В,1-я улица Пушкинская Горка,141230,55.9693722,37.8307717
2Б,1-я улица Пушкинская Горка,141230,55.9692545,37.8302942
1,1-я улица Пушкинская Горка,141230,55.9693321,37.8295457
1,1-я улица Пушкинская Горка,141230,55.9693533,37.8297742
4,1-я улица Пушкинская Горка,141230,55.9698230,37.8335145
2/2 с6,1-я улица Пушкинская Горка,141230,55.9708704,37.8352807
2/2 с4,1-я улица Пушкинская Горка,141230,55.9707791,37.8348596
2/2 с7,1-я улица Пушкинская Горка,141230,55.9704830,37.8345001
2/1,1-я улица Пушкинская Горка,141230,55.9703704,37.8341316
2/2 с2,1-я улица Пушкинская Горка,141230,55.9707269,37.8340118
2/2 с6,1-я улица Пушкинская Горка,141230,55.9705295,37.8348793
2Е,1-я улица Пушкинская Горка,141230,55.9701819,37.8349156
5,1-я улица Пушкинская Горка,141230,55.9699213,37.8341434
28А,Аксаковская улица,141230,55.9699502,37.8298876
2/12,Крыловская улица,141230,55.9770536,37.8217862
1А,Крыловская улица,141230,55.9765457,37.8218554
1,Кольцовская улица,141230,55.9761481,37.8218483
1Д,Крыловская улица,141230,55.9752257,37.8209212
1,Крыловская улица,141230,55.9754638,37.8206218
5А,Репинская улица,141230,55.9756041,37.8201594
7,Тургеневская улица,141230,55.9778952,37.8218322
2,Боткинская улица,141230,55.9736114,37.8217796
18,Тургеневская улица,141230,55.9773940,37.8243744
9,Кольцовская улица,141230,55.9763466,37.8248121
11,Кольцовская улица,141230,55.9762401,37.8257985
5,Кольцовская улица,141230,55.9764091,37.8238906
1В,Крыловская улица,141230,55.9766523,37.8226842
19,4-я улица Пушкинская Горка,141230,55.9722304,37.8391016
18,4-я улица Пушкинская Горка,141230,55.9719424,37.8389112
15,4-я улица Пушкинская Горка,141230,55.9713021,37.8384620
13,4-я улица Пушкинская Горка,141230,55.9708337,37.8384430
11А,4-я улица Пушкинская Горка,141230,55.9706457,37.8382283
10,4-я улица Пушкинская Горка,141230,55.9704449,37.8380070
9,3-я улица Пушкинская Горка,141230,55.9703266,37.8372588
19А,3-я улица Пушкинская Горка,141230,55.9705733,37.8373521
20А,3-я улица Пушкинская Горка,141230,55.9707532,37.8373404
21А,3-я улица Пушкинская Горка,141230,55.9709914,37.8374920
22А,3-я улица Пушкинская Горка,141230,55.9711817,37.8376528
23А,3-я улица Пушкинская Горка,141230,55.9713493,37.8379736
24А,3-я улица Пушкинская Горка,141230,55.9716493,37.8379556
25А,3-я улица Пушкинская Горка,141230,55.9718763,37.8381093
26А,3-я улица Пушкинская Горка,141230,55.9720957,37.8383848
26,3-я улица Пушкинская Горка,141200,55.9720380,37.8367028
25,3-я улица Пушкинская Горка,141230,55.9718235,37.8370282
23,3-я улица Пушкинская Горка,141230,55.9714310,37.8367802
22,3-я улица Пушкинская Горка,141230,55.9712428,37.8366758
21,3-я улица Пушкинская Горка,141230,55.9710495,37.8365021
20,3-я улица Пушкинская Горка,141230,55.9708556,37.8363974
19,3-я улица Пушкинская Горка,141230,55.9706750,37.8363308
18,3-я улица Пушкинская Горка,141230,55.9704902,37.8362276
15,3-я улица Пушкинская Горка,141230,55.9700869,37.8360190
14,3-я улица Пушкинская Горка,141230,55.9698176,37.8358269
13,3-я улица Пушкинская Горка,141200,55.9696120,37.8358109
9,3-я улица Пушкинская Горка,141230,55.9688371,37.8352981
8,3-я улица Пушкинская Горка,141230,55.9686586,37.8352551
7,3-я улица Пушкинская Горка,141230,55.9684382,37.8352998
6,3-я улица Пушкинская Горка,141230,55.9682490,37.8352294
5,3-я улица Пушкинская Горка,141230,55.9680605,37.8352008
4,3-я улица Пушкинская Горка,141230,55.9678361,37.8352400
1,3-я улица Пушкинская Горка,141230,55.9674787,37.8352429
1Б,Крыловская улица,141230,55.9764088,37.8222691
9,2-я улица Пушкинская Горка,141230,55.9692114,37.8317916
9Б,2-я улица Пушкинская Горка,141230,55.9692386,37.8321247
10,2-я улица Пушкинская Горка,141230,55.9691040,37.8310956
11,2-я улица Пушкинская Горка,141230,55.9689590,37.8303107
18,Боткинская улица,141230,55.9702073,37.8274178
2А,Аксаковская улица,141230,55.9712715,37.8270368
17,Боткинская улица,141230,55.9709130,37.8274004
17А,Боткинская улица,141230,55.9708105,37.8274804
18Б,Аксаковская улица,141230,55.9709688,37.8298701
16,Аксаковская улица,141230,55.9713003,37.8293642
12,Аксаковская улица,141230,55.9712473,37.8284921
10,Аксаковская улица,141230,55.9711596,37.8281355
17,Аксаковская улица,141230,55.9719358,37.8288223
6,Аксаковская улица,141230,55.9711627,37.8278023
3,Аксаковская улица,141230,55.9716181,37.8267812
5,Аксаковская улица,141230,55.9716767,37.8270379
7,Аксаковская улица,141230,55.9718670,37.8275625
13,Аксаковская улица,141230,55.9716205,37.8279890
21В,Аксаковская улица,141230,55.9718109,37.8291811
23Б,Аксаковская улица,141230,55.9717223,37.8296827
23А,Аксаковская улица,141230,55.9717637,37.8300585
29,Аксаковская улица,141230,55.9717723,37.8307186
15,Аксаковская улица,141230,55.9718101,37.8284127
29А,Аксаковская улица,141230,55.9717883,37.8312004
28,Аксаковская улица,141230,55.9716865,37.8340613
28 с1,Аксаковская улица,141230,55.9713462,37.8327412
1,Лермонтовская улица,141230,55.9725903,37.8360383
3,Сологубовская улица,141230,55.9747285,37.8287586
1,Сологубовская улица,141230,55.9749076,37.8283796
4,Кольцовская улица,141230,55.9756360,37.8261528
2,Жуковская улица,141230,55.9759406,37.8275904
4А,Жуковская улица,141230,55.9762922,37.8273099
10А,Жуковская улица,141230,55.9780700,37.8272276
33В,Боткинская улица,141230,55.9662104,37.8354279
6А,Лермонтовская улица,141230,55.9737753,37.8373816
10,Лермонтовская улица,141230,55.9741325,37.8375188
20А,Гоголевская улица,141230,55.9757026,37.8316066
10,улица Белинского,141230,55.9729811,37.8308960
11,улица Белинского,141230,55.9725645,37.8314209
15,улица Белинского,141230,55.9730425,37.8325409
12,Державинская улица,141230,55.9735015,37.8332028
15Б,Боткинская улица,141230,55.9719570,37.8257098
1А,Менделеевская улица,141230,55.9727413,37.8258321
14,Менделеевская улица,141230,55.9742466,37.8307001
9,Сологубовская улица,141230,55.9732217,37.8306817
11А,Лермонтовская улица,141230,55.9752088,37.8360820
34,Лермонтовская улица,141230,55.9814533,37.8373804
32,Лермонтовская улица,141230,55.9811548,37.8370632
67А,Пушкинская улица,141200,55.9797020,37.8364286
48А,Пушкинская улица,141200,55.9789983,37.8374905
48,Тургеневская улица,141230,55.9771912,37.8364521
8 с2,Тургеневская улица,141230,55.9775301,37.8206301
26,улица Чайковского,141230,55.9769608,37.8191046
4В,Репинская улица,141230,55.9746933,37.8192159
28,Верещагинская улица,141230,55.9717146,37.8163461
2/10,Верещагинская улица,141230,55.9716198,37.8180529
2/12,Верещагинская улица,141230,55.9715689,37.8175425
2/7А,Верещагинская улица,141230,55.9715236,37.8192522
20Б,Верещагинская улица,141230,55.9721234,37.8200595
2/6,улица Абрикосовский Парк,141230,55.9726262,37.8213898
9А,улица Даргомыжского,141230,55.9735412,37.8205059
10А,улица Даргомыжского,141230,55.9737684,37.8214257
4,Боткинская улица,141230,55.9733796,37.8220460
6,Боткинская улица,141230,55.9731617,37.8224204
8,Боткинская улица,141230,55.9728638,37.8226957
10,Боткинская улица,141230,55.9727080,37.8231731
19Б,Боткинская улица,141230,55.9686678,37.8314426
19,Боткинская улица,141230,55.9685932,37.8318595
5А,Желябовская улица,141230,55.9661617,37.8323035
6,Менделеевская улица,141230,55.9731310,37.8277911
3Б,улица Грановского,141230,55.9730590,37.8268112
3А,улица Грановского,141230,55.9732030,37.8265964
4,Менделеевская улица,141230,55.9726462,37.8270268
2,улица Белинского,141230,55.9726801,37.8276246
4,улица Белинского,141230,55.9726829,37.8282483
6,улица Белинского,141230,55.9727381,37.8287763
8,улица Белинского,141230,55.9726830,37.8292046
8А,улица Белинского,141230,55.9727074,37.8297394
12,Сологубовская улица,141230,55.9728664,37.8302231
10,Сологубовская улица,141230,55.9731090,37.8298588
8,Сологубовская улица,141230,55.9733272,37.8296278
6,Сологубовская улица,141230,55.9734953,37.8294430
10А,Менделеевская улица,141230,55.9735811,37.8291323
12А,Менделеевская улица,141230,55.9737458,37.8290205
10,Менделеевская улица,141230,55.9734527,37.8285566
8А,Менделеевская улица,141230,55.9731385,37.8283658
6,Менделеевская улица,141230,55.9730072,37.8276426
4А,Крестовская улица,141230,55.9738259,37.8406452
2В,Крестовская улица,141230,55.9730183,37.8404550
5,Крестовская улица,141230,55.9740792,37.8393724
11,Крестовская улица,141230,55.9751746,37.8392886
40,Гоголевская улица,141230,55.9754149,37.8393210
38,Гоголевская улица,141230,55.9753108,37.8388132
36,Гоголевская улица,141230,55.9754263,37.8382050
5А,Крестовская улица,141230,55.9743991,37.8394504
1,Крестовская улица,141230,55.9732815,37.8395136
3Б,Писемская улица,141230,55.9734933,37.8426698
13,Писемская улица,141230,55.9749221,37.8424830
46,Гоголевская улица,141230,55.9754181,37.8421148
2/1,Лермонтовская улица,141230,55.9725148,37.8375366
3,Грибоедовская улица,141230,55.9728369,37.8381474
4,Лермонтовская улица,141230,55.9735598,37.8372976
6А к1,Лермонтовская улица,141230,55.9738771,37.8379018
6Б,Лермонтовская улица,141230,55.9738776,37.8382865
3,Крестовская улица,141230,55.9737239,37.8388210
10/12,Лермонтовская улица,141230,55.9742305,37.8379279
12А,Лермонтовская улица,141230,55.9743938,37.8374067
3Б,Жуковская улица,141230,55.9780203,37.8263634
17,Тургеневская улица,141230,55.9779757,37.8253337
19,Тургеневская улица,141230,55.9780106,37.8259619
13,Тургеневская улица,141230,55.9780590,37.8239331
9,Тургеневская улица,141230,55.9779344,37.8227256
7Б,Тургеневская улица,141230,55.9780565,37.8223541
10А,Пушкинская улица,141230,55.9787786,37.8227579
2А,Кольцовская улица,141230,55.9755621,37.8229768
6,Гоголевская улица,141230,55.9746734,37.8236830
2,Гоголевская улица,141230,55.9744992,37.8221542
1,Боткинская улица,141230,55.9742481,37.8223105
2,Грановский тупик,141230,55.9741877,37.8230595
2А,Грановский тупик,141230,55.9740324,37.8233230
4,Грановский тупик,141230,55.9737742,37.8237554
9,Боткинская улица,141230,55.9734489,37.8242214
7,Боткинская улица,141230,55.9734640,37.8231510
5,Боткинская улица,141230,55.9737810,37.8228596
11,Боткинская улица,141230,55.9730563,37.8237614
12В,Писемская улица,141230,55.9754477,37.8440980
12,Писемская улица,141230,55.9754781,37.8444387
52Б,Гоголевская улица,141230,55.9755554,37.8460138
69,Пушкинская улица,141230,55.9795588,37.8376587
48 к1,Пушкинская улица,141200,55.9787755,37.8400633
48 к4,Пушкинская улица,141200,55.9788183,37.8413554
24Б,Лермонтовская улица,141200,55.9784293,37.8381113
27Б,Тургеневская улица,141230,55.9780254,37.8297940
35А,Тургеневская улица,141200,55.9782098,37.8319708
37А,Тургеневская улица,141230,55.9778213,37.8330835
15,Лермонтовская улица,141230,55.9768749,37.8361875
13А,Лермонтовская улица,141200,55.9765266,37.8355598
18/41,Державинская улица,141230,55.9726825,37.8341382
37В,Аксаковская улица,141230,55.9720977,37.8333512
2 к3,улица Степана Разина,141254,56.0459686,37.8616225
2 к2,улица Степана Разина,141254,56.0463118,37.8608933
12,2-я улица Пушкинская Горка,141230,55.9688982,37.8334185
9,2-я улица Пушкинская Горка,141230,55.9690687,37.8339972
10А,улица Белинского,141230,55.9731656,37.8313981
13А,улица Белинского,141230,55.9723858,37.8323999
8 к1,улица Просвещения,141202,56.0249583,37.8567147
10 к1,улица Просвещения,141202,56.0263639,37.8563600
13,улица Добролюбова,141206,56.0133534,37.8353905
4 к2,улица Просвещения,141202,56.0239746,37.8582083
9,Партизанская улица,141254,56.0316539,37.8597001
3Б,Партизанская улица,141254,56.0325629,37.8606114
22А,Полярная улица,141254,56.0327179,37.8590262
8,Партизанская улица,141254,56.0321298,37.8591804
26,Советская улица,141254,56.0301432,37.8571265
22,Партизанская улица,141254,56.0298289,37.8573485
18,Партизанская улица,141254,56.0302238,37.8578246
24,Советская улица,141254,56.0303265,37.8569843
22/21,Советская улица,141254,56.0303325,37.8565619
7,Советская улица,141254,56.0327198,37.8545503
8А,улица Седова,141254,56.0306423,37.8604223
10,улица Седова,141254,56.0310789,37.8606812
12,улица Седова,141254,56.0315599,37.8614844
7,Партизанская улица,141254,56.0317139,37.8604760
14А,улица Седова,141254,56.0323310,37.8616621
17,Партизанская улица,141254,56.0306826,37.8589482
4Б,улица Седова,141254,56.0295730,37.8590336
28Б,Партизанская улица,141254,56.0291913,37.8560905
25,улица Пугачёва,141254,56.0295535,37.8562890
23,улица Пугачёва,141254,56.0297352,37.8566744
16А,Советская улица,141254,56.0312107,37.8550692
21А,Февральская улица,141254,56.0303482,37.8549654
9,Февральская улица,141254,56.0318259,37.8534070
3,Февральская улица,141254,56.0324411,37.8522040
7,Февральская улица,141254,56.0320065,37.8526315
6,улица Энтузиастов,141254,56.0320406,37.8515891
5,улица Энтузиастов,141254,56.0317090,37.8512806
8,Февральская улица,141254,56.0311556,37.8527432
4,Февральский проезд,141254,56.0308060,37.8517567
1,улица Степана Халтурина,141254,56.0302115,37.8508529
1,улица Энтузиастов,141254,56.0303853,37.8505048
2,улица Энтузиастов,141254,56.0308108,37.8509231
3,улица Энтузиастов,141254,56.0311492,37.8511273
2,Февральский проезд,141254,56.0310279,37.8518265
3,Февральский проезд,141254,56.0309900,37.8523375
5,Февральский проезд,141254,56.0307420,37.8523945
12,Февральская улица,141254,56.0306030,37.8535659
28А,Партизанская улица,141254,56.0289008,37.8559444
21А,Партизанская улица,141254,56.0301845,37.8589122
21,Партизанская улица,141254,56.0300694,37.8583067
23,Партизанская улица,141254,56.0297694,37.8583516
25,Партизанская улица,141254,56.0295988,37.8579325
3,улица Седова,141254,56.0293227,37.8589068
1,улица Седова,141254,56.0287386,37.8576583
28,Партизанская улица,141254,56.0290353,37.8567987
26,Партизанская улица,141254,56.0292864,37.8568322
19,улица Пугачёва,141254,56.0309237,37.8569442
16/19,Партизанская улица,141254,56.0306682,37.8578160
18,Полярная улица,141254,56.0323662,37.8579245
18А,Полярная улица,141254,56.0326198,37.8581404
13,улица Пугачёва,141254,56.0323015,37.8575314
11/16,улица Пугачёва,141254,56.0326764,37.8575838
18,улица Пугачёва,141254,56.0324276,37.8565217
14,Полярная улица,141254,56.0327608,37.8566544
15/24,Советская улица,141254,56.0311627,37.8561221
13,Советская улица,141254,56.0317094,37.8555400
11,Советская улица,141254,56.0319447,37.8553864
9,Советская улица,141254,56.0322070,37.8549419
7А,Советская улица,141254,56.0323796,37.8546421
12,Полярная улица,141254,56.0327824,37.8557962
10,Полярная улица,141254,56.0331113,37.8554084
10А,Полярная улица,141254,56.0328431,37.8549888
6А,Полярная улица,141254,56.0332039,37.8541197
8,Полярная улица,141254,56.0333121,37.8549606
5/33,Полярная улица,141254,56.0337193,37.8552181
10/1,улица Энтузиастов,141254,56.0341952,37.8533419
4,Полярная улица,141254,56.0337812,37.8536725
6,Полярная улица,141254,56.0334050,37.8540426
3А,Советская улица,141254,56.0332517,37.8537906
3,Советская улица,141254,56.0330348,37.8535083
2А,Советская улица,141254,56.0328124,37.8529973
8А,Советская улица,141254,56.0321002,37.8538676
10,Советская улица,141254,56.0318162,37.8540438
12,Советская улица,141254,56.0316637,37.8544376
20А,Советская улица,141254,56.0308132,37.8556486
18,Советская улица,141254,56.0309324,37.8554226
15,Февральская улица,141254,56.0310864,37.8538180
10,Февральская улица,141254,56.0308436,37.8531669
4,улица Пугачёва,141254,56.0298968,37.8547742
5,улица Пугачёва,141254,56.0300223,37.8556614
25,Февральская улица,141254,56.0296768,37.8549392
30,улица Пугачёва,141254,56.0291031,37.8554736
3,улица Степана Халтурина,141254,56.0298226,37.8534271
18,улица Степана Халтурина,141254,56.0297501,37.8515832
19,улица Степана Халтурина,141254,56.0298064,37.8507368
14,Лермонтовская улица,141230,55.9746516,37.8374795
9,Крестовская улица,141230,55.9746707,37.8387138
16,Лермонтовская улица,141230,55.9748947,37.8374209
18А,Лермонтовская улица,141230,55.9750720,37.8374303
18,Лермонтовская улица,141230,55.9754528,37.8372486
11А,Крестовская улица,141230,55.9750607,37.8389262
5А,Крестовская улица,141230,55.9740817,37.8387749
1А,Крестовская улица,141230,55.9731535,37.8390371
1Б,Лермонтовская улица,141230,55.9730648,37.8364036
3,Лермонтовская улица,141230,55.9732948,37.8363942
3,Лермонтовская улица,141230,55.9735555,37.8363496
7,Лермонтовская улица,141230,55.9745559,37.8363134
9,Лермонтовская улица,141230,55.9747991,37.8361838
11,Лермонтовская улица,141230,55.9750182,37.8363458
34,Гоголевская улица,141230,55.9753853,37.8364614
32,Гоголевская улица,141230,55.9755097,37.8359181
5,Лермонтовская улица,141230,55.9743125,37.8359108
23,Гоголевская улица,141230,55.9760974,37.8364586
46,Тургеневская улица,141230,55.9771073,37.8359562
49,Тургеневская улица,141230,55.9778817,37.8363858
47,Тургеневская улица,141230,55.9779140,37.8358187
45,Тургеневская улица,141230,55.9779491,37.8353664
19,Лермонтовская улица,141200,55.9801126,37.8362339
48,Пушкинская улица,141200,55.9789108,37.8361905
21,Гоголевская улица,141230,55.9761333,37.8357673
21,Гоголевская улица,141230,55.9762372,37.8353556
19,Гоголевская улица,141230,55.9762108,37.8347584
19А,Гоголевская улица,141230,55.9764620,37.8350071
12,3-я улица Пушкинская Горка,141230,55.9693755,37.8356774
10,3-я улица Пушкинская Горка,141230,55.9690277,37.8356081
3,3-я улица Пушкинская Горка,141230,55.9671898,37.8352806
3,3-я улица Пушкинская Горка,141230,55.9671118,37.8350237
14А,Лермонтовская улица,141230,55.9747189,37.8376252
48 к3,Пушкинская улица,141200,55.9787964,37.8409182
2,3-я улица Пушкинская Горка,141230,55.9667309,37.8351641
2/1А,Лермонтовская улица,141230,55.9728288,37.8375757
15А,Лермонтовская улица,141230,55.9768401,37.8355186
24,Лермонтовская улица,141200,55.9778924,37.8374973
24А,Лермонтовская улица,141200,55.9781022,37.8376931
8 с1,Тургеневская улица,141230,55.9775632,37.8202853
52,Гоголевская улица,141230,55.9754774,37.8456516
2,Лермонтовская улица,141230,55.9730873,37.8371194
4А,Лермонтовская улица,141230,55.9734720,37.8382053
4Б,Лермонтовская улица,141230,55.9732046,37.8381005
42А,Тургеневская улица,141230,55.9768529,37.8351086
44,Тургеневская улица,141230,55.9772553,37.8353467
42,Тургеневская улица,141230,55.9770959,37.8348497
17Б,Лермонтовская улица,141230,55.9783745,37.8358420
36,Тургеневская улица,141230,55.9772510,37.8330742
36А,Тургеневская улица,141230,55.9772776,37.8335218
40,Тургеневская улица,141230,55.9771515,37.8343498
2,Салтыковская улица,141230,55.9762561,37.8331065
17В,Гоголевская улица,141230,55.9761261,37.8341406
36Б,Тургеневская улица,141230,55.9773701,37.8327838
17А,Гоголевская улица,141230,55.9762335,37.8337025
4,Салтыковская улица,141230,55.9769171,37.8330819
2А,Салтыковская улица,141230,55.9766377,37.8329637
38,Тургеневская улица,141230,55.9771290,37.8339325
38А,Тургеневская улица,141230,55.9768071,37.8337922
14,4-я улица Пушкинская Горка,141230,55.9709779,37.8385193
4,Крестовская улица,141230,55.9736347,37.8413821
1 к11А,Костомаровская улица,141230,55.9752931,37.8469604
1 к42,Костомаровская улица,141230,55.9737809,37.8493467
1 к41,Костомаровская улица,141200,55.9735676,37.8493295
1 к43,Костомаровская улица,141230,55.9740295,37.8495865
1 к44,Костомаровская улица,141230,55.9743201,37.8497022
1 к45,Костомаровская улица,141230,55.9745123,37.8500160
1 к47,Костомаровская улица,141230,55.9748124,37.8501420
1 к46,Костомаровская улица,141230,55.9748043,37.8503865
21,улица Белинского,141230,55.9738000,37.8358486
19,улица Белинского,141230,55.9736054,37.8353144
17,улица Белинского,141230,55.9736202,37.8345175
7Б,Державинская улица,141230,55.9733762,37.8346806
9Б к2,Державинская улица,141230,55.9728115,37.8358607
9Б к1,Державинская улица,141230,55.9729038,37.8357030
9,Державинская улица,141230,55.9730781,37.8354788
1Б к1,Лермонтовская улица,141230,55.9728558,37.8360558
9А,Державинская улица,141230,55.9731902,37.8357800
19,улица Белинского,141230,55.9738199,37.8348893
19Б,улица Белинского,141230,55.9733846,37.8355473
19А,улица Белинского,141230,55.9735455,37.8354121
20А,улица Белинского,141230,55.9745500,37.8354785
20,улица Белинского,141230,55.9746828,37.8353727
18,улица Белинского,141230,55.9743361,37.8348882
18,улица Белинского,141230,55.9743518,37.8347302
14,улица Белинского,141230,55.9743270,37.8342526
14,улица Белинского,141230,55.9743123,37.8340646
7,Державинская улица,141230,55.9743283,37.8336537
5,Державинская улица,141230,55.9746118,37.8336511
16,улица Белинского,141230,55.9746083,37.8343302
3А,Державинская улица,141230,55.9747985,37.8334952
3,Державинская улица,141230,55.9750898,37.8331312
24В,Гоголевская улица,141230,55.9751339,37.8337630
3А,Державинская улица,141230,55.9748419,37.8332726
6,Лермонтовская улица,141230,55.9738854,37.8372608
9Б,Тургеневская улица,141230,55.9780635,37.8229559
9А,Тургеневская улица,141230,55.9782502,37.8226474
13,Тургеневская улица,141230,55.9780538,37.8237824
11,Тургеневская улица,141230,55.9779926,37.8233678
15,Тургеневская улица,141230,55.9778365,37.8244644
17Б,Тургеневская улица,141230,55.9779284,37.8247763
17,Тургеневская улица,141230,55.9781031,37.8252884
17,Тургеневская улица,141230,55.9781022,37.8253900
19А,Тургеневская улица,141230,55.9778764,37.8265832
18,Лермонтовская улица,141230,55.9754280,37.8374570
18/4,Лермонтовская улица,141230,55.9753150,37.8373481
18 к1,Лермонтовская улица,141230,55.9752616,37.8376778
16Б,Лермонтовская улица,141230,55.9748736,37.8377325
16,Лермонтовская улица,141230,55.9750268,37.8382161
21,Тургеневская улицаq,141230,55.9779918,37.8275745
23А,Тургеневская улица,141230,55.9778821,37.8281174
23,Тургеневская улица,141230,55.9778974,37.8283279
25,Тургеневская улица,141230,55.9780074,37.8289408
27,Тургеневская улица,141230,55.9783568,37.8288093
27А,Тургеневская улица,141230,55.9782741,37.8298160
31,Тургеневская улица,141230,55.9780255,37.8310110
29,Тургеневская улица,141230,55.9780504,37.8304276
33,Тургеневская улица,141230,55.9781344,37.8312939
35,Тургеневская улица,141230,55.9778696,37.8318012
7,Тургеневская улица,141230,55.9779043,37.8220163
28Б,Лермонтовская улица,141230,55.9801521,37.8374989
28Е,Лермонтовская улица,141230,55.9804865,37.8373446
28А,Лермонтовская улица,141230,55.9801089,37.8379351
41,Тургеневская улица,141230,55.9780777,37.8337999
39,Тургеневская улица,141230,55.9779102,37.8333806
41А,Тургеневская улица,141230,55.9780528,37.8344376
43,Тургеневская улица,141230,55.9779054,37.8349185
17/2,Салтыковская улица,141230,55.9760173,37.8334445
13,Гоголевская улица,141230,55.9763281,37.8313560
15/1,Гоголевская улица,141230,55.9761546,37.8319421
11,Гоголевская улица,141230,55.9763154,37.8309279
9,Гоголевская улица,141230,55.9763824,37.8303287
9А,Гоголевская улица,141230,55.9766832,37.8303682
9Б,Гоголевская улица,141230,55.9761713,37.8302410
7Б,Гоголевская улица,141230,55.9761660,37.8299401
7,Гоголевская улица,141230,55.9761680,37.8294114
5,Гоголевская улица,141230,55.9760765,37.8288625
5А,Гоголевская улица,141230,55.9763504,37.8284288
3,Гоголевская улица,141230,55.9759298,37.8283509
3Б,Кольцовская улица,141230,55.9760921,37.8234255
3,Кольцовская улица,141230,55.9764857,37.8233029
3А,Кольцовская улица,141230,55.9763202,37.8229499
1Б,Кольцовская улица,141230,55.9761838,37.8226598
1А,Кольцовская улица,141230,55.9761738,37.8222287
9,Крыловская улица,141230,55.9767867,37.8210222
7,Крыловская улица,141230,55.9765715,37.8207286
5,Крыловская улица,141230,55.9763561,37.8210478
1,Жуковская улица,141230,55.9762325,37.8262630
3,Жуковская улица,141230,55.9766397,37.8260940
3А,Жуковская улица,141230,55.9770708,37.8264947
3Б,Жуковская улица,141230,55.9781633,37.8266015
16,Тургеневская улица,141230,55.9770733,37.8233432
16,Тургеневская улица,141230,55.9768708,37.8230752
16,Тургеневская улица,141230,55.9771448,37.8231677
16,Тургеневская улица,141230,55.9770547,37.8231651
18А,Тургеневская улица,141230,55.9769739,37.8237652
18,Тургеневская улица,141230,55.9772604,37.8237793
18,Тургеневская улица,141230,55.9772413,37.8239710
18,Тургеневская улица,141230,55.9771973,37.8237800
20,Тургеневская улица,141230,55.9770807,37.8250106
22,Тургеневская улица,141230,55.9771870,37.8260051
4,Жуковская улица,141230,55.9764200,37.8279340
6А,Жуковская улица,141230,55.9767248,37.8271304
8,Жуковская улица,141230,55.9770762,37.8273442
6,Жуковская улица,141230,55.9768531,37.8274294
24,Тургеневская улица,141230,55.9772964,37.8274770
24,Тургеневская улица,141230,55.9772940,37.8278864
26,Тургеневская улица,141230,55.9773053,37.8283017
26Б,Тургеневская улица,141230,55.9764344,37.8289503
26А,Тургеневская улица,141230,55.9768809,37.8283457
28,Тургеневская улица,141230,55.9772654,37.8293678
30,Тургеневская улица,141230,55.9773108,37.8299540
30 кв2,Тургеневская улица,141230,55.9770775,37.8297139
32,Тургеневская улица,141230,55.9769032,37.8303803
34Б,Тургеневская улица,141230,55.9773055,37.8312803
34,Тургеневская улица,141230,55.9770602,37.8315609
34А,Тургеневская улица,141230,55.9773673,37.8318539
34,Салтыковская улица,141230,55.9771654,37.8319742
3,Салтыковская улица,141230,55.9766643,37.8317353
15,Гоголевская улица,141230,55.9764528,37.8316906
1,Салтыковская улица,141230,55.9762786,37.8319300
4,Гоголевская улица,141230,55.9747075,37.8232498
4 с3,Гоголевская улица,141230,55.9748099,37.8242955
1А,Грановский тупик,141230,55.9743847,37.8240312
2,улица Грановского,141230,55.9744252,37.8249895
12,Гоголевская улица,141230,55.9752309,37.8279173
14,Гоголевская улица,141230,55.9752558,37.8285559
16,Гоголевская улица,141230,55.9753701,37.8290695
18,Гоголевская улица,141230,55.9754616,37.8296605
18В,Гоголевская улица,141230,55.9755268,37.8300866
20Б,Гоголевская улица,141230,55.9755409,37.8306357
20Б,Гоголевская улица,141230,55.9757438,37.8309815
20,Гоголевская улица,141230,55.9755022,37.8310452
22А,Гоголевская улица,141230,55.9755020,37.8332710
22,Гоголевская улица,141230,55.9755401,37.8326883
24,Гоголевская улица,141230,55.9754213,37.8338610
26,Гоголевская улица,141230,55.9750141,37.8343342
28,Гоголевская улица,141230,55.9754781,37.8344980
30Б,Гоголевская улица,141230,55.9755038,37.8347555
30А,Гоголевская улица,141230,55.9752452,37.8350502
30,Гоголевская улица,141230,55.9753073,37.8351965
17,улица Белинского,141230,55.9738689,37.8342443
17,улица Белинского,141230,55.9735893,37.8346449
7В,Державинская улица,141230,55.9732943,37.8348208
7Б,Державинская улица,141230,55.9732810,37.8346486
1Б,Лермонтовская улица,141230,55.9729462,37.8365067
1Б,Лермонтовская улица,141230,55.9730660,37.8362635
21А,Гоголевская улица,141230,55.9763145,37.8354432
34,Лермонтовская улица,141230,55.9754058,37.8363224
17/1,Лермонтовская улица,141230,55.9786175,37.8362128
67,Пушкинская улица,141230,55.9797056,37.8359198
69,Пушкинская улица,141230,55.9796116,37.8374146
26,Лермонтовская улица,141230,55.9799169,37.8374866
30,Лермонтовская улица,141230,55.9807224,37.8374774
32,Лермонтовская улица,141230,55.9811853,37.8374215
32А,Лермонтовская улица,141230,55.9811244,37.8377801
5А,Крестовская улица,141230,55.9744896,37.8394522
40А,Пушкинская улица,141230,55.9785472,37.8317273
40,Пушкинская улица,141230,55.9788269,37.8314489
8,Салтыковская улица,141230,55.9783292,37.8333818
6,Салтыковская улица,141230,55.9781337,37.8330501
37,Тургеневская улица,141230,55.9779685,37.8331260
4А,Грановский тупик,141230,55.9735867,37.8240732
6,улица Грановского,141230,55.9736348,37.8250023
5,Грановский тупик,141230,55.9738240,37.8247666
5,Грановский тупик,141230,55.9738767,37.8246427
8,улица Грановского,141230,55.9736280,37.8257182
3,Грановский тупик,141230,55.9741831,37.8244507
4 с2,Гоголевская улица,141230,55.9746224,37.8246102
4,улица Грановского,141230,55.9741552,37.8251904
4,улица Грановского,141230,55.9740948,37.8252344
6,улица Грановского,141230,55.9739120,37.8253486
12,улица Грановского,141230,55.9732587,37.8261696
1,Менделеевская улица,141230,55.9727963,37.8260087
2/1,Державинская улица,141230,55.9751762,37.8316782
2,Державинская улица,141230,55.9751121,37.8317613
16,Менделеевская улица,141230,55.9748011,37.8311585
4,Державинская улица,141230,55.9748312,37.8320859
4,Державинская улица,141230,55.9749358,37.8319857
6 к2,Державинская улица,141230,55.9746177,37.8323512
6 к1,Державинская улица,141230,55.9745362,37.8324500
8,Державинская улица,141230,55.9743038,37.8326890
8А,Державинская улица,141230,55.9740315,37.8324677
10,Державинская улица,141230,55.9739640,37.8330708
12,Державинская улица,141230,55.9734124,37.8330821
12,Державинская улица,141230,55.9734448,37.8332560
14,Державинская улица,141230,55.9732370,37.8334176
14,Державинская улица,141230,55.9731488,37.8334218
16,Державинская улица,141230,55.9729409,37.8338938
22,Державинская улица,141230,55.9725241,37.8346937
41,Аксаковская улица,141230,55.9723619,37.8346185
8,Менделеевская улица,141230,55.9732386,37.8280683
15,Боткинская улица,141230,55.9727001,37.8252385
13,Боткинская улица,141230,55.9730232,37.8243345
3,Боткинская улица,141230,55.9739938,37.8225216
5,Сологубовская улица,141230,55.9746612,37.8292395
5,Менделеевская улица,141230,55.9749948,37.8298499
5,Менделеевская улица,141230,55.9750721,37.8299772
3,Менделеевская улица,141230,55.9748063,37.8296082
5,Менделеевская улица,141230,55.9750038,37.8301223
7,Менделеевская улица,141230,55.9751730,37.8302234
7,Менделеевская улица,141230,55.9752297,37.8306214
7,Менделеевская улица,141230,55.9752172,37.8303351
вл26,Лермонтовская улица,141200,55.9787795,37.8375164
8,Писемская улица,141230,55.9743329,37.8438751
35,Аксаковская улица,141230,55.9720200,37.8329881
44,Гоголевская улица,141230,55.9753690,37.8412749
42,Гоголевская улица,141230,55.9753958,37.8406116
39Б,Аксаковская улица,141230,55.9725285,37.8333656
8,Крестовская улица,141230,55.9741497,37.8406769
11,Писемская улица,141230,55.9746354,37.8423559
3,улица Грачёва,141230,55.9743147,37.8316335
6,Грибоедовская улица,141230,55.9732148,37.8416190
2 к2,Писемская улица,141230,55.9732476,37.8437397
15А,Писемская улица,141230,55.9751471,37.8425952
10/1,Крестовская улица,141230,55.9748627,37.8405267
39А,Аксаковская улица,141230,55.9722450,37.8341193
2,Крестовская улица,141230,55.9732568,37.8413482
1,Костомаровская улица,141230,55.9725039,37.8451483
50А,Гоголевская улица,141230,55.9752302,37.8447892
5А,Костомаровская улица,141230,55.9728683,37.8442254
12,Менделеевская улица,141230,55.9737253,37.8293243
7,улица Грачёва,141230,55.9736498,37.8322899
11А,Писемская улица,141230,55.9746733,37.8420003
1,улица Грачёва,141230,55.9744550,37.8314890
6А,Грибоедовская улица,141230,55.9730218,37.8418891
7,Костомаровская улица,141230,55.9740311,37.8454465
5,Костомаровская улица,141230,55.9737572,37.8455041
3,Костомаровская улица,141230,55.9728600,37.8452760
10А,Крестовская улица,141230,55.9746101,37.8406274
11А,Костомаровская улица,141230,55.9751411,37.8456879
4,Писемская улица,141230,55.9728252,37.8436998
33,Аксаковская улица,141230,55.9720151,37.8326273
3А,Костомаровская улица,141230,55.9731958,37.8454410
6А,Писемская улица,141230,55.9740318,37.8436953
6,Писемская улица,141230,55.9738604,37.8438164
4,Писемская улица,141230,55.9735378,37.8442900
42,Гоголевская улица,141230,55.9753949,37.8404565
39,Аксаковская улица,141230,55.9721244,37.8337485
12,улица Белинского,141230,55.9733317,37.8316197
11В,Костомаровская улица,141230,55.9746086,37.8453559
2,Писемская улица,141230,55.9730426,37.8437343
8,Крестовская улица,141230,55.9741328,37.8412106
5,Писемская улица,141230,55.9740347,37.8424663
1,Писемская улица,141230,55.9732931,37.8421625
3А,улица Грачёва,141230,55.9741187,37.8316882
12В,Писемская улица,141230,55.9751794,37.8438861
10,Писемская улица,141230,55.9748707,37.8440918
16,Сологубовская улица,141230,55.9721421,37.8317334
10,Крестовская улица,141230,55.9749506,37.8408350
10Б,Крестовская улица,141230,55.9751306,37.8412841
2Г,Крестовская улица,141230,55.9730237,37.8407152
4Б,Писемская улица,141230,55.9725524,37.8442449
31,Аксаковская улица,141230,55.9718643,37.8321907
5,улица Грачёва,141230,55.9739309,37.8319828
4,улица Абрикосовский Парк,141230,55.9722024,37.8215838
2/2,Верещагинская улица,141230,55.9719018,37.8183086
5,улица Абрикосовский Парк,141230,55.9729152,37.8219883
20А,Верещагинская улица,141230,55.9719710,37.8198323
15,улица Даргомыжского,141230,55.9742224,37.8206962
2/14,Верещагинская улица,141230,55.9712255,37.8169406
2/9,Верещагинская улица,141230,55.9713352,37.8182433
9,улица Абрикосовский Парк,141230,55.9724283,37.8225620
3,улица Абрикосовский Парк,141230,55.9731345,37.8216491
4,улица Даргомыжского,141230,55.9722827,37.8208482
2/6,Верещагинская улица,141230,55.9716105,37.8171043
7,улица Абрикосовский Парк,141230,55.9726977,37.8223455
17,Верещагинская улица,141230,55.9711734,37.8178028
11,улица Даргомыжского,141230,55.9739329,37.8205662
1,улица Абрикосовский Парк,141230,55.9733225,37.8212174
2/7,улица Абрикосовский Парк,141230,55.9727404,37.8209184
19А,Боткинская улица,141230,55.9683233,37.8324670
29,Боткинская улица,141230,55.9670672,37.8342552
8,Аксаковская улица,141230,55.9707463,37.8282895
20,Аксаковская улица,141230,55.9713282,37.8304660
5,2-я улица Пушкинская Горка,141230,55.9696036,37.8342942
9,улица Белинского,141230,55.9722283,37.8304025
12А,Аксаковская улица,141230,55.9707961,37.8293888
24,Аксаковская улица,141230,55.9713800,37.8312093
2А,Желябовская улица,141230,55.9677614,37.8315955
14,2-я улица Пушкинская Горка,141230,55.9683563,37.8333831
18/1,Аксаковская улица,141230,55.9713601,37.8300022
2/2 с1,1-я улица Пушкинская Горка,141230,55.9706242,37.8335172
2/2 с3,1-я улица Пушкинская Горка,141230,55.9707825,37.8344830
1В,улица Белинского,141230,55.9723302,37.8270279
10,Политкаторжанская улица,141230,55.9658401,37.8316442
26,Аксаковская улица,141230,55.9714023,37.8317526
7,улица 2-я Пушкинская Горка,141230,55.9693661,37.8330346
9,улица Белинского,141230,55.9720973,37.8304536
12А,Аксаковская улица,141230,55.9707875,37.8295333
22,Аксаковская улица,141230,55.9713459,37.8309141
13,2-я улица Пушкинская Горка,141230,55.9686476,37.8329617
7,2-я улица Пушкинская Горка,141230,55.9694777,37.8329840
4А,Полевая улица,141230,55.9651333,37.8251384
18А к1,Аксаковская улица,141230,55.9709196,37.8303952
22,Аксаковская улица,141230,55.9713103,37.8308129
1,Аксаковская улица,141230,55.9717705,37.8265742
1,Аксаковская улица,141230,55.9716527,37.8264774
22А,Аксаковская улица,141230,55.9707717,37.8309292
6,2-я улица Пушкинская Горка,141230,55.9695083,37.8335508
13А,2-я улица Пушкинская Горка,141230,55.9684908,37.8330420
3А,улица Белинского,141230,55.9722249,37.8281945
14А,Аксаковская улица,141230,55.9707671,37.8290180
12Б,Аксаковская улица,141230,55.9707952,37.8286114
5,улица Белинского,141230,55.9722449,37.8292153
3,улица Белинского,141230,55.9721931,37.8278452
12,Боткинская улица,141230,55.9720815,37.8238353
3А,улица Айвазовского,141230,55.9733178,37.8173678
7,улица Белинского,141230,55.9721064,37.8298964
1,Верещагинская улица,141230,55.9730531,37.8168072
1,улица Белинского,141230,55.9721066,37.8275008
16,Сологубовская улица,141230,55.9722646,37.8315546
4,Репинская улица,141230,55.9748951,37.8188208
2/7,Верещагинская улица,141230,55.9715770,37.8195914
21А,Аксаковская улица,141230,55.9717993,37.8293314
9,улица Белинского,141230,55.9721265,37.8305163
4,Аксаковская улица,141230,55.9712035,37.8273212
4,Аксаковская улица,141230,55.9712050,37.8274409
4,Аксаковская улица,141230,55.9710873,37.8273819
10,Аксаковская улица,141230,55.9712344,37.8281027
14,Аксаковская улица,141230,55.9710647,37.8288544
14А,Аксаковская улица,141230,55.9709473,37.8288861
18/3,Аксаковская улица,141230,55.9713019,37.8301404
18/2,Аксаковская улица,141230,55.9712693,37.8300148
24Б,Аксаковская улица,141230,55.9713975,37.8313234
26 к1,Аксаковская улица,141230,55.9713543,37.8320694
16,Сологубовская улица,141230,55.9721981,37.8316232
31,Аксаковская улица,141230,55.9718091,37.8320674
37,Аксаковская улица,141230,55.9720768,37.8332504
2А,Крестовская улица,141230,55.9732731,37.8405206
2Б,Крестовская улица,141230,55.9732745,37.8407957
3,Писемская улица,141230,55.9738257,37.8424663
39,Аксаковская улица,141230,55.9722082,37.8336716
24,3-я улица Пушкинская Горка,141230,55.9716625,37.8370430
4,1-я улица Пушкинская Горка,141230,55.9697628,37.8335271
4,1-я улица Пушкинская Горка,141230,55.9698278,37.8336272
2Б,1-я улица Пушкинская Горка,141230,55.9692921,37.8304944
1,1-я улица Пушкинская Горка,141230,55.9692840,37.8297444
20 с3,Боткинская улица,141230,55.9696196,37.8278986
13,Лермонтовская улица,141200,55.9765711,37.8361544
2,Желябовская улица,141230,55.9667925,37.8321272
3,Политкаторжанская улица,141230,55.9662220,37.8275348
5А,Политкаторжанская улица,141230,55.9662516,37.8281526
5,Политкаторжанская улица,141230,55.9661784,37.8283392
4,Политкаторжанская улица,141230,55.9665935,37.8291241
7А,Политкаторжанская улица,141230,55.9658974,37.8287191
15,Политкаторжанская улица,141230,55.9654432,37.8309091
9,Политкаторжанская улица,141230,55.9652446,37.8313441
7А,Желябовская улица,141230,55.9662000,37.8311954
8А,Аксаковская улица,141230,55.9706690,37.8279175
8В,Писемская улица,141230,55.9745825,37.8441636
10А,Писемская улица,141230,55.9746647,37.8436880
4Б,Писемская улица,141230,55.9732534,37.8445390
21А,Боткинская улица,141230,55.9680715,37.8326757
28,Боткинская улица,141230,55.9679143,37.8318421
21,Боткинская улица,141230,55.9681120,37.8326000
9А,2-я улица Пушкинская Горка,141230,55.9690214,37.8337142
8,2-я улица Пушкинская Горка,141230,55.9693480,37.8324967
10,2-я улица Пушкинская Горка,141230,55.9690814,37.8309985
11,2-я улица Пушкинская Горка,141230,55.9689439,37.8304802
22/12,Боткинская улица,141230,55.9682733,37.8291825
22/11,Боткинская улица,141230,55.9680970,37.8290370
22/10,Боткинская улица,141230,55.9678841,37.8287490
22/3,Боткинская улица,141230,55.9678971,37.8293501
22/1,Боткинская улица,141230,55.9684249,37.8299166
12Б,Аксаковская улица,141230,55.9707530,37.8287636
14А,Аксаковская улица,141230,55.9708032,37.8291325
18Б,Аксаковская улица,141230,55.9708459,37.8298547
34,Боткинская улица,141230,55.9668140,37.8329636
38,Боткинская улица,141230,55.9665200,37.8337717
32,Боткинская улица,141230,55.9670660,37.8328725
27,Боткинская улица,141230,55.9672512,37.8336870
1А,Желябовская улица,141230,55.9671094,37.8318618
6А,Боткинская улица,141230,55.9731970,37.8226910
10,улица Даргомыжского,141230,55.9738150,37.8214823
13,улица Даргомыжского,141230,55.9740914,37.8205808
9,улица Даргомыжского,141230,55.9737270,37.8206451
6,улица Абрикосовский Парк,141230,55.9719844,37.8223304
2/8,улица Абрикосовский Парк,141230,55.9729134,37.8208859
2,улица Даргомыжского,141230,55.9720595,37.8204422
2/5,Верещагинская улица,141230,55.9714074,37.8189938
7,улица Абрикосовский Парк,141230,55.9727295,37.8224167
2/6,Верещагинская улица,141230,55.9716814,37.8169909
2/6,Верещагинская улица,141230,55.9716170,37.8169472
20,Верещагинская улица,141230,55.9719463,37.8197445
2/1,Верещагинская улица,141230,55.9719966,37.8176939
4,Верещагинская улица,141230,55.9723553,37.8162393
3А,улица Белинского,141230,55.9723382,37.8282872
5,улица Белинского,141230,55.9721074,37.8291748
7,улица Белинского,141230,55.9720462,37.8298073
8,улица Белинского,141230,55.9727923,37.8292564
12,Сологубовская улица,141230,55.9726950,37.8303358
12,Сологубовская улица,141230,55.9727636,37.8302443
10,Сологубовская улица,141230,55.9730476,37.8299167
7,улица Грачёва,141230,55.9737193,37.8323446
7,улица Грачёва,141230,55.9737261,37.8322059
2,улица Грачёва,141230,55.9735387,37.8312246
1,улица Грачёва,141230,55.9745709,37.8313406
4,Репинская улица,141230,55.9749154,37.8190518
4,Репинская улица,141230,55.9747816,37.8188676
13А,улица Айвазовского,141230,55.9744658,37.8188553
13А,улица Айвазовского,141230,55.9744216,37.8189774
13,улица Айвазовского,141230,55.9743946,37.8188551
11,улица Айвазовского,141230,55.9741662,37.8186489
9,улица Айвазовского,141230,55.9739170,37.8184065
7,улица Айвазовского,141230,55.9736781,37.8182417
7,улица Айвазовского,141230,55.9736566,37.8183846
5,улица Айвазовского,141230,55.9733706,37.8182104
5,улица Айвазовского,141230,55.9734174,37.8179034
3,улица Айвазовского,141230,55.9731250,37.8180266
1,улица Айвазовского,141230,55.9728872,37.8179538
1,улица Айвазовского,141230,55.9729139,37.8177825
1,Верещагинская улица,141230,55.9730873,37.8169883
1,Верещагинская улица,141230,55.9729980,37.8169017
1,Крестовская улица,141230,55.9731714,37.8394995
8,Крестовская улица,141230,55.9742511,37.8405659
8,Крестовская улица,141230,55.9743831,37.8406408
10А,Крестовская улица,141230,55.9747258,37.8406238
42,Гоголевская улица,141230,55.9754588,37.8407981
3,Писемская улица,141230,55.9737349,37.8424827
7,Писемская улица,141230,55.9743493,37.8424773
9,Писемская улица,141230,55.9743081,37.8419603
48А,Гоголевская улица,141230,55.9754116,37.8425338
4,Писемская улица,141230,55.9734486,37.8443234
6,Писемская улица,141230,55.9737827,37.8438173
50,Гоголевская улица,141230,55.9754214,37.8450526
11А,Костомаровская улица,141230,55.9751440,37.8458538
11Б,Костомаровская улица,141230,55.9748360,37.8453656
11,Костомаровская улица,141230,55.9749756,37.8458952
9,Костомаровская улица,141230,55.9742477,37.8450123
3,Костомаровская улица,141230,55.9729212,37.8452885
14,Полевая улица,141230,55.9647044,37.8280060
6А,Полевая улица,141230,55.9651734,37.8254469
103,Центральная улица,141202,56.0153776,37.8725563
119,Центральная улица,141202,56.0140223,37.8730167
125,Центральная улица,141202,56.0140995,37.8743726
10,улица Энгельса,141230,55.9736346,37.8092575
13,улица Энгельса,141230,55.9747854,37.8102339
11Б,улица Энгельса,141230,55.9744236,37.8091646
12Г,улица Энгельса,141230,55.9745788,37.8097768
15,улица Энгельса,141230,55.9759625,37.8112542
16,улица Энгельса,141230,55.9762969,37.8114125
17А,улица Энгельса,141230,55.9765417,37.8114659
17,улица Энгельса,141230,55.9767803,37.8117588
18,улица Энгельса,141230,55.9770405,37.8117781
40,Колхозная улица,141230,55.9825307,37.8016863
38,Колхозная улица,141230,55.9824224,37.8019180
36,Колхозная улица,141230,55.9824214,37.8022300
32,Колхозная улица,141230,55.9823934,37.8027292
34,Колхозная улица,141230,55.9824069,37.8025357
6,Центральная улица,141230,55.9831113,37.8001936
4,Центральная улица,141230,55.9829019,37.8001403
2,Центральная улица,141230,55.9827308,37.8001986
46,Колхозная улица,141230,55.9826724,37.8006948
40Б,Колхозная улица,141230,55.9831274,37.8009508
40А,Колхозная улица,141230,55.9831333,37.8013201
42,Колхозная улица,141230,55.9826566,37.8012914
44,Колхозная улица,141230,55.9826350,37.8010457
1,Ул. Александра Меня,141207,56.0276302,37.8626964
16Б,улица Чехова,141207,56.0056065,37.8457480
192,Ярославское шоссе,141202,56.0048157,37.8753497
36А,Колхозная улица,141230,55.9827365,37.8022894
38А,Колхозная улица,141230,55.9830291,37.8019877
36Б,Колхозная улица,141230,55.9830555,37.8022979
32А,Колхозная улица,141230,55.9829705,37.8029439
32Б,Колхозная улица,141230,55.9825939,37.8029439
8,Центральная улица,141230,55.9833117,37.8000758
7,Спартаковский проезд,141254,56.0430307,37.8609637
5,Спартаковский проезд,141254,56.0429367,37.8604914
3,Спартаковский проезд,141254,56.0427845,37.8600898
6,проезд Энтузиастов,141254,56.0433022,37.8597743
2,проезд Энтузиастов,141254,56.0428107,37.8595378
4,проезд Энтузиастов,141254,56.0430530,37.8596822
3А,проезд Энтузиастов,141254,56.0434266,37.8601785
7,проезд Энтузиастов,141254,56.0435925,37.8592864
5,проезд Энтузиастов,141254,56.0433498,37.8591227
3,проезд Энтузиастов,141254,56.0431038,37.8590541
1,проезд Энтузиастов,141254,56.0429122,37.8589719
28,улица Энтузиастов,141254,56.0430748,37.8582275
29,улица Энтузиастов,141254,56.0435108,37.8581913
30А,улица Энтузиастов,141254,56.0437577,37.8580088
30,улица Энтузиастов,141254,56.0439112,37.8583482
31,улица Энтузиастов,141254,56.0440965,37.8585266
32/2,улица Энтузиастов,141254,56.0446023,37.8585426
4,улица Марата,141254,56.0441733,37.8594346
6,улица Марата,141254,56.0439443,37.8598098
10Б,улица Марата,141254,56.0438937,37.8603459
10,улица Марата,141254,56.0438013,37.8604998
10В,улица Марата,141254,56.0433874,37.8608742
10А,улица Марата,141254,56.0437220,37.8607509
12,улица Марата,141254,56.0433927,37.8614530
14,улица Марата,141254,56.0431961,37.8616479
6,1-й Некрасовский проезд,141207,56.0127711,37.8517090
109,Центральная улица,141202,56.0150190,37.8722171
115,Центральная улица,141202,56.0148700,37.8732582
105,Центральная улица,141202,56.0152828,37.8722169
109А,Центральная улица,141202,56.0150785,37.8725163
111,Центральная улица,141202,56.0151289,37.8731504
107Б,Центральная улица,141202,56.0153694,37.8733663
99,Центральная улица,141202,56.0156017,37.8731189
27,3-я Домбровская улица,141206,56.0057581,37.8298008
107,Центральная улица,141202,56.0154103,37.8730119
107,Центральная улица,141202,56.0153091,37.8729532
3Б,улица Инессы Арманд,141205,55.9945628,37.8650677
26,2-я Домбровская улица,141206,56.0055578,37.8312933
3,2-й Фабричный проезд,141205,56.0038060,37.8599708
17,2-й Фабричный проезд,141205,56.0044424,37.8605269
9F,2-й Фабричный проезд,141205,56.0047026,37.8613275
9,2-й Фабричный проезд,141205,56.0043510,37.8617299
7Б,2-й Фабричный проезд,141205,56.0042151,37.8612576
5,2-й Фабричный проезд,141205,56.0040083,37.8603405
7,2-й Фабричный проезд,141205,56.0040809,37.8608395
8,2-й Фабричный проезд,141205,56.0037114,37.8617996
6,2-й Фабричный проезд,141205,56.0036431,37.8612833
4,2-й Фабричный проезд,141205,56.0034446,37.8608942
2,2-й Фабричный проезд,141205,56.0033601,37.8603926
8,улица Чехова,141207,56.0079214,37.8488904
5,Озёрная улица,141207,56.0050486,37.8530746
19А,улица Калинина,141254,56.0347369,37.8653599
21,улица Калинина,141254,56.0347900,37.8658963
19,улица Калинина,141254,56.0345448,37.8655353
8Б,улица Тургенева,141207,56.0121830,37.8471459
40А,Московский проспект,141205,56.0044276,37.8568035
2 к4,улица Степана Разина,141254,56.0456168,37.8623863
12,улица Энгельса,141230,55.9744961,37.8096249
14А,улица Энгельса,141230,55.9753303,37.8100333
14,улица Энгельса,141230,55.9754099,37.8109341
5/1,Костомаровская улица,141230,55.9775773,37.8472368
10,улица Грановского,141230,55.9732745,37.8253586
15А,Боткинская улица,141230,55.9724314,37.8252662
14,Полевая улица,141230,55.9647044,37.8280060
32 к2,улица Добролюбова,141206,56.0156044,37.8378479
1,Сретенская улица,141202,56.0241113,37.8625615
12 к1,улица Просвещения,141202,56.0276550,37.8570284
12 к2,улица Просвещения,141202,56.0275429,37.8596274
10 к3,улица Просвещения,141202,56.0263320,37.8598752
10 к2,улица Просвещения,141202,56.0264615,37.8581578
8 к2,улица Просвещения,141202,56.0249783,37.8592804
13,1-й Некрасовский проезд,141207,56.0134156,37.8533675
1 к2,Сретенская улица,141202,56.0248189,37.8632786
1 к1,Сретенская улица,141202,56.0248662,37.8620546
6 к2,улица Просвещения,141202,56.0238628,37.8595323
6 к1,улица Просвещения,141202,56.0233917,37.8591441
141,Ярославское шоссе,141205,55.9993557,37.8700027
54,Московский проспект,141207,56.0012882,37.8594906
52 к3,Московский проспект,141207,56.0010979,37.8589199
52 к4,Московский проспект,141207,56.0015236,37.8592558
2 к5,улица Степана Разина,141254,56.0449113,37.8636753
20,Институтская улица,141200,56.0156274,37.8621598
1 к1,улица Чехова,141207,56.0088709,37.8559743
1 к2,улица Чехова,141207,56.0092120,37.8552160
1 к3,улица Чехова,141207,56.0088382,37.8541436
20,улица Чехова,141200,56.0070784,37.8493076
