House number,Street name,Postal code,Latitude,Longitude
72,улица Михалевича,140101,55.5587485,38.2547945
53,улица Михалевича,140100,55.5585501,38.2574377
31,улица Михалевича,140101,55.5646107,38.2381455
72Д,улица Михалевича,140101,55.5587877,38.2546000
72Д,улица Михалевича,140101,55.5589894,38.2537958
72Д,улица Михалевича,140101,55.5588838,38.2541041
14,Советская улица,140108,55.5666972,38.2284912
39А,улица Куйбышева,140104,55.5647369,38.2004367
13А,Красноармейская улица,140109,55.5726372,38.2327335
19,Красноармейская улица,140109,55.5720711,38.2393459
6,Красноармейская улица,140109,55.5713776,38.2313922
3/1,улица Воровского,140105,55.5714758,38.2130584
22,Московская улица,140104,55.5677639,38.2133731
21,Народная улица,140105,55.5843673,38.2016515
4Б,Красноармейская улица,140109,55.5711048,38.2302608
4А,Красноармейская улица,140109,55.5705267,38.2298195
131,улица Михалевича,140100,55.5610028,38.2598337
18/1,улица Махова,140105,55.5778967,38.2178591
62,Москворецкая улица,140100,55.5561649,38.2094919
22,Высоковольтная улица,140104,55.5736326,38.2029230
14,Советская улица,140108,55.5668166,38.2286068
14,Советская улица,140108,55.5662902,38.2289063
14,Советская улица,140108,55.5664030,38.2289125
4,Крымская улица,140103,55.5734527,38.2529757
18А,улица Королёва,140100,55.5895200,38.1976464
5,улица Карла Маркса,140105,55.5690196,38.2225149
132,улица Михалевича,140101,55.5590334,38.2513622
2,Красноармейская улица,140109,55.5703277,38.2290748
10,Красноармейская улица,140108,55.5700089,38.2299708
10,Красноармейская улица,140108,55.5698662,38.2310925
12,Красноармейская улица,140108,55.5703072,38.2321509
17,Советская улица,140108,55.5686388,38.2279299
36А,Советская улица,140108,55.5688107,38.2289185
3,улица Михалевича,140108,55.5681694,38.2293928
36,Советская улица,140108,55.5694463,38.2287513
8,улица Карла Маркса,140108,55.5699336,38.2277908
5А,улица Михалевича,140108,55.5680888,38.2318707
28,улица Гурьева,140108,55.5686161,38.2326008
19,Советская улица,140108,55.5693944,38.2280937
5,улица Михалевича,140108,55.5682365,38.2311604
18,улица Гурьева,140109,55.5708717,38.2332304
16/1,улица Гурьева,140109,55.5708508,38.2338899
16,улица Гурьева,140109,55.5708382,38.2345730
14,улица Гурьева,140109,55.5702996,38.2354493
8,Красноармейская улица,140109,55.5714590,38.2323436
2,Первомайская улица,140108,55.5716307,38.2296420
6,улица Карла Маркса,140108,55.5694133,38.2267597
14,Красноармейская улица,140109,55.5718155,38.2337869
4,Красноармейская улица,140109,55.5706580,38.2308367
6,Красноармейская улица,140109,55.5711727,38.2314716
4А,Красноармейская улица,140109,55.5706748,38.2297394
4Б,Красноармейская улица,140109,55.5710842,38.2305174
24,улица Гурьева,140108,55.5684354,38.2339882
20,улица Гурьева,140108,55.5689511,38.2353380
26,улица Гурьева,140108,55.5676520,38.2352597
27,улица Михалевича,140108,55.5669506,38.2333416
12,улица Гурьева,140109,55.5700966,38.2365065
11,улица Гурьева,140109,55.5711718,38.2383719
13,улица Гурьева,140109,55.5702633,38.2383176
18,Красноармейская улица,140109,55.5711382,38.2390460
22,улица Гурьева,140108,55.5688829,38.2339395
16,Красноармейская улица,140109,55.5716743,38.2358303
16,Красноармейская улица,140109,55.5714603,38.2366756
10,улица Гурьева,140109,55.5708664,38.2369223
12А,улица Гурьева,140109,55.5701172,38.2371095
1А,улица Михалевича,140108,55.5683639,38.2267248
1Б,улица Михалевича,140108,55.5681114,38.2276453
20,улица Михалевича,140108,55.5653596,38.2327985
7,Железнодорожный проезд,140108,55.5654684,38.2297334
5,Железнодорожный проезд,140108,55.5657037,38.2290388
11,Железнодорожный проезд,140108,55.5650284,38.2308710
9,Железнодорожный проезд,140108,55.5652043,38.2302967
12/1,улица Михалевича,140108,55.5659802,38.2305329
14/1,улица Михалевича,140108,55.5658184,38.2313342
16/1,улица Михалевича,140108,55.5656702,38.2321370
16,улица Михалевича,140108,55.5660663,38.2329308
18А,улица Михалевича,140108,55.5659630,38.2336909
18/1,улица Михалевича,140108,55.5655625,38.2338634
13,улица Михалевича,140108,55.5648343,38.2330311
13,Железнодорожный проезд,140108,55.5646481,38.2319079
8А,улица Михалевича,140108,55.5664680,38.2297628
8,улица Михалевича,140108,55.5670544,38.2298459
10,улица Михалевича,140108,55.5669226,38.2308690
12,улица Михалевича,140108,55.5667132,38.2316030
14,улица Михалевича,140108,55.5663720,38.2322844
2,Советская улица,140102,55.5659485,38.2282654
3А,улица Михалевича,140108,55.5677893,38.2308703
25,улица Михалевича,140108,55.5673310,38.2326704
23,улица Михалевича,140108,55.5676696,38.2319893
4,улица Михалевича,140108,55.5673176,38.2265840
13,Советская улица,140102,55.5674710,38.2275690
14,Советская улица,140102,55.5665453,38.2286110
5,улица Ногина,140108,55.5667335,38.2251955
6,улица Ногина,140108,55.5672070,38.2245271
2,улица Карла Маркса,140100,55.5676834,38.2233876
4,Вокзальная улица,140100,55.5665952,38.2244615
2,улица Михалевича,140108,55.5681050,38.2250513
2,Вокзальная улица,140100,55.5670524,38.2232532
2А,улица Карла Маркса,140100,55.5672725,38.2225752
6,улица Гурьева,140103,55.5735946,38.2376332
15,Красноармейская улица,140109,55.5733318,38.2366442
4,улица Гурьева,140103,55.5743826,38.2377056
7,Красноармейская улица,140109,55.5732464,38.2326913
11,Красноармейская улица,140109,55.5732324,38.2338625
9,Красноармейская улица,140109,55.5735512,38.2333253
15А,Красноармейская улица,140109,55.5722882,38.2371569
8,улица Гурьева,140103,55.5728872,38.2374977
17,Красноармейская улица,140109,55.5724730,38.2362364
13,Красноармейская улица,140109,55.5726138,38.2341689
13А,Красноармейская улица,140109,55.5726909,38.2327941
21,Красноармейская улица,140109,55.5718132,38.2421018
19,Красноармейская улица,140109,55.5720050,38.2400257
9,улица Гурьева,140109,55.5726785,38.2387037
10,Рабочая улица,140101,55.5672723,38.2417627
19,улица Коминтерна,140101,55.5676781,38.2438159
17,улица Коминтерна,140101,55.5678508,38.2432364
21,улица Коминтерна,140101,55.5680075,38.2426535
12,Рабочая улица,140101,55.5681899,38.2420454
11А,улица Коминтерна,140101,55.5656539,38.2410409
10,Рабочая улица,140101,55.5658705,38.2403170
13,улица Коминтерна,140101,55.5662820,38.2425520
15,улица Коминтерна,140101,55.5669832,38.2431823
3,улица Коминтерна,140101,55.5666732,38.2415670
33,улица Михалевича,140101,55.5644599,38.2391947
7,улица Коминтерна,140101,55.5649892,38.2403676
35,улица Михалевича,140101,55.5641338,38.2402922
9,улица Коминтерна,140101,55.5647840,38.2409527
11,улица Коминтерна,140101,55.5654443,38.2417628
1,Рабочая улица,140101,55.5651723,38.2390333
5,Школьная улица,140101,55.5661280,38.2390315
3,Рабочая улица,140101,55.5660864,38.2397617
2А,Рабочая улица,140101,55.5653576,38.2398535
2,Рабочая улица,140101,55.5649963,38.2395100
29,улица Михалевича,140101,55.5659064,38.2363689
4,Школьная улица,140101,55.5655202,38.2375031
7,Школьная улица,140101,55.5663455,38.2383433
31,улица Михалевича,140101,55.5647841,38.2376947
6,Школьная улица,140101,55.5653119,38.2382481
5,улица Гурьева,140109,55.5744794,38.2390265
3,улица Гурьева,140109,55.5752136,38.2391608
1,улица Гурьева,140109,55.5760059,38.2393219
5А,Красноармейская улица,140109,55.5743839,38.2332095
19,улица Свободы,140103,55.5747614,38.2347525
21,улица Свободы,140103,55.5746638,38.2361248
11,улица Свободы,140103,55.5761782,38.2328426
11А,улица Свободы,140103,55.5764962,38.2341407
11Б,улица Свободы,140103,55.5768370,38.2354168
8,улица Свободы,140103,55.5769847,38.2321687
5,Красноармейская улица,140109,55.5740544,38.2327875
7,улица Свободы,140103,55.5761685,38.2314741
9,улица Свободы,140103,55.5761526,38.2321410
15,улица Гурьева,140109,55.5696483,38.2389978
20,Красноармейская улица,140109,55.5710598,38.2398336
15/2,улица Гурьева,140109,55.5693125,38.2394033
12/2,улица Гурьева,140109,55.5702224,38.2397426
15/1,улица Гурьева,140109,55.5693502,38.2385469
13/1,улица Гурьева,140109,55.5702438,38.2389646
19,улица Гурьева,140108,55.5680897,38.2378713
17,улица Гурьева,140109,55.5686130,38.2381366
54,улица Гурьева,140108,55.5667107,38.2368939
9,Рабочая улица,140101,55.5670535,38.2385481
28,Красноармейская улица,140109,55.5703944,38.2439167
26/1,Красноармейская улица,140109,55.5694949,38.2424898
19,Рабочая улица,140101,55.5688538,38.2421550
22,Красноармейская улица,140109,55.5709666,38.2410230
24,Красноармейская улица,140109,55.5706784,38.2425623
26,Красноармейская улица,140109,55.5705267,38.2432801
56,улица Михалевича,140101,55.5630144,38.2419757
58,улица Михалевича,140101,55.5626094,38.2428513
13,Бронницкая улица,140101,55.5638292,38.2353052
11,Бронницкая улица,140101,55.5642582,38.2350120
27,улица Гурьева,140108,55.5640798,38.2341229
46,улица Михалевича,140101,55.5637872,38.2394113
48,улица Михалевича,140101,55.5634201,38.2405877
25,Лесная улица,140101,55.5632824,38.2396977
25А,Лесная улица,140101,55.5629347,38.2403648
27,Лесная улица,140101,55.5628018,38.2412314
24,улица Михалевича,140108,55.5645512,38.2363772
26,улица Михалевича,140108,55.5643570,38.2371104
21,Лесная улица,140105,55.5639424,38.2374748
23,Лесная улица,140101,55.5636289,38.2385131
44,улица Михалевича,140101,55.5641510,38.2382575
19,Бронницкая улица,140101,55.5633632,38.2370515
17,Бронницкая улица,140101,55.5634690,38.2360914
15,Бронницкая улица,140101,55.5639688,38.2361338
25,улица Гурьева,140108,55.5648016,38.2350502
22,улица Михалевича,140108,55.5648909,38.2357557
25,Бронницкая улица,140101,55.5627560,38.2388215
21,Бронницкая улица,140101,55.5631547,38.2376549
31,Бронницкая улица,140101,55.5617671,38.2417288
29,Бронницкая улица,140101,55.5619985,38.2411669
27,Бронницкая улица,140101,55.5621863,38.2406095
23,Бронницкая улица,140101,55.5629591,38.2382257
33,Бронницкая улица,140101,55.5615670,38.2423011
2,улица Космонавтов,140105,55.5851197,38.2100952
6,улица Космонавтов,140105,55.5853987,38.2094206
10,улица Космонавтов,140105,55.5856871,38.2087476
16,улица Космонавтов,140105,55.5863966,38.2070202
26,улица Чугунова,140105,55.5805210,38.2022988
26,улица Чугунова,140105,55.5810620,38.2022254
34,улица Чугунова,140105,55.5815774,38.2007152
34,улица Чугунова,140105,55.5821249,38.2005992
20,Народная улица,140105,55.5837588,38.2016417
28,улица Чугунова,140105,55.5808662,38.2044031
24,улица Чугунова,140105,55.5795552,38.2041086
24,улица Чугунова,140105,55.5801046,38.2040159
32,улица Чугунова,140105,55.5818367,38.2025798
5А,улица Кирова,140105,55.5767453,38.2007653
5,улица Кирова,140105,55.5771972,38.2013661
3,улица Кирова,140105,55.5777217,38.2018919
1,улица Кирова,140105,55.5771667,38.2035736
27,улица Левашова,140105,55.5807611,38.2067492
10,улица Солнцева,140105,55.5744685,38.2094474
8,улица Чугунова,140105,55.5734349,38.2144096
10А,улица Воровского,140105,55.5732197,38.2109308
10,улица Воровского,140105,55.5737096,38.2097735
9,улица Воровского,140105,55.5733585,38.2081248
4,улица Чугунова,140105,55.5727455,38.2159887
1,улица Солнцева,140105,55.5736062,38.2129971
8,улица Солнцева,140105,55.5738690,38.2110227
6,улица Воровского,140105,55.5722871,38.2126110
8,улица Воровского,140105,55.5727552,38.2119687
14,улица Махова,140105,55.5738298,38.2164307
2,улица Солнцева,140105,55.5721939,38.2150998
4,улица Солнцева,140105,55.5726770,38.2139049
6,улица Солнцева,140105,55.5732351,38.2125990
14 к3,улица Махова,140105,55.5746708,38.2178770
36,улица Космонавтов,140105,55.5901877,38.2028437
38,улица Космонавтов,140105,55.5899477,38.2014973
13,улица Космонавтов,140105,55.5876261,38.2018043
17 к1,улица Космонавтов,140105,55.5882931,38.2014542
21,улица Космонавтов,140105,55.5887327,38.2009043
18,Коммунистическая улица,140105,55.5903641,38.2042168
18А,Коммунистическая улица,140105,55.5909864,38.2049876
40,улица Космонавтов,140105,55.5915864,38.2046011
34,улица Космонавтов,140105,55.5897409,38.2022839
15,улица Космонавтов,140105,55.5881371,38.2024671
19 к1,улица Космонавтов,140105,55.5888367,38.2019052
30,улица Космонавтов,140105,55.5890866,38.2037736
16,Коммунистическая улица,140105,55.5901736,38.2058708
15А,Коммунистическая улица,140105,55.5896307,38.2044629
1А,улица Космонавтов,140105,55.5863646,38.2013730
5,улица Космонавтов,140105,55.5865668,38.2026759
7,Народная улица,140105,55.5859562,38.2004675
11,улица Космонавтов,140105,55.5873722,38.2027253
8,Народная улица,140105,55.5853808,38.2011277
20/2,улица Космонавтов,140105,55.5863810,38.2051724
20/1,улица Космонавтов,140105,55.5857486,38.2048289
20/3,улица Космонавтов,140105,55.5863000,38.2043025
35,улица Космонавтов,140105,55.5861176,38.2022882
36,улица Чугунова,140105,55.5824522,38.1994903
21,Фабричная улица,140105,55.5844481,38.1993825
1,улица Космонавтов,140105,55.5855755,38.2022193
31,улица Левашова,140105,55.5829938,38.2069902
33,улица Левашова,140105,55.5833894,38.2060764
29А,улица Левашова,140105,55.5823691,38.2064930
37А,улица Левашова,140105,55.5834654,38.2048774
30,улица Чугунова,140105,55.5818856,38.2040305
15,Коммунистическая улица,140105,55.5894711,38.2055102
26,улица Космонавтов,140105,55.5880418,38.2045474
7,улица Космонавтов,140105,55.5871138,38.2014542
29,улица Левашова,140105,55.5825991,38.2079003
38,Коммунистическая улица,140105,55.5927187,38.2056722
24,Прямолинейная улица,140105,55.5930471,38.2038934
12,Коммунистическая улица,140105,55.5890624,38.2070548
13А,Коммунистическая улица,140105,55.5887163,38.2056426
13,Коммунистическая улица,140105,55.5893274,38.2064475
4,Коммунистическая улица,140105,55.5867115,38.2091118
5,Коммунистическая улица,140105,55.5874142,38.2095231
6А,Коммунистическая улица,140105,55.5872287,38.2082753
6,Коммунистическая улица,140105,55.5878170,38.2090296
36,Коммунистическая улица,140105,55.5924632,38.2065798
8,Коммунистическая улица,140105,55.5877653,38.2079582
9,Коммунистическая улица,140105,55.5884127,38.2083722
11,Коммунистическая улица,140105,55.5883366,38.2065227
8,улица Космонавтов,140105,55.5861772,38.2094943
1,Коммунистическая улица,140105,55.5862937,38.2106232
18,улица Космонавтов,140105,55.5866980,38.2063677
24,улица Космонавтов,140105,55.5873351,38.2046486
10,Коммунистическая улица,140105,55.5877373,38.2068145
32А,Десантная улица,140104,55.5693017,38.2017201
35,улица Красный Октябрь,140104,55.5699178,38.2017789
22,Десантная улица,140104,55.5684986,38.2027685
20,Десантная улица,140104,55.5685921,38.2034052
18,Десантная улица,140104,55.5686790,38.2039728
28,Десантная улица,140104,55.5682650,38.2017087
24,Десантная улица,140104,55.5684854,38.2020177
42,Десантная улица,140104,55.5681043,38.1994749
42,Десантная улица,140104,55.5681286,38.2005768
32,Десантная улица,140104,55.5691783,38.2009390
1А,улица Воровского,140105,55.5708899,38.2133634
14,Десантная улица,140104,55.5695751,38.2087405
3/2,улица Воровского,140105,55.5719421,38.2118416
1,Октябрьская улица,140104,55.5706404,38.2087121
41,улица Красный Октябрь,140104,55.5714992,38.2052473
47,улица Красный Октябрь,140104,55.5711729,38.2041220
50,улица Красный Октябрь,140104,55.5724471,38.2048393
49,улица Красный Октябрь,140104,55.5722511,38.2053569
48,улица Красный Октябрь,140104,55.5720312,38.2058830
47А,улица Красный Октябрь,140104,55.5707166,38.2051893
36,улица Красный Октябрь,140104,55.5702332,38.2040950
5,улица Воровского,140105,55.5719553,38.2108549
1А,Народное Имение,140109,55.5723152,38.2314880
8,Донинское шоссе,140103,55.5784118,38.2445635
8,Донинское шоссе,140103,55.5775810,38.2460796
10,Донинское шоссе,140103,55.5778404,38.2460575
10,Донинское шоссе,140103,55.5781353,38.2457642
1Д,улица Гурьева,140103,55.5759372,38.2421836
1В,улица Гурьева,140108,55.5770587,38.2423831
6,Донинское шоссе,140103,55.5776515,38.2429114
2А,улица Гурьева,140109,55.5757202,38.2399699
16,Дергаевская улица,140103,55.5790594,38.2488825
28,Дергаевская улица,140103,55.5791502,38.2454892
37,улица Михалевича,140101,55.5637821,38.2413771
43,улица Михалевича,140101,55.5630892,38.2442358
6,улица Свободы,140103,55.5769998,38.2305407
13,улица Свободы,140103,55.5757197,38.2359925
17,улица Свободы,140103,55.5761547,38.2371772
15,улица Свободы,140103,55.5763288,38.2365047
10,улица Свободы,140103,55.5778515,38.2326051
19А,улица Свободы,140103,55.5753966,38.2347275
10А,Строительная улица,140101,55.5548639,38.2617812
10,Строительная улица,140101,55.5552283,38.2621677
10,улица Стальконструкции,140101,55.5609886,38.2444222
18,улица Стальконструкции,140101,55.5611945,38.2437741
8,Строительная улица,140101,55.5556782,38.2607003
6,Строительная улица,140101,55.5560171,38.2590897
66/2,улица Михалевича,140101,55.5617781,38.2457359
12,улица Стальконструкции,140101,55.5605637,38.2449256
8,улица Стальконструкции,140101,55.5609292,38.2452886
4,улица Стальконструкции,140101,55.5613144,38.2456559
14,улица Стальконструкции,140101,55.5606842,38.2441356
62,улица Михалевича,140101,55.5622099,38.2444032
64,улица Михалевича,140101,55.5618675,38.2448839
18,Красная улица,140101,55.5606898,38.2413982
17,Красная улица,140101,55.5608800,38.2408092
3,Сафоновский проезд,140101,55.5619834,38.2435459
60,улица Михалевича,140101,55.5623066,38.2438869
5А,Донинское шоссе,140100,55.5739980,38.2353987
2,Донинское шоссе,140103,55.5788635,38.2418314
2,улица Гурьева,140103,55.5782497,38.2394551
4А,Донинское шоссе,140103,55.5784192,38.2430760
4,Донинское шоссе,140103,55.5786588,38.2424054
52,улица Красный Октябрь,140104,55.5701173,38.2072631
16,улица Воровского,140105,55.5741036,38.2083600
4,улица Воровского,140105,55.5741330,38.2065938
39Б,Десантная улица,140104,55.5700193,38.2057882
39А,Десантная улица,140104,55.5698238,38.2051717
51,улица Красный Октябрь,140104,55.5701261,38.2065858
7,улица Воровского,140105,55.5725618,38.2093846
1Б,Фабричный проезд,140105,55.5722071,38.2102187
3/3,улица Воровского,140105,55.5724718,38.2106635
12,улица Воровского,140105,55.5732141,38.2099496
14,улица Воровского,140105,55.5736731,38.2088549
3,улица Карла Маркса,140100,55.5686297,38.2235005
6,улица Махова,140105,55.5725313,38.2195821
10А,улица Чугунова,140105,55.5759602,38.2119104
12,улица Мира,140105,55.5776763,38.2154147
14,улица Чугунова,140105,55.5764668,38.2092561
3/3,улица Мира,140105,55.5764922,38.2112436
10/1,улица Чугунова,140105,55.5759427,38.2105004
10/1,улица Чугунова,140105,55.5755820,38.2112384
18/2,улица Чугунова,140105,55.5772050,38.2083682
16,улица Чугунова,140105,55.5768871,38.2089332
12,улица Чугунова,140105,55.5762814,38.2099748
35,улица Левашова,140105,55.5830525,38.2055745
7,Спортивный проезд,140105,55.5769890,38.2055183
15,Спортивный проезд,140105,55.5774999,38.2053046
8,улица Кирова,140105,55.5777339,38.2041894
21А,улица Чугунова,140105,55.5783574,38.2041248
21А,Народная улица,140105,55.5839182,38.1999837
21,Народная улица,140105,55.5842038,38.2030537
37,улица Левашова,140105,55.5839859,38.2045824
35,улица Левашова,140105,55.5826974,38.2055955
25А,улица Левашова,140105,55.5830664,38.2113001
40,улица Чугунова,140105,55.5835103,38.1992460
7,улица Новостройка,140105,55.5769719,38.2100350
18А,улица Чугунова,140105,55.5774584,38.2079143
12,улица Левашова,140105,55.5803587,38.2088544
4,улица Махова,140105,55.5732280,38.2190439
72,улица Михалевича,140101,55.5591239,38.2502894
49,улица Михалевича,140101,55.5617155,38.2476207
39,улица Коминтерна,140101,55.5702155,38.2458131
30,Дергаевская улица,140103,55.5797543,38.2441920
18,улица Махова,140105,55.5781605,38.2203179
1А,Сафоновское шоссе,140100,55.5590078,38.2692752
5,улица Карла Маркса,140100,55.5691132,38.2212033
43,улица Красный Октябрь,140104,55.5705732,38.2032188
43А,улица Красный Октябрь,140104,55.5708455,38.2027310
6,Бронницкая улица,140101,55.5629024,38.2355965
11/1,улица Чугунова,140105,55.5749489,38.2098607
2,Красноармейская улица,140109,55.5684354,38.2556778
2,Деревообделочный проезд,140100,55.5671363,38.2071177
26А,улица Гурьева,140108,55.5678353,38.2337902
17/1,улица Гурьева,140109,55.5690920,38.2377262
5,улица Махова,140105,55.5729509,38.2174652
1-Б/2,Октябрьская улица,140104,55.5717786,38.2068684
2,Полевая улица,140104,55.5674753,38.2089156
7,улица Солнцева,140105,55.5750115,38.2063573
2,Деревообделочный проезд,140104,55.5684708,38.2078687
2А,Деревообделочный проезд,140104,55.5687631,38.2075682
7,Десантная улица,140104,55.5686229,38.2068021
44,Десантная улица,140104,55.5678048,38.1974648
22,улица Чугунова,140105,55.5791599,38.2051119
18Б,улица Чугунова,140105,55.5776033,38.2076256
21,Народная улица,140105,55.5845298,38.2020326
32А,улица Чугунова,140105,55.5823930,38.2017326
10А,улица Чугунова,140105,55.5756052,38.2119774
26,улица Кирова,140105,55.5794654,38.1995829
30/7,улица Кирова,140105,55.5797555,38.1988875
16,улица Кирова,140105,55.5784936,38.2019069
9,улица Кирова,140105,55.5781561,38.2011550
7,улица Кирова,140105,55.5775790,38.2007748
20,улица Кирова,140105,55.5788539,38.2010590
24,улица Кирова,140105,55.5792919,38.2004963
14,улица Кирова,140105,55.5782728,38.2026163
29,улица Чугунова,140105,55.5786554,38.2031066
31,улица Чугунова,140105,55.5789836,38.2027898
33,улица Чугунова,140105,55.5792566,38.2030506
15,улица Чугунова,140105,55.5775227,38.2062404
5,Полярная улица,140105,55.5800450,38.1991503
21,улица Чугунова,140105,55.5802907,38.2053423
29Б,улица Левашова,140105,55.5821344,38.2050103
34 к1,улица Чугунова,140105,55.5812021,38.2014892
6,Деревообделочный проезд,140104,55.5678106,38.2078499
11А,улица Серова,140104,55.5657755,38.2033690
35Б,улица Красный Октябрь,140104,55.5699208,38.1973432
35А,улица Красный Октябрь,140104,55.5702063,38.1993430
35В,улица Красный Октябрь,140104,55.5702743,38.1982415
2,улица Мира,140105,55.5770004,38.2133383
12/1,улица Мира,140105,55.5770732,38.2157794
18/1,улица Махова,140105,55.5776729,38.2180861
4,улица Мира,140105,55.5760226,38.2137981
5,улица Мира,140105,55.5762981,38.2145147
6,улица Мира,140105,55.5767134,38.2150666
42,Фабричная улица,140105,55.5854673,38.1993020
4,Народная улица,140105,55.5862032,38.1992929
5,Народная улица,140105,55.5867756,38.1994741
22,Чкаловская улица,140105,55.5890679,38.1994649
23,Дачная улица,140105,55.5840948,38.1983933
2,улица Холодово,140105,55.5837205,38.1978997
24,улица Холодово,140105,55.5838861,38.1977014
28,улица Холодово,140105,55.5840357,38.1974491
30,улица Холодово,140105,55.5842692,38.1971427
32,улица Холодово,140105,55.5845089,38.1969248
44,Фабричная улица,140105,55.5858659,38.1988201
46,Фабричная улица,140105,55.5863057,38.1982967
3,Народная улица,140105,55.5863973,38.1990301
48/1,Фабричная улица,140105,55.5867255,38.1977672
4,Западный проезд,140105,55.5870605,38.1982520
6,Западный проезд,140105,55.5872350,38.1989308
50,улица Холодово,140105,55.5865657,38.1942129
40,Фабричная улица,140105,55.5856199,38.1999880
6,Народная улица,140105,55.5863448,38.2000112
36,улица Холодово,140105,55.5851603,38.1959818
31,Фабричная улица,140105,55.5860057,38.1978601
1А,улица Карла Маркса,140100,55.5681184,38.2229503
133,улица Михалевича,140101,55.5604568,38.2608240
53,улица Михалевича,140100,55.5586761,38.2574635
7,Сафоновский проезд,140101,55.5612671,38.2428427
23,Красная улица,140101,55.5600914,38.2447067
3,Транспортный проезд,140101,55.5565137,38.2556020
80,улица Михалевича,140101,55.5574211,38.2586710
4,Транспортный проезд,140101,55.5568782,38.2551390
25,Красная улица,140101,55.5605608,38.2433889
1,Сафоновский проезд,140101,55.5608408,38.2426513
5,Транспортный проезд,140101,55.5574259,38.2566555
6,улица Стальконструкции,140101,55.5615887,38.2444474
131 вл2,улица Михалевича,140101,55.5612113,38.2613569
78,улица Михалевича,140101,55.5575660,38.2582412
3,Транспортный проезд,140101,55.5576760,38.2569864
82,улица Михалевича,140101,55.5572733,38.2591148
15,Строительная улица,140101,55.5570472,38.2574391
11,Сафоновский проезд,140101,55.5605747,38.2422246
13,Строительная улица,140101,55.5572511,38.2570125
76,улица Михалевича,140101,55.5577172,38.2578006
5,Сафоновский проезд,140101,55.5615752,38.2432029
16,улица Стальконструкции,140101,55.5609187,38.2433204
74,улица Михалевича,140101,55.5578796,38.2573559
22,Красная улица,140101,55.5602282,38.2439127
39 к56,улица Михалевича,140101,55.5631291,38.2462124
2,Транспортный проезд,140101,55.5572485,38.2556988
68,улица Михалевича,140101,55.5613747,38.2469730
39 к62,улица Михалевича,140101,55.5629007,38.2453674
70,улица Михалевича,140101,55.5611611,38.2475687
1А,Транспортный проезд,140101,55.5570393,38.2545486
72Д,улица Михалевича,140101,55.5586744,38.2545432
22,Рабочая улица,140101,55.5699365,38.2442924
35,улица Коминтерна,140101,55.5697700,38.2449170
33,улица Коминтерна,140101,55.5696360,38.2444395
37,улица Коминтерна,140101,55.5700535,38.2452315
24,Рабочая улица,140101,55.5702565,38.2444496
14,улица Народное Имение,140108,55.5755607,38.2313527
3А,Донинское шоссе,140109,55.5730724,38.2355212
13,улица Народное Имение,140108,55.5753695,38.2320677
4,улица Свободы,140103,55.5770210,38.2331044
20,улица Красный Октябрь,140104,55.5689073,38.2036552
18,улица Серова,140104,55.5638180,38.1994992
23,улица Серова,140104,55.5634541,38.2009032
41/22,улица Серова,140104,55.5622643,38.1994805
16,улица Серова,140104,55.5622850,38.1984973
14/20,улица Серова,140104,55.5625626,38.1987175
40,Десантная улица,140104,55.5684224,38.1967367
11,Десантная улица,140104,55.5668457,38.1954163
44А,Десантная улица,140104,55.5674813,38.1952414
46,Десантная улица,140104,55.5685193,38.1974315
48,Десантная улица,140104,55.5686325,38.1981373
50,Десантная улица,140104,55.5687280,38.1988453
37,улица Серова,140104,55.5628459,38.2002719
39,улица Серова,140104,55.5625636,38.1999028
17,улица Куйбышева,140104,55.5623798,38.2003131
24,улица Куйбышева,140104,55.5620722,38.1999817
25,улица Серова,140104,55.5632246,38.2012338
31,улица Серова,140104,55.5631151,38.2005621
33,улица Серова,140104,55.5629558,38.2010567
35,улица Серова,140104,55.5627165,38.2016550
10,улица Зои Космодемьянской,140104,55.5629895,38.2029121
29,улица Серова,140104,55.5628135,38.2023166
7,улица Красный Октябрь,140104,55.5674315,38.2050001
16,Десантная улица,140104,55.5687215,38.2046741
17,улица Серова,140104,55.5637380,38.2012389
19,улица Серова,140104,55.5636477,38.2016652
8,улица Зои Космодемьянской,140104,55.5635769,38.2029881
15,улица Серова,140104,55.5639144,38.2019914
13,улица Серова,140104,55.5641066,38.2017114
13А/6,улица Серова,140104,55.5644714,38.2020547
52,Десантная улица,140104,55.5687881,38.2000392
54,Десантная улица,140104,55.5685058,38.2004215
6,улица Красный Октябрь,140104,55.5670661,38.2045430
3,улица Серова,140104,55.5670817,38.2038402
3А,улица Серова,140104,55.5668485,38.2037598
10,Тракторная улица,140104,55.5666890,38.2046201
11/10,Десантная улица,140104,55.5681917,38.2043519
11,Десантная улица,140104,55.5678832,38.2040080
22,улица Красный Октябрь,140104,55.5687320,38.2023643
21,улица Красный Октябрь,140104,55.5688246,38.2030688
4,Тракторная улица,140104,55.5674724,38.2065163
8,Тракторная улица,140104,55.5667983,38.2054298
5,Тракторная улица,140104,55.5671171,38.2061031
8,улица Красный Октябрь,140104,55.5680351,38.2056915
9,улица Красный Октябрь,140104,55.5683993,38.2061152
5А,Десантная улица,140104,55.5683675,38.2072629
3,Тракторная улица,140104,55.5678302,38.2069393
14,Вокзальная улица,140108,55.5647007,38.2299023
13,Вокзальная улица,140108,55.5649001,38.2292547
15А,Вокзальная улица,140108,55.5638224,38.2320139
16,Вокзальная улица,140108,55.5640648,38.2314720
15,Вокзальная улица,140108,55.5644133,38.2305572
56,Десантная улица,140104,55.5691516,38.1994852
35Д,улица Красный Октябрь,140104,55.5695278,38.1989234
2,улица Некрасова,140104,55.5756593,38.1974274
23,улица Красный Октябрь,140104,55.5690557,38.2022231
9,улица Красный Октябрь,140104,55.5702712,38.2011841
34,улица Красный Октябрь,140104,55.5693735,38.2020986
26,улица Красный Октябрь,140104,55.5693100,38.2041240
27,улица Красный Октябрь,140104,55.5693690,38.2045667
18,улица Красный Октябрь,140104,55.5690529,38.2046981
19,улица Красный Октябрь,140104,55.5689884,38.2042620
30,улица Красный Октябрь,140104,55.5696915,38.2044268
31,улица Красный Октябрь,140104,55.5696242,38.2039770
32,улица Красный Октябрь,140104,55.5695441,38.2033765
25,улица Красный Октябрь,140104,55.5692243,38.2035021
24,улица Красный Октябрь,140104,55.5691450,38.2028968
15,улица Красный Октябрь,140104,55.5694421,38.2073636
18,улица Красный Октябрь,140104,55.5698429,38.2071444
16,улица Красный Октябрь,140104,55.5693617,38.2062303
17,улица Красный Октябрь,140104,55.5693008,38.2054390
29,улица Красный Октябрь,140104,55.5697887,38.2062847
14А,Десантная улица,140104,55.5692251,38.2077122
5,Спортивный проезд,140105,55.5758699,38.2031874
7,улица Солнцева,140105,55.5750823,38.2066489
22,улица Космонавтов,140105,55.5873653,38.2057257
14,улица Народное Имение,140108,55.5750062,38.2316936
12,улица Народное Имение,140108,55.5747743,38.2317930
16,Красная улица,140101,55.5620514,38.2380323
14,Бронницкая улица,140101,55.5624424,38.2377240
5,Бронницкая улица,140101,55.5622869,38.2369862
20,Красная улица,140101,55.5602182,38.2423741
11А,Сафоновский проезд,140101,55.5603773,38.2419000
20,Бронницкая улица,140101,55.5619925,38.2389883
24,Бронницкая улица,140101,55.5617505,38.2397409
26,Бронницкая улица,140101,55.5616570,38.2399992
22,Бронницкая улица,140101,55.5618661,38.2392670
28,Бронницкая улица,140101,55.5614824,38.2404566
23,Бронницкая улица,140101,55.5622393,38.2397668
8,Бронницкая улица,140101,55.5626282,38.2395476
18,Бронницкая улица,140101,55.5621883,38.2385439
30,Бронницкая улица,140101,55.5613463,38.2407930
41,Лесная улица,140101,55.5621021,38.2427681
37,Лесная улица,140101,55.5624915,38.2419335
35,Лесная улица,140101,55.5625614,38.2416142
39,Лесная улица,140101,55.5622460,38.2423275
31А,улица Михалевича,140101,55.5651475,38.2367546
14,Рабочая улица,140101,55.5687619,38.2429073
25,улица Коминтерна,140101,55.5683403,38.2443435
27,улица Коминтерна,140101,55.5686857,38.2446291
12,Дергаевская улица,140103,55.5799607,38.2486234
18,Рабочая улица,140101,55.5694318,38.2434526
16,Рабочая улица,140101,55.5690940,38.2431984
29,улица Коминтерна,140101,55.5690310,38.2449058
20,Рабочая улица,140101,55.5698058,38.2438057
31,улица Коминтерна,140101,55.5694083,38.2450648
78,Красноармейская улица,140101,55.5705729,38.2455983
18,Дергаевская улица,140103,55.5788668,38.2480967
14,Дергаевская улица,140103,55.5792557,38.2496596
8,Дергаевская улица,140103,55.5809452,38.2462442
10,Дергаевская улица,140103,55.5804960,38.2475175
90,улица Михалевича,140101,55.5566571,38.2610780
96,улица Михалевича,140101,55.5559986,38.2622976
104,улица Михалевича,140101,55.5554316,38.2641267
86,улица Михалевича,140101,55.5568583,38.2602433
102,улица Михалевича,140101,55.5556305,38.2638933
94,улица Михалевича,140101,55.5562682,38.2619556
108,улица Михалевича,140101,55.5551787,38.2647954
110,улица Михалевича,140101,55.5550353,38.2651769
100,улица Михалевича,140101,55.5557924,38.2632761
88,улица Михалевича,140101,55.5567320,38.2607287
92,улица Михалевича,140101,55.5564245,38.2615252
106,улица Михалевича,140101,55.5553207,38.2643787
28,Стахановская улица,140109,55.5752088,38.2426583
1,1-я Танеевская улица,140101,55.5587568,38.2593435
3,1-я Танеевская улица,140101,55.5580623,38.2591391
5,Строительная улица,140101,55.5568059,38.2565427
6,1-я Танеевская улица,140101,55.5586846,38.2603335
6,1-я Танеевская улица,140101,55.5585092,38.2605645
22,Стахановская улица,140109,55.5744158,38.2433644
20,1-я Танеевская улица,140101,55.5571191,38.2618042
61,улица Михалевича,140101,55.5567423,38.2625308
84,улица Михалевича,140101,55.5570280,38.2598092
20,Северное шоссе,140103,55.5851727,38.2375425
63,улица Михалевича,140101,55.5566314,38.2629546
9,1-я Танеевская улица,140101,55.5580179,38.2596638
21,Красноармейская улица,140109,55.5718703,38.2413551
18,1-я Танеевская улица,140101,55.5573528,38.2615705
24,Стахановская улица,140109,55.5746102,38.2431899
2,1-я Танеевская улица,140101,55.5591346,38.2598788
22,1-я Танеевская улица,140101,55.5569644,38.2620068
24,1-я Танеевская улица,140101,55.5567871,38.2622924
11,1-я Танеевская улица,140101,55.5578208,38.2601029
27,Стахановская улица,140109,55.5749446,38.2429512
65,улица Михалевича,140101,55.5564246,38.2633922
5,1-я Танеевская улица,140101,55.5584083,38.2592509
4,1-я Танеевская улица,140101,55.5588700,38.2601380
7,улица Берёзовая Просека,140104,55.5760691,38.2543130
3,улица Берёзовая Просека,140104,55.5763050,38.2536949
5,улица Берёзовая Просека,140104,55.5761149,38.2538768
55,улица Берёзовая Просека,140104,55.5733617,38.2622424
51,улица Берёзовая Просека,140104,55.5736078,38.2615416
49,улица Берёзовая Просека,140104,55.5737010,38.2612010
47,улица Берёзовая Просека,140104,55.5738958,38.2610983
45,улица Берёзовая Просека,140104,55.5739025,38.2605643
43,улица Берёзовая Просека,140104,55.5740064,38.2602209
41,улица Берёзовая Просека,140104,55.5740928,38.2598826
13,улица Берёзовая Просека,140104,55.5758295,38.2552553
15,улица Берёзовая Просека,140104,55.5757030,38.2556053
17,улица Берёзовая Просека,140104,55.5756178,38.2558814
19,улица Берёзовая Просека,140104,55.5754195,38.2560744
21,улица Берёзовая Просека,140104,55.5752090,38.2566031
9,улица Берёзовая Просека,140104,55.5760468,38.2546558
25,улица Берёзовая Просека,140104,55.5749800,38.2573297
36,улица Космонавтов,140105,55.5906774,38.2034647
38,улица Космонавтов,140105,55.5908976,38.2037922
36А,Коммунистическая улица,140105,55.5934379,38.2070214
13Б,Красноармейская улица,140109,55.5726547,38.2333171
17А,Красноармейская улица,140109,55.5725221,38.2351223
22,Красноармейская улица,140109,55.5709091,38.2412470
40Г,улица Космонавтов,140105,55.5911746,38.2039523
42/1,улица Холодово,140105,55.5856247,38.1952928
44,улица Холодово,140105,55.5858065,38.1950596
35,Фабричная улица,140105,55.5863112,38.1975053
48,улица Холодово,140105,55.5863058,38.1944687
15,Чкаловская улица,140105,55.5894980,38.1994303
37,Фабричная улица,140105,55.5865022,38.1971606
34,улица Королёва,140105,55.5908403,38.2021683
25,улица Королёва,140105,55.5909577,38.2010776
52,улица Холодово,140105,55.5868102,38.1938368
36,улица Королёва,140105,55.5911211,38.2030284
40,улица Холодово,140105,55.5854231,38.1955262
46,улица Холодово,140105,55.5860519,38.1948551
32,улица Королёва,140105,55.5906760,38.2016452
27,улица Королёва,140105,55.5911626,38.2017466
58,Красноармейская улица,140109,55.5706103,38.2419641
91,Красноармейская улица,140109,55.5712451,38.2475257
21А,улица Коминтерна,140101,55.5675131,38.2424922
20А,улица Михалевича,140108,55.5652828,38.2321484
13,Железнодорожный проезд,140108,55.5646826,38.2318949
2А,Советская улица,140102,55.5661626,38.2285878
40,улица Красный Октябрь,140104,55.5705504,38.2065472
39,улица Красный Октябрь,140104,55.5704472,38.2057142
1В,Десантная улица,140104,55.5692589,38.2132180
26А,улица Гурьева,140108,55.5689029,38.2369027
24А,улица Гурьева,140108,55.5681154,38.2348521
26А,улица Гурьева,140108,55.5678911,38.2337513
18,улица Махова,140105,55.5782049,38.2205396
3А,Вокзальная улица,140100,55.5667668,38.2227970
1Б,улица Воровского,140105,55.5711895,38.2137268
2,улица Чугунова,140105,55.5723956,38.2166286
6,улица Чугунова,140105,55.5729927,38.2152145
4А,Вокзальная улица,140100,55.5664213,38.2249681
3/1,улица Воровского,140105,55.5714459,38.2129985
16,улица Ногина,140100,55.5660216,38.2249896
1Б,Вокзальная улица,140100,55.5661200,38.2246392
3,Вокзальная улица,140100,55.5663850,38.2238885
31,улица Королёва,140105,55.5917455,38.2030101
40/2,Коммунистическая улица,140105,55.5933123,38.2047634
3,улица Кирова,140105,55.5821555,38.1980994
37,Коммунистическая улица,140105,55.5921119,38.2048889
40/1,Коммунистическая улица,140105,55.5934582,38.2055969
21,Сосновая улица,140105,55.5796572,38.1938825
9,Сосновая улица,140105,55.5813134,38.1961711
24А,Прямолинейная улица,140105,55.5921324,38.2029886
5,Сосновая улица,140105,55.5819164,38.1967197
2,улица Кирова,140105,55.5815259,38.1983131
11А,улица Космонавтов,140105,55.5860312,38.2025668
1,улица Холодово,140105,55.5823852,38.1983198
5,улица Кирова,140105,55.5819079,38.1977038
17,Сосновая улица,140105,55.5801682,38.1945707
1,Сосновая улица,140105,55.5826152,38.1976343
43А,улица Чугунова,140105,55.5820655,38.1987851
35,улица Королёва,140105,55.5920979,38.2041945
6,улица Кирова,140105,55.5812664,38.1970300
26А,улица Космонавтов,140105,55.5876738,38.2042999
11,Сосновая улица,140105,55.5811177,38.1959456
19,Сосновая улица,140105,55.5799071,38.1942356
18А,улица Космонавтов,140105,55.5872015,38.2071353
33,улица Королёва,140105,55.5919353,38.2036738
54,улица Холодово,140105,55.5869325,38.1935204
4,улица Кирова,140105,55.5816011,38.1974271
27А,улица Королёва,140105,55.5914186,38.2023006
15,Сосновая улица,140105,55.5804916,38.1949285
47,улица Чугунова,140105,55.5819295,38.1989882
34,улица Холодово,140105,55.5847134,38.1966530
37,улица Королёва,140105,55.5924630,38.2041073
3,Сосновая улица,140105,55.5822567,38.1970843
6,1-я Гражданская улица,140128,55.5588736,38.2341732
2,Рязанская улица,140108,55.5609045,38.2312183
8,1-я Гражданская улица,140128,55.5587343,38.2346223
7,Рязанская улица,140108,55.5611181,38.2318354
4,Рязанская улица,140108,55.5607742,38.2315773
16,Рязанская улица,140108,55.5599263,38.2337944
8,Рязанская улица,140108,55.5605918,38.2320640
20,Рязанская улица,140108,55.5595377,38.2348970
11,1-я Гражданская улица,140100,55.5596688,38.2334294
12,1-я Гражданская улица,140128,55.5584616,38.2352895
16,1-я Гражданская улица,140128,55.5582400,38.2357872
1,1-я Гражданская улица,140100,55.5604615,38.2315691
1,Рязанская улица,140108,55.5615271,38.2308130
5,Рязанская улица,140108,55.5612661,38.2315480
9,Рязанская улица,140108,55.5610442,38.2320791
6,Рязанская улица,140108,55.5607142,38.2317922
18,Рязанская улица,140108,55.5597884,38.2341609
11,Рязанская улица,140108,55.5608028,38.2327164
10,Рязанская улица,140108,55.5604789,38.2323863
12,Рязанская улица,140108,55.5602322,38.2332105
13,1-я Гражданская улица,140100,55.5595727,38.2336117
10,1-я Гражданская улица,140128,55.5585783,38.2349869
14,1-я Гражданская улица,140100,55.5583676,38.2355723
3,Рязанская улица,140108,55.5613890,38.2312031
12,1-я Танеевская улица,140101,55.5580185,38.2609516
15,1-я Танеевская улица,140101,55.5573751,38.2605583
13,1-я Танеевская улица,140101,55.5575775,38.2602685
8,1-я Танеевская улица,140101,55.5583077,38.2607280
14,1-я Танеевская улица,140101,55.5578278,38.2611718
9,Праволинейная улица,140105,55.5771370,38.1988810
12,Праволинейная улица,140105,55.5775694,38.1987896
4,Праволинейная улица,140105,55.5769661,38.2002624
1,Праволинейная улица,140105,55.5766735,38.1997731
15/1,улица Чугунова,140105,55.5748502,38.2083497
15/7,улица Чугунова,140105,55.5753179,38.2085071
15/3,улица Чугунова,140105,55.5752666,38.2077225
15/4,улица Чугунова,140105,55.5758113,38.2074352
15/5,улица Чугунова,140105,55.5758141,38.2062896
3,Праволинейная улица,140105,55.5768302,38.1994982
6,Праволинейная улица,140105,55.5771575,38.1998709
5,Праволинейная улица,140105,55.5769492,38.1992172
10,Праволинейная улица,140105,55.5773017,38.1994191
7,Праволинейная улица,140105,55.5769914,38.1990727
12А,Праволинейная улица,140105,55.5773678,38.1990698
16,Праволинейная улица,140105,55.5778074,38.1982346
56,улица Холодово,140105,55.5870689,38.1933212
7А,улица Воровского,140105,55.5729134,38.2092646
11/1,улица Чугунова,140105,55.5749570,38.2103566
14,Праволинейная улица,140105,55.5777005,38.1985987
4,улица Кирова,140105,55.5772753,38.2047732
1/2,Холодовский проезд,140105,55.5787288,38.1999357
12,улица Кирова,140105,55.5779935,38.2030966
6,улица Кирова,140105,55.5775016,38.2042768
11/1,улица Чугунова,140105,55.5750929,38.2101181
9,Комсомольский проезд,140108,55.5579034,38.2379941
4,улица Работницы,140108,55.5574658,38.2406039
7,улица Работницы,140108,55.5568767,38.2407280
8,улица Работницы,140108,55.5570198,38.2401696
10,улица Работницы,140108,55.5571232,38.2398456
6,улица Работницы,140108,55.5572097,38.2403362
2,улица Работницы,140108,55.5577367,38.2408823
1,улица Работницы,140108,55.5574952,38.2416399
5,улица Работницы,140108,55.5571580,38.2410443
3,улица Работницы,140108,55.5573878,38.2413532
36,Железнодорожная улица,140108,55.5583700,38.2434767
38,Казанская улица,140108,55.5592793,38.2377886
13,Рязанская улица,140108,55.5606433,38.2335028
27,Рязанская улица,140108,55.5592250,38.2368637
21,Рязанская улица,140108,55.5598581,38.2351224
19,Рязанская улица,140108,55.5600948,38.2346854
15,Рязанская улица,140108,55.5604168,38.2338045
4,Парковский переулок,140108,55.5583629,38.2367154
3,Парковский переулок,140108,55.5586526,38.2369650
2,Парковский переулок,140108,55.5588417,38.2372923
1,Парковский переулок,140108,55.5590530,38.2375332
8,Комсомольский проезд,140108,55.5583799,38.2376165
10,Комсомольский проезд,140108,55.5580813,38.2373318
36,Казанская улица,140108,55.5595481,38.2371778
25,Рязанская улица,140108,55.5594434,38.2362982
23,Рязанская улица,140108,55.5596492,38.2358294
32,Казанская улица,140108,55.5599830,38.2361283
34,Казанская улица,140108,55.5597687,38.2366375
31,Казанская улица,140108,55.5602739,38.2365288
33,Казанская улица,140108,55.5600714,38.2370546
35,Казанская улица,140108,55.5598571,38.2376867
6,Комсомольский проезд,140108,55.5585527,38.2380621
3,Комсомольский проезд,140108,55.5585823,38.2388395
7,Комсомольский проезд,140108,55.5581907,38.2382424
5,Комсомольский проезд,140108,55.5583058,38.2385903
40,Казанская улица,140108,55.5591953,38.2381034
42,Казанская улица,140108,55.5589612,38.2384731
6,Комсомольский проезд,140108,55.5587733,38.2381228
44,Казанская улица,140108,55.5588003,38.2391055
37,Железнодорожная улица,140108,55.5581619,38.2439984
3,Октябрьская улица,140104,55.5703291,38.2109358
10,улица Кирова,140105,55.5777791,38.2035989
18,улица Кирова,140105,55.5786636,38.2023540
43,улица Чугунова,140105,55.5801929,38.2002738
12,Московская улица,140104,55.5686839,38.2109904
8,улица Серова,140104,55.5659442,38.2014450
2/5,Московская улица,140104,55.5690644,38.2099666
3,Десантная улица,140104,55.5689580,38.2087550
35,улица Куйбышева,140104,55.5645453,38.1992912
1,Десантная улица,140104,55.5692256,38.2116730
17,Московская улица,140104,55.5679053,38.2139456
29,улица Куйбышева,140104,55.5637953,38.1982094
6А,улица Серова,140104,55.5662955,38.2008790
41,улица Куйбышева,140104,55.5653935,38.1999664
10,улица Серова,140104,55.5655725,38.2014334
27,улица Куйбышева,140104,55.5636079,38.1981294
43,улица Серова,140104,55.5620426,38.1991361
33,улица Куйбышева,140104,55.5642331,38.1988765
26,Московская улица,140104,55.5672449,38.2142975
19,Московская улица,140104,55.5677626,38.2143039
15,Московская улица,140104,55.5680460,38.2135457
6,улица Серова,140104,55.5662025,38.2014545
10,Московская улица,140104,55.5687929,38.2104811
24,Московская улица,140104,55.5673956,38.2139924
39,улица Куйбышева,140104,55.5651089,38.1999266
31А,Краснознаменская улица,140104,55.5654038,38.2134863
25,улица Куйбышева,140104,55.5634442,38.1975238
4,Московская улица,140104,55.5688822,38.2096587
31,улица Куйбышева,140104,55.5639910,38.1985063
28,Московская улица,140104,55.5670719,38.2148457
6,Московская улица,140104,55.5689805,38.2102083
37,улица Куйбышева,140104,55.5648594,38.1996894
8/1,Московская улица,140104,55.5687140,38.2098275
1,улица Зои Космодемьянской,140104,55.5614839,38.2031877
9,улица 100-й Свирской Дивизии,140104,55.5643565,38.2043948
28,улица Щукина,140104,55.5628789,38.2047381
21,улица Серова,140104,55.5631911,38.2024300
16А,улица Зои Космодемьянской,140104,55.5622116,38.2018252
36,улица Щукина,140104,55.5624567,38.2031671
32,улица Щукина,140104,55.5625968,38.2043310
34,улица Щукина,140104,55.5625773,38.2036660
7,Сосновая улица,140105,55.5816382,38.1964174
8,Арктическая улица,140105,55.5807334,38.1966993
10,Десантная улица,140104,55.5696812,38.2100265
2А,Донинское шоссе,140103,55.5792717,38.2430703
72Д,улица Михалевича,140101,55.5589232,38.2538399
69А,улица Михалевича,140100,55.5585721,38.2663439
18,Стахановская улица,140109,55.5739831,38.2437491
20,Стахановская улица,140109,55.5741618,38.2435308
25А,Красноармейская улица,140109,55.5733937,38.2429226
13,Сосновая улица,140105,55.5807722,38.1953196
2,улица Серова,140104,55.5668469,38.2016201
27,Красноармейская улица,140109,55.5717607,38.2449295
4Б,улица Серова,140104,55.5665594,38.2005939
4,улица Серова,140104,55.5665650,38.2016314
2А,улица Серова,140104,55.5667986,38.2006619
8А,улица Серова,140104,55.5660848,38.2006630
23,Сосновая улица,140105,55.5793783,38.1935788
30,Стахановская улица,140109,55.5754873,38.2423921
1Г,улица Гурьева,140103,55.5764596,38.2427453
17,улица Космонавтов,140105,55.5843945,38.2089396
20,улица Космонавтов,140105,55.5854186,38.2065054
17,улица Космонавтов,140105,55.5844922,38.2087066
35Д,Коммунистическая улица,140105,55.5913007,38.2072492
35Г,Коммунистическая улица,140105,55.5921324,38.2065269
35В,Коммунистическая улица,140105,55.5919815,38.2062151
35А,Коммунистическая улица,140105,55.5917200,38.2066619
2,улица Гурьева,140103,55.5787791,38.2376992
20,Интернациональная улица,140100,55.5759876,38.2501094
1А,улица Космонавтов,140105,55.5862796,38.2012462
56,улица Михалевича,140101,55.5631392,38.2414748
8,Бронницкая улица,140101,55.5625608,38.2394749
39 к20,улица Михалевича,140101,55.5636039,38.2436496
21,улица Чугунова,140105,55.5805688,38.2052243
16,Стахановская улица,140109,55.5737592,38.2440182
14,Стахановская улица,140109,55.5735232,38.2442042
12,Донинское шоссе,140103,55.5775149,38.2440553
18,улица Серова,140104,55.5636470,38.1995488
3,улица Коминтерна,140101,55.5665753,38.2416018
17,Рассветная улица,140109,55.5727165,38.2744911
4,Радужная улица,140109,55.5731214,38.2775211
5,Цветная улица,140109,55.5732400,38.2767616
10,Радужная улица,140109,55.5726729,38.2767619
12,Радужная улица,140109,55.5724615,38.2765699
16,Радужная улица,140109,55.5721888,38.2761558
9,Цветная улица,140109,55.5729317,38.2762845
15,Цветная улица,140109,55.5724602,38.2755164
6,Цветная улица,140109,55.5734211,38.2763880
4,Цветная улица,140109,55.5736127,38.2766173
1,улица Зои Космодемьянской,140104,55.5615692,38.2031779
24А,улица Левашова,140105,55.5827001,38.2106517
17,Коммунистическая улица,140105,55.5910271,38.2063622
28,Коммунистическая улица,140105,55.5910924,38.2109602
3,Коммунистическая улица,140105,55.5878789,38.2107252
33,Коммунистическая улица,140105,55.5912074,38.2097567
3А,Коммунистическая улица,140105,55.5886629,38.2096578
7,Коммунистическая улица,140105,55.5894622,38.2085108
7А,Коммунистическая улица,140105,55.5902368,38.2075871
2,Коммунистическая улица,140105,55.5869541,38.2110100
4Б,Вокзальная улица,140100,55.5658231,38.2263474
33,Фабричная улица,140105,55.5861814,38.1976775
29Б,улица Левашова,140105,55.5821526,38.2050222
36А,Коммунистическая улица,140105,55.5936820,38.2069155
2,Десантная улица,140104,55.5698597,38.2123117
8,Десантная улица,140104,55.5696667,38.2108127
9,улица Кирова,140105,55.5780520,38.2011798
24А,Прямолинейная улица,140105,55.5924415,38.2028536
7,улица Кирова,140105,55.5776501,38.2004077
7,улица Новостройка,140105,55.5770853,38.2099348
1,улица Михалевича,140108,55.5681625,38.2270919
24,Коммунистическая улица,140105,55.5902186,38.2100515
29,Коммунистическая улица,140105,55.5905061,38.2096419
2,улица Махова,140105,55.5735223,38.2187656
54,улица Гурьева,140108,55.5666701,38.2368948
1А/2,Октябрьская улица,140104,55.5716390,38.2084385
38,Стахановская улица,140100,55.5765025,38.2414638
30,Десантная улица,140104,55.5683762,38.2012519
56,Десантная улица,140104,55.5694788,38.1990577
1,Октябрьская улица,140104,55.5706700,38.2087940
9,улица Красный Октябрь,140104,55.5704030,38.2013480
16/2,Октябрьская улица,140104,55.5713693,38.2075366
3,улица Воровского,140105,55.5717849,38.2141018
1,улица Карла Маркса,140100,55.5678879,38.2221221
44,Северное шоссе,140105,55.5820607,38.2185629
15А,улица Чугунова,140105,55.5766355,38.2074312
15Б,улица Чугунова,140105,55.5757646,38.2087896
6,Северное шоссе,140105,55.5792851,38.2179847
4,Северное шоссе,140105,55.5790778,38.2168360
2,Северное шоссе,140105,55.5788366,38.2154831
35,улица Берёзовая Просека,140104,55.5745572,38.2588919
37,улица Берёзовая Просека,140104,55.5743763,38.2591652
17,Десантная улица,140104,55.5667033,38.1987448
1,Лучистая улица,140104,55.5643541,38.1968483
41,улица Куйбышева,140104,55.5645526,38.2011658
39А,улица Куйбышева,140104,55.5650141,38.2007775
39А,улица Куйбышева,140104,55.5647525,38.2003476
10,Рабочая улица,140101,55.5672308,38.2421347
21,Красноармейская улица,140109,55.5718246,38.2418926
3,улица Воровского,140105,55.5715728,38.2122781
3,улица Воровского,140105,55.5715718,38.2143147
1 к1,улица Серова,140104,55.5670329,38.2023832
1 к2,улица Серова,140104,55.5668697,38.2023638
1 к3,улица Серова,140104,55.5667052,38.2023371
1 к4,улица Серова,140104,55.5665351,38.2023137
30,улица Щукина,140104,55.5626764,38.2045387
11,улица 100-й Свирской Дивизии,140104,55.5644435,38.2065988
11,Десантная улица,140104,55.5676793,38.2034780
25Б,Красноармейская улица,140109,55.5738082,38.2421456
6,улица Махова,140100,55.5692380,38.2242510
20,Высоковольтная улица,140104,55.5728254,38.2027281
1А,Советская улица,140102,55.5670145,38.2285121
4,улица Карла Маркса,140108,55.5689256,38.2259712
35Б,Коммунистическая улица,140105,55.5918523,38.2064391
35Ж,Коммунистическая улица,140105,55.5915805,38.2071830
28,улица Космонавтов,140105,55.5885068,38.2042330
32,улица Космонавтов,140105,55.5895627,38.2032664
21,Высоковольтная улица,140104,55.5729723,38.2004413
13/2,улица Гурьева,140109,55.5701275,38.2403982
25Б,Красноармейская улица,140109,55.5738796,38.2413197
41,улица Чугунова,140105,55.5794850,38.2018317
2,Лучистая улица,140104,55.5650212,38.1960986
3,Лучистая улица,140104,55.5650208,38.1975583
1А,Арктическая улица,140105,55.5816931,38.1993396
36А,улица Красный Октябрь,140104,55.5712705,38.1967289
50,Северное шоссе,140105,55.5812774,38.2184002
5,Крымская улица,140103,55.5739271,38.2572835
12,Крымская улица,140103,55.5729825,38.2552346
39,улица Берёзовая Просека,140104,55.5742985,38.2594340
11,улица Берёзовая Просека,140104,55.5757469,38.2548360
23,улица Берёзовая Просека,140104,55.5751710,38.2571589
53,улица Берёзовая Просека,140104,55.5736254,38.2619727
3,Цветная улица,140109,55.5734247,38.2770513
15А,Цветная улица,140109,55.5722309,38.2755608
57,улица Берёзовая Просека,140104,55.5732110,38.2627400
48,Северное шоссе,140105,55.5819516,38.2202846
22,Высоковольтная улица,140104,55.5737547,38.2022853
1,Молодёжная улица,140103,55.5903110,38.2501241
9,Молодёжная улица,140103,55.5917056,38.2492420
8А,Молодёжная улица,140103,55.5912286,38.2495511
12,Молодёжная улица,140103,55.5921192,38.2489390
14,улица Молодёжная,140103,55.5925984,38.2486401
28,Молодёжная улица,140103,55.5954036,38.2516804
6,Семейная улица,140103,55.5919223,38.2472470
48,улица Гостица,140109,55.5734432,38.2775428
6,Радужная улица,140109,55.5729807,38.2772846
8,Радужная улица,140109,55.5729062,38.2768973
8,Цветная улица,140109,55.5732917,38.2760710
14,Цветная улица,140109,55.5729291,38.2752076
10/8,Семейная улица,140103,55.5915809,38.2467977
10А/8,Семейная улица,140103,55.5910917,38.2462799
с11,Семейная улица,140103,55.5901396,38.2456574
34,Северное шоссе,140105,55.5812375,38.2217493
32,Северное шоссе,140105,55.5809570,38.2206711
30,Северное шоссе,140105,55.5806871,38.2195897
28,Северное шоссе,140105,55.5800757,38.2188279
38,Северное шоссе,140105,55.5809569,38.2149105
36,Северное шоссе,140105,55.5807078,38.2159393
6,Лучистая улица,140104,55.5654266,38.1984415
5,Лучистая улица,140104,55.5652622,38.1949843
9,Лучистая улица,140104,55.5661352,38.1978589
8,Лучистая улица,140104,55.5661390,38.1968297
7,Лучистая улица,140104,55.5661283,38.1957886
14А,Радужная улица,140109,55.5724260,38.2761889
12,Цветная улица,140109,55.5730416,38.2755222
2,Семейная улица,140103,55.5903380,38.2484123
1,Семейная улица,140103,55.5889725,38.2492563
31Б,Краснознаменская улица,140104,55.5654378,38.2134056
31В,Краснознаменская улица,140104,55.5653583,38.2133997
31,Краснознаменская улица,140104,55.5652953,38.2133939
31Б,Краснознаменская улица,140104,55.5653199,38.2131146
24,Чкаловская улица,140105,55.5891924,38.1998826
26,Чкаловская улица,140105,55.5893064,38.2001953
28,Чкаловская улица,140105,55.5894539,38.2005185
2,улица Александра Виноградова,140103,55.5907402,38.2596827
17,2-я Ленинская улица,140100,55.5803752,38.2394587
11Б,2-я Ленинская улица,140100,55.5817455,38.2415655
7,Крымская улица,140103,55.5727265,38.2605939
36А,улица Красный Октябрь,140104,55.5712177,38.1962453
6,Крымская улица,140103,55.5732574,38.2567690
28А,улица Молодёжная,140103,55.5947813,38.2531022
7,Цветная улица,140109,55.5730968,38.2765583
11,Цветная улица,140109,55.5726487,38.2761252
13,Цветная улица,140109,55.5725955,38.2757103
5,Рассветная улица,140109,55.5737108,38.2758580
13,улица Павла Виноградова,140100,55.5895827,38.2623205
27,улица Серова,140104,55.5630206,38.2017590
11,улица 100-й Свирской Дивизии,140104,55.5645660,38.2073530
19,Московская улица,140104,55.5678524,38.2144040
42/2,улица Холодово,140105,55.5856458,38.1955742
38,улица Холодово,140105,55.5851540,38.1955962
10,улица Берёзовая роща,140160,55.5703869,38.2733980
7,улица Берёзовая роща,140160,55.5696200,38.2707842
4,улица Берёзовая роща,140160,55.5715654,38.2720556
11,улица Берёзовая роща,140160,55.5714181,38.2731022
40А,улица Холодово,140105,55.5854856,38.1954430
10/7,Семейная улица,140103,55.5915248,38.2467382
10/6,Семейная улица,140103,55.5914686,38.2466788
4,Крымская улица,140103,55.5737638,38.2536671
3,Крымская улица,140103,55.5747539,38.2551570
2,Крымская улица,140103,55.5743944,38.2523483
10А/1,Семейная улица,140103,55.5906988,38.2458634
10А/2,Семейная улица,140103,55.5907549,38.2459229
10А/3,Семейная улица,140103,55.5908110,38.2459824
10А/4,Семейная улица,140103,55.5908672,38.2460419
10А/5,Семейная улица,140103,55.5909233,38.2461014
10А/6,Семейная улица,140103,55.5909795,38.2461608
10А/7,Семейная улица,140103,55.5910356,38.2462204
10/1,Семейная улица,140103,55.5911880,38.2463813
10/2,Семейная улица,140103,55.5912441,38.2464407
10/3,Семейная улица,140103,55.5913002,38.2465002
10/4,Семейная улица,140103,55.5913564,38.2465598
10/5,Семейная улица,140103,55.5914125,38.2466193
1,улица Карла Маркса,140100,55.5678990,38.2219961
20,улица Космонавтов,140105,55.5855361,38.2061956
22,Северное шоссе,140105,55.5790422,38.2220900
24,Северное шоссе,140105,55.5791380,38.2208068
26,Северное шоссе,140105,55.5792195,38.2197279
8,Северное шоссе,140105,55.5800319,38.2212233
3,Семейная улица,140103,55.5895578,38.2480105
26В,Молодёжная улица,140103,55.5942522,38.2546641
26Б,Молодёжная улица,140103,55.5939772,38.2555338
26А,Молодёжная улица,140103,55.5935239,38.2551802
6,Спортивный проезд,140105,55.5767612,38.2029822
46,Северное шоссе,140105,55.5824123,38.2198178
42,Северное шоссе,140105,55.5817599,38.2173311
14 к4,улица Махова,140105,55.5745069,38.2150105
6А,улица Свободы,140103,55.5777874,38.2305348
35,Коммунистическая улица,140105,55.5911584,38.2079976
47,1-я Гражданская улица,140108,55.5570317,38.2382942
