House number,Street name,Postal code,Latitude,Longitude
3,улица Карла Маркса,141300,56.3118382,38.1360082
148,проспект Красной Армии,141300,56.3129901,38.1354750
12А,Фабричная улица,141304,56.2868195,38.1112138
212/2,проспект Красной Армии,141300,56.3239943,38.1474370
144,проспект Красной Армии,141300,56.3128333,38.1353350
8А,улица Глинки,141315,56.3279385,38.1488542
8А,улица Глинки,141315,56.3281341,38.1489023
253А,проспект Красной Армии,141300,56.3342791,38.1574845
7,улица Карла Маркса,141310,56.3118514,38.1366254
1,улица Толстого,141304,56.2910888,38.1203737
3В,улица Толстого,141304,56.2910983,38.1190059
3А,улица Толстого,141304,56.2911032,38.1177340
12,улица 1-й Ударной Армии,141315,56.3163106,38.1327839
180,проспект Красной Армии,141310,56.3149236,38.1373285
7,улица Карла Маркса,141310,56.3118731,38.1368261
2,Центральная улица,141305,56.2918799,38.1516917
188,проспект Красной Армии,141310,56.3177397,38.1393297
2Б,Птицеградская улица,141300,56.2982563,38.1742164
5,Солнечная улица,141307,56.3017087,38.1793092
19,Советская площадь,141308,56.2852222,38.0629973
151,Вифанская улица,141300,56.3016928,38.1642812
40,Московское шоссе,141300,56.2848383,38.1244293
139,проспект Красной Армии,141300,56.3137751,38.1352157
10А,Институтская улица,141313,56.3001523,38.1507941
10А,Институтская улица,141313,56.3003326,38.1507951
2,улица Победы,141307,56.3006980,38.1796868
32А,Вознесенская улица,141300,56.3039858,38.1331720
85,Новоугличское шоссе,141301,56.3397348,38.1247731
212А,проспект Красной Армии,141303,56.3224999,38.1456060
2,улица 1-й Ударной Армии,141300,56.3135379,38.1330348
21,улица Куликова,141304,56.2931021,38.1190121
2А,проспект Красной Армии,141304,56.2940449,38.1281785
84/22,проспект Красной Армии,141300,56.3022493,38.1303355
192/2,проспект Красной Армии,141300,56.3189550,38.1403990
190,проспект Красной Армии,141310,56.3183154,38.1399181
188,проспект Красной Армии,141310,56.3178991,38.1394902
139,проспект Красной Армии,141300,56.3136961,38.1352483
3А,улица Мира,141307,56.3012884,38.1840796
2А,улица Юности,141307,56.3009514,38.1850089
8А,Озёрная улица,141307,56.3038321,38.1904995
5,улица Победы,141307,56.3013071,38.1811049
8,Ясная улица,141307,56.3029993,38.1875101
50,Новоугличское шоссе,141301,56.3287692,38.1322634
215,проспект Красной Армии,141303,56.3280003,38.1502926
102,Новоугличское шоссе,141301,56.3316212,38.1370022
7 к1,Владимирская улица,141301,56.3342550,38.1410779
7 к2,Владимирская улица,141301,56.3336901,38.1415317
7 к3,Владимирская улица,141301,56.3336207,38.1403470
66,Новоугличское шоссе,141301,56.3272858,38.1338064
74А,Новоугличское шоссе,141301,56.3287941,38.1363930
42,Новоугличское шоссе,141301,56.3251739,38.1342612
40,Новоугличское шоссе,141301,56.3247852,38.1345487
90,Новоугличское шоссе,141301,56.3298795,38.1350854
10,1-я Рыбная улица,141300,56.3044463,38.1345265
12А,Фабричная улица,141304,56.2864508,38.1118105
212/2,проспект Красной Армии,141300,56.3239983,38.1475136
212Г,проспект Красной Армии,141315,56.3199405,38.1453580
3,улица Академика Силина,141313,56.2978956,38.1490581
30/3,Московское шоссе,141304,56.2855517,38.1239662
30А,Московское шоссе,141304,56.2852673,38.1245966
12А,Московское шоссе,141304,56.2885536,38.1245787
60,Центральная улица,141305,56.2905855,38.1491968
1А,Клубная улица,141405,56.2915119,38.1496741
5,Центральная улица,141305,56.2910379,38.1486798
90,1-я Рыбная улица,141313,56.2992785,38.1559426
92,1-я Рыбная улица,141313,56.2987340,38.1569707
1А,улица Дружбы,141301,56.3258801,38.1351058
2,улица Дружбы,141301,56.3260200,38.1357990
1,улица Дружбы,141301,56.3252475,38.1354919
3,улица Дружбы,141301,56.3259614,38.1369608
32,Новоугличское шоссе,141300,56.3218060,38.1387690
3А,улица Дружбы,141301,56.3266780,38.1367506
4,улица Дружбы,141301,56.3266808,38.1375660
44,Новоугличское шоссе,141301,56.3257426,38.1343686
46,Новоугличское шоссе,141301,56.3265001,38.1333920
62,Новоугличское шоссе,141301,56.3269211,38.1347818
64,Новоугличское шоссе,141301,56.3270658,38.1354744
68А,Новоугличское шоссе,141301,56.3279649,38.1351249
70А,Новоугличское шоссе,141301,56.3282106,38.1363228
1,Бероунская улица,141310,56.3174421,38.1403436
1,Октябрьская улица,141313,56.2991966,38.1411329
182/1,проспект Красной Армии,141310,56.3161946,38.1381955
65,Новоугличское шоссе,141301,56.3291861,38.1308440
69,Новоугличское шоссе,141301,56.3290329,38.1285148
67,Новоугличское шоссе,141301,56.3292372,38.1298185
65А,Новоугличское шоссе,141301,56.3288671,38.1299035
69А,Новоугличское шоссе,141301,56.3289134,38.1274045
100,Новоугличское шоссе,141301,56.3310831,38.1383656
101,Новоугличское шоссе,141301,56.3309596,38.1358394
11,улица Дружбы,141301,56.3310293,38.1394437
11А,улица Дружбы,141301,56.3301034,38.1411577
12,улица Дружбы,141301,56.3320934,38.1384680
14,улица Дружбы,141301,56.3324426,38.1368064
16,улица Дружбы,141301,56.3319331,38.1358127
48,Новоугличское шоссе,141301,56.3276376,38.1327546
52,Новоугличское шоссе,141301,56.3300795,38.1321502
52А,Новоугличское шоссе,141301,56.3311139,38.1334016
52Б,Новоугличское шоссе,141301,56.3317674,38.1346941
60,Новоугличское шоссе,141301,56.3322440,38.1333233
60А,Новоугличское шоссе,141301,56.3323080,38.1344534
63,Новоугличское шоссе,141301,56.3281173,38.1309532
80А,Новоугличское шоссе,141301,56.3295832,38.1337643
82А,Новоугличское шоссе,141301,56.3302803,38.1337529
84А,Новоугличское шоссе,141301,56.3307463,38.1340724
88,Новоугличское шоссе,141301,56.3297046,38.1344309
92,Новоугличское шоссе,141301,56.3302453,38.1359133
94,Новоугличское шоссе,141301,56.3303838,38.1365885
96,Новоугличское шоссе,141301,56.3305216,38.1372322
98,Новоугличское шоссе,141301,56.3309558,38.1377031
54,Новоугличское шоссе,141301,56.3313089,38.1322596
56,Новоугличское шоссе,141301,56.3315835,38.1328307
58,Новоугличское шоссе,141301,56.3318036,38.1324945
8,Институтская улица,141313,56.3005121,38.1487773
23,Ильинская улица,141315,56.3105937,38.1269009
9,Копнинская улица,141308,56.2922485,38.0924512
7,Копнинская улица,141308,56.2920691,38.0925062
53,улица Ленина,141361,56.2888078,38.0753354
57/33,улица Ленина,141361,56.2888470,38.0761600
42А,Железнодорожная улица,141313,56.2969722,38.1534018
5,Овражный переулок,141315,56.3113881,38.1373069
30А с1,Пограничная улица,141301,56.3383209,38.1397209
30А с2,Пограничная улица,141301,56.3379957,38.1398214
21,Птицеградская улица,141311,56.2929845,38.1766544
21А,Птицеградская улица,141311,56.2927036,38.1773961
139Б,проспект Красной Армии,141300,56.3140659,38.1354883
1,Аптекарский переулок,141300,56.3130652,38.1315318
8Б,Озёрная улица,141307,56.3034525,38.1906329
7,улица Чайковского,141303,56.3290981,38.1502281
9,улица Чайковского,141303,56.3289027,38.1495218
217,проспект Красной Армии,141303,56.3286973,38.1508110
2А,Ярославское шоссе,141315,56.3355609,38.1589402
7,улица Андрея Рублёва,141309,56.3186202,38.1105196
5,улица Андрея Рублёва,141309,56.3181551,38.1110331
3,улица Андрея Рублёва,141309,56.3176423,38.1113042
1,улица Андрея Рублёва,141309,56.3171799,38.1112988
2,улица Даниила Чёрного,141309,56.3174213,38.1105850
9А,Овражный переулок,141300,56.3111165,38.1377062
30А с3,Пограничная улица,141301,56.3377702,38.1404515
29,1-я Тверская улица,141301,56.3414094,38.1209742
23,1-я Тверская улица,141301,56.3406108,38.1204480
4,улица Даниила Чёрного,141309,56.3177699,38.1098664
6,улица Даниила Чёрного,141309,56.3181966,38.1093193
9,улица Андрея Рублёва,141309,56.3192219,38.1100024
4 к1,Красный переулок,141302,56.3132265,38.1415434
9,Птицеградская улица,141311,56.2947358,38.1764324
8,Солнечная улица,141307,56.3029078,38.1795338
3/6,Госпитальная улица,141315,56.3053307,38.1872334
3,улица Симоненкова,141313,56.2992558,38.1381535
13,Сергиевская улица,141304,56.3066670,38.1378624
20,улица 8 Марта,141315,56.3139710,38.1248406
24,Болотная улица,141315,56.2996002,38.1305510
9А,Трубная улица,141315,56.3032254,38.1442438
8,улица Даниила Чёрного,141309,56.3187420,38.1087717
10,улица Даниила Чёрного,141309,56.3193128,38.1077328
12,улица Даниила Чёрного,141309,56.3200137,38.1069431
15,улица Андрея Рублёва,141309,56.3208603,38.1083354
13,улица Андрея Рублёва,141309,56.3204752,38.1091675
11,улица Андрея Рублёва,141309,56.3199042,38.1097641
3,Фресковая аллея,141309,56.3198549,38.1081097
1,Фресковая аллея,141309,56.3193273,38.1087371
4,Фресковая аллея,141309,56.3201658,38.1085710
2,Фресковая аллея,141309,56.3196144,38.1092153
10А,Колхозная улица,141308,56.3067324,38.1087821
14,Троицкая улица,141310,56.3258584,38.1137583
32,Московское шоссе,141304,56.2853050,38.1234331
89,Вифанская улица,141315,56.3048355,38.1554170
137Б,Вифанская улица,141315,56.3024427,38.1622035
3,Воробьёвская улица,141304,56.2963301,38.1323679
11,улица Даниила Чёрного,141309,56.3202733,38.1036041
9,улица Даниила Чёрного,141309,56.3199569,38.1049165
7,улица Даниила Чёрного,141309,56.3196148,38.1059393
5,улица Даниила Чёрного,141309,56.3190211,38.1071335
3,улица Даниила Чёрного,141309,56.3185086,38.1078509
54/22,улица Гайдара,141303,56.3218150,38.1762524
6В,Инженерная улица,141315,56.3234936,38.1410118
3А,Лесная улица,141307,56.3069603,38.1946731
6А,Озёрная улица,141307,56.3040325,38.1899232
2А,Лесная улица,141307,56.3060373,38.1945757
1,улица Даниила Чёрного,141309,56.3171823,38.1096902
63,Владимирская улица,141301,56.3344328,38.1464530
65,Владимирская улица,141301,56.3342006,38.1471663
15А,Воробьёвская улица,141304,56.2965937,38.1239523
13 к2,Сергиевская улица,141300,56.3065932,38.1395211
13 к5,Сергиевская улица,141300,56.3071828,38.1396565
13 к4,Сергиевская улица,141300,56.3070932,38.1383415
13 к3,Сергиевская улица,141300,56.3067809,38.1389432
58,Ярославское шоссе,141315,56.3375204,38.1651588
25Д,улица Гайдара,141303,56.3228590,38.1797134
25Г,улица Гайдара,141303,56.3227410,38.1792677
24Г,улица Гайдара,141303,56.3221944,38.1782532
23А с1,улица Гайдара,141303,56.3216023,38.1771670
23Г,улица Гайдара,141303,56.3215512,38.1776127
21Г,улица Гайдара,141303,56.3208784,38.1751605
21Ж,улица Гайдара,141303,56.3209988,38.1754145
21З,улица Гайдара,141303,56.3208018,38.1757150
21Д,улица Гайдара,141303,56.3206251,38.1754397
21В,улица Гайдара,141303,56.3204874,38.1751426
22В,улица Гайдара,141303,56.3204008,38.1769357
22Г,улица Гайдара,141303,56.3207459,38.1767762
22Б,улица Гайдара,141303,56.3206140,38.1765230
21Н,улица Гайдара,141303,56.3204741,38.1762337
21Л,улица Гайдара,141303,56.3203322,38.1759374
21Б,улица Гайдара,141303,56.3201750,38.1757232
4 к3,Красный переулок,141302,56.3121780,38.1416251
4 к2,Красный переулок,141302,56.3127126,38.1414949
55,улица Ленина,141361,56.2888294,38.0756602
13 к1,Сергиевская улица,141300,56.3062233,38.1385533
7А,проспект Красной Армии,141304,56.2972882,38.1280067
20,Кооперативная улица,141300,56.3022174,38.1313648
3,улица Академика Силина,141313,56.2997072,38.1464353
8Б,Ярославское шоссе,141303,56.3400532,38.1674154
17,улица 1-й Ударной Армии,141315,56.3154323,38.1311982
7,улица Замышляева,141315,56.3040065,38.1748286
