House number,Street name,Postal code,Latitude,Longitude
42,Российская улица,142214,54.9311891,37.4409389
15,Осенняя улица,142207,54.9198054,37.4502961
7,проезд Мишина,142200,54.9206964,37.4184909
127,улица Ворошилова,142203,54.9208164,37.4339621
18,площадь Ленина,142200,54.9122563,37.4168692
123,улица Ворошилова,142200,54.9221613,37.4373703
92/15,улица Чехова,142206,54.9053705,37.4226629
2/7,проезд Мишина,142200,54.9177227,37.4247167
18,Физкультурная улица,142205,54.9324245,37.4619625
27,Новая улица,142200,54.9356111,37.4039336
8,Борисовское шоссе,142200,54.9156871,37.4285467
98,Подольская улица,142200,54.9342840,37.4472827
35/13,1-я Московская улица,142200,54.9176547,37.4111796
13/24,1-я Московская улица,142200,54.9155321,37.4140059
35/13,1-я Московская улица,142200,54.9176346,37.4112048
64,улица Чернышевского,142209,54.9093955,37.3827952
96В,Московское шоссе,142204,54.9434553,37.4081816
167А,улица Ворошилова,142214,54.9315299,37.4482371
167,улица Ворошилова,142214,54.9316686,37.4496712
4,Комсомольская улица,142205,54.9273447,37.4621681
165А,улица Ворошилова,142214,54.9309354,37.4488226
165,улица Ворошилова,142214,54.9302158,37.4497150
9/2,улица Фрунзе,142205,54.9297204,37.4583650
3/1А,Северное шоссе,142214,54.9458257,37.4191426
1,Привокзальная площадь,142200,54.9346829,37.4513893
112,Советская улица,142214,54.9313229,37.4459698
87,Советская улица,142200,54.9291516,37.4409463
114,Советская улица,142214,54.9320750,37.4464624
165В,улица Ворошилова,142214,54.9306568,37.4473501
9,улица Фирсова,142214,54.9291044,37.4452712
38,Российская улица,142214,54.9295161,37.4387912
114Б,Советская улица,142214,54.9311848,37.4472404
89А,Советская улица,142200,54.9296813,37.4407617
69,Российская улица,142214,54.9305839,37.4391926
114А,Советская улица,142214,54.9316952,37.4471754
116,Советская улица,142214,54.9324582,37.4476595
110,Советская улица,142214,54.9310676,37.4455203
85А,Советская улица,142200,54.9288545,37.4395473
91,Советская улица,142200,54.9302053,37.4419752
99,Советская улица,14220,54.9317491,37.4435730
40А,Российская улица,142214,54.9307447,37.4408762
163А,улица Ворошилова,142214,54.9302057,37.4482287
38Б,Российская улица,142214,54.9301314,37.4398827
38А,Российская улица,142214,54.9298280,37.4393305
108,Советская улица,142214,54.9307859,37.4450680
85Б,Советская улица,142200,54.9291800,37.4400268
120,Советская улица,142214,54.9330694,37.4485466
118,Советская улица,142214,54.9327519,37.4481150
149А,улица Ворошилова,142214,54.9269191,37.4459673
151,улица Ворошилова,142214,54.9266786,37.4475212
155,улица Ворошилова,142214,54.9278686,37.4488752
241,улица Ворошилова,142214,54.9338027,37.4497408
163Б,улица Ворошилова,142214,54.9299511,37.4475411
171,улица Ворошилова,142214,54.9332292,37.4494079
153А,улица Ворошилова,142214,54.9283001,37.4474763
104А,Советская улица,142214,54.9298795,37.4445535
104Б,улица Фирсова,142214,54.9295156,37.4439319
149,улица Ворошилова,142214,54.9263948,37.4461498
163,улица Ворошилова,142214,54.9290303,37.4494454
5,улица Фирсова,142214,54.9283368,37.4462738
112А,Советская улица,142214,54.9305407,37.4464189
106,Советская улица,142214,54.9305440,37.4441061
104,Советская улица,142214,54.9300039,37.4434698
106А,Советская улица,142214,54.9301684,37.4455978
122,Советская улица,142214,54.9336327,37.4487996
153,улица Ворошилова,142214,54.9276032,37.4474242
102В,Советская улица,142214,54.9261833,37.4417400
147,улица Ворошилова,142214,54.9251522,37.4456883
141,улица Ворошилова,142214,54.9245350,37.4429442
139А,улица Ворошилова,142214,54.9243532,37.4423415
6Г,улица Горького,142211,54.9252302,37.4404314
143,улица Ворошилова,142214,54.9248786,37.4444594
8В,улица Горького,142211,54.9263422,37.4390253
139В,улица Ворошилова,142214,54.9242651,37.4428881
100Б,Советская улица,142214,54.9264244,37.4401758
96,Советская улица,142214,54.9262217,37.4375778
94/10,Советская улица,142214,54.9258450,37.4370100
6Б,улица Горького,142214,54.9253880,37.4392979
8,улица Горького,142214,54.9252019,37.4373156
100,Советская улица,142214,54.9271932,37.4390410
6,улица Горького,142214,54.9245136,37.4380801
98,Советская улица,142214,54.9266208,37.4382113
6В,улица Горького,142211,54.9257044,37.4398443
8А,улица Горького,142214,54.9255253,37.4378245
8Б,улица Горького,142214,54.9260569,37.4385233
6А,улица Горького,142214,54.9248606,37.4386049
139,улица Ворошилова,142214,54.9239994,37.4416520
102А,Советская улица,142214,54.9270649,37.4406814
145,улица Ворошилова,142214,54.9254402,37.4457743
102Б,Советская улица,142214,54.9266274,37.4411967
147А,улица Ворошилова,142214,54.9254353,37.4462525
137,улица Ворошилова,142214,54.9232641,37.4396455
139Б,улица Ворошилова,142214,54.9241077,37.4426220
102Г,Советская улица,142214,54.9258593,37.4420688
100В,Советская улица,142214,54.9260187,37.4406697
100Г,Советская улица,142214,54.9256286,37.4411886
102,Советская улица,142214,54.9275854,37.4399545
100А,Советская улица,142214,54.9268350,37.4396347
29/1,Осенняя улица,142207,54.9233754,37.4502768
136,улица Ворошилова,142207,54.9227806,37.4420951
33,Осенняя улица,142207,54.9227094,37.4477062
7,Осенняя улица,142207,54.9207401,37.4477350
142,улица Ворошилова,142207,54.9241141,37.4452306
7А,Осенняя улица,142207,54.9215345,37.4473705
158А,Центральная улица,142207,54.9218587,37.4450177
11,Осенняя улица,142207,54.9202092,37.4490689
23,Осенняя улица,142207,54.9216311,37.4488615
164,Центральная улица,142207,54.9224693,37.4408009
5,Осенняя улица,142207,54.9201750,37.4465710
146,улица Ворошилова,142207,54.9248136,37.4476175
9,Осенняя улица,142207,54.9202751,37.4484027
160 к9,Центральная улица,142207,54.9235402,37.4471609
13,Осенняя улица,142207,54.9201511,37.4496994
17,Осенняя улица,142207,54.9205571,37.4502856
21,Осенняя улица,142207,54.9216685,37.4501764
156А,Центральная улица,142207,54.9209970,37.4436959
160 к7,Центральная улица,142207,54.9232003,37.4458528
156,Центральная улица,142207,54.9204676,37.4430980
138,улица Ворошилова,142207,54.9232720,37.4431322
160 к5,Центральная улица,142207,54.9225294,37.4443753
144,улица Ворошилова,142207,54.9244507,37.4464169
160 к8,Центральная улица,142207,54.9233039,37.4465205
158,Центральная улица,142207,54.9209230,37.4420676
19,Осенняя улица,142207,54.9210976,37.4491329
160 к6,Центральная улица,142207,54.9227940,37.4450109
27,Осенняя улица,142207,54.9225683,37.4502873
5,Звёздная улица,142207,54.9238711,37.4488771
158Б,Центральная улица,142207,54.9212749,37.4429579
9,Звёздная улица,142207,54.9240798,37.4479186
3,Звёздная улица,142207,54.9235593,37.4496240
154,Центральная улица,142207,54.9206784,37.4447759
160 к3,Центральная улица,142207,54.9219892,37.4428784
7,Звёздная улица,142207,54.9246055,37.4484077
160 к4,Центральная улица,142207,54.9224134,37.4436166
25,Осенняя улица,142207,54.9221846,37.4491364
162,Центральная улица,142207,54.9221911,37.4411638
160 к2,Центральная улица,142207,54.9218302,37.4422206
35,Осенняя улица,142207,54.9229200,37.4483836
4,Осенняя улица,142207,54.9218645,37.4510465
160 к1,Центральная улица,142207,54.9216660,37.4415657
7Г,Осенняя улица,142207,54.9216200,37.4461463
4А,Звёздная улица,142203,54.9249921,37.4493691
6,Звёздная улица,142203,54.9243391,37.4507517
154А,Центральная улица,142207,54.9223600,37.4462785
15,Осенняя улица,142207,54.9198467,37.4502479
158Г,Центральная улица,142207,54.9217221,37.4436046
22/18,Российская улица,142214,54.9273669,37.4347377
79,Советская улица,142200,54.9267848,37.4374335
14А,улица Горького,142211,54.9268043,37.4364109
46,Российская улица,142214,54.9316183,37.4421910
107,Советская улица,14220,54.9336131,37.4465056
14,улица Горького,142211,54.9264693,37.4358825
34,Российская улица,142214,54.9291647,37.4378317
95,Советская улица,14220,54.9305414,37.4430425
103,Советская улица,14220,54.9327880,37.4451825
48,Российская улица,142214,54.9321099,37.4425174
28,Российская улица,142214,54.9282004,37.4366634
83,Советская улица,142214,54.9281297,37.4386163
30,Российская улица,142214,54.9284474,37.4372163
81А,Советская улица,142200,54.9277457,37.4379899
24,Российская улица,142214,54.9276504,37.4353222
81,Советская улица,142200,54.9272883,37.4382034
105А,Советская улица,14220,54.9337296,37.4451183
93,Советская улица,14220,54.9305693,37.4422141
16,улица Горького,142211,54.9269067,37.4353428
101,Советская улица,14220,54.9320157,37.4447337
42,Российская улица,142214,54.9310430,37.4412801
97,Советская улица,14220,54.9309983,37.4437375
44,Российская улица,142214,54.9313358,37.4417158
26,Российская улица,142214,54.9279921,37.4359001
89,Советская улица,142214,54.9295912,37.4416356
105,Советская улица,14220,54.9328365,37.4465328
40,Российская улица,142214,54.9303705,37.4403602
81Б,Советская улица,142200,54.9274103,37.4374925
85,Советская улица,142200,54.9286430,37.4402644
77/12,Советская улица,142200,54.9262672,37.4366273
8,Тяговая улица,142214,54.9374413,37.4429697
8,Тяговая улица,142214,54.9371693,37.4429007
154,Осенняя улица,142207,54.9207747,37.4446519
102,Весенняя улица,142214,54.9361538,37.4432365
96,Подольская улица,142214,54.9344789,37.4458403
105,Подольская улица,142214,54.9349826,37.4458504
107,Подольская улица,142214,54.9355695,37.4459328
109,Подольская улица,142214,54.9363438,37.4459526
103,Подольская улица,142214,54.9348555,37.4445923
101,Подольская улица,142214,54.9352130,37.4432763
111,Подольская улица,142214,54.9359899,37.4446417
113,Подольская улица,142214,54.9365996,37.4447207
105А,Подольская улица,142214,54.9354445,37.4451210
104,Весенняя улица,142214,54.9373049,37.4441090
95/12,Подольская улица,142214,54.9342795,37.4408899
17,1-й Северный переулок,142214,54.9353818,37.4426500
15/99,1-й Северный переулок,142214,54.9349418,37.4426464
97,Подольская улица,142214,54.9347588,37.4420692
97А,Подольская улица,142214,54.9347615,37.4411698
14,2-й Северный переулок,142214,54.9345398,37.4403404
16,2-й Северный переулок,142214,54.9348499,37.4399420
18/92,2-й Северный переулок,142214,54.9351777,37.4395313
100,Весенняя улица,142214,54.9362178,37.4421469
96,Весенняя улица,142214,54.9356958,37.4405929
94,Весенняя улица,142214,54.9354577,37.4400329
98,Весенняя улица,142214,54.9359774,37.4412604
96А,Весенняя улица,142214,54.9366056,37.4410742
57,Подольская улица,142214,54.9314074,37.4345326
52Б,Весенняя улица,142203,54.9309251,37.4310053
21,Юбилейная улица,142204,54.9424285,37.4032424
9,улица Горького,142203,54.9260998,37.4349459
1А,улица Горького 19 эт. 2,142200,54.9225400,37.4381772
133/16,улица Ворошилова,142203,54.9219956,37.4361587
135,улица Ворошилова,142203,54.9227596,37.4366534
40,Подольская улица,142203,54.9309428,37.4362062
52А,Весенняя улица,142203,54.9308237,37.4314493
30,Серпуховская улица,142200,54.9210458,37.4172257
32,Серпуховская улица,142200,54.9212587,37.4178737
7,проезд Мишина,142200,54.9207003,37.4184228
47/35,улица Луначарского,142200,54.9184645,37.4186739
37,Советская улица,142200,54.9188241,37.4204742
37А,Советская улица,142200,54.9184324,37.4195842
31А,улица Луначарского,142200,54.9204526,37.4172777
43,улица Луначарского,142200,54.9196553,37.4171071
45,улица Луначарского,142200,54.9188389,37.4177826
3,проезд Мишина,142200,54.9193336,37.4203105
26,Серпуховская улица,142200,54.9204454,37.4161062
20А,Коммунистический переулок,142200,54.9198635,37.4181478
20,Коммунистический переулок,142200,54.9201061,37.4176788
28,Серпуховская улица,142200,54.9207988,37.4166172
5,проезд Мишина,142200,54.9200435,37.4194039
35,улица Луначарского,142200,54.9219945,37.4140699
37,улица Луначарского,142200,54.9212098,37.4150425
13,проезд Мишина,142200,54.9227818,37.4159429
33,улица Луначарского,142200,54.9228074,37.4144176
27,Серпуховская улица,142200,54.9213558,37.4162862
11,проезд Мишина,142200,54.9220288,37.4169170
16,проезд Мишина,142200,54.9223992,37.4178254
29,Серпуховская улица,142200,54.9217938,37.4158185
20,проезд Мишина,142200,54.9244868,37.4163501
1/43,Рабфаковский проезд,142200,54.9225866,37.4188460
6,Весенняя улица,142200,54.9259284,37.4174576
4,Весенняя улица,142200,54.9253650,37.4161328
14,проезд Мишина,142200,54.9233909,37.4177139
8,Весенняя улица,142200,54.9263015,37.4186750
2,Весенняя улица,142200,54.9247908,37.4151649
18,проезд Мишина,142200,54.9234383,37.4164818
7,Подольская улица,142200,54.9247528,37.4193086
15/7,улица Джона Рида,142203,54.9252943,37.4305322
3,улица Ракова,142203,54.9244963,37.4290092
14/1,улица Крупской,142203,54.9242897,37.4281385
148/2,улица Ворошилова,142214,54.9259078,37.4481808
13/10,улица Джона Рида,142203,54.9245277,37.4315591
10А,улица Крупской,142203,54.9231109,37.4295887
84,Советская улица,142203,54.9233415,37.4323986
5,улица Джона Рида,142203,54.9226179,37.4339872
6,улица Крупской,142203,54.9218241,37.4309064
9/86,улица Джона Рида,142203,54.9234250,37.4330062
131/1,улица Ворошилова,142203,54.9214872,37.4353930
4,улица Крупской,142203,54.9211893,37.4317639
3,улица Джона Рида,142203,54.9219576,37.4346711
3А,улица Джона Рида,142203,54.9216287,37.4342642
80/8,Советская улица,142203,54.9224703,37.4303713
82,Советская улица,142203,54.9229727,37.4314892
129,улица Ворошилова,142203,54.9211703,37.4347978
127,улица Ворошилова,142203,54.9207173,37.4335866
6А,улица Крупской,142203,54.9219234,37.4319130
4А,улица Крупской,142203,54.9212939,37.4326444
173Б,Центральная улица,142207,54.9194065,37.4414622
132,улица Ворошилова,142207,54.9210961,37.4379431
171/75,Центральная улица,142207,54.9193021,37.4427814
69,улица Лермонтова,142207,54.9181770,37.4404794
4Б,улица Джона Рида,142207,54.9189327,37.4402308
171А,Центральная улица,142207,54.9189785,37.4419484
4,улица Джона Рида,142207,54.9186118,37.4393958
8,улица Джона Рида,142207,54.9201800,37.4376527
173,Центральная улица,142207,54.9197309,37.4423180
4А,улица Джона Рида,142207,54.9189485,37.4396091
69А,улица Лермонтова,142207,54.9185160,37.4407147
73,улица Лермонтова,142207,54.9189736,37.4425552
173А,Центральная улица,142207,54.9197406,37.4417012
8А,улица Джона Рида,142207,54.9204857,37.4384469
2,улица Джона Рида,142207,54.9182009,37.4398680
71,улица Лермонтова,142207,54.9185769,37.4415295
1,улица Ногина,142205,54.9325724,37.4594536
15,Текстильная улица,142205,54.9346093,37.4593567
23А,Текстильная улица,142205,54.9342551,37.4611151
23,Текстильная улица,142205,54.9343664,37.4622247
17А,Текстильная улица,142205,54.9337300,37.4614331
25,Физкультурная улица,142205,54.9338881,37.4635289
15,Физкультурная улица,142205,54.9323738,37.4602896
21,Текстильная улица,142205,54.9349991,37.4613548
17,Текстильная улица,142205,54.9344352,37.4600121
27,Текстильная улица,142205,54.9351756,37.4638585
17,Физкультурная улица,142205,54.9328881,37.4607928
19,Текстильная улица,142205,54.9348456,37.4605528
19,Физкультурная улица,142205,54.9330959,37.4613521
38,улица Дзержинского,142205,54.9330799,37.4549752
40,улица Дзержинского,142205,54.9336544,37.4551515
4,Текстильная улица,142205,54.9336650,37.4564197
13,Физкультурная улица,142205,54.9318318,37.4588321
11Б,Физкультурная улица,142205,54.9324016,37.4579009
7,Физкультурная улица,142205,54.9320708,37.4564489
42,улица Дзержинского,142205,54.9355309,37.4597258
2Б,улица Ногина,142205,54.9326018,37.4585967
3,Текстильная улица,142205,54.9327074,37.4566021
4А,Текстильная улица,142205,54.9342056,37.4569711
44,улица Дзержинского,142205,54.9359022,37.4607015
2А,улица Ногина,142205,54.9329068,37.4578730
5,Физкультурная улица,142205,54.9315993,37.4559988
5,Текстильная улица,142205,54.9334356,37.4570835
36/1,улица Дзержинского,142205,54.9318456,37.4549764
11,Физкультурная улица,142205,54.9316316,37.4581029
40А,улица Дзержинского,142205,54.9339504,37.4557893
11А,Физкультурная улица,142205,54.9320146,37.4579160
2,Текстильная улица,142205,54.9328685,37.4558111
2/9,Комсомольская улица,142205,54.9292886,37.4601078
18,улица Фрунзе,142205,54.9304246,37.4586549
14,Физкультурная улица,142205,54.9311482,37.4591200
8,Физкультурная улица,142205,54.9312353,37.4572840
16,улица Фрунзе,142205,54.9302259,37.4580985
6,улица Фрунзе,142205,54.9295877,37.4563220
24,улица Дзержинского,142205,54.9298668,37.4550431
10,Физкультурная улица,142205,54.9312361,37.4578843
22/2,улица Дзержинского,142205,54.9295269,37.4550981
12,улица Фрунзе,142205,54.9299685,37.4573008
4,улица Фрунзе,142205,54.9295240,37.4557369
36/2,улица Дзержинского,142205,54.9311183,37.4551041
157,Центральная улица,142207,54.9164574,37.4429933
155,Центральная улица,142207,54.9160201,37.4428595
159В,Центральная улица,142207,54.9169421,37.4416670
159Б,Центральная улица,142207,54.9172993,37.4413253
56,улица Лермонтова,142207,54.9160805,37.4401752
155Б,Центральная улица,142207,54.9161388,37.4418016
35,Борисовское шоссе,142207,54.9150946,37.4410628
37,Борисовское шоссе,142207,54.9148507,37.4418550
157А,Центральная улица,142207,54.9165670,37.4419384
58,улица Лермонтова,142207,54.9165026,37.4403163
159А,Центральная улица,142207,54.9172226,37.4421587
60,улица Лермонтова,142207,54.9169370,37.4404634
33,Борисовское шоссе,142207,54.9150250,37.4401854
161Б,Центральная улица,142207,54.9176702,37.4414206
68,улица Лермонтова,142207,54.9178431,37.4408023
74,улица Лермонтова,142207,54.9183800,37.4422311
72,улица Лермонтова,142207,54.9181033,37.4418131
155А,Центральная улица,142207,54.9158535,37.4422663
76,улица Лермонтова,142207,54.9186313,37.4428810
157Б,Центральная улица,142207,54.9166386,37.4412057
155В,Центральная улица,142207,54.9162036,37.4410598
66,улица Лермонтова,142207,54.9174081,37.4403101
70,улица Лермонтова,142207,54.9180124,37.4413241
2В,улица Дзержинского,142205,54.9240280,37.4574870
6,улица Дзержинского,142205,54.9266474,37.4550676
8 с1,Спортивная улица,142205,54.9263218,37.4582766
4,улица Дзержинского,142205,54.9262111,37.4550776
8/2,улица Дзержинского,142205,54.9270312,37.4550584
11А,улица Фрунзе,142205,54.9288210,37.4595200
4,улица Войкова,142205,54.9272051,37.4555594
7/1,улица Фрунзе,142205,54.9286720,37.4577951
4,Гражданская улица,142205,54.9259291,37.4558866
8,Гражданская улица,142205,54.9266566,37.4562550
12,улица Дзержинского,142205,54.9279435,37.4550991
18,улица Дзержинского,142205,54.9287966,37.4550638
2,улица Дзержинского,142205,54.9257299,37.4550939
16,улица Дзержинского,142205,54.9284599,37.4550857
2,Гражданская улица,142205,54.9256286,37.4556974
34,улица Войкова,142205,54.9246852,37.4593175
6,Гражданская улица,142205,54.9263060,37.4559990
10/1,улица Войкова,142205,54.9276483,37.4553180
34А,улица Войкова,142205,54.9241215,37.4597391
16А,улица Дзержинского,142205,54.9285445,37.4561731
3,улица Фрунзе,142205,54.9291185,37.4557501
20/1,улица Дзержинского,142205,54.9291256,37.4551136
14,улица Дзержинского,142205,54.9282133,37.4555138
9А,улица Фрунзе,142205,54.9287587,37.4587673
3,улица Войкова,142205,54.9275147,37.4557470
5,улица Войкова,142205,54.9273795,37.4561789
5/2,улица Фрунзе,142205,54.9291210,37.4563197
18,Физкультурная улица,142205,54.9323802,37.4620294
47А,Московское шоссе,142211,54.9298711,37.4029590
47,Московское шоссе,142211,54.9298354,37.4036205
41,Московское шоссе,142211,54.9272600,37.4028343
43,Московское шоссе,142211,54.9282251,37.4030488
49,Московское шоссе,142204,54.9375683,37.4041503
20,Новая улица,142204,54.9372968,37.4025930
12А,Новая улица,142204,54.9376463,37.4000981
26А,Новая улица,142204,54.9357346,37.4024754
27,Новая улица,142200,54.9356020,37.4037527
10,Новая улица,142204,54.9384026,37.3969451
6,Юбилейная улица,142204,54.9410714,37.3969595
7,Новая улица,142204,54.9390086,37.3971669
19,бульвар 65 лет Победы,142204,54.9418087,37.3981799
4,Новая улица,142204,54.9395389,37.3956993
8,Новая улица,142204,54.9389829,37.3966544
2,Новая улица,142204,54.9400553,37.3952577
6,Новая улица,142204,54.9387927,37.3978699
12,Юбилейная улица,142204,54.9390387,37.4000317
1/1,Новая улица,142204,54.9403267,37.3953488
9,Новая улица,142204,54.9387987,37.3966140
5,Новая улица,142204,54.9393936,37.3961704
1,улица Декабристов,142204,54.9347487,37.3938889
8,Ясный переулок,142204,54.9353225,37.3945755
2,улица Декабристов,142204,54.9357255,37.3929321
12,Нагорная улица,142204,54.9308801,37.3872457
1,улица Крюкова,142204,54.9329285,37.3793286
33,улица Химиков,142204,54.9342855,37.3853924
3,улица Крюкова,142204,54.9327966,37.3790238
12,улица Крюкова,142204,54.9344337,37.3783193
8,улица Крюкова,142204,54.9338764,37.3785551
15,Ситценабивная улица,142200,54.9192568,37.4047746
11/8,улица Володарского,142211,54.9180380,37.4040174
48А,Борисовское шоссе,142207,54.9133829,37.4400160
48Б,Борисовское шоссе,142207,54.9128309,37.4404120
30/19,улица Ивана Болотникова,142207,54.9154961,37.4377695
21,Борисовское шоссе,142207,54.9152009,37.4383375
48,Борисовское шоссе,142207,54.9133750,37.4408850
7Б,Осенняя улица,142207,54.9211310,37.4466332
57,улица Лермонтова,142207,54.9163916,37.4389505
141,Центральная улица,142207,54.9129703,37.4418503
7В,Осенняя улица,142207,54.9208471,37.4459401
25,Борисовское шоссе,142207,54.9156659,37.4388934
40,Борисовское шоссе,142207,54.9141136,37.4399389
32,улица Ивана Болотникова,142207,54.9163479,37.4380460
51,Гвардейская улица,142207,54.9124414,37.4400128
42,Борисовское шоссе,142207,54.9140558,37.4410063
23,Борисовское шоссе,142207,54.9152340,37.4390859
30/24,Советская улица,142200,54.9162610,37.4160780
15/23,1-я Московская улица,142200,54.9157424,37.4136091
46/12,Калужская улица,142200,54.9120931,37.4141630
74,улица Луначарского,142200,54.9109176,37.4258286
5А,улица Захаркина,142209,54.9081125,37.3890756
5Б,улица Захаркина,142209,54.9082738,37.3897796
5Г,улица Захаркина,142209,54.9083209,37.3907993
148,Центральная улица,142207,54.9137238,37.4440795
144,Центральная улица,142207,54.9132259,37.4436099
142 к2,Центральная улица,142207,54.9131503,37.4450034
146,Центральная улица,142207,54.9135018,37.4438311
1,Полевая улица,142207,54.9095838,37.4449307
142 к3,Центральная улица,142207,54.9137411,37.4449562
142 к1,Центральная улица,142207,54.9127309,37.4441840
30,Береговая улица,142204,54.9274001,37.3850548
26,Береговая улица,142204,54.9276605,37.3853739
20,Физкультурная улица,142205,54.9329495,37.4635878
47,Советская улица,142203,54.9209249,37.4253008
56,Советская улица,142203,54.9190799,37.4220886
58,Советская улица,142203,54.9192556,37.4224582
60,Советская улица,142203,54.9194442,37.4228961
62,Советская улица,142203,54.9196596,37.4235078
64,Советская улица,142203,54.9199759,37.4243320
66,Советская улица,142203,54.9203153,37.4251618
68,Советская улица,142203,54.9204591,37.4258651
70,Советская улица,142203,54.9207293,37.4263627
74,Советская улица,142203,54.9214846,37.4279502
76,Советская улица,142203,54.9218539,37.4288511
11,улица Красных партизан,142203,54.9214687,37.4246572
48,Советская улица,142200,54.9179611,37.4208924
18А,улица Чехова,142200,54.9173624,37.4138471
51,улица Ворошилова,142203,54.9167224,37.4190489
16,Советская улица,142200,54.9147921,37.4121818
87,улица Чехова,142000,54.9034938,37.4249336
10,5-я Борисовская улица,142200,54.9178355,37.4328686
15,Борисовское шоссе,142200,54.9163166,37.4324427
7,Борисовское шоссе,142200,54.9167868,37.4295961
9,Борисовское шоссе,142200,54.9160194,37.4307767
11,Борисовское шоссе,142200,54.9167643,37.4306956
13,Борисовское шоссе,142200,54.9168658,37.4317451
17А с1,Борисовское шоссе,142207,54.9155880,37.4345071
40,Московское шоссе,142211,54.9246481,37.4035841
38,Московское шоссе,142211,54.9241234,37.4042671
60А,Московское шоссе,142211,54.9282347,37.4066767
56А,Московское шоссе,142211,54.9291556,37.4057083
48Б,Московское шоссе,142211,54.9284210,37.4055542
13А,улица Возрождения,142211,54.9260330,37.4046359
60Б,Московское шоссе,142211,54.9285630,37.4067459
11,улица Возрождения,142211,54.9256694,37.4050195
9,улица Возрождения,142211,54.9253904,37.4052085
58,Московское шоссе,142211,54.9288632,37.4063286
60,Московское шоссе,142211,54.9283790,37.4071816
56Б,Московское шоссе,142211,54.9288269,37.4056539
54,Московское шоссе,142211,54.9293950,37.4051141
5,улица Возрождения,142211,54.9250199,37.4057866
1,улица Возрождения,142211,54.9244441,37.4058605
15,улица Возрождения,142211,54.9261917,37.4051343
3,улица Возрождения,142211,54.9247516,37.4059311
42,Московское шоссе,142211,54.9256762,37.4036760
13,улица Возрождения,142211,54.9258993,37.4053011
48,Московское шоссе,142211,54.9286070,37.4042595
7,улица Возрождения,142211,54.9253095,37.4056235
44,Московское шоссе,142211,54.9266415,37.4039245
52,Московское шоссе,142211,54.9295467,37.4046399
1,Фестивальная улица,142203,54.9359070,37.4241227
137,улица Ворошилова,142214,54.9234429,37.4407657
6,1-й Оборонный переулок,142211,54.9244397,37.4014535
53/6,1-я Московская улица,142211,54.9210737,37.4061870
4,улица Володарского,142200,54.9177627,37.4041922
7,Оборонная улица,142211,54.9224874,37.4005109
25/38,улица Володарского,142211,54.9205385,37.4086343
9,Оборонная улица,142211,54.9229579,37.4019798
8,1-й Оборонный переулок,142211,54.9242070,37.4007481
29,улица Володарского,142200,54.9211781,37.4083136
3,Парковая улица,142207,54.9122099,37.4324625
23,Целинная улица,142207,54.9115122,37.4316354
2/20,площадь Ленина,142200,54.9142780,37.4152974
22,Борисовское шоссе,142207,54.9150365,37.4342591
44,Новослободская улица,142207,54.9146466,37.4337718
10,Дальняя улица,142201,54.9273693,37.3637889
42,Новослободская улица,142207,54.9143243,37.4335004
32,Новослободская улица,142207,54.9127233,37.4320233
29,Гвардейская улица,142207,54.9137964,37.4338545
31,Гвардейская улица,142207,54.9136051,37.4346526
33,Гвардейская улица,142207,54.9134619,37.4352330
35/29,Гвардейская улица,142207,54.9134862,37.4357481
26,Гвардейская улица,142207,54.9135471,37.4335237
28,Гвардейская улица,142207,54.9133713,37.4341848
30,Гвардейская улица,142207,54.9132206,37.4347678
27/32,улица Ивана Болотникова,142207,54.9129943,37.4353410
21,улица Ивана Болотникова,142207,54.9121524,37.4347336
9/19,Парковая улица,142207,54.9118286,37.4342300
7,Парковая улица,142207,54.9119283,37.4336141
28А,Гвардейская улица,142207,54.9128585,37.4343716
26А,Гвардейская улица,142207,54.9130883,37.4334417
4,Парковая улица,142207,54.9118919,37.4323247
2/28,Парковая улица,142207,54.9120518,37.4316472
8,Парковая улица,142207,54.9115534,37.4336426
17/10,улица Ивана Болотникова,142207,54.9113147,37.4341187
29/15,Целинная улица,142207,54.9109868,37.4336644
27,Целинная улица,142207,54.9111582,37.4330048
25,Целинная улица,142207,54.9113389,37.4323025
26/21,Новослободская улица,142207,54.9117597,37.4311738
24/26,Новослободская улица,142200,54.9113649,37.4307574
3,улица Павла Радчука,142200,54.9107540,37.4310886
28,Целинная улица,142200,54.9113042,37.4312139
11/9,улица Ивана Болотникова,142200,54.9102449,37.4332419
7,улица Павла Радчука,142200,54.9103504,37.4326237
4,улица Форсса,142201,54.9195256,37.3784065
6,улица Форсса,142201,54.9201884,37.3792033
8,улица Форсса,142201,54.9209025,37.3797269
10,улица Революции,142200,54.9144326,37.4204735
36/3,улица Революции,142200,54.9144438,37.4184850
21,бульвар 65 лет Победы,142204,54.9423781,37.3966157
2,Юбилейная улица,142204,54.9415472,37.3954141
17,бульвар 65 лет Победы,142204,54.9422238,37.3989052
1,Борисовское шоссе,142200,54.9178180,37.4266351
12/20,площадь Ленина,142200,54.9125815,37.4158587
121,улица Ворошилова,142203,54.9201510,37.4301978
117,улица Ворошилова,142203,54.9197391,37.4284766
115,улица Ворошилова,142203,54.9194025,37.4269726
5,улица Крупской,142203,54.9215360,37.4305878
3,улица Крупской,142203,54.9209953,37.4312532
76А,Советская улица,142203,54.9214140,37.4290961
113,улица Ворошилова,142203,54.9190803,37.4252542
111,улица Ворошилова,142203,54.9187715,37.4240215
35/13,1-я Московская улица,142200,54.9176796,37.4111067
9,улица Будённого,142201,54.9170105,37.3783917
10/23,площадь Ленина,142200,54.9130902,37.4149992
19,1-я Московская улица,142200,54.9159672,37.4133065
4,Театральная улица,142200,54.9091302,37.4154700
10,улица Форсса,142201,54.9214080,37.3802492
34,Октябрьская улица,142210,54.9006242,37.3951893
16А,улица Полянка,142210,54.9007520,37.3941005
26,Октябрьская улица,142210,54.9017566,37.3990401
1А,Большой Ударный переулок,142210,54.9018760,37.4036570
6,Красный переулок,142209,54.9080625,37.3857113
2А,Рабочий переулок,142201,54.9139456,37.3792425
35,улица Чернышевского,142209,54.9093731,37.3862718
10,Тяговая улица,142214,54.9380646,37.4423589
10А,Тяговая улица,142214,54.9380540,37.4431405
5,Тяговая улица,142214,54.9380343,37.4416325
12,Тяговая улица,142214,54.9383861,37.4422163
16,Тяговая улица,142214,54.9389754,37.4423390
16А,Тяговая улица,142214,54.9389728,37.4431015
102,Подольская улица,142214,54.9355832,37.4470231
100,Подольская улица,142214,54.9350343,37.4471198
23,1-я Московская улица,142200,54.9164177,37.4127928
27,1-я Московская улица,142200,54.9168557,37.4121781
8 с2,Спортивная улица,142205,54.9259432,37.4568809
40А,улица Пушкина,142211,54.9323998,37.3951774
6 к3,бульвар 65 лет Победы,142204,54.9435728,37.3962700
6 к2,бульвар 65 лет Победы,142204,54.9436023,37.3977342
2А,улица Карла Маркса,142210,54.9071896,37.4049596
55 к1,Московское шоссе,142204,54.9409333,37.4049531
2Г,улица Карла Маркса,142210,54.9070551,37.4056470
15,бульвар 65 лет Победы,142204,54.9419760,37.4005138
25,1-я Московская улица,142200,54.9166841,37.4122795
96А,Московское шоссе,142204,54.9429439,37.4080599
141А,Центральная улица,142207,54.9127567,37.4424739
97А,Центральная улица,142207,54.9078902,37.4373801
13 к1,бульвар 65 лет Победы,142204,54.9419249,37.4019943
13,Северное шоссе,142204,54.9384947,37.4234579
45к3,улица Пушкина,142204,54.9340710,37.3885628
13 к2,бульвар 65 лет Победы,142204,54.9422382,37.4014117
10,Северное шоссе,142204,54.9398425,37.4216334
43,Цеховая улица,142201,54.9296188,37.3644436
40,улица Екатерины Дашковой,142201,54.9148520,37.3634768
26/36,улица Калинина,142201,54.9147840,37.3791648
20А,Борисовское шоссе,142200,54.9151267,37.4332627
6А,бульвар 65 лет Победы,142204,54.9441839,37.3980430
6 к1,бульвар 65 лет Победы,142204,54.9436139,37.3994247
54А,Московское шоссе,142211,54.9299743,37.4047122
8,Борисовское шоссе,142200,54.9157103,37.4284767
26/31,Борисовское шоссе,142207,54.9147748,37.4366976
38,Селецкая улица,142206,54.9052479,37.4295683
24,5-я Борисовская улица,142207,54.9171012,37.4393102
2,Красный переулок,142209,54.9085193,37.3868682
47,улица Горького,142203,54.9319720,37.4289615
6Б,бульвар 65 лет Победы,142204,54.9443097,37.3973482
вл12,бульвар 65 лет Победы,142204,54.9434230,37.3984641
15А,улица Красный Текстильщик,142201,54.9174687,37.3779461
169,улица Ворошилова,142214,54.9328890,37.4496199
56,Весенняя улица,142203,54.9314317,37.4305560
140,улица Ворошилова,142207,54.9236463,37.4441851
5,Борисовское шоссе,142200,54.9169616,37.4284586
40А,улица Пушкина,142211,54.9323998,37.3951774
4,площадь Ленина,142200,54.9134690,37.4168753
вл1,улица Героев Отечества,142203,54.9448854,37.3991104
15,Юбилейная улица,142204,54.9410114,37.4016517
