House number,Street name,Postal code,Latitude,Longitude
5,улица Горького,140185,55.5929518,38.1227343
9,улица Маяковского,140185,55.5919988,38.1232503
15,Молодёжная улица,140186,55.6047585,38.0925193
43,улица Чкалова,140181,55.5982888,38.1227910
22,улица Фрунзе,140181,55.5980002,38.1217667
43,улица Чкалова,140181,55.5983915,38.1231675
22,улица Фрунзе,140181,55.5981434,38.1222867
6,Советская улица,140185,55.5914635,38.1229132
2,улица Жуковского,140181,55.5993957,38.1167458
43,улица Чкалова,140181,55.5984480,38.1234144
6,Советская улица,140185,55.5916975,38.1237687
9,улица Маяковского,140185,55.5921621,38.1234045
7,переулок Кирова,140185,55.5823598,38.1437382
19,улица Маяковского,140181,55.5967142,38.1198234
26,улица Фрунзе,140181,55.5977941,38.1207596
6,Советская улица,140185,55.5917144,38.1232997
3,улица Дзержинского,140181,55.5974581,38.1334390
17,улица Мичурина,140180,55.6114582,38.1067156
21А,Молодёжная улица,140180,55.6050140,38.0908732
19,Солнечная улица,140186,55.6034956,38.0860850
3,улица Пушкина,140185,55.5890961,38.1250289
9,улица Маяковского,140185,55.5925154,38.1230943
17А,улица Дугина,140186,55.6015738,38.0980590
1,улица Лацкова,140188,55.6088837,38.0787421
18,улица Гагарина,140184,55.6043856,38.1050865
14Б,улица Мясищева,140186,55.5996825,38.0985678
1,улица Жуковского,140181,55.5928574,38.1077186
8,улица Гудкова,140186,55.5985050,38.0905672
2,улица Гудкова,140186,55.5976282,38.0918542
3,улица Гагарина,140187,55.5985329,38.1099612
16,улица Гагарина,140187,55.6044062,38.1065564
22,улица Пушкина,140185,55.5887598,38.1197844
24,улица Маяковского,140181,55.5966234,38.1222375
11,улица Амет-Хан Султана,140185,55.5839252,38.1370548
7А,улица Амет-Хан Султана,140185,55.5847186,38.1359602
10,Молодёжная улица,140187,55.6045298,38.0960046
44,улица Гагарина,140187,55.6076711,38.0981304
32,улица Гагарина,140184,55.6066385,38.1011760
3,Заводская улица,140184,55.6087613,38.1160358
9,улица Амет-Хан Султана,140185,55.5844918,38.1365673
31,улица Жуковского,140181,55.6031936,38.1308241
33,улица Жуковского,140181,55.6036137,38.1299532
18,улица Жуковского,140181,55.6001984,38.1244086
3,улица Гудкова,140182,55.5948723,38.0932531
1,улица Гудкова,140182,55.5944565,38.0940416
3А,улица Гудкова,140186,55.5949683,38.0939592
4,Комсомольская улица,140185,55.5877684,38.1303620
2,Комсомольская улица,140185,55.5875829,38.1315142
1,улица Чкалова,140185,55.5872016,38.1326711
5,улица Чкалова,140185,55.5881973,38.1322085
9,улица Калугина,140185,55.5887261,38.1278722
13,улица Чкалова,140185,55.5896076,38.1308208
9,улица Чкалова,140185,55.5889042,38.1315824
9,улица Гарнаева,140185,55.5881841,38.1336771
11,улица Гарнаева,140185,55.5886006,38.1340309
6,Строительная улица,140185,55.5909197,38.1341377
4,Строительная улица,140185,55.5905648,38.1350039
8,Строительная улица,140185,55.5912283,38.1332268
22,улица Чкалова,140185,55.5939911,38.1285708
20,улица Чкалова,140185,55.5934978,38.1289837
18,улица Чкалова,140185,55.5930541,38.1293874
3,улица Гарнаева,140185,55.5866171,38.1322107
3А,улица Гарнаева,140185,55.5861746,38.1307513
3,Комсомольская улица,140185,55.5870775,38.1304496
1,Комсомольская улица,140185,55.5869148,38.1314664
7,Комсомольская улица,140185,55.5874027,38.1284234
5,Комсомольская улица,140185,55.5872351,38.1294542
6,Комсомольская улица,140185,55.5879087,38.1293739
2,улица Калугина,140185,55.5898789,38.1283630
10,Комсомольская улица,140185,55.5881163,38.1283239
9/2,улица Калугина,140185,55.5885375,38.1292907
6,Советская улица,140185,55.5915682,38.1229313
9,улица Маяковского,140185,55.5923918,38.1230451
18,улица Маяковского,140181,55.5947331,38.1234357
13,улица Ломоносова,140185,55.5920480,38.1201808
6,улица Ломоносова,140185,55.5908031,38.1227277
5/7,улица Маяковского,140185,55.5911964,38.1237720
10,улица Ломоносова,140185,55.5919936,38.1216861
5,улица Горького,140185,55.5928076,38.1218186
21,улица Чкалова,140185,55.5912421,38.1289650
4,улица Пушкина,140185,55.5908213,38.1273169
4,улица Ломоносова,140185,55.5900175,38.1233620
8,улица Чкалова,140185,55.5909944,38.1307259
12,улица Чкалова,140185,55.5917885,38.1305035
14,улица Чкалова,140185,55.5921941,38.1301378
16,улица Чкалова,140185,55.5926304,38.1297487
10,улица Чкалова,140185,55.5913865,38.1313652
10А,улица Чкалова,140185,55.5910291,38.1321873
20,улица Серова,140185,55.5904114,38.1322454
6,улица Чкалова,140185,55.5903311,38.1313125
24,улица Чкалова,140185,55.5944897,38.1279217
12,улица Маяковского,140185,55.5929997,38.1250637
6,улица Маяковского,140185,55.5913073,38.1265319
14 к2,Строительная улица,140185,55.5924498,38.1337501
3,улица Маяковского,140185,55.5906677,38.1242381
10,улица Маяковского,140185,55.5924868,38.1258680
27,улица Чкалова,140185,55.5930274,38.1275124
29,улица Чкалова,140185,55.5936271,38.1272338
14,улица Ломоносова,140181,55.5940858,38.1204472
6,улица Горького,140181,55.5932533,38.1211720
13,улица Маяковского,140181,55.5939885,38.1220034
3,улица Калугина,140185,55.5894555,38.1300545
18,улица Серова,140185,55.5903220,38.1330404
16,улица Серова,140185,55.5900514,38.1336821
14,улица Серова,140185,55.5898589,38.1343616
17,улица Гарнаева,140185,55.5908842,38.1359765
14А,улица Серова,140185,55.5896414,38.1349146
15,улица Серова,140185,55.5898534,38.1355138
3/2,улица Амет-Хан Султана,140185,55.5868294,38.1354678
5,улица Амет-Хан Султана,140185,55.5855680,38.1352489
7,улица Осипенко,140185,55.5875876,38.1383541
15,улица Маяковского,140181,55.5949856,38.1207883
39,улица Чкалова,140181,55.5970310,38.1236749
31,улица Ломоносова,140181,55.5952270,38.1180488
32,улица Чаплыгина,140181,55.5947293,38.1162569
34,улица Чаплыгина,140181,55.5954187,38.1156654
19,улица Фрунзе,140181,55.5955623,38.1161917
17,улица Фрунзе,140181,55.5958868,38.1163622
13,улица Фрунзе,140181,55.5959100,38.1174436
17,улица Маяковского,140181,55.5956618,38.1201513
10,улица Жуковского,140181,55.5990862,38.1211980
45,улица Чкалова,140181,55.5994225,38.1223881
20,улица Фрунзе,140181,55.5988917,38.1221056
15,улица Жуковского,140181,55.5998055,38.1209720
32,улица Чкалова,140181,55.5994340,38.1239388
34,улица Чкалова,140181,55.5996737,38.1231844
16,улица Фрунзе,140181,55.5989680,38.1237956
12,улица Фрунзе,140181,55.5992160,38.1252690
10,улица Фрунзе,140181,55.5997720,38.1266647
23,улица Чкалова,140185,55.5919662,38.1289085
8,улица Маяковского,140185,55.5918449,38.1263572
25,улица Чкалова,140185,55.5924527,38.1279237
9,Комсомольская улица,140185,55.5876669,38.1275827
7А,улица Осипенко,140185,55.5871990,38.1386424
35,Нижегородская улица,140185,55.5823187,38.1420491
5,улица Туполева,140185,55.5813412,38.1433665
7,улица Туполева,140185,55.5816567,38.1446611
37,Нижегородская улица,140185,55.5819029,38.1417938
9,улица Туполева,140185,55.5816062,38.1458360
30,Муромская улица,140185,55.5823290,38.1474668
33 к1,Нижегородская улица,140185,55.5823558,38.1432470
3/2,улица Гринчика,140185,55.5830071,38.1457744
37,улица Амет-Хан Султана,140185,55.5813462,38.1417039
16,Нижегородская улица,140185,55.5881545,38.1415997
12,Нижегородская улица,140185,55.5889864,38.1418312
6,Нижегородская улица,140185,55.5896697,38.1414027
5,улица Горельники,140185,55.5896724,38.1403890
9,улица Горельники,140185,55.5899605,38.1393503
1,улица Амет-Хан Султана,140185,55.5866228,38.1342031
3,улица Амет-Хан Султана,140185,55.5861638,38.1350620
5А,улица Амет-Хан Султана,140185,55.5857565,38.1361960
2,улица Гарнаева,140185,55.5873117,38.1340890
6А,улица Серова,140185,55.5891560,38.1383151
10А,улица Серова,140185,55.5896712,38.1383692
8А,улица Серова,140185,55.5893711,38.1375810
4А,улица Серова,140185,55.5886085,38.1388956
9,улица Серова,140185,55.5886456,38.1361570
8,улица Серова,140185,55.5888687,38.1368775
5,улица Калугина,140185,55.5892573,38.1293166
10,улица Семашко,140181,55.5962216,38.1362254
5,улица Дзержинского,140181,55.5969710,38.1336357
9,улица Дзержинского,140181,55.5965698,38.1327067
11,улица Дзержинского,140181,55.5960976,38.1320257
8 к1,улица Семашко,140181,55.5967062,38.1351042
8 к2,улица Семашко,140181,55.5963341,38.1339653
8 к3,улица Семашко,140181,55.5960150,38.1328675
2,улица Чкалова,140185,55.5884163,38.1330413
7,улица Менделеева,140181,55.5993112,38.1148373
3,улица Менделеева,140181,55.5990215,38.1160452
5,улица Менделеева,140181,55.5994972,38.1158585
6,Московская улица,140181,55.5989221,38.1139142
6,улица Гагарина,140181,55.5999795,38.1116829
1,Московская улица,140181,55.5986911,38.1133172
3,улица Жуковского,140181,55.5977894,38.1136445
2,улица Гагарина,140181,55.5984589,38.1125869
4,улица Гагарина,140181,55.5991626,38.1119151
10,улица Гагарина,140181,55.6011977,38.1102558
1,Энергетическая улица,140181,55.6009598,38.1120072
18А,улица Мясищева,140186,55.5992842,38.0954275
17,улица Менделеева,140181,55.6020503,38.1103386
22,улица Гагарина,140184,55.6059868,38.1039102
4,улица Менделеева,140181,55.5998604,38.1173339
6,улица Менделеева,140181,55.6001379,38.1162606
8,Московская улица,140181,55.5994360,38.1133997
7,улица Гагарина,140181,55.6007407,38.1097161
3Б,улица Гагарина,140181,55.6001512,38.1099739
14А,улица Мясищева,140186,55.5999356,38.0984145
24,набережная Циолковского,140186,55.6032247,38.0910342
49,улица Гагарина,140187,55.6053661,38.0944291
45,улица Гагарина,140187,55.6063092,38.0958226
33,улица Гагарина,140187,55.6043988,38.0973879
31,улица Гагарина,140187,55.6045001,38.0985245
27,улица Гагарина,140187,55.6043911,38.0998649
25,улица Гагарина,140187,55.6048152,38.0998616
23,улица Гагарина,140187,55.6052186,38.0998835
37,улица Гагарина,140187,55.6062962,38.0968867
39,улица Гагарина,140187,55.6058879,38.0968598
41,улица Гагарина,140187,55.6054632,38.0968587
47,улица Гагарина,140187,55.6055226,38.0955532
59,улица Гагарина,140187,55.6065932,38.0923935
61,улица Гагарина,140187,55.6073532,38.0926697
8,улица Фрунзе,140181,55.6001486,38.1275153
20,улица Жуковского,140181,55.6004735,38.1260334
24,улица Жуковского,140181,55.6011560,38.1285452
28,улица Жуковского,140181,55.6013646,38.1291751
30,улица Жуковского,140181,55.6015209,38.1298199
13,улица Жуковского,140181,55.5997160,38.1199218
11,улица Жуковского,140181,55.5995163,38.1192185
47,улица Чкалова,140181,55.6002277,38.1217304
36/19,улица Чкалова,140181,55.6004423,38.1225076
23,улица Жуковского,140181,55.6006437,38.1232356
25,улица Жуковского,140181,55.6008449,38.1239816
22,набережная Циолковского,140186,55.6025228,38.0907092
26,набережная Циолковского,140186,55.6039283,38.0910372
1,Молодёжная улица,140186,55.6025312,38.0971514
9,Молодёжная улица,140186,55.6039270,38.0946616
57,улица Гагарина,140187,55.6064083,38.0937298
55,улица Гагарина,140187,55.6068346,38.0938347
53,улица Гагарина,140187,55.6072241,38.0939176
30,улица Гагарина,140184,55.6061950,38.1004995
42,улица Гагарина,140187,55.6071705,38.0975780
34,улица Гагарина,140184,55.6069887,38.1001228
40,улица Гагарина,140184,55.6073648,38.0990010
46,улица Гагарина,140187,55.6079645,38.0972154
52,улица Гагарина,140187,55.6083598,38.0960669
64 к1,улица Гагарина,140187,55.6092705,38.0968097
64 к3,улица Гагарина,140187,55.6088375,38.0981432
28,улица Гагарина,140184,55.6062798,38.1021837
38,улица Гагарина,140184,55.6076411,38.1000185
32 к3,улица Гагарина,140184,55.6075569,38.1013434
32 к2,улица Гагарина,140184,55.6071515,38.1025544
14,улица Королёва,140187,55.6067386,38.0893721
30,Молодёжная улица,140187,55.6074013,38.0878618
28,Молодёжная улица,140187,55.6068494,38.0883922
4А,улица Мичурина,140184,55.6053104,38.1049019
6А,улица Мичурина,140184,55.6057618,38.1053708
8А,улица Мичурина,140184,55.6061641,38.1058126
10А,улица Мичурина,140184,55.6065944,38.1062814
24/1а,улица Луч,140184,55.6045947,38.1114987
26,улица Гагарина,140184,55.6065450,38.1032510
26 к2,улица Гагарина,140184,55.6067620,38.1043051
26 к3,улица Гагарина,140184,55.6069575,38.1037362
9,улица Гудкова,140182,55.5972065,38.0906608
1,улица Левченко,140182,55.5942491,38.0924699
4А,улица Грищенко,140182,55.5934138,38.0919485
6,улица Грищенко,140182,55.5931885,38.0911345
8,улица Грищенко,140182,55.5936798,38.0904740
3,улица Левченко,140182,55.5941178,38.0913202
5,набережная Циолковского,140186,55.5990192,38.0917151
11,улица Анохина,140182,55.5967527,38.0854357
9,улица Анохина,140182,55.5972082,38.0858942
14,улица Левченко,140182,55.5975234,38.0867936
17,улица Гудкова,140182,55.5983122,38.0870132
15,улица Гудкова,140182,55.5978962,38.0877976
3,улица Анохина,140182,55.5990158,38.0868070
13,улица Гудкова,140186,55.5981346,38.0890355
10,улица Левченко,140182,55.5968780,38.0886554
8,улица Левченко,140182,55.5964447,38.0891202
6,улица Левченко,140182,55.5960721,38.0898031
4,улица Левченко,140182,55.5964184,38.0902693
11,улица Гудкова,140182,55.5973958,38.0894271
2,улица Левченко,140182,55.5957372,38.0907362
4,улица Гудкова,140186,55.5968333,38.0927900
1,Солнечная улица,140182,55.6018608,38.0882675
18,улица Гудкова,140182,55.6018658,38.0861368
36,улица Гагарина,140187,55.6066485,38.0990103
50,улица Гагарина,140187,55.6085789,38.0970633
18,улица Мичурина,140184,55.6082772,38.1079339
10А с1,улица Луч,140184,55.6067758,38.1056595
12А,улица Мичурина,140184,55.6068645,38.1058166
12,улица Луч,140184,55.6071186,38.1061597
14,улица Луч,140184,55.6068949,38.1067968
16,улица Луч,140184,55.6065923,38.1075921
18,улица Луч,140184,55.6062515,38.1083761
11,улица Луч,140184,55.6071920,38.1071417
13,улица Луч,140184,55.6068704,38.1079462
2/9,улица Мичурина,140184,55.6075527,38.1067449
4/16,улица Мичурина,140182,55.6079542,38.1072532
18,Клубная улица,140184,55.6076681,38.1078527
20,Клубная улица,140184,55.6075200,38.1086107
22,Клубная улица,140184,55.6073145,38.1091172
24,Клубная улица,140184,55.6070103,38.1093996
13А,улица Луч,140184,55.6070704,38.1085566
15/1,улица Луч,140184,55.6064682,38.1090746
3/26,Школьная улица,140184,55.6068417,38.1100134
17,Школьная улица,140184,55.6074125,38.1101011
3,улица Чкалова,140185,55.5876913,38.1326392
19,улица Чкалова,140185,55.5908223,38.1297700
15,улица Чкалова,140185,55.5900287,38.1305248
26,улица Чкалова,140181,55.5954784,38.1272683
2А,улица Чкалова,140185,55.5891875,38.1324731
6,улица Пушкина,140185,55.5905590,38.1258748
15,улица Маяковского,140181,55.5948409,38.1201736
16,улица Гагарина,140187,55.6045874,38.1064607
3,улица Гагарина,140187,55.5978984,38.1116079
9,улица Гагарина,140181,55.6012950,38.1087053
29,улица Ломоносова,140181,55.5945875,38.1181998
27,улица Ломоносова,140181,55.5942118,38.1188367
23,улица Ломоносова,140181,55.5939717,38.1190479
21,улица Ломоносова,140181,55.5937194,38.1192645
19,улица Ломоносова,140181,55.5933679,38.1195733
17,улица Ломоносова,140181,55.5931592,38.1197606
15,улица Ломоносова,140181,55.5929495,38.1199381
29А,улица Ломоносова,140181,55.5948072,38.1176703
30,улица Чаплыгина,140181,55.5943058,38.1170612
24/1,улица Гагарина,140184,55.6051715,38.1030947
11,Школьная улица,140184,55.6080140,38.1115211
57/8,улица Чкалова,140184,55.6073398,38.1114665
4,Школьная улица,140184,55.6066988,38.1106657
2/17,Школьная улица,140184,55.6062036,38.1100231
55,улица Чкалова,140184,55.6071702,38.1126012
6А,улица Спасателей,140184,55.6060481,38.1143364
51,улица Чкалова,140184,55.6066685,38.1138579
49,улица Чкалова,140184,55.6063938,38.1145201
4,улица Спасателей,140184,55.6059095,38.1136964
27,улица Луч,140184,55.6053396,38.1119767
23,улица Луч,140184,55.6055182,38.1113014
21,улица Луч,140184,55.6057538,38.1107334
19,улица Луч,140184,55.6059504,38.1102820
9/18,Заводская улица,140184,55.6084310,38.1119471
18,Заводская улица,140184,55.6087687,38.1112564
19,Заводская улица,140184,55.6091347,38.1103048
8,улица Мичурина,140182,55.6091627,38.1087850
13,Заводская улица,140184,55.6087983,38.1105498
81 к1,улица Гагарина,140188,55.6085114,38.0824648
81 к2,улица Гагарина,140188,55.6080845,38.0823707
81 к3,улица Гагарина,140188,55.6077917,38.0827675
6,улица Баженова,140188,55.6066771,38.0728034
12,улица Лацкова,140188,55.6063015,38.0744654
8,улица Баженова,140188,55.6070203,38.0728798
6,улица Лацкова,140188,55.6076804,38.0754792
12,улица Баженова,140188,55.6074810,38.0705789
3А,улица Макаревского,140188,55.6082319,38.0730288
85А,улица Гагарина,140188,55.6094378,38.0756047
10,улица Мичурина,140182,55.6095258,38.1092894
19А,Клубная улица,140184,55.6082653,38.1099366
23,Клубная улица,140184,55.6079189,38.1105380
21,Клубная улица,140184,55.6079766,38.1099871
19,Клубная улица,140184,55.6082150,38.1094202
20,Заводская улица,140184,55.6093903,38.1097141
6,улица Мичурина,140182,55.6088108,38.1083361
6,улица Луч,140184,55.6076444,38.1043892
2,улица Луч,140184,55.6081615,38.1032781
8,Клубная улица,140184,55.6088737,38.1049201
12,Клубная улица,140184,55.6084195,38.1057761
13,улица Мичурина,140182,55.6098317,38.1085316
13 к2,улица Мичурина,140182,55.6100953,38.1076704
15,улица Мичурина,140182,55.6097622,38.1072896
9 к2,Клубная улица,140184,55.6095220,38.1066498
11,Клубная улица,140184,55.6090430,38.1071242
9,улица Мичурина,140182,55.6090195,38.1077857
7/13,улица Мичурина,140184,55.6087831,38.1073797
1А,улица Чапаева,140184,55.6095568,38.1012526
1,улица Чапаева,140184,55.6093287,38.1019307
3А,улица Чапаева,140184,55.6096502,38.1023317
3,улица Чапаева,140184,55.6100446,38.1028175
2/22,улица Чапаева,140184,55.6090856,38.1028446
4,улица Чапаева,140184,55.6093132,38.1031401
6,улица Чапаева,140184,55.6095378,38.1034385
6,Клубная улица,140184,55.6094212,38.1044612
4/8,Клубная улица,140184,55.6097678,38.1037919
7,Клубная улица,140184,55.6098706,38.1048404
5,Клубная улица,140184,55.6102032,38.1042544
12,улица Чапаева,140184,55.6105175,38.1046447
16,улица Чапаева,140184,55.6110142,38.1057522
12А,улица Чапаева,140184,55.6102034,38.1052129
14А,улица Чапаева,140184,55.6104802,38.1057951
14,улица Чапаева,140184,55.6109037,38.1050602
16А,улица Чапаева,140184,55.6112273,38.1053139
18,улица Чапаева,140184,55.6116668,38.1057323
15,улица Чапаева,140184,55.6129516,38.1063154
13,улица Чапаева,140184,55.6126201,38.1059014
11,улица Чапаева,140184,55.6122963,38.1054737
17,улица Чапаева,140184,55.6132647,38.1067088
38 к2,улица Гагарина,140184,55.6081425,38.1002281
18,улица Дзержинского,140181,55.5953700,38.1278718
14,улица Дзержинского,140181,55.5972498,38.1311233
15,улица Дзержинского,140181,55.5977152,38.1313506
7,улица Дзержинского,140181,55.5966793,38.1320013
7,улица Дзержинского,140181,55.5968948,38.1326282
10/9,улица Дзержинского,140181,55.5982601,38.1336062
5,улица Семашко,140181,55.5988473,38.1327988
1,улица Семашко,140181,55.5990994,38.1313076
6 к2,улица Дзержинского,140181,55.5993468,38.1338751
2 к3,улица Дзержинского,140181,55.5998919,38.1345624
6,улица Фрунзе,140181,55.6005289,38.1289774
32,улица Жуковского,140181,55.6019630,38.1307027
12А,улица Фрунзе,140181,55.5999632,38.1258464
1 к4,улица Фрунзе,140181,55.5989822,38.1275048
1 к9,улица Фрунзе,140181,55.5992493,38.1286932
1 к5,улица Фрунзе,140181,55.5989541,38.1288337
1,улица Фрунзе,140181,55.5988794,38.1293664
1 к6,улица Фрунзе,140181,55.5980987,38.1295895
1Б,улица Семашко,140181,55.5985711,38.1298821
4 с2,улица Королёва,140187,55.6097654,38.0932896
3,набережная Циолковского,140186,55.5978655,38.0931590
23,улица Амет-Хан Султана,140185,55.5816294,38.1397544
7А,улица Анохина,140186,55.5981238,38.0853784
3,улица Туполева,140185,55.5794571,38.1448473
4,улица Туполева,140185,55.5791627,38.1439255
7,улица Осипенко,140185,55.5873947,38.1380096
2А,улица Туполева,140185,55.5796849,38.1278246
14,улица Фрунзе,140181,55.5988190,38.1243320
4А,улица Чкалова,140185,55.5896451,38.1320855
2,улица Серова,140185,55.5890711,38.1397682
12/10,улица Серова,140185,55.5892350,38.1358004
12А,улица Гарнаева,140185,55.5896740,38.1362300
12/6,улица Осипенко,140185,55.5883311,38.1350232
11/8,улица Серова,140185,55.5886873,38.1353237
1,улица Кирова,140185,55.5795597,38.1412565
28,улица Чаплыгина,140181,55.5937646,38.1172053
26,улица Чаплыгина,140181,55.5935241,38.1174258
24,улица Чаплыгина,140181,55.5932784,38.1176324
34,улица Жуковского,140181,55.6017785,38.1321011
3 к4,улица Семашко,140181,55.5997602,38.1334708
3 к1,улица Семашко,140181,55.5992869,38.1324125
3 к3,улица Семашко,140181,55.5999437,38.1329164
3 к2,улица Семашко,140181,55.5996720,38.1322524
7,Московская площадь,140181,55.6003388,38.1329764
5,Московская площадь,140181,55.6004325,38.1339830
12А,улица Фрунзе,140181,55.5999298,38.1257662
21,улица Жуковского,140181,55.6003332,38.1230652
48,улица Чкалова,140184,55.6062336,38.1163470
4А,улица Спасателей,140184,55.6052773,38.1139926
42,улица Чкалова,140181,55.6028571,38.1204530
2А,улица Спасателей,140184,55.6038655,38.1121174
44,улица Чкалова,140181,55.6054086,38.1180514
17,Энергетическая улица,140181,55.6027005,38.1186141
26,улица Жуковского,140181,55.6015028,38.1286423
29,улица Жуковского,140181,55.6013757,38.1262236
27,улица Жуковского,140181,55.6009633,38.1250093
4,Солнечная улица,140182,55.6025867,38.0893766
10,Солнечная улица,140182,55.6047603,38.0890361
6,Солнечная улица,140182,55.6033010,38.0895390
8,Солнечная улица,140182,55.6039969,38.0896819
7,переулок Кирова,140185,55.5823619,38.1437380
26,Муромская улица,140185,55.5833563,38.1475400
4,Люберецкая улица,140185,55.5831650,38.1464294
28,Муромская улица,140185,55.5827889,38.1475518
2,Люберецкая улица,140185,55.5831390,38.1451470
6,улица Гринчика,140185,55.5825011,38.1447097
33,Нижегородская улица,140185,55.5828985,38.1426496
2,улица Гринчика,140185,55.5818843,38.1465002
4,улица Гринчика,140185,55.5821320,38.1458330
33 к2,Нижегородская улица,140185,55.5819518,38.1430429
33 к3,Нижегородская улица,140185,55.5831267,38.1434988
4,Лесная улица,140185,55.5827568,38.1388794
21А,улица Амет-Хан Султана,140185,55.5823982,38.1397226
32,Нижегородская улица,140185,55.5828771,38.1407023
30А,Нижегородская улица,140185,55.5847395,38.1406950
6,Лесная улица,140185,55.5843332,38.1399122
30В,Нижегородская улица,140185,55.5836636,38.1407677
30Б,Нижегородская улица,140185,55.5842814,38.1408634
30Г,Нижегородская улица,140185,55.5832737,38.1403230
25,улица Амет-Хан Султана,140185,55.5814288,38.1402554
35,улица Амет-Хан Султана,140185,55.5817510,38.1403767
7,улица Калугина,140185,55.5890480,38.1286240
9 к1,улица Чкалова,140185,55.5889417,38.1297352
11,улица Чкалова,140185,55.5891546,38.1307644
7А,улица Чкалова,140185,55.5888044,38.1310235
7,улица Чкалова,140185,55.5884715,38.1313577
7 к2,улица Чкалова,140185,55.5884025,38.1304115
21,улица Амет-Хан Султана,140185,55.5819145,38.1394112
28,Нижегородская улица,140185,55.5861026,38.1412787
31,улица Амет-Хан Султана,140185,55.5823263,38.1405870
33,улица Амет-Хан Султана,140185,55.5820200,38.1405204
39,Нижегородская улица,140185,55.5816708,38.1425543
37А,Нижегородская улица,140185,55.5818827,38.1413548
4А,Лесная улица,140185,55.5840093,38.1400770
5,Лесной тупик,140185,55.5853089,38.1400910
10А,Лесная улица,140185,55.5856606,38.1392310
8,Лесная улица,140185,55.5851593,38.1388685
12,Лесная улица,140185,55.5873865,38.1397320
10,Лесная улица,140185,55.5870214,38.1399474
14,Лесная улица,140185,55.5878011,38.1401510
24,Нижегородская улица,140185,55.5867817,38.1414197
18,Нижегородская улица,140185,55.5876561,38.1416301
4,Лесной тупик,140185,55.5862839,38.1402489
22,Нижегородская улица,140185,55.5870462,38.1415466
46,улица Коминтерна,140185,55.5872636,38.1404122
50,улица Коминтерна,140185,55.5877391,38.1411652
48,улица Коминтерна,140185,55.5877258,38.1407307
30,Нижегородская улица,140185,55.5861970,38.1408103
28А,Нижегородская улица,140185,55.5871615,38.1409642
20,Нижегородская улица,140185,55.5873728,38.1415340
6,улица Осипенко,140185,55.5874983,38.1360413
3,улица Осипенко,140185,55.5880801,38.1360296
5А,улица Осипенко,140185,55.5878149,38.1369708
1/7,улица Мичурина,140182,55.6077655,38.1062065
5,улица Мичурина,140182,55.6082662,38.1067306
10,улица Луч,140184,55.6073223,38.1056119
20,улица Гагарина,140187,55.6047488,38.1044450
10,Клубная улица,140184,55.6087743,38.1061246
10А,улица Луч,140184,55.6070333,38.1052837
4А,улица Осипенко,140185,55.5873961,38.1351038
2,улица Осипенко,140185,55.5877982,38.1347507
12,Московская улица,140181,55.6002630,38.1126654
10,Московская улица,140181,55.5998146,38.1130518
11А,улица Дзержинского,140181,55.5933897,38.1384363
6,улица Горельники,140185,55.5902975,38.1404996
6,улица Серова,140185,55.5886189,38.1380046
4,Нижегородская улица,140185,55.5900995,38.1419826
4Б,Нижегородская улица,140185,55.5905732,38.1423249
2,улица Серова,140185,55.5890343,38.1397051
1,улица Жуковского,140181,55.5972554,38.1111133
9,улица Гагарина,140181,55.6012157,38.1089200
2А,улица Гагарина,140181,55.5980580,38.1132489
5,улица Гагарина,140181,55.6001852,38.1093170
7,Энергетическая улица,140181,55.6019952,38.1163486
14,Нижегородская улица,140185,55.5885963,38.1411980
15,Энергетическая улица,140181,55.6021900,38.1172157
9,Энергетическая улица,140181,55.6017973,38.1155665
2А,улица Серова,140185,55.5883693,38.1404910
3,Московская площадь,140181,55.6005025,38.1348468
2 к2,улица Дзержинского,140181,55.5999145,38.1355922
2 к3,улица Дзержинского,140181,55.6000993,38.1368085
4,улица Дзержинского,140181,55.5992674,38.1349393
8,улица Дзержинского,140181,55.5986839,38.1337374
6 к1,улица Дзержинского,140181,55.5987500,38.1346542
2 к1,улица Дзержинского,140181,55.5993196,38.1358141
1А,Туполевское шоссе,140185,55.5859953,38.1225486
1/3,Туполевское шоссе,140185,55.5862596,38.1235942
1,Туполевское шоссе,140185,55.5860754,38.1220752
14,улица Пушкина,140185,55.5893157,38.1223352
6,улица Чаплыгина,140185,55.5898580,38.1206600
9А,улица Чаплыгина,140185,55.5909106,38.1206526
12,улица Чаплыгина,140185,55.5906188,38.1198138
1/10,улица Ломоносова,140185,55.5895733,38.1229699
4,Садовый проезд,140185,55.5914818,38.1207227
16,улица Пушкина,140185,55.5892109,38.1219467
3,улица Ломоносова,140185,55.5899500,38.1224372
18,улица Пушкина,140185,55.5891343,38.1216642
14,улица Чаплыгина,140185,55.5910806,38.1194674
4,улица Чаплыгина,140185,55.5894819,38.1210082
7А,улица Чаплыгина,140185,55.5905739,38.1215277
7Б,улица Чаплыгина,140185,55.5904921,38.1210460
2,Садовый проезд,140185,55.5915477,38.1212330
7,улица Чаплыгина,140185,55.5907035,38.1219776
9Б,улица Чаплыгина,140185,55.5910673,38.1210791
4А,улица Чаплыгина,140185,55.5897202,38.1216273
12,улица Пушкина,140185,55.5894074,38.1226851
8,улица Чаплыгина,140185,55.5901392,38.1202403
6,Садовый проезд,140185,55.5913991,38.1203125
6А,улица Чаплыгина,140185,55.5899984,38.1214122
20/2,улица Пушкина,140185,55.5891496,38.1211579
9,улица Чаплыгина,140185,55.5911967,38.1215560
5,улица Ломоносова,140185,55.5902071,38.1221595
25,улица Ломоносова,140181,55.5938178,38.1181655
20,улица Чаплыгина,140181,55.5927114,38.1181279
18/2,улица Чаплыгина,140181,55.5924993,38.1183154
22,улица Чаплыгина,140181,55.5929302,38.1179347
10,Строительная улица,140185,55.5919013,38.1322472
10А,Строительная улица,140185,55.5922029,38.1313519
19,улица Гарнаева,140185,55.5914086,38.1364790
4Г,улица Чкалова,140185,55.5898749,38.1316497
2,Энергетическая улица,140181,55.6006024,38.1136991
1,улица Спасателей,140181,55.6034727,38.1102872
5А,улица Амет-Хан Султана,140185,55.5854862,38.1368314
9А,улица Гарнаева,140185,55.5876435,38.1336481
5,Туполевское шоссе,140185,55.5870618,38.1216953
6А,улица Чкалова,140185,55.5906634,38.1311192
18,улица Туполева,140185,55.5802524,38.1373423
18,улица Туполева,140185,55.5804536,38.1391607
18 к4,улица Туполева,140185,55.5799985,38.1404340
18 к2,улица Туполева,140185,55.5791729,38.1373693
18 к1,улица Туполева,140185,55.5791149,38.1386988
12,улица Туполева,140185,55.5801970,38.1351050
16,улица Туполева,140185,55.5802932,38.1366321
8,улица Туполева,140185,55.5799809,38.1338190
4,улица Туполева,140185,55.5798949,38.1327024
10,улица Туполева,140185,55.5800575,38.1344914
14,улица Туполева,140185,55.5802346,38.1358820
6,улица Туполева,140185,55.5801150,38.1332660
8А,улица Туполева,140185,55.5793133,38.1339531
10А,улица Туполева,140185,55.5790004,38.1347126
4А,улица Туполева,140185,55.5790044,38.1430748
8,улица Кирова,140185,55.5795534,38.1471760
7,улица Кирова,140185,55.5791328,38.1466481
9,улица Кирова,140185,55.5792690,38.1477867
1,улица Кирова,140185,55.5783438,38.1470006
9,Комсомольская улица,140185,55.5876689,38.1273978
21А,улица Амет-Хан Султана,140185,55.5823180,38.1391582
5/25,Школьная улица,140184,55.6076327,38.1109622
53,улица Чкалова,140184,55.6069392,38.1131615
6,Школьная улица,140184,55.6067109,38.1121431
8,улица Луч,140184,55.6075665,38.1052351
9 к3,Клубная улица,140184,55.6092388,38.1062655
11,улица Мичурина,140184,55.6093934,38.1082630
9 к1,Клубная улица,140184,55.6094347,38.1057723
17,Клубная улица,140184,55.6085181,38.1089708
7А,Молодёжная улица,140186,55.6036015,38.0954866
3,Молодёжная улица,140186,55.6029468,38.0980207
7,Молодёжная улица,140186,55.6033719,38.0967956
5,Молодёжная улица,140186,55.6031679,38.0974048
9,Молодёжная улица,140186,55.6038198,38.0945625
33А,улица Гагарина,140187,55.6057684,38.0991409
79А,улица Гагарина,140188,55.6085157,38.0852525
36,Молодёжная улица,140188,55.6074461,38.0848773
11А,улица Менделеева,140181,55.6014265,38.1127336
3,Энергетическая улица,140181,55.6011402,38.1131790
13,улица Менделеева,140181,55.6015764,38.1118822
15,улица Менделеева,140181,55.6018074,38.1111041
8/1,Московская улица,140181,55.5995101,38.1142064
4,Московская улица,140181,55.5985993,38.1145205
15,улица Амет-Хан Султана,140185,55.5833204,38.1372382
26,Нижегородская улица,140185,55.5865017,38.1414042
9,Энергетическая улица,140181,55.6015881,38.1146901
12,улица Менделеева,140181,55.6021888,38.1124917
7,Энергетическая улица,140181,55.6018273,38.1178848
13,Кооперативная улица,140185,55.5800702,38.1114694
8,улица Наркомвод,140180,55.5541728,38.1193545
22/4,улица Наркомвод,140180,55.5551594,38.1154873
79,улица Гагарина,140188,55.6087547,38.0831470
79А с1,улица Гагарина,140188,55.6080572,38.0859866
36,Молодёжная улица,140188,55.6074533,38.0852920
79А с2,улица Гагарина,140188,55.6082524,38.0839991
77А,улица Гагарина,140188,55.6079115,38.0842164
12 с2,Театральная улица,140120,55.6118727,38.0718298
12 с4,Театральная улица,140120,55.6120337,38.0709131
12Б,Театральная улица,140120,55.6110951,38.0719832
12 с1,Театральная улица,140120,55.6116581,38.0715438
21,Молодёжная улица,140188,55.6072102,38.0825011
1 к1,улица Баженова,140188,55.6047700,38.0767950
1 к2,улица Баженова,140188,55.6046320,38.0760581
5 к1,улица Баженова,140188,55.6050416,38.0757940
5 к2,улица Баженова,140188,55.6048933,38.0750739
9,улица Баженова,140188,55.6053165,38.0747987
3,улица Баженова,140188,55.6049810,38.0764882
7,улица Баженова,140188,55.6052549,38.0754612
11,улица Федотова,140188,55.6036871,38.0718385
13,улица Федотова,140188,55.6045493,38.0733161
17,улица Федотова,140188,55.6032647,38.0736760
19,улица Баженова,140188,55.6066795,38.0691286
5,улица Федотова,140188,55.6050628,38.0701535
7,улица Федотова,140188,55.6049643,38.0714737
15,улица Федотова,140188,55.6040118,38.0731548
3,улица Федотова,140188,55.6058045,38.0696337
9,улица Федотова,140188,55.6044342,38.0712955
13,улица Баженова,140188,55.6058267,38.0730207
15,улица Баженова,140188,55.6061423,38.0714525
17,улица Баженова,140188,55.6066009,38.0702039
10,улица Баженова,140188,55.6073048,38.0733257
10,улица Лацкова,140188,55.6068124,38.0740573
11,улица Макаревского,140188,55.6092751,38.0713508
15/3,улица Макаревского,140188,55.6092440,38.0701818
3,улица Макаревского,140188,55.6088240,38.0740593
4,улица Баженова,140188,55.6063231,38.0734345
5 к1,улица Келдыша,140188,55.6085099,38.0697592
5 к2,улица Келдыша,140188,55.6086976,38.0704419
5 к3,улица Келдыша,140188,55.6082375,38.0707636
5,улица Макаревского,140188,55.6090976,38.0734695
7,улица Макаревского,140188,55.6090787,38.0727278
8,улица Лацкова,140188,55.6073311,38.0744273
9,улица Макаревского,140188,55.6089964,38.0719443
4 к1,улица Лацкова,140188,55.6083491,38.0753187
4 к2,улица Лацкова,140188,55.6083335,38.0745820
11,улица Баженова,140188,55.6055355,38.0739623
2А,улица Гудкова,140186,55.5964391,38.0933206
19,улица Федотова,140188,55.6042306,38.0744444
15 с2,Молодёжная улица,140186,55.6045826,38.0925229
21А,Молодёжная улица,140186,55.6051749,38.0909346
65,улица Гагарина,140187,55.6076693,38.0936990
29,улица Гагарина,140187,55.6052820,38.0988000
24,улица Гагарина,140184,55.6054858,38.1024802
67,улица Гагарина,140187,55.6082518,38.0908632
11/24,улица Королёва,140187,55.6065672,38.0907063
48,улица Гагарина,140187,55.6076377,38.0960607
54,улица Гагарина,140187,55.6081831,38.0946208
63,улица Гагарина,140187,55.6074340,38.0915989
49А,улица Гагарина,140187,55.6068080,38.0960424
21Б,Молодёжная улица,140186,55.6049961,38.0902239
10,улица Королёва,140187,55.6078727,38.0892150
12,улица Королёва,140187,55.6073006,38.0894689
69,улица Гагарина,140187,55.6083424,38.0897420
8,улица Королёва,140187,55.6076153,38.0902851
32,Молодёжная улица,140188,55.6078851,38.0872167
71,улица Гагарина,140188,55.6083999,38.0883792
34 к1,Молодёжная улица,140188,55.6070288,38.0869794
34 к2,Молодёжная улица,140188,55.6069281,38.0861812
16/23,улица Королёва,140188,55.6060423,38.0887433
25,Молодёжная улица,140188,55.6059075,38.0873388
29,Молодёжная улица,140188,55.6053768,38.0861405
14,набережная Циолковского,140186,55.6011302,38.0904787
16,набережная Циолковского,140186,55.6014116,38.0916203
18,набережная Циолковского,140186,55.6018359,38.0906866
7А,Молодёжная улица,140186,55.6035436,38.0957451
11,Молодёжная улица,140186,55.6029425,38.0930506
13,Молодёжная улица,140186,55.6041472,38.0933237
17,Молодёжная улица,140186,55.6038426,38.0921113
18,Молодёжная улица,140187,55.6059471,38.0925008
20,набережная Циолковского,140186,55.6026377,38.0918196
10,улица Мясищева,140186,55.6005362,38.1004461
10А,улица Мясищева,140186,55.6007233,38.1011342
11,улица Гагарина,140187,55.6028031,38.1070057
12,улица Мясищева,140186,55.6003566,38.0997575
13,улица Гагарина,140187,55.6031691,38.1058923
14,улица Мясищева,140186,55.6001746,38.0990860
15,улица Гагарина,140187,55.6035455,38.1048222
17/1,улица Гагарина,140187,55.6039154,38.1037054
18,улица Мясищева,140186,55.5989730,38.0968383
16,улица Мясищева,140186,55.5994133,38.0973567
2,улица Мясищева,140187,55.6024720,38.1057585
20,улица Мясищева,140186,55.5985296,38.0963419
22,улица Мясищева,140186,55.5980685,38.0958285
24,улица Мясищева,140186,55.5982204,38.0947777
26,улица Мясищева,140186,55.5988007,38.0937921
2А,улица Мясищева,140187,55.6023089,38.1047187
4,улица Мясищева,140181,55.6021015,38.1068665
4А,улица Мясищева,140187,55.6028425,38.1047131
6,улица Мясищева,140187,55.6016445,38.1051554
6А,улица Мясищева,140187,55.6020243,38.1057370
8 к4,улица Мясищева,140187,55.6015907,38.1019757
8 к5,улица Мясищева,140187,55.6018715,38.1021013
8 к6,улица Мясищева,140187,55.6009160,38.1017963
8,улица Мясищева,140187,55.6012549,38.1041185
8А,улица Мясищева,140187,55.6010032,38.1025645
8Б,улица Мясищева,140187,55.6012669,38.1026561
16А,улица Мясищева,140186,55.5996077,38.0979789
9,улица Жуковского,140181,55.5991442,38.1181907
13,улица Макаревского,140188,55.6093494,38.0705897
7,улица Келдыша,140188,55.6081204,38.0718369
5Б,улица Гагарина,140181,55.6006367,38.1090255
2/10,улица Гризодубовой,140182,55.5925657,38.0906414
10,улица Гризодубовой,140182,55.5947802,38.0876069
14,улица Гризодубовой,140182,55.5951314,38.0867708
15,улица Анохина,140182,55.5965157,38.0866316
16,улица Гризодубовой,140182,55.5954188,38.0857679
17,улица Анохина,140182,55.5962800,38.0849666
18,улица Гризодубовой,140182,55.5954763,38.0843714
8,улица Гризодубовой,140182,55.5943000,38.0883719
17А,улица Мясищева,140186,55.5952510,38.0954439
4 с1,улица Королёва,140187,55.6100665,38.0936973
2А,улица Луч,140184,55.6081176,38.1015896
5 к7,улица Гагарина,140187,55.5976648,38.1101495
5 к1,улица Гагарина,140187,55.5988173,38.1109436
81Б,улица Гагарина,140188,55.6090605,38.0819456
5,улица Левченко,140182,55.5947564,38.0902194
28/1,улица Мясищева,140186,55.5971536,38.0950711
9,улица Гарнаева,140185,55.5879596,38.1334471
11А,улица Баженова,140188,55.6052744,38.0725530
11Б,улица Баженова,140188,55.6057218,38.0708315
79А с3,улица Гагарина,140188,55.6083190,38.0864630
77А,улица Гагарина,140188,55.6082654,38.0853821
19А,улица Гагарина,140187,55.6045031,38.1025149
27,Молодёжная улица,140188,55.6063886,38.0852684
29,улица Жуковского,140181,55.6014500,38.1262799
9/18,Школьная улица,140180,55.6069208,38.1147815
5А,улица Гагарина,140181,55.6011931,38.1078255
31Г,Молодёжная улица,140188,55.6073280,38.0817657
7,улица Наркомвод,140180,55.5568519,38.1197650
2А,улица Менделеева,140181,55.5988432,38.1171886
27,Кооперативная улица,140185,55.5745885,38.1138572
22/4 с1,улица Наркомвод,140180,55.5551526,38.1132942
1 к16,улица Жуковского,140181,55.5908936,38.1114697
1 к15,улица Жуковского,140181,55.5915421,38.1134424
12 с9,Кооперативная улица,140185,55.5798088,38.1105290
14 с1,Кооперативная улица,140185,55.5811591,38.1098010
12,Кооперативная улица,140185,55.5800726,38.1090162
2,улица Туполева,140185,55.5802551,38.1325317
23,улица Гарнаева,140185,55.5910413,38.1375241
23,улица Гарнаева,140185,55.5910174,38.1376091
14,улица Гарнаева,140185,55.5903874,38.1369135
5А,Коммунальный проезд,140185,55.5525271,38.1215858
2,улица Калугина,140185,55.5896248,38.1290535
17,улица Чкалова,140185,55.5904190,38.1301116
8,Садовый проезд,140185,55.5912800,38.1199086
7В,улица Чаплыгина,140185,55.5906565,38.1206749
10,улица Чаплыгина,140185,55.5903744,38.1200446
33,улица Чкалова,140181,55.5947637,38.1259758
16,улица Маяковского,140181,55.5942967,38.1243585
7,улица Амет-Хан Султана,140185,55.5850604,38.1360746
13,улица Ломоносова,140185,55.5920126,38.1200247
9,улица Гастелло,140181,55.6056189,38.1246849
7,улица Гастелло,140181,55.6060522,38.1243044
11,улица Гастелло,140181,55.6053493,38.1253532
13,улица Гастелло,140181,55.6051337,38.1261327
8,улица Гастелло,140181,55.6057749,38.1243191
5,улица Гастелло,140181,55.6060857,38.1237029
6,улица Гастелло,140181,55.6059187,38.1239447
3А,улица Гастелло,140181,55.6062289,38.1233663
12,улица Гастелло,140181,55.6051865,38.1256700
10,улица Гастелло,140181,55.6054569,38.1249940
1,улица Гастелло,140181,55.6066883,38.1228092
2,улица Гастелло,140181,55.6064843,38.1226468
3,улица Гастелло,140181,55.6063043,38.1229382
4,улица Гастелло,140181,55.6060313,38.1233637
2А,улица Чкалова,140185,55.5888853,38.1329689
7,Лесная улица,140185,55.5867696,38.1367513
18 к6,улица Туполева,140185,55.5796461,38.1392444
18,улица Туполева,140185,55.5795068,38.1385845
1,Московская площадь,140181,55.6015682,38.1347397
1 к3,улица Фрунзе,140181,55.5985806,38.1261623
2А,улица Чкалова,140185,55.5891026,38.1330430
7А,улица Серова,140185,55.5893976,38.1336840
вл12,улица Гарнаева,140185,55.5895869,38.1359152
13,улица Гарнаева,140185,55.5890108,38.1344431
22,улица Пушкина,140185,55.5888357,38.1198797
1,улица Маяковского,140185,55.5900419,38.1242985
28Б,Нижегородская улица,140185,55.5853769,38.1409081
14,улица Маяковского,140185,55.5935839,38.1249015
28А,улица Чкалова,140181,55.5981595,38.1243128
28А,улица Чкалова,140181,55.5975441,38.1248588
26Б,улица Чкалова,140181,55.5964439,38.1264022
26А,улица Чкалова,140181,55.5962256,38.1264964
1,улица Жуковского,140181,55.5968320,38.1103923
10А,Строительная улица,140185,55.5922984,38.1312477
10,Строительная улица,140185,55.5917780,38.1322894
9,улица Серова,140185,55.5885180,38.1360415
7,Лесная улица,140185,55.5864279,38.1369421
вл18А,улица Дзержинского,140181,55.5949950,38.1273638
вл18,улица Дзержинского,140181,55.5951284,38.1277433
14 с1,Строительная улица,140185,55.5925175,38.1323128
14 к3,Строительная улица,140185,55.5930252,38.1318488
14,улица Гарнаева,140185,55.5903458,38.1370564
5,улица Горького,140185,55.5929465,38.1227206
6,улица Пушкина,140185,55.5904113,38.1259072
35,улица Чкалова,140181,55.5959165,38.1249931
36А,улица Чкалова,140181,55.6009461,38.1224525
26/7,улица Маяковского,140181,55.5970346,38.1214339
41,улица Чкалова,140181,55.5976566,38.1233812
14 к4,Строительная улица,140185,55.5934231,38.1307940
14 к1,Строительная улица,140185,55.5920719,38.1338249
2Б,улица Туполева,140185,55.5800781,38.1321720
26А,улица Фрунзе,140181,55.5980673,38.1213368
7,улица Жуковского,140181,55.6000839,38.1177102
9,улица Менделеева,140181,55.6000111,38.1147071
9,улица Менделеева,140181,55.6000368,38.1148606
11/4,улица Менделеева,140181,55.6008385,38.1147024
11/4,улица Менделеева,140181,55.6007554,38.1147476
2,Энергетическая улица,140181,55.6005211,38.1137612
8,улица Гагарина,140181,55.6007183,38.1113397
7 с1,Энергетическая улица,140181,55.6021248,38.1189461
с7,Энергетическая улица,140181,55.6023176,38.1196174
7 к2,Энергетическая улица,140181,55.6015206,38.1175212
7 с2,Энергетическая улица,140181,55.6009802,38.1194329
49,улица Чкалова,140181,55.6007587,38.1212959
7,Энергетическая улица,140181,55.6017542,38.1190260
49,улица Чкалова,140181,55.6006749,38.1198001
16,улица Дзержинского,140181,55.5962239,38.1288551
28/1,улица Фрунзе,140181,55.5980055,38.1252832
1,улица Спасателей,140181,55.6038105,38.1101556
1 с1,Московская площадь,140181,55.6012439,38.1343603
1 с2,Московская площадь,140181,55.6012221,38.1349468
1А,Московская площадь,140181,55.6011412,38.1359173
2А,улица Спасателей,140184,55.6038023,38.1122992
4А к1,улица Спасателей,140184,55.6051533,38.1137880
12,улица Менделеева,140181,55.6016970,38.1133747
12,улица Менделеева,140181,55.6021636,38.1123240
17,Энергетическая улица,140181,55.6039327,38.1150882
3А,улица Спасателей,140184,55.6056343,38.1132786
3А,улица Спасателей,140184,55.6056358,38.1133203
24/1а,улица Луч,140184,55.6047825,38.1114093
2А,Школьная улица,140184,55.6062946,38.1115121
5,улица Чапаева,140184,55.6106666,38.1034207
9,улица Чапаева,140184,55.6117876,38.1049337
7,улица Чапаева,140184,55.6113254,38.1043708
1А,улица Дзержинского,140181,55.5977215,38.1338657
6,улица Фрунзе,140181,55.6004142,38.1291150
8,улица Фрунзе,140181,55.6004710,38.1276431
1 с3,Московская площадь,140181,55.6010957,38.1353687
20,улица Гагарина,140187,55.6050067,38.1044534
4А,улица Чкалова,140185,55.5896810,38.1324222
3А,улица Гагарина,140187,55.5997650,38.1101056
5,улица Гагарина,140187,55.5979279,38.1097749
10,Нижегородская улица,140185,55.5892834,38.1416215
12,улица Семашко,140181,55.5958966,38.1351319
12,улица Семашко,140181,55.5957487,38.1354343
3А,улица Гарнаева,140185,55.5859709,38.1305014
1,улица Фрунзе,140181,55.5973495,38.1284345
17,улица Мичурина,140184,55.6115534,38.1085009
52,улица Чкалова,140180,55.6078991,38.1121384
25,улица Луч,140184,55.6059372,38.1113949
25,улица Луч,140184,55.6060668,38.1107828
2А,улица Луч,140184,55.6084386,38.1023528
52,улица Чкалова,140180,55.6082655,38.1131679
2,улица Спасателей,140184,55.6052103,38.1127720
5,улица Спасателей,140184,55.6049869,38.1125474
27,улица Луч,140184,55.6055341,38.1124800
4А,Нижегородская улица,140185,55.5914750,38.1420825
4А,Нижегородская улица,140185,55.5912349,38.1419072
1 к17,улица Жуковского,140181,55.5899582,38.1085413
3,Заводская улица,140184,55.6111080,38.1120896
1А,улица Гастелло,140181,55.6060284,38.1219070
23,улица Наркомвод,140180,55.5563755,38.1148606
31,улица Амет-Хан Султана,140185,55.5823054,38.1405760
64 к6,улица Гагарина,140187,55.6088697,38.0997826
8Б,улица Мичурина,140184,55.6055172,38.1061885
8Б,улица Мичурина,140184,55.6055798,38.1066968
4А,Лесная улица,140185,55.5837971,38.1400336
5,Лесная улица,140185,55.5856349,38.1373673
3Б с1,улица Гудкова,140182,55.5954748,38.0938321
9,Солнечная улица,140186,55.6041686,38.0869263
10,Солнечная улица,140186,55.6048728,38.0890803
15,Солнечная улица,140188,55.6040651,38.0847244
29А,Молодёжная улица,140188,55.6060112,38.0848285
вл31,Молодёжная улица,140188,55.6065548,38.0830860
31,Молодёжная улица,140188,55.6064701,38.0843399
1,Магистральная улица,140188,55.6068788,38.0825243
31В,Молодёжная улица,140188,55.6070194,38.0835258
31Б,Молодёжная улица,140188,55.6068348,38.0829483
31,Молодёжная улица,140188,55.6060242,38.0831788
22,улица Луч,140184,55.6049101,38.1089546
7,улица Жуковского,140181,55.6000423,38.1179216
4,Лесная улица,140185,55.5860968,38.1401149
2А,улица Гризодубовой,140182,55.5928401,38.0898072
15 к2,улица Амет-Хан Султана,140185,55.5839504,38.1389164
15 к1,улица Амет-Хан Султана,140185,55.5833150,38.1378453
6 с3,улица Королёва,140187,55.6092253,38.0926020
58,улица Гагарина,140187,55.6091091,38.0900527
56,улица Гагарина,140187,55.6088575,38.0934316
69,улица Гагарина,140188,55.6082015,38.0897330
65/7,улица Гагарина,140187,55.6078751,38.0925837
10 с1,улица Менделеева,140181,55.6022657,38.1144647
4,Энергетическая улица,140181,55.6020163,38.1146413
с11,улица Гагарина,140187,55.6023913,38.1078583
18,улица Гагарина,140187,55.6044598,38.1051262
36А,улица Гагарина,140187,55.6065473,38.0986037
36Б,улица Гагарина,140187,55.6063855,38.0990953
35А,улица Гагарина,140187,55.6057964,38.0987825
35Б,улица Гагарина,140187,55.6060868,38.0980895
85Б,улица Гагарина,140188,55.6096960,38.0760150
9,Магистральная улица,140188,55.6082265,38.0771395
26/7,набережная Циолковского,140186,55.5997285,38.0910364
13,набережная Циолковского,140186,55.6008187,38.0891825
11,набережная Циолковского,140186,55.6003464,38.0891414
3А,набережная Циолковского,140186,55.6000564,38.0907626
9,набережная Циолковского,140186,55.5998497,38.0890560
1 к14,улица Жуковского,140181,55.5917968,38.1149242
1 к29,улица Жуковского,140181,55.5866828,38.1087280
1 к26,улица Жуковского,140181,55.5906669,38.1143475
5,улица Гудкова,140182,55.5953463,38.0927260
7А,улица Гудкова,140186,55.5956525,38.0926938
7,улица Гудкова,140182,55.5961772,38.0920592
2А,улица Баженова,140188,55.6046682,38.0818241
19,улица Гудкова,140182,55.5988741,38.0880700
7,улица Анохина,140182,55.5987400,38.0855996
5,улица Анохина,140182,55.5991452,38.0859642
16,улица Левченко,140182,55.5980141,38.0861398
12,улица Левченко,140182,55.5972781,38.0877757
18 к7,улица Туполева,140185,55.5800935,38.1385773
24А,улица Мясищева,140186,55.5964494,38.0938729
69А,улица Гагарина,140187,55.6083938,38.0900454
18,Клубная улица,140184,55.6076112,38.1078155
6,Школьная улица,140184,55.6066246,38.1118958
19,улица Чапаева,140184,55.6132086,38.1051798
19,улица Чапаева,140184,55.6130370,38.1048708
3,улица Пушкина,140185,55.5881675,38.1229061
5 с1,улица Амет-Хан Султана,140185,55.5854991,38.1361332
10Б,Лесная улица,140185,55.5870998,38.1394616
7,улица Лацкова,140188,55.6070972,38.0763429
7,улица Лацкова,140188,55.6069596,38.0766811
2/3,улица Лацкова,140188,55.6088151,38.0760746
3А,улица Макаревского,140188,55.6082524,38.0732694
1,улица Фрунзе,140181,55.5979566,38.1276557
2А,улица Левченко,140182,55.5952822,38.0911622
2Б,улица Левченко,140182,55.5950578,38.0919829
2,улица Менделеева,140181,55.5995166,38.1169902
4,Праволинейная улица,140181,55.6003318,38.1390074
18А,улица Мясищева,140186,55.5993005,38.0953658
21,Молодёжная улица,140186,55.6047340,38.0913844
1 к22,улица Жуковского,140181,55.5873761,38.1100270
10А,улица Лацкова,140188,55.6068103,38.0750460
15,Молодёжная улица,140186,55.6047976,38.0927585
1А,улица Луч,140184,55.6086228,38.1038190
1Б,улица Луч,140184,55.6087681,38.1041348
15,улица Фрунзе,140181,55.5957646,38.1169201
37,улица Чкалова,140181,55.5965647,38.1245499
35,улица Гагарина,140187,55.6059584,38.0984447
43,улица Чкалова,140181,55.5987114,38.1230065
12,улица Дзержинского,140181,55.5975941,38.1324830
5,улица Пушкина,140185,55.5869943,38.1231352
21,улица Гагарина,140187,55.6049864,38.1010884
12 с3,Театральная улица,140120,55.6120635,38.0719793
5,набережная Циолковского,140186,55.5989312,38.0918300
11,Солнечная улица,140186,55.6043983,38.0859054
24А,улица Гагарина,140184,55.6051777,38.1033612
22,улица Луч,140184,55.6049834,38.1087878
5,улица Луч,140184,55.6081121,38.1049963
16А,улица Дзержинского,140181,55.5961986,38.1298925
26А с1,улица Чкалова,140181,55.5956857,38.1264712
1 к1,Московская площадь,140181,55.6012309,38.1354865
1 с4,Московская площадь,140181,55.6013215,38.1356848
5А,улица Гагарина,140181,55.6011206,38.1075991
51,улица Гагарина,140187,55.6069251,38.0954974
19,улица Дугина,140186,55.6008382,38.0974205
12/24,набережная Циолковского,140186,55.6004841,38.0913501
1,улица Мясищева,140181,55.6007003,38.1068875
31,Наркомвод,140182,55.5526028,38.1250918
10В,Лесная улица,140185,55.5865453,38.1387312
10В,Лесная улица,140185,55.5863903,38.1386768
22,Молодёжная улица,140187,55.6059500,38.0910049
1 к12А,улица Жуковского,140181,55.5945032,38.1135197
1 к12,улица Жуковского,140181,55.5934562,38.1140358
1 к13,улица Жуковского,140181,55.5926288,38.1141133
23,улица Фрунзе,140181,55.5951961,38.1148362
7,Солнечная улица,140186,55.6038148,38.0880361
3,улица Лацкова,140188,55.6078076,38.0769999
5,улица Лацкова,140188,55.6076449,38.0767339
6,улица Луч,140184,55.6076157,38.1043448
24,улица Фрунзе,140181,55.5985794,38.1209881
3А,улица Пушкина,140185,55.5885362,38.1222188
7,улица Дзержинского,140181,55.5967734,38.1321940
7А,улица Дзержинского,140181,55.5971288,38.1324860
32,улица Гагарина,140184,55.6067470,38.1011901
20,улица Луч,140184,55.6059980,38.1089290
13,улица Серова,140185,55.5894037,38.1329708
15,улица Серова,140185,55.5895246,38.1333308
15 с1,улица Серова,140185,55.5895808,38.1329476
3,улица Наркомвод,140180,55.5619270,38.1180112
27,улица Жуковского,140181,55.6010848,38.1248281
4,улица Грищенко,140182,55.5934881,38.0927804
64 к3,улица Гагарина,140187,55.6088901,38.0981606
20,улица Маяковского,140181,55.5953413,38.1234661
44,улица Чкалова,140181,55.6050347,38.1194756
3,улица Дзержинского,140181,55.5972853,38.1332955
13А,улица Гудкова,140182,55.5977915,38.0887943
15 к3,улица Амет-Хан Султана,140185,55.5847626,38.1381770
15 к4,улица Амет-Хан Султана,140185,55.5852140,38.1375588
31,улица Чкалова,140185,55.5941306,38.1265250
7,улица Жуковского,140181,55.5990893,38.1172792
3,улица Пушкина,140185,55.5890670,38.1237010
8А с2,Кооперативная улица,140185,55.5796340,38.1129891
8А,Кооперативная улица,140185,55.5799829,38.1128636
12,улица Наркомвод,140180,55.5576753,38.1095756
8,улица Наркомвод,14080,55.5591748,38.1113819
4/2,улица Баженова,140188,55.6055906,38.0764175
4/1,улица Баженова,140188,55.6058733,38.0753794
4/4,улица Баженова,140188,55.6060722,38.0767827
65А,улица Гагарина,140180,55.6080556,38.0922383
16,Молодёжная улица,140186,55.6054571,38.0933105
5,улица Левченко,140182,55.5949104,38.0901156
5,улица Жуковского,140181,55.5984393,38.1155815
16,улица Ломоносова,140181,55.5953914,38.1188221
18/11,улица Ломоносова,140181,55.5962904,38.1185263
29А,улица Ломоносова,140181,55.5947942,38.1176453
19,улица Маяковского,140181,55.5964763,38.1197876
26,улица Фрунзе,140181,55.5978380,38.1210806
22,улица Фрунзе,140181,55.5983754,38.1218203
8,улица Жуковского,140181,55.5987535,38.1199983
65/7,улица Гагарина,140187,55.6078502,38.0929214
45,улица Чкалова,140181,55.5993973,38.1224103
43,улица Чкалова,140181,55.5986699,38.1230318
5А,улица Гагарина,140181,55.6001731,38.1079877
26,улица Фрунзе,140181,55.5980459,38.1206216
22,улица Маяковского,140181,55.5959216,38.1227616
26,улица Туполева,140185,55.5802471,38.1490957
11,улица Дзержинского,140181,55.5936160,38.1351018
14,Строительная улица,140185,55.5930641,38.1320826
6,улица Горельники,140185,55.5903220,38.1407672
21,улица Анохина,140182,55.5997722,38.0870519
12,улица Гризодубовой,140182,55.5945085,38.0862324
6,улица Гризодубовой,140182,55.5937329,38.0878850
16,улица Гудкова,140182,55.6010523,38.0873762
83,улица Гагарина,140188,55.6087695,38.0814443
85,улица Гагарина,140188,55.6099894,38.0729073
28,улица Фрунзе,140181,55.5982753,38.1190671
4,Лесная улица,140185,55.5827621,38.1388319
31А,Нижегородская улица,140185,55.5833898,38.1418757
4/5,улица Баженова,140188,55.6054629,38.0772573
22,улица Гудкова,140188,55.6037499,38.0834246
12,Солнечная улица,140186,55.6049669,38.0877670
64 к2,улица Гагарина,140187,55.6091172,38.0975494
77А с1,улица Гагарина,140188,55.6080300,38.0849778
