House number,Street name,Postal code,Latitude,Longitude
50 с1,улица Карла Жигура,690088,43.1318685,131.9260807
104,Днепровская улица,690089,43.1509180,131.9416650
46,улица Станюковича,690003,43.1070381,131.8726272
77,Запорожская улица,690012,43.1009655,131.9020329
77,Запорожская улица,690021,43.1005982,131.9021197
4,Корабельная набережная,690091,43.1138517,131.8898365
57,улица Калинина,690012,43.1022775,131.9080120
37,Светланская улица,690091,43.1153245,131.8888959
8,улица Суханова,690091,43.1171169,131.8925661
52,Светланская улица,690091,43.1139835,131.8937623
27,Октябрьская улица,690091,43.1252595,131.8876262
30,улица Махалина,690001,43.1161824,131.9206686
1А,Корабельная набережная,690091,43.1144934,131.8859492
15,улица Уборевича,690091,43.1181366,131.8904186
105А,улица Калинина,690012,43.1035847,131.9040412
42/7,улица Калинина,690012,43.1039498,131.8985197
109,улица Калинина,690012,43.1037414,131.9002761
62А,Партизанский проспект,690002,43.1295409,131.9087852
32 с1,Сахалинская улица,690080,43.0940056,131.9641672
10,Пушкинская улица,690091,43.1152201,131.9002792
38/40,Светланская улица,690091,43.1151711,131.8875140
21,Луговая улица,690005,43.1113775,131.9359741
38,Сахалинская улица,690080,43.0919002,131.9655083
25,Октябрьская улица,690091,43.1249272,131.8865158
4,Днепровский переулок,690062,43.1451369,131.9152639
5,Спортивная улица,690034,43.1045477,131.9371644
4,Спортивная улица,690034,43.1049868,131.9378113
52,проспект 100-летия Владивостока,690048,43.1546045,131.9113792
6,Спортивная улица,690034,43.1050757,131.9369691
44,Океанский проспект,690091,43.1245659,131.8894571
7,Спортивная улица,690034,43.1053230,131.9375150
3,Спортивная улица,690034,43.1062268,131.9384467
9,Спортивная улица,690034,43.1065622,131.9377417
2,Спортивная улица,690034,43.1069436,131.9388105
1,Спортивная улица,690034,43.1068114,131.9382670
10,Спортивная улица,690034,43.1072058,131.9385424
15,Ивановская улица,690005,43.1122091,131.9313380
54,проспект 100-летия Владивостока,690048,43.1551850,131.9118453
11,Спортивная улица,690034,43.1057531,131.9375665
55,улица Калинина,690035,43.1008863,131.9107177
7Б,проспект 100-летия Владивостока,690062,43.1432625,131.9067402
44 к1,Партизанский проспект,690106,43.1277561,131.9021022
2,Корабельная набережная,690091,43.1142690,131.8892894
9,Почтовый переулок,690091,43.1155379,131.8918794
35,Светланская улица,690091,43.1156166,131.8878922
6,улица Уборевича,690091,43.1158753,131.8887656
55,улица Калинина,690035,43.1008767,131.9097550
48,Интернациональная улица,690035,43.1008111,131.9192353
275,улица Калинина,690021,43.0940458,131.9027041
47,проспект 100-летия Владивостока,690048,43.1533580,131.9088866
9,проспект 100-летия Владивостока,690062,43.1448764,131.9053793
10,Октябрьская улица,690091,43.1245242,131.8858482
14,улица Калинина,690035,43.1027708,131.9131454
12,улица Калинина,690035,43.1030785,131.9143875
20,улица Калинина,690035,43.1018606,131.9125644
47А,улица Калинина,690035,43.1019126,131.9140106
45А,улица Калинина,690035,43.1019758,131.9147440
49,улица Калинина,690035,43.1018447,131.9133576
47,улица Калинина,690035,43.1022927,131.9136610
45,улица Калинина,690035,43.1024215,131.9147298
43,улица Калинина,690035,43.1019928,131.9155205
43А,улица Калинина,690035,43.1014073,131.9159473
56,Интернациональная улица,690035,43.1012258,131.9151361
54,Интернациональная улица,690035,43.1009832,131.9157785
49А,улица Калинина,690035,43.1013131,131.9135779
49Б,улица Калинина,690035,43.1011775,131.9137778
60,Интернациональная улица,690035,43.1010625,131.9140163
58,Интернациональная улица,690035,43.1009612,131.9146379
4,улица 42-й причал,690012,43.1060966,131.8978274
6Б,улица Суханова,690091,43.1171089,131.8919246
36,улица Прапорщика Комарова,690091,43.1211927,131.8899168
29А,проспект 100-летия Владивостока,690048,43.1489761,131.9051114
1,улица Анисимова,690078,43.1363961,131.8885527
9,улица Анисимова,690078,43.1373035,131.8896615
74,Светланская улица,690091,43.1154090,131.9055331
76,Светланская улица,690091,43.1152750,131.9062380
37,Партизанский проспект,690002,43.1286853,131.9030491
5А,Камская улица,690062,43.1406662,131.9170947
11 с11,Командорская улица,690080,43.0978231,131.9773907
105,Светланская улица,690001,43.1155138,131.9071303
43,Луговая улица,690005,43.1153781,131.9350752
41,Луговая улица,690005,43.1155542,131.9355490
39,Луговая улица,690005,43.1151684,131.9354905
13,Командорская улица,690080,43.0999319,131.9826970
10/7,улица Борисенко,690016,43.1023593,131.9404017
9,улица Борисенко,690016,43.1018850,131.9416038
1,улица Невельского,690013,43.1129442,131.9431546
37А,проспект 100-летия Владивостока,690048,43.1508432,131.9061112
51,проспект 100-летия Владивостока,690048,43.1541503,131.9095330
5,улица Колесника,690048,43.1542428,131.9123416
209,Светланская улица,690005,43.1130408,131.9334539
205,Светланская улица,690005,43.1129431,131.9320917
12,Аксаковская улица,690950,43.1191350,131.9006075
31А,Горная улица,690005,43.1149006,131.9339084
33А,Горная улица,690005,43.1149298,131.9348251
25,Горная улица,690005,43.1142740,131.9321765
195А,Светланская улица,690005,43.1132906,131.9312688
197,Светланская улица,690005,43.1135585,131.9309392
33,Луговая улица,690005,43.1139211,131.9354414
4А,Новоивановская улица,690005,43.1103207,131.9343057
6/4,Ивановская улица,690005,43.1107641,131.9344871
136,проспект 100-летия Владивостока,690069,43.1795727,131.9202443
134,проспект 100-летия Владивостока,690069,43.1791733,131.9199818
130,проспект 100-летия Владивостока,690069,43.1785425,131.9198769
23,Иртышская улица,690089,43.1639853,131.9284360
37,улица Шепеткова,690013,43.1175629,131.9402712
44,улица Шепеткова,690013,43.1170802,131.9406968
42,улица Шепеткова,690013,43.1166617,131.9405681
50,1-я Флотская улица,690013,43.1167399,131.9396176
46,улица Шепеткова,690013,43.1174802,131.9409371
24А,Горная улица,690005,43.1139222,131.9332868
205А,Светланская улица,690005,43.1136034,131.9324765
45А,Луговая улица,690005,43.1169505,131.9355988
45/2,Луговая улица,690005,43.1177043,131.9363128
45,Луговая улица,690005,43.1181886,131.9366409
47,Луговая улица,690005,43.1184378,131.9367607
45/1,Луговая улица,690005,43.1179498,131.9364879
51А,Луговая улица,690005,43.1182371,131.9358459
65,Тунгусская улица,690066,43.1166274,131.9299855
21,Шилкинская улица,690066,43.1187044,131.9306531
33,улица Шепеткова,690013,43.1167353,131.9401080
35,улица Шепеткова,690013,43.1171577,131.9402521
56,1-я Флотская улица,690013,43.1191282,131.9405913
27,улица Невельского,690013,43.1153656,131.9536689
25,улица Невельского,690013,43.1149027,131.9539575
23,улица Невельского,690013,43.1146933,131.9533550
21,улица Невельского,690013,43.1141977,131.9536311
29,улица Невельского,690013,43.1155828,131.9542930
19,улица Невельского,690013,43.1137085,131.9526748
12,улица Каплунова,690013,43.1110664,131.9505499
15,улица Невельского,690013,43.1109183,131.9512654
195,Светланская улица,690005,43.1130337,131.9306808
193,Светланская улица,690005,43.1129429,131.9299911
48,Русская улица,690049,43.1674433,131.9161745
52,Русская улица,690049,43.1673841,131.9168658
56,Русская улица,690049,43.1677555,131.9179917
54,Русская улица,690049,43.1676612,131.9174304
58,Русская улица,690049,43.1678594,131.9185535
50,Русская улица,690049,43.1666215,131.9165785
3,улица Кутузова,690049,43.1677573,131.9224339
5,улица Кутузова,690049,43.1669753,131.9224341
57,Светланская улица,690091,43.1142496,131.8949570
1А,улица Суханова,690091,43.1181533,131.8932693
107,улица Калинина,690012,43.1040448,131.9015985
51,улица Калинина,690035,43.1012634,131.9125298
51А,улица Калинина,690035,43.1008637,131.9127287
62,Интернациональная улица,690035,43.1005280,131.9129069
8,Береговая улица,690091,43.1147231,131.8884724
14А,Алеутская улица,690091,43.1149616,131.8822320
150,Светланская улица,690005,43.1121824,131.9347383
1,улица Марины Расковой,690016,43.0983787,131.9399853
15А,Ивановская улица,690005,43.1119446,131.9307766
118А,Светланская улица,690005,43.1123401,131.9300298
5А,Ивановская улица,690005,43.1119599,131.9295188
5В,Ивановская улица,690005,43.1118270,131.9289220
116,Светланская улица,690005,43.1122704,131.9280207
5Б,Ивановская улица,690005,43.1119016,131.9301262
118,Светланская улица,690005,43.1123413,131.9290299
5,Ивановская улица,690005,43.1119314,131.9273958
3,Ивановская улица,690005,43.1120181,131.9268287
7,Ивановская улица,690005,43.1118248,131.9279652
114,Светланская улица,690001,43.1120849,131.9263663
112,Светланская улица,690001,43.1120835,131.9258371
53,Луговая улица,690013,43.1193928,131.9360547
49,Луговая улица,690005,43.1193244,131.9366862
57А,Луговая улица,690005,43.1208664,131.9358587
57Б,Луговая улица,690005,43.1214097,131.9356576
51,Луговая улица,690005,43.1187656,131.9360612
59А,Луговая улица,690087,43.1217440,131.9367569
59,Луговая улица,690087,43.1217217,131.9376103
63,Луговая улица,690087,43.1223755,131.9379923
59Б,Луговая улица,690087,43.1219925,131.9361926
65,Луговая улица,690087,43.1230195,131.9383697
69,Луговая улица,690087,43.1237125,131.9387754
71А,Луговая улица,690087,43.1243796,131.9379164
75,Луговая улица,690087,43.1246243,131.9386190
71,Луговая улица,690087,43.1241278,131.9384089
77,Луговая улица,690087,43.1251508,131.9388313
77А,Луговая улица,690087,43.1253680,131.9383140
75А,Луговая улица,690087,43.1248593,131.9381060
71Б,Луговая улица,690087,43.1245846,131.9392796
81А,Луговая улица,690087,43.1258856,131.9385109
81,Луговая улица,690087,43.1258885,131.9393135
83,Луговая улица,690087,43.1263650,131.9391831
85,Луговая улица,690087,43.1269037,131.9390926
79,Луговая улица,690087,43.1253841,131.9394217
62,улица Баляева,690087,43.1277333,131.9389168
60,улица Баляева,690087,43.1279963,131.9391662
64,улица Баляева,690087,43.1274626,131.9386660
6А,улица Адмирала Юмашева,690037,43.1266426,131.9408589
8А,улица Адмирала Юмашева,690037,43.1261114,131.9414465
8В,улица Адмирала Юмашева,690037,43.1257653,131.9426301
2,улица Адмирала Юмашева,690037,43.1271549,131.9402485
14А,улица Адмирала Юмашева,690037,43.1254517,131.9436389
6,улица Адмирала Юмашева,690037,43.1265607,131.9414919
8Б,улица Адмирала Юмашева,690037,43.1260513,131.9420971
4,улица Адмирала Юмашева,690037,43.1270748,131.9408950
14Б,улица Адмирала Юмашева,690037,43.1253705,131.9442966
14Г,улица Адмирала Юмашева,690037,43.1253331,131.9429627
12Б,улица Адмирала Юмашева,690037,43.1261743,131.9428535
25,улица Адмирала Юмашева,690037,43.1258341,131.9438627
10А,улица Адмирала Юмашева,690037,43.1264013,131.9432761
16Д,улица Адмирала Юмашева,690037,43.1264161,131.9448997
14,улица Адмирала Юмашева,690037,43.1258392,131.9447407
18Б,улица Адмирала Юмашева,690037,43.1251008,131.9466328
20Б,улица Адмирала Юмашева,690037,43.1251267,131.9475591
14В,улица Адмирала Юмашева,690037,43.1250711,131.9448186
16Б,улица Адмирала Юмашева,690037,43.1250892,131.9457223
16Г,улица Адмирала Юмашева,690037,43.1263425,131.9455361
16,улица Адмирала Юмашева,690037,43.1259026,131.9455248
18,улица Адмирала Юмашева,690037,43.1259144,131.9464584
18А,улица Адмирала Юмашева,690037,43.1254028,131.9461121
20А,улица Адмирала Юмашева,690037,43.1254146,131.9470299
22,улица Адмирала Юмашева,690037,43.1254447,131.9479876
20,улица Адмирала Юмашева,690037,43.1259418,131.9473795
16А,улица Адмирала Юмашева,690037,43.1253869,131.9452017
22А,улица Адмирала Юмашева,690037,43.1251462,131.9485034
26А,улица Адмирала Юмашева,690037,43.1251587,131.9494256
24,улица Адмирала Юмашева,690037,43.1254491,131.9489306
24А,улица Адмирала Юмашева,690037,43.1258897,131.9495803
28,улица Адмирала Юмашева,690037,43.1260195,131.9514382
26,улица Адмирала Юмашева,690037,43.1259510,131.9505550
30,улица Адмирала Юмашева,690037,43.1254376,131.9518883
28А,улица Адмирала Юмашева,690037,43.1253739,131.9511513
34,улица Адмирала Юмашева,690037,43.1255541,131.9534053
38,улица Адмирала Юмашева,690037,43.1253756,131.9550148
36,улица Адмирала Юмашева,690037,43.1254418,131.9542905
32,улица Адмирала Юмашева,690037,43.1254955,131.9526726
40,улица Адмирала Юмашева,690037,43.1253750,131.9555543
108Б,Светланская улица,690001,43.1120411,131.9215320
108А,Светланская улица,690001,43.1120772,131.9205725
1,Некрасовский переулок,690091,43.1184380,131.8936843
179,Светланская улица,690001,43.1124679,131.9266451
181,Светланская улица,690005,43.1125154,131.9272471
183В,Светланская улица,690001,43.1125745,131.9277275
183,Светланская улица,690005,43.1128319,131.9280068
189,Светланская улица,690005,43.1128559,131.9289043
13,Горная улица,690005,43.1140626,131.9303089
33/1,Луговая улица,690005,43.1141744,131.9355116
39А,улица Гоголя,690014,43.1238965,131.9049243
44 к2,Партизанский проспект,690106,43.1269937,131.9041909
26А с1,улица Адмирала Юмашева,690037,43.1252067,131.9505041
22В,улица Адмирала Юмашева,690037,43.1261396,131.9482809
12Г,улица Адмирала Юмашева,690037,43.1247558,131.9442163
12А,улица Адмирала Юмашева,690037,43.1268924,131.9432492
12,улица Адмирала Юмашева,690037,43.1267900,131.9440735
10,улица Адмирала Юмашева,690037,43.1267987,131.9426233
8,улица Адмирала Юмашева,690037,43.1269717,131.9418423
14К,улица Адмирала Юмашева,690037,43.1259877,131.9433925
61,Луговая улица,690087,43.1229994,131.9376436
55,Луговая улица,690005,43.1202969,131.9366571
52Е,Луговая улица,690087,43.1296525,131.9419597
23А,улица Каплунова,690013,43.1132863,131.9520826
17,улица Невельского,690013,43.1123429,131.9527254
13,улица Адмирала Невельского,690013,43.1101972,131.9494726
11,улица Невельского,690013,43.1105196,131.9486888
20 с1,улица Адмирала Спиридонова,690013,43.1131683,131.9401232
75,проспект Красного Знамени,690014,43.1282462,131.9127368
73,проспект Красного Знамени,690014,43.1273967,131.9127127
71,проспект Красного Знамени,690014,43.1277894,131.9122238
19Б,Сахалинская улица,690080,43.0921679,131.9668511
33А,Пушкинская улица,690091,43.1162187,131.9022450
6А,Ивановская улица,690005,43.1117059,131.9351373
7,улица Кирова,690039,43.1701961,131.9099832
21/1,улица Кирова,690039,43.1721285,131.9091489
17,улица Кирова,690039,43.1716711,131.9085579
1,Енисейская улица,690039,43.1723103,131.9080618
2,Енисейская улица,690039,43.1718796,131.9076987
3,Енисейская улица,690039,43.1712764,131.9071933
4,Енисейская улица,690039,43.1705178,131.9068254
5,Енисейская улица,690039,43.1702547,131.9066864
6,Енисейская улица,690039,43.1699842,131.9066063
7,Енисейская улица,690039,43.1697089,131.9065989
11,Енисейская улица,690039,43.1710665,131.9046411
14Б,Енисейская улица,690039,43.1699692,131.9039118
14А,Енисейская улица,690039,43.1696774,131.9038440
23А,Енисейская улица,690039,43.1661544,131.9035912
29,Карякинская улица,690005,43.1135316,131.9272178
6,улица Ковальчука,690001,43.1129801,131.9268384
167А,Светланская улица,690001,43.1132835,131.9228910
10А,улица Карла Либкнехта,690001,43.1134107,131.9221423
11/13,улица Муравьёва-Амурского,690001,43.1137086,131.9243815
5,улица Муравьёва-Амурского,690001,43.1128758,131.9243737
7/9,улица Муравьёва-Амурского,690001,43.1131725,131.9243833
157,Светланская улица,690001,43.1125361,131.9198969
4,Абрекская улица,690001,43.1129208,131.9192916
275А,улица Калинина,690021,43.0933773,131.9030379
14,улица 40 лет ВЛКСМ,690016,43.1006109,131.9409574
5,улица Марины Расковой,690016,43.0974798,131.9398041
7,улица Марины Расковой,690016,43.0970344,131.9396561
4,улица Марины Расковой,690016,43.0976418,131.9385684
4/1,улица Героев Хасана,690016,43.0993735,131.9409659
9,улица Марины Расковой,690016,43.0965329,131.9398440
6,улица Марины Расковой,690016,43.0969611,131.9386179
1,улица Часовитина,690016,43.0959552,131.9395808
3,улица Часовитина,690016,43.0956958,131.9402702
5,улица Часовитина,690016,43.0954757,131.9409906
9,улица Часовитина,690016,43.0945712,131.9419132
13,улица Часовитина,690016,43.0948293,131.9439357
11,улица Часовитина,690016,43.0946824,131.9431535
15,улица Часовитина,690016,43.0951264,131.9449156
17,улица Часовитина,690016,43.0953585,131.9457701
16,Чукотская улица,690011,43.0947829,131.9462990
10,улица Часовитина,690016,43.0945384,131.9473526
12,улица Часовитина,690016,43.0939721,131.9477170
71,улица Гризодубовой,690016,43.0955283,131.9477677
65,улица Гризодубовой,690016,43.0961375,131.9461890
63,улица Гризодубовой,690016,43.0963657,131.9459150
61,улица Гризодубовой,690016,43.0966786,131.9458730
27,улица Часовитина,690016,43.0973475,131.9460495
25,улица Часовитина,690016,43.0978513,131.9454037
23,улица Часовитина,690016,43.0975458,131.9446604
51,улица Гризодубовой,690016,43.0984683,131.9449252
53,улица Гризодубовой,690016,43.0983829,131.9459632
55,улица Гризодубовой,690016,43.0976279,131.9469543
6,улица Сафонова,690016,43.0982085,131.9471753
22,улица Героев Хасана,690016,43.0995145,131.9471142
20,улица Героев Хасана,690016,43.0997348,131.9466457
1,улица Талалихина,690016,43.0992228,131.9466431
2А,Сахалинская улица,690080,43.0969994,131.9659651
1В с3,Сахалинская улица,690080,43.0986513,131.9672716
2,улица Борисенко,690016,43.1033972,131.9357873
13,улица Вилкова,690077,43.0990910,131.9244600
30А,улица 50 лет ВЛКСМ,690077,43.0984060,131.9269269
30В,улица 50 лет ВЛКСМ,690077,43.0980187,131.9253893
14,улица Коммунаров,690077,43.0963297,131.9274484
5А,улица Слуцкого,690017,43.0955986,131.9282432
30Б,улица 50 лет ВЛКСМ,690077,43.0983454,131.9260690
21 с1,улица Коммунаров,690017,43.0933024,131.9288020
32,улица Коммунаров,690017,43.0937085,131.9274216
32А,улица Коммунаров,690017,43.0932564,131.9269784
36,улица Коммунаров,690017,43.0926804,131.9274405
23,улица Коммунаров,690017,43.0908776,131.9273533
25,улица Коммунаров,690017,43.0902507,131.9270827
27,улица Коммунаров,690017,43.0893010,131.9269634
29,улица Коммунаров,690017,43.0885832,131.9268670
20В,улица Героев-Тихоокеанцев,690017,43.0876586,131.9230991
20А,улица Героев-Тихоокеанцев,690017,43.0873366,131.9222605
20Б,улица Героев-Тихоокеанцев,690017,43.0878770,131.9223124
16,улица Героев-Тихоокеанцев,690017,43.0885612,131.9228413
22,улица Героев-Тихоокеанцев,690017,43.0886245,131.9222546
18,улица Героев-Тихоокеанцев,690017,43.0894259,131.9219069
20,улица Героев-Тихоокеанцев,690017,43.0887949,131.9213409
24,улица Героев-Тихоокеанцев,690017,43.0894826,131.9211076
26,улица Героев-Тихоокеанцев,690017,43.0901552,131.9213809
28,улица Героев-Тихоокеанцев,690017,43.0907986,131.9216629
4,Кипарисовая улица,690017,43.0879106,131.9175541
11,Каштановая улица,690017,43.0880553,131.9155767
13,Каштановая улица,690017,43.0879073,131.9144558
15,Каштановая улица,690017,43.0876360,131.9132589
21,Каштановая улица,690017,43.0868445,131.9112712
11/1,Поселковый переулок,690063,43.0875896,131.9101224
12,Поселковый переулок,690063,43.0874488,131.9096301
9/2,Поселковый переулок,690063,43.0876835,131.9098332
85,проспект Красного Знамени,690014,43.1271840,131.9137602
8,Поселковый переулок,690063,43.0876404,131.9091093
28,улица Адмирала Макарова,690063,43.0889463,131.9082313
6,Поселковый переулок,690063,43.0877637,131.9088906
5,Поселковый переулок,690063,43.0880472,131.9087664
2А,Поселковый переулок,690063,43.0878935,131.9083511
1,Поселковый переулок,690063,43.0882269,131.9085349
30,улица Адмирала Макарова,690063,43.0888621,131.9085582
26,улица Адмирала Макарова,690063,43.0890167,131.9078169
24,улица Адмирала Макарова,690063,43.0890999,131.9075394
22,улица Адмирала Макарова,690063,43.0891762,131.9071361
20,улица Адмирала Макарова,690063,43.0892834,131.9067552
18,улица Адмирала Макарова,690063,43.0892720,131.9065359
15,улица Адмирала Макарова,690063,43.0890688,131.9061812
16А,улица Адмирала Макарова,690063,43.0894745,131.9058501
13,улица Адмирала Макарова,690063,43.0891084,131.9058610
16,улица Адмирала Макарова,690063,43.0893927,131.9063094
15А,улица Гастелло,690063,43.0901139,131.9061595
15,улица Гастелло,690063,43.0900579,131.9064366
17,улица Гастелло,690063,43.0899761,131.9067283
2,улица Гастелло,690063,43.0903826,131.9064726
21,улица Гастелло,690063,43.0897746,131.9071462
27/2,улица Гастелло,690063,43.0896479,131.9081352
39,Окатовая улица,690017,43.0899429,131.9137220
37,Окатовая улица,690017,43.0903242,131.9144131
60,Окатовая улица,690017,43.0904816,131.9138092
56,Окатовая улица,690017,43.0907614,131.9143811
54,Окатовая улица,690017,43.0910979,131.9149459
35,Окатовая улица,690017,43.0907580,131.9151858
46,Окатовая улица,690017,43.0923396,131.9168622
22,Кипарисовая улица,690017,43.0913003,131.9172587
20,Кипарисовая улица,690017,43.0918276,131.9182581
18,Кипарисовая улица,690017,43.0919387,131.9192084
5А,Каштановая улица,690017,43.0902868,131.9182092
6,Кипарисовая улица,690017,43.0890567,131.9196570
16А,Кипарисовая улица,690017,43.0914659,131.9207378
90,Океанский проспект,690002,43.1320015,131.9016447
120А,проспект Красного Знамени,690066,43.1197686,131.9297096
118В,проспект Красного Знамени,690066,43.1201260,131.9292825
118,проспект Красного Знамени,690066,43.1207116,131.9285359
116,проспект Красного Знамени,690066,43.1209921,131.9270854
114,проспект Красного Знамени,690066,43.1214830,131.9269478
104,проспект Красного Знамени,690014,43.1233869,131.9216043
100,проспект Красного Знамени,690014,43.1241177,131.9200663
98,проспект Красного Знамени,690014,43.1244513,131.9189882
96,проспект Красного Знамени,690014,43.1246389,131.9182275
113,проспект Красного Знамени,690014,43.1254621,131.9182841
19,Партизанский проспект,690106,43.1275642,131.8998662
17,Партизанский проспект,690106,43.1273186,131.8992937
13,Партизанский проспект,690106,43.1268939,131.8981842
15,Партизанский проспект,690106,43.1271023,131.8987252
2А,Партизанский проспект,690106,43.1233038,131.8921050
4,Нерчинская улица,690106,43.1229295,131.8933033
47,Фонтанная улица,690091,43.1198241,131.8876348
109,Светланская улица,690001,43.1153542,131.9084621
78,Светланская улица,690091,43.1146047,131.9090381
80,Светланская улица,690091,43.1139556,131.9099921
80А,Светланская улица,690091,43.1137283,131.9105871
1,Дальзаводская улица,690001,43.1131358,131.9111179
125,Светланская улица,690001,43.1135928,131.9127486
127,Светланская улица,690001,43.1134799,131.9133173
161А,Светланская улица,690001,43.1125625,131.9210859
7,улица Котельникова,690087,43.1288690,131.9274592
123А,Светланская улица,690001,43.1142186,131.9121831
8,улица Володарского,690001,43.1168950,131.9078712
22,улица Всеволода Сибирцева,690001,43.1171542,131.9029531
20А,улица Всеволода Сибирцева,690091,43.1168380,131.9025441
22,Пушкинская улица,690001,43.1163524,131.9039480
39,Пушкинская улица,690001,43.1167862,131.9035113
18,Пушкинская улица,690001,43.1161138,131.9032703
16,Пушкинская улица,690001,43.1160241,131.9029375
29Б,Пушкинская улица,690001,43.1160895,131.9014903
25А,Пушкинская улица,690091,43.1156437,131.8998189
8,Пушкинская улица,690091,43.1150841,131.8993625
23,Пушкинская улица,690091,43.1153697,131.8991544
6,Пушкинская улица,690091,43.1148044,131.8985633
17,Пушкинская улица,690091,43.1150564,131.8979418
13,Пушкинская улица,690091,43.1149810,131.8971030
15/2,Пушкинская улица,690091,43.1152110,131.8974682
8,улица Луцкого,690091,43.1154767,131.8973730
6,улица Суханова,690091,43.1175750,131.8910777
9,Аксаковская улица,690014,43.1185783,131.8974440
5,Некрасовский переулок,690091,43.1185573,131.8957323
3,Некрасовский переулок,690091,43.1186240,131.8949864
5,Почтовый переулок,690091,43.1153546,131.8902968
7/2,Почтовый переулок,690091,43.1154370,131.8908523
8,Почтовый переулок,690091,43.1152568,131.8917346
53,Светланская улица,690091,43.1144285,131.8938872
55,Светланская улица,690091,43.1143685,131.8943767
13,улица Терешковой,690035,43.0947998,131.9161856
17,улица Терешковой,690035,43.0940392,131.9168115
21,улица Терешковой,690035,43.0937106,131.9178452
22,улица Терешковой,690035,43.0940684,131.9159029
18,улица Терешковой,690035,43.0948380,131.9148887
20,улица Терешковой,690035,43.0945131,131.9153104
59,Светланская улица,690091,43.1141174,131.8953982
63,Светланская улица,690091,43.1141392,131.8960694
73,Светланская улица,690091,43.1146980,131.9000982
66,Светланская улица,690091,43.1144429,131.9009969
65,проспект Красного Знамени,690014,43.1274295,131.9122323
65,проспект Красного Знамени,690014,43.1273277,131.9115470
7 с1,Кизлярская улица,690012,43.1025951,131.9035786
91,улица Калинина,690012,43.1034272,131.9050222
89,улица Калинина,690012,43.1033161,131.9055308
57Б,улица Калинина,690012,43.1019620,131.9089001
33,проспект 100-летия Владивостока,690048,43.1499080,131.9060483
35,проспект 100-летия Владивостока,690048,43.1502634,131.9063387
37,проспект 100-летия Владивостока,690048,43.1506118,131.9065952
31,проспект 100-летия Владивостока,690048,43.1495342,131.9058358
44 к3,Партизанский проспект,690106,43.1272285,131.9035052
14,Октябрьская улица,690091,43.1237562,131.8891129
40,Нерчинская улица,690106,43.1245794,131.8988145
42,Нерчинская улица,690106,43.1240247,131.8987829
59А,улица Державина,690014,43.1247201,131.9041738
121,проспект Красного Знамени,690014,43.1247933,131.9205503
109,проспект Красного Знамени,690014,43.1259600,131.9175098
111,проспект Красного Знамени,690014,43.1258611,131.9189773
107,проспект Красного Знамени,690014,43.1260513,131.9165782
94,проспект Красного Знамени,690014,43.1246669,131.9174744
92,проспект Красного Знамени,690014,43.1241180,131.9175477
91,проспект Красного Знамени,690014,43.1265044,131.9147952
93,проспект Красного Знамени,690014,43.1264533,131.9157123
95,проспект Красного Знамени,690014,43.1268622,131.9154137
11Б,Народный проспект,690014,43.1246825,131.9220990
11В,Народный проспект,690014,43.1239833,131.9229201
30,улица Толстого,690014,43.1197430,131.9131951
76А,Некрасовская улица,690014,43.1247751,131.9115415
50,Некрасовская улица,690014,43.1212507,131.9072157
29,Некрасовская улица,690014,43.1221802,131.9064317
46,Некрасовская улица,690014,43.1202478,131.9080827
19,улица Гоголя,690014,43.1211344,131.9015682
21,Нерчинская улица,690106,43.1238604,131.8941548
23,Семёновская улица,690091,43.1184049,131.8857239
18,Октябрьская улица,690091,43.1234467,131.8901032
20,Октябрьская улица,690091,43.1233529,131.8905908
16,Октябрьская улица,690091,43.1235486,131.8895810
1,Казанская улица,690065,43.0958831,131.8618219
7,улица Каплунова,690013,43.1144496,131.9455579
20А,улица Давыдова,690069,43.1731418,131.9209369
24,улица Давыдова,690069,43.1731445,131.9214654
16,улица Давыдова,690069,43.1724974,131.9217501
12,улица Давыдова,690069,43.1719681,131.9198364
28,улица Давыдова,690105,43.1731068,131.9227042
30,улица Давыдова,690105,43.1721994,131.9227729
28А,улица Давыдова,690105,43.1730690,131.9232672
28Б,улица Давыдова,690105,43.1730281,131.9238368
28В,улица Давыдова,690105,43.1729857,131.9243814
32,улица Давыдова,690069,43.1731393,131.9220552
34,улица Давыдова,690105,43.1728914,131.9249239
18 с1,улица Давыдова,690069,43.1732221,131.9199805
14,улица Давыдова,690069,43.1724765,131.9203942
14А,улица Давыдова,690069,43.1721175,131.9210590
10,улица Давыдова,690069,43.1714099,131.9202847
10А,улица Давыдова,690069,43.1714057,131.9208725
6А,улица Давыдова,690069,43.1707641,131.9205803
30А,улица Давыдова,690105,43.1722102,131.9237673
4,улица Давыдова,690069,43.1700380,131.9195427
6,улица Давыдова,690069,43.1705751,131.9198545
8А,улица Давыдова,690069,43.1713517,131.9197266
8,улица Давыдова,690069,43.1710721,131.9199039
22,улица Давыдова,690069,43.1737045,131.9211227
20,улица Давыдова,690069,43.1735116,131.9204348
8,улица Каплунова,690013,43.1118912,131.9467567
17,улица Каплунова,690013,43.1127292,131.9492705
15,улица Каплунова,690013,43.1131275,131.9482527
13,улица Каплунова,690013,43.1125765,131.9479007
23,улица Каплунова,690013,43.1132085,131.9509307
90,улица Адмирала Кузнецова,690013,43.1152908,131.9526475
112,проспект 100-летия Владивостока,690069,43.1733614,131.9187238
110,проспект 100-летия Владивостока,690069,43.1737813,131.9188156
40,улица Давыдова,690105,43.1745395,131.9257252
36,улица Давыдова,690105,43.1734098,131.9256122
42,улица Давыдова,690105,43.1741798,131.9267691
11,улица Давыдова,690069,43.1766643,131.9214751
134А,проспект 100-летия Владивостока,690069,43.1787373,131.9216836
22А,улица Давыдова,690069,43.1744621,131.9214156
38,улица Давыдова,690105,43.1728164,131.9259082
90,проспект 100-летия Владивостока,690069,43.1694646,131.9161932
3,улица Давыдова,690069,43.1697843,131.9183178
98А,проспект 100-летия Владивостока,690069,43.1708695,131.9178448
5 с1,улица Давыдова,690069,43.1703828,131.9185986
5,улица Давыдова,690069,43.1707771,131.9189647
100А,проспект 100-летия Владивостока,690069,43.1716012,131.9178653
94,проспект 100-летия Владивостока,690069,43.1708816,131.9168712
100,проспект 100-летия Владивостока,690069,43.1712465,131.9170432
106Б,проспект 100-летия Владивостока,690069,43.1735459,131.9177302
118,проспект 100-летия Владивостока,690069,43.1752840,131.9186659
116,проспект 100-летия Владивостока,690069,43.1749638,131.9191624
120А,проспект 100-летия Владивостока,690069,43.1757619,131.9195034
7,улица Давыдова,690069,43.1743805,131.9192653
120,проспект 100-летия Владивостока,690069,43.1759025,131.9188173
124,проспект 100-летия Владивостока,690069,43.1764409,131.9193948
126,проспект 100-летия Владивостока,690069,43.1768479,131.9196343
128,проспект 100-летия Владивостока,690069,43.1772773,131.9197254
128А,проспект 100-летия Владивостока,690069,43.1777881,131.9196068
150,проспект 100-летия Владивостока,690069,43.1806300,131.9212332
68/1,Русская улица,690049,43.1688716,131.9225523
70,Русская улица,690049,43.1688698,131.9233198
72,Русская улица,690049,43.1688823,131.9241071
3А,улица Кутузова,690049,43.1676624,131.9238482
5В,улица Кутузова,690049,43.1672206,131.9243456
5Б,улица Кутузова,690049,43.1670639,131.9237776
5А,улица Кутузова,690049,43.1668650,131.9231524
7,улица Кутузова,690049,43.1661560,131.9231178
5,улица Каплунова,690013,43.1154032,131.9440015
15,улица Адмирала Спиридонова,690013,43.1168007,131.9435282
1,улица Каплунова,690013,43.1155710,131.9431271
82,улица Адмирала Кузнецова,690013,43.1146380,131.9478520
78,улица Адмирала Кузнецова,690013,43.1153971,131.9457130
20,Посьетская улица,690003,43.1101953,131.8789104
92,улица Адмирала Кузнецова,690013,43.1164344,131.9525284
11,улица Каплунова,690013,43.1142387,131.9470215
22,улица Адмирала Спиридонова,690013,43.1138879,131.9403838
16,улица Шепеткова,690013,43.1137569,131.9396465
23,Нерчинская улица,690106,43.1243501,131.8954736
27,Нерчинская улица,690106,43.1251942,131.8977593
29А,улица Калинина,690035,43.1015464,131.9226084
29,улица Калинина,690035,43.1020508,131.9226496
41,улица Калинина,690035,43.1012565,131.9173265
39,улица Калинина,690035,43.1012578,131.9181305
35,улица Калинина,690035,43.1016344,131.9204716
33,улица Калинина,690035,43.1021102,131.9209730
31,улица Калинина,690035,43.1018642,131.9217916
52,Интернациональная улица,690035,43.1008272,131.9170684
50,Интернациональная улица,690035,43.1008027,131.9177284
12В,улица Фадеева,690034,43.1039198,131.9450450
14Б,улица Фадеева,690034,43.1032827,131.9462914
16А,улица Фадеева,690034,43.1030255,131.9469330
16,улица Фадеева,690034,43.1033453,131.9475369
12,улица Фадеева,690034,43.1044316,131.9451097
65,Интернациональная улица,690035,43.1001540,131.9155987
69,Интернациональная улица,690035,43.0996848,131.9141440
71,Интернациональная улица,690035,43.0993129,131.9133865
59,Интернациональная улица,690035,43.1000273,131.9190032
57,Интернациональная улица,690035,43.1000025,131.9198598
61,Интернациональная улица,690035,43.0999827,131.9178462
63,Интернациональная улица,690035,43.1000466,131.9167394
12А,улица Фадеева,690034,43.1041119,131.9445522
14,улица Фадеева,690034,43.1038727,131.9463140
14А,улица Фадеева,690034,43.1035143,131.9456758
14В,улица Фадеева,690034,43.1029021,131.9452104
14Г,улица Фадеева,690034,43.1025910,131.9460976
18В,улица Фадеева,690034,43.1022847,131.9468745
6А,улица Фадеева,690034,43.1049636,131.9423188
6В,улица Фадеева,690034,43.1047441,131.9428544
8А,улица Фадеева,690034,43.1045713,131.9433196
53,Интернациональная улица,690035,43.1000620,131.9218597
55,Интернациональная улица,690035,43.1002982,131.9209101
64,Интернациональная улица,690035,43.1000970,131.9125118
10Б,улица Фадеева,690034,43.1035128,131.9437597
275В,улица Калинина,690063,43.0930063,131.9035008
26,улица Терешковой,690035,43.0934426,131.9167278
7,улица Терешковой,690035,43.0960790,131.9148616
9,улица Терешковой,690035,43.0953172,131.9153974
24,улица Терешковой,690035,43.0937554,131.9162948
10А,улица Фадеева,690034,43.1043036,131.9440037
6Г,улица Фадеева,690034,43.1039528,131.9425688
6Б,улица Фадеева,690034,43.1041988,131.9419872
8Б,улица Фадеева,690034,43.1037633,131.9430326
8Д,улица Фадеева,690034,43.1031735,131.9428714
6Д,улица Фадеева,690034,43.1033724,131.9421213
6,улица Фадеева,690034,43.1053001,131.9427804
4,улица Фадеева,690034,43.1057854,131.9425974
8,улица Фадеева,690034,43.1051463,131.9438502
10,улица Фадеева,690034,43.1048912,131.9442940
22,улица Воропаева,690034,43.1053682,131.9458646
22 с2,улица Воропаева,690034,43.1050110,131.9456804
1,Горийская улица,690034,43.1104382,131.9417875
1,Владикавказская улица,690034,43.1105052,131.9426629
5,Владикавказская улица,690034,43.1109406,131.9433753
6,Горийская улица,690034,43.1097472,131.9427066
6Б,Горийская улица,690034,43.1096601,131.9432258
9А,улица Трудовых Резервов,690034,43.1095065,131.9435194
13,улица Приходько,690034,43.1091816,131.9415448
17,улица Борисенко,690016,43.1015213,131.9450863
8В,улица Шепеткова,690013,43.1118836,131.9395263
8,улица Шепеткова,690013,43.1113262,131.9398040
6,улица Адмирала Невельского,690013,43.1113378,131.9410619
8,улица Адмирала Невельского,690013,43.1115406,131.9414833
4,улица Невельского,690013,43.1120850,131.9410143
28,Ивановская улица,690013,43.1117918,131.9432863
5,Краснознамённый переулок,690091,43.1185090,131.8875084
9А,Почтовый переулок,690035,43.1160199,131.8919843
17А,улица Борисенко,690016,43.1020385,131.9447601
20,улица Борисенко,690016,43.1009114,131.9442067
16,улица Борисенко,690016,43.1009875,131.9430836
41,улица Гризодубовой,690016,43.0987137,131.9407796
7,улица Трудовых Резервов,690034,43.1090066,131.9435231
3,Камская улица,690062,43.1402330,131.9157929
2,Днепровский переулок,690062,43.1456704,131.9173521
18,проспект 100-летия Владивостока,690062,43.1436851,131.9082739
32,Днепровская улица,690062,43.1448549,131.9116865
6 к7,Камский переулок,690062,43.1433987,131.9139074
1,Днепровская улица,690062,43.1455318,131.9081646
7,Днепровская улица,690062,43.1449055,131.9096435
7,Днепровский переулок,690062,43.1439508,131.9157097
1/3,Камский переулок,690062,43.1414521,131.9101665
6 к11,Камский переулок,690062,43.1405525,131.9126393
5Б,Камская улица,690062,43.1403354,131.9169801
5,Камский переулок,690062,43.1421902,131.9108565
1Б,Камская улица,690062,43.1386320,131.9153622
3,Днепровская улица,690062,43.1453085,131.9086585
3,Камский переулок,690062,43.1418288,131.9105297
5,Днепровская улица,690062,43.1451044,131.9091545
18А,проспект 100-летия Владивостока,690062,43.1433208,131.9086423
6 к15,Камский переулок,690062,43.1418909,131.9142852
5/1,Днепровский переулок,690062,43.1453309,131.9165014
6 к10,Камский переулок,690062,43.1414034,131.9115657
2А,Днепровская улица,690062,43.1440870,131.9087192
7,улица Героев Варяга,690089,43.1608803,131.9292102
7,улица Постышева,690048,43.1561652,131.9141314
43,улица Постышева,690033,43.1571489,131.9227905
36,Иртышская улица,690089,43.1628909,131.9279930
24А,улица Гамарника,690033,43.1575054,131.9164134
32А,Иртышская улица,690089,43.1621591,131.9267149
15,Днепропетровская улица,690089,43.1601915,131.9271543
15,улица Постышева,690048,43.1560408,131.9155167
31,улица Постышева,690033,43.1562906,131.9192804
5А,улица Колесника,690048,43.1545268,131.9126000
41,проспект 100-летия Владивостока,690048,43.1514043,131.9072043
32,Иртышская улица,690089,43.1626517,131.9269158
5,улица Постышева,690048,43.1562249,131.9135525
45,проспект 100-летия Владивостока,690048,43.1526312,131.9083085
26,улица Ильичёва,690048,43.1525342,131.9123521
17,улица Гамарника,690033,43.1583579,131.9189659
25,улица Постышева,690048,43.1564068,131.9173268
3,улица Постышева,690048,43.1565855,131.9130727
43,проспект 100-летия Владивостока,690048,43.1518537,131.9077024
7,улица Гамарника,690033,43.1596229,131.9219071
18,Иртышская улица,690089,43.1616225,131.9228728
27,улица Постышева,690048,43.1560378,131.9177955
19,улица Постышева,690048,43.1557925,131.9165598
15А,Невская улица,690018,43.1499610,131.9159218
53,проспект 100-летия Владивостока,690048,43.1548621,131.9097308
6,улица Шошина,690089,43.1501782,131.9276749
95В,Днепровская улица,690089,43.1481414,131.9299742
6,улица Карбышева,690048,43.1549152,131.9212051
97А,Днепровская улица,690089,43.1488676,131.9319683
31,Южно-Уральская улица,690048,43.1491536,131.9131641
27,Южно-Уральская улица,690048,43.1496609,131.9134423
24,Иртышская улица,690089,43.1619966,131.9240985
33,улица Постышева,690033,43.1563951,131.9198549
39,улица Постышева,690033,43.1567636,131.9218403
20,Иртышская улица,690089,43.1617651,131.9234616
29,улица Постышева,690033,43.1561841,131.9186546
12,Невская улица,690048,43.1497161,131.9142260
33,Невская улица,690018,43.1485939,131.9193426
30А,Иртышская улица,690089,43.1623073,131.9254246
32/3,Иртышская улица,690089,43.1607315,131.9261426
26,Иртышская улица,690089,43.1609754,131.9243442
24,улица Ильичёва,690048,43.1520292,131.9123987
34,Иртышская улица,690089,43.1627626,131.9274307
36А,Иртышская улица,690089,43.1626340,131.9287529
22,улица Гамарника,690033,43.1567591,131.9157267
32/4,Иртышская улица,690089,43.1600982,131.9264168
40/2,Иртышская улица,690089,43.1614239,131.9297456
24Б,улица Гамарника,690033,43.1574181,131.9158860
43А,проспект 100-летия Владивостока,690048,43.1523396,131.9077477
13,улица Гамарника,690033,43.1591861,131.9187896
97,Днепровская улица,690089,43.1485573,131.9323677
18,Днепропетровская улица,690089,43.1591222,131.9270059
5А,улица Гамарника,690033,43.1587034,131.9221104
21,улица Постышева,690048,43.1562901,131.9166996
32/2,Иртышская улица,690089,43.1611274,131.9267027
11,улица Постышева,690048,43.1560408,131.9148162
9,улица Гамарника,690033,43.1594468,131.9208578
10,Невская улица,690048,43.1498463,131.9137965
23,улица Постышева,690048,43.1559166,131.9171967
15,Невская улица,690018,43.1496351,131.9157862
39А,проспект 100-летия Владивостока,690048,43.1512489,131.9063958
22,Иртышская улица,690089,43.1610644,131.9237886
99В,Днепровская улица,690089,43.1502610,131.9322984
14,Невская улица,690048,43.1495719,131.9147993
40,Иртышская улица,690089,43.1619507,131.9292325
29,Южно-Уральская улица,690018,43.1494001,131.9132934
28,Иртышская улица,690089,43.1621842,131.9248539
41,улица Постышева,690033,43.1569501,131.9223187
11,улица Гамарника,690033,43.1592986,131.9198021
38,Иртышская улица,690089,43.1630318,131.9285316
49,проспект 100-летия Владивостока,690048,43.1538641,131.9089273
30,Иртышская улица,690089,43.1625081,131.9262018
41,улица Шошина,690089,43.1520944,131.9311739
16,Невская улица,690048,43.1492278,131.9157260
52,улица Жигура,690088,43.1314117,131.9246159
50,улица Жигура,690088,43.1320652,131.9258838
44,улица Жигура,690088,43.1305234,131.9234111
42,улица Жигура,690088,43.1295186,131.9232443
54,улица Жигура,690087,43.1305633,131.9264949
55А,улица Калинина,690035,43.1009803,131.9115010
66,улица Станюковича,690003,43.1028351,131.8641190
12,улица Станюковича,690003,43.1093838,131.8755680
34,улица Жигура,690088,43.1308259,131.9218221
48,улица Карла Жигура,690088,43.1327997,131.9257647
40А,улица Адмирала Кузнецова,690037,43.1244140,131.9562126
11,улица Адмирала Юмашева,690037,43.1261536,131.9562826
37А,улица Адмирала Юмашева,690037,43.1253201,131.9575401
11А,улица Адмирала Юмашева,690037,43.1253277,131.9574111
18В,улица Гамарника,690033,43.1582216,131.9150502
32,улица Шепеткова,690013,43.1151119,131.9400883
18,улица Шепеткова,690013,43.1145891,131.9399131
34/36,улица Шепеткова,690013,43.1155208,131.9402321
38,улица Шепеткова,690013,43.1160570,131.9403496
27,улица Шепеткова,690013,43.1151216,131.9395939
29,улица Шепеткова,690013,43.1155614,131.9397498
31,улица Шепеткова,690013,43.1159827,131.9398809
25,улица Шепеткова,690013,43.1147595,131.9394658
40,улица Шепеткова,690013,43.1160088,131.9409281
14,улица Шепеткова,690013,43.1129350,131.9395354
9,улица Ладыгина,690000,43.1220456,131.9542748
91,Луговая улица,690087,43.1313445,131.9422328
56А,Луговая улица,690087,43.1320112,131.9439787
52Б кЛ,Луговая улица,690087,43.1283157,131.9438808
52Д,Луговая улица,690087,43.1281403,131.9443234
52Г,Луговая улица,690087,43.1300146,131.9430992
54,Луговая улица,690087,43.1312001,131.9434390
52,Луговая улица,690087,43.1306174,131.9425948
48,Луговая улица,690087,43.1302211,131.9439493
66,Луговая улица,690087,43.1312711,131.9450883
11,улица Вице-Адмирала Сабанеева,690087,43.1307515,131.9458192
50,Луговая улица,690087,43.1290559,131.9452184
13,улица Вице-Адмирала Сабанеева,690087,43.1315308,131.9469394
21,улица Котельникова,690087,43.1272996,131.9361626
18,улица Котельникова,690087,43.1298114,131.9336282
30,улица Котельникова,690087,43.1287470,131.9371172
14,улица Котельникова,690087,43.1303814,131.9339175
17,улица Котельникова,690087,43.1283956,131.9345839
15,улица Котельникова,690087,43.1281472,131.9338016
22,улица Котельникова,690087,43.1297500,131.9351262
24,улица Котельникова,690087,43.1295796,131.9363224
20,улица Котельникова,690087,43.1301549,131.9353355
13,улица Котельникова,690087,43.1290104,131.9332486
53А,улица Нейбута,690109,43.1130390,131.9607992
51 с1,улица Нейбута,690109,43.1118977,131.9614346
47А,улица Нейбута,690109,43.1107349,131.9620570
14,улица Воропаева,690034,43.1062208,131.9436840
12А,улица Воропаева,690034,43.1064978,131.9432499
18,улица Воропаева,690034,43.1058912,131.9444717
8,улица Приходько,690034,43.1083326,131.9423725
56А,улица Адмирала Кузнецова,690037,43.1231964,131.9474045
2 с2,улица Громова,690034,43.1110656,131.9446815
4 с11,Ивановская улица,690005,43.1101661,131.9311317
12 с1,улица Громова,690034,43.1094457,131.9446739
6,Киевская улица,690077,43.1019275,131.9303544
5,улица Калинина,690077,43.1030083,131.9301564
2А,Новоивановская улица,690005,43.1101846,131.9336667
15,улица Приходько,690034,43.1090901,131.9420503
54А,улица Адмирала Кузнецова,690037,43.1234491,131.9484284
10,улица Громова,690034,43.1098663,131.9471160
4 с4,Ивановская улица,690005,43.1113136,131.9311365
14,Киевская улица,690077,43.1023944,131.9303005
56,улица Адмирала Кузнецова,690037,43.1227062,131.9483298
7,улица Калинина,690077,43.1025742,131.9294862
4 с12,Ивановская улица,690005,43.1100765,131.9298462
8,Киевская улица,690077,43.1017809,131.9296563
50А,улица Адмирала Кузнецова,690037,43.1237688,131.9507896
8,улица Громова,690034,43.1102762,131.9465091
52,улица Адмирала Кузнецова,690037,43.1231609,131.9502850
1,улица Калинина,690077,43.1025579,131.9311277
3,улица Трудовых Резервов,690034,43.1082214,131.9427552
2А,улица Калинина,690077,43.1035328,131.9339572
4 с5,Ивановская улица,690005,43.1114225,131.9322646
10,Киевская улица,690077,43.1020531,131.9296534
4,улица Громова,690034,43.1108105,131.9452925
4 с1,Ивановская улица,690005,43.1107965,131.9308378
12,Киевская улица,690077,43.1023131,131.9295856
6,улица Приходько,690034,43.1084647,131.9420315
3А,Новоивановская улица,690005,43.1103002,131.9350252
6 с1,улица Громова,690034,43.1109457,131.9456811
4А,Ивановская улица,690005,43.1096168,131.9310893
6А,Горийская улица,690034,43.1093075,131.9428524
52А,улица Адмирала Кузнецова,690037,43.1235961,131.9494272
37/39,4-я Флотская улица,690013,43.1181572,131.9430651
4 с2,Ивановская улица,690005,43.1106218,131.9294441
3,улица Калинина,690077,43.1026047,131.9304942
58,улица Адмирала Кузнецова,690037,43.1223400,131.9474750
4,Ивановская улица,690005,43.1113322,131.9298193
106А с1,улица Борисенко,690011,43.0866775,131.9631873
100К,улица Борисенко,690011,43.0823956,131.9649052
100А,улица Борисенко,690011,43.0843152,131.9658010
100В,улица Борисенко,690011,43.0846558,131.9651524
8,улица Космонавтов,690080,43.0862391,131.9712874
106,улица Борисенко,690011,43.0870935,131.9638112
100Л,улица Борисенко,690011,43.0837774,131.9640748
100Е,улица Борисенко,690011,43.0855401,131.9636304
100,улица Борисенко,690011,43.0873026,131.9643339
100Б,улица Борисенко,690011,43.0843108,131.9667662
2,Катерная улица,690017,43.0750160,131.9349473
37,Сахалинская улица,690080,43.0910776,131.9692716
45,улица Добровольского,690092,43.0939617,131.9723783
5,улица Волкова,690092,43.0935800,131.9738641
27,Сахалинская улица,690080,43.0908494,131.9668891
1В,Сахалинская улица,690080,43.0980142,131.9676316
16,2-я Строительная улица,690011,43.0935140,131.9564140
61,Сахалинская улица,690092,43.0949402,131.9690906
43,улица Коммунаров,690017,43.0844861,131.9269556
16,улица Сафонова,690011,43.0961076,131.9508798
1,улица Героев-Тихоокеанцев,690017,43.0903612,131.9240285
21,Сахалинская улица,690080,43.0926824,131.9668374
3А,Сахалинская улица,690080,43.0969063,131.9673466
51,Интернациональная улица,690035,43.0991461,131.9206901
10,улица Патрокл,690017,43.0915601,131.9357253
21,2-я Строительная улица,690011,43.0921703,131.9565639
20,2-я Строительная улица,690011,43.0925609,131.9561860
57,Сахалинская улица,690092,43.0952843,131.9686928
35,улица Коммунаров,690017,43.0870886,131.9272126
47,улица Никифорова,690011,43.0935648,131.9540334
3,Сахалинская улица,690080,43.0970411,131.9666717
15,2-я Строительная улица,690011,43.0935663,131.9571309
36,улица Сафонова,690011,43.0922488,131.9505587
43,улица Добровольского,690092,43.0940545,131.9714891
19А,Сахалинская улица,690080,43.0934168,131.9677300
41,улица Коммунаров,690017,43.0863267,131.9265137
51,улица Никифорова,690011,43.0929605,131.9538183
2,улица Никифорова,690011,43.0918638,131.9553051
12,улица Патрокл,690017,43.0926880,131.9366319
32 с1,улица Сафонова,690011,43.0913650,131.9507020
1А,Сахалинская улица,690080,43.0969574,131.9680037
10,улица Никифорова,690011,43.0908962,131.9515664
17,Сахалинская улица,690080,43.0943319,131.9667242
20,улица Сафонова,690011,43.0944014,131.9510363
33,улица Сафонова,690011,43.0936787,131.9497094
49А,улица Никифорова,690011,43.0932062,131.9534798
2,Монтажная улица,690011,43.0958688,131.9598972
39,улица Добровольского,690092,43.0953388,131.9714782
20А,улица Добровольского,690092,43.0951751,131.9810051
53Б,улица Никифорова,690011,43.0932916,131.9529043
15А,Монтажная улица,690011,43.0957936,131.9630424
14,улица Патрокл,690017,43.0916556,131.9366739
7,Бархатная улица,690017,43.0701794,131.9352809
5В,Сахалинская улица,690080,43.0962630,131.9668743
41Б,улица Коммунаров,690017,43.0858808,131.9269015
16,Катерная улица,690017,43.0750836,131.9427544
21А,Сахалинская улица,690080,43.0925749,131.9673479
7,Монтажная улица,690011,43.0955761,131.9602050
55,улица Никифорова,690011,43.0924699,131.9535098
18,улица Никифорова,690011,43.0902811,131.9534691
45,Сахалинская улица,690092,43.0935166,131.9689199
45,улица Никифорова,690011,43.0939866,131.9542075
3,Монтажная улица,690011,43.0956189,131.9585302
20Б,2-я Строительная улица,690011,43.0926799,131.9553808
27,улица Добровольского,690092,43.0952939,131.9769470
5А,Сахалинская улица,690080,43.0956936,131.9674235
26,улица Сафонова,690011,43.0928591,131.9514828
37,улица Сафонова,690011,43.0921764,131.9494499
14,улица Героев-Тихоокеанцев,690017,43.0903977,131.9221085
12,улица Сафонова,690016,43.0969570,131.9495670
14,Кипарисовая улица,690017,43.0911387,131.9205189
9,2-я Строительная улица,690011,43.0950645,131.9574942
41,Сахалинская улица,690092,43.0923850,131.9699515
28,улица Героев Хасана,690016,43.0987064,131.9488871
17,2-я Строительная улица,690011,43.0932012,131.9569063
20А,2-я Строительная улица,690011,43.0926158,131.9557972
11А,Сахалинская улица,690080,43.0956096,131.9667217
4,улица Никифорова,690011,43.0911904,131.9555470
21,улица Героев-Тихоокеанцев,690017,43.0893023,131.9230063
8,2-я Строительная улица,690011,43.0954335,131.9570729
13,Катерная улица,690017,43.0753127,131.9365689
8,улица Сафонова,690016,43.0975323,131.9483465
7,Катерная улица,690017,43.0756735,131.9352555
41,улица Добровольского,690092,43.0947431,131.9711955
30,улица Сафонова,690011,43.0911859,131.9499455
14,2-я Строительная улица,690011,43.0939879,131.9566334
15,Сахалинская улица,690080,43.0950893,131.9669219
51 с2,улица Коммунаров,690017,43.0847654,131.9263998
7,2-я Строительная улица,690011,43.0951664,131.9578542
57,улица Гризодубовой,690016,43.0966415,131.9473367
29,улица Добровольского,690092,43.0953204,131.9764328
34,улица Сафонова,690011,43.0915868,131.9511979
30,улица Коммунаров,690017,43.0945513,131.9274451
18,Катерная улица,690017,43.0740104,131.9421579
19,Сахалинская улица,690080,43.0935316,131.9668350
25,Сахалинская улица,690080,43.0913570,131.9668796
1,Сахалинская улица,690080,43.0971565,131.9677099
21,улица Коммунаров,690017,43.0928575,131.9294905
18,2-я Строительная улица,690011,43.0930309,131.9563362
55,Сахалинская улица,690092,43.0953144,131.9696389
51,улица Коммунаров,690017,43.0840514,131.9264045
6,Нарвская улица,690011,43.0908971,131.9477759
35 с1,улица Добровольского,690092,43.0958839,131.9738944
18,улица Сафонова,690011,43.0953928,131.9512967
2А,Катерная улица,690017,43.0747247,131.9369107
3,улица Сафонова,690016,43.0980500,131.9479624
13,2-я Строительная улица,690011,43.0940964,131.9575284
59,Сахалинская улица,690092,43.0945365,131.9683623
37 с1,улица Никифорова,690011,43.0904635,131.9485950
39А,улица Коммунаров,690017,43.0864012,131.9270775
49,улица Никифорова,690011,43.0932371,131.9538941
23А,Сахалинская улица,690080,43.0919625,131.9678095
30,Сахалинская улица,690080,43.0946087,131.9642368
31,улица Добровольского,690092,43.0953454,131.9758947
57,улица Никифорова,690011,43.0918000,131.9525830
11,улица Патрокл,690017,43.0933481,131.9364898
5,Сахалинская улица,690080,43.0966574,131.9665318
8,улица Никифорова,690011,43.0911050,131.9530697
17А,Сахалинская улица,690080,43.0939363,131.9673246
2А,Монтажная улица,690011,43.0958767,131.9591501
33,улица Добровольского,690092,43.0957944,131.9749388
53,улица Никифорова,690011,43.0939777,131.9527044
13,улица Патрокл,690017,43.0921953,131.9366994
5Б,Сахалинская улица,690080,43.0966373,131.9675770
29,Сахалинская улица,690080,43.0903413,131.9668746
16,улица Никифорова,690011,43.0903083,131.9525254
41А,улица Коммунаров,690017,43.0853044,131.9269426
55А,улица Никифорова,690011,43.0936373,131.9536865
4,Монтажная улица,690011,43.0958646,131.9605007
10,2-я Строительная улица,690011,43.0949780,131.9569401
53А,улица Никифорова,690011,43.0927001,131.9528338
7А,Катерная улица,690017,43.0760341,131.9354669
3В с1,Сахалинская улица,690080,43.0959435,131.9670800
6,улица Никифорова,690011,43.0908963,131.9544521
16А,Катерная улица,690017,43.0745918,131.9425567
31,Сахалинская улица,690080,43.0910268,131.9676632
34 с1,улица Сафонова,690011,43.0915474,131.9513166
5,Монтажная улица,690011,43.0955693,131.9593491
18Б,2-я Строительная улица,690011,43.0931788,131.9554833
3В,Сахалинская улица,690080,43.0960731,131.9684234
26 с2,улица Сафонова,690011,43.0925861,131.9517839
70А,улица Борисенко,690011,43.0962086,131.9623596
9,Катерная улица,690017,43.0755576,131.9356486
7,улица Сафонова,690016,43.0975250,131.9492189
7,улица Волкова,690092,43.0938509,131.9745822
43,Сахалинская улица,690092,43.0928345,131.9693171
32,улица Сафонова,690011,43.0914047,131.9505812
1,Монтажная улица,690011,43.0958548,131.9581075
18А,2-я Строительная улица,690011,43.0930972,131.9559480
11,Сахалинская улица,690080,43.0956849,131.9662521
24,улица Сафонова,690011,43.0936595,131.9514474
39,улица Сафонова,690011,43.0913108,131.9492139
10,улица Сафонова,690016,43.0972406,131.9489564
3,улица Героев-Тихоокеанцев,690017,43.0907215,131.9230939
11,2-я Строительная улица,690011,43.0946873,131.9575320
39,Сахалинская улица,690080,43.0917419,131.9694873
19,2-я Строительная улица,690011,43.0928421,131.9568001
12,2-я Строительная улица,690011,43.0944659,131.9567636
1А,улица Героев-Тихоокеанцев,690017,43.0891481,131.9243110
11,Монтажная улица,690011,43.0951940,131.9620692
8,Пионерская улица,690005,43.1113163,131.9261092
85А,Луговая улица,690087,43.1269209,131.9383093
2,улица Котельникова,690087,43.1307410,131.9282012
6,улица Карла Жигура,690088,43.1261898,131.9242204
83А,Луговая улица,690087,43.1262716,131.9379275
18,улица Карла Жигура,690088,43.1284436,131.9235643
4,улица Муравьёва-Амурского,690001,43.1110632,131.9247590
20,Тунгусская улица,690001,43.1151113,131.9240751
8,улица Котельникова,690087,43.1304330,131.9306956
4,улица Котельникова,690087,43.1305555,131.9289716
21/23,улица Муравьёва-Амурского,690001,43.1143107,131.9242789
123Д,проспект Красного Знамени,690014,43.1236330,131.9233751
83Б,Луговая улица,690087,43.1256412,131.9376530
4 с3,Ивановская улица,690005,43.1105742,131.9281784
12,улица Котельникова,690087,43.1306056,131.9324279
22,улица Карла Жигура,690088,43.1279635,131.9247643
50А,улица Карла Жигура,690088,43.1311519,131.9271686
6,Пионерская улица,690005,43.1110934,131.9260400
2,улица Карла Жигура,690088,43.1247766,131.9257553
16,улица Карла Жигура,690088,43.1285754,131.9229059
33,Карякинская улица,690005,43.1141731,131.9270896
83В,Луговая улица,690087,43.1249279,131.9374107
10,улица Котельникова,690087,43.1310421,131.9322938
40,улица Марченко,690087,43.1324764,131.9308745
20,улица Карла Жигура,690088,43.1282413,131.9242313
108Е,Светланская улица,690001,43.1119717,131.9236028
4,улица Карла Жигура,690088,43.1254899,131.9249934
24,улица Карла Жигура,690088,43.1272023,131.9244895
17,улица Капитана Шефнера,690001,43.1142603,131.9176830
84,Русская улица,690105,43.1684848,131.9300004
82,Русская улица,690105,43.1684951,131.9294165
37/3,Бородинская улица,690105,43.1671920,131.9294071
39,Бородинская улица,690105,43.1671632,131.9299545
86,Русская улица,690105,43.1684837,131.9305781
88А,Русская улица,690105,43.1682397,131.9311708
33,Бородинская улица,690105,43.1671265,131.9282089
31,Бородинская улица,690105,43.1671194,131.9276274
78А,Русская улица,690105,43.1683173,131.9281899
76Б,Русская улица,690105,43.1683166,131.9276339
76А,Русская улица,690105,43.1683191,131.9270126
78,Русская улица,690105,43.1688350,131.9282247
80/2,Русская улица,690105,43.1686679,131.9287796
12,улица 40 лет ВЛКСМ,690016,43.1007982,131.9405276
10,улица 40 лет ВЛКСМ,690016,43.1009212,131.9401029
13,улица 40 лет ВЛКСМ,690016,43.1021753,131.9385538
17,улица 40 лет ВЛКСМ,690016,43.1016538,131.9399929
25А,улица Шошина,690089,43.1515809,131.9262465
21,улица Шошина,690089,43.1529621,131.9261781
50/2,улица Карбышева,690089,43.1537647,131.9273885
19,улица Шошина,690089,43.1534705,131.9259517
50/1,улица Карбышева,690089,43.1538936,131.9281292
23,улица Шошина,690089,43.1527084,131.9269213
36,улица Карбышева,690089,43.1544387,131.9273673
40,улица Карбышева,690089,43.1544655,131.9287865
46,улица Карбышева,690089,43.1547734,131.9310018
48,улица Карбышева,690089,43.1542771,131.9314609
50,улица Карбышева,690089,43.1540927,131.9307316
52,улица Карбышева,690089,43.1534982,131.9315250
29,улица Шошина,690089,43.1529819,131.9297986
37,улица Шошина,690089,43.1513549,131.9322440
19 с6,Днепровская улица,690089,43.1524508,131.9352850
92 к3,Днепровская улица,690089,43.1488331,131.9360456
92,Днепровская улица,690089,43.1496255,131.9363079
92 к1,Днепровская улица,690089,43.1501421,131.9371875
98,Днепровская улица,690089,43.1487748,131.9348607
92 к2,Днепровская улица,690089,43.1492062,131.9368936
92 с5,Днепровская улица,690089,43.1479360,131.9361196
90А с4,Днепровская улица,690089,43.1468665,131.9344981
90 к1,Днепровская улица,690089,43.1469363,131.9330135
90 к5,Днепровская улица,690089,43.1463657,131.9335952
90А,Днепровская улица,690089,43.1478726,131.9338274
2,улица Громова,690034,43.1103288,131.9446851
16,улица Воропаева,690034,43.1062108,131.9442006
18В с2,улица Воропаева,690034,43.1057501,131.9441210
18А,улица Воропаева,690034,43.1058620,131.9450149
7,улица Воропаева,690034,43.1058294,131.9457257
16В,улица Фадеева,690034,43.1028034,131.9475471
60,улица Станюковича,690003,43.1035830,131.8669979
19,улица Сипягина,690065,43.0916341,131.8571001
25,улица Борисенко,690016,43.1007962,131.9491023
23,улица Борисенко,690016,43.1011160,131.9483707
34,улица Борисенко,690016,43.1002434,131.9492489
6,улица Нестерова,690016,43.0995483,131.9487303
3,улица Талалихина,690016,43.0987160,131.9479735
5,улица Талалихина,690016,43.0984467,131.9485742
19,улица Героев Хасана,690016,43.0990161,131.9490690
21,улица Героев Хасана,690016,43.0986901,131.9497773
32,улица Героев Хасана,690016,43.0981444,131.9501021
30,улица Героев Хасана,690016,43.0984197,131.9494764
2,улица Сафонова,690016,43.0991841,131.9444961
4,улица Сафонова,690016,43.0992148,131.9458245
16,улица Героев Хасана,690016,43.0996632,131.9447594
18,улица Героев Хасана,690016,43.0996220,131.9452337
11,улица Героев Хасана,690016,43.1001185,131.9453850
13,улица Героев Хасана,690016,43.1001729,131.9460496
14,улица Героев Хасана,690016,43.0996503,131.9436943
12,улица Героев Хасана,690016,43.0998056,131.9428133
10,улица Героев Хасана,690016,43.0993038,131.9420198
6/1,улица Героев Хасана,690016,43.0991172,131.9410237
43,улица Гризодубовой,690016,43.0985696,131.9419372
9,Берёзовая улица,690012,43.1021118,131.8928079
21А,Берёзовая улица,690012,43.1016210,131.8923110
17,Ольховая улица,690012,43.1008966,131.8921901
19,Ольховая улица,690012,43.1004211,131.8917362
19,улица Приходько,690034,43.1087464,131.9427846
49 с8,Выселковая улица,690074,43.1501117,131.9520870
85В,Луговая улица,690087,43.1273881,131.9392750
89,Пушкинская улица,690001,43.1147718,131.9128437
93,Пушкинская улица,690001,43.1146451,131.9133061
48,Пушкинская улица,690001,43.1144645,131.9127903
50,Пушкинская улица,690001,43.1140181,131.9132826
52,Пушкинская улица,690001,43.1138679,131.9145429
127А,Светланская улица,690001,43.1134967,131.9142203
68,Пушкинская улица,690001,43.1135412,131.9165070
133,Светланская улица,690001,43.1134697,131.9156809
145,Светланская улица,690001,43.1126404,131.9177969
12,Октябрьская улица,690091,43.1246358,131.8865147
18Б,Экипажная улица,690001,43.1109275,131.9225474
3,улица Ковальчука,690001,43.1129808,131.9260595
11,Тунгусская улица,690001,43.1135666,131.9232328
104,Светланская улица,690001,43.1122953,131.9168629
46,Пушкинская улица,690001,43.1144853,131.9123302
85,Пушкинская улица,690001,43.1150706,131.9116834
107,Пушкинская улица,690001,43.1140765,131.9160918
109,Пушкинская улица,690001,43.1140191,131.9168552
12,улица Карбышева,690089,43.1543518,131.9229582
14,улица Карбышева,690089,43.1548024,131.9232368
16,улица Карбышева,690089,43.1549540,131.9239850
18,улица Карбышева,690089,43.1551097,131.9247628
20,улица Карбышева,690089,43.1551531,131.9253164
24,улица Карбышева,690089,43.1546533,131.9258082
26,улица Карбышева,690089,43.1548163,131.9265642
28,улица Карбышева,690089,43.1550089,131.9273166
30,улица Карбышева,690089,43.1551151,131.9278235
11,улица Карбышева,690089,43.1558211,131.9282741
11 с2,улица Карбышева,690089,43.1562312,131.9286472
11 с3,улица Карбышева,690089,43.1556463,131.9299894
5,Пионерская улица,690001,43.1107318,131.9261439
7,Пионерская улица,690005,43.1115310,131.9256404
5,Пионерская улица,690005,43.1113955,131.9254310
6,улица Муравьёва-Амурского,690001,43.1114045,131.9247744
1Б,улица Муравьёва-Амурского,690001,43.1099585,131.9231063
1Б,улица Муравьёва-Амурского,690001,43.1099865,131.9225967
1 с3,Пионерская улица,690001,43.1103481,131.9246274
1А,Пионерская улица,690001,43.1098350,131.9253456
1,улица Муравьёва-Амурского,690001,43.1091387,131.9245085
8,улица Муравьёва-Амурского,690001,43.1093131,131.9235985
108Ж,Светланская улица,690001,43.1117895,131.9240058
108З,Светланская улица,690001,43.1117565,131.9229011
101,Пушкинская улица,690001,43.1143998,131.9142934
99,Пушкинская улица,690001,43.1144499,131.9140908
97,Пушкинская улица,690001,43.1144993,131.9138184
84,проспект 100-летия Владивостока,690049,43.1659490,131.9155414
82,проспект 100-летия Владивостока,690049,43.1655456,131.9150643
60,Русская улица,690049,43.1681124,131.9194415
64,Русская улица,690049,43.1683016,131.9207528
49 с3,Выселковая улица,690074,43.1490246,131.9523878
145,проспект 100-летия Владивостока,690068,43.1759919,131.9169597
145А,проспект 100-летия Владивостока,690068,43.1768670,131.9177399
17,Авроровская улица,690091,43.1273822,131.8869191
14А,Трамвайная улица,690013,43.1107926,131.9383819
17,улица Чкалова,690068,43.1815292,131.9132557
151,проспект 100-летия Владивостока,690068,43.1781286,131.9167061
112,улица Кирова,690022,43.1850601,131.9122054
12А,улица Чкалова,690068,43.1785685,131.9146671
14,улица Чкалова,690068,43.1790627,131.9141981
12,улица Чкалова,690068,43.1782018,131.9141411
28,Магнитогорская улица,690068,43.1785557,131.9132766
16,улица Чкалова,690068,43.1799208,131.9141822
153,проспект 100-летия Владивостока,690068,43.1790361,131.9169178
155,проспект 100-летия Владивостока,690068,43.1790677,131.9186572
147,проспект 100-летия Владивостока,690068,43.1774035,131.9176317
149,проспект 100-летия Владивостока,690068,43.1776118,131.9174704
26,Магнитогорская улица,690068,43.1781115,131.9132186
24,Магнитогорская улица,690068,43.1777263,131.9129345
62,улица Кирова,690068,43.1787956,131.9112425
64,улица Кирова,690068,43.1796501,131.9113562
68,улица Кирова,690068,43.1815622,131.9115345
70,улица Кирова,690022,43.1825056,131.9114536
56А,улица Кирова,690068,43.1777575,131.9116284
3,Новоивановская улица,690005,43.1113314,131.9348833
3,Новоивановская улица,690005,43.1109516,131.9356732
54,улица Карбышева,690089,43.1527334,131.9310499
33,улица Шошина,690089,43.1518042,131.9300447
17Б,улица Шошина,690089,43.1520277,131.9252402
9,улица Шошина,690089,43.1534569,131.9225626
31,улица Шошина,690089,43.1522137,131.9295658
35,улица Шошина,690089,43.1514009,131.9304974
17,улица Шошина,690089,43.1525300,131.9242239
15,улица Шошина,690089,43.1526959,131.9237291
17А,улица Шошина,690089,43.1522769,131.9247377
13,улица Шошина,690089,43.1529082,131.9232716
29/1,улица Гульбиновича,690021,43.0956357,131.9098586
29,улица Гульбиновича,690021,43.0955424,131.9108857
8/2,улица Гульбиновича,690021,43.0961677,131.9071720
20,улица Гульбиновича,690021,43.0967374,131.9093448
279А,улица Калинина,690021,43.0940210,131.9062334
30,улица Гульбиновича,690021,43.0964098,131.9120929
13,улица Гульбиновича,690021,43.0949234,131.9055808
29/2,улица Гульбиновича,690021,43.0957315,131.9091127
8/1,улица Гульбиновича,690021,43.0960277,131.9059013
22,улица Гульбиновича,690021,43.0965519,131.9100492
277,улица Калинина,690021,43.0939080,131.9044103
24,улица Гульбиновича,690021,43.0963761,131.9107196
4,Дальзаводская улица,690001,43.1114398,131.9146626
25,Дальзаводская улица,690001,43.1122603,131.9137247
23,Дальзаводская улица,690001,43.1122919,131.9131830
104 с1,Светланская улица,690001,43.1125033,131.9162883
2 с1,Дальзаводская улица,690001,43.1126409,131.9108298
27,Дальзаводская улица,690001,43.1121203,131.9147785
2,Дальзаводская улица,690001,43.1120723,131.9123191
32,улица Толстого,690014,43.1207641,131.9129670
35 с1,улица Толстого,690014,43.1217996,131.9120312
5Г,улица Толстого,690014,43.1189122,131.9107005
12,улица Героев Варяга,690089,43.1648891,131.9308219
2,улица Капитана Шефнера,690001,43.1115741,131.9172288
14,Владикавказская улица,690034,43.1099754,131.9404028
34,улица Овчинникова,690048,43.1559606,131.9094633
2,улица Марины Расковой,690016,43.0982742,131.9386569
15,улица 40 лет ВЛКСМ,690016,43.1019316,131.9392897
36,Сахалинская улица,690080,43.0926198,131.9655309
86А,проспект Красного Знамени,690014,43.1254172,131.9153534
19,улица 40 лет ВЛКСМ,690016,43.1014463,131.9404787
21,улица 40 лет ВЛКСМ,690016,43.1012250,131.9409792
3,улица 60 лет ВЛКСМ,690016,43.1011788,131.9415649
5,Абрекская улица,690001,43.1142777,131.9187725
6,Абрекская улица,690001,43.1132820,131.9194513
8,Абрекская улица,690001,43.1134139,131.9193071
8А,Абрекская улица,690001,43.1138134,131.9193300
8В,Абрекская улица,690001,43.1135958,131.9194543
6А,Славянская улица,690001,43.1143151,131.9196786
65А,Алеутская улица,690091,43.1262290,131.8841473
95,улица Кирова,690022,43.1862681,131.9113304
10Б,улица Адмирала Фокина,690091,43.1167009,131.8823163
3,улица Баляева,690087,43.1314660,131.9225306
2,улица Басаргина,690080,43.0812282,131.9560462
1,улица Басаргина,690080,43.0816901,131.9547025
3,улица Басаргина,690080,43.0782576,131.9587676
4,улица Басаргина,690080,43.0788780,131.9619890
2,улица Беляева,690080,43.0908574,131.9719581
3,Верхнепортовая улица,690600,43.1098669,131.8806675
27,улица Калинина,690035,43.1020187,131.9235498
25,улица Калинина,690035,43.1019991,131.9241354
23,улица Калинина,690035,43.1019726,131.9249497
29Б,улица Калинина,690035,43.1016243,131.9233621
19,улица Калинина,690035,43.1020922,131.9260013
21,улица Калинина,690035,43.1016364,131.9259624
20,Киевская улица,690077,43.1013379,131.9272794
31,улица Гризодубовой,690016,43.0970094,131.9416680
49,улица Гризодубовой,690016,43.0981807,131.9436513
47,улица Гризодубовой,690016,43.0987288,131.9427634
33,улица Гризодубовой,690016,43.0974717,131.9424748
35,улица Гризодубовой,690016,43.0977171,131.9419679
45,улица Гризодубовой,690016,43.0980269,131.9427738
11,улица Сафонова,690016,43.0969856,131.9505089
27,Верхнепортовая улица,690990,43.1033031,131.8703417
24/1,улица 50 лет ВЛКСМ,690077,43.1000528,131.9306312
2А,улица Военное шоссе,690088,43.1318557,131.9180513
6В,улица Вострецова,690018,43.1471922,131.9133529
3А,улица Гамарника,690033,43.1624956,131.9161941
4,улица Гамарника,690033,43.1628821,131.9150879
3,улица Гамарника,690033,43.1629406,131.9160887
3В,улица Гамарника,690033,43.1625217,131.9170328
5,улица Гамарника,690033,43.1592509,131.9226269
6,улица Гамарника,690033,43.1622615,131.9153501
8,улица Гамарника,690033,43.1617897,131.9158476
8А,улица Гамарника,690033,43.1614351,131.9148447
8Б,улица Гамарника,690033,43.1616082,131.9154534
9А,улица Гамарника,690033,43.1597788,131.9210159
10,улица Гамарника,690033,43.1609751,131.9161797
10А,улица Гамарника,690033,43.1607881,131.9164525
10Б,улица Гамарника,690033,43.1606115,131.9157148
11А,улица Гамарника,690033,43.1597229,131.9197319
12,улица Гамарника,690033,43.1603867,131.9164459
12А,улица Гамарника,690033,43.1601982,131.9167188
12Б,улица Гамарника,690033,43.1600240,131.9160144
13А,улица Гамарника,690033,43.1596356,131.9186514
14Б,улица Гамарника,690033,43.1594331,131.9162738
15,улица Гамарника,690033,43.1586454,131.9181706
18,улица Гамарника,690033,43.1585198,131.9173637
18А,улица Гамарника,690033,43.1583842,131.9166567
18Б,улица Гамарника,690033,43.1584196,131.9162030
18Г,улица Гамарника,690033,43.1581896,131.9156297
19А,улица Гамарника,690033,43.1587951,131.9209356
21 с1,улица Гамарника,690033,43.1580323,131.9193877
23,улица Гамарника,690033,43.1583505,131.9198626
26,улица Гамарника,690033,43.1566723,131.9168928
24,улица Гамарника,690033,43.1572652,131.9169416
24В,улица Гамарника,690033,43.1576206,131.9151667
26А,улица Гамарника,690033,43.1569205,131.9174782
26Б,улица Гамарника,690033,43.1570572,131.9176766
5,улица Героев Варяга,690089,43.1603954,131.9286808
4/2,улица Героев Варяга,690089,43.1622027,131.9313576
2,улица Героев Варяга,690089,43.1617673,131.9315199
4,улица Героев Варяга,690089,43.1623641,131.9317118
4А,улица Героев Варяга,690089,43.1619845,131.9312468
6,улица Героев Варяга,690089,43.1628404,131.9315711
6А,улица Героев Варяга,690089,43.1624882,131.9312345
8,улица Героев Варяга,690089,43.1634200,131.9316192
8А,улица Героев Варяга,690089,43.1630136,131.9310710
10,улица Героев Варяга,690089,43.1638189,131.9311455
11,улица Героев Варяга,690089,43.1619976,131.9302128
10А,улица Героев Варяга,690089,43.1636895,131.9305851
11А,улица Героев Варяга,690089,43.1628462,131.9305084
1Б,улица Героев Хасана,690016,43.1000054,131.9409637
1А,улица Героев Хасана,690016,43.0995037,131.9404614
22А,улица Борисенко,690016,43.1004375,131.9448433
34,улица Героев Хасана,690016,43.0979053,131.9505918
13А,улица Героев Хасана,690016,43.1005456,131.9458904
5А с2,улица Героев-Тихоокеанцев,690017,43.0935995,131.9232856
16А,улица Героев-Тихоокеанцев,690017,43.0887947,131.9233269
16Б,улица Героев-Тихоокеанцев,690017,43.0881623,131.9234146
20Г,улица Героев-Тихоокеанцев,690017,43.0873570,131.9229482
24А,улица Героев-Тихоокеанцев,690017,43.0888025,131.9207561
4,улица Гоголя,690014,43.1194634,131.9011662
27,улица Гоголя,690014,43.1213375,131.9030005
32,улица Гоголя,690014,43.1226117,131.9053971
48,улица Гоголя,690014,43.1255363,131.9074099
57А,улица Гоголя,690014,43.1254290,131.9038429
31,Горная улица,690005,43.1144704,131.9334737
33,Горная улица,690005,43.1145402,131.9344111
37,улица Гризодубовой,690016,43.0981182,131.9415987
39,улица Гризодубовой,690016,43.0983723,131.9411245
69,улица Гризодубовой,690016,43.0955130,131.9470587
67,улица Гризодубовой,690016,43.0957175,131.9467590
12А,улица Громова,690034,43.1095951,131.9451891
3,улица Гульбиновича,690021,43.0958095,131.9048388
4,улица Гульбиновича,690021,43.0967063,131.9049959
8А,улица Гульбиновича,690021,43.0959871,131.9066073
16,улица Гульбиновича,690021,43.0977111,131.9090304
17,улица Гульбиновича,690021,43.0954848,131.9073933
18,улица Гульбиновича,690021,43.0974775,131.9097661
19,улица Гульбиновича,690021,43.0955024,131.9077840
19А,улица Гульбиновича,690021,43.0951684,131.9077966
19Б,улица Гульбиновича,690021,43.0948018,131.9078075
21,улица Гульбиновича,690021,43.0944177,131.9075626
25,улица Гульбиновича,690021,43.0952877,131.9085908
9,улица Колесника,690048,43.1540639,131.9141105
11,улица Колесника,690048,43.1539800,131.9146649
5,Южно-Уральская улица,690048,43.1534204,131.9152907
6,Южно-Уральская улица,690048,43.1542530,131.9148572
4,Южно-Уральская улица,690048,43.1545329,131.9149180
7,улица Колесника,690048,43.1541425,131.9134294
7А,улица Колесника,690048,43.1544160,131.9134868
27,улица Гульбиновича,690021,43.0950390,131.9100500
32,улица Гульбиновича,690021,43.0973510,131.9107022
29,улица Давыдова,690069,43.1758912,131.9242029
31А,улица Давыдова,690069,43.1772676,131.9241882
33А,улица Давыдова,690069,43.1779594,131.9244409
35,улица Давыдова,690105,43.1759264,131.9257230
40Б,улица Давыдова,690105,43.1739968,131.9260268
42А,улица Давыдова,690105,43.1735207,131.9263535
44,улица Давыдова,690069,43.1746881,131.9272472
29А,улица Давыдова,690069,43.1766931,131.9247621
17,Дальзаводская улица,690001,43.1132346,131.9115921
21,Дальзаводская улица,690001,43.1125982,131.9122479
27А,Дальзаводская улица,690001,43.1121810,131.9150992
27Б,Дальзаводская улица,690001,43.1121698,131.9153237
31,Дальзаводская улица,690001,43.1121653,131.9159708
12,Деревенская улица,690087,43.1358204,131.9270466
14,Деревенская улица,690087,43.1358338,131.9278150
14А,Деревенская улица,690087,43.1358334,131.9288303
14 с1,Деревенская улица,690087,43.1355059,131.9288040
20 с2,Деревенская улица,690087,43.1359202,131.9302691
20,Деревенская улица,690087,43.1361823,131.9308566
21,Деревенская улица,690087,43.1352705,131.9326540
12 с4,Снеговая улица,690087,43.1345897,131.9344633
3,улица Державина,690014,43.1198866,131.8968243
15,улица Державина,690014,43.1199079,131.8979587
17,улица Державина,690014,43.1204727,131.8985804
19,улица Державина,690014,43.1212699,131.8996984
21,улица Державина,690014,43.1217209,131.9006366
55,улица Державина,690014,43.1239678,131.9037052
8,Днепровская улица,690062,43.1436094,131.9097555
9,Днепровская улица,690062,43.1442934,131.9095919
13,Днепровская улица,690062,43.1443155,131.9103440
11,Днепровская улица,690062,43.1444712,131.9099109
14,Днепровская улица,690062,43.1456371,131.9106927
16,Днепровская улица,690062,43.1460951,131.9107066
18,Днепровская улица,690062,43.1462117,131.9101442
19А,Днепровская улица,690089,43.1549687,131.9339195
34А,проспект 100-летия Владивостока,690048,43.1504051,131.9086221
34,проспект 100-летия Владивостока,690048,43.1504905,131.9078588
36,проспект 100-летия Владивостока,690048,43.1509172,131.9081971
38,проспект 100-летия Владивостока,690048,43.1509106,131.9088338
32Б,проспект 100-летия Владивостока,690048,43.1501787,131.9092048
32А,проспект 100-летия Владивостока,690048,43.1501102,131.9083251
32,проспект 100-летия Владивостока,690048,43.1500546,131.9074951
36Б,проспект 100-летия Владивостока,690048,43.1503888,131.9100286
30В,проспект 100-летия Владивостока,690048,43.1500094,131.9099786
30Б,проспект 100-летия Владивостока,690048,43.1497705,131.9091934
30А,проспект 100-летия Владивостока,690048,43.1496861,131.9080587
30,проспект 100-летия Владивостока,690048,43.1496270,131.9071360
39,проспект 100-летия Владивостока,690048,43.1509916,131.9068860
11,улица Ильичёва,690062,43.1470437,131.9088374
21,улица Ильичёва,690048,43.1515736,131.9098133
23,улица Ильичёва,690048,43.1519691,131.9101659
42,проспект 100-летия Владивостока,690048,43.1517522,131.9091719
25,улица Ильичёва,690048,43.1524330,131.9102729
44А,проспект 100-летия Владивостока,690048,43.1524424,131.9096801
27,улица Ильичёва,690048,43.1528493,131.9104711
46А,проспект 100-летия Владивостока,690048,43.1530978,131.9101917
29,улица Ильичёва,690048,43.1532799,131.9107998
31,улица Ильичёва,690048,43.1536641,131.9107159
48,проспект 100-летия Владивостока,690048,43.1535760,131.9100824
46,проспект 100-летия Владивостока,690048,43.1529344,131.9095736
44,проспект 100-летия Владивостока,690048,43.1522703,131.9090395
50,проспект 100-летия Владивостока,690048,43.1540449,131.9107543
32,улица Ильичёва,690048,43.1534907,131.9115081
6,улица Колесника,690048,43.1536914,131.9125170
28,улица Ильичёва,690048,43.1530395,131.9121750
30,улица Ильичёва,690048,43.1528251,131.9112976
3,улица Фирсова,690048,43.1554609,131.9142010
15,Корабельная набережная,690091,43.1129956,131.8936443
21,Днепровская улица,690062,43.1431702,131.9256582
21В с4,Днепровская улица,690062,43.1441248,131.9249275
21А,Днепровская улица,690089,43.1457683,131.9289348
21А литГ,Днепровская улица,690089,43.1466415,131.9287448
21Б,Днепровская улица,690062,43.1442045,131.9264111
47,Днепровская улица,690062,43.1430975,131.9242966
22А,Днепровская улица,690062,43.1461645,131.9115341
22,Днепровская улица,690062,43.1458840,131.9114039
23А,Днепровская улица,690062,43.1406398,131.9239309
23Б,Днепровская улица,690062,43.1412742,131.9246078
24,Днепровская улица,690062,43.1459155,131.9124243
26,Днепровская улица,690062,43.1457941,131.9132410
25,Днепровская улица,690062,43.1417654,131.9225743
25 к2,Днепровская улица,690062,43.1428395,131.9214815
25 к4,Днепровская улица,690062,43.1420339,131.9218770
25 к3,Днепровская улица,690062,43.1425845,131.9209727
25 к1,Днепровская улица,690062,43.1425884,131.9221210
15,Днепровская улица,690062,43.1414657,131.9266790
25А,Днепровская улица,690062,43.1430902,131.9277811
27,Днепровская улица,690089,43.1449688,131.9298298
28,Днепровская улица,690062,43.1454662,131.9118962
29,Днепровская улица,690089,43.1489991,131.9313310
30,Днепровская улица,690062,43.1447857,131.9105699
34,Днепровская улица,690062,43.1450456,131.9124844
36 с1,Днепровская улица,690062,43.1452324,131.9132516
36Б,Днепровская улица,690062,43.1463099,131.9148015
37,Днепровская улица,690062,43.1452410,131.9147207
38,Днепровская улица,690062,43.1458966,131.9140916
39,Днепровская улица,690062,43.1449186,131.9141819
40А с2,Днепровская улица,690062,43.1385669,131.9245964
40,Днепровская улица,690062,43.1388971,131.9246352
40В,Днепровская улица,690062,43.1406962,131.9251138
41,Днепровская улица,690062,43.1443991,131.9147562
25Д,Днепровская улица,690062,43.1409252,131.9262338
25Д с2,Днепровская улица,690062,43.1401534,131.9260628
42,Днепровская улица,690062,43.1396783,131.9274071
43,Днепровская улица,690062,43.1440465,131.9151522
40 с2,Днепровская улица,690062,43.1393887,131.9237964
47А,Днепровская улица,690062,43.1421358,131.9149981
55,Днепровская улица,690062,43.1416666,131.9183698
51,Днепровская улица,690062,43.1416449,131.9166578
90Б,Днепровская улица,690089,43.1470974,131.9322791
90А с1,Днепровская улица,690089,43.1473273,131.9335752
90А с2,Днепровская улица,690089,43.1469931,131.9336996
95Б,Днепровская улица,690062,43.1475497,131.9306256
95,Днепровская улица,690089,43.1470501,131.9301741
98В,Днепровская улица,690089,43.1542446,131.9370105
100,Днепровская улица,690089,43.1533980,131.9417678
100А,Днепровская улица,690089,43.1528697,131.9414694
100Б,Днепровская улица,690062,43.1526821,131.9425691
29 с13,Днепровская улица,690089,43.1494452,131.9341846
101,Днепровская улица,690089,43.1502236,131.9343060
115,Днепровская улица,690089,43.1546547,131.9390804
62,улица Станюковича,690003,43.1030021,131.8653725
58,улица Станюковича,690003,43.1041140,131.8678954
64,улица Станюковича,690003,43.1034190,131.8646983
7,Казанская улица,690065,43.0950859,131.8628966
5,Казанская улица,690065,43.0953447,131.8624022
60А,улица Станюковича,690003,43.1039590,131.8666160
4,Казанская улица,690065,43.0949622,131.8617173
28А,улица Станюковича,690003,43.1071223,131.8735121
39,улица Станюковича,690003,43.1060754,131.8722409
49,улица Станюковича,690003,43.1055596,131.8720762
9,Казанская улица,690065,43.0946946,131.8632793
37,улица Станюковича,690003,43.1064149,131.8726183
31А,улица Станюковича,690003,43.1062005,131.8733777
8,Камский переулок,690062,43.1405334,131.9119940
12,проспект 100-летия Владивостока,690062,43.1400785,131.9111712
1 с1,Камская улица,690062,43.1376903,131.9168740
52,улица Станюковича,690003,43.1050514,131.8695789
16,улица Станюковича,690003,43.1082651,131.8747295
28,улица Станюковича,690003,43.1075378,131.8740776
53,улица Станюковича,690003,43.1049374,131.8701827
1,Днепровский переулок,690062,43.1443375,131.9165805
3А,Днепровский переулок,690062,43.1436619,131.9165493
1А,Днепровский переулок,690062,43.1444927,131.9162371
4А,Днепровский переулок,690062,43.1449081,131.9148646
5,Днепровский переулок,690062,43.1448953,131.9158511
18А,улица Добровольского,690092,43.0947861,131.9822102
20 с2,улица Добровольского,690092,43.0957519,131.9804182
7,Ёлочная улица,690012,43.0959312,131.8931788
7А,Ёлочная улица,690012,43.0957284,131.8927543
9,Ёлочная улица,690012,43.0962008,131.8932351
4Б,Енисейская улица,690039,43.1674486,131.9040844
7/7,Енисейская улица,690039,43.1715245,131.9031822
7/12,Енисейская улица,690039,43.1704992,131.9034477
7/5,Енисейская улица,690039,43.1704184,131.9024578
7/1,Енисейская улица,690039,43.1692648,131.9030459
7/10,Енисейская улица,690039,43.1703218,131.9029689
7 с1,Енисейская улица,690039,43.1696802,131.9032177
7А,Енисейская улица,690039,43.1689932,131.9062205
7Б,Енисейская улица,690039,43.1704972,131.9052130
8,Енисейская улица,690039,43.1721359,131.9068386
9,Енисейская улица,690039,43.1716782,131.9066521
9А,Енисейская улица,690039,43.1711030,131.9059305
10,Енисейская улица,690039,43.1717845,131.9060334
12,Енисейская улица,690039,43.1704362,131.9041976
14,Енисейская улица,690039,43.1697358,131.9048001
13,Енисейская улица,690039,43.1697872,131.9042309
14В,Енисейская улица,690039,43.1697434,131.9055232
17,Енисейская улица,690039,43.1688574,131.9047870
15,Енисейская улица,690039,43.1691620,131.9037733
16,Енисейская улица,690039,43.1688132,131.9042002
18 с1,Енисейская улица,690039,43.1686331,131.9038364
20,Енисейская улица,690039,43.1667179,131.9040547
21,Енисейская улица,690039,43.1680327,131.9055107
19,Енисейская улица,690039,43.1672426,131.9043045
21А,Енисейская улица,690039,43.1668637,131.9049635
22,Енисейская улица,690039,43.1671879,131.9052855
22А,Енисейская улица,690039,43.1666512,131.9054062
23,Енисейская улица,690039,43.1659085,131.9042649
24,Енисейская улица,690039,43.1657343,131.9047458
30А,Енисейская улица,690039,43.1732530,131.9061552
55,Енисейская улица,690039,43.1735656,131.9092356
11,улица Карла Жигура,690088,43.1283202,131.9217331
13А,улица Карла Жигура,690088,43.1286762,131.9217444
12,улица Карла Жигура,690088,43.1274528,131.9231127
2Б,улица Карла Жигура,690088,43.1238583,131.9250251
14,улица Карла Жигура,690088,43.1280016,131.9229232
13,улица Карла Жигура,690088,43.1285960,131.9215072
11А,улица Карла Жигура,690088,43.1280107,131.9220136
32,улица Карла Жигура,690088,43.1297151,131.9218489
32А с2,улица Жигура,690088,43.1301484,131.9215089
30,улица Карла Жигура,690088,43.1292266,131.9221486
40Б,улица Жигура,690088,43.1304410,131.9225247
48А,улица Карла Жигура,690088,43.1317767,131.9241008
40,улица Жигура,690088,43.1311109,131.9231656
48Б,улица Карла Жигура,690088,43.1330803,131.9272888
46,улица Карла Жигура,690088,43.1325530,131.9248921
40А,улица Карла Жигура,690088,43.1315742,131.9238256
20Б,Западная улица,690091,43.1285051,131.8859069
11,Западная улица,690091,43.1224397,131.8770942
10/12,Западная улица,690091,43.1227685,131.8788244
22,Западная улица,690091,43.1277518,131.8835935
29,Западная улица,690091,43.1254922,131.8793293
20В,Западная улица,690091,43.1283555,131.8855364
12,Западная улица,690091,43.1233398,131.8787304
10,Западная улица,690091,43.1228361,131.8784764
15,Западная улица,690091,43.1226576,131.8777821
27,Западная улица,690091,43.1241146,131.8782199
13,Западная улица,690091,43.1217293,131.8771175
6,Запорожская улица,690035,43.0987421,131.9167439
4,Запорожская улица,690035,43.0985871,131.9174813
2,Запорожская улица,690035,43.0982158,131.9181056
87А,Запорожская улица,690021,43.1001522,131.9003865
81А,Запорожская улица,690012,43.1002460,131.9016583
10А,улица Зои Космодемьянской,690063,43.0889818,131.9029759
2/2,улица Зои Космодемьянской,690063,43.0875401,131.9073819
1,улица Зои Космодемьянской,690063,43.0874264,131.9077612
9,улица Зои Космодемьянской,690063,43.0871003,131.9005864
10,улица Зои Космодемьянской,690063,43.0892213,131.9036631
4,улица Зои Космодемьянской,690063,43.0871708,131.9067550
2,улица Зои Космодемьянской,690063,43.0871389,131.9072790
5,улица Зои Космодемьянской,690063,43.0873171,131.9021922
7,улица Зои Космодемьянской,690063,43.0872216,131.9013264
13,улица Зои Космодемьянской,690063,43.0869741,131.8994172
17А с1,улица Зои Космодемьянской,690063,43.0860448,131.8994169
21,улица Зои Космодемьянской,690063,43.0865810,131.8966278
12,улица Зои Космодемьянской,690063,43.0886501,131.9039783
13А,улица Зои Космодемьянской,690063,43.0864254,131.8982836
17А,улица Зои Космодемьянской,690063,43.0861194,131.9000890
19,улица Зои Космодемьянской,690063,43.0867374,131.8976771
16А,улица Зои Космодемьянской,690063,43.0870795,131.9063883
15,улица Зои Космодемьянской,690063,43.0868769,131.8986943
11,улица Зои Космодемьянской,690063,43.0867456,131.9000953
14,улица Зои Космодемьянской,690063,43.0888023,131.9046528
19А,улица Зои Космодемьянской,690063,43.0862056,131.8971193
24,улица Зои Космодемьянской,690063,43.0874570,131.9004967
22,улица Зои Космодемьянской,690063,43.0876148,131.9016724
25,улица Зои Космодемьянской,690063,43.0858935,131.8967090
27А,улица Зои Космодемьянской,690063,43.0858694,131.8942560
25А,улица Зои Космодемьянской,690063,43.0859698,131.8958720
26,улица Зои Космодемьянской,690063,43.0872760,131.8991244
23,улица Зои Космодемьянской,690063,43.0863347,131.8960499
27 с1,улица Зои Космодемьянской,690063,43.0864251,131.8955399
29,улица Зои Космодемьянской,690063,43.0856290,131.8948073
30А,улица Зои Космодемьянской,690063,43.0874127,131.8982280
32,улица Зои Космодемьянской,690063,43.0870928,131.8976802
31,улица Зои Космодемьянской,690063,43.0848091,131.8937517
34,улица Зои Космодемьянской,690063,43.0870168,131.8971039
33,улица Зои Космодемьянской,690063,43.0849113,131.8945537
36,улица Зои Космодемьянской,690063,43.0869364,131.8965299
38,улица Зои Космодемьянской,690063,43.0868174,131.8957323
40,улица Зои Космодемьянской,690063,43.0866589,131.8941221
44,улица Зои Космодемьянской,690063,43.0852297,131.8935922
46,улица Зои Космодемьянской,690063,43.0848895,131.8931946
3А,улица Ильичёва,690062,43.1465523,131.9082901
8,улица Ильичёва,690018,43.1493852,131.9119682
10,улица Ильичёва,690018,43.1497112,131.9115460
18А,улица Ильичёва,690048,43.1514092,131.9110693
12,улица Ильичёва,690018,43.1500344,131.9111414
18Б,улица Ильичёва,690048,43.1516349,131.9111838
5,улица Ильичёва,690062,43.1461509,131.9071703
15,улица Ильичёва,690018,43.1497145,131.9106748
18В,улица Ильичёва,690048,43.1518733,131.9112942
3,улица Ильичёва,690062,43.1454227,131.9072165
2Б,улица Ильичёва,690062,43.1459931,131.9097315
10А,улица Ильичёва,690018,43.1493739,131.9117625
6,улица Ильичёва,690018,43.1490507,131.9124175
22,улица Ильичёва,690048,43.1515043,131.9123058
22А,улица Ильичёва,690048,43.1517114,131.9118949
24А,улица Ильичёва,690048,43.1521926,131.9118771
20В,улица Ильичёва,690048,43.1517235,131.9106859
20Б,улица Ильичёва,690048,43.1516998,131.9109129
40,улица Ильичёва,690048,43.1530844,131.9126787
38,улица Ильичёва,690048,43.1528981,131.9125653
31Б,улица Ильичёва,690048,43.1537727,131.9110971
50,улица Ильичёва,690048,43.1531707,131.9135726
46,улица Ильичёва,690048,43.1532448,131.9132477
52,улица Ильичёва,690048,43.1530645,131.9139522
42,улица Ильичёва,690048,43.1533493,131.9128688
44,улица Ильичёва,690048,43.1535344,131.9128676
58,улица Ильичёва,690048,43.1529798,131.9130666
62,улица Ильичёва,690048,43.1523244,131.9127018
54,улица Ильичёва,690048,43.1527521,131.9138374
60,улица Ильичёва,690048,43.1526310,131.9128851
56,улица Ильичёва,690048,43.1528768,131.9134264
3,улица Суханова,690091,43.1176715,131.8930585
32,улица Фадеева,690034,43.0997907,131.9570729
35А к3,улица Борисенко,690011,43.0982264,131.9547606
4 с2,Сахалинская улица,690080,43.0966657,131.9647334
34В,Сахалинская улица,690080,43.0930787,131.9652448
5А с3,улица Добровольского,690092,43.0918856,131.9712338
5А с2,улица Добровольского,690092,43.0917463,131.9713133
253,улица Калинина,690021,43.0945960,131.8964631
255,улица Калинина,690021,43.0951647,131.8972077
2,Липовая улица,690021,43.0960266,131.8968480
30,улица Надибаидзе,690012,43.0976864,131.8968511
257,улица Калинина,690021,43.0958407,131.8977924
34,улица Надибаидзе,690021,43.0965983,131.8979269
32,улица Надибаидзе,690021,43.0971525,131.8973714
28,улица Надибаидзе,690012,43.0982561,131.8963174
6А,улица Надибаидзе,690012,43.0956290,131.8958690
26,улица Надибаидзе,690012,43.0988241,131.8958147
42,улица Калинина,690012,43.1033212,131.8975077
17,Импортная улица,690065,43.0923814,131.8592743
15,Импортная улица,690065,43.0917583,131.8591722
16,Импортная улица,690065,43.0917893,131.8596591
116,улица Калинина,690012,43.0968782,131.8884475
173,улица Калинина,690012,43.0960171,131.8885959
165,улица Калинина,690012,43.0969199,131.8897927
57/2,Интернациональная улица,690035,43.0997620,131.9192486
57/1,Интернациональная улица,690035,43.0997522,131.9195668
56А,Интернациональная улица,690035,43.1013961,131.9145026
279,улица Калинина,690021,43.0936812,131.9056135
275Б,улица Калинина,690021,43.0932851,131.9046057
71А,Интернациональная улица,690035,43.0988349,131.9130479
25,1-я Поселковая улица,690063,43.0865666,131.9029278
31,1-я Поселковая улица,690063,43.0866794,131.9013984
23/1,1-я Поселковая улица,690063,43.0867296,131.9046784
1,Приморская улица,690063,43.0879977,131.9013494
2,Приморская улица,690063,43.0887827,131.9010781
3,Приморская улица,690063,43.0878479,131.9004033
5,Приморская улица,690063,43.0877229,131.8995302
7,Приморская улица,690063,43.0875983,131.8986924
2,Иртышская улица,690033,43.1596638,131.9130727
4А,Иртышская улица,690033,43.1592413,131.9135471
5 с3,Иртышская улица,690033,43.1608868,131.9180718
5 с2,Иртышская улица,690033,43.1609637,131.9174788
6,Иртышская улица,690033,43.1593245,131.9149130
8,Иртышская улица,690033,43.1602005,131.9145522
7Д,Иртышская улица,690033,43.1614402,131.9187810
10,Иртышская улица,690033,43.1603113,131.9183478
7 с3,Иртышская улица,690033,43.1612005,131.9173439
2А,Иртышская улица,690033,43.1601367,131.9135908
5,Иртышская улица,690033,43.1606596,131.9175749
4,Иртышская улица,690033,43.1597395,131.9137700
12 с1,Иртышская улица,690033,43.1602565,131.9190384
10Б,Иртышская улица,690033,43.1600417,131.9180193
15 с1,Иртышская улица,690033,43.1625034,131.9226212
12,Иртышская улица,690033,43.1604881,131.9190137
16,Иртышская улица,690033,43.1606638,131.9195029
16А,Иртышская улица,690033,43.1603264,131.9198988
17А,Иртышская улица,690033,43.1628445,131.9196106
15А,Иртышская улица,690033,43.1625092,131.9221668
10А,Иртышская улица,690033,43.1601653,131.9177974
26Б,Иртышская улица,690089,43.1610702,131.9252300
28А,Иртышская улица,690089,43.1616355,131.9258335
34А,Иртышская улица,690089,43.1623174,131.9277686
48,Иртышская улица,690089,43.1627103,131.9300655
42А,Иртышская улица,690089,43.1632230,131.9285506
40/1,Иртышская улица,690089,43.1612834,131.9280680
7А,Артековская улица,690108,43.2085790,132.1483937
5А,Казанская улица,690065,43.0954209,131.8628160
9,улица Калинина,690077,43.1030481,131.9295917
6,улица Калинина,690035,43.1026267,131.9190728
4В,улица Калинина,690035,43.1031491,131.9196625
4,улица Калинина,690035,43.1040799,131.9259078
11,улица Калинина,690077,43.1030396,131.9291960
4Б,улица Калинина,690035,43.1025670,131.9196856
9А,улица Калинина,690077,43.1028457,131.9296972
4А к1,улица Калинина,690035,43.1035445,131.9254748
28,улица Калинина,690012,43.1024187,131.9092968
29В,улица Калинина,690035,43.1007041,131.9223893
28А,улица Калинина,690012,43.1026872,131.9099431
28В,улица Калинина,690012,43.1023037,131.9120738
28Б,улица Калинина,690012,43.1022061,131.9099732
82,улица Калинина,690012,43.1012843,131.8930325
80,улица Калинина,690012,43.1013937,131.8938792
84,улица Калинина,690012,43.1009626,131.8931503
78,улица Калинина,690012,43.1019290,131.8942373
132,улица Калинина,690012,43.0954990,131.8861820
111А,улица Калинина,690012,43.1033255,131.8989704
113,улица Калинина,690012,43.1027678,131.8990281
115А,улица Калинина,690012,43.0925628,131.8852919
115,улица Калинина,690012,43.0931660,131.8856951
111,улица Калинина,690012,43.1031147,131.8987808
158,улица Калинина,690012,43.0939785,131.8842331
151А,улица Калинина,690012,43.0990234,131.8925723
149,улица Калинина,690012,43.0993206,131.8929830
153,улица Калинина,690012,43.0986296,131.8921826
162,улица Калинина,690012,43.0937673,131.8839664
150,улица Калинина,690012,43.0943066,131.8848455
146,улица Калинина,690012,43.0949272,131.8858647
140,улица Калинина,690012,43.0952626,131.8855552
148,улица Калинина,690012,43.0945087,131.8850334
144,улица Калинина,690012,43.0948763,131.8853219
133,улица Калинина,690012,43.1010157,131.8942037
164,улица Калинина,690012,43.0934814,131.8839162
135,улица Калинина,690012,43.1008290,131.8940207
204Б,улица Калинина,690012,43.0903098,131.8858957
225,улица Калинина,690012,43.0926562,131.8870962
206,улица Калинина,690012,43.0908035,131.8852928
222,улица Калинина,690012,43.0920906,131.8863086
201,улица Калинина,690012,43.0924227,131.8837102
225А,улица Калинина,690012,43.0928975,131.8873932
210,улица Калинина,690012,43.0910655,131.8854513
221,улица Калинина,690012,43.0930340,131.8869127
230,улица Калинина,690012,43.0937688,131.8964815
231В к2,улица Калинина,690012,43.0920678,131.8875746
217,улица Калинина,690012,43.0919342,131.8853871
204А,улица Калинина,690012,43.0886577,131.8859695
235А,улица Калинина,690012,43.0915332,131.8887630
240,улица Калинина,690012,43.0937544,131.9001358
220,улица Калинина,690012,43.0918277,131.8858894
226,улица Калинина,690012,43.0925737,131.8940440
243,улица Калинина,690012,43.0930582,131.8882630
231,улица Калинина,690012,43.0922415,131.8896249
244А,улица Калинина,690012,43.0930548,131.9011464
214,улица Калинина,690012,43.0913360,131.8856150
182,улица Калинина,690012,43.0885846,131.8838687
241,улица Калинина,690012,43.0916074,131.8899968
229,улица Калинина,690012,43.0925934,131.8891437
218,улица Калинина,690012,43.0915984,131.8857579
204,улица Калинина,690012,43.0901698,131.8847998
231В,улица Калинина,690012,43.0914451,131.8876669
239,улица Калинина,690012,43.0918561,131.8906294
219,улица Калинина,690012,43.0927581,131.8862383
261,улица Калинина,690021,43.0943417,131.8981778
269А,улица Калинина,690021,43.0942601,131.8991722
241А,улица Калинина,690012,43.0920303,131.8911393
177,улица Калинина,690012,43.0948229,131.8881758
180,улица Калинина,690012,43.0892492,131.8839834
243Г,улица Калинина,690012,43.0909083,131.8890016
203,улица Калинина,690012,43.0927331,131.8844395
285,улица Калинина,690021,43.0939085,131.9079848
281,улица Калинина,690021,43.0935583,131.9065244
285А,улица Калинина,690021,43.0937782,131.9079769
271,улица Калинина,690021,43.0952244,131.9006789
287,улица Калинина,690021,43.0942070,131.9083465
283А,улица Калинина,690021,43.0935081,131.9077489
279Б,улица Калинина,690021,43.0942397,131.9043984
275 к7,улица Калинина,690063,43.0927277,131.9081252
283,улица Калинина,690021,43.0936457,131.9075545
283А с2,улица Калинина,690021,43.0933225,131.9079055
66Б,Светланская улица,690091,43.1140709,131.9012738
37А,Сахалинская улица,690080,43.0915438,131.9685121
46,Сахалинская улица,690080,43.0899423,131.9687048
44,Сахалинская улица,690080,43.0902970,131.9686920
5А с2,Камская улица,690062,43.1406437,131.9157503
12,Камский переулок,690062,43.1399134,131.9148517
6 к6,Камский переулок,690062,43.1437732,131.9139526
6 к9,Камский переулок,690062,43.1414921,131.9135870
4,Камский переулок,690062,43.1413680,131.9111485
7,Камский переулок,690062,43.1413723,131.9119570
6,Камский переулок,690062,43.1425651,131.9130382
6 к2,Камский переулок,690062,43.1420568,131.9121846
22,Камский переулок,690062,43.1398014,131.9129999
22А,Камский переулок,690062,43.1399281,131.9127227
6 к8,Камский переулок,690062,43.1425552,131.9137918
18,Камский переулок,690062,43.1397332,131.9138746
47А с4,Днепровская улица,690062,43.1412464,131.9153932
14,Камский переулок,690062,43.1396761,131.9147724
47Б,Днепровская улица,690062,43.1411612,131.9158199
8Г,Камский переулок,690062,43.1410792,131.9120899
2,Камский переулок,690062,43.1411588,131.9107643
16,Камский переулок,690062,43.1399655,131.9139647
20,Камский переулок,690062,43.1400422,131.9130811
6 к1,Камский переулок,690062,43.1431720,131.9123692
18/2,Камская улица,690062,43.1401206,131.9193073
5,Камская улица,690062,43.1406382,131.9188817
1,Камская улица,690062,43.1380270,131.9162688
1А,Камская улица,690062,43.1381766,131.9165038
12,улица Капитана Шефнера,690001,43.1143041,131.9182301
6,улица Капитана Шефнера,690001,43.1131161,131.9179674
15В,улица Капитана Шефнера,690001,43.1140940,131.9175176
12В,проспект 100-летия Владивостока,690062,43.1427120,131.9105766
1А,проспект 100-летия Владивостока,690062,43.1411512,131.9085208
2,Октябрьская улица,690091,43.1251937,131.8839224
6,Октябрьская улица,690091,43.1248499,131.8843951
29А,улица Станюковича,690003,43.1067585,131.8744600
7,улица Софьи Перовской,690003,43.1023806,131.8671574
77А,улица Станюковича,690003,43.1024172,131.8646627
1,улица Софьи Перовской,690003,43.1026551,131.8673165
6,улица Каплунова,690013,43.1138159,131.9426217
3 с1,улица Каплунова,690013,43.1143206,131.9435773
3,улица Каплунова,690013,43.1146691,131.9431960
4 с1,улица Карбышева,690048,43.1543136,131.9186009
10А,улица Карбышева,690089,43.1551920,131.9226594
9,улица Карбышева,690089,43.1559834,131.9261139
9А,улица Карбышева,690089,43.1562910,131.9263762
12В,улица Карбышева,690089,43.1548102,131.9223607
12В с2,улица Карбышева,690089,43.1551891,131.9224211
20Б,улица Карбышева,690089,43.1557042,131.9262751
20А,улица Карбышева,690089,43.1555450,131.9252391
34,улица Карбышева,690089,43.1541486,131.9266806
42,улица Карбышева,690089,43.1545613,131.9296051
44,улица Карбышева,690089,43.1547709,131.9300816
38,улица Карбышева,690089,43.1545252,131.9279141
32,улица Карбышева,690089,43.1551142,131.9288697
46В,улица Карбышева,690089,43.1544901,131.9307217
46Б,улица Карбышева,690089,43.1547152,131.9319106
46А,улица Карбышева,690089,43.1545167,131.9320961
57/2,улица Станюковича,690003,43.1040265,131.8685227
57,улица Станюковича,690003,43.1043322,131.8691963
55,улица Станюковича,690003,43.1045057,131.8694966
3,улица Карла Либкнехта,690001,43.1128746,131.9211136
4,улица Карла Либкнехта,690001,43.1128056,131.9216786
3А,улица Карла Либкнехта,690001,43.1130879,131.9210539
10,улица Карла Либкнехта,690001,43.1133720,131.9215760
14,улица Карла Либкнехта,690001,43.1137874,131.9215691
10,Карская улица,690013,43.1159363,131.9381206
6,Карьерная улица,690074,43.1396057,131.9599006
2,Карьерная улица,690074,43.1380245,131.9590370
3А,Карьерная улица,690074,43.1416519,131.9632067
6 с5,Карьерная улица,690074,43.1392158,131.9598608
8,Карьерная улица,690074,43.1404332,131.9603730
1,Карьерная улица,690074,43.1381264,131.9604198
3Б,Карьерная улица,690074,43.1416894,131.9628467
1А,Карьерная улица,690074,43.1393310,131.9610802
8А,Карьерная улица,690074,43.1411732,131.9609074
12А,Карьерная улица,690074,43.1422819,131.9607301
2В,Карьерная улица,690074,43.1382294,131.9594806
4,Карьерная улица,690074,43.1388156,131.9594768
10А,Карьерная улица,690074,43.1414200,131.9603988
8Б,Карьерная улица,690074,43.1409086,131.9614532
6А,Карьерная улица,690074,43.1394972,131.9601904
20А с6,Карьерная улица,690074,43.1434043,131.9614859
20А с15,Карьерная улица,690074,43.1448319,131.9640859
13,Карьерная улица,690074,43.1452659,131.9668092
11,Карьерная улица,690074,43.1444760,131.9655960
18А,Карьерная улица,690074,43.1470521,131.9669396
20,Карьерная улица,690074,43.1479045,131.9679365
28,Карьерная улица,690074,43.1481929,131.9670924
32,Карьерная улица,690074,43.1489739,131.9700046
22,Карьерная улица,690074,43.1485156,131.9690496
20Б,Карьерная улица,690074,43.1475109,131.9645739
24,Карьерная улица,690074,43.1475327,131.9672939
74,Снеговая улица,690074,43.1482943,131.9683309
30,Карьерная улица,690074,43.1494450,131.9696331
26,Карьерная улица,690074,43.1477897,131.9663858
7В,Катерная улица,690017,43.0756016,131.9346697
5,Катерная улица,690017,43.0751608,131.9332159
6Г,Катерная улица,690017,43.0755195,131.9340542
6,Катерная улица,690017,43.0756640,131.9335565
15 с1,Каштановая улица,690017,43.0875045,131.9123298
7,Каштановая улица,690017,43.0893481,131.9164818
3,Каштановая улица,690017,43.0898707,131.9174117
9,Каштановая улица,690017,43.0890402,131.9159077
2 с2,Кипарисовая улица,690017,43.0877311,131.9158298
5,Каштановая улица,690017,43.0896504,131.9170201
7,Керченская улица,690065,43.0898088,131.8567419
3,Федосеевский переулок,690065,43.0893874,131.8562546
9А,Керченская улица,690065,43.0897203,131.8572427
2,Киевская улица,690077,43.1023206,131.9317290
4,Киевская улица,690077,43.1021243,131.9310562
8,Кипарисовая улица,690017,43.0890127,131.9185505
14А,Кипарисовая улица,690017,43.0909242,131.9204581
32,Кипарисовая улица,690017,43.0891730,131.9134248
28,Кипарисовая улица,690017,43.0899545,131.9148424
24,Кипарисовая улица,690017,43.0908390,131.9164708
26,Кипарисовая улица,690017,43.0903584,131.9155638
30,Кипарисовая улица,690017,43.0895438,131.9141056
2,улица Кирова,690068,43.1683014,131.9119291
4,улица Кирова,690068,43.1683143,131.9112090
8,улица Кирова,690068,43.1696927,131.9113303
2А,улица Кирова,690068,43.1688597,131.9120908
6,улица Кирова,690068,43.1689378,131.9110392
9А,улица Кирова,690039,43.1706435,131.9097929
10,улица Кирова,690068,43.1699778,131.9118164
14/1,улица Кирова,690068,43.1711515,131.9132395
10А,улица Кирова,690068,43.1694439,131.9123980
12,улица Кирова,690068,43.1702479,131.9123067
14,улица Кирова,690068,43.1708698,131.9124920
13,улица Кирова,690039,43.1706450,131.9077986
11А,улица Кирова,690039,43.1698908,131.9077033
15,улица Кирова,690039,43.1710808,131.9080641
14/2,улица Кирова,690068,43.1720380,131.9133959
20,улица Кирова,690068,43.1722559,131.9110003
19/2,улица Кирова,690039,43.1718405,131.9097948
18,улица Кирова,690068,43.1717348,131.9112672
19/1,улица Кирова,690039,43.1715250,131.9100230
16,улица Кирова,690068,43.1713267,131.9108986
16А,улица Кирова,690068,43.1720114,131.9105373
18А,улица Кирова,690068,43.1714602,131.9123194
22А,улица Кирова,690068,43.1719474,131.9127352
21/2,улица Кирова,690039,43.1725688,131.9093355
22,улица Кирова,690068,43.1723011,131.9115501
20А,улица Кирова,690068,43.1725964,131.9103471
31 с2,Дальзаводская улица,690001,43.1122816,131.9164933
13,Горийская улица,690034,43.1093767,131.9409554
13,Октябрьская улица,690091,43.1253430,131.8846531
4/6,Октябрьская улица,690091,43.1247368,131.8835439
15,Монтажная улица,690011,43.0956740,131.9640635
25,улица Уборевича,690091,43.1209645,131.8913925
16/18,Партизанский проспект,690106,43.1249917,131.8946471
9,Партизанский проспект,690106,43.1258079,131.8951901
12А,Партизанский проспект,690106,43.1247322,131.8940503
3,Партизанский проспект,690106,43.1254338,131.8944747
12,Партизанский проспект,690106,43.1244648,131.8934326
10,Нерчинская улица,690106,43.1235843,131.8947893
8,Нерчинская улица,690106,43.1231692,131.8939596
25Г,улица Кирова,690068,43.1759101,131.9087591
24А,улица Кирова,690068,43.1725395,131.9126377
31,улица Кирова,690068,43.1766904,131.9102509
27,улица Кирова,690068,43.1752933,131.9098508
29,улица Кирова,690068,43.1759713,131.9101266
30,улица Кирова,690068,43.1738364,131.9129109
25А,улица Кирова,690068,43.1753839,131.9075216
26,улица Кирова,690068,43.1730975,131.9123152
36,улица Кирова,690068,43.1743216,131.9105432
32,улица Кирова,690068,43.1732626,131.9102120
34А,улица Кирова,690068,43.1736942,131.9111172
25Б,улица Кирова,690068,43.1750244,131.9082987
23,улица Кирова,690068,43.1744298,131.9095064
34,улица Кирова,690068,43.1737980,131.9103692
25,улица Кирова,690068,43.1753995,131.9089909
25В,улица Кирова,690068,43.1755585,131.9081418
28,улица Кирова,690068,43.1736229,131.9123132
24,улица Кирова,690068,43.1726035,131.9119678
44А,улица Кирова,690068,43.1744157,131.9129042
40,улица Кирова,690068,43.1744364,131.9116222
54,улица Кирова,690068,43.1776694,131.9111097
66,улица Кирова,690068,43.1809585,131.9123692
45,улица Кирова,690068,43.1773970,131.9101758
42,улица Кирова,690068,43.1746997,131.9121778
50,улица Кирова,690068,43.1765719,131.9111772
48,улица Кирова,690068,43.1760096,131.9111198
44,улица Кирова,690068,43.1750657,131.9127102
38,улица Кирова,690068,43.1745954,131.9110326
58,улица Кирова,690068,43.1783240,131.9122361
68В,улица Кирова,690068,43.1808711,131.9113450
38А,улица Кирова,690068,43.1750347,131.9105272
52,улица Кирова,690068,43.1771337,131.9111439
60,улица Кирова,690068,43.1783790,131.9115183
93/2,улица Кирова,690068,43.1837400,131.9106541
93/85,улица Кирова,690068,43.1833107,131.9106168
77,улица Кирова,690068,43.1803900,131.9103588
93,улица Кирова,690068,43.1819380,131.9104340
93А,улица Кирова,690068,43.1810340,131.9104512
93/1,улица Кирова,690068,43.1841002,131.9102164
79А,улица Кирова,690068,43.1800540,131.9089269
116,улица Кирова,690022,43.1861116,131.9125643
105,улица Кирова,690022,43.1891371,131.9133972
95А,улица Кирова,690022,43.1850334,131.9109225
103,улица Кирова,690022,43.1889000,131.9138258
101,улица Кирова,690022,43.1881522,131.9134517
4,улица Колесника,690048,43.1539130,131.9117911
8,Южно-Уральская улица,690048,43.1539651,131.9148993
10А,улица Колесника,690048,43.1537959,131.9136345
11 к1,Командорская улица,690080,43.0987048,131.9800918
9,Командорская улица,690080,43.1011293,131.9834269
80,улица Коммунаров,690017,43.0792849,131.9258732
36А,улица Коммунаров,690017,43.0926151,131.9279382
27А,Комсомольская улица,690002,43.1299245,131.8969050
27В,Комсомольская улица,690002,43.1303792,131.8977854
7А,Комсомольская улица,690078,43.1304771,131.8897677
1В,Комсомольская улица,690078,43.1309583,131.8891426
7,Комсомольская улица,690078,43.1303569,131.8900699
11,Комсомольская улица,690078,43.1304341,131.8907256
9В,Комсомольская улица,690078,43.1312027,131.8903354
5А,Комсомольская улица,690078,43.1306670,131.8900162
3,Комсомольская улица,690078,43.1307135,131.8894952
2,Комсомольская улица,690078,43.1299757,131.8887042
27Д,Комсомольская улица,690002,43.1301182,131.8975621
10В,Комсомольская улица,690078,43.1299380,131.8902308
17А,улица Корабельная Набережная,690091,43.1131364,131.8948092
21,улица Корабельная Набережная,690091,43.1134567,131.8985899
1,Корабельная набережная,690091,43.1147582,131.8854424
4 с10,Ивановская улица,690005,43.1105589,131.9325412
4 с6,Ивановская улица,690005,43.1113147,131.9331815
4 с7,Ивановская улица,690005,43.1111960,131.9337254
4 с8,Ивановская улица,690005,43.1111962,131.9283631
22,Партизанский проспект,690106,43.1254897,131.8958976
20,Партизанский проспект,690106,43.1251476,131.8953654
36,Партизанский проспект,690106,43.1269963,131.9003385
24,Партизанский проспект,690106,43.1257051,131.8965831
46,Нерчинская улица,690106,43.1253251,131.9000742
34,Нерчинская улица,690106,43.1246464,131.8978717
38,Нерчинская улица,690106,43.1251727,131.8991265
28,Партизанский проспект,690106,43.1262411,131.8978246
26,Партизанский проспект,690106,43.1257825,131.8973324
36,Нерчинская улица,690106,43.1249158,131.8985254
44,Нерчинская улица,690106,43.1248770,131.9005130
4,улица Махалина,690001,43.1126681,131.9204747
9,улица Махалина,690001,43.1138479,131.9197651
11А,улица Махалина,690001,43.1142066,131.9199497
13,улица Махалина,690001,43.1146184,131.9199594
14,Южно-Уральская улица,690018,43.1522868,131.9133105
16,Южно-Уральская улица,690018,43.1515220,131.9132674
16,улица Котельникова,690087,43.1300096,131.9326209
2 с1,улица Котельникова,690087,43.1309667,131.9287145
28,улица Котельникова,690087,43.1287661,131.9360707
7А,улица Котельникова,690087,43.1297393,131.9287678
26,улица Котельникова,690087,43.1291103,131.9351152
6,улица Котельникова,690087,43.1302063,131.9296868
32,улица Александра Грина,690065,43.0808877,131.8437688
34,улица Александра Грина,690065,43.0810094,131.8440437
15,улица Анисимова,690078,43.1363908,131.8892742
11,улица Анисимова,690078,43.1369922,131.8901417
7,улица Анисимова,690078,43.1369863,131.8895561
17,улица Анисимова,690078,43.1374615,131.8905678
5,улица Анисимова,690078,43.1369240,131.8891043
3,улица Анисимова,690078,43.1366070,131.8890348
6,Приморская улица,690063,43.0884544,131.8994929
10,Приморская улица,690063,43.0856775,131.8930222
10А,Приморская улица,690063,43.0863313,131.8931980
5А,Приморская улица,690063,43.0878089,131.8992703
8,Приморская улица,690063,43.0874769,131.8944221
1,Шестая улица,690024,43.2252064,131.9924474
11,Четвёртая улица,690024,43.2314355,131.9928479
20А,Шестая улица,690024,43.2314171,131.9910195
3,Шестая улица,690024,43.2258733,131.9921101
5,Шестая улица,690024,43.2264691,131.9917339
5А,Шестая улица,690024,43.2271970,131.9913677
6,Пятая улица,690024,43.2271908,131.9950568
6,Шестая улица,690024,43.2254180,131.9930612
7,Шестая улица,690024,43.2262712,131.9907425
8А,Четвёртая улица,690024,43.2300820,131.9965843
8А,Шестая улица,690024,43.2271503,131.9936118
8Г,Четвёртая улица,690024,43.2275846,131.9960861
8Е,Четвёртая улица,690024,43.2266401,131.9965024
9,Шестая улица,690024,43.2261492,131.9925631
14,Девятая улица,690024,43.2283625,131.9837910
12,Девятая улица,690024,43.2273057,131.9837250
20,Девятая улица,690024,43.2306401,131.9834545
10,Десятая улица,690024,43.2257850,131.9818797
13,Десятая улица,690024,43.2280681,131.9798761
26,Десятая улица,690024,43.2292862,131.9804224
8 с2,Двенадцатая улица,690024,43.2251560,131.9809191
9,Десятая улица,690024,43.2272130,131.9801402
2,Кипарисовая улица,690017,43.0880368,131.9168647
40,Пушкинская улица,690001,43.1148996,131.9106847
12,улица Глинки,690041,43.2172467,131.9532570
8А с1,улица Глинки,690041,43.2181018,131.9540123
2,улица Брюллова,690041,43.2160240,131.9532027
1/21,улица Брюллова,690041,43.2160607,131.9526065
69,улица Глинки,690041,43.2121820,131.9460691
15А,1-я Поселковая улица,690063,43.0864287,131.8992677
23,1-я Поселковая улица,690063,43.0866693,131.9040622
27,1-я Поселковая улица,690063,43.0868676,131.9026915
29,1-я Поселковая улица,690063,43.0867768,131.9020879
10,улица Горького,690041,43.2065429,131.9458461
14,улица Чапаева,690022,43.1830495,131.9161990
12,улица Чапаева,690022,43.1833290,131.9157234
16,улица Чапаева,690022,43.1827364,131.9166570
159Б,проспект 100-летия Владивостока,690022,43.1907172,131.9239104
159В,проспект 100-летия Владивостока,690022,43.1910735,131.9241267
159А,проспект 100-летия Владивостока,690022,43.1904009,131.9236948
159Г,проспект 100-летия Владивостока,690022,43.1910236,131.9235923
115,проспект 100-летия Владивостока,690068,43.1696690,131.9139148
1,улица Кочубея,690037,43.1053598,131.9635794
56,проспект 100-летия Владивостока,690033,43.1567408,131.9122880
58,проспект 100-летия Владивостока,690033,43.1572109,131.9124044
60,проспект 100-летия Владивостока,690033,43.1577307,131.9125021
62,проспект 100-летия Владивостока,690033,43.1582197,131.9126144
64,проспект 100-летия Владивостока,690033,43.1587607,131.9127522
66,проспект 100-летия Владивостока,690033,43.1593091,131.9126804
7А,улица Постышева,690048,43.1571842,131.9143122
17,улица Постышева,690048,43.1556722,131.9160730
13,улица Постышева,690048,43.1565308,131.9149400
9,улица Постышева,690048,43.1566427,131.9142696
23,улица Уборевича,690091,43.1205850,131.8913510
15,Ялтинская улица,690065,43.0881782,131.8552975
3А,Ялтинская улица,690065,43.0891137,131.8577439
5,Ялтинская улица,690065,43.0888386,131.8566221
6,Ялтинская улица,690065,43.0893941,131.8578092
6А,Ялтинская улица,690065,43.0893231,131.8573138
8А,Ялтинская улица,690065,43.0892055,131.8568231
21,Южно-Уральская улица,690018,43.1505298,131.9142463
18,Южно-Уральская улица,690018,43.1508252,131.9135488
20,Южно-Уральская улица,690018,43.1505683,131.9133973
22,Южно-Уральская улица,690018,43.1503286,131.9132546
8,Невская улица,690018,43.1500631,131.9130202
25,Южно-Уральская улица,690048,43.1499055,131.9135964
26,Южно-Уральская улица,690018,43.1497980,131.9129711
28,Южно-Уральская улица,690018,43.1495545,131.9128288
30,Южно-Уральская улица,690018,43.1492996,131.9126734
10,Экипажная улица,690001,43.1103479,131.9206813
12,Экипажная улица,690001,43.1105216,131.9215374
16,Экипажная улица,690001,43.1106103,131.9200447
4,Экипажная улица,690001,43.1100264,131.9197649
6,Экипажная улица,690001,43.1100552,131.9203794
23Б,Шуйская улица,690039,43.1639109,131.9091171
11,улица Шошина,690089,43.1531007,131.9227666
6А,улица Шошина,690089,43.1503766,131.9290201
27Б,улица Шошина,690089,43.1503429,131.9294357
27В,улица Шошина,690089,43.1498631,131.9266262
3,улица Шошина,690048,43.1540590,131.9202435
35 с2,улица Шошина,690089,43.1503519,131.9298629
37А,улица Шошина,690089,43.1513148,131.9321239
39,улица Шошина,690089,43.1515971,131.9315342
5,улица Шошина,690048,43.1540823,131.9209934
7,улица Шошина,690048,43.1542496,131.9216966
68,Пологая улица,690091,43.1200973,131.8905595
60,Пологая улица,690091,43.1204710,131.8889004
55,Пологая улица,690091,43.1209647,131.8881821
56,Пологая улица,690091,43.1205217,131.8883393
54А,Пологая улица,690091,43.1206295,131.8878773
63,Пологая улица,690091,43.1210156,131.8888181
65А,Пологая улица,690091,43.1209450,131.8893821
65Б,Пологая улица,690091,43.1207254,131.8891750
65,Пологая улица,690091,43.1206315,131.8897923
62,Пологая улица,690091,43.1203780,131.8893786
62А,Пологая улица,690091,43.1202931,131.8898238
67,Пологая улица,690091,43.1206556,131.8903023
25А,улица Уборевича,690091,43.1207774,131.8907767
69А,Пологая улица,690091,43.1204389,131.8907901
69,Пологая улица,690091,43.1203016,131.8910673
13А,улица Шевченко,690024,43.2234306,132.0035542
30,улица Чкалова,690068,43.1806749,131.9154889
11,Партизанский проспект,690106,43.1266422,131.8968393
10,улица Терешковой,690012,43.0981161,131.9133898
1,проспект 100-летия Владивостока,690062,43.1420163,131.9080928
7,проспект 100-летия Владивостока,690062,43.1438268,131.9061946
7А,проспект 100-летия Владивостока,690062,43.1441526,131.9056544
9А,проспект 100-летия Владивостока,690062,43.1445507,131.9050448
14,проспект 100-летия Владивостока,690062,43.1431359,131.9100615
16,проспект 100-летия Владивостока,690062,43.1434419,131.9091718
16А,проспект 100-летия Владивостока,690062,43.1436733,131.9089497
27,проспект 100-летия Владивостока,690062,43.1470504,131.9052620
20А,проспект 100-летия Владивостока,690062,43.1438469,131.9084750
22,проспект 100-летия Владивостока,690062,43.1446777,131.9083924
23,проспект 100-летия Владивостока,690062,43.1457104,131.9042533
24,проспект 100-летия Владивостока,690062,43.1446802,131.9076382
26,проспект 100-летия Владивостока,690062,43.1447355,131.9068285
28,проспект 100-летия Владивостока,690062,43.1452936,131.9065830
28А,проспект 100-летия Владивостока,690062,43.1456216,131.9065824
28Б,проспект 100-летия Владивостока,690062,43.1459613,131.9065822
28В,проспект 100-летия Владивостока,690062,43.1463248,131.9065814
28Г,проспект 100-летия Владивостока,690062,43.1466949,131.9065806
2,Днепровская улица,690062,43.1441373,131.9078995
30Г,проспект 100-летия Владивостока,690048,43.1492088,131.9074751
30Е,проспект 100-летия Владивостока,690048,43.1492822,131.9090425
31В,проспект 100-летия Владивостока,690048,43.1495443,131.9025085
39Б,проспект 100-летия Владивостока,690048,43.1511680,131.9072311
42А,проспект 100-летия Владивостока,690048,43.1519892,131.9084061
54А,проспект 100-летия Владивостока,690048,43.1556465,131.9129554
57А,проспект 100-летия Владивостока,690033,43.1584617,131.9080773
57Б,проспект 100-летия Владивостока,690033,43.1591321,131.9079128
57Д,проспект 100-летия Владивостока,690033,43.1570167,131.9107353
57Е,проспект 100-летия Владивостока,690033,43.1570884,131.9103837
57Ж,проспект 100-летия Владивостока,690033,43.1583721,131.9110340
57Р,проспект 100-летия Владивостока,690048,43.1571229,131.9089704
12А,улица Махалина,690001,43.1135316,131.9205394
15,Русская улица,690039,43.1695499,131.9085449
17,Невская улица,690018,43.1495828,131.9166896
22,Невская улица,690018,43.1488365,131.9172109
13,Невская улица,690018,43.1499357,131.9146514
20А,Невская улица,690018,43.1485431,131.9164512
24,Невская улица,690018,43.1486928,131.9177378
14А,Невская улица,690048,43.1492865,131.9149764
13А,Невская улица,690018,43.1502386,131.9148012
18,Невская улица,690018,43.1489133,131.9163151
20,Невская улица,690018,43.1490017,131.9166821
56,улица Станюковича,690003,43.1044972,131.8686002
2,улица 42-й причал,690012,43.1058051,131.8945415
54Г,улица Станюковича,690003,43.1047542,131.8688141
52Ж,Луговая улица,690087,43.1295177,131.9413943
5,улица Краева,690012,43.1024198,131.8943781
8,Сахалинская улица,690080,43.0961983,131.9658187
4А,Сахалинская улица,690080,43.0973064,131.9660612
22 с3,улица Воропаева,690034,43.1049231,131.9460279
8 с1,улица Шепеткова,690013,43.1106185,131.9399729
1,Артековская улица,690108,43.2104761,132.1458132
1А,Артековская улица,690108,43.2113320,132.1453413
3,Артековская улица,690108,43.2101671,132.1465550
5,Артековская улица,690108,43.2097032,132.1473121
7,Артековская улица,690108,43.2092367,132.1481407
9,Артековская улица,690108,43.2110646,132.1489431
10,Артековская улица,690108,43.2068243,132.1516905
22,Магнитогорская улица,690068,43.1762234,131.9117784
33А,улица Постышева,690033,43.1569821,131.9192711
35,улица Постышева,690033,43.1567305,131.9207850
37,улица Постышева,690033,43.1577020,131.9206815
45,улица Постышева,690033,43.1580755,131.9222510
47,улица Постышева,690033,43.1577585,131.9229528
49,улица Постышева,690033,43.1583629,131.9229534
10/1,Ульяновская улица,690089,43.1584516,131.9254821
10/2,Ульяновская улица,690089,43.1587487,131.9253720
10/3,Ульяновская улица,690089,43.1590463,131.9252411
12/1,Ульяновская улица,690089,43.1588687,131.9244844
12/2,Ульяновская улица,690089,43.1591616,131.9243082
12/3,Ульяновская улица,690089,43.1594602,131.9241322
4,Ульяновская улица,690089,43.1583325,131.9263904
6,Ульяновская улица,690089,43.1580782,131.9265026
8,Ульяновская улица,690089,43.1586697,131.9262665
52,Партизанский проспект,690002,43.1285854,131.9061232
58В,Партизанский проспект,690002,43.1287705,131.9084351
133А,проспект 100-летия Владивостока,690068,43.1715081,131.9140112
1А,улица Терешковой,690035,43.0983727,131.9157937
16,улица Терешковой,690012,43.0966738,131.9137192
14,улица Терешковой,690012,43.0974002,131.9135418
3А,улица Терешковой,690035,43.0972737,131.9157814
5А,улица Терешковой,690035,43.0958102,131.9161983
12,улица Терешковой,690012,43.0978002,131.9128344
1,улица Терешковой,690035,43.0974188,131.9147620
5,улица Терешковой,690035,43.0964212,131.9154127
130,улица Маковского,690041,43.2216984,131.9683648
104,улица Маковского,690041,43.2212366,131.9683018
108,улица Маковского,690041,43.2208983,131.9687034
106,улица Маковского,690041,43.2210694,131.9684347
98,улица Маковского,690041,43.2212327,131.9676519
6А,улица Уборевича,690091,43.1159285,131.8896499
66,Океанский проспект,690091,43.1308013,131.8949017
1,Невская улица,690018,43.1506952,131.9119924
2,Невская улица,690018,43.1504472,131.9118311
3,Невская улица,690018,43.1505613,131.9124657
4,Невская улица,690018,43.1502770,131.9123131
4А,Невская улица,690018,43.1500723,131.9120844
5,Невская улица,690018,43.1504615,131.9128564
6,Невская улица,690018,43.1501684,131.9127005
33,Сахалинская улица,690080,43.0905090,131.9676744
35,Сахалинская улица,690080,43.0908113,131.9682638
40А,Сахалинская улица,690080,43.0898640,131.9677593
4/2,Таёжная улица,690024,43.2457799,132.0424915
35,улица Новожилова,690011,43.0913130,131.9601405
16,Пологая улица,690091,43.1221981,131.8800718
17,Пологая улица,690091,43.1225505,131.8804843
18,Пологая улица,690091,43.1221436,131.8803598
20,Пологая улица,690091,43.1220899,131.8806235
49,улица Фадеева,690034,43.1039600,131.9768993
32Г,улица Воропаева,690034,43.1047151,131.9482951
13,улица Александровича,690054,43.2718376,132.0499763
139А,Русская улица,690105,43.1898472,131.9501616
139,Русская улица,690105,43.1902295,131.9500613
92А,Русская улица,690105,43.1674435,131.9384087
26А,Пограничная улица,690091,43.1244022,131.8816159
133,проспект 100-летия Владивостока,690068,43.1721378,131.9143524
135,проспект 100-летия Владивостока,690068,43.1724902,131.9150940
137,проспект 100-летия Владивостока,690068,43.1726537,131.9158655
137А,проспект 100-летия Владивостока,690068,43.1731015,131.9157678
139,проспект 100-летия Владивостока,690068,43.1733490,131.9163562
10 с2,улица Чкалова,690068,43.1775078,131.9143701
11,Магнитогорская улица,690068,43.1751765,131.9134503
12,Магнитогорская улица,690068,43.1766779,131.9144912
12/2,улица Чкалова,690068,43.1774812,131.9135599
12А,Магнитогорская улица,690068,43.1768690,131.9148440
12Б,Магнитогорская улица,690068,43.1766543,131.9151329
13,Магнитогорская улица,690068,43.1741647,131.9137276
18,улица Чкалова,690068,43.1811386,131.9142912
20,улица Чкалова,690068,43.1818215,131.9140455
22,улица Чкалова,690022,43.1825580,131.9143222
24,улица Чкалова,690022,43.1827448,131.9149802
26,улица Чкалова,690022,43.1822394,131.9157479
30/1,улица Чкалова,690068,43.1806605,131.9146869
30/2,улица Чкалова,690068,43.1810303,131.9146837
30/3,улица Чкалова,690068,43.1814137,131.9146829
4,Магнитогорская улица,690068,43.1759311,131.9158962
6,Магнитогорская улица,690068,43.1761741,131.9153951
7,Магнитогорская улица,690068,43.1754676,131.9142523
8,Магнитогорская улица,690068,43.1769863,131.9162171
9,Магнитогорская улица,690068,43.1747613,131.9139826
12 с6,Магнитогорская улица,690068,43.1770346,131.9145797
12 с5,Магнитогорская улица,690068,43.1769078,131.9140670
4,улица Надибаидзе,690012,43.0945995,131.8956740
6,улица Надибаидзе,690012,43.0949107,131.8956258
8,улица Надибаидзе,690012,43.0960239,131.8955135
95,улица Маковского,690024,43.2259342,131.9954398
51,2-я Поселковая улица,690063,43.0858276,131.9013711
25,улица Терешковой,690035,43.0956675,131.9175455
35,Снеговая улица,690074,43.1375682,131.9617186
54,улица Станюковича,690003,43.1050808,131.8690840
2,Рыбацкая улица,690054,43.2787060,132.0495296
2А,Рыбацкая улица,690054,43.2790595,132.0493214
25Д,улица Кирова,690068,43.1763892,131.9085735
25Е,улица Кирова,690068,43.1763794,131.9075679
53,Пушкинская улица,690001,43.1168378,131.9070220
55,Пушкинская улица,690001,43.1163447,131.9076223
3,улица Металлистов,690001,43.1154610,131.9127097
5,улица Металлистов,690001,43.1159196,131.9128983
12А с2,Невская улица,690018,43.1494965,131.9142767
12А,Невская улица,690048,43.1493921,131.9138572
20,Народный проспект,690014,43.1284570,131.9196921
6,Народный проспект,690014,43.1268172,131.9214887
29 к3,Народный проспект,690014,43.1285717,131.9179033
28,Народный проспект,690014,43.1293564,131.9187999
39А,1-я Флотская улица,690013,43.1153523,131.9383216
32,Луговая улица,690005,43.1156438,131.9372575
41,1-я Флотская улица,690013,43.1153755,131.9387406
30,Луговая улица,690005,43.1154389,131.9366586
48,Окатовая улица,690017,43.0920809,131.9164648
25Б,Октябрьская улица,690091,43.1252513,131.8864615
2,улица Пацаева,690092,43.0942139,131.9783745
19А,улица Космонавтов,690080,43.0900270,131.9728406
15,улица Космонавтов,690080,43.0888410,131.9716051
7,улица Космонавтов,690080,43.0886912,131.9691856
1,улица Космонавтов,690080,43.0895858,131.9675545
49,Сахалинская улица,690092,43.0934367,131.9699445
17,улица Космонавтов,690080,43.0889942,131.9728019
27,улица Космонавтов,690080,43.0910693,131.9736097
8,улица Беляева,690080,43.0894391,131.9685196
3,улица Беляева,690080,43.0906403,131.9727109
11,улица Пацаева,690092,43.0945524,131.9766366
53,Сахалинская улица,690092,43.0944453,131.9697872
9,улица Добровольского,690092,43.0924040,131.9768383
13,улица Добровольского,690092,43.0912776,131.9782199
54,Сахалинская улица,690080,43.0911037,131.9715828
21,улица Космонавтов,690080,43.0899019,131.9738737
5А,улица Добровольского,690092,43.0929114,131.9745222
5,улица Пацаева,690092,43.0936633,131.9772021
23,улица Космонавтов,690080,43.0903622,131.9739626
3А,улица Волкова,690092,43.0934692,131.9720010
11,улица Волкова,690092,43.0944934,131.9757252
15,улица Добровольского,690092,43.0919837,131.9789051
6,улица Беляева,690080,43.0892903,131.9694714
25,улица Космонавтов,690080,43.0907305,131.9740308
7А,улица Добровольского,690092,43.0932715,131.9757004
58,Сахалинская улица,690092,43.0942034,131.9706113
17,улица Добровольского,690092,43.0930799,131.9790359
7,улица Беляева,690080,43.0897163,131.9717883
51,Сахалинская улица,690092,43.0938635,131.9698677
47,улица Добровольского,690092,43.0941171,131.9734710
11,улица Добровольского,690092,43.0916939,131.9773977
23,улица Добровольского,690092,43.0953665,131.9789288
50,Сахалинская улица,690080,43.0910694,131.9706576
19,улица Добровольского,690092,43.0935706,131.9792487
4,улица Беляева,690080,43.0897520,131.9707035
19,улица Космонавтов,690080,43.0895996,131.9732333
1А,улица Волкова,690092,43.0928895,131.9719626
3,улица Волкова,690092,43.0948519,131.9741078
21,улица Добровольского,690092,43.0940691,131.9794020
9,улица Пацаева,690092,43.0943033,131.9773737
3,улица Космонавтов,690080,43.0891708,131.9677004
56,Сахалинская улица,690092,43.0933276,131.9709350
48,Сахалинская улица,690080,43.0904115,131.9701565
7,улица Пацаева,690092,43.0938412,131.9776504
1,улица Пацаева,690092,43.0929596,131.9784006
5,улица Беляева,690080,43.0902037,131.9718994
37,улица Добровольского,690092,43.0959208,131.9735758
47,Сахалинская улица,690092,43.0930288,131.9700357
1,улица Волкова,690092,43.0930328,131.9729443
3,улица Пацаева,690092,43.0930822,131.9776391
5,улица Космонавтов,690080,43.0888556,131.9679642
5А,улица Пацаева,690092,43.0932719,131.9765875
3А,улица Пацаева,690092,43.0929261,131.9769812
11,улица Вилкова,690077,43.0992519,131.9253697
28,улица 50 лет ВЛКСМ,690077,43.0984906,131.9281897
40,улица Крыгина,690065,43.0899997,131.8596268
20В,улица Уборевича,690001,43.1193855,131.8932559
72,улица Борисенко,690011,43.0944272,131.9636667
76,улица Борисенко,690011,43.0944750,131.9621747
74,улица Борисенко,690011,43.0944234,131.9629569
24,Снеговая улица,690074,43.1375745,131.9448742
44,улица Басаргина,690080,43.0743498,131.9479912
48,улица Басаргина,690080,43.0738549,131.9467456
50,улица Басаргина,690080,43.0735713,131.9462208
46,улица Басаргина,690080,43.0740921,131.9473455
52,улица Басаргина,690080,43.0730865,131.9458980
13,улица Шевченко,690024,43.2238489,132.0031890
4,Народный проспект,690014,43.1264015,131.9218130
2В,Народный проспект,690014,43.1255078,131.9224732
4А,Народный проспект,690014,43.1259044,131.9222066
2,Народный проспект,690014,43.1248544,131.9229843
2А,Народный проспект,690014,43.1251741,131.9227433
2Б,Народный проспект,690014,43.1253939,131.9226065
11А,улица Воропаева,690034,43.1064695,131.9475357
20,Фастовская улица,690021,43.1006817,131.8983352
38,улица Басаргина,690080,43.0755729,131.9518603
35,улица Басаргина,690080,43.0752504,131.9532393
33,улица Басаргина,690080,43.0751075,131.9537890
37,улица Басаргина,690080,43.0753213,131.9524425
32,улица Басаргина,690080,43.0756057,131.9540961
19,улица Басаргина,690080,43.0751698,131.9576840
34,улица Басаргина,690080,43.0756370,131.9534604
22,улица Басаргина,690080,43.0755150,131.9563467
21,улица Басаргина,690080,43.0750747,131.9571567
36,улица Басаргина,690080,43.0756826,131.9525255
27,улица Басаргина,690080,43.0747572,131.9556248
26,улица Басаргина,690080,43.0755368,131.9556524
23,улица Басаргина,690080,43.0749704,131.9566607
24,улица Басаргина,690080,43.0751534,131.9557435
31,улица Басаргина,690080,43.0749590,131.9542756
16,улица Басаргина,690080,43.0758549,131.9583329
29,улица Басаргина,690080,43.0748102,131.9548264
18,улица Басаргина,690080,43.0756873,131.9576971
28,улица Басаргина,690080,43.0752612,131.9546785
25,улица Басаргина,690080,43.0748618,131.9561671
20А,улица Басаргина,690080,43.0755568,131.9570367
30,улица Басаргина,690080,43.0755769,131.9547788
17,улица Басаргина,690080,43.0752691,131.9582459
15,улица Басаргина,690080,43.0754205,131.9587935
11,Высоковольтная улица,690034,43.1120183,131.9550979
13,Высоковольтная улица,690034,43.1121772,131.9552650
10,Высоковольтная улица,690034,43.1120823,131.9555939
42В,улица Маковского,690041,43.2115816,131.9526286
30 с4,Выселковая улица,690074,43.1455522,131.9523808
29 с20,Днепровская улица,690089,43.1518936,131.9379774
5,улица Авиаторов,690041,43.2074581,131.9440971
100 с1,Днепровская улица,690089,43.1578641,131.9408186
100 с2,Днепровская улица,690089,43.1578390,131.9399803
32Б,Енисейская улица,690039,43.1765535,131.9058233
68 с1,улица Кирова,690068,43.1811205,131.9113785
17,улица Патрокл,690011,43.0922480,131.9409407
32А,улица Толстого,690014,43.1209229,131.9124541
1 с2,Пионерская улица,690001,43.1106750,131.9250320
2Б,Новоивановская улица,690005,43.1100857,131.9340813
4 с13,Ивановская улица,690005,43.1096261,131.9287841
4 с14,Ивановская улица,690005,43.1096559,131.9285243
4 с9,Ивановская улица,690005,43.1110635,131.9280336
48,Нерчинская улица,690106,43.1258397,131.9008615
58,Нерчинская улица,690106,43.1238482,131.9023457
54,Нерчинская улица,690106,43.1244494,131.9020564
56,Нерчинская улица,690106,43.1249384,131.9016433
1,Татарская улица,690039,43.1694978,131.9000550
1 с11,Татарская улица,690039,43.1700986,131.8976512
1 с2,Татарская улица,690039,43.1691816,131.8997463
1 с3,Татарская улица,690039,43.1680537,131.9002673
1 с4,Татарская улица,690039,43.1685203,131.8993013
1 с5,Татарская улица,690039,43.1684390,131.9005515
1 с6,Татарская улица,690039,43.1683594,131.9007820
1 с1,Татарская улица,690039,43.1707271,131.8993223
1 с8,Татарская улица,690039,43.1705872,131.8987748
1 с9,Татарская улица,690039,43.1698657,131.8984438
12А,Татарская улица,690039,43.1694209,131.9008991
6,улица Махалина,690001,43.1128782,131.9204823
1,Сопочная улица,690105,43.1843115,131.9415950
35,Лазурная улица,690108,43.1675624,132.0818732
35 с3,Лазурная улица,690108,43.1681664,132.0819513
78А,Светланская улица,690091,43.1146977,131.9081144
47 с2,улица Коммунаров,690017,43.0857360,131.9264217
100Б с3,улица Борисенко,690011,43.0851834,131.9662836
24,Можайская улица,690011,43.0864040,131.9570397
20,Можайская улица,690011,43.0866339,131.9551263
22,Можайская улица,690011,43.0864531,131.9560679
1Б,Можайская улица,690011,43.0884116,131.9589178
21В,улица Кирова,690039,43.1729100,131.9094929
1Д,Сахалинская улица,690080,43.0983314,131.9672815
7 с1,улица бухта Якорная,690108,43.2374957,132.2284229
7 с25,улица бухта Якорная,690108,43.2378813,132.2250313
7 с10,улица бухта Якорная,690108,43.2381532,132.2302318
7 с11,улица бухта Якорная,690108,43.2381824,132.2299368
7 с12,улица бухта Якорная,690108,43.2382089,132.2296486
7 с13,улица бухта Якорная,690108,43.2382354,132.2293648
7 с14,улица бухта Якорная,690108,43.2382702,132.2290741
7 с15,улица бухта Якорная,690108,43.2383684,132.2283979
7 с16,улица бухта Якорная,690108,43.2384158,132.2281225
7 с17,улица бухта Якорная,690108,43.2384940,132.2278476
7 с18,улица бухта Якорная,690108,43.2385577,132.2275621
7 с24,улица бухта Якорная,690108,43.2376984,132.2290929
7 с2,улица бухта Якорная,690108,43.2376165,132.2281889
7 с3,улица бухта Якорная,690108,43.2377318,132.2279449
7 с4,улица бухта Якорная,690108,43.2378513,132.2277063
7 с5,улица бухта Якорная,690108,43.2379660,132.2274824
7 с6,улица бухта Якорная,690108,43.2380657,132.2272034
7 с7,улица бухта Якорная,690108,43.2381310,132.2269185
7 с8,улица бухта Якорная,690108,43.2380813,132.2266400
7 с9,улица бухта Якорная,690108,43.2381361,132.2305207
20А с1,улица Кирова,690068,43.1726927,131.9099892
10,улица Кутузова,690049,43.1658183,131.9214352
21,улица Марченко,690087,43.1328012,131.9301926
23,улица Марченко,690087,43.1327996,131.9308097
32,улица Марченко,690087,43.1324161,131.9279129
38,улица Марченко,690087,43.1325057,131.9300012
28А,Окатовая улица,690035,43.0934171,131.9182002
28,Окатовая улица,690035,43.0933823,131.9176966
30,улица Глинки,690041,43.2150626,131.9490958
42,улица Айвазовского,690024,43.2195258,132.0036310
38В,улица Айвазовского,690024,43.2183756,132.0020912
73,улица Айвазовского,690024,43.2204259,132.0031501
34 с2,улица Айвазовского,690024,43.2159486,131.9993903
59,улица Айвазовского,690024,43.2181465,132.0003255
4А,Снеговая улица,690087,43.1368094,131.9318166
4,Снеговая улица,690087,43.1367231,131.9308446
6 к1,Снеговая улица,690087,43.1363346,131.9319997
6,Снеговая улица,690087,43.1366630,131.9324457
40А,Партизанский проспект,690106,43.1273207,131.9005982
44 к5,Партизанский проспект,690106,43.1258441,131.9029521
42,Партизанский проспект,690106,43.1273865,131.9013994
40,Партизанский проспект,690106,43.1271367,131.9008644
44 к6,Партизанский проспект,690106,43.1270478,131.9015384
30,Партизанский проспект,690106,43.1267577,131.9000428
44 к8,Партизанский проспект,690106,43.1267783,131.9020069
44 к4,Партизанский проспект,690106,43.1263371,131.9032631
66 с2,улица Тухачевского,690089,43.1563645,131.9340819
2В,Русская улица,690039,43.1631634,131.9060539
1 с1,Лесной переулок,690091,43.1250511,131.8799345
2А,Лесной переулок,690091,43.1246816,131.8797252
10,Партизанский проспект,690106,43.1240233,131.8929489
13А,Партизанский проспект,690106,43.1267771,131.8978671
14,Партизанский проспект,690106,43.1244807,131.8943549
21Г,Партизанский проспект,690106,43.1275309,131.9002535
28Б,Партизанский проспект,690106,43.1262141,131.8986850
43,Партизанский проспект,690002,43.1294038,131.9037245
44 к10,Партизанский проспект,690106,43.1273503,131.9025719
44 к11,Партизанский проспект,690106,43.1268505,131.9031697
44 к12,Партизанский проспект,690106,43.1268911,131.9039373
44 к7,Партизанский проспект,690106,43.1266954,131.9014706
6,Партизанский проспект,690106,43.1237790,131.8924571
8,Партизанский проспект,690106,43.1237123,131.8929186
284,улица Маковского,690024,43.2368959,132.0409170
1,улица Адмирала Угрюмова,690108,43.2094512,132.0920749
1А,улица Адмирала Угрюмова,690108,43.2109825,132.0890763
1В,Артековская улица,690108,43.2100454,132.1373906
2,улица Адмирала Угрюмова,690108,43.2092801,132.0926953
3,улица Адмирала Угрюмова,690108,43.2089155,132.0938405
4,улица Адмирала Угрюмова,690108,43.2091342,132.0933900
42,улица Адмирала Угрюмова,690108,43.2082779,132.0940513
5,улица Адмирала Угрюмова,690108,43.2081304,132.0931769
5А,улица Адмирала Угрюмова,690108,43.2106134,132.0911951
7,улица Адмирала Угрюмова,690108,43.2092375,132.0939635
8А,улица Адмирала Угрюмова,690108,43.2094283,132.0929663
25,Нерчинская улица,690106,43.1248515,131.8965640
3,Нерчинская улица,690106,43.1234580,131.8932061
30,улица Гоголя,690014,43.1226470,131.9048170
48А,Нерчинская улица,690106,43.1256464,131.9001963
49,Партизанский проспект,690002,43.1291085,131.9042480
4А,улица Достоевского,690014,43.1235933,131.9053659
50,Нерчинская улица,690106,43.1257333,131.9019020
52,Нерчинская улица,690106,43.1250250,131.9025192
6,Нерчинская улица,690106,43.1229137,131.8937653
28Б,улица Приходько,690034,43.1060266,131.9482220
9/1,улица Терешковой,690035,43.0948923,131.9153127
15,улица Терешковой,690035,43.0949072,131.9167334
19,улица Терешковой,690035,43.0944693,131.9172259
1В,улица Терешковой,690035,43.0983205,131.9147208
23,улица Терешковой,690035,43.0941772,131.9178953
27,улица Терешковой,690035,43.0940131,131.9187514
3,улица Терешковой,690035,43.0969186,131.9150865
14 с2,улица Шепеткова,690013,43.1131290,131.9398266
28,Луговая улица,690005,43.1147785,131.9369402
28 с2,Луговая улица,690005,43.1145331,131.9365491
32/2,Луговая улица,690005,43.1152891,131.9372845
60/1,улица Шепеткова,690013,43.1189612,131.9423436
55А,Луговая улица,690005,43.1208035,131.9366395
59В,Луговая улица,690005,43.1210523,131.9373575
50А,Луговая улица,690087,43.1297420,131.9455338
52В,Луговая улица,690087,43.1285415,131.9431783
52Б,Луговая улица,690087,43.1289109,131.9426038
6,улица Марченко,690088,43.1319738,131.9230185
16/1,улица Борисенко,690016,43.1011659,131.9431791
10,улица Станюковича,690003,43.1099369,131.8759272
13,улица Станюковича,690003,43.1086848,131.8758073
14,улица Станюковича,690003,43.1088010,131.8750373
53А,улица Станюковича,690003,43.1046008,131.8698880
1,Почтовая улица,690091,43.1160206,131.8909367
2,Почтовая улица,690091,43.1162590,131.8901331
25Б,Комсомольская улица,690002,43.1300969,131.8955502
10,улица Шевченко,690024,43.2248204,132.0010818
16,улица Шевченко,690024,43.2241062,132.0015791
5А,улица Ломоносова,690014,43.1197703,131.9081208
26Б,Бородинская улица,690105,43.1609139,131.9441604
136,улица Маковского,690041,43.2221648,131.9702653
48А,улица Маковского,690041,43.2148201,131.9569762
26Б,улица Шишкина,690041,43.2135392,131.9590399
31Б,улица Шишкина,690041,43.2125733,131.9615374
26Г,улица Шишкина,690041,43.2142597,131.9583928
23,улица Шишкина,690041,43.2136769,131.9602477
62,улица Шишкина,690041,43.2111963,131.9635035
29А,улица Шишкина,690041,43.2127541,131.9603833
37А,улица Шишкина,690041,43.2123827,131.9626781
19,улица Шишкина,690041,43.2145214,131.9592832
22,улица Шишкина,690041,43.2145233,131.9582411
22/1,улица Шишкина,690041,43.2148282,131.9581147
33,улица Шишкина,690041,43.2124375,131.9617690
53,улица Шишкина,690041,43.2110911,131.9656703
71,улица Шишкина,690041,43.2087385,131.9681633
74,улица Шишкина,690041,43.2083247,131.9679390
73А,улица Шишкина,690041,43.2078984,131.9689296
76,улица Шишкина,690041,43.2079671,131.9682694
96,улица Шишкина,690041,43.2071355,131.9690887
8В,Пятая улица,690024,43.2273986,131.9945778
52,Сахалинская улица,690080,43.0905435,131.9708849
12В,Магнитогорская улица,690068,43.1762534,131.9140827
18,Севастопольская улица,690000,43.0947021,131.8582377
8А,улица Краева,690012,43.1029946,131.8966446
279А с1,улица Калинина,690021,43.0940226,131.9073992
184А,Лиманная улица,690912,43.2881322,132.0569863
184Б,Лиманная улица,690912,43.2879815,132.0566374
186А,Лиманная улица,690912,43.2877434,132.0570775
54А с1,Выселковая улица,690074,43.1469338,131.9530638
30 с13,Выселковая улица,690074,43.1463867,131.9530136
45А,улица Прапорщика Комарова,690091,43.1215777,131.8928869
53,Партизанский проспект,690002,43.1290398,131.9051788
1,улица 40 лет ВЛКСМ,690016,43.1030925,131.9352795
5,улица 40 лет ВЛКСМ,690016,43.1027744,131.9364147
9,улица 40 лет ВЛКСМ,690016,43.1024831,131.9374598
3,улица 40 лет ВЛКСМ,690016,43.1029378,131.9358309
7,улица 40 лет ВЛКСМ,690016,43.1026310,131.9369299
11,улица 40 лет ВЛКСМ,690016,43.1023385,131.9379775
32,Сахалинская улица,690080,43.0937581,131.9646475
34,Сахалинская улица,690080,43.0932781,131.9655804
57/4,Алеутская улица,690091,43.1238484,131.8835999
57/6,Алеутская улица,690091,43.1238338,131.8820913
16А,2-я Строительная улица,690011,43.0937446,131.9558356
11,улица Космонавтов,690080,43.0882205,131.9703862
8А,улица Космонавтов,690080,43.0855246,131.9712566
9,улица Космонавтов,690080,43.0884129,131.9699106
9,улица Волкова,690092,43.0943489,131.9746263
42 с4,Сахалинская улица,690080,43.0901032,131.9675696
5,улица Черняховского,690013,43.1193623,131.9556927
8А,улица Сафонова,690016,43.0977912,131.9479573
22,улица Сафонова,690011,43.0936976,131.9507133
20А,улица Сафонова,690011,43.0938513,131.9510159
24А,улица Сафонова,690011,43.0936588,131.9509532
53В,улица Никифорова,690011,43.0930865,131.9530314
14,улица Сафонова,690011,43.0964308,131.9501020
39,улица Никифорова,690011,43.0957409,131.9545554
43,улица Никифорова,690011,43.0945845,131.9543498
55В,улица Никифорова,690011,43.0938269,131.9535590
6А,улица Никифорова,690011,43.0913659,131.9542001
26 с3,улица Сафонова,690011,43.0935033,131.9518593
34А,улица Сафонова,690011,43.0915002,131.9516933
59/1,улица Володарского,690001,43.1173387,131.9124621
55,улица Володарского,690001,43.1174260,131.9118303
30,улица Володарского,690001,43.1170324,131.9124098
28,улица Володарского,690001,43.1170583,131.9121746
26,улица Володарского,690001,43.1171025,131.9117992
22,улица Металлистов,690001,43.1156877,131.9139306
5,4-я Пригородная улица,690054,43.2787200,132.0624575
155 к2,проспект 100-летия Владивостока,690068,43.1791621,131.9176365
155 к1,проспект 100-летия Владивостока,690068,43.1782321,131.9178389
155 к5,проспект 100-летия Владивостока,690068,43.1791544,131.9179981
155 к4,проспект 100-летия Владивостока,690068,43.1801452,131.9175092
155 к3,проспект 100-летия Владивостока,690068,43.1802555,131.9168686
3,Полтавская улица,690012,43.1049611,131.8981058
11,Полтавская улица,690012,43.1047231,131.8981003
15,Полтавская улица,690012,43.1044843,131.8982248
12 с4,Магнитогорская улица,690068,43.1764303,131.9142612
1,Пионерская улица,690001,43.1108480,131.9256575
26,улица Жигура,690088,43.1291507,131.9259809
26А,улица Карла Жигура,690088,43.1298096,131.9271567
20,Смоленская улица,690011,43.0924030,131.9488465
14,улица Коммуны,690025,43.2586356,132.0133208
1,улица Коммуны,690025,43.2551109,132.0174137
6,улица Коммуны,690025,43.2551363,132.0179953
2,улица Коммуны,690025,43.2544218,132.0180118
75,улица Есенина,690025,43.2547761,132.0164695
74,улица Есенина,690025,43.2546853,132.0153654
73,улица Есенина,690025,43.2547964,132.0113005
72,улица Есенина,690025,43.2544160,132.0127864
77,улица Есенина,690025,43.2542069,132.0108505
52А,улица Есенина,690025,43.2536558,132.0130015
18,Полтавская улица,690012,43.1057690,131.8951489
21,Полтавская улица,690012,43.1051251,131.8949870
1А,улица Мыс Чумака,690078,43.1385392,131.8922791
1В,улица Мыс Чумака,690078,43.1389702,131.8926259
1А с2,улица Мыс Чумака,690078,43.1381459,131.8920419
1А с3,улица Мыс Чумака,690078,43.1381729,131.8914497
1Д,улица Мыс Чумака,690078,43.1388005,131.8933578
50В,улица Баляева,690087,43.1305045,131.9356201
17В,улица Сипягина,690000,43.0949103,131.8557924
26 с1,улица Жигура,690900,43.1295982,131.9260411
32А,улица Жигура,690088,43.1299941,131.9216254
5,Аквамариновая улица,690000,43.2135527,132.1684570
47,улица Старцева,690054,43.2748653,132.0782099
98,улица Ключ 5-й,690054,43.2759040,132.0918680
58,Главная улица,690024,43.2519697,132.0277347
35Г,Главная улица,690024,43.2509389,132.0257726
20,Дальнегорская улица,690024,43.2322793,132.0478699
31,улица Тимирязева,690025,43.2481465,132.0208288
2,улица Шишкина,690041,43.2179679,131.9545753
32 с11,Енисейская улица,690039,43.1736852,131.9049056
60А,улица Кирова,690068,43.1782809,131.9111582
12 с3,Магнитогорская улица,690068,43.1768881,131.9155205
10 с5,улица Чкалова,690068,43.1776625,131.9140596
5,улица Чкалова,690068,43.1769843,131.9131830
10 с3,улица Чкалова,690068,43.1773051,131.9140244
55 с1,Енисейская улица,690039,43.1730356,131.9078233
32 с12,Енисейская улица,690039,43.1744877,131.9049966
10,Магнитогорская улица,690068,43.1761455,131.9147484
32 с13,Енисейская улица,690039,43.1736756,131.9054629
125,Лесная улица,690022,43.1886565,131.9304406
133,Лесная улица,690022,43.1892421,131.9321602
171,Выселковая улица,690105,43.1594840,131.9437702
64 к10,Снеговая улица,690074,43.1396627,131.9812802
5 с9,улица Мыс Кунгасный,690000,43.1339438,131.8869447
117Д,проспект Красного Знамени,690014,43.1259405,131.9201630
58,Пологая улица,690091,43.1203282,131.8885475
5А,Почтовый переулок,690091,43.1154759,131.8902484
5В,Почтовый переулок,690091,43.1155246,131.8905033
7/3,Почтовый переулок,690091,43.1157261,131.8914710
2А,улица Капитана Шефнера,690001,43.1110422,131.9166847
28,Абрекская улица,690001,43.1158223,131.9197138
26,Абрекская улица,690001,43.1155853,131.9195738
22,Абрекская улица,690001,43.1152948,131.9194499
32А,Шилкинская улица,690066,43.1179396,131.9310856
14,Абрекская улица,690001,43.1148348,131.9194672
24,Абрекская улица,690001,43.1154638,131.9194749
25,Абрекская улица,690001,43.1158404,131.9191371
20А,Абрекская улица,690001,43.1151601,131.9194349
14/2,Абрекская улица,690001,43.1148273,131.9196304
17,Абрекская улица,690001,43.1150141,131.9190013
11А с2,улица Адмирала Юмашева,690037,43.1253688,131.9572243
19,улица Зелёный бульвар,690109,43.1197594,131.9705876
7,Лиственничная улица,690012,43.0966799,131.8964306
9,Лиственничная улица,690012,43.0965848,131.8963018
3,Лиственничная улица,690012,43.0961968,131.8959167
10,улица Надибаидзе,690012,43.0964734,131.8955395
5,Лиственничная улица,690012,43.0964240,131.8960321
7А,Лиственничная улица,690012,43.0965966,131.8961693
26Г,Пихтовая улица,690012,43.0976018,131.8915444
1,Североморская улица,690080,43.0821841,131.9598504
1,Таманская улица,690011,43.0858726,131.9498978
15А,Таманская улица,690011,43.0865671,131.9510687
26Б,Можайская улица,690011,43.0867482,131.9516985
14,Феодосийская улица,690011,43.0850800,131.9558535
1,Таганрогская улица,690011,43.0853171,131.9501099
8,Таманская улица,690011,43.0856777,131.9504109
14,Таманская улица,690011,43.0858950,131.9510701
20,Таганрогская улица,690011,43.0858823,131.9528093
5,Феодосийская улица,690011,43.0857435,131.9542983
1,Сочинская улица,690080,43.0833993,131.9547452
9,Сочинская улица,690080,43.0824473,131.9575521
9В,Таманская улица,690011,43.0865542,131.9504370
19,Таганрогская улица,690011,43.0860556,131.9524469
7,Сочинская улица,690080,43.0831309,131.9577565
3,Сочинская улица,690080,43.0833013,131.9557329
11,Сочинская улица,690080,43.0820037,131.9585545
12,Таганрогская улица,690011,43.0854747,131.9518639
22,Таганрогская улица,690011,43.0859609,131.9531353
9,Таманская улица,690011,43.0860457,131.9507833
5,Сочинская улица,690080,43.0827731,131.9566363
15,Таманская улица,690011,43.0862824,131.9516238
5В,Таманская улица,690011,43.0865117,131.9499909
16,Феодосийская улица,690011,43.0850205,131.9562521
12,Сочинская улица,690080,43.0805506,131.9587600
10,Сочинская улица,690080,43.0809285,131.9580360
18,Таганрогская улица,690011,43.0857451,131.9526091
3 к1,Североморская улица,690080,43.0828112,131.9603239
3 к2,Североморская улица,690080,43.0829241,131.9591832
3,Таманская улица,690011,43.0861527,131.9499353
29 к1,Архангельская улица,690080,43.0841334,131.9585370
3,Феодосийская улица,690011,43.0858039,131.9538012
23,Таганрогская улица,690011,43.0861580,131.9529364
6,улица Адмирала Угрюмова,690108,43.2089115,132.0925355
8А,улица Глинки,690041,43.2179491,131.9538485
20,Магнитогорская улица,690068,43.1772638,131.9122937
18,Магнитогорская улица,690068,43.1766241,131.9123616
28 с1,Магнитогорская улица,690068,43.1786804,131.9131949
25А с2,улица Кирова,690068,43.1760908,131.9070093
16,Магнитогорская улица,690068,43.1762102,131.9130379
7/6,Енисейская улица,690039,43.1711625,131.9028605
7/11,Енисейская улица,690039,43.1705372,131.9033108
18,Енисейская улица,690039,43.1680664,131.9039427
9,улица Кирова,690039,43.1707947,131.9098450
14А,Инженерный переулок,690091,43.1145217,131.8783385
10,улица Морозова,690000,43.0906088,131.8616349
23А,Посьетская улица,690003,43.1114960,131.8783785
14,улица Добровольского,690092,43.0930911,131.9797070
42,Сахалинская улица,690080,43.0900554,131.9681567
4,улица Героев Хасана,690016,43.0994537,131.9412339
6,улица Героев Хасана,690016,43.0990184,131.9413209
6 с1,улица Марины Расковой,690016,43.0973733,131.9382542
7,улица Часовитина,690016,43.0950335,131.9413091
37,улица Никифорова,690011,43.0910941,131.9484917
52А с3,улица Жигура,690088,43.1305115,131.9237945
111,Океанский проспект,690002,43.1330520,131.8986778
8А,улица Котельникова,690087,43.1304042,131.9313780
20 с1,улица Котельникова,690087,43.1303654,131.9348531
1Д,улица Мыс Чумака,690078,43.1391465,131.8934812
28А,улица Карбышева,690089,43.1553836,131.9271906
18Г,улица Ильичёва,690048,43.1517701,131.9116382
99,Днепровская улица,690089,43.1502050,131.9315720
14,улица Ильичёва,690048,43.1507865,131.9109586
16 с1,улица Ильичёва,690048,43.1510315,131.9105105
52В,проспект 100-летия Владивостока,690048,43.1548820,131.9110639
21Д,Днепровская улица,690062,43.1444694,131.9253006
11В,улица Карбышева,690089,43.1552159,131.9318786
50А,проспект 100-летия Владивостока,690048,43.1544793,131.9109950
16,улица Ильичёва,690048,43.1512042,131.9105120
14 с1,улица Ильичёва,690048,43.1508429,131.9107197
30Д,проспект 100-летия Владивостока,690048,43.1492824,131.9082358
40А,проспект 100-летия Владивостока,690048,43.1510765,131.9096745
34,улица Ильичёва,690048,43.1535064,131.9121339
12А,проспект 100-летия Владивостока,690062,43.1407823,131.9094454
11Г,улица Карбышева,690089,43.1551786,131.9321504
36,Днепровская улица,690062,43.1453810,131.9135430
24,Южно-Уральская улица,690018,43.1500265,131.9131450
4,улица Карбышева,690048,43.1545399,131.9187989
4 с2,улица Карбышева,690048,43.1543808,131.9191325
74А,Русская улица,690049,43.1684669,131.9257281
17/2,Иртышская улица,690033,43.1611656,131.9201094
57 с4,проспект 100-летия Владивостока,690048,43.1571134,131.9081129
57В,проспект 100-летия Владивостока,690033,43.1597634,131.9089065
16,улица Гамарника,690033,43.1594037,131.9169579
19,улица Гамарника,690033,43.1575585,131.9186578
57А/3,проспект 100-летия Владивостока,690033,43.1580869,131.9071656
19 с1,улица Гамарника,690033,43.1579637,131.9185486
17К,Иртышская улица,690033,43.1613115,131.9202577
57А/12,проспект 100-летия Владивостока,690033,43.1591474,131.9070387
87В,Русская улица,690105,43.1686102,131.9360203
64 с1,Русская улица,690049,43.1685608,131.9208083
28Д,Иртышская улица,690089,43.1618303,131.9255731
5А,Иртышская улица,690033,43.1610300,131.9170545
21,улица Гамарника,690033,43.1576113,131.9194116
6А,Харьковская улица,690021,43.1009655,131.9056717
7,Кизлярская улица,690012,43.1027372,131.9028635
226А,улица Калинина,690012,43.0924603,131.8937592
230 с2,улица Калинина,690012,43.0934103,131.8961476
177Б,улица Калинина,690012,43.0942985,131.8882675
27,улица Зои Космодемьянской,690063,43.0863277,131.8951305
16,Кипарисовая улица,690017,43.0916838,131.9202448
14 с1,улица Коммунаров,690077,43.0967311,131.9274987
14,Трамвайная улица,690013,43.1113396,131.9380822
25,улица Зелёный бульвар,690109,43.1178211,131.9702780
137,улица Нейбута,690109,43.1194498,131.9686138
23,улица Зелёный бульвар,690109,43.1183199,131.9705336
141,улица Нейбута,690109,43.1183851,131.9681119
21,улица Зелёный бульвар,690109,43.1188265,131.9707318
139,улица Нейбута,690109,43.1189380,131.9683761
12,улица Громова,690034,43.1090789,131.9458480
13А,улица Каплунова,690013,43.1123731,131.9482386
1 с1,улица Каплунова,690013,43.1151249,131.9431594
66,Пологая улица,690091,43.1201790,131.8901619
143,Светланская улица,690001,43.1129492,131.9165883
3Б,улица Каплунова,690013,43.1141985,131.9434606
14А,Владикавказская улица,690034,43.1099199,131.9403066
5Б,Почтовый переулок,690091,43.1154450,131.8903500
16/1,улица Муравьёва-Амурского,690001,43.1137380,131.9248133
35,Луговая улица,690005,43.1145946,131.9355561
15,Пологая улица,690091,43.1226800,131.8801996
66А,Пологая улица,690091,43.1200042,131.8901661
4,Зейская улица,690005,43.1168945,131.9350387
4/10,Ивановская улица,690005,43.1097714,131.9303432
11,1-я Матросская улица,690005,43.1131779,131.9282982
63А,Пологая улица,690091,43.1209128,131.8885966
37,Луговая улица,690005,43.1149246,131.9355216
7/4,Почтовый переулок,690091,43.1154863,131.8911158
18,улица Муравьёва-Амурского,690001,43.1140196,131.9248424
32,улица Володарского,690001,43.1169848,131.9126371
25,Волочаевская улица,690014,43.1208996,131.9142437
12В,улица Прапорщика Комарова,690091,43.1225077,131.8841870
7,Почтовый переулок,690091,43.1155550,131.8911193
9А,Катерная улица,690017,43.0760390,131.9358582
13А,Катерная улица,690017,43.0757189,131.9365078
13А с2,Катерная улица,690017,43.0756655,131.9366678
13А с3,Катерная улица,690017,43.0756203,131.9368300
13А с4,Катерная улица,690017,43.0755871,131.9369875
13А с5,Катерная улица,690017,43.0755461,131.9371479
51А,Интернациональная улица,690035,43.0997323,131.9203488
107А,улица Калинина,690012,43.1045510,131.9006161
89А,Луговая улица,690087,43.1301313,131.9403377
51,Днепровская улица,690062,43.1419083,131.9166067
51,Днепровская улица,690062,43.1415630,131.9169966
51,Днепровская улица,690062,43.1414928,131.9163757
40 с10,улица Кирова,690068,43.1757156,131.9125580
6,улица Громова,690034,43.1104543,131.9458927
4 с1,улица Громова,690034,43.1112943,131.9450978
87А,улица Нейбута,690037,43.1248643,131.9574824
11А с1,улица Адмирала Юмашева,690037,43.1253433,131.9570820
59/2,улица Володарского,690001,43.1173244,131.9125560
5А,улица Каплунова,690013,43.1149933,131.9440940
31 с1,улица Добровольского,690092,43.0953661,131.9760544
29 с1,улица Добровольского,690092,43.0953629,131.9765926
27 с1,улица Добровольского,690092,43.0953350,131.9771057
46,Феодосийская улица,690080,43.0863010,131.9612057
35,улица Добровольского,690092,43.0957190,131.9739166
102,улица Маковского,690041,43.2215910,131.9679650
52А,улица Карла Жигура,690088,43.1306282,131.9248552
9/1,Поселковый переулок,690063,43.0877225,131.9097137
11/2,Поселковый переулок,690063,43.0875705,131.9102228
19,улица Гастелло,690063,43.0899574,131.9068226
27/1,улица Гастелло,690063,43.0896490,131.9079876
50,Партизанский проспект,690002,43.1281801,131.9047841
7,Иртышская улица,690033,43.1612653,131.9179409
11А с4,улица Адмирала Юмашева,690037,43.1255063,131.9574463
50 с2,Луговая улица,690087,43.1285560,131.9450968
9,улица Сафонова,690016,43.0972259,131.9497801
32 с14,улица Кирова,690039,43.1755131,131.9059585
32 с15,улица Кирова,690039,43.1758708,131.9062167
16,Абрекская улица,690001,43.1149070,131.9196285
12 с2,Магнитогорская улица,690068,43.1770807,131.9154975
4А,Магнитогорская улица,690068,43.1758935,131.9155710
3,улица Марины Расковой,690016,43.0978307,131.9401295
2,Лиственничная улица,690012,43.0961767,131.8963496
53А,проспект 100-летия Владивостока,690048,43.1550378,131.9092141
15,Высоковольтная улица,690034,43.1123417,131.9554905
46Д,Планерная улица,690041,43.2034062,131.9443554
46Г,Планерная улица,690041,43.2034753,131.9443634
46В,Планерная улица,690041,43.2035448,131.9443720
46Б,Планерная улица,690041,43.2036145,131.9443804
44Д,Планерная улица,690041,43.2036843,131.9443883
44Г,Планерная улица,690041,43.2037983,131.9444075
44,Планерная улица,690041,43.2040288,131.9446674
44А,Планерная улица,690041,43.2039775,131.9446023
44Б,Планерная улица,690041,43.2039261,131.9445372
44В,Планерная улица,690041,43.2038745,131.9444722
30 с3,Выселковая улица,690074,43.1454377,131.9525013
29,Днепровская улица,690089,43.1470978,131.9300639
12,Карьерная улица,690074,43.1420386,131.9614629
17 с1,Иртышская улица,690033,43.1612303,131.9201934
4,улица Саврасова,690024,43.2125076,132.0210826
7 с22,улица бухта Якорная,690108,43.2381168,132.2311395
1В,1-я Центральная улица,690025,43.2529388,132.0245852
1 с7,Татарская улица,690039,43.1702049,131.8995855
37,Феодосийская улица,690080,43.0867480,131.9620987
35,Феодосийская улица,690080,43.0868052,131.9613059
6А,улица Басаргина,690080,43.0788937,131.9623325
14,Сочинская улица,690080,43.0796618,131.9594634
4Б,Подгорная улица,690025,43.2577260,132.0442965
8,улица Саврасова,690024,43.2124884,132.0205164
32Г,Енисейская улица,690039,43.1767902,131.9068095
30,улица Зелёный Бульвар,690109,43.1175420,131.9672647
28,улица Зелёный бульвар,690109,43.1176948,131.9679856
8,Феодосийская улица,690011,43.0853375,131.9542928
2,Феодосийская улица,690011,43.0855050,131.9535196
8,улица Врубеля,690024,43.2117715,132.0104025
1 с2,улица Терешковой,690035,43.0970019,131.9144596
21,Таганрогская улица,690011,43.0861535,131.9527142
8 с2,Карьерная улица,690074,43.1400643,131.9610143
12,Феодосийская улица,690011,43.0851568,131.9553280
10,Феодосийская улица,690011,43.0852369,131.9549505
14,Можайская улица,690011,43.0878371,131.9609588
29 к2,Архангельская улица,690080,43.0846425,131.9593457
26,улица Зелёный бульвар,690109,43.1176722,131.9686713
6Б к1,улица Басаргина,690080,43.0796242,131.9621833
6Б к2,улица Басаргина,690080,43.0802596,131.9617645
14 с2,Можайская улица,690011,43.0875639,131.9601399
6Б,улица Басаргина,690080,43.0795789,131.9616463
35,Главная улица,690024,43.2514609,132.0284559
21/1,Выселковая улица,690074,43.1412153,131.9452677
49А,улица Серова,690041,43.2124075,131.9445330
137 с1,улица Нейбута,690109,43.1211724,131.9701347
137 с2,улица Нейбута,690109,43.1210032,131.9705108
7А,Почтовый переулок,690091,43.1154363,131.8909342
1 к1,Можайская улица,690011,43.0853834,131.9563518
27,улица Шошина,690089,43.1528845,131.9282362
50,улица Гризодубовой,690016,43.0968886,131.9434458
18,Ялтинская улица,690065,43.0874731,131.8546263
15,улица Чкалова,690068,43.1794074,131.9126087
12,Новоивановская улица,690005,43.1088034,131.9376811
3Б,улица Гамарника,690033,43.1630747,131.9174977
207,Светланская улица,690005,43.1137331,131.9345081
60,улица Шепеткова,690013,43.1183832,131.9413838
2,Партизанский проспект,690106,43.1233834,131.8918789
25,улица Добровольского,690092,43.0957603,131.9778581
2,улица Талалихина,690016,43.0989249,131.9468643
143,проспект 100-летия Владивостока,690068,43.1742919,131.9168123
143Г,проспект 100-летия Владивостока,690068,43.1746917,131.9168514
143/2,проспект 100-летия Владивостока,690068,43.1747763,131.9167284
57Г,проспект 100-летия Владивостока,690033,43.1577695,131.9106422
57И,проспект 100-летия Владивостока,690033,43.1584526,131.9100844
4,улица Ильичёва,690062,43.1457202,131.9095382
23,Шуйская улица,690039,43.1639078,131.9096618
11А,улица Ильичёва,690018,43.1489497,131.9115233
6,улица Шепеткова,690013,43.1103364,131.9402230
9,Комсомольская улица,690078,43.1309617,131.8905158
52А,улица Карла Жигура,690088,43.1305601,131.9248010
58,Партизанский проспект,690002,43.1283300,131.9074653
17,Ивановская улица,690005,43.1122852,131.9321901
19,Ивановская улица,690005,43.1123717,131.9335133
19,Ивановская улица,690005,43.1123639,131.9333294
4А,улица Фадеева,690034,43.1053443,131.9433772
39,Пушкинская улица,690001,43.1167862,131.9035113
50,Иртышская улица,690089,43.1634111,131.9298121
50,Иртышская улица,690089,43.1634241,131.9296868
42,Иртышская улица,690089,43.1631781,131.9290661
10,улица Чкалова,690068,43.1776277,131.9146545
8,улица Чкалова,690068,43.1776177,131.9152029
6,улица Чкалова,690068,43.1776447,131.9161275
35,улица Гоголя,690014,43.1223151,131.9037620
1,Комсомольская улица,690078,43.1306188,131.8890227
31/1,улица Шепеткова,690013,43.1156380,131.9393524
5,улица Добровольского,690092,43.0923143,131.9729363
26А,Иртышская улица,690089,43.1616679,131.9246465
29,Семёновская улица,690091,43.1182444,131.8887309
20,проспект 100-летия Владивостока,690062,43.1441114,131.9075815
88,Русская улица,690105,43.1687808,131.9314037
40,проспект 100-летия Владивостока,690048,43.1513345,131.9091949
8,Октябрьская улица,690091,43.1244053,131.8851478
10А,Южно-Уральская улица,690048,43.1530921,131.9143688
45,Днепровская улица,690062,43.1435656,131.9151609
3,улица Станюковича,690003,43.1100016,131.8750758
5,улица Кирова,690039,43.1695237,131.9098942
10,улица Глинки,690041,43.2176260,131.9536263
55,проспект 100-летия Владивостока,690048,43.1552592,131.9103831
15,Сочинская улица,690080,43.0815638,131.9594632
5А,улица Героев-Тихоокеанцев,690017,43.0929412,131.9212157
3А,улица Шошина,690048,43.1536533,131.9192252
13,Монтажная улица,690011,43.0952618,131.9631020
