House number,Street name,Postal code,Latitude,Longitude
1,شارع الحبيب بورقيبة,2060,36.8170896,10.3053095
110,نهج فلسطين,1002,36.8191596,10.1792159
24,شارع المنجي سليم,2000,36.8129529,10.1311267
1bis,شارع فطومة بورقيبة,2000,36.8127938,10.1365236
17,نهج المصحة,1002,36.8343593,10.1729481
253,Rue Pierre du capertain,1002,36.8005091,10.1843545
42,شارع فرانكلين روزفلت,2060,36.8199089,10.3083914
8,نهج البوزجاني,2070,36.8675787,10.3204323
3,نهج باستور,2070,36.8678136,10.3204686
16,نهج البوزجاني,2070,36.8680385,10.3200529
6,Rue El Djaldaki,2070,36.8681246,10.3194124
2,Rue El Khazin,2070,36.8674203,10.3190433
26,نهج الاسفزاري,2070,36.8665171,10.3198408
24,نهج البوزجاني,2070,36.8688000,10.3202096
4,Rue Docteur El Djurjani,2070,36.8693778,10.3212765
14,نهج البوزجاني,2070,36.8679538,10.3200667
62,نهج أملكار,2070,36.8706849,10.3239488
1,Rue El Khazin,2070,36.8677084,10.3200161
1,نهج باستور,2070,36.8679538,10.3211132
14,Rue Docteur El Djurjani,2070,36.8687936,10.3203046
15,نهج الجوهري,2070,36.8686738,10.3207688
2,نهج غاغارين,2070,36.8676908,10.3213994
2,Rue Ibn Saati,2070,36.8670639,10.3204477
3,Rue Docteur El Djurjani,2070,36.8691330,10.3214328
3,نهج البوزجاني,2070,36.8671450,10.3204893
5,Rue Docteur El Djurjani,2070,36.8690396,10.3211819
7,Rue Docteur El Djurjani,2070,36.8689191,10.3209617
7,نهج الجوهري,2070,36.8677845,10.3214035
9,Rue Docteur El Djurjani,2070,36.8688695,10.3208755
9,نهج البوزجاني,2070,36.8676613,10.3201226
9,نهج الجوهري,2070,36.8679551,10.3212725
1,Rue El Banaa,2070,36.8672957,10.3202573
1,نهج البوزجاني,2070,36.8669501,10.3206307
1,Rue El Djaldaki,2070,36.8680108,10.3198701
1,نهج الجوهري,2070,36.8673950,10.3217275
1,Rue Eriniosse,2070,36.8702599,10.3232331
1,نهج غاغارين,2070,36.8675386,10.3214233
1,Rue Ibn Saati,2070,36.8669291,10.3204956
10,Impasse El Djaldaki,2070,36.8693513,10.3198760
10,نهج ديكارت,2070,36.8675953,10.3188567
10,Rue Docteur El Djurjani,2070,36.8691069,10.3207642
10,Rue El Aflah,2070,36.8697891,10.3210527
10,نهج البوزجاني,2070,36.8677725,10.3202279
10,Rue El Damiri,2070,36.8690053,10.3198918
10,Rue Ibn Saati,2070,36.8677002,10.3192766
11,Impasse El Djaldaki,2070,36.8695220,10.3199603
11,نهج البوزجاني,2070,36.8678822,10.3199840
11,Rue El Djaldaki,2070,36.8685436,10.3189297
11,Rue Ibn Saati,2070,36.8669871,10.3196244
12,Impasse El Djaldaki,2070,36.8694077,10.3200400
12,نهج ديكارت,2070,36.8677380,10.3187149
12,Rue Docteur El Djurjani,2070,36.8689814,10.3205326
12,نهج البوزجاني,2070,36.8678928,10.3201091
12,Rue El Damiri,2070,36.8689470,10.3197605
12,Rue El Djaldaki,2070,36.8688412,10.3190138
12,Rue Ibn Saati,2070,36.8678637,10.3191591
13,Rue El Djaldaki,2070,36.8685943,10.3188942
14,نهج ديكارت,2070,36.8679038,10.3186235
14,Rue El Damiri,2070,36.8688538,10.3195643
14,Rue El Djaldaki,2070,36.8688912,10.3189787
15,Impasse El Djaldaki,2070,36.8696138,10.3203838
15,Rue El Djaldaki,2070,36.8687528,10.3187662
15,نهج الاسفزاري,2070,36.8673315,10.3216799
16,Rue El Damiri,2070,36.8687662,10.3194422
16,نهج الاسفزاري,2070,36.8672443,10.3215637
16,Rue Ibn Saati,2070,36.8681080,10.3189837
17,نهج البوزجاني,2070,36.8682209,10.3199517
17,Rue El Djaldaki,2070,36.8689290,10.3186295
18,نهج البوزجاني,2070,36.8681745,10.3201113
18,نهج الاسفزاري,2070,36.8671141,10.3212842
19,نهج البوزجاني,2070,36.8684299,10.3200410
2,نهج ديكارت,2070,36.8664398,10.3195420
2,Rue El Djaldaki,2070,36.8681256,10.3198513
2,نهج الجوهري,2070,36.8674765,10.3218660
2,نهج باستور,2070,36.8683310,10.3198989
20,نهج البوزجاني,2070,36.8682735,10.3202007
20,نهج الاسفزاري,2070,36.8669806,10.3209529
22,Rue Docteur El Djurjani,2070,36.8686726,10.3199887
22,نهج البوزجاني,2070,36.8684220,10.3204585
22,نهج الاسفزاري,2070,36.8667099,10.3202893
24,نهج الاسفزاري,2070,36.8666544,10.3201570
28,نهج الاسفزاري,2070,36.8662808,10.3192261
3,Impasse El Djaldaki,2070,36.8692016,10.3191713
3,Rue El Banaa,2070,36.8671968,10.3200428
3,Rue El Damiri,2070,36.8691084,10.3204856
3,Rue El Djaldaki,2070,36.8680273,10.3193852
3,نهج الجوهري,2070,36.8675042,10.3216007
3,Rue El Khazin,2070,36.8675648,10.3197959
3,Rue Eriniosse,2070,36.8701639,10.3230688
3,Rue Ibn Saati,2070,36.8668177,10.3202947
38,نهج محمد بيرم الخامس,2070,36.8687116,10.3179950
4,Impasse El Djaldaki,2070,36.8690799,10.3193677
4,نهج ديكارت,2070,36.8666162,10.3194188
4,Rue El Banaa,2070,36.8673614,10.3199455
4,نهج البوزجاني,2070,36.8671677,10.3207411
4,Rue El Djaldaki,2070,36.8681121,10.3196957
4,Rue El Khazin,2070,36.8674869,10.3191988
4,نهج غاغارين,2070,36.8675750,10.3211393
4,Rue Ibn Saati,2070,36.8669568,10.3202005
4,نهج باستور,2070,36.8682863,10.3197996
40,نهج محمد بيرم الخامس,2070,36.8687580,10.3181942
42,نهج محمد بيرم الخامس,2070,36.8688699,10.3183943
44,نهج محمد بيرم الخامس,2070,36.8691415,10.3188552
46,نهج محمد بيرم الخامس,2070,36.8693312,10.3190943
48,نهج محمد بيرم الخامس,2070,36.8694400,10.3192723
5,Impasse El Djaldaki,2070,36.8692723,10.3193948
5,Rue El Banaa,2070,36.8671048,10.3198248
5,نهج البوزجاني,2070,36.8672801,10.3203586
5,Rue El Djaldaki,2070,36.8681054,10.3192831
5,نهج الجوهري,2070,36.8675652,10.3215267
5,Rue El Khazin,2070,36.8674614,10.3195484
5,Rue Eriniosse,2070,36.8701111,10.3228884
5,Rue Ibn Saati,2070,36.8667179,10.3200347
5,نهج باستور,2070,36.8679866,10.3203718
50,نهج محمد بيرم الخامس,2070,36.8695479,10.3193508
52,نهج محمد بيرم الخامس,2070,36.8696252,10.3195583
54,نهج محمد بيرم الخامس,2070,36.8697311,10.3197196
56,نهج محمد بيرم الخامس,2070,36.8698150,10.3197854
6,Impasse El Djaldaki,2070,36.8692224,10.3196146
6,نهج ديكارت,2070,36.8668035,10.3192983
6,Rue Docteur El Djurjani,2070,36.8691993,10.3210568
6,Rue El Banaa,2070,36.8672457,10.3197190
6,نهج البوزجاني,2070,36.8673743,10.3205450
6,Rue El Damiri,2070,36.8691439,10.3201955
6,Rue El Khazin,2070,36.8676007,10.3194429
6,نهج غاغارين,2070,36.8675127,10.3208995
6,Rue Ibn Saati,2070,36.8668752,10.3199607
6,نهج باستور,2070,36.8682780,10.3196960
7,Impasse El Djaldaki,2070,36.8693348,10.3195595
7,Rue El Aflah,2070,36.8692502,10.3217160
7,نهج البوزجاني,2070,36.8675219,10.3201845
7,Rue El Djaldaki,2070,36.8682087,10.3192089
7,Rue Eriniosse,2070,36.8700176,10.3227024
7,نهج باستور,2070,36.8681118,10.3203771
8,Impasse El Djaldaki,2070,36.8692854,10.3197519
8,Rue Docteur El Djurjani,2070,36.8690808,10.3208935
8,Rue El Damiri,2070,36.8690872,10.3200352
8,Rue El Khazin,2070,36.8676316,10.3196275
8,نهج باستور,2070,36.8681856,10.3195764
9,Impasse El Djaldaki,2070,36.8694447,10.3197420
9,Rue El Aflah,2070,36.8694989,10.3215054
9,Rue El Djaldaki,2070,36.8683231,10.3190640
9,Rue Ibn Saati,2070,36.8667458,10.3197350
9,نهج باستور,2070,36.8682199,10.3204100
8 bis,نهج باستور,2070,36.8681754,10.3195537
1,نهج بتاقور,2070,36.8654530,10.3174668
10,نهج بتاقور,2070,36.8656054,10.3169124
11,نهج بتاقور,2070,36.8655171,10.3164480
12,نهج بتاقور,2070,36.8656470,10.3166143
13,نهج بتاقور,2070,36.8657175,10.3163271
13b,نهج بتاقور,2070,36.8657642,10.3162464
14,نهج بتاقور,2070,36.8657594,10.3165141
15,نهج بتاقور,2070,36.8656978,10.3160466
16,نهج بتاقور,2070,36.8658888,10.3164007
17,نهج بتاقور,2070,36.8654307,10.3161123
18,نهج بتاقور,2070,36.8659036,10.3162266
19,نهج بتاقور,2070,36.8652581,10.3162148
20,نهج بتاقور,2070,36.8658533,10.3160348
21,نهج بتاقور,2070,36.8651505,10.3164263
23,نهج بتاقور,2070,36.8651103,10.3166670
3,نهج بتاقور,2070,36.8655948,10.3173805
32-59,نهج الاسفزاري,2070,36.8657600,10.3182441
34-60,نهج الاسفزاري,2070,36.8657049,10.3181314
36-61,نهج الاسفزاري,2070,36.8656677,10.3180630
38-62,نهج الاسفزاري,2070,36.8655860,10.3179348
5,نهج بتاقور,2070,36.8655342,10.3170870
56,نهج النخيل,2070,36.8660170,10.3184253
58,نهج النخيل,2070,36.8659311,10.3185186
6,نهج بتاقور,2070,36.8658895,10.3174284
7,نهج بتاقور,2070,36.8654335,10.3169113
72,نهج النخيل,2070,36.8663329,10.3179666
73,نهج النخيل,2070,36.8664060,10.3178590
8,نهج بتاقور,2070,36.8657645,10.3170667
9,نهج بتاقور,2070,36.8653812,10.3166598
1,نهج تشارلز داروين,2070,36.8662245,10.3189393
11,نهج تشارلز داروين,2070,36.8670359,10.3184082
3,نهج تشارلز داروين,2070,36.8664019,10.3188476
30,نهج الاسفزاري,2070,36.8660259,10.3187791
5,نهج تشارلز داروين,2070,36.8666612,10.3186640
74,نهج الخزامى,2070,36.8662516,10.3174574
83,نهج البنفسج,2070,36.8663124,10.3167670
85,نهج الخزامى,2070,36.8660009,10.3167327
86,نهج الخزامى,2070,36.8660684,10.3166751
87,نهج الخزامى,2070,36.8661698,10.3165950
1,نهج ديكارت,2070,36.8673631,10.3184348
46,نهج الاسفزاري,2070,36.8648583,10.3165029
50,نهج الاسفزاري,2070,36.8647389,10.3161148
1,نهج الياسمين,2070,36.8681388,10.3180953
10,نهج تشارلز داروين,2070,36.8672764,10.3183197
10,نهج الياسمين,2070,36.8677371,10.3177170
104,نهج الياسمين,2070,36.8671935,10.3171675
105,نهج الياسمين,2070,36.8673472,10.3171617
106,نهج الياسمين,2070,36.8675575,10.3171588
107,نهج الياسمين,2070,36.8677423,10.3172583
108,نهج الياسمين,2070,36.8679383,10.3173675
109,نهج الياسمين,2070,36.8680955,10.3175649
11,نهج الياسمين,2070,36.8676625,10.3175755
12,نهج الياسمين,2070,36.8675711,10.3175104
13,نهج الياسمين,2070,36.8674767,10.3174653
14,نهج الياسمين,2070,36.8673763,10.3174381
15,نهج تشارلز داروين,2070,36.8672970,10.3174300
15,نهج الياسمين,2070,36.8674984,10.3176084
16,نهج الياسمين,2070,36.8671836,10.3174412
2,نهج تشارلز داروين,2070,36.8665230,10.3189552
2,نهج الياسمين,2070,36.8680962,10.3180053
3,نهج الياسمين,2070,36.8680488,10.3179050
38,Rue Mimosas,2070,36.8666214,10.3176026
4,نهج تشارلز داروين,2070,36.8666881,10.3188453
4,نهج تشارلز داروين,2070,36.8670259,10.3187647
4,نهج الياسمين,2070,36.8680010,10.3177989
5,نهج الياسمين,2070,36.8679872,10.3182720
6,نهج الياسمين,2070,36.8679498,10.3181281
7,نهج تشارلز داروين,2070,36.8667208,10.3186246
7,نهج الياسمين,2070,36.8678960,10.3180383
75,نهج الخزامى,2070,36.8661611,10.3173501
76,نهج الخزامى,2070,36.8663784,10.3173538
78,نهج الخزامى,2070,36.8661158,10.3172686
8,نهج تشارلز داروين,2070,36.8671970,10.3186043
8,نهج الياسمين,2070,36.8678595,10.3179123
80,نهج الخزامى,2070,36.8660672,10.3171369
82,نهج الخزامى,2070,36.8659562,10.3169788
84,نهج الخزامى,2070,36.8658804,10.3168888
9,نهج تشارلز داروين,2070,36.8668787,10.3185126
9,نهج الياسمين,2070,36.8678050,10.3178094
9 bis,نهج تشارلز داروين,2070,36.8669231,10.3184832
54,نهج النخيل,2070,36.8662029,10.3183199
17,ساحة الصنوبر,2070,36.8668973,10.3174696
18,نهج الياسمين,2070,36.8668250,10.3175035
19,Rue Geranium,2070,36.8677873,10.3183767
20,Rue Geranium,2070,36.8676174,10.3184526
21,Rue Geranium,2070,36.8675618,10.3182778
22,Rue Geranium,2070,36.8674819,10.3181085
23,Rue Geranium,2070,36.8673852,10.3179762
24,Rue Geranium,2070,36.8672411,10.3179450
24,Rue Geranium,2070,36.8677404,10.3182786
25,Rue Geranium,2070,36.8676918,10.3181476
26,Rue Geranium,2070,36.8676442,10.3180479
27,Rue Geranium,2070,36.8675963,10.3179476
28,Rue Geranium,2070,36.8675322,10.3178633
29,Rue Geranium,2070,36.8674839,10.3177946
30,Rue Geranium,2070,36.8674242,10.3177556
31,Rue Geranium,2070,36.8673162,10.3177197
32,Rue Geranium,2070,36.8671595,10.3177491
35,Rue Mimosas,2070,36.8669025,10.3177153
36,Rue Mimosas,2070,36.8667946,10.3177172
37,Rue Mimosas,2070,36.8667042,10.3176815
39,نهج النخيل,2070,36.8668194,10.3179715
40,نهج النخيل,2070,36.8669997,10.3180881
41,نهج النخيل,2070,36.8669373,10.3181547
42,نهج النخيل,2070,36.8668359,10.3181891
43,نهج النخيل,2070,36.8667457,10.3182497
44,نهج النخيل,2070,36.8666686,10.3180773
45,نهج النخيل,2070,36.8666515,10.3183129
46,نهج النخيل,2070,36.8666070,10.3181077
47,نهج النخيل,2070,36.8665514,10.3184032
48,نهج النخيل,2070,36.8665291,10.3181615
49,نهج النخيل,2070,36.8664966,10.3184400
50,نهج النخيل,2070,36.8664219,10.3182367
51,نهج النخيل,2070,36.8664136,10.3184566
52,نهج النخيل,2070,36.8663144,10.3185563
53,نهج النخيل,2070,36.8662256,10.3186159
55,نهج النخيل,2070,36.8661475,10.3186581
70,نهج النرجس,2070,36.8661867,10.3181955
73,نهج الياسمين,2070,36.8669661,10.3174172
3,Rue d'Angleterre,1000,36.8168001,10.1777451
63,نهج النخيل,2070,36.8659263,10.3180723
64,نهج النخيل,2070,36.8658752,10.3179657
65,نهج النخيل,2070,36.8658534,10.3178662
66,نهج النخيل,2070,36.8658114,10.3177865
67,نهج النخيل,2070,36.8659582,10.3176789
68,نهج النخيل,2070,36.8660501,10.3176303
69,نهج النخيل,2070,36.8661664,10.3177254
77,نهج البنفسج,2070,36.8664290,10.3172408
79,نهج الخزامى,2070,36.8662078,10.3170096
88,نهج البنفسج,2070,36.8663763,10.3168808
89,نهج البنفسج,2070,36.8664256,10.3169573
90,ساحة الصنوبر,2070,36.8664201,10.3171103
91,نهج البنفسج,2070,36.8665993,10.3168231
92,نهج البنفسج,2070,36.8666915,10.3168067
93,نهج البنفسج,2070,36.8667824,10.3168243
94,نهج البنفسج,2070,36.8668849,10.3168770
95,نهج البنفسج,2070,36.8671002,10.3168860
17,شارع فرانكلين روزفلت,2060,36.8183476,10.3070953
14,Rue Mongi Slim,2070,36.8844927,10.3325030
8,شارع فرانكلين روزفلت,2060,36.8179359,10.3063421
12,نهج بحيرة وندارمير,1053,36.8349000,10.2411300
15,شارع غانا,1017,36.8067892,10.1840381
9,Rue de l'Energie (Rue 8601),2035,36.8473640,10.2046410
9,Rue de l'Energie (Rue 8601),2035,36.8472880,10.2048800
52,شارع فرانكلين روزفلت,2060,36.8205794,10.3091127
61,شارع جان جوريس,1001,36.8071553,10.1815636
59,شارع جان جوريس,1001,36.8069346,10.1816174
18,نهج الذهب,2070,36.8682681,10.3047440
22,نهج الذهب,2070,36.8685446,10.3045615
93,نهج الذهب,2070,36.8717270,10.3021963
13,نهج إبن الجزار,2070,36.8750028,10.3068036
91,نهج الذهب,2070,36.8715302,10.3023204
19 bis,شارع الجمهورية,2070,36.8748856,10.3302915
1,نهج صدر بعل,2070,36.8750575,10.3246456
1,نهج جسكون,2070,36.8742705,10.3241939
1,نهج ماغون,2070,36.8732432,10.3234532
1,نهج صيفاقس,2070,36.8725374,10.3224797
10,نهج صدر بعل,2070,36.8736871,10.3240346
10,نهج جسكون,2070,36.8739657,10.3230218
11,نهج صيفاقس,2070,36.8715570,10.3230577
12,نهج صدر بعل,2070,36.8732755,10.3238490
12,نهج صيفاقس,2070,36.8715719,10.3228047
13,نهج هملكون,2070,36.8722467,10.3210415
14,نهج هملكون,2070,36.8725472,10.3212823
16,نهج هملكون,2070,36.8725665,10.3209513
18,نهج صدر بعل,2070,36.8726076,10.3235287
2,نهج صدر بعل,2070,36.8749876,10.3244326
2,نهج جسكون,2070,36.8744083,10.3241077
2,نهج ماغون,2070,36.8735391,10.3236813
2,نهج ماسينيسا,2070,36.8737937,10.3236655
2,نهج صيفاقس,2070,36.8723298,10.3222969
25,نهج أميلكار,2070,36.8738648,10.3226302
27bis,نهج أميلكار,2070,36.8733199,10.3229431
2 bis,نهج صيفاقس,2070,36.8725607,10.3221015
3,نهج صدر بعل,2070,36.8748337,10.3247698
19,نهج صدر بعل,2070,36.8724451,10.3237066
4,نهج صدر بعل,2070,36.8745454,10.3243971
42,نهج أميلكار,2070,36.8731902,10.3227615
5,نهج صدر بعل,2070,36.8743320,10.3245465
5,نهج هملكون,2070,36.8728340,10.3224483
4,نهج هملكون,2070,36.8730333,10.3224798
6,نهج ماغون,2070,36.8733246,10.3231010
9,نهج صدر بعل,2070,36.8738067,10.3243127
7,نهج صدر بعل,2070,36.8740592,10.3244250
7,نهج جسكون,2070,36.8737038,10.3228553
7,نهج هملكون,2070,36.8726471,10.3219699
1,نهج ملخس,2070,36.8713578,10.3234149
10,نهج هملكون,2070,36.8727877,10.3218952
10,نهج صيفاقس,2070,36.8717043,10.3226931
11,Rue Eriniosse,2070,36.8698983,10.3222922
12,نهج هملكون,2070,36.8726587,10.3216125
14,نهج صدر بعل,2070,36.8729919,10.3236951
16,نهج صدر بعل,2070,36.8727915,10.3236344
17,نهج ملخس,2070,36.8712390,10.3231385
2,نهج ملخس,2070,36.8717009,10.3235248
25,نهج ملخس,2070,36.8708922,10.3217626
29,نهج أميلكار,2070,36.8729384,10.3231856
3,نهج صيفاقس,2070,36.8723577,10.3226069
31,نهج أميلكار,2070,36.8727014,10.3233068
4,نهج ملخس,2070,36.8715522,10.3232199
4,نهج صيفاقس,2070,36.8721600,10.3223554
44,نهج أميلكار,2070,36.8728997,10.3229190
46,نهج أميلكار,2070,36.8727761,10.3230383
48,نهج أميلكار,2070,36.8725354,10.3230798
5,نهج ملخس,2070,36.8711300,10.3228244
5,نهج صيفاقس,2070,36.8721436,10.3227022
50,نهج أميلكار,2070,36.8723670,10.3231782
52,نهج أميلكار,2070,36.8721763,10.3233571
54,نهج أميلكار,2070,36.8720010,10.3234775
6,نهج هملكون,2070,36.8729909,10.3222891
6,نهج ملخس,2070,36.8714501,10.3227369
6,نهج صيفاقس,2070,36.8720122,10.3225185
7,نهج صيفاقس,2070,36.8719432,10.3228279
8,نهج هملكون,2070,36.8729197,10.3221398
8,نهج ملخس,2070,36.8713765,10.3224562
8,نهج صيفاقس,2070,36.8717483,10.3223717
9,Rue Eriniosse,2070,36.8699462,10.3224943
11,نهج هملكون,2070,36.8723717,10.3214395
9,نهج هملكون,2070,36.8724923,10.3216549
9,نهج صيفاقس,2070,36.8717847,10.3229410
1,نهج أميلكار,2070,36.8754858,10.3255283
10,نهج أميلكار,2070,36.8753385,10.3246146
10,شارع قرطاج,2070,36.8746566,10.3252571
11,نهج أميلكار,2070,36.8748822,10.3240434
12,نهج أميلكار,2070,36.8752607,10.3244254
12,شارع قرطاج,2070,36.8744377,10.3251662
13,نهج أميلكار,2070,36.8747850,10.3238075
14,نهج أميلكار,2070,36.8751560,10.3241713
14,شارع قرطاج,2070,36.8741866,10.3250618
15,نهج أملكار,2070,36.8747154,10.3236389
15,شارع قرطاج,2070,36.8735869,10.3251943
15 bis,نهج أملكار,2070,36.8746750,10.3235409
16,نهج أميلكار,2070,36.8750567,10.3239300
16,شارع قرطاج,2070,36.8739492,10.3249632
16 bis,شارع قرطاج,2070,36.8740526,10.3250062
17,نهج أميلكار,2070,36.8745651,10.3232744
17,شارع قرطاج,2070,36.8734005,10.3251210
18,نهج أميلكار,2070,36.8749532,10.3236786
18,شارع قرطاج,2070,36.8735866,10.3248059
19,نهج أميلكار,2070,36.8744564,10.3230106
19,شارع قرطاج,2070,36.8729787,10.3249289
2,نهج أميلكار,2070,36.8756449,10.3254781
2,شارع قرطاج,2070,36.8753378,10.3260310
20,نهج أميلكار,2070,36.8748675,10.3234705
20,شارع قرطاج,2070,36.8733035,10.3246879
21,نهج أميلكار,2070,36.8743448,10.3227400
19,شارع قرطاج,2070,36.8726772,10.3248002
22,نهج أميلكار,2070,36.8747705,10.3232346
22,شارع قرطاج,2070,36.8730525,10.3245833
22,شارع قرطاج,2070,36.8731504,10.3246241
23,نهج أميلكار,2070,36.8740946,10.3224554
24,نهج أميلكار,2070,36.8746711,10.3229934
24,شارع قرطاج,2070,36.8728247,10.3244883
26,نهج أميلكار,2070,36.8745739,10.3227572
26,شارع قرطاج,2070,36.8725916,10.3243911
28,نهج أميلكار,2070,36.8744695,10.3225034
28,شارع قرطاج,2070,36.8724078,10.3243939
3,نهج أميلكار,2070,36.8753976,10.3252563
30,نهج أميلكار,2070,36.8743556,10.3222269
30,شارع قرطاج,2070,36.8720857,10.3244799
32,نهج أميلكار,2070,36.8740359,10.3218992
32,شارع قرطاج,2070,36.8718112,10.3246066
33,نهج أميلكار,2070,36.8725746,10.3233946
34,نهج أميلكار,2070,36.8740474,10.3222221
34,شارع قرطاج,2070,36.8716456,10.3247050
35,نهج أميلكار,2070,36.8720228,10.3237561
36,نهج أميلكار,2070,36.8738761,10.3223154
36,شارع قرطاج,2070,36.8715210,10.3247722
37,نهج أميلكار,2070,36.8716620,10.3239790
38,نهج أميلكار,2070,36.8736479,10.3224239
38,شارع قرطاج,2070,36.8710708,10.3249717
39,نهج أملكار,2070,36.8714463,10.3241193
39 bis,نهج أملكار,2070,36.8713484,10.3241891
39 ter,نهج أملكار,2070,36.8715198,10.3240676
3bis,نهج أميلكار,2070,36.8754688,10.3253412
4,نهج أميلكار,2070,36.8755891,10.3252233
4,نهج ماغون,2070,36.8734519,10.3233593
4,شارع قرطاج,2070,36.8753140,10.3256373
40,نهج أملكار,2070,36.8734229,10.3222726
40 bis,نهج أملكار,2070,36.8734904,10.3225978
40 ter,نهج أملكار,2070,36.8734318,10.3226430
41,نهج أميلكار,2070,36.8711883,10.3243107
43,نهج أميلكار,2070,36.8710359,10.3244255
45,نهج أميلكار,2070,36.8709414,10.3245538
47,نهج أميلكار,2070,36.8709171,10.3248064
5,نهج جسكون,2070,36.8737997,10.3231437
5,شارع قرطاج,2070,36.8751560,10.3259125
56,نهج أميلكار,2070,36.8715087,10.3237685
58,نهج أميلكار,2070,36.8712951,10.3239252
6,نهج أميلكار,2070,36.8754579,10.3249046
6,نهج صدربعل,2070,36.8741090,10.3242812
6,شارع قرطاج,2070,36.8750836,10.3254860
60,نهج أميلكار,2070,36.8711308,10.3240584
62 bis,نهج أملكار,2070,36.8709781,10.3242034
64,نهج أميلكار,2070,36.8706222,10.3242070
7,نهج أميلكار,2070,36.8751508,10.3247227
7,شارع قرطاج,2070,36.8749602,10.3257842
8,نهج أميلكار,2070,36.8753754,10.3247043
8,نهج صدربعل,2070,36.8739183,10.3241578
8,شارع قرطاج,2070,36.8748575,10.3253406
88,نهج أميلكار,2070,36.8705862,10.3245455
9,نهج أميلكار,2070,36.8749328,10.3241660
90,نهج أميلكار,2070,36.8706720,10.3247418
92,نهج أميلكار,2070,36.8708009,10.3249866
18,نهج أرخميدس,2070,36.8687277,10.3214079
1,نهج أرخميدس,2070,36.8698422,10.3235083
1,نهج الأبهري,2070,36.8696685,10.3247931
1,Rue El Aflah,2070,36.8679456,10.3226764
1,نهج الأنطاكي,2070,36.8691732,10.3229970
1,Rue El Asturlabi,2070,36.8685637,10.3237477
1,نهج الغازي,2070,36.8675930,10.3222801
1,نهج الإدريسي,2070,36.8695111,10.3242111
10,نهج أرخميدس,2070,36.8692099,10.3224471
10,نهج إديسون,2070,36.8707675,10.3230916
10,نهج الأبهري,2070,36.8703041,10.3239189
10,Rue El Aflah,2070,36.8697023,10.3215123
10,نهج الاسفزاري,2070,36.8679126,10.3230095
10,نهج الإدريسي,2070,36.8691014,10.3233901
10,نهج الجوهري,2070,36.8682116,10.3213196
11,نهج أرخميدس,2070,36.8686790,10.3217410
11,نهج الأبهري,2070,36.8702367,10.3233397
11,نهج الأنطاكي,2070,36.8684377,10.3229813
12,نهج أرخميدس,2070,36.8691209,10.3222579
12,نهج الأبهري,2070,36.8704104,10.3233303
12,نهج الأنطاكي,2070,36.8687180,10.3228915
13,نهج أرخميدس,2070,36.8685738,10.3214406
13,نهج الأنطاكي,2070,36.8682541,10.3223898
14,نهج أرخميدس,2070,36.8689375,10.3218780
14,نهج الأنطاكي,2070,36.8685890,10.3226671
15,نهج أرخميدس,2070,36.8684119,10.3212286
15,نهج الأنطاكي,2070,36.8681465,10.3221528
16,نهج أرخميدس,2070,36.8688472,10.3216272
16,نهج الأنطاكي,2070,36.8682880,10.3220742
17,Rue El Antaki,2070,36.8678468,10.3216092
18,Rue El Antaki,2070,36.8681229,10.3217395
1b,Rue El Asturlabi,2070,36.8684266,10.3239375
1 bis,نهج أرخميدس,2070,36.8700275,10.3234737
1 bis,نهج الإدريسي,2070,36.8697185,10.3243642
2,نهج أرخميدس,2070,36.8698343,10.3231681
2,نهج إديسون,2070,36.8703514,10.3237793
2,Rue El Aflah,2070,36.8680569,10.3228839
2,نهج الأنطاكي,2070,36.8690535,10.3227833
2,Rue El Asturlabi,2070,36.8686999,10.3239835
2,نهج الغازي,2070,36.8678884,10.3222353
2,نهج الإدريسي,2070,36.8697882,10.3241738
20,نهج أرخميدس,2070,36.8685985,10.3211824
3,نهج أرخميدس,2070,36.8697531,10.3233757
3,نهج الأبهري,2070,36.8697765,10.3244526
3,نهج الأنطاكي,2070,36.8689732,10.3231851
3,Rue El Asturlabi,2070,36.8687049,10.3237242
3,نهج الغازي,2070,36.8678346,10.3220696
3,نهج الإدريسي,2070,36.8691818,10.3241563
3 bis,نهج أرخميدس,2070,36.8695255,10.3232000
4,نهج أرخميدس,2070,36.8696597,10.3230341
4,نهج إديسون,2070,36.8705618,10.3235852
4,Rue El Aflah,2070,36.8682307,10.3227427
4,نهج الأنطاكي,2070,36.8689069,10.3229936
4,Rue El Asturlabi,2070,36.8689563,10.3238016
4,نهج الاسفزاري,2070,36.8682719,10.3235019
4,نهج الغازي,2070,36.8684256,10.3218411
4,نهج الإدريسي,2070,36.8696131,10.3240914
4,نهج الجوهري,2070,36.8676461,10.3217886
5,نهج أرخميدس,2070,36.8693077,10.3230124
5,نهج الأبهري,2070,36.8699616,10.3239275
5,Rue El Asturlabi,2070,36.8688636,10.3235517
5,نهج الغازي,2070,36.8679836,10.3219503
5,نهج الإدريسي,2070,36.8690020,10.3238520
6,نهج أرخميدس,2070,36.8694985,10.3229361
6,نهج إديسون,2070,36.8707120,10.3234498
6,نهج الاسفزاري,2070,36.8681196,10.3232831
6,نهج الغازي,2070,36.8686225,10.3217297
6,نهج الإدريسي,2070,36.8693482,10.3238495
6,نهج الجوهري,2070,36.8677945,10.3216230
7,نهج أرخميدس,2070,36.8689963,10.3223603
7,نهج الأبهري,2070,36.8700340,10.3237757
7,نهج الغازي,2070,36.8683917,10.3216637
7,Rue Ibn Saati,2070,36.8666502,10.3198057
8,نهج أرخميدس,2070,36.8693419,10.3226678
8,نهج إديسون,2070,36.8709732,10.3233303
8,نهج الأبهري,2070,36.8701551,10.3241374
8,نهج الاسفزاري,2070,36.8679694,10.3231364
8,نهج الإدريسي,2070,36.8691781,10.3236375
8,نهج الجوهري,2070,36.8680669,10.3214148
9,نهج أرخميدس,2070,36.8687178,10.3219408
9,نهج الأبهري,2070,36.8701143,10.3236417
9,نهج الأنطاكي,2070,36.8685052,10.3231289
8,نهج سيدي صالح,2070,36.8875661,10.3283601
10,نهج صلامبو,1057,36.8936185,10.3161128
14,نهج صلامبو,1057,36.8927689,10.3161261
18,نهج صلامبو,1057,36.8920658,10.3160703
2,Rue de la Coline,1057,36.8918869,10.3153056
24,نهج صلامبو,1057,36.8911586,10.3160922
10,نهج الزهراوي,2070,36.8769986,10.3311319
12,نهج الزهراوي,2070,36.8768403,10.3312343
14,نهج الزهراوي,2070,36.8766791,10.3313387
2,نهج الياسمين,2070,36.8864875,10.3246130
6,Rue des Narcisses,2070,36.8859346,10.3241032
6,نهج الفرات,1057,36.9036068,10.2976990
1,Rue El Ashari,2070,36.8726025,10.3251376
1,Rue El Badawi,2070,36.8719877,10.3269004
1,نهج البخاري,2070,36.8731193,10.3265171
1,Rue Imam Malek,2070,36.8725022,10.3254336
10,Rue El Badawi,2070,36.8718015,10.3258970
10,Rue El Bichaoui,2070,36.8714996,10.3268858
10,Rue El Bichaoui,2070,36.8717066,10.3265623
10,نهج البخاري,2070,36.8721666,10.3268395
10,نهج الترمذي,2070,36.8719303,10.3260776
10,نهج الإمام مالك,2070,36.8718547,10.3255725
10 bis,نهج الإمام مالك,2070,36.8719329,10.3255320
11,Rue El Ashari,2070,36.8730585,10.3261510
11,نهج البخاري,2070,36.8722957,10.3269349
11,Rue Imam Malek,2070,36.8714057,10.3260006
12,Rue El Bichaoui,2070,36.8715606,10.3270667
12,نهج الإمام مالك,2070,36.8717720,10.3256152
12 bis,نهج الإمام مالك,2070,36.8716357,10.3256857
13,Rue El Ashari,2070,36.8731237,10.3262986
13,نهج البخاري,2070,36.8721283,10.3270198
13,Rue Imam Malek,2070,36.8712416,10.3260855
14,Rue El Bichaoui,2070,36.8717290,10.3269779
14,Rue Imam Malek,2070,36.8715519,10.3257290
15,Rue Imam Malek,2070,36.8711460,10.3260105
16,Rue Imam Malek,2070,36.8714440,10.3257848
17,Rue Imam Malek,2070,36.8712106,10.3257182
2,Rue El Ashari,2070,36.8724649,10.3249055
2,Rue El Badawi,2070,36.8720739,10.3267186
2,Rue El Bichaoui,2070,36.8718013,10.3266673
2,نهج البخاري,2070,36.8729456,10.3264352
2,نهج الترمذي,2070,36.8726331,10.3257472
2,Rue Imam Malek,2070,36.8724468,10.3252662
21,شارع قرطاج,2070,36.8723664,10.3248683
23,شارع قرطاج,2070,36.8721478,10.3249807
25,شارع قرطاج,2070,36.8719787,10.3250675
27,شارع قرطاج,2070,36.8717955,10.3251616
29,شارع قرطاج,2070,36.8715869,10.3252687
3,Rue El Ashari,2070,36.8726867,10.3253753
3,Rue El Badawi,2070,36.8719249,10.3267109
3,نهج البخاري,2070,36.8729627,10.3265966
3,نهج الترمذي,2070,36.8725806,10.3259741
3,Rue Imam Malek,2070,36.8723341,10.3255205
31,شارع قرطاج,2070,36.8713435,10.3253937
33,شارع قرطاج,2070,36.8710267,10.3254072
4,Rue El Ashari,2070,36.8724911,10.3251677
4,Rue El Badawi,2070,36.8720386,10.3266119
4,Rue El Bichaoui,2070,36.8715120,10.3263802
4,نهج البخاري,2070,36.8727614,10.3265308
4,نهج الترمذي,2070,36.8724368,10.3258395
4,Rue Imam Malek,2070,36.8722848,10.3253500
5,Rue El Ashari,2070,36.8728069,10.3255884
5,Rue El Badawi,2070,36.8718318,10.3264303
5,نهج البخاري,2070,36.8727939,10.3266822
5,نهج الترمذي,2070,36.8723879,10.3260647
5,Rue Imam Malek,2070,36.8721626,10.3256092
6,Rue El Ashari,2070,36.8728331,10.3259244
6,Rue El Badawi,2070,36.8719655,10.3263916
6,Rue El Bichaoui,2070,36.8713567,10.3264621
6,نهج البخاري,2070,36.8725654,10.3266325
6,نهج الترمذي,2070,36.8722447,10.3259298
6,Rue Imam Malek,2070,36.8721343,10.3254278
7,Rue El Ashari,2070,36.8728997,10.3257919
7,Rue El Badawi,2070,36.8717555,10.3262000
7,نهج البخاري,2070,36.8726318,10.3267644
7,نهج الترمذي,2070,36.8719836,10.3262548
7,Rue Imam Malek,2070,36.8719830,10.3257021
8,Rue El Ashari,2070,36.8729281,10.3261292
8,Rue El Badawi,2070,36.8718663,10.3260924
8,Rue El Bichaoui,2070,36.8714252,10.3266651
8,نهج البخاري,2070,36.8723342,10.3267525
8,نهج الترمذي,2070,36.8720808,10.3260069
8,Rue Imam Malek,2070,36.8719956,10.3254996
9,Rue El Ashari,2070,36.8729831,10.3259804
9,Rue El Badawi,2070,36.8716765,10.3259618
9,نهج البخاري,2070,36.8724575,10.3268528
9,Rue Imam Malek,2070,36.8718144,10.3257893
1,Rue de l'Histoire,2070,36.8662497,10.3153158
1,Rue des Grecs,2070,36.8668053,10.3158335
1,Rue des Puniques,2070,36.8670446,10.3147873
10,نهج محمد بيرم الخامس,2070,36.8679026,10.3152106
10,Rue de l'Histoire,2070,36.8669826,10.3153567
10,نهج العثمانيّين,2070,36.8675188,10.3154894
11,نهج العثمانيّين,2070,36.8676711,10.3154678
11,Rue des Puniques,2070,36.8672241,10.3157921
12,نهج العثمانيّين,2070,36.8675544,10.3157135
13,نهج العثمانيّين,2070,36.8677035,10.3156720
13,Rue des Puniques,2070,36.8672543,10.3159614
14,نهج العثمانيّين,2070,36.8675874,10.3159212
15,نهج العثمانيّين,2070,36.8677372,10.3158840
16,نهج العثمانيّين,2070,36.8676853,10.3162854
17,نهج العثمانيّين,2070,36.8677709,10.3160882
18,نهج العثمانيّين,2070,36.8677391,10.3164199
19,نهج العثمانيّين,2070,36.8678318,10.3163176
2,Rue de l'Histoire,2070,36.8660870,10.3154171
2,Rue des Grecs,2070,36.8666061,10.3157224
2,نهج العثمانيّين,2070,36.8673827,10.3146325
20,نهج العثمانيّين,2070,36.8677926,10.3165535
21,نهج العثمانيّين,2070,36.8679198,10.3165375
22,نهج العثمانيّين,2070,36.8678528,10.3167041
23,نهج العثمانيّين,2070,36.8680013,10.3167413
24,نهج العثمانيّين,2070,36.8678995,10.3168208
26,نهج العثمانيّين,2070,36.8679592,10.3169288
28,نهج العثمانيّين,2070,36.8680544,10.3168693
3,نهج محمد بيرم الخامس,2070,36.8679883,10.3146976
3,Rue des Grecs,2070,36.8668570,10.3161306
3,نهج العثمانيّين,2070,36.8675413,10.3146504
3,Rue des Puniques,2070,36.8670785,10.3149772
4,نهج محمد بيرم الخامس,2070,36.8677945,10.3146333
4,Rue de l'Histoire,2070,36.8661346,10.3157020
4,Rue des Grecs,2070,36.8666471,10.3159804
4,نهج العثمانيّين,2070,36.8674207,10.3148716
4,Rue des Puniques,2070,36.8670638,10.3156614
5,نهج محمد بيرم الخامس,2070,36.8680425,10.3150059
5,Rue de l'Histoire,2070,36.8663572,10.3155624
5,Rue de l'Histoire,2070,36.8665555,10.3154274
5,نهج العثمانيّين,2070,36.8675769,10.3148748
5,Rue des Puniques,2070,36.8671143,10.3151778
6,نهج محمد بيرم الخامس,2070,36.8678273,10.3148081
6,Rue de l'Histoire,2070,36.8663522,10.3157360
6,Rue des Grecs,2070,36.8672763,10.3162653
6,نهج العثمانيّين,2070,36.8674547,10.3150860
6,Rue des Puniques,2070,36.8671037,10.3158849
7,نهج محمد بيرم الخامس,2070,36.8680816,10.3152283
7,Rue de l'Histoire,2070,36.8667034,10.3153266
7,Rue de l'Histoire,2070,36.8669086,10.3151869
7,نهج العثمانيّين,2070,36.8676108,10.3150880
7,Rue des Puniques,2070,36.8671527,10.3153927
8,نهج محمد بيرم الخامس,2070,36.8678687,10.3150295
8,Rue de l'Histoire,2070,36.8668016,10.3154800
8,Rue des Grecs,2070,36.8675742,10.3161068
8,نهج العثمانيّين,2070,36.8674874,10.3152918
8,Rue des Puniques,2070,36.8671422,10.3161005
9,نهج العثمانيّين,2070,36.8676407,10.3152763
9,Rue des Puniques,2070,36.8671929,10.3156178
1,نهج يوبا,2070,36.8753790,10.3263049
10,نهج علي طراد,2070,36.8755789,10.3264964
10,نهج يوبا,2070,36.8741830,10.3269359
11,نهج يوبا,2070,36.8742162,10.3271053
11 ter,نهج يوبا,2070,36.8740802,10.3271966
11 bis,نهج يوبا,2070,36.8741562,10.3271455
12,نهج علي طراد,2070,36.8757015,10.3263638
13,نهج يوبا,2070,36.8739280,10.3272987
2,نهج علي طراد,2070,36.8748146,10.3260658
2,نهج يوبا,2070,36.8752759,10.3261759
3,نهج علي طراد,2070,36.8749156,10.3263420
3,نهج يوبا,2070,36.8752264,10.3264204
37,نهج محمد بيرم الخامس,2070,36.8694555,10.3189049
39,نهج محمد بيرم الخامس,2070,36.8695983,10.3190545
4,نهج علي طراد,2070,36.8749777,10.3260410
4,نهج يوبا,2070,36.8751448,10.3262753
5,نهج علي طراد,2070,36.8750567,10.3262443
6,نهج علي طراد,2070,36.8752604,10.3267230
6,نهج يوبا,2070,36.8745675,10.3266862
6bis,نهج يوبا,2070,36.8746912,10.3266058
8,نهج علي طراد,2070,36.8754207,10.3266121
8,نهج يوبا,2070,36.8744336,10.3267732
9,نهج يوبا,2070,36.8744419,10.3269537
1,نهج حمزة,2070,36.8723828,10.3266530
1,نهج ماهربعل,2070,36.8733769,10.3253176
10,نهج ماهربعل,2070,36.8735591,10.3259291
10,نهج الزعفران,2070,36.8733872,10.3266753
116,نهج حمزة,2070,36.8722409,10.3262231
12,نهج ماهربعل,2070,36.8737612,10.3257942
12,نهج الزعفران,2070,36.8732990,10.3268178
13,نهج الزعفران,2070,36.8732428,10.3270553
14,نهج الزعفران,2070,36.8732140,10.3268754
15,نهج الزعفران,2070,36.8729957,10.3272240
16,نهج الزعفران,2070,36.8731110,10.3269451
17,نهج الزعفران,2070,36.8727998,10.3273577
18,نهج الزعفران,2070,36.8729531,10.3270521
19,نهج الزعفران,2070,36.8725787,10.3275085
2,نهج حمزة,2070,36.8724763,10.3265858
2,نهج ماهربعل,2070,36.8731468,10.3252119
20,نهج الزعفران,2070,36.8727514,10.3271886
21,نهج الزعفران,2070,36.8723832,10.3276420
22,نهج الزعفران,2070,36.8724973,10.3273607
23,نهج الزعفران,2070,36.8721515,10.3278001
24,نهج الزعفران,2070,36.8722971,10.3274963
26,نهج الزعفران,2070,36.8720786,10.3276443
3,نهج حمزة,2070,36.8723076,10.3264254
3,نهج ماهربعل,2070,36.8735047,10.3254654
4,نهج حمزة,2070,36.8725063,10.3263373
4,نهج ماهربعل,2070,36.8732616,10.3254806
5,نهج ماهربعل,2070,36.8736477,10.3255218
6,نهج حمزة,2070,36.8723924,10.3262419
6,نهج ماهربعل,2070,36.8733915,10.3257849
8,نهج ماهربعل,2070,36.8733630,10.3259770
1,شارع فرحات حشاد,2070,36.8901078,10.3209317
16,نهج صلامبو,1057,36.8922697,10.3160731
20,نهج صلامبو,1057,36.8918350,10.3159297
3,شارع فرحات حشاد,2070,36.8902874,10.3208248
5,نهج الفرات,1057,36.9036700,10.2979109
1,نهج هولاندا,2037,36.8805209,10.3230597
25,نهج بحر قزوين,2070,36.8825720,10.3103508
1,زنقة 1 زهير الصافي,2070,36.8916991,10.3221158
10,نهج زهير السافي,2070,36.8925349,10.3211956
12,نهج زهير السافي,2070,36.8926662,10.3210893
13,Rue des Narcisses,2070,36.8858617,10.3239101
13ter,Rue des Narcisses,2070,36.8859290,10.3238598
15,Rue des Narcisses,2070,36.8858005,10.3239507
16,نهج شهاب الدين بن ماجد,1057,36.9091299,10.2908708
17,Rue Tite Live,1057,36.8902220,10.3176078
2,زنقة 3 زهير الصافي,2070,36.8924998,10.3215817
2,Rue des Narcisses,2070,36.8862232,10.3238987
3,زنقة 3 زهير الصافي,2070,36.8926384,10.3214939
4,Rue des Narcisses,2070,36.8860747,10.3239967
4,نهج زهير السافي,2070,36.8915937,10.3218037
6,نهج زهير السافي,2070,36.8917196,10.3217187
7,زنقة سيدي عبد العزيز,2070,36.8912525,10.3209807
11,نهج زهير السافي,2070,36.8923384,10.3210514
13,نهج زهير السافي,2070,36.8926008,10.3208768
55,شارع الطيب المهيري,2070,36.8895066,10.3220766
65,شارع الطيب المهيري,2070,36.8904796,10.3211035
65bis,شارع الطيب المهيري,2070,36.8910166,10.3204640
9,نهج زهير السافي,2070,36.8921321,10.3211673
4,نهج الفرات,1057,36.9037952,10.2975984
88,شارع الحبيب بورقيبة,2070,36.8834681,10.3329168
1,نهج منجي بالي,2070,36.8898984,10.3252523
1,نهج سيدي صالح,2070,36.8867444,10.3272099
10,نهج سيدي صالح,2070,36.8879301,10.3283563
11,Rue Larbi Zarrouk,2070,36.8903588,10.3243733
13,Rue Larbi Zarrouk,2070,36.8902069,10.3245668
15,Rue Larbi Zarrouk,2070,36.8899579,10.3247480
17,نهج فيرجيل,2025,36.8428012,10.3229219
18,نهج شادلي زويتن,2070,36.8881138,10.3265615
20,نهج شادلي زويتن,2070,36.8882637,10.3264467
23,نهج عقبة ابن نافع,2016,36.8493912,10.3229587
3,نهج سيدي صالح,2070,36.8869996,10.3274969
4,زنقة صلامبو,2025,36.8386911,10.3241556
4,زنقة صلامبو,2025,36.8387518,10.3242500
8,نهج سيدي صالح,2070,36.8871475,10.3278603
6 bis 2,نهج سيدي صالح,2070,36.8875601,10.3290182
7,نهج منجي بالي,2070,36.8905648,10.3245285
7,نهج سيدي صالح,2070,36.8874885,10.3279190
8,نهج منجي بالي,2070,36.8899680,10.3254364
9,Rue Larbi Zarrouk,2070,36.8904503,10.3241394
1,نهج زهير السافي,2070,36.8910207,10.3225990
1 bis,نهج زهير السافي,2070,36.8910589,10.3224080
16,زنقة الهادي السعيدي,2070,36.8831417,10.3233727
17,Rue Larbi Zarrouk,2070,36.8897220,10.3249360
2,Rue Amitié,2078,36.8812662,10.3059667
29,نهج محمد علي,2070,36.8803909,10.3191835
27,Rue de l'Eglantier,2070,36.8901702,10.3202270
3,نهج زهير السافي,2070,36.8911047,10.3221628
3 bis,نهج زهير السافي,2070,36.8912397,10.3218126
5,نهج سيدي عبد العزيز,2070,36.8907559,10.3225640
6 bis,نهج زهير السافي,2070,36.8918483,10.3216311
2,نهج بلينيوس,2016,36.8490296,10.3263586
7,Avenue du 14 Janvier,2016,36.8707142,10.3428222
108,شارع لوي براي,1003,36.8331216,10.1968213
114,Rue Hassen Hosni Abdelwahab,2078,36.9103584,10.2953572
8,Rue de l'Independance,2070,36.8768307,10.3274896
95,شارع الحرية,1002,36.8161883,10.1790938
93,شارع الحرية,1002,36.8160287,10.1791117
9,نهج الربيع,2070,36.8758380,10.3289610
11,Rue El Damiri,2070,36.8682064,10.3186203
22,Rue El Damiri,2070,36.8683401,10.3186509
24,Rue El Damiri,2070,36.8682777,10.3185022
25,Rue Ibn Saati,2070,36.8681492,10.3188162
26,Rue El Damiri,2070,36.8682382,10.3184149
26bis,Rue El Damiri,2070,36.8682552,10.3184525
14,Rue Ibn Saati,2070,36.8679945,10.3191366
4 bis,نهج المكسيك,1002,36.8179524,10.1781887
4,نهج المكسيك,1002,36.8179513,10.1782614
1,نهج المكسيك,1002,36.8181496,10.1783590
12,نهج المكسيك,1002,36.8184768,10.1775297
15,نهج المكسيك,1002,36.8186900,10.1774967
2,نهج المكسيك,1002,36.8179174,10.1784157
6,شارع الطيب المهيري,2070,36.8852339,10.3236507
39,نهج الامتياز,2070,36.8870693,10.3046421
41,نهج الامتياز,2070,36.8871500,10.3045795
43,نهج الامتياز,2070,36.8872196,10.3045255
45,نهج الامتياز,2070,36.8873104,10.3044550
6,نهج حنبعل,2070,36.8924412,10.3168125
85,Rue de Gabes,2070,36.8904301,10.3083598
7,ممر صلاح الدين بوشوشة,2078,36.8826999,10.3234096
10,نهج زرياب,2070,36.8730451,10.3210096
12,نهج زرياب,2070,36.8728839,10.3211226
3,Rue Kais Ibnou El Moulaoueh,2070,36.8737954,10.3211700
4,نهج زرياب,2070,36.8736228,10.3206043
5,نهج زرياب,2070,36.8734333,10.3209358
6,نهج زرياب,2070,36.8733785,10.3207756
7,نهج زرياب,2070,36.8732663,10.3210498
8,نهج زرياب,2070,36.8721025,10.3186138
9,نهج زرياب,2070,36.8731134,10.3211542
82,شارع يوغرطة,1082,36.8313818,10.1686768
1,زنقة البيئة,1057,36.9028348,10.2945763
11,زنقة البيئة,1057,36.9033622,10.2946548
3,زنقة البيئة,1057,36.9029868,10.2944221
5,زنقة البيئة,1057,36.9031303,10.2942875
7,زنقة البيئة,1057,36.9032655,10.2943710
9,زنقة البيئة,1057,36.9033517,10.2945215
15,نهج الامتياز,2070,36.8837806,10.3067857
19,نهج الامتياز,2070,36.8842508,10.3064758
56,نهج الامتياز,2070,36.8866223,10.3052451
58,نهج الامتياز,2070,36.8866747,10.3052135
60,نهج الامتياز,2070,36.8867307,10.3051773
1,نهج الفارابي,2078,36.9085084,10.2949987
10,نهج شهاب الدين بن ماجد,1057,36.9093720,10.2915834
100,Rue Hassen Hosni Abdelwahab,2078,36.9089014,10.2954888
102,Rue Hassen Hosni Abdelwahab,2078,36.9090912,10.2954799
11,نهج الفارابي,2078,36.9081764,10.2939465
116,Rue Hassen Hosni Abdelwahab,2078,36.9105847,10.2952832
118,Rue Hassen Hosni Abdelwahab,2078,36.9107377,10.2952168
12,نهج شهاب الدين بن ماجد,1057,36.9093136,10.2914113
120,Rue Hassen Hosni Abdelwahab,2078,36.9108528,10.2951510
121,Rue Hassen Hosni Abdelwahab,2078,36.9088384,10.2953325
122,Rue Hassen Hosni Abdelwahab,2078,36.9111587,10.2950369
124,Rue Hassen Hosni Abdelwahab,2078,36.9112280,10.2950038
125,Rue Hassen Hosni Abdelwahab,2078,36.9090299,10.2953401
13,نهج الفارابي,2078,36.9080949,10.2937045
134,Rue Hassen Hosni Abdelwahab,1057,36.9122994,10.2945707
14,نهج شهاب الدين بن ماجد,1057,36.9092484,10.2912507
141,Rue Hassen Hosni Abdelwahab,2078,36.9092051,10.2953351
143,Rue Hassen Hosni Abdelwahab,2078,36.9092513,10.2953377
153,Rue Hassen Hosni Abdelwahab,2078,36.9095718,10.2953528
155,Rue Hassen Hosni Abdelwahab,2078,36.9097266,10.2953452
159,Rue Hassen Hosni Abdelwahab,2078,36.9099670,10.2953070
16,نهج الفارابي,2078,36.9083658,10.2940077
163,Rue Hassen Hosni Abdelwahab,2078,36.9103415,10.2951722
175,Rue Hassen Hosni Abdelwahab,2078,36.9106087,10.2950904
18,نهج الفارابي,2078,36.9083149,10.2938421
20,نهج الفارابي,2078,36.9082558,10.2936612
3,نهج الفارابي,2078,36.9084595,10.2948484
7,نهج الفارابي,2078,36.9083129,10.2944255
7,نهج يزيد بن أبي سفيان,1057,36.9042138,10.2951919
8,نهج شهاب الدين بن ماجد,1057,36.9094105,10.2916747
8,نهج يزيد بن أبي سفيان,1057,36.9043866,10.2951307
9,نهج شهاب الدين بن ماجد,1057,36.9093686,10.2919488
9,نهج الفارابي,2078,36.9082436,10.2941733
98,Rue Hassen Hosni Abdelwahab,2078,36.9087857,10.2954853
2,Rue Eriniosse,2070,36.8702627,10.3228972
4,Rue Eriniosse,2070,36.8701097,10.3225264
37,شارع الحبيب بورقيبة,2070,36.8828065,10.3279957
41,شارع الحبيب بورقيبة,2070,36.8834945,10.3282657
43,شارع الحبيب بورقيبة,2070,36.8836250,10.3283159
42,شارع الحبيب بورقيبة,2070,36.8836987,10.3279476
45,شارع الحبيب بورقيبة,2070,36.8837020,10.3283432
47,شارع الحبيب بورقيبة,2070,36.8837606,10.3283599
44,شارع الحبيب بورقيبة,2070,36.8838292,10.3279999
49,شارع الحبيب بورقيبة,2070,36.8838761,10.3284143
25,شارع الحبيب بورقيبة,2070,36.8814706,10.3274684
27,شارع الحبيب بورقيبة,2070,36.8815744,10.3275081
29,شارع الحبيب بورقيبة,2070,36.8816933,10.3275563
30,شارع الحبيب بورقيبة,2070,36.8813116,10.3270163
31,شارع الحبيب بورقيبة,2070,36.8818222,10.3276065
32 bis,شارع الحبيب بورقيبة,2070,36.8814790,10.3270854
32 ter,شارع الحبيب بورقيبة,2070,36.8815594,10.3271168
33,شارع الحبيب بورقيبة,2070,36.8824985,10.3278409
34,شارع الحبيب بورقيبة,2070,36.8818506,10.3272193
35,شارع الحبيب بورقيبة,2070,36.8825888,10.3278806
39,شارع الحبيب بورقيبة,2070,36.8831027,10.3281883
7,نهج اشطارت,1082,36.8314573,10.1589654
5,نهج موريطانيا,1002,36.8187815,10.1796227
9,نهج اشطارت,1082,36.8316592,10.1588863
6,نهج القديس فلجنس,1082,36.8360267,10.1645256
12,نهج اشطارت,1082,36.8320670,10.1579623
4,نهج بحيرة هوران,1053,36.8368952,10.2465073
37,نهج جمال عبد الناصر,1000,36.7953895,10.1790157
95,شارع يوغرطة,1082,36.8330468,10.1678255
15,نهج بحيرة ملاران,1053,36.8353675,10.2309629
32,نهج المنصورة,1004,36.8448738,10.1794174
3,زنقة أبو العتاهية,1082,36.8285859,10.1727044
78,ممر محمد الخامس,1002,36.8192560,10.1818602
17,شارع الحكيم كونساي,1002,36.8243766,10.1807659
129,شارع يوغرطة,1082,36.8374643,10.1658960
98,نهج فلسطين,1002,36.8183039,10.1794451
4,نهج ليبيريا,1002,36.8172562,10.1809658
10,زنقة أنطلاس,1082,36.8302971,10.1595827
7,نهج القديس فلجنس,1002,36.8357708,10.1647497
25,شارع خير الدين باشا,1073,36.8196029,10.1858970
11,نهج علي باش حانبة,2078,36.8834923,10.3299778
13,نهج علي باش حانبة,2078,36.8835067,10.3301064
15,نهج علي باش حانبة,2078,36.8835077,10.3301578
17,نهج علي باش حانبة,2078,36.8835097,10.3302028
22,نهج علي باش حانبة,2078,36.8834223,10.3303044
24,نهج علي باش حانبة,2078,36.8834295,10.3303751
26,نهج علي باش حانبة,2078,36.8834768,10.3304613
28,نهج علي باش حانبة,2078,36.8835025,10.3304998
30,نهج علي باش حانبة,2078,36.8835282,10.3305448
32,نهج علي باش حانبة,2078,36.8835560,10.3305847
12,Rue Said Abou Baker,2015,36.8383993,10.3190651
9,نهج عمان,1002,36.8115119,10.1770738
2,نهج ابن الشباط,2016,36.8500033,10.3310469
07,نهج يوغوسلافيا,2076,36.8809240,10.3106022
25,Rue des Roses,2070,36.8856850,10.3253864
1,Rue des Roses,2070,36.8877967,10.3246596
10,Rue des Narcisses,2070,36.8846562,10.3249651
10,Rue des Roses,2070,36.8871074,10.3251002
11,Rue des Roses,2070,36.8867421,10.3250069
12,Rue des Roses,2070,36.8872977,10.3250552
13,Rue des Roses,2070,36.8865827,10.3250712
15ter,Rue des Roses,2070,36.8864155,10.3251323
16,Rue Mohamed Abda,2070,36.8839463,10.3254636
17,Rue des Roses,2070,36.8862715,10.3251709
19,Rue des Roses,2070,36.8861480,10.3252159
2,Rue des Roses,2070,36.8876166,10.3249362
23,Rue des Narcisses,2070,36.8847334,10.3246918
23,Rue des Roses,2070,36.8858394,10.3253381
23bis,Rue des Narcisses,2070,36.8845611,10.3248043
25,Rue des Narcisses,2070,36.8844710,10.3248751
27,Rue des Narcisses,2070,36.8842756,10.3250198
3,Rue Hedi Saidi,2070,36.8835914,10.3253285
3,Rue des Roses,2070,36.8875369,10.3247561
31,Rue des Narcisses,2070,36.8839901,10.3252192
4,Rue des Roses,2070,36.8858677,10.3255214
5,Rue des Roses,2070,36.8872565,10.3248654
5,شارع الطيب المهيري,2070,36.8813280,10.3258461
7,Rue des Roses,2070,36.8871048,10.3248912
8,Rue des Roses,2070,36.8868862,10.3251484
9,Rue Hedi Saidi,2070,36.8835014,10.3247175
9,Avenue 14 janvier,2078,36.8796118,10.3275919
4,نهج الشيخ زروق,2078,36.8833302,10.3275255
41,(Angle) Avenue Habib Bourguiba,2078,36.8833686,10.3283333
41,شارع الحبيب بورقيبة,2078,36.8834394,10.3282448
44bis,شارع الصادق المقدم,1053,36.8343295,10.2351908
52,طريق حلق الوادي,2016,36.8485732,10.3257739
47,نهج المعز,1004,36.8381205,10.1770586
1,نهج صالح بن محمود,1004,36.8370433,10.1772184
3,نهج القارص,1006,36.8033441,10.1651835
10,Rue Abderrahman El Ghafki,1057,36.9069294,10.2978688
11,Rue Abderrahman El Ghafki,1057,36.9069664,10.2976321
12 bis,Rue Abdelkarim Khatabi,1057,36.9061695,10.2950692
13,Rue Abderrahman El Ghafki,1057,36.9071049,10.2977938
15,Rue Abderrahman El Ghafki,1057,36.9073172,10.2981056
16,Rue Abderrahman El Ghafki,1057,36.9071903,10.2981950
16,Rue des Roses,1057,36.9106713,10.2999429
2,نهج الياسمين,1057,36.9097572,10.3015266
20,Rue Abdelkarim Khatabi,1057,36.9088625,10.2931865
26,Rue Abdelkarim Khatabi,1057,36.9090287,10.2930770
44,Rue Abdelkarim Khatabi,1057,36.9091589,10.2929798
4,Rue Abderrahman El Ghafki,1057,36.9065370,10.2973838
6,Rue Abdelkarim Khatabi,1057,36.9059072,10.2952352
7,نهج البنفسج,1057,36.9092361,10.3010322
6,Rue Abderrahman El Ghafki,1057,36.9066686,10.2975426
8,Rue Abderrahman El Ghafki,1057,36.9068140,10.2977216
3,Rue des Narcisses,2070,36.8861730,10.3236758
39,شارع اليابان,1073,36.8172043,10.1875341
28,شارع الحبيب بورقيبة,2070,36.8811063,10.3268046
14bis,نهج بيار دي كوبرتان,1001,36.8020735,10.1841751
Appartement A2-14,immeuble expresse,1080,36.8472150,10.1978736
24,نهج ديوان,1059,36.8001127,10.1700309
10 bis,نهج الجزائر,1001,36.7938750,10.1782404
17,نهج إيران,1002,36.8096438,10.1832065
1er étage,Rue des Lacs deMazurie,1053,36.8394127,10.2457216
2,شارع الحرية,1001,36.8062999,10.1802939
4,Rue de Madagascar,2070,36.8801077,10.3278593
38,شارع شارل نيكول,1082,36.8283268,10.1795631
34,نهج ٨٣٠٠,1073,36.8203492,10.1902397
61,نهج آلان سافاري,1002,36.8292086,10.1859155
27 Bis,نهج غاريبلدي,1001,36.8024348,10.1825528
38,شارع الحبيب بوقطفة,2000,36.8111261,10.1514391
3,Rue Habib KHANFIR El Menzah 9,1013,36.8459624,10.1556583
35,نهج علي بلهوان,2015,36.8281709,10.3140634
3,Mami,2076,36.8796330,10.3267909
4,Rue 6739,1091,36.8355608,10.1327430
4,نهج إبن النديم,1073,36.8182208,10.1846641
1,شارع فلورنسا,1002,36.8353876,10.1667221
96,شارع الحرية,1001,36.8163171,10.1779029
17,نهج النمسا,1000,36.8152231,10.1766728
8,ben younes,2051,36.8016263,10.0974297
B-2G,نهج بحيرة توركانا,1053,36.8325197,10.2374646
5,شارع هارون الرشيد,1082,36.8358104,10.1671994
14,Mohamed Salah Belhaj,2078,36.8837933,10.3265876
3,Naceur Bey,2078,36.8797894,10.3278772
Bloc A 3ème étage,نهج بحيرة هوران,1053,36.8363613,10.2479302
2,Avenue Hedi Chaker,2025,36.8396887,10.3175360
10A,Rue de Brazil,1002,36.8170044,10.1772473
3,Rue Hedi Nouira نهج الهادي نويرة,1001,36.8007748,10.1852478
12,Avenue Mongi Slim résidence salma bloc E,2036,36.8612804,10.2540096
9-71,نهج آلان سافاري,1004,36.8315170,10.1889817
246,طريق حلق الوادي,2015,36.8346270,10.3164462
02,نهج بحيرة لوكناس,1053,36.8332390,10.2380869
16 bis,نهج الطبيب الفونس لافران,1002,36.8238038,10.1821386
16 bis,نهج الطبيب الفونس لافران,1002,36.8238402,10.1821573
7,نهج ابن تاشفين,1002,36.8266784,10.1862910
BC1,نهج صلامبو,2070,36.8845643,10.3304152
22,نهج أفلاطون,2015,36.8309099,10.3039111
44,نهج النيجر,1082,36.8221339,10.1849789
11,نهج صلامبو,1057,36.8928421,10.3162909
9,نهج صلامبو,1057,36.8933516,10.3162627
7,نهج صلامبو,1057,36.8935801,10.3162439
5,نهج صلامبو,1057,36.8939372,10.3163016
3,نهج صلامبو,1057,36.8941625,10.3162573
1,نهج صلامبو,1057,36.8943963,10.3161715
2,نهج موسى بن نصير,1002,36.8265108,10.1842563
7,نهج الطبيب الفونس لافران,1002,36.8227666,10.1839050
7,نهج الطبيب الفونس لافران,1002,36.8227448,10.1838760
42,الكرم,2015,36.8331719,10.2996235
A01 Immeuble Rubis,نهج الفضة,1053,36.8465744,10.2734751
4,نهج أبولو 11,1002,36.8271081,10.1791541
2,نهج أبولو 11,1002,36.8270189,10.1794137
4,شارع الهادي شاكر,1006,36.8097868,10.1753343
9,نهج ابو بكر الصديق,1002,36.8255965,10.1852348
48,شارع خير الدين باشا,1002,36.8213597,10.1891581
10,Avenue des Etats Unies,1002,36.8156260,10.1778215
55 ter,نهج 1 جوان 1955,1082,36.8296744,10.1740535
19,نهج الإمام أبو حنيفة,2070,36.8819093,10.3324517
20,نهج ساحل العاج,1002,36.8205431,10.1834208
91,Avenue de la Liberté,1001,36.8158733,10.1790549
38,نهج الباشا,1006,36.8004470,10.1679646
4,Rue El Fel,1057,36.9109179,10.2871730
1,Rue El Fel,1057,36.9107075,10.2872540
38,Rue El Fel,1057,36.9098259,10.2851535
74,شارع محمد الخامس,1002,36.8113942,10.1842540
18,نهج شهاب الدين بن ماجد,1057,36.9084823,10.2893918
28,نهج شهاب الدين بن ماجد,1057,36.9078668,10.2885202
43,نهج شهاب الدين بن ماجد,1057,36.9070034,10.2876711
45,نهج شهاب الدين بن ماجد,1057,36.9067935,10.2874822
29,نهج شهاب الدين بن ماجد,1057,36.9077215,10.2886452
47,نهج شهاب الدين بن ماجد,1057,36.9066515,10.2872833
49,نهج شهاب الدين بن ماجد,1057,36.9065952,10.2872149
51,نهج شهاب الدين بن ماجد,1057,36.9065189,10.2871026
53,نهج شهاب الدين بن ماجد,1057,36.9064351,10.2869905
39,نهج شهاب الدين بن ماجد,1057,36.9071157,10.2879089
1,نهج محمد معلى,1002,36.8357416,10.1681030
157,Rue Hassen Hosni Abdelwahab,2078,36.9098489,10.2953482
46,Rue Abdelkarim Khatabi,1057,36.9093310,10.2928336
5,Rue Abdelkarim Khatabi,1057,36.9057880,10.2951598
1,Rue Abdelkarim Khatabi,1057,36.9054351,10.2953777
5,نهج الياسمين,2070,36.8861276,10.3245467
3,نهج الياسمين,2070,36.8862831,10.3244863
1,نهج الياسمين,2070,36.8864355,10.3244193
25,Rue Abdelkarim Khatabi,1057,36.9091921,10.2927746
23,نهج شهاب الدين بن ماجد,1057,36.9084404,10.2895921
23bis,نهج شهاب الدين بن ماجد,1057,36.9083691,10.2894674
31,Rue Abdelkarim Khatabi,1057,36.9097556,10.2923522
50,Rue Abdelkarim Khatabi,1057,36.9098918,10.2924219
6,نهج القديس فلجنس,1082,36.8360879,10.1645256
6,نهج القديس فلجنس,1082,36.8359802,10.1644217
12,نهج ابو بكر الصديق,1002,36.8254963,10.1848922
9,زنقة شهرزاد,1004,36.8443809,10.1819354
22,زنقة شهرزاد,1004,36.8448229,10.1816797
20,زنقة شهرزاد,1004,36.8447549,10.1816422
18,زنقة شهرزاد,1004,36.8446369,10.1816517
1,نهج ابراهيم جفال,1004,36.8453935,10.1829741
5,نهج ابراهيم جفال,1004,36.8453826,10.1824458
3,نهج ابراهيم جفال,1004,36.8453923,10.1827231
7,زنقة شهرزاد,1004,36.8446499,10.1821444
5,زنقة شهرزاد,1004,36.8448030,10.1822123
3,زنقة شهرزاد,1004,36.8448126,10.1824472
1,زنقة شهرزاد,1004,36.8448259,10.1827952
2,زنقة شهرزاد,1004,36.8447029,10.1827339
4,زنقة شهرزاد,1004,36.8446988,10.1825316
6,زنقة شهرزاد,1004,36.8444919,10.1822802
8,زنقة شهرزاد,1004,36.8443540,10.1821573
10,زنقة شهرزاد,1004,36.8443324,10.1819234
12,زنقة شهرزاد,1004,36.8443344,10.1817889
16,زنقة شهرزاد,1004,36.8444635,10.1817033
03,Rue de l'Ile de Crète,1053,36.8456447,10.2660550
04,شارع الهادي شاكر,2000,36.8062572,10.1364592
31 B,Jbel Jelloud Av De La République,2033,36.7711389,10.2088778
93,شارع محمد الخامس,1002,36.8212850,10.1799328
75,شارع محمد الخامس,1002,36.8204066,10.1818207
15,نهج المعز,1004,36.8355260,10.1797434
9,نهج أبو بكر الصديق,1002,36.8255475,10.1850902
53,Rue Abdelkarim Khatabi,1057,36.9106414,10.2918600
64,Rue Abdelkarim Khatabi,1057,36.9110885,10.2916186
59,Rue Abdelkarim Khatabi,1057,36.9109320,10.2916548
58,Rue Abdelkarim Khatabi,1057,36.9106360,10.2920035
60,Rue Abdelkarim Khatabi,1057,36.9107454,10.2919123
57,Rue Abdelkarim Khatabi,1057,36.9108033,10.2917728
33,Rue Abdelkarim Khatabi,1057,36.9098618,10.2922878
6,نهج شهاب الدين بن ماجد,1057,36.9094425,10.2917594
1,نهج شهاب الدين بن ماجد,1057,36.9096012,10.2923910
5,نهج شهاب الدين بن ماجد,1057,36.9094543,10.2922408
7,نهج شهاب الدين بن ماجد,1057,36.9093975,10.2920249
11,نهج شهاب الدين بن ماجد,1057,36.9093010,10.2917500
15,نهج شهاب الدين بن ماجد,1057,36.9091894,10.2915193
17,نهج شهاب الدين بن ماجد,1057,36.9091026,10.2913946
16,شارع الطاهر بن عاشور,1082,36.8363454,10.1739895
3,نهج جعفر البرمكي,1082,36.8360409,10.1720712
3,نهج جعفر البرمكي,1082,36.8360224,10.1719162
123,شارع يوغرطة,1082,36.8377795,10.1654898
47,نهج 1 جوان 1955,1082,36.8286492,10.1754400
10,نهج الطبيب الفونس لافران,1002,36.8229217,10.1833247
17 bis,نهج أبو بكر الصديق,1002,36.8266307,10.1839414
17,نهج أبو بكر الصديق,1002,36.8265933,10.1840047
79,شارع فرحات حشاد,1001,36.7973429,10.1804084
2,نهج لوسي فور,1000,36.8040466,10.1805589
56,نهج ابن شرف,1082,36.8257160,10.1862113
5,نهج ابن شرف,1002,36.8218094,10.1819193
36,نهج آلان سافاري,1002,36.8301324,10.1864976
36A,شارع آلان سافاري,1002,36.8299818,10.1863720
14,نهج أحمد رامي,1002,36.8237484,10.1831659
6,نهج آلان سافاري,1002,36.8233642,10.1802120
4,نهج الصاحب بن عباد,1002,36.8256217,10.1805843
19,نهج الإمام الغزالي,1002,36.8268216,10.1881594
9,نهج عبد الحميد بن باديس,1002,36.8286555,10.1870123
4,نهج عبد الحميد بن باديس,1002,36.8294139,10.1865254
6,نهج عثمان ابن عفان,1002,36.8277597,10.1868843
5,Rue du Jeune Foyer,1004,36.8385254,10.1810024
12,نهج عبدالرحمان عبد النبي,1004,36.8371348,10.1813978
18,نهج عثمان ابن عفان,1002,36.8266854,10.1874512
16,نهج عثمان ابن عفان,1002,36.8269219,10.1873468
14,نهج عثمان ابن عفان,1002,36.8270933,10.1872155
12,نهج عثمان ابن عفان,1002,36.8272585,10.1871565
10,نهج عثمان ابن عفان,1002,36.8274097,10.1870532
8,نهج عثمان ابن عفان,1002,36.8275957,10.1870014
23,نهج عثمان ابن عفان,1002,36.8267175,10.1871995
21,نهج عثمان ابن عفان,1002,36.8268807,10.1871063
19,نهج عثمان ابن عفان,1002,36.8270524,10.1870218
17,نهج عثمان ابن عفان,1002,36.8272177,10.1869433
15,نهج عثمان ابن عفان,1002,36.8273884,10.1868562
13,نهج عثمان ابن عفان,1002,36.8275742,10.1867523
11,نهج عثمان ابن عفان,1002,36.8277416,10.1866859
9,نهج عثمان ابن عفان,1002,36.8279015,10.1866167
7,نهج عثمان ابن عفان,1002,36.8280540,10.1865397
5,نهج عثمان ابن عفان,1002,36.8282155,10.1864404
3,نهج عثمان ابن عفان,1002,36.8283926,10.1863747
24,نهج عبد الحميد بن باديس,1002,36.8276090,10.1885627
22,نهج عبد الحميد بن باديس,1002,36.8277655,10.1883802
20,نهج عبد الحميد بن باديس,1002,36.8279191,10.1881730
18,نهج عبد الحميد بن باديس,1002,36.8280958,10.1879612
16,نهج عبد الحميد بن باديس,1002,36.8282790,10.1877785
14 bis,نهج عبد الحميد بن باديس,1002,36.8284861,10.1875768
14,نهج عبد الحميد بن باديس,1002,36.8286729,10.1873503
12,نهج عبد الحميد بن باديس,1002,36.8287909,10.1871975
10,نهج عبد الحميد بن باديس,1002,36.8289627,10.1870097
8,نهج عبد الحميد بن باديس,1002,36.8290974,10.1868704
6,نهج عبد الحميد بن باديس,1002,36.8292393,10.1866879
4,نهج عبد الحميد بن باديس,1002,36.8293648,10.1865297
2,نهج عبد الحميد بن باديس,1002,36.8294960,10.1864094
1,نهج عبد الحميد بن باديس,1002,36.8293352,10.1862145
3,نهج عبد الحميد بن باديس,1002,36.8292257,10.1864056
5,نهج عبد الحميد بن باديس,1002,36.8290164,10.1866858
7,نهج عبد الحميد بن باديس,1002,36.8288424,10.1868783
9,نهج عبد الحميد بن باديس,1002,36.8286729,10.1870433
11,نهج عبد الحميد بن باديس,1002,36.8285359,10.1871921
13,نهج عبد الحميد بن باديس,1002,36.8283730,10.1874652
13 bis,نهج عبد الحميد بن باديس,1002,36.8281511,10.1876159
15,نهج عبد الحميد بن باديس,1002,36.8279850,10.1878196
17,نهج عبد الحميد بن باديس,1002,36.8278124,10.1880082
19,نهج عبد الحميد بن باديس,1002,36.8276182,10.1881544
21,نهج عبد الحميد بن باديس,1002,36.8274426,10.1883589
26,شارع الحكيم كونساي,1002,36.8258104,10.1812251
26,شارع الحكيم كونساي,1002,36.8258077,10.1811841
15,نهج ابن قتيبة,1002,36.8274830,10.1806436
1,نهج الخليل ابن أحمد,1002,36.8274841,10.1802508
13,نهج ابن قتيبة,1002,36.8272969,10.1806944
11,نهج ابن قتيبة,1002,36.8270431,10.1807801
9,نهج ابن قتيبة,1002,36.8268455,10.1809166
7,نهج ابن قتيبة,1002,36.8266879,10.1810840
5,نهج ابن قتيبة,1002,36.8265850,10.1812319
5,شارع آلان سافاري,1002,36.8225868,10.1800464
15,نهج عبد المؤمن بن علي,1002,36.8273048,10.1852199
8,نهج عبد المؤمن بن علي,1002,36.8273898,10.1854067
10,نهج عبد المؤمن بن علي,1002,36.8272722,10.1855508
12,نهج عبد المؤمن بن علي,1002,36.8271356,10.1856971
14,نهج عبد المؤمن بن علي,1002,36.8270193,10.1858824
6,نهج عبد المؤمن بن علي,1002,36.8276347,10.1852825
4,نهج عبد المؤمن بن علي,1002,36.8277806,10.1854464
3,نهج حسان ابن نعمان,1002,36.8279601,10.1857015
5,نهج حسان ابن نعمان,1002,36.8276436,10.1858894
5,نهج عبد المؤمن بن علي,1002,36.8280154,10.1853553
5,نهج عبد المؤمن بن علي,1002,36.8280393,10.1853297
13,نهج عبد المؤمن بن علي,1002,36.8275049,10.1850844
11,نهج عبد المؤمن بن علي,1002,36.8276157,10.1849971
9 bis,نهج عبد المؤمن بن علي,1002,36.8277330,10.1850748
7,نهج عبد المؤمن بن علي,1002,36.8278749,10.1852041
26,نهج حسان ابن نعمان,1002,36.8266010,10.1868283
24,نهج حسان ابن نعمان,1002,36.8267894,10.1867462
22,نهج حسان ابن نعمان,1002,36.8269729,10.1867058
20,نهج حسان ابن نعمان,1002,36.8271016,10.1865965
18,نهج حسان ابن نعمان,1002,36.8272664,10.1865125
16,نهج حسان ابن نعمان,1002,36.8274608,10.1864480
14,نهج حسان ابن نعمان,1002,36.8276370,10.1863597
12,نهج حسان ابن نعمان,1002,36.8277875,10.1862829
10,نهج حسان ابن نعمان,1002,36.8279564,10.1861917
8,نهج حسان ابن نعمان,1002,36.8281084,10.1861198
6,نهج حسان ابن نعمان,1002,36.8282995,10.1860266
28,نهج حسان ابن نعمان,1002,36.8263574,10.1870361
1,نهج عبد المؤمن بن علي,1002,36.8281670,10.1855091
3,نهج عبد المؤمن بن علي,1002,36.8280703,10.1854659
17,نهج عبد المؤمن بن علي,1002,36.8270634,10.1854479
8,نهج موسى بن نصير,1002,36.8269998,10.1849029
147,شارع الحرية,1002,36.8200257,10.1784507
145,شارع الحرية,1002,36.8197766,10.1784339
151,شارع الحرية,1002,36.8205645,10.1782875
149,شارع الحرية,1002,36.8203511,10.1783130
145,شارع الحرية,1002,36.8197857,10.1784627
141,شارع الحرية,1002,36.8196696,10.1784665
141,شارع الحرية,1002,36.8196774,10.1784460
15,نهج المعز,1004,36.8355803,10.1796733
15,نهج المعز,1004,36.8354688,10.1798048
110,شارع الحبيب بورقيبة,2060,36.8224607,10.3086886
16,Rue Kahia,1006,36.8026981,10.1672512
3,نهج أبو ظبي,1001,36.8072395,10.1808076
2,نهج المعري,2070,36.8798862,10.3332883
9,نهج ليون,2070,36.8770288,10.3204027
26,نهج 7210,1013,36.8468762,10.1542626
03,نهج شط مريم,1000,36.8185760,10.1846520
2,Rue de la Feuille d'Érable,1059,36.8447301,10.2816126
13,Rue Oued Tessa,2026,36.8858627,10.3202471
18,Rue Oued Tessa,2026,36.8859978,10.3202645
20,Rue Oued Tessa,2026,36.8860622,10.3202270
22,Rue Oued Tessa,2026,36.8860997,10.3202029
22bis,Rue Oued Tessa,2026,36.8861491,10.3201747
26,Rue Oued Tessa,2026,36.8865084,10.3199279
18,Avenue Habib Bourguiba,2026,36.8692218,10.3432631
17,شارع باب الجديد,1008,36.7923902,10.1757259
32,Rue Ali Ben Gedhahem,1001,36.7950864,10.1838024
30,نهج جامع الزيتونة,1020,36.7973127,10.1713123
89,شارع الهادي شاكر,1002,36.8178927,10.1824187
17,Avenue Ali Belhaouane,2078,36.8775384,10.3263183
27,rue Monastir,2075,36.8864865,10.3062724
19,Rue Al Aghaliba Boumhel El Bassatine,2097,36.8111130,10.1381687
20,"Rue Mohamed Rjiba, Menzah 9C",1013,36.8512528,10.1394417
81,شارع خير الدين باشا,1073,36.8221833,10.1926950
81,شارع خير الدين باشا,1073,36.8222837,10.1926423
19,نهج فرحات بن عافية,2092,36.8416095,10.1578426
22,شارع آلان سافاري,1002,36.8264375,10.1829271
24,شارع آلان سافاري,1002,36.8266631,10.1832280
29,شارع المغرب العربي الكبير,2009,36.8262627,10.1173102
6,نهج  42818,1095,36.7528385,10.1019850
22,نهج مكثر,1095,36.7519833,10.1020048
24,شارع الطيب المهيري,2045,36.8510093,10.2596655
4,Rue du Bigaradier,2070,36.8756582,10.3294441
43,نهج 119,1095,36.7772823,10.1093211
1,نهج فرنسا,2000,36.8056371,10.1400681
46,Rue El Fel,1057,36.9096516,10.2848433
bloc a,نهج أبولو 11,1082,36.8285899,10.1786044
12bis,Rue Jemaa el Haoua,1008,36.7924851,10.1657103
4,نهج الغزالي,2070,36.8847355,10.3327781
10,rue de riyal,1053,36.8452499,10.2715715
6,Rue Sidi El Bechir,1008,36.7923403,10.1768950
01 Residence El Baraka,Rue du Jeune Foyer,1004,36.8382307,10.1812364
553,نهج روزفلت,2016,36.8655270,10.3301334
1,Rue Mongi Slim,2070,36.8859729,10.3340716
1,نهج شيبيون,2060,36.8160767,10.3016099
2,ساحة الاستقلال,1000,36.7987244,10.1791390
2,نهج 2 مارس 1934,1000,36.7971018,10.1651196
5,نهج أميلكار,2070,36.8751902,10.3250545
28,نهج 2 مارس 1934,2035,36.8437212,10.3262708
4,نهج بحيرة ماجوري,1053,36.8325626,10.2297328
15,Rue du Lac Malaren,1053,36.8353149,10.2309085
124,Rue Ben Arous,2082,36.7242176,10.1843758
9 Bis,شارع محمد علي عقيد,1003,36.8398698,10.1949810
1,Rue el Hamra,1002,36.8355103,10.1668577
9,نهج مينديس فرنسا,1082,36.8336940,10.1752939
6-8,نهج ميسان,1082,36.8297855,10.1770120
5,نهج بحيرة ليمان,1053,36.8371258,10.2389273
5,نهج بحيرة ليمان,1053,36.8371071,10.2388141
8810,ساحة الطاهر الحداد,1053,36.8356203,10.2393931
1,زنقة بحيرة وندارمير,1053,36.8330924,10.2428999
2,نهج الفردوس,1002,36.8160934,10.1858302
23,شارع الجمهورية,2070,36.8747201,10.3306542
5,نهج 13 أوت 1956,2078,36.8821144,10.3278397
22bis,Rue Ali Bach Hamba,2078,36.8833612,10.3301196
5bis,نهج 13 أوت 1956,2078,36.8821597,10.3279390
BC1,Rue Salambo,2070,36.8842787,10.3308069
81,شارع يوغرطة,1082,36.8317112,10.1689532
85,Avenue Jugurtha,1082,36.8318804,10.1687984
20,نهج علي باشا,2060,36.8157229,10.3056079
9,نهج أبولو 11,1082,36.8281075,10.1785800
39,نهج 1 جوان 1955,1082,36.8277793,10.1763651
39,نهج 1 جوان 1955,1082,36.8277755,10.1763773
56,Rue Hedi Zarrouk,2026,36.8709716,10.3500252
BP 33,Colline de Byrsa,2016,36.8536071,10.3233328
11,شارع قرطاج,2070,36.8741295,10.3256223
22,نهج الحكيم برني,1082,36.8274434,10.1736454
6,Rue Hannibal,2070,36.8923465,10.3166737
3,Rue Elless,1073,36.8169575,10.1852933
4,نهج ديدون,1082,36.8331969,10.1637206
51,شارع البحيرة الشمالية,1053,36.8439012,10.2638641
15,Avenue du Ghana,1017,36.8075129,10.1837602
15,Avenue du Ghana,1017,36.8068912,10.1838475
16,نهج شهاب الدين بن ماجد,1057,36.9091532,10.2904779
9,Rue de l'Energie (Rue 8601),2035,36.8469825,10.2045960
14,نهج يحيى بن عمر,1082,36.8346908,10.1749686
51,نهج علي درغوث,1001,36.7958866,10.1826477
19,نهج الصناعة,2035,36.8342431,10.2023664
77,Rue de l'Energie (Rue 8601),2035,36.8413512,10.2060588
68,Rue de l'Energie (Rue 8601),2035,36.8412408,10.2067720
68,Avenue Jean Jaurès,1001,36.8071028,10.1812852
13,Rue Ibn el Jazzar,2070,36.8747251,10.3068266
66,Rue de l'Or,2070,36.8718825,10.3031269
20,نهج أبولو 11,1082,36.8289935,10.1769874
3,Rue Asdrubal,2070,36.8745592,10.3247511
8,نهج 2 مارس 1934,2026,36.8692336,10.3476828
16,Rue Hannibal,2025,36.8406621,10.3221286
13,شارع قرطاج,2070,36.8737225,10.3253283
9,rue Sidi Salah,2070,36.8877251,10.3281812
1,Rue Ettermidhi,2070,36.8727626,10.3259627
29,Av Grand Maghreb Arabe,2009,36.8263681,10.1173138
10 bis,Avenue du Ghana,1001,36.8061591,10.1839628
6,Ali Kalel,2078,36.8757594,10.3270958
B5,rue d'Alaska,2070,36.8781532,10.3119004
5,Rue Tell,2070,36.8920130,10.3098917
3,Rue d'Ouganda,2070,36.8926998,10.3130013
2,Rue d'Ouganda,2070,36.8924528,10.3134226
47,نهج 1 جوان 1955,1082,36.8282417,10.1749732
47,نهج 1 جوان 1955,1082,36.8286917,10.1754837
08,نهج محمد بدرة,1002,36.8216879,10.1905800
122,شارع الحرية,1002,36.8170609,10.1784826
87,شارع الحرية,1002,36.8156199,10.1792864
87,شارع الحرية,1002,36.8154217,10.1792299
87,شارع الحرية,1002,36.8156214,10.1792423
1,زنقة بحيرة وندارمير,1053,36.8330501,10.2429012
15,شارع الجمهورية,2070,36.8755774,10.3298406
12bis,Rue Ibn Saati,2070,36.8679976,10.3191421
82,Avenue Jugurtha,1082,36.8313773,10.1686706
2,نهج سبيطلة,1082,36.8308078,10.1686433
3 أ,زنقة 6 نهج 8612,2035,36.8291646,10.2033584
24,نهج الهادي شاكر,2016,36.8440470,10.3182411
17,نهج المنصورة,1002,36.8461867,10.1813330
24,شارع الحكيم كونساي,1002,36.8254890,10.1809550
10,نهج الحكيم برني,1082,36.8269217,10.1755515
74,شارع محمد الخامس,1002,36.8188075,10.1822478
78,ممر محمد الخامس,1002,36.8192667,10.1818126
35,Rue Ali Ayari,1013,36.8476951,10.1565787
4,نهج الليم,2092,36.8344477,10.1542202
5,نهج الريحان,1082,36.8307686,10.1770747
55,شارع خير الدين باشا,1073,36.8216689,10.1909230
71190100,شارع البورصة ضفاف البحيرة 2 حلق الوادي,1053,36.8486611,10.2710370
9,Rue de Bain,1006,36.8033806,10.1696839
13,نهج إبن النديم,1073,36.8174444,10.1847974
7,نهج المملكة العربية السعودية,1002,36.8156384,10.1818485
79,شارع الهادي شاكر,1002,36.8165748,10.1808556
3 bis,Rue enne,1082,36.8349461,10.1624826
75,Avenue Habib Bourguiba,2078,36.8840322,10.3319208
6,Rue des Andalous,1008,36.7956233,10.1711037
Appartement A2-14,Immeuble Expresse,1080,36.8472387,10.1978328
6,Rue Takieddine Ibn Zeitoun,2070,36.8816371,10.3175798
69,Rue Alain Savary,1003,36.8309417,10.1891017
15,نهج بحيرة ليمان,1053,36.8397393,10.2431718
28,محمد العتقي,2087,36.7990448,10.0991721
26,محمد العتقي,2087,36.7991584,10.0989683
14,محمد العتقي,2087,36.8002887,10.0980086
16,محمد العتقي,2087,36.8001078,10.0982091
24,محمد العتقي,2087,36.7993599,10.0988502
22,محمد العتقي,2087,36.7995142,10.0986993
20,محمد العتقي,2087,36.7996903,10.0985103
18,محمد العتقي,2087,36.7998585,10.0983834
12,محمد العتقي,2087,36.8009981,10.0977041
10,محمد العتقي,2087,36.8010975,10.0976400
8,محمد العتقي,2087,36.8012293,10.0975776
6,محمد العتقي,2087,36.8013396,10.0975253
4,محمد العتقي,2087,36.8015605,10.0974408
2,محمد العتقي,2087,36.8016773,10.0974286
23,شارع يوغرطة,1082,36.8262785,10.1742716
38,شارع شارل نيكول,1082,36.8281514,10.1795934
12,نهج الطاقة,2035,36.8484444,10.2050852
58,نهج آلان سافاري,1003,36.8317790,10.1872319
54,شارع محمد الخامس,1002,36.8161821,10.1833219
9,Avenue Mohamed Ali Akid,1003,36.8399807,10.1957730
86,شارع هادي شاكر,1002,36.8176385,10.1818050
56,شارع 10 ديسمبر 1948,1004,36.8433084,10.1823125
28,Rue du Fenouil,1074,36.7427455,10.2051957
26,Rue du Fenouil,1074,36.7426149,10.2050828
24,Rue du Fenouil,1074,36.7424311,10.2048746
22,Rue du Fenouil,1074,36.7423303,10.2046801
20,Rue du Fenouil,1074,36.7422573,10.2044890
14,Rue du Fenouil,1074,36.7421810,10.2038347
18,Rue du Fenouil,1074,36.7422089,10.2042731
65,Rue du Fenouil,1074,36.7453502,10.2071628
63,Rue du Fenouil,1074,36.7452131,10.2070657
61,Rue du Fenouil,1074,36.7450675,10.2069379
59,Rue du Fenouil,1074,36.7449033,10.2068100
57,Rue du Fenouil,1074,36.7447621,10.2066747
55,Rue du Fenouil,1074,36.7446355,10.2064896
53,Rue du Fenouil,1074,36.7444165,10.2063016
51,Rue du Fenouil,1074,36.7442112,10.2062464
49,Rue du Fenouil,1074,36.7440385,10.2062022
47,Rue du Fenouil,1074,36.7438740,10.2061138
45,Rue du Fenouil,1074,36.7437092,10.2060541
43,Rue du Fenouil,1074,36.7435178,10.2059786
41,Rue du Fenouil,1074,36.7432647,10.2058957
39,Rue du Fenouil,1074,36.7431016,10.2058126
37,Rue du Fenouil,1074,36.7429170,10.2057374
35,Rue du Fenouil,1074,36.7427824,10.2056558
31,Rue du Fenouil,1074,36.7425097,10.2054594
33,Rue du Fenouil,1074,36.7426608,10.2055382
29,Rue du Fenouil,1074,36.7423586,10.2053327
27,Rue du Fenouil,1074,36.7421887,10.2051170
25,Rue du Fenouil,1074,36.7420851,10.2049557
23,Rue du Fenouil,2074,36.7420116,10.2047227
21,Rue du Fenouil,2074,36.7419427,10.2044896
19,Rue du Fenouil,1074,36.7418958,10.2042367
17,Rue du Fenouil,1074,36.7418842,10.2040047
15,Rue du Fenouil,1074,36.7418762,10.2037816
54,شارع فرحات حشاد,1001,36.7974714,10.1833286
16bis,نهج الطبيب الفونس لافران,1002,36.8238114,10.1821825
16,نهج الطبيب الفونس لافران,1002,36.8235259,10.1825570
12,نهج الطاقة,2035,36.8479479,10.2046759
18,نهج الطبيب الفونس لافران,1002,36.8239533,10.1819474
20,نهج الطبيب الفونس لافران,1002,36.8240779,10.1818249
22,نهج الطبيب الفونس لافران,1002,36.8242110,10.1816191
9,نهج ابو بكر الصديق,1082,36.8256525,10.1852304
11,نهج أبو بكر الصديق,1082,36.8257645,10.1850879
13,نهج أبو بكر الصديق,1082,36.8258967,10.1849532
12,نهج أبو بكر الصديق,1082,36.8254303,10.1848122
2,نهج موسى بن نصير,1002,36.8265299,10.1842375
4,نهج موسى بن نصير,1002,36.8266990,10.1844409
6,نهج موسى بن نصير,1002,36.8268586,10.1846176
2,نهج ابو جعفر المنصور,1002,36.8262315,10.1845523
4,نهج ابو جعفر المنصور,1002,36.8263740,10.1847409
3,نهج موسى بن نصير,1002,36.8264916,10.1846047
5,نهج موسى بن نصير,1002,36.8266399,10.1848202
1,نهج ابو جعفر المنصور,1002,36.8260202,10.1847243
3,نهج ابو جعفر المنصور,1002,36.8261429,10.1849249
7,نهج علي ابن ابي طالب,1002,36.8261304,10.1852227
9,نهج علي ابن ابي طالب,1002,36.8260068,10.1853837
11,نهج علي ابن ابي طالب,1082,36.8258457,10.1854638
54,نهج ابن شرف,1082,36.8254490,10.1859195
52,نهج ابن شرف,1082,36.8252165,10.1857142
13,نهج علي ابن ابي طالب,1082,36.8257312,10.1856254
15,نهج علي ابن ابي طالب,1082,36.8256021,10.1857732
16,نهج أبو بكر الصديق,1082,36.8256920,10.1845117
18,نهج أبو بكر الصديق,1082,36.8258675,10.1843552
20,نهج أبو بكر الصديق,1082,36.8260213,10.1842304
22,نهج أبو بكر الصديق,1082,36.8261449,10.1840249
33,نهج أحمد رامي,1002,36.8247497,10.1824827
2,نهج أبولو 11,1002,36.8270888,10.1790858
17,نهج 10412,2053,36.7501621,10.2034157
5,زنقة 2 نهج 8612,2035,36.8330544,10.2036751
36,نهج شارل ديغول,1000,36.7956861,10.1783086
8,شارع جنيه,1002,36.8442206,10.2633262
8,نهج أبو بكر الصديق,1082,36.8252222,10.1850724
6,نهج أبو بكر الصديق,1082,36.8251052,10.1852294
50,نهج ابن شرف,1002,36.8249721,10.1854064
11,نهج حسان ابن نعمان,1002,36.8266532,10.1862807
13,نهج حسان ابن نعمان,1002,36.8264739,10.1863774
15,نهج حسان ابن نعمان,1002,36.8263247,10.1864484
44,نهج ابن شرف,1082,36.8244111,10.1846482
42,نهج ابن شرف,1082,36.8241988,10.1843829
39,نهج ابن رشيق,1002,36.8245598,10.1837663
10,زنقة عدد 1 نهج أبو بكر الصديق,1082,36.8250096,10.1845923
11,rue Al imem al bekri montplaisir,1073,36.8219034,10.1855955
29,نهج ابو تمام,1002,36.8268220,10.1826940
14,شارع الحبيب شريطة,1002,36.8270994,10.1809269
48,نهج ابن شرف,1082,36.8248388,10.1852140
46,نهج ابن شرف,1082,36.8246476,10.1849968
20bis,نهج ساحل العاج,1002,36.8204311,10.1833446
8612,نهج الطاقة الشمسية,2035,36.8293278,10.2061293
1,نهج محمد معلى,1002,36.8357032,10.1680192
56,نهج ابن شرف,1082,36.8257319,10.1862109
58,نهج ابن شرف,1002,36.8259661,10.1865714
17,نهج حسان ابن نعمان,1002,36.8261520,10.1864959
1,زنقة أبو بكر الصديق,2045,36.8579990,10.2676045
3,زنقة أبو بكر الصديق,2045,36.8581467,10.2675019
5,زنقة أبو بكر الصديق,2045,36.8583143,10.2673841
7,زنقة أبو بكر الصديق,2045,36.8584513,10.2672950
9,زنقة أبو بكر الصديق,2045,36.8585788,10.2672053
11,زنقة أبو بكر الصديق,2045,36.8587305,10.2671077
13,زنقة أبو بكر الصديق,2045,36.8588674,10.2670285
47,نهج 1 جوان 1955,1082,36.8281292,10.1748718
3,rue abdallah ibn abbas,1095,36.7710386,10.1110327
5,rue abdallah ibn abbas,1095,36.7711128,10.1109628
13,نهج ابن ابي سفيان,1095,36.7706008,10.1104491
2,rue abdelaziz ibn moussa,1095,36.7709935,10.1112245
11,نهج 42612,1095,36.7703018,10.1102990
14,rue abdallah ibn abbas,1095,36.7712121,10.1106006
9,rue el imam abou hanifa,1095,36.7713689,10.1102950
5,نهج 201,1095,36.7705912,10.1100650
10,نهج ابن ابي سفيان,1095,36.7708635,10.1100725
7,نهج 201,1095,36.7707161,10.1100056
9,نهج 201,1095,36.7707706,10.1099650
16,مهج باديس بن منصور,1095,36.7703962,10.1097444
6,نهج 201,1095,36.7705321,10.1098522
3,rue el imam abou hanifa,1095,36.7713598,10.1100645
24,نهج ابن ابي سفيان,1095,36.7712634,10.1097688
11,نهج ابن ابي سفيان,1095,36.7710011,10.1101699
6,نهج ابن ابي سفيان,1095,36.7706851,10.1101803
10,rue abdallah ibn abbas,1095,36.7710635,10.1107143
11,rue abdallah ibn abbas,1095,36.7713701,10.1107464
15,rue abdallah ibn abbas,1095,36.7714636,10.1106701
15,نهج ابن ابي سفيان,1095,36.7711542,10.1100716
3,نهج ابن ابي سفيان,1095,36.7703530,10.1104180
20,rue othmane ibn affane,1095,36.7722703,10.1099164
17,rue el imam abou hanifa,1095,36.7713084,10.1103444
48,نهج الشادلي قلالة,1095,36.7708187,10.1084603
21,نهج منصور ابن زيري,1095,36.7707020,10.1085395
2,rue abdallah ibn abbas,1095,36.7708263,10.1109275
4,rue abdallah ibn abbas,1095,36.7708857,10.1108819
7,rue yazid ibn abi sofiane,1095,36.7714941,10.1103762
4,شارع لويس براي,1002,36.8203952,10.1821845
40,نهج طارق ابن زياد,1086,36.8388525,10.1678382
4,Rue Assayda Rayhana Bent Zeid,1003,36.8482224,10.1433387
"Immeuble Saphir, bloc A, bureau A3-2",Avenue la bourse,1053,36.8479793,10.2706776
1,نهج موسى بن نصير,1002,36.8263325,10.1844205
13 Qua,نهج أبو بكر الصديق,1002,36.8262814,10.1843528
15,نهج الإمام الغزالي,1002,36.8266650,10.1880163
19,نهج الإمام الغزالي,1002,36.8268119,10.1881658
21,نهج ابن شرف,1002,36.8270961,10.1886419
23,نهج الإمام الغزالي,1002,36.8274069,10.1889124
14,نهج أحمد رامي,1002,36.8237495,10.1831553
21,نهج أحمد رامي,1002,36.8243154,10.1829767
23,نهج أحمد رامي,1002,36.8243479,10.1828912
25,نهج أحمد رامي,1002,36.8244524,10.1828125
27,نهج أحمد رامي,1002,36.8245370,10.1827279
29,نهج أحمد رامي,1002,36.8245828,10.1826785
31,نهج أحمد رامي,1002,36.8246230,10.1826166
2,نهج عبدالرحمان عبد النبي,1004,36.8356126,10.1809222
4,نهج عبدالرحمان عبد النبي,1004,36.8357714,10.1809627
6,نهج عبدالرحمان عبد النبي,1004,36.8360106,10.1809971
8,نهج الشاعر,1004,36.8361623,10.1810726
10,نهج عبدالرحمان عبد النبي,1004,36.8370098,10.1813160
12,نهج عبدالرحمان عبد النبي,1004,36.8371583,10.1813545
43,نهج المعز,1004,36.8378478,10.1774005
45,نهج المعز,1004,36.8379514,10.1772685
47,نهج المعز,1004,36.8381162,10.1770425
49,نهج المعز,1004,36.8382599,10.1768661
51,نهج المعز,1004,36.8384060,10.1766502
53,نهج المعز,1004,36.8384951,10.1764792
16,نهج القدس,2026,36.8716061,10.3382592
12,نهج القدس,2026,36.8716930,10.3383809
10,نهج القدس,2026,36.8717293,10.3384217
8,نهج القدس,2026,36.8717617,10.3384704
14,نهج القدس,2026,36.8716305,10.3382981
48,نهج كريستوف كولومب,2076,36.8879714,10.3070375
46,نهج كريستوف كولومب,2076,36.8880444,10.3072220
44,نهج كريستوف كولومب,2076,36.8880961,10.3073714
47,نهج كريستوف كولومب,2076,36.8878569,10.3072899
45,نهج كريستوف كولومب,2076,36.8879181,10.3074362
49,نهج كريستوف كولومب,2076,36.8877936,10.3071623
43,نهج كريستوف كولومب,2076,36.8879697,10.3075939
41,نهج كريستوف كولومب,2076,36.8880167,10.3076716
39,نهج كريستوف كولومب,2076,36.8880499,10.3077566
35,نهج كريستوف كولومب,2076,36.8881445,10.3080293
33,نهج كريستوف كولومب,2076,36.8882127,10.3081567
37,نهج كريستوف كولومب,2076,36.8881187,10.3078665
42,نهج كريستوف كولومب,2076,36.8881464,10.3075833
40,نهج كريستوف كولومب,2076,36.8882222,10.3076908
38,نهج كريستوف كولومب,2076,36.8882738,10.3078708
36,نهج كريستوف كولومب,2076,36.8883380,10.3080283
50,نهج كريستوف كولومب,2076,36.8878676,10.3068216
52,نهج كريستوف كولومب,2076,36.8878303,10.3066398
51,نهج كريستوف كولومب,2076,36.8877139,10.3069961
55,نهج كريستوف كولومب,2076,36.8876253,10.3068073
53,نهج كريستوف كولومب,2076,36.8876650,10.3068994
57,نهج كريستوف كولومب,2076,36.8875925,10.3067108
59,نهج كريستوف كولومب,2076,36.8875459,10.3066294
6,Rue de l'Hacienda,2025,36.8435982,10.3227602
5,impasse 1 RUe ahmed ouertani Menzah 9,1013,36.8463393,10.1502659
10,Rue de riyal,1053,36.8452079,10.2717942
19,نهج فرحات بن عافية,2092,36.8417150,10.1579358
8,نهج 4097,2052,36.7982822,10.1434380
18,نهج سطيف,1095,36.7563836,10.1075700
17,نهج سطيف,1095,36.7563066,10.1075049
16,نهج سطيف,1095,36.7562312,10.1074196
15,نهج سطيف,1095,36.7561840,10.1073680
14,نهج سطيف,1095,36.7561102,10.1072857
13,نهج سطيف,1095,36.7560609,10.1072324
12,نهج سطيف,1095,36.7559876,10.1071532
11,نهج سطيف,1095,36.7559339,10.1070999
10,نهج سطيف,1095,36.7558606,10.1070236
9,نهج سطيف,1095,36.7558075,10.1069731
8,نهج سطيف,1095,36.7557337,10.1068894
7,نهج سطيف,1095,36.7556729,10.1068399
6,نهج سطيف,1095,36.7555957,10.1067583
5,نهج سطيف,1095,36.7555381,10.1067066
4,نهج سطيف,1095,36.7554641,10.1066282
3,نهج سطيف,1095,36.7554055,10.1065680
2,نهج سطيف,1095,36.7553444,10.1064973
1,نهج سطيف,1095,36.7552958,10.1064365
94,نهج الجيزة,1095,36.7556060,10.1057412
48,نهج  42818,1095,36.7509052,10.1008993
46,نهج  42818,1095,36.7510083,10.1009649
36,نهج  42818,1095,36.7514115,10.1012059
93,نهج الجيزة,1095,36.7556998,10.1058943
32,نهج  42818,1095,36.7515917,10.1012891
60,rue setif,1095,36.7562489,10.1077207
59,rue setif,1095,36.7561976,10.1076390
58,rue setif,1095,36.7561418,10.1075832
57,rue setif,1095,36.7560690,10.1075004
56,rue setif,1095,36.7560231,10.1074569
55,rue setif,1095,36.7559533,10.1073759
54,rue setif,1095,36.7559101,10.1073335
53,rue setif,1095,36.7558534,10.1072775
44,rue setif,1095,36.7556429,10.1070844
42,rue setif,1095,36.7555123,10.1069276
43,rue setif,1095,36.7555924,10.1070184
41,rue setif,1095,36.7554543,10.1068755
40,rue setif,1095,36.7553774,10.1067925
39,rue setif,1095,36.7553210,10.1067379
38,rue setif,1095,36.7552415,10.1066574
37,rue setif,1095,36.7551731,10.1066166
61,rue akssa,1095,36.7557513,10.1074021
62,rue akssa,1095,36.7558053,10.1074426
63,rue akssa,1095,36.7558481,10.1075197
65,rue akssa,1095,36.7559694,10.1076560
64,rue akssa,1095,36.7559205,10.1075994
66,rue akssa,1095,36.7560423,10.1077385
45,rue akssa,1095,36.7551108,10.1067455
46,rue akssa,1095,36.7551580,10.1068096
47,rue akssa,1095,36.7552365,10.1068895
48,rue akssa,1095,36.7552937,10.1069463
49,rue akssa,1095,36.7553714,10.1070225
50,rue akssa,1095,36.7554278,10.1070838
51,rue akssa,1095,36.7555033,10.1071607
52,rue akssa,1095,36.7555575,10.1071975
31,rue akssa,1095,36.7559215,10.1079468
32,rue akssa,1095,36.7558782,10.1079064
34,rue akssa,1095,36.7557671,10.1077852
33,rue akssa,1095,36.7558119,10.1078256
36,rue akssa,1095,36.7556570,10.1076679
35,rue akssa,1095,36.7556994,10.1077084
38,rue akssa,1095,36.7555497,10.1075457
37,rue akssa,1095,36.7555917,10.1075862
45,rue assyot,1095,36.7554502,10.1076550
44,rue assyot,1095,36.7555170,10.1077324
43,rue assyot,1095,36.7555569,10.1077743
42,rue assyot,1095,36.7556202,10.1078547
41,rue assyot,1095,36.7556637,10.1079001
40,rue assyot,1095,36.7557278,10.1079729
39,rue assyot,1095,36.7557699,10.1080223
52,rue assyot,1095,36.7552954,10.1078726
51,rue assyot,1095,36.7553677,10.1079458
50,rue assyot,1095,36.7554065,10.1079935
49,rue assyot,1095,36.7554733,10.1080694
48,rue assyot,1095,36.7555106,10.1081095
47,rue assyot,1095,36.7555762,10.1081862
46,rue assyot,1095,36.7556200,10.1082279
28,نهج  42818,1095,36.7516685,10.1013550
18,نهج  42818,1095,36.7523814,10.1017736
2,نهج  42818,1095,36.7529953,10.1021129
6,نهج  42818,1095,36.7528223,10.1020159
1,نهج مكثر,1095,36.7528974,10.1023493
3,نهج مكثر,1095,36.7528052,10.1022930
2,نهج مكثر,1095,36.7527986,10.1026349
4,نهج مكثر,1095,36.7526974,10.1025459
6,نهج مكثر,1095,36.7526188,10.1025051
8,نهج مكثر,1095,36.7525385,10.1024397
16,نهج مكثر,1095,36.7522041,10.1022470
20,نهج مكثر,109,36.7520533,10.1021485
21,نهج مكثر,1095,36.7519712,10.1021084
24,نهج مكثر,1095,36.7518822,10.1020711
31,نهج مكثر,1095,36.7515108,10.1015175
33,نهج مكثر,1095,36.7514354,10.1014842
35,نهج مكثر,1095,36.7513497,10.1014332
44,نهج مكثر,1095,36.7511639,10.1016284
42,نهج مكثر,1095,36.7512439,10.1016767
50,نهج مكثر,1095,36.7506815,10.1013513
2,نهج مكثر,1095,36.7506007,10.1013053
40,نهج الجيزة,1095,36.7556613,10.1065452
59,نهج الجيزة,1095,36.7559695,10.1064995
51,نهج الجيزة,1095,36.7559425,10.1064065
15,نهج الجيزة,1095,36.7560347,10.1065445
24,نهج الجيزة,1095,36.7558335,10.1067443
22,نهج الجيزة,1095,36.7558735,10.1068271
12,نهج الجيزة,1095,36.7561640,10.1070979
61,rue assyot,1095,36.7550698,10.1076492
62,rue assyot,1095,36.7550286,10.1076028
63,rue assyot,1095,36.7549583,10.1075361
64,rue assyot,1095,36.7549158,10.1074952
65,rue assyot,1095,36.7548472,10.1074236
66,rue assyot,1095,36.7548035,10.1073787
67,Rue foussena,1095,36.7549808,10.1077829
68,Rue foussena,1095,36.7549407,10.1077383
69,Rue foussena,1095,36.7548722,10.1076672
70,Rue foussena,1095,36.7548302,10.1076241
71,Rue foussena,1095,36.7547601,10.1075532
72,Rue foussena,1095,36.7547183,10.1075123
60,Rue foussena,1095,36.7552116,10.1080093
59,Rue foussena,1095,36.7552523,10.1080542
58,Rue foussena,1095,36.7553209,10.1081236
57,Rue foussena,1095,36.7553620,10.1081692
56,Rue foussena,1095,36.7554289,10.1082461
55,Rue foussena,1095,36.7554704,10.1082952
54,Rue foussena,1095,36.7555385,10.1083691
53,Rue foussena,1095,36.7555759,10.1084150
45,نهج مكثر,1095,36.7507738,10.1016363
43,نهج مكثر,1095,36.7508482,10.1016997
42,نهج 42820,1095,36.7507249,10.1019785
41,نهج 42820,1095,36.7509350,10.1017326
20,نهج 42820,1095,36.7515017,10.1020640
15,نهج امنة ابو لهب,1095,36.7774109,10.1124078
19,نهج امنة ابو لهب,1095,36.7773227,10.1122257
21,نهج امنة ابو لهب,1095,36.7772319,10.1120698
23,نهج امنة ابو لهب,1095,36.7771734,10.1119483
20,نهج فاطمة الزهراء,1095,36.7773003,10.1117494
20,نهج فاطمة الزهراء,1095,36.7773505,10.1118411
18,نهج فاطمة الزهراء,1095,36.7774024,10.1119499
14,نهج فاطمة الزهراء,1095,36.7774637,10.1122384
19,نهج فاطمة الزهراء,1095,36.7774858,10.1117130
8,نهج فاطمة الزهراء,1095,36.7776891,10.1126474
41,نهج فاطمة الزهراء,1095,36.7779276,10.1131168
1,نهج فاطمة الزهراء,1095,36.7781189,10.1130833
9,نهج فاطمة الزهراء,1095,36.7777222,10.1122450
11,نهج فاطمة الزهراء,1095,36.7776959,10.1121772
15,نهج فاطمة الزهراء,1095,36.7776255,10.1120212
17,نهج فاطمة الزهراء,1095,36.7775980,10.1119592
4,نهج الحسين ابن علي,1095,36.7780931,10.1127489
6,نهج الحسين ابن علي,1095,36.7780612,10.1126771
22,نهج الحسين ابن علي,1095,36.7776609,10.1117707
16,نهج الحسين ابن علي,1095,36.7777908,10.1120542
12,نهج الحسين ابن علي,1095,36.7778591,10.1122074
10,نهج الحسين ابن علي,1095,36.7778792,10.1122954
7,نهج الحسين ابن علي,1095,36.7781130,10.1123764
11,نهج الحسين ابن علي,1095,36.7780373,10.1121715
15,نهج الحسين ابن علي,1095,36.7780004,10.1120770
19,نهج الحسين ابن علي,1095,36.7779102,10.1118955
19,نهج الحسين ابن علي,1095,36.7778470,10.1117472
2,شارع الحبيب بورقيبة,1095,36.7784512,10.1128707
12,نهج عبد الله بن الحبحاب,1095,36.7781779,10.1122097
14,نهج عبد الله بن الحبحاب,1095,36.7781371,10.1121052
17,نهج عبد الله بن الحبحاب,1095,36.7781013,10.1120208
18,نهج عبد الله بن الحبحاب,1095,36.7780522,10.1119158
20,نهج عبد الله بن الحبحاب,1095,36.7780045,10.1118198
22,نهج عبد الله بن الحبحاب,1095,36.7779453,10.1116954
24,نهج عبد الله بن الحبحاب,1095,36.7778810,10.1115569
1,شارع الحبيب بورقيبة,1095,36.7786250,10.1128221
5,نهج عبد الله بن الحبحاب,1095,36.7784569,10.1124265
7,نهج عبد الله بن الحبحاب,1095,36.7784257,10.1123493
9,نهج عبد الله بن الحبحاب,1095,36.7783101,10.1120805
11,نهج عبد الله بن الحبحاب,1095,36.7782524,10.1119663
13,نهج عبد الله بن الحبحاب,1095,36.7781598,10.1117584
15,نهج عبد الله بن الحبحاب,1095,36.7781034,10.1116427
17,نهج عبد الله بن الحبحاب,1095,36.7780436,10.1115362
19,نهج عبد الله بن الحبحاب,1095,36.7779959,10.1114522
6,نهج خالد بن الوليد,1095,36.7786091,10.1124459
12,نهج خالد بن الوليد,1095,36.7784756,10.1121740
28,نهج خالد بن الوليد,1095,36.7780992,10.1113794
26,نهج خالد بن الوليد,1095,36.7781401,10.1114647
22,نهج خالد بن الوليد,1095,36.7782656,10.1117045
20,نهج خالد بن الوليد,1095,36.7783085,10.1118061
3,نهج خالد بن الوليد,1095,36.7788306,10.1124966
5,نهج خالد بن الوليد,1095,36.7788056,10.1124262
7,نهج خالد بن الوليد,1095,36.7787342,10.1123758
11,نهج خالد بن الوليد,1095,36.7786620,10.1121906
13,نهج خالد بن الوليد,1095,36.7786391,10.1121453
15,نهج خالد بن الوليد,1095,36.7785974,10.1120749
17,نهج خالد بن الوليد,1095,36.7785572,10.1119853
19,نهج خالد بن الوليد,1095,36.7785156,10.1118796
21,نهج خالد بن الوليد,1095,36.7784612,10.1117547
23,نهج خالد بن الوليد,1095,36.7784095,10.1116567
6,نهج خالد بن الوليد,1095,36.7783102,10.1114228
27,نهج خالد بن الوليد,1095,36.7782692,10.1113424
2,شارع الحبيب بورقيبة,1095,36.7790029,10.1125539
6,نهج الامام بن مسلم,1095,36.7788870,10.1122966
8,نهج الامام بن مسلم,1095,36.7788384,10.1122059
10 bis,نهج الامام بن مسلم,1095,36.7786808,10.1118152
12 bis,نهج الامام بن مسلم,1095,36.7787685,10.1117374
22,نهج الامام بن مسلم,1095,36.7784775,10.1111389
20,نهج الامام بن مسلم,1095,36.7785237,10.1112386
23,نهج الامام بن مسلم,1095,36.7785663,10.1113367
16,نهج الامام بن مسلم,1095,36.7785983,10.1114241
10,نهج الامام بن مسلم,1095,36.7786915,10.1119911
11,نهج الامام بن مسلم,1095,36.7788767,10.1118934
1,شارع الحبيب بورقيبة,1095,36.7791582,10.1125060
12,شارع الحبيب بورقيبة,1095,36.7793232,10.1123378
2,نهج ابن الشباط,1095,36.7796287,10.1120711
16,نهج ابن الشباط,1095,36.7792662,10.1109126
18,نهج ابن الشباط,1095,36.7791952,10.1108471
20,نهج ابن الشباط,1095,36.7791822,10.1107400
4,نهج ابن الشباط,1095,36.7796641,10.1118814
8,نهج ابن الشباط,1095,36.7794981,10.1114953
8 bis,نهج ابن الشباط,1095,36.7794798,10.1114276
12,نهج ابن الشباط,1095,36.7794130,10.1112768
3,نهج ابن الشباط,1095,36.7798290,10.1118295
5,نهج ابن الشباط,1095,36.7798013,10.1117391
13,نهج ابن الشباط,1095,36.7796128,10.1113244
17,نهج ابن الشباط,1095,36.7795367,10.1111055
19,نهج ابن الشباط,1095,36.7795051,10.1110153
4,نهج بيرم التونسي,1095,36.7799444,10.1117741
10,نهج بيرم التونسي,1095,36.7798130,10.1114191
12,نهج بيرم التونسي,1095,36.7797642,10.1113289
18,نهج بيرم التونسي,1095,36.7796028,10.1109102
22,نهج بيرم التونسي,1095,36.7795069,10.1106606
24,نهج بيرم التونسي,1095,36.7794808,10.1105852
26,نهج بيرم التونسي,1095,36.7794574,10.1105376
30,نهج بيرم التونسي,1095,36.7793941,10.1103906
31,نهج الشادلي قلالة,1095,36.7709216,10.1083582
46,نهج ابو زكريا,1095,36.7709124,10.1086567
44,نهج ابو زكريا,1095,36.7709715,10.1087793
5,نهج علي طراد,1095,36.7712696,10.1085628
7,نهج البشير خريف,1095,36.7715335,10.1088179
13,نهج محمد الدرة,1095,36.7713804,10.1087436
11,نهج محمد الدرة,1095,36.7714006,10.1088276
7,نهج محمد الدرة,1095,36.7714551,10.1089446
5,نهج محمد الدرة,1095,36.7715376,10.1091323
6,نهج محمد الدرة,1095,36.7713217,10.1089882
4,نهج محمد الدرة,1095,36.7713943,10.1091638
2,نهج محمد الدرة,1095,36.7714499,10.1092875
17,نهج محمد الدرة,1095,36.7715016,10.1093848
33,نهج ابو زكريا,1095,36.7711231,10.1087947
31,نهج ابو زكريا,1095,36.7711648,10.1088689
19,نهج ابو زكريا,1095,36.7714198,10.1094655
17,نهج منصور ابن زيري,1095,36.7708471,10.1087940
17,نهج منصور ابن زيري,1095,36.7708794,10.1088519
13,نهج منصور ابن زيري,1095,36.7709800,10.1090652
11,نهج منصور ابن زيري,1095,36.7710271,10.1091624
9,نهج منصور ابن زيري,1095,36.7710667,10.1092584
2,نهج 201,1095,36.7711291,10.1096799
22,نهج ابن ابي سفيان,1095,36.7711965,10.1098285
20,نهج ابن ابي سفيان,1095,36.7711402,10.1098679
14,نهج ابن ابي سفيان,1095,36.7709737,10.1099911
12,نهج ابن ابي سفيان,1095,36.7709228,10.1100339
2,نهج 201,1095,36.7710498,10.1095008
22,نهج 201,1095,36.7710021,10.1095343
20,نهج 201,1095,36.7709551,10.1095754
4,مهج باديس بن منصور,1095,36.7708887,10.1094295
18,نهج 201,1095,36.7709007,10.1096148
12,نهج 201,1095,36.7706966,10.1097414
10,نهج 201,1095,36.7706436,10.1097874
8,مهج باديس بن منصور,1095,36.7707215,10.1095356
10,مهج باديس بن منصور,1095,36.7706529,10.1095922
12,مهج باديس بن منصور,1095,36.7705992,10.1096296
18,نهج ابن خفاجة,1095,36.7703099,10.1097640
13,مهج باديس بن منصور,1095,36.7704607,10.1094780
21,نهج ابن خفاجة,1095,36.7702418,10.1096180
15,مهج باديس بن منصور,1095,36.7704040,10.1095141
19,مهج باديس بن منصور,1095,36.7703125,10.1095719
23,نهج الامام سحنون,1095,36.7701801,10.1095065
14,نهج الامام سحنون,1095,36.7703182,10.1094161
12,نهج الامام سحنون,1095,36.7703813,10.1093716
8,نهج الامام سحنون,1095,36.7706176,10.1092006
2,نهج الامام سحنون,1095,36.7707883,10.1090681
3,نهج منصور ابن زيري,1095,36.7708374,10.1090363
10,نهج منصور ابن زيري,1095,36.7707346,10.1088427
1,نهج الامام سحنون,1095,36.7706876,10.1089240
12,نهج منصور ابن زيري,1095,36.7706513,10.1088218
14,نهج منصور ابن زيري,1095,36.7706231,10.1087404
21,نهج الشادلي قلالة,1095,36.7705253,10.1086611
9,نهج الشادلي قلالة,1095,36.7703743,10.1087739
5,نهج الامام سحنون,1095,36.7704505,10.1091210
7,نهج الشادلي قلالة,1095,36.7703116,10.1088058
7,نهج الامام سحنون,1095,36.7703592,10.1091956
5,نهج الشادلي قلالة,1095,36.7702625,10.1088495
9,نهج الامام سحنون,1095,36.7702318,10.1092778
9,نهج الشادلي قلالة,1095,36.7699624,10.1090079
2,نهج الشادلي قلالة,1095,36.7698704,10.1091344
4,نهج 42612,1095,36.7699260,10.1093768
13,نهج 42612,1095,36.7702537,10.1101756
17,نهج 42612,1095,36.7702064,10.1100732
25,نهج الامام سحنون,1095,36.7700025,10.1096440
21,نهج 42612,1095,36.7701016,10.1098471
19,نهج 42612,1095,36.7701350,10.1099205
17,نهج 42612,1095,36.7701696,10.1100025
18,Rue mohamed ali akid,1095,36.7808527,10.1103123
20,Rue mohamed ali akid,1095,36.7807897,10.1103420
22,Rue mohamed ali akid,1095,36.7807141,10.1103759
24,Rue mohamed ali akid,1095,36.7806315,10.1104316
26,Rue mohamed ali akid,1095,36.7805684,10.1104712
28,Rue mohamed ali akid,1095,36.7805153,10.1104955
30,Rue mohamed ali akid,1095,36.7804516,10.1105276
3,نهج الهادي كراي,1095,36.7811102,10.1096044
12,نهج الحبيب ثامر,1095,36.7804286,10.1096238
1,نهج الهادي كراي,1095,36.7807987,10.1096224
8,نهج خير الدين بربروس,1095,36.7805952,10.1100204
19,نهج خير الدين بربروس,1095,36.7798484,10.1103603
20,نهج خير الدين بربروس,1095,36.7797648,10.1104022
15,نهج خير الدين بربروس,1095,36.7799460,10.1103217
13,نهج خير الدين بربروس,1095,36.7800129,10.1102793
11,نهج خير الدين بربروس,1095,36.7800979,10.1102428
16,نهج خير الدين بربروس,1095,36.7798350,10.1101063
18,نهج خير الدين بربروس,1095,36.7797744,10.1101181
21,نهج خير الدين بربروس,1095,36.7797062,10.1101382
24,نهج الحبيب ثامر,1095,36.7796276,10.1099689
18,نهج الحبيب ثامر,1095,36.7799417,10.1098733
20,نهج الحبيب ثامر,1095,36.7798599,10.1099101
22,نهج الحبيب ثامر,1095,36.7797779,10.1099495
30,rue el imam abou hanifa,1095,36.7717714,10.1096314
24,rue el imam abou hanifa,1095,36.7716028,10.1097415
22,rue el imam abou hanifa,1095,36.7715202,10.1098236
2,rue yazid ibn abi sofiane,1095,36.7714159,10.1098388
39,rue el imam abou hanifa,1095,36.7721131,10.1097367
18,rue othmane ibn affane,1095,36.7721866,10.1099319
16,rue othmane ibn affane,1095,36.7721969,10.1099946
14,rue othmane ibn affane,1095,36.7721184,10.1099857
12,rue othmane ibn affane,1095,36.7720621,10.1100306
37,rue el imam abou hanifa,1095,36.7720192,10.1098136
35,rue el imam abou hanifa,1095,36.7719569,10.1097640
33,rue el imam abou hanifa,1095,36.7719123,10.1098761
2,rue yazid ibn abi sofiane,1095,36.7716417,10.1104042
23,rue el imam abou hanifa,1095,36.7715753,10.1100482
31,rue el imam abou hanifa,1095,36.7717389,10.1099895
31 bis,rue el imam abou hanifa,1095,36.7718166,10.1099339
6,rue othmane ibn affane,1095,36.7717932,10.1102323
30,rue 4853,1095,36.7724745,10.1101210
6,rue abdelaziz ibn moussa,1095,36.7722355,10.1103069
9,rue othmane ibn affane,1095,36.7721302,10.1103192
7,rue othmane ibn affane,1095,36.7720573,10.1103637
24,rue abdelaziz ibn moussa,1095,36.7720038,10.1104659
5,rue othmane ibn affane,1095,36.7719625,10.1103647
3,rue othmane ibn affane,1095,36.7718888,10.1104335
3,rue othmane ibn affane,1095,36.7718021,10.1105053
20,rue abdelaziz ibn moussa,1095,36.7718540,10.1106216
1,rue yazid ibn abi sofiane,1095,36.7717105,10.1105276
18,rue yazid ibn abi sofiane,1095,36.7717721,10.1107035
17,نهج ابن ابي سفيان,1095,36.7712285,10.1100140
16,rue el imam abou hanifa,1095,36.7711327,10.1102286
14,rue el imam abou hanifa,1095,36.7710556,10.1102739
6,rue el imam abou hanifa,1095,36.7708423,10.1104541
9,نهج ابن ابي سفيان,1095,36.7709211,10.1102130
7,نهج ابن ابي سفيان,1095,36.7708468,10.1102714
5,نهج ابن ابي سفيان,1095,36.7707821,10.1103122
1,نهج ابن ابي سفيان,1095,36.7706580,10.1103980
18,rue abdallah ibn abbas,1095,36.7713525,10.1104908
12,rue abdallah ibn abbas,1095,36.7711233,10.1106715
8,rue abdallah ibn abbas,1095,36.7710050,10.1107745
6,rue abdallah ibn abbas,1095,36.7709479,10.1108290
5,rue el imam abou hanifa,1095,36.7708862,10.1106989
7,rue el imam abou hanifa,1095,36.7709414,10.1106453
9,rue el imam abou hanifa,1095,36.7710019,10.1105946
4,rue abdelaziz ibn moussa,1095,36.7710676,10.1111490
6,rue abdelaziz ibn moussa,1095,36.7711427,10.1110952
10,rue abdelaziz ibn moussa,1095,36.7713330,10.1109434
12,rue abdelaziz ibn moussa,1095,36.7713959,10.1108922
13,rue abdallah ibn abbas,1095,36.7714159,10.1107053
17,rue abdallah ibn abbas,1095,36.7715064,10.1106346
18,rue yazid ibn abi sofiane,1095,36.7715446,10.1105314
9 bis,rue abdallah ibn abbas,1095,36.7712980,10.1108037
9,rue abdallah ibn abbas,1095,36.7712733,10.1108264
8,نهج عباس محمود العقاد,1005,36.8174680,10.1673339
25,شارع الجمهورية,2016,36.8517419,10.3323090
3,Avenue Youssef Rouissi,2092,36.8387618,10.1559517
15,rue salah ben youssef,2046,36.8772787,10.2869503
24,نهج الطاقة الشمسية,2035,36.8289561,10.2048918
1,شارع محمد الخامس,1001,36.8012831,10.1869193
20-22,شارع باريس,1000,36.8022760,10.1806335
1,نهج فيكتورينس,2016,36.8566475,10.3299508
208,Avenue 15 Octobre,2058,36.7571735,10.1987735
68,rue Akssa,1095,36.7561770,10.1078485
67,rue akssa,1095,36.7561157,10.1077861
