House number,Street name,Postal code,Latitude,Longitude
124а,Галицька вулиця,76008,48.9447795,24.6962003
3А,вулиця Василя Симоненка,76006,48.9413785,24.7456279
32А,вулиця Володимира Івасюка,76000,48.9296603,24.7426771
23,вулиця Марійки Підгірянки,76014,48.9208571,24.7213575
39,Довга вулиця,76000,48.9285252,24.7029175
124а,Галицька вулиця,76008,48.9448084,24.6961086
124а,Галицька вулиця,76008,48.9447142,24.6963098
49,вулиця Чорновола,76000,48.9159633,24.7050447
26,Дністровська вулиця,76018,48.9256431,24.7137463
18Б,вулиця Юліана Целевича,<різні>,48.9446467,24.7026595
29,вулиця Академіка Гнатюка,76014,48.9208880,24.7205837
6а,вулиця Шевченка,76000,48.9193268,24.7056542
173,вулиця Гетьмана Мазепи,76026,48.9071987,24.6852944
20/1,вулиця Гетьмана Мазепи,76018,48.9208041,24.7053986
146,вулиця Євгена Коновальця,76000,48.9028633,24.7127138
30,вулиця Івана Миколайчука,76006,48.9377837,24.7509409
32,вулиця Любомира Гузара,76000,48.9247745,24.7089312
10,Бельведерська вулиця,76018,48.9221546,24.7068927
30б,вулиця Джохара Дудаєва,76014,48.9001361,24.7208813
56,вулиця Січових Стрільців,76018,48.9184554,24.7117199
63,вулиця Шевченка,76018,48.9149093,24.6999661
2,провулок Надії,76026,48.9019051,24.6879463
48,вулиця Незалежності,76048,48.9172629,24.7244946
142б,Галицька вулиця,76008,48.9481807,24.6959549
15б,вулиця Кардинала Любомира Гузара,76018,48.9235740,24.7062405
14а,вулиця Національної Гвардії,76014,48.9096012,24.7074146
2Б,Промышленная,76009,48.9336239,24.7165744
10 к3,вулиця Андрія Мельника,76000,48.9159372,24.7131841
47,Галицька вулиця,76000,48.9256021,24.7095375
40а,Бельведерська вулиця,76010,48.9193204,24.7019301
14/4,вулиця Степана Бандери,76000,48.9137287,24.7171412
1,вулиця Володимира Івасюка,76000,48.9375029,24.7414078
2,вулиця Івана Миколайчука,76000,48.9332982,24.7466689
14,вулиця Січових Стрільців,76000,48.9197407,24.7070504
1,вулиця Богдана Лепкого,76018,48.9190095,24.7179475
16,вулиця Івана Миколайчука,76006,48.9364095,24.7492854
173-В,вулиця Гетьмана Мазепи,76026,48.9069435,24.6839122
147/3,вулиця Євгена Коновальця,76014,48.9080029,24.7124278
17а,вулиця Василя Стуса,76018,48.9361377,24.7443158
26,вулиця Осипа Сорохтея,76010,48.9031967,24.7088597
87а,вулиця Незалежності,76000,48.9189067,24.7199284
67,вулиця Незалежності,76018,48.9188326,24.7178181
28к2,Стуса вулиця,76003,48.9347154,24.7457214
129а,вулиця Героїв Миколаєва,76492,48.9170793,24.7482443
49,вулиця Чорновола,76000,48.9158202,24.7048312
154,вулиця Незалежності,76000,48.9159300,24.7341463
7б,вулиця Федьковича,76000,48.9406302,24.6882996
36,вулиця Богдана Хмельницького,76006,48.9320673,24.7239577
7а,вулиця Федьковича,76008,48.9400458,24.6891169
31,вулиця Ольги Кисілевської,76000,48.9202550,24.7343753
196,Вовчинецька вулиця,76006,48.9401833,24.7416314
198Б,Вовчинецька вулиця,76006,48.9404571,24.7430428
192,Вовчинецька вулиця,76006,48.9393328,24.7406456
48,вулиця Незалежності,76000,48.9171071,24.7244929
144а,вулиця Євгена Коновальця,76014,48.9024835,24.7116681
194,Вовчинецька вулиця,76006,48.9397593,24.7411233
2,Північний бульвар,76000,48.9298000,24.7056309
42,Південний бульвар,76010,48.9208412,24.6959488
2,Північний бульвар,76000,48.9294932,24.7062029
8,вулиця Карла Вишневського,76010,48.9237973,24.6956665
30,набережна Василя Стефаника,76010,48.9288432,24.6914845
2,вулиця Івана Миколайчука,76006,48.9329601,24.7460179
13,вулиця 24 Серпня,76006,48.9354114,24.7523929
11,вулиця 24 Серпня,76000,48.9346704,24.7512837
13а,вулиця Івана Миколайчука,76006,48.9367872,24.7486593
15,вулиця Івана Миколайчука,76006,48.9373165,24.7485184
10,вулиця Незалежності,76018,48.9196203,24.7105332
140,вулиця Чорновола,76000,48.9012107,24.6922999
9,вулиця Олександра Довженка,7600,48.9028064,24.6907212
125а,вулиця Чорновола,76000,48.9066636,24.6988996
117,вулиця Чорновола,76000,48.9099425,24.6992360
9,вулиця Августина Волошина,76005,48.9073063,24.7019316
123,вулиця Чорновола,76000,48.9071395,24.6990507
5,вулиця Августина Волошина,76005,48.9074059,24.7008008
6,вулиця Августина Волошина,76005,48.9070671,24.7014381
121,вулиця Чорновола,76000,48.9082323,24.6992350
121а,вулиця Чорновола,76000,48.9076348,24.6991006
107а,вулиця Чорновола,76000,48.9104196,24.6997475
106,вулиця Євгена Коновальця,76014,48.9100662,24.7100602
11,вулиця Августина Волошина,75005,48.9070530,24.7025846
198в,Вовчинецька вулиця,76006,48.9398059,24.7438012
210,Вовчинецька вулиця,76000,48.9439274,24.7477696
196а,Вовчинецька вулиця,76006,48.9391628,24.7430629
7,вулиця Івана Миколайчука,76006,48.9361259,24.7477777
12,вулиця Василя Симоненка,76006,48.9402748,24.7465446
3,вулиця Слави Стецько,76014,48.9107783,24.7115684
16,вулиця Василя Симоненка,76006,48.9395409,24.7468953
25,вулиця Василя Стуса,76006,48.9352879,24.7460882
23,вулиця Василя Стуса,76006,48.9356581,24.7457755
1,вулиця Івана Миколайчука,76006,48.9352091,24.7467343
12,вулиця Степана Бандери,76014,48.9147369,24.7163503
36,вулиця Незалежності,76018,48.9184698,24.7153838
3,Вічевий майдан,76000,48.9205216,24.7071634
57,Галицька вулиця,76000,48.9269920,24.7089160
206,Вовчинецька вулиця,76006,48.9441516,24.7452951
7,вулиця Тичини,76019,48.9252794,24.7055191
118,Галицька вулиця,76008,48.9448072,24.6975771
120,Галицька вулиця,76008,48.9448079,24.6972017
122,Галицька вулиця,76008,48.9448171,24.6968260
2а,Тролейбусна вулиця,76008,48.9435843,24.7002151
82,вулиця Чорновола,76018,48.9136927,24.7005204
16,вулиця Шевченка,76018,48.9187809,24.7047179
12,вулиця Михайла Мулика,76000,48.9238953,24.7189253
25,Вовчинецька вулиця,76018,48.9272455,24.7189212
38а,Пасічна вулиця,76000,48.9382128,24.6918523
221а,Надрічна вулиця,76000,48.9392040,24.7351054
38,Пасічна вулиця,76000,48.9383802,24.6928047
168,вулиця Гетьмана Мазепи,76000,48.9071927,24.6821084
73,вулиця Гната Хоткевича,76022,48.9239113,24.7395955
17,вулиця Марійки Підгірянки,76000,48.9218537,24.7227287
71,вулиця Гната Хоткевича,76002,48.9233981,24.7396856
69,вулиця Гната Хоткевича,76002,48.9235564,24.7389322
196б,Вовчинецька вулиця,76006,48.9385910,24.7448039
17,вулиця Володимира Івасюка,76000,48.9304431,24.7459993
83,вулиця Незалежності,76018,48.9187273,24.7185168
124 к1,Вовчинецька вулиця,76007,48.9333713,24.7311349
184,Вовчинецька вулиця,76006,48.9380661,24.7380195
38,вулиця Української Перемоги,76014,48.9129164,24.7159847
10,вулиця Незалежності,76018,48.9195508,24.7110194
34А,Галицька вулиця,76000,48.9313933,24.7084871
16а,вулиця Василіянок,76000,48.9270456,24.7158238
12,вулиця Василіянок,76000,48.9265781,24.7162092
2,вулиця Тарнавського,76000,48.9271142,24.7156746
9,Грюнвальдська вулиця,76018,48.9254023,24.7182854
1,вулиця Василя Симоненка,76006,48.9423220,24.7439763
3в,вулиця Василя Симоненка,76000,48.9425083,24.7455133
23б,вулиця Макогона,76019,48.9333228,24.7149004
6,вулиця Василя Симоненка,76006,48.9409281,24.7452234
198А,Вовчинецька вулиця,76006,48.9410371,24.7429013
4,вулиця Василя Симоненка,76006,48.9409409,24.7443732
200,Вовчинецька вулиця,76006,48.9416431,24.7430388
15,вулиця Василя Стуса,76006,48.9369645,24.7451285
17а,вулиця Івана Миколайчука,76006,48.9379395,24.7485922
15а,вулиця Івана Миколайчука,76006,48.9376960,24.7480607
17,вулиця Івана Миколайчука,76006,48.9375055,24.7493387
22,вулиця Василя Симоненка,76006,48.9389191,24.7481866
19А,вулиця Івана Миколайчука,76006,48.9379177,24.7499119
19,вулиця Івана Миколайчука,76006,48.9381901,24.7498988
17Б,вулиця Івана Миколайчука,76006,48.9383139,24.7478992
18,вулиця Василя Симоненка,76006,48.9390965,24.7475375
9,вулиця Витвицького,76000,48.9392047,24.6992635
134/134А,Галицька вулиця,76008,48.9466051,24.6975570
42б,вулиця Євгена Коновальця,76000,48.9162291,24.7095097
32,вулиця Євгена Коновальця,76000,48.9168880,24.7105856
18Б,вулиця Юліана Целевича,<різні>,48.9446655,24.7026765
34а,вулиця Української Перемоги,76014,48.9131720,24.7137392
1,Фортечний провулок,76000,48.9225491,24.7074723
11,вулиця Володимира Івасюка,76000,48.9330782,24.7439066
6,вулиця Івана Франка,76000,48.9195936,24.7169872
29,вулиця Василя Стуса,76003,48.9343614,24.7482647
5,вулиця 24 Серпня,76006,48.9339056,24.7524559
28к2,вулиця Василя Стуса,76006,48.9341551,24.7455847
28к2,вулиця Василя Стуса,76006,48.9346597,24.7457051
22,вулиця Василіянок,79019,48.9276428,24.7151904
34,вулиця Василіянок,76000,48.9282307,24.7145708
31а,вулиця Макогона,76019,48.9334277,24.7157793
19,вулиця Василя Стуса,76006,48.9365370,24.7454846
9,вулиця Івана Миколайчука,76006,48.9369917,24.7472303
9,вулиця Кардинала Любачівського,76009,48.9373920,24.7390574
21,вулиця Василя Стуса,76006,48.9369197,24.7462955
5,вулиця Івана Миколайчука,76006,48.9364789,24.7467313
140-А,вулиця Гетьмана Мазепи,76000,48.9124302,24.6911362
194б,Вовчинецька вулиця,76006,48.9379969,24.7437911
194а,Вовчинецька вулиця,76006,48.9382224,24.7430120
65; 67,вулиця Шевченка,76000,48.9145908,24.6998008
67,Галицька вулиця,76000,48.9299933,24.7083340
4,Крива вулиця,76000,48.9211414,24.7041107
15в,Сніжна вулиця,76019,48.9297964,24.7014124
8,Деповська вулиця,76000,48.9225155,24.7279368
18,вулиця Хіміків,<різні>,48.9447001,24.7062117
17,вулиця Хіміків,76000,48.9464433,24.7064169
3,Надрічна вулиця,76000,48.9374903,24.7093237
165б,вулиця Гетьмана Мазепи,76026,48.9076867,24.6887196
16,вулиця Василіянок,76000,48.9269297,24.7158392
12,вулиця Героїв Крут,76010,48.9257796,24.7211235
22,вулиця Української Перемоги,79018,48.9142724,24.7100623
48,вулиця Володимира Івасюка,76006,48.9270559,24.7412918
44/44а,Молодіжна вулиця,76009,48.9281263,24.7360152
48,Молодіжна вулиця,76009,48.9285074,24.7363929
1,вулиця Михайла Мочульського,76002,48.9172877,24.7338510
27б,Бельведерська вулиця,76000,48.9231729,24.7028617
32А,вулиця Володимира Івасюка,76000,48.9297385,24.7426871
48/2,Млинарська вулиця,76010,48.9284171,24.6909796
26,вулиця Кардинала Любачівського,76000,48.9360851,24.7416656
28,вулиця Гоголя,76009,48.9352480,24.7399688
20,вулиця Гоголя,76009,48.9346395,24.7393273
29,вулиця Кардинала Любачівського,76009,48.9366896,24.7416455
24,вулиця Кардинала Любачівського,76009,48.9363598,24.7418001
34,вулиця Гоголя,76009,48.9356327,24.7404320
36,вулиця Гоголя,76009,48.9358107,24.7406105
40,вулиця Гоголя,76009,48.9361427,24.7408947
44,вулиця Гоголя,76009,48.9365595,24.7412379
32,вулиця Гоголя,76009,48.9354831,24.7402783
22,вулиця Гоголя,76009,48.9347549,24.7394666
24,вулиця Гоголя,76009,48.9348954,24.7396571
30,вулиця Гоголя,76009,48.9353490,24.7401693
26,вулиця Гоголя,76009,48.9349946,24.7397968
23,вулиця Степана Бандери,76014,48.9148553,24.7184614
168Б,вулиця Гетьмана Мазепи,76000,48.9078461,24.6832735
23,Лучна вулиця,76006,48.9304141,24.7304128
18,вулиця Полковника Василя Андрусяка,76009,48.9357125,24.7371107
16,вулиця Полковника Василя Андрусяка,76009,48.9358077,24.7372801
1,вулиця Полковника Василя Андрусяка,76009,48.9370060,24.7388061
12,вулиця Кардинала Любачівського,76009,48.9370718,24.7391219
5,вулиця Полковника Василя Андрусяка,76009,48.9366004,24.7384953
19,вулиця Кардинала Любачівського,76009,48.9370494,24.7403659
12,вулиця Полковника Василя Андрусяка,76009,48.9361114,24.7375551
11,вулиця Полковника Василя Андрусяка,76009,48.9360814,24.7379810
23,вулиця Кардинала Любачівського,76009,48.9368788,24.7409557
7,вулиця Полковника Василя Андрусяка,76009,48.9363797,24.7383115
6,вулиця Кардинала Любачівського,76009,48.9372334,24.7386437
9,вулиця Полковника Василя Андрусяка,76009,48.9362376,24.7381336
12а,вулиця Кардинала Любачівського,76009,48.9371374,24.7389314
4,вулиця Полковника Василя Андрусяка,76009,48.9367134,24.7381914
21,вулиця Кардинала Любачівського,76009,48.9369490,24.7406835
3,вулиця Полковника Василя Андрусяка,76009,48.9368164,24.7387149
2,вулиця Полковника Василя Андрусяка,76009,48.9370821,24.7384669
15,вулиця Полковника Василя Андрусяка,76009,48.9357722,24.7377049
17,вулиця Полковника Василя Андрусяка,76009,48.9356486,24.7375507
14,вулиця Полковника Василя Андрусяка,76009,48.9359678,24.7373873
21,вулиця Полковника Василя Андрусяка,76009,48.9353243,24.7372465
8,вулиця Полковника Василя Андрусяка,76009,48.9363770,24.7378548
6,вулиця Полковника Василя Андрусяка,76009,48.9365380,24.7379667
20,вулиця Полковника Василя Андрусяка,76009,48.9355419,24.7369797
19,вулиця Полковника Василя Андрусяка,76009,48.9354836,24.7374123
10,вулиця Полковника Василя Андрусяка,76009,48.9362426,24.7376541
13,вулиця Полковника Василя Андрусяка,76009,48.9359253,24.7378467
7,вулиця Гоголя,76009,48.9338315,24.7383112
63а,вулиця Чорновола,76000,48.9149826,24.7040752
18,вулиця Незалежності,76018,48.9192609,24.7124500
1,вулиця Левка Бачинського,76018,48.9201846,24.7077187
35,вулиця Гетьмана Мазепи,76000,48.9187982,24.7027557
24,вулиця Василя Симоненка,76006,48.9386763,24.7494703
24а,вулиця Василя Симоненка,76006,48.9390211,24.7490546
13,вулиця Івана Миколайчука,76006,48.9377677,24.7468022
15а,вулиця Василя Стуса,76006,48.9373145,24.7459299
15а,вулиця Василя Стуса,76006,48.9375732,24.7457852
11,вулиця Івана Миколайчука,76006,48.9368147,24.7479442
17В,вулиця Івана Миколайчука,76006,48.9384278,24.7472161
2,вулиця Василя Стуса,76006,48.9383173,24.7467068
18,вулиця Юліана Целевича,<різні>,48.9441834,24.7034629
51г,вулиця Богдана Хмельницького,76006,48.9343113,24.7237731
133,Галицька вулиця,76008,48.9384674,24.7010209
10,вулиця Івана Миколайчука,76006,48.9350220,24.7493086
6,вулиця Івана Миколайчука,76003,48.9349420,24.7479594
221а,вулиця Євгена Коновальця,76014,48.9038181,24.7138550
26,вулиця Василя Симоненка,76006,48.9372509,24.7520071
18,вулиця Івана Миколайчука,76006,48.9366390,24.7500204
4А,вулиця Івана Миколайчука,76000,48.9359250,24.7504092
13Б,вулиця Василя Стуса,76000,48.9364535,24.7439460
3А,вулиця Василя Симоненка,76006,48.9413702,24.7455582
24Б,вулиця Василя Симоненка,76006,48.9383438,24.7502890
30А,вулиця Василя Симоненка,76000,48.9370272,24.7533388
15,вулиця Василя Симоненка,76000,48.9415236,24.7467129
15б,вулиця Василя Симоненка,76000,48.9418812,24.7471224
7,вулиця Василя Симоненка,76000,48.9425306,24.7469627
5,вулиця Василя Симоненка,76000,48.9429713,24.7460018
5,вулиця Василя Симоненка,76000,48.9431903,24.7453823
15г,вулиця Василя Симоненка,76000,48.9411805,24.7463317
7а,вулиця 24 Серпня,76000,48.9338584,24.7532543
30,вулиця Василя Симоненка,76000,48.9365419,24.7528493
208,Вовчинецька вулиця,76000,48.9442139,24.7464866
208а,Вовчинецька вулиця,76000,48.9434940,24.7459277
11,вулиця Василя Симоненка,76006,48.9435683,24.7487656
9,вулиця Василя Симоненка,76006,48.9425144,24.7477841
13,вулиця Василя Симоненка,76000,48.9426187,24.7494110
13,вулиця Василя Симоненка,76000,48.9429746,24.7494279
13,вулиця Василя Симоненка,76000,48.9425800,24.7493245
10,вулиця Володимира Івасюка,76006,48.9373753,24.7398982
1,вулиця Володимира Івасюка,76006,48.9375275,24.7415131
196в,Вовчинецька вулиця,76006,48.9405113,24.7415445
21,Південний бульвар,76000,48.9226532,24.7024883
32,Молодіжна вулиця,76000,48.9249123,24.7370541
34,Молодіжна вулиця,76000,48.9252584,24.7373211
36,Молодіжна вулиця,76000,48.9254393,24.7370233
27а,вулиця Української Перемоги,76014,48.9144085,24.7153751
48,вулиця Володимира Івасюка,76006,48.9270879,24.7415673
46а,вулиця Володимира Івасюка,76006,48.9270811,24.7419145
3б,вулиця Василя Симоненка,76000,48.9424303,24.7460637
15,Карпатська вулиця,76019,48.9319232,24.6961931
20А,вулиця Короля Данила,76010,48.9221572,24.6999986
6а,вулиця Івана Миколайчука,76003,48.9352689,24.7481614
124 к2,Вовчинецька вулиця,76007,48.9330557,24.7306070
10,вулиця Героїв Крут,76010,48.9256321,24.7209070
17а,вулиця Хіміків,76000,48.9465294,24.7058946
28к3,вулиця Василя Стуса,76006,48.9336871,24.7450436
38,вулиця Незалежності,76018,48.9179184,24.7164100
30б,вулиця Джохара Дудаєва,76014,48.9000525,24.7212864
30д,вулиця Василя Стуса,76003,48.9318653,24.7463662
44,вулиця Василя Стуса,76003,48.9316727,24.7509839
42,вулиця Василя Стуса,76003,48.9320062,24.7501899
38,вулиця Василя Стуса,76003,48.9325328,24.7498105
42,вулиця Василя Стуса,76003,48.9316640,24.7501346
40,вулиця Василя Стуса,76003,48.9321955,24.7507673
117а,вулиця Чорновола,76000,48.9101753,24.6995743
7,вулиця 24 Серпня,76006,48.9341153,24.7527946
3,вулиця Івана Миколайчука,76006,48.9354924,24.7470092
117б,вулиця Чорновола,76000,48.9096673,24.6995168
58,вулиця Січових Стрільців,76018,48.9182905,24.7116416
35а,вулиця Василя Стуса,76003,48.9338153,24.7496714
186,Вовчинецька вулиця,76006,48.9379080,24.7389593
98,Довга вулиця,76010,48.9253845,24.6980580
28,вулиця Василя Симоненка,76006,48.9368212,24.7518527
26,вулиця Івана Миколайчука,76006,48.9375064,24.7514731
9а,вулиця Василя Симоненка,76006,48.9428487,24.7483239
118,вулиця Євгена Коновальця,76014,48.9085405,24.7105024
35б,вулиця Гетьмана Мазепи,76000,48.9185718,24.7032158
1,Калуське шосе,76008,48.9444914,24.6880578
57,вулиця Шевченка,76018,48.9146376,24.7010388
