House number,Street name,Postal code,Latitude,Longitude
1201,West 12th Street,85364,32.7052573,-114.6342400
2400,South Avenue A,85364,32.6826580,-114.6351026
2350,Avenue 7 1/2 E,85365,32.6856491,-114.5061207
7150,East 24th Street,85365,32.6857011,-114.5106917
2951,South Pacific Avenue,85365,32.6744187,-114.5983994
1,City Plaza,85364,32.7221529,-114.6203358
505,West Catalina Drive,85364,32.6712442,-114.6266163
2900,South 4th Avenue,85364,32.6745622,-114.6249292
276,West 32nd Street,85364,32.6703129,-114.6219740
2050,South 4th Avenue,85364,32.6907645,-114.6249180
1920,South 1st Avenue,85364,32.6925917,-114.6205653
1798,South 4th Avenue,85364,32.6952033,-114.6249167
1725,South 3rd Avenue,85364,32.6960137,-114.6219546
351,East 16th Street,85364,32.6980488,-114.6178340
41,East 16th Street,85364,32.6981355,-114.6198460
594,East 16th Street,85365,32.6999051,-114.6130229
1691,Riley Avenue,85365,32.6971604,-114.6134091
2491,West 24th Street,85364,32.6830823,-114.6496780
1900,South Avenue A,85364,32.6926595,-114.6336812
367,West 16th Street,85364,32.6970471,-114.6239130
1870,South 4th Avenue,85364,32.6933652,-114.6250809
1815,South 8th Avenue,85364,32.6936410,-114.6284920
310,North Madison Avenue,85364,32.7267268,-114.6190930
1780,South Sunridge Drive,85365,32.6954363,-114.6037850
3500,South 4th Avenue,85365,32.6635734,-114.6246932
101,West 16th Street,85364,32.6974980,-114.6212040
101,West 16th Street,85364,32.6975425,-114.6208090
2285,East Palo Verde Street,85365,32.6761716,-114.5955867
300,South 13th Avenue,85364,32.7212218,-114.6362870
3261,South Avenue 6 East,85365,32.6687825,-114.5272048
2291,East Palo Verde Street,85365,32.6764726,-114.5946687
1775,South 4th Avenue,85364,32.6952119,-114.6244157
2560,South 4th Avenue,85364-7221,32.6805360,-114.6251761
820,West 32nd Street,85364,32.6695881,-114.6291990
2398,South Avenue B,85364,32.6843195,-114.6508290
820,West 32nd Street,85364,32.6697958,-114.6291480
2398,South Avenue B,85364,32.6843060,-114.6510679
581,East 16th Street,85365,32.6980488,-114.6132993
351,East 16th Street,85364,32.6980556,-114.6174540
351,East 16th Street,85364,32.6979109,-114.6175920
2000,East 32nd Street,85365,32.6698783,-114.5998708
3160,South Pacific Avenue,85365,32.6703198,-114.5998686
3160,South Pacific Avenue,85365,32.6704552,-114.5993965
2356,O'Neill Street,85365,32.6600416,-114.5933480
3939,South Avenue 3 East,85365,32.6562084,-114.5800496
3939,South Avenue 3 East,85365,32.6558967,-114.5800388
3939,South Avenue 3 East,85365,32.6560514,-114.5800415
3939,South Avenue 3 East,85365,32.6565031,-114.5799879
565,South 4th Avenue,85364,32.7166654,-114.6242256
1107,South 5th Avenue,85364,32.7069785,-114.6255934
2445,South 4th Avenue,85364,32.6826376,-114.6241802
1200,South Castle Dome Avenue,85365,32.7056175,-114.6090173
9300,E 28th St,85365,32.6777834,-114.4729128
150,West 2nd Street,85364,32.7241533,-114.6213990
152,South 1st Avenue,85364,32.7241767,-114.6210320
2378,West 24th Street,85364,32.6849882,-114.6484023
781,S 2nd Ave,85364,32.7133166,-114.6217139
141,South 3rd Avenue,85364,32.7243389,-114.6228545
1525,South Yuma Palms Parkway,85365,32.6996783,-114.6010923
340,West 32nd Street,85364,32.6717204,-114.6226820
2120,West 24th Street,85364,32.6849229,-114.6452353
2211,East Palo Verde Street,85365,32.6758651,-114.5963560
2211,East Palo Verde Street,85365,32.6763930,-114.5963426
1150,West 8th Street,85364,32.7138458,-114.6340480
2149,West 24th Street,85364,32.6828258,-114.6452570
1460,South Yuma Palms Parkway,85365,32.7010874,-114.6049483
1364,South Yuma Palms Parkway,85365,32.7026696,-114.6064503
2830,South Pacific Avenue,85365,32.6756701,-114.5992208
2830,South Pacific Avenue,85365,32.6756915,-114.5991471
2900,South 4th Avenue,85364,32.6745621,-114.6250867
2381,South Avenue B,85364,32.6843009,-114.6499260
847,West 32nd Street,85365,32.6691264,-114.6303110
328,East 16th Street,85364,32.6991241,-114.6179286
4300,West 16th Street,85364,32.6989202,-114.6722867
4548,West 26th Place,85365,32.6798997,-114.6769098
2375,West 32nd Street,85364,32.6666000,-114.6486000
4524,West 15th Place,85364,32.7000007,-114.6765502
4260,West 11th Place,85364,32.7068423,-114.6711373
4258,West 11th Street,85364,32.7074843,-114.6711233
1630,South Pacific Avenue,85365,32.6981800,-114.5993752
1979,East 16th Street,85365,32.6979039,-114.6000715
252,West 32nd Street,85364,32.6712479,-114.6210165
1701,S Avenue,85364,32.6970587,-114.6500626
419,West 8th Street,85364,32.7128334,-114.6253878
1102,South 4th Avenue,85364,32.7074256,-114.6248681
202,South 1st Avenue,85364,32.7239836,-114.6210314
4420,West 20th Street,85364,32.6915720,-114.6745711
1328,S 4th Ave,85364,32.7027790,-114.6249655
2930,East Gila Ridge Road,85365,32.6880126,-114.5832144
2600,West 16th Street,85364,32.6998450,-114.6519351
1581,South 6th Avenue,85364,32.6987871,-114.6267232
1900,East 16th Street,85365,32.6990386,-114.6010458
1020,East 16th Street,85365,32.6991315,-114.6101666
1671,East 16th Street,85365,32.6980506,-114.6036360
1801,South Sunridge Drive,85365,32.6945782,-114.6025774
1825,East 18th Street,85365,32.6944685,-114.6016886
1726,South Sunridge Drive,85365,32.6963471,-114.6038525
1731,South Sunridge Drive,85365,32.6958258,-114.6026286
1940,East 16th Street,85365,32.6990506,-114.6005825
1521,South Yuma Palms Parkway,85365,32.6997959,-114.6017647
1350,South Castle Dome Avenue,85365,32.7038845,-114.6087528
1462,South Pacific Avenue,85365,32.7016676,-114.6000719
1450,South Yuma Palms Parkway,85365-1707,32.7051219,-114.6060857
1244,South Castle Dome Avenue,85365,32.7047441,-114.6078251
1600,East 16th Street,85365,32.6993679,-114.6047155
1430,Yuma Palms Parkway,85365,32.7015278,-114.6056638
1190,South Castle Dome Avenue,85365,32.7061672,-114.6093458
1450,South Castle Dome Avenue,85365-1732,32.7011998,-114.6077633
3150,South Fortuna Avenue,85365,32.6734992,-114.6116284
1640,South Arizona Avenue,85364,32.6973836,-114.6165053
1231,West 3rd Street,85364,32.7209488,-114.6348344
115,West 32nd Street,85364,32.6676898,-114.6211890
1245,West Desert Hills Drive,85365,32.6603801,-114.6372850
282,North 12th Avenue,85364,32.7305140,-114.6398349
400,South 6th Avenue,85364,32.7188207,-114.6291988
550,West 5th Street,85364,32.7184227,-114.6264325
450,West 6th Street,85364,32.7163438,-114.6253921
596,South 4th Avenue,85364,32.7163138,-114.6248993
106,East 1st Street,85364,32.7256063,-114.6177536
160,East 1st Street,85364,32.7257175,-114.6171813
113,South Gila Street,85364,32.7251701,-114.6161504
106,South Gila Street,85364,32.7251791,-114.6167298
179,East 1st Street,85364,32.7251250,-114.6170066
111,South Main Street,85364,32.7249508,-114.6176617
185,South Main Street,85364,32.7245273,-114.6176258
195,South Gila Street,85364,32.7243652,-114.6160652
207,South Gila Street,85364,32.7241743,-114.6160131
217,South Gila Street,85364,32.7240871,-114.6160575
221,South Gila Street,85364,32.7240300,-114.6160483
233,South Gila Street,85364,32.7239346,-114.6159499
281,South Gila Street,85364,32.7229793,-114.6155432
1301,West 32nd Street,85364,32.6675557,-114.6352528
2945,West 8th Street,85364,32.7109819,-114.6571445
3930,Narr Avenue,85364,32.6563540,-114.5897796
699,Hart Street,85364,32.6556941,-114.5896097
672,Narr Avenue,85364,32.6567431,-114.5887911
2711,Quilter Street,85364,32.6563008,-114.5860426
193,Sun Chaser Drive,85365-1213,32.6693766,-114.5359418
5707,Doing It Way Boulevard,85365,32.6669923,-114.5337209
1550,South 14th Avenue,85364,32.6993686,-114.6381202
1394,West 16th Street,85364,32.6987957,-114.6372325
1250,West 16th Street,85364,32.6990501,-114.6349497
1545,South 14th Avenue,85364,32.6994888,-114.6367104
2044,South Avenue 3 East,85365,32.6909868,-114.5864220
2000,South Avenue,85365,32.6911421,-114.5827051
310,North Madison Avenue,85364,32.7276440,-114.6202876
1415,East 16th Street,85364,32.6981882,-114.6059777
811,West 16th Street,85364,32.6976039,-114.6298057
2250,8th Avenue,85364,32.6866900,-114.6306378
700,West 18th Street,85364,32.6941736,-114.6275370
8151,East 32nd Street,85365,32.6680981,-114.4931055
3818,16th St,85364,32.6992813,-114.6652316
1590,South Avenue C,85364,32.6993902,-114.6691210
4100,West 20th Street,85364,32.6929696,-114.6699993
1195,East 16th Street,85364,32.6978675,-114.6092469
2600,South Araby Road,85365,32.6805200,-114.5223113
2600,South Araby Road,85365,32.6805654,-114.5219532
592,East 16th Street,85364,32.6990232,-114.6132873
4450,West 32nd Street,85364,32.6711695,-114.6748886
6440,East 32nd Street,85365,32.6706387,-114.5223920
6440,East 32nd Street,85364,32.6707029,-114.5227008
1674,South Avenue B,85364,32.6971113,-114.6515753
3553,West 16th St,85364,32.6978171,-114.6518828
2030,South Avenue A,85364,32.6908179,-114.6343912
2575,West 24th Street,85364,32.6829522,-114.6515588
2350,South Avenue B,85364,32.6853361,-114.6515481
2200,South Avenue B,85364,32.6870933,-114.6515586
1701,South Avenue B,85364,32.6973110,-114.6500711
2660,West 16th Street,85364,32.6994436,-114.6541804
2150,South Avenue A,85364,32.6880974,-114.6343887
1508,West 9th Place,85364,32.7105825,-114.6377581
1640,West 8th Street,85364,32.7140329,-114.6408682
630,South Magnolia Avenue,85364,32.7151108,-114.6422056
560,South Magnolia Avenue,85364,32.7165102,-114.6424907
466,South Magnolia Avenue,85364,32.7181058,-114.6424853
1803,West 1st Street,85364,32.7249028,-114.6420925
144,North Magnolia Avenue,85364,32.7259643,-114.6421743
243,North Magnolia Avenue,85364,32.7275872,-114.6412483
1890,West Colorado Street,85364,32.7276244,-114.6424781
1980,West Colorado Street,85364,32.7276952,-114.6437066
160,North 19th Avenue,85364,32.7261572,-114.6437287
1555,West Colorado Street,85364,32.7263980,-114.6387864
387,South 7th Avenue,85364,32.7200139,-114.6278830
144,North Magnolia Avenue,85364,32.7258733,-114.6423491
1210,West 3rd Street,85364,32.7219366,-114.6346154
1290,West 3rd Street,85364,32.7219354,-114.6355583
1340,West 3rd Street,85364,32.7227151,-114.6367162
269,South 15th Avenue,85364,32.7223687,-114.6377734
215,South 15th Avenue,85364,32.7233519,-114.6377926
143,South 14th Avenue,85364,32.7243353,-114.6365594
2020,West 3rd Street,85364,32.7224271,-114.6449779
2202,West 3rd Street,85364,32.7223706,-114.6467729
690,South 12th Avenue,85364,32.7146873,-114.6347869
2100,West 28th Street,85364,32.6767276,-114.6437639
1079,South Avenue B,85364,32.7089018,-114.6482483
1111,South Avenue B,85364,32.7079928,-114.6482510
1159,South Avenue B,85364,32.7074095,-114.6488713
650,South Avenue B,85364,32.7156073,-114.6520000
2700,West 8th Street,85364,32.7140674,-114.6525693
2779,West 8th St,85364,32.7111718,-114.6550589
5510,East 32nd Street,85365,32.6709587,-114.5392895
5707,East 32nd St,85365,32.6663299,-114.5344133
5590,East 32nd Street,85365,32.6709738,-114.5362723
5730,East 32nd Street,85365,32.6709407,-114.5338253
5990,East 32nd Street,85365,32.6709742,-114.5313457
6580,East 32nd Street,85365,32.6710713,-114.5196809
6649,East 32rd St,85365,32.6677770,-114.5182245
6825,East 32nd Street,85365,32.6691083,-114.5141868
7201,East 32nd Street,85365,32.6664787,-114.5105293
11448,South Avenue 9 East,85365,32.6640215,-114.4804271
9797,South Frontage Road,85365,32.6690230,-114.4621346
9797,East 32nd Stret,85365,32.6666929,-114.4631859
3400,South Avenue 7 East,85365,32.6656648,-114.5149375
1601,South 4th Avenue,85364,32.6975178,-114.6235235
355,West 18th Street,85364,32.6945765,-114.6235242
1860,South 3rd Avenue,85364,32.6937413,-114.6231038
1840,South 4th Avenue,85364,32.6939658,-114.6250189
1925,South 3rd Avenue,85364,32.6925803,-114.6221699
2402,West 16th Street,85364,32.6994897,-114.6473158
3777,West 16th Street,85364,32.6973555,-114.6646510
2281,West 24th Street,85364,32.6832729,-114.6472262
1743,West 24th Street,85364,32.6836444,-114.6400637
1763,West 24th Street,85364,32.6836297,-114.6404646
2270,Ridgeview Drive,85364,32.6861762,-114.6388915
1280,West 24th Street,85364,32.6844631,-114.6350410
1150,West 24th Street,85364,32.6843126,-114.6325473
2900,West 5th Street,85364,32.7199285,-114.6560849
3225,West 8th St,85364,32.7111917,-114.6595528
4451,West 28th Street,85364,32.6747049,-114.6749341
753,South 21st Avenue,85364,32.7138390,-114.6449225
1505,West 3rd Street,85364,32.7211795,-114.6386792
285,West 5th Street,85364,32.7177259,-114.6230930
2300,West Water Street,85364,32.7311307,-114.6489052
1075,South Magnolia Avenue,85364,32.7073922,-114.6415147
809,South Bell Avenue,85364,32.7114592,-114.6488815
661,East 32nd St,85365,32.6674309,-114.6152656
1960,East 32nd Street,85365,32.6713073,-114.6009133
3285,East 32nd St,85364,32.6686016,-114.5760222
4695,East 32nd St,85364,32.6688805,-114.5534951
3547,South Avenue 5 East,85365,32.6636623,-114.5448699
5710,East 32nd St,85365,32.6724028,-114.5332299
3900,South Avenue 8 1/2 E,85365,32.6576478,-114.4897546
9400,North Fontage Road,85365,32.6724653,-114.4716311
9351,East 28th St,85365,32.6757649,-114.4718664
201,North 4th Avenue,85364,32.7271656,-114.6233500
3162,West 24th Street,85364,32.6846140,-114.6582136
2045,South 14th Avenue,85364,32.6896637,-114.6365487
2155,South 14th Avenue,85364,32.6882801,-114.6364684
2201,South Avenue A,85364,32.6872792,-114.6327690
1280,Desert Sun Drive,85365,32.6637952,-114.6354448
1245,Desert Hills Drive,85365,32.6594800,-114.6339152
1280,Desert Sun Drive,85365,32.6629083,-114.6364459
1440,West Desert Hills Drive,85365,32.6617600,-114.6377685
2191,East 32nd Street,85365,32.6683508,-114.5991642
3351,South Avenue 4 E,85365,32.6661923,-114.5618991
289,West 40th Street,85365,32.6540332,-114.6222006
2501,South Avenue B,85364,32.6815520,-114.6472666
1950,East 32nd Street,85365,32.6697932,-114.6011728
3120,South Pacific Avenue,85365,32.6708983,-114.5993177
3040,South Pacific Avenue,85365,32.6720778,-114.5991686
3773,South Avenue 3 E,85365,32.6589525,-114.5807641
3951,South Avenue 3 East,85365,32.6559497,-114.5808667
3919,South Avenue 3 East,85365,32.6567401,-114.5806471
3939,South Avenue 3 E,85365,32.6560414,-114.5799949
1111,South Redondo Center Drive,85365,32.7074243,-114.6120087
276,East 16th Street,85364,32.6993446,-114.6184497
1088,Shaw Avenue,85364,32.6549253,-114.5846571
3000,East Palo Verde Lane,85365,32.6750751,-114.6077588
224,South Madison Avenue,85364,32.7237973,-114.6199804
150,West Catalina Drive,85364,32.6750229,-114.6219080
500,West 28th Street,85364,32.6775799,-114.6270205
711,East 32nd Street,85365,32.6683566,-114.6142827
3905,South 4th Avenue,85365,32.6566075,-114.6226701
3181,South 4th Avenue,85364,32.6700746,-114.6239173
610,West Catalina Drive,85364,32.6732996,-114.6267557
3115,South 4th Avenue,85364,32.6721594,-114.6238814
2790,South 4th Avenue,85364,32.6771725,-114.6255025
242,West 28th Street,85364,32.6769132,-114.6227224
2900,South Pacific Avenue,85365,32.6743417,-114.6016854
500,East 32nd Street,85365,32.6698622,-114.6160779
580,East 32nd Street,85365,32.6698078,-114.6149846
750,East 32nd Street,85365,32.6698592,-114.6128885
848,East 32nd Street,85365,32.6698239,-114.6107962
3093,South 32nd Avenue,85364,32.6715495,-114.6577231
3092,South 31st Drive,85364,32.6715545,-114.6572917
3079,South 32nd Avenue,85364,32.6717931,-114.6577268
800,East Country Club Drive,85365,32.6703718,-114.6112909
3500,South 4th Avenue,85365,32.6630469,-114.6255140
3400,South 4th Avenue,85365,32.6648796,-114.6255355
3435,South 4th Avenue,85365,32.6652516,-114.6237647
3391,South 4th Avenue,85365,32.6660916,-114.6232846
3380,South 4th Avenue,85365,32.6666858,-114.6266165
3300,South 8th Avenue,85365,32.6666854,-114.6298372
855,West 32nd Street,85365,32.6684498,-114.6305654
3601,South 4th Avenue,85365,32.6616816,-114.6222104
3649,South 4th Avenue,85365,32.6598998,-114.6222024
1950,East 24th Street,85365,32.6859038,-114.6011219
1210,South 5th Avenue,85364,32.7048786,-114.6263189
2341,South 4th Avenue,85364,32.6826292,-114.6231609
100,West 25th Street,85364,32.6826333,-114.6208491
2525,South Virginia Drive,85364,32.6816520,-114.6218226
185,West 25th Street,85364,32.6816572,-114.6208681
2550,South Virginia Drive,85364,32.6812264,-114.6229187
2550,South 4th Avenue,85364,32.6816469,-114.6256163
250,West 27th Street,85364,32.6789756,-114.6227981
1870,South Walnut Avenue,85364,32.6937073,-114.6173625
1871,South Walnut Avenue,85364,32.6937783,-114.6167791
2005,South Walnut Avenue,85364,32.6909775,-114.6167724
2837,West 1st St,85364,32.7241261,-114.6561945
2823,West 1st St,85364,32.7246239,-114.6555181
2855,South 4th Avenue,85364,32.6756940,-114.6233748
2755,South 4th Avenue,85364,32.6773694,-114.6234056
2641,East 24th Street,85365,32.6799166,-114.5868450
2475,South Avenue A,85364,32.6821936,-114.6326762
2463,South Avenue A,85364,32.6821973,-114.6317222
2451,South Avenue A,85364,32.6827419,-114.6321545
1025,West 24th Street,85364,32.6834398,-114.6316429
2680,Avenue B,85364,32.6789139,-114.6510504
2383,West 24th Street,85364,32.6832685,-114.6486946
2350,South 8th Avenue,85364,32.6846276,-114.6300690
1185,South 4th Avenue,85364,32.7060092,-114.6242468
1400-1452,South 4th Avenue,85364,32.7017271,-114.6250039
3780,South 4th Avenue,85365,32.6589713,-114.6254893
1661,Citrus Loop,85364,32.6886342,-114.6406240
1667,Citrus Loop,85364,32.6886400,-114.6409091
1673,Citrus Loop,85364,32.6886184,-114.6411565
1679,Citrus Loop,85364,32.6885884,-114.6414216
2112,South 17th Avenue,85364,32.6887277,-114.6416378
2109,Citrus Loop,85364,32.6890133,-114.6403890
2103,Citrus Loop,85364,32.6892376,-114.6404025
2055,Citrus Loop,85364,32.6894797,-114.6403916
2045,Citrus Loop,85364,32.6896972,-114.6404250
2106,South 17th Avenue,85364,32.6889361,-114.6416602
2107,South 17th Avenue,85364,32.6890114,-114.6411489
2108,Citrus Loop,85364,32.6890171,-114.6409004
2102,Citrus Loop,85364,32.6892408,-114.6408579
2054,Citrus Loop,85364,32.6895251,-114.6408669
2377,West 22nd Drive,85364,32.6844076,-114.6468928
2101,South 17th Avenue,85364,32.6892529,-114.6411928
2053,South 17th Avenue,85364,32.6895149,-114.6411904
1685,Citrus Loop,85364,32.6897291,-114.6412666
2048,Citrus Loop,85364,32.6897636,-114.6409795
2100,South 17th Avenue,85364,32.6892971,-114.6417089
2052,South 17th Avenue,85364,32.6895212,-114.6417055
2046,South 17th Avenue,85364,32.6897101,-114.6418129
2040,South 17th Avenue,85364,32.6898829,-114.6419001
1672,Citrus Loop,85364,32.6901141,-114.6414553
2029,South 17th Avenue,85364,32.6904072,-114.6414053
1671,West del Oro Lane,85364,32.6905952,-114.6413969
1663,West del Oro Lane,85364,32.6904522,-114.6410181
2034,South 17th Avenue,85364,32.6901254,-114.6418877
1668,Citrus Loop,85364,32.6901686,-114.6412248
1662,Citrus Loop,85364,32.6901759,-114.6409986
2028,South 17th Avenue,85364,32.6903703,-114.6419235
1664,West del Oro Lane,85364,32.6909848,-114.6411413
2022,South 17th Avenue,85364,32.6906003,-114.6419208
1725,West del Oro Lane,85364,32.6905870,-114.6422418
1610,South Avenue B,85364,32.6978175,-114.6508999
1600,West 16th Street,85364,32.6981788,-114.6507643
2545,West 16th Street,85364,32.6981788,-114.6513943
2549,West 16th Street,85364,32.6982358,-114.6518705
1859,South 4th Avenue,85364,32.6937720,-114.6243212
333,South Main Street,85364,32.7218911,-114.6173721
231,South Main Street,85364,32.7236286,-114.6176909
221,South Main Street,85364,32.7237870,-114.6175655
50,West 3rd Street,85364,32.7226329,-114.6189683
240,South Madison Avenue,85364,32.7234223,-114.6198465
298,South Main Street,85364,32.7226620,-114.6182005
284,South Main Street,85364,32.7227733,-114.6183757
127,South Madison Avenue,85364,32.7248685,-114.6193899
133,South Madison Avenue,85364,32.7247658,-114.6193795
141,South Madison Avenue,85364,32.7246629,-114.6193841
102,South Main Street,85364,32.7250885,-114.6185098
176,South Main Street,85364,32.7244816,-114.6184439
254,South Main Street,85364,32.7233669,-114.6184746
274,South Main Street,85364,32.7230242,-114.6184041
233,South 4th Avenue,85364,32.7227216,-114.6240284
233,South 4th Avenue,85364,32.7230868,-114.6242061
233,South 4th Avenue,85364,32.7223026,-114.6254454
233,South 4th Avenue,85364,32.7222441,-114.6241948
233,South 4th Avenue,85364,32.7218412,-114.6242104
233,South 4th Avenue,85364,32.7230086,-114.6249422
233,South 4th Avenue,85364,32.7227392,-114.6243253
233,South 4th Avenue,85364,32.7222619,-114.6249384
98,West 1st Street,85364,32.7258261,-114.6207276
74,West 2nd Street,85364,32.7242558,-114.6201274
78,West 2nd Street,85364,32.7242199,-114.6202493
77,West 2nd Street,85364,32.7239813,-114.6202697
228,South Madison Avenue,85364,32.7236271,-114.6198850
73,West 2nd Street,85364,32.7239896,-114.6200228
67,West 2nd Street,85364,32.7239999,-114.6198888
206,South Madison Avenue,85364,32.7239626,-114.6197845
280,South 4th Avenue,85364,32.7218186,-114.6249279
100,South 4th Avenue,85364,32.7246584,-114.6250464
100,South 4th Avenue,85364,32.7248923,-114.6249758
119,South 5th Avenue,85364,32.7245858,-114.6253893
140,South 4th Avenue,85364,32.7243281,-114.6248308
201,South 3rd Avenue,85364,32.7231559,-114.6230728
304,South Main Street,85364,32.7224043,-114.6181865
318,South Main Street,85364,32.7219310,-114.6181786
1207,West 8th Street,85364,32.7126935,-114.6346689
400,South Main Street,85364,32.7206243,-114.6179802
405,South Main Street,85364,32.7204455,-114.6171931
201,West 2nd Street,85364,32.7239165,-114.6218362
217,S 2nd Ave,85364,32.7235127,-114.6219107
213,S 2nd Ave,85364,32.7236151,-114.6219129
150,West 2nd Street,85364,32.7235395,-114.6215639
290,South 1st Avenue,85364,32.7217874,-114.6211864
1353,Yuma Palms Parkway,85365,32.7031046,-114.6070718
250,South Madison Avenue,85364,32.7231540,-114.6198734
250,South Madison Avenue,85364,32.7232409,-114.6198153
113,Harold C Giss Parkway,85364,32.7210911,-114.6211406
301,S 2nd Ave,85364,32.7212291,-114.6217515
200,West Court Street,85364,32.7246341,-114.6224104
420,South Madison Avenue,85364,32.7200931,-114.6202590
1525,South Yuma Palms Parkway,85365,32.6997748,-114.6010546
181,South Orange Avenue,85364,32.7192729,-114.6216995
389,West 4th Street,85364,32.7199598,-114.6215785
371,South 2nd Avenue,85364,32.7201685,-114.6218133
369,South 2nd Avenue,85364,32.7203051,-114.6218370
2451,West 16th Street,85364,32.6981469,-114.6500389
432,South Madison Avenue,85364,32.7198886,-114.6197606
428,South Main Street,85364,32.7201866,-114.6178490
441,South Main Street,85364,32.7194721,-114.6172184
447,South Main Street,85364,32.7192182,-114.6171825
488,South Maiden Lane,85364,32.7189566,-114.6167624
335,South 2nd Avenue,85364,32.7209503,-114.6218202
337,South 2nd Avenue,85364,32.7208350,-114.6218635
1995,South 4th Avenue,85364,32.6914904,-114.6242052
321,West 20th Street,85364,32.6909759,-114.6236988
2077,South 4th Avenue,85364-6434,32.6902754,-114.6242125
2098,South 3rd Avenue,85364,32.6901451,-114.6235559
2222,South 4th Avenue,85364,32.6870381,-114.6253626
500,West 24th Street,85364,32.6855813,-114.6260090
2330,South 4th Avenue,85364,32.6854409,-114.6253204
195,West 24th Street,85364,32.6836725,-114.6211315
260,West 23rd Street,85364,32.6860481,-114.6230902
2497,South 4th Avenue,85364,32.6823249,-114.6242029
2595,South 4th Avenue,85364,32.6806000,-114.6240236
689,South Cemetery Avenue,85364,32.7147170,-114.6181335
5,East 6th Street,85364,32.7158875,-114.6175906
624,South Main Street,85364,32.7154092,-114.6174467
654,South Main Street,85364,32.7149983,-114.6174451
664,South Main Street,85364,32.7148460,-114.6173778
680,South Main Street,85364,32.7147563,-114.6173592
686,South Main Street,85364,32.7145798,-114.6174221
694,South Main Street,85364,32.7144273,-114.6174151
601,South Cemetery Avenue,85364,32.7159626,-114.6181318
617,South Cemetery Avenue,85364,32.7157145,-114.6181609
617,South Cemetery Avenue,85364,32.7156798,-114.6180256
633,South Cemetery Avenue,85364,32.7155334,-114.6180942
641,South Cemetery Avenue,85364,32.7153773,-114.6181268
649,South Cemetery Avenue,85364,32.7152836,-114.6181377
657,South Cemetery Avenue,85364,32.7151140,-114.6181579
663,South Cemetery Avenue,85364,32.7149916,-114.6181121
677,South Cemetery Avenue,85364,32.7148587,-114.6180059
616,South 1st Avenue,85364,32.7156693,-114.6211650
660,South 1st Avenue,85364,32.7149820,-114.6211712
668,South 1st Avenue,85364,32.7148537,-114.6211890
835,South 2nd Avenue,85364,32.7127773,-114.6217525
1935,East 16th Street,85365,32.6979253,-114.6005524
1590,South 4th Avenue,85364,32.6989939,-114.6254672
1676,South 4th Avenue,85364,32.6972867,-114.6249519
75,East 5th Street,85364,32.7177357,-114.6201222
500,South Madison Avenue,85364,32.7177150,-114.6198817
516,South Madison Avenue,85364,32.7174898,-114.6199235
521,South 1st Avenue,85364,32.7174751,-114.6205732
526,South Madison Avenue,85364,32.7173616,-114.6200559
535,South 1st Avenue,85364,32.7172014,-114.6204785
568,South 1st Avenue,85364,32.7166652,-114.6211341
572,South 1st Avenue,85364,32.7165230,-114.6211608
565,South 1st Avenue,85364,32.7166762,-114.6205635
1501,S. Redondo Center Drive,85365,32.7013330,-114.6107141
501,South 4th Avenue,85364,32.7174829,-114.6241161
502,South Orange Avenue,85364,32.7177631,-114.6236462
909,West 16th Street,85364,32.6983091,-114.6307006
905,West 16th Street,85364,32.6982861,-114.6304984
700,West 16th Street,85364,32.6987466,-114.6285116
1575,South 7th Avenue,85364,32.6989176,-114.6279363
812,South Avenue A,85364,32.7125819,-114.6334925
1240,West 8th Street,85364,32.7139159,-114.6351940
1150,West 8th Street,85364,32.7139328,-114.6338207
1100,West 8th Street,85364,32.7133452,-114.6334496
2353,South Avenue,85364,32.6849944,-114.6498282
532,South Madison Avenue,85364,32.7172108,-114.6198787
540,South Madison Avenue,85364,32.7170709,-114.6198843
564,South Madison Avenue,85364,32.7166798,-114.6200073
580,South Madison Avenue,85364,32.7163860,-114.6198887
590,East 6th Street,85364,32.7162560,-114.6200957
573,South 1st Avenue,85364,32.7165457,-114.6205783
581,South 1st Avenue,85364,32.7164148,-114.6205969
1351,South Redondo Center Drive,85365,32.7031638,-114.6112419
590,East 16th Street,85365,32.6993627,-114.6140193
536,South 2nd Avenue,85364,32.7172175,-114.6224277
520,South 2nd Avenue,85364,32.7175066,-114.6223554
432,East 16th Street,85364,32.6990547,-114.6168709
138,East 16th Street,85364,32.6990302,-114.6198248
1688,South Riley Avenue,85365,32.6972648,-114.6143769
624,South 4th Avenue,85364,32.7155392,-114.6250703
731,South 4th Avenue,85364,32.7140671,-114.6241598
796,South 4th Avenue,85364,32.7134032,-114.6248623
796,South 4th Avenue,85364,32.7134070,-114.6250683
712,South 4th Avenue,85364,32.7140859,-114.6248567
2970,South 4th Avenue,85364,32.6738941,-114.6250088
388,West 32nd Street,85364,32.6714874,-114.6234392
1508,West 9th Place,85364,32.7105799,-114.6379501
2400,S Avenue A,85364,32.6826272,-114.6350557
155,North Madison Avenue,85364,32.7259074,-114.6191070
637,East 32nd Street,85365,32.6689397,-114.6155824
2325,West 32nd Street,85364,32.6689872,-114.6479096
2459,West 32nd Street,85364,32.6688235,-114.6492992
2459,West 32nd Street,85364,32.6690102,-114.6496045
2221,West 32nd Street,85364,32.6682303,-114.6468593
2381,South Avenue B,85364,32.6844876,-114.6496976
2020,South Avenue 8 East,85365,32.6885609,-114.4955075
2491,West 24th Street,85364,32.6831806,-114.6498062
170,West 16th Street,85364,32.6989193,-114.6220953
151,West 16th Street,85364,32.6982516,-114.6218541
1706,South 4th Avenue,85364,32.6964569,-114.6249650
1569,South 4th Avenue,85364,32.6990182,-114.6242553
1512,South 4th Avenue,85364,32.7001628,-114.6250576
1800,South 4th Avenue,85364,32.6944231,-114.6249843
1798,South 4th Avenue,85364,32.6952786,-114.6251868
1750,South 4th Avenue,85364,32.6957317,-114.6249576
575,East 16th Street,85364,32.6979363,-114.6144250
3900,West 22nd Lane,85364,32.6868064,-114.6661540
3751,West 24th Street,85364,32.6828692,-114.6645405
3151,South Pinto Way,85364,32.6700442,-114.6695653
2507,South Avenue B,85364,32.6812068,-114.6498591
2330,South Avenue A,85364,32.6853938,-114.6343903
2451,South Avenue B,85364,32.6825389,-114.6499273
2495,South Avenue B,85364,32.6819797,-114.6498713
1900,West 30th Street,85364,32.6740291,-114.6427240
2251,West 24th Street,85364,32.6834038,-114.6468053
4985,East 30th Place,85365,32.6722872,-114.5479597
1555,South Avenue B,85364,32.6997093,-114.6496515
1336,South Thomas Avenue,85364,32.7033208,-114.6663028
100,West 25th Street,85364,32.6825813,-114.6204893
1116,South Goodsell Avenue,85365,32.6525177,-114.5837977
11482,South Joshua Drive,85365,32.6633142,-114.4789492
1170,South Goodsell Ave,85365,32.6537999,-114.5837456
750,South 15th Avenue,85364,32.7140420,-114.6390708
1325,West Parkway Drive,85364,32.6906229,-114.6374015
1328,West Parkway Drive,85364,32.6910862,-114.6372902
1324,West Parkway Drive,85364,32.6910336,-114.6369711
1321,West Parkway Drive,85364,32.6906499,-114.6370965
1320,West Parkway Drive,85364,32.6909936,-114.6367015
1317,West Parkway Drive,85364,32.6905938,-114.6368049
1316,West Parkway Drive,85364,32.6909972,-114.6364246
1313,West Parkway Drive,85364,32.6905851,-114.6364924
1312,West Parkway Drive,85364,32.6910060,-114.6361273
1309,West Parkway Drive,85364,32.6905783,-114.6361960
1305,West Parkway Drive,85364,32.6906065,-114.6358734
1301,West Parkway Drive,85364,32.6906263,-114.6355691
1304,West Parkway Drive,85364,32.6910029,-114.6355703
1910,South 4th Avenue,85364,32.6926095,-114.6249556
3091,South 31st Drive,85364,32.6715345,-114.6568003
3077,South 31st Drive,85364,32.6717911,-114.6567906
3078,South 31st Drive,85364,32.6717924,-114.6573020
3054,South 31st Drive,85364,32.6720014,-114.6572876
3053,South 31st Drive,85364,32.6720300,-114.6568061
3030,South 31st Drive,85364,32.6722866,-114.6572934
3029,South 31st Drive,85364,32.6722966,-114.6568271
3001,South 31st Drive,85364,32.6725102,-114.6568138
3002,South 31st Drive,85364,32.6724790,-114.6573151
3003,South 32nd Avenue,85364,32.6724811,-114.6577382
3031,South 32nd Avenue,85364,32.6722849,-114.6577369
3055,South 32nd Avenue,85364,32.6719971,-114.6577266
3090,West 31st Street,85364,32.6715406,-114.6564134
3064,West 31st Street,85364,32.6715541,-114.6561478
3034,West 31st Street,85364,32.6715357,-114.6558878
3006,West 31st Street,85364,32.6715375,-114.6556449
2996,West 31st Street,85364,32.6715386,-114.6553719
551,East 32nd Street,85365,32.6690363,-114.6167285
2968,West 31st Street,85364,32.6715329,-114.6551464
2936,West 31st Street,85364,32.6715341,-114.6549066
2912,West 31st Street,85364,32.6715606,-114.6546833
2911,West 30th Place,85364,32.6718330,-114.6546905
2935,West 30th Place,85364,32.6718441,-114.6548963
2967,West 30th Place,85364,32.6718445,-114.6551709
2995,West 30th Place,85364,32.6718249,-114.6553757
3005,West 30th Place,85364,32.6718412,-114.6556348
3033,West 30th Place,85364,32.6718536,-114.6558753
2145,West 28th Street,85364,32.6763374,-114.6464548
2851,South Avenue B,85364,32.6762954,-114.6496779
3063,West 30th Place,85364,32.6717657,-114.6561651
3089,West 30th Place,85364,32.6717726,-114.6564077
3088,West 30th Place,85364,32.6722889,-114.6564141
3062,West 30th Place,85364,32.6722900,-114.6561752
3032,West 30th Place,85364,32.6722210,-114.6558816
2851,South Avenue B,85364,32.6760943,-114.6482446
2851,South Avenue B,85364,32.6764767,-114.6490303
2926,South 21st Drive,85364,32.6742699,-114.6470808
637,East 32nd Street,85365,32.6686677,-114.6154656
1501,South Avenue B,85364,32.7001889,-114.6499786
3142,South Arizona Avenue,85364,32.6703546,-114.6178633
2491,West 16th Street,85364,32.6981904,-114.6502422
2123,East 24th Place,85365,32.6831975,-114.5977127
6550,East 24th Street,85365,32.6858127,-114.5203383
4501,West 20th Street,85364,32.6893253,-114.6771548
2550,East Gila Ridge Road,85365,32.6882963,-114.5896356
220,North Prison Hill Road,85364,32.7268100,-114.6142041
2020,South Avenue 8E,85365,32.6882340,-114.4977349
360,South 1st Avenue,85364,32.7203249,-114.6211981
285,South 9th Avenue,85364,32.7219006,-114.6302777
1230,West 3rd Street,85364,32.7219298,-114.6350747
280,South 15th Avenue,85364,32.7220342,-114.6385363
410,South Magnolia Avenue,85364,32.7190662,-114.6423757
833,South Avenue A,85364,32.7116764,-114.6328989
655,South Avenue A,85364,32.7147409,-114.6327737
1350,West Colorado Street,85364,32.7275179,-114.6363085
1850,South Avenue B,85364,32.6940971,-114.6514919
1700,South Crowder Avenue,85364,32.6973095,-114.6494622
1161,South Avenue B,85364,32.7070486,-114.6492846
1230,West 24th Street,85364,32.6843110,-114.6342725
556,South Magnolia Avenue,85364,32.7167216,-114.6423799
404,South Magnolia Avenue,85364,32.7193752,-114.6423315
541,South Orange Avenue,85364,32.7170745,-114.6230097
625,South Orange Avenue,85364,32.7156679,-114.6229652
145,South Avenue B,85364,32.7243477,-114.6501339
530,South Magnolia Avenue,85364,32.7169882,-114.6423250
1334,South Avenue B,85364,32.7035248,-114.6525735
2650,West 3rd Street,85364,32.7212690,-114.6518997
1600,West 12th Street,85364,32.7072546,-114.6394270
1050,South 15th Drive,85364,32.7085920,-114.6383142
2490,West Yowell Court,85364,32.7222443,-114.6491382
650,West 2nd Street,85364,32.7238228,-114.6274996
1910,South Avenue A,85364,32.6917420,-114.6343911
2100,South Avenue A,85364,32.6890360,-114.6343028
2330,South Avenue A,85364,32.6853914,-114.6342779
2351,South 37th Avenue,85364,32.6850645,-114.6628503
2317,South 34th Drive,85364,32.6856565,-114.6600002
3751,West 24th Street,85364,32.6829830,-114.6644792
2901,South Palo Verde Lane,85365,32.6760624,-114.6081669
2950,South Mary Avenue,85365,32.6761016,-114.6070268
3151,South Fortuna Avenue,85365,32.6705804,-114.6065463
3140,South Winsor Avenue,85365,32.6711258,-114.6062029
125,South 10th Avenue,85364,32.7242636,-114.6313633
280,South Magnolia Avenue,85364,32.7219737,-114.6423793
220,South Magnolia Avenue,85364,32.7228847,-114.6423420
2503,South Avenue A,85364,32.6817981,-114.6325908
141,South 3rd Avenue,85364,32.7246341,-114.6224062
370,South Main Street,85364,32.7214693,-114.6181830
700,West 24th Street,85364,32.6844756,-114.6282559
1308,West Parkway Drive,85364,32.6910536,-114.6358460
