House number,Street name,Postal code,Latitude,Longitude
12,School Street,04530,43.9116664,-69.8166459
215,Water Street,04530,43.9131432,-69.8153459
193,Water Street,04530,43.9122472,-69.8152514
510,Washington Street,04530,43.9032602,-69.8162010
864,High Street,04530,43.9155259,-69.8195821
10,State Road,04530,43.9061025,-69.8309595
194,Front Street,04530,43.9152874,-69.8145283
178,Front Street,04530,43.9150311,-69.8144936
96,Front Street,04530,43.9133800,-69.8143466
92,Front Street,04530,43.9431059,-69.8183617
23,Elm Street,04530,43.9145393,-69.8149630
15,Commercial Street,04530,43.9114017,-69.8148891
9,Lambard Street,04530,43.9128379,-69.8133366
1326,Washington Street,04530,43.9304309,-69.8146104
1328,Washington Street,04530,43.9305433,-69.8146243
1356,Washington Street,04530,43.9307710,-69.8155307
11,Park Street,04530,43.9303850,-69.8159988
9,Park Street,04530,43.9303511,-69.8157056
7,Park Street,04530,43.9302057,-69.8152613
144,Bedford Street,04530,43.9166179,-69.8273443
41,Blackwater Cove Road,04530,43.9617998,-69.8479522
6,Bluff Road,04530,43.9093703,-69.8316464
9,Bluff Road,04530,43.9090154,-69.8315418
10,Bluff Road,04530,43.9093317,-69.8313781
11,Bluff Road,04530,43.9090041,-69.8312365
13,Bluff Road,04530,43.9090181,-69.8311682
19,Bluff Road,04530,43.9090509,-69.8310005
21,Bluff Road,04530,43.9090739,-69.8309324
33,Bluff Road,04530,43.9094205,-69.8303145
38,Bluff Road,04530,43.9097293,-69.8305679
40,Bluff Road,04530,43.9097836,-69.8305250
41,Bluff Road,04530,43.9096471,-69.8301122
43,Bluff Road,04530,43.9096833,-69.8300877
45,Bluff Road,04530,43.9097648,-69.8300142
47,Bluff Road,04530,43.9098373,-69.8299529
48,Bluff Road,04530,43.9100100,-69.8303476
51,Bluff Road,04530,43.9099367,-69.8298982
52,Bluff Road,04530,43.9101275,-69.8302870
58,Bluff Road,04530,43.9102542,-69.8301953
59,Bluff Road,04530,43.9101806,-69.8297895
61,Bluff Road,04530,43.9102350,-69.8297405
65,Bluff Road,04530,43.9103480,-69.8296798
70,Bluff Road,04530,43.9105206,-69.8300932
72,Bluff Road,04530,43.9105927,-69.8300817
74,Bluff Road,04530,43.9106377,-69.8300761
75,Bluff Road,04530,43.9106502,-69.8296030
76,Bluff Road,04530,43.9107098,-69.8300709
77,Bluff Road,04530,43.9106954,-69.8295725
79,Bluff Road,04530,43.9107540,-69.8295609
81,Bluff Road,04530,43.9107946,-69.8295490
83,Bluff Road,04530,43.9108710,-69.8295625
84,Bluff Road,04530,43.9109493,-69.8299497
85,Bluff Road,04530,43.9110152,-69.8295521
86,Bluff Road,04530,43.9111023,-69.8299518
87,Bluff Road,04530,43.9111503,-69.8295477
88,Bluff Road,04530,43.9112555,-69.8299352
91,Bluff Road,04530,43.9114295,-69.8295329
26,Bowery Street,04530,43.9245546,-69.8129232
60,Bowery Street,04530,43.9256459,-69.8120224
65,Bowery Street,04530,43.9254821,-69.8116403
101,Bowery Street,04530,43.9264502,-69.8116098
155,Butler Head Road,04530,43.9727630,-69.8495793
1,Carlton Bridge,04530,43.9115322,-69.8101928
4,Castine Avenue,04530,43.9042450,-69.8188669
13,Central Avenue,04530,43.9098457,-69.8312794
21,Central Avenue,04530,43.9101853,-69.8310039
22,Central Avenue,04530,43.9102943,-69.8314911
25,Central Avenue,04530,43.9103209,-69.8309310
56,Central Avenue,04530,43.9114000,-69.8311080
150,Centre Street,04530,43.9114726,-69.8191840
154,Centre Street,04530,43.9114310,-69.8193453
211,Centre Street,04530,43.9121807,-69.8221454
414,Centre Street,04530,43.9122866,-69.8311514
35,West Chops Point Road,04530,43.9730640,-69.8331643
36,West Chops Point Road,04530,43.9730856,-69.8351407
46,West Chops Point Road,04530,43.9767506,-69.8338331
3,Clifton Street,04530,43.9010660,-69.8189728
8,Clifton Street,04530,43.9008663,-69.8185653
11,Corliss Street,04530,43.9000858,-69.8169110
49,Corliss Street,04530,43.8999377,-69.8187394
51,Corliss Street,04530,43.8998906,-69.8190314
53,Corliss Street,04530,43.8998613,-69.8193423
36,Court Street,04530,43.9110138,-69.8216498
83,Court Street,04530,43.9108132,-69.8238639
13,Crawford Drive,04530,43.9242387,-69.8255876
47,Crescent Street,04530,43.9231227,-69.8186400
45,Crescent Street,04530,43.9229726,-69.8182269
25,Crescent Street Court,04530,43.9221765,-69.8168644
27,Crescent Street Court,04530,43.9224635,-69.8170303
15,Cummings Street,04530,43.9259119,-69.8126053
23,Cummings Street,04530,43.9258919,-69.8122438
14,Denny Road,04530,43.9283163,-69.8201003
89,Denny Road,04530,43.9256752,-69.8236579
91,Denny Road,04530,43.9255046,-69.8235933
4,Dike Road,04530,43.9134642,-69.8251896
11,Dike Road,04530,43.9141364,-69.8249996
5,Dikes Landing Road,04530,43.9275108,-69.8169188
3,Drayton Road,04530,43.9096900,-69.8322548
4,Drayton Road,04530,43.9095164,-69.8326073
6,Drayton Road,04530,43.9095702,-69.8326330
8,Drayton Road,04530,43.9097093,-69.8326972
13,Drayton Road,04530,43.9098742,-69.8323072
19,Drayton Road,04530,43.9100588,-69.8323036
21,Drayton Road,04530,43.9100951,-69.8322605
22,Drayton Road,04530,43.9102043,-69.8327166
1,Goose Cove Road,04530,43.9708823,-69.8317002
1,Juniper Street,04530,43.9289563,-69.8168513
1,Nichols Street,04530,43.9023377,-69.8211756
1,Wright Drive,04530,43.9223898,-69.8197697
2,Orchard Lane,04530,43.8854118,-69.8166482
2,Shaw Street,04530,43.9020563,-69.8164585
4,Bluff Road,04530,43.9093788,-69.8317212
4,Mitchell Road,04530,43.8943527,-69.8222549
4,Orchard Lane,04530,43.8853991,-69.8165360
1,Dikes Landing Road,04530,43.9280144,-69.8169942
1,Edward Street Court,04530,43.9243785,-69.8142599
1,Liberty Street,04530,43.9086748,-69.8201170
1,West Milan Street,04530,43.9276147,-69.8181286
1,Redlon Road,04530,43.9074863,-69.8263710
1,Shaw Street,04530,43.9023777,-69.8162139
2,Mitchell Road,04530,43.8947346,-69.8204735
2,Marshall Avenue,04530,43.8950408,-69.8192077
2,Nichols Street,04530,43.9022195,-69.8207070
2,Maxwell Street,04530,43.9035556,-69.8195797
2,Maxwell Street,04530,43.9032060,-69.8199921
2,Edward Street Court,04530,43.9245165,-69.8157380
2,Office Drive,04530,43.9256005,-69.8196394
2,Tarbox Street,04530,43.9010828,-69.8203925
3,Goose Cove Road,04530,43.9717961,-69.8310958
3,Wright Drive,04530,43.9221141,-69.8205445
3,Dummer Street,04530,43.9216928,-69.8158925
3,Goddard Street,04530,43.8943032,-69.8191104
3,West Milan Street,04530,43.9275502,-69.8183270
3,Mitchell Road,04530,43.8949305,-69.8214037
3,Weeks Street,04530,43.8992345,-69.8169741
4,Dikes Landing Road,04530,43.9276294,-69.8173315
4,Libby Court,04530,43.9023355,-69.8183364
4,Maxwell Street Court,04530,43.9036992,-69.8196440
4,West Milan Street,04530,43.9272570,-69.8184040
4,Tarbox Street,04530,43.9009265,-69.8202161
4,Winter Street Court,04530,43.9154075,-69.8166224
5,Mast Landing,04530,43.9384806,-69.8164397
5,Chandler Drive,04530,43.9087550,-69.8302118
5,Rose Street,04530,43.8976644,-69.8174631
5,Cummings Street,04530,43.9258599,-69.8129534
5,Gerald Street,04530,43.9188035,-69.8220560
5,Goddard Street,04530,43.8940060,-69.8191312
5,Tarbox Street,04530,43.9009209,-69.8210005
5,Winslow Court,04530,43.9114240,-69.8228200
6,Marshall Avenue,04530,43.8954647,-69.8191139
6,Crooker Street,04530,43.9052512,-69.8185507
6,Elsinore Avenue,04530,43.9086153,-69.8240080
6,Garden Street,04530,43.9171631,-69.8166464
6,Goddard Street,04530,43.8940044,-69.8187204
6,Oliver Street,04530,43.9266464,-69.8137676
6,Plant Street,04530,43.9135396,-69.8241008
6,Tarbox Street,04530,43.9005784,-69.8210456
6,Winslow Court,04530,43.9113578,-69.8232549
7,Mallard Road,04530,43.9700818,-69.8487308
6,Orchard Lane,04530,43.8853918,-69.8162931
6,Prospect Street,04530,43.9286414,-69.8168283
8,Prospect Street,04530,43.9287802,-69.8163008
8,Willow Street,04530,43.9191797,-69.8166677
10,Garden Street,04530,43.9173702,-69.8166368
10,Pine Street,04530,43.9014754,-69.8164879
12,Central Avenue,04530,43.9100045,-69.8317175
14,Pine Street,04530,43.9014471,-69.8166743
16,Garden Street,04530,43.9175370,-69.8166079
16,Spring Street,04530,43.9036444,-69.8166110
16,Winter Street,04530,43.9153009,-69.8170506
18,Meadow Way,04530,43.9259941,-69.8199999
20,Highland Street,04530,43.9006675,-69.8174108
22,Pine Street,04530,43.9013820,-69.8169536
24,Spring Street,04530,43.9035738,-69.8170396
24,Summer Street,04530,43.9152546,-69.8147084
26,Bluff Road,04530,43.9094526,-69.8308567
26,Pleasant Street,04530,43.9027349,-69.8172523
28,Valley Road,04530,43.9269575,-69.8181071
30,Highland Street,04530,43.9009597,-69.8174708
32,Oak Street,04530,43.9169847,-69.8151493
36,Bluff Road,04530,43.9096657,-69.8306479
42,Central Avenue,04530,43.9108950,-69.8312192
44,East Milan Street,04530,43.9279488,-69.8161025
48,York Street,04530,43.9213582,-69.8167287
56,High Street,04530,43.8793189,-69.8238095
60,Court Street,04530,43.9108485,-69.8227124
62,Central Avenue,04530,43.9115754,-69.8311415
64,Central Avenue,04530,43.9116520,-69.8311301
72,High Street,04530,43.8810599,-69.8252214
74,High Street,04530,43.8814865,-69.8228808
76,Pine Street,04530,43.9011478,-69.8194907
82,Pine Street,04530,43.9010596,-69.8198568
84,Russell Street,04530,43.9045084,-69.8197983
88,York Street,04530,43.9211528,-69.8183701
118,High Street,04530,43.8895491,-69.8216473
156,High Street,04530,43.8912245,-69.8215520
210,High Street,04530,43.8933033,-69.8210639
360,Washington Street,04530,43.8981775,-69.8168538
376,Front Street,04530,43.9212512,-69.8134263
502,High Street,04530,43.9030953,-69.8209930
518,Washington Street,04530,43.9035716,-69.8160932
530,Washington Street,04530,43.9041465,-69.8162754
574,Washington Street,04530,43.9058377,-69.8164791
616,High Street,04530,43.9069070,-69.8205473
766,High Street,04530,43.9120421,-69.8201259
1,North Street,04530,43.9191609,-69.8136345
1,Spruce Street,04530,43.9006387,-69.8207911
1,Washington Street,04530,43.8860260,-69.8163640
3,Orchard Lane,04530,43.8852261,-69.8168012
3,Spruce Street,04530,43.9004536,-69.8208758
5,Federal Street,04530,43.9016427,-69.8214089
5,Nichols Street,04530,43.9022478,-69.8224009
5,Page Street,04530,43.9135973,-69.8235972
7,Getchell Street,04530,43.8935865,-69.8186150
7,Grove Street,04530,43.9197859,-69.8137364
9,Redlon Road,04530,43.9055439,-69.8272843
11,Central Avenue,04530,43.9097911,-69.8313533
11,Pine Street,04530,43.9016858,-69.8166527
13,Charles Street,04530,43.9114419,-69.8259587
15,Central Avenue,04530,43.9098909,-69.8312551
15,North Street,04530,43.9190791,-69.8143745
17,Bluff Road,04530,43.9090325,-69.8310563
17,Central Avenue,04530,43.9100540,-69.8311017
17,North Street,04530,43.9191846,-69.8147309
19,Central Avenue,04530,43.9101129,-69.8310589
19,Clifton Street,04530,43.9004464,-69.8187401
19,North Street,04530,43.9190136,-69.8147161
19,Valley Road,04530,43.9266783,-69.8174991
21,Liberty Street,04530,43.9087763,-69.8191532
21,Pine Street,04530,43.9016245,-69.8170441
23,Oak Street,04530,43.9172154,-69.8149967
27,Meadow Way,04530,43.9265367,-69.8196710
31,Crescent Street,04530,43.9224819,-69.8175973
31,Union Street,04530,43.9097984,-69.8166142
33,Edward Street,04530,43.9243159,-69.8154612
33,Pleasant Street,04530,43.9028486,-69.8177208
33,Valley Road,04530,43.9276034,-69.8178170
35,Highland Street,04530,43.9013437,-69.8172769
35,Valley Road,04530,43.9279187,-69.8177839
39,Spring Street,04530,43.9038381,-69.8178464
41,Crescent Street,04530,43.9226956,-69.8179304
43,Central Avenue,04530,43.9107996,-69.8307260
49,Spring Street,04530,43.9036763,-69.8184482
53,Pine Street,04530,43.9014958,-69.8186674
65,High Street,04530,43.8797184,-69.8227258
71,High Street,04530,43.8804356,-69.8219016
73,High Street,04530,43.8808542,-69.8225360
75,Court Street,04530,43.9108782,-69.8235908
75,Pearl Street,04530,43.9210109,-69.8168111
115,High Street,04530,43.8873191,-69.8193695
145,High Street,04530,43.8896297,-69.8210881
161,High Street,04530,43.8906152,-69.8211328
181,Lincoln Street,04530,43.9169689,-69.8248830
201,High Street,04530,43.8928655,-69.8205972
463,High Street,04530,43.9019442,-69.8195452
627,Middle Street,04530,43.9071959,-69.8179236
731,Middle Street,04530,43.9107397,-69.8178102
773,High Street,04530,43.9121849,-69.8190505
789,Washington Street,04530,43.9127664,-69.8164306
795,Middle Street,04530,43.9126804,-69.8177496
1045,High Street,04530,43.9213851,-69.8186224
4,Office Drive,04530,43.9255686,-69.8196951
6,Office Drive,04530,43.9254321,-69.8199050
8,Office Drive,04530,43.9253956,-69.8199667
11,Office Drive,04530,43.9255830,-69.8201998
13,Office Drive,04530,43.9255633,-69.8204424
15,Office Drive,04530,43.9255897,-69.8205238
20,Office Drive,04530,43.9257529,-69.8209869
21,Office Drive,04530,43.9257913,-69.8206511
23,Office Drive,04530,43.9258588,-69.8206583
24,Office Drive,04530,43.9259330,-69.8209894
27,Office Drive,04530,43.9260614,-69.8206548
55,Office Drive,04530,43.9272912,-69.8211700
57,Office Drive,04530,43.9272316,-69.8213187
61,Office Drive,04530,43.9271886,-69.8216731
74,Office Drive,04530,43.9268557,-69.8222665
75,Office Drive,04530,43.9271020,-69.8224381
76,Office Drive,04530,43.9268370,-69.8223597
215,Old Brunswick Road,04530,43.9259417,-69.8438861
229,Old Brunswick Road,04530,43.9255921,-69.8449026
2,Old South Place,04530,43.9094290,-69.8197849
10,Old South Place,04530,43.9096945,-69.8198072
73,Oliver Street,04530,43.9260231,-69.8172036
12,Orchard Lane,04530,43.8853051,-69.8158251
14,Orchard Lane,04530,43.8851339,-69.8158414
5,Palmer Street,04530,43.9034011,-69.8204057
13,Pine Street,04530,43.9016396,-69.8168139
4,Plant Street,04530,43.9135037,-69.8240941
8,Plant Street,04530,43.9136475,-69.8241210
14,Puffin Lane,04530,43.9648803,-69.8550328
10,Quimby Street,04530,43.9089769,-69.8244301
8,Raymond Court,04530,43.9120874,-69.8188375
11,Raymond Court,04530,43.9122508,-69.8186404
14,Raymond Court,04530,43.9123751,-69.8188912
20,Raymond Court,04530,43.9125595,-69.8189124
21,Raymond Court,04530,43.9125394,-69.8185821
10,Redlon Road,04530,43.9053106,-69.8271815
28,Rose Street,04530,43.8973397,-69.8181746
3,Royal Lane,04530,43.9191307,-69.8140825
5,Royal Lane,04530,43.9192791,-69.8140970
35,Russell Street,04530,43.9049789,-69.8175943
69,Russell Street,04530,43.9049164,-69.8187827
77,Russell Street,04530,43.9047874,-69.8198208
86,Russell Street,04530,43.9044980,-69.8200036
2,Schooner Ridge Road,04530,43.8920424,-69.8192351
4,Schooner Ridge Road,04530,43.8926347,-69.8195109
11,Shaw Street,04530,43.9022664,-69.8166669
18,Shaw Street,04530,43.9020806,-69.8168511
24,Shaw Street,04530,43.9020515,-69.8171309
27,Shaw Street,04530,43.9022752,-69.8173270
29,Shaw Street,04530,43.9022167,-69.8173324
2,Sheridan Road,04530,43.9160650,-69.8253625
13,Sheridan Road,04530,43.9161983,-69.8274755
10,Somerset Place,04530,43.9255350,-69.8130611
14,Somerset Place,04530,43.9256001,-69.8127693
24,Somerset Place,04530,43.9253996,-69.8124676
52,South Street,04530,43.9074595,-69.8175785
50,Spring Street,04530,43.9034188,-69.8185754
14,State Road,04530,43.9055987,-69.8321356
160,Stevenson Way,04530,43.9643278,-69.8500450
1,Tarbox Street,04530,43.9012601,-69.8207810
3,Tarbox Street,04530,43.9010851,-69.8206977
16,Tarbox Street,04530,43.9004249,-69.8217346
20,Tarbox Street,04530,43.9004048,-69.8220207
25,Tarbox Street,04530,43.9006000,-69.8224218
28,Tower Circle,04530,43.9291178,-69.8207093
29,Tower Circle,04530,43.9290746,-69.8210762
3,Trufant Street,04530,43.9280553,-69.8131640
20,Trufant Street,04530,43.9286939,-69.8132536
35,Trufant Street,04530,43.9291073,-69.8127236
38,Trufant Street,04530,43.9292667,-69.8131057
41,Trufant Street,04530,43.9292880,-69.8126388
8,Turner Court,04530,43.9219896,-69.8152986
9,Turner Court,04530,43.9219565,-69.8148871
10,Turner Court,04530,43.9220310,-69.8151746
94,Union Street,04530,43.9092142,-69.8196076
96,Union Street,04530,43.9092041,-69.8197631
98,Union Street,04530,43.9091856,-69.8198313
104,Union Street,04530,43.9091711,-69.8199619
23,Valley Road,04530,43.9268755,-69.8176139
29,Valley Road,04530,43.9273075,-69.8176447
62,Varney Mill Road,04530,43.9608169,-69.8451212
63,Varney Mill Road,04530,43.9608503,-69.8442616
76,Varney Mill Road,04530,43.9619153,-69.8445136
77,Varney Mill Road,04530,43.9616740,-69.8436688
88,Varney Mill Road,04530,43.9624903,-69.8440730
100,Varney Mill Road,04530,43.9632446,-69.8437409
204,Washington Street,04530,43.8926398,-69.8175375
210,Washington Street,04530,43.8929058,-69.8174914
226,Washington Street,04530,43.8933794,-69.8173609
233,Washington Street,04530,43.8934605,-69.8167270
259,Washington Street,04530,43.8952836,-69.8167395
268,Washington Street,04530,43.8947926,-69.8174114
348,Washington Street,04530,43.8978341,-69.8170296
362,Washington Street,04530,43.8983211,-69.8169055
372,Washington Street,04530,43.8986462,-69.8167792
398,Washington Street,04530,43.8996335,-69.8165811
404,Washington Street,04530,43.8998003,-69.8165522
418,Washington Street,04530,43.9000976,-69.8165251
430,Washington Street,04530,43.9004929,-69.8166364
438,Washington Street,04530,43.9007551,-69.8164905
444,Washington Street,04530,43.9010745,-69.8165260
470,Washington Street,04530,43.9019948,-69.8162460
488,Washington Street,04530,43.9025283,-69.8165646
520,Washington Street,04530,43.9036527,-69.8160756
554,Washington Street,04530,43.9047563,-69.8159911
770,Washington Street,04530,43.9120403,-69.8166075
832,Washington Street,04530,43.9139570,-69.8167582
850,Washington Street,04530,43.9145782,-69.8167605
872,Washington Street,04530,43.9153725,-69.8164849
910,Washington Street,04530,43.9166626,-69.8161289
912,Washington Street,04530,43.9167258,-69.8161048
926,Washington Street,04530,43.9171634,-69.8159738
955,Washington Street,04530,43.9180422,-69.8152073
993,Washington Street,04530,43.9190252,-69.8149841
994,Washington Street,04530,43.9194193,-69.8152760
1002,Washington Street,04530,43.9196983,-69.8152798
1016,Washington Street,04530,43.9201588,-69.8151054
1023,Washington Street,04530,43.9204462,-69.8145675
1027,Washington Street,04530,43.9206044,-69.8144763
1043,Washington Street,04530,43.9211327,-69.8142592
1077,Washington Street,04530,43.9220973,-69.8140856
1083,Washington Street,04530,43.9224276,-69.8138534
1091,Washington Street,04530,43.9226704,-69.8139003
1093,Washington Street,04530,43.9227065,-69.8138821
1097,Washington Street,04530,43.9228509,-69.8138405
1099,Washington Street,04530,43.9229051,-69.8138101
1115,Washington Street,04530,43.9235049,-69.8136625
1141,Washington Street,04530,43.9245838,-69.8132475
1149,Washington Street,04530,43.9247172,-69.8134735
1161,Washington Street,04530,43.9250953,-69.8134849
1169,Washington Street,04530,43.9252941,-69.8133880
1181,Washington Street,04530,43.9256145,-69.8132802
1201,Washington Street,04530,43.9263155,-69.8128226
1217,Washington Street,04530,43.9268739,-69.8127928
1229,Washington Street,04530,43.9272972,-69.8127799
1237,Washington Street,04530,43.9277472,-69.8128047
1238,Washington Street,04530,43.9275775,-69.8132384
1264,Washington Street,04530,43.9281807,-69.8138758
1278,Washington Street,04530,43.9285962,-69.8143299
1281,Washington Street,04530,43.9288465,-69.8139471
1284,Washington Street,04530,43.9290095,-69.8144539
1291,Washington Street,04530,43.9291883,-69.8139954
1299,Washington Street,04530,43.9293997,-69.8140232
1300,Washington Street,04530,43.9294374,-69.8144161
1306,Washington Street,04530,43.9296038,-69.8144371
1313,Washington Street,04530,43.9299171,-69.8140614
1317,Washington Street,04530,43.9300112,-69.8141250
1369,Washington Street,04530,43.9318561,-69.8142436
1373,Washington Street,04530,43.9320090,-69.8142581
1411,Washington Street,04530,43.9333514,-69.8141394
1491,Washington Street,04530,43.9375148,-69.8142523
1500,Washington Street,04530,43.9382578,-69.8148543
1518,Washington Street,04530,43.9400631,-69.8148415
1565,Washington Street,04530,43.9475026,-69.8151052
241,Water Street,04530,43.9140157,-69.8148472
245,Water Street,04530,43.9142234,-69.8147566
2,Weeks Street,04530,43.8990070,-69.8166846
12,Weeks Street,04530,43.8988249,-69.8169747
14,Weeks Street,04530,43.8988945,-69.8173056
40,Weeks Street,04530,43.8987551,-69.8185489
50,Weeks Street,04530,43.8987479,-69.8189223
54,Weeks Street,04530,43.8987194,-69.8191336
58,Weeks Street,04530,43.8985654,-69.8192622
64,Weeks Street,04530,43.8986985,-69.8195380
38,Whiskeag Road,04530,43.9327451,-69.8227401
66,Whiskeag Road,04530,43.9330434,-69.8256970
21,Willow Street,04530,43.9195782,-69.8163431
37,Willow Street,04530,43.9201366,-69.8163134
39,Willow Street,04530,43.9202903,-69.8162283
41,Willow Street,04530,43.9203669,-69.8162231
1,Windjammer Way,04530,43.9218370,-69.8265198
5,Windjammer Way,04530,43.9218962,-69.8257981
12,Windjammer Way,04530,43.9226897,-69.8256347
42,Windjammer Way,04530,43.9192644,-69.8236816
80,Winship Street,04530,43.9306747,-69.8182951
4,Winslow Court,04530,43.9112684,-69.8231790
9,Winslow Court,04530,43.9115099,-69.8233878
13,Winslow Court,04530,43.9114552,-69.8241094
14,Winslow Court,04530,43.9109944,-69.8237107
17,Winslow Court,04530,43.9111541,-69.8246595
19,Winslow Court,04530,43.9108071,-69.8240942
19,Winslow Court,04530,43.9108939,-69.8239086
22,Winter Street,04530,43.9152202,-69.8176411
2,Winter Street Court,04530,43.9151141,-69.8186236
6,Winter Street Court,04530,43.9148907,-69.8183901
12,Winter Street Court,04530,43.9147536,-69.8186685
16,Winter Street Court,04530,43.9145479,-69.8184851
7,Windjammer Way,04530,43.9217273,-69.8254968
7,Bluff Road,04530,43.9090416,-69.8316542
7,Dummer Street Court,04530,43.9228375,-69.8169731
7,Gerald Street,04530,43.9188438,-69.8220752
7,Clifton Street,04530,43.9009893,-69.8189842
7,Liberty Street,04530,43.9087511,-69.8195203
7,Winslow Court,04530,43.9115661,-69.8230959
8,Libby Court,04530,43.9022885,-69.8186222
8,Wren Lane,04530,43.9642869,-69.8555167
8,Oliver Street,04530,43.9266979,-69.8141172
8,Williams Court,04530,43.8782671,-69.8235834
9,Trufant Street,04530,43.9283213,-69.8130991
9,Hounds Way,04530,43.9631093,-69.8455900
9,Tarbox Street,04530,43.9007650,-69.8213843
9,Gerald Street,04530,43.9191095,-69.8220726
9,Linden Street,04530,43.9166932,-69.8149958
9,Marshall Avenue,04530,43.8955758,-69.8186859
9,Maxwell Street,04530,43.9037380,-69.8198811
9,Office Drive,04530,43.9256330,-69.8201382
10,Marshall Street,04530,43.8947711,-69.8179029
10,Puffin Lane,04530,43.9645061,-69.8551084
10,Highland Street,04530,43.9003170,-69.8173126
10,Orchard Lane,04530,43.8853900,-69.8159196
10,Plant Street,04530,43.9136835,-69.8241215
10,Windlass Court,04530,43.9041814,-69.8214625
11,Detritus Drive,04530,43.9400628,-69.8217944
11,Linden Street,04530,43.9166833,-69.8151203
11,Crescent Street,04530,43.9219231,-69.8170541
11,Drayton Road,04530,43.9098201,-69.8323127
11,Dummer Street Court,04530,43.9230261,-69.8170442
11,Gerald Street,04530,43.9193478,-69.8221071
11,Marshall Avenue,04530,43.8957288,-69.8187004
11,Oliver Street,04530,43.9269443,-69.8142887
11,Windjammer Way,04530,43.9212992,-69.8249366
12,State Road,04530,43.9059137,-69.8315422
12,Bluff Road,04530,43.9093412,-69.8313097
12,Dummer Street,04530,43.9219285,-69.8162881
12,Court Street,04530,43.9112287,-69.8205506
12,Gerald Street,04530,43.9195470,-69.8225831
12,Russell Street,04530,43.9049147,-69.8164976
12,Somerset Place,04530,43.9255447,-69.8129616
12,Tarbox Street,04530,43.9004048,-69.8213918
12,Winslow Court,04530,43.9112333,-69.8236704
13,Marshall Avenue,04530,43.8958773,-69.8187024
13,Windjammer Way,04530,43.9209228,-69.8246947
13,Somerset Place,04530,43.9253378,-69.8129339
14,Maxwell Street,04530,43.9038969,-69.8203253
14,Noble Avenue,04530,43.9279302,-69.8224620
14,Drayton Road,04530,43.9099251,-69.8327376
14,Trufant Street,04530,43.9285176,-69.8133509
14,Eagle Point Road,04530,43.9719651,-69.8387716
14,Hinckley Street,04530,43.9032530,-69.8165745
14,East Milan Street,04530,43.9280948,-69.8145660
14,Old South Place,04530,43.9100584,-69.8199118
14,Spruce Street,04530,43.8999633,-69.8214480
14,Winter Street Court,04530,43.9145474,-69.8185536
15,Congress Avenue,04530,43.9088676,-69.8339122
15,Drayton Road,04530,43.9099417,-69.8323144
15,Tarbox Street,04530,43.9006853,-69.8218253
15,Cherry Street,04530,43.8977381,-69.8184914
15,Dummer Street Court,04530,43.9231562,-69.8171021
15,Noble Avenue,04530,43.9281035,-69.8221529
15,Winslow Court,04530,43.9112120,-69.8241247
15,Creekside Lane,04530,43.9260574,-69.8416267
15,Dummer Street,04530,43.9221388,-69.8158487
15,Lambard Street,04530,43.9125193,-69.8138242
15,Somerset Place,04530,43.9251266,-69.8128874
15,Spring Street,04530,43.9039548,-69.8166401
15,Weeks Street,04530,43.8991736,-69.8173032
16,Court Street,04530,43.9111593,-69.8208112
16,Central Avenue,04530,43.9100545,-69.8316559
16,Cherry Street,04530,43.8977269,-69.8187963
16,Clifton Street,04530,43.9007012,-69.8183638
16,Corliss Street,04530,43.8998424,-69.8169575
16,Drayton Road,04530,43.9099926,-69.8327447
16,Dummer Street,04530,43.9220765,-69.8163773
16,Noble Avenue,04530,43.9281407,-69.8226081
16,Orchard Lane,04530,43.8850529,-69.8158403
17,York Street,04530,43.9217871,-69.8152896
17,Windjammer Way,04530,43.9207917,-69.8241449
17,Clifton Street,04530,43.9003861,-69.8189884
17,Drayton Road,04530,43.9099912,-69.8323151
17,Highland Street,04530,43.9006560,-69.8171305
17,Noble Avenue,04530,43.9282108,-69.8222478
18,Bluff Road,04530,43.9093511,-69.8311978
18,Eagle Point Road,04530,43.9736093,-69.8380030
18,Dummer Street Court,04530,43.9232621,-69.8167796
18,Huse Street,04530,43.9120214,-69.8279905
18,Russell Street,04530,43.9048861,-69.8167276
18,Windlass Court,04530,43.9041713,-69.8216117
19,Shaw Street,04530,43.9023853,-69.8170483
19,Maxwell Street,04530,43.9041868,-69.8200803
19,Noble Avenue,04530,43.9282601,-69.8222796
19,Windjammer Way,04530,43.9204828,-69.8239039
19,Corliss Street,04530,43.9000291,-69.8172838
19,Dummer Street,04530,43.9223054,-69.8158448
19,Dummer Street Court,04530,43.9235790,-69.8170022
19,Hinckley Street,04530,43.9033898,-69.8169562
19,Marshall Street,04530,43.8950448,-69.8186599
20,Windlass Court,04530,43.9041700,-69.8217923
20,Dikes Landing Road,04530,43.9268615,-69.8170594
20,Windjammer Way,04530,43.9220097,-69.8244170
20,Redlon Road,04530,43.9047894,-69.8295278
20,Bluff Road,04530,43.9093698,-69.8310984
20,Corliss Street,04530,43.8998138,-69.8171750
20,Eagle Point Road,04530,43.9741930,-69.8375998
20,Garden Street,04530,43.9177306,-69.8166106
20,Varney Mill Road,04530,43.9578111,-69.8449353
21,Windjammer Way,04530,43.9201302,-69.8241046
21,Clifton Street,04530,43.9004522,-69.8185534
21,Corliss Street,04530,43.9000327,-69.8174083
21,Shaw Street,04530,43.9023712,-69.8171290
21,Bowery Street,04530,43.9242868,-69.8125894
21,Marshall Avenue,04530,43.8965602,-69.8188923
22,Walker Street,04530,43.9130409,-69.8189626
22,Office Drive,04530,43.9258070,-69.8209814
22,Russell Street,04530,43.9048892,-69.8169144
22,Willow Street,04530,43.9195756,-69.8167105
22,Cherry Street,04530,43.8979289,-69.8188800
22,Eagle Point Road,04530,43.9750028,-69.8370564
22,Fitts Street,04530,43.9192977,-69.8209355
22,Getchell Street,04530,43.8934515,-69.8192419
22,Liberty Street,04530,43.9089923,-69.8191686
22,Marshall Avenue,04530,43.8968347,-69.8195373
22,Somerset Place,04530,43.9255617,-69.8124760
22,Turner Court,04530,43.9224041,-69.8152544
23,Central Avenue,04530,43.9102485,-69.8309798
23,Shaw Street,04530,43.9023393,-69.8171784
23,Dummer Street,04530,43.9224541,-69.8158157
23,Bluff Road,04530,43.9091381,-69.8307714
23,Cherry Street,04530,43.8979227,-69.8184814
23,Corliss Street,04530,43.9000141,-69.8174953
23,Crescent Street,04530,43.9223674,-69.8172470
23,Marshall Avenue,04530,43.8968164,-69.8189581
23,Varney Mill Road,04530,43.9584656,-69.8440845
23,York Street,04530,43.9217262,-69.8156189
24,Marshall Street,04530,43.8947486,-69.8191539
24,Tarbox Street,04530,43.9003124,-69.8223494
24,Court Street,04530,43.9111445,-69.8209978
24,Hinckley Street,04530,43.9031904,-69.8171402
25,Windjammer Way,04530,43.9203857,-69.8248929
25,Congress Avenue,04530,43.9096742,-69.8337989
25,Getchell Street,04530,43.8937440,-69.8192584
25,Hinckley Street,04530,43.9033734,-69.8173607
25,Meadow Way,04530,43.9264420,-69.8196946
25,Office Drive,04530,43.9259894,-69.8206538
25,Shaw Street,04530,43.9023388,-69.8172531
26,Corliss Street,04530,43.8997671,-69.8174172
26,Garden Street,04530,43.9179109,-69.8165757
26,Office Drive,04530,43.9260051,-69.8209779
26,Court Street,04530,43.9111206,-69.8211843
26,Rocky Reach Road,04530,43.9546248,-69.8387021
26,Seafarer Lane,04530,43.9215099,-69.8238122
26,Turner Court,04530,43.9225362,-69.8150320
26,Weeks Street,04530,43.8988690,-69.8177286
26,York Street,04530,43.9215011,-69.8156282
27,Varney Mill Road,04530,43.9589065,-69.8441219
27,Windjammer Way,04530,43.9200295,-69.8249627
27,Dummer Street,04530,43.9226371,-69.8160362
28,Seafarer Lane,04530,43.9219418,-69.8238556
28,York Street,04530,43.9214909,-69.8157900
28,Drayton Road,04530,43.9104393,-69.8325953
28,Bluff Road,04530,43.9094938,-69.8307639
28,Central Avenue,04530,43.9104619,-69.8313564
28,Court Street,04530,43.9108775,-69.8211872
28,Dummer Street,04530,43.9225488,-69.8164336
28,Russell Street,04530,43.9048284,-69.8172311
29,Highland Street,04530,43.9009660,-69.8172157
29,Blackwater Cove Road,04530,43.9613761,-69.8468181
29,Bluff Road,04530,43.9092528,-69.8304678
29,Corliss Street,04530,43.8999943,-69.8177440
29,Marshall Avenue,04530,43.8972339,-69.8191195
29,Cherry Street,04530,43.8981745,-69.8185285
29,Drayton Road,04530,43.9103297,-69.8321890
29,Harward Street,04530,43.9349356,-69.8179798
29,East Milan Street,04530,43.9283825,-69.8152551
29,Pine Street,04530,43.9015633,-69.8174106
29,Spring Street,04530,43.9038232,-69.8174166
29,Windjammer Way,04530,43.9196653,-69.8249016
30,West Chops Point Road,04530,43.9718392,-69.8362889
30,Tower Circle,04530,43.9290321,-69.8207268
30,Garden Street,04530,43.9180637,-69.8166151
30,Seafarer Lane,04530,43.9222792,-69.8238789
31,Willow Street,04530,43.9198757,-69.8162974
31,Bluff Road,04530,43.9093119,-69.8303877
31,Floral Street,04530,43.9116672,-69.8265534
31,Highland Street,04530,43.9011011,-69.8172050
31,Trufant Street,04530,43.9289634,-69.8126967
32,Seafarer Lane,04530,43.9225716,-69.8245369
32,Corliss Street,04530,43.8997466,-69.8177655
32,Cherry Street,04530,43.8981855,-69.8188773
32,West Chops Point Road,04530,43.9719314,-69.8353739
32,Getchell Street,04530,43.8935384,-69.8196664
32,Highland Street,04530,43.9011032,-69.8175413
32,Rose Street,04530,43.8973009,-69.8185538
32,Weeks Street,04530,43.8988213,-69.8181077
33,Hinckley Street,04530,43.9033724,-69.8175039
33,Lincoln Street,04530,43.9128255,-69.8207469
33,Meadow Way,04530,43.9267847,-69.8196183
33,Willow Street,04530,43.9200061,-69.8163054
34,Dummer Street,04530,43.9227406,-69.8166791
34,Drayton Road,04530,43.9106428,-69.8324674
34,Varney Mill Road,04530,43.9588702,-69.8447758
34,Weeks Street,04530,43.8987880,-69.8183439
35,Cherry Street,04530,43.8983769,-69.8185499
35,Bluff Road,04530,43.9094888,-69.8302158
35,Drayton Road,04530,43.9104791,-69.8320852
35,Rocky Reach Road,04530,43.9554174,-69.8374295
36,Dummer Street,04530,43.9227697,-69.8163868
36,Lincoln Street,04530,43.9129075,-69.8212338
36,Hinckley Street,04530,43.9031102,-69.8176621
36,East Milan Street,04530,43.9280344,-69.8154621
36,Pine Street,04530,43.9012866,-69.8177057
36,Rose Street,04530,43.8973038,-69.8187842
36,Willow Street,04530,43.9198954,-69.8166838
37,Bluff Road,04530,43.9095566,-69.8301732
37,Meadow Way,04530,43.9269783,-69.8196148
37,Crescent Street,04530,43.9225933,-69.8177608
37,West Chops Point Road,04530,43.9744363,-69.8332646
38,Court Street,04530,43.9109492,-69.8218607
38,Valley Road,04530,43.9280735,-69.8181722
38,Central Avenue,04530,43.9107870,-69.8312177
38,Cherry Street,04530,43.8984238,-69.8189117
38,Willow Street,04530,43.9201971,-69.8166692
39,Bluff Road,04530,43.9095883,-69.8301425
39,Central Avenue,04530,43.9106956,-69.8307806
39,Cherry Street,04530,43.8985702,-69.8185837
39,Dummer Street,04530,43.9229657,-69.8160469
39,Weeks Street,04530,43.8991696,-69.8184985
40,East Milan Street,04530,43.9279876,-69.8157107
40,Windjammer Way,04530,43.9195099,-69.8233549
40,West Chops Point Road,04530,43.9741890,-69.8350689
40,York Street,04530,43.9214153,-69.8162935
41,West Chops Point Road,04530,43.9757047,-69.8328023
41,Bayshore Road,04530,43.9588643,-69.8504282
41,East Milan Street,04530,43.9282935,-69.8157398
41,Russell Street,04530,43.9049585,-69.8179241
42,Bluff Road,04530,43.9098245,-69.8304758
43,Crescent Street,04530,43.9228795,-69.8180325
43,Edward Street,04530,43.9242895,-69.8160027
43,Spring Street,04530,43.9037047,-69.8182556
43,York Street,04530,43.9216429,-69.8165706
44,Creekside Lane,04530,43.9275121,-69.8403205
44,Bluff Road,04530,43.9098651,-69.8304577
44,Windjammer Way,04530,43.9190803,-69.8236168
45,Central Avenue,04530,43.9108854,-69.8306836
45,West Chops Point Road,04530,43.9769661,-69.8314422
45,Rose Street,04530,43.8974699,-69.8194776
45,Trufant Street,04530,43.9295130,-69.8126544
45,Weeks Street,04530,43.8990643,-69.8187461
46,Edward Street,04530,43.9240232,-69.8160987
46,Central Avenue,04530,43.9110079,-69.8311710
46,Mechanic Street,04530,43.9273291,-69.8152470
46,Varney Mill Road,04530,43.9596456,-69.8452355
46,York Street,04530,43.9213825,-69.8164799
47,Commercial Street,04530,43.9133313,-69.8129634
47,West Chops Point Road,04530,43.9777831,-69.8311295
47,Corliss Street,04530,43.8999437,-69.8185278
47,Edward Street,04530,43.9242838,-69.8161708
48,West Chops Point Road,04530,43.9776550,-69.8332722
48,Dummer Street,04530,43.9233138,-69.8164689
48,Russell Street,04530,43.9045052,-69.8183661
49,Bluff Road,04530,43.9098916,-69.8299163
49,West Chops Point Road,04530,43.9783729,-69.8311314
49,Dummer Street,04530,43.9233124,-69.8160329
49,Pine Street,04530,43.9014619,-69.8183805
50,Middle Street,04530,43.8866344,-69.8187999
50,Bluff Road,04530,43.9100552,-69.8303295
50,Corliss Street,04530,43.8996212,-69.8189343
50,Mechanic Street,04530,43.9273276,-69.8154649
50,Oliver Street,04530,43.9259301,-69.8157386
51,West Chops Point Road,04530,43.9788630,-69.8318240
51,Drayton Road,04530,43.9110569,-69.8318691
51,Varney Mill Road,04530,43.9602830,-69.8442723
52,Corliss Street,04530,43.8996014,-69.8191831
53,Bluff Road,04530,43.9100001,-69.8298555
53,Mechanic Street,04530,43.9275611,-69.8155491
53,Spring Street,04530,43.9036876,-69.8187534
54,Cardinal Road,04530,43.9629431,-69.8582272
55,Bluff Road,04530,43.9100497,-69.8298375
55,Congress Avenue,04530,43.9107974,-69.8335032
55,West Chops Point Road,04530,43.9798376,-69.8333713
55,Drayton Road,04530,43.9111922,-69.8318336
55,Dummer Street,04530,43.9234512,-69.8161407
55,Mechanic Street,04530,43.9275773,-69.8157985
56,Pine Street,04530,43.9011986,-69.8186820
57,West Chops Point Road,04530,43.9788805,-69.8343616
57,Varney Mill Road,04530,43.9604860,-69.8442129
59,West Chops Point Road,04530,43.9780689,-69.8351607
59,Drayton Road,04530,43.9113002,-69.8318351
59,Office Drive,04530,43.9272130,-69.8214056
60,Central Avenue,04530,43.9115123,-69.8311469
608,Middle Street,04530,43.9062850,-69.8187704
61,Pine Street,04530,43.9014172,-69.8189651
62,Pine Street,04530,43.9011691,-69.8190302
62,York Street,04530,43.9212997,-69.8173445
63,Oak Street,04530,43.9170800,-69.8169255
63,York Street,04530,43.9215558,-69.8174165
63,Bluff Road,04530,43.9102802,-69.8297162
64,Drayton Road,04530,43.9114321,-69.8322729
65,Mechanic Street,04530,43.9274374,-69.8164817
65,Oak Grove Avenue,04530,43.9257845,-69.8265994
67,Bluff Road,04530,43.9104021,-69.8296618
67,Varney Mill Road,04530,43.9610945,-69.8441031
68,Dummer Street,04530,43.9237546,-69.8165248
69,Bluff Road,04530,43.9104563,-69.8296377
69,Dummer Street,04530,43.9238207,-69.8160897
70,Russell Street,04530,43.9045990,-69.8190959
71,Russell Street,04530,43.9048686,-69.8191681
71,Pine Street,04530,43.9013687,-69.8194439
72,Varney Mill Road,04530,43.9615311,-69.8447325
72,Drayton Road,04530,43.9116838,-69.8323200
73,York Street,04530,43.9215339,-69.8179643
73,Bluff Road,04530,43.9105915,-69.8296209
74,Russell Street,04530,43.9045700,-69.8193695
75,Russell Street,04530,43.9048032,-69.8195034
75,Richardson Street,04530,43.9071591,-69.8242992
76,Russell Street,04530,43.9045283,-69.8195370
77,North Street,04530,43.9188982,-69.8176354
78,Bluff Road,04530,43.9107506,-69.8300279
78,Russell Street,04530,43.9041894,-69.8197192
79,York Street,04530,43.9214465,-69.8182184
79,Russell Street,04530,43.9047675,-69.8200820
80,Bluff Road,04530,43.9108272,-69.8300227
80,Congress Avenue,04530,43.9125947,-69.8321147
81,Beacon Street,04530,43.9251965,-69.8175909
82,Drayton Road,04530,43.9120522,-69.8324247
82,Varney Mill Road,04530,43.9621691,-69.8442866
85,Dummer Street,04530,43.9244950,-69.8162297
85,North Street,04530,43.9189716,-69.8180786
85,Varney Mill Road,04530,43.9621619,-69.8434326
88,Dummer Street,04530,43.9243522,-69.8166762
88,Russell Street,04530,43.9044701,-69.8201215
89,Bluff Road,04530,43.9113124,-69.8295437
89,Dummer Street,04530,43.9247112,-69.8162140
89,Varney Mill Road,04530,43.9625145,-69.8432319
90,Bluff Road,04530,43.9113950,-69.8299434
92,Bluff Road,04530,43.9115660,-69.8299582
92,Union Street,04530,43.9092154,-69.8194394
93,Bluff Road,04530,43.9116095,-69.8295479
94,Varney Mill Road,04530,43.9628027,-69.8438281
95,Bayshore Road,04530,43.9599066,-69.8555286
100,Congress Avenue,04530,43.9129987,-69.8322760
100,Court Street,04530,43.9101532,-69.8242471
100,North Street,04530,43.9185399,-69.8186332
103,Middle Street,04530,43.8891098,-69.8182549
106,Lincoln Street,04530,43.9148708,-69.8230356
109,Bowery Street,04530,43.9266288,-69.8118178
109,Oak Street,04530,43.9169933,-69.8189857
111,Centre Street,04530,43.9124701,-69.8175723
113,High Street,04530,43.8867229,-69.8202701
128,Bayshore Road,04530,43.9599211,-69.8590064
129,Varney Mill Road,04530,43.9651309,-69.8425085
129,Centre Street,04530,43.9120355,-69.8185378
134,Centre Street,04530,43.9115297,-69.8187613
140,Commercial Street,04530,43.9162184,-69.8140241
143,Bayshore Road,04530,43.9614205,-69.8577566
147,Varney Mill Road,04530,43.9657734,-69.8414580
151,Varney Mill Road,04530,43.9659572,-69.8409558
151,North Bath Road,04530,43.9477338,-69.8372967
153,Blackwater Cove Road,04530,43.9634934,-69.8562843
158,Middle Street,04530,43.8909441,-69.8185975
160,Centre Street,04530,43.9113293,-69.8197113
160,Middle Street,04530,43.8911291,-69.8185378
161,Varney Mill Road,04530,43.9664633,-69.8400841
163,High Street,04530,43.8909285,-69.8207698
165,Bayshore Road,04530,43.9616510,-69.8594302
170,Varney Mill Road,04530,43.9685134,-69.8410542
171,Congress Avenue,04530,43.9162931,-69.8336298
172,Washington Street,04530,43.8912861,-69.8173509
175,Congress Avenue,04530,43.9169790,-69.8334089
176,Washington Street,04530,43.8916724,-69.8174683
178,Washington Street,04530,43.8920963,-69.8173745
185,Middle Street,04530,43.8920548,-69.8181396
185,Varney Mill Road,04530,43.9670264,-69.8381847
195,High Street,04530,43.8927018,-69.8208253
197,Water Street,04530,43.9124191,-69.8152613
199,Water Street,04530,43.9124686,-69.8152620
203,High Street,04530,43.8929143,-69.8206975
205,Varney Mill Road,04530,43.9687868,-69.8356975
206,Middle Street,04530,43.8923816,-69.8183931
210,Middle Street,04530,43.8927369,-69.8184415
211,High Street,04530,43.8930729,-69.8205503
212,Middle Street,04530,43.8929124,-69.8184564
217,High Street,04530,43.8932215,-69.8205523
218,Washington Street,04530,43.8931121,-69.8176000
221,Washington Street,04530,43.8921678,-69.8168214
223,Middle Street,04530,43.8934740,-69.8179785
227,Water Street,04530,43.9133099,-69.8153358
230,Lincoln Street,04530,43.9178229,-69.8263023
232,Middle Street,04530,43.8937824,-69.8182878
237,Washington Street,04530,43.8937243,-69.8169734
244,Front Street,04530,43.9168128,-69.8146363
246,Washington Street,04530,43.8938879,-69.8173928
246,Middle Street,04530,43.8940702,-69.8183291
248,Middle Street,04530,43.8944624,-69.8182597
248,Middle Street,04530,43.8940925,-69.8177380
251,High Street,04530,43.8943559,-69.8199267
252,Washington Street,04530,43.8943014,-69.8174793
254,Front Street,04530,43.9170567,-69.8145213
256,Washington Street,04530,43.8945716,-69.8174644
260,High Street,04530,43.8945000,-69.8205512
270,North Bath Road,04530,43.9552129,-69.8407606
272,Front Street,04530,43.9177206,-69.8142189
274,North Bath Road,04530,43.9554141,-69.8409442
276,Washington Street,04530,43.8951934,-69.8173919
280,Front Street,04530,43.9179595,-69.8141786
286,High Street,04530,43.8959534,-69.8206396
295,North Bath Road,04530,43.9579735,-69.8400081
300,North Bath Road,04530,43.9558527,-69.8431252
300,Front Street,04530,43.9185291,-69.8144791
305,North Bath Road,04530,43.9565112,-69.8435708
306,North Bath Road,04530,43.9556072,-69.8440565
307,High Street,04530,43.8962624,-69.8202517
318,North Bath Road,04530,43.9559515,-69.8449899
327,Front Street,04530,43.9194530,-69.8130655
327,North Bath Road,04530,43.9571154,-69.8452620
327,High Street,04530,43.8969022,-69.8201671
331,High Street,04530,43.8970470,-69.8200694
331,Washington Street,04530,43.8974312,-69.8167066
335,North Bath Road,04530,43.9574211,-69.8459331
336,High Street,04530,43.8972524,-69.8203026
336,North Bath Road,04530,43.9565072,-69.8459388
338,North Bath Road,04530,43.9558016,-69.8469945
341,High Street,04530,43.8974759,-69.8198948
344,North Bath Road,04530,43.9572449,-69.8466286
351,Front Street,04530,43.9204348,-69.8130103
352,Front Street,04530,43.9203598,-69.8134328
357,High Street,04530,43.8980938,-69.8197352
358,Washington Street,04530,43.8980739,-69.8168586
361,High Street,04530,43.8990827,-69.8193129
374,Washington Street,04530,43.8987498,-69.8167744
378,Middle Street,04530,43.8984927,-69.8180970
386,High Street,04530,43.8991411,-69.8199612
389,High Street,04530,43.8993685,-69.8196344
390,High Street,04530,43.8994066,-69.8199711
390,Washington Street,04530,43.8992909,-69.8166511
393,High Street,04530,43.8995711,-69.8196371
394,Washington Street,04530,43.8994489,-69.8165848
404,High Street,04530,43.8995627,-69.8201849
405,Lark Street,04530,43.9120770,-69.8302518
406,High Street,04530,43.8998565,-69.8200208
406,Front Street,04530,43.9221867,-69.8135511
408,High Street,04530,43.8999991,-69.8202158
408,Middle Street,04530,43.8995413,-69.8181363
409,High Street,04530,43.9000521,-69.8197309
410,Washington Street,04530,43.8998679,-69.8165345
415,Middle Street,04530,43.8995267,-69.8176691
419,Lark Street,04530,43.9119725,-69.8310101
423,Lark Street,04530,43.9119529,-69.8312277
424,Washington Street,04530,43.9003871,-69.8163299
425,Lark Street,04530,43.9119194,-69.8314950
426,Lark Street,04530,43.9116366,-69.8313915
427,Lark Street,04530,43.9119055,-69.8315571
428,Lark Street,04530,43.9116179,-69.8314784
431,Lark Street,04530,43.9118858,-69.8317873
432,Centre Street,04530,43.9119979,-69.8330841
433,Middle Street,04530,43.9004534,-69.8177565
434,Lark Street,04530,43.9115755,-69.8317393
435,Lark Street,04530,43.9118667,-69.8319364
436,Lark Street,04530,43.9115521,-69.8318636
436,Washington Street,04530,43.9007148,-69.8164651
444,Middle Street,04530,43.9007658,-69.8181344
447,Middle Street,04530,43.9009034,-69.8177814
450,Washington Street,04530,43.9012020,-69.8163223
454,High Street,04530,43.9015403,-69.8206230
456,Middle Street,04530,43.9012382,-69.8181782
460,Washington Street,04530,43.9014816,-69.8162514
462,High Street,04530,43.9016481,-69.8206556
467,High Street,04530,43.9018709,-69.8203473
468,Washington Street,04530,43.9017969,-69.8162308
468,High Street,04530,43.9018372,-69.8206582
472,Washington Street,04530,43.9021308,-69.8161233
478,Middle Street,04530,43.9020182,-69.8180208
481,Middle Street,04530,43.9021553,-69.8177238
482,Middle Street,04530,43.9021038,-69.8180095
487,High Street,04530,43.9026348,-69.8205446
490,Middle Street,04530,43.9023646,-69.8180442
492,Middle Street,04530,43.9025485,-69.8181463
498,Washington Street,04530,43.9028503,-69.8162328
500,Centre Street,04530,43.9115804,-69.8329288
504,Middle Street,04530,43.9028956,-69.8180764
516,Middle Street,04530,43.9032236,-69.8181618
520,Centre Street,04530,43.9116476,-69.8342063
524,High Street,04530,43.9038194,-69.8210901
525,High Street,04530,43.9035884,-69.8206573
525,Middle Street,04530,43.9034829,-69.8177855
528,Washington Street,04530,43.9039594,-69.8160051
531,High Street,04530,43.9038357,-69.8207043
533,High Street,04530,43.9039887,-69.8207064
534,High Street,04530,43.9041251,-69.8211441
535,High Street,04530,43.9041240,-69.8206771
538,High Street,04530,43.9043099,-69.8211218
552,Washington Street,04530,43.9046977,-69.8159965
26,Drayton Road,04530,43.9103986,-69.8326259
27,Drayton Road,04530,43.9102890,-69.8322258
30,Drayton Road,04530,43.9104981,-69.8325588
31,Drayton Road,04530,43.9103886,-69.8321462
32,Drayton Road,04530,43.9105885,-69.8325102
33,Drayton Road,04530,43.9104428,-69.8321159
36,Drayton Road,04530,43.9106883,-69.8324120
37,Drayton Road,04530,43.9105332,-69.8320673
53,Drayton Road,04530,43.9111111,-69.8318450
57,Drayton Road,04530,43.9112416,-69.8318406
61,Drayton Road,04530,43.9113722,-69.8318361
62,Drayton Road,04530,43.9113783,-69.8322410
66,Drayton Road,04530,43.9114724,-69.8322921
68,Drayton Road,04530,43.9115398,-69.8323117
70,Drayton Road,04530,43.9115984,-69.8323126
74,Drayton Road,04530,43.9118230,-69.8323717
76,Drayton Road,04530,43.9118815,-69.8323788
78,Drayton Road,04530,43.9119488,-69.8324108
80,Drayton Road,04530,43.9119982,-69.8324240
84,Drayton Road,04530,43.9121332,-69.8324321
11,Dummer Street,04530,43.9219669,-69.8159647
18,Dummer Street,04530,43.9222568,-69.8163361
24,Dummer Street,04530,43.9224229,-69.8164007
30,Dummer Street,04530,43.9225938,-69.8164279
33,Dummer Street,04530,43.9228035,-69.8160696
40,Dummer Street,04530,43.9229045,-69.8164197
43,Dummer Street,04530,43.9231332,-69.8159121
46,Dummer Street,04530,43.9230978,-69.8164535
59,Dummer Street,04530,43.9236399,-69.8161869
72,Dummer Street,04530,43.9240157,-69.8165284
72,Dummer Street,04530,43.9240153,-69.8165844
74,Dummer Street,04530,43.9240427,-69.8165287
87,Dummer Street,04530,43.9246169,-69.8161753
97,Dummer Street,04530,43.9248549,-69.8162658
4,Dummer Street Court,04530,43.9230552,-69.8167457
17,Dummer Street Court,04530,43.9233276,-69.8170546
12,Eagle Point Road,04530,43.9712195,-69.8391538
4,Elsinore Avenue,04530,43.9085032,-69.8239504
5,Elsinore Avenue,04530,43.9089240,-69.8236511
7,Elsinore Avenue,04530,43.9090679,-69.8236779
9,Elsinore Avenue,04530,43.9092339,-69.8237550
3,Federal Street,04530,43.9014383,-69.8210325
4,Federal Street,04530,43.9011989,-69.8211537
81,Floral Street,04530,43.9096865,-69.8271549
82,Floral Street,04530,43.9096816,-69.8265944
85,Floral Street,04530,43.9092956,-69.8270498
86,Floral Street,04530,43.9093851,-69.8265093
1,Fremont Street,04530,43.9175894,-69.8143168
9,Fremont Street,04530,43.9175332,-69.8146212
10,Frisbee Lane,04530,43.8759899,-69.8265953
30,Front Street,04530,43.9123011,-69.8141326
45,Front Street,04530,43.9126220,-69.8139439
65,Front Street,04530,43.9130139,-69.8139181
130,Front Street,04530,43.9140282,-69.8143554
132,Front Street,04530,43.9140821,-69.8143624
140,Front Street,04530,43.9142125,-69.8143953
164,Front Street,04530,43.9146710,-69.8144825
180,Front Street,04530,43.9150805,-69.8145130
182,Front Street,04530,43.9151344,-69.8145200
184,Front Street,04530,43.9151929,-69.8145270
329,Front Street,04530,43.9196056,-69.8131298
335,Front Street,04530,43.9198198,-69.8127653
343,Front Street,04530,43.9201894,-69.8127081
344,Front Street,04530,43.9200541,-69.8133726
345,Front Street,04530,43.9201552,-69.8130750
411,Front Street,04530,43.9223609,-69.8131051
414,Front Street,04530,43.9226106,-69.8134448
10,Gerald Street,04530,43.9192952,-69.8225298
13,Gerald Street,04530,43.9197567,-69.8222123
14,Gerald Street,04530,43.9197224,-69.8226042
14,Getchell Street,04530,43.8933768,-69.8189794
31,Getchell Street,04530,43.8938365,-69.8195398
21,Gillies Lane,04530,43.9435268,-69.8363903
80,Gillies Lane,04530,43.9445294,-69.8322548
1,Goddard Street,04530,43.8945284,-69.8191073
2,Goddard Street,04530,43.8944275,-69.8187386
4,Goddard Street,04530,43.8941930,-69.8187852
8,Goddard Street,04530,43.8937877,-69.8188045
53,Granite Street,04530,43.9105174,-69.8193016
58,Granite Street,04530,43.9102410,-69.8195532
61,Granite Street,04530,43.9104603,-69.8197305
1,Grove Street,04530,43.9198512,-69.8134072
30,Grove Street,04530,43.9195275,-69.8146173
6,Heath Lane,04530,43.9268821,-69.8229645
11,Heath Lane,04530,43.9271186,-69.8226314
1,High Street,04530,43.8678603,-69.8333153
111,High Street,04530,43.8866151,-69.8202251
116,High Street,04530,43.8885683,-69.8215715
121,High Street,04530,43.8891520,-69.8198988
150,High Street,04530,43.8909720,-69.8215983
159,High Street,04530,43.8901874,-69.8211580
164,High Street,04530,43.8915220,-69.8215001
175,High Street,04530,43.8914400,-69.8210009
177,High Street,04530,43.8914986,-69.8209955
185,High Street,04530,43.8918775,-69.8208949
189,High Street,04530,43.8923235,-69.8208450
190,High Street,04530,43.8926672,-69.8212481
215,High Street,04530,43.8931674,-69.8205640
231,High Street,04530,43.8937141,-69.8202789
237,High Street,04530,43.8939262,-69.8202071
310,High Street,04530,43.8963320,-69.8205826
311,High Street,04530,43.8964423,-69.8202728
312,High Street,04530,43.8965211,-69.8205789
427,High Street,04530,43.9005785,-69.8197817
429,High Street,04530,43.9007361,-69.8197776
433,High Street,04530,43.9008348,-69.8198226
449,High Street,04530,43.9013195,-69.8200222
465,High Street,04530,43.9017194,-69.8201398
485,High Street,04530,43.9025049,-69.8204557
497,High Street,04530,43.9028325,-69.8205971
498,High Street,04530,43.9026979,-69.8211681
501,High Street,04530,43.9030937,-69.8205820
505,High Street,04530,43.9032508,-69.8206527
529,High Street,04530,43.9036647,-69.8206895
530,High Street,04530,43.9037521,-69.8216807
537,High Street,04530,43.9042460,-69.8206103
595,High Street,04530,43.9047360,-69.8207105
666,High Street,04530,43.9086265,-69.8205833
679,High Street,04530,43.9091333,-69.8202105
695,High Street,04530,43.9096332,-69.8201924
704,High Street,04530,43.9099310,-69.8207196
746,High Street,04530,43.9112401,-69.8202207
789,High Street,04530,43.9127491,-69.8194755
932,High Street,04530,43.9175066,-69.8189678
935,High Street,04530,43.9177966,-69.8187040
937,High Street,04530,43.9178861,-69.8187737
949,High Street,04530,43.9181961,-69.8188652
972,High Street,04530,43.9188311,-69.8194655
976,High Street,04530,43.9189617,-69.8194486
977,High Street,04530,43.9190724,-69.8190889
982,High Street,04530,43.9191725,-69.8195699
998,High Street,04530,43.9197765,-69.8194598
1020,High Street,04530,43.9206022,-69.8192034
1030,High Street,04530,43.9207958,-69.8191873
1037,High Street,04530,43.9211231,-69.8187558
1051,High Street,04530,43.9215964,-69.8186627
1060,High Street,04530,43.9218450,-69.8191519
1062,High Street,04530,43.9219705,-69.8192284
1064,High Street,04530,43.9220380,-69.8192417
1069,High Street,04530,43.9222888,-69.8187905
1086,High Street,04530,43.9227888,-69.8193704
1110,High Street,04530,43.9235374,-69.8192000
1184,High Street,04530,43.9260689,-69.8189919
1192,High Street,04530,43.9262981,-69.8190448
1199,High Street,04530,43.9267514,-69.8186026
1215,High Street,04530,43.9271608,-69.8186393
1217,High Street,04530,43.9272284,-69.8186340
1227,High Street,04530,43.9275481,-69.8186197
1229,High Street,04530,43.9276292,-69.8186146
1235,High Street,04530,43.9278143,-69.8185362
1237,High Street,04530,43.9278954,-69.8185311
1238,High Street,04530,43.9278472,-69.8189727
1475,High Street,04530,43.9375385,-69.8172367
1517,High Street,04530,43.9395660,-69.8182551
1575,High Street,04530,43.9405243,-69.8183305
1585,High Street,04530,43.9412716,-69.8183345
1600,High Street,04530,43.9417402,-69.8195310
13,Highland Street,04530,43.9005216,-69.8170415
16,Highland Street,04530,43.9004966,-69.8173898
26,Highland Street,04530,43.9008023,-69.8174500
16,Hinckley Street,04530,43.9032206,-69.8167048
17,Hinckley Street,04530,43.9034450,-69.8167950
7,Huse Street,04530,43.9125024,-69.8268452
27,Huse Street,04530,43.9115377,-69.8282703
401,Lark Street,04530,43.9120873,-69.8300776
403,Lark Street,04530,43.9120867,-69.8301647
407,Lark Street,04530,43.9120584,-69.8303387
409,Lark Street,04530,43.9120531,-69.8304445
411,Lark Street,04530,43.9120298,-69.8305500
413,Lark Street,04530,43.9120013,-69.8307676
415,Lark Street,04530,43.9119963,-69.8308360
417,Lark Street,04530,43.9119866,-69.8309231
421,Lark Street,04530,43.9119763,-69.8311097
429,Lark Street,04530,43.9119003,-69.8316505
430,Lark Street,04530,43.9115904,-69.8315465
432,Lark Street,04530,43.9115808,-69.8316336
433,Lark Street,04530,43.9118762,-69.8318618
1,Ledge View Lane,04530,43.8877732,-69.8207016
3,Ledge View Lane,04530,43.8877695,-69.8199546
59,Lemont Street,04530,43.8860403,-69.8200367
61,Lemont Street,04530,43.8860288,-69.8203789
11,Libby Court,04530,43.9026380,-69.8188449
12,Libby Court,04530,43.9022583,-69.8190638
15,Libby Court,04530,43.9025275,-69.8191920
5,Liberty Street,04530,43.9087267,-69.8197939
12,Liberty Street,04530,43.9089519,-69.8197721
16,Liberty Street,04530,43.9089490,-69.8195541
18,Liberty Street,04530,43.9090044,-69.8193618
3,Lilac Street,04530,43.9074519,-69.8242783
1,Lincoln Street,04530,43.9118843,-69.8201673
22,Lincoln Street,04530,43.9123335,-69.8209207
25,Lincoln Street,04530,43.9125161,-69.8205683
26,Lincoln Street,04530,43.9125761,-69.8209926
30,Lincoln Street,04530,43.9127418,-69.8211069
3,Linden Street,04530,43.9166942,-69.8148464
17,Maple Grove Avenue,04530,43.9187215,-69.8259286
19,Maple Grove Avenue,04530,43.9188250,-69.8259300
7,Mariners Way,04530,43.9403964,-69.8154442
4,Marshall Avenue,04530,43.8953070,-69.8191304
10,Marshall Avenue,04530,43.8956540,-69.8190791
14,Marshall Avenue,04530,43.8960983,-69.8192720
15,Marshall Avenue,04530,43.8960857,-69.8185123
17,Marshall Avenue,04530,43.8962196,-69.8186760
28,Marshall Avenue,04530,43.8971591,-69.8195044
11,Marshall Street,04530,43.8950952,-69.8179073
16,Marshall Street,04530,43.8948010,-69.8187499
17,Marshall Street,04530,43.8950603,-69.8183800
21,Marshall Street,04530,43.8950211,-69.8188277
5,Maxwell Street,04530,43.9035309,-69.8198845
6,Maxwell Street,04530,43.9036274,-69.8202469
8,Maxwell Street,04530,43.9037352,-69.8202733
15,Maxwell Street,04530,43.9039078,-69.8200578
17,Maxwell Street,04530,43.9040385,-69.8200347
23,Maxwell Street,04530,43.9043256,-69.8201880
15,Meadow Way,04530,43.9260197,-69.8195705
17,Meadow Way,04530,43.9260553,-69.8196270
26,Meadow Way,04530,43.9262632,-69.8201406
28,Meadow Way,04530,43.9264443,-69.8199998
30,Meadow Way,04530,43.9265523,-69.8200075
31,Meadow Way,04530,43.9267397,-69.8196115
36,Meadow Way,04530,43.9267678,-69.8200790
38,Meadow Way,04530,43.9269073,-69.8200872
39,Meadow Way,04530,43.9270234,-69.8196029
40,Meadow Way,04530,43.9269660,-69.8200693
43,Meadow Way,04530,43.9271320,-69.8195234
44,Meadow Way,04530,43.9271468,-69.8199597
45,Meadow Way,04530,43.9271685,-69.8194554
46,Meadow Way,04530,43.9271921,-69.8199291
48,Meadow Way,04530,43.9273327,-69.8197816
49,Meadow Way,04530,43.9272147,-69.8192879
50,Meadow Way,04530,43.9273736,-69.8197261
16,Mechanic Street,04530,43.9274335,-69.8138656
30,Mechanic Street,04530,43.9273522,-69.8145434
51,Mechanic Street,04530,43.9277607,-69.8153276
54,Mechanic Street,04530,43.9272942,-69.8157323
56,Mechanic Street,04530,43.9272798,-69.8158442
57,Mechanic Street,04530,43.9274801,-69.8161647
62,Mechanic Street,04530,43.9272563,-69.8159872
64,Mechanic Street,04530,43.9271856,-69.8164347
109,Middle Street,04530,43.8894475,-69.8182409
115,Middle Street,04530,43.8897534,-69.8182699
161,Middle Street,04530,43.8909065,-69.8181799
162,Middle Street,04530,43.8911965,-69.8185449
165,Middle Street,04530,43.8912351,-69.8181844
168,Middle Street,04530,43.8914521,-69.8186916
169,Middle Street,04530,43.8916046,-69.8181459
176,Middle Street,04530,43.8917275,-69.8185833
177,Middle Street,04530,43.8918115,-69.8181612
186,Middle Street,04530,43.8921477,-69.8183650
189,Middle Street,04530,43.8921585,-69.8181099
205,Middle Street,04530,43.8931990,-69.8180370
221,Middle Street,04530,43.8933180,-69.8177647
222,Middle Street,04530,43.8931332,-69.8184283
250,Middle Street,04530,43.8946648,-69.8182812
276,Middle Street,04530,43.8952454,-69.8183078
277,Middle Street,04530,43.8953026,-69.8178666
278,Middle Street,04530,43.8953896,-69.8182911
281,Middle Street,04530,43.8958023,-69.8178547
362,Middle Street,04530,43.8978039,-69.8180938
366,Middle Street,04530,43.8980065,-69.8180904
367,Middle Street,04530,43.8979909,-69.8177664
371,Middle Street,04530,43.8982069,-69.8177756
377,Middle Street,04530,43.8984414,-69.8177103
379,Middle Street,04530,43.8986031,-69.8177686
418,Middle Street,04530,43.8997259,-69.8181388
420,Middle Street,04530,43.8999731,-69.8181920
427,Middle Street,04530,43.9002644,-69.8177539
428,Middle Street,04530,43.9002121,-69.8181330
434,Middle Street,04530,43.9004232,-69.8182106
439,Middle Street,04530,43.9006018,-69.8177772
445,Middle Street,04530,43.9007728,-69.8177983
449,Middle Street,04530,43.9010517,-69.8178208
464,Middle Street,04530,43.9014915,-69.8180073
472,Middle Street,04530,43.9018584,-69.8183299
473,Middle Street,04530,43.9018003,-69.8176380
476,Middle Street,04530,43.9018699,-69.8179752
477,Middle Street,04530,43.9019532,-69.8176588
487,Middle Street,04530,43.9022768,-69.8177379
488,Middle Street,04530,43.9022118,-69.8180172
500,Middle Street,04530,43.9027197,-69.8181300
505,Middle Street,04530,43.9029245,-69.8178090
508,Middle Street,04530,43.9030798,-69.8181349
521,Middle Street,04530,43.9033209,-69.8177771
570,Middle Street,04530,43.9055003,-69.8183424
572,Middle Street,04530,43.9054862,-69.8184232
576,Middle Street,04530,43.9054717,-69.8185537
595,Middle Street,04530,43.9060033,-69.8178761
596,Middle Street,04530,43.9060271,-69.8183310
668,Middle Street,04530,43.9084444,-69.8183516
705,Middle Street,04530,43.9098207,-69.8178972
752,Middle Street,04530,43.9113761,-69.8182112
762,Middle Street,04530,43.9116915,-69.8181719
786,Middle Street,04530,43.9125512,-69.8181899
832,Middle Street,04530,43.9142220,-69.8181007
842,Middle Street,04530,43.9144068,-69.8180721
846,Middle Street,04530,43.9145687,-69.8180868
847,Middle Street,04530,43.9146568,-69.8177268
909,Middle Street,04530,43.9167954,-69.8177001
922,Middle Street,04530,43.9172165,-69.8179923
928,Middle Street,04530,43.9173968,-69.8179574
935,Middle Street,04530,43.9176510,-69.8176620
937,Middle Street,04530,43.9178046,-69.8175831
938,Middle Street,04530,43.9177614,-69.8179624
944,Middle Street,04530,43.9180178,-69.8179846
951,Middle Street,04530,43.9181959,-69.8176383
962,Middle Street,04530,43.9186124,-69.8179367
1020,Middle Street,04530,43.9204259,-69.8180425
1026,Middle Street,04530,43.9206201,-69.8179580
1030,Middle Street,04530,43.9209263,-69.8179435
1034,Middle Street,04530,43.9211245,-69.8179275
12,East Milan Street,04530,43.9280960,-69.8143978
15,East Milan Street,04530,43.9283195,-69.8146189
16,East Milan Street,04530,43.9280801,-69.8147340
24,East Milan Street,04530,43.9280323,-69.8151258
25,East Milan Street,04530,43.9283073,-69.8150672
43,East Milan Street,04530,43.9286223,-69.8157131
45,East Milan Street,04530,43.9282416,-69.8160754
2,West Milan Street,04530,43.9272624,-69.8182857
5,West Milan Street,04530,43.9275675,-69.8184269
1,Mitchell Road,04530,43.8954226,-69.8205825
6,Mitchell Road,04530,43.8944256,-69.8233889
3,Nichols Street,04530,43.9023439,-69.8215679
10,Noble Avenue,04530,43.9275892,-69.8222953
12,Noble Avenue,04530,43.9277596,-69.8223911
13,Noble Avenue,04530,43.9280406,-69.8221271
18,Noble Avenue,04530,43.9282034,-69.8226588
3,North Street,04530,43.9191687,-69.8137965
56,North Street,04530,43.9186465,-69.8163179
57,North Street,04530,43.9190207,-69.8162421
61,North Street,04530,43.9189137,-69.8167326
95,North Street,04530,43.9188602,-69.8185442
99,North Street,04530,43.9188591,-69.8186937
165,North Street,04530,43.9185475,-69.8219715
60,Oak Street,04530,43.9168441,-69.8165548
64,Oak Street,04530,43.9168332,-69.8168225
4,Oak Grove Avenue,04530,43.9186784,-69.8269120
1530,Washington Street,04530,43.9411648,-69.8150123
9,Mariners Way,04530,43.9408395,-69.8151761
6,Mariners Way,04530,43.9407101,-69.8162833
4,Mariners Way,04530,43.9404225,-69.8162109
1516,Washington Street,04530,43.9399954,-69.8148593
1519,Washington Street,04530,43.9397969,-69.8142897
1523,Washington Street,04530,43.9403857,-69.8144285
1525,Washington Street,04530,43.9406782,-69.8144450
558,Washington Street,04530,43.9049269,-69.8160557
574,Middle Street,04530,43.9054814,-69.8184667
589,Middle Street,04530,43.9057907,-69.8180226
590,Washington Street,04530,43.9061974,-69.8171751
590,Middle Street,04530,43.9058423,-69.8183596
677,High Street,04530,43.9089221,-69.8201640
684,High Street,04530,43.9092249,-69.8206227
691,High Street,04530,43.9094395,-69.8202084
696,High Street,04530,43.9095265,-69.8206268
699,High Street,04530,43.9098488,-69.8202514
700,High Street,04530,43.9097153,-69.8206606
709,High Street,04530,43.9100702,-69.8201424
738,High Street,04530,43.9110234,-69.8203049
770,High Street,04530,43.9120961,-69.8201266
776,High Street,04530,43.9121545,-69.8201461
780,High Street,04530,43.9124303,-69.8199880
786,High Street,04530,43.9126953,-69.8200663
788,High Street,04530,43.9127359,-69.8200607
851,Middle Street,04530,43.9148098,-69.8177352
852,Middle Street,04530,43.9148165,-69.8180653
857,Middle Street,04530,43.9149541,-69.8177122
858,Middle Street,04530,43.9150010,-69.8180803
859,Middle Street,04530,43.9150802,-69.8176953
890,Washington Street,04530,43.9159807,-69.8164247
904,Middle Street,04530,43.9166175,-69.8180277
905,Middle Street,04530,43.9165395,-69.8175969
912,Middle Street,04530,43.9167839,-69.8180424
923,Middle Street,04530,43.9172820,-69.8176445
929,Middle Street,04530,43.9174666,-69.8176345
933,High Street,04530,43.9176839,-69.8187274
934,High Street,04530,43.9176052,-69.8190315
934,Middle Street,04530,43.9175991,-69.8179913
940,Washington Street,04530,43.9174513,-69.8160026
942,Washington Street,04530,43.9178088,-69.8157397
943,Middle Street,04530,43.9179753,-69.8176353
945,High Street,04530,43.9180571,-69.8187948
945,Washington Street,04530,43.9177534,-69.8153093
955,High Street,04530,43.9183803,-69.8189175
972,Washington Street,04530,43.9186974,-69.8155028
979,Middle Street,04530,43.9192045,-69.8176085
980,Middle Street,04530,43.9191600,-69.8181684
980,Washington Street,04530,43.9190440,-69.8154950
981,High Street,04530,43.9192478,-69.8191038
985,High Street,04530,43.9194277,-69.8191250
990,Washington Street,04530,43.9192700,-69.8153736
992,High Street,04530,43.9195512,-69.8194941
993,High Street,04530,43.9196049,-69.8189032
995,Washington Street,04530,43.9192462,-69.8149311
997,Washington Street,04530,43.9194852,-69.8148720
999,High Street,04530,43.9198157,-69.8190120
1005,High Street,04530,43.9200276,-69.8189713
1006,High Street,04530,43.9200154,-69.8194195
1008,Middle Street,04530,43.9201429,-69.8179514
1008,Washington Street,04530,43.9199017,-69.8151767
1009,Middle Street,04530,43.9202092,-69.8174977
1009,Washington Street,04530,43.9198012,-69.8147393
1011,High Street,04530,43.9202951,-69.8187009
1016,High Street,04530,43.9204262,-69.8192508
1017,Washington Street,04530,43.9202641,-69.8142287
1019,Middle Street,04530,43.9204970,-69.8175452
1023,High Street,04530,43.9207188,-69.8186382
1023,Middle Street,04530,43.9207267,-69.8175235
1024,Washington Street,04530,43.9204568,-69.8149787
1028,Middle Street,04530,43.9207910,-69.8179728
1033,High Street,04530,43.9209789,-69.8187663
1055,High Street,04530,43.9217677,-69.8186401
1059,High Street,04530,43.9219196,-69.8187917
1063,High Street,04530,43.9220907,-69.8187940
1070,High Street,04530,43.9221321,-69.8192929
1071,Washington Street,04530,43.9219397,-69.8140959
1074,Washington Street,04530,43.9220850,-69.8145525
1075,High Street,04530,43.9224550,-69.8188426
1076,High Street,04530,43.9224604,-69.8193410
1079,High Street,04530,43.9226215,-69.8188449
1080,Washington Street,04530,43.9223332,-69.8144625
1082,High Street,04530,43.9226222,-69.8193743
1095,Washington Street,04530,43.9227472,-69.8138640
1101,Washington Street,04530,43.9229593,-69.8137859
1103,Washington Street,04530,43.9229921,-69.8135995
1111,Washington Street,04530,43.9232800,-69.8136346
1121,Washington Street,04530,43.9236986,-69.8136403
1127,Washington Street,04530,43.9238760,-69.8133935
1132,Washington Street,04530,43.9239870,-69.8142421
1135,Washington Street,04530,43.9242481,-69.8136104
1143,Washington Street,04530,43.9245092,-69.8136077
1151,High Street,04530,43.9250124,-69.8187905
1155,High Street,04530,43.9252832,-69.8186946
1155,Washington Street,04530,43.9248702,-69.8134881
1158,Washington Street,04530,43.9248885,-69.8140738
1162,High Street,04530,43.9252938,-69.8190996
1183,Washington Street,04530,43.9257723,-69.8132388
1185,Washington Street,04530,43.9258130,-69.8132206
1190,Washington Street,04530,43.9260083,-69.8136095
1205,High Street,04530,43.9268956,-69.8185859
1207,High Street,04530,43.9269632,-69.8185806
1218,High Street,04530,43.9272393,-69.8189955
1220,High Street,04530,43.9273204,-69.8189903
1232,High Street,04530,43.9276753,-69.8190949
1243,High Street,04530,43.9281526,-69.8184412
1268,Washington Street,04530,43.9283591,-69.8141211
1270,Washington Street,04530,43.9284217,-69.8141780
1273,Washington Street,04530,43.9287677,-69.8136346
1276,Washington Street,04530,43.9285378,-69.8143104
1289,Washington Street,04530,43.9290983,-69.8139942
1471,High Street,04530,43.9371963,-69.8185029
1473,High Street,04530,43.9375555,-69.8186387
1492,High Street,04530,43.9382192,-69.8189904
1508,High Street,04530,43.9388657,-69.8192360
1513,High Street,04530,43.9391143,-69.8184669
1515,Washington Street,04530,43.9391802,-69.8142812
1528,High Street,04530,43.9397866,-69.8188811
1620,High Street,04530,43.9427183,-69.8187344
43,Oak Street,04530,43.9171061,-69.8158049
57,Pine Street,04530,43.9018137,-69.8189145
155,North Street,04530,43.9185858,-69.8216482
17,Bailey Street,04530,43.9190740,-69.8213746
21,Bailey Street,04530,43.9192221,-69.8214389
2,Barque Road,04530,43.9344610,-69.8163598
3,Barque Road,04530,43.9342653,-69.8172853
30,North Bath Road,04530,43.9395780,-69.8401727
149,North Bath Road,04530,43.9472865,-69.8375210
290,North Bath Road,04530,43.9560102,-69.8419060
291,North Bath Road,04530,43.9564101,-69.8420114
315,North Bath Road,04530,43.9569047,-69.8439316
343,North Bath Road,04530,43.9578087,-69.8464746
145,Bayshore Road,04530,43.9609569,-69.8577499
73,Beacon Street,04530,43.9251869,-69.8170551
80,Beacon Street,04530,43.9248661,-69.8172127
95,Beacon Street,04530,43.9252108,-69.8181143
103,Beacon Street,04530,43.9250376,-69.8184109
11,Redlon Road,04530,43.9055746,-69.8273968
10,Winter Street Court,04530,43.9149341,-69.8186212
65,Pine Hill Drive,04530,43.9068033,-69.8249543
1,Pine Hill Drive,04530,43.9068464,-69.8245875
2,Pine Hill Drive,04530,43.9068469,-69.8245253
3,Pine Hill Drive,04530,43.9066054,-69.8249204
4,Pine Hill Drive,04530,43.9066016,-69.8248270
5,Pine Hill Drive,04530,43.9065759,-69.8246523
6,Pine Hill Drive,04530,43.9065494,-69.8245772
7,Pine Hill Drive,04530,43.9065365,-69.8244899
8,Pine Hill Drive,04530,43.9063971,-69.8244693
9,Pine Hill Drive,04530,43.9063521,-69.8244686
10,Pine Hill Drive,04530,43.9062980,-69.8244741
11,Pine Hill Drive,04530,43.9062396,-69.8244671
12,Pine Hill Drive,04530,43.9061810,-69.8244725
13,Pine Hill Drive,04530,43.9061360,-69.8244656
14,Pine Hill Drive,04530,43.9060805,-69.8246704
15,Pine Hill Drive,04530,43.9060754,-69.8247575
16,Pine Hill Drive,04530,43.9060568,-69.8248319
17,Pine Hill Drive,04530,43.9060383,-69.8249064
18,Pine Hill Drive,04530,43.9059602,-69.8251170
19,Pine Hill Drive,04530,43.9059327,-69.8251851
25,Pine Hill Drive,04530,43.9059943,-69.8253852
24,Pine Hill Drive,04530,43.9060483,-69.8253984
23,Pine Hill Drive,04530,43.9061067,-69.8254117
22,Pine Hill Drive,04530,43.9061651,-69.8254249
21,Pine Hill Drive,04530,43.9062236,-69.8254258
20,Pine Hill Drive,04530,43.9062866,-69.8254329
64,Pine Hill Drive,04530,43.9062931,-69.8257754
63,Pine Hill Drive,04530,43.9062301,-69.8257745
62,Pine Hill Drive,04530,43.9061626,-69.8257736
61,Pine Hill Drive,04530,43.9060861,-69.8257725
60,Pine Hill Drive,04530,43.9059111,-69.8256954
59,Pine Hill Drive,04530,43.9058432,-69.8257381
58,Pine Hill Drive,04530,43.9057844,-69.8257808
39,Pine Hill Drive,04530,43.9065703,-69.8254243
38,Pine Hill Drive,04530,43.9066059,-69.8254746
37,Pine Hill Drive,04530,43.9066641,-69.8255190
36,Pine Hill Drive,04530,43.9067178,-69.8255633
35,Pine Hill Drive,04530,43.9067579,-69.8256262
34,Pine Hill Drive,04530,43.9068071,-69.8256642
43,Pine Hill Drive,04530,43.9067429,-69.8258377
42,Pine Hill Drive,04530,43.9067154,-69.8259058
41,Pine Hill Drive,04530,43.9066879,-69.8259739
40,Pine Hill Drive,04530,43.9066515,-69.8260232
47,Pine Hill Drive,04530,43.9065153,-69.8261832
46,Pine Hill Drive,04530,43.9064968,-69.8262452
45,Pine Hill Drive,04530,43.9064917,-69.8263261
44,Pine Hill Drive,04530,43.9064597,-69.8264004
48,Pine Hill Drive,04530,43.9062888,-69.8263793
49,Pine Hill Drive,04530,43.9062395,-69.8263475
50,Pine Hill Drive,04530,43.9061902,-69.8263157
51,Pine Hill Drive,04530,43.9061319,-69.8262838
52,Pine Hill Drive,04530,43.9060010,-69.8263255
53,Pine Hill Drive,04530,43.9059424,-69.8263372
54,Pine Hill Drive,04530,43.9058839,-69.8263426
55,Pine Hill Drive,04530,43.9057012,-69.8260785
56,Pine Hill Drive,04530,43.9057019,-69.8259852
57,Pine Hill Drive,04530,43.9056889,-69.8259103
27,Spring Street,04530,43.9038336,-69.8172300
58,Central Avenue,04530,43.9114539,-69.8311336
19,High Street,04530,43.8736855,-69.8277707
356,Middle Street,04530,43.8976015,-69.8180724
20,Spring Street,04530,43.9036157,-69.8168534
52,Spring Street,04530,43.9034178,-69.8187124
756,High Street,04530,43.9116965,-69.8199841
709,Middle Street,04530,43.9099793,-69.8177437
20,York Street,04530,43.9215158,-69.8154603
7,North Street,04530,43.9191179,-69.8139702
200,Stevenson Way,04530,43.9653930,-69.8514812
27,Sandpiper Lane,04530,43.9700990,-69.8512617
21,Sandpiper Lane,04530,43.9706822,-69.8509335
15,Sandpiper Lane,04530,43.9711305,-69.8505783
136,Butler Head Road,04530,43.9715360,-69.8505280
1,Aegis Drive,04530,43.9168457,-69.8313208
1,Aegis Drive,04530,43.9168598,-69.8312338
3,Aegis Drive,04530,43.9168212,-69.8315882
3,Aegis Drive,04530,43.9168307,-69.8315198
10,Aegis Drive,04530,43.9165277,-69.8317087
10,Aegis Drive,04530,43.9165326,-69.8316527
12,Aegis Drive,04530,43.9164401,-69.8319939
12,Aegis Drive,04530,43.9164763,-69.8319633
14,Aegis Drive,04530,43.9162817,-69.8321038
14,Aegis Drive,04530,43.9163180,-69.8320732
5,Aegis Drive,04530,43.9167558,-69.8319174
5,Aegis Drive,04530,43.9167654,-69.8318365
7,Aegis Drive,04530,43.9164329,-69.8323675
7,Aegis Drive,04530,43.9164691,-69.8323369
9,Aegis Drive,04530,43.9162119,-69.8324205
9,Aegis Drive,04530,43.9162659,-69.8324212
11,Aegis Drive,04530,43.9159637,-69.8325104
11,Aegis Drive,04530,43.9160223,-69.8324988
4,Aegis Drive,04530,43.9170467,-69.8309125
216,Water Street,04530,43.9130417,-69.8156933
218,Water Street,04530,43.9133760,-69.8155297
70,North Street,04530,43.9185640,-69.8171513
58,North Street,04530,43.9184910,-69.8166583
287,Middle Street,04530,43.8963429,-69.8178123
1,Aspen Lane,04530,43.9216545,-69.8299552
3,Aspen Lane,04530,43.9218619,-69.8299083
9,Aspen Lane,04530,43.9225661,-69.8296440
11,Aspen Lane,04530,43.9228215,-69.8298158
17,Aspen Lane,04530,43.9231202,-69.8289728
10,Aspen Lane,04530,43.9226744,-69.8289916
23,Aspen Lane,04530,43.9226642,-69.8279139
6,Aspen Lane,04530,43.9221334,-69.8291086
4,Aspen Lane,04530,43.9219208,-69.8292427
2,Aspen Lane,04530,43.9216587,-69.8293761
24,High Street,04530,43.8748822,-69.8272583
44,High Street,04530,43.8773096,-69.8252630
27,High Street,04530,43.8755631,-69.8258550
28,High Street,04530,43.8758613,-69.8263259
15,High Street,04530,43.8727655,-69.8279882
11,High Street,04530,43.8708362,-69.8289634
10,High Street,04530,43.8716438,-69.8293418
5,High Street,04530,43.8682208,-69.8320385
1,Clearview Avenue,04530,43.9366748,-69.8158855
1,Skyline Drive,04530,43.9365792,-69.8166567
1362,Washington Street,04530,43.9316588,-69.8147579
17,Park Street,04530,43.9300977,-69.8165119
18,Park Street,04530,43.9297240,-69.8165130
20,Park Street,04530,43.9297539,-69.8167439
28,Park Street,04530,43.9296938,-69.8175902
30,Park Street,04530,43.9296922,-69.8178207
34,Park Street,04530,43.9296659,-69.8183436
36,Park Street,04530,43.9296325,-69.8186110
37,Park Street,04530,43.9300633,-69.8188100
6,Tower Circle,04530,43.9288033,-69.8199949
344,Whiskeag Road,04530,43.9380022,-69.8493334
236,Whiskeag Road,04530,43.9373035,-69.8397170
14,Governor Lane,04530,43.9322917,-69.8275554
460,Oak Grove Avenue,04530,43.9325224,-69.8305050
92,Old Brunswick Road,04530,43.9221805,-69.8337680
5,Ancona Avenue,04530,43.9357617,-69.8164025
34,Wing Farm Parkway,04530,43.9144152,-69.8368045
34,Wing Farm Parkway,04530,43.9145885,-69.8371058
5,Anchor Road,04530,43.9160314,-69.8343361
13,Allen Street,04530,43.9126299,-69.8222761
10,Allen Street,04530,43.9123261,-69.8225833
14,Allen Street,04530,43.9126770,-69.8226193
7,Oliver Street,04530,43.9269957,-69.8140216
43,Oliver Street,04530,43.9262641,-69.8156061
33,Oliver Street,04530,43.9264589,-69.8148115
233,Water Street,04530,43.9135674,-69.8145733
10,Pearl Street,04530,43.9212170,-69.8137995
11,Pearl Street,04530,43.9214019,-69.8137584
60,Pearl Street,04530,43.9209124,-69.8161122
64,Pearl Street,04530,43.9209022,-69.8162740
64,Pearl Street,04530,43.9207896,-69.8162849
10,James Way,04530,43.9145341,-69.8309959
10,James Way,04530,43.9146962,-69.8309981
10,James Way,04530,43.9146686,-69.8310725
10,James Way,04530,43.9147585,-69.8310924
10,James Way,04530,43.9147309,-69.8311668
10,James Way,04530,43.9145617,-69.8309215
3,Frisbee Lane,04530,43.8766020,-69.8266162
221,Water Street,04530,43.9133156,-69.8145387
5,Cedar Lane,04530,43.9369418,-69.8532867
40,West Street,04530,43.9066275,-69.8231150
36,West Street,04530,43.9067804,-69.8231358
39,West Street,04530,43.9066030,-69.8233824
35,West Street,04530,43.9067011,-69.8235083
118,Academy Street,04530,43.9130754,-69.8254270
329,Washington Street,04530,43.8970669,-69.8166580
1345,High Street,04530,43.9331854,-69.8190958
20,School Street,04530,43.9115284,-69.8170488
30,School Street,04530,43.9114259,-69.8175331
383,Ridge Road,04530,43.9541613,-69.8502428
184,Ridge Road,04530,43.9414028,-69.8575372
25,Spring View Lane,04530,43.9367095,-69.8554575
25,Spring View Lane,04530,43.9367157,-69.8552271
25,Spring View Lane,04530,43.9367149,-69.8553393
25,Spring View Lane,04530,43.9367313,-69.8549532
25,Spring View Lane,04530,43.9367215,-69.8550590
25,Spring View Lane,04530,43.9367120,-69.8551274
25,Spring View Lane,04530,43.9367133,-69.8555510
25,Spring View Lane,04530,43.9367162,-69.8551711
24,Ridge Road,04530,43.9306792,-69.8575762
50,Ridge Road,04530,43.9324008,-69.8579311
156,Ridge Road,04530,43.9395219,-69.8574167
160,Ridge Road,04530,43.9399048,-69.8573849
15,Ridge Road,04530,43.9305042,-69.8569010
201,Ridge Road,04530,43.9425692,-69.8562768
14,Lenfest Lane,04530,43.9312952,-69.8540780
343,Old Brunswick Road,04530,43.9279170,-69.8543224
97,Old Brunswick Road,04530,43.9227064,-69.8338812
207,North Bath Road,04530,43.9512254,-69.8375514
4,Tank Farm Lane,04530,43.9378978,-69.8500546
83,Whiskeag Road,04530,43.9334751,-69.8270049
275,Whiskeag Road,04530,43.9378705,-69.8434069
28,Carriage House Lane,04530,43.9251002,-69.8153224
9,Carriage House Lane,04530,43.9251349,-69.8148744
20,Beacon Street,04530,43.9252501,-69.8145023
16,Beacon Street,04530,43.9252967,-69.8142849
17,Beacon Street,04530,43.9255974,-69.8144074
27,Beacon Street,04530,43.9255260,-69.8149483
9,Beacon Street,04530,43.9255724,-69.8141330
1172,Washington Street,04530,43.9257236,-69.8137613
59,Beacon Street,04530,43.9253130,-69.8164091
65,Beacon Street,04530,43.9253558,-69.8167211
113,Dummer Street,04530,43.9256919,-69.8156731
7,Bridge Street,04530,43.8755211,-69.8254437
3,Fairview Lane,04530,43.8753117,-69.8288636
16,High Street,04530,43.8735689,-69.8283230
31,Liberty Street,04530,43.9087794,-69.8187174
40,South Street,04530,43.9074057,-69.8169239
49,Western Avenue,04530,43.9083621,-69.8229085
39,Western Avenue,04530,43.9084478,-69.8222684
44,Richardson Street,04530,43.9071368,-69.8223997
51,Lincoln Street,04530,43.9135110,-69.8212047
11,Noble Avenue,04530,43.9276593,-69.8219412
56,Green Street,04530,43.9157637,-69.8215782
76,Green Street,04530,43.9156903,-69.8223930
859,High Street,04530,43.9151121,-69.8189038
215,Oak Street,04530,43.9166424,-69.8233278
29,Park Street,04530,43.9300399,-69.8176635
14,Park Street,04530,43.9297855,-69.8160965
1444,High Street,04530,43.9365976,-69.8191239
5,Kaler Road,04530,43.9361902,-69.8472082
164 1/2,Oak Street,04530,43.9164877,-69.8216816
51,Denny Road,04530,43.9282710,-69.8232702
4,Andrews Road,04530,43.9144753,-69.8229492
25,Andrews Road,04530,43.9144978,-69.8248177
17,Andrews Road,04530,43.9146012,-69.8242151
5,Andrews Road,04530,43.9146843,-69.8233133
4,Cobb Road,04530,43.9139485,-69.8223316
18,Cobb Road,04530,43.9138088,-69.8236126
27,Cobb Road,04530,43.9139047,-69.8246663
11,Cobb Road,04530,43.9140757,-69.8234232
3,Cobb Road,04530,43.9141436,-69.8227453
115,Stony Island Road,04530,43.9542454,-69.8594667
410,Oak Grove Avenue,04530,43.9290077,-69.8290920
29,Office Drive,04530,43.9261786,-69.8206377
30,Office Drive,04530,43.9261896,-69.8209867
31,Office Drive,04530,43.9262731,-69.8206453
32,Office Drive,04530,43.9263066,-69.8209883
40,Office Drive,04530,43.9266846,-69.8210184
41,Office Drive,04530,43.9268312,-69.8206654
43,Office Drive,04530,43.9269526,-69.8206733
53,Office Drive,04530,43.9273143,-69.8210831
54,Office Drive,04530,43.9269565,-69.8213897
56,Office Drive,04530,43.9269373,-69.8215513
5,Old Brunswick Road,04530,43.9191319,-69.8276968
114,Old Brunswick Road,04530,43.9232107,-69.8350904
125,Old Brunswick Road,04530,43.9241230,-69.8353149
267,Old Brunswick Road,04530,43.9256881,-69.8477380
277,Old Brunswick Road,04530,43.9256173,-69.8493938
315,Old Brunswick Road,04530,43.9267455,-69.8520446
323,Old Brunswick Road,04530,43.9271451,-69.8527978
333,Old Brunswick Road,04530,43.9274852,-69.8536685
425,Old Brunswick Road,04530,43.9313562,-69.8609373
3,Old Sloop Lane,04530,43.9335616,-69.8156000
21,Old South Place,04530,43.9100565,-69.8195444
13,Oliver Street,04530,43.9269935,-69.8143392
19,Oliver Street,04530,43.9270261,-69.8148193
20,Oliver Street,04530,43.9266200,-69.8143092
21,Oliver Street,04530,43.9270029,-69.8149124
22,Oliver Street,04530,43.9265700,-69.8143833
23,Oliver Street,04530,43.9268670,-69.8150351
25,Oliver Street,04530,43.9268127,-69.8150717
30,Oliver Street,04530,43.9262807,-69.8145537
31,Oliver Street,04530,43.9264852,-69.8149115
32,Oliver Street,04530,43.9261493,-69.8146703
34,Oliver Street,04530,43.9261127,-69.8147445
54,Oliver Street,04530,43.9258880,-69.8159498
68,Oliver Street,04530,43.9258095,-69.8168643
78,Oliver Street,04530,43.9257424,-69.8174240
88,Oliver Street,04530,43.9255091,-69.8179502
89,Oliver Street,04530,43.9260296,-69.8181941
90,Oliver Street,04530,43.9256964,-69.8182019
93,Oliver Street,04530,43.9260913,-69.8183693
35,Park Street,04530,43.9300083,-69.8183171
50,Pearl Street,04530,43.9209745,-69.8156148
56,Pearl Street,04530,43.9209414,-69.8158261
83,Pearl Street,04530,43.9210354,-69.8171727
85,Pearl Street,04530,43.9209763,-69.8172529
2,Plant Street,04530,43.9134812,-69.8240875
12,Plant Street,04530,43.9137150,-69.8241281
9,Plum Lane,04530,43.9074800,-69.8228777
13,Plum Lane,04530,43.9076958,-69.8229243
8,Pratt Street,04530,43.9152532,-69.8212037
10,Pratt Street,04530,43.9151875,-69.8215640
11,Pratt Street,04530,43.9155751,-69.8215133
15,Pratt Street,04530,43.9153782,-69.8219652
17,Pratt Street,04530,43.9153250,-69.8224751
19,Pratt Street,04530,43.9152698,-69.8226425
3,Quimby Street,04530,43.9092685,-69.8245712
5,Quimby Street,04530,43.9092542,-69.8246830
3,Ranger Circle,04530,43.9188562,-69.8383365
2,Raymond Court,04530,43.9119120,-69.8188101
4,Regatta Lane,04530,43.9328438,-69.8171350
26,Richardson Street,04530,43.9071190,-69.8217395
31,Richardson Street,04530,43.9073644,-69.8220542
54,Richardson Street,04530,43.9070974,-69.8228724
68,Richardson Street,04530,43.9070097,-69.8237990
76,Richardson Street,04530,43.9069344,-69.8242463
81,Richardson Street,04530,43.9071734,-69.8254389
85,Richardson Street,04530,43.9070759,-69.8258547
19,Ridge Road,04530,43.9310231,-69.8567402
82,Ridge Road,04530,43.9345850,-69.8584173
103,Ridge Road,04530,43.9359899,-69.8571729
111,Ridge Road,04530,43.9365010,-69.8568500
112,Ridge Road,04530,43.9364733,-69.8575474
114,Ridge Road,04530,43.9369691,-69.8586634
120,Ridge Road,04530,43.9373452,-69.8577281
129,Ridge Road,04530,43.9377633,-69.8566065
245,Ridge Road,04530,43.9446414,-69.8554841
295,Ridge Road,04530,43.9482449,-69.8534110
7,Riverview Road,04530,43.8825479,-69.8205178
15,Riverview Road,04530,43.8824790,-69.8200750
20,Riverview Road,04530,43.8827309,-69.8188460
45,Robinson Street,04530,43.8883070,-69.8190780
51,Robinson Street,04530,43.8883222,-69.8194828
1,Seekins Drive,04530,43.9250434,-69.8244963
2,Seekins Drive,04530,43.9247931,-69.8248666
5,Seekins Drive,04530,43.9254657,-69.8246142
6,Seekins Drive,04530,43.9252463,-69.8250659
7,Seekins Drive,04530,43.9257403,-69.8246180
16,Seekins Drive,04530,43.9266665,-69.8254032
18,Seekins Drive,04530,43.9268755,-69.8251320
1,Shenandoah Road,04530,43.9222172,-69.8342855
33,Shepard Street,04530,43.9081995,-69.8167106
35,Shepard Street,04530,43.9082657,-69.8169046
37,Shepard Street,04530,43.9082424,-69.8170163
50,Shepard Street,04530,43.9080271,-69.8175302
54,Shepard Street,04530,43.9080301,-69.8177420
3,Sheridan Road,04530,43.9164176,-69.8257909
7,Sheridan Road,04530,43.9163186,-69.8263998
9,Sheridan Road,04530,43.9162937,-69.8267295
11,Snow Park,04530,43.9124458,-69.8215886
12,Snow Park,04530,43.9124566,-69.8219561
15,Snow Park,04530,43.9126121,-69.8216158
16,Snow Park,04530,43.9126095,-69.8219894
25,Snow Park,04530,43.9129536,-69.8217139
32,Snow Park,04530,43.9130859,-69.8220956
34,Snow Park,04530,43.9132478,-69.8221165
38,Snow Park,04530,43.9134635,-69.8221631
48,South Street,04530,43.9074475,-69.8173666
53,South Street,04530,43.9076756,-69.8175752
84,South Street,04530,43.9074173,-69.8190723
18,Stacey Street,04530,43.9100614,-69.8169789
31,Stacey Street,04530,43.9101882,-69.8174975
7,Stony Island Road,04530,43.9545336,-69.8552458
19,Tallman Street,04530,43.9194411,-69.8216537
23,Tallman Street,04530,43.9194389,-69.8219588
1,Tower Circle,04530,43.9286133,-69.8194939
2,Tower Circle,04530,43.9285734,-69.8200291
3,Tower Circle,04530,43.9286351,-69.8195877
4,Tower Circle,04530,43.9286369,-69.8199614
5,Tower Circle,04530,43.9287923,-69.8196397
8,Tower Circle,04530,43.9288750,-69.8200332
12,Tower Circle,04530,43.9290859,-69.8201296
15,Tower Circle,04530,43.9294333,-69.8200284
19,Tower Circle,04530,43.9295657,-69.8203978
20,Tower Circle,04530,43.9292584,-69.8205555
21,Tower Circle,04530,43.9295281,-69.8206090
23,Tower Circle,04530,43.9294546,-69.8208198
32,Tower Circle,04530,43.9289192,-69.8207689
35,Tower Circle,04530,43.9286777,-69.8211829
38,Tower Circle,04530,43.9286224,-69.8207336
71,Union Street,04530,43.9096098,-69.8184299
1,Union Street Court,04530,43.9098302,-69.8190805
2,Union Street Court,04530,43.9100095,-69.8191950
3,Union Street Court,04530,43.9098374,-69.8187070
4,Union Street Court,04530,43.9097246,-69.8193717
5,Union Street Court,04530,43.9100577,-69.8187411
20,Walker Street,04530,43.9130368,-69.8188941
23,Walker Street,04530,43.9132789,-69.8190344
21,Walker Street,04530,43.9135630,-69.8189698
6,Washington Street,04530,43.8860530,-69.8176342
8,Washington Street,04530,43.8861845,-69.8174990
23,Washington Street,04530,43.8870174,-69.8168631
29,Washington Street,04530,43.8874671,-69.8169252
133,Washington Street,04530,43.8900690,-69.8169421
142,Washington Street,04530,43.8906107,-69.8173728
317,Washington Street,04530,43.8965462,-69.8164455
3,Fisher Court,04530,43.9090635,-69.8167660
702,Washington Street,04530,43.9098722,-69.8163536
704,Washington Street,04530,43.9099551,-69.8167222
708,Washington Street,04530,43.9100975,-69.8163256
798,Washington Street,04530,43.9126642,-69.8168713
823,Washington Street,04530,43.9136361,-69.8162992
831,Washington Street,04530,43.9139875,-69.8162667
855,Washington Street,04530,43.9147259,-69.8162581
857,Washington Street,04530,43.9148878,-69.8162728
866,Washington Street,04530,43.9151012,-69.8166556
1033,Washington Street,04530,43.9207303,-69.8144967
1166,Washington Street,04530,43.9252449,-69.8139665
1168,Washington Street,04530,43.9253489,-69.8139119
1198,Washington Street,04530,43.9262025,-69.8135187
1204,Washington Street,04530,43.9265770,-69.8133992
1207,Washington Street,04530,43.9265043,-69.8128563
1218,Washington Street,04530,43.9268882,-69.8133225
1222,Washington Street,04530,43.9269927,-69.8131869
1227,Washington Street,04530,43.9271846,-69.8127784
1252,Washington Street,04530,43.9278811,-69.8135914
1257,Washington Street,04530,43.9283547,-69.8134670
1312,Washington Street,04530,43.9297922,-69.8145269
1330,Washington Street,04530,43.9306473,-69.8145635
1332,Washington Street,04530,43.9307193,-69.8145769
1343,Washington Street,04530,43.9309469,-69.8142125
1364,Washington Street,04530,43.9315298,-69.8151735
1366,Washington Street,04530,43.9319471,-69.8147432
1392,Washington Street,04530,43.9325684,-69.8147267
1401,Washington Street,04530,43.9327925,-69.8142314
1421,Washington Street,04530,43.9342281,-69.8143071
1479,Washington Street,04530,43.9366231,-69.8143024
1485,Washington Street,04530,43.9371009,-69.8142155
1486,Washington Street,04530,43.9371022,-69.8146578
1487,Washington Street,04530,43.9372410,-69.8141302
1493,Washington Street,04530,43.9377150,-69.8139497
1494,Washington Street,04530,43.9379662,-69.8147070
1497,Washington Street,04530,43.9380816,-69.8143036
1522,Washington Street,04530,43.9403699,-69.8147460
1529,Washington Street,04530,43.9413130,-69.8144287
1531,Washington Street,04530,43.9417450,-69.8144595
1539,Washington Street,04530,43.9436755,-69.8139252
1534,Washington Street,04530,43.9417885,-69.8152950
1542,Washington Street,04530,43.9436583,-69.8144545
1550,Washington Street,04530,43.9443287,-69.8145011
1552,Washington Street,04530,43.9447065,-69.8145561
1557,Washington Street,04530,43.9452867,-69.8139908
1570,Washington Street,04530,43.9468910,-69.8150158
195,Water Street,04530,43.9123785,-69.8152608
36,Webber Avenue,04530,43.8836775,-69.8205707
38,Webber Avenue,04530,43.8834854,-69.8209913
39,Webber Avenue,04530,43.8836655,-69.8216099
11,Wesley Street,04530,43.9086253,-69.8169780
12,Wesley Street,04530,43.9084331,-69.8167761
19,Wesley Street,04530,43.9086637,-69.8172712
27,Wesley Street,04530,43.9086444,-69.8174577
31,Wesley Street,04530,43.9085939,-69.8175940
9,West Street,04530,43.9077900,-69.8235918
12,West Street,04530,43.9077024,-69.8232544
37,Western Avenue,04530,43.9084849,-69.8221132
65,Whiskeag Road,04530,43.9338440,-69.8251785
71,Whiskeag Road,04530,43.9339190,-69.8260019
87,Whiskeag Road,04530,43.9341311,-69.8278051
94,Whiskeag Road,04530,43.9332469,-69.8280545
111,Whiskeag Road,04530,43.9338291,-69.8297196
120,Whiskeag Road,04530,43.9335442,-69.8305193
144,Whiskeag Road,04530,43.9339715,-69.8330419
153,Whiskeag Road,04530,43.9345813,-69.8333682
164,Whiskeag Road,04530,43.9333695,-69.8359551
169,Whiskeag Road,04530,43.9352480,-69.8345424
172,Whiskeag Road,04530,43.9348761,-69.8349297
177,Whiskeag Road,04530,43.9359590,-69.8352065
184,Whiskeag Road,04530,43.9351794,-69.8359307
187,Whiskeag Road,04530,43.9356516,-69.8359871
219,Whiskeag Road,04530,43.9372975,-69.8374680
255,Whiskeag Road,04530,43.9378362,-69.8413381
364,Whiskeag Road,04530,43.9381123,-69.8514780
402,Whiskeag Road,04530,43.9396873,-69.8539739
48,Willow Street,04530,43.9204219,-69.8167159
43,Windjammer Way,04530,43.9192129,-69.8239611
47,Windjammer Way,04530,43.9187367,-69.8238300
48,Windjammer Way,04530,43.9184829,-69.8234404
25,Wing Farm Parkway,04530,43.9139890,-69.8353724
54,Winship Street,04530,43.9304190,-69.8169150
58,Winship Street,04530,43.9305314,-69.8169352
60,Winship Street,04530,43.9306527,-69.8169680
62,Winship Street,04530,43.9306523,-69.8170241
72,Winship Street,04530,43.9307039,-69.8179841
10,Drummond Point,04530,43.9279502,-69.8127390
18,Drummond Point,04530,43.9281574,-69.8127293
22,Drummond Point,04530,43.9283247,-69.8126257
25,Drummond Point,04530,43.9283905,-69.8122280
26,Drummond Point,04530,43.9284554,-69.8126088
40,Drummond Point,04530,43.9288167,-69.8124456
125,Dummer Street,04530,43.9261313,-69.8165511
131,Dummer Street,04530,43.9264055,-69.8166109
134,Dummer Street,04530,43.9264163,-69.8169972
4,East Lane,04530,43.8868353,-69.8165182
8,East Lane,04530,43.8870032,-69.8163276
10,East Lane,04530,43.8872156,-69.8162060
13,Edgett Street,04530,43.9136080,-69.8308211
49,Elm Street,04530,43.9145573,-69.8159133
50,Elm Street,04530,43.9142605,-69.8158656
51,Elm Street,04530,43.9144170,-69.8160172
3,Elsinore Avenue,04530,43.9086767,-69.8236165
4,Evergreen Street,04530,43.9068485,-69.8236722
22,Farrin Street,04530,43.9074248,-69.8224162
28,Farrin Street,04530,43.9075915,-69.8223998
36,Farrin Street,04530,43.9078891,-69.8223292
38,Farrin Street,04530,43.9081357,-69.8224633
4,Fisher Court,04530,43.9092431,-69.8174534
6,Fisher Court,04530,43.9092053,-69.8177020
19,Fisher Court,04530,43.9091018,-69.8170654
16,Floral Street,04530,43.9120938,-69.8260798
23,Floral Street,04530,43.9119097,-69.8266252
28,Floral Street,04530,43.9116335,-69.8262353
29,Floral Street,04530,43.9117821,-69.8268477
34,Floral Street,04530,43.9115615,-69.8262281
39,Floral Street,04530,43.9113564,-69.8265678
44,Floral Street,04530,43.9108751,-69.8265175
48,Floral Street,04530,43.9104721,-69.8268482
2,Front Street,04530,43.9119324,-69.8140653
42,Front Street,04530,43.9124944,-69.8141664
70,Front Street,04530,43.9129071,-69.8143650
72,Front Street,04530,43.9129477,-69.8143594
100,Front Street,04530,43.9134252,-69.8143098
102,Front Street,04530,43.9134613,-69.8143103
106,Front Street,04530,43.9135243,-69.8143050
108,Front Street,04530,43.9135603,-69.8143054
114,Front Street,04530,43.9136817,-69.8143258
118,Front Street,04530,43.9137582,-69.8143331
355,Front Street,04530,43.9205964,-69.8130811
359,Front Street,04530,43.9206954,-69.8130824
366,Front Street,04530,43.9208122,-69.8137504
3,Graffam Way,04530,43.8814168,-69.8212990
5,Graffam Way,04530,43.8813659,-69.8208626
6,Graffam Way,04530,43.8818948,-69.8205586
7,Graffam Way,04530,43.8813274,-69.8205882
8,Graffam Way,04530,43.8818297,-69.8202279
10,Graffam Way,04530,43.8817698,-69.8197914
14,Graffam Way,04530,43.8816944,-69.8190061
43,Granite Street,04530,43.9105838,-69.8188355
54,Granite Street,04530,43.9102521,-69.8192669
10,Green Street,04530,43.9157700,-69.8194484
15,Green Street,04530,43.9162369,-69.8196168
18,Green Street,04530,43.9159921,-69.8198563
24,Green Street,04530,43.9159767,-69.8201301
29,Green Street,04530,43.9161457,-69.8204064
41,Green Street,04530,43.9161106,-69.8209104
46,Green Street,04530,43.9158529,-69.8210625
68,Green Street,04530,43.9157280,-69.8221631
80,Green Street,04530,43.9156661,-69.8226293
84,Green Street,04530,43.9156328,-69.8228780
1,Harward Street,04530,43.9353887,-69.8150580
21,Harward Street,04530,43.9350829,-69.8169041
23,Harward Street,04530,43.9350983,-69.8172656
32,Harward Street,04530,43.9345183,-69.8184226
33,Harward Street,04530,43.9348877,-69.8183840
34,Harward Street,04530,43.9344605,-69.8189451
35,Harward Street,04530,43.9348394,-69.8188444
70,Hawks Lane,04530,43.9557966,-69.8537122
1,Heath Lane,04530,43.9267498,-69.8225890
4,Heath Lane,04530,43.9267834,-69.8229258
10,Heath Lane,04530,43.9270392,-69.8230352
14,Heath Lane,04530,43.9272369,-69.8230815
15,Heath Lane,04530,43.9273200,-69.8228024
17,Heath Lane,04530,43.9274007,-69.8228471
18,Heath Lane,04530,43.9274436,-69.8231467
19,Heath Lane,04530,43.9275174,-69.8228923
23,Heath Lane,04530,43.9277057,-69.8230008
36,Heath Lane,04530,43.9282327,-69.8235811
38,Heath Lane,04530,43.9282910,-69.8236131
42,Heath Lane,04530,43.9284524,-69.8237149
43,Heath Lane,04530,43.9286836,-69.8234814
48,Heath Lane,04530,43.9287531,-69.8238374
50,Heath Lane,04530,43.9288385,-69.8238635
50,Heath Lane,04530,43.9279751,-69.8230979
57,Heath Lane,04530,43.9293796,-69.8237402
58,Heath Lane,04530,43.9292648,-69.8240438
61,Heath Lane,04530,43.9295188,-69.8237857
63,Heath Lane,04530,43.9295636,-69.8238113
64,Heath Lane,04530,43.9295300,-69.8241098
65,Heath Lane,04530,43.9296895,-69.8238317
66,Heath Lane,04530,43.9296513,-69.8241364
7,High Street,04530,43.8689786,-69.8324535
18,High Street,04530,43.8740428,-69.8281615
21,High Street,04530,43.8739246,-69.8276931
22,High Street,04530,43.8747613,-69.8277918
26,High Street,04530,43.8753465,-69.8265490
30,High Street,04530,43.8760552,-69.8262788
100,High Street,04530,43.8848301,-69.8218002
108,High Street,04530,43.8852950,-69.8216386
648,High Street,04530,43.9079426,-69.8205241
654,High Street,04530,43.9081589,-69.8205022
660,High Street,04530,43.9083072,-69.8205354
712,High Street,04530,43.9101023,-69.8206846
765,High Street,04530,43.9118886,-69.8195571
797,High Street,04530,43.9130283,-69.8194606
808,High Street,04530,43.9133815,-69.8197955
829,High Street,04530,43.9140884,-69.8191514
845,High Street,04530,43.9146744,-69.8190411
847,High Street,04530,43.9147601,-69.8190236
886,High Street,04530,43.9159481,-69.8190897
895,High Street,04530,43.9163654,-69.8186470
902,High Street,04530,43.9165938,-69.8194411
1163,High Street,04530,43.9255311,-69.8186419
1171,High Street,04530,43.9258149,-69.8186271
1174,High Street,04530,43.9256908,-69.8189804
1187,High Street,04530,43.9263777,-69.8186161
1189,High Street,04530,43.9264452,-69.8186171
1193,High Street,04530,43.9266389,-69.8185948
1200,High Street,04530,43.9268111,-69.8190706
1240,High Street,04530,43.9279688,-69.8189619
1244,High Street,04530,43.9281173,-69.8189701
1246,High Street,04530,43.9282164,-69.8189715
1286,High Street,04530,43.9293262,-69.8192670
1290,High Street,04530,43.9297569,-69.8194660
1295,High Street,04530,43.9293575,-69.8186695
1309,High Street,04530,43.9313288,-69.8187401
1391,High Street,04530,43.9338048,-69.8187367
1431,High Street,04530,43.9357406,-69.8187259
1434,High Street,04530,43.9362694,-69.8190571
17,Huse Street,04530,43.9121901,-69.8283167
21,Huse Street,04530,43.9119251,-69.8282383
25,Huse Street,04530,43.9115872,-69.8282710
1,Kaler Road,04530,43.9366111,-69.8487280
6,Keel Street,04530,43.9179308,-69.8225858
7,Keel Street,04530,43.9178570,-69.8222049
3,Kennebec Circle,04530,43.9229816,-69.8368685
9,Kennebec Circle,04530,43.9233598,-69.8381008
82,Leeman Highway,04530,43.9099975,-69.8221430
10,Lemont Street,04530,43.8854771,-69.8175890
18,Lemont Street,04530,43.8855208,-69.8177701
60,Lemont Street,04530,43.8856378,-69.8196639
62,Lemont Street,04530,43.8855974,-69.8202671
64,Lemont Street,04530,43.8856792,-69.8207911
4,Leonard Court,04530,43.9086840,-69.8244697
5,Leonard Court,04530,43.9087342,-69.8249997
26,Liberty Street,04530,43.9090026,-69.8189757
4,Lilac Street,04530,43.9079962,-69.8243419
5,Lilac Street,04530,43.9079928,-69.8235635
5,Lilac Street,04530,43.9075874,-69.8242179
41,Lincoln Street,04530,43.9130941,-69.8209561
43,Lincoln Street,04530,43.9131433,-69.8210004
95,Lincoln Street,04530,43.9146240,-69.8223098
151,Lincoln Street,04530,43.9161651,-69.8239689
158,Lincoln Street,04530,43.9165401,-69.8250390
160,Lincoln Street,04530,43.9166514,-69.8252087
162,Lincoln Street,04530,43.9168434,-69.8254293
203,Lincoln Street,04530,43.9177333,-69.8256222
2,Lupine Lane,04530,43.9113205,-69.8271775
6,Lupine Lane,04530,43.9112442,-69.8271453
8,Lupine Lane,04530,43.9112582,-69.8270833
2,Maple Street,04530,43.9139015,-69.8213533
4,Maple Street,04530,43.9139545,-69.8208745
5,Maple Street,04530,43.9136716,-69.8207710
15,Maple Grove Avenue,04530,43.9185104,-69.8258572
1,Mariners Way,04530,43.9398753,-69.8152875
2,Mariners Way,04530,43.9400863,-69.8160007
3,Mariners Way,04530,43.9401715,-69.8154224
5,Mariners Way,04530,43.9403199,-69.8154431
7,Matthews Avenue,04530,43.9240941,-69.8237856
10,Matthews Avenue,04530,43.9242390,-69.8242983
3,Matty Way,04530,43.9069891,-69.8222856
4,Matty Way,04530,43.9069139,-69.8220978
7,Matty Way,04530,43.9067501,-69.8223322
8,Mechanic Street,04530,43.9275388,-69.8136241
15,Mechanic Street,04530,43.9278017,-69.8139952
42,Mechanic Street,04530,43.9273623,-69.8150107
10,Middle Street,04530,43.8861653,-69.8189180
65,Middle Street,04530,43.8871821,-69.8183841
82,Middle Street,04530,43.8885440,-69.8186829
130,Middle Street,04530,43.8904468,-69.8188895
135,Middle Street,04530,43.8903658,-69.8182534
285,Middle Street,04530,43.8961859,-69.8177292
286,Middle Street,04530,43.8959209,-69.8182735
601,Middle Street,04530,43.9062411,-69.8179852
602,Middle Street,04530,43.9062162,-69.8183273
647,Middle Street,04530,43.9078127,-69.8179196
651,Middle Street,04530,43.9078938,-69.8179144
653,Middle Street,04530,43.9079662,-69.8178656
669,Middle Street,04530,43.9085468,-69.8178736
674,Middle Street,04530,43.9087285,-69.8182746
685,Middle Street,04530,43.9091814,-69.8179072
688,Middle Street,04530,43.9091206,-69.8182177
694,Middle Street,04530,43.9093501,-69.8182333
717,Middle Street,04530,43.9101902,-69.8178525
723,Middle Street,04530,43.9103925,-69.8178802
726,Middle Street,04530,43.9104217,-69.8182044
734,Middle Street,04530,43.9107866,-69.8181782
746,Middle Street,04530,43.9112229,-69.8182216
806,Middle Street,04530,43.9132542,-69.8180937
816,Middle Street,04530,43.9135378,-69.8180914
822,Middle Street,04530,43.9137629,-69.8180882
880,Middle Street,04530,43.9158499,-69.8183410
885,Middle Street,04530,43.9159908,-69.8175271
897,Middle Street,04530,43.9164128,-69.8176948
898,Middle Street,04530,43.9164198,-69.8179689
954,Middle Street,04530,43.9184184,-69.8180026
987,Middle Street,04530,43.9194392,-69.8175308
990,Middle Street,04530,43.9195615,-69.8180556
995,Middle Street,04530,43.9196236,-69.8175520
997,Middle Street,04530,43.9197764,-69.8175852
1000,Middle Street,04530,43.9198229,-69.8180093
1037,Middle Street,04530,43.9212849,-69.8175249
2,Mill Pond Drive,04530,43.9237660,-69.8385736
5,Mill Pond Drive,04530,43.9222031,-69.8392866
6,Mill Pond Drive,04530,43.9212168,-69.8381143
7,Mill Pond Drive,04530,43.9214579,-69.8390083
8,Mill Pond Drive,04530,43.9204927,-69.8380169
19,Mill Pond Drive,04530,43.9212203,-69.8364140
11,Newton Road,04530,43.9236029,-69.8232307
12,Newton Road,04530,43.9232453,-69.8235061
14,Newton Road,04530,43.9232288,-69.8239231
16,Newton Road,04530,43.9232268,-69.8241972
22,Newton Road,04530,43.9232540,-69.8254245
24,Newton Road,04530,43.9232416,-69.8258853
4,Noble Avenue,04530,43.9271894,-69.8221777
5,Noble Avenue,04530,43.9273361,-69.8218184
6,Noble Avenue,04530,43.9274051,-69.8222305
113,North Street,04530,43.9187939,-69.8196270
115,North Street,04530,43.9187749,-69.8197637
123,North Street,04530,43.9187627,-69.8202057
131,North Street,04530,43.9188373,-69.8204745
141,North Street,04530,43.9186358,-69.8209513
148,North Street,04530,43.9183106,-69.8211088
154,North Street,04530,43.9182449,-69.8214815
168,North Street,04530,43.9181871,-69.8220039
170,North Street,04530,43.9181947,-69.8221908
182,North Street,04530,43.9181903,-69.8221845
186,North Street,04530,43.9180864,-69.8228557
189,North Street,04530,43.9184089,-69.8230781
190,North Street,04530,43.9180429,-69.8232662
192,North Street,04530,43.9180190,-69.8234589
198,North Street,04530,43.9180037,-69.8237202
205,North Street,04530,43.9182992,-69.8239423
217,North Street,04530,43.9182680,-69.8245211
219,North Street,04530,43.9182609,-69.8248759
224,North Street,04530,43.9177814,-69.8252056
97,Oak Street,04530,43.9170144,-69.8185500
119,Oak Street,04530,43.9169766,-69.8194276
131,Oak Street,04530,43.9169364,-69.8200125
133,Oak Street,04530,43.9169313,-69.8200871
140,Oak Street,04530,43.9166604,-69.8202080
149,Oak Street,04530,43.9168760,-69.8208960
150,Oak Street,04530,43.9164574,-69.8208902
155,Oak Street,04530,43.9168745,-69.8211015
157,Oak Street,04530,43.9168648,-69.8212072
166,Oak Street,04530,43.9163996,-69.8220353
168,Oak Street,04530,43.9163945,-69.8221224
169,Oak Street,04530,43.9167926,-69.8218539
170,Oak Street,04530,43.9163896,-69.8221847
171,Oak Street,04530,43.9167828,-69.8219596
173,Oak Street,04530,43.9167774,-69.8220841
175,Oak Street,04530,43.9167632,-69.8221898
208,Oak Street,04530,43.9163592,-69.8226451
211,Oak Street,04530,43.9167301,-69.8230301
212,Oak Street,04530,43.9163283,-69.8231927
10,Oak Grove Avenue,04530,43.9192757,-69.8271134
20,Oak Grove Avenue,04530,43.9197926,-69.8272264
31,Oak Grove Avenue,04530,43.9215553,-69.8268709
301,Oak Grove Avenue,04530,43.9276772,-69.8275661
8,Mariners Way,04530,43.9409929,-69.8163869
2,Andrews Road,04530,43.9144988,-69.8228063
2,Cedar Lane,04530,43.9375496,-69.8526724
2,Cottage Street,04530,43.9086480,-69.8232238
2,Park Street,04530,43.9298035,-69.8148447
2,Town Landing Road,04530,43.9274533,-69.8117107
4,Ancona Avenue,04530,43.9357497,-69.8168260
4,Washington Street,04530,43.8858786,-69.8174700
6,Ancona Avenue,04530,43.9357604,-69.8172124
6,Cedar Lane,04530,43.9362834,-69.8528349
6,Charles Street,04530,43.9120352,-69.8254563
6,Meadow Way,04530,43.9256164,-69.8193158
8,Aspen Lane,04530,43.9223852,-69.8291370
8,Cobb Road,04530,43.9138964,-69.8226921
8,High Street,04530,43.8710246,-69.8302915
8,Maple Street,04530,43.9140939,-69.8209013
10,Park Street,04530,43.9297660,-69.8156851
12,Maple Street,04530,43.9142108,-69.8209154
12,Park Street,04530,43.9297781,-69.8158784
12,Sewall Lane,04530,43.9308446,-69.8272052
14,Andrews Road,04530,43.9143888,-69.8237077
14,Valley Road,04530,43.9264669,-69.8181004
16,Heath Lane,04530,43.9273177,-69.8231262
16,Park Street,04530,43.9297389,-69.8163264
18,Allen Street,04530,43.9130185,-69.8227049
20,Andrews Road,04530,43.9143315,-69.8241553
20,High Street,04530,43.8744412,-69.8278558
20,Richardson Street,04530,43.9071982,-69.8213794
22,Park Street,04530,43.9297211,-69.8169241
24,Meadow Way,04530,43.9261958,-69.8201272
24,Park Street,04530,43.9297146,-69.8172105
24,Riverview Road,04530,43.8821500,-69.8188816
32,Chestnut Street,04530,43.9147713,-69.8206055
32,Park Street,04530,43.9296136,-69.8181124
40,Front Street,04530,43.9124359,-69.8141656
40,High Street,04530,43.8765842,-69.8259749
40,Summer Street,04530,43.9150967,-69.8153913
42,Elm Street,04530,43.9142940,-69.8155858
42,High Street,04530,43.8768692,-69.8257735
44,Summer Street,04530,43.9150449,-69.8157144
50,Front Street,04530,43.9126067,-69.8142053
50,Washington Street,04530,43.8879905,-69.8173930
52,Front Street,04530,43.9126516,-69.8142183
52,Green Street,04530,43.9158014,-69.8213421
52,Heath Lane,04530,43.9289506,-69.8239149
52,Richardson Street,04530,43.9070987,-69.8226919
54,Heath Lane,04530,43.9290043,-69.8239655
54,Washington Street,04530,43.8882559,-69.8174216
56,Front Street,04530,43.9128171,-69.8143700
56,Washington Street,04530,43.8884226,-69.8174052
58,Pearl Street,04530,43.9209008,-69.8158380
60,North Street,04530,43.9186708,-69.8167044
60,South Street,04530,43.9074569,-69.8179396
68,Western Avenue,04530,43.9079992,-69.8233021
70,Middle Street,04530,43.8880305,-69.8187257
84,Lincoln Street,04530,43.9144868,-69.8226006
86,Court Street,04530,43.9103540,-69.8238763
86,Green Street,04530,43.9156360,-69.8230586
88,Union Street,04530,43.9092575,-69.8192221
90,Washington Street,04530,43.8897998,-69.8174489
92,Bedford Street,04530,43.9172153,-69.8231738
98,Academy Street,04530,43.9131895,-69.8239590
120,Bedford Street,04530,43.9170937,-69.8244301
132,Washington Street,04530,43.8900038,-69.8178812
188,Lincoln Street,04530,43.9174325,-69.8261412
194,North Street,04530,43.9179913,-69.8235644
260,Whiskeag Road,04530,43.9371598,-69.8421072
330,Washington Street,04530,43.8972399,-69.8170153
390,Ridge Road,04530,43.9547198,-69.8508053
606,Washington Street,04530,43.9065456,-69.8163206
736,Middle Street,04530,43.9108453,-69.8181479
1168,High Street,04530,43.9254966,-69.8190650
1176,High Street,04530,43.9257854,-69.8189755
1,Ancona Avenue,04530,43.9353927,-69.8163850
1,Cedar Lane,04530,43.9381848,-69.8532235
3,Bedford Street,04530,43.9180359,-69.8192304
3,Heath Lane,04530,43.9268264,-69.8225838
3,High Street,04530,43.8683266,-69.8329609
3,Park Street,04530,43.9301297,-69.8145502
3,Valley Road,04530,43.9260165,-69.8175087
5,Aspen Lane,04530,43.9221371,-69.8298374
5,Brown Street,04530,43.9196306,-69.8209650
5,Cottage Street,04530,43.9086873,-69.8227698
5,Crawford Drive,04530,43.9246805,-69.8242546
5,Evergreen Street,04530,43.9066783,-69.8241805
5,Riverview Road,04530,43.8825982,-69.8210289
5,Valley Road,04530,43.9261245,-69.8175040
7,Aspen Lane,04530,43.9223727,-69.8296227
9,Andrews Road,04530,43.9146595,-69.8236305
9,Cottage Street,04530,43.9087018,-69.8226206
9,Heath Lane,04530,43.9270737,-69.8226246
9,High Street,04530,43.8703877,-69.8299715
15,Western Avenue,04530,43.9085512,-69.8210306
17,High Street,04530,43.8733382,-69.8278655
17,Walker Street,04530,43.9132358,-69.8187660
17,Western Avenue,04530,43.9085541,-69.8212486
19,Andrews Road,04530,43.9145731,-69.8243642
19,Aspen Lane,04530,43.9230735,-69.8285860
21,Andrews Road,04530,43.9145495,-69.8245195
23,High Street,04530,43.8744690,-69.8271281
23,Park Street,04530,43.9300584,-69.8169785
23,Winter Street,04530,43.9154769,-69.8176260
25,High Street,04530,43.8746756,-69.8265709
25,Richardson Street,04530,43.9074392,-69.8216692
29,Andrews Road,04530,43.9144552,-69.8251161
33,Park Street,04530,43.9300232,-69.8181118
33,Union Street,04530,43.9097693,-69.8169064
35,Bedford Street,04530,43.9178817,-69.8206545
35,Elm Street,04530,43.9145296,-69.8153711
35,Ridge Road,04530,43.9316502,-69.8571604
41,Ridge Road,04530,43.9320984,-69.8574346
45,Pearl Street,04530,43.9212056,-69.8154000
45,Western Avenue,04530,43.9084000,-69.8226538
49,Ridge Road,04530,43.9325850,-69.8573731
51,Heath Lane,04530,43.9290515,-69.8236609
57,Washington Street,04530,43.8882818,-69.8169488
61,Middle Street,04530,43.8877668,-69.8184606
61,Middle Street,04530,43.8865444,-69.8181575
63,Office Drive,04530,43.9271697,-69.8217850
69,Oliver Street,04530,43.9261066,-69.8168684
69,Western Avenue,04530,43.9083260,-69.8235556
71,Court Street,04530,43.9109110,-69.8234107
71,Green Street,04530,43.9159518,-69.8223405
75,Green Street,04530,43.9159364,-69.8226019
81,Lincoln Street,04530,43.9143561,-69.8219947
85,Bedford Street,04530,43.9175530,-69.8231598
89,Pearl Street,04530,43.9209657,-69.8174707
89,Union Street,04530,43.9094853,-69.8194618
95,High Street,04530,43.8842373,-69.8216054
101,High Street,04530,43.8850441,-69.8208322
119,Lincoln Street,04530,43.9153036,-69.8229481
151,North Street,04530,43.9185839,-69.8212807
163,Oak Street,04530,43.9168215,-69.8215927
285,Ridge Road,04530,43.9458981,-69.8547918
415,Ridge Road,04530,43.9553063,-69.8482151
1,Crawford Drive,04530,43.9249673,-69.8238101
92,Commercial Street,04530,43.9174513,-69.8140545
3,Maple Street,04530,43.9136431,-69.8209823
57,Chestnut Street,04530,43.9148970,-69.8219088
53,Chestnut Street,04530,43.9148938,-69.8217157
49,Chestnut Street,04530,43.9149356,-69.8215481
28,Maple Street,04530,43.9147691,-69.8209106
80,Lincoln Street,04530,43.9142903,-69.8223862
67,Chestnut Street,04530,43.9148082,-69.8223622
47,Lincoln Street,04530,43.9132870,-69.8210522
60,Lincoln Street,04530,43.9134223,-69.8216456
41,Chestnut Street,04530,43.9149656,-69.8211251
37,Chestnut Street,04530,43.9151495,-69.8205982
21,Chestnut Street,04530,43.9151521,-69.8202309
13,Chestnut Street,04530,43.9151457,-69.8198633
14,Riverview Road,04530,43.8830245,-69.8199704
33,Riverview Road,04530,43.8824103,-69.8189848
18,Tallman Street,04530,43.9195077,-69.8211564
17,Valley Road,04530,43.9265522,-69.8175098
604,Middle Street,04530,43.9063470,-69.8182918
607,Middle Street,04530,43.9065707,-69.8178527
610,Middle Street,04530,43.9065178,-69.8183252
620,Middle Street,04530,43.9067524,-69.8182537
622,Middle Street,04530,43.9069639,-69.8182628
624,High Street,04530,43.9072484,-69.8206516
624,Washington Street,04530,43.9072348,-69.8162616
630,Washington Street,04530,43.9073920,-69.8163197
638,High Street,04530,43.9076407,-69.8205698
645,Middle Street,04530,43.9077050,-69.8178807
658,Washington Street,04530,43.9083186,-69.8164196
662,Washington Street,04530,43.9087681,-69.8165191
670,Middle Street,04530,43.9084198,-69.8186377
672,Middle Street,04530,43.9085595,-69.8186210
675,Middle Street,04530,43.9086860,-69.8179253
676,Washington Street,04530,43.9089629,-69.8163537
677,Middle Street,04530,43.9087855,-69.8178644
680,Washington Street,04530,43.9091343,-69.8163000
680,Middle Street,04530,43.9088820,-69.8182206
682,Washington Street,04530,43.9092018,-69.8163009
702,Middle Street,04530,43.9096651,-69.8182500
706,Middle Street,04530,43.9098049,-69.8182208
714,Middle Street,04530,43.9100254,-69.8182301
716,Middle Street,04530,43.9101380,-69.8182254
722,Middle Street,04530,43.9103182,-69.8181967
722,Washington Street,04530,43.9105751,-69.8162699
732,Middle Street,04530,43.9106741,-69.8181642
735,Middle Street,04530,43.9108389,-69.8177866
739,High Street,04530,43.9110498,-69.8197635
756,Middle Street,04530,43.9115026,-69.8181444
781,High Street,04530,43.9124106,-69.8195954
785,High Street,04530,43.9125867,-69.8195231
805,High Street,04530,43.9133169,-69.8193961
812,Middle Street,04530,43.9133936,-69.8181081
814,Washington Street,04530,43.9133585,-69.8167251
818,Middle Street,04530,43.9136279,-69.8180864
818,Washington Street,04530,43.9134981,-69.8167208
819,High Street,04530,43.9138409,-69.8191417
823,Middle Street,04530,43.9138103,-69.8177526
828,Middle Street,04530,43.9139879,-69.8180975
831,Middle Street,04530,43.9141481,-69.8177385
833,High Street,04530,43.9142827,-69.8190482
838,Washington Street,04530,43.9141551,-69.8167485
839,Washington Street,04530,43.9141807,-69.8163191
841,High Street,04530,43.9144853,-69.8190572
842,Washington Street,04530,43.9142813,-69.8167378
848,Washington Street,04530,43.9144839,-69.8167343
849,High Street,04530,43.9148686,-69.8189565
851,Washington Street,04530,43.9144823,-69.8163233
852,High Street,04530,43.9149648,-69.8193502
854,Washington Street,04530,43.9147092,-69.8167062
859,Washington Street,04530,43.9150105,-69.8161125
862,High Street,04530,43.9152850,-69.8192736
870,Washington Street,04530,43.9152276,-69.8166075
876,High Street,04530,43.9157180,-69.8191675
877,Middle Street,04530,43.9157198,-69.8176542
887,Middle Street,04530,43.9161246,-69.8177033
888,Middle Street,04530,43.9160497,-69.8181009
879,High Street,04530,43.9158428,-69.8187146
893,High Street,04530,43.9161221,-69.8186873
894,High Street,04530,43.9162637,-69.8190255
900,High Street,04530,43.9164405,-69.8194763
903,High Street,04530,43.9165555,-69.8185064
906,High Street,04530,43.9166152,-69.8189743
907,High Street,04530,43.9167350,-69.8185960
924,High Street,04530,43.9173490,-69.8189781
927,High Street,04530,43.9173967,-69.8186051
928,High Street,04530,43.9174211,-69.8189604
950,Middle Street,04530,43.9182206,-69.8179562
952,High Street,04530,43.9181369,-69.8195930
959,Middle Street,04530,43.9184483,-69.8175919
967,Middle Street,04530,43.9186331,-69.8175695
969,High Street,04530,43.9188203,-69.8190793
970,High Street,04530,43.9187951,-69.8194650
974,High Street,04530,43.9189211,-69.8194605
981,Middle Street,04530,43.9192674,-69.8176343
1001,Middle Street,04530,43.9199025,-69.8175745
1034,Washington Street,04530,43.9207454,-69.8149141
1037,Washington Street,04530,43.9209124,-69.8142126
1044,Washington Street,04530,43.9210746,-69.8148252
1054,Washington Street,04530,43.9214132,-69.8146990
1055,Washington Street,04530,43.9213942,-69.8142005
1059,Washington Street,04530,43.9216327,-69.8142100
1062,Washington Street,04530,43.9216977,-69.8145721
1065,Washington Street,04530,43.9217819,-69.8141249
1068,Washington Street,04530,43.9218737,-69.8145060
1167,High Street,04530,43.9256800,-69.8186066
1177,High Street,04530,43.9260938,-69.8186559
1198,High Street,04530,43.9265544,-69.8190795
1202,Washington Street,04530,43.9263877,-69.8134278
1213,Washington Street,04530,43.9267115,-69.8128405
1219,Washington Street,04530,43.9270142,-69.8126889
1224,Washington Street,04530,43.9270693,-69.8131692
1234,Washington Street,04530,43.9274392,-69.8130684
1270,High Street,04530,43.9286879,-69.8191337
1271,High Street,04530,43.9287509,-69.8185117
1282,High Street,04530,43.9288855,-69.8191987
1284,High Street,04530,43.9291466,-69.8191960
1288,High Street,04530,43.9295785,-69.8192331
1298,Washington Street,04530,43.9293791,-69.8143842
1299,High Street,04530,43.9304144,-69.8188086
1301,Washington Street,04530,43.9295573,-69.8140191
1302,High Street,04530,43.9300556,-69.8198750
1303,Washington Street,04530,43.9296382,-69.8140327
1311,High Street,04530,43.9314765,-69.8188543
1321,Washington Street,04530,43.9302234,-69.8140407
1321,High Street,04530,43.9318780,-69.8187352
1322,High Street,04530,43.9306941,-69.8193606
1323,High Street,04530,43.9321474,-69.8188323
1324,High Street,04530,43.9310939,-69.8194719
1325,High Street,04530,43.9325619,-69.8187882
1325,Washington Street,04530,43.9304388,-69.8141308
1333,Washington Street,04530,43.9307494,-69.8141413
1345,Washington Street,04530,43.9310730,-69.8142142
1353,Washington Street,04530,43.9312618,-69.8142542
1379,Washington Street,04530,43.9322362,-69.8133331
1384,Washington Street,04530,43.9323390,-69.8147049
1400,Washington Street,04530,43.9327714,-69.8146672
1404,Washington Street,04530,43.9329740,-69.8146638
1408,Washington Street,04530,43.9331276,-69.8145973
1417,Washington Street,04530,43.9336933,-69.8141752
1419,Washington Street,04530,43.9339370,-69.8140851
1427,High Street,04530,43.9352452,-69.8187565
1433,High Street,04530,43.9361921,-69.8185452
1443,High Street,04530,43.9364985,-69.8185058
1447,High Street,04530,43.9368321,-69.8184356
1463,Washington Street,04530,43.9354262,-69.8142175
1472,Washington Street,04530,43.9362417,-69.8147520
1475,Washington Street,04530,43.9363038,-69.8142482
1482,Washington Street,04530,43.9366378,-69.8147636
1483,Washington Street,04530,43.9368621,-69.8142434
1484,Washington Street,04530,43.9368320,-69.8146666
1488,Washington Street,04530,43.9373453,-69.8146611
1490,Washington Street,04530,43.9376201,-69.8146337
1492,Washington Street,04530,43.9377911,-69.8146485
1495,Washington Street,04530,43.9379197,-69.8142827
1502,Washington Street,04530,43.9385463,-69.8148021
1505,Washington Street,04530,43.9386845,-69.8143555
1506,Washington Street,04530,43.9388425,-69.8149308
1507,Washington Street,04530,43.9389007,-69.8143460
1510,Washington Street,04530,43.9390586,-69.8149275
1512,Washington Street,04530,43.9394173,-69.8151255
1532,Washington Street,04530,43.9414258,-69.8150221
1537,Washington Street,04530,43.9433375,-69.8139766
1538,Washington Street,04530,43.9418275,-69.8148843
1543,Washington Street,04530,43.9442202,-69.8139388
1559,Washington Street,04530,43.9454749,-69.8141179
1560,Washington Street,04530,43.9456501,-69.8148057
1561,Washington Street,04530,43.9465340,-69.8145810
1569,Washington Street,04530,43.9478832,-69.8153970
1571,Washington Street,04530,43.9480469,-69.8158043
1600,Washington Street,04530,43.9487670,-69.8164559
7,Cato Avenue,04530,43.9068184,-69.8228499
7,Kennebec Circle,04530,43.9238095,-69.8375465
7,Adams Court,04530,43.9278086,-69.8243352
7,Bath Street,04530,43.9072107,-69.8164916
7,Brown Street,04530,43.9196965,-69.8211901
7,Cobb Road,04530,43.9141052,-69.8230811
7,Edgett Street,04530,43.9131291,-69.8310635
7,Meadow Way,04530,43.9259809,-69.8193270
7,Noble Avenue,04530,43.9273945,-69.8218255
7,Old Sloop Lane,04530,43.9341685,-69.8157142
7,Pratt Street,04530,43.9155163,-69.8209271
7,Tower Circle,04530,43.9289628,-69.8197168
8,North Bath Road,04530,43.9387437,-69.8415938
8,Barque Road,04530,43.9337041,-69.8164491
8,Adams Court,04530,43.9278736,-69.8246911
8,Bedford Street,04530,43.9177410,-69.8195502
8,Bernard Street,04530,43.9245781,-69.8234622
8,Charles Street,04530,43.9118503,-69.8255035
8,Cottage Street,04530,43.9092368,-69.8233502
8,Crawford Drive,04530,43.9240053,-69.8248681
8,Huse Street,04530,43.9121732,-69.8269216
8,Matthews Avenue,04530,43.9240189,-69.8242330
8,Seekins Drive,04530,43.9255880,-69.8251267
9,Ancona Avenue,04530,43.9360279,-69.8175898
9,Bailey Street,04530,43.9188221,-69.8213400
9,Noble Avenue,04530,43.9275785,-69.8219090
9,Adams Court,04530,43.9280285,-69.8244379
9,Centre Street,04530,43.9127751,-69.8145750
9,Fairview Lane,04530,43.8767429,-69.8283047
9,Barque Road,04530,43.9333060,-69.8167178
9,Dike Road,04530,43.9139791,-69.8249538
9,Drummond Point,04530,43.9279273,-69.8121656
9,Graffam Way,04530,43.8813035,-69.8201584
9,Matthews Avenue,04530,43.9243412,-69.8238513
9,Mill Pond Drive,04530,43.9209389,-69.8391754
9,Seekins Drive,04530,43.9260496,-69.8247967
9,Tower Circle,04530,43.9291244,-69.8197813
9,Valley Road,04530,43.9262823,-69.8174688
10,Riverview Road,04530,43.8828284,-69.8203225
10,Tower Circle,04530,43.9290185,-69.8201100
10,Bath Street,04530,43.9069854,-69.8165197
10,Bowman Street,04530,43.9279666,-69.8211606
10,Cato Avenue,04530,43.9066657,-69.8228104
10,Denny Road,04530,43.9283053,-69.8197513
10,Newton Road,04530,43.9232566,-69.8231886
10,Bernard Street,04530,43.9247216,-69.8235389
10,Cobb Road,04530,43.9138771,-69.8228724
10,Cottage Street,04530,43.9094433,-69.8234278
10,Crawford Drive,04530,43.9239489,-69.8251975
10,Seekins Drive,04530,43.9259696,-69.8252752
10,Woodduck Lane,04530,43.9372682,-69.8445010
11,Barque Road,04530,43.9330417,-69.8165335
11,Crawford Drive,04530,43.9242859,-69.8252769
11,Elsinore Avenue,04530,43.9095218,-69.8237901
11,Graffam Way,04530,43.8813240,-69.8198039
11,Trufant Street,04530,43.9283438,-69.8130994
11,Andrews Road,04530,43.9146495,-69.8237674
11,Edgett Street,04530,43.9134255,-69.8311548
11,Floral Street,04530,43.9122854,-69.8263440
11,Harward Street,04530,43.9352217,-69.8157410
11,Mill Pond Drive,04530,43.9204268,-69.8390249
11,Plum Lane,04530,43.9075474,-69.8228911
11,Seekins Drive,04530,43.9262299,-69.8247618
11,Sheridan Road,04530,43.9162418,-69.8270651
12,Fairview Lane,04530,43.8768451,-69.8291027
12,Denny Road,04530,43.9283000,-69.8198572
12,Frisbee Lane,04530,43.8760259,-69.8272243
12,Heath Lane,04530,43.9271020,-69.8230610
12,Huse Street,04530,43.9120942,-69.8272567
12,Adams Court,04530,43.9282474,-69.8246714
12,Aspen Lane,04530,43.9223620,-69.8286135
12,Cobb Road,04530,43.9138535,-69.8230216
12,Dike Road,04530,43.9139179,-69.8253328
12,Graffam Way,04530,43.8816088,-69.8190174
12,Green Street,04530,43.9157650,-69.8195106
12,Lenfest Lane,04530,43.9295548,-69.8556415
12,Oak Grove Avenue,04530,43.9193567,-69.8271145
12,Pratt Street,04530,43.9151585,-69.8218501
12,Seekins Drive,04530,43.9261809,-69.8253217
12,Tank Farm Lane,04530,43.9372978,-69.8502267
13,Andrews Road,04530,43.9146304,-69.8239166
13,Barque Road,04530,43.9327120,-69.8166909
13,Governor Lane,04530,43.9316851,-69.8273912
13,Huse Street,04530,43.9123483,-69.8276152
13,Seekins Drive,04530,43.9264261,-69.8244033
13,Tower Circle,04530,43.9293441,-69.8199089
13,Walker Street,04530,43.9132240,-69.8185354
14,Bowman Street,04530,43.9277246,-69.8216245
14,Green Street,04530,43.9159989,-69.8195450
14,Frisbee Lane,04530,43.8763288,-69.8270418
14,Walker Street,04530,43.9130217,-69.8184953
14,Pratt Street,04530,43.9151205,-69.8221236
14,Barque Road,04530,43.9327071,-69.8161116
14,Crawford Drive,04530,43.9238634,-69.8258129
14,Dike Road,04530,43.9140664,-69.8253411
14,Floral Street,04530,43.9122608,-69.8260136
14,Huse Street,04530,43.9120335,-69.8275673
14,Seekins Drive,04530,43.9264551,-69.8253754
14,Washington Street,04530,43.8865006,-69.8173664
15,Webber Avenue,04530,43.8851937,-69.8181888
15,Wing Farm Parkway,04530,43.9133008,-69.8352943
15,Bath Street,04530,43.9072035,-69.8168713
15,Bedford Street,04530,43.9179897,-69.8200270
15,Bowman Street,04530,43.9279573,-69.8218208
15,Centre Street,04530,43.9127465,-69.8147988
15,Crawford Drive,04530,43.9242317,-69.8259239
15,Floral Street,04530,43.9121229,-69.8264040
15,Huse Street,04530,43.9124442,-69.8280462
15,Mill Pond Drive,04530,43.9200179,-69.8370823
15,Newton Road,04530,43.9235735,-69.8241895
15,Oliver Street,04530,43.9270596,-69.8145332
15,Seekins Drive,04530,43.9266552,-69.8244687
16,Andrews Road,04530,43.9143698,-69.8238507
16,Crawford Drive,04530,43.9238340,-69.8261426
16,Dike Road,04530,43.9141921,-69.8253927
16,Fitts Street,04530,43.9191003,-69.8208394
16,Green Street,04530,43.9159893,-69.8196196
16,Harward Street,04530,43.9347699,-69.8159778
16,Riverview Road,04530,43.8827885,-69.8196124
16,Stacey Street,04530,43.9100722,-69.8167238
16,Tower Circle,04530,43.9292426,-69.8202438
16,West Street,04530,43.9078281,-69.8232997
19,Bowman Street,04530,43.9279155,-69.8220008
17,Crawford Drive,04530,43.9241439,-69.8262403
17,Edgett Street,04530,43.9138986,-69.8310929
17,Harward Street,04530,43.9351196,-69.8161819
17,Tower Circle,04530,43.9295134,-69.8201541
17,Trufant Street,04530,43.9285382,-69.8129899
17,Webber Avenue,04530,43.8850886,-69.8184053
17,West Street,04530,43.9074123,-69.8235244
17,Woodduck Lane,04530,43.9366194,-69.8445791
17,Adams Court,04530,43.9287315,-69.8243355
17,Denny Road,04530,43.9285854,-69.8202348
17,Mill Pond Drive,04530,43.9207168,-69.8369301
17,Newton Road,04530,43.9236155,-69.8246011
17,Oliver Street,04530,43.9270679,-69.8146267
17,Riverview Road,04530,43.8825004,-69.8196084
17,Seekins Drive,04530,43.9269063,-69.8246155
17,Tallman Street,04530,43.9194744,-69.8214050
17,Wesley Street Court,04530,43.9088538,-69.8171243
18,Denny Road,04530,43.9283010,-69.8203555
18,Newton Road,04530,43.9232150,-69.8245832
18,Webber Avenue,04530,43.8849606,-69.8174076
18,Wesley Street,04530,43.9084091,-69.8169937
19,Bedford Street,04530,43.9179270,-69.8199887
19,Centre Street,04530,43.9127462,-69.8148423
19,Adams Court,04530,43.9289254,-69.8242883
19,Snow Park,04530,43.9127511,-69.8217049
19,Denny Road,04530,43.9285973,-69.8204717
19,Mechanic Street,04530,43.9278003,-69.8141945
19,Newton Road,04530,43.9236135,-69.8248876
20,Adams Court,04530,43.9289456,-69.8246063
20,Crawford Drive,04530,43.9236609,-69.8270433
20,Harward Street,04530,43.9346579,-69.8165245
20,Lemont Street,04530,43.8854865,-69.8181555
20,Mechanic Street,04530,43.9273377,-69.8140511
20,Newton Road,04530,43.9232075,-69.8250066
20,Webber Avenue,04530,43.8847321,-69.8178838
21,Cobb Road,04530,43.9140090,-69.8239329
21,Cobb Road,04530,43.9140345,-69.8241388
21,Cobb Road,04530,43.9140125,-69.8240762
21,Cobb Road,04530,43.9139985,-69.8241383
21,Lemont Street,04530,43.8858566,-69.8180299
21,Newton Road,04530,43.9236194,-69.8253112
21,Webber Avenue,04530,43.8849333,-69.8187144
21,Crawford Drive,04530,43.9241075,-69.8269125
21,Floral Street,04530,43.9120042,-69.8266390
21,Heath Lane,04530,43.9275711,-69.8229429
21,Mill Pond Drive,04530,43.9219377,-69.8374144
22,Andrews Road,04530,43.9143033,-69.8243231
22,Adams Court,04530,43.9291711,-69.8245596
22,Bedford Street,04530,43.9176025,-69.8200279
22,Carriage House Lane,04530,43.9249071,-69.8152575
22,Crawford Drive,04530,43.9236221,-69.8274289
22,Floral Street,04530,43.9119450,-69.8261026
22,Oak Grove Avenue,04530,43.9201119,-69.8272682
22,Snow Park,04530,43.9128433,-69.8220237
23,Andrews Road,04530,43.9145304,-69.8246687
23,Bath Street,04530,43.9072055,-69.8172138
23,Bedford Street,04530,43.9179160,-69.8202564
23,Cobb Road,04530,43.9139384,-69.8243616
23,Huse Street,04530,43.9118035,-69.8282428
23,Newton Road,04530,43.9235902,-69.8256223
24,Andrews Road,04530,43.9143023,-69.8244725
24,Bailey Street,04530,43.9192019,-69.8217438
24,Cummings Street,04530,43.9263108,-69.8122184
24,Huse Street,04530,43.9117157,-69.8279365
24,Oak Grove Avenue,04530,43.9203283,-69.8272214
24,Washington Street,04530,43.8870946,-69.8173994
25,Cobb Road,04530,43.9139374,-69.8245049
25,Green Street,04530,43.9162061,-69.8201457
25,Sandpiper Lane,04530,43.9703359,-69.8508786
25,Centre Street,04530,43.9127407,-69.8149855
25,Newton Road,04530,43.9236240,-69.8259279
25,Park Street,04530,43.9300247,-69.8172709
25,Tower Circle,04530,43.9294136,-69.8208815
25,Washington Street,04530,43.8872152,-69.8168969
26,Centre Street,04530,43.9125075,-69.8148578
26,Chestnut Street,04530,43.9147734,-69.8203066
26,Webber Avenue,04530,43.8845251,-69.8185034
26,Mechanic Street,04530,43.9273676,-69.8142758
26,Newton Road,04530,43.9232828,-69.8264152
26,Oak Grove Avenue,04530,43.9206020,-69.8273497
26,Wesley Street Court,04530,43.9087746,-69.8175031
27,Washington Street,04530,43.8874597,-69.8160786
27,Newton Road,04530,43.9237414,-69.8264963
27,Tower Circle,04530,43.9292464,-69.8209727
27,Andrews Road,04530,43.9144743,-69.8249606
27,Bath Street,04530,43.9072041,-69.8174193
27,Centre Street,04530,43.9127358,-69.8150415
27,Farrin Street,04530,43.9077782,-69.8220972
27,Lemont Street,04530,43.8858932,-69.8185657
27,Mechanic Street,04530,43.9276725,-69.8144481
27,Oliver Street,04530,43.9266687,-69.8150573
28,Lemont Street,04530,43.8855142,-69.8186912
28,Newton Road,04530,43.9234189,-69.8268905
28,Andrews Road,04530,43.9142733,-69.8247461
28,Green Street,04530,43.9157412,-69.8203137
28,Oak Grove Avenue,04530,43.9208587,-69.8273346
28,Office Drive,04530,43.9261220,-69.8209982
28,Oliver Street,04530,43.9263484,-69.8145173
28,Webber Avenue,04530,43.8843378,-69.8188929
29,Denny Road,04530,43.9286341,-69.8216121
29,Oak Grove Avenue,04530,43.9211589,-69.8269152
29,Oliver Street,04530,43.9266059,-69.8150253
30,Washington Street,04530,43.8874640,-69.8173547
30,Denny Road,04530,43.9283769,-69.8216957
30,Harward Street,04530,43.9344845,-69.8181106
30,Liberty Street,04530,43.9090674,-69.8187400
30,Webber Avenue,04530,43.8840808,-69.8195741
31,West Street,04530,43.9068863,-69.8234237
31,Harward Street,04530,43.9351804,-69.8183818
31,Tower Circle,04530,43.9289167,-69.8211301
31,Webber Avenue,04530,43.8846024,-69.8196497
32,Farrin Street,04530,43.9077854,-69.8223526
32,Bedford Street,04530,43.9175907,-69.8204200
32,Stacey Street,04530,43.9100218,-69.8174766
32,Court Street,04530,43.9110286,-69.8214695
32,Denny Road,04530,43.9283627,-69.8217952
32,South Street,04530,43.9074258,-69.8166315
32,Webber Avenue,04530,43.8839206,-69.8199391
33,Denny Road,04530,43.9286098,-69.8218547
33,Office Drive,04530,43.9264217,-69.8206349
33,Tower Circle,04530,43.9288445,-69.8211478
33,Andrews Road,04530,43.9144218,-69.8253709
33,Centre Street,04530,43.9127251,-69.8152717
33,Green Street,04530,43.9161535,-69.8205747
33,Webber Avenue,04530,43.8843016,-69.8201746
34,Office Drive,04530,43.9263740,-69.8210141
34,Webber Avenue,04530,43.8838105,-69.8202302
34,Meadow Way,04530,43.9267049,-69.8200719
34,Tower Circle,04530,43.9288471,-69.8207866
35,Floral Street,04530,43.9114815,-69.8267065
35,Office Drive,04530,43.9265565,-69.8206741
35,Mechanic Street,04530,43.9277727,-69.8149104
35,Oliver Street,04530,43.9263135,-69.8150026
35,Webber Avenue,04530,43.8841265,-69.8207324
36,Granite Street,04530,43.9104109,-69.8184595
36,Centre Street,04530,43.9125009,-69.8151504
36,Office Drive,04530,43.9264866,-69.8210032
36,Bedford Street,04530,43.9175578,-69.8206189
36,Denny Road,04530,43.9283433,-69.8219818
36,Mechanic Street,04530,43.9273727,-69.8148115
37,Office Drive,04530,43.9266600,-69.8206755
37,Tower Circle,04530,43.9286409,-69.8212883
37,Denny Road,04530,43.9286074,-69.8221848
37,Wing Farm Parkway,04530,43.9149713,-69.8358657
37,Granite Street,04530,43.9106090,-69.8184498
37,Oliver Street,04530,43.9262814,-69.8150769
37,Webber Avenue,04530,43.8839248,-69.8212338
38,Lenfest Lane,04530,43.9305037,-69.8533628
38,Office Drive,04530,43.9265721,-69.8210044
38,Richardson Street,04530,43.9071447,-69.8219329
38,Centre Street,04530,43.9124957,-69.8152499
38,Granite Street,04530,43.9101808,-69.8185311
38,Western Avenue,04530,43.9081294,-69.8220896
39,Court Street,04530,43.9112510,-69.8218337
39,Allen Street,04530,43.9134571,-69.8224307
39,Denny Road,04530,43.9285380,-69.8224454
39,Granite Street,04530,43.9105845,-69.8187297
39,Heath Lane,04530,43.9284681,-69.8234037
39,Office Drive,04530,43.9267726,-69.8206708
39,Union Street,04530,43.9097585,-69.8171491
40,Court Street,04530,43.9109443,-69.8219229
40,Farrin Street,04530,43.9079405,-69.8226972
40,Floral Street,04530,43.9111646,-69.8263223
40,Lemont Street,04530,43.8855604,-69.8191587
40,Robinson Street,04530,43.8879685,-69.8192103
40,Union Street,04530,43.9095023,-69.8170958
40,Washington Street,04530,43.8877202,-69.8174205
40,Webber Avenue,04530,43.8832664,-69.8213866
41,North Bath Road,04530,43.9402205,-69.8391226
41,Drummond Point,04530,43.9286940,-69.8119705
41,Floral Street,04530,43.9110923,-69.8269938
41,Shepard Street,04530,43.9082506,-69.8171223
42,Office Drive,04530,43.9267611,-69.8210132
42,Richardson Street,04530,43.9071374,-69.8223188
42,North Bath Road,04530,43.9405144,-69.8420113
42,Drummond Point,04530,43.9291371,-69.8123378
44,Union Street,04530,43.9094687,-69.8173818
44,Chestnut Street,04530,43.9146810,-69.8212581
44,Court Street,04530,43.9109200,-69.8221716
44,Front Street,04530,43.9125527,-69.8141983
44,Heath Lane,04530,43.9285690,-69.8237726
44,Pearl Street,04530,43.9209942,-69.8153660
45,Vine Street,04530,43.9120328,-69.8151377
45,Drummond Point,04530,43.9292030,-69.8119338
45,Bedford Street,04530,43.9177693,-69.8212508
45,Carriage House Lane,04530,43.9257649,-69.8149079
45,Chestnut Street,04530,43.9149186,-69.8214046
45,Green Street,04530,43.9161043,-69.8211594
45,Heath Lane,04530,43.9287600,-69.8235012
45,Windjammer Way,04530,43.9189615,-69.8238642
46,South Street,04530,43.9074480,-69.8173043
46,Denny Road,04530,43.9281206,-69.8228944
46,Floral Street,04530,43.9108059,-69.8267470
47,Carriage House Lane,04530,43.9259582,-69.8149479
47,Granite Street,04530,43.9105239,-69.8190277
47,Academy Street,04530,43.9137629,-69.8218496
47,Beacon Street,04530,43.9253619,-69.8158741
47,Centre Street,04530,43.9126871,-69.8155577
47,Court Street,04530,43.9112340,-69.8223192
47,Oak Grove Avenue,04530,43.9233795,-69.8273571
47,Shepard Street,04530,43.9082217,-69.8173896
47,Willow Street,04530,43.9204702,-69.8162494
48,Lincoln Street,04530,43.9132077,-69.8214309
48,Oliver Street,04530,43.9259534,-69.8156268
49,Bath Street,04530,43.9072139,-69.8185527
49,Green Street,04530,43.9160758,-69.8213645
49,Heath Lane,04530,43.9289392,-69.8236282
50,Granite Street,04530,43.9102941,-69.8190495
50,Beacon Street,04530,43.9250520,-69.8157702
50,Wing Farm Parkway,04530,43.9154380,-69.8372921
51,Winship Street,04530,43.9323136,-69.8169970
51,Bath Street,04530,43.9072530,-69.8187525
51,Richardson Street,04530,43.9073314,-69.8228819
51,Oak Grove Avenue,04530,43.9240405,-69.8274721
52,Court Street,04530,43.9108772,-69.8224886
52,Chestnut Street,04530,43.9146826,-69.8216630
52,Floral Street,04530,43.9100060,-69.8265491
52,Office Drive,04530,43.9269763,-69.8211346
52,Union Street,04530,43.9094221,-69.8176116
52,Winship Street,04530,43.9303875,-69.8169083
53,Court Street,04530,43.9111739,-69.8225487
53,Lemont Street,04530,43.8859256,-69.8190703
53,Pearl Street,04530,43.9212030,-69.8157612
53,Shepard Street,04530,43.9082514,-69.8176454
53,Beacon Street,04530,43.9253420,-69.8161416
53,Elm Street,04530,43.9144118,-69.8161106
54,Bath Street,04530,43.9067754,-69.8188082
54,Bedford Street,04530,43.9174711,-69.8214024
54,Centre Street,04530,43.9124432,-69.8156664
54,Willow Street,04530,43.9206651,-69.8167005
55,Oliver Street,04530,43.9262416,-69.8162411
55,Bedford Street,04530,43.9177432,-69.8217487
55,Shepard Street,04530,43.9082901,-69.8178887
55,Willow Street,04530,43.9206948,-69.8163210
56,Centre Street,04530,43.9124471,-69.8157537
57,Green Street,04530,43.9160333,-69.8216504
57,Academy Street,04530,43.9137240,-69.8222476
57,Denny Road,04530,43.9278583,-69.8236881
57,Granite Street,04530,43.9105068,-69.8195257
57,Ridge Road,04530,43.9331527,-69.8573065
58,Denny Road,04530,43.9276629,-69.8233241
59,Denny Road,04530,43.9276590,-69.8238659
59,Bedford Street,04530,43.9177000,-69.8221342
59,Middle Street,04530,43.8863760,-69.8184104
59,Pearl Street,04530,43.9211692,-69.8160784
59,Washington Street,04530,43.8882713,-69.8165316
60,Heath Lane,04530,43.9293278,-69.8240509
60,Richardson Street,04530,43.9070730,-69.8231274
60,Chestnut Street,04530,43.9146219,-69.8219673
60,Denny Road,04530,43.9274857,-69.8235459
58,South Street,04530,43.9074483,-69.8178897
83,South Street,04530,43.9077954,-69.8190837
21,Bath Street,04530,43.9072204,-69.8170272
55,Union Street,04530,43.9097133,-69.8178086
47,Union Street,04530,43.9096794,-69.8175155
58,Union Street,04530,43.9093482,-69.8178659
32,Western Avenue,04530,43.9081678,-69.8217601
20,Western Avenue,04530,43.9082200,-69.8213935
16,Western Avenue,04530,43.9082129,-69.8211256
12,Western Avenue,04530,43.9083002,-69.8208777
41,Western Avenue,04530,43.9083877,-69.8224792
58,Western Avenue,04530,43.9080691,-69.8229730
8,West Street,04530,43.9072620,-69.8231424
10,West Street,04530,43.9074909,-69.8232390
13,West Street,04530,43.9075698,-69.8235390
37,Elm Street,04530,43.9145381,-69.8154459
39,Elm Street,04530,43.9144703,-69.8154886
41,Elm Street,04530,43.9144563,-69.8155569
41,Elm Street,04530,43.9145194,-69.8155391
99,Commercial Street,04530,43.9151974,-69.8132629
99,Commercial Street,04530,43.9150807,-69.8132114
99,Commercial Street,04530,43.9149908,-69.8131978
99,Commercial Street,04530,43.9152560,-69.8132574
99,Commercial Street,04530,43.9150802,-69.8132799
99,Commercial Street,04530,43.9153234,-69.8132646
99,Commercial Street,04530,43.9151518,-69.8133432
99,Commercial Street,04530,43.9150531,-69.8132983
99,Commercial Street,04530,43.9149719,-69.8133221
99,Commercial Street,04530,43.9152737,-69.8133013
97,Commercial Street,04530,43.9148430,-69.8130837
97,Commercial Street,04530,43.9148967,-69.8131280
97,Commercial Street,04530,43.9149556,-69.8130790
97,Commercial Street,04530,43.9147659,-69.8131698
97,Commercial Street,04530,43.9148603,-69.8131835
97,Commercial Street,04530,43.9149244,-69.8130412
52,Elm Street,04530,43.9142415,-69.8160024
14,Elm Street Court,04530,43.9146557,-69.8153666
8,Elm Street Court,04530,43.9146501,-69.8155222
4,Elm Street Court,04530,43.9145090,-69.8157445
61,Academy Street,04530,43.9136583,-69.8226203
63,Academy Street,04530,43.9136346,-69.8227944
69,Academy Street,04530,43.9135678,-69.8233103
75,Academy Street,04530,43.9134388,-69.8243423
40,Hawks Lane,04530,43.9535834,-69.8558928
253,Ridge Road,04530,43.9453058,-69.8551447
40,Ridge Road,04530,43.9317573,-69.8578907
5,Ridge Road,04530,43.9294543,-69.8570291
86,Ridge Road,04530,43.9351607,-69.8584879
96,Ridge Road,04530,43.9356328,-69.8579589
100,Ridge Road,04530,43.9359090,-69.8577511
102,Ridge Road,04530,43.9360852,-69.8588625
89,Ridge Road,04530,43.9350457,-69.8576078
119,Ridge Road,04530,43.9371590,-69.8567536
3,Cedar Lane,04530,43.9375470,-69.8536255
61,Ridge Road,04530,43.9334957,-69.8571931
62,Willow Street,04530,43.9208500,-69.8166470
62,Green Street,04530,43.9157388,-69.8219079
62,Middle Street,04530,43.8878102,-69.8186853
62,Bedford Street,04530,43.9173073,-69.8222658
62,Heath Lane,04530,43.9294536,-69.8240900
62,South Street,04530,43.9074451,-69.8183317
63,Chestnut Street,04530,43.9148548,-69.8221324
64,Hawks Lane,04530,43.9549760,-69.8544795
64,Ridge Road,04530,43.9335099,-69.8583084
65,Lenfest Lane,04530,43.9310421,-69.8505861
65,Academy Street,04530,43.9136199,-69.8229561
65,Denny Road,04530,43.9272263,-69.8239347
65,Green Street,04530,43.9160073,-69.8221358
65,Richardson Street,04530,43.9072274,-69.8235654
66,Denny Road,04530,43.9271072,-69.8235905
66,Richardson Street,04530,43.9070251,-69.8235315
66,Front Street,04530,43.9128666,-69.8143645
67,Academy Street,04530,43.9135826,-69.8231362
67,Centre Street,04530,43.9126382,-69.8160926
67,Court Street,04530,43.9110392,-69.8231198
67,Heath Lane,04530,43.9297615,-69.8238389
67,Pearl Street,04530,43.9210955,-69.8163140
68,Denny Road,04530,43.9270488,-69.8235835
68,Bath Street,04530,43.9065292,-69.8192532
68,Heath Lane,04530,43.9297096,-69.8241683
68,South Street,04530,43.9074569,-69.8185747
69,Middle Street,04530,43.8880468,-69.8183337
69,Pearl Street,04530,43.9211392,-69.8165015
70,Office Drive,04530,43.9266102,-69.8219704
70,Winship Street,04530,43.9306563,-69.8177155
70,Lenfest Lane,04530,43.9311658,-69.8533162
70,Court Street,04530,43.9107071,-69.8229782
70,Denny Road,04530,43.9269229,-69.8235568
70,Oliver Street,04530,43.9257901,-69.8170509
71,Richardson Street,04530,43.9071838,-69.8239944
71,Pearl Street,04530,43.9210301,-69.8166495
71,Western Avenue,04530,43.9083189,-69.8239167
71,Winship Street,04530,43.9310663,-69.8176651
72,Bath Street,04530,43.9070666,-69.8196404
72,South Street,04530,43.9074328,-69.8187985
72,Court Street,04530,43.9106194,-69.8232759
73,Denny Road,04530,43.9268080,-69.8238791
73,North Street,04530,43.9189184,-69.8173306
73,Winship Street,04530,43.9310420,-69.8179264
74,Ridge Road,04530,43.9341347,-69.8584357
74,Washington Street,04530,43.8889131,-69.8174243
75,Lincoln Street,04530,43.9140036,-69.8215602
75,Winship Street,04530,43.9310493,-69.8181570
76,Front Street,04530,43.9129972,-69.8143600
76,Middle Street,04530,43.8883629,-69.8188236
76,Oliver Street,04530,43.9257569,-69.8172872
77,Lincoln Street,04530,43.9141061,-69.8217048
77,Ridge Road,04530,43.9344646,-69.8576680
78,Bedford Street,04530,43.9173333,-69.8224156
78,Denny Road,04530,43.9264509,-69.8234631
78,Washington Street,04530,43.8891291,-69.8174459
79,Richardson Street,04530,43.9074363,-69.8251934
79,Bedford Street,04530,43.9176092,-69.8228554
79,Denny Road,04530,43.9262731,-69.8237721
80,North Bath Road,04530,43.9427635,-69.8385789
80,Bedford Street,04530,43.9172363,-69.8227568
80,Court Street,04530,43.9104410,-69.8236720
80,Union Street,04530,43.9092927,-69.8187057
81,Denny Road,04530,43.9261294,-69.8237265
82,Lincoln Street,04530,43.9143930,-69.8224934
82,Academy Street,04530,43.9133277,-69.8228960
83,Green Street,04530,43.9159615,-69.8228700
83,Front Street,04530,43.9132699,-69.8139963
83,Richardson Street,04530,43.9070951,-69.8256869
84,Front Street,04530,43.9131773,-69.8143625
84,Pearl Street,04530,43.9207294,-69.8171498
85,Denny Road,04530,43.9259046,-69.8236860
86,Academy Street,04530,43.9133284,-69.8234253
86,Denny Road,04530,43.9260779,-69.8233645
87,Bedford Street,04530,43.9175338,-69.8233339
87,Richardson Street,04530,43.9070639,-69.8262717
88,Middle Street,04530,43.8886929,-69.8186351
88,Richardson Street,04530,43.9067349,-69.8263170
89,Court Street,04530,43.9106137,-69.8240729
89,Green Street,04530,43.9159005,-69.8232055
90,Denny Road,04530,43.9259032,-69.8232500
90,Dummer Street,04530,43.9246623,-69.8167614
90,Richardson Street,04530,43.9066872,-69.8266899
92,Front Street,04530,43.9132899,-69.8143453
92,Oak Street,04530,43.9167364,-69.8183968
92,Stony Island Road,04530,43.9546756,-69.8579213
93,Bedford Street,04530,43.9174734,-69.8235821
93,Ridge Road,04530,43.9354886,-69.8573837
94,Denny Road,04530,43.9256692,-69.8232343
94,Front Street,04530,43.9133440,-69.8143399
94,Richardson Street,04530,43.9068443,-69.8271630
95,Court Street,04530,43.9104815,-69.8242890
96,Old Brunswick Road,04530,43.9223952,-69.8339516
97,Whiskeag Road,04530,43.9338610,-69.8284243
97,Denny Road,04530,43.9251672,-69.8235513
97,Ridge Road,04530,43.9356975,-69.8571437
98,Old Brunswick Road,04530,43.9224794,-69.8341334
100,Leeman Highway,04530,43.9097359,-69.8228154
100,South Street,04530,43.9074573,-69.8197703
100,Bedford Street,04530,43.9171772,-69.8234535
100,Middle Street,04530,43.8891381,-69.8187035
101,Leeman Highway,04530,43.9102608,-69.8230655
101,Dummer Street,04530,43.9250481,-69.8163120
102,Court Street,04530,43.9099676,-69.8243878
103,South Street,04530,43.9079014,-69.8199881
104,Academy Street,04530,43.9130340,-69.8242993
104,Front Street,04530,43.9134883,-69.8143107
104,Middle Street,04530,43.8893721,-69.8187067
104,South Street,04530,43.9074730,-69.8200943
104,Winship Street,04530,43.9306532,-69.8187745
105,Front Street,04530,43.9135986,-69.8139821
105,Court Street,04530,43.9104860,-69.8249242
105,Winship Street,04530,43.9310218,-69.8188605
106,North Street,04530,43.9185597,-69.8190134
107,Lincoln Street,04530,43.9150489,-69.8226893
110,Academy Street,04530,43.9131211,-69.8246991
110,Middle Street,04530,43.8896290,-69.8186666
111,Bedford Street,04530,43.9173972,-69.8241665
112,Bedford Street,04530,43.9171181,-69.8241627
112,Front Street,04530,43.9136413,-69.8143190
114,Dummer Street,04530,43.9255669,-69.8167863
115,Bowery Street,04530,43.9273196,-69.8121573
115,Dummer Street,04530,43.9256521,-69.8162144
115,Leeman Highway,04530,43.9100744,-69.8239409
116,Dummer Street,04530,43.9256747,-69.8168313
116,Bowery Street,04530,43.9268367,-69.8123314
116,Oak Street,04530,43.9167664,-69.8192317
117,Old Brunswick Road,04530,43.9236172,-69.8349154
118,Lincoln Street,04530,43.9150530,-69.8233744
119,Dummer Street,04530,43.9258218,-69.8163974
119,Old Brunswick Road,04530,43.9237326,-69.8351350
120,North Street,04530,43.9184541,-69.8199275
120,Oak Street,04530,43.9167555,-69.8194993
121,Bowery Street,04530,43.9273942,-69.8124262
122,Oak Street,04530,43.9167460,-69.8195615
123,Bedford Street,04530,43.9173981,-69.8246585
125,Leeman Highway,04530,43.9097217,-69.8247829
126,Front Street,04530,43.9139111,-69.8143600
126,Middle Street,04530,43.8900210,-69.8186284
127,Whiskeag Road,04530,43.9341610,-69.8311321
127,Dummer Street,04530,43.9262121,-69.8165896
127,North Bath Road,04530,43.9457588,-69.8365088
128,Dummer Street,04530,43.9261918,-69.8169069
128,Front Street,04530,43.9139697,-69.8143484
128,North Street,04530,43.9184071,-69.8202008
128,Whiskeag Road,04530,43.9337904,-69.8313201
129,Bedford Street,04530,43.9172814,-69.8252361
131,Lincoln Street,04530,43.9156021,-69.8233882
132,Dummer Street,04530,43.9263536,-69.8169403
132,Bedford Street,04530,43.9168126,-69.8259458
132,Leeman Highway,04530,43.9089815,-69.8250404
132,Oak Street,04530,43.9166444,-69.8199213
133,Bedford Street,04530,43.9171437,-69.8262368
133,Dummer Street,04530,43.9264639,-69.8166366
134,Front Street,04530,43.9141046,-69.8143627
134,Lincoln Street,04530,43.9153391,-69.8236461
134,North Street,04530,43.9183780,-69.8204931
135,Leeman Highway,04530,43.9092516,-69.8256606
135,Oak Street,04530,43.9172464,-69.8200977
136,Front Street,04530,43.9141586,-69.8143696
136,Ridge Road,04530,43.9382549,-69.8576851
136,Washington Street,04530,43.8903081,-69.8175056
137,Oak Street,04530,43.9169348,-69.8202304
137,Ridge Road,04530,43.9383625,-69.8565466
138,Bedford Street,04530,43.9166762,-69.8267535
138,Lincoln Street,04530,43.9156377,-69.8240737
138,North Street,04530,43.9183363,-69.8206545
139,Bedford Street,04530,43.9170304,-69.8269515
140,Bedford Street,04530,43.9166744,-69.8270026
141,Leeman Highway,04530,43.9088403,-69.8265143
141,Front Street,04530,43.9143002,-69.8140913
141,Lincoln Street,04530,43.9159292,-69.8235982
142,Oak Street,04530,43.9166233,-69.8203507
143,North Street,04530,43.9186353,-69.8210198
143,Front Street,04530,43.9143496,-69.8140982
143,Oak Street,04530,43.9169329,-69.8204920
144,Lincoln Street,04530,43.9154886,-69.8247629
144,North Street,04530,43.9183168,-69.8208660
145,Ridge Road,04530,43.9389918,-69.8566677
146,Oak Street,04530,43.9165940,-69.8206679
148,Front Street,04530,43.9142980,-69.8143965
149,Front Street,04530,43.9144980,-69.8141190
149,North Street,04530,43.9186332,-69.8213187
150,Whiskeag Road,04530,43.9341267,-69.8333618
152,North Street,04530,43.9182591,-69.8213821
155,Ridge Road,04530,43.9395766,-69.8567260
159,Oak Street,04530,43.9168278,-69.8213375
160,Front Street,04530,43.9145634,-69.8144250
161,Oak Street,04530,43.9168181,-69.8214432
162,Front Street,04530,43.9145995,-69.8144130
164,North Street,04530,43.9182110,-69.8218049
164,Oak Street,04530,43.9165257,-69.8214018
165,Whiskeag Road,04530,43.9351025,-69.8341292
166,Whiskeag Road,04530,43.9343861,-69.8348231
167,Old Brunswick Road,04530,43.9250996,-69.8390346
170,Front Street,04530,43.9147835,-69.8144903
172,Oak Street,04530,43.9163848,-69.8222282
172,Ridge Road,04530,43.9407787,-69.8579207
172,Front Street,04530,43.9148420,-69.8144973
173,North Street,04530,43.9185227,-69.8222888
174,Old Brunswick Road,04530,43.9244087,-69.8399404
176,Front Street,04530,43.9149544,-69.8145175
182,Old Brunswick Road,04530,43.9242722,-69.8407420
185,Oak Street,04530,43.9167699,-69.8225075
186,Lincoln Street,04530,43.9173077,-69.8259651
188,North Street,04530,43.9180668,-69.8230734
190,Front Street,04530,43.9152244,-69.8145336
191,Whiskeag Road,04530,43.9358773,-69.8365260
192,Water Street,04530,43.9123540,-69.8155407
193,Water Street,04530,43.9122843,-69.8152221
197,Centre Street,04530,43.9121937,-69.8215851
199,Whiskeag Road,04530,43.9361836,-69.8371097
200,Centre Street,04530,43.9118324,-69.8217421
200,Whiskeag Road,04530,43.9356495,-69.8375071
201,Lincoln Street,04530,43.9175084,-69.8249777
201,North Street,04530,43.9185119,-69.8237833
203,Ridge Road,04530,43.9430027,-69.8560961
206,Centre Street,04530,43.9117954,-69.8218848
206,North Street,04530,43.9178847,-69.8238992
206,Oak Street,04530,43.9163742,-69.8224460
209,Centre Street,04530,43.9121777,-69.8219274
209,North Street,04530,43.9182976,-69.8241540
209,Oak Street,04530,43.9167045,-69.8228429
210,Oak Street,04530,43.9163480,-69.8229563
210,Whiskeag Road,04530,43.9360312,-69.8382476
212,Congress Avenue,04530,43.9175212,-69.8281851
212,Centre Street,04530,43.9119229,-69.8223037
214,Whiskeag Road,04530,43.9365349,-69.8383170
216,Centre Street,04530,43.9117445,-69.8227061
217,Ridge Road,04530,43.9436964,-69.8560437
218,Oak Street,04530,43.9163124,-69.8235288
219,Oak Street,04530,43.9166257,-69.8237697
220,North Street,04530,43.9178449,-69.8245090
220,Centre Street,04530,43.9119831,-69.8226969
221,Oak Street,04530,43.9165333,-69.8241048
222,North Street,04530,43.9177709,-69.8247882
223,North Street,04530,43.9187993,-69.8251263
223,Whiskeag Road,04530,43.9374320,-69.8381489
225,North Street,04530,43.9185406,-69.8254154
226,North Street,04530,43.9177482,-69.8254294
234,Centre Street,04530,43.9120463,-69.8233018
235,Centre Street,04530,43.9124520,-69.8232264
235,Whiskeag Road,04530,43.9380279,-69.8391541
236,Congress Avenue,04530,43.9176761,-69.8273154
237,Centre Street,04530,43.9127130,-69.8232363
237,Whiskeag Road,04530,43.9381612,-69.8393927
238,Congress Avenue,04530,43.9177096,-69.8270418
241,Congress Avenue,04530,43.9180702,-69.8269659
242,Congress Avenue,04530,43.9176453,-69.8265925
244,Centre Street,04530,43.9120440,-69.8236194
245,Centre Street,04530,43.9124491,-69.8236312
245,North Street,04530,43.9181326,-69.8258208
247,Centre Street,04530,43.9124480,-69.8237806
250,Centre Street,04530,43.9121763,-69.8239948
253,Centre Street,04530,43.9124949,-69.8241487
262,North Bath Road,04530,43.9547746,-69.8403681
268,Centre Street,04530,43.9123492,-69.8249936
271,Whiskeag Road,04530,43.9381079,-69.8429617
277,Centre Street,04530,43.9127028,-69.8252787
280,Centre Street,04530,43.9124455,-69.8253685
282,Whiskeag Road,04530,43.9374859,-69.8436755
289,Ridge Road,04530,43.9471151,-69.8539867
290,Whiskeag Road,04530,43.9376108,-69.8444374
291,Centre Street,04530,43.9130549,-69.8257693
292,Centre Street,04530,43.9124771,-69.8259855
295,Washington Street,04530,43.8957156,-69.8167641
295,Centre Street,04530,43.9129272,-69.8259917
295,Old Brunswick Road,04530,43.9260493,-69.8506270
298,Centre Street,04530,43.9126147,-69.8262614
300,Washington Street,04530,43.8958462,-69.8173822
301,Centre Street,04530,43.9130064,-69.8262543
301,Washington Street,04530,43.8959397,-69.8169041
302,Ridge Road,04530,43.9490811,-69.8541644
304,Washington Street,04530,43.8961076,-69.8173484
305,Centre Street,04530,43.9132527,-69.8276713
305,Ridge Road,04530,43.9492471,-69.8530328
305,Washington Street,04530,43.8962239,-69.8168271
306,Whiskeag Road,04530,43.9377759,-69.8458601
307,Old Brunswick Road,04530,43.9264528,-69.8514612
313,Washington Street,04530,43.8963905,-69.8168231
316,Whiskeag Road,04530,43.9378099,-69.8473371
320,Washington Street,04530,43.8965238,-69.8176965
322,Whiskeag Road,04530,43.9379922,-69.8482555
324,Washington Street,04530,43.8967442,-69.8170957
325,Old Brunswick Road,04530,43.9273644,-69.8511565
332,Washington Street,04530,43.8973886,-69.8169986
340,Oak Grove Avenue,04530,43.9279714,-69.8298375
360,Front Street,04530,43.9206160,-69.8134861
364,Front Street,04530,43.9207869,-69.8135134
370,Front Street,04530,43.9209490,-69.8135031
370,Whiskeag Road,04530,43.9390215,-69.8527059
374,Front Street,04530,43.9211117,-69.8134182
379,Ridge Road,04530,43.9538617,-69.8505812
385,Ridge Road,04530,43.9536959,-69.8480551
387,Old Brunswick Road,04530,43.9296828,-69.8577861
387,Whiskeag Road,04530,43.9412437,-69.8523202
390,Front Street,04530,43.9216870,-69.8135443
399,Old Brunswick Road,04530,43.9301269,-69.8585961
399,Centre Street,04530,43.9128761,-69.8299391
400,Ridge Road,04530,43.9552411,-69.8503329
401,Oak Grove Avenue,04530,43.9293251,-69.8275454
404,Centre Street,04530,43.9124046,-69.8303996
406,Ridge Road,04530,43.9557105,-69.8501589
408,Centre Street,04530,43.9123566,-69.8308099
420,Centre Street,04530,43.9122471,-69.8316304
421,Ridge Road,04530,43.9559789,-69.8479691
450,Oak Grove Avenue,04530,43.9307117,-69.8293960
59,Academy Street,04530,43.9136909,-69.8224775
77,Academy Street,04530,43.9134191,-69.8245849
84,Academy Street,04530,43.9133034,-69.8231448
94,Academy Street,04530,43.9132180,-69.8237539
112,Academy Street,04530,43.9130963,-69.8250226
6,Adams Court,04530,43.9276807,-69.8246012
10,Adams Court,04530,43.9280580,-69.8247124
11,Adams Court,04530,43.9282087,-69.8244217
13,Adams Court,04530,43.9283890,-69.8243806
14,Adams Court,04530,43.9284050,-69.8246673
15,Adams Court,04530,43.9285831,-69.8243210
16,Adams Court,04530,43.9285942,-69.8246450
18,Adams Court,04530,43.9287655,-69.8246100
2,Aegis Drive,04530,43.9171859,-69.8309581
16,Allen Street,04530,43.9128476,-69.8226839
20,Allen Street,04530,43.9131622,-69.8227567
2,Ancona Avenue,04530,43.9353758,-69.8168582
7,Ancona Avenue,04530,43.9360656,-69.8167244
8,Ancona Avenue,04530,43.9356989,-69.8176289
10,Ancona Avenue,04530,43.9356088,-69.8182756
6,Andrews Road,04530,43.9144786,-69.8231174
7,Andrews Road,04530,43.9146651,-69.8234749
8,Andrews Road,04530,43.9144596,-69.8232603
10,Andrews Road,04530,43.9144315,-69.8234094
12,Andrews Road,04530,43.9144123,-69.8235648
15,Andrews Road,04530,43.9146113,-69.8240658
18,Andrews Road,04530,43.9143550,-69.8240187
26,Andrews Road,04530,43.9142788,-69.8246092
1,Angel Place,04530,43.8740609,-69.8293877
21,Aspen Lane,04530,43.9230092,-69.8281429
11,Bailey Street,04530,43.9189432,-69.8213977
14,Bailey Street,04530,43.9188731,-69.8217580
18,Bailey Street,04530,43.9190214,-69.8217912
22,Bailey Street,04530,43.9191390,-69.8217243
5,Barque Road,04530,43.9339499,-69.8173246
12,Barque Road,04530,43.9329825,-69.8159970
44,North Bath Road,04530,43.9407781,-69.8398220
118,North Bath Road,04530,43.9453444,-69.8377678
206,North Bath Road,04530,43.9513197,-69.8394221
249,North Bath Road,04530,43.9543341,-69.8390470
9,Bath Street,04530,43.9071918,-69.8166097
11,Bath Street,04530,43.9071959,-69.8166720
13,Bath Street,04530,43.9071995,-69.8167966
31,Bath Street,04530,43.9071986,-69.8175500
39,Bath Street,04530,43.9071919,-69.8178612
47,Bath Street,04530,43.9072339,-69.8182790
48,Bath Street,04530,43.9069809,-69.8184125
52,Bath Street,04530,43.9069783,-69.8187674
37,Beacon Street,04530,43.9255096,-69.8153529
41,Beacon Street,04530,43.9253731,-69.8155628
52,Beacon Street,04530,43.9249829,-69.8159873
6,Bedford Street,04530,43.9177691,-69.8194074
10,Bedford Street,04530,43.9175013,-69.8197089
28,Bedford Street,04530,43.9175922,-69.8202208
37,Bedford Street,04530,43.9178486,-69.8208658
38,Bedford Street,04530,43.9175384,-69.8208117
42,Bedford Street,04530,43.9175188,-69.8210294
48,Bedford Street,04530,43.9174992,-69.8212595
51,Bedford Street,04530,43.9178262,-69.8214820
57,Bedford Street,04530,43.9177061,-69.8219101
58,Bedford Street,04530,43.9174274,-69.8218440
60,Bedford Street,04530,43.9173581,-69.8220921
75,Bedford Street,04530,43.9176290,-69.8226128
103,Bedford Street,04530,43.9174300,-69.8239864
108,Bedford Street,04530,43.9171155,-69.8238948
110,Bedford Street,04530,43.9168843,-69.8241221
124,Bedford Street,04530,43.9170563,-69.8246164
125,Bedford Street,04530,43.9173160,-69.8248068
127,Bedford Street,04530,43.9172787,-69.8249869
131,Bedford Street,04530,43.9171696,-69.8257639
134,Bedford Street,04530,43.9167748,-69.8261944
135,Bedford Street,04530,43.9171052,-69.8265726
136,Bedford Street,04530,43.9167549,-69.8264619
141,Bedford Street,04530,43.9169743,-69.8272372
142,Bedford Street,04530,43.9166641,-69.8271893
1,Bernard Street,04530,43.9236951,-69.8229330
3,Bernard Street,04530,43.9239834,-69.8229121
4,Bernard Street,04530,43.9241200,-69.8233126
6,Bernard Street,04530,43.9243940,-69.8233973
7,Bernard Street,04530,43.9244236,-69.8230427
94,Bluff Road,04530,43.9117279,-69.8299792
96,Bluff Road,04530,43.9117953,-69.8299988
4,Bowman Street,04530,43.9283104,-69.8209224
6,Bowman Street,04530,43.9281386,-69.8210260
9,Bowman Street,04530,43.9280994,-69.8214677
11,Bowman Street,04530,43.9280400,-69.8215852
12,Bowman Street,04530,43.9278345,-69.8213706
13,Bowman Street,04530,43.9279939,-69.8217341
3,Breezy Lane,04530,43.8822243,-69.8204449
2,Bumpy Hill Road,04530,43.8771981,-69.8282301
4,Bumpy Hill Road,04530,43.8778521,-69.8280587
7,Bumpy Hill Road,04530,43.8784905,-69.8269286
2,Carriage House Lane,04530,43.9243271,-69.8151499
16,Carriage House Lane,04530,43.9246999,-69.8152733
4,Centre Street,04530,43.9126421,-69.8142929
11,Centre Street,04530,43.9127604,-69.8147367
23,Centre Street,04530,43.9127456,-69.8149171
141,Centre Street,04530,43.9119059,-69.8190280
192,Centre Street,04530,43.9117856,-69.8213678
195,Centre Street,04530,43.9120740,-69.8213282
223,Centre Street,04530,43.9123019,-69.8228134
228,Centre Street,04530,43.9120436,-69.8230464
229,Centre Street,04530,43.9123319,-69.8230193
239,Centre Street,04530,43.9128677,-69.8236432
254,Centre Street,04530,43.9122997,-69.8243702
265,Centre Street,04530,43.9126108,-69.8243059
266,Centre Street,04530,43.9123373,-69.8247692
267,Centre Street,04530,43.9126315,-69.8245491
269,Centre Street,04530,43.9126155,-69.8248976
273,Centre Street,04530,43.9126274,-69.8251219
283,Centre Street,04530,43.9127287,-69.8254285
287,Centre Street,04530,43.9128431,-69.8257975
288,Centre Street,04530,43.9125194,-69.8257432
302,Centre Street,04530,43.9127472,-69.8266057
306,Centre Street,04530,43.9127171,-69.8276515
320,Centre Street,04530,43.9125342,-69.8286640
402,Centre Street,04530,43.9124062,-69.8301816
406,Centre Street,04530,43.9123675,-69.8305423
422,Centre Street,04530,43.9122366,-69.8318357
424,Centre Street,04530,43.9121903,-69.8320094
48,Chestnut Street,04530,43.9147026,-69.8213954
2,Cobb Road,04530,43.9139859,-69.8221453
5,Cobb Road,04530,43.9141289,-69.8229195
9,Cobb Road,04530,43.9140814,-69.8232551
14,Cobb Road,04530,43.9138344,-69.8231770
16,Cobb Road,04530,43.9138419,-69.8233888
22,Cobb Road,04530,43.9136860,-69.8244017
24,Cobb Road,04530,43.9136531,-69.8245943
12,Cottage Street,04530,43.9096145,-69.8234115
33,Court Street,04530,43.9113068,-69.8215916
57,Court Street,04530,43.9111590,-69.8227354
58,Court Street,04530,43.9108666,-69.8227002
97,Court Street,04530,43.9104219,-69.8244439
99,Court Street,04530,43.9103222,-69.8245297
103,Court Street,04530,43.9102402,-69.8246718
106,Court Street,04530,43.9099754,-69.8245560
113,Court Street,04530,43.9100526,-69.8250864
131,Court Street,04530,43.9097091,-69.8259036
2,Crawford Drive,04530,43.9245435,-69.8238915
3,Crawford Drive,04530,43.9248670,-69.8239894
9,Crawford Drive,04530,43.9243282,-69.8250408
12,Crawford Drive,04530,43.9239284,-69.8255335
19,Crawford Drive,04530,43.9241418,-69.8265392
23,Crawford Drive,04530,43.9240377,-69.8272354
8,Cummings Street,04530,43.9260214,-69.8130241
18,Cummings Street,04530,43.9260837,-69.8125018
2,Davenport Circle,04530,43.9312602,-69.8163659
2,Denny Road,04530,43.9283642,-69.8190732
4,Denny Road,04530,43.9283499,-69.8191789
6,Denny Road,04530,43.9283164,-69.8194587
8,Denny Road,04530,43.9283201,-69.8195709
20,Denny Road,04530,43.9283172,-69.8205986
35,Denny Road,04530,43.9286089,-69.8219792
45,Denny Road,04530,43.9284219,-69.8229484
48,Denny Road,04530,43.9280159,-69.8230673
49,Denny Road,04530,43.9282895,-69.8232019
55,Denny Road,04530,43.9280389,-69.8236220
62,Denny Road,04530,43.9273278,-69.8235935
63,Denny Road,04530,43.9272669,-69.8239228
64,Denny Road,04530,43.9272603,-69.8235926
67,Denny Road,04530,43.9270823,-69.8239327
69,Denny Road,04530,43.9270146,-69.8239443
71,Denny Road,04530,43.9268619,-69.8238985
72,Denny Road,04530,43.9267252,-69.8235042
74,Denny Road,04530,43.9266667,-69.8235034
75,Denny Road,04530,43.9266731,-69.8238586
76,Denny Road,04530,43.9265273,-69.8234828
77,Denny Road,04530,43.9264709,-69.8238059
82,Denny Road,04530,43.9262936,-69.8234235
83,Denny Road,04530,43.9260620,-69.8237006
84,Denny Road,04530,43.9261364,-69.8233716
87,Denny Road,04530,43.9258373,-69.8236477
92,Denny Road,04530,43.9257547,-69.8232479
93,Denny Road,04530,43.9253562,-69.8235601
95,Denny Road,04530,43.9252843,-69.8235467
99,Denny Road,04530,43.9250865,-69.8235066
3,Dike Road,04530,43.9135117,-69.8248477
5,Dike Road,04530,43.9136378,-69.8248494
6,Dike Road,04530,43.9135943,-69.8252599
7,Dike Road,04530,43.9138713,-69.8249274
10,Dike Road,04530,43.9138191,-69.8252941
13,Dike Road,04530,43.9142444,-69.8250011
3,Breckenridge Court,04530,43.9219833,-69.8280726
3,Breckenridge Court,04530,43.9218790,-69.8281709
3,Breckenridge Court,04530,43.9220964,-69.8279995
3,Breckenridge Court,04530,43.9220330,-69.8280484
3,Breckenridge Court,04530,43.9221327,-69.8279626
3,Breckenridge Court,04530,43.9221869,-69.8279260
3,Breckenridge Court,04530,43.9222277,-69.8278954
3,Breckenridge Court,04530,43.9219381,-69.8281032
3,Breckenridge Court,04530,43.9222729,-69.8278649
3,Breckenridge Court,04530,43.9223271,-69.8278470
1,Mill Pond Drive,04530,43.9234541,-69.8399706
1,Lambard Street,04530,43.9126505,-69.8131099
1,Lilac Street,04530,43.9073932,-69.8243024
1,Barque Road,04530,43.9345812,-69.8171775
1,Kennebec Circle,04530,43.9224120,-69.8372030
1,Breezy Lane,04530,43.8823031,-69.8213734
1,Cobb Road,04530,43.9141539,-69.8225649
1,Curtis Place,04530,43.9299963,-69.8136825
1,Dike Road,04530,43.9133680,-69.8248084
1,Edgett Street,04530,43.9126789,-69.8310573
1,Graffam Way,04530,43.8814047,-69.8217283
1,Oak Grove Avenue,04530,43.9183944,-69.8263476
1,Old Sloop Lane,04530,43.9333035,-69.8158082
1,Regatta Lane,04530,43.9336050,-69.8170894
1,Sheridan Road,04530,43.9164331,-69.8255171
2,Breckenridge Court,04530,43.9215684,-69.8288018
2,Breckenridge Court,04530,43.9214140,-69.8289803
2,Breckenridge Court,04530,43.9214684,-69.8289312
2,Breckenridge Court,04530,43.9214866,-69.8289003
2,Breckenridge Court,04530,43.9215958,-69.8287399
2,Breckenridge Court,04530,43.9216548,-69.8286785
2,Breckenridge Court,04530,43.9216821,-69.8286352
2,Breckenridge Court,04530,43.9213368,-69.8290789
2,Breckenridge Court,04530,43.9213821,-69.8290297
2,Breckenridge Court,04530,43.9217277,-69.8285611
2,Matty Way,04530,43.9070040,-69.8220928
2,Lilac Street,04530,43.9074654,-69.8249074
2,Bowman Street,04530,43.9283513,-69.8208669
2,Noble Avenue,04530,43.9271130,-69.8221642
2,Bedford Street,04530,43.9177579,-69.8190834
2,Curtis Place,04530,43.9303309,-69.8134753
2,Fairview Lane,04530,43.8745784,-69.8294198
2,Graffam Way,04530,43.8819114,-69.8213804
2,Adams Court,04530,43.9273317,-69.8243037
2,Angel Place,04530,43.8736846,-69.8297621
2,Bernard Street,04530,43.9238819,-69.8232470
2,Dike Road,04530,43.9133248,-69.8251752
2,Edgett Street,04530,43.9127027,-69.8315059
2,Huse Street,04530,43.9124144,-69.8265575
2,Kennebec Circle,04530,43.9228288,-69.8380684
2,Oak Grove Avenue,04530,43.9186159,-69.8268364
2,Old Sloop Lane,04530,43.9335357,-69.8160793
2,Ranger Circle,04530,43.9193877,-69.8370734
3,Gerald Street,04530,43.9187766,-69.8220369
3,Old Brunswick Road,04530,43.9189760,-69.8274704
3,Seekins Drive,04530,43.9253128,-69.8245935
3,Matthews Avenue,04530,43.9236001,-69.8236168
3,Kaler Road,04530,43.9366573,-69.8479686
3,Regatta Lane,04530,43.9334048,-69.8173794
3,Andrews Road,04530,43.9146989,-69.8231578
3,Bowman Street,04530,43.9283791,-69.8213905
3,Drummond Point,04530,43.9276681,-69.8125358
3,Mast Landing,04530,43.9393424,-69.8167879
3,Mill Pond Drive,04530,43.9228249,-69.8398310
3,Pearl Street,04530,43.9214489,-69.8134788
3,Pratt Street,04530,43.9153206,-69.8205881
4,State Road,04530,43.9068784,-69.8288782
4,Adams Court,04530,43.9275333,-69.8244310
4,Barque Road,04530,43.9342245,-69.8166992
6,Cobb Road,04530,43.9139335,-69.8225369
4,Graffam Way,04530,43.8819101,-69.8209385
4,Lupine Lane,04530,43.9113300,-69.8271154
4,Mast Landing,04530,43.9381414,-69.8160239
4,Old Brunswick Road,04530,43.9184528,-69.8276064
4,Pratt Street,04530,43.9152231,-69.8210040
4,Ranger Circle,04530,43.9190563,-69.8374487
4,Redlon Road,04530,43.9064526,-69.8267614
4,Seekins Drive,04530,43.9250036,-69.8250127
4,Valley Road,04530,43.9259864,-69.8179319
5,Kennebec Circle,04530,43.9237092,-69.8364925
5,Matty Way,04530,43.9069262,-69.8222599
5,Sheridan Road,04530,43.9163475,-69.8261511
5,Edgett Street,04530,43.9129757,-69.8311050
5,Matthews Avenue,04530,43.9238829,-69.8237329
5,Old Sloop Lane,04530,43.9338312,-69.8156659
5,Redlon Road,04530,43.9066025,-69.8271931
5,Redlon Road,04530,43.9075203,-69.8260228
5,Regatta Lane,04530,43.9331687,-69.8176690
5,Tank Farm Lane,04530,43.9379121,-69.8505469
5,Trufant Street,04530,43.9281861,-69.8131284
6,Bailey Street,04530,43.9186892,-69.8216620
6,Crawford Drive,04530,43.9241017,-69.8246016
6,Barque Road,04530,43.9339444,-69.8168324
6,Evergreen Street,04530,43.9067130,-69.8237389
6,Matthews Avenue,04530,43.9238076,-69.8241865
6,Matty Way,04530,43.9067656,-69.8220646
6,Oak Grove Avenue,04530,43.9189707,-69.8269597
6,Regatta Lane,04530,43.9328901,-69.8175842
6,Riverview Road,04530,43.8828704,-69.8207401
6,Valley Road,04530,43.9260809,-69.8179394
7,Cedar Lane,04530,43.9365501,-69.8539040
7,Crawford Drive,04530,43.9244569,-69.8246751
235,Congress Avenue,04530,43.9179675,-69.8274751
1040,Middle Street,04530,43.9218618,-69.8180684
39,Lincoln Street,04530,43.9129778,-69.8208486
1,Palmer Street,04530,43.9033676,-69.8206917
7,Palmer Street,04530,43.9033981,-69.8202002
6,Palmer Street,04530,43.9035990,-69.8204396
1,Orchard Lane,04530,43.8852657,-69.8169325
8,Orchard Lane,04530,43.8853927,-69.8161686
18,Orchard Lane,04530,43.8848210,-69.8155322
20,Orchard Lane,04530,43.8847537,-69.8155001
1,Thomas Lane,04530,43.8865180,-69.8161902
3,Thomas Lane,04530,43.8865096,-69.8161092
5,Thomas Lane,04530,43.8864298,-69.8159276
7,Thomas Lane,04530,43.8863763,-69.8158584
9,Thomas Lane,04530,43.8862414,-69.8158316
11,Thomas Lane,04530,43.8861739,-69.8158245
1,Channel View,04530,43.8819037,-69.8218285
1241,Washington Street,04530,43.9278361,-69.8129679
1239,Washington Street,04530,43.9277967,-69.8127992
14,Winter Street,04530,43.9151163,-69.8170543
53,Lincoln Street,04530,43.9135379,-69.8212175
55,Lincoln Street,04530,43.9135692,-69.8212366
57,Lincoln Street,04530,43.9136007,-69.8212433
59,Lincoln Street,04530,43.9136276,-69.8212561
61,Lincoln Street,04530,43.9136545,-69.8212752
78,Lincoln Street,04530,43.9142100,-69.8222792
154,Lincoln Street,04530,43.9164554,-69.8249195
190,Lincoln Street,04530,43.9176695,-69.8263562
179,Lincoln Street,04530,43.9169105,-69.8248635
5,Fisher Court,04530,43.9090539,-69.8168406
851,High Street,04530,43.9149047,-69.8189508
853,High Street,04530,43.9149497,-69.8189452
855,High Street,04530,43.9149903,-69.8189395
857,High Street,04530,43.9150535,-69.8189155
27,Commercial Street,04530,43.9125851,-69.8128101
19,Commercial Street,04530,43.9115079,-69.8123470
235,Front Street,04530,43.9162250,-69.8143605
145,Commercial Street,04530,43.9168250,-69.8135528
145,Commercial Street,04530,43.9169105,-69.8135540
145,Commercial Street,04530,43.9169825,-69.8135674
145,Commercial Street,04530,43.9170636,-69.8135561
145,Commercial Street,04530,43.9168659,-69.8135036
145,Commercial Street,04530,43.9169468,-69.8135109
145,Commercial Street,04530,43.9170278,-69.8135182
155,Commercial Street,04530,43.9172482,-69.8135524
155,Commercial Street,04530,43.9173291,-69.8135659
155,Commercial Street,04530,43.9174009,-69.8135980
155,Commercial Street,04530,43.9174731,-69.8135741
155,Commercial Street,04530,43.9172754,-69.8135216
155,Commercial Street,04530,43.9173653,-69.8135353
155,Commercial Street,04530,43.9174464,-69.8135364
4,Gerald Street,04530,43.9188903,-69.8224994
8,State Road,04530,43.9063782,-69.8301850
84,Union Street,04530,43.9092724,-69.8190293
77,Union Street,04530,43.9095565,-69.8189522
607,High Street,04530,43.9066389,-69.8202758
655,Middle Street,04530,43.9080291,-69.8178727
19,Cobb Road,04530,43.9140858,-69.8238966
20,Cobb Road,04530,43.9137417,-69.8241721
73,Academy Street,04530,43.9134408,-69.8240683
1,Page Street,04530,43.9135208,-69.8235837
3,Page Street,04530,43.9135568,-69.8235966
71,Academy Street,04530,43.9135212,-69.8235339
9,Page Street,04530,43.9137455,-69.8236428
7,Page Street,04530,43.9137188,-69.8235989
711,Middle Street,04530,43.9100198,-69.8177567
1499,High Street,04530,43.9383402,-69.8184376
18,Riverview Road,04530,43.8827779,-69.8192014
79,North Bath Road,04530,43.9425213,-69.8378403
34,Gillies Lane,04530,43.9435442,-69.8352379
42,Gillies Lane,04530,43.9432197,-69.8346726
100,Gillies Lane,04530,43.9456219,-69.8324445
11,Sewall Lane,04530,43.9300520,-69.8272502
20,Heath Lane,04530,43.9275016,-69.8232097
25,Heath Lane,04530,43.9277594,-69.8230451
8,Heath Lane,04530,43.9269315,-69.8229901
53,Heath Lane,04530,43.9291053,-69.8236866
55,Heath Lane,04530,43.9293255,-69.8237395
47,Heath Lane,04530,43.9288764,-69.8235900
46,Heath Lane,04530,43.9286273,-69.8238046
40,Heath Lane,04530,43.9283895,-69.8236954
41,Heath Lane,04530,43.9285445,-69.8234235
170,Butler Head Road,04530,43.9738521,-69.8484167
166,Butler Head Road,04530,43.9734264,-69.8487597
138,Butler Head Road,04530,43.9718552,-69.8505887
142,Butler Head Road,04530,43.9722004,-69.8501759
156,Butler Head Road,04530,43.9731234,-69.8495471
49,Mallard Road,04530,43.9693159,-69.8518365
103,Mallard Road,04530,43.9659886,-69.8555161
107,Mallard Road,04530,43.9654346,-69.8549597
4,Wren Lane,04530,43.9641409,-69.8557826
163,Blackwater Cove Road,04530,43.9628093,-69.8568541
149,Blackwater Cove Road,04530,43.9637109,-69.8560942
8,Bridge Street,04530,43.8759306,-69.8248332
10,Bridge Street,04530,43.8762914,-69.8247510
36,High Street,04530,43.8763999,-69.8259288
67,High Street,04530,43.8801360,-69.8222461
51,High Street,04530,43.8786563,-69.8232962
53,High Street,04530,43.8788776,-69.8232059
52,High Street,04530,43.8786680,-69.8241739
60,High Street,04530,43.8798612,-69.8235182
55,High Street,04530,43.8793322,-69.8232184
57,High Street,04530,43.8792744,-69.8224894
62,High Street,04530,43.8801957,-69.8233298
66,High Street,04530,43.8805301,-69.8231602
70,High Street,04530,43.8810488,-69.8230242
97,High Street,04530,43.8846846,-69.8213812
93,High Street,04530,43.8840525,-69.8216339
53,Washington Street,04530,43.8878191,-69.8168118
58,Washington Street,04530,43.8886121,-69.8173393
86,Washington Street,04530,43.8894667,-69.8174443
26,Marshall Street,04530,43.8947007,-69.8195516
17,Weeks Street,04530,43.8992792,-69.8176533
10,Spruce Street,04530,43.8993749,-69.8212532
8,Spruce Street,04530,43.9000713,-69.8208207
12,Spruce Street,04530,43.8994804,-69.8209869
425,High Street,04530,43.9003307,-69.8198032
11,Clifton Street,04530,43.9008186,-69.8189445
15,Clifton Street,04530,43.9006564,-69.8189609
491,Middle Street,04530,43.9023760,-69.8177206
31,Pleasant Street,04530,43.9028500,-69.8175341
27,Pleasant Street,04530,43.9028832,-69.8172917
41,Spring Street,04530,43.9037015,-69.8180625
11,Spring Street,04530,43.9038663,-69.8164272
34,Spring Street,04530,43.9035248,-69.8175931
30,Spring Street,04530,43.9035311,-69.8173504
21,Pleasant Street,04530,43.9029121,-69.8170368
32,Pleasant Street,04530,43.9026837,-69.8174944
16,Pleasant Street,04530,43.9027287,-69.8168724
9,Pleasant Street,04530,43.9029919,-69.8165772
61,Western Avenue,04530,43.9083464,-69.8232134
25,Western Avenue,04530,43.9085839,-69.8214919
19,Richardson Street,04530,43.9075178,-69.8213776
6,Cottage Street,04530,43.9090525,-69.8233103
4,Cottage Street,04530,43.9088815,-69.8233018
1,Cottage Street,04530,43.9086952,-69.8229194
3,Cottage Street,04530,43.9086913,-69.8228321
7,Cottage Street,04530,43.9087013,-69.8226953
11,Cottage Street,04530,43.9087023,-69.8225583
78,Court Street,04530,43.9105371,-69.8234554
41,Court Street,04530,43.9112493,-69.8220703
193,Centre Street,04530,43.9122279,-69.8212057
158,Centre Street,04530,43.9113620,-69.8195499
143,Bedford Street,04530,43.9169624,-69.8276480
104,North Bath Road,04530,43.9443755,-69.8397543
269,Old Brunswick Road,04530,43.9261191,-69.8479061
24,Raymond Court,04530,43.9126539,-69.8189386
191,Middle Street,04530,43.8924521,-69.8179770
85,Stony Island Road,04530,43.9556655,-69.8585961
1,Wing Farm Parkway,04530,43.9121435,-69.8353341
37,York Street,04530,43.9216694,-69.8163281
37,York Street,04530,43.9216940,-69.8163471
15,Crescent Street,04530,43.9219900,-69.8171359
32,York Street,04530,43.9214762,-69.8159580
49,York Street,04530,43.9216051,-69.8168193
52,York Street,04530,43.9213749,-69.8169095
58,Lemont Street,04530,43.8856030,-69.8194954
10,Charles Street,04530,43.9116561,-69.8255880
12,Charles Street,04530,43.9114852,-69.8255732
1,Lupine Lane,04530,43.9115419,-69.8270685
4,Charles Street,04530,43.9121927,-69.8254709
1,Peregrine Court,04530,43.9078771,-69.8258720
3,Peregrine Court,04530,43.9076919,-69.8259566
6,Peregrine Court,04530,43.9075134,-69.8257425
137,Leeman Highway,04530,43.9091144,-69.8259639
21,Grove Street,04530,43.9197682,-69.8143278
17,Grove Street,04530,43.9198012,-69.8141103
28,Grove Street,04530,43.9195465,-69.8144743
2,Grove Street,04530,43.9195528,-69.8135900
17,Orchard Lane,04530,43.8847480,-69.8156619
19,Orchard Lane,04530,43.8846763,-69.8156236
18,Robinson Street,04530,43.8880356,-69.8180099
8,Robinson Street,04530,43.8880112,-69.8176423
77,Washington Street,04530,43.8887546,-69.8169242
174,Washington Street,04530,43.8914348,-69.8173405
150,Washington Street,04530,43.8910053,-69.8175961
12,Cherry Street,04530,43.8975186,-69.8189615
353,High Street,04530,43.8977525,-69.8196184
18,Valley Road,04530,43.9266017,-69.8181396
21,Valley Road,04530,43.9267323,-69.8174998
15,Valley Road,04530,43.9264802,-69.8174964
11,Valley Road,04530,43.9263452,-69.8174883
10,Valley Road,04530,43.9262558,-69.8180290
12,Valley Road,04530,43.9264039,-69.8180933
26,Valley Road,04530,43.9269034,-69.8181188
32,Valley Road,04530,43.9271425,-69.8180598
34,Valley Road,04530,43.9272460,-69.8180612
22,Valley Road,04530,43.9267546,-69.8181542
25,Valley Road,04530,43.9270019,-69.8175658
5,Prospect Street,04530,43.9281619,-69.8177810
21,Meadow Way,04530,43.9262577,-69.8196547
1555,Washington Street,04530,43.9450604,-69.8141684
36,Butterfly Lane,04530,43.9340031,-69.8549702
16,Stonewall Crossing,04530,43.8808810,-69.8194881
10,Stonewall Crossing,04530,43.8812210,-69.8190728
208,North Street,04530,43.9178996,-69.8241038
150,Leeman Highway,4530,43.9083522,-69.8256835
50,Front Street,04350,43.9124540,-69.8142558
243,Washington Street,04530,43.8938426,-69.8157307
279,Washington Street,04530,43.8952366,-69.8167416
275,Washington Street,04530,43.8957371,-69.8159407
353,Washington Street,04530,43.8975909,-69.8155244
8,Judkins Avenue,04530,43.9209137,-69.8284852
6,Judkins Avenue,04530,43.9213025,-69.8280337
4,Judkins Avenue,04530,43.9214929,-69.8276272
15,Judkins Avenue,04530,43.9207890,-69.8296389
10,Judkins Avenue,04530,43.9205733,-69.8287986
12,Judkins Avenue,04530,43.9202643,-69.8290774
33,Summer Street,04530,43.9157285,-69.8148553
77,Mitchell Road,04530,43.8935515,-69.8225462
11,State Road,04530,43.9068738,-69.8307623
11,State Road,04530,43.9068822,-69.8309611
1,Chandler Drive,04530,43.9091625,-69.8292310
55,Front Street,04530,43.9128259,-69.8138067
597,High Street,04530,43.9055556,-69.8197437
597,High Street,04530,43.9054305,-69.8196793
1,Front Street,04530,43.9122001,-69.8134512
15,Vine Street,04530,43.9120881,-69.8145315
807,Middle Street,04530,43.9134610,-69.8176450
185,Front Street,04530,43.9151726,-69.8139551
119,Commercial Street,04530,43.9157573,-69.8131848
140,Commercial Street,04530,43.9164016,-69.8141813
80,Front Street,04530,43.9130693,-69.8144212
86,Front Street,04530,43.9131917,-69.8145359
110,Front Street,04530,43.9135940,-69.8143171
223,Water Street,04530,43.9131602,-69.8152227
150,Leeman Highway,04530,43.9082793,-69.8257565
243,Washington Street,04530,43.8940336,-69.8159100
61,Commercial Street,04530,43.9140740,-69.8129270
99,Bedford Street,04530,43.9175019,-69.8238324
15,Commercial Street,04530,43.9113902,-69.8147129
862,Washington Street,04530,43.9149758,-69.8166660
858,Washington Street,04530,43.9148554,-69.8167116
906,Washington Street,04530,43.9165024,-69.8162852
921,Washington Street,04530,43.9168614,-69.8155543
191,Centre Street,04530,43.9120264,-69.8207991
804,Washington Street,04530,43.9129113,-69.8169142
809,Washington Street,04530,43.9129605,-69.8162933
303,Centre Street,04530,43.9141243,-69.8278542
2,Chandler Drive,04530,43.9085886,-69.8272992
75,Leeman Highway,04530,43.9105537,-69.8222457
737,Washington Street,04530,43.9111125,-69.8157503
750,Washington Street,04530,43.9106307,-69.8166906
765,Washington Street,04530,43.9120497,-69.8159773
108,Centre Street,04530,43.9121317,-69.8172177
5,School Street,04530,43.9119084,-69.8168209
122,Front Street,04530,43.9138164,-69.8143304
125,Front Street,04530,43.9140233,-69.8138414
129,Front Street,04530,43.9140884,-69.8139763
250,Water Street,04530,43.9140986,-69.8153020
880,Washington Street,04530,43.9157459,-69.8166153
894,Washington Street,04530,43.9161668,-69.8163823
900,Washington Street,04530,43.9163536,-69.8162871
21,Linden Street,04530,43.9166803,-69.8155551
259,Front Street,04530,43.9174186,-69.8139318
19,Oak Street,04530,43.9173208,-69.8147260
37,Oak Street,04530,43.9172449,-69.8154125
918,Washington Street,04530,43.9168952,-69.8160522
101,Centre Street,04530,43.9124904,-69.8173314
130,Centre Street,04530,43.9116871,-69.8184465
36,School Street,04530,43.9113288,-69.8177987
71,South Street,04530,43.9079490,-69.8185343
39,Andrews Road,04530,43.9144390,-69.8261374
146,Lincoln Street,04530,43.9159604,-69.8248749
619,High Street,04530,43.9069845,-69.8200927
29,Centre Street,04530,43.9127867,-69.8150449
139,Richardson Street,04530,43.9076466,-69.8268075
1,Town Landing Road,04530,43.9271725,-69.8111033
15,Town Landing Road,04530,43.9288831,-69.8114376
826,Shipbuilder Drive,04530,43.9165426,-69.8372588
826,Shipbuilder Drive,04530,43.9169674,-69.8371679
200,Congress Avenue,04530,43.9170823,-69.8286296
700,Washington Street,04530,43.9093709,-69.8158382
23,Commercial Street,04530,43.9120945,-69.8125151
159,Ridge Road,04530,43.9399864,-69.8566366
40,Whiskeag Road,04530,43.9329116,-69.8231902
8,Sheridan Road,04530,43.9153864,-69.8267479
4,Sheridan Road,04530,43.9158826,-69.8256826
4,Sheridan Road,04530,43.9144709,-69.8263335
36,Cobb Road,04530,43.9135999,-69.8263163
800,High Street,04530,43.9139089,-69.8199706
387,Whiskeag Road,04530,43.9416897,-69.8508071
546,High Street,04530,43.9045400,-69.8211098
46,Winter Street,04530,43.9151408,-69.8184473
78,High Street,04530,43.8818247,-69.8226456
77,High Street,04530,43.8815604,-69.8222268
79,High Street,04530,43.8819555,-69.8221560
82,High Street,04530,43.8822089,-69.8226523
81,High Street,04530,43.8823283,-69.8220994
87,High Street,04530,43.8826769,-69.8220510
2,Riverview Road,04530,43.8829911,-69.8217916
4,Riverview Road,04530,43.8829094,-69.8213999
8,North Street,04530,43.9188393,-69.8138452
10,North Street,04530,43.9187974,-69.8140434
12,North Street,04530,43.9187844,-69.8142857
22,North Street,04530,43.9187344,-69.8146186
969,Washington Street,04530,43.9185953,-69.8149911
963,Washington Street,04530,43.9183429,-69.8149413
937,Washington Street,04530,43.9175180,-69.8152980
19,Fremont Street,04530,43.9175891,-69.8150292
964,Washington Street,04530,43.9184245,-69.8155621
958,Washington Street,04530,43.9181867,-69.8157677
1100,Washington Street,04530,43.9233206,-69.8145477
396,Middle Street,04530,43.8991715,-69.8182294
402,Middle Street,04530,43.8993038,-69.8180980
3,Windjammer Way,04530,43.9220784,-69.8262081
16,Windjammer Way,04530,43.9222709,-69.8251198
9,Windjammer Way,04530,43.9217021,-69.8250629
24,Windjammer Way,04530,43.9214427,-69.8241424
47,Floral Street,04530,43.9103907,-69.8281009
150,Congress Avenue,04530,43.9142639,-69.8321198
125,Congress Avenue,04530,43.9129757,-69.8334034
1,Bluff Road,04530,43.9090571,-69.8318674
405,Centre Street,04530,43.9127975,-69.8302406
400,Centre Street,04530,43.9123464,-69.8295271
7,Chandler Drive,04530,43.9087209,-69.8307472
45,Floral Street,04530,43.9112827,-69.8277529
6,Old Brunswick Road,04530,43.9195893,-69.8294924
752,High Street,04530,43.9114928,-69.8206794
752,High Street,04530,43.9115582,-69.8203203
6,Old Brunswick Road,04530,43.9194700,-69.8297182
616,High Street,04530,43.9035868,-69.8272405
800,High Street,04530,43.9137670,-69.8201315
