House number,Street name,Postal code,Latitude,Longitude
256,High Street,04915,44.4295104,-69.0138642
9,School Street,04915,44.4195851,-69.0114940
169,Searsport Avenue,04915,44.4290923,-68.9758534
94,Main Street,04915,44.4259861,-69.0067458
74,Main Street,04915,44.4264682,-69.0062377
169,Searsport Avenue,04915,44.4292533,-68.9756963
243,High Street,04915,44.4292090,-69.0125387
17,Belmont Avenue,04915,44.4236881,-69.0255649
14,Main Street,04915,44.4279267,-69.0047616
22,Wright Brothers Drive,04915,44.4095247,-69.0083521
96,Main Street,04915,44.4258289,-69.0068343
302,Poors Mill Road,04915,44.4328261,-69.1092803
18,Poors Mill Road,04915,44.4281650,-69.0562345
14,Marsh Road,04915,44.4364530,-69.0300375
87,Poors Mill Road,04915,44.4286755,-69.0693201
242,Poors Mill Road,04915,44.4283247,-69.0994032
5,Marsh Road,04915,44.4379613,-69.0289262
31,Poors Mill Road,04915,44.4286279,-69.0578054
8,Marsh Road,04915,44.4374075,-69.0293029
49,Poors Mill Road,04915,44.4286524,-69.0625231
270,Poors Mill Road,04915,44.4294680,-69.1045186
90,Poors Mill Road,04915,44.4281890,-69.0698660
310,Poors Mill Road,04915,44.4331937,-69.1108327
17,Marsh Road,04915,44.4372630,-69.0310808
66,Marsh Road,04915,44.4341591,-69.0390264
7,Marsh Road,04915,44.4377451,-69.0294601
3,Poors Mill Road,04915,44.4287518,-69.0528366
301,Poors Mill Road,04915,44.4334796,-69.1083768
216,Poors Mill Road,04915,44.4283427,-69.0941076
134,Marsh Road,04915,44.4286350,-69.0500456
240,Poors Mill Road,04915,44.4281809,-69.0990386
65,Marsh Road,04915,44.4345911,-69.0393534
13,Marsh Road,04915,44.4374883,-69.0302956
33,Marsh Road,04915,44.4362628,-69.0340708
29,Marsh Road,04915,44.4365827,-69.0332857
199,Poors Mill Road,04915,44.4286787,-69.0904961
57,Poors Mill Road,04915,44.4287461,-69.0640497
257,Poors Mill Road,04915,44.4293172,-69.1019804
92,Main Street,04915,44.4259595,-69.0066271
133,High Street,04915,44.4261170,-69.0062251
106,Main Street,04915,44.4256939,-69.0070102
105,Main Street,04915,44.4258379,-69.0072866
163,High Street,04915,44.4267021,-69.0075882
35,Main Street,04915,44.4274495,-69.0058797
37,Main Street,04915,44.4274000,-69.0059237
54,Main Street,04915,44.4268463,-69.0059173
75,Main Street,04915,44.4265537,-69.0066711
52,Main Street,04915,44.4269003,-69.0058734
191,Searsport Avenue,04915,44.4295977,-68.9711283
166,Searsport Avenue,04915,44.4299310,-68.9759783
160,Searsport Avenue,04915,44.4294461,-68.9779442
152,Searsport Avenue,04915,44.4293609,-68.9792697
5,Stephenson Lane,04915,44.4293747,-68.9814747
139,Searsport Avenue,04915,44.4281113,-68.9811201
139,Searsport Avenue,04915,44.4282684,-68.9814742
94,Main Street,04915,44.4260141,-69.0067186
156,High Street,04915,44.4262070,-69.0074123
20,Beaver Street,04915,44.4257029,-69.0066145
100,Searsport Avenue,04915,44.4310412,-68.9881897
96,Searsport Avenue,04915,44.4312933,-68.9888367
7,Old Searsport Avenue,04915,44.4327161,-68.9927000
7,Mill Lane,04915,44.4353361,-68.9980776
29,Searsport Avenue,04915,44.4337651,-69.0015455
22,Searsport Avenue,04915,44.4343458,-69.0026072
35,Swan Lake Avenue,04915,44.4392388,-69.0014765
1,Belmont Avenue,04915,44.4252169,-69.0232822
1,Belmont Avenue,04915,44.4246653,-69.0226799
1,Franklin Street,04915-9998,44.4252302,-69.0077828
137,Main Street,04915,44.4255272,-69.0084738
13,Goodwill Drive,04915,44.4243092,-69.0258039
23,Belmont Avenue,04915,44.4235483,-69.0264128
99,Main Street,04915,44.4259684,-69.0071421
97,Main Street,04915,44.4260090,-69.0070856
9,Beaver Street,04915,44.4255844,-69.0059422
15,Main Street,04915,44.4283678,-69.0046862
31,Front Street,04915,44.4283723,-69.0049124
3,Main Street,04915,44.4288000,-69.0045983
79,Main Street,04915,44.4264411,-69.0067402
111,Main Street,04915,44.4256848,-69.0074813
101,Front Street,04915,44.4306413,-69.0098478
37,Front Street,04915,44.4285523,-69.0056160
94,High Street,04915,44.4248072,-69.0042840
156,Main Street,04915,44.4250094,-69.0097928
64,Main Street,04915,44.4266527,-69.0060743
78,Main Street,04915,44.4263556,-69.0063256
9,Beaver Street,04915,44.4255649,-69.0059207
34,Court Street,04915,44.4233937,-69.0057097
1,Belmont Avenue,04915,44.4248257,-69.0236295
1,Belmont Avenue,04915,44.4245402,-69.0235843
1,Belmont Avenue,04915,44.4248960,-69.0236550
1,Belmont Avenue,04915,44.4249841,-69.0237194
9,Field Street,04915,44.4317927,-69.0136700
11,Schoodic Drive,04915,44.4209860,-69.0304692
21,Schoodic Drive,04915,44.4191677,-69.0296894
268,Main Street,04915,44.4231552,-69.0189036
282,Main Street,04915,44.4231850,-69.0203827
93,Main Street,04915,44.4260945,-69.0070479
1,Beaver Street,04915,44.4254335,-69.0071470
70,Union Street,04915,44.4229752,-68.9993970
55,High Street,04915,44.4235874,-69.0015264
65,High Street,04915,44.4240871,-69.0021357
15,High Street,04915,44.4210936,-68.9996420
95,Court Street,04915,44.4202473,-69.0019848
6,Belmont Avenue,04915,44.4230855,-69.0227632
1,Belmont Avenue,04915,44.4244582,-69.0236605
147,Waldo Avenue,04915,44.4325238,-69.0189838
135,Waldo Avenue,04915,44.4320531,-69.0183378
136,Waldo Avenue,04915,44.4316704,-69.0189910
142,Waldo Avenue,04915,44.4320970,-69.0193037
147,Waldo Avenue,04915,44.4326672,-69.0190465
38,Starrett Drive,04915,44.4215648,-69.0181963
29A,Belmont Avenue,04915,44.4158215,-69.0476955
107,Church Street,04915,44.4252432,-69.0068227
125,Main Street,04915,44.4255813,-69.0079838
132,Church Street,04915,44.4258108,-69.0081723
50,Main Street,04915,44.4269588,-69.0058294
57,Main Street,04915,44.4269543,-69.0063508
71,Main Street,04915,44.4266392,-69.0066020
65,Main Street,04915,44.4267607,-69.0064827
69,Main Street,04915,44.4267112,-69.0065455
30,Washington Street,04915,44.4273638,-69.0082605
161,High Street,04915,44.4265716,-69.0075003
2,Main Street,04915,44.4283724,-69.0040581
4,Durham Street,04915,44.4179696,-68.9987439
4,R W Macleod Lane,04915,44.4103846,-69.0049423
12,Chickadee Circle,04915,44.4485432,-69.0021806
16,Chickadee Circle,04915,44.4483722,-69.0018978
18,Chickadee Circle,04915,44.4483767,-69.0016339
18,Hemlock Lane,04915,44.3974643,-69.0175547
24,Main Street,04915,44.4276386,-69.0052201
26,Grove Street,04915,44.4209315,-69.0037121
30,Court Street,04915,44.4235422,-69.0059484
44,Main Street,04915,44.4271434,-69.0056284
62,Miller Street,04915,44.4234252,-69.0066393
244,Waterville Road,04915,44.4474992,-69.0712589
7,Bradbury Street,04915,44.4194190,-69.0034042
7,Cory Lane,04915,44.4432809,-69.0061703
7,Green Street,04915,44.4288491,-69.0108551
13,Chickadee Circle,04915,44.4486828,-69.0022560
27,Piper Stream Lane,04915,44.3939616,-69.0381898
35,Church Street,04915,44.4218138,-69.0015452
37,Congress Street,04915,44.4228982,-69.0101568
243,Waterville Road,04915,44.4477606,-69.0707439
63,Ryan Road,04915,44.4365381,-68.9682662
8,Achorn Road,04915,44.4829290,-68.9918135
3,Adney Place,04915,44.4064141,-69.0334067
21,Allyn Street,04915,44.4207425,-68.9974625
51,Back Searsport Road,04974,44.4532605,-68.9930243
155,Bayside Drive,04915,44.4092542,-68.9877105
124,Bayside Drive,04915,44.4092453,-68.9884013
18,Bayside Drive,04915,44.4094751,-68.9917672
126,Bayside Drive,04915,44.4093083,-68.9884641
157,Bayside Drive,04915,44.4094433,-68.9878110
120,Bayside Drive,04915,44.4090787,-68.9882883
32,Bayview Street,04915,44.4240331,-68.9990453
20,Bayview Street,04915,44.4246588,-68.9997362
18,Bayview Street,04915,44.4247848,-68.9999309
30,Bayview Street,04915,44.4241501,-68.9991144
38,Bayview Street,04915,44.4236909,-68.9988066
218,Belmont Avenue,04915,44.4130472,-69.0601702
211,Belmont Avenue,04915,44.4138085,-69.0591411
18,Bradbury Street,04915,44.4190094,-69.0040637
24,Carter Lane,04915,44.4588870,-69.0099430
60,Cedar Street,04915,44.4225294,-69.0063189
64,Cedar Street,04915,44.4223269,-69.0060676
125,Charles Street,04915,44.4206479,-69.0054205
62,Congress Street,04915,44.4220926,-69.0082597
192,Congress Street,04915,44.4137877,-69.0046537
3,Delemos Street,04915,44.4388241,-69.0114287
3,Doak Road,04915,44.4404001,-69.0325778
12,Dockside Lane,04915,44.4101009,-68.9925835
3,Field Street,04915,44.4319278,-69.0131235
23,Garden Way,04915,44.4106502,-68.9949635
27,Garden Way,04915,44.4105917,-68.9951205
7,Garden Way,04915,44.4105241,-68.9944046
37,Garden Way,04915,44.4100560,-68.9946308
31,Garden Way,04915,44.4101956,-68.9951771
44,Grove Street,04915,44.4199682,-69.0048552
2,Harbor View Lane,04915,44.4329683,-69.0047683
5,Harbor View Lane,04915,44.4330673,-69.0051075
145,Lincolnville Avenue,04915,44.4152261,-69.0222263
33,Mill Lane,04915,44.4379199,-68.9978701
36,Miller Street,04915,44.4248162,-69.0048681
27,Northport Avenue,04915,44.4185818,-68.9988569
124,Northport Avenue,04915,44.4128739,-68.9943228
58,Oak Hill Road,04915,44.4614295,-69.0360276
31,Pendleton Street,04915,44.4269409,-69.0052703
12,Pendleton Street,04915,44.4263061,-69.0059361
38,Perkins Road,04915,44.3992436,-68.9955987
8,Pierce Street,04915,44.4300372,-69.0127462
1,Pierce Street,04915,44.4296681,-69.0126833
21,Piper Stream Lane,04915,44.3945962,-69.0385606
7,Piper Stream Lane,04915,44.3962927,-69.0401439
1,Piper Stream Lane,04915,44.3968552,-69.0406026
13,Piper Stream Lane,04915,44.3956357,-69.0394717
25,Piper Stream Lane,04915,44.3943216,-69.0384098
28,Piper Stream Lane,04915,44.3943850,-69.0375183
15,Piper Stream Lane,04915,44.3954332,-69.0392958
12,Piper Stream Lane,04915,44.3962929,-69.0395161
5,Piper Stream Lane,04915,44.3965672,-69.0403262
6,Piper Stream Lane,04915,44.3966979,-69.0399684
4,Piper Stream Lane,04915,44.3969229,-69.0401695
19,Piper Stream Lane,04915,44.3947897,-69.0387177
11,Piper Stream Lane,04915,44.3958067,-69.0396476
18,Piper Stream Lane,04915,44.3955639,-69.0387999
32,Piper Stream Lane,04915,44.3939619,-69.0371853
3,Piper Stream Lane,04915,44.3966977,-69.0404456
14,Piper Stream Lane,04915,44.3959239,-69.0391391
17,Piper Stream Lane,04915,44.3949967,-69.0389188
182,Pitcher Road,04915,44.4269598,-69.0538589
83,Poors Mill Road,04915,44.4288651,-69.0684597
8,R W Macleod Lane,04915,44.4104387,-69.0046032
6,R W Macleod Lane,04915,44.4104071,-69.0047790
13,R W Macleod Lane,04915,44.4102991,-69.0040129
21,R W Macleod Lane,04915,44.4103937,-69.0030834
9,R W Macleod Lane,04915,44.4102406,-69.0043834
5,R W Macleod Lane,04915,44.4101866,-69.0047664
2,R W Macleod Lane,04915,44.4103756,-69.0051558
10,R W Macleod Lane,04915,44.4104792,-69.0044022
11,R W Macleod Lane,04915,44.4102721,-69.0042075
14,R W Macleod Lane,04915,44.4105422,-69.0040317
19,R W Macleod Lane,04915,44.4103667,-69.0033346
17,R W Macleod Lane,04915,44.4103442,-69.0035733
8,River Avenue,04915,44.4307350,-69.0122123
38,Robbins Road,04915,44.4387747,-69.0100967
10,Seabreeze Lane,04915,44.4376494,-69.0095876
192,Searsport Avenue,04915,44.4312230,-68.9725095
95,Searsport Avenue,04915,44.4303076,-68.9896221
15,Seaside Drive,04915,44.3981758,-68.9846301
139,Shepard Road,04915,44.4324984,-69.0811226
47,Shepard Road,04915,44.4406639,-69.0674682
19,Smart Road,04915,44.4759972,-68.9986106
30,Springbrook Drive,04915,44.4254450,-69.0370608
12,Springbrook Drive,04915,44.4243248,-69.0351003
20,Springbrook Drive,04915,44.4249233,-69.0355341
59,Springbrook Drive,04915,44.4270056,-69.0409815
32,Springbrook Drive,04915,44.4258635,-69.0374317
31,Springbrook Drive,04915,44.4257514,-69.0361188
61,Springbrook Drive,04915,44.4274557,-69.0412143
28,Springbrook Drive,04915,44.4247296,-69.0361307
47,Springbrook Drive,04915,44.4276279,-69.0379542
41,Springbrook Drive,04915,44.4266511,-69.0378091
49,Springbrook Drive,04915,44.4276682,-69.0386264
33,Springbrook Drive,04915,44.4261834,-69.0364080
132,Tufts Road,04915,44.4032155,-69.0613846
101,Tufts Road,04915,44.4064413,-69.0558809
59,Tufts Road,04915,44.4095730,-69.0490075
102,Tufts Road,04915,44.4054600,-69.0558234
149,Tufts Road,04915,44.4028182,-69.0635253
78,Tufts Road,04915,44.4074563,-69.0513417
101,Waldo Avenue,04915,44.4304375,-69.0153659
75,Wight Street,04915,44.4137247,-69.0031715
3,Woodsville Lane,04915,44.3951426,-69.0084631
4,Woodsville Lane,04915,44.3950481,-69.0076281
130,Bayside Drive,04915,44.4094299,-68.9886085
138,Belmont Avenue,04915,44.4159215,-69.0453136
18,Fahy Street,04915,44.4122706,-68.9933683
67,Patterson Hill Road,04915,44.4440277,-69.0120643
14,Chickadee Circle,04915,44.4484397,-69.0021303
16,R W Macleod Lane,04915,44.4105692,-69.0038308
6,Alberta Way,04915,44.4444514,-69.0015835
124,Congress Street,04915,44.4185187,-69.0047860
204,Congress Street,04915,44.4129640,-69.0047792
1,Grove Street,04915,44.4220659,-69.0026821
47,High Street,04915,44.4231643,-69.0007349
77,Church Street,04915,44.4238304,-69.0045603
32,School Street,04915,44.4170690,-69.0090504
9,Court Street,04915,44.4240238,-69.0075942
18,Birch Street,04915,44.4186896,-69.0084477
22,School Street,04915,44.4181403,-69.0096723
187,Main Street,04915,44.4250227,-69.0122049
22,Bridge Street,04915,44.4280659,-69.0096991
104,Front Street,04915,44.4304111,-69.0102523
20,Pierce Street,04915,44.4304289,-69.0119547
9,Bridge Street,04915,44.4277599,-69.0088761
70,Bayview Street,04915,44.4218904,-68.9975001
76,Union Street,04915,44.4225971,-68.9992212
90,Union Street,04915,44.4216833,-68.9986998
78,Oak Hill Road,04915,44.4641120,-69.0371795
91,Hunt Road,04915,44.3785706,-69.0511282
78,Waterville Road,04915,44.4399245,-69.0415937
60,Waterville Road,04915,44.4396015,-69.0385086
136,Swan Lake Avenue,04915,44.4518202,-69.0032993
25,Village Road,04915,44.4097021,-69.0410825
61,Ryan Road,04915,44.4360835,-68.9683921
67,Ryan Road,04915,44.4369031,-68.9696419
69,Ryan Road,04915,44.4365927,-68.9705657
71,Ryan Road,04915,44.4364666,-68.9702013
68,Ryan Road,04915,44.4364483,-68.9690579
72,Ryan Road,04915,44.4363989,-68.9694663
74,Ryan Road,04915,44.4360432,-68.9693848
15,Ryan Road,04915,44.4329727,-68.9672944
11,John Robinson Way,04915,44.4079941,-68.9914095
29,Schoodic Drive,04915,44.4184161,-69.0290987
5,Patten Pit Road,04915,44.3994061,-69.0307405
11,Patten Pit Road,04915,44.3999733,-69.0305462
49,Patten Pit Road,04915,44.4013330,-69.0297683
17,Village Road,04915,44.4096343,-69.0418486
19,Village Road,04915,44.4096434,-69.0417795
21,Village Road,04915,44.4095669,-69.0415785
23,Village Road,04915,44.4095444,-69.0414403
33,Village Road,04915,44.4096077,-69.0408187
31,Village Road,04915,44.4096302,-69.0409192
29,Village Road,04915,44.4097067,-69.0407873
27,Village Road,04915,44.4097472,-69.0409695
45,Village Road,04915,44.4090631,-69.0406048
47,Village Road,04915,44.4090226,-69.0404980
44,Village Road,04915,44.4085593,-69.0394239
48,Village Road,04915,44.4084242,-69.0397189
50,Village Road,04915,44.4084017,-69.0398382
52,Village Road,04915,44.4083836,-69.0400517
54,Village Road,04915,44.4084015,-69.0401773
56,Village Road,04915,44.4084915,-69.0403406
58,Village Road,04915,44.4085320,-69.0404663
60,Village Road,04915,44.4086175,-69.0406108
62,Village Road,04915,44.4086804,-69.0407427
64,Village Road,04915,44.4092023,-69.0414966
66,Village Road,04915,44.4092068,-69.0415720
68,Village Road,04915,44.4092113,-69.0416662
70,Village Road,04915,44.4092922,-69.0417855
72,Village Road,04915,44.4093057,-69.0419425
74,Village Road,04915,44.4093776,-69.0421184
76,Village Road,04915,44.4094046,-69.0422754
78,Village Road,04915,44.4095981,-69.0424451
80,Village Road,04915,44.4096071,-69.0425707
46,Village Road,04915,44.4085413,-69.0395620
51,Village Road,04915,44.4086582,-69.0400017
49,Village Road,04915,44.4087031,-69.0401398
35,Village Road,04915,44.4094636,-69.0408625
39,Village Road,04915,44.4094322,-69.0407620
37,Village Road,04915,44.4094997,-69.0407370
41,Village Road,04915,44.4093647,-69.0406490
43,Village Road,04915,44.4093017,-69.0406175
37,Tufts Road,04915,44.4114828,-69.0460575
114,Patterson Hill Road,04915,44.4429826,-69.0180521
60,Back Searsport Road,04915,44.4549215,-68.9924270
75,Bayview Street,04915,44.4214267,-68.9977891
3,Blacks Landing,04915,44.4332385,-68.9998493
60,Cobb Road,04915,44.3862511,-69.0180535
166,Congress Street,04915,44.4156198,-69.0045973
160,Congress Street,04915,44.4160384,-69.0046162
139,Congress Street,04915,44.4173348,-69.0051124
24,Durham Street,04915,44.4176545,-69.0005276
136,Marsh Road,04915,44.4282717,-69.0494817
15,Schoodic Drive,04915,44.4199012,-69.0303744
133,Waterville Road,04915,44.4427612,-69.0507506
2,Congress Street,04915,44.4247122,-69.0117086
2,Cottage Street,04915,44.4212151,-68.9959488
2,Grove Street,04915,44.4218588,-69.0024308
2,Merry Lane,04915,44.4775771,-68.9961398
4,Cottage Street,04915,44.4210665,-68.9958608
4,Skinners Pit Road,04915,44.4564434,-68.9685760
6,Airport Road,04915,44.4107132,-69.0064244
6,Charles Street,04915,44.4265937,-69.0127329
6,Conifer Lane,04915,44.4213944,-69.0349164
6,Cottage Street,04915,44.4209495,-68.9958106
6,Lord Street,04915,44.4253745,-69.0004209
6,Mill Lane,04915,44.4345934,-68.9994158
6,Sandalwood Road,04915,44.4791346,-69.0025527
8,Birch Street,04915,44.4201299,-69.0097920
8,Cobb Road,04915,44.3951334,-69.0104219
8,Court Street,04915,44.4244109,-69.0072801
8,Pearl Street,04915,44.4255140,-69.0021106
8,Primrose Street,04915,44.4275616,-69.0115458
8,Ryer Road,04915,44.4103300,-69.0346461
10,Cedar Lane,04915,44.4159080,-69.0027320
10,Church Street,04915,44.4204004,-69.0003141
10,Commercial Street,04915,44.4248028,-69.0023304
10,Herrick Road,04915,44.3981948,-69.0038802
10,Mayo Street,04915,44.4165966,-68.9963762
10,Primrose Street,04915,44.4274355,-69.0117719
12,Skinners Pit Road,04915,44.4560065,-68.9677215
14,Herrick Road,04915,44.3978707,-69.0029635
14,Vine Street,04915,44.4332278,-69.0193370
16,Cottage Street,04915,44.4203778,-68.9954212
18,Anderson Street,04915,44.4257206,-69.0101133
18,Cedar Lane,04915,44.4158224,-69.0032973
18,Ryan Road,04915,44.4323382,-68.9679230
20,Airport Road,04915,44.4106545,-69.0089049
20,Commercial Street,04915,44.4252664,-69.0017463
20,Sunset Lane,04915,44.4548225,-69.0062281
22,Crocker Road,04915,44.4229695,-69.0361673
24,Fairview Street,04915,44.4312173,-68.9988378
26,Ocean Street,04915,44.4195225,-68.9938950
26,Park Street,04915,44.4231372,-69.0027198
32,Church Street,04915,44.4213637,-69.0016457
34,Allyn Street,04915,44.4213637,-68.9964450
34,High Street,04915,44.4220209,-69.0009359
34,Ocean Street,04915,44.4189913,-68.9935182
34,Union Street,04915,44.4247443,-69.0014385
34,Waterville Road,04915,44.4395984,-69.0339031
36,Church Street,04915,44.4215348,-69.0019220
36,Patterson Hill Road,04915,44.4404808,-69.0094561
38,Church Street,04915,44.4216743,-69.0020979
38,High Street,04915,44.4222055,-69.0013568
38,Stephenson Lane,04915,44.4334803,-68.9835780
40,Bridge Street,04915,44.4291417,-69.0105787
42,Bayview Street,04915,44.4234704,-68.9986307
44,Charles Street,04915,44.4248383,-69.0107727
44,High Street,04915,44.4225701,-69.0014573
44,Union Street,04915,44.4243256,-69.0007098
46,Baker Road,04915,44.4763920,-68.9825160
46,Bridge Street,04915,44.4299609,-69.0111191
46,Charles Street,04915,44.4246222,-69.0106282
46,Congress Street,04915,44.4228398,-69.0091643
48,Mayo Street,04915,44.4173977,-68.9929908
48,Robbins Road,04915,44.4393462,-69.0118749
48,Waterville Road,04915,44.4398317,-69.0363599
50,Church Street,04915,44.4224035,-69.0028956
50,Union Street,04915,44.4240241,-69.0002638
52,Church Street,04915,44.4223180,-69.0030464
52,Court Street,04915,44.4226015,-69.0045413
52,Patterson Hill Road,04915,44.4420381,-69.0115047
54,High Street,04915,44.4231463,-69.0016646
56,Main Street,04915,44.4267923,-69.0059550
58,Back Searsport Road,04915,44.4557453,-68.9939667
58,Cobb Road,04915,44.3897127,-69.0179541
58,Crocker Road,04915,44.4259386,-69.0414896
58,High Street,04915,44.4233398,-69.0019221
58,Union Street,04915,44.4236009,-68.9998116
60,Main Street,04915,44.4267292,-69.0060053
60,Oak Hill Road,04915,44.4616320,-69.0363923
60,Pitcher Road,04915,44.4184729,-69.0731141
62,Church Street,04915,44.4227816,-69.0037750
64,Cobb Road,04915,44.3871512,-69.0189389
64,Oak Hill Road,04915,44.4620415,-69.0367320
66,High Street,04915,44.4237269,-69.0025000
68,Oak Hill Road,04915,44.4628832,-69.0369399
70,Congress Street,04915,44.4217731,-69.0078011
70,High Street,04915,44.4238530,-69.0026759
70,Whittier Road,04915,44.4632808,-68.9977309
72,Kaler Road,04915,44.4488191,-69.0272286
72,Park Street,04915,44.4208999,-69.0057409
78,High Street,04915,44.4241320,-69.0032224
80,High Street,04915,44.4242536,-69.0034296
80,Main Street,04915,44.4262746,-69.0063947
80,Union Street,04915,44.4223720,-68.9990893
84,Main Street,04915,44.4262386,-69.0064261
84,Congress Street,04915,44.4210034,-69.0067144
84,Woods Road,04915,44.3956774,-69.0163236
86,Church Street,04915,44.4239159,-69.0054459
86,Union Street,04915,44.4219759,-68.9988569
88,Court Street,04915,44.4209901,-69.0021293
92,Congress Street,04915,44.4206208,-69.0061303
94,Union Street,04915,44.4214537,-68.9985742
98,Union Street,04915,44.4211926,-68.9984298
100,Court Street,04915,44.4202879,-69.0012437
102,Congress Street,04915,44.4200537,-69.0054581
104,Bayview Street,04915,44.4198107,-68.9963634
104,Main Street,04915,44.4257344,-69.0069662
104,Woods Road,04915,44.3962855,-69.0126635
108,Court Street,04915,44.4199503,-69.0008417
108,Pearl Street,04915,44.4206342,-69.0084228
110,Union Street,04915,44.4204454,-68.9979901
116,Union Street,04915,44.4201348,-68.9978143
118,Congress Street,04915,44.4188248,-69.0049430
120,Union Street,04915,44.4197837,-68.9976007
124,Union Street,04915,44.4196351,-68.9974751
146,Congress Street,04915,44.4170197,-69.0045660
148,Waterville Road,04915,44.4404669,-69.0572265
200,Congress Street,04915,44.4132430,-69.0048106
208,Congress Street,04915,44.4127524,-69.0047666
210,Main Street,04915,44.4244103,-69.0138442
212,High Street,04915,44.4274626,-69.0106538
230,High Street,04915,44.4282908,-69.0119229
236,High Street,04915,44.4285248,-69.0123061
244,Main Street,04915,44.4238427,-69.0168968
246,High Street,04915,44.4289794,-69.0130161
250,High Street,04915,44.4292359,-69.0132611
274,High Street,04915,44.4306492,-69.0146937
278,High Street,04915,44.4308878,-69.0148257
312,High Street,04915,44.4327736,-69.0164973
1,Chickadee Circle,04915,44.4489574,-69.0010809
1,Court Street,04915,44.4244379,-69.0081721
3,Mill Lane,04915,44.4341837,-68.9987435
3,Waterville Road,04915,44.4384251,-69.0282227
3,Woods Road,04915,44.3966239,-69.0319069
5,Back Searsport Road,04915,44.4504563,-69.0001131
5,Conni Lane,04915,44.3921297,-69.0494198
5,Court Street,04915,44.4242714,-69.0079020
5,Waterville Road,04915,44.4386681,-69.0283673
7,Chickadee Circle,04915,44.4488898,-69.0015019
7,Cottage Street,04915,44.4207244,-68.9961686
7,John Street,04915,44.4286507,-69.0132044
7,Perkins Road,04915,44.4007332,-68.9897843
9,James Street,04915,44.4242936,-69.0107035
9,Pine Hill Drive,04915,44.4134756,-69.0373673
9,Porter Road,04915,44.4264483,-68.9783913
9,Waldo Avenue,04915,44.4258917,-69.0104022
11,Cottage Street,04915,44.4203913,-68.9959363
11,John Street,04915,44.4284932,-69.0134431
15,Anderson Street,04915,44.4260132,-69.0102452
15,Congress Street,04915,44.4240550,-69.0114698
15,John Street,04915,44.4283986,-69.0136253
15,Primrose Street,04915,44.4274400,-69.0123436
15,Waterville Road,04915,44.4391359,-69.0297435
17,Airport Road,04915,44.4119105,-69.0069709
17,Bayview Street,04915,44.4245147,-69.0000880
17,High Street,04915,44.4212197,-68.9997111
19,Cedar Lane,04915,44.4161285,-69.0035297
19,Congress Street,04915,44.4238659,-69.0112876
19,Elm Street,04915,44.4206975,-69.0024936
19,Huntress Avenue,04915,44.4109607,-68.9922129
19,Perkins Road,04915,44.4003688,-68.9920448
19,Porter Road,04915,44.4264707,-68.9779139
21,Baker Road,04915,44.4786969,-68.9841060
21,High Street,04915,44.4214627,-68.9997990
23,Mill Lane,04915,44.4363939,-68.9971917
23,Sweetser Drive,04915,44.4173430,-69.0352406
25,Charles Street,04915,44.4254774,-69.0119411
25,Congress Street,04915,44.4235824,-69.0109106
25,High Street,04915,44.4217103,-68.9999184
27,Church Street,04915,44.4215303,-69.0011055
31,Northport Avenue,04915,44.4183162,-68.9986999
31,Ocean Street,04915,44.4190633,-68.9942217
33,Front Street,04915,44.4284668,-69.0051323
33,Main Street,04915,44.4274990,-69.0058169
33,Union Street,04915,44.4244967,-69.0017525
35,Court Street,04915,44.4229796,-69.0059295
35,High Street,04915,44.4223630,-69.0003455
35,Mayo Street,04915,44.4163535,-68.9936755
35,Ocean Street,04915,44.4187212,-68.9941275
37,Church Street,04915,44.4219939,-69.0017525
37,Franklin Street,04915,44.4236410,-69.0098679
37,Pearl Street,04915,44.4242626,-69.0040578
39,High Street,04915,44.4226736,-69.0004774
39,Pearl Street,04915,44.4241905,-69.0041457
41,Bridge Street,04915,44.4294028,-69.0100511
41,Court Street,04915,44.4226465,-69.0056657
41,Franklin Street,04915,44.4234969,-69.0100249
41,Ocean Street,04915,44.4182981,-68.9943348
43,High Street,04915,44.4229212,-69.0005905
43,Union Street,04915,44.4241546,-69.0011181
49,High Street,04915,44.4233848,-69.0009925
49,West Swanville Road,04915,44.4557969,-69.0242026
51,Mayo Street,04915,44.4168305,-68.9923691
55,Court Street,04915,44.4221244,-69.0046858
55,Pine Street,04915,44.4205532,-69.0078135
57,Church Street,04915,44.4228176,-69.0031406
57,High Street,04915,44.4237134,-69.0016709
61,High Street,04915,44.4238215,-69.0018530
67,Perkins Road,04915,44.3993607,-68.9998054
69,Spring Street,04915,44.4236997,-69.0081532
69,Waterville Road,04915,44.4404876,-69.0403752
71,Church Street,04915,44.4234703,-69.0040389
71,High Street,04915,44.4242446,-69.0023367
75,Congress Street,04915,44.4210664,-69.0077257
75,Court Street,04915,44.4212016,-69.0032976
75,High Street,04915,44.4243796,-69.0027890
77,High Street,04915,44.4244201,-69.0029334
79,Oak Hill Road,04915,44.4645443,-69.0367021
85,Church Street,04915,44.4241590,-69.0050879
87,Oak Hill Road,04915,44.4654400,-69.0369227
89,Union Street,04915,44.4215528,-68.9990830
91,Waldo Avenue,04915,44.4298929,-69.0154348
95,Pitcher Road,04915,44.4200752,-69.0661318
97,Back Belmont Road,04915,44.3946198,-69.0475134
101,Woods Road,04915,44.3956958,-69.0127889
103,Pitcher Road,04915,44.4204360,-69.0648697
107,Main Street,04915,44.4257794,-69.0073431
109,Congress Street,04915,44.4193514,-69.0056905
109,Main Street,04915,44.4257389,-69.0074185
115,Cedar Street,04915,44.4196981,-69.0031216
115,Congress Street,04915,44.4185817,-69.0056025
117,Woods Road,04915,44.3960923,-69.0097754
125,Union Street,04915,44.4192930,-68.9978708
135,High Street,04915,44.4261395,-69.0063004
137,High Street,04915,44.4261620,-69.0063507
137,Waterville Road,04915,44.4423370,-69.0530311
141,Woods Road,04915,44.3962726,-69.0052676
155,Miller Street,04915,44.4208047,-69.0140569
159,High Street,04915,44.4265311,-69.0073683
183,Main Street,04915,44.4251443,-69.0119097
185,Main Street,04915,44.4252793,-69.0120730
191,Main Street,04915,44.4249957,-69.0124875
193,Main Street,04915,44.4256033,-69.0129211
199,High Street,04915,44.4271972,-69.0093534
199,Main Street,04915,44.4249146,-69.0131157
215,Main Street,04915,44.4250719,-69.0148180
229,High Street,04915,44.4284664,-69.0116088
237,High Street,04915,44.4288984,-69.0121177
249,High Street,04915,44.4294881,-69.0127209
253,Northport Avenue,04915,44.3995536,-68.9878444
267,Swan Lake Avenue,04915,44.4684258,-69.0036082
269,High Street,04915,44.4306943,-69.0137828
273,Main Street,04915,44.4244095,-69.0197235
275,High Street,04915,44.4311085,-69.0137892
122,Swan Lake Avenue,04915,44.4506904,-69.0027902
15,Mid-Coast Drive,04915,44.4118837,-68.9987440
2,Edgecomb Road,04915,44.4171201,-69.0420298
28,Edgecomb Road,04915,44.4145551,-69.0397356
31,Elementary Avenue,04915,44.4178113,-69.0125571
17,Fairview Street,04915,44.4315909,-68.9983541
6,Field Street,04915,44.4315632,-69.0132679
17,Footbridge Road,04915,44.4332519,-69.0065479
3,Harvey Road,04915,44.4811468,-68.9972776
37,Hazeltine Road,04915,44.3988868,-68.9828091
22,Jesse Robbins Road,04915,44.4090711,-69.0704147
20,John Robinson Way,04915,44.4089076,-68.9873590
24,John Robinson Way,04915,44.4084529,-68.9873214
14,John Street,04915,44.4281376,-69.0133111
14,John Street,04915,44.4280791,-69.0132043
257,Lincolnville Avenue,04915,44.4015305,-69.0317651
24,Faith Lane,04915,44.4179236,-69.0154254
20,Lupine Road,04915,44.4443123,-69.0546980
142,Marsh Road,04915,44.4283114,-69.0512218
19,Merriam Drive,04915,44.4334342,-69.0231567
280,Poors Mill Road,04915,44.4308939,-69.1056142
2,North Ocean Street,04915,44.4209450,-68.9947365
86,Patterson Hill Road,04915,44.4437976,-69.0161799
28,Pierce Street,04915,44.4313113,-69.0115780
19,Pierce Street,04915,44.4301004,-69.0116720
20,River Avenue,04915,44.4313292,-69.0126648
12,River Avenue,04915,44.4310366,-69.0123946
1,River Avenue,04915,44.4308836,-69.0114837
24,Smart Road,04915,44.4767534,-68.9987426
123,Searsport Avenue,04915,44.4283445,-68.9855205
62,Smart Road,04915,44.4819254,-68.9946242
64,Smart Road,04915,44.4822135,-68.9944167
25,Smart Road,04915,44.4767219,-68.9972023
132,Swan Lake Avenue,04915,44.4518697,-69.0022372
127,Swan Lake Avenue,04915,44.4514601,-69.0013323
141,Swan Lake Avenue,04915,44.4531526,-69.0024258
133,Swan Lake Avenue,04915,44.4522659,-69.0016340
130,Swan Lake Avenue,04915,44.4515772,-69.0019733
138,Swan Lake Avenue,04915,44.4527430,-69.0027086
150,Swan Lake Avenue,04915,44.4529410,-69.0041289
184,Pitcher Road,04915,44.4274641,-69.0536018
16,Cobb Road,04915,44.3936974,-69.0105095
14,Swan Lake Avenue,04915,44.4371051,-69.0045676
153,Swan Lake Avenue,04915,44.4541519,-69.0030795
144,Swan Lake Avenue,04915,44.4520002,-69.0057062
149,Swan Lake Avenue,04915,44.4535758,-69.0027212
29,Tufts Road,04915,44.4117671,-69.0443433
41,Tufts Road,04915,44.4104826,-69.0481165
16,Highview Terrace,04915,44.4296214,-68.9601035
14,Highview Terrace,04915,44.4299635,-68.9601409
10,Highview Terrace,04915,44.4304182,-68.9602914
157,Smart Road,04915,44.4898559,-68.9849016
38,Park Hill Road,04915,44.4147271,-69.0868948
20,Jesse Robbins Road,04915,44.4091251,-69.0704587
26,Piglets Path,04915,44.4374855,-69.0394119
21,Faith Lane,04915,44.4178695,-69.0162544
42,Faith Lane,04915,44.4172844,-69.0155194
53,Schoodic Drive,04915,44.4186559,-69.0234838
22,Birch Street,04915,44.4181404,-69.0081901
24,Birch Street,04915,44.4177848,-69.0083910
28,Banks Road,04915,44.4251931,-69.1028966
108,Pitcher Road,04915,44.4214267,-69.0641673
18,Wright Brothers Drive,04915,44.4096831,-69.0066951
45,Ryan Road,04915,44.4343054,-68.9682737
26,Jesse Robbins Road,04915,44.4085222,-69.0699305
44,Marsh Road,04915,44.4353488,-69.0348430
293,Poors Mill Road,04915,44.4328020,-69.1061328
28,Lupine Road,04915,44.4447719,-69.0537559
21,Treat Street,04915,44.4288219,-68.9656823
22,Treat Street,04915,44.4287812,-68.9651107
63,Salmond Street,04915,44.4183657,-69.0045473
135,Congress Street,04915,44.4176769,-69.0051878
131,Congress Street,04915,44.4179695,-69.0052004
58,Salmond Street,04915,44.4180506,-69.0039945
132,Congress Street,04915,44.4179966,-69.0046603
31,Salmond Street,04915,44.4187394,-69.0016581
124,Cedar Street,04915,44.4192795,-69.0023805
158,Cedar Street,04915,44.4169838,-69.0017460
162,Cedar Street,04915,44.4167452,-69.0016958
138,Congress Street,04915,44.4175464,-69.0046226
103,Court Street,04915,44.4199458,-69.0015954
109,Cedar Street,04915,44.4199592,-69.0032535
105,Congress Street,04915,44.4195720,-69.0057533
10,Bradbury Street,04915,44.4190769,-69.0036052
57,Bridge Street,04915,44.4304381,-69.0107172
265,High Street,04915,44.4307214,-69.0131672
251,High Street,04915,44.4296051,-69.0129659
259,High Street,04915,44.4301227,-69.0133681
16,Pierce Street,04915,44.4303614,-69.0125452
235,High Street,04915,44.4288085,-69.0115461
270,High Street,04915,44.4304062,-69.0143733
43,Bridge Street,04915,44.4296009,-69.0100637
37,Bridge Street,04915,44.4292362,-69.0101578
3,Green Street,04915,44.4289166,-69.0106415
288,High Street,04915,44.4314099,-69.0152593
292,High Street,04915,44.4315944,-69.0154353
31,Field Street,04915,44.4312387,-69.0156739
299,High Street,04915,44.4323821,-69.0154857
316,High Street,04915,44.4330032,-69.0167298
4,Vine Street,04915,44.4336107,-69.0175529
7,Vine Street,04915,44.4337366,-69.0185644
1005,East Waldo Road,04915,44.4548664,-69.0364949
1032,East Waldo Road,04915,44.4570667,-69.0389788
35,Oak Hill Road,04915,44.4576626,-69.0338256
6,Clifford Road,04915,44.4582700,-69.0346430
39,Oak Hill Road,04915,44.4590357,-69.0330219
47,Oak Hill Road,04915,44.4603050,-69.0335568
14,Toads End,04915,44.4650760,-69.0350556
89,Oak Hill Road,04915,44.4659577,-69.0367156
93,Oak Hill Road,04915,44.4670477,-69.0347550
96,Oak Hill Road,04915,44.4664390,-69.0378222
1061,East Waldo Road,04915,44.4613468,-69.0411313
1052,East Waldo Road,04915,44.4597533,-69.0412119
142,Smart Road,04915,44.4886814,-68.9872914
109,Smart Road,04915,44.4864938,-68.9885872
72,Achorn Road,04915,44.4797451,-68.9800881
40,Baker Road,04915,44.4768332,-68.9829874
66,Baker Road,04915,44.4745103,-68.9820262
67,Smart Road,04915,44.4817948,-68.9939074
46,Smart Road,04915,44.4797783,-68.9962591
42,Smart Road,04915,44.4795668,-68.9966929
61,Smart Road,04915,44.4814167,-68.9942344
32,Smart Road,04915,44.4779238,-68.9977052
21,Smart Road,04915,44.4764743,-68.9982963
327,Swan Lake Avenue,04915,44.4765419,-69.0015278
5,Sandalwood Road,04915,44.4790131,-69.0016410
7,Sandalwood Road,04915,44.4794588,-69.0009054
268,Swan Lake Avenue,04915,44.4686869,-69.0043626
269,Swan Lake Avenue,04915,44.4687995,-69.0034008
258,Swan Lake Avenue,04915,44.4672329,-69.0048402
242,Swan Lake Avenue,04915,44.4649147,-69.0059526
222,Swan Lake Avenue,04915,44.4624568,-69.0070272
220,Swan Lake Avenue,04915,44.4618086,-69.0071088
200,Swan Lake Avenue,04915,44.4592473,-69.0075736
199,Swan Lake Avenue,04915,44.4593959,-69.0069074
162,Swan Lake Avenue,04915,44.4549081,-69.0042736
154,Swan Lake Avenue,04915,44.4535892,-69.0035068
139,Swan Lake Avenue,04915,44.4529096,-69.0022436
135,Swan Lake Avenue,04915,44.4524459,-69.0019105
148,Swan Lake Avenue,04915,44.4532381,-69.0044746
134,Swan Lake Avenue,04915,44.4521263,-69.0024006
128,Swan Lake Avenue,04915,44.4513611,-69.0018287
121,Swan Lake Avenue,04915,44.4505779,-69.0010118
13,Back Searsport Road,04974,44.4511045,-68.9992522
116,Swan Lake Avenue,04915,44.4495740,-69.0014202
24,Back Searsport Road,04915,44.4520768,-68.9982278
25,Back Searsport Road,04974,44.4513971,-68.9970276
27,Back Searsport Road,04974,44.4520768,-68.9972789
29,Back Searsport Road,04974,44.4523019,-68.9969521
31,Back Searsport Road,04974,44.4524189,-68.9966379
30,Back Searsport Road,04915,44.4526620,-68.9971281
42,Back Searsport Road,04915,44.4534992,-68.9954815
7,Whittier Road,04915,44.4546875,-68.9946204
33,Whittier Road,04915,44.4580411,-68.9955503
41,Whittier Road,04915,44.4588738,-68.9942366
52,Whittier Road,04915,44.4606700,-68.9971088
58,Whittier Road,04915,44.4612912,-68.9972848
128,Back Searsport Road,04915,44.4564548,-68.9794361
171,Back Searsport Road,04974,44.4567230,-68.9707441
170,Back Searsport Road,04915,44.4572093,-68.9710330
181,Back Searsport Road,04974,44.4566326,-68.9692923
107,Swan Lake Avenue,04974,44.4486648,-69.0004902
101,Swan Lake Avenue,04974,44.4478590,-69.0003017
93,Swan Lake Avenue,04974,44.4477150,-68.9979389
97,Swan Lake Avenue,04974,44.4475304,-68.9999435
82,Swan Lake Avenue,04915,44.4449871,-69.0002325
67,Swan Lake Avenue,04915,44.4428850,-68.9997613
60,Swan Lake Avenue,04915,44.4424213,-69.0008420
58,Swan Lake Avenue,04915,44.4421107,-69.0009677
59,Swan Lake Avenue,04915,44.4422053,-69.0003645
63,Mill Lane,04915,44.4421287,-68.9989193
56,Mill Lane,04915,44.4407918,-68.9990890
52,Mill Lane,04915,44.4403102,-68.9990513
43,Mill Lane,04915,44.4395359,-68.9973675
4,Boardman Way,04915,44.4406072,-69.0024065
36,Swan Lake Avenue,04915,44.4393063,-69.0026829
41,Swan Lake Avenue,04915,44.4400806,-69.0012692
25,Swan Lake Avenue,04915,44.4376903,-69.0027268
30,Mill Lane,04915,44.4367090,-68.9990011
29,Mill Lane,04915,44.4373707,-68.9976943
17,Swan Lake Avenue,04915,44.4368350,-69.0033299
4,Mill Lane,04915,44.4341567,-68.9993843
1,Mill Lane,04915,44.4337561,-68.9986996
7,Swan Lake Avenue,04915,44.4354666,-69.0040020
18,Searsport Avenue,04915,44.4347509,-69.0033737
6,Patterson Hill Road,04915,44.4374651,-69.0063519
18,Patterson Hill Road,04915,44.4392026,-69.0067668
51,Patterson Hill Road,04915,44.4422407,-69.0112848
12,East Avenue,04915,44.4411828,-69.0121957
9,East Avenue,04915,44.4416735,-69.0118753
17,Sunrise Ridge,04915,44.4443609,-69.0108014
84,Patterson Hill Road,04915,44.4444098,-69.0159287
42,Sunrise Ridge,04915,44.4467061,-69.0117884
11,Kaler Road,04915,44.4433332,-69.0207730
37,Field Street,04915,44.4311441,-69.0161764
59,Bridge Street,04915,44.4307217,-69.0105539
10,Green Street,04915,44.4285699,-69.0110623
51,Waldo Avenue,04915,44.4278090,-69.0128839
208,High Street,04915,44.4271701,-69.0104464
11,Market Street,04915,44.4259368,-69.0089198
9,Anderson Street,04915,44.4261888,-69.0099940
79,High Street,04915,44.4245102,-69.0031030
23,Union Street,04915,44.4248973,-69.0026005
6,Commercial Street,04915,44.4245552,-69.0025880
12,Pearl Street,04915,44.4252574,-69.0023305
10,Pearl Street,04915,44.4254195,-69.0021923
88,High Street,04915,44.4245551,-69.0040138
86,High Street,04915,44.4244651,-69.0037186
24,Commercial Street,04915,44.4254240,-69.0015013
32,Union Street,04915,44.4248433,-69.0017211
19,Commercial Street,04915,44.4250189,-69.0015578
23,Commercial Street,04915,44.4252034,-69.0013003
7,Commercial Street,04915,44.4245012,-69.0021671
38,Union Street,04915,44.4246092,-69.0012249
48,Union Street,04915,44.4241816,-69.0004900
5,Park Street,04915,44.4241681,-69.0019410
39,Union Street,04915,44.4241996,-69.0014008
45,Union Street,04915,44.4240150,-69.0009234
49,Union Street,04915,44.4238845,-69.0007035
16,Bayview Street,04915,44.4248883,-69.0001445
24,Bayview Street,04915,44.4245372,-68.9996106
3,Steamship Point,04915,44.4248613,-68.9994096
57,Union Street,04915,44.4235469,-69.0002324
52,Union Street,04915,44.4238665,-69.0000503
56,Union Street,04915,44.4237360,-68.9998367
29,Bayview Street,04915,44.4239745,-68.9994598
31,Bayview Street,04915,44.4238485,-68.9994096
36,Bayview Street,04915,44.4238080,-68.9989134
40,Bayview Street,04915,44.4235784,-68.9987626
41,Bayview Street,04915,44.4234029,-68.9990516
68,Union Street,04915,44.4230923,-68.9995101
8,Jackson Avenue,04915,44.4227411,-68.9971546
10,Jackson Avenue,04915,44.4226241,-68.9971295
18,Jackson Avenue,04915,44.4223810,-68.9965894
62,Bayview Street,04915,44.4224530,-68.9978393
66,Bayview Street,04915,44.4221469,-68.9977577
68,Bayview Street,04915,44.4220119,-68.9976195
31,High Street,04915,44.4220839,-69.0002073
27,High Street,04915,44.4218949,-69.0001194
78,Banks Road,04915,44.4256423,-69.1133436
70,Banks Road,04915,44.4248463,-69.1126699
59,Banks Road,04915,44.4258842,-69.1100274
47,Banks Road,04915,44.4257071,-69.1068549
46,Banks Road,04915,44.4246902,-69.1064573
24,Bark Place,04915,44.4311287,-69.0764783
2,Green Tractor Drive,04915,44.4295300,-69.0774499
95,Crocker Road,04915,44.4304074,-69.0445207
85,Crocker Road,04915,44.4293679,-69.0435336
83,Crocker Road,04915,44.4290981,-69.0429618
35,Springbrook Drive,04915,44.4264398,-69.0369232
32,Crocker Road,04915,44.4238199,-69.0373801
12,Crocker Road,04915,44.4221419,-69.0341317
12,Waterville Road,04915,44.4387488,-69.0298376
8,Waterville Road,04915,44.4384023,-69.0292280
408,Belmont Avenue,04915,44.4086385,-69.0958092
17,Mountain View Lane,04915,44.4115921,-69.0893896
11,Mountain View Lane,04915,44.4111971,-69.0880137
380,Belmont Avenue,04915,44.4090074,-69.0905474
91,Jesse Robbins Road,04915,44.4003555,-69.0642196
151,Tufts Road,04915,44.4026379,-69.0639333
129,Tufts Road,04915,44.4043188,-69.0603748
70,Tufts Road,04915,44.4082174,-69.0503502
36,Pine Hill Drive,04915,44.4134571,-69.0388054
8,Pine Hill Drive,04915,44.4137680,-69.0378636
15,Pine Hill Drive,04915,44.4140522,-69.0362372
24,Edgecomb Road,04915,44.4148656,-69.0400624
21,Edgecomb Road,04915,44.4147393,-69.0409541
7,Edgecomb Road,04915,44.4164583,-69.0423999
1,Edgecomb Road,04915,44.4170973,-69.0430033
126,Belmont Avenue,04915,44.4166603,-69.0438508
134,Belmont Avenue,04915,44.4160613,-69.0445915
4,Londonderry Lane,04915,44.4166413,-69.0463693
18,Londonderry Lane,04915,44.4177662,-69.0475447
55,Londonderry Lane,04915,44.4184907,-69.0481545
33,Londonderry Lane,04915,44.4194816,-69.0466228
49,Londonderry Lane,04915,44.4194354,-69.0494366
165,Belmont Avenue,04915,44.4148931,-69.0503622
184,Belmont Avenue,04915,44.4140273,-69.0536272
199,Belmont Avenue,04915,44.4143408,-69.0569498
203,Belmont Avenue,04915,44.4142099,-69.0576091
105,Jesse Robbins Road,04915,44.3989244,-69.0635776
123,Jesse Robbins Road,04915,44.3968868,-69.0606622
155,Jesse Robbins Road,04915,44.3928637,-69.0583603
247,Back Belmont Road,04915,44.3837000,-69.0719535
8,Armstrong Road,04915,44.3834768,-69.0689466
19,Armstrong Road,04915,44.3818019,-69.0694844
220,Back Belmont Road,04915,44.3852742,-69.0666889
225,Back Belmont Road,04915,44.3854896,-69.0679446
212,Back Belmont Road,04915,44.3864503,-69.0646878
224,Back Belmont Road,04915,44.3849677,-69.0674230
195,Back Belmont Road,04915,44.3876081,-69.0629376
185,Back Belmont Road,04915,44.3882885,-69.0616954
182,Back Belmont Road,04915,44.3878706,-69.0603642
160,Back Belmont Road,04915,44.3893131,-69.0562789
150,Back Belmont Road,04915,44.3900924,-69.0551999
18,Hunt Road,04915,44.3891440,-69.0522171
132,Back Belmont Road,04915,44.3915071,-69.0524955
110,Back Belmont Road,04915,44.3932284,-69.0487365
99,Back Belmont Road,04915,44.3943902,-69.0476827
57,Back Belmont Road,04915,44.3974898,-69.0410112
53,Back Belmont Road,04915,44.3980075,-69.0408797
46,Back Belmont Road,04915,44.3979496,-69.0389396
42,Back Belmont Road,04915,44.3982515,-69.0379980
52,Back Belmont Road,04915,44.3975397,-69.0397618
32,Back Belmont Road,04915,44.3985942,-69.0362025
32,Back Belmont Road,04915,44.3976133,-69.0348520
26,Back Belmont Road,04915,44.3991437,-69.0353803
16,Back Belmont Road,04915,44.4000174,-69.0339116
254,Lincolnville Avenue,04915,44.4020259,-69.0309240
236,Lincolnville Avenue,04915,44.4042137,-69.0304542
216,Lincolnville Avenue,04915,44.4070140,-69.0289674
212,Lincolnville Avenue,04915,44.4072886,-69.0287101
177,Lincolnville Avenue,04915,44.4116423,-69.0252771
147,Lincolnville Avenue,04915,44.4149155,-69.0224209
128,Lincolnville Avenue,04915,44.4160052,-69.0201290
129,Lincolnville Avenue,04915,44.4166038,-69.0209959
281,Lincolnville Avenue,04915,44.3983702,-69.0328057
291,Lincolnville Avenue,04915,44.3970962,-69.0331691
295,Lincolnville Avenue,04915,44.3962679,-69.0331624
348,Lincolnville Avenue,04915,44.3892773,-69.0325558
358,Lincolnville Avenue,04915,44.3884539,-69.0313877
378,Lincolnville Avenue,04915,44.3850141,-69.0337900
416,Lincolnville Avenue,04915,44.3807694,-69.0333356
9,Piper Stream Lane,04915,44.3960857,-69.0399743
15,Alto Street,04915,44.4234333,-69.0155964
4,Alto Street,04915,44.4241446,-69.0153642
224,Main Street,04915,44.4242886,-69.0151004
220,Main Street,04915,44.4243112,-69.0148429
216,Main Street,04915,44.4244193,-69.0142525
152,Waldo Avenue,04915,44.4327595,-69.0204111
159,Waldo Avenue,04915,44.4331106,-69.0200657
9,Vine Street,04915,44.4336916,-69.0187655
25,Merriam Drive,04915,44.4332900,-69.0238666
257,Waldo Avenue,04915,44.4378763,-69.0266706
1,Waterville Road,04915,44.4383666,-69.0279148
6,Waterville Road,04915,44.4382944,-69.0287002
38,Waterville Road,04915,44.4396250,-69.0351723
52,Waterville Road,04915,44.4396469,-69.0370635
56,Waterville Road,04915,44.4396152,-69.0378300
36,Doak Road,04915,44.4425227,-69.0391388
75,Doak Road,04915,44.4452346,-69.0455688
99,Doak Road,04915,44.4470250,-69.0484293
70,Waterville Road,04915,44.4397494,-69.0401737
79,Waterville Road,04915,44.4410183,-69.0416511
86,Waterville Road,04915,44.4400228,-69.0434976
90,Waterville Road,04915,44.4400585,-69.0443961
104,Waterville Road,04915,44.4405616,-69.0469977
152,Waterville Road,04915,44.4422591,-69.0559339
2,Bubbling Brook Road,04915,44.4452336,-69.0576710
47,Head of the Tide Road,04915,44.4483685,-69.0538911
132,City Point Road,04915,44.4529983,-69.0363178
3,Moose Lane,04915,44.4512312,-69.0543337
250,Waterville Road,04915,44.4478539,-69.0726481
270,Waterville Road,04915,44.4489452,-69.0765706
27,Shepard Road,04915,44.4424523,-69.0650700
50,Fieldstone Drive,04915,44.4366798,-69.0599997
51,Shepard Road,04915,44.4402585,-69.0679075
124,Shepard Road,04915,44.4330630,-69.0783843
115,Shepard Road,04915,44.4343780,-69.0774626
3,April Road,04915,44.4334003,-69.1065422
9,April Road,04915,44.4342138,-69.1079196
1,Rolerson Road,04915,44.4278873,-69.1002693
10,Banks Road,04915,44.4270989,-69.1010029
14,Banks Road,04915,44.4264415,-69.1012028
10,Rolerson Road,04915,44.4274019,-69.0993953
25,Rolerson Road,04915,44.4249489,-69.0990645
7,Rolerson Road,04915,44.4267526,-69.1005752
33,Rolerson Road,04915,44.4242788,-69.0983725
26,Rolerson Road,04915,44.4254498,-69.0975767
24,Rolerson Road,04915,44.4260985,-69.0970187
49,Rolerson Road,04915,44.4226738,-69.0959641
68,Rolerson Road,04915,44.4207858,-69.0928644
31,Park Hill Road,04915,44.4138331,-69.0845133
2,Justin Lane,04915,44.4134911,-69.0843432
21,Park Hill Road,04915,44.4127580,-69.0835006
1,Blueberry Lane,04915,44.4129839,-69.0822826
2,Blueberry Lane,04915,44.4137444,-69.0827233
327,Belmont Avenue,04915,44.4104463,-69.0805898
269,Belmont Avenue,04915,44.4125283,-69.0703121
267,Belmont Avenue,04915,44.4119931,-69.0694950
256,Belmont Avenue,04915,44.4117690,-69.0678996
27,Pitcher Road,04915,44.4147762,-69.0746357
72,Pitcher Road,04915,44.4186093,-69.0709600
236,Main Street,04915,44.4240589,-69.0162499
12,Lincolnville Avenue,04915,44.4239242,-69.0134421
209,Main Street,04915,44.4247929,-69.0140516
203,Main Street,04915,44.4249280,-69.0135805
195,Main Street,04915,44.4249821,-69.0128958
9,Congress Street,04915,44.4242170,-69.0119660
73,Lincolnville Avenue,04915,44.4206693,-69.0166886
75,Lincolnville Avenue,04915,44.4207727,-69.0173795
68,Lincolnville Avenue,04915,44.4205073,-69.0162300
53,Lincolnville Avenue,04915,44.4219298,-69.0156149
158,Miller Street,04915,44.4204175,-69.0141259
3,School Street,04915,44.4203143,-69.0117768
10,School Street,04915,44.4198687,-69.0108785
4,School Street,04915,44.4201073,-69.0106273
6,Birch Street,04915,44.4201254,-69.0102379
106,Miller Street,04915,44.4213318,-69.0093337
59,Congress Street,04915,44.4219036,-69.0085863
53,Congress Street,04915,44.4221691,-69.0089506
63,Congress Street,04915,44.4217190,-69.0084355
65,Congress Street,04915,44.4215615,-69.0082408
79,Congress Street,04915,44.4208728,-69.0074179
60,Pine Street,04915,44.4201796,-69.0077947
85,Pearl Street,04915,44.4218496,-69.0072673
11,Congress Street,04915,44.4241450,-69.0116205
20,Congress Street,04915,44.4241361,-69.0109233
34,Franklin Street,04915,44.4235915,-69.0092963
33,Franklin Street,04915,44.4237851,-69.0095727
17,Cedar Street,04915,44.4241767,-69.0096733
11,Cedar Street,04915,44.4243522,-69.0099057
3,Cedar Street,04915,44.4247663,-69.0104083
172,Charles Street,04915,44.4248743,-69.0109423
6,Waldo Avenue,04915,44.4253020,-69.0104273
23,Franklin Street,04915,44.4242533,-69.0089635
28,Cedar Street,04915,44.4240237,-69.0086808
72,Charles Street,04915,44.4233530,-69.0089194
30,Cedar Street,04915,44.4238977,-69.0084358
31,Cedar Street,04915,44.4235781,-69.0086494
67,Spring Street,04915,44.4237672,-69.0079145
68,Spring Street,04915,44.4235782,-69.0075439
18,Waldo Avenue,04915,44.4258421,-69.0109550
22,Waldo Avenue,04915,44.4260671,-69.0112314
26,Waldo Avenue,04915,44.4262337,-69.0114639
12,Charles Street,04915,44.4263191,-69.0123999
9,Primrose Street,04915,44.4276741,-69.0120421
225,High Street,04915,44.4283043,-69.0112507
232,High Street,04915,44.4284168,-69.0121113
12,Primrose Street,04915,44.4273590,-69.0119541
25,Front Street,04915,44.4278007,-69.0040203
2,Pendleton Street,04915,44.4261441,-69.0060680
102,Main Street,04915,44.4257749,-69.0069223
68,Cedar Street,04915,44.4221333,-69.0058415
58,Pearl Street,04915,44.4229796,-69.0051255
9,Pine Street,04915,44.4228131,-69.0048366
70,Church Street,04915,44.4231732,-69.0043215
74,Church Street,04915,44.4233668,-69.0046105
42,Pearl Street,04915,44.4237089,-69.0036243
78,Church Street,04915,44.4235333,-69.0049434
81,Church Street,04915,44.4239744,-69.0048492
59,Court Street,04915,44.4219263,-69.0043842
67,Park Street,04915,44.4212420,-69.0058037
68,Park Street,04915,44.4210665,-69.0055901
83,Cedar Street,04915,44.4211475,-69.0050374
85,Cedar Street,04915,44.4210125,-69.0048992
71,Charles Street,04915,44.4210530,-69.0060424
40,Pine Street,04915,44.4213050,-69.0063816
39,Pine Street,04915,44.4213860,-69.0067584
86,Pearl Street,04915,44.4215661,-69.0069971
80,Spring Street,04915,44.4229884,-69.0084671
74,High Street,04915,44.4240240,-69.0029711
24,Park Street,04915,44.4232678,-69.0025628
20,Park Street,04915,44.4233848,-69.0024120
62,High Street,04915,44.4235649,-69.0021859
21,Park Street,04915,44.4234748,-69.0028580
7,Peach Street,04915,44.4230697,-69.0022613
50,High Street,04915,44.4229932,-69.0014573
47,Church Street,04915,44.4224035,-69.0024497
43,Church Street,04915,44.4222235,-69.0021545
41,Church Street,04915,44.4220749,-69.0019535
58,Church Street,04915,44.4225565,-69.0035049
60,Court Street,04915,44.4221649,-69.0040325
64,Court Street,04915,44.4219713,-69.0037687
68,Court Street,04915,44.4218408,-69.0035614
65,Court Street,04915,44.4216472,-69.0039194
10,Grove Street,04915,44.4215437,-69.0028768
96,Cedar Street,04915,44.4207920,-69.0039005
79,Court Street,04915,44.4210171,-69.0030589
84,Court Street,04915,44.4211386,-69.0024685
87,Congress Street,04915,44.4204182,-69.0069279
89,Congress Street,04915,44.4202742,-69.0067143
106,Congress Street,04915,44.4198196,-69.0051692
26,Elm Street,04915,44.4200538,-69.0028390
24,Elm Street,04915,44.4202158,-69.0025878
21,Elm Street,04915,44.4204139,-69.0028453
91,Elm Street,04915,44.4204589,-69.0021795
10,Elm Street,04915,44.4207290,-69.0018529
24,Church Street,04915,44.4209136,-69.0013504
20,Church Street,04915,44.4207785,-69.0008731
16,Church Street,04915,44.4206165,-69.0006218
19,Church Street,04915,44.4212377,-69.0005842
6,Church Street,04915,44.4202068,-69.0000503
9,Bell Street,04915,44.4208370,-68.9995101
5,High Street,04915,44.4205805,-68.9993971
9,Union Street,04915,44.4210486,-68.9987564
102,Union Street,04915,44.4209946,-68.9983104
44,Allyn Street,04915,44.4216967,-68.9955530
82,Bayview Street,04915,44.4211791,-68.9971296
4,North Ocean Street,04915,44.4207649,-68.9944602
27,Ocean Street,04915,44.4193109,-68.9943536
19,Cottage Street,04915,44.4200222,-68.9957479
27,Condon Street,04915,44.4191354,-68.9962567
32,Condon Street,04915,44.4195811,-68.9959300
30,Condon Street,04915,44.4195046,-68.9961813
19,North Ocean Street,04915,44.4198466,-68.9944477
28,Race Street,04915,44.4187078,-68.9957731
142,Union Street,04915,44.4184152,-68.9967340
126,Union Street,04915,44.4194191,-68.9973998
40,Northport Avenue,04915,44.4178976,-68.9977892
7,Race Street,04915,44.4179876,-68.9973433
137,Union Street,04915,44.4186493,-68.9974563
37,Durham Street,04915,44.4178931,-68.9984927
26,Northport Avenue,04915,44.4188564,-68.9981849
123,Union Street,04915,44.4194461,-68.9979525
108,Union Street,04915,44.4205804,-68.9980215
23,Durham Street,04915,44.4180642,-69.0004774
18,Durham Street,04915,44.4177491,-68.9997300
44,Northport Avenue,04915,44.4176230,-68.9975757
50,Northport Avenue,04915,44.4173349,-68.9974627
47,Northport Avenue,04915,44.4172449,-68.9981535
41,Northport Avenue,04915,44.4176140,-68.9983419
11,Cedar Lane,04915,44.4161330,-69.0029644
173,Cedar Street,04915,44.4158224,-69.0020098
69,Northport Avenue,04915,44.4158854,-68.9972806
45,Mayo Street,04915,44.4167900,-68.9926455
3,Water's Edge Lane,04915,44.4163083,-68.9921305
23,Mayo Street,04915,44.4164390,-68.9950133
9,Mayo Street,04915,44.4163176,-68.9961249
40,Mayo Street,04915,44.4169611,-68.9936127
104,Northport Avenue,04915,44.4139497,-68.9948314
103,Northport Avenue,04915,44.4137742,-68.9961000
17,Wight Street,04915,44.4145575,-68.9977203
29,Wight Street,04915,44.4147286,-68.9989449
34,Wight Street,04915,44.4139679,-68.9990203
30,Wight Street,04915,44.4135717,-68.9988507
36,Wight Street,04915,44.4135177,-68.9991962
45,Wight Street,04915,44.4141569,-69.0004773
21,Wight Street,04915,44.4144405,-68.9981411
25,Wight Street,04915,44.4143865,-68.9983797
61,Wight Street,04915,44.4139408,-69.0019343
80,Wight Street,04915,44.4133286,-69.0033034
186,Congress Street,04915,44.4142154,-69.0046788
167,Congress Street,04915,44.4154847,-69.0051563
165,Congress Street,04915,44.4156468,-69.0051374
161,Congress Street,04915,44.4158764,-69.0051437
16,Birch Street,04915,44.4188921,-69.0085796
10,Birch Street,04915,44.4191487,-69.0087052
16,School Street,04915,44.4190360,-69.0101498
12,School Street,04915,44.4193376,-69.0105958
226,Congress Street,04915,44.4109473,-69.0050554
12,R W MacLeod Lane,04915,44.4105062,-69.0042327
18,R W MacLeod Lane,04915,44.4106368,-69.0036047
1,R W MacLeod Lane,04915,44.4101370,-69.0051621
3,R W MacLeod Lane,04915,44.4101596,-69.0049737
7,R W MacLeod Lane,04915,44.4102046,-69.0045718
15,R W MacLeod Lane,04915,44.4103171,-69.0038245
23,R W MacLeod Lane,04915,44.4103847,-69.0028260
21,Airport Road,04915,44.4121445,-69.0077747
42,Route 1 Bypass,04915,44.4121129,-69.0089366
248,Congress Street,04915,44.4079989,-69.0027631
27,Little River Drive,04915,44.4050457,-69.0090234
294,Congress Street,04915,44.4014268,-69.0033969
24,Herrick Road,04915,44.3963312,-69.0041124
4,Cobb Road,04915,44.3955700,-69.0107171
3,Cobb Road,04915,44.3954394,-69.0113574
14,Cobb Road,04915,44.3941386,-69.0106226
10,Groening Drive,04915,44.3922652,-69.0168500
102,Woods Road,04915,44.3972487,-69.0138001
21,Bowling Green Lane,04915,44.3941732,-69.0203789
51,Woods Road,04915,44.3957889,-69.0224638
31,Seaview Terrace,04915,44.4112850,-68.9973624
23,Seaview Terrace,04915,44.4114200,-68.9962446
22,Seaview Terrace,04915,44.4110644,-68.9962195
17,Seaview Terrace,04915,44.4114740,-68.9959808
138,Northport Avenue,04915,44.4116045,-68.9939901
29,Huntress Avenue,04915,44.4110956,-68.9912646
50,Huntress Avenue,04915,44.4117122,-68.9895061
54,Huntress Avenue,04915,44.4117301,-68.9890477
53,Huntress Avenue,04915,44.4113745,-68.9888970
38,Fahy Street,04915,44.4125496,-68.9913774
73,Battery Road,04915,44.4057654,-68.9856516
67,Battery Road,04915,44.4052341,-68.9852938
69,Battery Road,04915,44.4053557,-68.9853441
46,Battery Road,04915,44.4036137,-68.9858782
2,Woodrow Lane,04915,44.4034969,-68.9880257
243,Northport Avenue,04915,44.4009266,-68.9884971
256,Northport Avenue,04915,44.3994230,-68.9870157
12,Hazeltine Road,04915,44.3985225,-68.9850883
12,Tozier Street,04915,44.3976042,-68.9852141
2,Tozier Street,04915,44.3974469,-68.9871291
11,Tozier Street,04915,44.3966814,-68.9850762
282,Northport Avenue,04915,44.3960019,-68.9868218
6,Condon Street,04915,44.4192930,-68.9983293
2,Northport Avenue,04915,44.4202113,-68.9990516
133,City Point Road,04915,44.4538496,-69.0348038
56,Pitcher Road,04915,44.4174647,-69.0729684
58,Back Belmont Road,04915,44.3970037,-69.0408601
109,Doak Road,04915,44.4486406,-69.0493418
143,Waldo Avenue,04915,44.4323592,-69.0185703
22,Washington Street,04915,44.4270893,-69.0078207
12,Washington Street,04915,44.4269588,-69.0070669
28,Washington Street,04915,44.4272963,-69.0080846
16,Washington Street,04915,44.4266842,-69.0074061
20,Robbins Road,04915,44.4372580,-69.0074011
188,Searsport Avenue,04915,44.4301022,-68.9725792
13,Chelsea Lane,04915,44.4291101,-68.9887994
83,Edgecomb Road,04915,44.4077056,-69.0346382
48,Old Searsport Avenue,04915,44.4300010,-68.9854258
15,Fairview Street,04915,44.4315774,-68.9978515
1,Harbor View Lane,04915,44.4332608,-69.0056290
1,Ashley Drive,04915,44.4334770,-69.0013507
22,Depot Lane,04915,44.4325334,-68.9746072
11,Blacks Landing,04915,44.4326263,-68.9996545
8,Alto Street,04915,44.4238790,-69.0151443
128,Bayside Drive,04915,44.4093668,-68.9885457
33,Searsport Avenue,04915,44.4335941,-69.0004712
18,Porter Road,04915,44.4266281,-68.9770847
20,Fairview Street,04915,44.4312308,-68.9984986
26,Searsport Avenue,04915,44.4342152,-69.0019224
5,Alto Street,04915,44.4239825,-69.0157410
153,Searsport Avenue,04915,44.4285280,-68.9788617
49,Patterson Hill Road,04915,44.4420247,-69.0109078
4,Airmail Lane,04915,44.4265618,-68.9845975
50,Old Searsport Avenue,04915,44.4301674,-68.9843013
5,Mitchell Street,04915,44.4326622,-68.9969720
7,Seabreeze Lane,04915,44.4376179,-69.0101216
50,Robbins Road,04915,44.4393057,-69.0122455
7,Fairview Street,04915,44.4316314,-68.9971102
17,Monument Way,04915,44.4270776,-68.9741698
42,Ocean Street,04915,44.4184961,-68.9934618
19,East Side Battery,04915,44.4265686,-68.9729326
90,Searsport Avenue,04915,44.4319101,-68.9902250
5,Overlook Drive,04915,44.4294296,-68.9879827
45,Old Searsport Avenue,04915,44.4298616,-68.9861357
52,Perkins Road,04915,44.3984334,-68.9980223
22,Porter Road,04915,44.4264391,-68.9775559
248,Searsport Avenue,04915,44.4328628,-68.9614268
36,Robbins Road,04915,44.4385812,-69.0097071
6,Ryer Road,04915,44.4100462,-69.0351294
20,Monument Way,04915,44.4265868,-68.9735796
176,Searsport Avenue,04915,44.4300082,-68.9748847
6,East Avenue,04915,44.4417903,-69.0133582
16,Fairview Street,04915,44.4312713,-68.9979835
4,Seabreeze Lane,04915,44.4379060,-69.0094557
18,Fairview Street,04915,44.4312308,-68.9982033
164,Searsport Avenue,04915,44.4295495,-68.9771338
250,Searsport Avenue,04915,44.4320660,-68.9611823
3,Harbor View Lane,04915,44.4331078,-69.0052897
160,Pitcher Road,04915,44.4244966,-69.0556468
6,Footbridge Road,04915,44.4336030,-69.0042406
45,Highview Terrace,04915,44.4310527,-68.9598826
36,Highview Terrace,04915,44.4299407,-68.9594813
122,Bayside Drive,04915,44.4091733,-68.9883511
10,East Side Battery,04915,44.4283060,-68.9719832
2,Franklin Street,04915,44.4252068,-69.0074502
45,Searsport Avenue,04915,44.4332904,-68.9983638
2,Franklin Street,04915,44.4252161,-69.0074760
2,Franklin Street,04915,44.4251898,-69.0074800
112,Church Street,04915,44.4252037,-69.0072342
132,High Street,04915,44.4259151,-69.0064518
239,Main Street,04915,44.4263609,-69.0183233
25,Lions Way,04915,44.4286860,-69.0182287
123,High Street,04915,44.4263399,-69.0054412
106,High Street,04915,44.4252247,-69.0052092
93,Lincolnville Avenue,04915,44.4204304,-69.0181964
192,Northport Avenue,04915,44.4078794,-68.9914860
5,Front Street,04915,44.4260525,-69.0010805
122,Lincolnville Avenue,04915,44.4154328,-69.0178910
31,Searsport Avenue,04915,44.4337475,-69.0009847
118,Northport Avenue,04915,44.4128136,-68.9940924
105,High Street,04915,44.4255341,-69.0047339
30,Main Street,04915,44.4276008,-69.0052158
116,Woods Road,04915,44.3964923,-69.0099606
88,Main Street,04915,44.4262073,-69.0063129
147,High Street,04915,44.4264003,-69.0068897
153,High Street,04915,44.4264766,-69.0071895
77,Main Street,04915,44.4265075,-69.0067933
76,Main Street,04915,44.4263362,-69.0062299
22,Front Street,04915,44.4273334,-69.0043687
2,Cross Street,04915,44.4273294,-69.0053160
39,Main Street,04915,44.4273513,-69.0060967
68,Main Street,04915,44.4265597,-69.0059594
48,Main Street,04915,44.4269883,-69.0057396
62,Main Street,04915,44.4266199,-69.0059315
167,High Street,04915,44.4267453,-69.0077956
158,High Street,04915,44.4261971,-69.0075575
103,Main Street,04915,44.4258763,-69.0072972
101,Main Street,04915,44.4259436,-69.0072324
28,Charles Street,04915,44.4255759,-69.0115373
22,Charles Street,04915,44.4258979,-69.0118954
26,Charles Street,04915,44.4256930,-69.0116714
18,Charles Street,04915,44.4260970,-69.0121925
27,Anderson Street,04915,44.4254557,-69.0109781
179,Main Street,04915,44.4251686,-69.0115840
29,Charles Street,04915,44.4253601,-69.0117621
27,Lincolnville Avenue,04915,44.4232422,-69.0144998
40,Lincolnville Avenue,04915,44.4226375,-69.0128946
113,High Street,04915,44.4259652,-69.0052660
23,Spring Street,04915,44.4261015,-69.0050854
28,Spring Street,04915,44.4257109,-69.0047959
18,Spring Street,04915,44.4261946,-69.0042238
21,Miller Street,04915,44.4258119,-69.0044162
118,High Street,04915,44.4255049,-69.0058144
99,High Street,04915,44.4252485,-69.0043435
96,High Street,04915,44.4249377,-69.0045174
108,Main Street,04915,44.4256230,-69.0070852
11,Spring Street,04915,44.4266382,-69.0045778
4,Public Safety Way,04915,44.4221037,-69.0109777
49,Congress Street,04915,44.4223161,-69.0094237
110,Miller Street,04915,44.4210991,-69.0097666
39,Front Street,04915,44.4289086,-69.0065185
45,Front Street,04915,44.4284408,-69.0077442
54,Front Street,04915,44.4279507,-69.0069759
21,Bridge Street,04915,44.4282476,-69.0093321
29,Bridge Street,04915,44.4286751,-69.0098327
12,Main Street,04915,44.4279011,-69.0046530
17,Main Street,04915,44.4281300,-69.0053104
15,Belmont Avenue,04915,44.4236894,-69.0248793
281,Main Street,04915,44.4243045,-69.0207577
262,Main Street,04915,44.4236839,-69.0186207
256,Main Street,04915,44.4234776,-69.0179997
139,Main Street,04915,44.4255086,-69.0087160
129,Main Street,04915,44.4256068,-69.0081668
134,Church Street,04915,44.4258705,-69.0083148
126,Church Street,04915,44.4257302,-69.0080009
121,Main Street,04915,44.4256040,-69.0078606
153,Main Street,04915,44.4255685,-69.0097243
96,Church Street,04915,44.4242631,-69.0065092
19,Franklin Street,04915,44.4246427,-69.0085916
128,Main Street,04915,44.4251954,-69.0079788
138,Main Street,04915,44.4250526,-69.0085567
167,Main Street,04915,44.4252576,-69.0106741
25,Front Street,04915,44.4287337,-69.0040484
15,Front Street,04915,44.4270875,-69.0032297
7,Front Street,04915,44.4267485,-69.0026385
25,Lions Way,04915,44.4289108,-69.0177479
34,Commercial Street;Commercial St.,04915,44.4258353,-69.0003169
196,Searsport Avenue,04915,44.4302412,-68.9712656
63,Church Street,04915,44.4232803,-69.0033309
40,Pearl Street,04915,44.4238686,-69.0038692
213,Searsport Avenue,04915,44.4301746,-68.9671577
44,Wonderview Circle,04915,44.4288227,-68.9664559
5,Wonderview Circle,04915,44.4294463,-68.9665976
2,Treat Street,04915,44.4300360,-68.9658307
11,Treat Street,04915,44.4294225,-68.9658755
25,Wonderview Circle,04915,44.4286798,-68.9677187
61,Little River Drive,04915,44.4068645,-69.0160053
57,Little River Drive,04915,44.4067888,-69.0135244
131,Church Street,04915,44.4261865,-69.0078290
26,Airport Road,04915,44.4104832,-69.0097147
18,Wright Brothers Drive,04915,44.4097141,-69.0063934
18,Wright Brothers Drive,04915,44.4091454,-69.0072070
18,Wright Brothers Drive,04915,44.4092215,-69.0074255
18,Wright Brothers Drive,04915,44.4091995,-69.0076215
18,Wright Brothers Drive,04915,44.4093531,-69.0062521
18,Wright Brothers Drive,04915,44.4093315,-69.0064478
18,Wright Brothers Drive,04915,44.4093095,-69.0066438
18,Wright Brothers Drive,04915,44.4092873,-69.0068367
18,Wright Brothers Drive,04915,44.4092654,-69.0070327
18,Wright Brothers Drive,04915,44.4092545,-69.0062292
18,Wright Brothers Drive,04915,44.4092330,-69.0064249
18,Wright Brothers Drive,04915,44.4092110,-69.0066209
18,Wright Brothers Drive,04915,44.4091890,-69.0068138
18,Wright Brothers Drive,04915,44.4091669,-69.0070099
18,Wright Brothers Drive,04915,44.4091243,-69.0074027
18,Wright Brothers Drive,04915,44.4091023,-69.0075987
18,Wright Brothers Drive,04915,44.4088801,-69.0073492
18,Wright Brothers Drive,04915,44.4088365,-69.0077409
18,Wright Brothers Drive,04915,44.4088584,-69.0075449
18,Wright Brothers Drive,04915,44.4087904,-69.0081459
18,Wright Brothers Drive,04915,44.4088124,-69.0079499
18,Wright Brothers Drive,04915,44.4087679,-69.0083523
18,Wright Brothers Drive,04915,44.4087459,-69.0085483
33,Airport Road,04915,44.4105149,-69.0112471
45,Searsport Avenue,04915,44.4332299,-68.9984745
49,Searsport Avenue,04915,44.4329660,-68.9971635
7,Eagle Avenue,04915,44.4295907,-68.9693963
6,Public Safety Way,04915,44.4225147,-69.0096439
24,Lions Way,04915,44.4288903,-69.0174342
173,Lincolnville Avenue,04915,44.4127873,-69.0293882
157,Lincolnville Avenue,04915,44.4142834,-69.0233207
19,Lions Way,04915,44.4297304,-69.0174358
111,High Street,04915,44.4256224,-69.0051615
26,Spring Street,04915,44.4258516,-69.0048748
34,Spring Street,04915,44.4254268,-69.0053949
95,High Street,04915,44.4251546,-69.0040389
20,Miller Street,04915,44.4257224,-69.0038934
3,Union Street,04915,44.4256338,-69.0037488
5,Union Street,04915,44.4255894,-69.0036803
93,High Street,04915,44.4250462,-69.0038624
89,High Street,04915,44.4248894,-69.0037575
85,High Street,04915,44.4248774,-69.0035379
83,High Street,04915,44.4247203,-69.0034045
19,Pearl Street,04915,44.4251849,-69.0029679
11,Union Street,04915,44.4252951,-69.0032871
7,Union Street,04915,44.4255112,-69.0035405
109,High Street,04915,44.4255838,-69.0049676
112,Church Street,04915,44.4250483,-69.0072905
5,Washington Street,04915,44.4273993,-69.0085902
29,Washington Street,04915,44.4275866,-69.0081747
64,Front Street,04915,44.4279660,-69.0081830
19,Bridge Street,04915,44.4280833,-69.0092104
76,Front Street,04915,44.4285132,-69.0091317
101,Front Street,04915,44.4295400,-69.0082239
321,Stover Lane,04915,44.4336318,-69.0164487
327,High Street,04915,44.4341336,-69.0165357
331,High Street,04915,44.4345422,-69.0159779
341,High Street,04915,44.4345122,-69.0173633
346,High Street,04915,44.4343844,-69.0179459
349,High Street,04915,44.4351324,-69.0177612
366,High Street,04915,44.4355214,-69.0190746
360,High Street,04915,44.4351529,-69.0187077
358,High Street,04915,44.4349631,-69.0190863
379,High Street,04915,44.4365538,-69.0192137
380,High Street,04915,44.4364336,-69.0199956
388,High Street,04915,44.4368128,-69.0201182
387,High Street,04915,44.4370570,-69.0194596
393,High Street,04915,44.4374167,-69.0198331
401,High Street,04915,44.4378875,-69.0201585
414,High Street,04915,44.4386105,-69.0210031
76,City Point Road,04915,44.4468099,-69.0308994
121,City Point Road,04915,44.4517764,-69.0349861
57,Head of the Tide Road,04915,44.4490167,-69.0517698
56,Head of the Tide Road,04915,44.4493537,-69.0529430
54,Head of the Tide Road,04915,44.4491798,-69.0535136
52,Head of the Tide Road,04915,44.4491546,-69.0536968
50,Head of the Tide Road,04915,44.4491524,-69.0538670
46,Head of the Tide Road,04915,44.4490359,-69.0543916
4,West Waldo Road,04915,44.4489855,-69.0552475
42,Head of the Tide Road,04915,44.4484510,-69.0553563
33,Head of the Tide Road,04915,44.4475427,-69.0560524
30,Head of the Tide Road,04915,44.4476796,-69.0570316
28,Head of the Tide Road,04915,44.4474413,-69.0574003
4,Head of the Tide Road,04915,44.4454200,-69.0611544
185,Waterville Road,04915,44.4450772,-69.0610315
181,Waterville Road,04915,44.4448332,-69.0603794
177,Waterville Road,04915,44.4445351,-69.0599933
190,Waterville Road,04915,44.4449055,-69.0616788
196,Waterville Road,04915,44.4451023,-69.0625314
195,Waterville Road,04915,44.4458507,-69.0628623
204,Waterville Road,04915,44.4454616,-69.0649260
217,Waterville Road,04915,44.4469550,-69.0664408
225,Waterville Road,04915,44.4473709,-69.0682288
225,Waterville Road,04915,44.4484844,-69.0679870
29,Head of the Tide Road,04915,44.4463914,-69.0561680
39,Homestead Close,04915,44.4483115,-69.0578407
24,Homestead Close,04915,44.4487198,-69.0600374
38,Homestead Close,04915,44.4490747,-69.0585610
40,Homestead Close,04915,44.4495096,-69.0581296
9,West Waldo Road,04915,44.4496199,-69.0556325
49,West Waldo Road,04915,44.4535709,-69.0615248
1,Athena Way,04915,44.4204242,-69.0236247
3,Hatley Road,04915,44.4191670,-69.0212680
10,Public Safety Way,04915,44.4223111,-69.0100588
173,Lincolnville Avenue,04915,44.4131579,-69.0271708
103,Church Street,04915,44.4250973,-69.0063093
105,High Street,04915,44.4255341,-69.0047339
