House number,Street name,Postal code,Latitude,Longitude
201,Wilson Street,04412,44.7922934,-68.7625358
49,Airport Road,04412,44.7638231,-68.7678548
383,Wilson Street,04412,44.7832182,-68.7542008
22,Parkway South,04412,44.7820587,-68.7510561
395,North Main Street,04412,44.7992006,-68.7537113
409,North Main Street,04412,44.8004515,-68.7535542
470,Wilson Street,04412,44.7826234,-68.7470153
470,Wilson Street,04412,44.7825993,-68.7469574
12,State Street,04412,44.7979845,-68.7618210
12 1/2,State Street,04412,44.7979683,-68.7617297
103,Center Street,04412,44.7967527,-68.7625593
15,Dirigo Drive,04412,44.7806732,-68.7533982
229,Dirigo Drive,04412,44.7747267,-68.7389651
373,Wilson Street,04412,44.7852940,-68.7541192
22,Stone Street,04412,44.7675598,-68.7813374
221,Pierce Road,04412,44.7880682,-68.7274898
189,Elm Street,04412,44.7672075,-68.7693021
186,Center Street,04412,44.7958592,-68.7614694
18,River City Drive,04412,44.7838678,-68.7328376
12,River City Drive,04412,44.7837317,-68.7323958
22,River City Drive,04412,44.7842371,-68.7329117
121,Church Street,04412,44.7953285,-68.7638548
12,Hardy Street,04412,44.7912533,-68.7696362
12,Maple Street,04412,44.7908529,-68.7675076
36,Allen Road,04412,44.8009646,-68.7556320
38,Evergreen Ridge,04412,44.7840679,-68.7336962
124,Parker Street,04412,44.7919045,-68.7602025
242,State Street,04412,44.7861778,-68.7532294
244,State Street,04412,44.7861417,-68.7532043
248,State Street,04412,44.7860605,-68.7531414
250,State Street,04412,44.7860200,-68.7531100
256,State Street,04412,44.7859027,-68.7530220
688,Wilson Street,04412,44.7761753,-68.7327972
9,Circle Drive,04412,44.7834947,-68.7330668
11,Washington Street,04412,44.7945181,-68.7594457
174,Outback Lane,04412,44.7468658,-68.7317511
21,Outback Lane,04412,44.7528253,-68.7279082
73,Outback Lane,04412,44.7513261,-68.7277826
293,Wiswell Road,04412,44.7565953,-68.7309101
283,Wiswell Road,04412,44.7569707,-68.7316538
261,Wiswell Road,04412,44.7575278,-68.7331358
33,Whiting Hill Road,04412,44.7702501,-68.7282687
377,Dirigo Drive,04412,44.7723299,-68.7283727
797,Wilson Street,04412,44.7728537,-68.7272138
67,Felts Brook Drive,04412,44.7622808,-68.7330381
200,Wiswell Road,04412,44.7596024,-68.7368347
28,Felts Brook Drive,04412,44.7607710,-68.7361029
978,Wilson Street,04412,44.7684231,-68.7137257
348,Lambert Road,04412,44.7966622,-68.6976176
338,Lambert Road,04412,44.7964617,-68.6983710
325,Lambert Road,04412,44.7956123,-68.6988748
306,Lambert Road,04412,44.7959999,-68.7007755
455,Day Road,04412,44.7953323,-68.7036806
250,Lambert Road,04412,44.7954122,-68.7049824
516,Lambert Road,04412,44.8017927,-68.6872793
508,Lambert Road,04412,44.8016102,-68.6880516
496,Lambert Road,04412,44.8013691,-68.6887610
478,Lambert Road,04412,44.8010621,-68.6900587
458,Lambert Road,04412,44.8004540,-68.6915603
438,Lambert Road,04412,44.7995065,-68.6923998
422,Lambert Road,04412,44.7989644,-68.6933257
18,Night Road,04412,44.7980023,-68.6920980
406,Lambert Road,04412,44.7984857,-68.6944282
388,Lambert Road,04412,44.7975739,-68.6951474
372,Lambert Road,04412,44.7973148,-68.6958758
358,Lambert Road,04412,44.7967325,-68.6969788
406,Day Road,04412,44.7992429,-68.7016375
360,Day Road,04412,44.8005606,-68.7029204
384,Day Road,04412,44.7993802,-68.7024776
374,Day Road,04412,44.8006165,-68.7019276
336,Day Road,04412,44.8018418,-68.7023006
111,Wiswell Road,04412,44.7617319,-68.7429407
41,Wiswell Road,04412,44.7630173,-68.7481599
55,Paul Hatt Drive,04412,44.7705538,-68.7368545
221,Dirigo Drive,04412,44.7750342,-68.7396020
617,Wilson Street,04412,44.7773237,-68.7369312
19,Sparks Avenue,04412,44.7772997,-68.7382394
29,Sparks Avenue,04412,44.7767603,-68.7386021
39,Sparks Avenue,04412,44.7763206,-68.7391918
49,Sparks Avenue,04412,44.7758624,-68.7395983
50,Sparks Avenue,04412,44.7755317,-68.7386645
30,Sparks Avenue,04412,44.7765510,-68.7376045
198,Dirigo Drive,04412,44.7762519,-68.7406708
603,Wilson Street,04412,44.7783358,-68.7386076
609,Wilson Street,04412,44.7779190,-68.7393994
589,Wilson Street,04412,44.7785040,-68.7393526
581,Wilson Street,04412,44.7786857,-68.7400848
565,Wilson Street,04412,44.7790794,-68.7409931
20,Green Point Road,04412,44.7792188,-68.7429326
32,Green Point Road,04412,44.7787514,-68.7432633
176,Dirigo Drive,04412,44.7769841,-68.7420073
50,Green Point Road,04412,44.7772487,-68.7435733
90,Green Point Road,04412,44.7759191,-68.7447609
112,Green Point Road,04412,44.7746953,-68.7450001
164,Green Point Road,04412,44.7721459,-68.7462372
184,Green Point Road,04412,44.7705789,-68.7459850
206,Green Point Road,04412,44.7698124,-68.7473911
493,Eastern Avenue,04412,44.7880217,-68.7194059
483,Eastern Avenue,04412,44.7881231,-68.7203788
457,Eastern Avenue,04412,44.7886987,-68.7220005
435,Eastern Avenue,04412,44.7895388,-68.7232100
419,Eastern Avenue,04412,44.7900051,-68.7242950
413,Eastern Avenue,04412,44.7893176,-68.7248166
401,Eastern Avenue,04412,44.7904310,-68.7254687
387,Eastern Avenue,04412,44.7905188,-68.7264353
381,Eastern Avenue,04412,44.7905243,-68.7268525
351,Eastern Avenue,04412,44.7903632,-68.7291162
321,Eastern Avenue,04412,44.7900850,-68.7314120
325,Eastern Avenue,04412,44.7895569,-68.7307570
337,Eastern Avenue,04412,44.7902391,-68.7299448
309,Eastern Avenue,04412,44.7904023,-68.7323333
330,Eastern Avenue,04412,44.7914519,-68.7307735
342,Eastern Avenue,04412,44.7913056,-68.7298071
58,Craig Drive,04412,44.7902981,-68.7282631
55,Craig Drive,04412,44.7895419,-68.7282288
46,Craig Drive,04412,44.7897245,-68.7293088
36,Craig Drive,04412,44.7893112,-68.7296520
26,Craig Drive,04412,44.7886143,-68.7299840
16,Craig Drive,04412,44.7879686,-68.7291084
8,Craig Drive,04412,44.7878007,-68.7285593
220,Pierce Road,04412,44.7883987,-68.7282847
234,Pierce Road,04412,44.7890147,-68.7279847
225,Pierce Road,04412,44.7868127,-68.7257450
207,Pierce Road,04412,44.7875062,-68.7277579
170,Pierce Road,04412,44.7860034,-68.7299013
154,Pierce Road,04412,44.7855603,-68.7309589
42,Bennett Road,04412,44.7831457,-68.7282019
93,Bennett Road,04412,44.7822779,-68.7248437
125,Bennett Road,04412,44.7837057,-68.7233643
85,Bennett Road,04412,44.7814567,-68.7240197
111,Bennett Road,04412,44.7829504,-68.7237408
104,Bennett Road,04412,44.7828366,-68.7250749
149,Bennett Road,04412,44.7846617,-68.7222158
126,Pierce Road,04412,44.7842763,-68.7323616
121,Pierce Road,04412,44.7835214,-68.7310126
111,Pierce Road,04412,44.7830947,-68.7313685
104,Pierce Road,04412,44.7838640,-68.7331473
91,Pierce Road,04412,44.7819987,-68.7323722
88,Pierce Road,04412,44.7819513,-68.7332446
70,Pierce Road,04412,44.7811381,-68.7338803
69,Pierce Road,04412,44.7808939,-68.7333948
73,Pierce Road,04412,44.7811046,-68.7330589
59,Pierce Road,04412,44.7804712,-68.7335800
57,Wild Rose Drive,04412,44.7802315,-68.7330882
53,Wild Rose Drive,04412,44.7806133,-68.7327578
47,Wild Rose Drive,04412,44.7807325,-68.7317587
41,Wild Rose Drive,04412,44.7803260,-68.7311602
39,Wild Rose Drive,04412,44.7799568,-68.7311303
33,Wild Rose Drive,04412,44.7794489,-68.7314297
25,Wild Rose Drive,04412,44.7792489,-68.7325239
17,Wild Rose Drive,04412,44.7795338,-68.7330787
11,Wild Rose Drive,04412,44.7797554,-68.7335517
47,Pierce Road,04412,44.7799456,-68.7340185
36,Wild Rose Drive,04412,44.7798373,-68.7320030
10,Lupine Lane,04412,44.7800243,-68.7349661
32,Pierce Road,04412,44.7792333,-68.7354753
15,Pierce Road,04412,44.7784370,-68.7356496
40,Pierce Road,04412,44.7798315,-68.7352766
590,Wilson Street,04412,44.7791554,-68.7387872
600,Wilson Street,04412,44.7789698,-68.7383520
610,Wilson Street,04412,44.7787975,-68.7377713
618,Wilson Street,04412,44.7784584,-68.7371472
652,Wilson Street,04412,44.7776454,-68.7339658
710,Wilson Street,04412,44.7758558,-68.7309408
718,Wilson Street,04412,44.7754313,-68.7303298
249,Pierce Road,04412,44.7899804,-68.7271332
239,Pierce Road,04412,44.7894037,-68.7269020
239,Pierce Road,04412,44.7894804,-68.7269902
239,Pierce Road,04412,44.7893408,-68.7269529
10,Hobbit Way,04412,44.7823474,-68.7332490
10,Hobbit Way,04412,44.7823972,-68.7333626
10,Hobbit Way,04412,44.7824289,-68.7334699
10,Hobbit Way,04412,44.7824651,-68.7335329
15,Hobbit Way,04412,44.7829285,-68.7334486
15,Hobbit Way,04412,44.7829827,-68.7335432
15,Hobbit Way,04412,44.7830234,-68.7336188
15,Hobbit Way,04412,44.7830462,-68.7337198
400,Eastern Avenue,04412,44.7910206,-68.7254722
414,Eastern Avenue,04412,44.7912067,-68.7242324
440,Eastern Avenue,04412,44.7899152,-68.7225129
460,Eastern Avenue,04412,44.7893581,-68.7210744
474,Eastern Avenue,04412,44.7889198,-68.7204002
4,Lambert Road,04412,44.7887206,-68.7199208
22,Lambert Road,04412,44.7897095,-68.7193598
36,Lambert Road,04412,44.7901036,-68.7185551
46,Lambert Road,04412,44.7905706,-68.7181294
62,Lambert Road,04412,44.7917161,-68.7172009
78,Lambert Road,04412,44.7928441,-68.7182637
107,Odwyer Road,04412,44.7976072,-68.7186577
104,Lambert Road,04412,44.7947143,-68.7173633
140,Lambert Road,04412,44.7940458,-68.7128341
178,Lambert Road,04412,44.7948990,-68.7102444
196,Lambert Road,04412,44.7952202,-68.7091176
212,Lambert Road,04412,44.7963140,-68.7073673
403,Day Road,04412,44.7984384,-68.7038227
379,Day Road,04412,44.7995052,-68.7038362
207,Oregan Road,04412,44.8026346,-68.7130697
339,Day Road,04412,44.8015596,-68.7045591
49,Crabapple Lane,04412,44.7993937,-68.7059546
325,Day Road,04412,44.8025120,-68.7038398
321,Day Road,04412,44.8026657,-68.7058305
314,Day Road,04412,44.8031620,-68.7028312
306,Day Road,04412,44.8035721,-68.7030314
290,Day Road,04412,44.8044384,-68.7020976
298,Day Road,04412,44.8040024,-68.7023338
268,Day Road,04412,44.8057154,-68.7033239
256,Day Road,04412,44.8063693,-68.7037758
245,Day Road,04412,44.8064085,-68.7050085
235,Day Road,04412,44.8070437,-68.7052266
238,Day Road,04412,44.8071630,-68.7043534
17,Sabine Mill Road,04412,44.8073271,-68.7034168
27,Sabine Mill Road,04412,44.8074961,-68.7026319
38,Sabine Mill Road,04412,44.8084631,-68.7023424
28,Sabine Mill Road,04412,44.8088660,-68.7032509
218,Day Road,04412,44.8083566,-68.7046761
226,Day Road,04412,44.8076819,-68.7048503
225,Day Road,04412,44.8075934,-68.7054577
207,Day Road,04412,44.8084054,-68.7061491
208,Day Road,04412,44.8086422,-68.7054714
200,Day Road,04412,44.8089309,-68.7056912
188,Day Road,04412,44.8096873,-68.7058012
1,White Tail Road,04412,44.8095457,-68.7067187
5,White Tail Road,04412,44.8095327,-68.7069148
7,White Tail Road,04412,44.8095152,-68.7071236
9,White Tail Road,04412,44.8094977,-68.7073133
11,White Tail Road,04412,44.8094847,-68.7075221
15,White Tail Road,04412,44.8094581,-68.7076992
17,White Tail Road,04412,44.8094542,-68.7079079
19,White Tail Road,04412,44.8094412,-68.7081166
23,White Tail Road,04412,44.8094011,-68.7082812
25,White Tail Road,04412,44.8093746,-68.7084774
27,White Tail Road,04412,44.8093751,-68.7086671
29,White Tail Road,04412,44.8093712,-68.7089010
33,White Tail Road,04412,44.8093401,-68.7090593
35,White Tail Road,04412,44.8093271,-68.7092617
2,White Tail Road,04412,44.8093022,-68.7065619
6,White Tail Road,04412,44.8092937,-68.7067516
8,White Tail Road,04412,44.8092898,-68.7069793
10,White Tail Road,04412,44.8092542,-68.7071565
14,White Tail Road,04412,44.8092367,-68.7073526
18,White Tail Road,04412,44.8092056,-68.7075045
20,White Tail Road,04412,44.8091881,-68.7077006
22,White Tail Road,04412,44.8091887,-68.7079282
24,White Tail Road,04412,44.8091847,-68.7081243
26,White Tail Road,04412,44.8091582,-68.7083204
28,White Tail Road,04412,44.8091406,-68.7085102
32,White Tail Road,04412,44.8091186,-68.7087000
34,White Tail Road,04412,44.8091056,-68.7088834
36,White Tail Road,04412,44.8090655,-68.7090543
3,Black Bear Road,04412,44.8091308,-68.7064426
5,Black Bear Road,04412,44.8091180,-68.7066956
7,Black Bear Road,04412,44.8091275,-68.7068979
11,Black Bear Road,04412,44.8090874,-68.7070625
51,Holyoke Street,04412,44.7959488,-68.7591111
55,Union Street,04412,44.7951691,-68.7651134
57,Chamberlain Street,04412,44.7962881,-68.7578011
135,Elm Street,04412,44.7672905,-68.7725115
203,State Street,04412,44.7892392,-68.7556499
261,Center Street,04412,44.7919878,-68.7591023
403,Elm Street,04412,44.7661657,-68.7532388
403,Wilson Street,04412,44.7844837,-68.7524972
407,Wilson Street,04412,44.7844431,-68.7524152
409,Wilson Street,04412,44.7844250,-68.7523773
411,Wilson Street,04412,44.7844024,-68.7523332
413,Wilson Street,04412,44.7843798,-68.7522954
415,Wilson Street,04412,44.7843617,-68.7522512
419,Wilson Street,04412,44.7843210,-68.7521692
689,Wilson Street,04412,44.7760539,-68.7328799
731,Wilson Street,04412,44.7747824,-68.7300295
753,Wilson Street,04412,44.7740992,-68.7285540
13,Black Bear Road,04412,44.8090834,-68.7072648
15,Black Bear Road,04412,44.8090524,-68.7074420
17,Black Bear Road,04412,44.8090349,-68.7076381
19,Black Bear Road,04412,44.8090129,-68.7078406
23,Black Bear Road,04412,44.8089863,-68.7080178
25,Black Bear Road,04412,44.8089778,-68.7082138
27,Black Bear Road,04412,44.8089603,-68.7084036
29,Black Bear Road,04412,44.8089473,-68.7086060
33,Black Bear Road,04412,44.8089343,-68.7088021
35,Black Bear Road,04412,44.8089033,-68.7089919
4,Black Bear Road,04412,44.8089144,-68.7062793
6,Black Bear Road,04412,44.8088878,-68.7064628
8,Black Bear Road,04412,44.8088568,-68.7066527
12,Black Bear Road,04412,44.8088529,-68.7068677
14,Black Bear Road,04412,44.8088489,-68.7070574
16,Black Bear Road,04412,44.8087953,-68.7072347
18,Black Bear Road,04412,44.8087777,-68.7074118
20,Black Bear Road,04412,44.8087738,-68.7076205
24,Black Bear Road,04412,44.8087517,-68.7078040
26,Black Bear Road,04412,44.8087478,-68.7080253
28,Black Bear Road,04412,44.8087212,-68.7081961
32,Black Bear Road,04412,44.8087173,-68.7084175
34,Black Bear Road,04412,44.8086907,-68.7085883
36,Black Bear Road,04412,44.8086732,-68.7087844
38,Black Bear Road,04412,44.8086693,-68.7089994
179,Day Road,04412,44.8098389,-68.7069638
173,Day Road,04412,44.8100960,-68.7071712
176,Day Road,04412,44.8102333,-68.7063359
359,Day Road,04412,44.8004560,-68.7042549
278,Elm Street,04412,44.7676439,-68.7625775
237,Elm Street,04412,44.7671632,-68.7652332
227,Elm Street,04412,44.7672010,-68.7661050
213,Elm Street,04412,44.7667339,-68.7665997
185,Elm Street,04412,44.7672121,-68.7693274
161,Elm Street,04412,44.7671931,-68.7710650
147,Elm Street,04412,44.7671548,-68.7721646
26,Airport Road,04412,44.7664146,-68.7711755
56,Airport Road,04412,44.7653377,-68.7695587
35,Airport Road,04412,44.7658427,-68.7710451
116,Canterbury Road,04412,44.7703490,-68.7540488
115,Canterbury Road,04412,44.7690605,-68.7556086
221,Green Point Road,04412,44.7693964,-68.7485745
207,Green Point Road,04412,44.7701522,-68.7484070
33,Country Way,04412,44.7728732,-68.7556873
174,Starlight Drive,04412,44.7740097,-68.7546209
7,Calvin Court,04412,44.7733282,-68.7537770
108,Canterbury Road,04412,44.7699704,-68.7559144
112,Canterbury Road,04412,44.7697941,-68.7555486
77,Green Point Road,04412,44.7767703,-68.7450036
73,Green Point Road,04412,44.7770358,-68.7449456
39,Green Point Road,04412,44.7784610,-68.7442442
33,Green Point Road,04412,44.7787083,-68.7440914
25,Green Point Road,04412,44.7791404,-68.7441021
19,Green Point Road,04412,44.7794818,-68.7437973
505,Wilson Street,04412,44.7809653,-68.7449852
499,Wilson Street,04412,44.7811552,-68.7453509
483,Wilson Street,04412,44.7816890,-68.7465620
453,Wilson Street,04412,44.7823596,-68.7485372
437,Wilson Street,04412,44.7827492,-68.7496858
28,Parkway South,04412,44.7820815,-68.7510728
38,Parkway South,04412,44.7816692,-68.7518645
6,Dirigo Drive,04412,44.7812930,-68.7527383
74,Parkway South,04412,44.7806665,-68.7544410
96,Parkway South,04412,44.7803234,-68.7560604
40,Liberty Drive,04412,44.7780393,-68.7593625
146,Parkway South,04412,44.7796877,-68.7598549
162,Parkway South,04412,44.7792624,-68.7609184
186,Parkway South,04412,44.7791897,-68.7627514
176,Parkway South,04412,44.7794946,-68.7622003
79,Parkway South,04412,44.7818075,-68.7554664
151,Parkway South,04412,44.7804954,-68.7607679
151,Parkway South,04412,44.7804244,-68.7612549
90,Acme Road,04412,44.7828818,-68.7590011
67,Acme Road,04412,44.7839768,-68.7595843
59,Acme Road,04412,44.7846021,-68.7594300
60,Acme Road,04412,44.7839022,-68.7583964
29,Dirigo Drive,04412,44.7800775,-68.7526487
75,Liberty Drive,04412,44.7762230,-68.7582831
308,Eastern Avenue,04412,44.7908842,-68.7324512
301,Eastern Avenue,04412,44.7904805,-68.7330536
296,Eastern Avenue,04412,44.7908640,-68.7334437
285,Eastern Avenue,04412,44.7903615,-68.7341476
295,Eastern Avenue,04412,44.7897784,-68.7331074
272,Eastern Avenue,04412,44.7910250,-68.7349410
255,Eastern Avenue,04412,44.7904205,-68.7362838
245,Eastern Avenue,04412,44.7903236,-68.7372261
237,Eastern Avenue,04412,44.7902079,-68.7378082
231,Eastern Avenue,04412,44.7904342,-68.7383507
225,Eastern Avenue,04412,44.7904353,-68.7388311
16,Spaulding Lane,04412,44.7898644,-68.7391561
11,Spaulding Lane,04412,44.7899155,-68.7398638
201,Eastern Avenue,04412,44.7904526,-68.7404682
197,Eastern Avenue,04412,44.7904309,-68.7408222
191,Eastern Avenue,04412,44.7903961,-68.7413913
183,Eastern Avenue,04412,44.7901147,-68.7423533
161,Eastern Avenue,04412,44.7902036,-68.7438320
22,Allison Park,04412,44.7893821,-68.7427990
16,Allison Park,04412,44.7896750,-68.7429684
153,Eastern Avenue,04412,44.7901596,-68.7442810
145,Eastern Avenue,04412,44.7901925,-68.7449066
17,Rinfret Drive,04412,44.7894277,-68.7450680
129,Eastern Avenue,04412,44.7902088,-68.7461707
125,Eastern Avenue,04412,44.7902140,-68.7464615
119,Eastern Avenue,04412,44.7902014,-68.7468914
111,Eastern Avenue,04412,44.7901710,-68.7474035
107,Eastern Avenue,04412,44.7901944,-68.7477890
103,Eastern Avenue,04412,44.7901456,-68.7481368
97,Eastern Avenue,04412,44.7900343,-68.7486556
87,Eastern Avenue,04412,44.7901752,-68.7492871
14,Lyford Drive,04412,44.7875995,-68.7447663
58,Colonial Circle,04412,44.7885559,-68.7477455
79,Eastern Avenue,04412,44.7902082,-68.7499949
440,Wilson Street,04412,44.7836417,-68.7482283
448,Wilson Street,04412,44.7834785,-68.7476981
30,Clisham Road,04412,44.7839671,-68.7467859
460,Wilson Street,04412,44.7828846,-68.7478081
29,Clisham Road,04412,44.7833221,-68.7461630
484,Wilson Street,04412,44.7823679,-68.7461988
480,Wilson Street,04412,44.7824900,-68.7464574
492,Wilson Street,04412,44.7821191,-68.7456437
500,Wilson Street,04412,44.7819152,-68.7450505
508,Wilson Street,04412,44.7817023,-68.7444510
510,Wilson Street,04412,44.7814527,-68.7435168
11,Allison Park,04412,44.7897760,-68.7438465
17,Allison Park,04412,44.7894741,-68.7436772
21,Allison Park,04412,44.7891898,-68.7433561
27,Allison Park,04412,44.7889015,-68.7432563
33,Allison Park,04412,44.7886622,-68.7429539
37,Allison Park,04412,44.7884008,-68.7427781
41,Allison Park,04412,44.7881889,-68.7426337
45,Allison Park,04412,44.7878961,-68.7425528
53,Allison Park,04412,44.7876437,-68.7423706
59,Allison Park,04412,44.7873326,-68.7421634
61,Allison Park,04412,44.7871784,-68.7416458
57,Whitney Court,04412,44.7878265,-68.7416113
48,Allison Park,04412,44.7880206,-68.7418570
44,Allison Park,04412,44.7882731,-68.7420328
3,Whitney Court,04412,44.7885657,-68.7420505
11,Whitney Court,04412,44.7887764,-68.7416703
29,Whitney Court,04412,44.7886136,-68.7413487
33,Whitney Court,04412,44.7883657,-68.7412234
49,Whitney Court,04412,44.7880954,-68.7411108
42,Whitney Court,04412,44.7882060,-68.7402380
38,Whitney Court,04412,44.7884856,-68.7405023
32,Whitney Court,04412,44.7886932,-68.7407226
26,Whitney Court,04412,44.7889726,-68.7408604
20,Whitney Court,04412,44.7894106,-68.7414779
12,Whitney Court,04412,44.7891376,-68.7421933
4,Whitney Court,04412,44.7888861,-68.7424473
28,Allison Park,04412,44.7891300,-68.7427812
258,Eastern Avenue,04412,44.7917595,-68.7352853
368,Eastern Avenue,04412,44.7909408,-68.7278240
380,Eastern Avenue,04412,44.7909747,-68.7269642
360,Eastern Avenue,04412,44.7918777,-68.7281103
547,North Main Street,04412,44.8038442,-68.7448149
559,North Main Street,04412,44.8025035,-68.7430821
570,North Main Street,04412,44.8070312,-68.7469379
578,North Main Street,04412,44.8052675,-68.7432153
17,Boulevard Of Dreams,04412,44.8032026,-68.7417513
582,North Main Street,04412,44.8054608,-68.7431196
587,North Main Street,04412,44.8050896,-68.7421982
588,North Main Street,04412,44.8055949,-68.7427144
595,North Main Street,04412,44.8053399,-68.7414067
613,North Main Street,04412,44.8036526,-68.7396946
620,North Main Street,04412,44.8066982,-68.7409328
628,North Main Street,04412,44.8070393,-68.7405076
8,Treats Falls Drive,04412,44.8072154,-68.7407787
16,Treats Falls Drive,04412,44.8073833,-68.7413470
18,Treats Falls Drive,04412,44.8077392,-68.7414782
21,Treats Falls Drive,04412,44.8079319,-68.7411043
17,Treats Falls Drive,04412,44.8078275,-68.7407507
11,Treats Falls Drive,04412,44.8076157,-68.7406188
5,Treats Falls Drive,04412,44.8074035,-68.7403289
627,North Main Street,04412,44.8042262,-68.7386045
637,North Main Street,04412,44.8070958,-68.7396222
640,North Main Street,04412,44.8074705,-68.7401263
644,North Main Street,04412,44.8077002,-68.7401695
649,North Main Street,04412,44.8075394,-68.7387540
645,North Main Street,04412,44.8073741,-68.7392985
33,Sleepy People Lane,04412,44.8061015,-68.7378563
663,North Main Street,04412,44.8082317,-68.7383588
669,North Main Street,04412,44.8084919,-68.7380099
671,North Main Street,04412,44.8079028,-68.7362611
675,North Main Street,04412,44.8088285,-68.7375657
683,North Main Street,04412,44.8089308,-68.7370152
692,North Main Street,04412,44.8102014,-68.7375848
686,North Main Street,04412,44.8100364,-68.7382495
715,North Main Street,04412,44.8095671,-68.7357856
710,North Main Street,04412,44.8105863,-68.7366283
716,North Main Street,04412,44.8106887,-68.7361662
720,North Main Street,04412,44.8107918,-68.7359508
722,North Main Street,04412,44.8110527,-68.7358990
728,North Main Street,04412,44.8111509,-68.7355508
730,North Main Street,04412,44.8112677,-68.7354174
736,North Main Street,04412,44.8115414,-68.7350621
727,North Main Street,04412,44.8107035,-68.7347434
738,North Main Street,04412,44.8116532,-68.7347328
735,North Main Street,04412,44.8113733,-68.7343926
742,North Main Street,04412,44.8119182,-68.7344849
739,North Main Street,04412,44.8115663,-68.7341641
749,North Main Street,04412,44.8117727,-68.7338849
750,North Main Street,04412,44.8121603,-68.7340855
751,North Main Street,04412,44.8119883,-68.7336752
4,Meadow Lane,04412,44.8111497,-68.7311561
16,Meadow Lane,04412,44.8110297,-68.7299173
22,Meadow Lane,04412,44.8107045,-68.7294509
28,Meadow Lane,04412,44.8102493,-68.7291685
32,Meadow Lane,04412,44.8098227,-68.7295942
40,Meadow Lane,04412,44.8095360,-68.7301709
54,Hillside Boulevard,04412,44.8100988,-68.7302758
15,Meadow Lane,04412,44.8107482,-68.7307849
6,Adams Court,04412,44.8098452,-68.7315226
21,Adams Court,04412,44.8100699,-68.7332857
17,Adams Court,04412,44.8103788,-68.7325571
11,Adams Court,04412,44.8104629,-68.7319750
31,Hillside Boulevard,04412,44.8111023,-68.7320732
17,Hillside Boulevard,04412,44.8116164,-68.7324818
9,Hillside Boulevard,04412,44.8119684,-68.7328723
765,North Main Street,04412,44.8124271,-68.7326868
785,North Main Street,04412,44.8131719,-68.7316716
805,North Main Street,04412,44.8139389,-68.7305171
10,Sites Lane,04412,44.8129029,-68.7283277
20,Martin Drive,04412,44.8133207,-68.7279717
14,Sites Lane,04412,44.8130510,-68.7281310
16,Sites Lane,04412,44.8131313,-68.7278461
8,Martin Drive,04412,44.8127433,-68.7274559
13,Sites Lane,04412,44.8127174,-68.7279049
9,Sites Lane,04412,44.8126368,-68.7281140
7,Sites Lane,04412,44.8125653,-68.7282977
5,Sites Lane,04412,44.8124847,-68.7284878
1,Sites Lane,04412,44.8124491,-68.7286777
106,Eagle Ridge Road,04412,44.8121333,-68.7283440
114,Eagle Ridge Road,04412,44.8122317,-68.7281159
116,Eagle Ridge Road,04412,44.8123034,-68.7279448
120,Eagle Ridge Road,04412,44.8123884,-68.7277358
122,Eagle Ridge Road,04412,44.8124689,-68.7275267
126,Eagle Ridge Road,04412,44.8125494,-68.7273050
130,Eagle Ridge Road,04412,44.8126607,-68.7268113
138,Eagle Ridge Road,04412,44.8127734,-68.7268550
142,Eagle Ridge Road,04412,44.8128770,-68.7269051
144,Eagle Ridge Road,04412,44.8130168,-68.7269993
146,Eagle Ridge Road,04412,44.8131340,-68.7270809
15,Martin Drive,04412,44.8132786,-68.7273332
19,Martin Drive,04412,44.8134771,-68.7275093
151,Eagle Ridge Road,04412,44.8135609,-68.7267944
149,Eagle Ridge Road,04412,44.8134348,-68.7267570
145,Eagle Ridge Road,04412,44.8132635,-68.7266440
143,Eagle Ridge Road,04412,44.8131687,-68.7265370
141,Eagle Ridge Road,04412,44.8130335,-68.7264428
139,Eagle Ridge Road,04412,44.8128982,-68.7263485
137,Eagle Ridge Road,04412,44.8128080,-68.7262921
135,Eagle Ridge Road,04412,44.8126458,-68.7262296
133,Eagle Ridge Road,04412,44.8124569,-68.7262747
129,Eagle Ridge Road,04412,44.8124082,-68.7265911
127,Eagle Ridge Road,04412,44.8123635,-68.7267431
125,Eagle Ridge Road,04412,44.8122919,-68.7269142
121,Eagle Ridge Road,04412,44.8122473,-68.7271041
119,Eagle Ridge Road,04412,44.8121938,-68.7272877
117,Eagle Ridge Road,04412,44.8121491,-68.7274397
115,Eagle Ridge Road,04412,44.8120776,-68.7276297
113,Eagle Ridge Road,04412,44.8120420,-68.7278133
111,Eagle Ridge Road,04412,44.8119839,-68.7280032
109,Eagle Ridge Road,04412,44.8119212,-68.7281427
107,Eagle Ridge Road,04412,44.8118677,-68.7283579
79,Eagle Ridge Road,04412,44.8124665,-68.7302964
815,North Main Street,04412,44.8142483,-68.7300288
823,North Main Street,04412,44.8145081,-68.7294901
857,North Main Street,04412,44.8157638,-68.7275681
863,North Main Street,04412,44.8160060,-68.7271875
870,North Main Street,04412,44.8164646,-68.7269767
869,North Main Street,04412,44.8160357,-68.7264412
875,North Main Street,04412,44.8162198,-68.7262443
880,North Main Street,04412,44.8166566,-68.7263561
899,North Main Street,04412,44.8167158,-68.7247622
70,Hillside Boulevard,04412,44.8091588,-68.7305773
80,Hillside Boulevard,04412,44.8087534,-68.7304401
12,Camden Court,04412,44.8089366,-68.7298512
28,Camden Court,04412,44.8093676,-68.7293940
36,Camden Court,04412,44.8097126,-68.7287347
31,Camden Court,04412,44.8092572,-68.7284144
27,Camden Court,04412,44.8089518,-68.7286688
21,Camden Court,04412,44.8086731,-68.7288534
11,Camden Court,04412,44.8082832,-68.7295571
5,Camden Court,04412,44.8082172,-68.7302150
4,Rockland Court,04412,44.8081335,-68.7309931
34,Rockland Court,04412,44.8073193,-68.7311676
31,Rockland Court,04412,44.8072261,-68.7317560
23,Rockland Court,04412,44.8076772,-68.7321713
19,Rockland Court,04412,44.8081589,-68.7322070
13,Rockland Court,04412,44.8084779,-68.7319715
79,Hillside Boulevard,04412,44.8086788,-68.7312624
67,Hillside Boulevard,04412,44.8092549,-68.7312534
22,Adams Court,04412,44.8095945,-68.7320928
24,Adams Court,04412,44.8092721,-68.7328215
50,Gettysburg Avenue,04412,44.8087006,-68.7328621
26,Gettysburg Avenue,04412,44.8093133,-68.7350217
34,Gettysburg Avenue,04412,44.8094200,-68.7344521
38,Gettysburg Avenue,04412,44.8093198,-68.7339847
42,Gettysburg Avenue,04412,44.8091617,-68.7337388
46,Gettysburg Avenue,04412,44.8088597,-68.7335632
11,Bowdoin Drive,04412,44.8086991,-68.7341393
39,Gettysburg Avenue,04412,44.8088749,-68.7342649
33,Gettysburg Avenue,04412,44.8089208,-68.7346568
27,Gettysburg Avenue,04412,44.8088089,-68.7349355
23,Gettysburg Avenue,04412,44.8087512,-68.7352709
13,Appomattox Road,04412,44.8081761,-68.7357034
11,Appomattox Road,04412,44.8081887,-68.7353303
7,Appomattox Road,04412,44.8082104,-68.7349951
21,Bowdoin Drive,04412,44.8082636,-68.7346408
15,Bowdoin Drive,04412,44.8085241,-68.7343930
54,Gettysburg Avenue,04412,44.8085171,-68.7333055
14,Bowdoin Drive,04412,44.8083338,-68.7338438
20,Bowdoin Drive,04412,44.8081948,-68.7340973
26,Bowdoin Drive,04412,44.8079294,-68.7341428
30,Bowdoin Drive,04412,44.8077046,-68.7342577
34,Bowdoin Drive,04412,44.8074662,-68.7343283
9,Little Roundtop Drive,04412,44.8072546,-68.7342977
12,Appomattox Road,04412,44.8078101,-68.7351108
14,Appomattox Road,04412,44.8076441,-68.7353328
33,Bowdoin Drive,04412,44.8076654,-68.7348396
37,Bowdoin Drive,04412,44.8073462,-68.7349801
41,Bowdoin Drive,04412,44.8070804,-68.7349118
47,Bowdoin Drive,04412,44.8068278,-68.7346600
4,Little Roundtop Drive,04412,44.8070235,-68.7336538
71,Gettysburg Avenue,04412,44.8073932,-68.7338924
67,Gettysburg Avenue,04412,44.8076405,-68.7338154
63,Gettysburg Avenue,04412,44.8078654,-68.7337511
57,Gettysburg Avenue,04412,44.8080904,-68.7337121
58,Gettysburg Avenue,04412,44.8082601,-68.7331170
60,Gettysburg Avenue,04412,44.8079582,-68.7329856
64,Gettysburg Avenue,04412,44.8077922,-68.7332266
70,Gettysburg Avenue,04412,44.8075718,-68.7332782
78,Gettysburg Avenue,04412,44.8072610,-68.7331975
904,North Main Street,04412,44.8171655,-68.7246019
907,North Main Street,04412,44.8168586,-68.7242240
908,North Main Street,04412,44.8174713,-68.7244550
911,North Main Street,04412,44.8170334,-68.7239512
916,North Main Street,04412,44.8183627,-68.7196947
921,North Main Street,04412,44.8171440,-68.7231539
927,North Main Street,04412,44.8174665,-68.7224820
936,North Main Street,04412,44.8183818,-68.7231543
939,North Main Street,04412,44.8176409,-68.7220069
942,North Main Street,04412,44.8179381,-68.7220877
948,North Main Street,04412,44.8181667,-68.7216881
943,North Main Street,04412,44.8177347,-68.7217092
950,North Main Street,04412,44.8182244,-68.7213590
954,North Main Street,04412,44.8182825,-68.7211880
955,North Main Street,04412,44.8180116,-68.7208478
965,North Main Street,04412,44.8179150,-68.7199945
960,North Main Street,04412,44.8185108,-68.7206683
968,North Main Street,04412,44.8185998,-68.7202442
972,North Main Street,04412,44.8186754,-68.7198644
975,North Main Street,04412,44.8184129,-68.7192965
974,North Main Street,04412,44.8187918,-68.7196172
984,North Main Street,04412,44.8190919,-68.7190213
995,North Main Street,04412,44.8186359,-68.7184480
1005,North Main Street,04412,44.8191012,-68.7172947
1000,North Main Street,04412,44.8192783,-68.7179326
1004,North Main Street,04412,44.8193766,-68.7176412
1009,North Main Street,04412,44.8191723,-68.7169149
1016,North Main Street,04412,44.8196352,-68.7166407
1015,North Main Street,04412,44.8193147,-68.7162755
1043,North Main Street,04412,44.8194186,-68.7146181
1051,North Main Street,04412,44.8194392,-68.7138591
1059,North Main Street,04412,44.8194150,-68.7131952
1065,North Main Street,04412,44.8194910,-68.7129671
1072,North Main Street,04412,44.8197007,-68.7122388
1080,North Main Street,04412,44.8194562,-68.7116835
1086,North Main Street,04412,44.8193429,-68.7113805
1087,North Main Street,04412,44.8189967,-68.7115340
1089,North Main Street,04412,44.8188836,-68.7113069
1090,North Main Street,04412,44.8192297,-68.7111028
1098,North Main Street,04412,44.8190754,-68.7106040
1102,North Main Street,04412,44.8188676,-68.7103205
1104,North Main Street,04412,44.8188356,-68.7101182
1111,North Main Street,04412,44.8179753,-68.7098886
1105,North Main Street,04412,44.8184267,-68.7103922
1095,North Main Street,04412,44.8187162,-68.7109536
14,Day Road,04412,44.8181808,-68.7110575
11,Day Road,04412,44.8181911,-68.7115570
18,Day Road,04412,44.8180368,-68.7110455
45,Day Road,04412,44.8175014,-68.7129391
54,Day Road,04412,44.8161718,-68.7104541
91,Day Road,04412,44.8141403,-68.7098446
95,Day Road,04412,44.8139327,-68.7096432
14,Balsam Drive,04412,44.8138415,-68.7091631
12,Balsam Drive,04412,44.8139357,-68.7090488
10,Balsam Drive,04412,44.8140479,-68.7089091
8,Balsam Drive,04412,44.8141648,-68.7088706
14,Spruce Drive,04412,44.8142728,-68.7088511
9,Spruce Drive,04412,44.8139840,-68.7085743
13,Spruce Drive,04412,44.8143938,-68.7086545
15,Spruce Drive,04412,44.8144797,-68.7088058
6,Balsam Drive,04412,44.8144353,-68.7090463
4,Balsam Drive,04412,44.8143683,-68.7092427
101,Day Road,04412,44.8136442,-68.7094676
125,Day Road,04412,44.8124678,-68.7088222
141,Day Road,04412,44.8117236,-68.7082442
147,Day Road,04412,44.8113630,-68.7080311
157,Day Road,04412,44.8108039,-68.7076608
1115,North Main Street,04412,44.8116242,-68.7063288
162,Day Road,04412,44.8115097,-68.7055643
15,Tracy Terrace,04412,44.8168585,-68.7168251
4,Rosebud Lane,04412,44.8160514,-68.7162662
12,Rosebud Lane,04412,44.8156682,-68.7160278
20,Rosebud Lane,04412,44.8152173,-68.7157265
28,Rosebud Lane,04412,44.8148609,-68.7154057
36,Rosebud Lane,04412,44.8144463,-68.7151991
40,Rosebud Lane,04412,44.8140986,-68.7147582
55,Rosebud Lane,04412,44.8125482,-68.7139248
51,Rosebud Lane,04412,44.8125827,-68.7151324
45,Rosebud Lane,04412,44.8135750,-68.7159748
37,Rosebud Lane,04412,44.8140444,-68.7164847
27,Rosebud Lane,04412,44.8145662,-68.7163431
21,Rosebud Lane,04412,44.8149406,-68.7166890
13,Rosebud Lane,04412,44.8153013,-68.7169086
8,Tracy Terrace,04412,44.8162071,-68.7173342
18,Tracy Terrace,04412,44.8168026,-68.7179004
1118,North Main Street,04412,44.8183520,-68.7093302
1138,North Main Street,04412,44.8180159,-68.7081619
1142,North Main Street,04412,44.8181729,-68.7079271
1160,North Main Street,04412,44.8181241,-68.7064476
1172,North Main Street,04412,44.8182928,-68.7055361
1184,North Main Street,04412,44.8185112,-68.7047318
1198,North Main Street,04412,44.8186210,-68.7036625
1202,North Main Street,04412,44.8186786,-68.7033017
1206,North Main Street,04412,44.8194721,-68.7038289
1212,North Main Street,04412,44.8189426,-68.7027059
1220,North Main Street,04412,44.8190314,-68.7022311
1224,North Main Street,04412,44.8192595,-68.7016608
1232,North Main Street,04412,44.8202992,-68.7016681
1234,North Main Street,04412,44.8195858,-68.7008117
1246,North Main Street,04412,44.8197104,-68.7002798
1258,North Main Street,04412,44.8200241,-68.6997343
1266,North Main Street,04412,44.8203018,-68.6992143
1278,North Main Street,04412,44.8206596,-68.6983460
25,Deerfield Drive,04412,44.8182837,-68.6969102
1259,North Main Street,04412,44.8197704,-68.6991222
1255,North Main Street,04412,44.8196362,-68.6994138
1241,North Main Street,04412,44.8191612,-68.7002510
1233,North Main Street,04412,44.8188835,-68.7007458
1225,North Main Street,04412,44.8187728,-68.7014736
1221,North Main Street,04412,44.8186698,-68.7016575
1217,North Main Street,04412,44.8185537,-68.7020123
46,Pine Valley Way,04412,44.8171452,-68.7004069
1209,North Main Street,04412,44.8181859,-68.7024948
1195,North Main Street,04412,44.8182834,-68.7036516
1191,North Main Street,04412,44.8181403,-68.7040191
1185,North Main Street,04412,44.8180115,-68.7046648
1169,North Main Street,04412,44.8179509,-68.7056074
1153,North Main Street,04412,44.8176660,-68.7068357
1131,North Main Street,04412,44.8173996,-68.7082725
11,Houston Lane,04412,44.8171830,-68.7080839
13,Houston Lane,04412,44.8170252,-68.7079709
17,Houston Lane,04412,44.8168673,-68.7078452
23,Houston Lane,04412,44.8166103,-68.7076505
1127,North Main Street,04412,44.8176125,-68.7088090
231,Parkway South,04412,44.7790840,-68.7660634
221,Parkway South,04412,44.7792040,-68.7653424
17,Doughty Drive,04412,44.7872534,-68.7659861
76,Stevens Road,04412,44.7831130,-68.7619706
88,Stevens Road,04412,44.7826316,-68.7620421
33,Stevens Road,04412,44.7857330,-68.7621305
131,Robertson Boulevard,04412,44.7862985,-68.7634934
26,Industrial Plaza Drive,04412,44.7812806,-68.7639310
19,Industrial Plaza Drive,04412,44.7808107,-68.7630481
15,Industrial Plaza Drive,04412,44.7803386,-68.7633155
14,Coffin Avenue,04412,44.7803263,-68.7660520
26,Coffin Avenue,04412,44.7804001,-68.7669428
34,Coffin Avenue,04412,44.7804829,-68.7678020
42,Coffin Avenue,04412,44.7808581,-68.7685842
37,Coffin Avenue,04412,44.7813378,-68.7676722
446,Parkway South,04412,44.7682940,-68.7724065
460,Parkway South,04412,44.7675341,-68.7727949
142,Elm Street,04412,44.7675382,-68.7725927
150,Elm Street,04412,44.7675910,-68.7719480
160,Elm Street,04412,44.7676756,-68.7714991
16,Glenwood Avenue,04412,44.7682744,-68.7715852
22,Glenwood Avenue,04412,44.7684995,-68.7716032
32,Glenwood Avenue,04412,44.7689180,-68.7715447
10,Central Avenue,04412,44.7678993,-68.7708095
19,Central Avenue,04412,44.7683523,-68.7700495
182,Elm Street,04412,44.7676312,-68.7695721
133,Elm Street,04412,44.7668055,-68.7730568
119,Elm Street,04412,44.7669698,-68.7742061
115,Elm Street,04412,44.7665329,-68.7740751
111,Elm Street,04412,44.7668132,-68.7746996
107,Elm Street,04412,44.7660578,-68.7750879
103,Elm Street,04412,44.7666752,-68.7754646
99,Elm Street,04412,44.7665542,-68.7757368
93,Elm Street,04412,44.7665233,-68.7760402
89,Elm Street,04412,44.7664521,-68.7764701
85,Elm Street,04412,44.7663627,-68.7767990
81,Elm Street,04412,44.7662825,-68.7772289
69,Elm Street,04412,44.7662033,-68.7781707
61,Elm Street,04412,44.7664291,-68.7785426
28,Mill Street,04412,44.7654890,-68.7788747
32,Mill Street,04412,44.7653848,-68.7785340
42,Mill Street,04412,44.7652169,-68.7778270
46,Mill Street,04412,44.7650902,-68.7774610
52,Mill Street,04412,44.7650129,-68.7770443
56,Mill Street,04412,44.7646569,-68.7768435
68,Mill Street,04412,44.7642868,-68.7763268
70,Mill Street,04412,44.7640751,-68.7762708
76,Mill Street,04412,44.7639353,-68.7761260
71,Mill Street,04412,44.7639453,-68.7766440
39,Mill Street,04412,44.7648616,-68.7779800
37,Mill Street,04412,44.7650109,-68.7783774
78,Elm Street,04412,44.7666613,-68.7775497
80,Elm Street,04412,44.7666339,-68.7773729
86,Elm Street,04412,44.7667636,-68.7769301
88,Elm Street,04412,44.7667809,-68.7765762
100,Elm Street,04412,44.7669237,-68.7759375
104,Elm Street,04412,44.7669905,-68.7756087
110,Elm Street,04412,44.7671291,-68.7751343
112,Elm Street,04412,44.7671644,-68.7747361
120,Elm Street,04412,44.7672536,-68.7743567
122,Elm Street,04412,44.7674556,-68.7740652
126,Elm Street,04412,44.7674099,-68.7736863
87,South Brewer Drive,04412,44.7676593,-68.7746205
77,South Brewer Drive,04412,44.7678625,-68.7749609
75,South Brewer Drive,04412,44.7678585,-68.7752136
73,South Brewer Drive,04412,44.7681786,-68.7754588
65,South Brewer Drive,04412,44.7683954,-68.7758371
8,Raymond Street,04412,44.7681267,-68.7765458
10,Raymond Street,04412,44.7677882,-68.7767501
64,South Brewer Drive,04412,44.7686787,-68.7757159
72,South Brewer Drive,04412,44.7684887,-68.7752428
74,South Brewer Drive,04412,44.7682808,-68.7747950
78,South Brewer Drive,04412,44.7680596,-68.7745052
80,South Brewer Drive,04412,44.7679557,-68.7742781
82,Mill Street,04412,44.7636283,-68.7756533
500,South Main Street,04412,44.7727153,-68.7798898
504,South Main Street,04412,44.7725173,-68.7799032
4,Derusha Lane,04412,44.7724765,-68.7797327
10,Derusha Lane,04412,44.7724398,-68.7793727
8,Callaghan Court,04412,44.7727187,-68.7793148
9,Callaghan Court,04412,44.7728262,-68.7790490
16,Derusha Lane,04412,44.7723845,-68.7787031
19,Derusha Lane,04412,44.7720243,-68.7786792
9,Derusha Lane,04412,44.7722916,-68.7795818
506,South Main Street,04412,44.7723555,-68.7800049
508,South Main Street,04412,44.7722250,-68.7800180
510,South Main Street,04412,44.7720720,-68.7800629
512,South Main Street,04412,44.7719321,-68.7798675
518,South Main Street,04412,44.7716086,-68.7801531
530,South Main Street,04412,44.7712474,-68.7796110
18,South Brewer Drive,04412,44.7701478,-68.7789328
26,South Brewer Drive,04412,44.7698585,-68.7782704
30,South Brewer Drive,04412,44.7697184,-68.7779803
36,South Brewer Drive,04412,44.7695602,-68.7776334
38,South Brewer Drive,04412,44.7694065,-68.7773244
50,South Brewer Drive,04412,44.7691262,-68.7767062
15,Brochu Lane,04412,44.7695970,-68.7757756
56,South Brewer Drive,04412,44.7689500,-68.7763404
60,South Brewer Drive,04412,44.7688053,-68.7760314
7,Raymond Street,04412,44.7684962,-68.7767592
4,Goupee Street,04412,44.7689201,-68.7771556
6,Goupee Street,04412,44.7687269,-68.7773586
10,Goupee Street,04412,44.7686056,-68.7774538
16,Goupee Street,04412,44.7682775,-68.7777307
20,Goupee Street,04412,44.7680844,-68.7779613
25,Goupee Street,04412,44.7680494,-68.7784669
15,Goupee Street,04412,44.7687676,-68.7780239
3,Goupee Street,04412,44.7689482,-68.7777305
33,South Brewer Drive,04412,44.7693269,-68.7780639
17,Goupee Street,04412,44.7685123,-68.7780797
21,Goupee Street,04412,44.7683055,-68.7782132
31,South Brewer Drive,04412,44.7692423,-68.7785192
29,South Brewer Drive,04412,44.7695615,-68.7783284
554,South Main Street,04412,44.7697357,-68.7799327
556,South Main Street,04412,44.7696367,-68.7799773
558,South Main Street,04412,44.7695103,-68.7797630
562,South Main Street,04412,44.7694030,-68.7801362
1,Harriman Lane,04412,44.7692549,-68.7804021
568,South Main Street,04412,44.7693503,-68.7808630
570,South Main Street,04412,44.7692832,-68.7810591
574,South Main Street,04412,44.7691440,-68.7812050
580,South Main Street,04412,44.7689825,-68.7815089
586,South Main Street,04412,44.7686275,-68.7818262
14,Elm Street,04412,44.7681403,-68.7812657
20,Tardiff Lane,04412,44.7681015,-68.7797873
15,Tardiff Lane,04412,44.7676734,-68.7795298
7,Tardiff Lane,04412,44.7671917,-68.7795380
3,Tardiff Lane,04412,44.7669799,-68.7793998
56,Elm Street,04412,44.7668265,-68.7791919
64,Elm Street,04412,44.7667532,-68.7785224
68,Elm Street,04412,44.7667076,-68.7782509
72,Elm Street,04412,44.7666800,-68.7779414
59,Elm Street,04412,44.7664793,-68.7788773
8,Mill Street,04412,44.7663629,-68.7792063
18,Mill Street,04412,44.7658272,-68.7791894
19,Mill Street,04412,44.7653909,-68.7793553
37,Elm Street,04412,44.7670854,-68.7803977
29,Elm Street,04412,44.7673293,-68.7808264
27,Elm Street,04412,44.7675276,-68.7809836
21,Elm Street,04412,44.7677036,-68.7812041
17,Elm Street,04412,44.7678843,-68.7815383
13,Elm Street,04412,44.7680422,-68.7817589
7,Elm Street,04412,44.7682137,-68.7819794
590,South Main Street,04412,44.7685202,-68.7822120
596,South Main Street,04412,44.7683179,-68.7823202
600,South Main Street,04412,44.7681745,-68.7826872
10,Stone Street,04412,44.7679083,-68.7823280
14,Stone Street,04412,44.7677593,-68.7821075
20,Stone Street,04412,44.7674570,-68.7817232
27,Stone Street,04412,44.7672715,-68.7812310
25,Stone Street,04412,44.7671417,-68.7816233
23,Stone Street,04412,44.7670342,-68.7818890
5,Stone Street,04412,44.7676071,-68.7825124
3,Stone Street,04412,44.7678280,-68.7827011
606,South Main Street,04412,44.7679726,-68.7829912
608,South Main Street,04412,44.7677433,-68.7831501
620,South Main Street,04412,44.7673340,-68.7832843
642,South Main Street,04412,44.7662392,-68.7827640
652,South Main Street,04412,44.7656505,-68.7832463
656,South Main Street,04412,44.7654433,-68.7831966
2,Roosevelt Avenue,04412,44.7652132,-68.7829258
6,Roosevelt Avenue,04412,44.7650819,-68.7824903
14,Carter Lane,04412,44.7656118,-68.7818628
10,Roosevelt Avenue,04412,44.7649679,-68.7817262
12,Roosevelt Avenue,04412,44.7646477,-68.7813989
20,Garfield Avenue,04412,44.7650253,-68.7811700
24,Garfield Avenue,04412,44.7652184,-68.7809292
11,Garfield Avenue,04412,44.7648085,-68.7807791
34,Roosevelt Avenue,04412,44.7644265,-68.7810585
651,South Main Street,04412,44.7657372,-68.7839158
641,South Main Street,04412,44.7662635,-68.7837432
645,South Main Street,04412,44.7659630,-68.7843066
613,South Main Street,04412,44.7675246,-68.7841176
609,South Main Street,04412,44.7681448,-68.7836161
607,South Main Street,04412,44.7684949,-68.7831220
26,Cove Street,04412,44.7685101,-68.7839939
28,Cove Street,04412,44.7684386,-68.7842911
30,Cove Street,04412,44.7683401,-68.7845505
36,Cove Street,04412,44.7680657,-68.7846527
587,South Main Street,04412,44.7688985,-68.7822990
583,South Main Street,04412,44.7690870,-68.7820330
541,South Main Street,04412,44.7704612,-68.7803912
533,South Main Street,04412,44.7708259,-68.7804404
531,South Main Street,04412,44.7709880,-68.7804714
521,South Main Street,04412,44.7712851,-68.7804829
513,South Main Street,04412,44.7720234,-68.7805433
509,South Main Street,04412,44.7722709,-68.7804792
503,South Main Street,04412,44.7725003,-68.7804025
499,South Main Street,04412,44.7728244,-68.7804075
495,South Main Street,04412,44.7730356,-68.7802425
10,Oak Street,04412,44.7731760,-68.7806716
14,Oak Street,04412,44.7732846,-68.7809935
16,Oak Street,04412,44.7732805,-68.7812147
18,Oak Street,04412,44.7733841,-68.7812585
22,Oak Street,04412,44.7732992,-68.7815685
20,Oak Street,04412,44.7734341,-68.7814921
24,Oak Street,04412,44.7735155,-68.7816940
26,Oak Street,04412,44.7735654,-68.7818897
37,Cove Street,04412,44.7679045,-68.7850640
41,Cove Street,04412,44.7677830,-68.7850834
1,Harbor Drive,04412,44.7675670,-68.7851094
3,Harbor Drive,04412,44.7674229,-68.7850784
9,Harbor Drive,04412,44.7671888,-68.7850729
11,Harbor Drive,04412,44.7670447,-68.7850545
15,Harbor Drive,04412,44.7668242,-68.7850932
17,Harbor Drive,04412,44.7666893,-68.7851380
2,Bald Eagle Drive,04412,44.7673636,-68.7846616
6,Bald Eagle Drive,04412,44.7673812,-68.7844720
9,Bald Eagle Drive,04412,44.7670753,-68.7845742
11,Bald Eagle Drive,04412,44.7669358,-68.7845684
8,Bald Eagle Drive,04412,44.7672364,-68.7840808
10,Bald Eagle Drive,04412,44.7671014,-68.7840813
38,Pleasant Street,04412,44.7695205,-68.7690086
45,Central Avenue,04412,44.7698380,-68.7701699
41,Central Avenue,04412,44.7695767,-68.7700825
16,Pleasant Street,04412,44.7697218,-68.7705937
6,Pleasant Street,04412,44.7695883,-68.7713904
31,Glenwood Avenue,04412,44.7692231,-68.7710507
27,Glenwood Avenue,04412,44.7689124,-68.7710013
27,Oak Street,04412,44.7737949,-68.7818636
23,Oak Street,04412,44.7737178,-68.7815606
17,Oak Street,04412,44.7736721,-68.7812195
15,Oak Street,04412,44.7735726,-68.7809734
11,Oak Street,04412,44.7734417,-68.7807464
7,Oak Street,04412,44.7734053,-68.7805507
491,South Main Street,04412,44.7732739,-68.7801341
489,South Main Street,04412,44.7733954,-68.7800894
487,South Main Street,04412,44.7735978,-68.7799939
481,South Main Street,04412,44.7737777,-68.7799363
479,South Main Street,04412,44.7739261,-68.7798599
473,South Main Street,04412,44.7742139,-68.7797451
8,Chambers Street,04412,44.7741967,-68.7801622
10,Chambers Street,04412,44.7738596,-68.7804036
14,Chambers Street,04412,44.7742470,-68.7805665
18,Chambers Street,04412,44.7739641,-68.7809214
93,Century Street,04412,44.7717122,-68.7733156
103,Century Street,04412,44.7714457,-68.7728554
85,Century Street,04412,44.7720012,-68.7737884
81,Century Street,04412,44.7720829,-68.7740914
77,Century Street,04412,44.7722229,-68.7743689
73,Century Street,04412,44.7723723,-68.7748043
69,Century Street,04412,44.7725214,-68.7750944
63,Century Street,04412,44.7727202,-68.7754349
57,Century Street,04412,44.7728420,-68.7755797
51,Century Street,04412,44.7730228,-68.7759961
47,Century Street,04412,44.7731539,-68.7762800
39,Century Street,04412,44.7732173,-68.7764440
37,Century Street,04412,44.7733212,-68.7766585
35,Century Street,04412,44.7735470,-68.7770304
6,First Street,04412,44.7734032,-68.7771321
7,First Street,04412,44.7734941,-68.7776120
33,Century Street,04412,44.7737009,-68.7774469
23,Century Street,04412,44.7739314,-68.7779768
11,Century Street,04412,44.7743062,-68.7786010
466,South Main Street,04412,44.7744783,-68.7791248
470,South Main Street,04412,44.7743029,-68.7791950
474,South Main Street,04412,44.7740871,-68.7793411
478,South Main Street,04412,44.7738577,-68.7793863
4,Kings Court,04412,44.7736103,-68.7794820
14,Kings Court,04412,44.7733974,-68.7788130
18,Kings Court,04412,44.7733380,-68.7783203
24,Kings Court,04412,44.7732517,-68.7779415
36,Kings Court,04412,44.7728855,-68.7771088
40,Kings Court,04412,44.7726643,-68.7768063
46,Kings Court,04412,44.7724880,-68.7764026
54,Kings Court,04412,44.7722534,-68.7761002
53,Kings Court,04412,44.7719883,-68.7763666
45,Kings Court,04412,44.7722049,-68.7766248
41,Kings Court,04412,44.7723990,-68.7769464
37,Kings Court,04412,44.7725841,-68.7772300
35,Kings Court,04412,44.7726564,-68.7773687
31,Kings Court,04412,44.7727918,-68.7775388
29,Kings Court,04412,44.7728958,-68.7778038
19,Kings Court,04412,44.7730277,-68.7784921
11,Kings Court,04412,44.7732583,-68.7790347
494,South Main Street,04412,44.7730302,-68.7797749
17,Chambers Street,04412,44.7745533,-68.7806664
6,Chambers Court,04412,44.7747598,-68.7803813
4,Chambers Court,04412,44.7745124,-68.7804896
471,South Main Street,04412,44.7743804,-68.7797192
465,South Main Street,04412,44.7746148,-68.7798636
455,South Main Street,04412,44.7751593,-68.7797920
459,South Main Street,04412,44.7749472,-68.7795401
457,South Main Street,04412,44.7751045,-68.7793815
449,South Main Street,04412,44.7754554,-68.7793043
447,South Main Street,04412,44.7755364,-68.7792851
443,South Main Street,04412,44.7757341,-68.7791263
441,South Main Street,04412,44.7759858,-68.7789421
4,Harris Street,04412,44.7761305,-68.7792891
8,Harris Street,04412,44.7761985,-68.7795100
12,Harris Street,04412,44.7762980,-68.7797498
20,Ivers Street,04412,44.7772160,-68.7796199
7,Harris Street,04412,44.7764733,-68.7796228
5,Harris Street,04412,44.7764143,-68.7793702
3,Harris Street,04412,44.7763103,-68.7791431
433,South Main Street,04412,44.7762242,-68.7788275
10,Ivers Street,04412,44.7768551,-68.7792295
11,Ivers Street,04412,44.7771791,-68.7791651
5,Ivers Street,04412,44.7770658,-68.7787737
421,South Main Street,04412,44.7769707,-68.7784644
401,South Main Street,04412,44.7780000,-68.7777084
379,South Main Street,04412,44.7790605,-68.7768196
371,South Main Street,04412,44.7793390,-68.7765152
23,Elmwood Street,04412,44.7785975,-68.7748370
7,Elmwood Street,04412,44.7791123,-68.7757071
370,South Main Street,04412,44.7792299,-68.7760100
372,South Main Street,04412,44.7791402,-68.7761368
6,Manns Court,04412,44.7789465,-68.7760933
10,Manns Court,04412,44.7788379,-68.7757840
19,Manns Court,04412,44.7786073,-68.7752730
12,Soucie Lane,04412,44.7782650,-68.7751227
13,Manns Court,04412,44.7785994,-68.7757913
9,Manns Court,04412,44.7787077,-68.7759678
384,South Main Street,04412,44.7784785,-68.7761583
380,South Main Street,04412,44.7788211,-68.7763908
382,South Main Street,04412,44.7786818,-68.7765367
388,South Main Street,04412,44.7783802,-68.7765252
10,Pendleton Street,04412,44.7781497,-68.7760458
18,Pendleton Street,04412,44.7779648,-68.7758316
20,Pendleton Street,04412,44.7778923,-68.7755918
22,Pendleton Street,04412,44.7777974,-68.7754026
8,Soucie Lane,04412,44.7780625,-68.7751488
25,Elmwood Street,04412,44.7783133,-68.7745537
11,Soucie Lane,04412,44.7781607,-68.7747439
5,Soucie Lane,04412,44.7778866,-68.7749978
1,Soucie Lane,04412,44.7776889,-68.7751755
32,Pendleton Street,04412,44.7776873,-68.7743792
34,Pendleton Street,04412,44.7773542,-68.7743679
38,Pendleton Street,04412,44.7772051,-68.7740398
40,Pendleton Street,04412,44.7771192,-68.7738885
42,Pendleton Street,04412,44.7770739,-68.7737244
44,Pendleton Street,04412,44.7770106,-68.7735666
46,Pendleton Street,04412,44.7769112,-68.7733901
48,Pendleton Street,04412,44.7768703,-68.7732133
62,Pendleton Street,04412,44.7766717,-68.7729107
50,Pendleton Street,04412,44.7770720,-68.7727512
66,Pendleton Street,04412,44.7765540,-68.7726079
72,Pendleton Street,04412,44.7763733,-68.7722673
76,Pendleton Street,04412,44.7762062,-68.7719836
85,Pendleton Street,04412,44.7756204,-68.7716636
81,Pendleton Street,04412,44.7757514,-68.7719096
77,Pendleton Street,04412,44.7758780,-68.7721808
67,Pendleton Street,04412,44.7761223,-68.7727676
25,Cross Street,04412,44.7757597,-68.7737927
19,Cross Street,04412,44.7759268,-68.7740638
9,Cross Street,04412,44.7761393,-68.7745306
5,Cross Street,04412,44.7762839,-68.7748650
1,Cross Street,04412,44.7764421,-68.7751803
15,Staples Street,04412,44.7757619,-68.7749175
13,Bangor Street,04412,44.7767756,-68.7753876
31,Pendleton Street,04412,44.7772383,-68.7749181
10,Bangor Street,04412,44.7767342,-68.7749580
6,Cross Street,04412,44.7765490,-68.7746238
12,Cross Street,04412,44.7763905,-68.7741125
22,Cross Street,04412,44.7761196,-68.7736902
24,Cross Street,04412,44.7760472,-68.7735262
49,Pendleton Street,04412,44.7765558,-68.7734736
45,Pendleton Street,04412,44.7767050,-68.7738143
43,Pendleton Street,04412,44.7767908,-68.7739719
39,Pendleton Street,04412,44.7768680,-68.7743066
35,Pendleton Street,04412,44.7770892,-68.7746154
25,Pendleton Street,04412,44.7775004,-68.7754416
23,Pendleton Street,04412,44.7775637,-68.7755678
19,Pendleton Street,04412,44.7776857,-68.7758264
17,Pendleton Street,04412,44.7777807,-68.7760788
13,Pendleton Street,04412,44.7778890,-68.7762238
11,Pendleton Street,04412,44.7779749,-68.7763940
392,South Main Street,04412,44.7781828,-68.7768609
400,South Main Street,04412,44.7779626,-68.7770134
6,Patten Court,04412,44.7776607,-68.7768313
12,Patten Court,04412,44.7775521,-68.7765789
16,Patten Court,04412,44.7774074,-68.7762383
18,Patten Court,04412,44.7773397,-68.7761058
20,Patten Court,04412,44.7773479,-68.7757329
19,Patten Court,04412,44.7771189,-68.7759866
17,Patten Court,04412,44.7769575,-68.7763158
15,Patten Court,04412,44.7771379,-68.7765237
11,Patten Court,04412,44.7773140,-68.7767758
9,Patten Court,04412,44.7774089,-68.7769839
1,Patten Court,04412,44.7775671,-68.7773183
410,South Main Street,04412,44.7773962,-68.7774137
418,South Main Street,04412,44.7768517,-68.7774917
422,South Main Street,04412,44.7768300,-68.7778962
424,South Main Street,04412,44.7766547,-68.7780106
436,South Main Street,04412,44.7762363,-68.7781386
15,Goodness Way,04412,44.7762837,-68.7770136
7,Goodness Way,04412,44.7758386,-68.7772870
16,Tibbetts Street,04412,44.7755871,-68.7776039
44,Tibbetts Street,04412,44.7750553,-68.7749645
23,Tibbetts Street,04412,44.7750860,-68.7768223
31,Tibbetts Street,04412,44.7747288,-68.7759832
27,Tibbetts Street,04412,44.7748826,-68.7763870
25,Tibbetts Street,04412,44.7749821,-68.7766331
21,Tibbetts Street,04412,44.7751136,-68.7771508
15,Tibbetts Street,04412,44.7753536,-68.7778702
11,Tibbetts Street,04412,44.7754891,-68.7781351
13,Tibbetts Street,04412,44.7752957,-68.7781738
450,South Main Street,04412,44.7753689,-68.7787928
454,South Main Street,04412,44.7751530,-68.7788821
22,Century Street,04412,44.7743226,-68.7777731
24,Century Street,04412,44.7742052,-68.7775524
28,Century Street,04412,44.7741329,-68.7774010
32,Century Street,04412,44.7739883,-68.7771361
36,Century Street,04412,44.7738347,-68.7768334
42,Century Street,04412,44.7736538,-68.7764234
48,Century Street,04412,44.7734640,-68.7760134
52,Century Street,04412,44.7732835,-68.7757992
58,Century Street,04412,44.7730981,-68.7753765
64,Century Street,04412,44.7729626,-68.7751180
66,Century Street,04412,44.7728542,-68.7749225
68,Century Street,04412,44.7727727,-68.7747080
82,Century Street,04412,44.7727841,-68.7736337
72,Century Street,04412,44.7726823,-68.7744872
88,Century Street,04412,44.7722480,-68.7734020
92,Century Street,04412,44.7719858,-68.7728343
345,South Main Street,04412,44.7805299,-68.7755752
343,South Main Street,04412,44.7806831,-68.7756379
337,South Main Street,04412,44.7811323,-68.7751811
333,South Main Street,04412,44.7812354,-68.7749911
329,South Main Street,04412,44.7814378,-68.7748765
323,South Main Street,04412,44.7816760,-68.7746860
317,South Main Street,04412,44.7819906,-68.7744699
309,South Main Street,04412,44.7823813,-68.7740260
34,Abbott Street,04412,44.7813148,-68.7718561
19,Abbott Street,04412,44.7813297,-68.7725575
17,Abbott Street,04412,44.7815779,-68.7728915
15,Abbott Street,04412,44.7817719,-68.7731120
9,Abbott Street,04412,44.7818937,-68.7732884
312,South Main Street,04412,44.7820383,-68.7735344
314,South Main Street,04412,44.7819129,-68.7738698
316,South Main Street,04412,44.7817915,-68.7739524
320,South Main Street,04412,44.7816792,-68.7740540
322,South Main Street,04412,44.7815444,-68.7741872
326,South Main Street,04412,44.7813107,-68.7743588
332,South Main Street,04412,44.7810906,-68.7745556
8,Grove Street,04412,44.7806270,-68.7746079
12,Grove Street,04412,44.7804869,-68.7742798
14,Grove Street,04412,44.7804010,-68.7741222
18,Grove Street,04412,44.7802744,-68.7738383
24,Grove Street,04412,44.7801252,-68.7734976
32,Grove Street,04412,44.7798769,-68.7731067
21,Grove Street,04412,44.7797562,-68.7735117
44,Elmwood Street,04412,44.7795083,-68.7733483
19,Grove Street,04412,44.7798692,-68.7737893
17,Grove Street,04412,44.7800183,-68.7740668
15,Grove Street,04412,44.7801314,-68.7743255
346,South Main Street,04412,44.7804345,-68.7751079
7,Grove Street,04412,44.7802402,-68.7747611
352,South Main Street,04412,44.7800162,-68.7752739
360,South Main Street,04412,44.7798500,-68.7754641
362,South Main Street,04412,44.7796523,-68.7756102
364,South Main Street,04412,44.7795581,-68.7757812
2,Elmwood Street,04412,44.7793960,-68.7757376
4,Elmwood Street,04412,44.7793281,-68.7755925
8,Elmwood Street,04412,44.7791971,-68.7753087
10,Elmwood Street,04412,44.7793131,-68.7748216
20,Elmwood Street,04412,44.7788765,-68.7747917
30,Elmwood Street,04412,44.7791047,-68.7741272
29,Elmwood Street,04412,44.7788296,-68.7738692
118,Fling Street,04412,44.7915990,-68.7647865
100,Fling Street,04412,44.7918194,-68.7647161
37,School Street,04412,44.7917979,-68.7651776
106,South Main Street,04412,44.7922618,-68.7675588
8,Spring Street,04412,44.7921396,-68.7672243
12,Spring Street,04412,44.7920131,-68.7669909
16,Spring Street,04412,44.7919000,-68.7667006
20,Spring Street,04412,44.7920481,-68.7664661
22,Spring Street,04412,44.7917825,-68.7664482
24,Spring Street,04412,44.7917551,-68.7662587
26,Spring Street,04412,44.7916782,-68.7660757
32,Spring Street,04412,44.7915017,-68.7656403
23,Spring Street,04412,44.7914628,-68.7664242
21,Spring Street,04412,44.7915216,-68.7665504
6,Doyle Court,04412,44.7913958,-68.7666521
9,Doyle Court,04412,44.7912527,-68.7671330
7,Doyle Court,04412,44.7913784,-68.7669745
5,Doyle Court,04412,44.7914908,-68.7669045
17,Spring Street,04412,44.7916302,-68.7668471
15,Spring Street,04412,44.7917252,-68.7670490
6,Gibbons Court,04412,44.7916174,-68.7671821
8,Gibbons Court,04412,44.7915142,-68.7673279
9,Gibbons Court,04412,44.7915059,-68.7676820
7,Gibbons Court,04412,44.7916318,-68.7675993
5,Gibbons Court,04412,44.7917306,-68.7674977
9,Spring Street,04412,44.7918654,-68.7673708
112,South Main Street,04412,44.7920553,-68.7677872
114,South Main Street,04412,44.7918575,-68.7679207
120,South Main Street,04412,44.7916372,-68.7680733
10,Maple Street,04412,44.7910562,-68.7678923
14,Maple Street,04412,44.7909206,-68.7676148
18,Maple Street,04412,44.7908345,-68.7673307
20,Maple Street,04412,44.7907802,-68.7671602
22,Maple Street,04412,44.7909055,-68.7668373
24,Maple Street,04412,44.7906848,-68.7667624
34,Maple Street,04412,44.7903823,-68.7662895
42,Maple Street,04412,44.7901697,-68.7657847
46,Maple Street,04412,44.7900565,-68.7654754
45,Maple Street,04412,44.7895979,-68.7657301
43,Maple Street,04412,44.7898502,-68.7658429
25,Maple Street,04412,44.7903250,-68.7668966
23,Maple Street,04412,44.7904109,-68.7670985
19,Maple Street,04412,44.7905330,-68.7673698
17,Maple Street,04412,44.7905873,-68.7675150
15,Maple Street,04412,44.7906732,-68.7676853
5,Maple Street,04412,44.7909174,-68.7682279
134,South Main Street,04412,44.7907828,-68.7684750
140,South Main Street,04412,44.7906527,-68.7686714
142,South Main Street,04412,44.7905493,-68.7687477
6,Getchell Street,04412,44.7904634,-68.7685331
14,Getchell Street,04412,44.7901648,-68.7677948
16,Getchell Street,04412,44.7900745,-68.7676498
24,Getchell Street,04412,44.7899525,-68.7674227
22,Getchell Street,04412,44.7901817,-68.7672574
26,Getchell Street,04412,44.7898757,-68.7672713
8,Winter Street,04412,44.7898162,-68.7667912
32,Getchell Street,04412,44.7896994,-68.7669307
34,Getchell Street,04412,44.7895910,-68.7667605
36,Getchell Street,04412,44.7894827,-68.7665902
40,Getchell Street,04412,44.7894014,-68.7664642
42,Getchell Street,04412,44.7893246,-68.7663128
44,Getchell Street,04412,44.7892388,-68.7661804
46,Getchell Street,04412,44.7891710,-68.7660353
49,Getchell Street,04412,44.7888559,-68.7660365
47,Getchell Street,04412,44.7889822,-68.7662004
45,Getchell Street,04412,44.7890455,-68.7663202
43,Getchell Street,04412,44.7891178,-68.7664463
41,Getchell Street,04412,44.7891856,-68.7665851
39,Getchell Street,04412,44.7892578,-68.7667049
37,Getchell Street,04412,44.7893301,-68.7668310
35,Getchell Street,04412,44.7893753,-68.7669257
23,Getchell Street,04412,44.7897683,-68.7676131
19,Getchell Street,04412,44.7899580,-68.7679157
11,Getchell Street,04412,44.7901163,-68.7683070
30,Burr Street,04412,44.7891963,-68.7674447
36,Burr Street,04412,44.7890112,-68.7671610
38,Burr Street,04412,44.7887222,-68.7667197
39,Burr Street,04412,44.7884890,-68.7670999
6,Rooney Street,04412,44.7883183,-68.7672839
10,Rooney Street,04412,44.7880936,-68.7674428
12,Rooney Street,04412,44.7878371,-68.7674818
3,Rooney Street,04412,44.7884591,-68.7679154
35,Burr Street,04412,44.7885796,-68.7673966
33,Burr Street,04412,44.7886879,-68.7675605
27,Burr Street,04412,44.7888460,-68.7677938
39,Winter Street,04412,44.7886315,-68.7685531
35,Winter Street,04412,44.7888250,-68.7685587
23,Burr Street,04412,44.7890490,-68.7680395
19,Burr Street,04412,44.7892386,-68.7683231
4,High Street,04412,44.7894105,-68.7687270
17,Burr Street,04412,44.7893246,-68.7685314
8,High Street,04412,44.7892082,-68.7688352
12,High Street,04412,44.7890104,-68.7689688
18,High Street,04412,44.7887855,-68.7690581
20,High Street,04412,44.7885653,-68.7692297
22,High Street,04412,44.7884573,-68.7692617
25,High Street,04412,44.7885212,-68.7696597
23,High Street,04412,44.7886968,-68.7697222
19,High Street,04412,44.7887775,-68.7695575
15,High Street,04412,44.7891059,-68.7694740
17,High Street,04412,44.7888990,-68.7695128
11,High Street,04412,44.7892720,-68.7692332
9,Burr Street,04412,44.7896135,-68.7689411
5,Burr Street,04412,44.7897265,-68.7692061
162,South Main Street,04412,44.7896009,-68.7694152
166,South Main Street,04412,44.7893356,-68.7695427
27,High Street,04412,44.7885261,-68.7698682
196,South Main Street,04412,44.7876764,-68.7704025
200,South Main Street,04412,44.7875009,-68.7703906
202,South Main Street,04412,44.7872668,-68.7703662
107,Baker Boulevard,04412,44.7859417,-68.7695056
6,Mooring Drive,04412,44.7866633,-68.7724544
15,Mooring Drive,04412,44.7872280,-68.7712323
207,South Main Street,04412,44.7871330,-68.7709862
201,South Main Street,04412,44.7874253,-68.7708776
191,South Main Street,04412,44.7885239,-68.7710376
151,South Main Street,04412,44.7905507,-68.7694114
4,Hardy Street,04412,44.7909688,-68.7691948
6,Hardy Street,04412,44.7910367,-68.7693526
8,Hardy Street,04412,44.7911045,-68.7694977
10,Hardy Street,04412,44.7911588,-68.7696365
7,Hardy Street,04412,44.7912928,-68.7691240
133,South Main Street,04412,44.7912383,-68.7688967
129,South Main Street,04412,44.7914316,-68.7687758
15,Hardy Street,04412,44.7920944,-68.7693484
237,Wilson Street,04412,44.7907488,-68.7607066
8,Blake Street,04412,44.7907451,-68.7610985
14,Blake Street,04412,44.7905255,-68.7615546
10,Blake Street,04412,44.7904529,-68.7612578
16,Blake Street,04412,44.7904448,-68.7617129
20,Blake Street,04412,44.7903372,-68.7619030
22,Blake Street,04412,44.7902655,-68.7620423
24,Blake Street,04412,44.7902072,-68.7621500
26,Blake Street,04412,44.7901040,-68.7623022
30,Blake Street,04412,44.7899873,-68.7624859
37,Blake Street,04412,44.7899258,-68.7632068
33,Blake Street,04412,44.7900337,-68.7631178
31,Blake Street,04412,44.7901414,-68.7629847
27,Blake Street,04412,44.7902579,-68.7627440
21,Blake Street,04412,44.7904551,-68.7623134
25,Blake Street,04412,44.7903251,-68.7625731
17,Blake Street,04412,44.7908329,-68.7621664
19,Blake Street,04412,44.7905896,-68.7620789
13,Blake Street,04412,44.7909135,-68.7619512
229,Wilson Street,04412,44.7911862,-68.7610714
227,Wilson Street,04412,44.7912946,-68.7612353
225,Wilson Street,04412,44.7914030,-68.7614308
223,Wilson Street,04412,44.7915518,-68.7615503
217,Wilson Street,04412,44.7917187,-68.7617393
199,Wilson Street,04412,44.7924543,-68.7626528
197,Wilson Street,04412,44.7925445,-68.7627473
193,Wilson Street,04412,44.7926799,-68.7628984
191,Wilson Street,04412,44.7927927,-68.7630244
189,Wilson Street,04412,44.7928200,-68.7631886
10,Fling Street,04412,44.7929867,-68.7632764
20,Fling Street,04412,44.7929016,-68.7634475
48,Brimmer Street,04412,44.7924338,-68.7636390
50,Brimmer Street,04412,44.7922852,-68.7635954
52,Brimmer Street,04412,44.7922175,-68.7635071
54,Brimmer Street,04412,44.7921676,-68.7633114
58,Brimmer Street,04412,44.7919739,-68.7632427
60,Brimmer Street,04412,44.7918655,-68.7630535
59,Brimmer Street,04412,44.7915735,-68.7633517
57,Brimmer Street,04412,44.7916998,-68.7634713
55,Brimmer Street,04412,44.7918487,-68.7636351
53,Brimmer Street,04412,44.7919706,-68.7638179
47,Brimmer Street,04412,44.7921419,-68.7639436
45,Brimmer Street,04412,44.7922276,-68.7640381
78,Fling Street,04412,44.7924126,-68.7642649
90,Fling Street,04412,44.7922689,-68.7644298
94,Fling Street,04412,44.7920757,-68.7645697
96,Fling Street,04412,44.7919679,-68.7646965
99,Fling Street,04412,44.7922742,-68.7648027
101,Fling Street,04412,44.7921530,-68.7649486
32,School Street,04412,44.7922481,-68.7652390
30,School Street,04412,44.7923025,-68.7654284
28,School Street,04412,44.7923794,-68.7655925
24,School Street,04412,44.7927316,-68.7675822
22,School Street,04412,44.7925558,-68.7660279
16,School Street,04412,44.7926329,-68.7662931
14,School Street,04412,44.7927412,-68.7664696
12,School Street,04412,44.7927866,-68.7666591
92,South Main Street,04412,44.7929992,-68.7671639
86,South Main Street,04412,44.7932913,-68.7669352
84,South Main Street,04412,44.7934441,-68.7667829
7,Brimmer Street,04412,44.7932903,-68.7664358
11,Brimmer Street,04412,44.7931862,-68.7661265
15,Brimmer Street,04412,44.7930958,-68.7659878
19,Brimmer Street,04412,44.7929737,-68.7657038
21,Brimmer Street,04412,44.7929193,-68.7655081
25,Brimmer Street,04412,44.7928559,-68.7653187
27,Brimmer Street,04412,44.7927791,-68.7651610
29,Brimmer Street,04412,44.7927202,-68.7649779
31,Brimmer Street,04412,44.7926388,-68.7647886
35,Brimmer Street,04412,44.7925483,-68.7645614
43,Fling Street,04412,44.7928806,-68.7641745
27,Fling Street,04412,44.7930106,-68.7639274
34,Brimmer Street,04412,44.7928859,-68.7645727
9,Darby Lane,04412,44.7932727,-68.7644321
10,Darby Lane,04412,44.7933588,-68.7647035
28,Brimmer Street,04412,44.7930397,-68.7649387
24,Brimmer Street,04412,44.7931754,-68.7652542
7,Middle Court,04412,44.7934090,-68.7650700
9,Middle Court,04412,44.7935574,-68.7649619
8,Middle Court,04412,44.7936615,-68.7652459
18,Brimmer Street,04412,44.7933157,-68.7656519
16,Brimmer Street,04412,44.7933836,-68.7658412
12,Brimmer Street,04412,44.7934650,-68.7660179
9,Ayers Court,04412,44.7937525,-68.7657513
11,Ayers Court,04412,44.7938693,-68.7656433
8,Ayers Court,04412,44.7937981,-68.7660292
10,Brimmer Street,04412,44.7935419,-68.7662136
137,Wilson Street,04412,44.7941886,-68.7655156
149,Wilson Street,04412,44.7941161,-68.7652441
159,Wilson Street,04412,44.7938946,-68.7648025
155,Wilson Street,04412,44.7940123,-68.7650991
161,Wilson Street,04412,44.7938222,-68.7646258
163,Wilson Street,04412,44.7937635,-68.7644996
167,Wilson Street,04412,44.7935874,-68.7642538
171,Wilson Street,04412,44.7935510,-68.7640643
173,Wilson Street,04412,44.7934471,-68.7638624
177,Wilson Street,04412,44.7933702,-68.7637047
179,Wilson Street,04412,44.7932170,-68.7636358
21,Fling Street,04412,44.7930868,-68.7637817
95,South Main Street,04412,44.7929967,-68.7681564
54,Wilson Street,04412,44.7953610,-68.7665097
10,North Main Street,04412,44.7949414,-68.7660183
14,North Main Street,04412,44.7949726,-68.7658980
38,North Main Street,04412,44.7951477,-68.7656445
42,North Main Street,04412,44.7952418,-68.7654544
11,Union Street,04412,44.7953958,-68.7659279
1,Union Street,04412,44.7960176,-68.7662352
2,Union Street,04412,44.7957872,-68.7658505
98,North Main Street,04412,44.7956586,-68.7646057
55,North Main Street,04412,44.7950473,-68.7649748
63,Union Street,04412,44.7949478,-68.7647540
47,North Main Street,04412,44.7948857,-68.7652220
39,North Main Street,04412,44.7948230,-68.7653613
132,Wilson Street,04412,44.7945167,-68.7652551
144,Wilson Street,04412,44.7944083,-68.7650533
156,Wilson Street,04412,44.7942817,-68.7647756
164,Wilson Street,04412,44.7940285,-68.7642646
168,Wilson Street,04412,44.7939065,-68.7640312
172,Wilson Street,04412,44.7937934,-68.7637662
8,Summer Street,04412,44.7939549,-68.7634811
10,Summer Street,04412,44.7940357,-68.7633796
105,Union Street,04412,44.7943105,-68.7634796
101,Union Street,04412,44.7943873,-68.7636437
97,Union Street,04412,44.7945004,-68.7639087
95,Union Street,04412,44.7945684,-68.7641360
91,Union Street,04412,44.7946947,-68.7642746
87,Union Street,04412,44.7947490,-68.7643944
71,Union Street,04412,44.7948801,-68.7646657
77,North Main Street,04412,44.7951951,-68.7646202
92,Union Street,04412,44.7949194,-68.7640966
96,Union Street,04412,44.7947611,-68.7637433
98,Union Street,04412,44.7946934,-68.7636108
102,Union Street,04412,44.7946073,-68.7633646
8,East Summer Street,04412,44.7948002,-68.7630288
160,Church Street,04412,44.7950840,-68.7631541
139,Church Street,04412,44.7951885,-68.7636404
119,Church Street,04412,44.7953602,-68.7639305
129,Union Street,04412,44.7932461,-68.7624789
5,East Summer Street,04412,44.7944532,-68.7628216
87,Parker Street,04412,44.7935240,-68.7618836
4,Penobscot Street,04412,44.7964887,-68.7655253
22,Church Street,04412,44.7963036,-68.7652352
120,North Main Street,04412,44.7958427,-68.7643710
140,North Main Street,04412,44.7959814,-68.7639532
138,North Main Street,04412,44.7959680,-68.7640165
156,North Main Street,04412,44.7962828,-68.7638888
43,Penobscot Street,04412,44.7965684,-68.7648548
141,North Main Street,04412,44.7958411,-68.7635745
124,Church Street,04412,44.7955038,-68.7637276
132,Church Street,04412,44.7953819,-68.7635448
140,Church Street,04412,44.7953096,-68.7634187
148,Church Street,04412,44.7952329,-68.7633115
10,East Summer Street,04412,44.7948493,-68.7628643
57,Parker Street,04412,44.7951688,-68.7627997
53,Parker Street,04412,44.7953131,-68.7629192
47,Parker Street,04412,44.7954347,-68.7629756
39,Parker Street,04412,44.7955699,-68.7630699
199,North Main Street,04412,44.7960734,-68.7627328
185,North Main Street,04412,44.7959883,-68.7629354
40,Parker Street,04412,44.7955825,-68.7625957
8,Howard Street,04412,44.7956989,-68.7623298
58,Parker Street,04412,44.7952941,-68.7624705
60,Parker Street,04412,44.7951138,-68.7623322
62,Parker Street,04412,44.7947759,-68.7621629
68,Parker Street,04412,44.7946947,-68.7620937
247,Center Street,04412,44.7925528,-68.7597114
203,Center Street,04412,44.7948057,-68.7613473
197,Center Street,04412,44.7950623,-68.7613778
23,East Summer Street,04412,44.7949101,-68.7617641
19,East Summer Street,04412,44.7948338,-68.7618971
22,East Summer Street,04412,44.7951537,-68.7620222
26,East Summer Street,04412,44.7952341,-68.7617564
28,East Summer Street,04412,44.7953102,-68.7615475
185,Center Street,04412,44.7956573,-68.7617673
9,Howard Street,04412,44.7955857,-68.7619889
7,Howard Street,04412,44.7955276,-68.7621788
5,Howard Street,04412,44.7954739,-68.7623497
157,Center Street,04412,44.7959057,-68.7622088
231,North Main Street,04412,44.7964235,-68.7622636
223,North Main Street,04412,44.7963653,-68.7624219
221,North Main Street,04412,44.7963430,-68.7624978
205,North Main Street,04412,44.7962308,-68.7627006
210,North Main Street,04412,44.7965827,-68.7630468
82,Betton Street,04412,44.7967717,-68.7630460
70,Betton Street,04412,44.7969024,-68.7631340
60,Betton Street,04412,44.7970286,-68.7632157
46,Betton Street,04412,44.7972360,-68.7633792
143,Penobscot Street,04412,44.7974163,-68.7635112
39,Center Street,04412,44.7975594,-68.7630428
53,Center Street,04412,44.7974061,-68.7629233
59,Center Street,04412,44.7972711,-68.7629492
71,Center Street,04412,44.7971449,-68.7628738
85,Center Street,04412,44.7970187,-68.7627858
87,Center Street,04412,44.7969328,-68.7625839
91,Center Street,04412,44.7968698,-68.7625841
99,Center Street,04412,44.7968157,-68.7625464
101,Center Street,04412,44.7967840,-68.7624770
222,North Main Street,04412,44.7967846,-68.7627362
196,Penobscot Street,04412,44.7977763,-68.7634781
46,Center Street,04412,44.7975766,-68.7626508
72,Center Street,04412,44.7970851,-68.7622482
203,Penobscot Street,04412,44.7976299,-68.7623155
269,North Main Street,04412,44.7966471,-68.7615610
255,North Main Street,04412,44.7966612,-68.7618454
142,Center Street,04412,44.7964405,-68.7617641
188,Center Street,04412,44.7957466,-68.7614446
190,Center Street,04412,44.7956157,-68.7612871
194,Center Street,04412,44.7954084,-68.7611615
196,Center Street,04412,44.7952822,-68.7610672
200,Center Street,04412,44.7951824,-68.7607073
47,State Street,04412,44.7960334,-68.7608175
45,State Street,04412,44.7961281,-68.7609056
43,State Street,04412,44.7962588,-68.7609810
65,State Street,04412,44.7950733,-68.7602020
8,Washington Street,04412,44.7945554,-68.7600588
204,Center Street,04412,44.7948721,-68.7608223
206,Center Street,04412,44.7947414,-68.7607281
210,Center Street,04412,44.7946149,-68.7605453
214,Center Street,04412,44.7944347,-68.7604449
6,Washington Street,04412,44.7945287,-68.7602106
75,State Street,04412,44.7945911,-68.7599006
73,State Street,04412,44.7947442,-68.7599379
69,State Street,04412,44.7949560,-68.7600634
85,State Street,04412,44.7942079,-68.7596240
9,Washington Street,04412,44.7942219,-68.7598389
5,Washington Street,04412,44.7940330,-68.7599155
228,Center Street,04412,44.7937587,-68.7600304
230,Center Street,04412,44.7935739,-68.7599238
6,Cedar Street,04412,44.7936410,-68.7597149
91,State Street,04412,44.7937978,-68.7593855
89,State Street,04412,44.7939825,-68.7594480
7,Cedar Street,04412,44.7934109,-68.7594630
236,Center Street,04412,44.7933395,-68.7597920
107,State Street,04412,44.7931078,-68.7587499
103,State Street,04412,44.7932026,-68.7588696
101,State Street,04412,44.7934053,-68.7589573
99,State Street,04412,44.7935091,-68.7591023
191,Chamberlain Street,04412,44.7897653,-68.7533089
21,Brooks Street,04412,44.7896047,-68.7539733
15,Brooks Street,04412,44.7894615,-68.7543658
11,Brooks Street,04412,44.7893992,-68.7546758
192,State Street,04412,44.7891621,-68.7553658
176,State Street,04412,44.7894730,-68.7555351
10,Brooks Street,04412,44.7896025,-68.7550163
18,Brooks Street,04412,44.7898130,-68.7545413
27,Eastern Avenue,04412,44.7901174,-68.7537689
174,State Street,04412,44.7896039,-68.7556673
171,State Street,04412,44.7899790,-68.7563800
165,State Street,04412,44.7901684,-68.7565562
286,Wilson Street,04412,44.7890097,-68.7577936
300,Wilson Street,04412,44.7884049,-68.7570060
123,State Street,04412,44.7921974,-68.7581911
119,State Street,04412,44.7923371,-68.7582917
3,Somerset Street,04412,44.7920082,-68.7602463
74,Silk Street,04412,44.7955559,-68.7542831
90,Silk Street,04412,44.7948165,-68.7537173
82,Silk Street,04412,44.7952132,-68.7540127
3,Lincoln Street,04412,44.7944964,-68.7534721
106,Silk Street,04412,44.7941042,-68.7531956
110,Silk Street,04412,44.7938698,-68.7530512
114,Silk Street,04412,44.7936580,-68.7529320
141,Silk Street,04412,44.7922384,-68.7521416
133,Silk Street,04412,44.7926037,-68.7524498
129,Silk Street,04412,44.7927528,-68.7527147
125,Silk Street,04412,44.7929197,-68.7528783
121,Silk Street,04412,44.7931361,-68.7530481
117,Silk Street,04412,44.7933525,-68.7531862
115,Silk Street,04412,44.7935059,-68.7533499
111,Silk Street,04412,44.7936997,-68.7534692
107,Silk Street,04412,44.7938800,-68.7535885
97,Silk Street,04412,44.7942317,-68.7539031
95,Silk Street,04412,44.7944166,-68.7540351
91,Silk Street,04412,44.7945876,-68.7540470
87,Silk Street,04412,44.7947454,-68.7541727
85,Silk Street,04412,44.7948538,-68.7543429
81,Silk Street,04412,44.7950340,-68.7544054
71,Silk Street,04412,44.7955075,-68.7548080
79,Washington Street,04412,44.7958633,-68.7549266
75,Washington Street,04412,44.7959045,-68.7552109
73,Washington Street,04412,44.7958553,-68.7553754
69,Washington Street,04412,44.7957433,-68.7556288
90,Harlow Street,04412,44.7944449,-68.7546734
82,Harlow Street,04412,44.7949542,-68.7549431
116,Chamberlain Street,04412,44.7939011,-68.7550613
85,Harlow Street,04412,44.7945905,-68.7553934
79,Harlow Street,04412,44.7949554,-68.7555436
71,Harlow Street,04412,44.7951629,-68.7557513
65,Washington Street,04412,44.7956404,-68.7559326
63,Washington Street,04412,44.7955421,-68.7562365
80,Chamberlain Street,04412,44.7953628,-68.7565976
82,Chamberlain Street,04412,44.7951328,-68.7564152
92,Chamberlain Street,04412,44.7946146,-68.7561266
100,Chamberlain Street,04412,44.7942769,-68.7560648
104,Chamberlain Street,04412,44.7940919,-68.7558380
108,Chamberlain Street,04412,44.7939295,-68.7556807
114,Chamberlain Street,04412,44.7936772,-68.7555932
118,Chamberlain Street,04412,44.7933842,-68.7553732
122,Chamberlain Street,04412,44.7931768,-68.7552414
142,Chamberlain Street,04412,44.7922527,-68.7545626
148,Chamberlain Street,04412,44.7919642,-68.7543615
178,Chamberlain Street,04412,44.7906702,-68.7533809
44,Eastern Avenue,04412,44.7906781,-68.7528626
52,Eastern Avenue,04412,44.7906407,-68.7521990
38,Eastern Avenue,04412,44.7904200,-68.7542290
173,Chamberlain Street,04412,44.7906852,-68.7540762
171,Chamberlain Street,04412,44.7908249,-68.7541451
165,Chamberlain Street,04412,44.7910503,-68.7543085
161,Chamberlain Street,04412,44.7912938,-68.7544908
159,Chamberlain Street,04412,44.7915372,-68.7546478
145,Chamberlain Street,04412,44.7919157,-68.7548674
143,Chamberlain Street,04412,44.7920690,-68.7549679
139,Chamberlain Street,04412,44.7922944,-68.7551503
137,Chamberlain Street,04412,44.7924520,-68.7551875
135,Chamberlain Street,04412,44.7926280,-68.7553764
117,Chamberlain Street,04412,44.7932680,-68.7557720
113,Chamberlain Street,04412,44.7935158,-68.7558910
103,Chamberlain Street,04412,44.7939939,-68.7563252
101,Chamberlain Street,04412,44.7941065,-68.7563816
95,Chamberlain Street,04412,44.7943140,-68.7566020
93,Chamberlain Street,04412,44.7944806,-68.7566202
89,Chamberlain Street,04412,44.7946384,-68.7567270
83,Chamberlain Street,04412,44.7948821,-68.7570168
49,Washington Street,04412,44.7952468,-68.7570848
45,Washington Street,04412,44.7951125,-68.7574457
39,Washington Street,04412,44.7950232,-68.7577811
76,Holyoke Street,04412,44.7949289,-68.7578700
78,Holyoke Street,04412,44.7947667,-68.7577822
82,Holyoke Street,04412,44.7946134,-68.7576690
84,Holyoke Street,04412,44.7944962,-68.7575747
86,Holyoke Street,04412,44.7944014,-68.7574550
90,Holyoke Street,04412,44.7942300,-68.7573166
94,Holyoke Street,04412,44.7940048,-68.7572101
96,Holyoke Street,04412,44.7938740,-68.7570906
98,Holyoke Street,04412,44.7937297,-68.7569963
100,Holyoke Street,04412,44.7935675,-68.7569022
102,Holyoke Street,04412,44.7934277,-68.7567890
110,Holyoke Street,04412,44.7932243,-68.7563853
101,Holyoke Street,04412,44.7933432,-68.7572761
97,Holyoke Street,04412,44.7935597,-68.7574585
95,Holyoke Street,04412,44.7937130,-68.7575780
93,Holyoke Street,04412,44.7938032,-68.7576661
89,Holyoke Street,04412,44.7939294,-68.7577414
87,Holyoke Street,04412,44.7940333,-68.7579180
85,Holyoke Street,04412,44.7941865,-68.7580311
83,Holyoke Street,04412,44.7943218,-68.7581317
81,Holyoke Street,04412,44.7944164,-68.7581945
77,Holyoke Street,04412,44.7946551,-68.7582441
29,Washington Street,04412,44.7947635,-68.7584206
23,Washington Street,04412,44.7946247,-68.7587436
86,State Street,04412,44.7943687,-68.7590228
90,State Street,04412,44.7941659,-68.7588972
92,State Street,04412,44.7940443,-68.7588598
96,State Street,04412,44.7939090,-68.7587592
98,State Street,04412,44.7937739,-68.7587029
100,State Street,04412,44.7936475,-68.7585707
5,Goodridge Lane,04412,44.7938000,-68.7582856
102,State Street,04412,44.7935439,-68.7585079
104,State Street,04412,44.7933816,-68.7583695
108,State Street,04412,44.7932553,-68.7582752
114,State Street,04412,44.7929218,-68.7580680
120,State Street,04412,44.7926241,-68.7577848
136,State Street,04412,44.7918577,-68.7572191
142,State Street,04412,44.7915243,-68.7570309
144,State Street,04412,44.7913979,-68.7568923
15,Ilya Way,04412,44.7915672,-68.7560825
150,State Street,04412,44.7911906,-68.7567794
152,State Street,04412,44.7910778,-68.7566345
154,State Street,04412,44.7909472,-68.7566161
158,State Street,04412,44.7907940,-68.7565472
164,State Street,04412,44.7905684,-68.7562953
9,Hanover Place,04412,44.7906055,-68.7546770
166,State Street,04412,44.7902168,-68.7560187
170,State Street,04412,44.7899461,-68.7557607
10,Eastern Avenue,04412,44.7900579,-68.7553873
14,Eastern Avenue,04412,44.7901831,-68.7550138
22,Eastern Avenue,04412,44.7903664,-68.7544378
149,Silk Street,04412,44.7919353,-68.7514223
145,Silk Street,04412,44.7921251,-68.7517818
10,Autumn Lane,04412,44.7909660,-68.7527981
16,Autumn Lane,04412,44.7912587,-68.7528285
20,Autumn Lane,04412,44.7914614,-68.7529288
24,Autumn Lane,04412,44.7916556,-68.7531998
28,Autumn Lane,04412,44.7919078,-68.7532556
29,Autumn Lane,04412,44.7921051,-68.7529197
23,Autumn Lane,04412,44.7918613,-68.7525921
19,Autumn Lane,04412,44.7916087,-68.7523340
15,Autumn Lane,04412,44.7913880,-68.7522527
11,Autumn Lane,04412,44.7911178,-68.7521970
7,Autumn Lane,04412,44.7909152,-68.7522105
138,Chamberlain Street,04412,44.7925274,-68.7546499
3,Fawn Court,04412,44.7927168,-68.7547882
4,Fawn Court,04412,44.7930368,-68.7550081
7,Fawn Court,04412,44.7927656,-68.7544719
11,Fawn Court,04412,44.7929135,-68.7541679
15,Fawn Court,04412,44.7930029,-68.7539020
14,Fawn Court,04412,44.7934045,-68.7543681
8,Fawn Court,04412,44.7931172,-68.7547233
18,Washington Street,04412,44.7948107,-68.7594319
20,Washington Street,04412,44.7948372,-68.7592232
24,Washington Street,04412,44.7949359,-68.7590774
74,State Street,04412,44.7949775,-68.7595766
70,State Street,04412,44.7951578,-68.7597086
64,State Street,04412,44.7953922,-68.7598530
62,State Street,04412,44.7955546,-68.7600167
56,State Street,04412,44.7957572,-68.7600601
54,State Street,04412,44.7959237,-68.7600152
50,State Street,04412,44.7961310,-68.7601660
46,State Street,04412,44.7962667,-68.7604499
44,State Street,04412,44.7964560,-68.7605756
38,State Street,04412,44.7966315,-68.7605622
30,State Street,04412,44.7970145,-68.7607439
25,Holyoke Street,04412,44.7970494,-68.7602444
29,Holyoke Street,04412,44.7970173,-68.7599411
31,Holyoke Street,04412,44.7968730,-68.7598469
35,Holyoke Street,04412,44.7966120,-68.7598606
37,Holyoke Street,04412,44.7965486,-68.7596522
41,Holyoke Street,04412,44.7964043,-68.7595264
45,Holyoke Street,04412,44.7962149,-68.7594008
47,Holyoke Street,04412,44.7960977,-68.7593127
49,Holyoke Street,04412,44.7959893,-68.7591425
53,Holyoke Street,04412,44.7958272,-68.7591116
55,Holyoke Street,04412,44.7957010,-68.7590110
59,Holyoke Street,04412,44.7955568,-68.7589357
61,Holyoke Street,04412,44.7954350,-68.7588287
26,Washington Street,04412,44.7950662,-68.7589377
30,Washington Street,04412,44.7951288,-68.7587542
65,Holyoke Street,04412,44.7952096,-68.7586400
66,Holyoke Street,04412,44.7954023,-68.7582283
62,Holyoke Street,04412,44.7955962,-68.7583982
58,Holyoke Street,04412,44.7957179,-68.7585052
56,Holyoke Street,04412,44.7958847,-68.7585993
50,Holyoke Street,04412,44.7960695,-68.7587186
46,Holyoke Street,04412,44.7963310,-68.7589451
44,Holyoke Street,04412,44.7964933,-68.7590709
42,Holyoke Street,04412,44.7966105,-68.7591652
40,Holyoke Street,04412,44.7967771,-68.7591582
36,Holyoke Street,04412,44.7968674,-68.7592843
38,Holyoke Street,04412,44.7969656,-68.7589235
32,Holyoke Street,04412,44.7969891,-68.7593975
28,Holyoke Street,04412,44.7971064,-68.7595045
26,Holyoke Street,04412,44.7972596,-68.7596114
24,Holyoke Street,04412,44.7974490,-68.7597496
20,Holyoke Street,04412,44.7976698,-68.7598625
34,Holyoke Street,04412,44.7970648,-68.7589737
43,Chamberlain Street,04412,44.7968056,-68.7585469
55,Chamberlain Street,04412,44.7963196,-68.7578199
59,Chamberlain Street,04412,44.7961845,-68.7577636
65,Chamberlain Street,04412,44.7956531,-68.7576647
48,Washington Street,04412,44.7955083,-68.7572986
46,Washington Street,04412,44.7954863,-68.7575073
44,Washington Street,04412,44.7954101,-68.7576973
40,Washington Street,04412,44.7953070,-68.7578874
38,Washington Street,04412,44.7954287,-68.7579817
54,Washington Street,04412,44.7957370,-68.7568805
66,Chamberlain Street,04412,44.7959086,-68.7571263
64,Chamberlain Street,04412,44.7960754,-68.7572520
60,Chamberlain Street,04412,44.7962377,-68.7573714
56,Chamberlain Street,04412,44.7964134,-68.7574845
46,Chamberlain Street,04412,44.7968729,-68.7576343
34,Chamberlain Street,04412,44.7975540,-68.7583205
26,Chamberlain Street,04412,44.7978874,-68.7584771
335,North Main Street,04412,44.7983646,-68.7585131
339,North Main Street,04412,44.7984406,-68.7582852
341,North Main Street,04412,44.7985797,-68.7580570
9,Harlow Street,04412,44.7982776,-68.7578307
28,Chamberlain Street,04412,44.7979584,-68.7579838
17,Harlow Street,04412,44.7979216,-68.7576172
19,Harlow Street,04412,44.7978358,-68.7574975
21,Harlow Street,04412,44.7976961,-68.7574222
25,Harlow Street,04412,44.7974572,-68.7572589
31,Harlow Street,04412,44.7971417,-68.7570389
35,Harlow Street,04412,44.7969479,-68.7569196
41,Harlow Street,04412,44.7967947,-68.7568381
45,Harlow Street,04412,44.7965062,-68.7566370
47,Harlow Street,04412,44.7963574,-68.7565491
51,Harlow Street,04412,44.7961591,-68.7563982
66,Washington Street,04412,44.7959245,-68.7561590
60,Washington Street,04412,44.7957948,-68.7565578
72,Washington Street,04412,44.7960676,-68.7557096
52,Harlow Street,04412,44.7962617,-68.7559869
48,Harlow Street,04412,44.7965277,-68.7561628
44,Harlow Street,04412,44.7968252,-68.7563638
36,Harlow Street,04412,44.7971092,-68.7565776
34,Harlow Street,04412,44.7972625,-68.7566844
30,Harlow Street,04412,44.7974247,-68.7568038
22,Harlow Street,04412,44.7976906,-68.7569544
20,Harlow Street,04412,44.7978124,-68.7570551
18,Harlow Street,04412,44.7979702,-68.7571745
14,Harlow Street,04412,44.7981371,-68.7573445
347,North Main Street,04412,44.7987321,-68.7577466
353,North Main Street,04412,44.7989247,-68.7573349
9,Silk Street,04412,44.7986133,-68.7569253
15,Silk Street,04412,44.7984644,-68.7567742
17,Silk Street,04412,44.7983021,-68.7566358
21,Silk Street,04412,44.7981266,-68.7566365
25,Silk Street,04412,44.7978246,-68.7564355
29,Silk Street,04412,44.7975901,-68.7562595
33,Silk Street,04412,44.7974053,-68.7561148
45,Silk Street,04412,44.7971616,-68.7558124
47,Silk Street,04412,44.7968640,-68.7555987
51,Silk Street,04412,44.7965306,-68.7554421
76,Washington Street,04412,44.7962151,-68.7552601
74,Washington Street,04412,44.7961437,-68.7555196
360,North Main Street,04412,44.7993926,-68.7572065
354,North Main Street,04412,44.7991999,-68.7576119
350,North Main Street,04412,44.7992325,-68.7581049
342,North Main Street,04412,44.7989491,-68.7581946
340,North Main Street,04412,44.7989091,-68.7584286
338,North Main Street,04412,44.7987475,-68.7586569
332,North Main Street,04412,44.7986087,-68.7589799
6,Chamberlain Street,04412,44.7988342,-68.7592002
4,Chamberlain Street,04412,44.7990008,-68.7592311
25,Prospect Street,04412,44.7990904,-68.7590221
27,Prospect Street,04412,44.7992696,-68.7586547
1,Chamberlain Street,04412,44.7987224,-68.7595737
15,Prospect Street,04412,44.7986599,-68.7598015
11,Prospect Street,04412,44.7985567,-68.7599726
9,Prospect Street,04412,44.7984400,-68.7600932
7,Prospect Street,04412,44.7984269,-68.7603019
4,Holyoke Street,04412,44.7983239,-68.7605742
10,Holyoke Street,04412,44.7979901,-68.7602152
318,North Main Street,04412,44.7980929,-68.7598924
320,North Main Street,04412,44.7981962,-68.7597718
324,North Main Street,04412,44.7982722,-68.7595376
328,North Main Street,04412,44.7984609,-68.7593472
3,Holyoke Street,04412,44.7981490,-68.7608657
7,Holyoke Street,04412,44.7980187,-68.7609800
2,State Street,04412,44.7981748,-68.7624271
435,North Main Street,04412,44.8010157,-68.7521989
427,North Main Street,04412,44.8008813,-68.7524713
419,North Main Street,04412,44.8006795,-68.7528262
12,Chapman Street,04412,44.8004946,-68.7526500
16,Chapman Street,04412,44.8000895,-68.7526644
22,Chapman Street,04412,44.7997060,-68.7522551
28,Chapman Street,04412,44.7994716,-68.7520664
30,Chapman Street,04412,44.7993093,-68.7519470
40,Chapman Street,04412,44.7989442,-68.7517399
44,Chapman Street,04412,44.7987143,-68.7515892
10,Floyd Street,04412,44.7981886,-68.7519834
14,Floyd Street,04412,44.7979947,-68.7518388
18,Floyd Street,04412,44.7977784,-68.7517007
11,Floyd Street,04412,44.7979284,-68.7524018
5,Floyd Street,04412,44.7984548,-68.7522857
391,North Main Street,04412,44.7991636,-68.7532815
391,North Main Street,04412,44.7987893,-68.7529544
3,Floyd Street,04412,44.7985623,-68.7520577
33,Chapman Street,04412,44.7988733,-68.7522586
31,Chapman Street,04412,44.7991078,-68.7524473
27,Chapman Street,04412,44.7993376,-68.7525475
21,Chapman Street,04412,44.7996623,-68.7528242
15,Chapman Street,04412,44.7999011,-68.7529749
11,Chapman Street,04412,44.8001626,-68.7531635
6,Silk Street,04412,44.7989188,-68.7566648
16,Silk Street,04412,44.7988985,-68.7555775
18,Silk Street,04412,44.7983960,-68.7563193
26,Silk Street,04412,44.7980938,-68.7560298
28,Silk Street,04412,44.7979580,-68.7556953
34,Silk Street,04412,44.7975755,-68.7557285
42,Silk Street,04412,44.7972867,-68.7554010
46,Silk Street,04412,44.7970165,-68.7553389
48,Silk Street,04412,44.7968902,-68.7552130
50,Silk Street,04412,44.7967504,-68.7550998
82,Washington Street,04412,44.7963762,-68.7548106
84,Washington Street,04412,44.7964613,-68.7546206
88,Washington Street,04412,44.7966000,-68.7542154
87,Washington Street,04412,44.7962982,-68.7540966
83,Washington Street,04412,44.7961863,-68.7544132
81,Washington Street,04412,44.7960653,-68.7546476
390,North Main Street,04412,44.8003247,-68.7552807
8,Gilmore Street,04412,44.8005637,-68.7554630
35,Allen Road,04412,44.8006898,-68.7555067
29,Allen Road,04412,44.8005330,-68.7558361
25,Allen Road,04412,44.8004299,-68.7560326
23,Allen Road,04412,44.8002503,-68.7562736
362,North Main Street,04412,44.7995449,-68.7568645
364,North Main Street,04412,44.7996347,-68.7567440
24,Allen Road,04412,44.8005885,-68.7565693
26,Allen Road,04412,44.8006646,-68.7563477
32,Allen Road,04412,44.8007945,-68.7560563
34,Allen Road,04412,44.8008524,-68.7557842
19,Gilmore Street,04412,44.8011802,-68.7554098
15,Gilmore Street,04412,44.8010314,-68.7553030
7,Gilmore Street,04412,44.8007925,-68.7551459
396,North Main Street,04412,44.8005398,-68.7548499
406,North Main Street,04412,44.8007860,-68.7541913
408,North Main Street,04412,44.8008035,-68.7539510
43,Riverview Terrace,04412,44.8011769,-68.7538672
39,Riverview Terrace,04412,44.8013528,-68.7540245
29,Riverview Terrace,04412,44.8016008,-68.7542195
23,Riverview Terrace,04412,44.8014528,-68.7545046
9,Riverview Terrace,04412,44.8010161,-68.7544432
8,Riverview Terrace,04412,44.8008231,-68.7546969
16,Riverview Terrace,04412,44.8011838,-68.7549799
20,Riverview Terrace,04412,44.8014721,-68.7550735
22,Riverview Terrace,04412,44.8016924,-68.7549841
26,Riverview Terrace,04412,44.8018943,-68.7546798
24,Riverview Terrace,04412,44.8017324,-68.7547373
30,Riverview Terrace,04412,44.8019702,-68.7543886
32,Riverview Terrace,04412,44.8019961,-68.7538511
36,Riverview Terrace,04412,44.8017931,-68.7536813
40,Riverview Terrace,04412,44.8015138,-68.7535371
44,Riverview Terrace,04412,44.8012974,-68.7533736
426,North Main Street,04412,44.8010046,-68.7532990
430,North Main Street,04412,44.8011568,-68.7529190
432,North Main Street,04412,44.8012103,-68.7526785
436,North Main Street,04412,44.8013357,-68.7523619
18,Foley Way,04412,44.8019852,-68.7529724
82,Parkway North,04412,44.7975321,-68.7481995
86,Parkway North,04412,44.7973028,-68.7483206
94,Parkway North,04412,44.7970421,-68.7484545
98,Parkway North,04412,44.7967587,-68.7485506
68,Lincoln Street,04412,44.7947564,-68.7488627
171,Washington Street,04412,44.7960246,-68.7483641
110,Parkway North,04412,44.7961609,-68.7489261
116,Parkway North,04412,44.7958234,-68.7489718
74,Capri Street,04412,44.7956602,-68.7484605
120,Parkway North,04412,44.7955807,-68.7491373
128,Parkway North,04412,44.7951085,-68.7493100
134,Parkway North,04412,44.7947982,-68.7494378
146,Parkway North,04412,44.7940243,-68.7496055
152,Parkway North,04412,44.7936914,-68.7496511
158,Parkway North,04412,44.7934078,-68.7496587
162,Parkway North,04412,44.7932145,-68.7497733
166,Parkway North,04412,44.7929266,-68.7498567
172,Parkway North,04412,44.7927017,-68.7499083
174,Parkway North,04412,44.7924498,-68.7499915
182,Parkway North,04412,44.7921931,-68.7499358
186,Parkway North,04412,44.7919999,-68.7500820
194,Parkway North,04412,44.7915589,-68.7501597
183,Parkway North,04412,44.7921271,-68.7506124
181,Parkway North,04412,44.7923160,-68.7505547
175,Parkway North,04412,44.7925815,-68.7505283
173,Parkway North,04412,44.7928109,-68.7504767
171,Parkway North,04412,44.7930180,-68.7504695
161,Parkway North,04412,44.7933014,-68.7504177
157,Parkway North,04412,44.7935308,-68.7503219
153,Parkway North,04412,44.7937152,-68.7502642
149,Parkway North,04412,44.7939221,-68.7502064
145,Parkway North,04412,44.7941425,-68.7501423
46,Madison Avenue,04412,44.7940406,-68.7508444
54,Madison Avenue,04412,44.7937255,-68.7508584
60,Madison Avenue,04412,44.7933790,-68.7508915
70,Madison Avenue,04412,44.7930191,-68.7509942
74,Madison Avenue,04412,44.7927088,-68.7510966
80,Madison Avenue,04412,44.7924074,-68.7511927
77,Madison Avenue,04412,44.7926607,-68.7517416
65,Madison Avenue,04412,44.7930207,-68.7517337
126,Silk Street,04412,44.7931615,-68.7523210
61,Madison Avenue,04412,44.7933354,-68.7515301
57,Madison Avenue,04412,44.7935604,-68.7514975
53,Madison Avenue,04412,44.7937988,-68.7514459
47,Madison Avenue,04412,44.7941499,-68.7514571
41,Madison Avenue,04412,44.7943656,-68.7513044
37,Madison Avenue,04412,44.7945591,-68.7512594
35,Lincoln Street,04412,44.7948065,-68.7511888
27,Lincoln Street,04412,44.7948571,-68.7516879
23,Lincoln Street,04412,44.7948802,-68.7519597
17,Lincoln Street,04412,44.7948584,-68.7523074
15,Lincoln Street,04412,44.7947645,-68.7525860
9,Lincoln Street,04412,44.7946484,-68.7530037
5,Lincoln Street,04412,44.7945500,-68.7532949
8,Lincoln Street,04412,44.7948699,-68.7534389
12,Lincoln Street,04412,44.7949505,-68.7532300
14,Lincoln Street,04412,44.7950359,-68.7529970
20,Lincoln Street,04412,44.7951917,-68.7524008
24,Lincoln Street,04412,44.7952182,-68.7521668
26,Lincoln Street,04412,44.7952267,-68.7519455
28,Lincoln Street,04412,44.7952037,-68.7516801
32,Lincoln Street,04412,44.7951897,-68.7514842
34,Lincoln Street,04412,44.7951844,-68.7511050
25,Madison Avenue,04412,44.7953733,-68.7510472
21,Madison Avenue,04412,44.7955983,-68.7510020
43,Jefferson Street,04412,44.7957024,-68.7512671
39,Jefferson Street,04412,44.7957433,-68.7514566
35,Jefferson Street,04412,44.7957753,-68.7516713
33,Jefferson Street,04412,44.7957848,-68.7518926
29,Jefferson Street,04412,44.7957808,-68.7521454
25,Jefferson Street,04412,44.7957454,-68.7524301
23,Jefferson Street,04412,44.7956830,-68.7527211
19,Jefferson Street,04412,44.7956069,-68.7528921
15,Jefferson Street,04412,44.7955489,-68.7531263
13,Jefferson Street,04412,44.7954728,-68.7533415
11,Jefferson Street,04412,44.7953923,-68.7535631
7,Jefferson Street,04412,44.7953162,-68.7537784
8,Jefferson Street,04412,44.7956719,-68.7537958
12,Jefferson Street,04412,44.7957569,-68.7535552
16,Jefferson Street,04412,44.7958059,-68.7533527
18,Jefferson Street,04412,44.7959223,-68.7530615
24,Jefferson Street,04412,44.7960073,-68.7528082
26,Jefferson Street,04412,44.7960654,-68.7525994
30,Jefferson Street,04412,44.7960873,-68.7523464
34,Jefferson Street,04412,44.7961227,-68.7520681
36,Jefferson Street,04412,44.7961086,-68.7517584
40,Jefferson Street,04412,44.7961305,-68.7515055
42,Jefferson Street,04412,44.7960037,-68.7511646
48,Jefferson Street,04412,44.7959534,-68.7507919
11,Madison Avenue,04412,44.7961513,-68.7507341
7,Madison Avenue,04412,44.7963266,-68.7506196
135,Washington Street,04412,44.7966427,-68.7509216
133,Washington Street,04412,44.7966879,-68.7511617
129,Washington Street,04412,44.7967380,-68.7514207
121,Washington Street,04412,44.7967794,-68.7518440
119,Washington Street,04412,44.7967754,-68.7520590
115,Washington Street,04412,44.7967360,-68.7525586
109,Washington Street,04412,44.7966826,-68.7528433
105,Washington Street,04412,44.7966290,-68.7530648
101,Washington Street,04412,44.7965620,-68.7532737
97,Washington Street,04412,44.7964500,-68.7535397
95,Washington Street,04412,44.7963785,-68.7537802
4,Madison Avenue,04412,44.7963838,-68.7500188
10,Madison Avenue,04412,44.7960151,-68.7501595
14,Madison Avenue,04412,44.7958217,-68.7502488
18,Madison Avenue,04412,44.7956148,-68.7503382
22,Madison Avenue,04412,44.7954080,-68.7504402
26,Madison Avenue,04412,44.7952280,-68.7504600
30,Madison Avenue,04412,44.7950572,-68.7505871
131,Parkway North,04412,44.7949254,-68.7499808
127,Parkway North,04412,44.7951143,-68.7499105
125,Parkway North,04412,44.7953032,-68.7498401
121,Parkway North,04412,44.7955011,-68.7497887
115,Parkway North,04412,44.7959103,-68.7496163
109,Parkway North,04412,44.7961442,-68.7495204
54,Chapman Street,04412,44.7981417,-68.7511491
11,Genie Drive,04412,44.7942563,-68.7527778
15,Genie Drive,04412,44.7940490,-68.7526459
19,Genie Drive,04412,44.7938102,-68.7525584
12,Genie Drive,04412,44.7943948,-68.7522778
18,Genie Drive,04412,44.7941919,-68.7521522
28,Genie Drive,04412,44.7934408,-68.7524020
446,North Main Street,04412,44.8018024,-68.7517277
14,Indian Trail Lane,04412,44.8022392,-68.7518080
470,North Main Street,04412,44.8023165,-68.7500943
480,North Main Street,04412,44.8035632,-68.7500321
484,North Main Street,04412,44.8045126,-68.7498825
492,North Main Street,04412,44.8043806,-68.7492066
510,North Main Street,04412,44.8033590,-68.7472764
6,West Road,04412,44.8035618,-68.7473703
10,West Road,04412,44.8037150,-68.7474455
20,West Road,04412,44.8040847,-68.7477348
26,West Road,04412,44.8044590,-68.7480240
4,North Road,04412,44.8048410,-68.7477820
21,East Road,04412,44.8049857,-68.7460301
20,South Road,04412,44.8045813,-68.7463353
9,North Road,04412,44.8048831,-68.7464731
7,North Road,04412,44.8047399,-68.7468404
5,North Road,04412,44.8046281,-68.7471381
3,North Road,04412,44.8044893,-68.7474927
10,South Road,04412,44.8043531,-68.7469749
4,South Road,04412,44.8042638,-68.7472977
10,East Road,04412,44.8041978,-68.7459450
15,South Road,04412,44.8041353,-68.7461982
7,South Road,04412,44.8039473,-68.7466289
9,West Road,04412,44.8037905,-68.7469963
516,North Main Street,04412,44.8035247,-68.7468584
520,North Main Street,04412,44.8036142,-68.7466241
522,North Main Street,04412,44.8036993,-68.7464467
532,North Main Street,04412,44.8039320,-68.7458197
9,East Road,04412,44.8043680,-68.7455712
550,North Main Street,04412,44.8042902,-68.7450089
58,Eastern Avenue,04412,44.7905992,-68.7517884
62,Eastern Avenue,04412,44.7905940,-68.7514660
66,Eastern Avenue,04412,44.7906472,-68.7510549
203,Parkway North,04412,44.7911193,-68.7508317
199,Parkway North,04412,44.7913128,-68.7508119
193,Parkway North,04412,44.7917134,-68.7507912
155,Silk Street,04412,44.7918446,-68.7511193
198,Parkway North,04412,44.7913520,-68.7502049
200,Parkway North,04412,44.7911765,-68.7502436
204,Parkway North,04412,44.7909471,-68.7503014
76,Eastern Avenue,04412,44.7906096,-68.7503598
80,Eastern Avenue,04412,44.7906090,-68.7500627
86,Eastern Avenue,04412,44.7905859,-68.7497973
88,Eastern Avenue,04412,44.7905806,-68.7494244
71,Eastern Avenue,04412,44.7902369,-68.7507406
65,Eastern Avenue,04412,44.7902421,-68.7510819
61,Eastern Avenue,04412,44.7902565,-68.7514675
6,Sargent Drive,04412,44.7902302,-68.7518279
12,Sargent Drive,04412,44.7899554,-68.7516837
16,Sargent Drive,04412,44.7897659,-68.7515138
22,Sargent Drive,04412,44.7895000,-68.7513443
19,Sargent Drive,04412,44.7894383,-68.7519514
15,Sargent Drive,04412,44.7896816,-68.7520767
9,Sargent Drive,04412,44.7898664,-68.7521960
47,Eastern Avenue,04412,44.7902812,-68.7525040
186,Chamberlain Street,04412,44.7902733,-68.7530097
190,Chamberlain Street,04412,44.7900346,-68.7529349
196,Chamberlain Street,04412,44.7898768,-68.7528028
198,Chamberlain Street,04412,44.7896830,-68.7526898
204,Chamberlain Street,04412,44.7895116,-68.7525326
210,Chamberlain Street,04412,44.7891827,-68.7523886
10,Colonial Circle,04412,44.7883028,-68.7513937
240,Chamberlain Street,04412,44.7876184,-68.7512892
246,Chamberlain Street,04412,44.7872217,-68.7509875
248,Chamberlain Street,04412,44.7870052,-68.7508051
10,Cutler Place,04412,44.7872978,-68.7487433
258,Chamberlain Street,04412,44.7868861,-68.7498702
53,Colonial Circle,04412,44.7881684,-68.7496055
266,Chamberlain Street,04412,44.7861669,-68.7502841
272,Chamberlain Street,04412,44.7858019,-68.7501087
33,Upland Road,04412,44.7853525,-68.7463690
12,Beacon Street,04412,44.7856426,-68.7493194
16,Beacon Street,04412,44.7858938,-68.7489138
27,Beacon Street,04412,44.7857384,-68.7478400
23,Beacon Street,04412,44.7856219,-68.7480680
19,Beacon Street,04412,44.7855010,-68.7483529
12,Tremont Street,04412,44.7850346,-68.7491640
4,Upland Road,04412,44.7848674,-68.7488487
6,Upland Road,04412,44.7849972,-68.7485258
14,Upland Road,04412,44.7851673,-68.7481079
18,Upland Road,04412,44.7852792,-68.7478293
24,Upland Road,04412,44.7854314,-68.7474115
27,Upland Road,04412,44.7852322,-68.7469320
19,Upland Road,04412,44.7849994,-68.7474956
15,Upland Road,04412,44.7848651,-68.7477932
9,Upland Road,04412,44.7847487,-68.7481034
17,Tremont Street,04412,44.7845033,-68.7490715
15,Tremont Street,04412,44.7846207,-68.7492606
11,Tremont Street,04412,44.7847789,-68.7495380
284,Chamberlain Street,04412,44.7849418,-68.7499355
292,Chamberlain Street,04412,44.7847624,-68.7502206
300,Chamberlain Street,04412,44.7844167,-68.7506582
422,Wilson Street,04412,44.7840550,-68.7499203
432,Wilson Street,04412,44.7835951,-68.7495368
271,Chamberlain Street,04412,44.7856496,-68.7504507
269,Chamberlain Street,04412,44.7857939,-68.7505638
265,Chamberlain Street,04412,44.7859698,-68.7507337
261,Chamberlain Street,04412,44.7861636,-68.7508593
253,Chamberlain Street,04412,44.7865648,-68.7511294
249,Chamberlain Street,04412,44.7867315,-68.7512234
227,Chamberlain Street,04412,44.7878405,-68.7520088
223,Chamberlain Street,04412,44.7880344,-68.7521596
221,Chamberlain Street,04412,44.7882012,-68.7522727
219,Chamberlain Street,04412,44.7882614,-68.7530562
203,Chamberlain Street,04412,44.7891209,-68.7529640
197,Chamberlain Street,04412,44.7895310,-68.7531772
200,State Street,04412,44.7887788,-68.7550134
204,State Street,04412,44.7885490,-68.7549006
208,State Street,04412,44.7883324,-68.7546614
212,State Street,04412,44.7881609,-68.7544598
218,State Street,04412,44.7879538,-68.7544228
220,State Street,04412,44.7877915,-68.7543350
238,State Street,04412,44.7873286,-68.7525608
503,North Main Street,04412,44.8027741,-68.7473675
4,Hillcrest Drive,04412,44.8025146,-68.7480956
10,Hillcrest Drive,04412,44.8022486,-68.7478819
16,Hillcrest Drive,04412,44.8019557,-68.7477314
22,Hillcrest Drive,04412,44.8016491,-68.7474798
26,Hillcrest Drive,04412,44.8014417,-68.7473227
32,Hillcrest Drive,04412,44.8011712,-68.7471342
6,Russett Street,04412,44.8013009,-68.7467859
12,Russett Street,04412,44.8014262,-68.7464440
26,Russett Street,04412,44.8015691,-68.7459439
15,Bayberry Drive,04412,44.8019072,-68.7461763
11,Bayberry Drive,04412,44.8021642,-68.7463522
535,North Main Street,04412,44.8036064,-68.7451510
525,North Main Street,04412,44.8033246,-68.7459678
519,North Main Street,04412,44.8031952,-68.7464426
513,North Main Street,04412,44.8030384,-68.7467973
507,North Main Street,04412,44.8028997,-68.7471519
50,Bayberry Drive,04412,44.8004964,-68.7432807
12,Bayberry Drive,04412,44.8021536,-68.7456568
26,Bayberry Drive,04412,44.8016533,-68.7453176
32,Bayberry Drive,04412,44.8014142,-68.7450974
36,Bayberry Drive,04412,44.8011574,-68.7449784
42,Bayberry Drive,04412,44.8008508,-68.7447648
41,Bayberry Drive,04412,44.8006990,-68.7453029
35,Bayberry Drive,04412,44.8009424,-68.7454725
31,Bayberry Drive,04412,44.8012084,-68.7456547
15,Russett Street,04412,44.8010877,-68.7460029
58,Deer Park Drive,04412,44.7981235,-68.7449033
14,Oak Grove Drive,04412,44.7978176,-68.7449995
100,Hillcrest Drive,04412,44.7974283,-68.7460253
3,Oak Grove Drive,04412,44.7976756,-68.7458978
55,Deer Park Drive,04412,44.7983452,-68.7454460
49,Deer Park Drive,04412,44.7986288,-68.7454258
45,Deer Park Drive,04412,44.7988989,-68.7454436
39,Deer Park Drive,04412,44.7991690,-68.7454929
33,Deer Park Drive,04412,44.7994348,-68.7455803
27,Deer Park Drive,04412,44.7996961,-68.7456992
23,Deer Park Drive,04412,44.7999440,-68.7458436
15,Deer Park Drive,04412,44.8003047,-68.7460949
7,Deer Park Drive,04412,44.8006743,-68.7463524
7,Russett Street,04412,44.8009178,-68.7465221
40,Hillcrest Drive,04412,44.8007970,-68.7468640
44,Hillcrest Drive,04412,44.8005490,-68.7466881
50,Hillcrest Drive,04412,44.8003056,-68.7465184
54,Hillcrest Drive,04412,44.8000622,-68.7463551
58,Hillcrest Drive,04412,44.7998278,-68.7461918
64,Hillcrest Drive,04412,44.7995979,-68.7460537
68,Hillcrest Drive,04412,44.7993591,-68.7459536
72,Hillcrest Drive,04412,44.7991204,-68.7458725
76,Hillcrest Drive,04412,44.7988727,-68.7458230
80,Hillcrest Drive,04412,44.7986251,-68.7458051
86,Hillcrest Drive,04412,44.7983776,-68.7458252
90,Hillcrest Drive,04412,44.7980896,-68.7458643
19,Clover Lane,04412,44.7969783,-68.7460652
15,Clover Lane,04412,44.7970915,-68.7463997
9,Clover Lane,04412,44.7971688,-68.7467281
3,Clover Lane,04412,44.7972236,-68.7471072
101,Hillcrest Drive,04412,44.7975826,-68.7465936
95,Hillcrest Drive,04412,44.7978525,-68.7465039
87,Hillcrest Drive,04412,44.7981539,-68.7464457
83,Hillcrest Drive,04412,44.7984284,-68.7464002
77,Hillcrest Drive,04412,44.7987299,-68.7463926
71,Hillcrest Drive,04412,44.7990361,-68.7464418
65,Hillcrest Drive,04412,44.7993334,-68.7465480
59,Hillcrest Drive,04412,44.7996128,-68.7466922
53,Hillcrest Drive,04412,44.7998653,-68.7468681
49,Hillcrest Drive,04412,44.8001448,-68.7470628
50,Broadlawn Drive,04412,44.8000826,-68.7474614
54,Broadlawn Drive,04412,44.7997400,-68.7472163
58,Broadlawn Drive,04412,44.7994966,-68.7470467
64,Broadlawn Drive,04412,44.7992487,-68.7469150
68,Broadlawn Drive,04412,44.7989874,-68.7468213
72,Broadlawn Drive,04412,44.7987173,-68.7467846
78,Broadlawn Drive,04412,44.7984472,-68.7467921
82,Broadlawn Drive,04412,44.7981908,-68.7468375
86,Broadlawn Drive,04412,44.7979163,-68.7468892
92,Broadlawn Drive,04412,44.7976329,-68.7469727
39,Hillcrest Drive,04412,44.8005144,-68.7473204
33,Hillcrest Drive,04412,44.8008480,-68.7475529
29,Hillcrest Drive,04412,44.8010915,-68.7477288
23,Hillcrest Drive,04412,44.8013394,-68.7478985
19,Hillcrest Drive,04412,44.8015829,-68.7480744
15,Hillcrest Drive,04412,44.8018263,-68.7482441
9,Hillcrest Drive,04412,44.8020742,-68.7484137
487,North Main Street,04412,44.8023312,-68.7485896
4,Broadlawn Drive,04412,44.8022014,-68.7489379
8,Broadlawn Drive,04412,44.8019535,-68.7487619
14,Broadlawn Drive,04412,44.8017055,-68.7485923
18,Broadlawn Drive,04412,44.8014621,-68.7484227
24,Broadlawn Drive,04412,44.8012142,-68.7482467
28,Broadlawn Drive,04412,44.8009707,-68.7480771
34,Broadlawn Drive,04412,44.8007228,-68.7479075
40,Broadlawn Drive,04412,44.8004523,-68.7477190
172,Washington Street,04412,44.7964249,-68.7481980
97,Broadlawn Drive,04412,44.7969102,-68.7478545
95,Broadlawn Drive,04412,44.7971756,-68.7477522
93,Broadlawn Drive,04412,44.7974318,-68.7476120
91,Broadlawn Drive,04412,44.7976748,-68.7475920
87,Broadlawn Drive,04412,44.7979222,-68.7475214
74,Parkway North,04412,44.7979954,-68.7480268
78,Parkway North,04412,44.7978110,-68.7481098
79,Broadlawn Drive,04412,44.7983540,-68.7473867
71,Broadlawn Drive,04412,44.7987366,-68.7473598
59,Broadlawn Drive,04412,44.7992861,-68.7475154
53,Broadlawn Drive,04412,44.7995611,-68.7477102
43,Broadlawn Drive,04412,44.8000118,-68.7480054
39,Broadlawn Drive,04412,44.8003004,-68.7482570
35,Broadlawn Drive,04412,44.8004987,-68.7483510
29,Broadlawn Drive,04412,44.8007557,-68.7485458
23,Broadlawn Drive,04412,44.8010803,-68.7487784
17,Broadlawn Drive,04412,44.8012832,-68.7489419
13,Broadlawn Drive,04412,44.8015266,-68.7491178
7,Broadlawn Drive,04412,44.8018195,-68.7492556
3,Broadlawn Drive,04412,44.8020359,-68.7494128
4,Parkway North,04412,44.8018614,-68.7498750
10,Parkway North,04412,44.8016721,-68.7497684
12,Parkway North,04412,44.8014602,-68.7496112
16,Parkway North,04412,44.8012529,-68.7494857
20,Parkway North,04412,44.8010185,-68.7493223
26,Parkway North,04412,44.8007841,-68.7491590
30,Parkway North,04412,44.8005452,-68.7490209
36,Parkway North,04412,44.8002747,-68.7488198
42,Parkway North,04412,44.7999952,-68.7486124
46,Parkway North,04412,44.7997337,-68.7484302
50,Parkway North,04412,44.7995399,-68.7483109
56,Parkway North,04412,44.7992738,-68.7480781
60,Parkway North,04412,44.7989674,-68.7479404
64,Parkway North,04412,44.7986792,-68.7478595
68,Parkway North,04412,44.7984225,-68.7478100
75,Parkway North,04412,44.7980912,-68.7486396
69,Parkway North,04412,44.7983701,-68.7485436
63,Parkway North,04412,44.7986267,-68.7485488
59,Parkway North,04412,44.7988428,-68.7485921
53,Parkway North,04412,44.7991175,-68.7486478
47,Parkway North,04412,44.7994873,-68.7489496
39,Parkway North,04412,44.7997893,-68.7491570
35,Parkway North,04412,44.8000957,-68.7493074
29,Parkway North,04412,44.8003122,-68.7495150
25,Parkway North,04412,44.8005556,-68.7496784
19,Parkway North,04412,44.8008036,-68.7498480
15,Parkway North,04412,44.8010470,-68.7500176
7,Parkway North,04412,44.8014616,-68.7502561
3,Parkway North,04412,44.8016465,-68.7504197
439,North Main Street,04412,44.8010825,-68.7518319
20,Deer Park Drive,04412,44.8002627,-68.7454249
25,Clover Lane,04412,44.7968245,-68.7457308
31,Clover Lane,04412,44.7965987,-68.7453968
35,Clover Lane,04412,44.7963955,-68.7451195
41,Clover Lane,04412,44.7961520,-68.7449183
47,Clover Lane,04412,44.7958679,-68.7446730
53,Clover Lane,04412,44.7956380,-68.7445286
44,Clover Lane,04412,44.7963444,-68.7444054
38,Clover Lane,04412,44.7966466,-68.7446633
34,Clover Lane,04412,44.7968362,-68.7449090
28,Clover Lane,04412,44.7970033,-68.7451674
24,Clover Lane,04412,44.7971976,-68.7455079
13,Oak Grove Drive,04412,44.7974267,-68.7453236
19,Oak Grove Drive,04412,44.7972775,-68.7450145
23,Oak Grove Drive,04412,44.7970833,-68.7447119
29,Oak Grove Drive,04412,44.7968531,-68.7444474
35,Oak Grove Drive,04412,44.7966456,-68.7442144
39,Oak Grove Drive,04412,44.7964155,-68.7440068
4,Hickory Court,04412,44.7976233,-68.7446653
12,Hickory Court,04412,44.7978842,-68.7445693
3,Hickory Court,04412,44.7973158,-68.7440408
34,Oak Grove Drive,04412,44.7969820,-68.7437072
40,Oak Grove Drive,04412,44.7966755,-68.7435063
28,Deer Park Drive,04412,44.7998435,-68.7451928
36,Deer Park Drive,04412,44.7994471,-68.7450365
48,Oak Grove Drive,04412,44.7962787,-68.7431856
54,Oak Grove Drive,04412,44.7959451,-68.7429722
45,Oak Grove Drive,04412,44.7961947,-68.7438624
51,Oak Grove Drive,04412,44.7959377,-68.7436802
55,Oak Grove Drive,04412,44.7956807,-68.7435044
48,Clover Lane,04412,44.7960874,-68.7442106
54,Clover Lane,04412,44.7958304,-68.7440347
60,Clover Lane,04412,44.7955735,-68.7438588
59,Clover Lane,04412,44.7951514,-68.7443095
60,Oak Grove Drive,04412,44.7956925,-68.7427394
68,Oak Grove Drive,04412,44.7952326,-68.7423938
78,Oak Grove Drive,04412,44.7948675,-68.7421425
84,Oak Grove Drive,04412,44.7945294,-68.7419417
92,Oak Grove Drive,04412,44.7942045,-68.7415702
98,Oak Grove Drive,04412,44.7938393,-68.7413127
106,Oak Grove Drive,04412,44.7935057,-68.7410740
114,Oak Grove Drive,04412,44.7930686,-68.7408420
61,Oak Grove Drive,04412,44.7954192,-68.7433222
67,Oak Grove Drive,04412,44.7950677,-68.7431151
75,Oak Grove Drive,04412,44.7947161,-68.7428954
1,Daisey Lane,04412,44.7943149,-68.7426128
93,Oak Grove Drive,04412,44.7939136,-68.7422985
99,Oak Grove Drive,04412,44.7936025,-68.7420660
105,Oak Grove Drive,04412,44.7931787,-68.7417771
111,Oak Grove Drive,04412,44.7927908,-68.7414375
64,Clover Lane,04412,44.7952985,-68.7436830
68,Clover Lane,04412,44.7950237,-68.7435642
74,Clover Lane,04412,44.7947579,-68.7434768
78,Clover Lane,04412,44.7944921,-68.7433705
11,Daisey Lane,04412,44.7941539,-68.7430939
104,Clover Lane,04412,44.7931623,-68.7424725
118,Clover Lane,04412,44.7926123,-68.7420894
69,Clover Lane,04412,44.7947056,-68.7442103
77,Clover Lane,04412,44.7943091,-68.7440604
83,Clover Lane,04412,44.7939668,-68.7439418
91,Clover Lane,04412,44.7935654,-68.7436149
99,Clover Lane,04412,44.7931868,-68.7433827
107,Clover Lane,04412,44.7928306,-68.7431061
113,Clover Lane,04412,44.7924880,-68.7428611
122,Oak Grove Drive,04412,44.7927707,-68.7404831
130,Oak Grove Drive,04412,44.7923650,-68.7402194
144,Oak Grove Drive,04412,44.7915809,-68.7398310
150,Oak Grove Drive,04412,44.7912564,-68.7396618
222,Eastern Avenue,04412,44.7908320,-68.7391011
156,Oak Grove Drive,04412,44.7908557,-68.7395941
121,Oak Grove Drive,04412,44.7924392,-68.7411988
127,Oak Grove Drive,04412,44.7921371,-68.7409663
135,Oak Grove Drive,04412,44.7918305,-68.7407528
124,Clover Lane,04412,44.7922426,-68.7418318
132,Clover Lane,04412,44.7918548,-68.7415365
121,Clover Lane,04412,44.7921363,-68.7425845
129,Clover Lane,04412,44.7916901,-68.7423400
139,Clover Lane,04412,44.7912971,-68.7417223
143,Clover Lane,04412,44.7912686,-68.7410397
147,Oak Grove Drive,04412,44.7913212,-68.7404516
155,Oak Grove Drive,04412,44.7908977,-68.7402576
196,Eastern Avenue,04412,44.7909132,-68.7411235
190,Eastern Avenue,04412,44.7908287,-68.7415727
273,Parkway South,04412,44.7773707,-68.7691163
267,Parkway South,04412,44.7775548,-68.7688501
263,Parkway South,04412,44.7777389,-68.7686725
103,Grove Street,04412,44.7779412,-68.7685326
35,Park Avenue West,04412,44.7775786,-68.7695262
29,Park Avenue West,04412,44.7778000,-68.7699172
25,Park Avenue West,04412,44.7779265,-68.7701442
19,Park Avenue West,04412,44.7781028,-68.7705163
13,Park Avenue West,04412,44.7782654,-68.7708064
10,Park Avenue West,04412,44.7786389,-68.7707543
18,Park Avenue West,04412,44.7784446,-68.7704139
22,Park Avenue West,04412,44.7783090,-68.7701111
28,Park Avenue West,04412,44.7781688,-68.7697704
32,Park Avenue West,04412,44.7780333,-68.7695497
36,Park Avenue West,04412,44.7778933,-68.7693101
95,Grove Street,04412,44.7781582,-68.7690057
91,Grove Street,04412,44.7782757,-68.7692454
89,Grove Street,04412,44.7783978,-68.7694914
83,Grove Street,04412,44.7785514,-68.7697625
79,Grove Street,04412,44.7786825,-68.7700464
75,Grove Street,04412,44.7787910,-68.7703114
71,Grove Street,04412,44.7788546,-68.7705702
4,Park Avenue West,04412,44.7788459,-68.7707662
9,Park Avenue West,04412,44.7784422,-68.7714313
7,Park Avenue West,04412,44.7786534,-68.7712599
61,Grove Street,04412,44.7788786,-68.7713159
57,Grove Street,04412,44.7789107,-68.7716570
53,Grove Street,04412,44.7789428,-68.7719539
51,Grove Street,04412,44.7790602,-68.7721367
47,Grove Street,04412,44.7791507,-68.7723386
45,Grove Street,04412,44.7792547,-68.7725783
54,Grove Street,04412,44.7793251,-68.7717818
58,Grove Street,04412,44.7792526,-68.7715356
62,Grove Street,04412,44.7792789,-68.7711942
68,Grove Street,04412,44.7792466,-68.7708151
72,Grove Street,04412,44.7792685,-68.7704927
74,Grove Street,04412,44.7791508,-68.7701772
78,Grove Street,04412,44.7790963,-68.7699373
80,Grove Street,04412,44.7789744,-68.7697545
84,Grove Street,04412,44.7788614,-68.7695085
88,Grove Street,04412,44.7787529,-68.7692751
92,Grove Street,04412,44.7786309,-68.7690418
96,Grove Street,04412,44.7785043,-68.7687516
100,Grove Street,04412,44.7783643,-68.7685056
259,Parkway South,04412,44.7782105,-68.7681587
65,Park Avenue East,04412,44.7785972,-68.7679612
61,Park Avenue East,04412,44.7787283,-68.7682072
57,Park Avenue East,04412,44.7788008,-68.7684660
53,Park Avenue East,04412,44.7789588,-68.7686865
47,Park Avenue East,04412,44.7792253,-68.7691658
37,Park Avenue East,04412,44.7794423,-68.7696263
33,Park Avenue East,04412,44.7794970,-68.7699483
27,Park Avenue East,04412,44.7795070,-68.7704602
46,Grove Street,04412,44.7795602,-68.7722927
48,Grove Street,04412,44.7798024,-68.7718936
28,Park Avenue East,04412,44.7799528,-68.7705659
32,Park Avenue East,04412,44.7798841,-68.7699721
36,Park Avenue East,04412,44.7798249,-68.7696500
40,Park Avenue East,04412,44.7797117,-68.7693155
44,Park Avenue East,04412,44.7795805,-68.7689432
52,Park Avenue East,04412,44.7793727,-68.7686027
54,Park Avenue East,04412,44.7792597,-68.7683757
58,Park Avenue East,04412,44.7791557,-68.7681423
62,Park Avenue East,04412,44.7790383,-68.7679531
68,Park Avenue East,04412,44.7788350,-68.7675621
72,Park Avenue East,04412,44.7787400,-68.7673476
224,Parkway South,04412,44.7787402,-68.7652369
10,Sunset Strip,04412,44.7785017,-68.7652947
10,Starlight Drive,04412,44.7785773,-68.7648015
14,Starlight Drive,04412,44.7786797,-68.7643018
20,Starlight Drive,04412,44.7786829,-68.7636635
26,Starlight Drive,04412,44.7785382,-68.7633418
32,Starlight Drive,04412,44.7783620,-68.7629949
38,Starlight Drive,04412,44.7781857,-68.7626544
42,Starlight Drive,04412,44.7780050,-68.7623139
48,Starlight Drive,04412,44.7778287,-68.7619607
47,Starlight Drive,04412,44.7773886,-68.7624807
41,Starlight Drive,04412,44.7775649,-68.7628213
37,Starlight Drive,04412,44.7777412,-68.7631681
31,Starlight Drive,04412,44.7778858,-68.7634645
25,Starlight Drive,04412,44.7780937,-68.7638555
19,Starlight Drive,04412,44.7782700,-68.7642403
26,Sunset Strip,04412,44.7779511,-68.7645576
30,Sunset Strip,04412,44.7777658,-68.7642044
38,Sunset Strip,04412,44.7775625,-68.7638134
42,Sunset Strip,04412,44.7773862,-68.7634539
48,Sunset Strip,04412,44.7772144,-68.7631197
54,Sunset Strip,04412,44.7770472,-68.7627981
60,Birchwood Boulevard,04412,44.7761747,-68.7631240
49,Sunset Strip,04412,44.7768820,-68.7634118
39,Sunset Strip,04412,44.7770627,-68.7637649
37,Sunset Strip,04412,44.7772481,-68.7641433
31,Sunset Strip,04412,44.7774198,-68.7644839
25,Sunset Strip,04412,44.7775915,-68.7648244
19,Sunset Strip,04412,44.7777724,-68.7652282
15,Sunset Strip,04412,44.7779577,-68.7655939
11,Sunset Strip,04412,44.7782869,-68.7658770
3,Sunset Strip,04412,44.7785708,-68.7660654
254,Parkway South,04412,44.7782624,-68.7671157
256,Parkway South,04412,44.7781459,-68.7673564
262,Parkway South,04412,44.7779843,-68.7675782
266,Parkway South,04412,44.7778047,-68.7678064
6,Edgewood Drive,04412,44.7776204,-68.7679146
6,Birchwood Boulevard,04412,44.7772450,-68.7670377
12,Birchwood Boulevard,04412,44.7775054,-68.7667017
16,Birchwood Boulevard,04412,44.7775358,-68.7661644
20,Birchwood Boulevard,04412,44.7773457,-68.7656786
26,Birchwood Boulevard,04412,44.7772101,-68.7653631
30,Birchwood Boulevard,04412,44.7770699,-68.7650541
36,Birchwood Boulevard,04412,44.7769387,-68.7647386
42,Birchwood Boulevard,04412,44.7767625,-68.7644107
46,Birchwood Boulevard,04412,44.7766178,-68.7640827
50,Birchwood Boulevard,04412,44.7764641,-68.7637737
3,Lorraine Avenue,04412,44.7759015,-68.7638139
49,Birchwood Boulevard,04412,44.7761228,-68.7641542
43,Birchwood Boulevard,04412,44.7762855,-68.7644885
39,Birchwood Boulevard,04412,44.7764076,-68.7647408
35,Birchwood Boulevard,04412,44.7765567,-68.7650372
29,Birchwood Boulevard,04412,44.7767331,-68.7654283
23,Birchwood Boulevard,04412,44.7769273,-68.7657561
19,Birchwood Boulevard,04412,44.7770764,-68.7660525
9,Birchwood Boulevard,04412,44.7771627,-68.7664061
28,Edgewood Drive,04412,44.7768572,-68.7667106
34,Edgewood Drive,04412,44.7766540,-68.7663765
38,Edgewood Drive,04412,44.7765094,-68.7661180
44,Edgewood Drive,04412,44.7763512,-68.7657711
48,Edgewood Drive,04412,44.7761794,-68.7654242
52,Edgewood Drive,04412,44.7760393,-68.7651593
56,Edgewood Drive,04412,44.7758856,-68.7648314
62,Edgewood Drive,04412,44.7757365,-68.7645413
66,Edgewood Drive,04412,44.7755648,-68.7642134
72,Edgewood Drive,04412,44.7754156,-68.7639233
69,Edgewood Drive,04412,44.7751330,-68.7643794
61,Edgewood Drive,04412,44.7753816,-68.7648776
57,Edgewood Drive,04412,44.7755351,-68.7651172
53,Edgewood Drive,04412,44.7756663,-68.7654073
47,Edgewood Drive,04412,44.7758335,-68.7657479
43,Edgewood Drive,04412,44.7759782,-68.7660949
35,Edgewood Drive,04412,44.7762176,-68.7664794
31,Edgewood Drive,04412,44.7763667,-68.7667758
27,Edgewood Drive,04412,44.7765249,-68.7670722
23,Edgewood Drive,04412,44.7767054,-68.7673053
17,Edgewood Drive,04412,44.7767825,-68.7675830
278,Parkway South,04412,44.7773151,-68.7683329
284,Parkway South,04412,44.7770500,-68.7685551
152,Eastern Avenue,04412,44.7907229,-68.7445756
158,Eastern Avenue,04412,44.7906857,-68.7440511
164,Eastern Avenue,04412,44.7906983,-68.7436592
293,Washington Street,04412,44.7908101,-68.7433426
287,Washington Street,04412,44.7910853,-68.7435942
95,Longmeadow Drive,04412,44.7911133,-68.7440682
91,Longmeadow Drive,04412,44.7911009,-68.7445234
89,Longmeadow Drive,04412,44.7912187,-68.7448831
85,Longmeadow Drive,04412,44.7914712,-68.7450717
81,Longmeadow Drive,04412,44.7916831,-68.7452288
75,Longmeadow Drive,04412,44.7919986,-68.7454233
71,Longmeadow Drive,04412,44.7921926,-68.7456311
65,Longmeadow Drive,04412,44.7924584,-68.7457437
61,Longmeadow Drive,04412,44.7926478,-68.7459009
53,Longmeadow Drive,04412,44.7931483,-68.7462906
43,Longmeadow Drive,04412,44.7935135,-68.7465482
39,Longmeadow Drive,04412,44.7937975,-68.7467429
33,Longmeadow Drive,04412,44.7940454,-68.7469188
29,Longmeadow Drive,04412,44.7942977,-68.7470315
23,Longmeadow Drive,04412,44.7945368,-68.7472643
19,Longmeadow Drive,04412,44.7948026,-68.7473833
13,Longmeadow Drive,04412,44.7950642,-68.7475971
9,Longmeadow Drive,04412,44.7953567,-68.7475831
187,Washington Street,04412,44.7957434,-68.7473792
179,Washington Street,04412,44.7958703,-68.7477642
12,Longmeadow Drive,04412,44.7951889,-68.7469960
20,Longmeadow Drive,04412,44.7949140,-68.7468644
24,Longmeadow Drive,04412,44.7946840,-68.7466758
30,Longmeadow Drive,04412,44.7944452,-68.7465504
34,Longmeadow Drive,04412,44.7942376,-68.7463111
38,Longmeadow Drive,04412,44.7939808,-68.7461921
44,Longmeadow Drive,04412,44.7937238,-68.7460099
48,Longmeadow Drive,04412,44.7934940,-68.7458656
54,Longmeadow Drive,04412,44.7932099,-68.7456645
58,Longmeadow Drive,04412,44.7930161,-68.7455389
68,Longmeadow Drive,04412,44.7927635,-68.7452872
70,Longmeadow Drive,04412,44.7924931,-68.7451430
74,Longmeadow Drive,04412,44.7922226,-68.7449672
80,Longmeadow Drive,04412,44.7920241,-68.7447721
84,Longmeadow Drive,04412,44.7917807,-68.7446025
96,Longmeadow Drive,04412,44.7915282,-68.7443887
104,Longmeadow Drive,04412,44.7915000,-68.7438768
273,Washington Street,04412,44.7917074,-68.7440150
269,Washington Street,04412,44.7919283,-68.7441847
265,Washington Street,04412,44.7921763,-68.7443606
261,Washington Street,04412,44.7924197,-68.7445302
255,Washington Street,04412,44.7926676,-68.7446998
249,Washington Street,04412,44.7929111,-68.7448694
243,Washington Street,04412,44.7931590,-68.7450389
239,Washington Street,04412,44.7934025,-68.7452149
235,Washington Street,04412,44.7936459,-68.7453845
229,Washington Street,04412,44.7938893,-68.7455478
223,Washington Street,04412,44.7941328,-68.7457237
219,Washington Street,04412,44.7943852,-68.7458932
215,Washington Street,04412,44.7946242,-68.7460629
211,Washington Street,04412,44.7948586,-68.7462325
205,Washington Street,04412,44.7950841,-68.7464338
199,Washington Street,04412,44.7953006,-68.7466415
195,Washington Street,04412,44.7954317,-68.7468811
180,Washington Street,04412,44.7962660,-68.7475918
186,Washington Street,04412,44.7961436,-68.7472131
190,Washington Street,04412,44.7959988,-68.7468723
196,Washington Street,04412,44.7958316,-68.7465633
200,Washington Street,04412,44.7956374,-68.7462860
204,Washington Street,04412,44.7954253,-68.7460151
208,Washington Street,04412,44.7952088,-68.7458264
216,Washington Street,04412,44.7948119,-68.7454868
220,Washington Street,04412,44.7945775,-68.7453298
224,Washington Street,04412,44.7943386,-68.7451665
230,Washington Street,04412,44.7940953,-68.7450411
234,Washington Street,04412,44.7938518,-68.7448589
240,Washington Street,04412,44.7935768,-68.7446515
246,Washington Street,04412,44.7933603,-68.7444565
250,Washington Street,04412,44.7931212,-68.7442363
256,Washington Street,04412,44.7928508,-68.7440795
266,Washington Street,04412,44.7924269,-68.7437021
276,Washington Street,04412,44.7919758,-68.7432995
280,Washington Street,04412,44.7916287,-68.7430609
292,Washington Street,04412,44.7911374,-68.7427533
180,Eastern Avenue,04412,44.7907628,-68.7423125
4,Willow Way,04412,44.7969087,-68.7471781
10,Willow Way,04412,44.7967864,-68.7468057
16,Willow Way,04412,44.7966638,-68.7463574
32,Willow Way,04412,44.7960810,-68.7453548
38,Willow Way,04412,44.7957925,-68.7451601
3,Willow Way,04412,44.7965312,-68.7474389
9,Willow Way,04412,44.7964088,-68.7470349
23,Willow Way,04412,44.7960740,-68.7462715
35,Willow Way,04412,44.7955956,-68.7456793
144,Eastern Avenue,04412,44.7908591,-68.7451249
174,Silk Street,04412,44.7918817,-68.7495452
10,Capri Street,04412,44.7920795,-68.7494432
14,Capri Street,04412,44.7922909,-68.7493791
18,Capri Street,04412,44.7925248,-68.7493212
22,Capri Street,04412,44.7927453,-68.7492760
26,Capri Street,04412,44.7929792,-68.7492181
30,Capri Street,04412,44.7932042,-68.7491665
34,Capri Street,04412,44.7934427,-68.7491402
38,Capri Street,04412,44.7936676,-68.7490760
42,Capri Street,04412,44.7939332,-68.7490812
46,Capri Street,04412,44.7941220,-68.7489792
49,Capri Street,04412,44.7942279,-68.7480179
35,Capri Street,04412,44.7935405,-68.7486025
33,Capri Street,04412,44.7933066,-68.7486541
4,Crescent Street,04412,44.7931176,-68.7486802
8,Crescent Street,04412,44.7930176,-68.7482634
12,Crescent Street,04412,44.7928192,-68.7480809
16,Crescent Street,04412,44.7926028,-68.7479428
20,Crescent Street,04412,44.7924270,-68.7478108
24,Crescent Street,04412,44.7922512,-68.7476789
28,Crescent Street,04412,44.7920528,-68.7475470
32,Crescent Street,04412,44.7918635,-68.7474151
36,Crescent Street,04412,44.7916697,-68.7473084
38,Crescent Street,04412,44.7913904,-68.7472085
212,Silk Street,04412,44.7913132,-68.7469055
198,Silk Street,04412,44.7914412,-68.7478025
29,Crescent Street,04412,44.7917025,-68.7478962
25,Crescent Street,04412,44.7918738,-68.7480282
21,Crescent Street,04412,44.7920992,-68.7481726
17,Crescent Street,04412,44.7923156,-68.7483107
13,Crescent Street,04412,44.7924959,-68.7484300
3,Crescent Street,04412,44.7927397,-68.7487640
17,Capri Street,04412,44.7924832,-68.7488220
11,Capri Street,04412,44.7922402,-68.7488167
7,Capri Street,04412,44.7919883,-68.7489000
3,Capri Street,04412,44.7917454,-68.7489706
184,Silk Street,04412,44.7916368,-68.7487182
188,Silk Street,04412,44.7915777,-68.7484340
194,Silk Street,04412,44.7915049,-68.7481056
213,Silk Street,04412,44.7909436,-68.7466479
209,Silk Street,04412,44.7909534,-68.7470145
205,Silk Street,04412,44.7909587,-68.7473748
201,Silk Street,04412,44.7909819,-68.7477160
197,Silk Street,04412,44.7910096,-68.7480193
193,Silk Street,04412,44.7911497,-68.7482842
189,Silk Street,04412,44.7912088,-68.7485494
185,Silk Street,04412,44.7912634,-68.7488146
181,Silk Street,04412,44.7913045,-68.7490546
177,Silk Street,04412,44.7913998,-68.7494209
173,Silk Street,04412,44.7914453,-68.7496609
90,Eastern Avenue,04412,44.7905800,-68.7491716
96,Eastern Avenue,04412,44.7906196,-68.7487289
102,Eastern Avenue,04412,44.7906050,-68.7482676
106,Eastern Avenue,04412,44.7906225,-68.7480020
110,Eastern Avenue,04412,44.7905857,-68.7476482
116,Eastern Avenue,04412,44.7905353,-68.7472755
122,Eastern Avenue,04412,44.7905434,-68.7468646
126,Eastern Avenue,04412,44.7905787,-68.7465231
134,Eastern Avenue,04412,44.7907171,-68.7460168
140,Eastern Avenue,04412,44.7908060,-68.7455297
66,Birchwood Boulevard,04412,44.7759351,-68.7626447
72,Birchwood Boulevard,04412,44.7757411,-68.7623990
76,Birchwood Boulevard,04412,44.7756010,-68.7621278
80,Birchwood Boulevard,04412,44.7754428,-68.7618252
86,Birchwood Boulevard,04412,44.7752666,-68.7614973
92,Birchwood Boulevard,04412,44.7751489,-68.7612071
96,Birchwood Boulevard,04412,44.7750089,-68.7609486
100,Birchwood Boulevard,04412,44.7747022,-68.7606655
68,Lorraine Avenue,04412,44.7749040,-68.7603360
12,Short Street,04412,44.7733584,-68.7573977
44,Aspen Way,04412,44.7731156,-68.7575125
33,Summit Road,04412,44.7730445,-68.7600720
29,Summit Road,04412,44.7732027,-68.7603684
23,Summit Road,04412,44.7733519,-68.7607090
21,Summit Road,04412,44.7735056,-68.7610116
8,Friar Tuck Lane,04412,44.7736279,-68.7613777
7,Summit Road,04412,44.7739304,-68.7618314
41,Lorraine Avenue,04412,44.7740660,-68.7621152
35,Lorraine Avenue,04412,44.7742017,-68.7624053
31,Lorraine Avenue,04412,44.7743825,-68.7627774
25,Lorraine Avenue,04412,44.7745814,-68.7631747
21,Lorraine Avenue,04412,44.7747396,-68.7634900
17,Lorraine Avenue,04412,44.7748571,-68.7637107
73,Edgewood Drive,04412,44.7750333,-68.7640576
6,Lorraine Avenue,04412,44.7756845,-68.7633282
12,Lorraine Avenue,04412,44.7753648,-68.7632663
20,Lorraine Avenue,04412,44.7750584,-68.7631475
26,Lorraine Avenue,04412,44.7749139,-68.7628827
30,Lorraine Avenue,04412,44.7747332,-68.7625738
36,Lorraine Avenue,04412,44.7746602,-68.7621380
42,Lorraine Avenue,04412,44.7745963,-68.7617086
95,Birchwood Boulevard,04412,44.7746494,-68.7612723
87,Birchwood Boulevard,04412,44.7748709,-68.7616948
81,Birchwood Boulevard,04412,44.7750562,-68.7620922
77,Birchwood Boulevard,04412,44.7752189,-68.7623885
67,Birchwood Boulevard,04412,44.7754494,-68.7628489
4,Summit Road,04412,44.7741950,-68.7613437
14,Summit Road,04412,44.7740052,-68.7610033
20,Summit Road,04412,44.7738380,-68.7607006
26,Summit Road,04412,44.7736483,-68.7603728
53,Lorraine Avenue,04412,44.7742526,-68.7609138
30,Summit Road,04412,44.7735217,-68.7600890
36,Summit Road,04412,44.7733407,-68.7596474
41,Aspen Way,04412,44.7730538,-68.7580815
35,Aspen Way,04412,44.7732478,-68.7582639
17,Aspen Way,04412,44.7737997,-68.7595886
11,Aspen Way,04412,44.7739489,-68.7598913
7,Aspen Way,04412,44.7741293,-68.7600991
3,Aspen Way,04412,44.7742562,-68.7604777
57,Sunset Strip,04412,44.7765883,-68.7628884
61,Sunset Strip,04412,44.7764255,-68.7625352
67,Sunset Strip,04412,44.7762134,-68.7622517
73,Sunset Strip,04412,44.7760416,-68.7619175
79,Sunset Strip,04412,44.7758654,-68.7615707
83,Sunset Strip,04412,44.7756936,-68.7612301
87,Sunset Strip,04412,44.7755353,-68.7608643
95,Sunset Strip,04412,44.7754488,-68.7604033
103,Starlight Drive,04412,44.7753713,-68.7599297
109,Starlight Drive,04412,44.7750822,-68.7594316
60,Sunset Strip,04412,44.7768799,-68.7624133
70,Sunset Strip,04412,44.7765455,-68.7618080
76,Sunset Strip,04412,44.7763782,-68.7614422
82,Sunset Strip,04412,44.7761479,-68.7610955
90,Sunset Strip,04412,44.7759984,-68.7606222
85,Starlight Drive,04412,44.7765074,-68.7607907
73,Starlight Drive,04412,44.7766610,-68.7610618
67,Starlight Drive,04412,44.7768509,-68.7614529
63,Starlight Drive,04412,44.7770451,-68.7617554
57,Starlight Drive,04412,44.7772393,-68.7621085
60,Starlight Drive,04412,44.7776479,-68.7616139
64,Starlight Drive,04412,44.7774717,-68.7612733
70,Starlight Drive,04412,44.7772909,-68.7609202
76,Starlight Drive,04412,44.7770652,-68.7606178
80,Starlight Drive,04412,44.7768530,-68.7603343
84,Starlight Drive,04412,44.7765283,-68.7600197
86,Starlight Drive,04412,44.7762533,-68.7598439
96,Starlight Drive,04412,44.7759876,-68.7597502
100,Starlight Drive,04412,44.7757259,-68.7594795
106,Starlight Drive,04412,44.7755813,-68.7591768
112,Starlight Drive,04412,44.7754140,-68.7588236
120,Starlight Drive,04412,44.7752918,-68.7585271
124,Starlight Drive,04412,44.7751155,-68.7581677
130,Starlight Drive,04412,44.7749213,-68.7578462
134,Starlight Drive,04412,44.7748216,-68.7575496
140,Starlight Drive,04412,44.7747892,-68.7571263
146,Starlight Drive,04412,44.7748108,-68.7566839
152,Starlight Drive,04412,44.7746028,-68.7562361
158,Starlight Drive,04412,44.7744714,-68.7558449
164,Starlight Drive,04412,44.7743446,-68.7554536
170,Starlight Drive,04412,44.7741637,-68.7550815
167,Starlight Drive,04412,44.7738771,-68.7557526
143,Starlight Drive,04412,44.7743121,-68.7571031
25,Country Way,04412,44.7732258,-68.7564252
21,Country Way,04412,44.7734425,-68.7566896
15,Country Way,04412,44.7736233,-68.7570744
117,Starlight Drive,04412,44.7749242,-68.7592048
18,Robin Hood Drive,04412,44.7742865,-68.7686230
22,Robin Hood Drive,04412,44.7741735,-68.7684213
30,Robin Hood Drive,04412,44.7739835,-68.7679607
34,Robin Hood Drive,04412,44.7738750,-68.7676831
38,Robin Hood Drive,04412,44.7737619,-68.7674245
40,Robin Hood Drive,04412,44.7736759,-68.7671847
44,Robin Hood Drive,04412,44.7735628,-68.7669071
58,Robin Hood Drive,04412,44.7730747,-68.7659423
62,Robin Hood Drive,04412,44.7729572,-68.7657342
61,Robin Hood Drive,04412,44.7726475,-68.7661652
57,Robin Hood Drive,04412,44.7727875,-68.7663731
55,Robin Hood Drive,04412,44.7729319,-68.7665684
51,Robin Hood Drive,04412,44.7730539,-68.7667828
47,Robin Hood Drive,04412,44.7731443,-68.7669720
35,Robin Hood Drive,04412,44.7734744,-68.7677163
33,Robin Hood Drive,04412,44.7735694,-68.7679498
29,Robin Hood Drive,04412,44.7736735,-68.7682148
25,Robin Hood Drive,04412,44.7737820,-68.7684734
19,Robin Hood Drive,04412,44.7739267,-68.7688014
6,Alan A Dale Road,04412,44.7734816,-68.7690307
18,Alan A Dale Road,04412,44.7731196,-68.7681032
22,Alan A Dale Road,04412,44.7730111,-68.7678635
26,Alan A Dale Road,04412,44.7729026,-68.7676049
30,Alan A Dale Road,04412,44.7727805,-68.7673463
34,Alan A Dale Road,04412,44.7726630,-68.7671066
38,Alan A Dale Road,04412,44.7725185,-68.7668797
42,Alan A Dale Road,04412,44.7723785,-68.7666528
46,Alan A Dale Road,04412,44.7722340,-68.7664449
45,Alan A Dale Road,04412,44.7717984,-68.7669142
41,Alan A Dale Road,04412,44.7719473,-68.7670969
37,Alan A Dale Road,04412,44.7721234,-68.7673742
33,Alan A Dale Road,04412,44.7722094,-68.7676266
29,Alan A Dale Road,04412,44.7723673,-68.7677903
25,Alan A Dale Road,04412,44.7724803,-68.7680173
21,Alan A Dale Road,04412,44.7726068,-68.7682759
13,Alan A Dale Road,04412,44.7728149,-68.7687869
9,Alan A Dale Road,04412,44.7728784,-68.7690268
5,Alan A Dale Road,04412,44.7730588,-68.7692030
21,Maid Marion Lane,04412,44.7731908,-68.7699039
17,Maid Marion Lane,04412,44.7734741,-68.7697764
13,Maid Marion Lane,04412,44.7737079,-68.7696617
7,Maid Marion Lane,04412,44.7739417,-68.7695470
9,Robin Hood Drive,04412,44.7741846,-68.7694323
348,Parkway South,04412,44.7734256,-68.7702631
93,Pendleton Street,04412,44.7753853,-68.7711401
87,Pendleton Street,04412,44.7755480,-68.7714680
12,Nottingham Way,04412,44.7744882,-68.7682304
22,Nottingham Way,04412,44.7749822,-68.7676724
26,Nottingham Way,04412,44.7754090,-68.7672473
28,Nottingham Way,04412,44.7752642,-68.7668940
34,Nottingham Way,04412,44.7750473,-68.7664841
40,Nottingham Way,04412,44.7748349,-68.7660742
48,Nottingham Way,04412,44.7745910,-68.7656328
56,Nottingham Way,04412,44.7743423,-68.7651030
64,Nottingham Way,04412,44.7740892,-68.7645859
72,Nottingham Way,04412,44.7738584,-68.7640055
11,Friar Tuck Lane,04412,44.7736116,-68.7622055
67,Nottingham Way,04412,44.7735809,-68.7647775
61,Nottingham Way,04412,44.7738070,-68.7652821
53,Nottingham Way,04412,44.7740195,-68.7657047
45,Nottingham Way,04412,44.7742319,-68.7661588
37,Nottingham Way,04412,44.7743993,-68.7665815
31,Nottingham Way,04412,44.7747020,-68.7670985
11,Nottingham Way,04412,44.7742800,-68.7676752
74,Robin Hood Drive,04412,44.7725059,-68.7651231
70,Robin Hood Drive,04412,44.7726279,-68.7653501
66,Robin Hood Drive,04412,44.7728129,-68.7655768
65,Robin Hood Drive,04412,44.7725031,-68.7659762
69,Robin Hood Drive,04412,44.7723495,-68.7656988
50,Alan A Dale Road,04412,44.7720986,-68.7662369
52,Alan A Dale Road,04412,44.7719676,-68.7660226
56,Alan A Dale Road,04412,44.7718366,-68.7658146
59,Alan A Dale Road,04412,44.7713285,-68.7660568
53,Alan A Dale Road,04412,44.7714866,-68.7663468
49,Alan A Dale Road,04412,44.7716402,-68.7666305
30,Maid Marion Lane,04412,44.7725602,-68.7696852
40,Maid Marion Lane,04412,44.7721109,-68.7700914
48,Maid Marion Lane,04412,44.7718007,-68.7702759
20,Greenwood Drive,04412,44.7714442,-68.7698413
26,Greenwood Drive,04412,44.7713085,-68.7695069
30,Greenwood Drive,04412,44.7711232,-68.7691159
36,Greenwood Drive,04412,44.7709695,-68.7688006
42,Greenwood Drive,04412,44.7708067,-68.7684347
46,Greenwood Drive,04412,44.7706530,-68.7681257
50,Greenwood Drive,04412,44.7705084,-68.7678230
53,Greenwood Drive,04412,44.7700359,-68.7679070
43,Greenwood Drive,04412,44.7702621,-68.7684369
39,Greenwood Drive,04412,44.7704926,-68.7689162
33,Greenwood Drive,04412,44.7706463,-68.7692315
27,Greenwood Drive,04412,44.7708000,-68.7695532
21,Greenwood Drive,04412,44.7710214,-68.7700073
15,Greenwood Drive,04412,44.7711796,-68.7703289
11,Greenwood Drive,04412,44.7713333,-68.7706506
5,Greenwood Drive,04412,44.7714960,-68.7709848
4,Greenwood Drive,04412,44.7719413,-68.7707998
41,Maid Marion Lane,04412,44.7722559,-68.7705900
29,Maid Marion Lane,04412,44.7727818,-68.7702025
3,Lynn Avenue,04412,44.7697014,-68.7671754
59,Greenwood Drive,04412,44.7698597,-68.7675918
54,Greenwood Drive,04412,44.7703367,-68.7675014
64,Greenwood Drive,04412,44.7702142,-68.7670217
14,Canterbury Road,04412,44.7727915,-68.7617729
20,Canterbury Road,04412,44.7726603,-68.7614259
24,Canterbury Road,04412,44.7725381,-68.7611420
30,Canterbury Road,04412,44.7723438,-68.7607763
34,Canterbury Road,04412,44.7722081,-68.7604609
40,Canterbury Road,04412,44.7720319,-68.7601394
44,Canterbury Road,04412,44.7718827,-68.7598430
50,Canterbury Road,04412,44.7717561,-68.7595402
58,Canterbury Road,04412,44.7715209,-68.7590357
62,Canterbury Road,04412,44.7714257,-68.7586886
68,Canterbury Road,04412,44.7711593,-68.7583232
72,Canterbury Road,04412,44.7710777,-68.7580076
78,Canterbury Road,04412,44.7709061,-68.7577682
82,Canterbury Road,04412,44.7707300,-68.7574846
88,Canterbury Road,04412,44.7706031,-68.7570807
92,Canterbury Road,04412,44.7704091,-68.7568730
98,Canterbury Road,04412,44.7701287,-68.7562423
102,Canterbury Road,04412,44.7701241,-68.7562107
22,Little John Lane,04412,44.7710979,-68.7655522
35,Rotherdale Road,04412,44.7701757,-68.7636161
43,Rotherdale Road,04412,44.7699406,-68.7631368
47,Rotherdale Road,04412,44.7697869,-68.7628215
53,Rotherdale Road,04412,44.7696646,-68.7624239
57,Rotherdale Road,04412,44.7695334,-68.7621275
63,Rotherdale Road,04412,44.7693662,-68.7617870
67,Rotherdale Road,04412,44.7692125,-68.7614969
73,Rotherdale Road,04412,44.7690543,-68.7611690
77,Rotherdale Road,04412,44.7688557,-68.7609171
85,Rotherdale Road,04412,44.7685844,-68.7603432
62,Rotherdale Road,04412,44.7698382,-68.7615133
66,Rotherdale Road,04412,44.7696530,-68.7612108
72,Rotherdale Road,04412,44.7695263,-68.7608764
76,Rotherdale Road,04412,44.7693546,-68.7605801
12,Locksley Lane,04412,44.7697642,-68.7605784
16,Locksley Lane,04412,44.7700427,-68.7602803
22,Locksley Lane,04412,44.7701996,-68.7599701
26,Locksley Lane,04412,44.7703476,-68.7597041
32,Locksley Lane,04412,44.7705630,-68.7594251
61,Canterbury Road,04412,44.7708731,-68.7591774
86,Rotherdale Road,04412,44.7690428,-68.7600001
9,Locksley Lane,04412,44.7693395,-68.7598156
15,Locksley Lane,04412,44.7695504,-68.7595052
19,Locksley Lane,04412,44.7698020,-68.7592577
25,Locksley Lane,04412,44.7700264,-68.7589787
29,Locksley Lane,04412,44.7702870,-68.7587502
71,Canterbury Road,04412,44.7705656,-68.7585089
79,Canterbury Road,04412,44.7702993,-68.7581625
83,Canterbury Road,04412,44.7701502,-68.7578851
91,Canterbury Road,04412,44.7699240,-68.7573426
95,Canterbury Road,04412,44.7698466,-68.7569638
101,Canterbury Road,04412,44.7696975,-68.7566927
44,Friar Tuck Lane,04412,44.7726247,-68.7638083
36,Friar Tuck Lane,04412,44.7728666,-68.7632702
30,Friar Tuck Lane,04412,44.7729421,-68.7627833
9,Canterbury Road,04412,44.7726039,-68.7624435
11,Canterbury Road,04412,44.7723647,-68.7621790
17,Canterbury Road,04412,44.7721796,-68.7618702
23,Canterbury Road,04412,44.7720304,-68.7615675
29,Canterbury Road,04412,44.7718091,-68.7612335
35,Canterbury Road,04412,44.7717048,-68.7608674
39,Canterbury Road,04412,44.7715376,-68.7605206
45,Canterbury Road,04412,44.7713793,-68.7601800
49,Canterbury Road,04412,44.7712032,-68.7599217
55,Canterbury Road,04412,44.7710764,-68.7595557
8,Lynn Avenue,04412,44.7698484,-68.7664545
14,Lynn Avenue,04412,44.7697038,-68.7661581
52,Lynn Avenue,04412,44.7692761,-68.7639483
58,Lynn Avenue,04412,44.7695636,-68.7636502
59,Lynn Avenue,04412,44.7692066,-68.7629818
55,Lynn Avenue,04412,44.7689283,-68.7633368
17,Lynn Avenue,04412,44.7691320,-68.7660846
9,Lynn Avenue,04412,44.7694756,-68.7668098
44,Rotherdale Road,04412,44.7704033,-68.7626989
50,Rotherdale Road,04412,44.7702631,-68.7623835
56,Rotherdale Road,04412,44.7700009,-68.7618412
197,Robertson Boulevard,04412,44.7894683,-68.7639545
29,Atlantic Avenue,04412,44.7871109,-68.7580986
319,Wilson Street,04412,44.7872919,-68.7564229
6,Glidden Lane,04412,44.7877857,-68.7579251
38,Blake Street,04412,44.7896777,-68.7629613
427,Wilson Street,04412,44.7839203,-68.7521456
11,Vista Way,04412,44.7846065,-68.7543582
365,Wilson Street,04412,44.7855295,-68.7545109
16,Hersey Drive,04412,44.7850925,-68.7550796
347,Wilson Street,04412,44.7861547,-68.7550498
343,Wilson Street,04412,44.7862302,-68.7553826
12,Acme Road,04412,44.7859502,-68.7562389
26,Acme Road,04412,44.7856951,-68.7569226
46,Acme Road,04412,44.7849366,-68.7579939
219,State Street,04412,44.7876439,-68.7547654
5,Parkway South,04412,44.7835581,-68.7511423
15,Parkway South,04412,44.7829109,-68.7516001
429,Wilson Street,04412,44.7837167,-68.7516219
1,Cianbro Square,04412,44.7719871,-68.7827550
575,Wilson Street,04412,44.7790060,-68.7403931
3,Lupine Lane,04412,44.7807702,-68.7344192
15,Rinfret Drive,04412,44.7895584,-68.7451433
22,Rinfret Drive,04412,44.7894348,-68.7442210
26,Rinfret Drive,04412,44.7893311,-68.7441519
29,Rinfret Drive,04412,44.7888372,-68.7446850
31,Rinfret Drive,04412,44.7887380,-68.7446223
41,Rinfret Drive,04412,44.7882103,-68.7441695
43,Rinfret Drive,04412,44.7880797,-68.7441006
42,Rinfret Drive,04412,44.7884835,-68.7435552
44,Rinfret Drive,04412,44.7883618,-68.7434483
58,Rinfret Drive,04412,44.7877397,-68.7430402
60,Rinfret Drive,04412,44.7875819,-68.7429208
61,Rinfret Drive,04412,44.7872412,-68.7435544
65,Rinfret Drive,04412,44.7870428,-68.7433972
15,Lyford Drive,04412,44.7877785,-68.7442725
17,Lyford Drive,04412,44.7881393,-68.7445996
21,Lyford Drive,04412,44.7879196,-68.7450114
29,Lyford Drive,04412,44.7874836,-68.7452725
23,Sleepy People Lane,04412,44.8066955,-68.7377967
480,South Main Street,04412,44.7737587,-68.7794245
482,South Main Street,04412,44.7737183,-68.7795005
451,South Main Street,04412,44.7752935,-68.7793618
412,South Main Street,04412,44.7771846,-68.7773829
6,Knollwood Drive,04412,44.7792305,-68.7740256
8,Knollwood Drive,04412,44.7793391,-68.7742970
12,Knollwood Drive,04412,44.7794980,-68.7750105
16,Knollwood Drive,04412,44.7795700,-68.7749723
7,Knollwood Drive,04412,44.7795594,-68.7741697
3,Knollwood Drive,04412,44.7794193,-68.7738795
24,Union Street,04412,44.7954395,-68.7652830
149,Church Street,04412,44.7950802,-68.7634702
142,North Main Street,04412,44.7961305,-68.7642561
208,Center Street,04412,44.7947948,-68.7604434
11,Hanover Place,04412,44.7907990,-68.7546636
15,Hanover Place,04412,44.7910062,-68.7547448
17,Hanover Place,04412,44.7911595,-68.7548643
16,Hanover Place,04412,44.7907960,-68.7553526
3,Avalon Place,04412,44.7906065,-68.7551574
5,Avalon Place,04412,44.7905802,-68.7554609
7,Avalon Place,04412,44.7905717,-68.7557201
7,Colonial Circle,04412,44.7889740,-68.7516120
15,Colonial Circle,04412,44.7885535,-68.7507795
6,Cutler Place,04412,44.7864695,-68.7487280
5,Cutler Place,04412,44.7866980,-68.7482213
26,Mckinnon Drive,04412,44.7868544,-68.7477024
17,Mckinnon Drive,04412,44.7863185,-68.7476225
25,Mckinnon Drive,04412,44.7867495,-68.7471150
280,State Street,04412,44.7855803,-68.7517087
278,State Street,04412,44.7857062,-68.7516387
276,State Street,04412,44.7858500,-68.7515180
274,State Street,04412,44.7859851,-68.7515743
272,State Street,04412,44.7861383,-68.7516495
270,State Street,04412,44.7863457,-68.7518192
266,State Street,04412,44.7866162,-68.7519761
264,State Street,04412,44.7867335,-68.7521020
262,State Street,04412,44.7868596,-68.7521520
260,State Street,04412,44.7869768,-68.7522400
258,State Street,04412,44.7871076,-68.7523532
385,Wilson Street,04412,44.7832394,-68.7536275
387,Wilson Street,04412,44.7832519,-68.7531913
389,Wilson Street,04412,44.7834268,-68.7528872
421,Wilson Street,04412,44.7838706,-68.7524710
349,Wilson Street,04412,44.7858448,-68.7553987
28,Acme Road,04412,44.7852775,-68.7574047
186,Green Point Road,04412,44.7704207,-68.7456824
353,Eastern Avenue,04412,44.7903582,-68.7289013
19,Bennett Road,04412,44.7830863,-68.7297506
28,Airport Road,04412,44.7665350,-68.7705937
170,Parkway South,04412,44.7792998,-68.7616008
482,Wilson Street,04412,44.7824673,-68.7463500
15,Rudman Road,04412,44.7824457,-68.7427350
2,Rudman Road,04412,44.7815015,-68.7432006
642,North Main Street,04412,44.8075692,-68.7399615
640,Wilson Street,04412,44.7780540,-68.7354933
21,Pierce Road,04412,44.7785206,-68.7348213
33,Pierce Road,04412,44.7789698,-68.7344337
867,North Main Street,04412,44.8157753,-68.7267333
871,North Main Street,04412,44.8158417,-68.7262651
873,North Main Street,04412,44.8161295,-68.7261562
929,North Main Street,04412,44.8175068,-68.7223933
1049,North Main Street,04412,44.8194261,-68.7140362
19,Red Pine Lane,04412,44.8153151,-68.7080997
30,Red Pine Lane,04412,44.8159819,-68.7083303
1134,North Main Street,04412,44.8180121,-68.7084023
28,Industrial Plaza Drive,04412,44.7814425,-68.7638482
30,Industrial Plaza Drive,04412,44.7817130,-68.7640746
45,Robertson Boulevard,04412,44.7815651,-68.7643722
6,Derusha Lane,04412,44.7724674,-68.7796759
21,Mill Street,04412,44.7653008,-68.7792861
592,South Main Street,04412,44.7684345,-68.7821239
12,Stone Street,04412,44.7679348,-68.7820626
483,South Main Street,04412,44.7737327,-68.7799618
16,Chambers Street,04412,44.7740809,-68.7807819
8,Kings Court,04412,44.7735151,-68.7791411
13,Kings Court,04412,44.7732445,-68.7788957
19,Chambers Street,04412,44.7746209,-68.7807104
8,Chambers Court,04412,44.7748363,-68.7803494
439,South Main Street,04412,44.7760398,-68.7789103
27,Elmwood Street,04412,44.7783444,-68.7743261
339,South Main Street,04412,44.7810829,-68.7752255
335,South Main Street,04412,44.7812942,-68.7750920
16,Maple Street,04412,44.7908799,-68.7675075
21,Getchell Street,04412,44.7899174,-68.7678590
13,Getchell Street,04412,44.7900532,-68.7682756
217,South Main Street,04412,44.7868450,-68.7710189
18,Mooring Drive,04412,44.7875219,-68.7718822
22,Mooring Drive,04412,44.7876472,-68.7715088
131,South Main Street,04412,44.7913735,-68.7689657
18,Blake Street,04412,44.7902332,-68.7616759
231,Wilson Street,04412,44.7911366,-68.7610211
92,Fling Street,04412,44.7922060,-68.7644806
88,South Main Street,04412,44.7931609,-68.7669989
10,Ayers Court,04412,44.7938521,-68.7659974
12,North Main Street,04412,44.7950090,-68.7660749
16,North Main Street,04412,44.7950132,-68.7659358
18,North Main Street,04412,44.7950493,-68.7659799
53,North Main Street,04412,44.7950834,-68.7650505
57,North Main Street,04412,44.7950111,-68.7649117
65,Union Street,04412,44.7948984,-68.7648047
49,North Main Street,04412,44.7949351,-68.7651775
37,North Main Street,04412,44.7948501,-68.7654307
100,Union Street,04412,44.7949404,-68.7633696
130,North Main Street,04412,44.7959865,-68.7642314
132,North Main Street,04412,44.7959008,-68.7641811
134,North Main Street,04412,44.7959367,-68.7641241
136,North Main Street,04412,44.7959365,-68.7640293
12,Somerset Street,04412,44.7924417,-68.7598903
21,East Summer Street,04412,44.7947885,-68.7617583
24,East Summer Street,04412,44.7951760,-68.7619273
207,North Main Street,04412,44.7962667,-68.7626309
145,Penobscot Street,04412,44.7973848,-68.7634797
55,Center Street,04412,44.7974467,-68.7629484
89,Center Street,04412,44.7969779,-68.7626153
288,Wilson Street,04412,44.7890591,-68.7577112
153,State Street,04412,44.7910625,-68.7578988
3,Goodridge Lane,04412,44.7937189,-68.7582543
8,Ilya Way,04412,44.7915188,-68.7565631
32,State Street,04412,44.7969154,-68.7607444
32,State Street,04412,44.7968073,-68.7607132
27,Holyoke Street,04412,44.7969998,-68.7602067
30,Holyoke Street,04412,44.7972046,-68.7591185
62,Chamberlain Street,04412,44.7962280,-68.7570428
52,Chamberlain Street,04412,44.7967686,-68.7573060
48,Chamberlain Street,04412,44.7968233,-68.7575966
16,Harlow Street,04412,44.7980875,-68.7573068
2,Chamberlain Street,04412,44.7989694,-68.7593071
14,Chapman Street,04412,44.8002832,-68.7527015
42,Chapman Street,04412,44.7988539,-68.7516139
393,North Main Street,04412,44.7990471,-68.7535223
397,North Main Street,04412,44.7993675,-68.7539065
399,North Main Street,04412,44.7994983,-68.7540261
401,North Main Street,04412,44.7996786,-68.7541581
403,North Main Street,04412,44.7999440,-68.7540432
405,North Main Street,04412,44.8000064,-68.7537964
8,Silk Street,04412,44.7989501,-68.7565762
29,Upland Road,04412,44.7852635,-68.7468371
445,North Main Street,04412,44.8009688,-68.7513203
425,Wilson Street,04412,44.7875163,-68.7572049
341,Wilson Street,04412,44.7862960,-68.7555132
28,Washington Street,04412,44.7952014,-68.7590257
11,Grove Street,04412,44.7800869,-68.7746100
126,Parker Street,04412,44.7918189,-68.7601649
128,Parker Street,04412,44.7917874,-68.7601461
252,State Street,04412,44.7859839,-68.7530849
30,River City Drive,04412,44.7846329,-68.7328087
49,Evergreen Ridge,04412,44.7847240,-68.7332507
43,Evergreen Ridge,04412,44.7844005,-68.7335114
14,Circle Drive,04412,44.7836850,-68.7335779
4,Circle Drive,04412,44.7832826,-68.7328150
11,Lionheart Lane,04412,44.7689591,-68.7566011
485,South Main Street,04412,44.7736609,-68.7800631
457,Wilson Street,04412,44.7822908,-68.7479624
333,Eastern Avenue,04412,44.7902141,-68.7307729
191,Center Street,04412,44.7953733,-68.7615788
293,Dirigo Drive,04412,44.7729432,-68.7346383
8,Castine Lane,04412,44.8083121,-68.7284631
33,Felts Brook Drive,04412,44.7607466,-68.7352880
62,Kings Court,04412,44.7717614,-68.7754070
18,Hanover Place,04412,44.7909672,-68.7554150
79,Lambert Road,04412,44.7924279,-68.7156361
283,Dirigo Drive,04412,44.7727476,-68.7356566
259,Day Road,04412,44.8057683,-68.7046261
15,Machias Way,04412,44.7788304,-68.7423466
164,Wilson Street,04412,44.7940216,-68.7642679
247,Center Street,04412,44.7925862,-68.7597331
359,Wilson Street,04412,44.7856139,-68.7550946
37,Oak Street,04412,44.7744603,-68.7821139
92,Pendleton Street,04412,44.7769113,-68.7701708
531,North Main Street,04412,44.8023675,-68.7445208
531,North Main Street,04412,44.8020918,-68.7445803
318,Wilson Street,04412,44.7880525,-68.7555459
6,State Street,04412,44.7986322,-68.7616848
43,Whiting Hill Road,04412,44.7699175,-68.7278551
235,Lambert Road,04412,44.7942981,-68.7057099
247,Lambert Road,04412,44.7940507,-68.7040648
473,Day Road,04412,44.7944260,-68.7031879
484,Day Road,04412,44.7939436,-68.7024745
495,Day Road,04412,44.7931117,-68.7031458
516,Day Road,04412,44.7922334,-68.7016550
291,Lambert Road,04412,44.7952102,-68.7015334
299,Lambert Road,04412,44.7953922,-68.7010853
303,Lambert Road,04412,44.7954958,-68.7006461
309,Lambert Road,04412,44.7955312,-68.7002124
317,Lambert Road,04412,44.7956335,-68.6996760
339,Lambert Road,04412,44.7960498,-68.6980617
351,Lambert Road,04412,44.7962086,-68.6971294
373,Lambert Road,04412,44.7968033,-68.6956445
379,Lambert Road,04412,44.7970296,-68.6952444
387,Lambert Road,04412,44.7970860,-68.6945918
399,Lambert Road,04412,44.7977167,-68.6940673
405,Lambert Road,04412,44.7980176,-68.6937234
19,Night Road,04412,44.7974620,-68.6925689
34,Night Road,04412,44.7977412,-68.6911472
42,Night Road,04412,44.7975693,-68.6903568
421,Lambert Road,04412,44.7985503,-68.6929340
427,Lambert Road,04412,44.7988445,-68.6925340
435,Lambert Road,04412,44.7991741,-68.6920802
443,Lambert Road,04412,44.7994198,-68.6917342
453,Lambert Road,04412,44.7997869,-68.6912097
463,Lambert Road,04412,44.8001197,-68.6906412
743,Eastern Avenue,04412,44.7806083,-68.7023117
18,Brian Drive,04412,44.7801028,-68.7030506
28,Brian Drive,04412,44.7797832,-68.7035475
38,Brian Drive,04412,44.7793999,-68.7038270
46,Brian Drive,04412,44.7788712,-68.7041079
56,Brian Drive,04412,44.7784156,-68.7044485
66,Brian Drive,04412,44.7779180,-68.7049727
76,Brian Drive,04412,44.7774273,-68.7052793
61,Brian Drive,04412,44.7784989,-68.7055237
55,Brian Drive,04412,44.7789927,-68.7050564
39,Brian Drive,04412,44.7794763,-68.7049212
31,Brian Drive,04412,44.7800644,-68.7044064
17,Brian Drive,04412,44.7805675,-68.7039267
727,Eastern Avenue,04412,44.7810899,-68.7036722
721,Eastern Avenue,04412,44.7813812,-68.7041354
715,Eastern Avenue,04412,44.7817138,-68.7049128
709,Eastern Avenue,04412,44.7820346,-68.7056598
695,Eastern Avenue,04412,44.7823296,-68.7066231
655,Eastern Avenue,04412,44.7833241,-68.7088423
643,Eastern Avenue,04412,44.7834509,-68.7096059
637,Eastern Avenue,04412,44.7840264,-68.7103570
587,Eastern Avenue,04412,44.7850095,-68.7134787
585,Eastern Avenue,04412,44.7854120,-68.7139677
565,Eastern Avenue,04412,44.7859686,-68.7146943
551,Eastern Avenue,04412,44.7863379,-68.7155921
535,Eastern Avenue,04412,44.7864556,-68.7171028
742,Eastern Avenue,04412,44.7812319,-68.7021484
1,Woody Lane,04412,44.7860707,-68.6998267
734,Eastern Avenue,04412,44.7818603,-68.7029906
726,Eastern Avenue,04412,44.7819052,-68.7036293
714,Eastern Avenue,04412,44.7822051,-68.7046416
27,Ruhlin Way,04412,44.7836820,-68.7040154
26,Ruhlin Way,04412,44.7840163,-68.7054112
90,Woodridge Road,04412,44.7877127,-68.7094444
47,Sylvan Drive,04412,44.7870399,-68.7089146
64,Woodridge Road,04412,44.7869106,-68.7081416
46,Woodridge Road,04412,44.7862729,-68.7079854
32,Woodridge Road,04412,44.7856357,-68.7083070
644,Eastern Avenue,04412,44.7846362,-68.7087443
35,Sylvan Drive,04412,44.7862459,-68.7087132
21,Sylvan Drive,04412,44.7855280,-68.7093655
670,Eastern Avenue,04412,44.7839933,-68.7072356
5,Woodridge Road,04412,44.7840613,-68.7080543
17,Woodridge Road,04412,44.7844889,-68.7075953
27,Woodridge Road,04412,44.7851045,-68.7073391
45,Woodridge Road,04412,44.7862004,-68.7068819
65,Woodridge Road,04412,44.7873491,-68.7065922
71,Woodridge Road,04412,44.7877700,-68.7076248
83,Woodridge Road,04412,44.7880155,-68.7084710
93,Woodridge Road,04412,44.7883633,-68.7092563
62,Sylvan Drive,04412,44.7874511,-68.7105573
52,Sylvan Drive,04412,44.7870854,-68.7098262
38,Sylvan Drive,04412,44.7864814,-68.7098366
22,Sylvan Drive,04412,44.7859290,-68.7102682
610,Eastern Avenue,04412,44.7853210,-68.7115552
15,Wintergreen Way,04412,44.7860064,-68.7114102
25,Wintergreen Way,04412,44.7866242,-68.7113115
37,Wintergreen Way,04412,44.7873366,-68.7115768
47,Wintergreen Way,04412,44.7878578,-68.7120719
59,Wintergreen Way,04412,44.7884026,-68.7119840
67,Wintergreen Way,04412,44.7888010,-68.7122976
75,Wintergreen Way,04412,44.7891660,-68.7126852
83,Wintergreen Way,04412,44.7897401,-68.7126672
91,Wintergreen Way,04412,44.7902868,-68.7136692
84,Wintergreen Way,04412,44.7892109,-68.7135659
70,Wintergreen Way,04412,44.7887848,-68.7133956
60,Wintergreen Way,04412,44.7882948,-68.7133017
54,Wintergreen Way,04412,44.7878348,-68.7130378
46,Wintergreen Way,04412,44.7873496,-68.7128304
34,Wintergreen Way,04412,44.7869362,-68.7124345
24,Wintergreen Way,04412,44.7863949,-68.7122214
534,Eastern Avenue,04412,44.7873934,-68.7163781
524,Eastern Avenue,04412,44.7875348,-68.7170502
490,Eastern Avenue,04412,44.7884636,-68.7193270
43,Lambert Road,04412,44.7902797,-68.7176688
75,Lambert Road,04412,44.7916784,-68.7161436
109,Lambert Road,04412,44.7931865,-68.7148561
121,Lambert Road,04412,44.7932412,-68.7141786
159,Lambert Road,04412,44.7934627,-68.7116011
161,Lambert Road,04412,44.7919365,-68.7082455
128,Pierce Road,04412,44.7842383,-68.7316251
435,Wilson Street,04412,44.7830992,-68.7501599
611,Wilson Street,04412,44.7777647,-68.7379607
521,Wilson Street,04412,44.7804941,-68.7439038
12,Bartlett Street,04412,44.7800942,-68.7443181
511,Wilson Street,04412,44.7808219,-68.7445429
525,Wilson Street,04412,44.7801564,-68.7435751
557,Wilson Street,04412,44.7793240,-68.7414974
473,Wilson Street,04412,44.7818297,-68.7473461
471,Wilson Street,04412,44.7818099,-68.7469685
470,Wilson Street,04412,44.7826762,-68.7469340
546,Wilson Street,04412,44.7806606,-68.7419684
271,State Street,04412,44.7852592,-68.7530761
366,Wilson Street,04412,44.7855931,-68.7533921
234,State Street,04412,44.7872089,-68.7534573
299,Chamberlain Street,04412,44.7847399,-68.7512226
284,State Street,04412,44.7850453,-68.7518805
15,Arista Drive,04412,44.7744898,-68.7249891
20,Country Way,04412,44.7738989,-68.7565077
26,Country Way,04412,44.7736642,-68.7560720
3,Calvin Court,04412,44.7733874,-68.7553403
161,Starlight Drive,04412,44.7740974,-68.7562432
149,Starlight Drive,04412,44.7741983,-68.7566768
26,Aspen Way,04412,44.7738733,-68.7586229
32,Aspen Way,04412,44.7736972,-68.7581725
36,Aspen Way,04412,44.7735806,-68.7579190
18,Aspen Way,04412,44.7741641,-68.7591106
14,Aspen Way,04412,44.7743111,-68.7593318
10,Aspen Way,04412,44.7744260,-68.7597344
4,Aspen Way,04412,44.7745793,-68.7599345
1,Country Way,04412,44.7740957,-68.7579044
3,Short Street,04412,44.7739310,-68.7575504
131,Starlight Drive,04412,44.7744046,-68.7580673
127,Starlight Drive,04412,44.7745911,-68.7584268
121,Starlight Drive,04412,44.7747279,-68.7588077
24,Walton Drive,04412,44.7742737,-68.7322633
534,Wilson Street,04412,44.7811213,-68.7425098
5,Walton Drive,04412,44.7762790,-68.7343562
685,Wilson Street,04412,44.7758628,-68.7333231
735,Wilson Street,04412,44.7741828,-68.7303010
5,Schilling Drive,04412,44.7766769,-68.7325795
17,Schilling Drive,04412,44.7762920,-68.7319515
150,South Main Street,04412,44.7901166,-68.7690506
425,South Main Street,04412,44.7766797,-68.7787257
27,Event Center Way,04412,44.7819240,-68.7664136
7,Garden Drive,04412,44.7911887,-68.7617722
444,South Main Street,04412,44.7756895,-68.7786660
12,Tibbetts Street,04412,44.7756970,-68.7779295
446,South Main Street,04412,44.7755290,-68.7786545
10,Tibbetts Street,04412,44.7758090,-68.7781760
440,South Main Street,04412,44.7759655,-68.7784205
16,Skyview Avenue,04412,44.7755840,-68.7734645
18,Skyview Avenue,04412,44.7753035,-68.7737295
12,Skyview Avenue,04412,44.7758675,-68.7732200
23,Skyview Avenue,04412,44.7754740,-68.7741420
75,Robin Hood Drive,04412,44.7720960,-68.7653620
13,Little John Lane,04412,44.7717520,-68.7655610
78,Robin Hood Drive,04412,44.7723575,-68.7649070
16,Little John Lane,04412,44.7713730,-68.7652340
446,Lambert Road,04412,44.7999256,-68.6921078
564,Wilson Street,04412,44.7803642,-68.7400398
541,Wilson Street,04412,44.7796551,-68.7426212
85,Parkway North,04412,44.7974671,-68.7488774
93,Parkway North,04412,44.7971664,-68.7490108
97,Parkway North,04412,44.7969336,-68.7491302
156,Washington Street,04412,44.7966372,-68.7493462
152,Washington Street,04412,44.7967438,-68.7496834
148,Washington Street,04412,44.7967995,-68.7500019
144,Washington Street,04412,44.7968542,-68.7503004
140,Washington Street,04412,44.7969113,-68.7505759
136,Washington Street,04412,44.7969727,-68.7508414
132,Washington Street,04412,44.7970274,-68.7511204
30,Floyd Street,04412,44.7971040,-68.7514631
122,Washington Street,04412,44.7971312,-68.7519908
21,Floyd Street,04412,44.7973714,-68.7520223
26,Floyd Street,04412,44.7973729,-68.7514537
22,Floyd Street,04412,44.7975889,-68.7515704
17,Floyd Street,04412,44.7975651,-68.7521437
15,Floyd Street,04412,44.7977382,-68.7522677
42,Madison Avenue,04412,44.7943793,-68.7507552
43,Lincoln Street,04412,44.7946746,-68.7506544
68,Capri Street,04412,44.7953214,-68.7486359
64,Capri Street,04412,44.7950802,-68.7487517
51,Lincoln Street,04412,44.7945665,-68.7500723
137,Silk Street,04412,44.7924374,-68.7523276
144,Parkway North,04412,44.7942146,-68.7495714
140,Parkway North,04412,44.7944616,-68.7495114
52,Capri Street,04412,44.7944046,-68.7489313
200,Wilson Street,04412,44.7926469,-68.7622353
139,Union Street,04412,44.7927690,-68.7620402
196,Wilson Street,04412,44.7927837,-68.7624584
137,Union Street,04412,44.7928486,-68.7621138
133,Union Street,04412,44.7929979,-68.7622372
192,Wilson Street,04412,44.7929487,-68.7626328
188,Wilson Street,04412,44.7930573,-68.7627424
131,Union Street,04412,44.7931451,-68.7623447
186,Wilson Street,04412,44.7931988,-68.7629185
127,Union Street,04412,44.7933789,-68.7625529
123,Union Street,04412,44.7934911,-68.7626750
182,Wilson Street,04412,44.7933577,-68.7631088
121,Union Street,04412,44.7936351,-68.7627123
119,Union Street,04412,44.7937597,-68.7628080
117,Union Street,04412,44.7938452,-68.7628800
11,Summer Street,04412,44.7939855,-68.7630046
9,Summer Street,04412,44.7938397,-68.7631273
80,North Main Street,04412,44.7956875,-68.7651616
14,Parkway South,04412,44.7827734,-68.7505225
304,North Main Street,04412,44.7977628,-68.7607369
21,Holyoke Street,04412,44.7972315,-68.7602331
319,North Main Street,04412,44.7978729,-68.7594076
321,North Main Street,04412,44.7979353,-68.7592198
20,Chamberlain Street,04412,44.7982291,-68.7586840
19,Chamberlain Street,04412,44.7980676,-68.7590436
25,Chamberlain Street,04412,44.7978378,-68.7588834
29,Chamberlain Street,04412,44.7976235,-68.7588795
24,Chamberlain Street,04412,44.7980036,-68.7585143
30,Chamberlain Street,04412,44.7977476,-68.7583096
36,Chamberlain Street,04412,44.7974001,-68.7581621
35,Chamberlain Street,04412,44.7973242,-68.7584861
40,Chamberlain Street,04412,44.7972431,-68.7580062
42,Chamberlain Street,04412,44.7971127,-68.7578712
39,Chamberlain Street,04412,44.7970738,-68.7584828
45,Chamberlain Street,04412,44.7968778,-68.7582988
47,Chamberlain Street,04412,44.7967305,-68.7581901
50,Chamberlain Street,04412,44.7966667,-68.7576123
54,Chamberlain Street,04412,44.7965246,-68.7575267
51,Chamberlain Street,04412,44.7965140,-68.7579765
35,Church Street,04412,44.7959508,-68.7654218
40,South Main Street,04412,44.7938925,-68.7663631
55,South Main Street,04412,44.7941048,-68.7670641
5,South Main Street,04412,44.7945981,-68.7675158
20,South Main Street,04412,44.7941867,-68.7660096
87,South Main Street,04412,44.7935966,-68.7681347
77,South Main Street,04412,44.7941559,-68.7678609
75,South Main Street,04412,44.7939549,-68.7673814
100,South Main Street,04412,44.7925250,-68.7673141
103,South Main Street,04412,44.7925357,-68.7682499
115,South Main Street,04412,44.7920093,-68.7682897
125,South Main Street,04412,44.7917084,-68.7687315
61,State Street,04412,44.7953691,-68.7604974
"48,50,52,54,56,58,60,62,64,66,68",Atlantic Avenue,04412,44.7875133,-68.7609299
12,Stevens Road,04412,44.7868299,-68.7618284
155,Robertson Boulevard,04412,44.7871904,-68.7632586
22,Atlantic Avenue,04412,44.7863138,-68.7584970
43,Acme Road,04412,44.7858088,-68.7585810
41,Acme Road,04412,44.7855522,-68.7582887
49,Acme Road,04412,44.7852535,-68.7587585
15,Acme Road,04412,44.7866135,-68.7570690
329,Wilson Street,04412,44.7868639,-68.7561055
23,Tremont Street,04412,44.7843514,-68.7488019
31,Tremont Street,04412,44.7840185,-68.7482873
27,Tremont Street,04412,44.7842381,-68.7486138
3,Upland Road,04412,44.7846354,-68.7483788
28,Tremont Street,04412,44.7844684,-68.7481576
4,Tremont Street,04412,44.7852354,-68.7492296
11,Beacon Street,04412,44.7853469,-68.7489270
17,Beacon Street,04412,44.7854385,-68.7485830
39,Maple Street,04412,44.7899089,-68.7660967
35,Maple Street,04412,44.7900565,-68.7663697
395,South Main Street,04412,44.7783661,-68.7774835
385,South Main Street,04412,44.7786862,-68.7771365
383,South Main Street,04412,44.7787837,-68.7770671
24,Burr Street,04412,44.7893038,-68.7678325
20,Burr Street,04412,44.7894530,-68.7679896
18,Burr Street,04412,44.7895728,-68.7680729
8,Burr Street,04412,44.7899190,-68.7686849
146,South Main Street,04412,44.7903056,-68.7688359
10,Burr Street,04412,44.7897897,-68.7685501
14,Burr Street,04412,44.7896439,-68.7683697
18,Lincoln Street,04412,44.7951471,-68.7527715
35,School Street,04412,44.7918985,-68.7653214
33,School Street,04412,44.7919581,-68.7654835
29,School Street,04412,44.7921074,-68.7658402
13,School Street,04412,44.7924634,-68.7667105
17,School Street,04412,44.7923732,-68.7663950
23,School Street,04412,44.7921884,-68.7662476
21,School Street,04412,44.7922624,-68.7661951
27,School Street,04412,44.7921753,-68.7660162
10,Alan A Dale Road,04412,44.7733437,-68.7687139
14,Alan A Dale Road,04412,44.7732143,-68.7683844
56,Robin Hood Drive,04412,44.7732250,-68.7661868
48,Robin Hood Drive,04412,44.7734620,-68.7666662
52,Robin Hood Drive,04412,44.7733358,-68.7664155
39,Robin Hood Drive,04412,44.7733665,-68.7674492
43,Robin Hood Drive,04412,44.7732683,-68.7672171
6,Canterbury Road,04412,44.7730582,-68.7620553
12,Friar Tuck Lane,04412,44.7732855,-68.7617560
17,Friar Tuck Lane,04412,44.7734641,-68.7625279
80,Nottingham Way,04412,44.7734533,-68.7637481
21,Friar Tuck Lane,04412,44.7733825,-68.7628634
29,Friar Tuck Lane,04412,44.7733245,-68.7632607
77,Nottingham Way,04412,44.7731943,-68.7643859
247,Elm Street,04412,44.7671775,-68.7644985
250,Elm Street,04412,44.7676794,-68.7642367
20,Lynn Avenue,04412,44.7695192,-68.7657757
26,Lynn Avenue,04412,44.7693419,-68.7654204
32,Lynn Avenue,04412,44.7691353,-68.7649177
31,Lynn Avenue,04412,44.7687661,-68.7653028
25,Lynn Avenue,04412,44.7689822,-68.7657228
11,Rotherdale Road,04412,44.7710880,-68.7650766
15,Rotherdale Road,04412,44.7708552,-68.7648314
34,Rotherdale Road,04412,44.7706926,-68.7633029
30,Rotherdale Road,04412,44.7708633,-68.7636528
31,Rotherdale Road,04412,44.7703154,-68.7638917
25,Rotherdale Road,04412,44.7704989,-68.7642280
21,Rotherdale Road,04412,44.7706636,-68.7645392
24,Rotherdale Road,04412,44.7710279,-68.7639586
55,Baker Boulevard,04412,44.7851932,-68.7673579
6,Baker Boulevard,04412,44.7855178,-68.7652117
7,Baker Boulevard,04412,44.7865880,-68.7645577
173,Robertson Boulevard,04412,44.7880588,-68.7642505
183,Robertson Boulevard,04412,44.7885669,-68.7639860
184,Robertson Boulevard,04412,44.7886910,-68.7647564
170,Robertson Boulevard,04412,44.7882852,-68.7653504
79,Robertson Boulevard,04412,44.7834663,-68.7634406
48,Stevens Road,04412,44.7846042,-68.7610547
56,Stevens Road,04412,44.7841825,-68.7611833
64,Stevens Road,04412,44.7839235,-68.7612881
381,North Main Street,04412,44.7997594,-68.7553616
379,North Main Street,04412,44.7997008,-68.7555215
386,North Main Street,04412,44.8001649,-68.7556428
378,North Main Street,04412,44.8000566,-68.7559249
20,Allen Road,04412,44.8004894,-68.7568142
16,Allen Road,04412,44.8003211,-68.7571346
14,Allen Road,04412,44.8001508,-68.7572543
10,Allen Road,04412,44.7999018,-68.7570642
11,Allen Road,04412,44.8001021,-68.7565689
374,North Main Street,04412,44.7998549,-68.7563774
361,North Main Street,04412,44.7991366,-68.7567724
365,North Main Street,04412,44.7992771,-68.7565202
377,North Main Street,04412,44.7996050,-68.7557361
375,North Main Street,04412,44.7995260,-68.7559217
369,North Main Street,04412,44.7994394,-68.7561014
154,Chamberlain Street,04412,44.7917311,-68.7541292
156,Chamberlain Street,04412,44.7915414,-68.7540795
168,Chamberlain Street,04412,44.7910780,-68.7536535
164,Chamberlain Street,04412,44.7912667,-68.7537914
46,Whitney Court,04412,44.7878344,-68.7403529
58,Whitney Court,04412,44.7873952,-68.7412748
50,Whitney Court,04412,44.7876651,-68.7408516
207,Wiswell Road,04412,44.7590587,-68.7368220
219,Wiswell Road,04412,44.7584325,-68.7359769
217,Wiswell Road,04412,44.7586194,-68.7360243
9,Maple Street,04412,44.7907654,-68.7681214
13,Maple Street,04412,44.7906930,-68.7678554
928,North Main Street,04412,44.8176984,-68.7230933
924,North Main Street,04412,44.8175806,-68.7233751
100,Washington Street,04412,44.7976408,-68.7535632
266,Center Street,04412,44.7916502,-68.7579885
263,Center Street,04412,44.7916610,-68.7593698
5,Somerset Street,04412,44.7920144,-68.7596814
149,State Street,04412,44.7911061,-68.7573540
212,Wilson Street,04412,44.7923091,-68.7615508
139,Parker Street,04412,44.7910898,-68.7600652
145,Parker Street,04412,44.7907826,-68.7598453
135,Parker Street,04412,44.7912668,-68.7601908
133,Parker Street,04412,44.7914015,-68.7602496
131,Parker Street,04412,44.7914792,-68.7603453
127,Parker Street,04412,44.7916623,-68.7605058
123,Parker Street,04412,44.7919235,-68.7606288
121,Parker Street,04412,44.7919964,-68.7607239
119,Parker Street,04412,44.7921638,-68.7608443
113,Parker Street,04412,44.7922641,-68.7609401
111,Parker Street,04412,44.7923782,-68.7610318
107,Parker Street,04412,44.7926492,-68.7611624
97,Parker Street,04412,44.7927702,-68.7613048
136,Parker Street,04412,44.7913595,-68.7598182
134,Parker Street,04412,44.7915072,-68.7598856
132,Parker Street,04412,44.7916219,-68.7599648
110,Parker Street,04412,44.7926679,-68.7606024
104,Parker Street,04412,44.7929357,-68.7608326
245,Center Street,04412,44.7926889,-68.7598082
250,Center Street,04412,44.7927056,-68.7593279
22,Somerset Street,04412,44.7927667,-68.7591415
111,State Street,04412,44.7929231,-68.7585998
29,Somerset Street,04412,44.7926253,-68.7583380
23,Somerset Street,04412,44.7924881,-68.7588704
21,Somerset Street,04412,44.7924110,-68.7590788
256,Center Street,04412,44.7922602,-68.7590339
258,Center Street,04412,44.7921340,-68.7589351
262,Center Street,04412,44.7920169,-68.7588599
264,Center Street,04412,44.7919126,-68.7587966
232,Wilson Street,04412,44.7911785,-68.7605229
230,Wilson Street,04412,44.7913363,-68.7607265
228,Wilson Street,04412,44.7914431,-68.7608077
224,Wilson Street,04412,44.7916140,-68.7610318
220,Wilson Street,04412,44.7918184,-68.7612651
218,Wilson Street,04412,44.7918931,-68.7613791
146,Parker Street,04412,44.7909607,-68.7594931
150,Parker Street,04412,44.7907076,-68.7593481
154,Parker Street,04412,44.7905794,-68.7592671
152,Parker Street,04412,44.7906222,-68.7589040
164,Parker Street,04412,44.7902987,-68.7589787
166,Parker Street,04412,44.7901421,-68.7589916
178,Parker Street,04412,44.7900111,-68.7588855
270,Wilson Street,04412,44.7897675,-68.7586199
10,Highland Street,04412,44.7899444,-68.7581855
16,Highland Street,04412,44.7900343,-68.7578372
20,Highland Street,04412,44.7901353,-68.7576292
19,Highland Street,04412,44.7898875,-68.7573422
15,Highland Street,04412,44.7898056,-68.7575174
11,Highland Street,04412,44.7896837,-68.7577900
7,Highland Street,04412,44.7895920,-68.7580705
276,Wilson Street,04412,44.7894988,-68.7583943
278,Wilson Street,04412,44.7894016,-68.7582856
282,Wilson Street,04412,44.7892805,-68.7581824
293,Wilson Street,04412,44.7882944,-68.7576876
291,Wilson Street,04412,44.7884454,-68.7579174
289,Wilson Street,04412,44.7886503,-68.7580679
287,Wilson Street,04412,44.7887730,-68.7581511
285,Wilson Street,04412,44.7888288,-68.7583641
283,Wilson Street,04412,44.7889950,-68.7585311
281,Wilson Street,04412,44.7890949,-68.7586845
275,Wilson Street,04412,44.7892468,-68.7588124
315,Wilson Street,04412,44.7874796,-68.7565708
311,Wilson Street,04412,44.7876402,-68.7567571
305,Wilson Street,04412,44.7878163,-68.7569855
303,Wilson Street,04412,44.7880523,-68.7572800
5,Glidden Lane,04412,44.7880781,-68.7579455
8,Glidden Lane,04412,44.7877092,-68.7584934
359,Wilson Street,04412,44.7857650,-68.7550617
610,North Main Street,04412,44.8083700,-68.7440436
241,Center Street,04412,44.7928300,-68.7599663
231,Center Street,04412,44.7932851,-68.7602054
229,Center Street,04412,44.7934048,-68.7603083
227,Center Street,04412,44.7935387,-68.7603915
225,Center Street,04412,44.7936569,-68.7604910
98,Parker Street,04412,44.7933641,-68.7606494
219,Center Street,04412,44.7939646,-68.7606799
217,Center Street,04412,44.7940648,-68.7608182
211,Center Street,04412,44.7943295,-68.7609422
134,Union Street,04412,44.7930949,-68.7618589
132,Union Street,04412,44.7932087,-68.7619914
130,Union Street,04412,44.7933486,-68.7620687
128,Union Street,04412,44.7934560,-68.7621594
85,Parker Street,04412,44.7937196,-68.7618512
83,Parker Street,04412,44.7938396,-68.7619514
81,Parker Street,04412,44.7939588,-68.7620541
79,Parker Street,04412,44.7940890,-68.7621146
73,Parker Street,04412,44.7943455,-68.7622868
67,Parker Street,04412,44.7946685,-68.7624931
71,Parker Street,04412,44.7944406,-68.7623810
11,Family Center Lane,04412,44.7946080,-68.7619440
12,Family Center Lane,04412,44.7942877,-68.7616129
114,Union Street,04412,44.7941216,-68.7626631
116,Union Street,04412,44.7939828,-68.7625269
118,Union Street,04412,44.7938423,-68.7624718
124,Union Street,04412,44.7936737,-68.7623468
126,Union Street,04412,44.7935286,-68.7622187
178,Wilson Street,04412,44.7936454,-68.7633412
89,Parker Street,04412,44.7934729,-68.7616431
235,Center Street,04412,44.7930559,-68.7602612
990,Wilson Street,04412,44.7681494,-68.7130002
972,Wilson Street,04412,44.7686178,-68.7140650
1,Pine Hill Drive,04412,44.7594045,-68.7655076
23,Pine Hill Drive,04412,44.7587523,-68.7692519
94,Mill Street,04412,44.7625882,-68.7751933
93,Mill Street,04412,44.7624603,-68.7758376
97,Mill Street,04412,44.7622029,-68.7757256
100,Mill Street,04412,44.7622383,-68.7751350
108,Mill Street,04412,44.7618784,-68.7743375
140,Brewer Lake Road,04412,44.7610505,-68.7737682
126,Mill Street,04412,44.7611096,-68.7740413
150,Brewer Lake Road,04412,44.7606089,-68.7734731
27,Rider Road,04412,44.7740021,-68.7716475
23,Rider Road,04412,44.7742006,-68.7715293
21,Rider Road,04412,44.7743852,-68.7714814
17,Rider Road,04412,44.7745727,-68.7713614
18,Rider Road,04412,44.7744861,-68.7708896
22,Rider Road,04412,44.7742595,-68.7709952
26,Rider Road,04412,44.7739780,-68.7711091
30,Rider Road,04412,44.7737478,-68.7712030
345,Parkway South,04412,44.7736338,-68.7707210
341,Parkway South,04412,44.7738714,-68.7706222
335,Parkway South,04412,44.7741479,-68.7705079
333,Parkway South,04412,44.7744235,-68.7704015
329,Parkway South,04412,44.7746431,-68.7703151
12,Rider Road,04412,44.7747201,-68.7707826
8,Rider Road,04412,44.7749484,-68.7706505
7,Rider Road,04412,44.7750220,-68.7711373
103,Pendleton Street,04412,44.7751453,-68.7705373
323,Parkway South,04412,44.7748981,-68.7701902
322,Parkway South,04412,44.7747301,-68.7696387
6,Robin Hood Drive,04412,44.7746103,-68.7694427
10,Robin Hood Drive,04412,44.7745127,-68.7691392
3,Robin Hood Drive,04412,44.7743315,-68.7697907
334,Parkway South,04412,44.7740931,-68.7699376
340,Parkway South,04412,44.7738399,-68.7700672
344,Parkway South,04412,44.7735977,-68.7701753
198,Elm Street,04412,44.7677479,-68.7683296
204,Elm Street,04412,44.7676220,-68.7677854
210,Elm Street,04412,44.7677183,-68.7671795
216,Elm Street,04412,44.7678028,-68.7667474
226,Elm Street,04412,44.7676044,-68.7663081
236,Elm Street,04412,44.7677539,-68.7653085
240,Elm Street,04412,44.7676821,-68.7650409
249,Elm Street,04412,44.7670516,-68.7638523
267,Elm Street,04412,44.7672191,-68.7629245
275,Elm Street,04412,44.7668951,-68.7621558
289,Elm Street,04412,44.7671041,-68.7609452
330,Elm Street,04412,44.7678864,-68.7585854
334,Elm Street,04412,44.7678562,-68.7579793
339,Elm Street,04412,44.7673573,-68.7578070
343,Elm Street,04412,44.7673604,-68.7574040
344,Elm Street,04412,44.7683131,-68.7573772
358,Elm Street,04412,44.7676904,-68.7562230
380,Elm Street,04412,44.7671140,-68.7547321
386,Elm Street,04412,44.7668832,-68.7542689
429,Elm Street,04412,44.7653336,-68.7516932
440,Elm Street,04412,44.7654716,-68.7506245
300,Green Point Road,04412,44.7650659,-68.7495483
449,Elm Street,04412,44.7648076,-68.7504145
31,Wiswell Road,04412,44.7636734,-68.7485225
49,Wiswell Road,04412,44.7632653,-68.7469158
48,Wiswell Road,04412,44.7638057,-68.7469059
67,Wiswell Road,04412,44.7615799,-68.7467645
93,Wiswell Road,04412,44.7621803,-68.7442619
104,Wiswell Road,04412,44.7622667,-68.7432647
120,Wiswell Road,04412,44.7619187,-68.7421064
173,Wiswell Road,04412,44.7599800,-68.7389260
181,Wiswell Road,04412,44.7597611,-68.7384200
193,Wiswell Road,04412,44.7592257,-68.7378212
203,Wiswell Road,04412,44.7590845,-68.7372539
199,Wiswell Road,04412,44.7580040,-68.7390071
216,Wiswell Road,04412,44.7593244,-68.7356372
230,Wiswell Road,04412,44.7587810,-68.7348138
234,Wiswell Road,04412,44.7588842,-68.7343948
244,Wiswell Road,04412,44.7586244,-68.7338780
231,Wiswell Road,04412,44.7582449,-68.7350890
254,Wiswell Road,04412,44.7581478,-68.7332179
264,Wiswell Road,04412,44.7578996,-68.7326015
272,Wiswell Road,04412,44.7577457,-68.7319313
280,Wiswell Road,04412,44.7574729,-68.7316032
10,Carroll Court,04412,44.7574629,-68.7308206
296,Wiswell Road,04412,44.7571362,-68.7304595
17,Carroll Court,04412,44.7576313,-68.7298710
31,Carroll Court,04412,44.7585146,-68.7295654
34,Carroll Court,04412,44.7587759,-68.7306925
54,Carroll Court,04412,44.7596452,-68.7298329
55,Carroll Court,04412,44.7595306,-68.7284490
52,Pine Tree Road,04412,44.7589027,-68.7280881
62,Pine Tree Road,04412,44.7593638,-68.7274206
71,Pine Tree Road,04412,44.7593559,-68.7259997
81,Pine Tree Road,04412,44.7599439,-68.7256034
74,Pine Tree Road,04412,44.7599382,-68.7267829
32,Pine Tree Road,04412,44.7579755,-68.7285813
20,Pine Tree Road,04412,44.7573457,-68.7289090
21,Pine Tree Road,04412,44.7569092,-68.7281019
312,Wiswell Road,04412,44.7565453,-68.7293970
326,Wiswell Road,04412,44.7562389,-68.7285390
309,Wiswell Road,04412,44.7560967,-68.7295718
319,Wiswell Road,04412,44.7559136,-68.7291975
337,Wiswell Road,04412,44.7553432,-68.7280033
342,Wiswell Road,04412,44.7557566,-68.7273545
345,Wiswell Road,04412,44.7550663,-68.7276942
352,Wiswell Road,04412,44.7555284,-68.7267909
372,Wiswell Road,04412,44.7548937,-68.7253785
365,Wiswell Road,04412,44.7544294,-68.7264243
383,Wiswell Road,04412,44.7540899,-68.7251195
546,South Main Street,04412,44.7702746,-68.7799109
534,South Main Street,04412,44.7707912,-68.7798899
540,South Main Street,04412,44.7705562,-68.7798381
14,South Brewer Drive,04412,44.7707559,-68.7793016
10,South Brewer Drive,04412,44.7704157,-68.7794396
443,Day Road,04412,44.7959929,-68.7039465
430,Day Road,04412,44.7968669,-68.7028406
431,Day Road,04412,44.7967194,-68.7036295
141,Parkway North,04412,44.7943628,-68.7501329
35,Maid Marion Lane,04412,44.7725372,-68.7703740
69,Park Avenue East,04412,44.7784732,-68.7676972
