House number,Street name,Postal code,Latitude,Longitude
5,Cemetery Road,04631,44.9152712,-66.9922573
5,Staniels Road,04631,44.9046055,-66.9974802
10,Dresner Street,04631,44.9298165,-67.0309019
12,Evans Street,04631,44.9292536,-67.0311492
11,Lovelace Street,04631,44.9302148,-67.0323392
14,Jensen Street,04631,44.9292504,-67.0333163
11,Snyder Road,04631,44.9292999,-67.0338341
10,Evans Street,04631,44.9291987,-67.0308343
161,County Road,04631,44.9186509,-67.0130640
19,Snyder Road,04631,44.9305056,-67.0322343
12,Barron Road,04631,44.8980909,-66.9923256
2,Customs Street,04631,44.8989564,-66.9856947
13,Hawkes Avenue,04631,44.9020416,-66.9919390
15,Jensen Street,04631,44.9286816,-67.0329555
23,Byrd Street,04631,44.9293249,-67.0329335
10,Jensen Street,04631,44.9288010,-67.0333569
21,Snyder Road,04631,44.9305775,-67.0319657
23,Key Street,04631,44.9042363,-66.9892786
10,Prince Avenue,04631,44.8991751,-66.9894171
23,Battery Street,04631,44.9005419,-66.9885651
10,Staniels Road,04631,44.9037294,-66.9973143
13,Evans Street,04631,44.9295692,-67.0314425
165,County Road,04631,44.9190564,-67.0143804
167,County Road,04631,44.9193084,-67.0146314
19,Byrd Street,04631,44.9294261,-67.0322775
26,Prime Street,04631,44.8962742,-66.9946665
21,Byrd Street,04631,44.9291678,-67.0326981
19,Evans Street,04631,44.9290909,-67.0324156
13,Snyder Road,04631,44.9294306,-67.0335826
22,Kendall Head Road,04631,44.9334786,-67.0177993
4,Dresner Street,04631,44.9296320,-67.0301225
4,Hawkes Avenue,04631,44.9013927,-66.9908724
4,McKinley Street,04631,44.9071385,-66.9869226
4,Spear Avenue,04631,44.8999640,-66.9889779
6,County Road,04631,44.8973324,-66.9923880
6,Dresner Street,04631,44.9296948,-67.0303738
6,Hawkes Avenue,04631,44.9014844,-66.9912238
6,Jensen Street,04631,44.9284051,-67.0336239
6,Trecartin Avenue,04631,44.9022683,-66.9889609
8,Hawkes Avenue,04631,44.9016259,-66.9915925
8,Janney Street,04631,44.9295080,-67.0289355
8,Lovelace Street,04631,44.9299973,-67.0317320
10,Norwood Road,04631,44.9172367,-67.0052703
14,Hawkes Avenue,04631,44.9017266,-66.9919437
14,Evans Street,04631,44.9293839,-67.0313982
14,Water Street,04631,44.9024955,-66.9862740
18,Broadway,04631,44.9041871,-66.9933907
20,County Road,04631,44.9018307,-66.9947900
20,Hawkes Avenue,04631,44.9019920,-66.9934671
22,High Street,04631,44.8998904,-66.9901647
36,Battery Street,04631,44.9003015,-66.9897388
38,Water Street,04631,44.9042286,-66.9845035
52,Water Street,04631,44.9045941,-66.9845540
54,High Street,04631,44.9027165,-66.9896229
54,Water Street,04631,44.9046440,-66.9845776
56,Water Street,04631,44.9047027,-66.9845882
58,High Street,04631,44.9034685,-66.9896410
64,Water Street,04631,44.9049200,-66.9846567
62,Toll Bridge Road,04631,44.9278399,-67.0366148
62,Water Street,04631,44.9048703,-66.9846457
66,High Street,04631,44.9044785,-66.9898819
66,Key Street,04631,44.9042200,-66.9939785
70,High Street,04631,44.9049976,-66.9899360
72,High Street,04631,44.9051389,-66.9899438
78,County Road,04631,44.9078424,-66.9980328
82,Water Street,04631,44.9054093,-66.9848359
84,Toll Bridge Road,04631,44.9320533,-67.0431941
88,High Street,04631,44.9071804,-66.9900690
88,Toll Bridge Road,04631,44.9328649,-67.0443262
90,High Street,04631,44.9071904,-66.9900690
92,High Street,04631,44.9075068,-66.9902033
98,High Street,04631,44.9081587,-66.9904149
102,Water Street,04631,44.9063412,-66.9853607
118,Water Street,04631,44.9075803,-66.9851780
122,County Road,04631,44.9134307,-67.0051169
132,County Road,04631,44.9151152,-67.0077572
188,County Road,04631,44.9272080,-67.0242162
1,Franklin Street,04631,44.8986754,-66.9866037
3,Water Street,04631,44.9015820,-66.9875662
3,Water Street,04631,44.9015850,-66.9874774
5,Broadway,04631,44.9036168,-66.9926949
5,Harris Point Road,04631,44.9138309,-66.9991804
5,High Street,04631,44.8984511,-66.9899679
5,Snyder Road,04631,44.9284625,-67.0343443
5,Water Street,04631,44.9016094,-66.9873309
7,Arnold Street,04631,44.9286438,-67.0278943
7,Deeks Street,04631,44.9292798,-67.0287532
7,Franklin Street,04631,44.8993842,-66.9867246
7,McKinley Street,04631,44.9074828,-66.9875629
7,Old Redoubt Road,04631,44.9163557,-67.0081704
7,Perkins Road,04631,44.9325740,-67.0297684
12,Staniels Road,04631,44.9031698,-66.9990247
7,Toll Bridge Road,04631,44.9275682,-67.0312955
9,Byrd Street,04631,44.9288307,-67.0308975
9,Lincoln Street,04631,44.9003175,-66.9914165
9,Old Redoubt Road,04631,44.9167132,-67.0082847
9,Perkins Road,04631,44.9327767,-67.0297741
9,Water Street,04631,44.9014877,-66.9868095
11,Perkins Road,04631,44.9329702,-67.0297739
11,Water Street,04631,44.9017138,-66.9868713
15,High Street,04631,44.9001033,-66.9899863
15,Lincoln Street,04631,44.9004690,-66.9920951
15,Pleasant Street,04631,44.8988195,-66.9891635
17,Perkins Road,04631,44.9332678,-67.0292821
19,Lincoln Street,04631,44.9005482,-66.9925040
21,High Street,04631,44.9004771,-66.9899986
21,Johnson Street,04631,44.9305962,-67.0293988
3,Prince Avenue,04631,44.8994858,-66.9886590
3,Jensen Street,04631,44.9281582,-67.0331445
3,Customs Street,04631,44.8993265,-66.9857514
25,Battery Street,04631,44.9005274,-66.9887620
45,Kendall Head Road,04631,44.9360649,-67.0158853
47,Kendall Head Road,04631,44.9361521,-67.0152042
51,Clark Street,04631,44.9127249,-66.9915606
51,Water Street,04631,44.9042233,-66.9842034
55,Water Street,04631,44.9042414,-66.9841034
63,County Road,04631,44.9067436,-66.9972286
65,County Road,04631,44.9070757,-66.9974324
67,County Road,04631,44.9074073,-66.9976045
69,Water Street,04631,44.9048210,-66.9844068
73,Water Street,04631,44.9049790,-66.9844329
89,Water Street,04631,44.9055179,-66.9846168
93,County Road,04631,44.9117737,-66.9999359
107,Water Street,04631,44.9058129,-66.9847521
109,Water Street,04631,44.9059263,-66.9848052
125,County Road,04631,44.9150776,-67.0074101
137,County Road,04631,44.9156109,-67.0083101
151,Water Street,04631,44.9078694,-66.9847246
161,Water Street,04631,44.9088427,-66.9845322
163,County Road,04631,44.9188034,-67.0135465
181,County Road,04631,44.9255214,-67.0170594
185,Water Street,04631,44.9105734,-66.9854281
9,Hawkes Avenue,04631,44.9018352,-66.9914649
18,Toll Bridge Road,04631,44.9269748,-67.0284646
68,Key Street,04631,44.9046183,-66.9938507
19,Adams Street,04631,44.9081708,-66.9872666
23,Adams Street,04631,44.9081829,-66.9879565
41,Adams Street,04631,44.9082112,-66.9890513
5,McKinley Street,04631,44.9074876,-66.9873221
6,McKinley Street,04631,44.9072923,-66.9874809
4,Woodman Place,04631,44.9075108,-66.9858328
9,Leavitt Avenue,04631,44.9071735,-66.9858446
15,Leavitt Avenue,04631,44.9069109,-66.9857588
9,Sullivan Street,04631,44.9067175,-66.9862786
10,Arnold Street,04631,44.9283771,-67.0283469
6,Arnold Street,04631,44.9276275,-67.0282079
5,Arnold Street,04631,44.9279506,-67.0278927
1,Barton Street,04631,44.9286765,-67.0271835
3,Barton Street,04631,44.9289122,-67.0272768
15,Barton Street,04631,44.9308226,-67.0276549
20,Barton Street,04631,44.9301533,-67.0277286
24,Barton Street,04631,44.9304789,-67.0278188
30,Barton Street,04631,44.9316376,-67.0281910
1,Conner Street,04631,44.9315134,-67.0288162
3,Perkins Road,04631,44.9320727,-67.0296715
5,Conner Street,04631,44.9316038,-67.0293644
25,Conner Street,04631,44.9312728,-67.0292236
3,Deeks Street,04631,44.9293083,-67.0280616
2,Meyer Street,04631,44.9302386,-67.0279791
4,Meyer Street,04631,44.9301138,-67.0285726
6,Meyer Street,04631,44.9300782,-67.0288526
8,Meyer Street,04631,44.9301339,-67.0292119
7,Meyer Street,04631,44.9303088,-67.0289144
2,Janney Street,04631,44.9296779,-67.0278272
4,Janney Street,04631,44.9296767,-67.0282834
6,Janney Street,04631,44.9296379,-67.0286396
10,Janney Street,04631,44.9294996,-67.0292336
5,Janney Street,04631,44.9297892,-67.0285394
3,Janney Street,04631,44.9298615,-67.0280363
1,Deeks Street,04631,44.9293211,-67.0277570
5,Deeks Street,04631,44.9292345,-67.0284760
9,Deeks Street,04631,44.9292173,-67.0290468
6,Deeks Street,04631,44.9291041,-67.0284868
8,Deeks Street,04631,44.9289671,-67.0288907
1,Brinker Street,04631,44.9286759,-67.0284508
3,Brinker Street,04631,44.9286291,-67.0288705
4,Brinker Street,04631,44.9283209,-67.0290078
21,Perkins Road,04631,44.9330166,-67.0290689
23,Perkins Road,04631,44.9326648,-67.0285107
25,Perkins Road,04631,44.9321467,-67.0284777
2,Vanasse Road,04631,44.9323228,-67.0274705
5,Johnson Street,04631,44.9286440,-67.0292122
7,Johnson Street,04631,44.9289062,-67.0292729
12,Johnson Street,04631,44.9288809,-67.0296349
11,Johnson Street,04631,44.9292767,-67.0293553
19,Johnson Street,04631,44.9302853,-67.0296376
20,Johnson Street,04631,44.9301034,-67.0297959
22,Johnson Street,04631,44.9302389,-67.0298229
24,Johnson Street,04631,44.9304754,-67.0299606
26,Johnson Street,04631,44.9310718,-67.0298325
1,Kremmer Road,04631,44.9325058,-67.0268623
1,Byrd Street,04631,44.9285612,-67.0296269
2,Byrd Street,04631,44.9283915,-67.0297024
3,Byrd Street,04631,44.9286199,-67.0298973
5,Byrd Street,04631,44.9286105,-67.0301384
7,Byrd Street,04631,44.9286160,-67.0304550
13,Byrd Street,04631,44.9288589,-67.0314922
15,Byrd Street,04631,44.9289259,-67.0317243
16,Byrd Street,04631,44.9285515,-67.0308944
25,Byrd Street,04631,44.9295204,-67.0330473
18,Byrd Street,04631,44.9288617,-67.0324361
22,Snyder Road,04631,44.9300045,-67.0331955
8,Jensen Street,04631,44.9285678,-67.0334029
23,Snyder Road,04631,44.9307387,-67.0316560
16,Lovelace Street,04631,44.9298819,-67.0326104
7,Snyder Road,04631,44.9287683,-67.0340677
20,Evans Street,04631,44.9290554,-67.0319226
7,Lovelace Street,04631,44.9302354,-67.0317049
9,Jensen Street,04631,44.9289129,-67.0327955
18,Evans Street,04631,44.9293041,-67.0319902
11,Evans Street,04631,44.9294552,-67.0308318
17,Snyder Road,04631,44.9304107,-67.0324719
29,Snyder Road,04631,44.9308034,-67.0307097
9,Lovelace Street,04631,44.9302591,-67.0320336
12,Jensen Street,04631,44.9290253,-67.0333113
5,Lovelace Street,04631,44.9303107,-67.0313728
3,Dresner Street,04631,44.9299953,-67.0305726
12,Dresner Street,04631,44.9299152,-67.0311456
9,Evans Street,04631,44.9293956,-67.0305107
3,Evans Street,04631,44.9293063,-67.0300322
5,Evans Street,04631,44.9293466,-67.0302780
6,Evans Street,04631,44.9290910,-67.0303311
25,Snyder Road,04631,44.9307933,-67.0314324
1,Jensen Street,04631,44.9279443,-67.0332658
5,Dresner Street,04631,44.9300893,-67.0310636
27,Snyder Road,04631,44.9308914,-67.0311186
16,Evans Street,04631,44.9293248,-67.0316220
2,Lovelace Street,04631,44.9303206,-67.0306438
9,Snyder Road,04631,44.9290505,-67.0339884
1,Lovelace Street,04631,44.9305507,-67.0306740
10,Snyder Road,04631,44.9292781,-67.0343988
15,Snyder Road,04631,44.9301658,-67.0326260
3,Snyder Road,04631,44.9282543,-67.0342817
15,Evans Street,04631,44.9296016,-67.0317519
5,Jensen Street,04631,44.9284400,-67.0330398
4,Vanasse Road,04631,44.9332343,-67.0276041
6,Vanasse Road,04631,44.9336969,-67.0275439
10,Vanasse Road,04631,44.9344875,-67.0279730
12,Vanasse Road,04631,44.9347229,-67.0275341
18,Vanasse Road,04631,44.9360476,-67.0276154
14,Vanasse Road,04631,44.9350750,-67.0275917
143,Water Street,04631,44.9075026,-66.9848577
93,Water Street,04631,44.9055861,-66.9846524
72,Water Street,04631,44.9052236,-66.9847727
74,Water Street,04631,44.9052734,-66.9847900
19,Middle Street,04631,44.9027323,-66.9874501
23,High Street,04631,44.9009417,-66.9900521
2,High Street,04631,44.8974762,-66.9903249
6,Customs Street,04631,44.8990044,-66.9861173
62,County Road,04631,44.9025729,-66.9963031
9,Janney Street,04631,44.9297628,-67.0290979
5,Perkins Road,04631,44.9324233,-67.0296405
2,Sunset Drive,04631,44.9439084,-67.0394893
1,Sunset Drive,04631,44.9435816,-67.0398554
4,Sunset Drive,04631,44.9439860,-67.0403423
6,Sunset Drive,04631,44.9441017,-67.0410482
8,Sunset Drive,04631,44.9440798,-67.0418728
214,County Road,04631,44.9431294,-67.0392116
212,County Road,04631,44.9424877,-67.0387962
2,Bayview Drive,04631,44.9441887,-67.0377305
3,Bayview Drive,04631,44.9425612,-67.0367910
4,Bayview Drive,04631,44.9436785,-67.0371142
8,Bayview Drive,04631,44.9429248,-67.0364744
10,Bayview Drive,04631,44.9427251,-67.0358538
12,Bayview Drive,04631,44.9425049,-67.0353480
14,Bayview Drive,04631,44.9422669,-67.0348554
1,Bayview Drive,04631,44.9411913,-67.0361723
217,County Road,04631,44.9433990,-67.0386574
68,Washington Street,04631,44.9060861,-66.9918299
4,Dana Street,04631,44.9040479,-66.9857385
4,Shackford Street,04631,44.9027627,-66.9866257
3,Indian Road,04631,44.9284601,-67.0245615
4,Indian Road,04631,44.9294265,-67.0252633
7,Indian Road,04631,44.9303969,-67.0251604
13,Indian Road,04631,44.9354525,-67.0254750
15,Indian Road,04631,44.9358683,-67.0255748
17,Indian Road,04631,44.9364221,-67.0258409
19,Indian Road,04631,44.9375073,-67.0269127
21,Indian Road,04631,44.9384014,-67.0286438
14,Toll Bridge Road,04631,44.9267300,-67.0268003
5,Toll Bridge Road,04631,44.9269087,-67.0290688
23,Toll Bridge Road,04631,44.9310578,-67.0402625
25,Toll Bridge Road,04631,44.9307969,-67.0407973
41,Toll Bridge Road,04631,44.9319214,-67.0423305
43,Toll Bridge Road,04631,44.9332431,-67.0432868
90,Toll Bridge Road,04631,44.9334642,-67.0454210
6,Kendall Head Road,04631,44.9282542,-67.0189105
1,Drummond Road,04631,44.9170840,-67.0135488
33,Kendall Head Road,04631,44.9356489,-67.0170719
99,Toll Bridge Road,04631,44.9345420,-67.0463286
34,Kendall Head Road,04631,44.9341097,-67.0183732
4,Harris Point Road,04631,44.9135153,-66.9994067
45,Toll Bridge Road,04631,44.9334972,-67.0444568
47,Toll Bridge Road,04631,44.9336784,-67.0450463
97,Toll Bridge Road,04631,44.9340156,-67.0455544
54,Toll Bridge Road,04631,44.9273167,-67.0330051
64,Toll Bridge Road,04631,44.9297896,-67.0403247
94,Toll Bridge Road,04631,44.9339146,-67.0462232
98,Toll Bridge Road,04631,44.9342410,-67.0466240
5,Kendall Head Road,04631,44.9283560,-67.0175130
15,Kendall Head Road,04631,44.9304710,-67.0159322
18,Kendall Head Road,04631,44.9306265,-67.0163324
31,Kendall Head Road,04631,44.9345016,-67.0170987
49,Kendall Head Road,04631,44.9357727,-67.0177203
51,Kendall Head Road,04631,44.9359098,-67.0188753
4,Island View Drive,04631,44.9289256,-67.0199898
5,Island View Drive,04631,44.9291292,-67.0190134
6,Island View Drive,04631,44.9290059,-67.0204686
10,Island View Drive,04631,44.9295373,-67.0204884
7,Redoubt Hill Road,04631,44.9207915,-67.0142446
3,Redoubt Hill Road,04631,44.9202871,-67.0116455
6,Drummond Road,04631,44.9160146,-67.0141684
9,Drummond Road,04631,44.9144018,-67.0164158
5,Old Redoubt Road,04631,44.9172057,-67.0068424
21,Old Redoubt Road,04631,44.9188062,-67.0088015
1,Norwood Road,04631,44.9154555,-67.0068839
33,Norwood Road,04631,44.9204452,-67.0039365
26,Norwood Road,04631,44.9206323,-67.0046016
28,Norwood Road,04631,44.9209458,-67.0050278
37,Norwood Road,04631,44.9218525,-67.0059151
39,Norwood Road,04631,44.9227474,-67.0068978
38,Norwood Road,04631,44.9225541,-67.0071705
40,Norwood Road,04631,44.9223671,-67.0083174
41,Norwood Road,04631,44.9230854,-67.0079504
44,Norwood Road,04631,44.9218850,-67.0088029
45,Norwood Road,04631,44.9222580,-67.0090307
47,Norwood Road,04631,44.9216967,-67.0093669
49,Norwood Road,04631,44.9213044,-67.0095831
2,Harris Point Road,04631,44.9129416,-66.9992873
7,Harris Point Road,04631,44.9145530,-66.9992883
8,Harris Point Road,04631,44.9145176,-66.9998407
18,Harris Point Road,04631,44.9162683,-67.0000840
22,Harris Point Road,04631,44.9175317,-66.9987225
57,Clark Street,04631,44.9130308,-66.9925761
56,Clark Street,04631,44.9128270,-66.9930139
60,Clark Street,04631,44.9128472,-66.9939063
62,Clark Street,04631,44.9128139,-66.9945726
66,Clark Street,04631,44.9127870,-66.9956060
68,Clark Street,04631,44.9127512,-66.9958733
8,Capen Avenue,04631,44.9108293,-66.9864136
28,Capen Avenue,04631,44.9107464,-66.9880951
34,Capen Avenue,04631,44.9104592,-66.9886498
35,Capen Avenue,04631,44.9110592,-66.9882172
37,Capen Avenue,04631,44.9109948,-66.9883968
38,Capen Avenue,04631,44.9104624,-66.9888334
39,Capen Avenue,04631,44.9109156,-66.9885009
14,Wilson Street,04631,44.9098906,-66.9867821
6,Favor Street,04631,44.9096526,-66.9863027
7,Mitchell Street,04631,44.9086466,-66.9869396
23,Mitchell Street,04631,44.9102313,-66.9884931
24,Mitchell Street,04631,44.9102949,-66.9882692
32,Mitchell Street,04631,44.9100652,-66.9885179
2,Madison Street,04631,44.9076291,-66.9843719
5,Woodman Place,04631,44.9074039,-66.9858936
3,Leavitt Avenue,04631,44.9070747,-66.9856074
11,Sullivan Street,04631,44.9066400,-66.9867310
29,Sullivan Street,04631,44.9065560,-66.9888620
19,Sullivan Street,04631,44.9065671,-66.9877026
15,Sullivan Street,04631,44.9066021,-66.9871376
7,Orange Street,04631,44.9067281,-66.9907118
14,Orange Street,04631,44.9066718,-66.9923731
9,Orange Street,04631,44.9067378,-66.9910091
3,Orange Street,04631,44.9067073,-66.9902945
17,Washington Street,04631,44.9061180,-66.9872496
31,Washington Street,04631,44.9061551,-66.9885910
33,Washington Street,04631,44.9062129,-66.9888043
37,Washington Street,04631,44.9061809,-66.9890334
39,Washington Street,04631,44.9062060,-66.9891782
43,Washington Street,04631,44.9062164,-66.9895135
82,Washington Street,04631,44.9062593,-66.9934896
84,Washington Street,04631,44.9062420,-66.9937815
75,Washington Street,04631,44.9065748,-66.9953027
5,Boynton Street,04631,44.9051755,-66.9853634
6,Boynton Street,04631,44.9049984,-66.9848360
10,Boynton Street,04631,44.9050032,-66.9852934
5,Burns Place,04631,44.9071895,-66.9908414
16,Boynton Street,04631,44.9050292,-66.9857422
17,Boynton Street,04631,44.9053777,-66.9868764
24,Boynton Street,04631,44.9049885,-66.9859906
27,Boynton Street,04631,44.9049981,-66.9878080
34,Boynton Street,04631,44.9052821,-66.9888558
46,Boynton Street,04631,44.9055719,-66.9907457
58,Boynton Street,04631,44.9057955,-66.9924543
21,Stevens Avenue,04631,44.9056813,-66.9931233
1,Furniture Avenue,04631,44.9044511,-66.9851227
4,Furniture Avenue,04631,44.9045750,-66.9850044
6,Furniture Avenue,04631,44.9046872,-66.9847281
10,Deep Cove Road,04631,44.9056167,-67.0063943
14,Deep Cove Road,04631,44.9074294,-67.0135521
20,Deep Cove Road,04631,44.9040743,-67.0134460
24,Deep Cove Road,04631,44.9077715,-67.0156241
26,Deep Cove Road,04631,44.9083526,-67.0187584
25,Deep Cove Road,04631,44.9090920,-67.0183149
27,Deep Cove Road,04631,44.9099641,-67.0190261
34,Deep Cove Road,04631,44.9105485,-67.0221033
36,Deep Cove Road,04631,44.9122590,-67.0195109
4,Brewster Road,04631,44.9137564,-66.9974980
7,Brewster Road,04631,44.9145121,-66.9969586
9,Brewster Road,04631,44.9149039,-66.9961976
13,Brewster Road,04631,44.9161227,-66.9966556
14,Brewster Road,04631,44.9151492,-66.9973546
1,Cemetery Road,04631,44.9134020,-66.9909035
2,Sunrise Drive,04631,44.9156231,-66.9907691
4,Sunrise Drive,04631,44.9153271,-66.9910835
6,Sunrise Drive,04631,44.9148364,-66.9915883
269,Water Street,04631,44.9168233,-66.9904232
267,Water Street,04631,44.9166008,-66.9903106
265,Water Street,04631,44.9163400,-66.9900726
263,Water Street,04631,44.9161085,-66.9897070
1,Clark Street,04631,44.9138917,-66.9859963
214,Water Street,04631,44.9149701,-66.9887015
192,Water Street,04631,44.9140405,-66.9885692
11,Clark Street,04631,44.9134788,-66.9873409
18,Clark Street,04631,44.9131499,-66.9875804
17,Clark Street,04631,44.9134184,-66.9880018
24,Clark Street,04631,44.9127496,-66.9881075
26,Clark Street,04631,44.9125262,-66.9879443
23,Clark Street,04631,44.9129831,-66.9888405
32,Clark Street,04631,44.9127668,-66.9888290
4,Clark Court,04631,44.9133900,-66.9902198
46,Clark Street,04631,44.9126541,-66.9903532
48,Clark Street,04631,44.9124684,-66.9905434
50,Clark Street,04631,44.9125756,-66.9912617
1,Clark Place,04631,44.9116206,-66.9891730
2,Dana Street,04631,44.9039935,-66.9854617
7,Dana Street,04631,44.9041397,-66.9850766
13,Dana Street,04631,44.9042568,-66.9855918
11,Key Street,04631,44.9038558,-66.9871005
48,Key Street,04631,44.9043568,-66.9915227
49,Key Street,04631,44.9046286,-66.9916209
51,Key Street,04631,44.9045992,-66.9917423
56,Key Street,04631,44.9044689,-66.9922662
72,Key Street,04631,44.9047425,-66.9942580
11,Toll Bridge Road,04631,44.9279257,-67.0342802
22,Boynton Street,04631,44.9046189,-66.9857059
14,Kendall Head Road,04631,44.9300413,-67.0173663
6,Deep Cove Road,04631,44.9064168,-66.9988677
17,Toll Bridge Road,04631,44.9301961,-67.0393604
12,Favor Street,04631,44.9099127,-66.9865027
10,Capen Avenue,04631,44.9109702,-66.9867444
17,Sullivan Street,04631,44.9065796,-66.9873918
12,Kendall Head Road,04631,44.9297555,-67.0177563
11,Kendall Head Road,04631,44.9298704,-67.0165992
11,Favor Street,04631,44.9100076,-66.9862713
1,Kendall Head Road,04631,44.9260943,-67.0171283
14,Capen Avenue,04631,44.9107830,-66.9873590
16,Brewster Road,04631,44.9158477,-66.9974000
14,Norwood Road,04631,44.9180338,-67.0045205
18,Norwood Road,04631,44.9195823,-67.0037573
12,Norwood Road,04631,44.9178502,-67.0048309
16,Norwood Road,04631,44.9184056,-67.0041592
230,Water Street,04631,44.9161737,-66.9903382
2,Capen Avenue,04631,44.9111357,-66.9849017
2,Chapel Street,04631,44.9048657,-66.9912833
21,Norwood Road,04631,44.9194402,-67.0028373
3,Capen Avenue,04631,44.9117489,-66.9849627
3,Clark Court,04631,44.9133776,-66.9900302
3,Clark Place,04631,44.9118333,-66.9892353
29,Capen Avenue,04631,44.9110206,-66.9878195
2,Island View Drive,04631,44.9288010,-67.0192972
4,Favor Street,04631,44.9095432,-66.9862242
4,Green Street,04631,44.9041949,-66.9864173
6,Bayview Drive,04631,44.9434254,-67.0365270
43,Kendall Head Road,04631,44.9361056,-67.0171893
8,Norwood Road,04631,44.9161698,-67.0068022
8,Boynton Street,04631,44.9050079,-66.9850463
8,Kendall Head Road,04631,44.9292854,-67.0184188
8,Key Street,04631,44.9034212,-66.9859377
12,Third Street,04631,44.9023031,-66.9883834
14,Middle Street,04631,44.9019470,-66.9878448
31,Norwood Road,04631,44.9201875,-67.0038757
38,Deep Cove Road,04631,44.9123608,-67.0220095
40,Clark Street,04631,44.9125433,-66.9891725
40,Deep Cove Road,04631,44.9129628,-67.0224639
22,Norwood Road,04631,44.9201116,-67.0041635
44,Clark Street,04631,44.9124983,-66.9899405
56,Shackford Street,04631,44.9039152,-66.9943058
64,Washington Street,04631,44.9060897,-66.9915194
66,Washington Street,04631,44.9060961,-66.9916268
6,Orange Street,04631,44.9065476,-66.9906864
5,Capen Avenue,04631,44.9114313,-66.9848154
5,Furniture Avenue,04631,44.9045591,-66.9853786
9,Kendall Head Road,04631,44.9292328,-67.0174638
5,Stevens Avenue,04631,44.9055197,-66.9916152
7,Chapel Street,04631,44.9053512,-66.9907344
7,Island View Drive,04631,44.9293649,-67.0196263
7,Kendall Head Road,04631,44.9287823,-67.0177011
7,Sunset Drive,04631,44.9435736,-67.0412246
9,Dana Street,04631,44.9042065,-66.9852896
9,Favor Street,04631,44.9098636,-66.9860167
33,Third Street,04631,44.9030207,-66.9910500
39,Key Street,04631,44.9044583,-66.9908922
83,Clark Street,04631,44.9130241,-66.9968077
213,County Road,04631,44.9408247,-67.0350124
271,Water Street,04631,44.9172300,-66.9907701
273,Water Street,04631,44.9175460,-66.9910758
2,Byram Street,04631,44.9047420,-66.9903206
3,Byram Street,04631,44.9049347,-66.9903436
8,Green Street,04631,44.9044639,-66.9863573
10,Green Street,04631,44.9046304,-66.9863578
14,Green Street,04631,44.9050420,-66.9862168
27,Shackford Street,04631,44.9036549,-66.9902552
28,Shackford Street,04631,44.9034498,-66.9903700
33,Shackford Street,04631,44.9037412,-66.9910692
39,Shackford Street,04631,44.9038240,-66.9914273
47,Shackford Street,04631,44.9040244,-66.9928390
52,Shackford Street,04631,44.9039282,-66.9932540
7,Third Street,04631,44.9024833,-66.9881364
29,Third Street,04631,44.9029944,-66.9905759
24,Third Street,04631,44.9025539,-66.9898439
34,Third Street,04631,44.9027194,-66.9908071
45,Third Street,04631,44.9032186,-66.9920627
7,Hawkes Avenue,04631,44.9017950,-66.9912257
16,Hawkes Avenue,04631,44.9019131,-66.9925642
21,Hawkes Avenue,04631,44.9021924,-66.9925798
25,Hawkes Avenue,04631,44.9023041,-66.9930445
27,Hawkes Avenue,04631,44.9024325,-66.9934327
6,Spruce Street,04631,44.9005771,-66.9908184
1,Lincoln Street,04631,44.9002229,-66.9903875
6,Lincoln Street,04631,44.9000558,-66.9911216
10,Lincoln Street,04631,44.9001444,-66.9918088
13,Lincoln Street,04631,44.9004007,-66.9917935
17,Lincoln Street,04631,44.9005263,-66.9922831
4,Staniels Road,04631,44.9045290,-66.9972232
8,Staniels Road,04631,44.9041083,-66.9976178
13,Staniels Road,04631,44.9036721,-66.9989249
22,Staniels Road,04631,44.9019915,-67.0006235
8,Barron Road,04631,44.8980849,-66.9914119
18,Barron Road,04631,44.8984395,-66.9944266
22,Barron Road,04631,44.8986006,-66.9957825
27,Barron Road,04631,44.8989890,-66.9957310
35,Barron Road,04631,44.8987231,-66.9982734
37,Barron Road,04631,44.8989528,-66.9969989
1,Prime Street,04631,44.8919712,-66.9954303
2,Prime Street,04631,44.8920969,-66.9959262
5,Prime Street,04631,44.8928078,-66.9954013
4,Prime Street,04631,44.8927602,-66.9957639
6,Prime Street,04631,44.8928779,-66.9963170
4,Franklin Street,04631,44.8988977,-66.9869569
6,Franklin Street,04631,44.8991147,-66.9870127
14,Franklin Street,04631,44.8992683,-66.9870453
16,Franklin Street,04631,44.8993764,-66.9870479
1,Prince Avenue,04631,44.8996583,-66.9884883
12,Prince Avenue,04631,44.8991837,-66.9896511
6,Spear Avenue,04631,44.8997480,-66.9889791
9,Prime Street,04631,44.8931168,-66.9953082
13,Prime Street,04631,44.8933687,-66.9950462
14,Prime Street,04631,44.8939952,-66.9953473
15,Prime Street,04631,44.8940049,-66.9948784
18,Prime Street,04631,44.8944114,-66.9952126
4,Battery Street,04631,44.8996521,-66.9853284
2,Spear Avenue,04631,44.9000989,-66.9887136
31,Battery Street,04631,44.9005297,-66.9891482
2,Sea Street,04631,44.9019618,-66.9858747
4,Middle Street,04631,44.9008055,-66.9882013
27,Middle Street,04631,44.9043488,-66.9869756
28,Middle Street,04631,44.9046192,-66.9872512
30,Middle Street,04631,44.9048209,-66.9872062
1,Water Street,04631,44.9015746,-66.9876551
19,Water Street,04631,44.9023473,-66.9857852
30,Water Street,04631,44.9040335,-66.9846686
32,Water Street,04631,44.9040957,-66.9846221
8,Furniture Avenue,04631,44.9047512,-66.9847829
58,Water Street,04631,44.9047618,-66.9846179
60,Water Street,04631,44.9048160,-66.9846286
34,Water Street,04631,44.9041532,-66.9845631
36,Water Street,04631,44.9041888,-66.9845429
49,Water Street,04631,44.9041875,-66.9842115
53,Water Street,04631,44.9042613,-66.9841946
71,Water Street,04631,44.9048934,-66.9844232
68,Water Street,04631,44.9051603,-66.9847559
75,Water Street,04631,44.9050745,-66.9844866
76,Water Street,04631,44.9053052,-66.9848079
78,Water Street,04631,44.9053414,-66.9848193
80,Water Street,04631,44.9053732,-66.9848308
97,Water Street,04631,44.9056359,-66.9846696
99,Water Street,04631,44.9056722,-66.9846874
101,Water Street,04631,44.9057130,-66.9847049
103,Water Street,04631,44.9057539,-66.9847288
132,Water Street,04631,44.9097315,-66.9854195
150,Water Street,04631,44.9116539,-66.9862075
157,Water Street,04631,44.9086249,-66.9846918
172,Water Street,04631,44.9128503,-66.9869258
171,Water Street,04631,44.9097710,-66.9848481
173,Water Street,04631,44.9099755,-66.9852147
177,Water Street,04631,44.9101566,-66.9852780
142,Water Street,04631,44.9108058,-66.9858444
203,Water Street,04631,44.9118793,-66.9859716
201,Water Street,04631,44.9121235,-66.9852726
225,Water Street,04631,44.9132039,-66.9868121
228,Water Street,04631,44.9153716,-66.9897770
4,Pleasant Street Extension,04631,44.8979439,-66.9857047
6,Pleasant Street Extension,04631,44.8976679,-66.9858790
8,Pleasant Street Extension,04631,44.8973047,-66.9862146
6,Pleasant Street,04631,44.8984032,-66.9859736
2,Pleasant Street Extension,04631,44.8981183,-66.9856416
41,County Road,04631,44.9031843,-66.9952369
17,Norwood Road,04631,44.9187756,-67.0031835
15,Pier Road,04631,44.9225204,-67.0279592
171,County Road,04631,44.9248750,-67.0148261
89,High Street,04631,44.9074007,-66.9893134
100,High Street,04631,44.9079354,-66.9920667
11,Orange Street,04631,44.9070431,-66.9917409
17,Water Street,04631,44.9020862,-66.9861537
34,Middle Street,04631,44.9050696,-66.9871533
21,Washington Street,04631,44.9062192,-66.9876374
43,Norwood Road,04631,44.9232719,-67.0090194
152,County Road,04631,44.9223463,-67.0153352
9,Harris Point Road,04631,44.9157044,-66.9987782
6,Harris Point Road,04631,44.9140459,-67.0000664
17,Harris Point Road,04631,44.9173973,-66.9978370
16,Harris Point Road,04631,44.9155866,-67.0001553
12,Harris Point Road,04631,44.9149465,-66.9999339
14,Harris Point Road,04631,44.9152687,-67.0001451
20,Harris Point Road,04631,44.9172248,-66.9992041
13,Harris Point Road,04631,44.9158781,-66.9997513
11,Harris Point Road,04631,44.9155560,-66.9991259
15,Harris Point Road,04631,44.9170995,-66.9980274
12,Toll Bridge Road,04631,44.9256480,-67.0267254
24,Key Street,04631,44.9038944,-66.9890503
19,Shackford Street,04631,44.9035302,-66.9887834
68,County Road,04631,44.9061010,-66.9974352
26,Key Street,04631,44.9039485,-66.9892397
20,Key Street,04631,44.9038092,-66.9884112
28,Key Street,04631,44.9040040,-66.9894939
22,Key Street,04631,44.9038820,-66.9888435
44,Toll Bridge Road,04631,44.9274137,-67.0329498
58,Toll Bridge Road,04631,44.9271091,-67.0362627
191,Water Street,04631,44.9111061,-66.9855793
78,High Street,04631,44.9054447,-66.9900872
1,Washington Street,04631,44.9070530,-66.9842274
87,County Road,04631,44.9106286,-66.9990358
40,Capen Avenue,04631,44.9105885,-66.9891325
9,Barron Road,04631,44.8982810,-66.9914620
11,Chapel Street,04631,44.9058120,-66.9908090
58,Key Street,04631,44.9045025,-66.9927435
15,Washington Street,04631,44.9060735,-66.9869095
12,Water Street,04631,44.9022935,-66.9865825
9,Shackford Street,04631,44.9030875,-66.9868860
16,Water Street,04631,44.9026890,-66.9861310
1,Jackson Street,04631,44.8997880,-66.9907240
37,Clark Street,04631,44.9128720,-66.9904160
18,Third Street,04631,44.9024240,-66.9889720
3,Willow Street,04631,44.9040415,-66.9904445
4,Broadway,04631,44.9031410,-66.9931415
25,Shackford Street,04631,44.9036285,-66.9901215
17,Key Street,04631,44.9041220,-66.9880990
7,Customs Street,04631,44.8992695,-66.9863230
34,Washington Street,04631,44.9057538,-66.9868914
11,Lincoln Street,04631,44.9005075,-66.9916120
4,Chapel Street,04631,44.9050695,-66.9913390
7,Water Street,04631,44.9016350,-66.9871665
7,Shackford Street,04631,44.9030420,-66.9865655
47,Water Street,04631,44.9039830,-66.9841289
78,Clark Street,04631,44.9122265,-66.9976250
249,Water Street,04631,44.9143050,-66.9869175
14,Madison Street,04631,44.9078405,-66.9844535
174,Water Street,04631,44.9129615,-66.9870560
27,Clark Street,04631,44.9130650,-66.9891095
15,Sea Street,04631,44.9034623,-66.9842098
30,Battery Street,04631,44.9002485,-66.9890690
20,Adams Street,04631,44.9079820,-66.9866160
65,Key Street,04631,44.9048245,-66.9931135
27,Lincoln Street,04631,44.9007890,-66.9935490
35,Key Street,04631,44.9044295,-66.9905980
22,Washington Street,04631,44.9055624,-66.9853701
86,Washington Street,04631,44.9062615,-66.9940510
16,Key Street,04631,44.9036085,-66.9876015
2,Stevens Avenue,04631,44.9052090,-66.9912520
11,Franklin Street,04631,44.8998200,-66.9867830
2,Middle Street,04631,44.9005395,-66.9883235
41,Shackford Street,04631,44.9039155,-66.9917315
3,Lincoln Street,04631,44.9002290,-66.9908455
24,Capen Avenue,04631,44.9103530,-66.9878260
5,Clark Court,04631,44.9132315,-66.9898020
7,Lower High Street,04631,44.8967520,-66.9902375
5,Brewster Road,04631,44.9141530,-66.9971175
43,Capen Avenue,04631,44.9108735,-66.9888365
2,Brewster Road,04631,44.9131800,-66.9974735
1,Wilson Street,04631,44.9105120,-66.9858025
72,Washington Street,04631,44.9061180,-66.9924200
112,Water Street,04631,44.9070635,-66.9853320
10,Shackford Street,04631,44.9029555,-66.9877215
10,Water Street,04631,44.9020620,-66.9869590
45,Capen Avenue,04631,44.9108070,-66.9891255
245,Water Street,04631,44.9138690,-66.9872285
21,Capen Avenue,04631,44.9112585,-66.9867880
21,Sullivan Street,04631,44.9065335,-66.9879850
11,Washington Street,04631,44.9060660,-66.9864265
33,Key Street,04631,44.9044230,-66.9903805
259,Water Street,04631,44.9156530,-66.9889675
8,Michenor Street,04631,44.9123345,-66.9856640
155,Water Street,04631,44.9083760,-66.9846390
15,Hawkes Avenue,04631,44.9020855,-66.9922445
8,Prime Street,04631,44.8930515,-66.9957870
54,Shackford Street,04631,44.9039480,-66.9937565
17,Capen Avenue,04631,44.9113455,-66.9861250
40,Boynton Street,04631,44.9053495,-66.9894620
4,Michenor Street,04631,44.9125730,-66.9852210
40,Sullivan Street,04631,44.9064380,-66.9895330
19,Deep Cove Road,04631,44.9079816,-67.0122083
39,Adams Street,04631,44.9082335,-66.9887485
1,Brewster Road,04631,44.9132945,-66.9966705
8,Water Street,04631,44.9019120,-66.9870930
22,Hawkes Avenue,04631,44.9022570,-66.9937810
227,Water Street,04631,44.9133540,-66.9868405
64,Clark Street,04631,44.9126975,-66.9952260
60,Washington Street,04631,44.9060140,-66.9911705
72,Boynton Street,04631,44.9058870,-66.9933110
1,South Street,04631,44.9018990,-66.9882935
3,Sunrise Drive,04631,44.9157815,-66.9921055
31,Boynton Street,04631,44.9055100,-66.9888855
28,Washington Street,04631,44.9056553,-66.9859744
116,Water Street,04631,44.9073405,-66.9854690
31,Sullivan Street,04631,44.9066645,-66.9892335
167,Water Street,04631,44.9093600,-66.9847070
126,Water Street,04631,44.9085980,-66.9850192
51,High Street,04631,44.9051560,-66.9896065
1,Stevens Avenue,04631,44.9054655,-66.9912200
1,Sunrise Drive,04631,44.9160840,-66.9910605
3,Green Street,04631,44.9041115,-66.9861465
25,Stevens Avenue,04631,44.9056990,-66.9936085
14,Pleasant Street,04631,44.8979830,-66.9879765
122,Water Street,04631,44.9079125,-66.9851570
12,Prime Street,04631,44.8935650,-66.9957935
38,Shackford Street,04631,44.9035720,-66.9913785
10,Broadway,04631,44.9036305,-66.9930115
7,Staniels Road,04631,44.9044230,-66.9990760
50,Key Street,04631,44.9043430,-66.9916825
51,Washington Street,04631,44.9064575,-66.9911640
5,Lincoln Street,04631,44.9002600,-66.9910625
42,Clark Street,04631,44.9126515,-66.9894550
35,Battery Street,04631,44.9005750,-66.9896440
9,Clark Street,04631,44.9136105,-66.9868410
49,Shackford Street,04631,44.9040945,-66.9930565
4,Jensen Street,04631,44.9281600,-67.0335175
15,Dana Street,04631,44.9043525,-66.9857980
6,Wilson Street,04631,44.9101470,-66.9860955
15,Stevens Avenue,04631,44.9056800,-66.9928575
7,Capen Avenue,04631,44.9114105,-66.9849840
2,Green Street,04631,44.9040635,-66.9864910
9,Green Street,04631,44.9045775,-66.9860640
44,Key Street,04631,44.9043145,-66.9913660
223,Water Street,04631,44.9131465,-66.9867225
30,Mitchell Street,04631,44.9095810,-66.9881365
2,Eagle Street,04631,44.9017190,-66.9864760
12,Chapel Street,04631,44.9058905,-66.9911395
34,Key Street,04631,44.9041835,-66.9906700
8,Gilman Street,04631,44.9088145,-66.9882845
27,Battery Street,04631,44.9005195,-66.9890055
23,Water Street,04631,44.9028481,-66.9850632
12,Adams Street,04631,44.9079265,-66.9860770
11,Madison Street,04631,44.9082520,-66.9836430
7,Barron Road,04631,44.8982720,-66.9911375
31,Clark Street,04631,44.9129270,-66.9894520
42,Deep Cove Road,04631,44.9130540,-67.0218830
1,Spear Avenue,04631,44.9000370,-66.9892480
84,High Street,04631,44.9064640,-66.9900920
104,Washington Street,04631,44.9063585,-66.9965855
42,Third Street,04631,44.9028607,-66.9915477
7,Pleasant Street,04631,44.8985815,-66.9869765
42,Boynton Street,04631,44.9053655,-66.9896655
69,Key Street,04631,44.9048570,-66.9936180
1,Staniels Road,04631,44.9051610,-66.9970770
76,Washington Street,04631,44.9061500,-66.9929795
16,Barron Road,04631,44.8982680,-66.9941335
12,Shackford Street,04631,44.9029945,-66.9880930
54,Washington Street,04631,44.9057715,-66.9901550
19,Mitchell Street,04631,44.9100570,-66.9880785
169,Water Street,04631,44.9099830,-66.9844155
3,Cemetery Road,04631,44.9139090,-66.9907250
2,Pleasant Street,04631,44.8980780,-66.9853685
22,Stevens Avenue,04631,44.9054700,-66.9935830
9,Toll Bridge Road,04631,44.9279215,-67.0338190
26,Battery Street,04631,44.9002880,-66.9887565
13,Boynton Street,04631,44.9053240,-66.9861890
45,Key Street,04631,44.9045755,-66.9913695
74,Washington Street,04631,44.9061645,-66.9926935
25,Middle Street,04631,44.9041855,-66.9869035
9,Wilson Street,04631,44.9102930,-66.9865505
9,Middle Street,04631,44.9018195,-66.9875925
2,Clark Street,04631,44.9137675,-66.9855195
27,Wilson Street,04631,44.9097195,-66.9877985
25,Third Street,04631,44.9029770,-66.9902040
85,Clark Street,04631,44.9128465,-66.9974870
32,Shackford Street,04631,44.9034630,-66.9907945
170,Water Street,04631,44.9127015,-66.9869055
77,Washington Street,04631,44.9066040,-66.9955290
15,Boynton Street,04631,44.9053460,-66.9864335
32,Washington Street,04631,44.9057809,-66.9866496
7,Broadway,04631,44.9039995,-66.9924075
50,Third Street,04631,44.9030275,-66.9923350
49,Capen Avenue,04631,44.9107635,-66.9895165
1,Eagle Street,04631,44.9018260,-66.9860695
70,Washington Street,04631,44.9061105,-66.9920865
7,Key Street,04631,44.9038450,-66.9866205
35,Adams Street,04631,44.9082120,-66.9884585
25,Water Street,04631,44.9032220,-66.9849620
114,Water Street,04631,44.9072105,-66.9853055
26,Capen Avenue,04631,44.9107750,-66.9877870
3,School Street,04631,44.9045650,-66.9884240
14,Shackford Street,04631,44.9029865,-66.9882630
34,Shackford Street,04631,44.9035300,-66.9909690
10,Key Street,04631,44.9034240,-66.9862050
12,Pleasant Street,04631,44.8983160,-66.9874635
11,Shackford Street,04631,44.9032500,-66.9872500
34,Clark Street,04631,44.9124375,-66.9888510
3,Hawkes Avenue,04631,44.9016595,-66.9908370
23,Third Street,04631,44.9028790,-66.9900385
20,Water Street,04631,44.9030700,-66.9856940
3,South Street,04631,44.9019400,-66.9885575
102,Washington Street,04631,44.9062705,-66.9959980
9,Boynton Street,04631,44.9053020,-66.9857590
7,Prince Avenue,04631,44.8994375,-66.9895125
120,Water Street,04631,44.9077860,-66.9851895
158,Water Street,04631,44.9122550,-66.9866560
29,Shackford Street,04631,44.9037305,-66.9905325
22,Third Street,04631,44.9024705,-66.9893420
58,Washington Street,04631,44.9060290,-66.9907760
25,Washington Street,04631,44.9062925,-66.9879850
16,Middle Street,04631,44.9024935,-66.9877585
41,Capen Avenue,04631,44.9108670,-66.9886265
55,Clark Street,04631,44.9131165,-66.9921925
152,Water Street,04631,44.9118210,-66.9863125
76,Clark Street,04631,44.9124960,-66.9970475
12,Deep Cove Road,04631,44.9070540,-67.0117055
4,Wilson Street,04631,44.9102070,-66.9858890
38,High Street,04631,44.9014855,-66.9902585
14,Prince Avenue,04631,44.8991885,-66.9898855
72,Clark Street,04631,44.9122140,-66.9967155
4,Orange Street,04631,44.9065085,-66.9905155
1,Orange Street,04631,44.9067480,-66.9900705
63,Washington Street,04631,44.9065020,-66.9928220
30,Capen Avenue,04631,44.9106370,-66.9883115
10,Favor Street,04631,44.9098455,-66.9864195
59,Key Street,04631,44.9047320,-66.9926120
1,Capen Avenue,04631,44.9115015,-66.9854485
6,Shackford Street,04631,44.9028175,-66.9870030
38,Third Street,04631,44.9027300,-66.9912835
5,Customs Street,04631,44.8992170,-66.9860780
5,South Street,04631,44.9019520,-66.9888375
11,Brighton Avenue,04631,44.9061300,-66.9940270
162,Water Street,04631,44.9124005,-66.9867250
3,Eagle Street,04631,44.9018415,-66.9862950
18,Lincoln Street,04631,44.9002750,-66.9925735
70,Clark Street,04631,44.9125295,-66.9966150
5,Hawkes Avenue,04631,44.9017325,-66.9910595
3,Madison Street,04631,44.9076070,-66.9840580
14,Boynton Street,04631,44.9049560,-66.9855645
20,Clark Street,04631,44.9130535,-66.9877590
207,Water Street,04631,44.9122150,-66.9861440
23,Boynton Street,04631,44.9054930,-66.9876045
38,Washington Street,04631,44.9057765,-66.9875900
11,South Street,04631,44.9020995,-66.9896050
2,Barron Road,04631,44.8979185,-66.9903735
6,Key Street,04631,44.9034180,-66.9857910
45,Shackford Street,04631,44.9039730,-66.9920910
165,Water Street,04631,44.9091545,-66.9846175
2,Cleveland Street,04631,44.8988295,-66.9905990
32,Third Street,04631,44.9026375,-66.9903640
58,Clark Street,04631,44.9126055,-66.9934750
9,McKinley Street,04631,44.9078045,-66.9878495
25,Capen Avenue,04631,44.9111460,-66.9872655
13,Water Street,04631,44.9018215,-66.9867730
28,South Street,04631,44.9018950,-66.9897730
31,Capen Avenue,04631,44.9109885,-66.9880165
6,Mitchell Street,04631,44.9084840,-66.9871415
54,Third Street,04631,44.9030740,-66.9927255
2,Third Street,04631,44.9021260,-66.9872275
10,Brewster Road,04631,44.9144945,-66.9974465
17,Wilson Street,04631,44.9100475,-66.9870315
31,Staniels Road,04631,44.9029350,-67.0027710
28,Deep Cove Road,04631,44.9089240,-67.0208540
188,Water Street,04631,44.9136460,-66.9880910
30,Shackford Street,04631,44.9034245,-66.9906180
21,Lincoln Street,04631,44.9006505,-66.9926995
24,South Street,04631,44.9017490,-66.9890660
26,Mitchell Street,04631,44.9094155,-66.9885030
257,Water Street,04631,44.9153430,-66.9886585
15,Mitchell Street,04631,44.9091905,-66.9873390
38,Barron Road,04631,44.8949700,-66.9989140
18,Shackford Street,04631,44.9031540,-66.9891300
3,Mitchell Street,04631,44.9084825,-66.9867350
24,Barron Road,04631,44.8978710,-66.9970085
15,Key Street,04631,44.9040855,-66.9878260
3,Brewster Road,04631,44.9135090,-66.9972145
2,School Street,04631,44.9045770,-66.9887855
36,Washington Street,04631,44.9057520,-66.9872805
24,Washington Street,04631,44.9056100,-66.9856063
186,Water Street,04631,44.9136385,-66.9875090
49,Clark Street,04631,44.9129935,-66.9912570
13,Green Street,04631,44.9048160,-66.9860080
4,Key Street,04631,44.9033305,-66.9855870
237,Water Street,04631,44.9139630,-66.9867600
9,Franklin Street,04631,44.8995650,-66.9867915
154,Water Street,04631,44.9120255,-66.9864385
20,Stevens Avenue,04631,44.9054000,-66.9932150
26,Washington Street,04631,44.9056816,-66.9857702
20,Prime Street,04631,44.8951680,-66.9950040
2,Lincoln Street,04631,44.8999280,-66.9907450
11,Stevens Avenue,04631,44.9056005,-66.9922970
153,Water Street,04631,44.9081585,-66.9847090
39,Boynton Street,04631,44.9056840,-66.9894580
51,Boynton Street,04631,44.9058510,-66.9915885
18,Middle Street,04631,44.9026725,-66.9877840
4,Customs Street,04631,44.8990120,-66.9859705
59,Clark Street,04631,44.9141395,-66.9929910
49,High Street,04631,44.9048560,-66.9895280
8,Shackford Street,04631,44.9028855,-66.9872770
8,Brewster Road,04631,44.9140975,-66.9975620
20,Wilson Street,04631,44.9096115,-66.9872740
84,Clark Street,04631,44.9124295,-66.9993780
1,Key Street,04631,44.9037010,-66.9857480
12,Capen Avenue,04631,44.9108830,-66.9869350
8,Wilson Street,04631,44.9101115,-66.9861915
7,Green Street,04631,44.9044445,-66.9860725
62,Washington Street,04631,44.9060545,-66.9913690
220,Water Street,04631,44.9150571,-66.9892843
30,Deep Cove Road,04631,44.9096275,-67.0217750
26,South Street,04631,44.9018310,-66.9893485
20,Madison Street,04631,44.9083483,-66.9843440
9,Key Street,04631,44.9038620,-66.9869020
2,Lower High Street,04631,44.8966055,-66.9913495
13,Stevens Avenue,04631,44.9056235,-66.9925170
2,Woodman Place,04631,44.9075650,-66.9855735
4,Byram Street,04631,44.9047445,-66.9905785
29,Boynton Street,04631,44.9055099,-66.9885841
83,Washington Street,04631,44.9068350,-66.9960305
11,Boynton Street,04631,44.9052905,-66.9859730
43,County Road,04631,44.9034420,-66.9952875
9,Pleasant Street,04631,44.8986930,-66.9878245
1,Favor Street,04631,44.9095245,-66.9858670
1,Washington Street,04631,44.9059306,-66.9852381
25,Sullivan Street,04631,44.9065550,-66.9883210
70,Key Street,04631,44.9046965,-66.9940180
14,Key Street,04631,44.9035275,-66.9867495
147,Water Street,04631,44.9077180,-66.9847625
130,Water Street,04631,44.9089915,-66.9852045
52,Third Street,04631,44.9030365,-66.9924965
43,Key Street,04631,44.9044975,-66.9910530
1,Adams Street,04631,44.9081645,-66.9852060
21,Water Street,04631,44.9025930,-66.9854945
3,Gilman Street,04631,44.9089935,-66.9884025
1,Mitchell Street,04631,44.9082930,-66.9865820
8,Prince Avenue,04631,44.8991970,-66.9892580
3,Brighton Avenue,04631,44.9051495,-66.9940815
5,Byram Street,04631,44.9050820,-66.9908645
239,Water Street,04631,44.9137435,-66.9872000
208,Water Street,04631,44.9147935,-66.9886020
5,Chapel Street,04631,44.9052410,-66.9908995
24,Middle Street,04631,44.9041740,-66.9874390
5,Pleasant Street,04631,44.8986560,-66.9863800
40,Barron Road,04631,44.8960890,-67.0009410
255,Water Street,04631,44.9148695,-66.9881680
78,Boynton Street,04631,44.9058880,-66.9937945
2,Hawkes Avenue,04631,44.9013385,-66.9907255
10,South Street,04631,44.9015755,-66.9887080
5,Prince Avenue,04631,44.8994005,-66.9892695
1,Lower High Street,04631,44.8962305,-66.9914580
221,Water Street,04631,44.9130190,-66.9866535
39,Third Street,04631,44.9031600,-66.9914980
53,Key Street,04631,44.9046285,-66.9919595
8,Third Street,04631,44.9022650,-66.9880340
8,Broadway,04631,44.9034525,-66.9930610
71,Washington Street,04631,44.9065885,-66.9947985
11,Broadway,04631,44.9042410,-66.9923455
25,Key Street,04631,44.9043270,-66.9895020
2,Willow Street,04631,44.9040190,-66.9907050
17,Hawkes Avenue,04631,44.9023100,-66.9924380
27,Washington Street,04631,44.9061570,-66.9882065
175,Water Street,04631,44.9101040,-66.9852200
235,Water Street,04631,44.9136055,-66.9870820
4,Spruce Street,04631,44.9003960,-66.9904175
10,Adams Street,04631,44.9079460,-66.9859455
7,Boynton Street,04631,44.9052290,-66.9856195
30,Key Street,04631,44.9041215,-66.9902795
224,Water Street,04631,44.9152975,-66.9891300
27,Boynton Street,04631,44.9054700,-66.9882285
73,Washington Street,04631,44.9066145,-66.9950380
61,Washington Street,04631,44.9064640,-66.9924475
13,Middle Street,04631,44.9019625,-66.9874935
222,Water Street,04631,44.9150890,-66.9897510
21,Wilson Street,04631,44.9099345,-66.9872920
52,Key Street,04631,44.9043885,-66.9920260
7,Clark Street,04631,44.9136950,-66.9867280
5,Sullivan Street,04631,44.9067745,-66.9859988
9,South Street,04631,44.9020585,-66.9893880
6,Staniels Road,04631,44.9042215,-66.9972865
30,Washington Street,04631,44.9057060,-66.9863215
6,Michenor Street,04631,44.9124595,-66.9854220
16,Stevens Avenue,04631,44.9053270,-66.9927660
34,Battery Street,04631,44.9003035,-66.9895060
12,Broadway,04631,44.9037430,-66.9929290
8,Adams Street,04631,44.9078915,-66.9856905
56,Washington Street,04631,44.9060090,-66.9905560
35,Water Street,04631,44.9035892,-66.9846277
181,Water Street,04631,44.9104390,-66.9853675
4,Barron Road,04631,44.8978889,-66.9907075
22,Clark Street,04631,44.9128915,-66.9881150
4,Capen Avenue,04631,44.9113130,-66.9842155
1,Sullivan Street,04631,44.9067080,-66.9854826
110,Water Street,04631,44.9067715,-66.9853101
26,Shackford Street,04631,44.9033650,-66.9902450
6,South Street,04631,44.9016005,-66.9883125
1,McKinley Street,04631,44.9074380,-66.9865550
204,Water Street,04631,44.9144820,-66.9883280
7,Dawson Street,04631,44.8989655,-66.9854275
28,Clark Street,04631,44.9125010,-66.9885825
62,Key Street,04631,44.9045585,-66.9932550
4,Third Street,04631,44.9021525,-66.9874515
4,Stevens Avenue,04631,44.9052555,-66.9916745
67,Key Street,04631,44.9048500,-66.9933755
14,Third Street,04631,44.9023145,-66.9885800
13,Washington Street,04631,44.9060815,-66.9866975
5,Franklin Street,04631,44.8990080,-66.9865580
213,Water Street,04631,44.9126560,-66.9863870
7,Furniture Avenue,04631,44.9047275,-66.9853615
19,Key Street,04631,44.9041820,-66.9884255
15,Wilson Street,04631,44.9102070,-66.9869690
9,Water Street,04631,44.9016870,-66.9870045
1,Elm Street,04631,44.9057450,-66.9881195
37,Adams Street,04631,44.9083930,-66.9886105
7,County Road,04631,44.8990025,-66.9928345
183,County Road,04631,44.9256410,-67.0175335
19,Wilson Street,04631,44.9100060,-66.9871620
88,Washington Street,04631,44.9060205,-66.9948020
8,Pleasant Street,04631,44.8984340,-66.9866240
48,Boynton Street,04631,44.9056520,-66.9914380
24,Wilson Street,04631,44.9094740,-66.9876135
3,Shackford Street,04631,44.9029640,-66.9862635
40,Key Street,04631,44.9042320,-66.9910285
41,Boynton Street,04631,44.9056590,-66.9896585
49,Washington Street,04631,44.9062835,-66.9907195
5,Favor Street,04631,44.9096925,-66.9859385
11,Staniels Road,04631,44.9040660,-66.9982760
29,Washington Street,04631,44.9062180,-66.9884050
106,Washington Street,04631,44.9064020,-66.9969960
2,Holmes Place,04631,44.9127765,-66.9875225
16,Shackford Street,04631,44.9028275,-66.9886710
209,Water Street,04631,44.9123915,-66.9862165
41,Third Street,04631,44.9032250,-66.9918840
7,Brighton Avenue,04631,44.9055455,-66.9940730
74,Clark Street,04631,44.9121135,-66.9966470
23,Barron Road,04631,44.8988005,-66.9939250
45,Washington Street,04631,44.9062840,-66.9897225
18,Key Street,04631,44.9037055,-66.9880240
15,Third Street,04631,44.9026970,-66.9891185
53,Clark Street,04631,44.9128180,-66.9919255
57,Washington Street,04631,44.9064190,-66.9919980
189,Water Street,04631,44.9109145,-66.9854980
33,Clark Street,04631,44.9130085,-66.9896970
17,Pleasant Street,04631,44.8988395,-66.9894020
247,Water Street,04631,44.9140180,-66.9873690
2,Cemetery Road,04631,44.9133055,-66.9913610
12,Key Street,04631,44.9033535,-66.9865490
18,Wilson Street,04631,44.9097570,-66.9870275
31,Shackford Street,04631,44.9037075,-66.9908125
31,Water Street,04631,44.9034573,-66.9846924
32,Boynton Street,04631,44.9050005,-66.9884845
32,Key Street,04631,44.9041490,-66.9904150
47,Capen Avenue,04631,44.9108050,-66.9893120
168,Water Street,04631,44.9125860,-66.9868070
194,Water Street,04631,44.9140965,-66.9879560
23,Capen Avenue,04631,44.9111765,-66.9870660
50,Boynton Street,04631,44.9056820,-66.9916680
25,Wilson Street,04631,44.9098210,-66.9875960
87,Clark Street,04631,44.9128335,-66.9979085
5,Third Street,04631,44.9023905,-66.9873795
5,Green Street,04631,44.9043370,-66.9861210
56,Boynton Street,04631,44.9056760,-66.9919115
9,Lower High Street,04631,44.8969460,-66.9898295
22,Shackford Street,04631,44.9032825,-66.9900575
11,Leavitt Avenue,04631,44.9070555,-66.9859505
64,Key Street,04631,44.9045560,-66.9936300
3,Third Street,04631,44.9023440,-66.9871025
6,Stevens Avenue,04631,44.9052880,-66.9918460
15,Water Street,04631,44.9019325,-66.9865120
16,Adams Street,04631,44.9079305,-66.9862200
42,Shackford Street,04631,44.9036380,-66.9917425
6,Water Street,04631,44.9018295,-66.9873375
36,High Street,04631,44.9012415,-66.9904150
3,Clark Street,04631,44.9137940,-66.9863240
2,Clark Place,04631,44.9113950,-66.9892805
9,High Street,04631,44.8994870,-66.9898400
61,Key Street,04631,44.9047960,-66.9928430
11,Brewster Road,04631,44.9152895,-66.9969570
2,Michenor Street,04631,44.9126370,-66.9849170
5,Orange Street,04631,44.9066870,-66.9904870
26,Boynton Street,04631,44.9049925,-66.9868115
205,Water Street,04631,44.9120750,-66.9860420
30,Clark Street,04631,44.9127055,-66.9885335
138,Water Street,04631,44.9100865,-66.9858310
5,Clark Street,04631,44.9137695,-66.9865485
2,Orange Street,04631,44.9065010,-66.9903400
23,Hawkes Avenue,04631,44.9024190,-66.9928245
21,Middle Street,04631,44.9036260,-66.9871345
28,Water Street,04631,44.9038568,-66.9849253
40,Washington Street,04631,44.9058887,-66.9881077
49,Third Street,04631,44.9033460,-66.9925570
20,Boynton Street,04631,44.9046120,-66.9855775
6,Byram Street,04631,44.9047740,-66.9907660
9,Washington Street,04631,44.9061190,-66.9861695
57,Key Street,04631,44.9047365,-66.9923805
2,Battery Street,04631,44.8998605,-66.9855950
10,Chapel Street,04631,44.9055960,-66.9911580
38,Boynton Street,04631,44.9051815,-66.9891330
5,Key Street,04631,44.9037855,-66.9862785
8,Arnold Street,04631,44.9281665,-67.0282990
1,Snyder Road,04631,44.9280590,-67.0343300
53,Washington Street,04631,44.9063845,-66.9915645
5,Clark Place,04631,44.9121450,-66.9891310
4,Clark Street,04631,44.9135635,-66.9861280
44,High Street,04631,44.9020220,-66.9900865
4,Holmes Place,04631,44.9128755,-66.9876305
80,Clark Street,04631,44.9124915,-66.9981625
50,Washington Street,04631,44.9059725,-66.9895335
7,Sea Street,04631,44.9021748,-66.9850254
4,Mitchell Street,04631,44.9083430,-66.9870695
2,Clark Court,04631,44.9132005,-66.9903860
66,Boynton Street,04631,44.9058320,-66.9929045
11,Hawkes Avenue,04631,44.9019655,-66.9916475
74,Key Street,04631,44.9047190,-66.9945900
9,Brighton Avenue,04631,44.9059105,-66.9940145
35,Boynton Street,04631,44.9055975,-66.9890860
20,Mitchell Street,04631,44.9094141,-66.9880193
4,Dawson Street,04631,44.8988430,-66.9857440
21,Key Street,04631,44.9042810,-66.9889595
231,Water Street,04631,44.9135325,-66.9870200
190,Water Street,04631,44.9138230,-66.9878265
43,Adams Street,04631,44.9083445,-66.9892515
6,Green Street,04631,44.9042980,-66.9864375
144,Water Street,04631,44.9111185,-66.9860740
29,Lincoln Street,04631,44.9008850,-66.9939165
3,Chapel Street,04631,44.9046710,-66.9909605
179,Water Street,04631,44.9102780,-66.9853045
5,Mitchell Street,04631,44.9084540,-66.9862390
17,Mitchell Street,04631,44.9092955,-66.9874170
30,Third Street,04631,44.9026305,-66.9900755
20,Broadway,04631,44.9043255,-66.9927675
4,Cleveland Street,04631,44.8988645,-66.9908690
106,Water Street,04631,44.9065522,-66.9853457
17,Adams Street,04631,44.9081915,-66.9869245
73,Key Street,04631,44.9049820,-66.9939995
82,Clark Street,04631,44.9124835,-66.9985715
2,Prince Avenue,04631,44.8996000,-66.9881940
5,Gilman Street,04631,44.9087810,-66.9889825
26,Middle Street,04631,44.9043955,-66.9874845
20,Barron Road,04631,44.8983820,-66.9949640
2,Wilson Street,04631,44.9101780,-66.9856810
6,Third Street,04631,44.9022320,-66.9878340
123,Water Street,04631,44.9063145,-66.9849837
141,Water Street,04631,44.9068211,-66.9848381
43,Water Street,04631,44.9038415,-66.9844806
16,Deep Cove Road,04631,44.9066792,-67.0123887
26,Water Street,04631,44.9036437,-66.9852395
42,Water Street,04631,44.9042926,-66.9845443
48,Water Street,04631,44.9044569,-66.9845574
10,Barron Road,04631,44.8980648,-66.9917186
6,Barron Road,04631,44.8979254,-66.9909323
17,Shackford Street,04631,44.9033745,-66.9883499
1,Hayes Avenue,04631,44.9035453,-66.9879156
15,Shackford Street,04631,44.9033860,-66.9879413
40,Shackford Street,04631,44.9035871,-66.9915211
47,Third Street,04631,44.9032634,-66.9922095
40,Third Street,04631,44.9025927,-66.9916105
44,Third Street,04631,44.9027929,-66.9917267
46,Third Street,04631,44.9029012,-66.9919630
42,Key Street,04631,44.9042406,-66.9912220
10,Stevens Avenue,04631,44.9052333,-66.9922920
14,Stevens Avenue,04631,44.9052714,-66.9925841
12,Stevens Avenue,04631,44.9052573,-66.9924488
23,Stevens Avenue,04631,44.9056911,-66.9933608
18,Stevens Avenue,04631,44.9053928,-66.9929031
41,Washington Street,04631,44.9062194,-66.9893255
2,Elm Street,04631,44.9056631,-66.9886298
48,Washington Street,04631,44.9059108,-66.9891445
21,Adams Street,04631,44.9084697,-66.9875124
28,Mitchell Street,04631,44.9095032,-66.9883665
18,Mitchell Street,04631,44.9092749,-66.9879141
1,Gilman Street,04631,44.9090974,-66.9881579
6,Gilman Street,04631,44.9088811,-66.9881344
4,Gilman Street,04631,44.9089379,-66.9879934
16,Mitchell Street,04631,44.9089627,-66.9876311
14,Mitchell Street,04631,44.9087989,-66.9874692
11,Mitchell Street,04631,44.9090117,-66.9872324
9,Mitchell Street,04631,44.9088267,-66.9870349
14,Clark Street,04631,44.9131821,-66.9871933
176,Water Street,04631,44.9130962,-66.9871523
217,Water Street,04631,44.9128530,-66.9865682
215,Water Street,04631,44.9128058,-66.9865233
219,Water Street,04631,44.9129534,-66.9862672
206,Water Street,04631,44.9146515,-66.9884665
12,Brewster Road,04631,44.9148026,-66.9974682
6,Brewster Road,04631,44.9140491,-66.9979627
17,Evans Street,04631,44.9295587,-67.0320281
89,High Street,04631,44.9074237,-66.9891005
100,High Street,04631,44.9080282,-66.9937121
22,Deep Cove Road,04631,44.9014995,-67.0165853
