House number,Street name,Postal code,Latitude,Longitude
134,State Street,04605,44.5467363,-68.4264626
19,Black House Drive,04605,44.5360801,-68.4333641
150,High Street,04605,44.5369620,-68.4119137
175,High Street,04605,44.5348027,-68.4130430
151,High Street,04605,44.5362361,-68.4134377
59,Downeast Highway,04605,44.5298480,-68.4002872
225,High Street,04605,44.5321437,-68.4110003
211,High Street,04605,44.5335965,-68.4096980
173,Main Street,04605,44.5418562,-68.4227404
40,Flockamoosen Way,04605,44.5368221,-68.4469759
33,Birch Avenue,04605,44.5461639,-68.4236357
17,Margarita Way,04605,44.6431383,-68.4708019
1123,Happytown Road,04605,44.6131226,-68.6129884
182,Surry Road,04605,44.5273825,-68.4313467
105,Sunset Park Road,04605,44.6199415,-68.4448261
21,Taylor Way,04605,44.5836167,-68.4933491
21,Stoney Ridge Road,04605,44.5201576,-68.4021986
112,Walls Farm Way,04605,44.6158747,-68.5915560
204,Pioneer Farm Way,04605,44.5079753,-68.4255533
17,Argonne Street,04605,44.5540527,-68.4331267
229,Cove Way,04605,44.6240068,-68.5584342
17,Anderson Road,04605,44.5437748,-68.4410628
16,Parcher Street,04605,44.5486179,-68.4202313
105,Sargent Drive,04605,44.6224125,-68.5883399
16,Argonne Street,04605,44.5537441,-68.4335200
10,Upper Boggy Brook Road,04605,44.6273307,-68.4978918
116,Beechland Road,04605,44.5186610,-68.4052338
125,Sargent Drive,04605,44.6219573,-68.5869188
236,Surry Road,04605,44.5231711,-68.4308151
228,Bangor Road,04605,44.5694754,-68.4574596
21,Sennet Way,04605,44.5681702,-68.4361380
132,Lakes Lane,04605,44.5688925,-68.4302120
237,Grant Street,04605,44.5487286,-68.4406188
145,Alton Avenue,04605,44.4958404,-68.4054658
159,Phillips Way,04605,44.6099615,-68.5604121
204,Sargent Drive,04605,44.6241859,-68.5845709
128,Spindle Road,04605,44.5031314,-68.4299660
198,Boggy Brook Road,04605,44.5810177,-68.4624286
10,Whale Watch Way,04605,44.5022751,-68.4306600
237,Winkumpaugh Road,04605,44.6419308,-68.5774775
116,Pioneer Farm Way,04605,44.5137749,-68.4241312
128,Pioneer Farm Way,04605,44.5129181,-68.4247247
21,Ridge Way,04605,44.5382942,-68.5028240
122,Bayside Road,04605,44.5247470,-68.4174919
169,Gary Moore Road,04605,44.6405404,-68.4331426
14,Wildflower Way,04605,44.5166993,-68.4106139
116,Walls Farm Way,04605,44.6151234,-68.5916621
239,Mariaville Road,04605,44.5939976,-68.4497601
116,Wildwood Drive,04605,44.6292054,-68.5571845
17,Ridge Way,04605,44.5384232,-68.5035152
161,Sargent Drive,04605,44.6209489,-68.5831822
169,Bangor Road,04605,44.5682909,-68.4516775
137,Downeast Highway,04605,44.5274931,-68.3924898
103,Surry Road,04605,44.5327966,-68.4320429
137,Cunningham Way,04605,44.5527929,-68.5789476
179,Pioneer Farm Way,04605,44.5097219,-68.4264735
137,Bor Way,04605,44.6130255,-68.5612335
148,Red Bridge Road,04605,44.5518972,-68.4630681
179,Surry Road,04605,44.5270093,-68.4341379
16,Clement Way,04605,44.5258576,-68.4342749
100,Downeast Highway,04605,44.5300871,-68.3961315
14,Lakes Lane,04605,44.5619248,-68.4366139
140,Alton Avenue,04605,44.4953402,-68.4062319
23,Clement Way,04605,44.5266003,-68.4333616
140,Bayside Road,04605,44.5223725,-68.4170500
103,Spindle Road,04605,44.5019360,-68.4276442
1367,Bangor Road,04605,44.6233062,-68.5317094
123,Christian Ridge Road,04605,44.5469304,-68.4447778
18,Addie Road,04605,44.5398765,-68.5044028
18,Alexis Road,04605,44.5412996,-68.5076825
24,Beals Avenue,04605,44.5424238,-68.4166296
121,Lakes Lane,04605,44.5679971,-68.4293769
121,Spindle Road,04605,44.5026038,-68.4288642
113,Bor Way,04605,44.6114465,-68.5614785
175,Red Bridge Road,04605,44.5529333,-68.4641854
186,Branchview Drive,04605,44.5988658,-68.5819793
131,Pioneer Farm Way,04605,44.5126366,-68.4260297
139,Bayside Road,04605,44.5225712,-68.4180547
156,Branchview Drive,04605,44.5978685,-68.5837567
163,Winkumpaugh Road,04605,44.6424211,-68.5701414
107,Beechland Road,04605,44.5179896,-68.4059704
128,Bayside Road,04605,44.5239872,-68.4176882
100,Maddocks Avenue,04605,44.5516945,-68.4162411
123,Bor Way,04605,44.6122289,-68.5612584
16,Edaco Court,04605,44.5285508,-68.4309263
129,Bayside Road,04605,44.5239823,-68.4184937
186,Surry Road,04605,44.5267712,-68.4315100
147,Hanson Landing Road,04605,44.6326428,-68.5661728
103,Pioneer Farm Way,04605,44.5148105,-68.4250836
18,Beals Avenue,04605,44.5429431,-68.4169580
12,Sportsmans Court,04605,44.6157155,-68.5237291
10,Eagle Road,04605,44.5936443,-68.4493162
214,Branchview Drive,04605,44.6007932,-68.5797540
214,Black Bear Way,04605,44.6320065,-68.4835357
162,Bangor Road,04605,44.5675012,-68.4512693
162,Bangor Road,04605,44.5674783,-68.4511751
168,Branchview Drive,04605,44.5984064,-68.5831355
187,Gary Moore Road,04605,44.6425915,-68.4328390
24,Downeast Highway,04605,44.5315466,-68.4031708
2,Benoit Way,04605,44.6530586,-68.4697343
18,Buttermilk Road,04605,44.5199806,-68.3950783
167,Winkumpaugh Road,04605,44.6417774,-68.5713440
1,Birch Avenue,04605,44.5447353,-68.4250723
11,Bucksport Road,04605,44.5394976,-68.4290386
159,Bangor Road,04605,44.5677798,-68.4502214
1268,Bangor Road,04605,44.6173368,-68.5271757
136,Pioneer Farm Way,04605,44.5120633,-68.4248212
213,Winkumpaugh Road,04605,44.6410551,-68.5755987
123,Bayside Road,04605,44.5246937,-68.4185243
10,Hancock Street,04605,44.5415605,-68.4221391
206,Winkumpaugh Road,04605,44.6398395,-68.5755445
130,Sunset Park Road,04605,44.6205223,-68.4485706
139,Pioneer Farm Way,04605,44.5121801,-68.4256693
21,Wilder Way,04605,44.5844041,-68.4356725
1436,Bangor Road,04605,44.6263640,-68.5375909
20,Upper Boggy Brook Road,04605,44.6266880,-68.4981243
147,Christian Ridge Road,04605,44.5482733,-68.4460177
11,Brimmer Point Way,04605,44.5940283,-68.4440272
2,Marion Road,04605,44.4950250,-68.4053420
1000,Mariaville Road,04605,44.6460010,-68.4287452
121,Downeast Highway,04605,44.5280257,-68.3944601
1,City Hall Plaza,04605,44.5426868,-68.4240980
416,High St,04605,44.5196782,-68.3952687
24,Homestead Way,04605,44.5202703,-68.4144033
136,Hanson Landing Road,04605,44.6333184,-68.5650961
213,Pioneer Farm Way,04605,44.5079795,-68.4290822
12,Tanglewood Way,04605,44.5481078,-68.4490281
147,Beechland Road,04605,44.5178297,-68.4020651
14,Marion Road,04605,44.4950392,-68.4046250
12,Tannery Brook Way,04605,44.6306662,-68.5520297
1239,Bangor Road,04605,44.6157699,-68.5249008
11,Brae Drive,04605,44.5527033,-68.4342289
106,Wildwood Drive,04605,44.6297866,-68.5573251
124,Bayside Road,04605,44.5244101,-68.4176400
173,Sargent Drive,04605,44.6223764,-68.5833359
167,Lakes Lane,04605,44.5699235,-68.4275383
17,Marion Road,04605,44.4945454,-68.4040074
114,Bayside Road,04605,44.5254959,-68.4160624
104,Birch Avenue,04605,44.5499233,-68.4219997
220,Branchview Drive,04605,44.6010246,-68.5790341
17,Whimsey Way,04605,44.5469467,-68.4352603
173,Pioneer Farm Way,04605,44.5100904,-68.4263566
109,Bayside Road,04605,44.5255858,-68.4195663
10,Jennifers Way,04605,44.5177635,-68.4005936
140,Weymouth Way,04605,44.6267391,-68.4449567
1399,Bangor Road,04605,44.6250375,-68.5334982
140,Winkumpaugh Road,04605,44.6415009,-68.5684459
14,American Avenue,04605,44.5515544,-68.4178981
154,North Bend Road,04605,44.5340178,-68.5121868
15,Wildflower Way,04605,44.5165505,-68.4114333
11,Blueberry Way,04605,44.6063088,-68.5888444
15,Silver Way,04605,44.6438136,-68.4786518
14,Argonne Street,04605,44.5534226,-68.4331454
129,Sargent Drive,04605,44.6218252,-68.5864974
160,Bangor Road,04605,44.5674374,-68.4510999
109,Bor Way,04605,44.6111359,-68.5614871
14,Beckwith Court,04605,44.5270944,-68.4005357
150,Alton Avenue,04605,44.4958808,-68.4063144
18,Holt Drive,04605,44.5524293,-68.4334384
160,Bayside Road,04605,44.5217923,-68.4171501
172,Christian Ridge Road,04605,44.5494043,-68.4481220
172,Branchview Drive,04605,44.5985354,-68.5827125
121,Black Island Way,04605,44.6356878,-68.4487232
10,Lakes Lane,04605,44.5619902,-68.4371107
12,Landing Way,04605,44.6289361,-68.5656016
160,Beechland Road,04605,44.5190256,-68.4009330
21,Lakes Lane,04605,44.5621235,-68.4358313
19,Beechland Road,04605,44.5164150,-68.4131018
159,Boggy Brook Road,04605,44.5780312,-68.4591182
15,Branchview Drive,04605,44.6005602,-68.5937550
15,Giles Way,04605,44.5057039,-68.4450435
130,Bayside Road,04605,44.5233702,-68.4176126
154,Pioneer Farm Way,04605,44.5113917,-68.4246391
22,Sennet Way,04605,44.5679980,-68.4368009
110,Pioneer Farm Way,04605,44.5146684,-68.4236821
150,Lakes Lane,04605,44.5698279,-68.4291261
212,Pioneer Farm Way,04605,44.5075677,-68.4268469
18,Landing Way,04605,44.6287344,-68.5658174
19,Boulders Way,04605,44.5477048,-68.5214011
160,Boggy Brook Road,04605,44.5780529,-68.4598990
166,Winkumpaugh Road,04605,44.6411998,-68.5709511
126,Alton Avenue,04605,44.4951009,-68.4069638
101,Christian Ridge Road,04605,44.5460183,-68.4442011
15,Ridge Way,04605,44.5386416,-68.5040546
101,Cove Way,04605,44.6285493,-68.5505395
150,Spindle Road,04605,44.5044001,-68.4316331
141,Bayside Road,04605,44.5222739,-68.4180199
121,Alton Avenue,04605,44.4943557,-68.4082103
194,Hanson Landing Road,04605,44.6288756,-68.5638875
110,Lakes Lane,04605,44.5679293,-68.4311218
1293,Bucksport Road,04605,44.5574068,-68.5471968
146,Water Street,04605,44.5395488,-68.4231094
1181,Happytown Road,04605,44.6163803,-68.6166346
135,Lakes Lane,04605,44.5684828,-68.4292777
110,Hanson Landing Road,04605,44.6345413,-68.5647088
21,Herbs Way,04605,44.6339452,-68.4892425
20,Raymond Way,04605,44.4798436,-68.4241382
145,Gary Moore Road,04605,44.6395511,-68.4324399
102,Walls Farm Way,04605,44.6162936,-68.5916287
194,Branchview Drive,04605,44.5995835,-68.5813000
19,Edaco Court,04605,44.5282922,-68.4305261
135,Hanson Landing Road,04605,44.6332523,-68.5678388
212,Bayside Road,04605,44.5180001,-68.4158541
11,Falls Court,04605,44.5626538,-68.4393269
151,Christian Ridge Road,04605,44.5485935,-68.4461405
16,Sportsmans Court,04605,44.6158537,-68.5234003
18,Patten Way,04605,44.5542482,-68.5544042
11,Argonne Street,04605,44.5533833,-68.4324722
1035,Winkumpaugh Road,04605,44.6265285,-68.6241126
126,Downeast Highway,04605,44.5292460,-68.3937050
141,Lakes Lane,04605,44.5688273,-68.4288651
18,Ridge Way,04605,44.5391487,-68.5026657
10,Moore Farm Circle East,04605,44.5804666,-68.4745891
15,Benoit Way,04605,44.6521051,-68.4708717
110,Beechland Road,04605,44.5186277,-68.4057563
110,Bayside Road,04605,44.5264127,-68.4140145
151,Downeast Highway,04605,44.5277973,-68.3912974
11,Youngs Avenue,04605,44.5402017,-68.4285156
101,Sargent Drive,04605,44.6224411,-68.5887683
20,Argonne Street,04605,44.5541514,-68.4339568
22,Holt Drive,04605,44.5526421,-68.4336818
170,Boggy Brook Road,04605,44.5776447,-68.4611497
19,Homestead Way,04605,44.5191321,-68.4145216
17,Westwood Drive,04605,44.5335213,-68.4374857
143,Franklin Street,04605,44.5388764,-68.4218699
22,Eagle Road,04605,44.5932570,-68.4483308
165,Pioneer Farm Way,04605,44.5107230,-68.4259289
10,Brae Drive,04605,44.5522094,-68.4344729
1633,Bucksport Road,04605,44.5622686,-68.5803085
106,Hanson Landing Road,04605,44.6354298,-68.5651812
17,Taylor Way,04605,44.5835365,-68.4925121
23,Sandy Point Way,04605,44.6538240,-68.5038369
104,Nicolin Road,04605,44.6203064,-68.5171938
23,Poors Way,04605,44.5504630,-68.4596002
18,Sportsmans Court,04605,44.6159160,-68.5232359
151,Sargent Drive,04605,44.6212102,-68.5844661
11,Valley Way,04605,44.5368101,-68.4174031
11,Tracys Way,04605,44.5882349,-68.5014914
18,Sugar Way,04605,44.5456918,-68.4464954
113,Winkumpaugh Road,04605,44.6432443,-68.5664343
28,Eagle Road,04605,44.5933573,-68.4476684
165,Branchview Drive,04605,44.5977153,-68.5824978
165,Bangor Road,04605,44.5680042,-68.4510253
34,Eagle Road,04605,44.5931476,-68.4471223
10,Patrick's Way,04605,44.5516119,-68.3985781
165,Alton Avenue,04605,44.4964606,-68.4052834
19,Pioneer Farm Way,04605,44.5169545,-68.4182490
109,Lakes Lane,04605,44.5672504,-68.4303854
11,Stoney Ridge Road,04605,44.5195669,-68.4020033
143,Boggy Brook Road,04605,44.5771444,-68.4581566
2,Gameston Park Road,04605,44.5046637,-68.4178303
10,Periwinkle Way,04605,44.6190017,-68.4515407
146,Hanson Landing Road,04605,44.6325938,-68.5651015
1629,Bucksport Road,04605,44.5610401,-68.5779689
15,Argonne Street,04605,44.5538222,-68.4329275
210,Twin Hill Road,04605,44.5531285,-68.5376990
19,Red Bridge Road,04605,44.5511601,-68.4509822
22,Benoit Way,04605,44.6512272,-68.4688934
22,Beals Avenue,04605,44.5426949,-68.4168409
17,Eastward Lane,04605,44.5312244,-68.4001094
18,Wilson Way,04605,44.6176382,-68.5621188
152,Beechland Road,04605,44.5189582,-68.4018082
152,Boggy Brook Road,04605,44.5776291,-68.4597517
21,Branchview North,04605,44.6002027,-68.5856995
18,Youngs Avenue,04605,44.5405296,-68.4283802
180,Abram Way,04605,44.5353682,-68.4092362
152,Christian Ridge Road,04605,44.5483911,-68.4470993
180,Bangor Road,04605,44.5683526,-68.4532763
127,Nicolin Road,04605,44.6203411,-68.5147670
152,Franklin Street,04605,44.5386797,-68.4212488
19,Sportsmans Court,04605,44.6156767,-68.5230425
205,Pioneer Farm Way,04605,44.5082483,-68.4279410
134,Beechland Road,04605,44.5189126,-68.4034256
180,Hanson Landing Road,04605,44.6300763,-68.5635949
160,Old County Way,04605,44.6398309,-68.6070864
115,Beechland Road,04605,44.5177425,-68.4051928
115,Bor Way,04605,44.6117209,-68.5614449
19,Trinity Way,04605,44.5559749,-68.5912261
2,Whale Watch Way,04605,44.5024136,-68.4295390
126,Lakes Lane,04605,44.5685218,-68.4307760
152,Spindle Road,04605,44.5045473,-68.4304617
1497,Bangor Road,04605,44.6303619,-68.5400301
180,Red Bridge Road,04605,44.5525425,-68.4662727
23,Gameston Park Road,04605,44.5043296,-68.4158775
11,Red Bridge Road,04605,44.5512513,-68.4503015
1520,Bangor Road,04605,44.6301918,-68.5425024
155,Lakes Lane,04605,44.5696601,-68.4279754
1056,Mariaville Road,04605,44.6478960,-68.4269421
190,Bangor Road,04605,44.5686628,-68.4541298
12,Okane Way,04605,44.6634290,-68.4303842
15,Downeast Highway,04605,44.5309845,-68.4050203
191,Surry Road,04605,44.5262348,-68.4322640
1458,Bangor Road,04605,44.6277668,-68.5383172
102,Old County Way,04605,44.6374309,-68.6003570
21,Alison Avenue,04605,44.5455437,-68.4410332
1422,Bangor Road,04605,44.6259157,-68.5358233
109,Sargent Drive,04605,44.6224475,-68.5880561
157,Pioneer Farm Way,04605,44.5111054,-68.4258875
153,Black Island Way,04605,44.6345899,-68.4460103
148,Franklin Street,04605,44.5388153,-68.4213670
138,Lakes Lane,04605,44.5692009,-68.4297556
113,Bayside Road,04605,44.5254315,-68.4184478
145,Red Bridge Road,04605,44.5520922,-68.4624053
23,Travis Court,04605,44.5411880,-68.4765223
181,Surry Road,04605,44.5271708,-68.4322171
23,Christopher Way,04605,44.6016478,-68.4105811
21,Whispering Pines Way,04605,44.5378110,-68.5004051
108,Bayside Road,04605,44.5259394,-68.4174171
153,Gary Moore Road,04605,44.6401541,-68.4323962
217,Sargent Drive,04605,44.6240691,-68.5834120
16,Eagle Road,04605,44.5935872,-68.4486678
1375,Bangor Road,04605,44.6238332,-68.5317997
177,Sargent Drive,04605,44.6226648,-68.5834346
14,Sportsmans Court,04605,44.6157779,-68.5235648
177,Surry Road,04605,44.5275899,-68.4332073
123,North Bend Road,04605,44.5356491,-68.5136647
203,Branchview Drive,04605,44.5992372,-68.5801685
17,Silver Way,04605,44.6434982,-68.4785979
133,Hanson Landing Road,04605,44.6333154,-68.5678573
11,Marion Road,04605,44.4943569,-68.4049778
1535,Bucksport Road,04605,44.5599425,-68.5697166
14,Industrial Road,04605,44.5753163,-68.4552074
137,Spindle Road,04605,44.5037323,-68.4295010
137,Sargent Drive,04605,44.6216384,-68.5858748
14,Stoney Ridge Road,04605,44.5197790,-68.4029700
115,Sunset Park Road,04605,44.6207615,-68.4458960
482,Water Street,04605,44.5316639,-68.4171838
21,Vinegar Hill Way,04605,44.5725086,-68.4935904
87,Barrett Way,04605,44.5098534,-68.4293658
91,Barrett Way,04605,44.5102938,-68.4292168
83,Barrett Way,04605,44.5095592,-68.4299348
82,Barrett Way,04605,44.5107599,-68.4306088
60,Barrett Way,04605,44.5105665,-68.4324539
54,Barrett Way,04605,44.5103321,-68.4332802
55,Barrett Way,04605,44.5096975,-68.4324057
36,Barrett Way,04605,44.5098784,-68.4343729
623,Nicolin Road,04605,44.6444479,-68.4986836
4,Maggie Way,04605,44.5438387,-68.5036139
16,Maggie Way,04605,44.5430632,-68.5033121
23,Dollard Farm Way,04605,44.5438075,-68.5067865
30,Dollard Farm Way,04605,44.5446291,-68.5073397
47,Dollard Farm Way,04605,44.5440595,-68.5057269
59,Dollard Farm Way,04605,44.5438313,-68.5050050
58,Dollard Farm Way,04605,44.5444286,-68.5046978
46,Dollard Farm Way,04605,44.5445974,-68.5052125
35,Joseph Way,04605,44.5451826,-68.5062524
42,Dollard Farm Way,04605,44.5447598,-68.5063315
71,Dollard Farm Way,04605,44.5439891,-68.5029958
125,Stackpole Way,04605,44.5350430,-68.5258220
122,Stackpole Way,04605,44.5345936,-68.5216910
161,Stackpole Way,04605,44.5338967,-68.5229554
155,Stackpole Way,04605,44.5334268,-68.5236074
151,Stackpole Way,04605,44.5332943,-68.5242189
141,Stackpole Way,04605,44.5336127,-68.5250155
135,Stackpole Way,04605,44.5338633,-68.5257435
129,Stackpole Way,04605,44.5342884,-68.5262246
104,Graham Way,04605,44.6043494,-68.4098670
92,Benoit Way,04605,44.6475615,-68.4704716
98,Patten Way,04605,44.5511544,-68.5598415
128,Patten Way,04605,44.5498010,-68.5625963
124,Patten Way,04605,44.5502818,-68.5623661
53,Woodfield Way,04605,44.6062455,-68.5370196
60,Stoney Ridge Road,04605,44.5210630,-68.4049137
72,Stoney Ridge Road,04605,44.5209892,-68.4062986
52,Stoney Ridge Road,04605,44.5211343,-68.4039125
150,Sargent Drive,04605,44.6217849,-68.5840838
127,Upper Boggy Brook Road,04605,44.6198476,-68.4974521
99,Joy Way,04605,44.5083497,-68.4476163
106,Autumn Road,04605,44.6191222,-68.5388836
81,Autumn Road,04605,44.6200776,-68.5369349
6,Kylies Way,04605,44.5946362,-68.4073572
21,Alexis Road,04605,44.5411940,-68.5092820
18,Noahs Way,04605,44.6399637,-68.4276254
14,Noahs Way,04605,44.6400470,-68.4271833
11,Straw Way,04605,44.5344701,-68.4184271
11,Moonlit Way,04605,44.6298175,-68.4320431
65,Moonlit Way,04605,44.6291343,-68.4268494
93,Moonlit Way,04605,44.6289623,-68.4239705
2,Hillside Drive,04605,44.5309387,-68.4322812
4,Argonne Street,04605,44.5523913,-68.4321294
4,Brookside Court,04605,44.5347678,-68.4080277
4,Haynes Avenue,04605,44.5319395,-68.5114427
4,Ladybug Lane,04605,44.5405717,-68.4765907
4,McDonald Avenue,04605,44.5473741,-68.4102730
4,McKenzie Avenue,04605,44.5451255,-68.4150416
4,Spring House Lane,04605,44.5330434,-68.4336956
4,State Street,04605,44.5412112,-68.4251763
4,Surry Road,04605,44.5390926,-68.4281614
4,Turkey Hill Way,04605,44.5707738,-68.4265476
4,Union Street,04605,44.5440741,-68.4180734
6,Acadia Way,04605,44.5283206,-68.3932112
6,Argonne Street,04605,44.5526174,-68.4323475
6,Court Street,04605,44.5387574,-68.4295304
6,Crawfish Way,04605,44.6185881,-68.4535298
6,Downeast Highway,04605,44.5331031,-68.4064398
6,Fletcher Street,04605,44.5469073,-68.4114107
6,Hallbrook Road,04605,44.5865404,-68.4362061
6,Laurel Street,04605,44.5372520,-68.4300549
6,Main Street,04605,44.5397767,-68.4281422
6,Old Mill Road,04605,44.5632119,-68.4402219
6,Parcher Street,04605,44.5480417,-68.4193368
6,Red Bridge Road,04605,44.5510493,-68.4494725
6,Whispering Pines Way,04605,44.5396771,-68.4989290
8,Avery Lane,04605,44.5196008,-68.4007446
8,Central Street,04605,44.5446500,-68.4260236
8,Downeast Highway,04605,44.5326700,-68.4054059
8,Fairground Road,04605,44.5446724,-68.4135859
8,Farrell Way,04605,44.6020435,-68.4502134
8,Fletcher Street,04605,44.5471380,-68.4116287
8,Harmony Way,04605,44.6393895,-68.4938160
8,Landing Way,04605,44.6288628,-68.5652492
8,Lee Way,04605,44.6214395,-68.5615356
8,Liberty Street,04605,44.5418070,-68.4281789
8,Main Street,04605,44.5400313,-68.4277369
8,Mayflower Way,04605,44.5420849,-68.5165945
8,McDonald Avenue,04605,44.5478218,-68.4106776
8,Okane Way,04605,44.6640103,-68.4296090
8,Old Mill Road,04605,44.5633259,-68.4405167
8,Peaceful Acres Way,04605,44.6330048,-68.4853109
8,South Street,04605,44.5400428,-68.4264402
8,Spencer Street,04605,44.5468762,-68.4132364
8,Union Street,04605,44.5442986,-68.4179516
8,Washington Street,04605,44.5355505,-68.4193351
8,Western Avenue,04605,44.5548385,-68.4327225
10,Bayview Avenue,04605,44.5447940,-68.4180096
10,Liberty Street,04605,44.5417900,-68.4283742
10,Lincoln Street,04605,44.5454895,-68.4211246
12,Central Street,04605,44.5445933,-68.4263767
12,Pump Station Point,04605,44.5544299,-68.4457704
12,Saunders Way,04605,44.5806724,-68.5055680
12,Sterling Street,04605,44.5457746,-68.4267805
14,Chapel Street,04605,44.5399961,-68.4297135
14,Liberty Street,04605,44.5417108,-68.4287463
14,McKenzie Avenue,04605,44.5454572,-68.4156489
14,Westwood Drive,04605,44.5325993,-68.4358206
16,Fifth Street,04605,44.5492917,-68.4279798
16,Pleasant Street,04605,44.5400505,-68.4306948
16,State Street,04605,44.5414681,-68.4252367
16,Western Avenue,04605,44.5543872,-68.4334005
16,Willow Street,04605,44.5409021,-68.4281563
18,Hillside Drive,04605,44.5308055,-68.4335474
18,Maddocks Avenue,04605,44.5494359,-68.4111901
18,Merrill Lane,04605,44.5373165,-68.4108276
18,South Street,04605,44.5389592,-68.4257900
20,Anderson Road,04605,44.5445161,-68.4407598
20,Water Street,04605,44.5408979,-68.4246192
22,Cards Court,04605,44.5341290,-68.4081160
22,Deerfield Road,04605,44.5187902,-68.4110647
22,Garland Road,04605,44.6393824,-68.4248130
22,Westwood Drive,04605,44.5328556,-68.4385179
24,Cards Court,04605,44.5340929,-68.4080849
24,Lincoln Street,04605,44.5458581,-68.4201328
24,Mountain View Drive,04605,44.5316851,-68.4339290
24,Oakwood Lane,04605,44.5591259,-68.5837812
24,Wildwood Drive,04605,44.6325167,-68.5625932
26,Cards Court,04605,44.5340567,-68.4080475
26,Meadow View Lane,04605,44.5488140,-68.4084393
26,Meadow View Lane,04605,44.5488820,-68.4085267
28,Bangor Road,04605,44.5626921,-68.4407054
28,Central Street,04605,44.5444010,-68.4275304
30,Hillside Drive,04605,44.5306491,-68.4346942
30,Mountain View Drive,04605,44.5316203,-68.4344645
30,South Street,04605,44.5365221,-68.4272111
32,Bayview Avenue,04605,44.5457268,-68.4190829
32,Beals Avenue,04605,44.5418226,-68.4161384
32,Central Street,04605,44.5444885,-68.4279261
32,Harmony Way,04605,44.6380639,-68.4922829
32,Maple Street,04605,44.5369957,-68.4283015
32,Resort Way,04605,44.5332151,-68.4046263
32,Tannery Brook Way,04605,44.6306107,-68.5539464
34,Bayside Road,04605,44.5312446,-68.4170433
34,Branch Pond Road,04605,44.6141484,-68.5279074
34,Bucksport Road,04605,44.5389517,-68.4305859
34,Carter Way,04605,44.5691293,-68.5418290
34,Central Street,04605,44.5446022,-68.4281579
34,Christian Ridge Road,04605,44.5409601,-68.4416939
34,Downeast Highway,04605,44.5312785,-68.4026952
34,Foster Street,04605,44.5335482,-68.4168252
34,Garland Road,04605,44.6393255,-68.4233320
34,Graham Way,04605,44.5996941,-68.4061970
34,Hagans Elbow,04605,44.5380155,-68.4936944
34,High Street,04605,44.5415526,-68.4179160
34,Holt Drive,04605,44.5533250,-68.4343362
34,Homestead Way,04605,44.5203011,-68.4133711
34,Laurel Street,04605,44.5375198,-68.4268930
34,Red Bridge Road,04605,44.5502695,-68.4520544
34,Sterling Street,04605,44.5465620,-68.4284975
34,Sugar Way,04605,44.5452832,-68.4485638
34,Travis Court,04605,44.5409160,-68.4770848
34,Wilson Way,04605,44.6185656,-68.5621686
34,Winkumpaugh Road,04605,44.6436073,-68.5589665
36,Bayview Avenue,04605,44.5461611,-68.4195192
36,Brimmer Point Way,04605,44.5942841,-68.4475777
36,Deane Street,04605,44.5389847,-68.4192695
36,Dollard Farm Way,04605,44.5449919,-68.5069212
36,Grand View Road,04605,44.5200101,-68.4075857
36,Holt Drive,04605,44.5535195,-68.4345232
36,Joseph Way,04605,44.5460980,-68.5055963
36,Laffin Way,04605,44.6417237,-68.4571145
36,Lakes Lane,04605,44.5630624,-68.4354507
36,Lundin Way,04605,44.5228994,-68.4224117
36,Oak Street,04605,44.5446104,-68.4217313
36,Patten Way,04605,44.5539012,-68.5554645
36,Riverside Lane,04605,44.5230060,-68.4274946
36,Surry Road,04605,44.5376341,-68.4299568
36,Third Street,04605,44.5467120,-68.4287855
36,Vista Way,04605,44.5559539,-68.5866557
38,Atlantic Highway,04605,44.5559703,-68.5402955
38,Beechland Road,04605,44.5186950,-68.4126826
38,Branchview North,04605,44.6015509,-68.5863325
38,Gameston Park Road,04605,44.5055926,-68.4146194
38,North Street,04605,44.5644103,-68.4395115
38,Oak Street,04605,44.5448045,-68.4218490
38,Spindle Road,04605,44.4987872,-68.4235995
38,Sterling Street,04605,44.5467515,-68.4285963
38,Wildwood Drive,04605,44.6323107,-68.5616933
40,Buzzell Way,04605,44.5285032,-68.5142024
40,Courtney Court,04605,44.5416969,-68.4775562
40,Hanson Landing Road,04605,44.6398327,-68.5665227
40,Haynes Avenue,04605,44.5329703,-68.5082876
40,Kissick Point Way,04605,44.4903143,-68.4233434
40,Mayflower Way,04605,44.5409391,-68.5181523
40,Washington Street,04605,44.5361785,-68.4171262
42,Bucksport Road,04605,44.5384874,-68.4313708
42,Christian Ridge Road,04605,44.5416057,-68.4420905
42,Garland Road,04605,44.6401321,-68.4226305
42,Grand View Road,04605,44.5198937,-68.4068382
42,Harmony Way,04605,44.6378094,-68.4917367
42,Holt Drive,04605,44.5539083,-68.4348656
42,Laurel Street,04605,44.5374181,-68.4263716
42,Lundin Way,04605,44.5242489,-68.4240092
42,North Street,04605,44.5646256,-68.4393583
42,Wilson Way,04605,44.6193260,-68.5620746
42,Winkumpaugh Road,04605,44.6434929,-68.5596609
44,Beechland Road,04605,44.5179656,-68.4117588
44,Bohn Road,04605,44.6468460,-68.5583934
44,Downeast Highway,04605,44.5312287,-68.4017833
44,Gary Moore Road,04605,44.6330599,-68.4368906
44,Kissick Point Way,04605,44.4907569,-68.4236283
44,Porcupine Cove Way,04605,44.6404330,-68.4554810
44,Woodland Road,04605,44.5426688,-68.4914196
46,Bayside Road,04605,44.5299716,-68.4163323
46,Birch Avenue,04605,44.5467857,-68.4237555
46,State Street,04605,44.5424425,-68.4256425
46,Tanglewood Way,04605,44.5480127,-68.4507789
46,Tinker Farm Way,04605,44.5296154,-68.4206338
46,Tinker Farm Way,04605,44.5296383,-68.4207216
48,Beals Avenue,04605,44.5410413,-68.4156301
48,Catherine Avenue,04605,44.5461887,-68.5088876
48,Christian Ridge Road,04605,44.5419308,-68.4423014
48,Gameston Park Road,04605,44.5050668,-68.4139076
48,Wildwood Drive,04605,44.6320411,-68.5606489
48,Winkumpaugh Road,04605,44.6433105,-68.5602171
50,Aquarius Lane,04605,44.5141332,-68.4300664
50,Carter Way,04605,44.5683725,-68.5405693
50,Hanson Landing Road,04605,44.6386680,-68.5668277
50,Jones Point Way,04605,44.6244774,-68.5625780
50,Meadow View Lane,04605,44.5498408,-68.4094046
50,Meadow View Lane,04605,44.5497867,-68.4093736
29,Alexis Road,04605,44.5406943,-68.5092862
50,Red Bridge Road,04605,44.5503761,-68.4536460
50,Resort Way,04605,44.5338204,-68.4032923
50,Washington Street,04605,44.5362870,-68.4163322
50,Wildflower Way,04605,44.5143168,-68.4094867
50,Woodland Road,04605,44.5429893,-68.4916246
52,Beals Avenue,04605,44.5406942,-68.4155392
52,Christian Ridge Road,04605,44.5422725,-68.4431290
52,Flower Way,04605,44.5983554,-68.4470855
52,Happytown Road,04605,44.5592131,-68.5498081
52,Harmony Way,04605,44.6369254,-68.4913409
52,Laurel Street,04605,44.5375975,-68.4253314
52,Main Street,04605,44.5411667,-68.4252648
52,North Street,04605,44.5650528,-68.4392849
52,Park Street,04605,44.5464671,-68.4212786
54,Flower Way,04605,44.5981343,-68.4469805
54,Ginnie May Way,04605,44.5119790,-68.4313581
54,Riverside Lane,04605,44.5205581,-68.4267698
54,Spindle Road,04605,44.4993848,-68.4251786
54,Walls Farm Way,04605,44.6200332,-68.5901088
56,Alton Avenue,04605,44.4940139,-68.4152761
56,Foster Street,04605,44.5339991,-68.4143475
56,Harmony Way,04605,44.6366725,-68.4911666
56,School Street,04605,44.5447559,-68.4247071
56,Surry Road,04605,44.5362904,-68.4303790
56,Washington Street,04605,44.5364831,-68.4159526
56,Woodfield Way,04605,44.6065518,-68.5359586
58,American Avenue,04605,44.5508564,-68.4178295
58,Bangor Road,04605,44.5633530,-68.4433057
58,Bridgetwin Road,04605,44.5941095,-68.4552586
58,Flower Way,04605,44.5979443,-68.4467744
58,Gary Moore Road,04605,44.6335827,-68.4361165
58,Laurel Street,04605,44.5377403,-68.4241972
58,North Bend Road,04605,44.5406872,-68.5150011
58,North Street,04605,44.5654441,-68.4392245
58,School Street,04605,44.5449054,-68.4249007
58,Winkumpaugh Road,04605,44.6432371,-68.5610184
60,Addie Road,04605,44.5372802,-68.5056521
60,Bucksport Road,04605,44.5387772,-68.4326078
60,Christian Ridge Road,04605,44.5428212,-68.4430356
60,Downeast Highway,04605,44.5305778,-68.4002123
60,Grand View Road,04605,44.5201902,-68.4049980
60,Oak Street,04605,44.5457803,-68.4225317
62,Bayside Road,04605,44.5289472,-68.4175822
62,Beals Avenue,04605,44.5401697,-68.4150850
62,Bridgetwin Road,04605,44.5941032,-68.4558319
62,Flower Way,04605,44.5977328,-68.4467827
62,Spring Street,04605,44.5467391,-68.4216599
62,Steamboat Way,04605,44.6519440,-68.4929122
64,Beals Avenue,04605,44.5398759,-68.4148361
64,Birch Avenue,04605,44.5476683,-68.4229348
64,Buttermilk Road,04605,44.5206349,-68.3894593
64,Harmony Way,04605,44.6363808,-68.4903496
64,Northeast Cove Way,04605,44.6383666,-68.4386802
64,Oak Street,04605,44.5460559,-68.4227367
66,Benoit Way,04605,44.6480624,-68.4688088
66,Buttermilk Road,04605,44.5196126,-68.3893693
66,Lakes Lane,04605,44.5647472,-68.4339107
66,North Street,04605,44.5661503,-68.4391107
66,Sugar Way,04605,44.5451960,-68.4519447
68,Bayside Road,04605,44.5285109,-68.4176620
68,Buttermilk Road,04605,44.5193738,-68.3893278
68,Gary Moore Road,04605,44.6343508,-68.4348735
68,Graham Way,04605,44.6014667,-68.4077666
68,Northeast Cove Way,04605,44.6384925,-68.4395616
68,Red Bridge Road,04605,44.5506459,-68.4554691
70,Bridgetwin Road,04605,44.5941621,-68.4568645
70,Champion Lease Way,04605,44.6258180,-68.4757937
70,Hancock Street,04605,44.5383311,-68.4199809
70,Harmony Way,04605,44.6358178,-68.4902663
70,Park Street,04605,44.5475392,-68.4205504
70,Sunset Park Road,04605,44.6154475,-68.4444593
72,Champion Lease Way,04605,44.6257121,-68.4752778
72,Spring Street,04605,44.5474801,-68.4222065
74,Atlantic Highway,04605,44.5568562,-68.5423345
74,Beals Avenue,04605,44.5393027,-68.4145524
74,Birch Avenue,04605,44.5482872,-68.4224817
74,Grand View Road,04605,44.5202872,-68.4037387
74,Nicolin Road,04605,44.6189556,-68.5202994
74,Spindle Road,04605,44.4997705,-68.4275899
76,Champion Lease Way,04605,44.6255027,-68.4747629
76,Gary Moore Road,04605,44.6348043,-68.4346610
76,North Bend Road,04605,44.5395009,-68.5144256
76,Northeast Cove Way,04605,44.6389939,-68.4408429
76,Patriot Road,04605,44.5889961,-68.4367178
76,Reed Way,04605,44.6272689,-68.5675176
76,Riverside Lane,04605,44.5182803,-68.4267418
78,Beechland Road,04605,44.5185004,-68.4089914
78,Bridgetwin Road,04605,44.5938819,-68.4575664
78,Christian Ridge Road,04605,44.5433065,-68.4447241
78,Dumont Way,04605,44.6220386,-68.5387786
78,Gator Way,04605,44.6247027,-68.4483041
78,Union Street,04605,44.5509388,-68.4128179
80,Alton Avenue,04605,44.4944191,-68.4126559
80,Beals Avenue,04605,44.5390003,-68.4143792
80,Graham Way,04605,44.6017348,-68.4082427
80,Maddocks Avenue,04605,44.5507279,-68.4138272
82,North Bend Road,04605,44.5390501,-68.5142658
82,Red Bridge Road,04605,44.5509582,-68.4567629
84,Gator Way,04605,44.6250517,-68.4469330
84,Guptil Farm Road,04605,44.5591086,-68.4593124
84,Wildwood Drive,04605,44.6312742,-68.5578937
86,Clearwater Way,04605,44.5622865,-68.5427453
86,Oak Street,04605,44.5469602,-68.4235461
88,Birch Avenue,04605,44.5486532,-68.4218612
88,Graham Way,04605,44.6026680,-68.4094052
88,Hancock Street,04605,44.5365936,-68.4182045
88,Oak Street,04605,44.5470833,-68.4238470
88,Park Street,04605,44.5485030,-68.4179915
88,Red Bridge Road,04605,44.5508724,-68.4576576
88,Sennet Way,04605,44.5704486,-68.4335531
90,Bangor Road,04605,44.5647632,-68.4463460
90,Church Street,04605,44.5450522,-68.4192029
92,Birch Avenue,04605,44.5487246,-68.4217346
92,Haynes Avenue,04605,44.5300588,-68.5053734
92,Nicolin Road,04605,44.6200158,-68.5198054
92,Northeast Cove Way,04605,44.6395658,-68.4418083
92,Surry Road,04605,44.5335383,-68.4309218
92,Walls Farm Way,04605,44.6171979,-68.5914900
92,Wildwood Drive,04605,44.6305043,-68.5578428
94,Birch Avenue,04605,44.5490300,-68.4216057
94,Christian Ridge Road,04605,44.5454497,-68.4448234
94,Grant Street,04605,44.5436119,-68.4317678
94,Maddocks Avenue,04605,44.5514021,-68.4153942
96,Church Street,04605,44.5451761,-68.4187863
96,Guptil Farm Road,04605,44.5594701,-68.4605494
96,Haynes Avenue,04605,44.5297289,-68.5050741
96,Pickeral Cove Way,04605,44.5944476,-68.5448556
98,Clearwater Way,04605,44.5629328,-68.5422743
98,North Street,04605,44.5681960,-68.4386313
98,Sandy Point Way,04605,44.6504342,-68.4985942
98,Surry Road,04605,44.5331293,-68.4310643
98,Walls Farm Way,04605,44.6166806,-68.5916071
100,Bayside Road,04605,44.5263430,-68.4180045
100,Birch Avenue,04605,44.5494468,-68.4212365
100,Main Street,04605,44.5415976,-68.4241403
102,Main Street,04605,44.5416066,-68.4241213
104,Main Street,04605,44.5416377,-68.4240454
104,Main Street,04605,44.5416918,-68.4240764
104,Patten Way,04605,44.5509053,-68.5606303
108,Main Street,04605,44.5416466,-68.4240265
110,Oak Street,04605,44.5481405,-68.4246234
112,North Street,04605,44.5691549,-68.4386473
116,State Street,04605,44.5456759,-68.4259380
118,Branch Pond Road,04605,44.6099791,-68.5341921
118,North Street,04605,44.5696599,-68.4397507
120,Hatchery Way,04605,44.6256670,-68.4429563
120,State Street,04605,44.5459825,-68.4260357
122,Main Street,04605,44.5417220,-68.4238054
124,Main Street,04605,44.5417398,-68.4237675
128,North Street,04605,44.5698587,-68.4380675
130,High Street,04605,44.5376282,-68.4127944
132,High Street,04605,44.5374330,-68.4133439
132,North Street,04605,44.5708559,-68.4385554
134,Bangor Road,04605,44.5666998,-68.4493564
134,Grant Street,04605,44.5453238,-68.4329471
134,North Street,04605,44.5706776,-68.4379841
136,High Street,04605,44.5373965,-68.4132561
140,High Street,04605,44.5372952,-68.4128166
146,Franklin Street,04605,44.5389193,-68.4214667
148,North Street,04605,44.5710862,-68.4377849
148,State Street,04605,44.5472482,-68.4262058
162,High Street,04605,44.5362537,-68.4115999
178,Jordan Way,04605,44.6326588,-68.4864423
178,Red Bridge Road,04605,44.5521605,-68.4654578
180,High Street,04605,44.5355478,-68.4108895
180,State Street,04605,44.5490881,-68.4268802
184,State Street,04605,44.5493631,-68.4269530
200,High Street,04605,44.5353755,-68.4097837
208,High Street,04605,44.5347774,-68.4098841
212,High Street,04605,44.5339586,-68.4090994
220,High Street,04605,44.5333332,-68.4082814
222,Bangor Road,04605,44.5699265,-68.4567312
222,Clearwater Way,04605,44.5688309,-68.5348292
228,Christian Ridge Road,04605,44.5532119,-68.4498865
234,Main Street,04605,44.5435401,-68.4192683
240,State Street,04605,44.5512189,-68.4281182
242,Water Street,04605,44.5386291,-68.4219353
244,Main Street,04605,44.5441099,-68.4189165
260,High Street,04605,44.5311994,-68.4056600
260,Water Street,04605,44.5384028,-68.4216858
270,Main Street,04605,44.5443255,-68.4170575
276,Christian Ridge Road,04605,44.5564904,-68.4502081
278,High Street,04605,44.5291070,-68.4031957
278,State Street,04605,44.5531074,-68.4304038
286,Main Street,04605,44.5447389,-68.4160274
288,Main Street,04605,44.5448323,-68.4158062
288,Nicolin Road,04605,44.6307610,-68.5010708
282,High Street,04605,44.5284389,-68.4028375
290,Main Street,04605,44.5449160,-68.4154591
290,State Street,04605,44.5537701,-68.4305988
306,Main Street,04605,44.5453757,-68.4146929
308,State Street,04605,44.5548707,-68.4319667
318,Happytown Road,04605,44.5721839,-68.5679387
318,Main Street,04605,44.5457759,-68.4137259
320,Christian Ridge Road,04605,44.5585422,-68.4509695
324,Happytown Road,04605,44.5726628,-68.5684074
324,High Street,04605,44.5258531,-68.3998688
324,Main Street,04605,44.5458764,-68.4131332
326,Branchview Drive,04605,44.5966258,-68.5702901
326,Christian Ridge Road,04605,44.5594343,-68.4511563
326,State Street,04605,44.5556215,-68.4326834
330,Bayside Road,04605,44.5095423,-68.4132652
330,Branchview Drive,04605,44.5964624,-68.5699385
334,Bayside Road,04605,44.5089507,-68.4163975
334,Grant Street,04605,44.5502594,-68.4471697
334,State Street,04605,44.5559785,-68.4329569
338,Shore Road,04605,44.5615469,-68.4430900
338,State Street,04605,44.5564032,-68.4332928
340,Branchview Drive,04605,44.5960870,-68.5694625
342,Bayside Road,04605,44.5080742,-68.4166578
342,Happytown Road,04605,44.5733506,-68.5693595
342,Main Street,04605,44.5470851,-68.4100934
344,State Street,04605,44.5567796,-68.4338431
344,Surry Road,04605,44.5166545,-68.4328855
346,Bayside Road,04605,44.5076779,-68.4166177
350,Main Street,04605,44.5475881,-68.4090056
352,Branch Pond Road,04605,44.6159973,-68.5533462
352,Gary Moore Road,04605,44.6537640,-68.4338336
352,Mariaville Road,04605,44.6016903,-68.4516406
352,Shore Road,04605,44.5616709,-68.4417477
352,Surry Road,04605,44.5162660,-68.4316939
356,Christian Ridge Road,04605,44.5608227,-68.4515650
356,Shore Road,04605,44.5617421,-68.4415707
356,State Street,04605,44.5575937,-68.4346222
360,Main Street,04605,44.5492004,-68.4074282
362,Shore Road,04605,44.5619772,-68.4408633
364,Happytown Road,04605,44.5743416,-68.5707377
364,Shore Road,04605,44.5621430,-68.4407169
366,Main Street,04605,44.5485358,-68.4068684
366,Surry Road,04605,44.5150634,-68.4333539
368,Gary Moore Road,04605,44.6544651,-68.4336187
368,High Street,04605,44.5224943,-68.3963043
368,Shore Road,04605,44.5624393,-68.4405567
368,State Street,04605,44.5581370,-68.4352528
370,Christian Ridge Road,04605,44.5616949,-68.4522809
370,Gary Moore Road,04605,44.6566494,-68.4329542
372,Bangor Road,04605,44.5749743,-68.4695690
372,High Street,04605,44.5222207,-68.3956339
372,Main Street,04605,44.5494752,-68.4066071
374,Main Street,04605,44.5489188,-68.4060651
378,Main Street,04605,44.5491153,-68.4057672
378,State Street,04605,44.5588688,-68.4357872
380,Happytown Road,04605,44.5752504,-68.5718268
382,Main Street,04605,44.5492847,-68.4054634
382,State Street,04605,44.5590770,-68.4360244
386,Bangor Road,04605,44.5743706,-68.4713882
386,Mariaville Road,04605,44.6038529,-68.4501837
388,Bangor Road,04605,44.5756542,-68.4715592
390,Mariaville Road,04605,44.6045046,-68.4490372
390,State Street,04605,44.5597485,-68.4371008
394,Christian Ridge Road,04605,44.5643405,-68.4529802
394,Water Street,04605,44.5360921,-68.4196192
398,State Street,04605,44.5604157,-68.4372959
400,Happytown Road,04605,44.5760307,-68.5734521
404,Surry Road,04605,44.5127741,-68.4355716
406,State Street,04605,44.5607194,-68.4377211
408,Mariaville Road,04605,44.6064127,-68.4480110
410,Gary Moore Road,04605,44.6577634,-68.4343118
412,Water Street,04605,44.5352945,-68.4194447
412,Bayside Road,04605,44.5054259,-68.4172440
412,Winkumpaugh Road,04605,44.6318811,-68.5953332
416,State Street,04605,44.5612114,-68.4380059
418,Winkumpaugh Road,04605,44.6315537,-68.5956695
420,Christian Ridge Road,04605,44.5668137,-68.4533977
422,Winkumpaugh Road,04605,44.6307653,-68.5954544
424,Bayside Road,04605,44.5055549,-68.4160476
424,High Street,04605,44.5190602,-68.3955408
428,Main Street,04605,44.5509017,-68.4013363
430,High Street,04605,44.5186767,-68.3953749
432,Winkumpaugh Road,04605,44.6299327,-68.5954917
434,Main Street,04605,44.5509799,-68.4008130
436,High Street,04605,44.5182562,-68.3950143
440,Mariaville Road,04605,44.6092876,-68.4449402
440,North Street,04605,44.5881609,-68.4244870
442,Main Street,04605,44.5511117,-68.4001948
444,Bayside Road,04605,44.5034286,-68.4166098
446,Happytown Road,04605,44.5785431,-68.5760600
450,Mariaville Road,04605,44.6111056,-68.4429947
452,Main Street,04605,44.5510199,-68.3989996
456,Main Street,04605,44.5514425,-68.3988883
464,Water Street,04605,44.5324303,-68.4182900
466,Bayside Road,04605,44.5014311,-68.4194852
470,Scotts Neck Road,04605,44.6414712,-68.4714160
470,Surry Road,04605,44.5083225,-68.4383508
476,Water Street,04605,44.5318071,-68.4178872
478,Mariaville Road,04605,44.6136885,-68.4400523
488,Bayside Road,04605,44.5000121,-68.4201471
496,Bucksport Road,04605,44.5393484,-68.4778101
506,Bayside Road,04605,44.4989559,-68.4187047
512,Bucksport Road,04605,44.5380873,-68.4806220
514,Mariaville Road,04605,44.6160762,-68.4395567
516,Bayside Road,04605,44.4983244,-68.4184343
526,Main Street,04605,44.5509278,-68.3926490
542,Bucksport Road,04605,44.5394004,-68.4813152
546,Bayside Road,04605,44.4960279,-68.4200608
554,North Street,04605,44.5915790,-68.4159491
556,Surry Road,04605,44.5029059,-68.4408056
560,High Street,04605,44.5122113,-68.3925480
566,Bayside Road,04605,44.4946579,-68.4197474
596,Bucksport Road,04605,44.5394753,-68.4859278
596,Red Bridge Road,04605,44.5697488,-68.4944959
612,Nicolin Road,04605,44.6429357,-68.4997622
620,Nicolin Road,04605,44.6434986,-68.4998204
622,Nicolin Road,04605,44.6438056,-68.5000195
656,Red Bridge Road,04605,44.5718703,-68.4978718
664,Bucksport Road,04605,44.5393865,-68.4932545
684,North Street,04605,44.5964745,-68.4059652
696,Bangor Road,04605,44.5852179,-68.4961066
710,Bayside Road,04605,44.4836927,-68.4197618
710,Bucksport Road,04605,44.5396852,-68.4966757
714,Bucksport Road,04605,44.5391156,-68.4971590
720,Mariaville Road,04605,44.6304893,-68.4331775
726,Bangor Road,04605,44.5870438,-68.4988183
734,Bangor Road,04605,44.5867376,-68.5008365
734,Mariaville Road,04605,44.6308553,-68.4325561
750,Bangor Road,04605,44.5877247,-68.5011304
750,Bayside Road,04605,44.4815779,-68.4199336
758,Bayside Road,04605,44.4810795,-68.4201838
764,Bucksport Road,04605,44.5406132,-68.5019923
774,Bangor Road,04605,44.5888838,-68.5026827
786,Bangor Road,04605,44.5893466,-68.5035291
798,Bucksport Road,04605,44.5415134,-68.5050813
814,Bangor Road,04605,44.5903740,-68.5058763
824,Nicolin Road,04605,44.6516348,-68.5107731
830,Red Bridge Road,04605,44.5820736,-68.5048129
834,Red Bridge Road,04605,44.5825552,-68.5048088
844,Bangor Road,04605,44.5915192,-68.5083926
844,Winkumpaugh Road,04605,44.6238880,-68.6085743
850,Mariaville Road,04605,44.6372581,-68.4293542
862,Bucksport Road,04605,44.5428345,-68.5108040
896,Red Bridge Road,04605,44.5857374,-68.5078996
898,Bangor Road,04605,44.5946211,-68.5116486
912,Bangor Road,04605,44.5955854,-68.5118925
928,Bangor Road,04605,44.5964974,-68.5125400
936,Bucksport Road,04605,44.5450020,-68.5177222
936,Mariaville Road,04605,44.6408449,-68.4283166
942,Red Bridge Road,04605,44.5893545,-68.5084864
948,Mariaville Road,04605,44.6428044,-68.4304032
948,Red Bridge Road,04605,44.5896942,-68.5089749
956,Bucksport Road,04605,44.5452926,-68.5193941
960,Red Bridge Road,04605,44.5905365,-68.5091064
15,Upland Way,04605,44.5977000,-68.4053353
29,Upland Way,04605,44.5979330,-68.4059881
35,Upland Way,04605,44.5984808,-68.4065873
24,Upland Way,04605,44.5974126,-68.4063210
974,Mariaville Road,04605,44.6436626,-68.4291968
978,Red Bridge Road,04605,44.5916874,-68.5098148
1084,Bangor Road,04605,44.6061191,-68.5184329
1384,Bangor Road,04605,44.6238997,-68.5337594
1420,Bangor Road,04605,44.6247091,-68.5368602
1520,Bucksport Road,04605,44.5583848,-68.5684563
1584,Bangor Road,04605,44.6341612,-68.5457115
1802,Bangor Road,04605,44.6451904,-68.5597868
1,Garden Street,04605,44.5450802,-68.4229666
1,Grant Street,04605,44.5411291,-68.4267505
1,Lincoln Street,04605,44.5449868,-68.4214003
1,Wilder Way,04605,44.5845391,-68.4338509
1,Willow Street,04605,44.5413758,-68.4274719
3,Franklin Street,04605,44.5418301,-68.4238296
5,Addie Road,04605,44.5409449,-68.5047777
5,Christian Ridge Road,04605,44.5394933,-68.4399897
5,Crichton Way,04605,44.6195237,-68.5898666
5,Cristin Lane,04605,44.5444337,-68.4386583
5,Ebens Way,04605,44.6165512,-68.5615535
5,Fletcher Street,04605,44.5470672,-68.4109811
5,Industrial Road,04605,44.5734794,-68.4523088
5,Labelle Road,04605,44.6287578,-68.5373764
5,Larkspur Lane,04605,44.5440146,-68.5173401
5,Long Lane,04605,44.5341323,-68.4087390
5,Mariaville Road,04605,44.5694785,-68.4533917
5,Peaceful Acres Way,04605,44.6327208,-68.4852377
5,Seaveys Road,04605,44.4952080,-68.4033151
5,Sportsmans Court,04605,44.6151728,-68.5241936
5,Tracys Way,04605,44.5884401,-68.5010676
5,Tracys Way,04605,44.5883503,-68.5011314
5,Violas Way,04605,44.5490514,-68.4222791
5,Westwood Drive,04605,44.5341106,-68.4328734
7,Condon Way,04605,44.6029420,-68.4489007
7,Cooks Lane,04605,44.5540641,-68.4446030
7,Ebens Way,04605,44.6161386,-68.5619473
7,Fifth Street,04605,44.5496942,-68.4274596
7,Fletcher Street,04605,44.5472979,-68.4111991
7,Herbs Way,04605,44.6332655,-68.4872502
7,Industrial Road,04605,44.5739864,-68.4528897
7,Main Street,04605,44.5395450,-68.4277227
7,McDonald Avenue,04605,44.5480264,-68.4102035
7,Pine Tassel Way,04605,44.6324184,-68.4850387
7,Rand Way,04605,44.6546141,-68.5043914
7,Short Street,04605,44.5298766,-68.4040436
7,Trinity Way,04605,44.5579109,-68.5926165
7,Westwood Drive,04605,44.5340288,-68.4336231
9,Baron Lane,04605,44.6242760,-68.5322248
9,Bittersweet Way,04605,44.6467111,-68.5046668
9,Brae Drive,04605,44.5524682,-68.4340108
9,Carriage Road,04605,44.5385699,-68.4453922
9,Daisy Way,04605,44.5496528,-68.4018086
9,Fairground Road,04605,44.5441958,-68.4137040
9,Fletcher Street,04605,44.5475059,-68.4113984
9,Herbs Way,04605,44.6335188,-68.4875190
9,Holt Drive,04605,44.5522043,-68.4325341
9,Irving Way,04605,44.5984069,-68.4540403
9,Labelle Road,04605,44.6292743,-68.5382107
9,Laurel Street,04605,44.5368765,-68.4296684
9,Mitchells Way,04605,44.5971466,-68.4559358
9,Resort Way,04605,44.5319136,-68.4036390
9,Spencer Street,04605,44.5474300,-68.4132624
9,Toothaker Lane,04605,44.5290721,-68.4051342
9,Turkey Hill Way,04605,44.5700539,-68.4257172
9,Western Avenue,04605,44.5551502,-68.4329587
9,Westwood Drive,04605,44.5339066,-68.4343983
9,Wichita Way,04605,44.5530038,-68.4358187
9,Woodfield Way,04605,44.6093851,-68.5375681
11,Brookside Court,04605,44.5342351,-68.4077310
11,Lincoln Street,04605,44.5452405,-68.4208250
11,McKenzie Avenue,04605,44.5455623,-68.4150876
11,Park Street,04605,44.5445208,-68.4235953
11,Pickeral Cove Way,04605,44.5952528,-68.5526862
11,Shore Road,04605,44.5486993,-68.4274379
11,Short Street,04605,44.5301850,-68.4036126
11,Westwood Drive,04605,44.5338568,-68.4352358
12,Falls Court,04605,44.5626946,-68.4384702
12,Falls Court,04605,44.5620651,-68.4395214
13,Westwood Drive,04605,44.5337163,-68.4359546
15,Bayview Avenue,04605,44.5451411,-68.4181131
15,Branchview North,04605,44.5997845,-68.5858158
17,Oak Street,04605,44.5437812,-68.4206695
17,Park Street,04605,44.5450384,-68.4227027
17,Pleasant Street,04605,44.5402824,-68.4302582
15,McKenzie Avenue,04605,44.5456442,-68.4152567
15,Tranquility Way,04605,44.5035295,-68.4312642
15,Western Avenue,04605,44.5547311,-68.4337749
15,Westwood Drive,04605,44.5335810,-68.4368243
17,Central Street,04605,44.5447990,-68.4270041
19,Chapel Street,04605,44.5403804,-68.4291496
19,Liberty Street,04605,44.5419333,-68.4291344
19,Main Street,04605,44.5399969,-68.4271708
19,Maple Street,04605,44.5374670,-68.4289452
19,Marigold Way,04605,44.5511727,-68.4067031
23,Carriage Road,04605,44.5384222,-68.4427818
23,Central Street,04605,44.5448007,-68.4273377
19,Washington Street,04605,44.5353643,-68.4181224
19,Western Avenue,04605,44.5544947,-68.4342115
19,Wildwood Drive,04605,44.6312992,-68.5632075
19,Willow Street,04605,44.5411071,-68.4286326
21,Cards Court,04605,44.5340579,-68.4082803
21,Carriage Road,04605,44.5379856,-68.4437237
21,Fletcher Street,04605,44.5482863,-68.4125928
21,Grant Street,04605,44.5418028,-68.4273419
21,Liberty Street,04605,44.5421374,-68.4294471
23,Shore Road,04605,44.5484977,-68.4285226
25,Bayview Avenue,04605,44.5456203,-68.4185175
25,High Street,04605,44.5418062,-68.4190967
25,Mayflower Way,04605,44.5418410,-68.5185288
25,Mountain View Drive,04605,44.5321061,-68.4343906
2,Falls Court,04605,44.5633107,-68.4392576
27,Cards Court,04605,44.5339402,-68.4081619
27,Meadow View Lane,04605,44.5489578,-68.4083875
27,Meadow View Lane,04605,44.5489587,-68.4085511
27,Oakwood Lane,04605,44.5590965,-68.5843670
27,Pleasant Street,04605,44.5409361,-68.4304470
27,Ridge Way,04605,44.5373197,-68.5023162
29,South Street,04605,44.5367131,-68.4275994
29,Union Street,04605,44.5452987,-68.4163491
29,Woodland Road,04605,44.5418096,-68.4905334
31,Baron Lane,04605,44.6243331,-68.5296716
31,Joseph Way,04605,44.5456576,-68.5068086
31,Shore Road,04605,44.5484147,-68.4290333
31,South Street,04605,44.5365375,-68.4275823
33,Eastward Lane,04605,44.5328292,-68.3996902
33,Haynes Avenue,04605,44.5320512,-68.5091511
33,High Street,04605,44.5411812,-68.4183477
33,Holt Drive,04605,44.5535613,-68.4338806
33,Laurel Street,04605,44.5369630,-68.4271690
33,Poors Way,04605,44.5491838,-68.4603926
33,Stargazer Way,04605,44.5756534,-68.4646192
33,Surry Road,04605,44.5381119,-68.4300843
33,Third Street,04605,44.5464153,-68.4279702
33,Winkumpaugh Road,04605,44.6442867,-68.5589046
35,American Avenue,04605,44.5506358,-68.4195880
35,American Avenue,04605,44.5505275,-68.4195513
35,Bayview Avenue,04605,44.5459366,-68.4187409
35,Branchview North,04605,44.6013405,-68.5854268
35,Brimmer Point Way,04605,44.5955557,-68.4452537
35,Laurel Street,04605,44.5369970,-68.4267722
35,Travis Court,04605,44.5411412,-68.4771080
35,Vista Way,04605,44.5552729,-68.5875419
37,Commerce Park,04605,44.5619035,-68.4332205
37,Crowell Way,04605,44.6239924,-68.4503466
37,Hillside Drive,04605,44.5310905,-68.4356464
37,Holt Drive,04605,44.5537965,-68.4341050
37,Maple Street,04605,44.5367378,-68.4289460
37,Meadow View Lane,04605,44.5492443,-68.4089448
37,Meadow View Lane,04605,44.5492314,-68.4090645
37,North Street,04605,44.5640346,-68.4390869
37,Pondview Way,04605,44.5491047,-68.5502008
37,Shore Road,04605,44.5483443,-68.4293550
39,Buttermilk Road,04605,44.5192210,-68.3919089
39,Downeast Highway,04605,44.5303621,-68.4030570
39,Grand View Road,04605,44.5192440,-68.4074173
39,Patten Way,04605,44.5539356,-68.5573717
39,Pondview Way,04605,44.5491201,-68.5495460
39,Wildwood Drive,04605,44.6293617,-68.5615327
41,Addie Road,04605,44.5391292,-68.5064672
41,Bridgetwin Road,04605,44.5953230,-68.4539432
41,Grand View Road,04605,44.5193700,-68.4065478
41,High Street,04605,44.5410952,-68.4182604
41,Laffin Way,04605,44.6412549,-68.4569865
41,Laurel Street,04605,44.5370445,-68.4263690
41,North Street,04605,44.5644163,-68.4389133
41,Weymouth Way,04605,44.6283659,-68.4379760
43,Boulders Way,04605,44.5497532,-68.5225426
43,Downeast Highway,04605,44.5301084,-68.4027387
43,Grant Street,04605,44.5426831,-68.4278431
43,Porcupine Cove Way,04605,44.6401667,-68.4543739
43,Third Street,04605,44.5470008,-68.4298465
45,Beals Avenue,04605,44.5413387,-68.4165775
45,Buzzell Way,04605,44.5304874,-68.5150417
45,Foster Street,04605,44.5332534,-68.4155129
45,Whitmore Way,04605,44.5977780,-68.4571521
45,Wilder Way,04605,44.5836573,-68.4375819
45,Winkumpaugh Road,04605,44.6440437,-68.5600666
45,Woodfield Way,04605,44.6068403,-68.5371850
47,Addie Road,04605,44.5386613,-68.5065089
47,Beals Avenue,04605,44.5411259,-68.4163279
47,Boggy Brook Road,04605,44.5717307,-68.4546552
47,Champion Point Way,04605,44.6273889,-68.4777525
47,Downeast Highway,04605,44.5302615,-68.4018939
47,Foster Street,04605,44.5332657,-68.4152799
47,Meadow View Lane,04605,44.5496553,-68.4092239
47,Meadow View Lane,04605,44.5496333,-68.4093123
47,Park Street,04605,44.5458510,-68.4213854
47,Sugar Way,04605,44.5460437,-68.4494441
47,Tamarac Road,04605,44.6177985,-68.5388058
49,Beals Avenue,04605,44.5407696,-68.4161930
49,Buttermilk Road,04605,44.5191626,-68.3910853
49,Fieldstone Road,04605,44.5589486,-68.4401179
49,Ginnie May Way,04605,44.5118956,-68.4317867
49,Meadow View Lane,04605,44.5497501,-68.4092607
49,Meadow View Lane,04605,44.5497235,-68.4093428
51,Beals Avenue,04605,44.5404760,-68.4160071
51,Bridgetwin Road,04605,44.5951202,-68.4548334
51,Bucksport Road,04605,44.5393105,-68.4321432
51,Ginnie May Way,04605,44.5123567,-68.4294735
51,High Street,04605,44.5406484,-68.4180320
51,Jones Point Way,04605,44.6246830,-68.5621982
51,Lakes Lane,04605,44.5638312,-68.4343666
51,Mountain View Drive,04605,44.5318173,-68.4369798
53,Christian Ridge Road,04605,44.5424585,-68.4415789
53,Fieldstone Road,04605,44.5585504,-68.4396936
53,Gameston Park Road,04605,44.5047017,-68.4129489
53,Laurel Street,04605,44.5370817,-68.4248141
53,Sugar Way,04605,44.5459899,-68.4504329
53,Sunset Park Road,04605,44.6166352,-68.4415679
53,Union Street,04605,44.5475547,-68.4147592
53,Woodland Road,04605,44.5434450,-68.4908653
55,Beals Avenue,04605,44.5402096,-68.4158461
55,Bucksport Road,04605,44.5393622,-68.4325770
55,Buzzell Way,04605,44.5302808,-68.5151567
55,Foster Street,04605,44.5334364,-68.4143343
55,Hancock Street,04605,44.5391284,-68.4209674
55,Loon Cove Way,04605,44.6301262,-68.4417097
55,Riverside Lane,04605,44.5203284,-68.4276278
55,School Street,04605,44.5450558,-68.4243705
55,Shore Road,04605,44.5485915,-68.4310899
55,Washington Street,04605,44.5358206,-68.4157956
57,Buttermilk Road,04605,44.5187712,-68.3902841
59,Foster Street,04605,44.5340408,-68.4128178
59,High Street,04605,44.5402530,-68.4172870
59,North Bend Road,04605,44.5402311,-68.5157098
59,Northeast Cove Way,04605,44.6385200,-68.4378276
59,Pickeral Cove Way,04605,44.5949143,-68.5490160
61,Alton Avenue,04605,44.4935601,-68.4145448
61,Beals Avenue,04605,44.5399791,-68.4156596
61,Birch Avenue,04605,44.5473468,-68.4225540
61,Hancock Street,04605,44.5388978,-68.4207746
61,Tinker Farm Way,04605,44.5306713,-68.4202583
63,American Avenue,04605,44.5504684,-68.4158883
63,Beals Avenue,04605,44.5397307,-68.4154984
63,Boggy Brook Road,04605,44.5725989,-68.4554846
63,Grant Street,04605,44.5434112,-68.4294346
63,Guptil Farm Road,04605,44.5597674,-68.4568006
63,Haynes Avenue,04605,44.5312130,-68.5068298
63,Whitmore Way,04605,44.5976165,-68.4582121
63,Wildwood Drive,04605,44.6283823,-68.5596680
65,Addie Road,04605,44.5376480,-68.5074489
65,Branch Pond Road,04605,44.6133418,-68.5309514
65,Church Street,04605,44.5440776,-68.4205344
65,Ginnie May Way,04605,44.5112969,-68.4290624
65,Hancock Street,04605,44.5383762,-68.4208742
65,Old County Way,04605,44.6382781,-68.5993614
67,American Avenue,04605,44.5512968,-68.4168054
67,Foster Street,04605,44.5342622,-68.4121171
67,Franklin Street,04605,44.5406971,-68.4231925
67,Toashuh Way,04605,44.5036810,-68.4345837
69,Autumn Road,04605,44.6198063,-68.5355316
69,Foster Street,04605,44.5344311,-68.4116937
69,Hanson Landing Road,04605,44.6373618,-68.5677894
69,Stackpole Way,04605,44.5383893,-68.5219369
69,Woodfield Way,04605,44.6053154,-68.5363150
71,Atlantic Highway,04605,44.5575809,-68.5423352
71,Branchview North,04605,44.6040237,-68.5855274
3,Waynes Way,04605,44.5398073,-68.5155434
71,Wildwood Drive,04605,44.6290084,-68.5586232
73,Bohn Road,04605,44.6487387,-68.5578052
73,Main Street,04605,44.5412210,-68.4244335
73,Oak Street,04605,44.5466676,-68.4226551
73,Patriot Road,04605,44.5889587,-68.4364410
75,Beals Avenue,04605,44.5393286,-68.4152067
75,Birch Avenue,04605,44.5479469,-68.4219375
75,Brown Way,04605,44.6178875,-68.4547906
75,Grand View Road,04605,44.5195344,-68.4035325
75,Main Street,04605,44.5412477,-68.4243703
75,Meadow View Lane,04605,44.5495485,-68.4103203
75,Park Street,04605,44.5470680,-68.4190633
75,Washington Street,04605,44.5363771,-68.4137195
75,Wildwood Drive,04605,44.6312330,-68.5588648
77,Alton Avenue,04605,44.4938243,-68.4125298
77,Beechland Road,04605,44.5173843,-68.4081534
77,Christian Ridge Road,04605,44.5439737,-68.4430750
77,Cunningham Way,04605,44.5567339,-68.5820607
77,Gator Way,04605,44.6250629,-68.4455274
77,Hancock Street,04605,44.5374378,-68.4195744
77,Mariaville Road,04605,44.5749486,-68.4498642
77,North Bend Road,04605,44.5392120,-68.5152777
77,Park Street,04605,44.5472643,-68.4187025
77,Sunset Park Road,04605,44.6190130,-68.4408708
77,Twin Hill Road,04605,44.5480977,-68.5271072
77,Union Street,04605,44.5505592,-68.4116698
77,Winkumpaugh Road,04605,44.6443936,-68.5632732
79,Bridgetwin Road,04605,44.5946803,-68.4579307
79,Main Street,04605,44.5412566,-68.4243450
79,Northeast Cove Way,04605,44.6398479,-68.4405888
79,Park Street,04605,44.5475190,-68.4183412
79,Sargent Drive,04605,44.6218154,-68.5900333
79,Spindle Road,04605,44.5002050,-68.4271517
79,Sunset Park Road,04605,44.6186128,-68.4428031
79,Upper Boggy Brook Road,04605,44.6229497,-68.4986355
79,Wildwood Drive,04605,44.6310655,-68.5586202
81,Bucksport Road,04605,44.5394128,-68.4346094
81,Jordan Way,04605,44.6281386,-68.4922749
81,Mountain Top Way,04605,44.6352714,-68.6328693
81,Surry Road,04605,44.5344365,-68.4314165
81,Union Street,04605,44.5509154,-68.4117858
81,Whitmore Way,04605,44.5967197,-68.4589449
83,Black Island Way,04605,44.6371564,-68.4508339
83,Boggy Brook Road,04605,44.5740436,-68.4563843
83,Hancock Street,04605,44.5368861,-68.4190638
83,Main Street,04605,44.5412831,-68.4242441
83,Sugar Way,04605,44.5463568,-68.4518457
85,Grant Street,04605,44.5436658,-68.4308295
85,Guptil Farm Road,04605,44.5598417,-68.4591671
85,High Street,04605,44.5391496,-68.4162847
89,State Street,04605,44.5442715,-68.4250454
87,Bridgetwin Road,04605,44.5943914,-68.4586956
87,Maddocks Avenue,04605,44.5515134,-68.4142789
89,Bucksport Road,04605,44.5393587,-68.4355099
89,Cove Way,04605,44.6294630,-68.5516734
89,Main Street,04605,44.5412965,-68.4242250
89,North Bend Road,04605,44.5387159,-68.5150678
91,Grant Street,04605,44.5437806,-68.4312941
91,Hancock Street,04605,44.5364474,-68.4186654
91,Haynes Avenue,04605,44.5296946,-68.5064966
91,Maddocks Avenue,04605,44.5517042,-68.4146106
91,Northeast Cove Way,04605,44.6398922,-68.4413638
91,Whitmore Way,04605,44.5954565,-68.4583329
91,Woodfield Way,04605,44.6038228,-68.5356590
93,Bucksport Road,04605,44.5395167,-68.4365091
93,Cove Way,04605,44.6291860,-68.5510704
93,Grant Street,04605,44.5438986,-68.4314818
93,High Street,04605,44.5385234,-68.4153091
93,Maddocks Avenue,04605,44.5518589,-68.4149364
93,Main Street,04605,44.5413096,-68.4241494
93,State Street,04605,44.5445105,-68.4251375
95,Alton Avenue,04605,44.4940933,-68.4105650
95,Bayside Road,04605,44.5266110,-68.4229099
95,Lakes Lane,04605,44.5663158,-68.4316161
95,North Bend Road,04605,44.5382090,-68.5154622
97,Branchview North,04605,44.6058712,-68.5873352
97,Sargent Drive,04605,44.6224430,-68.5893166
97,Surry Road,04605,44.5333582,-68.4318298
99,Cunningham Way,04605,44.5546180,-68.5807601
99,Maddocks Avenue,04605,44.5522902,-68.4156497
103,Branchview North,04605,44.6061241,-68.5875666
103,Branchview North,04605,44.6060779,-68.5884805
103,Nicolin Road,04605,44.6196475,-68.5167959
105,Oak Street,04605,44.5480376,-68.4238564
107,High Street,04605,44.5378544,-68.4147557
107,Main Street,04605,44.5414430,-68.4238208
115,Grant Street,04605,44.5443592,-68.4317857
123,Evergreen Way,04605,44.6456772,-68.4583576
125,High Street,04605,44.5374509,-68.4141996
125,Shore Road,04605,44.5508034,-68.4359721
133,State Street,04605,44.5467458,-68.4256505
135,High Street,04605,44.5369346,-68.4144565
137,High Street,04605,44.5370426,-68.4135870
137,North Street,04605,44.5707535,-68.4360312
139,High Street,04605,44.5365502,-68.4132458
139,State Street,04605,44.5471831,-68.4257973
143,Oak Street,04605,44.5498508,-68.4254815
151,Bangor Road,04605,44.5675037,-68.4499218
157,High Street,04605,44.5359477,-68.4124903
157,Shore Road,04605,44.5525053,-68.4378946
163,High Street,04605,44.5352364,-68.4133533
163,Turnbull Way,04605,44.5479881,-68.5444498
165,Branchview North,04605,44.6077905,-68.5915812
165,State Street,04605,44.5484589,-68.4261750
165,Water Street,04605,44.5389543,-68.4230397
171,North Street,04605,44.5728048,-68.4366852
175,Water Street,04605,44.5386598,-68.4226524
187,Shore Road,04605,44.5533799,-68.4409142
197,Shore Road,04605,44.5540147,-68.4418461
201,High Street,04605,44.5346117,-68.4109179
203,Branchview North,04605,44.6071875,-68.5954101
205,High Street,04605,44.5342223,-68.4104876
207,High Street,04605,44.5341570,-68.4100414
209,High Street,04605,44.5338686,-68.4099688
209,Nicolin Road,04605,44.6264451,-68.5022675
215,High Street,04605,44.5332529,-68.4092891
217,High Street,04605,44.5330567,-68.4087939
233,High Street,04605,44.5319548,-68.4089687
235,High Street,04605,44.5323567,-68.4083353
245,High Street,04605,44.5319092,-68.4079874
245,Water Street,04605,44.5380562,-68.4216829
253,High Street,04605,44.5315648,-68.4075378
253,North Street,04605,44.5785307,-68.4349169
253,Shore Road,04605,44.5565846,-68.4436221
261,State Street,04605,44.5524817,-68.4285906
265,Water Street,04605,44.5377899,-68.4215471
269,High Street,04605,44.5299537,-68.4058866
269,Water Street,04605,44.5374271,-68.4210157
271,High Street,04605,44.5296452,-68.4054115
271,Main Street,04605,44.5440087,-68.4167208
274,High Street,04605,44.5297947,-68.4030125
281,Main Street,04605,44.5442397,-68.4161205
283,Main Street,04605,44.5442972,-68.4159122
289,Christian Ridge Road,04605,44.5574126,-68.4500924
289,Main Street,04605,44.5444792,-68.4154195
295,Main Street,04605,44.5445947,-68.4151225
299,Main Street,04605,44.5447053,-68.4147500
311,High Street,04605,44.5262121,-68.4013753
311,Main Street,04605,44.5450616,-68.4139974
313,Grant Street,04605,44.5509451,-68.4456209
315,Phillips Way,04605,44.6001426,-68.5553641
321,Bucksport Road,04605,44.5405417,-68.4595221
321,Phillips Way,04605,44.5997447,-68.5548883
321,Surry Road,04605,44.5180772,-68.4329346
323,Bucksport Road,04605,44.5398871,-68.4591253
325,Main Street,04605,44.5455326,-68.4128030
325,Phillips Way,04605,44.5995007,-68.5546570
327,Phillips Way,04605,44.5993194,-68.5543245
335,Branch Pond Road,04605,44.6167155,-68.5517084
337,Grant Street,04605,44.5506520,-68.4483054
337,High Street,04605,44.5245310,-68.3992658
15,Kingsland Crossing,04605,44.5239302,-68.3988097
339,State Street,04605,44.5567160,-68.4328176
341,Branch Pond Road,04605,44.6166816,-68.5522444
343,Bayside Road,04605,44.5080907,-68.4172301
343,Shore Road,04605,44.5610591,-68.4427483
343,State Street,04605,44.5570742,-68.4333492
345,Gary Moore Road,04605,44.6529751,-68.4326873
347,Phillips Way,04605,44.5983847,-68.5535945
347,Surry Road,04605,44.5165370,-68.4336982
349,Shore Road,04605,44.5612050,-68.4422118
351,Christian Ridge Road,04605,44.5607630,-68.4503882
353,Shore Road,04605,44.5614187,-68.4417123
357,State Street,04605,44.5578792,-68.4341095
361,Phillips Way,04605,44.5976890,-68.5529321
369,Christian Ridge Road,04605,44.5617378,-68.4508953
371,Bangor Road,04605,44.5751549,-68.4687235
371,Mariaville Road,04605,44.6023940,-68.4500841
373,Bangor Road,04605,44.5759058,-68.4695039
373,Christian Ridge Road,04605,44.5629760,-68.4519100
381,State Street,04605,44.5592634,-68.4354749
41,Dewbrown Way,04605,44.5143437,-68.4398532
387,Christian Ridge Road,04605,44.5639407,-68.4522032
389,Surry Road,04605,44.5130165,-68.4381737
391,Mariaville Road,04605,44.6038303,-68.4483000
391,Winkumpaugh Road,04605,44.6335844,-68.5958256
395,State Street,04605,44.5602767,-68.4364976
397,Mariaville Road,04605,44.6045749,-68.4477448
397,Surry Road,04605,44.5129746,-68.4360477
403,Bangor Road,04605,44.5763872,-68.4714014
405,Christian Ridge Road,04605,44.5649587,-68.4523510
407,Mariaville Road,04605,44.6058178,-68.4469328
409,Mariaville Road,04605,44.6062271,-68.4468659
411,Gary Moore Road,04605,44.6574825,-68.4321262
415,Surry Road,04605,44.5123081,-68.4378282
415,Water Street,04605,44.5347791,-68.4196730
421,State Street,04605,44.5615838,-68.4377505
423,Main Street,04605,44.5501938,-68.4011106
425,Scotts Neck Road,04605,44.6419347,-68.4752956
429,Bayside Road,04605,44.5045642,-68.4186175
431,Mariaville Road,04605,44.6075999,-68.4450004
435,Scotts Neck Road,04605,44.6411926,-68.4734802
441,Main Street,04605,44.5497005,-68.3997623
445,Phillips Way,04605,44.5939717,-68.5565954
447,Bangor Road,04605,44.5784108,-68.4738896
453,Surry Road,04605,44.5098082,-68.4384058
455,Bayside Road,04605,44.5022763,-68.4210367
455,Surry Road,04605,44.5095342,-68.4385153
461,Surry Road,04605,44.5090229,-68.4389040
479,Surry Road,04605,44.5081014,-68.4391644
493,Mariaville Road,04605,44.6139569,-68.4387893
501,Winkumpaugh Road,04605,44.6255440,-68.5980497
509,Winkumpaugh Road,04605,44.6253821,-68.5993870
511,Bucksport Road,04605,44.5399011,-68.4776100
519,Mariaville Road,04605,44.6149949,-68.4375127
525,Bangor Road,04605,44.5817366,-68.4806366
525,Mariaville Road,04605,44.6149499,-68.4347844
539,Bangor Road,04605,44.5816513,-68.4816640
547,Mariaville Road,04605,44.6175223,-68.4361396
549,Bayside Road,04605,44.4957929,-68.4207486
551,Bucksport Road,04605,44.5403419,-68.4814768
16,Kane Way,04605,44.5407596,-68.4832542
571,Mariaville Road,04605,44.6186118,-68.4352719
571,Nicolin Road,04605,44.6414549,-68.4956957
583,Nicolin Road,04605,44.6417870,-68.4964873
585,Bayside Road,04605,44.4935190,-68.4206265
587,Nicolin Road,04605,44.6422471,-68.4967103
589,Red Bridge Road,04605,44.5693779,-68.4920496
593,Mariaville Road,04605,44.6206914,-68.4343568
593,Red Bridge Road,04605,44.5698370,-68.4930720
595,Nicolin Road,04605,44.6428190,-68.4967621
599,Bayside Road,04605,44.4921871,-68.4207215
603,Nicolin Road,04605,44.6431199,-68.4976232
609,Nicolin Road,04605,44.6433571,-68.4983336
615,Mariaville Road,04605,44.6223132,-68.4328221
629,Mariaville Road,04605,44.6234646,-68.4344370
635,Nicolin Road,04605,44.6446252,-68.4990919
643,Nicolin Road,04605,44.6449907,-68.4992906
649,Mariaville Road,04605,44.6270926,-68.4344396
649,Nicolin Road,04605,44.6455100,-68.4996707
653,Nicolin Road,04605,44.6457221,-68.4997950
663,Red Bridge Road,04605,44.5734607,-68.4961515
665,Nicolin Road,04605,44.6460646,-68.5009018
677,Mariaville Road,04605,44.6297899,-68.4328313
683,Nicolin Road,04605,44.6462859,-68.5031445
687,Winkumpaugh Road,04605,44.6205468,-68.5978195
699,Red Bridge Road,04605,44.5739723,-68.4978474
703,Red Bridge Road,04605,44.5746004,-68.4984024
705,Red Bridge Road,04605,44.5752114,-68.4991403
711,Bayside Road,04605,44.4831169,-68.4224963
715,Nicolin Road,04605,44.6465922,-68.5052668
721,Winkumpaugh Road,04605,44.6218261,-68.6019451
729,Bucksport Road,04605,44.5403957,-68.4985703
4,Moonlit Way,04605,44.6302400,-68.4319318
735,Bangor Road,04605,44.5881469,-68.4988781
737,Nicolin Road,04605,44.6476157,-68.5067021
737,Red Bridge Road,04605,44.5768838,-68.5007256
741,Nicolin Road,04605,44.6478284,-68.5069714
755,Bucksport Road,04605,44.5409717,-68.5005857
757,Nicolin Road,04605,44.6486293,-68.5079357
765,Red Bridge Road,04605,44.5784147,-68.5018650
773,Bangor Road,04605,44.5894078,-68.5020735
773,Nicolin Road,04605,44.6489583,-68.5090931
775,Red Bridge Road,04605,44.5790088,-68.5018536
779,Bangor Road,04605,44.5897790,-68.5025553
783,Happytown Road,04605,44.5976502,-68.5931327
785,Nicolin Road,04605,44.6496305,-68.5094279
785,Red Bridge Road,04605,44.5798872,-68.5019973
787,Happytown Road,04605,44.5985736,-68.5933279
791,Bangor Road,04605,44.5897235,-68.5032550
797,Bucksport Road,04605,44.5421143,-68.5045601
805,Bucksport Road,04605,44.5422395,-68.5053835
809,Bangor Road,04605,44.5908115,-68.5050285
815,Red Bridge Road,04605,44.5809342,-68.5026182
821,Nicolin Road,04605,44.6519973,-68.5092377
827,Bayside Road,04605,44.4756830,-68.4220730
829,Nicolin Road,04605,44.6521764,-68.5100686
831,Mariaville Road,04605,44.6347617,-68.4279098
831,Red Bridge Road,04605,44.5827253,-68.5035666
841,Bangor Road,04605,44.5919250,-68.5075010
841,Nicolin Road,04605,44.6529532,-68.5106674
845,Red Bridge Road,04605,44.5835020,-68.5041205
847,Red Bridge Road,04605,44.5839575,-68.5043371
849,Red Bridge Road,04605,44.5846744,-68.5046144
857,Bayside Road,04605,44.4757681,-68.4211040
857,Bayside Road,04605,44.4743383,-68.4205523
861,Nicolin Road,04605,44.6538402,-68.5117888
867,Bangor Road,04605,44.5927724,-68.5088230
867,Bucksport Road,04605,44.5435657,-68.5112699
869,Bangor Road,04605,44.5939933,-68.5090647
881,Red Bridge Road,04605,44.5857551,-68.5057327
883,Bangor Road,04605,44.5939936,-68.5101734
885,Red Bridge Road,04605,44.5866889,-68.5061972
889,Bangor Road,04605,44.5946752,-68.5106276
889,Bucksport Road,04605,44.5452281,-68.5116022
901,Happytown Road,04605,44.6028852,-68.5982123
909,Mariaville Road,04605,44.6380750,-68.4261940
915,Mariaville Road,04605,44.6390559,-68.4261087
915,Red Bridge Road,04605,44.5875373,-68.5067003
925,Mariaville Road,04605,44.6397084,-68.4260770
929,Mariaville Road,04605,44.6402398,-68.4261348
931,Red Bridge Road,04605,44.5887012,-68.5073014
941,Mariaville Road,04605,44.6421588,-68.4264249
961,Bangor Road,04605,44.5988538,-68.5130685
963,Winkumpaugh Road,04605,44.6266410,-68.6213764
1375,Bucksport Road,04605,44.5568411,-68.5555932
240,Nicolin Road,04605,44.6279684,-68.5006535
31,Foster Street,04605,44.5331103,-68.4165904
27,Downeast Highway,04605,44.5308169,-68.4039459
278,Bangor Road,04605,44.5710633,-68.4620102
266,North Bend Road,04684,44.5264344,-68.5103939
29,Trinity Way,04605,44.5550028,-68.5900242
317,High Street,04605,44.5259005,-68.4011897
27,Vista Way,04605,44.5555235,-68.5908830
24,Pioneer Farm Way,04605,44.5162785,-68.4180859
265,Bayside Road,04605,44.5149385,-68.4165956
24,Ridge Way,04605,44.5387337,-68.5024489
25,Resort Way,04605,44.5323469,-68.4038548
318,Branchview Drive,04605,44.5969031,-68.5710315
253,Sargent Drive,04605,44.6238605,-68.5805205
24,Seaveys Road,04605,44.4963659,-68.4043788
3,Spencer Street,04605,44.5467905,-68.4123183
3,Spring House Lane,04605,44.5329258,-68.4344833
256,North Bend Road,04605,44.5272812,-68.5105315
31,Beals Avenue,04605,44.5417586,-68.4168251
30,Haynes Avenue,04605,44.5327813,-68.5093590
257,Christian Ridge Road,04605,44.5551937,-68.4491942
296,Bayside Road,04605,44.5111490,-68.4158534
24,Upper Boggy Brook Road,04605,44.6259397,-68.4897476
277,Keiser Way,04605,44.6535397,-68.4667219
25,Westwood Drive,04605,44.5334165,-68.4390725
25,Whispering Pines Way,04605,44.5370381,-68.5007201
29,Tamarac Road,04605,44.6182422,-68.5372079
29,Spindle Road,04605,44.5010178,-68.4223008
240,Red Bridge Road,04605,44.5522489,-68.4718717
281,Keiser Way,04605,44.6531585,-68.4660696
247,Keiser Way,04605,44.6541507,-68.4693712
250,Black Bear Way,04605,44.6307779,-68.4806092
26,Christian Ridge Road,04605,44.5405575,-68.4412824
242,Black Bear Way,04605,44.6314189,-68.4810132
307,Bayside Road,04605,44.5106174,-68.4166450
25,Foster Street,04605,44.5329036,-68.4175365
248,Branchview Drive,04605,44.6007340,-68.5759365
29,Beals Avenue,04605,44.5420022,-68.4169359
313,High Street,04605,44.5252517,-68.4027883
281,Sargent Drive,04605,44.6253088,-68.5790099
28,Graham Way,04605,44.5993633,-68.4057845
26,Vista Way,04605,44.5568130,-68.5877073
27,Edaco Court,04605,44.5283471,-68.4297957
259,Mariaville Road,04605,44.5954680,-68.4503825
282,Branchview Drive,04605,44.5989332,-68.5734421
30,Whispering Pines Way,04605,44.5365452,-68.5012214
27,Brimmer Point Way,04605,44.5956350,-68.4430417
268,Branchview Drive,04605,44.5995214,-68.5742505
289,High Street,04605,44.5281349,-68.4032371
302,Gary Moore Road,04605,44.6500799,-68.4343298
28,Lakes Lane,04605,44.5626632,-68.4357442
251,Gary Moore Road,04605,44.6468812,-68.4328539
28,Edaco Court,04605,44.5287163,-68.4298172
26,Wilson Way,04605,44.6181966,-68.5621966
28,Holt Drive,04605,44.5530988,-68.4341055
289,Bayside Road,04605,44.5119795,-68.4162917
29,Westwood Drive,04605,44.5332664,-68.4396655
251,North Bend Road,04605,44.5283032,-68.5116367
26,Gameston Park Road,04605,44.5048206,-68.4159355
29,Anderson Road,04605,44.5441295,-68.4399579
288,Winkumpaugh Road,04605,44.6371857,-68.5895972
300,Bayside Road,04605,44.5108117,-68.4159008
253,Nicolin Road,04605,44.6273944,-68.4990763
275,Bangor Road,04605,44.5721096,-68.4605081
25,Addie Road,04605,44.5401931,-68.5057785
31,Stoney Ridge Road,04605,44.5207345,-68.4023437
251,Sargent Drive,04605,44.6238439,-68.5809114
25,Alison Avenue,04605,44.5462243,-68.4412156
251,Mariaville Road,04605,44.5950311,-68.4503362
272,Red Bridge Road,04605,44.5533121,-68.4740088
265,High Street,04605,44.5304653,-68.4064415
266,Bayside Road,04605,44.5146536,-68.4154598
29,Foster Street,04605,44.5330091,-68.4170445
288,Branchview Drive,04605,44.5983944,-68.5725892
285,Red Bridge Road,04605,44.5555556,-68.4753925
253,Bangor Road,04605,44.5724688,-68.4584330
251,Winkumpaugh Road,04605,44.6407846,-68.5791376
30,Ruby Way,04605,44.6456868,-68.4817813
308,Happytown Road,04605,44.5715741,-68.5673890
258,Gary Moore Road,04605,44.6470078,-68.4338741
25,Edaco Court,04605,44.5283209,-68.4299658
25,Guptil Farm Road,04605,44.5607653,-68.4536684
265,Keiser Way,04605,44.6540090,-68.4679410
265,Mariaville Road,04605,44.5958466,-68.4504923
300,Happytown Road,04605,44.5712474,-68.5666862
273,Sargent Drive,04605,44.6252116,-68.5794897
30,Ridge Way,04605,44.5383351,-68.5018796
273,Bayside Road,04605,44.5133500,-68.4158062
26,Lundin Way,04605,44.5243960,-68.4221952
31,Meadow View Lane,04605,44.5490588,-68.4087704
265,Sargent Drive,04605,44.6247670,-68.5797828
27,Buttermilk Road,04605,44.5188268,-68.3939640
30,Old Mill Road,04605,44.5646801,-68.4413034
308,Branchview Drive,04605,44.5974405,-68.5714811
3,Deane Street,04605,44.5375396,-68.4201209
30,Gladwick Way,04605,44.5469516,-68.4435879
278,Branchview Drive,04605,44.5991010,-68.5737622
296,High Street,04605,44.5277138,-68.4018948
28,Benoit Way,04605,44.6503121,-68.4695890
28,Winkumpaugh Road,04605,44.6436360,-68.5582538
262,Nicolin Road,04605,44.6283102,-68.4995411
28,Addie Road,04605,44.5394384,-68.5050989
30,Edaco Court,04605,44.5287514,-68.4296344
26,Alton Avenue,04605,44.4938217,-68.4181835
26,Beals Avenue,04605,44.5421612,-68.4163427
262,Bayside Road,04605,44.5152066,-68.4153284
92,State Street,04605,44.5443477,-68.4258881
15,Willow Street,04605,44.5411332,-68.4284687
745,Nicolin Road,04605,44.6480765,-68.5070891
390,Happytown Road,04605,44.5750429,-68.5728989
363,Shore Road,04605,44.5618892,-68.4403731
15,Central Street,04605,44.5448837,-68.4268333
857,Bucksport Road,04605,44.5433682,-68.5093141
46,Aquarius Lane,04605,44.5151384,-68.4303460
212,Grant Street,04605,44.5474648,-68.4380753
25,Black House Drive,04605,44.5364118,-68.4330714
85,Union Street,04605,44.5512636,-68.4112094
14,Cranberry Way,04605,44.5324858,-68.4374642
111,Autumn Road,04605,44.6200041,-68.5399291
4,Alexis Road,04605,44.5416067,-68.5068617
28,Alexis Road,04605,44.5402854,-68.5084085
37,Alexis Road,04605,44.5401914,-68.5095611
42,Alexis Road,04605,44.5395222,-68.5088681
59,Alexis Road,04605,44.5390198,-68.5103325
147,Nicolin Road,04605,44.6210182,-68.5130975
96,Lakes Lane,04605,44.5667418,-68.4322038
12,Carter Way,04605,44.5710598,-68.5428151
115,Maddocks Avenue,04605,44.5531767,-68.4164781
125,Maddocks Avenue,04605,44.5534904,-68.4179796
120,Maddocks Avenue,04605,44.5525610,-68.4175545
119,Maddocks Avenue,04605,44.5534005,-68.4171180
21,Autumn Road,04605,44.6205534,-68.5322105
372,Shore Road,04605,44.5625646,-68.4404107
58,Chipmunk Way,04605,44.6335106,-68.4907151
50,State Street,04605,44.5427008,-68.4259924
44,School Street,04605,44.5442447,-68.4241960
42,School Street,04605,44.5441133,-68.4240336
168,Winkumpaugh Road,04605,44.6410568,-68.5712296
632,Bangor Road,04605,44.5832214,-68.4904868
367,State Street,04605,44.5588786,-68.4340138
6,Nicolin Road,04605,44.6162161,-68.5250233
137,Branch Pond Road,04605,44.6110616,-68.5358345
42,Commerce Park,04605,44.5624163,-68.4340529
32,Commerce Park,04605,44.5618806,-68.4340581
26,Strawberry Way,04605,44.5610786,-68.4561273
58,Alexis Road,04605,44.5386637,-68.5091585
57,Garland Road,04605,44.6390083,-68.4211412
928,Red Bridge Road,04605,44.5878266,-68.5080395
161,Bangor Road,04605,44.5676470,-68.4506949
431,Bangor Road,04605,44.5771488,-68.4735483
26,American Avenue,04605,44.5511772,-68.4189594
58,Gameston Park Road,04605,44.5055429,-68.4128272
660,Bayside Road,04605,44.4881880,-68.4194594
27,Autumn Road,04605,44.6203667,-68.5327667
231,High Street,04605,44.5328090,-68.4087524
371,Branch Pond Road,04605,44.6166071,-68.5550431
21,Edaco Court,04605,44.5283229,-68.4303559
23,Edaco Court,04605,44.5283625,-68.4301731
32,Edaco Court,04605,44.5287910,-68.4294452
34,Edaco Court,04605,44.5288171,-68.4292625
36,Edaco Court,04605,44.5288431,-68.4290609
38,Edaco Court,04605,44.5289006,-68.4288590
5,Patrick's Way,04605,44.5514295,-68.3981456
11,Patrick's Way,04605,44.5516602,-68.3983573
249,Christian Ridge Road,04605,44.5543925,-68.4482826
1395,Bucksport Road,04605,44.5563772,-68.5578505
17,Carriage Road,04605,44.5379915,-68.4440068
59,Fieldstone Road,04605,44.5591625,-68.4387497
18,Wing Way,04605,44.5955310,-68.4494558
1,South Street,04605,44.5402341,-68.4269041
24,Dollard Farm Way,04605,44.5442431,-68.5075884
60,HC Haynes 2nd Right 1st Left Road,04605,44.5154284,-68.4719654
58,HC Haynes 2nd Right 1st Left Road,04605,44.5155214,-68.4706623
51,HC Haynes 2nd Right 1st Left Road,04605,44.5160546,-68.4740169
28,HC Haynes 2nd Right 1st Left Road,04605,44.5178575,-68.4716037
146,Branchview Drive,04605,44.5980384,-68.5846816
3,Sugar Way,04605,44.5465013,-68.4454050
42,Amys Way,04605,44.5422129,-68.4588331
102,North Street,04605,44.5686003,-68.4384637
8,Golden Way,04605,44.6442148,-68.4787869
39,Meadow View Lane,04605,44.5493032,-68.4090197
39,Meadow View Lane,04605,44.5492992,-68.4091268
33,Meadow View Lane,04605,44.5491307,-68.4087382
33,Meadow View Lane,04605,44.5491089,-68.4088769
17,Union Street,04605,44.5446852,-68.4169721
23,Union Street,04605,44.5449407,-68.4167555
59,Union Street,04605,44.5484376,-68.4140013
86,Maddocks Avenue,04605,44.5510237,-68.4144664
93,Church Street,04605,44.5448345,-68.4188841
25,Lincoln Street,04605,44.5456580,-68.4197256
56,Beals Avenue,04605,44.5404503,-68.4153843
42,Downeast Highway,04605,44.5308128,-68.4022973
7,Brookside Court,04605,44.5344658,-68.4079552
28,Cards Court,04605,44.5340205,-68.4080101
36,Birch Avenue,04605,44.5464048,-68.4240929
30,Birch Avenue,04605,44.5460870,-68.4244359
37,Sterling Street,04605,44.5468212,-68.4281298
12,Western Avenue,04605,44.5545476,-68.4330779
5,Forrest Avenue,04605,44.5525979,-68.4311390
6,Brae Drive,04605,44.5517572,-68.4340618
29,Shore Road,04605,44.5484361,-68.4288127
41,Shore Road,04605,44.5483596,-68.4297199
50,School Street,04605,44.5444660,-68.4243449
1,School Street,04605,44.5424974,-68.4222495
379,Water Street,04605,44.5366729,-68.4205197
384,Water Street,04605,44.5366426,-68.4198718
14,Washington Street,04605,44.5355389,-68.4188129
28,Chapel Street,04605,44.5408510,-68.4296296
29,Grant Street,04605,44.5422271,-68.4275832
20,Grant Street,04605,44.5415791,-68.4276084
3,Pleasant Street,04605,44.5394392,-68.4299706
23,South Street,04605,44.5384014,-68.4276584
1,Maple Street,04605,44.5380857,-68.4293419
20,Main Street,04605,44.5403273,-68.4275263
34,Surry Road,04605,44.5378800,-68.4296145
47,Laurel Street,04605,44.5367312,-68.4258308
4,Westwood Drive,04605,44.5336923,-68.4320342
18,Westwood Drive,04605,44.5330509,-68.4370371
52,Surry Road,04605,44.5367134,-68.4303685
437,High Street,04605,44.5180681,-68.3960481
321,High Street,04605,44.5253964,-68.4003329
34,Beechland Road,04605,44.5178051,-68.4129432
35,Aquarius Lane,04605,44.5138572,-68.4315789
42,Hillside Drive,04605,44.5305107,-68.4358345
58,Hillside Drive,04605,44.5302750,-68.4373156
45,Mountain View Drive,04605,44.5318985,-68.4361043
340,Surry Road,04605,44.5169103,-68.4327194
55,Windsor Way,04605,44.5044703,-68.4459169
354,Bucksport Road,04605,44.5391268,-68.4620589
555,Bucksport Road,04605,44.5404303,-68.4821054
567,Bucksport Road,04605,44.5400240,-68.4828454
779,Bucksport Road,04605,44.5416305,-68.5030222
99,Haynes Avenue,04605,44.5286600,-68.5077009
9,Whispering Pines Way,04605,44.5395144,-68.4998052
40,Hagans Elbow,04605,44.5392199,-68.4952762
32,Travis Court,04605,44.5409242,-68.4769022
42,Atlantic Highway,04605,44.5563916,-68.5409532
9,Branchview Drive,04605,44.6007251,-68.5945540
1612,Bangor Road,04605,44.6358824,-68.5484088
878,Winkumpaugh Road,04605,44.6251244,-68.6120893
128,Walls Farm Way,04605,44.6148577,-68.5916262
91,Sargent Drive,04605,44.6222868,-68.5896770
76,Hanson Landing Road,04605,44.6371848,-68.5662146
88,Wildwood Drive,04605,44.6309825,-68.5581229
615,Nicolin Road,04605,44.6439095,-68.4990729
795,Nicolin Road,04605,44.6502736,-68.5093090
756,Nicolin Road,04605,44.6476568,-68.5078871
64,Branch Pond Road,04605,44.6131941,-68.5300703
373,Phillips Way,04605,44.5971995,-68.5532256
853,Nicolin Road,04605,44.6536319,-68.5115004
811,Nicolin Road,04605,44.6514609,-68.5090720
323,Christian Ridge Road,04605,44.5589349,-68.4502669
425,Christian Ridge Road,04605,44.5669042,-68.4516086
670,Bangor Road,04605,44.5848661,-68.4939177
800,Bangor Road,04605,44.5899240,-68.5048596
872,Bangor Road,04605,44.5928788,-68.5105293
9,Anderson Road,04605,44.5435885,-68.4416247
29,Cristin Lane,04605,44.5459362,-68.4393678
9,Gladwick Way,04605,44.5473461,-68.4451012
283,State Street,04605,44.5540137,-68.4298095
87,North Street,04605,44.5673093,-68.4377268
16,Falls Court,04605,44.5624809,-68.4380315
191,North Street,04605,44.5737615,-68.4362666
38,Flower Way,04605,44.5992788,-68.4481415
471,North Street,04605,44.5878116,-68.4221787
62,Graham Way,04605,44.6010542,-68.4072101
9,Russian Road,04605,44.6260258,-68.4344437
448,Gary Moore Road,04605,44.6610765,-68.4343490
113,Evergreen Way,04605,44.6463159,-68.4592091
73,Black Island Way,04605,44.6377584,-68.4515280
68,Alton Avenue,04605,44.4941875,-68.4140040
10,Cottage Way,04605,44.4886225,-68.4208133
474,Bayside Road,04605,44.5008749,-68.4198681
3,Gameston Park Road,04605,44.5041467,-68.4179613
600,Bayside Road,04605,44.4920370,-68.4195281
818,Bayside Road,04605,44.4768625,-68.4203324
477,Bayside Road,04605,44.5008284,-68.4204535
695,Bayside Road,04605,44.4851393,-68.4218727
775,Bayside Road,04605,44.4798821,-68.4210570
4,Field Way,04605,44.5589318,-68.4599877
188,Red Bridge Road,04605,44.5525043,-68.4667830
350,Shore Road,04605,44.5617831,-68.4426092
554,Red Bridge Road,04605,44.5676313,-68.4910322
544,Red Bridge Road,04605,44.5675903,-68.4899180
31,Mayflower Way,04605,44.5414549,-68.5187711
885,Winkumpaugh Road,04605,44.6265435,-68.6137817
101,Patten Way,04605,44.5522119,-68.5609541
801,Bangor Road,04605,44.5901447,-68.5038625
186,Twin Hill Road,04605,44.5508006,-68.5364144
5,Alexis Road,04605,44.5418890,-68.5076083
52,Spindle Road,04605,44.4994105,-68.4249204
62,Kylies Way,04605,44.5918974,-68.4043802
676,North Street,04605,44.5958784,-68.4064689
35,Mayflower Way,04605,44.5411675,-68.5189308
39,Mayflower Way,04605,44.5408254,-68.5189399
4,Hinckley Way,04605,44.6150049,-68.5238610
133,Patten Way,04605,44.5500400,-68.5638850
132,Patten Way,04605,44.5497914,-68.5636035
72,Beechland Road,04605,44.5183742,-68.4098169
1293,Bangor Road,04605,44.6190807,-68.5276406
101,Lakes Lane,04605,44.5669300,-68.4311190
295,Branch Pond Road,04605,44.6149739,-68.5472349
8,Hinckley Way,04605,44.6150628,-68.5237030
113,Haynes Avenue,04605,44.5280918,-68.5053837
674,Nicolin Road,04605,44.6456293,-68.5022485
383,Phillips Way,04605,44.5964404,-68.5536535
12,Vinegar Hill Way,04605,44.5718591,-68.4943013
1400,Bangor Road,04605,44.6246004,-68.5344849
1289,Happytown Road,04605,44.6212107,-68.6222058
483,North Street,04605,44.5878380,-68.4211643
485,North Street,04605,44.5875085,-68.4209786
867,Mariaville Road,04605,44.6369878,-68.4266082
263,Christian Ridge Road,04605,44.5557977,-68.4493647
3,Hinckley Way,04605,44.6146934,-68.5236430
20,Fenwick Way,04605,44.5363702,-68.5160061
373,Shore Road,04605,44.5621891,-68.4400302
3,Christopher Way,04605,44.6030676,-68.4100690
202,Grant Street,04605,44.5475236,-68.4372187
21,Denver Way,04605,44.5772992,-68.4729676
15,Store Street,04605,44.5419819,-68.4235700
58,Sugar Way,04605,44.5451812,-68.4507426
26,Mias Way,04605,44.5500929,-68.3930857
23,Spruce Street,04605,44.5414522,-68.4203024
7,Happytown Road,04605,44.5575495,-68.5457288
222,Northeast Cove Way,04605,44.6524016,-68.4649541
5,Grove Way,04605,44.5615141,-68.4549521
24,Pebblenook Way,04605,44.6509110,-68.4240874
23,Pebblenook Way,04605,44.6503792,-68.4239603
59,Red Bridge Road,04605,44.5509571,-68.4546541
245,Dewbrown Way,04605,44.5107575,-68.4588224
30,Grand View Road,04605,44.5197167,-68.4082934
1,Townhouse Way,04605,44.5405676,-68.4225140
3,Townhouse Way,04605,44.5406031,-68.4224130
4,Townhouse Way,04605,44.5407333,-68.4223361
54,Benoit Way,04605,44.6486490,-68.4710671
111,Peninsula Drive,04605,44.6350170,-68.4134647
17,Kingsland Crossing,04605,44.5235503,-68.3993702
2,Williams Way,04605,44.5361905,-68.4150744
4,Williams Way,04605,44.5362700,-68.4147779
10,Williams Way,04605,44.5359277,-68.4147309
3,Oriole Way,04605,44.5361380,-68.4153645
7,Oriole Way,04605,44.5358173,-68.4151537
3,Ruth Way,04605,44.5351488,-68.4147136
13,Oriole Way,04605,44.5356233,-68.4150675
17,Oriole Way,04605,44.5354429,-68.4150001
2,Ruth Way,04605,44.5349776,-68.4146712
9,Ruth Way,04605,44.5351637,-68.4149840
8,Ruth Way,04605,44.5349384,-68.4149234
4,Mias Way,04605,44.5504036,-68.3939638
921,Bucksport Road,04605,44.5453438,-68.5165738
8,Falls Court,04605,44.5628680,-68.4389344
10,Falls Court,04605,44.5627997,-68.4387777
18,Waynes Way,04605,44.5395977,-68.5160109
6,Falls Court,04605,44.5629851,-68.4389585
74,Sugar Way,04605,44.5456533,-68.4525132
33,Sportsmans Court,04605,44.6165153,-68.5233760
30,American Avenue,04605,44.5507282,-68.4191716
10,Hinckley Way,04605,44.6149580,-68.5234139
21,Hinckley Way,04605,44.6153219,-68.5221695
7,Mias Way,04605,44.5504932,-68.3947245
3,Mias Way,04605,44.5507403,-68.3946275
9,Mias Way,04605,44.5502231,-68.3947147
11,Mias Way,04605,44.5500061,-68.3945470
15,Mias Way,04605,44.5499326,-68.3942645
17,Mias Way,04605,44.5498996,-68.3939942
33,Mias Way,04605,44.5497229,-68.3929133
34,Mias Way,04605,44.5500600,-68.3928280
38,Mias Way,04605,44.5500003,-68.3925957
44,Mias Way,04605,44.5499540,-68.3923632
539,Main Street,04605,44.5503268,-68.3922083
213,High Street,04605,44.5334448,-68.4098472
3,Good Stuff Way,04605,44.5183621,-68.3963093
9,Good Stuff Way,04605,44.5188270,-68.3965561
349,Nicolin Road,04605,44.6346716,-68.4957167
429,Winkumpaugh Road,04605,44.6304201,-68.5971272
16,Acorn Way,04605,44.5303709,-68.4330607
22,Acorn Way,04605,44.5302743,-68.4335462
28,Acorn Way,04605,44.5302677,-68.4340182
8,Gilpatrick Road,04605,44.5794297,-68.4762044
632,North Street,04605,44.5944357,-68.4094948
9,Grove Way,04605,44.5619484,-68.4544507
4,Reckless Way,04605,44.5182514,-68.4317690
8,Reckless Way,04605,44.5181156,-68.4316130
390,Winkumpaugh Road,04605,44.6330169,-68.5931946
49,Clearwater Way,04605,44.5596012,-68.5398828
132,Haynes Avenue,04605,44.5294902,-68.5029555
128,Haynes Avenue,04605,44.5291422,-68.5036758
127,Haynes Avenue,04605,44.5281456,-68.5032627
133,Haynes Avenue,04605,44.5283249,-68.5020530
129,Haynes Avenue,04605,44.5265210,-68.5023075
1454,Bangor Road,04605,44.6273616,-68.5383015
48,Patten Way,04605,44.5525912,-68.5554367
37,Village Way,04605,44.5529554,-68.5349746
31,Village Way,04605,44.5531732,-68.5354135
55,Tinker Farm Way,04605,44.5304315,-68.4206980
92,Windsor Way,04605,44.5034734,-68.4501469
102,Beechland Road,04605,44.5185589,-68.4063736
3,Laurel Street,04605,44.5368570,-68.4302727
58,Mill Dam Road,04605,44.5669088,-68.4976311
15,Beckwith Court,04605,44.5271539,-68.3998492
17,Beckwith Court,04605,44.5273073,-68.3999168
25,Beckwith Court,04605,44.5277038,-68.4000008
27,Beckwith Court,04605,44.5278620,-68.4001251
28,Sugar Way,04605,44.5455706,-68.4474847
19,Huckleberry Way,04605,44.5663432,-68.4500838
21,Huckleberry Way,04605,44.5664790,-68.4502463
20,Huckleberry Way,04605,44.5661597,-68.4502996
22,Huckleberry Way,04605,44.5663226,-68.4504870
4,Huckleberry Way,04605,44.5663817,-68.4487423
586,Bucksport Road,04605,44.5393746,-68.4835686
606,Bucksport Road,04605,44.5393615,-68.4876596
301,Branchview Drive,04605,44.5973922,-68.5730124
1207,Happytown Road,04605,44.6176818,-68.6181890
1207,Happytown Road,04605,44.6170389,-68.6170777
1189,Happytown Road,04605,44.6157260,-68.6161473
1037,Happytown Road,04605,44.6087670,-68.6081969
1391,Happytown Road,04605,44.6279363,-68.6293038
1311,Happytown Road,04605,44.6226191,-68.6220643
16,Whitmore Way,04605,44.5978451,-68.4532959
15,Spencer Street,04605,44.5478202,-68.4138564
19,Treulyfine Way,04605,44.6389524,-68.5965323
32,Treulyfine Way,04605,44.6400823,-68.5978358
182,North Bend Road,04605,44.5294209,-68.5109037
358,Bangor Road,04605,44.5745629,-68.4682251
38,Kane Way,04605,44.5415923,-68.4812580
22,Coyote Way,04605,44.6258494,-68.6056238
82,Coyote Way,04605,44.6290491,-68.6054005
66,Coyote Way,04605,44.6281793,-68.6051164
460,High Street,04605,44.5168203,-68.3941673
476,High Street,04605,44.5156882,-68.3945816
1,Hillside Drive,04605,44.5315324,-68.4321748
9,Hillside Drive,04605,44.5313743,-68.4329629
27,Hillside Drive,04605,44.5311796,-68.4345569
581,High Street,04605,44.5107911,-68.3921224
13,Hillside Drive,04605,44.5313226,-68.4334291
21,Hillside Drive,04605,44.5312354,-68.4340089
12,Hillside Drive,04605,44.5308661,-68.4330622
33,Hillside Drive,04605,44.5310970,-68.4351555
36,Hillside Drive,04605,44.5305892,-68.4353114
45,Hillside Drive,04605,44.5310127,-68.4363079
48,Hillside Drive,04605,44.5304329,-68.4364834
26,Holt Drive,04605,44.5528637,-68.4338874
39,Holt Drive,04605,44.5537125,-68.4344206
448,North Street,04605,44.5882342,-68.4238563
339,North Street,04605,44.5842186,-68.4327455
325,North Street,04605,44.5834450,-68.4328790
452,North Street,04605,44.5883037,-68.4233517
460,North Street,04605,44.5883000,-68.4226085
455,North Street,04605,44.5872804,-68.4230532
526,North Street,04605,44.5904779,-68.4180326
581,North Street,04605,44.5921176,-68.4130145
635,North Street,04605,44.5941843,-68.4087540
738,North Street,04605,44.5993737,-68.4017334
53,Oak Street,04605,44.5453790,-68.4215160
50,Oak Street,04605,44.5450889,-68.4220098
54,Oak Street,04605,44.5453017,-68.4222595
61,Oak Street,04605,44.5461506,-68.4218860
58,Oak Street,04605,44.5456041,-68.4224202
161,Shore Road,04605,44.5523570,-68.4388466
219,Shore Road,04605,44.5534554,-68.4434567
250,Shore Road,04605,44.5553798,-68.4448737
220,Shore Road,04605,44.5534287,-68.4435262
263,Shore Road,04605,44.5564417,-68.4447881
227,Shore Road,04605,44.5539297,-68.4438047
257,Shore Road,04605,44.5559825,-68.4447736
334,Shore Road,04605,44.5612530,-68.4437350
344,Shore Road,04605,44.5615134,-68.4426873
348,Shore Road,04605,44.5615397,-68.4425234
340,Shore Road,04605,44.5612276,-68.4431560
361,Shore Road,04605,44.5616784,-68.4405136
355,Shore Road,04605,44.5612452,-68.4412292
365,Shore Road,04605,44.5619917,-68.4401454
357,Shore Road,04605,44.5614923,-68.4411261
360,Shore Road,04605,44.5618568,-68.4411037
359,Shore Road,04605,44.5615227,-68.4409054
10,Acorn Way,04605,44.5303466,-68.4326834
9,Acadia Way,04605,44.5280116,-68.3935101
12,Acorn Way,04605,44.5303609,-68.4328595
42,Addie Road,04605,44.5386526,-68.5055524
59,Addie Road,04605,44.5380478,-68.5072568
10,Addie Road,04605,44.5410183,-68.5040407
68,Addie Road,04605,44.5368200,-68.5064615
48,Addie Road,04605,44.5382288,-68.5053860
53,Addie Road,04605,44.5382980,-68.5068141
43,Alexis Road,04605,44.5398927,-68.5091860
14,Alder Brook Way,04605,44.5742602,-68.4967806
39,Alder Brook Way,04605,44.5751144,-68.4944998
18,Alison Avenue,04605,44.5452413,-68.4417852
22,Alison Avenue,04605,44.5455756,-68.4420275
13,Alison Avenue,04605,44.5452183,-68.4407657
8,Alton Avenue,04605,44.4936298,-68.4193991
32,Alton Avenue,04605,44.4938714,-68.4173277
31,Alton Avenue,04605,44.4931699,-68.4174730
40,Alton Avenue,04605,44.4938409,-68.4166551
41,Alton Avenue,04605,44.4933038,-68.4163586
47,Alton Avenue,04605,44.4934085,-68.4157224
48,Alton Avenue,04605,44.4941968,-68.4158340
55,Alton Avenue,04605,44.4934777,-68.4151620
60,Alton Avenue,04605,44.4941140,-68.4146085
69,Alton Avenue,04605,44.4936511,-68.4138585
73,Alton Avenue,04605,44.4937107,-68.4131912
74,Alton Avenue,04605,44.4942695,-68.4133177
84,Alton Avenue,04605,44.4944294,-68.4120269
88,Alton Avenue,04605,44.4945024,-68.4113407
85,Alton Avenue,04605,44.4939067,-68.4119189
89,Alton Avenue,04605,44.4939935,-68.4112892
99,Alton Avenue,04605,44.4941165,-68.4098289
100,Alton Avenue,04605,44.4947346,-68.4101057
96,Alton Avenue,04605,44.4946342,-68.4107167
118,Alton Avenue,04605,44.4949891,-68.4079649
168,Alton Avenue,04605,44.4971346,-68.4050502
125,Alton Avenue,04605,44.4945080,-68.4072151
113,Alton Avenue,04605,44.4941990,-68.4092558
2,Amanda Lane,04605,44.5399775,-68.4765834
3,Amanda Lane,04605,44.5402155,-68.4764617
5,Amanda Lane,04605,44.5402387,-68.4766252
6,Amanda Lane,04605,44.5399783,-68.4767660
9,Amanda Lane,04605,44.5402170,-68.4767953
10,Amanda Lane,04605,44.5399974,-68.4769987
11,Amanda Lane,04605,44.5402225,-68.4770092
8,American Avenue,04605,44.5519908,-68.4178497
6,Anderson Road,04605,44.5438046,-68.4425542
22,Anderson Road,04605,44.5448679,-68.4399949
12,Anderson Road,04605,44.5441476,-68.4418082
32,Aquarius Lane,04605,44.5151943,-68.4316288
45,Aquarius Lane,04605,44.5145532,-68.4303328
55,Aquarius Lane,04605,44.5140905,-68.4287268
57,Aquarius Lane,04605,44.5149025,-68.4281842
74,Aquarius Lane,04605,44.5159669,-68.4294949
69,Aquarius Lane,04605,44.5158942,-68.4275579
3,Argonne Street,04605,44.5527047,-68.4317864
7,Argonne Street,04605,44.5529222,-68.4320801
8,Argonne Street,04605,44.5528755,-68.4326408
9,Argonne Street,04605,44.5531528,-68.4322793
13,Argonne Street,04605,44.5535915,-68.4326968
18,Argonne Street,04605,44.5539658,-68.4337508
24,Atlantic Highway,04605,44.5556446,-68.5399014
80,Atlantic Highway,04605,44.5570416,-68.5436678
82,Autumn Road,04605,44.6195550,-68.5368382
87,Atlantic Highway,04605,44.5571213,-68.5444604
19,Autumn Road,04605,44.6203815,-68.5319787
19,Autumn Road,04605,44.6203637,-68.5320356
44,Bangor Road,04605,44.5632533,-68.4422426
100,Bangor Road,04605,44.5656441,-68.4470051
147,Bangor Road,04605,44.5672983,-68.4502574
198,Bangor Road,04605,44.5690977,-68.4547113
94,Bangor Road,04605,44.5650839,-68.4465886
254,Bangor Road,04605,44.5707677,-68.4594563
277,Bangor Road,04605,44.5720798,-68.4608799
279,Bangor Road,04605,44.5722522,-68.4611554
113,Bangor Road,04605,44.5665100,-68.4473432
121,Bangor Road,04605,44.5665936,-68.4478651
349,Bangor Road,04605,44.5750400,-68.4672320
436,Bangor Road,04605,44.5771713,-68.4745180
444,Bangor Road,04605,44.5775614,-68.4751695
449,Bangor Road,04605,44.5781855,-68.4748238
528,Bangor Road,04605,44.5811051,-68.4813413
530,Bangor Road,04605,44.5812195,-68.4817560
545,Bangor Road,04605,44.5828346,-68.4815527
545,Bangor Road,04605,44.5828043,-68.4818112
435,Bangor Road,04605,44.5776093,-68.4738276
428,Bangor Road,04605,44.5766382,-68.4740883
547,Bangor Road,04605,44.5825043,-68.4831617
634,Bangor Road,04605,44.5834358,-68.4911273
457,Bangor Road,04605,44.5788819,-68.4755103
474,Bangor Road,04605,44.5790203,-68.4772221
654,Bangor Road,04605,44.5841412,-68.4928470
664,Bangor Road,04605,44.5846024,-68.4933280
667,Bangor Road,04605,44.5853211,-68.4929753
784,Bangor Road,04605,44.5888208,-68.5047682
769,Bangor Road,04605,44.5898480,-68.5008477
733,Bangor Road,04605,44.5881178,-68.4984059
821,Bangor Road,04605,44.5908429,-68.5060424
858,Bangor Road,04605,44.5921813,-68.5095272
988,Bangor Road,04605,44.5998957,-68.5146096
1000,Bangor Road,04605,44.6009061,-68.5150989
1105,Bangor Road,04605,44.6078612,-68.5184563
1134,Bangor Road,04605,44.6093934,-68.5199307
964,Bangor Road,04605,44.5982363,-68.5139115
1136,Bangor Road,04605,44.6095559,-68.5200428
819,Bangor Road,04605,44.5907701,-68.5058603
1153,Bangor Road,04605,44.6103230,-68.5205028
1056,Bangor Road,04605,44.6045427,-68.5171227
1161,Bangor Road,04605,44.6107338,-68.5207830
1181,Bangor Road,04605,44.6120749,-68.5217802
1219,Bangor Road,04605,44.6144923,-68.5239849
1373,Bangor Road,04605,44.6235737,-68.5321863
1445,Bangor Road,04605,44.6276064,-68.5364905
1536,Bangor Road,04605,44.6317427,-68.5431206
1185,Bangor Road,04605,44.6123368,-68.5219923
1548,Bangor Road,04605,44.6322043,-68.5437411
1417,Bangor Road,04605,44.6260912,-68.5346999
1634,Bangor Road,04605,44.6365649,-68.5491222
1672,Bangor Road,04605,44.6391495,-68.5516177
998,Bangor Road,04605,44.6005061,-68.5152598
1789,Bangor Road,04605,44.6451489,-68.5583558
1753,Bangor Road,04605,44.6444378,-68.5548997
1418,Bangor Road,04605,44.6253100,-68.5351978
1217,Bangor Road,04605,44.6144878,-68.5239849
8,Baron Lane,04605,44.6245885,-68.5326698
18,Baron Lane,04605,44.6250174,-68.5318911
21,Baron Lane,04605,44.6245919,-68.5313083
47,Barrett Way,04605,44.5091874,-68.4339266
35,Baron Lane,04605,44.6254287,-68.5312070
53,Bayside Road,04605,44.5296638,-68.4177638
88,Bayside Road,04605,44.5269863,-68.4179100
120,Bayside Road,04605,44.5249030,-68.4180755
125,Bayside Road,04605,44.5243043,-68.4180689
111,Bayside Road,04605,44.5255387,-68.4182768
154,Bayside Road,04605,44.5220441,-68.4170910
157,Bayside Road,04605,44.5215180,-68.4180840
166,Bayside Road,04605,44.5207554,-68.4168333
55,Bayside Road,04605,44.5295109,-68.4177905
112,Bayside Road,04605,44.5255428,-68.4182013
170,Bayside Road,04605,44.5200260,-68.4168028
134,Bayside Road,04605,44.5228516,-68.4174290
186,Bayside Road,04605,44.5188567,-68.4161098
224,Bayside Road,04605,44.5168102,-68.4155578
137,Bayside Road,04605,44.5227652,-68.4181408
290,Bayside Road,04605,44.5121056,-68.4154161
329,Bayside Road,04605,44.5096507,-68.4168560
349,Bayside Road,04605,44.5073856,-68.4175579
356,Bayside Road,04605,44.5065496,-68.4169246
425,Bayside Road,04605,44.5048913,-68.4183250
430,Bayside Road,04605,44.5043510,-68.4182989
438,Bayside Road,04605,44.5038514,-68.4183101
311,Bayside Road,04605,44.5102173,-68.4167371
332,Bayside Road,04605,44.5093965,-68.4155564
446,Bayside Road,04605,44.5027205,-68.4189881
467,Bayside Road,04605,44.5014574,-68.4202208
496,Bayside Road,04605,44.4996190,-68.4198554
357,Bayside Road,04605,44.5066528,-68.4177350
505,Bayside Road,04605,44.4987233,-68.4207699
523,Bayside Road,04605,44.4974636,-68.4208956
530,Bayside Road,04605,44.4970959,-68.4193962
541,Bayside Road,04605,44.4963505,-68.4206551
533,Bayside Road,04605,44.4968999,-68.4206874
542,Bayside Road,04605,44.4963158,-68.4200265
526,Bayside Road,04605,44.4973735,-68.4199972
512,Bayside Road,04605,44.4984312,-68.4199615
511,Bayside Road,04605,44.4983678,-68.4207798
522,Bayside Road,04605,44.4976966,-68.4189122
561,Bayside Road,04605,44.4949127,-68.4211598
576,Bayside Road,04605,44.4947329,-68.4185580
579,Bayside Road,04605,44.4941119,-68.4221425
580,Bayside Road,04605,44.4939065,-68.4198114
668,Bayside Road,04605,44.4872623,-68.4197704
673,Bayside Road,04605,44.4870902,-68.4204575
614,Bayside Road,04605,44.4911954,-68.4195616
698,Bayside Road,04605,44.4849059,-68.4175616
676,Bayside Road,04605,44.4864276,-68.4193951
617,Bayside Road,04605,44.4910614,-68.4206508
705,Bayside Road,04605,44.4838256,-68.4202257
720,Bayside Road,04605,44.4829225,-68.4196814
632,Bayside Road,04605,44.4900110,-68.4194413
766,Bayside Road,04605,44.4804001,-68.4202345
664,Bayside Road,04605,44.4875503,-68.4197487
721,Bayside Road,04605,44.4828197,-68.4207136
845,Bayside Road,04605,44.4751065,-68.4220095
779,Bayside Road,04605,44.4792530,-68.4239553
867,Bayside Road,04605,44.4742053,-68.4227225
840,Bayside Road,04605,44.4755377,-68.4200626
837,Bayside Road,04605,44.4763290,-68.4207589
863,Bayside Road,04605,44.4741087,-68.4205294
39,Bayview Avenue,04605,44.5463627,-68.4193284
20,Beckwith Court,04605,44.5275407,-68.4006569
40,Beals Avenue,04605,44.5414385,-68.4158464
70,Beals Avenue,04605,44.5395868,-68.4146439
56,Beechland Road,04605,44.5179387,-68.4109034
61,Beechland Road,04605,44.5166609,-68.4101488
97,Beechland Road,04605,44.5176302,-68.4069618
122,Beechland Road,04605,44.5187390,-68.4046605
88,Beechland Road,04605,44.5183131,-68.4075841
162,Beechland Road,04605,44.5187901,-68.4006523
19,Bella Fiore Way,04605,44.5559130,-68.5623805
7,North Bend Road,04605,44.5442880,-68.5170483
53,North Bend Road,04605,44.5411595,-68.5159665
56,North Bend Road,04605,44.5410346,-68.5151808
74,North Bend Road,04605,44.5398126,-68.5146811
90,North Bend Road,04605,44.5386714,-68.5141304
62,North Bend Road,04605,44.5402501,-68.5148726
113,North Bend Road,04605,44.5368397,-68.5142023
71,North Bend Road,04605,44.5400082,-68.5151641
117,North Bend Road,04605,44.5361629,-68.5138303
98,North Bend Road,04605,44.5383324,-68.5137997
101,North Bend Road,04605,44.5378362,-68.5145968
126,North Bend Road,04605,44.5357456,-68.5130786
140,North Bend Road,04605,44.5350277,-68.5125560
148,North Bend Road,04605,44.5344462,-68.5123657
153,North Bend Road,04605,44.5325916,-68.5123686
174,North Bend Road,04605,44.5307989,-68.5110306
141,North Bend Road,04605,44.5344752,-68.5128312
149,North Bend Road,04605,44.5332276,-68.5126591
175,North Bend Road,04605,44.5309994,-68.5115953
15,Benton Road,04605,44.5334668,-68.5107188
246,North Bend Road,04605,44.5279176,-68.5098843
18,Benton Road,04605,44.5339182,-68.5110108
19,Benton Road,04605,44.5337480,-68.5101627
40,Birch Avenue,04605,44.5465975,-68.4239147
68,Birch Avenue,04605,44.5478476,-68.4227694
84,Birch Avenue,04605,44.5484126,-68.4223546
91,Birch Avenue,04605,44.5487399,-68.4211994
98,Birch Avenue,04605,44.5492003,-68.4214467
6,Bittersweet Way,04605,44.6467987,-68.5040986
129,Black Island Way,04605,44.6380377,-68.4506364
6,Blue Lane,04605,44.5515266,-68.5502388
161,Black Island Way,04605,44.6364182,-68.4489748
12,Blueberry Way,04605,44.6060320,-68.5894890
180,Boggy Brook Road,04605,44.5804180,-68.4612501
220,Boggy Brook Road,04605,44.5828659,-68.4629910
19,Boggy Brook Road,04605,44.5705684,-68.4544709
70,Bohn Road,04605,44.6483905,-68.5585582
188,Boggy Brook Road,04605,44.5809058,-68.4616108
197,Boggy Brook Road,04605,44.5815466,-68.4619639
82,Bohn Road,04605,44.6491749,-68.5588486
8,Boyntons Way,04605,44.5975168,-68.4542944
7,Brae Drive,04605,44.5522374,-68.4337802
8,Brae Drive,04605,44.5519789,-68.4342989
14,Brae Drive,04605,44.5526798,-68.4349405
15,Brae Drive,04605,44.5531512,-68.4346778
145,Branch Pond Road,04605,44.6102826,-68.5368930
166,Branch Pond Road,04605,44.6090717,-68.5379738
174,Branch Pond Road,04605,44.6059911,-68.5408904
239,Branch Pond Road,04605,44.6127194,-68.5439945
9,Branchview North,04605,44.5994422,-68.5857679
51,Branchview North,04605,44.6025330,-68.5853112
45,Branchview North,04605,44.6019212,-68.5854163
59,Branchview North,04605,44.6028386,-68.5851893
63,Branchview North,04605,44.6032760,-68.5854004
177,Branchview North,04605,44.6071878,-68.5929716
151,Branchview North,04605,44.6067360,-68.5912483
159,Branchview North,04605,44.6072851,-68.5912319
89,Branchview North,04605,44.6050649,-68.5871771
58,Branchview Drive,04605,44.6011400,-68.5897314
134,Branchview Drive,04605,44.5982439,-68.5854992
182,Branchview Drive,04605,44.5987406,-68.5822070
195,Branchview Drive,04605,44.5984966,-68.5807471
204,Branchview Drive,04605,44.5997611,-68.5806435
208,Branchview Drive,04605,44.6000260,-68.5804526
224,Branchview Drive,04605,44.6009414,-68.5784551
284,Branchview Drive,04605,44.5986353,-68.5732112
252,Branchview Drive,04605,44.6004076,-68.5752962
256,Branchview Drive,04605,44.6001633,-68.5749641
294,Branchview Drive,04605,44.5981911,-68.5723828
228,Branchview Drive,04605,44.6008902,-68.5779955
259,Branchview Drive,04605,44.5988772,-68.5753074
319,Branchview Drive,04605,44.5965204,-68.5710091
344,Branchview Drive,04605,44.5958335,-68.5690801
11,Brick Cove Way,04605,44.4934277,-68.4221493
19,Bridge Hill Apartments Circle,04605,44.5398010,-68.4366511
27,Bridge Hill Apartments Circle,04605,44.5400230,-68.4360689
39,Bridge Hill Apartments Circle,04605,44.5404247,-68.4362423
51,Bridge Hill Apartments Circle,04605,44.5402969,-68.4368037
4,Brooks End Way,04605,44.6505842,-68.4613513
42,Bridgetwin Road,04605,44.5949002,-68.4540102
2,Brookside Court,04605,44.5347549,-68.4081411
5,Brookside Court,04605,44.5345562,-68.4080235
6,Brookside Court,04605,44.5345919,-68.4079602
10,Brookside Court,04605,44.5344245,-68.4077983
71,Brown Way,04605,44.6185814,-68.4540152
79,Brown Way,04605,44.6173638,-68.4554194
81,Brown Way,04605,44.6166115,-68.4562457
4,Bryce Way,04605,44.6206487,-68.5619008
17,Bucksport Road,04605,44.5394904,-68.4293911
9,Bucksport Road,04605,44.5395503,-68.4287800
32,Bucksport Road,04605,44.5389455,-68.4302587
35,Bucksport Road,04605,44.5393900,-68.4309278
38,Bucksport Road,04605,44.5391117,-68.4310815
43,Bucksport Road,04605,44.5394376,-68.4314560
47,Bucksport Road,04605,44.5393534,-68.4317022
50,Bucksport Road,04605,44.5388183,-68.4318144
52,Bucksport Road,04605,44.5388871,-68.4320844
64,Bucksport Road,04605,44.5388963,-68.4330347
70,Bucksport Road,04605,44.5388676,-68.4335888
40,Bucksport Road,04605,44.5389310,-68.4309637
71,Bucksport Road,04605,44.5395296,-68.4336453
88,Bucksport Road,04605,44.5386776,-68.4352270
79,Bucksport Road,04605,44.5394329,-68.4341183
148,Bucksport Road,04605,44.5387693,-68.4392226
279,Bucksport Road,04605,44.5397323,-68.4549603
255,Bucksport Road,04605,44.5400303,-68.4532708
249,Bucksport Road,04605,44.5398466,-68.4525047
267,Bucksport Road,04605,44.5406014,-68.4540836
281,Bucksport Road,04605,44.5400311,-68.4553225
309,Bucksport Road,04605,44.5394840,-68.4576563
328,Bucksport Road,04605,44.5386947,-68.4601685
319,Bucksport Road,04605,44.5394886,-68.4586129
325,Bucksport Road,04605,44.5399879,-68.4594957
532,Bucksport Road,04605,44.5393970,-68.4805600
474,Bucksport Road,04605,44.5384961,-68.4745261
474,Bucksport Road,04605,44.5385914,-68.4747015
662,Bucksport Road,04605,44.5393322,-68.4921851
346,Bucksport Road,04605,44.5388762,-68.4614193
687,Bucksport Road,04605,44.5401496,-68.4948151
693,Bucksport Road,04605,44.5402637,-68.4951602
746,Bucksport Road,04605,44.5399623,-68.5003237
756,Bucksport Road,04605,44.5404081,-68.5013899
366,Bucksport Road,04605,44.5392649,-68.4636814
847,Bucksport Road,04605,44.5428367,-68.5092179
815,Bucksport Road,04605,44.5426400,-68.5064124
879,Bucksport Road,04605,44.5439563,-68.5120975
879,Bucksport Road,04605,44.5439746,-68.5121666
739,Bucksport Road,04605,44.5406291,-68.4994432
769,Bucksport Road,04605,44.5410563,-68.5024417
897,Bucksport Road,04605,44.5449354,-68.5136944
802,Bucksport Road,04605,44.5415884,-68.5057730
904,Bucksport Road,04605,44.5434982,-68.5144554
908,Bucksport Road,04605,44.5438878,-68.5150312
909,Bucksport Road,04605,44.5447197,-68.5148292
893,Bucksport Road,04605,44.5442726,-68.5134355
962,Bucksport Road,04605,44.5454880,-68.5198142
1374,Bucksport Road,04605,44.5559207,-68.5550588
910,Bucksport Road,04605,44.5441179,-68.5151489
950,Bucksport Road,04605,44.5452267,-68.5187023
1339,Bucksport Road,04605,44.5571957,-68.5518950
1524,Bucksport Road,04605,44.5583839,-68.5694133
1645,Bucksport Road,04605,44.5610436,-68.5813562
1419,Bucksport Road,04605,44.5563119,-68.5596012
1765,Bucksport Road,04605,44.5627325,-68.5865385
1436,Bucksport Road,04605,44.5565255,-68.5612805
1757,Bucksport Road,04605,44.5626583,-68.5859471
2,Camo Creek Way,04605,44.5514560,-68.4573311
8,Camo Creek Way,04605,44.5517415,-68.4567934
12,Campbells Way,04605,44.6472420,-68.4599257
139,Campground Way,04605,44.5486348,-68.5683962
18,Cards Court,04605,44.5341749,-68.4082728
19,Cards Court,04605,44.5341166,-68.4083112
20,Cards Court,04605,44.5341477,-68.4082479
23,Cards Court,04605,44.5340668,-68.4082613
25,Cards Court,04605,44.5340396,-68.4082364
7,Carlisle Street,04605,44.5465013,-68.4129758
8,Carlisle Street,04605,44.5461707,-68.4134701
29,Catherine Avenue,04605,44.5450978,-68.5085065
37,Catherine Avenue,04605,44.5455730,-68.5080619
34,Catherine Avenue,04605,44.5455918,-68.5093017
49,Catherine Avenue,04605,44.5459185,-68.5078135
61,Catherine Avenue,04605,44.5468120,-68.5072772
54,Catherine Avenue,04605,44.5467007,-68.5086189
60,Catherine Avenue,04605,44.5473476,-68.5083176
93,Cedar Brook Way,04605,44.6261169,-68.4901306
13,Central Street,04605,44.5449137,-68.4265498
16,Central Street,04605,44.5443518,-68.4267000
19,Central Street,04605,44.5448845,-68.4270095
21,Central Street,04605,44.5446133,-68.4276668
25,Central Street,04605,44.5448380,-68.4275954
24,Central Street,04605,44.5443675,-68.4271342
36,Central Street,04605,44.5447008,-68.4280751
26,Central Street,04605,44.5448031,-68.4278286
40,Central Street,04605,44.5451105,-68.4280836
37,Champion Point Way,04605,44.6265447,-68.4772117
9,Chester Jones Way,04605,44.5398673,-68.4291483
30,Chapel Street,04605,44.5411025,-68.4295138
36,Chapel Street,04605,44.5412598,-68.4294808
26,Chester Jones Way,04605,44.5406709,-68.4296376
38,Chapel Street,04605,44.5414173,-68.4294604
40,Chapel Street,04605,44.5416018,-68.4294523
18,Chester Jones Way,04605,44.5403290,-68.4296599
41,Chapel Street,04605,44.5416084,-68.4289676
15,Chester Jones Way,04605,44.4843199,-68.4218368
31,Chester Jones Way,04605,44.4842926,-68.4226796
61,Christian Ridge Road,04605,44.5430283,-68.4421273
27,Christian Ridge Road,04605,44.5411381,-68.4403516
66,Christian Ridge Road,04605,44.5430548,-68.4438705
74,Christian Ridge Road,04605,44.5437944,-68.4432278
73,Christian Ridge Road,04605,44.5438166,-68.4431583
117,Christian Ridge Road,04605,44.5466004,-68.4444914
186,Christian Ridge Road,04605,44.5502717,-68.4487811
166,Christian Ridge Road,04605,44.5489743,-68.4476288
235,Christian Ridge Road,04605,44.5535493,-68.4489138
248,Christian Ridge Road,04605,44.5544734,-68.4501264
253,Christian Ridge Road,04605,44.5549949,-68.4481132
256,Christian Ridge Road,04605,44.5550924,-68.4496610
241,Christian Ridge Road,04605,44.5542207,-68.4490460
300,Christian Ridge Road,04605,44.5574969,-68.4507590
264,Christian Ridge Road,04605,44.5556927,-68.4500016
285,Christian Ridge Road,04605,44.5569934,-68.4499579
329,Christian Ridge Road,04605,44.5592912,-68.4504147
328,Christian Ridge Road,04605,44.5592119,-68.4507617
340,Christian Ridge Road,04605,44.5598943,-68.4513219
343,Christian Ridge Road,04605,44.5601435,-68.4507215
359,Christian Ridge Road,04605,44.5610272,-68.4510217
371,Christian Ridge Road,04605,44.5623518,-68.4503418
376,Christian Ridge Road,04605,44.5627667,-68.4523905
375,Christian Ridge Road,04605,44.5633866,-68.4511821
395,Christian Ridge Road,04605,44.5643918,-68.4524004
374,Christian Ridge Road,04605,44.5623447,-68.4526211
391,Christian Ridge Road,04605,44.5641038,-68.4524220
400,Christian Ridge Road,04605,44.5647377,-68.4532031
384,Christian Ridge Road,04605,44.5631282,-68.4545593
408,Christian Ridge Road,04605,44.5654070,-68.4529135
413,Christian Ridge Road,04605,44.5655481,-68.4523077
31,Church Street,04605,44.5432298,-68.4228779
32,Church Street,04605,44.5435413,-68.4230574
50,Church Street,04605,44.5440660,-68.4217934
56,Church Street,04605,44.5442711,-68.4214011
64,Church Street,04605,44.5444308,-68.4209337
69,Church Street,04605,44.5443557,-68.4203302
88,Church Street,04605,44.5448984,-68.4190597
95,Church Street,04605,44.5450131,-68.4186116
68,Church Street,04605,44.5444009,-68.4203675
97,Church Street,04605,44.5450620,-68.4184916
152,Clearwater Way,04605,44.5666070,-68.5392105
7,Colby Way,04605,44.5105288,-68.4366501
10,Colby Way,04605,44.5110359,-68.4354185
12,Colby Way,04605,44.5111330,-68.4341154
36,Commerce Park,04605,44.5621968,-68.4333688
10,Condon Way,04605,44.6030564,-68.4483641
5,Cooks Lane,04605,44.5539730,-68.4443835
27,Cottage Way,04605,44.4884555,-68.4224939
8,Countryside Court,04605,44.5573464,-68.5444649
12,Countryside Court,04605,44.5574679,-68.5444703
16,Countryside Court,04605,44.5575984,-68.5444567
2,Court Street,04605,44.5390281,-68.4296663
22,Countryside Court,04605,44.5577552,-68.5442729
28,Countryside Court,04605,44.5576643,-68.5440343
20,Courtney Court,04605,44.5406480,-68.4775341
24,Courtney Court,04605,44.5409182,-68.4775506
30,Courtney Court,04605,44.5413686,-68.4776158
36,Courtney Court,04605,44.5415306,-68.4776017
97,Cove Way,04605,44.6286754,-68.5505763
155,Cove Way,04605,44.6266885,-68.5535479
147,Cove Way,04605,44.6271520,-68.5523467
157,Cove Way,04605,44.6265857,-68.5537188
105,Cove Way,04605,44.6282840,-68.5506298
109,Cove Way,04605,44.6281221,-68.5506563
165,Cove Way,04605,44.6264876,-68.5539654
167,Cove Way,04605,44.6264522,-68.5541232
173,Cove Way,04605,44.6264491,-68.5544889
175,Cove Way,04605,44.6264502,-68.5547473
195,Cove Way,04605,44.6256422,-68.5564805
53,Northeast Cove Way,04605,44.6389703,-68.4369532
205,Cove Way,04605,44.6253840,-68.5572199
201,Cove Way,04605,44.6254682,-68.5568978
217,Cove Way,04605,44.6247562,-68.5578298
60,Northeast Cove Way,04605,44.6379579,-68.4379339
63,Northeast Cove Way,04605,44.6389557,-68.4385484
46,Northeast Cove Way,04605,44.6378372,-68.4371974
67,Northeast Cove Way,04605,44.6391108,-68.4389756
69,Northeast Cove Way,04605,44.6385683,-68.4385017
11,Cowpath Way,04605,44.6021318,-68.5990365
88,Northeast Cove Way,04605,44.6391229,-68.4414469
90,Northeast Cove Way,04605,44.6384620,-68.4425186
112,Northeast Cove Way,04605,44.6398008,-68.4420015
12,Cowpath Way,04605,44.6018798,-68.5990382
71,Northeast Cove Way,04605,44.6392437,-68.4394598
74,Northeast Cove Way,04605,44.6386533,-68.4402283
96,Northeast Cove Way,04605,44.6397218,-68.4424057
75,Northeast Cove Way,04605,44.6394627,-68.4400566
12,Crawfish Way,04605,44.6188470,-68.4530611
18,Crawfish Way,04605,44.6191503,-68.4524973
1,Crichton Way,04605,44.6188569,-68.5896948
23,Cristin Lane,04605,44.5455085,-68.4393593
28,Cristin Lane,04605,44.5459258,-68.4400162
38,Crowell Way,04605,44.6246205,-68.4499184
113,Cunningham Way,04605,44.5540581,-68.5802668
123,Cunningham Way,04605,44.5533259,-68.5794663
10,Danico Lane,04605,44.5713464,-68.4366993
17,Davis Street,04605,44.5491668,-68.4237257
3,Daisy Way,04605,44.5494068,-68.4029820
19,Davis Street,04605,44.5493366,-68.4234785
13,Deane Street,04605,44.5377633,-68.4198418
30,Deane Street,04605,44.5386978,-68.4194990
33,Deane Street,04605,44.5386769,-68.4189390
37,Deane Street,04605,44.5388609,-68.4188176
41,Deane Street,04605,44.5391290,-68.4184247
6,Deane Street,04605,44.5382220,-68.4188680
8,Deane Street,04605,44.5380228,-68.4186560
12,Deane Street,04605,44.5376118,-68.4183769
14,Deane Street,04605,44.5374764,-68.4183027
16,Deane Street,04605,44.5373363,-68.4182097
18,Deane Street,04605,44.5372009,-68.4181293
9,Dollard Farm Way,04605,44.5432715,-68.5056706
35,Dollard Farm Way,04605,44.5441612,-68.5063429
48,Dollard Farm Way,04605,44.5442699,-68.5054671
63,Dollard Farm Way,04605,44.5439393,-68.5039592
12,Downeast Highway,04605,44.5316677,-68.4048246
124,Downeast Highway,04605,44.5290004,-68.3940725
110,Downeast Highway,04605,44.5295064,-68.3952628
3,Dumont Way,04605,44.6228280,-68.5325641
3,Eastland Park Way,04605,44.5543652,-68.4316947
5,Eastland Park Way,04605,44.5542183,-68.4320297
7,Eastland Park Way,04605,44.5539377,-68.4317114
9,Eastland Park Way,04605,44.5536616,-68.4314119
11,Eastland Park Way,04605,44.5537765,-68.4309827
25,Eastward Lane,04605,44.5322650,-68.4002498
21,Eastward Lane,04605,44.5318294,-68.4013115
35,Eastward Lane,04605,44.5322727,-68.4025907
21,Edgewood Way,04605,44.5381463,-68.4163954
31,Edaco Court,04605,44.5285350,-68.4295673
21,Elm Street,04605,44.5402747,-68.4197854
109,Evergreen Way,04605,44.6466351,-68.4591242
121,Evergreen Way,04605,44.6459303,-68.4585822
127,Evergreen Way,04605,44.6455231,-68.4581383
7,Fairground Road,04605,44.5446339,-68.4139765
7,Fairwind Way,04605,44.6081133,-68.5924800
9,Fairwind Way,04605,44.6083701,-68.5925349
17,Fairground Road,04605,44.5439516,-68.4134798
7,Falls Court,04605,44.5627307,-68.4393891
10,Farrell Way,04605,44.6022076,-68.4496952
20,Field Way,04605,44.5586817,-68.4613625
19,Fieldstone Road,04605,44.5597597,-68.4421311
20,Fieldstone Road,04605,44.5606116,-68.4423686
33,Fieldstone Road,04605,44.5596975,-68.4413699
34,Fieldstone Road,04605,44.5602307,-68.4408675
50,Fieldstone Road,04605,44.5590805,-68.4394682
54,Fieldstone Road,04605,44.5592003,-68.4391145
38,Fieldstone Road,04605,44.5597718,-68.4399904
39,Fieldstone Road,04605,44.5596955,-68.4400478
45,Fieldstone Road,04605,44.5596261,-68.4405899
46,Fieldstone Road,04605,44.5601724,-68.4399929
56,Fieldstone Road,04605,44.5593257,-68.4389937
57,Fieldstone Road,04605,44.5587767,-68.4390115
63,Fieldstone Road,04605,44.5597673,-68.4390901
67,Fieldstone Road,04605,44.5598998,-68.4394918
5,Fifth Street,04605,44.5497067,-68.4272581
15,Fletcher Street,04605,44.5478494,-68.4116530
16,Fletcher Street,04605,44.5477222,-68.4123152
6,Forrest Avenue,04605,44.5520455,-68.4313836
3,Forrest Avenue,04605,44.5527580,-68.4307346
7,Forrest Avenue,04605,44.5524552,-68.4314111
9,Forrest Avenue,04605,44.5520268,-68.4321518
15,Forrest Avenue,04605,44.5515455,-68.4331322
21,Foster Street,04605,44.5328149,-68.4178016
21,Forrest Avenue,04605,44.5518684,-68.4346965
38,Foster Street,04605,44.5335454,-68.4162903
48,Foster Street,04605,44.5337375,-68.4151179
33,Foster Street,04605,44.5332287,-68.4159788
49,Foster Street,04605,44.5334219,-68.4150141
63,Foster Street,04605,44.5337945,-68.4121910
5,Fox Street,04605,44.5488792,-68.4220541
13,Fox Street,04605,44.5492964,-68.4226606
15,Fox Street,04605,44.5496990,-68.4230532
10,Franklin Street,04605,44.5415810,-68.4235236
56,Franklin Street,04605,44.5413122,-68.4228780
139,Franklin Street,04605,44.5391785,-68.4219676
153,Franklin Street,04605,44.5382619,-68.4214165
144,Franklin Street,04605,44.5390771,-68.4215029
141,Franklin Street,04605,44.5389222,-68.4220205
17,Friendship Way,04605,44.5406434,-68.4349625
19,Friendship Way,04605,44.5407488,-68.4353391
9,Gameston Park Road,04605,44.5041976,-68.4173506
15,Gameston Park Road,04605,44.5042697,-68.4164882
31,Gameston Park Road,04605,44.5043393,-68.4151352
32,Gameston Park Road,04605,44.5049650,-68.4151289
18,Gameston Park Road,04605,44.5047473,-68.4165715
37,Gameston Park Road,04605,44.5044980,-68.4144668
9,Garden Street,04605,44.5457851,-68.4234884
45,Gameston Park Road,04605,44.5045526,-68.4137115
17,Garland Road,04605,44.6379796,-68.4251232
54,Gameston Park Road,04605,44.5052075,-68.4132709
20,Garland Road,04605,44.6389227,-68.4246915
53,Garland Road,04605,44.6392407,-68.4217063
34,Gary Moore Road,04605,44.6317005,-68.4350757
170,Gary Moore Road,04605,44.6415880,-68.4338197
45,Gary Moore Road,04605,44.6324872,-68.4348600
274,Gary Moore Road,04605,44.6479648,-68.4335243
111,Gary Moore Road,04605,44.6370372,-68.4328868
282,Gary Moore Road,04605,44.6491377,-68.4340363
323,Gary Moore Road,04605,44.6514696,-68.4331812
230,Gary Moore Road,04605,44.6446347,-68.4345908
351,Gary Moore Road,04605,44.6537533,-68.4325851
379,Gary Moore Road,04605,44.6554188,-68.4316923
478,Gary Moore Road,04605,44.6642949,-68.4316245
23,Gator Way,04605,44.6218887,-68.4463013
2,Gentian Way,04605,44.5417493,-68.5170756
4,Gentian Way,04605,44.5413000,-68.5172618
8,Gentian Way,04605,44.5415546,-68.5178703
3,Giles Way,04605,44.5054302,-68.4406116
2,Gladwick Way,04605,44.5481857,-68.4455968
10,Gladwick Way,04605,44.5479222,-68.4451020
27,Ginnie May Way,04605,44.5115329,-68.4339794
40,Gladwick Way,04605,44.5466400,-68.4433832
50,Gladwick Way,04605,44.5459794,-68.4426782
10,Graham Way,04605,44.5985874,-68.4045891
16,Graham Way,04605,44.5988144,-68.4049711
22,Graham Way,04605,44.5990275,-68.4052587
56,Graham Way,04605,44.6005026,-68.4067306
82,Graham Way,04605,44.6021821,-68.4085784
144,Graham Way,04605,44.6048052,-68.4066112
116,Graham Way,04605,44.6046721,-68.4096054
120,Graham Way,04605,44.6052245,-68.4093540
48,Grand View Road,04605,44.5202189,-68.4061806
54,Grand View Road,04605,44.5201843,-68.4055832
80,Grand View Road,04605,44.5203872,-68.4030708
10,Grant Street,04605,44.5411095,-68.4273172
2,Grant Street,04605,44.5407341,-68.4269621
35,Grant Street,04605,44.5425342,-68.4277879
22,Grant Street,04605,44.5416920,-68.4276828
23,Grant Street,04605,44.5419519,-68.4274600
36,Grant Street,04605,44.5424097,-68.4280786
34,Grant Street,04605,44.5422925,-68.4280609
40,Grant Street,04605,44.5426312,-68.4282653
51,Grant Street,04605,44.5430411,-68.4283242
114,Grant Street,04605,44.5441414,-68.4332418
144,Grant Street,04605,44.5458428,-68.4341317
78,Grant Street,04605,44.5430974,-68.4305832
236,Grant Street,04605,44.5482023,-68.4406931
210,Grant Street,04605,44.5477215,-68.4381106
216,Grant Street,04605,44.5476920,-68.4385137
294,Grant Street,04605,44.5496287,-68.4451991
324,Grant Street,04605,44.5503965,-68.4466522
258,Grant Street,04605,44.5479668,-68.4422438
9,Guptil Farm Road,04605,44.5609293,-68.4521936
24,Guptil Farm Road,04605,44.5601368,-68.4530888
30,Guptil Farm Road,04605,44.5599830,-68.4538709
54,Guptil Farm Road,04605,44.5597950,-68.4559692
55,Guptil Farm Road,04605,44.5597870,-68.4561771
60,Guptil Farm Road,04605,44.5596400,-68.4565121
65,Guptil Farm Road,04605,44.5595977,-68.4570918
79,Guptil Farm Road,04605,44.5595501,-68.4584332
64,Guptil Farm Road,04605,44.5595698,-68.4568905
80,Guptil Farm Road,04605,44.5594961,-68.4584337
93,Guptil Farm Road,04605,44.5595113,-68.4597368
113,Guptil Farm Road,04605,44.5598800,-68.4615655
103,Guptil Farm Road,04605,44.5598080,-68.4606092
106,Guptil Farm Road,04605,44.5597729,-68.4608110
30,Hagans Elbow,04605,44.5383323,-68.4930560
33,Hagans Elbow,04605,44.5390391,-68.4941072
39,Hagans Elbow,04605,44.5395058,-68.4947954
8,Hale Place,04605,44.5482982,-68.4157967
10,Hallbrook Road,04605,44.5860461,-68.4363747
20,Hallbrook Road,04605,44.5861591,-68.4383010
59,Hancock Street,04605,44.5389705,-68.4208934
62,Hancock Street,04605,44.5389906,-68.4204275
60,Hancock Street,04605,44.5391126,-68.4205144
67,Hancock Street,04605,44.5382341,-68.4203658
64,Hancock Street,04605,44.5388054,-68.4202972
66,Hancock Street,04605,44.5386383,-68.4201981
63,Hancock Street,04605,44.5387311,-68.4207448
68,Hancock Street,04605,44.5384532,-68.4200867
78,Hancock Street,04605,44.5375571,-68.4191264
74,Hancock Street,04605,44.5380277,-68.4196189
79,Hancock Street,04605,44.5372795,-68.4194186
80,Hancock Street,04605,44.5373581,-68.4189396
81,Hancock Street,04605,44.5370941,-68.4192569
82,Hancock Street,04605,44.5371771,-68.4187651
85,Hancock Street,04605,44.5366871,-68.4188959
84,Hancock Street,04605,44.5370007,-68.4186033
86,Hancock Street,04605,44.5368333,-68.4184224
12,Hannah Way,04605,44.5594000,-68.4348880
13,Hannah Way,04605,44.5593091,-68.4347000
41,Hanson Landing Road,04605,44.6393292,-68.5678757
49,Hanson Landing Road,04605,44.6387081,-68.5679181
98,Hanson Landing Road,04605,44.6359819,-68.5659462
166,Hanson Landing Road,04605,44.6312148,-68.5646895
176,Hanson Landing Road,04605,44.6300571,-68.5644586
176,Hanson Landing Road,04605,44.6304590,-68.5647897
190,Hanson Landing Road,04605,44.6296614,-68.5645687
332,Happytown Road,04605,44.5720425,-68.5698226
884,Happytown Road,04605,44.6022953,-68.5968806
368,Happytown Road,04605,44.5748072,-68.5712695
820,Happytown Road,04605,44.5997108,-68.5953927
488,Happytown Road,04605,44.5804648,-68.5783890
873,Happytown Road,04605,44.6030271,-68.5963337
879,Happytown Road,04605,44.6034164,-68.5969737
786,Happytown Road,04605,44.5988179,-68.5949264
798,Happytown Road,04605,44.5976860,-68.5943295
922,Happytown Road,04605,44.6030460,-68.6004416
934,Happytown Road,04605,44.6033473,-68.6016555
1011,Happytown Road,04605,44.6076631,-68.6065661
1139,Happytown Road,04605,44.6139994,-68.6140476
1119,Happytown Road,04605,44.6126036,-68.6125886
1540,Happytown Road,04605,44.6361356,-68.6370814
1504,Happytown Road,04605,44.6341103,-68.6357638
218,Hardwood Way,04605,44.5662507,-68.4744211
313,Hardwood Way,04605,44.5607891,-68.4760569
4,Harmony Way,04605,44.6391025,-68.4950605
45,Haynes Avenue,04605,44.5318070,-68.5078506
48,Haynes Avenue,04605,44.5331911,-68.5073166
72,Haynes Avenue,04605,44.5312131,-68.5058293
58,Haynes Avenue,04605,44.5323605,-68.5067698
64,Haynes Avenue,04605,44.5318717,-68.5061572
77,Haynes Avenue,04605,44.5304912,-68.5064647
80,Haynes Avenue,04605,44.5306494,-68.5055823
104,Haynes Avenue,04605,44.5289898,-68.5048727
105,Haynes Avenue,04605,44.5291325,-68.5056015
8,Hemlock Grove Way,04605,44.6094964,-68.5612096
15,Herbs Way,04605,44.6342815,-68.4879536
23,Herbs Way,04605,44.6344880,-68.4888343
130,Hida Way,04605,44.5485242,-68.5701029
20,Higgins Way,04605,44.5570391,-68.4473196
12,High Street,04605,44.5428166,-68.4186272
32,High Street,04605,44.5416613,-68.4180408
50,High Street,04605,44.5409874,-68.4174244
99,High Street,04605,44.5383682,-68.4148827
105,High Street,04605,44.5380931,-68.4147974
138,High Street,04605,44.5373192,-68.4130933
161,High Street,04605,44.5353943,-68.4134210
176,High Street,04605,44.5356656,-68.4110394
186,High Street,04605,44.5352767,-68.4106972
204,High Street,04605,44.5349912,-68.4103225
194,High Street,04605,44.5357913,-68.4092319
211,High Street,04605,44.5337401,-68.4094981
225,High Street,04605,44.5313038,-68.4092836
225,High Street,04605,44.5313038,-68.4092836
221,High Street,04605,44.5322207,-68.4107658
226,High Street,04605,44.5329298,-68.4077442
270,High Street,04605,44.5303221,-68.4048760
300,High Street,04605,44.5275006,-68.4015886
307,High Street,04605,44.5268702,-68.4015447
280,High Street,04605,44.5292384,-68.4042326
290,High Street,04605,44.5284051,-68.4032532
318,High Street,04605,44.5262871,-68.4002230
308,High Street,04605,44.5269160,-68.4008332
328,High Street,04605,44.5256399,-68.3995690
352,High Street,04605,44.5235452,-68.3975582
7,Indigo Way,04605,44.5426625,-68.5179933
3,Indigo Way,04605,44.5422991,-68.5172221
5,Indigo Way,04605,44.5423084,-68.5172976
6,Infant Street,04605,44.5593383,-68.4498980
14,Infant Street,04605,44.5602763,-68.4493288
3,Industrial Road,04605,44.5722989,-68.4511171
15,Infant Street,04605,44.5591981,-68.4488290
21,Infant Street,04605,44.5588826,-68.4478247
3,Irving Way,04605,44.5984359,-68.4535172
3,Irving Way,04605,44.5984586,-68.4535611
9,Industrial Road,04605,44.5727657,-68.4517866
12,Industrial Road,04605,44.5728751,-68.4520689
2,Jims Way,04605,44.5329123,-68.4157177
3,Jims Way,04605,44.5328356,-68.4165554
4,Jims Way,04605,44.5328281,-68.4159640
9,Jones Point Way,04605,44.6240318,-68.5590895
10,Jones Point Way,04605,44.6234005,-68.5587855
55,Jones Point Way,04605,44.6249691,-68.5628705
82,Jordan Way,04605,44.6295191,-68.4909707
18,Joseph Way,04605,44.5465682,-68.5060645
52,Joy Way,04605,44.5078793,-68.4434440
36,Joy Way,04605,44.5076668,-68.4423326
60,Joy Way,04605,44.5078781,-68.4441296
66,Joy Way,04605,44.5077711,-68.4452629
72,Joy Way,04605,44.5077557,-68.4458040
11,Jude Lane,04605,44.5490353,-68.4271199
12,Jude Lane,04605,44.5491632,-68.4274900
17,Kissick Point Way,04605,44.4896569,-68.4232933
8,Ladybug Lane,04605,44.5405771,-68.4767858
12,Ladybug Lane,04605,44.5405824,-68.4769620
22,Lakes Lane,04605,44.5622248,-68.4362962
50,Lakes Lane,04605,44.5639495,-68.4355240
59,Lakes Lane,04605,44.5639449,-68.4336792
74,Lakes Lane,04605,44.5651060,-68.4336490
117,Lakes Lane,04605,44.5676482,-68.4298211
144,Lakes Lane,04605,44.5694654,-68.4295452
147,Lakes Lane,04605,44.5691761,-68.4283957
156,Lakes Lane,04605,44.5702038,-68.4286879
70,Lakewood Way,04605,44.6327463,-68.4408650
104,Lakewood Way,04605,44.6343587,-68.4429047
4,Landing Way,04605,44.6290272,-68.5646996
22,Landing Way,04605,44.6283437,-68.5660536
9,Larkspur Lane,04605,44.5435553,-68.5172873
7,Landing Way,04605,44.6293082,-68.5651891
15,Laurel Street,04605,44.5368884,-68.4293599
21,Laurel Street,04605,44.5370435,-68.4288549
6,Ledge Way,04605,44.5827254,-68.4882804
46,Laurel Street,04605,44.5374206,-68.4259751
16,Ledge Way,04605,44.5828948,-68.4889150
23,Ledge Way,04605,44.5827834,-68.4891805
17,Ledge Ridge Way,04605,44.5825127,-68.4890380
25,Ledge Ridge Way,04605,44.5825287,-68.4895984
3,Liberty Street,04605,44.5420850,-68.4279685
5,Liberty Street,04605,44.5421225,-68.4282702
9,Liberty Street,04605,44.5420561,-68.4284786
12,Liberty Street,04605,44.5416144,-68.4283633
13,Liberty Street,04605,44.5419852,-68.4287122
27,Liberty Street,04605,44.5419138,-68.4297262
3,Lincoln Street,04605,44.5450847,-68.4211790
14,Lincoln Street,04605,44.5456865,-68.4209150
15,Lincoln Street,04605,44.5453513,-68.4204840
21,Lincoln Street,04605,44.5456460,-68.4200153
27,Lincoln Street,04605,44.5459433,-68.4191878
150,Little Rocky Way,04605,44.6457016,-68.5421157
2,Logan Way,04605,44.6315784,-68.5414325
9,Logan Way,04605,44.6311213,-68.5408247
11,Logan Way,04605,44.6307909,-68.5403608
21,Lundin Way,04605,44.5249224,-68.4201329
20,Lundin Way,04605,44.5248944,-68.4199318
45,Lundin Way,04605,44.5247132,-68.4223623
2,Maddocks Avenue,04605,44.5475410,-68.4086095
4,Maddocks Avenue,04605,44.5478530,-68.4088645
6,Maddocks Avenue,04605,44.5481649,-68.4091257
16,Maddocks Avenue,04605,44.5491994,-68.4107204
8,Maddocks Avenue,04605,44.5484679,-68.4093996
78,Maddocks Avenue,04605,44.5505325,-68.4134704
22,Maddocks Avenue,04605,44.5497364,-68.4118480
23,Maddocks Avenue,04605,44.5501627,-68.4115919
81,Maddocks Avenue,04605,44.5512674,-68.4136959
25,Maddocks Avenue,04605,44.5503948,-68.4120743
156,Maddocks Avenue,04605,44.5522477,-68.4196853
95,Maddocks Avenue,04605,44.5520180,-68.4152433
182,Maddocks Avenue,04605,44.5507028,-68.4212744
170,Maddocks Avenue,04605,44.5513913,-68.4203485
186,Maddocks Avenue,04605,44.5501807,-68.4212859
11,Main Street,04605,44.5398194,-68.4276697
22,Main Street,04605,44.5405015,-68.4272602
23,Main Street,04605,44.5402074,-68.4269547
24,Main Street,04605,44.5405594,-68.4271401
15,Main Street,04605,44.5399581,-68.4275047
5,Main Street,04605,44.5393793,-68.4278817
34,Main Street,04605,44.5409527,-68.4265823
71,Main Street,04605,44.5411899,-68.4245156
98,Main Street,04605,44.5415713,-68.4242664
101,Main Street,04605,44.5414119,-68.4238966
112,Main Street,04605,44.5416644,-68.4239885
120,Main Street,04605,44.5417089,-68.4238874
165,Main Street,04605,44.5417896,-68.4229236
169,Main Street,04605,44.5418339,-68.4227973
167,Main Street,04605,44.5418072,-68.4228479
194,Main Street,04605,44.5423978,-68.4221497
204,Main Street,04605,44.5425338,-68.4214372
216,Main Street,04605,44.5430511,-68.4204816
231,Main Street,04605,44.5432484,-68.4194600
264,Main Street,04605,44.5441522,-68.4174872
268,Main Street,04605,44.5443219,-68.4172212
276,Main Street,04605,44.5445217,-68.4166968
279,Main Street,04605,44.5442083,-68.4161334
272,Main Street,04605,44.5444457,-68.4167982
298,Main Street,04605,44.5450541,-68.4151745
277,Main Street,04605,44.5441288,-68.4164363
307,Main Street,04605,44.5449416,-68.4143070
317,Main Street,04605,44.5453236,-68.4133087
344,Main Street,04605,44.5473295,-68.4094866
343,Main Street,04605,44.5467220,-68.4095116
357,Main Street,04605,44.5475289,-68.4071367
315,Main Street,04605,44.5451948,-68.4136499
310,Main Street,04605,44.5453604,-68.4143406
336,Main Street,04605,44.5466183,-68.4112311
340,Main Street,04605,44.5466155,-68.4106898
401,Main Street,04605,44.5496886,-68.4034890
424,Main Street,04605,44.5506930,-68.4018861
418,Main Street,04605,44.5505257,-68.4026054
405,Main Street,04605,44.5498784,-68.4036318
448,Main Street,04605,44.5511230,-68.3997729
450,Main Street,04605,44.5511895,-68.3995707
457,Main Street,04605,44.5507721,-68.3980957
475,Main Street,04605,44.5508533,-68.3964267
509,Main Street,04605,44.5507006,-68.3939418
471,Main Street,04605,44.5509930,-68.3973003
12,Maple Street,04605,44.5379917,-68.4285435
13,Maple Street,04605,44.5378457,-68.4290547
17,Maple Street,04605,44.5376338,-68.4289876
35,Maple Street,04605,44.5369218,-68.4288309
40,Maple Street,04605,44.5363424,-68.4281821
39,Maple Street,04605,44.5364444,-68.4287726
26,Mariaville Road,04605,44.5706433,-68.4522347
36,Maple Street,04605,44.5366581,-68.4282985
48,Mariaville Road,04605,44.5718844,-68.4510392
179,Mariaville Road,04605,44.5866705,-68.4490356
37,Mariaville Road,04605,44.5712834,-68.4515045
205,Mariaville Road,04605,44.5896651,-68.4492970
223,Mariaville Road,04605,44.5917067,-68.4498132
94,Mariaville Road,04605,44.5768015,-68.4495255
266,Mariaville Road,04605,44.5949901,-68.4511682
199,Mariaville Road,04605,44.5889758,-68.4491713
254,Mariaville Road,04605,44.5958052,-68.4512298
302,Mariaville Road,04605,44.5983023,-68.4519434
322,Mariaville Road,04605,44.5996808,-68.4521825
345,Mariaville Road,04605,44.6010071,-68.4509099
347,Mariaville Road,04605,44.6012334,-68.4511598
217,Mariaville Road,04605,44.5910305,-68.4496180
413,Mariaville Road,04605,44.6067910,-68.4462053
443,Mariaville Road,04605,44.6095870,-68.4435574
459,Mariaville Road,04605,44.6110907,-68.4390312
211,Mariaville Road,04605,44.5903500,-68.4494481
460,Mariaville Road,04605,44.6119637,-68.4426399
582,Mariaville Road,04605,44.6195730,-68.4366618
355,Mariaville Road,04605,44.6017313,-68.4508086
398,Mariaville Road,04605,44.6055766,-68.4482583
655,Mariaville Road,04605,44.6279986,-68.4347019
667,Mariaville Road,04605,44.6285924,-68.4346142
753,Mariaville Road,04605,44.6313507,-68.4299038
796,Mariaville Road,04605,44.6334170,-68.4299403
526,Mariaville Road,04605,44.6167393,-68.4380000
937,Mariaville Road,04605,44.6416927,-68.4268204
991,Mariaville Road,04605,44.6441541,-68.4248794
731,Mariaville Road,04605,44.6307495,-68.4320907
992,Mariaville Road,04605,44.6445912,-68.4276556
1051,Mariaville Road,04605,44.6466365,-68.4244261
1089,Mariaville Road,04605,44.6505852,-68.4264427
930,Mariaville Road,04605,44.6398724,-68.4264600
834,Mariaville Road,04605,44.6361520,-68.4286842
1193,Mariaville Road,04605,44.6638849,-68.4270369
1083,Mariaville Road,04605,44.6482893,-68.4245863
1111,Mariaville Road,04605,44.6533671,-68.4264657
9,Marigold Way,04605,44.5503586,-68.4059623
21,Marion Road,04605,44.4937016,-68.4036198
5,Mayflower Way,04605,44.5424033,-68.5163149
49,Mayflower Way,04605,44.5397371,-68.5181118
5,McDonald Avenue,04605,44.5478229,-68.4100230
6,McDonald Avenue,04605,44.5475177,-68.4101960
51,Mayflower Way,04605,44.5401762,-68.5176299
53,Mayflower Way,04605,44.5407149,-68.5172919
9,McDonald Avenue,04605,44.5482844,-68.4104715
12,McDonald Avenue,04605,44.5482203,-68.4111331
13,McDonald Avenue,04605,44.5487134,-68.4107442
17,McDonald Avenue,04605,44.5490324,-68.4114900
18,McDonald Avenue,04605,44.5487293,-68.4120848
19,McDonald Avenue,04605,44.5491873,-68.4118599
19,McKenzie Avenue,04605,44.5458171,-68.4156075
10,Meadow View Lane,04605,44.5482731,-68.4082874
12,Meadow View Lane,04605,44.5482379,-68.4084514
14,Meadow View Lane,04605,44.5481400,-68.4086601
16,Meadow View Lane,04605,44.5482482,-68.4087031
22,Meadow View Lane,04605,44.5487550,-68.4083329
28,Meadow View Lane,04605,44.5489366,-68.4086332
11,Merrill Lane,04605,44.5362416,-68.4110084
41,Milky Way,04605,44.6419973,-68.4229651
41,Mill Dam Road,04605,44.5685185,-68.4972268
47,Moore Farm Circle East,04605,44.5829253,-68.4767714
122,Mosley Cove Way,04605,44.5400689,-68.5307596
134,Mosley Cove Way,04605,44.5401952,-68.5319418
15,Mountain Top Way,04605,44.6309512,-68.6317808
2,Mountain View Drive,04605,44.5318750,-68.4322721
9,Mountain View Drive,04605,44.5323093,-68.4327210
12,Mountain View Drive,04605,44.5318059,-68.4328580
15,Mountain View Drive,04605,44.5322448,-68.4333132
33,Mountain View Drive,04605,44.5320323,-68.4349577
42,Mountain View Drive,04605,44.5314423,-68.4357877
38,Mountain View Drive,04605,44.5315065,-68.4351201
50,Mountain View Drive,04605,44.5313772,-68.4362918
39,Mountain View Drive,04605,44.5319586,-68.4355122
40,Mountain View Drive,04605,44.5314550,-68.4356240
10,Nancys Way,04605,44.5085566,-68.4374428
11,Nancys Way,04605,44.5075881,-68.4372885
6,Nancys Way,04605,44.5082714,-68.4380242
64,Nicolin Road,04605,44.6184410,-68.5210221
119,Nicolin Road,04605,44.6198137,-68.5156538
131,Nicolin Road,04605,44.6206915,-68.5145939
122,Nicolin Road,04605,44.6209310,-68.5158777
679,Nicolin Road,04605,44.6462256,-68.5027478
687,Nicolin Road,04605,44.6461749,-68.5034923
132,Nicolin Road,04605,44.6212571,-68.5152888
659,Nicolin Road,04605,44.6459550,-68.5005559
725,Nicolin Road,04605,44.6469064,-68.5060965
559,Nicolin Road,04605,44.6427594,-68.4985721
721,Nicolin Road,04605,44.6467923,-68.5057443
727,Nicolin Road,04605,44.6473154,-68.5059669
763,Nicolin Road,04605,44.6487451,-68.5086976
817,Nicolin Road,04605,44.6517630,-68.5091829
849,Nicolin Road,04605,44.6531990,-68.5112960
837,Nicolin Road,04605,44.6527814,-68.5104860
31,North Street,04605,44.5635942,-68.4392360
34,North Street,04605,44.5639156,-68.4396170
53,North Street,04605,44.5650563,-68.4381578
63,North Street,04605,44.5657782,-68.4385035
49,North Street,04605,44.5647172,-68.4387718
62,North Street,04605,44.5657408,-68.4391398
69,North Street,04605,44.5661109,-68.4384184
72,North Street,04605,44.5665587,-68.4388612
73,North Street,04605,44.5663845,-68.4382143
91,North Street,04605,44.5677458,-68.4376912
88,North Street,04605,44.5673717,-68.4385133
105,North Street,04605,44.5691132,-68.4374954
117,North Street,04605,44.5691826,-68.4378788
99,North Street,04605,44.5682096,-68.4377371
103,North Street,04605,44.5685475,-68.4377905
124,North Street,04605,44.5695623,-68.4382026
97,North Street,04605,44.5678278,-68.4378856
129,North Street,04605,44.5701661,-68.4374097
149,North Street,04605,44.5710740,-68.4371427
133,North Street,04605,44.5705078,-68.4373308
150,North Street,04605,44.5713740,-68.4377318
176,North Street,04605,44.5732851,-68.4373355
302,North Street,04605,44.5817280,-68.4342813
155,North Street,04605,44.5715776,-68.4370182
303,North Street,04605,44.5818768,-68.4334296
175,North Street,04605,44.5731227,-68.4363484
228,North Street,04605,44.5770371,-68.4360020
317,North Street,04605,44.5819174,-68.4307272
65,Oak Street,04605,44.5463324,-68.4222304
70,Oak Street,04605,44.5462504,-68.4229362
71,Oak Street,04605,44.5465587,-68.4224800
75,Oak Street,04605,44.5467896,-68.4227420
78,Oak Street,04605,44.5465674,-68.4232982
79,Oak Street,04605,44.5469886,-68.4229226
99,Oak Street,04605,44.5472828,-68.4232533
107,Oak Street,04605,44.5482233,-68.4240875
113,Oak Street,04605,44.5488561,-68.4245974
122,Oak Street,04605,44.5490311,-68.4253889
130,Oak Street,04605,44.5493128,-68.4259149
149,Oak Street,04605,44.5501378,-68.4261585
8,Oakwood Lane,04605,44.5603376,-68.5827652
18,Old Mill Road,04605,44.5644748,-68.4407387
9,Our Way,04605,44.5381860,-68.4479133
12,Our Way,04605,44.5379206,-68.4479410
8,Our Way,04605,44.5384237,-68.4477411
5,Parcher Street,04605,44.5483276,-68.4189060
7,Parcher Street,04605,44.5485542,-68.4191996
26,Parcher Street,04605,44.5491740,-68.4207104
10,Parcher Street,04605,44.5482277,-68.4196120
14,Parcher Street,04605,44.5484267,-68.4197988
19,Park Street,04605,44.5451723,-68.4224748
4,Park Street,04605,44.5448153,-68.4239889
20,Park Street,04605,44.5453914,-68.4230706
50,Park Street,04605,44.5462204,-68.4214510
12,Park Street,04605,44.5451190,-68.4235013
51,Park Street,04605,44.5460648,-68.4209490
56,Park Street,04605,44.5467207,-68.4206970
71,Park Street,04605,44.5468743,-68.4199087
73,Park Street,04605,44.5469949,-68.4197186
76,Park Street,04605,44.5474128,-68.4195760
80,Park Street,04605,44.5475821,-68.4192470
81,Park Street,04605,44.5478539,-68.4178028
82,Park Street,04605,44.5480331,-68.4185249
100,Park Street,04605,44.5492397,-68.4176883
84,Park Street,04605,44.5482743,-68.4181511
3,Patrick's Way,04605,44.5513620,-68.3981337
42,Patten Way,04605,44.5540875,-68.5558975
6,Patten Way,04605,44.5560700,-68.5540819
142,Patten Way,04605,44.5502173,-68.5631597
27,Patten Way,04605,44.5549373,-68.5556581
10,Patten Way,04605,44.5551127,-68.5533211
17,Patten Way,04605,44.5552138,-68.5550138
21,Penn Way,04605,44.5770402,-68.4753694
22,Penn Way,04605,44.5770039,-68.4753130
23,Penn Way,04605,44.5769774,-68.4754203
24,Penn Way,04605,44.5769546,-68.4753513
161,Phillips Way,04605,44.6093783,-68.5609206
211,Phillips Way,04605,44.6060492,-68.5590806
219,Phillips Way,04605,44.6055041,-68.5589651
243,Phillips Way,04605,44.6042299,-68.5577083
261,Phillips Way,04605,44.6032624,-68.5566193
303,Phillips Way,04605,44.6009162,-68.5551817
391,Phillips Way,04605,44.5958673,-68.5532673
452,Phillips Way,04605,44.5925249,-68.5561277
21,Pickeral Cove Way,04605,44.5960258,-68.5512376
56,Pine Street,04605,44.5412568,-68.4199393
8,Pioneer Farm Way,04605,44.5167171,-68.4167226
57,Pioneer Farm Way,04605,44.5165252,-68.4214555
78,Pioneer Farm Way,04605,44.5148190,-68.4223091
182,Pioneer Farm Way,04605,44.5088394,-68.4255323
122,Pioneer Farm Way,04605,44.5133634,-68.4246574
223,Pioneer Farm Way,04605,44.5069174,-68.4291240
162,Pioneer Farm Way,04605,44.5108184,-68.4243113
119,Pioneer Farm Way,04605,44.5131624,-68.4258610
10,Pleasant Street,04605,44.5397393,-68.4305593
7,Pleasant Street,04605,44.5397957,-68.4301497
178,Pioneer Farm Way,04605,44.5100227,-68.4254137
18,Pleasant Street,04605,44.5402893,-68.4307428
22,Pleasant Street,04605,44.5407535,-68.4308515
32,Pleasant Street,04605,44.5412793,-68.4315765
24,Poors Way,04605,44.5498017,-68.4596945
30,Poors Way,04605,44.5485809,-68.4594980
18,Pond Avenue,04605,44.5492279,-68.4287232
31,Raymond Way,04605,44.4807477,-68.4239846
32,Raymond Way,04605,44.4803029,-68.4241651
22,Red Bridge Road,04605,44.5506416,-68.4508171
44,Red Bridge Road,04605,44.5503784,-68.4531802
28,Red Bridge Road,04605,44.5505319,-68.4514036
58,Red Bridge Road,04605,44.5502901,-68.4544904
27,Red Bridge Road,04605,44.5511275,-68.4517002
54,Red Bridge Road,04605,44.5503466,-68.4540618
40,Red Bridge Road,04605,44.5501953,-68.4525461
62,Red Bridge Road,04605,44.5502065,-68.4548814
73,Red Bridge Road,04605,44.5512438,-68.4552935
83,Red Bridge Road,04605,44.5511416,-68.4565283
132,Red Bridge Road,04605,44.5514344,-68.4613224
136,Red Bridge Road,04605,44.5513153,-68.4618459
171,Red Bridge Road,04605,44.5527376,-68.4646845
545,Red Bridge Road,04605,44.5679289,-68.4901291
222,Red Bridge Road,04605,44.5486705,-68.4689896
194,Red Bridge Road,04605,44.5523487,-68.4671873
538,Red Bridge Road,04605,44.5677321,-68.4894130
563,Red Bridge Road,04605,44.5682861,-68.4914924
551,Red Bridge Road,04605,44.5703588,-68.4909517
630,Red Bridge Road,04605,44.5706199,-68.4950236
697,Red Bridge Road,04605,44.5734857,-68.4977319
839,Red Bridge Road,04605,44.5830952,-68.5037398
875,Red Bridge Road,04605,44.5854128,-68.5046460
908,Red Bridge Road,04605,44.5873425,-68.5074578
701,Red Bridge Road,04605,44.5742938,-68.4982854
711,Red Bridge Road,04605,44.5757674,-68.4996834
817,Red Bridge Road,04605,44.5818233,-68.5031522
934,Red Bridge Road,04605,44.5889533,-68.5083449
930,Red Bridge Road,04605,44.5876749,-68.5104344
974,Red Bridge Road,04605,44.5913898,-68.5097039
12,Ridge Way,04605,44.5395695,-68.5031593
35,Ridge Way,04605,44.5374791,-68.5017170
7,Riverside Lane,04605,44.5206065,-68.4301417
25,Riverside Lane,04605,44.5209861,-68.4286280
44,Riverside Lane,04605,44.5212091,-68.4273171
60,Riverside Lane,04605,44.5201824,-68.4272391
85,Riverside Lane,04605,44.5186338,-68.4272165
40,Rose Way,04605,44.6132997,-68.5611369
1,Russian Road,04605,44.6260519,-68.4351746
3,Russian Road,04605,44.6260053,-68.4348410
115,Sargent Drive,04605,44.6222887,-68.5876979
103,Sargent Drive,04605,44.6225295,-68.5883391
121,Sargent Drive,04605,44.6221161,-68.5872895
143,Sargent Drive,04605,44.6215240,-68.5853651
149,Sargent Drive,04605,44.6213152,-68.5848876
159,Sargent Drive,04605,44.6212437,-68.5837851
163,Sargent Drive,04605,44.6213853,-68.5831224
233,Sargent Drive,04605,44.6243714,-68.5823699
169,Sargent Drive,04605,44.6217442,-68.5828047
249,Sargent Drive,04605,44.6238728,-68.5814280
263,Sargent Drive,04605,44.6244930,-68.5799298
3,Saunders Way,04605,44.5806540,-68.5044344
5,School Street,04605,44.5425519,-68.4223496
17,School Street,04605,44.5430907,-68.4229800
19,School Street,04605,44.5432381,-68.4227520
3,Seaveys Road,04605,44.4950985,-68.4039137
11,Seaveys Road,04605,44.4959694,-68.4034457
19,Sennet Way,04605,44.5675824,-68.4365089
14,Seaveys Road,04605,44.4959469,-68.4043201
25,Sennet Way,04605,44.5679331,-68.4364300
37,Sennet Way,04605,44.5685379,-68.4358511
33,Seaveys Road,04605,44.4973312,-68.4039035
17,Shore Road,04605,44.5483018,-68.4280524
45,Shore Road,04605,44.5482978,-68.4299660
15,Shore Road,04605,44.5485521,-68.4277037
47,Shore Road,04605,44.5484214,-68.4303803
127,Shore Road,04605,44.5505887,-68.4362575
6,Southgate Way,04605,44.5201147,-68.3915221
11,South Street,04605,44.5396580,-68.4269034
13,South Street,04605,44.5394999,-68.4268043
10,Southgate Way,04605,44.5200988,-68.3910693
14,Southgate Way,04605,44.5200786,-68.3906479
21,Speed Way,04605,44.5203052,-68.4338127
1,Spencer Street,04605,44.5464999,-68.4118303
5,Spencer Street,04605,44.5469851,-68.4125367
7,Spencer Street,04605,44.5472477,-68.4128236
10,Spencer Street,04605,44.5471982,-68.4137116
11,Spencer Street,04605,44.5476613,-68.4135999
5,Spindle Road,04605,44.5006874,-68.4210587
89,Spindle Road,04605,44.5009007,-68.4276543
120,Spindle Road,04605,44.5024890,-68.4293245
125,Spindle Road,04605,44.5029160,-68.4291882
6,Sportsmans Court,04605,44.6155106,-68.5242413
4,Sportsmans Court,04605,44.6154393,-68.5244057
7,Sportsmans Court,04605,44.6152622,-68.5240416
8,Sportsmans Court,04605,44.6155549,-68.5240770
15,Sportsmans Court,04605,44.6155385,-68.5233714
17,Sportsmans Court,04605,44.6156099,-68.5232258
9,Sportsmans Court,04605,44.6153246,-68.5238773
10,Sportsmans Court,04605,44.6156443,-68.5239062
11,Sportsmans Court,04605,44.6154094,-68.5237064
13,Sportsmans Court,04605,44.6154807,-68.5235357
5,Spring House Lane,04605,44.5333473,-68.4341709
24,Spruce Street,04605,44.5416849,-68.4200357
33,Spruce Street,04605,44.5417133,-68.4194186
40,State Street,04605,44.5424202,-68.4256868
85,State Street,04605,44.5441874,-68.4253358
86,State Street,04605,44.5441253,-68.4264127
88,State Street,04605,44.5442515,-68.4255429
96,State Street,04605,44.5446935,-68.4257274
114,State Street,04605,44.5454418,-68.4259340
112,State Street,04605,44.5452751,-68.4258979
108,State Street,04605,44.5450991,-68.4258115
124,State Street,04605,44.5462035,-68.4261342
140,State Street,04605,44.5470604,-68.4264657
126,State Street,04605,44.5464604,-68.4261884
137,State Street,04605,44.5468375,-68.4259895
147,State Street,04605,44.5476104,-68.4257302
153,State Street,04605,44.5478585,-68.4258347
161,State Street,04605,44.5482291,-68.4261332
169,State Street,04605,44.5486751,-68.4262044
185,State Street,04605,44.5496075,-68.4263337
179,State Street,04605,44.5492563,-68.4262994
190,State Street,04605,44.5499984,-68.4270790
275,State Street,04605,44.5530412,-68.4297623
277,State Street,04605,44.5537055,-68.4293907
287,State Street,04605,44.5540927,-68.4302935
298,State Street,04605,44.5539581,-68.4312957
312,State Street,04605,44.5551324,-68.4320964
374,State Street,04605,44.5587236,-68.4355556
399,State Street,04605,44.5606650,-68.4367394
405,State Street,04605,44.5609532,-68.4367555
409,State Street,04605,44.5612526,-68.4372248
412,State Street,04605,44.5606510,-68.4384584
377,State Street,04605,44.5590284,-68.4352820
422,State Street,04605,44.5615283,-68.4383618
422,State Street,04605,44.5615820,-68.4383109
299,State Street,04605,44.5548137,-68.4304690
8,Sterling Street,04605,44.5458271,-68.4264778
16,Sterling Street,04605,44.5457218,-68.4270139
426,State Street,04605,44.5615900,-68.4381093
20,Sterling Street,04605,44.5457137,-68.4271902
19,Sterling Street,04605,44.5462280,-68.4274244
31,Sterling Street,04605,44.5462752,-68.4278519
35,Sterling Street,04605,44.5466410,-68.4280875
6,Stoney Ridge Road,04605,44.5190938,-68.4027694
41,Stoney Ridge Road,04605,44.5213432,-68.4025262
7,Straw Way,04605,44.5343597,-68.4188372
9,Store Street,04605,44.5418280,-68.4242890
42,Stoney Ridge Road,04605,44.5212388,-68.4032257
10,Straw Way,04605,44.5351826,-68.4186843
15,Straw Way,04605,44.5345898,-68.4180672
16,Straw Way,04605,44.5348830,-68.4181901
19,Straw Way,04605,44.5349112,-68.4175353
25,Strawberry Way,04605,44.5602974,-68.4556057
44,Sugar Way,04605,44.5457142,-68.4492584
6,Summer Way,04605,44.5473349,-68.4210812
29,Sunset Park Road,04605,44.6154333,-68.4406279
46,Surry Road,04605,44.5374729,-68.4301157
50,Surry Road,04605,44.5368348,-68.4303296
25,Surry Road,04605,44.5384344,-68.4297665
54,Surry Road,04605,44.5365243,-68.4303515
84,Surry Road,04605,44.5341084,-68.4306205
70,Surry Road,04605,44.5352621,-68.4308924
185,Surry Road,04605,44.5266879,-68.4319638
215,Surry Road,04605,44.5242348,-68.4319877
230,Surry Road,04605,44.5237120,-68.4309546
244,Surry Road,04605,44.5221135,-68.4308506
199,Surry Road,04605,44.5250855,-68.4319794
267,Surry Road,04605,44.5205429,-68.4309162
238,Surry Road,04605,44.5230273,-68.4299608
325,Surry Road,04605,44.5175195,-68.4330344
330,Surry Road,04605,44.5172438,-68.4328169
99,Strawberry Way,04605,44.5612826,-68.4554958
332,Surry Road,04605,44.5174795,-68.4313298
350,Surry Road,04605,44.5160759,-68.4333000
318,Surry Road,04605,44.5178898,-68.4323639
335,Surry Road,04605,44.5173295,-68.4337534
392,Surry Road,04605,44.5136166,-68.4348085
384,Surry Road,04605,44.5141069,-68.4347283
409,Surry Road,04605,44.5128237,-68.4364833
428,Surry Road,04605,44.5113929,-68.4366229
446,Surry Road,04605,44.5102625,-68.4374075
438,Surry Road,04605,44.5106887,-68.4371203
452,Surry Road,04605,44.5098767,-68.4376817
383,Surry Road,04605,44.5153870,-68.4350745
449,Surry Road,04605,44.5102172,-68.4382760
458,Surry Road,04605,44.5088612,-68.4380563
456,Surry Road,04605,44.5093333,-68.4379448
466,Surry Road,04605,44.5085560,-68.4382354
459,Surry Road,04605,44.5093055,-68.4386874
496,Surry Road,04605,44.5067815,-68.4389443
478,Surry Road,04605,44.5080172,-68.4385173
482,Surry Road,04605,44.5079291,-68.4388956
503,Surry Road,04605,44.5066634,-68.4405683
524,Surry Road,04605,44.5049453,-68.4399432
534,Surry Road,04605,44.5042126,-68.4401389
523,Surry Road,04605,44.5055265,-68.4400383
7,Tanglewood Way,04605,44.5488480,-68.4485112
6,Tanglewood Way,04605,44.5485310,-68.4481177
36,Tamarac Road,04605,44.6173583,-68.5379333
53,Tamarac Road,04605,44.6173463,-68.5394018
30,Tamarac Road,04605,44.6174899,-68.5370689
6,Tannery Brook Way,04605,44.6305930,-68.5517151
18,Tannery Brook Way,04605,44.6307759,-68.5524575
9,Taylor Way,04605,44.5837961,-68.4921823
15,Thera Way,04605,44.5058857,-68.4380220
23,Thera Way,04605,44.5056743,-68.4371434
33,Thera Way,04605,44.5059664,-68.4361342
18,Third Street,04605,44.5469042,-68.4276129
25,Third Street,04605,44.5471186,-68.4281962
40,Third Street,04605,44.5466511,-68.4292205
41,Third Street,04605,44.5472509,-68.4294475
17,Tinker Farm Way,04605,44.5282824,-68.4187403
19,Tinker Farm Way,04605,44.5283906,-68.4187770
21,Tinker Farm Way,04605,44.5284944,-68.4188263
23,Tinker Farm Way,04605,44.5286073,-68.4189007
35,Tinker Farm Way,04605,44.5295351,-68.4198983
37,Tinker Farm Way,04605,44.5295718,-68.4200364
41,Tinker Farm Way,04605,44.5300282,-68.4199982
1,Tinker Meadow Way,04605,44.5283214,-68.4193377
2,Tinker Meadow Way,04605,44.5279692,-68.4191210
3,Tinker Meadow Way,04605,44.5282863,-68.4195143
6,Tinker Meadow Way,04605,44.5279298,-68.4193416
4,Tinker Meadow Way,04605,44.5279473,-68.4192345
8,Tinker Meadow Way,04605,44.5279258,-68.4194298
17,Toashuh Way,04605,44.5031769,-68.4391487
33,Toashuh Way,04605,44.5032315,-68.4374311
41,Toashuh Way,04605,44.5031665,-68.4370355
57,Toashuh Way,04605,44.5028709,-68.4364219
14,Toothaker Lane,04605,44.5291774,-68.4046234
61,Toashuh Way,04605,44.5029718,-68.4340811
7,Tracys Way,04605,44.5883104,-68.5012577
9,Tracys Way,04605,44.5882614,-68.5013715
5,Tranquility Way,04605,44.5034609,-68.4301515
22,Travis Court,04605,44.5409270,-68.4765183
26,Travis Court,04605,44.5409189,-68.4767261
27,Travis Court,04605,44.5412024,-68.4767046
14,Troger Way,04605,44.5461865,-68.4344494
14,Troger Way,04605,44.5461642,-68.4344937
38,Travis Court,04605,44.5409213,-68.4772484
30,Troger Way,04605,44.5458439,-68.4361648
31,Travis Court,04605,44.5411896,-68.4768684
39,Travis Court,04605,44.5412138,-68.4772269
35,Troger Way,04605,44.5460543,-68.4368488
8,Tulip Way,04605,44.6009227,-68.4502051
9,Tulip Way,04605,44.6007374,-68.4500556
164,Turnbull Way,04605,44.5483804,-68.5446167
167,Turnbull Way,04605,44.5480730,-68.5443044
25,Tweedie Lane,04605,44.5510567,-68.4103743
25,Twin Hill Road,04605,44.5471403,-68.5241942
159,Twin Hill Road,04605,44.5490828,-68.5313104
170,Twin Hill Road,04605,44.5489030,-68.5335779
173,Twin Hill Road,04605,44.5496581,-68.5344154
179,Twin Hill Road,04605,44.5506442,-68.5344957
16,Union Street,04605,44.5448177,-68.4173610
36,Union Street,04605,44.5456425,-68.4166793
24,Union Street,04605,44.5450111,-68.4173339
40,Union Street,04605,44.5458932,-68.4164187
26,Union Street,04605,44.5452479,-68.4169791
51,Union Street,04605,44.5471550,-68.4149332
55,Union Street,04605,44.5478465,-68.4146115
56,Union Street,04605,44.5483739,-68.4147384
74,Union Street,04605,44.5503448,-68.4128617
89,Union Street,04605,44.5517597,-68.4105246
91,Union Street,04605,44.5514130,-68.4113905
12,Valley Way,04605,44.5371994,-68.4169524
8,Violas Way,04605,44.5498226,-68.4225736
9,Violas Way,04605,44.5494316,-68.4218032
254,Upper Boggy Brook Road,04605,44.6115592,-68.4930180
4,Vogt Way,04605,44.6299040,-68.4358874
39,Vista Way,04605,44.5547290,-68.5865133
52,Walls Farm Way,04605,44.6203953,-68.5906609
86,Walls Farm Way,04605,44.6176611,-68.5913796
125,Walls Farm Way,04605,44.6150082,-68.5921671
26,Washington Street,04605,44.5358903,-68.4179913
20,Washington Street,04605,44.5357220,-68.4185279
29,Washington Street,04605,44.5356155,-68.4179437
36,Washington Street,04605,44.5359912,-68.4174805
39,Washington Street,04605,44.5358216,-68.4168717
46,Washington Street,04605,44.5362213,-68.4167041
58,Washington Street,04605,44.5365310,-68.4156437
51,Washington Street,04605,44.5360207,-68.4161964
62,Washington Street,04605,44.5366197,-68.4153911
52,Washington Street,04605,44.5363267,-68.4161807
67,Washington Street,04605,44.5366093,-68.4142395
66,Washington Street,04605,44.5366500,-68.4151391
14,Water Street,04605,44.5409523,-68.4247068
204,Water Street,04605,44.5391455,-68.4225721
225,Water Street,04605,44.5384604,-68.4223901
330,Water Street,04605,44.5378534,-68.4207472
206,Water Street,04605,44.5390138,-68.4223343
360,Water Street,04605,44.5374468,-68.4204617
370,Water Street,04605,44.5370672,-68.4201571
380,Water Street,04605,44.5368412,-68.4199831
333,Water Street,04605,44.5371648,-68.4207666
362,Water Street,04605,44.5372751,-68.4203249
385,Water Street,04605,44.5364332,-68.4203081
391,Water Street,04605,44.5361265,-68.4201790
395,Water Street,04605,44.5358645,-68.4199991
411,Water Street,04605,44.5354278,-68.4199908
396,Water Street,04605,44.5359122,-68.4196336
422,Water Street,04605,44.5345878,-68.4194391
398,Water Street,04605,44.5356732,-68.4195605
423,Water Street,04605,44.5344766,-68.4196982
419,Water Street,04605,44.5346433,-68.4197406
414,Water Street,04605,44.5350736,-68.4193713
425,Water Street,04605,44.5342868,-68.4195554
430,Water Street,04605,44.5340021,-68.4175696
432,Water Street,04605,44.5335984,-68.4187378
431,Water Street,04605,44.5340070,-68.4194071
478,Water Street,04605,44.5316533,-68.4177440
456,Water Street,04605,44.5328456,-68.4185125
1,Western Avenue,04605,44.5554039,-68.4323708
11,Western Avenue,04605,44.5549050,-68.4334269
25,Western Avenue,04605,44.5542584,-68.4346545
3,Westwood Drive,04605,44.5342419,-68.4321233
10,Westwood Drive,04605,44.5333804,-68.4344915
6,Westwood Drive,04605,44.5335712,-68.4330297
8,Westwood Drive,04605,44.5334669,-68.4337796
12,Westwood Drive,04605,44.5332857,-68.4353609
16,Westwood Drive,04605,44.5331465,-68.4363440
23,Westwood Drive,04605,44.5335118,-68.4383165
35,Westwood Drive,04605,44.5331622,-68.4386093
4,Whale Watch Way,04605,44.5025537,-68.4296572
10,Whispering Pines Way,04605,44.5385589,-68.4984980
26,Whitmore Way,04605,44.5979940,-68.4542962
8,Whitmore Way,04605,44.5978651,-68.4527665
11,Whispering Pines Way,04605,44.5387740,-68.4993206
105,Weymouth Way,04605,44.6297318,-68.4439070
13,Whitmore Way,04605,44.5980283,-68.4539494
17,Whitmore Way,04605,44.5980477,-68.4542264
64,Whitmore Way,04605,44.5969241,-68.4574373
80,Whitmore Way,04605,44.5965803,-68.4580138
10,Wichita Way,04605,44.5527143,-68.4355382
11,Wilder Way,04605,44.5837277,-68.4345075
15,Wilder Way,04605,44.5846309,-68.4351160
33,Wilder Way,04605,44.5840584,-68.4367592
9,Willow Street,04605,44.5412804,-68.4281904
22,Willow Street,04605,44.5407738,-68.4286107
25,Willow Street,04605,44.5409699,-68.4291060
19,Willys Way,04605,44.5515628,-68.4038098
20,Willys Way,04605,44.5515205,-68.4043390
50,Wilson Way,04605,44.6196812,-68.5619648
59,Wilson Way,04605,44.6162798,-68.5600431
61,Windsor Way,04605,44.5044735,-68.4465773
67,Windsor Way,04605,44.5045300,-68.4470989
75,Windsor Way,04605,44.5047213,-68.4475625
81,Windsor Way,04605,44.5049372,-68.4484411
124,Windsor Way,04605,44.5036961,-68.4533903
64,Winkumpaugh Road,04605,44.6432574,-68.5616298
74,Winkumpaugh Road,04605,44.6430709,-68.5622743
91,Winkumpaugh Road,04605,44.6447561,-68.5651053
302,Winkumpaugh Road,04605,44.6370695,-68.5860866
428,Winkumpaugh Road,04605,44.6304709,-68.5962192
428,Winkumpaugh Road,04605,44.6304019,-68.5958036
10,Wood Street,04605,44.5475684,-68.4290289
6,Wood Street,04605,44.5473251,-68.4289810
16,Wood Street,04605,44.5479452,-68.4296673
106,Woodfield Way,04605,44.6033563,-68.5338607
94,Woodfield Way,04605,44.6040547,-68.5340252
116,Woodfield Way,04605,44.6024517,-68.5338805
84,Woodfield Way,04605,44.6045188,-68.5352376
19,Woodland Road,04605,44.5411475,-68.4904385
20,Woodland Road,04605,44.5410291,-68.4911570
39,Woodland Road,04605,44.5424448,-68.4906600
40,Woodland Road,04605,44.5423406,-68.4915106
60,Woodland Road,04605,44.5436428,-68.4918140
63,Woodland Road,04605,44.5440755,-68.4909353
43,Woodland Road,04605,44.5427560,-68.4907832
64,Woodland Road,04605,44.5439094,-68.4920383
68,Woodland Road,04605,44.5444512,-68.4924112
49,Woodland Road,04605,44.5430803,-68.4908370
75,Woodland Road,04605,44.5448485,-68.4916587
55,Woodland Road,04605,44.5437644,-68.4908185
69,Woodland Road,04605,44.5447837,-68.4902620
54,Woodland Road,04605,44.5433273,-68.4917223
20,Youngs Avenue,04605,44.5406362,-68.4280960
17,Youngs Avenue,04605,44.5403306,-68.4281808
1401,Happytown Road,04605,44.6283826,-68.6295026
49,American Avenue,04605,44.5500903,-68.4185422
83,Woodfield Way,04605,44.6044317,-68.5359629
3,Ruger Way,04605,44.5356489,-68.4174399
8,Ruger Way,04605,44.5353447,-68.4169268
1043,Winkumpaugh Road,04605,44.6276330,-68.6273769
1247,Happytown Road,04605,44.6198087,-68.6202170
981,Happytown Road,04605,44.6054929,-68.6050937
8,North Bend Road,04605,44.5442211,-68.5161362
44,Buzzell Way,04605,44.5297730,-68.5153497
119,Haynes Avenue,04605,44.5278659,-68.5041523
17,Catherine Avenue,04605,44.5440656,-68.5092327
18,Catherine Avenue,04605,44.5446056,-68.5102542
36,Hagans Elbow,04605,44.5387631,-68.4947956
537,Bucksport Road,04605,44.5400204,-68.4800761
65,Branchview North,04605,44.6035189,-68.5853609
6,Bug Tussle Way,04605,44.6057735,-68.5901965
3,Bug Tussle Way,04605,44.6060585,-68.5906041
695,Winkumpaugh Road,04605,44.6202854,-68.5990061
674,Winkumpaugh Road,04605,44.6191745,-68.5967134
473,Winkumpaugh Road,04605,44.6280860,-68.5990091
26,Old County Way,04605,44.6374499,-68.5955340
540,Bangor Road,04605,44.5814347,-68.4825477
511,Bangor Road,04605,44.5810619,-68.4787720
246,Bangor Road,04605,44.5702811,-68.4587430
99,Bangor Road,04605,44.5659053,-68.4461022
10,Bangor Road,04605,44.5621263,-68.4391430
4,Bangor Road,04605,44.5619318,-68.4389560
12,Old Mill Road,04605,44.5639462,-68.4403345
114,North Street,04605,44.5692850,-68.4394835
92,North Street,04605,44.5676063,-68.4386244
11,Danico Lane,04605,44.5710127,-68.4365640
5,Condon Way,04605,44.6026995,-68.4499552
242,Branchview Drive,04605,44.6007412,-68.5766610
302,Branchview Drive,04605,44.5976769,-68.5721157
75,Branchview North,04605,44.6043668,-68.5858022
106,Sargent Drive,04605,44.6230847,-68.5887449
209,Sargent Drive,04605,44.6232704,-68.5840984
245,Sargent Drive,04605,44.6239460,-68.5817615
6,Mouradian Point Way,04605,44.6242137,-68.5798624
10,Mouradian Point Way,04605,44.6236902,-68.5795007
5,Mouradian Point Way,04605,44.6238638,-68.5802116
1,Keefe Way,04605,44.6456798,-68.5445623
34,Tannery Brook Way,04605,44.6308998,-68.5542027
36,Tannery Brook Way,04605,44.6310131,-68.5544161
38,Tannery Brook Way,04605,44.6310813,-68.5545795
40,Tannery Brook Way,04605,44.6311360,-68.5547556
44,Tannery Brook Way,04605,44.6314244,-68.5548290
83,Cove Way,04605,44.6301559,-68.5516050
151,Cove Way,04605,44.6271770,-68.5530020
149,Cove Way,04605,44.6272660,-68.5527303
123,Cove Way,04605,44.6272896,-68.5518603
207,Cove Way,04605,44.6252136,-68.5574040
218,Cove Way,04605,44.6241740,-68.5574434
37,Jones Point Way,04605,44.6239732,-68.5614031
49,Wildwood Drive,04605,44.6284263,-68.5605943
96,Reed Way,04605,44.6253888,-68.5666996
26,Landing Way,04605,44.6284354,-68.5665004
226,Black Bear Way,04605,44.6315794,-68.4826696
210,Black Bear Way,04605,44.6322831,-68.4839935
697,Nicolin Road,04605,44.6463392,-68.5040142
3,Sandy Point Way,04605,44.6548034,-68.5044403
9,Rand Way,04605,44.6543572,-68.5043243
17,Sandy Point Way,04605,44.6541447,-68.5041053
29,Sandy Point Way,04605,44.6533008,-68.5035954
33,Sandy Point Way,04605,44.6530356,-68.5036797
37,Sandy Point Way,04605,44.6527605,-68.5035559
100,Sandy Point Way,04605,44.6500430,-68.4986985
99,Sandy Point Way,04605,44.6500771,-68.4992846
95,Sandy Point Way,04605,44.6503601,-68.5001902
81,Sandy Point Way,04605,44.6509735,-68.5004624
77,Sandy Point Way,04605,44.6512891,-68.5005732
69,Sandy Point Way,04605,44.6516114,-68.5011947
63,Sandy Point Way,04605,44.6519588,-68.5013872
57,Sandy Point Way,04605,44.6522578,-68.5018324
47,Sandy Point Way,04605,44.6524491,-68.5023478
44,Steamboat Way,04605,44.6509701,-68.4915398
46,Steamboat Way,04605,44.6511952,-68.4915441
36,Steamboat Way,04605,44.6506054,-68.4905088
237,Kotagiri Way,04605,44.6498954,-68.4897646
235,Kotagiri Way,04605,44.6501220,-68.4900969
9,Crystal Way,04605,44.6495118,-68.4895410
8,Crystal Way,04605,44.6493535,-68.4893595
11,Pearl Way,04605,44.6434064,-68.4782141
12,Pearl Way,04605,44.6432297,-68.4779509
579,Scotts Neck Road,04605,44.6382499,-68.4630793
577,Scotts Neck Road,04605,44.6381165,-68.4643793
571,Scotts Neck Road,04605,44.6380331,-68.4648339
565,Scotts Neck Road,04605,44.6380438,-68.4652058
563,Scotts Neck Road,04605,44.6378658,-68.4656424
554,Scotts Neck Road,04605,44.6386101,-68.4659760
561,Scotts Neck Road,04605,44.6377859,-68.4658890
557,Scotts Neck Road,04605,44.6376570,-68.4662307
549,Scotts Neck Road,04605,44.6374620,-68.4668881
531,Scotts Neck Road,04605,44.6390753,-68.4682540
493,Scotts Neck Road,04605,44.6403036,-68.4710420
477,Scotts Neck Road,04605,44.6403068,-68.4717355
439,Scotts Neck Road,04605,44.6410136,-68.4727189
251,Scotts Neck Road,04605,44.6490674,-68.4888009
257,Scotts Neck Road,04605,44.6489173,-68.4884617
261,Scotts Neck Road,04605,44.6485593,-68.4879162
267,Scotts Neck Road,04605,44.6483195,-68.4876535
15,Turquoise Way,04605,44.6480653,-68.4871639
14,Turquoise Way,04605,44.6481444,-68.4867471
277,Scotts Neck Road,04605,44.6481072,-68.4864763
285,Scotts Neck Road,04605,44.6481408,-68.4859526
289,Scotts Neck Road,04605,44.6479499,-68.4855318
293,Scotts Neck Road,04605,44.6476837,-68.4853955
301,Scotts Neck Road,04605,44.6473783,-68.4845406
12,Emerald Way,04605,44.6465514,-68.4838355
13,Emerald Way,04605,44.6468652,-68.4835678
14,Emerald Way,04605,44.6464050,-68.4833323
32,Ruby Way,04605,44.6455483,-68.4820095
31,Ruby Way,04605,44.6457697,-68.4822030
325,Scotts Neck Road,04605,44.6461058,-68.4828495
26,Amethyst Way,04605,44.6447052,-68.4807119
24,Amethyst Way,04605,44.6448236,-68.4810198
365,Scotts Neck Road,04605,44.6447250,-68.4801190
21,Diamond Way,04605,44.6443009,-68.4799148
22,Diamond Way,04605,44.6442813,-68.4795429
9,Golden Way,04605,44.6444458,-68.4791001
401,Scotts Neck Road,04605,44.6429582,-68.4776444
402,Scotts Neck Road,04605,44.6440695,-68.4765436
409,Scotts Neck Road,04605,44.6429100,-68.4769450
419,Scotts Neck Road,04605,44.6425933,-68.4756049
415,Scotts Neck Road,04605,44.6428832,-68.4760058
411,Scotts Neck Road,04605,44.6428715,-68.4763968
271,Keiser Way,04605,44.6538674,-68.4674945
8,Natures Way,04605,44.6507542,-68.4630522
15,Brooks End Way,04605,44.6506347,-68.4625300
33,Lady Slipper Way,04605,44.6492460,-68.4601215
115,Evergreen Way,04605,44.6461700,-68.4588259
89,Evergreen Way,04605,44.6468603,-68.4591726
8,Campbells Way,04605,44.6469170,-68.4597332
1139,Mariaville Road,04605,44.6608527,-68.4237872
395,Gary Moore Road,04605,44.6566041,-68.4319835
266,Gary Moore Road,04605,44.6473901,-68.4338137
171,Gary Moore Road,04605,44.6416116,-68.4331133
670,Mariaville Road,04605,44.6289519,-68.4363126
560,Mariaville Road,04605,44.6184979,-68.4368171
13,Periwinkle Way,04605,44.6196726,-68.4515785
178,Graham Way,04605,44.6045148,-68.4044467
140,Graham Way,04605,44.6052800,-68.4070285
311,Shore Road,04605,44.5605242,-68.4438301
394,State Street,04605,44.5591697,-68.4374716
131,Bor Way,04605,44.6127012,-68.5611729
127,Bor Way,04605,44.6124220,-68.5611498
117,Bor Way,04605,44.6119635,-68.5613045
22,Hemlock Grove Way,04605,44.6110143,-68.5614691
44,Bor Way,04605,44.6137727,-68.5612467
5,Bryce Way,04605,44.6208646,-68.5618551
968,Bangor Road,04605,44.5987657,-68.5145686
931,Bangor Road,04605,44.5969679,-68.5120258
852,Red Bridge Road,04605,44.5834849,-68.5064259
43,Peters Way,04605,44.5670788,-68.5171998
330,Boulders Way,04605,44.5652838,-68.5195821
232,Branchview Drive,04605,44.6010053,-68.5774655
162,Branchview Drive,04605,44.5980329,-68.5831760
176,Branchview Drive,04605,44.5986065,-68.5824726
7,Branchview North,04605,44.5992308,-68.5857946
114,Branchview Drive,04605,44.5987987,-68.5858103
11,Central Street,04605,44.5449315,-68.4264992
222,State Street,04605,44.5503934,-68.4277486
231,State Street,04605,44.5514505,-68.4276187
207,Surry Road,04605,44.5246349,-68.4318894
22,Whale Watch Way,04605,44.5025301,-68.4312361
106,Spindle Road,04605,44.5016138,-68.4289242
66,Spindle Road,04605,44.4995183,-68.4266616
461,Bayside Road,04605,44.5018706,-68.4200343
17,Brick Cove Way,04605,44.4931156,-68.4218379
19,Brick Cove Way,04605,44.4928850,-68.4216327
32,Chester Jones Way,04605,44.4836986,-68.4236035
864,Bayside Road,04605,44.4755482,-68.4168185
172,Pioneer Farm Way,04605,44.5103239,-68.4253478
111,Pioneer Farm Way,04605,44.5142030,-68.4251273
415,Bayside Road,04605,44.5053228,-68.4182074
295,Bayside Road,04605,44.5111204,-68.4164198
54,Washington Street,04605,44.5367447,-68.4160696
415,Main Street,04605,44.5500664,-68.4025849
419,Main Street,04605,44.5501417,-68.4023387
222,High Street,04605,44.5336973,-68.4073148
73,Downeast Highway,04605,44.5294761,-68.3989129
62,Buttermilk Road,04605,44.5197509,-68.3899907
58,Buttermilk Road,04605,44.5196318,-68.3904324
33,Buttermilk Road,04605,44.5191168,-68.3926335
32,Buttermilk Road,04605,44.5199062,-68.3929336
24,Buttermilk Road,04605,44.5197294,-68.3935520
3,Salt Life Way,04605,44.5480150,-68.4616560
84,Patten Way,04605,44.5506247,-68.5590650
110,Northeast Cove Way,04605,44.6400004,-68.4432416
16,Hinckley Way,04605,44.6151765,-68.5229080
66,Sandy Point Way,04605,44.6521412,-68.5008875
562,Scotts Neck Road,04605,44.6384914,-68.4656304
2,M and M Way,04605,44.5478888,-68.4238076
127,Patten Way,04605,44.5506002,-68.5632387
780,Happytown Road,04605,44.5970499,-68.5939370
112,Windsor Way,04605,44.5035890,-68.4526491
468,Gary Moore Road,04605,44.6637116,-68.4320087
100,Peninsula Drive,04605,44.6358694,-68.4137903
656,Nicolin Road,04605,44.6452813,-68.5008896
24,Hancock Street,04605,44.5408415,-68.4214854
101,Boggy Brook Road,04605,44.5751184,-68.4571237
123,Boggy Brook Road,04605,44.5760760,-68.4578201
84,Beals Avenue,04605,44.5387483,-68.4143943
182,Clearwater Way,04605,44.5682310,-68.5389773
55,Alexis Road,04605,44.5394957,-68.5100390
33,Davis Street,04605,44.5501873,-68.4225826
369,Branch Pond Road,04605,44.6166829,-68.5548660
116,Bangor Road,04605,44.5662028,-68.4480388
176,Maddocks Avenue,04605,44.5510613,-68.4209498
27,Grand View Road,04605,44.5191851,-68.4082170
5,Tanglewood Way,04605,44.5488874,-68.4482717
94,Autumn Road,04605,44.6192940,-68.5379684
995,Happytown Road,04605,44.6066340,-68.6057665
55,Keefe Way,04605,44.6484582,-68.5459593
17,Sugar Way,04605,44.5463334,-68.4469865
16,Ladybug Lane,04605,44.5405565,-68.4772139
14,Amanda Lane,04605,44.5400028,-68.4772063
15,Amanda Lane,04605,44.5402233,-68.4771917
111,Windsor Way,04605,44.5046002,-68.4523126
28,Courtney Court,04605,44.5412336,-68.4776233
22,Davis Street,04605,44.5497659,-68.4238079
16,Davis Street,04605,44.5494296,-68.4240819
743,Bangor Road,04605,44.5883966,-68.4993546
39,Scotts Neck Road,04605,44.6518018,-68.4933360
2,Kimber Way,04605,44.5383437,-68.4189046
14,Old County Way,04605,44.6373787,-68.5944817
164,Franklin Street,04605,44.5381061,-68.4208768
11,Whimsey Way,04605,44.5469835,-68.4345109
278,Happytown Road,04605,44.5695713,-68.5650866
1,Kimber Way,04605,44.5384532,-68.4191930
80,Patten Way,04605,44.5519727,-68.5584379
8,Sugar Way,04605,44.5458629,-68.4455748
387,Nicolin Road,04605,44.6365933,-68.4956307
275,Cove Way,04605,44.6210036,-68.5570452
262,Cove Way,04605,44.6221452,-68.5566142
1486,Bucksport Road,04605,44.5575440,-68.5663283
245,High Street,04605,44.5319465,-68.4079274
187,High Street,04605,44.5350764,-68.4114082
225,High Street,04605,44.5306374,-68.4084468
3,Myrick Street,04605,44.5237128,-68.3970156
3,Myrick Street,04605,44.5240543,-68.3971030
16,Kids Peace Way,04605,44.5902024,-68.4335906
208,High Street,04605,44.5347919,-68.4098027
187,High Street,04605,44.5350969,-68.4117670
416,High Street,04605,44.5194625,-68.3965452
416,High Street,04605,44.5195405,-68.3964206
416,High Street,04605,44.5196545,-68.3963688
235,High Street,04605,44.5303665,-68.4081506
8,South Street,04605,44.5400532,-68.4265115
29,Main Street,04605,44.5404475,-68.4265786
238,State Street,04605,44.5504699,-68.4289414
24,Lejok Street,04605,44.5560524,-68.4279862
20,Forrest Avenue,04605,44.5493115,-68.4324446
191,Main Street,04605,44.5419222,-68.4223431
51,Main Street,04605,44.5408890,-68.4251316
158,Main Street,04605,44.5421331,-68.4230879
156,Main Street,04605,44.5420654,-68.4232675
151,Main Street,04605,44.5415756,-68.4230687
66,Main Street,04605,44.5414668,-68.4246876
63,Main Street,04605,44.5411263,-68.4245925
61,Main Street,04605,44.5410993,-68.4246694
125,Main Street,04605,44.5414686,-68.4235699
92,Main Street,04605,44.5415933,-68.4244643
121,Main Street,04605,44.5414321,-68.4236642
97,Main Street,04605,44.5412862,-68.4238914
6,Water Street,04605,44.5410141,-68.4247319
95,Main Street,04605,44.5412814,-68.4239969
199,Main Street,04605,44.5418795,-68.4213089
193,Main Street,04605,44.5419140,-68.4220437
197,Main Street,04605,44.5418508,-68.4216444
190,Main Street,04605,44.5422247,-68.4229148
195,Main Street,04605,44.5420806,-68.4218178
142,Main Street,04605,44.5419618,-68.4234279
163,Main Street,04605,44.5416753,-68.4230114
147,Main Street,04605,44.5415030,-68.4231855
192,Main Street,04605,44.5423227,-68.4226161
20,State Street,04605,44.5421082,-68.4256005
2,Church Street,04605,44.5430942,-68.4247253
60,State Street,04605,44.5430744,-68.4262452
50,State Street,04605,44.5427683,-68.4255545
50,State Street,04605,44.5427306,-68.4258333
22,School Street,04605,44.5436135,-68.4236023
14,State Street,04605,44.5414709,-68.4253553
10,State Street,04605,44.5414016,-68.4253351
59,Franklin Street,04605,44.5409792,-68.4232599
6,State Street,04605,44.5413370,-68.4253164
2,State Street,04605,44.5412018,-68.4252725
56,Myrick Street,04605,44.5279360,-68.3989517
17,Myrick Street,04605,44.5247391,-68.3928896
3,Myrick Street,04605,44.5238914,-68.3970507
160,State Street,04605,44.5477439,-68.4276335
443,Main Street,04605,44.5503544,-68.3998352
445,Main Street,04605,44.5496129,-68.3989294
75,High Street,04605,44.5395922,-68.4170371
301,High Street,04605,44.5269585,-68.4022259
50,Union Street,04605,44.5464634,-68.4162582
238,High Street,04605,44.5325446,-68.4070331
216,High Street,04605,44.5335957,-68.4087540
223,State Street,04605,44.5505570,-68.4262533
227,State Street,04605,44.5509377,-68.4267849
321,State Street,04605,44.5566819,-68.4314867
30,Water Street,04605,44.5408431,-68.4243980
99,State Street,04605,44.5450889,-68.4252844
413,Water Street,04605,44.5360619,-68.4205880
112,Boggy Brook Road,04605,44.5753560,-68.4583658
175,Downeast Highway,04605,44.5272767,-68.3892882
200,Downeast Highway,04605,44.5284051,-68.3867236
446,High Street,04605,44.5177008,-68.3949761
425,High Street,04605,44.5185692,-68.3961034
425,High Street,04605,44.5190360,-68.3963920
33,Mardens Way,04605,44.5161227,-68.3971214
461,High Street,04605,44.5155321,-68.3969844
445,High Street,04605,44.5174758,-68.3966856
9,Buttermilk Road,04605,44.5188060,-68.3939906
191,Beechland Road,04605,44.5188769,-68.3981269
180,Beechland Road,04605,44.5192692,-68.3994809
131,Beechland Road,04605,44.5179038,-68.4033591
11,Avery Lane,04605,44.5206369,-68.3997431
18,Avery Lane,04605,44.5203486,-68.4010855
355,High Street,04605,44.5230394,-68.3974210
355,High Street,04605,44.5223651,-68.3971624
385,High Street,04605,44.5210354,-68.3972115
396,High Street,04605,44.5208164,-68.3956420
397,High Street,04605,44.5206288,-68.3969505
403,High Street,04605,44.5200856,-68.3969553
412,High Street,04605,44.5199201,-68.3956752
34,Water Street,04605,44.5407141,-68.4242797
6,Court Street,04605,44.5389322,-68.4290337
55,Grant Street,04605,44.5443534,-68.4299232
218,Downeast Highway,04605,44.5288397,-68.3856047
55,Downeast Highway,04605,44.5297516,-68.4012733
82,Water Street,04605,44.5403605,-68.4238596
1,Printing House Square,04605,44.5410210,-68.4239200
259,High Street,04605,44.5309691,-68.4068743
261,Cushman Way,04605,44.5761425,-68.5251778
435,North Street,04605,44.5871129,-68.4245413
6,M and M Way,04605,44.5482397,-68.4235829
101,Camp Jordan Way,04605,44.6254929,-68.5692700
58,Pine Street,04605,44.5413185,-68.4197405
48,Pine Street,04605,44.5411295,-68.4203055
49,Pine Street,04605,44.5408390,-68.4199090
64,Pine Street,04605,44.5415300,-68.4191820
33,Elm Street,04605,44.5405335,-68.4186270
45,Pine Street,04605,44.5406890,-68.4201680
35,Elm Street,04605,44.5405940,-68.4184990
29,Elm Street,04605,44.5403675,-68.4189920
28,Hancock Street,04605,44.5407745,-68.4213580
31,Elm Street,04605,44.5404715,-68.4188295
32,Elm Street,04605,44.5407515,-68.4190300
53,Pine Street,04605,44.5409410,-68.4197235
60,Pine Street,04605,44.5413605,-68.4196260
67,Pine Street,04605,44.5413020,-68.4188025
52,Pine Street,04605,44.5412175,-68.4201230
42,Pine Street,04605,44.5409385,-68.4208175
37,Pine Street,04605,44.5405070,-68.4207520
26,Elm Street,04605,44.5406195,-68.4195780
61,Pine Street,04605,44.5411260,-68.4191455
36,Elm Street,04605,44.5408450,-68.4188120
62,Pine Street,04605,44.5413970,-68.4194235
65,Pine Street,04605,44.5411840,-68.4189375
43,Pine Street,04605,44.5406645,-68.4204385
30,Elm Street,04605,44.5406960,-68.4192725
27,High Street,04605,44.5416150,-68.4189000
57,Pine Street,04605,44.5410500,-68.4194715
241,Main Street,04605,44.5431320,-68.4187565
38,Hancock Street,04605,44.5401290,-68.4211170
45,Hancock Street,04605,44.5396190,-68.4212245
29,Spruce Street,04605,44.5415935,-68.4197070
18,High Street,04605,44.5423430,-68.4188535
11,High Street,04605,44.5423355,-68.4197275
3,High Street,04605,44.5424340,-68.4199635
14,High Street,04605,44.5424090,-68.4191470
215,Main Street,04605,44.5424650,-68.4203590
27,Elm Street,04605,44.5402415,-68.4191985
56,Hancock Street,04605,44.5392835,-68.4205460
245,Main Street,04605,44.5425210,-68.4179905
1,Elm Street,04605,44.5396930,-68.4208840
24,High Street,04605,44.5420770,-68.4186615
15,Elm Street,04605,44.5400500,-68.4198880
25,Spruce Street,04605,44.5415605,-68.4201045
7,Elm Street,04605,44.5398750,-68.4203295
31,Spruce Street,04605,44.5416980,-68.4196715
10,Elm Street,04605,44.5401560,-68.4206110
214,Main Street,04605,44.5430015,-68.4207570
3,Elm Street,04605,44.5397875,-68.4206540
18,Elm Street,04605,44.5403030,-68.4202115
251,Main Street,04605,44.5434700,-68.4179155
15,High Street,04605,44.5420430,-68.4195710
57,High Street,04605,44.5404110,-68.4174765
47,Hancock Street,04605,44.5394320,-68.4211770
232,Main Street,04605,44.5434080,-68.4197135
13,High Street,04605,44.5422170,-68.4196355
1,High Street,04605,44.5426210,-68.4202070
31,Pine Street,04605,44.5403490,-68.4211780
137,Franklin Street,04605,44.5392990,-68.4222915
56,Deane Street,04605,44.5397770,-68.4182390
114,Franklin Street,04605,44.5403275,-68.4222935
113,Franklin Street,04605,44.5401110,-68.4227955
95,Water Street,04605,44.5392460,-68.4234500
40,Deane Street,04605,44.5392825,-68.4189765
140,Water Street,04605,44.5398335,-68.4233165
130,Franklin Street,04605,44.5400195,-68.4219130
125,Franklin Street,04605,44.5397495,-68.4224405
46,Deane Street,04605,44.5393925,-68.4186630
138,Franklin Street,04605,44.5393355,-68.4216400
52,Deane Street,04605,44.5395645,-68.4183205
136,Franklin Street,04605,44.5396215,-68.4218005
58,Deane Street,04605,44.5398720,-68.4179845
51,Deane Street,04605,44.5394180,-68.4180245
200,Main Street,04605,44.5427555,-68.4216300
45,Church Street,04605,44.5436490,-68.4217595
209,Main Street,04605,44.5423940,-68.4208590
35,Church Street,04605,44.5433675,-68.4224320
90,Water Street,04605,44.5401800,-68.4237515
40,Church Street,04605,44.5437640,-68.4225805
198,Main Street,04605,44.5425560,-68.4220475
42,Church Street,04605,44.5439060,-68.4223500
85,Water Street,04605,44.5399790,-68.4246225
203,Main Street,04605,44.5423105,-68.4211320
53,Church Street,04605,44.5438310,-68.4213320
13,Hancock Street,04605,44.5411010,-68.4224030
210,Main Street,04605,44.5428900,-68.4211625
21,Water Street,04605,44.5407215,-68.4249935
13,School Street,04605,44.5428735,-68.4225120
41,Church Street,04605,44.5435860,-68.4220270
11,Hancock Street,04605,44.5413090,-68.4223980
34,Church Street,04605,44.5436750,-68.4229575
23,Church Street,04605,44.5429125,-68.4236450
9,Hancock Street,04605,44.5414610,-68.4224975
92,Water Street,04605,44.5400615,-68.4236945
20,Oak Street,04605,44.5439140,-68.4211500
9,School Street,04605,44.5427500,-68.4224855
91,Water Street,04605,44.5397665,-68.4240205
49,Church Street,04605,44.5437645,-68.4214850
8,Hancock Street,04605,44.5417200,-68.4222165
22,School Street,04605,44.5433900,-68.4235360
13,Beals Avenue,04605,44.5430320,-68.4175830
27,Beals Avenue,04605,44.5421800,-68.4170500
70,State Street,04605,44.5432650,-68.4254610
25,School Street,04605,44.5439500,-68.4233125
18,Hancock Street,04605,44.5412135,-68.4217900
25,Pine Street,04605,44.5401000,-68.4217250
14,Church Street,04605,44.5432560,-68.4241430
21,Beals Avenue,04605,44.5428490,-68.4174340
75,State Street,04605,44.5436525,-68.4248510
10,Beals Avenue,04605,44.5433025,-68.4172420
77,State Street,04605,44.5439685,-68.4249855
25,Beals Avenue,04605,44.5424225,-68.4171645
24,Pine Street,04605,44.5404700,-68.4218320
12,Hancock Street,04605,44.5414260,-68.4220360
21,Hancock Street,04605,44.5408305,-68.4221420
80,State Street,04605,44.5437580,-68.4256555
265,Main Street,04605,44.5438245,-68.4170965
259,Main Street,04605,44.5436155,-68.4174505
16,Hancock Street,04605,44.5412750,-68.4219135
545,Surry Road,04605,44.5035825,-68.4413215
557,Surry Road,04605,44.5028425,-68.4415305
82,Windsor Way,04605,44.5032530,-68.4491425
54,Steamboat Way,04605,44.6515345,-68.4919800
32,Windsor Way,04605,44.5029165,-68.4442420
36,Moore Farm Circle East,04605,44.5817055,-68.4758735
537,Surry Road,04605,44.5042485,-68.4416980
49,Windsor Way,04605,44.5042460,-68.4454765
52,Windsor Way,04605,44.5035010,-68.4464080
46,Moore Farm Circle East,04605,44.5828680,-68.4757500
493,Bangor Road,04605,44.5804595,-68.4778375
88,Windsor Way,04605,44.5034610,-68.4497400
18,Gilpatrick Road,04605,44.5803180,-68.4753245
48,Windsor Way,04605,44.5034335,-68.4457965
62,Windsor Way,04605,44.5034755,-68.4473105
436,Mariaville Road,04605,44.6091228,-68.4468545
215,High Street,04605,44.5330942,-68.4106045
92,Downeast Highway,04605,44.5302572,-68.3979027
84,Downeast Highway,04605,44.5303239,-68.3985122
78,Downeast Highway,04605,44.5306016,-68.3993481
1,City Hall Plaza,04605,44.5426079,-68.4243072
84,Christian Ridge Road,04605,44.5451618,-68.4447268
70,Kingsland Crossing,04605,44.5201858,-68.3981689
194,Beechland Road,04605,44.5194743,-68.3979886
192,Downeast Highway,04605,44.5286248,-68.3880731
184,Downeast Highway,04605,44.5283759,-68.3891128
7,Douglas Highway,04605,44.5267999,-68.3898034
25,Douglas Highway,04605,44.5261011,-68.3886183
15,Douglas Highway,04605,44.5265092,-68.3893293
248,State Street,04605,44.5516131,-68.4293957
1768,Bucksport Road,04605,44.5617326,-68.5870271
80,Christian Ridge Road,04605,44.5439295,-68.4436513
82,Christian Ridge Road,04605,44.5443446,-68.4438795
79,Christian Ridge Road,04605,44.5444581,-68.4432956
81,Christian Ridge Road,04605,44.5450823,-68.4435893
85,Christian Ridge Road,04605,44.5455428,-68.4439600
509,Surry Road,04605,44.5059556,-68.4402304
520,Surry Road,04605,44.5052827,-68.4396281
7,Giles Way,04605,44.5054752,-68.4414192
