House number,Street name,Postal code,Latitude,Longitude
200,Brunswick Avenue,04345,44.2219450,-69.7786321
165,Dresden Avenue,04345,44.2206637,-69.7697578
154,Cobbossee Avenue,04345,44.2143229,-69.8009075
156,Libby Hill Road,04345,44.1737027,-69.8190215
132,Central Street,04345,44.2206468,-69.7848058
11,Moonlight Drive,04345,44.1984966,-69.8090279
11,Old Dairy Road,04345,44.2300705,-69.7904028
181,Marston Road,04345,44.1979579,-69.7816700
1200,Brunswick Avenue,04345,44.1736301,-69.8377220
155,Libby Hill Road,04345,44.1734192,-69.8196243
11,Cannard Street,04345,44.1853464,-69.7579999
139,Dresden Avenue,04345,44.2219483,-69.7708450
145,Dresden Avenue,04345,44.2217068,-69.7706040
148,Dresden Avenue,04345,44.2214726,-69.7699624
150,Dresden Avenue,04345,44.2213875,-69.7698924
152,Dresden Avenue,04345,44.2212980,-69.7698224
155,Dresden Avenue,04345,44.2214740,-69.7704194
158,Dresden Avenue,04345,44.2210383,-69.7696125
163,Dresden Avenue,04345,44.2208878,-69.7699047
182,Dresden Avenue,04345,44.2201673,-69.7685996
45,Duck Cove Lane,04345,44.1771645,-69.8406994
16,Eagle Drive,04345,44.2063982,-69.7869384
19,Elijah Lane,04345,44.2301392,-69.7967145
15,Ely Lane,04345,44.1724771,-69.8439102
99,Enterprise Avenue,04345,44.1743367,-69.8284875
100,Enterprise Avenue,04345,44.1753299,-69.8262246
1,Evergreen Way,04345,44.1931779,-69.8219691
21,Evergreen Way,04345,44.1924491,-69.8231540
7,Fairview Street,04345,44.2179788,-69.7819787
21,Fairview Street,04345,44.2187959,-69.7829472
27,Fairview Street,04345,44.2191632,-69.7832150
28,Fairview Street,04345,44.2189386,-69.7838004
26,Ferndale Road,04345,44.1864687,-69.7705639
46,Ferndale Road,04345,44.1853725,-69.7735774
11,Fillmore Place,04345,44.2277635,-69.7762860
17,Fillmore Place,04345,44.2276626,-69.7765664
17,Fountain Street,04345,44.2315232,-69.7814318
26,Fountain Street,04345,44.2310382,-69.7812688
21,Fountain Street,04345,44.2313146,-69.7816544
41,Fountain Street,04345,44.2312321,-69.7825298
49,Fountain Street,04345,44.2313414,-69.7830071
54,Fountain Street,04345,44.2311007,-69.7833169
59,Fountain Street,04345,44.2314856,-69.7836351
65,Fountain Street,04345,44.2315466,-69.7839301
73,Fountain Street,04345,44.2316508,-69.7844887
74,Fountain Street,04345,44.2312989,-69.7846093
17,Freemont Street,04345,44.2240843,-69.7751735
21,Freemont Street,04345,44.2238944,-69.7752899
22,Freemont Street,04345,44.2237624,-69.7748375
28,Freemont Street,04345,44.2235179,-69.7750471
29,Freemont Street,04345,44.2236006,-69.7754676
32,Freemont Street,04345,44.2233866,-69.7751643
34,Freemont Street,04345,44.2233005,-69.7752446
35,Freemont Street,04345,44.2233792,-69.7755962
9,Gary Street,04345,44.2171472,-69.7785063
11,Gary's Drive,04345,44.1881675,-69.7622715
25,Gary's Drive,04345,44.1873311,-69.7628050
14,Goodwin Cove,04345,44.2013533,-69.8111883
9,Gowell Drive,04345,44.1628006,-69.7703745
9,Griffin Street,04345,44.2180758,-69.7875133
15,Griffin Street,04345,44.2178796,-69.7872478
21,Griffin Street,04345,44.2176245,-69.7870315
22,Griffin Street,04345,44.2170253,-69.7877559
24,Griffin Street,04345,44.2165753,-69.7870802
27,Griffin Street,04345,44.2173245,-69.7867897
46,Griffin Street,04345,44.2156878,-69.7865238
6,Gudrun Drive,04345,44.2316376,-69.8032397
15,Gudrun Drive,04345,44.2322341,-69.8022711
16,Gudrun Drive,04345,44.2322564,-69.8029351
20,Gudrun Drive,04345,44.2325269,-69.8028824
21,Gudrun Drive,04345,44.2325632,-69.8021942
25,Gudrun Drive,04345,44.2328212,-69.8019974
64,Harley Road,04345,44.1628548,-69.7868596
22,Harrison Avenue,04345,44.2317948,-69.7818736
25,Harrison Avenue,04345,44.2316973,-69.7823043
29,Harrison Avenue,04345,44.2315348,-69.7823648
33,Harrison Avenue,04345,44.2314040,-69.7824131
34,Harrison Avenue,04345,44.2312583,-69.7819917
44,Harrison Avenue,04345,44.2308622,-69.7819802
47,Harrison Avenue,04345,44.2308218,-69.7826308
54,Harrison Avenue,04345,44.2305633,-69.7822517
58,Harrison Avenue,04345,44.2302653,-69.7823793
67,Harrison Avenue,04345,44.2300228,-69.7829458
79,Harrison Avenue,04345,44.2294179,-69.7831944
85,Harrison Avenue,04345,44.2291517,-69.7832911
86,Harrison Avenue,04345,44.2290870,-69.7828708
88,Harrison Avenue,04345,44.2288974,-69.7829559
89,Harrison Avenue,04345,44.2291017,-69.7840166
91,Harrison Avenue,04345,44.2289072,-69.7835007
93,Harrison Avenue,04345,44.2287502,-69.7840683
101,Harrison Avenue,04345,44.2284518,-69.7835948
111,Harrison Avenue,04345,44.2282943,-69.7842438
123,Harrison Avenue,04345,44.2278463,-69.7845884
126,Harrison Avenue,04345,44.2272815,-69.7842491
205,Harrison Avenue,04345,44.2277162,-69.7851752
216,Harrison Avenue,04345,44.2264806,-69.7854968
220,Harrison Avenue,04345,44.2259624,-69.7855776
237,Harrison Avenue,04345,44.2247538,-69.7865506
241,Harrison Avenue,04345,44.2241247,-69.7870368
243,Harrison Avenue,04345,44.2235169,-69.7870474
244,Harrison Avenue,04345,44.2227935,-69.7868500
245,Harrison Avenue,04345,44.2226188,-69.7873735
265,Harrison Avenue,04345,44.2219433,-69.7880781
291,Harrison Avenue,04345,44.2212179,-69.7894644
295,Harrison Avenue,04345,44.2210394,-69.7899002
299,Harrison Avenue,04345,44.2207979,-69.7903226
303,Harrison Avenue,04345,44.2205667,-69.7905448
10,Heselton Street,04345,44.2226811,-69.7776340
26,Heselton Street,04345,44.2223761,-69.7768037
42,Heselton Street,04345,44.2221659,-69.7759433
43,Heselton Street,04345,44.2218983,-69.7762403
17,High Holborn Street,04345,44.2220916,-69.7795855
28,High Holborn Street,04345,44.2215487,-69.7799790
31,High Holborn Street,04345,44.2218471,-69.7804399
34,High Holborn Street,04345,44.2213379,-69.7805208
37,High Holborn Street,04345,44.2215826,-69.7809497
45,High Holborn Street,04345,44.2215163,-69.7814183
46,High Holborn Street,04345,44.2210499,-69.7811618
51,High Holborn Street,04345,44.2213386,-69.7817415
55,High Holborn Street,04345,44.2212608,-69.7819282
57,High Holborn Street,04345,44.2211781,-69.7821650
58,High Holborn Street,04345,44.2208157,-69.7818347
61,High Holborn Street,04345,44.2210511,-69.7823136
65,High Holborn Street,04345,44.2210315,-69.7825449
66,High Holborn Street,04345,44.2206238,-69.7822516
70,High Holborn Street,04345,44.2205502,-69.7824885
74,High Holborn Street,04345,44.2204405,-69.7827311
75,High Holborn Street,04345,44.2207946,-69.7829486
77,High Holborn Street,04345,44.2207069,-69.7832667
78,High Holborn Street,04345,44.2203580,-69.7829366
89,High Holborn Street,04345,44.2204420,-69.7838203
95,High Holborn Street,04345,44.2203456,-69.7840945
106,High Holborn Street,04345,44.2196769,-69.7844486
109,High Holborn Street,04345,44.2199249,-69.7850529
110,High Holborn Street,04345,44.2196381,-69.7848550
116,High Holborn Street,04345,44.2195233,-69.7851915
119,High Holborn Street,04345,44.2198229,-69.7854834
124,High Holborn Street,04345,44.2193313,-69.7856208
130,High Holborn Street,04345,44.2192165,-69.7859511
134,High Holborn Street,04345,44.2191112,-69.7861938
136,High Holborn Street,04345,44.2182316,-69.7858128
137,High Holborn Street,04345,44.2192148,-69.7868399
152,High Holborn Street,04345,44.2186347,-69.7874143
155,High Holborn Street,04345,44.2188525,-69.7878116
167,High Holborn Street,04345,44.2185912,-69.7884966
170,High Holborn Street,04345,44.2182414,-69.7882979
181,High Holborn Street,04345,44.2182514,-69.7894685
186,High Holborn Street,04345,44.2179290,-69.7892201
190,High Holborn Street,04345,44.2178548,-69.7895258
200,High Holborn Street,04345,44.2175207,-69.7903288
67,Highland Avenue,04345,44.2324000,-69.7769606
88,Highland Avenue,04345,44.2322917,-69.7783177
97,Highland Avenue,04345,44.2327522,-69.7787871
101,Highland Avenue,04345,44.2328406,-69.7790262
104,Highland Avenue,04345,44.2323074,-69.7793260
106,Highland Avenue,04345,44.2324734,-69.7794095
134,Highland Avenue,04345,44.2326250,-69.7809329
161,Highland Avenue,04345,44.2330403,-69.7827416
168,Highland Avenue,04345,44.2326521,-69.7828992
180,Highland Avenue,04345,44.2325256,-69.7836113
181,Highland Avenue,04345,44.2328651,-69.7839977
190,Highland Avenue,04345,44.2323947,-69.7843296
198,Highland Avenue,04345,44.2322551,-69.7849851
207,Highland Avenue,04345,44.2325248,-69.7856962
228,Highland Avenue,04345,44.2319505,-69.7867278
230,Highland Avenue,04345,44.2318631,-69.7870084
234,Highland Avenue,04345,44.2316916,-69.7877199
235,Highland Avenue,04345,44.2321737,-69.7876637
245,Highland Avenue,04345,44.2318973,-69.7892189
254,Highland Avenue,04345,44.2313166,-69.7898748
259,Highland Avenue,04345,44.2317004,-69.7903558
260,Highland Avenue,04345,44.2313226,-69.7903132
264,Highland Avenue,04345,44.2306020,-69.7903661
281,Highland Avenue,04345,44.2316280,-69.7923645
285,Highland Avenue,04345,44.2317706,-69.7932242
287,Highland Avenue,04345,44.2318001,-69.7941512
310,Highland Avenue,04345,44.2310984,-69.7953689
327,Highland Avenue,04345,44.2317670,-69.7963295
350,Highland Avenue,04345,44.2311240,-69.7994387
369,Highland Avenue,04345,44.2314224,-69.8011895
381,Highland Avenue,04345,44.2313329,-69.8023904
384,Highland Avenue,04345,44.2302545,-69.8027451
395,Highland Avenue,04345,44.2312658,-69.8036103
24,West Hill Road,04345,44.2301885,-69.7889645
25,West Hill Road,04345,44.2303774,-69.7896369
28,West Hill Road,04345,44.2298815,-69.7890918
53,West Hill Road,04345,44.2293713,-69.7899615
81,West Hill Road,04345,44.2282389,-69.7903282
87,West Hill Road,04345,44.2281221,-69.7909465
101,West Hill Road,04345,44.2275372,-69.7909011
125,West Hill Road,04345,44.2265243,-69.7909125
129,West Hill Road,04345,44.2260684,-69.7910817
153,West Hill Road,04345,44.2250769,-69.7912500
157,West Hill Road,04345,44.2247123,-69.7912451
158,West Hill Road,04345,44.2245297,-69.7903162
163,West Hill Road,04345,44.2243797,-69.7911718
164,West Hill Road,04345,44.2241603,-69.7903551
169,West Hill Road,04345,44.2240692,-69.7911551
175,West Hill Road,04345,44.2236500,-69.7912434
6,West Hill Terrace,04345,44.2292772,-69.7892528
15,West Hill Terrace,04345,44.2289874,-69.7881909
22,West Hill Terrace,04345,44.2298198,-69.7882458
6,Hillcrest Street,04345,44.2334052,-69.7846748
8,Hillcrest Street,04345,44.2335541,-69.7846205
14,Hillcrest Street,04345,44.2340728,-69.7844708
17,Hillcrest Street,04345,44.2342433,-69.7838908
18,Hillcrest Street,04345,44.2346953,-69.7842787
21,Hillcrest Street,04345,44.2346088,-69.7837642
25,Hillcrest Street,04345,44.2348526,-69.7836610
26,Hillcrest Street,04345,44.2351372,-69.7841782
3,Hillside Circle,04345,44.1843360,-69.7610085
4,Hillside Circle,04345,44.1837956,-69.7603697
6,Hillside Circle,04345,44.1836349,-69.7608431
8,Hillside Circle,04345,44.1837523,-69.7614576
19,Holiday Lane,04345,44.1672383,-69.8504460
38,Hume Lane,04345,44.1778497,-69.8201361
25,Hundred Acre Wood Road,04345,44.1850662,-69.7887377
31,Hundred Acre Wood Road,04345,44.1841823,-69.7883256
40,Hundred Acre Wood Road,04345,44.1848284,-69.7873207
73,Hundred Acre Wood Road,04345,44.1829788,-69.7872461
3,Iron Mine Hill Mhp,04345,44.2134920,-69.7850675
7,Iron Mine Hill Mhp,04345,44.2136519,-69.7853826
8,Iron Mine Hill Mhp,04345,44.2135524,-69.7854564
18,Iron Mine Hill Mhp,04345,44.2137129,-69.7863285
24,Johnson Street,04345,44.1802763,-69.7588732
49,Johnson Street,04345,44.1808527,-69.7608636
12,Justa Way,04345,44.1998983,-69.7829472
10,Karen Drive,04345,44.2174275,-69.7940206
15,Karen Drive,04345,44.2174274,-69.7933946
16,Karen Drive,04345,44.2171847,-69.7939923
23,Karen Drive,04345,44.2165867,-69.7932394
24,Karen Drive,04345,44.2165864,-69.7939342
25,Karen Drive,04345,44.2160114,-69.7937512
12,Kingsbury Street,04345,44.2257857,-69.7678714
35,Kingsbury Street,04345,44.2256825,-69.7691534
40,Kingsbury Street,04345,44.2254322,-69.7695633
41,Kingsbury Street,04345,44.2257207,-69.7694982
62,Kingsbury Street,04345,44.2255040,-69.7702528
72,Kingsbury Street,04345,44.2252294,-69.7709254
15,Leighton Lane,04345,44.1817720,-69.7580166
16,Leighton Lane,04345,44.1814948,-69.7577253
42,Libby Hill Road,04345,44.1801391,-69.8247717
55,Libby Hill Road,04345,44.1790566,-69.8250694
60,Libby Hill Road,04345,44.1788645,-69.8242410
78,Libby Hill Road,04345,44.1781993,-69.8228431
91,Libby Hill Road,04345,44.1768833,-69.8230563
97,Libby Hill Road,04345,44.1766048,-69.8229711
106,Libby Hill Road,04345,44.1764202,-69.8217238
111,Libby Hill Road,04345,44.1758724,-69.8221603
125,Libby Hill Road,04345,44.1750050,-69.8213351
131,Libby Hill Road,04345,44.1747244,-69.8209184
145,Libby Hill Road,04345,44.1737568,-69.8202670
169,Libby Hill Road,04345,44.1727675,-69.8188585
187,Libby Hill Road,04345,44.1716952,-69.8177366
188,Libby Hill Road,04345,44.1719307,-69.8169018
197,Libby Hill Road,04345,44.1711556,-69.8170161
204,Libby Hill Road,04345,44.1715250,-69.8157266
205,Libby Hill Road,04345,44.1706949,-69.8166095
211,Libby Hill Road,04345,44.1703882,-69.8160549
217,Libby Hill Road,04345,44.1701109,-69.8158071
239,Libby Hill Road,04345,44.1681578,-69.8150860
286,Libby Hill Road,04345,44.1664118,-69.8118350
299,Libby Hill Road,04345,44.1652694,-69.8117005
314,Libby Hill Road,04345,44.1650674,-69.8103469
14,Liberty Street,04345,44.2248276,-69.7750956
15,Liberty Street,04345,44.2246256,-69.7756751
20,Liberty Street,04345,44.2244972,-69.7753479
23,Liberty Street,04345,44.2244086,-69.7758037
28,Liberty Street,04345,44.2241264,-69.7755935
42,Liberty Street,04345,44.2235386,-69.7759801
15,Lincoln Avenue,04345,44.2256672,-69.7754134
23,Lincoln Avenue,04345,44.2254352,-69.7751036
30,Lincoln Avenue,04345,44.2253538,-69.7744953
33,Lincoln Avenue,04345,44.2249778,-69.7748409
36,Lincoln Avenue,04345,44.2250625,-69.7743099
39,Lincoln Avenue,04345,44.2248261,-69.7746449
43,Lincoln Avenue,04345,44.2245661,-69.7744912
44,Lincoln Avenue,04345,44.2247222,-69.7740425
49,Lincoln Avenue,04345,44.2242689,-69.7744998
58,Lincoln Avenue,04345,44.2241985,-69.7735975
64,Lincoln Avenue,04345,44.2240035,-69.7731379
87,Lincoln Avenue,04345,44.2226987,-69.7730457
96,Lincoln Avenue,04345,44.2226536,-69.7723941
97,Lincoln Avenue,04345,44.2223767,-69.7727285
101,Lincoln Avenue,04345,44.2220214,-69.7726801
118,Lincoln Avenue,04345,44.2218297,-69.7717448
129,Lincoln Avenue,04345,44.2211413,-69.7716983
130,Lincoln Avenue,04345,44.2211982,-69.7712734
150,Lincoln Avenue,04345,44.2206388,-69.7707716
156,Lincoln Avenue,04345,44.2204375,-69.7705937
160,Lincoln Avenue,04345,44.2200925,-69.7703513
162,Lincoln Avenue,04345,44.2199179,-69.7702050
164,Lincoln Avenue,04345,44.2197570,-69.7700402
209,Lincoln Avenue,04345,44.2180509,-69.7700430
221,Lincoln Avenue,04345,44.2173087,-69.7706217
289,Lincoln Avenue,04345,44.2144027,-69.7723238
351,Lincoln Avenue,04345,44.2113873,-69.7735549
1,Lions Avenue,04345,44.2156521,-69.7825425
27,Longwood Drive,04345,44.1988470,-69.8059540
41,Longwood Drive,04345,44.1991465,-69.8068842
46,Longwood Drive,04345,44.1989241,-69.8084205
65,Macmasters Lane,04345,44.1586568,-69.7733721
82,Macmasters Lane,04345,44.1586905,-69.7750484
11,Main Avenue,04345,44.2298871,-69.7711302
20,Main Avenue,04345,44.2301071,-69.7718843
34,Main Avenue,04345,44.2304074,-69.7714187
46,Main Avenue,04345,44.2306770,-69.7714848
90,Main Avenue,04345,44.2316519,-69.7717730
34,Market Street,04345,44.1843190,-69.8200631
47,Market Street,04345,44.1828963,-69.8188360
57,Market Street,04345,44.1827521,-69.8182210
5,Marks Lane,04345,44.1941424,-69.8098317
38,Marks Lane,04345,44.1947692,-69.8128561
48,Marks Lane,04345,44.1951822,-69.8136377
53,Marks Lane,04345,44.1958629,-69.8135157
56,Marks Lane,04345,44.1954108,-69.8144104
81,Marks Lane,04345,44.1969154,-69.8161581
85,Marks Lane,04345,44.1965916,-69.8167356
5,Marston Road,04345,44.2092939,-69.7861070
28,Marston Road,04345,44.2084704,-69.7841059
37,Marston Road,04345,44.2074673,-69.7853004
51,Marston Road,04345,44.2066785,-69.7841447
52,Marston Road,04345,44.2067824,-69.7834264
59,Marston Road,04345,44.2062580,-69.7844145
75,Marston Road,04345,44.2051704,-69.7834989
89,Marston Road,04345,44.2042217,-69.7833299
111,Marston Road,04345,44.2026494,-69.7828522
168,Marston Road,04345,44.1989850,-69.7809014
178,Marston Road,04345,44.1982373,-69.7809667
240,Marston Road,04345,44.1929324,-69.7812595
245,Marston Road,04345,44.1945186,-69.7849595
12,Dave's Way,04345,44.1944857,-69.7864670
332,Marston Road,04345,44.1897851,-69.7892198
349,Marston Road,04345,44.1893900,-69.7916733
366,Marston Road,04345,44.1879807,-69.7917170
408,Marston Road,04345,44.1858358,-69.7939717
412,Marston Road,04345,44.1854909,-69.7943737
441,Marston Road,04345,44.1844566,-69.7974439
448,Marston Road,04345,44.1835196,-69.7962490
453,Marston Road,04345,44.1840493,-69.7990399
483,Marston Road,04345,44.1832132,-69.8007990
520,Marston Road,04345,44.1795815,-69.8000055
533,Marston Road,04345,44.1790940,-69.8014751
562,Marston Road,04345,44.1768660,-69.8014324
575,Marston Road,04345,44.1764477,-69.8026590
604,Marston Road,04345,44.1745203,-69.8034147
620,Marston Road,04345,44.1733476,-69.8037303
628,Marston Road,04345,44.1728274,-69.8034542
629,Marston Road,04345,44.1727090,-69.8049162
638,Marston Road,04345,44.1721740,-69.8041834
682,Marston Road,04345,44.1693115,-69.8047512
688,Marston Road,04345,44.1688021,-69.8054885
709,Marston Road,04345,44.1678047,-69.8071260
737,Marston Road,04345,44.1658118,-69.8082182
785,Marston Road,04345,44.1629666,-69.8101430
801,Marston Road,04345,44.1619678,-69.8106984
12,Maschino Lane,04345,44.1911726,-69.8140955
13,Maschino Lane,04345,44.1916416,-69.8139769
33,Maschino Lane,04345,44.1924603,-69.8153208
38,Mattson Heights,04345,44.2153545,-69.7773435
46,Mattson Heights,04345,44.2148905,-69.7780572
51,Mattson Heights,04345,44.2144836,-69.7796291
57,Mattson Heights,04345,44.2141527,-69.7799690
68,Mattson Heights,04345,44.2136045,-69.7791606
71,Mattson Heights,04345,44.2134673,-69.7807986
78,Mattson Heights,04345,44.2130754,-69.7795104
7,Mcgee Drive,04345,44.2308059,-69.8018010
38,Melvin Lane,04345,44.2341966,-69.7932630
55,Melvin Lane,04345,44.2353821,-69.7917450
11,Model A Drive,04345,44.2003225,-69.8118124
9,Deane Street,04345,44.2211858,-69.7724313
27,Pray Street,04345,44.2307722,-69.7846085
63,Mattson Heights,04345,44.2137709,-69.7805022
77,Mattson Heights,04345,44.2128663,-69.7811349
35,Mattson Heights,04345,44.2152891,-69.7790076
56,Mattson Heights,04345,44.2143690,-69.7786136
12,Pray Street,04345,44.2302575,-69.7835186
10,Moss Drive,04345,44.1730293,-69.8386142
30,Moss Drive,04345,44.1716827,-69.8380885
11,Mount Vernon Street,04345,44.2333516,-69.7806608
12,Mount Vernon Street,04345,44.2334832,-69.7811760
17,Mount Vernon Street,04345,44.2336983,-69.7806529
23,Mount Vernon Street,04345,44.2338753,-69.7804361
24,Mount Vernon Street,04345,44.2340068,-69.7809575
25,Mount Vernon Street,04345,44.2340420,-69.7804258
28,Mount Vernon Street,04345,44.2342180,-69.7810104
32,Mount Vernon Street,04345,44.2343894,-69.7809625
37,Mount Vernon Street,04345,44.2345690,-69.7803764
57,Mount Vernon Street,04345,44.2353895,-69.7801994
65,Mount Vernon Street,04345,44.2360752,-69.7799830
80,Mount Vernon Street,04345,44.2363513,-69.7804187
86,Mount Vernon Street,04345,44.2366854,-69.7802791
87,Mount Vernon Street,04345,44.2366388,-69.7798527
90,Mount Vernon Street,04345,44.2368613,-69.7802251
100,Mount Vernon Street,04345,44.2373350,-69.7800748
19,Mudawg Drive,04345,44.1637921,-69.7919312
3,Mullins Drive,04345,44.1837246,-69.7581793
4,Mullins Drive,04345,44.1834913,-69.7587455
5,Mullins Drive,04345,44.1832787,-69.7582173
6,Mullins Drive,04345,44.1832166,-69.7587483
8,Mullins Drive,04345,44.1829256,-69.7585068
10,Mullins Drive,04345,44.1828398,-69.7578802
11,Mullins Drive,04345,44.1831580,-69.7574088
12,Mullins Drive,04345,44.1827712,-69.7573538
8,My way,04345,44.2034974,-69.7832577
6,Nazarene Way,04345,44.1881222,-69.8176321
11,Neal Street,04345,44.2290183,-69.7757954
13,Neal Street,04345,44.2289053,-69.7758628
15,Neal Street,04345,44.2289399,-69.7754000
17,Neal Street,04345,44.2289023,-69.7756437
18,Neal Street,04345,44.2286555,-69.7755277
22,Neal Street,04345,44.2285359,-69.7758955
35,Neal Street,04345,44.2284936,-69.7768278
44,Neal Street,04345,44.2280386,-69.7768719
50,Neal Street,04345,44.2277431,-69.7772937
104,Northern Avenue,04345,44.2377675,-69.7813391
112,Northern Avenue,04345,44.2380152,-69.7819873
136,Northern Avenue,04345,44.2383324,-69.7843083
140,Northern Avenue,04345,44.2384148,-69.7847665
91,Oak Street,04345,44.2222061,-69.7806074
6,Oaklands Farm Road,04345,44.2196210,-69.7681731
88,Oaklands Farm Road,04345,44.2135005,-69.7652457
89,Oaklands Farm Road,04345,44.2137612,-69.7679905
114,Oaklands Farm Road,04345,44.2124125,-69.7677164
135,Oaklands Farm Road,04345,44.2109987,-69.7684428
168,Oaklands Farm Road,04345,44.2097607,-69.7650909
9,Old Brunswick Road,04345,44.2152250,-69.7837699
10,Old Brunswick Road,04345,44.2148797,-69.7829266
13,Old Brunswick Road,04345,44.2149159,-69.7835592
15,Old Brunswick Road,04345,44.2148679,-69.7839967
31,Old Brunswick Road,04345,44.2140308,-69.7846240
47,Old Brunswick Road,04345,44.2130527,-69.7854623
51,Old Brunswick Road,04345,44.2126819,-69.7857014
52,Old Brunswick Road,04345,44.2123801,-69.7850715
55,Old Brunswick Road,04345,44.2124918,-69.7858554
56,Old Brunswick Road,04345,44.2121215,-69.7853623
81,Old Brunswick Road,04345,44.2110386,-69.7870440
97,Old Brunswick Road,04345,44.2099566,-69.7879245
102,Old Brunswick Road,04345,44.2095855,-69.7875566
105,Old Brunswick Road,04345,44.2097038,-69.7886909
109,Old Brunswick Road,04345,44.2094164,-69.7885807
122,Old Brunswick Road,04345,44.2084898,-69.7884807
127,Old Brunswick Road,04345,44.2082262,-69.7894973
134,Old Brunswick Road,04345,44.2076569,-69.7891455
148,Old Brunswick Road,04345,44.2068661,-69.7902301
157,Old Brunswick Road,04345,44.2070343,-69.7912963
175,Old Brunswick Road,04345,44.2062341,-69.7930942
176,Old Brunswick Road,04345,44.2060414,-69.7923093
181,Old Brunswick Road,04345,44.2060071,-69.7933665
189,Old Brunswick Road,04345,44.2056621,-69.7937811
200,Old Brunswick Road,04345,44.2046219,-69.7931789
201,Old Brunswick Road,04345,44.2047392,-69.7944384
228,Old Brunswick Road,04345,44.2028186,-69.7942123
238,Old Brunswick Road,04345,44.2023067,-69.7946810
250,Old Brunswick Road,04345,44.2016722,-69.7952857
257,Old Brunswick Road,04345,44.2014954,-69.7961156
266,Old Brunswick Road,04345,44.2007870,-69.7963439
271,Old Brunswick Road,04345,44.2008049,-69.7970074
279,Old Brunswick Road,04345,44.2002875,-69.7976199
284,Old Brunswick Road,04345,44.1998652,-69.7974953
297,Old Brunswick Road,04345,44.1996067,-69.7990562
302,Old Brunswick Road,04345,44.1981901,-69.7988556
311,Old Brunswick Road,04345,44.1990117,-69.7998053
331,Old Brunswick Road,04345,44.1984013,-69.8014865
16,Old Dairy Road,04345,44.2292636,-69.7912184
3,Orchard Street,04345,44.2317193,-69.7908819
22,Orchard Street,04345,44.2331282,-69.7908883
20,Parent Lane,04345,44.1994946,-69.8028467
7,Partridge Drive,04345,44.2125294,-69.7888851
22,Partridge Drive,04345,44.2116219,-69.7899245
23,Partridge Drive,04345,44.2121902,-69.7904140
33,Partridge Drive,04345,44.2118802,-69.7916240
18,Phillips Street,04345,44.1714394,-69.7643013
6,Pickens Drive,04345,44.1889521,-69.7593662
20,Pickens Drive,04345,44.1880067,-69.7600485
5,Pierce Street,04345,44.2169664,-69.7805882
12,Pierce Street,04345,44.2169773,-69.7796558
24,Pierce Street,04345,44.2167122,-69.7789262
27,Pierce Street,04345,44.2164049,-69.7790911
31,Pierce Street,04345,44.2163300,-69.7788586
32,Pierce Street,04345,44.2165176,-69.7784104
40,Pierce Street,04345,44.2167205,-69.7777057
43,Pierce Street,04345,44.2160690,-69.7781916
44,Pierce Street,04345,44.2162271,-69.7774426
59,Pierce Street,04345,44.2155515,-69.7768391
61,Pierce Street,04345,44.2153663,-69.7762671
62,Pierce Street,04345,44.2158433,-69.7762984
10,Plaisted Street,04345,44.2335199,-69.7823786
13,Plaisted Street,04345,44.2336273,-69.7818227
20,Plaisted Street,04345,44.2340029,-69.7821909
24,Plaisted Street,04345,44.2342062,-69.7820809
28,Plaisted Street,04345,44.2343777,-69.7820205
33,Plaisted Street,04345,44.2344711,-69.7815271
34,Plaisted Street,04345,44.2345582,-69.7819540
35,Plaisted Street,04345,44.2346652,-69.7814546
36,Plaisted Street,04345,44.2347337,-69.7819626
13,Plummer Court,04345,44.2232170,-69.7769337
12,Plummer Street,04345,44.2236730,-69.7767331
23,Plummer Street,04345,44.2230100,-69.7762611
24,Plummer Street,04345,44.2232015,-69.7759068
26,Plummer Street,04345,44.2231660,-69.7758250
31,Plummer Street,04345,44.2228736,-69.7758024
36,Plummer Street,04345,44.2230567,-69.7753541
11,Pope Street,04345,44.2317756,-69.7859805
12,Pope Street,04345,44.2317691,-69.7856173
16,Pope Street,04345,44.2315886,-69.7856900
19,Pope Street,04345,44.2314690,-69.7860578
23,Pope Street,04345,44.2313111,-69.7861120
24,Pope Street,04345,44.2312460,-69.7857543
27,Pope Street,04345,44.2310809,-69.7861966
41,Pope Street,04345,44.2301917,-69.7865479
63,Pope Street,04345,44.2297810,-69.7866989
9,Pray Street,04345,44.2305336,-69.7833031
13,Pray Street,04345,44.2305997,-69.7835106
17,Pray Street,04345,44.2306424,-69.7838430
25,Pray Street,04345,44.2309207,-69.7846105
14,Puringtons Lane,04345,44.1876047,-69.7965855
23,Puringtons Lane,04345,44.1876193,-69.7951405
42,Puringtons Lane,04345,44.1891159,-69.7948353
16,Pushard Lane,04345,44.2019429,-69.7990690
22,Pushard Lane,04345,44.2024158,-69.7996824
14,Rideout Lane,04345,44.2070088,-69.7936741
36,Rideout Lane,04345,44.2075719,-69.7942636
48,Rideout Lane,04345,44.2077518,-69.7949420
67,Rideout Lane,04345,44.2087375,-69.7968891
68,Rideout Lane,04345,44.2082328,-69.7976145
76,Rideout Lane,04345,44.2089765,-69.7987636
84,Rideout Lane,04345,44.2092584,-69.7977285
90,Rideout Lane,04345,44.2097870,-69.7980986
13,River Avenue,04345,44.2256025,-69.7669988
23,River Avenue,04345,44.2252932,-69.7668008
29,River Avenue,04345,44.2249970,-69.7666592
33,River Avenue,04345,44.2246961,-69.7665551
41,River Avenue,04345,44.2245273,-69.7662211
63,River Avenue,04345,44.2236612,-69.7658218
75,River Avenue,04345,44.2230814,-69.7656828
93,River Avenue,04345,44.2222827,-69.7652969
95,River Avenue,04345,44.2219198,-69.7650355
99,River Avenue,04345,44.2216008,-69.7649500
119,River Avenue,04345,44.2211427,-69.7647876
121,River Avenue,04345,44.2209153,-69.7644717
305,River Avenue,04345,44.2084335,-69.7649861
484,River Avenue,04345,44.1953287,-69.7596795
530,River Avenue,04345,44.1941854,-69.7596711
533,River Avenue,04345,44.1940510,-69.7609333
535,River Avenue,04345,44.1937161,-69.7605160
540,River Avenue,04345,44.1934959,-69.7591054
549,River Avenue,04345,44.1929117,-69.7596297
559,River Avenue,04345,44.1922029,-69.7592577
563,River Avenue,04345,44.1920336,-69.7589928
594,River Avenue,04345,44.1903852,-69.7570822
600,River Avenue,04345,44.1898274,-69.7570250
604,River Avenue,04345,44.1889236,-69.7568758
609,River Avenue,04345,44.1892479,-69.7575243
613,River Avenue,04345,44.1888113,-69.7581944
617,River Avenue,04345,44.1887262,-69.7574551
619,River Avenue,04345,44.1885144,-69.7574899
623,River Avenue,04345,44.1882986,-69.7581253
636,River Avenue,04345,44.1881823,-69.7566598
639,River Avenue,04345,44.1871339,-69.7572595
641,River Avenue,04345,44.1865198,-69.7575520
657,River Avenue,04345,44.1858238,-69.7572803
665,River Avenue,04345,44.1854139,-69.7573188
667,River Avenue,04345,44.1852081,-69.7571223
671,River Avenue,04345,44.1849876,-69.7571194
673,River Avenue,04345,44.1848480,-69.7571177
684,River Avenue,04345,44.1842170,-69.7565591
685,River Avenue,04345,44.1841551,-69.7570775
690,River Avenue,04345,44.1837265,-69.7565403
691,River Avenue,04345,44.1836193,-69.7570832
693,River Avenue,04345,44.1834064,-69.7572806
700,River Avenue,04345,44.1832042,-69.7565586
702,River Avenue,04345,44.1828933,-69.7565922
706,River Avenue,04345,44.1826688,-69.7565142
710,River Avenue,04345,44.1821652,-69.7564265
715,River Avenue,04345,44.1819665,-69.7571934
718,River Avenue,04345,44.1817953,-69.7565344
721,River Avenue,04345,44.1816059,-69.7572701
737,River Avenue,04345,44.1810125,-69.7571436
769,River Avenue,04345,44.1780430,-69.7575810
779,River Avenue,04345,44.1777224,-69.7577333
791,River Avenue,04345,44.1771181,-69.7585825
797,River Avenue,04345,44.1768279,-69.7588915
821,River Avenue,04345,44.1752704,-69.7595596
903,River Avenue,04345,44.1708940,-69.7637376
939,River Avenue,04345,44.1689912,-69.7662273
955,River Avenue,04345,44.1678359,-69.7680010
962,River Avenue,04345,44.1673910,-69.7678764
1024,River Avenue,04345,44.1633215,-69.7685552
1045,River Avenue,04345,44.1628186,-69.7717068
1055,River Avenue,04345,44.1623735,-69.7716197
1057,River Avenue,04345,44.1622622,-69.7721060
1064,River Avenue,04345,44.1617311,-69.7707546
1069,River Avenue,04345,44.1613826,-69.7717068
1085,River Avenue,04345,44.1605679,-69.7716837
1100,River Avenue,04345,44.1595454,-69.7704510
1101,River Avenue,04345,44.1590065,-69.7709317
1108,River Avenue,04345,44.1588179,-69.7695160
1113,River Avenue,04345,44.1584616,-69.7702805
1117,River Avenue,04345,44.1579993,-69.7714188
1128,River Avenue,04345,44.1575261,-69.7688302
1142,River Avenue,04345,44.1567584,-69.7685138
1151,River Avenue,04345,44.1562019,-69.7689380
1159,River Avenue,04345,44.1557264,-69.7686880
84,Riverside Road,04345,44.1631808,-69.7660520
96,Riverside Road,04345,44.1625350,-69.7663626
117,Riverside Road,04345,44.1605951,-69.7676506
223,Riverside Road,04345,44.1553174,-69.7672571
33,Riverview Drive,04345,44.1779027,-69.7563470
43,Riverview Drive,04345,44.1772260,-69.7565697
49,Riverview Drive,04345,44.1768966,-69.7566844
83,Riverview Drive,04345,44.1746973,-69.7577446
89,Riverview Drive,04345,44.1743675,-69.7579218
97,Riverview Drive,04345,44.1740279,-69.7588931
101,Riverview Drive,04345,44.1737064,-69.7584950
112,Riverview Drive,04345,44.1731682,-69.7595514
113,Riverview Drive,04345,44.1733884,-69.7589412
14,Robinson Street,04345,44.2289967,-69.7763148
1,Rolfe Circle,04345,44.1928967,-69.8109221
3,Rolfe Circle,04345,44.1928590,-69.8111656
11,Rolfe Circle,04345,44.1931522,-69.8117202
17,Rolfe Circle,04345,44.1934094,-69.8122681
18,Rolfe Circle,04345,44.1929976,-69.8125627
44,Rustic Lane,04345,44.1915164,-69.8176415
64,Rustic Lane,04345,44.1922671,-69.8190409
1,Sawyer Street,04345,44.1839881,-69.7571379
15,Sawyer Street,04345,44.1843329,-69.7580870
30,Sawyer Street,04345,44.1840502,-69.7599851
35,Sawyer Street,04345,44.1844733,-69.7599905
19,Schacht Lane,04345,44.1649711,-69.8156613
66,School Street,04345,44.2269731,-69.7726947
120,School Street,04345,44.2258311,-69.7757974
10,Shady Nook Lane,04345,44.1709970,-69.8456216
15,Sherburne Avenue,04345,44.1741203,-69.7612461
19,Sherburne Avenue,04345,44.1742169,-69.7616164
20,Sherburne Avenue,04345,44.1739318,-69.7618379
25,Sherburne Avenue,04345,44.1742985,-69.7622054
26,Sherburne Avenue,04345,44.1740190,-69.7622581
31,Sherburne Avenue,04345,44.1743848,-69.7627569
41,Sherburne Avenue,04345,44.1745619,-69.7638725
46,Sherburne Avenue,04345,44.1744736,-69.7642967
50,Sherburne Avenue,04345,44.1746856,-69.7642307
7,Snow Street,04345,44.1859874,-69.7604417
8,Snow Street,04345,44.1860753,-69.7607618
10,Snow Street,04345,44.1864485,-69.7608229
16,Snow Street,04345,44.1871809,-69.7603569
15,Spring Cove Lane,04345,44.1680497,-69.8490880
24,Spring Cove Lane,04345,44.1679047,-69.8492110
47,Spring Street,04345,44.2336243,-69.7749919
51,Spring Street,04345,44.2336897,-69.7752996
57,Spring Street,04345,44.2337602,-69.7755259
79,Spring Street,04345,44.2340762,-69.7767322
83,Spring Street,04345,44.2340793,-69.7769263
109,Spring Street,04345,44.2344448,-69.7781270
113,Spring Street,04345,44.2345215,-69.7787541
134,Spring Street,04345,44.2344596,-69.7799179
181,Spring Street,04345,44.2353869,-69.7825473
186,Spring Street,04345,44.2351661,-69.7832456
187,Spring Street,04345,44.2355934,-69.7832889
195,Spring Street,04345,44.2355982,-69.7839025
8,Stanley Lane,04345,44.1880594,-69.8157106
20,Stanley Lane,04345,44.1876320,-69.8150541
27,Stanley Lane,04345,44.1870383,-69.8143452
35,Stanley Lane,04345,44.1870353,-69.8135068
48,Stanley Lane,04345,44.1872482,-69.8126840
35,Stonewall Lane,04345,44.1961151,-69.8109600
36,Stonewall Lane,04345,44.1955357,-69.8101386
11,Streamside Lane,04345,44.1932754,-69.8209256
97,Summer Street,04345,44.2308178,-69.7779477
8,Sunset Circle,04345,44.2175452,-69.7887268
31,Sunset Shores,04345,44.1705270,-69.8452584
35,Sunset Shores,04345,44.1701020,-69.8455025
11,Technology Drive,04345,44.1730007,-69.8271053
3,Tilbury Park,04345,44.2121286,-69.7836788
4,Tilbury Park,04345,44.2125043,-69.7833708
9,Tilbury Park,04345,44.2119213,-69.7830564
12,Tilbury Park,04345,44.2125188,-69.7825699
23,Tilbury Park,04345,44.2115804,-69.7822132
27,Tilbury Park,04345,44.2113981,-69.7818853
28,Tilbury Park,04345,44.2119281,-69.7814042
38,Tilbury Park,04345,44.2115012,-69.7806412
47,Tilbury Park,04345,44.2108545,-69.7810708
47,Tilbury Park,04345,44.2105256,-69.7804468
48,Tilbury Park,04345,44.2110481,-69.7797403
53,Tilbury Park,04345,44.2104121,-69.7799321
57,Tilbury Park,04345,44.2101801,-69.7796349
58,Tilbury Park,04345,44.2106659,-69.7790217
35,Timberwood Drive,04345,44.1908233,-69.8176131
46,Timberwood Drive,04345,44.1904902,-69.8188661
1,Townsend Place,04345,44.2297141,-69.7826725
2,Townsend Place,04345,44.2299626,-69.7825380
3,Townsend Place,04345,44.2296618,-69.7824276
14,Townsend Place,04345,44.2292318,-69.7814515
43,Vine Street,04345,44.2276046,-69.7711630
46,Vine Street,04345,44.2271874,-69.7709509
14,Warren Avenue,04345,44.1928732,-69.7606804
22,Warren Avenue,04345,44.1930667,-69.7613648
30,Warren Avenue,04345,44.1934508,-69.7618203
33,Warren Avenue,04345,44.1936972,-69.7620049
35,Warren Avenue,04345,44.1937274,-69.7621992
44,Warren Avenue,04345,44.1934224,-69.7627021
48,Warren Avenue,04345,44.1931923,-69.7627805
29,Washington Avenue,04345,44.2261249,-69.7776167
35,Washington Avenue,04345,44.2260515,-69.7778223
39,Washington Avenue,04345,44.2259690,-69.7780341
83,Washington Avenue,04345,44.2250215,-69.7803316
95,Washington Avenue,04345,44.2247603,-69.7810105
109,Washington Avenue,04345,44.2244494,-69.7817075
115,Washington Avenue,04345,44.2242981,-69.7821124
124,Washington Avenue,04345,44.2238513,-69.7822693
127,Washington Avenue,04345,44.2240416,-69.7827538
128,Washington Avenue,04345,44.2237871,-69.7824437
137,Washington Avenue,04345,44.2246872,-69.7828742
144,Washington Avenue,04345,44.2234530,-69.7832468
148,Water Street,04345,44.2286568,-69.7706696
203,Water Street,04345,44.2295417,-69.7716202
207,Water Street,04345,44.2295502,-69.7717017
218,Water Street,04345,44.2294335,-69.7716501
246,Water Street,04345,44.2295453,-69.7724279
251,Water Street,04345,44.2296792,-69.7725924
258,Water Street,04345,44.2295925,-69.7727603
259,Water Street,04345,44.2297051,-69.7727555
277,Water Street,04345,44.2297567,-69.7731193
279,Water Street,04345,44.2297609,-69.7731632
280,Water Street,04345,44.2295540,-69.7731355
287,Water Street,04345,44.2297868,-69.7733201
297,Water Street,04345,44.2298169,-69.7735271
304,Water Street,04345,44.2296722,-69.7736191
306,Water Street,04345,44.2296762,-69.7737005
307,Water Street,04345,44.2298426,-69.7737277
318,Water Street,04345,44.2297134,-69.7741893
327,Water Street,04345,44.2299527,-69.7740860
335,Water Street,04345,44.2299656,-69.7741738
415,Water Street,04345,44.2299609,-69.7761960
445,Water Street,04345,44.2283866,-69.7779971
465,Water Street,04345,44.2272780,-69.7801548
469,Water Street,04345,44.2271491,-69.7805663
483,Water Street,04345,44.2269899,-69.7808084
500,Water Street,04345,44.2256944,-69.7819932
504,Water Street,04345,44.2255312,-69.7821600
506,Water Street,04345,44.2252309,-69.7819620
508,Water Street,04345,44.2252953,-69.7824261
511,Water Street,04345,44.2259985,-69.7822789
521,Water Street,04345,44.2251316,-69.7833129
522,Water Street,04345,44.2244764,-69.7830162
546,Water Street,04345,44.2230736,-69.7840869
552,Water Street,04345,44.2226529,-69.7843880
556,Water Street,04345,44.2224764,-69.7845171
563,Water Street,04345,44.2226725,-69.7854712
582,Water Street,04345,44.2205648,-69.7855997
594,Water Street,04345,44.2202611,-69.7865659
596,Water Street,04345,44.2199893,-69.7868189
599,Water Street,04345,44.2205629,-69.7865324
600,Water Street,04345,44.2199780,-69.7871505
604,Water Street,04345,44.2198087,-69.7875489
605,Water Street,04345,44.2203880,-69.7870871
610,Water Street,04345,44.2197965,-69.7879994
617,Water Street,04345,44.2200382,-69.7882029
619,Water Street,04345,44.2199875,-69.7883838
5,Weeks Road,04345,44.1728424,-69.8197164
23,Weeks Road,04345,44.1719069,-69.8208480
58,Weeks Road,04345,44.1694729,-69.8200325
60,Weeks Road,04345,44.1689529,-69.8203630
74,Weeks Road,04345,44.1686793,-69.8214662
81,Weeks Road,04345,44.1683615,-69.8224687
82,Weeks Road,04345,44.1681319,-69.8218463
127,Weeks Road,04345,44.1655078,-69.8249181
146,Weeks Road,04345,44.1643969,-69.8247900
183,Weeks Road,04345,44.1640800,-69.8275247
191,Weeks Road,04345,44.1639789,-69.8284238
203,Weeks Road,04345,44.1646791,-69.8293341
45,West Street,04345,44.2174169,-69.7910160
61,West Street,04345,44.2162759,-69.7906689
66,West Street,04345,44.2162421,-69.7896983
83,West Street,04345,44.2147917,-69.7898229
89,West Street,04345,44.2145682,-69.7895946
93,West Street,04345,44.2143624,-69.7894166
99,West Street,04345,44.2139136,-69.7892228
102,West Street,04345,44.2138591,-69.7886400
111,West Street,04345,44.2131373,-69.7888557
116,West Street,04345,44.2129576,-69.7881523
143,West Street,04345,44.2108795,-69.7879180
19,Williams Lane,04345,44.2149363,-69.7851743
10,Willow Street,04345,44.2321647,-69.7843891
19,Willow Street,04345,44.2316839,-69.7849149
27,Willow Street,04345,44.2313455,-69.7850356
42,Winter Street,04345,44.2305100,-69.7788577
77,Winter Street,04345,44.2318704,-69.7800402
85,Winter Street,04345,44.2320481,-69.7803869
87,Winter Street,04345,44.2321642,-69.7805136
89,Winter Street,04345,44.2322401,-69.7806086
98,Winter Street,04345,44.2322804,-69.7813040
102,Winter Street,04345,44.2323689,-69.7815243
192,Brunswick Avenue,04345,44.2224196,-69.7783504
269,Libby Hill Road,04345,44.1671102,-69.8130203
16,Main Avenue,04345,44.2299887,-69.7714195
123,Brunswick Avenue,04345,44.2253949,-69.7770687
14,Bucks Lane,04345,44.1661871,-69.8249901
46,Warren Avenue,04345,44.1933141,-69.7627508
39,Alexandra Drive,04345,44.2178398,-69.7923423
109,Brunswick Avenue,04345,44.2258846,-69.7765368
31,Toms Way,04345,44.2097434,-69.7822703
235,Water Street,04345,44.2296319,-69.7722662
28,Fountain Street,04345,44.2308290,-69.7809155
69,Kingsbury Street,04345,44.2255666,-69.7709861
190,Water Street,04345,44.2288984,-69.7708981
236,Marston Road,04345,44.1945996,-69.7836591
175,Libby Hill Road,04345,44.1723106,-69.8185394
195,Marston Road,04345,44.1974768,-69.7822393
1087,River Avenue,04345,44.1604507,-69.7723825
28,Puringtons Lane,04345,44.1884763,-69.7961906
32,Lincoln Avenue,04345,44.2252149,-69.7744058
225,Harrison Avenue,04345,44.2258996,-69.7861902
287,Libby Hill Road,04345,44.1660763,-69.8121743
264,Costello Road,04345,44.1643557,-69.7937398
10,Fountain Street,04345,44.2316127,-69.7808570
30,Adams Street,04345,44.2342798,-69.7884055
119,Highland Avenue,04345,44.2329824,-69.7800173
17,Iron Mine Hill Mhp,04345,44.2137902,-69.7862231
12,Autumn Street,04345,44.2332563,-69.7794574
214,Libby Hill Road,04345,44.1705456,-69.8154504
60,Dresden Avenue,04345,44.2249535,-69.7724492
36,Abcd Lane,04345,44.2299083,-69.7988400
7,ABJ Drive,04345,44.2028225,-69.7962399
8,ABJ Drive,04345,44.2025350,-69.7967929
25,ABJ Drive,04345,44.2035003,-69.7978072
8,Adams Street,04345,44.2326528,-69.7873821
21,Adams Street,04345,44.2334949,-69.7866858
22,Adams Street,04345,44.2336038,-69.7872069
52,Adams Street,04345,44.2356123,-69.7864385
58,Adams Street,04345,44.2359818,-69.7863808
75,Adams Street,04345,44.2367828,-69.7851204
81,Adams Street,04345,44.2376198,-69.7851566
93,Adams Street,04345,44.2380708,-69.7850311
12,Alexandra Drive,04345,44.2156520,-69.7910549
16,Alexandra Drive,04345,44.2156618,-69.7915933
19,Alexandra Drive,04345,44.2162456,-69.7911380
34,Alexandra Drive,04345,44.2169239,-69.7919921
4,Allies Way,04345,44.1871581,-69.8171183
11,Allies Way,04345,44.1864667,-69.8174904
12,Allies Way,04345,44.1868386,-69.8171014
6,Andrews Street,04345,44.2230789,-69.7905033
12,Andrews Street,04345,44.2226694,-69.7904791
34,Andrews Street,04345,44.2214878,-69.7901503
1,Ash Street,04345,44.2230573,-69.7871102
7,Ash Street,04345,44.2231971,-69.7877255
11,Ash Street,04345,44.2232263,-69.7880577
27,Ash Street,04345,44.2234260,-69.7891308
38,Ash Street,04345,44.2231422,-69.7898156
15,Autumn Street,04345,44.2332380,-69.7788374
16,Autumn Street,04345,44.2333843,-69.7791774
17,Autumn Street,04345,44.2334276,-69.7787585
20,Autumn Street,04345,44.2335649,-69.7790921
25,Autumn Street,04345,44.2337840,-69.7786505
28,Autumn Street,04345,44.2339304,-69.7789717
38,Autumn Street,04345,44.2342419,-69.7788318
8,Barnett Way,04345,44.1664415,-69.8227922
15,Barnett Way,04345,44.1657398,-69.8220883
24,Barnett Way,04345,44.1667410,-69.8218395
35,Barnett Way,04345,44.1668432,-69.8207653
41,Barnett Way,04345,44.1673717,-69.8205162
3,Bartlett Street,04345,44.1788466,-69.7572410
6,Bartlett Street,04345,44.1783351,-69.7576598
14,Bartlett Street,04345,44.1784119,-69.7582988
19,Bartlett Street,04345,44.1787878,-69.7586414
20,Bartlett Street,04345,44.1785359,-69.7592887
21,Bartlett Street,04345,44.1788218,-69.7589359
30,Bartlett Street,04345,44.1786221,-69.7598653
38,Bartlett Street,04345,44.1788916,-69.7613075
17,Beech Street,04345,44.2268485,-69.7777765
18,Beech Street,04345,44.2270224,-69.7773656
25,Beech Street,04345,44.2266157,-69.7775919
26,Beech Street,04345,44.2267761,-69.7771808
14,Bennett Lane,04345,44.2060112,-69.7947183
26,Blakes Hill,04345,44.1950952,-69.8036817
2,Blueberry Hill Lane,04345,44.1865879,-69.8187933
11,Blueberry Hill Lane,04345,44.1861275,-69.8183302
12,Blueberry Hill Lane,04345,44.1862093,-69.8182313
16,Blueberry Hill Lane,04345,44.1860447,-69.8179537
17,Blueberry Hill Lane,04345,44.1858784,-69.8179139
18,Blueberry Hill Lane,04345,44.1859602,-69.8178149
19,Blueberry Hill Lane,04345,44.1857939,-69.8177751
20,Blueberry Hill Lane,04345,44.1858756,-69.8176761
21,Blueberry Hill Lane,04345,44.1857094,-69.8176363
22,Blueberry Hill Lane,04345,44.1857911,-69.8175373
23,Blueberry Hill Lane,04345,44.1856249,-69.8174912
24,Blueberry Hill Lane,04345,44.1857110,-69.8174048
28,Blueberry Hill Lane,04345,44.1855645,-69.8171150
36,Blueberry Hill Lane,04345,44.1853988,-69.8163746
51,Blueberry Hill Lane,04345,44.1844108,-69.8154100
62,Blueberry Hill Lane,04345,44.1843429,-69.8142017
88,Blueberry Hill Lane,04345,44.1833431,-69.8123613
21,Booker Road,04345,44.1664616,-69.8143309
34,Booker Road,04345,44.1655390,-69.8136616
17,Browns Lane,04345,44.2050351,-69.7887663
1,Brunswick Avenue,04345,44.2298131,-69.7747603
15,Brunswick Avenue,04345,44.2294746,-69.7743896
16,Brunswick Avenue,04345,44.2293742,-69.7744290
17,Brunswick Avenue,04345,44.2294105,-69.7750368
31,Brunswick Avenue,04345,44.2290186,-69.7750755
36,Brunswick Avenue,04345,44.2287975,-69.7744966
37,Brunswick Avenue,04345,44.2287258,-69.7751092
42,Brunswick Avenue,04345,44.2285895,-69.7746379
47,Brunswick Avenue,04345,44.2283012,-69.7753290
65,Brunswick Avenue,04345,44.2276854,-69.7758593
75,Brunswick Avenue,04345,44.2273192,-69.7760799
81,Brunswick Avenue,04345,44.2271770,-69.7764724
87,Brunswick Avenue,04345,44.2268810,-69.7763120
99,Brunswick Avenue,04345,44.2263508,-69.7761736
103,Brunswick Avenue,04345,44.2260249,-69.7764322
115,Brunswick Avenue,04345,44.2255408,-69.7767827
118,Brunswick Avenue,04345,44.2255950,-69.7761010
121,Brunswick Avenue,04345,44.2253284,-69.7769051
122,Brunswick Avenue,04345,44.2252691,-69.7763597
126,Brunswick Avenue,04345,44.2250361,-69.7762064
127,Brunswick Avenue,04345,44.2250708,-69.7770582
131,Brunswick Avenue,04345,44.2249075,-69.7772439
132,Brunswick Avenue,04345,44.2247851,-69.7767101
136,Brunswick Avenue,04345,44.2245951,-69.7768454
144,Brunswick Avenue,04345,44.2243056,-69.7770544
147,Brunswick Avenue,04345,44.2244054,-69.7776066
148,Brunswick Avenue,04345,44.2241383,-69.7771586
152,Brunswick Avenue,04345,44.2239393,-69.7772937
168,Brunswick Avenue,04345,44.2233924,-69.7776246
171,Brunswick Avenue,04345,44.2233924,-69.7782819
175,Brunswick Avenue,04345,44.2231619,-69.7784228
176,Brunswick Avenue,04345,44.2230347,-69.7779266
181,Brunswick Avenue,04345,44.2229945,-69.7785395
182,Brunswick Avenue,04345,44.2228221,-69.7780740
190,Brunswick Avenue,04345,44.2225328,-69.7782518
193,Brunswick Avenue,04345,44.2224831,-69.7789397
198,Brunswick Avenue,04345,44.2221032,-69.7785340
205,Brunswick Avenue,04345,44.2218650,-69.7791381
210,Brunswick Avenue,04345,44.2216150,-69.7788406
216,Brunswick Avenue,04345,44.2213626,-69.7788873
219,Brunswick Avenue,04345,44.2214124,-69.7794952
223,Brunswick Avenue,04345,44.2211421,-69.7795292
224,Brunswick Avenue,04345,44.2207125,-69.7791605
247,Brunswick Avenue,04345,44.2203473,-69.7799068
255,Brunswick Avenue,04345,44.2199767,-69.7801210
259,Brunswick Avenue,04345,44.2197805,-69.7805065
262,Brunswick Avenue,04345,44.2193399,-69.7797683
279,Brunswick Avenue,04345,44.2185968,-69.7811293
280,Brunswick Avenue,04345,44.2182786,-69.7796103
286,Brunswick Avenue,04345,44.2179573,-69.7798565
300,Brunswick Avenue,04345,44.2178275,-69.7803993
304,Brunswick Avenue,04345,44.2174968,-69.7807079
307,Brunswick Avenue,04345,44.2176047,-69.7813791
311,Brunswick Avenue,04345,44.2171937,-69.7815802
315,Brunswick Avenue,04345,44.2168531,-69.7820264
321,Brunswick Avenue,04345,44.2164912,-69.7822720
333,Brunswick Avenue,04345,44.2157451,-69.7821056
368,Brunswick Avenue,04345,44.2150413,-69.7823341
368,Brunswick Avenue,04345,44.2132718,-69.7830492
372,Brunswick Avenue,04345,44.2127977,-69.7832620
390,Brunswick Avenue,04345,44.2116800,-69.7841047
396,Brunswick Avenue,04345,44.2109307,-69.7844076
419,Brunswick Avenue,04345,44.2103474,-69.7860897
423,Brunswick Avenue,04345,44.2102567,-69.7861824
437,Brunswick Avenue,04345,44.2092231,-69.7872451
442,Brunswick Avenue,04345,44.2085868,-69.7868173
454,Brunswick Avenue,04345,44.2077553,-69.7872756
458,Brunswick Avenue,04345,44.2076346,-69.7878059
468,Brunswick Avenue,04345,44.2070963,-69.7881868
482,Brunswick Avenue,04345,44.2061741,-69.7887502
508,Brunswick Avenue,04345,44.2050901,-69.7905756
514,Brunswick Avenue,04345,44.2047813,-69.7909657
516,Brunswick Avenue,04345,44.2046902,-69.7911147
518,Brunswick Avenue,04345,44.2034551,-69.7900594
526,Brunswick Avenue,04345,44.2040545,-69.7919072
544,Brunswick Avenue,04345,44.2034985,-69.7935393
572,Brunswick Avenue,04345,44.2023097,-69.7955321
613,Brunswick Avenue,04345,44.2007589,-69.7990843
678,Brunswick Avenue,04345,44.1972705,-69.8028916
683,Brunswick Avenue,04345,44.1975345,-69.8037586
725,Brunswick Avenue,04345,44.1958522,-69.8074086
735,Brunswick Avenue,04345,44.1953893,-69.8079342
742,Brunswick Avenue,04345,44.1945640,-69.8075037
743,Brunswick Avenue,04345,44.1950795,-69.8084493
748,Brunswick Avenue,04345,44.1943856,-69.8079079
752,Brunswick Avenue,04345,44.1938845,-69.8081076
764,Brunswick Avenue,04345,44.1935008,-69.8089032
771,Brunswick Avenue,04345,44.1934929,-69.8100168
776,Brunswick Avenue,04345,44.1928195,-69.8097510
779,Brunswick Avenue,04345,44.1930342,-69.8105861
797,Brunswick Avenue,04345,44.1921079,-69.8116996
809,Brunswick Avenue,04345,44.1915527,-69.8125492
810,Brunswick Avenue,04345,44.1913518,-69.8116830
818,Brunswick Avenue,04345,44.1906835,-69.8125998
830,Brunswick Avenue,04345,44.1899633,-69.8132280
839,Brunswick Avenue,04345,44.1903243,-69.8150036
840,Brunswick Avenue,04345,44.1896299,-69.8139054
867,Brunswick Avenue,04345,44.1887034,-69.8163076
873,Brunswick Avenue,04345,44.1884753,-69.8167298
878,Brunswick Avenue,04345,44.1876212,-69.8165616
895,Brunswick Avenue,04345,44.1874677,-69.8185177
907,Brunswick Avenue,04345,44.1867606,-69.8191961
916,Brunswick Avenue,04345,44.1862696,-69.8192393
935,Brunswick Avenue,04345,44.1860703,-69.8219204
951,Brunswick Avenue,04345,44.1849575,-69.8226681
971,Brunswick Avenue,04345,44.1842086,-69.8241403
979,Brunswick Avenue,04345,44.1838183,-69.8245728
1010,Brunswick Avenue,04345,44.1817992,-69.8261586
1035,Brunswick Avenue,04345,44.1814247,-69.8287557
1056,Brunswick Avenue,04345,44.1801007,-69.8294502
1178,Brunswick Avenue,04345,44.1755338,-69.8371673
1212,Brunswick Avenue,04345,44.1727564,-69.8402302
1270,Brunswick Avenue,04345,44.1698093,-69.8430779
1283,Brunswick Avenue,04345,44.1693740,-69.8459486
1293,Brunswick Avenue,04345,44.1688299,-69.8458658
1305,Brunswick Avenue,04345,44.1679863,-69.8467168
1313,Brunswick Avenue,04345,44.1677406,-69.8470635
1316,Brunswick Avenue,04345,44.1669134,-69.8463074
3,Brunswick Terrace,04345,44.2192356,-69.7792161
5,Brunswick Terrace,04345,44.2190852,-69.7788260
6,Brunswick Terrace,04345,44.2194921,-69.7785622
8,Brunswick Terrace,04345,44.2192606,-69.7781899
9,Brunswick Terrace,04345,44.2185889,-69.7789947
12,Brunswick Terrace,04345,44.2185947,-69.7781435
14,Brunswick Terrace,04345,44.2183093,-69.7783964
7,Cannard Street,04345,44.1853395,-69.7576807
12,Cannard Street,04345,44.1851069,-69.7581282
16,Cannard Street,04345,44.1851410,-69.7584164
17,Cannard Street,04345,44.1853976,-69.7584134
19,Cannard Street,04345,44.1854134,-69.7587452
22,Cannard Street,04345,44.1850516,-69.7590033
25,Cannard Street,04345,44.1860773,-69.7591040
27,Cannard Street,04345,44.1854991,-69.7593969
30,Cannard Street,04345,44.1852852,-69.7597507
31,Cannard Street,04345,44.1855780,-69.7597232
39,Cannard Street,04345,44.1856627,-69.7605188
55,Cannard Street,04345,44.1861137,-69.7617508
60,Cannard Street,04345,44.1858899,-69.7622359
64,Cannard Street,04345,44.1859822,-69.7625749
74,Cannard Street,04345,44.1863781,-69.7639438
15,Capen Road,04345,44.1901849,-69.7594508
25,Capen Road,04345,44.1895313,-69.7595926
34,Capen Road,04345,44.1890770,-69.7602061
39,Capen Road,04345,44.1893432,-69.7607976
42,Capen Road,04345,44.1888645,-69.7610292
57,Capen Road,04345,44.1891348,-69.7623403
64,Capen Road,04345,44.1885628,-69.7630711
94,Capen Road,04345,44.1883040,-69.7660895
100,Capen Road,04345,44.1880338,-69.7667680
110,Capen Road,04345,44.1876932,-69.7678897
122,Capen Road,04345,44.1876801,-69.7684901
128,Capen Road,04345,44.1870668,-69.7693204
164,Capen Road,04345,44.1876840,-69.7725817
186,Capen Road,04345,44.1874857,-69.7746186
218,Capen Road,04345,44.1867920,-69.7773371
224,Capen Road,04345,44.1865275,-69.7778279
256,Capen Road,04345,44.1850351,-69.7808173
276,Capen Road,04345,44.1856738,-69.7828777
279,Capen Road,04345,44.1871841,-69.7831980
295,Capen Road,04345,44.1870403,-69.7851230
315,Capen Road,04345,44.1873686,-69.7864787
338,Capen Road,04345,44.1873260,-69.7887491
342,Capen Road,04345,44.1874412,-69.7890071
362,Capen Road,04345,44.1877976,-69.7908574
9,Carlson Lane,04345,44.1909476,-69.7916691
41,Carlson Lane,04345,44.1913690,-69.7932139
20,Cedar Street,04345,44.2303917,-69.7816735
21,Cedar Street,04345,44.2300074,-69.7812614
32,Central Street,04345,44.2231576,-69.7790425
36,Central Street,04345,44.2230791,-69.7793357
39,Central Street,04345,44.2232969,-69.7797454
68,Central Street,04345,44.2223920,-69.7810731
73,Central Street,04345,44.2225762,-69.7817891
79,Central Street,04345,44.2223939,-69.7821185
84,Central Street,04345,44.2219351,-69.7820561
97,Central Street,04345,44.2219632,-69.7832083
102,Central Street,04345,44.2214768,-69.7832519
104,Central Street,04345,44.2213806,-69.7834885
106,Central Street,04345,44.2212843,-69.7837439
113,Central Street,04345,44.2217329,-69.7839689
117,Central Street,04345,44.2215327,-69.7842792
126,Central Street,04345,44.2208295,-69.7844264
138,Central Street,04345,44.2207163,-69.7851698
26,Cherry Street,04345,44.2187290,-69.7881041
18,Chestnut Street,04345,44.2267973,-69.7786836
19,Chestnut Street,04345,44.2265700,-69.7790186
31,Chestnut Street,04345,44.2261040,-69.7786995
53,Chestnut Street,04345,44.2251681,-69.7779735
57,Chestnut Street,04345,44.2249618,-69.7778581
45,Church Street,04345,44.2287100,-69.7734562
16,Clinton Street,04345,44.2334598,-69.7832731
20,Clinton Street,04345,44.2337530,-69.7831831
24,Clinton Street,04345,44.2341094,-69.7830751
25,Clinton Street,04345,44.2339538,-69.7827913
28,Clinton Street,04345,44.2342721,-69.7829833
39,Clinton Street,04345,44.2344642,-69.7825413
41,Clinton Street,04345,44.2346172,-69.7825371
42,Clinton Street,04345,44.2351517,-69.7827132
11,Cobbossee Avenue,04345,44.2206722,-69.7915603
17,Cobbossee Avenue,04345,44.2206033,-69.7924107
51,Cobbossee Avenue,04345,44.2205611,-69.7939500
61,Cobbossee Avenue,04345,44.2203007,-69.7945036
84,Cobbossee Avenue,04345,44.2193670,-69.7954112
90,Cobbossee Avenue,04345,44.2191980,-69.7957657
94,Cobbossee Avenue,04345,44.2189753,-69.7960694
96,Cobbossee Avenue,04345,44.2185520,-69.7961013
104,Cobbossee Avenue,04345,44.2183404,-69.7967432
112,Cobbossee Avenue,04345,44.2180235,-69.7970018
127,Cobbossee Avenue,04345,44.2178397,-69.7988208
136,Cobbossee Avenue,04345,44.2171519,-69.7993373
161,Cobbossee Avenue,04345,44.2166080,-69.8017960
1,Commonwealth Street,04345,44.2165451,-69.7849141
16,Costello Road,04345,44.1667342,-69.7711637
23,Costello Road,04345,44.1671810,-69.7716573
24,Costello Road,04345,44.1664050,-69.7719036
27,Costello Road,04345,44.1673344,-69.7722722
39,Costello Road,04345,44.1672863,-69.7733848
94,Costello Road,04345,44.1665970,-69.7787667
106,Costello Road,04345,44.1679864,-69.7809927
135,Costello Road,04345,44.1677875,-69.7824285
136,Costello Road,04345,44.1669735,-69.7823051
158,Costello Road,04345,44.1670039,-69.7844319
193,Costello Road,04345,44.1672953,-69.7878817
210,Costello Road,04345,44.1663260,-69.7893948
226,Costello Road,04345,44.1655672,-69.7910732
304,Costello Road,04345,44.1635265,-69.7971119
334,Costello Road,04345,44.1626061,-69.7986942
335,Costello Road,04345,44.1636975,-69.7996844
351,Costello Road,04345,44.1632328,-69.8011290
375,Costello Road,04345,44.1633379,-69.8034693
378,Costello Road,04345,44.1621199,-69.8031963
390,Costello Road,04345,44.1629965,-69.8046403
35,Cottage Street,04345,44.2208020,-69.7672683
28,D And B Rock Drive,04345,44.1860583,-69.7969213
32,Danforth Street,04345,44.2229478,-69.7734934
33,Danforth Street,04345,44.2230610,-69.7740583
34,Danforth Street,04345,44.2227889,-69.7736854
38,Danforth Street,04345,44.2226446,-69.7737211
44,Danforth Street,04345,44.2224812,-69.7739193
11,Deane Street,04345,44.2209821,-69.7726039
12,Deane Street,04345,44.2210347,-69.7721413
19,Deane Street,04345,44.2208330,-69.7726895
30,Deane Street,04345,44.2203650,-69.7726584
31,Deane Street,04345,44.2203671,-69.7730152
36,Deane Street,04345,44.2200437,-69.7729046
39,Deane Street,04345,44.2200370,-69.7732300
43,Deane Street,04345,44.2199002,-69.7734911
46,Deane Street,04345,44.2196545,-69.7732125
51,Deane Street,04345,44.2196023,-69.7736124
52,Deane Street,04345,44.2194735,-69.7733541
16,Deer Hill Lane,04357,44.1542926,-69.7690195
3,Dennis Street,04345,44.2271909,-69.7717711
24,Dennis Street,04345,44.2264510,-69.7706784
34,Dennis Street,04345,44.2261382,-69.7703362
39,Dennis Street,04345,44.2257083,-69.7706687
40,Dennis Street,04345,44.2258824,-69.7702140
8,Depot Square,04345,44.2298635,-69.7706353
35,Dresden Avenue,04345,44.2260505,-69.7739911
40,Dresden Avenue,04345,44.2261539,-69.7733476
47,Dresden Avenue,04345,44.2257948,-69.7738500
49,Dresden Avenue,04345,44.2255881,-69.7737972
50,Dresden Avenue,04345,44.2258715,-69.7731624
52,Dresden Avenue,04345,44.2257377,-69.7729791
53,Dresden Avenue,04345,44.2253559,-69.7735187
56,Dresden Avenue,04345,44.2255087,-69.7729010
57,Dresden Avenue,04345,44.2252446,-69.7733357
58,Dresden Avenue,04345,44.2252942,-69.7726603
61,Dresden Avenue,04345,44.2251012,-69.7732399
65,Dresden Avenue,04345,44.2249581,-69.7731066
75,Dresden Avenue,04345,44.2245506,-69.7727820
79,Dresden Avenue,04345,44.2244206,-69.7726989
83,Dresden Avenue,04345,44.2242641,-69.7725466
87,Dresden Avenue,04345,44.2240938,-69.7724442
92,Dresden Avenue,04345,44.2241573,-69.7716939
93,Dresden Avenue,04345,44.2237624,-69.7721770
100,Dresden Avenue,04345,44.2237943,-69.7714575
116,Dresden Avenue,04345,44.2231086,-69.7710166
120,Dresden Avenue,04345,44.2229427,-69.7709080
121,Dresden Avenue,04345,44.2226201,-69.7713545
127,Dresden Avenue,04345,44.2222228,-69.7715246
128,Dresden Avenue,04345,44.2226028,-69.7705906
21,Sherburne Avenue,04345,44.1742737,-69.7618673
309,Highland Avenue,04345,44.2317458,-69.7948454
27,Johnson Street,04345,44.1806304,-69.7590967
792,Brunswick Avenue,04345,44.1921500,-69.8108430
35,Farm Family Lane,04345,44.1911240,-69.7604013
124,Northern Avenue,04345,44.2381882,-69.7830165
102,Northern Avenue,04345,44.2377472,-69.7810257
80,Northern Avenue,04345,44.2370441,-69.7791693
74,Northern Avenue,04345,44.2369313,-69.7785417
64,Northern Avenue,04345,44.2368069,-69.7776384
133,Spring Street,04345,44.2347905,-69.7795779
84,Spring Street,04345,44.2338310,-69.7770420
38,Bridge Street,04345,44.2318642,-69.7743240
22,Bridge Street,04345,44.2309519,-69.7747628
13,Clinton Street,04345,44.2333134,-69.7829518
19,Clinton Street,04345,44.2335976,-69.7828742
40,Clinton Street,04345,44.2347998,-69.7828338
38,Clinton Street,04345,44.2346238,-69.7828878
36,Clinton Street,04345,44.2344523,-69.7829607
11,Plummer Court,04345,44.2230011,-69.7769058
410,Water Street,04345,44.2295959,-69.7755839
25,Bartlett Street,04345,44.1789006,-69.7592747
67,Capen Road,04345,44.1889553,-69.7636080
6,Central Maine Crossing,04345,44.1828909,-69.8268102
138,Capen Road,04345,44.1881339,-69.7699599
64,Katies Circle,04345,44.2106730,-69.7766623
898,Brunswick Avenue,04345,44.1867376,-69.8180008
17,Allies Way,04345,44.1864382,-69.8170583
3,Rustic Lane,04345,44.1905843,-69.8138935
42,Old Brunswick Road,04345,44.2128732,-69.7845820
20,Holiday Lane,04345,44.1671056,-69.8501376
23,Loon Drive,04345,44.1672806,-69.8508093
33,Loon Drive,04345,44.1673983,-69.8513238
29,Alexandra Drive,04345,44.2169820,-69.7914107
62,West Street,04345,44.2164569,-69.7898764
194,High Holborn Street,04345,44.2176668,-69.7900241
420,Brunswick Avenue,04345,44.2101342,-69.7850229
26,Gudrun Drive,04345,44.2328969,-69.8027497
11,Gudrun Drive,04345,44.2319043,-69.8024357
12,Gudrun Drive,04345,44.2319402,-69.8030873
391,Highland Avenue,04345,44.2312408,-69.8033282
333,Highland Avenue,04345,44.2317491,-69.7969616
334,Highland Avenue,04345,44.2313570,-69.7970252
18,Elijah Lane,04345,44.2302499,-69.7963341
332,Highland Avenue,04345,44.2313283,-69.7966179
7,Union Street,04345,44.1859562,-69.7576824
15,Johnson Street,04345,44.1806007,-69.7581455
15,Bartlett Street,04345,44.1787225,-69.7583091
18,Bartlett Street,04345,44.1785075,-69.7588255
35,Spring Street,04345,44.2335740,-69.7744403
77,Highland Avenue,04345,44.2325223,-69.7775194
21,Highland Avenue,04345,44.2319818,-69.7749078
215,Highland Avenue,04345,44.2328359,-69.7862888
141,Spring Street,04345,44.2348673,-69.7801987
69,Spring Street,04345,44.2340035,-69.7761677
237,Highland Avenue,04345,44.2319865,-69.7880368
47,Summer Street,04345,44.2311865,-69.7760180
22,Ash Street,04345,44.2229807,-69.7884237
26,Elm Street,04345,44.2260301,-69.7796313
3,Bridge Street,04345,44.2299639,-69.7744180
25,Mechanic Street,04345,44.2295813,-69.7744255
23,School Street,04345,44.2279045,-69.7714173
269,Water Street,04345,44.2297182,-69.7728183
20,Mechanic Street,04345,44.2293553,-69.7738841
20,Mechanic Street,04345,44.2290205,-69.7741427
15,Green Street,04345,44.2198511,-69.7859658
48,Alexandra Drive,04345,44.2169823,-69.7933073
35,West Street,04345,44.2181596,-69.7910196
20,Water Street,04345,44.2263423,-69.7681040
40,Pleasant Street,04345,44.2264980,-69.7723880
20,Fairview Street,04345,44.2183696,-69.7834047
114,Northern Avenue,04345,44.2379504,-69.7822369
128,Old Brunswick Road,04345,44.2079393,-69.7886674
6,Rustic Lane,04345,44.1913328,-69.8162375
45,Cobbossee Avenue,04345,44.2209082,-69.7932348
49,Cobbossee Avenue,04345,44.2207255,-69.7936142
78,Dresden Avenue,04345,44.2243939,-69.7719912
2,Green Street,04345,44.2204100,-69.7858543
241,Highland Avenue,04345,44.2328461,-69.7887245
992,Brunswick Avenue,04345,44.1828922,-69.8250353
998,Brunswick Avenue,04345,44.1825557,-69.8254936
206,Brunswick Avenue,04345,44.2217867,-69.7787364
202,Brunswick Avenue,04345,44.2218952,-69.7780117
220,Brunswick Avenue,04345,44.2209788,-69.7790576
345,Water Street,04345,44.2300090,-69.7744061
397,Water Street,04345,44.2302216,-69.7755921
320,Water Street,04345,44.2297208,-69.7744211
316,Water Street,04345,44.2296930,-69.7738760
405,Water Street,04345,44.2300248,-69.7760591
4,Pierce Street,04345,44.2171941,-69.7802094
6,Church Street,04345,44.2284585,-69.7720443
6,Church Street,04345,44.2286239,-69.7722092
6,Walnut Street,04345,44.2222781,-69.7845583
8,Cherry Street,04345,44.2196580,-69.7885108
8,Pierce Street,04345,44.2170342,-69.7798881
8,Sawyer Street,04345,44.1837602,-69.7575604
10,Clinton Street,04345,44.2332387,-69.7833515
10,Hillcrest Street,04345,44.2337211,-69.7845601
12,Griffin Street,04345,44.2177628,-69.7878596
12,Willow Street,04345,44.2320567,-69.7843814
14,Beech Street,04345,44.2271524,-69.7774424
14,Chestnut Street,04345,44.2269405,-69.7788107
14,Elm Street,04345,44.2264868,-69.7799941
14,Main Avenue,04345,44.2298226,-69.7713547
14,North Street,04345,44.1771278,-69.8247360
14,Oak Street,04345,44.2248162,-69.7820504
14,Pine Street,04345,44.2232661,-69.7822803
14,Williams Lane,04345,44.2143928,-69.7856491
16,Ash Street,04345,44.2229294,-69.7880349
16,Bartlett Street,04345,44.1784551,-69.7585746
16,Cherry Street,04345,44.2191503,-69.7883726
16,Freemont Street,04345,44.2238691,-69.7743819
16,Griffin Street,04345,44.2174942,-69.7876370
16,Pierce Street,04345,44.2168894,-69.7793416
16,South Street,04345,44.1750335,-69.8230118
18,Clinton Street,04345,44.2336172,-69.7832877
18,Fountain Street,04345,44.2313990,-69.7811734
18,Pine Street,04345,44.2229164,-69.7820628
18,Union Street,04345,44.1855575,-69.7580714
22,Andrews Street,04345,44.2221517,-69.7904847
22,Beech Street,04345,44.2268970,-69.7772700
22,Elm Street,04345,44.2261779,-69.7797459
22,Highland Avenue,04345,44.2316788,-69.7751104
22,Plummer Street,04345,44.2233034,-69.7761398
2,Blakes Hill,04345,44.1961352,-69.8049347
2,Bridge Street,04345,44.2301502,-69.7748274
2,Church Street,04345,44.2294076,-69.7714870
2,Dennis Street,04345,44.2274590,-69.7713927
2,Maple Street,04345,44.2264110,-69.7812014
2,Spruce Street,04345,44.2231734,-69.7834748
4,Brunswick Terrace,04345,44.2196700,-69.7788901
22,Spring Street,04345,44.2329064,-69.7739870
24,Orchard Street,04345,44.2333422,-69.7905343
24,Washington Avenue,04345,44.2260041,-69.7768451
26,Chestnut Street,04345,44.2264793,-69.7784477
26,Fairview Street,04345,44.2186432,-69.7835523
26,Harrison Avenue,04345,44.2316143,-69.7819338
26,Liberty Street,04345,44.2242349,-69.7755323
26,Mill Street,04345,44.1839634,-69.7547542
26,Winter Street,04345,44.2295438,-69.7779435
28,Heselton Street,04345,44.2222536,-69.7762825
28,Kingsbury Street,04345,44.2255339,-69.7684879
30,Bridge Street,04345,44.2310674,-69.7743260
30,Chestnut Street,04345,44.2262868,-69.7782950
30,Elm Street,04345,44.2258787,-69.7793976
30,Oak Street,04345,44.2241533,-69.7815596
30,Washington Avenue,04345,44.2258617,-69.7772627
32,Winter Street,04345,44.2301002,-69.7782137
34,Deane Street,04345,44.2201887,-69.7727688
40,Liberty Street,04345,44.2237065,-69.7757883
40,Warren Avenue,04345,44.1935497,-69.7625223
40,Weeks Road,04345,44.1703149,-69.8193749
42,High Holborn Street,04345,44.2211550,-69.7809441
44,Spring Street,04345,44.2333219,-69.7751069
46,Bridge Street,04345,44.2327734,-69.7736847
48,Maple Street,04345,44.2244978,-69.7798990
50,Central Street,04345,44.2227455,-69.7800699
50,Elm Street,04345,44.2251211,-69.7789306
52,Libby Hill Road,04345,44.1794833,-69.8245687
52,Oak Street,04345,44.2233565,-69.7809106
54,High Holborn Street,04345,44.2208938,-69.7816166
54,Maple Street,04345,44.2242963,-69.7797336
54,Timberwood Drive,04345,44.1906169,-69.8200316
56,Pierce Street,04345,44.2159977,-69.7767574
58,Maple Street,04345,44.2240812,-69.7795930
58,West Street,04345,44.2167646,-69.7903062
60,Elm Street,04345,44.2247405,-69.7786251
60,Pleasant Street,04345,44.2258495,-69.7717598
62,Church Street,04345,44.2280919,-69.7736672
62,Lincoln Avenue,04345,44.2240906,-69.7735710
64,Old Brunswick Road,04345,44.2117769,-69.7857207
64,Elm Street,04345,44.2245792,-69.7785166
64,Maple Street,04345,44.2238303,-69.7794207
64,Winter Street,04345,44.2310624,-69.7797040
68,Northern Avenue,04345,44.2368723,-69.7779586
70,Northern Avenue,04345,44.2368934,-69.7781593
70,Old Brunswick Road,04345,44.2114464,-69.7859979
72,Central Street,04345,44.2222737,-69.7812656
74,Elm Street,04345,44.2241983,-69.7782674
74,Highland Avenue,04345,44.2316799,-69.7775960
74,Lincoln Avenue,04345,44.2234286,-69.7729551
76,Elm Street,04345,44.2239564,-69.7780890
76,Northern Avenue,04345,44.2362302,-69.7783822
76,Spring Street,04345,44.2337164,-69.7766774
76,West Street,04345,44.2158769,-69.7897811
78,Winter Street,04345,44.2316244,-69.7804564
80,Spring Street,04345,44.2337825,-69.7768848
82,Mount Vernon Street,04345,44.2364867,-69.7803704
82,Northern Avenue,04345,44.2371042,-69.7795896
84,Highland Avenue,04345,44.2322437,-69.7780980
84,Riverview Drive,04345,44.1747438,-69.7568382
86,High Holborn Street,04345,44.2201888,-69.7833287
92,Bartlett Street,04345,44.1805821,-69.7649824
92,Central Street,04345,44.2217565,-69.7825044
94,Northern Avenue,04345,44.2375165,-69.7805218
94,Winter Street,04345,44.2320930,-69.7810574
96,Central Street,04345,44.2217053,-69.7827479
98,Spring Street,04345,44.2340144,-69.7778646
102,Spring Street,04345,44.2340621,-69.7781345
106,West Street,04345,44.2134835,-69.7882720
110,Old Brunswick Road,04345,44.2091649,-69.7878451
110,School Street,04345,44.2260528,-69.7749802
114,School Street,04345,44.2259228,-69.7755544
114,Spring Street,04345,44.2342398,-69.7791448
120,West Street,04345,44.2127467,-69.7880493
122,Northern Avenue,04345,44.2367722,-69.7827222
124,Highland Avenue,04345,44.2325967,-69.7804630
124,Spring Street,04345,44.2343363,-69.7795093
132,Libby Hill Road,04345,44.1749263,-69.8203833
140,Central Street,04345,44.2206698,-69.7853883
146,Capen Road,04345,44.1878357,-69.7707881
150,Highland Avenue,04345,44.2326173,-69.7820661
152,Water Street,04345,44.2288132,-69.7708407
154,Dresden Avenue,04345,44.2211638,-69.7696955
158,Highland Avenue,04345,44.2327595,-69.7823309
158,Lincoln Avenue,04345,44.2202360,-69.7704283
184,Highland Avenue,04345,44.2325097,-69.7839680
192,Water Street,04345,44.2293845,-69.7715681
202,Highland Avenue,04345,44.2322087,-69.7851974
210,Water Street,04345,44.2294153,-69.7716749
218,Highland Avenue,04345,44.2320720,-69.7860783
226,Water Street,04345,44.2294582,-69.7719948
228,Water Street,04345,44.2294669,-69.7720324
242,Water Street,04345,44.2295056,-69.7723084
254,Old Brunswick Road,04345,44.2013338,-69.7954001
266,Libby Hill Road,04345,44.1679030,-69.8129374
286,Highland Avenue,04345,44.2311799,-69.7933603
300,Highland Avenue,04345,44.2312535,-69.7944256
300,Water Street,04345,44.2296689,-69.7734437
312,Water Street,04345,44.2297033,-69.7736821
318,Old Brunswick Road,04345,44.1983473,-69.8001905
348,Water Street,04345,44.2298066,-69.7743909
358,Water Street,04345,44.2297614,-69.7744091
380,Highland Avenue,04345,44.2308703,-69.8022463
408,Water Street,04345,44.2296415,-69.7754968
412,Water Street,04345,44.2295409,-69.7757272
414,Water Street,04345,44.2294542,-69.7759076
418,Water Street,04345,44.2295064,-69.7761712
518,Water Street,04345,44.2247606,-69.7829324
1,Bartlett Street,04345,44.1790223,-69.7572120
1,Green Street,04345,44.2202001,-69.7862771
1,River Avenue,04345,44.2259544,-69.7675543
3,West Hill Road,04345,44.2312264,-69.7892538
7,Halls Drive,04345,44.1632476,-69.7715122
7,West Hill Terrace,04345,44.2288559,-69.7889905
9,Beech Street,04345,44.2270726,-69.7779234
9,Maple Street,04345,44.2258919,-69.7814199
9,Mechanic Street,04345,44.2293442,-69.7728698
9,Plummer Street,04345,44.2233100,-69.7771540
9,Spring Street,04345,44.2333567,-69.7732917
11,Cherry Street,04345,44.2191568,-69.7887295
11,Chestnut Street,04345,44.2269016,-69.7792358
11,Hillcrest Street,04345,44.2336743,-69.7841587
11,Mechanic Street,04345,44.2293744,-69.7730642
11,Orchard Street,04345,44.2323511,-69.7906525
11,Partridge Drive,04345,44.2125214,-69.7893857
11,Pine Street,04345,44.2231905,-69.7827926
11,Union Street,04345,44.1860521,-69.7581528
13,Elm Street,04345,44.2262998,-69.7803548
13,Liberty Street,04345,44.2248380,-69.7755465
15,Chestnut Street,04345,44.2267581,-69.7791526
15,North Street,04345,44.1775972,-69.8251929
15,Pierce Street,04345,44.2167010,-69.7799025
15,Spring Street,04345,44.2333913,-69.7734987
17,Clinton Street,04345,44.2334575,-69.7829475
17,Heselton Street,04345,44.2223578,-69.7775045
17,Pine Street,04345,44.2229217,-69.7826075
19,Green Street,04345,44.2196133,-69.7858499
19,Pine Street,04345,44.2227248,-69.7824421
19,Washington Avenue,04345,44.2264088,-69.7769130
23,Ash Street,04345,44.2233896,-69.7885419
23,Central Street,04345,44.2236400,-69.7789424
23,Clinton Street,04345,44.2338996,-69.7828156
25,Ash Street,04345,44.2233655,-69.7887669
25,Farm Family Lane,04345,44.1910792,-69.7596875
25,Sawyer Street,04345,44.1843090,-69.7589750
25,Vine Street,04345,44.2278316,-69.7695507
25,Vine Street,04345,44.2277165,-69.7705885
25,Washington Avenue,04345,44.2262257,-69.7773614
27,Chestnut Street,04345,44.2262111,-69.7788386
27,Heselton Street,04345,44.2221143,-69.7769129
27,Liberty Street,04345,44.2240147,-69.7761366
27,Warren Avenue,04345,44.1934166,-69.7615570
29,Central Street,04345,44.2235301,-69.7792101
29,Mount Vernon Street,04345,44.2342442,-69.7804785
29,Pleasant Street,04345,44.2267996,-69.7730493
31,Highland Avenue,04345,44.2322859,-69.7751997
33,Spring Street,04345,44.2335523,-69.7743273
35,Adams Street,04345,44.2348306,-69.7862027
37,Warren Avenue,04345,44.1937213,-69.7624432
37,Winter Street,04345,44.2305417,-69.7781695
41,Elm Street,04345,44.2253278,-69.7796470
41,Highland Avenue,04345,44.2321736,-69.7758369
41,Winter Street,04345,44.2307202,-69.7783972
43,Spring Street,04345,44.2335806,-69.7747973
45,Chestnut Street,04345,44.2258043,-69.7784138
45,Chestnut Street,04345,44.2254906,-69.7782093
45,River Avenue,04345,44.2243036,-69.7660117
45,School Street,04345,44.2276534,-69.7719399
47,Adams Street,04345,44.2352779,-69.7859770
47,Church Street,04345,44.2285867,-69.7737113
49,Libby Hill Road,04345,44.1794195,-69.8253059
49,Pleasant Street,04345,44.2259928,-69.7725379
49,West Street,04345,44.2169530,-69.7910536
51,Oak Street,04345,44.2231198,-69.7812893
51,Pierce Street,04345,44.2158699,-69.7776820
53,Rustic Lane,04345,44.1929193,-69.8172292
57,Central Street,04345,44.2229892,-69.7806365
57,School Street,04345,44.2275725,-69.7725836
57,West Street,04345,44.2165899,-69.7908234
59,Spring Street,04345,44.2338346,-69.7758399
61,Church Street,04345,44.2282915,-69.7740956
61,Pleasant Street,04345,44.2254548,-69.7722179
61,Winter Street,04345,44.2313186,-69.7791000
63,Chestnut Street,04345,44.2247520,-69.7775986
63,Highland Avenue,04345,44.2323517,-69.7767784
63,Washington Avenue,04345,44.2255151,-69.7792363
67,Winter Street,04345,44.2315719,-69.7795855
69,Central Street,04345,44.2226365,-69.7815270
69,Elm Street,04345,44.2242307,-69.7787937
73,Summer Street,04345,44.2310123,-69.7771426
81,Highland Avenue,04345,44.2327279,-69.7777350
83,Winter Street,04345,44.2319774,-69.7801856
85,Highland Avenue,04345,44.2326446,-69.7780657
87,Spring Street,04345,44.2341409,-69.7771400
89,Highland Avenue,04345,44.2326747,-69.7782664
91,Central Street,04345,44.2221237,-69.7827910
93,Highland Avenue,04345,44.2328576,-69.7785193
95,Summer Street,04345,44.2305672,-69.7777253
101,High Holborn Street,04345,44.2200894,-69.7846920
101,Libby Hill Road,04345,44.1764186,-69.8225744
107,Highland Avenue,04345,44.2328831,-69.7794024
115,Highland Avenue,04345,44.2328847,-69.7798157
117,Spring Street,04345,44.2345559,-69.7789987
121,Washington Avenue,04345,44.2242155,-69.7823367
125,Central Street,04345,44.2213228,-69.7846959
125,Spring Street,04345,44.2347245,-69.7793516
127,Water Street,04345,44.2282732,-69.7701450
141,Highland Avenue,04345,44.2330723,-69.7813521
143,Washington Avenue,04345,44.2236437,-69.7836687
145,Spring Street,04345,44.2349335,-69.7804000
151,Water Street,04345,44.2288953,-69.7706915
173,Highland Avenue,04345,44.2330852,-69.7834121
177,Highland Avenue,04345,44.2329076,-69.7837103
177,Water Street,04345,44.2292794,-69.7711410
181,Water Street,04345,44.2293328,-69.7712293
185,Water Street,04345,44.2293907,-69.7713177
189,Water Street,04345,44.2294487,-69.7713936
221,Water Street,04345,44.2295805,-69.7718774
229,Highland Avenue,04345,44.2322817,-69.7870140
261,Harrison Avenue,04345,44.2220618,-69.7878606
261,Water Street,04345,44.2296967,-69.7726615
263,Water Street,04345,44.2297010,-69.7726991
275,Water Street,04345,44.2297354,-69.7729375
283,Water Street,04345,44.2297568,-69.7730943
325,Water Street,04345,44.2298773,-69.7739160
337,Water Street,04345,44.2299117,-69.7741544
341,Marston Road,04345,44.1897531,-69.7912402
343,Water Street,04345,44.2299289,-69.7742735
345,Highland Avenue,04345,44.2316455,-69.7995459
421,Water Street,04345,44.2299997,-69.7764406
563,Brunswick Avenue,04345,44.2030109,-69.7956917
909,River Avenue,04345,44.1704727,-69.7641387
1029,River Avenue,04345,44.1641347,-69.7714613
347,Highland Avenue,04345,44.2318423,-69.7984279
55,Industrial Drive,04345,44.1645421,-69.8320776
24,Alexandra Drive,04345,44.2164206,-69.7918726
80,West Street,04345,44.2153973,-69.7894742
94,West Street,04345,44.2147795,-69.7889840
79,West Street,04345,44.2152804,-69.7901111
816,Brunswick Avenue,04345,44.1908870,-69.8124774
59,Timberwood Drive,04345,44.1915563,-69.8202323
542,Brunswick Avenue,04345,44.2035489,-69.7934148
125,West Street,04345,44.2120202,-69.7883150
396,Costello Road,04345,44.1630729,-69.8052917
584,River Avenue,04345,44.1912163,-69.7573431
3,Streamside Lane,04345,44.1939448,-69.8198650
28,Timberwood Drive,04345,44.1902668,-69.8180121
7,West Hill Road,04345,44.2309963,-69.7893259
23,West Hill Road,04345,44.2306890,-69.7895033
20,West Hill Road,04345,44.2303647,-69.7888729
39,West Hill Road,04345,44.2300125,-69.7896821
10,Depot Square,04345,44.2300221,-69.7704808
288,Highland Avenue,04345,44.2312563,-69.7940249
38,Evergreen Way,04345,44.1912730,-69.8233191
11,Petersville Lane,04345,44.1947583,-69.7622000
21,Petersville Lane,04345,44.1945242,-69.7628727
46,Summer Street,04345,44.2308580,-69.7759949
4,Riverview Drive,04345,44.1798894,-69.7561096
8,Riverview Drive,04345,44.1796418,-69.7561190
28,Riverview Drive,04345,44.1785452,-69.7558548
54,Riverview Drive,04345,44.1764541,-69.7561971
13,Riverview Drive,04345,44.1791447,-69.7564066
17,Riverview Drive,04345,44.1789560,-69.7563479
19,Riverview Drive,04345,44.1787937,-69.7563834
23,Riverview Drive,04345,44.1785512,-69.7562990
27,Riverview Drive,04345,44.1783397,-69.7562837
29,Riverview Drive,04345,44.1782039,-69.7564071
37,Riverview Drive,04345,44.1776274,-69.7564560
63,Riverview Drive,04345,44.1757809,-69.7572518
77,Riverview Drive,04345,44.1750540,-69.7575740
92,Riverview Drive,04345,44.1737966,-69.7571201
108,Riverview Drive,04345,44.1733453,-69.7579712
95,Riverview Drive,04345,44.1741187,-69.7581000
21,Plummer Street,04345,44.2230715,-69.7764810
10,Plummer Court,04345,44.2229492,-69.7765984
14,Plummer Court,04345,44.2226554,-69.7767698
15,Plummer Court,04345,44.2228817,-69.7772548
29,Plummer Street,04345,44.2228946,-69.7760217
37,Plummer Street,04345,44.2225272,-69.7757603
35,Plummer Street,04345,44.2227760,-69.7755882
57,Adams Street,04345,44.2358929,-69.7855657
53,Adams Street,04345,44.2356114,-69.7859188
62,Adams Street,04345,44.2363245,-69.7863040
44,Adams Street,04345,44.2350927,-69.7867196
28,Adams Street,04345,44.2339146,-69.7871798
17,Adams Street,04345,44.2329990,-69.7867856
8,Pope Street,04345,44.2319498,-69.7855195
247,Highland Avenue,04345,44.2318317,-69.7896000
23,Orchard Street,04345,44.2330439,-69.7900670
18,Orchard Street,04345,44.2327226,-69.7909580
7,Orchard Street,04345,44.2320892,-69.7907679
12,Orchard Street,04345,44.2324517,-69.7910796
10,Orchard Street,04345,44.2322079,-69.7911765
6,Orchard Street,04345,44.2319638,-69.7913297
2,Orchard Street,04345,44.2316929,-69.7914388
13,Melvin Lane,04345,44.2328932,-69.7923189
56,Melvin Lane,04345,44.2356942,-69.7928198
329,Highland Avenue,04345,44.2321008,-69.7968725
394,Highland Avenue,04345,44.2306801,-69.8036900
3,West Hill Terrace,04345,44.2288355,-69.7893345
18,West Hill Terrace,04345,44.2294810,-69.7884229
17,West Hill Terrace,04345,44.2293690,-69.7876889
25,West Hill Terrace,04345,44.2298566,-69.7874888
150,West Hill Road,04345,44.2251045,-69.7905117
174,West Hill Road,04345,44.2239471,-69.7905838
40,Ash Street,04345,44.2232530,-69.7900675
34,Ash Street,04345,44.2231461,-69.7892523
28,Ash Street,04345,44.2230673,-69.7889257
21,Ash Street,04345,44.2233819,-69.7883415
259,Harrison Avenue,04345,44.2221715,-69.7876179
279,Harrison Avenue,04345,44.2218195,-69.7883957
285,Harrison Avenue,04345,44.2214455,-69.7891043
3,Cobbossee Avenue,04345,44.2206085,-69.7910086
15,Cobbossee Avenue,04345,44.2207640,-69.7919622
67,Cobbossee Avenue,04345,44.2203189,-69.7951173
73,Cobbossee Avenue,04345,44.2199532,-69.7952751
69,Cobbossee Avenue,04345,44.2213824,-69.7968906
87,Cobbossee Avenue,04345,44.2197020,-69.7957976
229,Harrison Avenue,04345,44.2256155,-69.7862616
218,Harrison Avenue,04345,44.2262190,-69.7855685
207,Harrison Avenue,04345,44.2270369,-69.7857734
134,Harrison Avenue,04345,44.2272429,-69.7846180
130,Harrison Avenue,04345,44.2268257,-69.7844059
113,Harrison Avenue,04345,44.2279604,-69.7843708
109,Harrison Avenue,04345,44.2282515,-69.7839240
105,Harrison Avenue,04345,44.2283334,-69.7838061
120,Harrison Avenue,04345,44.2277566,-69.7838923
87,Harrison Avenue,04345,44.2290661,-69.7833025
11,Townsend Place,04345,44.2294224,-69.7818798
19,Cedar Street,04345,44.2300631,-69.7816691
22,Cedar Street,04345,44.2303447,-69.7813035
34,Cedar Street,04345,44.2298537,-69.7800386
57,Harrison Avenue,04345,44.2303886,-69.7827816
48,Harrison Avenue,04345,44.2306909,-69.7820218
55,Harrison Avenue,04345,44.2306458,-69.7826848
58,Fountain Street,04345,44.2311442,-69.7835304
64,Fountain Street,04345,44.2311543,-69.7840314
11,Willow Street,04345,44.2319953,-69.7848064
20,Pope Street,04345,44.2314398,-69.7857256
30,Pope Street,04345,44.2310022,-69.7858575
33,Pope Street,04345,44.2308680,-69.7863879
39,Pope Street,04345,44.2304662,-69.7865515
69,Pope Street,04345,44.2292215,-69.7868856
4,Hillcrest Street,04345,44.2331978,-69.7847096
2,Hillcrest Street,04345,44.2330626,-69.7847454
16,Hillcrest Street,04345,44.2343930,-69.7843874
12,Hillcrest Street,04345,44.2339194,-69.7845189
15,Hillcrest Street,04345,44.2339682,-69.7839748
22,Hillcrest Street,04345,44.2349296,-69.7842505
30,Hillcrest Street,04345,44.2353758,-69.7841688
78,Northern Avenue,04345,44.2369874,-69.7789056
54,Spring Street,04345,44.2333269,-69.7757018
58,Winter Street,04345,44.2307923,-69.7797067
72,Winter Street,04345,44.2314599,-69.7801662
71,Winter Street,04345,44.2317098,-69.7798252
33,Winter Street,04345,44.2303813,-69.7779232
76,Winter Street,04345,44.2314353,-69.7804602
88,Winter Street,04345,44.2319331,-69.7807422
43,Harrison Avenue,04345,44.2309927,-69.7826456
73,Harrison Avenue,04345,44.2297702,-69.7830301
75,Harrison Avenue,04345,44.2296165,-69.7831157
25,Winter Street,04345,44.2303398,-69.7774093
12,Robinson Street,04345,44.2290953,-69.7763849
18,Robinson Street,04345,44.2288490,-69.7761939
430,Water Street,04345,44.2288101,-69.7772827
436,Water Street,04345,44.2285155,-69.7775731
46,Neal Street,04345,44.2278703,-69.7771263
56,Neal Street,04345,44.2275980,-69.7774546
4,Beech Street,04345,44.2274165,-69.7776713
10,Beech Street,04345,44.2272687,-69.7775567
21,Beech Street,04345,44.2267457,-69.7776687
3,Beech Street,04345,44.2272473,-69.7780572
22,Chestnut Street,04345,44.2266272,-69.7785561
8,Chestnut Street,04345,44.2271157,-69.7788756
5,Chestnut Street,04345,44.2268540,-69.7796108
23,Chestnut Street,04345,44.2264265,-69.7789353
51,Washington Avenue,04345,44.2256852,-69.7787190
478,Water Street,04345,44.2268104,-69.7807309
6,Elm Street,04345,44.2267645,-69.7801981
18,Elm Street,04345,44.2263166,-69.7798667
17,Elm Street,04345,44.2261384,-69.7802525
21,Elm Street,04345,44.2259636,-69.7801437
25,Elm Street,04345,44.2258250,-69.7799979
29,Elm Street,04345,44.2256684,-69.7798581
77,Washington Avenue,04345,44.2251585,-69.7800454
4,Maple Street,04345,44.2262802,-69.7812434
6,Maple Street,04345,44.2261546,-69.7811729
12,Maple Street,04345,44.2259353,-69.7809947
16,Maple Street,04345,44.2258011,-69.7808678
22,Maple Street,04345,44.2256767,-69.7806282
494,Maple Street,04345,44.2261112,-69.7815980
17,Maple Street,04345,44.2255645,-69.7812402
21,Maple Street,04345,44.2253898,-69.7811065
25,Maple Street,04345,44.2252056,-69.7810602
35,Maple Street,04345,44.2248752,-69.7806615
8,Oak Street,04345,44.2250670,-69.7822353
10,Oak Street,04345,44.2249728,-69.7821840
18,Oak Street,04345,44.2246236,-69.7819101
99,Washington Avenue,04345,44.2246234,-69.7812779
3,Oak Street,04345,44.2250280,-69.7826730
5,Oak Street,04345,44.2246952,-69.7826247
13,Oak Street,04345,44.2246830,-69.7824305
15,Oak Street,04345,44.2245938,-69.7823167
516,Water Street,04345,44.2248559,-69.7828209
520,Water Street,04345,44.2245848,-69.7829613
524,Water Street,04345,44.2243582,-69.7831837
530,Water Street,04345,44.2240189,-69.7834296
548,Water Street,04345,44.2229516,-69.7841604
121,Central Street,04345,44.2214188,-69.7844843
109,Central Street,04345,44.2217665,-69.7836751
19,Spruce Street,04345,44.2226750,-69.7837874
21,Spruce Street,04345,44.2224553,-69.7836592
24,Spruce Street,04345,44.2224919,-69.7829273
18,Spruce Street,04345,44.2226742,-69.7832553
12,Spruce Street,04345,44.2229113,-69.7834650
10,Spruce Street,04345,44.2230639,-69.7835296
85,Central Street,04345,44.2222251,-69.7824418
132,Washington Avenue,04345,44.2236864,-69.7826865
120,Washington Avenue,04345,44.2239117,-69.7819946
12,Pine Street,04345,44.2233778,-69.7824007
16,Pine Street,04345,44.2230510,-69.7821335
65,Central Street,04345,44.2227330,-69.7812404
63,Central Street,04345,44.2228059,-69.7811036
35,Oak Street,04345,44.2238008,-69.7817553
37,Oak Street,04345,44.2237157,-69.7816978
41,Oak Street,04345,44.2235319,-69.7815827
45,Oak Street,04345,44.2233706,-69.7814741
36,Oak Street,04345,44.2239607,-69.7814194
38,Oak Street,04345,44.2238810,-69.7812242
46,Oak Street,04345,44.2235362,-69.7809630
102,Washington Avenue,04345,44.2243503,-69.7810614
41,Maple Street,04345,44.2245336,-69.7805818
49,Maple Street,04345,44.2242383,-69.7803150
53,Maple Street,04345,44.2241361,-69.7801196
49,Central Street,04345,44.2231496,-69.7802130
43,Central Street,04345,44.2232367,-69.7799888
35,Central Street,04345,44.2233927,-69.7795589
63,Maple Street,04345,44.2237240,-69.7798199
42,Maple Street,04345,44.2247667,-69.7800653
47,Elm Street,04345,44.2250050,-69.7794487
53,Elm Street,04345,44.2247636,-69.7792014
57,Elm Street,04345,44.2245750,-69.7791363
63,Elm Street,04345,44.2243962,-69.7789524
73,Elm Street,04345,44.2240283,-69.7787660
79,Elm Street,04345,44.2237509,-69.7785182
9,Central Street,04345,44.2240340,-69.7779398
65,Chestnut Street,04345,44.2245950,-69.7775277
56,Washington Avenue,04345,44.2253028,-69.7786826
49,Chestnut Street,04345,44.2253470,-69.7781511
70,Elm Street,04345,44.2244044,-69.7784079
40,Washington Avenue,04345,44.2256644,-69.7778047
50,Chestnut Street,04345,44.2254810,-69.7776333
54,Chestnut Street,04345,44.2252881,-69.7775368
60,Chestnut Street,04345,44.2250637,-69.7774400
34,Washington Avenue,04345,44.2257882,-69.7774746
26,Washington Avenue,04345,44.2259485,-69.7770698
113,Brunswick Avenue,04345,44.2257444,-69.7766351
19,Fillmore Place,04345,44.2275714,-69.7767343
25,Fillmore Place,04345,44.2275111,-69.7769964
46,Brunswick Avenue,04345,44.2283915,-69.7746290
50,Brunswick Avenue,04345,44.2280979,-69.7747754
71,Church Street,04345,44.2281044,-69.7744687
67,Church Street,04345,44.2281643,-69.7742754
1,Pleasant Street,04345,44.2279272,-69.7740470
38,Church Street,04345,44.2286249,-69.7727351
42,Church Street,04345,44.2285654,-69.7728784
56,Church Street,04345,44.2281968,-69.7734558
8,Pleasant Street,04345,44.2278457,-69.7734637
14,Pleasant Street,04345,44.2276622,-69.7733048
18,Pleasant Street,04345,44.2275011,-69.7731649
20,Pleasant Street,04345,44.2273310,-69.7730187
26,Pleasant Street,04345,44.2271698,-69.7728914
38,Pleasant Street,04345,44.2267265,-69.7725413
76,School Street,04345,44.2266577,-69.7733980
28,Dresden Avenue,04345,44.2265294,-69.7737344
15,Pleasant Street,04345,44.2275694,-69.7737167
39,Pleasant Street,04345,44.2264369,-69.7727629
52,Pleasant Street,04345,44.2261591,-69.7719141
44,Pleasant Street,04345,44.2263730,-69.7722362
23,Dennis Street,04345,44.2263796,-69.7712471
18,Dennis Street,04345,44.2268414,-69.7708588
22,Dennis Street,04345,44.2266389,-69.7708436
18,Vine Street,04345,44.2274086,-69.7701963
2,Vine Street,04345,44.2274489,-69.7695583
39,Water Street,04345,44.2270290,-69.7684009
28,Water Street,04345,44.2266012,-69.7684266
46,Water Street,04345,44.2269674,-69.7688634
56,Water Street,04345,44.2272354,-69.7691736
62,Water Street,04345,44.2273513,-69.7693441
1,Kingsbury Street,04345,44.2261320,-69.7679072
25,Kingsbury Street,04345,44.2257980,-69.7687104
9,Prospect Street,04345,44.2262938,-69.7699564
8,Prospect Street,04345,44.2265356,-69.7701411
12,Prospect Street,04345,44.2267535,-69.7698810
14,Prospect Street,04345,44.2268627,-69.7697071
31,Dennis Street,04345,44.2258326,-69.7709207
27,Dennis Street,04345,44.2261564,-69.7709688
70,Pleasant Street,04345,44.2254555,-69.7714354
71,Pleasant Street,04345,44.2251584,-69.7721139
92,School Street,04345,44.2262831,-69.7742007
96,School Street,04345,44.2262589,-69.7744571
100,School Street,04345,44.2261763,-69.7746813
40,Lincoln Avenue,04345,44.2249465,-69.7741581
52,Lincoln Avenue,04345,44.2244449,-69.7737697
56,Lincoln Avenue,04345,44.2243014,-69.7736927
10,Danforth Street,04345,44.2236287,-69.7726510
67,Lincoln Avenue,04345,44.2235355,-69.7737891
157,Dresden Avenue,04345,44.2211880,-69.7701152
171,Dresden Avenue,04345,44.2203954,-69.7694852
176,Dresden Avenue,04345,44.2206052,-69.7690810
179,Dresden Avenue,04345,44.2201439,-69.7694005
180,Dresden Avenue,04345,44.2204174,-69.7688908
17,Cottage Street,04345,44.2208482,-69.7657540
9,River Avenue,04345,44.2257491,-69.7672762
131,River Avenue,04345,44.2199121,-69.7637013
145,River Avenue,04345,44.2192449,-69.7638366
277,Lincoln Avenue,04345,44.2152441,-69.7717089
263,Lincoln Avenue,04345,44.2157730,-69.7713841
239,Lincoln Avenue,04345,44.2167133,-69.7708017
145,Lincoln Avenue,04345,44.2192578,-69.7706346
56,Deane Street,04345,44.2189131,-69.7736722
17,Lincoln Avenue,04345,44.2255690,-69.7752869
27,Lincoln Avenue,04345,44.2252426,-69.7749696
124,School Street,04345,44.2257353,-69.7759965
5,Liberty Street,04345,44.2251910,-69.7752757
9,Liberty Street,04345,44.2249874,-69.7754232
1,Lincoln Avenue,04345,44.2261872,-69.7757332
12,Liberty Street,04345,44.2247146,-69.7751567
13,Freemont Street,04345,44.2242207,-69.7749687
30,Liberty Street,04345,44.2240316,-69.7756423
170,Brunswick Avenue,04345,44.2232382,-69.7777853
16,Heselton Street,04345,44.2225834,-69.7774386
20,Heselton Street,04345,44.2225216,-69.7772563
19,Heselton Street,04345,44.2222387,-69.7771462
26,Central Street,04345,44.2232809,-69.7787937
187,Brunswick Avenue,04345,44.2226964,-69.7786921
40,Central Street,04345,44.2229609,-69.7795031
58,Central Street,04345,44.2226175,-69.7803499
64,Central Street,04345,44.2224703,-69.7808175
30,High Holborn Street,04345,44.2214295,-69.7802967
74,Central Street,04345,44.2222186,-69.7814151
78,Central Street,04345,44.2220227,-69.7817568
41,High Holborn Street,04345,44.2215136,-69.7811616
50,High Holborn Street,04345,44.2209809,-69.7813799
62,High Holborn Street,04345,44.2207018,-69.7820398
100,Central Street,04345,44.2215689,-69.7829401
85,High Holborn Street,04345,44.2205380,-69.7836025
118,Central Street,04345,44.2211698,-69.7840366
90,High Holborn Street,04345,44.2200067,-69.7836268
98,High Holborn Street,04345,44.2199001,-69.7840760
612,Water Street,04345,44.2197266,-69.7883490
20,Cherry Street,04345,44.2189622,-69.7882324
2,West Street,04345,44.2195871,-69.7889919
7,Cherry Street,04345,44.2193224,-69.7888632
15,Cherry Street,04345,44.2189548,-69.7886454
153,High Holborn Street,04345,44.2189717,-69.7875064
171,High Holborn Street,04345,44.2184580,-69.7888767
6,West Street,04345,44.2194816,-69.7892847
8,West Street,04345,44.2194356,-69.7894218
10,West Street,04345,44.2193256,-69.7897020
14,West Street,04345,44.2192112,-69.7899696
26,West Street,04345,44.2187722,-69.7903143
177,High Holborn Street,04345,44.2183660,-69.7891634
30,West Street,04345,44.2186049,-69.7904184
34,West Street,04345,44.2182720,-69.7903952
38,West Street,04345,44.2180328,-69.7904796
40,West Street,04345,44.2178661,-69.7905024
29,West Street,04345,44.2186108,-69.7908755
7,Sunset Circle,04345,44.2178900,-69.7883433
140,High Holborn Street,04345,44.2188685,-69.7867915
174,High Holborn Street,04345,44.2181672,-69.7886161
17,Fairview Street,04345,44.2185189,-69.7826493
11,Fairview Street,04345,44.2182152,-69.7822948
16,Fairview Street,04345,44.2181278,-69.7832200
10,Fairview Street,04345,44.2177613,-69.7828333
6,Fairview Street,04345,44.2174073,-69.7826096
11,Pierce Street,04345,44.2167804,-69.7801476
19,Pierce Street,04345,44.2166039,-69.7796195
5,Gary Street,04345,44.2169656,-69.7787355
11,Gary Street,04345,44.2174838,-69.7779975
8,Gary Street,04345,44.2181889,-69.7788893
6,Gary Street,04345,44.2174465,-69.7788482
28,Pierce Street,04345,44.2166149,-69.7786683
64,Pierce Street,04345,44.2164703,-69.7754429
10,Brunswick Terrace,04345,44.2189286,-69.7780290
7,Brunswick Terrace,04345,44.2188795,-69.7786230
2,Brunswick Terrace,04345,44.2197839,-69.7793423
242,Brunswick Avenue,04345,44.2200488,-69.7787824
13,Williams Lane,04345,44.2146589,-69.7849266
43,Old Brunswick Road,04345,44.2131976,-69.7853265
63,Old Brunswick Road,04345,44.2119976,-69.7863683
74,Old Brunswick Road,04345,44.2110447,-69.7861616
82,Old Brunswick Road,04345,44.2107274,-69.7864703
86,Old Brunswick Road,04345,44.2104189,-69.7868229
411,Brunswick Avenue,04345,44.2108778,-69.7855460
405,Brunswick Avenue,04345,44.2112209,-69.7854066
135,West Street,04345,44.2114672,-69.7888584
124,West Street,04345,44.2124903,-69.7880334
126,West Street,04345,44.2129161,-69.7869876
123,West Street,04345,44.2123300,-69.7884318
115,West Street,04345,44.2129356,-69.7887278
117,West Street,04345,44.2127187,-69.7888501
14,Partridge Drive,04345,44.2118736,-69.7893270
26,Partridge Drive,04345,44.2115682,-69.7905308
32,Partridge Drive,04345,44.2113673,-69.7909350
27,Partridge Drive,04345,44.2119874,-69.7910997
39,Partridge Drive,04345,44.2117765,-69.7923049
38,Partridge Drive,04345,44.2112695,-69.7914031
105,West Street,04345,44.2135406,-69.7891302
96,West Street,04345,44.2142681,-69.7887268
6,Karen Drive,04345,44.2179623,-69.7941592
22,Karen Drive,04345,44.2169372,-69.7939764
5,Karen Drive,04345,44.2178096,-69.7934561
11,Marston Road,04345,44.2089602,-69.7855456
149,West Street,04345,44.2105526,-69.7876696
92,Old Brunswick Road,04345,44.2101287,-69.7871195
140,Old Brunswick Road,04345,44.2072177,-69.7895151
145,Old Brunswick Road,04345,44.2073020,-69.7903424
146,Old Brunswick Road,04345,44.2070890,-69.7898952
485,Brunswick Avenue,04345,44.2066209,-69.7898889
8,Browns Lane,04345,44.2058197,-69.7892211
158,Old Brunswick Road,04345,44.2066328,-69.7907652
103,Rideout Lane,04345,44.2107550,-69.7980741
164,Old Brunswick Road,04345,44.2063184,-69.7913243
522,Brunswick Avenue,04345,44.2043028,-69.7911533
233,Old Brunswick Road,04345,44.2025702,-69.7949724
242,Old Brunswick Road,04345,44.2018422,-69.7947999
273,Old Brunswick Road,04345,44.2005999,-69.7973551
291,Old Brunswick Road,04345,44.1999906,-69.7988737
122,Pushard Lane,04345,44.2076210,-69.8046092
130,Pushard Lane,04345,44.2081335,-69.8047101
305,Old Brunswick Road,04345,44.1991989,-69.7994324
317,Old Brunswick Road,04345,44.1989127,-69.8004547
312,Old Brunswick Road,04345,44.1986665,-69.7996129
324,Old Brunswick Road,04345,44.1982241,-69.8004266
323,Old Brunswick Road,04345,44.1987431,-69.8008904
332,Old Brunswick Road,04345,44.1980384,-69.8012313
674,Brunswick Avenue,04345,44.1975153,-69.8026446
697,Brunswick Avenue,04345,44.1970487,-69.8049847
27,Stonewall Lane,04345,44.1963193,-69.8094673
22,Stonewall Lane,04345,44.1957105,-69.8089772
18,Slamins Way,04345,44.1931019,-69.8080093
772,Brunswick Avenue,04345,44.1931320,-69.8094800
59,Marks Lane,04345,44.1961394,-69.8138761
66,Marks Lane,04345,44.1958395,-69.8148919
67,Marks Lane,04345,44.1963920,-69.8144365
13,Carey Lane,04345,44.1970762,-69.8144459
6,Carey Lane,04345,44.1973072,-69.8155065
26,Carey Lane,04345,44.1981254,-69.8143915
34,Carey Lane,04345,44.1985797,-69.8138096
12,Rolfe Circle,04345,44.1928031,-69.8120595
4,Rolfe Circle,04345,44.1925947,-69.8116187
812,Brunswick Avenue,04345,44.1909747,-69.8121721
815,Brunswick Avenue,04345,44.1912658,-69.8130145
62,Rustic Lane,04345,44.1921286,-69.8182756
47,Rustic Lane,04345,44.1924373,-69.8166469
71,Rustic Lane,04345,44.1933544,-69.8187118
2,Streamside Lane,04345,44.1936341,-69.8192538
10,Streamside Lane,04345,44.1928716,-69.8201191
11,Ledgewood Lane,04345,44.1920963,-69.8127005
819,Brunswick Avenue,04345,44.1909679,-69.8131292
53,Ledgewood Lane,04345,44.1942190,-69.8155203
68,Ledgewood Lane,04345,44.1946632,-69.8169780
80,Ledgewood Lane,04345,44.1960353,-69.8183672
92,Ledgewood Lane,04345,44.1961999,-69.8180129
90,Ledgewood Lane,04345,44.1960810,-69.8176358
93,Ledgewood Lane,04345,44.1965367,-69.8174919
60,Timberwood Drive,04345,44.1909611,-69.8209998
868,Brunswick Avenue,04345,44.1884229,-69.8158783
14,Stanley Lane,04345,44.1878501,-69.8153949
7,Stanley Lane,04345,44.1879618,-69.8161534
36,Nazarene Way,04345,44.1892113,-69.8195553
20,Nazarene Way,04345,44.1887403,-69.8187042
44,Blueberry Hill Lane,04345,44.1852369,-69.8157217
917,Brunswick Avenue,04345,44.1864712,-69.8199928
918,Brunswick Avenue,04345,44.1860658,-69.8194054
925,Brunswick Avenue,04345,44.1861248,-69.8205886
930,Brunswick Avenue,04345,44.1855037,-69.8205737
941,Brunswick Avenue,04345,44.1854504,-69.8217241
947,Brunswick Avenue,04345,44.1851991,-69.8222524
963,Brunswick Avenue,04345,44.1844379,-69.8235555
16,Libby Hill Road,04345,44.1819891,-69.8254106
26,Libby Hill Road,04345,44.1812977,-69.8251570
34,Libby Hill Road,04345,44.1805571,-69.8248589
66,Libby Hill Road,04345,44.1788145,-69.8236836
71,Libby Hill Road,04345,44.1781314,-69.8241433
13,North Street,04345,44.1779857,-69.8249982
6,North Street,04345,44.1772828,-69.8238374
84,Libby Hill Road,04345,44.1777131,-69.8228551
92,Libby Hill Road,04345,44.1794608,-69.8214139
11,South Street,04345,44.1757937,-69.8230849
8,South Street,04345,44.1752841,-69.8219644
116,Libby Hill Road,04345,44.1758960,-69.8213787
11,Doyle Drive,04345,44.1762444,-69.8198824
126,Libby Hill Road,04345,44.1753658,-69.8206208
146,Libby Hill Road,04345,44.1743247,-69.8195430
150,Libby Hill Road,04345,44.1739376,-69.8195314
19,Weeks Road,04345,44.1722195,-69.8199517
27,Weeks Road,04345,44.1715131,-69.8198981
20,Weeks Road,04345,44.1720606,-69.8188800
179,Libby Hill Road,04345,44.1718845,-69.8183271
24,Weeks Road,04345,44.1714588,-69.8186840
34,Weeks Road,04345,44.1709375,-69.8191897
191,Libby Hill Road,04345,44.1713690,-69.8173881
51,Weeks Road,04345,44.1700483,-69.8207722
218,Libby Hill Road,04345,44.1702158,-69.8149768
222,Libby Hill Road,04345,44.1696661,-69.8144188
262,Libby Hill Road,04345,44.1684679,-69.8132703
270,Libby Hill Road,04345,44.1674197,-69.8125430
274,Libby Hill Road,04345,44.1674162,-69.8117674
11,Booker Road,04345,44.1670257,-69.8141323
282,Libby Hill Road,04345,44.1667448,-69.8118645
277,Libby Hill Road,04345,44.1667699,-69.8127654
281,Libby Hill Road,04345,44.1663985,-69.8124414
295,Libby Hill Road,04345,44.1656186,-69.8119679
22,Booker Road,04345,44.1664094,-69.8134422
26,Booker Road,04345,44.1659988,-69.8135741
33,Booker Road,04345,44.1657530,-69.8145839
734,Marston Road,04345,44.1661886,-69.8071352
717,Marston Road,04345,44.1671805,-69.8075490
718,Marston Road,04345,44.1668431,-69.8068815
708,Marston Road,04345,44.1674954,-69.8056583
700,Marston Road,04345,44.1681690,-69.8058926
697,Marston Road,04345,44.1684034,-69.8064962
687,Marston Road,04345,44.1691042,-69.8060555
681,Marston Road,04345,44.1694645,-69.8060354
657,Marston Road,04345,44.1712511,-69.8061160
612,Marston Road,04345,44.1739825,-69.8030634
576,Marston Road,04345,44.1755087,-69.8011263
438,Marston Road,04345,44.1838608,-69.7950900
433,Marston Road,04345,44.1844732,-69.7963619
423,Marston Road,04345,44.1850779,-69.7954942
424,Marston Road,04345,44.1849561,-69.7948795
41,Puringtons Lane,04345,44.1888732,-69.7941314
403,Marston Road,04345,44.1861440,-69.7943074
394,Marston Road,04345,44.1861401,-69.7929310
367,Capen Road,04345,44.1884946,-69.7909669
350,Marston Road,04345,44.1888385,-69.7907087
340,Marston Road,04345,44.1894189,-69.7901033
328,Marston Road,04345,44.1902940,-69.7898335
320,Marston Road,04345,44.1906984,-69.7892883
323,Marston Road,04345,44.1909262,-69.7901986
33,Carlson Lane,04345,44.1912035,-69.7924046
32,Carlson Lane,04345,44.1898062,-69.7933180
42,Carlson Lane,04345,44.1902148,-69.7941243
307,Marston Road,04345,44.1915624,-69.7893436
295,Marston Road,04345,44.1922304,-69.7884266
296,Marston Road,04345,44.1919981,-69.7875163
272,Marston Road,04345,44.1930420,-69.7862788
246,Marston Road,04345,44.1941987,-69.7843483
237,Marston Road,04345,44.1949017,-69.7842325
171,Marston Road,04345,44.1986062,-69.7816473
165,Marston Road,04345,44.1989209,-69.7817078
8,Ledgeside Drive,04345,44.2045638,-69.7839852
18,Ledgeside Drive,04345,44.2046869,-69.7850695
28,Ledgeside Drive,04345,44.2051693,-69.7856203
22,Dazzle Lane,04345,44.2061446,-69.7851890
43,Marston Road,04345,44.2071464,-69.7841822
5,Model A Drive,04345,44.2007717,-69.8113180
72,Moonlight Drive,04345,44.1997812,-69.8132442
18,Duck Cove Lane,04345,44.1758329,-69.8393545
1188,Brunswick Avenue,04345,44.1746630,-69.8380619
28,Moss Drive,04345,44.1721213,-69.8378195
49,Hickey Point,04345,44.1742079,-69.8442351
11,Shady Nook Lane,04345,44.1713496,-69.8460206
1261,Brunswick Avenue,04345,44.1704927,-69.8438069
1267,Brunswick Avenue,04345,44.1700903,-69.8446517
27,Shepherd Lane,04345,44.1701793,-69.8466106
1314,Brunswick Avenue,04345,44.1666806,-69.8449220
1299,Brunswick Avenue,04345,44.1682779,-69.8462457
18,Camp Ruth Trail,04345,44.1687991,-69.8475852
5,Arthurs Way,04345,44.1686625,-69.8484088
26,Spring Cove Lane,04345,44.1683303,-69.8488919
30,Spring Cove Lane,04345,44.1680030,-69.8481054
22,Spring Cove Lane,04345,44.1674642,-69.8491296
20,Spring Cove Lane,04345,44.1671915,-69.8488693
9,Barnett Way,04345,44.1659010,-69.8228347
23,Barnett Way,04345,44.1661548,-69.8213436
53,Barnett Way,04345,44.1681888,-69.8201960
107,Weeks Road,04345,44.1668561,-69.8239737
96,Weeks Road,04345,44.1672585,-69.8224846
88,Weeks Road,04345,44.1678027,-69.8219293
73,Weeks Road,04345,44.1690781,-69.8223473
65,Weeks Road,04345,44.1695818,-69.8217914
15,Daniel Drive,04345,44.1638509,-69.8015689
23,Daniel Drive,04345,44.1643686,-69.8015634
35,Daniel Drive,04345,44.1654830,-69.8012032
30,Daniel Drive,04345,44.1651207,-69.8027993
42,Daniel Drive,04345,44.1657238,-69.8028200
15,High Pine Lane,04345,44.1612090,-69.8008452
299,Costello Road,04345,44.1647054,-69.7978282
281,Costello Road,04345,44.1645518,-69.7953184
265,Costello Road,04345,44.1651610,-69.7944635
14,Yorks Lane,04345,44.1655367,-69.7941622
239,Costello Road,04345,44.1661640,-69.7919942
225,Costello Road,04345,44.1662405,-69.7907007
214,Costello Road,04345,44.1662162,-69.7896560
14,Harley Road,04345,44.1663656,-69.7862746
163,Costello Road,04345,44.1677695,-69.7850424
93,Costello Road,04345,44.1678051,-69.7798520
85,Costello Road,04345,44.1676580,-69.7789745
75,Costello Road,04345,44.1675898,-69.7777541
57,Costello Road,04345,44.1673479,-69.7749303
33,Costello Road,04345,44.1673049,-69.7726346
30,Costello Road,04345,44.1668537,-69.7727975
28,Costello Road,04345,44.1668610,-69.7723786
987,River Avenue,04345,44.1669183,-69.7698903
990,River Avenue,04345,44.1666797,-69.7692242
978,River Avenue,04345,44.1668687,-69.7685638
944,River Avenue,04345,44.1676492,-69.7669729
915,River Avenue,04345,44.1700734,-69.7646026
37,Sherburne Avenue,04345,44.1744748,-69.7634398
1,Lawrence Street,04345,44.1738176,-69.7614111
2,Lawrence Street,04345,44.1736668,-69.7610714
5,Lawrence Street,04345,44.1734484,-69.7614126
11,Lawrence Street,04345,44.1731868,-69.7614905
15,Lawrence Street,04345,44.1729341,-69.7615936
831,River Avenue,04345,44.1737228,-69.7601026
60,Moody Lane,04345,44.1733980,-69.7682670
801,River Avenue,04345,44.1764124,-69.7591051
5,Bartlett Street,04345,44.1785751,-69.7574565
36,Bartlett Street,04345,44.1788167,-69.7603808
65,Bartlett Street,04345,44.1802812,-69.7628579
14,Johnson Street,04345,44.1803186,-69.7579229
20,Johnson Street,04345,44.1800274,-69.7583883
28,Johnson Street,04345,44.1802860,-69.7594426
31,Johnson Street,04345,44.1807859,-69.7594115
36,Johnson Street,04345,44.1803954,-69.7599194
35,Johnson Street,04345,44.1807204,-69.7597859
728,River Avenue,04345,44.1810749,-69.7565564
726,River Avenue,04345,44.1812641,-69.7565401
724,River Avenue,04345,44.1813595,-69.7564099
731,River Avenue,04345,44.1813691,-69.7570043
735,River Avenue,04345,44.1811215,-69.7570011
708,River Avenue,04345,44.1824792,-69.7565869
2,Mullins Drive,04345,44.1838384,-69.7586687
11,Sawyer Street,04345,44.1840966,-69.7577399
1,Mill Street,04345,44.1839541,-69.7561491
28,Mill Street,04345,44.1830653,-69.7550868
25,Mill Street,04345,44.1851478,-69.7553636
26,Sawyer Street,04345,44.1840004,-69.7593464
23,Cannard Street,04345,44.1854252,-69.7590081
5,Hillside Circle,04345,44.1841254,-69.7615375
43,Sawyer Street,04345,44.1846216,-69.7607056
42,Cannard Street,04345,44.1854904,-69.7607043
48,Cannard Street,04345,44.1854288,-69.7611727
52,Cannard Street,04345,44.1857134,-69.7617018
47,Cannard Street,04345,44.1858129,-69.7609461
26,Gary's Drive,04345,44.1870896,-69.7612128
68,Cannard Street,04345,44.1859602,-69.7631627
10,Union Street,04345,44.1857602,-69.7580490
15,Union Street,04345,44.1857177,-69.7583487
631,River Avenue,04345,44.1877048,-69.7573794
597,River Avenue,04345,44.1900639,-69.7580228
9,Capen Road,04345,44.1897708,-69.7580878
33,Capen Road,04345,44.1894046,-69.7603667
72,Capen Road,04345,44.1884884,-69.7640899
80,Capen Road,04345,44.1881023,-69.7646167
89,Capen Road,04345,44.1894842,-69.7659609
113,Capen Road,04345,44.1888581,-69.7680362
127,Capen Road,04345,44.1886168,-69.7691029
156,Capen Road,04345,44.1877620,-69.7717068
45,Ferndale Road,04345,44.1864052,-69.7726338
175,Capen Road,04345,44.1887090,-69.7741216
211,Capen Road,04345,44.1876725,-69.7769421
223,Capen Road,04345,44.1870165,-69.7780783
248,Capen Road,04345,44.1859251,-69.7803599
280,Capen Road,04345,44.1861518,-69.7834033
288,Capen Road,04345,44.1857486,-69.7844365
287,Capen Road,04345,44.1868771,-69.7839885
296,Capen Road,04345,44.1864196,-69.7850584
57,Hundred Acre Wood Road,04345,44.1831786,-69.7882997
6,Costello Road,04345,44.1665731,-69.7703548
1001,River Avenue,04345,44.1661162,-69.7706866
1002,River Avenue,04345,44.1653795,-69.7670998
17,Gowell Drive,04345,44.1627283,-69.7697482
1052,River Avenue,04345,44.1625171,-69.7710149
1056,Gowell Drive,04345,44.1622015,-69.7697664
1063,River Avenue,04345,44.1619094,-69.7716886
1068,River Avenue,04345,44.1609297,-69.7707691
1075,River Avenue,04345,44.1608980,-69.7714691
1080,River Avenue,04345,44.1607312,-69.7708416
1084,River Avenue,04345,44.1602279,-69.7707037
1121,River Avenue,04345,44.1575285,-69.7704685
51,MacMasters Lane,04345,44.1579008,-69.7726681
1139,River Avenue,04345,44.1569015,-69.7693286
139,Riverside Road,04345,44.1597147,-69.7680394
859,River Avenue,04345,44.1729208,-69.7629007
271,Capen Road,04345,44.1866450,-69.7823838
41,Timberwood Drive,04345,44.1910388,-69.8183294
5,Central Maine Crossing,04345,44.1834870,-69.8259762
7,High Holborn Street,04345,44.2226539,-69.7796368
23,High Holborn Street,04345,44.2219629,-69.7799657
40,Puringtons Lane,04345,44.1891909,-69.7957060
12,Irvings Way,04345,44.1697776,-69.8326766
25,Old Brunswick Road,04345,44.2142722,-69.7842016
207,Marston Road,04345,44.1964358,-69.7830578
231,Libby Hill Road,04345,44.1691127,-69.8150116
22,Timberwood Drive,04345,44.1900313,-69.8175772
29,Daniel Drive,04345,44.1646786,-69.8016489
243,Water Street,04345,44.2296851,-69.7723859
247,Water Street,04345,44.2296891,-69.7724611
66,Costello Road,04345,44.1669551,-69.7757695
83,Blueberry Hill Lane,04345,44.1831074,-69.8138532
25,Lions Avenue,04345,44.2173124,-69.7837051
76,Northern Avenue,04333,44.2360547,-69.7777161
76,Northern Avenue,04333,44.2363717,-69.7789459
33,Water Street,04345,44.2296242,-69.7721144
40,Main Avenue,04345,44.2316200,-69.7733049
650,River Avenue,04345,44.1855406,-69.7563124
35,Bridge Street,04345,44.2309221,-69.7732357
644,River Avenue,04345,44.1870125,-69.7562012
40,Bridge Street,04345,44.2322309,-69.7739812
53,Brunswick Avenue,04345,44.2280835,-69.7754168
66,Brunswick Avenue,04345,44.2268660,-69.7750350
32,Prescott Street,04345,44.1773868,-69.8268297
40,West Hill Road,04345,44.2274654,-69.7879266
2,Dresden Avenue,04345,44.2276575,-69.7744744
14,Pray Street,04345,44.2298122,-69.7843582
148,Cobbossee Avenue,04345,44.2163130,-69.8001968
5,Central Maine Crossing,04345,44.1835336,-69.8259994
141,West Hill Road,04345,44.2255799,-69.7910706
6,Church Street,04345,44.2287394,-69.7722923
48,West Hill Road,04345,44.2275547,-69.7888248
