House number,Street name,Postal code,Latitude,Longitude
115,Water Street,04347,44.2863271,-69.7902858
156,Water Street,04347,44.2854735,-69.7900425
109,Water Street,04347,44.2864622,-69.7902751
11,Inn Road,04347,44.2878262,-69.8371888
132,Water Street,04347,44.2860428,-69.7899362
68,2nd Street,04347,44.2896635,-69.7895063
126,Water Street,04347,44.2862620,-69.7899277
138,Second Street,04347,44.2837042,-69.7920240
128,Winthrop Street,04347,44.2980690,-69.8099239
136,Water Street,04347,44.2860773,-69.7899503
19,Hackmatack Lane,04347,44.3129504,-69.8269683
436,Central Street,04347,44.2944585,-69.8380466
424,Winthrop Street,04347,44.3098821,-69.8323041
414,Winthrop Street,04347,44.3094250,-69.8320281
413,Central Street,04347,44.2945755,-69.8355914
400,Winthrop Street,04347,44.3096977,-69.8298127
399,Central Street,04347,44.2952412,-69.8350493
396,Central Street,04347,44.2928817,-69.8357617
391,Central Street,04347,44.2942469,-69.8337441
377,Central Street,04347,44.2939955,-69.8324181
373,Winthrop Street,04347,44.3097124,-69.8277817
368,Central Street,04347,44.2923775,-69.8326836
365,Winthrop Street,04347,44.3090991,-69.8266885
356,Winthrop Street,04347,44.3075274,-69.8274125
351,Winthrop Street,04347,44.3081866,-69.8258858
350,Central Street,04347,44.2929737,-69.8299344
344,Water Street,04347,44.2681933,-69.7866160
343,Winthrop Street,04347,44.3078872,-69.8249601
338,Water Street,04347,44.2683539,-69.7874764
336,Water Street,04347,44.2685850,-69.7879118
335,Winthrop Street,04347,44.3082600,-69.8238306
334,Water Street,04347,44.2687722,-69.7881774
332,Water Street,04347,44.2689417,-69.7883989
331,Central Street,04347,44.2935012,-69.8279613
329,Winthrop Street,04347,44.3072609,-69.8244185
324,Water Street,04347,44.2699381,-69.7894773
323,Water Street,04347,44.2704148,-69.7902041
322,Water Street,04347,44.2702385,-69.7896567
317,Winthrop Street,04347,44.3068862,-69.8233287
303,Winthrop Street,04347,44.3064323,-69.8219683
301,Water Street,04347,44.2751193,-69.7920841
296,Water Street,04347,44.2758943,-69.7913301
285,Central Street,04347,44.2934547,-69.8231786
283,Whitten Road,04347,44.2988382,-69.8100096
283,Winthrop Street,04347,44.3060550,-69.8199759
274,Water Street,04347,44.2779404,-69.7922849
272,Water Street,04347,44.2781199,-69.7923688
270,Winthrop Street,04347,44.3043374,-69.8203218
267,Winthrop Street,04347,44.3047969,-69.8196512
249,Water Street,04347,44.2805257,-69.7927270
248,Central Street,04347,44.2914865,-69.8202056
247,Water Street,04347,44.2807064,-69.7926417
247,Winthrop Street,04347,44.3036182,-69.8182996
234,Winthrop Street,04347,44.3025832,-69.8176145
232,Water Street,04347,44.2816179,-69.7916764
225,Whitten Road,04347,44.3002901,-69.8090267
224,Winthrop Street,04347,44.3020740,-69.8170621
220,Winthrop Street,04347,44.3018741,-69.8166958
214,Water Street,04347,44.2842333,-69.7903705
208,Vaughan Road,04347,44.2855934,-69.8252872
202,Water Street,04347,44.2847204,-69.7902392
200,Water Street,04347,44.2847878,-69.7902526
199,Central Street,04347,44.2912149,-69.8160153
198,Central Street,04347,44.2908121,-69.8156776
194,Vaughan Road,04347,44.2847096,-69.8254879
181,Outlet Road,04347,44.2860019,-69.8420999
180,Vaughan Road,04347,44.2835645,-69.8251021
179,Second Street,04347,44.2792642,-69.7941762
178,Outlet Road,04347,44.2852469,-69.8413183
175,Second Street,04347,44.2798683,-69.7940465
174,Central Street,04347,44.2903860,-69.8135785
174,Second Street,04347,44.2799663,-69.7935466
174,Water Street,04347,44.2852215,-69.7900329
171,Second Street,04347,44.2803243,-69.7938584
170,Central Street,04347,44.2902263,-69.8132379
170,Outlet Road,04347,44.2852458,-69.8402342
170,Second Street,04347,44.2805896,-69.7932542
170,Vaughan Road,04347,44.2832007,-69.8243764
165,Second Street,04347,44.2811463,-69.7934684
158,Litchfield Road,04347,44.2741111,-69.8151082
154,Central Street,04347,44.2884629,-69.8118098
150,Central Street,04347,44.2899915,-69.8114423
148,Second Street,04347,44.2829368,-69.7923333
147,Outlet Road,04347,44.2861894,-69.8386309
145,Litchfield Road,04347,44.2749996,-69.8142371
145,Water Street,04347,44.2855702,-69.7903822
142,Second Street,04347,44.2834243,-69.7921393
141,Central Street,04347,44.2903175,-69.8105443
140,Litchfield Road,04347,44.2741039,-69.8135919
140,Second Street,04347,44.2836364,-69.7920544
140,Water Street,04347,44.2858431,-69.7899660
136,Outlet Road,04347,44.2858071,-69.8373659
134,Second Street,04347,44.2839031,-69.7919014
132,Second Street,04347,44.2839931,-69.7919026
130,Water Street,04347,44.2861629,-69.7899389
129,Second Street,04347,44.2843653,-69.7921144
128,Second Street,04347,44.2843409,-69.7917381
127,Second Street,04347,44.2845775,-69.7920170
124,Outlet Road,04347,44.2859538,-69.8363841
124,Water Street,04347,44.2862935,-69.7899344
123,Second Street,04347,44.2850427,-69.7917976
121,Vaughan Road,04347,44.2817903,-69.8208163
119,Litchfield Road,04347,44.2756104,-69.8119022
119,Outlet Road,04347,44.2865382,-69.8358848
119,Water Street,04347,44.2861966,-69.7902855
117,Second Street,04347,44.2857596,-69.7916255
116,Town Farm Road,04347,44.2934886,-69.8165795
114,Second Street,04347,44.2857991,-69.7911185
110,Water Street,04347,44.2866361,-69.7898638
109,Town Farm Road,04347,44.2940415,-69.8173142
104,Second Street,04347,44.2864353,-69.7909077
103,Central Street,04347,44.2890791,-69.8061655
100,Second Street,04347,44.2866068,-69.7908473
99,Vaughan Road,04347,44.2813011,-69.8187292
99,Winthrop Street,04347,44.2961862,-69.8043574
97,Outlet Road,04347,44.2865086,-69.8337725
95,Second Street,04347,44.2873669,-69.7909327
94,Second Street,04347,44.2874205,-69.7903506
93,Middle Street,04347,44.2787928,-69.7965822
93,Second Street,04347,44.2876109,-69.7908106
92,Vaughan Road,04347,44.2801688,-69.8178111
89,Central Street,04347,44.2888126,-69.8037303
89,Second Street,04347,44.2879673,-69.7906901
88,Shady Lane,04347,44.2870361,-69.8249753
87,Central Street,04347,44.2886282,-69.8030698
87,Second Street,04347,44.2881524,-69.7906111
85,Second Street,04347,44.2885696,-69.7908235
85,Winthrop Street,04347,44.2947678,-69.8018498
84,Smith Road,04347,44.2733872,-69.8105559
83,Middle Street,04347,44.2800926,-69.7960985
81,Central Street,04347,44.2881197,-69.8017656
81,Middle Street,04347,44.2805211,-69.7959790
80,Central Street,04347,44.2877715,-69.8019865
79,Winthrop Street,04347,44.2941386,-69.8010703
78,Outlet Road,04347,44.2857617,-69.8318757
77,Second Street,04347,44.2892675,-69.7901435
76,Central Street,04347,44.2875893,-69.8010064
75,Central Street,04347,44.2878416,-69.8003455
75,Second Street,04347,44.2894663,-69.7900459
74,Second Street,04347,44.2891712,-69.7897599
73,Second Street,04347,44.2896961,-69.7900114
72,Shady Lane,04347,44.2882166,-69.8254430
71,Central Street,04347,44.2876942,-69.7995351
71,Second Street,04347,44.2898453,-69.7899131
70,Blaine Road,04347,44.2623096,-69.7944491
70,Outlet Road,04347,44.2859564,-69.8310951
68,Second Street,04347,44.2896820,-69.7894534
68,Town Farm Road,04347,44.2968099,-69.8154284
67,Central Street,04347,44.2876665,-69.7989958
67,Second Street,04347,44.2901478,-69.7897855
67,Shady Lane,04347,44.2882233,-69.8263894
66,Central Street,04347,44.2871762,-69.7989327
65,Second Street,04347,44.2903010,-69.7897625
64,Central Street,04347,44.2870759,-69.7984676
64,Outlet Road,04347,44.2861169,-69.8306901
64,Second Street,04347,44.2901461,-69.7893782
63,Central Street,04347,44.2874224,-69.7978457
63,Foye Road,04347,44.3143113,-69.8304858
63,Second Street,04347,44.2904719,-69.7897962
62,Blaine Road,04347,44.2626631,-69.7941030
61,Outlet Road,04347,44.2866732,-69.8309548
61,Second Street,04347,44.2907040,-69.7900688
57,Second Street,04347,44.2910572,-69.7897789
56,Middle Street,04347,44.2831246,-69.7944538
56,Outlet Road,04347,44.2865547,-69.8299129
55,Second Street,04347,44.2913886,-69.7900215
53,Second Street,04347,44.2915663,-69.7897168
52,Blaine Road,04347,44.2635109,-69.7938827
52,Greenville Street,04347,44.2680393,-69.7926092
52,Shady Lane,04347,44.2893532,-69.8257660
52,Winthrop Street,04347,44.2903542,-69.7970080
51,Central Street,04347,44.2872876,-69.7958823
50,Winthrop Street,04347,44.2896436,-69.7962714
48,Blaine Road,04347,44.2640423,-69.7938522
48,Second Street,04347,44.2919905,-69.7889078
47,Second Street,04347,44.2922541,-69.7891996
46,Greenville Street,04347,44.2694738,-69.7921775
46,Second Street,04347,44.2922122,-69.7887415
46,Winthrop Street,04347,44.2892055,-69.7958456
45,Greenville Street,04347,44.2692132,-69.7927566
43,Central Street,04347,44.2869912,-69.7951326
43,Winthrop Street,04347,44.2892466,-69.7951066
42,Academy Street,04347,44.2856604,-69.7974771
41,Greenville Street,04347,44.2699158,-69.7926971
40,Middle Street,04347,44.2845148,-69.7939148
40,Vaughan Road,04347,44.2795105,-69.8135537
38,Central Street,04347,44.2864169,-69.7948554
38,Greenville Street,04347,44.2707195,-69.7916993
38,Second Street,04347,44.2926241,-69.7884211
37,Winthrop Street,04347,44.2886294,-69.7938825
35,Greenville Street,04347,44.2713817,-69.7922845
35,Winthrop Street,04347,44.2886126,-69.7937068
34,Blaine Road,04347,44.2648513,-69.7933933
34,Fish And Game Road,04347,44.2966579,-69.8190679
34,Greenville Street,04347,44.2710750,-69.7917228
34,Middle Street,04347,44.2853996,-69.7935508
33,Central Street,04347,44.2866640,-69.7936305
33,Smith Road,04347,44.2776794,-69.8115046
32,Academy Street,04347,44.2855653,-69.7962602
32,Blaine Road,04347,44.2649315,-69.7928619
32,Second Street,04347,44.2934687,-69.7880062
30,Mayflower Road,04347,44.2867245,-69.8055630
30,Winthrop Street,04347,44.2882467,-69.7938962
29,Academy Street,04347,44.2853047,-69.7949093
29,Winthrop Street,04347,44.2883416,-69.7931893
28,Greenville Street,04347,44.2719630,-69.7921984
28,Second Street,04347,44.2939521,-69.7877557
28,Walnut Drive,04347,44.3122899,-69.8205517
11,Wildflower Lane,04347,44.2804589,-69.8112233
26,Greenville Street,04347,44.2723143,-69.7921655
26,Walnut Drive,04347,44.3124326,-69.8207418
25,Mayflower Road,04347,44.2870561,-69.8045085
25,Page Street,04347,44.2926288,-69.7929462
25,Warren Street,04347,44.2859850,-69.7961154
25,Winthrop Street,04347,44.2882581,-69.7928999
24,Blaine Road,04347,44.2655735,-69.7931023
24,Mayflower Road,04347,44.2866145,-69.8045714
23,Academy Street,04347,44.2851597,-69.7943873
23,Foye Road,04347,44.3120351,-69.8321277
23,Mayflower Road,04347,44.2869738,-69.8040436
23,Page Street,04347,44.2924512,-69.7925866
22,Greenville Street,04347,44.2731200,-69.7928279
22,Hackmatack Lane,04347,44.3124936,-69.8272691
22,Vaughan Road,04347,44.2787452,-69.8122900
21,Greenville Street,04347,44.2730135,-69.7932588
21,Hackmatack Lane,04347,44.3128767,-69.8271992
21,Mayflower Road,04347,44.2868863,-69.8036790
21,Second Street,04347,44.2945975,-69.7894691
21,Winthrop Street,04347,44.2878268,-69.7921358
20,Greenville Street,04347,44.2735291,-69.7929086
20,Hackmatack Lane,04347,44.3125585,-69.8270067
20,Hillcrest Street,04347,44.2848709,-69.8047794
20,Mayflower Road,04347,44.2864893,-69.8038051
20,Winthrop Street,04347,44.2875415,-69.7923701
19,Hillcrest Street,04347,44.2853123,-69.8053808
19,Warren Street,04347,44.2866764,-69.7957300
18,Nye Road,04347,44.3110353,-69.8315744
18,Warren Street,04347,44.2866389,-69.7953033
17,Hackmatack Lane,04347,44.3129978,-69.8266367
17,Page Street,04347,44.2922852,-69.7918636
17,Vaughan Road,04347,44.2795933,-69.8107728
16,Outlet Road,04347,44.2864260,-69.8265584
16,Warren Street,04347,44.2874293,-69.7949192
17,Greenville Street,04347,44.2736911,-69.7935623
15,Hackmatack Lane,04347,44.3130718,-69.8263681
15,Winthrop Street,04347,44.2876225,-69.7917257
14,Hackmatack Lane,04347,44.3127398,-69.8262067
14,Winthrop Street,04347,44.2870476,-69.7908908
13,Hackmatack Lane,04347,44.3132042,-69.8261004
13,Hillcrest Street,04347,44.2860827,-69.8046581
13,Jamies Pond Road,04347,44.2863052,-69.8443038
13,Mayflower Road,04347,44.2866706,-69.8023475
13,Page Street,04347,44.2921763,-69.7913294
12,Greenville Street,04347,44.2739070,-69.7929450
12,Hackmatack Lane,04347,44.3128589,-69.8259263
12,Hillcrest Street,04347,44.2853403,-69.8039712
12,Mayflower Road,04347,44.2862039,-69.8021469
12,Perkins Lane,04347,44.2709511,-69.7952922
11,Stickney Terrace,04347,44.2956992,-69.7915961
11,Litchfield Road,04347,44.2789515,-69.7981288
11,Mayflower Road,04347,44.2866320,-69.8020775
11,Perkins Lane,04347,44.2713202,-69.7946581
11,Perry Lane,04347,44.2858018,-69.8219814
11,Wilder Street,04347,44.2918851,-69.7872267
10,Central Street,04347,44.2858864,-69.7908690
10,Chamberlain Drive,04347,44.2885305,-69.8155833
10,Densmore Court,04347,44.2909065,-69.7874831
10,Greenville Street,04347,44.2741321,-69.7929355
10,Hackmatack Lane,04347,44.3128476,-69.8256189
10,Hinkley Road,04347,44.2899676,-69.7872755
10,Litchfield Road,04347,44.2779574,-69.7969531
60,Shady Lane,04347,44.2884932,-69.8220502
3,Butternut Lane,04347,44.3133825,-69.8238584
31,Greenville Street,04347,44.2720898,-69.7927326
282,Water Street,04347,44.2773448,-69.7918321
3,Martin Drive,04347,44.2690512,-69.7914513
20,Academy Street,04347,44.2848124,-69.7938374
1,Butternut Lane,04347,44.3133170,-69.8235816
21,Wildflower Lane,04347,44.2808832,-69.8110600
10,Union Street,04347,44.2852412,-69.7910859
50,Outlet Road,04347,44.2860429,-69.8291098
108,Interstate 95 South,04330,44.3038473,-69.8082481
340,Winthrop Street,04347,44.3054063,-69.8256713
50,Overlook Drive,04347,44.2975641,-69.8023767
58,Overlook Drive,04347,44.2986237,-69.8014823
78,Overlook Drive,04347,44.2981684,-69.7996459
74,Overlook Drive,04347,44.2986377,-69.8001349
49,Middle Street,04347,44.2839239,-69.7947403
54,Middle Street,04347,44.2833007,-69.7943747
1,Bridge Street,04347,44.2788019,-69.7939820
38,Summer Street,04347,44.2788690,-69.7946910
31,Summer Street,04347,44.2802653,-69.7945782
57,Central Street,04347,44.2872584,-69.7968345
29,High Street,04347,44.2872688,-69.8004944
27,High Street,04347,44.2874311,-69.8004653
3,High Street,04347,44.2913372,-69.7987009
11,High Street,04347,44.2901360,-69.7992486
77,Central Street,04347,44.2879850,-69.8010744
27,Oakwood Drive,04347,44.2887190,-69.7978256
168,Water Street,04347,44.2852977,-69.7900777
190,Water Street,04347,44.2850136,-69.7901429
4,Elm Street,04347,44.2819690,-69.7923265
116,Second Street,04347,44.2857266,-69.7911989
165,Water Street,04347,44.2850175,-69.7905017
10,Academy Street,04347,44.2846071,-69.7922931
333,Water Street,04347,44.2684852,-69.7886685
22,Page Street,04347,44.2920745,-69.7923872
2,Maple Street,04347,44.2678397,-69.7876262
12,Maple Street,04347,44.2675511,-69.7896583
16,Maple Street,04347,44.2674667,-69.7901333
276,Central Street,04347,44.2920685,-69.8231405
10,Warren Street,04347,44.2877406,-69.7948168
10,West Street,04347,44.2942633,-69.7876722
9,Cable Road,04347,44.2954767,-69.7996282
9,Chamberlain Drive,04347,44.2884391,-69.8164156
9,Foye Road,04347,44.3110338,-69.8324019
9,Hackmatack Lane,04347,44.3132207,-69.8256994
9,Hinkley Road,04347,44.2892711,-69.7889716
9,Jamies Pond Road,04347,44.2857565,-69.8436317
9,Lincoln Street,04347,44.2892145,-69.7913022
9,Mayflower Road,04347,44.2865668,-69.8017445
9,Middle Street,04347,44.2884218,-69.7926702
9,Page Street,04347,44.2921304,-69.7908086
9,Summer Street,04347,44.2825177,-69.7936874
9,Union Street,04347,44.2854718,-69.7909323
8,Greenville Street,04347,44.2744670,-69.7926706
8,Lincoln Street,04347,44.2889430,-69.7915116
8,Maple Street,04347,44.2676534,-69.7891773
8,Mayflower Road,04347,44.2860348,-69.8012171
8,Moose Lane,04347,44.2834804,-69.8311166
8,North Street,04347,44.2929046,-69.7882181
8,West Street,04347,44.2941885,-69.7874205
8,Wilder Street,04347,44.2915491,-69.7869841
7,Chestnut Street,04347,44.2841059,-69.7938153
7,Front Street,04347,44.2863223,-69.7896779
7,Gows Lane,04347,44.2834164,-69.7919700
7,Hackmatack Lane,04347,44.3131607,-69.8252722
7,Nye Road,04347,44.3122285,-69.8315411
7,Orchard Lane,04347,44.2876203,-69.8055627
7,Packet Road,04347,44.2937950,-69.7915956
7,Page Street,04347,44.2920150,-69.7905689
7,Perry Lane,04347,44.2858157,-69.8237926
7,Sunrise Drive,04347,44.3008257,-69.8172642
7,Temple Street,04347,44.2838776,-69.7916817
7,Warren Street,04347,44.2881630,-69.7949291
6,Mayflower Road,04347,44.2860104,-69.8008470
6,Chamberlain Drive,04347,44.2893711,-69.8151250
6,Choate Lane,04347,44.2931645,-69.7895786
6,Densmore Court,04347,44.2912145,-69.7871990
6,Middle Street,04347,44.2886733,-69.7920971
6,Moose Lane,04347,44.2838909,-69.8309971
6,Nye Road,04347,44.3126687,-69.8310457
6,Orchard Lane,04347,44.2875477,-69.8050165
6,Page Street,04347,44.2917338,-69.7908785
6,Perry Lane,04347,44.2845003,-69.8214368
6,Richardson Lane,04347,44.2894322,-69.8103378
6,Summer Street,04347,44.2829812,-69.7930670
6,The Ledges,04347,44.2883137,-69.7978452
6,Warren Street,04347,44.2881837,-69.7945408
6,West Street,04347,44.2941401,-69.7872631
5,Benjamin Drive,04347,44.2848231,-69.8340307
5,Blake Avenue,04347,44.2887932,-69.8007219
5,Deer Lane,04347,44.2846844,-69.8326814
5,Densmore Court,04347,44.2913514,-69.7875894
5,Gows Lane,04347,44.2833859,-69.7918255
5,Greenville Street,04347,44.2748063,-69.7930887
5,Hackmatack Lane,04347,44.3130677,-69.8250577
5,Hillcrest Street,04347,44.2868078,-69.8033269
5,Page Street,04347,44.2920082,-69.7902617
5,Perkins Lane,04347,44.2710742,-69.7931324
5,Row House Lane,04347,44.2865983,-69.7907782
5,Second Street,04347,44.2961597,-69.7874844
5,Wilder Street,04347,44.2917585,-69.7866485
4,Aspen Lane,04347,44.3123305,-69.8261634
4,Butternut Lane,04347,44.3132408,-69.8241511
4,Chamberlain Drive,04347,44.2898388,-69.8145611
4,Choate Lane,04347,44.2933773,-69.7902009
4,Foundry Lane,04347,44.2756787,-69.7906193
4,Mayflower Road,04347,44.2859153,-69.8002943
4,Middle Street,04347,44.2887861,-69.7920672
4,Moose Lane,04347,44.2844460,-69.8308106
4,North Street,04347,44.2927633,-69.7878213
4,Nye Road,04347,44.3129547,-69.8313382
4,Page Street,04347,44.2916825,-69.7904892
4,Sampsons Row,04347,44.2902197,-69.7904508
4,The Ledges,04347,44.2880635,-69.7982178
4,Vine Street,04347,44.2898088,-69.7906333
3,Aspen Lane,04347,44.3122143,-69.8266633
3,Ballard Lane,04347,44.3025334,-69.8182845
3,Foye Road,04347,44.3106365,-69.8325593
3,Getchell Lane,04347,44.2909472,-69.7945969
3,Greenville Street,04347,44.2752476,-69.7930570
3,Hillcrest Street,04347,44.2875090,-69.8041199
3,Hubbard Lane,04347,44.2896356,-69.7935451
3,Janabye Lane,04347,44.2939774,-69.8187235
3,Juniper Lane,04347,44.3124441,-69.8253938
3,Litchfield Road,04347,44.2787453,-69.7956417
3,Mcpherson Lane,04347,44.2789299,-69.8084704
3,Nye Road,04347,44.3125339,-69.8316269
3,Packet Road,04347,44.2942712,-69.7910943
3,Page Street,04347,44.2919377,-69.7900352
3,Perkins Lane,04347,44.2708973,-69.7926727
3,Perleys Lane,04347,44.2851201,-69.7910216
3,Stickney Terrace,04347,44.2947559,-69.7919532
3,The Ledges,04347,44.2880668,-69.7990325
3,Vine Street,04347,44.2900661,-69.7905428
2,Aspen Lane,04347,44.3125055,-69.8262411
2,Butternut Lane,04347,44.3130834,-69.8241301
2,Chestnut Street,04347,44.2835076,-69.7924538
2,Choate Lane,04347,44.2938499,-69.7897896
2,Deer Lane,04347,44.2838021,-69.8320736
2,Hillcrest Street,04347,44.2871412,-69.8026484
2,Juniper Lane,04347,44.3124100,-69.8251238
2,Litchfield Road,04347,44.2770294,-69.7938266
2,Mayflower Road,04347,44.2859326,-69.7997493
2,Middle Street,04347,44.2890347,-69.7919139
2,Orchard Lane,04347,44.2882129,-69.8045180
2,Pleasant Street,04347,44.2922219,-69.7931914
2,Tenney Way,04347,44.2938350,-69.7890641
2,Warren Street,04347,44.2884691,-69.7942752
2,Wilder Street,04347,44.2914846,-69.7865445
1,Aspen Lane,04347,44.3123939,-69.8267285
1,Benjamin Drive,04347,44.2854305,-69.8334565
1,Chamberlain Drive,04347,44.2908379,-69.8164864
1,Deer Lane,04347,44.2844979,-69.8317137
1,Greenville Street,04347,44.2754521,-69.7921325
1,Hackmatack Lane,04347,44.3128991,-69.8247168
1,Hillcrest Street,04347,44.2875301,-69.8030360
1,Hubbard Lane,04347,44.2896657,-69.7937524
1,Janabye Lane,04347,44.2937154,-69.8175980
1,Juniper Lane,04347,44.3127053,-69.8253849
1,Loudon Lane,04347,44.2710020,-69.7912081
1,Mcpherson Lane,04347,44.2792893,-69.8092021
1,Middle Street,04347,44.2891313,-69.7922724
1,Page Street,04347,44.2920073,-69.7897290
1,Rice Lane,04347,44.2712918,-69.7942129
1,Stevens Street,04347,44.2915285,-69.7977383
1,Summer Street,04347,44.2834279,-69.7935618
1,Wharf Street,04347,44.2859094,-69.7901423
1,Wilder Street,04347,44.2917705,-69.7862099
1,Winthrop Street,04347,44.2871778,-69.7903905
4,Second Street,04347,44.2963703,-69.7869795
8,Grove Street,04347,44.2806192,-69.7954665
8,Orchard Lane,04347,44.2871819,-69.8051745
8,Park Street,04347,44.2951931,-69.7866504
10,Lincoln Street,04347,44.2889638,-69.7917563
10,Park Street,04347,44.2952580,-69.7870336
10,Spring Street,04347,44.2870959,-69.7936676
12,Summer Street,04347,44.2823987,-69.7933287
12,High Street,04347,44.2901013,-69.7990664
14,Bridge Street,04347,44.2783651,-69.7933558
14,Sunrise Drive,04347,44.3005564,-69.8190406
14,Union Street,04347,44.2853225,-69.7916948
16,Academy Street,04347,44.2847085,-69.7932532
16,Central Street,04347,44.2861429,-69.7921821
16,Mayflower Road,04347,44.2863380,-69.8029132
16,Middle Street,04347,44.2873992,-69.7927693
16,Page Street,04347,44.2919357,-69.7916207
16,Ridge Road,04347,44.2937936,-69.7904988
18,Academy Street,04347,44.2847429,-69.7934855
18,High Street,04347,44.2890333,-69.7992211
18,Lincoln Street,04347,44.2891891,-69.7930190
18,Middle Street,04347,44.2871739,-69.7928101
18,Union Street,04347,44.2852401,-69.7925334
20,Middle Street,04347,44.2869568,-69.7929576
20,Walnut Drive,04347,44.3126785,-69.8209772
20,Warren Street,04347,44.2864673,-69.7953825
22,Middle Street,04347,44.2868935,-69.7930006
2,Elm Street,04347,44.2819239,-69.7923322
2,West Street,04347,44.2939633,-69.7867907
4,Lincoln Street,04347,44.2888331,-69.7911278
22,Town Farm Road,04347,44.2995915,-69.8148464
22,Water Street,04347,44.2943450,-69.7856113
28,High Street,04347,44.2874257,-69.7999513
28,Maple Street,04347,44.2670656,-69.7921576
28,Pleasant Street,04347,44.2897660,-69.7942175
28,Union Street,04347,44.2857143,-69.7942631
30,Maple Street,04347,44.2669526,-69.7928765
32,High Street,04347,44.2869612,-69.8000766
34,Union Street,04347,44.2859014,-69.7951868
38,Water Street,04347,44.2919478,-69.7872714
40,Water Street,04347,44.2916497,-69.7874179
46,Shady Lane,04347,44.2897961,-69.8255278
48,Winthrop Street,04347,44.2894555,-69.7961372
52,Water Street,04347,44.2906008,-69.7880682
54,Winthrop Street,04347,44.2904417,-69.7980181
56,Winthrop Street,04347,44.2908866,-69.7974789
58,Middle Street,04347,44.2829168,-69.7945575
58,Winthrop Street,04347,44.2911549,-69.7977458
60,Middle Street,04347,44.2828178,-69.7945562
66,Winthrop Street,04347,44.2922076,-69.7991263
68,Central Street,04347,44.2873706,-69.7994555
70,Middle Street,04347,44.2819360,-69.7944817
71,Winthrop Street,04347,44.2931302,-69.7997969
84,Central Street,04347,44.2879319,-69.8028660
88,Winthrop Street,04347,44.2946445,-69.8027506
108,Water Street,04347,44.2867035,-69.7898773
122,Water Street,04347,44.2863385,-69.7899288
134,Water Street,04347,44.2861404,-69.7899386
142,Water Street,04347,44.2858025,-69.7899780
144,Water Street,04347,44.2857169,-69.7899956
148,Water Street,04347,44.2856582,-69.7900199
164,Water Street,04347,44.2853562,-69.7900723
172,Water Street,04347,44.2852390,-69.7900958
180,Central Street,04347,44.2904535,-69.8142061
184,Water Street,04347,44.2850724,-69.7901123
210,Water Street,04347,44.2843546,-69.7903972
218,Water Street,04347,44.2843279,-69.7903017
226,Water Street,04347,44.2827821,-69.7912597
228,Water Street,04347,44.2825274,-69.7912237
230,Water Street,04347,44.2819087,-69.7919054
244,Water Street,04347,44.2808123,-69.7922985
286,Water Street,04347,44.2771157,-69.7917726
340,Water Street,04347,44.2681217,-69.7872039
1,Orchard Lane,04347,44.2882445,-69.8051388
1,Second Street,04347,44.2965793,-69.7873459
3,Franklin Street,04347,44.2860834,-69.7929647
5,Maple Street,04347,44.2680347,-69.7887251
5,North Street,04347,44.2930745,-69.7877315
7,Hunter Lane,04347,44.2707100,-69.7904649
7,Lincoln Street,04347,44.2892795,-69.7910148
7,Union Street,04347,44.2855991,-69.7907460
7,Water Street,04330,44.2958092,-69.7856661
9,Warren Street,04347,44.2879608,-69.7955217
9,West Street,04347,44.2944144,-69.7873044
11,Hillcrest Street,04347,44.2859768,-69.8043496
11,Spring Street,04347,44.2873370,-69.7939529
13,Chestnut Street,04347,44.2843729,-69.7955547
13,Lincoln Street,04347,44.2892968,-69.7917670
13,Water Street,04347,44.2948841,-69.7857626
15,High Street,04347,44.2899665,-69.7996725
15,Hillcrest Street,04347,44.2861746,-69.8050228
15,Lincoln Street,04347,44.2894297,-69.7920822
15,Maple Street,04347,44.2677239,-69.7907068
15,Page Street,04347,44.2922241,-69.7915807
17,Oakwood Drive,04347,44.2891770,-69.7979822
17,Winthrop Street,04347,44.2876623,-69.7918328
19,Lincoln Street,04347,44.2896233,-69.7927240
19,Page Street,04347,44.2923240,-69.7921023
19,Union Street,04347,44.2858804,-69.7930371
21,Maple Street,04347,44.2675907,-69.7917387
21,Page Street,04347,44.2923720,-69.7923160
21,Pleasant Street,04347,44.2903374,-69.7942565
21,Union Street,04347,44.2859185,-69.7933823
21,Warren Street,04347,44.2865932,-69.7960484
21,Water Street,04347,44.2940706,-69.7862406
25,Maple Street,04347,44.2674564,-69.7922756
27,Maple Street,04347,44.2674044,-69.7926320
29,Maple Street,04347,44.2673300,-69.7929756
29,Water Street,04347,44.2932649,-69.7868817
31,High Street,04347,44.2869533,-69.8005591
31,Water Street,04347,44.2930885,-69.7870047
33,Water Street,04347,44.2926860,-69.7872688
37,Middle Street,04347,44.2851791,-69.7941933
37,Water Street,04347,44.2920892,-69.7876494
39,Middle Street,04347,44.2848939,-69.7944275
43,Water Street,04347,44.2915915,-69.7880187
47,Academy Street,04347,44.2862181,-69.7981928
49,Second Street,04347,44.2920912,-69.7893227
53,Middle Street,04347,44.2836262,-69.7948178
55,Middle Street,04347,44.2833691,-69.7948895
59,Middle Street,04347,44.2828547,-69.7950768
61,Water Street,04347,44.2884181,-69.7899441
63,Middle Street,04347,44.2821235,-69.7953552
73,Central Street,04347,44.2877638,-69.7998745
73,Outlet Road,04347,44.2863913,-69.8319535
75,Water Street,04347,44.2878049,-69.7900926
77,Water Street,04347,44.2876424,-69.7901530
79,Central Street,04347,44.2880725,-69.8014328
85,Middle Street,04347,44.2796324,-69.7962489
93,Central Street,04347,44.2896113,-69.8040984
111,Outlet Road,04347,44.2876500,-69.8346597
151,Water Street,04347,44.2854033,-69.7904238
163,Second Street,04347,44.2813896,-69.7934279
197,Water Street,04347,44.2834202,-69.7914249
223,Water Street,04347,44.2822086,-69.7921794
233,Water Street,04347,44.2817625,-69.7922360
325,Water Street,04347,44.2701808,-69.7901822
325,Water Street,04347,44.2692651,-69.7898128
327,Water Street,04347,44.2694688,-69.7902979
327,Water Street,04347,44.2690996,-69.7896602
16,Summer Street,04347,44.2818576,-69.7934530
5,Middle Street,04347,44.2887832,-69.7924746
5,Summer Street,04347,44.2830176,-69.7936628
14,Summer Street,04347,44.2820793,-69.7932993
3,Middle Street,04347,44.2889546,-69.7924267
305,Central Street,04347,44.2928795,-69.8255459
36,Stage Drive,04347,44.2910766,-69.8289676
53,Winthrop Street,04347,44.2903324,-69.7962619
6,Litchfield Road,04347,44.2781583,-69.7965685
199,Winthrop Street,04347,44.3015730,-69.8134634
45,Winthrop Street,04347,44.2893486,-69.7953336
124,Second Street,04347,44.2849828,-69.7913456
11,Perleys Lane,04347,44.2851761,-69.7913858
8,Union Street,04347,44.2852245,-69.7908977
5,Perleys Lane,04347,44.2851282,-69.7911470
7,Perleys Lane,04347,44.2851368,-69.7912036
9,Perleys Lane,04347,44.2851629,-69.7913355
12,Union Street,04347,44.2852542,-69.7911550
76,Town Farm Road,04347,44.2954504,-69.8148079
17,Union Street,04347,44.2857990,-69.7924344
15,Union Street,04347,44.2863314,-69.7921672
16,Meadowood Drive,04347,44.2823382,-69.8134486
57,Overlook Drive,04347,44.2978629,-69.8014845
62,Winthrop Street,04347,44.2912999,-69.7982428
106,Second Street,04347,44.2863088,-69.7909686
108,Second Street,04347,44.2861825,-69.7910171
67,Winthrop Street,04347,44.2923866,-69.7986336
64,Winthrop Street,04347,44.2919669,-69.7987783
68,Winthrop Street,04347,44.2924566,-69.7995558
1,High Street,04347,44.2917534,-69.7984119
69,Winthrop Street,04347,44.2926765,-69.7990136
70,Winthrop Street,04347,44.2927333,-69.7998980
370,Central Street,04347,44.2935861,-69.8323810
29,Middle Street,04347,44.2863308,-69.7936385
4,West Street,04347,44.2940558,-69.7870740
3,Second Street,04347,44.2963312,-69.7874178
6,Second Street,04347,44.2962428,-69.7865266
8,Second Street,04347,44.2962307,-69.7869839
10,Second Street,04347,44.2961404,-69.7870203
12,Second Street,04347,44.2959145,-69.7871364
14,Second Street,04347,44.2956354,-69.7871390
7,Second Street,04347,44.2957717,-69.7876108
16,Second Street,04347,44.2953508,-69.7872856
18,Second Street,04347,44.2951027,-69.7873637
1,West Street,04347,44.2942996,-69.7863189
3,West Street,04347,44.2943664,-69.7864326
5,West Street,04347,44.2943770,-69.7868464
23,Water Street,04347,44.2938219,-69.7863940
1,Stoddard Lane,04347,44.2936226,-69.7865856
31,Second Street,04347,44.2938266,-69.7883369
35,Second Street,04347,44.2934969,-69.7884955
37,Second Street,04347,44.2933161,-69.7885933
30,Second Street,04347,44.2937169,-69.7879156
6,Stoddard Lane,04347,44.2935796,-69.7876003
7,North Street,04347,44.2931751,-69.7881527
27,Water Street,04347,44.2934368,-69.7867649
6,North Street,04347,44.2928651,-69.7880734
39,Second Street,04347,44.2930048,-69.7886957
35,Water Street,04347,44.2923971,-69.7873903
41,Second Street,04347,44.2926970,-69.7889486
43,Second Street,04347,44.2925566,-69.7890720
9,Wilder Street,04347,44.2918284,-69.7869502
7,Wilder Street,04347,44.2918065,-69.7868622
3,Wilder Street,04347,44.2917411,-69.7865605
4,Wilder Street,04347,44.2914976,-69.7866199
8,Densmore Court,04347,44.2910336,-69.7873282
11,Densmore Court,04347,44.2908325,-69.7877704
9,Densmore Court,04347,44.2909895,-69.7878478
7,Densmore Court,04347,44.2911567,-69.7877497
39,Water Street,04347,44.2918949,-69.7877533
41,Water Street,04347,44.2917545,-69.7878893
11,Page Street,04347,44.2921736,-69.7910724
14,Page Street,04347,44.2918702,-69.7913378
18,Page Street,04347,44.2920009,-69.7919600
20,Page Street,04347,44.2920536,-69.7921550
54,Water Street,04347,44.2904037,-69.7879339
1,Allen Lane,04347,44.2908993,-69.7898207
69,Second Street,04347,44.2900114,-69.7899780
6,Sampsons Row,04347,44.2904000,-69.7904282
8,Sampsons Row,04347,44.2905890,-69.7904307
1,Lincoln Street,04347,44.2890280,-69.7902782
3,Lincoln Street,04347,44.2890350,-69.7905791
5,Lincoln Street,04347,44.2890784,-69.7908115
81,Second Street,04347,44.2887124,-69.7903554
6,Lincoln Street,04347,44.2888905,-69.7912916
11,Lincoln Street,04347,44.2892711,-69.7915787
17,Lincoln Street,04347,44.2894585,-69.7924711
21,Lincoln Street,04347,44.2895494,-69.7929988
8,Middle Street,04347,44.2885240,-69.7922079
10,Middle Street,04347,44.2883884,-69.7922938
12,Middle Street,04347,44.2882348,-69.7923732
7,Middle Street,04347,44.2885980,-69.7925786
23,Winthrop Street,04347,44.2880585,-69.7924711
19,Winthrop Street,04347,44.2877423,-69.7919780
71,Water Street,04347,44.2879940,-69.7900888
81,Water Street,04347,44.2875074,-69.7901450
92,Second Street,04347,44.2876813,-69.7903980
91,Second Street,04347,44.2877643,-69.7907626
13,Winthrop Street,04347,44.2878717,-69.7914972
27,Winthrop Street,04347,44.2883196,-69.7931201
59,Water Street,04347,44.2884768,-69.7899198
69,Water Street,04347,44.2880481,-69.7900770
63,Water Street,04347,44.2882420,-69.7900295
67,Water Street,04347,44.2881833,-69.7900475
31,Winthrop Street,04347,44.2884441,-69.7933411
33,Winthrop Street,04347,44.2885194,-69.7935238
39,Winthrop Street,04347,44.2889281,-69.7943002
41,Winthrop Street,04347,44.2890465,-69.7947530
30,Pleasant Street,04347,44.2895713,-69.7943778
2,Hubbard Lane,04347,44.2894751,-69.7939629
4,Hubbard Lane,04347,44.2893655,-69.7935478
27,Pleasant Street,04347,44.2897225,-69.7946368
25,Pleasant Street,04347,44.2899217,-69.7944828
23,Pleasant Street,04347,44.2900347,-69.7944154
19,Pleasant Street,04347,44.2905539,-69.7941905
24,Pleasant Street,04347,44.2900511,-69.7939957
22,Pleasant Street,04347,44.2902364,-69.7938854
18,Pleasant Street,04347,44.2905567,-69.7937894
17,Pleasant Street,04347,44.2908113,-69.7940749
15,Pleasant Street,04347,44.2911223,-69.7940227
16,Pleasant Street,04347,44.2908543,-69.7937182
10,Pleasant Street,04347,44.2914320,-69.7935067
42,Winthrop Street,04347,44.2889081,-69.7952337
47,Winthrop Street,04347,44.2895221,-69.7956242
4,Oakwood Drive,04347,44.2893303,-69.7966620
7,Oakwood Drive,04347,44.2895465,-69.7979371
9,Oakwood Drive,04347,44.2894880,-69.7979300
11,Oakwood Drive,04347,44.2894298,-69.7978916
13,Oakwood Drive,04347,44.2893805,-69.7978596
15,Oakwood Drive,04347,44.2892446,-69.7979706
19,Oakwood Drive,04347,44.2891230,-69.7979815
21,Oakwood Drive,04347,44.2890691,-69.7979745
23,Oakwood Drive,04347,44.2890107,-69.7979549
24,Oakwood Drive,04347,44.2888437,-69.7980216
25,Oakwood Drive,04347,44.2887946,-69.7979582
26,Oakwood Drive,04347,44.2887591,-69.7978888
28,Oakwood Drive,04347,44.2886326,-69.7973043
29,Oakwood Drive,04347,44.2886915,-69.7972487
30,Oakwood Drive,04347,44.2887503,-69.7972119
31,Oakwood Drive,04347,44.2888091,-69.7971751
32,Oakwood Drive,04347,44.2888769,-69.7971259
82,Winthrop Street,04347,44.2939495,-69.8017133
223,Winthrop Street,04347,44.3025091,-69.8166482
231,Winthrop Street,04347,44.3029598,-69.8171998
244,Winthrop Street,04347,44.3029373,-69.8184594
5,Ballard Lane,04347,44.3023374,-69.8186266
4,Ballard Lane,04347,44.3021201,-69.8181722
13,Sunrise Drive,04347,44.3009845,-69.8189651
12,Sunrise Drive,04347,44.3004110,-69.8185998
11,Sunrise Drive,04347,44.3009704,-69.8184321
5,Sunrise Drive,04347,44.3007350,-69.8167239
8,Sunrise Drive,04347,44.3002667,-69.8173692
4,Sunrise Drive,04347,44.3001072,-69.8163892
10,Sunrise Drive,04347,44.3003163,-69.8179967
257,Winthrop Street,04347,44.3039684,-69.8190567
311,Winthrop Street,04347,44.3066107,-69.8228296
3,Quarry Lane,04347,44.3071961,-69.8265302
5,Quarry Lane,04347,44.3071193,-69.8265792
350,Winthrop Street,04347,44.3077656,-69.8262184
12,Nye Road,04347,44.3116937,-69.8314144
13,Foye Road,04347,44.3115011,-69.8318944
11,Foye Road,04347,44.3112508,-69.8322670
31,Foye Road,04347,44.3125899,-69.8319788
55,Foye Road,04347,44.3140250,-69.8314787
51,Foye Road,04347,44.3135782,-69.8316416
53,Foye Road,04347,44.3137126,-69.8298755
56,Town Farm Road,04347,44.2976596,-69.8155906
87,Town Farm Road,04347,44.2955575,-69.8168276
100,Town Farm Road,04347,44.2944263,-69.8163857
127,Town Farm Road,04347,44.2926962,-69.8172266
124,Town Farm Road,04347,44.2924010,-69.8163263
138,Town Farm Road,04347,44.2917188,-69.8160536
3,Chamberlain Drive,04347,44.2901625,-69.8165021
5,Chamberlain Drive,04347,44.2886519,-69.8174964
8,Chamberlain Drive,04347,44.2882459,-69.8138435
247,Central Street,04347,44.2932032,-69.8199788
253,Central Street,04347,44.2921518,-69.8209606
270,Central Street,04347,44.2918758,-69.8224045
273,Central Street,04347,44.2926887,-69.8226603
326,Central Street,04347,44.2925709,-69.8283744
419,Central Street,04347,44.2956841,-69.8360459
407,Central Street,04347,44.2944894,-69.8350574
385,Central Street,04347,44.2941125,-69.8330403
55,Shady Lane,04347,44.2892055,-69.8275124
11,Outlet Road,04347,44.2870590,-69.8261662
27,Outlet Road,04347,44.2870443,-69.8275760
45,Outlet Road,04347,44.2871760,-69.8292762
49,Outlet Road,04347,44.2870007,-69.8298690
80,Outlet Road,04347,44.2856510,-69.8322376
88,Outlet Road,04347,44.2855299,-69.8327873
8,Benjamin Drive,04347,44.2841481,-69.8333819
4,Deer Lane,04347,44.2839283,-69.8326707
2,Moose Lane,04347,44.2850006,-69.8306743
3,Moose Lane,04347,44.2851692,-69.8316355
91,Outlet Road,04347,44.2860223,-69.8331766
175,Outlet Road,04347,44.2865741,-69.8414187
108,Litchfield Road,04347,44.2751236,-69.8107176
76,Smith Road,04347,44.2740916,-69.8102586
78,Smith Road,04347,44.2736660,-69.8106036
94,Smith Road,04347,44.2727817,-69.8108859
81,Smith Road,04347,44.2735760,-69.8118554
18,Hope Drive,04347,44.2750993,-69.8084366
92,Middle Street,04347,44.2793547,-69.7954118
33,Summer Street,04347,44.2801388,-69.7946329
90,Middle Street,04347,44.2797732,-69.7954237
34,Summer Street,04347,44.2795868,-69.7943936
16,Bridge Street,04347,44.2780512,-69.7931824
6,Bridge Street,04347,44.2790799,-69.7934908
4,Bridge Street,04347,44.2794980,-69.7935653
1,Grove Street,04347,44.2806716,-69.7937628
6,Grove Street,04347,44.2805851,-69.7951966
79,Middle Street,04347,44.2806296,-69.7959178
76,Middle Street,04347,44.2808673,-69.7953946
7,Grove Street,04347,44.2808577,-69.7948368
75,Middle Street,04347,44.2810846,-69.7958550
73,Middle Street,04347,44.2812885,-69.7956698
69,Middle Street,04347,44.2815866,-69.7955297
74,Middle Street,04347,44.2810887,-69.7946269
167,Second Street,04347,44.2809384,-69.7935847
161,Second Street,04347,44.2815838,-69.7933365
245,Water Street,04347,44.2808146,-69.7926181
241,Water Street,04347,44.2812696,-69.7925615
186,Central Street,04347,44.2905030,-69.8148461
138,Central Street,04347,44.2898518,-69.8102057
5,Richardson Lane,04347,44.2894732,-69.8108962
8,Richardson Lane,04347,44.2890846,-69.8104709
9,Richardson Lane,04347,44.2889811,-69.8111025
158,Central Street,04347,44.2901714,-69.8120965
117,Central Street,04347,44.2897574,-69.8082805
112,Central Street,04347,44.2886667,-69.8078206
95,Central Street,04347,44.2888970,-69.8051791
91,Central Street,04347,44.2886925,-69.8041736
96,Central Street,04347,44.2881044,-69.8058576
4,Orchard Lane,04347,44.2878057,-69.8048132
86,Central Street,04347,44.2879716,-69.8036248
82,Central Street,04347,44.2878450,-69.8024261
22,Mayflower Road,04347,44.2865717,-69.8042512
18,Mayflower Road,04347,44.2864241,-69.8034784
9,Hillcrest Street,04347,44.2860133,-69.8036483
15,Mayflower Road,04347,44.2867037,-69.8027615
14,Mayflower Road,04347,44.2862780,-69.8024925
10,Mayflower Road,04347,44.2861211,-69.8017572
14,Hillcrest Street,04347,44.2853428,-69.8046922
17,Hillcrest Street,04347,44.2856052,-69.8053409
21,Hillcrest Street,04347,44.2850725,-69.8055592
83,Central Street,04347,44.2881982,-69.8021301
78,Central Street,04347,44.2876758,-69.8015214
33,High Street,04347,44.2865971,-69.8006357
30,High Street,04347,44.2872094,-69.7999797
57,Academy Street,04347,44.2865527,-69.7999019
51,Academy Street,04347,44.2864633,-69.7991800
5,The Ledges,04347,44.2885856,-69.7988704
65,Central Street,04347,44.2875527,-69.7985242
62,Central Street,04347,44.2870442,-69.7978593
3,Blake Avenue,04347,44.2884137,-69.8009236
25,High Street,04347,44.2882028,-69.8001812
23,High Street,04347,44.2886270,-69.8000366
21,High Street,04347,44.2889157,-69.7999528
24,High Street,04347,44.2881970,-69.7997237
19,High Street,04347,44.2892628,-69.7998760
14,High Street,04347,44.2897424,-69.7988861
17,High Street,04347,44.2896952,-69.7998443
50,Academy Street,04347,44.2860503,-69.7990115
48,Academy Street,04347,44.2859826,-69.7983964
44,Academy Street,04347,44.2857974,-69.7978425
38,Academy Street,04347,44.2856455,-69.7970320
45,Academy Street,04347,44.2861898,-69.7977350
41,Academy Street,04347,44.2864546,-69.7971934
34,Academy Street,04347,44.2856174,-69.7965428
61,Central Street,04347,44.2873663,-69.7974940
59,Central Street,04347,44.2873012,-69.7971547
56,Central Street,04347,44.2868533,-69.7968353
54,Central Street,04347,44.2868374,-69.7965343
35,Academy Street,04347,44.2855697,-69.7956398
31,Academy Street,04347,44.2853924,-69.7952364
28,Academy Street,04347,44.2849976,-69.7956885
24,Academy Street,04347,44.2850027,-69.7949554
25,Academy Street,04347,44.2851815,-69.7944941
30,Union Street,04347,44.2857125,-69.7945200
31,Middle Street,04347,44.2856578,-69.7939741
33,Middle Street,04347,44.2855809,-69.7940295
36,Central Street,04347,44.2864117,-69.7943101
27,Union Street,04347,44.2861139,-69.7944064
1,Franklin Street,04347,44.2862417,-69.7928665
28,Middle Street,04347,44.2861486,-69.7932977
21,Academy Street,04347,44.2850430,-69.7936901
19,Chestnut Street,04347,44.2845813,-69.7966479
11,Chestnut Street,04347,44.2842906,-69.7950836
18,Chestnut Street,04347,44.2842235,-69.7963172
45,Middle Street,04347,44.2843627,-69.7944204
47,Middle Street,04347,44.2841949,-69.7945998
57,Middle Street,04347,44.2830219,-69.7949788
61,Middle Street,04347,44.2824980,-69.7952287
72,Middle Street,04347,44.2816091,-69.7948783
236,Water Street,04347,44.2813413,-69.7919547
234,Water Street,04347,44.2815239,-69.7917079
6,Elm Street,04347,44.2819815,-69.7924646
231,Water Street,04347,44.2819875,-69.7922579
5,Elm Street,04347,44.2822884,-69.7923559
150,Second Street,04347,44.2823363,-69.7925821
10,Summer Street,04347,44.2827508,-69.7931830
4,Summer Street,04347,44.2831344,-69.7930378
8,Gows Lane,04347,44.2832440,-69.7921682
4,Gows Lane,04347,44.2832111,-69.7917229
4,Temple Street,04347,44.2835758,-69.7917027
5,Chestnut Street,04347,44.2840004,-69.7934505
3,Chestnut Street,04347,44.2839225,-69.7929920
136,Second Street,04347,44.2838670,-69.7919134
130,Second Street,04347,44.2841330,-69.7918481
131,Second Street,04347,44.2842255,-69.7921438
4,Winter Street,04347,44.2842698,-69.7928964
14,Academy Street,04347,44.2846783,-69.7930585
19,Academy Street,04347,44.2850313,-69.7934393
17,Academy Street,04347,44.2850065,-69.7931194
7,Academy Street,04347,44.2848031,-69.7919385
191,Water Street,04347,44.2839809,-69.7910627
212,Water Street,04347,44.2842509,-69.7904272
216,Water Street,04347,44.2842204,-69.7902764
24,Union Street,04347,44.2855777,-69.7931960
22,Union Street,04347,44.2855523,-69.7929638
121,Second Street,04347,44.2851644,-69.7917742
1,Perleys Lane,04347,44.2851070,-69.7909588
181,Water Street,04347,44.2845823,-69.7906697
126,Second Street,04347,44.2848646,-69.7915070
196,Water Street,04347,44.2847792,-69.7901899
194,Water Street,04347,44.2848782,-69.7901912
192,Water Street,04347,44.2849459,-69.7901670
176,Water Street,04347,44.2851490,-69.7901008
161,Water Street,04347,44.2851546,-69.7905834
119,Second Street,04347,44.2856110,-69.7916298
112,Second Street,04347,44.2859298,-69.7911077
118,Second Street,04347,44.2856700,-69.7909099
149,Water Street,04347,44.2854664,-69.7904121
147,Water Street,04347,44.2855341,-69.7903942
160,Water Street,04347,44.2854104,-69.7900542
154,Water Street,04347,44.2855322,-69.7900182
152,Water Street,04347,44.2855997,-69.7900191
150,Water Street,04347,44.2856541,-69.7899572
138,Water Street,04347,44.2860142,-69.7899620
128,Water Street,04347,44.2861990,-69.7899332
120,Water Street,04347,44.2863881,-69.7899294
106,Water Street,04347,44.2867508,-69.7898731
102,Second Street,04347,44.2865345,-69.7908839
117,Water Street,04347,44.2862158,-69.7902853
14,Middle Street,04347,44.2876204,-69.7926783
1,Dudley Lane,04347,44.2687406,-69.7875317
342,Water Street,04347,44.2679700,-69.7870014
331,Water Street,04347,44.2686944,-69.7890095
335,Water Street,04347,44.2683044,-69.7881273
1,Water Street,04347,44.2681791,-69.7880128
32,Winthrop Street,04347,44.2883626,-69.7940544
4,Warren Street,04347,44.2882290,-69.7945038
8,Warren Street,04347,44.2880164,-69.7946451
41,Central Street,04347,44.2868760,-69.7948679
39,Central Street,04347,44.2868154,-69.7945098
11,Middle Street,04347,44.2878608,-69.7930700
13,Middle Street,04347,44.2876443,-69.7931298
15,Middle Street,04347,44.2874634,-69.7932590
17,Middle Street,04347,44.2872018,-69.7933244
21,Middle Street,04347,44.2868228,-69.7934446
292,Water Street,04347,44.2765174,-69.7917144
2,Greenville Street,04347,44.2749361,-69.7925390
9,Greenville Street,04347,44.2745034,-69.7932663
14,Greenville Street,04347,44.2738168,-69.7929563
19,Greenville Street,04347,44.2733499,-69.7934262
23,Greenville Street,04347,44.2728473,-69.7932064
25,Greenville Street,04347,44.2725923,-69.7936165
29,Greenville Street,04347,44.2722549,-69.7929416
33,Greenville Street,04347,44.2717269,-69.7924834
309,Water Street,04347,44.2714689,-69.7913961
36,Greenville Street,04347,44.2709086,-69.7917018
2,Loudon Lane,04347,44.2708563,-69.7907989
37,Greenville Street,04347,44.2710357,-69.7921984
7,Perkins Lane,04347,44.2712598,-69.7936236
3,Rice Lane,04347,44.2716471,-69.7942553
6,Perkins Lane,04347,44.2707931,-69.7934231
39,Greenville Street,04347,44.2704379,-69.7927167
43,Greenville Street,04347,44.2696907,-69.7927066
40,Greenville Street,04347,44.2704087,-69.7917264
4,Hunter Lane,04347,44.2698129,-69.7913112
44,Greenville Street,04347,44.2697487,-69.7921248
48,Greenville Street,04347,44.2686941,-69.7923111
316,Water Street,04347,44.2709918,-69.7900803
318,Water Street,04347,44.2708131,-69.7898837
326,Water Street,04347,44.2697857,-69.7893812
343,Water Street,04347,44.2674075,-69.7876266
341,Water Street,04347,44.2676565,-69.7874232
3,Maple Street,04347,44.2680764,-69.7885440
9,Maple Street,04347,44.2680520,-69.7894771
11,Maple Street,04347,44.2679329,-69.7897699
13,Maple Street,04347,44.2677618,-69.7904317
19,Maple Street,04347,44.2676301,-69.7912506
26,Maple Street,04347,44.2671541,-69.7917203
24,Maple Street,04347,44.2672734,-69.7914024
22,Maple Street,04347,44.2673069,-69.7911210
20,Maple Street,04347,44.2673584,-69.7908272
18,Maple Street,04347,44.2674287,-69.7904209
10,Maple Street,04347,44.2675843,-69.7894019
6,Maple Street,04347,44.2676916,-69.7888583
4,Maple Street,04347,44.2677117,-69.7885516
50,Blaine Road,04347,44.2637581,-69.7939424
58,Blaine Road,04347,44.2631129,-69.7941467
61,Sunrise Drive,04347,44.3032495,-69.8192790
61,Overlook Drive,04347,44.2978241,-69.8006065
11,Meadowood Drive,04347,44.2809314,-69.8125018
24,Meadowood Drive,04347,44.2835479,-69.8136220
2,Sunrise Drive,04347,44.3000219,-69.8157299
215,Whitten Road,04347,44.3028201,-69.8103882
215,Whitten Road,04347,44.3029912,-69.8105074
11,Litchfield Road,04347,44.2790660,-69.7977081
11,Litchfield Road,04347,44.2790094,-69.7985905
11,Litchfield Road,04347,44.2793457,-69.7986354
11,Litchfield Road,04347,44.2791905,-69.7982134
13,Litchfield Road,04347,44.2783680,-69.7982337
298,Central Street,04347,44.2923454,-69.8251495
21,Stage Drive,04347,44.2911244,-69.8273364
22,Shady Lane,04347,44.2912258,-69.8246229
19,Shady Lane,04347,44.2916152,-69.8254090
295,Central Street,04347,44.2927358,-69.8247429
25,Stage Drive,04347,44.2914496,-69.8264545
10,Water Street,04347,44.2946860,-69.7838416
4,Water Street,04347,44.2955636,-69.7829670
11,Inn Road,04347,44.2879708,-69.8372083
283,Whitten Rd,04347,44.2989896,-69.8101330
1,Winthrop Street,04347,44.2872095,-69.7904827
2,Academy Street,04347,44.2844482,-69.7912034
100,Water Street,04347,44.2868495,-69.7897933
104,Water Street,04347,44.2867266,-69.7897531
60,Balsam Drive,04347,44.3124768,-69.8228769
150,Whitten Road,04330,44.3074362,-69.8095719
215,Whitten Road,04347,44.3028763,-69.8104579
203,Whitten Road,04347,44.3037394,-69.8106840
175,Water Street,04347,44.2848362,-69.7906039
157,Water Street,04347,44.2853355,-69.7905132
143,Water Street,04347,44.2857663,-69.7903690
103,Water Street,04347,44.2867600,-69.7902562
98,Second Street,04347,44.2868446,-69.7905241
89,Water Street,04347,44.2871176,-69.7901640
113,Water Street,04347,44.2863529,-69.7903455
111,Water Street,04347,44.2864540,-69.7902729
107,Water Street,04347,44.2865293,-69.7903079
120,Second Street,04347,44.2852817,-69.7913272
2,Franklin Street,04347,44.2865299,-69.7922957
19,Central Street,04347,44.2864017,-69.7923898
14,Winthrop Street,04347,44.2870753,-69.7919557
101,Second Street,04347,44.2869037,-69.7912166
105,Second Street,04347,44.2867291,-69.7913558
121,Dummers Lane,04347,44.2861361,-69.7903266
49,Water Street,04347,44.2906261,-69.7888023
47,Water Street,04347,44.2912069,-69.7886637
7,Water Street,04347,44.2958132,-69.7856877
26,Garden Lane,04347,44.2921413,-69.8028408
22,Carriage Lane,04347,44.2937169,-69.8039995
26,Katherine Drive,04347,44.2951512,-69.8059637
9,Coos Lane,04347,44.2937354,-69.7973159
9,Beech Street,04347,44.2931571,-69.7964406
6,Beech Street,04347,44.2920043,-69.7965268
276,Whitten Road,04347,44.2986849,-69.8087386
268,Whitten Road,04347,44.2992689,-69.8084109
267,Whitten Road,04347,44.2995811,-69.8095048
152,Winthrop Street,04347,44.2982818,-69.8127403
1,Spring Street,04347,44.2881073,-69.7937121
5,Spring Street,04347,44.2878393,-69.7937915
26,Winthrop Street,04347,44.2880145,-69.7932816
7,Spring Street,04347,44.2876525,-69.7938321
9,Spring Street,04347,44.2874806,-69.7939684
13,Spring Street,04347,44.2871526,-69.7940619
15,Spring Street,04347,44.2870155,-69.7941412
37,Central Street,04347,44.2867650,-69.7942208
2,Water Street,04347,44.2960358,-69.7841821
2,Stevens Street,04347,44.2922433,-69.7977435
7,Beech Street,04347,44.2926095,-69.7968810
24,Mayflower Road,04347,44.2866118,-69.8045522
22,Mayflower Road,04347,44.2865594,-69.8042296
22,Mayflower Road,04347,44.2864912,-69.8037982
18,Mayflower Road,04347,44.2864007,-69.8034820
9,Hillcrest Street,04347,44.2860077,-69.8036314
9,Hillcrest Street,04347,44.2861081,-69.8036315
11,Hillcrest Street,04347,44.2859636,-69.8043316
11,Hillcrest Street,04347,44.2859865,-69.8041803
13,Hillcrest Street,04347,44.2860523,-69.8046436
13,Hillcrest Street,04347,44.2860795,-69.8047515
15,Hillcrest Street,04347,44.2861648,-69.8049996
15,Hillcrest Street,04347,44.2861877,-69.8051086
30,Mayflower Road,04347,44.2867029,-69.8055425
13,Litchfield Road,04347,44.2783694,-69.7982275
2,Coos Lane,04347,44.2923325,-69.7983214
330,Water Street,04347,44.2691293,-69.7885162
2,Beech Street,04347,44.2914095,-69.7967236
1,Beech Street,04347,44.2915129,-69.7973420
7,Reed Street,04347,44.2913055,-69.7952097
115,Second Street,04347,44.2859941,-69.7916974
26,Garden Lane,04347,44.2922246,-69.8034447
