House number,Street name,Postal code,Latitude,Longitude
613,Stillwater Avenue,04468-2156,44.9247689,-68.6706085
1002,Stillwater Avenue,04468,44.9150361,-68.6826813
2,Meadow Lane,04468,44.9280494,-68.6520574
2,Meadow Lane,04468,44.9278103,-68.6519004
2,Meadow Lane,04468,44.9280153,-68.6527039
2,Meadow Lane,04468,44.9277672,-68.6525153
2,Meadow Lane,04468,44.9273663,-68.6524163
2,Meadow Lane,04468,44.9274100,-68.6519789
2,Meadow Lane,04468,44.9274763,-68.6515793
2,Meadow Lane,04468,44.9276905,-68.6509761
2,Stillwater Avenue,04468,44.9389131,-68.6485443
4,Howard Street,04468,44.9372396,-68.6430413
4,Jameson Street,04468,44.9179717,-68.6390620
12,Congress Street,04468,44.9273265,-68.6438884
16,Congress Street,04468,44.9273529,-68.6436981
18,Water Street,04468,44.9357765,-68.6458576
20,Water Street,04468,44.9357134,-68.6458073
28,Congress Street,04468,44.9274728,-68.6431588
64,Water Street,04468,44.9343955,-68.6446685
96,Taylor Road,04468,44.9105217,-68.6445306
100,Airport Road,04468,44.9487993,-68.6703638
164,Lincoln Street,04468,44.9283556,-68.6595891
170,Lincoln Street,04468,44.9282979,-68.6598556
182,Lincoln Street,04468,44.9282231,-68.6604263
255,Main Street,04468,44.9358059,-68.6466179
255,Main Street,04468,44.9357922,-68.6465419
266,Main Street,04468,44.9355480,-68.6461759
268,Main Street,04468,44.9354803,-68.6461383
272,Main Street,04468,44.9353406,-68.6460567
276,Main Street,04468,44.9352053,-68.6459752
280,Main Street,04468,44.9350700,-68.6458937
282,Main Street,04468,44.9349979,-68.6458561
296,Main Street,04468,44.9345831,-68.6456368
298,Main Street,04468,44.9345110,-68.6455993
302,Main Street,04468,44.9343712,-68.6455304
384,West Old Town Road,04468,44.9694003,-68.7265882
392,Kirkland Road,04468,44.9225426,-68.7075129
412,Kirkland Road,04468,44.9236406,-68.7091925
412,Poplar Street,04468,44.9393377,-68.7499887
418,Stillwater Avenue,04468,44.9289646,-68.6630831
422,Stillwater Avenue,04468,44.9288932,-68.6632989
434,Stillwater Avenue,04468,44.9285249,-68.6635608
440,Stillwater Avenue,04468,44.9283595,-68.6639420
468,Poplar Street,04468,44.9418184,-68.7544332
472,Stillwater Avenue,04468,44.9278503,-68.6652755
480,Stillwater Avenue,04468,44.9276531,-68.6655744
482,Stillwater Avenue,04468,44.9275993,-68.6656444
486,Stillwater Avenue,04468,44.9275008,-68.6657971
492,Stillwater Avenue,04468,44.9274022,-68.6659434
494,Kirkland Road,04468,44.9279346,-68.7145628
496,Stillwater Avenue,04468,44.9273036,-68.6660960
498,Stillwater Avenue,04468,44.9272543,-68.6661660
500,Stillwater Avenue,04468,44.9272050,-68.6662423
570,Bennoch Road,04468,44.9170842,-68.6926284
594,Stillwater Avenue,04468,44.9248552,-68.6692527
614,Stillwater Avenue,04468,44.9243263,-68.6700350
614,West Old Town Road,04468,44.9809952,-68.7422228
630,College Avenue,04468,44.9132524,-68.6758310
632,College Avenue,04468,44.9132106,-68.6769651
710,West Old Town Road,04468,44.9849262,-68.7490168
726,Kirkland Road,04468,44.9396021,-68.7297272
767,Main Street,04468,44.9186767,-68.6399634
744,Stillwater Avenue,04468,44.9208908,-68.6743056
746,Kirkland Road,04468,44.9407130,-68.7312493
776,Main Street,04468,44.9185579,-68.6393940
778,College Avenue,04468,44.9205047,-68.6826576
788,Main Street,04468,44.9181565,-68.6391305
834,Bennoch Road,04468,44.9263146,-68.6938400
858,Bennoch Road,04468,44.9270443,-68.6940515
868,Kirkland Road,04468,44.9467582,-68.7391564
900,Main Street,04468,44.9142133,-68.6390348
1,Meadow Lane,04468,44.9281169,-68.6520760
1,Meadow Lane,04468,44.9278466,-68.6519826
1,Meadow Lane,04468,44.9280420,-68.6526087
1,Meadow Lane,04468,44.9278213,-68.6525340
1,Meadow Lane,04468,44.9273751,-68.6523529
1,Meadow Lane,04468,44.9274012,-68.6520676
1,Meadow Lane,04468,44.9274675,-68.6516491
1,Meadow Lane,04468,44.9276322,-68.6510462
5,Billy Jo Court,04468,44.9098829,-68.6475432
5,Doberman Drive,04468,44.9203922,-68.6941945
5,Heald Street,04468,44.9327622,-68.6419602
5,Wicketts Lane,04468,44.9293606,-68.7271077
15,Abbott Street,04468,44.9288639,-68.6625007
19,Colonial Drive,04468,44.9197266,-68.7064185
17,Airport Road,04468,44.9449620,-68.6757984
17,High Street,04468,44.9369752,-68.6506791
33,Youngs Lane,04468,44.9254098,-68.6971711
37,Taylor Road,04468,44.9110534,-68.6418416
39,Lonnie Loop,04468,44.9101850,-68.6419357
45,Karen Circle,04468,44.9098352,-68.6437747
47,Colonial Drive,04468,44.9184187,-68.7089338
61,Sanford Avenue,04468,44.9278609,-68.6673536
67,Woodland Avenue,04468,44.9460852,-68.7979698
73,Airport Road,04468,44.9476343,-68.6722022
79,Sanford Avenue,04468,44.9274127,-68.6680088
85,West Old Town Road,04468,44.9575833,-68.7024283
87,Airport Road,04468,44.9480720,-68.6710082
89,Eaton Street,04468,44.9279227,-68.6489092
97,Bosworth Street,04468,44.9341447,-68.6407286
97,Taylor Road,04468,44.9106080,-68.6447961
165,Main Street,04468,44.9388717,-68.6482721
221,Water Street,04468,44.9290930,-68.6431298
253,Main Street,04468,44.9358463,-68.6465796
273,Main Street,04468,44.9352195,-68.6461906
1317,Bennoch Road,04468,44.9421145,-68.6977360
1002,Bennoch Road,04468,44.9318762,-68.6966112
1203,Bennoch Road,04468,44.9389504,-68.6960733
12,Jameson Street,04468,44.9180903,-68.6381173
1816,Bennoch Road,04468,44.9578429,-68.6984522
21,Sanford Avenue,04468,44.9288513,-68.6658969
200,Lincoln Street,04468,44.9280550,-68.6614093
13,Karen Circle,04468,44.9102397,-68.6435822
1256,Bennoch Road,04468,44.9398756,-68.6987174
1148,Bennoch Road,04468,44.9369981,-68.6965145
1097,Bennoch Road,04468,44.9353015,-68.6949202
1014,Bennoch Road,04468,44.9323588,-68.6952716
200,Taylor Road,04468,44.9087691,-68.6498239
16,Sullivan Drive,04468,44.9262455,-68.6949491
19,Wicketts Lane,04468,44.9303079,-68.7279966
128,Kirkland Road,04468,44.9173033,-68.6971376
220,Kirkland Road,04468,44.9172032,-68.7018639
11,Hycrest Lane,04468,44.9137961,-68.6770758
20,Whistle Way,04468,44.9251182,-68.6730589
17,Hazel Street,04468,44.9213226,-68.6953870
1053,Bennoch Road,04468,44.9337841,-68.6947255
105,Kirkland Road,04468,44.9176828,-68.6959700
1032,Bennoch Road,04468,44.9331468,-68.6988033
1411,Kirkland Road,04468,44.9762011,-68.7715920
121,Stillwater Avenue,04468,44.9362938,-68.6530785
106,Kirkland Road,04468,44.9170755,-68.6960936
22,Doberman Drive,04468,44.9197213,-68.6958072
18,Littlefield Lane,04468,44.9373348,-68.6978688
18,Lonnie Loop,04468,44.9097611,-68.6416976
154,Center Street,04468,44.9341285,-68.6471097
194,Poplar Street,04468,44.9288882,-68.7367852
116,Kirkland Road,04468,44.9172074,-68.6965997
1360,Bennoch Road,04468,44.9427872,-68.7001978
15,Sanford Avenue,04468,44.9289767,-68.6656745
166,Poplar Street,04468,44.9288871,-68.7343648
19,Karen Circle,04468,44.9100325,-68.6435328
1120,Stillwater Avenue,04468,44.9109691,-68.6850347
20,Batchelder Drive,04468,44.9423155,-68.6633852
12,Doberman Drive,04468,44.9200064,-68.6946971
174,Poplar Street,04468,44.9286638,-68.7351388
1480,Bennoch Road,04468,44.9471231,-68.7024824
16,Lonnie Loop,04468,44.9098138,-68.6412793
1074,Bennoch Road,04468,44.9344626,-68.6959449
11,Lonnie Loop,04468,44.9103817,-68.6415101
226,Kirkland Road,04468,44.9185615,-68.7014578
202,Poplar Street,04468,44.9281864,-68.7388983
186,Poplar Street,04468,44.9288050,-68.7358542
174,Lincoln Street,04468,44.9282580,-68.6600776
1710,Bennoch Road,04468,44.9541133,-68.6990803
10,Whistle Way,04468,44.9241341,-68.6736094
191,Woodland Avenue,04468,44.9435562,-68.7932824
230,Poplar Street,04468,44.9287143,-68.7414303
140,Kirkland Road,04468,44.9173773,-68.6978911
1133,Bennoch Road,04468,44.9366738,-68.6947418
1488,Bennoch Road,04468,44.9480149,-68.7026932
23,Youngs Lane,04468,44.9255462,-68.6959919
13,Sibley Road,04468,44.9246472,-68.6947865
1200,Bennoch Road,04468,44.9386149,-68.6968355
323,Poplar Street,04468,44.9344221,-68.7456947
329,Poplar Street,04468,44.9348860,-68.7458320
333,Southgate Road,04468,44.9869691,-68.6646652
355,Main Street,04468,44.9326234,-68.6450596
363,Poplar Street,04468,44.9370621,-68.7467730
373,Stillwater Avenue,04468,44.9303475,-68.6619091
373,Poplar Street,04468,44.9378954,-68.7470228
377,Stillwater Avenue,04468,44.9302489,-68.6620808
379,Kirkland Road,04468,44.9225084,-68.7064994
385,Poplar Street,04468,44.9386575,-68.7476659
389,Stillwater Avenue,04468,44.9300209,-68.6626080
391,Poplar Street,04468,44.9390499,-68.7480507
395,West Old Town Road,04468,44.9710798,-68.7268592
399,Main Street,04468,44.9310198,-68.6446703
409,Stillwater Avenue,04468,44.9295594,-68.6633140
419,Poplar Street,04468,44.9403419,-68.7501808
425,Stillwater Avenue,04468,44.9290794,-68.6638427
451,Stillwater Avenue,04468,44.9284923,-68.6647269
455,Kirkland Road,04468,44.9267367,-68.7107355
463,Kirkland Road,04468,44.9291686,-68.7094815
479,Stillwater Avenue,04468,44.9278248,-68.6657889
487,Stillwater Avenue,04468,44.9277173,-68.6659796
517,Kirkland Road,04468,44.9291573,-68.7139422
519,Stillwater Avenue,04468,44.9268973,-68.6672451
525,Kirkland Road,04468,44.9299973,-68.7150595
525,Stillwater Avenue,04468,44.9267763,-68.6673979
535,Stillwater Avenue,04468,44.9265253,-68.6677732
543,Stillwater Avenue,04468,44.9263504,-68.6679959
565,Stillwater Avenue,04468,44.9258938,-68.6688476
575,Stillwater Avenue,04468,44.9256069,-68.6692610
585,Stillwater Avenue,04468,44.9254599,-68.6697814
601,Stillwater Avenue,04468,44.9253175,-68.6703461
605,College Avenue,04468,44.9104980,-68.6774807
615,College Avenue,04468,44.9111726,-68.6772995
619,College Avenue,04468,44.9116040,-68.6770438
621,Stillwater Avenue,04468,44.9245359,-68.6709144
625,College Avenue,04468,44.9122653,-68.6769260
625,Kirkland Road,04468,44.9359679,-68.7232996
629,Stillwater Avenue,04468,44.9245098,-68.6712314
637,Kirkland Road,04468,44.9365010,-68.7241209
639,College Avenue,04468,44.9132954,-68.6782822
643,College Avenue,04468,44.9137106,-68.6786979
647,College Avenue,04468,44.9138201,-68.6792041
649,Stillwater Avenue,04468,44.9240082,-68.6721085
651,College Avenue,04468,44.9140654,-68.6800135
659,College Avenue,04468,44.9140801,-68.6804315
665,Stillwater Avenue,04468,44.9237116,-68.6722560
687,Stillwater Avenue,04468,44.9228950,-68.6731666
695,Bennoch Road,04468,44.9215017,-68.6933777
695,Stillwater Avenue,04468,44.9227787,-68.6734016
705,Stillwater Avenue,04468,44.9225638,-68.6738147
715,College Avenue,04468,44.9147793,-68.6842284
737,Kirkland Road,04468,44.9410153,-68.7296635
751,Stillwater Avenue,04468,44.9214614,-68.6754997
755,Main Street,04468,44.9190736,-68.6401954
761,Main Street,04468,44.9188435,-68.6400384
767,Stillwater Avenue,04468,44.9210804,-68.6760594
777,Kirkland Road,04468,44.9432815,-68.7325112
777,Main Street,04468,44.9182708,-68.6396936
779,Stillwater Avenue,04468,44.9208071,-68.6765361
791,Bennoch Road,04468,44.9248998,-68.6932836
791,Main Street,04468,44.9178525,-68.6397849
799,Main Street,04468,44.9175723,-68.6394129
821,Main Street,04468,44.9169414,-68.6391761
825,College Avenue,04468,44.9224141,-68.6846174
829,Main Street,04468,44.9166086,-68.6392922
835,Bennoch Road,04468,44.9264208,-68.6931678
839,Kirkland Road,04468,44.9462547,-68.7355270
841,Main Street,04468,44.9162128,-68.6393580
851,Main Street,04468,44.9157850,-68.6393037
853,Main Street,04468,44.9156187,-68.6393871
855,Kirkland Road,04468,44.9467368,-68.7376860
855,Main Street,04468,44.9154617,-68.6395528
867,Bennoch Road,04468,44.9275594,-68.6931174
871,Main Street,04468,44.9152452,-68.6394211
885,Main Street,04468,44.9148290,-68.6401775
889,Bennoch Road,04468,44.9283255,-68.6934492
921,Main Street,04468,44.9135003,-68.6398691
280,Kirkland Road,04468,44.9190842,-68.7051484
309,Poplar Street,04468,44.9337988,-68.7447153
256,Poplar Street,04468,44.9298989,-68.7438011
248,Fourth Street,04468,44.9369817,-68.6513317
315,Stillwater Avenue,04468,44.9316380,-68.6599689
27,Sanford Avenue,04468,44.9287125,-68.6661132
31,Benjamin Drive,04468,44.9233114,-68.6968526
283,Kirkland Road,04468,44.9198402,-68.7033517
245,Kirkland Road,04468,44.9193777,-68.7020491
291,Woodland Avenue,04468,44.9411386,-68.7904962
242,Poplar Street,04468,44.9292915,-68.7419093
285,Woodland Avenue,04468,44.9412646,-68.7904894
27,Colonial Drive,04468,44.9192641,-68.7068326
268,West Old Town Road,04468,44.9648837,-68.7183232
301,Stillwater Avenue,04468,44.9333362,-68.6604278
263,Stillwater Avenue,04468,44.9336193,-68.6587533
318,Poplar Street,04468,44.9337572,-68.7462616
30,Free Street,04468,44.9098114,-68.6846926
317,Poplar Street,04468,44.9340614,-68.7453985
335,Southgate Road,04468,44.9871512,-68.6638206
616,College Avenue,04468,44.9115333,-68.6759167
620,College Avenue,04468,44.9120199,-68.6760913
622,College Avenue,04468,44.9122993,-68.6762037
626,College Avenue,04468,44.9126149,-68.6764047
628,College Avenue,04468,44.9129005,-68.6755353
627,College Avenue,04468,44.9127376,-68.6784056
634,College Avenue,04468,44.9134182,-68.6771413
636,College Avenue,04468,44.9136395,-68.6774251
642,College Avenue,04468,44.9140240,-68.6781007
646,College Avenue,04468,44.9142140,-68.6784481
12,Hycrest Lane,04468,44.9143182,-68.6770792
725,College Avenue,04468,44.9161185,-68.6851142
731,College Avenue,04468,44.9164206,-68.6853090
735,College Avenue,04468,44.9167403,-68.6853389
745,College Avenue,04468,44.9171857,-68.6852478
751,College Avenue,04468,44.9177216,-68.6853652
755,College Avenue,04468,44.9180315,-68.6851355
120,Main Street,04468,44.9397900,-68.6497558
71,Airport Road,04468,44.9475628,-68.6723611
22,Wood Street,04468,44.9387052,-68.6497560
52,Water Street,04468,44.9347701,-68.6449957
14,Garland Street,04468,44.9185052,-68.6383871
739,Main Street,04468,44.9195920,-68.6404455
859,Main Street,04468,44.9155172,-68.6400339
339,Stillwater Avenue,04468,44.9310957,-68.6607388
5,Annbar Drive,04468,44.9288777,-68.6641354
62,Sanford Avenue,04468,44.9275624,-68.6668865
34,Sanford Avenue,04468,44.9282754,-68.6659700
799,Stillwater Avenue,04468,44.9204631,-68.6774186
50,Pembroke Drive,04468,44.9251621,-68.6742244
777,Stillwater Avenue,04468,44.9210138,-68.6764082
622,Bennoch Road,04468,44.9191397,-68.6937641
684,Bennoch Road,04468,44.9210263,-68.6940138
825,Bennoch Road,04468,44.9260233,-68.6926314
60,Littlefield Lane,04468,44.9366976,-68.7020292
330,Kirkland Road,04468,44.9206489,-68.7062618
342,Kirkland Road,04468,44.9210412,-68.7065322
434,Kirkland Road,04468,44.9244759,-68.7102274
489,Kirkland Road,04468,44.9284542,-68.7135338
407,Kirkland Road,04468,44.9249269,-68.7053023
583,Kirkland Road,04468,44.9338599,-68.7189755
591,Kirkland Road,04468,44.9332373,-68.7202268
545,Kirkland Road,04468,44.9309886,-68.7172913
736,Kirkland Road,04468,44.9396127,-68.7303989
65,Poplar Street,04468,44.9313464,-68.7255902
35,Poplar Street,04468,44.9313884,-68.7224979
98,Poplar Street,04468,44.9280421,-68.7272533
881,Poplar Street,04468,44.9429670,-68.7910220
81,Woodland Avenue,04468,44.9458275,-68.7973179
157,Woodland Avenue,04468,44.9441078,-68.7946367
505,Woodland Avenue,04468,44.9360178,-68.7887722
1235,Main Street,04473,44.9043675,-68.6470259
1207,Main Street,04468,44.9051700,-68.6460139
1220,Main Street,04473,44.9039156,-68.6464333
1245,Main Street,04473,44.9041702,-68.6472551
1199,Main Street,04468,44.9052777,-68.6458929
1219,Main Street,04473,44.9048427,-68.6463959
1229,Main Street,04473,44.9045827,-68.6467459
1213,Main Street,04473,44.9050401,-68.6462174
500,College Avenue,04468,44.9104270,-68.6762649
24,Littlefield Lane,04468,44.9372110,-68.6987060
32,Littlefield Lane,04468,44.9370829,-68.6996255
42,Littlefield Lane,04468,44.9369424,-68.7009950
45,Littlefield Lane,04468,44.9374201,-68.7012080
35,Littlefield Lane,04468,44.9375523,-68.7001427
17,Littlefield Lane,04468,44.9378344,-68.6978535
70,Littlefield Lane,04468,44.9370035,-68.7019643
65,Littlefield Lane,04468,44.9371654,-68.7019254
1073,Bennoch Road,04468,44.9342470,-68.6944632
1085,Bennoch Road,04468,44.9347290,-68.6945874
994,Bennoch Road,04468,44.9316744,-68.6951865
1001,Bennoch Road,04468,44.9321318,-68.6945568
55,Marthas Way,04468,44.9113471,-68.6436450
61,Marthas Way,04468,44.9114207,-68.6441386
60,Marthas Way,04468,44.9110282,-68.6438624
38,Lonnie Loop,04468,44.9097352,-68.6420335
52,Lonnie Loop,04468,44.9106103,-68.6426551
48,Lonnie Loop,04468,44.9104436,-68.6425802
50,Karen Circle,04468,44.9099951,-68.6445465
40,Karen Circle,04468,44.9094545,-68.6443978
26,Karen Circle,04468,44.9096618,-68.6430347
54,Karen Circle,04468,44.9101799,-68.6446150
62,Karen Circle,04468,44.9103510,-68.6446583
65,Karen Circle,04468,44.9103769,-68.6442844
16,Chapman Street,04468,44.9365820,-68.6428997
16,Chapman Street,04468,44.9365553,-68.6429759
16,Chapman Street,04468,44.9365420,-68.6430520
16,Chapman Street,04468,44.9365153,-68.6431409
16,Chapman Street,04468,44.9364212,-68.6432999
16,Chapman Street,04468,44.9363764,-68.6433445
16,Chapman Street,04468,44.9363360,-68.6434018
16,Chapman Street,04468,44.9362822,-68.6434465
11,River Street,04468,44.9343671,-68.6427740
7,Union Street,04468,44.9339496,-68.6416867
12,Union Street,04468,44.9342143,-68.6414189
82,Sewall Drive,04468,44.9442661,-68.6624105
78,Gilman Falls Avenue,04468,44.9409951,-68.6628416
24,Wood Street,04468,44.9386559,-68.6498070
157,Main Street,04468,44.9389982,-68.6484361
159,Main Street,04468,44.9389350,-68.6483541
250,Fourth Street,04468,44.9369320,-68.6512940
325,Stillwater Avenue,04468,44.9314407,-68.6602299
351,Stillwater Avenue,04468,44.9308494,-68.6611711
357,Stillwater Avenue,04468,44.9307195,-68.6613747
361,Stillwater Avenue,04468,44.9305985,-68.6615718
367,Stillwater Avenue,04468,44.9304819,-68.6617119
393,Stillwater Avenue,04468,44.9298815,-68.6626405
397,Stillwater Avenue,04468,44.9297380,-68.6628187
405,Stillwater Avenue,04468,44.9295767,-68.6630668
11,Abbott Street,04468,44.9291034,-68.6628288
19,Abbott Street,04468,44.9287689,-68.6623429
29,Abbott Street,04468,44.9285522,-68.6621351
33,Abbott Street,04468,44.9283445,-68.6619018
194,Lincoln Street,04468,44.9281485,-68.6610793
188,Lincoln Street,04468,44.9281970,-68.6607432
160,Lincoln Street,04468,44.9283143,-68.6593296
88,Oak Street,04468,44.9323734,-68.6515751
30,Bradbury Street,04468,44.9321235,-68.6479014
46,Bradbury Street,04468,44.9314655,-68.6476203
3,Meadow Lane,04468,44.9273710,-68.6524797
3,Meadow Lane,04468,44.9274761,-68.6515096
4,Meadow Lane,04468,44.9273622,-68.6525367
4,Meadow Lane,04468,44.9274849,-68.6514462
85,Pine Street,04468,44.9287540,-68.6484732
18,North Tiery Street,04468,44.9272361,-68.6495723
559,Main Street,04468,44.9254757,-68.6435957
614,Main Street,04468,44.9238372,-68.6421106
108,Bowdoin Avenue,04468,44.9197586,-68.6462411
415,Stillwater Avenue,04468,44.9293621,-68.6635559
421,Stillwater Avenue,04468,44.9292003,-68.6636519
428,Stillwater Avenue,04468,44.9287542,-68.6634771
445,Stillwater Avenue,04468,44.9286581,-68.6644788
463,Stillwater Avenue,04468,44.9282460,-68.6651465
469,Stillwater Avenue,04468,44.9281251,-68.6653626
475,Stillwater Avenue,04468,44.9279817,-68.6655598
495,Stillwater Avenue,04468,44.9274799,-68.6663548
515,Stillwater Avenue,04468,44.9272110,-68.6667745
517,Stillwater Avenue,04468,44.9270767,-68.6670224
19,Annbar Drive,04468,44.9292525,-68.6645577
21,Annbar Drive,04468,44.9295284,-68.6649996
16,Lee Lane,04468,44.9277555,-68.6667333
23,Lee Lane,04468,44.9279931,-68.6663835
9,Sanford Avenue,04468,44.9290886,-68.6654520
33,Sanford Avenue,04468,44.9285601,-68.6663612
39,Sanford Avenue,04468,44.9284257,-68.6665774
40,Sanford Avenue,04468,44.9281590,-68.6661797
45,Sanford Avenue,04468,44.9282372,-68.6667559
66,Sanford Avenue,04468,44.9274686,-68.6671278
69,Sanford Avenue,04468,44.9277085,-68.6675763
74,Sanford Avenue,04468,44.9273478,-68.6673693
78,Sanford Avenue,04468,44.9272089,-68.6675982
86,Sanford Avenue,04468,44.9270476,-68.6678399
555,Stillwater Avenue,04468,44.9261133,-68.6684915
773,Main Street,04468,44.9185052,-68.6397935
775,Main Street,04468,44.9183835,-68.6397562
2,Garland Street,04468,44.9183955,-68.6392620
18,Jameson Street,04468,44.9182457,-68.6374385
6,Jameson Street,04468,44.9179801,-68.6388465
811,Main Street,04468,44.9172249,-68.6391807
824,Main Street,04468,44.9168359,-68.6385686
830,Main Street,04468,44.9166019,-68.6385828
849,Main Street,04468,44.9159379,-68.6392584
881,Main Street,04468,44.9149803,-68.6396255
901,Main Street,04468,44.9143072,-68.6402821
907,Main Street,04468,44.9139593,-68.6398472
916,Main Street,04468,44.9136922,-68.6393548
937,Main Street,04468,44.9129334,-68.6399423
929,Main Street,04468,44.9132122,-68.6398835
5,Marshall Street,04468,44.9128138,-68.6405701
21,University Park Road,04468,44.9112191,-68.6746389
27,University Park Road,04468,44.9113072,-68.6739670
8,Massachusetts Street,04468,44.9119916,-68.6740645
15,Massachusetts Street,04468,44.9125212,-68.6735421
17,Massachusetts Street,04468,44.9126568,-68.6737440
23,Massachusetts Street,04468,44.9130575,-68.6737734
25,Massachusetts Street,04468,44.9132190,-68.6735951
29,Massachusetts Street,04468,44.9135745,-68.6735678
31,Massachusetts Street,04468,44.9137505,-68.6737062
15,New Hampshire Street,04468,44.9121622,-68.6723343
21,New Hampshire Street,04468,44.9122282,-68.6718018
12,Rhode Island Street,04468,44.9127320,-68.6717039
16,Rhode Island Street,04468,44.9129035,-68.6718613
22,Rhode Island Street,04468,44.9134160,-68.6716494
28,Rhode Island Street,04468,44.9138482,-68.6716786
32,Rhode Island Street,04468,44.9139973,-68.6718804
5,Connecticut Street,04468,44.9126350,-68.6724139
6,Connecticut Street,04468,44.9126636,-68.6729585
7,Connecticut Street,04468,44.9128020,-68.6725523
8,Connecticut Street,04468,44.9128395,-68.6731032
13,Connecticut Street,04468,44.9131305,-68.6725251
14,Connecticut Street,04468,44.9131995,-68.6730632
15,Connecticut Street,04468,44.9132920,-68.6723469
16,Connecticut Street,04468,44.9133566,-68.6728976
19,Connecticut Street,04468,44.9136610,-68.6723194
22,Connecticut Street,04468,44.9136896,-68.6728640
23,Connecticut Street,04468,44.9138279,-68.6724642
24,Connecticut Street,04468,44.9138655,-68.6730150
613,Stillwater Avenue,04468,44.9247556,-68.6706091
637,Stillwater Avenue,04468,44.9243844,-68.6714412
643,Stillwater Avenue,04468,44.9241651,-68.6718606
679,Stillwater Avenue,04468,44.9232953,-68.6730566
701,Stillwater Avenue,04468,44.9226308,-68.6736432
719,Stillwater Avenue,04468,44.9222366,-68.6742917
735,Stillwater Avenue,04468,44.9219280,-68.6749840
289,West Old Town Road,04468,44.9688092,-68.7167442
479,West Old Town Road,04468,44.9749263,-68.7317934
497,West Old Town Road,04468,44.9759927,-68.7316426
580,West Old Town Road,04468,44.9778577,-68.7401315
590,West Old Town Road,04468,44.9800876,-68.7409712
59,West Coiley Road,04468,44.9627974,-68.7084115
31,Kirkland Road,04468,44.9165804,-68.6927388
46,Kirkland Road,04468,44.9162633,-68.6936653
56,Kirkland Road,04468,44.9158538,-68.6936992
63,Kirkland Road,04468,44.9169935,-68.6940605
68,Kirkland Road,04468,44.9165403,-68.6945697
79,Kirkland Road,04468,44.9171799,-68.6947184
88,Kirkland Road,04468,44.9167575,-68.6949930
89,Kirkland Road,04468,44.9172486,-68.6951614
97,Kirkland Road,04468,44.9174117,-68.6955787
102,Kirkland Road,04468,44.9154312,-68.6955448
121,Kirkland Road,04468,44.9177338,-68.6965462
158,Kirkland Road,04468,44.9177390,-68.6984910
240,Kirkland Road,04468,44.9186986,-68.7022553
294,Kirkland Road,04468,44.9198878,-68.7043588
15,Colonial Drive,04468,44.9200086,-68.7058152
23,Colonial Drive,04468,44.9201066,-68.7071578
26,Colonial Drive,04468,44.9186865,-68.7062844
34,Colonial Drive,04468,44.9183320,-68.7066790
35,Colonial Drive,04468,44.9188793,-68.7077532
36,Colonial Drive,04468,44.9176828,-68.7062832
40,Colonial Drive,04468,44.9179463,-68.7072258
41,Colonial Drive,04468,44.9183757,-68.7079521
46,Colonial Drive,04468,44.9174528,-68.7078491
311,Kirkland Road,04468,44.9207116,-68.7044052
320,Kirkland Road,04468,44.9205111,-68.7051981
343,Kirkland Road,04468,44.9215688,-68.7051611
376,Kirkland Road,04468,44.9217675,-68.7071747
385,Kirkland Road,04468,44.9228563,-68.7069918
401,Kirkland Road,04468,44.9238956,-68.7050605
404,Kirkland Road,04468,44.9229034,-68.7095764
440,Kirkland Road,04468,44.9248865,-68.7106308
446,Kirkland Road,04468,44.9245931,-68.7120578
458,Kirkland Road,04468,44.9259926,-68.7119304
461,Kirkland Road,04468,44.9268380,-68.7116411
465,Kirkland Road,04468,44.9290242,-68.7093364
478,Kirkland Road,04468,44.9269781,-68.7136552
481,Kirkland Road,04468,44.9277233,-68.7128785
485,Kirkland Road,04468,44.9279765,-68.7133334
488,Kirkland Road,04468,44.9275460,-68.7139438
507,Kirkland Road,04468,44.9286445,-68.7140714
514,Kirkland Road,04468,44.9288620,-68.7164274
533,Kirkland Road,04468,44.9307324,-68.7156135
538,Kirkland Road,04468,44.9301787,-68.7174094
560,Kirkland Road,04468,44.9313747,-68.7187215
578,Kirkland Road,04468,44.9324176,-68.7200090
611,Kirkland Road,04468,44.9343205,-68.7214192
621,Kirkland Road,04468,44.9360100,-68.7220701
643,Kirkland Road,04468,44.9367903,-68.7246011
647,Kirkland Road,04468,44.9371014,-68.7248341
653,Kirkland Road,04468,44.9374123,-68.7249847
756,Kirkland Road,04468,44.9410085,-68.7325281
802,Kirkland Road,04468,44.9434009,-68.7354703
836,Kirkland Road,04468,44.9448810,-68.7370924
861,Kirkland Road,04468,44.9470303,-68.7381157
1050,Kirkland Road,04468,44.9554587,-68.7513006
1350,Kirkland Road,04468,44.9723823,-68.7705989
1364,Kirkland Road,04468,44.9729456,-68.7709391
1440,Kirkland Road,04468,44.9776913,-68.7740529
43,Poplar Street,04468,44.9312323,-68.7230562
61,Poplar Street,04468,44.9305748,-68.7247892
64,Poplar Street,04468,44.9300385,-68.7244876
96,Poplar Street,04468,44.9289059,-68.7270592
27,Wicketts Lane,04468,44.9308754,-68.7281270
35,Wicketts Lane,04468,44.9309951,-68.7292860
108,Poplar Street,04468,44.9287207,-68.7286694
119,Poplar Street,04468,44.9295422,-68.7296603
122,Poplar Street,04468,44.9288634,-68.7300183
131,Poplar Street,04468,44.9297259,-68.7312182
152,Poplar Street,04468,44.9285553,-68.7329787
222,Poplar Street,04468,44.9289225,-68.7399911
268,Poplar Street,04468,44.9309030,-68.7439677
282,Poplar Street,04468,44.9319984,-68.7447296
294,Poplar Street,04468,44.9324265,-68.7449304
296,Poplar Street,04468,44.9327340,-68.7455881
303,Poplar Street,04468,44.9332590,-68.7448697
312,Poplar Street,04468,44.9332980,-68.7462129
328,Poplar Street,04468,44.9344197,-68.7466072
335,Poplar Street,04468,44.9352016,-68.7460334
341,Poplar Street,04468,44.9356746,-68.7462151
344,Poplar Street,04468,44.9355145,-68.7470903
348,Poplar Street,04468,44.9358974,-68.7472534
357,Poplar Street,04468,44.9366746,-68.7465909
358,Poplar Street,04468,44.9365238,-68.7475928
366,Poplar Street,04468,44.9369021,-68.7476736
367,Poplar Street,04468,44.9375214,-68.7468470
372,Poplar Street,04468,44.9375506,-68.7478672
384,Poplar Street,04468,44.9379345,-68.7484612
390,Poplar Street,04468,44.9384979,-68.7487819
397,Poplar Street,04468,44.9393078,-68.7486643
402,Poplar Street,04468,44.9388735,-68.7497309
405,Poplar Street,04468,44.9396825,-68.7491887
411,Poplar Street,04468,44.9399988,-68.7497133
420,Poplar Street,04468,44.9398387,-68.7506202
428,Poplar Street,04468,44.9402545,-68.7513979
459,Poplar Street,04468,44.9419684,-68.7530193
496,Poplar Street,04468,44.9425201,-68.7563378
15,Woodland Avenue,04468,44.9465073,-68.7999584
85,Woodland Avenue,04468,44.9457327,-68.7971661
100,Woodland Avenue,04468,44.9463336,-68.7959217
185,Woodland Avenue,04468,44.9437409,-68.7933895
208,Woodland Avenue,04468,44.9435358,-68.7919325
221,Woodland Avenue,04468,44.9428703,-68.7923215
229,Woodland Avenue,04468,44.9427212,-68.7919925
271,Woodland Avenue,04468,44.9416251,-68.7907163
453,Woodland Avenue,04468,44.9373304,-68.7878992
477,Woodland Avenue,04468,44.9368944,-68.7882113
545,Woodland Avenue,04468,44.9346586,-68.7888469
557,Woodland Avenue,04468,44.9343309,-68.7893170
573,Woodland Avenue,04468,44.9336686,-68.7889646
629,Woodland Avenue,04468,44.9321361,-68.7877853
637,Woodland Avenue,04468,44.9319068,-68.7879255
647,Woodland Avenue,04468,44.9316639,-68.7880531
689,Woodland Avenue,04468,44.9304189,-68.7890145
691,Woodland Avenue,04468,44.9302525,-68.7890658
697,Woodland Avenue,04468,44.9299512,-68.7892063
723,Woodland Avenue,04468,44.9289605,-68.7889311
773,Woodland Avenue,04468,44.9273440,-68.7886013
845,Woodland Avenue,04468,44.9254802,-68.7859788
58,Spring Street,04468,44.9125791,-68.6877940
540,Bennoch Road,04468,44.9163759,-68.6920240
636,Bennoch Road,04468,44.9193358,-68.6947006
648,Bennoch Road,04468,44.9198555,-68.6938046
656,Bennoch Road,04468,44.9200498,-68.6940633
700,Bennoch Road,04468,44.9216206,-68.6940550
18,Hazel Street,04468,44.9218731,-68.6958972
718,Bennoch Road,04468,44.9223091,-68.6940133
732,Bennoch Road,04468,44.9227682,-68.6939855
742,Bennoch Road,04468,44.9231552,-68.6939708
25,Benjamin Drive,04468,44.9233320,-68.6961049
758,Bennoch Road,04468,44.9237313,-68.6939361
776,Bennoch Road,04468,44.9242848,-68.6939078
771,Bennoch Road,04468,44.9242694,-68.6932173
788,Bennoch Road,04468,44.9247528,-68.6938673
10,Sibley Road,04468,44.9241783,-68.6944912
38,Sibley Road,04468,44.9238072,-68.6970971
800,Bennoch Road,04468,44.9251630,-68.6941059
803,Bennoch Road,04468,44.9254079,-68.6931035
15,Youngs Lane,04468,44.9256382,-68.6950791
18,Youngs Lane,04468,44.9251207,-68.6951071
26,Youngs Lane,04468,44.9249563,-68.6959126
38,Youngs Lane,04468,44.9244615,-68.6960230
60,Youngs Lane,04468,44.9245199,-68.6993869
61,Youngs Lane,04468,44.9250966,-68.6996056
71,Youngs Lane,04468,44.9248467,-68.7004052
820,Bennoch Road,04468,44.9258603,-68.6939565
13,Sullivan Drive,04468,44.9269158,-68.6948189
26,Sullivan Drive,04468,44.9261221,-68.6959318
27,Sullivan Drive,04468,44.9266807,-68.6961126
60,Sullivan Drive,04468,44.9261627,-68.6976360
857,Bennoch Road,04468,44.9271547,-68.6932400
883,Bennoch Road,04468,44.9281200,-68.6923668
914,Bennoch Road,04468,44.9290076,-68.6943769
1420,Bennoch Road,04468,44.9446201,-68.7023115
1716,Bennoch Road,04468,44.9551467,-68.6983966
1850,Bennoch Road,04468,44.9591862,-68.6975069
1989,Bennoch Road,04468,44.9635119,-68.6942255
2444,Bennoch Road,04468,44.9785077,-68.6936385
203,Stillwater Avenue,04468,44.9351058,-68.6572391
30,Franklin Street,04468,44.9094854,-68.6828004
141,Center Street,04468,44.9347212,-68.6467258
576,Stillwater Avenue,04468,44.9246086,-68.6653421
880,Main Street,04468,44.9158219,-68.6379362
9,Chester Street,04468,44.9320256,-68.6435839
24,Portland Street,04468,44.9183844,-68.6361984
601,College Avenue,04468,44.9102197,-68.6773275
20,Rhode Island Street,04468,44.9132542,-68.6718254
2711,Bennoch Road,04468,44.9955516,-68.7005731
45,Old Bennoch Road,04468,44.9924162,-68.7009230
31,Old Bennoch Road,04468,44.9924577,-68.6999854
37,Old Bennoch Road,04468,44.9928943,-68.7003237
39,Old Bennoch Road,04468,44.9930492,-68.7004455
21,Old Bennoch Road,04468,44.9920218,-68.6994413
2692,Bennoch Road,04468,44.9909265,-68.6980980
2670,Bennoch Road,04468,44.9882659,-68.6961252
2,Southgate Road,04468,44.9859073,-68.6944765
7,Southgate Road,04468,44.9854049,-68.6938390
2623,Bennoch Road,04468,44.9847161,-68.6939041
2623,Bennoch Road,04468,44.9840680,-68.6940277
2600,Bennoch Road,04468,44.9838922,-68.6945942
2588,Bennoch Road,04468,44.9835534,-68.6939257
2573,Bennoch Road,04468,44.9829309,-68.6936774
2564,Bennoch Road,04468,44.9826692,-68.6943744
2528,Bennoch Road,04468,44.9814245,-68.6941439
2508,Bennoch Road,04468,44.9808097,-68.6939679
2454,Bennoch Road,04468,44.9788217,-68.6938172
2436,Bennoch Road,04468,44.9781991,-68.6942220
2437,Bennoch Road,04468,44.9787460,-68.6923016
2427,Bennoch Road,04468,44.9781159,-68.6925799
2422,Bennoch Road,04468,44.9777629,-68.6932001
2410,Bennoch Road,04468,44.9773426,-68.6930746
2409,Bennoch Road,04468,44.9775297,-68.6924490
2397,Bennoch Road,04468,44.9771088,-68.6921809
2390,Bennoch Road,04468,44.9767558,-68.6927229
2383,Bennoch Road,04468,44.9768562,-68.6918265
2378,Bennoch Road,04468,44.9763874,-68.6924182
2352,Bennoch Road,04468,44.9755192,-68.6919704
2345,Bennoch Road,04468,44.9754717,-68.6913930
2336,Bennoch Road,04468,44.9749884,-68.6920877
2337,Bennoch Road,04468,44.9751443,-68.6913107
2322,Bennoch Road,04468,44.9745353,-68.6919496
2323,Bennoch Road,04468,44.9746928,-68.6912173
2308,Bennoch Road,04468,44.9741042,-68.6919268
2305,Bennoch Road,04468,44.9740597,-68.6909318
2317,Bennoch Road,04468,44.9744662,-68.6911090
2300,Bennoch Road,04468,44.9738055,-68.6918563
2295,Bennoch Road,04468,44.9737421,-68.6910508
2294,Bennoch Road,04468,44.9736135,-68.6916998
2280,Bennoch Road,04468,44.9731479,-68.6915930
2277,Bennoch Road,04468,44.9730079,-68.6909873
2274,Bennoch Road,04468,44.9729200,-68.6917626
2267,Bennoch Road,04468,44.9727331,-68.6908653
2246,Bennoch Road,04468,44.9720485,-68.6920801
2241,Bennoch Road,04468,44.9717907,-68.6912483
2220,Bennoch Road,04468,44.9710099,-68.6926260
2191,Bennoch Road,04468,44.9703873,-68.6912129
2198,Bennoch Road,04468,44.9705241,-68.6929625
2187,Bennoch Road,04468,44.9698631,-68.6916899
2171,Bennoch Road,04468,44.9693887,-68.6920703
2168,Bennoch Road,04468,44.9690947,-68.6938606
2149,Bennoch Road,04468,44.9687719,-68.6926452
2126,Bennoch Road,04468,44.9683811,-68.6944401
2129,Bennoch Road,04468,44.9681597,-68.6929358
2120,Bennoch Road,04468,44.9677194,-68.6950155
2105,Bennoch Road,04468,44.9674572,-68.6926952
2090,Bennoch Road,04468,44.9670428,-68.6948692
2082,Bennoch Road,04468,44.9666482,-68.6946235
2069,Bennoch Road,04468,44.9661892,-68.6937454
2074,Bennoch Road,04468,44.9661472,-68.6956110
8,Southgate Road,04468,44.9862283,-68.6934752
13,Southgate Road,04468,44.9856335,-68.6931795
23,Southgate Road,04468,44.9857881,-68.6923369
29,Southgate Road,04468,44.9858864,-68.6917557
42,Southgate Road,04468,44.9869281,-68.6910719
50,Southgate Road,04468,44.9879380,-68.6906805
53,Southgate Road,04468,44.9859634,-68.6890240
45,Southgate Road,04468,44.9860806,-68.6902080
56,Southgate Road,04468,44.9867656,-68.6894518
63,Southgate Road,04468,44.9864715,-68.6885484
80,Southgate Road,04468,44.9871517,-68.6871977
77,Southgate Road,04468,44.9866695,-68.6871759
98,Southgate Road,04468,44.9871238,-68.6866035
106,Southgate Road,04468,44.9874884,-68.6846288
122,Southgate Road,04468,44.9883056,-68.6836929
130,Southgate Road,04468,44.9879098,-68.6824661
133,Southgate Road,04468,44.9874558,-68.6818980
141,Southgate Road,04468,44.9875612,-68.6811714
334,Southgate Road,04468,44.9887452,-68.6644923
331,Southgate Road,04468,44.9867654,-68.6657549
400,Southgate Road,04468,44.9899617,-68.6581308
240,Main Street,04468,44.9364733,-68.6463490
170,Main Street,04468,44.9386145,-68.6472796
151,Main Street,04468,44.9391624,-68.6487189
2,Wood Street,04468,44.9392772,-68.6491306
8,Wood Street,04468,44.9391174,-68.6492377
7,Stillwater Avenue,04468,44.9390114,-68.6489680
13,Stillwater Avenue,04468,44.9388371,-68.6491479
12,Wood Street,04468,44.9389972,-68.6494001
16,Wood Street,04468,44.9388816,-68.6495299
19,Stillwater Avenue,04468,44.9387610,-68.6493676
20,Wood Street,04468,44.9387587,-68.6495901
31,Stillwater Avenue,04468,44.9386218,-68.6494898
33,Stillwater Avenue,04468,44.9384973,-68.6497105
28,Wood Street,04468,44.9385791,-68.6498320
32,Wood Street,04468,44.9384847,-68.6499295
35,Stillwater Avenue,04468,44.9383809,-68.6498438
40,Wood Street,04468,44.9381740,-68.6501502
42,Stillwater Avenue,04468,44.9380048,-68.6497320
24,Stillwater Avenue,04468,44.9383349,-68.6491061
14,Stillwater Avenue,04468,44.9384682,-68.6489571
10,Stillwater Avenue,04468,44.9386380,-68.6487927
4,Stillwater Avenue,04468,44.9387651,-68.6486814
28,Stillwater Avenue,04468,44.9377622,-68.6490586
183,Main Street,04468,44.9378782,-68.6486191
150,Brunswick Street,04468,44.9359908,-68.6486897
150,Brunswick Street,04468,44.9360445,-68.6484647
46,Middle Street,04468,44.9353457,-68.6481077
174,Brunswick Street,04468,44.9349495,-68.6481245
178,Brunswick Street,04468,44.9347521,-68.6480313
190,Brunswick Street,04468,44.9344057,-68.6476633
149,Center Street,04468,44.9345589,-68.6470842
32,Shirley Street,04468,44.9355257,-68.6473491
28,Shirley Street,04468,44.9353753,-68.6472464
20,Shirley Street,04468,44.9351551,-68.6470048
173,Main Street,04468,44.9385037,-68.6481177
177,Main Street,04468,44.9383269,-68.6479417
183,Main Street,04468,44.9380099,-68.6480619
15,Goldsmith Lane,04468,44.9377366,-68.6481900
191,Main Street,04468,44.9378219,-68.6478296
12,Goldsmith Lane,04468,44.9372855,-68.6479884
205,Main Street,04468,44.9374168,-68.6475809
227,Main Street,04468,44.9366536,-68.6472847
241,Main Street,04468,44.9360879,-68.6468977
239,Main Street,04468,44.9362529,-68.6469919
259,Main Street,04468,44.9356558,-68.6465613
275,Main Street,04468,44.9351052,-68.6462595
283,Main Street,04468,44.9349088,-68.6461046
285,Main Street,04468,44.9348289,-68.6460097
109,Center Street,04468,44.9351653,-68.6455640
41,Center Street,04468,44.9353851,-68.6453838
44,Center Street,04468,44.9352291,-68.6447284
336,Main Street,04468,44.9332603,-68.6447659
330,Main Street,04468,44.9334712,-68.6447447
242,Brunswick Street,04468,44.9326672,-68.6464722
246,Brunswick Street,04468,44.9321423,-68.6466810
258,Brunswick Street,04468,44.9319754,-68.6466516
49,Willow Street,04468,44.9317118,-68.6466631
41,Willow Street,04468,44.9317234,-68.6463415
39,Willow Street,04468,44.9317298,-68.6461316
33,Willow Street,04468,44.9317612,-68.6459810
31,Willow Street,04468,44.9317868,-68.6457800
27,Willow Street,04468,44.9318089,-68.6456365
15,Willow Street,04468,44.9318501,-68.6454758
371,Main Street,04468,44.9319129,-68.6449920
365,Main Street,04468,44.9321689,-68.6451179
357,Main Street,04468,44.9324577,-68.6452288
353,Main Street,04468,44.9327931,-68.6453477
345,Main Street,04468,44.9334239,-68.6456826
319,Main Street,04468,44.9337208,-68.6456225
132,Center Street,04468,44.9344960,-68.6459510
136,Center Street,04468,44.9343092,-68.6462503
142,Center Street,04468,44.9343196,-68.6465755
10,Madden Court,04468,44.9341897,-68.6464550
12,Madden Court,04468,44.9340845,-68.6463631
156,Center Street,04468,44.9337084,-68.6467392
160,Center Street,04468,44.9340151,-68.6472217
164,Center Street,04468,44.9339618,-68.6474746
214,Brunswick Street,04468,44.9336803,-68.6472993
220,Brunswick Street,04468,44.9334787,-68.6471365
230,Brunswick Street,04468,44.9330193,-68.6468814
21,Shirley Street,04468,44.9349847,-68.6474029
26,Carroll Street,04468,44.9298941,-68.6457487
429,Main Street,04468,44.9299707,-68.6448361
425,Carroll Street,04468,44.9302189,-68.6451881
302,Brunswick Street,04468,44.9306074,-68.6463991
387,Main Street,04468,44.9314370,-68.6449662
290,Brunswick Street,04468,44.9310221,-68.6464372
284,Brunswick Street,04468,44.9312306,-68.6464929
10,Willow Street,04468,44.9316008,-68.6451466
14,Willow Street,04468,44.9315654,-68.6454497
20,Willow Street,04468,44.9314992,-68.6457620
22,Willow Street,04468,44.9314864,-68.6460432
50,Willow Street,04468,44.9314340,-68.6465706
390,Brunswick Street,04468,44.9275509,-68.6457550
398,Brunswick Street,04468,44.9272746,-68.6457061
21,Prentiss Street,04468,44.9272945,-68.6454071
19,Prentiss Street,04468,44.9273466,-68.6453101
15,Prentiss Street,04468,44.9273955,-68.6450735
501,Main Street,04468,44.9274519,-68.6445363
499,Main Street,04468,44.9276004,-68.6445406
491,Main Street,04468,44.9278100,-68.6447459
481,Main Street,04468,44.9281609,-68.6445619
12,Eaton Street,04468,44.9281356,-68.6448096
18,Eaton Street,04468,44.9281022,-68.6450717
22,Eaton Street,04468,44.9280502,-68.6452687
28,Eaton Street,04468,44.9279646,-68.6455111
34,Eaton Street,04468,44.9279616,-68.6457913
21,Eaton Street,04468,44.9283647,-68.6453672
13,Eaton Street,04468,44.9284154,-68.6449276
471,Main Street,04468,44.9284586,-68.6445604
467,Main Street,04468,44.9286088,-68.6448270
469,Main Street,04468,44.9285467,-68.6451606
461,Main Street,04468,44.9288600,-68.6445757
455,Main Street,04468,44.9290702,-68.6445073
12,Pine Street,04468,44.9290242,-68.6448698
20,Pine Street,04468,44.9289869,-68.6451541
26,Pine Street,04468,44.9289315,-68.6454926
30,Pine Street,04468,44.9289153,-68.6456916
350,Brunswick Street,04468,44.9288297,-68.6460399
358,Brunswick Street,04468,44.9286516,-68.6460187
364,Brunswick Street,04468,44.9284834,-68.6459184
368,Brunswick Street,04468,44.9282914,-68.6459016
342,Brunswick Street,04468,44.9292173,-68.6461206
27,Pine Street,04468,44.9291870,-68.6456902
21,Pine Street,04468,44.9293031,-68.6452167
11,Pine Street,04468,44.9293446,-68.6448874
445,Main Street,04468,44.9294248,-68.6445798
437,Main Street,04468,44.9297125,-68.6446177
18,Carroll Street,04468,44.9295688,-68.6451657
24,Carroll Street,04468,44.9295446,-68.6453892
28,Carroll Street,04468,44.9295412,-68.6456346
32,Carroll Street,04468,44.9295295,-68.6458392
334,Brunswick Street,04468,44.9294871,-68.6461298
440,Main Street,04468,44.9295323,-68.6440809
444,Main Street,04468,44.9294224,-68.6440468
446,Main Street,04468,44.9292823,-68.6440127
456,Main Street,04468,44.9291025,-68.6439976
460,Main Street,04468,44.9289467,-68.6439569
466,Main Street,04468,44.9287553,-68.6439078
478,Main Street,04468,44.9282537,-68.6440048
482,Main Street,04468,44.9279983,-68.6439595
488,Main Street,04468,44.9278529,-68.6440176
492,Main Street,04468,44.9277132,-68.6440260
496,Main Street,04468,44.9274951,-68.6439611
205,Water Street,04468,44.9295912,-68.6433631
438,Main Street,04468,44.9297361,-68.6438194
406,Main Street,04468,44.9309195,-68.6441870
13,Chester Street,04468,44.9314491,-68.6434285
380,Main Street,04468,44.9318624,-68.6443010
362,Main Street,04468,44.9324921,-68.6444044
358,Main Street,04468,44.9326491,-68.6446031
352,Main Street,04468,44.9330167,-68.6442594
354,Main Street,04468,44.9330244,-68.6445899
87,Main Street,04468,44.9399630,-68.6512573
50,Brunswick Street,04468,44.9388585,-68.6506963
58,Brunswick Street,04468,44.9386139,-68.6505142
107,Main Street,04468,44.9396317,-68.6504096
125,Main Street,04468,44.9394705,-68.6493382
9,Wood Street,04468,44.9391911,-68.6496615
21,Wood Street,04468,44.9388731,-68.6499774
27,Wood Street,04468,44.9386979,-68.6500638
66,Brunswick Street,04468,44.9383679,-68.6503743
516,Main Street,04468,44.9270283,-68.6438503
522,Main Street,04468,44.9268779,-68.6437634
534,Main Street,04468,44.9266627,-68.6436480
546,Main Street,04468,44.9265157,-68.6434735
552,Main Street,04468,44.9260943,-68.6433724
556,Main Street,04468,44.9258808,-68.6432517
560,Main Street,04468,44.9257099,-68.6431499
572,Main Street,04468,44.9253851,-68.6430093
580,Main Street,04468,44.9252017,-68.6429062
584,Main Street,04468,44.9250339,-68.6428010
586,Main Street,04468,44.9248102,-68.6427021
600,Main Street,04468,44.9243685,-68.6423573
622,Main Street,04468,44.9235467,-68.6419751
634,Main Street,04468,44.9231242,-68.6418227
642,Main Street,04468,44.9229249,-68.6417177
646,Main Street,04468,44.9227708,-68.6416180
650,Main Street,04468,44.9226431,-68.6415215
652,Main Street,04468,44.9224848,-68.6414262
666,Main Street,04468,44.9221783,-68.6412729
670,Main Street,04468,44.9220019,-68.6411366
676,Main Street,04468,44.9218269,-68.6410245
682,Main Street,04468,44.9216096,-68.6408797
504,Brunswick Street,04468,44.9236571,-68.6447937
47,Highland Avenue,04468,44.9232321,-68.6445811
43,Highland Avenue,04468,44.9232473,-68.6443701
37,Highland Avenue,04468,44.9233051,-68.6441156
25,Highland Avenue,04468,44.9233941,-68.6436016
21,Highland Avenue,04468,44.9234569,-68.6433193
17,Highland Avenue,04468,44.9234564,-68.6431217
11,Highland Avenue,04468,44.9234739,-68.6429069
619,Main Street,04468,44.9235287,-68.6425768
613,Main Street,04468,44.9236946,-68.6426902
605,Main Street,04468,44.9239058,-68.6428552
601,Main Street,04468,44.9240200,-68.6428464
591,Main Street,04468,44.9243423,-68.6431583
589,Main Street,04468,44.9244833,-68.6431266
18,Burnham Street,04468,44.9243673,-68.6437834
24,Burnham Street,04468,44.9243260,-68.6440552
28,Burnham Street,04468,44.9242957,-68.6442347
30,Burnham Street,04468,44.9242747,-68.6443850
36,Burnham Street,04468,44.9242506,-68.6446076
38,Burnham Street,04468,44.9242252,-68.6447536
486,Brunswick Street,04468,44.9242213,-68.6450081
41,Burnham Street,04468,44.9244849,-68.6449482
31,Burnham Street,04468,44.9245744,-68.6444855
19,Burnham Street,04468,44.9245968,-68.6441136
15,Burnham Street,04468,44.9246146,-68.6439078
9,Burnham Street,04468,44.9247702,-68.6435476
569,Main Street,04468,44.9251021,-68.6434112
571,Main Street,04468,44.9249475,-68.6433488
16,Park Street,04468,44.9250032,-68.6440341
20,Park Street,04468,44.9249740,-68.6442249
24,Park Street,04468,44.9248874,-68.6444020
36,Park Street,04468,44.9248634,-68.6449231
40,Park Street,04468,44.9248185,-68.6451781
460,Brunswick Street,04468,44.9251335,-68.6452296
31,Park Street,04468,44.9251604,-68.6448610
23,Park Street,04468,44.9252623,-68.6444079
553,Main Street,04468,44.9256647,-68.6437373
10,Dartmouth Street,04468,44.9256677,-68.6440177
17,Dartmouth Street,04468,44.9255955,-68.6443622
22,Dartmouth Street,04468,44.9255456,-68.6447648
28,Dartmouth Street,04468,44.9255077,-68.6449566
36,Dartmouth Street,04468,44.9254222,-68.6452613
35,Dartmouth Street,04468,44.9257690,-68.6453563
21,Dartmouth Street,04468,44.9258547,-68.6446892
543,Main Street,04468,44.9259601,-68.6440446
535,Main Street,04468,44.9260922,-68.6442355
529,Main Street,04468,44.9263204,-68.6440525
12,Cooper Street,04468,44.9262383,-68.6443651
20,Cooper Street,04468,44.9261891,-68.6448590
32,Cooper Street,04468,44.9261032,-68.6454066
517,Main Street,04468,44.9268465,-68.6444925
509,Main Street,04468,44.9271275,-68.6446022
14,Prentiss Street,04468,44.9270593,-68.6448801
18,Prentiss Street,04468,44.9270080,-68.6451550
26,Prentiss Street,04468,44.9269430,-68.6455620
30,Prentiss Street,04468,44.9269217,-68.6457162
31,Cooper Street,04468,44.9264101,-68.6454915
17,Cooper Street,04468,44.9264722,-68.6447218
525,Main Street,04468,44.9266341,-68.6442418
527,Main Street,04468,44.9265276,-68.6441793
57,Hillside Avenue,04468,44.9212531,-68.6432062
53,Hillside Avenue,04468,44.9214365,-68.6432733
41,Hillside Avenue,04468,44.9217657,-68.6433933
31,Hillside Avenue,04468,44.9221416,-68.6434951
25,Hillside Avenue,04468,44.9223303,-68.6435438
21,Hillside Avenue,04468,44.9224983,-68.6435692
15,Hillside Avenue,04468,44.9226369,-68.6436020
11,Hillside Avenue,04468,44.9228403,-68.6436741
5,Hillside Avenue,04468,44.9229672,-68.6436866
46,Highland Avenue,04468,44.9228274,-68.6442658
536,Brunswick Street,04468,44.9225166,-68.6444211
546,Brunswick Street,04468,44.9222188,-68.6442965
556,Brunswick Street,04468,44.9218408,-68.6442296
566,Brunswick Street,04468,44.9216734,-68.6441628
570,Brunswick Street,04468,44.9214601,-68.6441051
574,Brunswick Street,04468,44.9213200,-68.6439725
580,Brunswick Street,04468,44.9209848,-68.6438964
592,Brunswick Street,04468,44.9206890,-68.6438117
45,Bowdoin Avenue,04468,44.9207041,-68.6430558
74,Hillside Avenue,04468,44.9208367,-68.6425492
29,Bowdoin Avenue,04468,44.9207790,-68.6423254
17,Bowdoin Avenue,04468,44.9208967,-68.6417548
697,Main Street,04468,44.9209774,-68.6412361
691,Main Street,04468,44.9211271,-68.6413678
681,Main Street,04468,44.9214954,-68.6415024
16,Holland Street,04468,44.9213766,-68.6419604
20,Holland Street,04468,44.9213670,-68.6422072
28,Holland Street,04468,44.9212975,-68.6426131
19,Holland Street,04468,44.9217574,-68.6423539
669,Main Street,04468,44.9218435,-68.6417285
665,Main Street,04468,44.9220186,-68.6418167
657,Main Street,04468,44.9221823,-68.6419252
653,Main Street,04468,44.9223501,-68.6420097
647,Main Street,04468,44.9225181,-68.6420595
643,Main Street,04468,44.9227016,-68.6421731
641,Main Street,04468,44.9228751,-68.6422735
633,Main Street,04468,44.9230580,-68.6423458
627,Main Street,04468,44.9232051,-68.6424876
20,Highland Avenue,04468,44.9230697,-68.6431669
12,Hillside Avenue,04468,44.9229294,-68.6431582
16,Hillside Avenue,04468,44.9227153,-68.6431428
22,Hillside Avenue,04468,44.9225747,-68.6430485
48,Hillside Avenue,04468,44.9216833,-68.6428154
72,Stillwater Avenue,04468,44.9372516,-68.6509554
13,High Street,04468,44.9370629,-68.6507944
17,High Street,04468,44.9368399,-68.6507364
254,Fourth Street,04468,44.9367341,-68.6511214
23,High Street,04468,44.9367046,-68.6505680
25,High Street,04468,44.9366162,-68.6507890
262,Fourth Street,04468,44.9365706,-68.6510521
29,High Street,04468,44.9365231,-68.6504589
266,Fourth Street,04468,44.9364222,-68.6508884
270,Fourth Street,04468,44.9362981,-68.6507612
35,High Street,04468,44.9363466,-68.6503045
43,High Street,04468,44.9360655,-68.6501473
288,Fourth Street,04468,44.9357400,-68.6503509
51,High Street,04468,44.9358360,-68.6500353
294,Fourth Street,04468,44.9355566,-68.6502085
57,High Street,04468,44.9357152,-68.6498494
59,High Street,04468,44.9355547,-68.6497681
65,High Street,04468,44.9354036,-68.6498896
300,Fourth Street,04468,44.9352598,-68.6500945
83,Brunswick Street,04468,44.9376455,-68.6503127
4,High Street,04468,44.9375226,-68.6505747
12,High Street,04468,44.9372671,-68.6503718
10,High Street,04468,44.9373506,-68.6504490
89,Brunswick Street,04468,44.9374719,-68.6500954
101,Brunswick Street,04468,44.9371171,-68.6497571
24,High Street,04468,44.9369356,-68.6501487
28,High Street,04468,44.9367813,-68.6500711
36,High Street,04468,44.9365261,-68.6498257
42,High Street,04468,44.9363161,-68.6497071
56,High Street,04468,44.9359171,-68.6493952
66,High Street,04468,44.9355771,-68.6492013
183,Brunswick Street,04468,44.9342976,-68.6488183
179,Brunswick Street,04468,44.9344938,-68.6489309
165,Brunswick Street,04468,44.9350314,-68.6487203
56,Middle Street,04468,44.9352085,-68.6490639
86,Middle Street,04468,44.9350503,-68.6496694
324,Fourth Street,04468,44.9346776,-68.6490718
328,Fourth Street,04468,44.9344908,-68.6495738
334,Fourth Street,04468,44.9342599,-68.6494699
340,Fourth Street,04468,44.9340307,-68.6494242
203,Center Street,04468,44.9337909,-68.6494150
191,Center Street,04468,44.9339193,-68.6490579
191,Brunswick Street,04468,44.9341580,-68.6482750
41,Davis Street,04468,44.9395327,-68.6532468
37,Davis Street,04468,44.9395871,-68.6531483
31,Davis Street,04468,44.9397115,-68.6528942
25,Davis Street,04468,44.9397991,-68.6525335
7,Davis Street,04468,44.9399594,-68.6521216
12,Lloyd Lane,04468,44.9400516,-68.6529259
20,Lloyd Lane,04468,44.9399674,-68.6532151
156,Fourth Street,04468,44.9397795,-68.6536048
45,Davis Street,04468,44.9394806,-68.6534898
37,Brunswick Street,04468,44.9390825,-68.6514181
31,Brunswick Street,04468,44.9392575,-68.6515511
25,Brunswick Street,04468,44.9394275,-68.6516908
16,Davis Street,04468,44.9396505,-68.6519129
26,Davis Street,04468,44.9395280,-68.6523465
28,Davis Street,04468,44.9394733,-68.6524475
32,Davis Street,04468,44.9394094,-68.6526438
40,Davis Street,04468,44.9392613,-68.6529917
176,Fourth Street,04468,44.9391899,-68.6531706
180,Fourth Street,04468,44.9390716,-68.6530600
182,Fourth Street,04468,44.9389706,-68.6529351
198,Fourth Street,04468,44.9389423,-68.6522814
196,Fourth Street,04468,44.9384840,-68.6525915
200,Fourth Street,04468,44.9383816,-68.6525285
202,Fourth Street,04468,44.9387332,-68.6518286
41,Brunswick Street,04468,44.9389214,-68.6513628
49,Brunswick Street,04468,44.9387220,-68.6510880
15,Howland Lane,04468,44.9384943,-68.6515549
25,Howland Lane,04468,44.9383437,-68.6520090
208,Fourth Street,04468,44.9381657,-68.6523805
204,Fourth Street,04468,44.9382444,-68.6524590
230,Fourth Street,04468,44.9375119,-68.6518412
226,Fourth Street,04468,44.9376494,-68.6518786
220,Fourth Street,04468,44.9379699,-68.6517518
212,Fourth Street,04468,44.9380618,-68.6521805
34,Howland Lane,04468,44.9381645,-68.6518320
24,Howland Lane,04468,44.9382262,-68.6515702
20,Howland Lane,04468,44.9383068,-68.6512916
57,Brunswick Street,04468,44.9384865,-68.6509061
63,Brunswick Street,04468,44.9381186,-68.6510333
55,Stillwater Avenue,04468,44.9378803,-68.6507625
63,Stillwater Avenue,04468,44.9377212,-68.6509662
65,Stillwater Avenue,04468,44.9378114,-68.6511846
69,Stillwater Avenue,04468,44.9375934,-68.6512632
79,Stillwater Avenue,04468,44.9374564,-68.6515936
297,Brunswick Street,04468,44.9307149,-68.6469000
74,Bradbury Street,04468,44.9306850,-68.6472725
291,Brunswick Street,04468,44.9309105,-68.6469521
66,Bradbury Street,04468,44.9309223,-68.6474322
287,Brunswick Street,04468,44.9310234,-68.6469810
60,Bradbury Street,04468,44.9311273,-68.6474328
54,Bradbury Street,04468,44.9312966,-68.6475459
277,Brunswick Street,04468,44.9313654,-68.6470809
261,Brunswick Street,04468,44.9318916,-68.6471801
40,Bradbury Street,04468,44.9318119,-68.6476908
36,Bradbury Street,04468,44.9319368,-68.6477876
253,Brunswick Street,04468,44.9322159,-68.6471820
26,Bradbury Street,04468,44.9323018,-68.6478802
237,Brunswick Street,04468,44.9325963,-68.6473596
20,Bradbury Street,04468,44.9324794,-68.6479377
231,Brunswick Street,04468,44.9327811,-68.6473498
14,Bradbury Street,04468,44.9327275,-68.6479589
225,Brunswick Street,04468,44.9329189,-68.6473926
2,Oak Street,04468,44.9331519,-68.6474704
4,Oak Street,04468,44.9330554,-68.6478915
4,Bradbury Street,04468,44.9330455,-68.6481242
7,Oak Street,04468,44.9333814,-68.6478666
15,Oak Street,04468,44.9333508,-68.6481098
17,Oak Street,04468,44.9333288,-68.6483288
25,Oak Street,04468,44.9333220,-68.6486781
29,Oak Street,04468,44.9332688,-68.6489031
211,Brunswick Street,04468,44.9335894,-68.6477903
176,Center Street,04468,44.9338343,-68.6479767
180,Center Street,04468,44.9337243,-68.6481903
186,Center Street,04468,44.9336264,-68.6484847
192,Center Street,04468,44.9336003,-68.6487501
198,Center Street,04468,44.9335581,-68.6489639
200,Center Street,04468,44.9334626,-68.6491815
202,Center Street,04468,44.9334338,-68.6493234
37,Oak Street,04468,44.9331880,-68.6491874
69,Perkins Avenue,04468,44.9296441,-68.6494622
73,Perkins Avenue,04468,44.9295356,-68.6497079
114,Sixth Street,04468,44.9294691,-68.6498516
106,Sixth Street,04468,44.9297964,-68.6499421
98,Sixth Street,04468,44.9300769,-68.6500147
90,Sixth Street,04468,44.9303010,-68.6501770
69,Fifth Street,04468,44.9303167,-68.6497020
65,Fifth Street,04468,44.9304975,-68.6497410
61,Fifth Street,04468,44.9306316,-68.6497949
82,Sixth Street,04468,44.9306154,-68.6503046
78,Sixth Street,04468,44.9307488,-68.6503480
44,Summer Street,04468,44.9310143,-68.6498763
43,Summer Street,04468,44.9312325,-68.6502405
60,Sixth Street,04468,44.9312963,-68.6505303
49,Summer Street,04468,44.9312830,-68.6500096
33,Fifth Street,04468,44.9315852,-68.6501045
56,Sixth Street,04468,44.9314998,-68.6505971
29,Fifth Street,04468,44.9317641,-68.6501892
50,Sixth Street,04468,44.9316584,-68.6506608
23,Fifth Street,04468,44.9319347,-68.6502739
46,Sixth Street,04468,44.9318112,-68.6507121
40,Sixth Street,04468,44.9319980,-68.6507931
17,Fifth Street,04468,44.9321116,-68.6503272
34,Sixth Street,04468,44.9321697,-68.6508032
11,Fifth Street,04468,44.9323300,-68.6504041
66,Oak Street,04468,44.9325728,-68.6505019
72,Oak Street,04468,44.9325649,-68.6507649
76,Oak Street,04468,44.9325480,-68.6509738
53,Perkins Avenue,04468,44.9298549,-68.6490274
451,Fourth Street,04468,44.9301759,-68.6485481
447,Fourth Street,04468,44.9303345,-68.6486762
439,Fourth Street,04468,44.9305380,-68.6487248
435,Fourth Street,04468,44.9307070,-68.6488099
66,Fifth Street,04468,44.9306093,-68.6492585
429,Fourth Street,04468,44.9308894,-68.6488974
60,Fifth Street,04468,44.9308308,-68.6492643
36,Summer Street,04468,44.9310586,-68.6494692
32,Summer Street,04468,44.9310579,-68.6493081
427,Fourth Street,04468,44.9311748,-68.6489994
35,Summer Street,04468,44.9313426,-68.6495628
409,Fourth Street,04468,44.9315242,-68.6491334
407,Fourth Street,04468,44.9316646,-68.6490733
403,Fourth Street,04468,44.9317892,-68.6491480
36,Fifth Street,04468,44.9316448,-68.6496145
32,Fifth Street,04468,44.9317803,-68.6497691
399,Fourth Street,04468,44.9319256,-68.6491762
26,Fifth Street,04468,44.9319795,-68.6497688
395,Fourth Street,04468,44.9320913,-68.6492176
383,Fourth Street,04468,44.9322215,-68.6493167
391,Fourth Street,04468,44.9323640,-68.6493800
12,Fifth Street,04468,44.9324329,-68.6499500
44,Oak Street,04468,44.9327727,-68.6494306
52,Oak Street,04468,44.9327430,-68.6498245
58,Oak Street,04468,44.9326861,-68.6500850
448,Fourth Street,04468,44.9303617,-68.6481682
69,Bradbury Street,04468,44.9306342,-68.6478618
436,Fourth Street,04468,44.9308298,-68.6483508
61,Bradbury Street,04468,44.9309046,-68.6479552
428,Fourth Street,04468,44.9310080,-68.6484366
57,Bradbury Street,04468,44.9311246,-68.6479911
55,Bradbury Street,04468,44.9313461,-68.6480215
418,Fourth Street,04468,44.9312343,-68.6485301
412,Fourth Street,04468,44.9315829,-68.6486109
35,Bradbury Street,04468,44.9318042,-68.6482148
406,Fourth Street,04468,44.9317797,-68.6486652
402,Fourth Street,04468,44.9319555,-68.6486733
29,Bradbury Street,04468,44.9320419,-68.6483259
398,Fourth Street,04468,44.9321036,-68.6487473
394,Fourth Street,04468,44.9322435,-68.6488310
21,Bradbury Street,04468,44.9323583,-68.6483884
386,Fourth Street,04468,44.9324563,-68.6488767
15,Bradbury Street,04468,44.9325880,-68.6485100
382,Fourth Street,04468,44.9326305,-68.6490118
26,Oak Street,04468,44.9329742,-68.6485656
32,Oak Street,04468,44.9328348,-68.6488775
36,Oak Street,04468,44.9328399,-68.6491403
123,Seventh Street,04468,44.9289218,-68.6512174
111,Seventh Street,04468,44.9294113,-68.6513227
119,Seventh Street,04468,44.9290995,-68.6511193
115,Seventh Street,04468,44.9292565,-68.6511646
105,Seventh Street,04468,44.9296901,-68.6514157
93,Seventh Street,04468,44.9301285,-68.6515371
87,Seventh Street,04468,44.9302610,-68.6516290
77,Seventh Street,04468,44.9304367,-68.6516803
71,Seventh Street,04468,44.9307193,-68.6517267
59,Seventh Street,04468,44.9311172,-68.6518906
55,Seventh Street,04468,44.9312611,-68.6519239
49,Seventh Street,04468,44.9314563,-68.6520207
43,Seventh Street,04468,44.9315795,-68.6520524
37,Seventh Street,04468,44.9317955,-68.6521372
35,Seventh Street,04468,44.9318912,-68.6521982
29,Seventh Street,04468,44.9321293,-68.6522440
25,Seventh Street,04468,44.9322382,-68.6522849
21,Seventh Street,04468,44.9323451,-68.6523194
87,Perkins Avenue,04468,44.9293181,-68.6505058
120,Seventh Street,04468,44.9291910,-68.6507538
118,Seventh Street,04468,44.9294512,-68.6508477
105,Sixth Street,04468,44.9296202,-68.6503430
112,Seventh Street,04468,44.9296431,-68.6508809
106,Seventh Street,04468,44.9298080,-68.6509519
103,Sixth Street,04468,44.9298017,-68.6504158
97,Sixth Street,04468,44.9299581,-68.6505314
102,Seventh Street,04468,44.9300091,-68.6510251
96,Seventh Street,04468,44.9301698,-68.6510962
87,Sixth Street,04468,44.9303223,-68.6506437
85,Sixth Street,04468,44.9304176,-68.6506457
90,Seventh Street,04468,44.9303547,-68.6511424
86,Seventh Street,04468,44.9304844,-68.6512237
81,Sixth Street,04468,44.9306786,-68.6507404
82,Seventh Street,04468,44.9306993,-68.6512855
77,Sixth Street,04468,44.9308659,-68.6508187
66,Seventh Street,04468,44.9309741,-68.6513614
65,Sixth Street,04468,44.9310601,-68.6508899
62,Seventh Street,04468,44.9311044,-68.6514399
61,Sixth Street,04468,44.9312205,-68.6509293
55,Sixth Street,04468,44.9313717,-68.6510362
56,Seventh Street,04468,44.9313183,-68.6514982
50,Seventh Street,04468,44.9314608,-68.6515484
51,Sixth Street,04468,44.9315722,-68.6510918
45,Sixth Street,04468,44.9317090,-68.6511057
42,Seventh Street,04468,44.9316615,-68.6516228
39,Sixth Street,04468,44.9319260,-68.6511920
36,Seventh Street,04468,44.9320042,-68.6517653
30,Seventh Street,04468,44.9322004,-68.6518245
24,Seventh Street,04468,44.9323745,-68.6519452
33,Sixth Street,04468,44.9321079,-68.6512603
86,Oak Street,04468,44.9324590,-68.6514153
362,Center Street,04468,44.9322633,-68.6568951
368,Center Street,04468,44.9322178,-68.6571563
16,Jefferson Street,04468,44.9318230,-68.6570211
189,Oak Street,04468,44.9319849,-68.6564976
352,Center Street,04468,44.9323454,-68.6564653
181,Oak Street,04468,44.9319701,-68.6560197
342,Center Street,04468,44.9323790,-68.6559010
334,Center Street,04468,44.9324501,-68.6555733
163,Oak Street,04468,44.9322442,-68.6552988
326,Center Street,04468,44.9324438,-68.6551808
318,Center Street,04468,44.9325669,-68.6548126
312,Center Street,04468,44.9325785,-68.6545797
308,Center Street,04468,44.9326060,-68.6543581
294,Center Street,04468,44.9327431,-68.6537050
278,Center Street,04468,44.9327851,-68.6529986
15,Seventh Street,04468,44.9326823,-68.6524150
268,Center Street,04468,44.9329302,-68.6525593
12,Seventh Street,04468,44.9328719,-68.6520642
95,Oak Street,04468,44.9326797,-68.6520315
91,Oak Street,04468,44.9327126,-68.6518607
53,Oak Street,04468,44.9330178,-68.6500157
83,Oak Street,04468,44.9327918,-68.6514798
256,Center Street,04468,44.9330687,-68.6516759
258,Center Street,04468,44.9330789,-68.6519425
260,Center Street,04468,44.9330317,-68.6520700
75,Oak Street,04468,44.9328582,-68.6511220
69,Oak Street,04468,44.9328971,-68.6508386
65,Oak Street,04468,44.9329883,-68.6506217
59,Oak Street,04468,44.9329912,-68.6503232
210,Center Street,04468,44.9334082,-68.6496815
218,Center Street,04468,44.9333510,-68.6500594
224,Center Street,04468,44.9333149,-68.6503166
228,Center Street,04468,44.9332687,-68.6505141
232,Center Street,04468,44.9332190,-68.6507385
238,Center Street,04468,44.9332139,-68.6509562
244,Center Street,04468,44.9331900,-68.6512392
30,Hilliard Street,04468,44.9267630,-68.6538862
36,Hilliard Street,04468,44.9265920,-68.6538886
42,Hilliard Street,04468,44.9263744,-68.6538169
193,Prentiss Street,04468,44.9261481,-68.6537417
185,Prentiss Street,04468,44.9262239,-68.6533415
179,Prentiss Street,04468,44.9267400,-68.6534154
173,Prentiss Street,04468,44.9263243,-68.6527454
165,Prentiss Street,04468,44.9263696,-68.6523345
5,Druillette Street,04468,44.9267949,-68.6524465
4,Druillette Street,04468,44.9268881,-68.6519886
155,Prentiss Street,04468,44.9264146,-68.6518055
147,Prentiss Street,04468,44.9264687,-68.6514800
10,La Bree Lane,04468,44.9267332,-68.6514565
135,Prentiss Street,04468,44.9265175,-68.6509372
125,Prentiss Street,04468,44.9272072,-68.6506844
127,Prentiss Street,04468,44.9266319,-68.6504962
115,Prentiss Street,04468,44.9266959,-68.6499544
107,Prentiss Street,04468,44.9267554,-68.6495489
22,North Tiery Street,04468,44.9273697,-68.6496231
24,North Tiery Street,04468,44.9274964,-68.6498784
11,North Tiery Street,04468,44.9270546,-68.6491012
97,Prentiss Street,04468,44.9268172,-68.6490043
89,Prentiss Street,04468,44.9268370,-68.6487037
73,Prentiss Street,04468,44.9270763,-68.6478985
63,Prentiss Street,04468,44.9271010,-68.6474315
55,Prentiss Street,04468,44.9271766,-68.6471042
399,Brunswick Street,04468,44.9271980,-68.6463161
381,Brunswick Street,04468,44.9277510,-68.6463302
377,Brunswick Street,04468,44.9278872,-68.6463518
56,Eaton Street,04468,44.9277022,-68.6470653
60,Eaton Street,04468,44.9275498,-68.6474555
77,Eaton Street,04468,44.9280630,-68.6484277
69,Eaton Street,04468,44.9280785,-68.6479002
61,Eaton Street,04468,44.9280737,-68.6475173
53,Eaton Street,04468,44.9281515,-68.6468285
367,Brunswick Street,04468,44.9282187,-68.6464049
363,Brunswick Street,04468,44.9284001,-68.6464697
357,Brunswick Street,04468,44.9285803,-68.6465198
351,Brunswick Street,04468,44.9288025,-68.6465037
54,Pine Street,04468,44.9286680,-68.6468016
60,Pine Street,04468,44.9286517,-68.6471352
64,Pine Street,04468,44.9286788,-68.6473578
78,Pine Street,04468,44.9285947,-68.6480114
86,Pine Street,04468,44.9285447,-68.6483564
102,Pine Street,04468,44.9284064,-68.6491168
108,Pine Street,04468,44.9283494,-68.6493686
112,Pine Street,04468,44.9283483,-68.6496286
116,Pine Street,04468,44.9282983,-68.6498354
122,Pine Street,04468,44.9282792,-68.6500802
110,Perkins Avenue,04468,44.9284886,-68.6509993
12,Hilliard Street,04468,44.9273772,-68.6539760
127,Pine Street,04468,44.9285311,-68.6504039
121,Pine Street,04468,44.9285438,-68.6501203
115,Pine Street,04468,44.9285753,-68.6498684
111,Pine Street,04468,44.9286060,-68.6496738
105,Pine Street,04468,44.9286520,-68.6494443
93,Pine Street,04468,44.9287164,-68.6487996
81,Pine Street,04468,44.9287896,-68.6482858
65,Pine Street,04468,44.9289358,-68.6475038
61,Pine Street,04468,44.9289613,-68.6472419
57,Pine Street,04468,44.9289822,-68.6470715
51,Pine Street,04468,44.9290216,-68.6468679
345,Brunswick Street,04468,44.9290360,-68.6465712
339,Brunswick Street,04468,44.9292453,-68.6466068
333,Brunswick Street,04468,44.9293974,-68.6466398
58,Carroll Street,04468,44.9292727,-68.6471441
62,Carroll Street,04468,44.9292370,-68.6476177
66,Carroll Street,04468,44.9291950,-68.6478235
68,Carroll Street,04468,44.9291640,-68.6479747
65,Carroll Street,04468,44.9294598,-68.6478846
59,Carroll Street,04468,44.9295506,-68.6473776
61,Carroll Street,04468,44.9296183,-68.6475838
325,Brunswick Street,04468,44.9296785,-68.6468462
319,Brunswick Street,04468,44.9298968,-68.6467801
12,Hunts Court,04468,44.9298929,-68.6473147
309,Brunswick Street,04468,44.9302769,-68.6468699
12,Perkins Avenue,04468,44.9301774,-68.6471698
22,Perkins Avenue,04468,44.9302762,-68.6475024
48,Perkins Avenue,04468,44.9296851,-68.6484064
66,Perkins Avenue,04468,44.9291357,-68.6492569
74,Perkins Avenue,04468,44.9290436,-68.6495542
80,Perkins Avenue,04468,44.9288481,-68.6498328
88,Perkins Avenue,04468,44.9288640,-68.6502205
141,Pine Street,04468,44.9287886,-68.6505587
1,Hamel Lane,04468,44.9225702,-68.6487141
115,Highland Avenue,04468,44.9227286,-68.6481481
113,Highland Avenue,04468,44.9227852,-68.6477446
107,Highland Avenue,04468,44.9228534,-68.6473867
99,Highland Avenue,04468,44.9229104,-68.6470201
85,Highland Avenue,04468,44.9230132,-68.6463703
77,Highland Avenue,04468,44.9230904,-68.6459095
513,Brunswick Street,04468,44.9232092,-68.6453049
505,Brunswick Street,04468,44.9234884,-68.6453595
499,Brunswick Street,04468,44.9236694,-68.6456050
52,Burnham Street,04468,44.9241131,-68.6454767
58,Burnham Street,04468,44.9240260,-68.6457504
66,Burnham Street,04468,44.9239669,-68.6461307
78,Burnham Street,04468,44.9239317,-68.6466922
45,Pride Street,04468,44.9234346,-68.6471370
35,Pride Street,04468,44.9237952,-68.6473253
33,Pride Street,04468,44.9241792,-68.6473529
25,Pride Street,04468,44.9244468,-68.6474068
53,Burnham Street,04468,44.9243931,-68.6455912
63,Burnham Street,04468,44.9243208,-68.6460044
75,Burnham Street,04468,44.9242621,-68.6465835
69,Burnham Street,04468,44.9243091,-68.6463305
78,Park Street,04468,44.9245372,-68.6468670
72,Park Street,04468,44.9245889,-68.6466592
68,Park Street,04468,44.9246207,-68.6463943
60,Park Street,04468,44.9246510,-68.6460543
465,Brunswick Street,04468,44.9247510,-68.6456613
15,Pride Street,04468,44.9248094,-68.6475320
7,Pride Street,04468,44.9250920,-68.6476046
457,Park Street,04468,44.9250813,-68.6457652
63,Park Street,04468,44.9249744,-68.6463889
69,Park Street,04468,44.9248961,-68.6466751
72,Dartmouth Street,04468,44.9251928,-68.6470650
66,Dartmouth Street,04468,44.9252311,-68.6467127
58,Dartmouth Street,04468,44.9252837,-68.6462966
1,Pride Street,04468,44.9255078,-68.6477630
69,Dartmouth Street,04468,44.9256787,-68.6470232
59,Dartmouth Street,04468,44.9258407,-68.6464740
429,Brunswick Street,04468,44.9261403,-68.6459266
409,Brunswick Street,04468,44.9267907,-68.6461250
64,Prentiss Street,04468,44.9264546,-68.6471820
76,Prentiss Street,04468,44.9265831,-68.6480116
16,Rasle Street,04468,44.9259753,-68.6480889
8,Rasle Street,04468,44.9262280,-68.6482936
86,Prentiss Street,04468,44.9265273,-68.6484096
15,Rasle Street,04468,44.9258977,-68.6487433
7,Rasle Street,04468,44.9261638,-68.6488055
96,Prentiss Street,04468,44.9264822,-68.6488968
17,South Tiery Street,04468,44.9257963,-68.6492463
110,Prentiss Street,04468,44.9263520,-68.6495629
128,Prentiss Street,04468,44.9262588,-68.6504120
136,Prentiss Street,04468,44.9261813,-68.6507740
148,Prentiss Street,04468,44.9261310,-68.6513188
154,Prentiss Street,04468,44.9261153,-68.6516941
22,Druillette Street,04468,44.9257646,-68.6516457
28,Druillette Street,04468,44.9254940,-68.6515100
38,Druillette Street,04468,44.9249913,-68.6513927
37,Druillette Street,04468,44.9248825,-68.6519569
33,Druillette Street,04468,44.9251712,-68.6520303
24,Champlain Street,04468,44.9253662,-68.6525241
27,Druillette Street,04468,44.9254346,-68.6521115
21,Druillette Street,04468,44.9256937,-68.6521660
166,Prentiss Street,04468,44.9259752,-68.6522571
174,Prentiss Street,04468,44.9259158,-68.6526401
23,Champlain Street,04468,44.9251164,-68.6529996
186,Prentiss Street,04468,44.9258750,-68.6531443
192,Prentiss Street,04468,44.9258229,-68.6535320
88,Hilliard Street,04468,44.9246776,-68.6533021
87,Hilliard Street,04468,44.9245833,-68.6538072
71,Hilliard Street,04468,44.9252953,-68.6540205
59,Hilliard Street,04468,44.9256851,-68.6542156
47,Hilliard Street,04468,44.9261338,-68.6542939
39,Hilliard Street,04468,44.9263557,-68.6543269
27,Hilliard Street,04468,44.9267621,-68.6544717
713,Main Street,04468,44.9204289,-68.6408974
707,Main Street,04468,44.9206317,-68.6410618
20,Bowdoin Avenue,04468,44.9205064,-68.6417218
32,Bowdoin Avenue,04468,44.9204182,-68.6423324
50,Bowdoin Avenue,04468,44.9202395,-68.6431857
44,Bowdoin Avenue,04468,44.9202836,-68.6429230
60,Bowdoin Avenue,04468,44.9201302,-68.6437189
616,Brunswick Street,04468,44.9196834,-68.6434314
599,Brunswick Street,04468,44.9201313,-68.6442865
116,Bowdoin Avenue,04468,44.9196970,-68.6466444
126,Bowdoin Avenue,04468,44.9196205,-68.6471107
51,Hamel Lane,04468,44.9199846,-68.6479889
31,Hamel Lane,04468,44.9206298,-68.6481802
21,Hamel Lane,04468,44.9209371,-68.6482723
17,Hamel Lane,04468,44.9212436,-68.6483463
11,Hamel Lane,04468,44.9215781,-68.6484730
7,Hamel Lane,04468,44.9218776,-68.6485868
3,Hamel Lane,04468,44.9221870,-68.6486849
46,Hamel Lane,04468,44.9201808,-68.6472162
38,Hamel Lane,04468,44.9204841,-68.6473266
28,Hamel Lane,04468,44.9208123,-68.6474009
20,Hamel Lane,04468,44.9210716,-68.6474685
16,Hamel Lane,04468,44.9214538,-68.6475597
10,Hamel Lane,04468,44.9217305,-68.6476355
6,Hamel Lane,04468,44.9220885,-68.6477705
91,Bowdoin Avenue,04468,44.9203776,-68.6456841
83,Bowdoin Avenue,04468,44.9204417,-68.6452546
593,Brunswick Street,04468,44.9204944,-68.6443813
587,Brunswick Street,04468,44.9206720,-68.6445469
577,Brunswick Street,04468,44.9209964,-68.6446239
569,Brunswick Street,04468,44.9214051,-68.6446811
557,Brunswick Street,04468,44.9217383,-68.6447583
551,Brunswick Street,04468,44.9219266,-68.6448948
549,Brunswick Street,04468,44.9221039,-68.6448992
537,Brunswick Street,04468,44.9223882,-68.6451688
531,Brunswick Street,04468,44.9226119,-68.6450208
80,Highland Avenue,04468,44.9226292,-68.6460280
36,Simon Court,04468,44.9219542,-68.6460401
38,Simon Court,04468,44.9217108,-68.6459725
25,Simon Court,04468,44.9219152,-68.6467290
17,Simon Court,04468,44.9222041,-68.6468368
104,Highland Avenue,04468,44.9224804,-68.6470844
108,Highland Avenue,04468,44.9223574,-68.6478971
95,Jefferson Street,04468,44.9290678,-68.6565777
109,Lincoln Street,04468,44.9290155,-68.6570767
113,Lincoln Street,04468,44.9289919,-68.6572702
119,Lincoln Street,04468,44.9289988,-68.6575224
121,Lincoln Street,04468,44.9289280,-68.6576540
127,Lincoln Street,04468,44.9289170,-68.6579084
131,Lincoln Street,04468,44.9288915,-68.6581355
137,Lincoln Street,04468,44.9289247,-68.6583704
147,Lincoln Street,04468,44.9288059,-68.6588948
144,Lincoln Street,04468,44.9284910,-68.6585450
134,Lincoln Street,04468,44.9285813,-68.6580921
124,Lincoln Street,04468,44.9286523,-68.6576717
114,Lincoln Street,04468,44.9286664,-68.6571861
112,Lincoln Street,04468,44.9287117,-68.6569899
110,Lincoln Street,04468,44.9287541,-68.6564836
111,Jefferson Street,04468,44.9285347,-68.6564376
115,Jefferson Street,04468,44.9283756,-68.6563575
81,Wilson Street,04468,44.9283550,-68.6570568
89,Wilson Street,04468,44.9283042,-68.6575103
95,Wilson Street,04468,44.9282446,-68.6578173
19,King Street,04468,44.9281157,-68.6583981
30,King Street,04468,44.9284590,-68.6589407
20,King Street,04468,44.9280493,-68.6587636
12,King Street,04468,44.9277886,-68.6586804
2,King Street,04468,44.9274389,-68.6585899
104,Wilson Street,04468,44.9278916,-68.6580732
94,Wilson Street,04468,44.9279436,-68.6576115
90,Wilson Street,04468,44.9279523,-68.6573963
82,Wilson Street,04468,44.9280346,-68.6569765
68,Wilson Street,04468,44.9281182,-68.6562919
125,Jefferson Street,04468,44.9280160,-68.6562549
131,Jefferson Street,04468,44.9277806,-68.6562121
19,Harding Street,04468,44.9276303,-68.6567590
29,Harding Street,04468,44.9275773,-68.6572369
37,Harding Street,04468,44.9276246,-68.6576838
43,Harding Street,04468,44.9274912,-68.6579135
137,Jefferson Street,04468,44.9274188,-68.6556503
4,Harding Street,04468,44.9274853,-68.6559685
10,Harding Street,04468,44.9274295,-68.6562349
22,Harding Street,04468,44.9273800,-68.6567801
28,Harding Street,04468,44.9273169,-68.6570514
38,Harding Street,04468,44.9272473,-68.6575096
44,Harding Street,04468,44.9272513,-68.6578241
50,Harding Street,04468,44.9271808,-68.6581920
51,Lincoln Street,04468,44.9294740,-68.6542548
55,Lincoln Street,04468,44.9294316,-68.6545268
67,Lincoln Street,04468,44.9293414,-68.6550077
71,Lincoln Street,04468,44.9292965,-68.6552358
77,Lincoln Street,04468,44.9292901,-68.6555528
85,Lincoln Street,04468,44.9291986,-68.6558308
96,Jefferson Street,04468,44.9291649,-68.6560781
116,Jefferson Street,04468,44.9284738,-68.6558526
45,Wilson Street,04468,44.9285881,-68.6554394
37,Wilson Street,04468,44.9286526,-68.6549984
29,Wilson Street,04468,44.9287035,-68.6545734
23,Wilson Street,04468,44.9287588,-68.6542888
17,Wilson Street,04468,44.9287694,-68.6540597
46,Lincoln Street,04468,44.9291710,-68.6539089
52,Lincoln Street,04468,44.9291339,-68.6541586
56,Lincoln Street,04468,44.9290793,-68.6543918
62,Lincoln Street,04468,44.9290394,-68.6546692
68,Lincoln Street,04468,44.9289945,-68.6549232
72,Lincoln Street,04468,44.9289597,-68.6551089
76,Lincoln Street,04468,44.9288713,-68.6553382
104,Jefferson Street,04468,44.9288443,-68.6559893
136,Jefferson Street,04468,44.9278067,-68.6556061
187,Perkins Avenue,04468,44.9277236,-68.6549245
175,Perkins Avenue,04468,44.9277862,-68.6544956
159,Perkins Avenue,04468,44.9279208,-68.6540567
169,Perkins Avenue,04468,44.9278690,-68.6542558
151,Perkins Avenue,04468,44.9284408,-68.6539714
24,Wilson Street,04468,44.9283900,-68.6541682
40,Wilson Street,04468,44.9283016,-68.6549022
48,Wilson Street,04468,44.9282585,-68.6553057
128,Jefferson Street,04468,44.9280722,-68.6557169
124,Jefferson Street,04468,44.9282046,-68.6557557
358,Stillwater Avenue,04468,44.9304228,-68.6609708
374,Stillwater Avenue,04468,44.9300600,-68.6615568
386,Stillwater Avenue,04468,44.9298053,-68.6619633
394,Stillwater Avenue,04468,44.9294385,-68.6621411
402,Stillwater Avenue,04468,44.9293914,-68.6625384
20,Abbott Street,04468,44.9291440,-68.6620419
24,Shelter Lane,04468,44.9291518,-68.6615803
28,Abbott Street,04468,44.9288458,-68.6617368
32,Abbott Street,04468,44.9286460,-68.6616561
11,Shelter Lane,04468,44.9294940,-68.6614052
12,Shelter Lane,04468,44.9295398,-68.6613763
13,Shelter Lane,04468,44.9295841,-68.6613425
14,Shelter Lane,04468,44.9296298,-68.6612988
15,Shelter Lane,04468,44.9296752,-68.6612609
25,Shelter Lane,04468,44.9297673,-68.6610684
24,Shelter Lane,04468,44.9297215,-68.6610271
23,Shelter Lane,04468,44.9296767,-68.6609927
22,Shelter Lane,04468,44.9296343,-68.6609518
21,Shelter Lane,04468,44.9295943,-68.6609142
35,Shelter Lane,04468,44.9294734,-68.6607463
34,Shelter Lane,04468,44.9294268,-68.6607887
33,Shelter Lane,04468,44.9293834,-68.6608242
32,Shelter Lane,04468,44.9293407,-68.6608615
31,Shelter Lane,04468,44.9292972,-68.6608924
45,Shelter Lane,04468,44.9293867,-68.6605307
44,Shelter Lane,04468,44.9293409,-68.6604908
43,Shelter Lane,04468,44.9292977,-68.6604534
42,Shelter Lane,04468,44.9292554,-68.6604219
41,Shelter Lane,04468,44.9292112,-68.6603848
61,Shelter Lane,04468,44.9291623,-68.6595564
62,Shelter Lane,04468,44.9292093,-68.6595856
63,Shelter Lane,04468,44.9292541,-68.6596238
64,Shelter Lane,04468,44.9292966,-68.6596603
65,Shelter Lane,04468,44.9293442,-68.6596995
51,Shelter Lane,04468,44.9292904,-68.6601345
52,Shelter Lane,04468,44.9293320,-68.6600984
53,Shelter Lane,04468,44.9293698,-68.6600646
54,Shelter Lane,04468,44.9294105,-68.6600289
55,Shelter Lane,04468,44.9294580,-68.6599882
159,Lincoln Street,04468,44.9286783,-68.6594652
163,Lincoln Street,04468,44.9286465,-68.6597152
169,Lincoln Street,04468,44.9286515,-68.6600017
177,Lincoln Street,04468,44.9286134,-68.6603670
185,Lincoln Street,04468,44.9285471,-68.6606212
398,Center Street,04468,44.9319058,-68.6585226
302,Stillwater Avenue,04468,44.9317355,-68.6589647
312,Stillwater Avenue,04468,44.9314730,-68.6593335
322,Stillwater Avenue,04468,44.9311234,-68.6592414
326,Stillwater Avenue,04468,44.9308147,-68.6597249
336,Stillwater Avenue,04468,44.9309627,-68.6602631
342,Stillwater Avenue,04468,44.9308420,-68.6604315
344,Stillwater Avenue,04468,44.9307112,-68.6600698
380,Center Street,04468,44.9321323,-68.6577793
15,Jefferson Street,04468,44.9317714,-68.6575438
13,Jefferson Street,04468,44.9318731,-68.6575491
21,Jefferson Street,04468,44.9311336,-68.6575284
33,Jefferson Street,04468,44.9308173,-68.6572374
43,Jefferson Street,04468,44.9305375,-68.6571292
51,Jefferson Street,04468,44.9302507,-68.6570058
59,Jefferson Street,04468,44.9298715,-68.6568412
83,Jefferson Street,04468,44.9294651,-68.6567455
82,Jefferson Street,04468,44.9295998,-68.6562282
76,Jefferson Street,04468,44.9298141,-68.6563033
72,Jefferson Street,04468,44.9299707,-68.6563625
66,Jefferson Street,04468,44.9301323,-68.6564117
60,Jefferson Street,04468,44.9303450,-68.6564740
54,Jefferson Street,04468,44.9305006,-68.6565439
50,Jefferson Street,04468,44.9307095,-68.6565811
44,Jefferson Street,04468,44.9308975,-68.6566477
32,Jefferson Street,04468,44.9313527,-68.6564460
665,College Avenue,04468,44.9141719,-68.6817417
18,Old Mill Road,04473,44.9133462,-68.6827356
14,Old Mill Road,04473,44.9135571,-68.6826266
10,Old Mill Road,04473,44.9138691,-68.6825467
2,Old Mill Road,04468,44.9144086,-68.6822812
17,Old Mill Road,04468,44.9134217,-68.6832118
13,Old Mill Road,04468,44.9136724,-68.6831800
1024,Stillwater Avenue,04468,44.9141052,-68.6833075
1030,Stillwater Avenue,04468,44.9139134,-68.6834989
1040,Stillwater Avenue,04468,44.9136232,-68.6836722
1052,Stillwater Avenue,04468,44.9132375,-68.6836431
1051,Stillwater Avenue,04468,44.9133018,-68.6843310
1043,Stillwater Avenue,04468,44.9135601,-68.6841994
16,Michael Street,04468,44.9136718,-68.6846527
1037,Stillwater Avenue,04468,44.9137774,-68.6841443
22,Michael Street,04468,44.9139342,-68.6849626
15,Michael Street,04468,44.9141069,-68.6846471
1031,Stillwater Avenue,04468,44.9140155,-68.6839844
1019,Stillwater Avenue,04468,44.9142980,-68.6843511
1025,Stillwater Avenue,04468,44.9141886,-68.6839661
1017,Stillwater Avenue,04468,44.9144799,-68.6838123
1013,Stillwater Avenue,04468,44.9146267,-68.6837287
717,College Avenue,04468,44.9149491,-68.6845706
719,College Avenue,04468,44.9153347,-68.6848000
721,College Avenue,04468,44.9157295,-68.6849953
736,College Avenue,04468,44.9169084,-68.6845917
912,Stillwater Avenue,04468,44.9173104,-68.6809258
926,Stillwater Avenue,04468,44.9170455,-68.6813490
930,Stillwater Avenue,04468,44.9168475,-68.6815405
932,Stillwater Avenue,04468,44.9165593,-68.6813691
915,Stillwater Avenue,04468,44.9175389,-68.6813209
923,Stillwater Avenue,04468,44.9173298,-68.6815978
933,Stillwater Avenue,04468,44.9171917,-68.6820359
947,Stillwater Avenue,04468,44.9169254,-68.6826440
963,Stillwater Avenue,04468,44.9162759,-68.6830404
975,Stillwater Avenue,04468,44.9158636,-68.6833696
983,Stillwater Avenue,04468,44.9158487,-68.6840386
993,Stillwater Avenue,04468,44.9152704,-68.6837903
664,College Avenue,04468,44.9146576,-68.6811311
668,College Avenue,04468,44.9147081,-68.6818214
676,College Avenue,04468,44.9148470,-68.6823189
564,Stillwater Avenue,04468,44.9255301,-68.6678850
397,Bennoch Road,04468,44.9122205,-68.6883782
85,Bosworth Street,04468,44.9345419,-68.6409977
81,Bosworth Street,04468,44.9346383,-68.6410642
24,Grays Lane,04468,44.9345596,-68.6414042
70,Front Street,04468,44.9344455,-68.6419700
76,Front Street,04468,44.9343273,-68.6418836
8,Union Street,04468,44.9341800,-68.6415803
24,Union Street,04468,44.9343415,-68.6409677
17,Hayes Street,04468,44.9346186,-68.6404183
19,Hayes Street,04468,44.9345844,-68.6402701
90,Bosworth Street,04468,44.9344549,-68.6405499
88,Bosworth Street,04468,44.9345622,-68.6406348
84,Bosworth Street,04468,44.9347109,-68.6407555
55,Hayes Street,04468,44.9343422,-68.6385286
49,Hayes Street,04468,44.9343753,-68.6388876
43,Hayes Street,04468,44.9344375,-68.6390669
33,Hayes Street,04468,44.9344768,-68.6395762
29,Hayes Street,04468,44.9345114,-68.6397621
35,Union Street,04468,44.9344373,-68.6399640
96,Bosworth Street,04468,44.9343118,-68.6403333
16,Hildreth Street,04468,44.9343080,-68.6398697
30,Hildreth Street,04468,44.9340991,-68.6391803
36,Hildreth Street,04468,44.9341043,-68.6388261
40,Hildreth Street,04468,44.9340578,-68.6386478
48,Hildreth Street,04468,44.9340447,-68.6382611
56,Hildreth Street,04468,44.9340284,-68.6378807
3,River Street,04468,44.9345025,-68.6426284
69,Front Street,04468,44.9343902,-68.6422626
75,Front Street,04468,44.9342777,-68.6421821
79,Front Street,04468,44.9340751,-68.6421255
85,Front Street,04468,44.9339484,-68.6419992
28,River Street,04468,44.9337633,-68.6426263
89,Front Street,04468,44.9338074,-68.6419219
91,Front Street,04468,44.9336722,-68.6419679
13,Union Street,04468,44.9339865,-68.6412945
15,Union Street,04468,44.9340551,-68.6411749
88,Front Street,04468,44.9338127,-68.6416251
11,Union Street,04468,44.9338266,-68.6413256
92,Front Street,04468,44.9336831,-68.6415122
94,Front Street,04468,44.9335968,-68.6414501
28,Bodwell Street,04468,44.9335708,-68.6411957
31,French Street,04468,44.9335498,-68.6409034
19,French Street,04468,44.9336472,-68.6409266
21,Union Street,04468,44.9341098,-68.6409589
101,Bosworth Street,04468,44.9339379,-68.6408628
14,French Street,04468,44.9338138,-68.6407429
111,Bosworth Street,04468,44.9336771,-68.6406166
32,French Street,04468,44.9335049,-68.6405558
31,Hildreth Street,04468,44.9338082,-68.6390468
41,Hildreth Street,04468,44.9337856,-68.6386515
47,Hildreth Street,04468,44.9337677,-68.6383137
51,Hildreth Street,04468,44.9337781,-68.6381175
55,Hildreth Street,04468,44.9337619,-68.6377205
106,Bodwell Street,04468,44.9333788,-68.6377561
96,Bodwell Street,04468,44.9333810,-68.6379607
90,Bodwell Street,04468,44.9334171,-68.6381722
84,Bodwell Street,04468,44.9334474,-68.6385269
80,Bodwell Street,04468,44.9334446,-68.6386732
76,Bodwell Street,04468,44.9334415,-68.6389155
72,Bodwell Street,04468,44.9334529,-68.6391959
19,Hildreth Street,04468,44.9338356,-68.6394954
60,Bodwell Street,04468,44.9334873,-68.6397484
54,Bodwell Street,04468,44.9334836,-68.6399833
50,Bodwell Street,04468,44.9334549,-68.6401990
118,Bosworth Street,04468,44.9336495,-68.6402423
114,Bosworth Street,04468,44.9337931,-68.6402769
110,Bosworth Street,04468,44.9339583,-68.6402497
125,Bosworth Street,04468,44.9332426,-68.6404785
129,Bosworth Street,04468,44.9330750,-68.6403982
133,Bosworth Street,04468,44.9329082,-68.6403932
27,Bodwell Street,04468,44.9333806,-68.6413259
29,Bodwell Street,04468,44.9333420,-68.6410628
106,Front Street,04468,44.9331867,-68.6412874
42,French Street,04468,44.9331559,-68.6407837
46,French Street,04468,44.9329955,-68.6407063
110,Front Street,04468,44.9330540,-68.6410384
116,Front Street,04468,44.9328836,-68.6411102
22,Nadeau Street,04468,44.9328393,-68.6406612
101,Front Street,04468,44.9333821,-68.6417976
103,Front Street,04468,44.9332787,-68.6416572
11,Bodwell Street,04468,44.9334110,-68.6421624
46,River Street,04468,44.9332234,-68.6423571
3,Bodwell Street,04468,44.9334181,-68.6424452
113,Bodwell Street,04468,44.9336955,-68.6374115
105,Bodwell Street,04468,44.9333267,-68.6374752
89,Bodwell Street,04468,44.9331347,-68.6383005
83,Bodwell Street,04468,44.9331570,-68.6385647
71,Bodwell Street,04468,44.9331769,-68.6391667
77,Bodwell Street,04468,44.9331865,-68.6389674
10,Rue Boulanger,04468,44.9328642,-68.6389848
63,Bodwell Street,04468,44.9331825,-68.6394571
55,Bodwell Street,04468,44.9332558,-68.6399029
126,Bosworth Street,04468,44.9332543,-68.6401123
134,Bosworth Street,04468,44.9328271,-68.6399877
43,Nadeau Street,04468,44.9326419,-68.6396397
137,Bosworth Street,04468,44.9326593,-68.6403284
25,Nadeau Street,04468,44.9326289,-68.6405308
21,Nadeau Street,04468,44.9326092,-68.6407637
132,Front Street,04468,44.9323595,-68.6408534
136,Front Street,04468,44.9322222,-68.6402578
142,Front Street,04468,44.9320210,-68.6407028
137,Front Street,04468,44.9320235,-68.6410310
133,Front Street,04468,44.9322211,-68.6411001
3,Nadeau Street,04468,44.9323799,-68.6416397
129,Front Street,04468,44.9323430,-68.6411819
123,Front Street,04468,44.9324991,-68.6412385
119,Front Street,04468,44.9327073,-68.6414004
6,Nadeau Street,04468,44.9326088,-68.6416408
113,Front Street,04468,44.9329828,-68.6414785
15,Heald Street,04468,44.9330903,-68.6415554
11,Heald Street,04468,44.9329832,-68.6418222
1,Heald Street,04468,44.9329001,-68.6423692
17,Center Street,04468,44.9366443,-68.6441014
2,Howard Street,04468,44.9374761,-68.6428710
14,Howard Street,04468,44.9372030,-68.6426895
3,Howard Street,04468,44.9369241,-68.6430989
23,Howard Street,04468,44.9367637,-68.6426120
24,Howard Street,04468,44.9369781,-68.6424291
42,Howard Street,04468,44.9365959,-68.6417272
56,Howard Street,04468,44.9361423,-68.6411634
12,Cliff Street,04468,44.9360041,-68.6412478
6,Cliff Street,04468,44.9358459,-68.6412475
4,Cliff Street,04468,44.9355800,-68.6413921
34,Chapman Street,04468,44.9360024,-68.6419032
26,Chapman Street,04468,44.9361957,-68.6422271
22,Chapman Street,04468,44.9362857,-68.6423432
18,Chapman Street,04468,44.9364052,-68.6425124
11,Chapman Street,04468,44.9361670,-68.6426326
28,Bosworth Street,04468,44.9360020,-68.6428543
32,Bosworth Street,04468,44.9358625,-68.6426139
25,Chapman Street,04468,44.9359960,-68.6424199
42,Bosworth Street,04468,44.9356316,-68.6422485
31,Chapman Street,04468,44.9358958,-68.6421620
52,Bosworth Street,04468,44.9354953,-68.6418873
58,Bosworth Street,04468,44.9353329,-68.6416488
66,Hayes Street,04468,44.9344638,-68.6379581
52,Hayes Street,04468,44.9345912,-68.6386103
56,Hayes Street,04468,44.9345528,-68.6384801
48,Hayes Street,04468,44.9346211,-68.6388038
44,Hayes Street,04468,44.9346388,-68.6389755
42,Hayes Street,04468,44.9346916,-68.6391582
36,Hayes Street,04468,44.9347330,-68.6393915
28,Hayes Street,04468,44.9347691,-68.6397251
20,Hayes Street,04468,44.9348567,-68.6401192
24,Hayes Street,04468,44.9348088,-68.6399354
14,Hayes Street,04468,44.9349033,-68.6404117
12,Hayes Street,04468,44.9349273,-68.6405914
6,Hayes Street,04468,44.9350078,-68.6409421
73,Bosworth Street,04468,44.9348306,-68.6413623
75,Bosworth Street,04468,44.9347695,-68.6412076
18,Grays Lane,04468,44.9347072,-68.6416391
12,Grays Lane,04468,44.9348247,-68.6417701
65,Bosworth Street,04468,44.9349686,-68.6416407
61,Bosworth Street,04468,44.9350629,-68.6417493
66,Front Street,04468,44.9345534,-68.6420346
62,Front Street,04468,44.9346491,-68.6420560
60,Front Street,04468,44.9347614,-68.6421257
53,Bosworth Street,04468,44.9351384,-68.6421151
51,Bosworth Street,04468,44.9352729,-68.6422021
39,Front Street,04468,44.9353426,-68.6423371
35,Bosworth Street,04468,44.9356026,-68.6427834
27,Front Street,04468,44.9356802,-68.6430575
17,Front Street,04468,44.9358806,-68.6434084
9,Bosworth Street,04468,44.9361033,-68.6436949
59,Front Street,04468,44.9347219,-68.6424695
51,Front Street,04468,44.9348599,-68.6426015
47,Front Street,04468,44.9350118,-68.6426903
33,Front Street,04468,44.9353973,-68.6429630
29,Front Street,04468,44.9354948,-68.6431388
13,Front Street,04468,44.9357250,-68.6435812
218,Stillwater Avenue,04468,44.9336076,-68.6559786
230,Stillwater Avenue,04468,44.9333855,-68.6564777
244,Stillwater Avenue,04468,44.9330959,-68.6569350
248,Stillwater Avenue,04468,44.9329112,-68.6570162
254,Stillwater Avenue,04468,44.9329209,-68.6572284
387,Center Street,04468,44.9323865,-68.6581105
270,Stillwater Avenue,04468,44.9326033,-68.6573219
357,Center Street,04468,44.9326670,-68.6568222
351,Center Street,04468,44.9327210,-68.6565715
341,Center Street,04468,44.9327729,-68.6560748
335,Center Street,04468,44.9328319,-68.6557217
321,Center Street,04468,44.9329671,-68.6552458
313,Center Street,04468,44.9329544,-68.6547705
53,Elm Street,04468,44.9331062,-68.6543316
45,Elm Street,04468,44.9335344,-68.6544006
41,Elm Street,04468,44.9337341,-68.6544619
31,Elm Street,04468,44.9338985,-68.6544846
27,Elm Street,04468,44.9340538,-68.6545594
21,Elm Street,04468,44.9341981,-68.6546506
19,Elm Street,04468,44.9343111,-68.6546879
13,Elm Street,04468,44.9345315,-68.6547549
9,Elm Street,04468,44.9346451,-68.6548234
202,Stillwater Avenue,04468,44.9338592,-68.6554034
26,Elm Street,04468,44.9341537,-68.6541922
30,Elm Street,04468,44.9340206,-68.6541077
46,Elm Street,04468,44.9336229,-68.6540041
50,Elm Street,04468,44.9333408,-68.6538643
58,Elm Street,04468,44.9331030,-68.6538096
289,Center Street,04468,44.9331339,-68.6536514
285,Center Street,04468,44.9331573,-68.6534803
283,Center Street,04468,44.9332033,-68.6532587
281,Center Street,04468,44.9332610,-68.6530751
277,Center Street,04468,44.9332792,-68.6528577
273,Center Street,04468,44.9333225,-68.6525606
20,Gilmore Court,04468,44.9338830,-68.6523649
12,Gilmore Court,04468,44.9336196,-68.6522886
267,Center Street,04468,44.9334307,-68.6521437
257,Center Street,04468,44.9334543,-68.6519890
27,Somerset Street,04468,44.9337467,-68.6520632
21,Somerset Street,04468,44.9338748,-68.6521037
13,Somerset Street,04468,44.9339987,-68.6521480
11,Somerset Street,04468,44.9342271,-68.6522191
124,Middle Street,04468,44.9345759,-68.6523251
132,Middle Street,04468,44.9345490,-68.6526849
138,Middle Street,04468,44.9344728,-68.6529915
144,Middle Street,04468,44.9344756,-68.6532524
150,Middle Street,04468,44.9344022,-68.6536002
158,Middle Street,04468,44.9343940,-68.6538932
164,Middle Street,04468,44.9343207,-68.6541738
14,Somerset Street,04468,44.9342990,-68.6517201
20,Somerset Street,04468,44.9341405,-68.6515809
26,Somerset Street,04468,44.9339432,-68.6516539
30,Somerset Street,04468,44.9337782,-68.6515646
245,Center Street,04468,44.9335406,-68.6514649
239,Center Street,04468,44.9335598,-68.6511930
235,Center Street,04468,44.9338364,-68.6511632
233,Center Street,04468,44.9337270,-68.6509721
229,Center Street,04468,44.9338017,-68.6507974
225,Center Street,04468,44.9336570,-68.6504193
223,Center Street,04468,44.9338768,-68.6502950
217,Center Street,04468,44.9337111,-68.6501282
345,Fourth Street,04468,44.9337632,-68.6498950
339,Fourth Street,04468,44.9339779,-68.6498892
335,Fourth Street,04468,44.9341168,-68.6501242
327,Fourth Street,04468,44.9343527,-68.6500767
321,Fourth Street,04468,44.9345311,-68.6500812
317,Fourth Street,04468,44.9346956,-68.6501593
89,Middle Street,04468,44.9348276,-68.6503210
96,Middle Street,04468,44.9344845,-68.6509889
100,Middle Street,04468,44.9346749,-68.6511903
108,Middle Street,04468,44.9346810,-68.6515209
116,Middle Street,04468,44.9346158,-68.6518560
287,Fourth Street,04468,44.9355685,-68.6508462
275,Fourth Street,04468,44.9359101,-68.6511220
267,Fourth Street,04468,44.9361751,-68.6513712
259,Fourth Street,04468,44.9364358,-68.6515058
253,Fourth Street,04468,44.9366321,-68.6515638
247,Fourth Street,04468,44.9367036,-68.6516607
241,Fourth Street,04468,44.9367916,-68.6517166
102,Stillwater Avenue,04468,44.9364984,-68.6520461
104,Stillwater Avenue,04468,44.9363711,-68.6522547
168,Veazie Street,04468,44.9362108,-68.6521280
176,Veazie Street,04468,44.9359522,-68.6519403
180,Veazie Street,04468,44.9358062,-68.6517394
188,Veazie Street,04468,44.9356269,-68.6516524
194,Veazie Street,04468,44.9354722,-68.6515163
200,Veazie Street,04468,44.9351597,-68.6512649
95,Middle Street,04468,44.9351769,-68.6510613
91,Middle Street,04468,44.9351001,-68.6508128
299,Fourth Street,04468,44.9352410,-68.6506016
151,Middle Street,04468,44.9346981,-68.6538776
149,Middle Street,04468,44.9347321,-68.6536192
143,Middle Street,04468,44.9347840,-68.6533904
141,Middle Street,04468,44.9348133,-68.6532050
137,Middle Street,04468,44.9348369,-68.6529899
125,Middle Street,04468,44.9349385,-68.6524456
121,Middle Street,04468,44.9349371,-68.6522433
115,Middle Street,04468,44.9349576,-68.6519588
199,Veazie Street,04468,44.9350279,-68.6516793
191,Veazie Street,04468,44.9353621,-68.6519950
185,Veazie Street,04468,44.9355464,-68.6521270
179,Veazie Street,04468,44.9356825,-68.6522631
175,Veazie Street,04468,44.9358448,-68.6523614
169,Veazie Street,04468,44.9359897,-68.6524890
165,Veazie Street,04468,44.9361433,-68.6526034
124,Stillwater Avenue,04468,44.9360301,-68.6527677
130,Stillwater Avenue,04468,44.9358096,-68.6530102
138,Stillwater Avenue,04468,44.9353095,-68.6531398
146,Stillwater Avenue,04468,44.9354564,-68.6535392
156,Stillwater Avenue,04468,44.9353230,-68.6537312
158,Stillwater Avenue,04468,44.9351609,-68.6539030
162,Stillwater Avenue,04468,44.9350842,-68.6541038
170,Stillwater Avenue,04468,44.9348758,-68.6543588
163,Middle Street,04468,44.9346205,-68.6543000
97,Stillwater Avenue,04468,44.9369117,-68.6522254
89,Stillwater Avenue,04468,44.9371267,-68.6519256
229,Fourth Street,04468,44.9373530,-68.6522213
225,Fourth Street,04468,44.9375068,-68.6523357
217,Fourth Street,04468,44.9377782,-68.6526247
211,Fourth Street,04468,44.9379035,-68.6527258
203,Fourth Street,04468,44.9381023,-68.6528914
197,Fourth Street,04468,44.9382912,-68.6529311
191,Fourth Street,04468,44.9384679,-68.6530981
187,Fourth Street,04468,44.9386329,-68.6531768
179,Fourth Street,04468,44.9388379,-68.6534542
72,Davis Street,04468,44.9387143,-68.6542597
88,Veazie Street,04468,44.9386149,-68.6540940
92,Veazie Street,04468,44.9384605,-68.6539804
98,Veazie Street,04468,44.9383088,-68.6538568
104,Veazie Street,04468,44.9381448,-68.6536902
108,Veazie Street,04468,44.9380079,-68.6535446
114,Veazie Street,04468,44.9378409,-68.6534436
124,Veazie Street,04468,44.9375308,-68.6531702
134,Veazie Street,04468,44.9372009,-68.6529494
140,Veazie Street,04468,44.9370713,-68.6528459
144,Veazie Street,04468,44.9369042,-68.6527563
107,Stillwater Avenue,04468,44.9367119,-68.6525994
24,Gilman Falls Avenue,04468,44.9406660,-68.6575563
20,Cedar Street,04468,44.9403824,-68.6572726
26,Cedar Street,04468,44.9402097,-68.6571148
34,Cedar Street,04468,44.9400488,-68.6568807
42,Cedar Street,04468,44.9398866,-68.6566823
46,Cedar Street,04468,44.9396956,-68.6565308
52,Cedar Street,04468,44.9395100,-68.6563508
58,Cedar Street,04468,44.9393491,-68.6562330
66,Cedar Street,04468,44.9391744,-68.6560606
70,Cedar Street,04468,44.9389856,-68.6558247
78,Cedar Street,04468,44.9388201,-68.6557154
93,Davis Street,04468,44.9386154,-68.6554093
20,Gilman Falls Avenue,04468,44.9407707,-68.6572612
17,Veazie Street,04468,44.9404117,-68.6564574
25,Veazie Street,04468,44.9401972,-68.6561602
45,Veazie Street,04468,44.9396361,-68.6556882
51,Veazie Street,04468,44.9394736,-68.6554989
61,Veazie Street,04468,44.9391894,-68.6551856
65,Veazie Street,04468,44.9390619,-68.6550411
71,Veazie Street,04468,44.9388725,-68.6549039
10,Gilman Falls Avenue,04468,44.9409504,-68.6560960
6,Gilman Falls Avenue,04468,44.9409808,-68.6558576
103,Fourth Street,04468,44.9409570,-68.6555284
111,Fourth Street,04468,44.9407822,-68.6553798
115,Fourth Street,04468,44.9406518,-68.6552273
121,Fourth Street,04468,44.9404742,-68.6551055
125,Fourth Street,04468,44.9403225,-68.6549558
131,Fourth Street,04468,44.9401906,-68.6547776
135,Fourth Street,04468,44.9400152,-68.6546346
141,Fourth Street,04468,44.9399043,-68.6544482
147,Fourth Street,04468,44.9397590,-68.6542955
151,Fourth Street,04468,44.9395866,-68.6541823
157,Fourth Street,04468,44.9394753,-68.6539823
55,Davis Street,04468,44.9392957,-68.6538128
59,Davis Street,04468,44.9392039,-68.6540239
16,Veazie Street,04468,44.9406520,-68.6561191
20,Veazie Street,04468,44.9405664,-68.6560075
28,Veazie Street,04468,44.9403313,-68.6557626
36,Veazie Street,04468,44.9400487,-68.6555157
44,Veazie Street,04468,44.9399112,-68.6553721
50,Veazie Street,04468,44.9397160,-68.6551659
54,Veazie Street,04468,44.9396184,-68.6550417
64,Veazie Street,04468,44.9393228,-68.6546765
69,Davis Street,04468,44.9390361,-68.6544141
15,Lloyd Lane,04468,44.9402113,-68.6530973
51,Main Street,04468,44.9404218,-68.6531513
41,Main Street,04468,44.9404856,-68.6536160
37,Main Street,04468,44.9405572,-68.6538154
35,Main Street,04468,44.9406515,-68.6540635
112,Fourth Street,04468,44.9409582,-68.6548664
13,Main Street,04468,44.9406799,-68.6544818
132,Fourth Street,04468,44.9404481,-68.6543836
134,Fourth Street,04468,44.9403708,-68.6543010
144,Fourth Street,04468,44.9401302,-68.6537977
26,Sunset Drive,04468,44.9402658,-68.6582092
30,Sunset Drive,04468,44.9397612,-68.6580421
50,Sunset Drive,04468,44.9392078,-68.6577213
58,Sunset Drive,04468,44.9389888,-68.6574959
72,Sunset Drive,04468,44.9385781,-68.6571775
78,Sunset Drive,04468,44.9383466,-68.6571376
84,Sunset Drive,04468,44.9380500,-68.6569332
32,Gilman Falls Avenue,04468,44.9406075,-68.6583094
9,Cedar Street,04468,44.9404838,-68.6580374
19,Cedar Street,04468,44.9401548,-68.6578143
27,Cedar Street,04468,44.9400055,-68.6575252
43,Cedar Street,04468,44.9395093,-68.6570883
49,Cedar Street,04468,44.9393365,-68.6568540
55,Cedar Street,04468,44.9391930,-68.6567119
63,Cedar Street,04468,44.9389881,-68.6564906
69,Cedar Street,04468,44.9388105,-68.6563153
83,Cedar Street,04468,44.9384276,-68.6560229
77,Sunset Drive,04468,44.9379433,-68.6580376
69,Sunset Drive,04468,44.9383972,-68.6578867
51,Sunset Drive,04468,44.9387961,-68.6581611
49,Sunset Drive,04468,44.9389624,-68.6587157
25,Sunset Drive,04468,44.9398097,-68.6586315
7,Sunset Drive,04468,44.9401967,-68.6587437
36,Gilman Falls Avenue,04468,44.9405304,-68.6587885
40,Gilman Falls Avenue,04468,44.9404626,-68.6592098
42,Gilman Falls Avenue,04468,44.9404815,-68.6593994
48,Gilman Falls Avenue,04468,44.9404448,-68.6598852
50,Gilman Falls Avenue,04468,44.9404712,-68.6602975
54,Gilman Falls Avenue,04468,44.9404981,-68.6606691
58,Gilman Falls Avenue,04468,44.9406054,-68.6609124
60,Gilman Falls Avenue,04468,44.9406584,-68.6611905
66,Gilman Falls Avenue,04468,44.9406308,-68.6618409
72,Gilman Falls Avenue,04468,44.9408780,-68.6623564
80,Gilman Falls Avenue,04468,44.9410824,-68.6630142
88,Gilman Falls Avenue,04468,44.9411409,-68.6638685
100,Gilman Falls Avenue,04468,44.9413662,-68.6649950
116,Gilman Falls Avenue,04468,44.9416550,-68.6663553
130,Gilman Falls Avenue,04468,44.9417776,-68.6667790
138,Gilman Falls Avenue,04468,44.9418606,-68.6671377
87,Gilman Falls Avenue,04468,44.9415838,-68.6635718
83,Gilman Falls Avenue,04468,44.9415058,-68.6631942
79,Gilman Falls Avenue,04468,44.9414589,-68.6628242
75,Gilman Falls Avenue,04468,44.9413830,-68.6625017
69,Gilman Falls Avenue,04468,44.9412502,-68.6620088
4,Leonard Lane,04468,44.9412413,-68.6616342
2,Batchelder Drive,04468,44.9415829,-68.6615317
8,Batchelder Drive,04468,44.9418022,-68.6620217
12,Batchelder Drive,04468,44.9418762,-68.6624081
16,Batchelder Drive,04468,44.9420744,-68.6628590
24,Batchelder Drive,04468,44.9426743,-68.6633149
28,Batchelder Drive,04468,44.9428919,-68.6634994
32,Batchelder Drive,04468,44.9433059,-68.6633436
36,Batchelder Drive,04468,44.9435923,-68.6631929
40,Batchelder Drive,04468,44.9439580,-68.6630763
46,Batchelder Drive,04468,44.9442596,-68.6629557
77,Sewall Drive,04468,44.9447986,-68.6620588
71,Sewall Drive,04468,44.9449371,-68.6614197
45,Gilman Falls Avenue,04468,44.9408705,-68.6597526
49,Gilman Falls Avenue,04468,44.9408665,-68.6602175
53,Gilman Falls Avenue,04468,44.9409082,-68.6605508
57,Gilman Falls Avenue,04468,44.9409811,-68.6609190
17,Leonard Lane,04468,44.9413862,-68.6608595
25,Leonard Lane,04468,44.9416564,-68.6608267
33,Leonard Lane,04468,44.9419834,-68.6609219
41,Leonard Lane,04468,44.9422962,-68.6609231
49,Leonard Lane,04468,44.9426206,-68.6610360
57,Leonard Lane,04468,44.9428530,-68.6611448
65,Leonard Lane,04468,44.9431565,-68.6613265
73,Leonard Lane,04468,44.9434088,-68.6614186
79,Leonard Lane,04468,44.9437578,-68.6614803
82,Leonard Lane,04468,44.9438102,-68.6619951
78,Leonard Lane,04468,44.9434579,-68.6620869
60,Leonard Lane,04468,44.9428500,-68.6617293
68,Leonard Lane,04468,44.9430996,-68.6618472
52,Leonard Lane,04468,44.9425402,-68.6615583
1,Batchelder Drive,04468,44.9421032,-68.6615159
9,Batchelder Drive,04468,44.9422399,-68.6619476
13,Batchelder Drive,04468,44.9423948,-68.6622023
19,Batchelder Drive,04468,44.9426524,-68.6625092
25,Batchelder Drive,04468,44.9429462,-68.6626510
31,Batchelder Drive,04468,44.9432337,-68.6626490
37,Batchelder Drive,04468,44.9436188,-68.6626573
43,Batchelder Drive,04468,44.9439713,-68.6625225
78,Sewall Drive,04468,44.9442390,-68.6619160
76,Sewall Drive,04468,44.9443265,-68.6615864
116,Sargent Drive,04468,44.9442829,-68.6610187
96,Sargent Drive,04468,44.9436728,-68.6608155
84,Sargent Drive,04468,44.9431879,-68.6605448
76,Sargent Drive,04468,44.9429052,-68.6604440
66,Sargent Drive,04468,44.9426645,-68.6602792
58,Sargent Drive,04468,44.9423877,-68.6601977
50,Sargent Drive,04468,44.9421276,-68.6602264
42,Sargent Drive,04468,44.9418390,-68.6600552
26,Sargent Drive,04468,44.9413122,-68.6596669
39,Gilman Falls Avenue,04468,44.9409850,-68.6592940
60,Sewall Drive,04468,44.9445386,-68.6602980
113,Sargent Drive,04468,44.9442520,-68.6604691
101,Sargent Drive,04468,44.9438966,-68.6602938
89,Sargent Drive,04468,44.9435636,-68.6601385
81,Sargent Drive,04468,44.9432559,-68.6600095
73,Sargent Drive,04468,44.9430045,-68.6598997
63,Sargent Drive,04468,44.9426797,-68.6597961
57,Sargent Drive,04468,44.9423838,-68.6596819
47,Sargent Drive,04468,44.9420972,-68.6595743
37,Sargent Drive,04468,44.9418284,-68.6594594
23,Sargent Drive,04468,44.9415428,-68.6592750
54,Sewall Drive,04468,44.9442835,-68.6600200
48,Sewall Drive,04468,44.9439898,-68.6599362
42,Sewall Drive,04468,44.9436860,-68.6598237
38,Sewall Drive,04468,44.9433291,-68.6595767
34,Sewall Drive,04468,44.9430593,-68.6594023
28,Sewall Drive,04468,44.9428133,-68.6591999
24,Sewall Drive,04468,44.9425311,-68.6590839
20,Sewall Drive,04468,44.9422522,-68.6589910
16,Sewall Drive,04468,44.9419470,-68.6588895
10,Sewall Drive,04468,44.9416717,-68.6588663
65,Sewall Drive,04468,44.9448770,-68.6609811
57,Sewall Drive,04468,44.9449766,-68.6600849
51,Sewall Drive,04468,44.9444482,-68.6593929
45,Sewall Drive,04468,44.9440252,-68.6593885
39,Sewall Drive,04468,44.9436348,-68.6592689
33,Sewall Drive,04468,44.9433089,-68.6590060
29,Sewall Drive,04468,44.9430570,-68.6587872
25,Sewall Drive,04468,44.9427416,-68.6586028
21,Sewall Drive,04468,44.9424669,-68.6584427
15,Sewall Drive,04468,44.9421121,-68.6583537
11,Sewall Drive,04468,44.9417627,-68.6582539
9,Sewall Drive,04468,44.9414612,-68.6584304
8,Sargent Drive,04468,44.9410925,-68.6586337
29,Gilman Falls Avenue,04468,44.9411870,-68.6582604
5,Gilman Falls Avenue,04468,44.9415492,-68.6560820
37,Fourth Street,04468,44.9429080,-68.6576210
1,Fourth Street,04468,44.9440047,-68.6581764
2,Fourth Street,04468,44.9441909,-68.6578758
22,Fourth Street,04468,44.9435495,-68.6571412
32,Fourth Street,04468,44.9433142,-68.6568955
42,Fourth Street,04468,44.9430394,-68.6565935
58,Fourth Street,04468,44.9427041,-68.6560040
66,Fourth Street,04468,44.9422682,-68.6558576
76,Fourth Street,04468,44.9419862,-68.6558440
82,Fourth Street,04468,44.9418421,-68.6556792
92,Fourth Street,04468,44.9415894,-68.6554283
96,Fourth Street,04468,44.9414271,-68.6552231
10,Main Street,04468,44.9412313,-68.6545400
169,Gilman Falls Avenue,04468,44.9437778,-68.6719476
153,Gilman Falls Avenue,04468,44.9429686,-68.6698682
125,Gilman Falls Avenue,04468,44.9426140,-68.6668683
1122,College Avenue,04468,44.9412200,-68.6917426
1124,College Avenue,04468,44.9416279,-68.6921385
1132,College Avenue,04468,44.9421346,-68.6923322
1138,College Avenue,04468,44.9428264,-68.6928874
1148,College Avenue,04468,44.9431669,-68.6937231
1152,College Avenue,04468,44.9441050,-68.6938717
1172,College Avenue,04468,44.9452726,-68.6931606
1190,College Avenue,04468,44.9458142,-68.6933185
1200,College Avenue,04468,44.9462635,-68.6935443
1202,College Avenue,04468,44.9468251,-68.6935734
1216,College Avenue,04468,44.9478235,-68.6934252
1220,College Avenue,04468,44.9483326,-68.6930485
1222,College Avenue,04468,44.9487008,-68.6928674
414,Gilman Falls Avenue,04468,44.9488173,-68.6934794
418,Gilman Falls Avenue,04468,44.9490245,-68.6940378
430,Gilman Falls Avenue,04468,44.9497099,-68.6952656
1184,College Avenue,04468,44.9455913,-68.6905788
1185,College Avenue,04468,44.9459877,-68.6920099
1193,College Avenue,04468,44.9464623,-68.6921016
1197,College Avenue,04468,44.9467142,-68.6911968
1207,College Avenue,04468,44.9471784,-68.6924329
1209,College Avenue,04468,44.9477892,-68.6926725
1235,College Avenue,04468,44.9485026,-68.6923464
398,Gilman Falls Avenue,04468,44.9483522,-68.6919237
380,Gilman Falls Avenue,04468,44.9476045,-68.6906475
368,Gilman Falls Avenue,04468,44.9470861,-68.6898003
362,Gilman Falls Avenue,04468,44.9469165,-68.6895129
356,Gilman Falls Avenue,04468,44.9466012,-68.6889954
328,Gilman Falls Avenue,04468,44.9450049,-68.6884330
314,Gilman Falls Avenue,04468,44.9447423,-68.6849485
246,Gilman Falls Avenue,04468,44.9405649,-68.6752948
425,Gilman Falls Avenue,04468,44.9498926,-68.6939246
419,Gilman Falls Avenue,04468,44.9496898,-68.6935878
411,Gilman Falls Avenue,04468,44.9493471,-68.6927986
399,Gilman Falls Avenue,04468,44.9488765,-68.6918883
397,Gilman Falls Avenue,04468,44.9487273,-68.6915888
393,Gilman Falls Avenue,04468,44.9485586,-68.6912875
389,Gilman Falls Avenue,04468,44.9483592,-68.6909668
381,Gilman Falls Avenue,04468,44.9480336,-68.6904428
373,Gilman Falls Avenue,04468,44.9476518,-68.6897028
375,Gilman Falls Avenue,04468,44.9478165,-68.6900454
365,Gilman Falls Avenue,04468,44.9474264,-68.6893031
299,Gilman Falls Avenue,04468,44.9456918,-68.6825863
249,Gilman Falls Avenue,04468,44.9450558,-68.6791844
215,Gilman Falls Avenue,04468,44.9440577,-68.6755447
205,Gilman Falls Avenue,04468,44.9438320,-68.6746545
747,West Old Town Road,04468,44.9894399,-68.7502326
19,South Spring Street,04468,44.9071880,-68.6851135
433,Bennoch Road,04468,44.9133500,-68.6890490
24,Free Street,04468,44.9099880,-68.6848145
84,Spring Street,04468,44.9140130,-68.6887740
54,Spring Street,04468,44.9121695,-68.6875990
423,Bennoch Road,04468,44.9130395,-68.6888420
77,Spring Street,04468,44.9137220,-68.6880780
1140,Stillwater Avenue,04468,44.9103190,-68.6853350
1121,Stillwater Avenue,04468,44.9112020,-68.6859080
41,Free Street,04468,44.9093745,-68.6848430
305,Bennoch Road,04468,44.9091955,-68.6865360
71,Free Street,04468,44.9082140,-68.6841225
400,Bennoch Road,04468,44.9120640,-68.6888675
430,Bennoch Road,04468,44.9130500,-68.6894445
45,Dempsey Greaves Lane,04468,44.9121260,-68.6924150
415,Bennoch Road,04468,44.9127650,-68.6886560
39,Spring Street,04468,44.9113795,-68.6865250
11,South Spring Street,04468,44.9079010,-68.6852610
300,Bennoch Road,04468,44.9087815,-68.6871215
474,Bennoch Road,04468,44.9144265,-68.6903330
43,Spring Street,04468,44.9115845,-68.6867035
88,Spring Street,04468,44.9143270,-68.6888175
1127,Stillwater Avenue,04468,44.9108110,-68.6855705
63,Spring Street,04468,44.9127575,-68.6874480
22,Franklin Street,04468,44.9091795,-68.6848680
25,Dempsey Greaves Lane,04468,44.9118685,-68.6904555
1144,Stillwater Avenue,04468,44.9102000,-68.6853535
7,Franklin Street,04468,44.9084175,-68.6858910
378,Bennoch Road,04468,44.9114295,-68.6889915
412,Bennoch Road,04468,44.9123625,-68.6894125
317,Bennoch Road,04468,44.9095970,-68.6868075
2,South Spring Street,04468,44.9095285,-68.6854675
4,South Spring Street,04468,44.9093790,-68.6854365
70,Spring Street,04468,44.9131835,-68.6882370
37,Spring Street,04468,44.9112540,-68.6864750
446,Bennoch Road,04468,44.9136040,-68.6897165
391,Bennoch Road,04468,44.9119100,-68.6881980
8,South Spring Street,04468,44.9085865,-68.6849995
11,Franklin Street,04468,44.9085420,-68.6855200
20,Spring Street,04468,44.9099885,-68.6862710
1137,Stillwater Avenue,04468,44.9105075,-68.6858030
75,Dempsey Greaves Lane,04468,44.9125425,-68.6938365
512,Bennoch Road,04468,44.9156005,-68.6911775
14,Free Street,04468,44.9103620,-68.6850235
369,Bennoch Road,04468,44.9112450,-68.6877990
441,Bennoch Road,04468,44.9136350,-68.6891935
335,Bennoch Road,04468,44.9101975,-68.6872075
34,Spring Street,04468,44.9108145,-68.6868280
330,Bennoch Road,04468,44.9098330,-68.6876070
52,Spring Street,04468,44.9119900,-68.6875050
368,Bennoch Road,04468,44.9109685,-68.6883710
15,South Spring Street,04468,44.9076535,-68.6850940
35,Spring Street,04468,44.9110525,-68.6863850
80,Spring Street,04468,44.9138090,-68.6885220
6,South Spring Street,04468,44.9090715,-68.6853075
5,Franklin Street,04468,44.9083725,-68.6860385
405,Bennoch Road,04468,44.9123640,-68.6884440
65,Spring Street,04468,44.9129820,-68.6876075
22,Kirkland Road,04468,44.9149490,-68.6931270
271,Bennoch Road,04468,44.9079010,-68.6858680
1173,Stillwater Avenue,04468,44.9093235,-68.6862505
348,Bennoch Road,04468,44.9104240,-68.6879070
4,Free Street,04468,44.9105985,-68.6851350
48,Spring Street,04468,44.9117260,-68.6873115
86,Spring Street,04468,44.9142010,-68.6887560
290,Bennoch Road,04468,44.9084740,-68.6870840
343,Bennoch Road,04468,44.9103840,-68.6873105
338,Bennoch Road,04468,44.9100000,-68.6878315
22,Spring Street,04468,44.9101210,-68.6863740
1244,Stillwater Avenue,04468,44.9069625,-68.6872230
1145,Stillwater Avenue,04468,44.9102450,-68.6859175
312,Bennoch Road,04468,44.9091605,-68.6873415
36,Free Street,04468,44.9096415,-68.6846210
49,Spring Street,04468,44.9119295,-68.6869430
38,Spring Street,04468,44.9110465,-68.6868885
21,Franklin Street,04468,44.9088215,-68.6844820
1236,Stillwater Avenue,04468,44.9072360,-68.6870600
456,Bennoch Road,04468,44.9138675,-68.6899150
355,Bennoch Road,04468,44.9108555,-68.6875130
273,Bennoch Road,04468,44.9081190,-68.6859695
76,Spring Street,04468,44.9134765,-68.6883720
1254,Stillwater Avenue,04468,44.9066895,-68.6875845
460,Bennoch Road,04468,44.9140800,-68.6899735
195,Bennoch Road,04468,44.9055375,-68.6840715
342,Bennoch Road,04468,44.9106030,-68.6901320
40,Spring Street,04468,44.9112430,-68.6870735
35,Free Street,04468,44.9095380,-68.6849435
347,Bennoch Road,04468,44.9105685,-68.6874360
28,Spring Street,04468,44.9105135,-68.6866495
10,South Spring Street,04468,44.9082195,-68.6847415
444,Bennoch Road,04468,44.9134925,-68.6897510
392,Bennoch Road,04468,44.9117045,-68.6888640
254,Bennoch Road,04468,44.9073890,-68.6861455
31,Free Street,04468,44.9096880,-68.6850525
45,Spring Street,04468,44.9117210,-68.6868065
324,Bennoch Road,04468,44.9096200,-68.6875740
316,Bennoch Road,04468,44.9093640,-68.6875090
16,Spring Street,04468,44.9096010,-68.6861000
226,Bennoch Road,04468,44.9065055,-68.6857185
459,Bennoch Road,04468,44.9141470,-68.6894290
358,Bennoch Road,04468,44.9107290,-68.6881860
29,Spring Street,04468,44.9107325,-68.6861960
1270,Stillwater Avenue,04468,44.9063135,-68.6880325
492,Bennoch Road,04468,44.9149050,-68.6906415
257,Bennoch Road,04468,44.9076735,-68.6856850
40,Free Street,04468,44.9092075,-68.6843890
1230,Stillwater Avenue,04468,44.9070225,-68.6866785
449,Bennoch Road,04468,44.9138580,-68.6893155
991,Taylor Road,04468,44.9111305,-68.6407600
949,Main Street,04468,44.9124870,-68.6400425
1169,Main Street,04468,44.9062130,-68.6449440
1013,Lonnie Loop,04468,44.9107945,-68.6409045
967,Main Street,04468,44.9117360,-68.6408835
4,Marshall Street,04468,44.9124890,-68.6402860
9,Lonnie Loop,04468,44.9106375,-68.6414830
1025,Main Street,04468,44.9102810,-68.6408455
33,Marthas Way,04468,44.9114955,-68.6426955
16,Karen Circle,04468,44.9100430,-68.6429980
65,Marthas Way,04468,44.9113170,-68.6444080
953,Main Street,04468,44.9121365,-68.6401130
20,Penobscot Street,04468,44.9069425,-68.6409060
34,Karen Circle,04468,44.9094680,-68.6439980
77,Marthas Way,04468,44.9111450,-68.6451355
8,Karen Circle,04468,44.9103800,-68.6430615
1090,Main Street,04468,44.9075305,-68.6417885
959,Main Street,04468,44.9123120,-68.6400820
73,Marthas Way,04468,44.9111935,-68.6448420
1141,Main Street,04468,44.9071205,-68.6448165
93,Marthas Way,04468,44.9107215,-68.6448900
29,Marthas Way,04468,44.9115520,-68.6423700
1074,Main Street,04468,44.9082285,-68.6408580
30,Marthas Way,04468,44.9112040,-68.6423585
1176,Main Street,04473,44.9051020,-68.6442620
5,Karen Circle,04468,44.9105435,-68.6435425
42,Karen Circle,04468,44.9097260,-68.6444065
11,Marthas Way,04468,44.9117035,-68.6415735
1123,Main Street,04468,44.9090235,-68.6417685
6,Marshall Street,04468,44.9124995,-68.6405220
20,Karen Circle,04468,44.9098780,-68.6430235
19,Lonnie Loop,04468,44.9100330,-68.6416715
79,Marthas Way,04468,44.9108840,-68.6454370
49,Lonnie Loop,04468,44.9105230,-68.6421535
17,Marthas Way,04468,44.9116325,-68.6419695
37,Marthas Way,04468,44.9113725,-68.6431200
392,West Old Town Road,04468,44.9700690,-68.7272270
683,West Old Town Road,04468,44.9846795,-68.7471080
1314,Kirkland Road,04468,44.9697780,-68.7677845
675,West Old Town Road,04468,44.9841250,-68.7462945
1472,Kirkland Road,04468,44.9758575,-68.7773500
922,West Old Town Road,04468,44.9872990,-68.7680250
471,West Old Town Road,04468,44.9745225,-68.7310170
1416,Kirkland Road,04468,44.9754660,-68.7729505
464,Gilman Falls Avenue,04468,44.9510775,-68.6974500
72,Lakeside Lane,04468,44.9507495,-68.8015255
36,East Coiley Road,04468,44.9649340,-68.6977410
192,West Old Town Road,04468,44.9611075,-68.7129905
198,Interstate 95 South,04468,44.9760755,-68.7056890
579,West Old Town Road,04468,44.9806240,-68.7388955
97,East Coiley Road,04468,44.9643870,-68.7038510
1479,Kirkland Road,04468,44.9802090,-68.7749035
1535,Kirkland Road,04468,44.9835635,-68.7776675
769,West Old Town Road,04468,44.9882835,-68.7536745
731,West Old Town Road,04468,44.9868275,-68.7504450
67,Lakeside Lane,04468,44.9511245,-68.8007740
105,West Old Town Road,04468,44.9589360,-68.7044715
714,West Old Town Road,04468,44.9853685,-68.7497260
1828,Bennoch Road,04468,44.9584495,-68.6979960
412,West Old Town Road,04468,44.9709630,-68.7289055
56,Lakeside Lane,04468,44.9501525,-68.8012815
717,West Old Town Road,04468,44.9860870,-68.7491725
942,West Old Town Road,04468,44.9870780,-68.7690255
51,West Coiley Road,04468,44.9625200,-68.7090245
1344,Kirkland Road,04468,44.9715095,-68.7698440
342,West Old Town Road,04468,44.9684060,-68.7225460
519,West Old Town Road,04468,44.9777650,-68.7347925
203,West Old Town Road,04468,44.9623820,-68.7131945
1387,Kirkland Road,04468,44.9747405,-68.7690760
654,West Old Town Road,04468,44.9827030,-68.7450915
904,West Old Town Road,04468,44.9874215,-68.7663720
1670,Bennoch Road,04468,44.9534085,-68.6996125
57,West Old Town Road,04468,44.9555525,-68.7024615
2001,Bennoch Road,04468,44.9638540,-68.6944175
41,Tranquility Lane,04468,44.9806725,-68.7444560
1860,Bennoch Road,04468,44.9594130,-68.6972415
408,West Old Town Road,04468,44.9707185,-68.7284140
1515,Kirkland Road,04468,44.9823510,-68.7766770
1500,Kirkland Road,04468,44.9806075,-68.7764855
655,West Old Town Road,04468,44.9833505,-68.7447805
40,Tranquility Lane,04468,44.9801410,-68.7437990
1820,Bennoch Road,04468,44.9583375,-68.6981180
38,East Coiley Road,04468,44.9648720,-68.6981735
30,Winter Road,04468,44.9530560,-68.7028680
48,West Coiley Road,04468,44.9635475,-68.7098930
21,West Coiley Road,04468,44.9625340,-68.7121665
267,West Old Town Road,04468,44.9650940,-68.7170000
230,West Old Town Road,04468,44.9627025,-68.7162445
948,West Old Town Road,04468,44.9869220,-68.7703515
235,West Old Town Road,04468,44.9641325,-68.7158280
1693,Bennoch Road,04468,44.9537620,-68.6981505
1391,Kirkland Road,04468,44.9750690,-68.7705080
1619,Bennoch Road,04468,44.9502345,-68.6980490
104,West Old Town Road,04468,44.9576410,-68.7056065
110,East Coiley Road,04468,44.9636195,-68.7042850
14,East Coiley Road,04468,44.9650050,-68.6958180
64,West Coiley Road,04468,44.9637650,-68.7083870
358,West Old Town Road,04468,44.9688175,-68.7245780
45,East Coiley Road,04468,44.9663145,-68.7006280
52,West Old Town Road,04468,44.9546165,-68.7032895
456,West Old Town Road,04468,44.9732855,-68.7322335
1432,Kirkland Road,04468,44.9765860,-68.7736615
20,West Coiley Road,04468,44.9630500,-68.7127465
200,West Old Town Road,04468,44.9617635,-68.7131685
275,West Old Town Road,04468,44.9658605,-68.7180820
660,West Old Town Road,04468,44.9830115,-68.7459800
326,West Old Town Road,04468,44.9681385,-68.7217800
730,West Old Town Road,04468,44.9859940,-68.7507185
93,Lakeside Lane,04468,44.9526475,-68.8019640
64,West Old Town Road,04468,44.9557745,-68.7034415
646,West Old Town Road,04468,44.9822500,-68.7447660
111,East Coiley Road,04468,44.9641900,-68.7051075
1365,Kirkland Road,04468,44.9736940,-68.7688405
449,West Old Town Road,04468,44.9733715,-68.7300540
166,West Old Town Road,04468,44.9601020,-68.7098290
252,West Old Town Road,04468,44.9640630,-68.7174010
1321,Kirkland Road,04468,44.9710240,-68.7659200
1298,Kirkland Road,04468,44.9682730,-68.7668580
649,West Old Town Road,04468,44.9829110,-68.7442890
1464,Kirkland Road,04468,44.9789350,-68.7747400
584,West Old Town Road,04468,44.9795095,-68.7412515
432,West Old Town Road,04468,44.9721035,-68.7304750
1486,Kirkland Road,04468,44.9784520,-68.7776370
183,West Old Town Road,04468,44.9615950,-68.7115395
2031,Bennoch Road,04468,44.9649305,-68.6940695
1381,Kirkland Road,04468,44.9743715,-68.7699735
526,West Old Town Road,04468,44.9761580,-68.7373130
1023,West Old Town Road,04468,44.9861140,-68.7784280
1235,Kirkland Road,04468,44.9668750,-68.7617945
684,West Old Town Road,04468,44.9840120,-68.7471690
422,West Old Town Road,04468,44.9714585,-68.7296195
51,East Coiley Road,04468,44.9653915,-68.7007880
681,West Old Town Road,04468,44.9845090,-68.7465900
1681,Bennoch Road,04468,44.9533355,-68.6983030
571,West Old Town Road,04468,44.9794750,-68.7384015
1503,Kirkland Road,04468,44.9815140,-68.7759145
459,West Old Town Road,04468,44.9739320,-68.7305210
399,West Old Town Road,04468,44.9712530,-68.7273335
75,East Coiley Road,04468,44.9659965,-68.7018420
1140,Kirkland Road,04468,44.9622500,-68.7543125
240,West Old Town Road,04468,44.9632755,-68.7186140
394,West Old Town Road,04468,44.9703240,-68.7284385
43,West Coiley Road,04468,44.9630065,-68.7101525
11,East Coiley Road,04468,44.9656070,-68.6956995
946,West Old Town Road,04468,44.9868840,-68.7698465
858,West Old Town Road,04468,44.9880105,-68.7619550
189,West Old Town Road,04468,44.9618615,-68.7118510
24,East Coiley Road,04468,44.9636935,-68.6980715
93,East Coiley Road,04468,44.9645640,-68.7031705
259,West Old Town Road,04468,44.9645720,-68.7165260
1353,Kirkland Road,04468,44.9729380,-68.7681200
218,West Old Town Road,04468,44.9624995,-68.7146905
210,West Old Town Road,04468,44.9621560,-68.7139565
39,West Coiley Road,04468,44.9629375,-68.7105520
64,Lakeside Lane,04468,44.9505430,-68.8011320
563,West Old Town Road,04468,44.9791105,-68.7378295
1376,Kirkland Road,04468,44.9738080,-68.7702090
4,West Coiley Road,04468,44.9631600,-68.7138610
1406,Kirkland Road,04468,44.9755755,-68.7716895
98,East Coiley Road,04468,44.9634685,-68.7024145
101,East Coiley Road,04468,44.9660795,-68.7043815
387,West Old Town Road,04468,44.9708220,-68.7258960
1170,West Old Town Road,04468,44.9842020,-68.7907840
159,West Old Town Road,04468,44.9608065,-68.7093885
1781,Bennoch Road,04468,44.9562600,-68.6975980
35,East Coiley Road,04468,44.9654145,-68.6978090
1788,Bennoch Road,04468,44.9561900,-68.6986440
193,West Old Town Road,04468,44.9619680,-68.7124005
171,West Old Town Road,04468,44.9610485,-68.7103830
468,West Old Town Road,04468,44.9740635,-68.7325830
114,East Coiley Road,04468,44.9636910,-68.7052060
10,West Old Town Road,04468,44.9509005,-68.7011735
1062,Kirkland Road,04468,44.9564170,-68.7519505
1380,Kirkland Road,04468,44.9739895,-68.7711925
488,West Old Town Road,04468,44.9751575,-68.7335590
549,West Old Town Road,04468,44.9784430,-68.7361760
668,West Old Town Road,04468,44.9833130,-68.7464390
63,Lakeside Lane,04468,44.9508970,-68.8004665
1667,Bennoch Road,04468,44.9528710,-68.6984190
631,West Old Town Road,04468,44.9819685,-68.7428715
692,West Old Town Road,04468,44.9844800,-68.7479830
320,West Old Town Road,04468,44.9675220,-68.7216125
439,West Old Town Road,04468,44.9726290,-68.7294345
16,Winter Road,04468,44.9532340,-68.7016370
634,West Old Town Road,04468,44.9814645,-68.7440600
866,West Old Town Road,04468,44.9877640,-68.7623980
552,West Old Town Road,04468,44.9781735,-68.7381905
23,Woodland Avenue,04468,44.9466300,-68.7997425
5,Woodland Avenue,04468,44.9463690,-68.8003395
41,Woodland Avenue,04468,44.9465370,-68.7990600
1,Woodland Avenue,04468,44.9460770,-68.8008525
53,Woodland Avenue,04468,44.9463145,-68.7985225
11,Woodland Avenue,04468,44.9464735,-68.8002265
32,Woodland Avenue,04468,44.9470655,-68.7994985
3,Woodland Avenue,04468,44.9462750,-68.8005340
49,Woodland Avenue,04468,44.9463955,-68.7986810
137,Veazie Street,04468,44.9368815,-68.6532505
151,Stillwater Avenue,04468,44.9356040,-68.6541545
155,Stillwater Avenue,04468,44.9355390,-68.6542645
147,Stillwater Avenue,04468,44.9357525,-68.6539870
99,Veazie Street,04468,44.9380730,-68.6542255
276,Stillwater Avenue,04468,44.9325185,-68.6580030
345,Center Street,04468,44.9327050,-68.6563020
87,Veazie Street,04468,44.9384455,-68.6545020
93,Veazie Street,04468,44.9382705,-68.6543465
119,Veazie Street,04468,44.9374945,-68.6536775
161,Stillwater Avenue,04468,44.9353405,-68.6544800
109,Veazie Street,04468,44.9377760,-68.6539910
85,Veazie Street,04468,44.9385400,-68.6545330
119,Stillwater Avenue,04468,44.9364270,-68.6528710
81,Veazie Street,04468,44.9386130,-68.6546675
113,Veazie Street,04468,44.9376435,-68.6538270
133,Veazie Street,04468,44.9370320,-68.6533780
165,Stillwater Avenue,04468,44.9352225,-68.6546535
91,Veazie Street,04468,44.9383600,-68.6543945
149,Veazie Street,04468,44.9365930,-68.6529550
132,Bosworth Street,04468,44.9330095,-68.6400090
129,Veazie Street,04468,44.9371965,-68.6534640
239,Stillwater Avenue,04468,44.9336485,-68.6573980
265,Stillwater Avenue,04468,44.9328745,-68.6584920
259,Stillwater Avenue,04468,44.9334790,-68.6579565
97,Veazie Street,04468,44.9381780,-68.6542480
804,Woodland Avenue,04468,44.9270310,-68.7871015
700,Woodland Avenue,04468,44.9292480,-68.7871095
63,Woodland Avenue,04468,44.9461880,-68.7982000
327,Woodland Avenue,04468,44.9397620,-68.7902550
578,Woodland Avenue,04468,44.9342930,-68.7876670
759,Woodland Avenue,04468,44.9278045,-68.7884115
52,Woodland Avenue,04468,44.9467490,-68.7982050
439,Woodland Avenue,04468,44.9374950,-68.7867385
381,Woodland Avenue,04468,44.9384150,-68.7884940
799,Woodland Avenue,04468,44.9265600,-68.7879145
341,Woodland Avenue,04468,44.9392975,-68.7898700
493,Woodland Avenue,04468,44.9365430,-68.7883960
163,Woodland Avenue,04468,44.9441130,-68.7943950
609,Woodland Avenue,04468,44.9327245,-68.7880990
311,Woodland Avenue,04468,44.9404645,-68.7903505
351,Woodland Avenue,04468,44.9389955,-68.7896155
403,Woodland Avenue,04468,44.9377990,-68.7880550
879,Woodland Avenue,04468,44.9264165,-68.7844250
131,Woodland Avenue,04468,44.9448980,-68.7955810
317,Woodland Avenue,04468,44.9401965,-68.7903735
93,Woodland Avenue,04468,44.9456635,-68.7967730
683,Woodland Avenue,04468,44.9305335,-68.7886215
195,Woodland Avenue,04468,44.9435105,-68.7930770
875,Woodland Avenue,04468,44.9262295,-68.7845750
679,Woodland Avenue,04468,44.9306695,-68.7884190
77,Woodland Avenue,04468,44.9458730,-68.7974900
200,Woodland Avenue,04468,44.9438385,-68.7924165
253,Woodland Avenue,04468,44.9421410,-68.7911490
867,Woodland Avenue,04468,44.9259125,-68.7848165
117,Woodland Avenue,04468,44.9452650,-68.7959260
563,Woodland Avenue,04468,44.9340245,-68.7893535
373,Woodland Avenue,04468,44.9384760,-68.7890325
106,Woodland Avenue,04468,44.9457195,-68.7957740
831,Woodland Avenue,04468,44.9258655,-68.7866945
190,Woodland Avenue,04468,44.9443035,-68.7924900
203,Woodland Avenue,04468,44.9433665,-68.7927320
851,Woodland Avenue,04468,44.9255965,-68.7856315
225,Woodland Avenue,04468,44.9426185,-68.7918055
62,Woodland Avenue,04468,44.9466445,-68.7979215
169,Woodland Avenue,04468,44.9439740,-68.7939895
5,Lakeside Lane,04468,44.9473735,-68.7980885
876,Woodland Avenue,04468,44.9264340,-68.7851410
140,Woodland Avenue,04468,44.9448770,-68.7946160
654,Woodland Avenue,04468,44.9310885,-68.7868105
333,Woodland Avenue,04468,44.9396160,-68.7900275
469,Woodland Avenue,04468,44.9369915,-68.7878025
742,Woodland Avenue,04468,44.9288670,-68.7871705
587,Woodland Avenue,04468,44.9334180,-68.7885635
596,Woodland Avenue,04468,44.9335585,-68.7865955
815,Woodland Avenue,04468,44.9261730,-68.7873020
539,Woodland Avenue,04468,44.9348035,-68.7887625
339,Woodland Avenue,04468,44.9394205,-68.7900135
73,Woodland Avenue,04468,44.9459660,-68.7977030
363,Woodland Avenue,04468,44.9385545,-68.7892475
597,Woodland Avenue,04468,44.9331175,-68.7882300
731,Woodland Avenue,04468,44.9285565,-68.7890050
211,Woodland Avenue,04468,44.9431365,-68.7925900
655,Woodland Avenue,04468,44.9313410,-68.7881010
603,Woodland Avenue,04468,44.9328845,-68.7883090
785,Woodland Avenue,04468,44.9269875,-68.7882275
551,Woodland Avenue,04468,44.9344595,-68.7889445
567,Woodland Avenue,04468,44.9338940,-68.7889535
513,Woodland Avenue,04468,44.9357560,-68.7887815
839,Woodland Avenue,04468,44.9255835,-68.7863615
397,Woodland Avenue,04468,44.9380665,-68.7881945
821,Woodland Avenue,04468,44.9260820,-68.7870890
134,Woodland Avenue,04468,44.9454900,-68.7947740
101,Woodland Avenue,04468,44.9455770,-68.7965460
435,Woodland Avenue,04468,44.9375265,-68.7878085
693,Woodland Avenue,04468,44.9301085,-68.7892950
359,Woodland Avenue,04468,44.9386960,-68.7894235
323,Woodland Avenue,04468,44.9399350,-68.7903100
621,Woodland Avenue,04468,44.9323930,-68.7877375
302,Woodland Avenue,04468,44.9407380,-68.7895835
107,Woodland Avenue,04468,44.9453990,-68.7962625
243,Woodland Avenue,04468,44.9423700,-68.7915915
692,Woodland Avenue,04468,44.9298480,-68.7875290
201,Woodland Avenue,04468,44.9434430,-68.7928945
261,Woodland Avenue,04468,44.9419110,-68.7909080
665,Woodland Avenue,04468,44.9310230,-68.7882895
269,Woodland Avenue,04468,44.9417475,-68.7907395
387,Woodland Avenue,04468,44.9382835,-68.7883740
807,Woodland Avenue,04468,44.9263015,-68.7875600
179,Woodland Avenue,04468,44.9438570,-68.7936775
800,Stillwater Avenue,04468,44.9199262,-68.6769135
798,Stillwater Avenue,04468,44.9200703,-68.6766830
796,Stillwater Avenue,04468,44.9198906,-68.6762570
812,Stillwater Avenue,04468,44.9196666,-68.6772203
806,Stillwater Avenue,04468,44.9195037,-68.6768522
822,Stillwater Avenue,04468,44.9194715,-68.6776231
840,Stillwater Avenue,04468,44.9192179,-68.6779999
846,Stillwater Avenue,04468,44.9190400,-68.6783111
852,Stillwater Avenue,04468,44.9188853,-68.6785078
860,Stillwater Avenue,04468,44.9186348,-68.6789333
872,Stillwater Avenue,04468,44.9182490,-68.6792935
880,Stillwater Avenue,04468,44.9180311,-68.6796328
886,Stillwater Avenue,04468,44.9179168,-68.6798214
892,Stillwater Avenue,04468,44.9177903,-68.6800324
896,Stillwater Avenue,04468,44.9176920,-68.6801827
902,Stillwater Avenue,04468,44.9175666,-68.6804757
805,Stillwater Avenue,04468,44.9201366,-68.6773883
265,Main Street,04468,44.9354323,-68.6464157
1189,Main Street,04468,44.9058325,-68.6456205
726,Stillwater Avenue,04468,44.9215804,-68.6737445
7,Spaulding Street,04468,44.9135093,-68.6403399
10,Spaulding Street,04468,44.9132233,-68.6405191
21,Spaulding Street,04468,44.9128652,-68.6415896
1224,Bennoch Road,04468,44.9395571,-68.6970544
1240,Bennoch Road,04468,44.9399550,-68.6970161
1231,Bennoch Road,04468,44.9398919,-68.6963292
1168,Bennoch Road,04468,44.9375426,-68.6965972
1171,Bennoch Road,04468,44.9378599,-68.6957695
3,Littlefield Lane,04468,44.9381229,-68.6967810
1126,Bennoch Road,04468,44.9360321,-68.6971185
1136,Bennoch Road,04468,44.9364408,-68.6967361
156,Oak Street,04468,44.9310850,-68.6545863
1062,Stillwater Avenue,04473,44.9124358,-68.6831936
168,College Avenue,04469,44.9016260,-68.6600842
