House number,Street name,Postal code,Latitude,Longitude
12,Union Street,04841,44.1014072,-69.1110168
21,Limerock Street,04841,44.1047958,-69.1102512
1,Park Drive,04841,44.1020251,-69.1081503
1,Park Drive,04841,44.1021437,-69.1077148
38,Talbot Avenue,04841,44.1075370,-69.1125278
56,Talbot Avenue,04841,44.1078192,-69.1139465
44,Talbot Avenue,04841,44.1076175,-69.1130152
78,Talbot Avenue,04841,44.1081058,-69.1154341
48,Talbot Avenue,04841,44.1076983,-69.1133465
315,Main Street,04841,44.1026916,-69.1089490
316,Main Street,04841,44.1025966,-69.1096114
316,Main Street,04841,44.1026090,-69.1092580
743,Main Street,04841,44.1117675,-69.1066264
63,Union Street,04841,44.1042196,-69.1108873
344,Park Street,04841,44.1013234,-69.1344994
331,Main Street,04841,44.1028994,-69.1087644
525,Main Street,04841,44.1079871,-69.1093127
15,Old County Road,04841,44.1016965,-69.1424341
7,Old County Road,04841,44.1011237,-69.1432636
2,Main Street,04841,44.0899194,-69.1105519
32,Wesley Lane,04841,44.1370153,-69.1242103
15,Wesley Lane,04841,44.1377328,-69.1225740
84,Crescent Street,04841,44.0969835,-69.1047557
84,Grace Street,04841,44.1026076,-69.1170601
84,Main Street,04841,44.0939435,-69.1109092
84,Rankin Street,04841,44.1106536,-69.1155890
84,Talbot Avenue,04841,44.1081774,-69.1158965
84,Waldo Avenue,04841,44.1211249,-69.0956496
86,Bog Road,04841,44.1251146,-69.1456089
86,Dodge Mountain Road,04841,44.1482350,-69.1307984
86,Masonic Street,04841,44.1032422,-69.1172425
86,Mechanic Street,04841,44.0945932,-69.1046141
88,Limerock Street,04841,44.1043484,-69.1139086
88,North Main Street,04841,44.1139757,-69.1112153
88,Summer Street,04841,44.1073535,-69.1160011
88,Talbot Avenue,04841,44.1082264,-69.1164152
90,Dodge Mountain Road,04841,44.1474295,-69.1305528
90,Grace Street,04841,44.1026163,-69.1174100
90,West Meadow Road,04841,44.1180787,-69.1382055
92,Broadway,04841,44.0989606,-69.1177213
92,Broadway,04841,44.1073937,-69.1162761
92,Cedar Street,04841,44.1157138,-69.1106749
96,Camden Street,04841,44.1174266,-69.1036045
96,Limerock Street,04841,44.1043588,-69.1143430
96,Maverick Street,04841,44.1174130,-69.1085223
96,Thomaston Street,04841,44.0929648,-69.1173222
98,Camden Street,04841,44.1176698,-69.1034987
98,Pleasant Street,04841,44.0995247,-69.1163107
100,North Main Street,04841,44.1146328,-69.1113228
100,Park Street,04841,44.1016187,-69.1156651
104,Rankin Street,04841,44.1112465,-69.1169335
104,North Main Street,04841,44.1148759,-69.1113232
106,Main Street,04841,44.0956947,-69.1108750
108,North Main Street,04841,44.1150784,-69.1113861
108,Old County Road,04841,44.1060088,-69.1389895
112,North Main Street,04841,44.1153574,-69.1114616
112,Pleasant Street,04841,44.0993347,-69.1172473
116,North Main Street,04841,44.1155060,-69.1114806
118,North Main Street,04841,44.1155420,-69.1114744
120,North Main Street,04841,44.1157175,-69.1115060
120,Old County Road,04841,44.1065407,-69.1384597
120,Summer Street,04841,44.1079713,-69.1193012
124,Union Street,04841,44.1071147,-69.1116898
126,Main Street,04841,44.0968470,-69.1110583
136,Holmes Street,04841,44.0957127,-69.1197950
136,Talbot Avenue,04841,44.1089025,-69.1199278
140,Talbot Avenue,04841,44.1089382,-69.1201778
146,Cedar Street,04841,44.1172866,-69.1135461
148,Main Street,04841,44.0979184,-69.1109791
150,Cedar Street,04841,44.1178217,-69.1141970
152,Thomaston Street,04841,44.0914952,-69.1235341
156,Main Street,04841,44.0982473,-69.1107673
162,Main Street,04841,44.0986661,-69.1105869
164,Cedar Street,04841,44.1189633,-69.1159239
166,Cedar Street,04841,44.1191700,-69.1163305
166,Main Street,04841,44.0987066,-69.1105683
170,Main Street,04841,44.0988327,-69.1104998
172,Broadway,04841,44.1032864,-69.1180485
172,North Main Street,04841,44.1185169,-69.1121487
176,Main Street,04841,44.0991030,-69.1103629
192,North Main Street,04841,44.1196421,-69.1123945
196,Main Street,04841,44.0997155,-69.1100704
198,Bog Road,04841,44.1421930,-69.1353298
200,Main Street,04841,44.0998731,-69.1099832
200,Park Street,04841,44.1009944,-69.1228729
204,Main Street,04841,44.1000398,-69.1098711
210,Main Street,04841,44.1001300,-69.1097463
210,Park Street,04841,44.1012765,-69.1242729
220,Camden Street,04841,44.1236152,-69.0998282
222,Broadway,04841,44.1060283,-69.1176541
232,Broadway,04841,44.1064650,-69.1176175
232,Main Street,04841,44.1007379,-69.1094663
242,Park Street,04841,44.1013774,-69.1266907
252,Main Street,04841,44.1011207,-69.1093171
254,Main Street,04841,44.1012107,-69.1093735
256,Park Street,04841,44.1013673,-69.1277089
260,Broadway,04841,44.1081040,-69.1172334
260,Old County Road,04841,44.1130617,-69.1324578
276,Broadway,04841,44.1088921,-69.1169163
284,Old County Road,04841,44.1140390,-69.1320851
292,Old County Road,04841,44.1149078,-69.1320808
304,Old County Road,04841,44.1149407,-69.1308562
306,Broadway,04841,44.1104954,-69.1162197
318,Main Street,04841,44.1027054,-69.1092638
320,Broadway,04841,44.1114503,-69.1157280
320,Limerock Street,04841,44.1072577,-69.1296584
324,Old County Road,04841,44.1155362,-69.1297827
338,Main Street,04841,44.1029929,-69.1092383
342,Main Street,04841,44.1030508,-69.1092320
342,Park Street,04841,44.1013285,-69.1340434
344,Broadway,04841,44.1124819,-69.1149802
352,Main Street,04841,44.1033311,-69.1092649
354,Broadway,04841,44.1129549,-69.1146750
360,Broadway,04841,44.1132432,-69.1144068
360,Broadway,04841,44.1132657,-69.1144444
360,Broadway,04841,44.1132882,-69.1144944
360,Broadway,04841,44.1133106,-69.1145507
360,Broadway,04841,44.1133286,-69.1145882
374,Main Street,04841,44.1037992,-69.1093220
376,Main Street,04841,44.1038757,-69.1093472
384,Broadway,04841,44.1142344,-69.1136214
384,Old County Road,04841,44.1181589,-69.1273077
386,Main Street,04841,44.1040558,-69.1093100
392,Broadway,04841,44.1149596,-69.1131355
400,Main Street,04841,44.1042449,-69.1093041
404,Main Street,04841,44.1043845,-69.1093106
408,Main Street,04841,44.1044430,-69.1093107
410,Main Street,04841,44.1045060,-69.1093296
412,Main Street,04841,44.1045711,-69.1093074
420,Broadway,04841,44.1161759,-69.1122880
422,Broadway,04841,44.1163877,-69.1120634
432,Main Street,04841,44.1049831,-69.1093555
436,Main Street,04841,44.1050236,-69.1093618
438,Old County Road,04841,44.1202695,-69.1238065
442,Main Street,04841,44.1051722,-69.1093808
452,Old County Road,04841,44.1207566,-69.1229826
462,Old County Road,04841,44.1212523,-69.1224900
468,Old County Road,04841,44.1216984,-69.1220909
470,Main Street,04841,44.1057572,-69.1095318
474,Main Street,04841,44.1057978,-69.1095256
486,Old County Road,04841,44.1219429,-69.1208228
488,Main Street,04841,44.1060183,-69.1095948
492,Old County Road,04841,44.1221817,-69.1206234
492,Old County Road,04841,44.1222266,-69.1206859
492,Old County Road,04841,44.1222626,-69.1207235
492,Old County Road,04841,44.1223525,-69.1207924
492,Old County Road,04841,44.1223840,-69.1208362
492,Old County Road,04841,44.1224155,-69.1208801
492,Old County Road,04841,44.1226357,-69.1212242
510,Old County Road,04841,44.1227456,-69.1194309
534,Old County Road,04841,44.1237823,-69.1182081
548,Old County Road,04841,44.1240084,-69.1171461
558,Old County Road,04841,44.1241844,-69.1167840
560,Old County Road,04841,44.1242611,-69.1165779
562,Old County Road,04841,44.1252781,-69.1169424
566,Old County Road,04841,44.1244956,-69.1162034
596,Old County Road,04841,44.1261620,-69.1153817
650,Main Street,04841,44.1103266,-69.1094153
664,Main Street,04841,44.1105925,-69.1090596
666,Main Street,04841,44.1107411,-69.1090349
750,Main Street,04841,44.1121433,-69.1067194
756,Old County Road,04841,44.1310932,-69.1040972
3,Broadway Place,04841,44.1095586,-69.1166927
3,Center Street,04841,44.1112018,-69.1209134
3,Clayton Lane,04841,44.1389390,-69.1309404
3,Lake Avenue,04841,44.1240697,-69.1188898
3,Linden Street,04841,44.0973655,-69.1053685
3,Meadow Way,04841,44.1179408,-69.1251264
5,Carroll Lane,04841,44.0958260,-69.1100819
5,Center Street,04841,44.1110402,-69.1205070
5,Fogg Street,04841,44.1093144,-69.1132746
5,Forrest Avenue,04841,44.0942988,-69.1323910
5,Gordon Drive,04841,44.0922364,-69.1164650
5,Ingraham Lane,04841,44.0942957,-69.1098292
5,Jefferson Street,04841,44.1136655,-69.1060223
5,Katahdin Avenue,04841,44.1243646,-69.1026105
5,Meadow Way,04841,44.1172023,-69.1253123
5,Meadow Way,04841,44.1177161,-69.1247385
5,Oliver Woods South,04841,44.1043605,-69.1280465
5,Olympic Avenue,04841,44.1230538,-69.1034769
5,Payne Avenue,04841,44.1008806,-69.1281327
5,Robinson Street,04841,44.1004720,-69.1098531
5,Schooner Drive,04841,44.1220758,-69.0943575
5,Walker Place,04841,44.1066145,-69.1166994
7,Barter Road,04841,44.1316504,-69.1052170
7,Birch Street Place,04841,44.1173433,-69.1107967
7,Bunker Street,04841,44.1137843,-69.1089031
7,Dodge Mountain Road,04841,44.1350677,-69.1307693
7,Gamage Lane,04841,44.0917976,-69.1094873
7,Gay Street Place,04841,44.1113773,-69.1121102
7,Gordon Drive,04841,44.0920062,-69.1170330
7,J R L Drive,04841,44.1115538,-69.1243131
7,Laurel Street,04841,44.0988606,-69.1096190
7,Limerock Street,04841,44.1048974,-69.1095490
7,Lindsey Street,04841,44.1061031,-69.1103134
7,Marks Lane,04841,44.0946220,-69.1121909
7,Merry Street,04841,44.0950364,-69.1329548
5,Orchard Street,04841,44.1116843,-69.1201584
7,Purchase Street,04841,44.0986514,-69.1118050
7,Southern Drive,04841,44.1160067,-69.1276967
7,Sunrise Summit,04841,44.1443627,-69.1276391
9,Benner Road,04841,44.1207041,-69.1411799
9,Bunker Street,04841,44.1139060,-69.1087721
9,Clayton Lane,04841,44.1363041,-69.1321722
9,Cottage Street,04841,44.1108801,-69.1095788
9,Country Way,04841,44.1210637,-69.1262641
9,Ingraham Lane,04841,44.0943455,-69.1094920
9,Jameson Point Road,04841,44.1152495,-69.0851863
9,Littlefield Street,04841,44.1182928,-69.1242585
9,Merrill Drive,04841,44.0892630,-69.1142419
9,Otis Street,04841,44.0970686,-69.1099343
9,Prescott Street,04841,44.0989227,-69.1151663
9,Samoset Road,04841,44.1206144,-69.0923867
9,Schooner Drive,04841,44.1223416,-69.0941955
9,Traverse Street,04841,44.1095826,-69.1196106
9,Warren Street,04841,44.1125118,-69.1073512
11,Birch Street,04841,44.1167720,-69.1104020
11,Cedar Street,04841,44.1131882,-69.1061340
11,Center Street,04841,44.1104477,-69.1188500
11,Knowlton Street,04841,44.1113105,-69.1113915
11,Knox Street,04841,44.1127823,-69.1069018
11,Lawrence Street,04841,44.0963757,-69.1047734
11,Merrill Drive,04841,44.0884741,-69.1152959
11,Orange Street,04841,44.0981498,-69.1137593
11,State Street,04841,44.0989944,-69.1109311
11,Washington Street,04841,44.1156895,-69.1029704
13,Cedar Street,04841,44.1132466,-69.1062965
13,Cottage Street,04841,44.1109790,-69.1097601
13,Crescent Street,04841,44.0953357,-69.1096750
13,Granite Street,04841,44.1080653,-69.1108356
13,Meadow Way,04841,44.1170646,-69.1235436
15,Franklin Street,04841,44.0987990,-69.1127673
15,Grove Street,04841,44.1063575,-69.1125568
15,Jefferson Street,04841,44.1141112,-69.1060106
15,Knox Street,04841,44.1129175,-69.1067770
15,Robinson Street,04841,44.1002913,-69.1105025
15,Summer Street,04841,44.1067241,-69.1105832
17,Birch Street,04841,44.1169928,-69.1101462
17,Front Street,04841,44.1127174,-69.1040837
17,Maple Street,04841,44.1054375,-69.1142481
17,Spruce Street,04841,44.1155719,-69.1085002
17,Court Street,04841,44.1120644,-69.1138172
19,Crescent Street,04841,44.0954353,-69.1091192
19,Glenwood Avenue,04841,44.0951495,-69.1325178
19,North Main Street,04841,44.1103576,-69.1098527
19,Ocean Street,04841,44.0982265,-69.1089557
19,Spruce Street,04841,44.1157837,-69.1082819
19,Summer Street,04841,44.1068544,-69.1108084
19,Washington Street,04841,44.1158961,-69.1035019
21,Birch Street,04841,44.1173128,-69.1097719
21,Carroll Lane,04841,44.0960654,-69.1092890
21,Center Street,04841,44.1100480,-69.1179370
21,Court Street,04841,44.1121770,-69.1137425
21,Glenwood Avenue,04841,44.0950188,-69.1325800
21,Hill Street,04841,44.1100288,-69.1146631
21,Holmes Street,04841,44.0981964,-69.1121352
27,Limerock Street,04841,44.1046732,-69.1109477
21,Linden Street,04841,44.0969591,-69.1067171
21,Ocean Street,04841,44.0981952,-69.1087308
21,Orange Street,04841,44.0987032,-69.1140727
21,Summer Street,04841,44.1067821,-69.1111144
23,Cedar Street,04841,44.1136152,-69.1068283
23,Knott Street,04841,44.1163009,-69.1087202
23,Oak Street,04841,44.1028349,-69.1102823
23,Summer Street,04841,44.1068449,-69.1113331
25,Winter Street,04841,44.1031660,-69.1076778
25,Cedar Street,04841,44.1137186,-69.1070472
25,Chestnut Street,04841,44.1135160,-69.1117768
25,Clarendon Street,04841,44.0965656,-69.1086841
25,Hill Street,04841,44.1100825,-69.1149506
25,Oak Street,04841,44.1028753,-69.1104386
25,Rankin Street,04841,44.1095097,-69.1115318
25,State Street,04841,44.0997596,-69.1110013
27,Linden Street,04841,44.0968010,-69.1072977
27,Oak Street,04841,44.1028347,-69.1105635
27,Spruce Street,04841,44.1161126,-69.1079076
27,State Street,04841,44.0998901,-69.1110140
27,Water Street,04841,44.0988209,-69.1087694
29,Chestnut Street,04841,44.1137945,-69.1123584
29,Gordon Drive,04841,44.0900324,-69.1232500
29,Lawn Avenue,04841,44.1150433,-69.1150539
29,Orange Street,04841,44.0991621,-69.1143047
29,State Street,04841,44.1000072,-69.1110330
29,Summer Street,04841,44.1069076,-69.1117206
31,Garden Avenue,04841,44.0929017,-69.1337558
31,Ocean Street,04841,44.0981373,-69.1080373
33,Cedar Street,04841,44.1139658,-69.1073850
33,Crescent Street,04841,44.0956341,-69.1083825
33,Grove Street,04841,44.1065812,-69.1139442
33,James Street,04841,44.1130140,-69.1094452
33,Jameson Point Road,04841,44.1156179,-69.0861179
33,Purchase Street,04841,44.0999517,-69.1124571
33,Rankin Street,04841,44.1096397,-69.1120694
33,State Street,04841,44.1002638,-69.1110334
35,Crescent Street,04841,44.0956928,-69.1081265
35,Lake Avenue,04841,44.1269578,-69.1207268
35,Lawrence Street,04841,44.0958563,-69.1066714
37,Jameson Point Road,04841,44.1156584,-69.0862179
37,Lake Avenue,04841,44.1271869,-69.1211648
37,Main Street,04841,44.0919546,-69.1100185
37,Riverwood Drive,04841,44.1222205,-69.1263665
37,Rockland Street,04841,44.1126216,-69.1102755
37,Traverse Street,04841,44.1112039,-69.1189515
39,Glen Street,04841,44.1222085,-69.0971449
39,Jameson Point Road,04841,44.1156944,-69.0862617
39,Lakeview Drive,04841,44.1268165,-69.1181391
41,Lake Avenue,04841,44.1273621,-69.1215339
41,Masonic Street,04841,44.1034436,-69.1139194
41,Samoset Road,04841,44.1169859,-69.0868697
41,Warren Street,04841,44.1136041,-69.1091214
43,Barter Road,04841,44.1334037,-69.1077203
43,Bog Road,04841,44.1233379,-69.1514414
43,Brewster Street,04841,44.1149840,-69.1065277
43,Brewster Street,04841,44.1150110,-69.1064934
43,Farwell Drive,04841,44.1685360,-69.1569044
43,Glen Street,04841,44.1219298,-69.0967570
43,Highland Street,04841,44.1041719,-69.1192498
43,James Street,04841,44.1134140,-69.1100958
43,Jameson Point Road,04841,44.1157888,-69.0863431
43,Pacific Street,04841,44.0967708,-69.1058922
43,Pine Street,04841,44.1153881,-69.1076063
43,Rankin Street,04841,44.1098507,-69.1126571
43,Thomaston Street,04841,44.0947554,-69.1138465
43,Broad Street,04841,44.1022847,-69.1158382
43,Broad Street,04841,44.1022893,-69.1157663
45,Granite Street,04841,44.1084279,-69.1130105
45,Lovejoy Street,04841,44.0973444,-69.1133830
45,Main Street,04841,44.0926611,-69.1103634
45,Stonewood Road,04841,44.1090142,-69.1248951
47,Granite Street,04841,44.1085448,-69.1131482
47,James Street,04841,44.1134360,-69.1106270
47,North Main Street,04841,44.1118789,-69.1102179
47,Pacific Street,04841,44.0969328,-69.1059612
47,Samoset Road,04841,44.1170268,-69.0863324
47,Stonewood Road,04841,44.1091358,-69.1248391
49,Cedar Street,04841,44.1145412,-69.1082796
49,Summer Street,04841,44.1071539,-69.1130144
51,Granite Street,04841,44.1085129,-69.1135043
51,Pacific Street,04841,44.0971443,-69.1060803
51,Park Street,04841,44.1021621,-69.1123801
53,Fulton Street,04841,44.0975399,-69.1066682
53,Gay Street,04841,44.1115332,-69.1138475
53,Granite Street,04841,44.1085442,-69.1136918
55,Broadway,04841,44.0974269,-69.1164065
55,Gay Street,04841,44.1116230,-69.1141038
55,Jameson Point Road,04841,44.1161128,-69.0865123
55,Lawn Avenue,04841,44.1157217,-69.1163049
55,Masonic Street,04841,44.1035010,-69.1150378
55,Pine Street,04841,44.1160821,-69.1068577
57,Main Street,04841,44.0930213,-69.1102828
57,Pacific Street,04841,44.0973783,-69.1062056
57,Samoset Road,04841,44.1157668,-69.0857057
57,Thomaston Street,04841,44.0945473,-69.1149017
57,Warren Street,04841,44.1141390,-69.1099534
59,Crescent Street,04841,44.0962212,-69.1063597
59,Glen Street,04841,44.1213632,-69.0960124
59,Lawn Avenue,04841,44.1157845,-69.1165238
57,Masonic Street,04841,44.1035007,-69.1153189
59,Oliver Street,04841,44.1042091,-69.1265530
61,Jameson Point Road,04841,44.1163108,-69.0866875
61,Oliver Street,04841,44.1045604,-69.1263726
61,Park Street,04841,44.1020986,-69.1128798
63,Grace Street,04841,44.1028612,-69.1156050
63,Granite Street,04841,44.1086294,-69.1140043
63,Pacific Street,04841,44.0976798,-69.1063311
63,Suffolk Street,04841,44.0944693,-69.1072061
63,Ulmer Street,04841,44.1044329,-69.1235798
63,Ulmer Street,04841,44.1040412,-69.1236852
63,Union Street,04841,44.1042164,-69.1108472
65,North Main Street,04841,44.1127880,-69.1103946
65,Park Street,04841,44.1021658,-69.1132422
65,West Meadow Road,04841,44.1161809,-69.1403443
65,Camden Street,04841,44.1157604,-69.1042077
67,Jameson Point Road,04841,44.1163736,-69.0868876
67,Masonic Street,04841,44.1035001,-69.1159061
67,Rankin Street,04841,44.1105288,-69.1143204
69,Crescent Street,04841,44.0964110,-69.1055980
69,North Main Street,04841,44.1130355,-69.1104825
69,West Meadow Road,04841,44.1164964,-69.1400139
71,North Main Street,04841,44.1131706,-69.1104703
71,Summer Street,04841,44.1075304,-69.1146020
73,Rankin Street,04841,44.1107040,-69.1147393
73,Summer Street,04841,44.1074807,-69.1148643
73,Talbot Avenue,04841,44.1083897,-69.1151909
75,Cedar Street,04841,44.1154177,-69.1096621
75,Grace Street,04841,44.1028603,-69.1164921
75,Granite Street,04841,44.1088312,-69.1148607
75,Lake Avenue,04841,44.1303550,-69.1221713
75,Lawn Avenue,04841,44.1163329,-69.1173997
75,Oliver Street,04841,44.1052812,-69.1259181
77,Broadway,04841,44.0982412,-69.1168891
77,Park Street,04841,44.1021111,-69.1139543
81,Broadway,04841,44.0985516,-69.1170709
81,Cedar Street,04841,44.1156469,-69.1100562
81,Lawn Avenue,04841,44.1167416,-69.1182753
83,Holmes Street,04841,44.0969404,-69.1166429
83,Lawn Avenue,04841,44.1169978,-69.1186570
83,North Main Street,04841,44.1138231,-69.1107027
85,Masonic Street,04841,44.1035168,-69.1171806
87,North Main Street,04841,44.1139582,-69.1106904
89,Park Street,04841,44.1020604,-69.1150662
89,Talbot Avenue,04841,44.1086676,-69.1163098
91,Broadway,04841,44.0990015,-69.1173404
91,Dodge Mountain Road,04841,44.1466433,-69.1291069
91,Lawn Avenue,04841,44.1175376,-69.1190205
91,North Main Street,04841,44.1142372,-69.1107347
93,Park Street,04841,44.1020287,-69.1153223
95,Rankin Street,04841,44.1113372,-69.1162776
99,Cedar Street,04841,44.1163618,-69.1109511
99,Rankin Street,04841,44.1114135,-69.1164839
101,Maverick Street,04841,44.1179354,-69.1083858
101,North Main Street,04841,44.1147323,-69.1108418
103,Main Street,04841,44.0956915,-69.1103354
105,Broadway,04841,44.0997216,-69.1175292
105,Pleasant Street,04841,44.0998077,-69.1169297
109,Main Street,04841,44.0959607,-69.1104569
111,Pleasant Street,04841,44.0996768,-69.1172605
111,Summer Street,04841,44.1080676,-69.1176020
113,Broadway,04841,44.1001897,-69.1175551
113,Pleasant Street,04841,44.0996000,-69.1175227
115,Park Street,04841,44.1019415,-69.1169339
119,Cedar Street,04841,44.1168876,-69.1118706
119,Cedar Street,04841,44.1168651,-69.1118394
119,Summer Street,04841,44.1082690,-69.1187457
121,Broadway,04841,44.1005588,-69.1175746
125,Cedar Street,04841,44.1175169,-69.1127842
127,Summer Street,04841,44.1084345,-69.1197394
131,Lakeview Drive,04841,44.1343515,-69.1188792
135,Bog Road,04841,44.1334569,-69.1414978
141,Main Street,04841,44.0976083,-69.1104788
147,North Main Street,04841,44.1171763,-69.1112526
147,Park Street,04841,44.1018268,-69.1189952
153,Broadway,04841,44.1022333,-69.1176904
153,Broadway,04841,44.1022829,-69.1176842
153,Broadway,04841,44.1023234,-69.1176843
153,Broadway,04841,44.1023549,-69.1176843
157,Main Street,04841,44.0983422,-69.1103115
157,North Main Street,04841,44.1179684,-69.1114540
161,Bog Road,04841,44.1372451,-69.1396191
171,North Main Street,04841,44.1185088,-69.1112738
179,Main Street,04841,44.0990539,-69.1099380
183,North Main Street,04841,44.1192870,-69.1118127
189,North Main Street,04841,44.1197011,-69.1119322
193,Broadway,04841,44.1045115,-69.1174200
195,Broadway,04841,44.1047456,-69.1173705
215,Talbot Avenue,04841,44.1104812,-69.1253543
219,Bog Road,04841,44.1450824,-69.1358678
231,Park Street,04841,44.1020623,-69.1260799
233,Bog Road,04841,44.1467854,-69.1347714
233,Park Street,04841,44.1017376,-69.1266602
235,Main Street,04841,44.1007744,-69.1090416
261,Park Street,04841,44.1016909,-69.1280970
281,Park Street,04841,44.1017789,-69.1299588
283,Park Street,04841,44.1017696,-69.1301587
285,Park Street,04841,44.1017694,-69.1303336
299,Park Street,04841,44.1022462,-69.1306782
309,Main Street,04841,44.1024561,-69.1089467
311,Main Street,04841,44.1025027,-69.1089532
313,Main Street,04841,44.1025777,-69.1089425
325,Old County Road,04841,44.1153386,-69.1293324
335,Limerock Street,04841,44.1097667,-69.1283518
345,Broadway,04841,44.1123023,-69.1145237
347,Main Street,04841,44.1030867,-69.1088233
351,Broadway,04841,44.1125455,-69.1143555
357,Main Street,04841,44.1034304,-69.1089840
357,Pleasant Street,04841,44.0999430,-69.1331844
359,Main Street,04841,44.1035069,-69.1090029
359,Old County Road,04841,44.1173443,-69.1271497
365,Main Street,04841,44.1035655,-69.1089905
367,Main Street,04841,44.1036600,-69.1089969
373,Main Street,04841,44.1037680,-69.1090096
375,Main Street,04841,44.1037905,-69.1090097
375,Pleasant Street,04841,44.1000950,-69.1340406
377,Broadway,04841,44.1139285,-69.1134459
377,Main Street,04841,44.1038175,-69.1090160
377,Old County Road,04841,44.1178991,-69.1261698
383,Pleasant Street,04841,44.1003061,-69.1344471
385,Broadway,04841,44.1142169,-69.1131340
387,Main Street,04841,44.1041191,-69.1090290
387,Old County Road,04841,44.1182819,-69.1259832
389,Main Street,04841,44.1041822,-69.1090229
395,Broadway,04841,44.1148521,-69.1126604
395,Main Street,04841,44.1042407,-69.1090230
397,Broadway,04841,44.1151585,-69.1123673
397,Old County Road,04841,44.1185569,-69.1256463
399,Pleasant Street,04841,44.1009578,-69.1353857
405,Main Street,04841,44.1044342,-69.1090233
407,Main Street,04841,44.1044613,-69.1090234
407,Pleasant Street,04841,44.1012408,-69.1358361
409,Main Street,04841,44.1044928,-69.1090234
413,Main Street,04841,44.1045333,-69.1090173
415,Main Street,04841,44.1046098,-69.1090424
417,Main Street,04841,44.1046683,-69.1090425
423,Main Street,04841,44.1048124,-69.1090553
425,Main Street,04841,44.1048574,-69.1090553
427,Main Street,04841,44.1048979,-69.1090804
441,Main Street,04841,44.1051994,-69.1091122
453,Main Street,04841,44.1054785,-69.1091752
453,Old County Road,04841,44.1204960,-69.1225321
455,Old County Road,04841,44.1207124,-69.1222201
457,Main Street,04841,44.1055595,-69.1091816
463,Main Street,04841,44.1056315,-69.1091880
467,Main Street,04841,44.1057801,-69.1092195
475,Main Street,04841,44.1059466,-69.1092323
475,Old County Road,04841,44.1212988,-69.1211527
481,Main Street,04841,44.1060186,-69.1092761
491,Main Street,04841,44.1061401,-69.1092889
497,Main Street,04841,44.1062436,-69.1093078
497,Old County Road,04841,44.1220204,-69.1198419
499,Main Street,04841,44.1062752,-69.1093141
503,Main Street,04841,44.1063427,-69.1093330
565,Old County Road,04841,44.1241808,-69.1158903
613,Main Street,04841,44.1092010,-69.1095507
711,Main Street,04841,44.1114671,-69.1077242
17,Country Way,04841,44.1205085,-69.1275689
16,Country Way,04841,44.1201625,-69.1269995
12,Country Way,04841,44.1204196,-69.1265127
34,Riverwood Drive,04841,44.1214187,-69.1267648
39,Riverwood Drive,04841,44.1219407,-69.1269284
33,Riverwood Drive,04841,44.1215857,-69.1263777
27,Riverwood Drive,04841,44.1213206,-69.1259771
23,Riverwood Drive,04841,44.1210013,-69.1256328
17,Riverwood Drive,04841,44.1207317,-69.1252385
12,Riverwood Drive,04841,44.1201690,-69.1252248
420,Old County Road,04841,44.1196155,-69.1250362
400,Old County Road,04841,44.1192678,-69.1259665
99,Park Street,04841,44.1021318,-69.1157660
6,Donahue Place,04841,44.1012161,-69.1175384
21,Deerfield Lane,04841,44.1308601,-69.1164110
21,Farwell Drive,04841,44.1669021,-69.1600083
21,Florence Street,04841,44.0997050,-69.1115696
21,Forrest Avenue,04841,44.0932805,-69.1331757
21,Fulton Street,04841,44.0975962,-69.1089733
21,Garden Avenue,04841,44.0934643,-69.1338382
21,Gay Street,04841,44.1108646,-69.1116468
215,Limerock Street,04841,44.1053036,-69.1218448
12,Trinity Street,04841,44.1136179,-69.1039041
12,Traverse Street,04841,44.1099871,-69.1201674
21,Lindsey Street,04841,44.1060709,-69.1110943
12,Talbot Avenue,04841,44.1071650,-69.1108027
234,Limerock Street,04841,44.1048648,-69.1238243
21,Masonic Street,04841,44.1034046,-69.1124262
21,Merrill Drive,04841,44.0879531,-69.1185427
12,Shaw Avenue,04841,44.1057528,-69.1185345
12,Seavey Lane,04841,44.0927587,-69.1118564
21,Purchase Street,04841,44.0994479,-69.1121064
12,Purchase Street,04841,44.0987995,-69.1122676
234,Park Street,04841,44.1005811,-69.1262642
1,Broad Street Place,04841,44.1044088,-69.1165327
1,City Place,04841,44.1035731,-69.1235780
215,Rankin Street,04841,44.1147369,-69.1238824
1,Gordon Drive,04841,44.0926522,-69.1148293
1,Jameson Point Road,04841,44.1156370,-69.0847557
1,Melrose Circle South,04841,44.1162690,-69.1181806
23,Holmes Street,04841,44.0981422,-69.1123475
1,Otis Street,04841,44.0970366,-69.1104527
21,Stonewood Road,04841,44.1094419,-69.1248898
22,Linden Street,04841,44.0967928,-69.1065231
10,Benner Road,04841,44.1198604,-69.1390220
215,Thomaston Street,04841,44.0907348,-69.1272613
10,Carroll Lane,04841,44.0962990,-69.1097830
10,Claremont Street,04841,44.1039077,-69.1135267
10,Farwell Drive,04841,44.1676643,-69.1621680
10,Frederick Street,04841,44.1164570,-69.1102764
8,Gay Street Place,04841,44.1103028,-69.1107023
10,Gordon Drive,04841,44.0906458,-69.1179047
10,Halet Avenue,04841,44.0942255,-69.1334902
10,Knott Street,04841,44.1159128,-69.1097943
10,Lisle Street,04841,44.1001547,-69.1166118
10,Masonic Street,04841,44.1032298,-69.1115887
10,Maverick Street,04841,44.1145728,-69.1032684
9,Oliver Woods South,04841,44.1048908,-69.1288473
10,Payne Avenue,04841,44.1000668,-69.1272001
10,Perry Street,04841,44.1133384,-69.1043222
22,Masonic Street,04841,44.1031614,-69.1124945
10,Prescott Street,04841,44.0987023,-69.1149223
21,Trinity Street,04841,44.1142525,-69.1041114
10,Seavey Lane,04841,44.0928220,-69.1115504
100,Maverick Street,04841,44.1176963,-69.1089227
100,Thomaston Street,04841,44.0929863,-69.1182404
216,Limerock Street,04841,44.1044793,-69.1223679
112,Thomaston Street,04841,44.0924321,-69.1187328
235,Rankin Street,04841,44.1154289,-69.1250336
101,Gay Street West,04841,44.1126194,-69.1169737
101,Limerock Street,04841,44.1048969,-69.1146531
112,Talbot Avenue,04841,44.1085622,-69.1181278
102,Gay Street West,04841,44.1122950,-69.1172667
103,Masonic Street,04841,44.1035695,-69.1185114
103,Maverick Street,04841,44.1180883,-69.1085298
107,North Main Street,04841,44.1151464,-69.1109363
103,Rankin Street,04841,44.1115437,-69.1167654
103,West Meadow Road,04841,44.1190113,-69.1375828
104,Camden Street,04841,44.1180211,-69.1033244
104,Limerock Street,04841,44.1045949,-69.1150649
104,Talbot Avenue,04841,44.1083199,-69.1174213
105,Maverick Street,04841,44.1182589,-69.1090363
106,Thomaston Street,04841,44.0930266,-69.1185091
107,Bog Road,04841,44.1294018,-69.1443882
23,Merrill Drive,04841,44.0877949,-69.1191919
11,Carroll Lane,04841,44.0960424,-69.1097887
236,Cedar Street,04841,44.1210262,-69.1192274
11,Frederick Street,04841,44.1163493,-69.1098701
11,Garden Avenue,04841,44.0941663,-69.1340647
11,Gordon Drive,04841,44.0917438,-69.1183316
11,Jameson Point Road,04841,44.1151909,-69.0852737
217,Cedar Street,04841,44.1209475,-69.1169276
225,Talbot Avenue,04841,44.1110962,-69.1269176
11,Oliver Woods North,04841,44.1059310,-69.1285747
236,Maverick Street,04841,44.1226632,-69.1164123
11,Shaw Avenue,04841,44.1057037,-69.1181408
11,Tillson Avenue,04841,44.1037865,-69.1085411
110,Limerock Street,04841,44.1045628,-69.1156083
15,Simmons Street,04841,44.1179085,-69.1128786
15,Shaw Avenue,04841,44.1059108,-69.1180787
226,Cedar Street,04841,44.1206397,-69.1185643
150,Broadway,04841,44.1025925,-69.1186032
150,Limerock Street,04841,44.1049608,-69.1182143
150,Talbot Avenue,04841,44.1091267,-69.1207343
23,Perry Street,04841,44.1141210,-69.1050671
150,Union Street,04841,44.1085012,-69.1116611
15,Quarry Trail,04841,44.1702768,-69.1578346
15,Payne Avenue,04841,44.1000925,-69.1283871
12,Nevelson Street,04841,44.1165498,-69.1250360
15,Nevelson Street,04841,44.1165418,-69.1241174
15,Merrill Drive,04841,44.0885093,-69.1160955
15,Melrose Circle North,04841,44.1172809,-69.1191512
15,Marks Lane,04841,44.0942891,-69.1119654
15,Limerock Street,04841,44.1048748,-69.1096551
15,Knott Street,04841,44.1160530,-69.1090322
153,Lakeview Drive,04841,44.1370328,-69.1204723
22,Rockland Street,04841,44.1120008,-69.1098495
23,Purchase Street,04841,44.0994793,-69.1122314
15,Ingraham Lane,04841,44.0945258,-69.1093237
15,Gordon Drive,04841,44.0912610,-69.1193738
154,Talbot Avenue,04841,44.1091172,-69.1211778
155,Lakeview Drive,04841,44.1374424,-69.1204481
237,Maverick Street,04841,44.1230503,-69.1164193
155,Limerock Street,04841,44.1052394,-69.1187334
15,Clarendon Street,04841,44.0965426,-69.1092712
156,Limerock Street,04841,44.1048612,-69.1187639
116,Old County Road,04841,44.1062927,-69.1387403
237,Park Street,04841,44.1018451,-69.1270665
156,Thomaston Street,04841,44.0912694,-69.1241457
15,Belvidere Street,04841,44.0991664,-69.1231690
12,Moran Drive,04841,44.0885579,-69.1213732
157,Talbot Avenue,04841,44.1096797,-69.1214352
237,West Meadow Road,04841,44.1291567,-69.1271438
158,Limerock Street,04841,44.1047933,-69.1190761
158,North Main Street,04841,44.1178103,-69.1119974
158,Talbot Avenue,04841,44.1092607,-69.1217404
149,Bog Road,04841,44.1356769,-69.1409093
148,Cedar Street,04841,44.1175925,-69.1137966
148,Broadway,04841,44.1019805,-69.1184395
16,Benner Road,04841,44.1221648,-69.1393649
16,Cedar Street,04841,44.1130978,-69.1065587
147,Talbot Avenue,04841,44.1094868,-69.1208037
16,Claremont Street,04841,44.1041283,-69.1134896
147,Cedar Street,04841,44.1180471,-69.1138225
146,Thomaston Street,04841,44.0918567,-69.1221919
146,Rankin Street,04841,44.1122698,-69.1198409
16,Knott Street,04841,44.1162553,-69.1093887
12,Carroll Lane,04841,44.0962856,-69.1096518
16,Littlefield Street,04841,44.1170789,-69.1228875
16,Maverick Street,04841,44.1147930,-69.1037124
16,Nevelson Street,04841,44.1161456,-69.1242040
145,West Meadow Road,04841,44.1222336,-69.1345406
16,Otis Street,04841,44.0973257,-69.1094725
145,Talbot Avenue,04841,44.1094062,-69.1203724
16,Payson Lane,04841,44.0916870,-69.1120855
145,Rankin Street,04841,44.1130480,-69.1204548
12,Melrose Circle South,04841,44.1164921,-69.1201119
16,Scott Street,04841,44.0976040,-69.1054814
16,Simmons Street,04841,44.1181787,-69.1127354
16,Spring Lane Extension,04841,44.1422622,-69.1218270
16,Thomaston Street,04841,44.0951134,-69.1114735
16,Thomaston Street,04841,44.0950861,-69.1117921
238,Rankin Street,04841,44.1154009,-69.1259333
144,Thomaston Street,04841,44.0919877,-69.1218424
160,Cedar Street,04841,44.1182035,-69.1149726
144,Talbot Avenue,04841,44.1089965,-69.1204153
227,West Meadow Road,04841,44.1290203,-69.1283123
160,Thomaston Street,04841,44.0909443,-69.1250195
161,Limerock Street,04841,44.1051580,-69.1190519
143,Rankin Street,04841,44.1129004,-69.1194735
162,Cedar Street,04841,44.1187790,-69.1156486
162,Lakeview Drive,04841,44.1384497,-69.1215004
162,West Meadow Road,04841,44.1235454,-69.1330375
22,Trinity Street,04841,44.1139821,-69.1044046
163,Limerock Street,04841,44.1051080,-69.1194828
142,Thomaston Street,04841,44.0920871,-69.1214928
164,Rankin Street,04841,44.1125124,-69.1203600
164,Talbot Avenue,04841,44.1093949,-69.1225155
12,Benner Road,04841,44.1208863,-69.1393931
166,Lakeview Drive,04841,44.1393233,-69.1212521
140,West Meadow Road,04841,44.1215627,-69.1347390
168,North Main Street,04841,44.1183054,-69.1121108
211,Thomaston Street,04841,44.0909468,-69.1269058
168,Rankin Street,04841,44.1127548,-69.1209853
168,West Meadow Road,04841,44.1239193,-69.1328008
14,Shaw Avenue,04841,44.1059148,-69.1185411
12,Barter Road,04841,44.1316313,-69.1063982
17,Dunton Avenue,04841,44.0914804,-69.1116728
17,Farwell Drive,04841,44.1666532,-69.1609519
14,Purchase Street,04841,44.0989705,-69.1123553
17,Frederick Street,04841,44.1165747,-69.1095893
17,Garden Avenue,04841,44.0937163,-69.1339450
17,Gordon Drive,04841,44.0906916,-69.1214775
17,Ingraham Lane,04841,44.0945533,-69.1087678
219,Rankin Street,04841,44.1149257,-69.1241952
14,Nevelson Street,04841,44.1163207,-69.1246418
17,Lindsey Street,04841,44.1060441,-69.1108068
17,Littlefield Street,04841,44.1176279,-69.1230449
118,Camden Street,04841,44.1185122,-69.1028566
14,Melrose Circle South,04841,44.1169111,-69.1198190
220,Broadway,04841,44.1057626,-69.1177411
17,Maverick Street,04841,44.1150362,-69.1036379
14,Marks Lane,04841,44.0945234,-69.1117598
14,Marine Street,04841,44.0955703,-69.1043472
14,Lawrence Street,04841,44.0960110,-69.1048477
14,Knott Street,04841,44.1161606,-69.1095323
17,Rocky Hill Avenue,04841,44.1184983,-69.1033190
14,Holmes Street,04841,44.0981070,-69.1115041
17,Simmons Street,04841,44.1179584,-69.1125225
14,Frederick Street,04841,44.1165562,-69.1100579
170,Lakeview Drive,04841,44.1400665,-69.1208410
170,Maverick Street,04841,44.1202449,-69.1127893
14,Crescent Street,04841,44.0956148,-69.1097380
14,Camden Street,04841,44.1131076,-69.1057027
172,Camden Street,04841,44.1217271,-69.1019810
139,Rankin Street,04841,44.1124597,-69.1191040
174,Maverick Street,04841,44.1203573,-69.1129520
174,West Meadow Road,04841,44.1246137,-69.1317775
229,Park Street,04841,44.1018513,-69.1255547
230,Limerock Street,04841,44.1047932,-69.1234306
175,Broadway,04841,44.1035660,-69.1175181
175,Rankin Street,04841,44.1146227,-69.1212891
176,Broadway,04841,44.1035835,-69.1180241
176,Maverick Street,04841,44.1204472,-69.1130959
138,Rankin Street,04841,44.1121713,-69.1193721
22,Barter Road,04841,44.1324309,-69.1081310
138,Limerock Street,04841,44.1050517,-69.1173773
178,Lakeview Drive,04841,44.1407107,-69.1203798
18,Barter Road,04841,44.1321530,-69.1068429
18,Clayton Lane,04841,44.1361742,-69.1354411
18,Dunton Avenue,04841,44.0908457,-69.1115655
18,Forrest Avenue,04841,44.0936269,-69.1333576
18,Frederick Street,04841,44.1166869,-69.1099082
18,Gay Street,04841,44.1105452,-69.1114276
18,Halls Lane,04841,44.0972601,-69.1121022
18,Ingraham Lane,04841,44.0941569,-69.1090107
18,Kelley Lane,04841,44.0939423,-69.1121709
135,Holmes Street,04841,44.0959916,-69.1200267
18,Nevelson Street,04841,44.1163308,-69.1236358
18,Shaw Avenue,04841,44.1060859,-69.1185039
18,Simmons Street,04841,44.1181744,-69.1125167
134,Rankin Street,04841,44.1119871,-69.1189718
18,Suffolk Street,04841,44.0974036,-69.1080172
18,Talbot Avenue,04841,44.1072097,-69.1111901
12,Knox Street,04841,44.1131917,-69.1072212
14,Traverse Street,04841,44.1104376,-69.1199184
12,Knowlton Street,04841,44.1114092,-69.1117666
24,Clarendon Street,04841,44.0968085,-69.1089656
180,Lakeview Drive,04841,44.1410441,-69.1201492
22,Brewster Street,04841,44.1144605,-69.1078858
181,Limerock Street,04841,44.1048639,-69.1204694
14,Berkeley Street,04841,44.0990527,-69.1156288
183,Limerock Street,04841,44.1047960,-69.1208129
22,Camden Street,04841,44.1136298,-69.1056786
183,Thomaston Street,04841,44.0918823,-69.1235724
184,Broadway,04841,44.1039392,-69.1179249
132,Limerock Street,04841,44.1050477,-69.1169212
184,Lakeview Drive,04841,44.1416072,-69.1197190
213,Limerock Street,04841,44.1052725,-69.1215198
187,Bog Road,04841,44.1409030,-69.1374836
188,Bog Road,04841,44.1395722,-69.1360302
188,Maverick Street,04841,44.1208111,-69.1138778
111,North Main Street,04841,44.1153175,-69.1109179
115,Talbot Avenue,04841,44.1089719,-69.1181473
130,Talbot Avenue,04841,44.1087906,-69.1193028
189,Broadway,04841,44.1042998,-69.1174695
130,Limerock Street,04841,44.1050344,-69.1166713
19,Belvidere Street,04841,44.0995714,-69.1233135
13,Trinity Street,04841,44.1139873,-69.1035860
221,Talbot Avenue,04841,44.1108902,-69.1259550
13,Traverse Street,04841,44.1099517,-69.1196051
13,Talbot Avenue,04841,44.1074713,-69.1106908
19,Fales Street,04841,44.1167393,-69.1019974
111,Limerock Street,04841,44.1052157,-69.1154284
213,Rankin Street,04841,44.1144136,-69.1231507
19,Knott Street,04841,44.1161972,-69.1088950
119,West Meadow Road,04841,44.1204805,-69.1362426
19,McLoud Street,04841,44.0973732,-69.1068678
19,Merrill Drive,04841,44.0882061,-69.1177250
13,Merrill Drive,04841,44.0890277,-69.1154469
15,Trinity Street,04841,44.1140231,-69.1039048
13,Littlefield Street,04841,44.1179199,-69.1236141
13,Lakeview Drive,04841,44.1253628,-69.1177988
19,Tea Street,04841,44.1101980,-69.1119767
19,Traverse Street,04841,44.1102985,-69.1194058
19,Valley View,04841,44.0956316,-69.1155160
19,Valley View,04841,44.0957674,-69.1147604
24,Frederick Street,04841,44.1173764,-69.1091346
191,Thomaston Street,04841,44.0919890,-69.1248093
191,West Meadow Road,04841,44.1256765,-69.1314923
192,Broadway,04841,44.1043759,-69.1179258
13,Claremont Street,04841,44.1040702,-69.1130772
192,Limerock Street,04841,44.1043408,-69.1213617
13,Carroll Lane,04841,44.0960516,-69.1096076
13,Bunker Street,04841,44.1140863,-69.1085537
194,Broadway,04841,44.1045695,-69.1178637
129,Talbot Avenue,04841,44.1092271,-69.1194599
129,Rankin Street,04841,44.1121903,-69.1184037
129,Lakeview Drive,04841,44.1338824,-69.1197596
195,Talbot Avenue,04841,44.1099792,-69.1234164
196,Limerock Street,04841,44.1044168,-69.1217930
22,Edwards Street,04841,44.0990275,-69.1139109
198,Rankin Street,04841,44.1138420,-69.1230808
198,Talbot Avenue,04841,44.1097846,-69.1243344
199,Talbot Avenue,04841,44.1101628,-69.1243040
2,City Place,04841,44.1031002,-69.1237644
222,Talbot Avenue,04841,44.1106503,-69.1271666
2,Claremont Street,04841,44.1034755,-69.1135071
2,Gordon Drive,04841,44.0927163,-69.1136864
2,Lakeview Drive,04841,44.1241018,-69.1182837
2,Littlefield Street,04841,44.1183054,-69.1251396
2,Lovejoy Street,04841,44.0948639,-69.1134344
2,Melrose Circle South,04841,44.1158370,-69.1180485
2,Merry Street,04841,44.0945956,-69.1326852
24,Holmes Street,04841,44.0979264,-69.1120910
233,Broadway,04841,44.1066366,-69.1170243
2,Purchase Street,04841,44.0982371,-69.1119791
126,Limerock Street,04841,44.1049086,-69.1164462
125,West Meadow Road,04841,44.1207687,-69.1361245
125,Talbot Avenue,04841,44.1090880,-69.1189785
20,Frederick Street,04841,44.1167771,-69.1097646
23,Dunton Avenue,04841,44.0912907,-69.1123221
22,Frederick Street,04841,44.1168988,-69.1096586
20,Gamage Lane,04841,44.0923878,-69.1089325
22,Fulton Street,04841,44.0978843,-69.1090363
20,Gordon Drive,04841,44.0897655,-69.1203014
20,Grace Street,04841,44.1027158,-69.1124249
20,Gurdy Street,04841,44.1116975,-69.1115859
125,Limerock Street,04841,44.1054039,-69.1163097
20,Holmes Street,04841,44.0980031,-69.1118663
20,Maverick Street,04841,44.1148738,-69.1039562
12,Grace Street,04841,44.1027389,-69.1118065
22,Gurdy Street,04841,44.1118053,-69.1118111
20,Thomaston Street,04841,44.0949283,-69.1120354
22,Halls Lane,04841,44.0971652,-69.1124893
201,Thomaston Street,04841,44.0910242,-69.1260690
203,Park Street,04841,44.1021246,-69.1226504
215,Broadway,04841,44.1055200,-69.1172471
204,Rankin Street,04841,44.1140665,-69.1235436
205,Rankin Street,04841,44.1155173,-69.1224031
206,Old County Road,04841,44.1108990,-69.1340963
208,Talbot Avenue,04841,44.1098337,-69.1247406
120,Rankin Street,04841,44.1115425,-69.1179587
21,Clarendon Street,04841,44.0965519,-69.1089776
170 A,Rankin Street,04841,44.1126324,-69.1217724
176,Rankin Street,04841,44.1129649,-69.1223416
184,Rankin Street,04841,44.1135361,-69.1228552
5,Lovejoy Street,04841,44.0953960,-69.1124735
28,Front Street,04841,44.1131636,-69.1035721
26,Oliver Street,04841,44.1023254,-69.1283107
255,Talbot Avenue,04841,44.1114649,-69.1273808
26,Holmes Street,04841,44.0978947,-69.1122658
3,Trinity Street,04841,44.1134611,-69.1030977
25,Knott Street,04841,44.1164496,-69.1085705
3,Carroll Lane,04841,44.0960241,-69.1100948
30,Suffolk Street,04841,44.0967331,-69.1077724
310,Limerock Street,04841,44.1069344,-69.1289705
3,Oliver Woods North,04841,44.1052168,-69.1271237
274,Old County Road,04841,44.1134718,-69.1320151
26,Suffolk Street,04841,44.0969490,-69.1078914
3,Walker Place,04841,44.1065743,-69.1163932
252,Cedar Street,04841,44.1215520,-69.1201034
240,Rankin Street,04841,44.1150526,-69.1274822
26,Gay Street,04841,44.1107067,-69.1119714
272,Limerock Street,04841,44.1057219,-69.1263564
241,Broadway,04841,44.1071500,-69.1169004
241,Broadway,04841,44.1071455,-69.1168629
241,Broadway,04841,44.1071455,-69.1168192
241,Broadway,04841,44.1071366,-69.1167817
241,Broadway,04841,44.1071276,-69.1167317
305,Broadway,04841,44.1102798,-69.1157382
288,Old County Road,04841,44.1140846,-69.1315791
300,Limerock Street,04841,44.1066064,-69.1283825
270,Park Street,04841,44.1008663,-69.1288573
252,Limerock Street,04841,44.1052055,-69.1251370
25,Gordon Drive,04841,44.0907174,-69.1225893
30,Purchase Street,04841,44.0996904,-69.1127253
300,Talbot Avenue,04841,44.1128469,-69.1313077
19,Rockland Street,04841,44.1121091,-69.1095061
260,West Meadow Road,04841,44.1288991,-69.1238933
26,Barter Road,04841,44.1325701,-69.1085751
252,Rankin Street,04841,44.1158459,-69.1265654
287,Broadway,04841,44.1094106,-69.1161489
28,Pacific Street,04841,44.0958391,-69.1057594
26,Shaw Avenue,04841,44.1065271,-69.1184548
25,Masonic Street,04841,44.1033997,-69.1127448
283,Old County Road,04841,44.1135404,-69.1311405
30,Payson Lane,04841,44.0917846,-69.1135347
286,Limerock Street,04841,44.1064407,-69.1276886
24,Orange Street,04841,44.0988018,-69.1144977
24,Otis Street,04841,44.0973171,-69.1090540
31,Talbot Avenue,04841,44.1077085,-69.1120470
26,Masonic Street,04841,44.1031882,-69.1127319
29,Jefferson Street,04841,44.1147956,-69.1058119
3,Sunrise Summit,04841,44.1443437,-69.1285142
29,Stonewood Road,04841,44.1095221,-69.1256397
259,Talbot Avenue,04841,44.1117070,-69.1282061
246,Limerock Street,04841,44.1050844,-69.1247744
29,Farwell Drive,04841,44.1675969,-69.1589157
31,Purchase Street,04841,44.0997853,-69.1123756
280,Old County Road,04841,44.1138274,-69.1321284
277,Talbot Avenue,04841,44.1124800,-69.1294011
31,Suffolk Street,04841,44.0965841,-69.1081781
3,Jameson Point Road,04841,44.1155649,-69.0848368
29,Warren Street,04841,44.1131276,-69.1083520
249,Bog Road,04841,44.1501041,-69.1339036
31,Stonewood Road,04841,44.1094005,-69.1256832
282,Talbot Avenue,04841,44.1124967,-69.1305259
26,Thomaston Street,04841,44.0948964,-69.1123914
29,Rockland Street,04841,44.1124328,-69.1099503
27,Littlefield Street,04841,44.1164664,-69.1230800
312,Broadway,04841,44.1108287,-69.1160329
307,Talbot Avenue,04841,44.1134462,-69.1308279
25,Eliza Steele Drive,04841,44.1146907,-69.1164216
27,Lake Avenue,04841,44.1262826,-69.1207004
25,Dunton Avenue,04841,44.0908856,-69.1122276
31,Masonic Street,04841,44.1034399,-69.1131447
28,Linden Street,04841,44.0965941,-69.1071537
307,Limerock Street,04841,44.1071734,-69.1286211
295,Talbot Avenue,04841,44.1131042,-69.1306897
295,Talbot Avenue,04841,44.1129336,-69.1303269
3,Lakeview Drive,04841,44.1246830,-69.1178162
316,Old County Road,04841,44.1153828,-69.1300323
269,Old County Road,04841,44.1131302,-69.1316270
30,Moran Drive,04841,44.0911270,-69.1226651
31,Lawrence Street,04841,44.0959603,-69.1061906
290,Limerock Street,04841,44.1065889,-69.1280013
24,Schooner Drive,04841,44.1232692,-69.0938032
31,Edwards Street,04841,44.0995227,-69.1138869
282,Park Street,04841,44.1013729,-69.1306513
27,Stonewood Road,04841,44.1096664,-69.1254151
28,Shaw Avenue,04841,44.1066937,-69.1184177
25,Littlefield Street,04841,44.1166111,-69.1225366
25,Suffolk Street,04841,44.0968721,-69.1082911
301,Limerock Street,04841,44.1070434,-69.1281460
276,Talbot Avenue,04841,44.1120388,-69.1294439
26,Valley View,04841,44.0954387,-69.1148098
26,Knott Street,04841,44.1167465,-69.1087835
316,Limerock Street,04841,44.1071276,-69.1293083
25,Linden Street,04841,44.0968688,-69.1070730
25,Ocean Street,04841,44.0981820,-69.1084496
256,Old County Road,04841,44.1125887,-69.1327130
30,Sherer Lane,04841,44.1171825,-69.1309111
294,Broadway,04841,44.1099189,-69.1165185
28,Gordon Drive,04841,44.0895026,-69.1219747
3,Tea Street,04841,44.1098974,-69.1109390
28,Gay Street,04841,44.1107604,-69.1123089
3,Melrose Circle South,04841,44.1160572,-69.1184426
27,Fulton Street,04841,44.0975607,-69.1084360
28,Grace Street,04841,44.1026838,-69.1128996
27,Trinity Street,04841,44.1144412,-69.1045054
305,Old County Road,04841,44.1143657,-69.1298427
275,Talbot Avenue,04841,44.1122374,-69.1289632
29,Tea Street,04841,44.1105123,-69.1128396
22,Birch Street,04841,44.1172357,-69.1103778
42,Fulton Street,04841,44.0977958,-69.1074307
39,Rankin Street,04841,44.1097340,-69.1123632
43,North Main Street,04841,44.1117348,-69.1101802
53,West Meadow Road,04841,44.1150862,-69.1410478
57,West Meadow Road,04841,44.1153116,-69.1407672
95,West Meadow Road,04841,44.1184834,-69.1386063
333,Limerock Street,04841,44.1080674,-69.1302662
76,Park Street,04841,44.1017148,-69.1140285
108,Camden Street,04841,44.1181743,-69.1031122
53,Lake Avenue,04841,44.1282077,-69.1222356
10,Camden St Terrace,04841,44.1169303,-69.1048784
179,Thomaston Street,04841,44.0920044,-69.1230230
231,Limerock Street,04841,44.1054421,-69.1228197
4,Bog Road,04841,44.1203128,-69.1548020
5,Bog Road,04841,44.1207852,-69.1550032
14,Bog Road,04841,44.1207277,-69.1542031
7,Bog Road,04841,44.1211143,-69.1546041
18,Bog Road,04841,44.1210028,-69.1538414
20,Bog Road,04841,44.1217109,-69.1528371
56,Bog Road,04841,44.1234435,-69.1498669
53,Bog Road,04841,44.1239017,-69.1506055
57,Bog Road,04841,44.1238261,-69.1499428
76,Bog Road,04841,44.1244054,-69.1475007
73,Bog Road,04841,44.1250581,-69.1475399
77,Bog Road,04841,44.1251131,-69.1468025
85,Bog Road,04841,44.1256324,-69.1455352
95,Bog Road,04841,44.1278162,-69.1451593
101,Bog Road,04841,44.1287619,-69.1449116
112,Bog Road,04841,44.1296558,-69.1428013
119,Bog Road,04841,44.1310555,-69.1430734
123,Bog Road,04841,44.1313849,-69.1424367
213,Bog Road,04841,44.1442584,-69.1360847
223,Bog Road,04841,44.1454838,-69.1352686
239,Bog Road,04841,44.1481099,-69.1338616
245,Bog Road,04841,44.1487856,-69.1335255
255,Bog Road,04841,44.1507707,-69.1336300
91,Mountain Road,04841,44.1242084,-69.1467316
81,Mountain Road,04841,44.1226823,-69.1467028
71,Mountain Road,04841,44.1216829,-69.1467628
76,Mountain Road,04841,44.1225128,-69.1455212
30,Mountain Road,04841,44.1201910,-69.1411037
7,Mountain Road,04841,44.1178150,-69.1403295
15,Mountain Road,04841,44.1180169,-69.1408986
20,Mountain Road,04841,44.1191068,-69.1405137
24,Mountain Road,04841,44.1196244,-69.1406212
3,West Meadow Road,04861,44.1107549,-69.1451488
9,West Meadow Road,04861,44.1113490,-69.1452814
17,West Meadow Road,04861,44.1117370,-69.1446013
21,West Meadow Road,04861,44.1122459,-69.1444464
31,West Meadow Road,04841,44.1133771,-69.1434306
37,West Meadow Road,04841,44.1138238,-69.1425382
41,West Meadow Road,04841,44.1143152,-69.1419833
45,West Meadow Road,04841,44.1146039,-69.1415216
54,West Meadow Road,04841,44.1146859,-69.1407594
58,West Meadow Road,04841,44.1157446,-69.1400809
64,West Meadow Road,04841,44.1159068,-69.1399813
61,West Meadow Road,04841,44.1157531,-69.1405183
67,West Meadow Road,04841,44.1163567,-69.1401823
68,West Meadow Road,04841,44.1160334,-69.1394817
72,West Meadow Road,04841,44.1164251,-69.1394451
77,West Meadow Road,04841,44.1171271,-69.1396405
86,West Meadow Road,04841,44.1175739,-69.1387229
85,West Meadow Road,04841,44.1178076,-69.1390922
91,West Meadow Road,04841,44.1181950,-69.1388369
99,West Meadow Road,04841,44.1187677,-69.1380134
94,West Meadow Road,04841,44.1183446,-69.1379874
49,West Meadow Road,04841,44.1156908,-69.1434987
165,West Meadow Road,04841,44.1265018,-69.1378126
16,Dodge Mountain Road,04841,44.1349667,-69.1286002
15,Dodge Mountain Road,04841,44.1375169,-69.1305435
34,Dodge Mountain Road,04841,44.1396705,-69.1289604
10,Clayton Lane,04841,44.1379453,-69.1337636
17,Clayton Lane,04841,44.1362391,-69.1338098
114,Dodge Mountain Road,04841,44.1418777,-69.1316221
54,Dodge Mountain Road,04841,44.1419077,-69.1250145
74,Dodge Mountain Road,04841,44.1484754,-69.1291734
98,Dodge Mountain Road,04841,44.1447728,-69.1311971
106,Dodge Mountain Road,04841,44.1429496,-69.1311806
1,Sunrise Summit,04841,44.1448062,-69.1295718
11,Sunrise Summit,04841,44.1435855,-69.1262245
151,Lakeview Drive,04841,44.1358266,-69.1201698
135,Lakeview Drive,04841,44.1349816,-69.1189930
34,Lakeview Drive,04841,44.1261494,-69.1189003
6,Lakeview Drive,04841,44.1247721,-69.1187538
2,Lake Avenue,04841,44.1235296,-69.1187763
4,Lake Avenue,04841,44.1238262,-69.1192081
4,Lake Avenue,04841,44.1237902,-69.1192830
6,Lake Avenue,04841,44.1239161,-69.1194082
10,Lake Avenue,04841,44.1243209,-69.1196778
5,Lake Avenue,04841,44.1242181,-69.1190026
7,Lake Avenue,04841,44.1246185,-69.1192784
15,Lake Avenue,04841,44.1251583,-69.1196170
31,Lake Avenue,04841,44.1266429,-69.1204887
34,Lake Avenue,04841,44.1262370,-69.1212566
40,Lake Avenue,04841,44.1269927,-69.1217394
42,Lake Avenue,04841,44.1271771,-69.1219272
43,Lake Avenue,04841,44.1275467,-69.1215343
45,Lake Avenue,04841,44.1277444,-69.1218721
45,Lake Avenue,04841,44.1276635,-69.1217095
48,Lake Avenue,04841,44.1276988,-69.1223533
49,Lake Avenue,04841,44.1280011,-69.1217289
52,Lake Avenue,04841,44.1293542,-69.1235380
56,Lake Avenue,04841,44.1297640,-69.1233451
1,Lilac Court,04841,44.1319406,-69.1212120
5,Lakeview Drive,04841,44.1250205,-69.1179043
572,Old County Road,04841,44.1248338,-69.1156666
744,Old County Road,04841,44.1299651,-69.1069515
748,Old County Road,04841,44.1302673,-69.1063708
750,Old County Road,04841,44.1303941,-69.1055085
42,Barter Road,04841,44.1340914,-69.1087779
40,Barter Road,04841,44.1339966,-69.1090777
35,Barter Road,04841,44.1334067,-69.1092891
34,Barter Road,04841,44.1335998,-69.1097958
32,Barter Road,04841,44.1335906,-69.1099770
30,Barter Road,04841,44.1329478,-69.1089883
526,Old County Road,04841,44.1232192,-69.1185132
527,Old County Road,04841,44.1230667,-69.1179879
523,Old County Road,04841,44.1227921,-69.1180186
516,Old County Road,04841,44.1229440,-69.1191251
500,Old County Road,04841,44.1223759,-69.1200176
480,Old County Road,04841,44.1220588,-69.1218667
457,Old County Road,04841,44.1208072,-69.1220141
456,Old County Road,04841,44.1209415,-69.1226581
441,Old County Road,04841,44.1201938,-69.1230439
424,Old County Road,04841,44.1197824,-69.1247116
435,Old County Road,04841,44.1195138,-69.1233300
409,Old County Road,04841,44.1186718,-69.1234970
5,Littlefield Street,04841,44.1186792,-69.1249530
7,Littlefield Street,04841,44.1185130,-69.1246777
11,Littlefield Street,04841,44.1181715,-69.1240333
15,Littlefield Street,04841,44.1177672,-69.1232951
19,Littlefield Street,04841,44.1174122,-69.1226508
21,Littlefield Street,04841,44.1172370,-69.1223504
4,Littlefield Street,04841,44.1181392,-69.1247956
6,Littlefield Street,04841,44.1179909,-69.1245203
12,Littlefield Street,04841,44.1174518,-69.1235007
14,Littlefield Street,04841,44.1172631,-69.1231816
1,Meadow Way,04841,44.1181026,-69.1253642
7,Meadow Way,04841,44.1175409,-69.1244194
9,Meadow Way,04841,44.1173702,-69.1241066
11,Meadow Way,04841,44.1172444,-69.1238752
8,Meadow Way,04841,44.1172884,-69.1247501
12,Meadow Way,04841,44.1169695,-69.1241495
14,Meadow Way,04841,44.1167403,-69.1237554
4,Meadow Way,04841,44.1176747,-69.1255070
7,Nevelson Street,04841,44.1170810,-69.1250308
9,Nevelson Street,04841,44.1168292,-69.1247679
11,Nevelson Street,04841,44.1166899,-69.1245239
4,Nevelson Street,04841,44.1174314,-69.1257439
6,Nevelson Street,04841,44.1171792,-69.1258371
8,Nevelson Street,04841,44.1169633,-69.1256680
10,Nevelson Street,04841,44.1167341,-69.1253300
375,Old County Road,04841,44.1176734,-69.1267380
355,Old County Road,04841,44.1171324,-69.1274367
347,Old County Road,04841,44.1165375,-69.1280166
341,Old County Road,04841,44.1159744,-69.1283528
334,Old County Road,04841,44.1158246,-69.1294834
333,Old County Road,04841,44.1154695,-69.1290328
64,Old County Road,04841,44.1040345,-69.1410653
56,Old County Road,04841,44.1033005,-69.1412759
48,Old County Road,04841,44.1030978,-69.1414129
34,Old County Road,04841,44.1025341,-69.1421862
4,Old County Road,04841,44.1013886,-69.1438077
38,Thompson Meadow Road,04841,44.1126123,-69.1393737
353,Limerock Street,04841,44.1105631,-69.1326335
345,Limerock Street,04841,44.1094110,-69.1322810
337,Limerock Street,04841,44.1087280,-69.1311861
329,Limerock Street,04841,44.1076855,-69.1295469
311,Limerock Street,04841,44.1075286,-69.1289842
334,Limerock Street,04841,44.1077115,-69.1304903
328,Limerock Street,04841,44.1075183,-69.1301338
278,Park Street,04841,44.1013159,-69.1293206
101,First Street,04841,44.1010592,-69.1293887
102,First Street,04841,44.1008972,-69.1294134
103,First Street,04841,44.1007305,-69.1294567
104,First Street,04841,44.1005594,-69.1295188
105,First Street,04841,44.1004018,-69.1295622
106,First Street,04841,44.1002307,-69.1295993
107,First Street,04841,44.1000641,-69.1296489
108,First Street,04841,44.0998840,-69.1296860
109,First Street,04841,44.0997083,-69.1297419
110,First Street,04841,44.0995552,-69.1298040
111,First Street,04841,44.0994021,-69.1298474
112,First Street,04841,44.0992400,-69.1298908
113,First Street,04841,44.0990914,-69.1299529
114,First Street,04841,44.0989293,-69.1299900
115,First Street,04841,44.0987939,-69.1303083
116,First Street,04841,44.0988341,-69.1305583
117,First Street,04841,44.0988969,-69.1307646
118,First Street,04841,44.0990272,-69.1309335
119,First Street,04841,44.0991126,-69.1310774
120,First Street,04841,44.0993695,-69.1308218
121,First Street,04841,44.0992258,-69.1304592
122,First Street,04841,44.0993970,-69.1304096
123,First Street,04841,44.0995726,-69.1303413
124,First Street,04841,44.0997257,-69.1302729
125,First Street,04841,44.0998834,-69.1302108
126,First Street,04841,44.1000861,-69.1300800
127,First Street,04841,44.1002617,-69.1300866
128,First Street,04841,44.1005499,-69.1299623
129,First Street,04841,44.1008742,-69.1297944
1,Second Street,04841,44.1012253,-69.1298576
2,Second Street,04841,44.1010451,-69.1299947
3,Second Street,04841,44.1008829,-69.1300755
4,Second Street,04841,44.1007433,-69.1301377
5,Second Street,04841,44.1005856,-69.1302248
6,Second Street,04841,44.1004280,-69.1303057
7,Second Street,04841,44.1002748,-69.1303990
8,Second Street,04841,44.1001262,-69.1304862
9,Second Street,04841,44.0999730,-69.1305545
10,Second Street,04841,44.0998109,-69.1306291
11,Second Street,04841,44.0996667,-69.1307413
12,Second Street,04841,44.0995181,-69.1308097
13,Second Street,04841,44.1013148,-69.1302826
14,Second Street,04841,44.1011257,-69.1303759
15,Second Street,04841,44.1009725,-69.1304505
16,Second Street,04841,44.1008239,-69.1305377
17,Second Street,04841,44.1006662,-69.1306123
18,Second Street,04841,44.1005176,-69.1306869
19,Second Street,04841,44.1003644,-69.1307803
20,Second Street,04841,44.1002022,-69.1308736
21,Second Street,04841,44.1000536,-69.1309358
22,Second Street,04841,44.0998959,-69.1310604
23,Third Street,04841,44.1012152,-69.1307822
24,Third Street,04841,44.1010261,-69.1308630
25,Third Street,04841,44.1008684,-69.1309376
26,Third Street,04841,44.1007198,-69.1310247
27,Third Street,04841,44.1005711,-69.1311493
28,Third Street,04841,44.1004134,-69.1311989
29,Third Street,04841,44.1002603,-69.1312611
30,Third Street,04841,44.1001071,-69.1313607
31,Third Street,04841,44.1012868,-69.1312009
32,Third Street,04841,44.1011111,-69.1312817
33,Third Street,04841,44.1009580,-69.1313688
34,Third Street,04841,44.1008003,-69.1314372
35,Third Street,04841,44.1006517,-69.1315118
36,Third Street,04841,44.1004940,-69.1316052
37,Third Street,04841,44.1003319,-69.1316860
38,Fourth Street,04841,44.1012278,-69.1316006
39,Fourth Street,04841,44.1010431,-69.1317376
40,Fourth Street,04841,44.1008899,-69.1318185
41,Fourth Street,04841,44.1007502,-69.1319306
42,Fourth Street,04841,44.1005836,-69.1320114
43,Fourth Street,04841,44.1004439,-69.1320736
44,Fourth Street,04841,44.1012992,-69.1321130
45,Fourth Street,04841,44.1011010,-69.1322187
46,Fourth Street,04841,44.1009614,-69.1323184
47,Fourth Street,04841,44.1008082,-69.1323743
48,Fourth Street,04841,44.1006371,-69.1324488
14,Sherer Lane,04841,44.1172828,-69.1297616
17,Sherer Lane,04841,44.1163536,-69.1313779
52,Sherer Lane,04841,44.1184606,-69.1312451
70,Sherer Lane,04841,44.1185739,-69.1344386
7,Schooner Drive,04841,44.1222155,-69.0942265
70,Waldo Avenue,04841,44.1209440,-69.0966054
67,Waldo Avenue,04841,44.1204713,-69.0966109
60,Waldo Avenue,04841,44.1208221,-69.0970864
44,Waldo Avenue,04841,44.1206048,-69.0984546
51,Waldo Avenue,04841,44.1200788,-69.0976413
52,Glen Street,04841,44.1210788,-69.0968743
45,Glen Street,04841,44.1218130,-69.0964756
143,Camden Street,04841,44.1201611,-69.1013347
145,Camden Street,04841,44.1203550,-69.1010475
7,Katahdin Avenue,04841,44.1241392,-69.1028663
6,Katahdin Avenue,04841,44.1237434,-69.1025219
2,Olympic Avenue,04841,44.1232300,-69.1027523
4,Olympic Avenue,04841,44.1229732,-69.1029706
6,Olympic Avenue,04841,44.1227390,-69.1031139
8,Olympic Avenue,04841,44.1224777,-69.1032947
12,Olympic Avenue,04841,44.1220634,-69.1035189
7,Olympic Avenue,04841,44.1228466,-69.1036265
9,Olympic Avenue,04841,44.1225132,-69.1038634
6,Pen Bay Avenue,04841,44.1234614,-69.1006966
10,Pen Bay Avenue,04841,44.1234608,-69.1013778
2,Camden St Terrace,04841,44.1176153,-69.1040298
6,Camden St Terrace,04841,44.1174753,-69.1044920
8,Camden St Terrace,04841,44.1172591,-69.1046603
92,Camden Street,04841,44.1172419,-69.1037729
88,Camden Street,04841,44.1170608,-69.1038526
59,Camden Street,04841,44.1154361,-69.1044759
15,Washington Street,04841,44.1157749,-69.1031705
9,Washington Street,04841,44.1156628,-69.1026142
8,Washington Street,04841,44.1152394,-69.1029759
14,Washington Street,04841,44.1154101,-69.1032886
22,Washington Street,04841,44.1156168,-69.1037201
18,Washington Street,04841,44.1154686,-69.1034074
26,Washington Street,04841,44.1157157,-69.1039452
74,Front Street,04841,44.1152171,-69.1026821
24,Maverick Street,04841,44.1150130,-69.1043377
21,Maverick Street,04841,44.1151981,-69.1038131
13,Maverick Street,04841,44.1149644,-69.1033815
3,Maverick Street,04841,44.1146860,-69.1026312
11,Trinity Street,04841,44.1138073,-69.1035920
9,Trinity Street,04841,44.1140147,-69.1032112
5,Trinity Street,04841,44.1137039,-69.1033668
24,Trinity Street,04841,44.1140855,-69.1045110
18,Trinity Street,04841,44.1138922,-69.1042232
14,Trinity Street,04841,44.1137889,-69.1040293
10,Trinity Street,04841,44.1135866,-69.1037166
22,Front Street,04841,44.1129513,-69.1043403
48,Front Street,04841,44.1138933,-69.1030235
557,Old County Road,04841,44.1238426,-69.1164771
201,Bog Road,04841,44.1431018,-69.1358133
449,Main Street,04841,44.1053345,-69.1091374
447,Main Street,04841,44.1052760,-69.1091311
6,White Street,04841,44.1049749,-69.1131601
12,Woodland Road,04841,44.1075784,-69.1204562
70,Thomaston Street,04841,44.0937681,-69.1153437
60,Ulmer Street,04841,44.1037524,-69.1242593
117,Summer Street,04841,44.1082018,-69.1183832
9,J R L Drive,04841,44.1119984,-69.1252888
8,Oliver Woods South,04841,44.1041344,-69.1289206
94,Rankin Street,04841,44.1109185,-69.1162580
143,Cedar Street,04841,44.1178179,-69.1134783
216,Cedar Street,04841,44.1199475,-69.1175818
50,Lawn Avenue,04841,44.1152986,-69.1163104
6,Lawn Avenue,04841,44.1141393,-69.1141774
9,Sweetland Street,04841,44.1116751,-69.1159159
372,Broadway,04841,44.1137915,-69.1142545
372,Broadway,04841,44.1130364,-69.1141315
23,Spruce Street,04841,44.1158557,-69.1082445
8,Spruce Street,04841,44.1154857,-69.1091624
87,Camden Street,04841,44.1167380,-69.1034096
91,Camden Street,04841,44.1170444,-69.1030602
91,Camden Street,04841,44.1170490,-69.1030602
14,Schooner Drive,04841,44.1228050,-69.0945212
33,Samoset Road,04841,44.1182540,-69.0886150
8,Samoset Road,04841,44.1208540,-69.0911310
77,Waldo Avenue,04841,44.1205307,-69.0956674
83,Waldo Avenue,04841,44.1206888,-69.0949177
69,Waldo Avenue,04841,44.1205797,-69.0962174
5,Jameson Point Road,04841,44.1154883,-69.0849430
51,Samoset Road,04841,44.1166041,-69.0857944
9,Pen Bay Avenue,04841,44.1238702,-69.1016410
41,Pleasant Street,04841,44.1005370,-69.1123833
9,Robinson Street,04841,44.1003546,-69.1101840
17,State Street,04841,44.0992825,-69.1109504
19,Franklin Street,04841,44.0989970,-69.1128551
24,Franklin Street,04841,44.0991271,-69.1132927
106,Pleasant Street,04841,44.0994070,-69.1169476
104,Pleasant Street,04841,44.0992812,-69.1167287
30,School Street,04841,44.1039062,-69.1104655
77,Broad Street,04841,44.1042114,-69.1158638
28,Elm Street,04841,44.1030418,-69.1105389
9,Grace Street Place,04841,44.1022809,-69.1151853
117,Park Street,04841,44.1020089,-69.1170714
49,Talbot Avenue,04841,44.1079728,-69.1133658
12,Lincoln Street,04841,44.1056165,-69.1153542
50,Summer Street,04841,44.1068565,-69.1132387
83,Granite Street,04841,44.1089698,-69.1157231
80,Rankin Street,04841,44.1106043,-69.1153327
59,Rankin Street,04841,44.1102953,-69.1137326
63,Gay Street,04841,44.1117172,-69.1144289
11,James Street,04841,44.1122903,-69.1083130
7,Warren Street,04841,44.1124131,-69.1070011
80,Holmes Street,04841,44.0967879,-69.1160992
419,Main Street,04841,44.1047088,-69.1090488
256,Main Street,04841,44.1012558,-69.1092799
25,Main Street,04841,44.0914910,-69.1100301
25,Main Street,04841,44.0915540,-69.1099740
25,Main Street,04841,44.0915991,-69.1099491
25,Main Street,04841,44.0916486,-69.1099118
438,Main Street,04841,44.1050732,-69.1093681
340,Main Street,04841,44.1030212,-69.1092534
385,Main Street,04841,44.1040426,-69.1090101
558,Main Street,04841,44.1078995,-69.1100918
9,Maverick Street,04841,44.1148386,-69.1030439
9,Lime Street,04841,44.1048069,-69.1052756
754,Main Street,04841,44.1122158,-69.1062259
52,Front Street,04841,44.1142308,-69.1032241
24,Fulton Street,04841,44.0978620,-69.1087614
17,Mechanic Street,04841,44.0928651,-69.1088522
17,Water Street,04841,44.0993113,-69.1091014
77,Crescent Street,04841,44.0966637,-69.1049175
41,Crescent Street,04841,44.0958870,-69.1075397
352,Old County Road,04841,44.1168883,-69.1283610
343,Old County Road,04841,44.1163077,-69.1282348
511,Old County Road,04841,44.1224626,-69.1188616
740,Old County Road,04841,44.1299194,-69.1076827
15,Meadow Way,04841,44.1168625,-69.1231495
30,Lakeview Drive,04841,44.1258389,-69.1187872
35,Lakeview Drive,04841,44.1262267,-69.1182130
25,Barter Road,04841,44.1327330,-69.1076190
39,Barter Road,04841,44.1335960,-69.1090395
42,Dodge Mountain Road,04841,44.1407661,-69.1273750
4,Clayton Lane,04841,44.1401530,-69.1321308
195,Bog Road,04841,44.1425744,-69.1363684
2,Center Street,04841,44.1117642,-69.1211520
2,Pine Street,04841,44.1140896,-69.1097971
4,Camden St Terrace,04841,44.1177185,-69.1043924
4,Center Street,04841,44.1115486,-69.1207392
4,City Place,04841,44.1030197,-69.1233332
4,Katahdin Avenue,04841,44.1241084,-69.1021101
4,Oliver Woods North,04841,44.1047484,-69.1273476
4,Otis Street,04841,44.0972843,-69.1104094
4,State Street,04841,44.0985350,-69.1111989
4,Sunrise Summit,04841,44.1434121,-69.1282622
6,Brewster Street,04841,44.1136270,-69.1086778
6,Burrows Street,04841,44.0972766,-69.1264883
6,Chestnut Street,04841,44.1126658,-69.1110816
6,City Place,04841,44.1028940,-69.1229768
6,Dodge Mountain Road,04841,44.1325728,-69.1277074
6,Gordon Drive,04841,44.0918417,-69.1149652
6,Halet Avenue,04841,44.0944597,-69.1333658
6,Meadow Way,04841,44.1174591,-69.1251004
6,Melrose Circle South,04841,44.1157056,-69.1188293
6,Rockland Street,04841,44.1113083,-69.1089735
6,Rockland Street,04841,44.1430399,-69.1186216
6,Trinity Street,04841,44.1134247,-69.1035663
6,West Meadow Road,04861,44.1106656,-69.1446050
8,Birch Street,04841,44.1169562,-69.1107273
8,Brewster Street,04841,44.1137306,-69.1085468
8,Dodge Mountain Road,04841,44.1335525,-69.1291221
8,Forrest Avenue,04841,44.0942081,-69.1329779
8,Granite Street,04841,44.1077145,-69.1105601
8,Littlefield Street,04841,44.1177933,-69.1241450
8,North Main Street,04841,44.1098037,-69.1100891
8,Otis Street,04841,44.0973162,-69.1099660
8,Pacific Street,04841,44.0947638,-69.1051391
8,Pen Bay Avenue,04841,44.1234927,-69.1010029
8,Pleasant Street,04841,44.1007108,-69.1095912
8,Purchase Street,04841,44.0985610,-69.1121609
8,Sunrise Summit,04841,44.1428331,-69.1267105
10,Franklin Street,04841,44.0984477,-69.1129665
10,Littlefield Street,04841,44.1176181,-69.1238197
10,Meadow Way,04841,44.1170998,-69.1243748
10,Mechanic Street,04841,44.0930937,-69.1098645
10,Melrose Circle South,04841,44.1161595,-69.1196113
10,Ocean Street,04841,44.0985588,-69.1097871
10,South Street,04841,44.0950168,-69.1041526
10,State Street,04841,44.0988095,-69.1112494
12,Cedar Street,04841,44.1129809,-69.1063773
12,Chestnut Street,04841,44.1128951,-69.1114257
12,Clarendon Street,04841,44.0968031,-69.1098276
12,Elm Street,04841,44.1030695,-69.1097455
12,Merrill Drive,04841,44.0902618,-69.1148185
14,Florence Street,04841,44.0995030,-69.1110070
12,Glenwood Avenue,04841,44.0954565,-69.1316815
14,John Street,04841,44.1134929,-69.1076154
14,Mountain Road,04841,44.1195002,-69.1390961
14,Orange Street,04841,44.0982483,-69.1143030
14,Pleasant Street,04841,44.1006518,-69.1101346
14,Prescott Street,04841,44.0985667,-69.1155092
16,Broad Street,04841,44.1008082,-69.1158696
16,Center Street,04841,44.1106283,-69.1182881
16,Hill Street,04841,44.1097092,-69.1146000
16,James Street,04841,44.1122809,-69.1088003
16,Jefferson Street,04841,44.1140703,-69.1063605
16,Lake Avenue,04841,44.1247526,-69.1201099
16,Lawn Avenue,04841,44.1144494,-69.1147091
16,Ocean Street,04841,44.0985504,-69.1092124
16,Spruce Street,04841,44.1158823,-69.1087007
16,Summer Street,04841,44.1064448,-69.1108013
16,Traverse Street,04841,44.1107618,-69.1198254
18,Katahdin Avenue,04841,44.1226480,-69.1041824
20,Camden Street,04841,44.1134374,-69.1056689
20,Center Street,04841,44.1104982,-69.1179067
20,Franklin Street,04841,44.0989516,-69.1132111
20,Gay Street,04841,44.1105676,-69.1114963
20,Katahdin Avenue,04841,44.1223145,-69.1046067
20,Mill Street,04841,44.1541907,-69.1346194
20,New County Road,04841,44.1007810,-69.1203237
20,Orange Street,04841,44.0986173,-69.1144099
20,Pacific Street,04841,44.0953892,-69.1055025
20,Spruce Street,04841,44.1159905,-69.1085384
20,Summer Street,04841,44.1064805,-69.1110701
20,Traverse Street,04841,44.1113835,-69.1193893
22,Glenwood Avenue,04841,44.0948752,-69.1322548
22,Merrill Drive,04841,44.0881124,-69.1212161
22,Pleasant Street,04841,44.1005251,-69.1107903
22,School Street,04841,44.1039514,-69.1102157
24,Birch Street,04841,44.1173799,-69.1102594
22,Elm Street,04841,44.1030510,-69.1102640
24,James Street,04841,44.1124831,-69.1091131
24,Lincoln Street,04841,44.1066205,-69.1152312
24,Maple Street,04841,44.1052391,-69.1145663
24,Orchard Street,04841,44.1121781,-69.1214528
24,Pacific Street,04841,44.0955331,-69.1056464
26,Franklin Street,04841,44.0993116,-69.1133992
26,Front Street,04841,44.1130686,-69.1039843
26,Jefferson Street,04841,44.1147052,-69.1062054
26,North Main Street,04841,44.1107171,-69.1105282
26,Pacific Street,04841,44.0957446,-69.1057779
26,Pleasant Street,04841,44.1004709,-69.1110151
26,Spruce Street,04841,44.1162383,-69.1082577
26,State Street,04841,44.0997503,-69.1113386
28,James Street,04841,44.1126450,-69.1093446
28,Lawn Avenue,04841,44.1148763,-69.1154535
28,Lincoln Street,04841,44.1071024,-69.1149823
30,Elm Street,04841,44.1030326,-69.1107138
30,Franklin Street,04841,44.0994781,-69.1134745
30,Glen Street,04841,44.1223248,-69.0980075
30,Linden Street,04841,44.0965264,-69.1073784
30,Pine Street,04841,44.1152524,-69.1083684
30,Prescott Street,04841,44.0983496,-69.1164583
30,Rankin Street,04841,44.1092571,-69.1120374
30,Tolman Road,04841,44.1306849,-69.1291659
32,Berkeley Street,04841,44.0988352,-69.1170277
32,Birch Street,04841,44.1178532,-69.1096104
36,Bog Road,04841,44.1221483,-69.1523196
32,Camden Street,04841,44.1140846,-69.1055782
32,Chestnut Street,04841,44.1135061,-69.1126516
32,Franklin Street,04841,44.0995996,-69.1135247
32,Grace Street,04841,44.1026700,-69.1132120
32,James Street,04841,44.1128203,-69.1096448
32,School Street,04841,44.1039016,-69.1105280
32,Willow Street,04841,44.1085323,-69.1120423
34,Benner Road,04841,44.1218738,-69.1417451
34,Crescent Street,04841,44.0959852,-69.1083457
34,Granite Street,04841,44.1080100,-69.1122413
34,High Street,04841,44.1038952,-69.1124396
34,Mechanic Street,04841,44.0935678,-69.1083662
34,Rankin Street,04841,44.1093919,-69.1123376
34,Waldo Avenue,04841,44.1204919,-69.0989481
36,Brewster Street,04841,44.1148664,-69.1071492
36,Jefferson Street,04841,44.1153671,-69.1060441
36,Lake View Terrace,04841,44.1301796,-69.1148933
36,Lawrence Street,04841,44.0955773,-69.1065335
36,Pleasant Street,04841,44.1002091,-69.1117330
38,Barter Road,04841,44.1338477,-69.1094025
38,Crescent Street,04841,44.0960890,-69.1080898
38,Gay Street,04841,44.1109759,-69.1129092
38,Gordon Drive,04841,44.0890054,-69.1237912
38,High Street,04841,44.1041114,-69.1123963
38,Holmes Street,04841,44.0976102,-69.1131149
38,Lakeview Drive,04841,44.1266310,-69.1189762
38,Oliver Street,04841,44.1036410,-69.1273890
38,Purchase Street,04841,44.0999154,-69.1128381
38,South Street,04841,44.0945199,-69.1059819
38,State Street,04841,44.1004209,-69.1114148
38,West Meadow Road,04841,44.1135681,-69.1418752
40,Broad Street,04841,44.1019422,-69.1162529
40,Broad Street,04841,44.1019782,-69.1162593
40,Broad Street,04841,44.1020142,-69.1162656
40,Broad Street,04841,44.1020547,-69.1162719
40,Broad Street,04841,44.1020952,-69.1162720
40,Camden Street,04841,44.1145123,-69.1054490
38,Grace Street,04841,44.1026515,-69.1137305
40,Highland Street,04841,44.1036355,-69.1199234
40,Mechanic Street,04841,44.0937982,-69.1075609
40,Willow Street,04841,44.1086804,-69.1125987
42,Crescent Street,04841,44.0961885,-69.1076589
42,Glen Street,04841,44.1217583,-69.0972067
42,Lakeview Drive,04841,44.1271800,-69.1191523
42,Lawn Avenue,04841,44.1151503,-69.1160351
44,Camden Street,04841,44.1147285,-69.1054056
44,Limerock Street,04841,44.1042884,-69.1109285
44,Shaw Avenue,04841,44.1075357,-69.1182632
44,Thomaston Street,04841,44.0944674,-69.1137835
44,Union Street,04841,44.1030952,-69.1111949
46,Bog Road,04841,44.1227705,-69.1515712
46,Lawrence Street,04841,44.0950310,-69.1082003
46,Summer Street,04841,44.1066951,-69.1125949
48,Bog Road,04841,44.1230326,-69.1508595
48,Gay Street,04841,44.1112272,-69.1137469
48,North Main Street,04841,44.1118244,-69.1106552
48,South Street,04841,44.0942941,-69.1067685
50,Grace Street,04841,44.1026057,-69.1145425
50,Holmes Street,04841,44.0973076,-69.1141575
50,Oliver Street,04841,44.1041318,-69.1272276
50,Pine Street,04841,44.1156671,-69.1078068
50,Pleasant Street,04841,44.1001858,-69.1124701
50,Talbot Avenue,04841,44.1077249,-69.1136715
52,Pleasant Street,04841,44.1001494,-69.1129323
52,Suffolk Street,04841,44.0956845,-69.1073957
54,Brewster Street,04841,44.1155334,-69.1063319
54,Oliver Street,04841,44.1043075,-69.1271280
54,Pine Street,04841,44.1158924,-69.1074947
58,Rankin Street,04841,44.1100026,-69.1138945
54,Waldo Avenue,04841,44.1207495,-69.0977174
54,Willow Street,04841,44.1089225,-69.1135675
56,New County Road,04841,44.0999236,-69.1223397
56,Pacific Street,04841,44.0972160,-69.1064802
58,Broadway,04841,44.0972464,-69.1167747
58,Dodge Mountain Road,04841,44.1441010,-69.1240876
58,Gay Street,04841,44.1113972,-69.1147282
58,North Main Street,04841,44.1123330,-69.1107186
58,Pine Street,04841,44.1161809,-69.1071391
60,Broad Street,04841,44.1032342,-69.1162617
60,Crescent Street,04841,44.0965498,-69.1063853
60,Gay Street,04841,44.1115276,-69.1149346
60,Grace Street,04841,44.1026365,-69.1152110
60,Lake Avenue,04841,44.1301831,-69.1230084
60,Main Street,04841,44.0929711,-69.1110073
60,Masonic Street,04841,44.1032037,-69.1152558
60,New County Road,04841,44.0995889,-69.1237821
60,Old County Road,04841,44.1037150,-69.1409771
62,Holmes Street,04841,44.0962173,-69.1150736
62,Maverick Street,04841,44.1161453,-69.1066454
62,Thompson Meadow Road,04841,44.1126998,-69.1413983
62,Ulmer Street,04841,44.1040496,-69.1242162
62,Warren Street,04841,44.1140799,-69.1104720
64,Crescent Street,04841,44.0965996,-69.1061230
64,Lake Avenue,04841,44.1305749,-69.1228030
64,Mountain Road,04841,44.1214293,-69.1444187
64,North Main Street,04841,44.1131205,-69.1110513
64,Rankin Street,04841,44.1100833,-69.1142195
66,Dodge Mountain Road,04841,44.1464362,-69.1251678
66,Maverick Street,04841,44.1163611,-69.1069957
66,Rankin Street,04841,44.1101777,-69.1143572
68,Crescent Street,04841,44.0966583,-69.1058483
70,Granite Street,04841,44.1085786,-69.1153475
70,Lawn Avenue,04841,44.1157208,-69.1172797
74,Broad Street,04841,44.1039905,-69.1162320
74,Cedar Street,04841,44.1151654,-69.1098366
74,Lawn Avenue,04841,44.1159142,-69.1174113
74,Maverick Street,04841,44.1166309,-69.1072961
76,Lawn Avenue,04841,44.1160443,-69.1178115
76,Rankin Street,04841,44.1104651,-69.1150263
78,Cedar Street,04841,44.1152913,-69.1100681
78,Main Street,04841,44.0932861,-69.1111203
78,Maverick Street,04841,44.1168197,-69.1075652
80,Masonic Street,04841,44.1032427,-69.1167428
80,Maverick Street,04841,44.1168961,-69.1077403
82,Camden Street,04841,44.1167778,-69.1041720
87 1/2,Pleasant Street,04841,44.0998809,-69.1158241
80,Pleasant Street,04841,44.0997286,-69.1150429
38,Orange Street,04841,44.0994587,-69.1148613
74,Pleasant Street,04841,44.0998010,-69.1146808
77,Pleasant Street,04841,44.1001249,-69.1149188
84,Pleasant Street,04841,44.0996923,-69.1152927
81,Pleasant Street,04841,44.1000796,-69.1151748
68,Pleasant Street,04841,44.0999232,-69.1140376
35,Orange Street,04841,44.0994591,-69.1144740
13,Berkeley Street,04841,44.0993544,-69.1156107
15,Berkeley Street,04841,44.0993227,-69.1158043
92,Pleasant Street,04841,44.0995792,-69.1158547
22,Lisle Street,04841,44.1007892,-69.1167567
20,Lisle Street,04841,44.1006812,-69.1167190
12,Lisle Street,04841,44.1003347,-69.1166184
15,Lisle Street,04841,44.1006637,-69.1163129
13,Lisle Street,04841,44.1005016,-69.1163063
5,Lisle Street,04841,44.1000245,-69.1161930
337,Pleasant Street,04841,44.0993544,-69.1322273
332,Pleasant Street,04841,44.0978152,-69.1318803
329 A,Pleasant Street,04841,44.0980684,-69.1308752
326,Pleasant Street,04841,44.0975413,-69.1312738
101,New County Road,04841,44.0989555,-69.1267105
105,New County Road,04841,44.0988697,-69.1269227
106,New County Road,04841,44.0983293,-69.1270715
102,New County Road,04841,44.0983026,-69.1268091
100,New County Road,04841,44.0984560,-69.1265345
98,New County Road,04841,44.0987133,-69.1258917
88,New County Road,04841,44.0990110,-69.1253488
265,Pleasant Street,04841,44.0980280,-69.1267772
10,Columbia Avenue,04841,44.0988230,-69.1243802
7,Columbia Avenue,04841,44.0990620,-69.1239934
15,Columbia Avenue,04841,44.0993500,-69.1240877
51,New County Road,04841,44.1002774,-69.1239897
31,New County Road,04841,44.1006349,-69.1223225
81,New County Road,04841,44.0994973,-69.1251999
62,New County Road,04841,44.0995390,-69.1241443
83,New County Road,04841,44.0994835,-69.1255310
97,New County Road,04841,44.0991496,-69.1262299
185,Pleasant Street,04841,44.0988878,-69.1227436
163,Pleasant Street,04841,44.0992453,-69.1209390
173,Pleasant Street,04841,44.0990106,-69.1215445
128,Pleasant Street,04841,44.0993829,-69.1185405
2,Highland Street Extension,04841,44.1000571,-69.1195789
7,Highland Street Extension,04841,44.1002826,-69.1191108
8,Luce Avenue,04841,44.1004585,-69.1187738
5,Luce Avenue,04841,44.1001259,-69.1183046
9,Luce Avenue,04841,44.1004320,-69.1183490
143,Pleasant Street Extension,04841,44.1000117,-69.1198599
145,Pleasant Street Extension,04841,44.0999575,-69.1200847
151,Pleasant Street Extension,04841,44.0999030,-69.1205656
61,New County Road,04841,44.1000744,-69.1244515
47,Acadia Drive,04841,44.1221912,-69.1065375
69,Pleasant Street,04841,44.1001973,-69.1144941
9,Lisle Street,04841,44.1002811,-69.1162559
34,Orange Street,04841,44.0992292,-69.1147796
12,Warren Street,04841,44.1122821,-69.1075382
333,Pleasant Street,04841,44.0987876,-69.1318450
18,Warren Street,04841,44.1125517,-69.1079948
77,Front Street,04841,44.1156362,-69.1021642
79,Front Street,04841,44.1162441,-69.1020216
4,Luce Avenue,04841,44.1001345,-69.1187107
6,Bay View Square,04841,44.1179934,-69.1040804
6,Berkeley Street,04841,44.0991839,-69.1150481
6,Columbia Avenue,04841,44.0986024,-69.1243485
10,John Street,04841,44.1133306,-69.1079337
14,Broad Street,04841,44.1005517,-69.1157629
32,Amesbury Street,04841,44.1143793,-69.1128157
36,Acadia Drive,04841,44.1229667,-69.1051953
42,Beech Street,04841,44.1057658,-69.1145424
60,Beech Street,04841,44.1058771,-69.1158608
70,Beech Street,04841,44.1059619,-69.1165107
70,Pleasant Street,04841,44.0998373,-69.1143685
74,Beech Street,04841,44.1059706,-69.1168419
76,Acadia Drive,04841,44.1207130,-69.1034291
80,Acadia Drive,04841,44.1211585,-69.1035923
82,New County Road,04841,44.0992095,-69.1249057
88,Pleasant Street,04841,44.0996335,-69.1155737
94,Acadia Drive,04841,44.1230593,-69.1023645
110,Broadway,04841,44.0999776,-69.1180232
118,Broadway,04841,44.1003153,-69.1180426
124,Pleasant Street,04841,44.0993561,-69.1182968
166,New County Road,04841,44.0965595,-69.1316714
190,Pleasant Street,04841,44.0981583,-69.1228920
5,Achorn Street,04841,44.1129374,-69.1047151
5,Bay View Square,04841,44.1181871,-69.1038996
5,Berkeley Street,04841,44.0994314,-69.1151611
7,Bay View Square,04841,44.1183039,-69.1041435
9,Autumn Street,04841,44.0953540,-69.1139976
9,Berkeley Street,04841,44.0993726,-69.1153733
9,Columbia Avenue,04841,44.0989450,-69.1239744
21,Warren Street,04841,44.1128849,-69.1079517
33,Acadia Drive,04841,44.1237232,-69.1049654
35,Beech Street,04841,44.1059779,-69.1140430
41,Acadia Drive,04841,44.1230200,-69.1059141
41,Admontem Avenue,04841,44.1129118,-69.1127192
41,Beech Street,04841,44.1060000,-69.1144553
45,Acadia Drive,04841,44.1225288,-69.1065194
51,Acadia Drive,04841,44.1217595,-69.1059806
51,Payne Avenue,04841,44.0985696,-69.1295770
57,Acadia Drive,04841,44.1213190,-69.1053299
59,Acadia Drive,04841,44.1211302,-69.1050421
59,Beech Street,04841,44.1061833,-69.1156927
61,Acadia Drive,04841,44.1209459,-69.1047355
63,Acadia Drive,04841,44.1207435,-69.1044915
73,Beech Street,04841,44.1063082,-69.1168300
77,Acadia Drive,04841,44.1207991,-69.1027168
77,Beech Street,04841,44.1063304,-69.1171112
79,Acadia Drive,04841,44.1210196,-69.1028172
81,Acadia Drive,04841,44.1212762,-69.1028801
85,Pleasant Street,04841,44.1000071,-69.1156744
87,Acadia Drive,04841,44.1220284,-69.1023565
91,Acadia Drive,04841,44.1227311,-69.1019140
91,New County Road,04841,44.0995327,-69.1257810
91,Pleasant Street,04841,44.0998491,-69.1160614
95,Acadia Drive,04841,44.1229833,-69.1017707
123,Pleasant Street,04841,44.0996308,-69.1182786
135,Pleasant Street,04841,44.0999630,-69.1191476
153,Pleasant Street,04841,44.0995925,-69.1204275
155,Pleasant Street,04841,44.0994617,-69.1206271
183,Pleasant Street,04841,44.0987217,-69.1223185
331,Pleasant Street,04841,44.0985763,-69.1315572
341,Park Street,04841,44.1023103,-69.1336708
351,Park Street,04841,44.1018445,-69.1354814
12,Field Street,04841,44.1000692,-69.1250887
10,Acadia Drive,04841,44.1247248,-69.1025049
10,Admontem Avenue,04841,44.1116620,-69.1110673
10,Berkeley Street,04841,44.0991341,-69.1152917
100,Beech Street,04841,44.1062115,-69.1189290
100,Beech Street,04841,44.1059803,-69.1116564
103,Beech Street,04841,44.1065490,-69.1190734
108,Beech Street,04841,44.1062561,-69.1193727
11,Bay View Square,04841,44.1184748,-69.1043312
149,Pleasant Street Extension,04841,44.0997190,-69.1200030
156,New County Road,04841,44.0969750,-69.1304980
160,New County Road,04841,44.0968844,-69.1309225
112,Beech Street,04841,44.1062376,-69.1197975
17,Acadia Drive,04841,44.1254537,-69.1028749
24,Acadia Drive,04841,44.1243594,-69.1032792
170,Pleasant Street,04841,44.0980838,-69.1210678
14,Columbia Avenue,04841,44.0990390,-69.1244118
22,Amesbury Street,04841,44.1140107,-69.1121901
14,Bay View Square,04841,44.1182135,-69.1045807
23,Acadia Drive,04841,44.1247507,-69.1037548
23,Amesbury Street,04841,44.1143755,-69.1120908
19,Acadia Drive,04841,44.1252148,-69.1032744
19,Lisle Street,04841,44.1008211,-69.1164257
13,Achorn Street,04841,44.1132520,-69.1052843
13,Achorn Street,04841,44.1132611,-69.1052406
13,Achorn Street,04841,44.1132205,-69.1052592
13,Achorn Street,04841,44.1132116,-69.1052030
111,Beech Street,04841,44.1066248,-69.1197858
21,Amesbury Street,04841,44.1141596,-69.1118218
29,Admontem Avenue,04841,44.1126018,-69.1121125
3,Acadia Drive,04841,44.1243301,-69.1008793
267,Pleasant Street,04841,44.0980051,-69.1272082
26,Acadia Drive,04841,44.1241567,-69.1034663
30,Acadia Drive,04841,44.1236247,-69.1043466
28,Acadia Drive,04841,44.1239763,-69.1038847
27,Acadia Drive,04841,44.1243226,-69.1042165
27,Amesbury Street,04841,44.1145058,-69.1123535
25,Acadia Drive,04841,44.1245839,-69.1039983
3,Luce Avenue,04841,44.0999458,-69.1183417
31,Amesbury Street,04841,44.1146631,-69.1125538
16,Warren Street,04841,44.1124888,-69.1079135
485,Old County Road,04841,44.1215426,-69.1204533
481,Old County Road,04841,44.1214161,-69.1208718
473,Old County Road,04841,44.1212131,-69.1213025
242,Limerock Street,04841,44.1050262,-69.1244556
258,Limerock Street,04841,44.1053312,-69.1255059
1,Acadia Drive,04841,44.1241277,-69.1006665
5,Acadia Drive,04841,44.1244514,-69.1011295
6,Acadia Drive,04841,44.1243068,-69.1017792
9,Acadia Drive,04841,44.1249235,-69.1018115
11,Acadia Drive,04841,44.1250584,-69.1019930
22,Acadia Drive,04841,44.1246073,-69.1029921
35,Acadia Drive,04841,44.1235204,-69.1052150
37,Acadia Drive,04841,44.1233131,-69.1054709
43,Acadia Drive,04841,44.1227496,-69.1062386
49,Acadia Drive,04841,44.1219888,-69.1062559
55,Acadia Drive,04841,44.1215212,-69.1056489
65,Acadia Drive,04841,44.1205457,-69.1042412
67,Acadia Drive,04841,44.1203794,-69.1039409
66,Acadia Drive,04841,44.1208568,-69.1037293
82,Acadia Drive,04841,44.1213837,-69.1034740
84,Acadia Drive,04841,44.1216404,-69.1033182
86,Acadia Drive,04841,44.1220007,-69.1031126
88,Acadia Drive,04841,44.1223296,-69.1028382
89,Acadia Drive,04841,44.1222266,-69.1022506
90,Acadia Drive,04841,44.1225638,-69.1027011
92,Acadia Drive,04841,44.1228431,-69.1025204
97,Acadia Drive,04841,44.1232355,-69.1016024
4,Bay View Square,04841,44.1178271,-69.1037927
53 A,Broad Street,04841,44.1028654,-69.1158549
53 B,Broad Street,04841,44.1028754,-69.1158549
53 C,Broad Street,04841,44.1028854,-69.1158549
53 D,Broad Street,04841,44.1028954,-69.1158549
35,Dodge Mountain Road,04841,44.1420832,-69.1290845
247,Maverick Street,04841,44.1232930,-69.1167947
754,Old County Road,04841,44.1311467,-69.1046661
239,Cedar Street,04841,44.1214045,-69.1190532
240,Cedar Street,04841,44.1213677,-69.1198406
222,Cedar Street,04841,44.1204779,-69.1183702
219,Cedar Street,04841,44.1207304,-69.1179833
215,Cedar Street,04841,44.1201782,-69.1164637
214,Cedar Street,04841,44.1197272,-69.1173189
144,Cedar Street,04841,44.1172510,-69.1131523
123,Cedar Street,04841,44.1171572,-69.1123523
186,North Main Street,04841,44.1194396,-69.1123379
181,North Main Street,04841,44.1190440,-69.1117560
175,North Main Street,04841,44.1187650,-69.1116680
165,North Main Street,04841,44.1181934,-69.1115357
180,North Main Street,04841,44.1188455,-69.1122555
196,Maverick Street,04841,44.1200382,-69.1124952
155,North Main Street,04841,44.1176488,-69.1114909
162,North Main Street,04841,44.1179949,-69.1119790
154,North Main Street,04841,44.1176123,-69.1119033
148,North Main Street,04841,44.1172252,-69.1118713
116,Cedar Street,04841,44.1166307,-69.1122201
153,North Main Street,04841,44.1174867,-69.1114406
28,Birch Street,04841,44.1175106,-69.1100847
30,Birch Street,04841,44.1177358,-69.1098914
7,Birch Street,04841,44.1165872,-69.1106703
15,Birch Street,04841,44.1169026,-69.1102897
19,Birch Street,04841,44.1171100,-69.1100152
27,Birch Street,04841,44.1173895,-69.1095908
93,Cedar Street,04841,44.1161414,-69.1107507
8,Frederick Street,04841,44.1163354,-69.1103699
98,Cedar Street,04841,44.1159520,-69.1110691
89,Cedar Street,04841,44.1159076,-69.1104379
7,Frederick Street,04841,44.1160926,-69.1100695
15,Frederick Street,04841,44.1164171,-69.1096452
21,Frederick Street,04841,44.1166919,-69.1094520
27,Frederick Street,04841,44.1169128,-69.1090463
31,Frederick Street,04841,44.1171156,-69.1088592
18,Birch Street,04841,44.1171005,-69.1105463
29,Birch Street,04841,44.1175608,-69.1093787
40,Knott Street,04841,44.1172467,-69.1082470
30,Knott Street,04841,44.1170260,-69.1083966
24,Knott Street,04841,44.1165392,-69.1090143
86,Cedar Street,04841,44.1156104,-69.1105248
117,North Main Street,04841,44.1156550,-69.1110248
403,Broadway Extended,04841,44.1158930,-69.1115876
401,Broadway,04841,44.1156631,-69.1119496
399,Broadway,04841,44.1153748,-69.1121740
115,North Main Street,04841,44.1154839,-69.1110182
77,Cedar Street,04841,44.1155031,-69.1098185
11,Knott Street,04841,44.1158097,-69.1093129
27,Knott Street,04841,44.1165893,-69.1084521
37,Knott Street,04841,44.1166660,-69.1082772
39,Knott Street,04841,44.1168192,-69.1080588
41,Knott Street,04841,44.1169904,-69.1079279
82,Cedar Street,04841,44.1154801,-69.1103121
105,North Main Street,04841,44.1150023,-69.1109173
34,Spruce Street,04841,44.1164953,-69.1078895
30,Spruce Street,04841,44.1163646,-69.1080830
24,Spruce Street,04841,44.1161302,-69.1083950
14,Spruce Street,04841,44.1157020,-69.1088878
10,Spruce Street,04841,44.1156164,-69.1090126
33,Spruce Street,04841,44.1164506,-69.1075395
31,Spruce Street,04841,44.1163335,-69.1076330
29,Spruce Street,04841,44.1162118,-69.1078015
25,Spruce Street,04841,44.1160360,-69.1080199
15,Spruce Street,04841,44.1154231,-69.1087249
67,Cedar Street,04841,44.1151030,-69.1091867
63,Cedar Street,04841,44.1150087,-69.1090178
61,Cedar Street,04841,44.1149008,-69.1088551
70,Cedar Street,04841,44.1150351,-69.1096239
68,Cedar Street,04841,44.1149092,-69.1094862
62,Cedar Street,04841,44.1147070,-69.1090985
38,Pine Street,04841,44.1155589,-69.1079440
36,Pine Street,04841,44.1153921,-69.1081937
14,Pine Street,04841,44.1145268,-69.1092418
10,Pine Street,04841,44.1143826,-69.1093978
55,Cedar Street,04841,44.1147120,-69.1085736
29,Pine Street,04841,44.1149464,-69.1081929
37,Pine Street,04841,44.1152709,-69.1077873
45,Pine Street,04841,44.1156540,-69.1073693
51,Pine Street,04841,44.1159154,-69.1070511
16,Brewster Street,04841,44.1141136,-69.1081788
42,Brewster Street,04841,44.1150782,-69.1068809
48,Brewster Street,04841,44.1153800,-69.1066440
58,Brewster Street,04841,44.1157992,-69.1060886
49,Brewster Street,04841,44.1152679,-69.1061814
45,Brewster Street,04841,44.1151417,-69.1063437
39,Brewster Street,04841,44.1148578,-69.1066868
37,Brewster Street,04841,44.1146686,-69.1068677
33,Brewster Street,04841,44.1142765,-69.1072919
42,Maverick Street,04841,44.1153360,-69.1055629
30,Jefferson Street,04841,44.1148583,-69.1061557
24,Jefferson Street,04841,44.1145251,-69.1062551
18,Jefferson Street,04841,44.1142729,-69.1063109
35,Cedar Street,04841,44.1140963,-69.1075165
31,Cedar Street,04841,44.1138579,-69.1072161
21,Cedar Street,04841,44.1135253,-69.1066657
10,Jefferson Street,04841,44.1138181,-69.1065350
9,Griffin Avenue,04841,44.1139310,-69.1060666
23,Jefferson Street,04841,44.1144534,-69.1059050
36,Camden Street,04841,44.1143007,-69.1054799
16,Camden Street,04841,44.1132607,-69.1056592
8,Camden Street,04841,44.1128780,-69.1056773
8,Camden Street,04841,44.1129140,-69.1056711
50,Camden Street,04841,44.1150977,-69.1052876
37,Camden Street,04841,44.1143912,-69.1050114
35,Camden Street,04841,44.1142471,-69.1050424
21,Perry Street,04841,44.1139053,-69.1047356
17,Perry Street,04841,44.1136984,-69.1044666
7,Perry Street,04841,44.1134199,-69.1038662
27,Camden Street,04841,44.1138059,-69.1051041
20,Perry Street,04841,44.1136620,-69.1048726
10,Cedar Street,04841,44.1128821,-69.1061834
6,Cedar Street,04841,44.1127516,-69.1060395
4,Cedar Street,04841,44.1125446,-69.1059953
9,Knox Street,04841,44.1126651,-69.1070765
32,Cedar Street,04841,44.1136552,-69.1074095
27,Warren Street,04841,44.1130467,-69.1082331
24,Warren Street,04841,44.1127136,-69.1082388
14,Warren Street,04841,44.1124079,-69.1077321
17,James Street,04841,44.1124702,-69.1085695
21,Brewster Street,04841,44.1139429,-69.1078411
12,Brewster Street,04841,44.1138208,-69.1084470
12,Brewster Street,04841,44.1138433,-69.1084220
12,Brewster Street,04841,44.1138658,-69.1083971
37,Warren Street,04841,44.1135008,-69.1088650
59,Warren Street,04841,44.1142379,-69.1100786
63,Warren Street,04841,44.1143772,-69.1103225
65,Warren Street,04841,44.1144670,-69.1104977
106,North Main Street,04841,44.1149785,-69.1122420
77,Lawn Avenue,04841,44.1165484,-69.1179375
78,Lawn Avenue,04841,44.1164397,-69.1185246
3,Melrose Circle North,04841,44.1165671,-69.1172439
7,Melrose Circle South,04841,44.1163581,-69.1191056
9,Melrose Circle South,04841,44.1165693,-69.1194809
82,Lawn Avenue,04841,44.1167675,-69.1193001
80,Lawn Avenue,04841,44.1166464,-69.1189250
8,Melrose Circle South,04841,44.1159618,-69.1192173
4,Melrose Circle South,04841,44.1155665,-69.1184229
71,Lawn Avenue,04841,44.1161530,-69.1171681
67,Lawn Avenue,04841,44.1160767,-69.1169367
62,Lawn Avenue,04841,44.1155817,-69.1167608
47,Lawn Avenue,04841,44.1155330,-69.1159984
45,Lawn Avenue,04841,44.1153757,-69.1157669
52,Lawn Avenue,04841,44.1154154,-69.1165543
35,Lawn Avenue,04841,44.1152590,-69.1154292
38,Lawn Avenue,04841,44.1150290,-69.1157850
24,Lawn Avenue,04841,44.1147550,-69.1151971
19,Lawn Avenue,04841,44.1148500,-69.1147723
22,Lawn Avenue,04841,44.1146381,-69.1150344
11,Lawn Avenue,04841,44.1146792,-69.1144721
8,Lawn Avenue,04841,44.1142606,-69.1144026
376,Broadway,04841,44.1139867,-69.1137522
8,Mill Street,04841,44.1525315,-69.1330400
250,Bog Road,04841,44.1490641,-69.1300813
226,Bog Road,04841,44.1456245,-69.1343124
189,Bog Road,04841,44.1408852,-69.1372772
162,Bog Road,04841,44.1369906,-69.1378433
141,Bog Road,04841,44.1343848,-69.1409750
131,Bog Road,04841,44.1333396,-69.1416663
130,Bog Road,04841,44.1330569,-69.1409718
111,Bog Road,04841,44.1297855,-69.1435016
110,Bog Road,04841,44.1286208,-69.1425300
98,Bog Road,04841,44.1278318,-69.1434969
96,Bog Road,04841,44.1263499,-69.1441682
90,Bog Road,04841,44.1256379,-69.1447915
17,Bog Road,04841,44.1220429,-69.1537379
5,Dodge Mountain Road,04841,44.1343969,-69.1308866
10,Dodge Mountain Road,04841,44.1340298,-69.1290419
60,Dodge Mountain Road,04841,44.1447493,-69.1239702
6,Clayton Lane,04841,44.1387259,-69.1322464
14,Clayton Lane,04841,44.1372106,-69.1345683
146,Lakeview Drive,04841,44.1352404,-69.1211187
133,Lakeview Drive,04841,44.1341928,-69.1199227
40,Lakeview Drive,04841,44.1269055,-69.1190955
3,Lilac Court,04841,44.1318550,-69.1212868
8,Lake Avenue,04841,44.1240781,-69.1194773
8,Lake Avenue,04841,44.1239926,-69.1194459
23,Lake Avenue,04841,44.1260308,-69.1204499
46,Farwell Drive,04841,44.1698907,-69.1571331
564,Old County Road,04841,44.1248010,-69.1168852
536,Old County Road,04841,44.1238139,-69.1181394
411,Old County Road,04841,44.1185729,-69.1233280
394,Old County Road,04841,44.1192980,-69.1271539
322,Old County Road,04841,44.1155181,-69.1298577
118,Old County Road,04841,44.1063649,-69.1386468
32,Acadia Drive,04841,44.1234129,-69.1046024
34,Acadia Drive,04841,44.1232191,-69.1048708
38,Acadia Drive,04841,44.1227729,-69.1054012
58,Acadia Drive,04841,44.1216300,-69.1048680
81 A,Acadia Drive,04841,44.1212451,-69.1023551
71,Acadia Drive,04841,44.1202133,-69.1034032
73,Acadia Drive,04841,44.1203262,-69.1029847
7,Achorn Street,04841,44.1129779,-69.1047839
17,Admontem Avenue,04841,44.1121345,-69.1111681
21,Admontem Avenue,04841,44.1123008,-69.1115058
21,Admontem Avenue,04841,44.1119811,-69.1115865
30,Admontem Avenue,04841,44.1121114,-69.1118366
34,Admontem Avenue,04841,44.1124258,-69.1125870
38,Admontem Avenue,04841,44.1126324,-69.1129748
40,Admontem Avenue,04841,44.1127988,-69.1132188
26,Amesbury Street,04841,44.1140916,-69.1123215
387,Broadway,04841,44.1144601,-69.1129533
39,Chestnut Street,04841,44.1140911,-69.1128526
390,Broadway,04841,44.1146759,-69.1133161
393,Broadway,04841,44.1147304,-69.1127539
386,Broadway,04841,44.1144686,-69.1134969
386,Broadway,04841,44.1145137,-69.1134720
13,Stanley Avenue,04841,44.1148256,-69.1121479
12,Stanley Avenue,04841,44.1145827,-69.1119475
10,Stanley Avenue,04841,44.1145739,-69.1117601
96,North Main Street,04841,44.1144213,-69.1112974
92,North Main Street,04841,44.1141827,-69.1112532
17,Chestnut Street,04841,44.1134399,-69.1112705
23,Chestnut Street,04841,44.1133945,-69.1116329
27,Chestnut Street,04841,44.1136823,-69.1120146
26,Chestnut Street,04841,44.1132949,-69.1122263
20,Chestnut Street,04841,44.1132097,-69.1119512
34,Chestnut Street,04841,44.1136230,-69.1127767
38,Chestnut Street,04841,44.1137803,-69.1130020
42,Chestnut Street,04841,44.1138837,-69.1132209
35,Chestnut Street,04841,44.1139383,-69.1125899
95,North Main Street,04841,44.1143857,-69.1108662
45,Admontem Avenue,04841,44.1132580,-69.1131447
359,Broadway,04841,44.1131086,-69.1140317
359,Broadway,04841,44.1131491,-69.1139880
350,Broadway,04841,44.1127387,-69.1147808
355,Broadway,04841,44.1128068,-69.1141873
355,Broadway,04841,44.1128429,-69.1141436
25,Court Street,04841,44.1123122,-69.1136553
16,Chestnut Street,04841,44.1129669,-69.1116321
10,Chestnut Street,04841,44.1127827,-69.1112381
4,Chestnut Street,04841,44.1125895,-69.1108753
5,Atlantic Street,04841,44.0965743,-69.1042178
72 A,Crescent Street,04841,44.0967441,-69.1056298
76,Crescent Street,04841,44.0968208,-69.1053676
80,Crescent Street,04841,44.0968887,-69.1050554
73,Crescent Street,04841,44.0965148,-69.1052983
81,Crescent Street,04841,44.0967045,-69.1045803
83,Crescent Street,04841,44.0967632,-69.1043743
33,Pacific Street,04841,44.0961455,-69.1054788
27,Pacific Street,04841,44.0958845,-69.1053222
25,Atlantic Street,04841,44.0959804,-69.1038732
33,Atlantic Street,04841,44.0957014,-69.1037540
18,Lawrence Street,04841,44.0959612,-69.1051349
8,Linden Street,04841,44.0970051,-69.1056865
6,Linden Street,04841,44.0970593,-69.1055242
4,Linden Street,04841,44.0971134,-69.1053743
12,Lawrence Street,04841,44.0961058,-69.1045792
12,Pacific Street,04841,44.0950607,-69.1053395
34,McLoud Street,04841,44.0970033,-69.1076042
26,McLoud Street,04841,44.0970848,-69.1071483
54,Pacific Street,04841,44.0970630,-69.1063800
38,Linden Street,04841,44.0964540,-69.1077406
26,Linden Street,04841,44.0966619,-69.1068977
48,Pacific Street,04841,44.0968650,-69.1062547
50,Crescent Street,04841,44.0962879,-69.1072031
52,Crescent Street,04841,44.0964098,-69.1068785
45,Crescent Street,04841,44.0959592,-69.1073274
49,Crescent Street,04841,44.0960405,-69.1070465
55,Crescent Street,04841,44.0961082,-69.1068155
57,Crescent Street,04841,44.0961670,-69.1065970
63,Crescent Street,04841,44.0963251,-69.1060163
25,Lawrence Street,04841,44.0960776,-69.1059097
17,Pacific Street,04841,44.0953311,-69.1050651
16,Marine Street,04841,44.0954709,-69.1047530
21,Atlantic Street,04841,44.0962414,-69.1039798
13,South Street,04841,44.0952281,-69.1044090
7,Pacific Street,04841,44.0948721,-69.1047832
16,South Street,04841,44.0949444,-69.1044897
90,Mechanic Street,04841,44.0946744,-69.1043956
94,Mechanic Street,04841,44.0947242,-69.1041333
64,Mechanic Street,04841,44.0942272,-69.1060813
68,Mechanic Street,04841,44.0942365,-69.1058252
72,Mechanic Street,04841,44.0943673,-69.1055381
78,Mechanic Street,04841,44.0944757,-69.1050823
44,South Street,04841,44.0944070,-69.1064127
30,South Street,04841,44.0946735,-69.1054450
52,Mechanic Street,04841,44.0939923,-69.1069928
50,Mechanic Street,04841,44.0939607,-69.1070927
76,Mechanic Street,04841,44.0944080,-69.1053133
49,South Street,04841,44.0946092,-69.1067878
41,South Street,04841,44.0947897,-69.1062884
60,Suffolk Street,04841,44.0948341,-69.1069444
61,Suffolk Street,04841,44.0947077,-69.1073377
58,Suffolk Street,04841,44.0951401,-69.1071136
54,Suffolk Street,04841,44.0953610,-69.1068017
59,Suffolk Street,04841,44.0950316,-69.1075569
57,Suffolk Street,04841,44.0952161,-69.1076134
8,Autumn Street,04841,44.0950796,-69.1137846
13,Autumn Street,04841,44.0952456,-69.1144034
23,Autumn Street,04841,44.0950470,-69.1149089
18,Autumn Street,04841,44.0949214,-69.1144215
22,Autumn Street,04841,44.0948401,-69.1147149
45,Thomaston Street,04841,44.0947373,-69.1140151
47,Thomaston Street,04841,44.0946335,-69.1142710
49,Thomaston Street,04841,44.0946107,-69.1144896
15,Broadway,04841,44.0952852,-69.1152904
10,Lovejoy Street,04841,44.0957866,-69.1135611
23,Broadway,04841,44.0959241,-69.1156477
56,Thomaston Street,04841,44.0942280,-69.1145576
48,Thomaston Street,04841,44.0944041,-69.1140145
38,Thomaston Street,04841,44.0945894,-69.1132778
34,Thomaston Street,04841,44.0947022,-69.1130531
30,Thomaston Street,04841,44.0948061,-69.1127035
7,Kelley Lane,04841,44.0944954,-69.1128153
6,Kelley Lane,04841,44.0944732,-69.1124155
16,Kelley Lane,04841,44.0942079,-69.1121964
10,Marks Lane,04841,44.0947258,-69.1119038
16,Marks Lane,04841,44.0943209,-69.1116719
162,Talbot Avenue,04841,44.1093413,-69.1221717
6,Beacon Street,04841,44.1098440,-69.1193174
134,Talbot Avenue,04841,44.1088578,-69.1196278
25,Lindsey Street,04841,44.1061067,-69.1113193
110,Union Street,04841,44.1063652,-69.1116415
106,Union Street,04841,44.1062414,-69.1116631
3,Grove Street,04841,44.1062277,-69.1118380
7,Grove Street,04841,44.1062725,-69.1120693
11,Grove Street,04841,44.1063083,-69.1123005
17,Grove Street,04841,44.1063843,-69.1128192
19,Grove Street,04841,44.1064787,-69.1129693
25,Grove Street,04841,44.1064873,-69.1133567
38,Summer Street,04841,44.1066548,-69.1123699
60,Summer Street,04841,44.1069910,-69.1138700
62,Summer Street,04841,44.1070402,-69.1141450
39,Grove Street,04841,44.1066034,-69.1142753
45,Grove Street,04841,44.1066436,-69.1146378
12,Grove Street,04841,44.1060966,-69.1123876
14,Grove Street,04841,44.1061189,-69.1125875
18,Grove Street,04841,44.1061411,-69.1129187
22,Grove Street,04841,44.1061678,-69.1132124
26,Grove Street,04841,44.1062396,-69.1134999
30,Grove Street,04841,44.1062844,-69.1136937
36,Grove Street,04841,44.1063335,-69.1140999
40,Grove Street,04841,44.1063602,-69.1144061
45,Beech Street,04841,44.1061393,-69.1147617
29,Beech Street,04841,44.1059243,-69.1136555
19,Beech Street,04841,44.1059114,-69.1130182
15,Beech Street,04841,44.1058308,-69.1125995
11,Beech Street,04841,44.1058356,-69.1123059
23,Maple Street,04841,44.1055138,-69.1145169
9,Lincoln Street,04841,44.1055177,-69.1150479
743,Main Street,04841,44.1118010,-69.1066403
12,James Street,04841,44.1120516,-69.1084188
25,James Street,04841,44.1127444,-69.1089886
27,James Street,04841,44.1127848,-69.1091074
29,James Street,04841,44.1129016,-69.1092763
35,James Street,04841,44.1131130,-69.1095516
32,Warren Street,04841,44.1130102,-69.1087204
34,Warren Street,04841,44.1130641,-69.1088205
38,Warren Street,04841,44.1132305,-69.1090457
9,Rockland Street,04841,44.1117855,-69.1090243
14,James Street,04841,44.1121685,-69.1086002
30,James Street,04841,44.1127753,-69.1095573
36,James Street,04841,44.1129641,-69.1098700
42,James Street,04841,44.1130225,-69.1100139
21,Rockland Street,04841,44.1122170,-69.1096687
23,Rockland Street,04841,44.1123339,-69.1098314
33,Rockland Street,04841,44.1125362,-69.1101567
40,Warren Street,04841,44.1133428,-69.1092334
54,Warren Street,04841,44.1138597,-69.1100779
58,Warren Street,04841,44.1139496,-69.1102655
81,North Main Street,04841,44.1136881,-69.1106837
375,Broadway,04841,44.1138113,-69.1135269
15,Court Street,04841,44.1119473,-69.1138920
8,Court Street,04841,44.1119199,-69.1143106
348,Broadway,04841,44.1126216,-69.1148430
331,Broadway,04841,44.1119058,-69.1148291
17,Gurdy Street,04841,44.1117608,-69.1112362
16,Gay Street Place,04841,44.1119221,-69.1120800
18,Gay Street Place,04841,44.1118631,-69.1125797
12,Gay Street Place,04841,44.1116788,-69.1122545
10,Gay Street Place,04841,44.1114355,-69.1124664
4,Gay Street Place,04841,44.1111428,-69.1125596
54,North Main Street,04841,44.1120629,-69.1107369
29,Gay Street,04841,44.1110352,-69.1121533
27,Gay Street,04841,44.1109768,-69.1120094
6,Knowlton Street,04841,44.1112200,-69.1118662
38,North Main Street,04841,44.1114463,-69.1106170
16,Gurdy Street,04841,44.1115492,-69.1113170
10,Gurdy Street,04841,44.1113919,-69.1110043
6,Gurdy Street,04841,44.1112751,-69.1107979
4,Gurdy Street,04841,44.1111358,-69.1105539
2,Gurdy Street,04841,44.1111043,-69.1104664
17,Gay Street,04841,44.1107703,-69.1113530
15,Gay Street,04841,44.1107211,-69.1110905
41,North Main Street,04841,44.1115504,-69.1100799
33,North Main Street,04841,44.1111273,-69.1100353
7,Cottage Street,04841,44.1108037,-69.1094287
8,Cottage Street,04841,44.1106415,-69.1096158
6,Cottage Street,04841,44.1105606,-69.1094907
25,North Main Street,04841,44.1107312,-69.1099346
684,Main Street,04841,44.1112185,-69.1088046
10,Rockland Street,04841,44.1115827,-69.1092114
18,Rockland Street,04841,44.1119109,-69.1096619
51,North Main Street,04841,44.1120589,-69.1102495
57,North Main Street,04841,44.1122839,-69.1103249
18,North Main Street,04841,44.1101863,-69.1101648
21,North Main Street,04841,44.1105287,-69.1098843
18,Leland Street,04841,44.1100912,-69.1107457
14,Gay Street,04841,44.1104914,-69.1112338
12,Gay Street,04841,44.1104196,-69.1109712
27,Tea Street,04841,44.1103191,-69.1124768
23,Tea Street,04841,44.1102564,-69.1121705
9,Tea Street,04841,44.1100187,-69.1111892
11,Tea Street,04841,44.1100410,-69.1114516
15,Tea Street,04841,44.1100948,-69.1116829
6,Tea Street,04841,44.1097261,-69.1112198
10,Tea Street,04841,44.1097710,-69.1113699
14,Tea Street,04841,44.1098876,-69.1117950
19,Rankin Street,04841,44.1091905,-69.1111064
26,Rankin Street,04841,44.1091224,-69.1117248
38,Rankin Street,04841,44.1094592,-69.1125626
40,Rankin Street,04841,44.1095401,-69.1127127
44,Rankin Street,04841,44.1096029,-69.1128691
35,Granite Street,04841,44.1082711,-69.1121918
36,Willow Street,04841,44.1086355,-69.1124299
52,Willow Street,04841,44.1087743,-69.1132174
5,Hill Street,04841,44.1098453,-69.1136068
41,Granite Street,04841,44.1083561,-69.1127105
43,Granite Street,04841,44.1083785,-69.1128480
49,Granite Street,04841,44.1084636,-69.1132918
7,Hill Street,04841,44.1098180,-69.1138567
8,Hill Street,04841,44.1095614,-69.1138937
10,Hill Street,04841,44.1096287,-69.1141312
71,Granite Street,04841,44.1087459,-69.1145419
81,Granite Street,04841,44.1089251,-69.1154169
79,Granite Street,04841,44.1088759,-69.1151482
12,Hill Street,04841,44.1096511,-69.1142500
85,Granite Street,04841,44.1089919,-69.1161168
32,Hill Street,04841,44.1098480,-69.1153437
34,Hill Street,04841,44.1099198,-69.1156125
29,Hill Street,04841,44.1101137,-69.1152818
31,Hill Street,04841,44.1102035,-69.1154819
32,Gay Street,04841,44.1108547,-69.1125341
44,Gay Street,04841,44.1111195,-69.1134093
61,Rankin Street,04841,44.1103986,-69.1140140
52,Gay Street,04841,44.1112494,-69.1139844
77,Rankin Street,04841,44.1107893,-69.1149644
72,Rankin Street,04841,44.1103528,-69.1147449
56,Gay Street,04841,44.1113211,-69.1143157
81,Rankin Street,04841,44.1108746,-69.1152020
322,Broadway,04841,44.1116665,-69.1155472
323,Broadway,04841,44.1113112,-69.1152653
319,Broadway,04841,44.1111219,-69.1154149
10,Sweetland Street,04841,44.1118189,-69.1161661
93,Rankin Street,04841,44.1112564,-69.1159588
317,Broadway,04841,44.1110048,-69.1155084
98,Rankin Street,04841,44.1110938,-69.1165270
133,Rankin Street,04841,44.1122441,-69.1186350
128,Rankin Street,04841,44.1118616,-69.1184967
236,Rankin Street,04841,44.1152124,-69.1254143
249,Rankin Street,04841,44.1159276,-69.1259095
257,Rankin Street,04841,44.1163142,-69.1264102
258,Rankin Street,04841,44.1160390,-69.1270032
3,Southern Drive,04841,44.1163625,-69.1275788
269,Rankin Street,04841,44.1167275,-69.1272046
267,Rankin Street,04841,44.1170071,-69.1267803
41,Sherer Lane,04841,44.1172208,-69.1328546
8,Benner Road,04841,44.1202366,-69.1405789
7,Hilltop Lane,04841,44.1115739,-69.1264875
219,Talbot Avenue,04841,44.1106159,-69.1257232
5,J R L Drive,04841,44.1108206,-69.1237930
210,Talbot Avenue,04841,44.1100043,-69.1251596
6,J R L Drive,04841,44.1106576,-69.1246237
197,Talbot Avenue,04841,44.1100642,-69.1239039
33,Traverse Street,04841,44.1109155,-69.1191571
19,Center Street,04841,44.1102096,-69.1183247
12,Center Street,04841,44.1107135,-69.1186506
27,Traverse Street,04841,44.1105642,-69.1193626
18,Traverse Street,04841,44.1111132,-69.1195699
7,Center Street,04841,44.1109325,-69.1201819
8,Center Street,04841,44.1112703,-69.1199576
6,Center Street,04841,44.1113870,-69.1202952
1,Center Street,04841,44.1114038,-69.1214074
26,Orchard Street,04841,44.1118177,-69.1217082
17,Orchard Street,04841,44.1118144,-69.1205210
10,Orchard Street,04841,44.1124038,-69.1208534
16,Orchard Street,04841,44.1120176,-69.1199404
10,Fern Street,04841,44.1097235,-69.1182738
7,Fern Street,04841,44.1092377,-69.1179479
111,Talbot Avenue,04841,44.1089182,-69.1178098
109,Talbot Avenue,04841,44.1088016,-69.1173785
108,Talbot Avenue,04841,44.1085086,-69.1177778
279,Broadway,04841,44.1090638,-69.1163356
297,Broadway,04841,44.1099645,-69.1159375
289,Broadway,04841,44.1097258,-69.1160495
298,Broadway,04841,44.1101801,-69.1163753
288,Broadway,04841,44.1095362,-69.1165552
5,Broadway Place,04841,44.1096079,-69.1168365
284,Broadway,04841,44.1093200,-69.1166985
57,Talbot Avenue,04841,44.1082109,-69.1138911
123,Summer Street,04841,44.1083629,-69.1193082
115,Summer Street,04841,44.1081212,-69.1179832
20,Woodland Road,04841,44.1080875,-69.1201448
118,Summer Street,04841,44.1078817,-69.1188387
116,Summer Street,04841,44.1078326,-69.1184574
48,Shaw Avenue,04841,44.1077969,-69.1182137
6,Woodland Road,04841,44.1072228,-69.1204867
250,Broadway,04841,44.1075770,-69.1175448
246,Broadway,04841,44.1072618,-69.1176004
30,Shaw Avenue,04841,44.1068513,-69.1183680
101,Beech Street,04841,44.1065133,-69.1187984
240,Broadway,04841,44.1069872,-69.1176186
236,Broadway,04841,44.1067440,-69.1176931
93,Summer Street,04841,44.1078080,-69.1161145
249,Broadway,04841,44.1074922,-69.1168448
86,Summer Street,04841,44.1073672,-69.1157700
89,Summer Street,04841,44.1077362,-69.1158582
87,Summer Street,04841,44.1077364,-69.1157395
66,Talbot Avenue,04841,44.1079626,-69.1145903
239,Broadway,04841,44.1069924,-69.1169376
235,Broadway,04841,44.1068122,-69.1170059
30,Granite Street,04841,44.1079607,-69.1119538
63,Summer Street,04841,44.1074814,-69.1140833
55,Summer Street,04841,44.1072975,-69.1134582
519,Main Street,04841,44.1082078,-69.1084143
693,Main Street,04841,44.1111829,-69.1083484
5,Granite Street,04841,44.1079218,-69.1103293
16,Granite Street,04841,44.1077816,-69.1110225
139,Union Street,04841,44.1078218,-69.1113475
17,Talbot Avenue,04841,44.1075339,-69.1110658
5,Talbot Avenue,04841,44.1073817,-69.1101783
8,Summer Street,04841,44.1063509,-69.1101202
14,Summer Street,04841,44.1063685,-69.1105451
22,Lindsey Street,04841,44.1058637,-69.1111814
65,Walker Place,04841,44.1062414,-69.1161614
1,Walker Place,04841,44.1065655,-69.1161308
69,Walker Place,04841,44.1062771,-69.1164801
87,Beech Street,04841,44.1064196,-69.1179673
18,Maple Street,04841,44.1051946,-69.1140852
20,Maple Street,04841,44.1052124,-69.1142851
66,Beech Street,04841,44.1059217,-69.1162170
223,Beech Street,04841,44.1059883,-69.1171355
16,Lincoln Street,04841,44.1058100,-69.1154171
106,Beech Street,04841,44.1062518,-69.1191290
121,Beech Street,04841,44.1067050,-69.1205481
177,Limerock Street,04841,44.1049047,-69.1201759
8,Shaw Avenue,04841,44.1056132,-69.1185405
90,Beech Street,04841,44.1061270,-69.1180042
149,Shaw Avenue,04841,44.1052849,-69.1181962
204,Broadway,04841,44.1049567,-69.1178020
131,Limerock Street,04841,44.1054798,-69.1169221
129,Limerock Street,04841,44.1054261,-69.1166534
119,Limerock Street,04841,44.1053458,-69.1159035
117,Limerock Street,04841,44.1053145,-69.1157472
120,Limerock Street,04841,44.1050936,-69.1160654
107,Limerock Street,04841,44.1050990,-69.1151471
105,Limerock Street,04841,44.1050046,-69.1149532
87,Limerock Street,04841,44.1046592,-69.1137780
100,Limerock Street,04841,44.1044872,-69.1146836
420,Main Street,04841,44.1047244,-69.1093098
20,Elm Street,04841,44.1030737,-69.1100954
39,Union Street,04841,44.1028819,-69.1106510
85,Union Street,04841,44.1053595,-69.1112179
79,Union Street,04841,44.1051479,-69.1111800
77,Union Street,04841,44.1050354,-69.1111736
16,Grace Street,04841,44.1027297,-69.1120813
9,High Street,04841,44.1025676,-69.1120810
30,High Street,04841,44.1036791,-69.1124517
76,Limerock Street,04841,44.1042053,-69.1129463
9,Claremont Street,04841,44.1038451,-69.1130955
82,Limerock Street,04841,44.1042994,-69.1134462
45,Masonic Street,04841,44.1034478,-69.1141818
47,Masonic Street,04841,44.1034746,-69.1144380
28,Masonic Street,04841,44.1031970,-69.1128819
205,Old County Road,04841,44.1100981,-69.1337446
336,Limerock Street,04841,44.1078821,-69.1309031
291,Limerock Street,04841,44.1068910,-69.1275771
76,Oliver Street,04841,44.1054068,-69.1263369
69,Oliver Street,04841,44.1049974,-69.1261237
5,Oliver Woods North,04841,44.1054009,-69.1275552
7,Oliver Woods North,04841,44.1055400,-69.1279678
9,Oliver Woods North,04841,44.1057153,-69.1282306
6,Oliver Woods North,04841,44.1049324,-69.1278416
12,Oliver Woods North,04841,44.1055612,-69.1291486
10,Oliver Woods North,04841,44.1051971,-69.1286668
8,Oliver Woods North,04841,44.1050671,-69.1282167
58,Oliver Street,04841,44.1045058,-69.1269348
3,Oliver Woods South,04841,44.1042799,-69.1276590
7,Oliver Woods South,04841,44.1045670,-69.1285405
11,Oliver Woods South,04841,44.1048631,-69.1294720
10,Oliver Woods South,04841,44.1044400,-69.1294273
6,Oliver Woods South,04841,44.1039368,-69.1285016
4,Oliver Woods South,04841,44.1038203,-69.1280516
68,Oliver Street,04841,44.1050284,-69.1265423
267,Park Street,04841,44.1017353,-69.1286718
22,Oliver Street,04841,44.1019382,-69.1284348
239,Park Street,04841,44.1018311,-69.1275912
230,Payne Avenue,04841,44.1011716,-69.1255033
250,Park Street,04841,44.1013904,-69.1271280
1,Payne Avenue,04841,44.1012016,-69.1268527
347,Park Street,04841,44.1017641,-69.1349065
50,Payne Avenue,04841,44.0981244,-69.1291637
268,Pleasant Street,04841,44.0975089,-69.1280817
16,Glenwood Avenue,04841,44.0951367,-69.1319119
18,Glenwood Avenue,04841,44.0950554,-69.1321241
13,Glenwood Avenue,04841,44.0953252,-69.1323745
9,Merry Street,04841,44.0951800,-69.1333236
1,Forrest Avenue,04841,44.0945330,-69.1322666
9,Forrest Avenue,04841,44.0940284,-69.1326465
12,Forrest Avenue,04841,44.0939467,-69.1331897
11,Forrest Avenue,04841,44.0938527,-69.1327710
25,Halet Avenue,04841,44.0932391,-69.1338939
9,Halet Avenue,04841,44.0944049,-69.1340153
5,Halet Avenue,04841,44.0946394,-69.1337347
3,Halet Avenue,04841,44.0948421,-69.1335852
2,Halet Avenue,04841,44.0946941,-69.1331414
16,Halet Avenue,04841,44.0938113,-69.1334767
9,Belvidere Street,04841,44.0988561,-69.1229060
2,Luce Avenue,04841,44.0998463,-69.1187726
11,Luce Avenue,04841,44.1006390,-69.1184181
14,Railroad Avenue,04841,44.1008955,-69.1184811
5,Railroad Avenue,04841,44.1010532,-69.1183814
128,Broadway,04841,44.1009230,-69.1180688
126,Broadway,04841,44.1008329,-69.1180437
126,Broadway,04841,44.1008329,-69.1181061
126,Broadway,04841,44.1008328,-69.1181686
121,Pleasant Street,04841,44.0996355,-69.1180725
117,Broadway,04841,44.1003472,-69.1175804
111,Broadway,04841,44.1000187,-69.1175360
107,Broadway,04841,44.0998656,-69.1175482
99,Pleasant Street,04841,44.0998081,-69.1164986
6,Broad Street,04841,44.1002457,-69.1156624
15,Broad Street,04841,44.1006602,-69.1152884
7,Broad Street,04841,44.1003136,-69.1152877
29,Broad Street,04841,44.1012632,-69.1155207
84,Park Street,04841,44.1016963,-69.1145720
10,Broad Street,04841,44.1004257,-69.1157190
6 A,Lisle Street,04841,44.1000017,-69.1165427
27,Lisle Street,04841,44.1011181,-69.1164887
114,Pleasant Street,04841,44.0993120,-69.1174784
87,Broadway,04841,44.0987541,-69.1171837
29,Prescott Street,04841,44.0987276,-69.1166277
79,Broadway,04841,44.0983536,-69.1169518
23,Forrest Avenue,04841,44.0930733,-69.1332627
11,Prescott Street,04841,44.0988637,-69.1156410
12,Prescott Street,04841,44.0986435,-69.1152220
16,Berkeley Street,04841,44.0990299,-69.1159536
59,Broadway,04841,44.0978635,-69.1164386
57,Broadway,04841,44.0974811,-69.1161755
53,Broadway,04841,44.0972154,-69.1162936
2,Orange Street,04841,44.0976315,-69.1143330
38,Lovejoy Street,04841,44.0968534,-69.1137131
35,Broadway,04841,44.0963020,-69.1158296
42,Holmes Street,04841,44.0975244,-69.1134458
43,Lovejoy Street,04841,44.0970519,-69.1132325
33,Lovejoy Street,04841,44.0967007,-69.1133193
52,Holmes Street,04841,44.0968791,-69.1149874
72,Thomaston Street,04841,44.0938758,-69.1156937
82,Thomaston Street,04841,44.0936724,-69.1164553
90,Thomaston Street,04841,44.0933299,-69.1168357
3,Gordon Drive,04841,44.0924035,-69.1158470
110,Thomaston Street,04841,44.0927650,-69.1189271
114,Thomaston Street,04841,44.0928367,-69.1192270
118,Thomaston Street,04841,44.0927420,-69.1194642
140,Thomaston Street,04841,44.0919255,-69.1210365
9,Gordon Drive,04841,44.0919740,-69.1177137
154,Thomaston Street,04841,44.0913957,-69.1238837
151,Thomaston Street,04841,44.0922167,-69.1223613
153,Thomaston Street,04841,44.0924685,-69.1226679
162,Thomaston Street,04841,44.0904809,-69.1248186
229,Thomaston Street,04841,44.0905404,-69.1279480
20,Merrill Drive,04841,44.0878925,-69.1205162
18,Merrill Drive,04841,44.0893318,-69.1174587
17,Merrill Drive,04841,44.0884770,-69.1168948
98,Main Street,04841,44.0953121,-69.1108743
96,Main Street,04841,44.0951995,-69.1109240
94,Main Street,04841,44.0950464,-69.1108925
90,Main Street,04841,44.0947583,-69.1109607
88,Main Street,04841,44.0945512,-69.1109290
86,Main Street,04841,44.0941821,-69.1109471
93,Main Street,04841,44.0951639,-69.1104305
91,Main Street,04841,44.0948263,-69.1104174
85,Main Street,04841,44.0946642,-69.1104858
63,Lawrence Street Extension,04841,44.0949303,-69.1100053
64,Lawrence Street Extension,04841,44.0945432,-69.1099234
60,Lawrence Street Extension,04841,44.0946606,-69.1095800
10,Ingraham Lane,04841,44.0939398,-69.1100722
65,Main Street,04841,44.0938135,-69.1104155
61 A,Main Street,04841,44.0935164,-69.1104024
59,Main Street,04841,44.0932419,-69.1102957
14,Mechanic Street,04841,44.0931615,-69.1095960
18,Mechanic Street,04841,44.0932428,-69.1093401
22,Mechanic Street,04841,44.0933735,-69.1091154
16,Seavey Lane,04841,44.0926052,-69.1122808
7,Seavey Lane,04841,44.0924756,-69.1112625
13,Payson Lane,04841,44.0922095,-69.1118429
15,Payson Lane,04841,44.0921463,-69.1120114
17,Payson Lane,04841,44.0920740,-69.1122736
21,Payson Lane,04841,44.0920960,-69.1127858
27,Payson Lane,04841,44.0923297,-69.1131797
22,Payson Lane,04841,44.0915602,-69.1129222
14,Payson Lane,04841,44.0918271,-69.1115798
6,Payson Lane,04841,44.0919851,-69.1111554
36,Main Street,04841,44.0921295,-69.1107122
36,Mechanic Street,04841,44.0935861,-69.1080914
38,Mechanic Street,04841,44.0936673,-69.1078792
39,Mechanic Street,04841,44.0933030,-69.1075038
29,Mechanic Street,04841,44.0932531,-69.1079534
25,Mechanic Street,04841,44.0931218,-69.1087152
15,Mechanic Street,04841,44.0929323,-69.1092083
11,Mechanic Street,04841,44.0927923,-69.1097015
6,Seavey Lane,04841,44.0928988,-69.1112633
41,Main Street,04841,44.0923505,-69.1103128
39,Main Street,04841,44.0924096,-69.1097445
10,Gamage Lane,04841,44.0922388,-69.1094257
11,Dunton Avenue,04841,44.0915482,-69.1113482
13,Dunton Avenue,04841,44.0912151,-69.1112976
15,Dunton Avenue,04841,44.0911203,-69.1116159
28,Main Street,04841,44.0916030,-69.1105925
24,Main Street,04841,44.0914634,-69.1105485
19,Main Street,04841,44.0911489,-69.1099795
20,Main Street,04841,44.0911664,-69.1105167
18,Main Street,04841,44.0909729,-69.1104102
10,Dunton Avenue,04841,44.0909768,-69.1110098
50,Lawrence Street,04841,44.0949811,-69.1086749
9,Crescent Street,04841,44.0953219,-69.1099685
17,Crescent Street,04841,44.0953539,-69.1094564
23,Crescent Street,04841,44.0955030,-69.1089632
51,Suffolk Street,04841,44.0955131,-69.1077701
10,Crescent Street,04841,44.0955468,-69.1101751
39,Crescent Street,04841,44.0957696,-69.1079205
108,Main Street,04841,44.0958072,-69.1109064
112,Main Street,04841,44.0960953,-69.1109257
110,Main Street,04841,44.0958973,-69.1109003
19,Carroll Lane,04841,44.0960697,-69.1094764
118,Main Street,04841,44.0963699,-69.1109574
115,Main Street,04841,44.0962624,-69.1103826
119,Main Street,04841,44.0963613,-69.1104702
121,Main Street,04841,44.0965414,-69.1105080
8,Carroll Lane,04841,44.0962717,-69.1100578
7,Clarendon Street,04841,44.0965508,-69.1100333
20,Crescent Street,04841,44.0957142,-69.1093009
22,Crescent Street,04841,44.0958226,-69.1090013
26,Crescent Street,04841,44.0958318,-69.1087764
28,Crescent Street,04841,44.0958589,-69.1087077
30,Crescent Street,04841,44.0959040,-69.1085329
23,Carroll Lane,04841,44.0960792,-69.1089330
13,Clarendon Street,04841,44.0965333,-69.1095460
26,Clarendon Street,04841,44.0967996,-69.1087657
21,Suffolk Street,04841,44.0970432,-69.1083101
7,Otis Street,04841,44.0970459,-69.1101466
11,Otis Street,04841,44.0970733,-69.1097719
13,Otis Street,04841,44.0970689,-69.1096407
15,Otis Street,04841,44.0970781,-69.1094846
10,Clarendon Street,04841,44.0968030,-69.1099463
127,Clarendon Street,04841,44.0968250,-69.1105023
10,Otis Street,04841,44.0973029,-69.1097911
22,Otis Street,04841,44.0972853,-69.1093038
28,Otis Street,04841,44.0973308,-69.1087792
17,Suffolk Street,04841,44.0973717,-69.1084044
10,Halls Lane,04841,44.0973235,-69.1116838
8,Halls Lane,04841,44.0973553,-69.1114528
138,Halls Lane,04841,44.0973602,-69.1109968
33,Suffolk Street,04841,44.0962601,-69.1080776
139,Main Street,04841,44.0974507,-69.1105597
1,Fulton Street,04841,44.0977883,-69.1105603
155,Main Street,04841,44.0982431,-69.1103987
149,Main Street,04841,44.0980135,-69.1104295
8,Fulton Street,04841,44.0980229,-69.1100548
10,Fulton Street,04841,44.0979331,-69.1098235
12,Fulton Street,04841,44.0979017,-69.1096735
16,Fulton Street,04841,44.0978794,-69.1094735
5,Ocean Street,04841,44.0982119,-69.1100801
9,Ocean Street,04841,44.0982619,-69.1096429
11,Ocean Street,04841,44.0982620,-69.1094930
15,Ocean Street,04841,44.0982442,-69.1092806
9,Suffolk Street,04841,44.0978894,-69.1084241
37,Water Street,04841,44.0984879,-69.1086251
14,Ocean Street,04841,44.0985277,-69.1094310
140,Main Street,04841,44.0976438,-69.1109973
144,Main Street,04841,44.0978104,-69.1109289
5,Halls Lane,04841,44.0975894,-69.1113595
9,Halls Lane,04841,44.0975892,-69.1116094
11,Halls Lane,04841,44.0975440,-69.1117530
13,Halls Lane,04841,44.0975079,-69.1118716
19,Halls Lane,04841,44.0974851,-69.1122276
30,Holmes Street,04841,44.0977322,-69.1127091
34,Holmes Street,04841,44.0977140,-69.1128402
5,Fulton Street,04841,44.0977301,-69.1102479
9,Fulton Street,04841,44.0977213,-69.1099667
11,Fulton Street,04841,44.0976721,-69.1096356
8,Holmes Street,04841,44.0981974,-69.1111732
6,Holmes Street,04841,44.0982695,-69.1110359
3,State Street,04841,44.0985127,-69.1109365
5,Laurel Street,04841,44.0988334,-69.1097939
11,Laurel Street,04841,44.0989781,-69.1091882
23,Water Street,04841,44.0990278,-69.1089197
31,Water Street,04841,44.0985868,-69.1087815
163,Main Street,04841,44.0986350,-69.1101871
171,Main Street,04841,44.0988106,-69.1100999
172,Main Street,04841,44.0989498,-69.1104563
15,Holmes Street,04841,44.0983455,-69.1115796
5,Purchase Street,04841,44.0984984,-69.1117485
9,Franklin Street,04841,44.0984481,-69.1125480
11,Franklin Street,04841,44.0986010,-69.1126732
35,Holmes Street,04841,44.0979704,-69.1130406
1,Orange Street,04841,44.0978033,-69.1136087
39,Holmes Street,04841,44.0978530,-69.1133964
6,Purchase Street,04841,44.0984035,-69.1120794
6,Edwards Street,04841,44.0980285,-69.1134780
18,Holmes Street,04841,44.0980078,-69.1117101
99,Mechanic Street,04841,44.0946081,-69.1030460
3,Seavey Lane,04841,44.0925660,-69.1109566
3,McLoud Street,04841,44.0977432,-69.1058752
8,McLoud Street,04841,44.0974595,-69.1059497
5,Linden Street,04841,44.0973068,-69.1056495
9,Linden Street,04841,44.0972210,-69.1058805
65,Pacific Street,04841,44.0979318,-69.1064252
49,Fulton Street,04841,44.0975531,-69.1069930
43,Fulton Street,04841,44.0975573,-69.1073616
41,Fulton Street,04841,44.0975616,-69.1075552
37,Fulton Street,04841,44.0975748,-69.1078239
25,McLoud Street,04841,44.0973323,-69.1072737
29,McLoud Street,04841,44.0972870,-69.1075735
14,Suffolk Street,04841,44.0976061,-69.1080738
35,McLoud Street,04841,44.0971875,-69.1079668
66,Pacific Street,04841,44.0978189,-69.1067873
44,Fulton Street,04841,44.0978006,-69.1071371
45,Ocean Street,04841,44.0980798,-69.1070314
35,Ocean Street,04841,44.0981199,-69.1074563
33,Ocean Street,04841,44.0981511,-69.1077999
34,Fulton Street,04841,44.0978133,-69.1079805
181,Main Street,04841,44.0991889,-69.1099070
8,Laurel Street,04841,44.0990992,-69.1096320
184,Main Street,04841,44.0993191,-69.1102695
13,Purchase Street,04841,44.0989080,-69.1118367
13,State Street,04841,44.0990844,-69.1109563
12,Florence Street,04841,44.0995122,-69.1107572
3,Florence Street,04841,44.0999627,-69.1104207
5,Florence Street,04841,44.0998005,-69.1106078
8,Florence Street,04841,44.0995530,-69.1105199
190,Main Street,04841,44.0994543,-69.1101574
12,State Street,04841,44.0990031,-69.1112685
14,State Street,04841,44.0991516,-69.1112812
18,State Street,04841,44.0992911,-69.1113002
20,State Street,04841,44.0993856,-69.1113254
22,State Street,04841,44.0995027,-69.1113131
22,Florence Street,04841,44.0994979,-69.1116692
26,Florence Street,04841,44.0994661,-69.1118878
10,Robinson Street,04841,44.1001655,-69.1101837
25,Florence Street,04841,44.0996461,-69.1119693
16,Franklin Street,04841,44.0986997,-69.1130795
19,Purchase Street,04841,44.0993264,-69.1120936
25,Purchase Street,04841,44.0995918,-69.1122878
27,Florence Street,04841,44.0998081,-69.1120258
30,State Street,04841,44.0999573,-69.1113577
20,Purchase Street,04841,44.0992045,-69.1124370
24,Purchase Street,04841,44.0993620,-69.1125372
23,Franklin Street,04841,44.0991545,-69.1129366
25,Franklin Street,04841,44.0993120,-69.1130057
29,Franklin Street,04841,44.0995639,-69.1131311
56,Pleasant Street,04841,44.1000815,-69.1133132
11,Robinson Street,04841,44.1003094,-69.1103713
10,Pleasant Street,04841,44.1006880,-69.1098848
226,Main Street,04841,44.1005037,-69.1095908
16,Pleasant Street,04841,44.1006110,-69.1103781
38,Pleasant Street,04841,44.1003303,-69.1120018
39,Pleasant Street,04841,44.1006003,-69.1121398
49,Pleasant Street,04841,44.1004420,-69.1128891
53,Pleasant Street,04841,44.1003606,-69.1132575
6,Brick Street,04841,44.1005720,-69.1134079
57,Pleasant Street,04841,44.1003153,-69.1135698
65,Phillips Street,04841,44.1002518,-69.1140757
20,Edwards Street,04841,44.0989149,-69.1139169
27,Orange Street,04841,44.0990181,-69.1142482
17,Beech Street,04841,44.1058532,-69.1127245
4,Benner Road,04841,44.1199755,-69.1406470
27,Berkeley Street,04841,44.0992543,-69.1166537
4,Birch Street Place,04841,44.1170911,-69.1109212
5,Bunker Street,04841,44.1137167,-69.1090029
15,Brewster Street,04841,44.1138572,-69.1079597
17,Brewster Street,04841,44.1138843,-69.1079347
19,Brewster Street,04841,44.1139068,-69.1079098
19,Brewster Street,04841,44.1139339,-69.1078786
30,Brewster Street,04841,44.1145959,-69.1075986
34,Brewster Street,04841,44.1148121,-69.1073928
44,Brewster Street,04841,44.1151188,-69.1068310
44,Brewster Street,04841,44.1151503,-69.1067936
51,Masonic Street,04841,44.1034834,-69.1146816
63,Masonic Street,04841,44.1035004,-69.1156000
56,Masonic Street,04841,44.1032084,-69.1150747
64,Masonic Street,04841,44.1031943,-69.1156057
68,Masonic Street,04841,44.1032345,-69.1159306
57,Grace Street,04841,44.1028662,-69.1151115
61,Grace Street,04841,44.1028615,-69.1153239
57,Park Street,04841,44.1021214,-69.1125925
42,Grace Street,04841,44.1026648,-69.1139116
46,Grace Street,04841,44.1026691,-69.1141428
56,Grace Street,04841,44.1026098,-69.1149236
10,Grace Street Place,04841,44.1023217,-69.1148668
5,Grace Street Place,04841,44.1024475,-69.1151107
80,Park Street,04841,44.1016741,-69.1142846
79,Park Street,04841,44.1020928,-69.1142292
81,Park Street,04841,44.1020610,-69.1144915
83,Park Street,04841,44.1020428,-69.1146601
95,Park Street,04841,44.1020600,-69.1155160
62,Grace Street,04841,44.1025597,-69.1154607
66,Grace Street,04841,44.1026225,-69.1156795
68,Grace Street,04841,44.1026583,-69.1158982
50,Broad Street,04841,44.1025815,-69.1161917
80,Grace Street,04841,44.1025134,-69.1167039
69,Broad Street,04841,44.1038423,-69.1158818
75,Broad Street,04841,44.1040628,-69.1159072
75,Broad Street,04841,44.1040989,-69.1159011
77,Masonic Street,04841,44.1034905,-69.1165496
70,Broad Street,04841,44.1038281,-69.1164940
78,Broad Street,04841,44.1042426,-69.1161762
82,Broad Street,04841,44.1045083,-69.1161018
82,Broad Street,04841,44.1045804,-69.1160707
183,Broadway,04841,44.1039351,-69.1175250
185,Broadway,04841,44.1040837,-69.1175004
187,Broadway,04841,44.1041918,-69.1174818
191,Broadway,04841,44.1044124,-69.1174510
186,Broadway,04841,44.1041013,-69.1178940
182,Broadway,04841,44.1038132,-69.1179434
90,Broad Street,04841,44.1048685,-69.1160025
198,Broadway,04841,44.1047631,-69.1178141
45,Highland Street,04841,44.1044195,-69.1192315
41,Highland Street,04841,44.1039423,-69.1192993
42,Highland Street,04841,44.1038607,-69.1198427
102,Masonic Street,04841,44.1032230,-69.1183483
104,Masonic Street,04841,44.1032408,-69.1186045
27,Highland Street,04841,44.1032084,-69.1193978
171,Broadway,04841,44.1032643,-69.1176174
165,Broadway,04841,44.1030032,-69.1176294
26,Highland Street,04841,44.1030413,-69.1199097
19,Highland Street,04841,44.1022902,-69.1193085
133,Broadway,04841,44.1011844,-69.1177195
14,Lisle Street,04841,44.1004380,-69.1169122
199,Park Street,04841,44.1018237,-69.1219438
204,Park Street,04841,44.1009486,-69.1235850
189,Limerock Street,04841,44.1047372,-69.1211439
19,Orange Street,04841,44.0985728,-69.1139475
13,Orange Street,04841,44.0984108,-69.1138660
14,Edwards Street,04841,44.0984560,-69.1136599
9,Broad Street,04841,44.1003631,-69.1153003
47,Broad Street,04841,44.1024018,-69.1158603
83,Grace Street,04841,44.1028732,-69.1170544
79,Grace Street,04841,44.1029320,-69.1167671
76,Masonic Street,04841,44.1032204,-69.1165053
54,Broad Street,04841,44.1028651,-69.1161610
54,Broad Street,04841,44.1028606,-69.1162048
54,Broad Street,04841,44.1028605,-69.1162547
55,Broad Street,04841,44.1029059,-69.1158800
55,Broad Street,04841,44.1029105,-69.1158363
57,Broad Street,04841,44.1030950,-69.1159116
76,Broad Street,04841,44.1040400,-69.1162133
76,Broad Street,04841,44.1040715,-69.1162009
79,Broad Street,04841,44.1042745,-69.1158452
79,Broad Street,04841,44.1042746,-69.1157515
80,Broad Street,04841,44.1042922,-69.1161701
80,Broad Street,04841,44.1043237,-69.1161701
69,Broadway,04841,44.0980613,-69.1167201
114,Broadway,04841,44.1001667,-69.1179986
200,Broadway,04841,44.1048172,-69.1178142
218,Broadway,04841,44.1055192,-69.1180717
338,Broadway,04841,44.1124854,-69.1159987
352,Broadway,04841,44.1127747,-69.1147558
52,Camden Street,04841,44.1151562,-69.1052627
122,Camden Street,04841,44.1186833,-69.1027381
132,Camden Street,04841,44.1192868,-69.1024267
53,Cedar Street,04841,44.1146805,-69.1085173
30,Chestnut Street,04841,44.1134838,-69.1124391
3,City Place,04841,44.1034250,-69.1231966
5,City Place,04841,44.1035334,-69.1228345
56,Ulmer Street,04841,44.1033381,-69.1244021
52,Ulmer Street,04841,44.1030005,-69.1244389
20,Clarendon Street,04841,44.0968128,-69.1091717
28,Clarendon Street,04841,44.0968087,-69.1086845
11,Columbia Avenue,04841,44.0989090,-69.1239618
1,Cottage Street,04841,44.1106059,-69.1091221
3,Cottage Street,04841,44.1106284,-69.1091659
5,Cottage Street,04841,44.1106509,-69.1092160
10,Cottage Street,04841,44.1106684,-69.1096658
8,Country Way,04841,44.1206406,-69.1261569
11,Country Way,04841,44.1206982,-69.1270319
13,Court Street,04841,44.1119112,-69.1139294
23,Court Street,04841,44.1122356,-69.1137051
27,Court Street,04841,44.1123707,-69.1136304
15,Crescent Street,04841,44.0953493,-69.1095938
25,Crescent Street,04841,44.0955256,-69.1088820
46,Crescent Street,04841,44.0962157,-69.1074591
78,Crescent Street,04841,44.0968435,-69.1052427
79,Crescent Street,04841,44.0966998,-69.1047739
72 B,Crescent Street,04841,44.0967802,-69.1055424
15,Eliza Steele Drive,04841,44.1140577,-69.1147583
14,Eliza Steele Drive,04841,44.1140073,-69.1156267
19,Eliza Steele Drive,04841,44.1144849,-69.1152465
24,Elm Street,04841,44.1030599,-69.1103890
34,Franklin Street,04841,44.0996536,-69.1135498
9,Frederick Street,04841,44.1161602,-69.1100009
72,Front Street,04841,44.1151630,-69.1027383
3,Fulton Street,04841,44.0977794,-69.1104853
7,Fulton Street,04841,44.0977256,-69.1101729
13,Fulton Street,04841,44.0976722,-69.1095856
14,Fulton Street,04841,44.0979018,-69.1096110
18,Fulton Street,04841,44.0978794,-69.1094111
28,Florence Street,04841,44.0994706,-69.1119315
6,Gay Street Place,04841,44.1111743,-69.1125409
51,Glen Street,04841,44.1217820,-69.0958569
2,Glenwood Avenue,04841,44.0961453,-69.1317017
8,Glenwood Avenue,04841,44.0958980,-69.1314201
12,Gordon Drive,04841,44.0905691,-69.1180607
16,Gordon Drive,04841,44.0897716,-69.1187712
24,Gordon Drive,04841,44.0898059,-69.1203951
26,Gordon Drive,04841,44.0896647,-69.1219188
27,Gordon Drive,04841,44.0900595,-69.1231376
14,Grace Street,04841,44.1027298,-69.1118814
22,Grace Street,04841,44.1027157,-69.1125124
44,Grace Street,04841,44.1026603,-69.1139741
48,Grace Street,04841,44.1026735,-69.1142740
81,Grace Street,04841,44.1029320,-69.1168171
12,Grace Street Place,04841,44.1023127,-69.1149168
7,Granite Street,04841,44.1079758,-69.1103231
10,Granite Street,04841,44.1077234,-69.1106101
26,Granite Street,04841,44.1079025,-69.1116538
32,Granite Street,04841,44.1079831,-69.1120475
50,Granite Street,04841,44.1082608,-69.1135100
5,Grove Street,04841,44.1062772,-69.1118506
9,Grove Street,04841,44.1062904,-69.1121193
21,Grove Street,04841,44.1064921,-69.1130506
32,Grove Street,04841,44.1063023,-69.1138124
12,Gurdy Street,04841,44.1114279,-69.1110668
4,Halet Avenue,04841,44.0946490,-69.1332225
3,Harbor Lane,04841,44.1205714,-69.0953987
22,Highland Street,04841,44.1026405,-69.1200713
5,Highland Street Extension,04841,44.1002646,-69.1191045
60,Holmes Street,04841,44.0962533,-69.1150799
4,Prospect Street,04841,44.0962036,-69.1195711
131,Holmes Street,04841,44.0963157,-69.1200336
148,Holmes Street,04841,44.0953791,-69.1202940
16,Prospect Street,04841,44.0968652,-69.1197598
20,Prospect Street,04841,44.0970947,-69.1198290
149,Holmes Street,04841,44.0957834,-69.1210257
150,Holmes Street,04841,44.0953828,-69.1210186
152,Holmes Street,04841,44.0951173,-69.1209181
45,James Street,04841,44.1133958,-69.1103894
7,Jameson Point Road,04841,44.1153261,-69.0851052
85,Samoset Road,04841,44.1148486,-69.0855606
10,Laurel Street,04841,44.0991218,-69.1095570
5,Lime Street,04841,44.1046269,-69.1052378
21,Limerock Street,04841,44.1048654,-69.1100924
115,Lincoln Street,04841,44.1052292,-69.1154972
121,Limerock Street,04841,44.1053593,-69.1159597
123,Limerock Street,04841,44.1053727,-69.1160660
224,Limerock Street,04841,44.1047036,-69.1230555
303,Limerock Street,04841,44.1070658,-69.1282398
87 A,Limerock Street,04841,44.1046692,-69.1137780
10,Linden Street,04841,44.0969916,-69.1057364
2,Trek Drive,04841,44.1012418,-69.1350365
3,Trek Drive,04841,44.1010392,-69.1350048
9,Brannan Drive,04841,44.1008462,-69.1345608
10,Brannan Drive,04841,44.1008239,-69.1344171
11,Brannan Drive,04841,44.1007610,-69.1343170
12,Brannan Drive,04841,44.1006936,-69.1341919
391,Pleasant Street,04841,44.1006207,-69.1348726
395,Pleasant Street,04841,44.1007915,-69.1351292
393,Pleasant Street,04841,44.1007106,-69.1349853
2,Thorndike Loop,04841,44.1040837,-69.1084542
7,Lisle Street,04841,44.1000695,-69.1162180
11,Lisle Street,04841,44.1004521,-69.1162937
21,Lisle Street,04841,44.1008571,-69.1164445
29,Lisle Street,04841,44.1011541,-69.1165075
6 B,Lisle Street,04841,44.1000422,-69.1165553
13,Luce Avenue,04841,44.1007650,-69.1184683
15,Carroll Lane,04841,44.0959300,-69.1096074
100,Main Street,04841,44.0953571,-69.1108806
116,Main Street,04841,44.0962347,-69.1110634
124,Main Street,04841,44.0967030,-69.1109518
89,Pleasant Street,04841,44.1001554,-69.1159183
16,Perry Street,04841,44.1134867,-69.1046099
41,New County Road,04841,44.1002871,-69.1233900
397,Pleasant Street,04841,44.1008499,-69.1352542
348,Park Street,04841,44.1013768,-69.1350618
399,Main Street,04841,44.1043442,-69.1090169
336,Main Street,04841,44.1029265,-69.1092694
356,Main Street,04841,44.1034301,-69.1092901
362,Main Street,04841,44.1035291,-69.1092965
369,Main Street,04841,44.1037050,-69.1089908
9,Carroll Lane,04841,44.0958127,-69.1098445
151,Main Street,04841,44.0980630,-69.1104234
158,Main Street,04841,44.0983374,-69.1107112
169,Main Street,04841,44.0987746,-69.1101249
180,Main Street,04841,44.0991840,-69.1103193
183,Main Street,04841,44.0992475,-69.1098884
216,Main Street,04841,44.1001930,-69.1097089
20,Myrtle Street,04841,44.1013587,-69.1099298
246,Main Street,04841,44.1009992,-69.1093294
248,Main Street,04841,44.1010352,-69.1093107
250,Main Street,04841,44.1010622,-69.1092920
371,Main Street,04841,44.1037455,-69.1090033
384,Main Street,04841,44.1039793,-69.1093099
397,Main Street,04841,44.1042902,-69.1090231
401,Main Street,04841,44.1043892,-69.1090232
403,Main Street,04841,44.1044117,-69.1090295
411,Main Street,04841,44.1045153,-69.1090172
414,Main Street,04841,44.1046050,-69.1093110
416,Main Street,04841,44.1046459,-69.1093046
418,Main Street,04841,44.1046755,-69.1093049
421,Main Street,04841,44.1047763,-69.1090552
428,Main Street,04841,44.1049291,-69.1093491
429,Main Street,04841,44.1049294,-69.1090805
431,Main Street,04841,44.1049744,-69.1090930
434,Main Street,04841,44.1050056,-69.1093617
440,Main Street,04841,44.1051407,-69.1093807
445,Main Street,04841,44.1052534,-69.1091310
465,Main Street,04841,44.1056720,-69.1092130
469,Main Street,04841,44.1058206,-69.1092258
479,Main Street,04841,44.1059871,-69.1092573
471,Main Street,04841,44.1058476,-69.1092446
473,Main Street,04841,44.1058701,-69.1092446
477,Main Street,04841,44.1059691,-69.1092448
483,Main Street,04841,44.1060366,-69.1092762
485,Main Street,04841,44.1060591,-69.1092825
493,Main Street,04841,44.1061761,-69.1092952
495,Main Street,04841,44.1062031,-69.1093015
501,Main Street,04841,44.1063157,-69.1093267
61 B,Main Street,04841,44.0935264,-69.1104024
609,Main Street,04841,44.1091290,-69.1095693
611,Main Street,04841,44.1091650,-69.1095631
617,Main Street,04841,44.1092821,-69.1095008
668,Main Street,04841,44.1107771,-69.1089850
670,Main Street,04841,44.1107997,-69.1089726
686,Main Street,04841,44.1111870,-69.1087233
688,Main Street,04841,44.1112456,-69.1087110
690,Main Street,04841,44.1112816,-69.1086673
745,Main Street,04841,44.1119813,-69.1059871
40,North Main Street,04841,44.1115049,-69.1105734
77,North Main Street,04841,44.1135398,-69.1103772
103,North Main Street,04841,44.1149708,-69.1109173
110,North Main Street,04841,44.1152180,-69.1113864
152,North Main Street,04841,44.1175987,-69.1120220
202,Main Street,04841,44.0999091,-69.1099770
202,Main Street,04841,44.0998831,-69.1099832
22,Maple Street,04841,44.1052213,-69.1143914
25,Maple Street,04841,44.1055362,-69.1146294
30,Masonic Street,04841,44.1031970,-69.1129506
66,Broad Street,04841,44.1032345,-69.1158994
78,Masonic Street,04841,44.1032204,-69.1165491
26,Maverick Street,04841,44.1150355,-69.1043689
44,Maverick Street,04841,44.1153539,-69.1056629
32,West Meadow Road,04841,44.1133379,-69.1423746
96,Mechanic Street,04841,44.0947467,-69.1040771
52 A,Mechanic Street,04841,44.0940023,-69.1069928
8,Mountain Road,04841,44.1184908,-69.1399249
16,Myrtle Street,04841,44.1013588,-69.1098860
33,New County Road,04841,44.1005986,-69.1225223
35,New County Road,04841,44.1005669,-69.1227034
39,New County Road,04841,44.1005081,-69.1229594
66,New County Road,04841,44.0993629,-69.1246062
17,Ocean Street,04841,44.0982398,-69.1092056
394 A,Old County Road,04841,44.1193080,-69.1271539
53,Oliver Street,04841,44.1032903,-69.1269697
57,Oliver Street,04841,44.1037316,-69.1268706
65,Oliver Street,04841,44.1048126,-69.1262794
23,Orange Street,04841,44.0987617,-69.1141040
3,Orchard Street,04841,44.1115316,-69.1197582
12,Orchard Street,04841,44.1124757,-69.1210097
26,Otis Street,04841,44.0973126,-69.1089915
43,Park Street,04841,44.1021945,-69.1115118
47,Park Street,04841,44.1021718,-69.1117679
54,Park Street,04841,44.1017839,-69.1124794
59,Park Street,04841,44.1021123,-69.1127549
63,Park Street,04841,44.1020895,-69.1130234
78,Park Street,04841,44.1017148,-69.1141222
85,Park Street,04841,44.1020382,-69.1147725
272,Park Street,04841,44.1006772,-69.1288756
275,Park Street,04841,44.1017661,-69.1293340
277,Park Street,04841,44.1017569,-69.1294965
279,Park Street,04841,44.1019051,-69.1297779
280,Park Street,04841,44.1014280,-69.1297581
87,Park Street,04841,44.1020650,-69.1149850
5,Perry Street,04841,44.1132984,-69.1038160
34,Pleasant Street,04841,44.1003712,-69.1116958
165,Pleasant Street,04841,44.0992092,-69.1210202
329 B,Pleasant Street,04841,44.0980784,-69.1308752
22,Purchase Street,04841,44.0992360,-69.1124558
26,Purchase Street,04841,44.0994025,-69.1125498
27,Purchase Street,04841,44.0996413,-69.1123191
21,Rankin Street,04841,44.1092130,-69.1111689
32,Rankin Street,04841,44.1093649,-69.1123063
170 B,Rankin Street,04841,44.1126424,-69.1217724
8,Rockland Street,04841,44.1112315,-69.1092608
14,Rockland Street,04841,44.1117715,-69.1095117
16,Rockland Street,04841,44.1118119,-69.1096117
20,Rockland Street,04841,44.1120278,-69.1098058
26,Rockland Street,04841,44.1121536,-69.1100435
14,School Street,04841,44.1039967,-69.1099409
22,Schooner Drive,04841,44.1232466,-69.0938907
15,South Street,04841,44.0952191,-69.1044590
8,State Street,04841,44.0987780,-69.1112555
15,State Street,04841,44.0991339,-69.1109564
16,State Street,04841,44.0992011,-69.1112751
24,State Street,04841,44.0995522,-69.1113132
23,Stonewood Road,04841,44.1095317,-69.1250337
25,Stonewood Road,04841,44.1096215,-69.1252400
33,Stonewood Road,04841,44.1092339,-69.1256891
35,Stonewood Road,04841,44.1091169,-69.1256763
37,Stonewood Road,04841,44.1089414,-69.1255697
39,Stonewood Road,04841,44.1088560,-69.1254758
41,Stonewood Road,04841,44.1087978,-69.1252258
43,Stonewood Road,04841,44.1088564,-69.1250760
16,Suffolk Street,04841,44.0975161,-69.1080486
28,Suffolk Street,04841,44.0969040,-69.1078726
102,Dodge Mountain Road,04841,44.1438771,-69.1310639
116,Dodge Mountain Road,04841,44.1410762,-69.1318266
15,Vienos Run,04841,44.1138463,-69.1189381
286,Talbot Avenue,04841,44.1127754,-69.1308389
15,Kelley Lane,04841,44.0940500,-69.1125209
11,Granite Street,04841,44.1080296,-69.1105731
108,Union Street,04841,44.1063584,-69.1116821
144,Union Street,04841,44.1081726,-69.1116855
21,Talbot Avenue,04841,44.1075967,-69.1113408
21,Tea Street,04841,44.1102519,-69.1121143
25,Talbot Avenue,04841,44.1076504,-69.1116720
26,Talbot Avenue,04841,44.1073622,-69.1117152
17,Warren Street,04841,44.1126781,-69.1076826
10,Washington Street,04841,44.1153113,-69.1031072
17,Trinity Street,04841,44.1140951,-69.1039486
28,Warren Street,04841,44.1128529,-69.1084515
45,Talbot Avenue,04841,44.1079462,-69.1130159
61,Talbot Avenue,04841,44.1081791,-69.1142284
67,Talbot Avenue,04841,44.1082641,-69.1147284
77,Summer Street,04841,44.1075794,-69.1151831
79,Summer Street,04841,44.1077865,-69.1150898
81,Summer Street,04841,44.1076916,-69.1155270
81,Union Street,04841,44.1052920,-69.1111990
34,Willow Street,04841,44.1086266,-69.1123112
41,Talbot Avenue,04841,44.1078925,-69.1126596
53,Talbot Avenue,04841,44.1080266,-69.1135721
607,Main Street,04841,44.1091065,-69.1094943
608,Main Street,04841,44.1092277,-69.1099318
77,Limerock Street,04841,44.1045385,-69.1129531
79,Limerock Street,04841,44.1045608,-69.1130844
25,Jameson Point Road,04841,44.1156182,-69.0858429
29,Jameson Point Road,04841,44.1156136,-69.0859429
35,Jameson Point Road,04841,44.1156315,-69.0860367
41,Jameson Point Road,04841,44.1158025,-69.0861744
45,Jameson Point Road,04841,44.1158925,-69.0862182
47,Jameson Point Road,04841,44.1159600,-69.0862496
49,Jameson Point Road,04841,44.1160185,-69.0862684
49,Samoset Road,04841,44.1167253,-69.0861507
51,Jameson Point Road,04841,44.1160860,-69.0862935
53,Jameson Point Road,04841,44.1161310,-69.0863123
56,Warren Street,04841,44.1139271,-69.1102030
57,Jameson Point Road,04841,44.1163603,-69.0866438
59,Jameson Point Road,04841,44.1163703,-69.0866438
63,Jameson Point Road,04841,44.1163918,-69.0867126
65,Jameson Point Road,04841,44.1164458,-69.0867752
67,Warren Street,04841,44.1146785,-69.1106043
69,Jameson Point Road,04841,44.1165042,-69.0868253
7,Trinity Street,04841,44.1137581,-69.1032545
71,Jameson Point Road,04841,44.1165672,-69.0868566
73,Jameson Point Road,04841,44.1166257,-69.0868879
75,Jameson Point Road,04841,44.1166887,-69.0869193
83,Summer Street,04841,44.1078626,-69.1155335
85,Jameson Point Road,04841,44.1157539,-69.0848808
41 A,Talbot Avenue,04841,44.1079059,-69.1127221
36,Glen Street,04841,44.1220370,-69.0976446
4,Summit Road,04841,44.1235125,-69.1040339
81,Harbor Lane,04841,44.1202924,-69.0953358
127,Fern Street,04841,44.1091015,-69.1190473
5,Woodland Road,04841,44.1070618,-69.1194743
20,Bartlett Drive,04841,44.1088527,-69.1243949
201 A,Talbot Avenue,04841,44.1102705,-69.1245916
201 B,Talbot Avenue,04841,44.1102805,-69.1245916
68,Lawn Avenue,04841,44.1156171,-69.1174232
519,Old County Road,04841,44.1227062,-69.1183684
1,Greenway,04841,44.1040783,-69.1184312
3,Jefferson Street,04841,44.1133368,-69.1060530
4,Tea Street,04841,44.1095685,-69.1112758
8,Brannan Drive,04841,44.1004905,-69.1346474
488 B,Main Street,04841,44.1060283,-69.1095948
167,North Main Street,04841,44.1183246,-69.1109110
4,White Street,04841,44.1047230,-69.1129660
33,Winter Street,04841,44.1031980,-69.1072593
7,Moran Drive,04841,44.0888619,-69.1190816
190,Limerock Street,04841,44.1037554,-69.1214730
54,Tillson Avenue,04841,44.1046716,-69.1009626
54,Tillson Avenue,04841,44.1044337,-69.1015804
54,Tillson Avenue,04841,44.1041934,-69.1008332
34,Tillson Avenue,04841,44.1044947,-69.1065527
5,Commercial Street,04841,44.1024943,-69.1052028
328,Main Street,04841,44.1028409,-69.1092594
118,Main Street,04841,44.0963640,-69.1109057
360,Old County Road,04841,44.1174800,-69.1281950
96,Limerock Street,04841,44.1044286,-69.1143289
4,Union Street,04841,44.1009279,-69.1107700
24,Lincoln Street,04841,44.1066475,-69.1153963
41,Cranberry Isles Drive,04841,44.1270896,-69.1071314
126,Main Street,04841,44.0968542,-69.1110145
47,Maverick Street,04841,44.1161141,-69.1056747
416,Main Street,04841,44.1046812,-69.1093472
400,Main Street,04841,44.1042638,-69.1093279
412,Main Street,04841,44.1045960,-69.1093452
408,Main Street,04841,44.1044541,-69.1093354
34,School Street,04841,44.1038741,-69.1108364
220,Warrenton Street,04856,44.1217185,-69.0839557
50,Willow Street,04841,44.1087359,-69.1131547
85,Willow Street,04841,44.1095946,-69.1157597
75,Willow Street,04841,44.1095626,-69.1153922
80,Willow Street,04841,44.1092721,-69.1155344
73,Willow Street,04841,44.1095299,-69.1151392
76,Willow Street,04841,44.1092335,-69.1152817
74,Willow Street,04841,44.1091974,-69.1150126
71,Willow Street,04841,44.1095084,-69.1148600
70,Willow Street,04841,44.1091246,-69.1146506
67,Willow Street,04841,44.1093588,-69.1145291
520,Main Street,04841,44.1068368,-69.1100900
532,Main Street,04841,44.1073532,-69.1100334
546,Main Street,04841,44.1075892,-69.1102468
15,Granite Street,04841,44.1083041,-69.1112148
574,Main Street,04841,44.1082618,-69.1106531
63,Willow Street,04841,44.1092967,-69.1141795
62,Willow Street,04841,44.1090350,-69.1141473
59,Willow Street,04841,44.1092316,-69.1139072
60,Willow Street,04841,44.1089758,-69.1139515
57,Willow Street,04841,44.1092004,-69.1136705
56,Willow Street,04841,44.1089372,-69.1137543
51,Willow Street,04841,44.1091177,-69.1133173
49,Willow Street,04841,44.1090935,-69.1132097
47,Willow Street,04841,44.1090583,-69.1131145
45,Willow Street,04841,44.1089844,-69.1128706
41,Willow Street,04841,44.1089611,-69.1126183
42,Willow Street,04841,44.1087297,-69.1127175
42,Willow Street,04841,44.1086719,-69.1125450
37,Willow Street,04841,44.1089092,-69.1124468
17,Masonic Street,04841,44.1034476,-69.1121313
62,Union Street,04841,44.1037481,-69.1116780
34,School Street,04841,44.1038766,-69.1107994
16,Museum Street,04841,44.1034717,-69.1094384
16,Museum Street,04841,44.1034457,-69.1097710
19,Elm Street,04841,44.1034011,-69.1099945
4,Limerock Street,04841,44.1046835,-69.1093985
61,Limerock Street,04841,44.1046707,-69.1116431
41,Limerock Street,04841,44.1047410,-69.1109981
11,White Street,04841,44.1048902,-69.1124049
5,Beech Street,04841,44.1057694,-69.1119717
80,Union Street,04841,44.1053669,-69.1123687
22,White Street,04841,44.1054661,-69.1130607
582,Main Street,04841,44.1086063,-69.1105233
1,Rankin Street,04841,44.1090917,-69.1104348
600,Main Street,04841,44.1091773,-69.1100606
10,Leland Street,04841,44.1096299,-69.1109216
6,North Main Street,04841,44.1096107,-69.1100834
632,Main Street,04841,44.1100284,-69.1096288
639,Main Street,04841,44.1100731,-69.1090158
643,Main Street,04841,44.1103854,-69.1087955
655,Main Street,04841,44.1105943,-69.1085597
700,Main Street,04841,44.1115885,-69.1085573
710,Main Street,04841,44.1118234,-69.1082287
725,Main Street,04841,44.1115923,-69.1074320
734,Main Street,04841,44.1119958,-69.1074133
738,Main Street,04841,44.1119910,-69.1071263
771,Main Street,04841,44.1119312,-69.1052993
771,Main Street,04841,44.1121402,-69.1048991
3,Camden Street,04841,44.1127613,-69.1051469
35,Front Street,04841,44.1125822,-69.1021951
69,Front Street,04841,44.1138394,-69.1024652
75,Front Street,04841,44.1144709,-69.1013310
579,Main Street,04841,44.1085623,-69.1096482
500,Main Street,04841,44.1062211,-69.1098461
5,Lindsey Street,04841,44.1059794,-69.1098783
18,Lindsey Street,04841,44.1056934,-69.1106292
8,Lindsey Street,04841,44.1057049,-69.1101303
464,Main Street,04841,44.1056279,-69.1096704
456,Main Street,04841,44.1054767,-69.1096449
435,Main Street,04841,44.1050925,-69.1090990
15,Tillson Avenue,04841,44.1038240,-69.1083720
20,Winter Street,04841,44.1034512,-69.1081678
351,Main Street,04841,44.1032299,-69.1088805
345,Main Street,04841,44.1031126,-69.1088242
21,Winter Street,04841,44.1031440,-69.1082818
25,Park Street,04841,44.1023144,-69.1102039
2,Park Drive,04841,44.1026313,-69.1081217
20,Oak Street,04841,44.1028708,-69.1100888
21,Elm Street,04841,44.1033345,-69.1102140
10,School Street,04841,44.1039767,-69.1096495
8,Elm Street,04841,44.1030796,-69.1095028
28,Park Street,04841,44.1016829,-69.1099545
11,Union Street,04841,44.1012598,-69.1103938
14,Myrtle Street,04841,44.1013684,-69.1097602
12,Myrtle Street,04841,44.1013602,-69.1095650
266,Main Street,04841,44.1013535,-69.1092942
7,Pleasant Street,04841,44.1009952,-69.1097877
11,Pleasant Street,04841,44.1009279,-69.1100767
13,Pleasant Street,04841,44.1008789,-69.1102165
15,Pleasant Street,04841,44.1009191,-69.1103782
5,Union Street,04841,44.1011061,-69.1103864
4,Union Street,04841,44.1009151,-69.1109620
50,Park Street,04841,44.1018162,-69.1121112
44,Park Street,04841,44.1018383,-69.1116016
58,Park Street,04841,44.1016477,-69.1128367
33,Park Street,04841,44.1022117,-69.1108475
34,Union Street,04841,44.1024919,-69.1111174
7,High Street,04841,44.1024194,-69.1117786
38,Union Street,04841,44.1027436,-69.1112676
70,Park Street,04841,44.1016458,-69.1137514
68,Park Street,04841,44.1012731,-69.1138332
17,Walnut Street,04841,44.1012505,-69.1143393
92,Park Street,04841,44.1014753,-69.1150603
12,Water Street,04841,44.0989339,-69.1081227
58,Ocean Street,04841,44.0989729,-69.1051217
273,Main Street,04841,44.1015631,-69.1073268
275,Main Street,04841,44.1015899,-69.1086994
279,Main Street,04841,44.1018933,-69.1086847
1,Park Drive,04841,44.1020426,-69.1078991
1,Police Plaza,04841,44.1018863,-69.1079416
5,Park Drive,04841,44.1027773,-69.1068621
1,Commercial Street,04841,44.1027474,-69.1064209
11,Commercial Street,04841,44.1031222,-69.1054113
19,Lime Street,04841,44.1058888,-69.1049555
116,Tillson Avenue,04841,44.1048354,-69.1039492
1,Sea Street Place,04841,44.1049047,-69.1044964
11,Lime Street,04841,44.1051396,-69.1051871
2,Sea Street Place,04841,44.1049740,-69.1049742
94,Tillson Avenue,04841,44.1046725,-69.1048316
9,Water Street,04841,44.0997450,-69.1094168
218,Main Street,04841,44.1002743,-69.1096791
104,Park Street,04841,44.1014996,-69.1161770
118,Park Street,04841,44.1014244,-69.1172553
132,Park Street,04841,44.1014143,-69.1183257
140,Park Street,04841,44.1014399,-69.1187988
75,Maverick Street,04841,44.1175543,-69.1055706
75,Maverick Street,04841,44.1165106,-69.1063752
80,Camden Street,04841,44.1165893,-69.1042553
74,Camden Street,04841,44.1163459,-69.1044642
60,Camden Street,04841,44.1157317,-69.1050637
47,Maverick Street,04841,44.1161284,-69.1056832
73,Camden Street,04841,44.1161000,-69.1039542
5,Fales Street,04841,44.1172558,-69.1027919
99,Camden Street,04841,44.1174532,-69.1030314
169,Camden Street,04841,44.1207805,-69.1007212
265,Camden Street,04841,44.1245044,-69.0959043
235,Camden Street,04841,44.1240594,-69.0974006
235,Camden Street,04841,44.1235557,-69.0965154
3,Glen Street,04841,44.1233818,-69.0988544
270,Camden Street,04841,44.1254658,-69.0998379
190,Camden Street,04841,44.1220293,-69.1007810
20,Park Drive,04841,44.1036311,-69.1071457
54,Tillson Avenue,04841,44.1044067,-69.1066412
39,Summer Street,04841,44.1071731,-69.1124154
81,Talbot Avenue,04841,44.1085320,-69.1156921
222,Park Street,04841,44.1011465,-69.1232393
15,Oak Street,04841,44.1028778,-69.1098490
18,Union Street,04841,44.1017160,-69.1108210
34,Park Street,04841,44.1018422,-69.1108826
50,Gordon Drive,04841,44.0894081,-69.1258813
3,Park Drive,04841,44.1021640,-69.1066349
35,Farwell Drive,04841,44.1681623,-69.1575631
11,Farwell Drive,04841,44.1662036,-69.1616267
14,Farwell Drive,04841,44.1672564,-69.1615728
25,Farwell Drive,04841,44.1670971,-69.1592827
49,Camden Street,04841,44.1149985,-69.1047521
517,Main Street,04841,44.1072229,-69.1080294
220,Park Street,04841,44.1012035,-69.1251149
212,Park Street,04841,44.1010388,-69.1248291
75,Mechanic Street,04841,44.0937397,-69.1047459
167,New County Road,04841,44.0972008,-69.1320755
67,Main Street,04841,44.0942232,-69.1102718
131,North Main Street,04841,44.1168502,-69.1110763
197,Park Street,04841,44.1020701,-69.1216101
195,Park Street,04841,44.1020366,-69.1212283
191,Park Street,04841,44.1018974,-69.1202460
193,Park Street,04841,44.1019361,-69.1206395
90,Broadway,04841,44.0984289,-69.1176950
301,Main Street,04841,44.1022694,-69.1088472
2,North Main Street,04841,44.1093541,-69.1100439
27,Payne Avenue,04841,44.0992563,-69.1291887
210,Rankin Street,04841,44.1129476,-69.1268855
54,Tillson Avenue,04841,44.1045406,-69.1065879
50,Tillson Avenue,04841,44.1043447,-69.1069378
73,Mechanic Street,04841,44.0940890,-69.1047077
79,Mechanic Street,04841,44.0938913,-69.1027926
79,Mechanic Street,04841,44.0938115,-69.1031004
44,Atlantic Street,04841,44.0955897,-69.1031513
34,Atlantic Street,04841,44.0958095,-69.1033793
271,Main Street,04841,44.1006174,-69.1078136
17,Commercial Street,04841,44.1035261,-69.1043078
35,Tillson Avenue,04841,44.1034732,-69.1073917
117,Tillson Avenue,04841,44.1042153,-69.1048193
119,Tillson Avenue,04841,44.1041918,-69.1041901
127,Tillson Avenue,04841,44.1045330,-69.1030959
119,Commercial Street,04841,44.1045335,-69.1032720
19,Commercial Street,04841,44.1038208,-69.1044835
120,Tillson Avenue,04841,44.1049932,-69.1031635
120,Tillson Avenue,04841,44.1043764,-69.1033290
120,Tillson Avenue,04841,44.1051357,-69.1027801
120,Tillson Avenue,04841,44.1039332,-69.1027482
14,Wharf Street,04841,44.1055346,-69.1045487
11,Wharf Street,04841,44.1056919,-69.1041266
9,Wharf Street,04841,44.1055635,-69.1042949
40,Tillson Avenue,04841,44.1049418,-69.1078964
515,Main Street,04841,44.1068281,-69.1080033
779,Main Street,04841,44.1114308,-69.1052114
1,Front Street,04841,44.1116404,-69.1047212
1,Front Street,04841,44.1118482,-69.1044614
781,Main Street,04841,44.1122905,-69.1053963
11,Front Street,04841,44.1117499,-69.1029760
67,Front Street,04841,44.1133430,-69.1020494
305,Main Street,04841,44.1023747,-69.1088701
344,Main Street,04841,44.1030972,-69.1093063
346,Main Street,04841,44.1031527,-69.1093145
13,Oak Street,04841,44.1029109,-69.1097515
103,Main Street,04841,44.0956893,-69.1103295
28,Lincoln Street,04841,44.1070761,-69.1150763
32,Masonic Street,04841,44.1031445,-69.1131907
270,Pleasant Street,04841,44.0968812,-69.1285346
301,Park Street,04841,44.1023342,-69.1314280
1,Main Street,04841,44.0910467,-69.1079847
400,Limerock Street,04841,44.1064307,-69.1350145
245,Camden Street,04841,44.1244849,-69.0983434
6,Gordon Drive,04841,44.0918060,-69.1149938
400,Broadway,04841,44.1163904,-69.1145862
360,Old County Road,04841,44.1177084,-69.1280882
240,Pleasant Street,04841,44.0973116,-69.1238865
172,Limerock Street,04841,44.1043444,-69.1202343
300,Main Street,04841,44.1023537,-69.1096148
134,Thomaston Street,04841,44.0922794,-69.1207162
130,Thomaston Street,04841,44.0922690,-69.1203613
120,Thomaston Street,04841,44.0926267,-69.1196383
122,Thomaston Street,04841,44.0925761,-69.1198558
126,Thomaston Street,04841,44.0924273,-69.1200360
280,Limerock Street,04841,44.1061397,-69.1268722
274,Limerock Street,04841,44.1059781,-69.1266462
271,Limerock Street,04841,44.1061282,-69.1255467
273,Limerock Street,04841,44.1065725,-69.1260617
283,Limerock Street,04841,44.1066114,-69.1269567
31,Grace Street,04841,44.1029453,-69.1133557
41,Grace Street,04841,44.1029200,-69.1138794
55,Grace Street,04841,44.1028812,-69.1148634
53,Grace Street,04841,44.1029288,-69.1146346
47,Grace Street,04841,44.1029141,-69.1143762
52,Masonic Street,04841,44.1031875,-69.1148496
50,Masonic Street,04841,44.1032139,-69.1145724
48,Masonic Street,04841,44.1031651,-69.1143543
42,Masonic Street,04841,44.1031991,-69.1140424
34,Masonic Street,04841,44.1031646,-69.1133828
36,Masonic Street,04841,44.1031651,-69.1134742
32,Shaw Avenue,04841,44.1070233,-69.1183525
40,Shaw Avenue,04841,44.1072829,-69.1185288
13,Melrose Circle North,04841,44.1174722,-69.1185670
11,Melrose Circle North,04841,44.1174372,-69.1180299
8,Melrose Circle North,04841,44.1171324,-69.1183379
6,Melrose Circle North,04841,44.1169735,-69.1180299
4,Melrose Circle North,04841,44.1167483,-69.1176432
5,Melrose Circle North,04841,44.1168407,-69.1170500
7,Melrose Circle North,04841,44.1170806,-69.1173912
9,Melrose Circle North,04841,44.1172954,-69.1177378
87,Lake Avenue,04841,44.1311589,-69.1214825
78,Lake Avenue,04841,44.1319711,-69.1219439
68,Lake Avenue,04841,44.1310364,-69.1225764
66,Lake Avenue,04841,44.1309062,-69.1229915
70,Lake Avenue,04841,44.1312644,-69.1223792
74,Lake Avenue,04841,44.1315065,-69.1222159
149,Park Street,04841,44.1018988,-69.1195282
311,Park Street,04841,44.1025432,-69.1323400
36,Franklin Street,04841,44.0997717,-69.1136388
66,Pleasant Street,04841,44.0999765,-69.1138102
83,Acadia Drive,04841,44.1215068,-69.1026801
85,Acadia Drive,04841,44.1217575,-69.1025152
18,Olympic Avenue,04841,44.1213547,-69.1040116
116,New County Road,04841,44.0981899,-69.1274788
271,Pleasant Street,04841,44.0979448,-69.1275793
120,New County Road,04841,44.0978728,-69.1281406
117,New County Road,04841,44.0985903,-69.1276105
121,New County Road,04841,44.0983471,-69.1281254
616,Old County Road,04841,44.1262445,-69.1134816
143,Maverick Street,04841,44.1195557,-69.1108103
747,Old County Road,04841,44.1274432,-69.1033866
731,Old County Road,04841,44.1273874,-69.1085889
659,Old County Road,04841,44.1272127,-69.1108066
657,Old County Road,04841,44.1270483,-69.1110194
11,Cranberry Isles Drive,04841,44.1265908,-69.1099294
19,Cranberry Isles Drive,04841,44.1254361,-69.1073495
645,Old County Road,04841,44.1243082,-69.1082032
641,Old County Road,04841,44.1264720,-69.1119448
629,Old County Road,04841,44.1262147,-69.1125665
732,Old County Road,04841,44.1292311,-69.1088211
696,Old County Road,04841,44.1290002,-69.1092927
660,Old County Road,04841,44.1286147,-69.1097941
656,Old County Road,04841,44.1282222,-69.1104075
652,Old County Road,04841,44.1279291,-69.1110076
1,Lake View Terrace,04841,44.1273774,-69.1117234
5,Lake View Terrace,04841,44.1276587,-69.1118988
9,Lake View Terrace,04841,44.1280122,-69.1121767
11,Lake View Terrace,04841,44.1287164,-69.1112795
13,Lake View Terrace,04841,44.1283502,-69.1123994
17,Lake View Terrace,04841,44.1286616,-69.1126701
21,Lake View Terrace,04841,44.1289814,-69.1129739
25,Lake View Terrace,04841,44.1292383,-69.1132065
26,Lake View Terrace,04841,44.1289562,-69.1139280
24,Lake View Terrace,04841,44.1285561,-69.1136086
14,Lake View Terrace,04841,44.1280305,-69.1133283
10,Lake View Terrace,04841,44.1277767,-69.1130266
6,Lake View Terrace,04841,44.1275026,-69.1127809
642,Old County Road,04841,44.1268955,-69.1123788
634,Old County Road,04841,44.1265789,-69.1127834
30,Lake View Terrace,04841,44.1293179,-69.1146149
25,Mountain View Drive,04841,44.1293175,-69.1150732
21,Mountain View Drive,04841,44.1291806,-69.1156427
22,Mountain View Drive,04841,44.1299054,-69.1160483
51,Lake View Terrace,04841,44.1324118,-69.1166302
48,Lake View Terrace,04841,44.1315837,-69.1161759
45,Lake View Terrace,04841,44.1314441,-69.1152186
42,Lake View Terrace,04841,44.1308889,-69.1156644
38,Lake View Terrace,04841,44.1303898,-69.1152805
34,Lake View Terrace,04841,44.1300388,-69.1150369
33,Mountain View Drive Extension,04841,44.1296034,-69.1135244
37,Lake View Terrace,04841,44.1301607,-69.1144229
32,Mountain View Drive Extension,04841,44.1302726,-69.1137465
2,Pheasant Drive,04841,44.1312008,-69.1143339
10,Pheasant Drive,04841,44.1312296,-69.1136976
14,Pheasant Drive,04841,44.1311886,-69.1132331
22,Pheasant Drive,04841,44.1309253,-69.1114723
19,Pheasant Drive,04841,44.1305194,-69.1123980
15,Pheasant Drive,04841,44.1306445,-69.1130862
11,Pheasant Drive,04841,44.1306472,-69.1135465
3,Pheasant Drive,04841,44.1307331,-69.1141327
1,Pheasant Drive,04841,44.1308476,-69.1148329
110,Mountain View Drive Extension,04841,44.1330264,-69.1104442
35,Mountain View Drive Extension,04841,44.1295774,-69.1125881
39,Mountain View Drive Extension,04841,44.1295480,-69.1118429
43,Mountain View Drive Extension,04841,44.1298694,-69.1116183
47,Mountain View Drive Extension,04841,44.1301124,-69.1111599
51,Mountain View Drive Extension,04841,44.1303236,-69.1105051
55,Mountain View Drive Extension,04841,44.1304145,-69.1093970
52,Mountain View Drive Extension,04841,44.1312987,-69.1106062
122,Mountain View Drive Extension,04841,44.1318850,-69.1107621
116,Mountain View Drive Extension,04841,44.1324819,-69.1108052
400,Limerock Street,04841,44.1065642,-69.1356308
9,Pine Street,04841,44.1142009,-69.1092101
49,Warren Street,04841,44.1139209,-69.1095752
43,Warren Street,04841,44.1137562,-69.1093957
6,Bunker Street,04841,44.1139505,-69.1091350
10,Bunker Street,04841,44.1140837,-69.1090032
12,Bunker Street,04841,44.1141398,-69.1089352
16,Bunker Street,04841,44.1142674,-69.1087493
148,New County Road,04841,44.0973330,-69.1298257
150,New County Road,04841,44.0972299,-69.1301131
158,New County Road,04841,44.0971695,-69.1302878
70,Mountain Road,04841,44.1218509,-69.1447565
55,Mountain Road,04841,44.1206597,-69.1448382
61,Mountain Road,04841,44.1212864,-69.1454688
72,Talbot Avenue,04841,44.1080076,-69.1150692
517,Old County Road,04841,44.1226143,-69.1185986
265,Camden Street,04841,44.1244748,-69.0959865
265,Camden Street,04841,44.1242602,-69.0962793
265,Camden Street,04841,44.1247251,-69.0956197
327,Park Street,04841,44.1039342,-69.1322472
400,Broadway,04841,44.1164434,-69.1147405
100,Holmes Street,04841,44.0955623,-69.1169699
30,Broadway,04841,44.0944634,-69.1194199
1,Main Street,04841,44.0909241,-69.1083121
606,Old County Road,04841,44.1259909,-69.1136111
