House number,Street name,Postal code,Latitude,Longitude
112-114,JL. Gunung Bawakaraeng,90145,-5.1348900,119.4193117
10,"Toddopuli Raya Timur, Villa Surya Mas Blok J",90231,-5.1651991,119.4541397
12,Jalan Pandang,90234,-5.1581646,119.4517011
IV/2,Jalan Sultan Alauddin,90222,-5.1746073,119.4316196
62,Jalan A. Pettarani,90222,-5.1455037,119.4381961
5,adyaksa baru ruko zamrud 2,90111,-5.1560389,119.4477499
No.32a,Jalan Berua Raya,90242,-5.1158153,119.5229088
20,Jalan Andi Pangeran Pettarani,90222,-5.1451400,119.4386107
3,Jalan Talasalapang,90222,-5.1831875,119.4475966
134,jln deppasawi,90224,-5.1757867,119.4055268
60,Jl. Toddopuli Raya,90222,-5.1645343,119.4513859
30,Jalan G. Batu Putih,90142,-5.1469951,119.4186667
12,JL Cakalang,90165,-5.1177319,119.4186356
2B,Jl. Pelita II,90222,-5.1537687,119.4335083
9,Jalan Daeng Tata IV,90224,-5.1890210,119.4261058
Jl. Tamalate Raya Skarda N Komplex Mangasa Perma Ex SMK Profesi,Komp. Mangasa Permai,90222,-5.1799677,119.4421829
1,Jl. Tentara Pelajar,90173,-5.1215426,119.4098400
9,Jalan Gunung Bulusaraung,90115,-5.1326041,119.4155748
Jl. Perintis Kemerdekaan,Jalan Perintis Kemerdekaan,90245,-5.1407552,119.4861450
No.13-15,Jalan Pengayoman Ruko Jasper III,90222,-5.1592266,119.4454842
No. 8C,"Ruko Alfa, Jl. Pengayoman",90222,-5.1539131,119.4501810
No. 15,Jl. Adiyaksa,90222,-5.1612355,119.4454617
218/370,Jl. Tinumbu,90213,-5.1169444,119.4224860
12,Jalan Pandan,90222,-5.1697321,119.4532837
21,Jalan Monumen Emmy Saelan Lr. 50A,92221,-5.1754064,119.4422016
A No 29,Jalan Taman Makam Pahlawan BTN Paropo Blok A No 29,90231,-5.1487236,119.4588597
No. 25b,Jalan Lanto Daeng Pasewang,90131,-5.1519513,119.4193012
12,Jalan Tamalate 2,90222,-5.1733685,119.4519665
BLOK AC NO.34,Jalan Keindahan 1,90245,-5.1342857,119.5184313
26A,Jalan Sungai Saddang I,90141,-5.1443127,119.4241966
Asia Hotel - Lobby,Jalan Pengayoman,90231,-5.1577584,119.4383533
8,Jalan Kabaena,90171,-5.1264317,119.4146923
290,Jalan Veteran Utara,90141,-5.1410370,119.4237901
13,Jalan Dirgantara Lorong 8,90231,-5.1464888,119.4570876
38,Jalan Tala' Salapang,90222,-5.1830170,119.4459505
139,Jalan Buru,90155,-5.1248653,119.4195780
130,Jalan Gunung Latimojong,90145,-5.1388847,119.4203910
14,Jl. Jenderal Sudirman,90115,-5.1407555,119.4141344
353a,Jalan Abdullah Daeng Sirua,90233,-5.1502790,119.4638491
29,Jalan Rappocini Raya Lorong 9D,90222,-5.1549145,119.4314178
23,Jalan Jenderal Sudirman,90114,-5.1459948,119.4163284
80,Jalan Andalas,90156,-5.1271167,119.4187879
1,"Jl. Sultan Hasanuddin, Bulo Gading, Ujung Pandang, Kota Makassar, Sulawesi Selatan",90171,-5.1357494,119.4072011
20,Jl. Ir. Sutami,90244,-5.1021655,119.4576445
19,Jl. Ir. Sutami,90243,-5.1017060,119.4580308
81,Jalan Dr. Ratulangi,90132,-5.1625583,119.4186881
29,Jln. Botolempangan,90113,-5.1412333,119.4120023
321,Jalan Veteran Selatan,90135,-5.1600065,119.4226891
48,Jalan Jalahong Dg. Mattutu,90143,-5.1439319,119.4288907
217B,Jalan Yos Sudarso,90161,-5.1181010,119.4170115
140,Jalan Sudiang Raya,90242,-5.1039107,119.5355944
436,BTP Blok L,90245,-5.1368070,119.5045266
46,"Jalan S. Saddang Baru, Ballaparang",90232,-5.1483563,119.4304788
112-114,JL. GUNUNG BAWAKARAENG,90145,-5.1353740,119.4196446
KM. 8,Komplek Hartako Permai Blok A No. 8,90245,-5.1427906,119.4802470
269,Jalan Urip Sumohardjo,90231,-5.1390811,119.4532051
269,Jalan Urip Sumohardjo,90231,-5.1430198,119.4586786
53,Jl. Lombok,90174,-5.1276114,119.4099344
91,"Jalan Sungai Pareman, Lariang Bangi",90145,-5.1391813,119.4198150
49,JL. GUNUNG MERAPI,90114,-5.1380228,119.4171723
46,"Jalan Sungai Pareman, Lajangiru",90145,-5.1395282,119.4198855
2,Jl. Satelit Raya,90241,-5.1307834,119.5114860
6,Jln. Lanraki,90241,-5.1227033,119.5099677
26,Jl. Regenci Barat,90241,-5.1305614,119.5118555
3,Jl. Satelit Raya,90241,-5.1308753,119.5115378
1,Jl. Satelit Raya,90241,-5.1306755,119.5114087
24,Jl. Regenci Barat,90241,-5.1304479,119.5117646
9,Jalan Buakana VI,90222,-5.1567212,119.4339964
1,Jl. Sabutung Baru,90163,-5.1100976,119.4290054
53,Jalan Sepakat,90232,-5.1420508,119.4362877
42B,Jalan Onta Baru,90235,-5.1560875,119.4197579
2,Jalan Ujung Pandang,90221,-5.1345696,119.4057161
2,Jalan Ujung Pandang,90221,-5.1335316,119.4053442
120A,Jalan S. Saddang Lama,90141,-5.1469796,119.4247261
RUKO ROYAL A3,Jl. Topaz Raya,90231,-5.1539646,119.4385185
06,Jalan Bontoramba Lr.04,90245,-5.1284021,119.5016963
08,Jalan Bontoramba Lr.04,90245,-5.1284900,119.5015595
04,Jalan Bontoramba Lr.04,90245,-5.1282657,119.5018589
02,Jalan Bontoramba Lr.04,90245,-5.1281691,119.5019679
33,Jalan Kapasa Raya,90232,-5.0956254,119.4916290
km13,Jl. Perintis Kemerdekaan,90243,-5.1209747,119.5077358
23,Toddopuli 7,90233,-5.1650919,119.4545107
5,Jl. Mediterranean Permai,90225,-5.1813547,119.3986280
AE 5,Puri Asri Raya,90245,-5.1429843,119.4743773
250,Jalan Veteran Utara,90144,-5.1446653,119.4251122
255,"Jalan Veteran Utara, Maradekaya Utara",90142,-5.1448465,119.4251351
259,"Jalan Veteran Utara, Maradekaya Selatan",90142,-5.1449807,119.4251575
No. 66,Jalan Bitoa Lama,90234,-5.1662636,119.4691512
18,jl. gotong royong,92300,-5.1450924,119.4368595
A3/5,Jl. Mapala,90222,-5.1688202,119.4405780
BG 89,Jln. Al Ghazaly,90245,-5.1421214,119.4978509
A47,Komp. Azalea,90231,-5.1542300,119.4563166
4,"Jalan Bukit Batu, Lorong 15",90234,-5.1524990,119.4847346
9,jl. Borong raya baru 4,90233,-5.1613240,119.4649379
58,Jalan Andi Djemma,90222,-5.1648124,119.4265895
A1 no 3,jln kompleks perumahan minasa upa,90222,-5.1846866,119.4511021
A3/1,jl. bendungan bili-bili 1,90222,-5.1791131,119.4477228
62,Jl. Ir. Sutami,90243,-5.0935747,119.4668858
62,Jln. Lanraki,90241,-5.1238993,119.5102245
22,Jl. Ir. Sutami,90241,-5.1031488,119.4584365
17,"Jl. Mappanyuki No.17, Mario, Mariso, Kota Makassar, Sulawesi Selatan",90230,-5.1586109,119.4141639
No. 79,Jalan Andi Mappanyukki,90154,-5.1550098,119.4153586
5,Jln. Tinumbu I,90154,-5.1254909,119.4205580
64,Jalan Malengkeri,902221,-5.1879419,119.4381798
blok L no. 323,Jl. Tamalanrea Selatan XI,90245,-5.1351350,119.5046299
249,Jalan Sultan Alauddin,90222,-5.1848996,119.4409823
i,Komp. Mangasa Permai,90222,-5.1781105,119.4428966
2,"Jl. Andi Pangeran Pettarani II, Masale, Panakkukang, Kota Makassar, Sulawesi Selatan",90231,-5.1520586,119.4369938
3B,Biring Romang Dalam X/3B,90235,-5.1704728,119.4864028
23,"Jalan Adiyaksa, Masale, Kec. Panakkukang",90231,-5.1607477,119.4459260
40-42,Jalan Andi Mappanyukki,90113,-5.1513690,119.4143720
34B,Jalan Mamoa Raya,90245,-5.1817877,119.4325663
269,Jalan Urip Sumohardjo,90231,-5.1410259,119.4525031
1 Y No.16,hartaco indah 1Y NO.16,90225,-5.1869577,119.4153029
1,"No.Road, Jl. Ujung Pandang, Bulo Gading, Ujung Pandang, Kota Makassar, Sulawesi Selatan",90171,-5.1339430,119.4053643
349,Jalan Veteran Selatan,90135,-5.1611922,119.4222314
7,Jalan Toddopuli Raya Timur,90231,-5.1628043,119.4576287
269,Jalan Urip Sumohardjo,90231,-5.1398656,119.4461070
7A,Jalan Toddopuli Raya Timur,90233,-5.1616192,119.4589811
7A,Jalan Toddopuli Raya Timur,90233,-5.1617496,119.4590520
154,Jalan Perintis Kemerdekaan,90245,-5.1278376,119.5013035
7,Jl. Ilma Green Residence,90231,-5.1619693,119.4578485
269,Masjid Baiturrahman,90231,-5.1416649,119.4540089
269,Jl. Universitas Muslim Indonesia,90231,-5.1391383,119.4482557
249,Jalan Sultan Alauddin,90222,-5.1850101,119.4413441
269,Jalan Urip Sumohardjo,90231,-5.1408546,119.4516171
570,kesejahteraan timur 18,90245,-5.1332740,119.5119528
74D,Toddopuli 22,90231,-5.1640703,119.4579450
02,Jalan Bontoramba Lr.06,90245,-5.1284685,119.5021926
02b,Jalan Bontoramba Lr.06,90245,-5.1285168,119.5020794
1,Jl. Soekarno Hatta,90173,-5.1222625,119.4078076
02a,Jalan Bontoramba Lr.06,90245,-5.1284180,119.5022681
blok B no 6,bukit cahaya manggala,90234,-5.1691484,119.5054109
blok b no 6,jalan perum bukit cahaya manggala,90234,-5.1691865,119.5054516
blok b no 6,jalan perum bukit cahaya manggala,90234,-5.1691102,119.5053707
blok b no 4,jalan perum bukit cahaya manggala,90234,-5.1690713,119.5053283
blok b no 3,jalan perum bukit cahaya manggala,90234,-5.1690327,119.5052845
blok b no 2,jalan perum bukit cahaya manggala,90234,-5.1689950,119.5052457
blok b no 1,jalan perum bukit cahaya manggala,90234,-5.1689605,119.5052118
no 89,jalan terompet 4,90234,-5.1726186,119.5089387
blok b no 2,jalan perum bukit cahaya manggala,90234,-5.1690862,119.5051101
blok b no 2,jalan perum bukit cahaya manggala,90234,-5.1691302,119.5051546
blok b no 2,jalan perum bukit cahaya manggala,90234,-5.1691760,119.5051998
blok b no 2,jalan perum bukit cahaya manggala,90234,-5.1692157,119.5052438
blok b no 2,jalan perum bukit cahaya manggala,90234,-5.1692576,119.5052884
blok b no 2,jalan perum bukit cahaya manggala,90234,-5.1692870,119.5053494
blok b no 2,jalan perum bukit cahaya manggala,90234,-5.1690546,119.5050743
290,Jalan Veteran Utara,90141,-5.1410402,119.4237187
46,Jalan Sultan Alauddin 2 Lorong 1,90221,-5.1792331,119.4376944
105,Jalan Pongtiku,90152,-5.1311417,119.4300080
