House number,Street name,Postal code,Latitude,Longitude
11,شارع عوف,34724,31.2060014,31.6354175
9,شارع عوف,34724,31.2059560,31.6353632
7,شارع صلاح سالم,34724,31.2052552,31.6355073
1,شارع شالوه,34724,31.2049535,31.6347429
9,شارع مجدي الزينى,34724,31.2065560,31.6347067
11,شارع المكاوي,34724,31.2065800,31.6339838
9,شارع المكاوي,34724,31.2065181,31.6339879
13,شارع المكاوي,34724,31.2066936,31.6339785
16,شارع ندا,34724,31.2071111,31.6333991
12L,شارع ندا,34724,31.2069230,31.6334058
10,شارع ندا,34724,31.2068083,31.6333683
8,شارع ندا,34724,31.2066707,31.6333321
19,شارع ندا,34724,31.2070056,31.6335265
17,شارع ندا,34724,31.2069597,31.6335171
15,شارع ندا,34724,31.2068932,31.6335104
7,شارع ندا,34724,31.2065973,31.6334407
4,حارة الكارتة,34724,31.2066649,31.6328828
24,شارع 6,34724,31.2066379,31.6355790
21,شارع المكاوي,34724,31.2070003,31.6340433
6,حارة الكارتة,34724,31.2067309,31.6329194
2,شارع صلاح ابو سليم,34724,31.2052451,31.6346459
2,شارع مجدي الزينى,34724,31.2069489,31.6349690
4,شارع صلاح سالم,34724,31.2048894,31.6348823
18,شارع المكاوي,34724,31.2068154,31.6338510
14,حارة الكارتة,34724,31.2069342,31.6330790
21,شارع 6,34724,31.2065637,31.6357016
14,شارع الدسوقي مجيد,34724,31.2066506,31.6335467
25,شارع المكاوي,34724,31.2071304,31.6340798
2,شارع نوفل,34724,31.2059640,31.6340252
38R,شارع داير الناحيه,34724,31.2061809,31.6356614
10,شارع المكاوي,34724,31.2065092,31.6338311
16,شارع المكاوي,34724,31.2067151,31.6338316
4,حارة مشعل,34724,31.2069589,31.6329021
16,شارع 7,34724,31.2060717,31.6350401
2,حارة عيد,34724,31.2062068,31.6337774
2,شارع 26,34724,31.2059815,31.6344551
8,شارع صلاح ابو سليم,34724,31.2053095,31.6347880
14,شارع 7,34724,31.2060154,31.6349695
18,شارع 6,34724,31.2064099,31.6355119
1,شارع ابو سليم,34724,31.2052792,31.6344892
5,شارع شالوه,34724,31.2050296,31.6348987
14,شارع شالوه,34724,31.2051831,31.6352130
11,شارع 8,34724,31.2063743,31.6358199
3,شارع ندا,34724,31.2063699,31.6333630
1,شارع 12,34724,31.2056374,31.6345154
17,شارع الدسوقي مجيد,34724,31.2067708,31.6337117
37,شارع داير الناحيه,34724,31.2061452,31.6336670
22,شارع الدسوقي مجيد,34724,31.2068910,31.6336002
18,شارع 7,34724,31.2061159,31.6350919
30,شارع داير الناحيه,34724,31.2060297,31.6360193
11,شارع البخاري,34724,31.2050979,31.6345832
3,حارة الكارتة,34724,31.2065641,31.6329064
7,زقاق فتوح,34724,31.2057906,31.6341386
9,شارع ابو سليم,34724,31.2054441,31.6345533
7,شارع 7,34724,31.2062976,31.6357750
4,شارع 10,34724,31.2057826,31.6342697
8,شارع الكارتة,34724,31.2066743,31.6330374
23,شارع المكاوي,34724,31.2070566,31.6340662
6,شارع شالوه,34724,31.2051269,31.6348142
2,حارة مشعل,34724,31.2070489,31.6329057
15,شارع ابو سليم,34724,31.2055604,31.6351347
14,شارع 26,34724,31.2055327,31.6347816
3,شارع نوفل,34724,31.2063304,31.6346603
1,شارع 7,34724,31.2062898,31.6351108
2,شارع شالوه,34724,31.2050420,31.6346347
7,شارع مجدي الزينى,34724,31.2066469,31.6347350
6,شارع الدسوقي مجيد,34724,31.2063922,31.6334885
6,شارع الكارتة,34724,31.2066075,31.6330145
5,شارع 12,34724,31.2055065,31.6344789
11,شارع شالوه,34724,31.2051490,31.6351432
7R,شارع 10,34724,31.2057880,31.6345029
5,شارع صلاح سالم,34724,31.2050930,31.6353314
16,حارة الكارتة,34724,31.2070267,31.6330397
13,شارع ندا,34724,31.2067816,31.6334865
4,حارة عيد,34724,31.2062150,31.6336818
6,شارع صلاح ابو سليم,34724,31.2052736,31.6347087
12,شارع الدسوقي مجيد,34724,31.2065877,31.6335330
23,شارع نوفل,34724,31.2059564,31.6342440
10,شارع مجدي الزينى,34724,31.2065336,31.6348758
5,شارع ابو سليم,34724,31.2053532,31.6346644
3,شارع 10,34724,31.2056944,31.6343415
4,شارع الدسوقي مجيد,34724,31.2063142,31.6334643
7,شارع المكاوي,34724,31.2064215,31.6339622
8,شارع صلاح سالم,34724,31.2050107,31.6350282
10,شارع صلاح ابو سليم,34724,31.2053467,31.6348700
7,شارع شالوه,34724,31.2050676,31.6349765
17L,شارع داير الناحيه,34724,31.2064231,31.6347604
11,شارع الدسوقي مجيد,34724,31.2065899,31.6336721
6,شارع ندا,34724,31.2065717,31.6332970
5,شارع عوف,34724,31.2058284,31.6352439
26,شارع 6,34724,31.2067190,31.6356099
6,شارع صلاح سالم,34724,31.2049550,31.6349616
3,شارع 12,34724,31.2054779,31.6344130
7,شارع الدسوقي مجيد,34724,31.2064600,31.6336313
20,شارع هندام,34724,31.2053738,31.6353758
5,شارع ندا,34724,31.2064717,31.6333999
9,شارع ندا,34724,31.2066608,31.6334545
5,شارع 10,34724,31.2057546,31.6344355
11,شارع 7,34724,31.2061854,31.6349724
4,شارع عوف,34724,31.2058226,31.6350986
14,شارع هندام,34724,31.2054228,31.6352917
26,شارع الدسوقي مجيد,34724,31.2070938,31.6336288
8,شارع شالوه,34724,31.2051687,31.6349128
4,زقاق ابو سليم,34724,31.2056359,31.6353669
55R,شارع داير الناحيه,34724,31.2065653,31.6327669
3,شارع الدسوقي مجيد,34724,31.2062945,31.6335969
2,شارع هندام,34724,31.2068007,31.6355321
29,شارع داير الناحيه,34724,31.2059319,31.6357541
6,شارع مجدي الزينى,34724,31.2067364,31.6349204
7,حارة الكارتة,34724,31.2066948,31.6329819
8L,شارع ابو سليم,34724,31.2054727,31.6346223
17,شارع المكاوي,34724,31.2068322,31.6339991
12,شارع المكاوي,34724,31.2065660,31.6338402
67,شارع هندام,34724,31.2056605,31.6351829
15,شارع 8,34724,31.2064366,31.6356625
19,شارع الدسوقي مجيد,34724,31.2068646,31.6337314
16,شارع الدسوقي مجيد,34724,31.2067227,31.6335631
22,شارع المكاوي,34724,31.2069957,31.6338868
19,شارع 25,34724,31.2060005,31.6351542
12,حارة الكارتة,34724,31.2069681,31.6329727
8,حارة الكارتة,34724,31.2067773,31.6329354
19,شارع النهضة,34724,31.2071235,31.6331967
5,شارع صلاح ابو سليم,34724,31.2051431,31.6346831
12,شارع نوفل,34724,31.2061790,31.6344075
16,شارع صلاح ابو سليم,34724,31.2054453,31.6350875
10,حارة الكارتة,34724,31.2068537,31.6329572
12R,شارع ندا,34724,31.2070992,31.6335236
11,شارع ندا,34724,31.2067243,31.6334731
5,شارع الدسوقي مجيد,34724,31.2063848,31.6336179
40,شارع داير الناحيه,34724,31.2061258,31.6357900
2,شارع المكاوي,34724,31.2061398,31.6337718
18,شارع صلاح ابو سليم,34724,31.2054878,31.6351844
8,شارع 2,34724,31.2058671,31.6353756
3,شارع مجدي الزينى,34724,31.2068305,31.6347688
4,شارع 4,34724,31.2057336,31.6352514
16,شارع 6,34724,31.2063257,31.6354785
8,شارع الدسوقي مجيد,34724,31.2064663,31.6335083
15,شارع المكاوي,34724,31.2067613,31.6339874
7L,شارع 10,34724,31.2058240,31.6343713
1,حارة الكارتة,34724,31.2065043,31.6328645
22,شارع 6,34724,31.2065661,31.6355567
13,شارع الدسوقي مجيد,34724,31.2066443,31.6336838
2,شارع الكارتة,34724,31.2064639,31.6329504
14,شارع المكاوي,34724,31.2066446,31.6338175
12,شارع 26,34724,31.2056056,31.6347395
21,شارع الدسوقي مجيد,34724,31.2069700,31.6337493
4,شارع شالوه,34724,31.2050863,31.6347372
24,شارع المكاوي,34724,31.2071269,31.6339124
5,شارع المكاوي,34724,31.2063790,31.6339559
21,شارع النهضة,34724,31.2071345,31.6332657
12,شارع صلاح ابو سليم,34724,31.2053769,31.6349365
8,شارع مجدي الزينى,34724,31.2066354,31.6348983
21,شارع ندا,34724,31.2071775,31.6335168
2,زقاق فتوح,34724,31.2056089,31.6343932
9,شارع شالوه,34724,31.2051075,31.6350582
4,شارع الكارتة,34724,31.2065295,31.6329832
1,حارة عيد,34724,31.2063197,31.6338000
8R,شارع ابو سليم,34724,31.2053868,31.6347453
14,شارع صلاح ابو سليم,34724,31.2054108,31.6350112
36,شارع داير الناحيه,34724,31.2062224,31.6355625
3,حارة مشعل,34724,31.2068643,31.6327117
7,شارع 7,34724,31.2061193,31.6348851
20,شارع المكاوي,34724,31.2069155,31.6338710
13,شارع 8,34724,31.2064083,31.6357342
4,شارع ندا,34724,31.2064456,31.6332486
35,شارع داير الناحيه,34724,31.2061594,31.6353226
9,شارع صلاح ابو سليم,34724,31.2052159,31.6348287
2,شارع الدسوقي مجيد,34724,31.2062303,31.6334352
38,شارع صلاح سالم,34724,31.2061570,31.6361246
12,شارع 13,34724,31.2055678,31.6348604
10,شارع نوفل,34724,31.2061301,31.6343270
20,شارع الدسوقي مجيد,34724,31.2068322,31.6335874
3,شارع شالوه,34724,31.2049975,31.6348331
45,شارع داير الناحيه,34724,31.2062736,31.6333285
9,شارع الدسوقي مجيد,34724,31.2065267,31.6336436
7,شارع 12,34724,31.2056700,31.6345855
19,شارع المكاوي,34724,31.2069347,31.6340115
4,شارع مجدي الزينى,34724,31.2068363,31.6349420
18,شارع الدسوقي مجيد,34724,31.2067798,31.6335757
23,شارع الدسوقي مجيد,34724,31.2070728,31.6337668
2,شارع ندا,34724,31.2063547,31.6332059
42,شارع داير الناحيه,34724,31.2060856,31.6358836
11,شارع هندام,34724,31.2058282,31.6349735
1,شارع صلاح سالم,34724,31.2047142,31.6349387
14,شارع ندا,34724,31.2070490,31.6333807
3,حارة عيد,34724,31.2063278,31.6337110
24,شارع هندام,34724,31.2055501,31.6355036
8,شارع المكاوي,34724,31.2064234,31.6338160
7,شارع عوف,34724,31.2059112,31.6353202
3,شارع عوف,34724,31.2057740,31.6351938
3,شارع صلاح سالم,34724,31.2048749,31.6351014
8,شارع 4,34724,31.2057856,31.6352997
24,شارع الدسوقي مجيد,34724,31.2069777,31.6336119
5,حارة الكارتة,34724,31.2066316,31.6329511
10,شارع 2,34724,31.2059531,31.6354589
1,شارع عوف,34724,31.2057025,31.6351274
1,شارع مجدي الزينى,34724,31.2069527,31.6347949
10,شارع الدسوقي مجيد,34724,31.2065420,31.6335238
20,شارع 6,34724,31.2064981,31.6355362
9,شارع داير الناحيه,34724,31.2062438,31.6343411
28,شارع الدسوقي مجيد,34724,31.2071724,31.6336294
15,شارع الدسوقي مجيد,34724,31.2067051,31.6336973
5,شارع مجدي الزينى,34724,31.2067404,31.6347498
3,شارع النهضة,34724,31.2070228,31.6328164
9,شارع النهضة,34724,31.2070062,31.6327474
7,شارع النهضة,34724,31.2069890,31.6326857
5,شارع النهضة,34724,31.2069563,31.6326253
2,حارة المندوب,34724,31.2069173,31.6325757
4,حارة المندوب,34724,31.2068668,31.6326226
6,حارة المندوب,34724,31.2068152,31.6326655
8,حارة المندوب,34724,31.2067624,31.6327125
10,حارة المندوب,34724,31.2067315,31.6327514
12,حارة المندوب,34724,31.2066879,31.6327970
14,شارع على بن ابى طالب,34724,31.2098499,31.6383582
20,شارع على بن ابى طالب,34724,31.2095945,31.6381386
18,شارع على بن ابى طالب,34724,31.2097087,31.6382368
16,شارع على بن ابى طالب,34724,31.2097918,31.6383082
3,شارع على مبارك,34724,31.2097046,31.6379508
11,شارع عمر بن عبد العزيز,34724,31.2104455,31.6373849
48`,شارع خالد بن الوليد,34724,31.2101115,31.6362230
4,شارع مسجد الرضا,34724,31.2111378,31.6355566
14,شارع عمر بن عبد العزيز,34724,31.2100223,31.6367894
12,شارع عمر بن عبد العزيز,34724,31.2099680,31.6367434
21,شارع عمر مكرم,34724,31.2103859,31.6361953
19,شارع عمر مكرم,34724,31.2103261,31.6361416
17,شارع عمر مكرم,34724,31.2102611,31.6360832
10`,شارع مسجد الرضا,34724,31.2106432,31.6351285
2,شارع عمر مكرم,34724,31.2096633,31.6352981
1,شارع عمر مكرم,34724,31.2095474,31.6354752
18,شارع جمال الدين الافغانى,34724,31.2099087,31.6344948
16,شارع جمال الدين الافغانى,34724,31.2098388,31.6345994
14,شارع جمال الدين الافغانى,34724,31.2097539,31.6347188
15,شارع الثورة,34724,31.2095440,31.6347375
13,شارع الثورة,34724,31.2094430,31.6349146
14,شارع عمر بن الخطاب,34724,31.2079473,31.6367237
10,شارع عمر بن الخطاب,34724,31.2077283,31.6365294
21,شارع ابى بكر الصديق,34724,31.2076491,31.6372508
10,شارع 58,34724,31.2086516,31.6345525
8,شارع 58,34724,31.2086470,31.6344358
22L,شارع المليجي,34724,31.2096631,31.6336531
10,شارع جمعه,34724,31.2094878,31.6332529
1,شارع جمعه,34724,31.2093335,31.6332912
39,شارع 9,34724,31.2085759,31.6328225
41,شارع 9,34724,31.2085369,31.6328694
43,شارع 9,34724,31.2085185,31.6329606
45,شارع 9,34724,31.2085025,31.6330491
2L,شارع 21,34724,31.2093834,31.6328359
9,شارع الغندور,34724,31.2098904,31.6325757
13,حارة ابو موسى,34724,31.2085243,31.6327541
9,حارة ابو موسى,34724,31.2083568,31.6328359
39,شارع الملاحى,34724,31.2077764,31.6330196
3,شارع 76,34724,31.2076852,31.6326769
11,شارع حبيب,34724,31.2077432,31.6332489
9,شارع حبيب,34724,31.2076494,31.6332471
7,شارع حبيب,34724,31.2075587,31.6332453
3,شارع حبيب,34724,31.2074002,31.6332421
42,شارع ابو سريه,34724,31.2077581,31.6325757
40,شارع ابو سريه,34724,31.2076881,31.6325636
22,شارع الملاحى,34724,31.2078486,31.6323406
18,شارع الملاحى,34724,31.2078430,31.6321465
22,شارع خالد مصطفى,34724,31.2052781,31.6326132
6`,شارع خالد مصطفى,34724,31.2057004,31.6335294
2,شارع خالد مصطفى,34724,31.2058712,31.6338913
4,شارع خالد مصطفى,34724,31.2058335,31.6338115
6,شارع خالد مصطفى,34724,31.2057843,31.6337073
20,شارع خالد مصطفى,34724,31.2053309,31.6327460
18,شارع خالد مصطفى,34724,31.2053839,31.6328583
16,شارع خالد مصطفى,34724,31.2054316,31.6329596
12,شارع خالد مصطفى,34724,31.2055397,31.6331886
10,شارع خالد مصطفى,34724,31.2056027,31.6333222
31,شارع المنير,34724,31.2063541,31.6304633
29,شارع المنير,34724,31.2063926,31.6305274
10,شارع 3,34724,31.2068714,31.6309100
12,شارع 3,34724,31.2068938,31.6309763
14,شارع 3,34724,31.2069163,31.6310427
32,شارع السعداوى,34724,31.2074335,31.6308564
2,شارع الباجور,34724,31.2067085,31.6303588
4,شارع الباجور,34724,31.2067360,31.6303280
7,شارع خالد مصطفى,34724,31.2058050,31.6333868
5,شارع خالد مصطفى,34724,31.2058557,31.6334989
3,شارع خالد مصطفى,34724,31.2059232,31.6336484
29,شارع طارق بن زياد,34724,31.2099555,31.6393198
11,شارع محمد سعيد,34724,31.2054995,31.6334534
2,عطفه الشماع,34724,31.2096025,31.6323053
3,شارع محمد سعيد,34724,31.2057123,31.6338790
47,شارع صلاح سالم,34724,31.2086977,31.6385821
7,شارع مسجد الرضا,34724,31.2112739,31.6359355
3,شارع الجامع الكبير,34724,31.2079011,31.6324301
14,شارع طارق بن زياد,34724,31.2094757,31.6385308
3,شارع جمعه,34724,31.2094013,31.6333261
4,حارة الحصرى,34724,31.2076469,31.6323137
10,شارع احمد عرابى,34724,31.2081006,31.6361333
13,شارع ابو موسى,34724,31.2081069,31.6327857
3,طريق كفر المياسره,34724,31.2098503,31.6320197
11,زقاق ابو موسى,34724,31.2079243,31.6329257
30,شارع 6,34724,31.2090765,31.6338724
4,شارع 25,34724,31.2068105,31.6321485
14,شارع الملاحى,34724,31.2078445,31.6320113
4L,شارع جمعه,34724,31.2093475,31.6331913
19,شارع 20,34724,31.2090415,31.6322922
39,شارع داير الناحيه,34724,31.2078100,31.6315039
5,شارع 76,34724,31.2076816,31.6327449
16,شارع داير الناحيه,34724,31.2070233,31.6316432
28,شارع الملاحى,34724,31.2078963,31.6330531
14,شارع عمر مكرم,34724,31.2103269,31.6358868
9,شارع المصري,34724,31.2078339,31.6338300
6,شارع غانم,34724,31.2079981,31.6318594
3,شارع على بن ابى طالب,34724,31.2089271,31.6378333
23,شارع 26,34724,31.2049272,31.6327971
25,شارع ابو سريه,34724,31.2074610,31.6325182
15,شارع خلف المسجد,34724,31.2076709,31.6343533
13,شارع عمر مكرم,34724,31.2101034,31.6359415
21,شارع الشماع,34724,31.2097947,31.6326226
36,شارع المليجي,34724,31.2094576,31.6342637
9,زقاق ابو موسى,34724,31.2079238,31.6328308
17,شارع داوود,34724,31.2104141,31.6357302
16,شارع البساطي,34724,31.2062492,31.6320743
7,حارة الجلودى,34724,31.2061933,31.6307293
6,شارع 3,34724,31.2065347,31.6305067
11R,شارع الشماع,34724,31.2096149,31.6325477
1,شارع الجزارين,34724,31.2092470,31.6331870
25,شارع محمد سعيد,34724,31.2051558,31.6327663
1,شارع احمد عرابى,34724,31.2074845,31.6347376
46,شارع خالد بن الوليد,34724,31.2099238,31.6360604
1,شارع 1,34724,31.2069035,31.6298463
87,شارع صلاح سالم,34724,31.2097563,31.6393713
12,شارع النهضة,34724,31.2070882,31.6326528
13,شارع خلف المسجد,34724,31.2076711,31.6342788
9,شارع طارق بن زياد,34724,31.2088657,31.6382607
6,شارع النجار,34724,31.2080879,31.6309913
6,شارع طارق بن زياد,34724,31.2089695,31.6381064
4,حارة الفلكي,34724,31.2079955,31.6322636
9,شارع المركز,34724,31.2093799,31.6371790
11,شارع مسجد الرضا,34724,31.2114385,31.6360718
14,حارة ابو الدهب,34724,31.2066275,31.6313131
24,شارع عمر افندى,34724,31.2098658,31.6387426
1,شارع مسجد الرضا,34724,31.2109189,31.6356416
23,شارع داير الناحيه,34724,31.2072134,31.6316642
2,شارع 58,34724,31.2086091,31.6339890
10,شارع الجلودى,34724,31.2063769,31.6312559
25,شارع الثورة,34724,31.2101963,31.6341277
3,شارع جمال الدين الافغانى,34724,31.2094487,31.6356153
9,شارع الشماع,34724,31.2095229,31.6325094
5,شارع 43,34724,31.2068289,31.6317934
13,شارع الباجور,34724,31.2070290,31.6302159
13,شارع 20,34724,31.2091661,31.6320359
49L,شارع صلاح سالم,34724,31.2108316,31.6405860
1,شارع شتية,34724,31.2079950,31.6332418
4,شارع البوسطة القديمة,34724,31.2093961,31.6315319
2,شارع بليطة,34724,31.2097913,31.6331421
11,شارع 19,34724,31.2094205,31.6321320
20`,شارع على بن ابى طالب,34724,31.2103898,31.6388114
27,شارع طارق بن زياد,34724,31.2098521,31.6392175
5,شارع الجامع الكبير,34724,31.2079620,31.6324318
4,شارع 9,34724,31.2089433,31.6335089
8,حارة شتية,34724,31.2081172,31.6331963
17,شارع ابى بكر الصديق,34724,31.2074021,31.6370490
1,شارع محمد سعيد,34724,31.2057572,31.6339686
3,شارع 58,34724,31.2085199,31.6340884
19,شارع 21,34724,31.2092125,31.6334323
10,شارع الصاغه,34724,31.2082117,31.6311194
1,حارة المنصور,34724,31.2075008,31.6315660
4,حارة زيادة,34724,31.2085671,31.6325722
11,حارة ابو موسى,34724,31.2084440,31.6328068
14,شارع يعقوب,34724,31.2076812,31.6311036
9,شارع ابو سريه,34724,31.2070284,31.6323045
21,حارة شقرية,34724,31.2071940,31.6322273
2,شارع الصاغه,34724,31.2080809,31.6305816
15,شارع شقرية,34724,31.2071232,31.6321275
34,شارع المركز,34724,31.2108247,31.6379611
5,شارع مسجد الرضا,34724,31.2111339,31.6358196
44,شارع خالد بن الوليد,34724,31.2098364,31.6359847
10,شارع على بن ابى طالب,34724,31.2100011,31.6384881
3,شارع 25,34724,31.2067649,31.6320035
26,شارع شيخ البلد,34724,31.2085183,31.6345740
38,شارع عمر بن الخطاب,34724,31.2108177,31.6391431
6,شارع الملاحى,34724,31.2078672,31.6316760
3,شارع الصعيدى 2,34724,31.2067476,31.6304580
10,شارع على مبارك,34724,31.2093922,31.6374436
23,شارع محمد سعيد,34724,31.2052208,31.6328962
4,زقاق ابو موسى,34724,31.2080514,31.6326336
9,حارة شتية,34724,31.2082370,31.6333868
48,شارع خالد بن الوليد,34724,31.2100044,31.6361302
15,شارع الشماع,34724,31.2096796,31.6325746
22,شارع ابو سريه,34724,31.2074170,31.6324382
9,شارع الثورة,34724,31.2093097,31.6351560
7,شارع النجار,34724,31.2081789,31.6310564
17,شارع 20,34724,31.2090895,31.6321934
14`,شارع مسجد الرضا,34724,31.2108111,31.6352682
18,شارع 3,34724,31.2069579,31.6311659
28,شارع المصري,34724,31.2080174,31.6342769
8,شارع 42,34724,31.2065448,31.6312630
31,شارع طارق بن زياد,34724,31.2100496,31.6394128
21L,شارع داير الناحيه,34724,31.2073624,31.6314431
13,شارع مأمون الشناوى,34724,31.2107192,31.6349797
10`,شارع الجلودى,34724,31.2063536,31.6311956
9,شارع خالد مصطفى,34724,31.2057633,31.6332944
90,شارع صلاح سالم,34724,31.2099409,31.6395604
33,شارع الملاحى,34724,31.2077509,31.6326961
9,شارع بليطة,34724,31.2094623,31.6330040
17,شارع الدهشان,34724,31.2073248,31.6311934
17,شارع المركز,34724,31.2099444,31.6376471
8,شارع ابو سريه,34724,31.2070876,31.6323197
11,شارع 12,34724,31.2094442,31.6327272
18,شارع طارق بن زياد,34724,31.2096234,31.6386666
1R,شارع الجامع الكبير,34724,31.2078358,31.6324283
20,شارع ابو سريه,34724,31.2073252,31.6324269
24,شارع ابو موسى,34724,31.2082012,31.6332330
12,شارع مصطفى كامل,34724,31.2102113,31.6368983
59,طريق كفر المياسره,34724,31.2094922,31.6315181
23,شارع طارق بن زياد,34724,31.2096970,31.6390255
19,شارع الشماع,34724,31.2097567,31.6326067
9,شارع على بن ابى طالب,34724,31.2094988,31.6383048
25,حارة غنيمه,34724,31.2080372,31.6320644
12,شارع جمال الدين الافغانى,34724,31.2096950,31.6348370
36,شارع صلاح سالم,34724,31.2091490,31.6387767
6,حارة الفلكي,34724,31.2079993,31.6321925
11`,شارع على بن ابى طالب,34724,31.2100967,31.6388797
6,شارع 3,34724,31.2073083,31.6361446
4,شارع الغندور,34724,31.2096878,31.6329846
12,شارع ابو سريه,34724,31.2074435,31.6326275
17,شارع محمد سعيد,34724,31.2053945,31.6332434
16,شارع الملاحى,34724,31.2078433,31.6320718
16,شارع 3,34724,31.2075697,31.6357362
17,حارة شاهين,34724,31.2089071,31.6323591
23,شارع مصطفى كامل,34724,31.2107389,31.6360198
8,زقاق ابو موسى,34724,31.2079953,31.6327159
21,شارع خالد مصطفى,34724,31.2055135,31.6327413
10,شارع ابو سريه,34724,31.2071619,31.6323388
22,شارع 32,34724,31.2055901,31.6319113
2,شارع البساطي,34724,31.2064194,31.6327014
8,شارع مسجد الرضا,34724,31.2112559,31.6356485
48,شارع الثورة,34724,31.2102124,31.6337390
28,شارع 3,34724,31.2070753,31.6315215
1,شارع 77,34724,31.2075576,31.6326495
4,شارع عمر بن عبد العزيز,34724,31.2096845,31.6365032
15,شارع عمر مكرم,34724,31.2101891,31.6360185
6,شارع عمر مكرم,34724,31.2098318,31.6354358
6,شارع 20,34724,31.2094576,31.6318325
5,شارع 20,34724,31.2094142,31.6316527
1,حارة الجلودى,34724,31.2063384,31.6306287
7,شارع امين الوصيفي,34724,31.2044195,31.6335688
29,شارع على مبارك,34724,31.2114046,31.6393412
1,شارع 12,34724,31.2095857,31.6328547
5,شارع ابو موسى,34724,31.2081177,31.6325375
11,شارع مأمون الشناوى,34724,31.2106092,31.6348924
14,شارع البساطي,34724,31.2062740,31.6321624
11,شارع كيره,34724,31.2078378,31.6308934
24,شارع ابو سريه,34724,31.2074211,31.6325146
6,شارع جمال الدين الافغانى,34724,31.2094440,31.6352589
6,شارع الباجور,34724,31.2067923,31.6302714
35,شارع الملاحى,34724,31.2077571,31.6328143
15,شارع توما,34724,31.2085600,31.6333343
9R,شارع الجلودى,34724,31.2064368,31.6314109
33,شارع المنير,34724,31.2063090,31.6303881
4,شارع 19,34724,31.2096839,31.6319430
4,شارع وابور الطحين,34724,31.2063900,31.6303151
7,شارع المركز,34724,31.2091671,31.6370082
51,شارع 9,34724,31.2085211,31.6332462
16,شارع طارق بن زياد,34724,31.2095376,31.6385828
7,شارع الجامع الكبير,34724,31.2080284,31.6324336
27,شارع على بن ابى طالب,34724,31.2103051,31.6390499
21,شارع محمد سعيد,34724,31.2052929,31.6330404
2,حارة القطه,34724,31.2085994,31.6324563
8,عطفه الحماصى,34724,31.2091923,31.6337371
16,شارع 21,34724,31.2093133,31.6333634
7,شارع محمد سعيد,34724,31.2056059,31.6336661
23,حارة غنيمه,34724,31.2080366,31.6319766
2,شارع جمال الدين الافغانى,34724,31.2093008,31.6354999
9,شارع مسجد الرضا,34724,31.2113542,31.6360019
4,شارع 58,34724,31.2086143,31.6340810
20,شارع 36,34724,31.2052677,31.6317847
10,شارع المنير,34724,31.2066878,31.6313993
13,شارع 1,34724,31.2080586,31.6365528
6,شارع 75,34724,31.2077519,31.6324451
25,شارع 12,34724,31.2090645,31.6326808
6,شارع عمر بن عبد العزيز,34724,31.2097439,31.6365535
13,شارع زهران,34724,31.2099523,31.6335537
41,شارع داير الناحيه,34724,31.2078860,31.6315185
18,شارع القطه,34724,31.2087065,31.6322447
17,شارع المليجي,34724,31.2096860,31.6332729
2,حارة المنصور,34724,31.2076236,31.6314929
16,شارع 4,34724,31.2084560,31.6301828
25,شارع على مبارك,34724,31.2111851,31.6391637
5,زقاق ابو موسى,34724,31.2079300,31.6326262
3,شارع 20,34724,31.2094514,31.6315959
11,شارع جمعه,34724,31.2094654,31.6335434
34,شارع المليجي,34724,31.2094752,31.6341342
17,شارع 1,34724,31.2076227,31.6362407
69,طريق كفر المياسره,34724,31.2101161,31.6323242
6,شارع الصعيدى,34724,31.2065691,31.6308551
13,شارع خالد مصطفى,34724,31.2056811,31.6331124
4,شارع ابو موسى,34724,31.2082556,31.6324675
38,شارع 9,34724,31.2086635,31.6332749
4,شارع العوادلى,34724,31.2067913,31.6300017
4`,شارع النهضة,34724,31.2069863,31.6324457
47,شارع 9,34724,31.2085043,31.6331067
27,شارع المنير,34724,31.2064374,31.6306021
7,شارع سوق السمك,34724,31.2083297,31.6319365
19,شارع غانم,34724,31.2079179,31.6319638
12,شارع اكرم نوح,34724,31.2049773,31.6337304
21,شارع على مبارك,34724,31.2109390,31.6389718
10,شارع النهضة,34724,31.2070632,31.6325473
2,شارع 78,34724,31.2073980,31.6326179
9,شارع الخولى,34724,31.2070888,31.6305622
19,شارع خالد بن الوليد,34724,31.2097505,31.6362872
4,شارع جمال الدين الافغانى,34724,31.2093752,31.6353746
20,شارع المركز,34724,31.2099925,31.6372596
15,شارع سرحان,34724,31.2069816,31.6308873
10,شارع الاجدر,34724,31.2082269,31.6335882
20,شارع الجلودى,34724,31.2062328,31.6308174
33,شارع طارق بن زياد,34724,31.2101528,31.6395149
19,شارع محمد سعيد,34724,31.2053444,31.6331432
24,شارع المركز,34724,31.2101557,31.6373964
19,شارع داير الناحيه,34724,31.2070940,31.6317696
8,شارع الجلودى,34724,31.2064088,31.6313385
18,شارع 21,34724,31.2093053,31.6334258
11,شارع الجلودى,34724,31.2064492,31.6311643
4L,شارع 21,34724,31.2093747,31.6328967
5,شارع الشماع,34724,31.2093407,31.6324336
10,شارع داير الناحيه,34724,31.2069160,31.6318948
12,شارع الباجور,34724,31.2069690,31.6301158
6,شارع 58,34724,31.2086196,31.6341659
1,شارع 3,34724,31.2069163,31.6314024
4,شارع طارق بن زياد,34724,31.2088202,31.6379562
11,شارع على بن ابى طالب,34724,31.2095880,31.6383858
22,شارع المركز,34724,31.2100986,31.6373485
11,شارع زهران,34724,31.2100063,31.6337174
2,شارع الجامع الكبير,34724,31.2082214,31.6322710
27,شارع مسجد الرضا,34724,31.2107355,31.6354726
2,حارة شتية,34724,31.2078990,31.6331101
17R,شارع داير الناحيه,34724,31.2070494,31.6318284
10,شارع عمر بن عبد العزيز,34724,31.2098950,31.6366816
37,شارع 9,34724,31.2086478,31.6327775
12,شارع داير الناحيه,34724,31.2069399,31.6318061
6,شارع مسجد الرضا,34724,31.2111807,31.6355900
5,شارع حبيب,34724,31.2074911,31.6332439
2R,شارع ابو سريه,34724,31.2069109,31.6323690
17,شارع الجامع الكبير,34724,31.2083897,31.6323646
15,شارع على بن ابى طالب,34724,31.2097056,31.6384926
13,شارع الجزارين,34724,31.2089099,31.6333099
4,شارع 36,34724,31.2072328,31.6327943
38,شارع المنير,34724,31.2062227,31.6304190
6,شارع الصايغ,34724,31.2089209,31.6336815
12,شارع البساطي,34724,31.2062965,31.6322446
7,شارع الصايغ,34724,31.2088286,31.6338113
6,حارة شتية,34724,31.2080380,31.6331650
3,حارة شتية,34724,31.2083746,31.6331752
20,شارع الملاحى,34724,31.2078454,31.6322664
3,شارع المليجي,34724,31.2100311,31.6330158
29,شارع ابو سريه,34724,31.2076433,31.6326637
15,شارع 1,34724,31.2073012,31.6308091
8,شارع البساطي,34724,31.2063463,31.6324311
11,شارع عمر مكرم,34724,31.2100436,31.6358878
5,شارع 58,34724,31.2085232,31.6341588
20,شارع المنير,34724,31.2065387,31.6309957
25,شارع مصطفى كامل,34724,31.2108143,31.6358611
4,شارع ابو سريه,34724,31.2069749,31.6322908
8,شارع 87,34724,31.2088189,31.6316254
12,شارع الخولى,34724,31.2071527,31.6304111
36,شارع المركز,34724,31.2109273,31.6380459
3,شارع 8,34724,31.2074267,31.6341995
35,شارع طارق بن زياد,34724,31.2102758,31.6396364
25,شارع داير الناحيه,34724,31.2072727,31.6316307
5L,شارع احمد عرابى,34724,31.2078156,31.6344065
4`,شارع 35,34724,31.2084629,31.6342216
3,شارع شيخ البلد,34724,31.2087333,31.6348717
24,شارع المليجي,34724,31.2095873,31.6337885
1R,شارع العوادلى,34724,31.2066788,31.6299754
19,شارع داوود,34724,31.2105687,31.6358192
38,شارع الثورة,34724,31.2098064,31.6337826
25,شارع طارق بن زياد,34724,31.2090194,31.6383980
5R,شارع احمد عرابى,34724,31.2077084,31.6346382
6,شارع صقر,34724,31.2079556,31.6308190
33,شارع السعداوى,34724,31.2075207,31.6309192
6,شارع خالد بن الوليد,34724,31.2096417,31.6357710
15,شارع جمعه,34724,31.2095435,31.6333015
9,شارع الجزارين,34724,31.2089743,31.6331862
32,شارع المركز,34724,31.2107050,31.6378621
25,شارع 6,34724,31.2086969,31.6340052
26,شارع المليجي,34724,31.2095588,31.6338520
6`,شارع 58,34724,31.2086327,31.6342763
2,شارع طارق بن زياد,34724,31.2087130,31.6378483
15,شارع داير الناحيه,34724,31.2070207,31.6318755
15,شارع 20,34724,31.2091338,31.6321023
19,شارع المليجي,34724,31.2096478,31.6333288
21,شارع المركز,34724,31.2101724,31.6378334
8,شارع المنير,34724,31.2066049,31.6312368
3,شارع الغندور,34724,31.2098348,31.6327949
17,شارع ابو موسى,34724,31.2080497,31.6329388
12,شارع 20,34724,31.2092928,31.6320647
25,شارع عمر بن عبد العزيز,34724,31.2107586,31.6376594
11L,شارع الشماع,34724,31.2095665,31.6324002
81,طريق كفر المياسره,34724,31.2101383,31.6330170
26,شارع طارق بن زياد,34724,31.2099547,31.6390390
32R,شارع الثورة,34724,31.2091704,31.6353988
41,شارع على بن ابى طالب,34724,31.2109531,31.6396506
83,شارع صلاح سالم,34724,31.2095741,31.6392027
37,شارع 50,34724,31.2082998,31.6304809
34`,شارع على بن ابى طالب,34724,31.2112258,31.6396467
12,شارع مأمون الشناوى,34724,31.2107892,31.6347847
3`,شارع 8,34724,31.2074704,31.6342098
81,شارع صلاح سالم,34724,31.2093519,31.6389997
36,شارع المنير,34724,31.2062467,31.6304631
4,شارع 80,34724,31.2083295,31.6321175
3,شارع 32,34724,31.2055493,31.6318161
13,شارع 21,34724,31.2092141,31.6332686
12,شارع الملاحى,34724,31.2078472,31.6319370
19,شارع ابو موسى,34724,31.2080674,31.6330389
6,شارع 36,34724,31.2073066,31.6328040
14,شارع 51,34724,31.2083771,31.6310077
50,شارع خالد بن الوليد,34724,31.2101968,31.6362969
6,شارع البساطي,34724,31.2063735,31.6325286
11,شارع غانم,34724,31.2084233,31.6320236
32L,شارع الثورة,34724,31.2096676,31.6340197
43,شارع شريف,34724,31.2085147,31.6307296
1`,شارع جمعه,34724,31.2093965,31.6335895
16`,شارع على بن ابى طالب,34724,31.2101802,31.6386342
15,شارع ابو موسى,34724,31.2080765,31.6328621
20,شارع داير الناحيه,34724,31.2080461,31.6313475
27,شارع الملاحى,34724,31.2077459,31.6323809
8,شارع 41,34724,31.2067436,31.6308941
3,شارع ابو موسى,34724,31.2081171,31.6324763
12,شارع الشماع,34724,31.2097432,31.6324795
24,شارع الجلودى,34724,31.2061699,31.6306568
28,شارع المليجي,34724,31.2095383,31.6339040
8,شارع النهضة,34724,31.2070241,31.6324938
32,شارع 9,34724,31.2086439,31.6330838
33,شارع العوادلى,34724,31.2071856,31.6312255
4,شارع الجمهوريه,34724,31.2104386,31.6348612
6,شارع عمر بن الخطاب,34724,31.2072761,31.6361970
9,شارع سوق السمك,34724,31.2083485,31.6320361
11,شارع المركز,34724,31.2094919,31.6372688
8,شارع صقر,34724,31.2080040,31.6307908
23,شارع المركز,34724,31.2102285,31.6378792
12,شارع مسجد الرضا,34724,31.2114096,31.6357681
10,شارع طارق بن زياد,34724,31.2090248,31.6381621
36,شارع الثورة,34724,31.2097522,31.6338815
29,شارع عمر بن عبد العزيز,34724,31.2116659,31.6383913
28,شارع المركز,34724,31.2103205,31.6375344
16,شارع سرحان,34724,31.2070002,31.6307110
7,شارع 19,34724,31.2095362,31.6319201
13,شارع الشماع,34724,31.2096491,31.6325619
23,شارع على مبارك,34724,31.2110875,31.6390841
12,حارة شاهين,34724,31.2088438,31.6323094
12,شارع 48,34724,31.2073933,31.6305235
93,شارع صلاح سالم,34724,31.2100539,31.6396763
6,شارع ربيع صقر,34724,31.2068623,31.6303926
13,شارع امين الوصيفي,34724,31.2045502,31.6337856
1,شارع ابو موسى,34724,31.2081170,31.6324096
6,حارة الحصرى,34724,31.2075447,31.6323254
8,شارع 21,34724,31.2093556,31.6330308
15`,شارع داير الناحيه,34724,31.2069777,31.6320693
7,شارع المصري,34724,31.2077927,31.6336735
11,شارع ابو موسى,34724,31.2081253,31.6327041
27,شارع 12,34724,31.2089356,31.6327024
37,شارع الملاحى,34724,31.2077623,31.6329166
26`,شارع على بن ابى طالب,34724,31.2107744,31.6392400
15,شارع مأمون الشناوى,34724,31.2108006,31.6350427
38L,شارع داير الناحيه,34724,31.2081068,31.6313157
11,شارع بليطة,34724,31.2098379,31.6329825
9,شارع 51,34724,31.2083360,31.6309364
33,شارع على بن ابى طالب,34724,31.2106647,31.6393977
5,شارع على بن ابى طالب,34724,31.2090592,31.6379428
31,شارع على بن ابى طالب,34724,31.2105139,31.6392205
27,شارع داير الناحيه,34724,31.2073632,31.6315976
4,شارع 78,34724,31.2073884,31.6326979
1,شارع 8,34724,31.2073644,31.6341974
8,شارع اكرم نوح,34724,31.2050848,31.6339509
4,حارة شتية,34724,31.2079672,31.6331370
14,شارع مسجد الرضا,34724,31.2114740,31.6358182
89,شارع صلاح سالم,34724,31.2098508,31.6394682
8R,شارع عمر بن الخطاب,34724,31.2070205,31.6362918
30,شارع ابو سريه,34724,31.2075054,31.6324526
10,شارع مسجد الرضا,34724,31.2113228,31.6357005
1,شارع الصعيدى 2,34724,31.2068147,31.6305537
2,شارع جمعه,34724,31.2093092,31.6331744
14,شارع الشماع,34724,31.2098097,31.6325084
4,حارة ابو قوره,34724,31.2093000,31.6336683
3,شارع احمد عرابى,34724,31.2075956,31.6346577
7,شارع الجزارين,34724,31.2088845,31.6329791
4,شارع 1,34724,31.2068050,31.6299311
3,شارع عمر بن عبد العزيز,34724,31.2100872,31.6371004
23,شارع الملاحى,34724,31.2077473,31.6322947
21,شارع المليجي,34724,31.2096183,31.6333791
34,شارع السعداوى,34724,31.2075104,31.6308123
21,شارع غانم,34724,31.2079832,31.6319702
27,شارع على مبارك,34724,31.2112717,31.6392369
15,شارع الجامع الكبير,34724,31.2083303,31.6323862
9,شارع الوصيفي,34724,31.2046472,31.6340080
12,شارع الناغى,34724,31.2094606,31.6319994
9,شارع عمر بن عبد العزيز,34724,31.2103274,31.6372911
4,شارع الباز,34724,31.2087490,31.6329292
12,شارع عمر بن الخطاب,34724,31.2078152,31.6365990
2,زقاق ابو موسى,34724,31.2081256,31.6326289
2,شارع شيخ البلد,34724,31.2090972,31.6346745
12,شارع طارق بن زياد,34724,31.2091041,31.6382418
11,شارع على مبارك,34724,31.2100466,31.6382125
4,شارع شهاب,34724,31.2083755,31.6342411
5L,شارع وابور الطحين,34724,31.2067251,31.6300554
20,شارع العوادلى,34724,31.2071225,31.6306856
5,شارع اكرم نوح,34724,31.2052930,31.6340178
12,شارع على بن ابى طالب,34724,31.2099264,31.6384239
1,عطفه زغلول,34724,31.2079640,31.6309576
3,شارع سرحان,34724,31.2096918,31.6327135
1L,شارع الشماع,34724,31.2093424,31.6322855
58,شارع الجامع الكبير,34724,31.2091449,31.6313442
11,شارع امين الوصيفي,34724,31.2047850,31.6339089
12,شارع 50,34724,31.2087890,31.6311664
28,شارع طارق بن زياد,34724,31.2100646,31.6391026
6,شارع 9,34724,31.2090318,31.6334505
14,حارة ابو موسى,34724,31.2082114,31.6328426
19,شارع سرحان,34724,31.2070151,31.6310140
28,شارع 6,34724,31.2089888,31.6338687
4,شارع الصايغ,34724,31.2089290,31.6337956
5,شارع جمعه,34724,31.2094441,31.6333482
9,شارع الصاغه,34724,31.2083547,31.6311534
21R,شارع داير الناحيه,34724,31.2071354,31.6317261
10,شارع 21,34724,31.2093461,31.6330973
27,حارة شقرية,34724,31.2072805,31.6322649
9,شارع كيره,34724,31.2077357,31.6309367
8,شارع جمال الدين الافغانى,34724,31.2095128,31.6351432
5,شارع على مبارك,34724,31.2097992,31.6380232
2R,شارع 21,34724,31.2092808,31.6328205
3,شارع شقرية,34724,31.2070999,31.6319061
3,شارع بليطة,34724,31.2095614,31.6330056
12,شارع البوسطة القديمة,34724,31.2092392,31.6317849
79,طريق كفر المياسره,34724,31.2101631,31.6328951
37,شارع على بن ابى طالب,34724,31.2108470,31.6395576
1,شارع الجلودى,34724,31.2065944,31.6315307
5,حارة الفلكي,34724,31.2080595,31.6321818
20,شارع 3,34724,31.2078365,31.6353310
44,شارع الثورة,34724,31.2100319,31.6337811
10,زقاق ابو موسى,34724,31.2079945,31.6328480
4,شارع 26,34724,31.2054313,31.6340703
3,شارع خلف المسجد,34724,31.2077067,31.6339404
2,شارع عمر بن عبد العزيز,34724,31.2096084,31.6364387
5,شارع 8,34724,31.2075130,31.6342201
22,شارع 12,34724,31.2088495,31.6328442
35,شارع 50,34724,31.2082127,31.6305388
8,شارع المليجي,34724,31.2100750,31.6328679
17,شارع 21,34724,31.2092132,31.6333627
15,حارة شتية,34724,31.2083499,31.6334093
25,حارة شقرية,34724,31.2071755,31.6322893
3,شارع وابور الطحين,34724,31.2070212,31.6299440
9,شارع 6,34724,31.2085114,31.6339912
11,شارع الناغى,34724,31.2093542,31.6320980
19,شارع مأمون الشناوى,34724,31.2108935,31.6351203
7,شارع جمعه,34724,31.2094893,31.6333715
4`,شارع الباز,34724,31.2087599,31.6330016
13,شارع القطه,34724,31.2085147,31.6321024
9,شارع الجمهوريه,34724,31.2103444,31.6351675
2,شارع الصعيدى,34724,31.2067031,31.6307871
9,شارع شهاب,34724,31.2083014,31.6343303
39,شارع طارق بن زياد,34724,31.2105332,31.6398696
10,شارع البساطي,34724,31.2063213,31.6323351
31,شارع سرحان,34724,31.2070945,31.6313904
5,حارة شتية,34724,31.2083774,31.6331069
4,شارع 25,34724,31.2098011,31.6335573
6,شارع السعداوى,34724,31.2071771,31.6308927
4,عطفه حبيب,34724,31.2073373,31.6331058
4,شارع صقر,34724,31.2079028,31.6308541
8,شارع طه حسين,34724,31.2049981,31.6340524
12,شارع المصري,34724,31.2079410,31.6336602
6,شارع جمعه,34724,31.2093885,31.6332093
1L,شارع العوادلى,34724,31.2072624,31.6312313
16,شارع ابو سريه,34724,31.2072431,31.6324831
20,شارع 1,34724,31.2081474,31.6363848
18,شارع داير الناحيه,34724,31.2067908,31.6322268
4,شارع الصعيدى,34724,31.2066349,31.6308219
14,شارع خالد مصطفى,34724,31.2054825,31.6330674
16,شارع 3,34724,31.2069373,31.6311050
1,شارع الشماع,34724,31.2096632,31.6324443
49R,شارع صلاح سالم,34724,31.2088573,31.6387364
39,شارع على بن ابى طالب,34724,31.2109052,31.6396085
15,شارع محمد سعيد,34724,31.2054351,31.6333246
58,طريق كفر المياسره,34724,31.2101407,31.6332563
12`,شارع مسجد الرضا,34724,31.2107157,31.6351889
10,شارع طه حسين,34724,31.2049337,31.6339278
6,شارع 52,34724,31.2080849,31.6312113
13,شارع داير الناحيه,34724,31.2069843,31.6319523
13,شارع العوادلى,34724,31.2069483,31.6304284
27,شارع المركز,34724,31.2105117,31.6381306
8,شارع خلف المسجد,34724,31.2077447,31.6343798
1L,شارع الجامع الكبير,34724,31.2079866,31.6323293
23,حارة شقرية,34724,31.2071007,31.6322592
10,شارع المصري,34724,31.2079406,31.6335814
5,شارع عمر مكرم,34724,31.2097242,31.6356338
3,شارع مأمون الشناوى,34724,31.2099854,31.6343421
28,شارع على بن ابى طالب,34724,31.2109648,31.6394116
38,شارع 6,34724,31.2092832,31.6338631
8,شارع داير الناحيه,34724,31.2068649,31.6319781
21,شارع الجامع الكبير,34724,31.2085351,31.6323130
5,شارع عمر بن عبد العزيز,34724,31.2101899,31.6371819
8,شارع عمر بن عبد العزيز,34724,31.2098244,31.6366217
3,شارع مسجد الرضا,34724,31.2110309,31.6357344
1,شارع المنير,34724,31.2069814,31.6316942
27,شارع الثورة,34724,31.2097727,31.6343600
51,شارع صلاح سالم,34724,31.2090826,31.6389398
12`,شارع البساطي,34724,31.2061862,31.6318432
38,شارع ابو سريه,34724,31.2076440,31.6325544
13,شارع على بن ابى طالب,34724,31.2096655,31.6384562
27,شارع الجلودى,34724,31.2062203,31.6305613
20,شارع ابى بكر الصديق,34724,31.2076183,31.6369325
4,شارع النهضة,34724,31.2069275,31.6324176
15,شارع 21,34724,31.2092136,31.6333176
14,شارع الباجور,34724,31.2070669,31.6300150
17,شارع مسجد الرضا,34724,31.2117534,31.6363265
3,شارع الناغى,34724,31.2099768,31.6324503
31,شارع السعداوى,34724,31.2074412,31.6309487
7,شارع السعداوى,34724,31.2072259,31.6309760
17,شارع الشماع,34724,31.2097146,31.6325892
6,شارع المنير,34724,31.2068045,31.6316115
11,شارع خلف المسجد,34724,31.2076714,31.6342075
29,شارع المركز,34724,31.2106386,31.6382357
24,شارع شيخ البلد,34724,31.2082944,31.6346637
2,شارع الوصيفي,34724,31.2046133,31.6342436
49,شارع 9,34724,31.2085085,31.6331643
4,شارع سرحان,34724,31.2070683,31.6312754
38,شارع المركز,34724,31.2110476,31.6381454
2L,شارع ابو سريه,34724,31.2069298,31.6322792
14,شارع 3,34724,31.2074936,31.6358620
41,شارع طارق بن زياد,34724,31.2105898,31.6399393
17,شارع على مبارك,34724,31.2104429,31.6385418
17,شارع خالد مصطفى,34724,31.2056067,31.6329478
7,شارع عمر بن عبد العزيز,34724,31.2102650,31.6372416
5,شارع محمد سعيد,34724,31.2056641,31.6337825
1,شارع خالد مصطفى,34724,31.2059694,31.6337507
53,شارع صلاح سالم,34724,31.2092366,31.6391075
9,شارع 1,34724,31.2072042,31.6304898
35,شارع على بن ابى طالب,34724,31.2107592,31.6394805
13,شارع محمد سعيد,34724,31.2054671,31.6333886
55,شارع صلاح سالم,34724,31.2094030,31.6392586
8`,شارع مسجد الرضا,34724,31.2105579,31.6350576
14,شارع توما,34724,31.2083641,31.6332452
7,شارع الغندور,34724,31.2098701,31.6326556
6,شارع داير الناحيه,34724,31.2068410,31.6320535
22,شارع على بن ابى طالب,34724,31.2105590,31.6389544
25,شارع المركز,34724,31.2103144,31.6379495
2,شارع 19,34724,31.2097457,31.6318468
4,شارع الملاحى,34724,31.2078767,31.6315965
13,شارع المركز,34724,31.2096564,31.6374009
26,شارع على بن ابى طالب,34724,31.2106532,31.6390339
37,شارع طارق بن زياد,34724,31.2104234,31.6397748
12,شارع خالد بن الوليد,34724,31.2116018,31.6377819
3,حارة شاهين,34724,31.2088420,31.6325441
2,شارع 86,34724,31.2078361,31.6325130
25,شارع على بن ابى طالب,34724,31.2101863,31.6389529
5,شارع الغندور,34724,31.2098563,31.6327102
11,شارع احمد عرابى,34724,31.2077745,31.6358660
7,حارة ابو موسى,34724,31.2082836,31.6328446
13,شارع فوده,34724,31.2084129,31.6340625
16,شارع داوود,34724,31.2106084,31.6355870
6R,شارع 21,34724,31.2092491,31.6329615
7,زقاق ابو موسى,34724,31.2079232,31.6327313
3,شارع المنير,34724,31.2069194,31.6315910
4,شارع 87,34724,31.2088868,31.6316947
8,شارع جمعه,34724,31.2094340,31.6332293
9,شارع 21,34724,31.2092427,31.6330949
57,شارع صلاح سالم,34724,31.2097255,31.6395939
55L,شارع داير الناحيه,34724,31.2084729,31.6312783
4,شارع 77,34724,31.2076248,31.6327454
9,شارع عمر مكرم,34724,31.2099540,31.6358073
10,شارع 12,34724,31.2091620,31.6328177
1,شارع حبيب,34724,31.2073132,31.6332404
7,شارع على بن ابى طالب,34724,31.2091994,31.6380591
54,شارع خالد بن الوليد,34724,31.2104818,31.6364975
28,شارع ابو سريه,34724,31.2075194,31.6325299
2,شارع مسجد الرضا,34724,31.2109984,31.6354481
31,شارع على مبارك,34724,31.2115559,31.6394742
6,شارع 78,34724,31.2073874,31.6327700
11,شارع الثورة,34724,31.2093768,31.6350391
14,شارع النهضة,34724,31.2071281,31.6327675
19,شارع على مبارك,34724,31.2107389,31.6387584
15,شارع المركز,34724,31.2098395,31.6375613
5,شارع ابو شهاب,34724,31.2062782,31.6325998
2,شارع 42,34724,31.2067452,31.6311734
15,شارع 3,34724,31.2068856,31.6313213
7,شارع الشماع,34724,31.2094427,31.6324760
29,شارع العوادلى,34724,31.2071348,31.6310193
8,شارع الاجدر,34724,31.2081490,31.6336112
14,شارع مأمون الشناوى,34724,31.2109620,31.6349012
16,شارع الجمهوريه,34724,31.2100768,31.6350432
33,شارع المركز,34724,31.2108474,31.6384088
1,شارع الصعيدى,34724,31.2066556,31.6306928
3,شارع الشماع,34724,31.2092647,31.6324020
22,شارع المنير,34724,31.2064928,31.6309060
2,شارع احمد عرابى,34724,31.2074842,31.6352432
15,شارع داوود,34724,31.2103300,31.6356295
70,شارع صلاح سالم,34724,31.2089357,31.6385698
9,شارع فوده,34724,31.2080127,31.6342004
15,شارع الصعيدى 2,34724,31.2068395,31.6306401
43,شارع على بن ابى طالب,34724,31.2110495,31.6397350
34,شارع على بن ابى طالب,34724,31.2111444,31.6395734
13,شارع غانم,34724,31.2084881,31.6320253
9R,شارع 12,34724,31.2095385,31.6327611
50,شارع الثورة,34724,31.2102970,31.6337270
15,شارع امين الوصيفي,34724,31.2046600,31.6336848
8L,شارع عمر بن الخطاب,34724,31.2076021,31.6364282
19,شارع 50,34724,31.2089933,31.6315389
3,حارة الفلكي,34724,31.2081073,31.6322717
19,شارع الجامع الكبير,34724,31.2084531,31.6323420
12,شارع 21,34724,31.2091610,31.6334666
3`,شارع شقرية,34724,31.2073625,31.6320743
4,شارع البساطي,34724,31.2063972,31.6326167
15,شارع المليجي,34724,31.2097361,31.6332110
7,شارع مأمون الشناوى,34724,31.2102992,31.6346279
30,شارع على بن ابى طالب,34724,31.2110495,31.6394879
15`,شارع شقرية,34724,31.2072355,31.6321690
5,شارع 1,34724,31.2073736,31.6360349
4,شارع قاسم,34724,31.2100449,31.6334937
4R,شارع 21,34724,31.2092629,31.6329000
15,شارع الناغى,34724,31.2095017,31.6321604
8,شارع 43,34724,31.2067396,31.6316569
15,شارع على مبارك,34724,31.2103421,31.6384398
1,شارع وابور الطحين,34724,31.2069289,31.6300378
29,شارع 12,34724,31.2088329,31.6326882
19,شارع المركز,34724,31.2100446,31.6377289
57,شارع 9,34724,31.2087585,31.6336783
7,شارع داوود,34724,31.2098259,31.6352157
30,شارع المليجي,34724,31.2095223,31.6339498
18,شارع 3,34724,31.2077511,31.6354587
26,شارع 12,34724,31.2087381,31.6328466
2,شارع 44,34724,31.2066178,31.6324406
36,شارع ابو سريه,34724,31.2075885,31.6325473
10,شارع مأمون الشناوى,34724,31.2106290,31.6346076
14,شارع داوود,34724,31.2104642,31.6354761
17,شارع شقرية,34724,31.2071866,31.6321541
4,شارع 12,34724,31.2094776,31.6328474
45,شارع خالد بن الوليد,34724,31.2116973,31.6378584
4R,شارع جمعه,34724,31.2094222,31.6334434
13L,شارع على مبارك,34724,31.2097519,31.6377105
18,شارع البساطي,34724,31.2062191,31.6319625
3,شارع الجزارين,34724,31.2088711,31.6332121
45,شارع على بن ابى طالب,34724,31.2112505,31.6399113
19,شارع خالد مصطفى,34724,31.2055602,31.6328448
20,شارع كيره,34724,31.2080071,31.6312567
19,شارع ابى بكر الصديق,34724,31.2075166,31.6371405
16,شارع طه حسين,34724,31.2047311,31.6335344
11,شارع خالد مصطفى,34724,31.2057182,31.6331945
52,شارع خالد بن الوليد,34724,31.2102882,31.6363761
12,شارع داوود,34724,31.2103028,31.6353446
10,شارع الملاحى,34724,31.2078525,31.6318434
25,شارع الملاحى,34724,31.2077467,31.6323315
25,شارع العوادلى,34724,31.2070880,31.6308249
17,شارع 12,34724,31.2092974,31.6326937
9L,شارع الجلودى,34724,31.2064117,31.6310539
16,شارع مسجد الرضا,34724,31.2115461,31.6358743
5,شارع الناغى,34724,31.2090673,31.6319382
33,شارع المليجي,34724,31.2094592,31.6337768
1,حارة شاهين,34724,31.2087722,31.6325761
14,شارع 50,34724,31.2088884,31.6312751
5R,شارع وابور الطحين,34724,31.2067762,31.6301319
2,شارع سرحان,34724,31.2097587,31.6327153
2,شارع العوادلى,34724,31.2067444,31.6299230
8,شارع خالد مصطفى,34724,31.2056388,31.6333988
15,شارع ابى بكر الصديق,34724,31.2072334,31.6368798
15,شارع خالد مصطفى,34724,31.2056452,31.6330330
8,شارع 1,34724,31.2074074,31.6357867
10,شارع صقر,34724,31.2080463,31.6307661
1,شارع مأمون الشناوى,34724,31.2099135,31.6342176
23,شارع المليجي,34724,31.2095845,31.6334472
12,شارع الجامع الكبير,34724,31.2083301,31.6322252
42,شارع 9,34724,31.2086910,31.6333602
18,شارع ابو سريه,34724,31.2073178,31.6324938
10,شارع جمال الدين الافغانى,34724,31.2095877,31.6350173
6,شارع الناغى,34724,31.2097212,31.6321439
7,شارع جمال الدين الافغانى,34724,31.2097380,31.6351439
11,شارع 3,34724,31.2080871,31.6348956
9,حارة شاهين,34724,31.2089354,31.6325668
9L,شارع 12,34724,31.2090709,31.6328290
2,حارة زيادة,34724,31.2086490,31.6325471
3,شارع الدهشان,34724,31.2071698,31.6306630
2,شارع الصايغ,34724,31.2089381,31.6338662
22R,شارع المليجي,34724,31.2092052,31.6346644
2,شارع قاسم,34724,31.2101373,31.6334461
3,حارة الحصرى,34724,31.2076538,31.6323747
6L,شارع 21,34724,31.2093647,31.6329670
31,شارع المركز,34724,31.2107547,31.6383319
9,شارع على مبارك,34724,31.2099595,31.6381459
3,شارع 26,34724,31.2055350,31.6339753
94,شارع صلاح سالم,34724,31.2101527,31.6397776
11,حارة شتية,34724,31.2082810,31.6334595
46,شارع داير الناحيه,34724,31.2085374,31.6311505
2,شارع الغندور,34724,31.2097131,31.6328569
6,شارع الاجدر,34724,31.2080809,31.6336371
7,شارع 76,34724,31.2076822,31.6328233
10,شارع الخولى,34724,31.2070741,31.6304540
4,شارع عمر مكرم,34724,31.2097356,31.6353578
6,زقاق ابو موسى,34724,31.2080004,31.6326344
8,شارع احمد عرابى,34724,31.2080087,31.6360589
40,شارع 6,34724,31.2093918,31.6338649
1R,شارع الشماع,34724,31.2091868,31.6323695
10,شارع الباجور,34724,31.2069071,31.6301682
3,شارع عمر مكرم,34724,31.2096463,31.6355726
40,شارع المركز,34724,31.2111213,31.6382063
17,شارع الثورة,34724,31.2096326,31.6345916
11,شارع الصعيدى,34724,31.2063734,31.6308496
4,شارع امين الوصيفي,34724,31.2046114,31.6335978
13,شارع سرحان,34724,31.2069575,31.6308059
7,شارع على مبارك,34724,31.2098739,31.6380804
27,شارع محمد سعيد,34724,31.2051110,31.6326765
1,حارة غنيمه,34724,31.2081669,31.6317322
2,شارع شتية,34724,31.2079071,31.6332197
4,شارع شقرية,34724,31.2070653,31.6320002
4,شارع الاجدر,34724,31.2080135,31.6336383
21,شارع ابو موسى,34724,31.2081534,31.6330485
8,شارع الملاحى,34724,31.2078585,31.6317660
14,عطفه الحماصى,34724,31.2091594,31.6338701
9,شارع محمد سعيد,34724,31.2055451,31.6335446
1,شارع 47,34724,31.2070498,31.6313564
7`,شارع المركز,34724,31.2092833,31.6371014
8,شارع الباجور,34724,31.2068388,31.6302310
24,شارع 12,34724,31.2088027,31.6328460
15,شارع البساطي,34724,31.2063380,31.6318196
32,شارع المليجي,34724,31.2094973,31.6340346
16,شارع توما,34724,31.2084286,31.6332449
26,شارع المركز,34724,31.2102417,31.6374684
4,شارع 35,34724,31.2083159,31.6338823
29,شارع على بن ابى طالب,34724,31.2104241,31.6391431
13R,شارع على مبارك,34724,31.2101407,31.6382845
18`,شارع على بن ابى طالب,34724,31.2102796,31.6387182
30,شارع المركز,34724,31.2104269,31.6376235
94,شارع عمر بن الخطاب,34724,31.2103552,31.6399142
16,شارع 21,34724,31.2052819,31.6381034
14,شارع 21,34724,31.2053355,31.6380369
12,شارع 21,34724,31.2054244,31.6379266
8,شارع 21,34724,31.2055927,31.6377178
6,شارع 21,34724,31.2056771,31.6376131
4,شارع 21,34724,31.2057426,31.6375318
13`,شارع 17,34724,31.2040975,31.6378306
13,شارع 17,34724,31.2041563,31.6379159
11,شارع 17,34724,31.2042182,31.6380058
9,شارع 17,34724,31.2042676,31.6380468
12,شارع 15,34724,31.2042871,31.6377993
10,شارع 15,34724,31.2043534,31.6378692
8,شارع 15,34724,31.2044370,31.6379573
18,شارع 11,34724,31.2043960,31.6367599
16,شارع 11,34724,31.2044259,31.6368645
14,شارع 11,34724,31.2044672,31.6369852
10`,شارع 11,34724,31.2045394,31.6371757
13,شارع 11,34724,31.2045773,31.6368404
11,شارع 11,34724,31.2046369,31.6369624
9,شارع 11,34724,31.2047161,31.6370992
7,شارع 11,34724,31.2047840,31.6371718
3`,شارع 11,34724,31.2049216,31.6373188
14,شارع 12,34724,31.2042402,31.6373894
12,شارع 11,34724,31.2044977,31.6370903
3,شارع 11,34724,31.2049901,31.6373921
18,شارع 20,34724,31.2053304,31.6383083
10,شارع 21,34724,31.2055136,31.6378159
7,شارع 21,34724,31.2053055,31.6378004
6,شارع 15,34724,31.2045041,31.6380280
1,شارع 11,34724,31.2050476,31.6374534
15,شارع 17,34724,31.2040284,31.6377303
24,شارع 12,34724,31.2039795,31.6368478
2,شارع 21,34724,31.2058121,31.6374456
10,شارع 20,34724,31.2057432,31.6380224
4,شارع 11,34724,31.2048361,31.6374992
3,شارع 21,34724,31.2054603,31.6376222
6,شارع 11,34724,31.2047661,31.6374265
5,شارع 17,34724,31.2043898,31.6381485
16,شارع 17,34724,31.2041922,31.6381290
10,شارع 11,34724,31.2046262,31.6372812
5,شارع 21,34724,31.2053859,31.6377108
8,شارع 11,34724,31.2047051,31.6373632
4,شارع 17,34724,31.2043367,31.6382865
7,شارع 17,34724,31.2043183,31.6380890
5,شارع 11,34724,31.2048578,31.6372507
8,شارع 22,34724,31.2053656,31.6375309
4,شارع 15,34724,31.2045721,31.6380997
14,شارع 17,34724,31.2042438,31.6381853
9,شارع 15,34724,31.2044149,31.6377506
16,شارع 18,34724,31.2039857,31.6379163
2,شارع 11,34724,31.2049320,31.6375988
2,شارع 17,34724,31.2045039,31.6384685
3,شارع 17,34724,31.2044627,31.6382090
16,شارع 12,34724,31.2041970,31.6373206
2,شارع 15,34724,31.2046427,31.6381741
15,شارع 20,34724,31.2055966,31.6381923
13,شارع 20,34724,31.2054755,31.6381424
16`,شارع 21,34724,31.2052197,31.6381806
10,شارع 44,34724,31.2064894,31.6320781
8,شارع 44,34724,31.2065267,31.6321834
6,شارع 44,34724,31.2065639,31.6322883
4,شارع 44,34724,31.2065866,31.6323525
8,شارع على مبارك,34724,31.2093118,31.6373794
6,شارع على مبارك,34724,31.2092251,31.6373102
4,شارع على مبارك,34724,31.2091446,31.6372459
2,شارع على مبارك,34724,31.2090852,31.6371985
18,شارع عمر مكرم,34724,31.2104914,31.6360344
16,شارع عمر مكرم,34724,31.2104026,31.6359547
12,شارع عمر مكرم,34724,31.2102135,31.6357851
10,شارع عمر مكرم,34724,31.2101105,31.6356927
8,شارع عمر مكرم,34724,31.2100234,31.6356146
11,شارع اكرم نوح,34724,31.2051760,31.6337840
9,شارع اكرم نوح,34724,31.2052080,31.6338478
7,شارع اكرم نوح,34724,31.2052583,31.6339483
3,شارع اكرم نوح,34724,31.2053575,31.6341466
1,شارع اكرم نوح,34724,31.2054009,31.6342333
11,شارع 26,34724,31.2053183,31.6335547
9,شارع 26,34724,31.2053906,31.6336950
7,شارع 26,34724,31.2054401,31.6337911
5,شارع 26,34724,31.2054824,31.6338733
1,شارع 26,34724,31.2055947,31.6340911
14,شارع 26,34724,31.2052208,31.6336016
12,شارع 26,34724,31.2052598,31.6337076
10,شارع 26,34724,31.2053103,31.6337880
8,شارع 26,34724,31.2053481,31.6338725
6,شارع 26,34724,31.2053894,31.6339490
9,شارع ابو شهاب,34724,31.2062073,31.6323504
7,شارع ابو شهاب,34724,31.2062428,31.6324523
3,شارع ابو شهاب,34724,31.2063243,31.6327608
1,شارع ابو شهاب,34724,31.2063610,31.6328506
10,شارع اكرم نوح,34724,31.2050453,31.6338658
6,شارع اكرم نوح,34724,31.2051382,31.6340764
4,شارع اكرم نوح,34724,31.2051875,31.6341917
2,شارع اكرم نوح,34724,31.2052472,31.6343044
14,شارع طه حسين,34724,31.2048055,31.6336741
12,شارع طه حسين,34724,31.2048675,31.6337948
6,شارع طه حسين,34724,31.2050682,31.6341931
4,شارع طه حسين,34724,31.2051049,31.6342695
2,شارع طه حسين,34724,31.2051439,31.6343486
