House number,Street name,Postal code,Latitude,Longitude
125,6th Street,02142,42.3672754,-71.0861518
29,Garden Street,02138,42.3787447,-71.1237790
175,Cambridge Street,02141,42.3711772,-71.0787804
80,Sparks Street,02138,42.3806833,-71.1309842
1,Follen Street,02138,42.3787529,-71.1233952
552,Massachusetts Avenue,02139,42.3644143,-71.1025321
238,Main Street,02142,42.3621356,-71.0845627
21,Notre Dame Avenue,02140,42.3921276,-71.1316899
298,Harvard Street,02139,42.3695170,-71.1057346
820,Massachusetts Avenue,02139,42.3669109,-71.1065281
15,Mount Vernon Street,02140,42.3873692,-71.1201034
630,Massachusetts Avenue,02139,42.3651922,-71.1038304
2020,Massachusetts Avenue,02140,42.3905930,-71.1219377
1311,Cambridge Street,02139-9991,42.3736787,-71.0995556
259,Massachusetts Avenue,02139,42.3618274,-71.0973361
344,Broadway,02139,42.3700776,-71.1034016
20,Ames Street,02139,42.3610207,-71.0877409
314,Main Street,02139,42.3619754,-71.0864154
26,Oxford Street,02138,42.3782074,-71.1154484
351,Broadway,02139,42.3704326,-71.1035368
286,Franklin Street,02139,42.3647710,-71.1057705
350,Massachusetts Avenue,02139,42.3627042,-71.0995636
1629,Cambridge Street,02138,42.3749452,-71.1094225
49,White Street,02140,42.3897500,-71.1182860
699,Mount Auburn Street,02138,42.3753822,-71.1490818
1815,Massachusetts Avenue,02140,42.3876020,-71.1189769
1312,Massachusetts Avenue,02138,42.3728601,-71.1174909
1357,Cambridge Street,02139,42.3737379,-71.1001428
1414,Cambridge Street,02139,42.3737001,-71.1014690
403,Massachusetts Avenue,02139,42.3635902,-71.1000483
401,Massachusetts Avenue,02139,42.3635803,-71.0999357
20,Sidney Street,02139,42.3620538,-71.0999395
200,Alewife Brook Parkway,02138,42.3891156,-71.1417515
149,Alewife Brook Parkway,02140,42.3936797,-71.1408939
1,White Street,02140,42.3892180,-71.1195667
25,White Street,02140,42.3896268,-71.1188489
1256,Massachusetts Avenue,02138,42.3725414,-71.1163631
211,Alewife Brook Parkway,02138,42.3899301,-71.1433772
424,Massachusetts Avenue,02139,42.3633623,-71.1006465
24,Pearl Street,02139,42.3641739,-71.1030009
20,Pearl Street,02139,42.3642246,-71.1029409
263,Brookline Street,02139,42.3576804,-71.1078846
272,Brookline Street,02139,42.3573950,-71.1077988
271,Brookline Street,02139,42.3575368,-71.1080821
222,Alewife Brook Parkway,02138,42.3886680,-71.1424420
201,Alewife Brook Parkway,02138,42.3899712,-71.1429224
792,Main Street,02139,42.3630748,-71.0968465
158,Prospect Street,02139,42.3691324,-71.1009413
2088,Massachusetts Avenue,02140,42.3912955,-71.1234392
266,Brookline Street,02139,42.3574816,-71.1077160
64,Brattle Street,02138,42.3748602,-71.1229496
88,Sidney Street,02139,42.3604127,-71.1018278
21,Erie Street,02139,42.3579134,-71.1037781
303,Cambridge Street,02141-9998,42.3712723,-71.0808510
750,Massachusetts Avenue,02139,42.3662106,-71.1054416
738,Massachusetts Avenue,02139,42.3661260,-71.1052914
450,Massachusetts Avenue,02139,42.3634608,-71.1011374
757,Massachusetts Avenue,02139,42.3665431,-71.1053039
243,Hampshire Street,02139,42.3741265,-71.1011030
29,White Street,02140,42.3896033,-71.1186946
227,Alewife Brook Parkway,02138,42.3892527,-71.1435062
160,Alewife Brook Parkway,02138,42.3911888,-71.1400848
160,Alewife Brook Parkway,02138,42.3908203,-71.1403846
170,Alewife Brook Parkway Path,02138,42.3910001,-71.1402257
524,Massachusetts Avenue,02139,42.3641827,-71.1020338
295,Third Street,02142,42.3643922,-71.0833182
225,Hampshire Street,02139,42.3738746,-71.1007933
1369,Cambridge Street,02139,42.3737722,-71.1003885
450,Massachusetts Avenue,02139,42.3636635,-71.1011293
92,Kirkland Street,02138,42.3779500,-71.1074691
100,CambridgeSide Place,02141,42.3687832,-71.0759859
359,Huron Avenue,02138,42.3813485,-71.1384553
340,Huron Avenue,02138,42.3811349,-71.1378774
2000,Massachusetts Avenue,02140,42.3902403,-71.1213240
62,Walden Street,02140,42.3889473,-71.1248342
2344,Massachusetts Avenue,02140,42.3960182,-71.1289585
2350,Massachusetts Avenue,02140,42.3961275,-71.1290826
92,Hampshire Street,02139,42.3687167,-71.0949244
280,Green Street,02139,42.3646118,-71.1041160
512,Massachusetts Avenue,02139,42.3640906,-71.1018824
1001,Cambridge Street,02141,42.3729551,-71.0935352
35,White Street,02138,42.3888412,-71.1190702
700,Technology Square,02139,42.3639623,-71.0929019
472,Massachusetts Avenue,02139,42.3637705,-71.1013224
500,Technology Square,02139,42.3631405,-71.0924347
1255,Cambridge Street,02139,42.3735276,-71.0984054
1,Museum Of Science Driveway,02114,42.3677082,-71.0711399
420,Broadway,02138,42.3725292,-71.1096422
218,Monsignor O'Brien Highway,02141,42.3725742,-71.0802515
282,Concord Avenue,02138,42.3835870,-71.1338338
624,Massachusetts Avenue,02139,42.3650944,-71.1036157
808,Memorial Drive,02139,42.3608792,-71.1154484
808,Memorial Drive,02139,42.3607422,-71.1154386
25,Carleton Street,02142,42.3611885,-71.0866427
120,Broadway,02142,42.3638468,-71.0878195
90,Broadway,02142,42.3637020,-71.0873293
318,Third Street,02142,42.3649355,-71.0826912
600,Massachusetts Avenue,02139,42.3649160,-71.1033079
580-B,Massachusetts Avenue,02139,42.3646291,-71.1028151
5,White Street,02140,42.3892766,-71.1194569
59,White Street,02140,42.3889094,-71.1191079
355,Main Street,02142,42.3627717,-71.0872570
1923,Massachusetts Avenue,02140,42.3893688,-71.1197175
70,Rindge Avenue,02140,42.3927020,-71.1286030
798,Main Street,02139,42.3630947,-71.0972166
567,Massachusetts Avenue,02139,42.3648573,-71.1024593
598,Massachusetts Avenue,02139,42.3648585,-71.1032006
2100,Massachusetts Avenue,02140,42.3915222,-71.1238535
679,Concord Avenue,02138-1047,42.3904659,-71.1504512
1933,Massachusetts Avenue,02140,42.3896475,-71.1199932
300,Third Street,02142,42.3652749,-71.0824446
5,Brookline Street,02139,42.3638611,-71.1016510
100,Cambridgeside Place,02141,42.3677346,-71.0761804
15,Broad Canal Way,02142,42.3628988,-71.0820986
190,Massachusetts Avenue,02139,42.3610350,-71.0966840
822,Somerville Avenue,02140,42.3884864,-71.1186581
196,Massachusetts Avenue,02139,42.3611635,-71.0968834
49,Mount Auburn Street,02138,42.3713955,-71.1167459
535,Cambridge Street,02141,42.3718137,-71.0851579
5,Broad Canal Way,02142,42.3633866,-71.0830033
11,Broad Canal Way,02142,42.3633045,-71.0826373
276,Broadway,02139,42.3678720,-71.0976851
1000,Massachusetts Avenue,02138,42.3686334,-71.1107370
59,John F. Kennedy Street,02138,42.3718723,-71.1208925
239,Massachusetts Avenue,02139,42.3616789,-71.0970931
2257,Massachusetts Avenue,02140,42.3943811,-71.1265933
12,Arrow Street,02138,42.3711017,-71.1147099
6,Prentiss Street,02138,42.3843027,-71.1188254
255,Main Street,02142,42.3625446,-71.0856044
619,Massachusetts Avenue,02139,42.3653445,-71.1032871
388,Rindge Avenue,02140,42.3937907,-71.1390291
538,Massachusetts Avenue,02139,42.3643086,-71.1022696
546,Massachusetts Avenue,02139,42.3643462,-71.1023366
548,Massachusetts Avenue,02139,42.3643879,-71.1024090
520,Massachusetts Avenue,02139,42.3641243,-71.1019370
563,Massachusetts Avenue,02139,42.3647282,-71.1022260
428,Massachusetts Avenue,02139,42.3633920,-71.1006894
743,Massachusetts Avenue,02139,42.3664757,-71.1051671
739,Massachusetts Avenue,02139,42.3664123,-71.1050773
731,Massachusetts Avenue,02139,42.3663508,-71.1049740
730,Massachusetts Avenue,02139,42.3660159,-71.1051419
736,Massachusetts Avenue,02139,42.3660758,-71.1052378
720,Massachusetts Avenue,02139,42.3662621,-71.1048274
744,Massachusetts Avenue,02139,42.3661789,-71.1053906
744,Massachusetts Avenue,02139,42.3661531,-71.1053490
714,Massachusetts Avenue,02139,42.3659485,-71.1050185
674,Massachusetts Avenue,02139,42.3655700,-71.1043694
689,Massachusetts Avenue,02139,42.3660020,-71.1043560
727,Massachusetts Avenue,02139,42.3661645,-71.1046644
795,Main Street,02139,42.3633583,-71.0971274
468,Massachusetts Avenue,02139,42.3637348,-71.1012607
474,Massachusetts Avenue,02139,42.3638002,-71.1013814
480,Massachusetts Avenue,02139,42.3638320,-71.1014404
438,Massachusetts Avenue,02139,42.3635069,-71.1008959
9,Brookline Street,02139,42.3638017,-71.1017020
1,Broadway,02142,42.3626336,-71.0836576
1,Broadway,02142,42.3627440,-71.0837857
896,Massachusetts Avenue,02139,42.3680085,-71.1082833
912,Massachusetts Avenue,02139,42.3682614,-71.1087976
928,Massachusetts Avenue,02139,42.3684329,-71.1091866
101,Main Street,02142,42.3622063,-71.0812983
1154,Massachusetts Avenue,02138,42.3712072,-71.1145182
31,Putnam Avenue,02139,42.3689611,-71.1136071
11,First Street,02141,42.3704883,-71.0771012
345,Cambridge Street,02141,42.3713904,-71.0817837
950,Massachusetts Avenue,02139,42.3687019,-71.1098463
149,First Street,02142,42.3662759,-71.0780702
145,First Street,02142,42.3663589,-71.0780588
143,First Street,02142,42.3664720,-71.0780441
250,Kendall Street,02142,42.3630259,-71.0821323
2372,Massachusetts Avenue,02140,42.3967011,-71.1297354
2382,Massachusetts Avenue,02140,42.3968135,-71.1298747
1121,Cambridge Street,02139,42.3731918,-71.0957768
502,Massachusetts Avenue,02139,42.3640220,-71.1017970
575,Massachusetts Avenue,02139,42.3650238,-71.1022587
119,Windsor Street,02139,42.3646976,-71.0966449
250,Massachusetts Avenue,02139,42.3612276,-71.0978587
700,Main Street,02139,42.3617176,-71.0951965
211,Massachusetts Avenue,02139,42.3613491,-71.0972061
105,Windsor Street,02139,42.3640899,-71.0968085
200,Technology Square,02139,42.3633459,-71.0910024
26,Landsdowne Street,02139,42.3607880,-71.0987114
35,Landsdowne Street,02139,42.3610747,-71.1001514
45,Sidney Street,02139,42.3619705,-71.1015086
75,Sidney Street,02139,42.3613878,-71.1021416
65,Landsdowne Street,02139,42.3606277,-71.1004106
64,Sidney Street,02139,42.3610031,-71.1012899
350,Massachusetts Avenue,02139,42.3624343,-71.0996283
300,Massachusetts Avenue,02139,42.3620855,-71.0988988
181,Massachusetts Avenue,02139,42.3613006,-71.0960691
500,Technology Square,02139,42.3630856,-71.0925398
1,Hampshire Street,02139,42.3656637,-71.0904889
1,Broadway,02139,42.3625653,-71.0832886
300,Third Street,02142,42.3652558,-71.0819495
26,Sidney Street,02139,42.3607990,-71.1015286
25,First Street,02141,42.3694571,-71.0775323
215,First Street,02142,42.3641856,-71.0787232
215,First Street,02142,42.3643402,-71.0787500
38,Sidney Street,02139,42.3615265,-71.1007398
245,First Street,02142,42.3637985,-71.0796656
245,First Street,02142,42.3637606,-71.0795152
640,Memorial Drive,02139,42.3542741,-71.1098716
1,Broadway,02142,42.3626902,-71.0839130
64,Sidney Street,02139,42.3610975,-71.1012427
200,Broadway,02139,42.3659161,-71.0929265
2154,Massachusetts Avenue,02140,42.3922344,-71.1247361
1337,Cambridge Street,02139,42.3736977,-71.0998512
1662,Massachusetts Avenue,02138-2706,42.3819235,-71.1199347
297,Massachusetts Avenue,02139,42.3623342,-71.0981162
134,Hampshire Street,02139,42.3705673,-71.0971787
315,Broadway,02139,42.3693137,-71.1007043
166,Prospect Street,02139,42.3694682,-71.1006627
6,Plympton Street,02138,42.3724116,-71.1164524
1304,Massachusetts Avenue,02138,42.3728437,-71.1173947
1105,Massachusetts Avenue,02138,42.3708518,-71.1136824
1105,Massachusetts Avenue,02138,42.3708297,-71.1136523
1297,Cambridge Street,02139,42.3736341,-71.0992245
24,Holyoke Street,02138,42.3721680,-71.1183380
59,Mount Auburn Street,02138,42.3716465,-71.1174205
496,Massachusetts Avenue,02139,42.3639406,-71.1016034
49,River Street,02139,42.3646787,-71.1066782
15,Western Avenue,02139,42.3653804,-71.1050076
781,Main Street,02139,42.3633417,-71.0968378
783,Main Street,02139,42.3633451,-71.0968948
645,Massachusetts Avenue,02139,42.3655318,-71.1035902
16,Prospect Street,02139,42.3657998,-71.1036120
45,Prospect Street,02139,42.3663034,-71.1033969
50,Prospect Street,02139,42.3662048,-71.1031417
44,Prospect Street,02139,42.3661753,-71.1031796
42,Prospect Street,02139,42.3661480,-71.1032098
30,Prospect Street,02139,42.3659509,-71.1034235
114,Magazine Street,02139,42.3599165,-71.1100389
2366,Massachusetts Avenue,02140,42.3964671,-71.1294755
2310,Massachusetts Avenue,02140,42.3954311,-71.1282868
1755,Massachusetts Avenue,02140,42.3851018,-71.1191244
1238,Cambridge Street,02139,42.3732559,-71.0980819
185,Green Street,02139,42.3637883,-71.1022155
735,Massachusetts Avenue,02139,42.3663914,-71.1050289
485,Massachusetts Avenue,02139,42.3641618,-71.1012393
450,Massachusetts Avenue,02139,42.3636315,-71.1010503
208,Cambridge Street,02141,42.3706008,-71.0792908
187,Hampshire Street,02139,42.3728532,-71.0991618
2309,Massachusetts Avenue,21410,42.3730115,-71.1181381
199,Alewife Brook Parkway,02138,42.3902416,-71.1427013
11,Dunster Street,02138,42.3729778,-71.1190420
1,Eliot Street,02138,42.3727147,-71.1213020
48,Brattle Street,02138,42.3740655,-71.1218511
98,Winthrop Street,02138,42.3723491,-71.1212504
10,Eliot Street,02138,42.3724072,-71.1215195
16,Eliot Street,02138,42.3720630,-71.1214254
89,Winthrop Street,02138,42.3724217,-71.1209044
505,Massachusetts Avenue,02139,42.3643284,-71.1015560
73,River Street,02139,42.3643984,-71.1074806
704,Massachusetts Avenue,02139,42.3659222,-71.1049426
759,Massachusetts Avenue,02139,42.3665896,-71.1053565
751,Massachusetts Avenue,02139,42.3665209,-71.1052332
25,River Street,02139,42.3648217,-71.1062262
285,Green Street,02139,42.3644781,-71.1035544
40,Granite Street,02139,42.3561334,-71.1127616
49,Brattle Street,02138,42.3741864,-71.1215177
579,Massachusetts Avenue,02139,42.3649661,-71.1026343
501,Massachusetts Avenue,02139,42.3643000,-71.1014964
495,Massachusetts Avenue,02139,42.3642560,-71.1014269
1033,Massachusetts Avenue,02318,42.3697046,-71.1119024
47,Mount Auburn Street,02138,42.3713652,-71.1166707
92,Winthrop Street,02138,42.3722961,-71.1209868
3,North First Street,02141,42.3712800,-71.0761500
1815,Massachusetts Avenue,02140,42.3874040,-71.1189351
37,White Street,02140,42.3897032,-71.1185425
1,Memorial Drive,02142,42.3617423,-71.0818490
181,Massachusetts Avenue,02139,42.3609827,-71.0959949
383,Harvard Street,02138,42.3718417,-71.1131278
75,Winthrop Street,02138,42.3721004,-71.1202469
564,Massachusetts Avenue,02139,42.3644870,-71.1026545
21,Brattle Street,02138,42.3734706,-71.1205110
1613,Cambridge Street,02138,42.3749496,-71.1089369
1627,Cambridge Street,02138,42.3749397,-71.1092722
1625,Cambridge Street,02138,42.3749209,-71.1091220
1640,Cambridge Street,02138,42.3744706,-71.1095646
150,Western Avenue,02139,42.3647948,-71.1087981
692,Massachusetts Avenue,02139,42.3657454,-71.1046560
250,Monsignor O'Brien Highway,02141,42.3732791,-71.0816117
96,Sherman Street,02140,42.3886578,-71.1323123
425,Massachusetts Avenue,02139,42.3636621,-71.1004580
1,Memorial Drive,02142,42.3616283,-71.0810690
61,Church Street,02138,42.3741932,-71.1211652
693,Cambridge Street;691 Cambridge St,02141,42.3722014,-71.0881050
52,Trowbridge Street,02114,42.3728265,-71.1115306
120,Cambridge Street,02141,42.3706797,-71.0778717
160,Cambridge Street,02141,42.3707381,-71.0784550
1,Canal Park,02141,42.3693896,-71.0770590
122,First Street,02141,42.3671067,-71.0775136
234,Monsignor O'Brien Highway,02141,42.3727781,-71.0806263
6,John F. Kennedy Street,02138,42.3733111,-71.1193284
181,Massachusetts Avenue,02139,42.3611761,-71.0963232
270,Third Street,02142,42.3658726,-71.0821143
1,White Street,02140,42.3884179,-71.1183748
84,Massachusetts Avenue,02139,42.3592136,-71.0946272
58,John F. Kennedy Street,02138,42.3717481,-71.1206486
300,Main Street,02142,42.3624028,-71.0857205
1166,Cambridge Street,02139,42.3730890,-71.0968126
600,Technology Square,02139-3589,42.3631302,-71.0934361
608,Main Street,02139,42.3628673,-71.0939078
100,Kirkland Street,02138,42.3779892,-71.1072729
765,Massachusetts Avenue,02139,42.3666390,-71.1054350
694,Massachusetts Avenue,02139,42.3657931,-71.1047386
908,Massachusetts Avenue,02139,42.3682149,-71.1086960
186,Ale Wife Brook Parkway,02138,42.3904500,-71.1406892
194,Alewife Brook Parkway,02138,42.3901387,-71.1408773
65,Mount Auburn Street,02138,42.3720083,-71.1181628
159,First Street,02142,42.3660228,-71.0781500
645,Cambridge Street,02141,42.3720663,-71.0871500
84,Massachusetts Avenue,02139,42.3588746,-71.0947195
364,Broadway,02139,42.3704436,-71.1042168
50,Mooney Street,02138,42.3942057,-71.1525442
2000,Massachusetts Avenue,02140,42.3902938,-71.1214537
2150,Massachusetts Avenue,02140,42.3921393,-71.1246160
30,Brattle Street,02138,42.3730682,-71.1207368
6,Brattle Street,02138,42.3735238,-71.1197784
1654,Massachusetts Avenue,02138-2706,42.3816952,-71.1200200
2107,Massachusetts Avenue,02140,42.3917580,-71.1235983
2067,Massachusetts Avenue,02140,42.3915837,-71.1232602
2067,Massachusetts Avenue,02140,42.3916318,-71.1233678
2067,Massachusetts Avenue,02138,42.3913617,-71.1227994
2067,Massachusetts Avenue,02140,42.3913251,-71.1227356
2180,Massachusetts Avenue,02140,42.3925030,-71.1251486
2322,Massachusetts Avenue,02140,42.3955609,-71.1284341
2420,Massachusetts Avenue,02140,42.3973696,-71.1307663
1740,Massachusetts Avenue,02138,42.3846442,-71.1196573
1736,Massachusetts Avenue,02138,42.3844695,-71.1196495
2098,Massachusetts Avenue,02140,42.3914286,-71.1236964
2096,Massachusetts Avenue,02140,42.3914071,-71.1236497
2090,Massachusetts Avenue,02140,42.3913329,-71.1235066
2038,Massachusetts Avenue,02140,42.3907544,-71.1223123
2034,Massachusetts Avenue,02140,42.3907218,-71.1222257
2032,Massachusetts Avenue,02140,42.3906882,-71.1221457
2030,Massachusetts Avenue,02140,42.3906604,-71.1220775
2014,Massachusetts Avenue,02140,42.3905102,-71.1217387
2000,Massachusetts Avenue,02140,42.3903168,-71.1214119
2000,Massachusetts Avenue,02140,42.3902983,-71.1213718
1972,Massachusetts Avenue,02140,42.3900798,-71.1210975
1906,Massachusetts Avenue,02140,42.3888516,-71.1198743
1900,Massachusetts Avenue,02140,42.3887883,-71.1198426
822,Somerville Avenue,02140,42.3886236,-71.1185760
1812,Massachusetts Avenue,02140,42.3868785,-71.1194177
1812,Massachusetts Avenue,02140,42.3868378,-71.1194103
1810,Massachusetts Avenue,02140,42.3867689,-71.1194136
1665,Massachusetts Avenue,02138,42.3819624,-71.1194983
1667,Massachusetts Avenue,02138-2706,42.3820677,-71.1194801
1675,Massachusetts Avenue,02138,42.3822964,-71.1194050
1731,Massachusetts Avenue,02138,42.3841880,-71.1192484
1749,Massachusetts Avenue,02140,42.3847008,-71.1191536
1751,Massachusetts Avenue,02140,42.3849075,-71.1191419
1759,Massachusetts Avenue,02140,42.3851611,-71.1191251
1765,Massachusetts Avenue,02140,42.3852789,-71.1191277
1771,Massachusetts Avenue,02140,42.3854349,-71.1190849
1773,Massachusetts Avenue,02140,42.3855172,-71.1190836
1773,Massachusetts Avenue,02140,42.3855019,-71.1190875
1796,Massachusetts Avenue,02140,42.3860414,-71.1194788
1786,Massachusetts Avenue,02140,42.3858943,-71.1194985
1784,Massachusetts Avenue,02140,42.3859151,-71.1194966
1760,Massachusetts Avenue,02140,42.3852669,-71.1195765
1738,Massachusetts Avenue,02138,42.3845528,-71.1196521
1728,Massachusetts Avenue,02138,42.3841278,-71.1196974
1700,Massachusetts Avenue,02138,42.3831139,-71.1197914
1692,Massachusetts Avenue,02138,42.3828748,-71.1198561
2388,Massachusetts Avenue,02140,42.3969180,-71.1299636
2380,Massachusetts Avenue,02140,42.3967854,-71.1298271
2370,Massachusetts Avenue,02140,42.3966153,-71.1296424
2374,Massachusetts Avenue,02140,42.3967419,-71.1297674
2304,Massachusetts Avenue,02140,42.3951684,-71.1280030
2302,Massachusetts Avenue,02140,42.3951282,-71.1279473
2234,Massachusetts Avenue,02140,42.3937857,-71.1264778
45.5,Mount Auburn Street,02138,42.3713445,-71.1165830
581,Massachusetts Avenue,02139,42.3650298,-71.1027342
1776,Massachusetts Avenue,02140,42.3856908,-71.1195209
129,Franklin Street,02139,42.3628087,-71.1018743
80,Prospect Street,02139,42.3670688,-71.1024458
1680,Massachusetts Avenue,02138,42.3824517,-71.1198525
1678,Massachusetts Avenue,02138,42.3823952,-71.1198613
4,Hudson Street,02138,42.3821089,-71.1202096
1670,Massachusetts Avenue,02138,42.3820714,-71.1198999
1668,Massachusetts Avenue,02138,42.3820185,-71.1199089
1654,Massachusetts Avenue,02138,42.3815872,-71.1200146
40,Erie Street,02139,42.3578012,-71.1042044
2285,Massachusetts Avenue,02140,42.3949608,-71.1272074
2285,Massachusetts Avenue,02140,42.3950431,-71.1273118
10,Fawcett Street,02138,42.3894169,-71.1457464
489,Concord Avenue,02138,42.3868667,-71.1406681
445,Concord Avenue,02138,42.3864208,-71.1392135
295,Third Street,02142,42.3644659,-71.0833495
303,Third Street,02142,42.3640365,-71.0835219
356,Third Street,02142,42.3636385,-71.0833542
73,Ames Street,02142,42.3632913,-71.0882151
242,Main Street,02142,42.3621712,-71.0848167
1,Memorial Drive,02142,42.3616880,-71.0802647
955,Massachusetts Avenue,02139,42.3691092,-71.1100720
129,Sherman Street,02140,42.3900872,-71.1331681
170,Huron Avenue,02138,42.3826450,-71.1305487
221,Hampshire Street,02139,42.3734450,-71.1002891
299,Prospect Street,02139,42.3727243,-71.0987668
1361,Cambridge Street,02139,42.3737518,-71.1002384
1300,Cambridge Street,02139,42.3734266,-71.0992518
1280,Cambridge Street,02139,42.3733686,-71.0987907
1260,Cambridge Street,02139,42.3733327,-71.0985307
1200,Cambridge Street,02139,42.3731647,-71.0973665
1172,Cambridge Street,02139,42.3731173,-71.0969840
1158,Cambridge Street,02139,42.3730792,-71.0966367
1157,Cambridge Street,02139,42.3732838,-71.0965064
1276,Massachusetts Avenue,02138,42.3726361,-71.1166937
1288,Massachusetts Avenue,02138,42.3726749,-71.1168630
1300,Massachusetts Avenue,02138,42.3728033,-71.1172421
1316,Massachusetts Avenue,02138,42.3728896,-71.1176005
1804,Massachusetts Avenue,02138,42.3728324,-71.1173387
8,Brattle Street,02138,42.3735114,-71.1198579
15,Brattle Street,02138,42.3734687,-71.1203135
17,Brattle Street,02138,42.3734521,-71.1203760
26,Church Street,02138,42.3742887,-71.1200131
30,Brattle Street,02138,42.3731294,-71.1206436
52,Brattle Street,02138,42.3743411,-71.1220085
1,Brattle Square,02138,42.3732963,-71.1211277
99,Mount Auburn Street,02138,42.3729024,-71.1206388
104,Mount Auburn Street,02138,42.3726770,-71.1207615
102,Mount Auburn Street,02138,42.3727242,-71.1207777
97,Mount Auburn Street,02138,42.3728199,-71.1204837
39,John F. Kennedy Street,02138,42.3727395,-71.1203067
39,John F. Kennedy Street,02138,42.3727086,-71.1202199
14,Brattle Street,02138,42.3732683,-71.1199556
1001,Massachusetts Avenue,02138,42.3695516,-71.1114518
1001,Massachusetts Avenue,02138,42.3695166,-71.1113392
1001,Massachusetts Avenue,02138,42.3694961,-71.1112650
987,Massachusetts Avenue,02138,42.3693138,-71.1108234
910,Massachusetts Avenue,02139,42.3682466,-71.1087501
906,Massachusetts Avenue,02139,42.3681918,-71.1086529
907,Massachusetts Avenue,02139,42.3683877,-71.1085085
896A,Massachusetts Avenue,02139,42.3680427,-71.1083424
862,Massachusetts Avenue,02139,42.3675131,-71.1073806
860,Massachusetts Avenue,02139,42.3674927,-71.1073432
846A,Massachusetts Avenue,02139,42.3673597,-71.1071510
844,Massachusetts Avenue,02139,42.3673366,-71.1071049
842,Massachusetts Avenue,02139,42.3673025,-71.1070476
830,Massachusetts Avenue,02139,42.3670340,-71.1067031
1380,Massachusetts Avenue,02138,42.3733210,-71.1191042
1545,Massachusetts Avenue,02138,42.3782349,-71.1185862
155,Second Street,02142,42.3670291,-71.0793075
38,Howard Street,02139,42.3652725,-71.1107422
370,Broadway,02139,42.3706917,-71.1048256
114,Mount Auburn Street,02138,42.3731187,-71.1226685
163,Huron Avenue,02138,42.3823305,-71.1313413
198,Alewife Parkway,02138,42.3898151,-71.1411683
349,Broadway,02139,42.3703833,-71.1033498
29,Concord Avenue,02138,42.3795407,-71.1257443
27,Concord Avenue,02138,42.3794295,-71.1253412
17,Concord Avenue,02138,42.3791085,-71.1248572
7,Concord Avenue,02138,42.3779629,-71.1227693
12,Eliot Street,02138,42.3723240,-71.1215561
1246,Massachusetts Avenue,02138,42.3724646,-71.1162100
201,Broadway,02139,42.3661267,-71.0924044
32,John F. Kennedy Street,02138,42.3727578,-71.1197746
117,Hampshire Street,02139,42.3698775,-71.0959250
157,Hampshire Street,02139,42.3717267,-71.0981207
450,Kendall Street,02142,42.3633480,-71.0816653
82,Ames Street,02142,42.3631928,-71.0877761
3,Bow Street,02138,42.3719967,-71.1158039
39,Brattle Street,02138,42.3737519,-71.1211416
39,John F. Kennedy Street,02138,42.3728716,-71.1200734
35,John F. Kennedy Street,02138,42.3728127,-71.1201295
1350,Massachusetts Avenue,02138,42.3729747,-71.1187857
24,Dunster Street,02138,42.3728171,-71.1188514
65,John F. Kennedy Street,02138,42.3717171,-71.1211329
955,Massachusetts Avenue,02139,42.3689886,-71.1098774
29,Church Street,02138,42.3744873,-71.1201243
1105,Massachusetts Avenue,02138,42.3705876,-71.1133621
208,Concord Avenue,02138,42.3824990,-71.1313863
82,Mount Auburn Street,02138,42.3722125,-71.1195269
198,Elm Street,02140,42.3932861,-71.1207063
196,Elm Street,02140,42.3931917,-71.1206546
104,Memorial Drive,02142,42.3597075,-71.0865476
20,Cambridge Parkway,02142,42.3666774,-71.0740144
8,Museum Way,02141,42.3697186,-71.0718107
101,Main Street,02142,42.3624269,-71.0810576
1,Broadway,02142,42.3624933,-71.0834282
1,Broadway,02142,42.3628339,-71.0839222
1295,Cambridge Street,02139,42.3735935,-71.0990363
35,Sacramento Place,02138,42.3826534,-71.1160985
48,Sixth Street,02141,42.3704407,-71.0848233
826,Cambridge Street,02141,42.3721548,-71.0902467
12,Springfield Street,02139,42.3740469,-71.1005520
47,Third Street,02141,42.3670610,-71.0801120
524,Franklin Street,02139,42.3676912,-71.1113390
1151,Massachusetts Avenue,02138,42.3716123,-71.1142972
22,Hilliard Street,02138,42.3739357,-71.1238354
2464,Massachusetts Avenue,02140,42.3983933,-71.1319108
1343,Cambridge Street,02139,42.3737128,-71.0999620
625,Mount Auburn Street,02138,42.3753510,-71.1468628
1972,Massachusetts Avenue,02140,42.3900647,-71.1210707
1035,Cambridge Street,02141,42.3735815,-71.0934654
130,Bishop Allen Drive,02139,42.3664367,-71.1035934
1950,Massachusetts Avenue,02140,42.3895402,-71.1205267
448,Cambridge Street,02140,42.3714246,-71.0837598
268,Brookline Street,02139,42.3574543,-71.1077917
703,Mount Auburn Street,02138,42.3749330,-71.1496576
87,Blanchard Road,02138,42.3940771,-71.1580114
1174,Massachusetts Avenue,02138,42.3714276,-71.1148325
5,Brattle Street,02138,42.3735251,-71.1197363
1798,Massachusetts Avenue,02140,42.3861119,-71.1194647
26,New Street,02138,42.3878528,-71.1404832
10,Fawcett Street,02138,42.3856825,-71.1194996
2,Arrow Street,02138,42.3709470,-71.1143866
56,John F. Kennedy Street,02138,42.3717568,-71.1206338
10,Fawcett Street,02138,42.3898299,-71.1454935
115,Fawcett Street,02138,42.3928598,-71.1468521
10,Cogswell Avenue,02140,42.3911146,-71.1245312
12,Cogswell Avenue,02140,42.3910956,-71.1245501
14,Cogswell Avenue,02140,42.3910272,-71.1246207
16,Cogswell Avenue,02140,42.3910055,-71.1246430
18,Cogswell Avenue,02140,42.3909349,-71.1247148
20,Cogswell Avenue,02140,42.3909131,-71.1247379
22,Cogswell Avenue,02140,42.3907999,-71.1248796
24,Cogswell Avenue,02140,42.3907901,-71.1248896
26,Cogswell Avenue,02140,42.3907098,-71.1249722
28,Cogswell Avenue,02140,42.3907000,-71.1249823
30,Cogswell Avenue,02140,42.3906163,-71.1250682
32,Cogswell Avenue,02140,42.3906002,-71.1250848
147,Hampshire Street,02139,42.3712403,-71.0976195
1307,Cambridge Street,02139,42.3736634,-71.0994366
56,Walden Street,02140,42.3891808,-71.1247384
58,Walden Street,02140,42.3891710,-71.1247414
60,Walden Street,02140,42.3890457,-71.1248040
99,Richdale Avenue,02140,42.3889407,-71.1246589
97,Richdale Avenue,02140,42.3889100,-71.1245556
95,Richdale Avenue,02140,42.3888721,-71.1244951
93,Richdale Avenue,02140,42.3888655,-71.1244696
24,Peabody Terrace,02139,42.3662907,-71.1150625
23,Peabody Terrace,02139,42.3662901,-71.1149408
1,Walden Square Road,02140,42.3890849,-71.1320500
2,Walden Square Road,02140,42.3892664,-71.1320587
23,Mead Street,02140,42.3901466,-71.1252305
21,Mead Street,02140,42.3901337,-71.1251961
111,Harvard Street,02139,42.3650037,-71.0926700
1,Portland Street,02139,42.3616128,-71.0946321
1384,Massachusetts Avenue,02138,42.3733660,-71.1192176
907,Main Street,02139,42.3635515,-71.0996244
907,Main Street,02139,42.3636113,-71.0995133
287,Harvard Street,02139,42.3694032,-71.1045254
2000,Massachusetts Avenue,02140,42.3903396,-71.1215120
705,Cambridge Street,02141,42.3722628,-71.0884819
16,Cottage Street,02139,42.3626350,-71.1062939
18,Cottage Street,02139,42.3626915,-71.1063856
360,Binney Street,02142,42.3667807,-71.0896543
201,Third Street,02141,42.3676039,-71.0813081
121,Third Street,02141,42.3693510,-71.0804564
24,Emily Street,02139,42.3594729,-71.1039616
167,Sidney Street,02139,42.3586133,-71.1049965
99,Erie Street,02139,42.3589020,-71.1054781
94,Hampshire Street,02139,42.3688143,-71.0950428
175,Albany Street,02139,42.3597017,-71.0988917
2055,Massachusetts Avenue,02140,42.3914317,-71.1222553
2055,Massachusetts Avenue,02140,42.3912332,-71.1223685
127,Smith Place,02138,42.3938601,-71.1505557
13,Appian Way,02138,42.3753953,-71.1218908
59,Shepard Street,02138,42.3807913,-71.1248101
100,North First Street,02141,42.3719839,-71.0754661
100,North First Street,02141,42.3720512,-71.0755700
110,North First Street,02141,42.3721940,-71.0753297
100,Main Street,02142,42.3614311,-71.0825608
684,Massachusetts Avenue,02139,42.3656958,-71.1045587
228,Broadway,02139,42.3664162,-71.0942767
93,Moore Street,02139,42.3660904,-71.0937750
95,Moore Street,02139,42.3660995,-71.0937685
97,Moore Street,02139,42.3661195,-71.0937541
99,Moore Street,02139,42.3661310,-71.0937458
208,Windsor Street,02139,42.3663246,-71.0953835
214,Windsor Street,02139,42.3664211,-71.0953283
580,Massachusetts Avenue,02139,42.3646840,-71.1028966
605,Massachusetts Avenue,02139,42.3651657,-71.1029784
605,West Kendall Street,02142,42.3644151,-71.0820088
625,West Kendall Street,02142,42.3645097,-71.0819808
1050,Massachusetts Avenue,02138,42.3698353,-71.1130031
9,White Street,02140,42.3893414,-71.1193567
23,White Street,02140,42.3895879,-71.1189212
19,White Street,02140,42.3895327,-71.1190263
17,White Street,02140,42.3894890,-71.1191044
15,White Street,02140,42.3894576,-71.1191636
907,Main Street,02139,42.3635823,-71.0995809
726,Cambridge St,02141,42.3720473,-71.0888951
179,Sidney Street,02139,42.3583599,-71.1051603
1,Broadway,02142,42.3627427,-71.0839537
181,Morgan Avenue,02141,42.3719733,-71.0763153
238,Main Street,02142,42.3621768,-71.0850703
41,Second Street,02141,42.3699661,-71.0789734
1868,Massachusetts Avenue,02140,42.3880073,-71.1196008
245,First Street,02142,42.3636603,-71.0795415
270,Third Street,02142,42.3662101,-71.0819427
4,Pleasant Street,02139,42.3660494,-71.1055840
80,Broadway,02142,42.3635467,-71.0868604
618,Massachusetts Avenue,02139,42.3649824,-71.1034086
550,Massachusetts Avenue,02139,42.3644068,-71.1024387
101,Rogers Street,02142,42.3666151,-71.0827636
125,Cambridgepark Drive,02140,42.3950869,-71.1459939
628,Massachusetts Avenue,02139,42.3651606,-71.1037269
127,Smith Place,02138,42.3940038,-71.1515930
300,Mount Auburn Street,02138,42.3743812,-71.1333758
255,Main Street,02142,42.3625509,-71.0853345
113,First Street,02142,42.3671448,-71.0778794
270,Albany Street,02139,42.3578175,-71.1020568
144,Albany Street,02139,42.3600855,-71.0974523
105,Massachusetts Avenue,02139,42.3598175,-71.0929814
150,Broadway,02142,42.3642662,-71.0887198
55,Massachusetts Avenue,02139,42.3586169,-71.0928821
115,Broadway,02142,42.3650262,-71.0871140
325,Main Street,02142,42.3626409,-71.0867142
614,Massachusetts Avenue,02139,42.3649413,-71.1033470
1310,Cambridge Street,02139,42.3732736,-71.0995406
40,Inman Street,02139-2416,42.3686865,-71.1037742
276,Harvard Street,02139,42.3688535,-71.1035476
304,Prospect Street,02139,42.3727579,-71.0984598
603,Concord Avenue,02138,42.3891023,-71.1442986
1876,Massachusetts Avenue,02140,42.3882523,-71.1196371
7,Upland Road,02140,42.3882205,-71.1198443
344,Broadway,02139,42.3700979,-71.1033876
314,Main Street,02142,42.3622285,-71.0863681
33,Belmont Street,02138,42.3750162,-71.1516872
33,Belmont Street,02138,42.3750140,-71.1516324
33,Belmont Street,02138,42.3750004,-71.1514743
701,Mount Auburn Street,02138,42.3749706,-71.1495415
1253,Cambridge Street,02139,42.3735212,-71.0983446
344,Broadway,02139,42.3700884,-71.1034246
344,Broadway,02139,42.3700980,-71.1034411
344,Broadway,02139,42.3701056,-71.1034592
344,Broadway,02139,42.3701139,-71.1034790
344,Broadway,02139,42.3701236,-71.1034983
732,Cambridge Street,02141,42.3720849,-71.0890608
738,Cambridge Street,02141,42.3720939,-71.0891748
740,Cambridge Street,02141,42.3721038,-71.0892767
746,Cambridge Street,02141,42.3721157,-71.0893679
766,Marcella Street,02141,42.3721543,-71.0895946
766,Cambridge Street,02141,42.3721632,-71.0896683
825,Cambridge Street,02141,42.3727082,-71.0904339
1008,Cambridge Street,02141,42.3727121,-71.0938770
1000,Cambridge Street,02141,42.3726833,-71.0936140
873,Cambridge Street,02141,42.3726237,-71.0913959
2172,Massachusetts Avenue,02140,42.3924966,-71.1250695
10,Canal Park,02141,42.3685078,-71.0752942
325,Cambridge Street,02141,42.3713287,-71.0812563
24,John F. Kennedy Street,02138,42.3728528,-71.1197184
283;285,Broadway,02139,42.3683968,-71.0983415
536,Massachusetts Avenue,02139,42.3643035,-71.1022350
2530,Massachusetts Avenue,02140,42.3995436,-71.1334864
1030,Massachusetts Avenue,02138,42.3695287,-71.1121903
468,Broadway,02138,42.3739117,-71.1129540
225,Binney Street,02142,42.3663471,-71.0851776
71,Pearl Street,02139,42.3630489,-71.1045438
115,Ellery Street,02138,42.3745310,-71.1086060
188,Prospect Street,02139,42.3697505,-71.1001012
19,Tremont Street,02139,42.3699384,-71.0998470
104,Cherry Street,02139,42.3651611,-71.0969457
51,Vassar Street,02139,42.3615863,-71.0923522
6,Concord Lane,02138,42.3880061,-71.1423771
11,Divinity Avenue,02138,42.3782138,-71.1149279
201,Galileo Galilei Way,02142,42.3649341,-71.0890810
415,Main Street,02142,42.3628648,-71.0887717
2325,Massachusetts Avenue,02140,42.3958678,-71.1282507
77,Massachusetts Avenue,02139,42.3592593,-71.0933625
25,River Street,02139,42.3649031,-71.1062312
89A,Norfolk Street,02139,42.3664666,-71.1005522
38,Sidney Street,02139,42.3614731,-71.1008082
396,Harvard Street,02138,42.3717523,-71.1137113
1,Remington Street,02138,42.3710414,-71.1138836
23,Bay State Road,01238,42.3873856,-71.1401875
575,Memorial Drive,02139,42.3540964,-71.1054261
52,Mount Auburn Street,02138,42.3713992,-71.1174179
21,South Street,02138,42.3715389,-71.1204932
777,Memorial Drive,02139,42.3587663,-71.1149464
372,Memorial Drive,02139,42.3563391,-71.0964267
125,Cambridgepark Drive,02140,42.3950101,-71.1461192
151,Alewife Brook Parkway,02140,42.3934288,-71.1411579
153,Alewife Brook Parkway,02140,42.3935377,-71.1409728
30,Cambridgepark Drive,02140,42.3944241,-71.1425822
30,Cambridgepark Drive,02140,42.3945320,-71.1424480
5,Cambridgepark Drive,02140,42.3957444,-71.1414744
425,Massachusetts Avenue,02139,42.3636893,-71.1004218
69,Chestnut Street,02139,42.3564851,-71.1082368
52,John F. Kennedy Street,02138,42.3719275,-71.1204978
784,Memorial Drive,02139,42.3596835,-71.1153460
816,Memorial Drive,02139,42.3612162,-71.1155432
20,Second Street,02141,42.3706706,-71.0785195
24,Second Street,02141,42.3705907,-71.0785344
11,First Street,02141,42.3704653,-71.0771052
17,Otis Street,02141,42.3700832,-71.0773733
838,Massachusetts Avenue,02139,42.3671137,-71.1069917
460,Broadway,02138,42.3738070,-71.1127071
77,Massachusetts Avenue,02139,42.3591524,-71.0933119
3,Arrow Street,02138,42.3711977,-71.1146057
1230,Massachusetts Avenue,02138,42.3722616,-71.1158899
3,Brattle Street,02138,42.3735556,-71.1194963
249,Third Street,02142,42.3666428,-71.0820368
1206,Massachusetts Avenue,02138,42.3718450,-71.1152804
5,Arrow Street,02138,42.3712660,-71.1147192
655,Massachusetts Avenue,02139,42.3656352,-71.1037772
1132,Massachusetts Avenue,02318,42.3708313,-71.1141139
1120,Massachusetts Avenue,02318,42.3707184,-71.1139394
1134,Massachusetts Avenue,02318,42.3708639,-71.1141901
1156,Massachusetts Avenue,02138,42.3712477,-71.1145782
1160,Massachusetts Avenue,02138,42.3713068,-71.1146360
1280,Massachusetts Avenue,02138,42.3726863,-71.1167556
1270,Massachusetts Avenue,02138,42.3726128,-71.1165834
200,Elm Street,02140,42.3932191,-71.1209400
1374,Massachusetts Avenue,02138,42.3732999,-71.1190377
1380,Massachusetts Avenue,02138,42.3733301,-71.1190835
1380,Massachusetts Avenue,02138,42.3733500,-71.1192280
22,John F. Kennedy Street,02138,42.3729665,-71.1196344
15,John F. Kennedy Street,02138,42.3729652,-71.1199819
25,John F. Kennedy Street,02138,42.3729357,-71.1199889
9,John F. Kennedy Street,02138,42.3730050,-71.1199563
748,Memorial Drive,02139,42.3581395,-71.1141460
934,Massachusetts Avenue,02139,42.3685412,-71.1093987
28,DeWolfe Street,02138,42.3693421,-71.1168246
26,Plympton Street,02138,42.3717171,-71.1166957
10,Holyoke Place,02138,42.3711803,-71.1182938
60,Linnaean Street,02138,42.3812378,-71.1247296
95,Dunster Street,02138,42.3708142,-71.1204565
101,Dunster Street,02138,42.3703833,-71.1210270
32,Mill Street,02138,42.3703561,-71.1186456
945,Memorial Drive,02138,42.3687370,-71.1159247
64,Linnaean Street,02138,42.3817976,-71.1255514
10,Cowperthwaite Street,02138,42.3682469,-71.1158196
58,Plympton Street,02138,42.3706140,-71.1173810
56,Linnaean Street,02138,42.3821531,-71.1248416
1,Oxford Street,02138-2901,42.3768693,-71.1161412
325,Binney Street,02142,42.3672191,-71.0890415
174,Thorndike Street,02141,42.3703533,-71.0863254
38,Eighth Street,02141,42.3702205,-71.0864097
40,Eighth Street,02141,42.3701275,-71.0864332
15,Vandine Street,02141,42.3690663,-71.0909385
10,York Place,02141,42.3692167,-71.0908577
402,Massachusetts Avenue,02139,42.3632831,-71.1005292
204,Elm Street,02140,42.3936090,-71.1209163
52,Russell Street,02140,42.3936180,-71.1210206
148,Mount Auburn Street,02138,42.3740268,-71.1251030
32,Vassar Street,02139,42.3616394,-71.0911163
91,First Street,02141,42.3682922,-71.0776473
95,First Street,02141,42.3680450,-71.0776800
93,First Street,02141,42.3681758,-71.0776676
115,First Street,02142,42.3670210,-71.0779041
117,First Street,02142,42.3669083,-71.0779503
121,First Street,02142,42.3667876,-71.0779704
125,Mount Auburn Street,02138,42.3734975,-71.1228959
757,Cambridge Street,02141,42.3723424,-71.0892703
21,Ames Street,02142,42.3600946,-71.0898251
84,Massachusetts Avenue,02139,42.3590478,-71.0947711
70,Memorial Drive,02139,42.3605793,-71.0845448
50,Memorial Drive,02142,42.3607232,-71.0836480
30,Memorial Drive,02142,42.3611744,-71.0821672
3,Ames Street,02139,42.3604060,-71.0881373
450,Memorial Drive,02139,42.3554479,-71.0995284
32,Vassar Street,02139,42.3615403,-71.0906615
500,Memorial Drive,02139,42.3547179,-71.1018333
691,Huron Avenue,02138,42.3856725,-71.1554815
971,Memorial Drive,02138,42.3694244,-71.1221190
550,Memorial Drive,02139,42.3543503,-71.1034787
11;13;15,Audrey Street,02139,42.3549885,-71.1039104
290;292,Vassar Street,02139,42.3553795,-71.1039502
304,Vassar Street,02139,42.3549488,-71.1045984
600,Memorial Drive,02139,42.3539614,-71.1066353
351,Vassar Street,02139,42.3544970,-71.1069927
278;278R;280;282;282R,Vassar Street,02139,42.3554548,-71.1031531
284;286,Vassar Street,02139,42.3556272,-71.1036048
640,Memorial Drive,02139,42.3543674,-71.1094788
350,Brookline Street,02139,42.3554044,-71.1094842
120,Vassar Street,02139,42.3587179,-71.0957564
120,Massachusetts Avenue,02139,42.3596407,-71.0951869
50,Vassar Street,02139,42.3614417,-71.0916439
60,Vassar Street,02139,42.3607119,-71.0920198
378,Massachusetts Avenue,02139,42.3630072,-71.1001761
28,DeWolfe Street,02138,42.3693862,-71.1168004
5,Cowperthwaite Street,02138,42.3690324,-71.1154935
31;33,Putnam Avenue,02139,42.3689565,-71.1136757
2464,Massachusetts Avenue,02140,42.3983933,-71.1319086
13;15,Cameron Avenue,02140,42.3981605,-71.1296952
1,Cedar Street,02140,42.3976271,-71.1311345
2418,Massachusetts Avenue,02140,42.3973614,-71.1306473
2375,Massachusetts Avenue,02140,42.3970439,-71.1287711
2360,Massachusetts Avenue,02140,42.3962686,-71.1293854
"19,21",Dudley Street,02140,42.3963357,-71.1302277
34,Cedar Street,02140,42.3962235,-71.1306761
30,Cambridgepark Drive,02140,42.3940001,-71.1426865
2254,Massachusetts Avenue,02140,42.3942261,-71.1274435
2240,Massachusetts Avenue,02140,42.3938173,-71.1266904
157,Rindge Avenue,02140,42.3932374,-71.1308229
144,Pemberton Street,02140,42.3907763,-71.1293291
1920,Massachusetts Avenue,02140,42.3890416,-71.1200453
407,Concord Avenue,02138,42.3859324,-71.1380095
4,Washington Avenue,02138,42.3843816,-71.1222833
250,Fresh Pond Bikeway,02138,42.3829176,-71.1440312
77,Martin Street,02138,42.3825092,-71.1225403
8,Holly Avenue,02138,42.3824734,-71.1295890
124,Walker Street,02138,42.3822091,-71.1242579
80,Buckingham Street,02138,42.3807848,-71.1292586
37,Concord Avenue,02138,42.3802230,-71.1266325
33,Concord Avenue,02138,42.3800104,-71.1261451
35-39,Oxford Street,02138-1901,42.3793324,-71.1168524
26,Oxford Street,02138,42.3787473,-71.1153642
21,Divinity Avenue,02138,42.3785608,-71.1148137
14,Craigie Street,02138,42.3785353,-71.1275118
9,Concord Avenue,02138,42.3782079,-71.1228954
18,Craigie Street,02138,42.3781070,-71.1281092
3,Kennedy Road,02138,42.3780223,-71.1342917
19,Myrtle Avenue,02138,42.3770835,-71.1070597
105,Brattle Street,02138,42.3769724,-71.1263929
491,Broadway,02138-3824,42.3752444,-71.1146670
1610;1612,Cambridge Street,02138,42.3745962,-71.1088147
23;25;27;29,Ware Street,02138,42.3736824,-71.1127681
44,Bow Street,02138,42.3715847,-71.1172380
2,Holyoke Place,02138,42.3714564,-71.1178265
349,Broadway,02139,42.3704279,-71.1033254
1045,Massachusetts Avenue,02138,42.3701047,-71.1126463
8,Mill Street,02138,42.3698997,-71.1175142
2451,Massachusetts Avenue,02140,42.3985597,-71.1312506
2368,Massachusetts Avenue,02140,42.3966259,-71.1298465
165;181,Cambridgepark Drive,02140,42.3954330,-71.1472208
2;4;6,Crawford Street,02139,42.3711844,-71.1068686
250,Monsignor O'Brien Highway,02141,42.3731976,-71.0816559
1008,Cambridge Street,02141,42.3726647,-71.0938874
91;93;95,First Street,02141,42.3681834,-71.0777773
66,Garden Street,02138,42.3814293,-71.1267457
62,Linnaean Street,02138,42.3814045,-71.1248516
53,Shepard Street,02138,42.3807566,-71.1241237
27,Concord Avenue,02138,42.3794973,-71.1252682
26,Everett Street,02138-2701,42.3790154,-71.1178929
124,Lexington Avenue,02138,42.3789860,-71.1409464
1545,Massachusetts Avenue,02138-2903,42.3779737,-71.1185076
27,Craigie Street,02138,42.3783964,-71.1299805
16,Craigie Street,02138,42.3783975,-71.1278866
165,Brattle Street,02138,42.3774721,-71.1353796
14-16,Myrtle Avenue,02138,42.3771378,-71.1067438
6-8,Myrtle Avenue,02138,42.3769456,-71.1065531
45,Quincy Street,02138-3003,42.3760234,-71.1150770
8,Appian Way,02138,42.3750594,-71.1212225
7,Appian Way,02138,42.3749209,-71.1212046
1010,Memorial Drive,02138,42.3743590,-71.1325158
4,University Road,02138,42.3729907,-71.1228760
56,Gerry's Landing Road,02138,42.3726600,-71.1359932
334,Harvard Street,02109,42.3702277,-71.1084608
111,Plympton Street,02138,42.3699088,-71.1181232
16,Alberta Terrace,02140,42.3966252,-71.1303162
10,Moulton Street,02138,42.3897386,-71.1474638
136,Irving Street,02143,42.3807425,-71.1102841
7,Sumner Road,02138,42.3759005,-71.1128505
114,Inman Street,02139,42.3725760,-71.1006426
1035,Cambridge Street,02141,42.3735974,-71.0935309
239,Monsignor O'Brien Highway,02141,42.3735191,-71.0810542
757,Cambridge Street,02141,42.3724088,-71.0892537
189,Cambridge Street,02141,42.3710886,-71.0790595
2,Canal Park,02141,42.3701728,-71.0763187
41,Second Street,02141,42.3699409,-71.0797087
1,Canal Park,02141,42.3695530,-71.0767930
167,Harvard Street,02139,42.3662373,-71.0955009
1,Hampshire Street,02139,42.3654778,-71.0901856
205,Broadway,02139,42.3669932,-71.0934527
60,Albany Street,02139,42.3613003,-71.0940132
167,Albany Street,02139,42.3600476,-71.0987274
77,Vassar Street,02139,42.3607698,-71.0941648
844,Main Street,02139,42.3629985,-71.0985319
400,Technology Square,02139,42.3639747,-71.0919441
82,Richdale Avenue,02140,42.3885432,-71.1241183
"22,24",Alberta Terrace,02140,42.3965132,-71.1304921
69,River Street,02139,42.3645382,-71.1073467
248,River Street,02139,42.3627064,-71.1117376
13,Magazine Street,02139,42.3643183,-71.1056257
2480;2482,Massachusetts Avenue,02140,42.3987102,-71.1321609
335;345,Franklin Street,02139,42.3661505,-71.1075355
91,Sidney Street,02139,42.3607511,-71.1023741
156,Pemberton Street,02140,42.3908307,-71.1297799
332,Franklin Street,02139,42.3656695,-71.1075173
23,Sacramento Place,02138,42.3832200,-71.1171264
279,River Street,02139,42.3626469,-71.1129140
251,Pearl Street,02139,42.3586834,-71.1094588
28,DeWolfe Street,02138,42.3692920,-71.1160749
2443,Massachusetts Avenue,02140,42.3982230,-71.1307607
27,Norris Street,02140,42.3955984,-71.1297680
33-35,Cushing Street,02138,42.3758785,-71.1509946
250,River Street,02139,42.3626643,-71.1118690
52,Cedar Street,02140,42.3947266,-71.1306703
48,Cedar Street,02140,42.3951620,-71.1306654
10,Magazine Street,02139,42.3646124,-71.1046397
229,Vassar Street,02139,42.3571149,-71.1015187
"47,49",Norris Street,02140,42.3952458,-71.1303635
6,Holly Avenue,02138,42.3824428,-71.1294708
48,Russell Street,02140,42.3931761,-71.1211602
1753,Massachusetts Avenue,02140,42.3849994,-71.1190798
29,Hews Street,02139,42.3653628,-71.1130342
20,Madison Street,02138,42.3822775,-71.1288608
15,Mount Vernon Street,02140,42.3875066,-71.1199961
54,Cedar Street,02140,42.3944491,-71.1306401
250,Western Avenue,02139,42.3645078,-71.1116662
8,Inman Street,02139,42.3668036,-71.1049830
220,Alewife Brook Parkway,02138,42.3886109,-71.1421979
30,Dudley Street,02140,42.3959298,-71.1301788
22,Dudley Street,02140,42.3959953,-71.1300248
8,Howard Street,02139,42.3638283,-71.1103972
206,Western Avenue,02139,42.3644828,-71.1103448
66;68,Pearl Street,02139,42.3631662,-71.1040600
34,William Street,02139,42.3635911,-71.1069458
4;6,Douglass Street,02139,42.3641431,-71.1007153
219,Concord Avenue,02138,42.3828271,-71.1313988
665,Concord Avenue,02138,42.3901798,-71.1493899
25,River Street,02139,42.3648982,-71.1062434
"15,17",Dudley Street,02140,42.3964057,-71.1301207
205,Walden Street,02140,42.3870872,-71.1296745
51,Cottage Street,02139,42.3640022,-71.1079670
151,Clark Street,02139,42.3665718,-71.0945071
5,Dickinson Street,02139,42.3662284,-71.0940482
362,Memorial Drive,02139,42.3566548,-71.0958034
409,Memorial Drive,02139,42.3553153,-71.0968206
205,Broadway,02139,42.3665636,-71.0928910
500,Technology Square,02139,42.3633877,-71.0925831
105,Broadway,02142,42.3643732,-71.0874712
40,Massachusetts Avenue,02139,42.3582677,-71.0935366
32,Albany Street,02139,42.3620269,-71.0927760
131,Washington Street,02139,42.3647774,-71.0945333
350,Main Street,02139,42.3622337,-71.0872547
750,Main Street,02139,42.3628248,-71.0962406
117,Rogers Street,02142,42.3668189,-71.0826812
222,Third Street,02142,42.3670606,-71.0802973
195,Binney Street,02142,42.3662085,-71.0832224
6,Dickinson Street,02139,42.3660704,-71.0941029
218,Broadway,02139,42.3663243,-71.0938735
141;143,Clark Street,02139,42.3664356,-71.0945840
210,Broadway,02139,42.3659202,-71.0935066
730,Main Street,02139,42.3629247,-71.0955716
236,Broadway,02139,42.3667013,-71.0949025
58,Norris Street,02140,42.3948161,-71.1304051
38,Russell Street,02140,42.3929550,-71.1217940
15,Everett Street,02138-2742,42.3802070,-71.1186680
45,Norris Street,02140,42.3952944,-71.1302653
9;11,Merrill Street,02139,42.3715427,-71.1078057
278,Harvard Street,02139,42.3688928,-71.1039656
104,Western Avenue,02139,42.3648175,-71.1078286
43,Cottage Street,02139,42.3637714,-71.1075128
831,Massachusetts Avenue,02139,42.3672816,-71.1063870
44,Russell Street,02140,42.3930090,-71.1212968
234,Franklin Street,02139,42.3638203,-71.1044383
58,Plympton Street,02138,42.3707120,-71.1167162
25,Craigie Street,02138,42.3784395,-71.1295063
340,Putnam Avenue,02139,42.3615004,-71.1132900
118,Kinnaird Street,02139,42.3678934,-71.1128813
256,Concord Avenue,02138,42.3831330,-71.1329444
22,Craigie Street,02138,42.3781721,-71.1285826
40,Norris Street,02140,42.3951738,-71.1297315
244,River Street,02139,42.3627728,-71.1115731
35,Cambridgepark Drive,02140,42.3949881,-71.1435330
"16,16A,18,20,20A",Jay Street,02139,42.3646221,-71.1096972
258,River Street,02139,42.3626322,-71.1120896
1515,Massachusetts Avenue,02138-2903,42.3769962,-71.1195574
35;37,Magazine Street,02139,42.3633552,-71.1068228
23,Howard Street,02139,42.3643533,-71.1109175
12;14,Jay Street,02139,42.3644040,-71.1096223
"19,21",Jay Street,02139,42.3646418,-71.1100229
58,Plympton Street,02138,42.3705297,-71.1173018
1-7,Hancock Place,02139,42.3695764,-71.1070945
57,Norris Street,02140,42.3950923,-71.1305370
107,Walker Street,02138,42.3818839,-71.1233634
15,Craigie Street,02138,42.3789716,-71.1277896
10,Gilmore Street,02139,42.3643201,-71.1113009
36,William Street,02139,42.3637303,-71.1068514
325,Franklin Street,02139,42.3658858,-71.1070429
33,Kirkland Street,02138,42.3771766,-71.1134529
2225,Massachusetts Avenue,02140,42.3939217,-71.1255363
31,Concord Avenue,02138,42.3798750,-71.1259576
15,Concord Avenue,02138,42.3790075,-71.1244973
6;8,Gilmore Street,02139,42.3644005,-71.1113493
56,Norris Street,02140,42.3948873,-71.1302953
11,Garden Street,02138,42.3766012,-71.1229971
295,Harvard Street,02139,42.3698121,-71.1051767
11,Quincy Street,02138,42.3727542,-71.1154801
1511,Massachusetts Avenue,02138-2903,42.3766971,-71.1192582
75,Sparks Street,02138,42.3799231,-71.1318292
143,Pemberton Street,02140,42.3904729,-71.1293871
33,Oxford Street,02138-2933,42.3787880,-71.1173028
23,Bay State Road,01238,42.3874282,-71.1401692
1725,Massachusetts Avenue,02138,42.3840595,-71.1191131
35,Norris Street,02140,42.3954684,-71.1299697
23,Norris Street,02140,42.3956673,-71.1296408
1712,Massachusetts Avenue,02138,42.3835247,-71.1198796
148,River Street,02139,42.3635786,-71.1092120
5,Exeter Park,02140-2215,42.3849098,-71.1184588
15,Notre Dame Avenue,02140,42.3928078,-71.1312856
1683,Cambridge Street,02138,42.3752840,-71.1113447
48;50;52;54;56,Linnaean Street,02138,42.3825174,-71.1251821
517;527,Concord Avenue,02138,42.3878457,-71.1422941
114,Western Avenue,02139,42.3647895,-71.1079980
45,Matignon Road,02140,42.4023456,-71.1326820
34,Kirkland Street,02138,42.3765409,-71.1130866
131,Sherman Street,02140,42.3901972,-71.1328631
688,Huron Avenue,02138,42.3802357,-71.1542330
340,River Street,02139,42.3609980,-71.1139551
13,Norris Street,02140,42.3958639,-71.1293209
27,Kirkland Street,02138,42.3769667,-71.1143320
225,Walden Street,02140,42.3868204,-71.1304628
24,Cameron Avenue,02140,42.3980592,-71.1291475
241,River Street,02139,42.3629960,-71.1118718
18,Kinnaird Street,02139,42.3647603,-71.1087825
63,Norris Street,02140,42.3949521,-71.1306990
27;31,Linnaean Street,02138,42.3841356,-71.1227796
33,Norris Street,02140,42.3955428,-71.1298874
2;4,Malcolm Road,02138,42.3815297,-71.1397096
1,Craigie Street,02138,42.3794063,-71.1262208
46,Linnaean Street,02138,42.3827687,-71.1246628
9,Reservoir Street,02138,42.3789439,-71.1369824
11,Magazine Street,02139,42.3643934,-71.1055594
122,Kinnaird Street,02139,42.3679178,-71.1129882
13,Howard Street,02139,42.3640007,-71.1108533
1350,Massachusetts Avenue,02138,42.3726132,-71.1186091
50,Quincy Street,02138,42.3764989,-71.1135328
14,Sumner Road,02138,42.3761954,-71.1122577
1730,Cambridge Street,02138,42.3750326,-71.1131369
9-13,Ware Street,02138,42.3727658,-71.1133349
1;3;5,Crawford Street,02139,42.3713346,-71.1072496
321,Harvard Street,02139,42.3704017,-71.1073316
1310,Cambridge Street,02139,42.3733419,-71.0994627
250,Webster Avenue,02141,42.3723592,-71.0943137
52,Plymouth Street,02141,42.3689708,-71.0928876
40,40;Edwin Land Boulevard,02142,42.3665619,-71.0751691
232,Broadway,02139,42.3666230,-71.0946048
228,Broadway,02139,42.3663569,-71.0943137
120,Broadway,02142,42.3638906,-71.0881057
26,Landsdowne Street,02139,42.3608326,-71.0987845
155,Massachusetts Avenue,02139,42.3608749,-71.0954442
3R,Ames Street,02139,42.3602229,-71.0886791
729;731;735;739;743;751,Massachusetts Avenue,02139,42.3664983,-71.1050279
32;34,Soden Street,02139,42.3662521,-71.1084962
36,Howard Street,02139,42.3652785,-71.1106515
138,Western Avenue,02139,42.3647531,-71.1085851
26,Pleasant Street,02139,42.3647141,-71.1072078
15;17,Kinnaird Street,02139,42.3646258,-71.1091352
25;27,Howard Street,02139,42.3644388,-71.1109363
248,Franklin Street,02139,42.3640661,-71.1047343
35,William Street,02139,42.3639700,-71.1065044
47,Cottage Street,02139,42.3638631,-71.1077078
25,Magazine Street,02139,42.3638828,-71.1060602
143;147,River Street,02139,42.3638645,-71.1093980
1,Jay Street,02139,42.3636296,-71.1098762
160,River Street,02139,42.3634189,-71.1095937
35,Brookline Street,02139,42.3631087,-71.1024776
247,River Street,02139,42.3631240,-71.1120600
281,River Street,02139,42.3626147,-71.1130278
80,Landsdowne Street,02139,42.3601266,-71.1002525
790,Memorial Drive,02139,42.3600877,-71.1148445
784,Memorial Drive,02139,42.3596900,-71.1152645
230,Albany Street,02139,42.3585935,-71.1005249
235,Albany Street,02139,42.3587657,-71.1013865
748,Memorial Drive,02139,42.3582614,-71.1142037
270,Albany Street,02139,42.3576723,-71.1019113
201,Vassar Street,02139,42.3581123,-71.0995398
60,Bishop Allen Drive,02139,42.3647796,-71.1008707
2400,Massachusetts Avenue,02140,42.3971105,-71.1303867
14,Alberta Terrace,02140,42.3966786,-71.1302204
23,Dudley Street,02140,42.3962676,-71.1303411
2323;2325;2327;2329;2331;2333;2335;2337,Massachusetts Avenue,02140,42.3959796,-71.1283100
2336,Massachusetts Avenue,02140,42.3957664,-71.1288431
2309,Massachusetts Avenue,02140,42.3956994,-71.1277319
20,Norris Street,02140,42.3955060,-71.1292144
24,Norris Street,02140,42.3954210,-71.1293478
1,Drummond Place,02140,42.3948987,-71.1299645
2,Drummond Place,02140,42.3948044,-71.1299327
60,Norris Street,02140,42.3947903,-71.1304955
168,Alewife Brook Parkway,02138,42.3912761,-71.1381410
160,Pemberton Street,02140,42.3908570,-71.1299461
113,Garden Street,02138,42.3842463,-71.1298533
41;43,Linnaean Street,02138,42.3836744,-71.1242174
103,Walker Street,02138,42.3817095,-71.1232186
41,Concord Avenue,02138,42.3803316,-71.1269786
27,Everett Street,02138-2724,42.3801310,-71.1176155
35,Concord Avenue,02138,42.3801054,-71.1264016
70,Sparks Street,02138,42.3798427,-71.1306700
29,Concord Avenue,02138,42.3796404,-71.1256408
19,Concord Avenue,02138,42.3792075,-71.1249656
64,Sparks Street,02138,42.3790506,-71.1305760
23,Berkeley Street,02138,42.3789864,-71.1263499
1563,Massachusetts Avenue,02138-2903,42.3786011,-71.1196094
10,Craigie Street,02138,42.3786513,-71.1271781
21,Craigie Street,02138,42.3786074,-71.1286611
14,Concord Avenue,02138,42.3786311,-71.1246927
2,Divinity Avenue,02138,42.3776973,-71.1137358
161,Brattle Street,02138,42.3775940,-71.1346520
1,Francis Avenue,02138,42.3774628,-71.1121553
18-20,Myrtle Avenue,02138,42.3772344,-71.1068357
1515,Massachusetts Avenue,02138-2903,42.3770953,-71.1187879
64,Aberdeen Avenue,02138,42.3769059,-71.1468845
27,Irving Terrace,02138,42.3760726,-71.1118855
11,Sumner Road,02138,42.3761342,-71.1128302
12,Sumner Road,02138,42.3760200,-71.1123137
6,Sumner Road,02138,42.3757818,-71.1124049
1737,Cambridge Street,02138,42.3756462,-71.1132532
1341,Massachusetts Avenue,02138,42.3734023,-71.1181210
20,Quincy Street,02138,42.3732468,-71.1143035
12,Quincy Street,02138,42.3726192,-71.1145173
980,Memorial Drive,02138,42.3722891,-71.1246602
25,Mount Auburn Street,02138,42.3709903,-71.1149097
17;27,Harvey Street,02140,42.3973397,-71.1311319
26,Cedar Street,02140,42.3964567,-71.1306869
20,Sumner Road,02138,42.3765767,-71.1122125
1611,Cambridge Street,02138,42.3750897,-71.1084419
449,Broadway,02138,42.3739938,-71.1105240
239,Harvard Street,02139,42.3682621,-71.1008965
350,Massachusetts Avenue,02139,42.3624892,-71.0996206
185,Albany Street,02139,42.3597180,-71.0995635
1033,Massachusetts Avenue,02138,42.3698685,-71.1120542
51,Inman Street,02139,42.3696223,-71.1035058
1000,Massachusetts Avenue,02138,42.3687994,-71.1108603
928,Massachusetts Avenue,02139,42.3683961,-71.1091964
60,Albany Street,02139,42.3612473,-71.0943454
155,Gore Street,02141,42.3730125,-71.0845841
216,Windsor Street,02139,42.3665299,-71.0954686
11;13,Oakland Street,02139,42.3740945,-71.0992539
101,Third Street,02141,42.3698180,-71.0803770
67;67A;67B;69,Hampshire Street,02139,42.3678505,-71.0933133
250,Bent Street,02141,42.3670800,-71.0847236
2500,Massachusetts Avenue,02140,42.3989592,-71.1325685
7,Cameron Avenue,02140,42.3981279,-71.1301502
2326,Massachusetts Avenue,02140,42.3956502,-71.1286631
16,Norris Street,02140,42.3955705,-71.1290963
41,Norris Street,02140,42.3953409,-71.1301672
52,Norris Street,02140,42.3949446,-71.1301943
50,Russell Street,02140,42.3933744,-71.1211848
164,Pemberton Street,02140,42.3908964,-71.1300770
148,Pemberton Street,02140,42.3907904,-71.1294732
70,Richdale Avenue,02140,42.3884967,-71.1238272
1876,Massachusetts Avenue,02140,42.3882873,-71.1197746
88,Garden Street,02138,42.3829828,-71.1280298
159,Concord Avenue,02138,42.3821346,-71.1299868
64,Linnaean Street,02138,42.3821254,-71.1259137
5,Clement Circle,02138,42.3816462,-71.1313038
100,Concord Avenue,02138,42.3815197,-71.1300107
52,Concord Avenue,02138,42.3806462,-71.1283571
1575,Massachusetts Avenue,02138-2801,42.3786431,-71.1181262
15,Kennedy Road,02138,42.3783307,-71.1350524
20,Craigie Street,02138,42.3782858,-71.1283096
10-12,Myrtle Avenue,02138,42.3770467,-71.1066427
21,Kirkland Street,02138,42.3768096,-71.1150348
17,Sumner Road,02138,42.3763349,-71.1127889
14,Appian Way,02138,42.3754210,-71.1212915
65,Mount Auburn Street,02138,42.3720434,-71.1180441
2,Ware Street,02138,42.3720131,-71.1130885
13;15;21,Bow Street,02138,42.3717587,-71.1165177
20,DeWolfe Street,02138,42.3700714,-71.1164675
344,Broadway,02139,42.3699873,-71.1034614
16,Cameron Avenue,02140,42.3979590,-71.1293689
311,Broadway,02139,42.3693970,-71.1002732
15,Vandine Street,02141,42.3691395,-71.0908971
68,Albany Street,02139,42.3609524,-71.0952049
28,Elm Street,02139,42.3678271,-71.0982169
810,Main Street,02139,42.3629253,-71.0976675
15,Lambert Street,02141,42.3727416,-71.0871278
158,Hampshire Street,02139,42.3715006,-71.0984274
34,Lopez Street,02139,42.3615119,-71.1051621
345;347;349;351,Cambridge Street,02141,42.3714935,-71.0818262
19,Clary Street,02139,42.3742863,-71.0984737
9,Oakland Street,02139,42.3739716,-71.0991891
287,Prospect Street,02139,42.3725388,-71.0990853
147,Hampshire Street,02139,42.3719966,-71.0973664
325,Cambridge Street,02141,42.3714284,-71.0812418
288,Norfolk Street,02139,42.3712821,-71.0971065
1,Leighton Street,02141,42.3699481,-71.0730995
339;341,Cardinal Medeiros Avenue,02141,42.3700219,-71.0898947
104,Thorndike Street,02141,42.3698311,-71.0827783
158,Spring Street,02141,42.3694519,-71.0866003
5,Union Street,02139,42.3687726,-71.0960451
655,Concord Avenue,02138,42.3901950,-71.1489443
53,Putnam Avenue,02139,42.3684436,-71.1137756
2,Bond Street,02138,42.3804399,-71.1271533
44,Francis Avenue,02138,42.3804193,-71.1122791
165,Pleasant Street,02139,42.3598454,-71.1138904
50,Concord Avenue,02138,42.3805205,-71.1282428
167,Brattle Street,02138,42.3774265,-71.1357386
90,Western Avenue,02139,42.3648510,-71.1074548
15,Jay Street,02139,42.3643939,-71.1100288
151,Pemberton Street,02140,42.3905205,-71.1296280
1075,Massachusetts Avenue,02138,42.3704091,-71.1130569
80,Sparks Street,02138,42.3807645,-71.1310573
53,Antrim Street,02139,42.3716763,-71.1031537
254,Franklin Street,02139,42.3641432,-71.1048883
158,Western Avenue,02139,42.3647390,-71.1091701
52,Mount Auburn Street,02138,42.3712515,-71.1174051
30,River Street,02139,42.3646703,-71.1059224
335,Huron Avenue,02138,42.3814611,-71.1378062
16,Garden Street,02138,42.3772703,-71.1232971
1,Remington Street,02138,42.3710923,-71.1137817
18;20,Cameron Avenue,02140,42.3980025,-71.1292836
150,Erie Street,02139,42.3593146,-71.1070176
86,Richdale Avenue,02140,42.3885664,-71.1242624
275,Prospect Street,02139-1217,42.3722358,-71.0993904
233,River Street,02139,42.3630444,-71.1116168
17,Concord Avenue,02138,42.3791327,-71.1248102
12,Holyoke Street,02138,42.3724864,-71.1179480
"48,50",Norris Street,02140,42.3950022,-71.1300700
2245,Massachusetts Avenue,02140,42.3942968,-71.1261795
21,Howard Street,02139,42.3642769,-71.1108895
17,Howard Street,02139,42.3641401,-71.1108682
136,Magazine Street,02139,42.3585816,-71.1113345
1651,Massachusetts Avenue,02138-2706,42.3813763,-71.1192348
27,Pleasant Street,02139,42.3647036,-71.1076676
1679,Massachusetts Avenue,02138,42.3824312,-71.1192725
17,Quincy Street,02138,42.3734958,-71.1152845
14,Cameron Avenue,02140,42.3979020,-71.1294223
159,Pemberton Street,02140,42.3905815,-71.1299030
113,Brattle Street,02138,42.3771408,-71.1270002
19,Craigie Street,02138,42.3787759,-71.1283382
12,Gilmore Street,02139,42.3640431,-71.1112543
176,River Street,02139,42.3632590,-71.1100117
234;236,Western Avenue,02139,42.3645504,-71.1112218
14,Howard Street,02139,42.3640673,-71.1104265
64,Linnaean Street,02138,42.3814390,-71.1257536
91,Walker Street,02138,42.3812522,-71.1228600
14,Magazine Street,02139,42.3642228,-71.1050969
116,Kinnaird Street,02139,42.3678070,-71.1126541
96,Concord Avenue,02138,42.3811152,-71.1295706
49,Cottage Street,02139,42.3639660,-71.1077880
11,Dudley Street,02140,42.3964759,-71.1300042
730,Memorial Drive,02139,42.3571667,-71.1143026
37,Cottage Street,02139,42.3635485,-71.1071790
22,Sherman Street,02138,42.3848765,-71.1298942
64,Linnaean Street,02138,42.3813885,-71.1253153
1050,Massachusetts Avenue,02138,42.3697934,-71.1129906
402,Massachusetts Avenue,02139,42.3631375,-71.1004816
23,Craigie Street,02138,42.3785088,-71.1290430
30,Cedar Street,02140,42.3963414,-71.1306770
11,Howard Street,02139,42.3639428,-71.1108542
46,Concord Avenue,02138,42.3805103,-71.1280098
54,Linnaean Street,02138,42.3820766,-71.1247686
1972;1986,Massachusetts Avenue,02140,42.3900417,-71.1211143
164;164A,Hampshire Street,02139,42.3717524,-71.0987138
4,Museum Way,02141,42.3692393,-71.0721975
789,Main Street,02139,42.3634965,-71.0969721
15,Vassar Street,02139,42.3624260,-71.0906596
311;312,Memorial Drive,02139,42.3572508,-71.0938132
134,Massachusetts Avenue,02139,42.3598230,-71.0960452
150,Broadway,02142,42.3642944,-71.0890059
700,Main Street,02139,42.3624332,-71.0950868
5;7,Oakland Street,02139,42.3738891,-71.0992066
77,Columbia Street,02139,42.3653770,-71.0990082
21;23,Bishop Allen Drive,02139,42.3639256,-71.0988731
216,Broadway,02139,42.3662956,-71.0937736
285,Third Street,02142,42.3649118,-71.0837489
145,Brattle Street,02138,42.3782281,-71.1307454
6,Beech Street,02140,42.3904967,-71.1204015
1,Education Street,02141,42.3699854,-71.0706400
29,Pleasant Street,02139,42.3646181,-71.1078065
348,Franklin Street,02139,42.3659392,-71.1079104
43,Upland Road,02140,42.3881471,-71.1212253
10,DeWolfe Street,02138,42.3704618,-71.1161903
321,Franklin Street,02139,42.3657628,-71.1069279
51,Shepard Street,02138,42.3810474,-71.1234842
1585,Massachusetts Avenue,02138-2801,42.3790788,-71.1191452
218;220;222,Western Avenue,02139,42.3645789,-71.1109146
38,Kirkland Street,02138,42.3766095,-71.1126296
61,Kirkland Street,02138,42.3779388,-71.1102487
158,River Street,02139,42.3634589,-71.1094816
11,Kennedy Road,02138,42.3779557,-71.1348114
33,Matignon Road,02140,42.4018903,-71.1322106
1686,Massachusetts Avenue,02138,42.3826163,-71.1199710
19,Quincy Street,02138,42.3738642,-71.1152106
2130,Massachusetts Avenue,02140,42.3917488,-71.1244043
1555,Massachusetts Avenue,02138,42.3779336,-71.1196935
123,Amory Street,02139,42.3722981,-71.1006192
1151,Massachusetts Avenue,02138,42.3716818,-71.1142392
162,Western Avenue,02139,42.3647266,-71.1092910
39,William Street,02139,42.3640745,-71.1067187
161,Garden Street,02140,42.3858776,-71.1323518
28,DeWolfe Street,02138,42.3698011,-71.1170537
115,River Street,02139,42.3641458,-71.1085714
9,Doane Street,02138,42.3759560,-71.1316580
100a;102,Hampshire Street,02139,42.3691424,-71.0954947
36,Cedar Street,02140,42.3960316,-71.1306936
1727,Cambridge Street,02138,42.3754917,-71.1128657
20,Alberta Terrace,02140,42.3965696,-71.1304099
115,Prospect Street,02139,42.3680875,-71.1023966
25;26;27;28;29;30;31;32;33;34,Peabody Terrace,02139,42.3662664,-71.1154616
245,Concord Avenue,02138,42.3833739,-71.1325764
"605,609",Putnam Avenue,02139,42.3564399,-71.1066673
41,William Street,02139,42.3641500,-71.1069146
17,Norris Street,02140,42.3957640,-71.1294687
102,Western Avenue,02139,42.3648431,-71.1077268
40,Russell Street,02140,42.3930400,-71.1216352
5,Magazine Street,02139,42.3648451,-71.1051511
65,Landsdowne Street,02139,42.3606249,-71.1007375
18;20;22;24;26,Lee Street,02139,42.3685625,-71.1067151
237,Elm Street,02139,42.3723990,-71.0959180
208,Western Avenue,02139,42.3646065,-71.1104344
8,Holyoke Street,02138,42.3726793,-71.1179528
120,Broadway,02142,42.3697192,-71.1047407
15,Madison Street,02138,42.3822511,-71.1293588
1010,Massachusetts Avenue,02138,42.3692124,-71.1118478
48,Quincy Street,02138,42.3758937,-71.1138597
228;230,Western Avenue,02139,42.3645574,-71.1110975
777,Memorial Drive,02139,42.3586165,-71.1149760
77,Sparks Street,02138,42.3802153,-71.1319600
2,Garden Street,02138,42.3756668,-71.1208257
534;536;538,Massachusetts Avenue,02139,42.3642313,-71.1023015
133,River Street,02139,42.3639511,-71.1090522
428;434;438;440,Massachusetts Avenue,02139,42.3633981,-71.1009294
9,Howard Street,02139,42.3638699,-71.1108766
147,Pemberton Street,02140,42.3904926,-71.1295088
76,Prospect Street,02139,42.3668238,-71.1023805
15,Howard Street,02139,42.3640714,-71.1108880
22;24,Pleasant Street,02139,42.3649137,-71.1069639
34,River Street,02139,42.3645969,-71.1061278
44,William Street,02139,42.3639073,-71.1071850
130,Waverly Street,02139,42.3571197,-71.1048097
8,Hampshire Street,02139,42.3657084,-71.0913398
2-56,Erie Street,02139,42.3565932,-71.1042653
32,Brookline Street,02139,42.3563934,-71.1093968
300,Technology Square,02139,42.3633355,-71.0916120
4,Dickinson Street,02139,42.3661226,-71.0942079
259,Charles Street,02141,42.3687656,-71.0867036
10,Montague Street,02139,42.3636236,-71.1120065
410R,Memorial Drive,02139,42.3569792,-71.0973465
238,Main Street,02142,42.3620637,-71.0847290
360,Binney Street,02142,42.3664414,-71.0898665
250,Massachusetts Avenue,02139,42.3611126,-71.0978927
220,Broadway,02139,42.3663641,-71.0939482
212,Windsor Street,02139,42.3664244,-71.0954916
7,Green Street,02139,42.3615859,-71.0984333
874,Main Street,02139,42.3631837,-71.0990044
46,Lee Street,02139,42.3702471,-71.1051072
82,School Street,02139,42.3638355,-71.0980655
1,State Street,02139,42.3630055,-71.0988411
35,Cottage Street,02139,42.3634715,-71.1070767
17,Jay Street,02139,42.3645184,-71.1100053
200,Sidney Street,02139,42.3577148,-71.1049265
268,River Street,02139,42.3625044,-71.1124157
18,Howard Street,02139,42.3642910,-71.1105031
13,Pleasant Street,02139,42.3657518,-71.1064722
295,River Street,02139,42.3625741,-71.1131549
34,Howard Street,02139,42.3651860,-71.1106392
518,Putnam Avenue,02139,42.3580232,-71.1088264
177,River Street,02139,42.3635849,-71.1102415
12,Emily Street,02139,42.3595598,-71.1047234
129,Franklin Street,02139,42.3627679,-71.1014419
795,Massachusetts Avenue,02139,42.3671312,-71.1056551
820,Memorial Drive,02139,42.3618101,-71.1156649
12,Kinnaird Street,02139,42.3644872,-71.1087092
168,Western Avenue,02139,42.3646933,-71.1094216
770,Massachusetts Avenue,02139,42.3663491,-71.1060472
8,Kinnaird Street,02139,42.3643734,-71.1087516
219,Vassar Street,02139,42.3577144,-71.1004084
188,Auburn Street,02139,42.3639792,-71.1059707
179,Sidney Street,02139,42.3583977,-71.1051995
651,Concord Avenue,02138,42.3903895,-71.1485847
40;42,William Street,02139,42.3638444,-71.1070273
25R,Kelly Road,02139,42.3626863,-71.1090641
168,River Street,02139,42.3633409,-71.1097798
19,Howard Street,02139,42.3641960,-71.1109087
222,River Street,02139,42.3629217,-71.1111803
148,Sidney Street,02139,42.3588574,-71.1038092
12,Howard Street,02139,42.3639351,-71.1103918
245,River Street,02139,42.3632395,-71.1119099
20,Corporal McTernan Street,02139,42.3608820,-71.1079539
73,Pleasant Street,02139,42.3627802,-71.1101573
62,River Street,02139,42.3643287,-71.1069892
100,Western Avenue,02139,42.3648552,-71.1076220
769,Memorial Drive,02139,42.3580519,-71.1158922
16,Kinnaird Street,02139,42.3646559,-71.1087687
183,River Street,02139,42.3635191,-71.1104011
258;260,Western Avenue,02139,42.3644929,-71.1118052
153,River Street,02139,42.3638040,-71.1095347
45;47,William Street,02139,42.3642513,-71.1070901
194,Western Avenue,02139,42.3646145,-71.1101612
142,Waverly Street,02139,42.3557173,-71.1063356
199,Auburn Street,02139,42.3643813,-71.1060249
459,Putnam Avenue,02139,42.3587960,-71.1108934
16,Howard Street,02139,42.3642002,-71.1104620
69,Chestnut Street,02139,42.3565379,-71.1081936
124,Western Avenue,02139,42.3647031,-71.1082785
200;202,Auburn Street,02139,42.3642273,-71.1064336
9,Magazine Street,02139,42.3645269,-71.1054427
22,Howard Street,02139,42.3644756,-71.1105422
240,Franklin Street,02139,42.3639438,-71.1045965
27;29,William Street,02139,42.3638090,-71.1062533
224,Albany Street,02139,42.3586504,-71.0999609
36;38;40,Valentine Street,02139,42.3605338,-71.1066275
56,Magazine Street,02139,42.3621873,-71.1073244
25,Orchard Street,02140,42.3909474,-71.1195671
27,Dudley Street,02140,42.3961673,-71.1304708
"26,28,30,32,34",Second Street,02141,42.3703166,-71.0785107
12,Norris Street,02140,42.3956438,-71.1290057
20,Howard Street,02139,42.3643839,-71.1105192
35,Quincy Street,02138,42.3747229,-71.1149582
32,Elm Street,02139,42.3679058,-71.0982094
39,Matignon Road,02140,42.4020362,-71.1320693
6,Divinity Avenue,02138,42.3780876,-71.1139374
163,Brattle Street,02138,42.3776004,-71.1350762
204;206;208;210,River Street,02139,42.3630506,-71.1107274
134,Norfolk Street,02139,42.3675212,-71.1001915
226,River Street,02139,42.3628589,-71.1113223
362,Green Street,02139,42.3654544,-71.1056398
173,Pleasant Street,02139,42.3594111,-71.1141690
206,Auburn Street,02139,42.3642774,-71.1065250
14,Pleasant Street,02139,42.3655769,-71.1061419
99,Prospect Street,02139,42.3678507,-71.1027888
175,River Street,02139,42.3636056,-71.1100802
28,DeWolfe Street,02138,42.3695896,-71.1164080
204,Pearl Street,02139,42.3596954,-71.1078474
15A,Madison Street,02138,42.3823285,-71.1292712
17,Laurel Street,02139,42.3629740,-71.1106194
270,Green Street,02139,42.3642866,-71.1042121
192;194,Auburn Street,02139,42.3640541,-71.1060980
191,Monsignor O'Brien Highway,02141,42.3722892,-71.0786278
2-4,Hancock Place,02139,42.3696687,-71.1068087
71,Tremont Street,02139,42.3724924,-71.0976690
9,Oxford Street,02138-2901,42.3772298,-71.1163532
62,Sparks Street,02138,42.3788529,-71.1304249
2,Highland Street,02138,42.3793127,-71.1315043
196,Auburn Street,02139,42.3641352,-71.1062513
838,Massachusetts Avenue,02139,42.3670899,-71.1070390
152,Pemberton Street,02140,42.3908165,-71.1296297
11;13,Kinnaird Street,02139,42.3644513,-71.1091485
155,Pemberton Street,02140,42.3905477,-71.1297779
260;280;282,Franklin Street,02139,42.3646208,-71.1056319
24,Everett Street,02138-2701,42.3792507,-71.1173271
215,Concord Avenue,02138,42.3827546,-71.1312420
780,Memorial Drive,02139,42.3593891,-71.1147392
26;28,Cameron Avenue,02140,42.3981746,-71.1290560
438,Green Street,02139,42.3632136,-71.1012280
463,Massachusetts Avenue,02139,42.3640116,-71.1008594
931,Massachusetts Avenue,02139,42.3689184,-71.1092901
18,Pleasant Street,02139,42.3654206,-71.1063090
44,Concord Avenue,02138,42.3802765,-71.1278021
78,Richdale Avenue,02140,42.3885179,-71.1239809
8,Kennedy Road,02138,42.3778912,-71.1341764
22,Hilliard Street,02138,42.3739007,-71.1237845
"172,174",Putnam Avenue,02139,42.3650099,-71.1136536
33,Dudley Street,02140,42.3961020,-71.1305656
95,Walker Street,02138,42.3814984,-71.1230627
15-17,Centre Street,02139,42.3698318,-71.1090175
863,Massachusetts Avenue,02139,42.3677676,-71.1071130
246,Franklin Street,02139,42.3639401,-71.1048208
31,Otis Street,02141,42.3702227,-71.0783675
389,Binney Street,02138,42.3680051,-71.0895035
39,Jackson Street,02140,42.3947712,-71.1350583
234,Broadway,02139,42.3666303,-71.0947496
245,First Street,02142,42.3636104,-71.0792810
700;710,Main Street,02139,42.3615983,-71.0951637
428,Memorial Drive,02139,42.3556850,-71.0987706
125,Broadway,02142,42.3653884,-71.0884666
218,Windsor Street,02139,42.3665906,-71.0953705
226,Windsor Street,02139,42.3667252,-71.0953626
105,Massachusetts Avenue,02139,42.3597662,-71.0935917
105,Massachusetts Avenue,02139,42.3599516,-71.0925579
77,Massachusetts Avenue,02139,42.3593175,-71.0931403
33,Massachusetts Avenue,02139,42.3581273,-71.0922283
55,Massachusetts Avenue,02139,42.3587103,-71.0929177
182,Memorial Drive,02139,42.3587976,-71.0902259
70R,Vassar Street,02139,42.3603811,-71.0930839
70,Vassar Street,02139,42.3606959,-71.0932624
60,Vassar Street,02139,42.3608620,-71.0927284
50,Vassar Street,02139,42.3610939,-71.0923361
50,Vassar Street,02139,42.3611490,-71.0919277
6,Vassar Street,02139,42.3611627,-71.0901604
125,Massachusetts Avenue,02139,42.3601458,-71.0937852
127,Massachusetts Avenue,02139,42.3603903,-71.0940359
134,Memorial Drive,02139,42.3585269,-71.0877291
260,Green Street,02139,42.3642047,-71.1037144
101,Dunster Street,02138,42.3702871,-71.1212127
371,Broadway,02139,42.3710267,-71.1047483
459,Broadway,02138,42.3740280,-71.1107118
23,Sidney Street,02139,42.3622771,-71.1007266
816,Memorial Drive,02139,42.3612710,-71.1156608
130,Broadway,02141,42.3640827,-71.0885805
301,Binney Street,02142,42.3667033,-71.0870315
14,Plympton Street,02138,42.3721330,-71.1164710
60,Acorn Park,02140,42.3982507,-71.1484507
275,Massachusetts Avenue,02139,42.3622710,-71.0976570
138,Albany Street,02139,42.3600723,-71.0968412
144,Albany Street,02139,42.3598812,-71.0973641
175,Albany Street,02139,42.3598601,-71.0991347
180,Albany Street,02139,42.3593089,-71.0984687
90,Broadway,02142,42.3632806,-71.0865022
57,Vassar Street,02139,42.3611516,-71.0932059
100,Massachusetts Avenue,02139,42.3593702,-71.0951352
106,Vassar Street,02139,42.3591923,-71.0959753
120,Vassar Street,02139,42.3586352,-71.0965377
39,Sherman Street,02138,42.3906361,-71.1373473
22,Tudor Street,02139,42.3606681,-71.1038153
1,Broadway,02142,42.3627620,-71.0835239
350,Kendall Street,02142,42.3634567,-71.0819737
14,Dudley Street,02140,42.3961691,-71.1297335
16,Dudley Street,02140,42.3961252,-71.1298071
18,Dudley Street,02140,42.3960823,-71.1298790
20,Dudley Street,02140,42.3960394,-71.1299509
2366,Massachusetts Avenue,02140,42.3963600,-71.1295208
2390,Massachusetts Avenue,02140,42.3968236,-71.1299894
"51,53",Norris Street,02140,42.3951777,-71.1304894
59,Norris Street,02140,42.3950145,-71.1306578
8,Alberta Terrace,02140,42.3967418,-71.1301430
54R,Cedar Street,02140,42.3945080,-71.1305166
1585,Massachusetts Avenue,02138-2801,42.3793726,-71.1194197
45,Carleton Street,02139,42.3616873,-71.0869210
25,Carleton Street,02142,42.3610288,-71.0866157
75,Amherst Street,02139,42.3604572,-71.0873233
20,Ames Street,02139,42.3608457,-71.0876297
8,Craigie Street,02138,42.3788191,-71.1269647
"2377,2379,2381,2383,2385,2387,2389,2391,2393,2395,2397,2399,2401",Massachusetts Avenue,02140,42.3971060,-71.1295440
651,Concord Avenue,02138,42.3899665,-71.1487824
20,Cambridge Parkway,02142,42.3666701,-71.0739618
1637,Massachusetts Avenue,02138-2706,42.3810286,-71.1194300
2409,Massachusetts Avenue,02140,42.3976285,-71.1302075
143,Hampshire Street,02139,42.3711122,-71.0970797
139,Massachusetts Avenue,02139,42.3604739,-71.0948246
40,John F. Kennedy Street,02138,42.3721790,-71.1202512
2,Arrow Street,02138,42.3708159,-71.1145639
80,Gerry's Landing Road,02138,42.3713093,-71.1362090
178,Coolidge Hill,02138,42.3707716,-71.1387349
540,Memorial Drive,02139,42.3550039,-71.1032611
619,Memorial Drive,02139,42.3532527,-71.1077696
100,Landsdowne Street,02139,42.3598520,-71.1009539
40,Landsdowne Street,02139,42.3605264,-71.0994774
450,Massachusetts Avenue,02139,42.3634306,-71.1012921
101,Main Street,02142,42.3623434,-71.0815842
1,Main Street,02142,42.3622336,-71.0800234
3,Percy Place,02139,42.3667127,-71.1010414
1-2,Norfolk Terrace,02139,42.3666578,-71.1009739
29,Oxford Street,02138-2933,42.3782501,-71.1171443
17,Oxford Street,02138-2933,42.3772582,-71.1175607
1493,Cambridge Street,02139,42.3750806,-71.1042527
1611,Cambridge Street,02138,42.3754115,-71.1083321
197,Vassal Lane,02138,42.3849049,-71.1392568
11,Oxford Street,02138-2901,42.3775361,-71.1171521
15,Oxford Street,02138-2901,42.3776953,-71.1169448
15,Oxford Street,02138-2901,42.3775331,-71.1166556
1557,Massachusetts Avenue,02138-2903,42.3782626,-71.1191518
1525,Massachusetts Avenue,02138-2903,42.3775828,-71.1189064
1545,Massachusetts Avenue,02138-2903,42.3778738,-71.1188751
22,Everett Street,02138-2701,42.3797185,-71.1173963
20,Everett Street,02138-2701,42.3795708,-71.1177471
18,Everett Street,02138-2701,42.3794325,-71.1181320
16,Everett Street,02138-2701,42.3797658,-71.1184052
12,Everett Street,02138-2701,42.3796143,-71.1187788
1585,Massachusetts Avenue,02138-2801,42.3796743,-71.1193852
6-8,Everett Street,02138-2701,42.3794240,-71.1193320
17,Everett Street,02138-2762,42.3802947,-71.1184455
19,Everett Street,02138-2763,42.3801857,-71.1182569
23,Everett Street,02138-2735,42.3801668,-71.1179536
3,Mellen Street,02138-2736,42.3811024,-71.1192258
5,Mellen Street,02138-2736,42.3810058,-71.1191405
100,Technology Square,02139,42.3633758,-71.0904762
55,Franklin Street,02139,42.3614869,-71.0993386
24,Emily Street,02139,42.3593007,-71.1041996
167,Sidney Street,02139,42.3587763,-71.1048130
99,Erie Street,02139,42.3590609,-71.1052921
179,Sidney Street,02139,42.3583907,-71.1053089
620,Memorial Drive,02139,42.3540569,-71.1076047
25,First Street,02141,42.3696956,-71.0780023
215,First Street,02142,42.3643032,-71.0792650
840,Memorial Drive,02139,42.3630920,-71.1154416
345,Vassar Street,02139,42.3546582,-71.1065660
320,Bent Street,02142,42.3674387,-71.0874736
450,Kendall Street,02142,42.3633750,-71.0815161
10,Canal Park,02141,42.3685553,-71.0752824
123,River Street,02139,42.3640671,-71.1086888
680,Huron Avenue,02138,42.3804284,-71.1539728
30;32,Whittemore Avenue,02140,42.3984011,-71.1357124
114,Magazine Street,02139,42.3599445,-71.1099260
1,Portland Street,02139,42.3618042,-71.0944149
177;181,Massachusetts Avenue,02139,42.3614412,-71.0959968
603,Concord Avenue,02138,42.3891389,-71.1444368
5,Cadbury Road,02140,42.3881402,-71.1305818
11;13;15;17;19;21,Dunster Street,02138,42.3728858,-71.1191800
18;20;22;24;26;28,John F. Kennedy Street,02138,42.3729173,-71.1195343
30;34,John F. Kennedy Street,02138,42.3727308,-71.1196753
26,Brattle Street,02138,42.3731234,-71.1204149
29;31;33;35;37;39,John F. Kennedy Street,02138,42.3728170,-71.1202045
3,Church Street,02138,42.3745642,-71.1194329
41,Church Street,02138,42.3746190,-71.1206713
125,Mount Auburn Street,02138,42.3736029,-71.1228466
40,Brattle Street,02138,42.3735403,-71.1215383
110,Mount Auburn Street,02138,42.3726932,-71.1220631
300,Binney Street,02142,42.3659171,-71.0880063
270,Third Street,02142,42.3660369,-71.0819266
225,Binney Street,02142,42.3664411,-71.0851418
69,Winthrop Street,02138,42.3721202,-71.1201420
575,Memorial Drive,02139,42.3540438,-71.1055105
100,Washington Street,02114,42.3717421,-71.0685184
122,Western Avenue,02139,42.3647948,-71.1081510
132,Western Avenue,02139,42.3647693,-71.1084463
1575,Cambridge Street,02138,42.3755223,-71.1071427
215,Monsignor O'Brien Highway,02141,42.3728794,-71.0798151
10,Acorn Park Drive,02140,42.3987816,-71.1470868
300,Athenaeum Street,02142,42.3644882,-71.0814853
2465,Massachusetts Avenue,02140,42.3988742,-71.1315441
18;20,Whittemore Avenue,02140,42.3983698,-71.1352183
24;26,Whittemore Avenue,02140,42.3983845,-71.1354658
35,Cottage Park Avenue,02140,42.3981842,-71.1334764
37,Cottage Park Avenue,02140,42.3981844,-71.1333988
31,Cottage Park Avenue,02140,42.3984941,-71.1334825
29,Cottage Park Avenue,02140,42.3984944,-71.1334049
34,Cottage Park Avenue,02140,42.3984056,-71.1329087
36,Cottage Park Avenue,02140,42.3983483,-71.1329085
40,Cottage Park Avenue,02140,42.3982772,-71.1331412
38,Cottage Park Avenue,02140,42.3982775,-71.1330636
32,Cottage Park Avenue,02140,42.3984716,-71.1330697
30,Cottage Park Avenue,02140,42.3984715,-71.1331473
44,Linnaean Street,02138,42.3827180,-71.1237238
330,Mount Auburn Street,02138,42.3741301,-71.1344620
16,Holyoke Street,02138,42.3723589,-71.1181620
33,Rogers Street,02142,42.3662729,-71.0784745
2427;2429,Massachusetts Avenue,02140,42.3980409,-71.1305074
45,Matignon Road,02140,42.4023080,-71.1325336
1667,Massachusetts Avenue,02138-2706,42.3820796,-71.1192077
80;82;84;88,Cambridgepark Drive,02140,42.3931613,-71.1433320
2456,Massachusetts Avenue,02140,42.3981549,-71.1318121
9,Columbia Street,02139,42.3638627,-71.1002328
1374,Massachusetts Avenue,02138,42.3731882,-71.1190131
806,Massachusetts Avenue,02139,42.3666283,-71.1063673
260,Concord Avenue,02138,42.3832277,-71.1330066
625,Putnam Avenue,02139,42.3561912,-71.1064609
254,Sidney Street,02139,42.3563056,-71.1068536
91,Lincoln Street,02141,42.3717443,-71.0956111
9,Fairmont Street,02139,42.3612540,-71.1094236
249,Third Street,02142,42.3667400,-71.0820841
189,Vassar Street,02139,42.3588661,-71.0981423
10,Education Circle,02141,42.3709782,-71.0706182
99,Memorial Drive,02138,42.3594578,-71.0848824
88,Ames Street,02142,42.3632862,-71.0876911
350,Third Street,02142,42.3635194,-71.0828568
75,Ames Street,02142,42.3634775,-71.0883951
325,Main Street,02142,42.3627872,-71.0866632
115,Broadway,02142,42.3649810,-71.0870252
181,Massachusetts Avenue,02139,42.3617171,-71.0961533
50,Albany Street,02139,42.3615536,-71.0935590
575,Memorial Drive,02139,42.3545125,-71.1056308
196;198,Broadway,02139,42.3657625,-71.0925242
141,Portland Street,02139,42.3654955,-71.0926475
125,Portland Street,02139,42.3652045,-71.0926015
200,Sidney Street,02139,42.3571963,-71.1047643
780,Memorial Drive,02139,42.3597177,-71.1149889
250,Albany Street,02139,42.3580955,-71.1014730
60,Massachusetts Avenue,02139,42.3602664,-71.0914554
350,Memorial Drive,02139,42.3569265,-71.0951090
47,Sixth Street,02141,42.3708369,-71.0854027
192,Hampshire Street,02139,42.3728250,-71.0999774
1120,Massachusetts Avenue,02138,42.3706633,-71.1139626
130,Vassar Street,02139,42.3586811,-71.0975196
265,First Street,02142,42.3633503,-71.0800244
1912,Massachusetts Avenue,02140,42.3889688,-71.1200076
1910,Massachusetts Avenue,02140,42.3888575,-71.1200554
1906,Massachusetts Avenue,02140,42.3888374,-71.1199568
1900,Massachusetts Avenue,02140,42.3887697,-71.1199192
4,Beech Street,02140,42.3904393,-71.1205110
"1975,1969,1967",Massachusetts Avenue,02140,42.3901763,-71.1204455
471,Memorial Drive,02139,42.3551669,-71.1005378
410,Memorial Drive,02139,42.3559480,-71.0981024
407,Memorial Drive,02139,42.3561242,-71.0973702
405,Memorial Drive,02139,42.3561995,-71.0972359
403,Memorial Drive,02139,42.3561936,-71.0969962
400,Memorial Drive,02139,42.3563235,-71.0968692
372,Memorial Drive,02139,42.3563991,-71.0964885
111,Memorial Drive,02139,42.3596378,-71.0869615
70,Amherst Street,02139,42.3599268,-71.0869272
322,Binney Street,02142,42.3647181,-71.0779653
57;59,Magazine Street,02139,42.3622593,-71.1079442
983;984,Memorial Drive,02138,42.3726769,-71.1250241
985;986,Memorial Drive,02138,42.3728607,-71.1254275
987;989,Memorial Drive,02138,42.3732254,-71.1257992
992;993,Memorial Drive,02138,42.3735687,-71.1262757
100,Memorial Drive,02139,42.3600981,-71.0857505
2,Clinton Street,02139,42.3677047,-71.1064243
173,Bent Street,02139,42.3673354,-71.0823047
195,Albany Street,02139,42.3595577,-71.0998933
136,Prospect Street,02139,42.3686792,-71.1019482
147,Prospect Street,02139,42.3690354,-71.1019070
276,Harvard Street,02139,42.3687176,-71.1036294
80,John F. Kennedy Street,02138,42.3705187,-71.1208270
31,Ames Street,02139,42.3616387,-71.0886412
22,Saint Mary Road,02139,42.3710160,-71.1014910
19,Garden Street,02138,42.3778042,-71.1229680
22;24,Magazine Street,02139,42.3637397,-71.1056387
238,Main Street,02142,42.3616844,-71.0847880
100,Main Street,02142,42.3613701,-71.0827720
19,Prescott Street,02138,42.3736176,-71.1142733
169,Harvard Street,02139,42.3662791,-71.0955754
224,Broadway,02139,42.3663447,-71.0941114
214,Broadway,02139,42.3662640,-71.0937023
1246-1256,Massachusetts Avenue,02138,42.3724371,-71.1162794
1238,Massachusetts Avenue,02138,42.3723609,-71.1160251
22,Plympton Street,02138,42.3719683,-71.1163930
100,Walker Street,02138,42.3818148,-71.1239027
90,Walker Street,02138,42.3814706,-71.1235686
1105,Massachusetts Avenue,02138,42.3707337,-71.1134074
51,Vassar Street,02139,42.3616751,-71.0923862
230,Brookline Street,02139,42.3583294,-71.1067972
238,Brookline Street,02139,42.3581365,-71.1070015
57;59,Allston Street,02139,42.3575735,-71.1059654
61;63,Allston Street,02139,42.3576358,-71.1060787
65;67,Allston Street,02139,42.3576951,-71.1061884
73,Allston Street,02139,42.3577583,-71.1062825
85,Allston Street,02139,42.3578787,-71.1065023
89,Allston Street,02139,42.3579429,-71.1066144
85,Allston Street,02139,42.3580007,-71.1067211
351,Massachusetts Avenue,02139,42.3629068,-71.0990902
355,Massachusetts Avenue,02139,42.3630336,-71.0992786
10,Dana Street,02139,42.3701496,-71.1096697
55,Essex Street,02139,42.3677237,-71.1012658
50,Essex Street,02139,42.3676008,-71.1007330
47,Henry Street,02139,42.3554482,-71.1083864
20;22,Peters Street,02139,42.3571841,-71.1069251
11,Peters Street,02139,42.3575296,-71.1071264
9,Peters Street,02139,42.3576080,-71.1070404
605,Massachusetts Avenue,02139,42.3652027,-71.1029259
599,Massachusetts Avenue,02139,42.3651821,-71.1028367
589,Massachusetts Avenue,02139,42.3651273,-71.1027415
16,Elmer Street,02138,42.3657678,-71.1139699
440,Franklin Street,02139,42.3668492,-71.1094708
434,Franklin Street,02139,42.3668160,-71.1093911
185,Bent Street,02141,42.3673951,-71.0827432
13,Waterhouse Street,02138,42.3781620,-71.1208044
1558,Massachusetts Avenue,02138,42.3784734,-71.1207582
31;33;35,Follen Street,02138,42.3787158,-71.1208691
1560;1564,Massachusetts Avenue,02138,42.3786866,-71.1206615
1572,Massachusetts Avenue,02138,42.3789591,-71.1206930
16,Chauncy Street,02138,42.3794204,-71.1223791
19,Chauncy Street,02138,42.3797525,-71.1226256
21,Chauncy Street,02138,42.3796423,-71.1230695
32,Shepard Street,02138,42.3809750,-71.1222798
6,Shepard Street,02138,42.3815230,-71.1206533
15,Langdon Street,02138,42.3808352,-71.1206207
1663;1665,Massachusetts Avenue,02138,42.3818850,-71.1193425
1675,Massachusetts Avenue,02138,42.3822740,-71.1193033
1699;1701,Massachusetts Avenue,02138,42.3830524,-71.1192362
6,Sacramento Street,02138,42.3823952,-71.1190080
1662;1664;1668,Massachusetts Avenue,02138,42.3819321,-71.1200913
1670;1672,Massachusetts Avenue,02138,42.3821007,-71.1199906
4,Hudson Street,02138,42.3820905,-71.1202173
1682,Massachusetts Avenue,02138,42.3825202,-71.1199870
1680,Massachusetts Avenue,02138,42.3824585,-71.1200104
1678,Massachusetts Avenue,02138,42.3823946,-71.1199567
1674,Massachusetts Avenue,02138,42.3823050,-71.1200448
1688,Massachusetts Avenue,02138,42.3827347,-71.1199644
2,Bowdoin Street,02138,42.3823805,-71.1201742
884;888,Massachusetts Avenue,02139,42.3677430,-71.1081741
929,Massachusetts Avenue,02139,42.3689551,-71.1089245
10,Centre Street,02139,42.3692768,-71.1087259
11,Audrey Street,02139,42.3547432,-71.1037770
202;204,Hampshire Street,02139,42.3731070,-71.1003297
90,River Street,02139,42.3640878,-71.1076903
"94,96,98",River Street,02139,42.3640766,-71.1078473
266,Sidney Street,02139,42.3560097,-71.1070199
875,Main Street,02139,42.3636308,-71.0989494
101,Cambridgepark Drive,02140,42.3950773,-71.1448306
21,Charles Street,02141,42.3676127,-71.0781059
113;115;119;121,First Street,02142,42.3669178,-71.0780709
65,Hampshire Street,02139,42.3677085,-71.0931882
7,Divinity Avenue,02138,42.3775044,-71.1146017
81,Pine Street,02139,42.3655027,-71.0980038
1052;1054;1056;1058,Cambridge Street,02141,42.3727902,-71.0949461
1046,Cambridge Street,02141,42.3727682,-71.0947537
2547;2549;2551;2553,Massachusetts Avenue,02140,42.4002211,-71.1338772
"25,27,29,31",Wheeler Street,02138,42.3897768,-71.1446945
250,Webster Avenue,02141,42.3723598,-71.0943131
220,Binney Street,02142,42.3653705,-71.0854082
32,River Street,02139,42.3646422,-71.1060052
28,River Street,02139,42.3646964,-71.1058343
26,River Street,02139,42.3647267,-71.1057359
21,Magazine Street,02139,42.3641576,-71.1058030
19,Magazine Street,02139,42.3641978,-71.1057586
17,Magazine Street,02139,42.3642379,-71.1057144
15,Magazine Street,02139,42.3642781,-71.1056701
9,Warren Street,02141,42.3724997,-71.0885478
873,Cambridge Street,02141,42.3726633,-71.0913790
113,Brattle Street,02138,42.3771464,-71.1272721
60,Linnaean Street,02138,42.3810199,-71.1245449
72;74,Kirkland Street,02138,42.3774525,-71.1091130
19,Pleasant Street,02139,42.3653477,-71.1069887
1590,Cambridge Street,02138,42.3745011,-71.1082407
97;99,Hancock Street,02139,42.3691239,-71.1081377
14,Market Street,02139,42.3670716,-71.0945102
1381,Cambridge Street,02139,42.3739162,-71.1006565
29,Otis Street,02141,42.3703100,-71.0781671
21,Otis Street,02141,42.3702042,-71.0777665
150,Cambridge Street,02141,42.3706013,-71.0779607
110;120,Cambridge Street,02141,42.3705543,-71.0775483
26;28,Second Street,02141,42.3704829,-71.0785117
41,Second Street,02141,42.3699800,-71.0791277
380,Green Street,02139,42.3655553,-71.1059260
11,Salem Street,02139,42.3625803,-71.1044920
274;280,Brookline Street,02139,42.3571205,-71.1080702
10,Bowdoin Street,02138,42.3825870,-71.1203223
32;34,Valentine Street,02139,42.3604929,-71.1064626
261,Washington Street,02139,42.3651524,-71.0968849
20,Oxford Street,02138,42.3779943,-71.1159229
13,Frisbie Place,02138,42.3777243,-71.1151184
18,Oxford Street,02138,42.3778428,-71.1157678
24,Oxford Street,02138,42.3781922,-71.1154656
11,Divinity Avenue,02138,42.3782082,-71.1149322
80,Cambridgepark Place,02140,42.3929990,-71.1422125
450,Memorial Drive,02139,42.3554881,-71.0995324
305,Memorial Drive,02139,42.3576280,-71.0934453
65R,Mount Auburn Street,02138,42.3722234,-71.1180480
76,Vassar Street,02139,42.3602010,-71.0935527
58,Linnaean Street,02138,42.3821835,-71.1253210
130,Walker Street,02138,42.3825088,-71.1246820
314,Main Street,02139,42.3621180,-71.0866661
694,Green Street,02139,42.3691788,-71.1139319
698,Green Street,02139,42.3691919,-71.1140858
702,Green Street,02139,42.3692077,-71.1142386
1154;1156;1158;1160,Massachusetts Avenue,02138,42.3712590,-71.1146255
1168,Massachusetts Avenue,02138,42.3713220,-71.1147713
1168;1170;1172;1174,Massachusetts Avenue,02138,42.3713784,-71.1148579
45,Francis Avenue,02138,42.3800050,-71.1130091
47,Francis Avenue,02138,42.3806128,-71.1131915
605,Concord Avenue,02138,42.3892168,-71.1448916
90,Hampshire Street,02139,42.3685285,-71.0947393
984,Cambridge Street,02139,42.3725893,-71.0937963
1208;1210,Massachusetts Avenue,02138,42.3718760,-71.1154269
1206,Massachusetts Avenue,02138,42.3718201,-71.1153212
15,Hovey Avenue,02138,42.3752257,-71.1079722
47,Bay State Road,01238,42.3875330,-71.1394418
53,Bay State Road,01238,42.3875587,-71.1392419
45,Hayward Street,02142,42.3619139,-71.0855044
292,Main Street,02142,42.3619953,-71.0856639
26,Plympton Street,02138,42.3717041,-71.1166936
120,Albany Street,02139,42.3602020,-71.0962951
168,Alewife Brook Parkway,02138,42.3915227,-71.1392163
50,John F. Kennedy Street,02138,42.3720081,-71.1203627
33,Otis Street,02141,42.3702607,-71.0784771
8,Second Street,02141,42.3712556,-71.0783356
12;14,Second Street,02141,42.3711472,-71.0783578
159,Cambridge Street,02141,42.3710081,-71.0784237
6,Second Street,02141,42.3713392,-71.0783515
2;4,Second Street,02141,42.3714358,-71.0783454
16,Gore Street,02141,42.3714005,-71.0781168
1,Science Park,02114,42.3683037,-71.0725422
269,Vassar Street,02139,42.3564707,-71.1028156
299,Vassar Street,02139,42.3557061,-71.1043510
99,Mount Auburn Street,02138,42.3729292,-71.1205448
30,Brattle Street,02138,42.3730630,-71.1206430
"29,31,33",Henry Street,02139,42.3552753,-71.1076432
"22,24,26",Chestnut Street,02139,42.3556715,-71.1074024
11,Tufts Street,02139,42.3574228,-71.1112096
11;13,Valentine Street,02139,42.3604151,-71.1057517
600,Main Street,02139,42.3624719,-71.0929886
245,Bent Street,02141,42.3678300,-71.0848607
58,Plympton Street,02138,42.3706976,-71.1169424
20,University Road,02138,42.3723631,-71.1234829
500,Kendall Street,02142,42.3638832,-71.0813600
70,Rindge Avenue,02140,42.3921985,-71.1283570
1200,Massachusetts Avenue,02138,42.3715921,-71.1151711
1,Oxford Street,02138,42.3764444,-71.1167333
59,Shepard Street,02138,42.3808977,-71.1250980
675,West Kendall Street,02142,42.3646882,-71.0823824
60,Garden Street,02138,42.3814401,-71.1281978
314;320,Memorial Drive,02139,42.3571866,-71.0944126
160,Memorial Drive,02139,42.3591799,-71.0894056
44;48,Brattle Street,02138,42.3738002,-71.1221139
29,Everett Street,02138,42.3822765,-71.1209193
27,Garden Street,02138,42.3789098,-71.1237130
1,Education Street,02141,42.3703570,-71.0711299
155,Brookline Street,02139,42.3604918,-71.1050617
387,Western Avenue,02139,42.3645976,-71.1152021
3,North First Street,02141,42.3717006,-71.0769054
160,Cambridgepark Drive,02140,42.3945183,-71.1474911
265,Massachusetts Avenue,02139,42.3622583,-71.0971794
2,Kirkland Street,02138,42.3741263,-71.1166692
143,Albany Street,02139,42.3603222,-71.0981369
50,Cambridgepark Drive,02140,42.3940563,-71.1438301
43,Vassar Street,02139,42.3622319,-71.0915343
1300-1316,Massachusetts Avenue,02138,42.3727837,-71.1174744
