House number,Street name,Postal code,Latitude,Longitude
54,Hancock Street,02149,42.4121097,-71.0541774
54,Oakes Street,02149,42.4054206,-71.0589225
51-59,Summer Street,02149,42.4081627,-71.0512403
50,Church Street,02149,42.4092373,-71.0560423
50,Church Street,02149,42.4092819,-71.0560759
50,Church Street,02149,42.4092095,-71.0560232
128,Broadway,02149,42.3985362,-71.0641082
162,Santilli Highway,02149,42.4033877,-71.0681676
11,Sycamore Street,02149,42.4147965,-71.0465682
13,Mystic View Road,02149,42.3999025,-71.0678159
17,Mystic View Road,02149,42.4004650,-71.0671185
9,Mystic View Road,02149,42.3987984,-71.0689640
11,Mystic View Road,02149,42.3992411,-71.0684811
15,Mystic View Road,02149,42.4001800,-71.0674943
5,Mystic View Road,02149,42.3984132,-71.0694091
29,Mystic View Road,02149,42.4013224,-71.0700235
27,Mystic View Road,02149,42.4011583,-71.0702300
71,Kelvin Street,02149,42.4053164,-71.0666089
158,School Street,02149,42.4069504,-71.0560545
880,Broadway,02149,42.4197616,-71.0444581
69,Norman Street,02149,42.4076681,-71.0672409
1727,Revere Beach Parkway,02149,42.4022840,-71.0438934
80,Garden Street,02149,42.4020167,-71.0472610
38,Norman Street,02149,42.4056437,-71.0659528
1871,Revere Beach Parkway,02149,42.4029682,-71.0491857
87,Santilli Highway,02149,42.4059549,-71.0679931
1934,Revere Beach Parkway,02149,42.4025369,-71.0516499
362,Ferry Street,02149,42.4154523,-71.0487193
399,Ferry Street,02149,42.4167919,-71.0490314
360,Ferry Street,02149,42.4154094,-71.0486901
358,Ferry Street,02149,42.4153612,-71.0486574
356,Ferry Street,02149,42.4152837,-71.0486001
354,Ferry Street,02149,42.4152339,-71.0485602
366,Ferry Street,02149,42.4154785,-71.0487352
366,Ferry Street,02149,42.4155285,-71.0487661
366A,Ferry Street,02149,42.4155685,-71.0487906
361,Ferry Street,02149,42.4155758,-71.0485082
371,Ferry Street,02149,42.4158426,-71.0486993
365,Ferry Street,02149,42.4157273,-71.0486243
315,Ferry Street,02149,42.4148064,-71.0466763
317,Ferry Street,02149,42.4149986,-71.0468721
321,Ferry Street,02149,42.4150926,-71.0469901
335,Ferry Street,02149,42.4153036,-71.0472695
321,Ferry Street,02149,42.4152350,-71.0471848
326,Ferry Street,02149,42.4145233,-71.0478206
717B,Broadway,02149,42.4147997,-71.0483635
715,Broadway,02149,42.4147380,-71.0484080
709,Broadway,02149,42.4146834,-71.0484543
700,Broadway,02149,42.4145009,-71.0489051
700,Broadway,02149,42.4144947,-71.0489602
704,Broadway,02149,42.4145367,-71.0488753
712,Broadway,02149,42.4148349,-71.0486177
716,Broadway,02149,42.4149176,-71.0485484
744,Broadway,02149,42.4158593,-71.0477770
740,Broadway,02149,42.4156424,-71.0479582
1885,Revere Beach Parkway,02149,42.4030791,-71.0498929
1886-16,Revere Beach Parkway,02149,42.4023875,-71.0498456
749,Broadway,02149,42.4157910,-71.0474913
411,Ferry Street,02149,42.4172515,-71.0492989
415,Ferry Street,02149,42.4173469,-71.0493871
412,Ferry Street,02149,42.4171260,-71.0494753
449,Ferry Street,02149,42.4181006,-71.0505160
453,Ferry Street,02149,42.4182174,-71.0507379
454,Ferry Street,02149,42.4181044,-71.0508693
456,Ferry Street,02149,42.4181288,-71.0509213
903,Broadway,02149,42.4199692,-71.0437724
876,Broadway,02149,42.4196505,-71.0445590
142,Jefferson Avenue,02149,42.4136152,-71.0400763
139;141,Jefferson Avenue,02149,42.4136806,-71.0398454
137,Jefferson Avenue,02149,42.4136554,-71.0398203
172,Elm Street,02149,42.4136134,-71.0397662
174,Elm Street,02149,42.4136250,-71.0396790
176,Elm Street,02149,42.4136295,-71.0396359
8,Winthrop Road,02149,42.4143582,-71.0359375
259,Elm Street,02149,42.4144089,-71.0358820
261,Elm Street,02149,42.4144347,-71.0358431
263,Elm Street,02149,42.4144730,-71.0357701
265,Elm Street,02149,42.4145351,-71.0356748
267,Elm Street,02149,42.4145926,-71.0356168
269,Elm Street,02149,42.4146112,-71.0355850
5,Duncan Road,02149,42.4146510,-71.0355031
62,Lawrence Street,02149,42.4091125,-71.0394064
110,Union Street,02149,42.4050073,-71.0423676
66,Francis Street,02149,42.4050356,-71.0422999
45,Union Street,02149,42.4055656,-71.0451519
43,Union Street,02149,42.4055788,-71.0452061
41,Union Street,02149,42.4055936,-71.0452666
198,Chelsea Street,02149,42.4036186,-71.0476094
202,Chelsea Street,02149,42.4035512,-71.0474938
120,Vine Street,02149,42.4035915,-71.0474726
27,Mystic View Road,02149,42.4012071,-71.0701494
28,Mystic View Road,02149,42.4012721,-71.0700668
24,Mystic View Road,02149,42.4011015,-71.0703041
23,Mystic View Road,02149,42.4010485,-71.0703712
21,Mystic View Road,02149,42.4008544,-71.0703465
19,Mystic View Road,02149,42.4009856,-71.0705729
14,Mystic View Road,02149,42.4000413,-71.0676551
12,Mystic View Road,02149,42.3994587,-71.0682156
12,Mystic View Road,02149,42.3996239,-71.0679989
10,Mystic View Road,02149,42.3990108,-71.0687323
8,Mystic View Road,02149,42.3987143,-71.0690609
7,Mystic View Road,02149,42.3986255,-71.0691636
1,Mystic View Road,02149,42.3986376,-71.0715136
1,Mystic View Road,02149,42.3989102,-71.0719162
1,Mystic View Road,02149,42.3988456,-71.0718084
1,Mystic View Road,02149,42.3985759,-71.0714029
100,Broadway,02149,42.3976563,-71.0646575
1886,Revere Beach Parkway,02149,42.4023975,-71.0500376
172,Chelsea Street,02149,42.4045445,-71.0486945
738,Broadway,02149,42.4154256,-71.0482535
918,Broadway,02149,42.4209219,-71.0439276
2,Mystic View Road,02149,42.3967847,-71.0714369
511,Broadway Street,02149,42.4089276,-71.0534411
311,Main Street,02149,42.4115979,-71.0627005
355,Ferry Street,02149,42.4155383,-71.0484227
48,Waters Avenue,02149,42.4078982,-71.0647149
132,Bucknam Street,02149,42.4124084,-71.0611828
162,Santilli Highway,02149,42.4034208,-71.0681569
11,Irving Street,02149,42.4035840,-71.0461113
37,Reynolds Avenue,02149,42.4035173,-71.0397604
20,Evelyn Road,02149,42.4034343,-71.0407245
34,Evelyn Road,02149,42.4033204,-71.0399814
6;8,Florence Street,02149,42.4033099,-71.0455730
16,Francis Street,02149,42.4034534,-71.0431577
24,Evelyn Road,02149,42.4034079,-71.0405349
8;10,Luke Road,02149,42.4032439,-71.0441113
21,Evelyn Road,02149,42.4031416,-71.0407019
918,Broadway,02149,42.4209278,-71.0439310
888,Broadway,02149,42.4202650,-71.0451110
83,Abbott Avenue,02149,42.4164976,-71.0386735
65,Abbott Avenue,02149,42.4164402,-71.0377534
72,Abbott Avenue,02149,42.4163672,-71.0382298
62,Abbott Avenue,02149,42.4161434,-71.0379057
26,Clay Avenue,02149,42.4156060,-71.0394396
59,Adams Avenue,02149,42.4155540,-71.0388492
39,Freeman Avenue,02149,42.4154455,-71.0374781
51,Adams Avenue,02149,42.4153899,-71.0386053
21,Abbott Avenue,02149,42.4153434,-71.0363228
45;47,Adams Avenue,02149,42.4152957,-71.0384170
31,Freeman Avenue,02149,42.4151777,-71.0371993
38,Freeman Avenue,02149,42.4151794,-71.0376718
10,Clay Avenue,02149,42.4151195,-71.0399864
39,Adams Avenue,02149,42.4150567,-71.0380823
25,Freeman Avenue,02149,42.4150085,-71.0370173
42,Adams Avenue,02149,42.4149440,-71.0384679
48,Jackson Avenue,02149,42.4149028,-71.0395966
270,Elm Street,02149,42.4148682,-71.0358534
46,Calhoun Avenue,02149,42.4148330,-71.0404391
46,Jackson Avenue,02149,42.4148141,-71.0394754
30,Adams Avenue,02149,42.4146841,-71.0381387
23,Adams Avenue,02149,42.4146363,-71.0376155
34,Jackson Avenue,02149,42.4145559,-71.0391172
36,Calhoun Avenue,02149,42.4144713,-71.0400500
29,Calhoun Avenue,02149,42.4144774,-71.0395706
16,Adams Avenue,02149,42.4142744,-71.0376911
238;240,Elm Street,02149,42.4141657,-71.0369779
155,Jefferson Avenue,02149,42.4141056,-71.0402217
19,Harding Avenue,02149,42.4140368,-71.0410470
33;35;37;39,Duncan Road,02149,42.4139067,-71.0345733
15;17,Winthrop Road,02149,42.4138673,-71.0357877
154;156,Jefferson Avenue,02149,42.4138959,-71.0404748
158,Jefferson Avenue,02149,42.4139564,-71.0405875
16,Calhoun Avenue,02149,42.4139911,-71.0394999
19,Winthrop Road,02149,42.4138006,-71.0356685
30;32,Harding Avenue,02149,42.4136824,-71.0416460
20;22,Englewood Avenue,02149,42.4136389,-71.0361013
162,Elm Street,02149,42.4135852,-71.0403319
252;254,Springvale Avenue,02149,42.4134022,-71.0385926
159;161,Elm Street,02149,42.4132566,-71.0402817
237,Springvale Avenue,02149,42.4132312,-71.0378013
153,Elm Street,02149,42.4132120,-71.0406138
75,Madison Avenue,02149,42.4131099,-71.0365604
133,Elm Street,02149,42.4130871,-71.0415127
82,Madison Avenue,02149,42.4130616,-71.0370006
53,Winthrop Road,02149,42.4130028,-71.0345176
37;39,Englewood Avenue,02149,42.4130016,-71.0357976
9,Harvey Street,02149,42.4129930,-71.0406066
67,Madison Avenue,02149,42.4129520,-71.0363318
10,Birch Street,02149,42.4129442,-71.0409510
141,Woodlawn Street,02149,42.4129336,-71.0423148
54;56,Englewood Avenue,02149,42.4128577,-71.0349092
9;11,Birch Street,02149,42.4128815,-71.0413694
66,Englewood Avenue,02149,42.4126354,-71.0345829
61;63,Englewood Avenue,02149,42.4124255,-71.0349424
79,Jefferson Avenue,02149,42.4123433,-71.0378109
28;30,Birch Street,02149,42.4123372,-71.0407940
39,Madison Avenue,02149,42.4122887,-71.0353503
206,Springvale Avenue,02149,42.4122730,-71.0369460
23,Clarence Street,02149,42.4122200,-71.0403519
31;33,Birch Street,02149,42.4121858,-71.0411962
35,Madison Avenue,02149,42.4121845,-71.0351601
198,Springvale Avenue,02149,42.4121310,-71.0367185
36,Madison Avenue,02149,42.4120054,-71.0354906
73,Clarence Street,02149,42.4120779,-71.0424843
53,Clarence Street,02149,42.4120494,-71.0416709
63,Jefferson Avenue,02149,42.4119310,-71.0372179
26;28,Clarence Street,02149,42.4118907,-71.0403721
175A,Springvale Avenue,02149,42.4117578,-71.0356636
76,Clarence Street,02149,42.4117998,-71.0427179
68,Clarence Street,02149,42.4117538,-71.0423561
66,Clarence Street,02149,42.4117512,-71.0422184
173,Springvale Avenue,02149,42.4116045,-71.0354850
72,Dartmouth Street,02149,42.4114739,-71.0379009
5,Maplewood Avenue,02149,42.4113730,-71.0390001
10,Maplewood Avenue,02149,42.4113342,-71.0385993
83;85,Woodlawn Street,02149,42.4112287,-71.0431864
11,Park View Road,02149,42.4112056,-71.0408025
75,Dartmouth Street,02149,42.4111297,-71.0379529
18,Maplewood Avenue,02149,42.4111432,-71.0387631
15,Park View Road,02149,42.4110929,-71.0408834
83,Dartmouth Street,02149,42.4109179,-71.0376662
26,Jefferson Avenue,02149,42.4108191,-71.0362315
10,Garland Street,02149,42.4108342,-71.0428606
5,Garland Street,02149,42.4106417,-71.0431734
28,Garland Street,02149,42.4106102,-71.0421932
9,Garland Street,02149,42.4105815,-71.0430338
43,Maplewood Avenue,02149,42.4104696,-71.0396549
114,Dartmouth Street,02149,42.4104675,-71.0364790
32,Richdale Avenue,02149,42.4103539,-71.0384729
25,Alpine Avenue,02149,42.4102017,-71.0381285
60,Garland Street,02149,42.4100888,-71.0407677
123;125,Dartmouth Street,02149,42.4099968,-71.0364002
45,Garland Street,02149,42.4100247,-71.0415900
81,Mount Washington Street,02149,42.4099694,-71.0387713
108,Mount Washington Street,02149,42.4099293,-71.0375204
51,Garland Street,02149,42.4099525,-71.0413333
74;76;78,Garland Street,02149,42.4099319,-71.0403097
80,Garland Street,02149,42.4098690,-71.0400024
37,Alpine Avenue,02149,42.4098263,-71.0382703
133,Dartmouth Street,02149,42.4097480,-71.0360075
73,Garland Street,02149,42.4096729,-71.0403929
31;33,Fremont Avenue,02149,42.4094026,-71.0419984
62;64,Fremont Avenue,02149,42.4093299,-71.0405988
130,Garland Street,02149,42.4093441,-71.0377271
39,Fremont Avenue,02149,42.4092857,-71.0418298
148,Garland Street,02149,42.4090792,-71.0369628
1,Harvard Street,02149,42.4091117,-71.0432009
133;135,Garland Street,02149,42.4090042,-71.0377009
15,Harvard Street,02149,42.4089553,-71.0426353
21,Woodlawn Street,02149,42.4089674,-71.0431827
151,Garland Street,02149,42.4087645,-71.0370625
35;37,Harvard Street,02149,42.4087497,-71.0417288
56;58,Harvard Street,02149,42.4086948,-71.0407556
157,Garland Street,02149,42.4085966,-71.0367609
6,Sunnyside Avenue,02149,42.4085417,-71.0420738
111,Fremont Avenue,02149,42.4085044,-71.0385233
144,Fremont Avenue,02149,42.4083766,-71.0371168
54;56;58;60,Nichols Street,02149,42.4083854,-71.0435009
23,Lincoln Street,02149,42.4082775,-71.0376778
117,Fremont Avenue,02149,42.4081952,-71.0385278
37;39,Lawrence Street,02149,42.4082856,-71.0389778
61,Nichols Street,02149,42.4081207,-71.0434431
75,Harvard Street,02149,42.4081284,-71.0401251
149,Fremont Avenue,02149,42.4079581,-71.0369497
104,Nichols Street,02149,42.4078975,-71.0415320
97,Harvard Street,02149,42.4078423,-71.0393743
101;103,Harvard Street,02149,42.4077022,-71.0390343
120,Nichols Street,02149,42.4076650,-71.0407886
14,Lawrence Street,02149,42.4076878,-71.0399576
107,Harvard Street,02149,42.4076396,-71.0388757
136,Harvard Street,02149,42.4075809,-71.0374297
243;245,Vine Street,02149,42.4075718,-71.0452944
109,Nichols Street,02149,42.4075067,-71.0413799
71,Chatham Road,02149,42.4075299,-71.0423067
68,Baker Road,02149,42.4073030,-71.0421063
137,Nichols Street,02149,42.4070477,-71.0401981
126,Francis Street,02149,42.4070277,-71.0414011
53;53A,Chatham Road,02149,42.4069444,-71.0425791
122,Francis Street,02149,42.4069123,-71.0414875
194,Nichols Street,02149,42.4067461,-71.0377697
112,Florence Street,02149,42.4067871,-71.0439731
159,Nichols Street,02149,42.4066873,-71.0393660
119,Francis Street,02149,42.4066902,-71.0410981
101,Irving Street,02149,42.4065325,-71.0447264
45,Baker Road,02149,42.4065165,-71.0421125
175,Nichols Street,02149,42.4064817,-71.0386583
109;111,Malden Street,02149,42.4064576,-71.0401307
107;109,Francis Street,02149,42.4063443,-71.0412657
39,Baker Road,02149,42.4063103,-71.0422047
36,Baker Road,02149,42.4063018,-71.0426072
96,Florence Street,02149,42.4062603,-71.0442262
91;93,Irving Street,02149,42.4061587,-71.0449040
99,Francis Street,02149,42.4060137,-71.0414367
94;96,Francis Street,02149,42.4059866,-71.0419075
30;32,Hamilton Street,02149,42.4059243,-71.0390603
89,Florence Street,02149,42.4059251,-71.0439267
34;36,Union Street,02149,42.4058943,-71.0455584
83;85,Irving Street,02149,42.4058991,-71.0450242
23;25,Union Street,02149,42.4057375,-71.0460727
10;12,Chatham Road,02149,42.4057500,-71.0435873
50,Union Street,02149,42.4056888,-71.0449088
19,Baker Road,02149,42.4056961,-71.0425371
18,Baker Road,02149,42.4056856,-71.0429195
82,Malden Street,02149,42.4056332,-71.0408889
17,Baker Road,02149,42.4055963,-71.0425720
47;49,Hamilton Street,02149,42.4054086,-71.0384200
74,Union Street,02149,42.4054285,-71.0437609
71;73,Malden Street,02149,42.4052511,-71.0406191
33;35,Ferry Street,02149,42.4051957,-71.0474266
3,Baker Road,02149,42.4051645,-71.0427997
169,Vine Street,02149,42.4051302,-71.0464310
33,Silver Road,02149,42.4050005,-71.0391960
13,Silver Road,02149,42.4046874,-71.0389740
142,Union Street,02149,42.4046905,-71.0409043
144;146,Union Street,02149,42.4046796,-71.0407742
166,Union Street,02149,42.4045468,-71.0398493
38,Irving Street,02149,42.4044639,-71.0461394
45,Malden Street,02149,42.4043722,-71.0409805
149,Union Street,02149,42.4042922,-71.0406011
137,Vine Street,02149,42.4040911,-71.0469189
24,Irving Street,02149,42.4040810,-71.0463027
30;32,Malden Street,02149,42.4039918,-71.0416570
35,Francis Street,02149,42.4039769,-71.0423478
28,Florence Street,02149,42.4039737,-71.0452602
34;36,Reynolds Avenue,02149,42.4038870,-71.0398114
33,Francis Street,02149,42.4039190,-71.0424780
42,Reynolds Avenue,02149,42.4038357,-71.0394641
29,Luke Road,02149,42.4037540,-71.0434350
34,Market Street,02150,42.3987648,-71.0522021
2012,Revere Beach Parkway,02149,42.4027722,-71.0544430
42,Church Street,02149,42.4089245,-71.0560827
75,Abbott Avenue,02149,42.4168681,-71.0381907
77,Abbott Avenue,02149,42.4167304,-71.0384277
79,Abbott Avenue,02149,42.4166250,-71.0385433
81,Freeman Avenue,02149,42.4163705,-71.0388482
61,Abbott Avenue,02149,42.4163476,-71.0376182
65,Freeman Avenue,02149,42.4160550,-71.0383720
49,Abbott Avenue,02149,42.4160789,-71.0372034
54,Abbott Avenue,02149,42.4159367,-71.0376231
69,Adams Avenue,02149,42.4157955,-71.0391886
37,Abbott Avenue,02149,42.4157690,-71.0367902
45,Freeman Avenue,02149,42.4155928,-71.0376995
49,Jackson Avenue,02149,42.4151137,-71.0394098
34,Freeman Avenue,02149,42.4150761,-71.0376057
4,Clay Avenue,02149,42.4149888,-71.0401682
17,Freeman Avenue,02149,42.4148329,-71.0368352
40,Jackson Avenue,02149,42.4147303,-71.0393602
29;31,Jackson Avenue,02149,42.4146600,-71.0387127
33,Calhoun Avenue,02149,42.4146402,-71.0397394
31,Calhoun Avenue,02149,42.4145696,-71.0396525
30;32,Jackson Avenue,02149,42.4144893,-71.0390265
30,Calhoun Avenue,02149,42.4143088,-71.0398498
172,Jefferson Avenue,02149,42.4143070,-71.0408984
22,Jackson Avenue,02149,42.4142735,-71.0387546
161;163,Jefferson Avenue,02149,42.4142688,-71.0403990
13,Jackson Avenue,02149,42.4142421,-71.0382427
7,Sycamore Street,02149,42.4144178,-71.0467525
166,Jefferson Avenue,02149,42.4141500,-71.0407259
247,Elm Street,02149,42.4140975,-71.0363093
14,Jackson Avenue,02149,42.4140487,-71.0385141
9,Calhoun Avenue,02149,42.4139950,-71.0390405
151,Jefferson Avenue,02149,42.4139573,-71.0400481
26;28;30;32,Winthrop Road,02149,42.4138616,-71.0350393
29,Harding Avenue,02149,42.4139428,-71.0416306
95;97,Madison Avenue,02149,42.4136541,-71.0373029
201,Elm Street,02149,42.4135596,-71.0383039
130;132,Elm Street,02149,42.4134259,-71.0417403
235,Springvale Avenue,02149,42.4131781,-71.0377176
137,Elm Street,02149,42.4131284,-71.0413834
109;111,Jefferson Avenue,02149,42.4130714,-71.0388182
103,Jefferson Avenue,02149,42.4129079,-71.0386252
61,Madison Avenue,02149,42.4128132,-71.0360911
224,Springvale Avenue,02149,42.4127414,-71.0376040
22,Spruce Street,02149,42.4127299,-71.0378586
215,Springvale Avenue,02149,42.4127038,-71.0370430
21,Harvey Street,02149,42.4126597,-71.0404986
62;64,Madison Avenue,02149,42.4126160,-71.0363659
85,Elm Street,02149,42.4125376,-71.0433668
22,Birch Street,02149,42.4125773,-71.0408571
57;59,Englewood Avenue,02149,42.4125071,-71.0350595
47,Madison Avenue,02149,42.4124750,-71.0355863
54;56,Madison Avenue,02149,42.4124430,-71.0361142
214,Springvale Avenue,02149,42.4124184,-71.0371428
81;83,Jefferson Avenue,02149,42.4124176,-71.0378928
23,Griswold Street,02149,42.4124186,-71.0416349
27;29,Birch Street,02149,42.4123046,-71.0412279
40,Madison Avenue,02149,42.4121068,-71.0356413
196,Springvale Avenue,02149,42.4120803,-71.0366226
35,Birch Street,02149,42.4120576,-71.0411558
185,Springvale Avenue,02149,42.4120075,-71.0360126
74,Jefferson Avenue,02149,42.4118662,-71.0379674
30;32,Clarence Street,02149,42.4118670,-71.0405405
80,Clarence Street,02149,42.4117970,-71.0428624
15,Madison Avenue,02149,42.4117455,-71.0345194
19,Elsie Street,02149,42.4117627,-71.0394768
60,Clarence Street,02149,42.4117521,-71.0419453
99;101,Woodlawn Street,02149,42.4117221,-71.0431547
56;58,Jefferson Avenue,02149,42.4115850,-71.0372646
174,Springvale Avenue,02149,42.4115605,-71.0358881
51,Birch Street,02149,42.4115365,-71.0409920
61,Elsie Street,02149,42.4114790,-71.0414208
48,Jefferson Avenue,02149,42.4114165,-71.0370046
91,Elsie Street,02149,42.4113419,-71.0428170
162,Springvale Avenue,02149,42.4113024,-71.0356197
8,Rosedale Avenue,02149,42.4112807,-71.0394337
17,Rosedale Avenue,02149,42.4112188,-71.0399846
160,Springvale Avenue,02149,42.4111539,-71.0354736
147,Springvale Avenue,02149,42.4110666,-71.0348703
18,Mount Washington Street,02149,42.4110881,-71.0415216
25,Maplewood Avenue,02149,42.4110134,-71.0392540
26,Maplewood Avenue,02149,42.4109014,-71.0389014
18,Park View Road,02149,42.4108405,-71.0405822
14,Richdale Avenue,02149,42.4108042,-71.0381859
14,Garland Street,02149,42.4108008,-71.0427066
100,Dartmouth Street,02149,42.4107316,-71.0368724
3,Garland Place,02149,42.4106755,-71.0418761
30,Rosedale Avenue,02149,42.4106605,-71.0398801
27,Mount Washington Street,02149,42.4106534,-71.0411912
34,Maplewood Avenue,02149,42.4106266,-71.0390833
14,Alpine Avenue,02149,42.4104859,-71.0374842
103,Dartmouth Street,02149,42.4104862,-71.0370789
26,Richdale Avenue,02149,42.4105054,-71.0383674
32,Garland Street,02149,42.4105165,-71.0420022
23,Garland Street,02149,42.4103643,-71.0424604
58,Garland Street,02149,42.4101693,-71.0409493
14,Woodside Avenue,02149,42.4100909,-71.0368379
10,Fremont Avenue,02149,42.4100623,-71.0428254
18,Fremont Avenue,02149,42.4099240,-71.0424941
28,Alpine Avenue,02149,42.4100501,-71.0377912
32,Fremont Avenue,02149,42.4098923,-71.0418096
26,Fremont Avenue,02149,42.4098262,-71.0421917
96,Garland Street,02149,42.4096998,-71.0392350
15,Belle View Avenue,02149,42.4096895,-71.0405627
109,Mount Washington Street,02149,42.4096562,-71.0375302
42,Fremont Avenue,02149,42.4095713,-71.0414046
27;29,Fremont Avenue,02149,42.4094607,-71.0421779
124,Mount Washington Street,02149,42.4093977,-71.0363871
36,Somerset Street,02149,42.4092301,-71.0361832
16;18,Harvard Street,02149,42.4092277,-71.0425326
59,Fremont Avenue,02149,42.4090515,-71.0408677
38,Harvard Street,02149,42.4089724,-71.0415048
69;71,Fremont Avenue,02149,42.4089374,-71.0404102
75,Fremont Avenue,02149,42.4088893,-71.0402342
85,Fremont Avenue,02149,42.4087475,-71.0397302
11,Woodlawn Street,02149,42.4087309,-71.0432817
124,Fremont Avenue,02149,42.4086397,-71.0378108
55;57,Harvard Street,02149,42.4084307,-71.0409622
76;78,Harvard Street,02149,42.4083871,-71.0399346
150,Fremont Avenue,02149,42.4082401,-71.0368225
27,Nichols Street,02149,42.4082277,-71.0449349
14,Lincoln Street,02149,42.4081386,-71.0381541
90,Nichols Street,02149,42.4081147,-71.0420290
247;249,Vine Street,02149,42.4076929,-71.0452291
122,Nichols Street,02149,42.4077047,-71.0406194
144,Harvard Street,02149,42.4075127,-71.0370421
74,Baker Road,02149,42.4075446,-71.0419991
72;74,Chatham Road,02149,42.4076570,-71.0426287
70,Baker Road,02149,42.4074296,-71.0420561
133;135,Florence Street,02149,42.4073528,-71.0432760
235,Vine Street,02149,42.4073001,-71.0454320
64,Baker Road,02149,42.4071801,-71.0421657
154,Nichols Street,02149,42.4071491,-71.0394059
117;119,Irving Street,02149,42.4070285,-71.0444368
190,Nichols Street,02149,42.4068400,-71.0382601
145,Nichols Street,02149,42.4069358,-71.0399069
57,Baker Road,02149,42.4069289,-71.0419082
56,Baker Road,02149,42.4069198,-71.0422927
153,Nichols Street,02149,42.4068391,-71.0396128
219;221,Vine Street,02149,42.4067817,-71.0456545
47,Chatham Road,02149,42.4067282,-71.0426831
117,Malden Street,02149,42.4066904,-71.0400229
115;117,Francis Street,02149,42.4065935,-71.0411445
41;43,Chatham Road,02149,42.4065174,-71.0428057
179,Nichols Street,02149,42.4064448,-71.0385378
181,Nichols Street,02149,42.4063840,-71.0384047
99,Irving Street,02149,42.4064094,-71.0447942
35,Chatham Road,02149,42.4063097,-71.0429111
30,Chatham Road,02149,42.4062538,-71.0433187
92;94,Florence Street,02149,42.4061406,-71.0442743
26,Hamilton Street,02149,42.4060288,-71.0392316
22;24,Chatham Road,02149,42.4060479,-71.0434253
29,Baker Road,02149,42.4059912,-71.0423814
7,Tyler Street,02149,42.4059103,-71.0399918
20,Chatham Road,02149,42.4059446,-71.0434922
32,Union Street,02149,42.4059181,-71.0456932
11,Union Street,02149,42.4059079,-71.0467023
90,Malden Street,02149,42.4058571,-71.0408158
91,Francis Street,02149,42.4057603,-71.0415512
45;47,Ferry Street,02149,42.4055848,-71.0471484
37;39,Union Street,02149,42.4056061,-71.0455254
9,Hoyt Street,02149,42.4056071,-71.0396463
78;80,Malden Street,02149,42.4055391,-71.0409367
9;11,Chatham Road,02149,42.4055338,-71.0432779
77;79,Francis Street,02149,42.4053431,-71.0417600
171,Vine Street,02149,42.4052538,-71.0463551
68,Francis Street,02149,42.4051877,-71.0423598
28,Silver Road,02149,42.4051751,-71.0387160
59,Irving Street,02149,42.4051331,-71.0453640
56,Irving Street,02149,42.4050731,-71.0458340
58;60,Malden Street,02149,42.4048983,-71.0412016
27,Ferry Street,02149,42.4049961,-71.0475039
52,Irving Street,02149,42.4049695,-71.0458586
154;156,Vine Street,02149,42.4047674,-71.0470552
12,Silver Road,02149,42.4047269,-71.0393912
52;54,Luke Road,02149,42.4046846,-71.0433944
117;119,Union Street,02149,42.4046290,-71.0420012
121,Union Street,02149,42.4045825,-71.0418303
15,Ferry Street,02149,42.4045077,-71.0477592
52;54,Francis Street,02149,42.4045751,-71.0425936
125;127,Union Street,02149,42.4045378,-71.0416621
153,Vine Street,02149,42.4046091,-71.0466433
46;48,Malden Street,02149,42.4044891,-71.0414182
49;51,Luke Road,02149,42.4044763,-71.0430694
44,Florence Street,02149,42.4044941,-71.0450448
40,Florence Street,02149,42.4043696,-71.0451137
37,Irving Street,02149,42.4043810,-71.0457132
142,Vine Street,02149,42.4043255,-71.0472491
155,Union Street,02149,42.4042696,-71.0404454
157,Union Street,02149,42.4042535,-71.0403058
38;40,Malden Street,02149,42.4042947,-71.0414903
159;161,Union Street,02149,42.4042255,-71.0401509
36,Florence Street,02149,42.4042308,-71.0451480
41,Francis Street,02149,42.4041700,-71.0423480
10,Reynolds Avenue,02149,42.4040233,-71.0408547
16,Reynolds Avenue,02149,42.4040021,-71.0406905
37,Francis Street,02149,42.4039595,-71.0421007
24,Florence Street,02149,42.4038507,-71.0453487
29;31,Francis Street,02149,42.4038262,-71.0424988
194,Chelsea Street,02149,42.4037312,-71.0476853
25;27,Malden Street,02149,42.4037316,-71.0412641
48,Waters Avenue,02149,42.4077389,-71.0647575
484,Broadway,02149,42.4083636,-71.0546941
25,Webster Street,02149,42.4092127,-71.0551186
311,Main Street,02149,42.4115976,-71.0626936
15,County Road,02149,42.4026690,-71.0412233
15,Luke Road,02149,42.4033424,-71.0436351
12,Florence Street,02149,42.4034497,-71.0455045
20,Everett Avenue,02149,42.4023335,-71.0415620
54,Oakes Street,02149,42.4055377,-71.0589212
128;132,Bucknam Street,02149,42.4124074,-71.0611855
296;298,Chelsea Street,02149,42.4030530,-71.0433029
2,Everett Avenue,02149,42.4027251,-71.0416007
87,Santilli Highway,02149,42.4060765,-71.0677606
16,Malden Street,02149,42.4034800,-71.0418911
16;18,Luke Road,02149,42.4034502,-71.0440066
30,Evelyn Road,02149,42.4033856,-71.0403658
244;246,Chelsea Street,02149,42.4032004,-71.0456614
272,Chelsea Street,02149,42.4030772,-71.0443194
306;308,Chelsea Street,02149,42.4030446,-71.0427874
38,County Road,02149,42.4028762,-71.0401270
251,Chelsea Street,02149,42.4028282,-71.0454958
310;312,Chelsea Street,02149,42.4030525,-71.0425955
1812,Revere Beach Parkway,02149,42.4020782,-71.0472587
73,Abbott Avenue,02149,42.4166341,-71.0380276
71,Freeman Avenue,02149,42.4161645,-71.0385314
80;82,Freeman Avenue,02149,42.4161368,-71.0391275
76;78,Freeman Avenue,02149,42.4160642,-71.0390145
58,Abbott Avenue,02149,42.4160294,-71.0377406
73,Adams Avenue,02149,42.4158678,-71.0393183
63,Adams Avenue,02149,42.4156434,-71.0389630
24,Clay Avenue,02149,42.4155016,-71.0395384
32,Abbott Avenue,02149,42.4154354,-71.0369691
33,Freeman Avenue,02149,42.4152711,-71.0372935
16,Clay Avenue,02149,42.4152482,-71.0398335
48,Adams Avenue,02149,42.4151106,-71.0386942
33,Adams Avenue,02149,42.4148739,-71.0379165
232;234;236,Russell Street,02149,42.4147274,-71.0409811
18,Freeman Avenue,02149,42.4146671,-71.0371148
28,Adams Avenue,02149,42.4145765,-71.0380360
252;254,Elm Street,02149,42.4144694,-71.0364459
9;11;13;15,Duncan Road,02149,42.4144091,-71.0353220
167,Jefferson Avenue,02149,42.4144126,-71.0405526
20,Adams Avenue,02149,42.4143596,-71.0377927
10;12;14;16,Winthrop Road,02149,42.4142102,-71.0355493
168,Jefferson Avenue,02149,42.4142256,-71.0408198
15,Calhoun Avenue,02149,42.4141786,-71.0391596
18;20,Jackson Avenue,02149,42.4141882,-71.0386802
13,Calhoun Avenue,02149,42.4140872,-71.0391048
9;11,Winthrop Road,02149,42.4140260,-71.0360229
13,Winthrop Road,02149,42.4139373,-71.0358848
202,Elm Street,02149,42.4138891,-71.0383432
231,Elm Street,02149,42.4138102,-71.0368861
7;9,Harding Avenue,02149,42.4137670,-71.0407973
186,Elm Street,02149,42.4138019,-71.0393016
38;40,Harding Avenue,02149,42.4136810,-71.0419379
140,Jefferson Avenue,02149,42.4135825,-71.0401242
91;93,Madison Avenue,02149,42.4135476,-71.0371555
25,Winthrop Road,02149,42.4136311,-71.0354904
118;120,Elm Street,02149,42.4134677,-71.0421547
30,Englewood Avenue,02149,42.4134381,-71.0357582
126;128,Elm Street,02149,42.4134315,-71.0418791
19;21,Englewood Avenue,02149,42.4134069,-71.0363909
23;25,Englewood Avenue,02149,42.4133194,-71.0362689
243,Springvale Avenue,02149,42.4133427,-71.0379703
163;165,Elm Street,02149,42.4132998,-71.0400333
36;38,Englewood Avenue,02149,42.4132741,-71.0355172
239,Springvale Avenue,02149,42.4132913,-71.0378876
81,Madison Avenue,02149,42.4132690,-71.0368141
27,Englewood Avenue,02149,42.4132432,-71.0361544
151,Elm Street,02149,42.4131937,-71.0407514
124,Jefferson Avenue,02149,42.4131328,-71.0395393
143,Elm Street,02149,42.4131592,-71.0410495
84,Madison Avenue,02149,42.4131205,-71.0371264
117;119,Elm Street,02149,42.4131291,-71.0422024
121;123,Elm Street,02149,42.4130960,-71.0420294
74,Madison Avenue,02149,42.4129026,-71.0367684
57;59,Madison Avenue,02149,42.4127232,-71.0359786
66,Madison Avenue,02149,42.4126993,-71.0364595
213,Springvale Avenue,02149,42.4126409,-71.0369476
21;21A,Birch Street,02149,42.4125259,-71.0412894
17,Dartmouth Street,02149,42.4125047,-71.0398772
72,Englewood Avenue,02149,42.4124705,-71.0343401
43,Madison Avenue,02149,42.4123831,-71.0354519
78,Englewood Avenue,02149,42.4123235,-71.0340973
201,Springvale Avenue,02149,42.4123905,-71.0365416
86,Jefferson Avenue,02149,42.4122628,-71.0382707
15;17,Clarence Street,02149,42.4122662,-71.0400183
82,Jefferson Avenue,02149,42.4122052,-71.0381373
71,Jefferson Avenue,02149,42.4121734,-71.0374921
6,Vaughan Street,02149,42.4120779,-71.0349875
10,Clarence Street,02149,42.4120097,-71.0395741
108;110,Woodlawn Street,02149,42.4120545,-71.0434085
14,Clarence Street,02149,42.4119865,-71.0397452
32,Madison Avenue,02149,42.4119165,-71.0353586
34;36,Clarence Street,02149,42.4118451,-71.0407103
57,Jefferson Avenue,02149,42.4118302,-71.0370577
68,Jefferson Avenue,02149,42.4117893,-71.0376142
22;24,Clarence Street,02149,42.4119130,-71.0402055
9;11,Elsie Street,02149,42.4118204,-71.0391570
175,Springvale Avenue,02149,42.4116533,-71.0355949
171,Springvale Avenue,02149,42.4115259,-71.0354028
14,Elsie Street,02149,42.4115175,-71.0391984
39,Jefferson Avenue,02149,42.4114175,-71.0364321
74,Dartmouth Street,02149,42.4113979,-71.0378295
4;6,Rosedale Avenue,02149,42.4113811,-71.0393663
36,Elsie Street,02149,42.4113928,-71.0402070
85,Elsie Street,02149,42.4113528,-71.0425609
33,Jefferson Avenue,02149,42.4112796,-71.0362388
6,Park View Road,02149,42.4112493,-71.0403024
40,Jefferson Avenue,02149,42.4112148,-71.0367192
9,Richdale Avenue,02149,42.4111836,-71.0383206
8,Park View Road,02149,42.4111468,-71.0403668
34,Jefferson Avenue,02149,42.4110261,-71.0364725
16,Rosedale Avenue,02149,42.4110472,-71.0396377
22,Maplewood Avenue,02149,42.4110299,-71.0388223
84;86,Elsie Street,02149,42.4110479,-71.0424558
25,Rosedale Avenue,02149,42.4109130,-71.0401811
8,Garland Street,02149,42.4109081,-71.0430009
7,Alpine Avenue,02149,42.4107961,-71.0377755
11,Alpine Avenue,02149,42.4106705,-71.0378382
22,Richdale Avenue,02149,42.4106024,-71.0382856
38,Maplewood Avenue,02149,42.4105300,-71.0391187
3,Jefferson Avenue,02149,42.4104782,-71.0353468
19,Garland Street,02149,42.4104157,-71.0426230
46,Garland Street,02149,42.4103337,-71.0414307
118,Dartmouth Street,02149,42.4103590,-71.0363258
57,Mount Washington Street,02149,42.4102183,-71.0398352
6,Fremont Avenue,02149,42.4100782,-71.0430005
73,Mount Washington Street,02149,42.4100365,-71.0390906
47,Garland Street,02149,42.4099988,-71.0414567
14;16,Fremont Avenue,02149,42.4100242,-71.0426630
88,Garland Street,02149,42.4097639,-71.0396682
103,Mount Washington Street,02149,42.4097192,-71.0377946
25,Fremont Avenue,02149,42.4095444,-71.0423474
144,Garland Street,02149,42.4093704,-71.0370461
51,Fremont Avenue,02149,42.4091612,-71.0412769
57,Lawrence Street,02149,42.4088264,-71.0385573
112;114;116,Fremont Avenue,02149,42.4087438,-71.0383494
87;89,Fremont Avenue,02149,42.4087342,-71.0395959
91;93,Fremont Avenue,02149,42.4086994,-71.0394552
7,Sunnyside Avenue,02149,42.4087401,-71.0423723
66,Nichols Street,02149,42.4084515,-71.0430123
72,Harvard Street,02149,42.4084500,-71.0401145
65,Harvard Street,02149,42.4083133,-71.0406265
133;135,Fremont Avenue,02149,42.4081502,-71.0375474
57,Nichols Street,02149,42.4081319,-71.0436051
141;143,Fremont Avenue,02149,42.4080588,-71.0372938
148,Irving Street,02149,42.4080551,-71.0444076
104,Harvard Street,02149,42.4079701,-71.0387698
94,Nichols Street,02149,42.4080365,-71.0418131
148,Florence Street,02149,42.4079179,-71.0434533
91;95,Nichols Street,02149,42.4077444,-71.0420436
118,Nichols Street,02149,42.4077049,-71.0409166
151,Fremont Avenue,02149,42.4078891,-71.0368333
106,Nichols Street,02149,42.4078667,-71.0413249
119,Harvard Street,02149,42.4074501,-71.0383133
6,Lawrence Street,02149,42.4074763,-71.0401280
115,Nichols Street,02149,42.4074349,-71.0411505
126,Nichols Street,02149,42.4075877,-71.0405402
131;133,Irving Street,02149,42.4074403,-71.0442947
67,Chatham Road,02149,42.4074140,-71.0423665
233,Vine Street,02149,42.4071747,-71.0454869
113,Harvard Street,02149,42.4072862,-71.0387086
150,Nichols Street,02149,42.4071964,-71.0395478
133;135,Nichols Street,02149,42.4071473,-71.0403532
131;133,Francis Street,02149,42.4071055,-71.0409065
120;122,Florence Street,02149,42.4070584,-71.0438590
60,Baker Road,02149,42.4070231,-71.0422406
168,Nichols Street,02149,42.4069540,-71.0387590
52,Chatham Road,02149,42.4069816,-71.0429628
9,Fisher Terrace,02149,42.4068144,-71.0407414
52,Baker Road,02149,42.4068169,-71.0423478
163,Nichols Street,02149,42.4066671,-71.0391737
10,Fisher Terrace,02149,42.4066567,-71.0408929
110,Florence Street,02149,42.4066624,-71.0440378
106,Florence Street,02149,42.4065445,-71.0441044
187,Nichols Street,02149,42.4062809,-71.0381935
99,Malden Street,02149,42.4061071,-71.0402917
98,Francis Street,02149,42.4060826,-71.0418508
9,Hamilton Street,02149,42.4059891,-71.0401068
197,Vine Street,02149,42.4060190,-71.0460163
23,Chatham Road,02149,42.4059852,-71.0430678
92,Malden Street,02149,42.4059617,-71.0408010
15,Union Street,02149,42.4058533,-71.0464879
87,Malden Street,02149,42.4058041,-71.0404504
23,Hamilton Street,02149,42.4057971,-71.0395036
82,Florence Street,02149,42.4057610,-71.0444646
84;86,Malden Street,02149,42.4057263,-71.0408564
83,Malden Street,02149,42.4056717,-71.0404777
84,Francis Street,02149,42.4056243,-71.0421014
49;49A,Union Street,02149,42.4054006,-71.0450247
66,Union Street,02149,42.4055290,-71.0441786
70,Union Street,02149,42.4054947,-71.0440603
176;178,Vine Street,02149,42.4054815,-71.0467050
69,Irving Street,02149,42.4054026,-71.0452443
66,Irving Street,02149,42.4053793,-71.0456893
75,Malden Street,02149,42.4053462,-71.0406031
7,Baker Road,02149,42.4052652,-71.0427184
24,Silver Road,02149,42.4051153,-71.0385955
29,Ferry Street,02149,42.4051051,-71.0474479
43,Silver Road,02149,42.4051286,-71.0395887
91;93,Union Street,02149,42.4049711,-71.0432264
162,Vine Street,02149,42.4049718,-71.0469823
56,Florence Street,02149,42.4048684,-71.0448466
103;105,Union Street,02149,42.4048044,-71.0426279
51,Irving Street,02149,42.4048001,-71.0455281
46,Florence Street,02149,42.4045650,-71.0450334
51;53,Francis Street,02149,42.4044760,-71.0421886
48;50,Francis Street,02149,42.4044753,-71.0426381
47,Luke Road,02149,42.4043698,-71.0431219
32,Irving Street,02149,42.4043212,-71.0461758
41,Malden Street,02149,42.4042678,-71.0410728
31,Irving Street,02149,42.4042115,-71.0457766
141,Vine Street,02149,42.4042202,-71.0468379
37,Malden Street,02149,42.4041453,-71.0411108
188,Chelsea Street,02149,42.4040782,-71.0477523
32,Florence Street,02149,42.4041049,-71.0452096
18,Reynolds Avenue,02149,42.4039853,-71.0405459
24;26,Reynolds Avenue,02149,42.4039329,-71.0402635
30;32,Reynolds Avenue,02149,42.4038982,-71.0399751
20,Florence Street,02149,42.4037078,-71.0454696
22;24,Francis Street,02149,42.4036575,-71.0430561
25,Reynolds Avenue,02149,42.4036092,-71.0404566
160,Broadway,02149,42.3993007,-71.0633502
41,Reynolds Avenue,02149,42.4034925,-71.0395724
9,Irving Street,02149,42.4034633,-71.0461586
8,Malden Street,02149,42.4033651,-71.0419397
13;15,Francis Street,02149,42.4033180,-71.0427686
9,Evelyn Road,02149,42.4032300,-71.0411970
28,County Road,02149,42.4028954,-71.0405153
17,County Road,02149,42.4026241,-71.0410791
16,Revere Beach Parkway,02150,42.4023734,-71.0402830
25,County Road,02149,42.4025593,-71.0406655
1724;1734,Revere Beach Parkway,02149,42.4016481,-71.0443018
66,Abbott Avenue,02149,42.4162106,-71.0380195
61,Freeman Avenue,02149,42.4159404,-71.0382058
70,Freeman Avenue,02149,42.4159198,-71.0387641
25,Abbott Avenue,02149,42.4154499,-71.0364242
37,Freeman Avenue,02149,42.4153544,-71.0373748
42,Freeman Avenue,02149,42.4152526,-71.0377773
24,Abbott Avenue,02149,42.4152356,-71.0367185
54,Adams Avenue,02149,42.4152258,-71.0388941
14,Clay Avenue,02149,42.4151767,-71.0399197
45;47,Jackson Avenue,02149,42.4150638,-71.0393180
8,Clay Avenue,02149,42.4150449,-71.0400665
46,Adams Avenue,02149,42.4150287,-71.0385822
35,Adams Avenue,02149,42.4149591,-71.0380105
26,Freeman Avenue,02149,42.4148362,-71.0372929
34,Adams Avenue,02149,42.4147483,-71.0382270
44,Calhoun Avenue,02149,42.4147428,-71.0403508
40;42,Calhoun Avenue,02149,42.4146520,-71.0402693
36;38,Jackson Avenue,02149,42.4146533,-71.0392385
238;240;242;244,Russell Street,02149,42.4145376,-71.0412520
38,Calhoun Avenue,02149,42.4145735,-71.0401340
11,Adams Avenue,02149,42.4143655,-71.0373592
6,Freeman Avenue,02149,42.4143605,-71.0367605
7;9,Adams Avenue,02149,42.4143010,-71.0372368
12,Adams Avenue,02149,42.4141746,-71.0375897
18;20;22;24,Winthrop Road,02149,42.4140615,-71.0353287
21;23,Harding Avenue,02149,42.4140533,-71.0413272
5,Jackson Avenue,02149,42.4140500,-71.0380603
224,Elm Street,02149,42.4139769,-71.0375388
220,Elm Street,02149,42.4139440,-71.0377112
198;200,Elm Street,02149,42.4138366,-71.0386305
13,Harding Avenue,02149,42.4138611,-71.0409106
178,Elm Street,02149,42.4137050,-71.0395110
11;13,Englewood Avenue,02149,42.4135706,-71.0366350
46;48;50;52,Duncan Road,02149,42.4135180,-71.0338346
33,Winthrop Road,02149,42.4134959,-71.0352421
15;17,Englewood Avenue,02149,42.4134856,-71.0365127
146;148,Elm Street,02149,42.4134707,-71.0411773
250,Springvale Avenue,02149,42.4133049,-71.0385704
121,Jefferson Avenue,02149,42.4132811,-71.0391749
147,Elm Street,02149,42.4131684,-71.0409061
33;35,Englewood Avenue,02149,42.4130830,-71.0359160
129;131,Elm Street,02149,42.4130732,-71.0416691
120,Jefferson Avenue,02149,42.4130686,-71.0394105
236,Springvale Avenue,02149,42.4129902,-71.0379452
57,Winthrop Road,02149,42.4129073,-71.0343894
70,Madison Avenue,02149,42.4128233,-71.0366364
68,Madison Avenue,02149,42.4127565,-71.0365404
95,Jefferson Avenue,02149,42.4127082,-71.0383192
45,Elm Street,02149,42.4125322,-71.0447195
11,Dartmouth Street,02149,42.4126612,-71.0401223
23;25,Harvey Street,02149,42.4125380,-71.0404679
21,Griswold Street,02149,42.4124439,-71.0418054
52,Madison Avenue,02149,42.4123554,-71.0359493
77,Jefferson Avenue,02149,42.4122913,-71.0377210
119;121,Woodlawn Street,02149,42.4123063,-71.0427768
195,Springvale Avenue,02149,42.4122565,-71.0364032
59,Clarence Street,02149,42.4120839,-71.0419442
65,Jefferson Avenue,02149,42.4120246,-71.0372832
48,Dartmouth Street,02149,42.4120071,-71.0386003
184,Springvale Avenue,02149,42.4117552,-71.0362585
15,Elsie Street,02149,42.4117728,-71.0393265
182,Springvale Avenue,02149,42.4117169,-71.0361381
62;64,Dartmouth Street,02149,42.4116092,-71.0381017
47,Jefferson Avenue,02149,42.4115853,-71.0366975
35,Elsie Street,02149,42.4116286,-71.0402433
91;93,Woodlawn Street,02149,42.4114814,-71.0432192
82,Dartmouth Street,02149,42.4112378,-71.0375131
29,Jefferson Avenue,02149,42.4111321,-71.0360876
19,Rosedale Avenue,02149,42.4110738,-71.0400686
20,Mount Washington Street,02149,42.4110320,-71.0413758
152,Springvale Avenue,02149,42.4109447,-71.0352774
20,Rosedale Avenue,02149,42.4109532,-71.0396949
28,Jefferson Avenue,02149,42.4108966,-71.0363910
19,Richdale Avenue,02149,42.4108289,-71.0386007
31,Maplewood Avenue,02149,42.4108315,-71.0393759
19,Mount Washington Street,02149,42.4107535,-71.0415095
21,Richdale Avenue,02149,42.4107310,-71.0386668
26,Rosedale Avenue,02149,42.4107527,-71.0398411
97;99,Dartmouth Street,02149,42.4105656,-71.0371810
34,Rosedale Avenue,02149,42.4105428,-71.0399753
63,Woodlawn Street,02149,42.4103790,-71.0431483
6,Jefferson Avenue,02149,42.4103146,-71.0356881
47,Mount Washington Street,02149,42.4103277,-71.0403424
35,Richdale Avenue,02149,42.4103075,-71.0389142
31,Garland Street,02149,42.4102579,-71.0421332
53,Mount Washington Street,02149,42.4102637,-71.0400607
41,Garland Street,02149,42.4101419,-71.0417672
15,Woodside Avenue,02149,42.4100878,-71.0373177
87,Mount Washington Street,02149,42.4098986,-71.0385145
122,Garland Street,02149,42.4095053,-71.0380846
56,Fremont Avenue,02149,42.4093704,-71.0408855
142,Garland Street,02149,42.4091903,-71.0371254
117;119,Garland Street,02149,42.4091491,-71.0382913
24,Harvard Street,02149,42.4091464,-71.0422253
129;131,Garland Street,02149,42.4090433,-71.0378647
65,Fremont Avenue,02149,42.4089606,-71.0405931
160,Garland Street,02149,42.4088792,-71.0364955
46,Harvard Street,02149,42.4088641,-71.0412120
99;101,Fremont Avenue,02149,42.4086030,-71.0391316
47,Harvard Street,02149,42.4085765,-71.0413409
72,Nichols Street,02149,42.4083947,-71.0427528
146,Fremont Avenue,02149,42.4083204,-71.0369340
69,Harvard Street,02149,42.4082417,-71.0404407
30;32,Lawrence Street,02149,42.4082139,-71.0395481
47,Nichols Street,02149,42.4081572,-71.0440509
51,Nichols Street,02149,42.4081241,-71.0437777
145,Fremont Avenue,02149,42.4080218,-71.0371489
85,Harvard Street,02149,42.4079732,-71.0397001
100,Harvard Street,02149,42.4080822,-71.0391946
142,Irving Street,02149,42.4079507,-71.0445190
99,Harvard Street,02149,42.4077526,-71.0391817
124,Harvard Street,02149,42.4077014,-71.0379535
141,Irving Street,02149,42.4077097,-71.0441784
136;138,Florence Street,02149,42.4075760,-71.0436716
137;139,Florence Street,02149,42.4074687,-71.0431856
109,Harvard Street,02149,42.4076010,-71.0387328
132,Florence Street,02149,42.4074257,-71.0437287
125,Harvard Street,02149,42.4074060,-71.0380723
127;129,Florence Street,02149,42.4071794,-71.0433628
121;123,Harvard Street,02149,42.4072563,-71.0384683
156,Nichols Street,02149,42.4071059,-71.0393136
227;229,Vine Street,02149,42.4070420,-71.0455276
49;51,Chatham Road,02149,42.4068412,-71.0426413
46,Chatham Road,02149,42.4067751,-71.0430589
114,Francis Street,02149,42.4066500,-71.0416345
46,Baker Road,02149,42.4066108,-71.0424495
110,Malden Street,02149,42.4065607,-71.0405527
112,Francis Street,02149,42.4065422,-71.0416196
44,Baker Road,02149,42.4065070,-71.0425090
102,Malden Street,02149,42.4063437,-71.0405988
101,Florence Street,02149,42.4063063,-71.0437869
97,Irving Street,02149,42.4062888,-71.0448450
191,Nichols Street,02149,42.4062416,-71.0380532
100,Malden Street,02149,42.4062646,-71.0406719
35,Baker Road,02149,42.4062064,-71.0422793
88;90,Florence Street,02149,42.4060221,-71.0443430
93,Malden Street,02149,42.4059285,-71.0403957
93;95,Francis Street,02149,42.4058846,-71.0414995
40,Hamilton Street,02149,42.4058287,-71.0386881
42,Hamilton Street,02149,42.4057866,-71.0385490
19;21,Union Street,02149,42.4057693,-71.0461876
23,Baker Road,02149,42.4057955,-71.0424859
78,Florence Street,02149,42.4055880,-71.0444601
13,Hoyt Street,02149,42.4054900,-71.0397317
10,Baker Road,02149,42.4054697,-71.0430343
44,Silver Road,02149,42.4053995,-71.0394177
9,Baker Road,02149,42.4053739,-71.0426906
62,Irving Street,02149,42.4052769,-71.0457207
1;3;5;7;9;11;13;15;19;21;23;25;27,Golden Age Circle,02149,42.4051239,-71.0442278
174,Vine Street,02149,42.4053515,-71.0467419
38,Silver Road,02149,42.4053069,-71.0391115
30,Silver Road,02149,42.4052054,-71.0388859
87;89,Union Street,02149,42.4050086,-71.0433541
55,Irving Street,02149,42.4049957,-71.0454035
120;122,Union Street,02149,42.4048916,-71.0417389
61,Malden Street,02149,42.4049160,-71.0407833
99;101,Union Street,02149,42.4048448,-71.0427731
157;159,Vine Street,02149,42.4047437,-71.0466014
44;46,Irving Street,02149,42.4047280,-71.0459786
40,Irving Street,02149,42.4046046,-71.0460724
53,Luke Road,02149,42.4046176,-71.0430372
158,Union Street,02149,42.4045915,-71.0401093
39,Irving Street,02149,42.4044736,-71.0456335
146,Vine Street,02149,42.4044579,-71.0472185
44,Francis Street,02149,42.4043654,-71.0426985
7,Ferry Street,02149,42.4043126,-71.0477714
163,Union Street,02149,42.4042035,-71.0400050
42,Francis Street,02149,42.4042679,-71.0427446
175,Union Street,02149,42.4041223,-71.0393955
29,Irving Street,02149,42.4040957,-71.0458357
23;25,Irving Street,02149,42.4039868,-71.0458981
27,Francis Street,02149,42.4037329,-71.0425373
22,Malden Street,02149,42.4036608,-71.0418046
1,Mystic View Road,02149,42.3987635,-71.0723468
44;46;48;50;52,Norwood Street,02149,42.4073276,-71.0577741
100,Broadway,02149,42.3978285,-71.0647149
31,Reynolds Avenue,02149,42.4035424,-71.0399423
18;20,Francis Street,02149,42.4035584,-71.0431231
21;23,Luke Road,02149,42.4035447,-71.0435267
10,Irving Street,02149,42.4035687,-71.0465228
6,Malden Street,02149,42.4032579,-71.0419562
3,Irving Street,02149,42.4032895,-71.0462510
15,Evelyn Road,02149,42.4031827,-71.0410322
29,Evelyn Road,02149,42.4031014,-71.0403056
284;286,Chelsea Street,02149,42.4030373,-71.0438105
14,County Road,02149,42.4029908,-71.0412992
26,County Road,02149,42.4029352,-71.0406995
888,Broadway,02149-3199,42.4203270,-71.0449375
50,Abbott Avenue,02149,42.4158551,-71.0374791
33,Abbott Avenue,02149,42.4156617,-71.0366739
49,Freeman Avenue,02149,42.4156634,-71.0378437
58,Freeman Avenue,02149,42.4156237,-71.0383394
29,Abbott Avenue,02149,42.4155542,-71.0365605
38,Abbott Avenue,02149,42.4155435,-71.0370930
49,Adams Avenue,02149,42.4153538,-71.0385314
43,Adams Avenue,02149,42.4151669,-71.0382767
41;43,Jackson Avenue,02149,42.4149853,-71.0391839
21,Freeman Avenue,02149,42.4148955,-71.0369257
29,Adams Avenue,02149,42.4147865,-71.0378198
22,Freeman Avenue,02149,42.4147516,-71.0372086
19,Adams Avenue,02149,42.4145522,-71.0375441
169;171,Jefferson Avenue,02149,42.4144943,-71.0406365
23,Jackson Avenue,02149,42.4144647,-71.0385249
22,Adams Avenue,02149,42.4144430,-71.0378800
19,Jackson Avenue,02149,42.4143423,-71.0383825
242,Elm Street,02149,42.4142649,-71.0368586
22,Calhoun Avenue,02149,42.4141438,-71.0396770
234;236,Elm Street,02149,42.4141144,-71.0371057
226,Elm Street,02149,42.4140094,-71.0373955
153,Jefferson Avenue,02149,42.4140284,-71.0401453
15;17,Harding Avenue,02149,42.4139452,-71.0409762
14,Calhoun Avenue,02149,42.4139085,-71.0394326
192;194;196,Elm Street,02149,42.4138111,-71.0388198
34;36;38;40,Winthrop Road,02149,42.4137133,-71.0348058
23,Winthrop Road,02149,42.4137293,-71.0355534
148;150,Jefferson Avenue,02149,42.4137328,-71.0402757
34;36,Harding Avenue,02149,42.4136805,-71.0417930
29;31,Winthrop Road,02149,42.4135805,-71.0353576
24,Englewood Avenue,02149,42.4135853,-71.0359768
189;191,Elm Street,02149,42.4134598,-71.0389427
87;89,Madison Avenue,02149,42.4134448,-71.0369855
142;144,Elm Street,02149,42.4134547,-71.0413209
138;140,Elm Street,02149,42.4134356,-71.0414637
183;185,Elm Street,02149,42.4134401,-71.0392224
43,Winthrop Road,02149,42.4133249,-71.0349932
54;56;58;60,Duncan Road,02149,42.4132139,-71.0341049
45,Winthrop Road,02149,42.4132286,-71.0348876
113;115,Jefferson Avenue,02149,42.4131438,-71.0389179
2,Dartmouth Street,02149,42.4131238,-71.0401634
51,Winthrop Road,02149,42.4130701,-71.0346421
62;64;66;68,Winthrop Road,02149,42.4129887,-71.0338899
4;6,Dartmouth Street,02149,42.4130299,-71.0400302
50;52,Englewood Avenue,02149,42.4129423,-71.0350313
41,Englewood Avenue,02149,42.4129176,-71.0356781
63,Madison Avenue,02149,42.4128793,-71.0361901
10,Dartmouth Street,02149,42.4128689,-71.0398089
221,Springvale Avenue,02149,42.4128654,-71.0372771
228,Springvale Avenue,02149,42.4128323,-71.0377350
13;15,Harvey Street,02149,42.4128713,-71.0405638
67,Winthrop Road,02149,42.4127328,-71.0340602
14,Dartmouth Street,02149,42.4127067,-71.0395908
18,Griswold Street,02149,42.4127383,-71.0417997
27,Vaughan Street,02149,42.4126373,-71.0341728
53,Madison Avenue,02149,42.4126444,-71.0358545
16;22,Dartmouth Street,02149,42.4126402,-71.0394873
17;19,Birch Street,02149,42.4126407,-71.0413125
55,Englewood Avenue,02149,42.4125854,-71.0351961
131,Woodlawn Street,02149,42.4126256,-71.0425475
89,Jefferson Avenue,02149,42.4125535,-71.0381077
9,Griswold Street,02149,42.4125427,-71.0423327
13,Griswold Street,02149,42.4124884,-71.0421257
24,Birch Street,02149,42.4124611,-71.0408209
208,Springvale Avenue,02149,42.4123690,-71.0370390
75,Jefferson Avenue,02149,42.4122336,-71.0376239
69;71,Englewood Avenue,02149,42.4121840,-71.0345561
243,Ferry Street,02149,42.4122382,-71.0453855
29,Clarence Street,02149,42.4121796,-71.0406453
35;37,Dartmouth Street,02149,42.4120656,-71.0393190
194,Springvale Avenue,02149,42.4120255,-71.0365451
186,Springvale Avenue,02149,42.4118384,-71.0362997
5,Elsie Street,02149,42.4118439,-71.0389569
52;54,Clarence Street,02149,42.4117288,-71.0416812
58;60,Dartmouth Street,02149,42.4116658,-71.0382068
72,Clarence Street,02149,42.4117518,-71.0425326
31,Elsie Street,02149,42.4116592,-71.0400499
73,Elsie Street,02149,42.4114539,-71.0419423
67,Dartmouth Street,02149,42.4113471,-71.0382553
87;89,Woodlawn Street,02149,42.4113491,-71.0431952
52,Elsie Street,02149,42.4112602,-71.0410126
88;90,Dartmouth Street,02149,42.4110600,-71.0372811
25,Jefferson Avenue,02149,42.4110362,-71.0359835
92,Elsie Street,02149,42.4110192,-71.0427047
79,Woodlawn Street,02149,42.4110026,-71.0431541
7,Mount Washington Street,02149,42.4109258,-71.0420609
29,Maplewood Avenue,02149,42.4109306,-71.0393254
148,Springvale Avenue,02149,42.4108646,-71.0351572
98,Dartmouth Street,02149,42.4108236,-71.0369740
18,Richdale Avenue,02149,42.4107049,-71.0382216
39,Maplewood Avenue,02149,42.4106311,-71.0395354
15;17,Garland Street,02149,42.4104708,-71.0427629
105,Dartmouth Street,02149,42.4104196,-71.0369537
38;40,Garland Street,02149,42.4104071,-71.0416598
48,Garland Street,02149,42.4102952,-71.0412667
44,Maplewood Avenue,02149,42.4103521,-71.0392810
2,Fremont Avenue,02149,42.4102337,-71.0431315
11;13,Woodside Avenue,02149,42.4102155,-71.0372392
126,Dartmouth Street,02149,42.4101484,-71.0360192
71,Mount Washington Street,02149,42.4100851,-71.0392881
12,Woodside Avenue,02149,42.4100028,-71.0369257
79,Mount Washington Street,02149,42.4100020,-71.0389009
66,Garland Street,02149,42.4100358,-71.0406046
138,Dartmouth Street,02149,42.4098565,-71.0356215
19,Fremont Avenue,02149,42.4096242,-71.0425618
134,Garland Street,02149,42.4093097,-71.0375495
9,Harvard Street,02149,42.4090462,-71.0429668
61;63,Fremont Avenue,02149,42.4090158,-71.0407329
61;63,Lawrence Street,02149,42.4089761,-71.0383741
10;12,Sunnyside Avenue,02149,42.4086000,-71.0425330
39,Harvard Street,02149,42.4086915,-71.0416119
7;9,Woodlawn Street,02149,42.4086139,-71.0434233
66,Harvard Street,02149,42.4085718,-71.0404127
41;43,Harvard Street,02149,42.4084617,-71.0417266
4,Sunnyside Avenue,02149,42.4084450,-71.0421283
139,Fremont Avenue,02149,42.4081406,-71.0373965
79,Harvard Street,02149,42.4080549,-71.0400013
114,Harvard Street,02149,42.4078916,-71.0384020
144;146,Florence Street,02149,42.4078313,-71.0434827
16;18,Lawrence Street,02149,42.4077753,-71.0398881
140,Florence Street,02149,42.4076687,-71.0435644
75,Chatham Road,02149,42.4076398,-71.0422500
105,Nichols Street,02149,42.4075854,-71.0415819
138,Harvard Street,02149,42.4075458,-71.0372163
135,Irving Street,02149,42.4075691,-71.0442321
237,Vine Street,02149,42.4074344,-71.0453635
62;64,Chatham Road,02149,42.4073101,-71.0428026
126,Florence Street,02149,42.4071846,-71.0438089
5,Lawrence Street,02149,42.4072964,-71.0397381
129,Nichols Street,02149,42.4071903,-71.0405805
130,Francis Street,02149,42.4071598,-71.0413390
164,Nichols Street,02149,42.4070550,-71.0389431
56,Chatham Road,02149,42.4071021,-71.0429264
125,Florence Street,02149,42.4070840,-71.0433886
223;225,Vine Street,02149,42.4069179,-71.0455832
115;117,Florence Street,02149,42.4068309,-71.0435286
121;123,Francis Street,02149,42.4067957,-71.0410452
50,Baker Road,02149,42.4067213,-71.0424275
113,Florence Street,02149,42.4067097,-71.0435879
215;217,Vine Street,02149,42.4066473,-71.0456842
45,Chatham Road,02149,42.4066208,-71.0427526
171,Nichols Street,02149,42.4065556,-71.0388111
38;40,Chatham Road,02149,42.4065684,-71.0431749
37;39,Chatham Road,02149,42.4064120,-71.0428529
40,Baker Road,02149,42.4064058,-71.0425533
207;209,Vine Street,02149,42.4063938,-71.0458454
102,Florence Street,02149,42.4063639,-71.0441552
32;34,Chatham Road,02149,42.4063580,-71.0432708
24,Hamilton Street,02149,42.4060942,-71.0393950
33,Baker Road,02149,42.4061083,-71.0423222
94,Malden Street,02149,42.4060542,-71.0407301
87,Irving Street,02149,42.4060314,-71.0449521
38,Hamilton Street,02149,42.4058749,-71.0387666
6,Tyler Street,02149,42.4057783,-71.0397919
27;29,Union Street,02149,42.4057063,-71.0459497
51,Ferry Street,02149,42.4057508,-71.0471726
31,Union Street,02149,42.4056527,-71.0458291
33;35,Hamilton Street,02149,42.4056051,-71.0390555
58,Union Street,02149,42.4056191,-71.0445733
85,Francis Street,02149,42.4055475,-71.0416770
68,Irving Street,02149,42.4054924,-71.0456142
11,Baker Road,02149,42.4054732,-71.0426384
76,Francis Street,02149,42.4053668,-71.0422182
68;70,Malden Street,02149,42.4052540,-71.0410706
170,Vine Street,02149,42.4052358,-71.0468371
2;4;6;8;10;12;14;16;20;22;24;26;28;30,Golden Age Circle,02149,42.4049769,-71.0436522
53,Irving Street,02149,42.4048926,-71.0454534
161,Vine Street,02149,42.4048620,-71.0465418
56;58,Luke Road,02149,42.4047853,-71.0433545
11,Alpine Road,02149,42.4047781,-71.0400130
150;152,Union Street,02149,42.4046558,-71.0405897
113,Union Street,02149,42.4046663,-71.0421318
48,Florence Street,02149,42.4046345,-71.0449845
44,Malden Street,02149,42.4043812,-71.0414383
138,Vine Street,02149,42.4042125,-71.0473246
33;35,Malden Street,02149,42.4040389,-71.0411444
22,Irving Street,02149,42.4038719,-71.0464125
28;30,Francis Street,02149,42.4038592,-71.0429635
21,Irving Street,02149,42.4038594,-71.0459347
24,Malden Street,02149,42.4037796,-71.0417610
124;126,Vine Street,02149,42.4037524,-71.0475063
15,Reynolds Avenue,02149,42.4036408,-71.0406747
16,Florence Street,02149,42.4035640,-71.0454840
19,Malden Street,02149,42.4035155,-71.0413762
12,Evelyn Road,02149,42.4034786,-71.0410671
17;19,Luke Road,02149,42.4034441,-71.0435745
12;14,Luke Road,02149,42.4033468,-71.0440608
238,Chelsea Street,02149,42.4032871,-71.0459439
8;10,Francis Street,02149,42.4032445,-71.0432572
276;278,Chelsea Street,02149,42.4030619,-71.0441632
16,County Road,02149,42.4029816,-71.0410874
292;294,Chelsea Street,02149,42.4030404,-71.0434682
288;290,Chelsea Street,02149,42.4030429,-71.0436368
24,County Road,02149,42.4029611,-71.0409312
10,Everett Avenue,02149,42.4026248,-71.0415392
32,Revere Beach Parkway,02150,42.4025587,-71.0401011
21,County Road,02149,42.4026103,-71.0409289
1834,Revere Beach Parkway,02149,42.4019660,-71.0481789
543,Ferry Street,02149,42.4200374,-71.0539550
410,Broadway,02149,42.4060149,-71.0568010
85,Tileston Street,02149,42.4054573,-71.0658299
121,Vine Street,02149,42.4035466,-71.0470619
29,Reynolds Avenue,02149,42.4035806,-71.0401073
32,Evelyn Road,02149,42.4033535,-71.0401704
12;14,Francis Street,02149,42.4033501,-71.0432208
4,Irving Street,02149,42.4033665,-71.0466063
17,Evelyn Road,02149,42.4031751,-71.0408809
322;326,Chelsea Street,02149,42.4030649,-71.0420834
42,Revere Beach Parkway,02150,42.4029603,-71.0398050
27,County Road,02149,42.4025650,-71.0405209
45,Abbott Avenue,02149,42.4159867,-71.0370655
43,Freeman Avenue,02149,42.4155131,-71.0376131
62,Adams Avenue,02149,42.4154132,-71.0392032
48;50,Freeman Avenue,02149,42.4154523,-71.0380764
22,Clay Avenue,02149,42.4154140,-71.0396493
725,Broadway,02149,42.4154089,-71.0476258
20,Abbott Avenue,02149,42.4150868,-71.0365993
27,Freeman Avenue,02149,42.4150882,-71.0371152
32,Freeman Avenue,02149,42.4150086,-71.0374851
226,Russell Street,02149,42.4149375,-71.0407270
39,Jackson Avenue,02149,42.4148949,-71.0390567
38,Adams Avenue,02149,42.4148670,-71.0383681
39,Calhoun Avenue,02149,42.4147906,-71.0399506
260,Elm Street,02149,42.4147246,-71.0361658
11,Freeman Avenue,02149,42.4146747,-71.0366307
256,Elm Street,02149,42.4145332,-71.0363421
174,Jefferson Avenue,02149,42.4143947,-71.0410044
17;19,Calhoun Avenue,02149,42.4142437,-71.0393041
25;27;29;31,Duncan Road,02149,42.4140620,-71.0348035
216;218,Elm Street,02149,42.4139446,-71.0378582
147,Jefferson Avenue,02149,42.4138679,-71.0399715
12;14,Englewood Avenue,02149,42.4138024,-71.0363110
225,Elm Street,02149,42.4137589,-71.0373150
223,Elm Street,02149,42.4137070,-71.0374719
7;9,Englewood Avenue,02149,42.4136544,-71.0367571
213,Elm Street,02149,42.4136412,-71.0378741
42;44;46;48,Winthrop Road,02149,42.4135215,-71.0345193
134;136,Elm Street,02149,42.4134215,-71.0416029
32;34,Englewood Avenue,02149,42.4133542,-71.0356366
248,Springvale Avenue,02149,42.4132825,-71.0384157
126,Jefferson Avenue,02149,42.4132101,-71.0396244
40,Englewood Avenue,02149,42.4131912,-71.0353961
244,Springvale Avenue,02149,42.4131823,-71.0382355
47,Winthrop Road,02149,42.4131620,-71.0347530
227,Springvale Avenue,02149,42.4130250,-71.0374980
116,Jefferson Avenue,02149,42.4129877,-71.0392873
112;114,Jefferson Avenue,02149,42.4128965,-71.0391749
14;16,Birch Street,02149,42.4128212,-71.0409117
217,Springvale Avenue,02149,42.4127871,-71.0371625
17,Harvey Street,02149,42.4127722,-71.0405276
13,Birch Street,02149,42.4127639,-71.0413483
18;20,Birch Street,02149,42.4126994,-71.0408693
218,Springvale Avenue,02149,42.4125786,-71.0373374
49,Madison Avenue,02149,42.4125302,-71.0357131
216,Springvale Avenue,02149,42.4124929,-71.0372362
123;125,Woodlawn Street,02149,42.4124061,-71.0426986
88,Jefferson Avenue,02149,42.4123378,-71.0383631
44;46,Madison Avenue,02149,42.4122134,-71.0358145
202,Springvale Avenue,02149,42.4121832,-71.0367944
73;75,Englewood Avenue,02149,42.4121085,-71.0344133
80,Jefferson Avenue,02149,42.4121365,-71.0380392
46,Dartmouth Street,02149,42.4120788,-71.0387267
111,Woodlawn Street,02149,42.4120389,-71.0429784
41,Dartmouth Street,02149,42.4119780,-71.0392152
16,Clarence Street,02149,42.4119441,-71.0399119
5,Vaughan Street,02149,42.4119163,-71.0347259
190;192,Springvale Avenue,02149,42.4119226,-71.0364501
20,Clarence Street,02149,42.4119316,-71.0400539
177,Springvale Avenue,02149,42.4118595,-71.0357532
50,Clarence Street,02149,42.4117726,-71.0414210
21,Elsie Street,02149,42.4117152,-71.0396585
8,Elsie Street,02149,42.4115762,-71.0388595
10,Elsie Street,02149,42.4115546,-71.0390607
43,Jefferson Avenue,02149,42.4115077,-71.0365909
14,Madison Avenue,02149,42.4114867,-71.0347455
57;59,Dartmouth Street,02149,42.4114970,-71.0385281
2,Rosedale Avenue,02149,42.4115266,-71.0393467
172,Springvale Avenue,02149,42.4114800,-71.0358097
12,Madison Avenue,02149,42.4113999,-71.0346259
153,Springvale Avenue,02149,42.4111961,-71.0350002
19,Maplewood Avenue,02149,42.4111951,-71.0391619
36,Jefferson Avenue,02149,42.4111093,-71.0365822
156,Springvale Avenue,02149,42.4110469,-71.0353794
17,Richdale Avenue,02149,42.4109287,-71.0385235
12,Richdale Avenue,02149,42.4109029,-71.0381131
21,Park View Road,02149,42.4108818,-71.0410414
15,Mount Washington Street,02149,42.4108690,-71.0416845
29,Rosedale Avenue,02149,42.4107516,-71.0402946
24,Garland Street,02149,42.4106548,-71.0423105
10,Jefferson Avenue,02149,42.4104291,-71.0358100
19,Alpine Avenue,02149,42.4103783,-71.0380115
4,Woodside Avenue,02149,42.4102523,-71.0366614
36,Richdale Avenue,02149,42.4102108,-71.0385572
54,Garland Street,02149,42.4102077,-71.0411100
8,Woodside Avenue,02149,42.4101557,-71.0367664
128;130,Dartmouth Street,02149,42.4100696,-71.0358706
129,Dartmouth Street,02149,42.4098851,-71.0362043
84,Garland Street,02149,42.4098168,-71.0398248
100,Garland Street,02149,42.4096351,-71.0387109
118,Mount Washington Street,02149,42.4098180,-71.0370724
43,Woodlawn Street,02149,42.4098456,-71.0430868
18,Belle View Avenue,02149,42.4097815,-71.0409004
11,Fremont Avenue,02149,42.4097295,-71.0428443
39,Woodlawn Street,02149,42.4095640,-71.0429932
126,Garland Street,02149,42.4094167,-71.0379152
121;123,Garland Street,02149,42.4091148,-71.0381510
53,Fremont Avenue,02149,42.4091264,-71.0411038
42,Harvard Street,02149,42.4089230,-71.0413450
23,Harvard Street,02149,42.4088931,-71.0422756
17,Woodlawn Street,02149,42.4088665,-71.0432165
81,Fremont Avenue,02149,42.4087745,-71.0398949
52,Harvard Street,02149,42.4087607,-71.0409037
95;97,Fremont Avenue,02149,42.4086511,-71.0392913
107,Fremont Avenue,02149,42.4085531,-71.0387528
68;70,Harvard Street,02149,42.4085498,-71.0402643
34;36,Lawrence Street,02149,42.4083449,-71.0394366
80,Harvard Street,02149,42.4083321,-71.0398152
33,Nichols Street,02149,42.4081908,-71.0446034
67,Nichols Street,02149,42.4081028,-71.0432794
13,Lincoln Street,02149,42.4080051,-71.0378122
145;147,Irving Street,02149,42.4079587,-71.0441188
80,Chatham Road,02149,42.4079510,-71.0424819
7;9,Lincoln Street,02149,42.4078455,-71.0378570
15,Lawrence Street,02149,42.4075957,-71.0394806
115,Harvard Street,02149,42.4075118,-71.0385075
66,Chatham Road,02149,42.4074277,-71.0427478
71,Baker Road,02149,42.4073037,-71.0416754
130,Florence Street,02149,42.4072986,-71.0437155
58;60,Chatham Road,02149,42.4072138,-71.0428661
63,Chatham Road,02149,42.4072941,-71.0424182
67,Baker Road,02149,42.4071787,-71.0417371
158,Nichols Street,02149,42.4070752,-71.0391996
63,Baker Road,02149,42.4070485,-71.0418043
55;57,Chatham Road,02149,42.4070563,-71.0425216
115,Irving Street,02149,42.4069450,-71.0445452
119;121,Florence Street,02149,42.4069252,-71.0434680
125;127,Francis Street,02149,42.4069040,-71.0410057
42;44,Chatham Road,02149,42.4066713,-71.0431196
169,Nichols Street,02149,42.4066144,-71.0390094
113,Malden Street,02149,42.4065652,-71.0400161
213,Vine Street,02149,42.4065289,-71.0457810
106,Malden Street,02149,42.4064688,-71.0405767
111;113,Francis Street,02149,42.4064804,-71.0411850
36,Chatham Road,02149,42.4064614,-71.0432187
105,Florence Street,02149,42.4064364,-71.0437036
183,Nichols Street,02149,42.4063545,-71.0383078
14;16,Hamilton Street,02149,42.4063346,-71.0394731
104;106,Francis Street,02149,42.4063373,-71.0417391
105;107,Malden Street,02149,42.4063178,-71.0402023
12,Hamilton Street,02149,42.4062108,-71.0397782
205,Vine Street,02149,42.4062750,-71.0458854
99,Florence Street,02149,42.4061775,-71.0438489
201,Vine Street,02149,42.4061542,-71.0459617
30,Baker Road,02149,42.4060899,-71.0427050
93,Florence Street,02149,42.4060243,-71.0438875
57;59,Ferry Street,02149,42.4060120,-71.0470627
53;55,Ferry Street,02149,42.4058647,-71.0471053
16,Chatham Road,02149,42.4058449,-71.0435374
20,Baker Road,02149,42.4057896,-71.0428781
186,Vine Street,02149,42.4057487,-71.0465628
13;15,Chatham Road,02149,42.4056578,-71.0432244
6;8,Chatham Road,02149,42.4056379,-71.0436447
182,Vine Street,02149,42.4056282,-71.0466358
14,Baker Road,02149,42.4055835,-71.0429714
181,Vine Street,02149,42.4055215,-71.0462508
72,Union Street,02149,42.4054579,-71.0439388
76,Malden Street,02149,42.4054463,-71.0409777
17,Hoyt Street,02149,42.4053722,-71.0398122
72,Malden Street,02149,42.4053515,-71.0410153
37,Ferry Street,02149,42.4053345,-71.0473626
34,Silver Road,02149,42.4052697,-71.0389870
72;74,Francis Street,02149,42.4052794,-71.0422526
66,Malden Street,02149,42.4052773,-71.0412878
4,Baker Road,02149,42.4052715,-71.0431297
69,Malden Street,02149,42.4051421,-71.0406306
166,Vine Street,02149,42.4050927,-71.0468834
62;64,Malden Street,02149,42.4050323,-71.0411501
60,Florence Street,02149,42.4050163,-71.0448114
25;27,Silver Road,02149,42.4049031,-71.0388323
31;32;33;34;35;36;37;38;39;40;41;42,Golden Age Circle,02149,42.4047962,-71.0440744
30,Hoyt Street,02149,42.4048272,-71.0397038
52,Florence Street,02149,42.4047344,-71.0449119
149,Vine Street,02149,42.4044762,-71.0466990
47;49,Francis Street,02149,42.4043682,-71.0422499
34,Malden Street,02149,42.4042020,-71.0417721
34,Francis Street,02149,42.4040567,-71.0428487
37,Luke Road,02149,42.4040612,-71.0432660
20;22,Reynolds Avenue,02149,42.4039580,-71.0404125
28,Reynolds Avenue,02149,42.4039190,-71.0401161
130,Vine Street,02149,42.4038931,-71.0474210
63,Reynolds Avenue,02150,42.4038187,-71.0393298
17,Irving Street,02149,42.4037244,-71.0460144
14,Irving Street,02149,42.4037029,-71.0464790
25;27,Luke Road,02149,42.4036472,-71.0434753
100,Santilli Highway,02149,42.4054098,-71.0675061
100,Shute Street,02149,42.4198535,-71.0471445
781,Broadway,02149,42.4166941,-71.0465554
69,Abbott Avenue,02149,42.4165365,-71.0378934
53,Abbott Avenue,02149,42.4161779,-71.0373201
72;74,Freeman Avenue,02149,42.4159921,-71.0389056
75,Adams Avenue,02149,42.4159205,-71.0393971
46,Abbott Avenue,02149,42.4157595,-71.0373297
62,Freeman Avenue,02149,42.4157068,-71.0384960
76,Adams Avenue,02149,42.4157244,-71.0396324
42,Abbott Avenue,02149,42.4156670,-71.0372077
53,Freeman Avenue,02149,42.4157380,-71.0379342
54,Freeman Avenue,02149,42.4155569,-71.0382295
55,Adams Avenue,02149,42.4154759,-71.0387242
44;46,Freeman Avenue,02149,42.4153428,-71.0379169
18,Clay Avenue,02149,42.4153373,-71.0397394
58,Adams Avenue,02149,42.4153226,-71.0390680
51,Jackson Avenue,02149,42.4151828,-71.0395025
13,Abbott Avenue,02149,42.4151255,-71.0360812
14,Abbott Avenue,02149,42.4149149,-71.0363732
15,Freeman Avenue,02149,42.4147453,-71.0367466
35,Calhoun Avenue,02149,42.4147262,-71.0398510
25,Adams Avenue,02149,42.4147109,-71.0377375
16,Freeman Avenue,02149,42.4145785,-71.0370620
15,Adams Avenue,02149,42.4144547,-71.0374565
25;27,Calhoun Avenue,02149,42.4143990,-71.0394755
21,Jackson Avenue,02149,42.4144035,-71.0384574
26,Jackson Avenue,02149,42.4143676,-71.0388461
21;23,Calhoun Avenue,02149,42.4143153,-71.0394036
17;19;21;23,Duncan Road,02149,42.4142527,-71.0350908
26,Calhoun Avenue,02149,42.4142175,-71.0397824
162,Jefferson Avenue,02149,42.4140629,-71.0406609
6;8,Englewood Avenue,02149,42.4139457,-71.0365818
41;43;45;47,Duncan Road,02149,42.4137051,-71.0342732
26;28,Harding Avenue,02149,42.4136845,-71.0414582
12;14,Harding Avenue,02149,42.4136746,-71.0412041
100;102,Madison Avenue,02149,42.4135342,-71.0377194
193;195,Elm Street,02149,42.4135192,-71.0387445
122;124,Elm Street,02149,42.4134440,-71.0420170
98,Madison Avenue,02149,42.4134431,-71.0376158
245,Springvale Avenue,02149,42.4134320,-71.0380555
37,Winthrop Road,02149,42.4134144,-71.0351238
85,Madison Avenue,02149,42.4133674,-71.0369153
77,Madison Avenue,02149,42.4131782,-71.0366770
29;31,Englewood Avenue,02149,42.4131617,-71.0360360
46;48,Englewood Avenue,02149,42.4130277,-71.0351563
71,Madison Avenue,02149,42.4130218,-71.0364385
80,Madison Avenue,02149,42.4129913,-71.0369101
8,Dartmouth Street,02149,42.4129511,-71.0399130
12,Dartmouth Street,02149,42.4127893,-71.0397017
16,Griswold Street,02149,42.4127607,-71.0419630
51;53,Englewood Avenue,02149,42.4126679,-71.0353166
22,Griswold Street,02149,42.4127062,-71.0416393
17,Griswold Street,02149,42.4124791,-71.0419821
28;30,Harvey Street,02149,42.4124384,-71.0400514
65,Englewood Avenue,02149,42.4123398,-71.0348054
27;29,Harvey Street,02149,42.4123920,-71.0404293
7;9,Clarence Street,02149,42.4123167,-71.0396671
43,Elm Street,02149,42.4124020,-71.0452258
23;25,Birch Street,02149,42.4124232,-71.0412601
67,Clarence Street,02149,42.4122812,-71.0422226
204,Springvale Avenue,02149,42.4122433,-71.0368644
193,Springvale Avenue,02149,42.4122174,-71.0363043
33,Clarence Street,02149,42.4121593,-71.0407961
115,Woodlawn Street,02149,42.4121742,-71.0428792
189,Springvale Avenue,02149,42.4120944,-71.0361520
52,Dartmouth Street,02149,42.4119228,-71.0384766
25,Elsie Street,02149,42.4116866,-71.0398471
178,Springvale Avenue,02149,42.4116259,-71.0360094
95;97,Woodlawn Street,02149,42.4116054,-71.0431703
39,Elsie Street,02149,42.4116035,-71.0404326
43,Elsie Street,02149,42.4115734,-71.0406305
50;54,Jefferson Avenue,02149,42.4114912,-71.0371634
168,Springvale Avenue,02149,42.4113853,-71.0357227
81,Elsie Street,02149,42.4114070,-71.0422290
78,Dartmouth Street,02149,42.4112645,-71.0376379
15,Maplewood Avenue,02149,42.4112734,-71.0390700
14,Maplewood Avenue,02149,42.4112238,-71.0386725
84,Dartmouth Street,02149,42.4111410,-71.0374462
23,Maplewood Avenue,02149,42.4111098,-71.0392201
12,Park View Road,02149,42.4110438,-71.0404450
1,Mount Washington Street,02149,42.4110351,-71.0422502
15,Richdale Avenue,02149,42.4110137,-71.0384315
21,Jefferson Avenue,02149,42.4109585,-71.0358386
94;96,Dartmouth Street,02149,42.4109433,-71.0371176
16,Park View Road,02149,42.4109426,-71.0404965
24,Jefferson Avenue,02149,42.4107389,-71.0361221
13,Jefferson Avenue,02149,42.4107333,-71.0356333
93,Dartmouth Street,02149,42.4106989,-71.0373947
32,Maplewood Avenue,02149,42.4107372,-71.0390219
22,Park View Road,02149,42.4107269,-71.0406339
20,Garland Street,02149,42.4106970,-71.0424431
106,Dartmouth Street,02149,42.4105923,-71.0366872
29,Richdale Avenue,02149,42.4105330,-71.0387955
33,Mount Washington Street,02149,42.4105450,-71.0409159
13,Garland Street,02149,42.4105169,-71.0428826
27,Garland Street,02149,42.4103144,-71.0422937
122,Dartmouth Street,02149,42.4102545,-71.0362063
35,Garland Street,02149,42.4102280,-71.0419931
24,Alpine Avenue,02149,42.4102076,-71.0376895
119,Dartmouth Street,02149,42.4100965,-71.0365139
61,Mount Washington Street,02149,42.4101918,-71.0396400
55,Garland Street,02149,42.4098937,-71.0411597
30,Fremont Avenue,02149,42.4097696,-71.0420486
15,Fremont Avenue,02149,42.4096818,-71.0427090
36,Fremont Avenue,02149,42.4096395,-71.0417107
122,Mount Washington Street,02149,42.4094882,-71.0366954
48;50,Fremont Avenue,02149,42.4094808,-71.0412156
33,Woodlawn Street,02149,42.4094255,-71.0430515
140,Garland Street,02149,42.4092580,-71.0372843
150,Garland Street,02149,42.4092708,-71.0368085
12,Harvard Street,02149,42.4092537,-71.0426797
11,Harvard Street,02149,42.4090011,-71.0427769
139,Garland Street,02149,42.4089591,-71.0375171
77,Fremont Avenue,02149,42.4088475,-71.0400522
153,Garland Street,02149,42.4086742,-71.0369171
60;62,Harvard Street,02149,42.4086347,-71.0405660
8,Sunnyside Avenue,02149,42.4086387,-71.0420164
161,Garland Street,02149,42.4085345,-71.0365843
62,Nichols Street,02149,42.4084633,-71.0432382
51,Harvard Street,02149,42.4084989,-71.0411314
40,Lawrence Street,02149,42.4084595,-71.0393487
138,Fremont Avenue,02149,42.4084268,-71.0372872
76,Nichols Street,02149,42.4084014,-71.0425496
2,Sunnyside Avenue,02149,42.4083433,-71.0421751
73,Harvard Street,02149,42.4081839,-71.0402885
39,Nichols Street,02149,42.4081898,-71.0444025
104,Nichols Street,02149,42.4080887,-71.0413856
257;259,Vine Street,02149,42.4080357,-71.0450690
102,Harvard Street,02149,42.4079938,-71.0389936
98,Nichols Street,02149,42.4079866,-71.0416771
253;255,Vine Street,02149,42.4078630,-71.0451483
110;112,Nichols Street,02149,42.4078215,-71.0411527
140,Harvard Street,02149,42.4077416,-71.0371162
10,Lawrence Street,02149,42.4075595,-71.0400591
68;70,Chatham Road,02149,42.4075409,-71.0426779
130,Nichols Street,02149,42.4074942,-71.0403840
75,Baker Road,02149,42.4074385,-71.0416071
59,Chatham Road,02149,42.4071697,-71.0424944
127,Irving Street,02149,42.4073077,-71.0443145
134,Nichols Street,02149,42.4073799,-71.0402057
139,Francis Street,02149,42.4072913,-71.0408391
134,Francis Street,02149,42.4072953,-71.0412784
141,Harvard Street,02149,42.4071869,-71.0372646
129,Francis Street,02149,42.4070002,-71.0409656
118,Florence Street,02149,42.4069202,-71.0439097
118;120,Malden Street,02149,42.4068508,-71.0403466
111,Irving Street,02149,42.4068071,-71.0445946
51,Baker Road,02149,42.4067251,-71.0420056
114;116,Malden Street,02149,42.4066925,-71.0403968
49,Baker Road,02149,42.4066185,-71.0420400
41,Baker Road,02149,42.4064156,-71.0421553
10,Hamilton Street,02149,42.4062598,-71.0399181
173,Nichols Street,02149,42.4062910,-71.0388122
34,Baker Road,02149,42.4061999,-71.0426593
18;20,Hamilton Street,02149,42.4061331,-71.0395726
26;28,Chatham Road,02149,42.4061486,-71.0433722
101,Francis Street,02149,42.4061216,-71.0413710
25;27,Chatham Road,02149,42.4060994,-71.0430151
30,Union Street,02149,42.4059343,-71.0458041
21,Chatham Road,02149,42.4058759,-71.0431196
38;40,Union Street,02149,42.4058494,-71.0453868
27,Baker Road,02149,42.4058854,-71.0424326
17;19,Hamilton Street,02149,42.4058763,-71.0397275
86;88,Francis Street,02149,42.4057447,-71.0420204
42;44,Union Street,02149,42.4057504,-71.0451010
50,Hamilton Street,02149,42.4056924,-71.0382539
27;29,Hamilton Street,02149,42.4056456,-71.0392572
52;54,Union Street,02149,42.4056548,-71.0447126
185,Vine Street,02149,42.4056097,-71.0462132
43;45,Hamilton Street,02149,42.4054721,-71.0386314
80,Francis Street,02149,42.4055105,-71.0421405
70,Florence Street,02149,42.4053508,-71.0446281
81,Malden Street,02149,42.4055438,-71.0405097
81;83,Francis Street,02149,42.4054003,-71.0415997
68,Florence Street,02149,42.4052625,-71.0446814
177,Vine Street,02149,42.4053839,-71.0463136
39,Silver Road,02149,42.4050789,-71.0394438
112;114,Union Street,02149,42.4049682,-71.0420080
116;118,Union Street,02149,42.4049361,-71.0418801
23,Ferry Street,02149,42.4048179,-71.0475737
16,Silver Road,02149,42.4048520,-71.0393117
28,Hoyt Street,02149,42.4049277,-71.0396372
10,Alpine Road,02149,42.4048641,-71.0404113
128;130,Union Street,02149,42.4048193,-71.0414547
107;109,Union Street,02149,42.4047618,-71.0424766
132;140,Union Street,02149,42.4047524,-71.0412756
162;164,Union Street,02149,42.4045766,-71.0399971
45,Irving Street,02149,42.4045867,-71.0456084
47,Irving Street,02149,42.4046929,-71.0455657
178,Union Street,02149,42.4044764,-71.0391853
43;45,Luke Road,02149,42.4042666,-71.0431732
165;167,Union Street,02149,42.4041881,-71.0398796
177,Union Street,02149,42.4041157,-71.0392433
32,Francis Street,02149,42.4039577,-71.0429234
33;35,Luke Road,02149,42.4039595,-71.0433250
28,Malden Street,02149,42.4038747,-71.0417144
31,Luke Road,02149,42.4038573,-71.0433735
23,Malden Street,02149,42.4036446,-71.0412889
23;25,Francis Street,02149,42.4036292,-71.0426049
27,Reynolds Avenue,02149,42.4035976,-71.0402890
19;21,Francis Street,02149,42.4035265,-71.0426581
17,Francis Street,02149,42.4034238,-71.0427114
38,Evelyn Road,02149,42.4032636,-71.0397790
11;13,Luke Road,02149,42.4032406,-71.0436873
35,Evelyn Road,02149,42.4030487,-71.0400679
302;304,Chelsea Street,02149,42.4030825,-71.0429274
20,Revere Beach Parkway,02150,42.4024576,-71.0402094
31,County Road,02149,42.4025367,-71.0403652
1629,Revere Beach Parkway,02149,42.4022353,-71.0404638
1683,Revere Beach Parkway,02149,42.4021998,-71.0422540
22,Everett Avenue,02149,42.4022353,-71.0412132
57,Abbott Avenue,02149,42.4162603,-71.0374772
41,Abbott Avenue,02149,42.4158889,-71.0369182
55,Freeman Avenue,02149,42.4158056,-71.0380528
64,Freeman Avenue,02149,42.4158039,-71.0386273
65,Adams Avenue,02149,42.4157096,-71.0390801
28,Abbott Avenue,02149,42.4153431,-71.0368359
17,Abbott Avenue,02149,42.4152354,-71.0362076
52,Adams Avenue,02149,42.4151750,-71.0387781
52,Jackson Avenue,02149,42.4149827,-71.0397274
28,Freeman Avenue,02149,42.4149068,-71.0374034
35,Jackson Avenue,02149,42.4147900,-71.0389130
33,Jackson Avenue,02149,42.4147451,-71.0388143
173,Jefferson Avenue,02149,42.4145938,-71.0407598
25,Jackson Avenue,02149,42.4145453,-71.0385930
24,Adams Avenue,02149,42.4144955,-71.0379411
32,Calhoun Avenue,02149,42.4143821,-71.0399558
165,Jefferson Avenue,02149,42.4143313,-71.0404789
251,Elm Street,02149,42.4141942,-71.0362040
159,Jefferson Avenue,02149,42.4141887,-71.0403188
9,Jackson Avenue,02149,42.4141465,-71.0381584
20,Calhoun Avenue,02149,42.4140649,-71.0395798
243,Elm Street,02149,42.4140365,-71.0364832
25;27,Harding Avenue,02149,42.4139806,-71.0414401
5,Calhoun Avenue,02149,42.4139344,-71.0389181
152A,Jefferson Avenue,02149,42.4138081,-71.0403811
143;145,Jefferson Avenue,02149,42.4137860,-71.0398833
16;18,Englewood Avenue,02149,42.4137286,-71.0362004
16;18,Harding Avenue,02149,42.4137537,-71.0412491
227,Elm Street,02149,42.4137493,-71.0370363
211,Elm Street,02149,42.4136059,-71.0380275
3,Harding Avenue,02149,42.4135924,-71.0406138
26;28,Englewood Avenue,02149,42.4134932,-71.0358830
187,Elm Street,02149,42.4134556,-71.0390580
177;179;181,Elm Street,02149,42.4134195,-71.0394371
169;173,Elm Street,02149,42.4133635,-71.0397931
167,Elm Street,02149,42.4133307,-71.0399005
246,Springvale Avenue,02149,42.4132358,-71.0383430
117,Jefferson Avenue,02149,42.4131934,-71.0390582
42;44,Englewood Avenue,02149,42.4131067,-71.0352719
242,Springvale Avenue,02149,42.4130992,-71.0381479
125;127,Elm Street,02149,42.4130772,-71.0418500
43,Englewood Avenue,02149,42.4128319,-71.0355594
99;101,Jefferson Avenue,02149,42.4128333,-71.0385139
137,Woodlawn Street,02149,42.4128382,-71.0424163
58,Englewood Avenue,02149,42.4127737,-71.0348062
47;49,Englewood Avenue,02149,42.4127516,-71.0354366
60,Englewood Avenue,02149,42.4127068,-71.0346928
220,Springvale Avenue,02149,42.4126398,-71.0374824
209,Springvale Avenue,02149,42.4125842,-71.0368507
58;60,Madison Avenue,02149,42.4125320,-71.0362444
203;205,Springvale Avenue,02149,42.4124921,-71.0366876
85;87,Jefferson Avenue,02149,42.4124904,-71.0380118
127,Woodlawn Street,02149,42.4125209,-71.0426475
74,Englewood Avenue,02149,42.4124066,-71.0342224
11;13,Clarence Street,02149,42.4122995,-71.0398460
27,Clarence Street,02149,42.4122014,-71.0404933
114;116,Woodlawn Street,02149,42.4121668,-71.0433399
77;79,Englewood Avenue,02149,42.4120446,-71.0342913
65,Clarence Street,02149,42.4120803,-71.0421867
179,Springvale Avenue,02149,42.4119067,-71.0359125
70;72,Jefferson Avenue,02149,42.4118962,-71.0377541
17,Madison Avenue,02149,42.4118284,-71.0346107
103;105,Woodlawn Street,02149,42.4118287,-71.0430994
62,Jefferson Avenue,02149,42.4117021,-71.0374278
157,Springvale Avenue,02149,42.4114528,-71.0350071
65,Elsie Street,02149,42.4114840,-71.0416490
3,Maplewood Avenue,02149,42.4114552,-71.0389312
63,Dartmouth Street,02149,42.4114333,-71.0383804
28,Elsie Street,02149,42.4113959,-71.0398515
46,Jefferson Avenue,02149,42.4113523,-71.0369072
7,Park View Road,02149,42.4113063,-71.0407362
60,Elsie Street,02149,42.4112519,-71.0412613
70,Elsie Street,02149,42.4111550,-71.0417055
14,Rosedale Avenue,02149,42.4111305,-71.0395526
19,Park View Road,02149,42.4109844,-71.0409494
22,Mount Washington Street,02149,42.4109595,-71.0412205
144,Springvale Avenue,02149,42.4107565,-71.0350270
18,Garland Street,02149,42.4107415,-71.0425728
35,Maplewood Avenue,02149,42.4107249,-71.0394423
23,Mount Washington Street,02149,42.4107094,-71.0413467
9,Jefferson Avenue,02149,42.4106036,-71.0354911
14,Jefferson Avenue,02149,42.4105352,-71.0359866
15,Alpine Avenue,02149,42.4105525,-71.0379264
34,Garland Street,02149,42.4104812,-71.0418584
39,Mount Washington Street,02149,42.4104495,-71.0406574
18,Alpine Avenue,02149,42.4103161,-71.0375751
7;9,Woodside Avenue,02149,42.4102890,-71.0371769
65,Mount Washington Street,02149,42.4101319,-71.0394698
18,Woodside Avenue,02149,42.4099170,-71.0370079
57,Garland Street,02149,42.4098430,-71.0410151
38,Alpine Avenue,02149,42.4097586,-71.0380000
92,Garland Street,02149,42.4097447,-71.0394443
34,Fremont Avenue,02149,42.4097122,-71.0418631
47,Woodlawn Street,02149,42.4097034,-71.0430997
139,Dartmouth Street,02149,42.4096206,-71.0358149
115,Mount Washington Street,02149,42.4095906,-71.0372972
58;60,Fremont Avenue,02149,42.4093727,-71.0407345
10,Harvard Street,02149,42.4093018,-71.0428061
31,Woodlawn Street,02149,42.4093150,-71.0430595
49,Fremont Avenue,02149,42.4092376,-71.0414863
125;127,Garland Street,02149,42.4090794,-71.0380078
30,Somerset Street,02149,42.4090367,-71.0362904
156,Garland Street,02149,42.4089497,-71.0366697
19,Harvard Street,02149,42.4089432,-71.0424745
141;143,Garland Street,02149,42.4088603,-71.0373776
162;164,Garland Street,02149,42.4088019,-71.0363639
31,Harvard Street,02149,42.4088047,-71.0419190
50,Harvard Street,02149,42.4088110,-71.0410577
134,Fremont Avenue,02149,42.4084941,-71.0374657
121,Fremont Avenue,02149,42.4083816,-71.0382461
41;43,Lawrence Street,02149,42.4083786,-71.0388947
59,Harvard Street,02149,42.4083346,-71.0407670
18,Lincoln Street,02149,42.4083015,-71.0380394
82;84;86,Nichols Street,02149,42.4081789,-71.0422822
76;78,Chatham Road,02149,42.4077726,-71.0425695
114,Nichols Street,02149,42.4077568,-71.0410055
132,Harvard Street,02149,42.4076770,-71.0375711
121,Irving Street,02149,42.4071639,-71.0443720
125;127,Nichols Street,02149,42.4072348,-71.0406778
174,Nichols Street,02149,42.4068844,-71.0385348
149,Nichols Street,02149,42.4068690,-71.0397214
48;50,Chatham Road,02149,42.4068817,-71.0430104
55,Baker Road,02149,42.4068272,-71.0419675
120,Francis Street,02149,42.4067604,-71.0415329
107,Irving Street,02149,42.4066862,-71.0446501
107;109,Florence Street,02149,42.4065538,-71.0436337
108;110,Francis Street,02149,42.4064405,-71.0416795
193,Nichols Street,02149,42.4062006,-71.0378769
100;102,Francis Street,02149,42.4062037,-71.0417702
29,Chatham Road,02149,42.4062023,-71.0429612
95,Malden Street,02149,42.4060135,-71.0403256
28,Baker Road,02149,42.4059903,-71.0427648
24,Baker Road,02149,42.4058898,-71.0428151
90;92,Francis Street,02149,42.4058736,-71.0419598
17,Chatham Road,02149,42.4057695,-71.0431868
86,Florence Street,02149,42.4058945,-71.0444183
85,Florence Street,02149,42.4057675,-71.0439806
87;89,Francis Street,02149,42.4056615,-71.0416010
81,Florence Street,02149,42.4056664,-71.0440794
33,Union Street,02149,42.4056401,-71.0456856
37;39,Hamilton Street,02149,42.4055359,-71.0388437
41,Ferry Street,02149,42.4054579,-71.0472430
77,Malden Street,02149,42.4054383,-71.0405676
3,Chatham Road,02149,42.4053617,-71.0433985
40,Silver Road,02149,42.4053458,-71.0392675
63,Irving Street,02149,42.4052431,-71.0453347
73;75,Francis Street,02149,42.4052123,-71.0418410
58,Irving Street,02149,42.4051762,-71.0457916
64,Florence Street,02149,42.4051422,-71.0447489
65,Malden Street,02149,42.4050272,-71.0407087
165,Vine Street,02149,42.4049973,-71.0464875
124;126,Union Street,02149,42.4048641,-71.0416203
95;97,Union Street,02149,42.4048684,-71.0429017
48;50,Irving Street,02149,42.4048598,-71.0459261
17,Silver Road,02149,42.4048013,-71.0389054
154,Union Street,02149,42.4046362,-71.0404286
48;50,Luke Road,02149,42.4045805,-71.0434474
150,Vine Street,02149,42.4045898,-71.0471557
182,Union Street,02149,42.4044526,-71.0390252
145,Vine Street,02149,42.4043447,-71.0467584
43;45,Francis Street,02149,42.4042750,-71.0422873
145;147,Union Street,02149,42.4043148,-71.0407421
38,Francis Street,02149,42.4041603,-71.0428163
39;41,Luke Road,02149,42.4041645,-71.0432259
134,Vine Street,02149,42.4040696,-71.0473995
131;133,Vine Street,02149,42.4039506,-71.0469178
129,Vine Street,02149,42.4037998,-71.0468688
26,Francis Street,02149,42.4037606,-71.0430029
9,Reynolds Avenue,02149,42.4037106,-71.0409830
2,Mystic View Road,02149,42.3968230,-71.0713258
140,Broadway,02149,42.3989800,-71.0637972
8,Freeman Avenue,02149,42.4144801,-71.0369545
31,Mystic View Road,02149,42.4000658,-71.0696842
28,Harvard Street,02149,42.4091032,-71.0420375
30,Harvard Street,02149,42.4090539,-71.0418558
103;105,Francis Street,02149,42.4062170,-71.0413008
51,Jefferson Avenue,02149,42.4117325,-71.0368752
171;173,Union Street,02149,42.4041354,-71.0395642
100,Elm Street,02149,42.4144464,-71.0437089
172;174,Union Street,02149,42.4045416,-71.0394989
169,Union Street,02149,42.4041752,-71.0397234
33,Rosedale Avenue,02149,42.4106243,-71.0403600
168;170,Union Street,02149,42.4045983,-71.0396596
88;90,Madison Avenue,02149,42.4132165,-71.0372629
49,Jefferson Avenue,02149,42.4116785,-71.0367933
121,Vine Street,02149,42.4090944,-71.0447756
117,Edith Street,02149,42.4217099,-71.0505064
103,Garland Street,02149,42.4093336,-71.0394146
82,Boston Street,02149,42.4010932,-71.0463162
24,Rosedale Avenue,02149,42.4108518,-71.0397619
32;34,Harvard Street,02149,42.4090183,-71.0417034
4,Jefferson Avenue,02149,42.4102487,-71.0355972
2,Rivergreen Drive,02149,42.4085360,-71.0697078
2,Rivergreen Drive,02149,42.4086615,-71.0693658
28,Hamilton Street,02149,42.4061112,-71.0388966
169,Alford Street,02129,42.3898399,-71.0705551
17,Jefferson Avenue,02149,42.4108686,-71.0357227
738,Broadway,02149,42.4154374,-71.0482403
795,Broadway,02149,42.4171063,-71.0460944
130,Fremont Avenue,02149,42.4085767,-71.0376491
123,Mount Washington Street,02149,42.4094453,-71.0365946
120,Mount Washington Street,02149,42.4095737,-71.0368965
121,Mount Washington Street,02149,42.4095310,-71.0367961
57,Fremont Avenue,02149,42.4090815,-71.0410069
44,Hamilton Street,02149,42.4057504,-71.0384801
73A;75A,Francis Street,02149,42.4051319,-71.0416124
1633,Revere Beach Parkway,02149,42.4023114,-71.0407302
314;316,Chelsea Street,02149,42.4030372,-71.0423608
2,Malden Street,02149,42.4031536,-71.0419899
129,Union Street,02149,42.4045250,-71.0415690
47,Union Street,02149,42.4055001,-71.0450818
55;57,Union Street,02149,42.4054188,-71.0447696
102,Mill Road,02149,42.4004765,-71.0450070
3,Mystic View Road,02149,42.3976816,-71.0697351
202,Mill Road,02149,42.4012647,-71.0435872
201,Mill Road,02149,42.4008396,-71.0426779
173,Alford Street,02129,42.3915832,-71.0669321
100,Elm Street,02149,42.4142989,-71.0435141
1760,Revere Beach Parkway,02149,42.4015107,-71.0456439
289,Main Street,02149,42.4107295,-71.0623815
101,Mill Road,02149,42.3999417,-71.0442183
484,Second Street,02149,42.4020114,-71.0533559
