House number,Street name,Postal code,Latitude,Longitude
534,Main Street,01453,42.5405164,-71.7410795
598,Central Street,01453,42.5067918,-71.7501025
165,Mill Street,01453,42.5320100,-71.7513500
60,Hospital Road,01453,42.5407857,-71.7635412
100,Erdman Way,01453,42.5479638,-71.7576109
213,Lancaster Street,01453,42.5179010,-71.7520155
118,Main Street,01453,42.5302854,-71.7579196
56,Orchard Hill Park Drive,01453,42.5249707,-71.7147694
10,Orchard Hill Park Drive,01453,42.5245326,-71.7151393
86,Orchard Hill Park Drive,01453,42.5272894,-71.7135101
700,Central Street,01453,42.5037514,-71.7470246
302,North Main Street,01453,42.5422105,-71.7604029
7,Park Street,01453,42.5260945,-71.7606546
289,North Main Street,01453,42.5412156,-71.7581977
48,Water Tower Plaza,01453-2247,42.5420499,-71.7568088
118,Lancaster Street,01453,42.5212329,-71.7535041
168,Sack Boulevard,01453,42.5285695,-71.7429937
59,Merriam Avenue,01453,42.5282341,-71.7595354
285,Central Street,01453,42.5155977,-71.7575500
34,Nashua Street,01453-3312,42.5398834,-71.7398155
14,Commercial Road,01453,42.5351458,-71.7417989
14,Commercial Road,01453,42.5351050,-71.7417407
14,Commercial Road,01453,42.5350449,-71.7416524
14,Commercial Road,01453,42.5349804,-71.7415771
14,Commercial Road,01453,42.5349138,-71.7415079
19,Sack Boulevard,01453,42.5322505,-71.7453843
15,Sack Boulevard,01453,42.5324531,-71.7454114
511,Lancaster Street,01453,42.5111830,-71.7406194
700,Central Street,01453,42.5039601,-71.7473115
482,Main Street,01453,42.5393680,-71.7434516
482,Main Street,01453,42.5394283,-71.7431579
20,Central Street,01453,42.5246690,-71.7590408
28,Manning Avenue,01453,42.5248844,-71.7588370
14,Manning Avenue,01453,42.5253035,-71.7584413
81,Merriam Avenue,01453,42.5284732,-71.7603476
100,Commercial Road,01453,42.5293260,-71.7424956
100,Commercial Road,01453,42.5298202,-71.7428738
252,Mill Street,01453,42.5334728,-71.7435876
927,Merriam Avenue,01453,42.5526918,-71.7779303
880,Central Street,01453,42.5008309,-71.7444454
115,Priest Street,01453,42.5377786,-71.7533043
145,Pleasant Street,01453,42.5222445,-71.7649335
845,Main Street,01453,42.5515343,-71.7395245
25,DeCicco Drive,01453,42.4945294,-71.7669864
40,Monoosnock Avenue,01453,42.5469402,-71.7346029
23,West Street,01453,42.5270155,-71.7608777
33,Orchard Hill Park Drive,01453,42.5247625,-71.7124091
86,Orchard Hill Park Drive,01453-7020,42.5276151,-71.7139827
62,Meadow Pond Drive,01453,42.5086839,-71.7477537
56,Meadow Pond Drive,01453,42.5086196,-71.7480889
43,Meadow Pond Drive,01453,42.5076093,-71.7481711
49,Meadow Pond Drive,01453,42.5072731,-71.7479300
25,Meadow Pond Drive,01453,42.5078577,-71.7494011
19,Meadow Pond Drive,01453,42.5077012,-71.7497521
42A;42B;42C;42D;42E;42F;42G;42H;42I;42J;42K;42L;42M;42N,Meadow Pond Drive,01453,42.5083671,-71.7485574
36A;36B;36C;36D;36E;36F;36G;36H;36I;36J;36K;36L;36M;36N,Meadow Pond Drive,01453,42.5082134,-71.7488577
37A;37B;37C;37D;37E;37F;37G;37H;37I;37J;37K;37L;37M;37N,Meadow Pond Drive,01453,42.5078139,-71.7483547
78A;78B;78C;78D;78E;78F;78G;78H;78I;78J;78K;78L;78M;78N;78O;78P;78Q;78R;78S,Meadow Pond Drive,01453,42.5084500,-71.7467626
198,New Lancaster Road,01453,42.4965742,-71.7271214
11,Jungle Road,01453,42.4918533,-71.7299866
266,Florence Street,01453,42.5169157,-71.7344521
256,Florence Street,01453,42.5168827,-71.7349077
252,Florence Street,01453,42.5168598,-71.7351704
236,Florence Street,01453,42.5168031,-71.7359560
228,Florence Street,01453,42.5168043,-71.7362668
222,Florence Street,01453,42.5167634,-71.7365872
220,Florence Street,01453,42.5167550,-71.7368276
10,Vista Avenue,01453,42.5399731,-71.7369791
218,Florence Street,01453,42.5167257,-71.7371063
214,Florence Street,01453,42.5166795,-71.7377006
210,Florence Street,01453,42.5166913,-71.7379127
208,Florence Street,01453,42.5166604,-71.7381242
206,Florence Street,01453,42.5166509,-71.7383549
204,Florence Street,01453,42.5166526,-71.7385690
202,Florence Street,01453,42.5166516,-71.7387900
200,Florence Street,01453,42.5166229,-71.7390334
198,Florence Street,01453,42.5165919,-71.7392575
196,Florence Street,01453,42.5165837,-71.7394542
194,Florence Street,01453,42.5165735,-71.7396761
135,Commercial Road,01453,42.5250226,-71.7400667
192,Florence Street,01453,42.5165516,-71.7399091
190,Florence Street,01453,42.5165263,-71.7401048
188,Florence Street,01453,42.5165304,-71.7403578
186,Florence Street,01453,42.5165072,-71.7405557
184,Florence Street,01453,42.5164710,-71.7408590
182,Florence Street,01453,42.5164814,-71.7410699
178,Florence Street,01453,42.5164485,-71.7414380
38,Commercial Road,01453,42.5340628,-71.7417209
26,Commercial Road,01453,42.5344657,-71.7418021
172,Florence Street,01453,42.5164163,-71.7417784
39,Viscoloid Avenue,01453,42.5168650,-71.7419963
29,Commercial Road,01453,42.5342571,-71.7427139
41,Commercial Road,01453-3305,42.5334800,-71.7429021
89,Commercial Road,01453,42.5321577,-71.7436478
252,Mill Street,01453,42.5334739,-71.7434973
247,Mill Street,01453,42.5327942,-71.7439327
24,Sack Boulevard,01453,42.5316237,-71.7440283
18,Sack Boulevard,01453,42.5322630,-71.7445039
1,Montana Court,01453,42.5367417,-71.7443554
3,Montana Court,01453,42.5366771,-71.7446433
1001,Central Street,01453,42.5001829,-71.7454681
10,Fifth Street,01453,42.5281028,-71.7469932
9,Ridge Street,01453,42.5297652,-71.7470865
4,Fifth Street,01453,42.5282862,-71.7469453
12,Ridge Street,01453,42.5293923,-71.7469720
60,Spring Street,01453,42.5290517,-71.7472135
16,Fifth Street,01453,42.5278297,-71.7471018
30,Fifth Street,01453,42.5273071,-71.7473830
8,Ridge Street,01453,42.5294292,-71.7472351
20,Fifth Street,01453,42.5275850,-71.7472267
26,Fifth Street,01453,42.5274432,-71.7473049
3,Fifth Street,01453,42.5284810,-71.7474026
238,Water Street,01453,42.5270010,-71.7474842
13,Fifth Street,01453,42.5280018,-71.7476138
7,Fifth Street,01453,42.5282877,-71.7474591
11,Fifth Street,01453,42.5281561,-71.7475060
26,Fourth Street,01453,42.5292020,-71.7476484
19,Fifth Street,01453,42.5278199,-71.7476830
16,Fourth Street,01453,42.5295343,-71.7475270
30,Fourth Street,01453,42.5290357,-71.7477639
25,Fifth Street,01453,42.5276372,-71.7477391
33,Fifth Street,01453,42.5272592,-71.7478825
29,Fifth Street,01453,42.5274281,-71.7478024
40,Fourth Street,01453,42.5284995,-71.7480079
5,Fourth Street,01453,42.5300768,-71.7478253
230,Water Street,01453,42.5271074,-71.7479599
44,Fourth Street,01453,42.5283527,-71.7480455
50,Fourth Street,01453,42.5282087,-71.7480981
9,Fourth Street,01453,42.5299567,-71.7479330
36,Fourth Street,01453,42.5286277,-71.7479610
17,Fourth Street,01453,42.5296857,-71.7480253
54,Fourth Street,01453,42.5280426,-71.7481663
23,Fourth Street,01453,42.5295074,-71.7481107
58,Fourth Street,01453,42.5278795,-71.7482471
64,Fourth Street,01453,42.5277303,-71.7483282
27,Fourth Street,01453,42.5293400,-71.7481801
68,Fourth Street,01453,42.5275702,-71.7483814
34,Spring Street,01453,42.5290260,-71.7483017
2,Third Street,01453,42.5298535,-71.7484815
35,Fourth Street,01453,42.5286761,-71.7483994
220,Water Street,01453,42.5272463,-71.7485856
30,Spring Street,01453,42.5290525,-71.7485135
31,Spring Street,01453,42.5287477,-71.7486593
27,Spring Street,01453,42.5287819,-71.7487929
20,Third Street,01453,42.5291302,-71.7489039
26,Third Street,01453,42.5288393,-71.7489937
21,Third Street,01453,42.5292528,-71.7493603
25,Third Street,01453,42.5289523,-71.7494749
12,Spring Street,01453,42.5292987,-71.7495560
6,Spring Street,01453,42.5293348,-71.7497187
11,Spring Street,01453,42.5289380,-71.7498216
4,Second Street,01453,42.5290757,-71.7499666
99,Erdman Way,01453,42.5467335,-71.7587762
15,West Street,01453,42.5268655,-71.7601825
29,Church Street,01453,42.5277159,-71.7606164
19,Church Street,01453,42.5273842,-71.7607229
7,Park Street,01453,42.5258477,-71.7607637
26,West Street,01453,42.5262329,-71.7614660
482,North Main Street,01453,42.5477541,-71.7624531
785,North Main Street,01453,42.5570705,-71.7709778
290,Abbott Avenue,01453,42.5439095,-71.7724573
284,Abbott Avenue,01453,42.5437200,-71.7723807
86,Austin Street,01453,42.5437622,-71.7727012
80,Austin Street,01453,42.5436032,-71.7730246
74,Austin Street,01453,42.5435189,-71.7733749
66,Austin Street,01453,42.5434552,-71.7737293
60,Austin Street,01453,42.5434087,-71.7739943
54,Austin Street,01453,42.5433356,-71.7742980
46,Austin Street,01453,42.5432757,-71.7747001
38,Austin Street,01453,42.5432088,-71.7750116
342,Lindell Avenue,01453,42.5468163,-71.7751461
32,Austin Street,01453,42.5431515,-71.7753289
35,Berkshire Drive,01453,42.5448969,-71.7758813
365,Lindell Avenue,01453,42.5482577,-71.7763887
16,Austin Street,01453,42.5429999,-71.7760598
30,Campobasso Lane,01453,42.5460543,-71.7758628
31,Shadow Lawn Drive,01453,42.5455743,-71.7761729
32,Shadow Lawn Drive,01453,42.5459460,-71.7764119
6,Austin Street,01453,42.5429053,-71.7765140
25,Shadow Lawn Drive,01453,42.5453846,-71.7766323
402,Lindell Avenue,01453,42.5462409,-71.7767532
11,Berkshire Drive,01453,42.5447800,-71.7769879
5,Berkshire Drive,01453,42.5451515,-71.7772222
639,Merriam Avenue,01453,42.5449459,-71.7776523
610,Merriam Avenue,01453,42.5437975,-71.7778399
430,Lindell Avenue,01453,42.5459599,-71.7779264
8,Shadow Lawn Drive,01453,42.5453484,-71.7780104
14,Coolidge Street,01453,42.5436902,-71.7782167
622,Merriam Avenue,01453,42.5441239,-71.7780937
632,Merriam Avenue,01453,42.5444633,-71.7782825
438,Lindell Avenue,01453,42.5457571,-71.7782900
17,Coolidge Street,01453,42.5439582,-71.7786078
642,Merriam Avenue,01453,42.5447268,-71.7785073
654,Merriam Avenue,01453,42.5451774,-71.7787093
26,Coolidge Street,01453,42.5435173,-71.7787052
660,Merriam Avenue,01453,42.5453413,-71.7787762
23,Coolidge Street,01453,42.5438435,-71.7789897
668,Merriam Avenue,01453,42.5455370,-71.7789713
30,Palm Street,01453,42.5486872,-71.7791394
451,Lindell Avenue,01453,42.5458960,-71.7792566
32,Coolidge Street,01453,42.5434316,-71.7790508
16,Walcott Street,01453,42.5450020,-71.7791134
13,Palm Street,01453,42.5481078,-71.7795766
109,Maple Avenue,01453,42.5440429,-71.7794542
459,Lindell Avenue,01453,42.5457542,-71.7795139
86,Maple Avenue,01453,42.5431466,-71.7795489
121,Maple Avenue,01453,42.5443543,-71.7795950
94,Maple Avenue,01453,42.5433826,-71.7796948
133,Maple Avenue,01453,42.5448195,-71.7797281
21,Betanray Court,01453,42.5488866,-71.7796962
102,Maple Avenue,01453,42.5436271,-71.7798502
471,Lindell Avenue,01453,42.5455286,-71.7799775
110,Maple Avenue,01453,42.5438973,-71.7799715
731,Merriam Avenue,01453,42.5480398,-71.7799441
479,Lindell Avenue,01453,42.5454494,-71.7802676
9,Betanray Court,01453,42.5487364,-71.7802237
739,Merriam Avenue,01453,42.5483430,-71.7801087
128,Maple Avenue,01453,42.5443268,-71.7801728
136,Maple Avenue,01453,42.5447193,-71.7804056
761,Merriam Avenue,01453,42.5490482,-71.7806042
779,Merriam Avenue,01453,42.5495047,-71.7807766
758,Merriam Avenue,01453,42.5487335,-71.7810004
768,Merriam Avenue,01453,42.5489932,-71.7812148
776,Merriam Avenue,01453,42.5492620,-71.7813877
784,Merriam Avenue,01453,42.5494939,-71.7815432
792,Merriam Avenue,01453,42.5497550,-71.7817433
798,Merriam Avenue,01453,42.5499908,-71.7818837
802,Merriam Avenue,01453,42.5503340,-71.7821014
15,Roche Avenue,01453,42.5498337,-71.7823774
19,Roche Avenue,01453,42.5497946,-71.7826213
35,Page Avenue,01453,42.5390264,-71.7157088
500,Kennedy Way,01453,42.5410897,-71.7165759
2,Commercial Road,01453,42.5224097,-71.7376384
380,New Lancaster Road,01453,42.4931732,-71.7262741
235,New Lancaster Road,01453,42.4931506,-71.7302164
241,New Lancaster Road,01453-4958,42.4932135,-71.7285550
60,Hospital Road,01453,42.5406513,-71.7631447
49,Sack Boulevard,01453,42.5314009,-71.7446374
207,Mill Street,01453,42.5318819,-71.7461138
248,Industrial Road,01453,42.5576903,-71.7515285
163,Pioneer Drive,01453,42.5311880,-71.7080868
450,Research Drive,01453,42.4806727,-71.7554679
500,Research Drive,01453,42.4810557,-71.7559485
