House number,Street name,Postal code,Latitude,Longitude
93,Mammoth Road,01852,42.6516801,-71.3339582
45,Branch Street,01852,42.6376662,-71.3227754
57,Old Ferry Road,01852,42.6423240,-71.3621446
741-743,Lawrence Street,01852,42.6317710,-71.3009873
198,High Street,01852,42.6428184,-71.3007670
284,West Sixth Street,01852,42.6563154,-71.3113214
273,Stevens Street,01852,42.6323032,-71.3336950
500,Rogers Street,01852,42.6323772,-71.2868412
243,Worthen Street,01852,42.6446003,-71.3151705
33,Kearney Square,01852,42.6453464,-71.3062659
206,Jackson Street,01852,42.6412651,-71.3123373
43,Highland Street,01852,42.6374031,-71.3105920
350,Adams Street,01854,42.6462421,-71.3213386
400,Foot of John Street,01852,42.6478100,-71.3075300
68,Dracut Street,01854,42.6567252,-71.3306166
43,Highland Street,01852,42.6374132,-71.3105705
391,Varnum Avenue,01854,42.6459328,-71.3449477
105,Princeton Boulevard,01851,42.6357875,-71.3353507
34,Berry Road,01854,42.6526075,-71.3448328
33,Kearney Square,01852,42.6446236,-71.3065785
77,Boisvert Street,01850,42.6563625,-71.3101382
206,Jackson Street,01852,42.6412332,-71.3124344
207,Market Street,01852,42.6447373,-71.3123315
205,Plain Street,01852,42.6222728,-71.3179031
209,Plain Street,01852,42.6222047,-71.3179259
1506,Gorham Street,01852,42.6155943,-71.3024014
124,Merrimack Street,01854,42.6455391,-71.3098438
194,Middle Street,01852,42.6450424,-71.3118775
245,Central Street,01852,42.6421653,-71.3089928
305,Dutton Street,01854,42.6430659,-71.3155665
14,E Street,01851,42.6306083,-71.3245361
35,Maple Street,01852,42.6281992,-71.3093234
24,Merrimack Street,01852,42.6453844,-71.3082258
44,Palmer Street,01852,42.6450067,-71.3105585
254,Merrimack Street,01852,42.6457200,-71.3121883
300,Merrimack Street,01852,42.6457211,-71.3131333
130,Western Ave,01851,42.6396008,-71.3200291
225,Stedman Street,01851,42.6245044,-71.3521016
731,Lakeview Avenue,01850,42.6566580,-71.3127350
1,Lilley Avenue,01850,42.6571980,-71.3121819
1201,Bridge Street,01850,42.6645768,-71.3023998
1201,Bridge Street,01850,42.6650102,-71.3023234
333,West Sixth Street,01850,42.6575738,-71.3126413
60,Lawrence Street,01852,42.6408107,-71.3042531
84,University Avenue,01854,42.6527426,-71.3265178
1201,Bridge Street,01850,42.6654563,-71.3023262
1140,Bridge Street,01850,42.6629668,-71.3038999
108,Aiken Avenue,01850,42.6595289,-71.3115330
56,Aiken Avenue,01850,42.6582057,-71.3123392
230,Cumberland Road,01850,42.6601262,-71.3116538
109,Felker Street,01852,42.6160620,-71.2831895
5,Lawrence Drive,01854,42.6523293,-71.3164180
1460,Middlesex Street,01851,42.6375921,-71.3439319
276,Broadway Street,01854,42.6436153,-71.3194039
42,Wellman Street,01851,42.6198085,-71.3214878
122,Western Avenue,01851,42.6400503,-71.3194175
558,Pawtucket Street,01854,42.6449529,-71.3346897
558,Pawtucket Street,01854,42.6447509,-71.3345143
1317,Middlesex St,01851,42.6386283,-71.3393481
1,Varnum Avenue,01854,42.6500048,-71.3323040
590,Rogers Street,01852,42.6317852,-71.2837026
75,Arcand Drive,01852,42.6471122,-71.3123686
40,Paige Street,01852,42.6468018,-71.3089461
672,Suffolk Street,01854,42.6502585,-71.3152010
1071,Varnum Avenue,01854,42.6454379,-71.3667580
122,Western Ave,01851,42.6398077,-71.3192592
107,Merrimack Street,01852,42.6458040,-71.3093624
47,Lee Street,01852,42.6461190,-71.3095581
219,Central Street,01852,42.6424481,-71.3088218
101,Thorndike Street,01852,42.6365040,-71.3146634
150,Fleming Street,01851,42.6241677,-71.3369167
114,Pine Street,01851,42.6327268,-71.3311857
165,Havilah Street,01852,42.6427136,-71.2690354
131,Mammoth Road,01854,42.6525089,-71.3347604
175,Campbell Drive,01851,42.6212852,-71.3351717
795,Wilder Street,01851,42.6239952,-71.3286751
115,Douglas Road,01852,42.6408155,-71.2797385
141,Staples Street,01851,42.6254196,-71.3458292
300,Martin Luther King Jr Way,01852,42.6502905,-71.3131779
75,John Street,01852,42.6463841,-71.3078317
11,Post Office Square,01852,42.6486454,-71.3115404
39,Perkins Street,01854,42.6515557,-71.3150223
33,Kearney Square,01852,42.6445783,-71.3066676
222,Merrimack Street,01852,42.6456442,-71.3116997
50,Kearney Square,01852,42.6453614,-71.3061117
19,Merrimack Street,01852,42.6457842,-71.3079587
305,Dutton Street,01854,42.6430239,-71.3155929
401,Merrimack Street,01852,42.6465702,-71.3147114
50,Arcand Drive,01852,42.6470006,-71.3137921
99,Moody Street,01852,42.6471203,-71.3144406
375,Merrimack Street,01852,42.6464038,-71.3141655
1,Hospital Drive,01852,42.6453179,-71.3009397
295,Varnum Avenue,01854,42.6478759,-71.3420895
202,Chelmsford Street,01852,42.6335389,-71.3178583
900,Chelmsford Street,01851,42.6144380,-71.3246540
26,Reiss Avenue,01851,42.6124665,-71.3221151
32,Reiss Avenue,01851,42.6107407,-71.3230018
28,Reiss Avenue,01851,42.6115222,-71.3219279
1815,Middlesex Street,01851,42.6353924,-71.3563211
11,Wood Street,01851,42.6342507,-71.3565889
50,Lowes Way,01851,42.6177840,-71.3236924
177;175;169,Merrimack Street,01852,42.6459099,-71.3107441
105;107;109;111,Merrimack Street,01852,42.6458981,-71.3093681
117,Merrimack Street,01852,42.6459588,-71.3095868
336,Bridge Street,01850,42.6497049,-71.3044313
647,Pawtucket Boulevard,01854,42.6412502,-71.3572152
28,Wood Street,01851,42.6340155,-71.3552145
515,Pawtucket Boulevard,01854,42.6413456,-71.3526903
46,Wood Street,01851,42.6334916,-71.3553138
12,Wood Street,01851,42.6342123,-71.3553106
13,Wood Street,01851,42.6339263,-71.3565988
21,Wood Street,01851,42.6336089,-71.3565808
23,Wood Street,01851,42.6335185,-71.3565649
25,Wood Street,01851,42.6332012,-71.3565337
50,Wood Street,01851,42.6333241,-71.3552634
1,Wood Street,01851,42.6345759,-71.3565955
645,Princeton Boulevard,01851,42.6331945,-71.3551673
165,Industrial Avenue East,01852,42.6164988,-71.3163246
160,Industrial Avenue East,01852,42.6165552,-71.3175114
30,Industrial Avenue East,01852,42.6153076,-71.3175308
181,Industrial Avenue East,01852,42.6169040,-71.3159644
181,Plain Street,01852,42.6238824,-71.3175057
101,Lexington Avenue,01854,42.6437192,-71.3540271
111,Lexington Avenue,01854,42.6439035,-71.3540421
114,Lexington Avenue,01854,42.6439815,-71.3544457
117,Lexington Avenue,01854,42.6441238,-71.3540055
120,Lexington Avenue,01854,42.6442103,-71.3544690
121,Lexington Avenue,01854,42.6442720,-71.3540665
134,Lexington Avenue,01854,42.6445257,-71.3544849
144,Lexington Avenue,01854,42.6447925,-71.3545177
154,Lexington Avenue,01854,42.6450728,-71.3545075
157,Lexington Avenue,01854,42.6452185,-71.3541732
162,Lexington Avenue,01854,42.6453209,-71.3544939
32,Lexington Avenue,01854,42.6416784,-71.3542949
40,Lexington Avenue,01854,42.6419683,-71.3542948
46,Lexington Avenue,01854,42.6421663,-71.3543012
666,Varnum Avenue,01854,42.6455015,-71.3545191
77,Lexington Avenue,01854,42.6430067,-71.3538573
85,Lexington Avenue,01854,42.6432762,-71.3539679
99,Lexington Avenue,01854,42.6435975,-71.3540002
85,Parkhurst Road,01824,42.6257948,-71.3593521
32,Lawn Avenue,01852,42.6450122,-71.2737771
35,Edgewood Street,01852,42.6452108,-71.2738672
24,Lawn Avenue,01852,42.6449926,-71.2740936
843,Andover Street,01852,42.6457656,-71.2743553
14,Lawn Avenue,01852,42.6448871,-71.2744120
36,Remington Street,01852,42.6450610,-71.2747828
823,Andover Street,01852,42.6456252,-71.2749640
831,Rogers Street,01876,42.6285087,-71.2755513
41,Remington Street,01852,42.6446915,-71.2752480
35,Remington Street,01852,42.6448754,-71.2754281
805,Andover Street,01852,42.6454860,-71.2756341
791,Andover Street,01852,42.6453742,-71.2759999
794,Rogers Street,01852,42.6299680,-71.2761204
382,Douglas Road,01852,42.6347395,-71.2763273
57,Oak Knoll Road,01852,42.6235601,-71.2768674
49,Oak Knoll Road,01852,42.6234251,-71.2770068
61,Oak Knoll Road,01852,42.6239402,-71.2771137
35,Oak Knoll Road,01852,42.6230656,-71.2771495
43,Oak Knoll Road,01852,42.6232429,-71.2771025
23,Oak Knoll Road,01852,42.6227277,-71.2772977
17,Oak Knoll Road,01852,42.6225596,-71.2773673
60,Oak Knoll Road,01852,42.6238463,-71.2773703
54,Oak Knoll Road,01852,42.6236870,-71.2774562
48,Oak Knoll Road,01852,42.6235191,-71.2775264
11,Oak Knoll Road,01852,42.6223854,-71.2774950
25,Bayberry Drive,01852,42.6215184,-71.2777071
42,Oak Knoll Road,01852,42.6233358,-71.2775941
31,Bayberry Drive,01852,42.6216738,-71.2777249
34,Oak Knoll Road,01852,42.6231802,-71.2776474
22,Oak Knoll Road,01852,42.6228280,-71.2777935
37,Bayberry Drive,01852,42.6218233,-71.2777866
5,Oak Knoll Road,01852,42.6222922,-71.2776688
28,Oak Knoll Road,01852,42.6230071,-71.2777512
12,Oak Knoll Road,01852,42.6226463,-71.2778861
93,Bayberry Drive,01852,42.6235244,-71.2779237
53,Bayberry Drive,01852,42.6222189,-71.2779922
89,Bayberry Drive,01852,42.6233077,-71.2781203
85,Bayberry Drive,01852,42.6230896,-71.2780771
138,Sprague Avenue,01852,42.6210660,-71.2780807
777,Rogers Street,01852,42.6287600,-71.2782166
732,Rogers Street,01852,42.6312155,-71.2784065
69,Bayberry Drive,01852,42.6226757,-71.2781722
79,Bayberry Drive,01852,42.6228818,-71.2781434
135,Sprague Avenue,01852,42.6206286,-71.2782077
52,Bayberry Drive,01852,42.6221978,-71.2784214
124,Sprague Avenue,01852,42.6211761,-71.2784417
125,Sprague Avenue,01852,42.6206683,-71.2784343
14,South Ridge Circle,01852,42.6204952,-71.2785176
20,South Ridge Circle,01852,42.6202953,-71.2785116
82,Bayberry Drive,01852,42.6230395,-71.2786332
68,Bayberry Drive,01852,42.6226131,-71.2786016
10,Briarwood Road,01852,42.6221912,-71.2786594
76,Bayberry Drive,01852,42.6228416,-71.2787058
9,Briarwood Road,01852,42.6225803,-71.2788369
733,Rogers Street,01852,42.6298212,-71.2789320
115,Sprague Avenue,01852,42.6207552,-71.2790050
24,South Ridge Circle,01852,42.6198907,-71.2788531
16,Briarwood Road,01852,42.6221932,-71.2788977
120,Sprague Avenue,01852,42.6212755,-71.2789547
17,Briarwood Road,01852,42.6225779,-71.2790609
90,Bayberry Drive,01852,42.6228289,-71.2790559
22,Briarwood Road,01852,42.6221842,-71.2791384
720,Rogers Street,01852,42.6311392,-71.2791768
23,South Ridge Circle,01852,42.6199496,-71.2791326
19,South Ridge Circle,01852,42.6204974,-71.2792971
25,Briarwood Road,01852,42.6225540,-71.2793037
28,Briarwood Road,01852,42.6221594,-71.2794020
530,Boylston Street,01852,42.6193792,-71.2794143
101,Sprague Avenue,01852,42.6208826,-71.2795007
31,Briarwood Road,01852,42.6225313,-71.2795122
711,Rogers Street,01852,42.6301207,-71.2795031
524,Boylston Street,01852,42.6196161,-71.2797167
90,Sprague Avenue,01852,42.6214286,-71.2796359
34,Briarwood Road,01852,42.6221253,-71.2796891
529,Boylston Street,01852,42.6191605,-71.2798600
518,Boylston Street,01852,42.6197903,-71.2799664
85,Sprague Avenue,01852,42.6209804,-71.2799270
521,Boylston Street,01852,42.6192838,-71.2800325
70,North Billerica Road,01852,42.6186749,-71.2801137
80,Sprague Avenue,01852,42.6214740,-71.2800229
52,North Billerica Road,01852,42.6190692,-71.2802659
582,Boylston Street,01852,42.6199831,-71.2802680
60,North Billerica Road,01852,42.6188855,-71.2801898
513,Boylston Street,01852,42.6194284,-71.2802333
77,Sprague Avenue,01852,42.6210218,-71.2804038
691,Main Street,01852,42.6301300,-71.2802717
507,Boylston Street,01852,42.6195697,-71.2804335
70,Sprague Avenue,01852,42.6215418,-71.2803860
492,Boylston Street,01852,42.6201715,-71.2805305
495,Boylston Street,01852,42.6197114,-71.2806292
60,Sprague Avenue,01852,42.6215936,-71.2807936
71,North Billerica Road,01852,42.6186580,-71.2807826
65,Sprague Avenue,01852,42.6210898,-71.2807608
482,Boylston Street,01852,42.6202970,-71.2807924
53,North Billerica Road,01852,42.6189375,-71.2808287
39,North Billerica Road,01852,42.6193265,-71.2809875
55,Sprague Avenue,01852,42.6210636,-71.2809980
470,Boylston Street,01852,42.6204628,-71.2810438
"109,111",Hollis Street,01852,42.6188913,-71.2812564
47,Sprague Avenue,01852,42.6211237,-71.2813038
"112,110",Hollis Street,01852,42.6191885,-71.2813786
"99,101",Hollis Street,01852,42.6188138,-71.2815305
37,Sprague Avenue,01852,42.6210605,-71.2816339
"102,104",Hollis Street,01852,42.6191233,-71.2816608
"91,93",Hollis Street,01852,42.6187579,-71.2817929
"92,94",Hollis Street,01852,42.6190816,-71.2819284
"85,87",Hollis Street,01852,42.6187038,-71.2820504
84,Hollis Street,01852,42.6190259,-71.2821815
"75,77",Hollis Street,01852,42.6186297,-71.2823884
78,Hollis Street,01852,42.6189504,-71.2825187
651,Rogers Street,01852,42.6309090,-71.2824945
"69,71",Hollis Street,01852,42.6185568,-71.2827214
"66,70",Hollis Street,01852,42.6188837,-71.2828083
105,Felker Street,01852,42.6163570,-71.2832757
"60,62",Hollis Street,01852,42.6188238,-71.2830914
"61,63",Hollis Street,01852,42.6184970,-71.2829869
101,Delmont Avenue,01852,42.6169325,-71.2831886
"53,55",Hollis Street,01852,42.6184400,-71.2832401
101,Delmont Avenue,01852,42.6172575,-71.2835455
105,Felker Street,01852,42.6159621,-71.2831637
"52,54",Hollis Street,01852,42.6187655,-71.2834055
101,Delmont Avenue,01852,42.6168375,-71.2836725
"45,47",Hollis Street,01852,42.6183606,-71.2835321
449,Boylston Street,01852,42.6198270,-71.2834758
141,Commonwealth Avenue,01852,42.6156720,-71.2837698
"44,46",Hollis Street,01852,42.6186882,-71.2836862
142,Commonwealth Avenue,01852,42.6160047,-71.2838763
"35,37",Hollis Street,01852,42.6183054,-71.2838398
"36,38",Hollis Street,01852,42.6186266,-71.2839710
101,Delmont Avenue,01852,42.6168000,-71.2840967
135,Commonwealth Avenue,01852,42.6156240,-71.2840505
35,Bernier Street,01852,42.6174818,-71.2842454
101,Delmont Avenue,01852,42.6163552,-71.2839320
581,Rogers Street,01852,42.6313157,-71.2841665
"25,27",Hollis Street,01852,42.6181857,-71.2841370
"30,32",Hollis Street,01852,42.6185944,-71.2842261
127,Commonwealth Avenue,01852,42.6155709,-71.2842415
136,Commonwealth Avenue,01852,42.6160291,-71.2841536
45,Bernier Street,01852,42.6176793,-71.2843601
93,Delmont Avenue,01852,42.6162850,-71.2842680
15,Hollis Street,01852,42.6181166,-71.2843300
132,Commonwealth Avenue,01852,42.6159504,-71.2844035
22,Hollis Street,01852,42.6184816,-71.2844852
5,Bernier Street,01852,42.6166162,-71.2844423
15,Bernier Street,01852,42.6169859,-71.2845250
123,Commonwealth Avenue,01852,42.6155208,-71.2844011
11,Hollis Street,01852,42.6180140,-71.2846212
85,Delmont Avenue,01852,42.6162432,-71.2845079
117,Commonwealth Avenue,01852,42.6154759,-71.2845887
14,Hollis Street,01852,42.6183854,-71.2847112
27,Bernier Street,01852,42.6172530,-71.2846420
"4,6",Bernier Street,01852,42.6165528,-71.2848433
113,Commonwealth Avenue,01852,42.6154606,-71.2847686
79,Delmont Avenue,01852,42.6161793,-71.2847648
116,Commonwealth Avenue,01852,42.6158557,-71.2847792
53,Bernier Street,01852,42.6178786,-71.2849138
71,Delmont Avenue,01852,42.6161229,-71.2850112
71,Armand Avenue,01852,42.6167574,-71.2852573
71,Bernier Street,01852,42.6184308,-71.2850901
108,Commonwealth Avenue,01852,42.6157783,-71.2851026
"78,80",Armand Avenue,01852,42.6171611,-71.2851020
99,Commonwealth Avenue,01852,42.6154042,-71.2851272
86,Bernier Street,01852,42.6191740,-71.2853472
81,Jean Avenue,01852,42.6175074,-71.2852276
77,Bernier Street,01852,42.6186802,-71.2851785
65,Delmont Avenue,01852,42.6160886,-71.2852520
58,Delmont Avenue,01852,42.6163702,-71.2853755
75,Jean Avenue,01852,42.6174622,-71.2854431
70,Armand Avenue,01852,42.6171248,-71.2854212
57,Delmont Avenue,01852,42.6160533,-71.2855023
100,Commonwealth Avenue,01852,42.6157508,-71.2854010
63,Armand Avenue,01852,42.6167315,-71.2855425
76,Jean Avenue,01852,42.6177849,-71.2855997
"84,86",Christman Avenue,01852,42.6184969,-71.2856089
2,Lowell Street,01852,42.6163102,-71.2856331
69,Jean Avenue,01852,42.6174198,-71.2856589
57,Christman Avenue,01852,42.6181512,-71.2856499
64,Armand Avenue,01852,42.6170119,-71.2857879
68,Jean Avenue,01852,42.6177267,-71.2858851
81,Lowell Street,01852,42.6158569,-71.2859227
90,Commonwealth Avenue,01852,42.6156714,-71.2858027
85,Commonwealth Avenue,01852,42.6152822,-71.2858094
30,Lowell Street,01852,42.6172871,-71.2859725
"76,78",Christman Avenue,01852,42.6184455,-71.2858623
51,Christman Avenue,01852,42.6180222,-71.2859919
82,Commonwealth Avenue,01852,42.6155864,-71.2860582
50,Delmont Avenue,01852,42.6162629,-71.2860351
86,Bernier Street,01852,42.6189300,-71.2859534
45,Lowell Street,01852,42.6159936,-71.2859780
77,Commonwealth Avenue,01852,42.6151900,-71.2860679
70,Christman Avenue,01852,42.6183887,-71.2861125
39,Lowell Street,01852,42.6169681,-71.2862759
39,Delmont Avenue,01852,42.6158670,-71.2861732
18,Lowell Street,01852,42.6177244,-71.2861683
76,Commonwealth Avenue,01852,42.6155085,-71.2862221
4,Lowell Street,01852,42.6179994,-71.2862776
45,Armand Avenue,01852,42.6165916,-71.2861973
33,Delmont Avenue,01852,42.6158228,-71.2863646
32,Delmont Avenue,01852,42.6161877,-71.2864493
74,Commonwealth Avenue,01852,42.6155189,-71.2863940
50,Jean Avenue,01852,42.6175779,-71.2865273
27,Lowell Street,01852,42.6172307,-71.2864729
40,Armand Avenue,01852,42.6168931,-71.2865639
39,Armand Avenue,01852,42.6165554,-71.2864431
54,Christman Avenue,01852,42.6183730,-71.2864655
65,Commonwealth Avenue,01852,42.6151155,-71.2865141
66,Commonwealth Avenue,01852,42.6154743,-71.2865791
25,Delmont Avenue,01852,42.6158155,-71.2867029
44,Jean Avenue,01852,42.6175266,-71.2867476
37,Jean Avenue,01852,42.6171894,-71.2867303
33,Armand Avenue,01852,42.6165097,-71.2866936
24,Delmont Avenue,01852,42.6160626,-71.2869065
60,Commonwealth Avenue,01852,42.6154292,-71.2868051
47,Christman Avenue,01852,42.6179227,-71.2867874
15,Delmont Avenue,01852,42.6157619,-71.2869654
50,Christman Avenue,01852,42.6182115,-71.2869086
39,Christman Avenue,01852,42.6178431,-71.2870268
53,Commonwealth Avenue,01852,42.6150579,-71.2869400
33,Jean Avenue,01852,42.6171766,-71.2869948
36,Jean Avenue,01852,42.6174826,-71.2870089
44,Christman Avenue,01852,42.6181674,-71.2871296
28,Armand Avenue,01852,42.6168258,-71.2869859
"21,31",Armand Avenue,01852,42.6164265,-71.2870288
394,Woburn Street,01852,42.6146386,-71.2870616
18,Delmont Avenue,01852,42.6160671,-71.2870957
33,Christman Avenue,01852,42.6178059,-71.2872479
27,Jean Avenue,01852,42.6171310,-71.2872107
386,Woburn Street,01852,42.6148633,-71.2871969
18,Armand Avenue,01852,42.6167060,-71.2873877
12,Delmont Avenue,01852,42.6160227,-71.2873100
15,Armand Avenue,01852,42.6163181,-71.2873723
380,Woburn Street,01852,42.6150252,-71.2872456
28,Jean Avenue,01852,42.6174245,-71.2873505
366,Woburn Street,01852,42.6153708,-71.2873752
354,Woburn Street,01852,42.6156870,-71.2875179
342,Woburn Street,01852,42.6159158,-71.2875836
358,Woburn Street,01852,42.6155560,-71.2874288
17,Jean Avenue,01852,42.6170170,-71.2875572
330,Woburn Street,01852,42.6162403,-71.2876984
21,Christman Avenue,01852,42.6177484,-71.2876603
20,Jean Avenue,01852,42.6173554,-71.2876070
11,Jean Avenue,01852,42.6169755,-71.2877887
27,Commonwealth Avenue,01852,42.6147234,-71.2877227
14,Jean Avenue,01852,42.6173119,-71.2878295
359,Woburn Street,01852,42.6153748,-71.2879146
345,Woburn Street,01852,42.6157345,-71.2880134
12,Christman Avenue,01852,42.6175856,-71.2879589
320,Woburn Street,01852,42.6166351,-71.2879217
18,Christman Avenue,01852,42.6180242,-71.2879467
308,Woburn Street,01852,42.6169029,-71.2880121
8,Jean Avenue,01852,42.6172593,-71.2881790
24,Commonwealth Avenue,01852,42.6153231,-71.2881594
19,Commonwealth Avenue,01852,42.6146757,-71.2880825
30,Grafton Street,01852,42.6202470,-71.2883863
27,Canterbury Street,01852,42.6157191,-71.2882536
5,Christman Avenue,01852,42.6175942,-71.2882230
335,Woburn Street,01852,42.6160314,-71.2882624
20,Commonwealth Avenue,01852,42.6152577,-71.2883724
10,Christman Avenue,01852,42.6179296,-71.2882996
21,Canterbury Street,01852,42.6156713,-71.2884967
9,Commonwealth Avenue,01852,42.6145721,-71.2885373
22,Canterbury Street,01852,42.6159785,-71.2885828
11,Canterbury Street,01852,42.6156329,-71.2886981
12,Commonwealth Avenue,01852,42.6152450,-71.2885806
317,Woburn Street,01852,42.6164757,-71.2884639
301,Woburn Street,01852,42.6168379,-71.2886104
15,Bristol Street,01852,42.6163478,-71.2888955
26,Bristol Street,01852,42.6166807,-71.2888822
3,Commonwealth Avenue,01852,42.6145174,-71.2887847
5,Canterbury Street,01852,42.6156034,-71.2889281
293,Woburn Street,01852,42.6171253,-71.2888035
84,Rumford Street,01852,42.6154491,-71.2890891
10,Canterbury Street,01852,42.6159017,-71.2890573
51,Crystal Street,01852,42.6170345,-71.2891607
94,Rumford Street,01852,42.6151869,-71.2889761
4,Canterbury Street,01852,42.6158466,-71.2893096
14,Bristol Street,01852,42.6166035,-71.2891872
41,Crystal Street,01852,42.6168916,-71.2894185
10,Bristol Street,01852,42.6165376,-71.2894112
87,Rumford Street,01852,42.6152020,-71.2894811
3,Bristol Street,01852,42.6161968,-71.2895022
34,Crystal Street,01852,42.6172536,-71.2897126
6,Bristol Street,01852,42.6165221,-71.2896252
83,Rumford Street,01852,42.6153726,-71.2895762
73,Rumford Street,01852,42.6156165,-71.2896918
29,Crystal Street,01852,42.6168187,-71.2897339
81,Rumford Street,01852,42.6158527,-71.2898713
30,Crystal Street,01852,42.6171870,-71.2899728
55,Rumford Street,01852,42.6160589,-71.2899253
47,Rumford Street,01852,42.6162674,-71.2900407
43,Rumford Street,01852,42.6163951,-71.2901002
31,Rumford Street,01852,42.6167252,-71.2902303
37,Rumford Street,01852,42.6165203,-71.2901701
11,Rumford Street,01852,42.6170256,-71.2903991
11,Rumford Street,01852,42.6171918,-71.2904129
10,Crystal Street,01852,42.6169836,-71.2906253
5,Crystal Street,01852,42.6166410,-71.2905647
2,Crystal Street,01852,42.6169314,-71.2908851
273,Rogers Street,01852,42.6357250,-71.2934854
273,Rogers Street,08152,42.6358173,-71.2935966
80,Sherman Street,01825,42.6384236,-71.2978669
850,Lawrence Street,01852,42.6305509,-71.2984015
249,High Street,01852,42.6420950,-71.3007465
218,East Merrimack Street,01852,42.6446373,-71.3013893
15,Sixth Street,01850,42.6514911,-71.3019613
180,East Merrimack Street,01852,42.6450249,-71.3022703
460,Lawrence Street,01852,42.6359312,-71.3031158
1150,Bridge Street,01850,42.6635721,-71.3036778
1200,Bridge Street,01850-1255,42.6646602,-71.3038982
5,East Merrimack Street,01852,42.6445729,-71.3053961
290,Central Street,01852,42.6415514,-71.3079217
360,Gorham Street,01852,42.6375005,-71.3083773
795,Gorham Street,01852,42.6308690,-71.3085899
34,John Street,01852,42.6462624,-71.3092756
149,Ennell Street,01850,42.6573833,-71.3091915
37,Lee Street,01852,42.6462588,-71.3101157
109,Jackson Street,01852,42.6423211,-71.3101341
8,Kirk Street,01852,42.6462710,-71.3113266
79,Dutton Street,01852,42.6465662,-71.3127028
91,Dutton Street,01852,42.6462670,-71.3127195
300,Merrimack Street,01852,42.6456717,-71.3131809
710,Aiken Street,01852,42.6564668,-71.3131044
201,Thorndike Street,01852,42.6360432,-71.3131051
322,Merrimack Street,01852,42.6457164,-71.3136206
776,Lakeview Avenue,01850,42.6576908,-71.3135597
155,Father Morissette Boulevard,01852-9998,42.6485807,-71.3136099
700,Aiken Street,01850,42.6563985,-71.3137897
345,Market Street,01852,42.6455003,-71.3144600
41,Broadway Street,01854,42.6443296,-71.3157951
437,Market Street,01854,42.6463315,-71.3161475
311,Adams Street,01854,42.6463537,-71.3189383
331,Fletcher Street,01854,42.6444873,-71.3193385
278,Broadway Street,01854,42.6439764,-71.3196465
66,Plain Street,01851,42.6262340,-71.3216883
963,Chelmsford Street,01851,42.6146389,-71.3275746
22,Riverside Street,01854,42.6508451,-71.3311456
486,Stevens Street,01851,42.6265391,-71.3314486
15,Mammoth Road,01854,42.6507133,-71.3319985
44,Princeton Boulevard,01851,42.6351933,-71.3327585
105,Princeton Boulevard,01851,42.6356834,-71.3351433
158,Mammoth Road,01854,42.6520322,-71.3359314
163,Pawtucket Boulevard,01854,42.6434087,-71.3409848
120,Stedman Street,01851,42.6258017,-71.3491142
24,Stedman Street,01851,42.6288339,-71.3492595
47,Wilbur Street,01851,42.6245772,-71.3504341
1720,Middlesex Street,01851,42.6350374,-71.3529851
1733,Middlesex Street,01851,42.6353805,-71.3538390
1201,Westford Street,01851,42.6279696,-71.3574242
1221,Westford Street,01851,42.6275110,-71.3579181
81,Old Ferry Road,01854,42.6419241,-71.3616687
81,Old Ferry Road,01854,42.6417038,-71.3618302
40,French Street,01852,42.6472622,-71.3092493
15,Kearney Square,01852,42.6450842,-71.3072064
150,Draper Street,01852,42.6402803,-71.2810392
300,Chelmsford Street,01851,42.6305504,-71.3203080
530,Stevens Street,01851,42.6254328,-71.3303564
158,Rogers Street,01852,42.6369513,-71.2973785
1291,Middlesex Street,01851,42.6394010,-71.3378904
170,Merrimack Street,01852,42.6455601,-71.3108292
144,E Merrimack Street,01852,42.6452728,-71.3028854
365,West Meadow Road,01854,42.6487818,-71.3499791
425,West Meadow Road,01854,42.6475118,-71.3503142
145,Boylston Street,01852,42.6266983,-71.2884979
220,Pawtucket Street,01854-5141,42.6501500,-71.3239416
23,Aiken Avenue,01850,42.6570082,-71.3124175
803,Rogers Street,01852,42.6293754,-71.2766041
1028,Westford Street,01851,42.6254149,-71.3538725
101,Thorndike Street,01852,42.6365663,-71.3149556
222-224,Cumberland Road,01850,42.6600979,-71.3114398
101,Thorndike Street,01852,42.6361881,-71.3142500
44,Highland Street,01852,42.6355894,-71.3107182
44,Highland Street,01852,42.6356217,-71.3106107
44,Highland Street,01852,42.6358971,-71.3108857
44,Highland Street,01852,42.6359272,-71.3107879
16,Clarendon Street,01851,42.6284632,-71.3421499
164,Andover Street,01852,42.6422316,-71.2990588
71,Jackson Street,01852,42.6424282,-71.3107067
161,Jackson Street,01854,42.6419541,-71.3113229
27,Jackson Street,01852,42.6428599,-71.3109118
45,Palmer Street,01852,42.6449690,-71.3109599
93,Holyrood Avenue,01852,42.6359823,-71.2837087
50,Father Morissette Boulevard,01852,42.6472253,-71.3105981
115,John Street,01852,42.6479221,-71.3073631
1,River Place,01852,42.6492765,-71.3104967
50,Massmills Drive,01852,42.6463337,-71.3042833
92,Old Ferry Road,01854,42.6423562,-71.3593893
