House number,Street name,Postal code,Latitude,Longitude
31,Main Street,01752-3260,42.3471699,-71.5439919
57,Orchard Street,01752,42.3429241,-71.5549204
794,Boston Post Road East,01752,42.3511524,-71.4978586
187,Boston Post Road West,01752,42.3393910,-71.5892019
681,Boston Post Road,01752,42.3503100,-71.5031303
656,Boston Post Road East,01752,42.3506443,-71.5041917
770,Boston Post Road East,01752,42.3509445,-71.4991383
771,Boston Post Road,01752,42.3490309,-71.4998995
423,Donald Lynch Boulevard,01752,42.3596200,-71.6072595
29,South Bolton Street,01752,42.3460563,-71.5464274
237,Boston Post Road West,01752,42.3387155,-71.5914005
193,Boston Post Road West,01752,42.3407724,-71.5898366
197,Boston Post Road West,01752,42.3402600,-71.5912693
197,Boston Post Road,01752,42.3403306,-71.5911060
200,Forest Street,01752,42.3305440,-71.5802693
747,Donald J. Lynch Boulevard,01752,42.3526753,-71.6177287
142,Apex Drive,01752,42.3383062,-71.5905901
115,Apex Drive,01752,42.3378856,-71.5891912
80,Broadmeadow Road,01752,42.3418579,-71.5106080
90,Apex Drive,01752,42.3389090,-71.5885236
157;157A;157B,Apex Drive,01752,42.3372866,-71.5905737
656,Boston Post Road East,01752,42.3509167,-71.5043101
770,Boston Post Road East,01752,42.3510638,-71.4990104
601,Donald J Lynch Boulevard,01752,42.3555213,-71.6125257
230,East Main Street,01752,42.3532284,-71.5358795
126,Union Street,01752,42.3543279,-71.5529780
19,Weed Street,01752,42.3463617,-71.5473651
1021,Boston Post Road East,01752,42.3511712,-71.4874022
237,Boston Post Rd W,01752,42.3388932,-71.5915773
250,Forest Street,01752,42.3297076,-71.5798441
100,Results Way,01752,42.3288989,-71.5799068
415,Berlin Road,01752,42.3576699,-71.5819354
350,Campus Drive,01752,42.3255795,-71.5841032
431,Bolton Street,01752,42.3627341,-71.5485795
85,Sawin Street,01752,42.3483681,-71.5379301
57,Orchard Street,01752,42.3427436,-71.5539502
25,Union Street,01752,42.3572379,-71.5494624
200,Concord Road,01752,42.3524232,-71.5258946
201,Forest Street,01752,42.3336615,-71.5777845
423,Donald J Lynch Boulevard,01752-4709,42.3600557,-71.6069302
112,Donald J Lynch Boulevard,01752,42.3648273,-71.5940510
150,Donald J. Lynch Boulevard,01752,42.3634917,-71.5943900
121,Donald J Lynch Boulevard,01752,42.3649562,-71.5964172
16,Elizabeth Road,01749,42.3735753,-71.5429396
28,Seneca Drive,01749,42.3730141,-71.5486710
1001,Boston Post Road East,01752,42.3478923,-71.4900534
178,Taylor Road,01752,42.3778482,-71.4961121
164,Taylor Road,01752,42.3780465,-71.4967594
151,Taylor Road,01752,42.3774855,-71.4973333
150,Taylor Road,01752,42.3780997,-71.4973157
129,Taylor Road,01752,42.3772593,-71.4981384
136,Taylor Road,01752,42.3778549,-71.4983367
115,Taylor Road,01752,42.3768812,-71.4985212
122,Taylor Road,01752,42.3775194,-71.4988050
99,Taylor Road,01752,42.3764905,-71.4991592
773,Boston Post Road East,01752,42.3503398,-71.4992051
104,Taylor Road,01752,42.3769958,-71.4994713
88,Taylor Road,01752,42.3767253,-71.4999313
83,Taylor Road,01752,42.3764262,-71.5008850
67,Taylor Road,01752,42.3759285,-71.5003918
74,Taylor Road,01752,42.3764439,-71.5006231
47,Taylor Road,01752,42.3754706,-71.5010063
60,Taylor Road,01752,42.3760872,-71.5012069
701,Boston Post Road East,01752,42.3489566,-71.5021147
27,Taylor Road,01752,42.3749799,-71.5014272
71,Boston Post Road East,01752,42.3504962,-71.5287344
350,East Main Street,01752,42.3527999,-71.5308063
269,East Main Street,01752,42.3509617,-71.5340604
85,Sawin Street,01752,42.3483479,-71.5377192
417,Maple Street,01752,42.3314801,-71.5409274
250,Maple Street,01752,42.3390041,-71.5416512
19,Brigham Street,01752,42.3313227,-71.5425287
215,Maple Street,01752,42.3399992,-71.5428849
175,Maple Street,01752,42.3410276,-71.5432598
54,Main Street,01752,42.3470758,-71.5450436
81,Granger Boulevard,01752,42.3454119,-71.5463755
140,Main Street,01752,42.3466315,-71.5478000
20,Florence Street,01752,42.3459983,-71.5483244
186,Main Street,01752,42.3463907,-71.5493149
355;335,Bolton Street,01752,42.3582028,-71.5512104
11,Prospect Street,01752,42.3471617,-71.5511305
451,Bolton Street,01752,42.3617631,-71.5518589
98;100,Pleasant Street,01752,42.3468059,-71.5606238
45,Williams Street,01752,42.3386835,-71.5638466
174,Broad Street,01752,42.3458078,-71.5659821
289,Elm Street,01752,42.3490652,-71.5712503
265,Lakeside Avenue,01752,42.3424506,-71.5720529
65,Silver Leaf Way,01752,42.3180134,-71.5746649
123,Felton Street,01752,42.3448988,-71.5764128
75,Felton Street,01752,42.3433488,-71.5775816
19,Northboro Road East,01752,42.3416603,-71.5821292
123,Boston Post Road West,01752,42.3402402,-71.5868542
100,Nickerson Road,01752,42.3323668,-71.5870671
85,Ames Street,01752,42.3344078,-71.5880455
155,Boston Post Road West,01752,42.3396497,-71.5884205
176,Boston Post Road West,01752,42.3386816,-71.5890806
200,Nickerson Road,01752,42.3336025,-71.5889485
190,Boston Post Road West,01752,42.3385917,-71.5900726
300,Nickerson Road,01752,42.3326981,-71.5897949
181,Boston Post Road West,01752,42.3423714,-71.5907634
500,Nickerson Road,01752,42.3337456,-71.5930029
400,Nickerson Road,01752,42.3346890,-71.5923873
181,Boston Post Road W,01752,42.3408496,-71.5936287
277,Boston Post Road West,01752,42.3379477,-71.5938704
600,Nickerson Road,01752,42.3343045,-71.5962983
700,Nickerson Road,01752,42.3329353,-71.5963577
418,Northboro Road,01752,42.3353687,-71.5975733
420,Northboro Road,01752,42.3345470,-71.5977462
430,Northboro Road,01752,42.3340725,-71.5983064
432,Northboro Road,01752,42.3347382,-71.5987901
493,Boston Post Road West,01752,42.3358849,-71.6027823
84,Waterford Drive,01752,42.3479776,-71.6178407
769,Donald J Lynch Boulevard,01752,42.3514124,-71.6189892
880,Donald J. Lynch Boulevard,01752,42.3497424,-71.6225568
48,Taylor Road,01752,42.3757121,-71.5015582
28,Taylor Road,01752,42.3752887,-71.5019654
12,Taylor Road,01752,42.3749864,-71.5022844
605,Boston Post Road East,01752-3702,42.3482219,-71.5055829
370,Hemenway Street,01752,42.3609155,-71.5093807
484,Boston Post Road East,01752-3624,42.3477431,-71.5109221
260,Boston Post Road East,01752,42.3496955,-71.5208948
337,Bolton Street,01752,42.3643924,-71.5541985
587,Bolton Street,01752,42.3651934,-71.5563528
215,Fitchburg Street,01752,42.3681337,-71.5661233
79,Bartlett Street,01532,42.3281374,-71.6100354
444,Hosmer Street,01752,42.3660207,-71.5338805
394,Chestnut,01749,42.3832013,-71.5031468
57,Union Street,01752,42.3553484,-71.5552742
200,Concord Road,01752,42.3584773,-71.5210703
40,New Street,01752,42.3441253,-71.5527929
105,Apex Drive,01752,42.3378125,-71.5888939
169,Apex Drive,01752,42.3372737,-71.5916238
170,Forest Street,01752,42.3315570,-71.5772767
1001,Boston Post Road E,01752,42.3483125,-71.4932063
133;137,South Bolton Street,01752,42.3436160,-71.5441622
36,Apex Drive,01752,42.3394516,-71.5859449
685,Farm Road,01752,42.3430729,-71.5092541
84,D'Angelo Drive,01772,42.3126167,-71.5847912
3000,Green District Blvd,01752,42.3192863,-71.5768718
300,Boston Scientific Way,01752,42.3612303,-71.5603401
