House number,Street name,Postal code,Latitude,Longitude
205,Rocky Hill Road,01060,42.3077901,-72.6591001
205,Rocky Hill Road,01060,42.3075004,-72.6582912
26,Carlon Drive,01060,42.3318824,-72.6353995
99,Main Street,01060,42.3195212,-72.6303834
30,Locust Street,01060,42.3301763,-72.6532651
97,Hawley Street,01060,42.3182000,-72.6248500
97,Hawley Street,01060,42.3182617,-72.6253131
228,Pleasant Street,01060,42.3176035,-72.6264681
130,Pine Street,01062,42.3314378,-72.6748195
123,Main Street,01062,42.3355789,-72.6715721
185,Main Street,01060,42.3183035,-72.6318091
150,Main Street,01060,42.3184388,-72.6310266
31,Main Street,01060,42.3201076,-72.6291548
150,Main Street,01060,42.3179248,-72.6308463
8,Old South Street,01060,42.3179567,-72.6309174
247,Main Street,01060,42.3179451,-72.6328657
227,Main Street,01060,42.3179709,-72.6324816
274,Main Street,01060,42.3179132,-72.6334358
257,Main Street,01060,42.3179175,-72.6332155
244,Main Street,01060,42.3167618,-72.6326970
7,Old South Street,01060,42.3175429,-72.6311174
7,Old South Street,01060,42.3176716,-72.6311584
7,Old South Street,01060,42.3175846,-72.6311506
7,Old South Street,01060,42.3177378,-72.6311601
12,Crafts Avenue,01060,42.3174918,-72.6316096
16,Crafts Avenue,01060,42.3173838,-72.6316228
21,Market Street,01060,42.3213529,-72.6287589
1,Graves Avenue,01060,42.3215773,-72.6289100
10,Graves Avenue,01060,42.3219076,-72.6287721
11,Graves Avenue,01060,42.3217945,-72.6285615
110,Market Street,01060,42.3241002,-72.6309446
12,Graves Avenue,01060,42.3219522,-72.6287077
13,Graves Avenue,01060,42.3218293,-72.6284860
14,Graves Avenue,01060,42.3219742,-72.6286648
16,Graves Avenue,01060,42.3220237,-72.6285867
17,Graves Avenue,01060,42.3219241,-72.6283550
18,Graves Avenue,01060,42.3220498,-72.6285367
19,Graves Avenue,01060,42.3219830,-72.6282705
2,Graves Avenue,01060,42.3217251,-72.6290344
20,Graves Avenue,01060,42.3221201,-72.6284280
22,Graves Avenue,01060,42.3220940,-72.6284691
"24,30B",Graves Avenue,01060,42.3222173,-72.6283496
25,Graves Avenue,01060,42.3220962,-72.6281070
26,Graves Avenue,01060,42.3222122,-72.6282748
28,Graves Avenue,01060,42.3222455,-72.6282207
29,Graves Avenue,01060,42.3222637,-72.6278278
3,Graves Avenue,01060,42.3216018,-72.6288684
"30A,30B",Graves Avenue,01060,42.3223136,-72.6282498
31,Graves Avenue,01060,42.3223292,-72.6276858
32,Graves Avenue,01060,42.3223899,-72.6280129
34,Graves Avenue,01060,42.3224775,-72.6278806
35,Graves Avenue,01060,42.3224090,-72.6275957
35,Market Street,01060,42.3219608,-72.6292403
36,Graves Avenue,01060,42.3225211,-72.6278106
39,Graves Avenue,01060,42.3225034,-72.6274564
4,Graves Avenue,01060,42.3217787,-72.6289527
40,Graves Avenue,01060,42.3225979,-72.6277164
41,Graves Avenue,01060,42.3225382,-72.6274093
42,Graves Avenue,01060,42.3226235,-72.6276720
43,Graves Avenue,01060,42.3225674,-72.6273580
43A,Graves Avenue,01060,42.3225787,-72.6273338
46,Graves Avenue,01060,42.3227339,-72.6274966
48,Graves Avenue,01060,42.3227513,-72.6274661
49,Market Street,01060,42.3223387,-72.6296007
5,Graves Avenue,01060,42.3216449,-72.6288144
50,Graves Avenue,01060,42.3227662,-72.6274426
54,Market Street,01060,42.3223726,-72.6298861
56,Market Street,01060,42.3224567,-72.6299340
58,Market Street,01060,42.3225213,-72.6299824
6,Graves Avenue,01060,42.3218029,-72.6289210
62,Market Street,01060,42.3226932,-72.6301134
66,Market Street,01060,42.3227861,-72.6302435
7,Graves Avenue,01060,42.3216802,-72.6287534
70,Market Street,01060,42.3229709,-72.6302976
8,Graves Avenue,01060,42.3218804,-72.6288290
80,Market Street,01060,42.3232888,-72.6304752
84,Market Street,01060,42.3234162,-72.6305698
90,Market Street,01060,42.3236503,-72.6307411
98,Market Street,01060,42.3239466,-72.6308632
15,Market Street,01060,42.3212450,-72.6286648
47,Market Street,01060,42.3222390,-72.6295341
1,Market Street,01060,42.3208954,-72.6282994
11,Market Street,01060,42.3212108,-72.6286302
50,Union Street,01060,42.3235479,-72.6280529
12,Market Street,01060,42.3210529,-72.6287348
12,Union Street,01060,42.3224734,-72.6291977
14,Union Street,01060,42.3225142,-72.6291332
15,Union Street,01060,42.3223352,-72.6289953
16,Market Street,01060,42.3211704,-72.6288540
17,Union Street,01060,42.3224541,-72.6288278
17A,Union Street,01060,42.3225045,-72.6287466
19,Union Street,01060,42.3224764,-72.6287919
2,Cherry Street,01060,42.3232614,-72.6301595
20,Union Street,01060,42.3226625,-72.6288999
25,Union Street,01060,42.3226384,-72.6285582
28,Union Street,01060,42.3229285,-72.6285739
31,Union Street,01060,42.3227246,-72.6283438
36,Market Street,01060,42.3218258,-72.6294156
38,Union Street,01060,42.3232235,-72.6282735
39,Union Street,01060,42.3229688,-72.6280706
4,Cherry Street,01060,42.3233091,-72.6300867
40,Market Street,01060,42.3219695,-72.6295554
47,Union Street,01060,42.3231322,-72.6277961
53,Union Street,01060,42.3232641,-72.6274909
57,Market Street,01060,42.3225900,-72.6297680
59,Union Street,01060,42.3233926,-72.6273803
6,Union Street,01060,42.3222455,-72.6291275
6,Union Street,01060,42.3223706,-72.6293244
63,Market Street,01060,42.3227939,-72.6299452
63,Union Street,01060,42.3235584,-72.6271741
"65,65A",Market Street,01060,42.3228838,-72.6299850
68,Union Street,01060,42.3237172,-72.6273582
69,Market Street,01060,42.3229390,-72.6300656
71,Market Street,01060,42.3230368,-72.6300937
71,Union Street,01060,42.3236498,-72.6269960
73,Market Street,01060,42.3230737,-72.6301197
9,Cherry Street,01060,42.3232506,-72.6297828
99,Market Street,01060,42.3238431,-72.6305092
26,Market Street,01060,42.3214937,-72.6291195
30,Market Street,01060,42.3216416,-72.6292496
23,Main Street,01060,42.3202059,-72.6290062
21,Main Street,01060,42.3202890,-72.6288969
50,Market Street,01060,42.3220881,-72.6299188
90,Main Street,01060,42.3191122,-72.6300077
100,Main Street,01060,42.3190345,-72.6301348
16,Main Street,01060,42.3199939,-72.6287790
17,New South Street,01060,42.3174177,-72.6343731
10,Main Street,01062,42.3343997,-72.6674863
1,Linden Street,01060,42.3249225,-72.6305799
10,Trumbull Road,01060,42.3218741,-72.6326873
11,Linden Street,01060,42.3254499,-72.6294862
12,Linden Street,01060,42.3256146,-72.6296460
13,Trumbull Road,01060,42.3220454,-72.6330129
14,Linden Street,01060,42.3257024,-72.6294420
15,Linden Street,01060,42.3255169,-72.6293311
17,Linden Street,01060,42.3256299,-72.6291554
20,Linden Street,01060,42.3257594,-72.6293082
24,Linden Street,01060,42.3258868,-72.6290761
3,Linden Street,01060,42.3251064,-72.6302340
39,North Street,01060,42.3246358,-72.6306717
45,North Street,01060,42.3248546,-72.6307741
47,State Street,01060,42.3196261,-72.6330312
5,Linden Street,01060,42.3251916,-72.6300719
53,State Street,01060,42.3196676,-72.6332518
6,Trumbull Road,01060,42.3219512,-72.6323111
63,State Street,01060,42.3197733,-72.6337054
65,Gothic Street,01060,42.3214144,-72.6327927
7,Linden Street,01060,42.3252723,-72.6298562
70,State Street,01060,42.3195852,-72.6340291
71,Gothic Street,01060,42.3215920,-72.6328880
75,Gothic Street,01060,42.3217688,-72.6329637
8,Trumbull Road,01060,42.3219053,-72.6325412
9,Linden Street,01060,42.3253338,-72.6297011
11,Trumbull Road,01060,42.3220659,-72.6328166
113,King Street,01060,42.3228738,-72.6320670
127,King Street,01060,42.3233439,-72.6321627
129,King Street,01060,42.3234933,-72.6322414
15,Trumbull Road,01060,42.3220094,-72.6332123
17,Trumbull Road,01060,42.3219745,-72.6334404
70,Gothic Street,01060,42.3215093,-72.6331847
76,Gothic Street,01060,42.3217493,-72.6332970
9,Trumbull Road,01060,42.3220965,-72.6325757
42,Gothic Street,01060,42.3204138,-72.6324586
94,King Street,01060,42.3221888,-72.6322123
10,Linden Street,01060,42.3255171,-72.6298605
109,Market Street,01060,42.3240985,-72.6305357
11,Walnut Street,01060,42.3238556,-72.6301369
113,Market Street,01060,42.3242507,-72.6305727
115,Market Street,01060,42.3244050,-72.6305806
13,Walnut Street,01060,42.3241153,-72.6300141
13A,Walnut Street,01060,42.3240793,-72.6300565
17,Walnut Street,01060,42.3241902,-72.6298517
19,Walnut Street,01060,42.3242501,-72.6296275
2,Linden Street,01060,42.3252398,-72.6304698
24,Parsons Street,01060,42.3250103,-72.6280053
25,Walnut Street,01060,42.3243856,-72.6293830
3,Walnut Street,01060,42.3239041,-72.6304751
33,Walnut Street,01060,42.3245049,-72.6290680
35,Walnut Street,01060,42.3246213,-72.6288829
4,Linden Street,01060,42.3253027,-72.6303013
41,Walnut Street,01060,42.3246988,-72.6286878
45,Walnut Street,01060,42.3247827,-72.6285446
53,North Street,01060,42.3250885,-72.6308750
60,Walnut Street,01060,42.3251407,-72.6282094
9A,Walnut Street,01060,42.3240249,-72.6301975
9B,Walnut Street,01060,42.3239922,-72.6302260
44,Market Street,01060,42.3220906,-72.6296331
60,Market Street,01060,42.3226196,-72.6300612
74,Market Street,01060,42.3231069,-72.6304266
85,Market Street,01060,42.3235522,-72.6303743
220,King Street,01060,42.3283055,-72.6338663
261,King Street,01060,42.3313909,-72.6339682
51,Main Street,01060,42.3198669,-72.6295260
33,King Street,01060,42.3206371,-72.6300715
24,Main Street,01060,42.3198940,-72.6288914
164,Main Street,01060,42.3182847,-72.6311652
12,Center Street,01060,42.3190464,-72.6314595
12,Bedford Terrace,01060,42.3199235,-72.6353072
14,Center Street,01060,42.3190644,-72.6315174
21,Center Street,01060,42.3193171,-72.6318947
23,Center Street,01060,42.3193314,-72.6319381
26,Bedford Terrace,01060,42.3200594,-72.6350848
26,Center Street,01060,42.3191610,-72.6318564
28,Center Street,01060,42.3191810,-72.6319204
32,Bedford Terrace,01060,42.3201700,-72.6348651
36,Bedford Terrace,01060,42.3202784,-72.6346078
40,Center Street,01060,42.3192936,-72.6323969
43,Center Street,01060,42.3195528,-72.6327958
50,Center Street,01060,42.3194349,-72.6331444
52,Center Street,01060,42.3194454,-72.6332391
60,State Street,01060,42.3196985,-72.6344302
72,Center Street,01060,42.3196251,-72.6340762
22,Chestnut Street,01062,42.3342706,-72.6679165
145,King Street,01060,42.3251950,-72.6323540
266,Grove Street,01060,42.3072873,-72.6540351
4,Old South Street,01060,42.3181875,-72.6311000
158,Main Street,01060,42.3183422,-72.6310785
132,King Street,01060,42.3238553,-72.6330920
51,State Street,01060,42.3193625,-72.6341003
135,King Street,01060,42.3241749,-72.6324920
6,Service Center Road,01060,42.3139977,-72.6253779
192,Main Street,01060,42.3179288,-72.6315169
228,King Street,01060,42.3291862,-72.6357747
327,King Street,01060,42.3353926,-72.6359257
327,King Street,01060,42.3355470,-72.6360073
41,Strong Avenue,01060,42.3191646,-72.6275258
125 Pleasant Street,Pleasant Street,01060,42.3193898,-72.6274035
150,Main Street,01060,42.3182104,-72.6305066
178,Pine Street,01062,42.3304763,-72.6765850
125,Locust Street,01060,42.3334424,-72.6582806
31,Main Street,01062,42.3350036,-72.6680437
1,Gleason Plaza,01060,42.3182491,-72.6275304
2,Gleason Plaza,01060,42.3183432,-72.6272519
9,Pearl Street,01060,42.3185641,-72.6271722
186,Main Street,01060,42.3179920,-72.6314667
279,Main Street,01060,42.3178996,-72.6336294
79Â½,Hawley Street,01060,42.3187265,-72.6254868
128,King Street,01060,42.3236748,-72.6327211
170,Pleasant Street,01060,42.3188119,-72.6264014
20,Bridge Street,01060,42.3212314,-72.6280783
125,Pleasant Street,01060,42.3190258,-72.6268144
125,Pleasant Street,01060,42.3195515,-72.6272716
34,Bridge Street,01060,42.3214530,-72.6278392
68,Masonic Street,01060,42.3189472,-72.6332098
177,Main Street,01060,42.3184119,-72.6316702
193,Main Street,01060,42.3181928,-72.6319257
85,Main Street,01062,42.3354864,-72.6706858
1,Round House Plaza,01060,42.3168355,-72.6318867
414,Fairway Village,01053,42.3440567,-72.6950237
131,Main Street,01062,42.3356071,-72.6716851
90,Conz Street,01060,42.3135210,-72.6266276
241,King Street,01060,42.3306393,-72.6333749
11,Village Hill Road,01060,42.3114766,-72.6468481
90,Conz Street,01060,42.3135037,-72.6265694
319,Pleasant Street,01060,42.3160844,-72.6259553
111,Pleasant Street,01060,42.3192564,-72.6295993
33,Hawley Street,01060,42.3197585,-72.6265491
15,West Farms Road,01062,42.3087753,-72.7157904
198,Sylvester Road,01062,42.3157538,-72.7181517
55,Damon Road,01060,42.3381461,-72.6345965
89,Main Street,01062,42.3354876,-72.6709029
30,North Maple Street,01062,42.3371006,-72.6726242
143,Main Street,01062,42.3356436,-72.6718676
76,North Maple Street,01062,42.3349862,-72.6721757
45,Main Street,01062,42.3358352,-72.6690432
100,Main Street,01062,42.3353721,-72.6717792
100,Main Street,01062,42.3353524,-72.6716349
100,Main Street,01062,42.3352787,-72.6716871
99,Main Street,01062,42.3355752,-72.6713964
99,Main Street,01062,42.3356791,-72.6713612
12,North Maple Street,01062,42.3360064,-72.6722005
35,Main Street,01062,42.3349785,-72.6682037
35,Main Street,01062,42.3350058,-72.6682216
320,Riverside Drive,01062,42.3202712,-72.6652720
35,Main Street,01062,42.3350974,-72.6680833
35,Main Street,01062,42.3349431,-72.6679612
1,North Main Street,01062,42.3357584,-72.6722368
93,Main Street,01062,42.3356312,-72.6710349
34,North Maple Street,01062,42.3379667,-72.6734873
55,Damon Road,01060,42.3380798,-72.6348492
221,King Street,01060,42.3289377,-72.6333023
221,King Street,01060,42.3288290,-72.6332607
150,Main Street,01060,42.3184679,-72.6309399
150,Main Street,01060,42.3180310,-72.6307180
150,Main Street,01060,42.3184425,-72.6309082
150,Main Street,01060,42.3182422,-72.6306694
150,Main Street,01060,42.3183371,-72.6309152
150,Main Street,01060,42.3180868,-72.6307009
150,Main Street,01060,42.3183623,-72.6307918
150,Main Street,01060,42.3182324,-72.6308305
34,Bridge Street,01060,42.3219393,-72.6276867
34,Bridge Street,01060,42.3217278,-72.6280252
269,Locust Street,01062,42.3347450,-72.6633515
74,Maple Street,01062,42.3347998,-72.6724045
89,Main Street,01062,42.3354947,-72.6710741
70,Main Street,01062,42.3348039,-72.6706357
9,North Maple Street,01062,42.3358389,-72.6718631
90,Main Street,01062,42.3352110,-72.6710562
92,Main Street,01062,42.3351275,-72.6710656
286,Prospect Street,01060,42.3287275,-72.6441895
2,North Main Street,01062,42.3354426,-72.6721562
7,Main Street,01062,42.3348880,-72.6667918
28,North Maple Street,01062,42.3366794,-72.6722621
190,Nonotuck Street,01062,42.3304701,-72.6712265
190,Nonotuck Street,01062,42.3303724,-72.6713110
7,Main Street,01062,42.3348909,-72.6668887
225R,King Street,01060,42.3297984,-72.6327328
237,King Street,01060,42.3293321,-72.6334855
391,Damon Road,01060,42.3340142,-72.6215065
249,Main Street,01060,42.3179479,-72.6329716
235,Main Street,01060,42.3179563,-72.6327068
241,Main Street,01060,42.3179493,-72.6327924
125,Pleasant Street,01060,42.3189453,-72.6269232
140,Pine Street,01062,42.3311864,-72.6754900
3,Main Street,01062,42.3347969,-72.6666116
270,Pleasant Street,01060,42.3169086,-72.6258611
256,Pleasant Street,01060,42.3170586,-72.6258711
140,Olander Drive,01060,42.3159559,-72.6477693
2,Brewster Court,01060,42.3178335,-72.6303336
120,Jackson Street,01060,42.3351409,-72.6453389
110,Bridge Street,01060,42.3238655,-72.6256956
254,Old Wilson Road,01062,42.2990905,-72.6625857
498,Ryan Road,01062,42.3176404,-72.6926252
100,Bridge Road,01060,42.3457532,-72.6771916
20,Florence Street,01053,42.3516274,-72.6978759
83,Sylvester Road,01062,42.3294624,-72.7312700
86,86 Prince St,01060,42.3098423,-72.6518923
109-129,Main Street,01060,42.3191329,-72.6307669
20,West Street,01060,42.3167773,-72.6356742
150,Main Street,01060,42.3181766,-72.6307397
111,Pleasant Street,01060,42.3182530,-72.6281982
49,Old South Street,01060,42.3158404,-72.6320532
240,Main Street,01060,42.3173516,-72.6326634
7,Old South Street,01060,42.3176489,-72.6312274
220,Main Street,01060,42.3173322,-72.6323508
274,Main Street,01060,42.3172904,-72.6336223
1,Round House Plaza,01060,42.3167212,-72.6319397
210,Main Street,01060,42.3176336,-72.6319887
212,Main Street,01060,42.3170638,-72.6322623
177;179;181;185,Main Street,01060,42.3184256,-72.6318361
129,Main Street,01060,42.3192807,-72.6312909
193,Main Street,01060,42.3182532,-72.6320250
187,Main Street,01060,42.3183583,-72.6319164
109,Main Street,01060,42.3194425,-72.6310881
189;191,Main Street,01060,42.3183027,-72.6319706
199;201,Main Street,01060,42.3181900,-72.6320745
19,King Street,01060,42.3201803,-72.6298027
1,Amber Lane,01060,42.3185036,-72.6321016
21,State Street,01060,42.3186054,-72.6339779
273,Main Street,01060,42.3179671,-72.6335591
297,Main Street,01060,42.3180214,-72.6339224
15,Gothic Street,01060,42.3198432,-72.6311985
110,Pleasant Street,01060,42.3186558,-72.6278898
125,Pleasant Street,01060,42.3193067,-72.6270492
10,Pearl Street,01060,42.3188992,-72.6275075
21,West Street,01063,42.3174320,-72.6362352
60,Elm Street,01063,42.3194386,-72.6381017
330,North King Street,01060,42.3478972,-72.6434008
44,College Lane,01063,42.3177922,-72.6397781
8,College Lane,01063,42.3196428,-72.6402822
4,Tyler Court,01063,42.3172926,-72.6386735
49,College Lane,01063,42.3168504,-72.6402558
21,College Lane,01063,42.3183800,-72.6407797
2,Tyler Court,01063,42.3171949,-72.6394026
28,College Lane,01063,42.3181443,-72.6405337
150,Elm Street,01063,42.3205871,-72.6416803
144,Green Street,01063,42.3156770,-72.6396773
42,West Street,01063,42.3162473,-72.6360602
106,Lower College Lane,01063,42.3140755,-72.6394584
122,Green Street,01063,42.3159062,-72.6387588
50,West Street,01063,42.3157886,-72.6360298
46,Bridge Street,01060,42.3218674,-72.6273335
87,Bridge Street,01060,42.3224741,-72.6253868
58,Bridge Street,01060,42.3221151,-72.6268791
51,Phillips Place,01060,42.3209309,-72.6244451
160,Old Ferry Road,01060,42.3281619,-72.6116458
46,College Lane,01063,42.3177316,-72.6394585
37,Prospect Street,01063,42.3213945,-72.6360129
99,Pleasant Street,01060,42.3183109,-72.6283935
238,King Street,01060,42.3285958,-72.6345058
228,King Street,01060,42.3290281,-72.6358628
228,King Street,01060,42.3299112,-72.6351781
242,King Street,01060,42.3300036,-72.6345172
225,King Street,01060,42.3297467,-72.6335369
225R,King Street,01060,42.3298612,-72.6328819
221,King Street,01060,42.3288944,-72.6332103
237,King Street,01060,42.3293590,-72.6332337
241;243;249,King Street,01060,42.3306550,-72.6333742
203,King Street,01060,42.3285024,-72.6331358
176,King Street,01060,42.3260214,-72.6337237
91,South Street,01060,42.3144327,-72.6335740
32,Conz Street,01060,42.3149918,-72.6294640
44,Conz Street,01060,42.3147673,-72.6290871
46,Bridge Street,01060,42.3226051,-72.6268308
42,North Street,01060,42.3245815,-72.6312479
50,North Street,01060,42.3249072,-72.6312825
29,Center Street,01060,42.3196505,-72.6324021
45,Round Hill Road,01060,42.3224138,-72.6397421
46,Round Hill Road,01060,42.3234832,-72.6401634
46,Round Hill Road,01060,42.3233101,-72.6411780
241,Crescent Street,01060,42.3237922,-72.6429655
46,Round Hill Road,01060,42.3235024,-72.6407934
25,Henshaw Avenue,01063,42.3214538,-72.6381940
180,North King Street,01060,42.3413845,-72.6437575
136,North King Street,01060,42.3410097,-72.6422459
54,Industrial Drive,01060,42.3332496,-72.6297953
48,Damon Road,01060,42.3385570,-72.6352973
51,Bates Street,01060,42.3325935,-72.6276777
45,Industrial Drive,01060,42.3344733,-72.6264905
173,North Street,01060,42.3282569,-72.6281341
58,Pomeroy Terrace,01060,42.3208030,-72.6231707
39,Fair Street,01060,42.3247631,-72.6220155
118,Conz Street,01060,42.3126280,-72.6253758
79 1/2,Hawley Street,01060,42.3187892,-72.6255342
14,Western Avenue,01060,42.3268320,-72.6440070
286,Prospect Street,01060,42.3288901,-72.6442124
283,Prospect Street,01060,42.3299898,-72.6438858
24,Western Avenue,01060,42.3269046,-72.6441686
283,Prospect Street,01060,42.3301028,-72.6438361
283,Prospect Street,01060,42.3296754,-72.6440138
283,Prospect Street,01060,42.3299810,-72.6436962
135,Woodlawn Avenue,01060,42.3291563,-72.6448970
259,Elm Street,01060,42.3235477,-72.6456901
22,East Street,01060,42.3109423,-72.6324876
71,Olander Drive,01060,42.3135972,-72.6458662
30,Village Hill Road,01060,42.3120543,-72.6478297
1,Prince Street,01060,42.3114140,-72.6485367
88,Village Hill Road,01060,42.3138149,-72.6487210
100,Green Street,01063,42.3159773,-72.6379312
27,Olander Drive,01060,42.3121673,-72.6458358
442,Elm Street,01062,42.3265191,-72.6532342
18;20,Lonsdale Avenue,01062,42.3263478,-72.6543616
30,Locust Street,01060,42.3307050,-72.6537182
97,Locust Street,01060,42.3328814,-72.6559452
15,Locust Street,01060,42.3316796,-72.6526253
87,Locust Street,01060,42.3326901,-72.6556045
737,Bridge Road,01060,42.3375888,-72.6485569
89,Marian Street,01060,42.3554267,-72.6440784
555,North King Street,01060,42.3544547,-72.6401295
25,Mountain Laurel Path,01062,42.3091294,-72.6682081
35,Ladd Avenue,01062,42.3191033,-72.6632875
95,Park Hill Road,01062,42.2992298,-72.6786051
43,Ladd Avenue,01062,42.3188570,-72.6630248
78,North Elm Street,01060,42.3277693,-72.6507220
125,Locust Street,01060,42.3333560,-72.6570758
213,Locust Street,01062,42.3345216,-72.6628163
267;269,Locust Street,01062,42.3349756,-72.6632479
6,Hatfield Street,01060,42.3331825,-72.6565948
193,Locust Street,01060,42.3344432,-72.6618129
185,Locust Street,01060,42.3339400,-72.6609255
187,Locust Street,01060,42.3341805,-72.6614451
209,Locust Street,01062,42.3344431,-72.6624695
125,Locust Street,01060,42.3337177,-72.6576147
21,Sylvan Lane,01062,42.3032056,-72.7075404
114,Woodland Drive,01062,42.3034575,-72.7094306
41,Woodland Drive,01062,42.3014848,-72.7128385
58,Sovereign Way,01062,42.3041810,-72.6965618
80,Woodland Drive,01062,42.3037486,-72.7119893
90,Woodland Drive,01062,42.3034655,-72.7109318
9,Sylvan Lane,01062,42.3032224,-72.7082224
36,Sovereign Way,01062,42.3033067,-72.6952366
84,Woodland Drive,01062,42.3035473,-72.7114533
20,Sylvan Lane,01062,42.3038713,-72.7080996
28,Sylvan Lane,01062,42.3039871,-72.7077034
41,Sovereign Way,01062,42.3035223,-72.6941529
6,Sylvan Lane,01062,42.3035165,-72.7089993
63,Woodland Drive,01062,42.3025439,-72.7121690
34,Sylvan Lane,01062,42.3037829,-72.7069973
120,Woodland Drive,01062,42.3027877,-72.7082109
63,Sovereign Way,01062,42.3049313,-72.6945119
70,Sovereign Way,01062,42.3047194,-72.6963289
85,Woodland Drive,01062,42.3028945,-72.7112588
69,Woodland Drive,01062,42.3029164,-72.7118380
93,Woodland Drive,01062,42.3028226,-72.7107302
34,Woodland Drive,01062,42.3018340,-72.7133206
74,Woodland Drive,01062,42.3032130,-72.7124438
12,Sylvan Lane,01062,42.3037062,-72.7085699
78,Woodland Drive,01062,42.3038578,-72.7126259
57,Sovereign Way,01062,42.3043255,-72.6943740
58,Woodland Drive,01062,42.3020799,-72.7130630
98,Woodland Drive,01062,42.3033780,-72.7104185
74,Sovereign Way,01062,42.3047426,-72.6956545
109,Woodland Drive,01062,42.3028252,-72.7096767
117,Woodland Drive,01062,42.3028277,-72.7091579
106,Woodland Drive,01062,42.3034382,-72.7099329
17,Woodland Drive,01062,42.3007242,-72.7129667
25,Woodland Drive,01062,42.3010920,-72.7129843
29,Sylvan Lane,01062,42.3034531,-72.7069685
101,Woodland Drive,01062,42.3027713,-72.7102211
46,Sovereign Way,01062,42.3036194,-72.6962583
66,Woodland Drive,01062,42.3028981,-72.7127295
6;8,High Street,01062,42.3362164,-72.6638623
30;32,Straw Avenue,01062,42.3355591,-72.6636845
21,Sumner Avenue,01062,42.3352275,-72.6641779
73,Straw Avenue,01062,42.3368267,-72.6627821
57,Straw Avenue,01062,42.3363594,-72.6628847
105,Straw Avenue,01062,42.3379601,-72.6624534
305,Locust Street,01062,42.3347923,-72.6651730
74,Straw Avenue,01062,42.3370520,-72.6631929
34,High Street,01062,42.3363410,-72.6647296
285,Locust Street,01062,42.3346912,-72.6643241
295,Locust Street,01062,42.3347401,-72.6648341
98,Straw Avenue,01062,42.3378687,-72.6629212
7;9,Garfield Avenue,01062,42.3390165,-72.6643239
51,Straw Avenue,01062,42.3361556,-72.6629401
24,High Street,01062,42.3362883,-72.6643505
88,Straw Avenue,01062,42.3375208,-72.6631096
78,Hillcrest Drive,01062,42.3415016,-72.6695600
15,Garfield Street,01062,42.3375639,-72.6636540
96,Straw Avenue,01062,42.3376892,-72.6630228
15,Sumner Avenue,01062,42.3350330,-72.6642392
33,Garfield Avenue,01062,42.3374337,-72.6647153
29,Garfield Avenue,01062,42.3376518,-72.6646387
291,Locust Street,01062,42.3347128,-72.6646492
62,Straw Avenue,01062,42.3366268,-72.6633370
277,Locust Street,01062,42.3346893,-72.6639400
1;3,High Street,01062,42.3364981,-72.6634106
78,Straw Avenue,01062,42.3371822,-72.6631570
6;8,Garfield Avenue,01062,42.3389466,-72.6636208
38,Garfield Avenue,01062,42.3371807,-72.6642489
22,Straw Avenue,01062,42.3352980,-72.6637944
11,High Street,01062,42.3365851,-72.6637165
87,Hillcrest Drive,01062,42.3416354,-72.6688475
27,Sumner Avenue,01062,42.3354579,-72.6641682
5,Verona Street,01062,42.3387830,-72.6628352
85,Straw Avenue,01062,42.3372706,-72.6626705
491,Bridge Road,01062,42.3384808,-72.6603109
125,Straw Avenue,01062,42.3388228,-72.6621691
36,High Street,01062,42.3363810,-72.6650826
12,High Street,01062,42.3362569,-72.6641710
39,High Street,01062,42.3367943,-72.6653568
30,High Street,01062-1413,42.3363212,-72.6645504
14,Straw Avenue,01062,42.3348919,-72.6641116
12,High Street,01062,42.3360830,-72.6642750
57,Straw Avenue,01062,42.3364191,-72.6626635
24,High Street,01062,42.3361776,-72.6643299
50,Straw Avenue,01062,42.3361803,-72.6634519
11,Verona Street,01062,42.3388432,-72.6631431
23,High Street,01062,42.3367377,-72.6643904
30,High Street,01062-1413,42.3361476,-72.6646411
12,Verona Street,01062,42.3385402,-72.6632374
35,High Street,01062,42.3367377,-72.6650316
3,Garfield Avenue,01062,42.3392989,-72.6639961
29,High Street,01062,42.3367229,-72.6647909
26,Straw Avenue,01062,42.3354260,-72.6637195
1,Garfield Avenue,01062,42.3394118,-72.6638985
39,Garfield Avenue,01062,42.3371976,-72.6647439
20,Garfield Avenue,01062,42.3379586,-72.6638917
4,Garfield Avenue,01062,42.3391993,-72.6635828
2,High Street,01062,42.3361833,-72.6636252
89,Straw Avenue,01062,42.3374642,-72.6626141
106,Straw Avenue,01062,42.3380607,-72.6629167
11,Verona Street,01062,42.3388673,-72.6632852
88,Hillcrest Drive,01062,42.3418127,-72.6694351
279,Locust Street,01062,42.3346877,-72.6641473
29,Sumner Avenue,01062,42.3356124,-72.6641343
15,Garfield Avenue,01062,42.3386732,-72.6642167
21,Garfield Street,01062,42.3376486,-72.6640795
40,Garfield Avenue,01062,42.3370170,-72.6642417
95,Straw Avenue,01062,42.3376396,-72.6625597
34,High Street,01062,42.3361639,-72.6647349
6;8,High Street,01062,42.3361274,-72.6640346
37,High Street,01062,42.3367957,-72.6651622
63,Straw Avenue,01062,42.3365801,-72.6628552
11,Garfield Street,01062,42.3375294,-72.6634383
23,High Street,01062,42.3366536,-72.6642751
100,Hillcrest Drive,01062,42.3422299,-72.6693442
101,Straw Avenue,01062,42.3378305,-72.6624727
77,Straw Avenue,01062,42.3370335,-72.6627328
38,High Street,01062,42.3363889,-72.6652979
297,Locust Street,01062,42.3347563,-72.6650164
109,Straw Avenue,01062,42.3381416,-72.6623892
117,Straw Avenue,01062,42.3384515,-72.6623192
14,Straw Avenue,01062,42.3349904,-72.6638810
17,Garfield Avenue,01062,42.3386968,-72.6649151
97,Hillcrest Drive,01062,42.3419940,-72.6687183
27,Garfield Avenue,01062,42.3379314,-72.6645463
2,Garfield Avenue,01062,42.3392665,-72.6634040
121,Straw Avenue,01062,42.3386237,-72.6622687
116,Straw Avenue,01062,42.3383701,-72.6628161
70,Straw Avenue,01062,42.3368904,-72.6632416
16,Garfield Avenue,01062,42.3383429,-72.6638072
81,High Street,01062,42.3371778,-72.6679562
1,Bratton Court,01062,42.3356094,-72.6695768
82,High Street,01062,42.3366673,-72.6684286
78,Chestnut Street,01062,42.3365313,-72.6674880
35,North Main Street,01062,42.3365691,-72.6733150
95,High Street,01062,42.3375133,-72.6690685
53,Chestnut Street,01062,42.3354493,-72.6671189
83,Chestnut Street,01062,42.3365565,-72.6668288
87,Chestnut Street,01062,42.3369848,-72.6667932
4,Bratton Court,01062,42.3356272,-72.6693305
2,Bratton Court,01062,42.3354281,-72.6694274
63,Main Street,01062,42.3353532,-72.6698243
3,North Main Street,01062,42.3357872,-72.6722138
62,Chestnut Street,01062,42.3358643,-72.6677299
5,Bratton Court,01062,42.3358570,-72.6695374
"50,52",High Street,01062,42.3365670,-72.6663082
88,High Street,01062,42.3368670,-72.6688368
75,High Street,01062,42.3371499,-72.6677421
69,Main Street,01062,42.3354287,-72.6702917
58,Chestnut Street,01062,42.3356085,-72.6677146
67,Chestnut Street,01062,42.3361134,-72.6669772
35,North Main Street,01062,42.3364418,-72.6731139
67,High Street,01062,42.3370761,-72.6672515
0,High Street,01062,42.3379734,-72.6717268
0,High Street,01062,42.3375012,-72.6717393
0,High Street,01062,42.3374388,-72.6714107
53,High Street,01062,42.3369349,-72.6663513
0,High Street,01062,42.3378073,-72.6709885
95,High Street,01062,42.3373451,-72.6692378
33,Keyes Street,01062,42.3369130,-72.6701230
0,High Street,01062,42.3374319,-72.6709000
56,Stilson Avenue,01062,42.3391310,-72.6679583
91,High Street,01062,42.3372949,-72.6688614
0,High Street,01062,42.3374293,-72.6703049
21,North Main Street,01062,42.3360855,-72.6727469
66,Chestnut Street,01062,42.3360814,-72.6676180
0,High Street,01062,42.3379599,-72.6713059
41,Main Street,01062,42.3352036,-72.6686727
96,High Street,01062,42.3369848,-72.6694275
311,Locust Street,01062,42.3348274,-72.6655951
47,Chestnut Street,01062,42.3351958,-72.6671989
0,High Street,01062,42.3377572,-72.6715550
0,High Street,01062,42.3375864,-72.6705932
"57,59",Chestnut Street,01062,42.3356098,-72.6670731
50,Chestnut Street,01062,42.3354335,-72.6678663
29,Keyes Street,01062,42.3367351,-72.6700481
81;85,Main Street,01062,42.3357687,-72.6708111
12,North Maple Street,01062,42.3359606,-72.6723344
34,North Maple Street,01062,42.3377991,-72.6734095
72,High Street,01062,42.3367739,-72.6676427
17,Main Street,01062,42.3349853,-72.6674873
4,Depot Avenue,01062-1302,42.3367770,-72.6717541
76,High Street,01062,42.3367412,-72.6679398
91,High Street,01062,42.3374697,-72.6688808
84,Chestnut Street,01062,42.3366486,-72.6674155
82,High Street,01062,42.3367730,-72.6685837
75,High Street,01062,42.3373581,-72.6677160
7,Main Street,01062,42.3349098,-72.6668683
44,High Street,01062,42.3361632,-72.6659346
61,Main Street,01062,42.3353022,-72.6696918
109,High Street,01062,42.3374467,-72.6699397
47,High Street,01062,42.3368562,-72.6659588
71,Chestnut Street,01062,42.3362685,-72.6669340
44,High Street,01062,42.3364067,-72.6658108
71,High Street,01062,42.3371029,-72.6675273
45,Main Street,01062,42.3357411,-72.6690162
47,High Street,01062,42.3368650,-72.6660759
87,High Street,01062,42.3372549,-72.6685480
3,Bratton Court,01062,42.3356991,-72.6695434
321,Locust Street,01062,42.3348392,-72.6660135
40;42,High Street,01062,42.3364205,-72.6655539
110,High Street,01062,42.3371058,-72.6701680
17,Main Street,01062,42.3349889,-72.6673294
106,High Street,01062,42.3370725,-72.6699287
15,Main Street,01062,42.3348770,-72.6670969
55,North Maple Street,01062,42.3382352,-72.6716340
0,High Street,01062,42.3376744,-72.6712693
102,High Street,01062,42.3370307,-72.6696766
59,Main Street,01062,42.3352303,-72.6694886
122,Chestnut Street,01062,42.3384055,-72.6670317
35,Main Street,01062,42.3350727,-72.6680052
48,High Street,01062,42.3365272,-72.6660330
82,High Street,01062,42.3368697,-72.6684955
84,Chestnut Street,01062,42.3367387,-72.6673952
45,High Street,01062,42.3368715,-72.6657574
92,High Street,01062,42.3369672,-72.6691263
51,Chestnut Street,01062,42.3353311,-72.6672181
80,High Street,01062,42.3368159,-72.6681965
41,High Street,01062,42.3368454,-72.6655058
103,High Street,01062,42.3374052,-72.6696309
54-56,Main Street,01062,42.3348098,-72.6694565
10,Pine Street,01062,42.3338883,-72.6663607
12,Pine Street,01062,42.3337605,-72.6665759
16,Pine Street,01062,42.3336179,-72.6667997
13;132,High Street,01062,42.3371277,-72.6715025
69,Maple Street,01062,42.3345848,-72.6715671
40,Keyes Street,01062,42.3370621,-72.6706032
6,Main Street,01062,42.3344219,-72.6668374
60,Main Street,01062,42.3348816,-72.6699652
18,Chestnut Street,01062,42.3340299,-72.6681641
40,Main Street,01062,42.3343451,-72.6685713
70,Main Street,01062,42.3348568,-72.6707440
30,Chestnut Street,01062,42.3342987,-72.6683561
126,High Street,01062,42.3371176,-72.6711897
168,South Main Street,01062,42.3342877,-72.6663423
12,Warren Street,01062,42.3397815,-72.6741492
28,Keyes Street,01062,42.3366621,-72.6706588
122,High Street,01062,42.3370817,-72.6708754
22,Main Street,01062,42.3344909,-72.6680628
10,Main Street,01062,42.3343531,-72.6674886
92,Main Street,01062,42.3351309,-72.6711241
7,Pine Street,01062,42.3341097,-72.6665456
123,Meadow Street,01062,42.3341943,-72.6797538
90,Park Street,01062,42.3357651,-72.6736034
19,Meadow Street,01062,42.3355699,-72.6741461
78;80;80 1/2;82 1/2;90;92;92 1/2;94,Maple Street,01062,42.3351983,-72.6722251
70,Maple Street,01062,42.3344159,-72.6722762
140,Pine Street,01062,42.3312345,-72.6754528
296,Nonotuck Street,01062,42.3297928,-72.6761233
116;118,Oak Street,01062,42.3428375,-72.6760871
112;114,Oak Street,01062,42.3422396,-72.6761310
148,Overlook Drive,01062,42.3159780,-72.6872582
127,Overlook Drive,01062,42.3154029,-72.6880833
138,Overlook Drive,01062,42.3159346,-72.6876794
150,Woods Road,01062,42.3155006,-72.6874635
300,North Main Street,01062,42.3430443,-72.6857531
34,Bridge Road,01062,42.3441232,-72.6793651
300,North Main Street,01062,42.3446465,-72.6843603
615,Spring Street,01053,42.3456772,-72.6993509
509,Fairway Village,01053,42.3448319,-72.6946219
90,Haydenville Road,01053,42.3526361,-72.6910745
135,Main Street,01053,42.3470705,-72.6997464
20,Florence Street,01053,42.3518748,-72.6982803
135,Main Street,01053,42.3473230,-72.6998344
135,Main Street,01053,42.3474452,-72.6990246
430,North Main Street,01053,42.3492794,-72.6899463
625,Spring Street,01053,42.3459014,-72.6996811
349,Haydenville Road,01053,42.3612680,-72.6901579
430,North Main Street,01053,42.3493587,-72.6902509
410,North Main Street,01053,42.3487121,-72.6890617
548,Haydenville Road,01053,42.3659001,-72.6948618
9,Pomeroy Terrace,01060,42.3225065,-72.6249207
5,Pomeroy Terrace,01060,42.3226816,-72.6250767
280,King Street,01060,42.3310597,-72.6350785
22,Chestnut Street,01062,42.3342330,-72.6679305
102,Lower College Lane,01063,42.3148119,-72.6395536
95,High Street,01062,42.3377352,-72.6693007
57,Woodland Drive,01062,42.3019652,-72.7120074
51,Straw Avenue,01062,42.3360500,-72.6628300
103,High Street,01062,42.3374835,-72.6694982
283,Prospect Street,01060,42.3298249,-72.6439916
1,Gleason Plaza,01060,42.3182760,-72.6274818
9,Pearl Street,01060,42.3185937,-72.6272065
80,Locust Street,01060,42.3306015,-72.6585718
135,Main Street,01053,42.3473748,-72.6995671
380,Elm Street,01060,42.3239061,-72.6519750
51,Bates Street,01060,42.3325097,-72.6274325
30,Locust Street,01060,42.3303349,-72.6532738
421,North Main Street,01053,42.3495966,-72.6846292
222,River Road,01053,42.3640762,-72.7075255
83,Sylvester Road,01062,42.3295529,-72.7376116
11,Village Hill Road,01060,42.3114887,-72.6467887
65,Paradise Road,01063,42.3189788,-72.6451792
69,Paradise Road,01063,42.3188000,-72.6453646
73,Paradise Road,01063,42.3186378,-72.6455902
62,Paradise Road,01063,42.3186109,-72.6444206
66,Paradise Road,01063,42.3184186,-72.6446568
22,Ford Crossing,01060,42.3141957,-72.6476494
26,Ford Crossing,01060,42.3141090,-72.6478043
30,Ford Crossing,01060,42.3140266,-72.6479573
145,Emerson Way,01062,42.3098364,-72.6804864
171,Emerson Way,01062,42.3081940,-72.6806471
345,Haydenville Road,01053,42.3603065,-72.6911401
151,Emerson Way,01062,42.3095718,-72.6804378
111,Straw Avenue,01062,42.3382965,-72.6623311
100,Main Street,01062,42.3353226,-72.6717059
115,Conz Street,01060,42.3119249,-72.6257691
52,Sovereign Way,01062,42.3037496,-72.6953390
55,Damon Road,01060,42.3380726,-72.6346954
55,Damon Road,01060,42.3381789,-72.6340505
53,Main Street,01062,42.3353156,-72.6693054
5,Garfield Avenue,01062,42.3391642,-72.6640388
156,Emerson Way,01062,42.3095415,-72.6797593
53,Main Street,01062,42.3352533,-72.6690344
15,Locust Street,01060,42.3315225,-72.6526153
185,Locust Street,01060,42.3339959,-72.6612204
135,Main Street,01053,42.3473588,-72.6995340
300,North Main Street,01062,42.3434360,-72.6879725
89,Bridge Street,01060,42.3225635,-72.6252511
51,Phillips Place,01060,42.3208878,-72.6246474
90,Pomeroy Terrace,01060,42.3189834,-72.6231033
45,High Street,01062,42.3371930,-72.6657953
0,High Street,01062,42.3377347,-72.6709899
39,High Street,01062,42.3370287,-72.6653214
81,High Street,01062,42.3373842,-72.6679204
13,Stilson Avenue,01062,42.3375456,-72.6675693
283,Prospect Street,01060,42.3299923,-72.6438042
93,Locust Street,01060,42.3327959,-72.6557967
141,North Main Street,01062,42.3391811,-72.6760405
140,Olander Drive,01060,42.3157115,-72.6477742
117,Olander Drive,01060,42.3164906,-72.6465352
117,Olander Drive,01060,42.3163953,-72.6463579
117,Olander Drive,01060,42.3164296,-72.6467747
117,Olander Drive,01060,42.3163046,-72.6466139
117,Olander Drive,01060,42.3163717,-72.6460810
117,Olander Drive,01060,42.3163337,-72.6458930
117,Olander Drive,01060,42.3161444,-72.6459888
117,Olander Drive,01060,42.3162175,-72.6456576
117,Olander Drive,01060,42.3160735,-72.6455865
117,Olander Drive,01060,42.3159376,-72.6456060
117,Olander Drive,01060,42.3158511,-72.6459813
117,Olander Drive,01060,42.3157619,-72.6456072
117,Olander Drive,01060,42.3156221,-72.6455428
117,Olander Drive,01060,42.3154921,-72.6454537
117,Olander Drive,01060,42.3152134,-72.6453497
117,Olander Drive,01060,42.3153622,-72.6453678
117,Olander Drive,01060,42.3154033,-72.6457730
117,Olander Drive,01060,42.3152634,-72.6456546
117,Olander Drive,01060,42.3150972,-72.6457520
117,Olander Drive,01060,42.3148346,-72.6457349
117,Olander Drive,01060,42.3150766,-72.6453713
117,Olander Drive,01060,42.3149340,-72.6454327
64,Sovereign Way,01062,42.3041836,-72.6956540
236,Pleasant Street,01060,42.3172830,-72.6261669
117,Olander Drive,01060,42.3163822,-72.6462613
117,Olander Drive,01060,42.3161676,-72.6461180
117,Olander Drive,01060,42.3163352,-72.6457908
117,Olander Drive,01060,42.3162583,-72.6455455
117,Olander Drive,01060,42.3152518,-72.6457434
117,Olander Drive,01060,42.3150993,-72.6456508
117,Olander Drive,01060,42.3148307,-72.6456026
67,Higgins Way,01060,42.3146148,-72.6495038
27,Higgins Way,01060,42.3151954,-72.6486710
83,Sylvester Road,01062,42.3323871,-72.7308411
221,Pine Street,01062,42.3313814,-72.6775346
100,Bridge Road,01062,42.3453622,-72.6771509
135,Main Street,01053,42.3452633,-72.6958365
300,North Main Street,01062,42.3458383,-72.6906278
380,Elm Street,01060,42.3251317,-72.6508354
