House number,Street name,Postal code,Latitude,Longitude
651,Somerville Avenue,02143,42.3846647,-71.1113341
255,Somerville Avenue,02143,42.3788721,-71.0925694
265,Highland Avenue,02143,42.3916806,-71.1108341
58,Day Street,02144,42.3957400,-71.1234200
42,Prescott Street,02143,42.3854932,-71.0992628
133,Holland Street,02144,42.4000534,-71.1252352
8,Bonair Street,02145,42.3874449,-71.0876142
120,Beacon Street,02143,42.3781894,-71.1064544
254,Broadway,02145,42.3906550,-71.0907264
32,Shore Drive,02145,42.3983288,-71.0904505
519,Somerville Avenue,02143,42.3835142,-71.1066039
497,Somerville Avenue,02143,42.3830233,-71.1049304
519,Somerville Avenue,02143,42.3834531,-71.1064446
61,Union Square,02143,42.3798083,-71.0954807
16-19,Union Square,02143,42.3795293,-71.0962575
11,Bow Street,02143,42.3808311,-71.0968378
414,Washington Street,02143,42.3780743,-71.1065873
701,Somerville Avenue,02143,42.3858538,-71.1139356
711-723,Sommerville Avenue,02143,42.3860340,-71.1141153
711-723,Somerville Avenue,02143,42.3860737,-71.1141743
674,Broadway,02144,42.3995488,-71.1115911
704,Broadway,02144,42.3998380,-71.1124092
708,Broadway,02144,42.3998796,-71.1125057
720,Broadway,02144,42.4000028,-71.1129387
236A,Elm Street,02144,42.3949228,-71.1217429
45,Beacon Street,02143,42.3758910,-71.1030191
134-136,Josephine Avenue,02144,42.3997146,-71.1122534
1,Davis Square,02144,42.3964022,-71.1226604
274,Elm Street,02144,42.3959367,-71.1223938
81;83,Holland Street,02144,42.3988030,-71.1242160
396,Highland Avenue,02144,42.3956510,-71.1206410
246,Elm Street,02144,42.3953258,-71.1220661
225,Elm Street,02144,42.3946975,-71.1212637
244,Elm Street,02144,42.3951743,-71.1219324
230,Elm Street,02144,42.3947393,-71.1216433
239,Elm Street,02144,42.3951740,-71.1215848
237,Elm Street,02144,42.3951310,-71.1215498
260,Elm Street,02144,42.3956973,-71.1222734
247,Elm Street,02144,42.3953896,-71.1217372
201,Elm Street,02143,42.3938147,-71.1205572
215,Elm Street,02144,42.3944389,-71.1209963
187,Elm Street,02144,42.3931487,-71.1203375
381,Summer Street,02144,42.3943543,-71.1208754
255,Elm Street,02144,42.3955324,-71.1218406
219,Elm Street,02144,42.3945804,-71.1211799
417,Highland Avenue,02144,42.3963557,-71.1217127
365,Beacon Street,02143,42.3856385,-71.1156570
37,Woodbine Street,02143,42.3919183,-71.1066150
212,Elm Street,02144,42.3942926,-71.1213635
64,Temple Street,02145,42.3948001,-71.0919698
255,Washington Street,02143,42.3797440,-71.0946019
105,Middlesex Avenue,02145,42.3942505,-71.0826530
165,Middlesex Avenue,02145,42.3960253,-71.0833823
119,Middlesex Avenue,02145,42.3946546,-71.0827439
77,Middlesex Avenue,02145-1109,42.3935770,-71.0824542
177,Middlesex Avenue,02145,42.3960729,-71.0829319
145,Middlesex Avenue,02145,42.3954311,-71.0829423
100,Kirkland Street,02138,42.3779685,-71.1069488
588,Somerville Avenue,02143,42.3836722,-71.1090117
626C,Somerville Avenue,02143,42.3839520,-71.1108466
237,Holland Street,02144,42.4027049,-71.1267949
106,Bristol Road,02144,42.4003150,-71.1127130
62A,Summer Street,02143,42.3840216,-71.1002405
62B,Summer Street,02143,42.3840790,-71.1002896
62C,Summer Street,02143,42.3841291,-71.1003473
55B,Summer Street,02143,42.3839085,-71.0998332
55,Summer Street,02143,42.3838700,-71.0997572
40,Bow Street,02143,42.3815356,-71.0979069
20,Bow Street,02143,42.3808011,-71.0972174
273,Broadway,02145,42.3916233,-71.0911006
220,Broadway,02145,42.3896540,-71.0887839
447,Somerville Avenue,02143,42.3822930,-71.1025479
373,Washington Street,02143,42.3788608,-71.1042820
402,Washington Street,02143,42.3783241,-71.1056447
20,Holland Street,02144,42.3972386,-71.1234092
235,Highland Avenue,02143,42.3907943,-71.1090004
1,Beacon Street,02143,42.3744435,-71.1015002
144,North Street,02155,42.4112325,-71.1277021
149,Highland Avenue,02143,42.3884525,-71.1031906
307,Somerville Avenue,02143,42.3804502,-71.0973366
445,Somerville Avenue,02145,42.3822787,-71.1025070
154,Highland Avenue,02143,42.3883448,-71.1036392
55,Chester Street,02144,42.3951496,-71.1223224
389,Highland Avenue,02144,42.3955310,-71.1197902
368,Beacon Street,02143,42.3859607,-71.1160322
395,Artisan Way,02145,42.3949540,-71.0797275
598,Assembly Row,02145,42.3948898,-71.0795558
14,Tyler Street,02143,42.3819757,-71.1062382
44,Park Street,02143,42.3813175,-71.1068507
421,Highland Avenue,02144,42.3964682,-71.1219955
168,Broadway,02145,42.3885885,-71.0861874
487,Somerville Avenue,02143,42.3829144,-71.1044103
487,Somerville Avenue,02143,42.3829313,-71.1044559
377,Summer Street,02144,42.3942344,-71.1206553
341,Artisan Way,02145,42.3948274,-71.0805697
301,Great River Road,02145,42.3959310,-71.0810713
331,Great River Road,02145,42.3958378,-71.0809268
698,Assembly Row,02145,42.3958441,-71.0799189
699,Assembly Row,02145,42.3957807,-71.0790591
711,Broadway,02144,42.4000881,-71.1122882
451,Artisan Way,02145,42.3951191,-71.0785451
716,Broadway,02144,42.3999434,-71.1126715
249,Elm Street,02144,42.3954697,-71.1217805
89-91,Curtis Street,02144,42.4063311,-71.1250787
504,Broadway,02145,42.3971923,-71.1048975
257,Elm Street,02144,42.3957125,-71.1219616
1,Davis Square,02144,42.3962929,-71.1226002
420,Highland Avenue,02144,42.3961879,-71.1218473
9,Davis Square,02144,42.3961276,-71.1221103
478,Artisan Way,02145,42.3953757,-71.0785177
582,BROADWAY,02145-2563,42.3983189,-71.1083875
10,Ibbetson Street,02143,42.3852771,-71.1121690
1157,Broadway,02144,42.4035022,-71.1274467
438R,Somerville Avenue,02143,42.3812767,-71.1025453
14,McGrath Highway,02143,42.3743424,-71.0857379
22,McGrath Highway,02143,42.3745010,-71.0851935
51,McGrath Highway,02143,42.3745189,-71.0831000
415,Medford Street,02145,42.3914845,-71.0994169
401,Assembly Row,02145,42.3934652,-71.0786817
440,Foley Street,02145,42.3935286,-71.0782901
490,Foley Street,02145,42.3936078,-71.0778717
300,Canal Street,02145,42.3941466,-71.0804439
14,McGrath Highway,02143,42.3739990,-71.0837988
152,Highland Avenue,02143,42.3882930,-71.1033453
89,Holland Street,02144,42.3988942,-71.1243071
20-40,Holland Street,02144,42.3973613,-71.1233975
257,Highland Avenue,02143,42.3914307,-71.1104142
235,Highland Avenue,02143,42.3908197,-71.1091041
233,Highland Avenue,02143,42.3907133,-71.1088701
285,Washington Street,02143,42.3796301,-71.0986634
180,Somerville Avenue,02143,42.3767904,-71.0908433
399,Highland Avenue,02144,42.3958789,-71.1205672
239,Holland Street,02144,42.4027899,-71.1267807
51,Davis Square,02144,42.3965791,-71.1227578
4,College Avenue,02144,42.3969498,-71.1221827
36,Davis Square,02144,42.3969440,-71.1224698
39,Davis Square,02144,42.3970055,-71.1227005
37,Davis Square,02144,42.3969699,-71.1225754
23,Washington Street,02143,42.3820952,-71.0820743
74,Bonair Street,02145,42.3890272,-71.0913529
230,Holland Street,02144,42.4024720,-71.1269488
243,Elm Street,02144,42.3952603,-71.1216454
45,Day Street,02144,42.3956370,-71.1237535
402A,Highland Avenue,02144,42.3957980,-71.1209913
401,Highland Avenue,02144,42.3959448,-71.1207359
403,Highland Avenue,02144,42.3960185,-71.1209291
407,Highland Avenue,02144,42.3961435,-71.1211858
409,Highland Avenue,02144,42.3961826,-71.1212934
408,Highland Avenue,02144,42.3959900,-71.1214008
414,Highland Avenue,02144,42.3960458,-71.1215310
416,Highland Avenue,02144,42.3961006,-71.1216575
411,Highland Avenue,02144,42.3962308,-71.1214151
411A,Highland Avenue,02144,42.3962543,-71.1214706
418,Highland Avenue,02144,42.3961227,-71.1217043
415,Highland Avenue,02144,42.3963187,-71.1216294
267,Elm Street,02144,42.3959617,-71.1220836
265,Elm Street,02144,42.3959227,-71.1220746
263,Elm Street,02144,42.3958866,-71.1220566
261,Elm Street,02144,42.3958494,-71.1220387
259,Elm Street,02144,42.3957689,-71.1219973
258,Elm Street,02144,42.3955777,-71.1221904
255,Elm Street,02144,42.3955682,-71.1218584
256,Elm Street,02144,42.3955064,-71.1221467
255,Elm Street,02144,42.3955069,-71.1218220
241,Elm Street,02144,42.3952108,-71.1216177
240,Elm Street,02144,42.3950843,-71.1220917
237,Elm Street,02144,42.3950856,-71.1215213
235,Elm Street,02144,42.3950431,-71.1215053
238,Elm Street,02144,42.3949777,-71.1217730
236,Elm Street,02144,42.3948843,-71.1217148
49,Holland Street,02144,42.3978355,-71.1234538
37,Holland Street,02144,42.3975014,-71.1231817
31,Holland Street,02144,42.3974104,-71.1231101
7,Holland Street,02144,42.3970555,-71.1228244
1,Bow Market Way,02143,42.3812330,-71.0982566
622,Somerville Avenue,02143,42.3837425,-71.1101036
431,Somerville Avenue,02143,42.3820697,-71.1018661
60,Union Square,02143,42.3798160,-71.0955676
377,Somerville Avenue,02143,42.3812674,-71.0994483
18,College Avenue,02144,42.3971515,-71.1220463
20,College Avenue,02144,42.3971820,-71.1220233
22,College Avenue,02144,42.3972117,-71.1220042
22A,College Avenue,02144,42.3972454,-71.1219821
24,College Avenue,02144,42.3972915,-71.1219584
30,College Avenue,02144,42.3974062,-71.1219109
34,College Avenue,02144,42.3977368,-71.1217243
63,Inner Belt Road,02143,42.3772007,-71.0813794
66,Summer Street,02143,42.3842044,-71.1003780
201A,Highland Avenue,02143,42.3897774,-71.1067661
415B,Medford Street,02145,42.3915499,-71.0994908
415A,Medford Street,02145,42.3915242,-71.0994582
415C,Medford Street,02145,42.3915831,-71.0995200
415D,Medford Street,02145,42.3916080,-71.0995459
868,Broadway,02144,42.4007198,-71.1178180
360,Summer Street,02144,42.3937643,-71.1200669
55,Union Square,02143,42.3799391,-71.0961633
387,Highland Avenue,02144,42.3954998,-71.1196967
197,Elm Street,02144,42.3934579,-71.1205137
195,Elm Street,02144,42.3933462,-71.1204542
25,Boston Street,02143,42.3813435,-71.0909957
25 1/2,Boston Street,02143,42.3813557,-71.0910060
27,Boston Street,02143,42.3813650,-71.0910139
27 1/2,Boston Street,02143,42.3813782,-71.0910251
14,Flint Street,02143,42.3837537,-71.0854046
377,Summer Street,02144,42.3943230,-71.1207820
58,Day Street,02144,42.3959334,-71.1228363
1,Davis Square,02144,42.3962563,-71.1227156
29,Woodbine Street,02143,42.3917658,-71.1061329
1118,Broadway,02144,42.4028971,-71.1266754
1141,Broadway,02144,42.4032906,-71.1270059
1127,Broadway,02144,42.4031507,-71.1266865
70,Beacon Street,02143,42.3763245,-71.1042368
375,Assembly Row,02145,42.3929424,-71.0788226
24,Thorndike Street,02141,42.3978679,-71.1248600
120,Curtis Street,02144,42.4073755,-71.1247743
151,Linwood Street,02143,42.3793109,-71.0882930
320,Broadway,02145,42.3924920,-71.0941504
50,Prospect Street,02143,42.3769871,-71.0939352
260,Elm Street,02144,42.3956865,-71.1224658
260,Elm Street,02144,42.3956659,-71.1225310
260,Elm Street,02144,42.3956418,-71.1226033
260,Elm Street,02144,42.3956099,-71.1227213
260,Elm Street,02144,42.3955845,-71.1227931
258,Elm Street,02144,42.3955511,-71.1221760
240,Elm Street,02144,42.3950914,-71.1218531
259,Elm Street,02144,42.3958168,-71.1220136
410,Highland Avenue,02144,42.3960261,-71.1214757
403,Highland Avenue,02144,42.3960525,-71.1210181
19,College Avenue,02144,42.3969997,-71.1218677
21,College Avenue,02144,42.3970569,-71.1218318
17,College Avenue,02144,42.3969331,-71.1219020
3,Holland Street,02144,42.3970259,-71.1227540
27,Holland Street,02144,42.3973551,-71.1230688
92,Union Square,02143,42.3794891,-71.0943415
90,Union Square,02143,42.3794007,-71.0945219
57,Union Square,02143,42.3798485,-71.0958305
59,Union Square,02143,42.3798271,-71.0956939
25,Union Square,02143,42.3799222,-71.0967078
134,Washington Street,02143,42.3797425,-71.0869371
217,Highland Avenue,02143,42.3902422,-71.1077676
691,Broadway,02144,42.3999738,-71.1119371
700,Grand Union Boulevard,02145,42.3966147,-71.0822839
35,Spring Street,02143,42.3856929,-71.1086353
372,Washington Street,02143,42.3786757,-71.1041885
400,Highland Avenue,02144,42.3957205,-71.1208454
457,Grand Union Boulevard,02145,42.3935133,-71.0804561
495,Grand Union Boulevard,02145,42.3938535,-71.0804843
325,Canal Street,02145,42.3939030,-71.0802278
335,Canal Street,02145,42.3939328,-71.0800492
320,Foley Street,02145,42.3932296,-71.0800089
455,Grand Union Boulevard,02145,42.3933358,-71.0803889
330,Foley Street,02145,42.3932743,-71.0797336
34,Allen Street,02143,42.3774951,-71.0930709
499,Great River Road,02145,42.3949401,-71.0777418
220,Washington Street,02143,42.3791862,-71.0923063
10,Prospect Street,02143,42.3787137,-71.0942272
20,Prospect Street,02143,42.3782763,-71.0942427
60,Prospect Street,02143,42.3773844,-71.0948561
9a,Union Square,02143,42.3795038,-71.0956259
256,Somerville Avenue,02143,42.3784311,-71.0934922
1,Bow Market Way,02143,42.3812681,-71.0981645
9,Union Square,02143,42.3794636,-71.0955109
7,Union Square,02143,42.3794301,-71.0954099
1,Bow Market Way,02143,42.3812631,-71.0979788
1,Bow Market Way,02143,42.3812669,-71.0981125
1,Bow Market Way,02143,42.3812618,-71.0980303
1,Bow Market Way,02143,42.3812643,-71.0980609
365,Somerville Avenue,02143,42.3811934,-71.0991984
346,Somerville Avenue,02143,42.3806771,-71.0984663
93,Holland Street,02144,42.3989449,-71.1243411
253,Washington Street,02143,42.3797269,-71.0943881
57,Union Square,02143,42.3798740,-71.0957645
21,Hawkins Street,02143,42.3796893,-71.0981505
16,Union Square,02143,42.3795360,-71.0961500
21,Hawkins Street,02143,42.3796776,-71.0981297
325,McGrath Highway,02143,42.3805781,-71.0902239
157,Washington Street,02143,42.3802981,-71.0901116
161,Washington Street,02143,42.3802540,-71.0902046
163,Washington Street,02143,42.3802190,-71.0902888
167,Washington Street,02143,42.3802021,-71.0903380
175,Washington Street,02143,42.3801499,-71.0904816
179,Washington Street,02143,42.3800991,-71.0905942
182,Washington Street,02143,42.3796617,-71.0904348
182,Washington Street,02143,42.3797154,-71.0902723
259,McGrath Highway,02143,42.3784957,-71.0888323
259,McGrath Highway,02143,42.3787256,-71.0889503
261,McGrath Highway,02143,42.3796350,-71.0888457
151,Washington Street,02143,42.3806633,-71.0893312
137,Washington Street,02145,42.3809149,-71.0885533
308,McGrath Highway,02143,42.3792368,-71.0898837
210,Washington Street,02143,42.3793908,-71.0919231
205,Washington Street,02143,42.3795974,-71.0921019
191,Washington Street,02143,42.3797856,-71.0914024
218,Somerville Avenue,02143,42.3779834,-71.0914329
220,Somerville Avenue,02143,42.3780352,-71.0915578
222,Somerville Avenue,02143,42.3780701,-71.0916782
224,Somerville Avenue,02143,42.3779609,-71.0918961
224,Somerville Avenue,02143,42.3780881,-71.0919372
230,Somerville Avenue,02143,42.3782445,-71.0922373
230,Somerville Avenue,02143,42.3783374,-71.0924355
180,Somerville Avenue,02143,42.3765944,-71.0905727
180,Somerville Avenue,02143,42.3766221,-71.0904787
515,Somerville Avenue,02143,42.3832210,-71.1055805
166,Broadway,02145,42.3885189,-71.0859507
594,Somerville Avenue,02143,42.3837315,-71.1092252
407,Washington Street,02143,42.3784659,-71.1060895
147,Beacon Street,02143,42.3789325,-71.1067425
46,Broadway,02145,42.3863521,-71.0799577
118,Beacon Street,02143,42.3780402,-71.1062793
147B,Highland Avenue,02143,42.3883877,-71.1029809
15,Properzi Way,02143,42.3824033,-71.1054824
75,Washington Avenue,02143,42.3817174,-71.0846675
343,Broadway,02145,42.3937986,-71.0941998
631,Assembly Row,02145,42.3955683,-71.0791748
401,Somerville Avenue,02143,42.3817533,-71.1008742
391,Somerville Avenue,02143,42.3816829,-71.1005974
36,Bow Street,02143,42.3814199,-71.0976394
290,Highland Avenue,02144,42.3921612,-71.1125883
335,Revolution Drive,02145,42.3914860,-71.0794880
231,Somerville Avenue,02143,42.3783880,-71.0917424
577,Somerville Avenue,02143,42.3838028,-71.1084741
20-50,Prospect Street,02143,42.3782540,-71.0943859
101,South Street,02143,42.3747988,-71.0911980
101,South Street,02143,42.3748046,-71.0913198
101,South Street,02143,42.3747865,-71.0910600
85,Washington Street,02143,42.3816752,-71.0854840
14,Tyler Street,02143,42.3817660,-71.1059222
118,Josephine Avenue,02144,42.3991689,-71.1127268
107,Josephine Avenue,02144,42.3987154,-71.1125611
100,Josephine Avenue,02144,42.3986534,-71.1130648
98,Josephine Avenue,02144,42.3985507,-71.1131475
84,Josephine Avenue,02144,42.3981385,-71.1134164
83,Josephine Avenue,02144,42.3980038,-71.1130567
74,Josephine Avenue,02144,42.3978272,-71.1136324
75,Josephine Avenue,02144,42.3977890,-71.1131941
73,Josephine Avenue,02144,42.3976923,-71.1132561
36-38,Josephine Avenue,02144,42.3967018,-71.1143828
28-30,Josephine Avenue,02144,42.3964741,-71.1145324
16,Josephine Avenue,02144,42.3960613,-71.1148274
13,Josephine Avenue,02144,42.3958902,-71.1145032
387;389,Highland Avenue,02144,42.3955640,-71.1197164
71-73,Cherry Street,02144,42.3925853,-71.1139385
125,Lowell Street,02143,42.3884379,-71.1086046
51,Elm Street,02143,42.3878957,-71.1150501
90,Yorktown Street,02144,42.4000674,-71.1292250
122-124,Josephine Avenue,02144,42.3993741,-71.1125816
114,Josephine Avenue,02144,42.3990649,-71.1127964
109,Josephine Avenue,02144,42.3988195,-71.1124943
90,Josephine Avenue,02144,42.3983416,-71.1132872
93,Josephine Avenue,02144,42.3983041,-71.1128422
90,Highland Road,02144,42.3975317,-71.1121341
57,Josephine Avenue,02144,42.3972629,-71.1135331
37-39,Josephine Avenue,02144,42.3966506,-71.1139563
219,Highland Avenue,02143,42.3904333,-71.1079619
20,Benton Road,02143,42.3876577,-71.1064379
282,Beacon Street,02143,42.3830112,-71.1124522
244,Beacon Street,02143,42.3820747,-71.1113163
92,School Street,02143,42.3856589,-71.0997608
19,Gordon Street,02148,42.4123434,-71.1280783
17,Gordon Street,02148,42.4122716,-71.1279617
115,Sycamore Street,02145,42.3916580,-71.0988023
9R,Sherman Street,02129,42.3875470,-71.0764568
41,Everett Avenue,02145,42.3873940,-71.0896385
34,Everett Avenue,02145,42.3869905,-71.0894794
8,Everett Avenue,02145,42.3864740,-71.0879328
59,Cross Street,02145,42.3862110,-71.0880949
15,Parker Street,02129,42.3835348,-71.0791043
90;92,Union Square,02143,42.3793874,-71.0943367
259,McGrath Highway,02143,42.3786506,-71.0884959
490R,Rutherford Avenue,02129,42.3785568,-71.0747750
410R,Rutherford Avenue,02129,42.3772321,-71.0737967
44,Park Street,02143,42.3813044,-71.1067471
407,Washington Street,02143,42.3785362,-71.1061097
400,Washington Street,02143,42.3782233,-71.1056576
88,Josephine Avenue,02144,42.3982368,-71.1133420
70,Josephine Avenue,02144,42.3977275,-71.1136891
2,Vinal Street,02145,42.3961731,-71.1052502
95,Cedar Street,02143,42.3917658,-71.1124550
217,Highland Avenue,02143,42.3902454,-71.1076664
28,Benton Road,02143,42.3878509,-71.1062920
480,Somerville Avenue,02143,42.3824397,-71.1045358
15,Dimick Street,02143,42.3762719,-71.1018315
126,Packard Avenue,02155,42.4063553,-71.1225511
343,Broadway,02145,42.3936400,-71.0943712
36,Sewall Street,02145,42.3931835,-71.0921495
75,Mystic Avenue,02143,42.3901035,-71.0795423
81,Highland Avenue,02143,42.3867697,-71.0956551
13,Everett Avenue,02145,42.3868382,-71.0881046
20,Everett Avenue,02145,42.3866904,-71.0886567
18,Everett Avenue,02145,42.3866575,-71.0885361
10,Everett Avenue,02145,42.3864077,-71.0881004
20,Pearl Street,02145,42.3834993,-71.0810107
10,Pinckney Street,02145,42.3823998,-71.0825949
8,Pinckney Street,02145,42.3823115,-71.0825911
30,Washington Street,02143,42.3813302,-71.0820308
196,Somerville Avenue,02143,42.3773324,-71.0913199
"87,89,91",Newton Street,02143,42.3770578,-71.0977523
131,Josephine Avenue,02144,42.3994333,-71.1120584
9,Josephine Avenue,02144,42.3957640,-71.1145800
15-17,Josephine Avenue,02144,42.3960029,-71.1143895
65,Josephine Avenue,02144,42.3974705,-71.1133980
381,Summer Street,02144,42.3944288,-71.1207984
112,Morrison Avenue,02144,42.3956907,-71.1159873
24,Thorndike Street,02141,42.3978154,-71.1248183
125,Josephine Avenue,02144,42.3992296,-71.1122038
110,Josephine Avenue,02144,42.3989505,-71.1128696
310,Highland Avenue,02144,42.3926498,-71.1137660
16,Benton Road,02143,42.3874764,-71.1065830
113,Josephine Avenue,02144,42.3989177,-71.1124034
191,Highland Avenue,02143,42.3896895,-71.1060030
41-43,Josephine Avenue,02144,42.3967518,-71.1138804
9,Carver Street,02143,42.3881014,-71.1130950
27,College Avenue,02144,42.3972057,-71.1215426
11;13,Roberts Street,02145,42.3961708,-71.1066087
55,Josephine Avenue,02144,42.3971598,-71.1136076
115,Josephine Avenue,02144,42.3990201,-71.1123378
106,Vernon Street,02143,42.3932955,-71.1056426
68,Josephine Avenue,02144,42.3976174,-71.1137608
58-60,Burnside Avenue,02144,42.3921238,-71.1165716
120,Josephine Avenue,02144,42.3992693,-71.1126488
102-104,Josephine Avenue,02144,42.3987484,-71.1129964
12,Properzi Way,02143,42.3824022,-71.1049107
97,Josephine Avenue,02144,42.3984057,-71.1127593
79,Josephine Avenue,02144,42.3978944,-71.1131267
101-103,Josephine Avenue,02144,42.3986113,-71.1126277
303,Highland Avenue,02144,42.3928303,-71.1133322
24-26,Pitman Street,02143,42.3842100,-71.1088912
78,Josephine Avenue,02144,42.3979294,-71.1135705
145,Elm Street,02144,42.3913302,-71.1185212
45,Josephine Avenue,02144,42.3968529,-71.1138261
46,Josephine Avenue,02144,42.3970118,-71.1141751
45,Matignon Road,02140,42.4023456,-71.1326820
106-108,Josephine Avenue,02144,42.3988531,-71.1129294
298,Highland Avenue,02144,42.3924801,-71.1135061
46,Linden Avenue,02143,42.3893968,-71.1132105
406,Washington Street,02143,42.3782018,-71.1059958
2151,Mystic Valley Parkway,02155,42.4170050,-71.1266332
"41,43",Gordon Street,02148,42.4128395,-71.1288961
"37,39",Gordon Street,02148,42.4127728,-71.1287793
29,Gordon Street,02148,42.4125534,-71.1284328
23,Gordon Street,02148,42.4124119,-71.1281936
11,Gordon Street,02148,42.4122016,-71.1278480
50,Thurston Street,02143,42.3914592,-71.0982939
709,McGrath Highway,02145,42.3905995,-71.0869521
593,McGrath Highway,02145,42.3875704,-71.0896934
7,Sherman Street,02129,42.3871995,-71.0763950
29,Everett Avenue,02145,42.3871310,-71.0890007
5;7,Everett Avenue,02145,42.3867544,-71.0877578
51-55,Cross Street,02145,42.3863570,-71.0876207
57,Cross Street,02145,42.3862625,-71.0876799
48,Pearl Street,02145,42.3840252,-71.0828942
26,Pearl Street,02145,42.3835719,-71.0813228
34,Pinckney Street,02145,42.3834720,-71.0824111
40,Bunker Hill Industrial Park,02129,42.3798847,-71.0752957
282;286,Somerville Avenue,02143,42.3787804,-71.0946259
180,Somerville Avenue,02143,42.3764240,-71.0904312
127,Josephine Avenue,02144,42.3993380,-71.1121344
80,Josephine Avenue,02144,42.3980313,-71.1134888
201,Willow Avenue,02144,42.3973437,-71.1141075
473,Broadway,02155,42.3970503,-71.1026806
49,Josephine Avenue,02144,42.3969584,-71.1137418
29,Josephine Avenue,02144,42.3963261,-71.1141730
21-23,Josephine Avenue,02144,42.3961258,-71.1143091
144,Willow Avenue,02144,42.3958844,-71.1158467
10,Josephine Avenue,02144,42.3958454,-71.1149642
402,Highland Avenue,02144,42.3956688,-71.1210827
25,Ellington Road,02144,42.3957950,-71.1192500
63-65,Cherry Street,02144,42.3923485,-71.1139651
65,Elm Street,02144,42.3885674,-71.1157207
90,School Street,02143,42.3857572,-71.0996785
155,Gore Street,02141,42.3730125,-71.0845841
6,Everett Avenue,02145,42.3864593,-71.0878199
47,Cross Street,02145,42.3866464,-71.0874717
56,Roland Street,02129,42.3810609,-71.0801321
28,Everett Avenue,02145,42.3868755,-71.0891314
2,Newbury Street,02144,42.4026774,-71.1272231
126-128,Josephine Avenue,02144,42.3994771,-71.1125158
99,Josephine Avenue,02144,42.3985067,-71.1126946
87,Josephine Avenue,02144,42.3981041,-71.1129925
31-33,Josephine Avenue,02144,42.3964450,-71.1141028
26,Josephine Avenue,02144,42.3963688,-71.1146021
9,Cottage Avenue,02144,42.3938401,-71.1217539
58,Cherry Street,02144,42.3921975,-71.1147811
63,Elm Street,02144,42.3884823,-71.1156461
285,Beacon Street,02143,42.3835951,-71.1126302
493,Somerville Avenue,02143,42.3830236,-71.1047000
278,Beacon Street,02143,42.3827729,-71.1123904
278,Highland Avenue,02143,42.3917922,-71.1118847
54,Spring Street,02143,42.3868308,-71.1084161
11,North Street,02144,42.4063515,-71.1307756
20-24,Fremont Street,02145,42.3976452,-71.0988252
50,Evergreen Avenue,02145,42.3917863,-71.0972459
25,Gordon Street,02148,42.4124852,-71.1283098
"69,71",Gordon Street,02148,42.4135036,-71.1299499
40,Everett Avenue,02145,42.3871180,-71.0898231
13,Caldwell Street,02129,42.3852224,-71.0779596
12,Everett Avenue,02145,42.3865393,-71.0881614
93,Highland Avenue,02143,42.3871794,-71.0981965
23,Everett Avenue,02145,42.3870256,-71.0885928
39,Cross Street,02145,42.3869932,-71.0872250
41;43,Cross Street,02145,42.3868910,-71.0872931
15,Everett Avenue,02145,42.3868731,-71.0882141
36,Everett Avenue,02145,42.3870401,-71.0896509
22,Everett Avenue,02145,42.3867233,-71.0887492
75,Myrtle Street,02145,42.3846255,-71.0828058
22,Pearl Street,02145,42.3835343,-71.0811706
30,Pinckney Street,02145,42.3832852,-71.0825251
33,Florence Street,02145,42.3831495,-71.0829198
9,Pinckney Street,02145,42.3823717,-71.0821988
10,Webster Avenue,02143,42.3791708,-71.0960431
1,Union Square,02143,42.3790121,-71.0949887
220,Washington Street,02143,42.3789644,-71.0923802
32,Pearl Street,02145,42.3836774,-71.0816193
190,Highland Avenue,02143,42.3890299,-71.1066984
4,Joy Street,02145,42.3805421,-71.0881345
15,Webster Avenue,02143,42.3787162,-71.0965944
55,Davis Square,02144,42.3966504,-71.1230136
69,Josephine Avenue,02144,42.3975890,-71.1133222
400,Highland Avenue,02144,42.3956706,-71.1208618
32,Ellington Road,02144,42.3956989,-71.1196321
9,Gordon Street,02148,42.4121282,-71.1277288
38,Pearl Street,02145,42.3837958,-71.0821299
53,Josephine Avenue,02144,42.3970594,-71.1136800
89,Josephine Avenue,02144,42.3982031,-71.1129248
39,Everett Avenue,02145,42.3873198,-71.0894864
35,Josephine Avenue,02144,42.3965574,-71.1140506
130,Josephine Avenue,02144,42.3995842,-71.1124473
12-14,Josephine Avenue,02144,42.3959575,-71.1148945
45,Cross Street,02145,42.3867333,-71.0873880
119,Josephine Avenue,02144,42.3991295,-71.1122679
42,Everett Avenue,02145,42.3871434,-71.0899706
65,Cross Street,02145,42.3859494,-71.0878689
185,Summer Street,02143,42.3874412,-71.1078435
"75,77",Gordon Street,02148,42.4136154,-71.1301569
20,Josephine Avenue,02144,42.3961637,-71.1147479
5,Berkeley Street,02143,42.3857254,-71.0999243
9,Medford Street,02143,42.3742626,-71.0867729
44,Josephine Avenue,02144,42.3969039,-71.1142531
32,Webster Avenue,02143,42.3781665,-71.0957023
9;11,Everett Avenue,02145,42.3868190,-71.0879324
400,Somerville Avenue,02143,42.3807412,-71.1015958
22,Josephine Avenue,02144,42.3962682,-71.1146843
79,Highland Avenue,02143,42.3857881,-71.0944054
275,Beacon Street,02143,42.3836547,-71.1117851
14,McGrath Highway,02143,42.3737214,-71.0828694
40-42,Josephine Avenue,02144,42.3968036,-71.1143116
708;710;712,Mystic Avenue,02145,42.4002951,-71.0966572
27,Ellington Road,02144,42.3958386,-71.1193684
31,Washington Street,02143,42.3820314,-71.0827510
105;115,Alewife Brook Parkway,02144,42.4067341,-71.1322311
34,Pearl Street,02145,42.3837324,-71.0817933
48,Grove Street,02144,42.3965779,-71.1205677
25-27,Josephine Avenue,02144,42.3962248,-71.1142398
23,Cummings Street,02145,42.3943234,-71.0847465
20,Cummings Street,02145,42.3937580,-71.0840927
33,Everett Avenue,02145,42.3871726,-71.0891933
30,Everett Avenue,02145,42.3869367,-71.0892978
3,Everett Avenue,02145,42.3866960,-71.0876291
20,Pinckney Street,02145,42.3828282,-71.0825944
27,Everett Avenue,02145,42.3870825,-71.0888170
341,Summer Street,02144,42.3935500,-71.1188521
24,Pinckney Street,02145,42.3830363,-71.0825971
24,Dane Street,02143,42.3811183,-71.1036796
31,Everett Avenue,02145,42.3871521,-71.0890907
771;775;779,McGrath Highway,02145,42.3915332,-71.0856577
70,Inner Belt Road,02143,42.3767059,-71.0797577
85,Gordon Street,02148,42.4138045,-71.1305146
94,Josephine Avenue,02144,42.3984488,-71.1132157
19;21,Everett Avenue,02145,42.3869640,-71.0884671
263,Beacon Street,02143,42.3828334,-71.1114271
26,Dartmouth Street,02145,42.3912522,-71.0971450
9,Florence Street,02145,42.3822549,-71.0828531
"45,47",Gordon Street,02148,42.4129061,-71.1290035
185,Somerville Avenue,02143-3401,42.3779526,-71.0897349
35;37,Pinckney Street,02145,42.3834925,-71.0818800
32-34,Josephine Avenue,02144,42.3966033,-71.1144461
11,Florence Street,02145,42.3823320,-71.0829497
196,Boston Avenue,02155,42.4161754,-71.1275940
40,College Avenue,02144,42.3981244,-71.1217280
44,Pearl Street,02145,42.3838752,-71.0825042
38,Pinckney Street,02145,42.3835962,-71.0822435
35;37,Everett Avenue,02145,42.3872537,-71.0893373
35,Gordon Street,02148,42.4127042,-71.1286566
62,Mount Vernon Street,02145,42.3835986,-71.0805061
33,Gordon Street,02148,42.4126309,-71.1285383
"29,31,33",Ellington Road,02144,42.3958827,-71.1194944
42,Cross Street,02145,42.3867460,-71.0869233
26,Ellington Road,02144,42.3956156,-71.1194193
79,Gordon Street,02148,42.4136898,-71.1302884
185,Morrison Avenue,02144,42.3972487,-71.1188559
17,Everett Avenue,02145,42.3869120,-71.0883260
393,Highland Avenue,02144,42.3958042,-71.1198591
405;407;409;411,Somerville Avenue,02143,42.3818799,-71.1009892
16,Everett Avenue,02145,42.3866288,-71.0884145
19,Parker Street,02129,42.3833244,-71.0793379
26,Everett Avenue,02145,42.3868215,-71.0889609
12,Dearborn Road,02144,42.4048865,-71.1161556
38,Cross Street,02145,42.3868840,-71.0868421
14,Everett Avenue,02145,42.3865835,-71.0882799
73,Gordon Street,02148,42.4135649,-71.1300462
439,Somerville Avenue,02143,42.3816082,-71.1020473
70,Beacon Street,02143,42.3763633,-71.1042884
16,Beacon Street,02143,42.3748099,-71.1026620
0,New Washington Street,02143,42.3800484,-71.0823789
13-29,Summer Street,02143,42.3829496,-71.0987542
81,Broadway,02145,42.3874414,-71.0819623
46;48,Broadway,02145,42.3863552,-71.0799601
15,Webster Avenue,02143,42.3787033,-71.0966214
2,Union Square,02143,42.3790782,-71.0950611
282,Somerville Avenue,02143,42.3788995,-71.0945182
10,Webster Avenue,02143,42.3791833,-71.0959884
169,Holland Street,02144,42.4011135,-71.1253938
238,Washington Street,02143,42.3792009,-71.0934946
48,Webster Avenue,02143,42.3773939,-71.0954357
709,McGrath Highway,02145,42.3905498,-71.0865476
8,Highland Avenue,02143,42.3845291,-71.0930168
65,Florence Street,02145,42.3845059,-71.0821751
6,Kensington Avenue,02145,42.3898068,-71.0872710
212,Broadway,02145,42.3893301,-71.0882473
230,Highland Avenue,02143,42.3899544,-71.1095485
39;41,Otis Street,02145,42.3878845,-71.0891065
28,Dane Street,02143,42.3813917,-71.1036294
445,Artisan Way,02145,42.3948001,-71.0784343
601;621;699,Assembly Row,02145,42.3955583,-71.0787926
35,Lexington Avenue,02144,42.3942294,-71.1127194
35R,Lexington Avenue,02144,42.3941092,-71.1122510
455,Grand Union Boulevard,02145,42.3935713,-71.0801198
661,Assembly Row,02145,42.3955828,-71.0794464
193;195;197,Washington Street,02143,42.3797828,-71.0916345
399,Revolution Drive,02145,42.3915408,-71.0785614
15,Talbot Avenue,02144,42.4050519,-71.1185961
26,Central Street,02143,42.3850797,-71.1060507
235,Lowell Street,02143,42.3920330,-71.1064262
300,Beacon Street,02143,42.3835653,-71.1131722
296-298,Beacon Street,02143,42.3835218,-71.1131087
289,Beacon Street,02143,42.3836582,-71.1127250
14,Bleachery Court,02143,42.3828944,-71.1089688
45,Matignon Road,02140,42.4023080,-71.1325336
266;268,Broadway,02145,42.3908781,-71.0912782
365,Foley Street,02145,42.3936769,-71.0794116
200,College Avenue,02155,42.4058189,-71.1170326
325,Assembly Row,02145,42.3923694,-71.0786416
2,North Street,02144,42.4062160,-71.1314362
378,Highland Avenue,02144,42.3949831,-71.1191616
29,Woodbine Street,02143,42.3918347,-71.1060652
27,Woodbine Street,02143,42.3917524,-71.1057440
84,Washington Street,02143,42.3809730,-71.0840397
19,Walnut Street,02143,42.3870012,-71.0942147
515,Somerville Avenue,02143,42.3833586,-71.1057232
9,Summer Street,02143,42.3837546,-71.1063244
181,Washington Street,02143,42.3800726,-71.0910878
401,Highland Avenue,02144,42.3960733,-71.1206826
10,Prospect Street,02143,42.3786400,-71.0939987
50,Prospect Street,02143,42.3777974,-71.0943219
808,Windsor Street,02143,42.3753633,-71.0921970
101,South Street,02143,42.3750623,-71.0911565
123,Washington Street,02145,42.3812400,-71.0873763
346,Somerville Avenue,02143,42.3805712,-71.0986165
346,Somerville Avenue,02143,42.3803919,-71.0986903
71,Bow Street,02143,42.3816406,-71.0995984
113,Beacon Street,02143,42.3779797,-71.1053783
13;17,Rossmore Street,02143,42.3786566,-71.0909616
11,Rossmore Street,02143,42.3785521,-71.0909879
23,Washington Street,02143,42.3821001,-71.0820706
"261,263",Washington Street,02143,42.3797699,-71.0970556
265,Washington Street,02143,42.3797852,-71.0972615
269,Washington Street,02143,42.3797602,-71.0973976
5,Tower Court,02143,42.3818306,-71.1048033
333,Great River Road,02145,42.3955227,-71.0804231
31,Tufts Street,02145,42.3824701,-71.0885914
391;393;395,Somerville Avenue,02143,42.3817300,-71.1005883
401;403,Somerville Avenue,02143,42.3818165,-71.1008407
81,Highland Avenue,02143,42.3876319,-71.0973485
401,Highland Avenue,02144,42.3960890,-71.1206826
1060,Broadway,02144,42.4016975,-71.1247713
66;68;70,Union Square,02143,42.3799244,-71.0949611
29,Everett Street,02138,42.3822765,-71.1209193
50,Prospect Street,02143,42.3769863,-71.0939368
40;41,Union Square,02143,42.3803168,-71.0964407
237,Washington Street,02143,42.3798831,-71.0935867
570,Somerville Avenue,02143,42.3829260,-71.1084828
