House number,Street name,Postal code,Latitude,Longitude
350,Southampton Road,01085,42.1490392,-72.7284906
533,North Road,01085-9777,42.1836262,-72.7340256
25,Bartlett Street,01085-3899,42.1247406,-72.7461877
22,Ashley Street,01085,42.1201215,-72.7411258
1065,Granville Road,01085,42.1199680,-72.8132818
47,Steiger Drive,01085,42.0965843,-72.7236196
21,Steiger Drive,01085,42.0967414,-72.7226561
3,White Street,01085,42.1202848,-72.7438526
94,North Elm Street,01085,42.1323427,-72.7433476
119,Falley Drive,01085,42.0949506,-72.7259008
109,Falley Drive,01085,42.0949643,-72.7254609
99,Falley Drive,01085,42.0949725,-72.7248334
625,East Main Street,01085,42.1117513,-72.7193729
280,East Main Street,01085,42.1148043,-72.7278074
359,Montgomery Road,01085,42.1609761,-72.7636486
613,East Main Street,01085,42.1119102,-72.7199909
625,East Main Street,01085,42.1117230,-72.7192630
415,East Main Street,01085,42.1125147,-72.7252689
301,East Main Street,01085,42.1129754,-72.7275997
141,Springfield Road,01085,42.1081082,-72.7080357
8,Franklin Street,01085,42.1241902,-72.7486097
22,Elm Street,01085,42.1211386,-72.7493178
98,Sergeant Thomas Dion Way,01085,42.1465071,-72.7218134
66,South Broad Street,01085,42.1101003,-72.7468226
124,Elm Street,01085,42.1232258,-72.7485622
16,Union Avenue,01085,42.1301111,-72.7450640
77,Mill Street,01085,42.1115045,-72.7656898
116,Elm Street,01085,42.1230770,-72.7485903
36,Elm Street,01085,42.1216502,-72.7491266
40,Elm Street,01085,42.1217025,-72.7491197
12,School Street,01085,42.1212608,-72.7497156
160,Elm Street,01085,42.1238897,-72.7483554
45,Washington Street,01085,42.1235854,-72.7513638
76,Franklin Street,01085,42.1253354,-72.7534496
34,Franklin Street,01085,42.1244715,-72.7496630
105,Elm Street,01085,42.1228232,-72.7483165
97,Elm Street,01085,42.1226170,-72.7483532
24,School Street,01085,42.1214099,-72.7502371
34,School Street,01085,42.1214227,-72.7502870
14,School Street,01085,42.1213000,-72.7498591
22,School Street,01085,42.1213966,-72.7501712
36,School Street,01085,42.1214345,-72.7503296
38,School Street,01085,42.1214439,-72.7503726
4,School Street,01085,42.1212283,-72.7495440
48,Elm Street,01085,42.1219072,-72.7490159
24,Elm Street,01085,42.1213122,-72.7492588
26,Elm Street,01085,42.1213951,-72.7492192
9,Southampton Road,01085,42.1412783,-72.7327234
3,Main Street,01085,42.1212693,-72.7486521
40,Elm Street,01085,42.1217015,-72.7491067
38,Main Street,01085,42.1209534,-72.7474327
105,Meadow Street,01085,42.1238805,-72.7415239
109,Apremont Way,01085,42.1559039,-72.7229598
266,Elm Street,01085,42.1261434,-72.7476247
252,Elm Street,01085,42.1260758,-72.7476542
69,Franklin Street,01085,42.1257998,-72.7527321
57,Union Street,01085,42.1311235,-72.7395587
57,Union Street,01085,42.1311076,-72.7394702
89,Elm Street,01085,42.1224176,-72.7484286
89,Elm Street,01085,42.1223780,-72.7484431
166,Elm Street,01085,42.1239630,-72.7483286
94,North Elm Street,01085,42.1321739,-72.7437566
575,North Road,01085,42.1831589,-72.7311921
30,West Silver Street,01085,42.1122804,-72.7517976
35,White Street,01085,42.1215043,-72.7430673
866,Shaker Road,01085,42.0857831,-72.7388531
22,Franklin Avenue,01085,42.1286288,-72.7578291
125,Lockhouse Road,01085,42.1465879,-72.7382738
148,Paper Mill Road,01085,42.1289577,-72.7051226
99,Old Stage Road,01085,42.1836329,-72.7046245
514,East Main Street,01085,42.1133651,-72.7210944
33,Mallard Lane,01085,42.0978698,-72.7305207
342,East Main Street,01085,42.1136383,-72.7223793
485,East Main Street,01085,42.1115457,-72.7216544
495,East Main Street,01085,42.1123372,-72.7210147
441,East Main Street,01085,42.1129992,-72.7239460
427,East Main Street,01085,42.1132050,-72.7247367
299,East Main Street,01085,42.1137106,-72.7268596
291,East Main Street,01085,42.1137927,-72.7274838
322;422,East Main Street,01085,42.1140345,-72.7243604
141,Springfield Road,01085,42.1085119,-72.7084466
715,Western Avenue,01085,42.1321052,-72.7997319
127,North Elm Street,01085,42.1349010,-72.7395781
94,North Elm Street,01085,42.1322920,-72.7437442
36,Union Avenue,01085,42.1300066,-72.7441472
57,Union Street,01085,42.1310074,-72.7394340
7,East Silver Street,01085,42.1137370,-72.7467459
21,South Broad Street,01085,42.1126184,-72.7486440
8,West Silver Street,01085,42.1137703,-72.7483051
86,Mechanic Street,01085,42.1254344,-72.7454330
27,Bartlett Street,01085-3899,42.1245962,-72.7462635
50,Southampton Road,01085,42.1432939,-72.7331947
24,Main Street,01085-3004,42.1216584,-72.7468808
125,Main Street,01085,42.1187161,-72.7405113
141,Elm Street,01085,42.1236209,-72.7478948
122,Montgomery Street,01085,42.1412715,-72.7519880
94,Foch Avenue,01085,42.1410265,-72.7534697
333,Western Avenue,01085,42.1279378,-72.7843022
459,Russell Road,01085,42.1324853,-72.7818783
1458,East Mountain Road,01085,42.1566661,-72.7015987
426,Falley Drive,01085,42.0937713,-72.7401166
432,Falley Drive,01085,42.0937495,-72.7408399
440,Falley Drive,01085,42.0937014,-72.7412644
448,Falley Drive,01085,42.0935543,-72.7417477
452,Falley Drive,01085,42.0935556,-72.7423913
455,Falley Drive,01085,42.0940961,-72.7424042
33,Winding Ridge Lane,01085,42.0945805,-72.7418837
36,Winding Ridge Lane,01085,42.0945230,-72.7412101
40,Winding Ridge Lane,01085,42.0942163,-72.7411397
451,Falley Drive,01085,42.0941837,-72.7418225
27,Winding Ridge Lane,01085,42.0948942,-72.7418900
18,Winding Ridge Lane,01085,42.0956671,-72.7409874
12,Winding Ridge Lane,01085,42.0960318,-72.7409700
8,Winding Ridge Lane,01085,42.0963825,-72.7409768
24,Harvest Moon Lane,01085,42.0967884,-72.7411601
21,Winding Ridge Lane,01085,42.0952082,-72.7417163
19,Winding Ridge Lane,01085,42.0956011,-72.7415843
24,Winding Ridge Lane,01085,42.0952046,-72.7410262
30,Winding Ridge Lane,01085,42.0948248,-72.7412342
7,Brimfield Way,01085,42.0961961,-72.7419891
18,Brimfield Way,01085,42.0959194,-72.7427860
14,Brimfield Way,01085,42.0955050,-72.7425363
10,Brimfield Way,01085,42.0955728,-72.7421012
3,Brimfield Way,01085,42.0961303,-72.7415937
15,Brimfield Way,01085,42.0962868,-72.7424337
28,Harvest Moon Lane,01085,42.0966121,-72.7417765
31,Harvest Moon Lane,01085,42.0970912,-72.7424366
32,Harvest Moon Lane,01085,42.0967469,-72.7425176
15,Harvest Moon Lane,01085,42.0974817,-72.7408851
25,Harvest Moon Lane,01085,42.0971677,-72.7416674
7,Harvest Moon Lane,01085,42.0975849,-72.7403947
18,Harvest Moon Lane,01085,42.0969894,-72.7407329
21,Harvest Moon Lane,01085,42.0973156,-72.7413149
280,Munger Hill Road,01085,42.0971243,-72.7395104
286,Munger Hill Road,01085,42.0968022,-72.7395145
292,Munger Hill Road,01085,42.0964858,-72.7395195
295,Munger Hill Road,01085,42.0963492,-72.7401870
297,Munger Hill Road,01085,42.0970450,-72.7401753
300,Munger Hill Road,01085,42.0961476,-72.7395527
303,Munger Hill Road,01085,42.0960144,-72.7402756
306,Munger Hill Road,01085,42.0957953,-72.7396653
309,Munger Hill Road,01085,42.0956389,-72.7404657
312,Munger Hill Road,01085,42.0953499,-72.7398722
315,Munger Hill Road,01085,42.0952420,-72.7405099
321,Munger Hill Road,01085,42.0949224,-72.7404538
327,Munger Hill Road,01085,42.0946019,-72.7404086
429,Falley Drive,01085,42.0942150,-72.7404496
275,Munger Hill Road,01085,42.0978174,-72.7400733
274,Munger Hill Road,01085,42.0974913,-72.7394635
270,Munger Hill Road,01085,42.0978296,-72.7393728
287,Munger Hill Road,01085,42.0966779,-72.7401699
98,Southwick Road,01085,42.1071001,-72.7641303
117,Southwick Road,01085,42.1065467,-72.7649836
200,Plum Street,01085,42.1817786,-72.6885841
201,Plum Street,01085,42.1815785,-72.6886233
330,Southampton Road,01085,42.1506462,-72.7283303
919,Southampton Road,01085,42.1708054,-72.7260458
10,Woodland Avenue,01085,42.1308740,-72.7640706
14,Livingstone Avenue,01085,42.1302311,-72.7634539
14,Woodland Avenue,01085,42.1309588,-72.7636758
16,Harold Avenue,01085,42.1283903,-72.7610318
18,Livingstone Avenue,01085,42.1302720,-72.7631676
22,Franklin Avenue,01085,42.1284209,-72.7577475
22,Woodland Avenue,01085,42.1310965,-72.7629284
26,Livingstone Avenue,01085,42.1304469,-72.7625712
28,Woodland Avenue,01085,42.1313229,-72.7620835
32,Livingstone Avenue,01085,42.1306232,-72.7619895
4,Woodland Avenue,01085,42.1308375,-72.7646753
6,Livingstone Avenue,01085,42.1301161,-72.7641165
137,Franklin Street,01085,42.1283326,-72.7595672
12,Avery Street,01085,42.1149770,-72.7489904
125,Lapointe Road,01085,42.1816498,-72.7033638
134,Lapointe Road,01085,42.1811224,-72.7032689
125,Hampton Avenue,01085,42.1830265,-72.7007396
35,New Broadway,01085,42.1835341,-72.7000979
126,Old Stage Road,01085,42.1855692,-72.7082721
1958,East Mountain Road,01085,42.1724733,-72.6900648
1524,East Mountain Road,01085,42.1590619,-72.6964677
1526,East Mountain Road,01085,42.1594096,-72.6963384
115,Hampton Avenue,01085,42.1833904,-72.7009122
116,Hampton Avenue,01085,42.1837299,-72.7011026
121,Hampton Avenue,01085,42.1834031,-72.7013512
120,Hampton Avenue,01085,42.1835232,-72.7014813
119,Hampton Avenue,01085,42.1836486,-72.7015581
118,Hampton Avenue,01085,42.1838397,-72.7016846
44,Little River Road,01085,42.1111593,-72.7181665
265,Union Street,01085,42.1222617,-72.7183085
261,Union Street,01085,42.1224332,-72.7186767
437,East Main Street,01085,42.1123436,-72.7205428
23,Falley Drive,01085,42.0952988,-72.7213560
1,Steiger Drive,01085,42.0969084,-72.7217843
41,Falley Drive,01085,42.0952849,-72.7220805
11,Steiger Drive,01085,42.0968052,-72.7222685
57,Steiger Drive,01085,42.0951908,-72.7227654
35,Steiger Drive,01085,42.0967229,-72.7231826
75,Falley Drive,01085,42.0951527,-72.7234665
85,Falley Drive,01085,42.0950800,-72.7239341
103,Steiger Drive,01085,42.0966124,-72.7257428
115,Steiger Drive,01085,42.0966344,-72.7262522
121,Steiger Drive,01085,42.0966932,-72.7268404
127,Steiger Drive,01085,42.0967929,-72.7273368
282,East Main Street,01085,42.1147944,-72.7271974
200,East Main Street,01085,42.1150855,-72.7294129
39,Southampton Road,01085,42.1423338,-72.7300663
129,Southampton Road,01085,42.1448288,-72.7305676
231,East Main Street,01085,42.1146374,-72.7309352
6,Southampton Road,01085,42.1415698,-72.7339944
287,North Elm Street,01085,42.1370721,-72.7386913
22,William Street,01085,42.1244657,-72.7396056
182,North Elm Street,01085,42.1342269,-72.7416417
1,Parkside Avenue,01085,42.1201772,-72.7427194
93,Main Street,01085,42.1193423,-72.7434480
35,White Street,01085,42.1214762,-72.7432294
35,Bartlett Street,01085-3899,42.1248897,-72.7455067
70,Main Street,01085-3127,42.1207766,-72.7454574
64,Main Street,01085,42.1208581,-72.7459353
33,Montgomery Road,01085,42.1334167,-72.7460677
76,Broad Street,01085,42.1155825,-72.7472073
72,Broad Street,01085,42.1159694,-72.7472437
57,Main Street,01085,42.1191066,-72.7470730
288,Elm Street,01085,42.1268409,-72.7478379
34,Broad Street,01085,42.1191379,-72.7482007
224,Elm Street,01085,42.1252994,-72.7482554
208,Elm Street,01085,42.1247019,-72.7484482
55,Broad Street,01085,42.1175802,-72.7486170
29,Broad Street,01085,42.1195828,-72.7493501
11;13,Arnold Street,01085,42.1230017,-72.7492254
35;47;26,Arnold Street,01085,42.1231996,-72.7499013
41,Franklin Street,01085,42.1250410,-72.7500644
29,School Street,01085,42.1216988,-72.7502303
16,Court Street,01085,42.1194889,-72.7500343
51;47,Franklin Street,01085,42.1255501,-72.7506705
31,Court Street,01085,42.1206394,-72.7507790
40;42,School Street,01085,42.1214047,-72.7506159
55,Franklin Street,01085,42.1253362,-72.7514271
15,Washington Street,01085,42.1215833,-72.7518771
207,Montgomery Road,01085,42.1488804,-72.7568875
100,Court Street,01085,42.1189986,-72.7605322
102,Court Street,01085,42.1190464,-72.7609008
7,Mill Street,01085,42.1186158,-72.7610386
3,Mill Street,01085,42.1187334,-72.7608688
104,Court Street,01085,42.1189852,-72.7611495
9,Mill Street,01085,42.1184233,-72.7612673
14,Mill Street,01085,42.1175535,-72.7614474
13,Mill Street,01085,42.1181232,-72.7616269
127,West Silver Street,01085,42.1185961,-72.7616134
18,Mill Street,01085,42.1170611,-72.7618065
108,Court Street,01085,42.1190544,-72.7618551
15,Mill Street,01085,42.1179674,-72.7620012
17,Mill Street,01085,42.1177208,-72.7620597
26,Mill Street,01085,42.1167421,-72.7620411
28,Mill Street,01085,42.1165527,-72.7621467
110,Court Street,01085,42.1191004,-72.7622095
19,Mill Street,01085,42.1175668,-72.7622276
21,Mill Street,01085,42.1174008,-72.7623459
30,Mill Street,01085,42.1163149,-72.7622827
23,Mill Street,01085,42.1171683,-72.7625512
25,Mill Street,01085,42.1169893,-72.7626025
27,Mill Street,01085,42.1168341,-72.7626877
87,South Maple Street,01085,42.1117799,-72.7628616
53,Mill Street,01085,42.1152249,-72.7664020
34,Western Avenue,01085,42.1194334,-72.7689883
135,Hillside Road,01085,42.1031143,-72.7699687
1000,Russell Road,01085,42.1384814,-72.8039438
91,East Mountain Road,01085,42.1107154,-72.7008285
115,West Silver Street,01085,42.1179750,-72.7592825
175,Falcon Dr,01085,42.1687667,-72.7173013
577,Western Avenue,01086,42.1327585,-72.7943415
1134,Southampton Road,01085,42.1825089,-72.7268546
1134,Southampton Road,01085,42.1825288,-72.7271750
10,Arnold Street,01085,42.1226326,-72.7492807
40,Westfield Industrial Park Road,01085,42.1418962,-72.7294667
19,Lockhouse Road,01085,42.1396800,-72.7364601
133,Franklin Street,01085,42.1275904,-72.7584332
103,Meadow Street,01085,42.1238944,-72.7416408
138,Main Street,01085,42.1192532,-72.7389820
