House number,Street name,Postal code,Latitude,Longitude
6,Taman Sampoerna,60163,-7.2309923,112.7341461
24,Jalan Sulawesi,60246,-7.2769280,112.7471528
156,Jalan Ketintang,60231,-7.3110598,112.7288533
Nomor 94-98,Jalan Genteng Besar,60275,-7.2584433,112.7392139
121,"Komplek Ruko Central Park Surabaya, Jl. Mulyosari",60112,-7.2667319,112.7963850
No.30,Jl. Baskara Sawah,60112,-7.2704261,112.7986184
Nomor 258,Jalan Jemursari,60237,-7.3133208,112.7565340
137B,Jalan Ngagel,60246,-7.2785071,112.7452310
6,Jalan Pregolan,60262,-7.2666247,112.7399292
Nomor 35 C,Jalan Kertajaya Indah Timur,60116,-7.2841826,112.7810374
34B,Jalan Banyu Urip Kidul II,60254,-7.2740897,112.7236246
12,Jalan Ngagel Jaya Selatan,60245,-7.2925401,112.7499628
No.21,Jalan Raya Darmo Permai Selatan,60225,-7.2794494,112.6809558
No.106,Jl. Raya Tenggilis,60292,-7.3205334,112.7568244
no.6A,Jl. Mayjen. Prof. Dr. Mustopo,60281,-7.2653047,112.7639077
"Blok H No. 45 ,RT 01/09",Jl. Dharmahusada Indah C-5,60115,-7.2726037,112.7736090
Royal Plaza Royal Parking P11,Jl. Jend. A. Yani,60231,-7.3086437,112.7342459
3M MakassaRuko Central Business Park No 8 r,Jl Dr Ir Soekarno Merr Semolowaru,60119,-7.3030962,112.7812330
No.6,Jl. Prambanan,60131,-7.2596230,112.7555903
No.8-12,Jl. Basuki Rahmat,60261,-7.2634618,112.7408647
No.8-13,Jl. Basuki Rahmat,60261,-7.2633233,112.7404870
No.114,Jalan Ngagel Madya,60281,-7.2928074,112.7605664
6A,Gubeng Kertajaya VI A,60281,-7.2788304,112.7557410
7B,Gubeng Jaya VII,60281,-7.2720340,112.7526892
1,Jl. Citralan,60219,-7.2845656,112.6498323
No.11,Jl. Jaksa Agung Suprapto,60272,-7.2592403,112.7461506
Nomor 46,"Jalan Gubeng Kertajaya, Gang VIA",60281,-7.2792009,112.7576856
No.69-A,Jl. Arief Rachman Hakim 107-109,60111,-7.2897571,112.7862061
No.9,Jl. Doho,60265,-7.2818601,112.7439225
10,Jalan Kalibokor 8,60283,-7.2860962,112.7504194
Nomor 96,Jl. Kedung Baruk,60298,-7.3109492,112.7815763
No.16,Jalan Slamet,60272,-7.2587350,112.7502426
16,Jalan Semarang,60174,-7.2482235,112.7312195
33-37,Jalan Telaga Utama,60271,-7.2897069,112.6482052
Nomor 31,Jalan Gubeng Pojok,60272,-7.2659117,112.7513729
"No.5, 59 Blok A",Jl. Barata Jaya I,60284,-7.2992127,112.7557674
"No.40A,",Jl. Raya Manyar,60284,-7.2915460,112.7598956
"Nomor 2, Kav. 12-17",Jalan Embong Sawo,60271,-7.2673621,112.7434935
69,Jalan Dokter Sutomo,60264,-7.2838492,112.7359691
No. 85,Jalan Sultan Iskandar Muda,60155,-7.2253746,112.7412192
B 1-6 No.12,Jalan Mayjend. Sungkono,60256,-7.2921153,112.7183554
No.48,Jl. Nginden Semolo,60118,-7.2999315,112.7669391
No. 150,Jalan Arif Rahman Hakim,60111,-7.2914264,112.7925790
75,Jl. Raya Lakarsantri,60211,-7.3033408,112.6339175
No. 80-82,Jalan Kedung Cowek,60134,-7.2797797,112.6963576
45,Jalan Kapas Krampung,60141,-7.2484549,112.7584744
No. 80-82,Jalan Dinoyo,60265,-7.2842121,112.7459232
8-12,Jalan Jenderal Basuki Rachmat,60261,-7.2627279,112.7386280
Nomor 161-165,Jalan Siwalankerto,60236,-7.3370040,112.7388901
Nomor 40,Jalan Sumatera,60281,-7.2694972,112.7494463
78/II,Jalan Embong Malang,60275,-7.2592042,112.7351462
Nomor 47,Jalan Bratang Binangun,60284,-7.2963521,112.7598554
122,Jl. Dharmahusada,60285,-7.2669459,112.7689243
Nomor 32,Jalan Panglima Besar Sudirman,60271,-7.2683871,112.7440311
Nomor 54-58,Jalan Kedung Doro,60251,-7.2644842,112.7305700
No. 12,Jalan Manyar Kerta Adi 3,60116,-7.2826067,112.7837234
64 - 66,Jalan Raya Arjuna,60251,-7.2621767,112.7264252
Nomor 213,Jalan Prapen,60299,-7.3154562,112.7536659
Nomor 17,Jalan Embong Kenongo,60271,-7.2658844,112.7464360
1,Jl. Semarang,64412,-7.2492813,112.7307395
No. 161-165,Jl. Siwalankerto,60236,-7.3368992,112.7390203
No.17A,Jl. Raya Kupang Baru,60225,-7.2783962,112.7047926
No. 132 -134,Jalan Bratang Gede,60245,-7.2985103,112.7552551
Nomor 84,Jalan Embong Malang,60261,-7.2584766,112.7336017
Nomor 7,Nginden Intan Utara,60118,-7.3035736,112.7696533
No.109,Jl. Pandugo,60297,-7.3206545,112.7901903
No. 22,Jl. Kutisari IV,60291,-7.3299582,112.7440395
No.30,Jl. Klampis Jaya Ruko Klampis Square A,60117,-7.2873160,112.7758197
No. 27,"JL. Raya Donowati 6,",60188,-7.2677062,112.6972437
No.26 C,Jl. Kranggan,60174,-7.2557805,112.7324482
No.97,Jl. Gresik Gadukan,60178,-7.2327767,112.7210153
No.1,Jl. Kalisari Utara X,60112,-7.2653542,112.8049710
No.128,Jl. Raya Dharma Husada Indah,60285,-7.2795304,112.7719449
Blok G,Jalan Kendangsari,60292,-7.3206107,112.7495657
Nomor 62,Jalan Raya Arjuna,60251,-7.2618163,112.7266129
No. 45 C-D,Jalan Raya Kupang Indah,67156,-7.2782792,112.7078732
No. 55,Jl. Barata Jaya II,60284,-7.3051004,112.7601564
1,Jalan Manyar Adi,60282,-7.2831985,112.7586540
Nomor 14,Jalan Ambengan,60272,-7.2561074,112.7462906
Nomor 151,Jalan KH Mas Mansyur,60162,-7.2301098,112.7407869
No. 133,Jl. Kalibutuh,60173,-7.2549219,112.7218482
8-18,Jalan Bangka,60281,-7.2726218,112.7493477
No. 62,Jl. Menur Pumpugan,60118,-7.2895368,112.7689557
No.8-12,Jl. Basuki Rahmat,60261,-7.2620638,112.7403650
No.8-13,Jalan Jenderal Basuki Rachmat,60261,-7.2612972,112.7394477
Nomor 5-9,Jalan Dinoyo,60284,-7.2884822,112.7620168
Nomor 5,Jalan Tidar,60251,-7.2581559,112.7322654
No.60,Jl. Gub Kertajaya V Raya,60286,-7.2740506,112.7529972
76,Jalan Jenderal Basuki Rachmat,60262,-7.2677647,112.7410586
No. 150,Jalan Arif Rahman Hakim,60111,-7.2917315,112.7951974
Nomor 57-59,Jalan Barata Jaya XVII,60284,-7.3049266,112.7605600
No. 166,Jalan Ahmad Yani,60235,-7.3301122,112.7303911
N0.19,Jl. Walikota Mustajab,60272,-7.2599043,112.7438561
No.9-11,Jl. Tidar,60251,-7.2578742,112.7310267
No.22,Jl. Tidar,60251,-7.2580177,112.7324236
No. 47,"Jl. Raden Ajeng Kartini,",60261,-7.2795144,112.7376245
No.76,Jl. Kalibokor Selatan,60283,-7.2584682,112.7396239
Nomor 33,Jalan Pucang Kerep,60283,-7.2870587,112.7526103
"G34-G45,",Jl. Adityawarman,60243,-7.2946518,112.7317307
No.40,Jalan Achmad Jais,60274,-7.2554948,112.7402360
No.31,Jalan Slamet,60272,-7.2594556,112.7497978
No.29,Jl. Genteng Durasim,60275,-7.2579908,112.7403535
Nomor 62,Jl. Menur Pumpungan,60118,-7.2896182,112.7691236
No. 51,Jl. Arief Rachman Hakim,60117,-7.2894445,112.7760609
No.140,Jl. Raya Arjuno,60252,-7.2668316,112.7278827
Nomor 1-5,Jalan Sumatera,60281,-7.2667992,112.7514898
78,Jl. Raya Kendangsari,60237,-7.3221665,112.7462036
No.11,Jl. Gubeng Jaya Langgar,60281,-7.2726360,112.7528146
59,Manyar Tirtomoyo 3,60116,-7.2880725,112.7717059
Nomor 139,Jalan Mayjend. Sungkono,60256,-7.2899820,112.7115798
No. 100,Jl. Jagir Wonokromo,60244,-7.3033101,112.7444960
Nomor 2,Kertajaya IV Raya,60282,-7.2804229,112.7521237
14,Jl. Kaca Piring,60272,-7.2599453,112.7513861
5,Jalan Embong Cerme,60271,-7.2699833,112.7443384
Blok 14-C No. 5,JL. Insinyur Haji Soekarno,60118,-7.2836188,112.7804970
Nomor 95,Jalan Siwalankerto,60236,-7.3390369,112.7341974
No.46 - 48,Jl. Panjang Jiwo,60299,-7.3080441,112.7661704
Nomor 27-29,Jalan Flores,60246,-7.2792963,112.7490396
6,Jl. Ngagel Jaya Sel,60283,-7.2932937,112.7535639
No.360,Jalan HR. Mohamad,60226,-7.2827050,112.6875828
173 -183,Jl. Raya Ngagel,60246,-7.2942665,112.7427214
No.1F,Jalan Gubernur Suryo,60271,-7.2623918,112.7409720
411,Jalan Kertajaya Indah Tengah V,60115,-7.2818933,112.7762419
Nomor 24,Jl. Sutorejo Utara Blok B,60113,-7.2653238,112.7950557
No.99,Jl. Raya Kendangsari,60292,-7.3212425,112.7470407
No. 90-92,JL. Demak,60172,-7.2517927,112.7210664
Nomor 15-17,Jl. Darmo Hill,60225,-7.2952508,112.7159031
Nomor 121 B,Jl. Ngagel Jaya Selatan I,60281,-7.2938244,112.7611794
Nomor 24,Jalan HR. Muhammad,60189,-7.2860120,112.7001067
No.76-78,Jl. Pasar Turi Blok A,60174,-7.2491321,112.7318217
No.19,Jalan Bukit Darmo Boulevard,60226,-7.2872833,112.6793129
No.2,Jl. Rungkut Asri Tengah I,60293,-7.3279052,112.7752405
No. 18,Jl. Rungkut Barata,60293,-7.3355710,112.7713519
"Blok H, Rt. 008 Rw. 002",JL. Rungkut Harapan,60293,-7.3253645,112.7800423
114,Jalan Siwalankerto,60236,-7.3395980,112.7347944
14,Jl. Mojoarum 3,60265,-7.2717799,112.7797467
12,Jalan Majapahit,60265,-7.2809932,112.7439145
Gg. VI,Jl. Raya Rungkut Lor,60293,-7.3255127,112.7697427
60,Kupang Panjaan 4,60264,-7.2767960,112.7300107
No.227,JL Diponegoro,60264,-7.2786082,112.7285548
No. 5,Jl. Rungkut Mapan Tengah,60293,-7.3369174,112.7774796
8A,Jalan Slamet,60272,-7.2595930,112.7500259
Nomor 8,Jalan Pakis Tirtosari 3,60256,-7.2888764,112.7216879
81,Jl. Ngagel Tama,60284,-7.2932072,112.7574233
No. 10,Jl. Rungkut Mejoyo Selatan,60293,-7.3233101,112.7655776
No. 8,Jl. Rungkut Mejoyo Selatan,60292,-7.3218683,112.7644704
No.6,Jalan Ngagel Jaya Utara,60283,-7.2892341,112.7531493
No.47,Jl. Walikota Mustajab,60272,-7.2601562,112.7445960
No. 8,Jl. Rungkut Mejoyo Utara,60293,-7.3171114,112.7659860
No.1,Jl. Cipta Menanggal V,60234,-7.3404175,112.7213578
1,Jalan Benteng,60161,-7.2253764,112.7401671
178,Jalan Raya Dharma Husada Indah,60285,-7.2684738,112.7725850
89,Pasar Kembang,60263,-7.2655948,112.6696096
No.134,Jl. Dharmahusada,60285,-7.2669490,112.7693229
No. 50,Jl. Darmokali,60241,-7.2931307,112.7410561
No. 45,Jalan Kapas Krampung,60142,-7.2477882,112.7587431
No.19A,Jalan Tembaan,60174,-7.2473742,112.7378476
1,Jl. Rungkut Asri Blok RL3F,60293,-7.3260550,112.7757295
No. 11,Jl. Ngagel Madya VIII,60284,-7.2928222,112.7578684
No.62,Jl. Menur Pumpungan,60118,-7.2893870,112.7685547
Nomor 101 - 103,Jalan Panglima Besar Sudirman,60271,-7.2730628,112.7425497
29,Jalan Kedungsari,60261,-7.2681513,112.7347993
No.29D,Jl. Raya Menur,60116,-7.2775501,112.7624384
No.8-A,Jalan Kranggan,60174,-7.2550512,112.7340141
No.25,Jl. Raya Kedung Baruk,60298,-7.3102366,112.7743617
No.140,Jl. Dharmahusada,60285,-7.2671450,112.7698673
No. 10,Jl. Kalisari,60112,-7.2614924,112.8041209
Nomor 35-37,Jalan Dharma Husada Indah Timur,60115,-7.2758457,112.7819695
No. 45,Jalan Pandegiling,60264,-7.2772317,112.7403216
No.53D,Jalan Raya Manyar,60118,-7.2948767,112.7625001
Gang III,Jalan Jagir Sidomukti,60244,-7.3058147,112.7493847
No. 6,Jl. Sarono Jiwo II,60299,-7.3119029,112.7588983
No.141,Jl. Raya Mulyosari,60112,-7.2687922,112.7966507
No. 97-99,Jl. Genteng Kali,60275,-7.2562508,112.7385980
31,Jalan Sumatra,60281,-7.2692876,112.7506084
XXVI,Jalan Babatan Pratama XXVI,60227,-7.3182161,112.6811793
IV/72,Jalan Babatan Pantai IV,60115,-7.2565814,112.7901840
No.79,Jl. Untung Suropati,60264,-7.2848049,112.7361940
18,Baruk Utara VI,60298,-7.3138947,112.7782766
No. 2C,Jl. Keputih,60111,-7.2881922,112.7980034
No. 36,Jl. Walikota Mustajab,60272,-7.2599859,112.7442619
88,"Perum Bukit Mas, Jalan Abdul Wahab Siamin",60224,-7.2936484,112.7066604
Nomor 35,Jalan Bhakti Husada III,60285,-7.2667470,112.7657248
2,Jalan Pregolan,60262,-7.2661781,112.7399656
No.22,Jl. Ngagel Jaya Tengah,60283,-7.2915096,112.7539453
27,Jalan Kombes M. Duryat,60226,-7.2688243,112.7386511
12,Jalan Blambangan,60265,-7.2827080,112.7430907
20,Jalan Benteng,60155,-7.2242512,112.7391726
21,Jalan Blambangan,60265,-7.2832757,112.7429794
No. 14,Jalan Raya Gunung Anyar Sawah,60293,-7.3427001,112.7947455
1,"Gayungan, Jl. Ketintang Bar. IV",60231,-7.3088180,112.7213126
No. 22,Jl. Kapasan,60141,-7.2403972,112.7520042
2,Jalan Sukomanunggal Jaya Blok YL,60184,-7.2696212,112.6967882
No. 18 Sukolilo,Jalan Arif Rahman Hakim,60117,-7.2899080,112.7755455
41,Jalan Kusuma Bangsa,60136,-7.2536903,112.7497073
No.2B,Jl. Gebang Wetan,60117,-7.2820499,112.7892322
89,"Gubeng, Jl. Raya Ngagel Jaya",60246,-7.2928621,112.7555560
No. 1,"Holland Bakery Lt. II, Jl. Polisi Istimewa",60261,-7.2800787,112.7438658
No. 45,Jalan Anjasmoro,60251,-7.2583867,112.7288824
Blok G36,Jalan Semolowaru,60119,-7.3027200,112.7743467
Blok L,Jl. Wonorejo Timur,60119,-7.3059412,112.7736809
206 - 208,Jalan Raya Jemursari,60292,-7.3171053,112.7524501
5,Jalan Embong Wungu,60271,-7.2665345,112.7441053
No. 1,Jalan Semolowaru,60119,-7.3010593,112.7800076
Nomor 7,Jalan Dharma Husada Indah Utara,60115,-7.2667031,112.7816993
Nomor XVI,Jalan Dharmahusada Indah Timur XVI,60115,-7.2762594,112.7790620
43,Jl. Bratang Jaya,60284,-7.2987122,112.7586133
152,Jalan Raya Diponegoro,60264,-7.2807432,112.7319113
67 - 69,Jalan Walikota Mustajab,60272,-7.2611565,112.7488027
No. 87,Jalan Raya Dharma Husada Indah,60115,-7.2759600,112.7730610
No. 43,Jl. Suko Semolo,60119,-7.3003187,112.7735579
XIV/35,Jalan Semolowaru Elok,60119,-7.3054921,112.7769399
5,Jalan Dharmahusada Utara 5,60285,-7.2667801,112.7715475
1A,Jl. Manyar Jaya V,60116,-7.2975725,112.7678291
No.26,Jl. Semolowaru Utara V,60119,-7.2996445,112.7781438
No.50 AB,Jl. Kedungdoro,60252,-7.2631264,112.7307596
No. 312,Jalan Raya Kertajaya Indah Blok F,60115,-7.2801553,112.7745969
No. 9,JL. Kencana Sari Barat 1A,60225,-7.2934757,112.7174334
No. 89,Jalan Mayjen Sungkono,60256,-7.2925541,112.7191267
Blok AF,Jalan Rungkut Mejoyo Utara,60293,-7.3189915,112.7655690
Nomor 3,Jalan Doho 3,60265,-7.2815261,112.7439701
"Blok BB, No. 12",JL. Dharmahusada Mas,60115,-7.2694822,112.7796836
809,"Ruko Plaza Segi 8, JL. Raya Darmo Permai 3, Kav. A-",60241,-7.2758248,112.6960306
No.74 A,Jl. Kusuma Bangsa,60272,-7.2568160,112.7507845
No. 29,Jl. Dinoyo,60265,-7.2797792,112.7441510
No.20,Jalan Nginden Semolo,60118,-7.2996828,112.7641730
No. 70,Jalan Panglima Besar Sudirman,60271,-7.2723187,112.7425079
No.8 - 12,Jalan Jenderal Basuki Rachmat,60261,-7.2635098,112.7399714
20,Jalan Dukuh Kupang,60225,-7.2815123,112.7141006
No.11,Jl. Basuki Rachmad,60271,-7.2638210,112.7412832
29 - 31,Jalan Walikota Mustajab,60272,-7.2600908,112.7448388
5,Jalan Tidar,60251,-7.2583457,112.7322750
No.81,Jalan Sumatera,60281,-7.2716961,112.7472279
No. 24,Jalan Kertajaya Indah Tengah,60115,-7.2821635,112.7762654
156,Jl. Ketintang,60231,-7.3118593,112.7274866
62,Jalan Manyar Kertoarjo V,60116,-7.2790385,112.7652569
Nomor 1,Jalan Gunung Anyar Jaya 1,60294,-7.3379577,112.7977042
No. 101,"JL. Nginden Semolo,",60118,-7.2998743,112.7715044
No. 7,Jl. Nginden Intan Utara,60118,-7.3038241,112.7692142
153,Jalan Mayjend Sungkono,60188,-7.2887219,112.7065387
50,Jl. Ciliwung,60241,-7.2934043,112.7352860
Nomor 5,Jalan Jemur Andayani,60237,-7.3305373,112.7324621
12 - 14,Jl. Ngagel Jaya,60283,-7.2878193,112.7556821
No.40,Jl. Sumatra,60281,-7.2696093,112.7492770
59/III,JL. Manyar Tirtomoyo,60116,-7.2870949,112.7691756
Galaxy Mall No 35-37,Jl. Dharmahusada Indah Timur X,60115,-7.2741001,112.7821352
No.20,Jalan Raya Rungkut Menanggal,60293,-7.3407534,112.7678605
26A,Jl. Kayon,60281,-7.2680962,112.7484068
No.3 A,Jalan Ambengan,60272,-7.2557241,112.7449926
77-79,Jalan Biliton,60281,-7.2763732,112.7495399
40,Jl. M H. Tamrin,60264,-7.2818895,112.7369126
123,Jl. Raya Kertajaya Indah Blok O,60282,-7.2801062,112.7817642
No. 23,Jl. Dharmahusada 1,60285,-7.2643598,112.7610005
No. 1,Jl. Darmo Harapan,60187,-7.2716745,112.6895413
No.10 B,Jl. Klampis Jaya,60117,-7.2879591,112.7757647
No.9,Jl. Kalimantan,60281,-7.2713032,112.7510387
No.220,Jl. Dr. Ir. H. Soekarno,60119,-7.2956530,112.7812929
20,JL. Dupak Rukun I,60179,-7.2460432,112.7204307
54 - 56,Jl. Manyar Kertoarjo,60116,-7.2784716,112.7654968
6,Jalan Darmahusada Utara,60285,-7.2667674,112.7717122
VI,Jalan Karang Rejo VI,60243,-7.3051773,112.7284811
No.7 B,Jl. Marmoyo,60241,-7.2966198,112.7399017
38,Jl. Raya Darmo Permai I,60226,-7.2828406,112.6948080
No. 140,"Komplek HR. Muhammad Square, Blok B No. 10-17, Jl. HR.Muhammad",60226,-7.2812580,112.6855450
D - 10,"Ruko Satelit Town Square, Jl. Raya Sukomanunggal Jaya,",60188,-7.2725585,112.6974711
No.86,Jalan Mayjen Sungkono,60256,-7.2920505,112.7247081
Kav 3,Jalan Mayjend Yono Soewoyo,61174,-7.2889866,112.6776190
38 - 40,Jl. Kembang Jepun,60161,-7.3124384,112.7670161
No. 2A-B,Jalan Kayon,60271,-7.2664547,112.7495179
No.29,Jalan Tenggilis Mejoyo Blok AI,60293,-7.3204001,112.7652008
20,JL. Karang Wismo 2,60281,-7.2747595,112.7590840
No. 30,Jalan Makam Peneleh,60274,-7.2524231,112.7419006
14,Jalan Dr. Ir. H. Soekarno,60117,-7.3173549,112.7804057
20,Jl. Sumatra,60281,-7.2674784,112.7507514
No.85,Jalan Karang Empat Besar,60133,-7.2513997,112.7721936
7,Jalan Pasar Besar,60174,-7.2477332,112.7415854
No.115,Jl. Banyu Urip,60254,-7.2706329,112.7213956
No.1,Jalan Kupang Jaya Kav. 3A,60189,-7.2757502,112.7055749
No 4-8,Jalan Kaca Piring,60272,-7.2598646,112.7505452
No.14,Jl. Prapen Indah Timur VI Blok AE,60299,-7.3142323,112.7630604
No.31,Jl. Raya Kupang Indah,60225,-7.2804351,112.7075469
No.30,Jl. Kusuma Bangsa,60272,-7.2602926,112.7514075
25,Jalan Sukarno Hatta,60116,-7.2812987,112.7810431
No.41,Jl. Gubeg Kertajaya IV,60282,-7.2797688,112.7521462
3,Jl. Gubeng Pojok,60281,-7.2638715,112.7517906
No. 88,Jalan Ahmad Yani,60231,-7.3202700,112.7325051
No.2,Jl. Dharmahusada V,60285,-7.2638109,112.7614942
No.25,Jl. Dharmahusada I,60285,-7.2641063,112.7608264
No.35-39,Jl. Dr. Ir. H. Soekarno,60115,-7.2744901,112.7820139
5,Jalan Indragiri,60264,-7.2865283,112.7317244
No. 87,JL. Mayor Jenderal Sungkono,60225,-7.2926634,112.7188218
Nomor IX,Jalan Kencana Sari Timur IX,60224,-7.2987817,112.7196334
No.2,Jl. Juwono,60241,-7.2930550,112.7394879
2,Gang IV No,60283,-7.2897355,112.7528795
No.6,Jl. Ngagel Mulyo I,60245,-7.2970532,112.7487629
30,Jl. Pahlawan,60174,-7.2501685,112.7373703
1,Jalan Semarang,60172,-7.2481011,112.7309643
No.34,Jl. Raya Dinoyo,60284,-7.2801783,112.7440765
5,Jl. Kedung Pengkol VI,60285,-7.2665439,112.7638429
39,Jl. Semampir Tengah,60117,-7.3073144,112.7815368
17,Jl. Embong Cerme,60271,-7.2703926,112.7441887
No. 8,Jl. Siwalankerto,60235,-7.3405591,112.7346059
No.35,Jl. Sumatra,60281,-7.2689604,112.7502448
No. 19-21,Jl. Raya Gubeng,60281,-7.2709267,112.7496504
No.29,Jl. Ketupa,60136,-7.2533533,112.7488414
No.2,Jl. Gubeng Masjid,60131,-7.2654319,112.7527206
No.105,Jalan Jenderal Basuki Rachmat,60271,-7.2693269,112.7417281
1J,Jalan Gubernur Suryo,60271,-7.2625904,112.7412505
269,"Rich Palace Hotel Lantai 3, Jl. H.R. Muhammad",60241,-7.2838694,112.6902128
No.76,Jl. Raya Jemur Sari,60237,-7.3235074,112.7427067
No. 22,Jl. Abdul Wahab Siamin,60225,-7.2975145,112.7072875
No.712,Jl. Darmo Permai Selatan V,60225,-7.2793145,112.6832222
No. 1,Jl. Raya Wonorejo,60293,-7.3075505,112.8233680
Ruko Shop House Blok C no 12-12A,Jalan Pemuda 33-37,60271,-7.2638410,112.7494772
Blok C1 No.37,Jl. Dharma Husada Indah I,60115,-7.2720902,112.7737765
No.49,Jl. Rungkut Asri Utara X,60293,-7.3247123,112.7748819
Nomor V,Jalan Manyar Tirtoyoso Utara V,60118,-7.2840891,112.7728433
23 - 25,JL. Manyar Kertoarjo,60116,-7.2789280,112.7653993
101-103,JL Panglima Sudirman,60271,-7.2730468,112.7425763
1,Jl. Tj. Mutiara,60177,-7.2185436,112.7203847
No. 15 Blok D - 232,Jl. Dharmahusada Indah Selatan VII,60115,-7.2760339,112.7764147
18,Jl. Rungkut Industri Raya,60293,-7.3310380,112.7616636
1,Jl. Gundih,60174,-7.2469175,112.7313538
20,Jl. Dinoyo,60265,-7.2791028,112.7435926
11,Jl. Ketintang Baru,60231,-7.3189115,112.7273706
4E,Jl. Margomulyo,60238,-7.2571668,112.6871325
167A,Jl. Gayung Kebonsari,60231,-7.3274413,112.7276029
No. 22,"JL. Kupang Indah 16,",60225,-7.2833731,112.7024041
18,"Pertokoan Darmo Park 2, Jalan Mayor Jendral Sungkono Blok 6",60256,-7.2920774,112.7170440
31 - 33,Jl. Ambengan,60272,-7.2557593,112.7478352
No.80,Jl. Raya Kendangsari,60237,-7.3219722,112.7463631
103 - 105,Jalan Kranggan,60251,-7.2562738,112.7299143
No.94 A,Jalan Barata Jaya 18,60284,-7.3046922,112.7589088
No.65,Jl. Ngagel Jaya Utara,60283,-7.2889157,112.7565156
No.152,Jalan Diponegoro,60264,-7.2810791,112.7320559
No.134,Jalan Raya Doktor Soetomo,60264,-7.2849646,112.7315602
No.8 - 12,Jl. Basuki Rahmat,60261,-7.2627607,112.7394867
8-18,Jalan Bangka,60281,-7.2727709,112.7495245
117,Jl. Siwalankerto,60236,-7.3396913,112.7355897
5,Jl. Kertajaya No IV D.,60281,-7.2802566,112.7526782
No.39,Jl. Bengawan,60241,-7.2899057,112.7378137
No. 46-48,Jalan Embong Tanjung,60271,-7.2680420,112.7479010
No. 5,Jl. Ir. Anwari,60264,-7.2787268,112.7316707
No.84,Jl. Tidar,60251,-7.2571183,112.7288544
No.91,Jl. Raya Ngagel Jaya,60283,-7.2929367,112.7555394
No.87 -89,Jl. Kedung Sroko,60132,-7.2633271,112.7601420
No.29,Jalan Dinoyo,60265,-7.2851144,112.7438578
9,Jalan Siwalan Kerto VIII/D,60117,-7.3423056,112.7367056
No.68,Jl. Genteng Besar,60275,-7.2586371,112.7397799
No.72,Jalan Genteng Besar,60275,-7.2581877,112.7397144
No.63,Jl. Untung Suropati,60264,-7.2840504,112.7360311
No.6,Jl. Hayam Wuruk,60242,-7.2947956,112.7310143
173 - 175,Jalan Raya Ngagel,60246,-7.2949875,112.7430399
158 BLOK PB 26,Jalan Raya Mulyosari,60112,-7.2650748,112.7957212
135,Jl. Kalikepiting,60115,-7.2643180,112.7788481
15,Jalan Yos Sudarso,60271,-7.2635031,112.7460796
101 - 103,Jalan Mayjend. Sungkono,60256,-7.2914353,112.7155623
25 C,Jl. Klampis Jaya,60117,-7.2858843,112.7759749
71,Jalan Jemur Sari,60237,-7.3226030,112.7423292
30,Jalan Bung Tomo,60245,-7.2923125,112.7495072
6,Jalan Bung Tomo,60246,-7.2907982,112.7465567
93,Jalan Menur,60285,-7.2824084,112.7622228
51 - 53,Jalan Sumatera,60281,-7.2701738,112.7490424
89,Jalan Sumatera,60281,-7.2721946,112.7464896
5,Jalan Bawean,60246,-7.2773927,112.7466380
34,Jalan Dukuh Kupang,61256,-7.2872673,112.7173300
22 - 24,Jl. Raya Bukit Darmo,60189,-7.2886024,112.6989800
781,Jalan Dukuh Kupang,61256,-7.2869613,112.7156549
Blok RA No 10,Jl. Pulo Sari Surabaya,60188,-7.2891785,112.7066598
77,Jl. Raya Putat Gede,60189,-7.2887900,112.6983537
2,Jalan Pregolan,60262,-7.2660414,112.7398197
17,Jalan Pregolan,60262,-7.2675532,112.7402130
37,Pandugo Baru X,60297,-7.3164212,112.7880009
62,Jl. Manyar Kertoarjo,60285,-7.2804564,112.7675545
1-9,Jalan Airlangga,60286,-7.2699721,112.7567898
46,Jl. WR. Supratman,60264,-7.2800655,112.7369785
27 F,Jalan Klampis Jaya,60117,-7.2848585,112.7758337
No. 1,Jalan Manyar Sabrangan VIII,60116,-7.2825332,112.7649482
29 A,Jalan Klampis Jaya,60117,-7.2845233,112.7758518
1AM,Raya Kupang Jaya Kav. 10/1AM Surabaya,60189,-7.2757952,112.7051431
9,Jalan Semut Baru,60161,-7.2430228,112.7421627
1,Jalan Stasiun Wonokromo,60244,-7.3020554,112.7392222
212,Jalan Mayjend Sungkono,60189,-7.2870510,112.7066716
181,Jalan Ketintang,60231,-7.3096304,112.7318586
14,Jalan Binangun I,60213,-7.3005355,112.6528230
101,Jalan Tegalsari,60262,-7.2678932,112.7354373
97,Jalan Tegalsari,60262,-7.2675697,112.7358913
91,Jalan Tegalsari,60262,-7.2672604,112.7358606
2,Jalan Tegalsari,60261,-7.2656102,112.7396242
11,Jalan Pregolan,60262,-7.2672492,112.7404250
1A Lt. 3,Jalan Pandan,60272,-7.2588247,112.7505409
#22,Jalan Dr. Cipto,60264,-7.2815189,112.7388366
5,Jalan Mawar,60262,-7.2683526,112.7374423
73A,Jalan HR. Muhammad,60225,-7.2835957,112.6887136
no 38,Jalan Dharmahusada Indah II,60115,-7.2747419,112.7758684
2c,Jalan Kendal Sari,60297,-7.3132910,112.7837909
54-56,Jalan Raya Darmo,60264,-7.2839752,112.7395444
49,Jalan Indragiri,60241,-7.2918724,112.7305173
51,Jl. Arif Rahman Hakim,60117,-7.2873131,112.7765980
000,tenggilis mejoyo,60292,-7.3192317,112.7629495
KK no.3-4,tenggilis mejoyo KK no.3-4,60293,-7.3160992,112.7666740
27 A,Jalan Klampis Jaya,60116,-7.2850269,112.7761188
1A,Jalan Memet Sastrowiryo,60121,-7.2380385,112.7905082
23,Jl. Hangtuah 3,60155,-7.2221849,112.7436015
"Jl. Mastrip No. 35 Kedurus, Surabaya",Jalan Raya Mastrip Kedurus,60223,-7.3164404,112.7099192
No.9,"Jl. Jangkungan I No.9, Ngenden Jangkungan, Sukolilo, Kota SBY, Jawa Timur",60118,-7.3051020,112.7628685
691,Jalan Wonorejo III,60263,-7.2699394,112.7312620
1-3,Jalan Tunjungan,60275,-7.2561789,112.7375946
No.18,Jl. Gubeng Kertajaya IX F No.18,60286,-7.2753606,112.7583341
Jl. Raya Kauman Baru No. 7,Jalan Raya Kauman Baru,60195,-7.2322653,112.6124039
No.33,Jalan Menur Pumpungan,60118,-7.2892326,112.7631340
15,"Jalan Platuk Gg. Langgar RT. 001/RW. 002, Sidotopo Wetan, Kenjeran",60128,-7.2346461,112.7612815
Jl. Sukomanunggal Jaya VIII/1,Jalan Sukomanunggal Jaya VIII,60281,-7.2689135,112.6991972
Jl. Simpang Darmo Permai Utara no 1,Jalan Simpang Darmo Permai Utara,60226,-7.2765179,112.6840269
6,Jalan Kapasan Lor,60145,-7.2383544,112.7465240
39,Jalan Ambengan,60179,-7.2556109,112.7483715
JL.MANYAR KERTOADI 1/701,JALAN MANYAR KERTOADI,60117,-7.2854645,112.7815928
JL.MENDUT 7-8,JALAN MENDUT,60131,-7.2574505,112.7553803
JL.RUMGKUT INDISTRI RAYA NO.8-A,JALAN RUMGKUT INDUSTRI,60291,-7.3304306,112.7562671
66,"Jl. Gebang Kidul No.66, Gebang Putih, Sukolilo, Kota SBY, Jawa Timur 60117",60117,-7.2829949,112.7882366
149,"Jalan Platuk, Sidotopo Wetan, Kenjeran",60128,-7.2315241,112.7649370
31,Jalan Tambak Wedi Masjid Gang I,60126,-7.2113849,112.7766045
37 F,Jalan Klampis Jaya,60116,-7.2834548,112.7760017
169,Jalan Ploso Baru,60132,-7.2581381,112.7729387
42,Jalan Nginden Semolo,60118,-7.2998847,112.7662764
32,Jalan Tenggilis Mejoyo,60293,-7.3201690,112.7648005
50,Jalan Tanah Merah Indah,60129,-7.2285791,112.7702136
71 a,Jalan Klampis Ngasem,60117,-7.2859372,112.7745653
16,Jalan Menur Pumpungan,60117,-7.2898399,112.7730675
107-109,Jalan Arief Rahman Hakim,601117,-7.2891042,112.7830748
100,Jalan Pantai Ria Kenjeran,60122,-7.2472616,112.8024464
1,Jalan Ngagel Madya,60264,-7.2889791,112.7602304
71,Jalan Tambak Wedi Baru,60126,-7.2181029,112.7741316
No. 50 A,Jalan Naga Banda VII,60128,-7.2098461,112.7636967
No. 18,Jalan Tambak Wedi Baru Gang V,60126,-7.2163556,112.7746458
No. 9,Jalan Kedinding Lor Gang Manggis,60129,-7.2234220,112.7828274
No. 34,Jalan Kalilom Lor III,60129,-7.2286981,112.7726660
No. 245,Jalan Kedung Cowek,60129,-7.2295044,112.7745973
No. 16,Jalan Kalilom Lor Indah,60129,-7.2289715,112.7760309
52,Jalan Barata Jaya II,60284,-7.3014888,112.7556083
23,Jalan Bratang Gede IV A,60245,-7.2994065,112.7532110
24A,Jl. Barata Jaya 12,60284,-7.2985924,112.7582644
69,Jl. Ngagel Jaya Selatan,60245,-7.2924863,112.7498226
27,Jl. Pucang Kerep,60283,-7.2863810,112.7526857
14,Gubeng Kertajaya XI,60286,-7.2782383,112.7592058
54,Jl. Gubeng Kertajaya VII Raya,60286,-7.2751337,112.7551882
15,Jalan Barata Jaya XVII,60284,-7.3044718,112.7570845
11,Jalan Kalibokor Selatan,60283,-7.2870557,112.7518613
No. 77 - 79,Jalan Pogot Baru,60129,-7.2324978,112.7651450
No. 5,Jalan Randu,60128,-7.2307497,112.7644360
7,Jalan Menanggal IV Gang Moris,60234,-7.3396905,112.7242248
No. 46,Jalan Stasiun Kota,60161,-7.2422439,112.7408632
35 a,Jalan Kalibokor II,60283,-7.2852830,112.7496781
4,Jl. Kalijudan XI,60114,-7.2560496,112.7797869
5-6,Jalan Galaxi Klampis Asri Barat,60119,-7.2962879,112.7839337
"No.19, RT.003/RW.02",Jalan Bhaskara III,60112,-7.2679160,112.8003664
50-54,Jalan Dapuan Baru IV,60163,-7.2284506,112.7348305
".2,",Jl. Manyar Tirtoasri VII,60118,-7.2853118,112.7699773
3,Jl. Kertajaya Indah II,60116,-7.2781217,112.7735354
30,Jalan Manyar Sabrangan IX,60116,-7.2829651,112.7666278
21,Jl. Gubeng Kertajaya XIII D,60286,-7.2776853,112.7610443
No 80-81,Jalan Tegal Mulyorejo Baru,60115,-7.2753669,112.7929673
114,Jl. Karang Menjangan,60286,-7.2742677,112.7622843
35 a,Jalan Kalibokor II,60283,-7.2852108,112.7496700
No.153-155,Jl. Dharmahusada Indah Barat III,60285,-7.2728339,112.7719949
"No.87, RT.001/RW.04",Jl. Kertajaya,60286,-7.2781841,112.7538000
2,Jalan Gubeng Kertajaya V Raya,60286,-7.2770261,112.7525564
5,Jl. Mulyorejo Tengah,60115,-7.2652604,112.7793303
No.63,JL. Gubeng Kertajaya V A,60286,-7.2770315,112.7542175
100,Jl. Wisma Permai I,60115,-7.2737256,112.7967355
97A,Jalan Wonorejo IV,60263,-7.2716204,112.7308362
54,Jalan Dukuh Kupang XXV,60241,-7.2836878,112.7136671
104,Jalan Randu,60128,-7.2261801,112.7634698
20,Jalan Tanah Merah II,60129,-7.2310967,112.7679709
No. 19,Jalan Semut IV,60161,-7.2462107,112.7441945
81-101,Jalan Kranggan,60251,-7.2565354,112.7301940
85-89,Jalan Embong Malang,60261,-7.2598355,112.7348007
M21-22,Raya Tenggilis,60292,-7.3205750,112.7502992
G7,Jalan Raya Tenggilis Mejoyo,60292,-7.3207907,112.7634187
115F,Jalan Raya Margorejo Indah,60238,-7.3173151,112.7510903
38,Jalan Nginden Semolo,60118,-7.2998090,112.7656827
14,Jalan Ratna,60246,-7.2923430,112.7453772
33-37,Jalan Pemuda,60271,-7.2645424,112.7486453
32-36,Jalan Embong Malang,60261,-7.2614249,112.7385120
605,Jalan Binangun I,60213,-7.3004240,112.6526241
14,Jalan Ratna,60246,-7.2923853,112.7456260
2,Jalan Raya Lontar,60227,-7.2901733,112.6751519
250,Jalan KH Mas Mansyur,60151,-7.2262097,112.7410538
19,Jalan Imam Bonjol,60264,-7.2774065,112.7355799
39,Jalan Jemursari VIII,60237,-7.3210938,112.7399504
67,Jalan Raya Jemursari,60237,-7.3227778,112.7419487
154,Jalan Buntaran,60185,-7.2505989,112.6741034
25-31,JL. Embong Malang,60261,-7.2615594,112.7389269
2,Jalan Puncak Indah Lontar Barat,60216,-7.2888552,112.6763632
45,Jalan Nginden Semolo,60118,-7.2995970,112.7680066
1-3,Jalan Manukan Krajan,60186,-7.2593472,112.6681083
2G/21A,Jalan Simo Mulyo Baru,60281,-7.2741693,112.7041509
99,Jalan Ngagel,60246,-7.2884764,112.7448510
21k12,Jalan Tanjung Batu,6177,-7.2210348,112.7265469
79,Jalan Untung Suropati,60286,-7.2847802,112.7362545
356,Jl. Jagir Wonokromo,60244,-7.3062628,112.7582957
92,Jalan Petemon Barat,60252,-7.2678834,112.7207219
354-356,Jalan Pandegiling,60264,-7.2741185,112.7276063
49,Jalan Jenderal Achmad Yani Frontage Timur,60236,-7.3366027,112.7302852
7,Jalan Citra Lakasantri 4,60213,-7.2899879,112.6527638
23,Jalan Tegal Sari,60262,-7.2660119,112.7388983
9,"Jl. Mesjid Agung Tim. No.9, Gayungan, Kec. Gayungan",60234,-7.3353093,112.7167568
75,Jalan Siwalankerto Timur I,60236,-7.3390097,112.7405747
1,WISMA KEDUNG ASEM INDAH,60298,-7.3214024,112.7802100
No. 14,Jalan Ketintang Baru I,80231,-7.3183348,112.7315302
PEE-11,Jalan Raya Mulyosari,60112,-7.2605642,112.7952831
4-6,Jalan Airlangga,60286,-7.2709774,112.7599111
Unit 1702,"Jl. Mayjen Sungkono No.87-89, Gn. Sari, Kec. Dukuhpakis",60224,-7.2929673,112.7204351
102,Jalan Bendul Merisi Selatan III,60239,-7.3107360,112.7447839
Blok C-03,Jalan Kalianak Barat No. 73,60183,-7.2303333,112.6904038
Blok B-07,Jalan Kalianak Barat No. 73,60183,-7.2303599,112.6898545
RB-17,Citraland North Junction,60219,-7.2791589,112.6460861
89,Jalan Mayor Jenderal Sungkono,60224,-7.2924575,112.7204354
62C,Jalan Darmo Kali,60241,-7.2946228,112.7406600
"Garden Food 2 nomor 5,6,7",Gwalk,60213,-7.2908272,112.6544797
1,"Jl. Golf 1 Surabaya, Gunungsari, Dukuh Pakis, Kota Surabaya",60224,-7.3022680,112.7152881
MGF 1,Jalan Gayungsari Timur II,60234,-7.3383121,112.7202670
19,Jalan Raya Pandugo Timur,60296,-7.3202312,112.7921006
21,Jalan Jemursari I,60237,-7.3211744,112.7405071
67,Jalan Raya Jemursari,60237,-7.3227163,112.7420108
69,Jalan Raya Jemursari,60237,-7.3226777,112.7421007
69,Jalan Raya Jemursari,60237,-7.3226085,112.7421906
8,Jalan Keputih Tegal Bhakti I,60111,-7.2959486,112.8019308
66,Jalan Kyai Abdul Karim,60293,-7.3392771,112.7729858
41,Jalan Rungkut Madya,60293,-7.3311253,112.7742915
30,Jalan Pandugo Sari VIII,60297,-7.3218189,112.7898002
86,Jalan Siwalankerto,60236,-7.3390818,112.7333782
112,Jl. Pahlawan,60175,-7.2448616,112.7387042
35-37,Jalan Raya Nginden,60118,-7.3016779,112.7622739
40A,Jalan Simo Mulyo Baru I B,60281,-7.2745806,112.7055978
A-27,Ruko Klampis Megah,60117,-7.2846567,112.7769014
LT 1,"DTC Wonokromo, Jl Jagir Wonokromo",60244,-7.3017003,112.7378574
18,Jalan Manukan Lor IV K,60185,-7.2593042,112.6628292
No. 57-75,Jl. Blauran,60272,-7.2576795,112.7343187
85-89,Jalan Embong Malang,60261,-7.2598974,112.7347717
Nomor 20-30,Jalan Gembong,60141,-7.2412036,112.7468830
Gedung Departemen Teknik Instrumentasi,Jalan Raya ITS,60111,-7.2782928,112.7922461
80,Jalan Raya Manyar,60284,-7.2956159,112.7617608
80 -81,Jalan Tegal Mulyorejo Baru,60112,-7.2754040,112.7929678
No. 32,Jalan Arif Rahman Hakim,60111,-7.2907943,112.7962483
138,"Jl. Ahmad Yani No.138, Gayungan, Kota SBY, Jawa Timur 60235",60235,-7.3277722,112.7311756
31-37,Jalan Plaza Boulevard,60271,-7.2635887,112.7485260
102-104,Jalan Tunjungan,60011,-7.2621646,112.7399748
25-27,Jl. Jimerto,60272,-7.2576937,112.7474810
56 - 58,Jalan Pemuda,60271,-7.2652163,112.7465074
14,"Tegalsari,, Jl. Jenderal Basuki Rachmat,",60271,-7.2642027,112.7406658
35,Jalan Kecilung,60272,-7.2572840,112.7461899
42 - 44,Jl. Simpang Dukuh,60261,-7.2609558,112.7416180
4-6,Jalan Airlangga,60286,-7.2717537,112.7581310
123-127,Jalan Jenderal Basuki Rachmat,60271,-7.2713452,112.7420350
40,Jalan Jenderal Basuki Rachmat,68485,-7.2656755,112.7406459
122,Jalan Jenderal Basuki Rachmat,60271,-7.2727742,112.7413332
77-85,Jalan Tegalsari,60261,-7.2672401,112.7370821
18,Jalan Kombes M. Duryat,60226,-7.2679286,112.7383203
10-12,Jalan Kombes M. Duryat,60262,-7.2681102,112.7391107
27 - 31,Jl. Pemuda,60271,-7.2661459,112.7494796
"Gedung B, C & AJ",Jalan Arif Rahman Hakim,60111,-7.2849264,112.7960776
2,Jalan Citra Raya Niaga,60217,-7.2837714,112.6480313
3,Jalan Praban,60275,-7.2561841,112.7361519
3,Jalan Taman Cokroaminoto,60264,-7.2778139,112.7395397
9,Jalan Semut Baru,60161,-7.2430513,112.7419893
90,Jalan Raya Darmo,60241,-7.2874130,112.7382653
66,"Jl. Gebang Kidul No.66, Gebang Putih, Sukolilo, Kota SBY, Jawa Timur 60117",60117,-7.2830818,112.7882375
68,Jl. Raya Darmo,60263,-7.2850829,112.7394477
No.2,Jl. Citra Raya Niaga,60216,-7.2833765,112.6488781
35,Jalan Taman Gunung Anyar B,60294,-7.3350384,112.8080559
57 -59,JL. Raya Rungkut Madya,60293,-7.3311131,112.7757347
3,Jalan Rungkut Industri I,60292,-7.3279110,112.7512940
36,Dharmawangsa 8,60286,-7.2707111,112.7548666
112,Raya Margorejo Indah A112,60238,-7.3179807,112.7405744
1,Jalan Raya Dupak,60172,-7.2464703,112.7326191
40,Jalan Kedinding Tengah Sekolahan,60129,-7.2267743,112.7783567
1-3,Jalan Progo,60241,-7.2919252,112.7409051
No.100,Jl. Manyar Kertoarjo,60116,-7.2808003,112.7703242
6,Gubeng Kertajaya X,60282,-7.2794828,112.7588041
No.169 - 171,Jalan Arief Rachman Hakim,60117,-7.2896938,112.7878118
12,Jalan Tunjungan,60275,-7.2569242,112.7366110
119A,Jalan Dharmawangsa,60286,-7.2791853,112.7560402
25A,Jalan Pasar Turi,60174,-7.2451824,112.7367250
8,Jalan Walikota Mustajab,60272,-7.2602816,112.7446200
5,Jalan Walikota Mustajab,60272,-7.2598673,112.7445931
46,Jalan Ciliwung,60241,-7.2944459,112.7339512
19A,Jalan Kalianyar,60273,-7.2489757,112.7492673
1-3,Jalan Gubernur Suryo,60271,-7.2623991,112.7416678
98-104,Jalan Jenderal Basuki Rachmat,60271,-7.2703240,112.7410922
25-31,Jalan Embong Malang,60261,-7.2627893,112.7382417
9-11,Jalan Rajawali,60175,-7.2366247,112.7367019
4,Jalan Veteran,60161,-7.2395810,112.7377946
42-44,Jalan Panglima Besar Sudirman,60271,-7.2694368,112.7431969
Nomor 122 - 124,Dukuh kupang timur,60256,-7.2863909,112.7139330
No. 120,Jl. Mayjend Sungkono,60256,-7.2898178,112.7163218
No.8-9,"Jalan Mayjen Sungkono, Ruko Darmo Park 1 Blok 2B",60256,-7.2902900,112.7174421
130,Jl. Mayjen Sungkono,60256,-7.2911305,112.7184888
73,Jalan Jenderal Basuki Rachmat,60271,-7.2676129,112.7417452
36,Jalan Embong Sawo,60271,-7.2664564,112.7417270
39,Jalan Pemuda,60272,-7.2654793,112.7503070
50-52,Jl. Kayon,60271,-7.2701245,112.7460786
No.181,Jalan Raya Dharma Husada,60271,-7.2638934,112.7434074
19-21,Jalan Embong Trengguli,60271,-7.2653279,112.7438782
B/3,Jalan Ratna XIV,60246,-7.2911644,112.7454826
No.19,Jl. Manyar Kertoarjo,60285,-7.2775471,112.7660574
15,Jalan Bangka,60281,-7.2722247,112.7500064
37,Jl. Raya Gubeng,60281,-7.2726319,112.7481711
Nomor 17,Jalan Jawa,60281,-7.2730241,112.7484125
96,Jalan Sumatera,60281,-7.2725132,112.7465213
37,Jalan Sumbawa,60281,-7.2757299,112.7492058
No. 43,Jl. Raya Gubeng,60284,-7.2735718,112.7475156
No. 40D,Jl. Biliton,60281,-7.2762311,112.7491055
54,Jalan Raya Gubeng,60281,-7.2721754,112.7476424
92A,Jalan Sumatera,60281,-7.2734269,112.7455380
15,Jalan Polisi Istimewa,60265,-7.2810916,112.7423212
17,Jalan Polisi Istimewa,60265,-7.2812748,112.7420586
41,Jalan Raya Darmo,60265,-7.2821830,112.7407300
7,Jalan Polisi Istimewa,60265,-7.2805913,112.7433166
Blok A No.31,Jalan Klampis Jaya,60117,-7.2841414,112.7771025
1-3,Jalan Kedung Doro,60261,-7.2588166,112.7333512
42,Jl. Siwalankerto Utara II,60236,-7.3355217,112.7343240
1,Jl. Dukuh Menanggal,60234,-7.3437322,112.7272867
1,Jl. Dukuh Menanggal,60234,-7.3438738,112.7272029
176-178,Jalan Jenderal Achmad Yani,60231,-7.3310743,112.7299314
2-4,Jalan Margorejo Indah Gang XVII,60238,-7.3151753,112.7490004
2 - 4,Jl. Margorejo Indah XVII,60238,-7.3152640,112.7486800
2-4,Jalan Margorejo Indah Gang XVII,60238,-7.3153190,112.7484971
5,Jl. KH. Ahmad Dahlan,60111,-7.2895682,112.7998842
12,Jalan Ketintang I,80231,-7.3184019,112.7316634
No. 1,Dinas Pertanian UPT Pengawasan dan sertifikasi hasil pertanian,60244,-7.3096549,112.7385128
104,Jalan Jagir Wonokromo,60244,-7.3027880,112.7454707
104,Jalan Jagir Wonokromo,60244,-7.3028669,112.7460657
33,Jalan Diponegoro,60421,-7.2930588,112.7371870
1,Jalan Lingkar Dalam Barat,60227,-7.2993423,112.6763840
Nomor 18-20,Jalan Menur,60118,-7.2759946,112.7618763
HH - 14 A,Jalan Sutorejo Tengah I,60113,-7.2665866,112.7920874
No.25,Jalan Keputih Tegal,60111,-7.2935090,112.8015753
68,Jalan Manyar Kertoarjo III,60285,-7.2811284,112.7671293
No.120,Jl. Raya Menur,60282,-7.2868606,112.7626409
No.120,Jl. Raya Menur,60282,-7.2865179,112.7625527
123,Jl. Raya Ngagel,60246,-7.2888998,112.7459364
No. 9,"Jl. Jangkungan I No.9, Ngenden Jangkungan, Sukolilo, Kota SBY, Jawa Timur",60118,-7.3050771,112.7628688
60,Jalan Kaliwaron,60281,-7.2635666,112.7675936
No.66,Jalan Gembong,60141,-7.2442966,112.7477272
80,Jalan Manyar,60116,-7.2977626,112.7613748
No. 5,Jl. Dharma Husada Indah Barat,60285,-7.2761118,112.7713055
1,Jalan Memet Sastrowiryo,60121,-7.2474408,112.7905188
No.64-66,Jl. Dharma Husada Indah Barat III,60285,-7.2740114,112.7712297
27,"Jl. Menur III No.27, Menur Pumpungan, Kec. Sukolilo, Kota SBY, Jawa Timur 60286",60286,-7.2879714,112.7654162
Nomor 72,Jalan Karang Menjangan,60286,-7.2720145,112.7610441
no.22,Jalan Nginden Baru IV,60118,-7.3010868,112.7680927
39 - 41,Jalan Manyar Kertoarjo,60116,-7.2797022,112.7679305
AA-3,Jalan Raya Tenggilis Mejoyo,60293,-7.3175602,112.7642932
3,Jl. Residen Sudirman,60131,-7.2562396,112.7545381
23 C,Jalan Karang Menjangan,60285,-7.2714738,112.7630636
26,Jalan Gembong IV,60141,-7.2431300,112.7506968
35,Jalan Oro-Oro II,60131,-7.2563783,112.7605655
28,Jalan Oro Oro 1,60131,-7.2568671,112.7604697
101,Jalan Tunjungan,60261,-7.2620303,112.7409572
26,Jalan Mojo 3D,60281,-7.2702276,112.7671493
No.9,Jl. Raya Manyar,60118,-7.2899849,112.7635634
100,Jl. Arief Rachman Hakim,60117,-7.2909016,112.7790513
F1/12A,Jalan Galaxi Klampis Asri,60119,-7.2985156,112.7853809
53,Sutorejo,60113,-7.2612034,112.7885342
47,Jl.Manyar Kertoarjo,60116,-7.2797501,112.7683557
16a,Jalan Barata Jaya XII,60284,-7.3019973,112.7558619
8,JL. Semolowaru Tengah,60119,-7.3017041,112.7776406
27,Jalan Gading Pantai I,60113,-7.2505480,112.7914375
No.3,Jalan Manyar Tirtoasri I,60117,-7.2848266,112.7686719
108-116,Jalan Pemuda,60271,-7.2663335,112.7489636
No. 267,Jalan Kedungdoro,60261,-7.2683401,112.7294425
29,Jalan Kedung Sroko,60132,-7.2612262,112.7592896
30,Jl Ploso Baru,60132,-7.2560426,112.7726983
6,Jalan Karimun Jawa,60281,-7.2723246,112.7453096
No.108,Jl. RA Kartini,60264,-7.2781339,112.7321913
49,Jl. Raya Darmo,60265,-7.2837253,112.7408162
106-128,Jend. Basuki Rahmat,60271,-7.2710549,112.7411473
4-6,Jalan Airlangga,60286,-7.2711750,112.7597678
126,Jl. Imam Bonjol,60264,-7.2850882,112.7370087
E-101,Jalan Teknik Industri,60111,-7.2837604,112.7958829
No. 40-44,"Jalan Undaan Wetan, Ketabang, Kecamatan Genteng",60272,-7.2514797,112.7458467
No. 31-35,Jalan Prof. Dr. Moestopo,60131,-7.2648315,112.7561908
99,Jalan Kedinding Lor,60129,-7.2226292,112.7705939
BLOG G,"jalan Greges, 4, Pabean Cantian",60183,-7.2425844,112.7462687
12,Jalan Tanjung Anom,60275,-7.2568014,112.7357965
33,Jalan Genteng Kali,60275,-7.2573465,112.7430200
64E,Jalan Tanah Merah II,60129,-7.2313648,112.7698658
No. 12-14,JL. Pucang Adi,60282,-7.2831080,112.7528757
40,Jalan Donokerto XI,60141,-7.2424972,112.7538081
No. 1,Jl. Kalisari Utara,60112,-7.2654482,112.8047370
Gang No.23,Keputih II,60111,-7.2885924,112.7997619
Blok-D/18,Tambak Wedih Indah Barat II,60126,-7.2081886,112.7722081
No. 7,"Jalan Raya Gubeng, Kelurahan Gubeng, Kecamatan Gubeng",60281,-7.2740186,112.7463992
No.70,Jl. Raya Gubeng,60281,-7.2739812,112.7462819
No. 98,Jalan Nginden Semolo,60118,-7.3008416,112.7714312
12A,Gubeng Kertajaya XIIA,60282,-7.2796870,112.7607393
53,Jl. Ampel Masjid,60151,-7.2299625,112.7428435
58B,Jalan Pagesangan II,60233,-7.3344186,112.7126818
No.38,"Jl. Karet, Bongkaran, Pabean Cantian, Kota SBY, Jawa Timur",60161,-7.2399347,112.7388076
60,Jalan Waspada,60161,-7.2410188,112.7424424
49-51,Jalan Samudra,60174,-7.2384930,112.7428113
49-51,Jalan Samudra,60174,-7.2386872,112.7428101
56,Jalan Pagesangan II,60233,-7.3331633,112.7120964
48A,Jalan Raya Kendung,60198,-7.2503677,112.6352538
7,Jalan Citra Lakasantri 4,60213,-7.2900619,112.6527920
2,Jalan Sidosermo Indah I,60239,-7.3091458,112.7581643
No.16,Jalan Ketintang Madya I,60231,-7.3127817,112.7235125
No.32,Jalan Penjaringan Timur XIV Blok PM,60297,-7.3177979,112.7849595
Blok FD No. 4,Jalan Rungkut Mapan Tengah I,60293,-7.3343299,112.7754667
1,Jalan Wisma Kedung Asem Indah,60298,-7.3215905,112.7802921
No. 8,"Jalan Satelit Indah II Blok FN, Kelurahan Tanjungsari, Kecamatan Sukomanunggal",60187,-7.2666818,112.6912576
Nomor 71,Jalan Dukuh Kupang 29,60225,-7.2840268,112.7120954
40,Jalan Gayung Kebonsari 40,60231,-7.3284195,112.7203325
No.36 A,Jalan Kebonsari Baru,60233,-7.3272316,112.7185733
15-17,Jalan Bunguran,60161,-7.2426822,112.7461712
99,Jalan Kebonsari Elveka Barat,60233,-7.3244521,112.7164917
6,Jalan Raya Bukit Bali Lakarsantri,60211,-7.2991674,112.6354535
L-12,Jalan Wiyung Indah IX,60228,-7.3155508,112.6998888
105,Jalan Tumapel,60241,-7.2871492,112.7417777
No.435A,"Jl.Perak Barat, Perak Utara, Pabean Cantian, Kota SBY , Jawa Timur",60165,-7.2043271,112.7333094
1,Jalan Made Utara,60291,-7.2762754,112.6378474
12,Banjar Mlati Tembusan RT.03 RW.03,60212,-7.3037552,112.6424914
22,Lidah Kulon RT 4 / RW 2,60213,-7.3013354,112.6576520
24,Lidah Kulon RT 4 RW 2,60213,-7.3013118,112.6575606
21k12,Jalan Tanjung Batu,6177,-7.2210171,112.7266734
Jl. TANJUNG SADARI NO. 17 SURABAYA,Jalan Tanjung Sadari,60177,-7.2239465,112.7300268
125,Jalan Wisma Lidah Kulon B,60213,-7.3064621,112.6528452
16,Siwalankerto VIII E,60231,-7.3416200,112.7356362
35,JLN.MASTRIP KARANGPILANG,60221,-7.3405221,112.6965369
35,Jalan Mastrip Karangpilang,60221,-7.3402836,112.6963181
18,Jl. Kebraon Indah Permai Blok B,60221,-7.3251695,112.6935120
24e,Jalan Pakis Tirtosari X,60256,-7.2874456,112.7243341
60175,Jl. KUTILANG NO. 9 - 11 SURABAYA,60175,-7.2342261,112.7348717
031-3522836,Jalan Kepanjen no.1,60175,-7.2426844,112.7361996
1,Jalan Bukit Darmo Raya,60226,-7.2920052,112.6971386
80,Jalan Kejawan Putih Tambak,60112,-7.2818290,112.8016115
50,"Jl. Gayung Kebonsari Raya No.50, Gayungan",60235,-7.3296436,112.7246832
9-10,Jalan Manukan Tama,60185,-7.2659526,112.6670027
14,Jalan Gayung Kebonsari VIII,60231,-7.3275851,112.7238876
14,Jalan Gayung Kebonsari VIII,60235,-7.3280051,112.7238018
169,Jalan Gayung Kebonsari,60235,-7.3291628,112.7286910
18,Jalan Jemursari VIII,60237,-7.3219048,112.7404798
8,Jalan Jemursari VIII,60237,-7.3223969,112.7407211
6,Jalan Jemursari VIII,60237,-7.3225019,112.7407682
20A,Jalan Jemursari VIII,60237,-7.3217731,112.7404145
20,Jalan Jemursari VIII,60237,-7.3218259,112.7404417
12,Jalan Jemursari VIII,60237,-7.3221985,112.7406226
4,Jalan Jemursari VIII,60237,-7.3225926,112.7408140
No.7,"Ruko Golden Palace A-., Jl. HR. Moh.",60226,-7.2852269,112.6938614
24,Jalan Jemursari VIII,60237,-7.3214648,112.7402803
1,Jalan Raya Bukit Darmo,60226,-7.2920752,112.6969734
32,"JALAN RAYA TAMBAK LANGON 32, Kec. Asemrowo, Kel. Tambak Sarioso",60184,-7.2261423,112.6670310
108,Jl. Raya Jemur Sari,61217,-7.3220447,112.7446924
Blok G/58,Jalan Kendangsari III,60292,-7.3226864,112.7470225
15,Jalan Kendangsari YKP,60292,-7.3183442,112.7483676
4,Simo Rukun Timur IX,60281,-7.2612343,112.7123806
C23,Jalan Siwalankerto VIII,60236,-7.3414007,112.7362479
178,Jalan Mayjend Sungkono,60225,-7.2888022,112.7110094
no 89,Jalan Barata Jaya XIX,60284,-7.3042605,112.7591948
"No.43-44,",Jalan Raya Kendangsari Industri,60292,-7.3289241,112.7457663
4,"Jl. Mesjid Agung Tim. No.4, Gayungan",60234,-7.3374659,112.7168856
60,Jalan Taman Gunung Anyar B,60294,-7.3352189,112.8093496
No. 333,Jalan Ahmad Yani,60234,-7.3447790,112.7333115
9,Jalan Manukan Lor IV A,60185,-7.2588674,112.6622461
"5 No.E/13,","Perum YKP, Jl. Rungkut Lrg",60293,-7.3284429,112.7859146
BF15,Jalan Rungkut Mapan Barat VI,60293,-7.3336094,112.7735119
No 30b,Gg. II Penjaringan Sari,60297,-7.3246870,112.7832771
50,Jalan Puri Jimbaran,60294,-7.3347026,112.7972712
33,"Jl. Rungkut Tengah 1B No.33, Rungkut Tengah, Gn. Anyar, Kota SBY, Jawa Timur 60293",60293,-7.3340383,112.7660994
8,Jalan Pondok Benowo Indah Blok AU-AT,60197,-7.2346044,112.6269702
56,Jalan Rungkut Harapan Blok C,60293,-7.3239509,112.7803936
26,Jalan Wonorejo,60185,-7.2676972,112.6639857
No.87,Jl. Mayjen Sungkono,60256,-7.2930230,112.7198564
66,Jalan Gayungan PTT,60235,-7.3351216,112.7258187
No.17-21,Jalan Gayungsari V,60235,-7.3327750,112.7237509
48,Jalan Tenggilis Utara II,60292,-7.3159824,112.7552523
8,"Jl. Medokan Sawah Timur VI-A No.8, Medokan Ayu, Rungkut, Kota SBY, Jawa Timur 60295",60295,-7.3309803,112.8060653
102,Jalan Bendul Merisi Selatan III,60239,-7.3106953,112.7448061
18,Jl. Taman Bendul Merisi Sel.,60239,-7.3116344,112.7455804
1,Jalan Rungkut Industri I,60293,-7.3288070,112.7509277
10,Jalan Rungkut Mejoyo Selatan I,60293,-7.3214473,112.7629523
269,Jalan H.R. Muhammad,60189,-7.2844306,112.6896012
11,Jalan Gayungan VII,60235,-7.3363054,112.7264355
F-41,Jalan Raya Kedung Asem,60224,-7.3174776,112.7761541
147,Jalan Raya Rungkut Lor,60293,-7.3262323,112.7690805
19,Jalan Raya Pandugo Timur,60296,-7.3202327,112.7920939
48,"Jl. Gunung Anyar Lor No.48, Gn. Anyar, Kota SBY, Jawa Timur 60294",60294,-7.3337424,112.7808144
68 - 68A,Jl. Raya Manukan Wetan,60185,-7.2570063,112.6708713
110-112,Jalan Jemur Sari,60237,-7.3220003,112.7451857
No.16,Jalan Bogowonto,60241,-7.2882030,112.7344518
7,Jalan Dukuh Kali Kendal I Gang Gereja,60226,-7.2866661,112.6928042
No.20,Jl. Indragiri,60241,-7.2895758,112.7313820
7,"Jl. Rungkut Menanggal III, No. 7 A, Gununganyar, Rungkut Menanggal, Gunung Anyar, Rungkut Menanggal, Gn. Anyar, Kota SBY, Jawa Timur 60293",60293,-7.3388638,112.7675801
KK-1,Jalan Taman Satelit Timur,60187,-7.2657365,112.6959384
KK - 1,Jalan Taman Satelit Timur,60187,-7.2656250,112.6959574
40,Jalan Brawijaya,60242,-7.2951283,112.7261299
2,Jl. Rungkut Asri Tengah,60293,-7.3280744,112.7752518
12,Gang IAIN,60237,-7.3248864,112.7340423
9,Jalan Raya Sememi,60198,-7.2471470,112.6388138
34,Jalan Diponegoro,60241,-7.2912022,112.7372722
40,Jalan Ketintang Selatan I,60232,-7.3182789,112.7230324
Blok D no 12,Ruko Taman Puspa Raya Blok Citraland Surabaya,60217,-7.2757601,112.6460255
50,Jalan Nginden III,60118,-7.3033936,112.7637510
25,kedurus dukuh I,60223,-7.3230707,112.7083930
80,Jl. Kedung Sroko No.29,60132,-7.2639238,112.7600709
No.116,Jalan Jend. A. Yani,60231,-7.3243054,112.7302983
179 â€“ 183,"Rukan Graha Asri, Blok RK No.12 B Jl. Raya Ngagel",60246,-7.2957908,112.7433696
10,Jl. Jetis Kulon 7,60243,-7.3080357,112.7311505
317,Jalan A Yani,60234,-7.3427839,112.7303916
E4/67,Jalan Alam Hijau Sambikerep II,60219,-7.2781047,112.6424866
44P/06,Jalan Candi Lontar Tengah,60216,-7.2666309,112.6674437
45,Jalan Ngagel Tama Selatan I,60283,-7.2920509,112.7567130
Ruko Mangga Dua AA-11,Jalan Jagir Wonokromo,60244,-7.3043227,112.7454479
18,Jalan Wonorejo,60185,-7.2679004,112.6643592
23,Jalan Karah Indah III,60232,-7.3121615,112.7205723
3A,Jalan Gubeng Kertajaya III,60246,-7.2770786,112.7517945
36,"Jl. Manyar Sabrangan No.36, RT.002/RW.02, Manyar Sabrangan, Mulyorejo, Kota SBY, Jawa Timur 60116",60116,-7.2824251,112.7636152
27,Jalan Manukan Rukun,60197,-7.2645994,112.6691115
No.74,Jl. Ngagel Madya,60281,-7.2922777,112.7597315
163,Jalan Ngagel Jaya Selatan,60284,-7.2934325,112.7603639
2,Jalan Ngagel Madya Utara 1,60284,-7.2878503,112.7597219
4,Jalan Ngagel Madya Utara 1,60284,-7.2878469,112.7596020
11,Jalan Gubeng Kertajaya IV D,60282,-7.2803345,112.7556208
22-23,Jalan Gubeng Kertajaya V D,60286,-7.2757090,112.7540460
40A,Jalan Prapanca,60264,-7.2821872,112.7312443
27,JL. PANDEGILING TENGAH NO 27,60262,-7.2749079,112.7367301
49,Jalan Jemursari VIII,60237,-7.3205824,112.7395408
No.48C,Jl. Gayung Kebonsari Ko. Dpu,60235,-7.3305375,112.7246860
23,Jalan Kebonsari Baru Selatan III,60233,-7.3307566,112.7153890
15,Jalan Babatan Pantai 10,60113,-7.2552614,112.7942384
147,Jalan Mulyosari Timur,60112,-7.2623305,112.8010706
103,Jalan Raya Kandangan Gunung,60198,-7.2569356,112.6503546
44,Jalan Manyar Kertoarjo,60116,-7.2802435,112.7658715
123,Jalan Tidar,60252,-7.2567333,112.7198535
PEE-11,Jalan Raya Mulyosari,60112,-7.2605955,112.7952277
100A,Jalan Simo Gunung,60222,-7.2732905,112.7104943
E4/72,Jalan Alam Hijau Sambikerep II,60219,-7.2780591,112.6427493
E4/69,Jalan Alam Hijau Sambikerep II,60219,-7.2780884,112.6425899
E4/68,Jalan Alam Hijau Sambikerep II,60219,-7.2780968,112.6425408
E4/75,Jalan Alam Hijau Sambikerep II,60219,-7.2780308,112.6429123
E4/74,Jalan Alam Hijau Sambikerep II,60219,-7.2780407,112.6428612
15,Jalan Jenderal Basuki Rachmat,60262,-7.2635818,112.7413911
No.160,Jl. Raya Diponegoro,60264,-7.2803378,112.7315591
40,Jl. Bukit Darmo Boulevard,60211,-7.2974101,112.6764855
No.103,Jalan Ngagel Jaya Selatan,60285,-7.2933145,112.7562887
249,Keputih Tegal Timur II,60111,-7.2953104,112.8035993
35,Jalan Manyar Adi I,60282,-7.2822053,112.7582605
No 09,"JL. Arif Rahman Hakim No 09 Keputih Sukolilo, Surabaya Jawa Timur",60111,-7.2897845,112.7967010
57,Jalan Gubeng Kertajaya V C,60286,-7.2757462,112.7529656
No.18,Jl. Gubeng Kertajaya IX F,60286,-7.2753791,112.7583306
No.108,"Jl. Karang Menjangan No.108,",60286,-7.2740940,112.7622310
No.19,Jl. Kapas Madya II No.19,60134,-7.2383060,112.7672965
No.1,Jl. Kejawan Putih Tambak VI No.1,60112,-7.2766110,112.8011893
No.114,Jl. Semampir Selatan II A No.114,60119,-7.3085766,112.7829497
JL.MANYAR KERTOADI 1/701,JALAN KERTOADI,60117,-7.2854703,112.7816265
JL.Kyai Abdul Karim 4-5,JALAN Kyai Abdul Karim,60293,-7.3383944,112.7711598
JL.MENDUT 7-8,JALAN MENDUT,60131,-7.2574353,112.7554128
JL.RUNGKUT INDUSTRI RAYA NO.8 A,JALAN RUNGKUT INDUSTRI,60291,-7.3304504,112.7563298
(031)5433308,Jalan Pacar,60272,-7.2573370,112.7476506
107-109,Jalan Arief Rahman Hakim,60111,-7.2891264,112.7830745
Jl. RAJAWALI 57 SURABAYA,Jalan Rajawali,60164,-7.2348959,112.7313598
23,Jl. Bratang Gede IVA,60245,-7.2994100,112.7532172
52,Jalan Barata Jaya II,60284,-7.3014818,112.7556225
79,Jalan Pesapen Barat II,60164,-7.2315779,112.7300432
No. 15-19,Jalan Kalimas Baru III Gang 11,60165,-7.2140572,112.7361736
29,Jalan Nginden Intan Timur I,60119,-7.3070196,112.7723057
33,Jalan Tenggilis Mejoyo AI 33,60293,-7.3203883,112.7646828
7,Jalan Pakis Sidorejo III,60256,-7.2876705,112.7226381
21,Jalan Jenderal Basuki Rachmat,60271,-7.2648840,112.7420872
1,Jalan Manukan Lor IV-B,60185,-7.2593346,112.6621736
51,Arif Rahman Hakim,60117,-7.2876677,112.7765629
530,Jalan Griya Wonorejo III,60296,-7.3096182,112.7921651
522,Jalan Griya Wonorejo II,60296,-7.3094198,112.7920165
521,Jalan Griya Wonorejo II,60296,-7.3094235,112.7920929
520,Jalan Griya Wonorejo II,60296,-7.3094259,112.7921582
519,Jalan Griya Wonorejo II,60296,-7.3094297,112.7922371
518,Jalan Griya Wonorejo II,60296,-7.3094311,112.7923007
1,Jalan Manyar Kerta Adi I,60116,-7.2850983,112.7814206
2,Jalan Embong Wungu,60271,-7.2658743,112.7443201
Blok D No. 101-102,"Jl. Jemur Andayani Ruko Surya Inti Permata 50, Siwalankerto",60143,-7.3311832,112.7405615
Gedung TC,Kampus ITS Sukolilo,60111,-7.2781557,112.7927516
02,jalan kesatriyan 41,0000000,-7.2965671,112.7239018
18,Jalan Karang Menjangan,60285,-7.2679816,112.7599789
10A,Jalan Sidosermo Airdas,60239,-7.3151579,112.7524952
E4/70,Jalan Alam Hijau Sambikerep II,60219,-7.2780789,112.6426438
E4/71,Jalan Alam Hijau Sambikerep II,60219,-7.2780686,112.6426978
E4/73,Jalan Alam Hijau Sambikerep II,60219,-7.2780495,112.6428050
E4/76,Jalan Alam Hijau Sambikerep II,60219,-7.2780228,112.6429685
53,Jalan Manukan Tama,60185,-7.2658398,112.6663647
4,Jalan Medayu Utara III,60295,-7.3216349,112.7983853
B3,Jalan Medayu Utara III,60295,-7.3216394,112.7984541
29,"Jl. Kalimas Baru No.29, Blok B-6, Tanjung Perak, Kec. Pabean Cantian",60165,-7.2215639,112.7359402
1,Jalan Raya Lakarsantri,60211,-7.3042993,112.6329854
6,Jalan Lakarsantri Citra Raya,60211,-7.3031284,112.6327661
66,Royal residence B-17,60228,-7.3207597,112.6694922
1,Wisma Kedung Asem Indah,60298,-7.3213764,112.7802179
1,WISMA KEDUNG ASEM INDAH,60298,-7.3211962,112.7802986
3,Jalan Ploso VIII,60131,-7.2532974,112.7639100
No.8-9,"Jalan Mayjen Sungkono, Ruko Darmo Park 1 Blok 2B",60256,-7.2902571,112.7174582
22,Jalan Jemursari VIII,60237,-7.3216899,112.7403274
22A,Jalan Jemursari VIII,60237,-7.3216573,112.7404184
2,Jalan Jemursari VIII,60237,-7.3227050,112.7408731
10A,Jalan Cokroaminoto,60264,-7.2781116,112.7396044
10,Jalan Cokroaminoto,60264,-7.2782323,112.7399248
6,Jalan Manukan Wasono III,60185,-7.2713020,112.6658681
9,Jalan Polisi Istimewa,60265,-7.2808133,112.7426344
9,Jalan Polisi Istimewa,60265,-7.2808240,112.7426392
No. 39,"Northwest Park Block NC16, Citraland Utara, Kel. Babat Jerawat, Kec. Pakal",60197,-7.2491188,112.6234707
26,Jalan Jemursari VIII,60237,-7.3213371,112.7402179
28,Jalan Jemursari VIII,60237,-7.3212441,112.7401787
30,Jalan Jemursari VIII,60237,-7.3211503,112.7401359
32,Jalan Jemursari VIII,60237,-7.3210505,112.7400911
34,Jalan Jemursari VIII,60237,-7.3209550,112.7400437
36,Jalan Jemursari VIII,60237,-7.3208574,112.7400019
38,Jalan Jemursari VIII,60237,-7.3207554,112.7399561
40,Jalan Jemursari VIII,60237,-7.3206528,112.7399110
42,Jalan Jemursari VIII,60237,-7.3205519,112.7398607
44,Jalan Jemursari VIII,60237,-7.3204507,112.7398118
46,Jalan Jemursari VIII,60237,-7.3203425,112.7397573
48,Jalan Jemursari VIII,60237,-7.3201786,112.7396963
33,Jalan Jemursari VIII,60237,-7.3213734,112.7399609
35,Jalan Jemursari VIII,60237,-7.3212841,112.7399238
37,Jalan Jemursari VIII,60237,-7.3212049,112.7398863
39,Jalan Jemursari VIII,60237,-7.3211237,112.7398486
41,Jalan Jemursari VIII,60237,-7.3210407,112.7398103
1,Jalan Jemursari IX,60237,-7.3208840,112.7397665
3,Jalan Jemursari IX,60237,-7.3211228,112.7396936
5,Jalan Jemursari IX,60237,-7.3213413,112.7397443
7,Jalan Jemursari IX,60237,-7.3214503,112.7398228
17A,Jalan Jemursari I,60237,-7.3216521,112.7405209
17,Jalan Jemursari I,60237,-7.3215919,112.7406685
11,Jalan Jemursari I,60237,-7.3219065,112.7407621
9,Jalan Jemursari I,60237,-7.3220527,112.7408333
7,Jalan Jemursari I,60237,-7.3221827,112.7408889
3A,Jalan Jemursari I,60237,-7.3224057,112.7409930
1D,Jalan Jemursari I,60237,-7.3224900,112.7411003
1B,Jalan Jemursari I,60237,-7.3226076,112.7410227
1C,Jalan Jemursari I,60237,-7.3226334,112.7409667
19,Jalan Jemursari I,60237,-7.3213709,112.7404983
21,Jalan Jemursari I,60237,-7.3212078,112.7404205
23,Jalan Jemursari I,60237,-7.3210641,112.7403575
25,Jalan Jemursari I,60237,-7.3209431,112.7402972
27,Jalan Jemursari I,60237,-7.3208300,112.7402428
29,Jalan Jemursari I,60237,-7.3207282,112.7401948
31,Jalan Jemursari I,60237,-7.3206227,112.7401523
33,Jalan Jemursari I,60237,-7.3205327,112.7401067
35,Jalan Jemursari I,60237,-7.3204250,112.7400572
37,Jalan Jemursari I,60237,-7.3202934,112.7399978
39,Jalan Jemursari I,60237,-7.3201810,112.7399436
41,Jalan Jemursari I,60237,-7.3199939,112.7398827
61,Jalan Raya Jemursari,60237,-7.3230815,112.7413124
1,Jalan Jemursari I,60237,-7.3225829,112.7411433
3,Jalan Jemursari I,60237,-7.3224542,112.7410186
3B,Jalan Jemursari I,60237,-7.3223657,112.7409756
14,Jalan Jemursari VIII,60237,-7.3220995,112.7405787
16,Jalan Jemursari VIII,60237,-7.3219994,112.7405290
1A,Jalan Jemursari I,60237,-7.3228428,112.7412293
59A,Jalan Raya Jemursari,60237,-7.3230419,112.7411187
51-57,Jalan Raya Jemursari,60237,-7.3230838,112.7409142
4,Jalan Jemursari I,60237,-7.3222561,112.7413248
8,Jalan Jemursari I,60237,-7.3220551,112.7412260
10,Jalan Jemursari I,60237,-7.3219561,112.7411824
12,Jalan Jemursari I,60237,-7.3218606,112.7411361
14,Jalan Jemursari I,60237,-7.3217603,112.7410872
16,Jalan Jemursari I,60237,-7.3216601,112.7410430
18,Jalan Jemursari I,60237,-7.3215670,112.7409977
20,Jalan Jemursari I,60237,-7.3214709,112.7409544
22,Jalan Jemursari I,60237,-7.3213711,112.7409068
24,Jalan Jemursari I,60237,-7.3212717,112.7408592
2,Jalan Jemursari I,60237,-7.3223568,112.7414873
3,Jalan Jemursari VII,60237,-7.3221655,112.7415195
5,Jalan Jemursari VII,60237,-7.3220613,112.7414686
7,Jalan Jemursari VII,60237,-7.3219628,112.7414203
25,Jalan Jemursari VII,60237,-7.3211382,112.7410098
23,Jalan Jemursari VII,60237,-7.3212772,112.7411005
21,Jalan Jemursari VII,60237,-7.3213783,112.7411464
19,Jalan Jemursari VII,60237,-7.3214777,112.7411920
17,Jalan Jemursari VII,60237,-7.3215735,112.7412389
15,Jalan Jemursari VII,60237,-7.3216706,112.7412845
13,Jalan Jemursari VII,60237,-7.3217690,112.7413281
2,Jalan Jemursari VII,60237,-7.3221388,112.7417943
6,Jalan Jemursari VII,60237,-7.3219753,112.7417113
8,Jalan Jemursari VII,60237,-7.3218907,112.7416703
10,Jalan Jemursari VII,60237,-7.3218070,112.7416307
12,Jalan Jemursari VII,60237,-7.3217272,112.7415926
14,Jalan Jemursari VII,60237,-7.3216480,112.7415563
16,Jalan Jemursari VII,60237,-7.3215669,112.7415168
18,Jalan Jemursari VII,60237,-7.3214844,112.7414752
20,Jalan Jemursari VII,60237,-7.3214019,112.7414356
22,Jalan Jemursari VII,60237,-7.3213121,112.7413907
24,Jalan Jemursari VII,60237,-7.3211665,112.7413035
1,Jalan Jemursari VI,60237,-7.3220950,112.7419791
3,Jalan Jemursari VI,60237,-7.3219718,112.7419191
5,Jalan Jemursari VI,60237,-7.3218914,112.7418775
7,Jalan Jemursari VI,60237,-7.3218096,112.7418366
9,Jalan Jemursari VI,60237,-7.3217265,112.7417971
11,Jalan Jemursari VI,60237,-7.3216500,112.7417582
13,Jalan Jemursari VI,60237,-7.3215688,112.7417193
15,Jalan Jemursari VI,60237,-7.3214897,112.7416803
17,Jalan Jemursari VI,60237,-7.3214079,112.7416435
19,Jalan Jemursari VI,60237,-7.3213255,112.7416026
21,Jalan Jemursari VI,60237,-7.3212350,112.7415544
23,Jalan Jemursari VI,60237,-7.3211459,112.7414899
73,Jalan Jemursari III,60237,-7.3226066,112.7416356
71,Jalan Jemursari III,60237,-7.3225535,112.7417289
69,Jalan Jemursari III,60237,-7.3224965,112.7418181
67,Jalan Jemursari III,60237,-7.3224388,112.7419172
63,Jalan Jemursari III,60237,-7.3223340,112.7421044
61,Jalan Jemursari III,60237,-7.3222912,112.7421838
63,Jalan Raya Jemursari,60237,-7.3228053,112.7415680
73,Jalan Raya Jemursari,60237,-7.3222403,112.7425788
71,Jalan Raya Jemursari,60237,-7.3225309,112.7422751
65,Jalan Raya Jemursari,60237,-7.3228000,112.7418059
67,Jalan Raya Jemursari,60237,-7.3227048,112.7419732
69,Jalan Raya Jemursari,60237,-7.3226203,112.7421264
26,Jalan Jemursari VI,60237,-7.3213229,112.7418843
24,Jalan Jemursari VI,60237,-7.3213438,112.7419903
22,Jalan Jemursari VI,60237,-7.3213604,112.7420831
20,Jalan Jemursari VI,60237,-7.3213743,112.7421750
18,Jalan Jemursari VI,60237,-7.3213890,112.7422655
16,Jalan Jemursari VI,60237,-7.3214013,112.7423543
14,Jalan Jemursari VI,60237,-7.3214143,112.7424370
12,Jalan Jemursari VI,60237,-7.3214280,112.7425277
10,Jalan Jemursari VI,60237,-7.3214422,112.7426232
8,Jalan Jemursari VI,60237,-7.3214566,112.7427128
6,Jalan Jemursari VI,60237,-7.3214701,112.7428083
4,Jalan Jemursari VI,60237,-7.3214854,112.7428934
2,Jalan Jemursari VI,60237,-7.3215044,112.7431389
31,Jalan Jemursari V,60237,-7.3211277,112.7419119
29,Jalan Jemursari V,60237,-7.3211472,112.7420225
27,Jalan Jemursari V,60237,-7.3211611,112.7421134
25,Jalan Jemursari V,60237,-7.3211752,112.7422035
23,Jalan Jemursari V,60237,-7.3211877,112.7422957
21,Jalan Jemursari V,60237,-7.3212006,112.7423924
11,Jalan Jemursari V,60237,-7.3212564,112.7427431
9,Jalan Jemursari V,60237,-7.3212723,112.7428355
7,Jalan Jemursari V,60237,-7.3212874,112.7429233
5,Jalan Jemursari V,60237,-7.3213009,112.7430119
3,Jalan Jemursari V,60237,-7.3213154,112.7431059
1,Jalan Jemursari V,60237,-7.3213388,112.7433813
19,Jalan Jemursari V,60237,-7.3212144,112.7424858
17,Jalan Jemursari V,60237,-7.3212305,112.7425650
15,Jalan Jemursari V,60237,-7.3212437,112.7426517
2,Jalan Jemursari V,60237,-7.3211505,112.7435872
4,Jalan Jemursari V,60237,-7.3211358,112.7434953
6,Jalan Jemursari V,60237,-7.3211172,112.7433994
8,Jalan Jemursari V,60237,-7.3211033,112.7433055
10,Jalan Jemursari V,60237,-7.3210886,112.7432123
12,Jalan Jemursari V,60237,-7.3210739,112.7431326
14,Jalan Jemursari V,60237,-7.3210587,112.7430494
16,Jalan Jemursari V,60237,-7.3210441,112.7429515
18,Jalan Jemursari V,60237,-7.3210294,112.7428643
20,Jalan Jemursari V,60237,-7.3210161,112.7427791
22,Jalan Jemursari V,60237,-7.3210008,112.7426885
24,Jalan Jemursari V,60237,-7.3209875,112.7425975
26,Jalan Jemursari V,60237,-7.3209742,112.7425129
28,Jalan Jemursari V,60237,-7.3209602,112.7424257
30,Jalan Jemursari V,60237,-7.3209476,112.7423386
32,Jalan Jemursari V,60237,-7.3209337,112.7422488
34,Jalan Jemursari V,60237,-7.3209186,112.7421522
36,Jalan Jemursari V,60237,-7.3209041,112.7420559
38,Jalan Jemursari V,60237,-7.3208871,112.7419527
3,Jalan Jemursari IV,60237,-7.3209714,112.7437079
5,Jalan Jemursari IV,60237,-7.3209589,112.7436126
7,Jalan Jemursari IV,60237,-7.3209443,112.7435241
9,Jalan Jemursari IV,60237,-7.3209290,112.7434255
15,Jalan Jemursari IV,60237,-7.3208997,112.7432432
17,Jalan Jemursari IV,60237,-7.3208858,112.7431601
19,Jalan Jemursari IV,60237,-7.3208731,112.7430715
21,Jalan Jemursari IV,60237,-7.3208578,112.7429783
23,Jalan Jemursari IV,60237,-7.3208452,112.7428938
25-27,Jalan Jemursari IV,60237,-7.3208259,112.7427590
29,Jalan Jemursari IV,60237,-7.3208046,112.7426223
31,Jalan Jemursari IV,60237,-7.3207927,112.7425405
33,Jalan Jemursari IV,60237,-7.3207793,112.7424519
35,Jalan Jemursari IV,60237,-7.3207634,112.7423641
37,Jalan Jemursari IV,60237,-7.3207527,112.7422702
39-43,Jalan Jemursari IV,60237,-7.3207215,112.7420751
12,Jalan Jemursari III,60237,-7.3209954,112.7439844
14,Jalan Jemursari III,60237,-7.3211624,112.7437930
3,Jalan Jemursari III,60237,-7.3206929,112.7450558
5,Jalan Jemursari III,60237,-7.3207407,112.7449654
7,Jalan Jemursari III,60237,-7.3208003,112.7448645
9,Jalan Jemursari III,60237,-7.3208533,112.7447712
11,Jalan Jemursari III,60237,-7.3209065,112.7446818
15,Jalan Jemursari III,60237,-7.3209579,112.7445873
17,Jalan Jemursari III,60237,-7.3210081,112.7444888
19,Jalan Jemursari III,60237,-7.3210626,112.7443898
21-23,Jalan Jemursari III,60237,-7.3211448,112.7442477
25,Jalan Jemursari III,60237,-7.3212235,112.7441061
27,Jalan Jemursari III,60237,-7.3212745,112.7440192
31,Jalan Jemursari III,60237,-7.3213785,112.7438369
33,Jalan Jemursari III,60237,-7.3214331,112.7437353
35,Jalan Jemursari III,60237,-7.3214854,112.7436378
37,Jalan Jemursari III,60237,-7.3215760,112.7434864
39,Jalan Jemursari III,60237,-7.3216824,112.7432847
10,Jalan Jemursari III,60237,-7.3208232,112.7442389
8,Jalan Jemursari III,60237,-7.3207739,112.7443797
6,Jalan Jemursari III,60237,-7.3207316,112.7444545
6A,Jalan Jemursari III,60237,-7.3207094,112.7444950
6B,Jalan Jemursari III,60237,-7.3206875,112.7445362
4,Jalan Jemursari III,60237,-7.3206406,112.7446180
2,Jalan Jemursari IV,60237,-7.3207537,112.7441859
4,Jalan Jemursari IV,60237,-7.3207327,112.7439406
6,Jalan Jemursari IV,60237,-7.3207794,112.7439062
8,Jalan Jemursari IV,60237,-7.3207108,112.7437915
10,Jalan Jemursari IV,60237,-7.3206895,112.7436500
12,Jalan Jemursari IV,60237,-7.3206700,112.7435172
14,Jalan Jemursari IV,60237,-7.3206485,112.7433822
16,Jalan Jemursari IV,60237,-7.3206283,112.7432386
22,Jalan Jemursari IV,60237,-7.3205671,112.7428366
24,Jalan Jemursari IV,60237,-7.3205532,112.7427347
24A,Jalan Jemursari IV,60237,-7.3205437,112.7426649
26,Jalan Jemursari IV,60237,-7.3205285,112.7425674
30,Jalan Jemursari IV,60237,-7.3204706,112.7422445
18,Jalan Jemursari IV,60237,-7.3206090,112.7430981
79,Jalan Raya Jemursari,60237,-7.3220540,112.7430160
81,Jalan Raya Jemursari,60237,-7.3219406,112.7431864
85,Jalan Raya Jemursari,60237,-7.3219195,112.7433922
87,Jalan Raya Jemursari,60237,-7.3217647,112.7436683
89,Jalan Raya Jemursari,60237,-7.3216729,112.7438282
91,Jalan Raya Jemursari,60237,-7.3215814,112.7439877
93,Jalan Raya Jemursari,60237,-7.3214883,112.7441649
95,Jalan Raya Jemursari,60237,-7.3213962,112.7443241
97,Jalan Raya Jemursari,60237,-7.3213081,112.7444876
99,Jalan Raya Jemursari,60237,-7.3212223,112.7446394
101,Jalan Raya Jemursari,60237,-7.3211376,112.7447911
103,Jalan Raya Jemursari,60237,-7.3210453,112.7449541
105,Jalan Raya Jemursari,60237,-7.3209580,112.7451042
107,Jalan Raya Jemursari,60237,-7.3208771,112.7452574
109,Jalan Raya Jemursari,60237,-7.3207122,112.7453026
109B-C,Jalan Raya Jemursari,60237,-7.3206803,112.7456502
5,Jalan Jemursari II,60237,-7.3204748,112.7442115
3,Jalan Jemursari II,60237,-7.3204951,112.7443631
9,Jalan Jemursari II,60237,-7.3204020,112.7437121
11,Jalan Jemursari II,60237,-7.3203723,112.7435238
19,Jalan Jemursari II,60237,-7.3203188,112.7431375
21,Jalan Jemursari II,60237,-7.3202999,112.7430068
23,Jalan Jemursari II,60237,-7.3202799,112.7428757
33,Jalan Jemursari II,60237,-7.3201518,112.7420745
31,Jalan Jemursari II,60237,-7.3201656,112.7421731
25,Jalan Jemursari II,60237,-7.3202425,112.7426168
29,Jalan Jemursari II,60237,-7.3201868,112.7422896
13,Jalan Jemursari II,60237,-7.3203526,112.7433761
17,Jalan Jemursari II,60237,-7.3203352,112.7432659
1,Jalan Jemursari II,60237,-7.3204463,112.7447142
2,Jalan Jemursari II,60237,-7.3203461,112.7459917
4,Jalan Jemursari II,60237,-7.3203502,112.7458860
6,Jalan Jemursari II,60237,-7.3203547,112.7457729
8,Jalan Jemursari II,60237,-7.3203386,112.7456690
10,Jalan Jemursari II,60237,-7.3203254,112.7455731
12,Jalan Jemursari II,60237,-7.3203092,112.7454646
14,Jalan Jemursari II,60237,-7.3202925,112.7453497
16,Jalan Jemursari II,60237,-7.3202782,112.7452428
18,Jalan Jemursari II,60237,-7.3202626,112.7451389
20,Jalan Jemursari II,60237,-7.3202454,112.7450234
22,Jalan Jemursari II,60237,-7.3202310,112.7449242
24,Jalan Jemursari II,60237,-7.3202194,112.7448243
26,Jalan Jemursari II,60237,-7.3202022,112.7447198
28,Jalan Jemursari II,60237,-7.3201866,112.7446060
30,Jalan Jemursari II,60237,-7.3201682,112.7444888
32,Jalan Jemursari II,60237,-7.3201514,112.7443796
34,Jalan Jemursari II,60237,-7.3201360,112.7442717
36,Jalan Jemursari II,60237,-7.3201180,112.7441491
111,Jalan Raya Jemursari,60237,-7.3203045,112.7462055
44,Jalan Jemursari II,60237,-7.3199846,112.7431050
46,Jalan Jemursari II,60237,-7.3199700,112.7429936
48,Jalan Jemursari II,60237,-7.3199507,112.7428770
50,Jalan Jemursari II,60237,-7.3199367,112.7427898
52,Jalan Jemursari II,60237,-7.3199270,112.7427191
54,Jalan Jemursari II,60237,-7.3199150,112.7426296
56,Jalan Jemursari II,60237,-7.3199034,112.7425457
58,Jalan Jemursari II,60237,-7.3198915,112.7424599
60,Jalan Jemursari II,60237,-7.3198782,112.7423586
62,Jalan Jemursari II,60237,-7.3198636,112.7422695
74,Jalan Jemursari II,60237,-7.3197818,112.7417284
72,Jalan Jemursari II,60237,-7.3197928,112.7418088
70,Jalan Jemursari II,60237,-7.3198063,112.7419000
68,Jalan Jemursari II,60237,-7.3198237,112.7420046
64,Jalan Jemursari II,60237,-7.3198369,112.7420938
62,Jalan Jemursari II,60237,-7.3198509,112.7421810
76,Jalan Jemursari II,60237,-7.3197310,112.7413904
78,Jalan Jemursari II,60237,-7.3197129,112.7412646
80,Jalan Jemursari II,60237,-7.3196925,112.7411502
82,Jalan Jemursari II,60237,-7.3196765,112.7410598
84,Jalan Jemursari II,60237,-7.3196635,112.7409786
86,Jalan Jemursari II,60237,-7.3196505,112.7408932
88,Jalan Jemursari II,60237,-7.3196363,112.7408083
90,Jalan Jemursari II,60237,-7.3196220,112.7407159
92,Jalan Jemursari II,60237,-7.3196053,112.7406168
94,Jalan Jemursari II,60237,-7.3195898,112.7405225
96,Jalan Jemursari II,60237,-7.3195737,112.7404377
98,Jalan Jemursari II,60237,-7.3195595,112.7403535
100,Jalan Jemursari II,60237,-7.3195421,112.7402536
27,Jalan Jemursari XIII,60237,-7.3194423,112.7418445
29,Jalan Jemursari XIII,60237,-7.3193332,112.7418598
31,Jalan Jemursari XIII,60237,-7.3192048,112.7418766
26,Jalan Jemursari XIII,60237,-7.3189880,112.7420442
28,Jalan Jemursari XIII,60237,-7.3189780,112.7419551
30,Jalan Jemursari XIII,60237,-7.3189674,112.7418813
34,Jalan Jemursari XIII,60237,-7.3189474,112.7417110
36,Jalan Jemursari XIII,60237,-7.3189335,112.7416070
38,Jalan Jemursari XIII,60237,-7.3189215,112.7415024
14,Jalan Jemursari XIV,60237,-7.3191796,112.7416928
12,Jalan Jemursari XIV,60237,-7.3193039,112.7416727
10,Jalan Jemursari XIV,60237,-7.3194124,112.7416560
8,Jalan Jemursari XIV,60237,-7.3195048,112.7416400
4,Jalan Jemursari XIV,60237,-7.3196308,112.7416198
3,Jalan Jemursari XIV,60237,-7.3195749,112.7413931
10,Jalan Jemursari VIII,60237,-7.3223163,112.7406795
10A,Jalan Jemursari VIII,60237,-7.3222668,112.7406563
48A,Jalan Raya Kendung,60198,-7.2503130,112.6351730
No. 6-8,"Jl. Mayjen Prof. Dr. Moestopo No.6-8, Airlangga, Kec. Gubeng",60286,-7.2680878,112.7582821
200,Jalan Ir. H. Soekarno,60115,-7.2674050,112.7833689
197,Jl. Raya Jemursari,60239,-7.3169982,112.7514846
55,Jalan Adityawarman,60242,-7.2945438,112.7301999
40,Jl. Rungkut Menanggal,60234,-7.3381478,112.7675533
