House number,Street name,Postal code,Latitude,Longitude
6,праспект Міру,212030,53.9103189,30.3330698
1,плошча Славы,212030,53.8950598,30.3297292
6,праспект Міру,212030,53.9100355,30.3330205
105,вуліца Чалюскінцаў,212003,53.8893065,30.2933518
2,плошча Славы,212030,53.8952506,30.3304979
79,вуліца Гагарына,212027,53.8800823,30.3174975
6Б,Пажарны завулак,212030,53.8994653,30.3352169
78А,праспект Дзімітрава,212030,53.8791798,30.3776185
29,Першамайская вуліца,212003,53.9007552,30.3355216
18,Ленінская вуліца,212030,53.8979100,30.3362760
21,Першамайская вуліца,212030,53.8996176,30.3341935
34,Першамайская вуліца,212030,53.9066163,30.3390086
40А,вуліца Маўчанскага,212038,53.8770474,30.3660661
85,Першамайская вуліца,212030,53.9161185,30.3430418
27Б,праспект Міру,212030,53.9080505,30.3329201
53В,Гомельская шаша,212013,53.8556213,30.3549824
5,Першамайская вуліца,212030,53.8970737,30.3327798
32,Ленінская вуліца,212030,53.8995377,30.3377576
32,Ленінская вуліца,212030,53.8995014,30.3376289
32,Піянерская вуліца,212038,53.9004828,30.3411506
40,Піянерская вуліца,212038,53.9020275,30.3426020
46,Ленінская вуліца,212038,53.9028570,30.3410657
30,Ленінская вуліца,212030,53.8992413,30.3374901
5/29,Піянерская вуліца,212030,53.8970737,30.3385449
172Б,вуліца Чалюскінцаў,212012,53.8795373,30.2656866
75-2,вуліца Лазарэнкі,212022,53.9111243,30.3055875
55/1,Гомельская шаша,212040,53.8542600,30.3531935
179,вуліца Чалюскінцаў,212012,53.8840535,30.2734561
3-2,вуліца Дзяржынскага,212030,53.9066218,30.3360844
7,Першамайская вуліца,212030,53.8976836,30.3332638
6,праспект Міру,212030,53.9098706,30.3329758
5А,Камісарыяцкі завулак,212030,53.9041872,30.3352313
31,Пашкоўская вуліца,212010,53.9367552,30.3208581
4-5,вуліца Міронава,212030,53.9055067,30.3422539
5,вуліца Яцыны,212030,53.9055900,30.3362891
44,вуліца Якубоўскага,212026,53.9181973,30.3004634
44,вуліца Якубоўскага,212026,53.9184421,30.3004547
44,вуліца Якубоўскага,212026,53.9185592,30.3006302
44,вуліца Якубоўскага,212026,53.9181389,30.2999918
44,вуліца Якубоўскага,212026,53.9180554,30.2998636
44,вуліца Якубоўскага,212026,53.9177660,30.3004070
44,вуліца Якубоўскага,212026,53.9185362,30.3009945
44,вуліца Якубоўскага,212026,53.9183462,30.3012960
44,вуліца Якубоўскага,212026,53.9180994,30.2999276
70,вуліца Якубоўскага,212026,53.9190809,30.2914841
4,4-ы завулак Мечнікава,212008,53.9519342,30.3528981
4,Чавусская шаша,212004,53.8795587,30.4092248
5,вуліца Мікалая Астроўскага,212029,53.8747647,30.3331038
19 оф35,вуліца Дзяржынскага,212030,53.9014867,30.3328699
31,Мінская шаша,212039,53.9357041,30.2573645
52,Першамайская вуліца,212030,53.9135764,30.3403607
2,вуліца Дабралюбава,212030,53.9147498,30.3387318
4,вуліца Дабралюбава,212030,53.9143703,30.3381443
6,вуліца Дабралюбава,212030,53.9140769,30.3376910
57,Першамайская вуліца,212030,53.9042348,30.3394160
5А,Камісарыяцкі завулак,212030,53.9040757,30.3351952
23,вуліца Міронава,212030,53.9069447,30.3410752
2,Пажарны завулак,212030,53.8994842,30.3350068
6,Быхаўская вуліца,212007,53.8944418,30.3233240
1Ж,вуліца Мікалая Астроўскага,212029,53.8718265,30.3279583
26А,бульвар Непакораных,212027,53.8762283,30.3305340
31,Першамайская вуліца,212030,53.9017286,30.3374072
18,вуліца Народнага Апалчэння,212017,53.9046999,30.3593150
24,Мінская шаша,212039,53.9317512,30.2589563
6,праспект Міру,212030,53.9099080,30.3329360
7,вуліца Турава,212008,53.9430687,30.3668889
19,вуліца Дзяржынскага,212030,53.9015229,30.3325530
7,вуліца Турава,212003,53.9432421,30.3670808
140,вуліца Чалюскінцаў,212012,53.8874016,30.2670898
3,Першамайская вуліца,212030,53.8963059,30.3318916
4,вуліца Крыленкі,212030,53.9068741,30.3377846
68,Ленінская вуліца,212030,53.9065364,30.3438081
21,Першамайская вуліца,212030,53.8995530,30.3341217
31,Піянерская вуліца,212038,53.9023912,30.3436464
15,Піянерская вуліца,212030,53.8979788,30.3397050
57,Першамайская вуліца,212030,53.9037192,30.3391003
57,Першамайская вуліца,212030,53.9038108,30.3391137
57,Першамайская вуліца,212030,53.9043339,30.3397387
57,Першамайская вуліца,212030,53.9038195,30.3389530
47,вуліца Маўчанскага,212038,53.8768746,30.3722527
11А,вуліца Дзяржынскага,212030,53.9038818,30.3345183
11Б,Габраўская вуліца,212029,53.8578855,30.3312593
5,Першамайская вуліца,212030,53.8970606,30.3322938
1,вуліца Болдзіна,212030,53.8971103,30.3325063
15,Першамайская вуліца,212030,53.8989262,30.3335999
54а,праспект Шміта,212029,53.8682789,30.3285592
5 к. 3,Гомельская шаша,212013,53.8611743,30.3555217
47,Пушкінскі праспект,212002,53.8756322,30.3404773
73,вуліца Лазарэнкі,212022,53.9100531,30.3052922
1г,вуліца Мікалая Астроўскага,212029,53.8712930,30.3284896
1В,вуліца Мікалая Астроўскага,212029,53.8717520,30.3284318
31,Мінская шаша,212039,53.9357862,30.2580020
65,бульвар Непакораных,212029,53.8698284,30.3371141
61,бульвар Непакораных,212029,53.8688582,30.3351105
63,бульвар Непакораных,212029,53.8689317,30.3358258
59,бульвар Непакораных,212029,53.8697629,30.3357102
61А,бульвар Непакораных,212029,53.8695106,30.3341894
208,вуліца Крупскай,212008,53.9560858,30.3602384
6,вуліца Мікалая Астроўскага,212036,53.8682922,30.3166266
76А,праспект Шміта,212029,53.8664157,30.3347775
153,Першамайская вуліца,212016,53.9352281,30.3365611
67Б,Пушкінскі праспект,212029,53.8717709,30.3449130
92,праспект Шміта,212029,53.8644778,30.3374586
75,Пушкінскі праспект,212029,53.8705141,30.3472202
143,Першамайская вуліца,212016,53.9335388,30.3374539
6,Пажарны завулак,212030,53.8995601,30.3358875
10,Камсамольская вуліца,212030,53.8972780,30.3351973
2,плошча Славы,212030,53.8953666,30.3304453
1,Першамайская вуліца,212030,53.8958545,30.3317138
5/1,Першамайская вуліца,212030,53.8970781,30.3323938
40Д,Пушкінскі праспект,212029,53.8680485,30.3536467
1,вуліца Архірэйскі Вал Каніскага,212030,53.8952023,30.3344791
52,вуліца Касманаўтаў,212022,53.9046350,30.3087772
94,праспект Шміта,212029,53.8635260,30.3375821
137 к2,вуліца Чалюскінцаў,212003,53.8874675,30.2940159
52А,вуліца Касманаўтаў,212022,53.9050185,30.3093052
80А,праспект Шміта,212029,53.8662074,30.3359747
11,Індустрыяльная вуліца,212030,53.9138483,30.3544279
96,праспект Шміта,212029,53.8635834,30.3360380
40,вуліца Гагарына,212027,53.8783346,30.3233393
22,Габраўская вуліца,212029,53.8656903,30.3416376
90,праспект Шміта,212029,53.8644851,30.3347287
153,Першамайская вуліца,212016,53.9355351,30.3368310
3,вуліца Акадэміка Паўлава,212016,53.8655787,30.3778995
31,Габраўская вуліца,212029,53.8670650,30.3476588
41,Ленінская вуліца,212038,53.9004944,30.3403661
36,вуліца Маўчанскага,212038,53.8770053,30.3653211
2,вуліца Кулібіна,212008,53.9560867,30.3612367
2,вуліца Боткіна,212030,53.8973837,30.3442810
19А,вуліца Касманаўтаў,212022,53.9078523,30.3084242
6 к1,Пажарны завулак,212030,53.8991935,30.3357017
74А,праспект Дзімітрава,212038,53.8792780,30.3774423
202,вуліца Крупскай,212008,53.9558679,30.3595786
11Б,Габраўская вуліца,212029,53.8575606,30.3312807
10,Першамайская вуліца,212030,53.8978503,30.3319351
4,вуліца Гастэлы,212012,53.8832102,30.2759213
5/1,Першамайская вуліца,212030,53.8970230,30.3327346
96,праспект Шміта,212029,53.8633722,30.3367760
80,праспект Шміта,212029,53.8669216,30.3360716
6,Пушкінскі праспект,212002,53.8829930,30.3356111
2А,вуліца Акадэміка Паўлава,212018,53.8632309,30.3824096
3,Першамайская вуліца,212030,53.8965890,30.3320927
69,Ямніцкая вуліца,212015,53.8973646,30.2711211
218,вуліца Крупскай,212008,53.9581424,30.3619653
17А,Пушкінскі праспект,212002,53.8810790,30.3316047
210А,вуліца Крупскай,212008,53.9567311,30.3624471
7,Першамайская вуліца,212030,53.8975268,30.3332840
5,вуліца Яцыны,212030,53.9058081,30.3362000
7,Індустрыяльная вуліца,212030,53.9127823,30.3537927
55А,праспект Міру,212017,53.9065284,30.3499175
1,плошча Славы,212030,53.8950926,30.3296600
86,праспект Шміта,212029,53.8649111,30.3359400
2,вуліца Куцепава,212036,53.8729492,30.3105089
16,вуліца Бялыніцкага-Бірулі,212026,53.9125264,30.2777158
4,плошча Славы,212030,53.8951790,30.3314169
5А,Камісарыяцкі завулак,212030,53.9041658,30.3352791
15,вуліца Куракі,212030,53.9170749,30.3531425
4,4-ы завулак Мечнікава,212008,53.9513638,30.3538795
70,вуліца Лазарэнкі,212009,53.9108161,30.3079795
6,вуліца Свярдлова,212003,53.8927657,30.3186603
20А,вуліца Арлоўскага,212026,53.9156804,30.3232850
3,вуліца Кулібіна,212008,53.9565433,30.3614853
44А,Слаўгарадская шаша,212013,53.8592421,30.3689631
4А,Мінскі завулак,212001,53.9320705,30.3396148
3,вуліца Архірэйскі Вал Каніскага,212030,53.8949560,30.3336235
12,Пушкінскі праспект,212002,53.8786542,30.3388528
55А,вуліца Крупскай,212011,53.9330747,30.3532958
4,вуліца Бялыніцкага-Бірулі,212025,53.9182242,30.2864554
76,вуліца Якубоўскага,212025,53.9188303,30.2893210
43,праспект Міру,212005,53.9077302,30.3439299
36,Мінская шаша,212039,53.9328573,30.2542279
9,вуліца Кулібіна,212008,53.9591050,30.3526971
32,Дняпроўскі бульвар,212033,53.9023897,30.3631806
13,Юбілейны бульвар,212017,53.9033608,30.3594989
58,вуліца Гагарына,212027,53.8768221,30.3178221
13А,бульвар Непакораных,212027,53.8764871,30.3220902
40,вуліца Мікалая Астроўскага,212027,53.8740502,30.3268261
42,праспект Шміта,212027,53.8725092,30.3238525
22,вуліца Маўчанскага,212038,53.8756750,30.3609496
2/5,вуліца Боткіна,212030,53.8976352,30.3439837
3,Аўтазаводская вуліца,212004,53.8861587,30.4133668
22,Мінская шаша,212039,53.9311437,30.2589745
22,вуліца Будаўнікоў,212015,53.9072842,30.2928100
75,вуліца Лазарэнкі,212022,53.9110682,30.3056899
12,вуліца Цыялкоўскага,212009,53.9101775,30.3181867
27,вуліца Будаўнікоў,212015,53.9080767,30.3004832
27,Мінская шаша,212039,53.9338883,30.2583513
87,бульвар Непакораных,212029,53.8660872,30.3400830
73,вуліца Сіманава,212021,53.8616282,30.3104572
14,Заводская вуліца,212000,53.8902962,30.3195904
12,Ціміразеўская вуліца,212030,53.9105370,30.3515353
14,3-і Карʼерны завулак,212008,53.9521127,30.3508400
34,вуліца Златавустаўскага,212038,53.8824664,30.3663454
152,Першамайская вуліца,212016,53.9382242,30.3317281
67,вуліца Крупскай,212011,53.9380915,30.3552057
12,вуліца Златавустаўскага,212014,53.8818838,30.3601013
66,праспект Шміта,212029,53.8678870,30.3315273
51,бульвар Непакораных,212029,53.8705219,30.3334013
2,Бухарэсцкая вуліца,212039,53.9223915,30.2541320
9,вуліца Цярохіна,212014,53.8820135,30.3675872
42,Мінская шаша,212039,53.9339167,30.2520251
8А,вуліца Чыгрынава,212002,53.8835674,30.3372504
11,вуліца Чайкоўскага,212002,53.8787294,30.3328396
11,вуліца Цыялкоўскага,212022,53.9089876,30.3189612
30,Ленінская вуліца,212030,53.8992748,30.3374940
1,вуліца Народнага Апалчэння,212017,53.9071483,30.3610009
55,вуліца Грышына,212038,53.9279730,30.3530297
13,Вакзальная вуліца,212001,53.9264551,30.3326844
14,вуліца Раўчакова,212039,53.9339872,30.2754269
20,вуліца Раўчакова,212039,53.9359776,30.2779967
11,вуліца Бялыніцкага-Бірулі,212000,53.9146190,30.2719067
9,вуліца Бялыніцкага-Бірулі,212026,53.9175180,30.2784826
1А,вуліца Заслонава,212015,53.9001733,30.2932232
140,вуліца Чалюскінцаў,212012,53.8860179,30.2677230
37,вуліца Чалюскінцаў,212007,53.8933332,30.3149985
22,Аўтазаводская вуліца,212004,53.8870099,30.4115620
4,вуліца Міронава,212030,53.9054398,30.3421410
13,Чырвоназоркавы завулак,212039,53.9250596,30.2482932
24,Чырвоназоркавы завулак,212039,53.9242710,30.2462496
16,Чырвоназоркавы завулак,212039,53.9252800,30.2478573
22,Чырвоназоркавы завулак,212039,53.9245576,30.2466835
5,Чырвоназоркавы завулак,212039,53.9244251,30.2472165
4,вуліца Златаўстаўскага,212014,53.8820754,30.3583182
2,вуліца Златаўстаўскага,212014,53.8819924,30.3578822
210,вуліца Крупскай,212008,53.9572773,30.3622626
69А,вуліца Якубоўскага,212026,53.9200375,30.3037522
67,вуліца Якубоўскага,212026,53.9203246,30.3035017
38,Мінская шаша,212039,53.9333687,30.2532583
25,Першамайская вуліца,212030,53.9002747,30.3347825
70А,праспект Шміта,212029,53.8663959,30.3315050
2,вуліца Касманаўтаў,212022,53.9121043,30.3188447
6,праспект Міру,212030,53.9100738,30.3330699
6А,вуліца Цярохіна,212014,53.8807663,30.3565647
160 к1,Першамайская вуліца,212010,53.9412380,30.3306884
4А,Віцебскі праспект,212004,53.8833392,30.4067321
24,Мінская шаша,212039,53.9317505,30.2589526
44,Машынабудаўнічая вуліца,212016,53.9446821,30.3194295
70,вуліца Якубоўскага,212026,53.9191079,30.2908585
2,вуліца Бялыніцкага-Бірулі,212025,53.9186222,30.2853061
2/2,Мінская шаша,212039,53.9268126,30.2691603
12,вуліца Бурдэнкі,212022,53.9084177,30.3249371
44,вуліца Якубоўскага,212026,53.9181258,30.3007396
7,вуліца Аркадзя Куляшова,212025,53.9150987,30.2833823
70,вуліца Крупскай,211011,53.9347889,30.3521382
1,Грунвальдская вуліца,212039,53.9332029,30.2436776
1А,Ленінская вуліца,212030,53.8945688,30.3319830
14,2-і завулак Някрасава,212010,53.9380707,30.3233017
31,Пашкоўская вуліца,212010,53.9368416,30.3208596
5/1,Першамайская вуліца,212030,53.8969571,30.3322952
2,Пажарны завулак,212030,53.8995918,30.3350938
10,Першамайская вуліца,212030,53.8978839,30.3315878
5/1,Першамайская вуліца,212030,53.8971153,30.3325658
44Б,Паплаўская вуліца,212037,53.8672491,30.4249041
23,Грунвальдская вуліца,212039,53.9351683,30.2463188
144А,Першамайская вуліца,212030,53.9334425,30.3339878
51,вуліца Крывуліна,220008,53.9529203,30.3327548
53,вуліца Крывуліна,220008,53.9526232,30.3314969
20,Чырвоназоркавы завулак,212039,53.9249954,30.2469725
18,Чырвоназоркавы завулак,212039,53.9250963,30.2475238
12,Чырвоназоркавы завулак,212039,53.9257954,30.2487153
14,Чырвоназоркавы завулак,212039,53.9255140,30.2482502
5/1,Першамайская вуліца,212030,53.8970392,30.3325366
48А,праспект Шміта,212029,53.8717631,30.3290891
11,Чырвоназоркавы завулак,212039,53.9252163,30.2487133
26,Чырвоназоркавы завулак,212039,53.9240583,30.2455998
53,вуліца Маўчанскага,212030,53.8778928,30.3744798
1А,Бярозаўскі завулак,212011,53.9235358,30.3610630
11,Юбілейны бульвар,212033,53.9032201,30.3615804
77,Пушкінскі праспект,212013,53.8662780,30.3535720
171,Слаўгарадская шаша,212030,53.8385109,30.3910983
