House number,Street name,Postal code,Latitude,Longitude
26,улица Лакина,602267,55.5717023,42.0587149
56,улица Ленина,а,55.5732406,42.0570510
56,улица Ленина,а,55.5731723,42.0571647
1,площадь Революции,602267,55.5781646,42.0585797
55А,улица Ленина,602267,55.5729509,42.0560027
51,Комсомольская улица,602251,55.5690673,42.0392242
24,улица Ленина,602267,55.5785480,42.0533760
3,площадь Революции,602267,55.5783528,42.0579849
4,площадь 1100-летия Мурома,602267,55.5793617,42.0552865
42А,улица Лаврентьева,602266,55.5823988,42.0086932
119,Московская улица,602252,55.5745051,42.0100742
19,улица Филатова,602252,55.5732183,42.0100299
10,улица Советская,602267,55.5775447,42.0528550
7А,улица Куликова,602251,55.5711590,42.0359534
32,улица Кирова,602253,55.5467102,42.0658457
27,улица Артёма,602251,55.5715321,42.0433070
1,площадь 1100-летия Мурома,602256,55.5796569,42.0544694
50,Казанская улица,602256,55.5847689,42.0409497
100,Октябрьская улица,602265,55.5670929,42.0455409
55,улица Артёма,602265,55.5683030,42.0456036
84,улица Лакина,602265,55.5679653,42.0429192
22,улица Куликова,602251,55.5674140,42.0422721
75,Октябрьская улица,602265,55.5669824,42.0426540
73,Октябрьская улица,602267,55.5671234,42.0433261
69,Октябрьская улица,602267,55.5676481,42.0440257
65,Октябрьская улица,602267,55.5677044,42.0452655
106,Октябрьская улица,602265,55.5666103,42.0432150
23,улица Куликова,602251,55.5666391,42.0420371
21,улица Куликова,602251,55.5671268,42.0415851
19,улица Куликова,602251,55.5675310,42.0412050
86,улица Лакина,602251,55.5675833,42.0404866
88,улица Лакина,602251,55.5674233,42.0397098
90,улица Лакина,602251,55.5672524,42.0390405
92,улица Лакина,602251,55.5670760,42.0382290
17,улица Куликова,602251,55.5681043,42.0406442
15,улица Куликова,602251,55.5687745,42.0400384
49,Комсомольская улица,602251,55.5694829,42.0407910
14,улица Куликова,602251,55.5698757,42.0400033
66,улица Карла Маркса,602251,55.5709456,42.0395797
60,улица Карла Маркса,602251,55.5717603,42.0406143
50,улица Карла Маркса,602251,55.5719433,42.0417657
49,улица Мечникова,602251,55.5714234,42.0421926
65,улица Мечникова,602251,55.5710806,42.0411904
56,улица Мечникова,602251,55.5704502,42.0405947
14А,улица Куликова,602251,55.5699781,42.0406488
45,Комсомольская улица,602251,55.5699896,42.0421085
50,улица Мечникова,602251,55.5708355,42.0422820
46А,улица Мечникова,602251,55.5707839,42.0431210
29,улица Артёма,602251,55.5708472,42.0438128
48,улица Карла Маркса,602251,55.5723582,42.0425381
53А,улица Ленина,602267,55.5749541,42.0547632
46,Советская улица,602251,55.5746471,42.0406082
50,Советская улица,602251,55.5742395,42.0388530
71,улица Воровского,602267,55.5743783,42.0422457
69,улица Воровского,602267,55.5744560,42.0435535
67,улица Воровского,602267,55.5747725,42.0449507
6Б,улица Чкалова,602266,55.5763220,42.0131983
12Б,улица Чкалова,602252,55.5763527,42.0091504
4Б,улица Чкалова,602266,55.5763214,42.0139864
2Б,улица Чкалова,602266,55.5763275,42.0147924
6,Кооперативная улица,602252,55.5763111,42.0115184
8Б,улица Чкалова,602252,55.5763379,42.0106799
10Б,улица Чкалова,602252,55.5763460,42.0098907
5,Кооперативная улица,602266,55.5763157,42.0122827
8,Кооперативная улица,602266,55.5779004,42.0113830
7,Кооперативная улица,602266,55.5776173,42.0126088
19,улица Лаврентьева,602266,55.5784613,42.0083889
21,улица Лаврентьева,602266,55.5788967,42.0084382
9,улица Лаврентьева,602266,55.5775994,42.0082981
23,улица Лаврентьева,602266,55.5793438,42.0084825
25,улица Лаврентьева,602266,55.5797829,42.0085213
27,улица Лаврентьева,602266,55.5790114,42.0095211
7,улица Лаврентьева,602266,55.5771847,42.0082590
11,улица Лаврентьева,602266,55.5780232,42.0083461
36,улица Куйбышева,602266,55.5789169,42.0154002
32,улица Куйбышева,602266,55.5781669,42.0151824
38,улица Куйбышева,602266,55.5794610,42.0147753
34,улица Куйбышева,602266,55.5784407,42.0158562
32А,Кленовая улица,602266,55.5802647,42.0149502
32,Кленовая улица,602266,55.5807229,42.0157858
28,Кленовая улица,602266,55.5802697,42.0132270
5,Кленовая улица,602266,55.5803789,42.0110968
43,Коммунистическая улица,602267,55.5784091,42.0406779
4,улица Дзержинского,602254,55.5705908,42.0274802
1А,улица Пушкина,602254,55.5705392,42.0287338
1,Нижегородская улица,602254,55.5700353,42.0285909
2,улица Фрунзе,602254,55.5691048,42.0268540
10,улица Дзержинского,602254,55.5699891,42.0265802
1,улица Фрунзе,602254,55.5696196,42.0271406
2А,улица Дзержинского,602254,55.5712350,42.0281789
43,улица Дзержинского,602254,55.5682900,42.0230685
4,улица Куйбышева,602254,55.5686779,42.0224710
6,Кооперативный проезд,602252,55.5721294,42.0124064
8,Кооперативный проезд,602252,55.5724940,42.0120678
4,Кооперативный проезд,602252,55.5717533,42.0127857
2,Кооперативный проезд,602252,55.5713797,42.0132208
75,Советская улица,602251,55.5743034,42.0366064
2,улица Куликова,602251,55.5746276,42.0359486
86А,Московская улица,602251,55.5750604,42.0355853
68,Московская улица,602251,55.5752677,42.0372589
64,Московская улица,602267,55.5755672,42.0385701
75,улица Карла Маркса,602251,55.5720181,42.0385969
85,улица Лакина,602251,55.5679739,42.0391689
40Б,улица Лаврентьева,602266,55.5820848,42.0078034
37,улица Автодора,602254,55.5695070,42.0151810
5,улица Филатова,602254,55.5690063,42.0141590
5А,улица Филатова,602254,55.5693811,42.0135455
7,улица Филатова,602254,55.5698990,42.0130791
12,улица Щербакова,602254,55.5696159,42.0142127
10,улица Щербакова,602254,55.5701962,42.0140978
2,улица Артёма,602267,55.5769501,42.0399674
46А,Советская улица,602251,55.5740777,42.0399567
51,Комсомольская улица,602251,55.5690275,42.0388949
69Б,улица Лакина,602265,55.5691832,42.0441740
95,улица Воровского,602251,55.5729726,42.0374684
85,улица Воровского,602251,55.5734241,42.0393070
1А,улица Артёма,602267,55.5769404,42.0393785
91А,улица Воровского,602251,55.5736114,42.0380564
90,улица Воровского,602251,55.5725358,42.0382097
48,Радиозаводское шоссе,602264,55.5487585,42.0566410
46,Радиозаводское шоссе,602264,55.5486077,42.0555346
42,Радиозаводское шоссе,602264,55.5482264,42.0530885
44,Радиозаводское шоссе,602264,55.5483688,42.0542011
11,Орловская улица,602264,55.5513288,42.0542687
15,Орловская улица,602264,55.5514496,42.0551534
17,Орловская улица,602264,55.5505055,42.0559942
19,Орловская улица,602264,55.5515475,42.0560548
21,Орловская улица,602264,55.5506235,42.0568445
3,Орловская улица,602264,55.5509833,42.0515878
5,Орловская улица,602264,55.5503224,42.0527809
7,Орловская улица,602264,55.5511015,42.0524759
9,Орловская улица,602264,55.5512159,42.0533762
5,улица Энгельса,602264,55.5474667,42.0558367
36,Радиозаводское шоссе,602264,55.5489582,42.0501737
38,Радиозаводское шоссе,602264,55.5491793,42.0518237
5А,Орловская улица,602264,55.5495890,42.0530712
36А,улица Машинистов,602254,55.5690350,42.0172551
36Б,улица Машинистов,602254,55.5687325,42.0168477
24,улица Куйбышева,602252,55.5702798,42.0157768
12,Южная улица,602264,55.5553831,42.0573914
12А,Южная улица,602264,55.5558126,42.0592436
32,улица Кирова,602253,55.5467251,42.0658588
58,улица Мечникова,602251,55.5699166,42.0381645
53А,Комсомольская улица,602251,55.5690331,42.0379221
60,улица Мечникова,602251,55.5695054,42.0376030
83,улица Лакина,602251,55.5678459,42.0402536
76,Комсомольская улица,602251,55.5687954,42.0393682
78,Комсомольская улица,602251,55.5686338,42.0386741
27,улица Энгельса,602264,55.5471553,42.0609722
29,улица Энгельса,602264,55.5474054,42.0622494
23А,Орловская улица,602264,55.5495239,42.0579960
17,улица Энгельса,602264,55.5481008,42.0593796
19,улица Энгельса,602264,55.5478708,42.0584893
14,Орловская улица,602264,55.5536546,42.0555357
16,Южная улица,602264,55.5542755,42.0546233
18,Южная улица,602264,55.5539658,42.0540590
20,Южная улица,602264,55.5538465,42.0530624
3,Южная улица,602264,55.5536881,42.0541858
5,Южная улица,602264,55.5535711,42.0532120
8А,Южная улица,602264,55.5535001,42.0549106
11,Мичуринская улица,602264,55.5562318,42.0508267
12,Мичуринская улица,602264,55.5540046,42.0523984
13,Мичуринская улица,602264,55.5558149,42.0509970
15,Мичуринская улица,602264,55.5554046,42.0511705
17,Мичуринская улица,602264,55.5549984,42.0513467
22,Южная улица,602264,55.5536848,42.0517153
27,Мичуринская улица,602264,55.5545192,42.0515575
29,Мичуринская улица,602264,55.5540474,42.0517706
31,Мичуринская улица,602264,55.5533393,42.0520475
12,Радиозаводское шоссе,602264,55.5577423,42.0480410
23/2,Радиозаводское шоссе,602264,55.5566697,42.0458096
125,улица Ленина,602263,55.5670828,42.0601996
127,улица Ленина,602263,55.5666870,42.0606731
15,улица Энгельса,602264,55.5486216,42.0585048
9,улица Энгельса,602264,55.5479599,42.0574635
23А,улица Энгельса,602264,55.5483666,42.0600014
21А,Радиозаводское шоссе,602264,55.5573340,42.0456001
25,Орловская улица,602264,55.5512410,42.0597358
25Б,Орловская улица,602264,55.5513365,42.0605297
19,Карачаровское шоссе,602264,55.5504024,42.0614655
26В,Орловская улица,602264,55.5525813,42.0611939
26Г,Орловская улица,602264,55.5524963,42.0605867
14,Южная улица,602264,55.5547334,42.0577371
6,Южная улица,602264,55.5546703,42.0585699
2,Южная улица,602264,55.5549501,42.0601136
2А,Южная улица,602264,55.5549963,42.0593046
11,Карачаровское шоссе,602264,55.5558111,42.0602257
16,Орловская улица,602264,55.5529103,42.0571839
1А,улица Энгельса,602264,55.5478223,42.0518962
40,Радиозаводское шоссе,602264,55.5483378,42.0516953
13,Орловская улица,602264,55.5505067,42.0545173
31,Радиозаводское шоссе,602264,55.5528611,42.0488578
32,Радиозаводское шоссе,602264,55.5522815,42.0490963
6,Орловская улица,602264,55.5525229,42.0516273
11,Южная улица,602264,55.5531730,42.0498176
2,Орловская улица,602264,55.5522377,42.0501830
4,Орловская улица,602264,55.5523090,42.0507710
27,Радиозаводское шоссе,602264,55.5527986,42.0499617
30,Радиозаводское шоссе,602264,55.5525795,42.0500261
2,Октябрьская улица,602267,55.5715517,42.0648046
1А,Орловская улица,602264,55.5512169,42.0504941
1Б,Орловская улица,602264,55.5503877,42.0508283
1,Орловская улица,602264,55.5502564,42.0499619
1Г,Орловская улица,602264,55.5511262,42.0497311
16,Мичуринская улица,602264,55.5528569,42.0531429
6,Мичуринская улица,602264,55.5548496,42.0536632
21,Мичуринская улица,602264,55.5547113,42.0500416
8,Мичуринская улица,602264,55.5547447,42.0528290
16Б,Радиозаводское шоссе,602264,55.5546044,42.0489051
4,Мичуринская улица,602264,55.5549266,42.0543612
9,Мичуринская улица,602264,55.5562587,42.0502219
7,Мичуринская улица,602264,55.5561382,42.0494000
3,Мичуринская улица,602264,55.5559686,42.0488158
14,Мичуринская улица,602264,55.5532366,42.0527406
7,Южная улица,602264,55.5533264,42.0510795
23,Радиозаводское шоссе,602264,55.5532290,42.0459143
5,Мичуринская улица,602264,55.5557634,42.0493314
14,Радиозаводское шоссе,602264,55.5558893,42.0482069
12,Орловская улица,602264,55.5530781,42.0548394
15,Радиозаводское шоссе,602264,55.5557800,42.0476014
20,Радиозаводское шоссе,602264,55.5535029,42.0485683
10,Орловская улица,602264,55.5530098,42.0541367
14А,Радиозаводское шоссе,602264,55.5553265,42.0486006
33,Мичуринская улица,602264,55.5529203,42.0522577
16,Радиозаводское шоссе,602264,55.5548013,42.0479957
9,Южная улица,602264,55.5532535,42.0504550
19,Мичуринская улица,602264,55.5548159,42.0508395
8,Орловская улица,602264,55.5529719,42.0537691
24,улица Энгельса,602264,55.5464580,42.0634079
20,улица Энгельса,602264,55.5462255,42.0618867
25,Радиозаводское шоссе,602264,55.5507415,42.0478169
13,Каштановая улица,602253,55.5459299,42.0640083
15,Каштановая улица,602253,55.5457090,42.0624203
26,улица Энгельса,602264,55.5465636,42.0642020
30,улица Кирова,602253,55.5475199,42.0691817
21,улица Энгельса,602264,55.5473352,42.0587164
1,улица Энгельса,602264,55.5472221,42.0520255
7,улица Энгельса,602264,55.5471359,42.0569929
12,улица Энгельса,602264,55.5461679,42.0591599
16,улица Энгельса,602264,55.5455817,42.0593964
1Б,улица Энгельса,602264,55.5463552,42.0517074
3,улица Энгельса,602264,55.5475719,42.0541832
18,улица Энгельса,602264,55.5459623,42.0604506
14,улица Энгельса,602264,55.5456227,42.0582639
38А,Радиозаводское шоссе,602264,55.5477709,42.0507631
25,улица Энгельса,602264,55.5469828,42.0593538
30Д,Карачаровское шоссе,602253,55.5506537,42.0659210
11,Совхозная улица,602253,55.5493889,42.0656602
30,Карачаровское шоссе,602253,55.5503229,42.0643331
27,Карачаровское шоссе,602253,55.5532648,42.0648831
30Г,Карачаровское шоссе,602253,55.5511709,42.0664821
34,Карачаровское шоссе,602253,55.5487279,42.0650316
21,улица Кирова,602253,55.5483963,42.0665936
13А,Совхозная улица,602253,55.5493909,42.0666343
30В,Карачаровское шоссе,602253,55.5502462,42.0659459
26,Карачаровское шоссе,602253,55.5519193,42.0636562
30Б,Карачаровское шоссе,602253,55.5517084,42.0655644
26Б,Карачаровское шоссе,602253,55.5522043,42.0652992
30А,Карачаровское шоссе,602253,55.5512322,42.0648788
25А,Карачаровское шоссе,602253,55.5527881,42.0642018
24,Карачаровское шоссе,602253,55.5526843,42.0632447
15А,Совхозная улица,602253,55.5489310,42.0671810
32,Карачаровское шоссе,602253,55.5494769,42.0646292
24А,Карачаровское шоссе,602253,55.5534273,42.0628093
28,Карачаровское шоссе,602253,55.5510055,42.0639664
26А,Карачаровское шоссе,602253,55.5527307,42.0658265
98А,Московская улица,602254,55.5741731,42.0254549
45,Московская улица,602267,55.5767259,42.0407117
104,Московская улица,602254,55.5741957,42.0231622
106,Московская улица,602254,55.5741608,42.0219628
16,улица Пушкина,602254,55.5737043,42.0221548
53/1,улица Дзержинского,602254,55.5665736,42.0206488
53/2,улица Дзержинского,602254,55.5662287,42.0201514
50,улица Дзержинского,602254,55.5660563,42.0213035
3,Вокзальная улица,602254,55.5666102,42.0199371
40,улица Автодора,602254,55.5700895,42.0177197
50,улица Амосова,602254,55.5686434,42.0212126
45,улица Дзержинского,602254,55.5677071,42.0223228
2,улица Куйбышева,602254,55.5678445,42.0246680
36,улица Дзержинского,602254,55.5673856,42.0241387
29,Нижегородская улица,602254,55.5670361,42.0251983
31,Нижегородская улица,602254,55.5662198,42.0240450
46,улица Дзержинского,602254,55.5663555,42.0224239
43,Нижегородская улица,602254,55.5656419,42.0228654
49,улица Дзержинского,602254,55.5670535,42.0213442
5,улица Машинистов,602254,55.5677791,42.0209643
25,улица Машинистов,602254,55.5693145,42.0177829
21,улица Щербакова,602252,55.5723573,42.0176561
112,Московская улица,602252,55.5740614,42.0175658
27,улица Куйбышева,602252,55.5734565,42.0170981
26,улица Куйбышева,602252,55.5737125,42.0163998
26А,улица Куйбышева,602252,55.5737230,42.0155522
103,Московская улица,602266,55.5745244,42.0162418
105,Московская улица,602266,55.5745271,42.0151536
107,Московская улица,602266,55.5745297,42.0138877
111В,Московская улица,602266,55.5749290,42.0140904
111,Московская улица,602266,55.5749387,42.0132342
1,Кооперативная улица,602266,55.5749063,42.0121860
2,Кооперативная улица,602252,55.5748950,42.0115765
115,Московская улица,602252,55.5747854,42.0104513
3,улица Лаврентьева,602252,55.5762138,42.0083256
1,улица Лаврентьева,602252,55.5753597,42.0080751
123,Московская улица,602252,55.5746618,42.0082474
119,Московская улица,602252,55.5745576,42.0096638
113,Московская улица,602252,55.5745571,42.0112422
109,Московская улица,602266,55.5745305,42.0125984
114,Московская улица,602252,55.5736392,42.0134830
12А,Кооперативный проезд,602252,55.5731926,42.0127966
116,Московская улица,602252,55.5737032,42.0128598
118,Московская улица,602252,55.5740567,42.0121828
120,Московская улица,602252,55.5738326,42.0112292
122,Московская улица,602252,55.5740567,42.0102720
27,улица Щербакова,602252,55.5720364,42.0153605
1,Кооперативный проезд,602252,55.5715257,42.0147525
16,Вокзальная улица,602254,55.5680169,42.0164044
37А,улица Щербакова,602252,55.5707599,42.0129456
37,улица Щербакова,602252,55.5706226,42.0125323
11,улица Филатова,602252,55.5710905,42.0119513
13,улица Филатова,602252,55.5715081,42.0115570
15,улица Филатова,602252,55.5719875,42.0111176
17,улица Филатова,602252,55.5725305,42.0106112
19А,улица Филатова,602252,55.5730646,42.0106187
19,улица Филатова,602252,55.5733030,42.0098043
21,улица Филатова,602252,55.5738663,42.0095191
3/2А,Кленовая улица,602252,55.5799629,42.0028020
3А,Кленовая улица,602252,55.5799025,42.0044830
1/2А,Кленовая улица,602252,55.5800178,42.0011818
1/2,Кленовая улица,602252,55.5796376,42.0011271
3/4,Кленовая улица,602252,55.5795314,42.0043249
3/2,Кленовая улица,602252,55.5795871,42.0027405
3/6,Кленовая улица,602252,55.5792703,42.0034151
48,улица Расковой,602252,55.5785755,42.0026572
37,улица Серова,602252,55.5787878,42.0019889
35,улица Серова,602252,55.5787965,42.0013418
40,улица Серова,602252,55.5787394,42.0006602
39,улица Серова,602252,55.5793143,42.0019409
126А,Московская улица,602252,55.5741812,41.9944990
10А,Стахановская улица,602262,55.5680316,41.9974019
1А,улица Гоголева,602262,55.5691583,42.0004433
2А,улица Гоголева,602262,55.5684472,41.9985683
1,Пионерская улица,602262,55.5709837,41.9965384
1,Трудовая улица,602252,55.5748474,41.9979718
149А,Московская улица,602252,55.5748511,41.9988440
15,улица Серова,602252,55.5764587,42.0018227
21А,Трудовая улица,602252,55.5769176,41.9989280
5,улица Осипенко,602252,55.5752001,41.9995469
9,улица Осипенко,602252,55.5757115,41.9997146
20,улица Чкалова,602252,55.5762236,42.0001530
35,улица Лаврентьева,602266,55.5814371,42.0087119
37,улица Лаврентьева,602266,55.5819367,42.0089619
42,улица Лаврентьева,602266,55.5828407,42.0089572
42/2,улица Лаврентьева,602266,55.5835268,42.0095113
46,улица Лаврентьева,602266,55.5841011,42.0096616
48,улица Лаврентьева,602266,55.5843562,42.0105749
10,Владимирское шоссе,602205,55.5845573,42.0130112
43,улица Лаврентьева,602266,55.5841553,42.0120201
41,улица Лаврентьева,602266,55.5833487,42.0110203
39,улица Лаврентьева,602266,55.5825380,42.0099893
3/5,Кленовая улица,602252,55.5799203,42.0056549
3/3,Кленовая улица,602252,55.5799624,42.0035112
3/1,Кленовая улица,602252,55.5800443,42.0018881
1,Кленовая улица,602252,55.5801142,42.0000740
41,Трудовая улица,602252,55.5798987,41.9989480
1/3,Кленовая улица,602252,55.5793695,42.0003059
37,Трудовая улица,602252,55.5793651,41.9991768
35,Трудовая улица,602252,55.5790271,41.9988374
33,Трудовая улица,602252,55.5781509,41.9985636
21,Трудовая улица,602252,55.5772774,41.9982859
30,улица Осипенко,602252,55.5773669,41.9991553
29,улица Чкалова,602252,55.5769346,41.9999894
25,улица Осипенко,602252,55.5774971,41.9998356
38,улица Серова,602252,55.5781275,42.0001795
30,улица Чкалова,602252,55.5776451,42.0005438
39,Трудовая улица,602252,55.5797116,41.9984539
36,улица Гоголева,602262,55.5696345,41.9815739
10А,Кленовая улица,602266,55.5798479,42.0094597
8А,Кленовая улица,602266,55.5798689,42.0089821
29,улица Лаврентьева,602266,55.5794555,42.0095662
17,улица Лаврентьева,602266,55.5785269,42.0094645
27А,улица Лаврентьева,602266,55.5788290,42.0103873
10А,улица Чкалова,602266,55.5772765,42.0103226
10А,Кооперативная улица,602266,55.5780249,42.0104350
12/2,Кленовая улица,602266,55.5793008,42.0140190
9,Кооперативная улица,602266,55.5784474,42.0138731
11,Кооперативная улица,602266,55.5785411,42.0127928
13,Кооперативная улица,602266,55.5792810,42.0123907
12А,Кленовая улица,602266,55.5797138,42.0108768
12,Кооперативная улица,602266,55.5790346,42.0115960
3,Кооперативная улица,602266,55.5755332,42.0121880
4,Кооперативная улица,602252,55.5755383,42.0115760
2А,Кооперативная улица,602252,55.5752059,42.0106745
108,Московская улица,602254,55.5741317,42.0208851
33,улица Щербакова,602252,55.5710656,42.0143847
35,улица Щербакова,602252,55.5708221,42.0135038
29,улица Щербакова,602252,55.5714827,42.0157053
30А,улица Куйбышева,602252,55.5727829,42.0152650
12,3-й Лесной проезд,602266,55.5826718,42.0111069
10,3-й Лесной проезд,602266,55.5820604,42.0103386
8,3-й Лесной проезд,602266,55.5817952,42.0099692
1А,Кленовая улица,602266,55.5802366,42.0095325
2,3-й Лесной проезд,602266,55.5806757,42.0096159
4,3-й Лесной проезд,602266,55.5810009,42.0096456
6,3-й Лесной проезд,602266,55.5813975,42.0096723
7,Кленовая улица,602266,55.5819402,42.0116369
30,Кленовая улица,602266,55.5809353,42.0144966
15,Кленовая улица,602266,55.5813627,42.0134098
26,Кленовая улица,602266,55.5810402,42.0122549
9,Кленовая улица,602266,55.5814419,42.0113976
7А,Кленовая улица,602266,55.5811135,42.0104005
31,улица Лаврентьева,602266,55.5804245,42.0086182
18,Ковровская улица,602256,55.5783466,42.0291045
12,Ковровская улица,602256,55.5779687,42.0303414
16,Ковровская улица,602256,55.5788861,42.0295916
20,Ковровская улица,602256,55.5793878,42.0296070
14,Ковровская улица,602256,55.5784884,42.0303172
7,Владимирская улица,602256,55.5778078,42.0284649
13,Владимирская улица,602256,55.5791526,42.0265131
11,Владимирская улица,602256,55.5786956,42.0271292
3А,Владимирская улица,602256,55.5760109,42.0303544
10,Ковровская улица,602256,55.5773882,42.0311655
5,Владимирская улица,602256,55.5774190,42.0296615
2,Ковровская улица,602256,55.5761263,42.0322127
85А,Московская улица,602256,55.5755784,42.0322563
1,Владимирская улица,602256,55.5756856,42.0313566
5,Радиозаводское шоссе,602264,55.5597635,42.0506228
23,Московская улица,602267,55.5779965,42.0459828
28,Московская улица,602267,55.5775592,42.0462322
40,Красногвардейская улица,602265,55.5685762,42.0574282
65,улица Артёма,602265,55.5668521,42.0466395
78А,Красногвардейская улица,602265,55.5664830,42.0462741
78,Красногвардейская улица,602265,55.5665791,42.0455313
80,Красногвардейская улица,602265,55.5663040,42.0448661
82,Красногвардейская улица,602265,55.5661836,42.0441121
16,улица Куликова,602251,55.5689546,42.0407776
16А,улица Куликова,602251,55.5686237,42.0412257
20,улица Куликова,602251,55.5682606,42.0414205
79,улица Лакина,602265,55.5689095,42.0423608
77,улица Лакина,602265,55.5690438,42.0430625
70,Комсомольская улица,602251,55.5695980,42.0437090
39А,улица Артёма,602251,55.5697695,42.0445168
39,улица Артёма,602251,55.5692863,42.0448665
41,Комсомольская улица,602251,55.5700628,42.0435587
31,улица Артёма,602251,55.5702247,42.0443402
29А,улица Артёма,602251,55.5705217,42.0440977
71,улица Карла Маркса,602251,55.5721420,42.0397737
69А,улица Карла Маркса,602251,55.5722735,42.0405739
69,улица Карла Маркса,602251,55.5723917,42.0410348
67,улица Карла Маркса,602251,55.5724255,42.0412442
65,улица Карла Маркса,602251,55.5726648,42.0418927
78,улица Воровского,602251,55.5735634,42.0413925
80,улица Воровского,602251,55.5735093,42.0410885
71А,улица Воровского,602267,55.5746248,42.0424788
75,улица Воровского,602251,55.5738714,42.0411484
15,улица Артёма,602251,55.5743073,42.0413067
56,Советская улица,602251,55.5739102,42.0389229
56А,Советская улица,602251,55.5741567,42.0379317
82,Московская улица,602251,55.5753672,42.0367337
73А,Советская улица,602251,55.5747293,42.0371634
69,Советская улица,602251,55.5750414,42.0383425
57А,Советская улица,602251,55.5752163,42.0392676
11,улица Артёма,602267,55.5755085,42.0404006
51,Советская улица,602251,55.5750689,42.0402598
62А,Московская улица,602267,55.5760803,42.0398883
73,Советская улица,602251,55.5745372,42.0376749
43,Московская улица,602267,55.5770912,42.0414507
39,Московская улица,602267,55.5770626,42.0422904
37,Московская улица,602267,55.5774812,42.0419211
35А,Московская улица,602267,55.5774898,42.0428890
33,Московская улица,602267,55.5775259,42.0435793
9,улица Свердлова,602267,55.5779146,42.0434157
34,Коммунистическая улица,602267,55.5781828,42.0423797
36,Коммунистическая улица,602267,55.5779433,42.0414530
38,Коммунистическая улица,602267,55.5777176,42.0406848
40,Коммунистическая улица,602267,55.5774200,42.0400292
67,Московская улица,602267,55.5760117,42.0377365
7,улица Ремесленная Слободка,602256,55.5779419,42.0369022
5,улица Ремесленная Слободка,602256,55.5784510,42.0370597
4,улица Ремесленная Слободка,602256,55.5783897,42.0373720
3,улица Ремесленная Слободка,602256,55.5783661,42.0377747
2,улица Ремесленная Слободка,602256,55.5783251,42.0381989
1,улица Ремесленная Слободка,602256,55.5783041,42.0384619
51,Коммунистическая улица,602267,55.5774165,42.0393248
8,улица Строителей,602256,55.5800053,42.0372871
6,улица Строителей,602256,55.5799659,42.0381375
4,улица Строителей,602256,55.5799158,42.0391224
2,улица Строителей,602256,55.5798793,42.0397418
1,улица Строителей,602256,55.5802537,42.0402177
5,улица Строителей,602256,55.5802799,42.0391070
5А,улица Строителей,602256,55.5802939,42.0385491
7,улица Строителей,602256,55.5803297,42.0380610
9,улица Строителей,602256,55.5803615,42.0374139
7А,улица Строителей,602256,55.5806280,42.0379789
41А,Красноармейская улица,602267,55.5797504,42.0421401
1,улица Свердлова,602267,55.5792843,42.0422772
5,улица Свердлова,602267,55.5788864,42.0426764
37,Коммунистическая улица,602267,55.5786758,42.0428513
39,Коммунистическая улица,602267,55.5785680,42.0422686
41,Коммунистическая улица,602267,55.5783526,42.0415525
43А,Коммунистическая улица,602267,55.5790414,42.0405224
19А,Ковровская улица,602256,55.5815072,42.0288461
19,Ковровская улица,602256,55.5812871,42.0290187
17,Ковровская улица,602256,55.5810441,42.0292038
15,Ковровская улица,602256,55.5808342,42.0294022
11,Ковровская улица,602256,55.5804160,42.0297039
10,улица Чернышевского,602256,55.5812696,42.0331686
8,улица Чернышевского,602256,55.5811947,42.0340268
6,улица Чернышевского,602256,55.5811878,42.0345388
4,улица Чернышевского,602256,55.5811619,42.0349691
2,улица Чернышевского,602256,55.5811406,42.0352661
24,улица Войкова,602256,55.5811040,42.0358240
22,улица Войкова,602256,55.5808730,42.0358109
20,улица Войкова,602256,55.5806259,42.0357402
20А,улица Войкова,602256,55.5805681,42.0355517
2,Колхозная улица,602256,55.5806521,42.0348780
3,Колхозная улица,602256,55.5806011,42.0346283
12,улица Строителей,602256,55.5803143,42.0345334
10,улица Строителей,602256,55.5801896,42.0347685
18,улица Войкова,602256,55.5802643,42.0354687
16,улица Войкова,602256,55.5800837,42.0356216
14,улица Войкова,602256,55.5799203,42.0355531
12,улица Войкова,602256,55.5797090,42.0355072
2,улица Войкова,602256,55.5786397,42.0353769
18,улица Ремесленная Слободка,602256,55.5782211,42.0318375
9,Ковровская улица,602256,55.5780603,42.0315307
7,Ковровская улица,602256,55.5778260,42.0316800
2А,улица Сурикова,602256,55.5781268,42.0347517
2,улица Сурикова,602256,55.5779444,42.0340817
4,улица Сурикова,602256,55.5777790,42.0334800
6,улица Сурикова,602256,55.5776020,42.0328549
5,Ковровская улица,602256,55.5772394,42.0321698
3,Ковровская улица,602256,55.5768417,42.0324975
1,Ковровская улица,602256,55.5764814,42.0327891
1А,Ковровская улица,602256,55.5759668,42.0332855
85,Московская улица,602256,55.5763201,42.0338828
75,Московская улица,602256,55.5765902,42.0347117
2А,улица Войкова,602256,55.5770177,42.0350366
2Б,улица Войкова,602256,55.5775019,42.0351774
2В,улица Войкова,602256,55.5779697,42.0352590
85Б,Московская улица,602256,55.5755195,42.0307200
4,Ковровская улица,602256,55.5766399,42.0315172
3,Владимирская улица,602256,55.5768178,42.0299354
8,Ковровская улица,602256,55.5769649,42.0313153
19,улица Маяковского,602256,55.5791193,42.0289018
20,улица Маяковского,602256,55.5790909,42.0282883
22,улица Маяковского,602256,55.5793205,42.0281965
24,улица Маяковского,602256,55.5794859,42.0280168
18,Колхозная улица,602256,55.5795544,42.0272867
20,Колхозная улица,602256,55.5795101,42.0269991
16,Колхозная улица,602256,55.5796016,42.0275486
93,Московская улица,602254,55.5757616,42.0219993
97,Московская улица,602254,55.5751101,42.0201268
101,Московская улица,602256,55.5751557,42.0177206
15,бульвар Тихомирова,602266,55.5797988,42.0171726
15А,бульвар Тихомирова,602266,55.5801611,42.0177267
70А,Советская улица,602251,55.5731404,42.0339797
70,Советская улица,602251,55.5729044,42.0330439
103,улица Воровского,602251,55.5722280,42.0334324
101,улица Воровского,602251,55.5723785,42.0343388
99,улица Воровского,602251,55.5725082,42.0349292
97,улица Воровского,602251,55.5725991,42.0355426
66,Советская улица,602251,55.5730281,42.0351555
1,улица Куликова,602251,55.5731090,42.0357270
3,улица Куликова,602251,55.5727566,42.0360737
5,улица Куликова,602251,55.5723241,42.0365212
7,улица Куликова,602251,55.5719711,42.0368092
94,улица Воровского,602251,55.5722173,42.0359539
96,улица Воровского,602251,55.5720091,42.0353406
98,улица Воровского,602251,55.5718778,42.0347115
7А,улица Куликова,602251,55.5710318,42.0362237
81,улица Мечникова,602251,55.5703358,42.0376998
83,улица Мечникова,602251,55.5701823,42.0366705
85,улица Мечникова,602251,55.5699676,42.0358302
11,улица Куликова,602251,55.5705152,42.0382001
9,улица Куликова,602251,55.5708579,42.0378142
3,Парковая улица,602251,55.5726564,42.0312452
5,Парковая улица,602251,55.5723261,42.0314821
11,Парковая улица,602251,55.5712530,42.0330364
17,Парковая улица,602251,55.5705341,42.0328169
15,Парковая улица,602251,55.5709085,42.0333373
19,Парковая улица,602251,55.5704513,42.0334263
21,Парковая улица,602251,55.5701292,42.0341138
25,Парковая улица,602251,55.5695656,42.0347031
27,Парковая улица,602251,55.5689060,42.0352050
29,Парковая улица,602251,55.5686751,42.0353875
31,Парковая улица,602251,55.5682972,42.0356271
35,Парковая улица,602251,55.5677955,42.0367019
33,Парковая улица,602251,55.5681329,42.0364430
86А,улица Лакина,602251,55.5670575,42.0401851
25,улица Куликова,602251,55.5664815,42.0407976
96,Московская улица,602254,55.5742662,42.0266435
1,улица Дзержинского,602254,55.5739566,42.0271565
98,Московская улица,602254,55.5739302,42.0261397
100,Московская улица,602254,55.5739120,42.0247878
3А,улица Дзержинского,602254,55.5733388,42.0276602
5А,улица Дзержинского,602254,55.5726993,42.0281492
2Б,улица Дзержинского,602254,55.5717701,42.0290592
102,Московская улица,602254,55.5742134,42.0243004
13,улица Пушкина,602254,55.5727367,42.0234251
11,улица Пушкина,602254,55.5726576,42.0237125
9,улица Пушкина,602254,55.5725274,42.0239131
7,улица Пушкина,602254,55.5724058,42.0241970
5,улица Пушкина,602254,55.5722583,42.0245254
9,улица Амосова,602254,55.5720453,42.0251189
7,улица Амосова,602254,55.5721942,42.0253594
5,улица Амосова,602254,55.5724266,42.0255743
18,улица Автодора,602254,55.5731567,42.0241990
16,улица Автодора,602254,55.5732637,42.0244958
14,улица Автодора,602254,55.5733984,42.0247643
12,улица Автодора,602254,55.5734126,42.0251071
3,переулок Амосова,602254,55.5732706,42.0262147
1Б,улица Амосова,602254,55.5730720,42.0266053
1А,улица Амосова,602254,55.5729044,42.0263483
1,улица Амосова,602254,55.5727246,42.0259921
3,улица Амосова,602254,55.5726419,42.0256717
4,улица Амосова,602254,55.5728367,42.0270616
6,улица Амосова,602254,55.5727454,42.0268130
8,улица Амосова,602254,55.5725185,42.0264830
10,улица Амосова,602254,55.5723219,42.0262355
14,улица Амосова,602254,55.5720141,42.0258283
16,улица Амосова,602254,55.5718414,42.0255253
3,улица Пушкина,602254,55.5715752,42.0260672
1,улица Пушкина,602254,55.5714885,42.0264101
13,улица Дзержинского,602254,55.5711626,42.0269796
11,улица Дзержинского,602254,55.5713890,42.0272380
9,улица Дзержинского,602254,55.5715039,42.0274788
7,улица Дзержинского,602254,55.5716265,42.0276474
7Б,улица Дзержинского,602254,55.5717085,42.0277684
5,улица Дзержинского,602254,55.5720398,42.0276465
110,Московская улица,602254,55.5739038,42.0192053
19,улица Щербакова,602252,55.5727760,42.0181398
17,улица Щербакова,602252,55.5722351,42.0184239
15,улица Щербакова,602252,55.5723804,42.0189210
13,улица Щербакова,602252,55.5725348,42.0195539
9,улица Щербакова,602252,55.5727292,42.0202501
11,улица Щербакова,602252,55.5728727,42.0196804
7,улица Щербакова,602252,55.5729532,42.0209637
5,улица Щербакова,602252,55.5731810,42.0218753
4,улица Щербакова,602252,55.5716750,42.0182393
6,улица Щербакова,602252,55.5712414,42.0187038
4А,улица Щербакова,602252,55.5723424,42.0210812
2,улица Щербакова,602252,55.5728578,42.0222348
14,улица Пушкина,602254,55.5724805,42.0231439
12,улица Пушкина,602254,55.5723456,42.0233649
10,улица Пушкина,602254,55.5722634,42.0236606
8,улица Пушкина,602254,55.5721614,42.0239153
6,улица Пушкина,602254,55.5720300,42.0241640
11,улица Амосова,602254,55.5717232,42.0247239
13,улица Амосова,602254,55.5715769,42.0244849
15,улица Амосова,602254,55.5713967,42.0242626
15А,улица Амосова,602254,55.5715425,42.0241159
17,улица Амосова,602254,55.5712683,42.0240998
19,улица Амосова,602254,55.5711803,42.0237156
21,улица Амосова,602254,55.5709530,42.0235638
9,улица Фрунзе,602254,55.5712010,42.0230024
11,улица Фрунзе,602254,55.5714366,42.0229065
15,улица Фрунзе,602254,55.5715748,42.0222061
17,улица Фрунзе,602254,55.5716702,42.0219826
19,улица Фрунзе,602254,55.5718064,42.0217251
21,улица Фрунзе,602254,55.5718794,42.0214938
22,улица Автодора,602254,55.5721762,42.0220509
20,улица Автодора,602254,55.5723040,42.0223225
15,Нижегородская улица,602254,55.5691792,42.0276365
17,Нижегородская улица,602254,55.5685649,42.0268695
19,Нижегородская улица,602254,55.5683944,42.0266254
21,Нижегородская улица,602254,55.5681752,42.0263353
23,Нижегородская улица,602254,55.5680217,42.0261093
25,Нижегородская улица,602254,55.5678808,42.0259382
1,улица Куйбышева,602254,55.5681185,42.0252719
3,улица Куйбышева,602254,55.5682377,42.0250243
26,Нижегородская улица,602254,55.5677151,42.0263275
24,Нижегородская улица,602254,55.5678338,42.0264940
22,Нижегородская улица,602254,55.5680207,42.0267312
20,Нижегородская улица,602254,55.5683052,42.0271529
18,Нижегородская улица,602254,55.5684395,42.0273650
16,Нижегородская улица,602254,55.5685774,42.0275478
14,Нижегородская улица,602254,55.5687468,42.0277574
12,Нижегородская улица,602254,55.5690278,42.0281700
10,Нижегородская улица,602254,55.5692065,42.0283908
25,улица Куйбышева,602254,55.5708508,42.0190960
23,улица Куйбышева,602254,55.5706709,42.0195571
21,улица Куйбышева,602254,55.5705602,42.0197744
19,улица Куйбышева,602254,55.5704924,42.0199922
17,улица Куйбышева,602254,55.5703391,42.0202424
15,улица Куйбышева,602254,55.5702380,42.0205358
11,улица Куйбышева,602254,55.5700028,42.0210467
9,улица Куйбышева,602254,55.5699975,42.0212928
35,улица Амосова,602254,55.5696361,42.0218534
33,улица Амосова,602254,55.5698082,42.0220676
31,улица Амосова,602254,55.5699522,42.0222742
29Б,улица Амосова,602254,55.5701391,42.0225319
27,улица Амосова,602254,55.5703487,42.0228224
25,улица Амосова,602254,55.5705318,42.0230875
23,улица Амосова,602254,55.5706936,42.0233101
10,улица Фрунзе,602254,55.5709543,42.0226615
12,улица Фрунзе,602254,55.5710462,42.0224697
14,улица Фрунзе,602254,55.5711418,42.0222271
16,улица Фрунзе,602254,55.5712592,42.0219398
18,улица Фрунзе,602254,55.5714331,42.0216195
20,улица Фрунзе,602254,55.5715062,42.0213874
22,улица Фрунзе,602254,55.5716841,42.0209722
24,улица Автодора,602254,55.5714800,42.0204741
26,улица Автодора,602254,55.5713729,42.0202281
28,улица Автодора,602254,55.5712177,42.0199485
30,улица Автодора,602254,55.5711013,42.0196529
31А,улица Амосова,602254,55.5708104,42.0211988
29А,улица Амосова,602254,55.5705511,42.0217713
30,улица Амосова,602254,55.5704280,42.0237861
8,улица Фрунзе,602254,55.5702498,42.0243084
6А,улица Фрунзе,602254,55.5699715,42.0243576
6,улица Фрунзе,602254,55.5700141,42.0248194
33,улица Дзержинского,602254,55.5693110,42.0244668
35,улица Дзержинского,602254,55.5691137,42.0242314
37,улица Дзержинского,602254,55.5689601,42.0239507
39,улица Дзержинского,602254,55.5687993,42.0236633
5,улица Куйбышева,602254,55.5691372,42.0230908
7,улица Куйбышева,602254,55.5692428,42.0228857
42,улица Амосова,602254,55.5694481,42.0222721
40,улица Амосова,602254,55.5696764,42.0225896
38,улица Амосова,602254,55.5697930,42.0228484
36,улица Амосова,602254,55.5700014,42.0230464
34,улица Амосова,602254,55.5701537,42.0232535
32,улица Амосова,602254,55.5703365,42.0235324
20,улица Куйбышева,602254,55.5703564,42.0189266
41,улица Амосова,602254,55.5695661,42.0194987
14,улица Куйбышева,602254,55.5701275,42.0199014
12,улица Куйбышева,602254,55.5700265,42.0201248
10,улица Куйбышева,602254,55.5698917,42.0204394
8,улица Куйбышева,602254,55.5697849,42.0206845
6,улица Куйбышева,602254,55.5696354,42.0209930
39,улица Амосова,602254,55.5690237,42.0210289
43,улица Амосова,602254,55.5688403,42.0205110
43А,улица Амосова,602254,55.5687605,42.0203917
45,улица Амосова,602254,55.5687350,42.0201258
15,улица Машинистов,602254,55.5683788,42.0196362
17,улица Машинистов,602254,55.5685072,42.0193055
19,улица Машинистов,602254,55.5686577,42.0190693
23,улица Машинистов,602254,55.5689003,42.0185393
49А,улица Дзержинского,602254,55.5668464,42.0208416
4,улица Машинистов,602254,55.5674316,42.0208891
6,улица Машинистов,602254,55.5675054,42.0207182
8,улица Машинистов,602254,55.5677158,42.0202422
56,улица Амосова,602254,55.5678137,42.0200665
60,улица Амосова,602254,55.5675116,42.0196151
62,улица Амосова,602254,55.5669966,42.0190539
47,улица Амосова,602254,55.5679504,42.0195281
49,улица Амосова,602254,55.5677880,42.0193276
51,улица Амосова,602254,55.5676394,42.0191496
12,улица Машинистов,602254,55.5683971,42.0186743
6,проезд Машинистов,602254,55.5683590,42.0175298
8,проезд Машинистов,602254,55.5681678,42.0172850
6,Вокзальная улица,602254,55.5673530,42.0174193
51,улица Дзержинского,602254,55.5660237,42.0191613
61,улица Амосова,602251,55.5665286,42.0173642
1,улица Филатова,602254,55.5663754,42.0161294
10,Вокзальная улица,602254,55.5669854,42.0171848
9,Вокзальная улица,602254,55.5671642,42.0167825
8,Вокзальная улица,602254,55.5673303,42.0163936
3,улица Филатова,602254,55.5673607,42.0152966
1Б,улица Филатова,602254,55.5677884,42.0148898
1А,улица Филатова,602254,55.5682586,42.0149001
14А,Эксплуатационная улица,602254,55.5644319,42.0216623
13,Эксплуатационная улица,602254,55.5647296,42.0209917
15,Эксплуатационная улица,602254,55.5643162,42.0207397
16,Эксплуатационная улица,602254,55.5643798,42.0200509
58,улица Дзержинского,602254,55.5651048,42.0197421
17,Эксплуатационная улица,602254,55.5645105,42.0189987
6,Привокзальная площадь имени Н.Ф. Гастелло,602254,55.5643756,42.0184573
24В,улица Куйбышева,602252,55.5727288,42.0163745
24А,улица Куйбышева,602252,55.5723367,42.0166712
23,улица Щербакова,602252,55.5718500,42.0170556
25,улица Щербакова,602252,55.5716477,42.0162924
5,Кооперативный проезд,602252,55.5726403,42.0142250
10,Кооперативный проезд,602252,55.5730023,42.0119268
28,улица Куйбышева,602266,55.5750455,42.0164471
30,улица Куйбышева,602266,55.5753604,42.0156970
111Б,Московская улица,602266,55.5751997,42.0149636
32А,улица Куйбышева,602266,55.5759531,42.0155367
2А,улица Чкалова,602266,55.5764609,42.0161049
107А,Московская улица,602266,55.5756339,42.0131842
13,Кооперативная улица,602266,55.5774833,42.0145060
117,Московская улица,602266,55.5752018,42.0096339
13,улица Лаврентьева,602266,55.5781048,42.0088789
15,улица Лаврентьева,602266,55.5780853,42.0093594
6А,улица Чкалова,602266,55.5770416,42.0087462
4А,улица Чкалова,602266,55.5770355,42.0092185
11А,улица Чкалова,602266,55.5770138,42.0107439
16А,улица Чкалова,602266,55.5770016,42.0112374
20А,улица Чкалова,602266,55.5769973,42.0116711
5А,улица Чкалова,602266,55.5771515,42.0097339
7А,улица Чкалова,602266,55.5774209,42.0097429
8А,улица Чкалова,602266,55.5776841,42.0097487
9А,улица Чкалова,602266,55.5779413,42.0097729
10,Кооперативная улица,602266,55.5784005,42.0117884
15,Кооперативная улица,602266,55.5792735,42.0130598
11,3-й Лесной проезд,602266,55.5825776,42.0115021
12,2-й Лесной проезд,602266,55.5824866,42.0118009
16,2-й Лесной проезд,602266,55.5828667,42.0123362
18,2-й Лесной проезд,602266,55.5830488,42.0125604
20,2-й Лесной проезд,602266,55.5832478,42.0128289
19,3-й Лесной проезд,602266,55.5833543,42.0125200
17/2,3-й Лесной проезд,602266,55.5831698,42.0122951
15,3-й Лесной проезд,602266,55.5829569,42.0120226
13,3-й Лесной проезд,602266,55.5827924,42.0117740
17,2-й Лесной проезд,602266,55.5825443,42.0123915
19,2-й Лесной проезд,602266,55.5826627,42.0125514
21,2-й Лесной проезд,602266,55.5827906,42.0127284
23,2-й Лесной проезд,602266,55.5829531,42.0129261
25,2-й Лесной проезд,602266,55.5831292,42.0131162
26,1-й Лесной проезд,602266,55.5829837,42.0134883
24,1-й Лесной проезд,602266,55.5827722,42.0132876
22,1-й Лесной проезд,602266,55.5826588,42.0131139
20,1-й Лесной проезд,602266,55.5824775,42.0129665
17,1-й Лесной проезд,602266,55.5826257,42.0136236
19,1-й Лесной проезд,602266,55.5828036,42.0138716
56,Кооперативная улица,602266,55.5826888,42.0142027
54,Кооперативная улица,602266,55.5824817,42.0139442
52,Кооперативная улица,602266,55.5822941,42.0137081
8,Владимирское шоссе,602266,55.5841112,42.0147537
34,Кленовая улица,602266,55.5816836,42.0172538
36,Кленовая улица,602266,55.5817562,42.0162370
2/52,Владимирское шоссе,602266,55.5826636,42.0183452
2/54,Владимирское шоссе,602266,55.5828324,42.0179108
6А,Владимирское шоссе,602266,55.5832810,42.0168042
4/58,Владимирское шоссе,602266,55.5834268,42.0164049
6,Владимирское шоссе,602266,55.5827943,42.0163283
6Б,Владимирское шоссе,602266,55.5825040,42.0167005
1,Дорожный проезд,602266,55.5825823,42.0173482
3,Школьная улица,602256,55.5828453,42.0250638
5,Школьная улица,602256,55.5829303,42.0257566
66,Ковровская улица,602256,55.5831048,42.0260407
64,Ковровская улица,602256,55.5831511,42.0262767
62,Ковровская улица,602256,55.5832422,42.0267556
10,Солнечная улица,602256,55.5828775,42.0270348
8,Солнечная улица,602256,55.5828033,42.0266177
60,Ковровская улица,602256,55.5830857,42.0268949
6,Солнечная улица,602256,55.5827291,42.0263513
4,Солнечная улица,602256,55.5826479,42.0260074
2,Солнечная улица,602256,55.5825975,42.0257531
2,Школьная улица,602256,55.5826636,42.0252004
8,Школьная улица,602256,55.5830536,42.0249069
7,Школьная улица,602256,55.5831696,42.0253484
6,Школьная улица,602256,55.5832280,42.0255686
68,Ковровская улица,602256,55.5832949,42.0258941
70,Ковровская улица,602256,55.5833600,42.0261314
72,Ковровская улица,602256,55.5834684,42.0265764
74,Ковровская улица,602256,55.5836555,42.0264182
9,Школьная улица,602256,55.5832518,42.0247753
10,Школьная улица,602256,55.5833604,42.0246671
11,Школьная улица,602256,55.5835259,42.0250520
12,Школьная улица,602256,55.5835826,42.0253246
80,Ковровская улица,602256,55.5836343,42.0255786
78,Ковровская улица,602256,55.5837410,42.0258481
76,Ковровская улица,602256,55.5838333,42.0262367
14,Школьная улица,602256,55.5836162,42.0244878
15,Школьная улица,602256,55.5837585,42.0243557
16,Школьная улица,602256,55.5839335,42.0242176
17,Школьная улица,602256,55.5839896,42.0247637
13,Школьная улица,602256,55.5837693,42.0249529
82,Ковровская улица,602256,55.5838388,42.0252890
18,Школьная улица,602256,55.5841123,42.0251350
92,Ковровская улица,602256,55.5842089,42.0255226
90,Ковровская улица,602256,55.5843814,42.0258757
88,Ковровская улица,602256,55.5841717,42.0260068
86,Ковровская улица,602256,55.5840159,42.0261425
84,Ковровская улица,602256,55.5839471,42.0256629
21,Школьная улица,602256,55.5841071,42.0240752
46,Юбилейная улица,602256,55.5843649,42.0239361
44,Юбилейная улица,602256,55.5844969,42.0243952
20,Школьная улица,602256,55.5842832,42.0244439
42,Юбилейная улица,602256,55.5845650,42.0247347
40,Юбилейная улица,602256,55.5846521,42.0250751
38,Юбилейная улица,602256,55.5847770,42.0255523
96,Ковровская улица,602256,55.5845701,42.0257024
94,Ковровская улица,602256,55.5844201,42.0253480
19,Школьная улица,602256,55.5843145,42.0249820
53,Юбилейная улица,602256,55.5846244,42.0236630
22,Школьная улица,602256,55.5848635,42.0234579
23,Школьная улица,602256,55.5849954,42.0239268
25,Школьная улица,602256,55.5850899,42.0243400
100,Ковровская улица,602256,55.5851739,42.0246856
98,Ковровская улица,602256,55.5852761,42.0251523
45,Юбилейная улица,602256,55.5850352,42.0252819
47,Юбилейная улица,602256,55.5848952,42.0248914
49,Юбилейная улица,602256,55.5848249,42.0245975
51,Юбилейная улица,602256,55.5847160,42.0241681
31,Школьная улица,602256,55.5850664,42.0233309
29,Школьная улица,602256,55.5852285,42.0238808
27,Школьная улица,602256,55.5852917,42.0241658
102,Ковровская улица,602256,55.5853788,42.0244778
104,Ковровская улица,602256,55.5854830,42.0250358
106,Ковровская улица,602256,55.5856255,42.0249017
108,Ковровская улица,602256,55.5858055,42.0247575
110,Ковровская улица,602256,55.5856763,42.0242740
39,Школьная улица,602256,55.5855930,42.0239641
37,Школьная улица,602256,55.5854919,42.0236450
35,Школьная улица,602256,55.5853675,42.0231067
33,Школьная улица,602256,55.5852306,42.0232069
45,Школьная улица,602256,55.5855795,42.0229741
47,Школьная улица,602256,55.5857793,42.0228309
49,Школьная улица,602256,55.5859377,42.0226582
51,Школьная улица,602256,55.5860364,42.0231698
53,Школьная улица,602256,55.5861588,42.0235553
43,Школьная улица,602256,55.5857240,42.0234323
41,Школьная улица,602256,55.5858286,42.0237707
112,Ковровская улица,602256,55.5859200,42.0241171
114,Ковровская улица,602256,55.5860261,42.0245951
118,Ковровская улица,602256,55.5863618,42.0242547
116,Ковровская улица,602256,55.5861925,42.0244898
24,Школьная улица,602266,55.5847583,42.0230856
55,Юбилейная улица,602266,55.5844940,42.0232875
57,Юбилейная улица,602266,55.5844078,42.0227864
26,Школьная улица,602266,55.5846513,42.0226105
59,Юбилейная улица,602266,55.5842703,42.0223635
2,улица Станюковича,602266,55.5844878,42.0221240
61,Юбилейная улица,602266,55.5841446,42.0218874
1,улица Станюковича,602266,55.5843901,42.0217209
3,улица Зарубина,602266,55.5843165,42.0212517
2,улица Зарубина,602266,55.5842088,42.0208566
1,улица Зарубина,602266,55.5840740,42.0203805
67,Юбилейная улица,602266,55.5838451,42.0206139
65,Юбилейная улица,602266,55.5839518,42.0210826
63,Юбилейная улица,602266,55.5840573,42.0215173
25,улица Зарубина,602266,55.5838595,42.0199848
24,улица Зарубина,602266,55.5841240,42.0197535
22,улица Зарубина,602266,55.5844664,42.0195041
21,улица Зарубина,602266,55.5846578,42.0193497
20,улица Зарубина,602266,55.5848293,42.0192601
19,улица Зарубина,602266,55.5849965,42.0191028
18,улица Зарубина,602266,55.5849206,42.0186458
8,улица Зарубина,602266,55.5845982,42.0199853
7,улица Зарубина,602266,55.5844729,42.0200861
6,улица Зарубина,602266,55.5842326,42.0202649
5,улица Зарубина,602266,55.5844371,42.0206947
9,улица Зарубина,602266,55.5847177,42.0205268
10,улица Зарубина,602266,55.5848090,42.0208440
7,улица Станюковича,602266,55.5849256,42.0212914
3,улица Станюковича,602266,55.5845890,42.0215335
5,улица Станюковича,602266,55.5847825,42.0213872
13,улица Зарубина,602266,55.5848029,42.0198209
14,улица Зарубина,602266,55.5850039,42.0197182
15,улица Зарубина,602266,55.5851439,42.0195684
16,улица Зарубина,602266,55.5852547,42.0200437
12,улица Зарубина,602266,55.5849401,42.0202862
11,улица Зарубина,602266,55.5850148,42.0206150
17,улица Зарубина,602266,55.5853293,42.0204633
13,улица Станюковича,602266,55.5854812,42.0208700
11,улица Станюковича,602266,55.5853382,42.0209860
9,улица Станюковича,602266,55.5851671,42.0210991
14,улица Станюковича,602266,55.5855839,42.0213218
12,улица Станюковича,602266,55.5854497,42.0213895
10,улица Станюковича,602266,55.5852596,42.0215767
38,Школьная улица,602266,55.5853695,42.0220164
46,Школьная улица,602266,55.5856903,42.0217612
44,Школьная улица,602266,55.5858357,42.0222099
42,Школьная улица,602256,55.5856703,42.0223484
40,Школьная улица,602266,55.5854544,42.0225492
34,Школьная улица,602266,55.5853141,42.0226386
32,Школьная улица,602266,55.5851421,42.0227750
30,Школьная улица,602266,55.5849366,42.0229188
28,Школьная улица,602266,55.5848803,42.0224573
4,улица Станюковича,602266,55.5847103,42.0220753
6,улица Станюковича,602266,55.5848960,42.0218246
8,улица Станюковича,602266,55.5850493,42.0217082
36,Школьная улица,602266,55.5851549,42.0221627
85,Ковровская улица,602256,55.5865066,42.0248984
87,Ковровская улица,602256,55.5866108,42.0253536
40,Фестивальная улица,602256,55.5867219,42.0257460
38,Фестивальная улица,602256,55.5865596,42.0258924
36,Фестивальная улица,602256,55.5863530,42.0260604
79,Ковровская улица,602256,55.5862671,42.0255990
81,Ковровская улица,602256,55.5861584,42.0252248
83,Ковровская улица,602256,55.5863484,42.0250070
75,Ковровская улица,602256,55.5859549,42.0253262
73,Ковровская улица,602256,55.5858018,42.0254588
34,Фестивальная улица,602256,55.5861677,42.0261753
77,Ковровская улица,602256,55.5860582,42.0258257
69,Ковровская улица,602256,55.5857742,42.0260574
32,Фестивальная улица,602256,55.5860032,42.0262771
30,Фестивальная улица,602256,55.5858249,42.0264643
71,Ковровская улица,602256,55.5855904,42.0256724
65,Ковровская улица,602256,55.5854126,42.0257660
67,Ковровская улица,602256,55.5855452,42.0261247
28,Фестивальная улица,602256,55.5856254,42.0265544
43,Юбилейная улица,602256,55.5852062,42.0259621
41,Юбилейная улица,602256,55.5852876,42.0264064
39,Юбилейная улица,602256,55.5853858,42.0267829
24,Фестивальная улица,602256,55.5851381,42.0269796
34,Юбилейная улица,602256,55.5850482,42.0265574
36,Юбилейная улица,602256,55.5849360,42.0262295
61,Ковровская улица,602256,55.5846802,42.0263130
59,Ковровская улица,602256,55.5847618,42.0267786
22,Фестивальная улица,602256,55.5849046,42.0270952
55,Ковровская улица,602256,55.5844740,42.0264890
53,Ковровская улица,602256,55.5843460,42.0266242
51,Ковровская улица,602256,55.5841458,42.0267656
49,Ковровская улица,602256,55.5842559,42.0271626
57,Ковровская улица,602256,55.5845710,42.0269794
20,Фестивальная улица,602256,55.5846927,42.0272849
18,Фестивальная улица,602256,55.5845457,42.0274474
16,Фестивальная улица,602256,55.5843871,42.0275758
45,Ковровская улица,602256,55.5839755,42.0268695
43,Ковровская улица,602256,55.5837506,42.0270273
41,Ковровская улица,602256,55.5835933,42.0271637
39,Ковровская улица,602256,55.5837186,42.0276018
10,Фестивальная улица,602256,55.5838147,42.0280010
12,Фестивальная улица,602256,55.5839917,42.0278381
14,Фестивальная улица,602256,55.5841378,42.0277245
47,Ковровская улица,602256,55.5840555,42.0273708
35,Ковровская улица,602256,55.5834210,42.0273123
37,Ковровская улица,602256,55.5834968,42.0277495
8,Фестивальная улица,602256,55.5835731,42.0281867
6,Фестивальная улица,602256,55.5834649,42.0282876
4,Фестивальная улица,602256,55.5832379,42.0284250
29,Ковровская улица,602256,55.5832163,42.0279532
33,Ковровская улица,602256,55.5832460,42.0274180
31,Ковровская улица,602256,55.5830473,42.0276169
2,Фестивальная улица,602256,55.5830707,42.0285748
11,Солнечная улица,602256,55.5828440,42.0287296
12,Солнечная улица,602256,55.5827127,42.0282087
27,Ковровская улица,602256,55.5829415,42.0280146
4,улица Зарубина,602266,55.5845464,42.0210465
57,Фестивальная улица,602256,55.5867817,42.0262138
55,Фестивальная улица,602256,55.5866714,42.0263135
53,Фестивальная улица,602256,55.5864545,42.0264748
59,Фестивальная улица,602256,55.5869701,42.0267332
51,Фестивальная улица,602256,55.5866104,42.0269234
63,Молодёжная улица,602256,55.5870224,42.0270651
55,Молодёжная улица,602256,55.5866912,42.0272991
61,Молодёжная улица,602256,55.5871240,42.0275142
57,Молодёжная улица,602256,55.5868112,42.0277711
59,Молодёжная улица,602256,55.5869280,42.0276850
47,Фестивальная улица,602256,55.5862800,42.0266007
45,Фестивальная улица,602256,55.5861313,42.0267321
43,Фестивальная улица,602256,55.5859332,42.0269059
49,Фестивальная улица,602256,55.5863818,42.0270601
41,Фестивальная улица,602256,55.5860990,42.0273432
53,Молодёжная улица,602256,55.5864806,42.0274697
45,Молодёжная улица,602256,55.5861792,42.0276615
51,Молодёжная улица,602256,55.5865777,42.0279501
49,Молодёжная улица,602256,55.5864283,42.0280609
47,Молодёжная улица,602256,55.5862643,42.0281988
37,Фестивальная улица,602256,55.5857447,42.0269998
37А,Юбилейная улица,602256,55.5855636,42.0271487
39,Фестивальная улица,602256,55.5858755,42.0274800
43,Молодёжная улица,602256,55.5859693,42.0278089
41,Молодёжная улица,602256,55.5860307,42.0283554
37,Юбилейная улица,602256,55.5855964,42.0276957
35,Юбилейная улица,602256,55.5857014,42.0280652
39,Молодёжная улица,602256,55.5858074,42.0285358
32,Юбилейная улица,602256,55.5852326,42.0274097
35,Фестивальная улица,602256,55.5850087,42.0276310
30,Юбилейная улица,602256,55.5853683,42.0278857
28,Юбилейная улица,602256,55.5854419,42.0281987
26,Юбилейная улица,602256,55.5855614,42.0286558
37,Молодёжная улица,602256,55.5853510,42.0288776
35,Молодёжная улица,602256,55.5851758,42.0284671
35А,Фестивальная улица,602256,55.5851156,42.0281647
31,Молодёжная улица,602256,55.5851083,42.0290600
29,Молодёжная улица,602256,55.5849754,42.0291577
27,Молодёжная улица,602256,55.5847872,42.0293282
25,Молодёжная улица,602256,55.5846959,42.0288632
25,Фестивальная улица,602256,55.5846037,42.0285155
27,Фестивальная улица,602256,55.5844602,42.0280322
29,Фестивальная улица,602256,55.5846097,42.0278799
31,Фестивальная улица,602256,55.5848043,42.0277285
33,Фестивальная улица,602256,55.5848831,42.0282852
33,Молодёжная улица,602256,55.5850154,42.0286652
21,Фестивальная улица,602256,55.5842344,42.0281729
19,Фестивальная улица,602256,55.5840877,42.0282969
17,Фестивальная улица,602256,55.5839310,42.0284848
23,Фестивальная улица,602256,55.5843797,42.0286835
23,Молодёжная улица,602256,55.5844591,42.0290214
15,Фестивальная улица,602256,55.5840767,42.0289073
15,Молодёжная улица,602256,55.5841736,42.0292502
21,Молодёжная улица,602256,55.5845649,42.0294907
19,Молодёжная улица,602256,55.5844176,42.0296144
17,Молодёжная улица,602256,55.5842751,42.0297188
11,Фестивальная улица,602256,55.5837389,42.0285985
9,Фестивальная улица,602256,55.5835659,42.0287029
7,Фестивальная улица,602256,55.5833829,42.0288429
13,Фестивальная улица,602256,55.5838295,42.0290472
5,Фестивальная улица,602256,55.5835780,42.0293097
13,Молодёжная улица,602256,55.5839255,42.0294275
5,Молодёжная улица,602256,55.5836691,42.0296326
11,Молодёжная улица,602256,55.5840182,42.0299257
7,Молодёжная улица,602256,55.5837196,42.0301650
9,Молодёжная улица,602256,55.5838890,42.0300254
1,Фестивальная улица,602256,55.5831789,42.0289815
14,Солнечная улица,602256,55.5829748,42.0291784
3,Фестивальная улица,602256,55.5833322,42.0294779
16,Солнечная улица,602256,55.5830888,42.0296849
3,Молодёжная улица,602256,55.5834141,42.0298154
18,Солнечная улица,602256,55.5831467,42.0300483
1,Молодёжная улица,602256,55.5835359,42.0302913
20,Солнечная улица,602256,55.5832863,42.0304701
2,Молодёжная улица,602256,55.5836243,42.0307554
24,Солнечная улица,602256,55.5834057,42.0310755
26,Солнечная улица,602256,55.5835366,42.0316165
26,Полевая улица,602256,55.5838212,42.0315887
6,Молодёжная улица,602256,55.5841504,42.0304168
4,Молодёжная улица,602256,55.5838614,42.0305507
30,Полевая улица,602256,55.5839545,42.0309841
28А,Полевая улица,602256,55.5843570,42.0311239
28,Полевая улица,602256,55.5840800,42.0314222
10,Молодёжная улица,602256,55.5846848,42.0299792
8,Молодёжная улица,602256,55.5844238,42.0300833
6А,Молодёжная улица,602256,55.5844766,42.0305645
32А,Полевая улица,602256,55.5849256,42.0307374
30А,Полевая улица,602256,55.5846563,42.0309673
16,Молодёжная улица,602256,55.5850579,42.0296051
14,Молодёжная улица,602256,55.5849304,42.0297608
20,Молодёжная улица,602256,55.5852898,42.0299370
34,Полевая улица,602256,55.5852843,42.0304460
32,Полевая улица,602256,55.5851119,42.0305834
36А,Полевая улица,602256,55.5850046,42.0301816
18,Молодёжная улица,602256,55.5852540,42.0294687
24,Юбилейная улица,602256,55.5856862,42.0291353
24,Молодёжная улица,602256,55.5855000,42.0292591
22,Юбилейная улица,602256,55.5857891,42.0295613
22,Молодёжная улица,602256,55.5855021,42.0297784
20,Юбилейная улица,602256,55.5858963,42.0299974
38,Полевая улица,602256,55.5856381,42.0301775
26,Молодёжная улица,602256,55.5861183,42.0287657
31,Юбилейная улица,602256,55.5859256,42.0289596
42,Полевая улица,602256,55.5863893,42.0296114
27,Юбилейная улица,602256,55.5861063,42.0297845
29,Юбилейная улица,602256,55.5860223,42.0294048
36,Молодёжная улица,602256,55.5867432,42.0283012
34,Молодёжная улица,602256,55.5865256,42.0284812
32,Молодёжная улица,602256,55.5863162,42.0286385
38,Молодёжная улица,602256,55.5867728,42.0287232
50,Полевая улица,602256,55.5869010,42.0291879
48,Полевая улица,602256,55.5867617,42.0292915
46,Полевая улица,602256,55.5865888,42.0294665
30,Молодёжная улица,602256,55.5865062,42.0290762
52,Полевая улица,602256,55.5871293,42.0290358
54,Полевая улица,602256,55.5873134,42.0289011
56,Полевая улица,602256,55.5874039,42.0288220
48,Молодёжная улица,602256,55.5873321,42.0283335
46,Молодёжная улица,602256,55.5872253,42.0279486
44,Молодёжная улица,602256,55.5871031,42.0280627
42,Молодёжная улица,602256,55.5869141,42.0281841
40,Молодёжная улица,602256,55.5870395,42.0286415
61,Полевая улица,602256,55.5875841,42.0293516
59,Полевая улица,602256,55.5874376,42.0294725
57,Полевая улица,602256,55.5872480,42.0295971
63,Полевая улица,602256,55.5876993,42.0297776
104,улица Крылова,602256,55.5873734,42.0300654
106,улица Крылова,602256,55.5874259,42.0302648
122,улица Крылова,602256,55.5877539,42.0300046
120,улица Крылова,602256,55.5878318,42.0303259
110,улица Крылова,602256,55.5875468,42.0308301
118,улица Крылова,602256,55.5878807,42.0305756
116,улица Крылова,602256,55.5879874,42.0309883
114,улица Крылова,602256,55.5878314,42.0310806
112,улица Крылова,602256,55.5876434,42.0312349
96,улица Крылова,602256,55.5874271,42.0314080
94,улица Крылова,602256,55.5873073,42.0315140
92,улица Крылова,602256,55.5871496,42.0316263
90,улица Крылова,602256,55.5870370,42.0311854
98,улица Крылова,602256,55.5873414,42.0309658
100,улица Крылова,602256,55.5872504,42.0306372
57А,Полевая улица,602256,55.5871769,42.0302857
55,Полевая улица,602256,55.5870290,42.0297363
53,Полевая улица,602256,55.5868974,42.0298966
51,Полевая улица,602256,55.5867051,42.0300153
86,улица Крылова,602256,55.5868578,42.0304652
88,улица Крылова,602256,55.5869528,42.0308001
88А,улица Крылова,602256,55.5868769,42.0318536
84,улица Крылова,602256,55.5868395,42.0313217
82,улица Крылова,602256,55.5867428,42.0309574
82А,улица Крылова,602256,55.5866743,42.0306758
45,Полевая улица,602256,55.5865046,42.0302003
25,Юбилейная улица,602256,55.5862750,42.0304217
23,Юбилейная улица,602256,55.5863807,42.0307952
21,Юбилейная улица,602256,55.5864725,42.0312471
19,Юбилейная улица,602256,55.5865521,42.0315686
80,улица Крылова,602256,55.5866595,42.0320031
78,улица Крылова,602256,55.5863762,42.0322381
18,Юбилейная улица,602256,55.5860292,42.0305704
16,Юбилейная улица,602256,55.5861322,42.0310177
14,Юбилейная улица,602256,55.5862243,42.0313601
76,улица Крылова,602256,55.5862188,42.0323692
74,улица Крылова,602256,55.5860443,42.0319016
72,улица Крылова,602256,55.5859459,42.0315658
70,улица Крылова,602256,55.5858610,42.0311416
43,Полевая улица,602256,55.5858068,42.0307143
41,Полевая улица,602256,55.5855907,42.0309038
39,Полевая улица,602256,55.5854511,42.0310056
37,Полевая улица,602256,55.5852588,42.0311408
68,улица Крылова,602256,55.5856802,42.0314492
66,улица Крылова,602256,55.5857570,42.0318181
54,улица Крылова,602256,55.5854436,42.0319676
64,улица Крылова,602256,55.5858522,42.0321570
56,улица Крылова,602256,55.5855537,42.0323337
58,улица Крылова,602256,55.5856450,42.0327621
60,улица Крылова,602256,55.5858418,42.0326573
62,улица Крылова,602256,55.5860130,42.0324963
42,улица Крылова,602256,55.5854314,42.0329706
40,улица Крылова,602256,55.5853104,42.0330641
38,улица Крылова,602256,55.5850984,42.0332367
36,улица Крылова,602256,55.5850024,42.0327826
34,улица Крылова,602256,55.5849411,42.0325790
32,улица Крылова,602256,55.5848644,42.0322330
30,улица Крылова,602256,55.5848174,42.0320267
31,Полевая улица,602256,55.5846956,42.0315983
33,Полевая улица,602256,55.5848877,42.0314410
35,Полевая улица,602256,55.5850161,42.0313325
50,улица Крылова,602256,55.5851566,42.0317907
48,улица Крылова,602256,55.5851847,42.0319626
46,улица Крылова,602256,55.5852836,42.0322905
44,улица Крылова,602256,55.5853343,42.0324885
47,улица Крылова,602256,55.5881821,42.0316909
49,улица Крылова,602256,55.5882850,42.0320507
9,Юбилейная улица,602256,55.5880586,42.0325777
45,улица Крылова,602256,55.5878802,42.0317936
11,Юбилейная улица,602256,55.5877642,42.0328011
13,Юбилейная улица,602256,55.5874970,42.0330492
43,улица Крылова,602256,55.5875255,42.0318943
15,Юбилейная улица,602256,55.5871233,42.0332925
41,улица Крылова,602256,55.5872532,42.0320972
17,Юбилейная улица,602256,55.5868957,42.0328319
39,улица Крылова,602256,55.5869661,42.0322857
7,Юбилейная улица,602256,55.5871466,42.0338147
5,Юбилейная улица,602256,55.5872492,42.0342172
3,Юбилейная улица,602256,55.5873531,42.0346277
1,Юбилейная улица,602256,55.5874589,42.0350708
82,улица Войкова,602256,55.5876829,42.0353926
37,улица Крылова,602256,55.5864084,42.0327255
35,улица Крылова,602256,55.5861281,42.0329679
33,улица Крылова,602256,55.5858055,42.0332090
17,улица Крылова,602256,55.5860051,42.0340280
10,Юбилейная улица,602256,55.5867018,42.0332875
8,Юбилейная улица,602256,55.5867990,42.0339517
4,Юбилейная улица,602256,55.5869587,42.0344346
2,Юбилейная улица,602256,55.5870992,42.0349081
6,Юбилейная улица,602256,55.5866489,42.0344865
31,улица Крылова,602256,55.5862499,42.0347975
29,улица Крылова,602256,55.5858956,42.0350473
78,улица Войкова,602256,55.5869711,42.0355885
76,улица Войкова,602256,55.5867125,42.0356339
74,улица Войкова,602256,55.5864306,42.0357156
72А,улица Войкова,602256,55.5860947,42.0355168
72,улица Войкова,602256,55.5859758,42.0358260
70,улица Войкова,602256,55.5857819,42.0358906
68,улица Войкова,602256,55.5856074,42.0359232
60,улица Войкова,602256,55.5849400,42.0360726
58,улица Войкова,602256,55.5847252,42.0361377
1,улица Крылова,602256,55.5847906,42.0356372
3,улица Крылова,602256,55.5848238,42.0353415
5,улица Крылова,602256,55.5848513,42.0350494
7,улица Крылова,602256,55.5848841,42.0347895
9,улица Крылова,602256,55.5849094,42.0344808
11,улица Крылова,602256,55.5849349,42.0341981
21,улица Крылова,602256,55.5852711,42.0346088
23,улица Крылова,602256,55.5854325,42.0348570
25,улица Крылова,602256,55.5855691,42.0350849
27,улица Крылова,602256,55.5856449,42.0352848
13,улица Крылова,602256,55.5852080,42.0336715
19А,улица Крылова,602256,55.5857592,42.0342049
19,улица Крылова,602256,55.5855023,42.0344043
15,улица Крылова,602256,55.5854836,42.0334770
2,улица Крылова,602256,55.5844443,42.0359194
4,улица Крылова,602256,55.5844809,42.0355560
6,улица Крылова,602256,55.5845078,42.0353047
8,улица Крылова,602256,55.5845090,42.0350580
10,улица Крылова,602256,55.5845554,42.0347925
12,улица Крылова,602256,55.5845785,42.0344881
14,улица Крылова,602256,55.5846235,42.0341852
16,улица Крылова,602256,55.5846126,42.0338841
20,улица Крылова,602256,55.5845792,42.0333824
20А,улица Крылова,602256,55.5849002,42.0333699
22,улица Крылова,602256,55.5848028,42.0329535
24,улица Крылова,602256,55.5847604,42.0327307
28,улица Крылова,602256,55.5846066,42.0322127
26,улица Крылова,602256,55.5846767,42.0324043
29,Полевая улица,602256,55.5845072,42.0317746
23,улица Лермонтова,602256,55.5842195,42.0322498
21,улица Лермонтова,602256,55.5841848,42.0327335
19,улица Лермонтова,602256,55.5841545,42.0332037
17,улица Лермонтова,602256,55.5841551,42.0334889
15,улица Лермонтова,602256,55.5841344,42.0337930
13,улица Лермонтова,602256,55.5842461,42.0341479
11,улица Лермонтова,602256,55.5841124,42.0343530
9,улица Лермонтова,602256,55.5840420,42.0346282
7,улица Лермонтова,602256,55.5840289,42.0349197
5,улица Лермонтова,602256,55.5840289,42.0351825
3,улица Лермонтова,602256,55.5839971,42.0354590
1,улица Лермонтова,602256,55.5839723,42.0357738
18,улица Крылова,602256,55.5846804,42.0336808
24А,улица Лермонтова,602256,55.5839594,42.0321829
24,улица Лермонтова,602256,55.5839154,42.0326312
22,улица Лермонтова,602256,55.5838933,42.0328232
20,улица Лермонтова,602256,55.5838207,42.0333289
25,Полевая улица,602256,55.5836713,42.0326699
23,Полевая улица,602256,55.5835658,42.0324672
18,улица Лермонтова,602256,55.5838011,42.0337542
12,улица Лермонтова,602256,55.5837601,42.0343550
10,улица Лермонтова,602256,55.5836929,42.0346309
8,улица Лермонтова,602256,55.5836971,42.0349017
6,улица Лермонтова,602256,55.5836369,42.0351799
4,улица Лермонтова,602256,55.5836357,42.0354672
2,улица Лермонтова,602256,55.5836599,42.0356934
50,улица Войкова,602256,55.5835623,42.0363303
48,улица Войкова,602256,55.5834394,42.0361977
46,улица Войкова,602256,55.5832422,42.0361687
44,улица Войкова,602256,55.5830744,42.0361906
5Д,Карачаровское шоссе,602251,55.5622063,42.0568363
2,улица Филатова,602254,55.5663294,42.0151241
1,Коммунальная улица,602254,55.5661610,42.0138552
3,Коммунальная улица,602254,55.5662365,42.0128645
3А,Коммунальная улица,602254,55.5662684,42.0125644
5,Коммунальная улица,602254,55.5663768,42.0115330
7,Коммунальная улица,602254,55.5662138,42.0105721
9,Коммунальная улица,602254,55.5663049,42.0097002
11,Коммунальная улица,602254,55.5663928,42.0090406
15,Коммунальная улица,602254,55.5665051,42.0076345
9,Железнодорожный проезд,602254,55.5668631,42.0078145
7,Железнодорожный проезд,602254,55.5670554,42.0084164
5,Железнодорожный проезд,602254,55.5673115,42.0097629
3,Железнодорожный проезд,602254,55.5675909,42.0104785
6,Железнодорожный проезд,602254,55.5668452,42.0102826
4,Железнодорожный проезд,602254,55.5671552,42.0110690
2,Железнодорожный проезд,602254,55.5676394,42.0125994
6А,улица Филатова,602254,55.5671227,42.0131630
1,Железнодорожный проезд,602254,55.5681961,42.0122289
6,улица Филатова,602254,55.5678000,42.0135652
4,улица Филатова,602254,55.5670786,42.0142480
8,Железнодорожный проезд,602254,55.5667737,42.0089293
10,Коммунальная улица,602254,55.5653789,42.0142859
12,Коммунальная улица,602254,55.5647822,42.0141249
16,Коммунальная улица,602254,55.5654143,42.0134051
14,Коммунальная улица,602254,55.5648766,42.0132520
18,Коммунальная улица,602254,55.5654629,42.0128820
18А,Коммунальная улица,602254,55.5655019,42.0121639
19,Коммунальная улица,602254,55.5648965,42.0124880
20,Коммунальная улица,602254,55.5649582,42.0118459
21,Коммунальная улица,602254,55.5650231,42.0108249
24,Коммунальная улица,602254,55.5650946,42.0101041
22,Коммунальная улица,602254,55.5655000,42.0108395
22А,Коммунальная улица,602254,55.5656940,42.0109708
26,Коммунальная улица,602254,55.5657664,42.0101396
28,Коммунальная улица,602254,55.5654519,42.0096676
32,Коммунальная улица,602254,55.5658801,42.0091556
34,Коммунальная улица,602254,55.5659108,42.0084616
30,Коммунальная улица,602254,55.5654683,42.0088281
1,Коммунальный проезд,602262,55.5683615,42.0011880
5,Коммунальный проезд,602262,55.5684406,42.0002245
2,Коммунальный проезд,602262,55.5678397,42.0007118
3,Коммунальный проезд,602262,55.5672985,42.0002346
7,Коммунальный проезд,602262,55.5673040,41.9993094
6,Коммунальный проезд,602262,55.5679224,41.9999253
12,Коммунальный проезд,602262,55.5673093,41.9983378
11,Коммунальный проезд,602262,55.5679469,41.9984727
10,Коммунальный проезд,602262,55.5684763,41.9991955
22А,Стахановская улица,602262,55.5664769,41.9958367
8,Стахановская улица,602262,55.5673320,41.9961457
10,Стахановская улица,602262,55.5676717,41.9956474
12,Стахановская улица,602262,55.5674579,41.9950198
8А,Стахановская улица,602262,55.5667622,41.9960820
14,Стахановская улица,602262,55.5670097,41.9948264
16,Стахановская улица,602262,55.5669762,41.9936840
18,Стахановская улица,602262,55.5665317,41.9924400
20,Стахановская улица,602262,55.5661544,41.9913566
6,улица Калинина,602262,55.5666815,41.9909123
8,улица Калинина,602262,55.5671215,41.9909392
10,улица Калинина,602262,55.5675697,41.9909483
1,улица Гастелло,602262,55.5671736,41.9920539
25,Стахановская улица,602262,55.5668010,41.9917282
3,улица Гастелло,602262,55.5675635,41.9919722
12,улица Калинина,602262,55.5680160,41.9910733
5А,улица Гастелло,602262,55.5682623,41.9920819
14,улица Калинина,602262,55.5683707,41.9910904
10,улица Гоголева,602262,55.5688109,41.9921479
23,Стахановская улица,602262,55.5672381,41.9929550
21,Стахановская улица,602262,55.5675529,41.9938444
2,улица Гастелло,602262,55.5676237,41.9929807
4,улица Гастелло,602262,55.5680018,41.9931378
6,улица Гастелло,602262,55.5684246,41.9931766
8,улица Гоголева,602262,55.5688350,41.9930401
6,улица Гоголева,602262,55.5687805,41.9943583
3,Физкультурная улица,602262,55.5683771,41.9941099
1,Физкультурная улица,602262,55.5679783,41.9940520
2,Физкультурная улица,602262,55.5682641,41.9950048
2,улица Гоголева,602262,55.5686856,41.9963350
17,Стахановская улица,602262,55.5683078,41.9959982
4,улица Гоголева,602262,55.5687485,41.9950249
19,Стахановская улица,602262,55.5680878,41.9953579
2,Пионерская улица,602262,55.5699878,41.9958845
13,улица Калинина,602262,55.5684932,41.9899524
13,Северный проезд,602262,55.5728715,41.9916633
8,Северный проезд,602262,55.5724607,41.9916193
11,Северный проезд,602262,55.5728262,41.9926181
6,Северный проезд,602262,55.5724082,41.9925880
18,Профсоюзная улица,602262,55.5710697,41.9891749
23,Профсоюзная улица,602262,55.5710941,41.9883785
21,Профсоюзная улица,602262,55.5705601,41.9882915
17,улица Калинина,602262,55.5704753,41.9902495
30,Стахановская улица,602262,55.5647680,41.9874400
28,Стахановская улица,602262,55.5651112,41.9884425
1,улица Калинина,602262,55.5654115,41.9895834
26,Стахановская улица,602262,55.5650570,41.9894064
1В,улица Куйбышева,602254,55.5656183,42.0298749
2,Деповская улица,602254,55.5680951,42.0318204
1,Деповская улица,602254,55.5686636,42.0324909
1Г,улица Куйбышева,602254,55.5639385,42.0305090
3,Радиозаводское шоссе,602251,55.5632126,42.0429780
2,Карачаровское шоссе,602205,55.5569695,42.0608235
4,улица Чкалова,602252,55.5766850,42.0071466
6,улица Чкалова,602252,55.5766495,42.0068301
8,улица Чкалова,602252,55.5766151,42.0064867
15,Спартаковская улица,602252,55.5764147,42.0065044
16,улица Лаврентьева,602252,55.5763785,42.0070751
14,улица Лаврентьева,602252,55.5762112,42.0073190
13,Спартаковская улица,602252,55.5762369,42.0064409
14А,улица Лаврентьева,602252,55.5759819,42.0073062
22,Профсоюзная улица,602262,55.5720110,41.9893036
22А,Профсоюзная улица,602262,55.5723514,41.9893977
23,улица Калинина,602262,55.5718965,41.9904662
20,Профсоюзная улица,602262,55.5714917,41.9892784
21,улица Калинина,602262,55.5714374,41.9903623
19,улица Калинина,602262,55.5710026,41.9903094
15,улица Калинина,602262,55.5699987,41.9901699
13,улица Гоголева,602262,55.5695916,41.9901246
15,улица Гоголева,602262,55.5695584,41.9892333
47,улица Горького,602262,55.5735093,41.9866347
41,Профсоюзная улица,602262,55.5736778,41.9884768
26,улица Горького,602262,55.5736961,41.9881381
18,улица Горького,602262,55.5734061,41.9881019
24,улица Горького,602262,55.5737371,41.9876359
22,улица Горького,602262,55.5735468,41.9875728
20,улица Горького,602262,55.5734039,41.9875574
33,Профсоюзная улица,602262,55.5734002,41.9884936
39,Профсоюзная улица,602262,55.5736992,41.9889477
37,Профсоюзная улица,602262,55.5735134,41.9889903
35,Профсоюзная улица,602262,55.5733553,41.9889941
31,Профсоюзная улица,602262,55.5731777,41.9884706
29,Профсоюзная улица,602262,55.5731231,41.9889471
16,улица Горького,602262,55.5731990,41.9880546
14,улица Горького,602262,55.5731887,41.9875336
21,Северный проезд,602262,55.5729002,41.9880382
17Б,Северный проезд,602262,55.5728769,41.9889374
19,Северный проезд,602262,55.5728699,41.9885079
27,Профсоюзная улица,602262,55.5721444,41.9884801
25,Профсоюзная улица,602262,55.5716394,41.9884358
27А,Профсоюзная улица,602262,55.5725084,41.9886235
12А,улица Горького,602262,55.5725460,41.9875654
12,улица Горького,602262,55.5722294,41.9875038
10А,улица Горького,602262,55.5718791,41.9874437
10,улица Горького,602262,55.5715055,41.9874177
43,улица Горького,602262,55.5726028,41.9868915
41,улица Горького,602262,55.5722808,41.9864899
39,улица Горького,602262,55.5718978,41.9864114
37,улица Горького,602262,55.5715338,41.9864040
31,улица Горького,602262,55.5711647,41.9867031
29,улица Горького,602262,55.5707919,41.9863122
27,улица Горького,602262,55.5704382,41.9862599
25,улица Горького,602262,55.5700825,41.9862302
8,улица Горького,602262,55.5708449,41.9873535
6,улица Горького,602262,55.5705203,41.9873200
4,улица Горького,602262,55.5701220,41.9874689
19,Профсоюзная улица,602262,55.5700844,41.9882156
14,Профсоюзная улица,602262,55.5700873,41.9891144
17,улица Гоголева,602262,55.5696385,41.9881569
19,улица Гоголева,602262,55.5697112,41.9874165
21,улица Гоголева,602262,55.5697264,41.9864899
23,улица Гоголева,602262,55.5697499,41.9857389
24А,улица Гоголева,602262,55.5699215,41.9798407
32,улица Гоголева,602262,55.5694383,41.9796261
6,проезд Гоголева,602262,55.5689576,41.9827375
4,проезд Гоголева,602262,55.5691557,41.9829622
26,улица Гоголева,602262,55.5692701,41.9847805
26А,улица Гоголева,602262,55.5689460,41.9846879
5,проезд Гоголева,602262,55.5685823,41.9838888
28,улица Гоголева,602262,55.5685474,41.9847079
30,улица Гоголева,602262,55.5681433,41.9846513
34,улица Гоголева,602262,55.5677893,41.9845744
36А,улица Гоголева,602262,55.5673604,41.9845795
54,улица Гоголева,602262,55.5669437,41.9837506
52,улица Караева,602266,55.5665977,41.9836574
44,улица Караева,602266,55.5662838,41.9843874
32,Стахановская улица,602262,55.5646201,41.9870407
32А,Стахановская улица,602262,55.5644742,41.9865901
33,Стахановская улица,602262,55.5646488,41.9856846
35,Стахановская улица,602262,55.5645709,41.9850250
1,улица Горького,602262,55.5649399,41.9854988
3,улица Горького,602262,55.5653222,41.9855206
5,улица Горького,602262,55.5656928,41.9856106
7,улица Горького,602262,55.5660714,41.9856276
9,улица Горького,602262,55.5664604,41.9856701
11,улица Горького,602262,55.5668480,41.9857473
15,улица Горького,602262,55.5672415,41.9854277
13,улица Горького,602262,55.5672104,41.9861406
17,улица Горького,602262,55.5676167,41.9858582
19,улица Горького,602262,55.5680112,41.9858811
21,улица Горького,602262,55.5684109,41.9859909
23,улица Горького,602262,55.5687703,41.9859963
24,улица Гоголева,602262,55.5691585,41.9856906
22,улица Гоголева,602262,55.5691251,41.9864202
18,улица Гоголева,602262,55.5690584,41.9880831
20,улица Гоголева,602262,55.5690865,41.9873415
15,Профсоюзная улица,602262,55.5683080,41.9875950
13,Профсоюзная улица,602262,55.5679590,41.9875610
11,Профсоюзная улица,602262,55.5675780,41.9874911
9,Профсоюзная улица,602262,55.5671456,41.9877305
2,улица Горького,602262,55.5671819,41.9871068
7,Профсоюзная улица,602262,55.5667479,41.9874164
5,Профсоюзная улица,602262,55.5663904,41.9873372
3,Профсоюзная улица,602262,55.5660393,41.9872494
31,Стахановская улица,602262,55.5650900,41.9868558
1,Профсоюзная улица,602262,55.5656200,41.9872335
29,Стахановская улица,602262,55.5652956,41.9874782
27,Стахановская улица,602262,55.5657302,41.9886934
27А,Стахановская улица,602262,55.5659990,41.9893692
3,улица Калинина,602262,55.5663024,41.9896387
2,Профсоюзная улица,602262,55.5663553,41.9885259
16,улица Гоголева,602262,55.5689649,41.9888821
12,Профсоюзная улица,602262,55.5685329,41.9888127
10,Профсоюзная улица,602262,55.5681173,41.9887976
11,улица Калинина,602262,55.5679839,41.9899083
14,улица Гоголева,602262,55.5689515,41.9900304
6,проезд Куйбышева,602254,55.5643394,42.0376548
44,улица Лаврентьева,602266,55.5838617,42.0066433
9,Владимирская улица,602256,55.5783189,42.0276489
4А,улица Сурикова,602256,55.5773813,42.0339316
2Б,Радиозаводское шоссе,602264,55.5641945,42.0446070
2В,Радиозаводское шоссе,602264,55.5641288,42.0466663
5Л,Карачаровское шоссе,602251,55.5622095,42.0518700
1А,улица Куликова,602251,55.5733479,42.0349487
13,Ковровская улица,602256,55.5806434,42.0294787
4,Школьная улица,602256,55.5829193,42.0254741
6/2,улица Войкова,602256,55.5791158,42.0354794
3,улица Строителей,602256,55.5802884,42.0395686
51,Красноармейская улица,602267,55.5794130,42.0420521
49,Красноармейская улица,602267,55.5795730,42.0419440
3,1-я Новослободская улица,602256,55.5883003,42.0300972
1,1-я Новослободская улица,602256,55.5885810,42.0305125
5,1-я Новослободская улица,602256,55.5881471,42.0294886
7,1-я Новослободская улица,602256,55.5881485,42.0288619
1,улица Кожевники,602256,55.5857324,42.0581928
19,улица Кирова,602253,55.5484507,42.0711587
17,улица Кирова,602253,55.5486789,42.0727543
1,Новая улица,602253,55.5488826,42.0733294
17А,улица Кирова,602253,55.5485666,42.0718289
15,улица Кирова,602253,55.5493204,42.0740967
13,улица Кирова,602253,55.5492863,42.0752804
11,улица Кирова,602253,55.5497133,42.0760018
9,улица Кирова,602253,55.5494761,42.0775017
10,Карачаровское шоссе,602253,55.5479075,42.0709441
12,Карачаровское шоссе,602253,55.5475347,42.0711211
28,улица Кирова,602253,55.5481269,42.0714083
8,улица Орджоникидзе,602253,55.5480584,42.0719778
14,Карачаровское шоссе,602253,55.5473138,42.0716366
4,улица Орджоникидзе,602253,55.5473140,42.0723153
2,улица Орджоникидзе,602253,55.5468385,42.0725260
1,улица Орджоникидзе,602253,55.5469432,42.0732946
26,улица Кирова,602253,55.5482098,42.0729262
5А,улица Орджоникидзе,602253,55.5477918,42.0730026
3,улица Орджоникидзе,602253,55.5474099,42.0730925
18,улица Кирова,602253,55.5484380,42.0737555
16,улица Кирова,602253,55.5485415,42.0745277
20,улица Кирова,602253,55.5480004,42.0738634
22,улица Кирова,602253,55.5476011,42.0740344
24,улица Кирова,602253,55.5472160,42.0741907
64/2,Совхозная улица,602257,55.5459894,42.0699979
80,Совхозная улица,602257,55.5435744,42.0735921
82,Совхозная улица,602257,55.5432615,42.0740974
84,Совхозная улица,602257,55.5429086,42.0744095
3,Совхозная улица,602257,55.5421062,42.0753801
18А,Карачаровская улица,602257,55.5411582,42.0788806
32А,улица Кирова,602253,55.5472678,42.0673233
64,Совхозная улица,602257,55.5458388,42.0707848
66,Совхозная улица,602257,55.5456163,42.0710650
66А,Совхозная улица,602257,55.5453953,42.0713380
68,Совхозная улица,602257,55.5451511,42.0716568
70,Совхозная улица,602257,55.5448593,42.0720932
72,Совхозная улица,602257,55.5444880,42.0724785
7А,Радиозаводское шоссе,602264,55.5622744,42.0433491
7,Радиозаводское шоссе,602264,55.5622068,42.0427746
4/2,Радиозаводское шоссе,602264,55.5625924,42.0448861
2А,Радиозаводское шоссе,602264,55.5629967,42.0448379
4,Радиозаводское шоссе,602264,55.5634121,42.0441845
13А,Радиозаводское шоссе,602264,55.5596446,42.0461586
5А,Карачаровское шоссе,602251,55.5628205,42.0564746
3,Карачаровское шоссе,602251,55.5635253,42.0557421
9А,Карачаровское шоссе,602251,55.5615270,42.0585296
9,Карачаровское шоссе,602251,55.5610813,42.0584109
3А,Карачаровское шоссе,602251,55.5611482,42.0577088
88,улица Воровского,602251,55.5727171,42.0390359
18,улица Куликова,602251,55.5687743,42.0417529
67,Октябрьская улица,602267,55.5676854,42.0447258
22,улица Плеханова,602267,55.5841800,42.0580700
24,улица Плеханова,602267,55.5843558,42.0580468
68,Советская улица,602251,55.5728649,42.0344187
9А,Владимирское шоссе,602266,55.5896722,42.0055167
23Б,Владимирское шоссе,602266,55.5910984,41.9994913
25А,Владимирское шоссе,602266,55.5937272,41.9992429
50,улица Лаврентьева,602266,55.5848964,42.0107158
12,Владимирское шоссе,602205,55.5851555,42.0115227
45,улица Грибоедова,602257,55.5429965,42.0866973
43,улица Грибоедова,602257,55.5431865,42.0863026
41,улица Грибоедова,602257,55.5433616,42.0861193
46А,улица Грибоедова,602257,55.5436145,42.0857547
39,улица Грибоедова,602257,55.5431861,42.0852322
37,улица Грибоедова,602257,55.5431547,42.0849137
35,улица Грибоедова,602257,55.5430607,42.0845386
33,улица Грибоедова,602257,55.5429881,42.0843110
31,улица Грибоедова,602257,55.5428302,42.0839734
29,улица Грибоедова,602257,55.5429030,42.0836430
27,улица Грибоедова,602257,55.5428378,42.0832155
25,улица Грибоедова,602257,55.5428019,42.0829582
23,улица Грибоедова,602257,55.5427465,42.0824278
21,улица Грибоедова,602257,55.5426339,42.0815796
19,улица Грибоедова,602257,55.5422269,42.0810528
17,улица Грибоедова,602257,55.5422072,42.0807815
15,улица Грибоедова,602257,55.5422499,42.0804661
13,улица Грибоедова,602257,55.5417873,42.0801774
11,улица Грибоедова,602257,55.5422819,42.0798033
9,улица Грибоедова,602257,55.5422283,42.0795498
7,улица Грибоедова,602257,55.5421745,42.0792077
5,улица Грибоедова,602257,55.5421280,42.0789339
3,улица Грибоедова,602257,55.5419716,42.0786085
1,улица Грибоедова,602257,55.5420218,42.0782403
2,улица Грибоедова,602257,55.5421943,42.0774562
4,улица Грибоедова,602257,55.5422444,42.0777876
6,улица Грибоедова,602257,55.5423537,42.0780898
8,улица Грибоедова,602257,55.5423753,42.0784220
10,улица Грибоедова,602257,55.5424347,42.0787825
12,улица Грибоедова,602257,55.5424559,42.0790878
14,улица Грибоедова,602257,55.5425402,42.0794947
16,улица Грибоедова,602257,55.5426213,42.0797083
18,улица Грибоедова,602257,55.5427327,42.0801379
20,улица Грибоедова,602257,55.5427642,42.0804953
22,улица Грибоедова,602257,55.5428527,42.0808755
24,улица Грибоедова,602257,55.5428299,42.0811875
26,улица Грибоедова,602257,55.5428885,42.0815650
28,улица Грибоедова,602257,55.5429330,42.0818419
30,улица Грибоедова,602257,55.5430044,42.0822855
32,улица Грибоедова,602257,55.5430611,42.0825691
40,улица Грибоедова,602257,55.5432790,42.0839862
38,улица Грибоедова,602257,55.5432228,42.0837238
36,улица Грибоедова,602257,55.5431713,42.0833701
34,улица Грибоедова,602257,55.5431527,42.0830950
42,улица Грибоедова,602257,55.5433434,42.0844319
44,улица Грибоедова,602257,55.5434081,42.0847677
46,улица Грибоедова,602257,55.5434470,42.0849867
50,улица Грибоедова,602257,55.5438541,42.0853202
52,улица Грибоедова,602257,55.5439129,42.0855134
15,1-й Лесной проезд,602266,55.5823525,42.0133019
122Б,Московская улица,602252,55.5739565,42.0085846
40Д,улица Лаврентьева,602266,55.5814311,42.0078295
40А,улица Лаврентьева,602266,55.5809464,42.0074742
3,проезд Куйбышева,602254,55.5659668,42.0418406
23Б,улица Энгельса,602264,55.5473721,42.0614133
9А,Меленковское шоссе,602240,55.5604791,42.0218689
5Б,Карачаровское шоссе,602251,55.5590930,42.0562676
19А,Владимирское шоссе,602266,55.5911537,42.0022780
11,Владимирское шоссе,602266,55.5905626,42.0070724
9,Владимирское шоссе,602266,55.5891240,42.0046586
15,Владимирское шоссе,602266,55.5906064,42.0037988
15Г,Владимирское шоссе,602266,55.5907957,42.0044575
5,Владимирское шоссе,602266,55.5864933,42.0113821
5А,Владимирское шоссе,602266,55.5870435,42.0102636
7,Владимирское шоссе,602266,55.5882234,42.0079331
25,Владимирское шоссе,602266,55.5920119,41.9991883
19,Владимирское шоссе,602266,55.5907377,42.0007170
1,Лесной проезд,602266,55.5817934,42.0154229
16А,Радиозаводское шоссе,602264,55.5543192,42.0491921
32,Южная улица,602264,55.5534445,42.0497316
26,Южная улица,602264,55.5535135,42.0503355
24,Южная улица,602264,55.5535944,42.0509676
28,Южная улица,602264,55.5539055,42.0501186
30,Южная улица,602264,55.5538496,42.0495815
23,Мичуринская улица,602264,55.5543095,42.0500508
25,Мичуринская улица,602264,55.5543136,42.0508435
17,Радиозаводское шоссе,602264,55.5541706,42.0482813
10,Мичуринская улица,602264,55.5546364,42.0521315
2,улица Красина,602257,55.5399726,42.0817114
20,Карачаровская улица,602257,55.5405742,42.0793604
17,улица Радищева,602257,55.5401167,42.0812139
16,улица Радищева,602257,55.5405482,42.0817381
15,улица Радищева,602257,55.5407510,42.0816315
14,улица Радищева,602257,55.5409482,42.0814688
13,улица Радищева,602257,55.5410565,42.0818690
12А,улица Радищева,602257,55.5418150,42.0828331
12,улица Радищева,602257,55.5414954,42.0825646
11,улица Радищева,602257,55.5414208,42.0823391
10,улица Радищева,602257,55.5413538,42.0820207
9,улица Радищева,602257,55.5413042,42.0817213
8,улица Радищева,602257,55.5412325,42.0813633
7,улица Радищева,602257,55.5411874,42.0810709
6,улица Радищева,602257,55.5416939,42.0808551
5,улица Радищева,602257,55.5410981,42.0805172
4,улица Радищева,602257,55.5410512,42.0801954
3,улица Радищева,602257,55.5409956,42.0798626
2,улица Радищева,602257,55.5409636,42.0796146
1,улица Радищева,602257,55.5408498,42.0792086
10,улица Красина,602257,55.5404558,42.0848716
20,улица Красина,602257,55.5420922,42.0869468
19,улица Красина,602257,55.5419138,42.0866600
18,улица Красина,602257,55.5418358,42.0864206
17,улица Красина,602257,55.5416429,42.0860127
16,улица Красина,602257,55.5414195,42.0858961
15,улица Красина,602257,55.5411786,42.0858874
14,улица Красина,602257,55.5410684,42.0855632
13,улица Красина,602257,55.5410010,42.0853539
12,улица Красина,602257,55.5409801,42.0851164
11,улица Красина,602257,55.5408627,42.0848686
9,улица Красина,602257,55.5407546,42.0845510
8,улица Красина,602257,55.5406683,42.0842952
7,улица Красина,602257,55.5405422,42.0840385
6,улица Красина,602257,55.5404564,42.0837274
5,улица Красина,602257,55.5403249,42.0833879
4,улица Красина,602257,55.5402325,42.0831965
3,улица Красина,602257,55.5401523,42.0829210
1,улица Красина,602257,55.5396558,42.0822132
9,улица Тургенева,602257,55.5434122,42.0780209
41,улица Тургенева,602257,55.5437982,42.0827755
39,улица Тургенева,602257,55.5436845,42.0823061
62А,улица Тургенева,602257,55.5454779,42.0846326
30,улица Тургенева,602257,55.5441237,42.0796296
32,улица Тургенева,602257,55.5441880,42.0799548
34,улица Тургенева,602257,55.5442724,42.0803221
36,улица Тургенева,602257,55.5442990,42.0805427
38,улица Тургенева,602257,55.5443766,42.0810105
40,улица Тургенева,602257,55.5444273,42.0813727
42,улица Тургенева,602257,55.5446025,42.0815829
44,улица Тургенева,602257,55.5445268,42.0818974
46,улица Тургенева,602257,55.5446188,42.0824746
48,улица Тургенева,602257,55.5446612,42.0827676
50,улица Тургенева,602257,55.5448446,42.0830957
54,улица Тургенева,602257,55.5447829,42.0834526
56,улица Тургенева,602257,55.5448489,42.0838506
58,улица Тургенева,602257,55.5449681,42.0840707
60,улица Тургенева,602257,55.5449720,42.0844877
62,улица Тургенева,602257,55.5450426,42.0847926
64,улица Тургенева,602257,55.5452606,42.0851639
66,улица Тургенева,602257,55.5451563,42.0857465
59,улица Тургенева,602257,55.5448630,42.0855026
57,улица Тургенева,602257,55.5447418,42.0848572
55,улица Тургенева,602257,55.5446898,42.0845545
53,улица Тургенева,602257,55.5446385,42.0842483
51,улица Тургенева,602257,55.5445650,42.0839139
49,улица Тургенева,602257,55.5445203,42.0836336
47,улица Тургенева,602257,55.5444708,42.0832937
45,улица Тургенева,602257,55.5444176,42.0829515
43,улица Тургенева,602257,55.5443366,42.0826454
37,улица Тургенева,602257,55.5442475,42.0821083
35,улица Тургенева,602257,55.5441853,42.0817492
33,улица Тургенева,602257,55.5440777,42.0814317
31,улица Тургенева,602257,55.5440813,42.0811541
29,улица Тургенева,602257,55.5440125,42.0807541
27,улица Тургенева,602257,55.5438349,42.0805007
25,улица Тургенева,602257,55.5438990,42.0801080
19,улица Тургенева,602257,55.5431610,42.0792125
21,улица Тургенева,602257,55.5434210,42.0794562
23А,улица Тургенева,602257,55.5434930,42.0798995
23,улица Тургенева,602257,55.5437412,42.0796799
28,улица Тургенева,602257,55.5446860,42.0794301
26,улица Тургенева,602257,55.5445939,42.0788652
24,улица Тургенева,602257,55.5440681,42.0792219
22,улица Тургенева,602257,55.5439930,42.0788350
17,улица Тургенева,602257,55.5436847,42.0791667
15,улица Тургенева,602257,55.5436337,42.0788705
13,улица Тургенева,602257,55.5435799,42.0785609
20,улица Тургенева,602257,55.5439793,42.0784504
18,улица Тургенева,602257,55.5438699,42.0781534
11,улица Тургенева,602257,55.5435751,42.0783455
16,улица Тургенева,602257,55.5438488,42.0778583
8,улица Тургенева,602257,55.5440150,42.0763034
14,улица Тургенева,602257,55.5437870,42.0774591
12,улица Тургенева,602257,55.5437218,42.0771627
7,улица Тургенева,602257,55.5434321,42.0776417
5,улица Тургенева,602257,55.5432747,42.0772877
3,улица Тургенева,602257,55.5433309,42.0770307
10,улица Тургенева,602257,55.5436490,42.0768656
6,улица Тургенева,602257,55.5435596,42.0763801
1,улица Тургенева,602257,55.5432404,42.0764529
4,улица Тургенева,602257,55.5435097,42.0760911
2,улица Тургенева,602257,55.5434360,42.0757595
1,улица Демьяна Бедного,602257,55.5443650,42.0747205
1А,улица Демьяна Бедного,602257,55.5444666,42.0749800
3,улица Демьяна Бедного,602257,55.5445321,42.0752775
5,улица Демьяна Бедного,602257,55.5446295,42.0756423
7,улица Демьяна Бедного,602257,55.5446700,42.0758549
9,улица Демьяна Бедного,602257,55.5443092,42.0765054
11,улица Демьяна Бедного,602257,55.5447910,42.0764451
13,улица Демьяна Бедного,602257,55.5448165,42.0767989
15,улица Демьяна Бедного,602257,55.5449306,42.0770860
17,улица Демьяна Бедного,602257,55.5449657,42.0773142
19,улица Демьяна Бедного,602257,55.5450264,42.0776904
21,улица Демьяна Бедного,602257,55.5450729,42.0779993
23,улица Демьяна Бедного,602257,55.5451455,42.0783538
33,улица Демьяна Бедного,602257,55.5448750,42.0797583
25,улица Демьяна Бедного,602257,55.5451978,42.0786436
27,улица Демьяна Бедного,602257,55.5453506,42.0791547
29,улица Демьяна Бедного,602257,55.5454155,42.0794884
31,улица Демьяна Бедного,602257,55.5454854,42.0799183
35,улица Демьяна Бедного,602257,55.5455879,42.0804294
37,улица Демьяна Бедного,602257,55.5456612,42.0807849
39,улица Демьяна Бедного,602257,55.5457077,42.0811403
41,улица Демьяна Бедного,602257,55.5457727,42.0814221
41А,улица Демьяна Бедного,602257,55.5453530,42.0815511
43,улица Демьяна Бедного,602257,55.5451401,42.0820976
45,улица Демьяна Бедного,602257,55.5453632,42.0820128
47,улица Демьяна Бедного,602257,55.5458670,42.0818773
49,улица Демьяна Бедного,602257,55.5459155,42.0822445
51,улица Демьяна Бедного,602257,55.5459743,42.0825549
53,улица Демьяна Бедного,602257,55.5460299,42.0828665
55,улица Демьяна Бедного,602257,55.5461057,42.0832078
57,улица Демьяна Бедного,602257,55.5461550,42.0834940
59,улица Демьяна Бедного,602257,55.5462204,42.0838770
61,улица Демьяна Бедного,602257,55.5462479,42.0841418
63,улица Демьяна Бедного,602257,55.5463328,42.0844055
65,улица Демьяна Бедного,602257,55.5456717,42.0845486
67,улица Демьяна Бедного,602257,55.5458053,42.0849018
69,улица Демьяна Бедного,602257,55.5460437,42.0850701
71,улица Демьяна Бедного,602257,55.5464506,42.0848343
70,улица Демьяна Бедного,602257,55.5466722,42.0845480
66,улица Демьяна Бедного,602257,55.5466139,42.0840176
64,улица Демьяна Бедного,602257,55.5465431,42.0837377
62,улица Демьяна Бедного,602257,55.5464415,42.0833485
60,улица Демьяна Бедного,602257,55.5463858,42.0830662
58,улица Демьяна Бедного,602257,55.5463113,42.0827748
56,улица Демьяна Бедного,602257,55.5462557,42.0824614
54,улица Демьяна Бедного,602257,55.5461713,42.0820557
52,улица Демьяна Бедного,602257,55.5461574,42.0817696
50,улица Демьяна Бедного,602257,55.5460803,42.0812989
48,улица Демьяна Бедного,602257,55.5460172,42.0809868
46,улица Демьяна Бедного,602257,55.5459659,42.0806686
44,улица Демьяна Бедного,602257,55.5458636,42.0802931
42,улица Демьяна Бедного,602257,55.5458010,42.0799335
40,улица Демьяна Бедного,602257,55.5457254,42.0796152
38,улица Демьяна Бедного,602257,55.5456536,42.0793228
36,улица Демьяна Бедного,602257,55.5455989,42.0789812
34,улица Демьяна Бедного,602257,55.5460569,42.0787263
30,улица Демьяна Бедного,602257,55.5455101,42.0784994
28,улица Демьяна Бедного,602257,55.5454421,42.0782496
26,улица Демьяна Бедного,602257,55.5453831,42.0778255
24,улица Демьяна Бедного,602257,55.5453221,42.0776059
22,улица Демьяна Бедного,602257,55.5452538,42.0772132
20,улица Демьяна Бедного,602257,55.5451979,42.0769212
18,улица Демьяна Бедного,602257,55.5451292,42.0765571
16,улица Демьяна Бедного,602257,55.5450326,42.0762279
10,улица Демьяна Бедного,602257,55.5449597,42.0758118
8,улица Демьяна Бедного,602257,55.5449059,42.0754957
6,улица Демьяна Бедного,602257,55.5448055,42.0751198
4,улица Демьяна Бедного,602257,55.5447684,42.0748411
2,улица Демьяна Бедного,602257,55.5446621,42.0744257
44А,улица Тургенева,602257,55.5450880,42.0817089
2,улица Репина,602257,55.5456164,42.0742025
4,улица Репина,602257,55.5458308,42.0751382
6,улица Репина,602257,55.5456918,42.0752383
8,улица Репина,602257,55.5453713,42.0755307
10,улица Репина,602257,55.5454965,42.0760132
12,улица Репина,602257,55.5457966,42.0758956
14,улица Репина,602257,55.5459671,42.0757065
16,улица Репина,602257,55.5461760,42.0767598
16А,улица Репина,602257,55.5461978,42.0771118
18,улица Репина,602257,55.5463647,42.0774770
24,улица Репина,602257,55.5459355,42.0782045
22,улица Репина,602257,55.5462798,42.0780237
20,улица Репина,602257,55.5464229,42.0779634
28,улица Репина,602257,55.5463822,42.0785594
30,улица Репина,602257,55.5466401,42.0790278
32,улица Репина,602257,55.5467309,42.0795639
34,улица Репина,602257,55.5467688,42.0800634
36,улица Репина,602257,55.5468537,42.0805050
38,улица Репина,602257,55.5468001,42.0808686
40,улица Репина,602257,55.5465803,42.0809833
42,улица Репина,602257,55.5466723,42.0814629
44,улица Репина,602257,55.5468951,42.0813169
44А,улица Репина,602257,55.5469437,42.0816704
46,улица Репина,602257,55.5469907,42.0822500
48,улица Репина,602257,55.5470213,42.0827531
50,улица Репина,602257,55.5470837,42.0832400
54,улица Репина,602257,55.5470273,42.0843642
52,улица Репина,602257,55.5472055,42.0843038
69,улица Репина,602257,55.5474031,42.0841688
67,улица Репина,602257,55.5473655,42.0838342
65,улица Репина,602257,55.5473568,42.0835126
63,улица Репина,602257,55.5473376,42.0831984
61,улица Репина,602257,55.5472949,42.0827445
59,улица Репина,602257,55.5472820,42.0824374
57,улица Репина,602257,55.5472764,42.0820631
55,улица Репина,602257,55.5472352,42.0817775
53,улица Репина,602257,55.5471934,42.0813737
51,улица Репина,602257,55.5471929,42.0810897
47,улица Репина,602257,55.5477820,42.0812716
49,улица Репина,602257,55.5475411,42.0808577
43,улица Репина,602257,55.5474920,42.0804155
41,улица Репина,602257,55.5471385,42.0804720
39,улица Репина,602257,55.5471306,42.0802419
37,улица Репина,602257,55.5470607,42.0798073
35,улица Репина,602257,55.5470605,42.0794852
33,улица Репина,602257,55.5469713,42.0791374
31,улица Репина,602257,55.5469489,42.0788668
29,улица Репина,602257,55.5470507,42.0784286
27,улица Репина,602257,55.5468130,42.0781790
25,улица Репина,602257,55.5467762,42.0780101
23,улица Репина,602257,55.5466829,42.0776505
21,улица Репина,602257,55.5466198,42.0773375
19,улица Репина,602257,55.5465305,42.0770331
17,улица Репина,602257,55.5464376,42.0766893
15,улица Репина,602257,55.5464082,42.0763553
13,улица Репина,602257,55.5462759,42.0759719
11,улица Репина,602257,55.5462187,42.0754833
9,улица Репина,602257,55.5463616,42.0753790
7,улица Репина,602257,55.5463914,42.0748351
5,улица Репина,602257,55.5461232,42.0749833
3А,улица Репина,602257,55.5459923,42.0744013
3,улица Репина,602257,55.5459129,42.0739693
1,улица Репина,602257,55.5458365,42.0734149
24,улица Красный Октябрь,602257,55.5482353,42.0853194
25,улица Красный Октябрь,602257,55.5480405,42.0855521
26,улица Красный Октябрь,602257,55.5478028,42.0855735
27,улица Красный Октябрь,602257,55.5476557,42.0856720
28,улица Красный Октябрь,602257,55.5474516,42.0857940
29,улица Красный Октябрь,602257,55.5472737,42.0858880
30,улица Красный Октябрь,602257,55.5470922,42.0859976
31,улица Красный Октябрь,602257,55.5469168,42.0860370
32,улица Красный Октябрь,602257,55.5463779,42.0864620
33,улица Красный Октябрь,602257,55.5461112,42.0863868
34,улица Красный Октябрь,602257,55.5459695,42.0868384
35,улица Красный Октябрь,602257,55.5457479,42.0864323
36,улица Красный Октябрь,602257,55.5456676,42.0869118
37,улица Красный Октябрь,602257,55.5454426,42.0864960
38,улица Красный Октябрь,602257,55.5454055,42.0870930
39,улица Красный Октябрь,602257,55.5452411,42.0865579
8,улица Красный Октябрь,602257,55.5449762,42.0867400
40,улица Красный Октябрь,602257,55.5450004,42.0872738
41,улица Красный Октябрь,602257,55.5445011,42.0872642
42,улица Красный Октябрь,602257,55.5442873,42.0874623
43,улица Красный Октябрь,602257,55.5440888,42.0876827
44,улица Красный Октябрь,602257,55.5439528,42.0877705
1А,улица Красный Октябрь,602257,55.5433400,42.0868947
1,улица Красный Октябрь,602257,55.5436158,42.0872001
2,улица Красный Октябрь,602257,55.5438418,42.0870764
3А,улица Красный Октябрь,602257,55.5439920,42.0869536
3,улица Красный Октябрь,602257,55.5441403,42.0868726
4,улица Красный Октябрь,602257,55.5443490,42.0866875
5,улица Красный Октябрь,602257,55.5445483,42.0865994
6,улица Красный Октябрь,602257,55.5447277,42.0864585
7,улица Красный Октябрь,602257,55.5448958,42.0863806
10А,улица Красный Октябрь,602257,55.5453069,42.0861898
10,улица Красный Октябрь,602257,55.5455527,42.0860466
11,улица Красный Октябрь,602257,55.5457456,42.0860368
12,улица Красный Октябрь,602257,55.5459389,42.0859703
13,улица Красный Октябрь,602257,55.5460829,42.0859216
14,улица Красный Октябрь,602257,55.5463098,42.0858565
15,улица Красный Октябрь,602257,55.5465272,42.0857928
16,улица Красный Октябрь,602257,55.5468338,42.0855569
17,улица Красный Октябрь,602257,55.5470108,42.0854715
18,улица Красный Октябрь,602257,55.5472285,42.0853739
19,улица Красный Октябрь,602257,55.5473871,42.0853007
20,улица Красный Октябрь,602257,55.5475857,42.0851776
21,улица Красный Октябрь,602257,55.5477703,42.0850997
22,улица Красный Октябрь,602257,55.5479990,42.0849681
23,улица Красный Октябрь,602257,55.5481310,42.0849564
1,Совхозная улица,602257,55.5423710,42.0750068
98,Совхозная улица,602257,55.5356337,42.0762134
96,Совхозная улица,602257,55.5359012,42.0761658
94,Совхозная улица,602257,55.5361228,42.0761527
92,Совхозная улица,602257,55.5363296,42.0762031
90,Совхозная улица,602257,55.5365146,42.0761481
88,Совхозная улица,602257,55.5367732,42.0761574
35,Совхозная улица,602257,55.5371992,42.0760357
33,Совхозная улица,602257,55.5375671,42.0760689
31,Совхозная улица,602257,55.5379624,42.0760578
29,Совхозная улица,602257,55.5382047,42.0760851
82А,Совхозная улица,602257,55.5383092,42.0770540
27,Совхозная улица,602257,55.5385246,42.0761005
25,Совхозная улица,602257,55.5388639,42.0761112
21,Совхозная улица,602257,55.5388456,42.0766953
19,Совхозная улица,602257,55.5391355,42.0766581
23,Совхозная улица,602257,55.5392796,42.0761042
17,Совхозная улица,602257,55.5394764,42.0766862
21А,Совхозная улица,602257,55.5395558,42.0760942
15,Совхозная улица,602257,55.5397006,42.0767003
13,Совхозная улица,602257,55.5399771,42.0767010
9,Совхозная улица,602257,55.5405974,42.0767526
39,Совхозная улица,602257,55.5405438,42.0761612
7,Совхозная улица,602257,55.5409122,42.0766886
63,Карачаровская улица,602257,55.5412125,42.0767619
74,Совхозная улица,602257,55.5442460,42.0728781
76,Совхозная улица,602257,55.5440885,42.0731159
78,Совхозная улица,602257,55.5438638,42.0732004
2,Карачаровская улица,602257,55.5455135,42.0734957
4,Карачаровская улица,602257,55.5453555,42.0736426
6,Карачаровская улица,602257,55.5451791,42.0738109
8,Карачаровская улица,602257,55.5449226,42.0740811
10,Карачаровская улица,602257,55.5440174,42.0750884
12,Карачаровская улица,602257,55.5438501,42.0752915
14,Карачаровская улица,602257,55.5427795,42.0769376
16,Карачаровская улица,602257,55.5425338,42.0770848
86,Совхозная улица,602257,55.5426700,42.0747121
59,Карачаровская улица,602257,55.5417523,42.0774208
57,Карачаровская улица,602257,55.5418932,42.0771442
55,Карачаровская улица,602257,55.5420463,42.0769301
53,Карачаровская улица,602257,55.5421804,42.0766998
51,Карачаровская улица,602257,55.5423300,42.0764681
49,Карачаровская улица,602257,55.5424818,42.0763113
47,Карачаровская улица,602257,55.5426291,42.0760863
45,Карачаровская улица,602257,55.5428239,42.0758655
43,Карачаровская улица,602257,55.5429891,42.0755805
41,Карачаровская улица,602257,55.5431628,42.0752928
39,Карачаровская улица,602257,55.5433223,42.0751427
37,Карачаровская улица,602257,55.5434609,42.0750157
35,Карачаровская улица,602257,55.5436517,42.0747499
33,Карачаровская улица,602257,55.5437694,42.0745551
31,Карачаровская улица,602257,55.5439692,42.0743907
29,Карачаровская улица,602257,55.5440557,42.0742274
27,Карачаровская улица,602257,55.5443231,42.0738169
25,Карачаровская улица,602257,55.5445409,42.0735674
23,Карачаровская улица,602257,55.5446562,42.0734424
21,Карачаровская улица,602257,55.5447927,42.0732245
19,Карачаровская улица,602257,55.5449599,42.0730046
17,Карачаровская улица,602257,55.5451113,42.0728395
15,Карачаровская улица,602257,55.5452784,42.0726277
13,Карачаровская улица,602257,55.5453962,42.0724765
11,Карачаровская улица,602257,55.5455956,42.0722294
9,Карачаровская улица,602257,55.5457087,42.0720658
7,Карачаровская улица,602257,55.5460559,42.0716805
5,Карачаровская улица,602257,55.5462335,42.0714940
3,Карачаровская улица,602257,55.5464122,42.0712685
1,Карачаровская улица,602257,55.5465554,42.0711534
18,Карачаровская улица,602257,55.5413965,42.0785883
22,Карачаровская улица,602257,55.5397988,42.0785846
24,Карачаровская улица,602257,55.5395521,42.0785693
26,Карачаровская улица,602257,55.5393762,42.0786025
28,Карачаровская улица,602257,55.5391943,42.0785853
30,Карачаровская улица,602257,55.5389776,42.0785934
32,Карачаровская улица,602257,55.5387890,42.0785499
34,Карачаровская улица,602257,55.5386108,42.0785636
34А,Карачаровская улица,602257,55.5385430,42.0789661
36,Карачаровская улица,602257,55.5385561,42.0795096
38,Карачаровская улица,602257,55.5383172,42.0785432
40,Карачаровская улица,602257,55.5381234,42.0785539
42,Карачаровская улица,602257,55.5379014,42.0785374
44,Карачаровская улица,602257,55.5377438,42.0785299
46,Карачаровская улица,602257,55.5375463,42.0785188
48,Карачаровская улица,602257,55.5373539,42.0785133
50,Карачаровская улица,602257,55.5371498,42.0784893
52,Карачаровская улица,602257,55.5369774,42.0785097
54,Карачаровская улица,602257,55.5366500,42.0786104
56,Карачаровская улица,602257,55.5364767,42.0784551
58,Карачаровская улица,602257,55.5362923,42.0784292
60,Карачаровская улица,602257,55.5361022,42.0784790
62,Карачаровская улица,602257,55.5359065,42.0784169
64,Карачаровская улица,602257,55.5357250,42.0783490
66,Карачаровская улица,602257,55.5353649,42.0783522
68,Карачаровская улица,602257,55.5351715,42.0783099
70,Карачаровская улица,602257,55.5350137,42.0782935
72,Карачаровская улица,602257,55.5348197,42.0782803
74,Карачаровская улица,602257,55.5346534,42.0782622
76,Карачаровская улица,602257,55.5344684,42.0782054
78,Карачаровская улица,602257,55.5342597,42.0781951
80,Карачаровская улица,602257,55.5340874,42.0781495
82,Карачаровская улица,602257,55.5338846,42.0782848
84,Карачаровская улица,602257,55.5336328,42.0786290
133,Карачаровская улица,602257,55.5343563,42.0776127
131,Карачаровская улица,602257,55.5346231,42.0774181
129,Карачаровская улица,602257,55.5348248,42.0774051
127,Карачаровская улица,602257,55.5349947,42.0774257
125,Карачаровская улица,602257,55.5352144,42.0774782
123,Карачаровская улица,602257,55.5354122,42.0773846
121,Карачаровская улица,602257,55.5355780,42.0775073
119,Карачаровская улица,602257,55.5357291,42.0775429
117,Карачаровская улица,602257,55.5359094,42.0774454
115,Карачаровская улица,602257,55.5361169,42.0774850
113,Карачаровская улица,602257,55.5362943,42.0776177
111,Карачаровская улица,602257,55.5365064,42.0776131
109,Карачаровская улица,602257,55.5366898,42.0776477
107,Карачаровская улица,602257,55.5369874,42.0778299
105,Карачаровская улица,602257,55.5371861,42.0778179
103,Карачаровская улица,602257,55.5373338,42.0778194
101,Карачаровская улица,602257,55.5374953,42.0778225
99,Карачаровская улица,602257,55.5377570,42.0778176
97,Карачаровская улица,602257,55.5379308,42.0778589
95,Карачаровская улица,602257,55.5381343,42.0778480
93,Карачаровская улица,602257,55.5383241,42.0778937
91,Карачаровская улица,602257,55.5386316,42.0778907
89,Карачаровская улица,602257,55.5388047,42.0778863
87,Карачаровская улица,602257,55.5390072,42.0780367
85,Карачаровская улица,602257,55.5391956,42.0780445
83,Карачаровская улица,602257,55.5393521,42.0780058
81,Карачаровская улица,602257,55.5395705,42.0780182
79,Карачаровская улица,602257,55.5397952,42.0780715
77,Карачаровская улица,602257,55.5400642,42.0780621
75,Карачаровская улица,602257,55.5402511,42.0781169
73,Карачаровская улица,602257,55.5404470,42.0781363
71,Карачаровская улица,602257,55.5406072,42.0781183
69,Карачаровская улица,602257,55.5407715,42.0780266
67,Карачаровская улица,602257,55.5409677,42.0781422
65,Карачаровская улица,602257,55.5412613,42.0779236
61,Карачаровская улица,602257,55.5414842,42.0777816
2,улица Ярославского,602257,55.5394879,42.0814747
4,улица Ярославского,602257,55.5393833,42.0814324
6,улица Ярославского,602257,55.5391082,42.0814435
8,улица Ярославского,602257,55.5389632,42.0818740
10,улица Ярославского,602257,55.5387882,42.0814364
12,улица Ярославского,602257,55.5386106,42.0814046
14,улица Ярославского,602257,55.5383191,42.0814333
16,улица Ярославского,602257,55.5380882,42.0813996
18,улица Ярославского,602257,55.5379195,42.0813904
20,улица Ярославского,602257,55.5377313,42.0813797
22,улица Ярославского,602257,55.5375266,42.0814087
24,улица Ярославского,602257,55.5373171,42.0813134
26,улица Ярославского,602257,55.5370781,42.0813304
28,улица Ярославского,602257,55.5369582,42.0813301
30,улица Ярославского,602257,55.5366509,42.0815604
32,улица Ярославского,602257,55.5364247,42.0812711
34,улица Ярославского,602257,55.5361985,42.0812604
36,улица Ярославского,602257,55.5360125,42.0812248
38,улица Ярославского,602257,55.5358229,42.0812393
40,улица Ярославского,602257,55.5356531,42.0812007
42,улица Ярославского,602257,55.5353650,42.0812068
44,улица Ярославского,602257,55.5351565,42.0811958
46,улица Ярославского,602257,55.5349558,42.0811453
48,улица Ярославского,602257,55.5347646,42.0811353
50,улица Ярославского,602257,55.5345392,42.0811386
52,улица Ярославского,602257,55.5343492,42.0810713
54,улица Ярославского,602257,55.5341708,42.0810411
56,улица Ярославского,602257,55.5339931,42.0810434
58,улица Ярославского,602257,55.5337542,42.0810026
60,улица Ярославского,602257,55.5335716,42.0809375
59,улица Ярославского,602257,55.5337981,42.0804088
57,улица Ярославского,602257,55.5340018,42.0804876
55,улица Ярославского,602257,55.5341662,42.0804902
53,улица Ярославского,602257,55.5343815,42.0805271
51,улица Ярославского,602257,55.5345445,42.0805174
49,улица Ярославского,602257,55.5347535,42.0805758
47,улица Ярославского,602257,55.5349028,42.0805851
45,улица Ярославского,602257,55.5351158,42.0805773
43А,улица Ярославского,602257,55.5352716,42.0805740
43,улица Ярославского,602257,55.5353929,42.0806458
41,улица Ярославского,602257,55.5356793,42.0806173
39,улица Ярославского,602257,55.5358470,42.0806878
37,улица Ярославского,602257,55.5360570,42.0806827
35,улица Ярославского,602257,55.5362435,42.0806988
33,улица Ярославского,602257,55.5364437,42.0807230
31,улица Ярославского,602257,55.5366506,42.0806910
29,улица Ярославского,602257,55.5369362,42.0807531
27,улица Ярославского,602257,55.5371094,42.0807558
25,улица Ярославского,602257,55.5373406,42.0807766
23,улица Ярославского,602257,55.5374958,42.0808165
21,улица Ярославского,602257,55.5376771,42.0808205
19,улица Ярославского,602257,55.5378881,42.0807867
17,улица Ярославского,602257,55.5381065,42.0807729
15,улица Ярославского,602257,55.5382861,42.0804983
13,улица Ярославского,602257,55.5385753,42.0808294
11,улица Ярославского,602257,55.5387123,42.0808545
9,улица Ярославского,602257,55.5389620,42.0808393
7,улица Ярославского,602257,55.5391521,42.0808527
5,улица Ярославского,602257,55.5393045,42.0807205
3,улица Ярославского,602257,55.5394759,42.0808152
1,улица Ярославского,602257,55.5397086,42.0798003
33,Касимовская улица,602257,55.5368905,42.0825799
2,Касимовская улица,602257,55.5402343,42.0841664
4А,Касимовская улица,602257,55.5400304,42.0843845
4,Касимовская улица,602257,55.5399272,42.0841657
6,Касимовская улица,602257,55.5397569,42.0842711
8,Касимовская улица,602257,55.5395431,42.0842549
10,Касимовская улица,602257,55.5393618,42.0842219
12,Касимовская улица,602257,55.5391492,42.0842155
14,Касимовская улица,602257,55.5389676,42.0842415
16,Касимовская улица,602257,55.5387850,42.0842332
18,Касимовская улица,602257,55.5385413,42.0841998
20,Касимовская улица,602257,55.5385769,42.0851308
22,Касимовская улица,602257,55.5382871,42.0851378
24,Касимовская улица,602257,55.5382186,42.0841895
26,Касимовская улица,602257,55.5380844,42.0841731
28,Касимовская улица,602257,55.5378728,42.0843244
30,Касимовская улица,602257,55.5377268,42.0842157
32,Касимовская улица,602257,55.5375545,42.0842551
32А,Касимовская улица,602257,55.5374635,42.0841846
34,Касимовская улица,602257,55.5372881,42.0842131
36,Касимовская улица,602257,55.5370782,42.0841774
38,Касимовская улица,602257,55.5369065,42.0841880
40,Касимовская улица,602257,55.5366415,42.0841686
42,Касимовская улица,602257,55.5364323,42.0841705
44,Касимовская улица,602257,55.5362145,42.0845538
46,Касимовская улица,602257,55.5360580,42.0841310
48,Касимовская улица,602257,55.5358045,42.0841485
50,Касимовская улица,602257,55.5356551,42.0841364
52А,Касимовская улица,602257,55.5353243,42.0840975
52Б,Касимовская улица,602257,55.5351858,42.0841162
52,Касимовская улица,602257,55.5350917,42.0841516
54,Касимовская улица,602257,55.5349370,42.0841981
56,Касимовская улица,602257,55.5347671,42.0842903
58А,Касимовская улица,602257,55.5341152,42.0837956
65А,Касимовская улица,602257,55.5336236,42.0829673
65,Касимовская улица,602257,55.5338754,42.0834072
63,Касимовская улица,602257,55.5341883,42.0832583
61,Касимовская улица,602257,55.5344077,42.0833660
59,Касимовская улица,602257,55.5346079,42.0833629
57,Касимовская улица,602257,55.5347841,42.0833576
55,Касимовская улица,602257,55.5349653,42.0833910
53,Касимовская улица,602257,55.5351388,42.0833843
51,Касимовская улица,602257,55.5353313,42.0833891
49,Касимовская улица,602257,55.5354053,42.0823152
47,Касимовская улица,602257,55.5356377,42.0827155
43,Касимовская улица,602257,55.5358404,42.0832734
41,Касимовская улица,602257,55.5360441,42.0832120
39,Касимовская улица,602257,55.5362038,42.0834856
37,Касимовская улица,602257,55.5364005,42.0835077
35,Касимовская улица,602257,55.5365955,42.0834511
31,Касимовская улица,602257,55.5369149,42.0835151
29,Касимовская улица,602257,55.5370631,42.0835329
27,Касимовская улица,602257,55.5372919,42.0835416
25,Касимовская улица,602257,55.5374585,42.0835681
23,Касимовская улица,602257,55.5376933,42.0835254
21,Касимовская улица,602257,55.5378625,42.0835025
19,Касимовская улица,602257,55.5380650,42.0834972
17,Касимовская улица,602257,55.5382652,42.0835536
15,Касимовская улица,602257,55.5385710,42.0835511
13,Касимовская улица,602257,55.5387103,42.0836301
11,Касимовская улица,602257,55.5389389,42.0836177
9,Касимовская улица,602257,55.5391147,42.0836178
7,Касимовская улица,602257,55.5393635,42.0835999
5,Касимовская улица,602257,55.5394765,42.0836123
3,Касимовская улица,602257,55.5397160,42.0836391
1,Касимовская улица,602257,55.5399320,42.0836256
22,улица Красина,602257,55.5413095,42.0874617
2,улица Мира,602257,55.5411753,42.0868892
4,улица Мира,602257,55.5409834,42.0869249
6,улица Мира,602257,55.5407405,42.0869045
8,улица Мира,602257,55.5405014,42.0869294
10,улица Мира,602257,55.5403074,42.0869354
12,улица Мира,602257,55.5400695,42.0869232
14,улица Мира,602257,55.5398266,42.0868942
16,улица Мира,602257,55.5396364,42.0869622
18,улица Мира,602257,55.5394894,42.0868932
20,улица Мира,602257,55.5392435,42.0869472
22,улица Мира,602257,55.5391154,42.0869024
24,улица Мира,602257,55.5389962,42.0868886
26,улица Мира,602257,55.5388581,42.0868971
28,улица Мира,602257,55.5387086,42.0869285
30,улица Мира,602257,55.5385403,42.0869627
32,улица Мира,602257,55.5383717,42.0868916
34,улица Мира,602257,55.5381718,42.0868816
36,улица Мира,602257,55.5380241,42.0869038
38,улица Мира,602257,55.5378247,42.0868689
40,улица Мира,602257,55.5376307,42.0869530
42,улица Мира,602257,55.5374602,42.0869044
44,улица Мира,602257,55.5370870,42.0868732
46,улица Мира,602257,55.5369408,42.0868812
48,улица Мира,602257,55.5367112,42.0868696
50,улица Мира,602257,55.5365332,42.0868760
52,улица Мира,602257,55.5363183,42.0868354
54,улица Мира,602257,55.5361630,42.0868095
56,улица Мира,602257,55.5359695,42.0868581
58,улица Мира,602257,55.5357465,42.0868266
60,улица Мира,602257,55.5354906,42.0868524
62,улица Мира,602257,55.5353324,42.0868206
64,улица Мира,602257,55.5351736,42.0868742
227,Приокская улица,602257,55.5348922,42.0875257
229,Приокская улица,602257,55.5345437,42.0869285
231,Приокская улица,602257,55.5344985,42.0867129
233,Приокская улица,602257,55.5344795,42.0862657
237,Приокская улица,602257,55.5342833,42.0860344
235,Приокская улица,602257,55.5344322,42.0857302
57,улица Мира,602257,55.5350740,42.0864316
55,улица Мира,602257,55.5352779,42.0863526
53,улица Мира,602257,55.5355089,42.0863394
51,улица Мира,602257,55.5357148,42.0863414
49,улица Мира,602257,55.5358804,42.0863435
47,улица Мира,602257,55.5360993,42.0863231
45,улица Мира,602257,55.5362793,42.0862151
43,улица Мира,602257,55.5364928,42.0863167
41,улица Мира,602257,55.5366406,42.0862614
39,улица Мира,602257,55.5369951,42.0862717
37,улица Мира,602257,55.5371554,42.0862822
35,улица Мира,602257,55.5373869,42.0863214
33,улица Мира,602257,55.5375688,42.0862944
31,улица Мира,602257,55.5377705,42.0863230
29,улица Мира,602257,55.5379321,42.0863418
27,улица Мира,602257,55.5381045,42.0863227
25,улица Мира,602257,55.5383756,42.0863248
23,улица Мира,602257,55.5386820,42.0863109
21,улица Мира,602257,55.5388476,42.0863068
19,улица Мира,602257,55.5390761,42.0863167
17,улица Мира,602257,55.5392729,42.0863170
15,улица Мира,602257,55.5394540,42.0862408
13,улица Мира,602257,55.5396313,42.0862560
11,улица Мира,602257,55.5398339,42.0862915
9,улица Мира,602257,55.5400260,42.0863147
7,улица Мира,602257,55.5402950,42.0862872
5,улица Мира,602257,55.5405714,42.0862798
3,улица Мира,602257,55.5407865,42.0863202
1,улица Мира,602257,55.5410059,42.0862889
69,Касимовская улица,602257,55.5335972,42.0866315
73,Касимовская улица,602257,55.5336487,42.0860189
79,Касимовская улица,602257,55.5334415,42.0851077
11,проезд Кирова,602253,55.5511495,42.0823393
9,проезд Кирова,602253,55.5512439,42.0829629
7,проезд Кирова,602253,55.5515419,42.0833609
1,проезд Кирова,602253,55.5513210,42.0840170
3,проезд Кирова,602253,55.5517502,42.0840029
5,проезд Кирова,602253,55.5518139,42.0832489
12,улица Кирова,602253,55.5489415,42.0773866
14,улица Кирова,602253,55.5488512,42.0768025
10,улица Кирова,602253,55.5487590,42.0804684
4,улица Кирова,602253,55.5492201,42.0811894
8,улица Кирова,602253,55.5490446,42.0802075
6,улица Кирова,602253,55.5493548,42.0802683
ZZ,улица Кирова,602253,55.5502736,42.0808842
1,улица Кирова,602253,55.5497986,42.0809258
3,улица Кирова,602253,55.5496885,42.0801215
5,улица Кирова,602253,55.5495723,42.0792410
7,улица Кирова,602253,55.5495704,42.0784903
27,проезд Кирова,602253,55.5499899,42.0782795
17,проезд Кирова,602253,55.5508690,42.0802530
15,проезд Кирова,602253,55.5510065,42.0811138
21,проезд Кирова,602253,55.5504714,42.0782245
26,Радужная улица,602253,55.5433942,42.0663395
24,Радужная улица,602253,55.5434626,42.0667324
22,Радужная улица,602253,55.5435737,42.0672581
20,Радужная улица,602253,55.5436569,42.0677969
14,Радужная улица,602253,55.5437412,42.0688937
12,Радужная улица,602253,55.5438694,42.0695477
10,Радужная улица,602253,55.5439485,42.0700255
8,Радужная улица,602253,55.5440303,42.0705205
6,Радужная улица,602253,55.5440898,42.0709925
4,Радужная улица,602253,55.5441184,42.0713232
2,Радужная улица,602253,55.5441532,42.0716068
1,Радужная улица,602253,55.5444691,42.0709964
3,Радужная улица,602253,55.5444135,42.0705485
5,Радужная улица,602253,55.5443347,42.0700037
7,Радужная улица,602253,55.5442323,42.0693528
9,Радужная улица,602253,55.5442029,42.0689891
11,Радужная улица,602253,55.5441256,42.0685656
13,Радужная улица,602253,55.5440781,42.0682870
21,Радужная улица,602253,55.5437530,42.0660873
18,Сиреневая улица,602253,55.5441584,42.0658927
14,Сиреневая улица,602253,55.5443041,42.0672728
8,Сиреневая улица,602253,55.5445204,42.0689447
4,Сиреневая улица,602253,55.5446551,42.0697589
2,Сиреневая улица,602253,55.5447364,42.0703428
1,Сиреневая улица,602253,55.5450711,42.0700882
3,Сиреневая улица,602253,55.5450111,42.0695961
5,Сиреневая улица,602253,55.5449573,42.0692342
7,Сиреневая улица,602253,55.5448725,42.0685341
9,Сиреневая улица,602253,55.5447870,42.0680675
11,Сиреневая улица,602253,55.5447173,42.0675315
13,Сиреневая улица,602253,55.5446657,42.0671027
15,Сиреневая улица,602253,55.5445960,42.0665478
17,Сиреневая улица,602253,55.5444950,42.0658668
16,Рябиновая улица,602253,55.5448379,42.0656793
12,Рябиновая улица,602253,55.5449638,42.0667339
10,Рябиновая улица,602253,55.5450558,42.0670846
8,Рябиновая улица,602253,55.5451204,42.0676951
6,Рябиновая улица,602253,55.5451620,42.0681505
2,Рябиновая улица,602253,55.5454190,42.0696236
1,Рябиновая улица,602253,55.5457345,42.0692779
2,Каштановая улица,602253,55.5459936,42.0689598
2А,Каштановая улица,602253,55.5458399,42.0686410
3,Рябиновая улица,602253,55.5456576,42.0686490
5,Рябиновая улица,602253,55.5456115,42.0682269
7,Рябиновая улица,602253,55.5455451,42.0678668
9,Рябиновая улица,602253,55.5454733,42.0674537
11,Рябиновая улица,602253,55.5454114,42.0670085
13,Рябиновая улица,602253,55.5453467,42.0665836
15,Рябиновая улица,602253,55.5452955,42.0662118
17,Рябиновая улица,602253,55.5452096,42.0656486
16,Каштановая улица,602253,55.5457117,42.0654413
14,Каштановая улица,602253,55.5457663,42.0658873
12,Каштановая улица,602253,55.5458304,42.0663278
10,Каштановая улица,602253,55.5458900,42.0667346
8,Каштановая улица,602253,55.5459408,42.0671178
6,Каштановая улица,602253,55.5459951,42.0675334
4,Каштановая улица,602253,55.5460624,42.0679368
1,Каштановая улица,602253,55.5464554,42.0676093
3,Каштановая улица,602253,55.5463902,42.0671878
5,Каштановая улица,602253,55.5463272,42.0667332
7,Каштановая улица,602253,55.5462598,42.0662655
9,Каштановая улица,602253,55.5461921,42.0658078
11,Каштановая улица,602253,55.5461167,42.0653106
44,Радужная улица,602253,55.5428138,42.0622090
42,Радужная улица,602253,55.5429254,42.0628114
40,Радужная улица,602253,55.5429611,42.0632059
32,Радужная улица,602253,55.5432091,42.0648205
30,Радужная улица,602253,55.5432862,42.0652922
44,Сиреневая улица,602253,55.5433408,42.0602545
37,Радужная улица,602253,55.5432263,42.0625840
33,Радужная улица,602253,55.5433860,42.0634289
31,Радужная улица,602253,55.5434221,42.0638922
27,Радужная улица,602253,55.5435076,42.0646136
25,Радужная улица,602253,55.5435773,42.0651163
23,Радужная улица,602253,55.5436622,42.0655916
30,Сиреневая улица,602253,55.5437624,42.0633050
28,Сиреневая улица,602253,55.5438278,42.0637373
26,Сиреневая улица,602253,55.5438865,42.0641568
24,Сиреневая улица,602253,55.5439141,42.0645897
20,Сиреневая улица,602253,55.5440313,42.0654248
18,Каштановая улица,602253,55.5456034,42.0647192
20,Каштановая улица,602253,55.5455264,42.0643061
22,Каштановая улица,602253,55.5454904,42.0638301
19А,Рябиновая улица,602253,55.5452767,42.0648539
19,Рябиновая улица,602253,55.5450290,42.0647876
21,Рябиновая улица,602253,55.5449721,42.0642176
18,Рябиновая улица,602253,55.5448357,42.0649557
19,Сиреневая улица,602253,55.5446486,42.0651926
21,Сиреневая улица,602253,55.5443634,42.0648577
27,Сиреневая улица,602253,55.5441740,42.0637334
41,Сиреневая улица,602253,55.5437998,42.0609913
43,Сиреневая улица,602253,55.5437209,42.0605883
47,Сиреневая улица,602253,55.5436471,42.0597310
49,Сиреневая улица,602253,55.5436158,42.0593377
57,Сиреневая улица,602253,55.5433506,42.0576758
28,Каштановая улица,602253,55.5447939,42.0615669
26,Каштановая улица,602253,55.5449100,42.0623240
24,Каштановая улица,602253,55.5450324,42.0631931
25,Новая улица,602253,55.5520415,42.0714877
41А,Новая улица,602253,55.5535498,42.0708452
2Г,улица Орджоникидзе,602253,55.5488219,42.0716589
2В,улица Орджоникидзе,602253,55.5490026,42.0715895
2Б,улица Орджоникидзе,602253,55.5491739,42.0714564
2А,улица Орджоникидзе,602253,55.5494381,42.0713363
2Д,улица Орджоникидзе,602253,55.5496265,42.0712052
4А,улица Орджоникидзе,602253,55.5498786,42.0711261
6А,улица Орджоникидзе,602253,55.5500608,42.0709797
8А,улица Орджоникидзе,602253,55.5502938,42.0709028
10,улица Орджоникидзе,602253,55.5505155,42.0708046
14,улица Орджоникидзе,602253,55.5509612,42.0706549
16,улица Орджоникидзе,602253,55.5511551,42.0705699
18,улица Орджоникидзе,602253,55.5513822,42.0704384
20,улица Орджоникидзе,602253,55.5515992,42.0703265
22А,улица Орджоникидзе,602253,55.5517786,42.0698406
22,улица Орджоникидзе,602253,55.5518506,42.0702807
24А,улица Орджоникидзе,602253,55.5520504,42.0697098
24,улица Орджоникидзе,602253,55.5522035,42.0700561
26,улица Орджоникидзе,602253,55.5524408,42.0700186
28,улица Орджоникидзе,602253,55.5526004,42.0698919
30,улица Орджоникидзе,602253,55.5528103,42.0697819
32,улица Орджоникидзе,602253,55.5530884,42.0696937
34,улица Орджоникидзе,602253,55.5532990,42.0696212
36,улица Орджоникидзе,602253,55.5535104,42.0695101
38,улица Орджоникидзе,602253,55.5537426,42.0694082
40,улица Орджоникидзе,602253,55.5539543,42.0692436
42,улица Орджоникидзе,602253,55.5541863,42.0691684
42А,улица Орджоникидзе,602253,55.5541035,42.0687708
11,Новая улица,602253,55.5509626,42.0719526
55,улица Орджоникидзе,602253,55.5543179,42.0698213
53,улица Орджоникидзе,602253,55.5541137,42.0699618
51,улица Орджоникидзе,602253,55.5538930,42.0699916
49,улица Орджоникидзе,602253,55.5537593,42.0700675
47,улица Орджоникидзе,602253,55.5535663,42.0701439
45,улица Орджоникидзе,602253,55.5533859,42.0702091
43,улица Орджоникидзе,602253,55.5531675,42.0703192
41,улица Орджоникидзе,602253,55.5530129,42.0703884
39,улица Орджоникидзе,602253,55.5528403,42.0704565
37,улица Орджоникидзе,602253,55.5526659,42.0705934
28,Новая улица,602253,55.5523362,42.0713502
35,улица Орджоникидзе,602253,55.5524725,42.0706595
33,улица Орджоникидзе,602253,55.5522833,42.0707029
31А,улица Орджоникидзе,602253,55.5521200,42.0707728
31,улица Орджоникидзе,602253,55.5519292,42.0708305
29,улица Орджоникидзе,602253,55.5517473,42.0709334
27,улица Орджоникидзе,602253,55.5515549,42.0710314
25,улица Орджоникидзе,602253,55.5513576,42.0711205
23,улица Орджоникидзе,602253,55.5511843,42.0711486
21,улица Орджоникидзе,602253,55.5510231,42.0712491
19,улица Орджоникидзе,602253,55.5508383,42.0713020
17,улица Орджоникидзе,602253,55.5506322,42.0713647
15,улица Орджоникидзе,602253,55.5504524,42.0715159
13,улица Орджоникидзе,602253,55.5502827,42.0715280
11,улица Орджоникидзе,602253,55.5500964,42.0716176
9,улица Орджоникидзе,602253,55.5497656,42.0717880
7,улица Орджоникидзе,602253,55.5494615,42.0721073
5,улица Орджоникидзе,602253,55.5492180,42.0721224
3А,улица Орджоникидзе,602253,55.5490462,42.0722042
1А,улица Орджоникидзе,602253,55.5488677,42.0722498
5,Новая улица,602253,55.5499286,42.0728740
3,Новая улица,602253,55.5502247,42.0727650
4,Новая улица,602253,55.5503604,42.0726892
5А,Новая улица,602253,55.5505275,42.0726198
6,Новая улица,602253,55.5506595,42.0725662
7,Новая улица,602253,55.5508131,42.0725295
12,Новая улица,602253,55.5509621,42.0724398
13,Новая улица,602253,55.5511427,42.0723355
14,Новая улица,602253,55.5512654,42.0722940
15,Новая улица,602253,55.5514212,42.0722242
16,Новая улица,602253,55.5515444,42.0721727
20,Новая улица,602253,55.5515018,42.0717208
21,Новая улица,602253,55.5517055,42.0720867
22,Новая улица,602253,55.5518409,42.0720419
23,Новая улица,602253,55.5519934,42.0719880
24,Новая улица,602253,55.5521419,42.0718809
29,Новая улица,602253,55.5524108,42.0718093
30,Новая улица,602253,55.5525739,42.0717250
31,Новая улица,602253,55.5526909,42.0716842
32,Новая улица,602253,55.5528501,42.0716073
37,Новая улица,602253,55.5530112,42.0715497
38,Новая улица,602253,55.5531685,42.0714679
39,Новая улица,602253,55.5533248,42.0714393
40,Новая улица,602253,55.5534412,42.0713275
41,Новая улица,602253,55.5535879,42.0713243
42,Новая улица,602253,55.5537832,42.0712003
43,Новая улица,602253,55.5539040,42.0711527
44,Новая улица,602253,55.5539353,42.0707736
45,Новая улица,602253,55.5541063,42.0710797
46,Новая улица,602253,55.5542809,42.0706927
52,Панфиловская улица,602253,55.5536521,42.0678071
50,Панфиловская улица,602253,55.5534574,42.0678805
48,Панфиловская улица,602253,55.5532227,42.0679794
46,Панфиловская улица,602253,55.5529849,42.0681122
44,Панфиловская улица,602253,55.5528146,42.0681893
42,Панфиловская улица,602253,55.5526140,42.0682645
40,Панфиловская улица,602253,55.5523853,42.0683710
38,Панфиловская улица,602253,55.5521747,42.0684736
36,Панфиловская улица,602253,55.5518815,42.0681434
34,Панфиловская улица,602253,55.5519227,42.0685765
32,Панфиловская улица,602253,55.5515089,42.0683357
30,Панфиловская улица,602253,55.5515600,42.0687614
28,Панфиловская улица,602253,55.5513464,42.0688399
26,Панфиловская улица,602253,55.5510992,42.0689704
24,Панфиловская улица,602253,55.5508869,42.0690491
22,Панфиловская улица,602253,55.5506816,42.0691647
20,Панфиловская улица,602253,55.5504727,42.0692466
18,Панфиловская улица,602253,55.5502112,42.0693891
16,Панфиловская улица,602253,55.5500442,42.0694256
14,Панфиловская улица,602253,55.5497900,42.0695767
12,Панфиловская улица,602253,55.5496128,42.0696396
10,Панфиловская улица,602253,55.5493701,42.0697874
8,Панфиловская улица,602253,55.5491468,42.0698724
6,Панфиловская улица,602253,55.5488977,42.0699927
4,Панфиловская улица,602253,55.5486950,42.0700871
2,Панфиловская улица,602253,55.5485056,42.0702090
1,Панфиловская улица,602253,55.5486651,42.0706143
3,Панфиловская улица,602253,55.5488282,42.0705015
5,Панфиловская улица,602253,55.5489980,42.0704166
7,Панфиловская улица,602253,55.5492103,42.0703334
9,Панфиловская улица,602253,55.5494319,42.0702916
11,Панфиловская улица,602253,55.5496536,42.0701420
13,Панфиловская улица,602253,55.5498781,42.0701031
15,Панфиловская улица,602253,55.5500514,42.0699146
17,Панфиловская улица,602253,55.5503527,42.0698459
19,Панфиловская улица,602253,55.5505570,42.0697603
21,Панфиловская улица,602253,55.5507497,42.0696015
23,Панфиловская улица,602253,55.5509730,42.0695255
25,Панфиловская улица,602253,55.5511846,42.0694342
27,Панфиловская улица,602253,55.5513932,42.0693514
31,Панфиловская улица,602253,55.5517251,42.0696263
29,Панфиловская улица,602253,55.5516517,42.0692829
35,Панфиловская улица,602253,55.5519940,42.0695635
33,Панфиловская улица,602253,55.5520068,42.0690560
37,Панфиловская улица,602253,55.5522610,42.0690507
39,Панфиловская улица,602253,55.5524314,42.0688799
41,Панфиловская улица,602253,55.5526727,42.0687475
43,Панфиловская улица,602253,55.5528879,42.0687030
45,Панфиловская улица,602253,55.5531226,42.0685699
47,Панфиловская улица,602253,55.5533026,42.0684548
49,Панфиловская улица,602253,55.5535593,42.0683719
51,Панфиловская улица,602253,55.5537628,42.0682618
55,Панфиловская улица,602253,55.5540905,42.0685481
53,Панфиловская улица,602253,55.5539681,42.0681538
54,Панфиловская улица,602253,55.5538823,42.0676797
56,Панфиловская улица,602253,55.5538531,42.0672297
38,Совхозная улица,602253,55.5498462,42.0670437
40,Совхозная улица,602253,55.5496705,42.0672400
42,Совхозная улица,602253,55.5494844,42.0673868
44,Совхозная улица,602253,55.5493460,42.0675927
46,Совхозная улица,602253,55.5492166,42.0677201
48,Совхозная улица,602253,55.5490660,42.0679008
50,Совхозная улица,602253,55.5489105,42.0680405
52,Совхозная улица,602253,55.5487106,42.0682569
54,Совхозная улица,602253,55.5485611,42.0683724
56,Совхозная улица,602253,55.5483926,42.0685259
58,Совхозная улица,602253,55.5482506,42.0686848
21А,улица Кирова,602253,55.5481097,42.0681846
39,Совхозная улица,602253,55.5504062,42.0674243
41,Совхозная улица,602253,55.5502353,42.0675945
43,Совхозная улица,602253,55.5500923,42.0677391
45,Совхозная улица,602253,55.5499286,42.0679380
47,Совхозная улица,602253,55.5497754,42.0680926
49,Совхозная улица,602253,55.5496376,42.0682448
51,Совхозная улица,602253,55.5494589,42.0684191
53,Совхозная улица,602253,55.5493196,42.0685929
55,Совхозная улица,602253,55.5491432,42.0687105
57,Совхозная улица,602253,55.5489846,42.0688775
59,Совхозная улица,602253,55.5488571,42.0690148
61,Совхозная улица,602253,55.5486750,42.0692045
63,Совхозная улица,602253,55.5485245,42.0693398
65,Совхозная улица,602253,55.5483330,42.0695153
67,Совхозная улица,602253,55.5482091,42.0696511
8/1,Панфиловская улица,602253,55.5489809,42.0695039
1,Чапаевская улица,602253,55.5498499,42.0688803
3,Чапаевская улица,602253,55.5501331,42.0687401
7,Чапаевская улица,602253,55.5502975,42.0682872
11,Чапаевская улица,602253,55.5507092,42.0680337
13,Чапаевская улица,602253,55.5509411,42.0679066
15,Чапаевская улица,602253,55.5510987,42.0678007
19,Чапаевская улица,602253,55.5514670,42.0681474
17,Чапаевская улица,602253,55.5513976,42.0678190
21,Чапаевская улица,602253,55.5517638,42.0680053
23,Чапаевская улица,602253,55.5517579,42.0675435
2,Чапаевская улица,602253,55.5516053,42.0670841
4,Чапаевская улица,602253,55.5517943,42.0670477
6,Чапаевская улица,602253,55.5519385,42.0669702
25,Чапаевская улица,602253,55.5519688,42.0674262
27,Чапаевская улица,602253,55.5522040,42.0673649
8,Чапаевская улица,602253,55.5521501,42.0668593
10,Чапаевская улица,602253,55.5523398,42.0667731
29,Чапаевская улица,602253,55.5524012,42.0672277
12,Чапаевская улица,602253,55.5525093,42.0667289
31,Чапаевская улица,602253,55.5526127,42.0671670
14,Чапаевская улица,602253,55.5527228,42.0666008
33,Чапаевская улица,602253,55.5528299,42.0671550
16,Чапаевская улица,602253,55.5529144,42.0665116
35,Чапаевская улица,602253,55.5530999,42.0669188
37,Чапаевская улица,602253,55.5532728,42.0668847
20,Чапаевская улица,602253,55.5532967,42.0662484
39,Чапаевская улица,602253,55.5534722,42.0667514
22,Чапаевская улица,602253,55.5534871,42.0662095
43,Чапаевская улица,602253,55.5538270,42.0670202
41,Чапаевская улица,602253,55.5537274,42.0666088
24,Чапаевская улица,602253,55.5536556,42.0661348
23,улица Энгельса,602264,55.5478905,42.0607190
33,улица Энгельса,602264,55.5476004,42.0634807
31,улица Энгельса,602264,55.5475008,42.0630253
1В,улица Энгельса,602264,55.5467282,42.0519244
1Г,улица Энгельса,602264,55.5459264,42.0522590
135,Овражная улица,602253,55.5580942,42.0802163
32,Овражная улица,602253,55.5580449,42.0800242
35,Овражная улица,602253,55.5585226,42.0791233
26,Овражная улица,602253,55.5581972,42.0790882
33,Овражная улица,602253,55.5579228,42.0794231
21В,Овражная улица,602253,55.5582060,42.0769983
126,Овражная улица,602253,55.5584322,42.0775787
126Б,Овражная улица,602253,55.5586311,42.0776893
126А,Овражная улица,602253,55.5584820,42.0778000
36,Овражная улица,602253,55.5589722,42.0783411
18,Овражная улица,602253,55.5588561,42.0787100
12А,Овражная улица,602253,55.5590822,42.0788390
50,Овражная улица,602253,55.5592126,42.0795267
49,Овражная улица,602253,55.5593329,42.0791676
12,Овражная улица,602253,55.5592803,42.0787784
10,Овражная улица,602253,55.5595443,42.0789386
30,Овражная улица,602253,55.5600727,42.0795897
50А,Овражная улица,602253,55.5598260,42.0798408
39А,Овражная улица,602253,55.5596017,42.0801315
53,Овражная улица,602253,55.5588966,42.0807122
53А,Овражная улица,602253,55.5586124,42.0809817
58,Овражная улица,602253,55.5585480,42.0811031
62,Овражная улица,602253,55.5571383,42.0818605
95А,Овражная улица,602253,55.5566445,42.0801293
77,Овражная улица,602253,55.5565988,42.0800412
72,Овражная улица,602253,55.5561211,42.0804500
71,Овражная улица,602253,55.5561917,42.0807102
66,Овражная улица,602253,55.5562790,42.0813931
81,Овражная улица,602253,55.5561274,42.0818122
18,Карачаровское шоссе,602253,55.5543906,42.0620761
13,Карачаровское шоссе,602264,55.5543265,42.0605903
4,Южная улица,602264,55.5554021,42.0600977
10,Южная улица,602264,55.5555999,42.0580637
8,Южная улица,602264,55.5551514,42.0579915
4А,Южная улица,602264,55.5553987,42.0588032
7А,Карачаровское шоссе,602264,55.5563853,42.0593203
7,Карачаровское шоссе,602264,55.5572273,42.0591663
37,Овражная улица,602253,55.5611007,42.0779321
42,Овражная улица,602253,55.5604701,42.0785628
6,Овражная улица,602253,55.5601748,42.0778016
8,Овражная улица,602253,55.5601811,42.0783180
12,улица Энергетиков,602264,55.5586937,42.0599321
10,улица Энергетиков,602264,55.5588330,42.0605031
8,улица Энергетиков,602264,55.5589729,42.0611103
6,улица Энергетиков,602264,55.5591114,42.0617064
2,улица Энергетиков,602264,55.5593847,42.0628870
4,улица Энергетиков,602264,55.5592449,42.0622827
3,улица Энергетиков,602264,55.5597372,42.0615248
3А,улица Энергетиков,602264,55.5594454,42.0617845
5,улица Энергетиков,602264,55.5592665,42.0610985
7,улица Энергетиков,602264,55.5589981,42.0596699
1,улица Энергетиков,602264,55.5599341,42.0634872
1Б,улица Энергетиков,602264,55.5604692,42.0670911
1А,улица Энергетиков,602264,55.5609226,42.0680273
1Г,улица Энергетиков,602264,55.5610599,42.0697018
10,Радиозаводское шоссе,602264,55.5613621,42.0477146
13Б,Радиозаводское шоссе,602264,55.5592120,42.0477774
13,Радиозаводское шоссе,602264,55.5602427,42.0461225
4/3,Радиозаводское шоссе,602264,55.5615904,42.0448710
7Б,Радиозаводское шоссе,602264,55.5617550,42.0430028
19,Радиозаводское шоссе,602264,55.5596975,42.0436987
11,Радиозаводское шоссе,602264,55.5588310,42.0437967
3А,Эксплуатационная улица,602240,55.5622240,42.0273828
2,Эксплуатационная улица,602240,55.5622434,42.0266885
1,Эксплуатационная улица,602240,55.5622635,42.0259797
7,Эксплуатационная улица,602240,55.5617853,42.0245470
11,Меленковское шоссе,602240,55.5625440,42.0357269
2,улица Расковой,602252,55.5749708,42.0023984
145,Московская улица,602252,55.5746529,42.0022998
4,улица Расковой,602252,55.5751772,42.0023957
2А,улица Расковой,602252,55.5749975,42.0017570
1,улица Серова,602252,55.5748626,42.0013278
3,улица Серова,602252,55.5750364,42.0013467
5,улица Серова,602252,55.5751808,42.0013514
9,улица Серова,602252,55.5756431,42.0014217
7,улица Серова,602252,55.5754335,42.0014760
12,улица Расковой,602252,55.5756010,42.0024896
10,улица Расковой,602252,55.5756318,42.0019098
11,улица Серова,602252,55.5757898,42.0014627
19,улица Серова,602252,55.5771094,42.0016004
24,улица Расковой,602252,55.5771915,42.0026758
26,улица Расковой,602252,55.5773893,42.0027056
21,улица Серова,602252,55.5773601,42.0016363
30,улица Расковой,602252,55.5778689,42.0027930
32,улица Расковой,602252,55.5780680,42.0027655
25,улица Серова,602252,55.5778126,42.0017114
27,улица Серова,602252,55.5780026,42.0016896
29,улица Серова,602252,55.5781827,42.0016894
149,Московская улица,602252,55.5747807,41.9999881
2,улица Серова,602252,55.5747496,42.0004833
4,улица Серова,602252,55.5749724,42.0005503
6,улица Серова,602252,55.5751296,42.0006295
14,улица Серова,602252,55.5755976,42.0006415
12,улица Серова,602252,55.5753854,42.0005089
16,улица Серова,602252,55.5757845,42.0005775
153,Московская улица,602252,55.5748396,41.9984227
3,Трудовая улица,602252,55.5750309,41.9979027
5,Трудовая улица,602252,55.5752160,41.9979144
8,улица Осипенко,602252,55.5751717,41.9984666
7,Трудовая улица,602252,55.5753918,41.9979439
9,Трудовая улица,602252,55.5755799,41.9979630
11,Трудовая улица,602252,55.5757350,41.9979577
13,Трудовая улица,602252,55.5759575,41.9980429
17,Трудовая улица,602252,55.5763039,41.9980277
24,улица Чкалова,602252,55.5763278,41.9986212
26,улица Осипенко,602252,55.5763659,41.9991218
24,улица Осипенко,602252,55.5761773,41.9991775
22,улица Осипенко,602252,55.5759640,41.9990909
16,улица Осипенко,602252,55.5757735,41.9990655
14,улица Осипенко,602252,55.5755774,41.9989200
12,улица Осипенко,602252,55.5753998,41.9989514
6,улица Осипенко,602252,55.5751982,41.9989951
8,улица Чкалова,602252,55.5762583,41.9971352
26,Физкультурная улица,602252,55.5763802,41.9956255
36,улица Чкалова,602252,55.5765369,41.9964129
2,улица Чкалова,602252,55.5750381,41.9970876
4,улица Чкалова,602252,55.5755417,41.9971376
6,улица Чкалова,602252,55.5758730,41.9971185
24,Физкультурная улица,602252,55.5761445,41.9964214
20,Физкультурная улица,602252,55.5758892,41.9955779
18,Физкультурная улица,602252,55.5755780,41.9955529
14,Физкультурная улица,602252,55.5752838,41.9963202
12,Физкультурная улица,602252,55.5751025,41.9954989
163,Московская улица,602252,55.5748429,41.9962544
7,Северный проезд,602262,55.5727251,41.9946348
9,Северный проезд,602262,55.5727773,41.9938203
22,улица Гастелло,602262,55.5731150,41.9936223
3,Пионерская улица,602262,55.5726577,41.9966387
19,Физкультурная улица,602262,55.5730384,41.9948711
8,Физкультурная улица,602262,55.5737525,41.9957319
14,улица Чкалова,602252,55.5766042,42.0052548
2,улица Лаврентьева,602252,55.5745984,42.0072556
17,улица Расковой,602252,55.5765410,42.0036647
16,Вишнёвая улица,602252,55.5759015,42.0041030
22,Вишнёвая улица,602252,55.5760925,42.0041365
24,Вишнёвая улица,602252,55.5762940,42.0041549
18,улица Чкалова,602252,55.5765036,42.0041804
15,улица Расковой,602252,55.5763207,42.0031391
13,улица Расковой,602252,55.5761679,42.0030676
11,улица Расковой,602252,55.5759488,42.0030156
20,Вишнёвая улица,602252,55.5761723,42.0036037
18,Вишнёвая улица,602252,55.5759092,42.0035398
9,улица Расковой,602252,55.5757588,42.0030049
7,улица Расковой,602252,55.5755460,42.0030472
5,улица Расковой,602252,55.5753668,42.0029308
8,Вишнёвая улица,602252,55.5752921,42.0034384
3,улица Расковой,602252,55.5751708,42.0029040
1,улица Расковой,602252,55.5749634,42.0028802
143,Московская улица,602252,55.5746630,42.0028044
141,Московская улица,602252,55.5746461,42.0031719
139,Московская улица,602252,55.5746388,42.0035836
10,Вишнёвая улица,602252,55.5755550,42.0035465
12,Вишнёвая улица,602252,55.5755452,42.0040673
6,Вишнёвая улица,602252,55.5753184,42.0040608
4,Вишнёвая улица,602252,55.5751057,42.0040331
2,Вишнёвая улица,602252,55.5749162,42.0039900
137,Московская улица,602252,55.5746319,42.0039505
21А,Вишнёвая улица,602252,55.5759409,42.0052828
19,Вишнёвая улица,602252,55.5761091,42.0048467
17,Вишнёвая улица,602252,55.5758458,42.0047956
15,Вишнёвая улица,602252,55.5756856,42.0047778
13,Вишнёвая улица,602252,55.5755221,42.0047680
7,Вишнёвая улица,602252,55.5752767,42.0047715
5,Вишнёвая улица,602252,55.5751257,42.0047114
1,Вишнёвая улица,602252,55.5748838,42.0046950
135,Московская улица,602252,55.5746108,42.0045870
133,Московская улица,602252,55.5746121,42.0048994
131,Московская улица,602252,55.5746123,42.0052673
129,Московская улица,602252,55.5745927,42.0056783
2,Спартаковская улица,602252,55.5747755,42.0056716
4,Спартаковская улица,602252,55.5749539,42.0056767
6,Спартаковская улица,602252,55.5751583,42.0056971
8,Спартаковская улица,602252,55.5754023,42.0057585
10,Спартаковская улица,602252,55.5755590,42.0057797
12,Спартаковская улица,602252,55.5757182,42.0057512
14,Спартаковская улица,602252,55.5759025,42.0057867
18,Спартаковская улица,602252,55.5762254,42.0058420
16,Спартаковская улица,602252,55.5760691,42.0058312
12,улица Чкалова,602252,55.5766014,42.0057981
11,Спартаковская улица,602252,55.5760400,42.0063685
9,Спартаковская улица,602252,55.5757671,42.0064006
7,Спартаковская улица,602252,55.5755485,42.0064307
5,Спартаковская улица,602252,55.5753486,42.0063467
3,Спартаковская улица,602252,55.5751090,42.0063972
1,Спартаковская улица,602252,55.5748899,42.0062926
127,Московская улица,602252,55.5746017,42.0062631
125,Московская улица,602252,55.5745436,42.0065692
2А,улица Лаврентьева,602252,55.5745179,42.0070611
4,улица Лаврентьева,602252,55.5748601,42.0072569
6,улица Лаврентьева,602252,55.5750662,42.0072193
8,улица Лаврентьева,602252,55.5752803,42.0072773
10,улица Лаврентьева,602252,55.5755669,42.0072033
12,улица Лаврентьева,602252,55.5757161,42.0073048
8,Фруктовая улица,602252,55.5797672,42.0066907
2,Фруктовая улица,602252,55.5798542,42.0078336
4,Фруктовая улица,602252,55.5797940,42.0074001
6,Фруктовая улица,602252,55.5798038,42.0071427
18,улица Лаврентьева,602252,55.5774562,42.0076029
20,улица Лаврентьева,602252,55.5776662,42.0075816
22,улица Лаврентьева,602252,55.5779150,42.0076230
26,улица Лаврентьева,602252,55.5783474,42.0076311
24,улица Лаврентьева,602252,55.5781291,42.0076072
30,улица Лаврентьева,602252,55.5788060,42.0076823
28,улица Лаврентьева,602252,55.5785709,42.0076498
32,улица Лаврентьева,602252,55.5790318,42.0076992
36,улица Лаврентьева,602252,55.5794537,42.0077190
37,Спартаковская улица,602252,55.5796063,42.0066970
35,Спартаковская улица,602252,55.5794396,42.0066623
33,Спартаковская улица,602252,55.5792322,42.0066967
31,Спартаковская улица,602252,55.5789534,42.0067399
29,Спартаковская улица,602252,55.5787643,42.0066162
27,Спартаковская улица,602252,55.5784690,42.0066199
25,Спартаковская улица,602252,55.5782961,42.0066127
23,Спартаковская улица,602252,55.5780598,42.0064958
21,Спартаковская улица,602252,55.5778404,42.0065314
19,Спартаковская улица,602252,55.5776520,42.0064912
17,Спартаковская улица,602252,55.5773705,42.0065592
19,улица Расковой,602252,55.5771900,42.0031702
21,улица Расковой,602252,55.5773980,42.0031840
23,улица Расковой,602252,55.5776690,42.0032309
25,улица Расковой,602252,55.5779156,42.0032518
27,улица Расковой,602252,55.5780871,42.0032989
29,улица Расковой,602252,55.5783211,42.0033560
31,улица Расковой,602252,55.5785569,42.0032728
33,улица Расковой,602252,55.5787484,42.0032827
40,Вишнёвая улица,602252,55.5788285,42.0043980
38,Вишнёвая улица,602252,55.5786248,42.0044070
34,Вишнёвая улица,602252,55.5781469,42.0042995
32,Вишнёвая улица,602252,55.5779728,42.0043467
30,Вишнёвая улица,602252,55.5777146,42.0041712
28,Вишнёвая улица,602252,55.5774696,42.0041892
21,Вишнёвая улица,602252,55.5773067,42.0050459
23,Вишнёвая улица,602252,55.5775151,42.0048992
25,Вишнёвая улица,602252,55.5777608,42.0049828
27,Вишнёвая улица,602252,55.5779815,42.0050157
29,Вишнёвая улица,602252,55.5782098,42.0050473
31,Вишнёвая улица,602252,55.5784236,42.0050711
33,Вишнёвая улица,602252,55.5785934,42.0050561
35,Вишнёвая улица,602252,55.5788761,42.0051160
37,Вишнёвая улица,602252,55.5790894,42.0050517
40,Спартаковская улица,602252,55.5795321,42.0062042
38,Спартаковская улица,602252,55.5793673,42.0061666
36,Спартаковская улица,602252,55.5791385,42.0061502
34,Спартаковская улица,602252,55.5789441,42.0061072
32,Спартаковская улица,602252,55.5787053,42.0060979
30,Спартаковская улица,602252,55.5784938,42.0060844
28,Спартаковская улица,602252,55.5782633,42.0060349
26,Спартаковская улица,602252,55.5780702,42.0058984
24,Спартаковская улица,602252,55.5778264,42.0059998
22,Спартаковская улица,602252,55.5775816,42.0060086
20,Спартаковская улица,602252,55.5773264,42.0060170
15,улица Чкалова,602252,55.5768535,42.0037212
17,улица Чкалова,602252,55.5768173,42.0034629
13,улица Чкалова,602252,55.5768542,42.0041793
11,улица Чкалова,602252,55.5769166,42.0048587
9,улица Чкалова,602252,55.5769302,42.0054233
7,улица Чкалова,602252,55.5769639,42.0059327
5,улица Чкалова,602252,55.5769966,42.0064584
3,улица Чкалова,602252,55.5770203,42.0069917
1,улица Чкалова,602252,55.5770359,42.0074490
59,улица Горького,602262,55.5753120,41.9873037
57,улица Горького,602262,55.5749867,41.9864635
55,улица Горького,602262,55.5749412,41.9872201
53,улица Горького,602262,55.5745684,41.9867581
51,улица Горького,602262,55.5742153,41.9867020
49,улица Горького,602262,55.5738843,41.9866876
136,Московская улица,602262,55.5746490,41.9896120
134,Московская улица,602262,55.5746038,41.9901917
132,Московская улица,602262,55.5746135,41.9905176
45,улица Калинина,602262,55.5744498,41.9910137
43,улица Калинина,602262,55.5743267,41.9904947
46,Профсоюзная улица,602262,55.5743644,41.9900197
48,Профсоюзная улица,602262,55.5744487,41.9895980
42,Профсоюзная улица,602262,55.5741863,41.9895923
40,Профсоюзная улица,602262,55.5740599,41.9895432
38,Профсоюзная улица,602262,55.5738605,41.9895354
44,Профсоюзная улица,602262,55.5741261,41.9900468
36,Профсоюзная улица,602262,55.5738535,41.9900136
39,улица Калинина,602262,55.5741059,41.9904391
41,улица Калинина,602262,55.5738638,41.9904080
37,улица Калинина,602262,55.5739756,41.9909578
35,улица Калинина,602262,55.5735995,41.9905909
34,Профсоюзная улица,602262,55.5736064,41.9900455
30,Профсоюзная улица,602262,55.5734886,41.9894614
28А,Профсоюзная улица,602262,55.5733143,41.9894700
28,Профсоюзная улица,602262,55.5733483,41.9899922
31,улица Калинина,602262,55.5733328,41.9903401
33,улица Калинина,602262,55.5734321,41.9908890
27,улица Калинина,602262,55.5730137,41.9908375
26,Профсоюзная улица,602262,55.5731254,41.9899480
17,Северный проезд,602262,55.5728113,41.9899720
15,Северный проезд,602262,55.5728498,41.9904006
24,Профсоюзная улица,602262,55.5731256,41.9894561
17А,Северный проезд,602262,55.5728499,41.9894158
38,улица Горького,602262,55.5744483,41.9881910
40,улица Горького,602262,55.5745188,41.9876942
40А,улица Горького,602262,55.5746503,41.9877096
142,Московская улица,602262,55.5747024,41.9881904
140,Московская улица,602262,55.5746965,41.9886062
55,Профсоюзная улица,602262,55.5744446,41.9890928
138,Московская улица,602262,55.5746624,41.9891312
53,Профсоюзная улица,602262,55.5744240,41.9886025
43,Профсоюзная улица,602262,55.5738915,41.9885204
28,улица Горького,602262,55.5739279,41.9881579
30,улица Горького,602262,55.5739018,41.9876309
32,улица Горького,602262,55.5741008,41.9876285
34,улица Горького,602262,55.5742519,41.9876781
36,улица Горького,602262,55.5741948,41.9882440
51,Профсоюзная улица,602262,55.5741787,41.9885987
49,Профсоюзная улица,602262,55.5742078,41.9890628
47,Профсоюзная улица,602262,55.5740606,41.9890256
45,Профсоюзная улица,602262,55.5738391,41.9889820
30,улица Калинина,602262,55.5735136,41.9915614
32,улица Калинина,602262,55.5738623,41.9915879
34,улица Калинина,602262,55.5740743,41.9916475
36,улица Калинина,602262,55.5744272,41.9916528
130,Московская улица,602262,55.5745142,41.9921314
128,Московская улица,602262,55.5745521,41.9926872
27,улица Гастелло,602262,55.5743312,41.9929779
25,улица Гастелло,602262,55.5740386,41.9929596
23,улица Гастелло,602262,55.5738122,41.9930154
21,улица Гастелло,602262,55.5734941,41.9929371
7,улица Гастелло,602262,55.5698220,41.9924142
9,улица Гастелло,602262,55.5701325,41.9925341
11,улица Гастелло,602262,55.5705074,41.9925738
13,улица Гастелло,602262,55.5708391,41.9925244
15,улица Гастелло,602262,55.5711543,41.9926317
19,улица Гастелло,602262,55.5719340,41.9926667
17,улица Гастелло,602262,55.5715087,41.9926401
26,улица Калинина,602262,55.5715238,41.9915250
24,улица Калинина,602262,55.5712195,41.9915185
22,улица Калинина,602262,55.5708855,41.9915185
20,улица Калинина,602262,55.5705772,41.9913835
18,улица Калинина,602262,55.5702170,41.9913246
16,улица Калинина,602262,55.5699187,41.9913123
11,улица Гоголева,602262,55.5694436,41.9912575
9,улица Гоголева,602262,55.5694345,41.9922861
7,улица Гоголева,602262,55.5694352,41.9930825
8,улица Гастелло,602262,55.5698532,41.9933100
10,улица Гастелло,602262,55.5702261,41.9934151
12,улица Гастелло,602262,55.5706127,41.9932940
14,улица Гастелло,602262,55.5710088,41.9933727
16,улица Гастелло,602262,55.5713483,41.9936165
18,улица Гастелло,602262,55.5717173,41.9936558
20,улица Гастелло,602262,55.5720906,41.9935079
4,Северный проезд,602262,55.5723560,41.9937640
2,Северный проезд,602262,55.5723219,41.9945620
17,Физкультурная улица,602262,55.5720186,41.9947028
15,Физкультурная улица,602262,55.5716864,41.9945063
13,Физкультурная улица,602262,55.5713241,41.9944950
11,Физкультурная улица,602262,55.5709541,41.9946109
9,Физкультурная улица,602262,55.5705974,41.9945701
7,Физкультурная улица,602262,55.5701785,41.9943782
5,Физкультурная улица,602262,55.5697933,41.9943352
5,улица Гоголева,602262,55.5694022,41.9944272
3,улица Гоголева,602262,55.5693256,41.9951310
57,Профсоюзная улица,602262,55.5753601,41.9892244
59,Профсоюзная улица,602262,55.5755133,41.9892359
61,Профсоюзная улица,602262,55.5755796,41.9887423
63,Профсоюзная улица,602262,55.5756966,41.9887483
65,Профсоюзная улица,602262,55.5757155,41.9892589
67,Профсоюзная улица,602262,55.5758478,41.9892798
71,Профсоюзная улица,602262,55.5759740,41.9887741
69,Профсоюзная улица,602262,55.5760652,41.9893086
73,Профсоюзная улица,602262,55.5762065,41.9893115
77,Профсоюзная улица,602262,55.5764248,41.9893512
79,Профсоюзная улица,602262,55.5765799,41.9893592
74,улица Чкалова,602252,55.5768448,41.9893291
76,улица Чкалова,602252,55.5768054,41.9890128
78,улица Чкалова,602252,55.5768440,41.9888509
80,улица Чкалова,602252,55.5768573,41.9885519
82,улица Чкалова,602252,55.5768563,41.9883336
84,улица Чкалова,602252,55.5768436,41.9879355
60,улица Горького,602262,55.5766375,41.9878835
58,улица Горького,602262,55.5764916,41.9879188
56,улица Горького,602262,55.5762553,41.9878810
54,улица Горького,602262,55.5761153,41.9878632
50,улица Горького,602262,55.5757616,41.9878276
48,улица Горького,602262,55.5756821,41.9883366
46,улица Горького,602262,55.5755843,41.9883272
44,улица Горького,602262,55.5755578,41.9878257
42,улица Горького,602262,55.5754304,41.9878042
211,Московская улица,602262,55.5751719,41.9877937
209,Московская улица,602262,55.5751617,41.9881081
207,Московская улица,602262,55.5751468,41.9883644
205,Московская улица,602262,55.5751240,41.9886316
203,Московская улица,602262,55.5751169,41.9888231
201,Московская улица,602262,55.5751358,41.9892076
47,улица Калинина,602252,55.5752873,41.9910732
49,улица Калинина,602252,55.5754282,41.9911586
51,улица Калинина,602252,55.5755030,41.9906326
53,улица Калинина,602252,55.5756162,41.9906393
55,улица Калинина,602252,55.5756511,41.9911736
57,улица Калинина,602252,55.5757862,41.9911583
59,улица Калинина,602252,55.5759149,41.9906369
61,улица Калинина,602252,55.5760104,41.9912169
63,улица Калинина,602252,55.5761727,41.9910933
65,улица Калинина,602252,55.5762667,41.9906929
67,улица Калинина,602252,55.5763529,41.9912398
69,улица Калинина,602252,55.5764885,41.9912214
62,улица Чкалова,602252,55.5767339,41.9912749
64,улица Чкалова,602252,55.5767595,41.9909317
66,улица Чкалова,602252,55.5767710,41.9906909
68,улица Чкалова,602252,55.5767842,41.9904220
72,улица Чкалова,602252,55.5768108,41.9898517
68,Профсоюзная улица,602262,55.5765746,41.9898048
66,Профсоюзная улица,602262,55.5763795,41.9898014
64,Профсоюзная улица,602262,55.5761975,41.9897753
62,Профсоюзная улица,602262,55.5760231,41.9897534
60,Профсоюзная улица,602262,55.5758473,41.9897317
58,Профсоюзная улица,602262,55.5756891,41.9897274
56,Профсоюзная улица,602262,55.5756349,41.9902242
54,Профсоюзная улица,602262,55.5755152,41.9902296
52,Профсоюзная улица,602262,55.5754706,41.9897166
50,Профсоюзная улица,602262,55.5753550,41.9897455
195,Московская улица,602252,55.5750832,41.9901927
197,Московская улица,602252,55.5750817,41.9900180
193,Московская улица,602252,55.5750775,41.9905308
191,Московская улица,602252,55.5750754,41.9907556
189,Московская улица,602252,55.5750521,41.9911029
179,Московская улица,602262,55.5749860,41.9928064
181,Московская улица,602252,55.5750252,41.9925974
183,Московская улица,602252,55.5749991,41.9922161
185,Московская улица,602252,55.5750237,41.9920243
187,Московская улица,602252,55.5750034,41.9917501
38,улица Калинина,602252,55.5752765,41.9917162
40,улица Калинина,602252,55.5754032,41.9917868
33,улица Гастелло,602252,55.5754256,41.9926774
35,улица Гастелло,602252,55.5755296,41.9926488
42,улица Калинина,602252,55.5753916,41.9922507
44,улица Калинина,602252,55.5756285,41.9922426
46,улица Калинина,602252,55.5756220,41.9918174
48,улица Калинина,602252,55.5757486,41.9918097
50,улица Калинина,602252,55.5758105,41.9923086
41,улица Гастелло,602252,55.5757472,41.9927028
51,улица Гастелло,602252,55.5762542,41.9927341
49,улица Гастелло,602252,55.5761355,41.9927183
43,улица Гастелло,602252,55.5759015,41.9926902
52,улица Калинина,602252,55.5759143,41.9922955
54,улица Калинина,602252,55.5759834,41.9918547
56,улица Калинина,602252,55.5761196,41.9918353
58,улица Калинина,602252,55.5761416,41.9923278
60,улица Калинина,602252,55.5762593,41.9923630
62,улица Калинина,602252,55.5763242,41.9918805
60,улица Чкалова,602252,55.5766821,41.9919548
58,улица Чкалова,602252,55.5767047,41.9922194
56,улица Чкалова,602252,55.5766990,41.9924444
54,улица Чкалова,602252,55.5766863,41.9927280
52,улица Чкалова,602252,55.5766973,41.9929604
50,улица Чкалова,602252,55.5766615,41.9932883
55,улица Гастелло,602252,55.5764370,41.9932602
53,улица Гастелло,602252,55.5762771,41.9932430
47,улица Гастелло,602252,55.5760673,41.9932279
45,улица Гастелло,602252,55.5759331,41.9931968
39,улица Гастелло,602252,55.5757170,41.9931981
37,улица Гастелло,602252,55.5755699,41.9931230
31,улица Гастелло,602252,55.5753706,41.9931348
29,улица Гастелло,602252,55.5752483,41.9931280
177,Московская улица,602252,55.5750316,41.9931182
167,Московская улица,602252,55.5749371,41.9946291
169,Московская улица,602252,55.5749394,41.9943435
171,Московская улица,602252,55.5749469,41.9941268
173,Московская улица,602252,55.5749608,41.9939414
175,Московская улица,602252,55.5749937,41.9935885
32,улица Гастелло,602252,55.5752138,41.9936155
34,улица Гастелло,602252,55.5753596,41.9936106
33,Физкультурная улица,602252,55.5753637,41.9945288
35,Физкультурная улица,602252,55.5754886,41.9945328
36,улица Гастелло,602252,55.5753680,41.9941415
38,улица Гастелло,602252,55.5754897,41.9941594
40,улица Гастелло,602252,55.5755536,41.9936111
42,улица Гастелло,602252,55.5757073,41.9937136
41,Физкультурная улица,602252,55.5757070,41.9945774
44,улица Гастелло,602252,55.5757087,41.9941895
43,Физкультурная улица,602252,55.5758417,41.9945807
46,улица Гастелло,602252,55.5758448,41.9941859
48,улица Гастелло,602252,55.5759046,41.9936772
50,улица Гастелло,602252,55.5760493,41.9937463
49,Физкультурная улица,602252,55.5760603,41.9946019
51,Физкультурная улица,602252,55.5761981,41.9946079
54,улица Гастелло,602252,55.5761947,41.9942116
56,улица Гастелло,602252,55.5762587,41.9937415
58,улица Гастелло,602252,55.5763953,41.9937100
48,улица Чкалова,602252,55.5766272,41.9937866
46,улица Чкалова,602252,55.5766404,41.9941187
44,улица Чкалова,602252,55.5766310,41.9942908
42,улица Чкалова,602252,55.5766215,41.9946157
40,улица Чкалова,602252,55.5766097,41.9948024
38,улица Чкалова,602252,55.5765948,41.9951852
53,Физкультурная улица,602252,55.5762113,41.9950958
45,Физкультурная улица,602252,55.5758590,41.9950761
39,Физкультурная улица,602252,55.5756530,41.9951018
37,Физкультурная улица,602252,55.5754977,41.9950713
31,Физкультурная улица,602252,55.5753152,41.9950492
29,Физкультурная улица,602252,55.5751762,41.9949874
165,Московская улица,602252,55.5749196,41.9949992
54,Трудовая улица,602252,55.5802734,41.9975188
4,Кленовая улица,602252,55.5802993,41.9966917
6,Кленовая улица,602252,55.5803109,41.9960605
8,Кленовая улица,602252,55.5803255,41.9956135
10,Кленовая улица,602252,55.5803507,41.9948440
12,Кленовая улица,602252,55.5803712,41.9941257
14,Кленовая улица,602252,55.5803696,41.9935581
16,Кленовая улица,602252,55.5804138,41.9930473
18,Кленовая улица,602252,55.5804309,41.9923009
106,улица Калинина,602252,55.5801911,41.9923512
104,улица Калинина,602252,55.5801736,41.9928326
97,улица Гастелло,602252,55.5801636,41.9931596
99,улица Гастелло,602252,55.5801751,41.9936426
102,улица Гастелло,602252,55.5801133,41.9941717
100,улица Гастелло,602252,55.5801077,41.9946810
97,Физкультурная улица,602252,55.5801055,41.9950063
95,Физкультурная улица,602252,55.5800794,41.9955635
66,Физкультурная улица,602252,55.5800617,41.9960211
66А,Физкультурная улица,602252,55.5800172,41.9965002
50,Трудовая улица,602252,55.5799991,41.9969052
52,Трудовая улица,602252,55.5800159,41.9974189
46,Трудовая улица,602252,55.5798462,41.9974678
64А,Физкультурная улица,602252,55.5798209,41.9964760
64,Физкультурная улица,602252,55.5798341,41.9960530
99,Физкультурная улица,602252,55.5798662,41.9949710
98,улица Гастелло,602252,55.5798987,41.9945647
96,улица Гастелло,602252,55.5799010,41.9941141
93,улица Гастелло,602252,55.5799060,41.9936461
95,улица Гастелло,602252,55.5799401,41.9931478
102,улица Калинина,602252,55.5799439,41.9927693
100,улица Калинина,602252,55.5799575,41.9922567
75,Фруктовая улица,602252,55.5797111,41.9922486
73,Фруктовая улица,602252,55.5796847,41.9926907
71,Фруктовая улица,602252,55.5796893,41.9931307
67,Фруктовая улица,602252,55.5796622,41.9940524
65,Фруктовая улица,602252,55.5796478,41.9945874
63,Фруктовая улица,602252,55.5796258,41.9949764
61,Фруктовая улица,602252,55.5796092,41.9954257
59,Фруктовая улица,602252,55.5796004,41.9960000
57,Фруктовая улица,602252,55.5795837,41.9965158
55,Фруктовая улица,602252,55.5795612,41.9968382
53,Фруктовая улица,602252,55.5795536,41.9973703
31А,улица Чкалова,602252,55.5766680,41.9996838
30,улица Серова,602252,55.5773265,42.0009903
25А,улица Гастелло,602262,55.5741499,41.9921879
23А,улица Гастелло,602262,55.5737801,41.9922643
21А,улица Гастелло,602262,55.5735494,41.9922160
34,Трудовая улица,602252,55.5784220,41.9972951
12,Трудовая улица,602252,55.5773364,41.9971665
10,Трудовая улица,602252,55.5771824,41.9971570
34,Физкультурная улица,602252,55.5775606,41.9962562
14,Трудовая улица,602252,55.5774146,41.9966554
16,Трудовая улица,602252,55.5775312,41.9966501
18,Трудовая улица,602252,55.5775910,41.9971922
22,Трудовая улица,602252,55.5778375,41.9966864
24,Трудовая улица,602252,55.5779480,41.9967189
20,Трудовая улица,602252,55.5777432,41.9971868
26,Трудовая улица,602252,55.5780194,41.9972442
28,Трудовая улица,602252,55.5781766,41.9972445
30,Трудовая улица,602252,55.5782738,41.9967473
32,Трудовая улица,602252,55.5783841,41.9967600
48,Физкультурная улица,602252,55.5782700,41.9963701
50,Физкультурная улица,602252,55.5783988,41.9963906
58,Физкультурная улица,602252,55.5787838,41.9964218
56,Физкультурная улица,602252,55.5786533,41.9963920
38,Трудовая улица,602252,55.5786618,41.9967892
40,Трудовая улица,602252,55.5787727,41.9968023
35,Трудовая улица,602252,55.5785983,41.9973660
42,Трудовая улица,602252,55.5788161,41.9973533
44,Трудовая улица,602252,55.5790354,41.9973349
20,Фруктовая улица,602252,55.5792561,41.9973552
54,Фруктовая улица,602252,55.5792902,41.9968352
56,Фруктовая улица,602252,55.5792993,41.9965337
58,Фруктовая улица,602252,55.5792885,41.9962984
60,Фруктовая улица,602252,55.5793087,41.9959621
62,Физкультурная улица,602252,55.5790527,41.9959124
60,Физкультурная улица,602252,55.5788779,41.9959516
52,Физкультурная улица,602252,55.5784869,41.9958818
40,Физкультурная улица,602252,55.5778335,41.9963216
42,Физкультурная улица,602252,55.5779474,41.9963578
44,Физкультурная улица,602252,55.5780496,41.9958739
38,Физкультурная улица,602252,55.5777867,41.9957740
36,Физкультурная улица,602252,55.5776098,41.9958140
32,Физкультурная улица,602252,55.5774109,41.9962672
30,Физкультурная улица,602252,55.5774137,41.9957565
28,Физкультурная улица,602252,55.5772267,41.9957123
43,улица Чкалова,602252,55.5769691,41.9957186
41,улица Чкалова,602252,55.5769338,41.9960815
37,улица Чкалова,602252,55.5769148,41.9965569
35,улица Чкалова,602252,55.5768913,41.9967459
33,улица Чкалова,602252,55.5768964,41.9971330
57,Физкультурная улица,602252,55.5772432,41.9952469
59,Физкультурная улица,602252,55.5773875,41.9952125
66,улица Гастелло,602252,55.5775898,41.9943458
64,улица Гастелло,602252,55.5775081,41.9943686
61,Физкультурная улица,602252,55.5774956,41.9947149
63,Физкультурная улица,602252,55.5776133,41.9947521
65,Физкультурная улица,602252,55.5776738,41.9952943
67,Физкультурная улица,602252,55.5778554,41.9953331
74,улица Гастелло,602252,55.5780415,41.9944262
72,улица Гастелло,602252,55.5779041,41.9943940
69,Физкультурная улица,602252,55.5778933,41.9947715
71,Физкультурная улица,602252,55.5780090,41.9948101
73,Физкультурная улица,602252,55.5780951,41.9953013
75,Физкультурная улица,602252,55.5782894,41.9953841
77,Физкультурная улица,602252,55.5783127,41.9948343
79,Физкультурная улица,602252,55.5784374,41.9948527
82,улица Гастелло,602252,55.5784410,41.9944718
85,Физкультурная улица,602252,55.5787143,41.9949254
87,Физкультурная улица,602252,55.5788481,41.9949060
90,улица Гастелло,602252,55.5788551,41.9945285
88,улица Гастелло,602252,55.5787443,41.9945503
83,Физкультурная улица,602252,55.5786534,41.9954173
89,Физкультурная улица,602252,55.5789010,41.9954187
91,Физкультурная улица,602252,55.5790967,41.9954662
62,Фруктовая улица,602252,55.5793241,41.9954472
64,Фруктовая улица,602252,55.5793283,41.9951279
66,Фруктовая улица,602252,55.5793241,41.9948480
68,Фруктовая улица,602252,55.5793622,41.9946089
70,Фруктовая улица,602252,55.5793652,41.9944503
72,Фруктовая улица,602252,55.5793823,41.9940128
94,улица Гастелло,602252,55.5791373,41.9940160
92,улица Гастелло,602252,55.5789658,41.9939927
86,улица Гастелло,602252,55.5787146,41.9939626
84,улица Гастелло,602252,55.5785432,41.9939411
78,улица Гастелло,602252,55.5783002,41.9939536
76,улица Гастелло,602252,55.5781468,41.9939179
70,улица Гастелло,602252,55.5778938,41.9939095
68,улица Гастелло,602252,55.5777229,41.9938505
62,улица Гастелло,602252,55.5774273,41.9937802
60,улица Гастелло,602252,55.5773023,41.9937882
55,улица Чкалова,602252,55.5770072,41.9937727
51,улица Чкалова,602252,55.5769799,41.9943437
49,улица Чкалова,602252,55.5769640,41.9946401
47,улица Чкалова,602252,55.5769653,41.9948594
45,улица Чкалова,602252,55.5769620,41.9951452
64,улица Калинина,602252,55.5773679,41.9919922
66,улица Калинина,602252,55.5775727,41.9921011
68,улица Калинина,602252,55.5775400,41.9924958
70,улица Калинина,602252,55.5776853,41.9925121
74,улица Калинина,602252,55.5779494,41.9921239
76,улица Калинина,602252,55.5779892,41.9925253
78,улица Калинина,602252,55.5781002,41.9925528
84,улица Калинина,602252,55.5783636,41.9925818
82,улица Калинина,602252,55.5783390,41.9920833
88,улица Калинина,602252,55.5786092,41.9921562
90,улица Калинина,602252,55.5787528,41.9921371
92,улица Калинина,602252,55.5788142,41.9926482
94,улица Калинина,602252,55.5789491,41.9926640
96,улица Калинина,602252,55.5790238,41.9921946
98,улица Калинина,602252,55.5791547,41.9921778
84,Фруктовая улица,602252,55.5794549,41.9922387
82,Фруктовая улица,602252,55.5793973,41.9925510
80,Фруктовая улица,602252,55.5794401,41.9927455
78,Фруктовая улица,602252,55.5794276,41.9930365
76,Фруктовая улица,602252,55.5794099,41.9932485
74,Фруктовая улица,602252,55.5793850,41.9935301
91,улица Гастелло,602252,55.5791679,41.9935649
89,улица Гастелло,602252,55.5789959,41.9935307
87,улица Гастелло,602252,55.5789302,41.9930432
85,улица Гастелло,602252,55.5787739,41.9930077
83,улица Гастелло,602252,55.5787457,41.9934803
81,улица Гастелло,602252,55.5785661,41.9934852
79,улица Гастелло,602252,55.5785054,41.9929768
77,улица Гастелло,602252,55.5783717,41.9929686
75,улица Гастелло,602252,55.5783021,41.9934416
73,улица Гастелло,602252,55.5781401,41.9934132
71,улица Гастелло,602252,55.5780985,41.9929405
69,улица Гастелло,602252,55.5779680,41.9929360
67,улица Гастелло,602252,55.5778517,41.9933589
65,улица Гастелло,602252,55.5777087,41.9934025
63,улица Гастелло,602252,55.5776704,41.9929103
61,улица Гастелло,602252,55.5775599,41.9928750
59,улица Гастелло,602252,55.5774990,41.9933663
57,улица Гастелло,602252,55.5773060,41.9933492
57,улица Чкалова,602252,55.5770256,41.9933496
59,улица Чкалова,602252,55.5770476,41.9929741
61,улица Чкалова,602252,55.5770557,41.9927605
63,улица Чкалова,602252,55.5770848,41.9925205
65,улица Чкалова,602252,55.5770584,41.9922584
67,улица Чкалова,602252,55.5770770,41.9919442
106,Профсоюзная улица,602252,55.5794023,41.9908512
104,Профсоюзная улица,602252,55.5792864,41.9907355
102,Профсоюзная улица,602252,55.5791405,41.9905919
100,Профсоюзная улица,602252,55.5788975,41.9909838
98,Профсоюзная улица,602252,55.5789840,41.9904439
96,Профсоюзная улица,602252,55.5788960,41.9903183
94,Профсоюзная улица,602252,55.5787081,41.9901651
88,Профсоюзная улица,602252,55.5783986,41.9900562
86,Профсоюзная улица,602252,55.5782784,41.9900564
80,Профсоюзная улица,602252,55.5780107,41.9900341
77,улица Калинина,602252,55.5777305,41.9908734
75,улица Калинина,602252,55.5776294,41.9908100
74,Профсоюзная улица,602252,55.5776394,41.9904693
76,Профсоюзная улица,602252,55.5777497,41.9904839
84,Профсоюзная улица,602252,55.5781697,41.9905243
82,Профсоюзная улица,602252,55.5780421,41.9905232
83,улица Калинина,602252,55.5780412,41.9908789
85,улица Калинина,602252,55.5781563,41.9908716
92,Профсоюзная улица,602252,55.5785963,41.9906278
90,Профсоюзная улица,602252,55.5784758,41.9905764
91,улица Калинина,602252,55.5784592,41.9909523
93,улица Калинина,602252,55.5785883,41.9909595
86,Фруктовая улица,602252,55.5794891,41.9912386
105,улица Калинина,602252,55.5794644,41.9915823
103,улица Калинина,602252,55.5792667,41.9915448
101,улица Калинина,602252,55.5790772,41.9915666
99,улица Калинина,602252,55.5789432,41.9915258
97,улица Калинина,602252,55.5787744,41.9915139
95,улица Калинина,602252,55.5786536,41.9914739
89,улица Калинина,602252,55.5784302,41.9914151
87,улица Калинина,602252,55.5782320,41.9914242
81,улица Калинина,602252,55.5779671,41.9914160
79,улица Калинина,602252,55.5778129,41.9913690
73,улица Калинина,602252,55.5775395,41.9913568
71,улица Калинина,602252,55.5773663,41.9913549
69,улица Чкалова,602252,55.5771124,41.9912757
71,улица Чкалова,602252,55.5771222,41.9909753
73,улица Чкалова,602252,55.5771094,41.9907603
75,улица Чкалова,602252,55.5771196,41.9904627
77,улица Чкалова,602252,55.5771498,41.9902453
79,улица Чкалова,602252,55.5771424,41.9898863
70,Профсоюзная улица,602252,55.5774512,41.9899332
72,Профсоюзная улица,602252,55.5775716,41.9899565
17Б,улица Матросова,602256,55.5878976,42.0396901
16,Ямская улица,602256,55.5894307,42.0415129
16,Ямская улица,602256,55.5890576,42.0407015
17,улица Матросова,602256,55.5878029,42.0411366
17А,улица Матросова,602256,55.5875911,42.0405514
25А,улица Матросова,602256,55.5875001,42.0397234
70,Казанская улица,602256,55.5850254,42.0375472
60,Казанская улица,602256,55.5850403,42.0384097
54,Окская улица,602256,55.5859976,42.0373897
56,Окская улица,602256,55.5859026,42.0370677
19,улица Войкова,602256,55.5858020,42.0365657
17,улица Войкова,602256,55.5855664,42.0366241
15,улица Войкова,602256,55.5853879,42.0366834
13,улица Войкова,602256,55.5852264,42.0367223
13А,улица Войкова,602256,55.5849020,42.0367629
18А,Казанская улица,602256,55.5873438,42.0500026
16А,Казанская улица,602256,55.5874404,42.0503496
12А,Казанская улица,602256,55.5876109,42.0510154
14А,Казанская улица,602256,55.5875142,42.0507148
10А,Казанская улица,602256,55.5876383,42.0514095
8А,Казанская улица,602256,55.5877529,42.0517129
6А,Казанская улица,602256,55.5878184,42.0520286
4А,Казанская улица,602256,55.5879035,42.0523738
2А,Казанская улица,602256,55.5880356,42.0531132
12,Февральский переулок,602256,55.5881823,42.0536755
11,Февральский переулок,602256,55.5879871,42.0538200
10,Февральский переулок,602256,55.5878623,42.0542828
9,Февральский переулок,602256,55.5879477,42.0547364
7,Февральский переулок,602256,55.5876904,42.0549592
10,улица Кожевники,602256,55.5877579,42.0562523
5,Февральский переулок,602256,55.5873083,42.0550910
3,Февральский переулок,602256,55.5874707,42.0558674
2,Февральский переулок,602256,55.5872381,42.0560157
1,Февральский переулок,602256,55.5872406,42.0565833
3,Ямская улица,602256,55.5910779,42.0515089
1,Ямская улица,602256,55.5914994,42.0524375
9А,Февральский переулок,602256,55.5883930,42.0542478
15А,Февральский переулок,602256,55.5889152,42.0536757
25,Февральский переулок,602256,55.5903354,42.0531587
26,Февральский переулок,602256,55.5906300,42.0528258
9,улица Кожевники,602256,55.5916961,42.0540395
8,улица Кожевники,602256,55.5913683,42.0542542
6А,улица Кожевники,602256,55.5909017,42.0544009
11,улица Кожевники,602256,55.5903939,42.0541861
5,улица Кожевники,602256,55.5900071,42.0560382
3Б,улица Кожевники,602256,55.5884670,42.0567843
3А,улица Кожевники,602256,55.5882338,42.0570237
1А,улица Кожевники,602256,55.5882866,42.0562405
3,улица Кожевники,602256,55.5878105,42.0566194
2А,улица Кожевники,602256,55.5873854,42.0569256
37,Ямская улица,602256,55.5893424,42.0432383
35,Ямская улица,602256,55.5895503,42.0435833
33,Ямская улица,602256,55.5893989,42.0438689
21,улица Войкова,602256,55.5867511,42.0363049
61,Окская улица,602256,55.5872536,42.0404127
15,улица Матросова,602256,55.5875504,42.0412922
13,улица Матросова,602256,55.5872538,42.0416032
57,Окская улица,602256,55.5870502,42.0409049
59,Окская улица,602256,55.5870041,42.0405763
63,Окская улица,602256,55.5869093,42.0402682
65,Окская улица,602256,55.5868670,42.0399779
67,Окская улица,602256,55.5867664,42.0396670
69,Окская улица,602256,55.5867061,42.0393851
71,Окская улица,602256,55.5866211,42.0389867
73,Окская улица,602256,55.5865767,42.0387645
75,Окская улица,602256,55.5864926,42.0384040
77,Окская улица,602256,55.5864459,42.0379564
79,Окская улица,602256,55.5863545,42.0373972
81,Окская улица,602256,55.5861957,42.0370877
21А,улица Войкова,602256,55.5862814,42.0364320
83,Окская улица,602256,55.5861341,42.0368245
43,Казанская улица,602256,55.5853754,42.0398203
41,Казанская улица,602256,55.5854709,42.0402091
39,Казанская улица,602256,55.5855433,42.0404774
37,Казанская улица,602256,55.5856064,42.0407319
35,Казанская улица,602256,55.5856644,42.0410812
33,Казанская улица,602256,55.5857335,42.0414252
31,Казанская улица,602256,55.5858097,42.0417739
29,Казанская улица,602256,55.5858881,42.0420955
1,улица Матросова,602256,55.5859476,42.0424837
3,улица Матросова,602256,55.5861663,42.0423227
5,улица Матросова,602256,55.5863848,42.0421846
7,улица Матросова,602256,55.5866221,42.0420569
9,улица Матросова,602256,55.5868090,42.0419107
11,улица Матросова,602256,55.5869553,42.0417792
38Б,Окская улица,602256,55.5868364,42.0411952
40,Окская улица,602256,55.5867353,42.0407544
42,Окская улица,602256,55.5866617,42.0404499
44,Окская улица,602256,55.5866116,42.0401318
46,Окская улица,602256,55.5865067,42.0397591
48,Окская улица,602256,55.5864493,42.0394699
50,Окская улица,602256,55.5863842,42.0391719
52,Окская улица,602256,55.5862749,42.0387111
55,Казанская улица,602256,55.5861082,42.0382086
2Б,Садовая улица,602256,55.5860634,42.0483511
2А,Садовая улица,602256,55.5863461,42.0479484
46,Казанская улица,602256,55.5854385,42.0416743
44,Казанская улица,602256,55.5855565,42.0421105
42,Казанская улица,602256,55.5856146,42.0424046
40,Казанская улица,602256,55.5856907,42.0427694
38,Казанская улица,602256,55.5858449,42.0431566
36,Казанская улица,602256,55.5859200,42.0435871
34,Казанская улица,602256,55.5859799,42.0439002
32,Казанская улица,602256,55.5860546,42.0441711
30,Казанская улица,602256,55.5861368,42.0445462
28,Казанская улица,602256,55.5862175,42.0449335
26,Казанская улица,602256,55.5862260,42.0452769
24,Казанская улица,602256,55.5863422,42.0455333
22,Казанская улица,602256,55.5864252,42.0458482
20,Казанская улица,602256,55.5864730,42.0461167
18,Казанская улица,602256,55.5865614,42.0464872
16,Казанская улица,602256,55.5866083,42.0467577
14,Казанская улица,602256,55.5864251,42.0469586
12,Казанская улица,602256,55.5862008,42.0471203
1Б,Садовая улица,602256,55.5855498,42.0476081
1А,Садовая улица,602256,55.5857539,42.0474086
14Б,Казанская улица,602256,55.5860589,42.0464069
4,Садовый переулок,602256,55.5855742,42.0452916
6,Садовый переулок,602256,55.5854535,42.0448215
8,Садовый переулок,602256,55.5853566,42.0443321
12,Садовый переулок,602256,55.5853087,42.0434869
10,Садовый переулок,602256,55.5852245,42.0439976
1,Садовый переулок,602256,55.5853073,42.0460252
3,Садовый переулок,602256,55.5852503,42.0455602
5,Садовый переулок,602256,55.5851311,42.0451226
7,Садовый переулок,602256,55.5849802,42.0445066
9,Садовый переулок,602256,55.5849134,42.0441467
4,улица Матросова,602256,55.5863149,42.0428112
8,улица Матросова,602256,55.5867186,42.0425039
10,улица Матросова,602256,55.5869112,42.0424089
12,улица Матросова,602256,55.5870859,42.0422426
38А,Окская улица,602256,55.5871956,42.0428766
38,Окская улица,602256,55.5872667,42.0431683
36,Окская улица,602256,55.5873826,42.0436478
34,Окская улица,602256,55.5874429,42.0439682
32,Окская улица,602256,55.5875408,42.0443049
30,Окская улица,602256,55.5875870,42.0445594
28,Окская улица,602256,55.5876665,42.0449115
28А,Окская улица,602256,55.5877330,42.0452873
9,Садовая улица,602256,55.5878886,42.0458810
13,Садовая улица,602256,55.5876602,42.0460678
7,Садовая улица,602256,55.5874579,42.0461948
5,Садовая улица,602256,55.5872636,42.0463423
3,Садовая улица,602256,55.5870615,42.0464848
1,Садовая улица,602256,55.5868871,42.0466206
13,Казанская улица,602256,55.5867308,42.0458348
15,Казанская улица,602256,55.5866726,42.0456018
17,Казанская улица,602256,55.5866336,42.0453316
19,Казанская улица,602256,55.5865434,42.0449862
21,Казанская улица,602256,55.5864866,42.0447260
23,Казанская улица,602256,55.5864254,42.0443851
25,Казанская улица,602256,55.5863168,42.0440122
27,Казанская улица,602256,55.5862245,42.0436012
2,улица Матросова,602256,55.5860857,42.0430128
34,Ямская улица,602256,55.5890547,42.0431539
32,Ямская улица,602256,55.5890659,42.0434949
30,Ямская улица,602256,55.5889983,42.0439248
28,Ямская улица,602256,55.5891560,42.0442317
21,Садовая улица,602256,55.5891916,42.0449594
19,Садовая улица,602256,55.5889575,42.0450812
17,Садовая улица,602256,55.5887815,42.0452678
15,Садовая улица,602256,55.5886000,42.0453801
11,Садовая улица,602256,55.5884020,42.0454328
31,Окская улица,602256,55.5881338,42.0456066
33,Окская улица,602256,55.5880360,42.0451970
35,Окская улица,602256,55.5879786,42.0449912
37,Окская улица,602256,55.5879197,42.0446421
39,Окская улица,602256,55.5878310,42.0443461
41,Окская улица,602256,55.5877625,42.0440069
43,Окская улица,602256,55.5876678,42.0436669
45,Окская улица,602256,55.5876017,42.0433480
47,Окская улица,602256,55.5875476,42.0430777
49,Окская улица,602256,55.5874974,42.0427409
51,Окская улица,602256,55.5874163,42.0424740
53,Окская улица,602256,55.5873258,42.0420807
16,улица Матросова,602256,55.5877864,42.0418574
6,Садовая улица,602256,55.5873417,42.0468667
4,Садовая улица,602256,55.5872019,42.0469476
10,Садовая улица,602256,55.5878033,42.0465199
8,Садовая улица,602256,55.5876335,42.0468408
12,Садовая улица,602256,55.5879946,42.0464031
12А,Садовая улица,602256,55.5881133,42.0468836
26,Окская улица,602256,55.5882103,42.0473942
24,Окская улица,602256,55.5882951,42.0477263
22,Окская улица,602256,55.5883722,42.0480640
20,Окская улица,602256,55.5884416,42.0484235
18,Окская улица,602256,55.5885302,42.0487963
1,Казанский проезд,602256,55.5878714,42.0492282
1,Казанская улица,602256,55.5875503,42.0494796
3,Казанская улица,602256,55.5874565,42.0490397
5,Казанская улица,602256,55.5873943,42.0487494
7,Казанская улица,602256,55.5873064,42.0484565
9,Казанская улица,602256,55.5872400,42.0480376
11,Казанская улица,602256,55.5871314,42.0476909
2,Садовая улица,602256,55.5870143,42.0471360
2,Казанская улица,602256,55.5872378,42.0493973
6,Казанская улица,602256,55.5870872,42.0487636
8,Казанская улица,602256,55.5870269,42.0485245
10,Казанская улица,602256,55.5869048,42.0480193
9,Ямская улица,602256,55.5903762,42.0495174
5,Ямская улица,602256,55.5906402,42.0503299
7,Ямская улица,602256,55.5905815,42.0499566
11,Ямская улица,602256,55.5901171,42.0497273
13,Ямская улица,602256,55.5901059,42.0493458
15,Ямская улица,602256,55.5900811,42.0489412
23,Ямская улица,602256,55.5899673,42.0474380
25,Ямская улица,602256,55.5899285,42.0470124
27,Ямская улица,602256,55.5899000,42.0465567
31,Ямская улица,602256,55.5897923,42.0455532
1,Окская улица,602256,55.5896295,42.0527082
3,Окская улица,602256,55.5895946,42.0522657
5,Окская улица,602256,55.5894842,42.0519764
7,Окская улица,602256,55.5894871,42.0515805
11,Окская улица,602256,55.5893222,42.0509797
13,Окская улица,602256,55.5892338,42.0506315
15,Окская улица,602256,55.5891938,42.0504398
17,Окская улица,602256,55.5891480,42.0499600
19,Окская улица,602256,55.5890143,42.0495341
21,Окская улица,602256,55.5889145,42.0490839
17А,Окская улица,602256,55.5894705,42.0498262
6,Ямская улица,602256,55.5897715,42.0500302
4,Ямская улица,602256,55.5899459,42.0504421
19,Февральский переулок,602256,55.5903043,42.0524745
20,Февральский переулок,602256,55.5905370,42.0523405
21,Февральский переулок,602256,55.5906683,42.0522857
2,Ямская улица,602256,55.5902768,42.0511987
26,Ямская улица,602256,55.5894594,42.0461399
24А,Ямская улица,602256,55.5895089,42.0464465
22,Ямская улица,602256,55.5895715,42.0468609
20,Ямская улица,602256,55.5895974,42.0471687
18,Ямская улица,602256,55.5896428,42.0474774
16А,Ямская улица,602256,55.5896559,42.0478341
14,Ямская улица,602256,55.5896818,42.0481583
10,Ямская улица,602256,55.5896992,42.0486475
8,Ямская улица,602256,55.5896910,42.0491696
23,Окская улица,602256,55.5891031,42.0486793
25,Окская улица,602256,55.5888526,42.0483950
27,Окская улица,602256,55.5886546,42.0478993
29,Окская улица,602256,55.5884834,42.0471879
22,Садовая улица,602256,55.5890613,42.0456205
20,Садовая улица,602256,55.5888760,42.0457435
18,Садовая улица,602256,55.5887126,42.0458589
16,Садовая улица,602256,55.5885494,42.0460472
14,Садовая улица,602256,55.5882575,42.0461988
17Б,Казанская улица,602256,55.5878940,42.0497371
16,Окская улица,602256,55.5885351,42.0493755
14,Окская улица,602256,55.5887533,42.0497776
12,Окская улица,602256,55.5888392,42.0502262
10,Окская улица,602256,55.5889030,42.0505196
8,Окская улица,602256,55.5889327,42.0507723
6,Окская улица,602256,55.5890186,42.0510832
4,Окская улица,602256,55.5889669,42.0515097
2,Окская улица,602256,55.5891446,42.0516561
2А,Окская улица,602256,55.5892654,42.0520927
18,Февральский переулок,602256,55.5893568,42.0528628
17,Февральский переулок,602256,55.5891724,42.0529316
16,Февральский переулок,602256,55.5889346,42.0527989
15,Февральский переулок,602256,55.5888140,42.0532330
14,Февральский переулок,602256,55.5886216,42.0533815
13,Февральский переулок,602256,55.5884389,42.0534018
1А,Казанская улица,602256,55.5883325,42.0528850
3А,Казанская улица,602256,55.5881898,42.0523482
5А,Казанская улица,602256,55.5880897,42.0518929
7А,Казанская улица,602256,55.5880421,42.0515724
7В,Казанская улица,602256,55.5879573,42.0511147
11А,Казанская улица,602256,55.5878419,42.0507660
13А,Казанская улица,602256,55.5877803,42.0504579
15А,Казанская улица,602256,55.5877008,42.0501366
17А,Казанская улица,602256,55.5876242,42.0498353
13,Меленковское шоссе,602240,55.5597300,42.0155996
17,Меленковское шоссе,602240,55.5584140,42.0084488
15,Меленковское шоссе,602240,55.5579029,42.0111758
12,Меленковский проезд,602240,55.5609899,42.0118362
17А,Меленковское шоссе,602240,55.5594114,42.0117286
25,Меленковское шоссе,602240,55.5506509,41.9978476
9,Меленковское шоссе,602240,55.5606952,42.0202529
8,Меленковский проезд,602240,55.5619523,42.0081402
6,Меленковский проезд,602240,55.5615037,42.0102886
16Б,улица Матросова,602256,55.5883419,42.0419843
24,Ямская улица,602256,55.5895391,42.0465741
12,Ямская улица,602256,55.5897177,42.0484621
16А,улица Матросова,602256,55.5881036,42.0418416
4А,Ямская улица,602256,55.5900819,42.0507596
17,Ямская улица,602256,55.5900452,42.0486004
19,Ямская улица,602256,55.5902480,42.0480798
21,Ямская улица,602256,55.5901383,42.0476684
55,Окская улица,602256,55.5872282,42.0411459
8,Февральский переулок,602256,55.5877679,42.0549074
6,улица Кожевники,602256,55.5898282,42.0550237
2,улица Кожевники,602256,55.5876644,42.0571674
4,улица Кожевники,602256,55.5886675,42.0557972
2,Казанский проезд,602256,55.5880682,42.0495694
7Б,Казанская улица,602256,55.5882058,42.0514044
6,улица Матросова,602256,55.5866587,42.0425483
2,Садовый переулок,602256,55.5857296,42.0458583
54,улица Войкова,602256,55.5840617,42.0362580
56,улица Войкова,602256,55.5843034,42.0362454
64,улица Войкова,602256,55.5852602,42.0359476
66,улица Войкова,602256,55.5854073,42.0356950
1,2-я Новослободская улица,602256,55.5892051,42.0300356
3,2-я Новослободская улица,602256,55.5890430,42.0294079
5,2-я Новослободская улица,602256,55.5889247,42.0289626
2,1-я Новослободская улица,602256,55.5888871,42.0302793
4,1-я Новослободская улица,602256,55.5887395,42.0296516
6,1-я Новослободская улица,602256,55.5886205,42.0291894
8,1-я Новослободская улица,602256,55.5884695,42.0286216
44,Полевая улица,602256,55.5862198,42.0291870
12,Юбилейная улица,602256,55.5863135,42.0316375
62,улица Войкова,602256,55.5851063,42.0360148
52,улица Крылова,602256,55.5853762,42.0316381
26,улица Зарубина,602266,55.5854686,42.0185859
27А,улица Зарубина,602266,55.5853671,42.0183813
27,улица Зарубина,602266,55.5857442,42.0178737
29,улица Зарубина,602266,55.5860678,42.0174346
1,Колхозная улица,602256,55.5807952,42.0348733
1,Владимирское шоссе,602266,55.5850101,42.0149196
42Б,улица Лаврентьева,602266,55.5825186,42.0078769
40Е,улица Лаврентьева,602266,55.5813859,42.0075258
42А,улица Лаврентьева,602266,55.5824876,42.0086947
12Б,Кленовая улица,602266,55.5797613,42.0133676
119А,Московская улица,602252,55.5744938,42.0090161
121,Московская улица,602252,55.5747849,42.0088729
19,улица Чкалова,602252,55.5768361,42.0030816
34,улица Лаврентьева,602252,55.5792715,42.0077876
38,улица Лаврентьева,602252,55.5796568,42.0077663
26,Вишнёвая улица,602252,55.5772460,42.0042205
32,улица Осипенко,602252,55.5778145,41.9992076
14,улица Расковой,602252,55.5757746,42.0024950
4,улица Осипенко,602252,55.5750125,41.9989642
147,Московская улица,602252,55.5746918,42.0019193
20,улица Осипенко,602252,55.5759245,41.9984975
18,улица Осипенко,602252,55.5757464,41.9985391
10,улица Осипенко,602252,55.5753619,41.9984611
11,Вишнёвая улица,602252,55.5754660,42.0052448
9,Вишнёвая улица,602252,55.5752257,42.0051982
3,Вишнёвая улица,602252,55.5749316,42.0052417
14,Вишнёвая улица,602252,55.5757196,42.0040938
109,улица Калинина,602252,55.5799133,41.9916852
107,улица Калинина,602252,55.5797425,41.9916295
69,Фруктовая улица,602252,55.5796790,41.9935741
93,Физкультурная улица,602252,55.5798544,41.9955413
48,Трудовая улица,602252,55.5798393,41.9969371
81,Физкультурная улица,602252,55.5784995,41.9953806
53,улица Чкалова,602252,55.5773479,41.9942623
39,улица Чкалова,602252,55.5769269,41.9962636
54,Физкультурная улица,602252,55.5785932,41.9958437
46,Физкультурная улица,602252,55.5782261,41.9958685
72,улица Калинина,602252,55.5777466,41.9920325
80,улица Калинина,602252,55.5781999,41.9921020
86,улица Калинина,602252,55.5785154,41.9926188
78,Профсоюзная улица,602252,55.5778336,41.9899674
47,Физкультурная улица,602252,55.5760336,41.9951164
55,Физкультурная улица,602252,55.5763859,41.9951755
52,улица Гастелло,602252,55.5760770,41.9942279
199,Московская улица,602252,55.5750942,41.9896522
70,улица Чкалова,602252,55.5767187,41.9901507
75,Профсоюзная улица,602262,55.5763266,41.9888224
52,улица Горького,602262,55.5759018,41.9878407
45,улица Калинина,602262,55.5745849,41.9910620
45,улица Горького,602262,55.5732751,41.9865901
62,Московская улица,602267,55.5758188,42.0396223
28,Карачаровское шоссе,602253,55.5511871,42.0642427
32,Карачаровское шоссе,602253,55.5496630,42.0649031
24,Карачаровское шоссе,602253,55.5528662,42.0635053
1,улица Гоголева,602262,55.5692998,41.9964511
2,проезд Гоголева,602262,55.5693080,41.9834873
38,улица Гоголева,602262,55.5688959,41.9834741
12,улица Гоголева,602262,55.5688201,41.9910332
9,улица Калинина,602262,55.5675707,41.9898076
10А,Профсоюзная улица,602262,55.5677726,41.9886799
8,Профсоюзная улица,602262,55.5675974,41.9886780
7,улица Калинина,602262,55.5669944,41.9898423
5,улица Калинина,602262,55.5668139,41.9897421
3А,улица Калинина,602262,55.5666171,41.9897153
2А,улица Филатова,602254,55.5663784,42.0155088
5А,Коммунальная улица,602254,55.5666156,42.0129782
122А,Московская улица,602252,55.5741027,42.0108917
3,Кооперативный проезд,602252,55.5719769,42.0142223
21А,улица Щербакова,602252,55.5727335,42.0172890
13,улица Куйбышева,602254,55.5701440,42.0207595
29,улица Амосова,602254,55.5702792,42.0225619
13,улица Фрунзе,602254,55.5715387,42.0226179
37,улица Амосова,602254,55.5692937,42.0213939
45Б,улица Амосова,602254,55.5683619,42.0201134
14,улица Машинистов,602254,55.5685411,42.0180730
20А,Эксплуатационная улица,602254,55.5641541,42.0244116
12В,Эксплуатационная улица,602254,55.5642385,42.0230679
60,улица Дзержинского,602254,55.5647752,42.0187451
29,улица Дзержинского,602254,55.5696774,42.0248236
31,улица Дзержинского,602254,55.5694872,42.0246631
1Д,улица Куйбышева,602254,55.5663054,42.0272904
3В,улица Куйбышева,602254,55.5663282,42.0269695
38,улица Дзержинского,602254,55.5678482,42.0234687
20А,Нижегородская улица,602254,55.5681753,42.0269882
3А,улица Щербакова,602254,55.5735767,42.0236653
100А,Московская улица,602254,55.5742577,42.0248314
3,улица Дзержинского,602254,55.5720298,42.0281738
12,улица Амосова,602254,55.5721881,42.0260257
2,переулок Амосова,602254,55.5732996,42.0258366
1,переулок Амосова,602254,55.5734751,42.0255056
2В,улица Дзержинского,602254,55.5718596,42.0288025
9,Нижегородская улица,602254,55.5694040,42.0277148
11,Нижегородская улица,602254,55.5696476,42.0282643
4,Эксплуатационная улица,602254,55.5638097,42.0286499
4А,Эксплуатационная улица,602254,55.5636841,42.0292735
3,Эксплуатационная улица,602254,55.5635859,42.0300336
9,Эксплуатационная улица,602254,55.5642914,42.0254415
20,Эксплуатационная улица,602254,55.5641212,42.0250420
6Д,улица Куйбышева,602254,55.5642805,42.0350054
6В,проезд Куйбышева,602254,55.5638719,42.0349379
6Г,проезд Куйбышева,602254,55.5636985,42.0341982
4А,улица Куйбышева,602254,55.5633800,42.0333306
2А,улица Куйбышева,602254,55.5628167,42.0318473
1А,улица Куйбышева,602254,55.5636625,42.0311195
1Е,улица Куйбышева,602254,55.5650249,42.0298579
70Б,Советская улица,602251,55.5727085,42.0335627
23,Парковая улица,602251,55.5699124,42.0343932
37,Парковая улица,602251,55.5674539,42.0369506
10,Парковая улица,602251,55.5678728,42.0372131
12,Парковая улица,602251,55.5676059,42.0374082
87,улица Лакина,602251,55.5674395,42.0384218
89,улица Лакина,602251,55.5673192,42.0379136
4,Парковая улица,602251,55.5689227,42.0364084
2,Парковая улица,602251,55.5692152,42.0361704
60А,улица Мечникова,602251,55.5696089,42.0367910
62,улица Мечникова,602251,55.5692567,42.0372232
53,Комсомольская улица,602251,55.5687725,42.0376630
80,Комсомольская улица,602251,55.5684703,42.0380190
86,Московская улица,602251,55.5751841,42.0360362
82,улица Воровского,602251,55.5732088,42.0403802
6Э,проезд Куйбышева,602254,55.5641651,42.0373381
7,2-я Новослободская улица,602256,55.5887776,42.0283711
3,3-я Новослободская улица,602256,55.5905758,42.0284304
1,3-я Новослободская улица,602256,55.5906952,42.0290565
2,5-я Новослободская улица,602256,55.5897753,42.0276377
8,2-я Новослободская улица,602256,55.5892219,42.0280695
6,2-я Новослободская улица,602256,55.5893780,42.0286703
4,2-я Новослободская улица,602256,55.5895175,42.0291933
2,2-я Новослободская улица,602256,55.5896702,42.0297561
1,5-я Новослободская улица,602256,55.5897566,42.0269483
7,3-я Новослободская улица,602256,55.5893319,42.0260042
14,1-я Новослободская улица,602256,55.5874733,42.0247622
11,1-я Новослободская улица,602256,55.5873455,42.0255510
9,1-я Новослободская улица,602256,55.5876969,42.0274955
9,2-я Новослободская улица,602256,55.5883854,42.0269584
12,1-я Новослободская улица,602256,55.5879653,42.0263985
10,1-я Новослободская улица,602256,55.5883373,42.0278895
15А,Владимирское шоссе,602266,55.5897786,42.0029587
10,2-я Новослободская улица,602256,55.5890534,42.0268940
5,3-я Новослободская улица,602256,55.5903912,42.0278960
17,Карачаровское шоссе,602253,55.5512638,42.0616792
18,1-я Новослободская улица,602256,55.5871749,42.0219814
16,1-я Новослободская улица,602256,55.5869151,42.0231592
20,1-я Новослободская улица,602256,55.5869942,42.0212088
47,Московская улица,602267,55.5763326,42.0387670
68А,Карачаровская улица,602257,55.5403198,42.0787172
30А,улица Кирова,602253,55.5467818,42.0690213
2,Мичуринская улица,602264,55.5557334,42.0525119
4,улица Куликова,602251,55.5736260,42.0369288
33,Радиозаводское шоссе,602264,55.5490588,42.0484259
13,1-я Новослободская улица,602256,55.5865265,42.0226392
