House number,Street name,Postal code,Latitude,Longitude
73,улица Коммунаров,344030,47.2475102,39.7779394
52,улица Станиславского,344002,47.2165517,39.7075712
40,Коммунистический проспект,3440000,47.2079945,39.6211607
45,Левобережная улица,344029,47.2117274,39.7536873
45,Левобережная улица,344029,47.2115090,39.7543096
45,Левобережная улица,344029,47.2108968,39.7523891
3,улица Содружества,344090,47.2158801,39.6366746
4,улица Литвинова,344116,47.2104317,39.6703694
13,Батуринская улица,344116,47.2091217,39.6702128
58,Большая Садовая улица,344002,47.2205682,39.7109004
20,Советская улица,344019,47.2295457,39.7579651
11,Извилистая улица,344091,47.2009166,39.6293682
51,улица Шаумяна,344002,47.2206244,39.7128925
86,улица Содружества,344103,47.2277366,39.6337217
11,Извилистая улица,344091,47.2005011,39.6293680
63,проспект Соколова,344000,47.2312309,39.7176919
86,улица Тельмана,344010,47.2323346,39.7261838
54,улица Ерёменко,344015,47.2316881,39.6248414
41/112,Ворошиловский проспект,344002,47.2215031,39.7185685
77,Московская улица,344002,47.2194402,39.7176683
37,Ворошиловский проспект,344002,47.2210319,39.7188161
108,Социалистическая улица,344002,47.2210913,39.7188405
35,Ворошиловский проспект,344002,47.2208681,39.7189947
37,Ворошиловский проспект,344002,47.2209984,39.7189628
37,Ворошиловский проспект,344002,47.2210435,39.7189369
198,проспект Стачки,344091,47.2132314,39.6294835
1Ж,Пойменная улица,344002,47.2052276,39.7281416
27,Коммунистический проспект,344091,47.2075676,39.6319398
42Г,проспект Ленина,344079,47.2503476,39.6883811
23,Будённовский проспект,344002,47.2195833,39.7070245
292,проспект Шолохова,344009,47.2647182,39.8147616
209,проспект Шолохова,344009,47.2612333,39.8067420
102В,улица Вересаева,344072,47.2392128,39.7983059
103 к1,улица Вересаева,344072,47.2384404,39.7997009
29,Большая Садовая улица,344082,47.2195877,39.7029618
42,Газетный переулок,344002,47.2208547,39.7164167
27,Коммунистический проспект,344091,47.2075625,39.6306419
46,проспект Соколова,344006,47.2259127,39.7204844
94,Будённовский проспект,344018,47.2350346,39.7012941
153,улица Доватора,344103,47.2374479,39.6308182
58/1,улица Зорге,344103,47.2238783,39.6308222
26,улица Зорге,344090,47.2152391,39.6348145
69/47,Большая Садовая улица,344002,47.2224868,39.7179528
113,Сказочная улица,344058,47.2022126,39.6331070
97/19,улица Гусева,344001,47.2197745,39.6798426
89,18-я линия,344037,47.2387312,39.7574596
153,улица Доватора,344103,47.2373833,39.6308174
132,Доломановский переулок,302028,47.2377234,39.6903607
35,улица Мадояна,344004,47.2187286,39.6588300
62,Соборный переулок,344010,47.2291106,39.7069697
122/1,Днепровский переулок,344065,47.2884206,39.7584011
58А/8,улица Зорге,344000,47.2241960,39.6306550
54,улица Мясникова,344019,47.2261804,39.7581152
2/2,проспект Космонавтов,344092,47.2799752,39.7177766
17,1-я Майская улица,344019,47.2316663,39.7579826
144/27,улица Доватора,344041,47.2378225,39.6159722
40/1,бульвар Комарова,344113,47.2912560,39.7178930
1/8,проспект Королёва,344092,47.2918075,39.6943739
14,Минеральная улица,344069,47.2899358,39.6623087
290,проспект Шолохова,344009,47.2641418,39.8138048
302А,проспект Шолохова,344009,47.2680050,39.8199327
302Б,проспект Шолохова,344009,47.2677778,39.8190337
49А,Коммунистический проспект,344091,47.2074570,39.6181081
113,Большая Садовая улица,344022,47.2245358,39.7295102
116,Большая Садовая улица,344006,47.2239073,39.7264819
321,улица Нансена,344023,47.2443763,39.7341763
226,проспект Стачки,344090,47.2124409,39.6164778
46/176,Ворошиловский проспект,344000,47.2286118,39.7168066
5А,Ученический переулок,344011,47.2240500,39.6889839
105,проспект Ленина,344038,47.2492633,39.7159202
176,Пушкинская улица,344022,47.2284319,39.7318713
154А,улица Нансена,344000,47.2436655,39.7266631
156,улица Нансена,344000,47.2435119,39.7281610
103/5,улица Вересаева,344072,47.2383681,39.8014562
42,проспект Ленина,344079,47.2504309,39.6881125
42,проспект Ленина,344079,47.2504290,39.6869297
91/107,13-я линия,344019,47.2212471,39.7617306
4,улица Погодина,344038,47.2509350,39.7113701
6,улица Погодина,344038,47.2521769,39.7108580
2/17,улица Воровского,344029,47.2504496,39.7776766
51,Большая Садовая улица,344002,47.2217673,39.7142192
28Е,бульвар Комарова,344113,47.2891827,39.7092701
167,улица Станиславского,344022,47.2227478,39.7354402
81,Темерницкая улица,344002,47.2196804,39.7162115
2/1,переулок Алябьева,344065,47.3130140,39.7869763
118,Днепровский переулок,344065,47.2864634,39.7580849
208/137,Халтуринский переулок,344018,47.2368027,39.6947054
23А,улица Грисенко,344020,47.2664941,39.7873743
25,Импульсная улица,344000,47.2953360,39.6858479
3,Пряничная улица,344029,47.2459468,39.8261117
29,Автомобильный переулок,344038,47.2482246,39.7230571
103/30,Сальский переулок,344056,47.2821816,39.7520870
80/127,Вятская улица,344056,47.2843515,39.7500635
80/127,Вятская улица,344056,47.2843476,39.7500861
49/82,Украинская улица,344056,47.2818261,39.7524237
34,Ворошиловский проспект,344022,47.2261020,39.7173636
32/2 ж,проспект Михаила Нагибина,344068,47.2600614,39.7198148
40/73,Театральный проспект,344022,47.2306639,39.7413770
3,Гарнизонный переулок,344049,47.2338779,39.6040551
93,Пушкинская улица,344002,47.2249052,39.7123249
32А,проспект Михаила Нагибина,344068,47.2593134,39.7187695
47Б,Газетный переулок,344002,47.2229262,39.7150105
2/13/1,улица Менжинского,344029,47.2506341,39.7578398
2,улица Курчатова,344020,47.2633802,39.7764619
3 к1,улица Малиновского,344091,47.2008743,39.6121750
137,Пушкинская улица,344000,47.2266172,39.7203403
2/2,Ворошиловский проспект,344002,47.2175934,39.7218960
4,4-й Глазурный переулок,344091,47.2242171,39.6118142
49А,Вятская улица,344026,47.2828140,39.7586517
49А,Вятская улица,344026,47.2828064,39.7585831
85/5,проспект 40-летия Победы,344111,47.2419094,39.8264889
16,улица Туполева,344093,47.2826740,39.8044738
70,Будённовский проспект,344011,47.2301408,39.7034865
2/2,проспект Космонавтов,344092,47.2801386,39.7176184
15,Элеваторный переулок,344016,47.2549019,39.6411285
8,Извилистая улица,344091,47.2017256,39.6302248
7/110 оф206,Машиностроительный переулок,344029,47.2079240,39.6033112
7Б,улица 30-летия Октября,344033,47.1976624,39.6069069
103,улица Города Волос,344006,47.2326298,39.7294080
57/26,Социалистическая улица,344002,47.2191322,39.7085416
26,улица Зорге,344090,47.2151017,39.6348492
5А,улица Зорге,344090,47.2157402,39.6339760
63,Большая Садовая улица,344002,47.2224799,39.7167145
85/87,переулок Семашко,344000,47.2296188,39.7092199
85/87,переулок Семашко,344000,47.2291672,39.7094330
49/68,улица Тельмана,344000,47.2290279,39.7087345
89А,Лермонтовская улица,344000,47.2297153,39.7078229
89,Лермонтовская улица,344000,47.2295638,39.7075131
43,23-я линия,344019,47.2256131,39.7677919
105/79,Пушкинская улица,344002,47.2252278,39.7140442
57,улица Шаумяна,344002,47.2208338,39.7140136
3,Омская улица,344068,47.2615608,39.7209797
36,улица Петрашевского,344034,47.2106054,39.6761518
65А,Большая Садовая улица,344002,47.2226486,39.7171402
26А,улица Мадояна,344004,47.2184237,39.6599848
26А,улица Мадояна,344004,47.2184045,39.6599993
26А,улица Мадояна,344004,47.2184355,39.6599622
27,переулок Семашко,344002,47.2198213,39.7136891
53,Будённовский проспект,344000,47.2256379,39.7046241
27,Будённовский проспект,344002,47.2212096,39.7063607
87/13,улица Станиславского,344002,47.2196599,39.7212630
12,проспект Шолохова,344019,47.2364048,39.7416284
"80, 203",Будённовский проспект,344011,47.2327909,39.7023282
96/132,Будённовский проспект,344018,47.2365591,39.7004892
48/30,14-я линия,344019,47.2326576,39.7560120
114,Большая Садовая улица,344022,47.2237729,39.7258666
53,Темерницкая улица,344002,47.2186358,39.7112173
75,Ворошиловский проспект,344002,47.2265491,39.7166091
80,Будённовский проспект,344018,47.2329274,39.7023156
3А,улица Тренёва,344116,47.2122875,39.6656190
21,Краснокамский переулок,344068,47.2676646,39.7044773
85,Театральный проспект,344000,47.2351353,39.7377541
20/1,бульвар Комарова,344113,47.2895625,39.7024130
30,улица Ткачёва,344049,47.2263668,39.5939778
7,улица Оганова,344069,47.2663977,39.6656157
93/1,проспект Ленина,344038,47.2492200,39.7061964
4/17,2-я Краснодонская улица,344068,47.2634220,39.7218472
3 с1,Стабильная улица,344090,47.2161754,39.6247491
25,улица Малиновского,344015,47.2304404,39.6106849
30/46,Будённовский проспект,344002,47.2197329,39.7081780
33,улица Зорге,344015,47.2292776,39.6283957
2/2,проспект Космонавтов,344092,47.2811408,39.7177492
11/98,улица Сержантова,344029,47.2543749,39.7656830
17,проспект Михаила Нагибина,344038,47.2473767,39.7112874
16,площадь Карла Маркса,344019,47.2308660,39.7617172
91,улица Суворова,344022,47.2266306,39.7326931
168/78,Пушкинская улица,344022,47.2280397,39.7295965
101/6 с1,улица Вересаева,344072,47.2399924,39.8025805
89Б,улица Ерёменко,344056,47.2327760,39.6125339
50/42,Пушкинская улица,344002,47.2229459,39.7074855
5/4,проспект Королёва,344096,47.2964576,39.6952808
32/2к3,проспект Михаила Нагибина,344068,47.2611213,39.7194934
3,Межевая улица,344101,47.2131707,39.6917156
6,Профсоюзная улица,344101,47.2132904,39.6916449
"88, павильон 16",улица Станиславского,344002,47.2177587,39.7132504
10,Чухновский переулок,344001,47.2214757,39.6692561
88,улица Станиславского,344002,47.2175837,39.7132422
7,Тракторная улица,Ростов-на-Дону,47.2628759,39.6850934
81/8,проспект Ленина,344038,47.2495416,39.6982107
16,Коммунистический проспект,344058,47.2084632,39.6382636
14,Коммунистический проспект,344058,47.2084784,39.6391382
12,Коммунистический проспект,344058,47.2085044,39.6400181
24,Коммунистический проспект,344058,47.2094799,39.6343478
8А,улица Мильчакова,344090,47.2166605,39.6286334
12/4,Коммунистический проспект,344058,47.2096004,39.6378709
4/1,Коммунистический проспект,344058,47.2096791,39.6437284
6/1,Коммунистический проспект,344058,47.2098004,39.6427694
8/1,Коммунистический проспект,344058,47.2092406,39.6421481
2,Коммунистический проспект,344058,47.2094160,39.6450209
2/2,Коммунистический проспект,344058,47.2101543,39.6446897
2/1,Коммунистический проспект,344058,47.2097867,39.6448643
20,улица Тружеников,344058,47.2100806,39.6453500
22,улица Тружеников,344058,47.2097124,39.6455256
219/3,проспект Стачки,344091,47.2103753,39.6287229
32,Коммунистический проспект,344091,47.2087801,39.6295138
76/1,2-я Краснодарская улица,344058,47.2051822,39.6359477
31/1,Коммунистический проспект,344091,47.2067565,39.6278995
37/1,Коммунистический проспект,344091,47.2067648,39.6244379
33/1,Коммунистический проспект,344091,47.2064780,39.6267706
33/2,Коммунистический проспект,344091,47.2059480,39.6262476
31/2,Коммунистический проспект,344091,47.2060025,39.6290870
82/1,2-я Краснодарская улица,344091,47.2045914,39.6283790
82/2,2-я Краснодарская улица,344091,47.2050681,39.6279281
80/3,2-я Краснодарская улица,344091,47.2047582,39.6298518
80/1,2-я Краснодарская улица,344091,47.2043795,39.6314803
80/2,2-я Краснодарская улица,344091,47.2042527,39.6298123
82,2-я Краснодарская улица,344091,47.2040914,39.6282578
80/5,2-я Краснодарская улица,344091,47.2052357,39.6299023
80/4,2-я Краснодарская улица,344091,47.2048623,39.6309436
80/11,2-я Краснодарская улица,344091,47.2054251,39.6323589
80/13,2-я Краснодарская улица,344091,47.2042347,39.6322878
80/12,2-я Краснодарская улица,344091,47.2048534,39.6323176
27/1,Коммунистический проспект,344091,47.2070253,39.6320869
27/2,Коммунистический проспект,344091,47.2066418,39.6320513
27/3,Коммунистический проспект,344091,47.2062492,39.6320266
31/3,Коммунистический проспект,344091,47.2064666,39.6290176
7/1,Прогрессивная улица,344058,47.2069014,39.6408179
215,проспект Стачки,344091,47.2113198,39.6319352
8/2,Коммунистический проспект,344058,47.2087142,39.6418319
8,Коммунистический проспект,344058,47.2085732,39.6424919
200/1к3,проспект Стачки,344091,47.2138866,39.6274448
10,улица Мильчакова,344090,47.2189047,39.6272605
12/1,улица Малиновского,344091,47.2007969,39.6161180
149 к1,2-я Краснодарская улица,344000,47.2026245,39.6209934
147А,2-я Краснодарская улица,344000,47.2026095,39.6234919
147 к1,2-я Краснодарская улица,344000,47.2020726,39.6231366
149 к4,2-я Краснодарская улица,344000,47.2016050,39.6232260
149 к6,2-я Краснодарская улица,344000,47.2015552,39.6247745
149 к2,2-я Краснодарская улица,344000,47.2023780,39.6216295
8,улица Малиновского,344091,47.2001008,39.6143872
12,улица Малиновского,344091,47.2009499,39.6143533
10,улица Малиновского,344091,47.2005245,39.6143578
28,Каширская улица,344091,47.1995421,39.6154871
24 к2,Каширская улица,344091,47.2006899,39.6170610
18 к2,Каширская улица,344091,47.2005752,39.6193339
18,Каширская улица,344091,47.1996326,39.6192700
18 к4,Каширская улица,344091,47.2011630,39.6210287
12 к1,Каширская улица,344091,47.2007316,39.6214998
10,Каширская улица,344091,47.1996097,39.6223712
18 к1,Каширская улица,344091,47.2000668,39.6195481
10 к1,Каширская улица,344091,47.2000903,39.6225520
14,Каширская улица,344091,47.1994299,39.6208190
12,Каширская улица,344091,47.1995181,39.6215980
16,Каширская улица,344091,47.1995053,39.6200414
16 к1,Каширская улица,344091,47.2001475,39.6203283
14 к1,Каширская улица,344091,47.2002198,39.6211048
6 к1,Каширская улица,344091,47.2005324,39.6240301
8 к1,Каширская улица,344091,47.2001906,39.6234817
151 к3,2-я Краснодарская улица,344000,47.2013244,39.6214875
149 к5,2-я Краснодарская улица,344000,47.2015203,39.6222985
155 к3,2-я Краснодарская улица,344000,47.2015023,39.6189416
151 к1,2-я Краснодарская улица,344000,47.2021485,39.6197663
157 к3,2-я Краснодарская улица,344000,47.2015449,39.6182175
155 к2,2-я Краснодарская улица,344000,47.2019870,39.6182312
153 к1,2-я Краснодарская улица,344000,47.2020672,39.6189985
155 к1,2-я Краснодарская улица,344000,47.2025829,39.6187707
157 к1,2-я Краснодарская улица,344000,47.2024700,39.6178629
153 к2,2-я Краснодарская улица,344000,47.2015835,39.6199991
151 к2,2-я Краснодарская улица,344000,47.2016692,39.6209240
24 к1,Каширская улица,344091,47.2001049,39.6165512
26,Каширская улица,344091,47.1995832,39.6163425
28 к1,Каширская улица,344091,47.2000193,39.6156290
22,Каширская улица,344091,47.1998319,39.6175445
24,Каширская улица,344091,47.1995122,39.6170913
8 к4,Каширская улица,344091,47.2011165,39.6238101
147 к2,2-я Краснодарская улица,344000,47.2021575,39.6246876
149 к7,2-я Краснодарская улица,344000,47.2017983,39.6254862
3/2,улица Быковского,344090,47.2142549,39.6427195
87/1,улица Андрея Сладкова,344090,47.2142632,39.6384143
94,2-я Краснодарская улица,344091,47.2048719,39.6181058
147 к4,2-я Краснодарская улица,344000,47.2027363,39.6251775
24А,бульвар Комарова,344113,47.2887211,39.7068581
40,Орбитальная улица,344113,47.3001933,39.7143375
36/3,улица Добровольского,344113,47.2974553,39.7047942
17,проспект Королёва,344113,47.2958027,39.7102922
17/4,проспект Королёва,344113,47.2971610,39.7110153
15/2,проспект Королёва,344092,47.2961624,39.7086137
17/2,проспект Королёва,344113,47.2965183,39.7106523
24,проспект Космонавтов,344092,47.2928630,39.7147744
20,проспект Космонавтов,344092,47.2918447,39.7149926
17/1,проспект Королёва,344113,47.2965196,39.7095774
24,бульвар Комарова,344000,47.2896221,39.7066528
18,улица Добровольского,344113,47.2894749,39.7052602
20,улица Добровольского,344113,47.2900353,39.7046051
84,улица Тельмана,344010,47.2322164,39.7253596
86,улица Тельмана,344010,47.2323427,39.7260510
137 c1,Университетский переулок,344000,47.2344253,39.7233906
30,проспект Королёва,344092,47.2951049,39.7182805
28,проспект Королёва,344092,47.2950331,39.7177866
31/4,Коммунистический проспект,344091,47.2063388,39.6276850
36/1,Коммунистический проспект,344091,47.2099901,39.6240843
85,улица Андрея Сладкова,344090,47.2149914,39.6388169
293,улица Максима Горького,344019,47.2326050,39.7405191
43,улица Крупской,344004,47.2134035,39.6561296
8,проспект Королёва,344092,47.2940045,39.7009541
8 к1,проспект Королёва,344092,47.2937903,39.7000525
15 к2,улица Добровольского,344092,47.2931988,39.7005008
15 к3,улица Добровольского,344092,47.2929598,39.7017626
201,проспект Стачки,344058,47.2108594,39.6377277
36,улица Малиновского,344090,47.2132824,39.6145616
264,проспект Шолохова,344009,47.2563416,39.7997323
295,улица Максима Горького,344019,47.2327610,39.7420345
293А,улица Максима Горького,344019,47.2327814,39.7414247
148,Пушкинская улица,344049,47.2268486,39.7254238
3А,Привокзальная площадь,344001,47.2192894,39.6934746
2литО,улица Менжинского,344029,47.2522860,39.7594683
20 к2,улица Добровольского,344113,47.2901811,39.7061990
20 к1,улица Добровольского,344113,47.2901001,39.7053815
154А,улица Мечникова,344003,47.2363837,39.7100934
8/1,улица Туполева,344093,47.2812395,39.8072906
1/4,улица Думенко,344045,47.2939107,39.7381642
3/1,улица Лелюшенко,344045,47.2944700,39.7364252
5/1,улица Думенко,344045,47.2958509,39.7419761
5/1,улица Лелюшенко,344045,47.2956623,39.7379146
41/2,Вятская улица,344095,47.2858428,39.7538247
5/2,улица Лелюшенко,344045,47.2952259,39.7383967
26,Украинская улица,344065,47.2818553,39.7547273
1/5,улица Думенко,344045,47.2948096,39.7388940
67/3,Вятская улица,344065,47.2813562,39.7675927
63В,Вятская улица,344065,47.2817773,39.7637593
67/1,Вятская улица,344065,47.2815138,39.7683661
3/2,улица Лелюшенко,344045,47.2949524,39.7370522
3/3,улица Миронова,344045,47.2961221,39.7412367
1/6,улица Думенко,344045,47.2944895,39.7392384
3/2,улица Миронова,344045,47.2964857,39.7407943
8,улица Штахановского,344095,47.2866461,39.7503065
3 к1,улица Думенко,344045,47.2951677,39.7404911
113,Днепровский переулок,344065,47.2862424,39.7564838
122,Обский переулок,344056,47.2844174,39.7468554
56 к3,улица Ерёменко,344015,47.2305930,39.6236095
66/5,улица Ерёменко,344015,47.2304553,39.6156395
54 к2,улица Ерёменко,344015,47.2309760,39.6244296
66/2,улица Ерёменко,344015,47.2310949,39.6160402
60/6,улица Ерёменко,344015,47.2299096,39.6183849
66/4,улица Ерёменко,344015,47.2300889,39.6164176
72/2,улица Малиновского,344015,47.2302422,39.6148245
66/1,улица Ерёменко,344015,47.2313173,39.6167958
56 к2,улица Ерёменко,344015,47.2310749,39.6231117
56,улица Ерёменко,344015,47.2315899,39.6227352
60 к12,улица Ерёменко,344015,47.2281629,39.6173704
66/3,улица Ерёменко,344015,47.2306094,39.6164136
58 к2,улица Ерёменко,344015,47.2314244,39.6196506
56 к1,улица Ерёменко,344015,47.2307638,39.6226685
60/5,улица Ерёменко,344015,47.2304241,39.6175003
60/2,улица Ерёменко,344015,47.2312147,39.6178899
58 к1,улица Ерёменко,344015,47.2317035,39.6202057
60 к9,улица Ерёменко,344015,47.2291213,39.6185097
52,улица Ерёменко,344015,47.2314139,39.6247919
60/4,улица Ерёменко,344015,47.2306569,39.6182706
66/7,улица Ерёменко,344015,47.2295663,39.6159883
54,улица Ерёменко,344015,47.2316816,39.6240613
58 к3,улица Ерёменко,344015,47.2309204,39.6199235
72/1,улица Малиновского,344015,47.2309411,39.6152568
60/3,улица Ерёменко,344015,47.2307576,39.6191615
58 к4,улица Ерёменко,344015,47.2310740,39.6206990
27 к6,улица Зорге,344015,47.2269424,39.6254787
58/4,улица Зорге,344103,47.2243493,39.6317772
27 к5,улица Зорге,344015,47.2263149,39.6252182
25/3,улица Зорге,344015,47.2279647,39.6241493
27 к7,улица Зорге,344015,47.2275591,39.6261907
17 к1,улица 339-й Стрелковой Дивизии,344015,47.2260722,39.6235936
58/3,улица Зорге,344103,47.2239107,39.6320039
17,улица 339-й Стрелковой Дивизии,344015,47.2255943,39.6234204
23 к2,улица 339-й Стрелковой Дивизии,344015,47.2264744,39.6212311
170А,Благодатная улица,344000,47.2220882,39.6161377
25 к4,улица Зорге,344015,47.2274384,39.6251434
17 к4,улица 339-й Стрелковой Дивизии,344015,47.2266198,39.6237351
23 к1,улица Жмайлова,344090,47.2142072,39.6176471
314 к2,проспект 40-летия Победы,344111,47.2388618,39.8339123
314 к1,проспект 40-летия Победы,344111,47.2393452,39.8335378
285,улица Максима Горького,344022,47.2318839,39.7376250
117,проспект Ленина,344038,47.2490098,39.7237853
109/4,проспект Ленина,344038,47.2475288,39.7185048
27А,улица Гайдара,344013,47.2313693,39.6774337
92Ак8/12,улица Варфоломеева,344011,47.2266023,39.6877613
22,Некрасовская улица,344001,47.2229942,39.6667703
128,Минераловодская улица,344001,47.2224821,39.6714410
11,улица Штахановского,344095,47.2882946,39.7396844
27,Вятская улица,344095,47.2873855,39.7389149
17/2,улица Пескова,344055,47.2176732,39.5860606
17/1,улица Пескова,344055,47.2177773,39.5849770
18А,Совхозная улица,344055,47.2262180,39.5647058
70,улица Содружества,344103,47.2227163,39.6342546
35/4,улица Содружества,344103,47.2220230,39.6337130
63,проспект 40-летия Победы,344072,47.2375572,39.8141673
124/1,Таганрогская улица,344016,47.2557940,39.6459761
159,Таганрогская улица,344016,47.2605501,39.6497578
118/1,Таганрогская улица,344016,47.2572518,39.6477364
122/1,Таганрогская улица,344016,47.2564511,39.6450309
116/3,Таганрогская улица,344016,47.2571903,39.6491702
116/5,Таганрогская улица,344016,47.2561601,39.6504739
139/2,Таганрогская улица,344069,47.2638823,39.6612313
114Г,Таганрогская улица,344016,47.2579193,39.6508001
120,Таганрогская улица,344016,47.2575283,39.6461520
124,Таганрогская улица,344016,47.2560586,39.6442863
120/1,Таганрогская улица,344016,47.2569300,39.6460888
124/6,Таганрогская улица,344016,47.2550859,39.6464816
116/6,Таганрогская улица,344016,47.2566630,39.6503874
116/1,Таганрогская улица,344016,47.2578180,39.6484124
8/2А,Дебальцевская улица,344016,47.2626273,39.6495425
120/1,Таганрогская улица,344016,47.2564728,39.6457596
139,Таганрогская улица,344069,47.2632941,39.6613976
120/2,Таганрогская улица,344016,47.2564868,39.6464786
139/1,Таганрогская улица,344069,47.2634748,39.6606918
122,Таганрогская улица,344016,47.2570130,39.6448351
124/5,Таганрогская улица,344016,47.2546016,39.6463754
116/4,Таганрогская улица,344016,47.2571522,39.6502739
75,проспект 40-летия Победы,344111,47.2395626,39.8245775
15,улица Добровольского,344092,47.2935206,39.7023219
17,улица Добровольского,344092,47.2942486,39.7020057
6 к7,проспект Королёва,344092,47.2937882,39.6987096
8 к2,проспект Королёва,344092,47.2932829,39.6994445
15 к1,улица Добровольского,344092,47.2935566,39.7014142
6 к1,проспект Королёва,344092,47.2928912,39.6986067
6,проспект Королёва,344092,47.2924557,39.6979958
4 к1,проспект Королёва,344092,47.2919652,39.6974731
4,проспект Королёва,344092,47.2914478,39.6970389
6 к2,проспект Королёва,344092,47.2920979,39.6993299
5/5,улица Добровольского,344092,47.2852539,39.7041170
11/3,бульвар Комарова,344092,47.2868367,39.7115339
7/3,бульвар Комарова,344092,47.2866836,39.7079569
8,улица Добровольского,344092,47.2848462,39.7072915
3/1,улица Добровольского,344092,47.2829591,39.7061089
5,улица Волкова,344092,47.2831424,39.7106522
3/2,бульвар Комарова,344092,47.2858338,39.7028755
13/1,бульвар Комарова,344092,47.2876602,39.7130450
3/2,улица Добровольского,344092,47.2831038,39.7053279
9/3,улица Волкова,344092,47.2843411,39.7127863
6,улица Добровольского,344092,47.2841085,39.7077283
3/1,улица Волкова,344092,47.2837248,39.7092816
3/4,улица Волкова,344092,47.2843904,39.7085356
14,улица Добровольского,344092,47.2860195,39.7062299
11,бульвар Комарова,344092,47.2878059,39.7114816
16,улица Добровольского,344092,47.2865286,39.7054770
19/1,проспект Космонавтов,344092,47.2864878,39.7132764
10,улица Добровольского,344092,47.2852323,39.7069446
7/1,улица Волкова,344092,47.2836463,39.7120219
3/2,улица Борко,344092,47.2806771,39.7046730
5/5,улица Волкова,344092,47.2843798,39.7101737
3/3,улица Добровольского,344092,47.2833258,39.7046976
10/1,улица Добровольского,344092,47.2858004,39.7077015
3/3,улица Волкова,344092,47.2843183,39.7095188
5/4,улица Волкова,344092,47.2847188,39.7105812
3/4,улица Добровольского,344092,47.2839153,39.7053840
5/2,улица Волкова,344092,47.2835630,39.7113359
7,бульвар Комарова,344092,47.2870736,39.7066223
5/6,улица Добровольского,344092,47.2847477,39.7034673
11/1,бульвар Комарова,344092,47.2874129,39.7108987
15/1,улица Пацаева,344092,47.2853147,39.7025811
5/3,улица Волкова,344092,47.2842673,39.7110941
7,улица Волкова,344092,47.2833553,39.7124779
12,улица Добровольского,344092,47.2856377,39.7066153
8 к1,проспект Космонавтов,344092,47.2850431,39.7180375
9/3,бульвар Комарова,344092,47.2866355,39.7093866
5/1,улица Добровольского,344092,47.2843632,39.7049272
17/2,проспект Космонавтов,344092,47.2854332,39.7136209
7/2,бульвар Комарова,344092,47.2866063,39.7068517
8 к2,улица Добровольского,344092,47.2852742,39.7085551
9/1,бульвар Комарова,344092,47.2871991,39.7087202
7/5,улица Волкова,344092,47.2848486,39.7131908
3/3,бульвар Комарова,344092,47.2851056,39.7031659
9/2,бульвар Комарова,344092,47.2871440,39.7100478
13/3,бульвар Комарова,344092,47.2870683,39.7136847
7/4,улица Волкова,344092,47.2848987,39.7121820
8/5,проспект Космонавтов,344092,47.2857728,39.7197728
11/2,бульвар Комарова,344092,47.2873549,39.7122033
7/3,улица Волкова,344092,47.2843704,39.7119414
8/3,улица Добровольского,344092,47.2847648,39.7084938
11,улица Пацаева,344092,47.2840348,39.7032501
7/1,бульвар Комарова,344092,47.2865865,39.7062012
5/4,улица Добровольского,344092,47.2845174,39.7041406
7/2,улица Волкова,344092,47.2836858,39.7129027
13,бульвар Комарова,344092,47.2880317,39.7136063
7/1,улица Добровольского,344092,47.2857345,39.7037865
26/2,улица Капустина,344092,47.2803505,39.7134130
28/1,улица Капустина,344092,47.2799060,39.7139938
7/1,улица Пацаева,344092,47.2825447,39.7042185
8/2,улица Борко,344092,47.2803537,39.7083707
26/1,улица Капустина,344092,47.2797012,39.7130136
10/1,проспект Королёва,344113,47.2920929,39.7065693
13 к1,улица Добровольского,344111,47.2921934,39.7017951
27 к5,проспект Космонавтов,344092,47.2925392,39.7095362
22/30,проспект Королёва,344092,47.2945800,39.7148928
24,проспект Королёва,344092,47.2948264,39.7163460
13,улица Добровольского,344111,47.2922605,39.7025092
24 к1,проспект Королёва,344092,47.2944152,39.7158084
40/1,бульвар Комарова,344113,47.2914102,39.7176902
22/2,проспект Космонавтов,344092,47.2925455,39.7167182
18,проспект Космонавтов,344092,47.2915088,39.7155916
26/1,проспект Королёва,344092,47.2943034,39.7170036
42,бульвар Комарова,344092,47.2909860,39.7189903
16,проспект Космонавтов,344092,47.2908606,39.7152184
38А,бульвар Комарова,344092,47.2912837,39.7163197
40 к2,бульвар Комарова,344092,47.2916719,39.7172359
26,проспект Космонавтов,344092,47.2935460,39.7151302
22/1,проспект Космонавтов,344092,47.2929309,39.7161308
10А,проспект Королёва,344092,47.2942661,39.7063215
36/4,улица Добровольского,344113,47.2976430,39.7057968
26,проспект Королёва,344092,47.2948098,39.7169963
18/2,проспект Космонавтов,344092,47.2920098,39.7164341
22,проспект Космонавтов,344092,47.2925118,39.7153148
13 к2,улица Добровольского,344111,47.2920067,39.7010710
40,бульвар Комарова,344092,47.2908868,39.7183857
4/1Б,Неклиновская улица,344064,47.2817956,39.6957127
33,проспект Михаила Нагибина,344068,47.2586194,39.7160462
65/2,Симферопольская улица,344068,47.2616321,39.7160526
24А,улица Ларина,344068,47.2551084,39.7109555
41/19,улица Ларина,344068,47.2549350,39.7070050
35Г,проспект Михаила Нагибина,344068,47.2593608,39.7164694
16,Беломорский переулок,344032,47.2699716,39.7536698
16Б,Беломорский переулок,344032,47.2693623,39.7526615
30,улица Добровольского,344092,47.2933230,39.7043414
28В,бульвар Комарова,344113,47.2899202,39.7085940
28,улица Добровольского,344092,47.2927784,39.7044037
24,улица Добровольского,344092,47.2916959,39.7047125
26,улица Добровольского,344092,47.2922502,39.7045709
28/6,бульвар Комарова,344113,47.2904503,39.7094831
28Б,бульвар Комарова,344113,47.2899633,39.7081721
1,улица Герасименко,344068,47.2527782,39.7062787
5А,улица Погодина,344038,47.2522094,39.7098010
5Б,улица Погодина,344038,47.2518103,39.7087880
44/13,проспект Ленина,344068,47.2505972,39.7029111
1Б с2,Тибетская улица,344068,47.2641913,39.7302459
10к7,Дачная улица,344064,47.2606474,39.6721881
10к2,Дачная улица,344064,47.2604491,39.6710008
2/1,Дачная улица,344064,47.2610210,39.6838506
2/2,Дачная улица,344064,47.2604821,39.6837273
3/3,улица 2-й Пятилетки,344064,47.2619284,39.6880975
3/4,улица 2-й Пятилетки,344064,47.2625109,39.6886736
201/1,проспект Шолохова,344009,47.2610808,39.8044211
12/29,Плужная улица,344029,47.2557704,39.7679124
2,Урожайная улица,344112,47.2549682,39.7871150
26,улица Грисенко,344020,47.2650266,39.7866097
38А,Российская улица,344020,47.2613762,39.7857300
20,Российская улица,344020,47.2628270,39.7808981
2,Российская улица,344020,47.2638211,39.7769536
12,Российская улица,344020,47.2632240,39.7792977
79Б,проспект 20-летия Октября,344020,47.2674035,39.7885483
26,Российская улица,344020,47.2624591,39.7823343
27,улица Лихачёва,344020,47.2643848,39.7872346
16,Российская улица,344020,47.2629539,39.7803835
2А,улица Курчатова,344020,47.2636526,39.7763647
48,Российская улица,344020,47.2598731,39.7904520
21,улица Лихачёва,344020,47.2638625,39.7867531
22Г,Российская улица,344020,47.2622609,39.7814501
28А,Российская улица,344020,47.2619680,39.7829500
32,улица Грисенко,344020,47.2658510,39.7873839
24,Российская улица,344020,47.2625742,39.7818770
24/1,улица Грисенко,344020,47.2645303,39.7865680
35,улица Лихачёва,344020,47.2656969,39.7884735
34,Российская улица,344020,47.2619466,39.7843942
38,улица Грисенко,344020,47.2666347,39.7881161
32А,Российская улица,344020,47.2617144,39.7838117
1,Монгольская улица,344020,47.2631320,39.7781596
2,улица Курчатова,344020,47.2634180,39.7764999
28А,улица Грисенко,344020,47.2648887,39.7869232
4,Российская улица,344020,47.2636709,39.7775099
42,Российская улица,344020,47.2613575,39.7866600
38,Российская улица,344020,47.2616807,39.7854255
24,улица Грисенко,344020,47.2647757,39.7863780
39,улица Карбышева,344020,47.2664791,39.7887996
30/1,улица Грисенко,344020,47.2654938,39.7874370
11/100,Брестская улица,344020,47.2700623,39.7918660
14,Российская улица,344020,47.2631101,39.7797961
44,Российская улица,344020,47.2611964,39.7872107
40А,Российская улица,344020,47.2608806,39.7865833
21,улица Грисенко,344020,47.2659501,39.7868282
35,улица Карбышева,344020,47.2661114,39.7887956
20,улица Грисенко,344020,47.2642498,39.7858842
28,Российская улица,344020,47.2623456,39.7827634
29,улица Лихачёва,344020,47.2646338,39.7874903
31,улица Лихачёва,344020,47.2651811,39.7879911
34А,Российская улица,344020,47.2614296,39.7846138
36,Российская улица,344020,47.2618030,39.7849155
46А,Российская улица,344020,47.2605254,39.7877019
0,улица Лихачёва,344020,47.2650401,39.7874748
19,улица Лихачёва,344020,47.2635616,39.7865496
34,улица Грисенко,344020,47.2661252,39.7876386
8,Российская улица,344020,47.2634665,39.7783393
21/1,улица Грисенко,344020,47.2658911,39.7860668
40,улица Грисенко,344020,47.2669092,39.7883736
70,проспект 20-летия Октября,344020,47.2668116,39.7887537
32А,улица Грисенко,344020,47.2658056,39.7879566
30,Российская улица,344020,47.2622420,39.7831880
25,улица Лихачёва,344020,47.2641077,39.7869750
28,улица Грисенко,344020,47.2652848,39.7868862
19,улица Грисенко,344020,47.2645944,39.7851429
6,Российская улица,344020,47.2635712,39.7779401
40,Российская улица,344020,47.2614672,39.7862193
22,улица Грисенко,344020,47.2644939,39.7861229
58/62,Конституционная улица,344020,47.2663754,39.7858479
46,Российская улица,344020,47.2604061,39.7890794
4А,Российская улица,344020,47.2634073,39.7771130
77/1,проспект 20-летия Октября,344020,47.2679759,39.7869891
37,улица Карбышева,344020,47.2662991,39.7884812
10,Российская улица,344020,47.2633412,39.7788393
30,улица Грисенко,344020,47.2656220,39.7871641
53,улица 12-го Декабря,344020,47.2637831,39.7860234
18,Российская улица,344020,47.2626799,39.7805400
33,улица Лихачёва,344020,47.2654460,39.7882417
2/81,Брестская улица,344020,47.2669849,39.7899254
32,Российская улица,344020,47.2620537,39.7839359
6А,Российская улица,344020,47.2632364,39.7777066
36,улица Грисенко,344020,47.2663578,39.7878710
14А,Российская улица,344020,47.2628656,39.7793214
63,Конституционная улица,344020,47.2666766,39.7868148
19,Волжская улица,344020,47.2745551,39.7789915
22,Российская улица,344020,47.2626986,39.7813948
18,улица Грисенко,344020,47.2639922,39.7856551
28А,Российская улица,344020,47.2620545,39.7823048
74/5,Казахская улица,344032,47.2750283,39.7408573
7/2,Обский переулок,344056,47.2764115,39.7398075
75/6,улица 40-летия Победы,344027,47.2434265,39.8240565
126,Таганрогская улица,344016,47.2566199,39.6432917
1,Калининградская улица,344041,47.2352879,39.6344574
137/1,Таганрогская улица,344069,47.2636683,39.6621093
137,Таганрогская улица,344069,47.2633128,39.6626445
143/4,Таганрогская улица,344069,47.2638573,39.6584312
139/6,Таганрогская улица,344069,47.2668676,39.6596519
1/52,Госпитальный переулок,344064,47.2613255,39.6735308
25/3,улица 339-й Стрелковой Дивизии,344015,47.2275144,39.6201327
87/1,улица Ерёменко,344015,47.2341481,39.6154607
21/3,улица 339-й Стрелковой Дивизии,344015,47.2280051,39.6228244
83/3,улица Ерёменко,344015,47.2337471,39.6187467
85/6,улица Ерёменко,344015,47.2337531,39.6155832
83,улица Ерёменко,344015,47.2331860,39.6200329
47/40,улица Содружества,344103,47.2317386,39.6324492
85/1,улица Ерёменко,344015,47.2342482,39.6177321
43/1,улица Содружества,344103,47.2304185,39.6329728
90,улица Содружества,344103,47.2294129,39.6342887
87/2,улица Ерёменко,344015,47.2330526,39.6154880
85/5,улица Ерёменко,344015,47.2331648,39.6170518
85/3,улица Ерёменко,344015,47.2342482,39.6163543
84/1,улица Содружества,344103,47.2266422,39.6338265
43/2,улица Содружества,344103,47.2304413,39.6321631
64,улица Ерёменко,344015,47.2316396,39.6176411
39/2,улица Зорге,344015,47.2306497,39.6261459
87,улица Ерёменко,344015,47.2333255,39.6151556
76/1,улица Малиновского,344015,47.2344511,39.6151119
85/2,улица Ерёменко,344015,47.2342482,39.6170511
76/2,улица Малиновского,344015,47.2344561,39.6158207
137А,Петрозаводская улица,344103,47.2268831,39.6352783
24/50,проспект Михаила Нагибина,344038,47.2508546,39.7165360
28,проспект Михаила Нагибина,344038,47.2540136,39.7151179
113/6,проспект Ленина,344038,47.2481032,39.7209759
60А,проспект Ленина,344038,47.2500817,39.7219496
107/3,проспект Ленина,344038,47.2480032,39.7188800
90/2,проспект Ленина,344023,47.2497365,39.7307753
90/3,проспект Ленина,344023,47.2497212,39.7320673
64/2,проспект Ленина,344038,47.2503394,39.7234821
3/2,улица Думенко,344045,47.2951924,39.7416178
4 к2,проспект Королёва,344092,47.2917801,39.6989812
4 к3,проспект Королёва,344092,47.2914804,39.6986395
4/1,бульвар Комарова,344096,47.2915938,39.6894808
8/2,бульвар Комарова,344096,47.2900745,39.6918859
8/1,Стартовая улица,344092,47.2923005,39.6905208
15/4,улица Добровольского,344092,47.2926333,39.7002037
1/8,проспект Королёва,344096,47.2915662,39.6941209
3/2,проспект Королёва,344096,47.2927635,39.6943694
1/1,проспект Королёва,344096,47.2905495,39.6933508
1/2,проспект Королёва,344096,47.2911701,39.6934876
16/1,Стартовая улица,344096,47.2927833,39.6933226
3/1,проспект Королёва,344096,47.2922505,39.6943622
1/5,проспект Королёва,344096,47.2895890,39.6938566
18/1,Стартовая улица,344096,47.2933311,39.6937601
14/2,Стартовая улица,344096,47.2924716,39.6921275
1/6,проспект Королёва,344096,47.2916441,39.6923923
2/2,Стартовая улица,344096,47.2917259,39.6879069
1/9,проспект Королёва,344096,47.2922090,39.6928225
3/3,проспект Королёва,344096,47.2933744,39.6947969
8/1,бульвар Комарова,344096,47.2897821,39.6911821
12/1,Стартовая улица,344096,47.2930586,39.6913937
1/7,проспект Королёва,344096,47.2918610,39.6934721
1/3,проспект Королёва,344064,47.2909634,39.6920968
4/2,бульвар Комарова,344096,47.2915298,39.6888137
2А,улица Менжинского,344029,47.2580809,39.7648858
56/2,улица Зорге,344103,47.2226684,39.6318924
56/1,улица Зорге,344103,47.2221176,39.6324954
48/1,улица Зорге,344090,47.2204037,39.6336830
5к3,Орская,344065,47.2735921,39.7738215
37/2,улица Содружества,344103,47.2232255,39.6318633
58/1,улица Зорге,344103,47.2237764,39.6309466
37/1,улица Содружества,344103,47.2232513,39.6326753
35/2,улица Содружества,344103,47.2228961,39.6329238
178/1,2-я улица Грамши,344094,47.2728536,39.8084739
86,улица Сарьяна,344025,47.2310992,39.7816395
84,улица Сарьяна,344025,47.2309039,39.7812649
4,улица Литвинова,344116,47.2103300,39.6700170
17,проспект Космонавтов,344092,47.2858598,39.7146805
7,Батуринская улица,344116,47.2099038,39.6723428
245,проспект Стачки,344091,47.2098187,39.6094198
249,проспект Стачки,344091,47.2110928,39.6068818
2,улица Туполева,344093,47.2804499,39.8092499
2/2,улица Туполева,344093,47.2821087,39.8098853
12,улица Туполева,344093,47.2817533,39.8071047
15,улица Туполева,344093,47.2816143,39.8014412
2/1,улица Туполева,344093,47.2811281,39.8095536
193/3,проспект Стачки,344058,47.2104048,39.6425876
84/2,2-я Краснодарская улица,344091,47.2051605,39.6264368
150,Большая Садовая улица,344022,47.2257397,39.7356533
66А,3-я Круговая улица,344033,47.2030630,39.6531978
34А,улица Ивановского,344012,47.2396821,39.6953431
34,улица Ивановского,344012,47.2394478,39.6962659
63/146А,улица Нефёдова,344018,47.2336022,39.6945259
115/58,Братский переулок,344018,47.2330177,39.6929897
74,улица Козлова,344018,47.2357149,39.7021990
32,улица Ивановского,344012,47.2400109,39.6955509
101,Доломановский переулок,344000,47.2324655,39.6918233
126,улица Мечникова,344012,47.2381754,39.6947764
47,Профсоюзная улица,344101,47.2156203,39.6809439
42,1-я Баррикадная улица,344101,47.2137034,39.6834957
48,1-я Баррикадная улица,344101,47.2136417,39.6849943
45,Профсоюзная улица,344101,47.2151541,39.6827318
29,Профсоюзная улица,344101,47.2135042,39.6883127
89,18-я линия,344037,47.2392876,39.7573128
86/91,проспект Шолохова,344037,47.2402548,39.7569231
66,20-я линия,344037,47.2394174,39.7580677
44,Темерницкая улица,344002,47.2182711,39.7106558
1/2,улица Думенко,344045,47.2943191,39.7397385
71/87,улица Мечникова,344018,47.2384170,39.7021329
139/94,улица Текучёва,344018,47.2349942,39.7044602
8Б,Извилистая улица,344091,47.2018434,39.6300047
8,Извилистая улица,344091,47.2016344,39.6306821
7,Извилистая улица,344091,47.2006104,39.6302278
11/1,Извилистая улица,344091,47.1993805,39.6294341
16А,Каширская улица,344091,47.1991850,39.6211502
6А,Каширская улица,344091,47.1992821,39.6235908
8,Каширская улица,344091,47.2000709,39.6250365
2 к1,проспект Королёва,344092,47.2908152,39.6965883
14 к1,бульвар Комарова,344092,47.2897362,39.6968490
2 к2,проспект Королёва,344092,47.2903135,39.6970297
16 к1,бульвар Комарова,344092,47.2894440,39.6977917
13 к3,улица Добровольского,344111,47.2916950,39.7004532
6 к3,проспект Королёва,344092,47.2918751,39.6961043
2 к3,проспект Королёва,344092,47.2910356,39.6958906
16,бульвар Комарова,344092,47.2889672,39.6974001
2,проспект Королёва,344092,47.2900796,39.6959074
16 к3,бульвар Комарова,344092,47.2902261,39.6978593
7,Обский переулок,344056,47.2757163,39.7408288
2/1,улица Добровольского,344092,47.2831386,39.7084161
9/4,бульвар Комарова,344092,47.2876438,39.7103929
7/1,улица Борко,344092,47.2821537,39.7070171
1/3,улица Добровольского,344092,47.2824500,39.7060579
35/3,Коммунистический проспект,344091,47.2058941,39.6249809
115,Днепровский переулок,344065,47.2874055,39.7564298
11,Ректорская улица,344065,47.2855756,39.7633097
43/1,Вятская улица,344095,47.2850909,39.7552680
116В,Днепровский переулок,344065,47.2866110,39.7620302
37/1,Вятская улица,344095,47.2859038,39.7500465
39/1,Вятская улица,344095,47.2856876,39.7517392
116И,Днепровский переулок,344065,47.2864252,39.7639232
3/1,Старочеркасский переулок,344039,47.2485166,39.6758111
12/3,улица Профинтерна,344079,47.2509089,39.6894507
42,проспект Ленина,344079,47.2504725,39.6872343
3,Старочеркасский переулок,344039,47.2484434,39.6753917
42А,проспект Ленина,344079,47.2512341,39.6860715
49/68,улица Тельмана,344000,47.2292822,39.7086883
85/87,переулок Семашко,344000,47.2294165,39.7092437
91,Ворошиловский проспект,344003,47.2305981,39.7147528
287,улица Максима Горького,344022,47.2321478,39.7388988
7/1,Магнитогорская улица,344033,47.1967137,39.6302583
5Б,Каширская улица,344055,47.1981894,39.6164368
9А,Каширская улица,344091,47.1986549,39.6200626
9,Каширская улица,344091,47.1986328,39.6224244
5Г,Каширская улица,344049,47.1968315,39.6164161
124/2,Таганрогская улица,344016,47.2548715,39.6452395
9,улица Мыльникова,344016,47.2600017,39.6453590
4,Дебальцевская улица,344016,47.2613025,39.6498576
11/1,Береговая улица,344082,47.2131425,39.7048454
30 с3,улица Веры Пановой,344112,47.2570029,39.7731472
30 с1,улица Веры Пановой,344112,47.2574413,39.7730916
25А,улица Веры Пановой,344029,47.2563416,39.7722543
30 с2,улица Веры Пановой,344112,47.2576795,39.7740205
33Г,улица Коммунаров,344030,47.2446298,39.7718413
57Б,Горсоветская улица,344030,47.2402402,39.7781118
38,проспект Михаила Нагибина,344068,47.2643699,39.7216878
82,Фурмановская улица,344068,47.2695979,39.7168090
144Б,Портовая улица,344034,47.2058754,39.6815593
150А,Портовая улица,344034,47.2056685,39.6808649
34,бульвар Комарова,344092,47.2907119,39.7161789
24 к2,проспект Королёва,344092,47.2940724,39.7161734
38,бульвар Комарова,344092,47.2907873,39.7174057
36,бульвар Комарова,344092,47.2907480,39.7167932
18/3,Каширская улица,344091,47.2009216,39.6201924
21,улица Добровольского,344113,47.2979598,39.6997374
12Б,Орбитальная улица,344113,47.2982721,39.6965011
21А,улица Добровольского,344113,47.2982424,39.7012279
5/3,проспект Королёва,344092,47.2962294,39.6959734
5/3,проспект Королёва,344092,47.2959197,39.6956890
25/3,улица 339-й Стрелковой Дивизии,344015,47.2274508,39.6196026
60 к10,улица Ерёменко,344015,47.2293905,39.6193702
58 к11,улица Ерёменко,344015,47.2299415,39.6213924
56 к6,улица Ерёменко,344015,47.2304417,39.6242587
39/2,улица Зорге,344015,47.2305247,39.6263549
9/2,улица Волкова,344092,47.2844807,39.7140537
3/4,проспект Королёва,344096,47.2933449,39.6956641
11 к2,улица Добровольского,344092,47.2904023,39.7019564
12А,проспект Королёва,344092,47.2943614,39.7082762
16Б,проспект Королёва,344092,47.2940866,39.7095765
20 к3,бульвар Комарова,344092,47.2899012,39.7008598
28Г,бульвар Комарова,344113,47.2900066,39.7090360
47,улица Мильчакова,344049,47.2233368,39.6254179
12А,улица 339-й Стрелковой Дивизии,344015,47.2246036,39.6258799
86,Каменобродская улица,344114,47.3007368,39.7330828
78,Каменобродская улица,344114,47.3003480,39.7324945
76,Каменобродская улица,344114,47.3002342,39.7323387
82,Каменобродская улица,344114,47.3005263,39.7327506
83,улица Боряна,344114,47.3002379,39.7329579
85,улица Боряна,344114,47.3003199,39.7330573
84,Каменобродская улица,344114,47.3005979,39.7329299
87,улица Боряна,344114,47.3002484,39.7332436
91,улица Боряна,344114,47.3005106,39.7333115
81,улица Боряна,344114,47.3000556,39.7329663
93,улица Боряна,344114,47.3005933,39.7334930
80,Каменобродская улица,344114,47.3004777,39.7326526
43,Танаисский переулок,344056,47.2882387,39.7305276
5,Синегорский переулок,344056,47.2869992,39.7316519
3,Покровский переулок,344092,47.2850482,39.7269381
200,Белорусская улица,344092,47.2849649,39.7246911
23,Танаисский переулок,344092,47.2864012,39.7296404
16,Тузлов переулок,344092,47.2858540,39.7287208
199А,Белорусская улица,344092,47.2840433,39.7291337
25,Каспийская улица,344056,47.2851125,39.7326275
7,Амурская улица,344056,47.2860813,39.7347908
163,Украинская улица,344056,47.2859500,39.7335524
3,2-й Сахалинский переулок,344056,47.2840183,39.7281792
96/38,Волочаевский переулок,344056,47.2866844,39.7387639
3,Танаисский переулок,344056,47.2846493,39.7286458
103/30,Сальский переулок,344056,47.2822434,39.7521209
155/36,Белорусская улица,344056,47.2823843,39.7354964
7,Касторная улица,344056,47.2809028,39.7322530
1Д,Славинская улица,344056,47.2794698,39.7308033
23,5-й Сахалинский переулок,344056,47.2821852,39.7251935
182,улица Евдокимова,344068,47.2778303,39.7244062
36/46,4-й Сахалинский переулок,344056,47.2813664,39.7254353
186,улица Евдокимова,344068,47.2780924,39.7239546
83,Охотский переулок,344056,47.2806143,39.7283258
66/103,Сахалинский переулок,344056,47.2823018,39.7285440
74,Сахалинский переулок,344056,47.2815358,39.7284272
76,Сахалинский переулок,344056,47.2812697,39.7282644
158,улица Евдокимова,344068,47.2772158,39.7236156
80,Сахалинский переулок,344056,47.2810840,39.7279339
188,улица Евдокимова,344068,47.2782264,39.7236958
200,улица Евдокимова,344068,47.2783805,39.7240617
68,Сахалинский переулок,344056,47.2821187,39.7286870
184,улица Евдокимова,344068,47.2779591,39.7241697
70,Сахалинский переулок,344056,47.2819703,39.7285883
166,улица Евдокимова,344068,47.2774071,39.7236917
67,Охотский переулок,344056,47.2820327,39.7290872
82,Сахалинский переулок,344056,47.2809655,39.7280162
78,Сахалинский переулок,344056,47.2811348,39.7280934
84,Сахалинский переулок,344056,47.2807375,39.7277785
65,Охотский переулок,344056,47.2821555,39.7289435
77,Охотский переулок,344056,47.2811956,39.7285978
81,Охотский переулок,344056,47.2808191,39.7284437
194,улица Евдокимова,344068,47.2786111,39.7228600
79,Охотский переулок,344056,47.2810559,39.7284685
75,Охотский переулок,344056,47.2813349,39.7287376
69,Охотский переулок,344056,47.2818515,39.7289925
16,Рубиновый переулок,344068,47.2645014,39.7240819
14,Рубиновый переулок,344068,47.2644694,39.7238315
27,Дунайский переулок,344068,47.2642571,39.7238860
4А,Рубиновый переулок,344068,47.2648062,39.7227081
10,Рубиновый переулок,344068,47.2646637,39.7232297
25,Дунайский переулок,344068,47.2640990,39.7238470
6,Рубиновый переулок,344068,47.2646007,39.7228912
4А,Артековский переулок,344068,47.2622548,39.7289828
13А,Камчатский переулок,344068,47.2641023,39.7236326
12А,Рубиновый переулок,344068,47.2645739,39.7237231
27,Пришкольная улица,344068,47.2645490,39.7223673
6А,Рубиновый переулок,344068,47.2647536,39.7229015
21А,Омская улица,344068,47.2607335,39.7240564
8,Рубиновый переулок,344068,47.2647215,39.7231400
7,Камчатский переулок,344068,47.2643136,39.7230352
11,Камчатский переулок,344068,47.2641735,39.7235008
29,Пришкольная улица,344068,47.2648808,39.7225737
33,1-я Краснодонская улица,344068,47.2626857,39.7263928
44,Бугский переулок,344068,47.2645031,39.7314473
12,Рубиновый переулок,344068,47.2646038,39.7235827
15,Памирский переулок,344068,47.2629900,39.7311209
25,Пришкольная улица,344068,47.2644607,39.7222941
5,Камчатский переулок,344068,47.2643208,39.7228695
10,Артековский переулок,344068,47.2629824,39.7294050
9,Камчатский переулок,344068,47.2642395,39.7231382
43,улица Содружества,344103,47.2294481,39.6321219
31Б,Белостокская улица,344103,47.2308035,39.6358646
31А,Белостокская улица,344103,47.2317175,39.6354197
39,улица Содружества,344103,47.2274682,39.6325121
39/3,улица Содружества,344103,47.2264665,39.6330184
50А,Днепропетровская улица,344093,47.2879771,39.8033409
4,Тоннельная улица,344064,47.2582217,39.6885142
24Б/3,улица Профинтерна,344079,47.2548944,39.6896787
187,улица Калинина,344090,47.2171730,39.6348898
108,Рижская улица,344090,47.2169107,39.6352184
102А,Рижская улица,344090,47.2169221,39.6358458
116,Рижская улица,344090,47.2167991,39.6345748
102/5,Рижская улица,344090,47.2170188,39.6362296
183,улица Калинина,344090,47.2172942,39.6352592
185,улица Калинина,344090,47.2171356,39.6351427
191,улица Калинина,344090,47.2171143,39.6345153
9А,улица Содружества,344090,47.2172954,39.6360488
181,улица Калинина,344090,47.2173187,39.6355190
193,улица Калинина,344090,47.2170752,39.6342977
106,Рижская улица,344090,47.2168511,39.6354504
110,Рижская улица,344090,47.2168986,39.6350228
104,Рижская улица,344090,47.2169859,39.6356317
7,улица Содружества,344090,47.2171578,39.6361635
189,улица Калинина,344090,47.2170690,39.6346710
40А,улица Зорге,344103,47.2177958,39.6334662
179/9,улица Калинина,344103,47.2173933,39.6359616
109,Благодатная улица,344090,47.2226555,39.6403886
111,Благодатная улица,344090,47.2225086,39.6402663
80,Развиленская улица,344090,47.2217998,39.6386241
107,Благодатная улица,344090,47.2226145,39.6406497
38,Развиленская улица,344041,47.2227307,39.6428325
82,Томская улица,344103,47.2259481,39.6354313
86,Томская улица,344103,47.2258406,39.6350628
81,Снеговой переулок,344103,47.2262135,39.6352405
84,Томская улица,344103,47.2258883,39.6352647
127,Петрозаводская улица,344103,47.2260984,39.6362022
79,Снеговой переулок,344103,47.2262499,39.6354149
80,Томская улица,344103,47.2259681,39.6356171
75,Снеговой переулок,344103,47.2263280,39.6358001
83,Снеговой переулок,344103,47.2263222,39.6350282
78,Томская улица,344103,47.2260313,39.6357761
133,Петрозаводская улица,344103,47.2265321,39.6359349
129,Петрозаводская улица,344103,47.2262498,39.6361092
22А,Защитный переулок,344101,47.2126706,39.6888244
31 с1,Нижегородская улица,344019,47.2227379,39.7490072
221,улица Малюгиной,344010,47.2340953,39.7243206
214/13,улица Малюгиной,344000,47.2334063,39.7230183
37/2,Коммунистический проспект,344091,47.2063983,39.6246865
27/4,Коммунистический проспект,344091,47.2069746,39.6306975
80/14,2-я Краснодарская улица,344091,47.2057870,39.6308441
33/3,Коммунистический проспект,344091,47.2056444,39.6276752
35/2,Коммунистический проспект,344091,47.2064731,39.6256475
41А,Всесоюзная улица,344033,47.1930708,39.6208761
541,Портовая улица,344033,47.1915422,39.6365687
4,Парадная улица,344064,47.2779925,39.6814150
54,Днепроградская улица,344064,47.2795420,39.6880147
68/4,улица Вавилова,344064,47.2800348,39.6862323
7А,Инженерная улица,344064,47.2708988,39.6984056
1,Инженерная улица,344064,47.2765762,39.6950501
71Д,улица Вавилова,344064,47.2797611,39.6836355
4,Радиаторный переулок,344064,47.2722601,39.6881784
71Б/1,улица Вавилова,344064,47.2790914,39.6837359
5,1-й Машиностроительный переулок,346800,47.2537666,39.6055164
110 с2,улица Мечникова,344013,47.2389869,39.6867518
110 с1,улица Мечникова,344013,47.2390712,39.6858952
204,Халтуринский переулок,344018,47.2350361,39.6957998
63к3,улица Козлова,344018,47.2347733,39.6940327
206,Халтуринский переулок,344018,47.2353347,39.6956893
206А,Халтуринский переулок,344018,47.2361375,39.6952248
206Б,Халтуринский переулок,344018,47.2359572,39.6961354
124,переулок Островского,344011,47.2323920,39.6994848
1Ж,Пойменная улица,344002,47.2054307,39.7280980
30,Лесная улица,344041,47.2467770,39.6426264
3,переулок Васнецова,344065,47.3130692,39.7884505
37/1,улица 1-й Конной Армии,344029,47.2604139,39.7709131
25,Орская улица,344065,47.2864658,39.7816219
23Б,Орская улица,344065,47.2855564,39.7788574
33к1,улица Оганова,344069,47.2727304,39.6640846
15,Элеваторный переулок,344016,47.2546684,39.6409304
12к17,Дачная улица,344069,47.2621451,39.6663070
19,Медицинская улица,344069,47.2614634,39.6665153
106,Будённовский проспект,344018,47.2408692,39.7027176
130/3,улица Нансена,344038,47.2434844,39.7105143
81/1,проспект Ленина,344038,47.2490169,39.6992766
4/2,улица Шеболдаева,344038,47.2475924,39.6981696
1,улица Вавилова,344064,47.2614660,39.6842161
28,Лесная улица,344041,47.2468320,39.6428364
32,Лесная улица,344041,47.2467817,39.6423444
22,переулок Дежнёва,344058,47.2022843,39.6458347
1,Круглая площадь,344101,47.2145033,39.6741175
10,улица Верещагина,344101,47.2155162,39.6778132
1,Круглая площадь,344101,47.2145077,39.6741219
1,Ленточная улица,344041,47.2398802,39.6413596
60Г,Театральный проспект,344022,47.2397650,39.7367430
8,переулок Энергетиков,344000,47.2381981,39.7385657
44,Береговая улица,344019,47.2212820,39.7739219
42,1-я Баррикадная улица,344101,47.2136791,39.6835124
13/1,Извилистая улица,344091,47.1992860,39.6282705
9,проспект Шолохова,344019,47.2383848,39.7462042
9А,проспект Шолохова,344019,47.2385988,39.7468205
17/3,улица 339-й Стрелковой Дивизии,344015,47.2269695,39.6233629
17/2,улица 339-й Стрелковой Дивизии,344015,47.2263765,39.6227075
211,проспект Ленина,344023,47.2482071,39.7428673
211А,проспект Ленина,344023,47.2480672,39.7436790
217,проспект Ленина,344023,47.2484373,39.7470764
36,Врубовая улица,344023,47.2514913,39.7349171
90/4,проспект Ленина,344023,47.2497899,39.7313958
168,Портовая улица,344034,47.2043644,39.6767774
170,Портовая улица,344034,47.2042548,39.6761894
3,улица Кочубея,344034,47.2046939,39.6767485
172,Портовая улица,344034,47.2040393,39.6756242
170 кА,Портовая улица,344034,47.2042923,39.6754545
174,Портовая улица,344034,47.2039041,39.6749995
164Б,Портовая улица,344034,47.2051690,39.6792393
164В,Портовая улица,344034,47.2049031,39.6785576
154,Портовая улица,344034,47.2056365,39.6798821
164А,Портовая улица,344034,47.2053402,39.6797584
11,улица 339-й Стрелковой Дивизии,344015,47.2255735,39.6258706
9,улица 339-й Стрелковой Дивизии,344015,47.2258796,39.6267718
25 к5,улица Зорге,344015,47.2265497,39.6245610
58,улица Ерёменко,344015,47.2316396,39.6211148
60/1,улица Ерёменко,344015,47.2312246,39.6188488
47,улица Мильчакова,344049,47.2233388,39.6255522
66/6,улица Ерёменко,344015,47.2300444,39.6155709
72/3,улица Малиновского,344015,47.2306684,39.6148592
36,улица Ивановского,344012,47.2395310,39.6957101
37,Ульяновская улица,344007,47.2165856,39.7170750
6B,улица 1-й Конной Армии,344029,47.2478231,39.7627624
21Е,улица Зорге,344015,47.2221856,39.6291016
21А,улица Зорге,344015,47.2234752,39.6290537
21Г,улица Зорге,344015,47.2228502,39.6290798
29/2,Коммунистический проспект,344091,47.2067652,39.6293988
19/1,Стабильная улица,344090,47.2167028,39.6155381
23,Береговая улица,344002,47.2136527,39.7094477
1В,Будённовский проспект,344002,47.2150956,39.7088744
1А,Будённовский проспект,344002,47.2141536,39.7092593
1Б,Будённовский проспект,344002,47.2146258,39.7090642
12/3,проспект Михаила Нагибина,344038,47.2467043,39.7150035
96/19,Беломорский переулок,344065,47.2766452,39.7564056
82,Портовая улица,344034,47.2077134,39.6864644
104А,Портовая улица,344034,47.2074731,39.6852363
6,Соляной спуск,344002,47.2142449,39.7083373
17/53/56,Соборный переулок,344002,47.2187833,39.7111690
2А,улица Крупской,344004,47.2140458,39.6615779
119,улица Города Волос,344006,47.2330944,39.7303888
7Вк1,улица 50-летия Ростсельмаша,344065,47.2743955,39.7632186
14В,улица Миронова,344045,47.2977392,39.7487521
63,Вятская улица,344065,47.2815929,39.7644010
63/2,Вятская улица,344065,47.2813292,39.7651101
107/1,Днепровский переулок,344095,47.2840508,39.7567568
87с3,улица Нансена,344079,47.2458362,39.6936357
77А,улица Нансена,344079,47.2461667,39.6855781
97Б,улица Нансена,344079,47.2463045,39.6957564
10,Курская улица,344039,47.2425434,39.6681731
35,Ворошиловский проспект,344002,47.2208239,39.7188191
54,Большая Садовая улица,344002,47.2203084,39.7100918
24,улица Туполева,344093,47.2824263,39.8018378
8/2,улица Туполева,344093,47.2814702,39.8073880
7/1,улица Миронова,344045,47.2965939,39.7433279
291,улица Максима Горького,344022,47.2324715,39.7396019
13 к4,улица Добровольского,344111,47.2912498,39.7006291
14,бульвар Комарова,344092,47.2890082,39.6965952
12 к2А,бульвар Комарова,344092,47.2891713,39.6958920
11,улица Добровольского,344092,47.2909754,39.7029504
10,Тургеневская улица,344082,47.2145773,39.7051388
47,улица Зои Космодемьянской,344094,47.2697082,39.8106849
103А/15,улица 26-го Июня,344020,47.2710983,39.7929585
3А,улица Степана Разина,344004,47.2200031,39.6612893
6,Алмазная улица,344064,47.3047109,39.6789650
90,Бодрая улица,344068,47.2746292,39.7067352
15А,Средняя улица,344039,47.2522206,39.6685480
28,Природная улица,344039,47.2509338,39.6668182
10/2,Каширская улица,344091,47.2008759,39.6225516
149 к3,2-я Краснодарская улица,344000,47.2021087,39.6221212
6,улица Малиновского,344091,47.1996756,39.6143706
1В,улица Пескова,344091,47.1993392,39.6098003
116А,Таганрогская улица,344016,47.2584762,39.6487174
118/4,Таганрогская улица,344016,47.2553764,39.6477064
120/2,Таганрогская улица,344016,47.2568624,39.6469950
124/1,Таганрогская улица,344016,47.2549486,39.6445352
126/1,Таганрогская улица,344016,47.2562714,39.6431728
126/2,Таганрогская улица,344016,47.2556865,39.6436814
139А,Таганрогская улица,344069,47.2630496,39.6608195
17/1,Извилистая улица,344091,47.1985185,39.6271221
12,Тургеневская улица,344002,47.2146970,39.7057449
12,Тургеневская улица,344002,47.2147152,39.7057006
22,Тургеневская улица,344002,47.2153474,39.7078000
2А,улица Баумана,344002,47.2150769,39.7086126
3,18-я линия,344019,47.2308622,39.7608525
3А,улица Погодина,344038,47.2515163,39.7097706
125/1,проспект Ленина,344038,47.2481373,39.7296810
121/3,проспект Ленина,344038,47.2479928,39.7262508
100А,Турмалиновская улица,344038,47.2454087,39.7150094
55/19А,Социалистическая улица,344002,47.2190065,39.7075215
4/1,улица Шеболдаева,344038,47.2471553,39.6979673
4/3,улица Шеболдаева,344038,47.2467945,39.6975435
4/4,улица Шеболдаева,344038,47.2476542,39.6975231
6 к1,улица Шеболдаева,344038,47.2485844,39.6975307
6 к2,улица Шеболдаева,344038,47.2481761,39.6978072
83А,проспект Ленина,344038,47.2492343,39.7003828
89/1,проспект Ленина,344038,47.2492461,39.7041734
89/2,проспект Ленина,344038,47.2493012,39.7029855
89/3,проспект Ленина,344038,47.2491624,39.7035785
89/4,проспект Ленина,344038,47.2485251,39.7022650
99,проспект Ленина,344038,47.2491524,39.7105715
130,улица Нансена,344038,47.2436075,39.7099946
16,1-я Майская улица,344019,47.2311631,39.7581122
34,улица Суворова,344006,47.2244411,39.7247458
76/4,улица Немировича-Данченко,344064,47.2603010,39.6939929
104/6,2-я Краснодарская улица,344019,47.2061711,39.6076441
122/1к1,Днепровский переулок,344065,47.2885364,39.7605835
14/3,Стартовая улица,344096,47.2917927,39.6916712
7/2,улица Пацаева,344092,47.2829451,39.7038230
245/1,проспект Ленина,344023,47.2489579,39.7542112
245/2,проспект Ленина,344023,47.2489923,39.7549001
435/1,улица Нансена,344023,47.2476872,39.7533928
245,улица Нансена,344023,47.2480409,39.7549226
135,улица Малюгиной,344011,47.2291298,39.6969585
90,Братский переулок,344011,47.2288868,39.6957823
24,Педагогический переулок,344079,47.2542537,39.6967309
10/4,проспект Королёва,344092,47.2942973,39.7050727
16 к3,проспект Королёва,344092,47.2925158,39.7090764
28/4,бульвар Комарова,344113,47.2900501,39.7099080
30/4,бульвар Комарова,344113,47.2901617,39.7108487
12Б,проспект Королёва,344092,47.2942651,39.7073271
18Б,проспект Королёва,344092,47.2945355,39.7102095
40с4,Саратовская улица,344039,47.2433979,39.6710953
11/1,улица Беляева,344114,47.3000929,39.7216134
86 к1,Орбитальная улица,344018,47.3021934,39.7378065
77Б,проспект 40-летия Победы,344111,47.2390213,39.8238039
103,улица Вересаева,344072,47.2384502,39.8007404
1А,Орбитальная улица,344113,47.3014911,39.6945280
172,проспект 40-летия Победы,344072,47.2357980,39.8077574
5/2А,улица 50-летия Ростсельмаша,344065,47.2732763,39.7621944
63,улица Радищева,344112,47.2558790,39.7749290
63,улица Радищева,344112,47.2557852,39.7748056
63,улица Радищева,334112,47.2560255,39.7748876
61,улица Радищева,344112,47.2557414,39.7750044
27,улица Веры Пановой,344029,47.2563634,39.7716246
165,улица Солидарности,344048,47.2302711,39.8048631
49/23,Патриотическая улица,344090,47.2201680,39.6155102
64,Правовая улица,344090,47.2182161,39.6178169
41,Гражданская улица,344000,47.2207365,39.6166070
57/17,Деловая улица,344090,47.2193143,39.6182098
52/22,2-я Патриотическая улица,344000,47.2199110,39.6158564
37/4,Надёжная улица,344090,47.2173429,39.6215399
24,Стабильная улица,344090,47.2171471,39.6233097
33А,Правовая улица,344090,47.2180900,39.6217810
34,Надёжная улица,344090,47.2178265,39.6217109
8,Стабильная улица,344090,47.2173073,39.6255541
54А/1,улица Малиновского,344000,47.2217550,39.6142909
213,Благодатная улица,344000,47.2213865,39.6163643
25,Научная улица,344090,47.2189273,39.6227047
23,Патриотическая улица,344090,47.2202729,39.6191951
100,Крепостной переулок,344022,47.2285160,39.7362245
15,Русская улица,344101,47.2118603,39.6839990
9,Русская улица,344101,47.2122409,39.6863223
80,Токарная улица,344101,47.2128947,39.6862550
13,Русская улица,344101,47.2120758,39.6850493
11,Русская улица,344101,47.2121959,39.6857472
264/1,проспект Шолохова,344009,47.2564933,39.8002774
264/2,проспект Шолохова,344009,47.2560338,39.7993117
29,Зелёная улица,344009,47.2611362,39.7972108
18/21,Травяная улица,344093,47.2808239,39.8019772
22,Травяная улица,344093,47.2810416,39.8012876
26,Травяная улица,344093,47.2811428,39.8008773
28,Травяная улица,344093,47.2812498,39.8003582
30/36б,Травяная улица,344093,47.2813343,39.7999747
9,Цитрусовая улица,344093,47.2778380,39.8070926
17/16,Лепестковая улица,344093,47.2801793,39.8011341
12А,Лепестковая улица,344093,47.2804459,39.8024676
2,Парадная улица,344064,47.2780055,39.6830732
2,Сулинский переулок,344001,47.2253559,39.6662981
15,Привокзальная улица,344101,47.2156035,39.6938552
103,проспект Шолохова,344029,47.2477404,39.7736903
17 с1,улица Воровского,344029,47.2508736,39.7745604
13,улица Полторацкого,344029,47.2500541,39.7773139
13В с1,улица 1-й Конной Армии,344029,47.2504939,39.7623342
2А с1,Раздорская улица,344068,47.2744069,39.7348772
174,Красноармейская улица,344002,47.2282492,39.7153546
250,Детская улица,344048,47.2314885,39.8178299
55,переулок Гарибальди,344048,47.2327150,39.8163351
249,Детская улица,344048,47.2315466,39.8153080
28,проспект Космонавтов,344092,47.2938946,39.7145259
88,проспект Шолохова,344037,47.2403530,39.7575605
87/3,улица Ерёменко,344015,47.2326783,39.6155725
32,улица Станиславского,344082,47.2157026,39.7042993
148/1,улица Мечникова,344003,47.2360685,39.7078842
11/7,Ульяновская улица,344002,47.2155715,39.7124562
2А,Путевая улица,344048,47.2230817,39.7956564
2А,Путевая улица,344048,47.2227005,39.7943817
223,Таганрогская улица,344016,47.2601344,39.6226221
16,улица Коммунаров,344030,47.2424322,39.7694268
18,Железноводский переулок,344030,47.2423379,39.7695231
20,Железноводский переулок,344030,47.2421918,39.7697088
22,Железноводский переулок,344030,47.2420207,39.7696039
24,Железноводский переулок,344030,47.2420174,39.7699247
3,Кисловодский переулок,344030,47.2420073,39.7692143
60/13,улица Ерёменко,344015,47.2290295,39.6173638
58В,Газетный переулок,344002,47.2237534,39.7157833
3,улица Города Волос,344003,47.2278188,39.7059826
14,переулок Деревянко,344024,47.2042936,39.6831360
27,Таллинский переулок,344111,47.2323753,39.8234935
6/6,Донская улица,344002,47.2146388,39.7133707
60,Ульяновская улица,344002,47.2169316,39.7206240
59,Советская улица,344019,47.2285376,39.7501621
2B,Оренбургский переулок,153009,47.2583200,39.7153907
21А,улица Добровольского,344113,47.2989637,39.7011102
1А,улица Плеханова,344116,47.2100006,39.6680755
5,улица Быковского,344090,47.2150976,39.6407799
85,улица Андрея Сладкова,344090,47.2149573,39.6388537
170с1,Красноармейская улица,344002,47.2275306,39.7144873
172с2,Красноармейская улица,344002,47.2277284,39.7147985
166А,Красноармейская улица,344002,47.2272498,39.7118803
11,улица Города Волос,344010,47.2284348,39.7093522
81-83,переулок Семашко,344000,47.2287896,39.7094967
60,Будённовский проспект,344003,47.2269603,39.7050392
37,Пушкинская улица,344082,47.2231424,39.7024801
20 к2,бульвар Комарова,344092,47.2897265,39.7015000
6 к4,проспект Королёва,344092,47.2924390,39.6965776
6 к5,проспект Королёва,344092,47.2929659,39.6971496
6 к6,проспект Королёва,344092,47.2934384,39.6978010
8А,проспект Королёва,344092,47.2940791,39.6996019
153,улица Доватора,344103,47.2373615,39.6307682
243В,проспект Стачки,344091,47.2115185,39.6097448
21В,Береговая улица,344002,47.2137161,39.7087481
1А,Орская улица,344065,47.2664571,39.7665246
59 к1Б,улица Вавилова,344064,47.2715151,39.6805669
59 к1В,улица Вавилова,344064,47.2713291,39.6806452
115А,Университетский переулок,344000,47.2299389,39.7249743
156Г,улица Доватора,344041,47.2382867,39.5892733
145 к11,2-я Краснодарская улица,344091,47.2027111,39.6272590
17,улица Добровольского,344092,47.2942645,39.7021484
21Ж,улица Зорге,344015,47.2242177,39.6287438
87,Всесоюзная улица,344033,47.1908195,39.6255027
124 с1,Доломановский переулок,344018,47.2360233,39.6911335
126,Доломановский переулок,344018,47.2365143,39.6909623
128,Доломановский переулок,344018,47.2370239,39.6910667
132,Доломановский переулок,344018,47.2378488,39.6902990
124 с2,Доломановский переулок,344018,47.2361784,39.6917766
1,Белозёрский переулок,344041,47.2277653,39.6542424
146,улица Максима Горького,344000,47.2278018,39.7204848
12Д,Орбитальная улица,344113,47.2977264,39.6966352
7/19,проспект Королёва,344113,47.2960086,39.7006870
89Б,улица Ерёменко,344103,47.2328189,39.6122378
26,2-й переулок,344011,47.2302897,39.6852256
47А,Токарная улица,344101,47.2133433,39.6857917
49,Токарная улица,344101,47.2133320,39.6860045
23,1-я Баррикадная улица,344101,47.2145146,39.6819550
105 Б,Ворошиловский проспект,344010,47.2342868,39.7132158
2Ж,Омская улица,344068,47.2592872,39.7234731
10,улица Мильчакова,344090,47.2189864,39.6276177
18,Нагорная улица,344101,47.2144099,39.6907403
16,Нагорная улица,344101,47.2143654,39.6908937
14,Нагорная улица,344101,47.2145172,39.6909377
12,Нагорная улица,344101,47.2143650,39.6910574
10,Нагорная улица,344101,47.2142944,39.6911449
8,Нагорная улица,344101,47.2142453,39.6912574
6,Нагорная улица,344101,47.2142202,39.6914723
46,Профсоюзная улица,344101,47.2140872,39.6883271
52,Профсоюзная улица,344101,47.2142025,39.6878021
54,Профсоюзная улица,344101,47.2143485,39.6873813
50,Профсоюзная улица,344101,47.2141444,39.6880212
42,Профсоюзная улица,344101,47.2140175,39.6885703
44,Профсоюзная улица,344101,47.2140467,39.6884523
40,Профсоюзная улица,344101,47.2139364,39.6887109
38,Профсоюзная улица,344101,47.2139161,39.6888701
36,Профсоюзная улица,344101,47.2139092,39.6889811
34,Профсоюзная улица,344101,47.2138666,39.6891815
32,Профсоюзная улица,344101,47.2138181,39.6893531
30,Профсоюзная улица,344101,47.2137991,39.6894604
28,Профсоюзная улица,344101,47.2137642,39.6895990
45,Межевая улица,344101,47.2143922,39.6878282
43,Межевая улица,344101,47.2143288,39.6880912
41,Межевая улица,344101,47.2142921,39.6882288
39,Межевая улица,344101,47.2142384,39.6883875
37,Межевая улица,344101,47.2142026,39.6885447
35,Межевая улица,344101,47.2141736,39.6886716
33,Межевая улица,344101,47.2140924,39.6887637
31,Межевая улица,344101,47.2140763,39.6890782
29А,Межевая улица,344101,47.2139481,39.6893275
29,Межевая улица,344101,47.2139476,39.6895914
27,Межевая улица,344101,47.2139208,39.6897041
25,Межевая улица,344101,47.2138507,39.6899379
7,Русская улица,344101,47.2126328,39.6895732
5,Русская улица,344101,47.2125820,39.6898130
3,Русская улица,344101,47.2125743,39.6900931
1,Русская улица,344101,47.2125810,39.6903740
1А,Русская улица,344101,47.2125781,39.6905202
12,Профсоюзная улица,344101,47.2133486,39.6912018
4,Профсоюзная улица,344101,47.2131824,39.6916596
18,Профсоюзная улица,344101,47.2135158,39.6904163
16,Профсоюзная улица,344101,47.2134446,39.6907185
14А,Профсоюзная улица,344101,47.2134570,39.6908385
14,Профсоюзная улица,344101,47.2133889,39.6909847
10,Профсоюзная улица,344101,47.2132614,39.6913457
8,Профсоюзная улица,344101,47.2132337,39.6914601
9,Межевая улица,344101,47.2134118,39.6914877
5,Межевая улица,344101,47.2133229,39.6916562
2,Межевая улица,344101,47.2131828,39.6920446
82 к2,Токарная улица,344101,47.2128052,39.6874705
43,улица Вагулевского,344001,47.2157261,39.6893968
41,улица Вагулевского,344001,47.2157002,39.6896121
45,улица Вагулевского,344001,47.2157701,39.6891868
47,улица Вагулевского,344001,47.2157809,39.6890427
51,улица Вагулевского,344001,47.2157924,39.6886553
49А,улица Вагулевского,344001,47.2157547,39.6887620
47А,улица Вагулевского,344001,47.2157998,39.6889528
53,улица Вагулевского,344001,47.2157553,39.6883684
37,улица Вагулевского,344001,47.2155111,39.6900083
36,Республиканская улица,344001,47.2215140,39.6820674
132,улица Гусева,344001,47.2220717,39.6687902
130,улица Гусева,344001,47.2218977,39.6689121
128,улица Гусева,344001,47.2217782,39.6691022
126,улица Гусева,344001,47.2216439,39.6691455
124,улица Гусева,344001,47.2215131,39.6692689
2,Сулинский переулок,344001,47.2253248,39.6666573
108,улица Губаревича,344058,47.2235285,39.6589016
18,Гоголевская улица,344022,47.2250197,39.7415312
26А,улица Мадояна,344004,47.2184026,39.6599504
26,улица Мадояна,344004,47.2183375,39.6600464
9,Рабочая площадь,344004,47.2157325,39.6619087
40,Крепостной переулок,344022,47.2235928,39.7385470
41,2-я Баррикадная улица,344004,47.2148948,39.6708730
10,Загорская улица,344034,47.2094385,39.6895193
166/50,Портовая улица,344034,47.2047444,39.6774633
200,улица Станиславского,344022,47.2218253,39.7333864
113,Сказочная улица,344058,47.2022932,39.6331301
32,Былинная улица,344058,47.2021484,39.6332240
18/17,Доброхимовская улица,344116,47.2085830,39.6599599
18А,Доброхимовская улица,344116,47.2087418,39.6601181
14/2,Международная улица,344116,47.2091628,39.6624886
16,Доброхимовская улица,344116,47.2087924,39.6604303
14,Доброхимовская улица,344116,47.2089078,39.6606177
12,Доброхимовская улица,344116,47.2089596,39.6608490
10А,Доброхимовская улица,344116,47.2088978,39.6612060
8,Доброхимовская улица,344116,47.2090843,39.6614300
6,Доброхимовская улица,344116,47.2090104,39.6618394
2А,Доброхимовская улица,344116,47.2091346,39.6622629
10,Доброхимовская улица,344116,47.2090118,39.6613046
6А,Доброхимовская улица,344116,47.2091330,39.6616133
140,Ракитная улица,344000,47.3005954,39.7625652
4,улица Калинина,344004,47.2160619,39.6609076
25В,улица Калинина,344041,47.2167963,39.6568003
18,улица Пацаева,344092,47.2820929,39.7023436
20А,улица Пацаева,344092,47.2825934,39.7022346
166,2-я улица Володарского,344033,47.2004460,39.6565453
159,Батуринская улица,344116,47.2017013,39.6497521
161,Батуринская улица,344116,47.2013074,39.6483447
393,Портовая улица,344033,47.1948493,39.6535772
38,Стадионная улица,344012,47.2409224,39.6977981
196,улица Мадояна,344041,47.2379367,39.6355051
10А,улица Гризодубовой,344058,47.2108363,39.6492664
12А,улица Гризодубовой,344058,47.2085184,39.6503604
103/5,улица Вересаева,344072,47.2384392,39.8014615
103/2,улица Вересаева,344072,47.2388637,39.8023330
103/3,улица Вересаева,344072,47.2387761,39.8030938
103/4,улица Вересаева,344072,47.2387423,39.8038165
245/3,проспект Ленина,344023,47.2486893,39.7550040
245/4,проспект Ленина,344023,47.2484522,39.7549108
245/5,проспект Ленина,344023,47.2483911,39.7545065
437/1,улица Нансена,344023,47.2479593,39.7544428
437/2,улица Нансена,344023,47.2482108,39.7544338
54,улица Ерёменко,344015,47.2316871,39.6247873
58/173,проспект Соколова,344000,47.2284412,39.7200834
13,Орбитальная улица,344114,47.3024801,39.7235935
14Б,проспект Космонавтов,344092,47.2883220,39.7157372
23В,улица 339-й Стрелковой Дивизии,344015,47.2266799,39.6208908
25В,улица 339-й Стрелковой Дивизии,344015,47.2266141,39.6193913
65,улица Максима Горького,344082,47.2245377,39.7015447
65/1,улица Максима Горького,344082,47.2245094,39.7013692
67,улица Максима Горького,344082,47.2242033,39.7016299
69,улица Максима Горького,344082,47.2242881,39.7018826
71А,улица Максима Горького,344082,47.2243993,39.7022278
71,улица Максима Горького,344082,47.2244385,39.7020814
82,улица Максима Горького,344082,47.2247658,39.7019727
73,улица Максима Горького,344082,47.2243542,39.7025572
80,Красноармейская улица,344082,47.2248511,39.7015843
81,переулок Островского,344082,47.2245591,39.7023704
85,переулок Островского,344082,47.2248852,39.7024667
84А,Красноармейская улица,344082,47.2250073,39.7018459
86А,Красноармейская улица,344082,47.2251269,39.7017984
86,Красноармейская улица,344082,47.2251247,39.7019693
89,переулок Островского,344082,47.2251324,39.7023399
87,переулок Островского,344082,47.2249897,39.7023836
90,Красноармейская улица,344082,47.2253938,39.7020019
91,переулок Островского,344082,47.2252757,39.7022501
92,Красноармейская улица,344082,47.2255048,39.7021340
93,переулок Островского,344082,47.2254106,39.7022563
84,Красноармейская улица,344082,47.2249137,39.7019363
8/5,Каширская улица,344091,47.1988377,39.6252489
52,улица Скачкова,344001,47.2255430,39.6671839
13/2,Извилистая улица,344091,47.1985478,39.6283358
54,улица Скачкова,344001,47.2263316,39.6663623
20Б,улица Пацаева,344092,47.2830659,39.7020993
21,проспект Сиверса,344011,47.2229507,39.6895423
83/403,Нахичеванский переулок,344022,47.2384679,39.7338166
8,Антенная улица,344010,47.2320050,39.7258569
14Б,улица Седова,344022,47.2198918,39.7333800
91,улица Седова,344022,47.2207241,39.7345282
34А,проспект Маршала Жукова,344049,47.2340804,39.6027281
34,проспект Маршала Жукова,344049,47.2342368,39.6019435
15,улица Платона Кляты,344010,47.3176337,39.6809739
23,улица Платона Кляты,344010,47.3173394,39.6876356
6,улица Петренко,344010,47.3191556,39.6760377
24,улица Петренко,344010,47.3190964,39.6883476
4,улица Петренко,344010,47.3191619,39.6752357
28,улица Петренко,344010,47.3182701,39.6892185
1,улица Платона Кляты,344010,47.3182907,39.6738254
20,улица Петренко,344010,47.3182847,39.6863771
22,улица Петренко,344010,47.3190840,39.6873710
18,улица Петренко,344010,47.3190519,39.6861129
26,улица Петренко,344010,47.3190321,39.6894102
17,улица Платона Кляты,344010,47.3175049,39.6819713
59,Будённовский проспект,344011,47.2274340,39.7032808
17А,Таврическая улица,344012,47.2421957,39.6881334
19,Таврическая улица,344012,47.2422441,39.6883537
15,Таврическая улица,344012,47.2422567,39.6877312
17,Таврическая улица,344012,47.2422546,39.6878888
19А,улица Мечникова,344039,47.2409256,39.6775345
14/15,проспект Космонавтов,344092,47.2876849,39.7160748
306,улица Варфоломеева,344000,47.2338444,39.7178436
60Б,Театральный проспект,344000,47.2385477,39.7373898
100,Братский переулок,344011,47.2295468,39.6954000
127,улица Малюгиной,344011,47.2289459,39.6960811
65,улица Малюгиной,344011,47.2276856,39.6889688
2,1-й переулок,344011,47.2255064,39.6843699
40,улица Малюгиной,344011,47.2265455,39.6854252
21А,улица Ченцова,344019,47.2352666,39.7479697
21Б,улица Ченцова,344019,47.2352849,39.7480551
34А,проспект Шолохова,344019,47.2377813,39.7462986
4,5-я линия,344019,47.2276580,39.7539269
63к5,14-я линия,344037,47.2385712,39.7569730
33/16,1-я Майская улица,344019,47.2312555,39.7554830
29,Искусственная улица,344019,47.2243643,39.7506209
60,9-я линия,344019,47.2247303,39.7575797
21Л,улица Зорге,344015,47.2229490,39.6279832
107,улица Ерёменко,344000,47.2331000,39.5906047
159/42,улица Максима Горького,344002,47.2275013,39.7172573
211/2,проспект Шолохова,344009,47.2626387,39.8051193
211/4,проспект Шолохова,344009,47.2631126,39.8043541
21,бульвар Платова,344033,47.1983143,39.6469503
178,2-я улица Володарского,344033,47.1979641,39.6483500
9,бульвар Платова,344033,47.1991974,39.6506341
7,бульвар Платова,344033,47.1993821,39.6513151
8,бульвар Платова,344033,47.2007562,39.6497015
82/6,улица Тружеников,344033,47.2009800,39.6505104
2,улица Салютина,344033,47.2017869,39.6550861
172/88,2-я улица Володарского,344033,47.1987326,39.6521425
176,2-я улица Володарского,344033,47.1982026,39.6502785
92,улица Ерёменко,344049,47.2316296,39.5984335
94,улица Ерёменко,344049,47.2315263,39.5971632
90/27,улица Ерёменко,344049,47.2311478,39.5993971
9,улица Теряева,344065,47.3172978,39.7927211
13/1,улица Тимофеева,344065,47.3179305,39.7925220
11,улица Тимофеева,344065,47.3175796,39.7909914
13/3,Извилистая улица,344091,47.1987936,39.6275986
170,2-я улица Володарского,344033,47.1992029,39.6537850
168,2-я улица Володарского,344033,47.1998223,39.6551263
9,улица Тимофеева,344065,47.3172625,39.7901992
5/16,Художественная улица,344065,47.3166147,39.7930893
76,15-я линия,344019,47.2242803,39.7615227
57/42,улица 15-я Линия,344019,47.2247744,39.7617629
43,23-я линия,344019,47.2255885,39.7676021
17,Пушкинская улица,344082,47.2225592,39.6997418
30,Окружная улица,152151,47.2149017,39.7945492
17,28-я линия,344037,47.2343709,39.7662697
31,38-я линия,344025,47.2347415,39.7731674
31,38-я линия,344025,47.2348277,39.7732097
76Б/87А,улица Малиновского,344015,47.2327725,39.6147208
13/15,27-я линия,344025,47.2294643,39.7682816
13,27-я линия,344025,47.2293102,39.7683031
2,Яблоневый переулок,344092,47.2793788,39.7032312
82,улица Богданова,344025,47.2269388,39.7782834
65,39-я линия,344025,47.2283223,39.7773786
10,Суздальский переулок,344030,47.2432401,39.7771292
6,Суздальский переулок,344030,47.2432106,39.7765826
33А,Гранитная улица,344030,47.2458142,39.7829557
70к1,улица Вавилова,344064,47.2818424,39.6858467
13А,Орбитальная улица,344114,47.3024743,39.7231606
242,улица Максима Горького,344022,47.2313554,39.7385350
44А,Сейнерная улица,344033,47.1917322,39.6463258
93/2,Заводская улица,344033,47.1990600,39.6362541
310А,проспект Шолохова,344009,47.2739592,39.8186841
22,Казачий переулок,344033,47.1873033,39.6389954
9Б,улица Волкова,344092,47.2834768,39.7137021
1И с1,бульвар Комарова,344096,47.2900947,39.6868702
1/1,улица Думенко,344045,47.2937194,39.7393052
1/3,улица Думенко,344045,47.2941019,39.7400403
14/1,улица Штахановского,344095,47.2875457,39.7445857
14/2,улица Штахановского,344095,47.2880186,39.7449285
39/3,Вятская улица,344095,47.2848807,39.7507439
18/1,улица Штахановского,344095,47.2887170,39.7434266
10,Маковая улица,344064,47.3021133,39.6789829
33,переулок Скрыпника,344011,47.2299484,39.6873527
47,улица Текучёва,344011,47.2306395,39.6839894
13,переулок Красной Звезды,344048,47.2267767,39.8062635
150,улица Кржижановского,344048,47.2264269,39.8069416
82,переулок Богачёва,344033,47.1961076,39.6392782
36,улица Щербакова,344020,47.2678443,39.7787428
34А,улица Щербакова,344020,47.2676563,39.7786725
34,улица Щербакова,344020,47.2675501,39.7787040
32,улица Щербакова,344020,47.2674711,39.7785863
36,улица Щербакова,344020,47.2677587,39.7789845
30А,улица Щербакова,344020,47.2673066,39.7785667
30,улица Щербакова,344020,47.2672365,39.7784810
28,улица Щербакова,344020,47.2671404,39.7784076
208,улица Солидарности,344048,47.2294863,39.8146331
12,проспект Шолохова,344019,47.2363559,39.7414838
140А с4,проспект Ленина,344023,47.2498668,39.7417763
140А с5,проспект Ленина,344023,47.2495749,39.7419481
102Б,Решительная улица,344064,47.2817932,39.6683728
188А,Кузнечная улица,344033,47.1942020,39.6466236
2/13/1,улица Менжинского,344029,47.2533771,39.7600572
2,улица Менжинского,344029,47.2584602,39.7626849
12,улица Петренко,344010,47.3191395,39.6800801
4/1,переулок Белоусова,344010,47.3216051,39.6846477
5,улица Александра Печёрского,344010,47.3215788,39.6867876
14,улица Петренко,344010,47.3191407,39.6809004
7/3,улица Александра Печёрского,344010,47.3217128,39.6878581
3,улица Александра Печёрского,344010,47.3215633,39.6857876
16А,улица Петренко,344010,47.3183693,39.6812749
27,улица Платона Кляты,344010,47.3175245,39.6893704
20,бульвар Платова,344116,47.1997420,39.6464644
33Б,улица Тружеников,344033,47.2017855,39.6518921
33,улица Тружеников,344033,47.2016162,39.6512865
20/111,Невская улица,344049,47.2684180,39.8037109
111А,Можайская улица,344094,47.2683090,39.8036285
17/113,Невская улица,344094,47.2684407,39.8040950
2А,Актюбинский переулок,344023,47.2482810,39.7334633
100,1-я улица Грамши,344094,47.2716302,39.8051869
102,1-я улица Грамши,344094,47.2718555,39.8056141
102А,1-я улица Грамши,344094,47.2717399,39.8054838
125,2-я улица Грамши,344094,47.2715645,39.8051869
24,улица Зои Космодемьянской,344094,47.2718555,39.8057017
8Ж,Технологический переулок,344064,47.2682473,39.6887218
118,Доломановский переулок,344018,47.2347642,39.6923849
116,Доломановский переулок,344018,47.2346242,39.6916797
1Г,Магнитогорская улица,344033,47.1954850,39.6240470
1/1,Магнитогорская улица,344033,47.1940656,39.6237839
1Б,Магнитогорская улица,344033,47.1955191,39.6226726
1А,Магнитогорская улица,344033,47.1963350,39.6222228
2Б,Магнитогорская улица,344033,47.1946066,39.6219124
1В,Магнитогорская улица,344033,47.1960671,39.6234150
2В,Магнитогорская улица,344033,47.1942559,39.6227848
1,Магнитогорская улица,344033,47.1957874,39.6212890
2А,Магнитогорская улица,344033,47.1949271,39.6209863
1,Зимовниковский переулок,344020,47.2630645,39.7885210
1,Кузнецкий переулок,344020,47.2636406,39.7890832
10,Кузнецкий переулок,344020,47.2635998,39.7894940
10,улица Карбышева,344020,47.2636406,39.7890826
10,улица Лихачёва,344020,47.2627367,39.7861089
10А,Кузнецкий переулок,344020,47.2636227,39.7897150
11,Зимовниковский переулок,344020,47.2633913,39.7879248
11,Кузнецкий переулок,344020,47.2643734,39.7896767
11,улица Карбышева,344020,47.2623826,39.7886144
11А,улица Карбышева,344020,47.2626596,39.7885276
11Б,улица Карбышева,344020,47.2628066,39.7886165
12,Зимовниковский переулок,344020,47.2640582,39.7886825
12,Кузнецкий переулок,344020,47.2638569,39.7897263
12,Кузнецкий переулок,344020,47.2637728,39.7898564
12,улица Карбышева,344020,47.2637590,39.7890881
12,улица Лихачёва,344020,47.2628952,39.7864830
12,улица Лихачёва,344020,47.2629752,39.7865526
13,Зимовниковский переулок,344020,47.2634882,39.7877105
13,Кузнецкий переулок,344020,47.2644918,39.7894436
14,Кузнецкий переулок,344020,47.2638263,39.7899880
14,улица Карбышева,344020,47.2638774,39.7890859
14,улица Лихачёва,344020,47.2631889,39.7865891
14,улица Лихачёва,344020,47.2630864,39.7864962
14А,Кузнецкий переулок,344020,47.2638982,39.7900617
15,Зимовниковский переулок,344020,47.2636393,39.7878482
15,Кузнецкий переулок,344020,47.2646184,39.7890842
16,Кузнецкий переулок,344020,47.2641325,39.7900309
16,улица Карбышева,344020,47.2640059,39.7891273
16,улица Лихачёва,344020,47.2634604,39.7868252
17,Зимовниковский переулок,344020,47.2637962,39.7879942
18,Кузнецкий переулок,344020,47.2641788,39.7903414
18,Кузнецкий переулок,344020,47.2642177,39.7900993
18,улица Карбышева,344020,47.2641080,39.7890881
18,улица Лихачёва,344020,47.2635710,39.7870411
19,Зимовниковский переулок,344020,47.2639310,39.7881190
19А,Зимовниковский переулок,344020,47.2640376,39.7879957
2,Зимовниковский переулок,344020,47.2633251,39.7886263
2,Кузнецкий переулок,344020,47.2632308,39.7891503
2,улица Карбышева,344020,47.2623298,39.7890584
2,улица Карбышева,344020,47.2620626,39.7890450
20,Кузнецкий переулок,344020,47.2644657,39.7900027
20,улица Карбышева,344020,47.2642254,39.7890949
20,улица Лихачёва,344020,47.2636619,39.7870869
21,Зимовниковский переулок,344020,47.2642116,39.7880611
21А,Зимовниковский переулок,344020,47.2640401,39.7882137
22,Кузнецкий переулок,344020,47.2645438,39.7897861
22,улица Карбышева,344020,47.2643448,39.7890791
22,улица Лихачёва,344020,47.2637364,39.7874937
23,Зимовниковский переулок,344020,47.2642515,39.7883935
24,Кузнецкий переулок,344020,47.2647633,39.7897550
24,улица Карбышева,344020,47.2644770,39.7890874
24,улица Лихачёва,344020,47.2639624,39.7876174
24А,улица Лихачёва,344020,47.2640359,39.7874238
25,Зимовниковский переулок,344020,47.2643479,39.7884597
26,Кузнецкий переулок,344020,47.2647464,39.7895053
26,улица Карбышева,344020,47.2646184,39.7890817
26,улица Лихачёва,344020,47.2642336,39.7875558
26,улица Лихачёва,344020,47.2641313,39.7874968
27,Зимовниковский переулок,344020,47.2645142,39.7885936
28,Кузнецкий переулок,344020,47.2648867,39.7891540
28,улица Карбышева,344020,47.2648897,39.7891540
28,улица Лихачёва,344020,47.2643533,39.7877254
28,улица Лихачёва,344020,47.2642142,39.7877445
28А,улица Карбышева,344020,47.2651516,39.7891322
28Б,улица Карбышева,344020,47.2652518,39.7891533
3,Зимовниковский переулок,344020,47.2631718,39.7884760
3,Зимовниковский переулок,344020,47.2631331,39.7882716
3,Кузнецкий переулок,344020,47.2639329,39.7894917
30,улица Карбышева,344020,47.2653327,39.7892602
30,улица Карбышева,344020,47.2650276,39.7891280
30,улица Лихачёва,344020,47.2645167,39.7878525
30А,улица Лихачёва,344020,47.2643901,39.7878494
30А,улица Лихачёва,344020,47.2644448,39.7877309
32,улица Карбышева,344020,47.2656490,39.7891835
32,улица Лихачёва,344020,47.2646666,39.7879893
32А,улица Карбышева,344020,47.2657468,39.7891790
32А,улица Лихачёва,344020,47.2647284,39.7880487
32Б,улица Карбышева,344020,47.2658443,39.7891829
34,улица Карбышева,344020,47.2659659,39.7892627
34,улица Лихачёва,344020,47.2648147,39.7881653
34А,улица Карбышева,344020,47.2660732,39.7891879
36,улица Карбышева,344020,47.2661797,39.7891843
36,улица Лихачёва,344020,47.2648887,39.7882480
38,улица Карбышева,344020,47.2663316,39.7893546
38,улица Лихачёва,344020,47.2651623,39.7884563
4,Зимовниковский переулок,344020,47.2635293,39.7882652
4,Кузнецкий переулок,344020,47.2632836,39.7892229
40,улица Карбышева,344020,47.2664134,39.7891851
40,улица Лихачёва,344020,47.2654008,39.7886029
5,Зимовниковский переулок,344020,47.2632509,39.7882610
5,Кузнецкий переулок,344020,47.2640473,39.7895429
55,улица 12-го Декабря,344020,47.2635616,39.7864045
6,Зимовниковский переулок,344020,47.2635804,39.7880947
6,Зимовниковский переулок,344020,47.2636685,39.7881817
6,Кузнецкий переулок,344020,47.2633599,39.7893466
6,улица Карбышева,344020,47.2629455,39.7890721
6,улица Карбышева,344020,47.2627526,39.7890699
6,улица Лихачёва,344020,47.2622981,39.7856936
7,Зимовниковский переулок,344020,47.2632774,39.7881113
7,Кузнецкий переулок,344020,47.2641325,39.7896849
7,улица Карбышева,344020,47.2619594,39.7885871
8,Зимовниковский переулок,344020,47.2637693,39.7882775
8,Кузнецкий переулок,344020,47.2635564,39.7894398
8,Кузнецкий переулок,344020,47.2634313,39.7894014
8,улица Карбышева,344020,47.2630307,39.7890774
8,улица Лихачёва,344020,47.2625405,39.7859881
9,Зимовниковский переулок,344020,47.2631825,39.7878865
9,Кузнецкий переулок,344020,47.2641795,39.7897557
9,улица Карбышева,344020,47.2622195,39.7886283
22,Купеческая улица,344058,47.2009506,39.6343004
95,Субботняя улица,344069,47.2825277,39.6683155
1А,улица Курчатова,344020,47.2641157,39.7749783
52/10,Летописная улица,344058,47.2036535,39.6416332
14Б,улица Ярослава Галана,344079,47.2520484,39.6907783
65/3,Симферопольская улица,344068,47.2621122,39.7162046
1/12,улица Ларина,344079,47.2514466,39.6964505
5А,Подъездная улица,344079,47.2563740,39.6929311
52,Каляевский переулок,344079,47.2562129,39.6937346
6,Рыночный переулок,344034,47.2080535,39.6907423
3,Портовая улица,344034,47.2132760,39.6967044
18Б,Рыночный переулок,344034,47.2078677,39.6916214
8,Рыночный переулок,344034,47.2079076,39.6909586
26А,Ашхабадский переулок,344068,47.2584808,39.6981844
5Б,Санаторный переулок,344068,47.2606752,39.7019009
65,Армейская улица,344079,47.2475696,39.6853739
201,Павлодарская улица,344079,47.2485908,39.6949742
67А,Армейская улица,344079,47.2475238,39.6858883
328,улица Безымянная Балка,344079,47.2479274,39.6955590
201А,Павлодарская улица,344079,47.2486033,39.6950740
72А,Субботняя улица,344069,47.2830250,39.6711857
4,Криворожская улица,344068,47.2610234,39.7070157
58,Каховская улица,344068,47.2617409,39.7136507
8,Криворожская улица,344068,47.2611457,39.7076158
33А,проспект Маршала Жукова,344049,47.2347150,39.5999781
9,Рабочая площадь,344004,47.2157077,39.6617251
51/6,Морозный переулок,344065,47.2891842,39.7733684
51/6,Морозный переулок,344065,47.2891842,39.7733699
10,2-я Теннисная улица,344065,47.2791172,39.7768133
23,переулок Туроверова,344033,47.2024833,39.6571203
5,переулок Дежнёва,344116,47.2023630,39.6475820
16/9,Аметистовый переулок,344093,47.2886077,39.8003858
3А,Янтарная улица,344093,47.2873054,39.8005384
10,Глубокий переулок,344034,47.2071334,39.6932973
16Б,улица Жданова,344103,47.2360120,39.5947719
14,улица Жданова,344103,47.2362085,39.5953514
45,улица Матросова,344033,47.1988140,39.6642196
163,Батуринская улица,344116,47.2009288,39.6470867
165,Батуринская улица,344116,47.2002383,39.6461106
16,3-я Литературная улица,344058,47.2031938,39.6452210
2А,переулок Салютина,344033,47.2017029,39.6539308
105/13,Ворошиловский проспект,344018,47.2336980,39.7079174
7 к1,Извилистая улица,344091,47.2000967,39.6298680
96,улица Ерёменко,344049,47.2316402,39.5959321
96/1,улица Ерёменко,344049,47.2309262,39.5960836
27 к1,проспект Маршала Жукова,344049,47.2309156,39.5982330
98,улица Ерёменко,344049,47.2311929,39.5949489
1,Рельефная улица,344034,47.1982081,39.6746426
15Б,улица Жданова,344047,47.2346978,39.5948168
21,Орбитальная улица,344114,47.3029887,39.7280405
35,улица Тружеников,344033,47.2007439,39.6520804
33А,улица Тружеников,344033,47.2012100,39.6514018
2Б,бульвар Платова,344033,47.2016767,39.6526837
2,бульвар Платова,344033,47.2010745,39.6523138
2А,бульвар Платова,344033,47.2013707,39.6524940
39/3 К2,улица Тружеников,344033,47.1999848,39.6539114
2Б,переулок Салютина,344033,47.2009990,39.6545108
39/3 К1,улица Тружеников,344033,47.2000061,39.6529256
7/2,Извилистая улица,344091,47.1994529,39.6301596
17,переулок Дунаевского,344004,47.2124600,39.6725811
35/1,26-я линия,344037,47.2400306,39.7632202
9В,улица Каяни,344019,47.2321150,39.7452325
51,Бодрая улица,344068,47.2683164,39.7071395
10,Брусничная улица,344068,47.2691336,39.7039817
9,Ежевичная улица,344068,47.2696027,39.7015529
7,Северная улица,344068,47.2691195,39.7020277
15,Северная улица,344068,47.2696050,39.7029202
81,Бодрая улица,344068,47.2707793,39.7056055
24,Клеверная улица,344068,47.2710452,39.7031238
33,Северная улица,344068,47.2708585,39.7046390
29,улица 2-й Пятилетки,344068,47.2632937,39.7027515
42А,улица Евдокимова,344068,47.2700560,39.7069446
41,3-й Санинструкторский переулок,344055,47.2351181,39.5544362
40,2-й Санинструкторский переулок,344055,47.2350847,39.5540775
44А,Совхозная улица,344055,47.2356654,39.5544777
51А,улица Шапкина,344055,47.2348261,39.5542622
55/37,улица Шапкина,344055,47.2347854,39.5545940
53,улица Шапкина,344055,47.2347858,39.5544680
40,3-й Санинструкторский переулок,344055,47.2353595,39.5551946
219,улица Нансена,344038,47.2447976,39.7212546
21,Долгая улица,344065,47.3031691,39.7796228
6,Равнинная улица,344065,47.3027965,39.7817895
22,Душистый переулок,344045,47.3016451,39.7797093
4А,Равнинная улица,344065,47.3028822,39.7819379
13,Долгая улица,344065,47.3032245,39.7805594
4,Равнинная улица,344065,47.3027915,39.7820846
12А,Заповедная улица,344045,47.3000263,39.7809450
12,Равнинная улица,344065,47.3028133,39.7810068
14,Равнинная улица,344065,47.3028831,39.7806724
18,Равнинная улица,344065,47.3027829,39.7800554
20А,Калиновая улица,344045,47.3017157,39.7798466
15,Долгая улица,344065,47.3030676,39.7804708
18,Пейзажная улица,344045,47.3011395,39.7802683
13,Равнинная улица,344065,47.3026283,39.7807537
8А,Равнинная улица,344065,47.3029068,39.7814332
16,Равнинная улица,344065,47.3027584,39.7804453
22А,Калиновая улица,344045,47.3017859,39.7796554
1,Долгая улица,344065,47.3031367,39.7822379
22,Равнинная улица,344065,47.3029313,39.7796558
10,Равнинная улица,344065,47.3027664,39.7811401
8,Заповедная улица,344045,47.3000072,39.7815040
20,Равнинная улица,344065,47.3028670,39.7799347
11,Долгая улица,344065,47.3030758,39.7809177
2,Равнинная улица,344065,47.3028693,39.7822352
9,Долгая улица,344065,47.3031263,39.7811612
12,Масштабная улица,344065,47.3022178,39.7809350
9А,Архитектурная улица,344065,47.3036733,39.7770379
45,Калиновая улица,344065,47.3014879,39.7763846
30,Масштабная улица,344065,47.3023717,39.7785975
44,Знакомая улица,344065,47.2993735,39.7766964
41А,Масштабная улица,344045,47.3019701,39.7767986
12А,Комфортный переулок,344065,47.3001644,39.7780706
46,Долгая улица,344065,47.3034230,39.7763480
114,Каскадная улица,344065,47.2988623,39.7771333
110,Каскадная улица,344065,47.2988235,39.7776960
31/59,4-й Дубравный переулок,344065,47.3032666,39.7742655
94,Пейзажная улица,344065,47.3010795,39.7697742
61,Долгая улица,344065,47.3031642,39.7739726
64,Равнинная улица,344065,47.3029182,39.7737204
29Б,4-й Дубравный переулок,344065,47.3029795,39.7742707
65,Долгая улица,344065,47.3031702,39.7735827
77А,Калиновая улица,344065,47.3013986,39.7719087
60/29,Равнинная улица,344065,47.3028005,39.7742817
62А,Равнинная улица,344065,47.3029146,39.7739598
63,Заповедная улица,344065,47.2996707,39.7738391
63,Долгая улица,344065,47.3031509,39.7738405
70/30,Равнинная улица,344065,47.3028371,39.7730107
31А,4-й Дубравный переулок,344065,47.3030623,39.7742789
62,Знакомая улица,344065,47.2993490,39.7741422
61А,Долгая улица,344065,47.3031672,39.7741075
92,Пейзажная улица,344065,47.3011917,39.7700792
62,Равнинная улица,344065,47.3029246,39.7740992
63А,Долгая улица,344065,47.3031515,39.7737137
67,Долгая улица,344065,47.3032132,39.7733233
65,Ракитная улица,344065,47.3002345,39.7735461
29А,4-й Дубравный переулок,344065,47.3028904,39.7742750
64А,Равнинная улица,344065,47.3029087,39.7738443
54,Масштабная улица,344065,47.3022397,39.7751744
68,Равнинная улица,344065,47.3028148,39.7732741
52А,Заповедная улица,344065,47.2999533,39.7754460
85,Заповедная улица,344065,47.2997282,39.7707837
17,Полуденная улица,344065,47.3049043,39.7704093
88,Знакомая улица,344065,47.2994361,39.7706177
7Б,Дубравный переулок,344065,47.2996528,39.7697863
86,Знакомая улица,344065,47.2993536,39.7708767
31,2-й Дубравный переулок,344065,47.3032674,39.7709628
87,Заповедная улица,344065,47.2995674,39.7705984
90,Знакомая улица,344065,47.2993563,39.7702814
84/5,Знакомая улица,344065,47.2992908,39.7710572
44А,2-й Дубравный переулок,344065,47.3049145,39.7712296
94/5,Знакомая улица,344065,47.2993531,39.7697845
89,Заповедная улица,344065,47.2996117,39.7702543
5А,2-й Дубравный переулок,344065,47.2994487,39.7710546
86А,Знакомая улица,344065,47.2993534,39.7707621
33Б,2-й Дубравный переулок,344065,47.3034832,39.7709708
5,4-я Бежевая улица,344039,47.2561976,39.6614388
37,Дымчатая улица,344039,47.2554628,39.6586779
32,проспект Сиверса,344011,47.2254484,39.6850781
1Х,проспект Королёва,344064,47.2827006,39.6870609
14/2,улица Тимофеева,344065,47.3170452,39.7962962
9,Художественная улица,344065,47.3165451,39.7952630
14/1,улица Тимофеева,344065,47.3173583,39.7952725
14Г,улица Миронова,344045,47.2982704,39.7489915
42,Марксистский переулок,344068,47.2698887,39.7183655
4,Парашютная улица,344093,47.2818965,39.7995959
3,Посадочная улица,344093,47.2820423,39.7995450
1К,Магнитогорская улица,344033,47.1950265,39.6243695
1Ж,Магнитогорская улица,344033,47.1951591,39.6235528
5,улица Циолковского,344033,47.1938582,39.6215741
3,улица Циолковского,344033,47.1941459,39.6207872
73,2-я Революционная улица,344016,47.2565432,39.6537955
9А,Прогулочная улица,344039,47.2526968,39.6613023
5,Прогулочная улица,344039,47.2529052,39.6626005
3А,Белоснежный переулок,344039,47.2532567,39.6618669
5А,Белоснежный переулок,344039,47.2537027,39.6618615
24,2-я Праздничная улица,344039,47.2534729,39.6602757
40,2-я Праздничная улица,344039,47.2533663,39.6581876
27,Романтичная улица,344039,47.2549830,39.6598640
70,Одесская улица,344041,47.2355512,39.6370668
28,Байкальская улица,344015,47.2350827,39.6308720
21 с2,улица Платона Кляты,344010,47.3172908,39.6864245
26А,улица Петренко,344010,47.3192409,39.6890341
8,переулок Белоусова,344010,47.3232134,39.6846697
6,переулок Белоусова,344010,47.3224033,39.6846556
5,переулок Андреева,344010,47.3225707,39.6878625
1,Волгоградская улица,344013,47.2289150,39.6749792
70А,улица Зорге,344103,47.2314039,39.6299889
11 к3,улица Добровольского,344092,47.2904701,39.7030730
21/106 c2,проспект Солженицына,344047,47.2311452,39.5884574
21/106 c1,проспект Солженицына,344047,47.2315410,39.5884636
110 с2,улица Ерёменко,344047,47.2313035,39.5859141
114/1 с1,улица Ерёменко,344047,47.2304695,39.5823562
40 с1,улица Ткачёва,344047,47.2270011,39.5868456
13,проспект Солженицына,344049,47.2279897,39.5881319
15/1 с2,проспект Солженицына,344047,47.2295075,39.5867820
19/12,проспект маршала Жукова,344049,47.2266553,39.5993329
22,улица Ткачёва,344049,47.2273980,39.5954204
16,улица Ткачёва,344049,47.2271725,39.5970832
20,улица Ткачёва,344049,47.2266648,39.5962116
28,улица Ткачёва,344049,47.2266606,39.5945415
52,улица Еляна,344049,47.2271981,39.5936815
54,улица Еляна,344049,47.2284068,39.5942349
66,улица Еляна,344049,47.2296923,39.5942585
23,проспект Маршала Жукова,344049,47.2285248,39.5995002
21,проспект Маршала Жукова,344049,47.2276150,39.5993324
18,улица Ткачёва,344049,47.2263344,39.5967423
94/1,улица Ерёменко,344049,47.2308704,39.5972833
54Б,улица Еляна,344049,47.2288005,39.5947387
11А,Особенная улица,344000,47.2838128,39.6783985
89А,Лермонтовская улица,344000,47.2298176,39.7079823
89,Лермонтовская улица,344000,47.2298062,39.7073764
1/7,улица Думенко,344045,47.2931973,39.7376967
31,Медовая улица,344041,47.2317332,39.6486939
38 А,Смородиновая улица,344041,47.2325027,39.6480529
39,Смородиновая улица,344041,47.2327185,39.6470243
110/12,улица Мадояна,344041,47.2314236,39.6437801
8/5,Смородиновая улица,344041,47.2316658,39.6441797
6,Смородиновая улица,344041,47.2316676,39.6438673
5,Лавровая улица,344041,47.2316521,39.6449348
14,Кукурузный переулок,344041,47.2318708,39.6436365
19,Ландышевая улица,344041,47.2293044,39.6495214
4,Утренняя улица,344041,47.2293927,39.6482165
7,Утренняя улица,344041,47.2298890,39.6484794
8,Ясеневая улица,344041,47.2297447,39.6465921
2,Медовая улица,344041,47.2304375,39.6447582
6,Медовая улица,344041,47.2307787,39.6453760
54А,Смородиновая улица,344041,47.2325846,39.6501745
7/9,Мятная улица,344041,47.2323096,39.6509483
73,Смородиновая улица,344041,47.2328505,39.6504750
8/16,Миндалевый переулок,344041,47.2306139,39.6525482
17,Орбитальная улица,344114,47.3027464,39.7258087
19,Орбитальная улица,344114,47.3028745,39.7269429
81,Архитектурная улица,344045,47.3038269,39.7670807
95/12,5-я Канатная улица,344019,47.2911517,39.6648195
31 с2,Нижегородская улица,344019,47.2233849,39.7488831
243/3,проспект Стачки,344000,47.2109802,39.6130578
43,Измаильский переулок,344068,47.2676850,39.7336994
58/85,улица Подвойского,344025,47.2246769,39.7760981
70,улица Подвойского,344025,47.2256122,39.7797605
36,улица Городовикова,344025,47.2237506,39.7783648
41,улица Подвойского,344025,47.2247578,39.7788591
89/32,35-я линия,344025,47.2233886,39.7765336
37,улица Подвойского,344025,47.2244132,39.7770304
9 с1,Творческая улица,344092,47.2812613,39.6997269
3,Творческая улица,344092,47.2808962,39.7013444
5,Творческая улица,344092,47.2812237,39.7006544
15А,переулок Андреева,344010,47.3275304,39.6859619
15,переулок Андреева,344010,47.3275250,39.6870857
13,переулок Андреева,344010,47.3263618,39.6870721
9/4,переулок Андреева,344010,47.3240529,39.6872843
7,переулок Андреева,344010,47.3234051,39.6878824
5/11,улица Висаитова,344010,47.3252269,39.6870536
2/10 с1,улица Висаитова,344010,47.3240486,39.6854315
3,улица Висаитова,344010,47.3251176,39.6859254
14 с1,переулок Белоусова,344010,47.3263441,39.6847200
169Б с1,2-я Краснодарская улица,344091,47.2031430,39.6109623
117Б с8,Береговая улица,344025,47.2231677,39.7816430
117Б с5,Береговая улица,344025,47.2228299,39.7793937
117Б с7,Береговая улица,344025,47.2229750,39.7805853
117Б с4,Береговая улица,344025,47.2226058,39.7776586
117Б с1,Береговая улица,344025,47.2223339,39.7754523
117Б с3,Береговая улица,344025,47.2224546,39.7765079
17/4,улица Герасименко,344068,47.2556199,39.7128216
17/1,улица Герасименко,344068,47.2548153,39.7136951
17/3,улица Герасименко,344068,47.2549274,39.7127099
17/5,улица Герасименко,344068,47.2556799,39.7119768
17/2,улица Герасименко,344068,47.2558113,39.7135567
212,улица Черепахина,344011,47.2319131,39.7008856
3,Петровская улица,344006,47.2217641,39.7261995
1Б с1,Тибетская улица,344068,47.2643861,39.7294828
17А,Извилистая улица,344091,47.1992161,39.6267586
11,переулок Чаленко,344049,47.2327371,39.5664249
7 с2,переулок Чаленко,344049,47.2313516,39.5659652
7 с1,переулок Чаленко,344049,47.2313479,39.5663837
9 с2,переулок Чаленко,344049,47.2313290,39.5645825
9 с1,переулок Чаленко,344049,47.2313367,39.5650069
17 с2,переулок Чаленко,344049,47.2341272,39.5658848
17 с1,переулок Чаленко,344049,47.2341363,39.5663139
19 с2,переулок Чаленко,344049,47.2341199,39.5645209
19 с1,переулок Чаленко,344049,47.2341232,39.5649461
67 с2,1-я Ковровая улица,344049,47.2355414,39.5649131
67 с1,1-я Ковровая улица,344049,47.2355304,39.5644914
65 с1,1-я Ковровая улица,344049,47.2353985,39.5663972
65 с2,1-я Ковровая улица,344049,47.2354950,39.5658620
15,Камышинская улица,344033,47.1927796,39.6267576
19,Камышинская улица,344033,47.1928650,39.6263903
23,Камышинская улица,344033,47.1929453,39.6260736
16А,Кузнечная улица,344033,47.1935361,39.6253100
34,Кузнечная улица,344033,47.1932006,39.6270787
38,Кузнечная улица,344033,47.1931814,39.6275508
2Б,Рабфаковский переулок,344033,47.1983410,39.6667981
144/18,улица Доватора,344041,47.2380315,39.6187473
144/27,улица Доватора,344041,47.2378640,39.6159672
8,35-я линия,344025,47.2314587,39.7726128
3,бульвар Платова,344033,47.1992209,39.6522327
26А,Долинская улица,344041,47.2461857,39.6176446
45,Красивая улица,344041,47.2458924,39.6149852
40,Долинская улица,344041,47.2462189,39.6158427
42,Долинская улица,344041,47.2462311,39.6155442
44,Долинская улица,344041,47.2462189,39.6153439
44А,Долинская улица,344041,47.2462175,39.6152365
46,Долинская улица,344041,47.2461920,39.6150802
48,Долинская улица,344041,47.2462054,39.6149440
43,Красивая улица,344041,47.2460437,39.6153253
41,Красивая улица,344041,47.2459373,39.6155217
21,Походный переулок,344041,47.2458905,39.6157889
21А,Походный переулок,344041,47.2460306,39.6157678
22,Походный переулок,344041,47.2459346,39.6162701
34,Долинская улица,344041,47.2462437,39.6167314
34А,Долинская улица,344041,47.2462023,39.6166132
36,Долинская улица,344041,47.2462329,39.6163449
38,Долинская улица,344041,47.2461834,39.6161250
33,Красивая улица,344041,47.2459099,39.6167615
31,Красивая улица,344041,47.2459288,39.6170080
32,Долинская улица,344041,47.2462599,39.6169898
29А,Красивая улица,344041,47.2459838,39.6171456
29,Красивая улица,344041,47.2459864,39.6172689
30,Долинская улица,344041,47.2461814,39.6172476
30А,Долинская улица,344041,47.2461924,39.6171345
28,Долинская улица,344041,47.2462575,39.6174085
25А,Красивая улица,344041,47.2460000,39.6176973
26,Долинская улица,344041,47.2462017,39.6177796
23А,Красивая улица,344041,47.2459863,39.6179399
24,Долинская улица,344041,47.2462120,39.6179246
18,Долинская улица,344041,47.2462878,39.6188345
22,Долинская улица,344041,47.2462785,39.6182862
20,Долинская улица,344041,47.2462242,39.6184925
19,Красивая улица,344041,47.2460284,39.6184881
21,Красивая улица,344041,47.2460319,39.6183906
17,Красивая улица,344041,47.2459953,39.6188234
15А,Красивая улица,344041,47.2460218,39.6189550
15,Красивая улица,344041,47.2459491,39.6191316
16,Долинская улица,344041,47.2462001,39.6190678
38,Воздушная улица,344000,47.2566037,39.6235704
40,Воздушная улица,344000,47.2564348,39.6238711
15,Реактивная улица,344091,47.2580646,39.6217915
11А,Реактивная улица,344091,47.2581872,39.6212550
10А,улица Веры Пановой,334112,47.2564947,39.7771405
25,улица Циолковского,344033,47.1922055,39.6261768
30,Камышинская улица,344033,47.1929491,39.6252930
66Б,переулок Урицкого,344033,47.1962959,39.6303265
9,Гипсовая улица,344033,47.1942792,39.6270663
107,Кузнечная улица,344033,47.1933564,39.6376297
14,Строительный переулок,344033,47.1937124,39.6367781
2А,1-й Буковый переулок,344033,47.1942013,39.6370158
78,Магнитогорская улица,344033,47.1953576,39.6366881
3,2-й Буковый переулок,344033,47.1949784,39.6381844
80,переулок Богачёва,344033,47.1959774,39.6395478
27,Магнитогорская улица,344033,47.1958896,39.6378374
21,3-я Степная улица,344033,47.1974045,39.6386928
48,Строительный переулок,344033,47.1976382,39.6366389
23,Строительный переулок,344033,47.1949221,39.6363610
12А,Жлобинский переулок,344033,47.1935480,39.6338707
14,Жлобинский переулок,344033,47.1936996,39.6338520
16,Жлобинский переулок,344033,47.1938249,39.6338717
20,бульвар Платова,344116,47.2005748,39.6467855
21Д,Пряничная улица,344029,47.2459418,39.8285334
167/16,Батуринская улица,344116,47.2008722,39.6445776
169,Батуринская улица,344116,47.2008137,39.6434974
26,улица Варфоломеева,344013,47.2263351,39.6807867
34,Балочная улица,344013,47.2273872,39.6775531
3 с2,Стабильная улица,344090,47.2164218,39.6239495
26,Напорная улица,344000,47.2508865,39.6178269
48,Напорная улица,344000,47.2519054,39.6152740
52,Напорная улица,344000,47.2520551,39.6146959
16,Факельная улица,344000,47.2512495,39.6202815
12,переулок Нефтекачка,344000,47.2526467,39.6183967
32/3,1-я Ритмичная улица,344000,47.2563024,39.6222803
14А,1-я Ритмичная улица,344091,47.2568558,39.6199708
11,1-я Ритмичная улица,344091,47.2571924,39.6200558
1/2,Привокзальная площадь,344001,47.2190743,39.6908051
52А,Днепропетровская улица,344093,47.2887966,39.8042870
38А,улица Пескова,344091,47.1974381,39.6101023
45Д,Большая Садовая улица,344002,47.2209833,39.7107448
35Б,улица Евдокимова,344068,47.2735368,39.7105913
14Б,Стартовая улица,344092,47.2930870,39.6923914
14А,проспект Королёва,344113,47.2944516,39.7092537
225,улица Максима Горького,344022,47.2302942,39.7291644
110 с1,улица Тельмана,344000,47.2330096,39.7285157
6,улица Искателей,344055,47.2331232,39.5353585
25,Орбитальная улица,344114,47.3032443,39.7304852
23,Орбитальная улица,344114,47.3031213,39.7294491
26В,улица Беляева,344114,47.3007968,39.7255009
17,улица Яковлева,344041,47.2496323,39.6471612
11,улица Бусыгина,344041,47.2477710,39.6473615
12/1Б,улица Васильева,344041,47.2477421,39.6490283
4,переулок Коблова,344049,47.2294926,39.6070565
54А,улица Ерёменко,344015,47.2309728,39.6253241
19/46,14-я линия,344019,47.2328142,39.7564118
100/36,Манычский переулок,344056,47.2823973,39.7515497
34,Украинская улица,344056,47.2823793,39.7517734
32,Украинская улица,344056,47.2822356,39.7518627
104,Манычский переулок,344056,47.2826411,39.7516358
102,Манычский переулок,344056,47.2824821,39.7516241
106,Манычский переулок,344056,47.2827920,39.7517519
108,Манычский переулок,344056,47.2828546,39.7519482
110,Манычский переулок,344056,47.2829790,39.7518887
112,Манычский переулок,344056,47.2831123,39.7520235
114,Манычский переулок,344056,47.2832430,39.7520284
118,Манычский переулок,344056,47.2834694,39.7522266
116,Манычский переулок,344056,47.2833438,39.7523211
90/124,Вятская улица,344056,47.2837660,39.7523434
122,Манычский переулок,344056,47.2836547,39.7522744
120,Манычский переулок,344056,47.2835726,39.7523320
92/123,Вятская улица,344056,47.2836344,39.7527275
121,Сальский переулок,344056,47.2835082,39.7527219
119,Сальский переулок,344056,47.2833329,39.7526196
117,Сальский переулок,344056,47.2832301,39.7525817
115,Сальский переулок,344056,47.2831257,39.7525968
113,Сальский переулок,344056,47.2829926,39.7525383
111,Сальский переулок,344056,47.2828924,39.7524650
109,Сальский переулок,344056,47.2827682,39.7523760
107,Сальский переулок,344056,47.2826306,39.7523038
105,Сальский переулок,344056,47.2824854,39.7522711
39,Вятская улица,344095,47.2849534,39.7516495
42/110,Украинская улица,344056,47.2825503,39.7504938
40,Украинская улица,344056,47.2824806,39.7507904
38/111,Украинская улица,344056,47.2824070,39.7511308
111Б,Манычский переулок,344056,47.2825157,39.7511991
113,Манычский переулок,344056,47.2826711,39.7510171
115,Манычский переулок,344056,47.2827296,39.7513199
117,Манычский переулок,344056,47.2828530,39.7513835
119,Манычский переулок,344056,47.2829811,39.7514760
125,Манычский переулок,344056,47.2833474,39.7516251
123,Манычский переулок,344056,47.2832190,39.7515718
121,Манычский переулок,344056,47.2830934,39.7515297
127,Манычский переулок,344056,47.2834770,39.7515460
129,Манычский переулок,344056,47.2836351,39.7518322
131,Манычский переулок,344056,47.2837881,39.7518786
88,Вятская улица,344056,47.2839271,39.7516922
86А,Вятская улица,344056,47.2838844,39.7515115
86/132,Вятская улица,344056,47.2840303,39.7513077
130,Кубанский переулок,344056,47.2839040,39.7512926
128,Кубанский переулок,344056,47.2837308,39.7512844
126А,Кубанский переулок,344056,47.2836509,39.7511305
124,Кубанский переулок,344056,47.2835029,39.7510360
126,Кубанский переулок,344056,47.2835366,39.7512790
122,Кубанский переулок,344056,47.2833770,39.7509742
120,Кубанский переулок,344056,47.2832659,39.7509282
118,Кубанский переулок,344056,47.2831120,39.7508990
116,Кубанский переулок,344056,47.2830135,39.7508428
114,Кубанский переулок,344056,47.2829135,39.7507622
112,Кубанский переулок,344056,47.2827956,39.7506594
84/139,Вятская улица,344056,47.2841164,39.7508812
131,Кубанский переулок,344056,47.2836193,39.7506279
133,Кубанский переулок,344056,47.2837639,39.7508241
135,Кубанский переулок,344056,47.2838438,39.7508727
137,Кубанский переулок,344056,47.2839879,39.7509194
125,Кубанский переулок,344056,47.2831709,39.7504780
129,Кубанский переулок,344056,47.2834687,39.7504222
127,Кубанский переулок,344056,47.2833390,39.7503308
123,Кубанский переулок,344056,47.2830582,39.7504301
121,Кубанский переулок,344056,47.2829450,39.7503779
119,Кубанский переулок,344056,47.2828381,39.7501481
44/117,Украинская улица,344056,47.2826109,39.7501707
48/110,Украинская улица,344056,47.2828197,39.7496560
46,Украинская улица,344056,47.2826960,39.7497892
112А,Хибинский переулок,344056,47.2830872,39.7497553
112,Хибинский переулок,344056,47.2829820,39.7496683
114,Хибинский переулок,344056,47.2831433,39.7500036
116,Хибинский переулок,344056,47.2833488,39.7498583
118,Хибинский переулок,344056,47.2835114,39.7500120
82/130,Вятская улица,344056,47.2842162,39.7503418
128,Хибинский переулок,344056,47.2841589,39.7503213
126,Хибинский переулок,344056,47.2839828,39.7502487
122,Хибинский переулок,344056,47.2838524,39.7501419
124,Хибинский переулок,344056,47.2839037,39.7502578
120,Хибинский переулок,344056,47.2836537,39.7502256
54/114,Украинская улица,344056,47.2829627,39.7485982
52,Украинская улица,344056,47.2828948,39.7489341
50/107,Украинская улица,344056,47.2829519,39.7492363
118,Ухтомский переулок,344056,47.2833146,39.7487701
116,Ухтомский переулок,344056,47.2832088,39.7487119
120,Ухтомский переулок,344056,47.2834566,39.7488255
122,Ухтомский переулок,344056,47.2835689,39.7488921
124,Ухтомский переулок,344056,47.2836719,39.7489601
126,Ухтомский переулок,344056,47.2838150,39.7490409
128,Ухтомский переулок,344056,47.2839204,39.7491053
130,Ухтомский переулок,344056,47.2839510,39.7493807
132,Ухтомский переулок,344056,47.2841478,39.7494504
134,Ухтомский переулок,344056,47.2843027,39.7493085
78/136,Вятская улица,344056,47.2844457,39.7493834
78,Вятская улица,344056,47.2844906,39.7494578
78А,Вятская улица,344056,47.2844185,39.7496031
80/127,Вятская улица,344056,47.2843697,39.7499503
125,Хибинский переулок,344056,47.2842101,39.7498257
123,Хибинский переулок,344056,47.2839026,39.7497934
119,Хибинский переулок,344056,47.2836439,39.7496641
121,Хибинский переулок,344056,47.2837791,39.7497102
109,Хибинский переулок,344056,47.2830833,39.7491284
111,Хибинский переулок,344056,47.2831843,39.7493908
113,Хибинский переулок,344056,47.2833014,39.7494449
115,Хибинский переулок,344056,47.2834153,39.7495381
115,Хибинский переулок,344056,47.2835236,39.7495768
49/82,Украинская улица,344056,47.2818247,39.7524593
37,Вятская улица,344095,47.2852735,39.7499859
1В с2,улица Шаповалова,344039,47.2518776,39.6603897
1В с1,улица Шаповалова,344039,47.2516991,39.6593973
39/4,Вятская улица,344095,47.2855139,39.7508565
12А,3-я Ладная улица,344064,47.2748213,39.6792605
7/1,Строевой переулок,344064,47.2752823,39.6806122
15,Крепкая улица,344064,47.2762077,39.6786569
21/2,Строевой переулок,344064,47.2771903,39.6801392
11,Шёлковая улица,346735,47.3128569,39.7480055
12Е,улица Миронова,344045,47.3000247,39.7478244
4,улица Миронова,344045,47.2976946,39.7436254
100/70,улица Ерёменко,344049,47.2316477,39.5929348
5,3-я Деловая улица,344090,47.2208051,39.6256288
4,Юношеский переулок,344033,47.1891833,39.6273083
63Г,Набережная улица,344033,47.1905426,39.6243211
71,Набережная улица,344033,47.1897278,39.6244772
6А,переулок Пржевальского,344033,47.1907573,39.6227815
6,переулок Пржевальского,344033,47.1906197,39.6229575
41,Всесоюзная улица,344033,47.1931669,39.6193651
30,Зональный переулок,344023,47.2505751,39.7355519
237,2-я улица Володарского,344033,47.1978963,39.6520962
1Г с1,улица Шаповалова,344039,47.2520232,39.6612534
1Г с2,улица Шаповалова,344039,47.2521544,39.6620647
1Д,улица Шаповалова,344039,47.2523088,39.6628622
2/13/1,улица Менжинского,344029,47.2514105,39.7587908
14,11-й Путеводный переулок,344055,47.2382886,39.5731080
3/1,улица Шостаковича,344065,47.3130164,39.7873904
2/1,переулок Алябьева,344065,47.3130168,39.7869701
30,улица Малиновского,344000,47.2107743,39.6139029
1А,улица 1-й Конной Армии,344023,47.2461514,39.7559205
103/1 с2,улица Нансена,344038,47.2467941,39.7007355
103/1 с3,улица Нансена,344038,47.2467924,39.7013470
116 с2,Доломановский переулок,344018,47.2344171,39.6926263
423,Портовая улица,344033,47.1936947,39.6498109
7,Зеркальный переулок,344034,47.2115113,39.6940371
159,Белорусская улица,344056,47.2826048,39.7348411
136,улица Войкова,344033,47.1953443,39.6569991
89Б/3,улица Ерёменко,344103,47.2327076,39.6098759
20,Берберовская улица,344072,47.2422472,39.8067686
37Л с1,проспект 40-летия Победы,344072,47.2411278,39.8066985
12,Берберовская улица,344072,47.2405352,39.8040220
101/6 с1,улица Вересаева,344072,47.2399002,39.8025629
101/3 с1,улица Вересаева,344072,47.2398802,39.7997895
101/2 с1,улица Вересаева,344072,47.2415901,39.8017072
101/1 с1,улица Вересаева,344072,47.2415790,39.7999264
32 с1,Берберовская улица,344072,47.2431506,39.8113123
28 с1,Берберовская улица,344072,47.2431233,39.8094938
26 с1,Берберовская улица,344072,47.2431233,39.8081500
22 с1,Берберовская улица,344072,47.2431288,39.8063421
16 с1,Берберовская улица,344072,47.2431233,39.8049984
8 с1,Берберовская улица,344072,47.2431236,39.8031986
6 с1,Берберовская улица,344072,47.2431052,39.8018507
2/101 с1,Берберовская улица,344072,47.2431098,39.8000373
1Е с1,улица Шаповалова,344039,47.2525062,39.6636516
1Е с2,улица Шаповалова,344039,47.2528204,39.6644193
4 с3,2-я Баррикадная улица,344004,47.2140259,39.6664630
57А,Горсоветская улица,344030,47.2405959,39.7782472
27,Орбитальная улица,344114,47.3033571,39.7315809
20,2-я Заводская улица,344033,47.1982005,39.6290757
9,проспект Сельмаш,344029,47.2544011,39.7650436
31 с5,Нижегородская улица,344019,47.2224968,39.7486138
21,улица Ткачёва,344049,47.2244872,39.5955358
23,улица Ткачёва,344049,47.2241725,39.5946072
25,улица Ткачёва,344049,47.2248955,39.5937158
17,Доломановский переулок,344082,47.2202079,39.6972971
31 с3,Нижегородская улица,344019,47.2232679,39.7480336
13,улица Александра Печёрского,344010,47.3213439,39.6916037
11,улица Александра Печёрского,344010,47.3213873,39.6902833
4/9,переулок Андреева,344010,47.3213633,39.6888900
58,Курортная улица,344116,47.2074365,39.6658375
57,Горсоветская улица,344030,47.2409577,39.7776987
51/36,улица Шапкина,344055,47.2348109,39.5540688
42,Динамичная улица,344093,47.3029870,39.7986607
46,Динамичная улица,344093,47.3029134,39.7982684
48,Динамичная улица,344093,47.3028586,39.7980412
50,Динамичная улица,344093,47.3028902,39.7978064
52,Динамичная улица,344093,47.3027738,39.7975366
7А,Клюквенный переулок,344068,47.2677325,39.7019284
231,Тракторная улица,344068,47.2667543,39.7003738
21,Таллинский переулок,344111,47.2320182,39.8235945
44,Таллинский переулок,344111,47.2337627,39.8227661
15/3,улица Александра Печёрского,344010,47.3213267,39.6926775
5,переулок Амет-Хана Султана,344010,47.3222186,39.6926923
6/10,улица Висаитова,344010,47.3240210,39.6897887
8,переулок Андреева,344010,47.3233370,39.6888976
6,переулок Андреева,344010,47.3222879,39.6890518
14 с2,переулок Белоусова,344010,47.3256775,39.6847281
18,2-я Огневая улица,344069,47.2838285,39.6661434
129,Почётная улица,344069,47.2817297,39.6644960
49 с2,Горсоветская улица,344030,47.2423382,39.7785818
51 с3,Горсоветская улица,344030,47.2411065,39.7786000
51 с2,Горсоветская улица,344030,47.2414178,39.7784563
103/1 с4,улица Нансена,344038,47.2467977,39.7019385
1Б с3,Тибетская улица,344068,47.2640337,39.7297346
19А с1,улица Жмайлова,344090,47.2138032,39.6195570
63/17 с3,проспект 40-летия Победы,344072,47.2414778,39.8089456
63/17 с1,проспект 40-летия Победы,344072,47.2413323,39.8076934
63/17 с4,проспект 40-летия Победы,344072,47.2416044,39.8103234
63/17 с6,проспект 40-летия Победы,344072,47.2417691,39.8115911
63/17 с7,проспект 40-летия Победы,344072,47.2419787,39.8128425
63/17 с8,проспект 40-летия Победы,344072,47.2421264,39.8138371
2,улица Шолохова-Синявского,344065,47.3179891,39.7888966
22/17,Художественная улица,344065,47.3149568,39.7966739
18,улица Тимофеева,344065,47.3163325,39.7975084
13,Художественная улица,344065,47.3158629,39.7967772
20,Художественная улица,344065,47.3154019,39.7960464
35,Заводская улица,344033,47.1982206,39.6299789
20,Спартаковская улица,344004,47.2120685,39.6733758
66/151,3-я Круговая улица,344033,47.2028950,39.6539018
117 с2,Днепровский переулок,344065,47.2880634,39.7525105
117 с1,Днепровский переулок,344065,47.2884392,39.7524124
78,Красноармейская улица,344082,47.2248304,39.7014269
1,Орбитальная улица,344113,47.3027015,39.6952492
68,улица Еляна,344049,47.2309725,39.5929137
20 с4,улица Оганова,344069,47.2709454,39.6673532
20 с3,улица Оганова,344069,47.2712223,39.6654119
137 с2,Университетский переулок,344000,47.2341171,39.7230855
103В с1,улица Вересаева,344072,47.2391186,39.7994441
10,Берберовская улица,344072,47.2419282,39.8044234
15,Памирский переулок,344068,47.2630233,39.7308701
83 с1,улица Нансена,344079,47.2460528,39.6896085
51 с1,Горсоветская улица,344030,47.2414980,39.7775239
1Ж,улица Шаповалова,344039,47.2530785,39.6652027
20 с5,улица Оганова,344069,47.2697923,39.6670881
22,улица Оганова,344069,47.2721613,39.6654889
456,Портовая улица,344033,47.1928366,39.6405569
103/1 с9,улица Нансена,344038,47.2456215,39.7025474
103/1 с7,улица Нансена,344038,47.2456999,39.7013927
103/1 с8,улица Нансена,344038,47.2456279,39.7019653
103/1 с11,улица Нансена,344038,47.2461560,39.7027012
103/1 с10,улица Нансена,344038,47.2461669,39.7008200
1А,Лавровая улица,344041,47.2315533,39.6445193
1/10,Лавровая улица,344041,47.2315289,39.6444126
157В/83 с1,Красноармейская улица,344000,47.2341835,39.7377259
157В/83с2,Красноармейская улица,344000,47.2341455,39.7370368
6,Художественная улица,344065,47.3169668,39.7915007
20,улица Шолохова-Синявского,344029,47.3190251,39.8003666
75/6,улица 40-Летия Победы,344027,47.2436783,39.8242177
101/3 с3,улица Вересаева,344072,47.2408300,39.8007755
2/10 с2,улица Висаитова,344010,47.3239229,39.6846745
17,переулок Андреева,344010,47.3283903,39.6871797
20,переулок Белоусова,344010,47.3284003,39.6847454
17А,переулок Андреева,344010,47.3283921,39.6859753
15,улица Юрия Дубинина,344010,47.3323812,39.6855192
12,улица Дмитрия Петрова,344010,47.3328819,39.6860537
131Г,Днепровский переулок,344095,47.2863487,39.7553023
4 с1,Таврическая улица,344012,47.2417562,39.6869262
1,улица 8-го Марта,344039,47.2434540,39.6831617
1В с1,Тибетская улица,344068,47.2646534,39.7284673
16Е,улица Туполева,344093,47.2823800,39.8058292
13А,улица Зорге,344090,47.2196834,39.6298571
1В,улица Железнодорожный Нижний Проезд,344034,47.1986652,39.6811997
24/45,2-я Романтичная улица,344039,47.2545953,39.6589899
32 с3,проспект Сиверса,344011,47.2249705,39.6851118
26,проспект Сиверса,344011,47.2251041,39.6873378
1/20,переулок Крючкова,344116,47.1997283,39.6445277
3 с3,Стабильная улица,344090,47.2157951,39.6235349
124Н,Днепровский переулок,344065,47.2889714,39.7645111
24,Травяная улица,344093,47.2809938,39.8010572
20/22,Травяная улица,344093,47.2809821,39.8015485
3,переулок Крючкова,344116,47.1996715,39.6432684
146,2-я улица Володарского,344116,47.2027808,39.6604332
28/40,Халтуринский переулок,344082,47.2178569,39.7033854
30,Братский переулок,344082,47.2172942,39.7009381
17,2-я Ноябрьская улица,344039,47.2446824,39.6615015
212с6,Пушкинская улица,344022,47.2286134,39.7383486
213,улица Нансена,344038,47.2448090,39.7205450
6,Обуховский переулок,344038,47.2451968,39.7198225
55,Турмалиновская улица,344038,47.2456259,39.7201436
14,Цветная улица,344041,47.2446260,39.6484108
1Г,Будённовский проспект,344002,47.2148154,39.7094314
40,улица Шаумяна,344002,47.2188956,39.7058672
20 с6,улица Оганова,344069,47.2698905,39.6680240
5,улица Юрия Дубинина,344010,47.3306329,39.6894750
6,улица Дмитрия Петрова,344010,47.3317032,39.6894781
9,улица Юрия Дубинина,344010,47.3310265,39.6884455
8,улица Дмитрия Петрова,344010,47.3320813,39.6884378
13,улица Юрия Дубинина,344010,47.3315128,39.6874499
12с1,Береговая улица,344002,47.2135972,39.7131131
9Д,проспект Шолохова,344019,47.2384627,39.7472748
9,улица 1-й Конной Армии,344029,47.2490589,39.7602665
102В,улица Вересаева,344072,47.2391540,39.7983246
102В,улица Вересаева,344072,47.2391422,39.7983627
102В,улица Вересаева,344072,47.2390671,39.7983733
169Б с2,2-я Краснодарская улица,344091,47.2022679,39.6119156
46/2,проспект Ленина,344038,47.2501335,39.7073496
1В с11,Тибетская улица,344068,47.2643623,39.7288786
1В с3,Тибетская улица,344068,47.2650622,39.7298864
30,улица Ткачёва,344049,47.2263500,39.5939964
42 с2,улица Ткачёва,344047,47.2269728,39.5850214
148А,улица Доватора,344015,47.2382177,39.6011796
18,проспект Маршала Жукова,344049,47.2246893,39.6013983
1Е с5,бульвар Комарова,344096,47.2880451,39.6924829
16,улица 339-й Стрелковой Дивизии,344015,47.2249566,39.6179516
88,Дневная улица,344064,47.2961453,39.6749522
86,Дневная улица,344064,47.2961683,39.6751558
84/79,Дневная улица,344064,47.2962200,39.6753698
77,Верная улица,344064,47.2963780,39.6749559
83,Верная улица,344064,47.2964229,39.6738828
96,Дневная улица,344064,47.2961210,39.6738278
98,Дневная улица,344064,47.2961827,39.6736405
60/100,2-й Июльский переулок,344064,47.2961164,39.6733639
60А,2-й Июльский переулок,344064,47.2962384,39.6733672
109/79,Верная улица,344064,47.2960959,39.6699881
156,Дневная улица,344064,47.2955298,39.6663832
154,Дневная улица,344064,47.2955129,39.6665132
152,Дневная улица,344064,47.2955130,39.6666383
150,Дневная улица,344064,47.2955035,39.6667628
148,Дневная улица,344064,47.2955775,39.6669297
106А,9-я Канатная улица,344069,47.2938424,39.6633916
18А,Зрелищная улица,344064,47.2946386,39.6640113
82А,8-я Канатная улица,344069,47.2932027,39.6663616
23,Красивая улица,344041,47.2459874,39.6180600
25,Красивая улица,344041,47.2460017,39.6178105
27,Красивая улица,344041,47.2459935,39.6175300
27А,Красивая улица,344041,47.2459924,39.6174141
20 с1,улица Оганова,344069,47.2693733,39.6658523
20 с2,улица Оганова,344069,47.2702783,39.6656328
20 с9,улица Оганова,344069,47.2702060,39.6687120
20 с11,улица Оганова,344069,47.2716337,39.6666180
8,Равнинная улица,344065,47.3027775,39.7815043
49 с3,Горсоветская улица,344030,47.2419094,39.7795041
81А,улица Боряна,344114,47.2999111,39.7328040
89,улица Боряна,344114,47.3004429,39.7331739
91А,улица Боряна,344114,47.3004622,39.7335430
88А,Каменобродская улица,344114,47.3007373,39.7334037
95,улица Боряна,344114,47.3008410,39.7337486
90,Каменобродская улица,344114,47.3009261,39.7335282
88,Каменобродская улица,344114,47.3008296,39.7332358
3,Камчатский переулок,344068,47.2643493,39.7224913
4,улица Теряева,344065,47.3157925,39.7882215
225,Таганрогская улица,344016,47.2602586,39.6224695
227,Таганрогская улица,344016,47.2603089,39.6223427
19,Купеческая улица,344058,47.2007781,39.6347908
27 с2,улица Платона Кляты,344010,47.3173277,39.6890149
18/3 с3,бульвар Комарова,344092,47.2905901,39.7002831
1Б с4,Тибетская улица,344068,47.2641674,39.7297545
45 с6,улица Ларина,344068,47.2582777,39.7136360
95 с3,улица Шеболдаева,344064,47.2591877,39.6884103
20 с10,улица Оганова,344069,47.2703788,39.6660873
83,улица Нансена,344079,47.2462144,39.6903399
93 с2,улица Нансена,344079,47.2464670,39.6952084
4 с2,Таврическая улица,344012,47.2412429,39.6869349
13Б,Пушкинская улица,344082,47.2221062,39.6991163
117Б с2,Береговая улица,344082,47.2225900,39.7777190
33б стр 6,ул. Малиновского,344049,47.2350981,39.6122454
33б стр 4,ул. Малиновского,344049,47.2353612,39.6096408
63/17 с9,проспект 40-летия Победы,344072,47.2411421,39.8089372
63/17 с10,проспект 40-летия Победы,344072,47.2414688,39.8115551
6 с3,Берберовская улица,344072,47.2440214,39.8011067
2/101 с3,Берберовская улица,344072,47.2440191,39.8007780
26 с3,Берберовская улица,344072,47.2440448,39.8074056
22 с3,Берберовская улица,344072,47.2440426,39.8070762
16 с3,Берберовская улица,344072,47.2440318,39.8042498
8 с3,Берберовская улица,344072,47.2440297,39.8039318
101/6 с3,улица Вересаева,344072,47.2408196,39.8015336
101/2 с3,улица Вересаева,344072,47.2423087,39.8009689
101/1 с3,улица Вересаева,344072,47.2423040,39.8006557
32 с3,Берберовская улица,344072,47.2440651,39.8105515
28 с3,Берберовская улица,344072,47.2440609,39.8102278
64,3-й Лазоревый переулок,344010,47.3274883,39.6758063
63,улица Димитрова,344112,47.2559085,39.7893872
30 с4,улица Веры Пановой,344112,47.2575839,39.7734633
13В с2,улица 1-й Конной Армии,344029,47.2504850,39.7617177
71,Охотский переулок,344056,47.2817360,39.7287721
73,Охотский переулок,344056,47.2815297,39.7286359
72,Сахалинский переулок,344056,47.2817644,39.7285416
103Б,Татарская улица,344056,47.2822404,39.7287769
103В,Татарская улица,344056,47.2822558,39.7287186
103Г,Татарская улица,344056,47.2822711,39.7286604
103Д,Татарская улица,344056,47.2822865,39.7286022
103А,Татарская улица,344056,47.2822251,39.7288352
2А с2,Раздорская улица,344068,47.2739883,39.7350310
22А,Инженерная улица,344064,47.2698360,39.6957473
24,Инженерная улица,344064,47.2688751,39.6955396
131,Петрозаводская улица,344103,47.2263545,39.6360836
77,Снеговой переулок,344103,47.2262973,39.6356102
40 с2,улица Ткачёва,344047,47.2265900,39.5865863
37,Почётная улица,344064,47.2823653,39.6770221
41А,Почётная улица,344064,47.2822864,39.6764395
45,Почётная улица,344064,47.2823487,39.6758898
49/16,Почётная улица,344064,47.2823642,39.6754635
16А,2-й Крылатый переулок,344064,47.2822305,39.6754859
50/14,Решительная улица,344064,47.2819126,39.6754327
48,Решительная улица,344064,47.2819473,39.6758619
42А,Решительная улица,344064,47.2819821,39.6764955
42,Решительная улица,344064,47.2821270,39.6765949
40А,Решительная улица,344064,47.2820868,39.6767616
40,Решительная улица,344064,47.2820894,39.6768675
38,Решительная улица,344064,47.2820284,39.6770308
34,Решительная улица,344064,47.2821738,39.6776338
32/15,Решительная улица,344064,47.2821782,39.6777860
1А,Гарнизонный переулок,344049,47.2332442,39.6045747
97,Сиреневая улица,344065,47.3169094,39.7711703
99,Сиреневая улица,344065,47.3169548,39.7709653
95,Сиреневая улица,344065,47.3170164,39.7713131
93/25,Сиреневая улица,344065,47.3169044,39.7714540
108,Гераневая улица,344065,47.3172142,39.7705706
106,Гераневая улица,344065,47.3171703,39.7708312
102А,Гераневая улица,344065,47.3171951,39.7709527
102,Гераневая улица,344065,47.3171609,39.7710563
100А,Гераневая улица,344065,47.3171807,39.7712200
100,Гераневая улица,344065,47.3171642,39.7713502
27/98 с1,Анисовый переулок,344065,47.3171321,39.7715338
27/98 с2,Анисовый переулок,344065,47.3172342,39.7715637
54,2-й Санинструкторский переулок,344055,47.2361085,39.5541029
38,2-й Санинструкторский переулок,344055,47.2349383,39.5540458
1Е,Магнитогорская улица,344033,47.1957848,39.6221891
3 с4,Стабильная улица,344090,47.2163618,39.6229878
3 с5,Стабильная улица,344090,47.2156732,39.6230420
3 с1,Стабильная улица,344090,47.2160334,39.6246937
19А с2,улица Жмайлова,344090,47.2133058,39.6201311
72/9,Искристая улица,344065,47.3076530,39.7734089
74,Искристая улица,344065,47.3077103,39.7732571
74А,Искристая улица,344065,47.3077220,39.7731441
76,Искристая улица,344065,47.3077078,39.7728988
90/6,Искристая улица,344065,47.3078775,39.7711269
86,Искристая улица,344065,47.3078340,39.7716822
82,Искристая улица,344065,47.3078202,39.7721703
80А,Искристая улица,344065,47.3078057,39.7723465
80,Искристая улица,344065,47.3077911,39.7724691
34,2-я Кондитерская улица,344065,47.3127521,39.7598561
40,2-я Кондитерская улица,344065,47.3128397,39.7590934
42,2-я Кондитерская улица,344065,47.3128730,39.7588339
31,1-я Кондитерская улица,344065,47.3131843,39.7601741
33,1-я Кондитерская улица,344065,47.3132128,39.7598991
35,1-я Кондитерская улица,344065,47.3132270,39.7596249
37,1-я Кондитерская улица,344065,47.3132408,39.7593149
39,1-я Кондитерская улица,344065,47.3132762,39.7591798
16/43,1-й Кулинарный переулок,344065,47.3133036,39.7586104
41,1-я Кондитерская улица,344065,47.3133073,39.7587777
6/6 с3,Левобережная улица,344002,47.2070559,39.7569589
16/189,Кремовый переулок,344065,47.3008448,39.7564907
179/20,Пейзажная улица,344065,47.3008498,39.7577769
20А,Детальный переулок,344065,47.3007432,39.7577672
18Б,Детальный переулок,344065,47.3006150,39.7577771
18А,Детальный переулок,344065,47.3005285,39.7577790
174/18,Ракитная улица,344065,47.3004403,39.7577908
180,Ракитная улица,344065,47.3005372,39.7570054
178,Ракитная улица,344065,47.3004602,39.7572052
182,Ракитная улица,344065,47.3004782,39.7567824
184/14,Ракитная улица,344065,47.3004560,39.7564925
229,Таганрогская улица,344016,47.2602314,39.6222189
30,Пёстрая улица,344065,47.3069979,39.7589485
32,Пёстрая улица,344065,47.3069639,39.7587183
26,Пёстрая улица,344065,47.3069829,39.7599523
26А,Пёстрая улица,344065,47.3070161,39.7598308
1,Старочеркасский переулок,344039,47.2487395,39.6755062
72,Энергичная улица,344064,47.2945365,39.6678722
60,Энергичная улица,344064,47.2946285,39.6695168
60А,Энергичная улица,344064,47.2946302,39.6694080
113,Встречная улица,344064,47.2948208,39.6697763
115 с1,Встречная улица,344064,47.2949026,39.6694040
117,Встречная улица,344064,47.2949136,39.6692376
123,Встречная улица,344064,47.2949450,39.6684613
125,Встречная улица,344064,47.2949675,39.6681387
129/54,Встречная улица,344064,47.2949636,39.6676383
52,4-й Июльский переулок,344064,47.2948215,39.6675922
50А,4-й Июльский переулок,344064,47.2946900,39.6675996
50/74,4-й Июльский переулок,344064,47.2945541,39.6675928
72А,Энергичная улица,344064,47.2946797,39.6677753
70,Энергичная улица,344064,47.2946774,39.6681703
66А,Энергичная улица,344064,47.2946578,39.6685960
66,Энергичная улица,344064,47.2946649,39.6687166
64А,Энергичная улица,344064,47.2946622,39.6688628
64,Энергичная улица,344064,47.2946654,39.6689808
128А,улица Гусева,344001,47.2219037,39.6692967
4,Доброхимовская улица,344116,47.2090647,39.6619756
21,2-я Астрономическая улица,344069,47.2851950,39.6644359
91,Заповедная улица,344065,47.2996586,39.7700836
92,Знакомая улица,344065,47.2993570,39.7701048
26А,улица Степана Разина,344065,47.2206474,39.6609832
21/10,переулок Поленова,344065,47.3155119,39.7904581
8,улица Теряева,344065,47.3156024,39.7893097
67,Архитектурная улица,344065,47.3037351,39.7690782
67А,Архитектурная улица,344065,47.3037294,39.7689593
75/33,Архитектурная улица,344065,47.3037706,39.7680670
73А,Архитектурная улица,344065,47.3037650,39.7682159
73,Архитектурная улица,344065,47.3036915,39.7683278
65/36,Архитектурная улица,344065,47.3036427,39.7692533
96/34,Долгая улица,344065,47.3033944,39.7693062
100,Долгая улица,344065,47.3034082,39.7687354
102,Долгая улица,344065,47.3034256,39.7685695
104А,Долгая улица,344065,47.3035232,39.7683279
104,Долгая улица,344065,47.3034101,39.7681616
106/31,Долгая улица,344065,47.3034746,39.7679396
190/20,Облачная улица,344065,47.3104855,39.7581141
188,Облачная улица,344065,47.3104775,39.7583894
186,Облачная улица,344065,47.3104381,39.7586484
184А,Облачная улица,344065,47.3105014,39.7588721
184,Облачная улица,344065,47.3103707,39.7589367
182,Облачная улица,344065,47.3104673,39.7591969
180,Облачная улица,344065,47.3103325,39.7594073
17А,2-й Марочный переулок,344065,47.3104925,39.7605246
172/15,Облачная улица,344065,47.3103466,39.7604612
174 с1,Облачная улица,344065,47.3103481,39.7601599
22А,1-й Марочный переулок,344065,47.3106928,39.7582103
189/22,Грациозная улица,344065,47.3108249,39.7582359
187,Грациозная улица,344065,47.3107234,39.7584303
185,Грациозная улица,344065,47.3107819,39.7586949
183,Грациозная улица,344065,47.3107584,39.7590117
181А,Грациозная улица,344065,47.3106910,39.7591607
181,Грациозная улица,344065,47.3106806,39.7592797
177 с1,Грациозная улица,344065,47.3106456,39.7598232
175А,Грациозная улица,344065,47.3106097,39.7599697
175,Грациозная улица,344065,47.3105949,39.7600941
49,Араратский переулок,344041,47.2325895,39.6428360
9,Кукурузный переулок,344041,47.2320114,39.6431676
11,Кукурузный переулок,344041,47.2321882,39.6432749
13А,Кукурузный переулок,344041,47.2324111,39.6430639
13,Кукурузный переулок,344041,47.2323297,39.6431005
110/15,улица Мадояна,344041,47.2320989,39.6428564
110/16,улица Мадояна,344041,47.2321843,39.6425686
55Б,Роговский переулок,344048,47.2285849,39.8161415
224,улица Солидарности,344048,47.2297920,39.8164413
69,Роговский переулок,344048,47.2296298,39.8164711
61,Роговский переулок,344048,47.2290893,39.8164288
55,Роговский переулок,344048,47.2285649,39.8163030
55А,Роговский переулок,344048,47.2287295,39.8164365
57,Роговский переулок,344048,47.2288183,39.8164496
57А,Роговский переулок,344048,47.2289325,39.8164734
59,Роговский переулок,344048,47.2290208,39.8165367
63,Роговский переулок,344048,47.2291723,39.8164017
67,Роговский переулок,344048,47.2295206,39.8164689
65,Роговский переулок,344048,47.2294067,39.8165238
36,Летописная улица,344058,47.2043108,39.6435933
49,Поэтичная улица,344058,47.2040195,39.6418665
47,Поэтичная улица,344058,47.2041718,39.6419863
45,Поэтичная улица,344058,47.2041874,39.6422276
41,Поэтичная улица,344058,47.2044405,39.6427507
39,Поэтичная улица,344058,47.2045524,39.6430553
35,Поэтичная улица,344058,47.2045697,39.6434844
7/33,Алфавитный переулок,344058,47.2046392,39.6436249
5/34,Алфавитный переулок,344058,47.2043090,39.6438845
38,Летописная улица,344058,47.2041718,39.6435332
40,Летописная улица,344058,47.2041259,39.6432000
42,Летописная улица,344058,47.2040563,39.6430011
44,Летописная улица,344058,47.2039925,39.6428001
48,Летописная улица,344058,47.2038362,39.6422685
50,Летописная улица,344058,47.2036942,39.6419291
52А,Летописная улица,344058,47.2036575,39.6418001
63,Манежная улица,344090,47.2171675,39.6415275
60А,Развиленская улица,344090,47.2223890,39.6406376
122,Благодатная улица,344090,47.2223155,39.6378708
76,Томская улица,344103,47.2260728,39.6362022
10,Белозёрский переулок,344041,47.2271765,39.6538042
84,Акмолинская улица,344103,47.2242547,39.6366814
54,Западная улица,344041,47.2357561,39.6266729
21,Мечетинская улица,344041,47.2248126,39.6446462
23,Походный переулок,344041,47.2462189,39.6158478
39,Красивая улица,344041,47.2458874,39.6157889
25,Ореховый переулок,344041,47.2462001,39.6190799
24,Походный переулок,344041,47.2461799,39.6161250
23,Ореховый переулок,344041,47.2459538,39.6191316
15,Кукурузный переулок,344041,47.2325895,39.6429007
10,Осенняя улица,344041,47.2423032,39.6491010
34,Загорская улица,344034,47.2086091,39.6856976
101,Масштабная улица,344065,47.3018963,39.7685654
532А,Портовая улица,344033,47.1911027,39.6272304
16,3-й Рощинский переулок,344065,47.3052141,39.7892115
56А,Дымчатая улица,344016,47.2556249,39.6557990
37,Анисовый переулок,344065,47.3185176,39.7718151
169,Заповедная улица,344065,47.2996200,39.7592367
74,переулок Богачёва,344033,47.1953587,39.6393012
182,Заповедная улица,344065,47.3000178,39.7575955
40,2-я Патриотическая улица,344090,47.2199119,39.6174596
60,Архитектурная улица,344045,47.3040478,39.7666327
172,Калиновая улица,344065,47.3017186,39.7591636
38,улица Курсантов,344020,47.2180928,39.6019903
39,Летописная улица,344058,47.2039496,39.6434383
183,Заповедная улица,344065,47.2995951,39.7572433
148,Равнинная улица,344065,47.3028592,39.7622903
2,Отважный переулок,344064,47.2779350,39.6944144
118/41,Рассветная улица,344065,47.3045422,39.7582184
38,Доступный переулок,344065,47.3040485,39.7630870
91А,Масштабная улица,344065,47.3019578,39.7699231
2/4,улица Рыльского,344025,47.2387604,39.7794490
90/21,Фасадная улица,344065,47.3063805,39.7871438
69,Почётная улица,344064,47.2822022,39.6729265
39,3-й Экипажный переулок,346735,47.3185926,39.7489488
165А,Ракитная улица,344065,47.3001350,39.7600364
53,Огневая улица,344064,47.2832803,39.6705671
280,Грациозная улица,344065,47.3113067,39.7575867
43А,Доступный переулок,344065,47.3049726,39.7626441
19,2-я Масштабная улица,344045,47.3020520,39.7519260
47,1-я Оранжерейная улица,344065,47.3081945,39.7603508
51А,Вековой переулок,344045,47.3060949,39.7595521
15,переулок Авральский Тупик,344033,47.1931090,39.6548404
213,улица Кржижановского,344048,47.2271869,39.8164625
24,4-я Кондитерская улица,344065,47.3115224,39.7609816
12А,Доступный переулок,344000,47.3002032,39.7631528
13,Хорошая улица,346715,47.3429482,39.7000697
80,Полуденная улица,344065,47.3052751,39.7620116
30,Почётная улица,344064,47.2827356,39.6774887
203,улица Кржижановского,344048,47.2269512,39.8155656
91И,Верхний Железнодорожный проезд,344033,47.1933200,39.6586318
62,Поэтичная улица,344058,47.2038267,39.6399502
92,улица Циолковского,344033,47.1894571,39.6389382
4А,Доступный переулок,344000,47.2991193,39.7631645
66,Блестящая улица,344065,47.3063729,39.7747024
37,2-я Юбилейная улица,344064,47.2796932,39.6786186
164,Каскадная улица,344065,47.2987704,39.7701647
32,Декоративный переулок,344065,47.3066378,39.7870195
8А,Знатный переулок,344065,47.3047840,39.7870881
50,Деловая улица,344090,47.2191687,39.6198943
16,2-й Рощинский переулок,344065,47.3053107,39.7885293
12,улица Гастелло,344034,47.2071493,39.6811132
21Б,Озарённая улица,344041,47.2413927,39.6502423
96,Закатная улица,344065,47.3058373,39.7571718
8А,Ратный переулок,344058,47.2026444,39.6367348
47,Былинная улица,344058,47.2019003,39.6331084
7,5-й Поселковый переулок,344033,47.1927539,39.6496992
83А,Заводская улица,344033,47.1990986,39.6349558
202,Калиновая улица,344065,47.3016081,39.7549049
185,Облачная улица,344065,47.3101803,39.7585358
41,2-я Баррикадная улица,344004,47.2149147,39.6709037
22А,Защитный переулок,344101,47.2127090,39.6888907
2,Светлая улица,344041,47.2433090,39.6463992
49,улица Вагулевского,344001,47.2156061,39.6888376
11,улица Юрия Дубинина,344010,47.3308700,39.6878549
62,Рассветная улица,344045,47.3045919,39.7659016
114,Золотистая улица,344065,47.3081391,39.7597447
157,Архитектурная улица,344065,47.3036255,39.7570614
26,Смелая улица,344064,47.2818001,39.6794515
201,Заповедная улица,344045,47.2996604,39.7547284
87,3-я Канатная улица,344069,47.2899251,39.6659324
2А,Достойный переулок,344090,47.2170376,39.6160242
3,1-я Барбарисовая улица,344000,47.2847338,39.6779097
14/78,Энергичная улица,344064,47.2949710,39.6757915
14,Надёжная улица,344090,47.2178235,39.6243934
172А,Равнинная улица,344065,47.3028432,39.7589027
97,Закатная улица,344065,47.3055372,39.7571030
20,Золотистая улица,344065,47.3050013,39.7789757
7,4-й Поселковый переулок,344033,47.1922500,39.6508094
46,3-я Кондитерская улица,344065,47.3124682,39.7582219
12,1-й Рядовой переулок,346735,47.3233771,39.7451567
28/129,2-й Доступный переулок,344065,47.3026155,39.7648044
20/1,улица Оганова,344069,47.2687404,39.6658118
14,Видный переулок,344064,47.2787108,39.6959521
146,Масштабная улица,344065,47.3023975,39.7625218
109,Долгая улица,344065,47.3031432,39.7673574
17,улица Нижний Железнодорожный Проезд,344034,47.1966911,39.6732262
19,2-я Былинная улица,344058,47.2015846,39.6352311
46,Энергичная улица,344064,47.2950125,39.6713981
23А,Арсенальная улица,344064,47.2802667,39.6803652
30А,Полуденная улица,344065,47.3051019,39.7686160
19/1,Экипажный переулок,346735,47.3174690,39.7487932
41,3-й Строевой переулок,344064,47.2801305,39.6748700
72,улица Курсантов,344020,47.2197931,39.6046961
11,Музыкальный переулок,344034,47.2092095,39.6841510
184,Искристая улица,344065,47.3093558,39.7585473
13А,2-я Юбилейная улица,344064,47.2797455,39.6814665
60,4-я Канатная улица,344069,47.2907766,39.6696347
208,Масштабная улица,344065,47.3025726,39.7540580
30,2-я Ритмичная улица,344000,47.2555774,39.6222554
48А,4-я Бежевая улица,344016,47.2562195,39.6555172
127/199-205,Театральный проспект,344023,47.2434106,39.7325282
40,Вековой переулок,344065,47.3043425,39.7598490
74,5-я Канатная улица,344069,47.2915323,39.6678187
53,Тузлов переулок,344056,47.2891015,39.7298579
8,2-я Ритмичная улица,344091,47.2560598,39.6203813
195,Долгая улица,344065,47.3031795,39.7556310
21,2-я Гравитационная улица,346735,47.3214634,39.7484739
190,Знакомая улица,344045,47.2993573,39.7565348
33,Орская улица,344065,47.3047519,39.7834794
35,Судостроительная улица,344033,47.1934318,39.6436668
41,Арсенальная улица,344064,47.2802317,39.6778036
139А,Долгая улица,344065,47.3031885,39.7633512
72,Фасадная улица,344065,47.3062673,39.7904317
3Б,Кипучий переулок,344064,47.2821650,39.6721652
74,7-я Канатная улица,344069,47.2926373,39.6678262
152,Долгая улица,344065,47.3035109,39.7618174
133А,Знакомая улица,344000,47.2990674,39.7641360
65,Энергичная улица,344064,47.2943186,39.6687125
207В,улица Текучёва,344022,47.2415636,39.7361833
26,2-я Патриотическая улица,344090,47.2199569,39.6194333
47,Роговский переулок,344048,47.2284672,39.8156433
10А,Туристский переулок,344033,47.1977266,39.6663695
64,Литературная улица,344058,47.2028617,39.6405327
16,улица Шаповалова,344041,47.2500796,39.6450963
44В,улица Страны Советов,344029,47.2610598,39.7533085
67А,Мезенский переулок,344056,47.2792909,39.7292364
144Б/18,Таганрогская улица,344016,47.2596469,39.6230606
36,1-я Кондитерская улица,344065,47.3135720,39.7588406
89,Облачная улица,344065,47.3088487,39.7714539
54,Временной переулок,344065,47.3059109,39.7615013
54,3-я Литературная улица,344058,47.2018518,39.6398867
159,Заповедная улица,344065,47.2995748,39.7605954
19Б,улица Лелюшенко,344045,47.3010899,39.7477526
31А,Юбилейная улица,344064,47.2795253,39.6791525
96,Особенная улица,344069,47.2883982,39.6652076
21,Гравитационная улица,346735,47.3219321,39.7475692
153А,Искристая улица,344065,47.3087546,39.7607477
77,Огневая улица,344069,47.2831238,39.6673155
95А,Славная улица,344064,47.2940714,39.6719251
70,6-я Канатная улица,344069,47.2920851,39.6680843
10,Памятная улица,344064,47.2788205,39.6832007
1,Извилистая улица,344058,47.2012261,39.6332623
167,3-й Экипажный переулок,346735,47.3187907,39.7511980
18,Золотистая улица,344065,47.3050250,39.7793392
207,Гладкая улица,344065,47.3097983,39.7554048
11А,Сочный переулок,344065,47.3064082,39.7758667
7,улица Дрыгина,344041,47.2487598,39.6501373
8,проспект Сиверса,344082,47.2210199,39.6945719
213,проспект Стачки,344091,47.2109476,39.6329371
7,2-й Пчелиный переулок,344068,47.2730797,39.7037273
176,Калиновая улица,344065,47.3016806,39.7583822
149,Искристая улица,344065,47.3086895,39.7614023
181,Знакомая улица,344045,47.2989609,39.7572660
178,Заповедная улица,344065,47.2999051,39.7581634
149,Ракитная улица,344000,47.3003053,39.7620699
38,Декоративный переулок,344065,47.3072458,39.7870393
35к1,улица Мечникова,344013,47.2398332,39.6847944
134,Васильковая улица,344065,47.3164155,39.7683087
6А,5-й Июльский переулок,344069,47.2903335,39.6650623
58,Временной переулок,344045,47.3060872,39.7614966
37А,2-й Июльский переулок,344064,47.2933045,39.6730522
20,2-я Былинная улица,344058,47.2019171,39.6354381
18,Можайская улица,344094,47.2707168,39.8084805
83 с5,улица Нансена,344079,47.2470709,39.6904276
157/31,Батуринская улица,344116,47.2021955,39.6513950
7Б,улица Страны Советов,344023,47.2529282,39.7547394
47/107,Вятская улица,344095,47.2836230,39.7564888
124/6,улица Вавилова,344064,47.3035134,39.6779619
10,улица 2-й Пятилетки,344064,47.2607694,39.6975141
15/4,проспект Королёва,344113,47.2972858,39.7077480
26 к1,Орбитальная улица,344113,47.2982373,39.7072063
25/3,проспект Королёва,344113,47.2983294,39.7176897
50/1,Орбитальная улица,344114,47.2993118,39.7190495
80,Большая Садовая улица,344002,47.2215013,39.7156741
56/4,улица Ерёменко,344015,47.2289027,39.6239050
18,улица Штахановского,344095,47.2881752,39.7430215
9/4,улица Кривоноса,344016,47.2616499,39.6463881
118/2,Таганрогская улица,344016,47.2563312,39.6488114
95А,проспект 40-летия Победы,344111,47.2410858,39.8323805
87/4,проспект 40-летия Победы,344111,47.2417414,39.8282250
18,бульвар Комарова,344092,47.2891128,39.6988497
12/3,проспект Королёва,344113,47.2924131,39.7079378
28/3,бульвар Комарова,344113,47.2914564,39.7090943
120,переулок Семашко,344018,47.2333132,39.7085725
22,Мелитопольская улица,344020,47.2652495,39.7855500
89/4,Казахская улица,344032,47.2728591,39.7394101
88,Соборный переулок,344018,47.2333862,39.7057281
43,улица Содружества,344103,47.2294859,39.6323561
7,улица Лелюшенко,344045,47.2958894,39.7395825
78/3,2-я Краснодарская улица,344058,47.2056367,39.6345144
68,2-я Краснодарская улица,344058,47.2062625,39.6396845
175А,Пушкинская улица,344049,47.2284053,39.7265548
167,улица Станиславского,344022,47.2227257,39.7353162
6А,Привокзальная площадь,344001,47.2201667,39.6890527
79,улица Серафимовича,344002,47.2199326,39.7141362
86,Социалистическая улица,344002,47.2200211,39.7151277
6,Каширская улица,344091,47.1998029,39.6236024
4/2,Каширская улица,344091,47.2005309,39.6264155
10А,Извилистая улица,344091,47.2018904,39.6290569
10Б,Извилистая улица,344091,47.2023598,39.6293447
4 к4,проспект Королёва,344092,47.2910205,39.6985152
20 к1,бульвар Комарова,344092,47.2893841,39.7023263
1/2,улица Добровольского,344092,47.2827962,39.7071735
1/1,улица Добровольского,344092,47.2824850,39.7071519
3,улица Волкова,344092,47.2831554,39.7091153
115Б,Днепровский переулок,344065,47.2877807,39.7565231
115/1,Днепровский переулок,344065,47.2869967,39.7564802
116Д,Днепровский переулок,344065,47.2868999,39.7632378
224,проспект Стачки,344090,47.2125425,39.6178436
232/34,проспект Стачки,344090,47.2124628,39.6146815
72А,Пушкинская улица,344002,47.2243563,39.7139404
94,проспект Сельмаш,344029,47.2533603,39.7654699
37,улица Евдокимова,344068,47.2740253,39.7124046
6,Каширская улица,344091,47.1996764,39.6234236
70,улица Зорге,344103,47.2310880,39.6304552
72/1,улица Зорге,344103,47.2310487,39.6313818
68,улица Зорге,344103,47.2304429,39.6304605
7/33,улица Жданова,344049,47.2347924,39.6000033
5,улица Зорге,344090,47.2157493,39.6322547
3,улица Содружества,344090,47.2163196,39.6364970
17/1,Стабильная улица,344090,47.2159697,39.6171820
9,Стабильная улица,344090,47.2161900,39.6197004
11 к1,Стабильная улица,344090,47.2159406,39.6187891
15 к1,Стабильная улица,344090,47.2159241,39.6180234
1,Соборный переулок,344002,47.2144820,39.7126116
77,улица Шаумяна,344002,47.2215499,39.7170486
84,Большая Садовая улица,344002,47.2216894,39.7164652
41/112,Ворошиловский проспект,344002,47.2215405,39.7185506
105/42,Социалистическая улица,344002,47.2208962,39.7166010
40,Газетный переулок,344002,47.2205491,39.7166276
10,Тургеневская улица,344002,47.2145673,39.7049660
21,Береговая улица,344002,47.2135550,39.7082600
8-10,Соляной спуск,344002,47.2146522,39.7081616
2,улица Баумана,344002,47.2150015,39.7083712
5,Будённовский проспект,344002,47.2156676,39.7090846
8-10,Соляной спуск,344002,47.2146927,39.7081632
1,улица Баумана,344002,47.2152836,39.7083697
3,улица Баумана,344002,47.2154152,39.7089066
24,Тургеневская улица,344002,47.2154910,39.7082986
8,Береговая улица,344002,47.2124234,39.7052971
7,Красноармейская улица,344082,47.2253567,39.6991397
13/56,улица Максима Горького,344011,47.2233283,39.6966508
18,улица Согласия,344082,47.2207572,39.7007428
1/36,Пушкинская улица,344082,47.2217993,39.6973685
9,улица Шаумяна,344082,47.2182432,39.7011933
1,улица Герасименко,344068,47.2527854,39.7063270
25,улица Серафимовича,344082,47.2178339,39.7040137
10,Извилистая улица,344091,47.2014939,39.6290691
20,1-я Майская улица,344019,47.2312441,39.7575466
14Б,1-я Майская улица,344019,47.2314076,39.7583810
14-14А,1-я Майская улица,344019,47.2314135,39.7586269
22А,проспект Соколова,344006,47.2225727,39.7221885
125/27,Социалистическая улица,344022,47.2227388,39.7240893
36/124,проспект Чехова,344006,47.2223440,39.7250064
24,проспект Чехова,344006,47.2209660,39.7256759
162/32,Социалистическая улица,344022,47.2234811,39.7331317
2,Театральная площадь,344019,47.2263353,39.7441643
40А,Кировский проспект,344022,47.2264345,39.7303773
192/93,Пушкинская улица,344022,47.2290184,39.7345001
176/91,Пушкинская улица,344022,47.2284939,39.7320385
78,улица Немировича-Данченко,344064,47.2599635,39.6907094
78к3,улица Немировича-Данченко,344079,47.2601673,39.6904873
157-161,Пушкинская улица,344006,47.2272949,39.7233410
169,Пушкинская улица,344006,47.2275073,39.7243476
166,улица Максима Горького,344006,47.2283633,39.7245013
69,Большая Садовая улица,344002,47.2229820,39.7178859
65А,Большая Садовая улица,344002,47.2227433,39.7171329
48/41,Пушкинская улица,344002,47.2228260,39.7059146
48/24,улица Станиславского,344002,47.2163228,39.7067975
27,Газетный переулок,344002,47.2187565,39.7170213
29,Ворошиловский проспект,344002,47.2193755,39.7195344
70А,Московская улица,344002,47.2188154,39.7162246
76/32,Московская улица,344002,47.2190173,39.7174014
63,Московская улица,344002,47.2189789,39.7149838
29А,Газетный переулок,344002,47.2194366,39.7165969
25/107,Ворошиловский проспект,344002,47.2188098,39.7197723
118/25,улица Станиславского,344002,47.2189361,39.7194221
62,улица Серафимовича,344002,47.2190910,39.7125272
33/43,Большая Садовая улица,344082,47.2198479,39.7045568
80/19,Тургеневская улица,344002,47.2179741,39.7202345
36-38,Ворошиловский проспект,344002,47.2267117,39.7172731
55,проспект Чехова,344006,47.2262221,39.7225572
20/17,Ворошиловский проспект,344002,47.2239010,39.7186782
58Д,Газетный переулок,344002,47.2239100,39.7162486
110,улица Максима Горького,344002,47.2265085,39.7144712
73А,Ворошиловский проспект,344002,47.2263882,39.7166406
123/67,Пушкинская улица,344022,47.2260675,39.7167244
92/63,улица Максима Горького,344002,47.2256758,39.7107490
84,улица Максима Горького,344002,47.2252530,39.7089124
57/89,переулок Семашко,344002,47.2248509,39.7113417
93,Газетный переулок,344002,47.2262100,39.7133771
25,Жлобинский переулок,344033,47.1970141,39.6328993
72,Улица Баумана,344002,47.2174969,39.7204067
42/79,улица Листопадова,344019,47.2231292,39.7616749
61/1Б,Береговая улица,344022,47.2191081,39.7343324
221/1,проспект Стачки,344091,47.2109799,39.6263865
30,улица Тимошенко,344016,47.2644840,39.6541444
9/5,бульвар Комарова,344092,47.2860211,39.7097745
5/6,улица Волкова,344092,47.2854532,39.7112797
6,бульвар Комарова,344092,47.2904575,39.6901143
19,Доломановский переулок,344082,47.2209594,39.6972964
23 к1,проспект Маршала Жукова,344049,47.2284192,39.5984406
30/2,бульвар Комарова,344113,47.2913019,39.7114155
12,улица Фрунзе,344012,47.2420491,39.6956571
12/17,Целиноградская улица,344012,47.2400677,39.6977184
66,3-я Круговая улица,344033,47.2028950,39.6539018
66Б,3-я Круговая улица,344033,47.2024885,39.6528380
100,улица Ерёменко,344049,47.2316158,39.5935198
269/1,улица Доватора,344103,47.2369809,39.5958266
7/5,улица Добровольского,344092,47.2865225,39.7041321
110 с1,улица Ерёменко,344047,47.2314423,39.5856708
108 с1,улица Ерёменко,344047,47.2314432,39.5871825
101/4,улица Вересаева,344072,47.2401323,39.8006822
101/3 с2,улица Вересаева,344072,47.2405251,39.8001672
101/6 с2,улица Вересаева,344072,47.2405325,39.8021633
101/5,улица Вересаева,344072,47.2401406,39.8016671
20,Каширская улица,344091,47.2007027,39.6181911
8/3,Каширская улица,344091,47.1995426,39.6249981
42/4,Коммунистический проспект,344091,47.2095918,39.6192683
56/4,улица Ерёменко,344015,47.2292343,39.6235293
25/3,улица Зорге,344015,47.2279075,39.6245037
21/3,улица 339-й Стрелковой Дивизии,344015,47.2280402,39.6222365
195,проспект Стачки,344058,47.2115989,39.6412581
43,улица Крупской,344004,47.2134824,39.6564582
78,2-я улица Володарского,344116,47.2066666,39.6707783
32,улица Балакирева,344004,47.2181869,39.6680100
33,проспект Ставского,344101,47.2168109,39.6824855
22,Некрасовская улица,344001,47.2231158,39.6669256
1А,улица Варфоломеева,344013,47.2263352,39.6792406
8,улица Возрождения,344013,47.2312845,39.6789300
27Г,улица Гайдара,344013,47.2322387,39.6781169
31/1,улица Кропоткина,344079,47.2553927,39.6901278
85,улица Серафимовича,344002,47.2202597,39.7160344
115/33,улица Максима Горького,344002,47.2257535,39.7077929
158/73,Красноармейская улица,344002,47.2271179,39.7102282
5,Красноармейская улица,344011,47.2248797,39.6968059
61,улица Мечникова,344012,47.2387353,39.6964298
85/3,проспект Ленина,344038,47.2482818,39.7014128
36,проспект Космонавтов,344113,47.2982015,39.7135890
6/3,улица Волкова,344092,47.2807650,39.7108941
6/2,улица Волкова,344092,47.2808881,39.7120309
3/4,улица Лелюшенко,344045,47.2945167,39.7373700
41/1,Вятская улица,344095,47.2853099,39.7530541
131,Днепровский переулок,344095,47.2868116,39.7529651
131,Днепровский переулок,344095,47.2866525,39.7538706
41,Киргизская улица,344056,47.2748850,39.7505921
92,проспект Ленина,344023,47.2497125,39.7334577
92/1,проспект Ленина,344023,47.2502404,39.7337703
16,улица Туполева,344093,47.2834173,39.8057053
14,Днепропетровская улица,344020,47.2718285,39.7923074
95,улица Глинки,344020,47.2687332,39.7898476
6,проспект Мира,344029,47.2456586,39.7680166
100,Металлургическая улица,344029,47.2556220,39.7720203
260/1,проспект Шолохова,344009,47.2544138,39.7967736
34,улица Коммунаров,344030,47.2441158,39.7731453
12,Буйнакская улица,344037,47.2392908,39.7677283
57/25,Комсомольская улица,344025,47.2308502,39.7750679
1/1,площадь Свободы,344019,47.2294897,39.7632038
9/9,улица Черевичкина,344037,47.2329194,39.7670445
139В,улица Текучёва,344018,47.2353164,39.7048992
139Г,улица Текучёва,344018,47.2354048,39.7053129
117Г,переулок Семашко,344018,47.2355008,39.7057753
139В,улица Текучёва,344018,47.2354434,39.7055997
26/80,переулок Журавлёва,344022,47.2231048,39.7354427
195/21,Социалистическая улица,344022,47.2258803,39.7388423
190/108,Пушкинская улица,344022,47.2284909,39.7335213
139,Крепостной переулок,344000,47.2352154,39.7321616
64,Будённовский проспект,344003,47.2276772,39.7048424
59 к1А,улица Вавилова,344064,47.2718124,39.6808171
59/1,улица Вавилова,344064,47.2720866,39.6808894
73,проспект 40-летия Победы,344111,47.2383821,39.8203103
28/158-160,переулок Марины Расковой,344048,47.2308542,39.8050326
8,Верхненольная улица,344019,47.2299046,39.7491153
48/266,Театральный проспект,344019,47.2318483,39.7411254
30,Советская улица,344019,47.2290163,39.7560082
88,Красноармейская улица,344082,47.2253214,39.7017102
22,улица Добровольского,344113,47.2910093,39.7047351
1Б,Калининградская улица,344041,47.2362114,39.6361933
118Б,Таганрогская улица,344016,47.2575998,39.6472143
78/1,Орбитальная улица,344114,47.3018180,39.7341778
3/1,улица Миронова,344045,47.2967369,39.7419441
11Д,улица Думенко,344045,47.2972477,39.7495861
12А,улица Миронова,344045,47.2979480,39.7483895
124/7,Днепровский переулок,344065,47.2884399,39.7645758
108,Вятская улица,344065,47.2809767,39.7615351
131,улица Нариманова,344068,47.2701866,39.7301846
57А,Казахская улица,344032,47.2703570,39.7519758
199/2,проспект Шолохова,344009,47.2606745,39.8039487
212,проспект Ленина,344023,47.2503127,39.7514703
56,Ворошиловский проспект,344000,47.2313564,39.7153967
58/6,улица Ерёменко,344015,47.2306492,39.6210126
58/5,улица Ерёменко,344015,47.2311431,39.6214809
58/7,улица Ерёменко,344015,47.2304190,39.6201504
17,Долгая улица,344065,47.3031306,39.7801891
17А,Долгая улица,344065,47.3031314,39.7800721
7А,Долгая улица,344065,47.3030815,39.7813940
5,Долгая улица,344065,47.3030992,39.7816548
7,Долгая улица,344065,47.3030806,39.7815205
3А,Долгая улица,344065,47.3031265,39.7819157
3,Долгая улица,344065,47.3031254,39.7820368
3/3,улица Думенко,344045,47.2948334,39.7400875
15,Орбитальная улица,344114,47.3025822,39.7246920
18,переулок Белоусова,344010,47.3275110,39.6848976
1/12,улица Висаитова,344010,47.3249174,39.6848091
7,переулок Амет-Хана Султана,344010,47.3233047,39.6928592
10/9,улица Висаитова,344010,47.3237015,39.6921603
8,улица Висаитова,344010,47.3234611,39.6908803
25,улица Платона Кляты,344010,47.3182134,39.6874962
10,улица Петренко,344010,47.3191248,39.6790700
8,улица Петренко,344010,47.3191454,39.6770094
5,улица Платона Кляты,344010,47.3181032,39.6755632
9,улица Платона Кляты,344010,47.3178715,39.6773896
16,улица Петренко,344010,47.3191324,39.6818186
15/5,улица Добровольского,344092,47.2929006,39.7023917
20В/9А,бульвар Комарова,344092,47.2893596,39.7028980
18/3 с2,бульвар Комарова,344092,47.2907257,39.7003850
18/3 с1,бульвар Комарова,344092,47.2908622,39.6996814
1И с2,бульвар Комарова,344096,47.2900243,39.6877211
1И с3,бульвар Комарова,344096,47.2901262,39.6884441
1Е с4,бульвар Комарова,344096,47.2884374,39.6922299
1Е с3,бульвар Комарова,344096,47.2885262,39.6917087
1Е с2,бульвар Комарова,344096,47.2887048,39.6912300
1Е с1,бульвар Комарова,344096,47.2887560,39.6906992
20А,проспект Королёва,344113,47.2947247,39.7113186
16/1,улица Пацаева,344092,47.2813607,39.7022573
39А с1,Измаильский переулок,344068,47.2659736,39.7337058
39А с2,Измаильский переулок,344068,47.2659965,39.7327834
41,Измаильский переулок,344068,47.2672229,39.7334343
39,Измаильский переулок,344068,47.2667464,39.7333108
45 с2,улица Ларина,344068,47.2569860,39.7128440
45 с1,улица Ларина,344068,47.2573972,39.7140962
95 с2,улица Шеболдаева,344064,47.2593184,39.6887693
95 с1,улица Шеболдаева,344064,47.2593413,39.6879691
5А,улица Тимошенко,344069,47.2702867,39.6607165
83 с2,улица Нансена,344079,47.2462037,39.6902969
103/1 с1,улица Нансена,344038,47.2464574,39.7000810
103/1 с5,улица Нансена,344038,47.2467995,39.7025581
119Б,улица Нансена,344038,47.2461653,39.7094135
93 с1,улица Нансена,344079,47.2460440,39.6948253
7,улица 8-го Марта,344039,47.2431088,39.6822768
37,улица Мечникова,344013,47.2400644,39.6870103
39Б,улица Мечникова,344013,47.2403062,39.6876627
116 с1,Доломановский переулок,344018,47.2342230,39.6919629
98,Соборный переулок,344018,47.2385732,39.7038138
30,проспект Сиверса,344011,47.2253994,39.6860319
28,проспект Сиверса,344011,47.2252846,39.6867750
82,Доломановский переулок,344011,47.2295347,39.6940069
69/253,Соборный переулок,344018,47.2332804,39.7046071
94/92,Красноармейская улица,344082,47.2255800,39.7028657
60/11,Братский переулок,344082,47.2220698,39.6988575
6,Береговая улица,344082,47.2122401,39.7042639
120,улица Максима Горького,344002,47.2264936,39.7154741
73 с1,Береговая улица,344022,47.2205246,39.7460473
73 с2,Береговая улица,344022,47.2204613,39.7449080
202,Красноармейская улица,344000,47.2298164,39.7235753
265,улица Варфоломеева,344000,47.2342182,39.7175508
86,проспект Соколова,344000,47.2343244,39.7170770
110 с2,улица Тельмана,344000,47.2328076,39.7292213
256,улица Максима Горького,344022,47.2315638,39.7392446
99,Крепостной переулок,344022,47.2303365,39.7342502
31 с4,Нижегородская улица,344019,47.2228177,39.7481719
87/35,35-я линия,344025,47.2241668,39.7763151
43,улица Подвойского,344025,47.2244029,39.7805209
39,улица Подвойского,344025,47.2245200,39.7781466
38,улица Городовикова,344025,47.2240386,39.7792302
68,улица Подвойского,344025,47.2256728,39.7785394
81,улица Богданова,344025,47.2264338,39.7781816
79,улица Богданова,344025,47.2259150,39.7774509
60,улица Подвойского,344025,47.2253508,39.7767071
77,улица Богданова,344025,47.2260832,39.7763535
83/75,35-я линия,344025,47.2255849,39.7756219
34,улица Городовикова,344025,47.2236745,39.7774040
60/72,45-я линия,344025,47.2259744,39.7804030
58,45-я линия,344025,47.2266402,39.7800724
85,улица Богданова,344025,47.2263937,39.7793317
3,17-я линия,344019,47.2296604,39.7612759
30/28,улица Мурлычёва,344019,47.2331337,39.7590399
83 с3,улица Нансена,344079,47.2466567,39.6896558
61/30,16-я линия,344019,47.2363424,39.7571638
49 с1,Горсоветская улица,344030,47.2423311,39.7777437
1,улица Рыльского,344025,47.2394383,39.7781796
63/17 с2,проспект 40-летия Победы,344072,47.2411563,39.8083989
65/15,проспект 40-летия Победы,344111,47.2422022,39.8147619
63/17 с5,проспект 40-летия Победы,344072,47.2414622,39.8110260
6 с2,Берберовская улица,344072,47.2437429,39.8015937
2/101 с2,Берберовская улица,344072,47.2437240,39.8002908
26 с2,Берберовская улица,344072,47.2437552,39.8078952
24,Берберовская улица,344072,47.2433835,39.8072569
22 с2,Берберовская улица,344072,47.2437501,39.8065918
16 с2,Берберовская улица,344072,47.2437515,39.8047409
14,Берберовская улица,344072,47.2433710,39.8041052
4,Берберовская улица,344072,47.2433605,39.8009559
8 с2,Берберовская улица,344072,47.2437370,39.8034473
101/2 с2,улица Вересаева,344072,47.2421198,39.8014680
101/1 с2,улица Вересаева,344072,47.2421047,39.8001644
32 с2,Берберовская улица,344072,47.2437755,39.8110411
30,Берберовская улица,344072,47.2434038,39.8104057
28 с2,Берберовская улица,344072,47.2437665,39.8097433
34 с3,Берберовская улица,344041,47.2424867,39.8102468
34 с4,Берберовская улица,344049,47.2424835,39.8097974
34 с1,Берберовская улица,344072,47.2424938,39.8112601
34 с2,Берберовская улица,344072,47.2424905,39.8108107
17 с2,улица Воровского,344029,47.2505768,39.7750561
9/27,улица Сержантова,344029,47.2542965,39.7667934
68,улица Селиванова,344029,47.2511203,39.7661012
68/118В с2,проспект Соколова,344000,47.2315133,39.7199814
68/118В с1,проспект Соколова,344000,47.2311223,39.7189189
41/53,улица Мечникова,344013,47.2395650,39.6892941
16,улица Жданова,344103,47.2363171,39.5945699
109/5,улица Нансена,344038,47.2479185,39.7054558
109/6,улица Нансена,344038,47.2480142,39.7088210
140А,проспект Ленина,344023,47.2503005,39.7419624
1Е с6,бульвар Комарова,344096,47.2878415,39.6929643
24А,Инженерная улица,344064,47.2690757,39.6961318
188/3,проспект Стачки,344090,47.2136607,39.6379337
10А/18,улица 339-й Стрелковой Дивизии,344015,47.2243637,39.6272520
302,проспект Шолохова,344009,47.2666261,39.8205803
40,улица Еляна,344049,47.2240289,39.5935355
19,улица Ткачёва,344049,47.2250608,39.5948999
15,улица Ткачёва,344049,47.2250078,39.5962638
32/50,улица Ткачёва,344049,47.2267637,39.5930861
14,улица Ткачёва,344049,47.2267304,39.5976778
72/44,улица Зорге,344103,47.2317382,39.6304466
108 с2,улица Ерёменко,344047,47.2312977,39.5869071
44,улица Ткачёва,344047,47.2276707,39.5858592
42 с1,улица Ткачёва,344047,47.2265649,39.5852289
38 с2,улица Ткачёва,344047,47.2265424,39.5879446
38 с1,улица Ткачёва,344047,47.2269520,39.5881344
15/1 с1,проспект Солженицына,344047,47.2292413,39.5874103
17,проспект Солженицына,344047,47.2301702,39.5878692
110/1,улица Ерёменко,344047,47.2306191,39.5863492
114/1 с2,улица Ерёменко,344047,47.2307086,39.5829041
112/1 с1,улица Ерёменко,344047,47.2305104,39.5844076
112/1 с2,улица Ерёменко,344047,47.2306303,39.5838596
114,улица Ерёменко,344047,47.2314643,39.5826967
112,улица Ерёменко,344047,47.2314686,39.5841460
65 с3,1-я Ковровая улица,344049,47.2358256,39.5662492
25,Заводская улица,344033,47.1979131,39.6285402
39А,1-я Кондитерская улица,344065,47.3131473,39.7590068
6/6 с1,Левобережная улица,344002,47.2069763,39.7565381
6/6 с2,Левобережная улица,344002,47.2071599,39.7574916
35/1,улица Содружества,344103,47.2222583,39.6333708
8/2,Каширская улица,344091,47.2007096,39.6248248
4/4,Каширская улица,344091,47.2004888,39.6279000
85,улица Ерёменко,344015,47.2326037,39.6168007
85/7,улица Ерёменко,344015,47.2328762,39.6177074
85/4,улица Ерёменко,344015,47.2334514,39.6163929
66,улица Ерёменко,344015,47.2317111,39.6161946
5,Каширская улица,344091,47.1986195,39.6172271
36,улица Петрашевского,344034,47.2106682,39.6773801
2,Буйнакская улица,344037,47.2386836,39.7637579
131/28,Зрелищная улица,344064,47.2956948,39.6660163
157,Можайская улица,344094,47.2726231,39.8119879
89/5,проспект Ленина,344038,47.2483927,39.7033761
8,28-я линия,344037,47.2322913,39.7666120
103/1 с6,улица Нансена,344038,47.2457223,39.7005098
45 с7,улица Ларина,344068,47.2584260,39.7144469
30А,бульвар Комарова,344113,47.2905051,39.7109341
4 к1,Башкирская улица,344068,47.2582722,39.7096283
112/6,Таганрогская улица,344016,47.2597891,39.6518171
21А,19-я линия,344019,47.2258384,39.7641355
