House number,Street name,Postal code,Latitude,Longitude
2Д,улица Бабушкина,347909,47.2494320,38.9350906
45,Комсомольский бульвар,347922,47.2075908,38.9441675
17,Александровская улица,347922,47.2080742,38.9344819
69-1,улица Ломоносова,347932,47.2306237,38.8762668
2-1,Сенной переулок,347905,47.2218487,38.9219407
303 к1,улица Чехова,347927,47.2223581,38.8812164
39/1,Поляковское шоссе,347939,47.2112743,38.8634269
30,улица Чучева,347939,47.2163541,38.8650251
337,улица Чехова,347939,47.2202480,38.8659922
230,улица Чехова,347930,47.2205644,38.8914413
109,Александровская улица,347900,47.2178109,38.9126153
27,улица Ломакина,347900,47.2003194,38.9142002
12,улица Фрунзе,37900,47.2108956,38.9335252
73,Греческая улица,347900,47.2122244,38.9375807
335,улица Чехова,347939,47.2207545,38.8677818
76,Греческая улица,347900,47.2143172,38.9344238
38,улица Фрунзе,347900,47.2141118,38.9283558
171,улица Дзержинского,347924,47.2584636,38.9176068
4,Итальянский переулок,347900,47.2135980,38.9330133
7,Итальянский переулок,347900,47.2128801,38.9321255
50Д,Мариупольское шоссе,347939,47.2239098,38.8360427
19,Инструментальная улица,347923,47.2021231,38.8909969
301,улица Чехова,347900,47.2224363,38.8823137
19Б,улица Щаденко,347909,47.2617799,38.9324625
4,улица Москатова,347928,47.2632782,38.9198805
18,Театральная улица,347913,47.2330254,38.8801339
69,Петровская улица,347900,47.2148747,38.9296165
21,Украинский переулок,347922,47.2088414,38.9349435
120-5,улица Чехова,347900,47.2141287,38.9156010
120-5,улица Чехова,347900,47.2145832,38.9160022
11,Кузнечная улица,347900,47.2150184,38.9148466
35,переулок Антона Глушко,347900,47.2091862,38.9233147
98,улица Чехова,347900,47.2115307,38.9224104
53,улица Осипенко,347905,47.2380772,38.9213857
53,улица Осипенко,347905,47.2384464,38.9214642
4,Заводская улица,347905,47.2398637,38.9187678
4,Заводская улица,347905,47.2398662,38.9184518
51/1,улица Осипенко,347905,47.2371154,38.9210349
44,Петровская улица,347922,47.2100096,38.9377806
94В,улица Ломоносова,347916,47.2337175,38.8767996
84В,улица Ломоносова,347916,47.2341801,38.8768291
96,улица Ломоносова,347916,47.2343702,38.8769638
96,улица Ломоносова,347916,47.2344563,38.8769667
18,Театральная улица,347913,47.2330421,38.8797880
18,Театральная улица,347913,47.2330208,38.8802664
6,Театральная улица,347913,47.2329753,38.8821238
6,Театральная улица,347913,47.2329689,38.8822927
6,Театральная улица,347913,47.2329618,38.8828309
32,Театральная улица,347916,47.2331696,38.8746529
48,3-й Новый переулок,347942,47.2787118,38.9191917
69-1,улица Ломоносова,347932,47.2301173,38.8762124
69-1,улица Ломоносова,347932,47.2302981,38.8762215
33,Петровская улица,347922,47.2095634,38.9378955
2А,улица Адмирала Крюйса,347900,47.2195881,38.9383737
240 к5,улица Розы Люксембург,347930,47.2200479,38.8861814
240 к6,улица Розы Люксембург,347930,47.2198719,38.8868149
271,улица Чехова,347930,47.2210945,38.8886715
27,27-й переулок,347930,47.2209730,38.8868629
271А,улица Чехова,347930,47.2214377,38.8875661
271Г,улица Чехова,347930,47.2204057,38.8885534
271В,улица Чехова,347930,47.2205861,38.8879993
269,улица Чехова,347930,47.2206022,38.8899457
271Б,улица Чехова,347930,47.2207887,38.8874291
40,Большой проспект,347930,47.2191694,38.8914317
267 к1,улица Чехова,347930,47.2196311,38.8911805
42,Большой проспект,347930,47.2184139,38.8914096
240,улица Розы Люксембург,347930,47.2185482,38.8901430
267 к2,улица Чехова,347930,47.2198011,38.8905862
240 к1,улица Розы Люксембург,347930,47.2191063,38.8901623
240 к4,улица Розы Люксембург,347930,47.2193913,38.8874407
267,улица Чехова,347930,47.2203102,38.8911370
265 к1,улица Чехова,347930,47.2192925,38.8924071
265,улица Чехова,347930,47.2197970,38.8925845
16,Большой проспект,347930,47.2246827,38.8907592
204/1,улица Сергея Шило,347939,47.2230678,38.8617534
24/1,улица Сызранова,347939,47.2240721,38.8601647
27/1,Мариупольское шоссе,347939,47.2249878,38.8614666
19,улица Пархоменко,347939,47.2251280,38.8645388
202,улица Сергея Шило,347939,47.2226445,38.8626521
200/3,улица Сергея Шило,347939,47.2245693,38.8637995
17,улица Пархоменко,347939,47.2246432,38.8648888
202/1,улица Сергея Шило,347939,47.2232939,38.8627540
27,Мариупольское шоссе,347939,47.2255518,38.8610030
200,улица Сергея Шило,347939,47.2234296,38.8656187
15А,улица Пархоменко,347939,47.2237620,38.8659825
200/4,улица Сергея Шило,347939,47.2249375,38.8635849
200/2,улица Сергея Шило,347939,47.2242040,38.8639972
200/1,улица Сергея Шило,347939,47.2238301,38.8642087
15,улица Пархоменко,347939,47.2241844,38.8658346
18,1-й Новый переулок,347942,47.2793930,38.9256569
17,улица Москатова,347924,47.2613638,38.9163659
19 к1,улица Москатова,347924,47.2604963,38.9156117
191,улица Дзержинского,347924,47.2606081,38.9176133
19,улица Москатова,347924,47.2608889,38.9155222
188 к1,улица Дзержинского,347924,47.2604599,38.9189495
21,улица Москатова,347924,47.2603067,38.9146767
116,улица Воскова,347924,47.2601147,38.9157766
192,улица Дзержинского,347924,47.2613544,38.9191439
189,улица Дзержинского,347924,47.2601116,38.9170597
186 к1,улица Дзержинского,347924,47.2600839,38.9189050
102,улица Воскова,347924,47.2603843,38.9213573
1,Заводская улица,347905,47.2399648,38.9240747
34,Александровская улица,347922,47.2080937,38.9354716
21,Украинский переулок,347922,47.2086247,38.9354848
17,Александровская улица,347922,47.2079788,38.9345939
38,Александровская улица,347922,47.2083149,38.9347629
2,Комсомольский спуск,347922,47.2067853,38.9493279
4,Комсомольский спуск,347922,47.2069779,38.9488700
6,Комсомольский спуск,347922,47.2074351,38.9489268
44А,Тургеневский переулок,347900,47.2066919,38.9290845
48,1-й Крепостной переулок,347922,47.2026082,38.9408030
7-1,Полуротный переулок,347922,47.2032385,38.9406441
37,Итальянский переулок,347922,47.2092626,38.9293378
38,улица Фрунзе,347900,47.2142450,38.9281583
65,Александровская улица,347900,47.2127322,38.9241085
40,улица Фрунзе,347900,47.2151663,38.9271004
73,Петровская улица,347900,47.2153889,38.9280986
58А,улица Фрунзе,347900,47.2165981,38.9246240
336-1,улица Чехова,347930,47.2190908,38.8565732
340-1,улица Чехова,347930,47.2187939,38.8550156
340,улица Чехова,347930,47.2182196,38.8553912
336,улица Чехова,347930,47.2186265,38.8570505
336А,улица Чехова,347930,47.2189688,38.8569004
257-1,улица Сергея Шило,347930,47.2197328,38.8562249
359,улица Чехова,347939,47.2172959,38.8557395
355,улица Чехова,347939,47.2175835,38.8577858
353-1,улица Чехова,347930,47.2168540,38.8566182
357,улица Чехова,347939,47.2174768,38.8564052
359А,улица Чехова,347930,47.2175336,38.8552786
259,улица Сергея Шило,347930,47.2198201,38.8536641
357А,улица Чехова,347930,47.2177190,38.8559888
361/1,улица Чехова,347930,47.2165093,38.8553592
361А,улица Чехова,347930,47.2173799,38.8546815
346-2,улица Сергея Шило,347930,47.2183128,38.8507178
363,улица Чехова,347930,47.2168785,38.8543495
257,улица Сергея Шило,347930,47.2202751,38.8555898
361,улица Чехова,347939,47.2171199,38.8550765
365,улица Чехова,347930,47.2169078,38.8533071
355,улица Чехова,347939,47.2179040,38.8571716
200,улица Сергея Шило,347939,47.2232317,38.8646807
200,улица Сергея Шило,347939,47.2237465,38.8653727
27,Мариупольское шоссе,347939,47.2251696,38.8606350
27,Мариупольское шоссе,347939,47.2253914,38.8604445
245,улица Сергея Шило,347939,47.2218326,38.8627106
241,улица Сергея Шило,347939,47.2222672,38.8645348
322,улица Чехова,347939,47.2215667,38.8657756
239А,улица Сергея Шило,347939,47.2226855,38.8663388
247,улица Сергея Шило,347939,47.2212149,38.8615299
243,улица Сергея Шило,347939,47.2217391,38.8637540
324,улица Чехова,347939,47.2211264,38.8641873
326,улица Чехова,347939,47.2206853,38.8625537
19,улица Пархоменко,347939,47.2252893,38.8649190
73,Транспортная улица,347932,47.2243642,38.8838037
11,Вишнёвая улица,347916,47.2350881,38.8730387
9,Вишнёвая улица,347916,47.2346333,38.8727892
15,Вишнёвая улица,347916,47.2358227,38.8734424
13,Вишнёвая улица,347916,47.2354586,38.8732532
15/8,Вишнёвая улица,347916,47.2364660,38.8687221
32/2,улица Циолковского,347916,47.2386956,38.8707881
34,улица Циолковского,347916,47.2399293,38.8687584
54/1,Вишнёвая улица,347916,47.2343057,38.8738283
9 к1,Калужский проезд,347916,47.2367810,38.8679368
32,улица Циолковского,347916,47.2393511,38.8707033
9,Калужский проезд,347916,47.2372204,38.8665606
17,Вишнёвая улица,347916,47.2362137,38.8736125
30/1,улица Циолковского,347916,47.2385389,38.8712852
54/1,Вишнёвая улица,347916,47.2344739,38.8740723
3,Калужский проезд,347916,47.2395540,38.8681008
3/11,Калужский проезд,347916,47.2393521,38.8687596
32/1,улица Циолковского,347916,47.2389994,38.8699881
3 к3,Калужский проезд,347916,47.2383118,38.8689694
11/1,Калужский проезд,347916,47.2362450,38.8673235
30,Театральная улица,347916,47.2331484,38.8758758
94В,улица Ломоносова,347916,47.2339569,38.8768713
11,Калужский проезд,347916,47.2364810,38.8663911
3 к2,Калужский проезд,347916,47.2386495,38.8691923
30/3,улица Циолковского,347916,47.2375402,38.8712538
7 к1,Калужский проезд,347916,47.2373050,38.8683156
54/1,Вишнёвая улица,347916,47.2348963,38.8742565
7,Калужский проезд,347916,47.2377486,38.8668954
30/2,улица Циолковского,347916,47.2383763,38.8718011
19 к2,Вишнёвая улица,347916,47.2374378,38.8700864
111,улица Калинина,347913,47.2400569,38.8824379
5 к1,Калужский проезд,347916,47.2379875,38.8686997
105,улица Калинина,347913,47.2386491,38.8824236
113,улица Калинина,347913,47.2405356,38.8824348
109,улица Калинина,347913,47.2396217,38.8813948
107,улица Калинина,347913,47.2391080,38.8824247
103,улица Калинина,347913,47.2381264,38.8824161
104,улица Калинина,347913,47.2394866,38.8833691
92,улица Калинина,347913,47.2374954,38.8833791
96,улица Калинина,347913,47.2382878,38.8836936
99,улица Калинина,347913,47.2371127,38.8827893
125А,Транспортная улица,347913,47.2377364,38.8839332
123,Транспортная улица,347913,47.2368376,38.8844416
101,улица Калинина,347913,47.2375742,38.8827954
94,улица Калинина,347913,47.2379178,38.8834866
102,улица Калинина,347913,47.2390423,38.8835290
131,Транспортная улица,347913,47.2390186,38.8844492
106,улица Калинина,347913,47.2399530,38.8833817
108,улица Калинина,347913,47.2404124,38.8835163
137,Транспортная улица,347913,47.2404030,38.8845044
98,улица Калинина,347913,47.2384880,38.8833539
135,Транспортная улица,347913,47.2399338,38.8846042
133,Транспортная улица,347913,47.2394669,38.8845784
4,улица Богдана Хмельницкого,347913,47.2367573,38.8839067
100,улица Калинина,347913,47.2387125,38.8837003
129,Транспортная улица,347913,47.2384622,38.8842600
131А,Транспортная улица,347913,47.2391920,38.8839909
125,Транспортная улица,347913,47.2373628,38.8844665
135А,Транспортная улица,347913,47.2402455,38.8839842
127,Транспортная улица,347913,47.2379182,38.8843568
9 к2,Большая Бульварная улица,347913,47.2418587,38.8881995
5,улица Яблочкина,347913,47.2428700,38.8839755
147,Транспортная улица,347913,47.2428195,38.8848206
145А,Транспортная улица,347913,47.2424348,38.8842473
1,Большая Бульварная улица,347913,47.2398040,38.8879388
3,улица Яблочкина,347913,47.2428580,38.8844622
56,Транспортная улица,347913,47.2416250,38.8859864
10 к1,улица Седова,347913,47.2402969,38.8870549
7,Большая Бульварная улица,347913,47.2410230,38.8887285
8,улица Седова,347913,47.2396698,38.8875791
5,Большая Бульварная улица,347913,47.2405610,38.8884259
9,улица Седова,347913,47.2396983,38.8859846
60,Транспортная улица,347913,47.2423520,38.8861332
5,улица Седова,347913,47.2393311,38.8872770
145,Транспортная улица,347913,47.2425053,38.8847777
52,Транспортная улица,347913,47.2407895,38.8859924
9 к3,Большая Бульварная улица,347913,47.2421183,38.8873598
7,улица Яблочкина,347913,47.2428517,38.8835942
7,улица Седова,347913,47.2395277,38.8866218
10,улица Седова,347913,47.2399121,38.8868691
5,улица Седова,347913,47.2390362,38.8874048
3,Большая Бульварная улица,347913,47.2401802,38.8881645
12,улица Седова,347913,47.2402861,38.8861019
9 к4,Большая Бульварная улица,347913,47.2420338,38.8866388
58,Транспортная улица,347913,47.2419661,38.8860628
15 к1,Котлостроительная улица,347910,47.2409745,38.8957236
15 к2,Котлостроительная улица,347910,47.2408454,38.8949542
13-1,Котлостроительная улица,347910,47.2407029,38.8964718
6,Театральная улица,347913,47.2330207,38.8825142
18,Театральная улица,347913,47.2330856,38.8799370
20,Театральная улица,347913,47.2332023,38.8785487
160,улица Дзержинского,347924,47.2548178,38.9185635
27,улица Москатова,347924,47.2598739,38.9129165
185,улица Дзержинского,347924,47.2592617,38.9175853
9,улица Сергея Лазо,347924,47.2594037,38.9148307
178,улица Дзержинского,347924,47.2592085,38.9184297
173,улица Дзержинского,347924,47.2557104,38.9173301
162,улица Дзержинского,347924,47.2553315,38.9184075
171,улица Дзержинского,347924,47.2552147,38.9175847
175,улица Дзержинского,347924,47.2561566,38.9172766
158,улица Дзержинского,347924,47.2543318,38.9184147
164,улица Дзержинского,347924,47.2557069,38.9187175
179,улица Дзержинского,347924,47.2575344,38.9175635
166,улица Дзержинского,347924,47.2561448,38.9186523
177,улица Дзержинского,347924,47.2566505,38.9175572
168,улица Дзержинского,347924,47.2565146,38.9183866
169,улица Дзержинского,347924,47.2544560,38.9176020
111 к3,улица Дзержинского,347905,47.2389124,38.9156155
8,Заводская улица,347905,47.2393753,38.9193975
339 к3,улица Чехова,347939,47.2187415,38.8649694
8,улица Сызранова,347939,47.2170375,38.8631756
6,улица Сызранова,347939,47.2165039,38.8634753
2А,Транспортная улица,347927,47.2171391,38.8819707
10/2,улица Сызранова,347939,47.2181308,38.8641236
4,улица Сызранова,347939,47.2160030,38.8637695
16,улица Шаумяна,347909,47.2656573,38.9302069
20,улица Шаумяна,347909,47.2653871,38.9288334
14,улица Урицкого,347909,47.2649204,38.9308092
18,улица Шаумяна,347909,47.2657676,38.9294274
8,улица Шаумяна,347909,47.2663376,38.9337816
20 к1,улица Шаумяна,347909,47.2657677,38.9286446
96,Петровская улица,347900,47.2167368,38.9276532
69-1,улица Ломоносова,347932,47.2303650,38.8761260
7,площадь Мира,347930,47.2174189,38.8988358
196,улица Сергея Шило,347932,47.2238050,38.8675453
192,улица Сергея Шило,347932,47.2241465,38.8687542
190,улица Сергея Шило,347932,47.2245099,38.8698932
318/2,улица Чехова,347939,47.2226400,38.8684304
55,улица Ломоносова,347932,47.2268739,38.8749881
60,улица Пархоменко,347939,47.2259854,38.8664878
13,Мариупольское шоссе,347939,47.2273141,38.8698108
318/1,улица Чехова,347939,47.2222541,38.8686455
17,Мариупольское шоссе,347939,47.2268699,38.8677426
27/2 с3,Мариупольское шоссе,347939,47.2238854,38.8609761
46,Большой проспект,347930,47.2168876,38.8910405
48,Большой проспект,347930,47.2162895,38.8910198
44,Большой проспект,347930,47.2175393,38.8909463
48 к1,Большой проспект,347930,47.2166443,38.8903075
1,площадь Авиаторов,347923,47.1975214,38.8801318
333А,улица Чехова,347393,47.2203319,38.8679044
9,Большая Бульварная улица,347913,47.2415432,38.8889532
2А-3,улица Маршала Жукова,347942,47.2772621,38.9325765
2А-1,улица Маршала Жукова,347942,47.2766476,38.9322100
2А-6,улица Маршала Жукова,347942,47.2780402,38.9322203
2А-2,улица Маршала Жукова,347942,47.2768119,38.9326068
2А-5,улица Маршала Жукова,347942,47.2780451,38.9328992
167/3,улица Сергея Шило,347932,47.2251467,38.8823070
27/2 с4,Мариупольское шоссе,347939,47.2241487,38.8627589
16Б,Виноградная улица,347927,47.2221517,38.8790579
309,улица Чехова,347927,47.2225086,38.8769415
79,улица Гастелло,347905,47.2335968,38.9237495
11,площадь Восстания,347904,47.2202504,38.9136445
33,Октябрьская улица,347904,47.2196181,38.9132773
37,Октябрьская улица,347904,47.2197924,38.9127758
44Г,Октябрьская улица,347904,47.2224081,38.9083373
37,улица Урицкого,347909,47.2644109,38.9297550
31-2,улица Москатова,347924,47.2572846,38.9113867
46,Петровская улица,347922,47.2103793,38.9377419
44,Петровская улица,347922,47.2101016,38.9377799
42,Петровская улица,347922,47.2098293,38.9383119
239,улица Сергея Шило,347939,47.2221847,38.8665371
239,улица Сергея Шило,347939,47.2224274,38.8664321
2,Лагерный переулок,347900,47.2078748,38.9025938
57,Петровская улица,347900,47.2129357,38.9324322
141,ДНТ Спутник,347916,47.2398106,38.8732060
142,ДНТ Спутник,347916,47.2398394,38.8728351
143,ДНТ Спутник,347916,47.2399049,38.8726412
144,ДНТ Спутник,347916,47.2399578,38.8723821
141,ДНТ Спутник,347916,47.2399048,38.8730833
140,ДНТ Спутник,347916,47.2399164,38.8734508
139,ДНТ Спутник,347916,47.2398426,38.8736502
138,ДНТ Спутник,347916,47.2398253,38.8738529
137,ДНТ Спутник,347916,47.2398048,38.8741721
137,ДНТ Спутник,347916,47.2398900,38.8741777
137,ДНТ Спутник,347916,47.2399568,38.8741793
155,ДНТ Спутник,347916,47.2396553,38.8722466
156,ДНТ Спутник,347916,47.2396468,38.8725094
157,ДНТ Спутник,347916,47.2395435,38.8728256
158,ДНТ Спутник,347916,47.2396036,38.8731646
159,ДНТ Спутник,347916,47.2395610,38.8734350
160,ДНТ Спутник,347916,47.2395534,38.8736809
161,ДНТ Спутник,347916,47.2395217,38.8738788
162,ДНТ Спутник,347916,47.2395623,38.8741292
170,ДНТ Спутник,347916,47.2393363,38.8722964
168,ДНТ Спутник,347916,47.2392745,38.8727223
167,ДНТ Спутник,347916,47.2392652,38.8730401
165,ДНТ Спутник,347916,47.2392644,38.8733005
166,ДНТ Спутник,347916,47.2392947,38.8734599
163,ДНТ Спутник,347916,47.2392349,38.8738200
27/2,Мариупольское шоссе,347939,47.2240001,38.8622191
27/2 с2А,Мариупольское шоссе,347939,47.2237999,38.8616655
27/4,Мариупольское шоссе,347939,47.2245565,38.8619222
27/4 с2,Мариупольское шоссе,347939,47.2244114,38.8613430
48,3-й Новый переулок,347942,47.2787742,38.9191668
32,3-й Артиллерийский переулок,347910,47.2379615,38.9109119
62,улица Чехова,347900,47.2079837,38.9308848
19,Инструментальная улица,347923,47.2020380,38.8905800
37/1,1-й Новый переулок,347942,47.2782723,38.9243659
1И,улица Маршала Жукова,347942,47.2730554,38.9322409
34,переулок Антона Глушко,347900,47.2104683,38.9236669
30,переулок Антона Глушко,347900,47.2117953,38.9245392
2А-4,улица Маршала Жукова,347942,47.2770431,38.9333194
39/1,Поляковское шоссе,347939,47.2084761,38.8626804
18А,Поляковское шоссе,347939,47.2102418,38.8637684
18А,Поляковское шоссе,347939,47.2105816,38.8639783
18А,Поляковское шоссе,347939,47.2103015,38.8640996
18А,Поляковское шоссе,347939,47.2106149,38.8636865
18А,Поляковское шоссе,347939,47.2105311,38.8646246
335,улица Чехова,347393,47.2207116,38.8677397
339/4,улица Чехова,347939,47.2191181,38.8645777
247,улица Сергея Шило,347939,47.2209645,38.8616290
247,улица Сергея Шило,347939,47.2214654,38.8614261
322,улица Чехова,347939,47.2210642,38.8659731
322,улица Чехова,347939,47.2213097,38.8658686
324,улица Чехова,347939,47.2206239,38.8643847
324,улица Чехова,347939,47.2208694,38.8642803
326,улица Чехова,347939,47.2201817,38.8627516
326,улица Чехова,347939,47.2204272,38.8626479
230,улица Чехова,347930,47.2206786,38.8915150
55,2-й Новый переулок,347942,47.2785650,38.9205225
4,3-я линия,347942,47.2775960,38.9234119
59,Греческая улица,347922,47.2106721,38.9386204
69,улица Чехова,347900,47.2069484,38.9313614
90,Петровская улица,347900,47.2162573,38.9287435
15,переулок Антона Глушко,347900,47.2130492,38.9271792
12,Мечниковский переулок,347900,47.2141427,38.9259658
8,Добролюбовский переулок,347922,47.2100721,38.9390934
55,Греческая улица,347922,47.2102484,38.9394721
57,Греческая улица,347922,47.2105174,38.9391712
44,Александровская улица,347922,47.2090680,38.9333147
76,Греческая улица,347900,47.2143239,38.9343935
5,"станция Таганрог 2, ж/д дома",347904,47.2210841,38.9135607
21,Украинский переулок,347922,47.2083557,38.9358917
21,Украинский переулок,347922,47.2087151,38.9349383
24,Смирновский переулок,347900,47.2143291,38.9112322
40,улица Фрунзе,347900,47.2151781,38.9272409
1,Заводская улица,347905,47.2393785,38.9238671
68,улица Осипенко,347905,47.2374080,38.9218994
1,Комсомольский спуск,347922,47.2059409,38.9488729
113А,Энергетическая улица,347930,47.2157549,38.8905169
113Б,Энергетическая улица,347930,47.2158797,38.8901253
97,Энергетическая улица,347930,47.2155171,38.8913555
6А,"станция Таганрог 2, ж/д дома",347904,47.2219882,38.9119638
6,"станция Таганрог 2, ж/д дома",347904,47.2217409,38.9123608
6,"станция Таганрог 2, ж/д дома",347904,47.2214764,38.9127939
165-7,улица Дзержинского,347924,47.2526556,38.9172377
108,улица Победы,347909,47.2782585,38.9578055
100,улица Победы,347909,47.2773295,38.9532119
102,улица Победы,347909,47.2775825,38.9543212
104,улица Победы,347909,47.2778607,38.9555905
106,улица Победы,347909,47.2781012,38.9566969
110,Петровская улица,347905,47.2213232,38.9205441
212 к3,улица Сергея Шило,347939,47.2201108,38.8522313
212Б,улица Сергея Шило,347939,47.2207525,38.8549857
32Д,улица Свободы,347902,47.2107886,38.8901807
36,Греческая улица,347922,47.2087366,38.9424526
117,Александровская улица,347900,47.2189816,38.9103741
1,3-й переулок,347900,47.2189465,38.9100121
17,улица Пирогова,347900,47.2206127,38.9096241
51,Петровская улица,37900,47.2117501,38.9330291
13/1,Большой Садовый переулок,347905,47.2231553,38.9245629
53,10-й переулок,347900,47.2172360,38.9020404
49,10-й переулок,347900,47.2175389,38.9023045
193 к1,улица Дзержинского,347924,47.2607674,38.9168111
143,Энергетическая улица,347927,47.2189956,38.8801775
143А,Энергетическая улица,347927,47.2190768,38.8799901
143Б,Энергетическая улица,347927,47.2191237,38.8797975
145,Энергетическая улица,347927,47.2191864,38.8795944
23,8-й переулок,347900,47.2171600,38.9039798
44-2,улица Чучева,347930,47.2156160,38.8573979
17,8-й переулок,347900,47.2177115,38.9043330
2А,улица Богдана Хмельницкого,347913,47.2367923,38.8834483
4А,улица Калинина,347932,47.2258887,38.8834171
20,Криво-Кузнечная улица,347900,47.2192792,38.9073039
80,21-й переулок,347930,47.2202484,38.8930263
224,улица Чехова,347930,47.2200878,38.8929317
3,Заводская улица,347905,47.2401569,38.9184194
26К,1-й Новый переулок,347942,47.2815731,38.9248308
12Б,переулок Трудовых Резервов,347902,47.2093942,38.8901037
78,21-й переулок,347930,47.2204361,38.8932089
76,21-й переулок,347930,47.2206232,38.8933494
15,8-й переулок,347900,47.2178666,38.9044513
30,7-й переулок,347900,47.2178339,38.9048445
22,7-й переулок,347900,47.2185007,38.9053598
24,7-й переулок,347900,47.2183619,38.9052851
26,7-й переулок,347900,47.2182431,38.9049963
73А,улица Чехова,347930,47.2204759,38.8928114
71А,улица Чехова,347930,47.2206557,38.8929246
71,улица Чехова,347930,47.2207830,38.8929569
1,Южный проезд,347927,47.2187348,38.8800217
13,Ейская улица,347930,47.2241662,38.8930596
110,улица Воскова,347924,47.2602859,38.9202796
6,8-й переулок,347900,47.2194303,38.9050882
13-26,Большая Бульварная улица,347913,47.2474628,38.8872669
13-26,Большая Бульварная улица,347913,47.2470675,38.8877320
13-26,Большая Бульварная улица,347913,47.2475844,38.8872508
20,Театральная улица,347913,47.2332480,38.8786503
22,Северная улица,347943,47.2708982,38.9069785
20,Северная улица,347943,47.2709766,38.9072424
18,Северная улица,347943,47.2710482,38.9074115
16,Северная улица,347943,47.2711294,38.9076179
14,Северная улица,347943,47.2712016,38.9078054
14А,Северная улица,347943,47.2712284,38.9079177
12,Северная улица,347943,47.2713040,38.9080933
10,Северная улица,347943,47.2713584,38.9082502
10А,Северная улица,347943,47.2713770,38.9083033
8,Северная улица,347943,47.2714697,38.9085164
6,Северная улица,347943,47.2715521,38.9087422
4,Северная улица,347943,47.2716692,38.9089402
2,Северная улица,347943,47.2717300,38.9091533
21,3-й Артиллерийский переулок,347910,47.2380467,38.9100333
1Е,улица Маршала Жукова,347942,47.2734353,38.9323414
13/6,Большой Садовый переулок,347905,47.2221136,38.9250992
13/5,Большой Садовый переулок,347905,47.2224555,38.9251345
13/4,Большой Садовый переулок,347905,47.2224431,38.9242726
13/3,Большой Садовый переулок,347905,47.2228982,38.9250688
13/2,Большой Садовый переулок,347905,47.2228949,38.9242224
14В,1-й Новый переулок,347942,47.2806329,38.9280450
14-4,1-й Новый переулок,347942,47.2799091,38.9264316
105А,улица Победы,347909,47.2791927,38.9560896
105,улица Победы,347909,47.2787102,38.9563593
105/105А,улица Победы,347942,47.2790619,38.9566796
103,улица Победы,347909,47.2784641,38.9540177
101,улица Победы,347909,47.2783204,38.9533647
55А,улица Галицкого,347933,47.2142028,38.8477260
55,улица Галицкого,347933,47.2150755,38.8474551
46/2,улица Чучева,347933,47.2155391,38.8567920
113А,14-й Новый переулок,347917,47.2699528,38.8882975
113,14-й Новый переулок,347917,47.2698623,38.8883663
111,14-й Новый переулок,347917,47.2697614,38.8884649
115,14-й Новый переулок,347917,47.2701420,38.8882106
117,14-й Новый переулок,347917,47.2702206,38.8880036
119,14-й Новый переулок,347917,47.2705173,38.8878021
121,14-й Новый переулок,347917,47.2706527,38.8876628
123,14-й Новый переулок,347917,47.2709295,38.8875506
66,14-й Новый переулок,347917,47.2701615,38.8888086
75,15-й Новый переулок,347917,47.2713495,38.8867352
64,14-й Новый переулок,347917,47.2699318,38.8888790
134,Дачная улица,347917,47.2697652,38.8890969
109,14-й Новый переулок,347917,47.2695013,38.8885806
78А,14-й Новый переулок,347917,47.2714381,38.8877449
19,Молодёжный переулок,347917,47.2718999,38.8887906
39,улица Галицкого,347933,47.2135521,38.8481668
24Б,улица Морозова,347931,47.2506246,38.9253305
9А,Марцевский переулок,347932,47.2342096,38.8870655
30,Мариупольское шоссе,347939,47.2290728,38.8634269
62,Мариупольское шоссе,347939,47.2305588,38.8618784
261,улица Сергея Шило,347933,47.2189723,38.8531897
59А,улица Галицкого,347933,47.2148405,38.8466032
96,улица Ломоносова,347916,47.2344252,38.8770749
20,Театральная улица,347913,47.2333177,38.8791442
6,Театральная улица,347913,47.2329515,38.8822130
96,улица Ломоносова,347916,47.2343731,38.8768233
96,улица Ломоносова,347916,47.2344816,38.8768286
18,Театральная улица,347913,47.2329282,38.8801328
9А,Марцевский переулок,347932,47.2342933,38.8871185
9А,Марцевский переулок,347932,47.2343325,38.8870256
30,Театральная улица,347916,47.2333663,38.8756712
22,улица Сызранова,347939,47.2228823,38.8601181
19,улица Адмирала Крюйса,347900,47.2247479,38.9331262
12А,переулок Трудовых Резервов,347902,47.2092251,38.8898353
61,Инициативная улица,347936,47.2607290,38.9096262
70,21-й переулок,347930,47.2211505,38.8937236
68,21-й переулок,347930,47.2212820,38.8936669
1,Трудовая улица,347930,47.2213097,38.8938627
3,Трудовая улица,347930,47.2214039,38.8936063
65,улица Чехова,347930,47.2214566,38.8934470
67,улица Чехова,347930,47.2212312,38.8933259
67Б,улица Чехова,347930,47.2210848,38.8931988
69,улица Чехова,347930,47.2210162,38.8931494
73,улица Чехова,347930,47.2205934,38.8928088
75А,улица Чехова,347930,47.2203736,38.8926682
74,21-й переулок,347930,47.2207966,38.8934220
72А,21-й переулок,347930,47.2208570,38.8935300
72,21-й переулок,347930,47.2209529,38.8936090
70А,21-й переулок,347930,47.2210273,38.8936690
66,улица Осипенко,347905,47.2370683,38.9216393
2/5,Николаевское шоссе,347913,47.2423529,38.8837264
265В,улица Сергея Шило,347930,47.2185427,38.8506545
39Б,улица Галицкого,347933,47.2139787,38.8468419
66А,улица Осипенко,347905,47.2366501,38.9212890
24А,улица Морозова,347931,47.2511405,38.9254514
148,улица Победы,347909,47.2776635,38.9579981
22Б,1-й Новый переулок,347942,47.2803909,38.9247840
44,Пролетарская улица,347902,47.2123438,38.8938012
46,Пролетарская улица,347902,47.2123256,38.8934975
47А,Татарская улица,347902,47.2127902,38.8938349
94А,14-й переулок,347902,47.2125644,38.8938220
45,Татарская улица,347902,47.2126774,38.8941070
47,Татарская улица,347902,47.2127373,38.8936498
49,Татарская улица,347902,47.2128328,38.8934600
97,16-й переулок,347902,47.2127799,38.8927723
51,Татарская улица,347902,47.2129521,38.8931539
53,Татарская улица,347902,47.2130023,38.8929776
6А,улица Калинина,347932,47.2267030,38.8834362
3,улица Маргелова,347909,47.2747940,38.9514889
25,улица Свободы,347902,47.2102106,38.8903707
54/4,Вишнёвая улица,347916,47.2342230,38.8740505
87,улица Свободы,347927,47.2173824,38.8835860
75,улица Свободы,347927,47.2170992,38.8836089
73,улица Свободы,347927,47.2170339,38.8838329
73А,улица Свободы,347927,47.2169542,38.8838540
71,улица Свободы,347927,47.2167943,38.8837296
69,улица Свободы,347927,47.2167477,38.8840941
39,улица Олега Кошевого,347927,47.2163226,38.8844615
67,улица Свободы,347927,47.2165203,38.8840426
37,улица Олега Кошевого,347927,47.2162282,38.8842506
145А,Энергетическая улица,347927,47.2191847,38.8794360
145Б,Энергетическая улица,347927,47.2193017,38.8791945
4,улица Ново-Сафронова,347927,47.2192840,38.8788191
147,Энергетическая улица,347927,47.2194427,38.8787080
6,улица Ново-Сафронова,347927,47.2191704,38.8786975
8,улица Ново-Сафронова,347927,47.2190177,38.8787815
10,улица Ново-Сафронова,347927,47.2189178,38.8786867
12,улица Ново-Сафронова,347927,47.2187653,38.8786946
11,Южный проезд,347927,47.2187611,38.8789791
9,Южный проезд,347927,47.2187411,38.8791451
7,Южный проезд,347927,47.2187374,38.8793492
5,Южный проезд,347927,47.2187416,38.8795559
3,Южный проезд,347927,47.2187301,38.8797725
22,Мариупольское шоссе,347932,47.2289953,38.8599451
4,Парковый переулок,347905,47.2369255,38.9221680
226,улица Чехова,347930,47.2201802,38.8925163
75,улица Чехова,347930,47.2202504,38.8926162
24,улица Сызранова,347939,47.2235790,38.8595262
23-1,улица Сызранова,347933,47.2222999,38.8587909
375,улица Чехова,347933,47.2136015,38.8519491
46/1,улица Чучева,347933,47.2151447,38.8558591
58-2,улица Пархоменко,347932,47.2260620,38.8688853
23А,улица Сызранова,347933,47.2230790,38.8587768
23-2,Инструментальная улица,347923,47.1991356,38.8912269
67,1-я Котельная улица,347910,47.2343943,38.9075213
20Б,улица Морозова,347931,47.2507352,38.9246216
1,улица Маргелова,347909,47.2743646,38.9527170
97,улица Победы,347909,47.2780867,38.9523332
95,улица Победы,347909,47.2778500,38.9512501
