House number,Street name,Postal code,Latitude,Longitude
53,улица Ленина,347360,47.5183727,42.1536241
7,Молодёжная улица,347360,47.5136039,42.2024461
60,улица Ленина,347360,47.5175853,42.1523251
1,улица Ленина,347366,47.5287166,42.1395298
21Б,проспект Строителей,347382,47.5182684,42.1995137
21,проспект Строителей,347382,47.5182412,42.1994572
1Б,улица Черникова,347375,47.5230151,42.2029761
12Г,улица Энтузиастов,347382,47.5154514,42.2005268
59,Пионерская улица,347360,47.5164212,42.1429502
14,улица Дружбы,347380,47.5210158,42.2129152
47,улица Ленина,347360,47.5193525,42.1521431
14А,улица Энтузиастов,347382,47.5162244,42.1993947
27,проспект Строителей,347382,47.5184238,42.1983179
14,проспект Курчатова,347380,47.5175819,42.2083757
8,проспект Мира,347386,47.5248369,42.2269218
39А,проспект Строителей,347382,47.5202727,42.2008548
47,проспект Курчатова,347375,47.5273484,42.2015874
12,проспект Курчатова,347380,47.5173641,42.2086945
18,улица Маршала Кошевого,347380,47.5218650,42.2122031
12А,улица Энтузиастов,347382,47.5151133,42.2018661
5Б,Складская улица,347360,47.5377820,42.1244084
75,улица Гагарина,347386,47.5268234,42.2310442
12,проспект Курчатова,347380,47.5176977,42.2083828
18,улица Маршала Кошевого,347380,47.5216252,42.2117816
4Б,Западный переулок,347371,47.5116935,42.1949784
4Б,Западный переулок,347371,47.5116891,42.1950878
18,Молодёжная улица,347382,47.5135964,42.2037503
1,Лозновский переулок,347387,47.5359760,42.2075522
9,Лозновский переулок,347387,47.5364269,42.2083582
11,Лозновский переулок,347387,47.5365121,42.2085272
14,проспект Курчатова,347380,47.5174701,42.2084832
12,проспект Курчатова,347380,47.5173614,42.2089486
8,проспект Курчатова,347380,47.5168279,42.2103175
8,проспект Курчатова,347380,47.5165390,42.2098286
8,проспект Курчатова,347380,47.5171437,42.2091115
5,проспект Строителей,347371,47.5143899,42.1933204
2Б,Западный переулок,347371,47.5115067,42.1945703
4В,Западный переулок,347371,47.5118872,42.1946213
3,проспект Строителей,347371,47.5143645,42.1927223
10,улица Энтузиастов,347382,47.5143090,42.2022219
15Б,улица Гагарина,347380,47.5158089,42.2114481
10,улица Маршала Кошевого,347380,47.5190261,42.2105471
6Д,улица Маршала Кошевого,347380,47.5193115,42.2103395
14,улица Маршала Кошевого,347380,47.5204278,42.2112475
4,улица Маршала Кошевого,347380,47.5181838,42.2086271
4,улица Маршала Кошевого,347380,47.5181911,42.2088511
10,улица Дружбы,347380,47.5190798,42.2132265
3Г,Дуговая улица,347375,47.5326008,42.1797989
5,переулок Маяковского,347360,47.5083143,42.1338310
84,Морская улица,347360,47.5169009,42.1576420
88,Морская улица,347360,47.5166328,42.1580270
92,Морская улица,347360,47.5163615,42.1584249
7,переулок Маяковского,347360,47.5086702,42.1361665
4,улица 30 лет Победы,347360,47.5068008,42.1625686
153,улица Максима Горького,347360,47.5058351,42.1639250
114,улица Ленина,347360,47.5068814,42.1661534
179,Степная улица,347360,47.5032389,42.1701642
171,Степная улица,347360,47.5032298,42.1682597
165,улица Максима Горького,347360,47.5056857,42.1659342
155А,улица Максима Горького,347360,47.5042807,42.1652468
187,Степная улица,347360,47.5032554,42.1719027
171,улица Максима Горького,347360,47.5057623,42.1676720
157А,улица Максима Горького,347360,47.5042251,42.1644678
163,Степная улица,347360,47.5032472,42.1663549
90,Морская улица,347360,47.5167184,42.1586568
71,улица Ленина,347360,47.5158536,42.1575660
86,Морская улица,347360,47.5170434,42.1581845
67,улица Ленина,347360,47.5166995,42.1565530
82,Морская улица,347360,47.5174779,42.1575494
80,Морская улица,347360,47.5173123,42.1565068
61,улица Ленина,347360,47.5177787,42.1545367
57,улица Ленина,347360,47.5180488,42.1541249
51,улица Ленина,347360,47.5179441,42.1535431
76,Морская улица,347360,47.5182552,42.1564082
53,улица Ленина,347360,47.5183349,42.1537113
70,Морская улица,347360,47.5189263,42.1543890
78,Морская улица,347360,47.5178270,42.1560462
72,Морская улица,347360,47.5190010,42.1553263
74,Морская улица,347360,47.5182250,42.1552975
63,улица Ленина,347360,47.5173686,42.1551184
66,Морская улица,347360,47.5195882,42.1542650
66А,Морская улица,347360,47.5200728,42.1543379
64,Морская улица,347360,47.5204217,42.1533954
68,Морская улица,347360,47.5196287,42.1531545
77Б,улица Максима Горького,347360,47.5165683,42.1486589
5,улица 50 лет ВЛКСМ,347360,47.5170097,42.1520019
77,улица Максима Горького,347360,47.5163685,42.1457938
77/1,улица Максима Горького,347360,47.5146808,42.1483152
72,улица Ленина,347360,47.5162101,42.1550283
165,Степная улица,347360,47.5039002,42.1671293
177,Степная улица,347360,47.5039431,42.1691211
175,Степная улица,347360,47.5036806,42.1695005
167,Степная улица,347360,47.5036092,42.1675566
69,улица Ленина,347360,47.5160578,42.1565837
65,улица Ленина,347360,47.5166080,42.1556831
82,улица Ленина,347360,47.5154108,42.1562084
74,улица Ленина,347360,47.5156149,42.1553619
21,улица 50 лет СССР,347360,47.5142834,42.1547882
19,улица 50 лет СССР,347360,47.5139650,42.1549359
23,улица 50 лет СССР,347360,47.5147685,42.1552370
80,улица Ленина,347360,47.5148544,42.1532818
10,улица 50 лет ВЛКСМ,347360,47.5141461,42.1528224
75,улица Ленина,347360,47.5142453,42.1594055
6,улица 50 лет ВЛКСМ,347360,47.5154831,42.1518590
70,улица Ленина,347360,47.5157200,42.1542004
76А,улица Ленина,347360,47.5150834,42.1547159
78,улица Ленина,347360,47.5151222,42.1537219
76,улица Ленина,347360,47.5145770,42.1541577
101,Пионерская улица,347360,47.5119020,42.1484185
107,Пионерская улица,347360,47.5112827,42.1493414
72А,улица Ленина,347360,47.5163457,42.1545074
107,улица Ленина,347360,47.5100920,42.1653432
103,улица Ленина,347360,47.5104384,42.1648295
101,улица Ленина,347360,47.5106097,42.1645758
105,улица Ленина,347360,47.5102658,42.1650834
99,улица Ленина,347360,47.5107807,42.1643255
4,улица 50 лет ВЛКСМ,347360,47.5147652,42.1509108
79,улица Максима Горького,347360,47.5144991,42.1496774
49,улица Ленина,347360,47.5189073,42.1529420
47,улица Ленина,347360,47.5194587,42.1521908
31,Морская улица,347360,47.5165441,42.1602690
8,улица 50 лет ВЛКСМ,347360,47.5161633,42.1521908
62,улица Ленина,347360,47.5167875,42.1530455
68,улица Ленина,347360,47.5158731,42.1534401
66,улица Ленина,347360,47.5161548,42.1530315
64,улица Ленина,347360,47.5167752,42.1541947
29,улица Ленина,347360,47.5225023,42.1476677
28,улица Ленина,347360,47.5219402,42.1459290
11,улица 50 лет СССР,347360,47.5136501,42.1538584
77А,улица Максима Горького,347360,47.5156963,42.1472993
7,улица 50 лет СССР,347360,47.5133172,42.1533698
1,улица 50 лет СССР,347360,47.5123785,42.1517050
91,улица Максима Горького,347360,47.5132780,42.1522676
85,улица Максима Горького,347360,47.5134222,42.1506793
81,улица Максима Горького,347360,47.5138014,42.1498739
9,улица 50 лет СССР,347360,47.5132509,42.1538443
87,улица Максима Горького,347360,47.5138510,42.1517279
5,улица 50 лет СССР,347360,47.5130219,42.1526585
91,улица Максима Горького,347360,47.5129093,42.1515439
83,улица Максима Горького,347360,47.5140006,42.1507476
89,улица Максима Горького,347360,47.5131363,42.1511163
3,улица 50 лет СССР,347360,47.5125015,42.1527327
2/10,Комсомольская улица,347360,47.5150116,42.1410264
7,Комсомольская улица,347360,47.5146594,42.1420526
11,Комсомольская улица,347360,47.5144158,42.1423776
17,Комсомольская улица,347360,47.5139942,42.1429715
15,Комсомольская улица,347360,47.5141393,42.1427310
30,Комсомольская улица,347360,47.5134868,42.1431461
14,Комсомольская улица,347360,47.5142807,42.1420532
16,Комсомольская улица,347360,47.5142071,42.1421544
22,Комсомольская улица,347360,47.5138762,42.1425979
21,Комсомольская улица,347360,47.5137513,42.1432992
9,Комсомольская улица,347360,47.5145315,42.1422110
26,Комсомольская улица,347360,47.5136758,42.1428820
1/12,Комсомольская улица,347360,47.5152014,42.1412639
1А,Комсомольская улица,347360,47.5150133,42.1415539
32/7,Комсомольская улица,347360,47.5133041,42.1434011
10,Комсомольская улица,347360,47.5144693,42.1417771
23/9,Комсомольская улица,347360,47.5134927,42.1436911
13,Комсомольская улица,347360,47.5142751,42.1425930
5,Комсомольская улица,347360,47.5148022,42.1418611
18,Комсомольская улица,347360,47.5140767,42.1423194
12,Комсомольская улица,347360,47.5143953,42.1418741
19,Комсомольская улица,347360,47.5138774,42.1431280
3,Комсомольская улица,347360,47.5149224,42.1416813
20,Комсомольская улица,347360,47.5140044,42.1424151
24,Комсомольская улица,347360,47.5137896,42.1427047
28,Комсомольская улица,347360,47.5135971,42.1429775
12,улица 30 лет Победы,347360,47.5073621,42.1647998
16,улица 30 лет Победы,347360,47.5085770,42.1646306
161,улица Максима Горького,347360,47.5055550,42.1651303
14,улица 30 лет Победы,347360,47.5076242,42.1654540
2,улица 30 лет Победы,347360,47.5064613,42.1614942
126А,Морская улица,347360,47.5073222,42.1724202
167,улица Максима Горького,347360,47.5050187,42.1665771
112,улица Ленина,347360,47.5081020,42.1659877
6,улица 30 лет Победы,347360,47.5075164,42.1630629
147,улица Максима Горького,347360,47.5057387,42.1622072
169,улица Максима Горького,347360,47.5055182,42.1669082
155,улица Максима Горького,347360,47.5053837,42.1638753
10,улица 30 лет Победы,347360,47.5078527,42.1641314
173,улица Максима Горького,347360,47.5049845,42.1682517
122,Морская улица,347360,47.5089518,42.1700242
149,улица Максима Горького,347360,47.5059856,42.1630234
116,Морская улица,347360,47.5103615,42.1678694
161А,улица Максима Горького,347360,47.5044788,42.1665275
11,Молодёжная улица,347360,47.5145586,42.2035094
35,улица Ленина,347360,47.5214567,42.1489663
52,Морская улица,347360,47.5220308,42.1508741
62,Морская улица,347360,47.5207022,42.1526370
31,улица Ленина,347360,47.5219970,42.1481608
33,улица Ленина,347360,47.5215495,42.1482886
54,Морская улица,347360,47.5216781,42.1513942
58,Морская улица,347360,47.5206081,42.1516038
30,улица Ленина,347360,47.5219151,42.1465470
41,улица Ленина,347360,47.5203774,42.1505456
48,Морская улица,347360,47.5222062,42.1492595
45,улица Ленина,347360,47.5199234,42.1514910
56,Морская улица,347360,47.5213707,42.1518839
34,улица Ленина,347360,47.5212962,42.1475659
39,улица Ленина,347360,47.5207432,42.1500103
50,Морская улица,347360,47.5223875,42.1503445
43,улица Ленина,347360,47.5199008,42.1507452
37,улица Ленина,347360,47.5210965,42.1494960
60,Морская улица,347360,47.5211861,42.1526444
38,улица Ленина,347360,47.5209365,42.1481731
42,улица Ленина,347360,47.5205792,42.1486230
46,Морская улица,347360,47.5228742,42.1501435
6,Комсомольская улица,347360,47.5146555,42.1415136
4,Комсомольская улица,347360,47.5147706,42.1413096
8,Комсомольская улица,347360,47.5145972,42.1415946
35,Степная улица,347360,47.5139288,42.1412071
43,Степная улица,347360,47.5135525,42.1417766
31,Степная улица,347360,47.5141137,42.1409276
51,Степная улица,347360,47.5131799,42.1423281
39,Степная улица,347360,47.5137335,42.1414871
5,Коммунистический переулок,347360,47.5131313,42.1431311
47,Степная улица,347360,47.5133735,42.1420485
8,Октябрьский переулок,347360,47.5148710,42.1408277
55/1,Степная улица,347360,47.5128864,42.1427825
27,Степная улица,347360,47.5143204,42.1406638
4,Октябрьский переулок,347360,47.5146513,42.1405176
33,Степная улица,347360,47.5140093,42.1411009
41,Степная улица,347360,47.5136276,42.1416825
29,Степная улица,347360,47.5142063,42.1408050
49,Степная улица,347360,47.5132589,42.1422313
37,Степная улица,347360,47.5138127,42.1413926
3,Коммунистический переулок,347360,47.5130545,42.1430306
45,Степная улица,347360,47.5134453,42.1419181
53,Степная улица,347360,47.5130707,42.1425062
25/2,Степная улица,347360,47.5145194,42.1403806
6,Октябрьский переулок,347360,47.5147968,42.1407187
58,Пионерская улица,347360,47.5152818,42.1425832
54/18,Пионерская улица,347360,47.5156763,42.1420049
14,Октябрьский переулок,347360,47.5153941,42.1415831
11,Коммунистический переулок,347360,47.5136576,42.1439334
62,Пионерская улица,347360,47.5150287,42.1429731
76/15,Пионерская улица,347360,47.5140076,42.1444384
72,Пионерская улица,347360,47.5144171,42.1438869
64,Пионерская улица,347360,47.5149167,42.1431424
56,Пионерская улица,347360,47.5154344,42.1424019
68,Пионерская улица,347360,47.5146664,42.1435150
16,Октябрьский переулок,347360,47.5155460,42.1417855
13,Коммунистический переулок,347360,47.5138596,42.1442473
60,Пионерская улица,347360,47.5151780,42.1427857
74,Пионерская улица,347360,47.5142781,42.1440872
66,Пионерская улица,347360,47.5147839,42.1433478
70,Пионерская улица,347360,47.5144337,42.1436627
105,Пионерская улица,347360,47.5119688,42.1498209
103,Пионерская улица,347360,47.5122403,42.1493731
109,Пионерская улица,347360,47.5116119,42.1501763
102,улица Максима Горького,347360,47.5121695,42.1511673
67,Степная улица,347360,47.5104808,42.1463865
100,улица Максима Горького,347360,47.5128686,42.1501168
6А,улица 50 лет СССР,347360,47.5135265,42.1555697
6,улица 50 лет СССР,347360,47.5132099,42.1549846
4А,улица 50 лет СССР,347360,47.5128427,42.1545018
2,улица 50 лет СССР,347360,47.5118772,42.1530025
115,Пионерская улица,347360,47.5109369,42.1501578
99,Пионерская улица,347360,47.5125386,42.1488291
8,улица 50 лет СССР,347360,47.5139190,42.1560121
4,улица 50 лет СССР,347360,47.5124953,42.1539047
111,Пионерская улица,347360,47.5112389,42.1512018
104,улица Максима Горького,347360,47.5116047,42.1519756
52,улица Ленина,347360,47.5190340,42.1500530
110,Морская улица,347360,47.5115356,42.1658378
35,улица 30 лет Победы,347360,47.5104679,42.1660572
118,Морская улица,347360,47.5094108,42.1679558
97,улица Ленина,347360,47.5116627,42.1645424
128,Морская улица,347360,47.5064794,42.1723070
93,улица Ленина,347360,47.5112692,42.1635220
124,Морская улица,347360,47.5080454,42.1700101
112,Морская улица,347360,47.5112700,42.1662363
20,улица 30 лет Победы,347360,47.5097091,42.1666481
114,Морская улица,347360,47.5109941,42.1666271
95,улица Ленина,347360,47.5115556,42.1639019
48А,Морская улица,347360,47.5214401,42.1505006
90,улица Ленина,347360,47.5141964,42.1579956
10,улица 50 лет СССР,347360,47.5145331,42.1569346
1,Советская улица,347360,47.5279436,42.1391261
48,улица Ленина,347360,47.5199985,42.1494203
38/1,Октябрьский переулок,347360,47.5179184,42.1459739
3,улица Думенко,347360,47.5176345,42.1449084
38/2,Октябрьский переулок,347360,47.5182312,42.1464490
36,улица Ленина,347360,47.5206993,42.1475557
47,Советская улица,347360,47.5186269,42.1469744
40,улица Ленина,347360,47.5204495,42.1479406
1,улица Думенко,347360,47.5172424,42.1454855
44,улица Ленина,347360,47.5201880,42.1483279
8,улица Ленина,347360,47.5197358,42.1491081
30А,улица Ленина,347360,47.5214288,42.1463868
32,улица Ленина,347360,47.5216325,42.1470857
45,Советская улица,347360,47.5193575,42.1458370
46,улица Ленина,347360,47.5202162,42.1491893
29А,улица Ленина,347360,47.5222805,42.1481249
7,улица Лермонтова,347360,47.5227605,42.1424329
10,улица Лермонтова,347360,47.5228574,42.1432722
6,улица Лермонтова,347360,47.5225235,42.1427756
12,улица Лермонтова,347360,47.5227773,42.1438637
18,улица Ленина,347360,47.5238417,42.1438380
8,улица Лермонтова,347360,47.5224440,42.1433830
11,улица Лермонтова,347360,47.5234433,42.1428627
67,Первомайский переулок,347360,47.5219791,42.1435539
3,улица Лермонтова,347360,47.5225358,42.1419193
13,улица Лермонтова,347360,47.5234081,42.1434038
5,улица Лермонтова,347360,47.5231089,42.1424230
9,улица Лермонтова,347360,47.5230779,42.1429186
41,Советская улица,347360,47.5212173,42.1429751
38,Донской переулок,347360,47.5247670,42.1424876
39,Советская улица,347360,47.5214425,42.1425696
16,улица Ленина,347360,47.5243565,42.1431932
34,Донской переулок,347360,47.5239461,42.1416355
4,улица Лермонтова,347360,47.5221164,42.1424906
32,Донской переулок,347360,47.5238975,42.1409493
24,улица Ленина,347360,47.5227674,42.1452676
37,Советская улица,347360,47.5217921,42.1420490
36,Донской переулок,347360,47.5244221,42.1417246
26,улица Ленина,347360,47.5224325,42.1455382
14,улица Лермонтова,347360,47.5231827,42.1437395
61,Первомайский переулок,347360,47.5213046,42.1437467
65,Первомайский переулок,347360,47.5220243,42.1450842
20,улица Ленина,347360,47.5235078,42.1444319
63,Первомайский переулок,347360,47.5215860,42.1444489
30,Донской переулок,347360,47.5235374,42.1404083
22,улица Ленина,347360,47.5231224,42.1449895
69,Первомайский переулок,347360,47.5220156,42.1444514
71,Первомайский переулок,347360,47.5226627,42.1445568
75,Волгодонская улица,347360,47.5195023,42.1431721
40,Первомайский переулок,347360,47.5199808,42.1428525
72,Советская улица,347360,47.5201209,42.1437200
78,Советская улица,347360,47.5197663,42.1442687
42,Первомайский переулок,347360,47.5201271,42.1431884
86,Советская улица,347360,47.5192485,42.1450231
74А,Советская улица,347360,47.5198514,42.1438596
49,Октябрьский переулок,347360,47.5185391,42.1455613
82,Советская улица,347360,47.5195008,42.1446610
89,Волгодонская улица,347360,47.5185890,42.1444726
90,Советская улица,347360,47.5189891,42.1453990
81,Волгодонская улица,347360,47.5191184,42.1437116
93/45,Волгодонская улица,347360,47.5182136,42.1450423
73,Волгодонская улица,347360,47.5196161,42.1429523
40А,Первомайский переулок,347360,47.5200260,42.1429872
85,Волгодонская улица,347360,47.5188568,42.1440864
74,Советская улица,347360,47.5200026,42.1439015
77,Волгодонская улица,347360,47.5193485,42.1433785
71/38,Волгодонская улица,347360,47.5198753,42.1427810
80,Советская улица,347360,47.5196311,42.1444529
70/44,Советская улица,347360,47.5203487,42.1433886
88,Советская улица,347360,47.5191103,42.1452344
76,Советская улица,347360,47.5198707,42.1440958
47,Октябрьский переулок,347360,47.5184244,42.1453537
84,Советская улица,347360,47.5193539,42.1448512
87,Волгодонская улица,347360,47.5187296,42.1442714
79,Волгодонская улица,347360,47.5192301,42.1435242
91,Волгодонская улица,347360,47.5184814,42.1446807
83,Волгодонская улица,347360,47.5190032,42.1439420
42,Морская улица,347360,47.5233550,42.1494672
40,Морская улица,347360,47.5237680,42.1488446
38,Морская улица,347360,47.5236441,42.1483570
44,Морская улица,347360,47.5228659,42.1494276
7,Донской переулок,347360,47.5217485,42.1368357
19,переулок Маяковского,347360,47.5124764,42.1479264
90,улица Серафимовича,347360,47.5142149,42.1462551
83,Пионерская улица,347360,47.5133445,42.1461221
85,Пионерская улица,347360,47.5132172,42.1463028
106,улица Серафимовича,347360,47.5131876,42.1477651
104,улица Серафимовича,347360,47.5133190,42.1475769
93,Пионерская улица,347360,47.5127150,42.1471157
96,улица Серафимовича,347360,47.5138396,42.1468243
24,Коммунистический переулок,347360,47.5144343,42.1459170
95,Пионерская улица,347360,47.5125848,42.1472640
77,Пионерская улица,347360,47.5137444,42.1455648
79,Пионерская улица,347360,47.5135992,42.1457380
94,улица Серафимовича,347360,47.5139578,42.1466363
110,улица Серафимовича,347360,47.5129556,42.1481263
89,Пионерская улица,347360,47.5129656,42.1466961
92,улица Серафимовича,347360,47.5140747,42.1464206
87,Пионерская улица,347360,47.5130963,42.1465020
102,улица Серафимовича,347360,47.5134556,42.1473928
108,улица Серафимовича,347360,47.5130476,42.1479282
22,Коммунистический переулок,347360,47.5142892,42.1457201
20,Коммунистический переулок,347360,47.5141245,42.1455136
91,Пионерская улица,347360,47.5128442,42.1468734
97/17,Пионерская улица,347360,47.5123099,42.1476964
100,улица Серафимовича,347360,47.5135747,42.1472051
98,улица Серафимовича,347360,47.5136882,42.1470080
81,Пионерская улица,347360,47.5134770,42.1459283
75/18,Пионерская улица,347360,47.5139396,42.1452193
21,переулок Маяковского,347360,47.5126382,42.1481677
88,улица Серафимовича,347360,47.5143200,42.1460970
120А,улица Ленина,347360,47.5058857,42.1692566
21,улица 30 лет Победы,347360,47.5096117,42.1618543
17,улица 30 лет Победы,347360,47.5083397,42.1623610
115,улица Ленина,347360,47.5073349,42.1686761
3,улица 30 лет Победы,347360,47.5076696,42.1602079
18,улица 30 лет Победы,347360,47.5090443,42.1650736
183,Степная улица,347360,47.5037618,42.1713166
7,улица 30 лет Победы,347360,47.5082982,42.1609999
25,улица 30 лет Победы,347360,47.5086829,42.1632064
19,улица 30 лет Победы,347360,47.5089718,42.1621100
123,улица Ленина,347360,47.5060288,42.1706764
133,улица Максима Горького,347360,47.5084614,42.1586183
131,улица Максима Горького,347360,47.5082711,42.1577327
189,Степная улица,347360,47.5040901,42.1721783
104А,улица Ленина,347360,47.5101759,42.1629075
185,Степная улица,347360,47.5040875,42.1708938
9,улица 30 лет Победы,347360,47.5073855,42.1613157
108,улица 30 лет Победы,347360,47.5094756,42.1645172
119,улица Ленина,347360,47.5066697,42.1696738
11,улица 30 лет Победы,347360,47.5079716,42.1618234
106,улица Ленина,347360,47.5098929,42.1638796
117,улица Ленина,347360,47.5071669,42.1695673
120,улица Ленина,347360,47.5056106,42.1701971
113,улица Ленина,347360,47.5078194,42.1685859
102,улица Ленина,347360,47.5109118,42.1626667
104,улица Ленина,347360,47.5105068,42.1634497
11,улица 30 лет Победы,347360,47.5079469,42.1624064
5,улица 30 лет Победы,347360,47.5083115,42.1599476
21А,улица 30 лет Победы,347360,47.5100389,42.1624773
19А,улица 30 лет Победы,347360,47.5093559,42.1615508
23,улица 30 лет Победы,347360,47.5095547,42.1628113
138,Советская улица,347360,47.5088611,42.1608035
121,улица Ленина,347360,47.5064993,42.1705666
27,улица 30 лет Победы,347360,47.5092736,42.1636653
141,улица Максима Горького,347360,47.5076979,42.1592761
139,улица Максима Горького,347360,47.5075654,42.1587543
135,улица Максима Горького,347360,47.5089199,42.1590982
173,Пионерская улица,347360,47.5053588,42.1594283
173,улица Максима Горького,347360,47.5051162,42.1675162
151,улица Максима Горького,347360,47.5064180,42.1634653
167,улица Максима Горького,347360,47.5051469,42.1658065
100А,Морская улица,347360,47.5139029,42.1627547
96,Морская улица,347360,47.5141737,42.1613735
91,улица Ленина,347360,47.5122149,42.1631632
102А,Морская улица,347360,47.5131772,42.1638225
100,Морская улица,347360,47.5142668,42.1622850
85,улица Ленина,347360,47.5134445,42.1623674
87,улица Ленина,347360,47.5129079,42.1631645
102,Морская улица,347360,47.5135600,42.1633220
77,улица Ленина,347360,47.5140694,42.1599845
79,улица Ленина,347360,47.5137919,42.1603927
106,Морская улица,347360,47.5124414,42.1638916
108,Морская улица,347360,47.5120330,42.1649704
81,улица Ленина,347360,47.5134482,42.1613574
83,улица Ленина,347360,47.5134932,42.1618336
104,Морская улица,347360,47.5128354,42.1643839
195,Степная улица,347360,47.5047783,42.1743292
197,Степная улица,347360,47.5046496,42.1749746
173,Степная улица,347360,47.5029930,42.1693024
136,Морская улица,347360,47.5054033,42.1753077
132,Морская улица,347360,47.5055287,42.1746196
138,Морская улица,347360,47.5049295,42.1756901
134,Морская улица,347360,47.5051889,42.1745624
191,Степная улица,347360,47.5033270,42.1728945
136Б,Морская улица,347360,47.5051848,42.1755915
181,Степная улица,347360,47.5029766,42.1711656
157,улица Максима Горького,347360,47.5051976,42.1633214
124Б,Морская улица,347360,47.5073298,42.1714166
8,улица 30 лет Победы,347360,47.5068813,42.1641007
124,улица Ленина,347360,47.5051168,42.1697436
153А,улица Максима Горького,347360,47.5059818,42.1643880
120,Морская улица,347360,47.5087083,42.1688161
4А,улица 30 лет Победы,347360,47.5067518,42.1634804
122,улица Ленина,347360,47.5055174,42.1686715
98,улица Ленина,347360,47.5119853,42.1610501
136,Советская улица,347360,47.5091382,42.1595495
100,улица Ленина,347360,47.5115163,42.1618819
137,улица Максима Горького,347360,47.5079650,42.1584340
94,улица Ленина,347360,47.5132283,42.1594782
92,улица Ленина,347360,47.5135878,42.1587118
96,улица Ленина,347360,47.5125692,42.1603047
192,улица Максима Горького,347360,47.5043991,42.1625895
183,Пионерская улица,347360,47.5039946,42.1619996
159,Степная улица,347360,47.5032142,42.1636769
179,Пионерская улица,347360,47.5039637,42.1612765
175,Пионерская улица,347360,47.5049210,42.1587122
194,улица Максима Горького,347360,47.5039423,42.1635352
181,Пионерская улица,347360,47.5033025,42.1610091
157,Степная улица,347360,47.5032058,42.1628237
192А,улица Максима Горького,347360,47.5040132,42.1626459
190,улица Максима Горького,347360,47.5047482,42.1618418
177,Пионерская улица,347360,47.5042217,42.1598692
161,Степная улица,347360,47.5030969,42.1644919
155,Степная улица,347374,47.5032163,42.1621481
147,Степная улица,347360,47.5031160,42.1576783
2,переулок Дзержинского,347360,47.5046358,42.1559869
137,Степная улица,347360,47.5037322,42.1563311
141,Степная улица,347360,47.5042894,42.1569375
151,Степная улица,347360,47.5032462,42.1592834
148,Пионерская улица,347360,47.5030912,42.1603502
146,Пионерская улица,347360,47.5037778,42.1593389
149,Степная улица,347360,47.5032409,42.1584366
143,Степная улица,347360,47.5045416,42.1565521
140,Пионерская улица,347360,47.5046888,42.1577738
182,улица Максима Горького,347360,47.5064793,42.1590142
171А,Пионерская улица,347360,47.5060261,42.1580673
184,улица Максима Горького,347360,47.5062067,42.1601174
186,улица Максима Горького,347360,47.5054766,42.1604169
1,переулок Дзержинского,347360,47.5050133,42.1554522
3,переулок Дзержинского,347360,47.5057807,42.1561394
131/2,Степная улица,347360,47.5049439,42.1545388
133,Степная улица,347360,47.5048649,42.1546583
8,переулок Фрунзе,347360,47.5053782,42.1551959
6,переулок Фрунзе,347360,47.5052630,42.1550224
10,переулок Фрунзе,347360,47.5054956,42.1553771
4,переулок Фрунзе,347360,47.5051501,42.1548523
22,Морская улица,347360,47.5261017,42.1453094
22А,Морская улица,347360,47.5256894,42.1452031
23,улица Ленина,347360,47.5245226,42.1440225
25,улица Лермонтова,347360,47.5251435,42.1459876
30,Морская улица,347360,47.5247509,42.1470216
40,Донской переулок,347360,47.5253445,42.1431189
34,Морская улица,347360,47.5243366,42.1480385
16,улица Лермонтова,347360,47.5243874,42.1459538
46,Донской переулок,347360,47.5261954,42.1443551
21А,улица Ленина,347360,47.5249465,42.1440720
21,улица Лермонтова,347360,47.5247844,42.1454623
26,Морская улица,347360,47.5254411,42.1462611
28,Морская улица,347360,47.5250548,42.1465722
42,Донской переулок,347360,47.5255360,42.1433770
75,Первомайский переулок,347360,47.5234905,42.1468792
24,Морская улица,347360,47.5257557,42.1458005
23,улица Лермонтова,347360,47.5251300,42.1449471
19,улица Ленина,347360,47.5249454,42.1434626
44,Донской переулок,347360,47.5258629,42.1438926
20,Морская улица,347360,47.5264122,42.1448235
77,Первомайский переулок,347360,47.5239416,42.1479106
17,улица Ленина,347360,47.5251399,42.1429521
19,улица Лермонтова,347360,47.5244357,42.1449635
27,улица Ленина,347360,47.5235641,42.1456611
42А,Донской переулок,347360,47.5255148,42.1443915
32,Морская улица,347360,47.5244668,42.1474484
25,улица Ленина,347360,47.5241762,42.1443616
110,улица Ленина,347360,47.5087040,42.1655859
8,улица Ленина,347360,47.5256709,42.1409633
81,Советская улица,347360,47.5118214,42.1569218
20А,улица Энтузиастов,347360,47.5177351,42.1977100
21,проспект Строителей,347360,47.5177903,42.1986771
34,Первомайский переулок,347360,47.5194707,42.1420989
53,улица Максима Горького,347360,47.5187938,42.1421103
65,улица Максима Горького,347360,47.5180329,42.1432483
66,Волгодонская улица,347360,47.5191546,42.1430527
68,Волгодонская улица,347360,47.5190444,42.1432563
60/36,Волгодонская улица,347360,47.5196531,42.1423540
70,Волгодонская улица,347360,47.5189317,42.1434438
72,Волгодонская улица,347360,47.5187898,42.1436562
63,улица Максима Горького,347360,47.5181506,42.1430554
39,Октябрьский переулок,347360,47.5177312,42.1443249
76,Волгодонская улица,347360,47.5185279,42.1440110
61,улица Максима Горького,347360,47.5183104,42.1428838
59,улица Максима Горького,347360,47.5184161,42.1426656
80,Волгодонская улица,347360,47.5182923,42.1443800
82/43,Волгодонская улица,347360,47.5180345,42.1447260
55,улица Максима Горького,347360,47.5186729,42.1423104
67,улица Максима Горького,347360,47.5179039,42.1434241
41,Октябрьский переулок,347360,47.5178813,42.1445071
64,Волгодонская улица,347360,47.5193122,42.1428643
51,улица Максима Горького,347360,47.5189332,42.1419479
62,Волгодонская улица,347360,47.5194436,42.1426814
74,Волгодонская улица,347360,47.5186716,42.1438282
78,Волгодонская улица,347360,47.5183102,42.1441219
71/37,улица Максима Горького,347360,47.5175148,42.1440015
49/30,улица Максима Горького,347360,47.5191368,42.1416020
38,Октябрьский переулок,347360,47.5182727,42.1459287
32,Первомайский переулок,347360,47.5193455,42.1418910
57,улица Максима Горького,347360,47.5185515,42.1424701
69,улица Максима Горького,347360,47.5177756,42.1436161
88,улица Ленина,347360,47.5145019,42.1574351
30,улица Карла Маркса,347360,47.5304519,42.2058385
22,улица Маршала Кошевого,347360,47.5263116,42.2180686
36,улица Карла Маркса,347360,47.5312670,42.2049392
22,бульвар Великой Победы,347360,47.5154505,42.1883918
5,Молодёжная улица,347360,47.5124775,42.1995763
1,улица Гагарина,347360,47.5080495,42.1966785
47,проспект Мира,347360,47.5284145,42.2129580
7,бульвар Великой Победы,347360,47.5180962,42.1912858
24,бульвар Великой Победы,347360,47.5153201,42.1878026
21,улица Гагарина,347380,47.5176349,42.2120360
9,Западный переулок,347360,47.5115175,42.1932951
37,улица Энтузиастов,347360,47.5261279,42.1942403
52,улица Энтузиастов,347360,47.5275533,42.1964986
5,улица Черникова,347360,47.5219025,42.2015103
9,улица Черникова,347360,47.5215963,42.2000912
28,улица Черникова,347360,47.5245209,42.1933998
12А,улица Энтузиастов,347360,47.5152741,42.2020229
16Б,проспект Строителей,347360,47.5164304,42.2020164
34,улица Энтузиастов,347360,47.5209817,42.1979789
34,бульвар Великой Победы,347360,47.5138689,42.1893149
15,Молодёжная улица,347360,47.5155042,42.2051456
16,проспект Строителей,347360,47.5169377,42.2009313
53,проспект Курчатова,347360,47.5275240,42.1993090
17,Молодёжная улица,347360,47.5157832,42.2068244
7,бульвар Великой Победы,347360,47.5182470,42.1915553
44,улица Энтузиастов,347360,47.5252680,42.1978101
5,улица Гагарина,347360,47.5102972,42.1955659
11А,проспект Строителей,347360,47.5159503,42.1947742
30,улица Энтузиастов,347360,47.5202494,42.1971998
8,Весенняя улица,347360,47.5065036,42.1985004
16,улица Дружбы,347380,47.5203325,42.2124113
24,улица Черникова,347360,47.5250648,42.1927227
8А,проспект Строителей,347360,47.5138498,42.1968377
4А,Западный переулок,347360,47.5121286,42.1956681
14,Главная улица,347360,47.5153590,42.1898614
37,проспект Строителей,347360,47.5196615,42.1994715
54,Весенняя улица,347360,47.5126683,42.1859341
41,проспект Строителей,347360,47.5190923,42.2017673
21,Молодёжная улица,347360,47.5161002,42.2059697
20,улица Энтузиастов,347360,47.5180953,42.1978153
35,улица Гагарина,347360,47.5202543,42.2170925
10А,проспект Строителей,347360,47.5146515,42.1976638
25,проспект Курчатова,347360,47.5211991,42.2027516
54,улица Энтузиастов,347360,47.5275363,42.1954513
5,Молодёжная улица,347360,47.5120680,42.1997607
8,улица Маршала Кошевого,347380,47.5178041,42.2108869
33,улица Энтузиастов,347360,47.5255116,42.1946967
39,проспект Курчатова,347360,47.5252652,42.2012646
18А,проспект Строителей,347360,47.5168760,42.2032335
15,Молодёжная улица,347360,47.5155162,42.2059355
13,бульвар Великой Победы,347360,47.5167743,42.1923622
8,проспект Строителей,347360,47.5145304,42.1965508
33,проспект Строителей,347360,47.5189079,42.2009106
20,улица Черникова,347360,47.5252582,42.1937935
7,бульвар Великой Победы,347360,47.5178752,42.1913036
21,улица Энтузиастов,347360,47.5171079,42.1948585
4А,проспект Строителей,347360,47.5133874,42.1953778
2,проспект Строителей,347360,47.5126124,42.1926486
21,бульвар Великой Победы,347360,47.5168456,42.1886490
28,улица Энтузиастов,347360,47.5202225,42.1980056
49,проспект Курчатова,347360,47.5264928,42.2009312
32,Весенняя улица,347360,47.5096857,42.1931495
8В,проспект Строителей,347360,47.5131491,42.1978326
52,улица Карла Маркса,347360,47.5351306,42.2018999
37,улица Черникова,347360,47.5226689,42.1938119
1,улица Гагарина,347360,47.5074099,42.1960566
7,улица Черникова,347360,47.5214795,42.2013144
6,Весенняя улица,347360,47.5072457,42.1999050
29,проспект Строителей,347360,47.5186956,42.1990457
20,проспект Строителей,347360,47.5181804,42.2031711
10,проспект Строителей,347360,47.5152161,42.1976653
36,улица Энтузиастов,347360,47.5207317,42.1989264
19,улица Энтузиастов,347360,47.5168999,42.1962010
4,улица Гагарина,347360,47.5081603,42.2001351
48,улица Энтузиастов,347360,47.5268241,42.1966770
4,бульвар Великой Победы,347360,47.5166933,42.1952730
3,проспект Строителей,347360,47.5144023,42.1927073
39,улица Энтузиастов,347360,47.5266064,42.1935690
9,Молодёжная улица,347360,47.5139904,42.2036218
81,улица Гагарина,347360,47.5274563,42.2306789
35,улица Черникова,347360,47.5231115,42.1938336
18,проспект Строителей,347360,47.5176700,42.2020225
25,улица Черникова,347360,47.5222510,42.1953156
35,проспект Курчатова,347360,47.5257834,42.2016999
29,проспект Курчатова,347360,47.5219866,42.2025706
27,проспект Строителей,347360,47.5183926,42.1984085
4,улица Черникова,347360,47.5245389,42.2016782
12,улица Черникова,347360,47.5243751,42.1958731
12,Весенняя улица,347360,47.5065749,42.1969242
16А,проспект Строителей,347360,47.5166323,42.2010739
14,улица Энтузиастов,347360,47.5159669,42.2007304
3,улица Энтузиастов,347360,47.5106581,42.2044787
13,Молодёжная улица,347360,47.5149249,42.2050492
36,улица Карла Маркса,347360,47.5313966,42.2064866
39,улица Черникова,347360,47.5229574,42.1931740
3Б,Молодёжная улица,347371,47.5126536,42.1983459
10Б,проспект Строителей,347360,47.5140877,42.1983923
37,проспект Курчатова,347360,47.5257869,42.2009908
42/8,улица Энтузиастов,347360,47.5245673,42.1991153
11,улица Черникова,347360,47.5226728,42.2003832
6,бульвар Великой Победы,347360,47.5164696,42.1936362
3А,улица Гагарина,347360,47.5106633,42.1945583
4,Западный переулок,347360,47.5123716,42.1946625
26,улица Энтузиастов,347360,47.5196475,42.1974313
36,бульвар Великой Победы,347360,47.5134571,42.1901977
23,проспект Курчатова,347360,47.5207573,42.2034382
93,проспект Мира,347360,47.5383934,42.2027001
7,Молодёжная улица,347360,47.5136974,42.2026068
31,улица Черникова,347360,47.5227925,42.1951651
28,Лазоревый проспект,347360,47.5391722,42.2000751
2,Западный переулок,347360,47.5108832,42.1938258
28,Ленинградская улица,347360,47.5344556,42.2023956
27,улица Энтузиастов,347360,47.5248229,42.1967344
2,Молодёжная улица,347360,47.5079993,42.1949066
13,проспект Курчатова,347360,47.5174262,42.2047099
7А,проспект Строителей,347360,47.5155478,42.1924445
25,улица Энтузиастов,347360,47.5212561,42.1964678
18,бульвар Великой Победы,347360,47.5163687,42.1882643
3,улица Гагарина,347360,47.5101440,42.1945009
23,улица Энтузиастов,347360,47.5200928,42.1951415
1,улица Гагарина,347360,47.5077237,42.1965326
7,Ленинградская улица,347360,47.5288376,42.1961618
7,Западный переулок,347360,47.5115294,42.1929254
21,проспект Курчатова,347360,47.5188084,42.2044504
47,проспект Курчатова,347360,47.5272774,42.2010249
5,проспект Строителей,347371,47.5144500,42.1933570
1А,Молодёжная улица,347360,47.5093675,42.1947192
6,проспект Строителей,347360,47.5139720,42.1954093
2Б,проспект Строителей,347360,47.5116658,42.1911834
13,проспект Строителей,347360,47.5160162,42.1959422
48,улица Энтузиастов,347360,47.5270802,42.1965900
9,проспект Строителей,347360,47.5151277,42.1940206
25,улица Гагарина,347380,47.5179046,42.2128372
29,улица Гагарина,347380,47.5182645,42.2136225
46,улица Энтузиастов,347360,47.5260753,42.1970585
35,проспект Строителей,347360,47.5189836,42.2000926
1,Ленинградская улица,347360,47.5270761,42.1923721
22,улица Черникова,347360,47.5257119,42.1926029
17,Ленинградская улица,347360,47.5339882,42.2049364
5,Западный переулок,347360,47.5112932,42.1921786
56,улица Карла Маркса,347360,47.5358169,42.2013240
33,улица Энтузиастов,347360,47.5256183,42.1951519
1,Западный переулок,347360,47.5103721,42.1925391
21,улица Черникова,347360,47.5227603,42.1959705
2А,Западный переулок,347360,47.5112369,42.1949077
31,проспект Строителей,347360,47.5192667,42.1983508
43,проспект Строителей,347360,47.5196760,42.2025620
26,проспект Курчатова,347360,47.5214753,42.2057122
12/15,проспект Строителей,347360,47.5158043,42.1984694
42,улица Карла Маркса,347360,47.5322689,42.2055436
11,проспект Строителей,347360,47.5154588,42.1951282
32,Ленинградская улица,347360,47.5351044,42.2034022
43,проспект Курчатова,347360,47.5254458,42.2026017
5Б,Молодёжная улица,347371,47.5129014,42.1986129
19,бульвар Великой Победы,347360,47.5170899,42.1891695
2/31,улица Черникова,347360,47.5245808,42.2030494
13А,улица Энтузиастов,347360,47.5146560,42.1990626
56,улица Энтузиастов,347360,47.5281619,42.1948005
70,улица Карла Маркса,347360,47.5376351,42.1988275
19,улица Черникова,347360,47.5227675,42.1968744
23,улица Черникова,347360,47.5218972,42.1955310
8Б,проспект Строителей,347360,47.5133314,42.1967679
4Б,проспект Строителей,347360,47.5127047,42.1964463
1А,проспект Строителей,347360,47.5138726,42.1907157
4,проспект Строителей,347360,47.5133146,42.1946662
27/1,проспект Курчатова,347360,47.5220585,42.2034165
41,улица Энтузиастов,347360,47.5269152,42.1943922
28А,Ленинградская улица,347360,47.5339762,42.2017065
48,улица Энтузиастов,347360,47.5265655,42.1967602
30,Ленинградская улица,347360,47.5353558,42.2030901
9,улица Энтузиастов,347360,47.5141199,42.1998831
3,Молодёжная улица,347360,47.5114486,42.1990232
22,улица Энтузиастов,347360,47.5185995,42.1971362
10,Весенняя улица,347360,47.5065088,42.1977652
15,Ленинградская улица,347360,47.5335722,42.2052876
1,Октябрьское шоссе,347360,47.5076935,42.2019820
5,Октябрьское шоссе,347360,47.5092712,42.2044297
39А,проспект Строителей,347360,47.5202781,42.2007359
16,Весенняя улица,347360,47.5072991,42.1938535
21,проспект Строителей,347360,47.5182354,42.1992311
23,улица Черникова,347360,47.5220300,42.1948476
24,Лазоревый проспект,347360,47.5379001,42.1979793
33,проспект Строителей,347360,47.5186958,42.2006625
27,улица Гагарина,347380,47.5173499,42.2141146
48А,улица Энтузиастов,347360,47.5274039,42.1977126
20А,проспект Строителей,347360,47.5178633,42.2033395
34,Ленинградская улица,347360,47.5355369,42.2045323
47,проспект Строителей,347360,47.5202600,42.2023976
13,улица Энтузиастов,347360,47.5151371,42.1990876
5А,Молодёжная улица,347360,47.5128900,42.1991602
12,улица Энтузиастов,347360,47.5152276,42.2009665
71/19,проспект Мира,347360,47.5345070,42.2063976
7Б,проспект Строителей,347360,47.5150205,42.1919154
44,улица Карла Маркса,347360,47.5321924,42.2041497
50,улица Карла Маркса,347360,47.5346380,42.2009742
15,улица Черникова,347360,47.5227928,42.1995746
3А,Молодёжная улица,347360,47.5118399,42.1986755
62,улица Карла Маркса,347360,47.5363477,42.1988597
24,улица Карла Маркса,347360,47.5283068,42.2104659
14,улица Черникова,347360,47.5237324,42.1947907
7,улица Гагарина,347360,47.5096744,42.1997780
9,улица Гагарина,347360,47.5124505,42.2048903
39,проспект Строителей,347360,47.5207807,42.2016222
23А,улица Энтузиастов,347360,47.5206569,42.1959843
68,улица Карла Маркса,347360,47.5370445,42.1980022
11,улица Энтузиастов,347360,47.5144886,42.2001470
45,проспект Строителей,347360,47.5195676,42.2013701
19,проспект Курчатова,347360,47.5181806,42.2043877
30,проспект Курчатова,347360,47.5226988,42.2054238
32,улица Энтузиастов,347360,47.5216246,42.1978439
97,проспект Мира,347360,47.5387963,42.2008211
31,улица Гагарина,347380,47.5178763,42.2153692
16,улица Энтузиастов,347360,47.5164090,42.1997585
20,бульвар Великой Победы,347360,47.5159243,42.1880853
26,улица Черникова,347360,47.5245338,42.1925880
73,проспект Мира,347360,47.5363422,42.2050492
47,проспект Строителей,347360,47.5204726,42.2026546
14,улица Энтузиастов,347360,47.5156933,42.2014082
3,Западный переулок,347360,47.5107045,42.1926185
40,улица Энтузиастов,347360,47.5223893,42.1985794
5Б,улица Гагарина,347360,47.5112616,42.1954485
51,проспект Курчатова,347360,47.5266340,42.2000948
85,проспект Мира,347360,47.5371094,42.2024588
18,улица Черникова,347360,47.5245910,42.1946346
9,проспект Курчатова,347360,47.5170708,42.2065084
9,бульвар Великой Победы,347360,47.5173894,42.1915418
5,проспект Курчатова,347360,47.5163869,42.2071258
8,бульвар Великой Победы,347360,47.5154945,42.1935984
58,улица Маршала Кошевого,347360,47.5284018,42.2267856
1,бульвар Великой Победы,347360,47.5189458,42.1951934
25А,проспект Курчатова,347360,47.5214747,42.2019134
14,Весенняя улица,347360,47.5069494,42.1944212
9Б,улица Энтузиастов,347360,47.5136708,42.1991955
28,проспект Курчатова,347360,47.5228127,42.2068549
35,улица Энтузиастов,347360,47.5262532,42.1951335
15,проспект Курчатова,347360,47.5178088,42.2049724
29,улица Энтузиастов,347360,47.5249328,42.1959168
16,бульвар Великой Победы,347360,47.5159224,42.1887973
40,улица Карла Маркса,347360,47.5313708,42.2053230
3,улица Черникова,347360,47.5227388,42.2013878
7Н,улица Гагарина,347360,47.5104027,42.2007028
25А,улица Энтузиастов,347360,47.5218914,42.1966099
38,улица Энтузиастов,347360,47.5215803,42.1986388
12Б,улица Энтузиастов,347360,47.5157659,42.2024692
32,бульвар Великой Победы,347360,47.5144009,42.1889035
5А,улица Гагарина,347360,47.5109200,42.1955677
57,проспект Курчатова,347360,47.5283755,42.1982397
14,Весенняя улица,347360,47.5069823,42.1947155
7,проспект Строителей,347360,47.5148637,42.1926514
11,проспект Курчатова,347360,47.5177673,42.2058655
12,бульвар Великой Победы,347360,47.5155941,42.1915045
5,улица Дружбы,347360,47.5209903,42.2154653
37А,проспект Строителей,347360,47.5197903,42.2005441
10,бульвар Великой Победы,347360,47.5157683,42.1929945
42,улица Маршала Кошевого,347360,47.5256531,42.2208603
40А,улица Маршала Кошевого,347360,47.5253423,42.2193041
24,улица Маршала Кошевого,347360,47.5230053,42.2146655
36,улица Маршала Кошевого,347360,47.5243935,42.2172070
34,улица Маршала Кошевого,347360,47.5243115,42.2182993
40,улица Маршала Кошевого,347360,47.5258211,42.2197218
26,улица Маршала Кошевого,347360,47.5227954,42.2155256
28,улица Маршала Кошевого,347360,47.5230786,42.2160564
22/7,улица Маршала Кошевого,347360,47.5219439,42.2138805
28А,улица Маршала Кошевого,347360,47.5236603,42.2158776
20,улица Гагарина,347360,47.5135601,42.2095158
3,проспект Курчатова,347360,47.5141213,42.2106329
3,проспект Курчатова,347360,47.5137017,42.2109541
10,улица Маршала Кошевого,347380,47.5186453,42.2106828
20,улица Гагарина,347360,47.5136782,42.2098290
23,улица Гагарина,347380,47.5180984,42.2121229
24,Молодёжная улица,347360,47.5148650,42.2066231
10,проспект Курчатова,347380,47.5175428,42.2096462
13,улица Гагарина,347360,47.5148376,42.2089164
15,Октябрьское шоссе,347360,47.5130762,42.2113581
12,проспект Курчатова,347380,47.5173877,42.2088229
6,проспект Курчатова,347380,47.5162279,42.2105293
3,проспект Курчатова,347360,47.5141024,42.2103564
3,проспект Курчатова,347360,47.5139180,42.2107924
8,проспект Курчатова,347380,47.5168436,42.2097589
19,улица Гагарина,347380,47.5171670,42.2129974
6,улица Маршала Кошевого,347380,47.5189686,42.2098204
14,проспект Курчатова,347380,47.5177920,42.2087919
2,улица Маршала Кошевого,347380,47.5180139,42.2081677
7,проспект Курчатова,347360,47.5169131,42.2056061
20,улица Гагарина,347360,47.5134609,42.2092018
4,улица Маршала Кошевого,347380,47.5183764,42.2090872
4Д,улица Черникова,347360,47.5236419,42.1993263
11,бульвар Великой Победы,347360,47.5171767,42.1923010
67,проспект Мира,347360,47.5337212,42.2075878
2,бульвар Великой Победы,347360,47.5176026,42.1958179
59,проспект Мира,347360,47.5326379,42.2085731
37,улица Гагарина,347360,47.5192856,42.2172589
22,улица Гагарина,347360,47.5147879,42.2124254
15,бульвар Великой Победы,347360,47.5163104,42.1909941
34,улица Карла Маркса,347360,47.5308744,42.2055155
14,улица Дружбы,347380,47.5204884,42.2128665
2,бульвар Великой Победы,347360,47.5176533,42.1953508
53,проспект Мира,347360,47.5321287,42.2099923
32,улица Карла Маркса,347360,47.5308241,42.2060658
53,проспект Мира,347360,47.5323916,42.2095824
10,улица Дружбы,347380,47.5194272,42.2128948
9,улица Академика Королёва,347360,47.5313462,42.2105942
30,улица Карла Маркса,347360,47.5302212,42.2063929
2,бульвар Великой Победы,347360,47.5178818,42.1958556
55,проспект Мира,347360,47.5320797,42.2086442
7,улица Академика Королёва,347360,47.5304906,42.2090969
30,улица Маршала Кошевого,347360,47.5236919,42.2172744
4В,улица Черникова,347360,47.5236462,42.2003599
5,улица Академика Королёва,347360,47.5312036,42.2087102
57,проспект Мира,347360,47.5310787,42.2077666
44,улица Маршала Кошевого,347360,47.5246771,42.2201079
61,проспект Мира,347360,47.5331897,42.2088585
28,улица Карла Маркса,347360,47.5304833,42.2075253
3,улица Дружбы,347360,47.5199982,42.2157907
3,бульвар Великой Победы,347360,47.5179780,42.1940027
51,проспект Мира,347360,47.5315781,42.2096734
38,улица Маршала Кошевого,347360,47.5250803,42.2184508
39,улица Гагарина,347360,47.5197296,42.2187189
15,улица Маршала Кошевого,347360,47.5261373,42.2168530
19,улица Маршала Кошевого,347360,47.5270512,42.2172759
10,улица Академика Королёва,347360,47.5303141,42.2122176
37,проспект Мира,347360,47.5291578,42.2161824
6,улица Академика Королёва,347360,47.5293585,42.2100348
4,улица Академика Королёва,347360,47.5291578,42.2105299
33,проспект Мира,347360,47.5287446,42.2169336
45,проспект Мира,347360,47.5296712,42.2124034
20,улица Карла Маркса,347360,47.5281250,42.2092605
27,проспект Мира,347360,47.5281572,42.2182960
17,улица Маршала Кошевого,347360,47.5270470,42.2179484
41,проспект Мира,347383,47.5297102,42.2141012
2,улица Карла Маркса,347360,47.5262273,42.2158558
10,улица Карла Маркса,347360,47.5275224,42.2145926
18,улица Карла Маркса,347360,47.5275282,42.2112712
43,проспект Мира,347360,47.5292273,42.2143560
35,проспект Мира,347360,47.5279305,42.2157519
8,улица Академика Королёва,347360,47.5298978,42.2110680
6,улица Карла Маркса,347360,47.5265370,42.2147785
31,проспект Мира,347360,47.5289542,42.2179774
13,улица Маршала Кошевого,347360,47.5256137,42.2163961
37,Октябрьское шоссе,347360,47.5244041,42.2333009
30,Октябрьское шоссе,347360,47.5223597,42.2309882
56А,улица Гагарина,347360,47.5248148,42.2324922
64,улица Гагарина,347360,47.5261238,42.2333237
187,Гаражная улица,347360,47.5219276,42.2319540
41,Индустриальная улица,347360,47.5257890,42.2337193
31,Октябрьское шоссе,347360,47.5231586,42.2303620
16,проспект Мира,347360,47.5277646,42.2284971
35А,Октябрьское шоссе,347360,47.5240044,42.2319515
50,улица Гагарина,347360,47.5239958,42.2293214
62,улица Гагарина,347360,47.5264598,42.2329205
33,Октябрьское шоссе,347360,47.5236773,42.2311775
56,улица Гагарина,347360,47.5249140,42.2309095
54,улица Гагарина,347360,47.5244229,42.2300054
29,Октябрьское шоссе,347360,47.5233681,42.2289136
4,проспект Мира,347360,47.5220315,42.2305492
2,проспект Мира,347360,47.5217165,42.2310231
60,улица Гагарина,347360,47.5257785,42.2324344
58,улица Гагарина,347360,47.5253475,42.2317580
6/27,проспект Мира,347360,47.5228650,42.2295403
50,улица Маршала Кошевого,347360,47.5278184,42.2236742
14,Индустриальная улица,347360,47.5284210,42.2333092
60,улица Маршала Кошевого,347360,47.5289351,42.2263315
18,проспект Мира,347360,47.5267853,42.2258606
9,Индустриальная улица,347360,47.5284435,42.2309962
12,проспект Мира,347360,47.5259177,42.2259315
11,Индустриальная улица,347360,47.5283274,42.2299562
68,улица Маршала Кошевого,347360,47.5290357,42.2283360
65,улица Гагарина,347360,47.5259332,42.2282328
63,улица Гагарина,347360,47.5254593,42.2287313
87,улица Гагарина,347360,47.5285434,42.2344508
20,проспект Мира,347360,47.5272935,42.2262273
62,улица Маршала Кошевого,347360,47.5287838,42.2274075
75,улица Гагарина,347360,47.5269861,42.2316940
16,Индустриальная улица,347360,47.5287914,42.2323104
77,улица Гагарина,347360,47.5276954,42.2320830
64,улица Маршала Кошевого,347360,47.5298070,42.2271194
24,проспект Мира,347360,47.5270029,42.2244068
18,Индустриальная улица,347360,47.5292424,42.2332011
73,улица Гагарина,347360,47.5263137,42.2302427
71,улица Гагарина,347360,47.5263736,42.2294119
66,улица Маршала Кошевого,347360,47.5294848,42.2275050
13,Индустриальная улица,347360,47.5289494,42.2298125
22,проспект Мира,347360,47.5275784,42.2252143
5,улица Маршала Кошевого,347360,47.5211785,42.2082095
3,улица Маршала Кошевого,347360,47.5204622,42.2091021
20,проспект Курчатова,347360,47.5199257,42.2074561
18А,проспект Курчатова,347360,47.5189959,42.2075306
11Д,улица Гагарина,347360,47.5140156,42.2062277
8,Сиреневый бульвар,347360,47.5287653,42.1905561
8Б,улица Гагарина,347360,47.5082492,42.2011946
22А,Молодёжная улица,347360,47.5145320,42.2056817
11,Малый проезд,347360,47.5159169,42.1850867
4,Малый проезд,347360,47.5159080,42.1862859
4,Кленовый проезд,347360,47.5288976,42.1888313
37,Сиреневый бульвар,347360,47.5306552,42.1879763
1А,Ленинградская улица,347360,47.5278835,42.1918359
49/1,улица Энтузиастов,347360,47.5299849,42.1908321
20Б,Молодёжная улица,347360,47.5135288,42.2051151
8,улица Платова,347360,47.5211453,42.1909263
8А,улица Гагарина,347360,47.5081028,42.2009233
49/9,улица Энтузиастов,347360,47.5304328,42.1897425
2,улица Платова,347360,47.5203969,42.1910768
21,улица Платова,347360,47.5219278,42.1910204
45,Сиреневый бульвар,347360,47.5314096,42.1878591
11Г,улица Гагарина,347360,47.5140222,42.2054671
45/3,улица Энтузиастов,347360,47.5293501,42.1904287
20,улица Платова,347360,47.5209279,42.1913500
3,Малый проезд,347360,47.5160252,42.1868712
8И,улица Гагарина,347360,47.5085603,42.2028698
1,Кленовый проезд,347360,47.5287535,42.1892863
11,улица Платова,347360,47.5215002,42.1903940
28,Сиреневый бульвар,347360,47.5311320,42.1889511
20,Сиреневый бульвар,347360,47.5299297,42.1891389
20А,Молодёжная улица,347360,47.5137710,42.2050268
20,Молодёжная улица,347360,47.5141544,42.2049093
45Г,улица Энтузиастов,347360,47.5297529,42.1911563
36,Сиреневый бульвар,347360,47.5318960,42.1879586
2,Малый проезд,347360,47.5157668,42.1864926
2,Кленовый проезд,347360,47.5290076,42.1890662
23,Сиреневый бульвар,347360,47.5295955,42.1888849
49/6,улица Энтузиастов,347360,47.5310109,42.1896411
4,улица Платова,347360,47.5206443,42.1910613
19,Ноябрьский переулок,347360,47.5193564,42.1925790
7,улица Платова,347360,47.5210880,42.1904883
18,Сиреневый бульвар,347360,47.5297773,42.1893595
32,Сиреневый бульвар,347360,47.5315641,42.1884021
17,Сиреневый бульвар,347360,47.5292029,42.1893745
17,Ноябрьский переулок,347360,47.5193327,42.1921425
9,улица Платова,347360,47.5213090,42.1904402
29,улица Платова,347360,47.5210367,42.1917555
25,Сиреневый бульвар,347360,47.5298516,42.1885590
45/2,улица Энтузиастов,347360,47.5291583,42.1907144
5,Кленовый проезд,347360,47.5285447,42.1889081
30,улица Черникова,347360,47.5239978,42.1936788
3,Весенняя улица,347360,47.5060522,42.1918821
47/7,улица Энтузиастов,347360,47.5306177,42.1887789
8,Малый проезд,347360,47.5159084,42.1857236
33,улица Платова,347360,47.5205158,42.1918941
27,Сиреневый бульвар,347360,47.5300062,42.1883880
49,1-я улица Черникова,347360,47.5193514,42.1931876
11А,улица Гагарина,347360,47.5135166,42.2060884
22,улица Платова,347360,47.5206843,42.1914055
8,Ленинградская улица,347360,47.5279894,42.1907994
49/8,улица Энтузиастов,347360,47.5306181,42.1895687
6,Новый проезд,347360,47.5153635,42.1865245
32,улица Черникова,347360,47.5235696,42.1935733
15,Ноябрьский переулок,347360,47.5193864,42.1916287
12,Малый проезд,347360,47.5156480,42.1854759
4,Новый проезд,347360,47.5152257,42.1863690
31,улица Платова,347360,47.5207593,42.1918293
51/2,улица Энтузиастов,347360,47.5315268,42.1890196
4,Ленинградская улица,347360,47.5277327,42.1902699
51/6,улица Энтузиастов,347360,47.5322775,42.1880773
6,Малый проезд,347360,47.5160920,42.1858480
51,Сиреневый бульвар,347360,47.5320760,42.1870344
19,Сиреневый бульвар,347360,47.5293324,42.1892029
20В,Молодёжная улица,347360,47.5133591,42.2053243
1А,Сиреневый бульвар,347360,47.5282655,42.1904651
8,Новый проезд,347360,47.5155810,42.1866932
39,улица Платова,347360,47.5200702,42.1914381
49/2,улица Энтузиастов,347360,47.5302065,42.1906303
11Е,улица Гагарина,347360,47.5137370,42.2065331
47/1,улица Энтузиастов,347360,47.5296065,42.1901086
6,Кленовый проезд,347360,47.5287120,42.1884615
25,улица Платова,347360,47.5216813,42.1916370
35,Сиреневый бульвар,347360,47.5304893,42.1878784
3,Берёзовый проезд,347360,47.5309158,42.1877123
45Б,улица Энтузиастов,347360,47.5294054,42.1910161
11Б,улица Гагарина,347360,47.5136869,42.2058787
24,улица Платова,347360,47.5204307,42.1914627
3,Сиреневый бульвар,347360,47.5279541,42.1898670
6,улица Гагарина,347360,47.5086321,42.2003195
3,Рябиновый проезд,347360,47.5313344,42.1872994
41,Сиреневый бульвар,347360,47.5308921,42.1885263
21,Сиреневый бульвар,347360,47.5294669,42.1890402
1,Берёзовый проезд,347360,47.5310597,42.1879413
22,Сиреневый бульвар,347360,47.5301341,42.1889502
12,Сиреневый бульвар,347360,47.5291967,42.1900545
47/6,улица Энтузиастов,347360,47.5304989,42.1890286
49,1-я улица Черникова,347360,47.5195867,42.1926242
41,улица Платова,347360,47.5198114,42.1916075
13,улица Платова,347360,47.5216826,42.1903625
2,Рябиновый проезд,347360,47.5315978,42.1870411
45В,улица Энтузиастов,347360,47.5295350,42.1914153
49/3,улица Энтузиастов,347360,47.5304286,42.1903176
51/5,улица Энтузиастов,347360,47.5321227,42.1883216
31,Сиреневый бульвар,347360,47.5302787,42.1880440
27,улица Платова,347360,47.5214452,42.1916518
2,Берёзовый проезд,347360,47.5312430,42.1876073
5,Берёзовый проезд,347360,47.5308005,42.1875024
16,улица Платова,347360,47.5214414,42.1912464
8В,улица Гагарина,347360,47.5083944,42.2014674
49/7,улица Энтузиастов,347360,47.5308699,42.1893530
1,Сиреневый бульвар,347360,47.5281037,42.1901699
11В,улица Гагарина,347360,47.5138585,42.2056652
14,улица Платова,347360,47.5216787,42.1912002
49/4,улица Энтузиастов,347360,47.5306242,42.1901157
23,бульвар Великой Победы,347360,47.5156556,42.1869349
32,улица Платова,347360,47.5192827,42.1910659
9В,улица Гагарина,347360,47.5131282,42.2063672
8Д,улица Гагарина,347360,47.5086701,42.2020869
10,Сиреневый бульвар,347360,47.5290167,42.1902496
10,Малый проезд,347360,47.5157768,42.1856104
69,проспект Мира,347360,47.5340693,42.2064990
26,Сиреневый бульвар,347360,47.5305096,42.1885134
26,улица Платова,347360,47.5200810,42.1910843
51/1,улица Энтузиастов,347360,47.5313029,42.1892649
34,Весенняя улица,347360,47.5090919,42.1915806
18,улица Платова,347360,47.5211765,42.1912945
11,Сиреневый бульвар,347360,47.5286897,42.1899395
8Г,улица Гагарина,347360,47.5085294,42.2017838
6,Ленинградская улица,347360,47.5278345,42.1904965
8,улица Гагарина,347360,47.5083806,42.2006626
11,Новый проезд,347360,47.5156520,42.1863097
12,улица Платова,347360,47.5216312,42.1908117
9Г,улица Гагарина,347360,47.5133059,42.2066447
47/3,улица Энтузиастов,347360,47.5299991,42.1896705
51/3,улица Энтузиастов,347360,47.5318116,42.1886488
16,Сиреневый бульвар,347360,47.5295220,42.1896653
43,Сиреневый бульвар,347360,47.5311810,42.1881832
8,Лазоревый проспект,347360,47.5322543,42.1875792
7,Новый проезд,347360,47.5154618,42.1861875
1,Тенистый проезд,347360,47.5294292,42.1885341
6,Лазоревый проспект,347360,47.5319368,42.1868104
20Г,Молодёжная улица,347360,47.5131959,42.2055232
8Е,улица Гагарина,347360,47.5089420,42.2017321
6,Рябиновый проезд,347360,47.5314426,42.1866997
3,Кленовый проезд,347360,47.5286437,42.1891099
49/11,улица Энтузиастов,347360,47.5300228,42.1902633
3,Новый проезд,347360,47.5151616,42.1857681
24,Сиреневый бульвар,347360,47.5303247,42.1887479
47А,1-я улица Черникова,347360,47.5198774,42.1931303
2,Новый проезд,347360,47.5150539,42.1862246
49/5,улица Энтузиастов,347360,47.5308673,42.1898841
15,улица Платова,347360,47.5218387,42.1903274
3Д,Октябрьское шоссе,347360,47.5081436,42.2027240
9,Сиреневый бульвар,347360,47.5285365,42.1901481
14,Малый проезд,347360,47.5153987,42.1851865
7,Кленовый проезд,347360,47.5283893,42.1886409
5,Новый проезд,347360,47.5153197,42.1859535
39,Сиреневый бульвар,347360,47.5307392,42.1883640
30,Сиреневый бульвар,347360,47.5313324,42.1886559
82,1-я улица Черникова,347360,47.5200950,42.1925961
10,улица Платова,347360,47.5213926,42.1908672
2,Ленинградская улица,347360,47.5276299,42.1899916
1,Малый проезд,347360,47.5159220,42.1871342
9А,улица Гагарина,347360,47.5128957,42.2058359
49,Сиреневый бульвар,347360,47.5317798,42.1873679
18Б,Молодёжная улица,347360,47.5130866,42.2048257
9,Малый проезд,347360,47.5160741,42.1852466
6,улица Платова,347360,47.5208605,42.1910392
25,бульвар Великой Победы,347360,47.5153409,42.1869526
49/10,улица Энтузиастов,347360,47.5302317,42.1900260
18,переулок Маяковского,347360,47.5107825,42.1461869
111,улица Ленина,347360,47.5082522,42.1672731
8,улица Маршала Кошевого,347380,47.5196500,42.2111509
18,улица Маршала Кошевого,347380,47.5216066,42.2120390
14,улица Маршала Кошевого,347380,47.5205754,42.2110014
120,Морская улица,347360,47.5088695,42.1688443
26,улица Гагарина,347360,47.5162607,42.2159387
1,Молодёжная улица,347360,47.5111723,42.1967111
2Б,Западный переулок,347371,47.5114515,42.1945606
4Г,Западный переулок,347371,47.5117958,42.1943972
4В,Западный переулок,347371,47.5119376,42.1944805
2,улица Гагарина,347360,47.5071522,42.1975396
2,улица Гагарина,347360,47.5077263,42.1985672
4А,улица Гагарина,347360,47.5079576,42.1991104
4Б,Западный переулок,347371,47.5118064,42.1950626
16Б,проспект Строителей,347360,47.5164874,42.2019047
26,бульвар Великой Победы,347360,47.5145839,42.1876968
28,бульвар Великой Победы,347360,47.5146392,42.1884244
38,бульвар Великой Победы,347360,47.5129117,42.1896835
56,Весенняя улица,347360,47.5140504,42.1855340
40,Весенняя улица,347360,47.5102614,42.1904353
40,бульвар Великой Победы,347360,47.5135025,42.1911259
3А,проспект Строителей,347360,47.5141773,42.1928994
17/15,улица Энтузиастов,347360,47.5165736,42.1969747
2В,проспект Строителей,347360,47.5111117,42.1910520
7Е,улица Гагарина,347360,47.5093590,42.1997316
7Д,улица Гагарина,347360,47.5091386,42.1992769
7В,улица Гагарина,347360,47.5091273,42.1987625
7Б,улица Гагарина,347360,47.5093178,42.1985169
7А,улица Гагарина,347360,47.5095472,42.1988349
7Г,улица Гагарина,347360,47.5089430,42.1990304
12,улица Гагарина,347360,47.5100650,42.2036466
10/5,Молодёжная улица,347360,47.5104311,42.1984047
10/4,Молодёжная улица,347360,47.5103149,42.1981979
10/2,Молодёжная улица,347360,47.5100917,42.1977898
10/7,Молодёжная улица,347360,47.5106422,42.1988087
10/1,Молодёжная улица,347360,47.5099783,42.1975908
10/6,Молодёжная улица,347360,47.5105403,42.1985992
10/3,Молодёжная улица,347360,47.5102068,42.1980013
10/12,Молодёжная улица,347360,47.5112891,42.1999540
14,Лицейский проезд,347360,47.5106345,42.1993841
10/9,Молодёжная улица,347360,47.5110642,42.1995409
10/11,Молодёжная улица,347360,47.5112018,42.1997182
10/8,Молодёжная улица,347360,47.5108853,42.1992453
10/14,Молодёжная улица,347360,47.5115189,42.2003519
10/13,Молодёжная улица,347360,47.5113968,42.2001621
3,Лицейский проезд,347360,47.5095823,42.1980542
1,Лицейский проезд,347360,47.5098003,42.1978667
9,Лицейский проезд,347360,47.5100221,42.1982707
17,Лицейский проезд,347360,47.5102558,42.1992699
13,Лицейский проезд,347360,47.5099891,42.1988272
21,Лицейский проезд,347360,47.5105503,42.1998318
15,Лицейский проезд,347360,47.5101279,42.1990438
23,Лицейский проезд,347360,47.5106854,42.2000626
19,Лицейский проезд,347360,47.5104456,42.1996293
5,Лицейский проезд,347360,47.5096789,42.1982579
25,Лицейский проезд,347360,47.5108758,42.1998232
7,Лицейский проезд,347360,47.5098167,42.1985122
35,Лицейский проезд,347360,47.5113024,42.2005871
27,Лицейский проезд,347360,47.5110665,42.2001632
29,Лицейский проезд,347360,47.5108573,42.2003844
31,Лицейский проезд,347360,47.5109838,42.2006408
33,Лицейский проезд,347360,47.5111044,42.2008462
1В,улица Гагарина,347360,47.5081968,42.1970221
10,Ленинградская улица,347360,47.5288036,42.1920813
38А,бульвар Великой Победы,347360,47.5125574,42.1892869
24,улица Энтузиастов,347360,47.5192172,42.1965142
10,улица Черникова,347360,47.5237659,42.1968451
31,улица Энтузиастов,347360,47.5255322,42.1958128
22А,улица Гагарина,347360,47.5156328,42.2130282
22Г,улица Гагарина,347360,47.5158705,42.2134781
11,Лицейский проезд,347360,47.5102032,42.1986035
12,Лицейский проезд,347360,47.5104460,42.1990328
7,улица Маршала Кошевого,347360,47.5216439,42.2070504
19,проспект Строителей,347360,47.5176298,42.1983180
24,улица Энтузиастов,347360,47.5191002,42.1967741
17,проспект Строителей,347360,47.5174947,42.1980068
17,улица Черникова,347360,47.5228467,42.1985259
22,проспект Курчатова,347360,47.5205925,42.2055791
20,улица Маршала Кошевого,347360,47.5221071,42.2148878
1,улица Черникова,347382,47.5227728,42.2024675
30А,улица Карла Маркса,347360,47.5295685,42.2069439
1,улица Ленина,347360,47.5286369,42.1397163
13А,бульвар Великой Победы,347360,47.5171508,42.1930005
11,улица Ленина,347360,47.5262887,42.1416682
8,Морская улица,347360,47.5284354,42.1427229
13,улица Ленина,347360,47.5258709,42.1420480
4,Почтовый переулок,347360,47.5289427,42.1401647
10,Морская улица,347360,47.5278801,42.1432021
22,переулок Пушкина,347360,47.5278298,42.1427465
21,Донской переулок,347360,47.5249248,42.1409857
8,переулок Пушкина,347360,47.5265818,42.1394286
19,Донской переулок,347360,47.5245448,42.1411034
10,улица Кадолина,347360,47.5240859,42.1401534
12,Морская улица,347360,47.5275319,42.1434954
2,переулок Чехова,347360,47.5243500,42.1388966
6,улица Кадолина,347360,47.5251125,42.1388601
3,улица Кадолина,347360,47.5258285,42.1390818
13,Советская улица,347360,47.5236041,42.1393783
1,переулок Пушкина,347360,47.5271536,42.1396214
9,улица Кадолина,347360,47.5250312,42.1397171
2,переулок Пушкина,347360,47.5257906,42.1372892
18,Морская улица,347360,47.5266733,42.1442605
31,Донской переулок,347360,47.5263564,42.1437863
14,Морская улица,347360,47.5272401,42.1437201
5,улица Кадолина,347360,47.5255900,42.1392643
6,Почтовый переулок,347360,47.5291229,42.1406564
4,Морская улица,347360,47.5291302,42.1421880
5А,улица Ленина,347360,47.5280524,42.1406678
9,улица Ленина,347360,47.5266704,42.1412950
6,Морская улица,347360,47.5288145,42.1424164
23,Донской переулок,347360,47.5248587,42.1415449
13,Донской переулок,347360,47.5237966,42.1399122
4,улица Ленина,347360,47.5263599,42.1405166
8,улица Кадолина,347360,47.5244802,42.1395425
9,Советская улица,347360,47.5245168,42.1383620
11,улица Кадолина,347360,47.5246691,42.1402066
4,улица Кадолина,347360,47.5256047,42.1384661
29,Донской переулок,347366,47.5259140,42.1431468
7,улица Кадолина,347360,47.5253540,42.1394806
14,переулок Пушкина,347360,47.5272974,42.1413336
31А,Донской переулок,347360,47.5263649,42.1431089
11,Советская улица,347360,47.5240386,42.1387454
7А,Морская улица,347360,47.5259047,42.1477660
8,Почтовый переулок,347360,47.5292991,42.1411397
3,улица Ленина,347360,47.5281394,42.1400837
16,Морская улица,347360,47.5269766,42.1440051
6,переулок Пушкина,347360,47.5262910,42.1387890
7,улица Ленина,347360,47.5270584,42.1409410
2,улица Кадолина,347360,47.5260355,42.1380420
15,улица Ленина,347360,47.5255953,42.1425463
13,улица Кадолина,347360,47.5243574,42.1406413
20,переулок Пушкина,347360,47.5275968,42.1423996
10,переулок Пушкина,347360,47.5267868,42.1400962
10,Почтовый переулок,347360,47.5294814,42.1417849
4,Советская улица,347360,47.5281520,42.1375734
5А,улица Лермонтова,347360,47.5234034,42.1419053
2,Волгодонская улица,347360,47.5291563,42.1362577
7,улица Кольцо Надежды,347360,47.5411643,42.2173329
46,улица Маршала Кошевого,347360,47.5249526,42.2206487
21,переулок Макаренко,347360,47.5090706,42.1530492
60/4,улица Химиков,347366,47.5098796,42.1155124
16А,улица Химиков,347360,47.5091364,42.1293363
20А,улица Энтузиастов,347360,47.5179095,42.1974979
32,проспект Курчатова,347360,47.5233269,42.2059998
1,Васильковая улица,347360,47.5315261,42.1828620
14,Сельская улица,347360,47.5329469,42.1829217
2,Васильковая улица,347360,47.5316822,42.1834439
24,Васильковая улица,347360,47.5327324,42.1840261
11,Вольная улица,347360,47.5331169,42.1839684
4,Васильковая улица,347360,47.5318761,42.1833478
26,Васильковая улица,347360,47.5328602,42.1838432
16,Сельская улица,347360,47.5330197,42.1832063
5,Васильковая улица,347360,47.5319280,42.1826143
38,Васильковая улица,347360,47.5328611,42.1826375
10,Васильковая улица,347360,47.5321956,42.1837750
12,Васильковая улица,347360,47.5321524,42.1840547
6,Васильковая улица,347360,47.5320584,42.1832075
29,Лазоревый проспект,347360,47.5319753,42.1842640
3,Васильковая улица,347360,47.5317219,42.1827663
9,Вольная улица,347360,47.5330161,42.1842423
28,Васильковая улица,347360,47.5328055,42.1834690
14,Васильковая улица,347360,47.5321882,42.1843092
10В,Лазоревый проспект,347360,47.5323833,42.1865777
10Д,Лазоревый проспект,347360,47.5327130,42.1871618
10А,Лазоревый проспект,347360,47.5321359,42.1861244
10Е,Лазоревый проспект,347360,47.5328529,42.1874382
10Б,Лазоревый проспект,347360,47.5322690,42.1863820
10Г,Лазоревый проспект,347360,47.5325479,42.1868301
27,Васильковая улица,347360,47.5322433,42.1823519
45,Васильковая улица,347360,47.5330091,42.1806878
59,Васильковая улица,347360,47.5336602,42.1807934
43,Васильковая улица,347360,47.5330206,42.1809206
8,Сельская улица,347360,47.5324260,42.1812158
37,Лазоревый проспект,347360,47.5329150,42.1861061
41,Васильковая улица,347360,47.5332442,42.1811684
2А,Вольная улица,347360,47.5332304,42.1857652
53,улица Энтузиастов,347360,47.5336391,42.1863581
29,Васильковая улица,347360,47.5325297,42.1821679
55,Васильковая улица,347360,47.5335739,42.1801630
30,Дуговая улица,347360,47.5329069,42.1794846
26,Дуговая улица,347360,47.5328825,42.1801602
10,Сельская улица,347360,47.5325038,42.1814871
25,Васильковая улица,347360,47.5320507,42.1820304
10,Лазоревый проспект,347360,47.5325103,42.1877877
6,Вольная улица,347360,47.5354038,42.1809424
28,Манычская улица,347360,47.5356618,42.1797382
75,улица Энтузиастов,347360,47.5374386,42.1777906
65,Васильковая улица,347360,47.5343398,42.1804165
12,Вольная улица,347360,47.5355723,42.1800731
14,Стременная улица,347360,47.5369233,42.1776444
8,Стременная улица,347360,47.5371727,42.1764015
67,Васильковая улица,347360,47.5343792,42.1801381
20,Закурганная улица,347360,47.5343936,42.1784240
73,улица Энтузиастов,347360,47.5373481,42.1781639
12,Стременная улица,347360,47.5370240,42.1772680
79,улица Энтузиастов,347360,47.5375946,42.1770513
1Б,Волгоградская улица,347360,47.5382395,42.1739862
2,Грибной переулок,347360,47.5325469,42.1775330
26,Манычская улица,347360,47.5353189,42.1795581
7,Дуговая улица,347360,47.5322065,42.1785984
1А,Волгоградская улица,347360,47.5382642,42.1733002
71,улица Энтузиастов,347360,47.5373266,42.1784759
13,Стременная улица,347360,47.5371334,42.1781035
11,Дуговая улица,347360,47.5319765,42.1779367
27,Вольная улица,347360,47.5349681,42.1813333
54,Манычская улица,347360,47.5370511,42.1757822
22,Манычская улица,347360,47.5350076,42.1791494
1,Сельская улица,347360,47.5317981,42.1780593
23,Вольная улица,347360,47.5347340,42.1823334
19,Вольная улица,347360,47.5344766,42.1827826
9,Стременная улица,347360,47.5373624,42.1769598
56,Манычская улица,347360,47.5371385,42.1753659
2,Овражный переулок,347360,47.5349025,42.1758629
52,Манычская улица,347360,47.5369953,42.1761103
77,Васильковая улица,347360,47.5347043,42.1787399
25,Вольная улица,347360,47.5348475,42.1818292
18,проезд Монтажников,347360,47.5308009,42.1844106
7,Сиреневый бульвар,347360,47.5282816,42.1897187
15,Сиреневый бульвар,347360,47.5288851,42.1897302
16,проезд Монтажников,347360,47.5306889,42.1840466
12,проезд Монтажников,347360,47.5304213,42.1829887
2А,Главная улица,347360,47.5305850,42.1834899
14,проезд Монтажников,347360,47.5305021,42.1832370
40А,улица Энтузиастов,347360,47.5219634,42.1984892
42Б,улица Энтузиастов,347360,47.5236878,42.1986598
2В,улица Черникова,347360,47.5235457,42.2029404
1Б,улица Черникова,347382,47.5229772,42.2028626
2А,улица Черникова,347360,47.5235479,42.2036146
4Б,улица Черникова,347360,47.5235860,42.2010286
4,улица Черникова,347360,47.5235627,42.2023636
42А,улица Энтузиастов,347360,47.5238737,42.1984502
4А,улица Черникова,347360,47.5235577,42.2017749
7В,бульвар Великой Победы,347360,47.5174952,42.1907185
7Б,бульвар Великой Победы,347360,47.5175888,42.1909300
5,бульвар Великой Победы,347360,47.5178195,42.1924924
2А,бульвар Великой Победы,347360,47.5190353,42.1957693
30,бульвар Великой Победы,347360,47.5138141,42.1882999
7,улица Энтузиастов,347360,47.5119879,42.2019837
4,1-я улица Черникова,347360,47.5308658,42.1865843
10,1-я улица Черникова,347360,47.5293706,42.1875288
9,Васильковая улица,347360,47.5316270,42.1820748
4,Главная улица,347360,47.5297784,42.1839319
7,Васильковая улица,347360,47.5318510,42.1822035
33,Сиреневый бульвар,347360,47.5299998,42.1876305
2Б,1-я улица Черникова,347360,47.5312633,42.1862843
1,Главная улица,347360,47.5302372,42.1842826
22,Снежный переулок,347360,47.5299020,42.1827646
20,Снежный переулок,347360,47.5300467,42.1831997
2,Тенистый проезд,347360,47.5297363,42.1881104
6,Тенистый проезд,347360,47.5298183,42.1878050
1,1-я улица Черникова,347360,47.5305057,42.1873387
1А,Главная улица,347360,47.5305608,42.1840778
2В,1-я улица Черникова,347360,47.5315652,42.1861004
24,проезд Монтажников,347360,47.5312747,42.1855715
6,1-я улица Черникова,347360,47.5298513,42.1872402
44,7-я Заводская улица,347360,47.4968166,42.2308997
61,улица Гагарина,347360,47.5247397,42.2276504
12,Логовская улица,347360,47.5234920,42.2211715
16,Логовская улица,347360,47.5239347,42.2213294
8,Логовская улица,347360,47.5230674,42.2210640
25,улица Маршала Кошевого,347360,47.5271546,42.2195331
21,улица Маршала Кошевого,347360,47.5252164,42.2168966
10,Логовская улица,347360,47.5232419,42.2211597
14,Логовская улица,347360,47.5237043,42.2212077
38А,улица Маршала Кошевого,347360,47.5244653,42.2191149
13,Логовская улица,347360,47.5243197,42.2211609
27,бульвар Великой Победы,347360,47.5149179,42.1868494
1,Новый проезд,347360,47.5154030,42.1856870
5,Малый проезд,347360,47.5161624,42.1865139
29,бульвар Великой Победы,347360,47.5148918,42.1866110
7,Малый проезд,347360,47.5164070,42.1853246
75,Набережная улица,347360,47.5155178,42.1844648
75А,Набережная улица,347360,47.5153097,42.1844486
63А,Набережная улица,347360,47.5166946,42.1840852
73,Набережная улица,347360,47.5153962,42.1841155
74,Набережная улица,347360,47.5157222,42.1838104
71,Набережная улица,347360,47.5159801,42.1843603
72,Набережная улица,347360,47.5160019,42.1838095
67,Набережная улица,347360,47.5164707,42.1844399
65,Набережная улица,347360,47.5164614,42.1837840
63,Набережная улица,347360,47.5168774,42.1840536
69,Набережная улица,347360,47.5162340,42.1844483
70,Набережная улица,347360,47.5162166,42.1838304
66,Набережная улица,347360,47.5173487,42.1838453
11,Заречная улица,347360,47.5178042,42.1837012
61/1,Набережная улица,347360,47.5170484,42.1840880
12,Заречная улица,347360,47.5174606,42.1836136
13,Заречная улица,347360,47.5170717,42.1836486
19А,улица Энтузиастов,347360,47.5172666,42.1967356
20Б,улица Энтузиастов,347360,47.5185236,42.1976925
33Б,проспект Строителей,347360,47.5184722,42.2003632
17,проспект Курчатова,347360,47.5184740,42.2050602
22Б,улица Гагарина,347360,47.5152516,42.2135019
1,улица Дружбы,347360,47.5150669,42.2218335
26Б,улица Энтузиастов,347360,47.5198614,42.1967734
26А,улица Энтузиастов,347360,47.5196725,42.1966977
7Г,бульвар Великой Победы,347360,47.5175175,42.1904833
41,бульвар Великой Победы,347360,47.5135346,42.1869548
37,бульвар Великой Победы,347360,47.5139573,42.1867792
43,бульвар Великой Победы,347360,47.5133367,42.1870839
12,Партизанский переулок,347360,47.5167364,42.1864736
31,бульвар Великой Победы,347360,47.5146064,42.1863118
10,Партизанский переулок,347360,47.5168888,42.1858378
33,бульвар Великой Победы,347360,47.5144940,42.1867940
39,бульвар Великой Победы,347360,47.5137452,42.1868586
72,улица Ветеранов,347360,47.5164259,42.1856435
70А,улица Ветеранов,347360,47.5166549,42.1859027
1,проспект Строителей,347360,47.5139796,42.1918453
26А,бульвар Великой Победы,347360,47.5161769,42.1872679
35,бульвар Великой Победы,347360,47.5142504,42.1867738
4,Партизанский переулок,347360,47.5171631,42.1848092
58,Набережная улица,347360,47.5185259,42.1842829
62,Набережная улица,347360,47.5180713,42.1841906
44,Набережная улица,347360,47.5203226,42.1840787
50,Набережная улица,347360,47.5194223,42.1841691
60,Набережная улица,347360,47.5182759,42.1843212
48,Набережная улица,347360,47.5196275,42.1841496
2,Партизанский переулок,347360,47.5172529,42.1843684
9,Заречная улица,347360,47.5182441,42.1836969
6,Заречная улица,347360,47.5190548,42.1837024
46,Набережная улица,347360,47.5199333,42.1841226
2А,Набережная улица,347360,47.5205539,42.1838725
8,Заречная улица,347360,47.5185586,42.1837340
52,Набережная улица,347360,47.5192626,42.1841508
2,Заречная улица,347360,47.5204199,42.1836792
64,Набережная улица,347360,47.5178566,42.1841006
3,Заречная улица,347360,47.5202428,42.1837010
7,Заречная улица,347360,47.5187545,42.1837548
10,Заречная улица,347360,47.5180059,42.1836518
54,Набережная улица,347360,47.5191077,42.1841981
56,Набережная улица,347360,47.5187252,42.1843540
12,Приморский переулок,347360,47.5231701,42.1836767
3,Приморский переулок,347360,47.5241472,42.1836169
6,Шмутовой переулок,347360,47.5262083,42.1819180
18А,Приморский переулок,347360,47.5221061,42.1841737
1,Ноябрьский переулок,347360,47.5193167,42.1852112
1,Озёрный переулок,347360,47.5210486,42.1837258
43,Набережная улица,347360,47.5218971,42.1834728
16,Приморский переулок,347360,47.5224741,42.1839978
34,Приморский переулок,347360,47.5191125,42.1851240
36,улица Ветеранов,347360,47.5242439,42.1843351
14,Приморский переулок,347360,47.5226658,42.1839614
10Б,Приморский переулок,347360,47.5234045,42.1832211
27,Набережная улица,347360,47.5245586,42.1815767
32,улица Ветеранов,347360,47.5247563,42.1835164
25,Набережная улица,347360,47.5250657,42.1812078
6А,переулок Коммунаров,347360,47.5245156,42.1823454
11,переулок Коммунаров,347360,47.5251806,42.1834757
5,Приморский переулок,347360,47.5238383,42.1838381
10,Приморский переулок,347360,47.5234119,42.1834796
41А,Набережная улица,347360,47.5220414,42.1833355
3,переулок Коммунаров,347360,47.5251679,42.1819491
2А,Шмутовой переулок,347360,47.5257599,42.1804042
2,Вербовый переулок,347360,47.5257226,42.1823434
6,Вербовый переулок,347360,47.5255160,42.1814607
53,Набережная улица,347360,47.5193833,42.1847786
9,переулок Коммунаров,347360,47.5250061,42.1829828
4,Вербовый переулок,347360,47.5256125,42.1819064
20,Приморский переулок,347360,47.5214414,42.1844475
30А,улица Ветеранов,347360,47.5254685,42.1836007
4,переулок Коммунаров,347360,47.5244690,42.1821968
20А,Приморский переулок,347360,47.5216080,42.1843985
31,Набережная улица,347360,47.5236432,42.1822509
8,Приморский переулок,347360,47.5235666,42.1834118
5А,Приморский переулок,347360,47.5239431,42.1837759
37,Набережная улица,347360,47.5228977,42.1828213
22,Набережная улица,347360,47.5251308,42.1806663
31А,Набережная улица,347360,47.5239761,42.1822485
6,Приморский переулок,347360,47.5238596,42.1831929
45А,Набережная улица,347360,47.5215786,42.1834911
5,Вербовый переулок,347360,47.5255740,42.1828943
18,Приморский переулок,347360,47.5218291,42.1842723
9,Приморский переулок,347360,47.5234863,42.1840876
40,улица Ветеранов,347360,47.5234627,42.1848466
4,Шмутовой переулок,347360,47.5260645,42.1814048
7,переулок Коммунаров,347360,47.5249056,42.1826409
1Б,Ноябрьский переулок,347360,47.5191577,42.1847884
29,Набережная улица,347360,47.5243268,42.1817825
43А,Набережная улица,347360,47.5217045,42.1831834
40А,улица Ветеранов,347360,47.5237496,42.1846390
14,улица Ветеранов,347360,47.5276596,42.1820701
12А,улица Ветеранов,347360,47.5279078,42.1820344
6,переулок Цыганкова,347360,47.5278856,42.1804595
3,Вербовый переулок,347360,47.5259671,42.1826235
7Г,Шмутовой переулок,347360,47.5275847,42.1809966
13,Набережная улица,347360,47.5267707,42.1801011
8,переулок Цыганкова,347360,47.5279780,42.1807826
7Е,Шмутовой переулок,347360,47.5272811,42.1814439
22,улица Ветеранов,347360,47.5268409,42.1826659
9,Вербовый переулок,347360,47.5254278,42.1823409
21,Набережная улица,347360,47.5258217,42.1807699
7Б,Шмутовой переулок,347360,47.5271064,42.1807998
12,Набережная улица,347360,47.5271601,42.1793866
20А,улица Ветеранов,347360,47.5271038,42.1825101
7,Шмутовой переулок,347360,47.5266196,42.1820043
26А,улица Ветеранов,347360,47.5262593,42.1830653
20,улица Ветеранов,347360,47.5272140,42.1824467
2Б,переулок Цыганкова,347360,47.5277295,42.1799419
26,улица Ветеранов,347360,47.5260501,42.1831652
24,улица Ветеранов,347360,47.5265285,42.1828446
9,Набережная улица,347360,47.5276532,42.1795427
7Д,Шмутовой переулок,347360,47.5273967,42.1812078
14,Набережная улица,347360,47.5273632,42.1792770
7,Вербовый переулок,347360,47.5254701,42.1825180
5,Шмутовой переулок,347360,47.5264904,42.1816049
17,Набережная улица,347360,47.5263966,42.1802923
5А,Шмутовой переулок,347360,47.5265620,42.1817918
12,улица Ветеранов,347360,47.5277749,42.1819807
25А,Набережная улица,347360,47.5248534,42.1813607
11,Набережная улица,347360,47.5270392,42.1799145
5,переулок Коммунаров,347360,47.5248156,42.1822168
3,Шмутовой переулок,347360,47.5263074,42.1810608
4,переулок Цыганкова,347360,47.5278034,42.1801779
4А,переулок Цыганкова,347360,47.5273367,42.1804293
10,улица Ветеранов,347360,47.5281777,42.1818937
2А,переулок Цыганкова,347360,47.5277312,42.1797250
4,улица Ветеранов,347360,47.5291286,42.1812278
4,Дуговая улица,347360,47.5310809,42.1791091
1,Набережная улица,347360,47.5289113,42.1787574
2А,Волгоградская улица,347360,47.5340951,42.1764192
2Ж,Волгоградская улица,347360,47.5338084,42.1772778
8,Снежный переулок,347360,47.5293522,42.1801449
2Б,Волгоградская улица,347360,47.5335808,42.1767768
13,переулок Цыганкова,347360,47.5285246,42.1816543
5,переулок Цыганкова,347360,47.5286895,42.1802452
6,Волгоградская улица,347360,47.5331254,42.1775107
2Б,улица Ветеранов,347360,47.5295746,42.1809511
3,переулок Цыганкова,347360,47.5280963,42.1799971
2З,Волгоградская улица,347360,47.5339683,42.1769879
6,Снежный переулок,347360,47.5292558,42.1798313
4А,улица Ветеранов,347360,47.5292811,42.1811124
2,Дуговая улица,347360,47.5309518,42.1787279
2Д,улица Ветеранов,347360,47.5294121,42.1810607
1,переулок Цыганкова,347360,47.5280538,42.1794929
4,Снежный переулок,347360,47.5290290,42.1794843
2А,улица Академика Королёва,347360,47.5284495,42.2082116
17,улица 50 лет СССР,347360,47.5139733,42.1543238
143,улица Максима Горького,347360,47.5070557,42.1604336
124А,Морская улица,347360,47.5072877,42.1709314
1,Окружная улица,347360,47.5242929,42.1322923
70,улица Максима Горького,347360,47.5157962,42.1459123
79,улица Серафимовича,347360,47.5154144,42.1450391
58,улица Максима Горького,347360,47.5165344,42.1447852
54,улица Максима Горького,347360,47.5168016,42.1444053
27,Коммунистический переулок,347360,47.5151279,42.1459751
30,Октябрьский переулок,347360,47.5167613,42.1436013
75,улица Серафимовича,347360,47.5156797,42.1446476
66,улица Максима Горького,347360,47.5160309,42.1455505
73,улица Серафимовича,347360,47.5158190,42.1444772
65,улица Серафимовича,347360,47.5163205,42.1436946
72,улица Максима Горького,347360,47.5156538,42.1461040
52/34,улица Максима Горького,347360,47.5170538,42.1440415
29,Коммунистический переулок,347360,47.5152597,42.1462831
60,улица Максима Горького,347360,47.5164065,42.1449798
63/28,улица Серафимовича,347360,47.5165711,42.1433508
85/25,улица Серафимовича,347360,47.5149260,42.1457095
74/31,улица Максима Горького,347360,47.5153853,42.1464851
62,улица Максима Горького,347360,47.5162935,42.1451711
77,улица Серафимовича,347360,47.5155481,42.1448424
32,Октябрьский переулок,347360,47.5169306,42.1438173
64,улица Максима Горького,347360,47.5161742,42.1453537
69,улица Серафимовича,347360,47.5160550,42.1440858
68,улица Максима Горького,347360,47.5158704,42.1457824
71,улица Серафимовича,347360,47.5159411,42.1442572
67,улица Серафимовича,347360,47.5161916,42.1438895
81,улица Серафимовича,347360,47.5152650,42.1452945
83,улица Серафимовича,347360,47.5152094,42.1454893
56,улица Максима Горького,347360,47.5166452,42.1445877
55,Пионерская улица,347360,47.5156604,42.1427200
84,улица Серафимовича,347360,47.5149596,42.1451158
64/26,улица Серафимовича,347360,47.5163098,42.1431848
82,улица Серафимовича,347360,47.5151041,42.1449555
69,Пионерская улица,347360,47.5147635,42.1440429
70,улица Серафимовича,347360,47.5157419,42.1440064
66,улица Серафимовича,347360,47.5161402,42.1434389
21,Коммунистический переулок,347360,47.5145847,42.1453244
67,Пионерская улица,347360,47.5148995,42.1438414
72,улица Серафимовича,347360,47.5156189,42.1441688
76,улица Серафимовича,347360,47.5153772,42.1445513
59,Пионерская улица,347360,47.5153903,42.1431146
78,улица Серафимовича,347360,47.5152552,42.1447569
22,Октябрьский переулок,347360,47.5160808,42.1426055
57,Пионерская улица,347360,47.5155178,42.1429326
53,Пионерская улица,347360,47.5157999,42.1425957
24,Октябрьский переулок,347360,47.5162311,42.1428372
71,Пионерская улица,347360,47.5146447,42.1442237
51/20,Пионерская улица,347360,47.5159192,42.1423506
86/23,улица Серафимовича,347360,47.5147243,42.1455148
68,улица Серафимовича,347360,47.5159995,42.1436058
63,Пионерская улица,347360,47.5151362,42.1435054
19,Коммунистический переулок,347360,47.5144339,42.1450772
65,Пионерская улица,347360,47.5150194,42.1436640
74,улица Серафимовича,347360,47.5154861,42.1443688
61,Пионерская улица,347360,47.5152681,42.1432985
73/17,Пионерская улица,347360,47.5142469,42.1448103
51,Первомайский переулок,347360,47.5201859,42.1423073
129/38,улица Максима Горького,347360,47.5085634,42.1572907
130/54,Советская улица,347360,47.5097483,42.1590076
38,переулок Кирова,347360,47.5087799,42.1575408
40,переулок Кирова,347360,47.5089056,42.1577426
42,переулок Кирова,347360,47.5090459,42.1579359
44,переулок Кирова,347360,47.5091649,42.1580879
46,переулок Кирова,347360,47.5093071,42.1583495
48,переулок Кирова,347360,47.5094589,42.1585338
50,переулок Кирова,347360,47.5095701,42.1587138
52,переулок Кирова,347360,47.5096679,42.1588804
22,проезд Монтажников,347360,47.5311140,42.1852238
4Е,улица Черникова,347360,47.5236649,42.1997055
17,переулок Водников,347360,47.5158739,42.1401339
21,переулок Водников,347360,47.5157636,42.1397950
48,Пионерская улица,347360,47.5164159,42.1409373
5,переулок Водников,347360,47.5166291,42.1390011
15,Октябрьский переулок,347360,47.5156777,42.1412737
36,Пионерская улица,347360,47.5171740,42.1398235
3,Октябрьский переулок,347360,47.5149190,42.1401365
52/19,Пионерская улица,347360,47.5158932,42.1416152
32,Пионерская улица,347360,47.5174163,42.1394741
5,Октябрьский переулок,347360,47.5150405,42.1403251
44,Пионерская улица,347360,47.5166717,42.1405378
19,переулок Водников,347360,47.5157490,42.1403440
15,переулок Водников,347360,47.5160054,42.1399524
3,переулок Водников,347360,47.5167909,42.1387555
13,Октябрьский переулок,347360,47.5155498,42.1410808
38,Пионерская улица,347360,47.5170402,42.1400172
1,Октябрьский переулок,347360,47.5147934,42.1399713
17,Октябрьский переулок,347360,47.5158115,42.1414769
25,переулок Водников,347360,47.5155113,42.1394205
9,переулок Водников,347360,47.5163780,42.1393825
40,Пионерская улица,347360,47.5169106,42.1402169
13,переулок Водников,347360,47.5161286,42.1397742
11,Октябрьский переулок,347360,47.5154155,42.1408949
1/8,переулок Водников,347360,47.5170517,42.1384673
7,Октябрьский переулок,347360,47.5151760,42.1405144
21,Степная улица,347360,47.5151293,42.1394473
50,Пионерская улица,347360,47.5162857,42.1411188
23,переулок Водников,347360,47.5156485,42.1396039
46,Пионерская улица,347360,47.5165420,42.1407522
7,переулок Водников,347360,47.5164948,42.1392139
34,Пионерская улица,347360,47.5173130,42.1396185
27,переулок Водников,347360,47.5154034,42.1392470
11,переулок Водников,347360,47.5162419,42.1395822
9,Октябрьский переулок,347360,47.5152999,42.1407115
10,Первомайский переулок,347360,47.5172259,42.1387300
42,Пионерская улица,347360,47.5167573,42.1404051
30/12,Пионерская улица,347360,47.5175529,42.1392120
16,Партизанский переулок,347360,47.5164466,42.1873750
11,Партизанский переулок,347360,47.5169931,42.1867851
13,Малый проезд,347360,47.5155231,42.1847316
25,улица Шолохова,347360,47.5170999,42.1881268
24,улица Шолохова,347360,47.5167841,42.1875325
24А,улица Шолохова,347360,47.5170761,42.1876878
44,Васильковая улица,347360,47.5334400,42.1832297
17,Васильковая улица,347360,47.5316056,42.1809291
14,Дуговая улица,347360,47.5316968,42.1806127
19,Васильковая улица,347360,47.5318699,42.1813377
16,Закурганная улица,347360,47.5335979,42.1789993
11,Васильковая улица,347360,47.5315238,42.1817614
16,Дуговая улица,347360,47.5319183,42.1810189
25,Волгоградская улица,347360,47.5342362,42.1821109
50,Васильковая улица,347360,47.5343952,42.1825416
21,Лазоревый проспект,347360,47.5313616,42.1823316
18,Дуговая улица,347360,47.5320805,42.1809258
38,Сиреневый бульвар,347360,47.5321019,42.1877453
49/12,улица Энтузиастов,347360,47.5298249,42.1905141
2А,Волгодонская улица,347360,47.5285083,42.1354382
9/11,улица Маршала Кошевого,347360,47.5215392,42.2099633
25А,улица Маршала Кошевого,347360,47.5272595,42.2202845
25В,проспект Мира,347360,47.5278151,42.2212387
23Д,улица Маршала Кошевого,347360,47.5264339,42.2190276
25Б,улица Маршала Кошевого,347360,47.5276621,42.2209692
23Е,улица Маршала Кошевого,347360,47.5266583,42.2194093
11,Волгодонская улица,347360,47.5271975,42.1351316
7,Волгодонская улица,347360,47.5280533,42.1358565
8,Советская улица,347360,47.5277103,42.1368955
5,Волгодонская улица,347360,47.5282184,42.1363343
10,Советская улица,347360,47.5275953,42.1366095
9,Волгодонская улица,347360,47.5277279,42.1353971
3,Волгодонская улица,347360,47.5284331,42.1369562
6,Советская улица,347360,47.5278385,42.1371648
12А,Советская улица,347360,47.5275100,42.1360531
12,Советская улица,347360,47.5274238,42.1363463
14,Советская улица,347360,47.5269828,42.1361367
28,Советская улица,347360,47.5248734,42.1371822
16А,Советская улица,347360,47.5266031,42.1356807
20,Советская улица,347360,47.5260917,42.1362152
26,Советская улица,347360,47.5251670,42.1369246
15,Волгодонская улица,347360,47.5262105,42.1350926
31,Волгодонская улица,347360,47.5242274,42.1365775
13,Волгодонская улица,347360,47.5266445,42.1349675
3,Советская улица,347360,47.5253320,42.1374587
17,Волгодонская улица,347360,47.5258703,42.1353585
24,Советская улица,347360,47.5253993,42.1368192
22,Советская улица,347360,47.5257323,42.1364341
30,Советская улица,347360,47.5246625,42.1373372
29,Волгодонская улица,347360,47.5244573,42.1364562
34,Советская улица,347360,47.5241480,42.1375933
3,переулок Чехова,347360,47.5240249,42.1373262
25,Волгодонская улица,347360,47.5249130,42.1361508
19,Волгодонская улица,347360,47.5255298,42.1356294
16,Советская улица,347360,47.5265371,42.1359954
33,Волгодонская улица,347360,47.5239245,42.1368598
21,Волгодонская улица,347360,47.5253013,42.1357675
5,Советская улица,347360,47.5251100,42.1376602
7,Советская улица,347360,47.5249209,42.1378091
18,Советская улица,347360,47.5263052,42.1360346
32,Советская улица,347360,47.5243333,42.1375948
23,Волгодонская улица,347360,47.5251189,42.1359129
27,Волгодонская улица,347360,47.5246374,42.1363331
33,Советская улица,347360,47.5223579,42.1412382
7,улица Химиков,347360,47.5246475,42.1339414
8,Волгодонская улица,347360,47.5254633,42.1349610
12,Волгодонская улица,347360,47.5250852,42.1352911
36,Советская улица,347360,47.5232416,42.1390048
7А,улица Максима Горького,347360,47.5241138,42.1350223
25,Советская улица,347360,47.5230089,42.1401982
16,Волгодонская улица,347360,47.5243677,42.1357219
33Б,Волгодонская улица,347360,47.5232178,42.1378750
7,улица Максима Горького,347360,47.5239874,42.1347002
23,Советская улица,347360,47.5231746,42.1399339
34,Советская улица,347360,47.5236189,42.1384906
27,Советская улица,347360,47.5228467,42.1405249
29,Советская улица,347360,47.5226912,42.1407581
14,Волгодонская улица,347360,47.5246863,42.1354922
5,улица Химиков,347360,47.5251315,42.1341788
1,улица Химиков,347360,47.5259165,42.1345062
35,Советская улица,347360,47.5221599,42.1414663
2Б,переулок Чехова,347360,47.5236170,42.1373455
31,Советская улица,347360,47.5225103,42.1410152
3,улица Химиков,347360,47.5257108,42.1344099
10,Волгодонская улица,347360,47.5252804,42.1350922
5,улица Максима Горького,347360,47.5240871,42.1342657
6,Волгодонская улица,347360,47.5256676,42.1348241
9,улица Максима Горького,347360,47.5236000,42.1349268
22,Волгодонская улица,347360,47.5228652,42.1365115
22,Волгодонская улица,347360,47.5231223,42.1368826
11,улица Максима Горького,347360,47.5233452,42.1356337
24А,Волгодонская улица,347360,47.5227148,42.1370778
13/1,улица Максима Горького,347360,47.5227125,42.1362920
18,Волгодонская улица,347360,47.5239769,42.1362010
20,Волгодонская улица,347360,47.5235713,42.1365734
15А,улица Максима Горького,347360,47.5225499,42.1366507
11А,улица Максима Горького,347360,47.5232255,42.1357864
16А,Волгодонская улица,347360,47.5237798,42.1353734
24,Волгодонская улица,347360,47.5229226,42.1373661
26,проспект Мира,347360,47.5287693,42.2225676
12,улица Ленина,347360,47.5251526,42.1418362
10,улица Ленина,347360,47.5254725,42.1413735
7Ж,улица Гагарина,347360,47.5100681,42.2005100
7Л,улица Гагарина,347360,47.5106004,42.2015369
19А,улица Гагарина,347380,47.5167263,42.2131712
7З,улица Гагарина,347360,47.5100687,42.2009715
7И,улица Гагарина,347360,47.5102353,42.2012507
7К,улица Гагарина,347360,47.5103979,42.2014519
1Г,проспект Курчатова,347360,47.5108497,42.2142402
49,проспект Мира,347360,47.5317809,42.2106361
64,улица Карла Маркса,347360,47.5375588,42.2009399
9,Партизанский переулок,347360,47.5171390,42.1861676
52,улица Маршала Кошевого,347360,47.5280472,42.2239064
31,улица Маршала Кошевого,347360,47.5288491,42.2232559
52,улица Гагарина,347360,47.5243943,42.2289543
41,улица Гагарина,347360,47.5200969,42.2192116
9,Беркутянская улица,347360,47.5211576,42.2192692
43,улица Гагарина,347360,47.5203129,42.2196379
11,Беркутянская улица,347360,47.5212770,42.2195171
41/1,улица Гагарина,347360,47.5202069,42.2194427
43/1,улица Гагарина,347360,47.5204174,42.2197754
13,Беркутянская улица,347360,47.5213878,42.2196991
3,Беркутянская улица,347360,47.5208327,42.2186666
47,улица Гагарина,347360,47.5206197,42.2201781
47/1,улица Гагарина,347360,47.5207570,42.2204097
1,Беркутянская улица,347360,47.5207210,42.2184604
45,улица Гагарина,347360,47.5205161,42.2199963
7,Беркутянская улица,347360,47.5210220,42.2190082
5,Беркутянская улица,347360,47.5209312,42.2188261
12,Беркутянская улица,347360,47.5205028,42.2188434
22,Беркутянская улица,347360,47.5209824,42.2197925
18,Беркутянская улица,347360,47.5207927,42.2194202
16,Беркутянская улица,347360,47.5206971,42.2192254
20,Беркутянская улица,347360,47.5208876,42.2196060
24,Беркутянская улица,347360,47.5211212,42.2200095
14,Беркутянская улица,347360,47.5206039,42.2190384
55,улица Ленина,347360,47.5176334,42.1540293
20А,Морская улица,347360,47.5268006,42.1453606
24А,Морская улица,347360,47.5263748,42.1460570
6,улица Ленина,347360,47.5259120,42.1405316
59,Первомайский переулок,347360,47.5209727,42.1433665
58,улица Гагарина,347360,47.5257352,42.2313702
66,улица Гагарина,347360,47.5266454,42.2331438
2В,Волгодонская улица,347360,47.5283954,42.1341614
32,улица Серафимовича,347360,47.5187646,42.1394342
4,Волгодонская улица,347360,47.5278713,42.1348699
6,Донской переулок,347360,47.5205848,42.1360900
10,Донской переулок,347360,47.5208341,42.1364540
4,улица Серафимовича,347360,47.5205844,42.1368114
37/31,улица Серафимовича,347360,47.5187122,42.1401937
4,Донской переулок,347360,47.5203798,42.1357957
8,Донской переулок,347360,47.5207097,42.1362843
5,Индустриальная улица,347360,47.5259070,42.2340330
7,Индустриальная улица,347360,47.5262868,42.2335759
1,Партизанский переулок,347360,47.5175612,42.1844889
21,Приморский переулок,347360,47.5201061,42.1855771
2,Озёрный переулок,347360,47.5207410,42.1842870
24,Приморский переулок,347360,47.5208889,42.1846812
26,Приморский переулок,347360,47.5205332,42.1848899
30А,Приморский переулок,347360,47.5201092,42.1849396
3А,Приморский переулок,347360,47.5191684,42.1858476
3,Партизанский переулок,347360,47.5174897,42.1847762
30,Ноябрьский переулок,347360,47.5189347,42.1938035
5А,Ноябрьский переулок,347360,47.5191827,42.1862929
5,Партизанский переулок,347360,47.5174437,42.1851037
52А,улица Ветеранов,347360,47.5203090,42.1865268
53,1-я улица Черникова,347360,47.5187678,42.1931215
51,1-я улица Черникова,347360,47.5189837,42.1931462
54,улица Ветеранов,347360,47.5201167,42.1865955
55,1-я улица Черникова,347360,47.5185668,42.1931065
58,улица Ветеранов,347360,47.5196400,42.1866761
57,1-я улица Черникова,347360,47.5184093,42.1930906
60,улица Ветеранов,347360,47.5193923,42.1866703
59,1-я улица Черникова,347360,47.5181793,42.1929664
6,Партизанский переулок,347360,47.5170513,42.1851222
5,Заречная улица,347360,47.5192580,42.1836861
7А,Ноябрьский переулок,347360,47.5191727,42.1866967
68,улица Ветеранов,347360,47.5175581,42.1863105
7,Партизанский переулок,347360,47.5172487,42.1856341
8,Партизанский переулок,347360,47.5168096,42.1855707
23,Ноябрьский переулок,347360,47.5193515,42.1937389
22,Ноябрьский переулок,347360,47.5188655,42.1913563
2,Дружный переулок,347360,47.5205452,42.1937361
92,1-я улица Черникова,347360,47.5183124,42.1925461
88,1-я улица Черникова,347360,47.5189750,42.1926445
45А,1-я улица Черникова,347360,47.5199932,42.1931974
1,улица Надежды,347360,47.5199279,42.1937917
3,улица Надежды,347360,47.5205298,42.1940126
21А,Ноябрьский переулок,347360,47.5193599,42.1933596
20,Ноябрьский переулок,347360,47.5188751,42.1910127
2А,Дружный переулок,347360,47.5203979,42.1934083
43,1-я улица Черникова,347360,47.5204545,42.1930286
45,1-я улица Черникова,347360,47.5201378,42.1930882
47,1-я улица Черникова,347360,47.5197449,42.1931511
24,Ноябрьский переулок,347360,47.5189025,42.1917772
90,1-я улица Черникова,347360,47.5186548,42.1926019
9А,проспект Строителей,347360,47.5149026,42.1943959
14А,улица Химиков,347360,47.5228277,42.1308456
2А,улица Максима Горького,347360,47.5226193,42.1326567
10,улица Химиков,347360,47.5231732,42.1310831
26,улица Химиков,347360,47.5223785,42.1298673
12,улица Химиков,347360,47.5209867,42.1283266
12Б,улица Химиков,347360,47.5236040,42.1311611
5,улица Ленина,347360,47.5276023,42.1405294
18А,Молодёжная улица,347360,47.5132684,42.2046285
25,улица 50 лет СССР,347360,47.5146871,42.1559525
18,улица Гагарина,347360,47.5129400,42.2082566
16,улица Гагарина,347360,47.5122256,42.2066846
8А,проспект Мира,347360,47.5251699,42.2266817
60,улица Энтузиастов,347360,47.5298552,42.1923711
47/4,улица Энтузиастов,347360,47.5301374,42.1894985
16,переулок Пушкина,347360,47.5273806,42.1418221
1,переулок Маяковского,347360,47.5074640,42.1407920
7,Морская улица,347360,47.5262881,42.1472447
18,Набережная улица,347360,47.5262283,42.1799976
1Б,улица Гагарина,347360,47.5070405,42.1951176
14В,улица Энтузиастов,347382,47.5156354,42.2000841
14В,улица Энтузиастов,347382,47.5155564,42.2002081
14,Партизанский переулок,347360,47.5166246,42.1868585
12,переулок Маяковского,347360,47.5101249,42.1452231
16,Степная улица,347360,47.5143859,42.1390876
13А,Портовая улица,347360,47.5278701,42.1520620
47/5,улица Энтузиастов,347360,47.5303415,42.1892371
6Б,улица Маршала Кошевого,347360,47.5192318,42.2104269
10Е,улица Маршала Кошевого,347380,47.5192465,42.2106189
2,улица И.Смолякова,347360,47.5219761,42.2052508
8Б,улица Дружбы,347380,47.5195131,42.2148205
17,бульвар Великой Победы,347360,47.5169607,42.1899158
17,бульвар Великой Победы,347360,47.5166000,42.1896370
76,Главная улица,347360,47.5179747,42.1892262
21,улица Шолохова,347360,47.5176465,42.1883665
72,Главная улица,347360,47.5184740,42.1894981
77,улица Ветеранов,347360,47.5173849,42.1866078
23,улица Шолохова,347360,47.5173719,42.1882748
74,Главная улица,347360,47.5181308,42.1895703
17,улица Шолохова,347360,47.5183435,42.1886085
17А,улица Шолохова,347360,47.5185364,42.1887133
19,улица Шолохова,347360,47.5179045,42.1884191
18А,улица Шолохова,347360,47.5180989,42.1880878
22,улица Шолохова,347360,47.5172899,42.1875179
20,улица Шолохова,347360,47.5177437,42.1880054
18,улица Шолохова,347360,47.5178445,42.1880601
18,Ноябрьский переулок,347360,47.5188429,42.1897268
16,улица Шолохова,347360,47.5183665,42.1881175
10,Ноябрьский переулок,347360,47.5188153,42.1873382
69,улица Ветеранов,347360,47.5185367,42.1872017
14,улица Шолохова,347360,47.5188034,42.1881957
78,Главная улица,347360,47.5176614,42.1894146
16,Ноябрьский переулок,347360,47.5188431,42.1893921
71,улица Ветеранов,347360,47.5181204,42.1870864
75,улица Ветеранов,347360,47.5175648,42.1868201
73,улица Ветеранов,347360,47.5177421,42.1869811
14А,Ноябрьский переулок,347360,47.5187864,42.1887862
55А,Набережная улица,347360,47.5181513,42.1847020
2,Ноябрьский переулок,347360,47.5187325,42.1849705
62А,улица Ветеранов,347360,47.5187165,42.1866571
57А,Набережная улица,347360,47.5181016,42.1855982
64,улица Ветеранов,347360,47.5181710,42.1865398
4,Ноябрьский переулок,347360,47.5187140,42.1852816
62,улица Ветеранов,347360,47.5184680,42.1866223
55,Набережная улица,347360,47.5187972,42.1847699
59,Набережная улица,347360,47.5178703,42.1845866
66,улица Ветеранов,347360,47.5177960,42.1863618
8,Ноябрьский переулок,347360,47.5187795,42.1863136
57Б,Набережная улица,347360,47.5178387,42.1857252
57,Набережная улица,347360,47.5182265,42.1851899
103/37,улица Максима Горького,347360,47.5106943,42.1541159
49,Набережная улица,347360,47.5200612,42.1846836
51,Набережная улица,347360,47.5198586,42.1847901
30,Приморский переулок,347360,47.5202350,42.1847527
47,Набережная улица,347360,47.5203195,42.1844690
28,Приморский переулок,347360,47.5203908,42.1848483
32,Приморский переулок,347360,47.5199394,42.1850913
4,Заречная улица,347360,47.5195043,42.1837917
8А,Партизанский переулок,347360,47.5165707,42.1854716
27,Приморский переулок,347360,47.5199461,42.1857309
25,Приморский переулок,347360,47.5203162,42.1855694
6,Озёрный переулок,347360,47.5209590,42.1855796
17/4,Приморский переулок,347360,47.5207801,42.1853349
52,улица Ветеранов,347360,47.5204212,42.1864614
23,Приморский переулок,347360,47.5204678,42.1854964
8,Озёрный переулок,347360,47.5211400,42.1857630
23/3,Приморский переулок,347360,47.5194636,42.1858904
19,Приморский переулок,347360,47.5205968,42.1854850
58А,улица Ветеранов,347360,47.5195040,42.1866452
50,улица Ветеранов,347360,47.5208688,42.1862973
56,улица Ветеранов,347360,47.5198040,42.1865605
48,улица Ветеранов,347360,47.5210189,42.1862474
94,7-я Заводская улица,347360,47.5072079,42.2384346
29,8-я Заводская улица,347360,47.5076656,42.2447424
110,7-я Заводская улица,347360,47.5082582,42.2403348
108,7-я Заводская улица,347360,47.5072375,42.2398087
36,7-я Заводская улица,347360,47.4976305,42.2263954
13Б,Портовая улица,347360,47.5276174,42.1522384
15Е,Морская улица,347360,47.5240581,42.1510689
15,Лазоревый проспект,347360,47.5310607,42.1815141
20,Васильковая улица,347360,47.5325872,42.1847556
8,Васильковая улица,347360,47.5322057,42.1834583
33,Лазоревый проспект,347360,47.5322627,42.1849564
86,Степная улица,347360,47.5020876,42.1641756
10,улица Гагарина,347360,47.5095221,42.2017706
6,улица Думенко,347360,47.5196848,42.1499091
10,Вокзальный переулок,347360,47.5092243,42.1498517
8,Вокзальный переулок,347360,47.5091174,42.1496937
6,Вокзальный переулок,347360,47.5089982,42.1495221
7,переулок Матросова,347360,47.5084113,42.1507699
88,Пионерская улица,347360,47.5096701,42.1508788
12,Вокзальный переулок,347360,47.5093758,42.1500680
16,Мирный переулок,347360,47.5091521,42.1510899
15,Мирный переулок,347360,47.5093309,42.1507984
8,Мирный переулок,347360,47.5086510,42.1503518
86/18,Пионерская улица,347360,47.5097909,42.1507038
13,Мирный переулок,347360,47.5092149,42.1506120
11,Мирный переулок,347360,47.5091024,42.1504612
3,Мирный переулок,347360,47.5086133,42.1497318
7,Мирный переулок,347360,47.5088398,42.1500670
3,переулок Матросова,347360,47.5081521,42.1503553
93/1,Степная улица,347360,47.5079584,42.1500828
91,Степная улица,347360,47.5080952,42.1498928
89/2,Степная улица,347360,47.5082197,42.1497191
4,Мирный переулок,347360,47.5084182,42.1500008
5,переулок Матросова,347360,47.5082869,42.1505724
13,переулок Матросова,347360,47.5087644,42.1512776
10,Мирный переулок,347360,47.5087772,42.1505363
12,Мирный переулок,347360,47.5089004,42.1507134
16,Вокзальный переулок,347360,47.5096167,42.1504198
92/18,Пионерская улица,347360,47.5093312,42.1513690
14,Вокзальный переулок,347360,47.5094778,42.1502301
9,переулок Матросова,347360,47.5085350,42.1509217
11,переулок Матросова,347360,47.5086438,42.1510790
94,Пионерская улица,347360,47.5092032,42.1515464
96/17,Пионерская улица,347360,47.5090751,42.1517539
15,переулок Матросова,347360,47.5088851,42.1514543
95/2,Степная улица,347360,47.5077613,42.1503577
4,переулок Матросова,347360,47.5079604,42.1506494
3,переулок Макаренко,347360,47.5077065,42.1510384
6,переулок Макаренко,347360,47.5075619,42.1515824
14,переулок Матросова,347360,47.5085768,42.1515574
98/18,Пионерская улица,347360,47.5088839,42.1520285
106,Пионерская улица,347360,47.5082566,42.1529465
102/17,Пионерская улица,347360,47.5086375,42.1524038
105/1,Степная улица,347360,47.5070049,42.1514828
9,переулок Сергея Лазо,347360,47.5075706,42.1523612
11,переулок Сергея Лазо,347360,47.5076968,42.1525376
15,переулок Сергея Лазо,347360,47.5079331,42.1528883
16,переулок Макаренко,347360,47.5081883,42.1524890
5,переулок Сергея Лазо,347360,47.5073158,42.1519697
4,переулок Макаренко,347360,47.5074492,42.1514170
5,переулок Макаренко,347360,47.5078390,42.1512255
12,переулок Матросова,347360,47.5084512,42.1513756
10,переулок Матросова,347360,47.5083498,42.1512228
11,переулок Макаренко,347360,47.5081902,42.1517630
13,переулок Макаренко,347360,47.5083288,42.1519523
9,переулок Макаренко,347360,47.5080755,42.1515880
15,переулок Макаренко,347360,47.5084343,42.1521230
100,Пионерская улица,347360,47.5087672,42.1522121
97,Степная улица,347360,47.5076476,42.1505420
99/1,Степная улица,347360,47.5075025,42.1507463
16,переулок Матросова,347360,47.5086804,42.1517372
6,переулок Матросова,347360,47.5080722,42.1508175
104/18,Пионерская улица,347360,47.5083888,42.1527587
108/17,Пионерская улица,347360,47.5081051,42.1531456
10,переулок Макаренко,347360,47.5078094,42.1519419
114/17,Пионерская улица,347360,47.5076693,42.1538259
110/18,Пионерская улица,347360,47.5079023,42.1534667
103,Степная улица,347360,47.5071080,42.1513352
14,переулок Козлова,347360,47.5071624,42.1536327
10,переулок Козлова,347360,47.5069178,42.1532770
5,переулок Кирова,347360,47.5063976,42.1532908
7,переулок Кирова,347360,47.5065279,42.1534704
6,переулок Козлова,347360,47.5066699,42.1529387
4,переулок Сергея Лазо,347360,47.5069906,42.1520617
109,Степная улица,347360,47.5066822,42.1519710
13,переулок Сергея Лазо,347360,47.5077864,42.1526935
6,переулок Сергея Лазо,347360,47.5071350,42.1522695
10,переулок Сергея Лазо,347360,47.5073699,42.1526279
14,переулок Сергея Лазо,347360,47.5077301,42.1531478
3,переулок Козлова,347360,47.5067353,42.1524491
5,переулок Козлова,347360,47.5068605,42.1526148
7,переулок Козлова,347360,47.5069713,42.1527953
12,переулок Козлова,347360,47.5070609,42.1534738
8,переулок Козлова,347360,47.5068043,42.1531128
116/18,Пионерская улица,347360,47.5074752,42.1541084
16,переулок Кирова,347360,47.5067832,42.1545883
14,переулок Кирова,347360,47.5066689,42.1544164
6,переулок Кирова,347360,47.5061666,42.1536641
8,переулок Кирова,347360,47.5062950,42.1538357
9,переулок Кирова,347360,47.5066547,42.1536529
11,переулок Кирова,347360,47.5067789,42.1538408
10,переулок Кирова,347360,47.5064052,42.1540326
16,переулок Козлова,347360,47.5072880,42.1538153
13,переулок Кирова,347360,47.5069040,42.1540278
15,переулок Кирова,347360,47.5070266,42.1541938
12,переулок Сергея Лазо,347360,47.5076289,42.1529979
11,переулок Козлова,347360,47.5072492,42.1531933
115,Степная улица,347360,47.5062310,42.1526316
117/1,Степная улица,347360,47.5061078,42.1528084
113/2,Степная улица,347360,47.5063629,42.1524644
121,Степная улица,347360,47.5057032,42.1534159
4,переулок Кирова,347360,47.5060402,42.1535102
119/2,Степная улица,347360,47.5058445,42.1531914
3,переулок Кирова,347360,47.5062650,42.1530905
111/1,Степная улица,347360,47.5065401,42.1521623
121/19,Пионерская улица,347360,47.5097778,42.1514432
28,Вокзальный переулок,347360,47.5106066,42.1518902
117/20,Пионерская улица,347360,47.5100379,42.1510615
119,Пионерская улица,347360,47.5099067,42.1513002
22,Вокзальный переулок,347360,47.5102332,42.1513571
24,Вокзальный переулок,347360,47.5103170,42.1515697
26,Вокзальный переулок,347360,47.5104753,42.1517081
32,Вокзальный переулок,347360,47.5108577,42.1522319
30,переулок Козлова,347360,47.5078060,42.1549266
143,Пионерская улица,347360,47.5076593,42.1546275
21,переулок Козлова,347360,47.5080353,42.1542555
25,переулок Козлова,347360,47.5083333,42.1546566
32,переулок Козлова,347360,47.5081250,42.1551166
29,переулок Кирова,347360,47.5080152,42.1556482
31,переулок Кирова,347360,47.5081991,42.1559130
127/19,Пионерская улица,347360,47.5093284,42.1521070
27,переулок Кирова,347360,47.5078180,42.1553558
90/17,Пионерская улица,347360,47.5095336,42.1510967
6,Мирный переулок,347360,47.5084994,42.1502356
112,Пионерская улица,347360,47.5077945,42.1536301
8,переулок Сергея Лазо,347360,47.5072475,42.1524417
16,переулок Сергея Лазо,347360,47.5077802,42.1533564
120/17,Пионерская улица,347360,47.5072257,42.1544866
118,Пионерская улица,347360,47.5073591,42.1542774
15,переулок Козлова,347360,47.5074716,42.1535369
23,переулок Макаренко,347360,47.5092102,42.1532361
4,переулок Козлова,347360,47.5065492,42.1527337
131,Пионерская улица,347360,47.5090090,42.1525709
133/19,Пионерская улица,347360,47.5088858,42.1527670
24,переулок Матросова,347360,47.5094539,42.1528553
28,переулок Матросова,347360,47.5097021,42.1532139
32,переулок Матросова,347360,47.5099515,42.1535838
34,переулок Матросова,347360,47.5100538,42.1537465
22,переулок Матросова,347360,47.5093307,42.1526789
26,переулок Матросова,347360,47.5095788,42.1530437
25,переулок Макаренко,347360,47.5093272,42.1534012
129/20,Пионерская улица,347360,47.5091347,42.1523934
144/35,улица Максима Горького,347360,47.5100038,42.1544253
140/36,улица Максима Горького,347360,47.5102593,42.1540556
142,улица Максима Горького,347360,47.5101325,42.1542431
33,переулок Макаренко,347360,47.5098121,42.1541418
31,переулок Макаренко,347360,47.5096973,42.1539665
27,переулок Макаренко,347360,47.5094304,42.1535830
107/2,Степная улица,347360,47.5067970,42.1517705
30,переулок Матросова,347360,47.5098350,42.1533969
29,переулок Макаренко,347360,47.5095840,42.1537930
4,Вокзальный переулок,347360,47.5088505,42.1493138
5,Мирный переулок,347360,47.5087354,42.1499024
101/2,Степная улица,347360,47.5072541,42.1511218
3,переулок Сергея Лазо,347360,47.5071841,42.1518036
12,переулок Макаренко,347360,47.5079357,42.1521253
14,переулок Макаренко,347360,47.5080653,42.1523155
32,переулок Макаренко,347360,47.5094406,42.1543332
34,переулок Макаренко,347360,47.5095619,42.1545218
28,переулок Макаренко,347360,47.5091860,42.1539811
26,переулок Макаренко,347360,47.5090723,42.1537998
21,переулок Макаренко,347360,47.5085544,42.1538141
30,переулок Макаренко,347360,47.5093182,42.1541612
25,переулок Макаренко,347360,47.5088123,42.1541921
24,переулок Макаренко,347360,47.5089535,42.1536464
31,переулок Макаренко,347360,47.5091803,42.1547198
29,переулок Макаренко,347360,47.5090723,42.1545506
23,переулок Макаренко,347360,47.5086916,42.1540083
146/36,улица Максима Горького,347360,47.5097308,42.1548045
150/35,улица Максима Горького,347360,47.5094830,42.1551781
33,переулок Макаренко,347360,47.5093030,42.1549116
148,улица Максима Горького,347360,47.5096241,42.1549815
137,Пионерская улица,347360,47.5084896,42.1533255
139/19,Пионерская улица,347360,47.5083554,42.1535259
22,переулок Макаренко,347360,47.5088152,42.1534353
9,переулок Козлова,347360,47.5071087,42.1530051
7,переулок Сергея Лазо,347360,47.5074648,42.1521758
34,Вокзальный переулок,347360,47.5109773,42.1524524
8,переулок Макаренко,347360,47.5077098,42.1518538
27,переулок Макаренко,347360,47.5089478,42.1543402
135/20,Пионерская улица,347360,47.5086182,42.1531769
30,переулок Кирова,347360,47.5079002,42.1562253
28,переулок Кирова,347360,47.5077843,42.1560547
24,переулок Кирова,347360,47.5075357,42.1557027
27,переулок Павлова,347360,47.5075537,42.1564725
168/35,улица Максима Горького,347360,47.5080814,42.1572539
166,улица Максима Горького,347360,47.5082097,42.1570887
164/36,улица Максима Горького,347360,47.5083485,42.1568818
21,переулок Павлова,347360,47.5071501,42.1558863
157/19,Пионерская улица,347360,47.5069589,42.1556048
31,переулок Павлова,347360,47.5077590,42.1567856
23,переулок Павлова,347360,47.5072752,42.1560643
34,переулок Кирова,347360,47.5081472,42.1566061
26,переулок Кирова,347360,47.5076557,42.1558635
162/35,улица Максима Горького,347360,47.5085999,42.1565070
155,Пионерская улица,347360,47.5070919,42.1554142
22,переулок Кирова,347360,47.5074122,42.1555173
160,улица Максима Горького,347360,47.5088272,42.1561614
153/20,Пионерская улица,347360,47.5072155,42.1552284
32,переулок Кирова,347360,47.5080197,42.1564659
36,переулок Козлова,347360,47.5086544,42.1558415
33,переулок Павлова,347360,47.5078933,42.1569813
34,переулок Козлова,347360,47.5084241,42.1554825
25,переулок Павлова,347360,47.5073808,42.1562018
33,переулок Кирова,347360,47.5083945,42.1562022
170/36,улица Максима Горького,347360,47.5078780,42.1575483
30,переулок Павлова,347360,47.5074580,42.1568984
32,переулок Павлова,347360,47.5075887,42.1571043
34,переулок Павлова,347360,47.5076945,42.1572659
26,переулок Павлова,347360,47.5072077,42.1565393
25,переулок Фрунзе,347360,47.5069538,42.1569085
29,переулок Фрунзе,347360,47.5071965,42.1572798
27,переулок Фрунзе,347360,47.5070771,42.1570946
28,переулок Павлова,347360,47.5073264,42.1567166
31,переулок Фрунзе,347360,47.5073169,42.1574590
24,переулок Фрунзе,347360,47.5066320,42.1569965
22,переулок Павлова,347360,47.5069630,42.1561927
30,переулок Фрунзе,347360,47.5070070,42.1575720
26,переулок Фрунзе,347360,47.5067562,42.1571857
34,переулок Фрунзе,347360,47.5072691,42.1579025
172/36,улица Максима Горького,347360,47.5074202,42.1582215
24,переулок Павлова,347360,47.5070837,42.1563542
23,переулок Фрунзе,347360,47.5068221,42.1567292
165/20,Пионерская улица,347360,47.5063346,42.1565825
22,переулок Фрунзе,347360,47.5065159,42.1568375
161,Пионерская улица,347360,47.5066354,42.1560743
159/20,Пионерская улица,347360,47.5067885,42.1558912
163/19,переулок Фрунзе,347360,47.5065010,42.1562689
21,переулок Фрунзе,347360,47.5067056,42.1565497
16,переулок Павлова,347360,47.5063323,42.1552470
128/18,Пионерская улица,347360,47.5065202,42.1555287
130,Пионерская улица,347360,47.5063907,42.1557173
10,переулок Павлова,347360,47.5059845,42.1547092
14,переулок Павлова,347360,47.5062213,42.1550862
3,переулок Фрунзе,347360,47.5053951,42.1546274
4,переулок Павлова,347360,47.5056109,42.1541845
6,переулок Павлова,347360,47.5057248,42.1543398
5,переулок Фрунзе,347360,47.5054980,42.1547654
127,Степная улица,347360,47.5052732,42.1540497
125/2,Степная улица,347360,47.5053945,42.1538729
129/1,Степная улица,347360,47.5051414,42.1542404
13,переулок Павлова,347360,47.5064014,42.1547936
11,переулок Павлова,347360,47.5062840,42.1546072
9,переулок Павлова,347360,47.5061711,42.1544348
126/17,Пионерская улица,347360,47.5067282,42.1552281
122/18,Пионерская улица,347360,47.5069772,42.1548775
124,Пионерская улица,347360,47.5068352,42.1550650
132/17,переулок Фрунзе,347360,47.5062683,42.1559031
15,переулок Фрунзе,347360,47.5060610,42.1556029
13,переулок Фрунзе,347360,47.5059521,42.1554610
9,переулок Фрунзе,347360,47.5057534,42.1551716
7,переулок Фрунзе,347360,47.5055815,42.1549079
11,переулок Фрунзе,347360,47.5058444,42.1553037
5,переулок Павлова,347360,47.5059021,42.1540617
3,переулок Павлова,347360,47.5057836,42.1538846
21,переулок Дзержинского,347360,47.5062601,42.1572246
169/5,Пионерская улица,347360,47.5060638,42.1569348
167,Пионерская улица,347360,47.5061915,42.1567437
28,переулок Фрунзе,347360,47.5068759,42.1573569
25,переулок Дзержинского,347360,47.5064887,42.1575838
33,переулок Дзержинского,347360,47.5069898,42.1582999
174,переулок Фрунзе,347360,47.5072819,42.1583828
8,переулок Павлова,347360,47.5058425,42.1545234
12,переулок Павлова,347360,47.5060969,42.1548880
12,переулок Кирова,347360,47.5065469,42.1542284
7,переулок Павлова,347360,47.5060257,42.1542287
32,переулок Фрунзе,347360,47.5071384,42.1577508
123/1,Степная улица,347360,47.5055952,42.1535997
15,переулок Павлова,347360,47.5065264,42.1549352
7,переулок Макаренко,347360,47.5079405,42.1513818
115/37,улица Максима Горького,347360,47.5097294,42.1555336
109/37,улица Максима Горького,347360,47.5102447,42.1547868
8,переулок Матросова,347360,47.5082359,42.1510368
9,Мирный переулок,347360,47.5089633,42.1502588
107,улица Максима Горького,347360,47.5103808,42.1545919
152/35,улица Максима Горького,347360,47.5088933,42.1552572
141/22,Пионерская улица,347360,47.5081631,42.1538613
79,Степная улица,347360,47.5091107,42.1483422
81,Степная улица,347360,47.5089222,42.1486004
77А,Степная улица,347360,47.5095973,42.1482382
14,переулок Маяковского,347360,47.5099827,42.1455664
69,Степная улица,347360,47.5102979,42.1468869
77,Степная улица,347360,47.5094091,42.1479320
79А,Степная улица,347360,47.5093325,42.1486460
6,переулок Маяковского,347360,47.5095729,42.1443833
10,переулок Маяковского,347360,47.5096642,42.1450801
4,переулок Маяковского,347360,47.5092889,42.1440124
8,переулок Маяковского,347360,47.5098732,42.1448430
71,Степная улица,347360,47.5102768,42.1471674
29,проспект Мира,347387,47.5279616,42.2169159
73,Степная улица,347360,47.5098268,42.1471168
75,Степная улица,347360,47.5097383,42.1476578
28А,улица Максима Горького,347360,47.5187966,42.1414375
44,улица Серафимовича,347360,47.5178995,42.1408280
50/35,улица Максима Горького,347360,47.5173023,42.1436532
24,улица Максима Горького,347360,47.5186580,42.1408625
55,улица Серафимовича,347360,47.5173220,42.1422166
42,улица Серафимовича,347360,47.5180369,42.1406190
57,улица Серафимовича,347360,47.5172203,42.1423671
25,Октябрьский переулок,347360,47.5164851,42.1424505
62/27,улица Серафимовича,347360,47.5166338,42.1426857
40,улица Максима Горького,347360,47.5179663,42.1423432
50,улица Серафимовича,347360,47.5175354,42.1413752
43,улица Серафимовича,347360,47.5181020,42.1410733
48,улица Серафимовича,347360,47.5176218,42.1411167
45,улица Серафимовича,347360,47.5179611,42.1412839
40/20,улица Серафимовича,347360,47.5182458,42.1402889
67А,Степная улица,347360,47.5106096,42.1467066
59,улица Серафимовича,347360,47.5170921,42.1425784
45,Пионерская улица,347360,47.5165269,42.1414137
43,Пионерская улица,347360,47.5166941,42.1412404
34,улица Максима Горького,347360,47.5184551,42.1419783
31,Пионерская улица,347360,47.5174454,42.1400965
51,улица Серафимовича,347360,47.5175990,42.1418269
29,Пионерская улица,347360,47.5175615,42.1398875
47,улица Серафимовича,347360,47.5178534,42.1414640
49/21,Пионерская улица,347360,47.5161545,42.1419734
48,улица Максима Горького,347360,47.5175583,42.1432803
46,улица Максима Горького,347360,47.5176887,42.1430897
54,улица Серафимовича,347360,47.5172875,42.1417176
52,улица Серафимовича,347360,47.5174064,42.1415581
28/28,улица Максима Горького,347360,47.5189197,42.1412646
27/14,Пионерская улица,347360,47.5177806,42.1395642
46,улица Серафимовича,347360,47.5177917,42.1409847
26,улица Максима Горького,347360,47.5187843,42.1410714
53,улица Серафимовича,347360,47.5174689,42.1420401
47,Пионерская улица,347360,47.5163941,42.1415870
60,улица Серафимовича,347360,47.5169030,42.1423048
38,улица Максима Горького,347360,47.5181716,42.1423707
36,улица Максима Горького,347360,47.5183117,42.1422157
35,Пионерская улица,347360,47.5171835,42.1404801
39/22,улица Серафимовича,347360,47.5184495,42.1405551
37,Пионерская улица,347360,47.5170386,42.1406699
41,улица Серафимовича,347360,47.5182304,42.1408933
16,Первомайский переулок,347360,47.5179877,42.1398640
61/29,улица Серафимовича,347360,47.5168320,42.1429702
18,Первомайский переулок,347360,47.5181140,42.1400717
41,Пионерская улица,347360,47.5167860,42.1410191
32,улица Максима Горького,347360,47.5185842,42.1417833
30,улица Максима Горького,347360,47.5186787,42.1415986
58,улица Серафимовича,347360,47.5170238,42.1421301
33,Пионерская улица,347360,47.5172893,42.1402985
49,улица Серафимовича,347360,47.5177243,42.1416358
23,Октябрьский переулок,347360,47.5162920,42.1421865
44,улица Максима Горького,347360,47.5178132,42.1429233
42,улица Максима Горького,347360,47.5179258,42.1427612
39,Пионерская улица,347360,47.5169170,42.1408486
56,улица Серафимовича,347360,47.5171501,42.1419321
14,улица Серафимовича,347360,47.5200137,42.1376855
6,улица Серафимовича,347360,47.5205238,42.1369172
12,улица Серафимовича,347360,47.5201622,42.1374675
10,улица Серафимовича,347360,47.5202798,42.1372985
8,улица Серафимовича,347360,47.5203606,42.1371684
16,улица Серафимовича,347360,47.5198606,42.1379144
33,проспект Курчатова,347375,47.5260483,42.2029436
1А,улица Черникова,347375,47.5230641,42.2034551
58,Вокзальный переулок,347360,47.5136637,42.1564384
60,Вокзальный переулок,347360,47.5138734,42.1566125
56,Вокзальный переулок,347360,47.5134618,42.1561207
119В,улица Ленина,347360,47.5062999,42.1699825
30,Лазоревый проспект,347360,47.5394847,42.2008049
95,проспект Мира,347360,47.5392226,42.2015105
128,7-я Заводская улица,347360,47.5087604,42.2413476
65,переулок Макаренко,347360,47.5126625,42.1583044
61,переулок Матросова,347360,47.5129286,42.1573949
66,переулок Матросова,347360,47.5129629,42.1580333
58,Мирный переулок,347360,47.5127889,42.1564636
63,Мирный переулок,347360,47.5133841,42.1567790
61,Мирный переулок,347360,47.5131811,42.1564720
55,переулок Матросова,347360,47.5123353,42.1564690
79/53,Советская улица,347360,47.5121596,42.1562098
62,Мирный переулок,347360,47.5131816,42.1570614
52,Вокзальный переулок,347360,47.5129857,42.1553894
75/55,Советская улица,347360,47.5125985,42.1555087
67,переулок Макаренко,347360,47.5129060,42.1587154
56,Мирный переулок,347360,47.5125698,42.1561583
67,Мирный переулок,347360,47.5138159,42.1573505
65,Мирный переулок,347360,47.5135736,42.1570759
59,Мирный переулок,347360,47.5129822,42.1561465
64,переулок Матросова,347360,47.5127508,42.1576760
62,Вокзальный переулок,347360,47.5140304,42.1569868
64,Мирный переулок,347360,47.5133851,42.1573547
73/50,Советская улица,347360,47.5128344,42.1552147
57,Мирный переулок,347360,47.5127902,42.1558695
77/54,Советская улица,347360,47.5123400,42.1559532
61,переулок Макаренко,347360,47.5122655,42.1577501
57,переулок Матросова,347360,47.5125137,42.1568499
59,переулок Матросова,347360,47.5126985,42.1571097
68,переулок Матросова,347360,47.5131064,42.1583665
60,Мирный переулок,347360,47.5129847,42.1567819
62,переулок Матросова,347360,47.5125599,42.1574200
54,Вокзальный переулок,347360,47.5132998,42.1558277
66,Мирный переулок,347360,47.5135339,42.1577231
63,переулок Макаренко,347360,47.5124310,42.1580651
63,переулок Матросова,347360,47.5131068,42.1577120
69,переулок Сергея Лазо,347360,47.5121303,42.1591265
57,переулок Сергея Лазо,347360,47.5113363,42.1580055
61,переулок Сергея Лазо,347360,47.5116029,42.1583476
89,Советская улица,347360,47.5111730,42.1576559
73,переулок Сергея Лазо,347360,47.5124453,42.1596019
64,переулок Макаренко,347360,47.5120084,42.1581845
74,переулок Макаренко,347360,47.5126908,42.1592268
67,переулок Сергея Лазо,347360,47.5119892,42.1589460
87,Советская улица,347360,47.5112941,42.1575035
60,переулок Макаренко,347360,47.5117545,42.1578066
66,переулок Макаренко,347360,47.5121472,42.1583864
71,переулок Сергея Лазо,347360,47.5122470,42.1592933
65,переулок Сергея Лазо,347360,47.5118596,42.1587481
68,переулок Макаренко,347360,47.5122399,42.1585798
76,переулок Макаренко,347360,47.5125992,42.1593693
63,переулок Сергея Лазо,347360,47.5117422,42.1585472
62,переулок Макаренко,347360,47.5118790,42.1579828
85/56,Советская улица,347360,47.5114197,42.1572552
70,переулок Макаренко,347360,47.5123914,42.1586849
58,переулок Макаренко,347360,47.5116236,42.1575699
59,переулок Сергея Лазо,347360,47.5114346,42.1582056
72,переулок Макаренко,347360,47.5125315,42.1589444
74,переулок Сергея Лазо,347360,47.5122878,42.1598381
73,переулок Козлова,347360,47.5119284,42.1602470
93,Советская улица,347360,47.5108407,42.1581569
91/56,Советская улица,347360,47.5109621,42.1579629
69,переулок Козлова,347360,47.5117020,42.1597902
66,переулок Сергея Лазо,347360,47.5116759,42.1589894
64,переулок Сергея Лазо,347360,47.5115562,42.1588016
57,переулок Козлова,347360,47.5109167,42.1586319
61,переулок Козлова,347360,47.5111581,42.1590142
65,переулок Козлова,347360,47.5114112,42.1593605
70,переулок Сергея Лазо,347360,47.5119422,42.1594144
67,переулок Козлова,347360,47.5115185,42.1595455
68,переулок Сергея Лазо,347360,47.5118202,42.1591729
62,переулок Сергея Лазо,347360,47.5114244,42.1586425
58,переулок Сергея Лазо,347360,47.5111659,42.1581475
95/55,Советская улица,347360,47.5107193,42.1583469
71,переулок Козлова,347360,47.5118171,42.1599607
59,переулок Козлова,347360,47.5109866,42.1588565
72,Советская улица,347360,47.5120661,42.1595429
74,переулок Козлова,347360,47.5118092,42.1605407
76,переулок Козлова,347360,47.5116607,42.1607513
73,переулок Кирова,347360,47.5115286,42.1609256
60,переулок Сергея Лазо,347360,47.5112985,42.1584529
99,Советская улица,347360,47.5104539,42.1587473
72,переулок Козлова,347360,47.5116225,42.1602027
70,переулок Козлова,347360,47.5114986,42.1600428
69,переулок Кирова,347360,47.5112450,42.1604159
65,переулок Кирова,347360,47.5109663,42.1600418
67,переулок Кирова,347360,47.5111002,42.1602446
71,переулок Кирова,347360,47.5113608,42.1605872
68,переулок Козлова,347360,47.5113693,42.1598444
61,переулок Кирова,347360,47.5107033,42.1596987
96,Советская улица,347360,47.5124498,42.1549720
98/53,Советская улица,347360,47.5123101,42.1551896
58,переулок Козлова,347360,47.5107251,42.1589320
94/48,Советская улица,347360,47.5125685,42.1548214
66,переулок Козлова,347360,47.5111555,42.1597593
44,Вокзальный переулок,347360,47.5122150,42.1542433
51,Мирный переулок,347360,47.5119471,42.1546422
60,переулок Козлова,347360,47.5108556,42.1591116
59,переулок Кирова,347360,47.5105971,42.1595051
62,переулок Козлова,347360,47.5109743,42.1592737
101/55,Советская улица,347360,47.5102668,42.1589908
57,переулок Кирова,347360,47.5104571,42.1593018
46,Вокзальный переулок,347360,47.5123548,42.1544476
63,переулок Кирова,347360,47.5108238,42.1598736
64,переулок Козлова,347360,47.5111175,42.1594992
43,Мирный переулок,347360,47.5113849,42.1537788
49,Мирный переулок,347360,47.5117812,42.1543793
41,Мирный переулок,347360,47.5112434,42.1535990
95,улица Максима Горького,347360,47.5112651,42.1532201
38,Вокзальный переулок,347360,47.5116426,42.1533550
45,Мирный переулок,347360,47.5115123,42.1539926
93/36,улица Максима Горького,347360,47.5113946,42.1530501
97/39,улица Максима Горького,347360,47.5111290,42.1534324
47,Мирный переулок,347360,47.5116434,42.1541943
104/51,Советская улица,347360,47.5118653,42.1558467
42,Мирный переулок,347360,47.5113437,42.1543168
48,Мирный переулок,347360,47.5117534,42.1549000
45,переулок Матросова,347360,47.5113635,42.1550606
49,переулок Матросова,347360,47.5116374,42.1555033
41,переулок Матросова,347360,47.5110612,42.1546584
39,переулок Матросова,347360,47.5108783,42.1544063
40,Мирный переулок,347360,47.5111646,42.1540605
44,Мирный переулок,347360,47.5114705,42.1545018
101,улица Максима Горького,347360,47.5107967,42.1539167
46,Мирный переулок,347360,47.5116012,42.1546933
50,Мирный переулок,347360,47.5119521,42.1552523
100/52,Советская улица,347360,47.5121140,42.1554670
99/38,улица Максима Горького,347360,47.5109521,42.1536996
43,переулок Матросова,347360,47.5112125,42.1548690
47,переулок Матросова,347360,47.5114964,42.1552935
48,переулок Матросова,347360,47.5112170,42.1554429
47,переулок Макаренко,347360,47.5109292,42.1558060
106/54,Советская улица,347360,47.5116743,42.1561151
45,переулок Макаренко,347360,47.5108302,42.1556374
110/53,Советская улица,347360,47.5114075,42.1565286
50,переулок Матросова,347360,47.5113429,42.1556577
52,переулок Матросова,347360,47.5114878,42.1558760
41,переулок Макаренко,347360,47.5105558,42.1552619
46,переулок Матросова,347360,47.5110815,42.1552326
40,переулок Матросова,347360,47.5106898,42.1546769
44,переулок Матросова,347360,47.5109406,42.1550699
51,переулок Макаренко,347360,47.5112351,42.1562353
43,переулок Макаренко,347360,47.5106997,42.1554455
108,Советская улица,347360,47.5115495,42.1563187
39,переулок Макаренко,347360,47.5104266,42.1550676
42,переулок Матросова,347360,47.5108132,42.1548879
105/38,улица Максима Горького,347360,47.5104842,42.1543769
49,переулок Макаренко,347360,47.5110960,42.1560187
46,переулок Макаренко,347360,47.5105631,42.1560078
47,переулок Сергея Лазо,347360,47.5104389,42.1565641
113,улица Максима Горького,347360,47.5098456,42.1553358
114,Советская улица,347360,47.5110307,42.1571033
39,переулок Сергея Лазо,347360,47.5099352,42.1557863
111/38,улица Максима Горького,347360,47.5099752,42.1551386
50,переулок Макаренко,347360,47.5108519,42.1564322
44,переулок Макаренко,347360,47.5104274,42.1558330
43,переулок Сергея Лазо,347360,47.5101874,42.1562052
52,переулок Макаренко,347360,47.5109832,42.1566694
49,переулок Сергея Лазо,347360,47.5105730,42.1567735
40,переулок Макаренко,347360,47.5101829,42.1554584
45,переулок Сергея Лазо,347360,47.5103248,42.1564193
41,переулок Сергея Лазо,347360,47.5100450,42.1559990
48,переулок Макаренко,347360,47.5106926,42.1562019
42,переулок Макаренко,347360,47.5103112,42.1556334
51,переулок Сергея Лазо,347360,47.5107338,42.1570109
112/54,Советская улица,347360,47.5111555,42.1569207
116/53,Советская улица,347360,47.5109145,42.1572862
44,переулок Сергея Лазо,347360,47.5099949,42.1564986
51,переулок Козлова,347360,47.5102646,42.1576316
49,переулок Козлова,347360,47.5101300,42.1574205
52,переулок Сергея Лазо,347360,47.5105060,42.1572450
122/53,Советская улица,347360,47.5104669,42.1579301
50,переулок Сергея Лазо,347360,47.5103844,42.1570759
119,улица Максима Горького,347360,47.5093989,42.1559695
41,переулок Козлова,347360,47.5096054,42.1566788
121/37,улица Максима Горького,347360,47.5092584,42.1561946
48,переулок Сергея Лазо,347360,47.5102630,42.1568815
45,переулок Козлова,347360,47.5098688,42.1570412
43,переулок Козлова,347360,47.5097325,42.1568603
47,переулок Козлова,347360,47.5099932,42.1572479
39,переулок Козлова,347360,47.5094687,42.1564884
118/54,Советская улица,347360,47.5107370,42.1575571
117/38,улица Максима Горького,347360,47.5095211,42.1557924
40,переулок Сергея Лазо,347360,47.5097323,42.1561075
120,Советская улица,347360,47.5105927,42.1577459
42,переулок Сергея Лазо,347360,47.5098647,42.1562941
46,переулок Сергея Лазо,347360,47.5101281,42.1566679
50,переулок Козлова,347360,47.5099326,42.1577159
124/54,Советская улица,347360,47.5102595,42.1582238
49,переулок Кирова,347360,47.5096844,42.1581130
52,переулок Козлова,347360,47.5100729,42.1579100
45,переулок Кирова,347360,47.5094161,42.1577234
47,переулок Кирова,347360,47.5095486,42.1579094
42,переулок Козлова,347360,47.5094251,42.1569699
127/37,улица Максима Горького,347360,47.5088250,42.1568436
43,переулок Кирова,347360,47.5092830,42.1575277
123/38,улица Максима Горького,347360,47.5090937,42.1564857
44,переулок Козлова,347360,47.5095367,42.1571495
39,переулок Кирова,347360,47.5090385,42.1571267
46,переулок Козлова,347360,47.5096726,42.1573147
41,переулок Кирова,347360,47.5091481,42.1573258
48,переулок Козлова,347360,47.5098081,42.1575300
126,переулок Кирова,347360,47.5101317,42.1584040
40,переулок Козлова,347360,47.5093004,42.1567698
51,переулок Кирова,347360,47.5098547,42.1583566
128/53,Советская улица,347360,47.5100099,42.1586046
71,переулок Павлова,347360,47.5108563,42.1613392
103/56,Советская улица,347360,47.5100243,42.1593501
64,переулок Кирова,347360,47.5105886,42.1602044
105,Советская улица,347360,47.5099018,42.1595381
72,переулок Кирова,347360,47.5111093,42.1609756
67,переулок Павлова,347360,47.5106102,42.1609634
59,переулок Павлова,347360,47.5101113,42.1602463
107/55,Советская улица,347360,47.5097749,42.1597057
57,переулок Павлова,347360,47.5099892,42.1600822
69,переулок Павлова,347360,47.5107337,42.1611575
74,переулок Кирова,347360,47.5113139,42.1612623
62,переулок Кирова,347360,47.5104761,42.1600139
66,переулок Кирова,347360,47.5107360,42.1603951
68,переулок Кирова,347360,47.5108727,42.1605534
58,переулок Кирова,347360,47.5102124,42.1596253
70,переулок Кирова,347360,47.5109888,42.1607678
76,переулок Кирова,347360,47.5111935,42.1614519
65,переулок Павлова,347360,47.5104671,42.1607558
73,переулок Павлова,347360,47.5110621,42.1616157
61,переулок Павлова,347360,47.5102225,42.1604083
60,переулок Кирова,347360,47.5103502,42.1598343
35,1-я улица Черникова,347360,47.5213098,42.1927735
7,Яблоневый переулок,347360,47.5223057,42.1941417
9,улица Надежды,347360,47.5224772,42.1943938
5,улица Надежды,347360,47.5209643,42.1941801
27,1-я улица Черникова,347360,47.5226556,42.1921441
37,1-я улица Черникова,347360,47.5211416,42.1928382
39,1-я улица Черникова,347360,47.5209879,42.1928687
11,Яблоневый переулок,347360,47.5224893,42.1930287
63,Советская улица,347360,47.5103548,42.1605972
57,переулок Фрунзе,347360,47.5095222,42.1606954
63,переулок Фрунзе,347360,47.5099024,42.1612449
76,переулок Павлова,347360,47.5107161,42.1621156
70,переулок Павлова,347360,47.5105385,42.1614744
67,переулок Фрунзе,347360,47.5101850,42.1616795
72,переулок Павлова,347360,47.5106927,42.1617067
74,переулок Павлова,347360,47.5108315,42.1619266
73,переулок Фрунзе,347360,47.5106003,42.1622925
60,переулок Павлова,347360,47.5098754,42.1605038
109/56,Советская улица,347360,47.5095783,42.1600235
58,переулок Павлова,347360,47.5097714,42.1603106
69,переулок Фрунзе,347360,47.5103123,42.1618700
68,переулок Павлова,347360,47.5104046,42.1612851
65,переулок Фрунзе,347360,47.5100594,42.1614879
66,переулок Павлова,347360,47.5102939,42.1610643
64,переулок Павлова,347360,47.5101351,42.1608904
62,переулок Павлова,347360,47.5100014,42.1606737
59,переулок Фрунзе,347360,47.5096488,42.1608852
111,Советская улица,347360,47.5094723,42.1601965
2/3,проспект Курчатова,347360,47.5124787,42.2143154
12Г,Октябрьское шоссе,347360,47.5141316,42.2149247
11,Гаражная улица,347360,47.5134277,42.2151208
12А,Октябрьское шоссе,347360,47.5137965,42.2142778
23,Гаражная улица,347360,47.5130876,42.2164818
2,Янтарный переулок,347360,47.5125293,42.2153762
2/1,проспект Курчатова,347360,47.5121769,42.2146867
1,Янтарный переулок,347360,47.5123351,42.2150143
17,Гаражная улица,347360,47.5135279,42.2157077
8,Весёлый переулок,347360,47.5120652,42.2123557
7,Весёлый переулок,347360,47.5116897,42.2122327
10,Весёлый переулок,347360,47.5122434,42.2121939
5,Весёлый переулок,347360,47.5115505,42.2124012
3,Весёлый переулок,347360,47.5114245,42.2125686
6,Весёлый переулок,347360,47.5118611,42.2126287
1/8,проспект Курчатова,347360,47.5127076,42.2121274
15,Весёлый переулок,347360,47.5123465,42.2114483
1,проспект Курчатова,347360,47.5115378,42.2135138
1/2,проспект Курчатова,347360,47.5117314,42.2133204
1/5,проспект Курчатова,347360,47.5122605,42.2126846
1,Весёлый переулок,347360,47.5111614,42.2128766
1/3,проспект Курчатова,347360,47.5118817,42.2131416
9,Весёлый переулок,347360,47.5118823,42.2120118
1/7,проспект Курчатова,347360,47.5125635,42.2123078
1/4,проспект Курчатова,347360,47.5120402,42.2129312
2,Весёлый переулок,347360,47.5113958,42.2131965
47,Гаражная улица,347360,47.5169333,42.2215356
61,Гаражная улица,347360,47.5170354,42.2222242
14/1,Октябрьское шоссе,347360,47.5173169,42.2214520
14/2,Октябрьское шоссе,347360,47.5174636,42.2216958
51,Гаражная улица,347360,47.5165885,42.2218863
115,Гаражная улица,347360,47.5181599,42.2256341
125,Гаражная улица,347360,47.5189631,42.2258037
81,Гаражная улица,347360,47.5174366,42.2234709
147,Гаражная улица,347360,47.5196140,42.2269314
143,Гаражная улица,347360,47.5190305,42.2271846
133,Гаражная улица,347360,47.5189124,42.2264393
75,Гаражная улица,347360,47.5173734,42.2228361
18/2,Октябрьское шоссе,347360,47.5182913,42.2232683
165,Гаражная улица,347360,47.5200920,42.2277414
77,Гаражная улица,347360,47.5177712,42.2230576
24/1,Октябрьское шоссе,347360,47.5195315,42.2255278
129,Гаражная улица,347360,47.5185209,42.2263241
145,Гаражная улица,347360,47.5191485,42.2274300
22/1,Октябрьское шоссе,347360,47.5190538,42.2246095
167,Гаражная улица,347360,47.5202625,42.2275818
18/1,Октябрьское шоссе,347360,47.5181479,42.2230432
20/1,Октябрьское шоссе,347360,47.5185618,42.2240828
65,Гаражная улица,347360,47.5172619,42.2226585
163,Гаражная улица,347360,47.5199388,42.2279704
131,Гаражная улица,347360,47.5186427,42.2265084
73,Гаражная улица,347360,47.5171936,42.2233193
95,Гаражная улица,347360,47.5181496,42.2241675
20,Октябрьское шоссе,347360,47.5184377,42.2237202
113,Гаражная улица,347360,47.5180189,42.2253624
22,Октябрьское шоссе,347360,47.5189115,42.2242954
71,Гаражная улица,347360,47.5169408,42.2234165
103,Гаражная улица,347360,47.5180429,42.2248764
18,Октябрьское шоссе,347360,47.5179990,42.2227752
89,Гаражная улица,347360,47.5177201,42.2239831
55,Гаражная улица,347360,47.5164484,42.2225208
67,Гаражная улица,347360,47.5169063,42.2228039
85,Гаражная улица,347360,47.5173068,42.2240697
83,Гаражная улица,347360,47.5171530,42.2237943
59,Гаражная улица,347360,47.5168769,42.2223817
127,Гаражная улица,347360,47.5186059,42.2259066
16/1,Октябрьское шоссе,347360,47.5178027,42.2224381
26,Октябрьское шоссе,347360,47.5197632,42.2258717
171,Гаражная улица,347360,47.5202712,42.2286400
183,Гаражная улица,347360,47.5207451,42.2293105
175,Гаражная улица,347360,47.5205009,42.2291448
169,Гаражная улица,347360,47.5199878,42.2286789
177,Гаражная улица,347360,47.5203365,42.2291241
77А,Главная улица,347360,47.5185590,42.1901332
81А,Главная улица,347360,47.5181368,42.1906669
7А,бульвар Великой Победы,347360,47.5178889,42.1908114
83,Главная улица,347360,47.5179186,42.1900756
77,Главная улица,347360,47.5188206,42.1902384
73,Главная улица,347360,47.5198836,42.1901378
30,улица Платова,347360,47.5197413,42.1910065
75А,Главная улица,347360,47.5193092,42.1904129
75Б,Главная улица,347360,47.5194287,42.1904084
41/1,1-я улица Черникова,347360,47.5208338,42.1929118
4,Яблоневый переулок,347360,47.5217739,42.1933252
10,Яблоневый переулок,347360,47.5219242,42.1939130
41,1-я улица Черникова,347360,47.5206284,42.1930040
33,1-я улица Черникова,347360,47.5214927,42.1927581
6,Яблоневый переулок,347360,47.5218095,42.1935204
7,улица Надежды,347360,47.5219574,42.1942468
8,Яблоневый переулок,347360,47.5218804,42.1937147
7,Весенний проезд,347360,47.5233267,42.1867497
15,Озёрный переулок,347360,47.5221393,42.1877999
3,Весенний проезд,347360,47.5229412,42.1869801
5,Тихий переулок,347360,47.5238295,42.1900608
50,Главная улица,347360,47.5228737,42.1883316
46,Главная улица,347360,47.5235509,42.1879146
1,Весенний проезд,347360,47.5227635,42.1871743
5,Весенний проезд,347360,47.5231634,42.1868721
49,Главная улица,347360,47.5233940,42.1886104
54,1-я улица Черникова,347360,47.5241848,42.1907357
45,Главная улица,347360,47.5240701,42.1881975
13В,Приморский переулок,347360,47.5218254,42.1847989
13Б,Приморский переулок,347360,47.5219646,42.1847240
13А,Приморский переулок,347360,47.5221162,42.1846452
7А,Озёрный переулок,347360,47.5220232,42.1860152
40,Главная улица,347360,47.5243381,42.1874234
13,переулок Пупкова,347360,47.5239312,42.1864723
13А,переулок Пупкова,347360,47.5238584,42.1862859
11,Приморский переулок,347360,47.5230218,42.1844531
38Б,Главная улица,347360,47.5245362,42.1869749
41,улица Ветеранов,347360,47.5239952,42.1849422
2,Соловьиный переулок,347360,47.5244120,42.1857412
46А,Главная улица,347360,47.5233972,42.1880262
9А,переулок Пупкова,347360,47.5236974,42.1857113
54,Главная улица,347360,47.5225686,42.1885383
4,Соловьиный переулок,347360,47.5245221,42.1859680
9Б,Индустриальная улица,347360,47.5283871,42.2304188
5,переулок Энергетиков,347360,47.5311857,42.2242184
5,Открытый проезд,347360,47.5309780,42.2229772
1,Магистральный переулок,347360,47.5304549,42.2243641
12,переулок Энергетиков,347360,47.5313151,42.2251744
2,переулок Энергетиков,347360,47.5307215,42.2240888
2,Рыбачий переулок,347360,47.5312181,42.2234475
7,переулок Энергетиков,347360,47.5313194,42.2244489
8,переулок Энергетиков,347360,47.5310664,42.2246902
7,Магистральный переулок,347360,47.5307890,42.2250199
1,переулок Энергетиков,347360,47.5309393,42.2237519
10,переулок Энергетиков,347360,47.5311975,42.2249840
62,Главная улица,347360,47.5212689,42.1892696
70,1-я улица Черникова,347360,47.5220996,42.1919807
15А,улица Шолохова,347360,47.5200163,42.1890003
13Б,Ноябрьский переулок,347360,47.5193050,42.1886043
66,Главная улица,347360,47.5205967,42.1895610
20,Озёрный переулок,347360,47.5224592,42.1902475
63А,Главная улица,347360,47.5215348,42.1897854
67А,Главная улица,347360,47.5207444,42.1900107
18А,Озёрный переулок,347360,47.5223985,42.1900141
76,1-я улица Черникова,347360,47.5211580,42.1923444
60,Главная улица,347360,47.5213899,42.1892549
20А,Озёрный переулок,347360,47.5225388,42.1905271
71,Главная улица,347360,47.5200935,42.1903421
13А,Ноябрьский переулок,347360,47.5197692,42.1888653
61,Главная улица,347360,47.5220049,42.1896667
13/2,Ноябрьский переулок,347360,47.5192627,42.1890331
66А,Главная улица,347360,47.5207459,42.1895249
72,1-я улица Черникова,347360,47.5219187,42.1920678
3,переулок Маяковского,347360,47.5082000,42.1371633
24,Весенняя улица,347360,47.5088174,42.1918706
6,улица Дружбы,347380,47.5186238,42.2157255
8,улица Дружбы,347380,47.5190193,42.2146129
2,Солнечная улица,347360,47.5110916,42.1467482
8А,улица Ленина,347360,47.5256290,42.1398431
4,Пионерская улица,347360,47.5195710,42.1362863
10,Индустриальная улица,347360,47.5268262,42.2365042
75А,улица Гагарина,347360,47.5272900,42.2324133
32,Индустриальная улица,347360,47.5307898,42.2303833
5Б,Морская улица,347360,47.5275232,42.1454791
27,Гаражная улица,347360,47.5149941,42.2203693
5,Весенняя улица,347360,47.5087401,42.1882152
1А,Октябрьское шоссе,347360,47.5067911,42.2009640
2,Октябрьское шоссе,347360,47.5066281,42.2026326
4,улица Гагарина,347360,47.5082197,42.1995915
53,Ленинградская улица,347360,47.5413300,42.2169253
4А,проспект Курчатова,347380,47.5155148,42.2107908
2,Корабельный переулок,347360,47.5105437,42.1349326
2,Зимний переулок,347360,47.5108729,42.1354135
4,Корабельный переулок,347360,47.5103083,42.1352790
6,Корабельный переулок,347360,47.5100726,42.1356397
3,Корабельный переулок,347360,47.5103624,42.1357044
5,Студенческий переулок,347360,47.5096162,42.1345568
8,Корабельный переулок,347360,47.5098333,42.1359751
5,Корабельный переулок,347360,47.5099025,42.1353630
7,Корабельный переулок,347360,47.5096567,42.1357089
3,Корабельный переулок,347360,47.5101366,42.1350046
1,Корабельный переулок,347360,47.5103659,42.1346675
1,Корабельный переулок,347360,47.5107179,42.1351781
5,Корабельный переулок,347360,47.5100179,42.1362235
7,Студенческий переулок,347360,47.5094295,42.1348297
9,Студенческий переулок,347360,47.5092593,42.1350805
4,Зимний переулок,347360,47.5105189,42.1359410
3,Студенческий переулок,347360,47.5098000,42.1343146
10,Космический переулок,347360,47.5094732,42.1354039
6,Зимний переулок,347360,47.5101671,42.1364667
1,Студенческий переулок,347360,47.5099775,42.1340524
13В,улица Энтузиастов,347360,47.5156774,42.1987914
1Б,Степная улица,347360,47.5190400,42.1355255
2,Пионерская улица,347360,47.5197800,42.1359207
4А,Пионерская улица,347360,47.5193291,42.1356388
1,Охотный проезд,347360,47.5399099,42.2062617
7,Изумрудный проезд,347360,47.5410969,42.2065994
96,проспект Мира,347360,47.5382386,42.2065838
14,Охотный проезд,347360,47.5412556,42.2054199
6,Охотный проезд,347360,47.5405500,42.2062640
10,Бирюзовый проезд,347360,47.5403601,42.2047928
18,Охотный проезд,347360,47.5417954,42.2051429
16,Охотный проезд,347360,47.5414982,42.2051702
3,Охотный проезд,347360,47.5401358,42.2060866
6,Бирюзовый проезд,347360,47.5399611,42.2052357
4,Охотный проезд,347360,47.5403378,42.2064740
3,Серебряный переулок,347360,47.5394577,42.2062550
7,Серебряный переулок,347360,47.5399367,42.2071884
9,Охотный проезд,347360,47.5406728,42.2054188
4,Бирюзовый проезд,347360,47.5399395,42.2056463
5,Серебряный переулок,347360,47.5395796,42.2064765
11,Охотный проезд,347360,47.5408963,42.2051635
7,Охотный проезд,347360,47.5404982,42.2056448
19,Охотный проезд,347360,47.5415692,42.2043521
5,Охотный проезд,347360,47.5403455,42.2057985
3,Изумрудный проезд,347360,47.5407056,42.2070370
100,проспект Мира,347360,47.5387764,42.2059397
12,Охотный проезд,347360,47.5410931,42.2056142
13,Изумрудный проезд,347360,47.5416424,42.2059205
8,Охотный проезд,347360,47.5407147,42.2060425
90,проспект Мира,347360,47.5376733,42.2072608
98,проспект Мира,347360,47.5384811,42.2062878
2,Охотный проезд,347360,47.5402304,42.2066550
12,Бирюзовый проезд,347360,47.5404898,42.2046232
18,Бирюзовый проезд,347360,47.5410656,42.2039679
5,Изумрудный проезд,347360,47.5408612,42.2068335
10,Охотный проезд,347360,47.5410763,42.2059883
2,Бирюзовый проезд,347360,47.5396621,42.2056403
9,Изумрудный проезд,347360,47.5412852,42.2063811
92,проспект Мира,347360,47.5378830,42.2070098
44А,Морская улица,347360,47.5231495,42.1498165
17,проспект Мира,347360,47.5253312,42.2243966
6А,улица Гагарина,347360,47.5087551,42.2005432
6Б,улица Гагарина,347360,47.5089150,42.2008464
6В,улица Гагарина,347360,47.5090378,42.2010699
6Г,улица Гагарина,347360,47.5091910,42.2013612
6Д,улица Гагарина,347360,47.5093138,42.2015848
2Ж,улица Энтузиастов,347360,47.5079410,42.2094233
2Ж,улица Энтузиастов,347360,47.5075690,42.2098872
2,улица Гагарина,347360,47.5074571,42.1982433
2,улица Гагарина,347360,47.5074762,42.1987917
26,Волгодонская улица,347360,47.5223300,42.1378443
5Д,Морская улица,347360,47.5278456,42.1450818
5,Морская улица,347360,47.5291091,42.1442529
5Г,Морская улица,347360,47.5280362,42.1448078
5А,Морская улица,347360,47.5271902,42.1459043
5И,Морская улица,347360,47.5270398,42.1461263
5А,Морская улица,347360,47.5267606,42.1465498
5Е,Морская улица,347360,47.5290100,42.1446653
5,Морская улица,347360,47.5276677,42.1461455
7А,Морская улица,347360,47.5269425,42.1474264
5Ж,Морская улица,347360,47.5269313,42.1466194
4Б,проспект Курчатова,347380,47.5157482,42.2105196
4В,проспект Курчатова,347380,47.5159776,42.2102603
4Г,проспект Курчатова,347380,47.5161630,42.2100201
17А,улица Гагарина,347380,47.5169173,42.2123339
40,бульвар Великой Победы,347360,47.5134227,42.1912441
22,Донской переулок,347360,47.5219707,42.1382351
48,проспект Курчатова,347360,47.5296447,42.2010712
48/15А,улица Карла Маркса,347360,47.5328070,42.2030738
13Б,Ленинградская улица,347360,47.5332707,42.2025359
50Г,проспект Курчатова,347360,47.5308813,42.1995611
50Б,проспект Курчатова,347360,47.5305386,42.2000512
50В,проспект Курчатова,347360,47.5307295,42.1998223
50Д,проспект Курчатова,347360,47.5311485,42.1995248
15,улица Максима Горького,347360,47.5221052,42.1373226
14А,переулок Маяковского,347360,47.5101135,42.1457635
2,переулок Маяковского,347360,47.5088945,42.1434826
1,Первомайский переулок,347360,47.5166503,42.1371444
1,Спортивный переулок,347360,47.5210414,42.1376217
1/12,улица Серафимовича,347360,47.5210336,42.1367710
10,улица Максима Горького,347360,47.5206711,42.1386219
10,Пионерская улица,347360,47.5188879,42.1372337
11,Первомайский переулок,347360,47.5174091,42.1382199
11,Спортивный переулок,347360,47.5201351,42.1389176
11,Пионерская улица,347360,47.5193958,42.1372668
11,улица Серафимовича,347360,47.5203333,42.1377799
12,переулок Халтурина,347360,47.5192901,42.1378375
12,улица Максима Горького,347360,47.5205208,42.1389130
12,Пионерская улица,347360,47.5187618,42.1374239
13,Спортивный переулок,347360,47.5199957,42.1391303
13,Пионерская улица,347360,47.5192252,42.1375288
13,улица Серафимовича,347360,47.5202183,42.1379509
14,Донской переулок,347360,47.5211422,42.1369552
14,улица Максима Горького,347360,47.5203473,42.1391284
14,Пионерская улица,347360,47.5186425,42.1376004
15,Спортивный переулок,347360,47.5198344,42.1393968
15,Пионерская улица,347360,47.5190652,42.1377444
15,улица Серафимовича,347360,47.5200412,42.1381881
16,Донской переулок,347360,47.5212616,42.1371344
16,переулок Халтурина,347360,47.5189723,42.1383170
16,улица Максима Горького,347360,47.5202028,42.1394149
16,Пионерская улица,347360,47.5185187,42.1378042
17,Первомайский переулок,347360,47.5176232,42.1385849
17,Спортивный переулок,347360,47.5196815,42.1396519
17,улица Максима Горького,347360,47.5215395,42.1380438
17,Пионерская улица,347360,47.5189015,42.1380009
18,Донской переулок,347360,47.5213751,42.1372955
18,улица Максима Горького,347360,47.5200053,42.1396303
18,Пионерская улица,347360,47.5184041,42.1379773
18,улица Серафимовича,347360,47.5195964,42.1382444
19,Спортивный переулок,347360,47.5195226,42.1399051
19,улица Максима Горького,347360,47.5214177,42.1382323
19,Пионерская улица,347360,47.5187209,42.1382626
2,переулок Халтурина,347360,47.5202284,42.1364593
2/20,улица Максима Горького,347360,47.5214913,42.1374668
20,переулок Халтурина,347360,47.5187014,42.1387069
20,улица Максима Горького,347360,47.5198234,42.1398556
20,Пионерская улица,347360,47.5182871,42.1381572
20,улица Серафимовича,347360,47.5194590,42.1384993
21,Спортивный переулок,347360,47.5193304,42.1401606
21,улица Максима Горького,347360,47.5212824,42.1384335
21,Пионерская улица,347360,47.5185594,42.1384932
21,улица Серафимовича,347360,47.5197243,42.1386527
22,переулок Халтурина,347360,47.5185046,42.1389759
22,улица Максима Горького,347360,47.5196694,42.1401224
22,Пионерская улица,347360,47.5181771,42.1383304
22,улица Серафимовича,347360,47.5193035,42.1386332
23,Первомайский переулок,347360,47.5181965,42.1393357
23,улица Максима Горького,347360,47.5211498,42.1385976
23,Пионерская улица,347360,47.5183805,42.1387741
23,улица Серафимовича,347360,47.5196644,42.1388494
24,улица Максима Горького,347360,47.5194817,42.1403824
24,Пионерская улица,347360,47.5180555,42.1385070
24,улица Серафимовича,347360,47.5191862,42.1388226
25,Первомайский переулок,347360,47.5182994,42.1395082
25,улица Максима Горького,347360,47.5210122,42.1387876
25,улица Серафимовича,347360,47.5195131,42.1390041
25/21,Пионерская улица,347360,47.5180693,42.1391565
26,Пионерская улица,347360,47.5179157,42.1386869
26,улица Серафимовича,347360,47.5190561,42.1390063
27,Первомайский переулок,347360,47.5184189,42.1396898
27,улица Максима Горького,347360,47.5208833,42.1389535
27,улица Серафимовича,347360,47.5194269,42.1391721
28,Волгодонская улица,347360,47.5220283,42.1387717
28,улица Серафимовича,347360,47.5189456,42.1391699
28/19,Пионерская улица,347360,47.5177964,42.1388907
29,улица Максима Горького,347360,47.5207490,42.1391725
29,улица Серафимовича,347360,47.5192982,42.1393581
2А,Пионерская улица,347360,47.5196072,42.1356422
3,Первомайский переулок,347360,47.5168124,42.1373701
3,Спортивный переулок,347360,47.5208461,42.1379234
3,Пионерская улица,347360,47.5200655,42.1362399
3,улица Серафимовича,347360,47.5208206,42.1370791
30,Волгодонская улица,347360,47.5218967,42.1389521
30,улица Серафимовича,347360,47.5188351,42.1392869
31,улица Максима Горького,347360,47.5206229,42.1393797
31,улица Серафимовича,347360,47.5191923,42.1395284
32,Волгодонская улица,347360,47.5217912,42.1391627
33,улица Максима Горького,347360,47.5204932,42.1396294
33,улица Серафимовича,347360,47.5190772,42.1397256
34,Волгодонская улица,347360,47.5216641,42.1393753
34,улица Серафимовича,347360,47.5186892,42.1395751
35,улица Максима Горького,347360,47.5203806,42.1397450
35,улица Серафимовича,347360,47.5189501,42.1398735
36,Волгодонская улица,347360,47.5215219,42.1395085
36,улица Серафимовича,347360,47.5186357,42.1397171
37,улица Максима Горького,347360,47.5202680,42.1399393
38,Волгодонская улица,347360,47.5214066,42.1397230
38/29,улица Серафимовича,347360,47.5185208,42.1398750
39,улица Максима Горького,347360,47.5201481,42.1401555
4,переулок Халтурина,347360,47.5200620,42.1366924
4,улица Максима Горького,347360,47.5212409,42.1378843
40,Волгодонская улица,347360,47.5212739,42.1398954
41,улица Максима Горького,347360,47.5200248,42.1403427
42,Волгодонская улица,347360,47.5211507,42.1401060
43,улица Максима Горького,347360,47.5198855,42.1405395
44,Волгодонская улица,347360,47.5210153,42.1402780
45,улица Максима Горького,347360,47.5197427,42.1407269
46,Волгодонская улица,347360,47.5208815,42.1404420
47/41,улица Максима Горького,347360,47.5194091,42.1411722
48,Волгодонская улица,347360,47.5207559,42.1406448
4Б,Пионерская улица,347360,47.5192625,42.1361018
5,Первомайский переулок,347360,47.5169648,42.1375909
5,Спортивный переулок,347360,47.5206709,42.1381555
5,Пионерская улица,347360,47.5198996,42.1365375
5,улица Серафимовича,347360,47.5206965,42.1372763
50,Волгодонская улица,347360,47.5206114,42.1408628
52,Волгодонская улица,347360,47.5204837,42.1410385
54,Волгодонская улица,347360,47.5203732,42.1411997
56,Волгодонская улица,347360,47.5202539,42.1413945
58/49,Волгодонская улица,347360,47.5198911,42.1419199
6,переулок Халтурина,347360,47.5198682,42.1369950
6,улица Максима Горького,347360,47.5210111,42.1382035
6,Пионерская улица,347360,47.5191741,42.1368633
7,Первомайский переулок,347360,47.5171140,42.1378166
7,Спортивный переулок,347360,47.5205228,42.1383933
7,Пионерская улица,347360,47.5197352,42.1367547
7,улица Серафимовича,347360,47.5205755,42.1374243
8,переулок Халтурина,347360,47.5196503,42.1373400
8,улица Максима Горького,347360,47.5208270,42.1384023
8,Пионерская улица,347360,47.5190255,42.1370402
9,Первомайский переулок,347360,47.5172567,42.1380087
9,Спортивный переулок,347360,47.5203370,42.1386277
9,Пионерская улица,347360,47.5195602,42.1370165
9,улица Серафимовича,347360,47.5204377,42.1376097
19,улица Серафимовича,347360,47.5198960,42.1384399
43,Первомайский переулок,347360,47.5195339,42.1413904
45,Первомайский переулок,347360,47.5196531,42.1415885
47,Первомайский переулок,347360,47.5197877,42.1417661
56А,Волгодонская улица,347360,47.5201062,42.1413441
24,Донской переулок,347360,47.5225973,42.1391453
26,Донской переулок,347360,47.5227440,42.1393919
35,Волгодонская улица,347360,47.5224348,42.1388926
37,Волгодонская улица,347360,47.5222920,42.1391871
38,Советская улица,347360,47.5228986,42.1395949
38А,Советская улица,347360,47.5227110,42.1397781
39,Волгодонская улица,347360,47.5221325,42.1394235
40,Советская улица,347360,47.5225834,42.1400085
41,Волгодонская улица,347360,47.5219369,42.1396658
42,Советская улица,347360,47.5224238,42.1401799
43,Волгодонская улица,347360,47.5218172,42.1398490
44,Советская улица,347360,47.5222801,42.1403985
45,Волгодонская улица,347360,47.5216735,42.1400203
46,Советская улица,347360,47.5221484,42.1405699
47,Волгодонская улица,347360,47.5215179,42.1402035
48,Советская улица,347360,47.5220127,42.1407649
49,Волгодонская улица,347360,47.5214262,42.1404871
50,Советская улица,347360,47.5219010,42.1409185
51,Волгодонская улица,347360,47.5212865,42.1406349
52,Советская улица,347360,47.5217533,42.1410721
53,Первомайский переулок,347360,47.5203367,42.1424844
53,Волгодонская улица,347360,47.5211748,42.1408240
54,Советская улица,347360,47.5216376,42.1413085
55,Первомайский переулок,347360,47.5204804,42.1426912
55,Волгодонская улица,347360,47.5210471,42.1410012
56,Советская улица,347360,47.5214740,42.1414681
57,Волгодонская улица,347360,47.5209353,42.1411667
58,Советская улица,347360,47.5213703,42.1417458
59,Волгодонская улица,347360,47.5208116,42.1413321
60,Советская улица,347360,47.5211907,42.1419408
61,Волгодонская улица,347360,47.5206959,42.1415153
62,Советская улица,347360,47.5210710,42.1421476
63,Волгодонская улица,347360,47.5205761,42.1417162
64,Советская улица,347360,47.5209193,42.1422953
65,Волгодонская улица,347360,47.5204365,42.1419230
66,Советская улица,347360,47.5208395,42.1425612
68/57,Советская улица,347360,47.5206001,42.1429099
9,Донской переулок,347360,47.5229454,42.1387488
33Г,Волгодонская улица,347360,47.5227546,42.1383932
19,Степная улица,347360,47.5153312,42.1391340
1,Степная улица,347360,47.5163421,42.1375161
10,переулок Водников,347360,47.5163103,42.1389750
11,Степная улица,347360,47.5158414,42.1383213
12,переулок Водников,347360,47.5162334,42.1390861
13,Степная улица,347360,47.5157207,42.1385297
14,переулок Водников,347360,47.5160798,42.1392046
15,Степная улица,347360,47.5156522,42.1386384
16,переулок Водников,347360,47.5160263,42.1393480
17,Степная улица,347360,47.5155469,42.1388326
18,переулок Водников,347360,47.5159352,42.1394756
2,переулок Водников,347360,47.5167536,42.1383484
3,Степная улица,347360,47.5161945,42.1377648
4,переулок Водников,347360,47.5166673,42.1384507
4,Первомайский переулок,347360,47.5166736,42.1379349
5,Степная улица,347360,47.5160909,42.1379556
6,переулок Водников,347360,47.5165064,42.1386640
6,Первомайский переулок,347360,47.5168869,42.1381449
7,Степная улица,347360,47.5160141,42.1380774
8,переулок Водников,347360,47.5164238,42.1387834
9,Степная улица,347360,47.5159056,42.1382261
2,Космический переулок,347360,47.5101641,42.1343660
4,Космический переулок,347360,47.5099857,42.1345874
6,Космический переулок,347360,47.5098137,42.1348547
8,Космический переулок,347360,47.5096259,42.1351215
1,Солнечная улица,347360,47.5115168,42.1473316
14,Мирный переулок,347360,47.5089337,42.1509724
1А,Солнечная улица,347360,47.5112398,42.1473038
1Б,Солнечная улица,347360,47.5111259,42.1474834
30,Вокзальный переулок,347360,47.5107316,42.1520304
24,переулок Сергея Лазо,347360,47.5084736,42.1543616
26,переулок Сергея Лазо,347360,47.5085495,42.1544719
40,Вокзальный переулок,347360,47.5117689,42.1535785
42,Вокзальный переулок,347360,47.5118981,42.1537791
42А,Вокзальный переулок,347360,47.5120248,42.1539906
52А,Вокзальный переулок,347360,47.5131147,42.1555337
102,Советская улица,347360,47.5119765,42.1556692
13,переулок Козлова,347360,47.5073608,42.1533550
63,переулок Козлова,347360,47.5112928,42.1591916
71,переулок Фрунзе,347360,47.5104503,42.1620600
61,переулок Фрунзе,347360,47.5097579,42.1610460
113/55,Советская улица,347360,47.5093210,42.1603944
29,переулок Павлова,347360,47.5076197,42.1565604
12,переулок Фрунзе,347360,47.5055925,42.1557357
170/35,улица Максима Горького,347360,47.5076363,42.1579380
33,переулок Фрунзе,347360,47.5074884,42.1576782
27 СТРОЕН 2,переулок Дзержинского,347360,47.5066228,42.1578382
29,переулок Дзержинского,347360,47.5067531,42.1579293
13,Партизанский переулок,347360,47.5168779,42.1871228
6,Ноябрьский переулок,347360,47.5186792,42.1858166
7Б,Партизанский переулок,347360,47.5172261,42.1857704
14Б,Ноябрьский переулок,347360,47.5188295,42.1890457
20А,улица Шолохова,347360,47.5174524,42.1878361
76А,Главная улица,347360,47.5177697,42.1894592
78А,Главная улица,347360,47.5176849,42.1891981
26,Ноябрьский переулок,347360,47.5189732,42.1919965
28,Ноябрьский переулок,347360,47.5189728,42.1922634
79,Главная улица,347360,47.5183963,42.1901134
81,Главная улица,347360,47.5181513,42.1900149
85,Главная улица,347360,47.5177347,42.1900428
87,Главная улица,347360,47.5175650,42.1899774
32А,Приморский переулок,347360,47.5196509,42.1851783
11А,Ноябрьский переулок,347360,47.5193979,42.1882349
2,Вишнёвый переулок,347360,47.5195376,42.1871736
4,Вишнёвый переулок,347360,47.5195843,42.1874694
6,Вишнёвый переулок,347360,47.5195758,42.1877322
7,Ноябрьский переулок,347360,47.5192322,42.1874403
7Б,Ноябрьский переулок,347360,47.5192397,42.1871553
8,Вишнёвый переулок,347360,47.5196513,42.1880204
9А,Ноябрьский переулок,347360,47.5193317,42.1880127
9Б,Ноябрьский переулок,347360,47.5192799,42.1877329
1,улица Шолохова,347360,47.5217575,42.1880699
10,улица Шолохова,347360,47.5205863,42.1879457
10А,улица Шолохова,347360,47.5203597,42.1880094
11,улица Шолохова,347360,47.5206285,42.1885010
12,улица Шолохова,347360,47.5199856,42.1881451
13,улица Шолохова,347360,47.5204564,42.1885709
13А,улица Шолохова,347360,47.5202966,42.1885867
15,улица Шолохова,347360,47.5200411,42.1886091
2,улица Шолохова,347360,47.5216657,42.1875587
3,улица Шолохова,347360,47.5214938,42.1882054
4,улица Шолохова,347360,47.5213432,42.1876537
5,Вишнёвый переулок,347360,47.5199531,42.1878021
5,улица Шолохова,347360,47.5212191,42.1883476
51,улица Ветеранов,347360,47.5211186,42.1867484
51/10,улица Ветеранов,347360,47.5213285,42.1866394
53,улица Ветеранов,347360,47.5209739,42.1868890
55,улица Ветеранов,347360,47.5208565,42.1868616
57,улица Ветеранов,347360,47.5207593,42.1869920
59,улица Ветеранов,347360,47.5205827,42.1871143
6,улица Шолохова,347360,47.5210555,42.1877275
61,улица Ветеранов,347360,47.5203307,42.1871237
61/7,улица Ветеранов,347360,47.5199573,42.1871814
61А,улица Ветеранов,347360,47.5199423,42.1875905
63,улица Ветеранов,347360,47.5201832,42.1871683
7,улица Шолохова,347360,47.5209059,42.1884668
7А,улица Шолохова,347360,47.5210392,42.1884040
8,улица Шолохова,347360,47.5208195,42.1878119
9,улица Шолохова,347360,47.5207442,42.1885030
58,Главная улица,347360,47.5217611,42.1889841
56,Главная улица,347360,47.5220336,42.1888632
70А,Главная улица,347360,47.5202067,42.1896682
70,Главная улица,347360,47.5200688,42.1896988
64А,Главная улица,347360,47.5210356,42.1894114
68,Главная улица,347360,47.5204152,42.1895798
64,Главная улица,347360,47.5209049,42.1894550
1,улица Платова,347360,47.5203412,42.1906441
17,улица Платова,347360,47.5220803,42.1904816
19,улица Платова,347360,47.5219125,42.1908354
23,улица Платова,347360,47.5222507,42.1913105
35,улица Платова,347360,47.5202365,42.1919388
43,улица Платова,347360,47.5196551,42.1915107
59/18,Главная улица,347360,47.5222079,42.1893551
63,Главная улица,347360,47.5217961,42.1895854
65,Главная улица,347360,47.5212040,42.1899301
67,Главная улица,347360,47.5210139,42.1900068
69,Главная улица,347360,47.5205329,42.1901375
75,Главная улица,347360,47.5196591,42.1902910
66/26,1-я улица Черникова,347360,47.5227788,42.1915222
24,Озёрный переулок,347360,47.5226914,42.1912085
22,Озёрный переулок,347360,47.5225796,42.1907475
68,1-я улица Черникова,347360,47.5222693,42.1918649
74,1-я улица Черникова,347360,47.5214944,42.1922218
78,1-я улица Черникова,347360,47.5207427,42.1924765
80,1-я улица Черникова,347360,47.5205129,42.1925112
80А,1-я улица Черникова,347360,47.5203154,42.1924914
84,1-я улица Черникова,347360,47.5198269,42.1926270
41А,1-я улица Черникова,347360,47.5207204,42.1935431
27А,1-я улица Черникова,347360,47.5225408,42.1923646
29,1-я улица Черникова,347360,47.5220866,42.1925221
29А,1-я улица Черникова,347360,47.5221869,42.1923990
3,Яблоневый переулок,347360,47.5220697,42.1933570
31,1-я улица Черникова,347360,47.5218939,42.1925640
5,Яблоневый переулок,347360,47.5221143,42.1935644
7А,Яблоневый переулок,347360,47.5221647,42.1937752
1Б,Озёрный переулок,347360,47.5210170,42.1834236
2А,переулок Пупкова,347360,47.5224909,42.1833260
1Д,Озёрный переулок,347360,47.5210838,42.1840574
41,Набережная улица,347360,47.5221882,42.1833658
45,Набережная улица,347360,47.5214419,42.1837663
39,Набережная улица,347360,47.5224371,42.1830225
31Б с1,проспект Мира,347383,47.5283278,42.2188625
31Б с2,проспект Мира,347383,47.5285315,42.2192625
15Б,улица Гагарина,347380,47.5157766,42.2112793
15А,Ленинградская улица,347360,47.5331223,42.2032543
15В,Ленинградская улица,347360,47.5333053,42.2035769
15Г,Ленинградская улица,347360,47.5334707,42.2038780
15Д,Ленинградская улица,347360,47.5336734,42.2042433
15Е,Ленинградская улица,347360,47.5334737,42.2045089
22,улица Гагарина,347360,47.5147915,42.2122840
16,улица Маршала Кошевого,347380,47.5213354,42.2114628
28,Индустриальная улица,347360,47.5302136,42.2310522
91,улица Гагарина,347360,47.5311595,42.2337537
1,Раздорский переулок,347380,47.5173468,42.2185887
4,Мелиховский переулок,347380,47.5177567,42.2186015
6,Мелиховский переулок,347380,47.5178864,42.2188866
12,Удачный переулок,347386,47.5177475,42.2289834
14/39,Удачный переулок,347386,47.5176022,42.2292108
17В,улица Гагарина,347380,47.5173038,42.2116387
17Б,улица Гагарина,347380,47.5168458,42.2116846
12А,улица Дружбы,347380,47.5195688,42.2139889
56,улица Карла Маркса,347360,47.5359595,42.2013834
56,улица Карла Маркса,347360,47.5360029,42.2014625
56,улица Карла Маркса,347360,47.5360455,42.2015382
56,улица Карла Маркса,347360,47.5360766,42.2016718
56,улица Карла Маркса,347360,47.5360066,42.2017851
56,улица Карла Маркса,347360,47.5359617,42.2018332
56,улица Карла Маркса,347360,47.5357552,42.2010050
16,Степная улица,347360,47.5074254,42.1472587
1В,улица Черникова,347382,47.5229075,42.2021515
2,Шмутовой переулок,347360,47.5259270,42.1810294
1А,Шмутовой переулок,347360,47.5261709,42.1807099
91,улица Гагарина,347360,47.5310251,42.2335654
36А,Октябрьское шоссе,347360,47.5240749,42.2340945
36,Октябрьское шоссе,347360,47.5245930,42.2348451
3/191,Индустриальная улица,347360,47.5241520,42.2358707
49,проспект Курчатова,347360,47.5263009,42.2020601
41А,улица Энтузиастов,347360,47.5276025,42.1936928
2,Мелиховский переулок,347380,47.5176034,42.2183476
10,проспект Мира,347360,47.5253915,42.2273134
9Б,Ленинградская улица,347375,47.5293865,42.1968649
9В,Ленинградская улица,347375,47.5295539,42.1978405
33А,проспект Курчатова,347375,47.5262386,42.2027806
19,проспект Мира,347360,47.5258961,42.2236963
5,Штурвальная улица,347389,47.5460071,42.2030997
7,Штурвальная улица,347389,47.5461475,42.2029276
9,Штурвальная улица,347389,47.5462591,42.2027416
11А,Штурвальная улица,347389,47.5464237,42.2025568
15,Штурвальная улица,347389,47.5466897,42.2022573
17/26 с1,Штурвальная улица,347389,47.5467800,42.2020520
23,Штурвальная улица,347389,47.5473747,42.2014308
29 с1,Невская улица,347389,47.5471356,42.1996289
31 с1,Невская улица,347389,47.5472720,42.1994649
18,Молодёжная улица,347382,47.5135321,42.2038504
22Б,улица Гагарина,347360,47.5154402,42.2132372
9Г,Ленинградская улица,347375,47.5300428,42.1983046
55Б,проспект Курчатова,347375,47.5295031,42.1990768
22А,проспект Курчатова,347380,47.5207749,42.2069019
2А,Западный переулок,347371,47.5114808,42.1950513
8,Мелиховский переулок,347380,47.5180546,42.2191541
7,Раздорский переулок,347380,47.5178054,42.2194043
8А,проспект Курчатова,347380,47.5168517,42.2107960
9,Ленинградская улица,347375,47.5299317,42.1973459
24Б,Волгодонская улица,347360,47.5226181,42.1375661
12А,Весенняя улица,347360,47.5064304,42.1964344
25,проспект Строителей,347360,47.5181700,42.1999179
9,Раздорский переулок,347380,47.5179848,42.2195993
5,Раздорский переулок,347380,47.5176893,42.2191560
24,Штурвальная улица,347389,47.5474054,42.2020508
2/35,Штурвальная улица,347389,47.5468381,42.2028025
10,Мелиховский переулок,347380,47.5181628,42.2193950
2М,проспект Строителей,347371,47.5107720,42.1895501
29,Морская улица,347360,47.5172851,42.1592404
34А,Крымская улица,347389,47.5472583,42.1990255
34,Крымская улица,347389,47.5472085,42.1990847
29 с2,Невская улица,347389,47.5470837,42.1996907
31 с2,Невская улица,347389,47.5472202,42.1995267
19/15,Крымская улица,347389,47.5460343,42.1998783
19/15 с1,Крымская улица,347389,47.5459819,42.1997823
23Г с3,Ленинградская улица,347387,47.5368354,42.2084699
23В с3,Ленинградская улица,347387,47.5366476,42.2080842
3 с3,Лозновский переулок,347387,47.5361918,42.2079574
23Г с1,Ленинградская улица,347387,47.5367222,42.2082597
23А,Ленинградская улица,347387,47.5363264,42.2074776
13,Лозновский переулок,347387,47.5366217,42.2087513
17,Лозновский переулок,347387,47.5367997,42.2091578
23К с1,Ленинградская улица,347387,47.5370971,42.2088550
23Б,Ленинградская улица,347387,47.5364497,42.2076814
23/2,Ленинградская улица,347387,47.5361588,42.2073448
23/1,Ленинградская улица,347387,47.5362228,42.2072691
23В с1,Ленинградская улица,347387,47.5365259,42.2078654
17 с1,Лозновский переулок,347387,47.5368846,42.2090652
23Г с2,Ленинградская улица,347387,47.5367775,42.2083624
23В с2,Ленинградская улица,347387,47.5365954,42.2079887
3 с1,Лозновский переулок,347387,47.5360728,42.2077468
23К с2,Ленинградская улица,347387,47.5370283,42.2089375
15,Лозновский переулок,347387,47.5367059,42.2089304
3 с2,Лозновский переулок,347387,47.5361423,42.2078692
7,Лозновский переулок,347387,47.5362910,42.2081668
23И,Ленинградская улица,347387,47.5369561,42.2086306
1,переулок Маяковского,347360,47.5072621,42.1386245
3,Раздорский переулок,347380,47.5174419,42.2188108
8,Портовая улица,347360,47.5360116,42.1480675
14Б,проспект Курчатова,347380,47.5180602,42.2093035
4А,улица Маршала Кошевого,347380,47.5181787,42.2094764
6А,улица Маршала Кошевого,347380,47.5184165,42.2097925
21А,улица Гагарина,347380,47.5182894,42.2113392
36,бульвар Роз,347386,47.5175642,42.2280346
32 с1,бульвар Роз,347386,47.5173370,42.2275006
32 с2,бульвар Роз,347386,47.5173724,42.2275638
38 с1,бульвар Роз,347386,47.5176303,42.2281417
38 с2,бульвар Роз,347386,47.5176831,42.2282363
40 с1,бульвар Роз,347386,47.5177402,42.2283395
40 с2,бульвар Роз,347386,47.5177946,42.2284360
10,Удачный переулок,347386,47.5178525,42.2285406
10 с2,Удачный переулок,347386,47.5178947,42.2288155
53c2,Удачный переулок,347386,47.5184558,42.2293811
53c1,Удачный переулок,347386,47.5183928,42.2292743
39c1,Удачный переулок,347386,47.5182389,42.2289765
39c2,Удачный переулок,347386,47.5183024,42.2290978
41c1,Удачный переулок,347386,47.5181541,42.2291831
41,Удачный переулок,347386,47.5180957,42.2292729
41c1,Удачный переулок,347386,47.5179907,42.2293627
43c2,Удачный переулок,347386,47.5179227,42.2294539
47c1,Удачный переулок,347386,47.5179575,42.2298203
47c2,Удачный переулок,347386,47.5180239,42.2299323
51c1,Удачный переулок,347386,47.5183020,42.2294462
51c2,Удачный переулок,347386,47.5182470,42.2295367
49c2,Удачный переулок,347386,47.5181502,42.2296348
49c2,Удачный переулок,347386,47.5180824,42.2297365
45c2,Удачный переулок,347386,47.5178471,42.2297208
45c1,Удачный переулок,347386,47.5177729,42.2295787
10А,улица Маршала Кошевого,347380,47.5189803,42.2105230
19Б,улица Гагарина,347380,47.5170489,42.2126904
6Бс2,Сельская улица,347375,47.5319871,42.1794785
6Бс1,Сельская улица,347375,47.5319063,42.1795367
56А с2,Весенняя улица,347371,47.5134318,42.1860805
59,проспект Курчатова,347375,47.5291193,42.1973399
2,Окружная улица,347360,47.5253905,42.1332430
11,Штурвальная улица,347389,47.5463785,42.2026106
17/26 с2,Штурвальная улица,347389,47.5468401,42.2021630
19/25 с1,Штурвальная улица,347389,47.5470509,42.2017452
19/25,Штурвальная улица,347389,47.5471005,42.2018399
21,Штурвальная улица,347389,47.5472761,42.2016373
25,Штурвальная улица,347389,47.5475112,42.2012891
31,Штурвальная улица,347389,47.5478770,42.2007275
36,Штурвальная улица,347389,47.5481614,42.2011355
34,Штурвальная улица,347389,47.5480252,42.2012808
32,Штурвальная улица,347389,47.5479205,42.2014498
30,Штурвальная улица,347389,47.5477427,42.2016317
4/27,Штурвальная улица,347389,47.5476387,42.2017402
26,Штурвальная улица,347389,47.5475125,42.2019035
22,Штурвальная улица,347389,47.5473107,42.2021997
14,Штурвальная улица,347389,47.5467314,42.2029283
18,Штурвальная улица,347389,47.5469034,42.2026302
20,Штурвальная улица,347389,47.5470248,42.2024795
116,улица Ленина,347360,47.5073590,42.1669402
10,улица Энтузиастов,347382,47.5144441,42.2020083
55,проспект Курчатова,347360,47.5287152,42.1991124
5,Ленинградская улица,347360,47.5280729,42.1964715
24,улица Гагарина,347360,47.5148034,42.2142365
22,улица Карла Маркса,347360,47.5274663,42.2100272
3,улица Академика Королёва,347360,47.5297431,42.2075247
15,улица Гагарина,347380,47.5165280,42.2111604
27,улица Маршала Кошевого,347360,47.5280549,42.2200512
136/5,Пионерская улица,347374,47.5058255,42.1564532
39,проспект Мира,347360,47.5284513,42.2155200
