House number,Street name,Postal code,Latitude,Longitude
1,Strada Negru Vodă,115300,45.1420330,24.6755310
8,Strada Locotenent Victor Ștefănescu,115300,45.1437670,24.6749630
1,Bulevardul Basarabilor,115300,45.1569470,24.6766540
121,Bulevardul Basarabilor,115300,45.1428916,24.6761636
Bl. A1,Bulevardul Basarabilor,115300,45.1504419,24.6758448
Bl. A1,Bulevardul Basarabilor,115300,45.1501612,24.6759675
7,Strada 1 Mai,115300,45.1348593,24.6724952
25,Bulevardul Basarabilor,115300,45.1526847,24.6758128
59,Bulevardul Basarabilor,115300,45.1487801,24.6763769
99,Bulevardul Basarabilor,115300,45.1484029,24.6772899
17,Bulevardul Basarabilor,115300,45.1546084,24.6763509
17,Bulevardul Basarabilor,115300,45.1550937,24.6762542
20,Strada Negru Vodă,115300,45.1392011,24.6749858
9A,Bulevardul 1 Decembrie 1918,115300,45.1517041,24.6735579
3,Strada Plopiș,115300,45.1412021,24.6787414
3,Strada Plopiș,115300,45.1410623,24.6786932
102,Strada Negru Vodă,115300,45.1319044,24.6749085
21A,Strada Eroilor,115300,45.1592679,24.6718971
21,Strada Eroilor,115300,45.1591412,24.6719185
43,Strada Eroilor,115300,45.1576735,24.6721278
23B,Strada Eroilor,115300,45.1588726,24.6719802
29,Strada Eroilor,115300,45.1575500,24.6725894
37,Strada Eroilor,115300,45.1581350,24.6719963
45,Strada Eroilor,115300,45.1572896,24.6725033
27,Strada Eroilor,115300,45.1585621,24.6719904
41,Strada Eroilor,115300,45.1578490,24.6720736
47,Strada Eroilor,115300,45.1570739,24.6727849
39,Strada Eroilor,115300,45.1580045,24.6720178
31,Strada Eroilor,115300,45.1582863,24.6720017
25,Strada Eroilor,115300,45.1587213,24.6719829
23,Strada Eroilor,115300,45.1589559,24.6719668
34,Strada Eroilor,115300,45.1584415,24.6717898
30,Strada Eroilor,115300,45.1591997,24.6717230
32A,Strada Eroilor,115300,45.1588160,24.6717630
38,Strada Eroilor,115300,45.1581062,24.6718241
32B,Strada Eroilor,115300,45.1586949,24.6717710
32,Strada Eroilor,115300,45.1589615,24.6717496
36,Strada Eroilor,115300,45.1582448,24.6717898
18,Strada Eroilor,115300,45.1600471,24.6715108
10,Strada Eroilor,115300,45.1607204,24.6714518
20,Strada Eroilor,115300,45.1598806,24.6715350
28,Strada Eroilor,115300,45.1594136,24.6716560
22,Strada Eroilor,115300,45.1597692,24.6715645
17,Strada Eroilor,115300,45.1600886,24.6716745
15,Strada Eroilor,115300,45.1602418,24.6716557
11,Strada Eroilor,115300,45.1606257,24.6716128
24,Strada Eroilor,115300,45.1596329,24.6715967
12,Strada Eroilor,115300,45.1605217,24.6714384
16,Strada Eroilor,115300,45.1601888,24.6714813
13,Strada Eroilor,115300,45.1604196,24.6716342
19,Strada Eroilor,115300,45.1597540,24.6717522
2,Strada Valea Iașiului,115300,45.1620385,24.6719963
1,Strada Valea Iașiului,115300,45.1617926,24.6719293
4,Strada Valea Iașiului,115300,45.1623185,24.6721385
153,Strada Negru Vodă,115300,45.1318473,24.6758071
153,Strada Negru Vodă,115300,45.1323423,24.6758113
151,Strada Negru Vodă,115300,45.1320484,24.6758276
161,Strada Negru Vodă,115300,45.1316573,24.6758030
17,Strada Ștefan cel Mare,115300,45.1325446,24.6746504
21,Strada Ștefan cel Mare,115300,45.1324887,24.6749590
23,Strada Ștefan cel Mare,115300,45.1324736,24.6751210
6,Strada Ștefan cel Mare,115300,45.1324861,24.6744116
19,Strada Ștefan cel Mare,115300,45.1324974,24.6748233
28,Strada Negru Vodă,115300,45.1389304,24.6752150
24,Strada Negru Vodă,115300,45.1390534,24.6752403
16,Strada Negru Vodă,115300,45.1393922,24.6753262
18,Strada Negru Vodă,115300,45.1392919,24.6752967
20,Strada Negru Vodă,115300,45.1391811,24.6753101
26,Strada Negru Vodă,115300,45.1390061,24.6752283
30,Strada Negru Vodă,115300,45.1388302,24.6751935
22,Strada Negru Vodă,115300,45.1391120,24.6752538
2,Strada Albești,115300,45.1745060,24.6696455
Bl. A1,Bulevardul Basarabilor,115300,45.1502244,24.6759278
59,Bulevardul Basarabilor,115300,45.1487531,24.6766475
15,Bulevardul Basarabilor,115300,45.1555767,24.6764189
99,Bulevardul Basarabilor,115300,45.1448634,24.6765182
Sc. A Ap. 1-15,Strada Cuza Vodă,115300,45.1504983,24.6801436
2,Strada Negru Vodă,115300,45.1412185,24.6755838
131,Strada Cuza Vodă,115300,45.1490286,24.6797859
15,Strada Valea Iașului,115300,45.1642549,24.6728827
25,Strada Valea Iașului,115300,45.1651076,24.6734251
3A,Strada Albești,115300,45.1735142,24.6702018
11A,Strada Albești,115300,45.1701328,24.6705518
19,Strada Valea Iașului,115300,45.1646087,24.6731130
17,Strada Valea Iașului,115300,45.1644595,24.6729653
11,Strada Albești,115300,45.1702725,24.6705132
27,Strada Valea Iașului,115300,45.1652481,24.6734693
23,Strada Valea Iașului,115300,45.1649016,24.6733182
15,Bulevardul Basarabilor,115300,45.1556321,24.6757013
5,Strada Negru Vodă,115300,45.1314140,24.6751615
27-29,Bulevardul Basarabilor,115300,45.1521940,24.6759994
26,Strada Lascăr Catargiu,115300,45.1409947,24.6729124
21,Bulevardul Basarabilor,115300,45.1535083,24.6769820
25,Bulevardul Basarabilor,115300,45.1526942,24.6759295
99,Bulevardul Basarabilor,115300,45.1483939,24.6772894
6-8,Strada Cuza Vodă,115300,45.1490935,24.6787793
7,Strada 1 Mai,115300,45.1346539,24.6725536
82-84,Bulevardul Basarabilor,115300,45.1455332,24.6754241
7,Strada Elena Cuza,115300,45.1521065,24.6796674
47,Bulevardul Basarabilor,115300,45.1509397,24.6760134
2,Strada Posada,115300,45.1526643,24.6784770
8,Strada Posada,115300,45.1525389,24.6790001
10,Strada Posada,115300,45.1523020,24.6790411
35,Bulevardul Basarabilor,115300,45.1515074,24.6766151
50,Strada Eroilor,115300,45.1553273,24.6747490
46,Strada Eroilor,115300,45.1550900,24.6748736
Bloc A13,Strada Elena Cuza,115300,45.1510158,24.6795533
13,Strada Valea Iașiului,115300,45.1640618,24.6727149
3-5,Strada Forestieri,115300,45.1676040,24.6717133
5,Strada Duzilor,115300,45.1704904,24.6710616
73C,Strada Valea Iașului,115300,45.1721499,24.6784583
11,Strada Duzilor,115300,45.1705628,24.6719510
43,Strada Vasile Lupu,115300,45.1719099,24.6774122
37,Strada Vasile Lupu,115300,45.1718821,24.6768812
53,Strada Valea Iașului,115300,45.1684083,24.6755165
73N,Strada Valea Iașului,115300,45.1734211,24.6799992
23,Strada Vasile Lupu,115300,45.1719390,24.6751518
41,Strada Vasile Lupu,115300,45.1718743,24.6772063
5,Strada Armoniei,115300,45.1718252,24.6725582
33,Strada Vasile Lupu,115300,45.1718728,24.6766248
27,Strada Vasile Lupu,115300,45.1718594,24.6757379
3,Strada Armoniei,115300,45.1718244,24.6723047
9,Strada Duzilor,115300,45.1705569,24.6716815
112A,Strada Valea Iașului,115300,45.1682600,24.6764153
3,Strada Duzilor,115300,45.1704440,24.6706480
3A,Strada Armoniei,115300,45.1725827,24.6722534
1,Strada Crinului,115300,45.1684984,24.6708184
17,Strada Vasile Lupu,115300,45.1721337,24.6745551
29,Strada Vasile Lupu,115300,45.1719729,24.6759322
3,Strada Crinului,115300,45.1685239,24.6710035
21,Strada Valea Iașului,115300,45.1647315,24.6731110
47B,Strada Valea Iașului,115300,45.1679165,24.6752333
47,Strada Valea Iașului,115300,45.1677706,24.6751049
59,Strada Valea Iașului,115300,45.1691318,24.6761033
67,Strada Valea Iașului,115300,45.1698876,24.6764444
69,Strada Valea Iașiului,115300,45.1700340,24.6763851
71,Strada Valea Iașului,115300,45.1702307,24.6767085
57,Strada Valea Iașului,115300,45.1689894,24.6759038
71D,Strada Valea Iașului,115300,45.1708548,24.6771017
31,Strada Vasile Lupu,115300,45.1719150,24.6763202
4,Strada Crinului,115300,45.1683857,24.6713732
7,Strada Crinului,115300,45.1685746,24.6713577
6,Strada Crinului,115300,45.1683552,24.6712449
71B,Strada Valea Iașului,115300,45.1705385,24.6767210
71A,Strada Valea Iașului,115300,45.1703328,24.6767864
71C,Strada Valea Iașului,115300,45.1707219,24.6767816
3B,Strada Albești,115300,45.1738049,24.6703257
5,Strada Crinului,115300,45.1685721,24.6712064
7,Strada Duzilor,115300,45.1704950,24.6712935
25,Strada Vasile Lupu,115300,45.1718542,24.6754422
65A,Strada Valea Iașiului,115300,45.1699580,24.6754948
65B,Strada Valea Iașiului,115300,45.1699278,24.6751362
65C,Strada Valea Iașiului,115300,45.1698962,24.6747701
65D,Strada Valea Iașiului,115300,45.1698629,24.6744072
63,Strada Valea Iașului,115300,45.1696362,24.6762609
71E,Strada Valea Iașului,115300,45.1709800,24.6772066
23,Bulevardul Basarabilor,115300,45.1530367,24.6760537
