House number,Street name,Postal code,Latitude,Longitude
31,Uttar Marg,160001,30.7590932,76.8074040
"DLF City Centre Mall, 2nd floor, Plot No-22/23",I.T Park,160101,30.7288143,76.8455915
269,Sector 45A,160047,30.7111158,76.7626526
846,"Site 846, Sector 38",160014,30.7478631,76.7489881
SCO 128-129,Sector 34-A,160022,30.7220326,76.7690422
"SCO 93, Basement, Sector 34A",Himalaya Marg,160022,30.7231919,76.7682737
"SCO 11-A, Sector 7-C",Madhya Marg,160019,30.7330933,76.7980135
"SCO139-141 (GF,FF)",Sector 17C,160017,30.7392391,76.7843711
SCO 115,Mentors Academy Sector 34/ A chandigarh,160022,30.7225745,76.7686346
3025-D,Dakshin Marg,160022,30.7316939,76.7648378
581,SECTOR 20,160020,30.7259566,76.7832637
"SCO-28, Level -2",Sector-20-D,160020,30.7195462,76.7771265
765,Industrial Area phase 2 #765,16002,30.6948328,76.7835809
1441,Sector 42-B,160036,30.7247595,76.7470763
6,Madhya Marg,160101,30.7194757,76.8096396
62/2,IT Park Road Manimajra,160101,30.7222843,76.8250790
"SCO 149-150, sector 9C",Madhya Marg,160009,30.7415669,76.7906008
178-178A,Purv Marg,160002,30.7040739,76.8015804
S.C.O. 82,Sector 47 D,160047,30.6960462,76.7682631
Booth no. 101,Madhya Marg,160009,30.7433558,76.7899506
"SCO 54-55-56, 3rd & 4th Floor Sector - 17 A",Jan Marg,160017,30.7438912,76.7840603
"SCF 461,","Motor Market, Sector 13,",160101,30.7141478,76.8470184
sco no. 80-81-82  sector 34A,Piccadily Backside Road,160022,30.7235381,76.7688377
Plot No. 3,Industrial Area Phase i,160002,30.7054927,76.8031050
Plot No. 397,Industrial Area Phase II,160002,30.6979155,76.7838495
SCO 97,SECTOR 40C,160036,30.7360567,76.7355412
1117,Pushpac Housing Society,160047,30.6957344,76.7565332
"SCO-226-227, 4th Floor","Dakshin Marg, Sector 34A, Near Pathania Petrol Pump, Above Virdi Eye Hospital",160022,30.7198803,76.7686225
"SCO 90, Madhya Marg","Above Allahabad Bank, Sector 8C",160008,30.7383224,76.7938546
"S.C.O. 2 , sector -22'd'",Jan Marg,160022,30.7342582,76.7698932
"SCO 4 , sector-22 d",Jan Marg,160022,30.7342768,76.7699207
Shop-cum-flat no. 1,Jan Marg,160022,30.7342414,76.7698518
"SCO 5-6, sector-22 D",Jan Marg,160022,30.7342876,76.7699386
"Chandigarh Rd, Behind St. Xavier's Senior Secondary School, 44C, Sector 44, Chandigarh, 160044",Sarovar Path,160044,30.7097395,76.7515713
"sco 3, sector-22 d",Jan Marg,160022,30.7342700,76.7699107
"PPRJ+F2Q, Sec, 39C, Sector 39, Chandigarh, 160036",Pashchim Marg,160036,30.7408291,76.7298636
"PQM6+MF Hare Krishna dham, ISKCON Temple, Dakshin Marg, 36B, Sector-36B",Dakshin Marg,160036,30.7343478,76.7607789
"PQM8+9V4, CMC Rd, Sector 22D, Sector 22, Chandigarh, 160022",CMC road,160022,30.7335650,76.7673159
"1590, Paschim Marg, Sector 38 W Rd, Sector 38 West, Sector 38, Chandigarh, 160038",Pashchim Marg,160014,30.7458218,76.7387587
"Ground Floor, SCO No 2470, nearby JW Marriott Hotel, Sector 22C, Sector 22, Chandigarh, 160022",Himalaya Marg,160022,30.7274359,76.7692968
"S.C.O 3037-3038,Opp Kisan Bhawan, Sector 22 D, Chandigarh, 160022",Dakshin Marg,160022,30.7321561,76.7642714
near 3887 sector 22d,cmc road,160022,30.7335766,76.7689343
"1st &2nd Floor, SCO - 3039/3040, near Hotel samrat, opp. Kisan Bhawan Chowk, Sector 22D, Sector 22, Chandigarh, 160022",Dakshin Marg,160022,30.7322038,76.7642159
"SCO 2473-74, Sector 22C, Sector 22, Chandigarh, 160020",Himalaya Marg,160020,30.7273262,76.7691243
"SCO 3041, 3042, Dakshin Marg, opp. Kisan Bhawan, Sector 22D, Sector 22, Chandigarh, 160022",Dakshin Marg,160022,30.7323012,76.7642424
"PQ3H+43R, Beside Kendriya Vidyalaya, 31D, Sector 31, Chandigarh, 160030",Chandi Path,160030,30.7030012,76.7778504
"SCO-2480, Sector 22C, Sector 22, Chandigarh, 160022",Himalaya Marg,160022,30.7272650,76.7689129
"SCO-3035, Sector 22D, Sector 22, Chandigarh, 160022",Dakshin Marg,160022,30.7321588,76.7643417
"Himalaya Marg, Sector 22C, Sector 22, Chandigarh, 160022",Himalaya Marg,160022,30.7302606,76.7734754
"S.C.O. 2903-04, 2nd Floor, Dakshin Marg, Sector 22C, Sector 22, Chandigarh, 160022",Himalaya Marg,160022,30.7272660,76.7684008
"SCO-2475-76, GROUND FLOOR, Sector 22C, Chandigarh, 160022",Himalaya Marg,160022,30.7272740,76.7690308
"PQJF+3C7, Hotel Aroma Complex, Himalaya Marg, Sector 22C, Sector 22, Chandigarh, 160022",Himalaya Marg,160022,30.7302106,76.7735059
"Aroma Complex, Himalaya Marg, Sector 22C, Sector 22, Chandigarh, Punjab 160022",Himalaya Marg,160022,30.7303115,76.7734213
"PQ2H+9H6, 31C, Sector 31, Chandigarh, 160030",Purv Marg,160030,30.7008456,76.7789014
"Muncipal Corporation Chandigarh Paid Parking Area Sector 22 B, Himalaya Marg, Sector 22B, Sector 22, Chandigarh, 160022",Himalaya Marg,160022,30.7325755,76.7774571
"SCO 1124-25, Sector 22B, Sector 22, Chandigarh, 160022",Himalaya Marg,160022,30.7319561,76.7766104
"3350, Sector 31D, Sector 31, Chandigarh, 160030",Chandi Path,160030,30.7026594,76.7770709
"SCO 1020-21, Sector 22-b, Near Bus Stand, Chandigarh 160022",Udyog Path,160022,30.7352524,76.7774873
"PQ3H+835, 31D, Sector 31, Chandigarh, 160030",Chandi Path,160030,30.7033952,76.7775151
"PQ3G+JH4, Chandi Path, 31D, Sector 31, Chandigarh, 160030",Chandi Path,160030,30.7040375,76.7763343
"SCO No. 1001 GF, Sector 22-B, Chandigarh, 160022",Udyog Path,160022,30.7361053,76.7767864
"920, 47A, Sector 47, Chandigarh, 160047",Chandi Path,160047,30.7019939,76.7712551
"Sector 31-C, Chandigarh, 160047",Purv Marg,160047,30.6989889,76.7766011
"3411, Chandi Path, 31D, Sector 31, Chandigarh, 160030",Chandi Path,160030,30.7034833,76.7767945
"SCO 1004, Sector 22B, Sector 17, Chandigarh, 160022",Udyog Path,160022,30.7359965,76.7768728
"SCF 1, 20C, Sector 20, Chandigarh, 160020",Sukhna Path,160020,30.7199367,76.7827164
"1015, SCO 1014, 15, Sector 17 Bus Stand Rd, Sector 22B, Chandigarh, 160022",Udyog Path,160022,30.7356774,76.7770447
"Griid, 31C, Sector 31, Chandigarh, 160030",Purv Marg,160030,30.6992213,76.7763856
"SCO 70-71 SECTOR, 32C, Chandigarh, 160032",Chandi Path,160032,30.7072906,76.7750615
"PQCJ+CHF, Sukhna Path, 20C, Sector 20, Chandigarh, 160020",Road A1,160020,30.7208358,76.7814837
"PQCJ+87X, Sector 20D, Sector 20, Chandigarh, 160002",Road A1,160020,30.7209948,76.7807146
"Shop No. 59 Sector 32 C, Chandigarh 160030",Chandi Path,160030,30.7068193,76.7754560
"Sector 20 C, near Laxmi Narayan Mandir, Chandigarh, 160020",Road A1,160020,30.7210689,76.7805815
"PQ3G+GJ8, 31D, Sector 31, Chandigarh, 160030",Chandi Path,160030,30.7037805,76.7765790
"PQ3F+GPR, 32C, Sector 32, Chandigarh, 160047",Chandi Path,160047,30.7037909,76.7744702
"SCO 280, Sector 32D, Sector 32, Chandigarh, 160031",Sukhna Path,160031,30.7087968,76.7737166
"PQ2H+G94, 31C, Sector 31, Chandigarh, 160030",Chandi Path,160030,30.7013175,76.7784538
"32C, Sector 32, Chandigarh, 160047",Chandi Path,160047,30.7042318,76.7751977
"Sco 282, Ground Floor, nearby Royal Enfield Showroom, Sector 32D, Sector 32, Chandigarh, 160030",Sukhna Path,160030,30.7088803,76.7738056
"Booth No. 319, Sector 32D, Sector 32, Chandigarh, 160047",Sukhna Path,160047,30.7096343,76.7736340
"SCO- 359, 1st. Floor, Sector 32D, Sector 32, Chandigarh, 160031",Sukhna Path,160031,30.7092819,76.7731999
GSSS,Sector 45A,160047,30.7105685,76.7621260
d,Sector 47,160047,30.6948057,76.7664446
1,St. AB,160019,30.7308445,76.7910202
10,St. AB,160019,30.7298751,76.7918382
11,St. AB,160019,30.7297674,76.7919290
12,St. AB,160019,30.7296596,76.7920199
13,St. 19Aa,160019,30.7298447,76.7922307
14,St. 19Aa,160019,30.7299206,76.7923536
15,St. 19Aa,160019,30.7299966,76.7924765
16,St. 19Aa,160019,30.7300725,76.7925992
17,St. 19Aa,160019,30.7301484,76.7927221
18,St. 19Aa,160019,30.7302244,76.7928449
19,St. 19Aa,160019,30.7303002,76.7929678
2,St. AB,160019,30.7307368,76.7911111
20,St. 19Aa,160019,30.7303762,76.7930905
21,St. 19Aa,160019,30.7304521,76.7932134
22,St. 19Aa,160019,30.7305281,76.7933363
23,St. 19Aa,160019,30.7306040,76.7934590
24,St. 19Aa,160019,30.7306800,76.7935819
25,St. 19Aa,160019,30.7307559,76.7937047
26,St. 19Aa,160019,30.7308319,76.7938276
3,St. AB,160019,30.7306291,76.7912020
4,St. AB,160019,30.7305214,76.7912929
5,St. AB,160019,30.7304137,76.7913837
55,19A,160019,30.7307365,76.7919463
56,19A,160019,30.7308148,76.7920731
57,19A,160019,30.7308930,76.7921998
58,19A,160019,30.7309713,76.7923265
59,19A,160019,30.7310495,76.7924532
6,St. AB,160019,30.7303059,76.7914746
60,19A,160019,30.7311277,76.7925800
61,St. 1,160019,30.7313410,76.7923986
62,St. 1,160019,30.7312614,76.7922744
63,St. 1,160019,30.7311819,76.7921502
64,St. 1,160019,30.7311024,76.7920261
65,St. 1,160019,30.7310228,76.7919019
66,St. 1,160019,30.7309433,76.7917777
67,St. 1,160019,30.7311483,76.7912092
68,St. 1,160019,30.7312706,76.7914026
69,St. 1,160019,30.7313929,76.7915961
7,St. AB,160019,30.7301982,76.7915655
70,St. 1,160019,30.7315151,76.7917895
71,St. 1,160019,30.7316375,76.7919830
72,St. 1,160019,30.7317599,76.7921764
73,St. 1,160019,30.7318822,76.7923699
74,St. 1,160019,30.7320045,76.7925633
75,St. 1,160019,30.7321268,76.7927568
76,St. 1,160019,30.7322491,76.7929502
77,St. 1,160019,30.7323713,76.7931437
78,St. 1,160019,30.7324937,76.7933371
79,St. 1,160019,30.7326161,76.7935305
8,St. AB,160019,30.7300905,76.7916564
80,St. 1,160019,30.7327384,76.7937240
81,St. 1,160019,30.7328607,76.7939174
82,St. 1,160019,30.7329829,76.7941109
83,St. 1,160019,30.7331052,76.7943043
84,St. 1,160019,30.7332275,76.7944978
85,St. 1,160019,30.7333499,76.7946912
86,St. 1,160019,30.7334722,76.7948847
87,St. 1,160019,30.7335946,76.7950781
9,St. AB,160019,30.7299828,76.7917473
Behind Jain Ashram,Sector 18D,160018,30.7356810,76.7852641
11,sector-17 E,160017,30.7403525,76.7803818
Car Garage,Panjab University,160014,30.7610702,76.7602983
Sector 6,Vigyan Path,160019,30.7379156,76.8113144
1400-1428,Sector 39B road,160039,30.7421580,76.7318211
1204,Sector 15B,160015,30.7529107,76.7745305
"1097, CDCL Building, Madhya Marg, Sector 28B",Madhya Marg,160101,30.7185113,76.8104885
"Plot No: 5, Ground Floor, CDCL Building, Madhya Marg, Sector 28B, Sector 28",Madhya Marg,160019,30.7189519,76.8106037
Plot No. 5,Sector 28 B,160019,30.7188043,76.8104405
178-178A,Industrial Area Phase - 1,160002,30.7053278,76.8011451
1331,SMALL FLATS DHANAS,160014,30.7750576,76.7467158
46B,Sector 46,160047,30.7046949,76.7662085
G15,Panjab University,160014,30.7596622,76.7600177
G14,Panjab University,160014,30.7598202,76.7602703
G13,Panjab University,160014,30.7599768,76.7605062
G12,Panjab University,160014,30.7601197,76.7607421
G11,Panjab University,160014,30.7602902,76.7609969
G18,Panjab University,160014,30.7603040,76.7602167
G17,Panjab University,160014,30.7601542,76.7599699
G16,Panjab University,160014,30.7600114,76.7597286
G19,Panjab University,160014,30.7604676,76.7604553
G20,Panjab University,160014,30.7606289,76.7607019
E1-84,Panjab University,160014,30.7608109,76.7599236
E1-83,Panjab University,160014,30.7607616,76.7598441
E1-82,Panjab University,160014,30.7607109,76.7597660
E1-81,Panjab University,160014,30.7606629,76.7596895
E1-80,Panjab University,160014,30.7606136,76.7596066
E1-79,Panjab University,160014,30.7605615,76.7595237
E1-78,Panjab University,160014,30.7605136,76.7594504
E1-77,Panjab University,160014,30.7604671,76.7593754
E1-76,Panjab University,160014,30.7602629,76.7595444
E1-75,Panjab University,160014,30.7603150,76.7596225
E1-74,Panjab University,160014,30.7603629,76.7597038
E-73,Panjab University,160014,30.7604123,76.7597819
E1-69,Panjab University,160014,30.7606068,76.7600896
E1-70,Panjab University,160014,30.7605575,76.7600131
E1-71,Panjab University,160014,30.7605081,76.7599367
E1-72,Panjab University,160014,30.7604588,76.7598601
E1-91,Panjab University,160014,30.7617679,76.7599025
E1-92,Panjab University,160014,30.7617176,76.7598208
E1-90,Panjab University,160014,30.7618168,76.7599733
E1-89,Panjab University,160014,30.7618647,76.7600546
E1-88,Panjab University,160014,30.7619134,76.7601319
E1-87,Panjab University,160014,30.7619599,76.7602084
E1-86,Panjab University,160014,30.7620079,76.7602842
E1-85,Panjab University,160014,30.7620552,76.7603599
E1-93,Panjab University,160014,30.7619038,76.7596632
E1-94,Panjab University,160014,30.7619518,76.7597405
E1-95,Panjab University,160014,30.7620031,76.7598194
E1-96,Panjab University,160014,30.7620525,76.7598984
E1-97,Panjab University,160014,30.7621018,76.7599733
E1-98,Panjab University,160014,30.7621483,76.7600498
E1-99,Panjab University,160014,30.7621949,76.7601255
E1-100,Panjab University,160014,30.7622415,76.7602045
E1-109,Panjab University,160014,30.7626417,76.7598186
E1-110,Panjab University,160014,30.7626897,76.7598959
E1-111,Panjab University,160014,30.7627410,76.7599748
E1-112,Panjab University,160014,30.7627903,76.7600537
E1-113,Panjab University,160014,30.7628396,76.7601287
E1-114,Panjab University,160014,30.7628863,76.7602052
E1-115,Panjab University,160014,30.7629328,76.7602809
E1-116,Panjab University,160014,30.7629794,76.7603599
E1-108,Panjab University,160014,30.7624437,76.7599537
E1-107,Panjab University,160014,30.7624942,76.7600354
E1-106,Panjab University,160014,30.7625411,76.7601133
E1-105,Panjab University,160014,30.7625909,76.7601875
E1-104,Panjab University,160014,30.7626397,76.7602648
E1-103,Panjab University,160014,30.7626862,76.7603413
E1-102,Panjab University,160014,30.7627341,76.7604171
E1-101,Panjab University,160014,30.7627814,76.7604928
E1-63,Panjab University,160014,30.7593952,76.7592628
E1-64,Panjab University,160014,30.7594420,76.7593453
E1-65,Panjab University,160014,30.7594912,76.7594254
E1-66,Panjab University,160014,30.7595383,76.7595108
E1-67,Panjab University,160014,30.7595854,76.7595929
E1-68,Panjab University,160014,30.7596309,76.7596764
E1-57,Panjab University,160014,30.7593964,76.7598201
E1-58,Panjab University,160014,30.7593498,76.7597436
E1-60,Panjab University,160014,30.7592514,76.7595920
E1-59,Panjab University,160014,30.7593012,76.7596663
E1-61,Panjab University,160014,30.7592043,76.7595142
E1-62,Panjab University,160014,30.7591540,76.7594325
E31,Panjab University,160014,30.7596117,76.7612266
E33,Panjab University,160014,30.7594731,76.7613462
E34,Panjab University,160014,30.7594073,76.7614060
E32,Panjab University,160014,30.7595409,76.7612876
E29,Panjab University,160014,30.7598310,76.7613960
E26,Panjab University,160014,30.7596210,76.7615689
E25,Panjab University,160014,30.7595523,76.7616301
E1-56,Panjab University,160014,30.7589765,76.7595849
E1-55,Panjab University,160014,30.7589057,76.7596459
E1-54,Panjab University,160014,30.7588370,76.7597030
E1-53,Panjab University,160014,30.7587641,76.7597578
E1-52,Panjab University,160014,30.7586967,76.7598130
E1-51,Panjab University,160014,30.7586210,76.7598675
E1-50,Panjab University,160014,30.7585489,76.7599225
E1-49,Panjab University,160014,30.7584790,76.7599781
E1-48,Panjab University,160014,30.7584060,76.7600345
E1-47,Panjab University,160014,30.7583361,76.7600926
E30,Panjab University,160014,30.7596782,76.7611629
E1-40,Panjab University,160014,30.7587848,76.7607753
E1-44,Panjab University,160014,30.7585919,76.7604617
E1-43,Panjab University,160014,30.7586414,76.7605415
E1-41,Panjab University,160014,30.7587356,76.7606985
E1-42,Panjab University,160014,30.7586874,76.7606209
E1-39,Panjab University,160014,30.7588345,76.7608542
E1-38,Panjab University,160014,30.7588822,76.7609308
E1-37,Panjab University,160014,30.7589293,76.7610098
E1-36,Panjab University,160014,30.7589772,76.7610902
E1-35,Panjab University,160014,30.7590274,76.7611700
E1-46,Panjab University,160014,30.7584942,76.7603056
E1-45,Panjab University,160014,30.7585437,76.7603854
E27,Panjab University,160014,30.7596890,76.7615094
E28,Panjab University,160014,30.7597570,76.7614536
F33,Panjab University,160014,30.7616312,76.7606323
F34,Panjab University,160014,30.7617983,76.7604854
F32,Panjab University,160014,30.7614639,76.7607731
F31,Panjab University,160014,30.7612953,76.7609099
F19,Panjab University,160014,30.7586764,76.7623549
F18,Panjab University,160014,30.7585512,76.7621590
F17,Panjab University,160014,30.7584297,76.7619731
F16,Panjab University,160014,30.7583168,76.7617998
F20,Panjab University,160014,30.7590718,76.7620213
F15,Panjab University,160014,30.7587349,76.7614633
F7,Panjab University,160014,30.7578530,76.7610567
F6,Panjab University,160014,30.7577387,76.7608865
F5,Panjab University,160014,30.7576240,76.7606956
F8,Panjab University,160014,30.7579698,76.7612551
F9,Panjab University,160014,30.7580887,76.7614408
F14,Panjab University,160014,30.7580213,76.7603502
F13,Panjab University,160014,30.7581409,76.7605373
F12,Panjab University,160014,30.7582527,76.7607331
F11,Panjab University,160014,30.7583736,76.7609222
F10,Panjab University,160014,30.7584912,76.7611073
F4,Panjab University,160014,30.7571509,76.7610647
F3,Panjab University,160014,30.7572703,76.7612518
F2,Panjab University,160014,30.7573821,76.7614476
F1,Panjab University,160014,30.7575031,76.7616367
G4,Panjab University,160014,30.7576208,76.7618218
G3,Panjab University,160014,30.7566177,76.7614918
G2,Panjab University,160014,30.7567324,76.7616827
G1,Panjab University,160014,30.7568467,76.7618529
VC House,Panjab University,160014,30.7570379,76.7621903
G8,Panjab University,160014,30.7578755,76.7622675
G9,Panjab University,160014,30.7580413,76.7625089
G10,Panjab University,160014,30.7581938,76.7627598
G5,Panjab University,160014,30.7573837,76.7626871
G6,Panjab University,160014,30.7575274,76.7629356
G7,Panjab University,160014,30.7576815,76.7631668
Girls Hostel No. 7,Panjab University,160014,30.7586631,76.7638770
Girls Hostel No. 5,Panjab University,160014,30.7581939,76.7642981
Girls Hostel No. 4,Panjab University,160014,30.7576089,76.7648066
E1-16,Panjab University,160014,30.7552489,76.7624288
E1-15,Panjab University,160014,30.7552983,76.7625086
E1-14,Panjab University,160014,30.7553465,76.7625849
E1-13,Panjab University,160014,30.7553960,76.7626647
E1-12,Panjab University,160014,30.7554420,76.7627441
E1-11,Panjab University,160014,30.7554902,76.7628217
E1-10,Panjab University,160014,30.7555395,76.7628985
E1-9,Panjab University,160014,30.7555892,76.7629774
E1-18,Panjab University,160014,30.7551317,76.7626600
E1-19,Panjab University,160014,30.7551799,76.7627363
E1-20,Panjab University,160014,30.7552294,76.7628161
E1-21,Panjab University,160014,30.7552754,76.7628955
E1-22,Panjab University,160014,30.7553236,76.7629730
E1-23,Panjab University,160014,30.7553729,76.7630500
E1-24,Panjab University,160014,30.7554225,76.7631288
E1-1,Panjab University,160014,30.7564123,76.7642948
E1-2,Panjab University,160014,30.7563630,76.7642149
E1-3,Panjab University,160014,30.7563161,76.7641374
E1-4,Panjab University,160014,30.7562666,76.7640576
E1-5,Panjab University,160014,30.7562165,76.7639817
E1-6,Panjab University,160014,30.7561686,76.7639039
E1-7,Panjab University,160014,30.7561215,76.7638252
E1-8,Panjab University,160014,30.7560729,76.7637454
E1-17,Panjab University,160014,30.7550830,76.7625820
C183,Panjab University,160014,30.7552207,76.7641501
C184,Panjab University,160014,30.7551790,76.7641853
C185,Panjab University,160014,30.7551383,76.7642184
C186,Panjab University,160014,30.7550997,76.7642541
C187,Panjab University,160014,30.7549473,76.7640092
C190,Panjab University,160014,30.7550681,76.7639053
C188,Panjab University,160014,30.7549857,76.7639736
C189,Panjab University,160014,30.7550265,76.7639405
C182,Panjab University,160014,30.7552860,76.7640931
C179,Panjab University,160014,30.7554068,76.7639891
C181,Panjab University,160014,30.7553244,76.7640574
C180,Panjab University,160014,30.7553652,76.7640243
C178,Panjab University,160014,30.7554422,76.7639571
C175,Panjab University,160014,30.7555630,76.7638531
C177,Panjab University,160014,30.7554807,76.7639214
C176,Panjab University,160014,30.7555214,76.7638883
C167,Panjab University,160014,30.7558764,76.7635830
C168,Panjab University,160014,30.7558346,76.7636182
C169,Panjab University,160014,30.7557938,76.7636513
C170,Panjab University,160014,30.7557554,76.7636870
C171,Panjab University,160014,30.7557202,76.7637190
C172,Panjab University,160014,30.7556784,76.7637542
C173,Panjab University,160014,30.7556376,76.7637873
C174,Panjab University,160014,30.7555992,76.7638230
C165,Panjab University,160014,30.7559555,76.7635183
C166,Panjab University,160014,30.7559137,76.7635535
C164,Panjab University,160014,30.7558054,76.7632788
C163,Panjab University,160014,30.7557636,76.7633140
C1,Panjab University,160014,30.7557263,76.7633436
C161,Panjab University,160014,30.7556845,76.7633787
C160,Panjab University,160014,30.7556438,76.7634118
C159,Panjab University,160014,30.7556054,76.7634475
C158,Panjab University,160014,30.7555701,76.7634795
C157,Panjab University,160014,30.7555283,76.7635148
C156,Panjab University,160014,30.7554876,76.7635479
C155,Panjab University,160014,30.7554491,76.7635835
C154,Panjab University,160014,30.7554130,76.7636136
C153,Panjab University,160014,30.7553713,76.7636489
C196,Panjab University,160014,30.7553306,76.7636819
C195,Panjab University,160014,30.7552921,76.7637176
C194,Panjab University,160014,30.7552568,76.7637496
C193,Panjab University,160014,30.7552150,76.7637849
C192,Panjab University,160014,30.7551743,76.7638180
C191,Panjab University,160014,30.7551359,76.7638536
C70,Panjab University,160014,30.7549914,76.7643642
C69,Panjab University,160014,30.7549498,76.7643994
C68,Panjab University,160014,30.7549123,76.7644289
C67,Panjab University,160014,30.7548707,76.7644642
C66,Panjab University,160014,30.7548300,76.7644973
C65,Panjab University,160014,30.7547914,76.7645329
C64,Panjab University,160014,30.7547561,76.7645649
C63,Panjab University,160014,30.7547145,76.7646002
C62,Panjab University,160014,30.7546738,76.7646333
C61,Panjab University,160014,30.7546352,76.7646689
C60,Panjab University,160014,30.7545991,76.7646990
C59,Panjab University,160014,30.7545573,76.7647343
C58,Panjab University,160014,30.7545166,76.7647673
C57,Panjab University,160014,30.7544781,76.7648031
C56,Panjab University,160014,30.7544428,76.7648350
C55,Panjab University,160014,30.7544011,76.7648703
C54,Panjab University,160014,30.7543605,76.7649033
C53,Panjab University,160014,30.7543219,76.7649391
C71,Panjab University,160014,30.7548354,76.7641112
C72,Panjab University,160014,30.7547937,76.7641464
C73,Panjab University,160014,30.7547858,76.7642249
C74,Panjab University,160014,30.7547440,76.7642600
C75,Panjab University,160014,30.7546731,76.7642441
C76,Panjab University,160014,30.7546314,76.7642793
C81,Panjab University,160014,30.7544590,76.7644881
C82,Panjab University,160014,30.7544173,76.7645232
C83,Panjab University,160014,30.7543503,76.7645036
C84,Panjab University,160014,30.7543085,76.7645388
C85,Panjab University,160014,30.7543035,76.7646266
C86,Panjab University,160014,30.7542617,76.7646618
C80,Panjab University,160014,30.7544660,76.7644087
C79,Panjab University,160014,30.7545078,76.7643735
C78,Panjab University,160014,30.7545863,76.7643982
C77,Panjab University,160014,30.7546279,76.7643630
C87,Panjab University,160014,30.7541917,76.7646452
C88,Panjab University,160014,30.7541499,76.7646803
C100,Panjab University,160014,30.7548056,76.7656535
C99,Panjab University,160014,30.7547638,76.7656898
C98,Panjab University,160014,30.7547264,76.7657194
C97,Panjab University,160014,30.7546848,76.7657535
C96,Panjab University,160014,30.7546411,76.7657866
C95,Panjab University,160014,30.7545997,76.7658200
C94,Panjab University,160014,30.7545615,76.7658531
C93,Panjab University,160014,30.7545199,76.7658872
C92,Panjab University,160014,30.7544811,76.7659169
C91,Panjab University,160014,30.7544416,76.7659514
C90,Panjab University,160014,30.7544034,76.7659849
C89,Panjab University,160014,30.7543618,76.7660202
C101,Panjab University,160014,30.7546799,76.7654458
C102,Panjab University,160014,30.7546381,76.7654822
C103,Panjab University,160014,30.7546008,76.7655118
C104,Panjab University,160014,30.7545590,76.7655458
C105,Panjab University,160014,30.7545154,76.7655788
C106,Panjab University,160014,30.7544740,76.7656123
C107,Panjab University,160014,30.7544357,76.7656454
C108,Panjab University,160014,30.7543953,76.7656836
C109,Panjab University,160014,30.7543589,76.7657147
C110,Panjab University,160014,30.7543194,76.7657492
C111,Panjab University,160014,30.7542789,76.7657813
C112,Panjab University,160014,30.7542361,76.7658166
C28,Panjab University,160014,30.7542787,76.7654753
C27,Panjab University,160014,30.7542494,76.7654251
C26,Panjab University,160014,30.7542223,76.7653831
C25,Panjab University,160014,30.7541924,76.7653351
C24,Panjab University,160014,30.7541604,76.7652873
C23,Panjab University,160014,30.7541305,76.7652400
C22,Panjab University,160014,30.7541037,76.7651943
C21,Panjab University,160014,30.7540738,76.7651463
C20,Panjab University,160014,30.7540454,76.7651034
C19,Panjab University,160014,30.7540177,76.7650559
C18,Panjab University,160014,30.7539910,76.7650097
C17,Panjab University,160014,30.7539635,76.7649655
C15,Panjab University,160014,30.7539067,76.7648715
C16,Panjab University,160014,30.7539365,76.7649226
C1,Panjab University,160014,30.7541056,76.7656328
C2,Panjab University,160014,30.7540764,76.7655827
C3,Panjab University,160014,30.7540493,76.7655405
C4,Panjab University,160014,30.7540223,76.7654908
C5,Panjab University,160014,30.7539903,76.7654431
C6,Panjab University,160014,30.7539605,76.7653958
C7,Panjab University,160014,30.7539336,76.7653500
C8,Panjab University,160014,30.7539037,76.7653020
C9,Panjab University,160014,30.7538768,76.7652583
C10,Panjab University,160014,30.7538467,76.7652121
C11,Panjab University,160014,30.7538170,76.7651699
C12,Panjab University,160014,30.7537894,76.7651255
C13,Panjab University,160014,30.7537602,76.7650813
C14,Panjab University,160014,30.7537304,76.7650341
C29,Panjab University,160014,30.7546957,76.7650048
C30,Panjab University,160014,30.7547255,76.7650491
C31,Panjab University,160014,30.7547522,76.7650952
C32,Panjab University,160014,30.7547799,76.7651415
C33,Panjab University,160014,30.7548060,76.7651855
C34,Panjab University,160014,30.7548348,76.7652296
C35,Panjab University,160014,30.7548593,76.7652727
C36,Panjab University,160014,30.7548891,76.7653199
C37,Panjab University,160014,30.7549165,76.7653637
C38,Panjab University,160014,30.7549476,76.7654117
C39,Panjab University,160014,30.7549747,76.7654551
C40,Panjab University,160014,30.7550040,76.7654985
C51,Panjab University,160014,30.7548984,76.7648895
C52,Panjab University,160014,30.7548685,76.7648453
C50,Panjab University,160014,30.7549251,76.7649355
C49,Panjab University,160014,30.7549528,76.7649818
C48,Panjab University,160014,30.7549789,76.7650259
C47,Panjab University,160014,30.7550076,76.7650699
C46,Panjab University,160014,30.7550322,76.7651131
C45,Panjab University,160014,30.7550620,76.7651603
C44,Panjab University,160014,30.7550906,76.7652040
C43,Panjab University,160014,30.7551205,76.7652521
C42,Panjab University,160014,30.7551476,76.7652955
C41,Panjab University,160014,30.7551769,76.7653389
D10,Panjab University,160014,30.7532012,76.7641785
D9,Panjab University,160014,30.7532367,76.7642374
D8,Panjab University,160014,30.7532754,76.7642964
D7,Panjab University,160014,30.7533099,76.7643541
D6,Panjab University,160014,30.7533451,76.7644104
D5,Panjab University,160014,30.7533785,76.7644654
D4,Panjab University,160014,30.7534154,76.7645237
D3,Panjab University,160014,30.7534511,76.7645801
D2,Panjab University,160014,30.7534874,76.7646371
D1,Panjab University,160014,30.7535237,76.7646961
D11,Panjab University,160014,30.7533933,76.7640275
D12,Panjab University,160014,30.7534288,76.7640863
D13,Panjab University,160014,30.7534674,76.7641454
D14,Panjab University,160014,30.7535020,76.7642030
D15,Panjab University,160014,30.7535371,76.7642593
D16,Panjab University,160014,30.7535705,76.7643143
D17,Panjab University,160014,30.7536074,76.7643726
D18,Panjab University,160014,30.7536431,76.7644290
D19,Panjab University,160014,30.7536794,76.7644860
D20,Panjab University,160014,30.7537157,76.7645450
D31,Panjab University,160014,30.7540403,76.7634841
D32,Panjab University,160014,30.7540757,76.7635430
D33,Panjab University,160014,30.7541570,76.7635648
D34,Panjab University,160014,30.7541916,76.7636224
D35,Panjab University,160014,30.7541841,76.7637160
D36,Panjab University,160014,30.7542175,76.7637710
D37,Panjab University,160014,30.7542999,76.7637910
D38,Panjab University,160014,30.7543357,76.7638473
D39,Panjab University,160014,30.7543264,76.7639427
D40,Panjab University,160014,30.7543627,76.7640016
D24,Panjab University,160014,30.7541139,76.7639466
D23,Panjab University,160014,30.7541496,76.7640029
D30,Panjab University,160014,30.7538542,76.7636397
D29,Panjab University,160014,30.7538897,76.7636986
D28,Panjab University,160014,30.7539710,76.7637204
D27,Panjab University,160014,30.7540055,76.7637781
D26,Panjab University,160014,30.7539980,76.7638716
D25,Panjab University,160014,30.7540314,76.7639266
D22,Panjab University,160014,30.7541404,76.7640983
D21,Panjab University,160014,30.7541766,76.7641573
D60,Panjab University,160014,30.7550004,76.7634750
D59,Panjab University,160014,30.7549641,76.7634160
D58,Panjab University,160014,30.7549278,76.7633590
D57,Panjab University,160014,30.7548921,76.7633027
D56,Panjab University,160014,30.7548552,76.7632444
D55,Panjab University,160014,30.7548218,76.7631894
D54,Panjab University,160014,30.7547866,76.7631330
D53,Panjab University,160014,30.7547521,76.7630754
D52,Panjab University,160014,30.7547135,76.7630164
D51,Panjab University,160014,30.7546780,76.7629575
D41,Panjab University,160014,30.7548037,76.7636408
D42,Panjab University,160014,30.7547674,76.7635818
D43,Panjab University,160014,30.7547311,76.7635248
D44,Panjab University,160014,30.7546953,76.7634685
D45,Panjab University,160014,30.7546585,76.7634101
D46,Panjab University,160014,30.7546251,76.7633551
D47,Panjab University,160014,30.7545899,76.7632988
D48,Panjab University,160014,30.7545553,76.7632411
D49,Panjab University,160014,30.7545167,76.7631821
D50,Panjab University,160014,30.7544812,76.7631233
C130,Panjab University,160014,30.7561190,76.7645471
C129,Panjab University,160014,30.7560772,76.7645823
C128,Panjab University,160014,30.7560364,76.7646118
C127,Panjab University,160014,30.7559982,76.7646471
C126,Panjab University,160014,30.7559575,76.7646802
C125,Panjab University,160014,30.7559197,76.7647150
C124,Panjab University,160014,30.7558822,76.7647478
C123,Panjab University,160014,30.7558419,76.7647814
C122,Panjab University,160014,30.7558040,76.7648170
C121,Panjab University,160014,30.7557606,76.7648502
C120,Panjab University,160014,30.7557231,76.7648795
C119,Panjab University,160014,30.7556801,76.7649124
C118,Panjab University,160014,30.7556413,76.7649463
C117,Panjab University,160014,30.7556029,76.7649795
C116,Panjab University,160014,30.7555622,76.7650124
C115,Panjab University,160014,30.7555232,76.7650460
C114,Panjab University,160014,30.7554825,76.7650790
C113,Panjab University,160014,30.7554432,76.7651131
C70,Panjab University,160014,30.7562005,76.7644788
C131,Panjab University,160014,30.7561587,76.7645140
C136,Panjab University,160014,30.7559387,76.7643566
C152,Panjab University,160014,30.7553050,76.7648871
C151,Panjab University,160014,30.7553457,76.7648540
C150,Panjab University,160014,30.7553847,76.7648205
C149,Panjab University,160014,30.7554254,76.7647876
C147,Panjab University,160014,30.7555026,76.7647204
C148,Panjab University,160014,30.7554639,76.7647544
C146,Panjab University,160014,30.7555457,76.7646877
C145,Panjab University,160014,30.7555833,76.7646583
C144,Panjab University,160014,30.7556265,76.7646250
C143,Panjab University,160014,30.7556644,76.7645896
C142,Panjab University,160014,30.7557047,76.7645558
C141,Panjab University,160014,30.7557421,76.7645231
C140,Panjab University,160014,30.7557799,76.7644882
C139,Panjab University,160014,30.7558206,76.7644551
C138,Panjab University,160014,30.7558589,76.7644198
C137,Panjab University,160014,30.7558997,76.7643903
C135,Panjab University,160014,30.7559785,76.7643217
C134,Panjab University,160014,30.7560183,76.7642886
C133,Panjab University,160014,30.7560600,76.7642535
E35,Panjab University,160014,30.7559894,76.7620450
E36,Panjab University,160014,30.7559551,76.7619906
E37,Panjab University,160014,30.7559175,76.7619334
E34,Panjab University,160014,30.7560247,76.7621024
E33,Panjab University,160014,30.7560598,76.7621607
E32,Panjab University,160014,30.7560991,76.7622210
E31,Panjab University,160014,30.7561324,76.7622767
E25,Panjab University,160014,30.7563473,76.7626169
E26,Panjab University,160014,30.7563139,76.7625613
E27,Panjab University,160014,30.7562747,76.7625010
E28,Panjab University,160014,30.7562396,76.7624426
E29,Panjab University,160014,30.7562042,76.7623852
E30,Panjab University,160014,30.7561700,76.7623308
E21,Panjab University,160014,30.7564962,76.7628533
E22,Panjab University,160014,30.7564570,76.7627929
E23,Panjab University,160014,30.7564218,76.7627346
E24,Panjab University,160014,30.7563865,76.7626772
E38,Panjab University,160014,30.7561683,76.7617317
E39,Panjab University,160014,30.7562059,76.7617889
E40,Panjab University,160014,30.7562401,76.7618433
E41,Panjab University,160014,30.7562755,76.7619007
E42,Panjab University,160014,30.7563107,76.7619591
E43,Panjab University,160014,30.7563498,76.7620194
E44,Panjab University,160014,30.7563832,76.7620750
E45,Panjab University,160014,30.7564208,76.7621291
E46,Panjab University,160014,30.7564550,76.7621836
E47,Panjab University,160014,30.7564903,76.7622410
E48,Panjab University,160014,30.7565255,76.7622993
E49,Panjab University,160014,30.7565647,76.7623597
E50,Panjab University,160014,30.7565981,76.7624153
E51,Panjab University,160014,30.7566372,76.7624755
E52,Panjab University,160014,30.7566726,76.7625329
E53,Panjab University,160014,30.7567078,76.7625912
E54,Panjab University,160014,30.7567470,76.7626516
E10,Panjab University,160014,30.7567427,76.7632478
E9,Panjab University,160014,30.7567770,76.7633022
E8,Panjab University,160014,30.7568123,76.7633596
E7,Panjab University,160014,30.7568475,76.7634179
E6,Panjab University,160014,30.7568866,76.7634783
E5,Panjab University,160014,30.7569200,76.7635340
E4,Panjab University,160014,30.7569592,76.7635942
E3,Panjab University,160014,30.7569946,76.7636515
E2,Panjab University,160014,30.7570297,76.7637099
E1,Panjab University,160014,30.7570689,76.7637702
E11,Panjab University,160014,30.7569922,76.7630325
E12,Panjab University,160014,30.7570264,76.7630869
E13,Panjab University,160014,30.7570617,76.7631443
E14,Panjab University,160014,30.7570969,76.7632027
E15,Panjab University,160014,30.7571360,76.7632630
E16,Panjab University,160014,30.7571695,76.7633187
E17,Panjab University,160014,30.7572086,76.7633789
E18,Panjab University,160014,30.7572440,76.7634363
E19,Panjab University,160014,30.7572792,76.7634946
E20,Panjab University,160014,30.7573183,76.7635549
B 23-24,Panjab University,160014,30.7537751,76.7657772
B 21-22,Panjab University,160014,30.7537493,76.7657363
B 19-20,Panjab University,160014,30.7537233,76.7656966
B 15-16,Panjab University,160014,30.7536705,76.7656062
B 11-12,Panjab University,160014,30.7536176,76.7655218
B 13-14,Panjab University,160014,30.7536444,76.7655647
B 9-10,Panjab University,160014,30.7535914,76.7654807
B 7-8,Panjab University,160014,30.7535670,76.7654418
B 5-6,Panjab University,160014,30.7535413,76.7654029
B 3-4,Panjab University,160014,30.7535161,76.7653634
B 1-2,Panjab University,160014,30.7534897,76.7653223
B 17-18,Panjab University,160014,30.7536967,76.7656530
B 179-180,Panjab University,160014,30.7533166,76.7664278
B 177-178,Panjab University,160014,30.7533442,76.7664693
B 181-182,Panjab University,160014,30.7532914,76.7663875
B 183-184,Panjab University,160014,30.7532631,76.7663419
B 185-186,Panjab University,160014,30.7532358,76.7662996
B 187-188,Panjab University,160014,30.7532075,76.7662555
B 175-176,Panjab University,160014,30.7533727,76.7665090
B 173-174,Panjab University,160014,30.7534013,76.7665509
B 171-172,Panjab University,160014,30.7534273,76.7665927
B 169-170,Panjab University,160014,30.7534547,76.7666404
B 165-166,Panjab University,160014,30.7535067,76.7667212
B 167-168,Panjab University,160014,30.7534790,76.7666797
B 189-190,Panjab University,160014,30.7529001,76.7657541
B 191-192,Panjab University,160014,30.7528724,76.7657126
B 193-194,Panjab University,160014,30.7528480,76.7656733
B 195-196,Panjab University,160014,30.7528207,76.7656257
B 197-198,Panjab University,160014,30.7527946,76.7655838
B 199-200,Panjab University,160014,30.7527661,76.7655419
B 201-202,Panjab University,160014,30.7527375,76.7655023
B 203-204,Panjab University,160014,30.7527099,76.7654608
B 205-206,Panjab University,160014,30.7526855,76.7654214
B 207-208,Panjab University,160014,30.7526582,76.7653738
B  209-210,Panjab University,160014,30.7526321,76.7653320
B 211-212,Panjab University,160014,30.7526036,76.7652901
B 227-228,Panjab University,160014,30.7523896,76.7649509
B 225-226,Panjab University,160014,30.7524181,76.7649928
B 223-224,Panjab University,160014,30.7524442,76.7650346
B 221-222,Panjab University,160014,30.7524715,76.7650823
B 219-220,Panjab University,160014,30.7524959,76.7651216
B 217-218,Panjab University,160014,30.7525237,76.7651631
B 215-216,Panjab University,160014,30.7525521,76.7652028
B 213-214,Panjab University,160014,30.7525806,76.7652446
B 27-28,Panjab University,160014,30.7533107,76.7655323
B 31-32,Panjab University,160014,30.7533617,76.7656107
B 29-30,Panjab University,160014,30.7533360,76.7655717
B 25-26,Panjab University,160014,30.7532844,76.7654912
B 33-34,Panjab University,160014,30.7533861,76.7656496
B 35-36,Panjab University,160014,30.7534123,76.7656908
B 37-38,Panjab University,160014,30.7534391,76.7657335
B 39-40,Panjab University,160014,30.7534652,76.7657751
B 41-42,Panjab University,160014,30.7534914,76.7658219
B 43-44,Panjab University,160014,30.7535180,76.7658656
B 45-46,Panjab University,160014,30.7535440,76.7659052
B 47-48,Panjab University,160014,30.7535699,76.7659461
B 71-72,Panjab University,160014,30.7538795,76.7660178
B 69-70,Panjab University,160014,30.7538447,76.7660493
B 67-68,Panjab University,160014,30.7538113,76.7660795
B 65-66,Panjab University,160014,30.7537783,76.7661101
B 63-64,Panjab University,160014,30.7537455,76.7661393
B 61-62,Panjab University,160014,30.7537106,76.7661706
B 59-60,Panjab University,160014,30.7536743,76.7662026
B 57-58,Panjab University,160014,30.7536391,76.7662338
B 55-56,Panjab University,160014,30.7535995,76.7662653
B 53-54,Panjab University,160014,30.7535625,76.7662971
B 51-52,Panjab University,160014,30.7535290,76.7663281
B 49-50,Panjab University,160014,30.7534944,76.7663591
B 73-74,Panjab University,160014,30.7540283,76.7662538
B 75-76,Panjab University,160014,30.7539935,76.7662853
B 77-78,Panjab University,160014,30.7539601,76.7663155
B 79-80,Panjab University,160014,30.7539272,76.7663461
B 81-82,Panjab University,160014,30.7538943,76.7663754
B 83-84,Panjab University,160014,30.7538594,76.7664066
B 85-86,Panjab University,160014,30.7538232,76.7664387
B 87-88,Panjab University,160014,30.7537879,76.7664699
B 89-90,Panjab University,160014,30.7537484,76.7665013
B 91-92,Panjab University,160014,30.7537113,76.7665331
B 93-94,Panjab University,160014,30.7536778,76.7665642
B 95-96,Panjab University,160014,30.7536432,76.7665951
B 183-184,Panjab University,160014,30.7538311,76.7672592
B 181-182,Panjab University,160014,30.7538613,76.7673032
B 179-180,Panjab University,160014,30.7538881,76.7673419
B 177-178,Panjab University,160014,30.7539144,76.7673846
B 175-176,Panjab University,160014,30.7539407,76.7674288
B 171-172,Panjab University,160014,30.7539951,76.7675201
B 169-170,Panjab University,160014,30.7540240,76.7675665
B 167-168,Panjab University,160014,30.7540486,76.7676046
B 165-166,Panjab University,160014,30.7540743,76.7676467
B 173-174,Panjab University,160014,30.7539690,76.7674764
B 143-144,Panjab University,160014,30.7543531,76.7680857
B 141-142,Panjab University,160014,30.7543788,76.7681277
B 139-140,Panjab University,160014,30.7544056,76.7681694
B 137-138,Panjab University,160014,30.7544326,76.7682121
B 135-136,Panjab University,160014,30.7544587,76.7682557
B 133-134,Panjab University,160014,30.7544872,76.7683033
B 131-132,Panjab University,160014,30.7545136,76.7683473
B 129-130,Panjab University,160014,30.7545399,76.7683899
B 127-128,Panjab University,160014,30.7545658,76.7684309
B 125-126,Panjab University,160014,30.7545912,76.7684719
B 121-122,Panjab University,160014,30.7546423,76.7685563
B 123-124,Panjab University,160014,30.7546169,76.7685154
71,Sector 20A,160020,30.7239183,76.7803645
Plot Number 1,Rajiv Gandhi Technology Park,160101,30.7272503,76.8436054
"Dakshin Marg, Sector 33B, Sector 33, Chandigarh, 160047",Dakshin Marg,160047,30.7148764,76.7773095
"32C, Sector 32, Chandigarh, 160047",Chandi Path,160047,30.7042635,76.7751486
