House number,Street name,Postal code,Latitude,Longitude
27,Elm Street,06098,41.9217274,-73.0709748
354,Main Street,06098,41.9212799,-73.0695983
630,Main Street,06098,41.9231397,-73.0752091
390,Main Street,06098,41.9211821,-73.0705612
942,Main Street,06098,41.9313008,-73.0808849
355,Street Catherine Street,06098,41.9104597,-73.0881103
167,Wallens Street,06098,41.9292037,-73.0498792
443,North Main Street,06098,41.9358460,-73.0566835
H 2,Nanni Drive,06098,41.9350369,-73.0531816
338,Main Street,06098,41.9214835,-73.0689382
176,Glendale Avenue,06098,41.9201272,-73.0516902
151,Mathew Road,06098,41.9154381,-73.0843332
K 6,Nanni Drive,06098,41.9331745,-73.0548074
88,Strong Terrace,06098,41.9201248,-73.0572867
75,Oakdale Avenue,06098,41.9165687,-73.0504756
4,Hamill Drive,06098,41.9223513,-73.0538962
40,Oak Street,06098,41.9223746,-73.0640712
30,High Street,06098,41.9218928,-73.0735053
45,Riveredge Drive,06098,41.9273829,-73.0586473
97,Hinsdale Avenue,06098,41.9264476,-73.0710457
17,Woodland Avenue,06098,41.9252498,-73.0817852
157,Mathew Road,06098,41.9149738,-73.0845566
34,Rockwell Street,06098,41.9192787,-73.0711524
154,Lincoln Avenue,06098,41.9148634,-73.0824594
126,Carey Avenue,06098,41.9148039,-73.0815487
9,Hamill Drive,06098,41.9218434,-73.0542917
55,Bank Street,06098,41.9303692,-73.0647330
127 A,Carey Avenue,06098,41.9149710,-73.0806350
50,High Street,06098,41.9220110,-73.0731206
15,Curtice Street,06098,41.9272030,-73.0723436
39,Wetmore Avenue,06098,41.9268436,-73.0663114
63,Wallens Hill Road,06098,41.9340781,-73.0419541
121,Waldron Street,06098,41.9257118,-73.0552030
L 6,Nanni Drive,06098,41.9328277,-73.0553557
21,Thibault Avenue,06098,41.9226516,-73.0694577
133,Glendale Avenue,06098,41.9184960,-73.0516862
85,Rock Street,06098,41.9243419,-73.0710103
284,West Lake Street,06098,41.9234525,-73.0848433
162,Shore Drive,06098,41.9173099,-73.0829275
171,Stanton Avenue,06098,41.9249659,-73.0560148
26,Greenwoods Avenue,06098,41.9229194,-73.0684978
14,White Street,06098,41.9333772,-73.0563274
417,Horne Avenue,06098,41.9353782,-73.0580026
32,Spencer Street,06098,41.9275712,-73.0754436
118,Meadow Street,06098,41.9286068,-73.0791855
145,Alpha Avenue,06098,41.9137282,-73.0858670
118,East Mountain Avenue,06098,41.9270825,-73.0530219
27,Benton Street,06098,41.9238113,-73.0542730
230,Oak Street,06098,41.9289270,-73.0617608
257,Walnut Street,06098,41.9303647,-73.0607157
C 2,Nanni Drive,06098,41.9328511,-73.0542097
115,West Wakefield Boulevard,06098,41.9208749,-73.0884465
166,Pratt Street,06098,41.9141439,-73.0743499
461,North Main Street,06098,41.9389622,-73.0567850
166,East Wakefield Boulevard,06098,41.9165662,-73.0843362
2,Kittredge Lane,06098,41.9185975,-73.0551752
12,Pratt Street,06098,41.9197073,-73.0725385
123,Prospect Street,06098,41.9219067,-73.0758432
313,White Oak Trail,06098,41.9129550,-73.0853268
24,Union Street,06098,41.9217108,-73.0719775
82,Strong Terrace,06098,41.9211029,-73.0568821
16,Riveredge Drive,06098,41.9299076,-73.0579774
49,Wheeler Street,06098,41.9240207,-73.0715660
55;57,Royer Street,06098,41.9262964,-73.0522343
44,Wetmore Avenue,06098,41.9261410,-73.0661452
284,Gilbert Avenue,06098,41.9294654,-73.0567840
85,Glendale Avenue,06098,41.9169914,-73.0512525
334,Norwood Road,06098,41.9119940,-73.0860327
111,Hurlbut Street,06098,41.9148864,-73.0778561
39,Rockwell Street,06098,41.9189612,-73.0713082
254,Holabird Avenue,06098,41.9229673,-73.0553602
110,Bayview Road,06098,41.9152140,-73.0839281
157,Lincoln Avenue,06098,41.9145719,-73.0830181
52,Strong Terrace,06098,41.9198405,-73.0563109
70,Maloney Court,06098,41.9181841,-73.0525316
936,Main Street,06098,41.9316143,-73.0802742
124,Boyd Street,06098,41.9253478,-73.0844412
51;53,Chestnut Street,06098,41.9231451,-73.0657865
109,West Wakefield Boulevard,06098,41.9219690,-73.0888158
14,Wheeler Street,06098,41.9228820,-73.0706251
232,Boyd Street,06098,41.9228706,-73.0882768
52,Holabird Avenue,06098,41.9247040,-73.0663351
60,Riveredge Drive,06098,41.9267853,-73.0588594
132,East Lake Street,06098,41.9202656,-73.0784815
27;29,Wetmore Avenue,06098,41.9267160,-73.0669604
253,Florence Street,06098,41.9279826,-73.0513676
146,Shore Drive,06098,41.9181196,-73.0826369
70,Spencer Street,06098,41.9290547,-73.0752364
70,Oakdale Avenue,06098,41.9161172,-73.0504306
146,Alpha Avenue,06098,41.9141770,-73.0862698
224,Rockwell Street,06098,41.9226330,-73.0787665
101,Wallens Street,06098,41.9307395,-73.0537785
332,Norcross Road,06098,41.9125022,-73.0881849
79,Gay Street,06098,41.9237789,-73.0664476
46,Oak Street,06098,41.9225799,-73.0639795
64,Mountain Avenue,06098,41.9292412,-73.0653664
24,Cottage Street,06098,41.9271138,-73.0649460
171,Walnut Street,06098,41.9275429,-73.0617272
253,Holabird Avenue,06098,41.9235090,-73.0556503
57,Overlook Road,06098,41.9202750,-73.0910263
71,Front Street,06098,41.9291118,-73.0787460
151,East Lake Street,06098,41.9204593,-73.0802594
25,Hill Street,06098,41.9300206,-73.0654982
100,Alpha Avenue,06098,41.9140195,-73.0808670
91,Maloney Court,06098,41.9185612,-73.0531854
100,Nalette Drive,06098,41.9191483,-73.0476140
107,Elm Street,06098,41.9244697,-73.0699882
64,Wheeler Street,06098,41.9245028,-73.0703422
59,Main Street,06098,41.9207608,-73.0605386
52,Overlook Road,06098,41.9206288,-73.0922102
554,Main Street,06098,41.9221341,-73.0744494
59,Overlook Road,06098,41.9200707,-73.0908702
170,Hinsdale Avenue,06098,41.9260617,-73.0688414
171,Elm Street,06098,41.9257530,-73.0690004
62,Spencer Street,06098,41.9286793,-73.0753704
111,Birdsall Street,06098,41.9161342,-73.0744278
113,East Wakefield Boulevard,06098,41.9152939,-73.0788968
67,Bank Street,06098,41.9299186,-73.0651713
936,Main Street,06098,41.9315442,-73.0797549
B 9,Nanni Drive,06098,41.9325509,-73.0540829
65,Upson Avenue,06098,41.9184263,-73.0737115
29,Wallens Hill Road,06098,41.9304123,-73.0442451
3,Colony Drive,06098,41.9164793,-73.0536618
114,Bayview Road,06098,41.9150163,-73.0840741
107,Spencer Hill Road,06098,41.9374565,-73.0757979
105,Glendale Avenue,06098,41.9176867,-73.0514672
59,Cook Street,06098,41.9237936,-73.0854203
72,Mountain Avenue,06098,41.9286497,-73.0663568
30,Rock Street,06098,41.9229392,-73.0735612
352,Norwood Road,06098,41.9101952,-73.0872684
5,Cook Street,06098,41.9236600,-73.0835720
41,Hillside Avenue,06098,41.9250612,-73.0744065
346,Walnut Street,06098,41.9323392,-73.0595049
258,Perch Rock Trail,06098,41.9145552,-73.0897017
B 7,Nanni Drive,06098,41.9324780,-73.0541508
18,Colony Drive,06098,41.9174718,-73.0537322
580,Main Street,06098,41.9224989,-73.0748067
12,Gay Street,06098,41.9229967,-73.0695096
222,Holabird Avenue,06098,41.9234098,-73.0578167
89,Waldron Street,06098,41.9247062,-73.0552598
233,Perch Rock Trail,06098,41.9141868,-73.0891894
787,Main Street,06098,41.9266911,-73.0770421
123,Carey Avenue,06098,41.9150649,-73.0804292
123,Hinsdale Avenue,06098,41.9263902,-73.0704417
8,Oak Street,06098,41.9211749,-73.0642072
164,Shore Drive,06098,41.9172334,-73.0829647
332,Norwood Road,06098,41.9122262,-73.0859848
J 6,Nanni Drive,06098,41.9344410,-73.0540986
92,Hinsdale Avenue,06098,41.9260931,-73.0717648
15,Mountain View Terrace,06098,41.9326695,-73.0527155
134,Alpha Avenue,06098,41.9139894,-73.0851190
252,Holabird Avenue,06098,41.9231327,-73.0556909
253,Calos Way,06098,41.9151357,-73.0887722
241,Holabird Avenue,06098,41.9236621,-73.0565531
13,Greenwoods Avenue,06098,41.9226203,-73.0689243
259,Oak Street,06098,41.9299951,-73.0620680
41,Hinsdale Avenue,06098,41.9268360,-73.0741061
252,Gilbert Avenue,06098,41.9281107,-73.0569369
280,West Lake Street,06098,41.9233684,-73.0844061
254,Florence Street,06098,41.9276337,-73.0508539
181,Wallens Street,06098,41.9291324,-73.0494571
I 9,Nanni Drive,06098,41.9351038,-73.0538150
17,Rowley Street,06098,41.9202199,-73.0605078
107,East Mountain Avenue,06098,41.9275531,-73.0533288
1,Lake Street,06098,41.9238532,-73.0768619
247,North Main Street,06098,41.9291827,-73.0596514
313,Winchester Road,06098,41.9220437,-73.0893133
B 6,Nanni Drive,06098,41.9324492,-73.0541966
16,Superior Street,06098,41.9213407,-73.0788289
28,South Main Street,06098,41.9184706,-73.0572408
117,East Wakefield Boulevard,06098,41.9152520,-73.0793021
E 3,Nanni Drive,06098,41.9340450,-73.0534476
17,Birdsall Street,06098,41.9196166,-73.0734730
21,Lovely Street,06098,41.9167802,-73.0721953
107,West Wakefield Boulevard,06098,41.9223358,-73.0874126
3,Hamill Drive,06098,41.9224529,-73.0544839
192,East Lake Street,06098,41.9217592,-73.0804033
50,Riveredge Drive,06098,41.9267112,-73.0586380
124,Wallens Street,06098,41.9286888,-73.0527791
215,Perch Rock Trail,06098,41.9161585,-73.0880827
104,Alpha Avenue,06098,41.9140183,-73.0812514
492,Main Street,06098,41.9217847,-73.0729370
75,Maloney Court,06098,41.9180665,-73.0530673
68,Overlook Road,06098,41.9194549,-73.0911086
51,Maloney Court,06098,41.9171458,-73.0527343
85,Lake Street,06098,41.9244790,-73.0791189
127,Main Street,06098,41.9206964,-73.0625599
90,Colony Drive,06098,41.9206993,-73.0546560
21,Riveredge Drive,06098,41.9296321,-73.0585080
17,Hamill Drive,06098,41.9210060,-73.0540074
103,Wetmore Avenue,06098,41.9258960,-73.0628168
12,Munro Street,06098,41.9254319,-73.0774107
47,Stanton Avenue,06098,41.9287055,-73.0555650
80,Hurlbut Street,06098,41.9156177,-73.0765488
16,Brook Street,06098,41.9336276,-73.0588860
122,Bayview Road,06098,41.9145041,-73.0844565
56,Bank Street,06098,41.9301350,-73.0645410
102,Elm Street,06098,41.9237552,-73.0695481
D 6,Nanni Drive,06098,41.9337050,-73.0537957
15,Elm Street,06098,41.9214880,-73.0709150
145,Carey Avenue,06098,41.9138824,-73.0823082
229,Perch Rock Trail,06098,41.9149990,-73.0889732
138,Belvidere Avenue,06098,41.9153947,-73.0858838
107,Maloney Court,06098,41.9190391,-73.0532971
250,Calos Way,06098,41.9151147,-73.0883184
58,East Lake Street,06098,41.9176738,-73.0777088
106;108,Oak Street,06098,41.9247711,-73.0633925
83,Gay Street,06098,41.9230988,-73.0660856
99,Hubbard Street,06098,41.9295131,-73.0817596
60,Benton Street,06098,41.9250149,-73.0532318
8,Manchester Heights,06098,41.9324735,-73.0746099
226,Perch Rock Trail,06098,41.9165136,-73.0883835
16,Mountain View Terrace,06098,41.9331177,-73.0526387
362,Demonstranti Road,06098,41.9130918,-73.0881950
118,Shore Drive,06098,41.9171573,-73.0812017
J 5,Nanni Drive,06098,41.9344916,-73.0541214
44,Woodland Avenue,06098,41.9246781,-73.0828417
92,Hillside Avenue,06098,41.9234551,-73.0746754
182,Shore Drive,06098,41.9159115,-73.0827386
72;74,Wheeler Street,06098,41.9248581,-73.0702738
42,Walnut Street,06098,41.9228668,-73.0626780
13,Wallens Street,06098,41.9304177,-73.0582422
27,Front Street,06098,41.9277499,-73.0781514
41,Front Street,06098,41.9282576,-73.0784032
157,Alpha Avenue,06098,41.9139638,-73.0871770
80,Oak Street,06098,41.9238816,-73.0636013
86,Glendale Avenue,06098,41.9170658,-73.0507709
840,Main Street,06098,41.9287107,-73.0773532
12,Loomis Street,06098,41.9318185,-73.0805479
5,Gregory Street,06098,41.9312266,-73.0592511
C 4,Nanni Drive,06098,41.9329400,-73.0541399
94,Colony Drive,06098,41.9209433,-73.0547077
204,Perch Rock Trail,06098,41.9169881,-73.0861635
180,Gilbert Avenue,06098,41.9258424,-73.0572553
98,Nalette Drive,06098,41.9192589,-73.0482967
491,North Main Street,06098,41.9439347,-73.0527571
340,Tiffany Road,06098,41.9125974,-73.0849841
136,Ridge Street,06098,41.9209368,-73.0778204
113,West Wakefield Boulevard,06098,41.9212133,-73.0881214
23,Riveredge Drive,06098,41.9295855,-73.0584762
314,Winchester Road,06098,41.9218702,-73.0919000
20,Hubbard Street,06098,41.9264470,-73.0810445
52,Wetmore Avenue,06098,41.9260828,-73.0658978
3,Hill Street,06098,41.9293368,-73.0662077
22,Lewis Street,06098,41.9171917,-73.0719048
118,East Wakefield Boulevard,06098,41.9156324,-73.0794392
325,Norcross Road,06098,41.9119327,-73.0872797
240,Kingsbury Avenue,06098,41.9157355,-73.0877786
35,Pratt Street,06098,41.9186976,-73.0724323
144,East Wakefield Boulevard,06098,41.9157824,-73.0829787
235,Pine Street,06098,41.9150700,-73.0865654
128,Ridge Street,06098,41.9204385,-73.0774398
220,Perch Rock Trail,06098,41.9168258,-73.0873683
936,Main Street,06098,41.9313248,-73.0799354
16,Finn Street,06098,41.9180662,-73.0750630
24;26,Royer Street,06098,41.9261429,-73.0538442
43,Woodland Avenue,06098,41.9243980,-73.0823267
69,Hinsdale Avenue,06098,41.9265883,-73.0726335
346,East Wakefield Boulevard,06098,41.9120197,-73.0887815
275,North Main Street,06098,41.9301495,-73.0593545
72,Benton Street,06098,41.9253416,-73.0531110
350,Walnut Street,06098,41.9325926,-73.0593357
204,East Wakefield Boulevard,06098,41.9169802,-73.0848644
104,Shore Drive,06098,41.9161012,-73.0806616
210,Alpha Avenue,06098,41.9145452,-73.0873455
39,South Main Street,06098,41.9182693,-73.0562327
95,North Main Street,06098,41.9235377,-73.0604052
230,East Wakefield Boulevard,06098,41.9155091,-73.0874377
89,Holabird Avenue,06098,41.9247872,-73.0647159
630,Main Street,06098,41.9231354,-73.0752280
55,Hubbard Street,06098,41.9280321,-73.0815941
2,Hillside Place,06098,41.9246004,-73.0753479
61,John Street,06098,41.9275906,-73.0820526
187,Prospect Street,06098,41.9238222,-73.0778366
276,Gilbert Avenue,06098,41.9289715,-73.0568256
L 5,Nanni Drive,06098,41.9328468,-73.0552889
142,Main Street,06098,41.9212230,-73.0631342
36,South Main Street,06098,41.9181556,-73.0571102
203,East Wakefield Boulevard,06098,41.9163559,-73.0852546
B 11,Nanni Drive,06098,41.9326474,-73.0540978
52,Morgan Drive,06098,41.9191072,-73.0948345
120,Colony Drive,06098,41.9220647,-73.0555543
286,Main Street,06098,41.9214930,-73.0672563
201,East Lake Street,06098,41.9213001,-73.0805368
47,Riveredge Drive,06098,41.9273378,-73.0586318
138,Old North Road,06098,41.9411791,-73.0444998
45,Royer Street,06098,41.9263693,-73.0527169
129,Shore Drive,06098,41.9177796,-73.0822023
25,Pratt Street,06098,41.9189935,-73.0722775
31,Rock Street,06098,41.9232618,-73.0734338
161,Old New Hartford Road,06098,41.9147536,-73.0532420
137,Carey Avenue,06098,41.9142544,-73.0817501
135,Main Street,06098,41.9208239,-73.0629037
50,Whiting Street,06098,41.9213450,-73.0577771
324,Joan Road,06098,41.9139097,-73.0882672
33,Walnut Street,06098,41.9223079,-73.0633535
100,Boyd Street,06098,41.9258359,-73.0835304
1,Front Street,06098,41.9270737,-73.0779961
77,Wallens Hill Road,06098,41.9350193,-73.0417561
114,Wetmore Avenue,06098,41.9254929,-73.0628953
39,East Lake Street,06098,41.9169082,-73.0780700
425,North Main Street,06098,41.9352417,-73.0569788
180,Shore Drive,06098,41.9160628,-73.0827662
22,Birdsall Street,06098,41.9195582,-73.0739465
103,East Lake Street,06098,41.9188640,-73.0794448
246,Kingsbury Avenue,06098,41.9159761,-73.0880151
114,Shore Drive,06098,41.9168371,-73.0810743
52,Colony Drive,06098,41.9189698,-73.0541792
110,North Main Street,06098,41.9242520,-73.0597067
141,West Wakefield Boulevard,06098,41.9190623,-73.0900996
82,Hinsdale Avenue,06098,41.9261751,-73.0722139
15,Prospect Street,06098,41.9200305,-73.0713221
66;64,Main Street,06098,41.9213243,-73.0608089
201,Oak Street,06098,41.9280113,-73.0629355
144,Wetmore Avenue,06098,41.9251471,-73.0613467
56,Cottage Street,06098,41.9280948,-73.0646628
40,Benton Street,06098,41.9243848,-73.0534345
143,Meadow Street,06098,41.9293642,-73.0800414
I 4,Nanni Drive,06098,41.9352842,-73.0535816
55,Pratt Street,06098,41.9177623,-73.0727070
124,Ridge Street,06098,41.9201410,-73.0772084
141,East Wakefield Boulevard,06098,41.9154686,-73.0821787
52,Moore Avenue,06098,41.9126224,-73.0574097
F 2,Nanni Drive,06098,41.9336095,-73.0532964
12,Orchard Street,06098,41.9198302,-73.0756084
50,Holmes Drive,06098,41.9199075,-73.0945285
42,Maloney Court,06098,41.9169866,-73.0522154
204,Wallens Street,06098,41.9277456,-73.0489968
68,Elm Street,06098,41.9226845,-73.0701388
270,Holabird Avenue,06098,41.9227272,-73.0536463
116,North Main Street,06098,41.9244375,-73.0597275
31,Riveredge Drive,06098,41.9276862,-73.0586469
93,Hinsdale Avenue,06098,41.9265346,-73.0716593
33,Oakdale Avenue,06098,41.9153405,-73.0521032
338,Norwood Road,06098,41.9115413,-73.0861408
19,Oakdale Avenue,06098,41.9150373,-73.0525291
32,Park Place,06098,41.9218825,-73.0593747
307,East Wakefield Boulevard,06098,41.9140392,-73.0885794
24,East Lake Street,06098,41.9164197,-73.0774277
44,Elm Street,06098,41.9222227,-73.0704317
22,Mountain Avenue,06098,41.9289500,-73.0634386
15,Wetmore Avenue,06098,41.9268182,-73.0675674
83,Meadow Street,06098,41.9273717,-73.0792255
453,North Main Street,06098,41.9374115,-73.0560665
34,Wheeler Street,06098,41.9236003,-73.0706704
39,Upland Road,06098,41.9289166,-73.0773359
179,Glendale Avenue,06098,41.9203220,-73.0522445
10,Baker Street,06098,41.9289476,-73.0548011
336,East Wakefield Boulevard,06098,41.9126281,-73.0893995
125,Bayview Road,06098,41.9139899,-73.0841626
160,Glendale Avenue,06098,41.9194161,-73.0514768
81,Rockwell Street,06098,41.9189189,-73.0734691
103,Birdsall Street,06098,41.9164725,-73.0744099
189,Rowley Street,06098,41.9110481,-73.0640347
19,Perkins Street,06098,41.9242228,-73.0685073
28,Allen Street,06098,41.9268496,-73.0638210
67,Strong Terrace,06098,41.9205173,-73.0568950
386,Main Street,06098,41.9213507,-73.0705036
115,Wetmore Avenue,06098,41.9258370,-73.0623177
27,Crown Street,06098,41.9252771,-73.0739320
49,Woodruff Avenue,06098,41.9283967,-73.0576570
133,East Wakefield Boulevard,06098,41.9154222,-73.0811871
172,Pratt Street,06098,41.9141921,-73.0747533
288,Gilbert Avenue,06098,41.9296587,-73.0567393
D 1,Nanni Drive,06098,41.9334701,-73.0539234
159,Vons Lane,06098,41.9178064,-73.0930513
101,Whiting Street,06098,41.9231218,-73.0588546
9,Central Avenue,06098,41.9152536,-73.0509501
173,Rowley Street,06098,41.9131897,-73.0629606
97,Maloney Court,06098,41.9188066,-73.0532446
8,Gay Street,06098,41.9229621,-73.0692402
97,Glendale Avenue,06098,41.9174108,-73.0513681
224,East Lake Street,06098,41.9227004,-73.0811579
88,Gay Street,06098,41.9228182,-73.0659321
330,Tiffany Road,06098,41.9124141,-73.0838421
365,West Lake Street,06098,41.9226912,-73.0875441
78,Walnut Street,06098,41.9250184,-73.0620614
144,East Mountain Avenue,06098,41.9269714,-73.0518881
24,White Street,06098,41.9308462,-73.0567153
222,Perch Rock Trail,06098,41.9166967,-73.0880311
74,Spencer Hill Road,06098,41.9324239,-73.0738087
121,Shore Drive,06098,41.9171038,-73.0817555
G 6,Nanni Drive,06098,41.9342037,-73.0529411
230,Florence Street,06098,41.9267249,-73.0510800
35,Glendale Avenue,06098,41.9158045,-73.0529727
140,Alpha Avenue,06098,41.9140824,-73.0856709
168,East Wakefield Boulevard,06098,41.9166512,-73.0844234
12,Perkins Street,06098,41.9238929,-73.0689936
25,High Street,06098,41.9226946,-73.0742800
44,Mountain Avenue,06098,41.9291026,-73.0644895
27,Curtice Street,06098,41.9271674,-73.0718850
246,Gilbert Avenue,06098,41.9278494,-73.0569228
137,Alpha Avenue,06098,41.9135661,-73.0850081
67,Chestnut Street,06098,41.9236910,-73.0657796
101,East Wakefield Boulevard,06098,41.9151213,-73.0776715
19,Brookside Avenue,06098,41.9297333,-73.0746424
E 4,Nanni Drive,06098,41.9339917,-73.0534440
143,Carey Avenue,06098,41.9140362,-73.0822864
182,Glendale Avenue,06098,41.9203506,-73.0517478
99,Oakdale Avenue,06098,41.9187321,-73.0497591
92,Glendale Avenue,06098,41.9173827,-73.0508009
690,Main Street,06098,41.9244057,-73.0759072
324,White Oak Trail,06098,41.9135845,-73.0866043
119,West Wakefield Boulevard,06098,41.9204980,-73.0890748
201,Glendale Avenue,06098,41.9212608,-73.0525809
17,Riveredge Drive,06098,41.9297242,-73.0585357
56,Overlook Road,06098,41.9202103,-73.0921818
96,Boyd Street,06098,41.9259117,-73.0831547
2,Hubbard Street,06098,41.9260641,-73.0810273
160,Williams Avenue,06098,41.9291881,-73.0717332
266,Oak Street,06098,41.9302643,-73.0614455
936,Main Street,06098,41.9318136,-73.0801201
5,Brookside Avenue,06098,41.9285978,-73.0747876
6,Union Street,06098,41.9212171,-73.0720572
240,Perch Rock Trail,06098,41.9159163,-73.0895196
240,Pine Street,06098,41.9145549,-73.0863755
94,Sunny Ridge Drive,06098,41.9199323,-73.0457054
25,Colony Drive,06098,41.9179587,-73.0544941
59,Cook Street,06098,41.9238206,-73.0858983
149,Wetmore Avenue,06098,41.9255056,-73.0607759
89,Hillside Avenue,06098,41.9232807,-73.0740791
327,Norcross Road,06098,41.9119495,-73.0874517
63,Bank Street,06098,41.9298921,-73.0649659
114,Oak Street,06098,41.9250562,-73.0632725
156,Spencer Street,06098,41.9318096,-73.0751015
245,Kingsbury Avenue,06098,41.9156169,-73.0882764
410;416,Main Street,06098,41.9211638,-73.0712737
134,Shore Drive,06098,41.9180336,-73.0818084
25,Lake Street,06098,41.9241571,-73.0773910
97,Ridge Street,06098,41.9184077,-73.0771814
276,West Lake Street,06098,41.9232897,-73.0839375
153,Shore Drive,06098,41.9161688,-73.0822403
59,Wheeler Street,06098,41.9245328,-73.0712993
19,High Street,06098,41.9227578,-73.0744146
80,Manchester Heights,06098,41.9340977,-73.0752414
87,Meadow Street,06098,41.9275574,-73.0792599
73,Hubbard Street,06098,41.9285903,-73.0817101
147,Alpha Avenue,06098,41.9137601,-73.0860538
82,Boyd Street,06098,41.9266867,-73.0821919
31,Gay Street,06098,41.9236546,-73.0679096
239,North Main Street,06098,41.9289465,-73.0596275
B 2,Nanni Drive,06098,41.9322846,-73.0543491
183,Main Street,06098,41.9207531,-73.0645172
11,Manchester Heights,06098,41.9326852,-73.0751325
123,Shore Drive,06098,41.9171827,-73.0819322
100,Oakdale Avenue,06098,41.9187902,-73.0488331
4,Hurlbut Street,06098,41.9160451,-73.0736410
20,Case Avenue,06098,41.9220266,-73.0677320
315,White Oak Trail,06098,41.9129963,-73.0855394
496,Main Street,06098,41.9213762,-73.0734025
14,Hamill Drive,06098,41.9213348,-73.0534304
32,Riveredge Drive,06098,41.9292481,-73.0582146
85,Oak Street,06098,41.9242244,-73.0639418
54,Hinsdale Avenue,06098,41.9263682,-73.0736587
74,Hinsdale Avenue,06098,41.9261989,-73.0724616
231,Walnut Street,06098,41.9294442,-73.0609862
9,Colony Drive,06098,41.9171097,-73.0542071
343,East Wakefield Boulevard,06098,41.9123587,-73.0884059
140,Boyd Street,06098,41.9257342,-73.0863307
88,Maloney Court,06098,41.9189905,-73.0527742
10,Benton Street,06098,41.9231503,-73.0538239
155,East Wakefield Boulevard,06098,41.9156132,-73.0840568
155,Lincoln Avenue,06098,41.9145455,-73.0828232
76,Colony Drive,06098,41.9200480,-73.0545155
21,Upson Avenue,06098,41.9180980,-73.0714659
936,Main Street,06098,41.9316836,-73.0802351
136;138,Waldron Street,06098,41.9261036,-73.0546963
220,Gilbert Avenue,06098,41.9269574,-73.0571148
157,Elm Street,06098,41.9254455,-73.0691493
412,Horne Avenue,06098,41.9350625,-73.0578591
210,Perch Rock Trail,06098,41.9169180,-73.0867141
114,Lake Street,06098,41.9255339,-73.0797509
87,East Lake Street,06098,41.9179881,-73.0795387
115,Main Street,06098,41.9208558,-73.0622479
80,Chestnut Street,06098,41.9236607,-73.0651573
138,Shore Drive,06098,41.9181939,-73.0820070
122,Boyd Street,06098,41.9255404,-73.0842477
179,Prospect Street,06098,41.9230732,-73.0774106
43,Spencer Street,06098,41.9280209,-73.0759972
53,Hillside Avenue,06098,41.9246641,-73.0742945
171,Oak Street,06098,41.9271802,-73.0631595
23,Perkins Street,06098,41.9241703,-73.0680885
80,Spencer Street,06098,41.9292667,-73.0754440
B 8,Nanni Drive,06098,41.9325226,-73.0541116
8,Cornelio Avenue,06098,41.9216492,-73.0663618
35,Prospect Street,06098,41.9197732,-73.0728880
119,Rowley Street,06098,41.9149082,-73.0610271
153,Mathew Road,06098,41.9152924,-73.0843681
D 2,Nanni Drive,06098,41.9335200,-73.0538978
51,Holmes Drive,06098,41.9197450,-73.0938589
40,Ridge Street,06098,41.9164996,-73.0760223
29,Walnut Street,06098,41.9220859,-73.0634240
23,Union Street,06098,41.9217777,-73.0724119
190,East Lake Street,06098,41.9218443,-73.0801592
49,Riveredge Drive,06098,41.9272914,-73.0586396
10,Wallens Hill Road,06098,41.9309000,-73.0427810
16,Hinsdale Avenue,06098,41.9265005,-73.0753824
355,Street Catherine Street,06098,41.9103312,-73.0876654
141,East Mountain Avenue,06098,41.9273538,-73.0517203
165,Mathew Road,06098,41.9144315,-73.0849526
102,Nalette Drive,06098,41.9190057,-73.0468351
16,Woodland Avenue,06098,41.9254159,-73.0823373
60,Woodland Avenue,06098,41.9240061,-73.0832582
124,Carey Avenue,06098,41.9149242,-73.0813578
124,Carey Avenue,06098,41.9150934,-73.0814262
10,Hamill Drive,06098,41.9217176,-73.0537115
16,Central Avenue,06098,41.9145597,-73.0501692
217;219,Rockwell Street,06098,41.9222471,-73.0786646
12,Cottage Street,06098,41.9265862,-73.0647846
155,Walnut Street,06098,41.9269685,-73.0619836
66,Munro Place,06098,41.9256339,-73.0749806
59,Front Street,06098,41.9287545,-73.0786567
120,Maloney Court,06098,41.9199010,-73.0525000
205,Perch Rock Trail,06098,41.9165217,-73.0865623
81,Pratt Street,06098,41.9169309,-73.0729241
88,East Lake Street,06098,41.9188160,-73.0779301
180,Pratt Street,06098,41.9136666,-73.0745335
120,Holabird Avenue,06098,41.9240540,-73.0628883
100,Hinsdale Avenue,06098,41.9260651,-73.0713327
149,East Lake Street,06098,41.9201616,-73.0802442
436,Main Street,06098,41.9211172,-73.0717542
734,Main Street,06098,41.9253431,-73.0761466
52,Spencer Street,06098,41.9282822,-73.0753559
40,Cook Street,06098,41.9242132,-73.0852920
20,Central Avenue,06098,41.9153442,-73.0502830
165,Wallens Street,06098,41.9292478,-73.0502090
6,Baker Street,06098,41.9292776,-73.0545706
I 5,Nanni Drive,06098,41.9352450,-73.0536140
40,Cherry Street,06098,41.9173059,-73.0763356
188,Glendale Avenue,06098,41.9205870,-73.0517781
72,Birdsall Street,06098,41.9175520,-73.0746051
29,Central Avenue,06098,41.9159728,-73.0500271
A 5,Nanni Drive,06098,41.9322976,-73.0550578
18,Cherry Street,06098,41.9171513,-73.0752998
37,Walnut Street,06098,41.9225484,-73.0633476
227,Rockwell Street,06098,41.9222293,-73.0793897
166,Boyd Street,06098,41.9245043,-73.0860098
38,Riveredge Drive,06098,41.9266765,-73.0583567
160,Oak Street,06098,41.9267013,-73.0627121
129,Ridge Street,06098,41.9203351,-73.0778162
83,Stanton Avenue,06098,41.9271441,-73.0557633
26;28,White Street,06098,41.9310931,-73.0566713
166,East Lake Street,06098,41.9210500,-73.0795815
341,Thomas Road,06098,41.9111185,-73.0865703
H 13,Nanni Drive,06098,41.9346497,-73.0537379
84,Meadow Street,06098,41.9276098,-73.0784198
55,Glendale Avenue,06098,41.9164066,-73.0519416
26,Thibault Avenue,06098,41.9223362,-73.0691602
113,Spencer Hill Road,06098,41.9386961,-73.0746423
360,Street Catherine Street,06098,41.9103554,-73.0881530
37,High Street,06098,41.9225420,-73.0737511
822,Main Street,06098,41.9281484,-73.0770886
28,Hubbard Street,06098,41.9269817,-73.0810510
27,Spencer Street,06098,41.9276155,-73.0759594
35,Grove Street,06098,41.9233860,-73.0621540
9,Baker Street,06098,41.9290511,-73.0541083
27,Prospect Street,06098,41.9199180,-73.0720109
130,Alpha Avenue,06098,41.9139257,-73.0847196
170,Glendale Avenue,06098,41.9198959,-73.0516218
24,Cherry Street,06098,41.9171581,-73.0755803
50,Morgan Drive,06098,41.9190996,-73.0943968
133,Holabird Avenue,06098,41.9243594,-73.0622686
235,Florence Street,06098,41.9267351,-73.0517191
69,Prospect Street,06098,41.9204596,-73.0743279
26;28,Case Avenue,06098,41.9222877,-73.0676366
99,Nalette Drive,06098,41.9198502,-73.0478968
177,Gilbert Avenue,06098,41.9258929,-73.0577493
136,Hinsdale Avenue,06098,41.9258273,-73.0698598
35,Woodruff Avenue,06098,41.9288786,-73.0576046
131,East Wakefield Boulevard,06098,41.9153660,-73.0809108
234,Oak Street,06098,41.9289247,-73.0619940
26,Bank Street,06098,41.9300883,-73.0631727
250,Perch Rock Trail,06098,41.9151045,-73.0895670
C 5,Nanni Drive,06098,41.9329855,-73.0541305
36,Colony Drive,06098,41.9183401,-73.0539578
15,Center Street,06098,41.9222735,-73.0696313
132,Ridge Street,06098,41.9207908,-73.0775291
74,Glendale Avenue,06098,41.9166200,-73.0509810
145,Old New Hartford Road,06098,41.9151040,-73.0538861
236,Pine Street,06098,41.9146157,-73.0867491
52,Pratt Street,06098,41.9179982,-73.0731460
L 9,Nanni Drive,06098,41.9327806,-73.0555432
30,Cherry Street,06098,41.9172170,-73.0758339
59,Cook Street,06098,41.9238129,-73.0857130
218,East Wakefield Boulevard,06098,41.9171089,-73.0857226
258,Holabird Avenue,06098,41.9223466,-73.0551534
20,Benton Street,06098,41.9237495,-73.0537277
143,Holabird Avenue,06098,41.9243224,-73.0619085
7,Gregory Street,06098,41.9314915,-73.0589741
142,Belvidere Avenue,06098,41.9159791,-73.0853912
144,Williams Avenue,06098,41.9285741,-73.0723114
319,Joan Road,06098,41.9138113,-73.0875251
142,Shore Drive,06098,41.9182104,-73.0823714
G 7,Nanni Drive,06098,41.9342471,-73.0529264
67,Stanton Avenue,06098,41.9275315,-73.0557197
37,Elm Street,06098,41.9225626,-73.0710244
503,North Main Street,06098,41.9454165,-73.0517433
19,Rock Street,06098,41.9233075,-73.0738301
251,Calos Way,06098,41.9148550,-73.0886837
27,Laurel Street,06098,41.9245607,-73.0841254
93,High Street,06098,41.9225601,-73.0712401
289,Walnut Street,06098,41.9317638,-73.0608452
165,Walnut Street,06098,41.9272886,-73.0620507
98,Meadow Street,06098,41.9278931,-73.0789240
143,Alpha Avenue,06098,41.9136856,-73.0856576
56,Walnut Street,06098,41.9235401,-73.0624621
76,East Mountain Avenue,06098,41.9274546,-73.0548077
43,Woodruff Avenue,06098,41.9285765,-73.0574446
144,Meadow Street,06098,41.9294181,-73.0795183
79,East Lake Street,06098,41.9184512,-73.0784726
G 1,Nanni Drive,06098,41.9339503,-73.0529333
161,Main Street,06098,41.9205967,-73.0637777
256,Perch Rock Trail,06098,41.9146889,-73.0897219
66,Bridge Street,06098,41.9188562,-73.0708002
110,Ridge Street,06098,41.9193553,-73.0769070
3,Hillside Place,06098,41.9234769,-73.0752559
108,Main Street,06098,41.9215699,-73.0619348
312,White Oak Trail,06098,41.9133435,-73.0852650
95,Colony Drive,06098,41.9211583,-73.0555034
160,Main Street,06098,41.9212793,-73.0637414
15,Riveredge Drive,06098,41.9297710,-73.0585269
155,Rockwell Street,06098,41.9207622,-73.0763748
218,Florence Street,06098,41.9263474,-73.0513271
74,Fruit Street,06098,41.9259705,-73.0661732
148,Wallens Street,06098,41.9288149,-73.0516092
44,Ridge Street,06098,41.9168743,-73.0761905
24,Kingsbury Avenue,06098,41.9153524,-73.0880842
111,Wallens Street,06098,41.9299323,-73.0532156
309,East Wakefield Boulevard,06098,41.9139575,-73.0887855
38,Pratt Street,06098,41.9186496,-73.0728942
109,West Wakefield Boulevard,06098,41.9218405,-73.0876187
252,Calos Way,06098,41.9152348,-73.0884392
142,Belvidere Avenue,06098,41.9150873,-73.0860953
120,East Lake Street,06098,41.9197352,-73.0784694
110,Glendale Avenue,06098,41.9178892,-73.0509891
111;109,Holabird Avenue,06098,41.9245222,-73.0634571
140,Stanton Avenue,06098,41.9246991,-73.0565073
165,Lake Street,06098,41.9230956,-73.0813160
356,Norwood Road,06098,41.9101157,-73.0877102
74,Wallens Street,06098,41.9296251,-73.0554983
59,Benton Street,06098,41.9250780,-73.0536944
40,Coe Street,06098,41.9328892,-73.0830224
225,Perch Rock Trail,06098,41.9154618,-73.0891402
22,Mountain View Terrace,06098,41.9325685,-73.0508654
329,Norcross Road,06098,41.9120608,-73.0879593
102,Shore Drive,06098,41.9159977,-73.0805750
86,Main Street,06098,41.9213257,-73.0613809
60,Orchard Street,06098,41.9181417,-73.0755623
145,Colony Drive,06098,41.9233619,-73.0570781
27,Wheeler Street,06098,41.9232376,-73.0712577
107,Shore Drive,06098,41.9162224,-73.0812518
175,Stanton Avenue,06098,41.9247638,-73.0560593
81,Elm Street,06098,41.9231491,-73.0704018
155,Spencer Street,06098,41.9318535,-73.0757623
51,Hubbard Street,06098,41.9278881,-73.0815706
3,Brookside Avenue,06098,41.9284656,-73.0748107
12,Curtice Street,06098,41.9268316,-73.0728259
183,Stanton Avenue,06098,41.9239126,-73.0561184
122,Wallens Street,06098,41.9281784,-73.0530221
416,Horne Avenue,06098,41.9352465,-73.0576876
F 7,Nanni Drive,06098,41.9336138,-73.0529739
42,Whiting Street,06098,41.9207959,-73.0576405
415,Horne Avenue,06098,41.9352732,-73.0581247
122,Shore Drive,06098,41.9173751,-73.0813825
F 12,Nanni Drive,06098,41.9338303,-73.0528731
102,Oakdale Avenue,06098,41.9193616,-73.0488662
275,Oak Street,06098,41.9308409,-73.0619917
28,Oak Street,06098,41.9219472,-73.0640332
105,Colony Drive,06098,41.9213358,-73.0556571
20,Oak Street,06098,41.9216460,-73.0642378
36,Riveredge Drive,06098,41.9291613,-73.0582227
265,Holabird Avenue,06098,41.9233368,-73.0548801
149,Oak Street,06098,41.9263695,-73.0633417
77,Hinsdale Avenue,06098,41.9265689,-73.0723133
131,Alpha Avenue,06098,41.9133805,-73.0840003
51,Strong Terrace,06098,41.9199879,-73.0568231
25,Chestnut Street,06098,41.9222445,-73.0657310
154,Mathew Road,06098,41.9154472,-73.0848337
119,Bayview Road,06098,41.9144716,-73.0838723
191,Glendale Avenue,06098,41.9207522,-73.0523971
176,Pratt Street,06098,41.9139635,-73.0743507
200,East Lake Street,06098,41.9219574,-73.0806152
522,Main Street,06098,41.9218033,-73.0739663
32,Woodland Avenue,06098,41.9249900,-73.0826471
19,Wetmore Avenue,06098,41.9268102,-73.0673258
26,Manchester Heights,06098,41.9331170,-73.0745490
69,Holabird Avenue,06098,41.9252944,-73.0656669
58,Coe Street,06098,41.9334760,-73.0831648
178,Shore Drive,06098,41.9162279,-73.0827867
184,Boyd Street,06098,41.9243593,-73.0870043
27,East Lake Street,06098,41.9166325,-73.0780814
244,Perch Rock Trail,06098,41.9156346,-73.0896123
101,Ridge Street,06098,41.9187645,-73.0772512
54,Upson Avenue,06098,41.9187695,-73.0720644
55,Walnut Street,06098,41.9236564,-73.0629874
145,West Wakefield Boulevard,06098,41.9187180,-73.0904081
173,Gilbert Avenue,06098,41.9253917,-73.0577177
66,Oak Street,06098,41.9232056,-73.0637898
450,Main Street,06098,41.9210711,-73.0723722
33,Baker Street,06098,41.9279551,-73.0544948
15,Boyd Street,06098,41.9249091,-73.0796435
127,White Oak Trail,06098,41.9132344,-73.0867244
99,Hinsdale Avenue,06098,41.9264040,-73.0707509
3,Crescent Street,06098,41.9267569,-73.0685005
143,Belvidere Avenue,06098,41.9146273,-73.0858429
21,Central Avenue,06098,41.9156084,-73.0505373
112,Sterling Trail,06098,41.9142815,-73.0809867
212,Glendale Avenue,06098,41.9213255,-73.0519558
216,Glendale Avenue,06098,41.9218785,-73.0519354
79,Holabird Avenue,06098,41.9253629,-73.0654709
116,East Wakefield Boulevard,06098,41.9144122,-73.0799153
29,Center Street,06098,41.9221746,-73.0692477
46,East Mountain Avenue,06098,41.9278141,-73.0564636
17,Front Street,06098,41.9274457,-73.0780261
25;27,Hicks Street,06098,41.9256614,-73.0540087
124,Meadow Street,06098,41.9287878,-73.0792838
111,Rockwell Street,06098,41.9198817,-73.0750936
56,Cottage Street,06098,41.9280416,-73.0641438
130,Vons Lane,06098,41.9184378,-73.0920071
95,Birdsall Street,06098,41.9166875,-73.0743272
36;40,Birdsall Street,06098,41.9187967,-73.0742116
122,Elm Street,06098,41.9242175,-73.0691943
360,Norwood Road,06098,41.9101208,-73.0880985
98,Stanton Avenue,06098,41.9264073,-73.0564420
106,Rockwell Street,06098,41.9199715,-73.0746445
380,Main Street,06098,41.9212735,-73.0703163
78,Overlook Road,06098,41.9188706,-73.0913612
24,Center Street,06098,41.9226534,-73.0692265
133,Williams Avenue,06098,41.9282133,-73.0732948
82,Crown Street,06098,41.9251257,-73.0733123
213,North Main Street,06098,41.9279934,-73.0596445
70,Walnut Street,06098,41.9246221,-73.0621720
24,Moore Avenue,06098,41.9135435,-73.0564358
119,North Main Street,06098,41.9247223,-73.0603749
143,Wallens Street,06098,41.9295715,-73.0519823
449,North Main Street,06098,41.9368054,-73.0562519
K 4,Nanni Drive,06098,41.9332700,-73.0547739
71,Ridge Street,06098,41.9179099,-73.0769922
6,Hamill Drive,06098,41.9221200,-73.0538610
A 3,Nanni Drive,06098,41.9322424,-73.0551675
32,Lewis Street,06098,41.9171869,-73.0714133
23;21,Greenwoods Avenue,06098,41.9229467,-73.0689170
274,Holabird Avenue,06098,41.9226026,-73.0531025
327,Sterling Trail,06098,41.9128034,-73.0804346
56,Park Place,06098,41.9225693,-73.0595141
140,Elm Street,06098,41.9248266,-73.0688761
52,Riveredge Drive,06098,41.9267195,-73.0586935
5,Royer Street,06098,41.9267267,-73.0544530
172,Wallens Street,06098,41.9286921,-73.0498672
260,Gilbert Avenue,06098,41.9283343,-73.0568810
133,East Mountain Avenue,06098,41.9273509,-73.0520409
154,Shore Drive,06098,41.9177467,-73.0829261
46,Beach Street,06098,41.9307459,-73.0612835
74,Oakdale Avenue,06098,41.9162273,-73.0502395
328,Norcross Road,06098,41.9124045,-73.0877647
75,Hillside Avenue,06098,41.9239412,-73.0738473
43,Case Avenue,06098,41.9227780,-73.0680301
229,Oak Street,06098,41.9290152,-73.0624592
76,Stanton Avenue,06098,41.9273402,-73.0563245
45,Allen Street,06098,41.9275150,-73.0640919
228,Boyd Street,06098,41.9233919,-73.0876935
323,Winchester Road,06098,41.9214275,-73.0916843
79,Front Street,06098,41.9293634,-73.0790186
114,East Wakefield Boulevard,06098,41.9156260,-73.0791029
157,East Lake Street,06098,41.9204729,-73.0797781
19,Hill Street,06098,41.9298635,-73.0657138
124,Bayview Road,06098,41.9142904,-73.0846085
83,Maloney Court,06098,41.9183186,-73.0531268
43,Colony Drive,06098,41.9191886,-73.0548170
63,Maloney Court,06098,41.9175842,-73.0528562
21,Perkins Street,06098,41.9242117,-73.0682762
26,Curtice Street,06098,41.9268052,-73.0720619
117,West Wakefield Boulevard,06098,41.9206468,-73.0887218
518,Main Street,06098,41.9217469,-73.0738956
129,West Wakefield Boulevard,06098,41.9197371,-73.0891893
179,Gilbert Avenue,06098,41.9260906,-73.0577317
160,Hinsdale Avenue,06098,41.9258585,-73.0692453
65,Mountain Avenue,06098,41.9289019,-73.0654118
10,Hurlbut Street,06098,41.9158738,-73.0738942
81,Manchester Heights,06098,41.9345477,-73.0750433
258,Oak Street,06098,41.9298155,-73.0616441
936,Main Street,06098,41.9316988,-73.0796481
K 2,Nanni Drive,06098,41.9333599,-73.0547065
76,East Lake Street,06098,41.9181702,-73.0777560
349,West Lake Street,06098,41.9229612,-73.0871143
118,Bayview Road,06098,41.9147720,-73.0842552
26,Orchard Street,06098,41.9192884,-73.0757760
115,Spencer Street,06098,41.9308308,-73.0766975
63,Birdsall Street,06098,41.9177252,-73.0740318
95;97,Elm Street,06098,41.9236912,-73.0700960
144,Boyd Street,06098,41.9248743,-73.0852786
80,Elm Street,06098,41.9230102,-73.0700228
323,Norcross Road,06098,41.9118796,-73.0870925
91,Elm Street,06098,41.9235680,-73.0700682
75,Walnut Street,06098,41.9249275,-73.0626244
268,Walnut Street,06098,41.9308640,-73.0600804
248,Perch Rock Trail,06098,41.9152753,-73.0895958
335,East Wakefield Boulevard,06098,41.9129149,-73.0889040
139,Shore Drive,06098,41.9170874,-73.0823544
A 10,Nanni Drive,06098,41.9323957,-73.0547663
87,Elm Street,06098,41.9233170,-73.0703403
21,Fairview Avenue,06098,41.9231056,-73.0720419
133,Shore Drive,06098,41.9175401,-73.0824067
137,Gilbert Avenue,06098,41.9241997,-73.0578574
142,Colony Drive,06098,41.9229166,-73.0560251
261,Oak Street,06098,41.9301883,-73.0619895
170,Walnut Street,06098,41.9273033,-73.0611686
210,Walnut Street,06098,41.9284441,-73.0606472
81,Hillside Avenue,06098,41.9237949,-73.0741280
115,Meadow Street,06098,41.9283341,-73.0799559
237,Walnut Street,06098,41.9297210,-73.0609234
131,West Wakefield Boulevard,06098,41.9196587,-73.0892977
L 4,Nanni Drive,06098,41.9328726,-73.0552379
10,Bridge Street,06098,41.9205688,-73.0711524
150,East Wakefield Boulevard,06098,41.9157758,-73.0834198
106,Alpha Avenue,06098,41.9139845,-73.0814282
132,Williams Avenue,06098,41.9282199,-73.0724928
18,Strong Terrace,06098,41.9186498,-73.0560549
105,Rockwell Street,06098,41.9197493,-73.0749040
91,Spencer Hill Road,06098,41.9348170,-73.0738407
211,Rockwell Street,06098,41.9217924,-73.0780411
318,White Oak Trail,06098,41.9134521,-73.0858611
12,Union Street,06098,41.9213333,-73.0720234
174,Main Street,06098,41.9211803,-73.0643503
22,Riveredge Drive,06098,41.9297780,-73.0580191
236,Rockwell Street,06098,41.9228210,-73.0791798
6,Hubbard Street,06098,41.9262633,-73.0810308
150,Oak Street,06098,41.9262802,-73.0628741
243,Oak Street,06098,41.9295258,-73.0622602
26,Glendale Avenue,06098,41.9155705,-73.0523981
75,East Lake Street,06098,41.9181583,-73.0782993
109,West Wakefield Boulevard,06098,41.9219315,-73.0876321
168,Mathew Road,06098,41.9143703,-73.0855266
161,East Wakefield Boulevard,06098,41.9160038,-73.0845086
167,Glendale Avenue,06098,41.9196220,-73.0520317
85,Hillside Avenue,06098,41.9235588,-73.0740971
47,Hurlbut Street,06098,41.9147384,-73.0752447
39,Finn Street,06098,41.9178827,-73.0762210
10,Center Street,06098,41.9213530,-73.0701800
180,Florence Street,06098,41.9247858,-73.0518272
153,Wallens Street,06098,41.9290178,-73.0515957
212,Gilbert Avenue,06098,41.9267593,-73.0571475
352,Street Catherine Street,06098,41.9110847,-73.0879724
259;261,Walnut Street,06098,41.9306112,-73.0606108
99,Waldron Street,06098,41.9250366,-73.0552522
52,Coe Street,06098,41.9332253,-73.0831130
223,Perch Rock Trail,06098,41.9157285,-73.0889606
17,Mountain View Terrace,06098,41.9331931,-73.0522832
126,East Wakefield Boulevard,06098,41.9157372,-73.0802640
12,Superior Street,06098,41.9212048,-73.0792970
121,Vons Lane,06098,41.9184350,-73.0926694
141,Lake Street,06098,41.9237335,-73.0806958
162,Wilcox Avenue,06098,41.9165076,-73.0817727
130,Stanton Avenue,06098,41.9253964,-73.0565061
277,West Lake Street,06098,41.9227833,-73.0840582
804,Main Street,06098,41.9272418,-73.0764404
205,Walnut Street,06098,41.9286353,-73.0614075
72,Waldron Street,06098,41.9239365,-73.0549683
175,Wallens Street,06098,41.9290423,-73.0490079
6,Brook Street,06098,41.9330750,-73.0583554
F 5,Nanni Drive,06098,41.9336118,-73.0530998
103,Prospect Street,06098,41.9213523,-73.0752926
30,South Main Street,06098,41.9183625,-73.0571994
145,Shore Drive,06098,41.9166693,-73.0823263
C 3,Nanni Drive,06098,41.9328905,-73.0541665
78;80,Rockwell Street,06098,41.9193894,-73.0731889
124,Birdsall Street,06098,41.9156022,-73.0751486
32,Oak Street,06098,41.9222242,-73.0640547
342,Demonstranti Road,06098,41.9126495,-73.0852459
16,Chestnut Street,06098,41.9219095,-73.0654351
188,East Lake Street,06098,41.9215587,-73.0801335
26,Riveredge Drive,06098,41.9293784,-73.0581933
150,Stanton Avenue,06098,41.9243768,-73.0565366
94,Stanton Avenue,06098,41.9266191,-73.0564217
5,Hillside Avenue,06098,41.9264536,-73.0742716
129,White Oak Trail,06098,41.9133933,-73.0879300
158,Mathew Road,06098,41.9151648,-73.0850191
11;7,Lake Street,06098,41.9236189,-73.0769431
163,Mathew Road,06098,41.9146750,-73.0847969
159,Lincoln Avenue,06098,41.9146135,-73.0833077
106,Oakdale Avenue,06098,41.9208494,-73.0490362
508,Main Street,06098,41.9222001,-73.0733093
19,Chestnut Street,06098,41.9221190,-73.0657506
936,Main Street,06098,41.9314836,-73.0804026
143,Hinsdale Avenue,06098,41.9265414,-73.0690577
25,Hubbard Street,06098,41.9268148,-73.0815127
139,North Main Street,06098,41.9255342,-73.0600545
172,Shore Drive,06098,41.9167898,-73.0828438
10,Maple Street,06098,41.9196448,-73.0701392
211,Gilbert Avenue,06098,41.9267926,-73.0577516
207,Perch Rock Trail,06098,41.9165177,-73.0867786
161,Mathew Road,06098,41.9147719,-73.0846492
139,Glendale Avenue,06098,41.9187121,-73.0517712
120,Moore Avenue,06098,41.9106585,-73.0594028
230,Boyd Street,06098,41.9231528,-73.0878437
81,Oak Street,06098,41.9239679,-73.0640146
128,West Wakefield Boulevard,06098,41.9196399,-73.0888076
128,Stanton Avenue,06098,41.9255685,-73.0565099
30,Bridge Street,06098,41.9198491,-73.0708764
82;84,Rockwell Street,06098,41.9194753,-73.0733226
59,Hubbard Street,06098,41.9281487,-73.0816053
69,Walnut Street,06098,41.9246714,-73.0626989
117,East Mountain Avenue,06098,41.9274673,-73.0528647
113,Elm Street,06098,41.9240419,-73.0698092
30,Mountain Avenue,06098,41.9290376,-73.0637958
G 5,Nanni Drive,06098,41.9341504,-73.0529381
350,Main Street,06098,41.9213629,-73.0692749
163,Main Street,06098,41.9208040,-73.0638726
85,East Lake Street,06098,41.9181289,-73.0794480
L 2,Nanni Drive,06098,41.9328948,-73.0551031
137,Maloney Court,06098,41.9202445,-73.0533310
8,Colony Drive,06098,41.9170390,-73.0536115
53,Center Street,06098,41.9222587,-73.0681319
311,Winchester Road,06098,41.9220237,-73.0898141
54,Hillside Avenue,06098,41.9245962,-73.0748082
48,Riveredge Drive,06098,41.9267045,-73.0585815
63,Overlook Road,06098,41.9198183,-73.0906674
17,Allen Street,06098,41.9265340,-73.0644090
43,Mountain Avenue,06098,41.9287534,-73.0642955
202,Wallens Street,06098,41.9284903,-73.0485952
135,Belvidere Avenue,06098,41.9154727,-73.0852268
22,Pratt Street,06098,41.9193776,-73.0726546
22,Oakdale Avenue,06098,41.9148016,-73.0520489
135,Carey Avenue,06098,41.9143219,-73.0815896
10,Thibault Avenue,06098,41.9224619,-73.0698576
61,Wheeler Street,06098,41.9245249,-73.0709520
189,North Main Street,06098,41.9272330,-73.0596807
320,Norcross Road,06098,41.9122400,-73.0868092
152,Pratt Street,06098,41.9147949,-73.0741457
33,Chestnut Street,06098,41.9225673,-73.0657794
75,Meadow Street,06098,41.9270249,-73.0792092
160,Walnut Street,06098,41.9269878,-73.0610961
39,Adams Street,06098,41.9275320,-73.0666931
88,Munro Place,06098,41.9256415,-73.0738094
199,Wallens Street,06098,41.9289742,-73.0485584
94,Rockwell Street,06098,41.9197832,-73.0741992
84,Stanton Avenue,06098,41.9271651,-73.0564828
177,Rowley Street,06098,41.9127451,-73.0638850
25,Lovely Street,06098,41.9167024,-73.0719399
188,Pratt Street,06098,41.9132298,-73.0746094
220,Girard Avenue,06098,41.9246813,-73.0895522
84,High Street,06098,41.9227345,-73.0715459
64,Hillside Avenue,06098,41.9241865,-73.0747228
93,Wetmore Avenue,06098,41.9260326,-73.0634748
57,Strong Terrace,06098,41.9202302,-73.0568400
500,Main Street,06098,41.9216104,-73.0735166
53,Colony Drive,06098,41.9196269,-73.0549476
30,Rowley Street,06098,41.9199763,-73.0625311
210,Oak Street,06098,41.9283309,-73.0622862
32,Lake Street,06098,41.9250012,-73.0777051
225,North Main Street,06098,41.9284895,-73.0598703
128,Elm Street,06098,41.9244372,-73.0690664
171,Rowley Street,06098,41.9138181,-73.0632011
157,Wallens Street,06098,41.9294358,-73.0511556
49,Bank Street,06098,41.9298108,-73.0643780
G 8,Nanni Drive,06098,41.9343004,-73.0529295
68,Maloney Court,06098,41.9178156,-73.0524305
202,Glendale Avenue,06098,41.9210412,-73.0519119
17,Strong Terrace,06098,41.9186993,-73.0566970
67,Glendale Avenue,06098,41.9166281,-73.0516750
42,Torringford Street,06098,41.9140783,-73.0557095
J 2,Nanni Drive,06098,41.9346322,-73.0541780
66;68,John Street,06098,41.9279122,-73.0823231
10,Lewis Street,06098,41.9174303,-73.0726285
46;48,Rock Street,06098,41.9231686,-73.0726674
276,Main Street,06098,41.9231891,-73.0664461
47,Case Avenue,06098,41.9228991,-73.0680104
240,Holabird Avenue,06098,41.9233144,-73.0568249
74,Walnut Street,06098,41.9248149,-73.0621271
122,Gilbert Avenue,06098,41.9229713,-73.0573513
15,Royer Street,06098,41.9266479,-73.0540301
243,Florence Street,06098,41.9276939,-73.0514306
6,Hillside Avenue,06098,41.9265820,-73.0748285
50,Stanton Avenue,06098,41.9284508,-73.0561826
170,Shore Drive,06098,41.9169274,-73.0828270
336,Norwood Road,06098,41.9117474,-73.0861112
15,Brookside Avenue,06098,41.9294721,-73.0746737
28,Moore Avenue,06098,41.9131464,-73.0569134
136,Alpha Avenue,06098,41.9140115,-73.0853374
331,West Lake Street,06098,41.9229920,-73.0866019
363,East Wakefield Boulevard,06098,41.9110431,-73.0883740
29,Benton Street,06098,41.9241151,-73.0540291
65,Elm Street,06098,41.9226345,-73.0706246
37,Bank Street,06098,41.9297297,-73.0638078
72,Meadow Street,06098,41.9270633,-73.0785717
55,East Mountain Avenue,06098,41.9278980,-73.0554654
61,Rock Street,06098,41.9235419,-73.0722010
G 4,Nanni Drive,06098,41.9341061,-73.0529216
135,Willow Street,06098,41.9205786,-73.0660576
102,Alpha Avenue,06098,41.9139887,-73.0810582
486,Main Street,06098,41.9210909,-73.0730008
61,Birdsall Street,06098,41.9178994,-73.0739957
62,Colony Drive,06098,41.9194122,-73.0543092
33,Lewis Street,06098,41.9174798,-73.0712904
214,Wallens Hill Road,06098,41.9291051,-73.0450261
143,Boyd Street,06098,41.9245150,-73.0851243
124,Rockwell Street,06098,41.9204113,-73.0752860
331,Winchester Road,06098,41.9203886,-73.0933562
560,Main Street,06098,41.9222352,-73.0745642
18,Hamill Drive,06098,41.9209420,-73.0536871
182,Florence Street,06098,41.9254523,-73.0509681
1,Woodland Avenue,06098,41.9257388,-73.0814996
123,Meadow Street,06098,41.9286484,-73.0800262
135,East Wakefield Boulevard,06098,41.9153904,-73.0814152
335,North Main Street,06098,41.9322086,-73.0585364
17,Wallens Hill Road,06098,41.9299055,-73.0450112
H 9,Nanni Drive,06098,41.9347950,-73.0535258
76,Bridge Street,06098,41.9184564,-73.0707336
80,Spencer Hill Road,06098,41.9325753,-73.0735529
430,Main Street,06098,41.9213135,-73.0716368
134,Carey Avenue,06098,41.9142275,-73.0828259
244,East Wakefield Boulevard,06098,41.9145171,-73.0886898
140,Belvidere Avenue,06098,41.9152074,-73.0860095
63,Holmes Drive,06098,41.9188273,-73.0937094
135;137,Elm Street,06098,41.9247720,-73.0695558
169,Prospect Street,06098,41.9228154,-73.0772634
331,Thomas Road,06098,41.9124993,-73.0862937
7,Grove Street,06098,41.9236250,-73.0634400
20,Holabird Avenue,06098,41.9249944,-73.0680071
22,Coe Street,06098,41.9321198,-73.0827255
224,Perch Rock Trail,06098,41.9165895,-73.0881896
14,Mountain View Terrace,06098,41.9330589,-73.0531287
124,Shore Drive,06098,41.9174993,-73.0813968
H 1,Nanni Drive,06098,41.9350747,-73.0531313
152,East Lake Street,06098,41.9204281,-73.0790104
98,North Main Street,06098,41.9234664,-73.0597445
156,East Wakefield Boulevard,06098,41.9160030,-73.0837462
117,Holabird Avenue,06098,41.9244640,-73.0632340
43,Walnut Street,06098,41.9229617,-73.0632531
133,Wallens Street,06098,41.9305056,-73.0513473
116,East Mountain Avenue,06098,41.9267064,-73.0542016
75,John Street,06098,41.9275974,-73.0826711
37,Baker Street,06098,41.9283440,-73.0542790
155,Alpha Avenue,06098,41.9139108,-73.0868685
35,Cook Street,06098,41.9238282,-73.0848670
91,East Lake Street,06098,41.9186423,-73.0794435
266,Gilbert Avenue,06098,41.9285692,-73.0568673
954,Main Street,06098,41.9315615,-73.0815311
25,Stanton Avenue,06098,41.9292407,-73.0555051
E 6,Nanni Drive,06098,41.9338942,-73.0534234
135,Ridge Street,06098,41.9208208,-73.0782615
60,Hurlbut Street,06098,41.9155053,-73.0758356
212,Perch Rock Trail,06098,41.9168992,-73.0868946
112,Alpha Avenue,06098,41.9138499,-73.0821393
67,Wheeler Street,06098,41.9247792,-73.0709194
106,Ridge Street,06098,41.9191098,-73.0768855
99,Rockwell Street,06098,41.9195918,-73.0746913
39,Orchard Street,06098,41.9194347,-73.0748916
12,Cornelio Avenue,06098,41.9217478,-73.0663401
323,White Oak Trail,06098,41.9131462,-73.0863828
140,Rockwell Street,06098,41.9209528,-73.0756198
201,Rockwell Street,06098,41.9213175,-73.0775930
19,Riveredge Drive,06098,41.9296767,-73.0585003
31,Chestnut Street,06098,41.9224136,-73.0657204
11,Munro Street,06098,41.9261065,-73.0777468
60,Hinsdale Avenue,06098,41.9262986,-73.0732918
88,Spencer Street,06098,41.9295326,-73.0754810
13,Colony Drive,06098,41.9173189,-73.0542826
122,East Wakefield Boulevard,06098,41.9156794,-73.0798074
322,White Oak Trail,06098,41.9134814,-73.0863089
128,Florence Street,06098,41.9227581,-73.0505689
82,Maloney Court,06098,41.9186199,-73.0526508
493,North Main Street,06098,41.9442099,-73.0525460
226,East Wakefield Boulevard,06098,41.9156378,-73.0872297
233,East Wakefield Boulevard,06098,41.9150491,-73.0873027
86,Colony Drive,06098,41.9204622,-73.0546150
125,Glendale Avenue,06098,41.9182487,-73.0516235
165;163,Elm Street,06098,41.9256027,-73.0691410
214,Girard Avenue,06098,41.9240410,-73.0878745
195,Old New Hartford Road,06098,41.9135275,-73.0472362
73,Hinsdale Avenue,06098,41.9265899,-73.0724706
98,Spencer Street,06098,41.9297951,-73.0754897
40,Hillside Avenue,06098,41.9251650,-73.0750383
206,East Wakefield Boulevard,06098,41.9169383,-73.0846617
20,Mountain View Terrace,06098,41.9327921,-73.0513296
106,Shore Drive,06098,41.9162226,-73.0807359
227,Perch Rock Trail,06098,41.9152099,-73.0889434
14,Cedar Road,06098,41.9186443,-73.0522300
33,Wheeler Street,06098,41.9236073,-73.0710722
224,East Wakefield Boulevard,06098,41.9158989,-73.0868590
99,Holabird Avenue,06098,41.9246976,-73.0642627
228,Holabird Avenue,06098,41.9231819,-73.0573905
60;62,Upson Avenue,06098,41.9187304,-73.0734112
2,Adams Street,06098,41.9276773,-73.0651860
139,Boyd Street,06098,41.9246770,-73.0848513
191,Oak Street,06098,41.9276265,-73.0630333
43,Wheeler Street,06098,41.9239312,-73.0710027
220,Walnut Street,06098,41.9289685,-73.0605755
415,North Main Street,06098,41.9349568,-73.0573005
D 3,Nanni Drive,06098,41.9335598,-73.0538554
100,Colony Drive,06098,41.9211794,-73.0548184
100,Glendale Avenue,06098,41.9176076,-73.0509083
140,Old North Road,06098,41.9406586,-73.0486833
207,East Wakefield Boulevard,06098,41.9163096,-73.0858207
A 8,Nanni Drive,06098,41.9323563,-73.0548728
159,Glendale Avenue,06098,41.9193872,-73.0519617
19,Center Street,06098,41.9221407,-73.0697104
358,Demonstranti Road,06098,41.9129093,-73.0866920
30,Oak Street,06098,41.9221069,-73.0641276
205,Glendale Avenue,06098,41.9215138,-73.0526282
29,Riveredge Drive,06098,41.9277548,-73.0586115
52,Meadow Street,06098,41.9264596,-73.0783280
332,East Wakefield Boulevard,06098,41.9127554,-73.0894482
200,East Wakefield Boulevard,06098,41.9166435,-73.0848714
28,Rockwell Street,06098,41.9193136,-73.0707856
10,Lake Street,06098,41.9243966,-73.0770060
8,South Main Street,06098,41.9187506,-73.0575336
106,Ann Street,06098,41.9150097,-73.0819561
151,Main Street,06098,41.9204120,-73.0634974
322,Joan Road,06098,41.9140047,-73.0881368
123,Colony Drive,06098,41.9218776,-73.0560845
185,North Main Street,06098,41.9270835,-73.0601399
35,Hinsdale Avenue,06098,41.9269063,-73.0743469
411,North Main Street,06098,41.9348068,-73.0572159
123,Boyd Street,06098,41.9253709,-73.0835636
154,East Wakefield Boulevard,06098,41.9158669,-73.0837047
18,Pratt Street,06098,41.9195320,-73.0726241
143,North Main Street,06098,41.9258268,-73.0601359
232,East Wakefield Boulevard,06098,41.9154059,-73.0875747
103,Shore Drive,06098,41.9157646,-73.0810527
68,Upson Avenue,06098,41.9187789,-73.0738049
50,Fruit Street,06098,41.9246732,-73.0661189
41,Perkins Street,06098,41.9241436,-73.0672960
139,West Wakefield Boulevard,06098,41.9191651,-73.0899909
90,Boyd Street,06098,41.9259907,-73.0827419
100,Rockwell Street,06098,41.9198497,-73.0744249
58,Main Street,06098,41.9213291,-73.0605930
112,Birdsall Street,06098,41.9162919,-73.0748786
202,Oak Street,06098,41.9280756,-73.0623892
32,Holabird Avenue,06098,41.9249067,-73.0673833
36,Spencer Street,06098,41.9277473,-73.0753853
60,Hillside Avenue,06098,41.9244249,-73.0747540
42,Upland Road,06098,41.9293919,-73.0776910
I 11,Nanni Drive,06098,41.9350405,-73.0539291
21,Colony Drive,06098,41.9177411,-73.0544405
66,Prospect Street,06098,41.9205013,-73.0739464
141,Vons Lane,06098,41.9179783,-73.0922367
104,Ann Street,06098,41.9151211,-73.0818381
L 3,Nanni Drive,06098,41.9328917,-73.0551712
29,Prospect Street,06098,41.9196002,-73.0721247
131,Ridge Street,06098,41.9204808,-73.0779153
11,Cherry Street,06098,41.9167926,-73.0755101
220,East Lake Street,06098,41.9224894,-73.0811901
33,High Street,06098,41.9225588,-73.0740146
158,Boyd Street,06098,41.9246404,-73.0857632
35,Riveredge Drive,06098,41.9275964,-73.0586355
359,East Wakefield Boulevard,06098,41.9112170,-73.0884501
159,Oak Street,06098,41.9267411,-73.0632275
324,East Wakefield Boulevard,06098,41.9133428,-73.0897668
249,Rockwell Street,06098,41.9228047,-73.0802513
340,Norwood Road,06098,41.9110920,-73.0862132
66,Palmer Avenue,06098,41.9146992,-73.0512933
127,Carey Avenue,06098,41.9147813,-73.0808332
34,Rock Street,06098,41.9230308,-73.0730994
201,Stowe Road,06098,41.9240841,-73.0453475
323,East Wakefield Boulevard,06098,41.9133723,-73.0889838
130,Colony Drive,06098,41.9224187,-73.0559288
85,Crescent Street,06098,41.9290375,-73.0659667
35,Allen Street,06098,41.9270854,-73.0642326
41,Hubbard Street,06098,41.9273668,-73.0815435
447,North Main Street,06098,41.9363506,-73.0564996
76,Woodland Avenue,06098,41.9235104,-73.0836838
12,Upland Road,06098,41.9290659,-73.0763415
19,Rowley Street,06098,41.9200028,-73.0608988
12,Baker Street,06098,41.9287532,-73.0548542
127,Bayview Road,06098,41.9137525,-73.0843097
19,Finn Street,06098,41.9177642,-73.0753399
11,Cedar Road,06098,41.9190214,-73.0524915
122,Birdsall Street,06098,41.9159203,-73.0749401
13,Perkins Street,06098,41.9241963,-73.0688404
68,Hinsdale Avenue,06098,41.9262477,-73.0728006
333,Winchester Road,06098,41.9202985,-73.0940197
372,Main Street,06098,41.9213600,-73.0700419
67,Holmes Drive,06098,41.9184985,-73.0937298
72,Wetmore Avenue,06098,41.9259111,-73.0649587
131,Stanton Avenue,06098,41.9253578,-73.0559222
60,Cottage Street,06098,41.9282461,-73.0646178
15,Laurel Street,06098,41.9244759,-73.0837431
145,East Wakefield Boulevard,06098,41.9151144,-73.0823739
83,Wallens Street,06098,41.9299618,-73.0547476
240,Walnut Street,06098,41.9296830,-73.0604322
131,Shore Drive,06098,41.9176729,-73.0824892
H 4,Nanni Drive,06098,41.9349753,-73.0532924
66,East Lake Street,06098,41.9178829,-73.0776705
90,Whiting Street,06098,41.9225799,-73.0579117
2,Colony Drive,06098,41.9165655,-73.0530298
186,Pratt Street,06098,41.9134169,-73.0747444
47,Orchard Street,06098,41.9185801,-73.0752820
43,Chestnut Street,06098,41.9229682,-73.0652485
66,Maloney Court,06098,41.9176015,-73.0523926
37;39,Chestnut Street,06098,41.9227248,-73.0657496
596,Main Street,06098,41.9227284,-73.0749545
332,Tiffany Road,06098,41.9124485,-73.0840015
84,Gay Street,06098,41.9227846,-73.0661184
108,Lake Street,06098,41.9249020,-73.0804926
199,Walnut Street,06098,41.9283955,-73.0613147
26,Hubbard Street,06098,41.9268636,-73.0810410
218,Perch Rock Trail,06098,41.9167670,-73.0876969
4,Moore Avenue,06098,41.9138738,-73.0558898
275,Walnut Street,06098,41.9311490,-73.0604884
158,Shore Drive,06098,41.9175144,-73.0829396
353,Street Catherine Street,06098,41.9106540,-73.0875430
G 2,Nanni Drive,06098,41.9340036,-73.0529363
125,East Mountain Avenue,06098,41.9274485,-73.0524093
45,Glendale Avenue,06098,41.9161319,-73.0523474
100,Battistoni Drive,06098,41.9152045,-73.0477852
170,East Wakefield Boulevard,06098,41.9167358,-73.0845667
14,Perkins Street,06098,41.9238723,-73.0686488
54,Oak Street,06098,41.9228802,-73.0639112
118,Wallens Street,06098,41.9293073,-73.0533891
149,East Mountain Avenue,06098,41.9272894,-73.0514727
104,Meadow Street,06098,41.9281215,-73.0790051
83,Hillside Avenue,06098,41.9236716,-73.0741214
200,Alpha Avenue,06098,41.9143797,-73.0869358
249,Oak Street,06098,41.9298347,-73.0623855
B 10,Nanni Drive,06098,41.9325955,-73.0540436
153,East Lake Street,06098,41.9202724,-73.0796606
60,Mountain Avenue,06098,41.9293743,-73.0651448
221,Perch Rock Trail,06098,41.9158150,-73.0887159
147,Carey Avenue,06098,41.9138064,-73.0826403
12,Finn Street,06098,41.9179724,-73.0747796
66,Colony Drive,06098,41.9196138,-73.0543728
59,Maloney Court,06098,41.9173694,-73.0528119
174,Boyd Street,06098,41.9243043,-73.0862874
320,White Oak Trail,06098,41.9134824,-73.0860377
135,Rockwell Street,06098,41.9205643,-73.0761645
159,East Lake Street,06098,41.9206943,-73.0798566
11,Riveredge Drive,06098,41.9298371,-73.0584988
8,Hamill Drive,06098,41.9219195,-73.0537887
56,Wetmore Avenue,06098,41.9257842,-73.0658919
74,Boyd Street,06098,41.9260763,-73.0814792
240,Oak Street,06098,41.9292889,-73.0618842
23,Ridge Street,06098,41.9158532,-73.0764808
45,Beach Street,06098,41.9304602,-73.0613891
936,Main Street,06098,41.9317461,-73.0801773
47,Upson Avenue,06098,41.9183167,-73.0729838
22,Stanton Avenue,06098,41.9293946,-73.0559697
200,Birch Street,06098,41.9155404,-73.0863407
101,Oakdale Avenue,06098,41.9191573,-73.0497694
342,East Wakefield Boulevard,06098,41.9123312,-73.0891166
51,Pratt Street,06098,41.9179744,-73.0726286
145;147,Elm Street,06098,41.9251005,-73.0694303
105,Shore Drive,06098,41.9159565,-73.0810825
49,Walnut Street,06098,41.9232523,-73.0631212
43,Bank Street,06098,41.9297719,-73.0640868
95,Holabird Avenue,06098,41.9249107,-73.0644685
942,Main Street,06098,41.9313494,-73.0808348
234,Perch Rock Trail,06098,41.9161185,-73.0889675
363,Demonstranti Road,06098,41.9127872,-73.0881951
146,Old North Road,06098,41.9386154,-73.0407561
136,Shore Drive,06098,41.9181569,-73.0818822
27,Royer Street,06098,41.9265853,-73.0536581
51,Wallens Street,06098,41.9302049,-73.0561338
62;64,Fruit Street,06098,41.9256458,-73.0662686
411,Horne Avenue,06098,41.9351184,-73.0581917
214,Perch Rock Trail,06098,41.9168509,-73.0871821
204,Stowe Road,06098,41.9228070,-73.0474603
55,East Lake Street,06098,41.9176387,-73.0782257
203,Perch Rock Trail,06098,41.9165358,-73.0863115
31,Colony Drive,06098,41.9185480,-73.0546620
134,Holabird Avenue,06098,41.9239781,-73.0623861
140,East Wakefield Boulevard,06098,41.9158210,-73.0822891
78,Wetmore Avenue,06098,41.9258705,-73.0647495
27,Fairview Avenue,06098,41.9231292,-73.0716622
22,Baker Street,06098,41.9278807,-73.0550026
95,Lake Street,06098,41.9245558,-73.0796620
5,Crescent Street,06098,41.9271208,-73.0682782
287,Rockwell Street,06098,41.9240637,-73.0805588
228,Walnut Street,06098,41.9292027,-73.0605524
102,Old North Road,06098,41.9450493,-73.0487187
E 5,Nanni Drive,06098,41.9339475,-73.0534270
7,Chestnut Street,06098,41.9216263,-73.0658133
61,Colony Drive,06098,41.9200400,-73.0550563
155,Mathew Road,06098,41.9151895,-73.0844412
D 4,Nanni Drive,06098,41.9336096,-73.0538298
33,Ridge Street,06098,41.9163509,-73.0765221
24,Case Avenue,06098,41.9221695,-73.0677149
115,Prospect Street,06098,41.9217490,-73.0756583
21,Cornelio Avenue,06098,41.9219140,-73.0659936
33,Riveredge Drive,06098,41.9276402,-73.0586516
21,Hubbard Street,06098,41.9265615,-73.0814730
4,Goodwin Street,06098,41.9280335,-73.0501294
133,Belvidere Avenue,06098,41.9156202,-73.0851168
71,Rockwell Street,06098,41.9190406,-73.0728956
215,East Wakefield Boulevard,06098,41.9160432,-73.0861644
103,Ann Street,06098,41.9152252,-73.0813500
21,Oak Street,06098,41.9215239,-73.0647594
28,Meadow Street,06098,41.9262493,-73.0782097
328,Joan Road,06098,41.9136280,-73.0886353
53,Park Place,06098,41.9223797,-73.0606101
165;167,North Main Street,06098,41.9264022,-73.0598810
93,Williams Avenue,06098,41.9269847,-73.0734540
89,Spencer Hill Road,06098,41.9331119,-73.0738176
121,Boyd Street,06098,41.9254469,-73.0833271
151,Williams Avenue,06098,41.9288147,-73.0729303
133,East Lake Street,06098,41.9195779,-73.0800040
61,Cherry Street,06098,41.9168825,-73.0774872
104,Ridge Street,06098,41.9188897,-73.0768150
181,Stanton Avenue,06098,41.9241024,-73.0560732
114,Boyd Street,06098,41.9256882,-73.0838450
119,Rockwell Street,06098,41.9200921,-73.0753727
9,Union Street,06098,41.9212822,-73.0725237
44,John Street,06098,41.9279382,-73.0811220
151,Elm Street,06098,41.9252813,-73.0692823
59,Stanton Avenue,06098,41.9282121,-73.0556812
17,Perkins Street,06098,41.9241908,-73.0686883
22,Glendale Avenue,06098,41.9150911,-73.0530688
62,Wetmore Avenue,06098,41.9259842,-73.0655002
307,White Oak Trail,06098,41.9128516,-73.0848401
95,Hubbard Street,06098,41.9293350,-73.0817422
G 3,Nanni Drive,06098,41.9340528,-73.0529186
72,Pratt Street,06098,41.9174040,-73.0733214
71,Colony Drive,06098,41.9205253,-73.0552047
87,Birdsall Street,06098,41.9169949,-73.0740789
33,Central Avenue,06098,41.9161288,-73.0498237
I 7,Nanni Drive,06098,41.9351858,-73.0537169
120,Rockwell Street,06098,41.9202857,-73.0751187
228,East Lake Street,06098,41.9229999,-73.0807784
75,High Street,06098,41.9226313,-73.0721215
72,Elm Street,06098,41.9228745,-73.0700288
136,Elm Street,06098,41.9246167,-73.0689696
42,Riveredge Drive,06098,41.9267010,-73.0584087
95,Hinsdale Avenue,06098,41.9264888,-73.0713422
90,Hillside Avenue,06098,41.9239655,-73.0745901
158,East Lake Street,06098,41.9205859,-73.0790530
335,Thomas Road,06098,41.9120304,-73.0864221
H 3,Nanni Drive,06098,41.9350132,-73.0532420
64,Glendale Avenue,06098,41.9163985,-73.0512771
307,Winchester Road,06098,41.9219817,-73.0885889
455,North Main Street,06098,41.9374561,-73.0558944
358,Norwood Road,06098,41.9100756,-73.0880020
31,Hurlbut Street,06098,41.9152185,-73.0743423
216,East Lake Street,06098,41.9223462,-73.0810808
34,Mountain Avenue,06098,41.9290280,-73.0640224
23;25,Wetmore Avenue,06098,41.9267646,-73.0671312
91,East Mountain Avenue,06098,41.9277053,-73.0545127
45;49,Grove Street,06098,41.9233329,-73.0616721
150,Wallens Street,06098,41.9289623,-73.0514075
11,Birdsall Street,06098,41.9199206,-73.0733438
39,Woodland Avenue,06098,41.9246090,-73.0822307
266,Perch Rock Trail,06098,41.9139649,-73.0898422
140,Carey Avenue,06098,41.9136879,-73.0838300
81,Birdsall Street,06098,41.9172038,-73.0741863
50,Woodland Avenue,06098,41.9243552,-73.0830261
45,Wetmore Avenue,06098,41.9265582,-73.0660804
32,Whiting Street,06098,41.9203206,-73.0575611
51;53,Elm Street,06098,41.9222581,-73.0709197
127,West Wakefield Boulevard,06098,41.9199124,-73.0891199
15,Hicks Street,06098,41.9257750,-73.0544574
25,Boyd Street,06098,41.9252057,-73.0803090
830,Main Street,06098,41.9283478,-73.0771692
129,East Wakefield Boulevard,06098,41.9153126,-73.0806762
1,Stowe Road,06098,41.9277461,-73.0459858
287,Gilbert Avenue,06098,41.9299440,-73.0572091
E 2,Nanni Drive,06098,41.9340942,-73.0534305
43,Pratt Street,06098,41.9182651,-73.0725058
330,West Lake Street,06098,41.9234070,-73.0865539
84,Oakdale Avenue,06098,41.9165038,-73.0498805
75,Hurlbut Street,06098,41.9148697,-73.0762746
239,East Wakefield Boulevard,06098,41.9146099,-73.0878255
44,South Main Street,06098,41.9178995,-73.0571028
H 14,Nanni Drive,06098,41.9346118,-73.0537883
15,Ash Road,06098,41.9174030,-73.0519009
59,Cook Street,06098,41.9238065,-73.0856179
24,Rock Street,06098,41.9229810,-73.0737585
158;160,Holabird Avenue,06098,41.9237680,-73.0612156
162,Gilbert Avenue,06098,41.9250149,-73.0573083
55,Spring Street,06098,41.9211195,-73.0761295
969,Main Street,06098,41.9312406,-73.0822045
223,East Wakefield Boulevard,06098,41.9155574,-73.0867556
67,Cottage Street,06098,41.9284112,-73.0649950
195,North Main Street,06098,41.9274449,-73.0596619
138,East Wakefield Boulevard,06098,41.9158258,-73.0820707
H 8,Nanni Drive,06098,41.9348391,-73.0534781
204,Gilbert Avenue,06098,41.9264661,-73.0572014
1,Colony Drive,06098,41.9162341,-73.0534794
144,Alpha Avenue,06098,41.9141488,-73.0860595
75,Rowley Street,06098,41.9193139,-73.0600747
98,Gillette Road,06098,41.9230019,-73.0879757
243,Kingsbury Avenue,06098,41.9155032,-73.0882282
177,Stanton Avenue,06098,41.9245275,-73.0560764
22,Greenwoods Avenue,06098,41.9225813,-73.0683915
133,Spencer Street,06098,41.9311025,-73.0759480
41,Meadow Street,06098,41.9257960,-73.0791492
206,Walnut Street,06098,41.9279281,-73.0609019
141,Alpha Avenue,06098,41.9136368,-73.0853978
79,Oak Street,06098,41.9238103,-73.0640224
20,Crescent Street,06098,41.9273674,-73.0670581
55,Crescent Street,06098,41.9281701,-73.0666913
262,Oak Street,06098,41.9300529,-73.0615281
338,East Wakefield Boulevard,06098,41.9124728,-73.0894268
D 9,Nanni Drive,06098,41.9338362,-73.0537205
35,Willow Street,06098,41.9207161,-73.0694781
110,Moore Avenue,06098,41.9119105,-73.0579488
16,Loomis Street,06098,41.9319782,-73.0803558
92,Ridge Street,06098,41.9185885,-73.0766900
98,Sunny Ridge Drive,06098,41.9193886,-73.0458170
35,Rock Street,06098,41.9228210,-73.0727508
61,Hillside Avenue,06098,41.9244625,-73.0742547
309,White Oak Trail,06098,41.9128936,-73.0849766
161 R,East Lake Street,06098,41.9207432,-73.0802076
104,Prospect Street,06098,41.9212589,-73.0755619
109,Oakdale Avenue,06098,41.9206326,-73.0500616
87,Wetmore Avenue,06098,41.9261362,-73.0641043
153,Wetmore Avenue,06098,41.9257294,-73.0605690
31,Woodruff Avenue,06098,41.9290045,-73.0575936
27,Cherry Street,06098,41.9168322,-73.0758722
50,Bank Street,06098,41.9301128,-73.0642711
311,East Wakefield Boulevard,06098,41.9138501,-73.0888614
16,Upson Avenue,06098,41.9184430,-73.0711203
140,Ridge Street,06098,41.9212419,-73.0779435
231,Jewett Street,06098,41.9160191,-73.0875799
144,Belvidere Avenue,06098,41.9149640,-73.0861829
72,Colony Drive,06098,41.9198027,-73.0544569
108,Oakdale Avenue,06098,41.9216010,-73.0494183
204,Old New Hartford Road,06098,41.9112224,-73.0496435
124;126,Elm Street,06098,41.9243101,-73.0691061
127,Boyd Street,06098,41.9251094,-73.0850123
75,Elm Street,06098,41.9229679,-73.0704531
342,Street Catherine Street,06098,41.9117496,-73.0878847
21,Bank Street,06098,41.9296220,-73.0631262
81,Walnut Street,06098,41.9252009,-73.0625315
304,Walnut Street,06098,41.9320556,-73.0597211
242,East Wakefield Boulevard,06098,41.9146367,-73.0885346
21,Mountain View Terrace,06098,41.9323942,-73.0514381
353,East Wakefield Boulevard,06098,41.9118202,-73.0881797
130,Shore Drive,06098,41.9178854,-73.0815564
9,Fruit Street,06098,41.9243578,-73.0671765
38,Finn Street,06098,41.9181617,-73.0759680
57,White Street,06098,41.9320877,-73.0566822
210,Holabird Avenue,06098,41.9230494,-73.0584210
165,Wilcox Avenue,06098,41.9161200,-73.0819605
63,Wheeler Street,06098,41.9246271,-73.0709109
101,West Wakefield Boulevard,06098,41.9230739,-73.0855992
325,North Main Street,06098,41.9318562,-73.0588279
197,Oak Street,06098,41.9277999,-73.0630091
61,Spencer Street,06098,41.9286700,-73.0758976
151,Alpha Avenue,06098,41.9138324,-73.0864406
78,Meadow Street,06098,41.9273739,-73.0784166
81,Rock Street,06098,41.9238206,-73.0716834
212,Walnut Street,06098,41.9287630,-73.0606970
421,North Main Street,06098,41.9350749,-73.0570820
I 12,Nanni Drive,06098,41.9350027,-73.0539794
115,Willow Street,06098,41.9208118,-73.0675818
413,Horne Avenue,06098,41.9351501,-73.0581742
140,Shore Drive,06098,41.9181550,-73.0821976
F 8,Nanni Drive,06098,41.9336155,-73.0529025
100,East Lake Street,06098,41.9190304,-73.0781040
34,Ridge Street,06098,41.9163011,-73.0760000
896,Main Street,06098,41.9304554,-73.0793793
23,Walnut Street,06098,41.9218336,-73.0635309
111,Oakdale Avenue,06098,41.9210226,-73.0503622
18,Union Street,06098,41.9215249,-73.0719960
30,Riveredge Drive,06098,41.9292896,-73.0582015
100,Waldron Street,06098,41.9249389,-73.0548031
50,Hinsdale Avenue,06098,41.9264047,-73.0738804
151,Hinsdale Avenue,06098,41.9264718,-73.0688825
44,Lewis Street,06098,41.9170840,-73.0711986
344,East Wakefield Boulevard,06098,41.9121813,-73.0890117
109,West Wakefield Boulevard,06098,41.9220233,-73.0876478
227,East Wakefield Boulevard,06098,41.9152810,-73.0869002
108,Goffe Street,06098,41.9143162,-73.0833019
80,Colony Drive,06098,41.9202534,-73.0545768
40,Park Place,06098,41.9221699,-73.0592728
936,Main Street,06098,41.9314003,-73.0798825
4,Hillside Place,06098,41.9249401,-73.0753163
61,East Lake Street,06098,41.9172484,-73.0781237
183,North Main Street,06098,41.9269727,-73.0597807
29,Brook Street,06098,41.9331761,-73.0598389
86,Walnut Street,06098,41.9253282,-73.0619305
29,Manchester Heights,06098,41.9332388,-73.0751239
214,East Wakefield Boulevard,06098,41.9170603,-73.0854351
292,Rockwell Street,06098,41.9244555,-73.0805532
120,East Wakefield Boulevard,06098,41.9156487,-73.0796170
228,Perch Rock Trail,06098,41.9164778,-73.0885893
35,Colony Drive,06098,41.9187500,-73.0547001
196,New Hartford Road,06098,41.9133608,-73.0510832
655,Main Street,06098,41.9234931,-73.0763349
83,East Lake Street,06098,41.9178840,-73.0792998
112,Hinsdale Avenue,06098,41.9260305,-73.0709800
59,Grove Street,06098,41.9232479,-73.0610788
440,Main Street,06098,41.9210628,-73.0718818
22,Adams Street,06098,41.9277652,-73.0659145
139,Elm Street,06098,41.9249436,-73.0694004
34,Cottage Street,06098,41.9273465,-73.0648604
146,Gilbert Avenue,06098,41.9243593,-73.0573402
136,Meadow Street,06098,41.9292073,-73.0794391
445,North Main Street,06098,41.9361191,-73.0566021
B 5,Nanni Drive,06098,41.9324046,-73.0542358
12,Hamill Drive,06098,41.9215653,-73.0534379
130,Glendale Avenue,06098,41.9183975,-73.0511450
219,East Wakefield Boulevard,06098,41.9158012,-73.0864851
F 1,Nanni Drive,06098,41.9336078,-73.0533679
3,Moreland Road,06098,41.9194418,-73.0918179
211,Perch Rock Trail,06098,41.9164007,-73.0873897
210,East Lake Street,06098,41.9224343,-73.0802777
46,Park Place,06098,41.9223079,-73.0594059
108,Colony Drive,06098,41.9216155,-73.0551910
37,Riveredge Drive,06098,41.9275512,-73.0586392
49,Wetmore Avenue,06098,41.9265050,-73.0657931
25,Woodland Avenue,06098,41.9249853,-73.0820066
122,Bayview Road,06098,41.9144157,-73.0845236
48,Bridge Street,06098,41.9194320,-73.0708474
6,Central Avenue,06098,41.9148878,-73.0508353
110,Sterling Trail,06098,41.9144695,-73.0809134
16,Hamill Drive,06098,41.9210835,-73.0534084
101,Manchester Heights,06098,41.9359552,-73.0751878
32,Union Street,06098,41.9221402,-73.0718861
233,Gilbert Avenue,06098,41.9275857,-73.0574631
10,Crescent Street,06098,41.9271342,-73.0675632
100,Horne Avenue,06098,41.9339069,-73.0584529
95,Wheeler Street,06098,41.9258087,-73.0705987
221,Oak Street,06098,41.9288406,-73.0625698
175,Glendale Avenue,06098,41.9199121,-73.0521472
61,Stanton Avenue,06098,41.9279843,-73.0557251
55,Hurlbut Street,06098,41.9150575,-73.0755573
242,Perch Rock Trail,06098,41.9157863,-73.0896306
24,Strong Terrace,06098,41.9188861,-73.0560579
86,Chestnut Street,06098,41.9242441,-73.0651526
325,East Wakefield Boulevard,06098,41.9132039,-73.0890305
146,Walnut Street,06098,41.9264105,-73.0614108
36,Prospect Street,06098,41.9202676,-73.0726969
420,Main Street,06098,41.9211694,-73.0714429
60,Whiting Street,06098,41.9224869,-73.0581574
112,Meadow Street,06098,41.9283084,-73.0791098
132,Stanton Avenue,06098,41.9252031,-73.0565763
60,Stanton Avenue,06098,41.9280240,-73.0561329
39;41,Benton Street,06098,41.9244607,-73.0539605
12,Holabird Avenue,06098,41.9250385,-73.0682758
234,Walnut Street,06098,41.9294443,-73.0604967
I 8,Nanni Drive,06098,41.9351480,-73.0537673
112,Glendale Avenue,06098,41.9179700,-73.0503624
110,Main Street,06098,41.9212448,-73.0621780
5,Strong Terrace,06098,41.9190368,-73.0569103
51,Upson Avenue,06098,41.9183627,-73.0731574
H 5,Nanni Drive,06098,41.9349362,-73.0533248
30,Hurlbut Street,06098,41.9155371,-73.0736898
84,Pratt Street,06098,41.9169390,-73.0734116
9,Thibault Avenue,06098,41.9226621,-73.0698277
43,High Street,06098,41.9225098,-73.0735638
48,Holabird Avenue,06098,41.9247695,-73.0665800
46,Riveredge Drive,06098,41.9266971,-73.0585263
9,Cottage Street,06098,41.9268227,-73.0654978
164,East Lake Street,06098,41.9208749,-73.0794072
15,Hinsdale Avenue,06098,41.9272414,-73.0749841
156,Shore Drive,06098,41.9176339,-73.0829229
L 10,Nanni Drive,06098,41.9327615,-73.0556099
87,Walnut Street,06098,41.9254373,-73.0624703
64,Oakdale Avenue,06098,41.9158500,-73.0507204
42,Wheeler Street,06098,41.9238357,-73.0706400
173,Wallens Street,06098,41.9304055,-73.0490419
356,Street Catherine Street,06098,41.9107928,-73.0880098
87,High Street,06098,41.9225361,-73.0715831
34,Stanton Avenue,06098,41.9287358,-73.0560405
39;41,Allen Street,06098,41.9272100,-73.0641833
9,John Street,06098,41.9275020,-73.0795639
65,Chestnut Street,06098,41.9235481,-73.0657524
38,Upland Road,06098,41.9291893,-73.0774949
164,East Wakefield Boulevard,06098,41.9163959,-73.0842488
57,Prospect Street,06098,41.9200511,-73.0738440
218,Oak Street,06098,41.9286176,-73.0617333
126,Bayview Road,06098,41.9141626,-73.0847144
97,Oakdale Avenue,06098,41.9181423,-73.0496649
62,Rockwell Street,06098,41.9193285,-73.0722715
684,Main Street,06098,41.9242953,-73.0758291
268,Perch Rock Trail,06098,41.9138184,-73.0899284
92,Stanton Avenue,06098,41.9268082,-73.0563591
79,Colony Drive,06098,41.9207728,-73.0552949
33;31,Case Avenue,06098,41.9224675,-73.0681123
11,Pratt Street,06098,41.9198147,-73.0718595
56,Munro Place,06098,41.9255918,-73.0754571
128,Hinsdale Avenue,06098,41.9258636,-73.0700879
28,Stanton Avenue,06098,41.9289392,-73.0560383
2,East Lake Street,06098,41.9157456,-73.0773895
158,Lincoln Avenue,06098,41.9149490,-73.0830046
155;149,Meadow Street,06098,41.9295576,-73.0801210
A 9,Nanni Drive,06098,41.9323707,-73.0548294
60,Birdsall Street,06098,41.9180785,-73.0743841
269,West Lake Street,06098,41.9229292,-73.0838594
120,Bayview Road,06098,41.9146240,-73.0843674
115,Maloney Court,06098,41.9192745,-73.0533592
C 6,Nanni Drive,06098,41.9330350,-73.0541039
22,Colony Drive,06098,41.9176792,-73.0538055
12,Benton Street,06098,41.9234112,-73.0537253
708,Main Street,06098,41.9253778,-73.0750129
20,Rock Street,06098,41.9229892,-73.0739517
303,Bayview Road,06098,41.9124629,-73.0844798
16,Perkins Street,06098,41.9238772,-73.0684831
10,Laurel Street,06098,41.9246958,-73.0831138
20,Beach Street,06098,41.9305215,-73.0599544
246,Perch Rock Trail,06098,41.9154152,-73.0896491
31,Mountain Avenue,06098,41.9286652,-73.0638095
313,East Wakefield Boulevard,06098,41.9136789,-73.0890527
127,Shore Drive,06098,41.9176319,-73.0820441
D 10,Nanni Drive,06098,41.9338860,-73.0536949
206,Wallens Street,06098,41.9277179,-73.0482097
350,West Lake Street,06098,41.9232242,-73.0871677
150,Shore Drive,06098,41.9179988,-73.0828781
56,Wheeler Street,06098,41.9242859,-73.0702052
99,High Street,06098,41.9227606,-73.0709836
970,Main Street,06098,41.9318969,-73.0819906
232,Gilbert Avenue,06098,41.9274448,-73.0570239
59,Crescent Street,06098,41.9283521,-73.0665535
170,Holabird Avenue,06098,41.9236916,-73.0608216
141,Williams Avenue,06098,41.9285383,-73.0729859
150,Meadow Street,06098,41.9296139,-73.0796358
118,Ridge Street,06098,41.9196547,-73.0770432
K 8,Nanni Drive,06098,41.9330890,-73.0548691
66,Strong Terrace,06098,41.9203419,-73.0564488
152,East Wakefield Boulevard,06098,41.9157823,-73.0835818
120,Williams Avenue,06098,41.9277879,-73.0726272
18,Upson Avenue,06098,41.9184066,-73.0714440
409,North Main Street,06098,41.9346850,-73.0572984
126,Wallens Street,06098,41.9296049,-73.0523296
20,Center Street,06098,41.9218094,-73.0697044
316,White Oak Trail,06098,41.9134200,-73.0856976
15,Hamill Drive,06098,41.9212211,-73.0540956
74,Strong Terrace,06098,41.9208569,-73.0560829
24,Riveredge Drive,06098,41.9297360,-73.0580247
327,West Lake Street,06098,41.9230666,-73.0863540
198,Gilbert Avenue,06098,41.9260871,-73.0572354
99,Wheeler Street,06098,41.9259583,-73.0705790
280,Gilbert Avenue,06098,41.9291878,-73.0568480
111,Bayview Road,06098,41.9151451,-73.0835247
59,East Lake Street,06098,41.9175137,-73.0791223
51,Lakeview Drive,06098,41.9186540,-73.0953131
117,Shore Drive,06098,41.9166696,-73.0815170
159,East Wakefield Boulevard,06098,41.9159152,-73.0843631
42,Strong Terrace,06098,41.9195016,-73.0562331
355,Demonstranti Road,06098,41.9130238,-73.0873000
203,Old New Hartford Road,06098,41.9111893,-73.0487602
26,Colony Drive,06098,41.9178777,-73.0538860
928,Main Street,06098,41.9310985,-73.0804535
178,Florence Street,06098,41.9245714,-73.0519133
213,Walnut Street,06098,41.9298069,-73.0612620
15,Division Street,06098,41.9266198,-73.0778872
354,Street Catherine Street,06098,41.9109627,-73.0879863
275;273,Oak Street,06098,41.9305689,-73.0618494
80,Wheeler Street,06098,41.9252353,-73.0701911
361,North Main Street,06098,41.9330942,-73.0581420
217,Perch Rock Trail,06098,41.9160965,-73.0882511
128,East Wakefield Boulevard,06098,41.9157794,-73.0803993
160,East Lake Street,06098,41.9207725,-73.0792553
46,Finn Street,06098,41.9182503,-73.0765920
27,Cook Street,06098,41.9237803,-73.0845512
164,Wilcox Avenue,06098,41.9165001,-73.0820184
24;26,Hicks Street,06098,41.9253139,-73.0542322
65,High Street,06098,41.9226435,-73.0726099
29,Crescent Street,06098,41.9276409,-73.0673772
70,Crescent Street,06098,41.9285136,-73.0658637
19,Cottage Street,06098,41.9270074,-73.0654643
203,Holabird Avenue,06098,41.9239901,-73.0597170
135,Meadow Street,06098,41.9290816,-73.0800145
83,Wallens Hill Road,06098,41.9354658,-73.0416351
K 7,Nanni Drive,06098,41.9331389,-73.0548438
5,Home Place,06098,41.9214325,-73.0624684
32,South Main Street,06098,41.9182583,-73.0571544
137,Shore Drive,06098,41.9172205,-73.0824518
D 8,Nanni Drive,06098,41.9337902,-73.0537335
104,Maloney Court,06098,41.9195857,-73.0529618
137,East Wakefield Boulevard,06098,41.9154928,-73.0817253
15,Case Avenue,06098,41.9218633,-73.0681954
13,Hamill Drive,06098,41.9214451,-73.0541419
14,Chestnut Street,06098,41.9217413,-73.0654464
12,Riveredge Drive,06098,41.9300008,-73.0579919
136,Florence Street,06098,41.9236446,-73.0512768
153,Oak Street,06098,41.9265699,-73.0632790
14,Royer Street,06098,41.9262982,-73.0542888
160,Mathew Road,06098,41.9149836,-73.0851517
43,Rockwell Street,06098,41.9188888,-73.0715603
562,Main Street,06098,41.9222914,-73.0746459
131,Belvidere Avenue,06098,41.9158597,-73.0850350
115,Bayview Road,06098,41.9147275,-73.0836657
89;87,Prospect Street,06098,41.9210141,-73.0748856
203,East Lake Street,06098,41.9218544,-73.0810320
936,Main Street,06098,41.9314036,-73.0804573
18,Curtice Street,06098,41.9268532,-73.0723834
98,Wetmore Avenue,06098,41.9254027,-73.0631148
405,North Main Street,06098,41.9345147,-73.0575914
174,Shore Drive,06098,41.9165984,-73.0828401
43,Bridge Street,06098,41.9196026,-73.0704054
67,East Lake Street,06098,41.9178217,-73.0782781
137,Belvidere Avenue,06098,41.9153088,-73.0854150
40,Upson Avenue,06098,41.9184951,-73.0721811
206,Old New Hartford Road,06098,41.9106179,-73.0486828
66,Park Place,06098,41.9234881,-73.0595438
215,Holabird Avenue,06098,41.9239570,-73.0584337
123,Stanton Avenue,06098,41.9256032,-73.0559977
137,East Lake Street,06098,41.9200240,-73.0801590
66;64,Upson Avenue,06098,41.9187598,-73.0735914
51,Cottage Street,06098,41.9280168,-73.0651000
720,Main Street,06098,41.9250277,-73.0761351
115,Williams Avenue,06098,41.9277680,-73.0731891
69;71,Waldron Street,06098,41.9240620,-73.0554109
233,Oak Street,06098,41.9292027,-73.0624244
I 13,Nanni Drive,06098,41.9349585,-73.0540271
17,Union Street,06098,41.9215520,-73.0724264
146,Glendale Avenue,06098,41.9188940,-73.0513014
77,East Lake Street,06098,41.9180502,-73.0789545
K 5,Nanni Drive,06098,41.9332244,-73.0547821
25,Center Street,06098,41.9221532,-73.0694535
45,Park Place,06098,41.9221085,-73.0606147
28,Union Street,06098,41.9219079,-73.0719124
44,Riveredge Drive,06098,41.9267074,-73.0584644
343,Street Catherine Street,06098,41.9113512,-73.0870741
35,Royer Street,06098,41.9264833,-73.0531720
18,Upland Road,06098,41.9290993,-73.0765465
188,Wallens Street,06098,41.9284744,-73.0491241
139,Belvidere Avenue,06098,41.9150546,-73.0855304
5,Oakdale Avenue,06098,41.9148649,-73.0527518
3,Carey Avenue,06098,41.9150773,-73.0801171
121,West Wakefield Boulevard,06098,41.9209799,-73.0894060
300,Gillette Road,06098,41.9226235,-73.0893046
175,North Main Street,06098,41.9267051,-73.0598227
357,Tiffany Road,06098,41.9126908,-73.0876754
209,Glendale Avenue,06098,41.9220215,-73.0526171
2,Winchester Avenue,06098,41.9268521,-73.0709753
15,John Street,06098,41.9274498,-73.0798144
80,Benton Street,06098,41.9256595,-73.0529877
58,Riveredge Drive,06098,41.9270333,-73.0588080
11,Baker Street,06098,41.9288780,-73.0541568
8,Charles Street,06098,41.9198679,-73.0700057
41,Maloney Court,06098,41.9168917,-73.0527193
153,Glendale Avenue,06098,41.9190435,-73.0518314
133,Wetmore Avenue,06098,41.9261630,-73.0614929
178,Boyd Street,06098,41.9241921,-73.0864995
21,Munro Street,06098,41.9261745,-73.0773325
354,Main Street,06098,41.9214197,-73.0696147
61,Holmes Drive,06098,41.9192490,-73.0937192
31,Prospect Street,06098,41.9194114,-73.0716170
49,Spencer Street,06098,41.9282180,-73.0759803
184,Florence Street,06098,41.9252652,-73.0516556
49,Stanton Avenue,06098,41.9285002,-73.0556067
21,Laurel Street,06098,41.9244993,-73.0839138
259,North Main Street,06098,41.9296945,-73.0594899
42,High Street,06098,41.9222122,-73.0736266
I 6,Nanni Drive,06098,41.9352072,-73.0536643
1,Kittredge Lane,06098,41.9179289,-73.0549804
58,Morgan Drive,06098,41.9192387,-73.0962215
12,Central Avenue,06098,41.9151135,-73.0505267
B 4,Nanni Drive,06098,41.9323615,-73.0542571
52,Maloney Court,06098,41.9173764,-73.0523033
13,Mountain View Terrace,06098,41.9322177,-73.0535888
128,Shore Drive,06098,41.9177825,-73.0814922
G 9,Nanni Drive,06098,41.9343464,-73.0529420
130,East Lake Street,06098,41.9200803,-73.0787080
21,Rock Street,06098,41.9232487,-73.0736151
143,Shore Drive,06098,41.9168163,-73.0822346
79,Waldron Street,06098,41.9243765,-73.0552796
355,West Lake Street,06098,41.9228520,-73.0873135
35,Wallens Street,06098,41.9302750,-73.0568516
742,Main Street,06098,41.9253953,-73.0751777
207,North Main Street,06098,41.9276566,-73.0596303
177,Walnut Street,06098,41.9278147,-73.0616441
153,Alpha Avenue,06098,41.9138644,-73.0866125
19,Cook Street,06098,41.9237275,-73.0841497
58,Spencer Street,06098,41.9285225,-73.0753547
141,Spencer Street,06098,41.9314595,-73.0759369
K 1,Nanni Drive,06098,41.9334098,-73.0546812
9,Willow Street,06098,41.9206922,-73.0702772
152,Shore Drive,06098,41.9178398,-73.0829662
110,Alpha Avenue,06098,41.9139080,-73.0818266
267,Rockwell Street,06098,41.9235169,-73.0802442
7,Strong Terrace,06098,41.9191911,-73.0569895
143,West Wakefield Boulevard,06098,41.9189152,-73.0901299
130,Coe Street,06098,41.9358811,-73.0838576
11,Finn Street,06098,41.9170762,-73.0750367
209,Rockwell Street,06098,41.9216100,-73.0778801
321,White Oak Trail,06098,41.9130962,-73.0861070
197,Glendale Avenue,06098,41.9210180,-73.0524616
2,Park Place,06098,41.9210443,-73.0591709
10,Riveredge Drive,06098,41.9300244,-73.0579541
7,Hamill Drive,06098,41.9220550,-73.0543581
19,Hubbard Street,06098,41.9262399,-73.0814945
95,Stanton Avenue,06098,41.9262870,-73.0558995
15,Bank Street,06098,41.9295802,-73.0628783
58,Cherry Street,06098,41.9172396,-73.0772985
124,East Wakefield Boulevard,06098,41.9156410,-73.0800400
22,Upson Avenue,06098,41.9184896,-73.0717130
209,Perch Rock Trail,06098,41.9164389,-73.0869929
231,East Wakefield Boulevard,06098,41.9151404,-73.0871819
101,Nalette Drive,06098,41.9197807,-73.0474653
27,Colony Drive,06098,41.9181604,-73.0545534
722;724,Main Street,06098,41.9251688,-73.0761638
196,Boyd Street,06098,41.9238859,-73.0869270
51,Hinsdale Avenue,06098,41.9267467,-73.0735667
348,Street Catherine Street,06098,41.9113538,-73.0879323
341,North Main Street,06098,41.9323967,-73.0585039
71;73,Wheeler Street,06098,41.9250838,-73.0712101
12,Manchester Heights,06098,41.9326797,-73.0745738
212,East Wakefield Boulevard,06098,41.9170691,-73.0851382
19,Mountain View Terrace,06098,41.9331542,-73.0510241
104,Ledge Drive,06098,41.9459515,-73.0524210
108,Shore Drive,06098,41.9163627,-73.0807963
213,Rockwell Street,06098,41.9220217,-73.0782579
86,East Lake Street,06098,41.9185510,-73.0778579
419,Horne Avenue,06098,41.9356369,-73.0577832
145,Lake Street,06098,41.9235065,-73.0808704
232,Jewett Street,06098,41.9160152,-73.0869476
134,Stanton Avenue,06098,41.9249732,-73.0565034
55,High Street,06098,41.9226417,-73.0730493
39;41,Pratt Street,06098,41.9185539,-73.0724629
65,Woodruff Avenue,06098,41.9278879,-73.0576835
35,Laurel Street,06098,41.9246283,-73.0845964
43,John Street,06098,41.9275434,-73.0811040
10,Perkins Street,06098,41.9238878,-73.0691433
8,Mountain Avenue,06098,41.9288572,-73.0628991
20,Gibbs Street,06098,41.9347937,-73.0580848
J 8,Nanni Drive,06098,41.9343458,-73.0540737
118,Main Street,06098,41.9212010,-73.0624611
463,North Main Street,06098,41.9394990,-73.0558492
201,Birch Street,06098,41.9158593,-73.0859591
F 3,Nanni Drive,06098,41.9336210,-73.0532325
48,Rockwell Street,06098,41.9192364,-73.0716598
90,Pratt Street,06098,41.9163633,-73.0735565
96,High Street,06098,41.9222552,-73.0711549
346,Tiffany Road,06098,41.9127347,-73.0857017
30,Walnut Street,06098,41.9219978,-73.0629612
12,Chestnut Street,06098,41.9216266,-73.0654785
27,Riveredge Drive,06098,41.9277337,-73.0586524
2,Stowe Road,06098,41.9274600,-73.0453278
69,Wetmore Avenue,06098,41.9263255,-73.0649729
18,Allen Street,06098,41.9264839,-73.0639432
364,Norwood Road,06098,41.9101772,-73.0886742
328,East Wakefield Boulevard,06098,41.9130789,-73.0895793
234,Jewett Street,06098,41.9161663,-73.0871205
3,Kittredge Lane,06098,41.9191350,-73.0554846
55,White Street,06098,41.9319422,-73.0567683
119,East Wakefield Boulevard,06098,41.9152475,-73.0795989
150,Lincoln Avenue,06098,41.9147992,-73.0819220
45,Willow Street,06098,41.9207155,-73.0689443
125,Ridge Street,06098,41.9196548,-73.0777324
28,Spring Street,06098,41.9218198,-73.0771883
127,Hinsdale Avenue,06098,41.9263982,-73.0700035
226,Gilbert Avenue,06098,41.9272141,-73.0570764
91,Manchester Heights,06098,41.9343441,-73.0761983
135,North Main Street,06098,41.9254348,-73.0604240
158,East Wakefield Boulevard,06098,41.9160863,-73.0838974
103,Nalette Drive,06098,41.9195718,-73.0467025
178,North Main Street,06098,41.9269035,-73.0593439
153,East Wakefield Boulevard,06098,41.9154806,-73.0838623
260,Perch Rock Trail,06098,41.9144486,-73.0897393
134,East Wakefield Boulevard,06098,41.9158590,-73.0815566
44,Orchard Street,06098,41.9186373,-73.0756833
298,Gillette Road,06098,41.9227540,-73.0887494
6,Cook Street,06098,41.9240408,-73.0837992
97,Wetmore Avenue,06098,41.9259151,-73.0630225
105,Oakdale Avenue,06098,41.9199016,-73.0500125
133;131,Willow Street,06098,41.9206722,-73.0662114
57,Woodruff Avenue,06098,41.9281682,-73.0576707
86,Lake Street,06098,41.9248463,-73.0794433
66,Stanton Avenue,06098,41.9277863,-73.0561711
88;90,Holabird Avenue,06098,41.9242372,-73.0648456
104,Wallens Street,06098,41.9293949,-73.0538147
J 1,Nanni Drive,06098,41.9346828,-73.0542008
11,Lewis Street,06098,41.9177043,-73.0724692
194,Glendale Avenue,06098,41.9208171,-73.0518452
30,Colony Drive,06098,41.9181117,-73.0538571
152,Lincoln Avenue,06098,41.9147919,-73.0821119
H 7,Nanni Drive,06098,41.9348770,-73.0534277
151,Maloney Court,06098,41.9202775,-73.0526284
49,Center Street,06098,41.9222319,-73.0683446
60,High Street,06098,41.9222374,-73.0729315
62,Holabird Avenue,06098,41.9244568,-73.0661226
41,Riveredge Drive,06098,41.9274664,-73.0586348
305,East Wakefield Boulevard,06098,41.9142335,-73.0883347
63,Meadow Street,06098,41.9267210,-73.0790181
270,Perch Rock Trail,06098,41.9137448,-73.0900508
19,Superior Street,06098,41.9218080,-73.0788442
344,Norwood Road,06098,41.9106423,-73.0862006
56,Rockwell Street,06098,41.9192541,-73.0718358
9,Woodland Avenue,06098,41.9255053,-73.0816074
60,Palmer Avenue,06098,41.9148302,-73.0514454
129,Carey Avenue,06098,41.9146598,-73.0810075
74,Park Place,06098,41.9230085,-73.0597090
330,Joan Road,06098,41.9135330,-73.0887433
6,East Lake Street,06098,41.9160981,-73.0769881
306,Winchester Road,06098,41.9222616,-73.0907357
23,Curtice Street,06098,41.9273856,-73.0717934
120,East Mountain Avenue,06098,41.9270230,-73.0527370
15,Front Street,06098,41.9273348,-73.0779856
140,Coe Street,06098,41.9361994,-73.0841126
278,West Lake Street,06098,41.9233397,-73.0841876
14,Mountain Avenue,06098,41.9289703,-73.0631455
95,Nalette Drive,06098,41.9199981,-73.0491220
123,East Lake Street,06098,41.9190540,-73.0797268
13,Baker Street,06098,41.9286907,-73.0541637
135,West Wakefield Boulevard,06098,41.9195122,-73.0897021
61,Ridge Street,06098,41.9176070,-73.0768420
95,Hurlbut Street,06098,41.9149961,-73.0767995
163,Holabird Avenue,06098,41.9241443,-73.0610134
135,Walnut Street,06098,41.9262430,-73.0619926
236,Main Street,06098,41.9214612,-73.0660890
38,South Main Street,06098,41.9180443,-73.0570824
115,Stanton Avenue,06098,41.9258149,-73.0558913
88,Wheeler Street,06098,41.9255777,-73.0701113
2,Wallens Hill Road,06098,41.9285317,-73.0455035
84,Holabird Avenue,06098,41.9244128,-73.0650836
149,East Wakefield Boulevard,06098,41.9153475,-73.0831224
85,Wallens Street,06098,41.9299482,-73.0544852
88,Wallens Street,06098,41.9294905,-73.0545920
152,Meadow Street,06098,41.9299168,-73.0796975
F 10,Nanni Drive,06098,41.9337320,-73.0528808
19,Lewis Street,06098,41.9176933,-73.0720106
11,Strong Terrace,06098,41.9188735,-73.0568519
28,Maloney Court,06098,41.9164270,-73.0524569
50,East Lake Street,06098,41.9172710,-73.0775962
224,East Lake Street,06098,41.9226222,-73.0813493
272,Holabird Avenue,06098,41.9226526,-73.0533826
334,Tiffany Road,06098,41.9124800,-73.0841891
19,Greenwoods Avenue,06098,41.9227483,-73.0689148
50,Benton Street,06098,41.9246878,-73.0533226
65,Oakdale Avenue,06098,41.9162207,-73.0509699
23,Allen Street,06098,41.9268176,-73.0643175
62,Overlook Road,06098,41.9196703,-73.0912124
43,East Lake Street,06098,41.9169510,-73.0787140
157,Prospect Street,06098,41.9226275,-73.0767972
160,Shore Drive,06098,41.9173942,-73.0829355
330,Norwood Road,06098,41.9124346,-73.0859265
J 7,Nanni Drive,06098,41.9343963,-73.0540965
273,Florence Street,06098,41.9284648,-73.0512317
26,Elm Street,06098,41.9216298,-73.0705018
132,Alpha Avenue,06098,41.9139471,-73.0849004
19,Gay Street,06098,41.9236178,-73.0688321
142,Old North Road,06098,41.9398272,-73.0415179
233,Holabird Avenue,06098,41.9236882,-73.0568228
49,High Street,06098,41.9225631,-73.0733557
1,Litchfield Avenue,06098,41.9293106,-73.0735587
109,Vons Lane,06098,41.9195456,-73.0923246
35,Hubbard Street,06098,41.9270816,-73.0815017
39,Baker Street,06098,41.9281568,-73.0543632
282,West Lake Street,06098,41.9233955,-73.0846227
136,East Mountain Avenue,06098,41.9270074,-73.0521494
30,Upland Road,06098,41.9291476,-73.0770370
206,Perch Rock Trail,06098,41.9170256,-73.0863309
H 12,Nanni Drive,06098,41.9346938,-73.0536902
22,Rowley Street,06098,41.9202169,-73.0618868
254,Calos Way,06098,41.9155416,-73.0887091
149,Carey Avenue,06098,41.9137338,-73.0828822
336,Winchester Road,06098,41.9208167,-73.0956305
55,Lakeview Drive,06098,41.9179935,-73.0950716
100,Strong Terrace,06098,41.9196586,-73.0572987
89,Lake Street,06098,41.9245203,-73.0793293
95,Main Street,06098,41.9208514,-73.0613634
175,Main Street,06098,41.9207577,-73.0643283
13,Riveredge Drive,06098,41.9298156,-73.0585369
27,Park Place,06098,41.9219074,-73.0605835
74,Crown Street,06098,41.9260492,-73.0732930
89,Munro Place,06098,41.9260078,-73.0737061
159,Williams Avenue,06098,41.9290697,-73.0728134
100,Hurlbut Street,06098,41.9156665,-73.0769972
111,Torringford Street,06098,41.9145237,-73.0577743
107,Wallens Street,06098,41.9300334,-73.0537292
24,High Street,06098,41.9225229,-73.0745568
40,Colony Drive,06098,41.9185449,-73.0540431
138,Williams Avenue,06098,41.9284012,-73.0724211
104,Colony Drive,06098,41.9213939,-73.0550390
194,Pratt Street,06098,41.9124502,-73.0747659
231,Perch Rock Trail,06098,41.9144942,-73.0890514
202,Birch Street,06098,41.9154447,-73.0861732
30,Birdsall Street,06098,41.9189874,-73.0741030
64,Pratt Street,06098,41.9176798,-73.0732169
44;42,Holabird Avenue,06098,41.9248687,-73.0670397
79,Park Place,06098,41.9232072,-73.0606134
285,Gilbert Avenue,06098,41.9297514,-73.0572251
24,Holabird Avenue,06098,41.9247508,-73.0679557
232,Perch Rock Trail,06098,41.9162701,-73.0888178
365,Demonstranti Road,06098,41.9128225,-73.0883680
103,Spencer Hill Road,06098,41.9365431,-73.0742645
112,Shore Drive,06098,41.9166090,-73.0809765
A 1,Nanni Drive,06098,41.9322082,-73.0552977
16,Laurel Street,06098,41.9247731,-73.0833139
52,Birdsall Street,06098,41.9183387,-73.0743926
185,Stanton Avenue,06098,41.9235913,-73.0559649
168,Shore Drive,06098,41.9170631,-73.0828981
49;51,Benton Street,06098,41.9247670,-73.0537834
173,Lake Street,06098,41.9228423,-73.0813298
345,North Main Street,06098,41.9325876,-73.0584660
13,Crescent Street,06098,41.9273627,-73.0679603
40,Crescent Street,06098,41.9282392,-73.0660136
310,White Oak Trail,06098,41.9132842,-73.0849583
229,Holabird Avenue,06098,41.9237477,-73.0573968
33,Stanton Avenue,06098,41.9289378,-73.0555244
64,Bank Street,06098,41.9301892,-73.0648632
K 3,Nanni Drive,06098,41.9333199,-73.0547486
137,Ridge Street,06098,41.9209567,-73.0783500
132,Spencer Hill Road,06098,41.9369664,-73.0690656
200,Perch Rock Trail,06098,41.9170005,-73.0859729
96,Maloney Court,06098,41.9193103,-73.0528676
11,Orchard Street,06098,41.9196794,-73.0753393
37,Park Place,06098,41.9219347,-73.0607969
311,White Oak Trail,06098,41.9129243,-73.0851505
11,Hamill Drive,06098,41.9216368,-73.0542257
18,Walnut Street,06098,41.9215940,-73.0630204
20,Riveredge Drive,06098,41.9298203,-73.0580150
44,Oak Street,06098,41.9226280,-73.0635992
73,Wetmore Avenue,06098,41.9262800,-73.0647426
129,Walnut Street,06098,41.9261272,-73.0621345
237,Oak Street,06098,41.9293459,-73.0623535
32,Cherry Street,06098,41.9173567,-73.0760120
25,East Lake Street,06098,41.9164082,-73.0780098
321,Norcross Road,06098,41.9118781,-73.0869150
53,Rockwell Street,06098,41.9189288,-73.0718488
105,West Wakefield Boulevard,06098,41.9224426,-73.0872077
136,East Wakefield Boulevard,06098,41.9158578,-73.0817914
237,Pine Street,06098,41.9150205,-73.0864327
329,Winchester Road,06098,41.9205759,-73.0931173
936,Main Street,06098,41.9312473,-73.0799916
108,Moore Avenue,06098,41.9123689,-73.0575676
92,Oakdale Avenue,06098,41.9174534,-73.0487073
22;20,Allen Street,06098,41.9266766,-73.0638352
61,Holabird Avenue,06098,41.9250416,-73.0660265
59,Hinsdale Avenue,06098,41.9266506,-73.0730918
267,Oak Street,06098,41.9303806,-73.0619215
109,Waldron Street,06098,41.9253504,-73.0552363
71,Wallens Hill Road,06098,41.9346804,-73.0418149
162,East Wakefield Boulevard,06098,41.9162796,-73.0840851
716,Main Street,06098,41.9249131,-73.0759614
57,East Lake Street,06098,41.9175894,-73.0786929
216,Perch Rock Trail,06098,41.9167511,-73.0874829
44,Finn Street,06098,41.9182258,-73.0762898
23,Cook Street,06098,41.9229745,-73.0841550
68,Waldron Street,06098,41.9235038,-73.0551964
151,East Wakefield Boulevard,06098,41.9154136,-73.0836681
85,Holabird Avenue,06098,41.9248327,-73.0649390
59,Chestnut Street,06098,41.9233901,-73.0657264
28,Adams Street,06098,41.9278196,-73.0661147
129,Elm Street,06098,41.9246056,-73.0695601
90,East Mountain Avenue,06098,41.9273570,-73.0545388
183,Boyd Street,06098,41.9238498,-73.0863429
275,Florence Street,06098,41.9289722,-73.0510408
A 2,Nanni Drive,06098,41.9322332,-73.0552345
16,Union Street,06098,41.9214184,-73.0719539
467,North Main Street,06098,41.9403682,-73.0565436
163,East Wakefield Boulevard,06098,41.9161060,-73.0847046
H 11,Nanni Drive,06098,41.9347317,-73.0536399
132,Florence Street,06098,41.9229694,-73.0526572
317,Winchester Road,06098,41.9210782,-73.0901632
21,Spring Street,06098,41.9216834,-73.0767315
17,Chestnut Street,06098,41.9218658,-73.0657659
39,Riveredge Drive,06098,41.9275061,-73.0586276
61,Wetmore Avenue,06098,41.9263661,-73.0652055
166,Mathew Road,06098,41.9145923,-73.0854353
100,Sunny Ridge Drive,06098,41.9189860,-73.0458214
203,Stowe Road,06098,41.9222424,-73.0452161
203,Birch Street,06098,41.9157687,-73.0857439
110,Goffe Street,06098,41.9143504,-73.0835422
98,Main Street,06098,41.9212843,-73.0618298
320,Winchester Road,06098,41.9213210,-73.0929480
326,Joan Road,06098,41.9137694,-73.0884501
208,East Lake Street,06098,41.9221266,-73.0808438
78,Boyd Street,06098,41.9260796,-73.0819251
27,Hinsdale Avenue,06098,41.9269528,-73.0746362
439,North Main Street,06098,41.9356410,-73.0567692
85,Wheeler Street,06098,41.9254121,-73.0707216
129,East Lake Street,06098,41.9194683,-73.0796851
431,North Main Street,06098,41.9354220,-73.0568918
77,Hubbard Street,06098,41.9288377,-73.0817358
14,Pratt Street,06098,41.9196244,-73.0726780
205,Gilbert Avenue,06098,41.9265524,-73.0577828
107,East Lake Street,06098,41.9190168,-73.0785735
234,East Wakefield Boulevard,06098,41.9151039,-73.0879374
150,Mathew Road,06098,41.9157034,-73.0846411
39,Colony Drive,06098,41.9189660,-73.0547682
101,North Main Street,06098,41.9240106,-73.0602735
206,Florence Street,06098,41.9260013,-73.0514546
29,Bridge Street,06098,41.9198822,-73.0704291
13,Union Street,06098,41.9214028,-73.0724308
34,Adams Street,06098,41.9278416,-73.0663678
129,Boyd Street,06098,41.9251154,-73.0840594
18,Baker Street,06098,41.9282509,-73.0548835
80,Waldron Street,06098,41.9242479,-73.0548412
207,Old New Hartford Road,06098,41.9108520,-73.0476271
143,Wetmore Avenue,06098,41.9255765,-73.0611940
48,Mountain Avenue,06098,41.9291674,-73.0646674
D 7,Nanni Drive,06098,41.9337404,-73.0537591
17,Colony Drive,06098,41.9175326,-73.0543564
30,Central Avenue,06098,41.9156316,-73.0498991
J 4,Nanni Drive,06098,41.9345307,-73.0541538
19,Prospect Street,06098,41.9198016,-73.0711235
139,East Lake Street,06098,41.9200310,-73.0793664
12,Cherry Street,06098,41.9172758,-73.0750153
136,Colony Drive,06098,41.9226674,-73.0560073
220,Rockwell Street,06098,41.9226845,-73.0784062
80,Holabird Avenue,06098,41.9245308,-73.0656067
40,Riveredge Drive,06098,41.9267051,-73.0583138
60,Meadow Street,06098,41.9266867,-73.0784104
922,Main Street,06098,41.9309877,-73.0798152
298,Walnut Street,06098,41.9318078,-73.0594009
150,East Lake Street,06098,41.9203385,-73.0787759
333,Thomas Road,06098,41.9122919,-73.0863475
30,Glendale Avenue,06098,41.9152335,-73.0528390
30,Maloney Court,06098,41.9166851,-73.0521160
214,Rockwell Street,06098,41.9221275,-73.0778064
97,Spencer Hill Road,06098,41.9353895,-73.0740134
361,Demonstranti Road,06098,41.9127529,-73.0880215
37,Ridge Street,06098,41.9166306,-73.0765773
145,Prospect Street,06098,41.9223100,-73.0764728
120,Wallens Street,06098,41.9292391,-73.0530573
27,Allen Street,06098,41.9269403,-73.0642705
21,Crescent Street,06098,41.9275338,-73.0676739
96;98,Elm Street,06098,41.9235683,-73.0696677
154,Wallens Street,06098,41.9289336,-73.0511947
65,Prospect Street,06098,41.9201971,-73.0742271
8,Baker Street,06098,41.9291212,-73.0547575
264,Perch Rock Trail,06098,41.9140943,-73.0897907
136,Carey Avenue,06098,41.9139789,-73.0832736
168,Glendale Avenue,06098,41.9196816,-73.0515577
77,Pratt Street,06098,41.9171101,-73.0727763
17,Cedar Road,06098,41.9190192,-73.0521760
56,Cook Street,06098,41.9242458,-73.0855664
33,Wetmore Avenue,06098,41.9266699,-73.0667913
335,Winchester Road,06098,41.9201450,-73.0947249
368,Main Street,06098,41.9215222,-73.0698606
107,Oakdale Avenue,06098,41.9203093,-73.0500068
90,Benton Street,06098,41.9259526,-73.0528684
35,Hillside Avenue,06098,41.9253124,-73.0744079
55,Spencer Street,06098,41.9284235,-73.0759440
127,East Wakefield Boulevard,06098,41.9153729,-73.0805118
174,Wallens Street,06098,41.9266440,-73.0494304
245,Walnut Street,06098,41.9299559,-73.0608419
123,Birdsall Street,06098,41.9157872,-73.0745788
F 11,Nanni Drive,06098,41.9337769,-73.0528735
15,Spruce Street,06098,41.9182187,-73.0520867
170,West Lake Street,06098,41.9231565,-73.0816479
112,Rockwell Street,06098,41.9200951,-73.0748572
49,Palmer Avenue,06098,41.9153542,-73.0514202
147,South Main Street,06098,41.9149880,-73.0536829
112,Bayview Road,06098,41.9151357,-73.0839881
65,Maloney Court,06098,41.9178252,-73.0529598
198,Boyd Street,06098,41.9237323,-73.0871592
16,Lewis Street,06098,41.9173604,-73.0722472
59,Cook Street,06098,41.9237999,-73.0855206
24,Brook Street,06098,41.9333271,-73.0602624
80,Gay Street,06098,41.9227823,-73.0662719
28,Holabird Avenue,06098,41.9249406,-73.0675810
55,Overlook Road,06098,41.9206385,-73.0911851
270,Walnut Street,06098,41.9311049,-73.0599913
222,East Wakefield Boulevard,06098,41.9161426,-73.0867113
28,Manchester Heights,06098,41.9336323,-73.0744976
457,North Main Street,06098,41.9381498,-73.0555261
163,Wilcox Avenue,06098,41.9161435,-73.0818067
G 10,Nanni Drive,06098,41.9343997,-73.0529451
240,Florence Street,06098,41.9271777,-73.0509400
24,Maloney Court,06098,41.9162865,-73.0526710
142,Alpha Avenue,06098,41.9141129,-73.0858761
118,Old North Road,06098,41.9435893,-73.0464254
88,Elm Street,06098,41.9233529,-73.0695679
238,East Wakefield Boulevard,06098,41.9149131,-73.0882057
55,Wheeler Street,06098,41.9244045,-73.0713356
268,Holabird Avenue,06098,41.9227939,-73.0539812
52,Mountain Avenue,06098,41.9291670,-73.0648561
25,Adams Street,06098,41.9274438,-73.0660926
95,Meadow Street,06098,41.9278265,-73.0793968
139,Alpha Avenue,06098,41.9135956,-73.0851774
99,Elm Street,06098,41.9237894,-73.0699303
11,Upland Road,06098,41.9286832,-73.0762238
252,Walnut Street,06098,41.9300691,-73.0603003
F 4,Nanni Drive,06098,41.9336227,-73.0531611
57,Main Street,06098,41.9206890,-73.0604307
114,Moore Avenue,06098,41.9116487,-73.0584847
141,Carey Avenue,06098,41.9141230,-73.0820828
131,Rockwell Street,06098,41.9203481,-73.0757795
58,Holmes Drive,06098,41.9182993,-73.0944094
28,Birdsall Street,06098,41.9192270,-73.0740953
127,Holabird Avenue,06098,41.9244170,-73.0627739
326,White Oak Trail,06098,41.9136472,-73.0869451
73;75,Prospect Street,06098,41.9205831,-73.0745260
143,Ridge Street,06098,41.9212349,-73.0785047
64,Hinsdale Avenue,06098,41.9262871,-73.0730327
38,Meadow Street,06098,41.9260114,-73.0780685
281,Gilbert Avenue,06098,41.9293393,-73.0572867
6,Colony Drive,06098,41.9168446,-73.0534443
25,Beach Street,06098,41.9302987,-73.0602446
272,Perch Rock Trail,06098,41.9135646,-73.0900882
61,Upson Avenue,06098,41.9184011,-73.0735230
203,Wallens Street,06098,41.9296147,-73.0483622
187,Rockwell Street,06098,41.9211390,-73.0773464
213,Perch Rock Trail,06098,41.9163058,-73.0878414
146,Belvidere Avenue,06098,41.9148407,-73.0862824
52,Holmes Drive,06098,41.9196541,-73.0944391
936,Main Street,06098,41.9318935,-73.0800498
98,Bridge Street,06098,41.9178323,-73.0707001
112;106,Elm Street,06098,41.9239108,-73.0694003
82,Wallens Street,06098,41.9295518,-73.0560891
256,Holabird Avenue,06098,41.9225857,-73.0554206
346,Street Catherine Street,06098,41.9114787,-73.0879174
68,Mountain Avenue,06098,41.9292900,-73.0655646
78,Wheeler Street,06098,41.9250309,-73.0702343
9,Loomis Street,06098,41.9317763,-73.0812326
240,East Wakefield Boulevard,06098,41.9147640,-73.0884076
228,Main Street,06098,41.9214029,-73.0658833
356,Demonstranti Road,06098,41.9130911,-73.0877017
132,Shore Drive,06098,41.9179826,-73.0816630
44,Center Street,06098,41.9219279,-73.0684048
155,Shore Drive,06098,41.9160278,-73.0822227
66,Holabird Avenue,06098,41.9246281,-73.0659204
32,Grove Street,06098,41.9231285,-73.0623904
54,Spencer Hill Road,06098,41.9320904,-73.0744025
180,Oak Street,06098,41.9275600,-73.0625308
222,Oak Street,06098,41.9287165,-73.0620579
149,Alpha Avenue,06098,41.9137984,-73.0862534
100,East Mountain Avenue,06098,41.9272657,-73.0539612
152,Holabird Avenue,06098,41.9238076,-73.0616403
60,John Street,06098,41.9282717,-73.0820481
205,Wallens Street,06098,41.9301947,-73.0478239
I 10,Nanni Drive,06098,41.9350660,-73.0538654
138,Rockwell Street,06098,41.9207330,-73.0756683
158,Pratt Street,06098,41.9146510,-73.0741842
161,Wilcox Avenue,06098,41.9161267,-73.0816239
107,Birdsall Street,06098,41.9162798,-73.0744243
1,Wallens Hill Road,06098,41.9292207,-73.0459426
25,Superior Street,06098,41.9219284,-73.0786018
317,White Oak Trail,06098,41.9130337,-73.0857486
119,Colony Drive,06098,41.9217200,-73.0559541
314,Main Street,06098,41.9214723,-73.0682953
28,Riveredge Drive,06098,41.9293346,-73.0582073
176,Florence Street,06098,41.9243515,-73.0520988
79,Wetmore Avenue,06098,41.9262241,-73.0645298
59,Meadow Street,06098,41.9265323,-73.0789913
88,Birdsall Street,06098,41.9170294,-73.0747102
272,Florence Street,06098,41.9283323,-73.0506237
34,Birdsall Street,06098,41.9189931,-73.0747304
237,East Wakefield Boulevard,06098,41.9147311,-73.0876297
128,Carey Avenue,06098,41.9145312,-73.0822681
339,Winchester Road,06098,41.9196627,-73.0956220
193,Old New Hartford Road,06098,41.9133760,-73.0505525
112,Moore Avenue,06098,41.9120065,-73.0582556
75,Ridge Street,06098,41.9181473,-73.0771106
936,Main Street,06098,41.9314788,-73.0798251
157,North Main Street,06098,41.9261345,-73.0598993
94,Williams Avenue,06098,41.9269589,-73.0729725
11,Brook Street,06098,41.9328956,-73.0586875
77,Wheeler Street,06098,41.9252475,-73.0711146
84,Manchester Heights,06098,41.9345327,-73.0744423
208,Perch Rock Trail,06098,41.9169474,-73.0865322
150,Gilbert Avenue,06098,41.9245832,-73.0572067
89,East Lake Street,06098,41.9183272,-73.0794448
238,Holabird Avenue,06098,41.9232516,-73.0572414
46,Colony Drive,06098,41.9187758,-73.0540992
86,Crown Street,06098,41.9239462,-73.0731526
126,Shore Drive,06098,41.9176323,-73.0814249
126,Stanton Avenue,06098,41.9259975,-73.0564614
11;15,Fairview Avenue,06098,41.9230176,-73.0724089
448,Main Street,06098,41.9210435,-73.0720524
50;52,Cottage Street,06098,41.9279069,-73.0647084
107,Lake Street,06098,41.9245855,-73.0801401
179,Stanton Avenue,06098,41.9243503,-73.0560261
129,Meadow Street,06098,41.9288214,-73.0800930
144,Old North Road,06098,41.9391218,-73.0416123
240,Gilbert Avenue,06098,41.9276297,-73.0569702
236,Perch Rock Trail,06098,41.9160532,-73.0891663
47,Cherry Street,06098,41.9168820,-73.0766454
2,Cook Street,06098,41.9240188,-73.0835434
17,Hillside Avenue,06098,41.9260664,-73.0743367
93,Sunny Ridge Drive,06098,41.9200968,-73.0465354
424,Main Street,06098,41.9211495,-73.0715217
112,Pratt Street,06098,41.9154062,-73.0737660
161,Meadow Street,06098,41.9300055,-73.0803390
67,Hubbard Street,06098,41.9283661,-73.0816945
100,Lake Street,06098,41.9249488,-73.0799408
126,Williams Avenue,06098,41.9279789,-73.0722858
127,Elm Street,06098,41.9243339,-73.0696747
27,Oakdale Avenue,06098,41.9152164,-73.0523447
8,Adams Street,06098,41.9277667,-73.0656568
14,Stanton Avenue,06098,41.9293113,-73.0561135
278,Florence Street,06098,41.9286652,-73.0506588
J 3,Nanni Drive,06098,41.9345813,-73.0541766
67,Birdsall Street,06098,41.9175343,-73.0740236
328,Winchester Road,06098,41.9213392,-73.0941282
115,Glendale Avenue,06098,41.9178738,-73.0515997
25,Central Avenue,06098,41.9157555,-73.0503171
B 3,Nanni Drive,06098,41.9323169,-73.0542963
77,Birdsall Street,06098,41.9174065,-73.0740895
66,Spencer Hill Road,06098,41.9312123,-73.0735738
15,Thibault Avenue,06098,41.9226476,-73.0696165
152,Gilbert Avenue,06098,41.9247938,-73.0573346
145,Walnut Street,06098,41.9264819,-73.0618952
128,East Lake Street,06098,41.9198843,-73.0786186
217,North Main Street,06098,41.9280421,-73.0600698
76,Hinsdale Avenue,06098,41.9259539,-73.0725693
180,East Lake Street,06098,41.9213638,-73.0798590
348,Norwood Road,06098,41.9103674,-73.0867425
B 1,Nanni Drive,06098,41.9322400,-73.0543884
3,Wetmore Avenue,06098,41.9269250,-73.0678958
50,Oakdale Avenue,06098,41.9156480,-73.0510417
81,East Lake Street,06098,41.9180652,-73.0792570
654,Main Street,06098,41.9235572,-73.0755656
358,Street Catherine Street,06098,41.9106181,-73.0880456
83,High Street,06098,41.9225487,-73.0718994
233,North Main Street,06098,41.9286428,-73.0595503
25,Cottage Street,06098,41.9271959,-73.0653613
90,Meadow Street,06098,41.9276741,-73.0788083
180,Holabird Avenue,06098,41.9232955,-73.0594790
227,Walnut Street,06098,41.9292811,-73.0610360
210,East Wakefield Boulevard,06098,41.9167442,-73.0854613
36,Depot Street,06098,41.9200213,-73.0700894
137,West Wakefield Boulevard,06098,41.9191880,-73.0895572
14,Baker Street,06098,41.9284864,-73.0549297
167,Mathew Road,06098,41.9142440,-73.0851039
46,Cherry Street,06098,41.9172530,-73.0767915
54,Morgan Drive,06098,41.9191284,-73.0953335
34,Cook Street,06098,41.9241499,-73.0846714
152,Walnut Street,06098,41.9267208,-73.0613066
36,Whiting Street,06098,41.9205455,-73.0576222
570,Main Street,06098,41.9223967,-73.0747090
97,Nalette Drive,06098,41.9199392,-73.0484110
126,Walnut Street,06098,41.9259337,-73.0616552
173,Elm Street,06098,41.9258897,-73.0689191
152,Williams Avenue,06098,41.9288172,-73.0719464
143,East Wakefield Boulevard,06098,41.9153485,-73.0827292
50,Manchester Heights,06098,41.9339505,-73.0744281
251,Walnut Street,06098,41.9301577,-73.0607724
I 1,Nanni Drive,06098,41.9353836,-73.0534205
13,Upson Avenue,06098,41.9179823,-73.0709633
322,Winchester Road,06098,41.9226070,-73.0942244
115,East Wakefield Boulevard,06098,41.9148120,-73.0788222
238,Pine Street,06098,41.9145803,-73.0865660
59,Lakeview Drive,06098,41.9176737,-73.0943462
I 14,Nanni Drive,06098,41.9349207,-73.0540775
93,Oakdale Avenue,06098,41.9175208,-73.0497893
59,Cook Street,06098,41.9238183,-73.0858072
936,Main Street,06098,41.9314415,-73.0815396
6,Rock Street,06098,41.9230231,-73.0742341
301,Bayview Road,06098,41.9126003,-73.0844529
177,Florence Street,06098,41.9238108,-73.0528412
48,Hillside Avenue,06098,41.9248627,-73.0748781
26,Beach Street,06098,41.9305392,-73.0601920
105,East Wakefield Boulevard,06098,41.9152855,-73.0782451
11,Gibbs Street,06098,41.9340100,-73.0578911
21,Mountain Avenue,06098,41.9286687,-73.0634346
315,East Wakefield Boulevard,06098,41.9135336,-73.0891599
144,Shore Drive,06098,41.9181917,-73.0825201
D 5,Nanni Drive,06098,41.9336552,-73.0538213
110,East Mountain Avenue,06098,41.9271720,-73.0537090
87,Hillside Avenue,06098,41.9234515,-73.0740764
253,Calos Way,06098,41.9150015,-73.0887076
29,Perkins Street,06098,41.9244899,-73.0677627
103,West Wakefield Boulevard,06098,41.9225963,-73.0867596
292,Walnut Street,06098,41.9314538,-73.0593747
17,Adams Street,06098,41.9274305,-73.0658275
37,Crescent Street,06098,41.9278253,-73.0671122
129,Gilbert Avenue,06098,41.9238262,-73.0578376
168,Wallens Street,06098,41.9287733,-73.0501219
284,Florence Street,06098,41.9285035,-73.0506429
71,Spencer Street,06098,41.9294070,-73.0761814
127,East Lake Street,06098,41.9196924,-73.0791362
I 2,Nanni Drive,06098,41.9353457,-73.0534708
133,Ridge Street,06098,41.9206429,-73.0780312
254,Perch Rock Trail,06098,41.9148154,-73.0897001
22,Hubbard Street,06098,41.9267276,-73.0810311
95,Rockwell Street,06098,41.9194362,-73.0744870
489,North Main Street,06098,41.9436042,-73.0529734
225,Prospect Street,06098,41.9237492,-73.0782906
16,Cornelio Avenue,06098,41.9218473,-73.0663380
314,White Oak Trail,06098,41.9133821,-73.0854808
97,Prospect Street,06098,41.9212148,-73.0750875
161,East Lake Street,06098,41.9208485,-73.0800499
25,Riveredge Drive,06098,41.9295418,-73.0584868
60,Oak Street,06098,41.9230538,-73.0635335
55,Munro Place,06098,41.9262026,-73.0753365
68,Wetmore Avenue,06098,41.9257462,-73.0652138
130,Wallens Street,06098,41.9291200,-73.0522621
78,Oakdale Avenue,06098,41.9163769,-73.0500862
487,North Main Street,06098,41.9432823,-73.0531404
49,East Lake Street,06098,41.9171927,-73.0784853
337,East Wakefield Boulevard,06098,41.9127477,-73.0887062
35,Boyd Street,06098,41.9255905,-73.0812219
51,Morgan Drive,06098,41.9186848,-73.0947760
125,Shore Drive,06098,41.9174543,-73.0819479
205,Birch Street,06098,41.9156576,-73.0855468
103,Oakdale Avenue,06098,41.9195665,-73.0498569
27,Finn Street,06098,41.9178004,-73.0756761
55;57,Cottage Street,06098,41.9282118,-73.0651657
90,Waldron Street,06098,41.9246048,-73.0548102
294,Main Street,06098,41.9216140,-73.0669546
48,Walnut Street,06098,41.9231600,-73.0626274
354,Norwood Road,06098,41.9101256,-73.0875458
250,Oak Street,06098,41.9296599,-73.0617293
152,Elm Street,06098,41.9251380,-73.0686857
12,Brook Street,06098,41.9331443,-73.0586402
262,Perch Rock Trail,06098,41.9142694,-73.0897536
100,Shore Drive,06098,41.9158643,-73.0805233
75,Park Place,06098,41.9229252,-73.0605455
76,Maloney Court,06098,41.9184008,-73.0526006
25-1/2,Benton Street,06098,41.9235256,-73.0543111
149,Shore Drive,06098,41.9164097,-73.0822748
170,Gilbert Avenue,06098,41.9252329,-73.0573347
150,Colony Drive,06098,41.9231668,-73.0560510
161,Spencer Street,06098,41.9321998,-73.0755272
95,East Mountain Avenue,06098,41.9277218,-73.0540386
15,Baker Street,06098,41.9285156,-73.0542606
165,Oak Street,06098,41.9269706,-73.0632173
133,Lake Street,06098,41.9239527,-73.0806243
272,Gilbert Avenue,06098,41.9287942,-73.0568524
418,Horne Avenue,06098,41.9355616,-73.0573881
L 1,Nanni Drive,06098,41.9329139,-73.0550364
10,Oak Street,06098,41.9214228,-73.0642854
120,Glendale Avenue,06098,41.9181518,-73.0510741
135,Shore Drive,06098,41.9173370,-73.0824545
L 8,Nanni Drive,06098,41.9328052,-73.0554821
123,Maloney Court,06098,41.9195044,-73.0534204
139,East Wakefield Boulevard,06098,41.9154827,-73.0819271
99,Wallens Hill Road,06098,41.9373294,-73.0424417
114,Colony Drive,06098,41.9218409,-73.0553656
50,Overlook Road,06098,41.9210714,-73.0921330
19,Walnut Street,06098,41.9216652,-73.0635665
14,Riveredge Drive,06098,41.9299542,-73.0579720
89,Stanton Avenue,06098,41.9266073,-73.0557993
55,Wetmore Avenue,06098,41.9264833,-73.0655925
164,Mathew Road,06098,41.9148005,-73.0852847
152,Mathew Road,06098,41.9155594,-73.0847402
117,Bayview Road,06098,41.9145933,-73.0837826
119,Willow Street,06098,41.9207893,-73.0665826
135,Prospect Street,06098,41.9221058,-73.0759822
936,Main Street,06098,41.9313123,-73.0805113
155;157,Gilbert Avenue,06098,41.9249003,-73.0577505
22,Curtice Street,06098,41.9268275,-73.0722229
15,Loomis Street,06098,41.9321293,-73.0808713
172,Gilbert Avenue,06098,41.9254008,-73.0573170
100,Horne Avenue,06098,41.9339394,-73.0588037
176,Shore Drive,06098,41.9164801,-73.0828228
99,Lake Street,06098,41.9245450,-73.0799050
51,East Lake Street,06098,41.9173736,-73.0785922
147,Belvidere Avenue,06098,41.9143033,-73.0860260
32,Pratt Street,06098,41.9188539,-73.0728126
144,Holabird Avenue,06098,41.9238545,-73.0619899
110,Waldron Street,06098,41.9252692,-73.0547761
133,Maloney Court,06098,41.9199744,-73.0535407
458,Main Street,06098,41.9210841,-73.0726489
47,Allen Street,06098,41.9277796,-73.0637170
146,Elm Street,06098,41.9249934,-73.0687122
198,Oak Street,06098,41.9279331,-73.0623972
172,Florence Street,06098,41.9239194,-73.0519436
67,Spencer Street,06098,41.9289667,-73.0759618
A 4,Nanni Drive,06098,41.9322674,-73.0551043
11,Park Place,06098,41.9215432,-73.0605748
136,Glendale Avenue,06098,41.9186573,-73.0512253
118,Birdsall Street,06098,41.9161203,-73.0751967
3,Carey Avenue,06098,41.9151993,-73.0800607
L 7,Nanni Drive,06098,41.9328243,-73.0554154
94,Strong Terrace,06098,41.9199121,-73.0572937
14,Ash Road,06098,41.9170218,-73.0517562
213,East Wakefield Boulevard,06098,41.9167306,-73.0859557
37,Case Avenue,06098,41.9226133,-73.0680752
326,Norcross Road,06098,41.9123590,-73.0875118
1,Hamill Drive,06098,41.9226538,-73.0545332
26,Oak Street,06098,41.9218451,-73.0641667
54,Riveredge Drive,06098,41.9267492,-73.0587464
81,Hinsdale Avenue,06098,41.9265461,-73.0721201
31,Front Street,06098,41.9279020,-73.0782152
162,Wallens Street,06098,41.9288593,-73.0505531
141,Belvidere Avenue,06098,41.9147498,-73.0857542
35,Strong Terrace,06098,41.9194354,-73.0567843
11,Central Avenue,06098,41.9154625,-73.0508087
103,East Wakefield Boulevard,06098,41.9153262,-73.0779889
111,Colony Drive,06098,41.9215442,-73.0557845
318,Winchester Road,06098,41.9230247,-73.0935857
36,Boyd Street,06098,41.9260081,-73.0807212
359,Tiffany Road,06098,41.9127176,-73.0878535
175,Old New Hartford Road,06098,41.9143943,-73.0517313
36;40,High Street,06098,41.9222538,-73.0738821
812,Main Street,06098,41.9278593,-73.0769845
110,Williams Avenue,06098,41.9274432,-73.0726810
123,Wetmore Avenue,06098,41.9257107,-73.0618998
159,Lake Street,06098,41.9230991,-73.0811049
51,Mountain Avenue,06098,41.9288413,-73.0649382
90,Rockwell Street,06098,41.9197003,-73.0740973
219,Gilbert Avenue,06098,41.9270085,-73.0577210
100,West Wakefield Boulevard,06098,41.9197737,-73.0887734
139,Old New Hartford Road,06098,41.9151678,-73.0541891
470,North Main Street,06098,41.9417941,-73.0515149
41,Lovely Street,06098,41.9165228,-73.0713592
58,Bridge Street,06098,41.9190293,-73.0707982
18,Cook Street,06098,41.9241338,-73.0842994
137,Waldron Street,06098,41.9263102,-73.0550428
2,Moreland Road,06098,41.9194754,-73.0926071
480,Main Street,06098,41.9213156,-73.0729687
47,Colony Drive,06098,41.9194114,-73.0548683
208,Walnut Street,06098,41.9281875,-73.0606828
118,Oak Street,06098,41.9252059,-73.0632143
44,Spencer Street,06098,41.9280719,-73.0753607
77,Lake Street,06098,41.9244374,-73.0786789
158,Boyd Street,06098,41.9248146,-73.0864868
60,Wallens Street,06098,41.9297315,-73.0559034
I 3,Nanni Drive,06098,41.9353220,-73.0535312
98,Ridge Street,06098,41.9178378,-73.0764406
72,High Street,06098,41.9219126,-73.0723566
77,Rockwell Street,06098,41.9190505,-73.0732306
72,Palmer Avenue,06098,41.9145798,-73.0510385
133,Alpha Avenue,06098,41.9129068,-73.0842192
A 7,Nanni Drive,06098,41.9323313,-73.0549359
78,Crown Street,06098,41.9255489,-73.0732133
12,Colony Drive,06098,41.9172690,-73.0536473
317;319,West Lake Street,06098,41.9230557,-73.0858430
180,Rowley Street,06098,41.9116509,-73.0643908
78,Gay Street,06098,41.9227977,-73.0664133
321,West Lake Street,06098,41.9230244,-73.0860628
45,Hillside Avenue,06098,41.9248431,-73.0743649
56,Riveredge Drive,06098,41.9267589,-73.0588053
20,Cottage Street,06098,41.9268935,-73.0649976
264,Florence Street,06098,41.9279218,-73.0508645
43,Wallens Street,06098,41.9302553,-73.0565652
148,Shore Drive,06098,41.9180538,-73.0827454
22,Woodland Avenue,06098,41.9252584,-73.0824175
91,Oakdale Avenue,06098,41.9168229,-73.0501315
36,Glendale Avenue,06098,41.9154245,-73.0525881
79,Chestnut Street,06098,41.9240563,-73.0655730
920,Main Street,06098,41.9307365,-73.0794469
330,Norcross Road,06098,41.9124327,-73.0879411
138,Gilbert Avenue,06098,41.9241421,-73.0574250
218,Rockwell Street,06098,41.9223308,-73.0781259
56,Mountain Avenue,06098,41.9291989,-73.0650397
31,Cottage Street,06098,41.9273629,-73.0653067
114,Williams Avenue,06098,41.9275968,-73.0726544
286,West Lake Street,06098,41.9234577,-73.0850596
53,Overlook Road,06098,41.9211277,-73.0915224
102,Wallens Street,06098,41.9294169,-73.0540412
71,East Lake Street,06098,41.9177663,-73.0787181
4,Morningside Avenue,06098,41.9298254,-73.0749538
139,Carey Avenue,06098,41.9141907,-73.0819153
154,Glendale Avenue,06098,41.9191695,-73.0513996
53,Lakeview Drive,06098,41.9182780,-73.0951870
32,Strong Terrace,06098,41.9191938,-73.0561800
185,Prospect Street,06098,41.9233459,-73.0777427
36,Cook Street,06098,41.9241670,-73.0849130
35,Wetmore Avenue,06098,41.9266387,-73.0666037
83;85,Prospect Street,06098,41.9208516,-73.0747269
536,Main Street,06098,41.9219173,-73.0739826
67,Colony Drive,06098,41.9202675,-73.0551442
89,Benton Street,06098,41.9260138,-73.0533369
3,Woodland Avenue,06098,41.9256281,-73.0815925
836,Main Street,06098,41.9285219,-73.0772413
29,Ridge Street,06098,41.9160691,-73.0764915
156,Lincoln Avenue,06098,41.9151512,-73.0828750
44,Wallens Street,06098,41.9298791,-73.0567202
936,Main Street,06098,41.9316176,-73.0796627
H 10,Nanni Drive,06098,41.9347571,-73.0535762
31,Upson Avenue,06098,41.9181101,-73.0719405
23,Beach Street,06098,41.9298736,-73.0600709
57,Palmer Avenue,06098,41.9151252,-73.0511771
116,Bayview Road,06098,41.9148932,-73.0841663
56,Morgan Drive,06098,41.9190835,-73.0958051
14,Spruce Street,06098,41.9178314,-73.0519852
59,Cook Street,06098,41.9237895,-73.0853353
175,Gilbert Avenue,06098,41.9251247,-73.0590404
262,Holabird Avenue,06098,41.9229534,-73.0548601
351,Street Catherine Street,06098,41.9107836,-73.0875253
38,Wheeler Street,06098,41.9237195,-73.0706567
131,Boyd Street,06098,41.9249382,-73.0844290
252,Perch Rock Trail,06098,41.9149623,-73.0896169
244,Main Street,06098,41.9214901,-73.0663748
119,Shore Drive,06098,41.9169921,-73.0817349
B 12,Nanni Drive,06098,41.9326789,-73.0541555
144,Ridge Street,06098,41.9214731,-73.0782784
25,Benton Street,06098,41.9232970,-73.0543997
141,Shore Drive,06098,41.9169482,-73.0822639
94,Holabird Avenue,06098,41.9243645,-73.0646209
264,Holabird Avenue,06098,41.9229201,-73.0546145
898,Main Street,06098,41.9302780,-73.0790562
398,Main Street,06098,41.9204154,-73.0711204
55,John Street,06098,41.9275671,-73.0817580
49,Front Street,06098,41.9284472,-73.0785208
135,Alpha Avenue,06098,41.9135236,-73.0848220
164,Holabird Avenue,06098,41.9237340,-73.0610204
214,Oak Street,06098,41.9284576,-73.0622370
272,Walnut Street,06098,41.9312922,-73.0599150
F 6,Nanni Drive,06098,41.9336142,-73.0530356
59,Wallens Street,06098,41.9301011,-73.0558454
148,East Wakefield Boulevard,06098,41.9157436,-73.0832353
108,Alpha Avenue,06098,41.9139526,-73.0816064
66,High Street,06098,41.9220215,-73.0729121
44,Birdsall Street,06098,41.9185184,-73.0742908
112,Maloney Court,06098,41.9198513,-73.0530076
99,Spencer Hill Road,06098,41.9358429,-73.0741254
64,Lakeview Drive,06098,41.9177728,-73.0932653
300,Main Street,06098,41.9214713,-73.0676916
319,White Oak Trail,06098,41.9130629,-73.0859248
87,Colony Drive,06098,41.9209768,-73.0553836
141,Ridge Street,06098,41.9210442,-73.0785797
18,Riveredge Drive,06098,41.9298639,-73.0580098
76,Rock Street,06098,41.9234031,-73.0717430
9,Berg Street,06098,41.9262158,-73.0554878
11,Hillside Avenue,06098,41.9262864,-73.0743050
283,Gilbert Avenue,06098,41.9295441,-73.0572545
3,Cherry Street,06098,41.9166771,-73.0747526
485,North Main Street,06098,41.9429637,-73.0533731
145,Ridge Street,06098,41.9214306,-73.0786355
156,Mathew Road,06098,41.9152796,-73.0849318
121,Bayview Road,06098,41.9143457,-73.0839809
129,Maloney Court,06098,41.9197336,-73.0534643
205,Old New Hartford Road,06098,41.9122736,-73.0475422
208,Old New Hartford Road,06098,41.9102321,-73.0477336
47,Pratt Street,06098,41.9181581,-73.0725639
103;105,Elm Street,06098,41.9238980,-73.0699857
682,Main Street,06098,41.9241491,-73.0757958
409,Horne Avenue,06098,41.9348978,-73.0583924
140,Wetmore Avenue,06098,41.9247347,-73.0617558
1,Division Street,06098,41.9267052,-73.0775879
350,Street Catherine Street,06098,41.9112191,-73.0879565
162,Spencer Street,06098,41.9320056,-73.0746659
20,Laurel Street,06098,41.9248528,-73.0837583
351,North Main Street,06098,41.9327936,-73.0582644
247,Kingsbury Avenue,06098,41.9157433,-73.0884035
18,Mountain View Terrace,06098,41.9327644,-73.0522154
110,Shore Drive,06098,41.9164631,-73.0808647
3,Superior Street,06098,41.9214936,-73.0795313
31,Oak Street,06098,41.9224626,-73.0647630
111,Shore Drive,06098,41.9164543,-73.0814125
84,Wheeler Street,06098,41.9253988,-73.0701597
345,West Lake Street,06098,41.9229777,-73.0869086
69;71,Upson Avenue,06098,41.9184272,-73.0739041
103,East Mountain Avenue,06098,41.9276579,-73.0536688
5,Fruit Street,06098,41.9247047,-73.0670907
95,Williams Avenue,06098,41.9272218,-73.0734032
30;32,Benton Street,06098,41.9240640,-73.0535696
130,Meadow Street,06098,41.9290449,-73.0792678
373,North Main Street,06098,41.9335362,-73.0579978
H 6,Nanni Drive,06098,41.9348983,-73.0533751
5,Chestnut Street,06098,41.9215182,-73.0658433
42,Lewis Street,06098,41.9170775,-73.0709809
147,Shore Drive,06098,41.9165386,-73.0823663
C 1,Nanni Drive,06098,41.9328016,-73.0542363
92,High Street,06098,41.9222360,-73.0713947
344,Demonstranti Road,06098,41.9126889,-73.0854552
15,Spring Street,06098,41.9218526,-73.0764332
111;109,Prospect Street,06098,41.9215284,-73.0754735
34,Riveredge Drive,06098,41.9292037,-73.0582102
760,Main Street,06098,41.9263404,-73.0761941
2,Wetmore Avenue,06098,41.9260811,-73.0675640
339,East Wakefield Boulevard,06098,41.9124834,-73.0886503
8,Woodland Avenue,06098,41.9257308,-73.0820778
145,Belvidere Avenue,06098,41.9145055,-73.0859358
71,Hillside Avenue,06098,41.9241025,-73.0741594
102,Ann Street,06098,41.9152284,-73.0818019
126,Carey Avenue,06098,41.9150525,-73.0811172
54,Overlook Road,06098,41.9204344,-73.0922330
42,Center Street,06098,41.9223905,-73.0683253
320,Alpha Avenue,06098,41.9141205,-73.0880303
45,Elm Street,06098,41.9220892,-73.0709439
88,Stanton Avenue,06098,41.9269902,-73.0563105
14,Curtice Street,06098,41.9268961,-73.0725381
171,Spencer Street,06098,41.9323999,-73.0752737
174,Gilbert Avenue,06098,41.9255819,-73.0572945
160,East Wakefield Boulevard,06098,41.9161879,-73.0840074
18,Birdsall Street,06098,41.9197431,-73.0738816
87,Stanton Avenue,06098,41.9267761,-73.0554129
15,Upson Avenue,06098,41.9180914,-73.0712208
202,Old New Hartford Road,06098,41.9114646,-73.0499557
157,Mathew Road,06098,41.9150653,-73.0845145
102,Sunny Ridge Drive,06098,41.9185819,-73.0460159
304,Winchester Road,06098,41.9225174,-73.0902529
106,Holabird Avenue,06098,41.9241340,-73.0634752
241,East Wakefield Boulevard,06098,41.9145043,-73.0879566
136,Walnut Street,06098,41.9261387,-73.0612359
39,Prospect Street,06098,41.9200078,-73.0729337
88;86,Rockwell Street,06098,41.9195051,-73.0735415
206,Oak Street,06098,41.9282020,-73.0623428
153,Holabird Avenue,06098,41.9241982,-73.0614447
204,Walnut Street,06098,41.9277138,-73.0610736
3,Laurel Street,06098,41.9243826,-73.0832799
200,Old New Hartford Road,06098,41.9121661,-73.0507377
91,Hubbard Street,06098,41.9291806,-73.0817614
A 6,Nanni Drive,06098,41.9323226,-73.0549947
139;141,Main Street,06098,41.9207828,-73.0631870
4,Finn Street,06098,41.9178999,-73.0744348
120,Carey Avenue,06098,41.9151691,-73.0810484
E 1,Nanni Drive,06098,41.9341475,-73.0534341
141,Maloney Court,06098,41.9202485,-73.0529649
7,Cherry Street,06098,41.9167367,-73.0751862
45,Center Street,06098,41.9222354,-73.0685478
5,Hamill Drive,06098,41.9222489,-73.0544160
68,Wheeler Street,06098,41.9246990,-73.0702870
43,Riveredge Drive,06098,41.9274266,-73.0586408
58,Overlook Road,06098,41.9200848,-73.0915082
21,Allen Street,06098,41.9267117,-73.0643572
69,Crescent Street,06098,41.9287599,-73.0666420
7,Superior Street,06098,41.9216689,-73.0791293
346,Norwood Road,06098,41.9105959,-73.0863762
344,Street Catherine Street,06098,41.9116314,-73.0882912
26,Coe Street,06098,41.9323778,-73.0827696
50,Palmer Avenue,06098,41.9150183,-73.0517784
133,Carey Avenue,06098,41.9143866,-73.0814257
265,West Lake Street,06098,41.9228950,-73.0836020
33,Center Street,06098,41.9224666,-73.0692270
322,Norcross Road,06098,41.9122863,-73.0870904
75,Palmer Avenue,06098,41.9146682,-73.0505835
36,Walnut Street,06098,41.9223943,-73.0628014
19,John Street,06098,41.9274199,-73.0801063
47,Hinsdale Avenue,06098,41.9268008,-73.0738116
102,Williams Avenue,06098,41.9272625,-73.0727398
120,Coe Street,06098,41.9356151,-73.0837011
79,Benton Street,06098,41.9255919,-73.0535122
217,Walnut Street,06098,41.9290360,-73.0611259
135,East Lake Street,06098,41.9197496,-73.0801236
225,Gilbert Avenue,06098,41.9272328,-73.0576907
133,West Wakefield Boulevard,06098,41.9196434,-73.0896173
190,Pratt Street,06098,41.9130203,-73.0744655
41,Lewis Street,06098,41.9174003,-73.0708389
56,Colony Drive,06098,41.9191966,-73.0542386
76,Elm Street,06098,41.9228290,-73.0692392
12,Cook Street,06098,41.9240921,-73.0840633
72,Hinsdale Avenue,06098,41.9262251,-73.0726568
58,Prospect Street,06098,41.9203997,-73.0736964
266,Main Street,06098,41.9216305,-73.0666142
207,Oak Street,06098,41.9282102,-73.0628578
147,Wetmore Avenue,06098,41.9255512,-73.0610231
215,Oak Street,06098,41.9285603,-73.0626723
9,Laurel Street,06098,41.9244222,-73.0834957
126,Birdsall Street,06098,41.9154074,-73.0751883
115,Wallens Street,06098,41.9296775,-73.0527427
246,Oak Street,06098,41.9294556,-73.0617940
F 9,Nanni Drive,06098,41.9336786,-73.0528812
57,Lakeview Drive,06098,41.9176253,-73.0948794
130,Main Street,06098,41.9214036,-73.0630386
58,Upson Avenue,06098,41.9187358,-73.0732230
25,Glendale Avenue,06098,41.9154491,-73.0532635
85,Rowley Street,06098,41.9167846,-73.0601288
84,Crown Street,06098,41.9242043,-73.0728208
281,Walnut Street,06098,41.9322861,-73.0624025
30,South Main Street,06098,41.9205500,-73.0586867
2,Park Place,06098,41.9210541,-73.0591662
2,Park Place,06098,41.9209789,-73.0588398
90,Whiting Street,06098,41.9224989,-73.0581556
119,North Main Street,06098,41.9247238,-73.0603861
328,Main Street,06098,41.9215265,-73.0685802
800,Main Street,06098,41.9272349,-73.0764296
29,Main Street,06098,41.9199899,-73.0590399
150,Wetmore Avenue,06098,41.9250613,-73.0609764
100,Fehr Avenue,06098,41.9158881,-73.0516953
654,Main Street,06098,41.9235543,-73.0755626
95,North Main Street,06098,41.9235387,-73.0604087
59,Main Street,06098,41.9207608,-73.0605385
3,South Main Street,06098,41.9190730,-73.0583090
15,South Main Street,06098,41.9194034,-73.0586167
101,North Main Street,06098,41.9240084,-73.0602790
372,Main Street,06098,41.9213827,-73.0701002
200,Williams Avenue,06098,41.9323888,-73.0681462
56,Park Place,06098,41.9226606,-73.0594591
56,Park Place,06098,41.9225664,-73.0595178
46,Park Place,06098,41.9223176,-73.0594148
2,Park Place,06098,41.9215131,-73.0593866
98,South Main Street,06098,41.9163141,-73.0566343
338,Main Street,06098,41.9214780,-73.0689443
115,Spencer Street,06098,41.9301952,-73.0765699
60,South Main Street,06098,41.9175452,-73.0569413
71,Spencer Street,06098,41.9293772,-73.0762229
40,Munro Place,06098,41.9259219,-73.0761797
47,Main Street,06098,41.9202961,-73.0596768
80,South Main Street,06098,41.9169793,-73.0566610
760,Main Street,06098,41.9263472,-73.0761936
29,Main Street,06098,41.9198009,-73.0592564
12,Swanson Road,06063,41.9262011,-73.0412730
52,White Street,06098,41.9317195,-73.0561568
33,New Hartford Road,06098,41.9140097,-73.0531543
33,New Hartford Road,06098,41.9138536,-73.0529396
