House number,Street name,Postal code,Latitude,Longitude
73,Fort Eddy Road,03301,43.2128662,-71.5328584
76,Fort Eddy Road,03301,43.2125323,-71.5313476
68,Fort Eddy Road,03301,43.2124076,-71.5303092
354,Sheep Davis Road,03301,43.2395157,-71.4670821
55,Fort Eddy Road,03301,43.2112791,-71.5327040
18,Loudon Road,03301,43.2078140,-71.5260990
11,Hills Avenue,03301,43.2031823,-71.5343592
39,South Main Street,03301,43.2025371,-71.5348527
17,Depot Street,03301,43.2052977,-71.5349439
24,South Main Street,03301,43.2031823,-71.5356896
75,Fort Eddy Road,03301,43.2137782,-71.5323851
39,North Main Street,03301,43.2052838,-71.5362665
1,Bicentennial Square,03301,43.2049399,-71.5365457
270,Loudon Road,03301,43.2223243,-71.4870809
270,Loudon Road,03301,43.2226955,-71.4845170
333,Loudon Road,03301,43.2298467,-71.4821335
77,Old Turnpike Road,03301,43.2000111,-71.5173637
3,Industrial Park Drive,03301,43.2128082,-71.4845339
22,Bridge Street,03301,43.2081276,-71.5341610
17,Depot Street,03301,43.2053037,-71.5348918
35,Fort Eddy Road,03301,43.2106504,-71.5321745
10,Foster Street,03301,43.2186089,-71.5477918
12,Foster Street,03301,43.2186125,-71.5475239
14,Foster Street,03301,43.2186455,-71.5474298
2,Foster Street,03301,43.2184311,-71.5481466
55,North Main Street,03301,43.2055535,-71.5366351
465,Josiah Bartlett Road,03301,43.2466374,-71.4667186
50,Storrs Street,03302,43.2050836,-71.5331304
15,Pleasant Street,03301,43.2038251,-71.5365899
344,Loudon Road,03301,43.2275093,-71.4804107
9,South Spring Street,03301,43.2013856,-71.5402426
321,Loudon Road,03301,43.2288600,-71.4833231
105,Manchester Street,03301,43.1898844,-71.5076420
2,South Main Street,03301,43.2040474,-71.5358882
41,South Main Street,03301,43.2023901,-71.5347225
265,Loudon Road,03301,43.2245097,-71.4900974
188,Sewalls Falls Road,03301,43.2680784,-71.5656133
189,Fisherville Road,03303,43.2645715,-71.5853124
100,North Main Street,03301,43.2070118,-71.5362671
80,Damante Drive,03301,43.2186094,-71.4851567
13,Warren Street,03301,43.2048060,-71.5369719
19,North Main Street,03301,43.2047366,-71.5360889
190,North Main Street,03301,43.2102178,-71.5373564
1,Eagle Square,03301,43.2070965,-71.5360075
11 1/2,Eastman Street,03301,43.2360953,-71.5347587
8,North State Street,03301,43.2044843,-71.5372498
32,Fort Eddy Road,03301,43.2118118,-71.5297572
1,Minuteman Way,03301,43.2103776,-71.5122473
10,Fort Eddy Road,03301,43.2100263,-71.5310579
36,Fort Eddy Road,03301,43.2118752,-71.5298187
42,Fort Eddy Road,03301,43.2119886,-71.5299287
56,Fort Eddy Road,03301,43.2122445,-71.5301516
76,Fort Eddy Road,03301,43.2125876,-71.5308897
80,Storrs Street,03302,43.2043940,-71.5329138
207,North Main Street,03301,43.2141177,-71.5410808
100,Fort Eddy Road,03301,43.2146858,-71.5294131
13,Manchester Street,03301,43.1928005,-71.5202071
20,Loudon Road,03301-5603,43.2078644,-71.5257944
67,South Main Street,03301,43.2006377,-71.5332375
117,Storrs Street,03301,43.2060053,-71.5350527
80,Storrs Street,03301-4840,43.2041718,-71.5328347
31,College Drive,03301,43.2227474,-71.5313031
10,Ferry Street,03301,43.2127047,-71.5381657
162,Manchester Street,03301,43.1872402,-71.4995299
196,Loudon Road,03301-6029,43.2197334,-71.4983236
240,Loudon Road,03301,43.2222894,-71.4920523
80,Storrs Street,03301,43.2046721,-71.5329957
10,Hills Avenue,03301,43.2029480,-71.5345058
33,Pleasant Street,03301,43.2031313,-71.5379482
63,Bog Road,03301,43.2535708,-71.5890265
273,Loudon Road,03301,43.2251409,-71.4890683
374,Loudon Road,03301,43.2308662,-71.4784417
51,South Curtisville Road,03301,43.2334746,-71.5143748
53,South Curtisville Road,03301,43.2342185,-71.5139990
8,North Main Street,03301,43.2045314,-71.5355648
2,Capital Plaza,03301,43.2056610,-71.5368138
89,Fort Eddy Road,03301,43.2160883,-71.5306889
164,Loudon Road,03301,43.2177236,-71.5030816
46,Pleasant Street,03301,43.2033570,-71.5383253
50,Pleasant Street,03301,43.2031388,-71.5387324
4,Church Street,03301,43.2147652,-71.5428279
28,South Main Street,03301,43.2025703,-71.5354544
1045,Bradley Street,03301,43.2162766,-71.5469822
9,Triangle Park Drive,03301,43.2173031,-71.4846049
11,South Main Street,03301,43.2038152,-71.5353163
170,North State Street,03301,43.2189425,-71.5491197
82,Currier Road,03301,43.2075319,-71.6301307
270,Loudon Road,03301,43.2217818,-71.4849472
16,Bicentennial Square,03301,43.2043687,-71.5362375
1,Whitney Road,03301,43.2886858,-71.5804454
65,Regional Drive,03302,43.2108345,-71.4912638
15,Hall Street,03301,43.1939868,-71.5276619
15,Hall Street,03301,43.1938860,-71.5277843
175,North Main Street,03301,43.2116274,-71.5393725
175,North Main Street,03301,43.2117348,-71.5391629
273,Loudon Road,03301,43.2251968,-71.4889673
234,North Main Street,03301,43.2130905,-71.5393196
289,Loudon Road,03301-6056,43.2262322,-71.4876336
73,Carter Hill Road,03303,43.2344925,-71.6094208
30,Manchester Street,03301,43.1916949,-71.5183218
29,Hazen Drive,03305,43.2189759,-71.5150258
29,Hazen Drive,03305,43.2191013,-71.5151216
76,North Main Street,03301,43.2063444,-71.5360740
231,South Main Street,03301,43.1946376,-71.5311597
15,Merchants Way,03301,43.2892053,-71.5760493
18,Foundry Street,03301,43.2347671,-71.5395992
18,Foundry Street,03301,43.2345786,-71.5393970
16,Foundry Street,03301,43.2352419,-71.5391454
2,Capital Plaza,03301,43.2059841,-71.5364497
17,Merchants Way,03301,43.2885574,-71.5756643
79,Clinton Street,03301,43.1895827,-71.5493150
79,Clinton Street,03301,43.1896552,-71.5491690
2,Whitney Rd,03301,43.2882525,-71.5827971
76,Fort Eddy Plaza,03301,43.2128635,-71.5310636
1,Beaver Meadow Drive,03301,43.2589086,-71.5676462
1,Beaver Meadow Drive,03301,43.2592000,-71.5680428
33,Hazen Drive,03305,43.2072550,-71.4793755
96,Pleasant Street,03301,43.2010369,-71.5443087
63,Storrs Street,03301,43.2039037,-71.5338318
80,Storrs Street,03301,43.2042631,-71.5339868
74,Storrs Street,03301,43.2040670,-71.5339466
6,Merchants Way,03301,43.2880744,-71.5794951
4,Merchants Way,03301,43.2881584,-71.5795273
8,Merchants Way,03301,43.2879593,-71.5794481
240,Loudon Road,03301,43.2223510,-71.4919357
10,Garvins Falls Road,03301,43.1885963,-71.5128468
112,Loudon Road,03301,43.2131984,-71.5126550
344,Loudon Road,03301,43.2270512,-71.4806043
310,Loudon Road,03301,43.2273481,-71.4830517
308,Loudon Road,03301,43.2273007,-71.4831839
310,Loudon Road,03301,43.2272370,-71.4833099
40,Terrill Park Drive,03301,43.1990896,-71.5090020
60,Commercial Street,03301,43.2191857,-71.5350252
121,Commercial Street,03301,43.2229847,-71.5364288
14,Spruce Street,03301,43.1947268,-71.5354040
142,Loudon Road,03301,43.2159547,-71.5065292
92,Manchester Street,03301,43.1898268,-71.5098807
66,North Main Street,03301,43.2060674,-71.5360278
80,Storrs Street,03301,43.2023925,-71.5323987
107,North Main Street,03301,43.2068895,-71.5381744
25,Capitol Street,03301,43.2062538,-71.5378606
310,Sheep Davis Road,03301,43.2284717,-71.4755206
304,Sheep Davis Road,03301,43.2264004,-71.4752458
310,Loudon Road,03301,43.2271014,-71.4829371
344,Loudon Road,03301,43.2274946,-71.4799084
270,Loudon Rd,03301,43.2227931,-71.4859463
80,D'Amante Drive,03301,43.2183354,-71.4846549
20,D'Amante Drive,03301,43.2221798,-71.4898168
78,D'Amante Drive,03301,43.2184948,-71.4857659
68,D'Amante Drive,03301,43.2186383,-71.4864434
270,Loudon Road,03301,43.2215559,-71.4834577
39,Woodcrest Heights Drive,03301,43.2239153,-71.5008522
258,Sheep Davis Road,03301,43.2168030,-71.4825306
19,Triangle Road,03301,43.2172869,-71.4872442
86,D'Amante Drive,03301,43.2199945,-71.4838391
282,Loudon Road,03301,43.2248454,-71.4857023
277,Sheep Davis Road,03301,43.2222385,-71.4827357
11,Triangle Park Drive,03301,43.2173622,-71.4851601
60,D'Amante Drive,03301,43.2203855,-71.4860763
42,D'Amante Drive,03301,43.2202849,-71.4885199
260,Loudon Road,03301,43.2238215,-71.4893156
25,Triangle Park Drive,03301,43.2191300,-71.4880290
240,Loudon Road,03301,43.2224654,-71.4917246
295,Loudon Road,03301,43.2270712,-71.4865406
299,Loudon Road,03301,43.2283101,-71.4853584
297,Loudon Road,03301,43.2277324,-71.4850300
317,Loudon Road,03301,43.2286361,-71.4837831
327,Loudon Road,03301,43.2292420,-71.4828610
350,Loudon Road,03301,43.2291335,-71.4809461
333,Loudon Road,03301,43.2299151,-71.4820398
22,Loudon Road,03301,43.2083188,-71.5250556
106,Loudon Road,03301,43.2125766,-71.5139181
117,Loudon Road,03301,43.2138287,-71.5129828
321,Loudon Road,03301,43.2288425,-71.4833512
333,Loudon Road,03301,43.2297611,-71.4817768
44,South Main Steet,03301,43.2012030,-71.5349918
90,South Main Street,03301,43.1971626,-71.5312608
121,South Main Street,03301,43.1981062,-71.5308396
131,South Main Street,03301,43.1975371,-71.5303785
125,South Main Street,03301,43.1978671,-71.5306043
113,South Main Street,03301,43.1983580,-71.5312418
67,South Main Street,03301,43.2007388,-71.5331939
61,South Main Street,03301,43.2011143,-71.5335875
81,South Main Street,03301,43.1999380,-71.5324367
4,Gulf Street,03301,43.1971843,-71.5289045
25,Water Street,03301,43.1949268,-71.5276049
15,Hall Street,03301,43.1934589,-71.5273191
18,Hall Street,03301,43.1933758,-71.5282837
22,Hall Street,03301,43.1930811,-71.5284415
207,South Main Street,03301,43.1962715,-71.5306809
249,Loudon Road,03301,43.2236190,-71.4928732
95,Old Loudon Road,03301,43.2311047,-71.4833572
161,Loudon Road,03301,43.2172083,-71.5056191
148,Loudon Road,03301,43.2165650,-71.5056412
147,Loudon Road,03301,43.2160491,-71.5080493
101,Loudon Road,03301,43.2128031,-71.5150637
22,Hall Street,03301,43.1831369,-71.5256466
33,Capitol Street,03301,43.2059535,-71.5388052
30,Park Street,03301,43.2072452,-71.5395029
4,Hall Street,03301,43.1946447,-71.5288654
2,Institute Drive,03301,43.2243598,-71.5324395
22,Bridge Street,03301,43.2080142,-71.5345128
22,Bridge Street,03301,43.2073022,-71.5334740
250,Pleasant Street,03301,43.1977521,-71.5617273
250,Pleasant Street,03301,43.1992752,-71.5627404
264,Pleasant Street,03301,43.1976836,-71.5646770
151,Langley Parkway,03301,43.2018727,-71.5656811
254,Pleasant Street,03301,43.2012667,-71.5630644
240,Pleasant Street,03301,43.1963932,-71.5598224
139,Langley Parkway,03301,43.2006554,-71.5649903
246,Pleasant Street,03301,43.1990296,-71.5628067
244,Pleasant Street,03301,43.1967243,-71.5602139
248,Pleasant Street,03301,43.1977165,-71.5631290
7,Newton Avenue,03301,43.2146709,-71.5076318
90,Fort Eddy Road,03301,43.2131549,-71.5287155
30,Stickney Avenue,03301,43.2125794,-71.5345278
30,Stickney Avenue,03301,43.2118336,-71.5343452
33,Hazen Drive,03305,43.2198355,-71.5128185
23,Hazen Drive,03305,43.2178952,-71.5167278
91,Hall Street,03301,43.1879780,-71.5244529
12,Venne Circle,03307,43.2289725,-71.5054387
67,Broadway,03301,43.1900928,-71.5365298
110,Manchester Street,03301,43.1886865,-71.5069007
412,South Main Street,03301,43.1767485,-71.5305133
170,Warren Street,03301,43.2003753,-71.5509964
71,Hall Street,03301,43.1891097,-71.5249339
97,Hall Street,03301-3421,43.1876623,-71.5240816
60,Village Street,03301,43.2710924,-71.5867269
281,North State Street,03302,43.2271479,-71.5591978
2,Rex Drive,03303,43.2555188,-71.5785839
4,Rex Drive,03303,43.2553963,-71.5787871
6,Rex Drive,03303,43.2552067,-71.5791407
8,Rex Drive,03303,43.2551302,-71.5793220
10,Rex Drive,03303,43.2550830,-71.5795137
12,Rex Drive,03303,43.2550714,-71.5797159
14,Rex Drive,03303,43.2550923,-71.5799253
40,Sewalls Falls Road,03301,43.2519038,-71.5690156
17,North Spring Street,03301,43.2025059,-71.5415436
417,South Main Street,03301,43.1766094,-71.5293788
254,North State Street,03301,43.2251172,-71.5523714
1,Beaver Meadow Street,03301,43.2596407,-71.5663243
76,Community Drive,03303,43.2769177,-71.5947012
191,Village Street,03303,43.2764260,-71.5983184
125,Fisherville Road,03301,43.2604442,-71.5818401
27,Eastman Street,03301,43.2341208,-71.5340553
13,Warren Street,03301,43.2047869,-71.5370388
9,King Street,03301,43.2024521,-71.5602279
7,King Street,03301,43.2021653,-71.5600920
266,Clinton Street,03301,43.1765341,-71.5724942
11,Depot Street,03301,43.2051913,-71.5351405
20,North State Street,03301,43.2054378,-71.5377295
16,South Main Street,03301,43.2036095,-71.5360855
33,School Street,03301,43.2055561,-71.5384881
15,North State Street,03301,43.2048974,-71.5380457
30,Stickney Avenue,03301,43.2111608,-71.5342694
92 1/2,South State Street,03301,43.1962076,-71.5332870
28,Fayette Street,03301,43.2013041,-71.5385361
152,South Street,03301,43.1882659,-71.5428089
118,Manchester Street,03301,43.1889503,-71.5059126
9,Bonney Street,03303,43.2787642,-71.5982192
155,Loudon Road,03301-5610,43.2165232,-71.5073014
37,Regional Drive,03301,43.2127239,-71.5013619
61,South State Street,03301,43.1992195,-71.5340533
72,South Main Street,03301,43.1992385,-71.5334646
7019,Josiah Bartlett Road,03307,43.2523520,-71.4609119
37,Green Street,03301,43.2058536,-71.5401547
39,Green Street,03301,43.2057665,-71.5407855
44,Pleasant Street,03301,43.2035110,-71.5381230
37,North Spring Street,03301,43.2045182,-71.5417758
43,Rumford Street,03301,43.2057672,-71.5433508
96,Pleasant Street,03301,43.2010445,-71.5443245
61,Mountain Road,03301,43.2428994,-71.5388041
87,Mountain Road,03301,43.2458100,-71.5394275
145,Mountain Road,03301,43.2522420,-71.5413715
149,Mountain Road,03301,43.2527110,-71.5416420
227,Mountain Road,03301,43.2599600,-71.5473780
279,Mountain Road,03301,43.2648160,-71.5513115
339,Mountain Road,03301,43.2710777,-71.5550415
349,Mountain Road,03301,43.2724505,-71.5564120
367,Mountain Road,03301,43.2733815,-71.5573820
95,Shaker Road,03301,43.2528081,-71.5352113
14,Horsheshoe Pond Lane,03301,43.2175420,-71.5426360
40,Sewalls Falls Road,03301,43.2523688,-71.5694194
1,Beaver Meadow Drive,03301,43.2589315,-71.5675385
55,Bradley Street,03301,43.2167350,-71.5482722
171,North State Street,03301,43.2177808,-71.5485877
50,North State Street,03301,43.2089570,-71.5395720
34,Centre Street,03301,43.2075690,-71.5404595
30-32,Centre Street,03301,43.2076520,-71.5402760
28,Centre Street,03301,43.2077320,-71.5401515
26,Centre Street,03301,43.2078099,-71.5399199
65-71,North State Street,03301,43.2079955,-71.5396970
202,North Main Street,03301,43.2111595,-71.5379580
70,Constitution Avenue,03301,43.2181700,-71.5365595
92,Manchester Street,03301,43.1897705,-71.5098760
62,Manchester Street,03301,43.1908205,-71.5136370
5,Grover Street,03301,43.2135845,-71.5107170
406,South Main Street,03301,43.1774318,-71.5308934
81,South Main Steet,03301,43.1999150,-71.5325993
198,Pembroke Road,03301,43.2147045,-71.4864185
180,Loudon Road,03301,43.2185865,-71.5005865
26,Washington Street,03303,43.2787864,-71.6020013
31,Summer Street,03303,43.2814280,-71.5981050
36,Centre Street,03301,43.2074075,-71.5407826
46-48,Centre Street,03301,43.2071765,-71.5414155
40-40.5,Centre Street,03301,43.2073496,-71.5413555
38,Centre Street,03301,43.2073666,-71.5410646
54,Centre Street,03301,43.2068130,-71.5422730
64,Rumford Street,03301,43.2064780,-71.5429790
60,Centre Street,03301,43.2065985,-71.5427535
58,Centre Street,03301,43.2066405,-71.5426110
56,Centre Street,03301,43.2067374,-71.5424348
7,Essex Street,03301,43.2065615,-71.5442160
9,Essex Street,03301,43.2067225,-71.5443230
11,Essex Street,03301,43.2068510,-71.5443835
13,Essex Street,03301,43.2069720,-71.5444740
15,Essex Street,03301,43.2070742,-71.5445070
17,Essex Street,03301,43.2071254,-71.5445645
67,Washington Street,03301,43.2068950,-71.5447210
69,Washington Street,03301,43.2067731,-71.5448081
12,Perry Avenue,03301,43.2066440,-71.5446965
4,Perry Avenue,03301,43.2062260,-71.5442010
74,Centre Street,03301,43.2058632,-71.5444326
9 & 11,Perry Avenue,03301,43.2064015,-71.5448025
71,Washington Street,03301,43.2066365,-71.5449725
73,Washington Street,03301,43.2065435,-71.5450770
75,Washington Street,03301,43.2063645,-71.5451760
77,Washington Street,03301,43.2062260,-71.5453175
79,Washington Street,03301,43.2060871,-71.5454506
81,Washington Street,03301,43.2059035,-71.5455445
83,Washington Street,03301,43.2057249,-71.5457385
87,Washington Street,03301,43.2055305,-71.5458795
89,Washington Street,03301,43.2053595,-71.5460165
91-93,Washington Street,03301,43.2052140,-71.5461055
90,Centre Street,03301,43.2052796,-71.5459194
88,Centre Street,03301,43.2053250,-71.5457815
86,Centre Street,03301,43.2054317,-71.5456300
84,Centre Street,03301,43.2054785,-71.5454639
82,Centre Street,03301,43.2056280,-71.5453630
80,Centre Street,03301,43.2056370,-71.5450915
76,Centre Street,03301,43.2059055,-71.5447815
5,Essex Street,03301,43.2064340,-71.5440990
201,South Main Street,03301,43.1967420,-71.5304969
289,Loudon Road,03301-6056,43.2263951,-71.4876371
41,Washington Street,03301,43.2087852,-71.5430784
14,Allen Street,03303,43.2757407,-71.5886000
106,Village Street,03303,43.2738968,-71.5905435
17,Knight Street,03301,43.2437329,-71.5736159
75,Snow Street,03303,43.2658688,-71.5792545
10,Merchants Way,03301,43.2881239,-71.5783015
5,Merchants Way,03301,43.2887405,-71.5796486
2,Merchants Way,03301,43.2878508,-71.5800541
11,Merchants Way,03301,43.2889689,-71.5781931
310,Loudon Road,03301,43.2270484,-71.4835696
404,South Main Street,03301,43.1774674,-71.5316519
90,Clinton Street,03301,43.1900579,-71.5517023
60,Iron Works Road,03301,43.1799551,-71.5517567
62,Iron Works Road,03301,43.1793509,-71.5522625
60,Iron Works Road,03302,43.1799154,-71.5515501
248,Pleasant Street,03301,43.1997646,-71.5627878
79,Clinton Street,03301,43.1896550,-71.5494021
