House number,Street name,Postal code,Latitude,Longitude
243,Central Avenue,03820,43.1922757,-70.8728697
245,Central Avenue,03820,43.1923188,-70.8728851
259,County Farm Road,03820,43.2173610,-70.9410530
11,Fourth Street,03820,43.1993468,-70.8757144
376,Central Avenue,03820,43.1958624,-70.8746109
7,Main Street,03820,43.1955181,-70.8714532
2,Orchard Street,03820,43.1956445,-70.8748799
99,Oak Street,03820,43.2026852,-70.8591163
2,Washington Street,03820,43.1943798,-70.8720023
24,Red Barn Drive,03820,43.1754807,-70.8731508
2,Waldron Court,03820,43.1962074,-70.8748922
77,Spur Road,03820,43.1516572,-70.8476134
446,Central Avenue,03820,43.1974530,-70.8742462
421,Central Avenue,03801,43.1968413,-70.8739920
421,Central Avenue,03820,43.1968174,-70.8736880
421,Central Avenue,03820,43.1967929,-70.8739993
20,Weeks Lane,03820,43.2227526,-70.8867581
40,Chestnut Street,03820,43.1959804,-70.8764325
40,Chestnut Street,03820,43.1959821,-70.8760741
1,Washington Street,03820,43.1950322,-70.8721821
517,Central Avenue,03820,43.1989808,-70.8744645
511,Central Avenue,03820,43.1989056,-70.8744154
487,Central Avenue,03820,43.1984995,-70.8739541
474,Central Avenue,03820,43.1981500,-70.8743537
472,Central Avenue,03820,43.1981130,-70.8743372
314,Central Avenue,03820,43.1943499,-70.8749185
301,Central Avenue,03820,43.1939485,-70.8744269
299,Central Avenue,03820,43.1939029,-70.8743941
291,Central Avenue,03820,43.1937395,-70.8740585
286,Central Avenue,03820,43.1934261,-70.8743729
280,Central Avenue,03820,43.1933478,-70.8742388
7,George Street,03820,43.1918722,-70.8721345
5,George Street,03820,43.1918411,-70.8721524
9,Main Street,03820,43.1956825,-70.8714722
542,Central Avenue,03820,43.2001916,-70.8756539
74,Industrial Park Drive,03820,43.1845724,-70.9053284
1,Washington Street,03820,43.1949095,-70.8707994
23,Indian Brook Drive,03820,43.2134921,-70.9018369
41,First Street,03820,43.1974845,-70.8768891
10,Littleworth Road,03820,43.1839654,-70.8924982
245,Back River Road,03820,43.1798902,-70.8417347
271,Mast Road,03820,43.1685892,-70.8981657
10,Durham Road,03820,43.1789330,-70.8785507
10B,Hidden Valley Drive,03820,43.1498024,-70.8768913
10A,Hidden Valley Drive,03820,43.1498918,-70.8781005
5,Hidden Valley Drive,03820,43.1532471,-70.8746233
11,Hidden Valley Drive,03820,43.1531112,-70.8754540
75,Hidden Valley Drive,03820,43.1493107,-70.8783213
79,Hidden Valley Drive,03820,43.1489708,-70.8775527
86,Hidden Valley Drive,03820,43.1480816,-70.8771645
82,Hidden Valley Drive,03820,43.1482487,-70.8767608
70,Hidden Valley Drive,03820,43.1484497,-70.8750877
66,Hidden Valley Drive,03820,43.1491804,-70.8753944
1,Sumner Drive,03820,43.1794135,-70.9016346
191,Back Road,03820,43.1844076,-70.8449527
83,Washington Street,03820,43.1951533,-70.8748694
40,Chestnut Street,03820,43.1959505,-70.8766183
187,Crosby Rd,03820,43.1782315,-70.9135952
92,New Rochester Road,03820,43.2313217,-70.8977800
3,Wentworth Terrace,03820,43.1236477,-70.8294209
8,Wentworth Terrace,03820,43.1236023,-70.8304243
1,Wentworth Terrace,03820,43.1229859,-70.8285720
15,Wentworth Terrace,03820,43.1242773,-70.8307848
11,Wentworth Terrace,03820,43.1240808,-70.8303654
19,Wentworth Terrace,03820,43.1244574,-70.8311723
16,Wentworth Terrace,03820,43.1241315,-70.8312174
7,Wentworth Terrace,03820,43.1239288,-70.8298013
17,Wentworth Terrace,03820,43.1243752,-70.8309425
9,Wentworth Terrace,03820,43.1240253,-70.8301174
55,Main Street,03820,43.1970174,-70.8724590
353,Central Avenue,03820,43.1953430,-70.8740912
9,Henry Law Avenue,03820,43.1944785,-70.8732792
9,Main Street,03820,43.1956817,-70.8714724
300,Central Avenue,03820,43.1941559,-70.8749667
333,Central Avenue,03820,43.1944838,-70.8742304
293;295,Central Avenue,03820,43.1938438,-70.8742692
303,Central Avenue,03820,43.1940002,-70.8743568
314,Central Avenue,03820,43.1943315,-70.8749812
291,Central Avenue,03820,43.1937468,-70.8740484
288,Central Avenue,03820,43.1936518,-70.8750247
47,Central Avenue,03820,43.1818114,-70.8754871
262,County Farm Road,03820,43.2166180,-70.9394442
103,Silver Street,03820,43.1910403,-70.8812667
6,Washington Street,03820,43.1948394,-70.8730032
278,Central Avenue,03820,43.1932748,-70.8742418
237,Central Avenue,03820,43.1920714,-70.8725429
3,Hale Street,03820,43.1933397,-70.8745561
93,Locust Street,03820,43.1921546,-70.8759162
125,Washington Street,03820,43.1950906,-70.8761357
2,Locust Street,03820,43.1946700,-70.8752558
93,Washington Street,03820,43.1951447,-70.8752371
301,Central Avenue,03820,43.1939652,-70.8744040
256,Central Avenue,03820,43.1928312,-70.8738027
299,Central Avenue,03820,43.1939187,-70.8743663
250,Central Avenue,03820,43.1926153,-70.8735197
286,Central Avenue,03820,43.1934221,-70.8743697
25,Saint Thomas Street,03820,43.1939104,-70.8765599
133,Washington Street,03820,43.1950729,-70.8768833
73,Locust Street,03820,43.1929003,-70.8763377
257,Central Avenue,03820,43.1927421,-70.8727983
218,Central Avenue,03820,43.1911857,-70.8740014
280,Central Avenue,03820,43.1933417,-70.8743633
264,Central Avenue,03820,43.1930188,-70.8739087
270,Central Avenue,03820,43.1931699,-70.8740179
263,Central Avenue,03820,43.1930078,-70.8732093
251,Central Avenue,03820,43.1925598,-70.8729288
61,Locust Street,03820,43.1932639,-70.8768300
262,Central Avenue,03820,43.1929477,-70.8738631
263,Central Avenue,03820,43.1931320,-70.8733189
53,Washington Street,03820,43.1953009,-70.8732833
85,Washington Street,03820,43.1952007,-70.8751387
332,Central Avenue,03820,43.1947322,-70.8750713
263,Central Avenue,03820,43.1930699,-70.8732641
274,Central Avenue,03820,43.1932505,-70.8741212
5,Hale Street,03820,43.1931538,-70.8749362
266,Central Avenue,03820,43.1931307,-70.8739643
284,Central Avenue,03820,43.1933747,-70.8743181
5,Hale Street,03820,43.1932716,-70.8747388
23,Indian Brook Drive,03820,43.2135203,-70.9017806
10,Member's Way,03820,43.2141563,-70.9031230
9,Member's Way,03820,43.2149622,-70.9016304
23,Member's Way,03820,43.2154618,-70.9002831
1,Webb Place,03820,43.2211744,-70.8874981
13,Webb Place,03820,43.2213488,-70.8884626
45,Central Avenue,03820,43.1817477,-70.8760256
101,Back Road,03820,43.1847236,-70.8529390
15,Webb Place,03820,43.2214980,-70.8887701
219,Long Hill Road,03820,43.2336651,-70.9193921
11,Webb Place,03820,43.2213382,-70.8883606
282,Durham Road,03820,43.1602731,-70.8930533
294,Durham Road,03820,43.1616921,-70.8940004
301,Durham Road,03820,43.1617620,-70.8952023
640,Central Avenue,03820,43.2050497,-70.8758974
837,Central Avenue,03820,43.2163243,-70.8802472
652,Central Avenue,03820,43.2054872,-70.8758374
505,Central Avenue,03820,43.1988758,-70.8742731
180,Washington Street,03820,43.1942943,-70.8782287
875,Central Avenue,03820,43.2193503,-70.8812308
11,Main Street,03820,43.1958295,-70.8714010
887,Central Avenue,03820,43.2188176,-70.8833188
812,Central Avenue,03820,43.2144769,-70.8779502
1,Main Street,03820,43.1952782,-70.8715807
798,Central Avenue,03820,43.2134285,-70.8765688
421,Central Avenue,03820,43.1967318,-70.8739826
83,Main Street,03820,43.1980500,-70.8724771
550,Central Avenue,03820,43.2009245,-70.8761164
604,Central Avenue,03820,43.2034378,-70.8759101
140,Washington Street,03820,43.1944417,-70.8767249
802,Central Avenue,03820,43.2140039,-70.8772464
400,Central Avenue,03820,43.1963545,-70.8745724
503,Central Avenue,03820,43.1986749,-70.8740685
481,Central Avenue,03820,43.1985399,-70.8735064
784,Central Avenue,03820,43.2119536,-70.8749959
151,Washington Street,03820,43.1949051,-70.8777050
664,Central Avenue,03820,43.2062415,-70.8756540
12,Chestnut Street,03820,43.1997629,-70.8763862
652A,Central Avenue,03820,43.2055984,-70.8757615
519,Central Avenue,03820,43.1992446,-70.8744985
45,Chestnut Street,03820,43.1975099,-70.8775035
7,Chestnut Street,03820,43.2007860,-70.8767673
364,Central Avenue,03820,43.1956179,-70.8746637
700,Central Avenue,03820,43.2078257,-70.8756374
627,Central Avenue,03820,43.2042951,-70.8751968
526,Central Avenue,03820,43.1994479,-70.8753679
890,Central Avenue,03820,43.2182546,-70.8837295
432,Central Avenue,03820,43.1969074,-70.8744380
90,Washington Street,03820,43.1947945,-70.8750823
633,Central Avenue,03820,43.2050164,-70.8750215
604,Central Avenue,03820,43.2034355,-70.8767187
542,Central Avenue,03820,43.2002119,-70.8757478
471,Central Avenue,03820,43.1981763,-70.8734449
600,Central Avenue,03820,43.2030496,-70.8760166
818,Central Avenue,03820,43.2150593,-70.8788056
16,Chestnut Street,03820,43.1995463,-70.8764307
590,Central Avenue,03820,43.2026520,-70.8760977
760,Central Avenue,03820,43.2109839,-70.8748424
855,Central Avenue,03820,43.2184266,-70.8803937
833,Central Avenue,03820,43.2171751,-70.8782149
376,Central Avenue,03820,43.1958775,-70.8746879
184,Washington Street,03820,43.1942084,-70.8786389
330,Central Avenue,03820,43.1946691,-70.8750604
14,Chestnut Street,03820,43.1996559,-70.8764082
163,Washington Street,03820,43.1947084,-70.8781020
24,Chestnut Street,03820,43.1970127,-70.8767468
328,Central Avenue,03820,43.1946069,-70.8750493
422,Central Avenue,03820,43.1967433,-70.8744712
559,Central Avenue,03820,43.2009119,-70.8755355
595,Central Avenue,03820,43.2026393,-70.8754606
611,Central Avenue,03820,43.2035530,-70.8752323
660,Central Avenue,03820,43.2058689,-70.8757003
680,Central Avenue,03820,43.2070488,-70.8756204
701,Central Avenue,03820,43.2080193,-70.8746306
747,Central Avenue,03820,43.2100159,-70.8745484
750,Central Avenue,03820,43.2100917,-70.8753495
79,Main Street,03820,43.1978350,-70.8723523
867,Central Avenue,03820,43.2188510,-70.8809376
43,Main Street,03820,43.1966840,-70.8722082
77,Main Street,03820,43.1977111,-70.8723131
388,Central Avenue,03820,43.1961631,-70.8746122
839,Central Avenue,03820,43.2165995,-70.8801457
81,Main Street,03820,43.1979465,-70.8724170
701,Central Avenue,03820,43.2082310,-70.8745873
555,Central Avenue,03820,43.2007847,-70.8754583
7,Main Street,03820,43.1955126,-70.8714188
859,Central Avenue,03820,43.2185362,-70.8805347
912,Central Avenue,03820,43.2198946,-70.8856433
863,Central Avenue,03820,43.2175010,-70.8819534
662,Central Avenue,03820,43.2061679,-70.8756619
386,Central Avenue,03820,43.1959902,-70.8746642
861,Central Avenue,03820,43.2185852,-70.8805979
841,Central Avenue,03820,43.2172827,-70.8815562
829,Central Avenue,03820,43.2161064,-70.8796230
827,Central Avenue,03820,43.2156255,-70.8787076
537,Central Avenue,03820,43.2002211,-70.8749576
877,Central Avenue,03820,43.2195414,-70.8814767
547,Central Avenue,03820,43.2006575,-70.8753142
601,Central Avenue,03820,43.2030297,-70.8753088
745,Central Avenue,03820,43.2097088,-70.8745950
865,Central Avenue,03820,43.2187833,-70.8806630
679,Central Avenue,03820,43.2070360,-70.8749371
873,Central Avenue,03820,43.2190528,-70.8810013
869,Central Avenue,03820,43.2177390,-70.8820812
25,Third Street,03820,43.1989839,-70.8773067
140,Washington Street,03820,43.1945585,-70.8767417
851,Central Avenue,03820,43.2181589,-70.8797669
590,Central Avenue,03820,43.2027345,-70.8760973
827,Central Avenue,03820,43.2157208,-70.8786142
394,Central Avenue,03820,43.1962491,-70.8745426
853,Central Avenue,03820,43.2183649,-70.8803143
621,Central Avenue,03820,43.2038687,-70.8751468
530,Central Avenue,03820,43.1997788,-70.8755484
499,Central Avenue,03820,43.1986233,-70.8740178
839,Central Avenue,03820,43.2164436,-70.8802033
421,Central Avenue,03820,43.1967696,-70.8738109
755,Central Avenue,03820,43.2104892,-70.8743520
"459,461",Central Avenue,03820,43.1980680,-70.8733874
622,Central Avenue,03820,43.2038954,-70.8760759
1,Glenwood Avenue,03820,43.2158419,-70.8819229
857,Central Avenue,03820,43.2184843,-70.8804681
909,Central Avenue,03820,43.2209210,-70.8856693
795,Central Avenue,03820,43.2137240,-70.8757598
668,Central Avenue,03820,43.2064106,-70.8756757
789,Central Avenue,03820,43.2128972,-70.8736087
525,Central Avenue,03820,43.1995364,-70.8744397
655,Central Avenue,03820,43.2058215,-70.8749868
561,Central Avenue,03820,43.2009989,-70.8755847
37,Saint Thomas Street,03820,43.1941025,-70.8779105
2,Orchard Street,03820,43.1957245,-70.8748657
105,Locust Street,03820,43.1919194,-70.8758899
14,Pearson Drive,03820,43.1371671,-70.8400727
12,Pearson Drive,03820,43.1372972,-70.8396677
13,Pearson Drive,03820,43.1377837,-70.8402363
6,Pearson Drive,03820,43.1375810,-70.8386324
11,Pearson Drive,03820,43.1378609,-70.8399038
4,Pearson Drive,03820,43.1376662,-70.8382475
10,Pearson Drive,03820,43.1374323,-70.8393794
15,Pearson Drive,03820,43.1376799,-70.8405850
7,Pearson Drive,03820,43.1380009,-70.8391903
5,Pearson Drive,03820,43.1380694,-70.8388188
18,Pearson Drive,03820,43.1370721,-70.8407500
17,Pearson Drive,03820,43.1375947,-70.8409270
8,Pearson Drive,03820,43.1374812,-70.8389583
16,Pearson Drive,03820,43.1371838,-70.8404402
9,Pearson Drive,03820,43.1379157,-70.8395322
3,Pearson Drive,03820,43.1381448,-70.8384593
2,Pearson Drive,03820,43.1377866,-70.8377110
273,Locust Street,03820,43.1836250,-70.8768289
80,Rutland Street,03820,43.1843839,-70.8793998
171,Watson Road,03820,43.2148382,-70.9205472
25,Portland Avenue,03820,43.1966337,-70.8706447
545,Sixth Street,03820,43.2276506,-70.9255854
20,Chestnut Street,03820,43.1992234,-70.8765482
16,Pierce Street,03820,43.2003730,-70.8734254
36,Olive Meadow,03820,43.2270639,-70.9198215
47,Washington Street,03820,43.1953821,-70.8728373
114,Broadway,03824,43.2051892,-70.8689629
909,Central Avenue,03820,43.2203882,-70.8849922
24,Hanson Street,03820,43.1919418,-70.8712638
27,Hanson Street,03820,43.1914601,-70.8713357
31,Hanson Street,03820,43.1917558,-70.8708142
47,Hanson Street,03820,43.1922303,-70.8704766
19,Hanson Street,03820,43.1912058,-70.8719667
7,Hanson Street,03820,43.1911120,-70.8723797
221,Central Avenue,03820,43.1910082,-70.8729516
233,Central Avenue,03820,43.1913891,-70.8728995
32,Sonnett Street,03820,43.1923379,-70.8710062
19,George Street,03820,43.1922721,-70.8718408
15,George Street,03820,43.1921163,-70.8719795
11,George Street,03820,43.1919926,-70.8720630
235,George Street,03820,43.1917259,-70.8726390
8,Hanson Street,03820,43.1914020,-70.8725739
32,Ham Street,03820,43.2028514,-70.8723807
23,Everett Street,03820,43.2031006,-70.8721863
23,Ham Street,03820,43.2025522,-70.8736065
30,Ham Street,03820,43.2028611,-70.8725739
28,Ham Street,03820,43.2028621,-70.8727751
19-21,East Street,03820,43.2025434,-70.8722453
16-22,Everett Street,03820,43.2029100,-70.8718578
12-14,Everett Street,03820,43.2030811,-70.8717129
21,Everett Street,03820,43.2032004,-70.8720106
41-43,Ham Street,03820,43.2025219,-70.8720964
45-47,Ham Street,03820,43.2024935,-70.8718859
17,East Street,03820,43.2023949,-70.8722360
22,East Street,03820,43.2025552,-70.8726047
39,Ham Street,03820,43.2025982,-70.8726088
24-26,Ham Street,03820,43.2028836,-70.8729641
20-22,Ham Street,03820,43.2028875,-70.8731894
35-37,Ham Street,03820,43.2025561,-70.8728502
27-29,Ham Street,03820,43.2025932,-70.8732310
25,Ham Street,03820,43.2025864,-70.8734161
23,Weeks Lane,03820,43.2228832,-70.8859158
11,4th St,03820,43.1994373,-70.8756891
71,Broadway,03820,43.2020742,-70.8707113
30,Grapevine Drive,03820,43.1672054,-70.8946335
15,Old Rollinsford Road,03820,43.2113591,-70.8728330
789,Central Avenue,03820,43.2130593,-70.8742028
140,Portland Avenue,03820,43.2049286,-70.8613409
21-29,Clancy Drive,03820,43.1748652,-70.8801921
31-39,Clancy Drive,03820,43.1747547,-70.8795879
25,Durham Road,03820,43.1781926,-70.8806082
45-55,New Rochester Road,03820,43.2301379,-70.8959059
1,Emmet Road,03820,43.1826363,-70.8734966
337A,Dover Point Road,03820,43.1290217,-70.8367893
337,Dover Point Road,03820,43.1294781,-70.8365954
330,Dover Point Road,03820,43.1294217,-70.8360113
338,Dover Point Road,03820,43.1287097,-70.8360905
338A,Dover Point Road,03820,43.1282998,-70.8361015
354,Dover Point Road,03820,43.1269867,-70.8363361
344,Dover Point Road,03820,43.1276910,-70.8362617
334,Dover Point Road,03820,43.1290882,-70.8359011
368,Central Avenue,03820,43.1956754,-70.8746519
368,Central Avenue,03820,43.1957582,-70.8746350
410,Sixth Street,03820,43.2169858,-70.9143416
826,Central Avenue,03820,43.2153582,-70.8801000
828,Central Avenue,03820-2593,43.2148789,-70.8806550
78,Horne Street,03820,43.2109482,-70.8823129
11,Towle Avenue,03820,43.1881432,-70.8849076
150,Central Avenue,03820,43.1874738,-70.8745613
28,Cataract Avenue,03820,43.1816300,-70.8820369
181,Silver Street,03820,43.1888071,-70.8873372
200,Sterling Way,03820,43.1891446,-70.8884689
801,Central Avenue,03820,43.2145973,-70.8764934
50,Alumni Drive,03820,43.1762695,-70.8884488
80,Industrial Park Road,03820,43.1856870,-70.9061024
145,Gulf Road,03820,43.1963106,-70.8508572
143,Gulf Road,03820,43.2007608,-70.8447284
1-12,Tammany Park,03820,43.2009079,-70.8804338
13-16,Tammany Park,03820,43.2016941,-70.8800862
14,Central Avenue,03820,43.1813713,-70.8784141
3,Green Street,03820,43.1954696,-70.8785500
5,Green Street,03820,43.1958227,-70.8773749
40,Chestnut Street,03820,43.1960281,-70.8763536
279,Central Avenue,03820,43.1936008,-70.8734166
40,Hampshire Circle,03820,43.2027772,-70.8945340
33,Chestnut Street,03820,43.1980480,-70.8783521
50,Garrison Road,03820,43.1647480,-70.8673500
22,Chestnut Street,03820,43.1975611,-70.8768741
17,Portland Avenue,03820,43.1966345,-70.8710495
25,Portland Avenue,03820,43.1968035,-70.8709240
136,Industrial Park Drive,03820,43.1890427,-70.9035692
92,Industrial Park Drive,03820,43.1878607,-70.9063723
62,Littleworth Road,03820,43.1884963,-70.9066262
182,Central Avenue,03820,43.1896918,-70.8747030
122,Broadway,03820,43.2060246,-70.8685702
7,Sumner Drive,03820,43.1795840,-70.9004745
7,Sumner Drive,03820,43.1792632,-70.9008545
97,Fourth Street,03820,43.2000656,-70.8853649
195,Dover Point Road,03820,43.1528293,-70.8411900
221,County Farm Road,03820,43.2202790,-70.9344156
349,Mast Road,03820,43.1672504,-70.9025532
265,Mast Road,03820,43.1686699,-70.8963660
17,Stonewall Drive,03820,43.1713503,-70.8943546
30,Holiday Drive,03820,43.1725582,-70.8767459
150,Garrison Lane,03820,43.1586065,-70.8635029
121,Broadway,03820,43.2051170,-70.8672528
307,Plaza Drive,03820,43.2142013,-70.8907876
10,Hotel Drive,03820,43.2224877,-70.8896034
171,Watson Road,03820,43.2150105,-70.9206104
10B,Hidden Valley Drive,03820,43.1498701,-70.8765289
67,Knox Marsh Road,03820,43.1818708,-70.8934465
10,Sumner Drive,03820,43.1812364,-70.9005213
28,Sumner Drive,03820,43.1809452,-70.9010234
6,Sumner Drive,03820,43.1804356,-70.9017178
96,Durham Road,03820,43.1740502,-70.8837026
30,Dover Point Road,03820,43.1740760,-70.8617407
31-33,Ham Street,03820,43.2025874,-70.8730272
845,Central Avenue,03820,43.2176789,-70.8811319
25,Alumni Drive,03820,43.1771047,-70.8866853
