House number,Street name,Postal code,Latitude,Longitude
8,Calle Periodista José María Carulla,18014,37.1946846,-3.6228425
7,Callejón de Fajalauza,18010,37.1868624,-3.5919396
57,Calle Periodista Rafael Gómez Montero,18014,37.1972806,-3.6230898
1,Calle Cerrajeros,18001,37.1742179,-3.5998448
1,Callejón Atarazana Vieja,18010,37.1811465,-3.5923587
24,Calle Acera del Darro,18005,37.1722273,-3.5994778
7,Calle Cardenal Parrado,18013,37.1901436,-3.6039067
17,Calle Santiago Lozano,18011,37.1970479,-3.6019642
3,Calle Periodista Luis de Vicente,18011,37.1994751,-3.6016222
8,Callejón Atarazana Vieja,18010,37.1810012,-3.5922083
9,Calle Laurel de las Tablas,18002,37.1766615,-3.6023336
3,Calle Escuelas,18001,37.1775638,-3.6016923
4,Calle Verdiales,18014,37.1950115,-3.6114625
"26,28",Calle Ribera del Beiro,18012,37.1913458,-3.6082715
1,Calle Doctor Azpitarte,18012,37.1881605,-3.6076227
12,Avenida Doctor Olóriz,18015,37.1877337,-3.6073438
41,Avenida de la Constitución,18014,37.1866342,-3.6100839
2,Calle Gaviota,18014,37.1863974,-3.6122755
9,Calle Gran Capitán,18002,37.1784059,-3.6038448
31,Calle Pagés,18010,37.1840153,-3.5936213
18,Avenida de Madrid,18012,37.1858784,-3.6038637
3-5,Calle Gran Capitán,18002,37.1795161,-3.6033053
10,Avenida de la Constitución,18012,37.1842631,-3.6040877
20,Avenida de Madrid,18012,37.1860248,-3.6038163
2,Avenida de la Constitución,18012,37.1839250,-3.6034373
7,Calle Gran Capitán,18002,37.1796852,-3.6032133
12,Avenida de Madrid,18012,37.1852193,-3.6040575
16,Avenida de Madrid,18012,37.1857664,-3.6039025
20,Calle San Juan de Dios,18001,37.1806260,-3.6025446
14,Avenida de Madrid,18012,37.1856070,-3.6039499
9,Camino Real de los Neveros,18008,37.1611987,-3.5849978
5,Calle Sancho Panza,18008,37.1626816,-3.5884379
3,Cuesta de Abarqueros,18010,37.1820426,-3.5992138
24,Avenida de la Constitución,18012,37.1856379,-3.6065083
27,Calle Tórtola,18014,37.1856800,-3.6121516
8,Callejón Niño del Royo,18009,37.1750101,-3.5926373
2,Calle San Matías,18009,37.1726243,-3.5969769
63,Camino Bajo de Huétor,18008,37.1571298,-3.5866519
55,Avenida de América,18008,37.1602516,-3.5915627
5,Paseo del Emperador Carlos V,18007,37.1559567,-3.5937653
12,Avenida de Madrid,18012,37.1845495,-3.6042959
31,Calle Palencia,18008,37.1595560,-3.5933249
3,Plaza de las Descalzas,18009,37.1752370,-3.5967279
4,Plaza de los Girones,18009,37.1741865,-3.5950216
17,Calle José Luis Pérez Pujadas,18006,37.1595041,-3.6085214
11,Calle Poeta César Vallejo,18008,37.1587353,-3.5914605
9,Calle Poeta César Vallejo,18008,37.1587909,-3.5913005
21,Calle Horno del Oro,18010,37.1796611,-3.5898566
2,Calle Pianista García Carrillo,18010,37.1808972,-3.5895555
32,Calle Arabial,18004,37.1699351,-3.6071139
45,Avenida de América,18008,37.1607431,-3.5947343
2,Calle Poeta Mira de Amezcua,18008,37.1585519,-3.5909522
3,Calle Poeta César Vallejo,18008,37.1593713,-3.5899032
5,Calle Poeta César Vallejo,18008,37.1592269,-3.5903843
9,Calle Profesor Manuel Garzón Pareja,18008,37.1592598,-3.5914490
9,Calle José Luis Pérez Pujadas,18006,37.1601232,-3.6079649
9,Calle Poeta Manuel de Góngora,18008,37.1665443,-3.5949831
14,Calle Poeta Manuel de Góngora,18006,37.1654295,-3.5944722
46,Avenida de América,18008,37.1603321,-3.5948721
45,Carretera de la Sierra,18006,37.1662076,-3.5836536
16,Calle Trevenque,18008,37.1653782,-3.5832864
9,Calle Recogidas,18005,37.1724451,-3.6014229
11,Calle Recogidas,18005,37.1724018,-3.6015085
10,Avenida de Madrid,18012,37.1850524,-3.6040892
1,Calle Puerta Real de España,18001,37.1735989,-3.5998857
4,Calle Tablas,18002,37.1761943,-3.6026131
88,Avenida Juan Pablo II,18013,37.1981731,-3.6087694
158,Camino de Ronda,18003,37.1792275,-3.6111546
2,Calle Panaderos,18010,37.1826374,-3.5922222
1,Calle Morena,18015,37.1879882,-3.6157635
10,Calle Morena,18015,37.1872117,-3.6162204
2,Calle Morena,18015,37.1880390,-3.6159618
3,Calle Morena,18015,37.1878018,-3.6158187
4,Calle Morena,18015,37.1878363,-3.6160255
5,Calle Morena,18015,37.1876392,-3.6158706
6,Calle Morena,18015,37.1876787,-3.6160750
7,Calle Morena,18015,37.1873244,-3.6159680
8,Calle Morena,18015,37.1873638,-3.6161726
9,Calle Morena,18015,37.1871488,-3.6160214
1,Calle Escultor Jiménez Mesa,18008,37.1582749,-3.5929005
1,Calle Martín Pérez de Ayala,18008,37.1584000,-3.5918346
1,Calle Platero,18008,37.1581629,-3.5931849
11,Calle Profesor Manuel Garzón Pareja,18008,37.1586162,-3.5919979
13,Calle Profesor Manuel Garzón Pareja,18008,37.1584888,-3.5923009
15,Calle Profesor Manuel Garzón Pareja,18008,37.1583624,-3.5925972
2,Calle José María Garrido Lopera,18008,37.1591414,-3.5893248
2,Calle Juan de Echevarría,18008,37.1593588,-3.5895647
2,Calle Yerma,18008,37.1589484,-3.5891032
20,Calle Yerma,18008,37.1580811,-3.5915500
21,Calle Profesor Manuel Garzón Pareja,18008,37.1581779,-3.5935439
22,Calle Yerma,18008,37.1580082,-3.5917440
23,Calle Profesor Manuel Garzón Pareja,18008,37.1582794,-3.5940281
24,Calle Yerma,18008,37.1579439,-3.5919418
3,Calle Jorge de Torres,18008,37.1584040,-3.5912316
3,Calle José María Garrido Lopera,18008,37.1589629,-3.5894554
3,Calle Juan de Echevarría,18008,37.1591611,-3.5896634
3,Calle Poeta Mira de Amezcua,18008,37.1588736,-3.5909598
32,Calle Profesor Manuel Garzón Pareja,18008,37.1586139,-3.5935582
33,Calle Palencia,18008,37.1596810,-3.5928966
34,Calle Profesor Manuel Garzón Pareja,18008,37.1583328,-3.5944355
35,Calle Palencia,18008,37.1597604,-3.5929092
37,Calle Palencia,18008,37.1599207,-3.5928744
39,Calle Palencia,18008,37.1599443,-3.5924624
4,Calle Andrés Calderón,18008,37.1579809,-3.5925586
41,Calle Palencia,18008,37.1598940,-3.5922845
5,Calle Jorge de Torres,18008,37.1584628,-3.5910590
5,Calle Poeta Mira de Amezcua,18008,37.1586582,-3.5908394
6,Calle José María Garrido Lopera,18008,37.1588832,-3.5900592
6,Calle Yerma,18008,37.1587060,-3.5897851
7,Calle José María Garrido Lopera,18008,37.1587198,-3.5901308
7,Calle Juan de Echevarría,18008,37.1589041,-3.5903974
7,Calle Profesor Manuel Garzón Pareja,18008,37.1591009,-3.5917129
8,Calle Juan de Echevarría,18008,37.1590831,-3.5905595
9,Calle José María Garrido Lopera,18008,37.1585572,-3.5905845
9,Calle Profesor Manuel Garzón Pareja,18008,37.1591600,-3.5915600
1,Calle Periodista Manuel Santaella Pérez,18008,37.1601352,-3.5888518
1,Calle Pianista Rosa Sabater,18008,37.1586535,-3.5876647
10,Calle Maestro Faus,18008,37.1592885,-3.5875453
10,Calle Periodista Manuel Santaella Pérez,18008,37.1598807,-3.5876271
2,Calle Pianista Rosa Sabater,18008,37.1583298,-3.5876981
3,Calle Periodista Manuel Santaella Pérez,18008,37.1602370,-3.5886206
3,Calle Pianista Rosa Sabater,18008,37.1589391,-3.5876402
4,Calle Pianista Rosa Sabater,18008,37.1585143,-3.5872132
49,Camino Bajo de Huétor,18008,37.1594574,-3.5887769
5,Calle Periodista Manuel Santaella Pérez,18008,37.1604869,-3.5882571
5,Calle Pianista Rosa Sabater,18008,37.1589282,-3.5874361
51,Camino Bajo de Huétor,18008,37.1591484,-3.5885683
53,Camino Bajo de Huétor,18008,37.1588931,-3.5882675
55,Camino Bajo de Huétor,18008,37.1585966,-3.5882041
6,Calle Pianista Rosa Sabater,18008,37.1586357,-3.5870130
7,Calle Pianista Rosa Sabater,18008,37.1589679,-3.5870668
8,Calle Maestro Faus,18008,37.1594275,-3.5872525
8,Calle Periodista Manuel Santaella Pérez,18008,37.1600443,-3.5877863
8,Calle Pianista Rosa Sabater,18008,37.1588598,-3.5867771
9,Calle Pianista Rosa Sabater,18008,37.1590640,-3.5868111
14,Calle Maestro Faus,18008,37.1588267,-3.5864403
10,Calle José Tamayo,18008,37.1606119,-3.5872162
10,Calle Pianista Pepita Bustamante,18008,37.1604373,-3.5874691
10,Calle Pianista Rosa Sabater,18008,37.1593042,-3.5861712
11,Calle Maestro Faus,18008,37.1594602,-3.5866799
11,Calle Pianista Rosa Sabater,18008,37.1594944,-3.5863703
12,Calle José Tamayo,18008,37.1607153,-3.5869539
12,Calle Pianista Pepita Bustamante,18008,37.1608023,-3.5875004
13,Calle Maestro Faus,18008,37.1590347,-3.5862210
14,Calle José Tamayo,18008,37.1603383,-3.5868393
14,Calle Pianista Pepita Bustamante,18008,37.1609712,-3.5871901
14,Calle Pianista Rosa Sabater,18008,37.1593173,-3.5857612
16,Calle José Tamayo,18008,37.1599174,-3.5863085
18,Calle José Tamayo,18008,37.1597657,-3.5861484
5,Calle Maestro Faus,18008,37.1601617,-3.5872814
5,Calle Torre del Capitán,18008,37.1588787,-3.5859124
6,Calle Pianista Pepita Bustamante,18008,37.1606927,-3.5877255
7,Calle Maestro Faus,18008,37.1598587,-3.5870414
7,Calle Torre del Capitán,18008,37.1590571,-3.5854823
8,Calle José Tamayo,18008,37.1610365,-3.5869699
8,Calle Pianista Pepita Bustamante,18008,37.1605662,-3.5876002
9,Calle Maestro Faus,18008,37.1600248,-3.5867720
1,Calle Torre de los Abencerrajes,18008,37.1577342,-3.5864110
10,Calle Torre de la Barba,18008,37.1566859,-3.5857867
10,Calle Torre de las Rocas,18008,37.1572148,-3.5860867
10,Calle Torre de los Abencerrajes,18008,37.1576650,-3.5859472
10,Calle Torre de los Carros,18008,37.1569154,-3.5860978
10,Calle Torre del Capitán,18008,37.1584857,-3.5863530
10,Paseo Laguna de Cameros,18008,37.1572333,-3.5850547
12,Calle Torre de la Barba,18008,37.1567761,-3.5857221
12,Calle Torre de las Rocas,18008,37.1572393,-3.5860292
12,Calle Torre de los Abencerrajes,18008,37.1577401,-3.5857748
12,Calle Torre de los Carros,18008,37.1568697,-3.5860558
12,Calle Torre del Capitán,18008,37.1586143,-3.5860232
12,Paseo Laguna de Cameros,18008,37.1571490,-3.5851149
14,Calle Torre de la Barba,18008,37.1568109,-3.5856972
14,Calle Torre de las Rocas,18008,37.1572657,-3.5859673
14,Calle Torre de los Abencerrajes,18008,37.1578364,-3.5855526
14,Calle Torre de los Carros,18008,37.1568257,-3.5860130
14,Calle Torre del Capitán,18008,37.1588404,-3.5854169
14,Paseo Laguna de Cameros,18008,37.1571182,-3.5851369
16,Calle Torre de la Barba,18008,37.1568929,-3.5856385
16,Calle Torre de las Rocas,18008,37.1572873,-3.5859166
16,Calle Torre de los Carros,18008,37.1567810,-3.5859713
16,Paseo Laguna de Cameros,18008,37.1570322,-3.5851983
18,Calle Torre de la Barba,18008,37.1569235,-3.5856166
18,Calle Torre de las Rocas,18008,37.1573078,-3.5858686
18,Calle Torre de los Carros,18008,37.1567449,-3.5859357
18,Paseo Laguna de Cameros,18008,37.1570037,-3.5852186
2,Calle Torre de la Barba,18008,37.1564599,-3.5859485
2,Calle Torre de las Rocas,18008,37.1570355,-3.5865067
2,Calle Torre de los Abencerrajes,18008,37.1573669,-3.5866593
2,Calle Torre de los Carros,18008,37.1570958,-3.5862699
2,Calle Torre del Capitán,18008,37.1580981,-3.5873499
20,Calle Torre de la Barba,18008,37.1570078,-3.5855562
20,Calle Torre de las Rocas,18008,37.1573307,-3.5858147
20,Paseo Laguna de Cameros,18008,37.1569186,-3.5852794
22,Calle Torre de la Barba,18008,37.1570389,-3.5855339
22,Calle Torre de las Rocas,18008,37.1573737,-3.5857124
22,Paseo Laguna de Cameros,18008,37.1568868,-3.5853020
24,Calle Torre de la Barba,18008,37.1571264,-3.5854713
24,Calle Torre de las Rocas,18008,37.1574018,-3.5856467
24,Paseo Laguna de Cameros,18008,37.1568028,-3.5853620
26,Calle Torre de la Barba,18008,37.1571556,-3.5854503
26,Calle Torre de las Rocas,18008,37.1574291,-3.5855826
26,Paseo Laguna de Cameros,18008,37.1567730,-3.5853833
28,Calle Torre de la Barba,18008,37.1572354,-3.5853932
28,Calle Torre de las Rocas,18008,37.1574555,-3.5855173
28,Paseo Laguna de Cameros,18008,37.1566909,-3.5854419
30,Calle Torre de la Barba,18008,37.1572670,-3.5853706
30,Calle Torre de las Rocas,18008,37.1574838,-3.5854519
30,Paseo Laguna de Cameros,18008,37.1566596,-3.5854653
32,Calle Torre de la Barba,18008,37.1573556,-3.5853071
32,Calle Torre de las Rocas,18008,37.1575112,-3.5853876
32,Paseo Laguna de Cameros,18008,37.1565705,-3.5855306
34,Calle Torre de la Barba,18008,37.1573802,-3.5852895
34,Paseo Laguna de Cameros,18008,37.1565473,-3.5855475
36,Paseo Laguna de Cameros,18008,37.1564581,-3.5856116
38,Paseo Laguna de Cameros,18008,37.1564350,-3.5856285
4,Calle Torre de la Barba,18008,37.1565530,-3.5858818
4,Calle Torre de la Bruja,18008,37.1582008,-3.5856187
4,Calle Torre de los Carros,18008,37.1570511,-3.5862275
4,Calle Torre del Capitán,18008,37.1581825,-3.5871260
40,Paseo Laguna de Cameros,18008,37.1563404,-3.5856966
59A,Camino Bajo de Huétor,18008,37.1579492,-3.5874838
59B,Camino Bajo de Huétor,18008,37.1577062,-3.5872493
6,Calle Torre de la Barba,18008,37.1565741,-3.5858667
6,Calle Torre de los Abencerrajes,18008,37.1574978,-3.5863455
6,Calle Torre de los Carros,18008,37.1570065,-3.5861846
6,Calle Torre del Capitán,18008,37.1582538,-3.5869463
61,Camino Bajo de Huétor,18008,37.1576160,-3.5871578
63,Camino Bajo de Huétor,18008,37.1571998,-3.5867585
7,Calle Torre de los Abencerrajes,18008,37.1580231,-3.5857285
73,Camino Bajo de Huétor,18008,37.1568615,-3.5864698
75,Camino Bajo de Huétor,18008,37.1568144,-3.5864229
77,Camino Bajo de Huétor,18008,37.1567669,-3.5863792
79,Camino Bajo de Huétor,18008,37.1567201,-3.5863343
8,Calle Torre de la Barba,18008,37.1566631,-3.5858030
8,Calle Torre de la Bruja,18008,37.1578247,-3.5853744
8,Calle Torre de las Rocas,18008,37.1571924,-3.5861392
8,Calle Torre de los Abencerrajes,18008,37.1575976,-3.5861081
8,Calle Torre de los Carros,18008,37.1569602,-3.5861420
81,Camino Bajo de Huétor,18008,37.1566708,-3.5862875
83,Camino Bajo de Huétor,18008,37.1566229,-3.5862434
83,Calle San Antón,18005,37.1684493,-3.5990875
1,Calle Aixa Bindt,18008,37.1549539,-3.5866039
1,Calle Carmen Tórtola,18008,37.1547137,-3.5876075
1,Calle Carmen de Burgos,18008,37.1556323,-3.5859572
10,Calle Aixa Bindt,18008,37.1549130,-3.5868928
11,Calle Aixa Bindt,18008,37.1548521,-3.5868490
11,Calle Carmen de Burgos,18008,37.1555341,-3.5861915
12,Calle Aixa Bindt,18008,37.1548674,-3.5870028
13,Calle Aixa Bindt,18008,37.1548319,-3.5868978
13,Calle Carmen de Burgos,18008,37.1555149,-3.5862372
14,Calle Aixa Bindt,18008,37.1548175,-3.5871232
15,Calle Aixa Bindt,18008,37.1548128,-3.5869436
15,Calle Carmen de Burgos,18008,37.1554957,-3.5862831
16,Calle Aixa Bindt,18008,37.1547810,-3.5872110
17,Calle Aixa Bindt,18008,37.1547928,-3.5869918
17,Calle Carmen de Burgos,18008,37.1554765,-3.5863290
18,Calle Aixa Bindt,18008,37.1547439,-3.5873008
19,Calle Aixa Bindt,18008,37.1547706,-3.5870452
19,Calle Carmen de Burgos,18008,37.1554573,-3.5863747
2,Calle Aixa Bindt,18008,37.1550122,-3.5866534
20,Calle Aixa Bindt,18008,37.1546959,-3.5874167
21,Calle Aixa Bindt,18008,37.1547499,-3.5870951
21,Calle Carmen de Burgos,18008,37.1554373,-3.5864224
23,Calle Aixa Bindt,18008,37.1547294,-3.5871444
23,Calle Carmen de Burgos,18008,37.1554174,-3.5864700
25,Calle Aixa Bindt,18008,37.1547100,-3.5871911
25,Calle Carmen de Burgos,18008,37.1553985,-3.5865152
27,Calle Aixa Bindt,18008,37.1546878,-3.5872445
27,Calle Carmen de Burgos,18008,37.1553783,-3.5865634
29,Calle Aixa Bindt,18008,37.1546670,-3.5872946
29,Calle Carmen de Burgos,18008,37.1553597,-3.5866076
3,Calle Aixa Bindt,18008,37.1549336,-3.5866530
3,Calle Carmen de Burgos,18008,37.1556129,-3.5860035
31,Calle Aixa Bindt,18008,37.1546484,-3.5873393
31,Calle Carmen de Burgos,18008,37.1553394,-3.5866560
33,Calle Aixa Bindt,18008,37.1546293,-3.5873854
33,Calle Carmen de Burgos,18008,37.1553189,-3.5867050
35,Calle Aixa Bindt,18008,37.1546059,-3.5874418
35,Calle Carmen de Burgos,18008,37.1552713,-3.5868306
37,Calle Aixa Bindt,18008,37.1545867,-3.5874879
37,Calle Carmen de Burgos,18008,37.1552404,-3.5869049
39,Calle Carmen de Burgos,18008,37.1552173,-3.5869602
4,Calle Aixa Bindt,18008,37.1549866,-3.5867152
41,Calle Carmen de Burgos,18008,37.1551905,-3.5870247
43,Calle Carmen de Burgos,18008,37.1551686,-3.5870772
45,Calle Carmen de Burgos,18008,37.1551416,-3.5871422
47,Calle Carmen de Burgos,18008,37.1551161,-3.5872034
49,Calle Carmen de Burgos,18008,37.1550676,-3.5873200
5,Calle Aixa Bindt,18008,37.1549143,-3.5866994
5,Calle Carmen de Burgos,18008,37.1555933,-3.5860501
51,Calle Carmen de Burgos,18008,37.1550351,-3.5873980
53,Calle Carmen de Burgos,18008,37.1550128,-3.5874517
55,Calle Carmen de Burgos,18008,37.1549875,-3.5875124
57,Calle Carmen de Burgos,18008,37.1549584,-3.5875823
59,Calle Carmen de Burgos,18008,37.1549357,-3.5876370
6,Calle Aixa Bindt,18008,37.1549629,-3.5867723
61,Calle Carmen de Burgos,18008,37.1549138,-3.5876867
7,Calle Aixa Bindt,18008,37.1548938,-3.5867487
7,Calle Carmen de Burgos,18008,37.1555742,-3.5860958
8,Calle Aixa Bindt,18008,37.1549368,-3.5868352
9,Calle Aixa Bindt,18008,37.1548742,-3.5867959
9,Calle Carmen de Burgos,18008,37.1555546,-3.5861425
113,Camino de los Abencerrajes,18008,37.1539706,-3.5883220
48,Calle Rector Eloy Señán,18008,37.1539912,-3.5881475
46,Calle Rector Eloy Señán,18008,37.1540276,-3.5880596
44,Calle Rector Eloy Señán,18008,37.1540644,-3.5879705
42,Calle Rector Eloy Señán,18008,37.1540941,-3.5878988
40,Calle Rector Eloy Señán,18008,37.1541142,-3.5878501
38,Calle Rector Eloy Señán,18008,37.1541424,-3.5877819
36,Calle Rector Eloy Señán,18008,37.1541669,-3.5877227
34,Calle Rector Eloy Señán,18008,37.1541894,-3.5876684
31,Calle Rumaikiya,18008,37.1542010,-3.5884271
32,Calle Rector Eloy Señán,18008,37.1542158,-3.5876044
29,Calle Rumaikiya,18008,37.1542203,-3.5883805
30,Calle Rector Eloy Señán,18008,37.1542390,-3.5875485
27,Calle Rumaikiya,18008,37.1542522,-3.5883034
28,Calle Rector Eloy Señán,18008,37.1542648,-3.5874861
25,Calle Rumaikiya,18008,37.1542701,-3.5882600
26,Calle Rector Eloy Señán,18008,37.1542874,-3.5874313
111,Camino de los Abencerrajes,18008,37.1542926,-3.5885288
23,Calle Rumaikiya,18008,37.1542999,-3.5881881
21,Calle Rumaikiya,18008,37.1543198,-3.5881399
22,Calle Rumaikiya,18008,37.1543309,-3.5882971
109,Camino de los Abencerrajes,18008,37.1543435,-3.5885623
19,Calle Rumaikiya,18008,37.1543498,-3.5880674
20,Calle Rumaikiya,18008,37.1543600,-3.5882275
17,Calle Rumaikiya,18008,37.1543686,-3.5880220
18,Calle Rumaikiya,18008,37.1543943,-3.5881456
15,Calle Rumaikiya,18008,37.1543968,-3.5879538
107,Camino de los Abencerrajes,18008,37.1543996,-3.5885993
16,Calle Rumaikiya,18008,37.1544173,-3.5880907
13,Calle Rumaikiya,18008,37.1544215,-3.5878941
14,Calle Rumaikiya,18008,37.1544423,-3.5880310
11,Calle Rumaikiya,18008,37.1544455,-3.5878360
105,Camino de los Abencerrajes,18008,37.1544526,-3.5886343
12,Calle Rumaikiya,18008,37.1544646,-3.5879778
9,Calle Rumaikiya,18008,37.1544691,-3.5877790
10,Calle Rumaikiya,18008,37.1544873,-3.5879237
7,Calle Rumaikiya,18008,37.1544949,-3.5877166
8,Calle Rumaikiya,18008,37.1545144,-3.5878589
5,Calle Rumaikiya,18008,37.1545160,-3.5876656
3,Calle Rumaikiya,18008,37.1545411,-3.5876049
6,Calle Rumaikiya,18008,37.1545449,-3.5877863
4,Calle Rumaikiya,18008,37.1545741,-3.5877165
"71,73",Calle Carmen de Burgos,18008,37.1546117,-3.5883918
2,Calle Rumaikiya,18008,37.1546055,-3.5876415
69E,Calle Carmen de Burgos,18008,37.1546473,-3.5883067
69D,Calle Carmen de Burgos,18008,37.1546775,-3.5882347
69C,Calle Carmen de Burgos,18008,37.1547070,-3.5881642
69B,Calle Carmen de Burgos,18008,37.1547384,-3.5880893
69A,Calle Carmen de Burgos,18008,37.1547677,-3.5880192
67,Calle Carmen de Burgos,18008,37.1547979,-3.5879473
65,Calle Carmen de Burgos,18008,37.1548270,-3.5878777
63,Calle Carmen de Burgos,18008,37.1548563,-3.5878079
9,Plaza de Bib-Rambla,18001,37.1752239,-3.6002548
43,Camino de Ronda,18004,37.1673041,-3.6048696
32,Avenida de la Constitución,18012,37.1859789,-3.6076262
5,Calle Víctor Hugo,18011,37.1989624,-3.6016383
78,Camino de Ronda,18004,37.1705798,-3.6058976
107,Carretera de Málaga,18015,37.1894114,-3.6274351
13,Calle San Jerónimo,18001,37.1773837,-3.6003462
46,Calle San Jerónimo,18001,37.1793207,-3.6019364
28,Carretera de la Sierra,18008,37.1664574,-3.5855470
85,Avenida de Cádiz,18007,37.1541458,-3.6041291
35,Avenida Juan Pablo II,18014,37.2009120,-3.6146664
70,Camino del Sacromonte,18010,37.1815224,-3.5853043
1F,Paseo del Generalife,18009,37.1743136,-3.5840684
1,Calle Monjas del Carmen,18009,37.1757687,-3.5963843
3,Avenida Divina Pastora,18012,37.1839924,-3.6031488
35,Paseo de Cartuja,18012,37.1897997,-3.6008024
7,Calle Navarrete,18001,37.1810597,-3.6009151
3,Calle Almireceros,18010,37.1768283,-3.5969894
4,Calle Jardines,18002,37.1744512,-3.6028051
4,Calle Rey Abu Said,18006,37.1648465,-3.6015615
12,Calle Poeta Manuel Góngora,18006,37.1656882,-3.5946320
120,Avenida de Dílar,18007,37.1524666,-3.6010676
11,Calle Poeta Gracián,18007,37.1534988,-3.5983284
23,Calle Félix Rodríguez de la Fuente,18006,37.1544543,-3.6053810
4,Calle Salmón,18015,37.1879644,-3.6189460
48,Calle Navarra,18007,37.1554576,-3.5998798
1,Calle Palencia,18007,37.1603684,-3.5995199
31,Calle San José Baja,18005,37.1707693,-3.6011840
2,Calle Acera del Darro,18005,37.1730499,-3.5997656
12,Calle Méndez Núñez,18003,37.1775246,-3.6117473
5,Calle Reyes Católicos,18001,37.1738899,-3.5994233
146,Camino de Ronda,18003,37.1781607,-3.6104902
48,Calle Reyes Católicos,18009,37.1762383,-3.5966083
13,Calle Doctor Severo Ochoa,18001,37.1817208,-3.6057423
12,Avenida del Sur,18014,37.1882517,-3.6142639
176,Camino de Ronda,18003,37.1814642,-3.6125216
"7,9",Avenida Divina Pastora,18012,37.1844547,-3.6030094
88,Camino de Ronda,18004,37.1714231,-3.6063687
28,Calle Ribera del Beiro,18012,37.1885460,-3.6123842
1,Calle Nécora,18003,37.1860893,-3.6150843
42,Calle Acera de San Ildefonso,18071,37.1850186,-3.6000048
4,Calle Guadalajara,18002,37.1763815,-3.6030097
18,Calle Estrellas,18015,37.1923154,-3.6281161
8,Placeta Cruz Verde,18010,37.1792110,-3.5949727
15,Calle Verónica de la Virgen,18005,37.1698745,-3.5993793
4,Calle Verónica de la Virgen,18005,37.1701402,-3.5985340
7,Calle Cruz,18002,37.1735070,-3.6019167
1,Calle Verónica de la Virgen,18005,37.1701131,-3.5982248
37,Calle Alhóndiga,18002,37.1754565,-3.6017554
4,Calle Nervión,18015,37.1879946,-3.6182128
6,Placeta Cruz Verde,18010,37.1791079,-3.5949658
3,Calle Nuestra Señora de la Salud,18015,37.1894260,-3.6136507
19,Calle Marqués de Mondéjar,18004,37.1682675,-3.6028025
5,Plaza Nueva,18010,37.1770121,-3.5961079
10,Avenida de Andaluces,18014,37.1849747,-3.6090698
24,Calle Primavera,18008,37.1618167,-3.5920451
14,Plaza de Bib-Rambla,18001,37.1755401,-3.6001959
41,Camino de Ronda,18004,37.1670386,-3.6041365
18,Calle Arabial,18004,37.1679584,-3.6059283
4,Plaza de Cauchiles,18001,37.1739691,-3.5998555
10,Calle Mesones,18001,37.1741503,-3.6001347
22,Calle Mesones,18001,37.1746315,-3.6004042
7,Calle Arco de las Cucharas,18001,37.1747386,-3.6004653
42,Calle Mesones,18001,37.1754980,-3.6008670
57,Calle Mesones,18001,37.1758368,-3.6011850
53,Calle Mesones,18001,37.1753808,-3.6009537
57,Calle Mesones,18001,37.1757678,-3.6011474
57,Calle Mesones,18001,37.1757408,-3.6011327
1,Calle Alhóndiga,18001,37.1743508,-3.6010995
36,Calle Alhóndiga,18001,37.1756870,-3.6017435
30,Avenida de América,18006,37.1606984,-3.5974261
1,Plaza Virgen de la Luz,18007,37.1563682,-3.5989993
3,Plaza Virgen de la Luz,18007,37.1560970,-3.5986724
2,Plaza Virgen de la Luz,18007,37.1563402,-3.5987153
4,Plaza Virgen de la Luz,18007,37.1561310,-3.5990185
10,Calle Neptuno,18004,37.1690459,-3.6080677
88,Camino de Ronda,18004,37.1714952,-3.6064115
32,Calle Arabial,18004,37.1699671,-3.6071370
7,Calle Carrera del Darro,18010,37.1777133,-3.5946040
1,Plaza Pescadería,18001,37.1759394,-3.6005171
13,Calle Colcha,18009,37.1756484,-3.5964644
2,Calle Santa Escolástica,18009,37.1745809,-3.5955478
6,Calle Mesones,18001,37.1740089,-3.6000052
4,Calle Darrillo Magdalena,18002,37.1740223,-3.6011305
8,Calle General Narváez,18002,37.1719857,-3.6035747
40,Calle Reyes Católicos,18009,37.1759113,-3.5971303
10,Calle Virgen del Rosario,18009,37.1727459,-3.5962939
23,Calle Martínez de la Rosa,18002,37.1774041,-3.6090245
9,Plaza de la Merced,18010,37.1826560,-3.5992290
48,Calle San Juan de Dios,18001,37.1816578,-3.6023941
3,Calle Tórtola,18014,37.1852061,-3.6094106
21,Calle Tórtola,18014,37.1856371,-3.6115709
60,Calle Pedro Antonio de Alarcón,18002,37.1749787,-3.6075141
134,Camino de Ronda,18003,37.1764175,-3.6094009
10,Avenida de Andaluces,18014,37.1851418,-3.6091030
5,Calle Buensuceso,18002,37.1755138,-3.6021055
1,Calle Ancha de Santo Domingo,18009,37.1737569,-3.5954400
1,Plaza de los Girones,18009,37.1739416,-3.5956145
9,Calle Jesús y María,18009,37.1740751,-3.5962074
74,Calle Acera del Darro,18005,37.1699883,-3.5978957
2,Calle Pan,18010,37.1768978,-3.5966525
11,Calle Conde Cifuentes,18005,37.1695970,-3.6010505
1,Paseo de los Basilios,18009,37.1679198,-3.5957596
2,Calle Imprenta,18010,37.1770441,-3.5962403
16,Calle Santa Ana,18009,37.1776254,-3.5939670
1,Calle Trinidad,18001,37.1766789,-3.6015957
5,Calle Lepanto,18009,37.1746410,-3.5982232
33,Calle Carrera de la Virgen,18009,37.1698540,-3.5960399
11,Calle Postigo de Zárate,18001,37.1778780,-3.6010280
1,Calle Mozárabe,18006,37.1579312,-3.6091326
19,Calle San Jerónimo,18001,37.1779077,-3.6009520
33,Calle Pedro Antonio de Alarcón,18004,37.1721397,-3.6060492
5,Calle Obispo Hurtado,18002,37.1752131,-3.6046250
17,Calle Horno del Hoyo,18010,37.1831007,-3.5926996
18,Calle Tiña,18010,37.1800225,-3.5956005
2,Plaza del Doctor López Neyra,18012,37.1899239,-3.6081123
2,Calle Doctor Víctor Escribano,18012,37.1897949,-3.6084402
10,Calle Doctor Azpitarte,18012,37.1893583,-3.6102381
8,Calle Doctor Azpitarte,18012,37.1892718,-3.6100241
18,Calle Doctor Pareja Yébenes,18012,37.1902072,-3.6103922
15,Calle Doctor Fernando Escobar,18012,37.1905652,-3.6102834
2,Calle Doctor Mesa Moles,18012,37.1889620,-3.6086599
4,Calle Gran Vía de Colón,18001,37.1761877,-3.5975992
7,Placeta Aljibe de Trillo,18010,37.1799881,-3.5929056
3,Placeta del Agua,18009,37.1727477,-3.5960907
40,Calle Verónica de la Magdalena,18002,37.1743831,-3.6034446
25,Calle Elvira,18010,37.1775310,-3.5975496
16,Calle Melchor Almagro,18002,37.1783513,-3.6076086
20,Calle Pedro Antonio de Alarcón,18002,37.1704184,-3.6046708
11,Calle Seminario,18002,37.1743672,-3.6052910
59,Calle Pedro Antonio de Alarcón,18002,37.1741663,-3.6073488
1,Avenida de la Constitución,18014,37.1829004,-3.6026155
7,Calle Sol,18002,37.1763713,-3.6073288
83,Calle Concha Piquer,18015,37.1900675,-3.6306578
1,Plaza Nueva,18010,37.1767758,-3.5965473
63,Calle Reyes Católicos,18010,37.1763936,-3.5967522
9,Calle Martínez de la Rosa,18002,37.1772009,-3.6079357
11,Cuesta de Gomérez,18009,37.1765611,-3.5954104
1,Calle Gran Vía de Colón,18001,37.1758364,-3.5977274
3,Avenida de la Constitución,18001,37.1833216,-3.6032737
3,Cuesta del Realejo,18009,37.1737977,-3.5933418
10,Avenida de Cervantes,18008,37.1648717,-3.5889967
2,Plaza de Carlos Cano,18009,37.1734603,-3.5960181
20,Plaza de Bib-Rambla,18001,37.1751526,-3.5993942
41,Calle San Miguel Alta,18002,37.1746474,-3.6046655
11,Plaza de San Lázaro,18012,37.1868548,-3.6061556
3,Calle Colegio Catalino,18001,37.1762068,-3.6001378
5,Calle Álamo del Marqués,18010,37.1785578,-3.5968356
28,Camino Nuevo de San Nicolás,18010,37.1809186,-3.5928884
10,Calle San Jerónimo,18002,37.1773306,-3.6000726
10,Calle Varela,18009,37.1730062,-3.5962494
16,Calle Verónica de la Virgen,18005,37.1700208,-3.5990908
7,Calle José Luis Pérez Pujadas,18006,37.1603205,-3.6087070
4,Calle Almireceros,18010,37.1766336,-3.5976478
15,Calle Mesones,18001,37.1742207,-3.6003332
12,Avenida de la Constitución,18012,37.1844522,-3.6042877
16,Calle Martínez de la Rosa,18002,37.1774209,-3.6086561
7,Placeta de Toqueros,18010,37.1802076,-3.5902950
1,Plaza de la Romanilla,18002,37.1763554,-3.6007541
31,Calle San Juan de Dios,18001,37.1813816,-3.6026299
47,Calle San Juan de Dios,18001,37.1822417,-3.6025440
72,Carretera de Málaga,18015,37.1891499,-3.6219757
16,Calle Tablas,18071,37.1758899,-3.6036101
41,Calle Pedro Antonio de Alarcón,18004,37.1726248,-3.6063363
12,Calle Marqués de Gerona,18001,37.1757342,-3.6008349
12,Avenida Doctor Olóriz,18012,37.1877490,-3.6073320
15,Plaza de San Lázaro,18012,37.1860458,-3.6058740
10,Calle Varela,18009,37.1728882,-3.5963634
37,Avenida del Conocimiento,18016,37.1475937,-3.6010145
51,Avenida de la Ilustración,18016,37.1496637,-3.6061426
1,Paseo Laguna de Cameros,18008,37.1571106,-3.5832349
19,Calle Pavaneras,18009,37.1747484,-3.5955259
1,Calle Marqués de Falces,18001,37.1787224,-3.6001915
38,Cuesta de Gomérez,18009,37.1760659,-3.5938541
1,Plaza de Fortuny,18009,37.1738166,-3.5944107
2,Calle Virgen del Rosario,18009,37.1726272,-3.5961280
1,Paseo Laguna de Cameros,18008,37.1574756,-3.5833167
7,Calle Virgen del Rosario,18009,37.1729770,-3.5965817
19,Calle Martínez Campos,18002,37.1718341,-3.6044100
21,Calle Pintor Zuloaga,18005,37.1681844,-3.6022858
3,Plaza de San Nicolás,18010,37.1812430,-3.5935948
6,Calle Tendillas de Santa Paula,18001,37.1783975,-3.6006491
33,Calle Panaderos,18010,37.1825253,-3.5920059
6,Calle Ancha de Capuchinos,18012,37.1853349,-3.6021200
25,Calle Carrera del Darro,18010,37.1782115,-3.5932264
2,Plaza de la Universidad,18002,37.1782107,-3.6012785
15,Plaza Campo del Príncipe,18009,37.1726725,-3.5920896
3,Calle Pan,18010,37.1770551,-3.5963816
6,Cuesta de Santa Inés,18010,37.1784882,-3.5938352
2,Calle Moras,18009,37.1727687,-3.5982920
8,Calle Virgen del Rosario,18009,37.1728390,-3.5964614
12,Calle Virgen del Rosario,18009,37.1726733,-3.5961932
22,Calle Jáudenes,18001,37.1755163,-3.6011221
27,Avenida de la Constitución,18012,37.1856672,-3.6080649
1,Plaza Nueva,18010,37.1765621,-3.5965586
7,Calle Melchor Almagro,18002,37.1782032,-3.6073824
25,Avenida Doctor Olóriz,18012,37.1887778,-3.6073577
30,Calle Calderería Nueva,18010,37.1779297,-3.5962783
2,Calle Cruz,18002,37.1735568,-3.6020093
6,Calle Moral de la Magdalena,18002,37.1738871,-3.6022362
8,Calle Cañaveral,18003,37.1784664,-3.6117612
8,Calle Periodista Eugenio Sellés,18014,37.1964173,-3.6233845
32,Calle Santa Clotilde,18003,37.1801627,-3.6128512
31,Calle Santa Clotilde,18003,37.1798668,-3.6128333
11,Calle Tendillas de Santa Paula,18001,37.1785524,-3.6005447
5,Plaza de la Universidad,18001,37.1781729,-3.6014901
11,Calle Ventanilla,18001,37.1810516,-3.6037117
6,Calle General Narváez,18002,37.1720420,-3.6037386
2,Calle Imprenta,18010,37.1771648,-3.5962852
5,Calle Artesano Molero,18004,37.1809471,-3.6147491
19,Calle Demetrio Spínola,18003,37.1854165,-3.6188671
10,Calle Tundidores,18001,37.1751633,-3.5987706
19,Calle Martínez Campos,18002,37.1719178,-3.6044301
10,Plaza del Campillo Bajo,18009,37.1713464,-3.5971713
13,Calle Gran Vía de Colón,18001,37.1772878,-3.5985235
6,Calle Ángel Ganivet,18009,37.1728790,-3.5982188
6,Calle Ángel Ganivet,18009,37.1729203,-3.5983268
24,Calle San Jerónimo,18001,37.1780712,-3.6009426
6,Calle de San Antón,18005,37.1722982,-3.6000867
7,Pasaje Profesor Sainz Cantero,18002,37.1786966,-3.6069505
77,Camino de Ronda,18004,37.1714308,-3.6069059
17,Avenida del Sur,18014,37.1878269,-3.6137546
9,Calle Gran Capitán,18002,37.1783666,-3.6038814
212,Camino de Ronda,18014,37.1873915,-3.6146139
46,Calle Mesones,18001,37.1757356,-3.6009882
2,Calle Lucena,18001,37.1763838,-3.6009239
12,Calle Emperatriz Eugenia,18002,37.1758788,-3.6070672
63,Camino de Ronda,18004,37.1699024,-3.6058775
24,Calle Carril del Picón,18002,37.1768230,-3.6052696
11,Plaza de los Lobos,18002,37.1772269,-3.6034339
2,Calle Neptuno,18004,37.1701447,-3.6061867
1,Calle Buensuceso,18002,37.1756186,-3.6018780
65,Camino de Ronda,18004,37.1696993,-3.6057937
20,Calle Águila,18002,37.1730008,-3.6024425
6,Calle Ángel Ganivet,18009,37.1730603,-3.5986712
4,Calle Moras,18009,37.1728895,-3.5986195
46,Calle Puentezuelas,18071,37.1755090,-3.6034865
1,Placeta Almona del Albaicín,18010,37.1828394,-3.5939594
20,Avenida de Madrid,18012,37.1860080,-3.6042442
30,Paseo de la Sabica,18009,37.1733292,-3.5841242
13,Placeta de las Minas,18010,37.1819793,-3.5938804
9,Plaza del Campillo,18009,37.1719831,-3.5978009
6,Paseo Laguna de Cameros,18008,37.1579719,-3.5847434
34,Calle Cristo de la Yedra,18012,37.1871185,-3.6010434
10,Calle Cárcel Baja,18010,37.1774842,-3.5978761
10,Calle Mesones,18001,37.1741647,-3.6001110
2,Plaza de San Agustín,18002,37.1776992,-3.5999725
108,Calle Elvira,18010,37.1807027,-3.5989936
23,Calle Gonzalo Gallas,18003,37.1804968,-3.6113092
25,Avenida Doctor Olóriz,18012,37.1892974,-3.6072576
24,Calle Martínez Campos,18002,37.1720893,-3.6042573
12,Calle Horno de Abad,18002,37.1764584,-3.6043392
11,Calle Horno de Abad,18002,37.1763268,-3.6042062
30,Avenida Pablo Picasso,18008,37.1654326,-3.5932469
4,Calle General Narváez,18002,37.1720160,-3.6036701
2,Calle Santiago,18009,37.1732156,-3.5939599
1,Calle Santa Escolástica,18009,37.1746591,-3.5954009
5,Plaza de Isabel la Católica,18009,37.1754140,-3.5972211
9,Calle Santa Bárbara,18001,37.1826933,-3.6038077
10,Calle Periodista Alberto Machado Cayuso,18014,37.1970174,-3.6233394
20,Calle Martínez Campos,18002,37.1716004,-3.6041461
2,Calle Obispo Hurtado,18002,37.1755451,-3.6044414
6,Avenida de la Constitución,18012,37.1840797,-3.6037239
2,Cuesta del Progreso,18009,37.1724133,-3.5966329
5,Calle Zacatín,18001,37.1752032,-3.5990498
23-25,Avenida de Madrid,18012,37.1904971,-3.6068855
23,Avenida de Madrid,18012,37.1903468,-3.6067290
8,Calle Periodista Eugenio Sellés,18014,37.1963827,-3.6226720
14,Calle Carrera de la Virgen,18005,37.1711484,-3.5979662
38,Calle Gran Vía de Colón,18010,37.1800073,-3.5996872
12,Calle Faisán,18014,37.1857468,-3.6111022
6,Calle Gran Vía de Colón,18010,37.1762181,-3.5976178
85,Calle Elvira,18001,37.1802748,-3.5991744
2,Calle Periodista Eugenio Sellés,18014,37.1963775,-3.6225956
56,Calle Gran Vía de Colón,18010,37.1828483,-3.6011188
5,Calle Bañuelo,18010,37.1787324,-3.5930940
44,Calle Mesones,18001,37.1755445,-3.6008921
9,Calle Emperatriz Eugenia,18002,37.1758966,-3.6067395
16,Calle Alhóndiga,18001,37.1744799,-3.6010144
2,Avenida Federico García Lorca,18014,37.1980558,-3.6149514
4,Calle Doctor Martín Lagos,18005,37.1715511,-3.6024201
63B,Camino de Ronda,18004,37.1692634,-3.6055990
36,Calle Buensuceso,18002,37.1744800,-3.6045287
27,Plaza de Bib-Rambla,18001,37.1747158,-3.5996217
10,Calle Periodista Eugenio Sellés,18014,37.1964351,-3.6235585
2,Calle San Agapito,18071,37.1925173,-3.6051918
37,Calle Moral de la Magdalena,18002,37.1729876,-3.6037556
7,Plaza de Gracia,18002,37.1730665,-3.6042696
7,Plaza de Gracia,18002,37.1731052,-3.6043061
3,Plaza de Gracia,18002,37.1726919,-3.6049105
1,Calle Músico Vicente Zarzo,18002,37.1726275,-3.6050995
6,Calle Capuchinas,18001,37.1762917,-3.6009873
8,Plaza de Gracia,18002,37.1729838,-3.6041762
6,Calle Seminario,18002,37.1740269,-3.6048055
4,Calle Mirasol,18009,37.1716047,-3.5959806
40,Calle Buensuceso,18002,37.1742968,-3.6048462
19,Calle Obispo Hurtado,18002,37.1739305,-3.6060397
2,Calle Marqués de la Ensenada,18004,37.1686085,-3.6057285
7,Calle Colcha,18009,37.1759901,-3.5965166
48,Calle Puentezuelas,18071,37.1755785,-3.6035674
2,Calle Cruz,18002,37.1736376,-3.6018583
1,Calle Alhamar,18005,37.1688963,-3.5994991
2,Calle Abu Isaac,18005,37.1687161,-3.5998396
1,Avenida de las Fuerzas Armadas,18014,37.1876645,-3.6107926
52,Calle Pedro Antonio de Alarcón,18002,37.1741409,-3.6070204
11,Calle Pintor López Mezquita,18002,37.1762189,-3.6078561
4,Calle Trajano,18002,37.1747314,-3.6062434
1,Plaza de Isabel la Católica,18009,37.1757274,-3.5971726
15,Calle Obispo Hurtado,18002,37.1744407,-3.6056048
9,C/ Casillas de Prats,18002,37.1736874,-3.6058789
40,Calle Gracia,18002,37.1735887,-3.6036343
37,Avenida del Conocimiento,18016,37.1475942,-3.6011298
3,Calle Párraga,18002,37.1732540,-3.6005907
7,Calle Ángel Ganivet,18009,37.1731777,-3.5984930
24,Calle Acera del Darro,18005,37.1721693,-3.5994257
1,Calle Marqués de la Ensenada,18004,37.1684881,-3.6060196
20,Calle Águila,18002,37.1728913,-3.6026366
9,Calle Torre de Comares,18007,37.1510475,-3.5951034
5,Calle Emir,18006,37.1579471,-3.6083163
20,Calle Obispo Hurtado,18002,37.1740406,-3.6066603
12,Calle Ventanilla,18001,37.1814844,-3.6033861
7,Calle Acera del Casino,18009,37.1727237,-3.5990407
1,Calle Acera del Casino,18009,37.1714941,-3.5984267
4,Calle Gran Vía de Colón,18010,37.1761493,-3.5975784
2,Calle Profesor Agustín Escribano,18004,37.1658052,-3.6052740
22,Calle Recogidas,18001,37.1724045,-3.6019965
19,Calle Alhóndiga,18001,37.1742550,-3.6010518
7,Callejón de Arenas,18005,37.1680740,-3.5978812
2,Plaza del Campillo,18009,37.1725072,-3.5984368
8,Calle Maestro Cebrián,18003,37.1752851,-3.6100564
19,Calle Poeta Manuel Góngora,18008,37.1653946,-3.5940284
3,Calle Marqués de Mondéjar,18005,37.1682661,-3.6003895
27,Calle Alhóndiga,18001,37.1748303,-3.6013345
3,Calle Fontiveros,18006,37.1621223,-3.5987797
41,Calle Pernaleros Alto,18010,37.1832342,-3.5980315
10,Calle Cetti Meriem,18010,37.1776084,-3.5976302
25,Calle Verónica de la Magdalena,18002,37.1740095,-3.6032575
15,Calle Varela,18009,37.1733453,-3.5961257
61,Calle Periodista Fernando Gómez de la Cruz,18014,37.1980587,-3.6235773
25,Avenida Doctor Olóriz,18012,37.1886299,-3.6077455
47,Calle Reyes Católicos,18001,37.1756332,-3.5980446
7,Calle Recogidas,18005,37.1726394,-3.6009923
12,Calle Carrera de la Virgen,18002,37.1712485,-3.5980604
4,Calle Puente Verde,18008,37.1668178,-3.5903802
10,Plaza de la Trinidad,18001,37.1764263,-3.6017102
22,Calle Emperatriz Eugenia,18003,37.1753932,-3.6080216
18,Plaza de Bib-Rambla,18001,37.1753779,-3.5995419
23,Calle Escudo del Carmen,18009,37.1741133,-3.5982288
6,Plaza del Boquerón,18001,37.1800951,-3.6006894
5,Calle Buensuceso,18002,37.1754989,-3.6021384
32,Calle San Juan de Dios,18001,37.1812285,-3.6024758
110,Camino de Ronda,18004,37.1738595,-3.6078463
34,Calle Santa Paula,18001,37.1798686,-3.6004096
34,Calle Pedro Antonio de Alarcón,18002,37.1721285,-3.6057958
54,Calle Reyes Católicos,18010,37.1763291,-3.5964422
8,Calle Reyes Católicos,18009,37.1743675,-3.5988694
2,Calle Varela,18009,37.1726665,-3.5966250
6,Calle Recoletos,18004,37.1815312,-3.6156070
47,Calle Recogidas,18005,37.1708584,-3.6043734
20,Avenida de la Constitución,18012,37.1857153,-3.6056238
15,Paseo de la Sabica,18009,37.1735732,-3.5841567
39,Calle Reyes Católicos,18001,37.1754869,-3.5982638
4,Calle Méndez Núñez,18003,37.1780387,-3.6104370
7,Plaza de Isabel la Católica,18009,37.1754985,-3.5977476
52,Calle San Juan de Dios,18001,37.1822329,-3.6023213
26,Calle Luis Amador,18014,37.1946017,-3.6146845
1,Calle Gran Capitán,18002,37.1787897,-3.6035566
36,Avenida de la Constitución,18002,37.1859710,-3.6076072
1,Paseo Laguna de Cameros,18008,37.1575124,-3.5833981
4,Calle Príncipe,18001,37.1745455,-3.5991941
40,Calle San Jerónimo,18001,37.1788345,-3.6016355
6,Calle San Marcos,18005,37.1684142,-3.5986864
8,Calle Mariana Pineda,18009,37.1748639,-3.5982804
12,Calle Zacatín,18001,37.1750770,-3.5990541
2,Calle Cristo de la Yedra,18012,37.1864675,-3.6031696
12,Avenida de la Constitución,18012,37.1844952,-3.6043033
33,Calle Carrera de la Virgen,18009,37.1698250,-3.5960075
19,Calle Recogidas,18005,37.1720253,-3.6018795
1,Plaza de la Universidad,18001,37.1781892,-3.6014580
6,Calle Buensuceso,18002,37.1755414,-3.6023103
61,Calle Periodista Fernando Gómez de la Cruz,18014,37.1980639,-3.6236687
21,Calle Gran Vía de Colón,18001,37.1779399,-3.5988799
19,Calle Agua del Albaicín,18010,37.1831681,-3.5934037
11,Calle Varela,18002,37.1731844,-3.5962808
7,Plaza de Isabel la Católica,18009,37.1752950,-3.5975612
16,Calle José Luis Pérez Pujadas,18006,37.1592779,-3.6091733
3,Plaza Albert Einstein,18002,37.1779723,-3.6091317
27,Calle Carrera de la Virgen,18009,37.1700864,-3.5962996
1,Pasaje de Recogidas,18005,37.1714846,-3.6027190
3,Calle Málaga,18001,37.1773002,-3.6019295
38,Calle Recogidas,18002,37.1716171,-3.6034432
40,Calle Acera del Darro,18005,37.1715015,-3.5989648
9,Plaza Albert Einstein,18002,37.1775708,-3.6095348
48,Avenida de la Constitución,18012,37.1867859,-3.6093333
4,Calle Recoletos,18004,37.1813773,-3.6157680
1,Calle Puerta Real de España,18005,37.1736374,-3.5993469
4,Calle Trinidad,18002,37.1766833,-3.6013949
62,Calle Pedro Antonio de Alarcón,18002,37.1752663,-3.6076907
41,Calle Elvira,18010,37.1782706,-3.5979844
1,Avenida de Fuente Nueva,18001,37.1810296,-3.6055584
23,Calle Rector López Argüeta,18001,37.1808968,-3.6053070
29-31,Calle Gonzalo Gallas,18003,37.1810647,-3.6116848
74,Calle Arabial,18004,37.1760380,-3.6108474
12,Calle Paz,18002,37.1748998,-3.6027362
8,Calle Gran Vía de Colón,18001,37.1765323,-3.5977966
53,Calle Real Alta,18009,37.1760547,-3.5883551
19,Plaza del Triunfo,18010,37.1821045,-3.6001440
6,Plaza de Mariana Pineda,18009,37.1720077,-3.5967861
85,Calle Elvira,18010,37.1803907,-3.5991852
9,Camino del Sacromonte,18010,37.1812104,-3.5881850
3,Calle Torres Bermejas,18009,37.1751964,-3.5932736
48-50,Calle de San Antón,18005,37.1694295,-3.5996248
13,Calle Pedro Antonio de Alarcón,18004,37.1699080,-3.6044533
2,Avenida Doctor Olóriz,18012,37.1864261,-3.6080683
13,Calle Ebro,18007,37.1521845,-3.5989472
11,Calle Alhóndiga,18001,37.1738078,-3.6008257
40,Calle Pedro Antonio de Alarcón,18002,37.1736258,-3.6067172
1,Calle Gonzalo Gallas,18002,37.1783807,-3.6100584
1,Plaza Ábside de San Matías,18009,37.1735275,-3.5966898
"58,60",Calle Molinos,18009,37.1709994,-3.5908878
1,Calle Lavadero Tablas,18002,37.1761738,-3.6035186
2,Calle Ribera del Genil,18005,37.1680696,-3.5971365
4,Calle San Sebastián,18001,37.1744075,-3.5993349
36,Calle Rejas de la Virgen,18005,37.1682035,-3.5972533
24,Calle San Isidro,18005,37.1704305,-3.5990261
6,Callejón de Arenas,18005,37.1683262,-3.5977712
2,Calle Huete,18009,37.1724507,-3.5918808
10,Cuesta del Realejo,18009,37.1737370,-3.5931273
13,Calle Nueva de San Antón,18005,37.1707322,-3.6005300
4,Calle Cárcel Baja,18001,37.1771565,-3.5986950
3,Calle Gonzalo Gallas,18003,37.1786925,-3.6102348
21,Calle Gran Vía de Colón,18001,37.1780388,-3.5989368
80,Calle Arabial,18003,37.1766492,-3.6111191
3,Calle Cisne,18014,37.1863079,-3.6099980
7,Calle Párraga,18002,37.1733689,-3.6007332
5,Placeta Berrocal,18009,37.1752357,-3.5949229
6,Calle Torre Pedro de Morales,18008,37.1565186,-3.5924187
2,Plaza de Isabel la Católica,18009,37.1756323,-3.5967260
53,Camino de Ronda,18004,37.1681847,-3.6048159
101,Camino de Ronda,18003,37.1750581,-3.6092646
14,Avenida Doctor Olóriz,18012,37.1878515,-3.6072464
3,Calle Raya,18015,37.1875629,-3.6185520
97,Avenida de Andalucía,18015,37.1934263,-3.6251790
2,Calle Doctor Vaca Castro,18014,37.1932881,-3.6247483
11,Calle Almona de San Juan de Dios,18001,37.1823328,-3.6030739
33,Calle Elvira,18010,37.1781009,-3.5978807
2,Calle Elvira,18010,37.1768409,-3.5966062
7,Calle Angulo,18002,37.1766713,-3.6028513
5,Calle Melchor Almagro,18002,37.1776462,-3.6070269
2,Calle Pintor Rodríguez Acosta,18002,37.1783322,-3.6079333
9,Calle Emperatriz Eugenia,18002,37.1757248,-3.6068930
54,Calle Arabial,18004,37.1734566,-3.6092394
3,Calle Párraga,18002,37.1735275,-3.6005598
19,Calle Navas,18001,37.1733992,-3.5978978
1,Plaza del Campillo,18009,37.1722959,-3.5982398
25,Calle San Pedro Mártir,18009,37.1704503,-3.5960526
7,Paseo del Salón,18009,37.1698368,-3.5948299
2,Calle Poeta Manuel Góngora,18006,37.1674608,-3.5961413
11,Paseo del Violón,18006,37.1669760,-3.5970062
85,Calle San Antón,18005,37.1681862,-3.5989560
8,Calle San Marcos,18005,37.1683525,-3.5988707
20,Calle Alhamar,18004,37.1691135,-3.6035985
19,Calle Poeta Manuel Góngora,18008,37.1653750,-3.5939574
6,Calle Mercedes Gaibrois,18008,37.1572380,-3.5875548
9,Calle Pintor Hermenegildo Lanz,18007,37.1535777,-3.5975547
6,Calle Torre Pedro de Morales,18008,37.1563987,-3.5926994
10,Calle Rector Marín Ocete,18014,37.1837316,-3.6069155
20,Calle Recogidas,18002,37.1724559,-3.6017988
13,Avenida de Madrid,18071,37.1872766,-3.6043080
13,Calle Chile,18007,37.1540154,-3.6018414
5,Calle Cerro de los Machos,18008,37.1604600,-3.5857113
12,Calle Maestro Montero,18004,37.1669739,-3.6077604
112,Avenida de Maracena,18014,37.2018008,-3.6250498
10,Calle Beethoven,18006,37.1583003,-3.6061131
34,Calle Santiago,18009,37.1712588,-3.5922358
37,Calle Mesones,18001,37.1748897,-3.6006837
2,Calle Joaquina Eguaras,18013,37.1986056,-3.6063920
12,Calle Buensuceso,18002,37.1754202,-3.6027428
2,Calle Almona del Campillo,18009,37.1727515,-3.5989994
1,Calle Gran Capitán,18002,37.1790161,-3.6034115
37,Calle Mesones,18001,37.1748535,-3.6006628
61,Calle Arabial,18004,37.1739243,-3.6099461
184,Camino de Ronda,18003,37.1824410,-3.6131350
16,Calle Cruz,18002,37.1734929,-3.6021297
7,Calle Azor,18014,37.1861041,-3.6131110
10,Calle San Sebastián,18001,37.1746170,-3.5990834
20,Calle Gran Vía de Colón,18010,37.1779317,-3.5985463
96,Calle Arabial,18003,37.1787342,-3.6123769
13,Calle Santa Clotilde,18003,37.1789223,-3.6122328
15,Calle Santa Clotilde,18003,37.1790900,-3.6123346
102,Calle Arabial,18003,37.1790306,-3.6125579
104,Calle Arabial,18003,37.1791119,-3.6126072
21,Calle Santa Clotilde,18003,37.1793075,-3.6124651
110,Calle Arabial,18003,37.1794935,-3.6128385
112,Calle Arabial,18003,37.1795295,-3.6128603
114,Calle Arabial,18003,37.1796923,-3.6129591
116,Calle Arabial,18003,37.1798550,-3.6130583
116,Calle Arabial,18003,37.1799109,-3.6130647
96,Calle Arabial,18003,37.1786658,-3.6122911
114,Calle Arabial,18003,37.1796707,-3.6129241
116,Calle Arabial,18003,37.1797891,-3.6129936
116,Calle Arabial,18003,37.1799418,-3.6130581
102,Calle Arabial,18003,37.1790785,-3.6125630
29,Calle Santa Clotilde,18003,37.1796851,-3.6127162
33,Calle Santa Clotilde,18003,37.1799267,-3.6128686
21,Calle Santa Clotilde,18003,37.1793308,-3.6124989
31,Calle Santa Clotilde,18003,37.1799768,-3.6129342
116,Calle Arabial,18003,37.1798807,-3.6130485
110,Calle Arabial,18003,37.1794535,-3.6127934
114,Calle Arabial,18003,37.1797208,-3.6129569
106,Calle Arabial,18003,37.1792743,-3.6126880
96,Calle Arabial,18003,37.1786983,-3.6123326
116,Calle Arabial,18003,37.1798257,-3.6130147
112,Calle Arabial,18003,37.1795676,-3.6128627
112,Calle Arabial,18003,37.1795376,-3.6128103
3,Calle Arteaga,18010,37.1797912,-3.5991593
16,Calle Almenillas,18003,37.1789763,-3.6119412
14,Calle Almenillas,18003,37.1790633,-3.6117074
133,Camino de Ronda,18003,37.1794448,-3.6116399
135,Camino de Ronda,18003,37.1796398,-3.6117594
137,Camino de Ronda,18003,37.1797993,-3.6118565
139,Camino de Ronda,18003,37.1799196,-3.6119292
141,Camino de Ronda,18003,37.1800510,-3.6120080
143,Camino de Ronda,18003,37.1801894,-3.6120929
3,Calle Séneca,18003,37.1801706,-3.6125349
5,Calle Séneca,18003,37.1801340,-3.6126316
7,Calle Séneca,18003,37.1801056,-3.6127063
26,Calle Santa Clotilde,18003,37.1799181,-3.6126906
24,Calle Santa Clotilde,18003,37.1797805,-3.6126075
22,Calle Santa Clotilde,18003,37.1797019,-3.6125600
20,Calle Santa Clotilde,18003,37.1795826,-3.6124880
18,Calle Santa Clotilde,18003,37.1794562,-3.6124112
16,Calle Santa Clotilde,18003,37.1793875,-3.6123691
14,Calle Santa Clotilde,18003,37.1792509,-3.6122868
12,Calle Santa Clotilde,18003,37.1791406,-3.6122211
14,Calle Santa Clotilde,18003,37.1792913,-3.6122816
16,Calle Santa Clotilde,18003,37.1794220,-3.6123702
143,Camino de Ronda,18003,37.1802587,-3.6121862
143,Camino de Ronda,18003,37.1802226,-3.6121373
137,Camino de Ronda,18003,37.1797601,-3.6118545
131,Camino de Ronda,18003,37.1791972,-3.6115097
131,Camino de Ronda,18003,37.1792598,-3.6115480
131,Camino de Ronda,18003,37.1793010,-3.6115735
20,Calle Santa Clotilde,18003,37.1796412,-3.6125036
24,Calle Santa Clotilde,18003,37.1798250,-3.6126142
26,Calle Santa Clotilde,18003,37.1799441,-3.6126857
133,Camino de Ronda,18003,37.1795033,-3.6116981
141,Camino de Ronda,18003,37.1800066,-3.6120073
143,Camino de Ronda,18003,37.1801520,-3.6120938
7,Calle Séneca,18003,37.1801058,-3.6126635
137,Camino de Ronda,18003,37.1798182,-3.6118910
133,Camino de Ronda,18003,37.1793785,-3.6116216
133,Camino de Ronda,18003,37.1793590,-3.6116095
133,Camino de Ronda,18003,37.1794709,-3.6118119
133,Camino de Ronda,18003,37.1795101,-3.6117436
133,Camino de Ronda,18003,37.1794910,-3.6117309
133,Camino de Ronda,18003,37.1794690,-3.6117167
35,Calle Recogidas,18005,37.1714303,-3.6031643
10,Paseo del Violón,18006,37.1652901,-3.6004590
13,Avenida Federico García Lorca,18014,37.1993217,-3.6182270
11,Calle Jesse Owens,18003,37.1853583,-3.6176656
8,Calle Demetrio Spínola,18003,37.1851960,-3.6177140
13,Calle Jesse Owens,18003,37.1854097,-3.6179386
10,Calle Demetrio Spínola,18003,37.1852520,-3.6179885
12,Calle Demetrio Spínola,18003,37.1853070,-3.6182532
15,Calle Jesse Owens,18003,37.1854644,-3.6182041
17,Calle Jesse Owens,18003,37.1855212,-3.6184788
14,Calle Demetrio Spínola,18003,37.1853587,-3.6185268
19,Calle Jesse Owens,18003,37.1854579,-3.6187642
99,Calle Arabial,18003,37.1789401,-3.6127334
101,Calle Arabial,18003,37.1790734,-3.6128140
103,Calle Arabial,18003,37.1791528,-3.6128620
105,Calle Arabial,18003,37.1792808,-3.6131135
107,Calle Arabial,18003,37.1793183,-3.6132433
1,Calle Santo Tomás de Villanueva,18004,37.1795986,-3.6132397
3,Calle Santo Tomás de Villanueva,18004,37.1796477,-3.6133842
7,Calle Santo Tomás de Villanueva,18004,37.1797704,-3.6137470
10,Calle Santa Fe,18004,37.1796300,-3.6139219
6,Calle Santa Fe,18004,37.1794434,-3.6140179
2,Calle Santa Fe,18004,37.1793113,-3.6140858
24,Calle Cañaveral,18004,37.1791437,-3.6137883
20,Calle Cañaveral,18004,37.1791840,-3.6134247
18,Calle Cañaveral,18004,37.1791028,-3.6133581
14,Calle Cañaveral,18004,37.1789514,-3.6132078
3,Calle Damasqueros,18009,37.1744323,-3.5940748
36-38,Calle Real de Cartuja,18012,37.1865311,-3.5999540
1,Calle Séneca,18003,37.1802078,-3.6123929
107,Calle Arabial,18003,37.1794651,-3.6131065
105,Calle Arabial,18003,37.1792899,-3.6129682
26,Calle Cañaveral,18004,37.1792048,-3.6139234
12,Calle Cañaveral,18004,37.1788855,-3.6129611
101,Calle Arabial,18003,37.1790145,-3.6128018
3,Calle Santo Tomás de Villanueva,18004,37.1796117,-3.6133293
7,Calle Santo Tomás de Villanueva,18004,37.1797661,-3.6138209
10,Calle Santa Fe,18004,37.1795771,-3.6139276
6,Calle Santa Fe,18004,37.1794747,-3.6139793
26,Calle Cañaveral,18004,37.1792565,-3.6140391
26,Calle Cañaveral,18004,37.1791960,-3.6138932
20,Calle Cañaveral,18004,37.1791056,-3.6136111
14,Calle Cañaveral,18004,37.1790006,-3.6133022
12,Calle Cañaveral,18004,37.1789278,-3.6130845
101,Calle Arabial,18003,37.1790303,-3.6128106
105,Calle Arabial,18003,37.1793399,-3.6130003
107,Calle Arabial,18003,37.1795211,-3.6131193
99,Calle Arabial,18003,37.1789600,-3.6127678
105-107,Calle Arabial,18003,37.1792473,-3.6132584
20,Calle Cañaveral,18004,37.1792137,-3.6133046
7,Calle Santo Tomás de Villanueva,18004,37.1797407,-3.6137099
3,Calle Santo Tomás de Villanueva,18004,37.1796724,-3.6135080
10,Calle Cañaveral,18003,37.1788609,-3.6128839
127,Camino de Ronda,18003,37.1786689,-3.6111707
125,Camino de Ronda,18003,37.1785536,-3.6111010
123,Camino de Ronda,18003,37.1783890,-3.6110016
6,Calle Cañaveral,18003,37.1784216,-3.6116166
4,Calle Cañaveral,18003,37.1783591,-3.6114151
8,Calle Cañaveral,18003,37.1785134,-3.6118122
2,Calle Cañaveral,18003,37.1782913,-3.6111355
123,Camino de Ronda,18003,37.1782919,-3.6109832
61,Calle Periodista Fernando Gómez de la Cruz,18014,37.1977616,-3.6234908
123,Camino de Ronda,18003,37.1782757,-3.6110860
6,Calle Cañaveral,18003,37.1784206,-3.6115564
2,Calle Cañaveral,18003,37.1783442,-3.6113082
125,Camino de Ronda,18003,37.1784965,-3.6110899
123,Camino de Ronda,18003,37.1783426,-3.6109968
123,Camino de Ronda,18003,37.1784180,-3.6110421
125,Camino de Ronda,18003,37.1786025,-3.6111547
127,Camino de Ronda,18003,37.1786818,-3.6112024
127,Camino de Ronda,18003,37.1787016,-3.6112148
123,Camino de Ronda,18003,37.1782724,-3.6110257
42b,Camino de Purchil,18004,37.1697594,-3.6205476
42,Camino de Purchil,18004,37.1698748,-3.6200538
1,Calle La Malahá,18006,37.1593951,-3.6094308
7,Calle Capuchinas,18001,37.1763691,-3.6008344
8,Calle Clavel de San Pedro,18010,37.1788657,-3.5940274
25,Calle Obispo Hurtado,18004,37.1735847,-3.6073335
52,Calle Arabial,18004,37.1732207,-3.6090584
9,Calle Buenos Aires,18004,37.1719068,-3.6075714
7,Calle Solarillo de Gracia,18002,37.1723861,-3.6038444
141,Camino de Ronda,18003,37.1800981,-3.6120596
94,Calle Arabial,18003,37.1781851,-3.6121792
92,Calle Arabial,18003,37.1779488,-3.6120343
12,Calle Méndez Núñez,18003,37.1775556,-3.6116114
10,Calle Méndez Núñez,18003,37.1775693,-3.6115774
3,Calle Santa Clotilde,18003,37.1778579,-3.6115900
5,Calle Santa Clotilde,18003,37.1780012,-3.6116794
5,Calle Cañaveral,18003,37.1784057,-3.6120182
7,Calle Cañaveral,18003,37.1784226,-3.6120677
9,Calle Santa Clotilde,18003,37.1783559,-3.6119202
9,Calle Santa Clotilde,18003,37.1782660,-3.6118651
4,Calle Alminares del Genil,18006,37.1667170,-3.5964445
4,Calle Poeta Manuel de Góngora,18006,37.1671949,-3.5959189
7,Calle Santa Clotilde,18003,37.1781020,-3.6117686
7,Calle Santa Clotilde,18003,37.1780656,-3.6117466
5,Calle Santa Clotilde,18003,37.1779551,-3.6116792
1,Calle Santa Clotilde,18003,37.1777023,-3.6115218
1,Calle Santa Clotilde,18003,37.1776963,-3.6115392
1,Calle Santa Clotilde,18003,37.1776926,-3.6115157
12,Calle Méndez Núñez,18003,37.1775510,-3.6116651
1,Calle Santa Clotilde,18003,37.1776604,-3.6114966
92,Calle Arabial,18003,37.1776742,-3.6118413
92,Calle Arabial,18003,37.1777521,-3.6118883
92,Calle Arabial,18003,37.1778505,-3.6119504
94,Calle Arabial,18003,37.1782433,-3.6121881
94,Calle Arabial,18003,37.1783497,-3.6122539
3,Calle Santa Clotilde,18003,37.1777650,-3.6115580
5,Calle Santa Clotilde,18003,37.1779180,-3.6116546
12A,Calle Cañaveral,18003,37.1788554,-3.6128628
92,Calle Arabial,18003,37.1780491,-3.6120694
26,Calle Mulhacén,18005,37.1677302,-3.6015757
83,Camino de Ronda,18004,37.1718463,-3.6071585
27,Calle Recogidas,18005,37.1719257,-3.6024051
11,Calle Recogidas,18005,37.1723855,-3.6015382
11,Calle Recogidas,18005,37.1724578,-3.6013927
96,Calle Acera del Darro,18005,37.1687594,-3.5968812
40,Calle Acera del Darro,18005,37.1716468,-3.5989970
12,Calle José Tamayo,18008,37.1603116,-3.5865882
13,Avenida de Cervantes,18008,37.1650065,-3.5886664
4,Calle Pianista Rosa Sabater,18008,37.1584408,-3.5874406
35,Calle Carrera de la Virgen,18009,37.1697763,-3.5959531
52,Calle San Jerónimo,18001,37.1798153,-3.6026505
2,Placeta de Santo Cristo,18001,37.1745062,-3.6002238
13,Calle San Jerónimo,18001,37.1773354,-3.6002931
19,Avenida de la Constitución,18014,37.1849610,-3.6066157
54,Calle Gran Vía de Colón,18010,37.1820945,-3.6007875
15,Avenida de la Constitución,18001,37.1857494,-3.6070800
34,Avenida de la Constitución,18014,37.1858713,-3.6073681
24,Avenida de la Constitución,18012,37.1853141,-3.6062507
20,Avenida Pablo Picasso,18006,37.1644387,-3.5952903
13,Calle Pedro Antonio de Alarcón,18005,37.1698066,-3.6045065
12,Calle Ribera del Genil,18005,37.1665017,-3.6013769
37,Calle Pedro Antonio de Alarcón,18004,37.1723231,-3.6061872
106,Camino de Ronda,18004,37.1734715,-3.6076152
11,Calle Recogidas,18005,37.1723547,-3.6016014
22,Calle Recogidas,18002,37.1724001,-3.6018929
27,Calle Recogidas,18005,37.1719613,-3.6023354
97,Calle Arabial,18004,37.1779675,-3.6134404
48,Calle Recogidas,18002,37.1708471,-3.6047970
2,Calle Pedro Antonio de Alarcón,18005,37.1693534,-3.6029196
82,Avenida de Dílar,18007,37.1546990,-3.6007071
6,Calle Ribera del Violón,18006,37.1658892,-3.6017198
1,Calle Cristo de Medinaceli,18002,37.1713257,-3.6043835
6,Calle Azorín,18004,37.1722520,-3.6073750
1,Calle Doctor Alejandro Otero,18004,37.1658546,-3.6036974
3,Calle Don Emilio Durán Durán,18012,37.1852606,-3.6047226
11-13,Calle Cárcel Baja,18010,37.1769443,-3.5993601
6,Avenida Doctor Olóriz,18012,37.1869889,-3.6077495
25,Calle Pagés,18010,37.1837426,-3.5928480
8,Calle San Jerónimo,18001,37.1772480,-3.6000421
19,Calle Navas,18009,37.1734887,-3.5979866
5,Calle Carrera de la Virgen,18009,37.1711325,-3.5973791
11,Plaza de Mariana Pineda,18009,37.1721823,-3.5975704
4,Calle Joaquín Costa,18010,37.1765886,-3.5972678
9,Calle Tórtola,18014,37.1853902,-3.6103476
1,Calle de la Sultana,18008,37.1530108,-3.5918089
84,Calle Joaquina Eguaras,18013,37.2001952,-3.6078862
2,Calle Torre Quebrada,18008,37.1569205,-3.5914655
22,Calle Gran Vía de Colón,18010,37.1780677,-3.5986490
5,Calle Ángel Ganivet,18009,37.1732414,-3.5986011
9,Calle Palencia,18007,37.1601958,-3.5981687
4,Calle Fontiveros,18006,37.1618772,-3.5987797
30,Avenida de Barcelona,18006,37.1602021,-3.6002835
18,Calle Cañaveral,18004,37.1791415,-3.6132775
92,Calle Arabial,18003,37.1779936,-3.6120375
97,Calle Arabial,18004,37.1777513,-3.6122303
97,Calle Arabial,18004,37.1785984,-3.6134007
97,Calle Arabial,18004,37.1778001,-3.6127708
97,Calle Arabial,18004,37.1787682,-3.6133432
2,Avenida de la Ciencia,18006,37.1620736,-3.6074564
1,Calle Guevara Pozo,18001,37.1806611,-3.6052018
31,Cuesta Alhacaba,18010,37.1824727,-3.5966388
5,Calle Melchor Almagro,18002,37.1776816,-3.6069625
9,Plaza de San Lázaro,18012,37.1866996,-3.6065027
3,Calle San Juan de Letrán,18012,37.1862911,-3.6075338
16,Avenida de Dílar,18007,37.1597591,-3.5999845
139,Camino de Ronda,18003,37.1798587,-3.6119152
97,Calle Arabial,18004,37.1778675,-3.6122944
97,Calle Arabial,18003,37.1776420,-3.6123425
97,Calle Arabial,18004,37.1776318,-3.6124117
97,Calle Arabial,18004,37.1782802,-3.6125422
3,Calle Obispo Hurtado,18002,37.1753691,-3.6043904
3,Plaza Albert Einstein,18002,37.1781691,-3.6092664
3,Plaza Albert Einstein,18002,37.1782162,-3.6092099
3,Plaza Albert Einstein,18002,37.1782551,-3.6091680
2,Calle Melchor Almagro,18002,37.1774150,-3.6061965
8,Calle Melchor Almagro,18002,37.1778412,-3.6068230
20,Calle Melchor Almagro,18002,37.1786137,-3.6079732
20,Calle Melchor Almagro,18002,37.1786376,-3.6080109
1,Calle Pintor Rodríguez Acosta,18002,37.1781685,-3.6078089
97,Calle Arabial,18004,37.1777842,-3.6123573
9,Calle Pintor López Mezquita,18002,37.1763361,-3.6077964
16,Calle Almenillas,18003,37.1789831,-3.6120631
139,Camino de Ronda,18003,37.1799425,-3.6119667
97,Calle Arabial,18003,37.1782112,-3.6125563
97,Calle Arabial,18004,37.1778435,-3.6124268
49,Calle Molinos,18009,37.1718953,-3.5916184
159,Camino de Ronda,18003,37.1838593,-3.6143650
2,Calle Recogidas,18001,37.1732780,-3.6003290
10,Plaza de la Romanilla,18001,37.1769974,-3.6003213
2,Calle Cabañeros,18008,37.1630323,-3.5582868
27,Calle Gran Vía de Colón,18001,37.1788738,-3.5994127
2,Plaza del Carmen,18009,37.1740304,-3.5990970
18,Calle Doctor Severo Ochoa,18001,37.1815832,-3.6055881
2,Calle Pintor Rodríguez Acosta,18001,37.1782296,-3.6080410
11,Calle Gran Capitán,18001,37.1781878,-3.6039125
10,Calle Gran Capitán,18002,37.1784241,-3.6041030
10,Calle Gran Capitán,18002,37.1783649,-3.6041903
10,Calle Martínez de la Rosa,18002,37.1775666,-3.6084088
3,Calle Pintor Rodríguez Acosta,18002,37.1780336,-3.6079499
2,Plaza de Gran Capitán,18001,37.1768575,-3.6062012
16,Calle Recogidas,18002,37.1725350,-3.6016475
24,Calle Recogidas,18002,37.1725062,-3.6016957
11,Calle Recogidas,18005,37.1724891,-3.6013279
22,Calle Recogidas,18002,37.1723603,-3.6019707
22,Calle Recogidas,18005,37.1723480,-3.6019982
17,Calle Recogidas,18005,37.1721534,-3.6019768
19,Calle Recogidas,18005,37.1720814,-3.6020195
19,Calle Recogidas,18005,37.1720969,-3.6020309
24,Calle Recogidas,18002,37.1720670,-3.6025024
4,Calle Mozart,18004,37.1655100,-3.6061273
26,Calle Luis Amador,18014,37.1945642,-3.6149612
16,Calle San Matías,18009,37.1734061,-3.5969271
60,Calle Pedro Antonio de Alarcón,18002,37.1750630,-3.6075730
18,Calle Cañaveral,18004,37.1790375,-3.6134059
105-107,Calle Arabial,18003,37.1794201,-3.6131382
81,Calle Pedro Antonio de Alarcón,18003,37.1763168,-3.6085542
94,Calle Arabial,18003,37.1784632,-3.6122809
94,Calle Arabial,18003,37.1781190,-3.6121052
1,Avenida Doctor Olóriz,18012,37.1867386,-3.6083262
21,Calle San Matías,18009,37.1739690,-3.5967983
6,Avenida de Cervantes,18008,37.1655267,-3.5896865
99,Calle Arabial,18003,37.1788451,-3.6127319
8,Calle Alhóndiga,18001,37.1740481,-3.6008126
23,Calle Maestro Montero,18004,37.1668217,-3.6084673
37,Avenida Don Bosco,18007,37.1596566,-3.5976449
9,Avenida de Barcelona,18006,37.1612217,-3.6013711
28,Avenida de Barcelona,18006,37.1603385,-3.6005524
2,Calle Valle Inclán,18003,37.1803862,-3.6118960
174,Camino de Ronda,18003,37.1812039,-3.6123729
3,Avenida Compositor Luis de Narváez,18014,37.1977289,-3.6202464
10,Calle Gran Capitán,18002,37.1785913,-3.6045674
98,Camino de Ronda,18004,37.1726170,-3.6070965
2,Calle Periodista José María Carulla,18014,37.1954156,-3.6223002
12,Avenida Compositor Luis de Narváez,18014,37.1987188,-3.6182693
25,Calle Recogidas,18005,37.1719797,-3.6023041
19,Calle Cruz,18002,37.1731613,-3.6025888
10,Paseo del Generalife,18009,37.1741661,-3.5865623
20,Avenida de la Constitución,18012,37.1851971,-3.6055715
44,Calle Fontiveros,18008,37.1612030,-3.5937934
157,Camino de Ronda,18003,37.1830338,-3.6138629
3,Calle Gabriel Miró,18003,37.1829058,-3.6133688
25,Calle Gonzalo Gallas,18003,37.1807481,-3.6114958
47,Calle Verea de Enmedio,18010,37.1818241,-3.5866189
17,Calle Santa Clotilde,18003,37.1792210,-3.6124362
8,Avenida del Sur,18014,37.1879569,-3.6133226
12,Avenida de Andaluces,18014,37.1847769,-3.6091551
14,Avenida de Andaluces,18014,37.1846922,-3.6091926
5,Calle Doctor Jiménez Díaz,18014,37.1846433,-3.6082004
5,Calle Doctor Jiménez Díaz,18014,37.1845586,-3.6082556
10,Calle Doctor Jiménez Díaz,18014,37.1848301,-3.6084339
16,Calle Doctor Jaime García Royo,18014,37.1842123,-3.6083588
7,Calle María Luisa de Dios,18014,37.1840342,-3.6073176
9,Avenida de Andaluces,18014,37.1846748,-3.6086603
24,Calle Duquesa,18001,37.1791334,-3.6033558
21-23,Calle Gran Capitán,18002,37.1776691,-3.6049020
5,Plaza de Gran Capitán,18002,37.1773123,-3.6058013
146,Camino de Ronda,18003,37.1780883,-3.6104773
13,Avenida de Pampaneira,18003,37.1831607,-3.6201797
109,Calle Arabial,18003,37.1797639,-3.6133267
4,Calle Artesano Molero,18004,37.1812239,-3.6148288
4,Glorieta de Arabial,18003,37.1746543,-3.6091382
19,Calle Martínez de la Rosa,18002,37.1774315,-3.6085782
6,Calle Emperatriz Eugenia,18002,37.1764207,-3.6065810
71,Calle Arabial,18004,37.1753613,-3.6107495
8,Calle Veracruz,18004,37.1676515,-3.6033873
22,Calle Imperio,18007,37.1545868,-3.6033964
26,Calle Acera de San Ildefonso,18010,37.1845752,-3.5998326
51,Avenida de Dílar,18007,37.1575410,-3.5999553
19,Avenida de Dílar,18006,37.1609359,-3.5994351
2,Calle Zacatín,18001,37.1750314,-3.5991591
3,Calle Ángel Ganivet,18009,37.1733658,-3.5988815
7,Calle Doctor Alejandro Otero,18004,37.1641094,-3.6073988
13,Calle Margarita Xirgú,18007,37.1578178,-3.5967460
25,Calle Ingeniero Santa Cruz,18007,37.1514774,-3.5981678
6,Calle Valencia,18007,37.1553363,-3.5973153
38,Calle Andrés Segovia,18006,37.1627737,-3.5947758
32,Calle Molinos,18009,37.1725525,-3.5924806
2,Calle de la Sultana,18007,37.1523214,-3.5920924
2,Avenida de la Ciencia,18006,37.1624786,-3.6078725
10,Calle Calderería Nueva,18010,37.1778426,-3.5969130
12,Calle Calderería Nueva,18010,37.1778517,-3.5968750
2,Calle Azorín,18004,37.1725766,-3.6065116
47,Calle Arabial,18004,37.1695819,-3.6073844
47,Calle Arabial,18004,37.1694670,-3.6075095
3,Calle Varela,18009,37.1726610,-3.5967895
13,Calle Santa Escolástica,18009,37.1742370,-3.5948638
11,Calle Marqués Don Gonzalo,18004,37.1731052,-3.6071270
11,Calle Marqués Don Gonzalo,18004,37.1727269,-3.6068803
9,Calle Marqués Don Gonzalo,18004,37.1725901,-3.6068400
3,Calle Azorín,18004,37.1722996,-3.6066901
3,Calle Azorín,18004,37.1721900,-3.6068386
3,Calle Azorín,18004,37.1722568,-3.6068001
17,Calle Emperatriz Eugenia,18002,37.1753661,-3.6074866
17,Calle Emperatriz Eugenia,18002,37.1753538,-3.6075458
64,Calle Pedro Antonio de Alarcón,18002,37.1754795,-3.6078106
16,Calle Emperatriz Eugenia,18002,37.1755659,-3.6075711
16,Calle Emperatriz Eugenia,18002,37.1756242,-3.6074416
8,Calle Emperatriz Eugenia,18002,37.1762022,-3.6067810
3,Calle Sol,18002,37.1762672,-3.6070599
7,Calle Emperatriz Eugenia,18002,37.1761438,-3.6065289
7,Calle Emperatriz Eugenia,18002,37.1760877,-3.6065867
9,Calle Pintor López Mezquita,18002,37.1764614,-3.6076585
13,Calle Pintor López Mezquita,18002,37.1761663,-3.6078993
12,Calle Pintor López Mezquita,18002,37.1765848,-3.6080246
14,Calle Pintor López Mezquita,18002,37.1765051,-3.6080598
73,Calle Pedro Antonio de Alarcón,18003,37.1756265,-3.6081824
73,Calle Pedro Antonio de Alarcón,18003,37.1758880,-3.6083134
39,Calle Azorín,18004,37.1723834,-3.6064178
21,Calle Rodrigo de Triana,18011,37.2058541,-3.6010581
1,Calle Azorín,18004,37.1724387,-3.6063379
10,Calle Rauda,18008,37.1638609,-3.5708937
39,Avenida de Cádiz,18007,37.1563269,-3.6028448
5,Calle Brasil,18007,37.1523317,-3.6050959
5,Avenida Juan Pablo II,18012,37.1939314,-3.6086562
107,Carretera de Málaga,18015,37.1892710,-3.6272746
1,Calle María Goyri,18015,37.1926988,-3.6291075
47,Carretera de Málaga,18015,37.1886241,-3.6199636
1,Avenida de Maracena,18014,37.2008787,-3.6248696
17,Calle Doctor Medina Olmos,18015,37.1919313,-3.6261956
1,Calle Arzobispo Guerrero,18015,37.1917295,-3.6235594
2,Calle Galileo,18004,37.1675628,-3.6037920
14,Calle San Sebastián de la Gomera,18014,37.2022870,-3.6208972
23,Avenida de Andalucía,18015,37.1915479,-3.6201480
74,Carretera de Málaga,18015,37.1893169,-3.6230628
1,Calle Las Hayas,18014,37.1980593,-3.6200434
3,Calle Ovidio,18014,37.2006663,-3.6159553
23,Calle Joaquina Eguaras,18013,37.2042790,-3.6118260
5,Calle Joaquina Eguaras,18013,37.2014193,-3.6098783
4,Plaza de la Trinidad,18002,37.1761642,-3.6022516
45,Calle Arabial,18004,37.1687904,-3.6071196
2,Calle Ribera del Genil,18005,37.1677035,-3.5981176
13,Calle Sócrates,18002,37.1748550,-3.6065994
4,Calle Joaquina Eguaras,18013,37.2001422,-3.6077945
2,Calle Arzobispo Pedro de Castro,18013,37.1997595,-3.6110500
63,Calle Casería Aguirre,18011,37.2106432,-3.6116362
14,Avenida Doctor Olóriz,18012,37.1878682,-3.6072213
28,Calle Ribera del Beiro,18012,37.1914034,-3.6079443
68,Avenida Juan Pablo II,18013,37.1959949,-3.6092632
14,Calle Padre Claret,18013,37.2037439,-3.6092787
43,Avenida de Pulianas,18013,37.1948927,-3.6045768
67,Avenida de Pulianas,18013,37.1967065,-3.6043537
171,Calle Fray Juan Sánchez Cotán,18011,37.2072149,-3.6044510
6,Plaza de San Isidro,18012,37.1867916,-3.6033498
6,Calle Luz Casanova,18011,37.2009233,-3.6016640
10,Calle Julio Moreno Dávila,18011,37.2029376,-3.6003820
3,Calle Mayor,18011,37.1982661,-3.5989420
283,Calle Gabriela Mistral,18011,37.2046606,-3.5941035
61,Avenida de la Ilustración,18016,37.1494389,-3.6046729
1,Calle Arquitecto Felipe Giménez Lacal,18001,37.1900152,-3.6142973
10,Calle Francisco Hurtado Izquierdo,18011,37.2052552,-3.6044549
74,Calle María Goyri,18015,37.1911636,-3.6301998
8,Calle Emilia Pardo Bazán,18013,37.2003356,-3.6060954
59,Calle Real de Cartuja,18012,37.1873657,-3.6000416
39,Avenida de Cádiz,18007,37.1563961,-3.6026738
13,Calle Salamanca,18001,37.1744359,-3.5996181
11P,Avenida de la Ilustración,18016,37.1480062,-3.6031946
74,Calle San Antón,18005,37.1676249,-3.5989669
4,Plaza de Bib-Rambla,18001,37.1748880,-3.5999838
50,Calle San Juan de Dios,18001,37.1817851,-3.6023589
2,Calle Guatimocín,18010,37.1827589,-3.5905605
8,Calle Gloria,18010,37.1789510,-3.5913591
32,Calle Elvira,18010,37.1779966,-3.5977428
14,Calle Cárcel Baja,18010,37.1776511,-3.5976761
53,Calle Recogidas,18005,37.1706080,-3.6048281
21,Calle Sol,18003,37.1764603,-3.6086657
61,Calle Gran Vía de Colón,18001,37.1824762,-3.6017417
25,Avenida Doctor Olóriz,18012,37.1890535,-3.6076092
88,Avenida Juan Pablo II,18013,37.1985220,-3.6089724
88,Avenida Juan Pablo II,18013,37.1982862,-3.6107520
6,Plaza de los Campos,18009,37.1716716,-3.5950737
1,Calle La Palmita,18014,37.1994747,-3.6215056
118,Avenida de Andalucía (Cerrillo),18014,37.1985084,-3.6377901
6,Avenida de la Constitución,18012,37.1851259,-3.6032801
3,Avenida de Andaluces,18014,37.1852363,-3.6083877
21,Avenida de la Constitución,18014,37.1850262,-3.6070845
26,C. Ancha de Capuchinos,18012,37.1860368,-3.6023291
112,Avenida de la Ilustración,18016,37.1486165,-3.5981708
21,Avenida Doctor Jesús Candel Fábregas,18016,37.1474303,-3.6029922
2,Placeta de la Cruz de Piedra,18010,37.1859718,-3.5911981
39,Calle Carrera del Darro,18010,37.1788060,-3.5922934
1,Plaza Arquitecto García de Paredes,18009,37.1739761,-3.5901391
38,Paseo de la Sabica,18009,37.1729591,-3.5835457
199,Camino de Ronda,18003,37.1881264,-3.6149803
7,Calle Albondón,18003,37.1835933,-3.6170859
3,Camino del Cañaveral,18004,37.1785568,-3.6155234
129,Camino de Ronda,18003,37.1787913,-3.6116113
46,Avenida de Andalucía,18015,37.1921970,-3.6204849
64,Avenida de Francisco Ayala,18014,37.1955778,-3.6188157
38,Calle Periodista Eduardo Molina Fajardo,18014,37.1978773,-3.6304290
2,Plaza Escritor Fernández Castro,18014,37.1971981,-3.6197185
2,Calle Jimena,18014,37.2010969,-3.6155628
17,Calle Gloria Mas,18014,37.1967354,-3.6169201
47,Calle Arabial,18004,37.1695039,-3.6075590
19,Calle Arabial,18004,37.1676975,-3.6065034
2,Plaza Guitarrista Manuel Cano,18003,37.1765673,-3.6122390
1,Calle Turín,18004,37.1663977,-3.6054744
8,Calle Doctor Alejandro Otero,18004,37.1641966,-3.6080530
1,Calle Marqués de la Ensenada,18004,37.1684277,-3.6058464
11,Calle de los Juncos,18006,37.1641883,-3.6055252
2,Calle La Taha,18006,37.1609543,-3.6060937
8,Calle Félix Rodríguez de la Fuente,18006,37.1565676,-3.6055029
19,Calle Padre Francisco Palau Y Quer,18006,37.1553107,-3.6057369
2,Avenida Doctor Jesús Candel Fábregas,18016,37.1464506,-3.6053995
2,Calle Beethoven,18006,37.1574483,-3.6031471
55,Calle Puentezuelas,18071,37.1754008,-3.6039024
5,Calle Martínez de la Rosa,18002,37.1767582,-3.6072003
8,Calle Gran Capitán,18002,37.1787196,-3.6040115
24,Calle Recogidas,18002,37.1723167,-3.6024849
1,Calle Solarillo de Gracia,18002,37.1720236,-3.6030892
22,Calle Recogidas,18002,37.1725254,-3.6020868
14,Calle Oficios,18001,37.1760873,-3.5982730
14,Calle Santa Bárbara,18001,37.1828111,-3.6046816
15,Calle San Juan de Dios,18001,37.1806043,-3.6030016
10 bis,Avenida de Andalucía,18014,37.1883863,-3.6118499
19,Avenida de Madrid,18012,37.1899628,-3.6065231
2,Plaza Jesús Escudero García,18011,37.2036857,-3.6005272
19,Calle El Partal,18008,37.1570159,-3.5904329
7,Calle de la Sultana,18006,37.1514614,-3.5919793
25,Calle Palencia,18008,37.1598831,-3.5948417
7,Calle Ángel Ganivet,18009,37.1732321,-3.5982684
9,Calle Almuñécar,18006,37.1588402,-3.6037771
6,Calle Beethoven,18006,37.1582350,-3.6049645
4,Calle Beethoven,18006,37.1579332,-3.6043094
1,Paseo Laguna de Cameros,18008,37.1570967,-3.5835845
74,Calle San Antón,18005,37.1676343,-3.5992870
4,Plaza General Emilio Herrera,18005,37.1678615,-3.5983753
5,Calle San Gregorio Alto,18010,37.1844278,-3.5934019
1,Avenida de América,18006,37.1620149,-3.6002152
18,Calle Julio Moreno Dávila,18011,37.2023987,-3.5984001
1,Calle Periodista Luis de Vicente,18011,37.1997791,-3.6034853
1,Avenida de la Investigación,18016,37.1482994,-3.6066782
7,Camino de San Antonio,18011,37.1874782,-3.5948503
3,Calle de la Sultana,18008,37.1521351,-3.5912979
88,Avenida Juan Pablo II,18013,37.1977326,-3.6103467
1,Camino Real de los Neveros,18008,37.1629226,-3.5858850
114,Avenida de la Ilustración,18007,37.1488335,-3.5974803
5,Calle Ojos del Salado,18008,37.1604680,-3.5761658
1,Plaza de Santa Ana,18009,37.1774803,-3.5945126
11,Cuesta de San Gregorio,18010,37.1786244,-3.5953427
18,Paseo del Generalife,18009,37.1761119,-3.5893937
2,Placeta de las Escuelas,18010,37.1799300,-3.5921614
19,Cuesta de San Agustín,18010,37.1813924,-3.5892000
6,Plaza Mirador de San Nicolás,18010,37.1814112,-3.5920365
21,Camino de Alfacar,18011,37.2052478,-3.5977917
4,Avenida de las Fuerzas Armadas,18014,37.1900010,-3.6120177
25,Calle Virgen Blanca,18004,37.1697109,-3.6136641
66,Avenida de Pulianas,18011,37.1984158,-3.6036379
1,Calle Periodista Barrios Talavera,18014,37.1962348,-3.6290594
2,Calle Mirador del Genil,18008,37.1633146,-3.5706241
100,Avenida del Conocimiento,18016,37.1498313,-3.5973094
14,Calle Torre del Capitán,18008,37.1587861,-3.5853884
14,Calle Torre del Capitán,18008,37.1585428,-3.5852178
6,Cuesta Aceituneros,18010,37.1778853,-3.5945458
136,Carretera de Málaga,18015,37.1906819,-3.6353152
2,Paseo de Cartuja,18011,37.1889403,-3.5996192
20,Paseo de Cartuja,18011,37.1949072,-3.6004221
27,Calle Virgen Blanca,18004,37.1704124,-3.6141284
1-3,Calle Torre de la Pólvora,18008,37.1538081,-3.5916858
6,Paseo Laguna de Cameros,18008,37.1579453,-3.5848300
7,Calle San José,18010,37.1791671,-3.5966395
1,Plaza de Mariana Pineda,18009,37.1723957,-3.5967941
9,Cuesta Molinos,18008,37.1683644,-3.5882913
48,Calle Carrera de la Virgen,18005,37.1696990,-3.5966702
1,Calle Sancho Panza,18008,37.1629394,-3.5876440
3,Calle Sancho Panza,18008,37.1628793,-3.5879056
16,Calle Aljibe de la Vieja,18010,37.1835037,-3.5908603
4,Calle Avicena,18016,37.1495964,-3.5968113
8,Calle Avicena,18016,37.1495492,-3.5964270
53,Calle García Lorca,18190,37.1662392,-3.5451437
190,Avenida de Maracena,18014,37.2057198,-3.6277130
15,Calle Ronda de Alfareros,18011,37.1994338,-3.5968175
188,Avenida de Maracena,18014,37.2053717,-3.6274578
313,Carretera de la Sierra,18008,37.1626330,-3.5578611
8,Calle Profesor García Gómez,18004,37.1679665,-3.6049128
19,Avenida de Madrid,18012,37.1899684,-3.6066731
19,Avenida de Madrid,18012,37.1898773,-3.6065178
4,Calle Ojos del Salado,18008,37.1591953,-3.5753498
4,Calle Huerta del Rasillo,18003,37.1745430,-3.6151611
10,Carretera de Granada a Badajoz,18015,37.1994373,-3.6510437
18,Calle Paz,18071,37.1748076,-3.6032464
19,Calle Águila,18071,37.1728905,-3.6024002
36,Avenida Federico García Lorca,18014,37.2036317,-3.6205976
4,Plaza del Padre Suárez,18009,37.1742931,-3.5954559
3,Calle Marqués de Mondéjar,18005,37.1682263,-3.6003000
1,Calle Rector Marín Ocete,18014,37.1833650,-3.6060781
88,Avenida Juan Pablo II,18013,37.1984165,-3.6105637
88,Avenida Juan Pablo II,18013,37.1980777,-3.6109050
5,Calle Periodista José Fernández Martínez,18014,37.1955387,-3.6237353
97,Calle Arabial,18004,37.1780012,-3.6132314
35,Calle de los Aljibes,18008,37.1640659,-3.5694060
33,Calle de los Aljibes,18008,37.1639785,-3.5694933
31,Calle de los Aljibes,18008,37.1638924,-3.5695781
29,Calle de los Aljibes,18008,37.1638089,-3.5696590
21,Calle de los Aljibes,18008,37.1639951,-3.5693036
23,Calle de los Aljibes,18008,37.1639044,-3.5693928
25,Calle de los Aljibes,18008,37.1638219,-3.5694807
27,Calle de los Aljibes,18008,37.1637436,-3.5695626
19,Calle de los Aljibes,18008,37.1637578,-3.5692012
"7,9",Calle Rauda,18008,37.1639697,-3.5702839
11,Calle Mirador del Genil,18008,37.1645090,-3.5694323
4,Calle Luz Casanova,18011,37.2006957,-3.6030105
8,Calle Sócrates,18002,37.1759203,-3.6057340
5,Calle Carril del Picón,18002,37.1759203,-3.6058326
40,Calle Pedro Antonio de Alarcón,18002,37.1730405,-3.6062241
1,Calle de San Antón,18005,37.1731161,-3.5999453
65,Calle Molinos,18009,37.1708480,-3.5902410
11-41,Calle Rauda,18008,37.1637477,-3.5699226
3,Calle Sala de las Dos Hermanas,18008,37.1628550,-3.5698114
2,Calle Ramón y Cajal,18003,37.1834207,-3.6153568
4,Calle Ramón y Cajal,18003,37.1831040,-3.6156236
5,Calle Santo Tomás de Villanueva,18004,37.1796478,-3.6136466
24A,Calle Cañaveral,18004,37.1793718,-3.6137283
22,Calle Cañaveral,18004,37.1791094,-3.6136790
36-38,Calle Real de Cartuja,18071,37.1865147,-3.5998136
36,Paseo de la Sabica,18009,37.1728653,-3.5837983
34,Paseo de la Sabica,18009,37.1731120,-3.5838613
32,Paseo de la Sabica,18009,37.1731561,-3.5839920
30,Paseo de la Sabica,18009,37.1733110,-3.5841297
28,Paseo de la Sabica,18009,37.1735299,-3.5842217
38,Paseo de la Sabica,18009,37.1736040,-3.5842727
50,Paseo de la Sabica,18009,37.1721041,-3.5817974
123,Camino de Ronda,18003,37.1783966,-3.6109542
5,Calle Cerro de los Machos,18008,37.1604253,-3.5854584
12,Calle Virgen de la Consolación,18015,37.1923767,-3.6277985
21,Calle Párraga,18002,37.1741567,-3.6014439
14,Calle Azacayas,18010,37.1799154,-3.5993561
19,Calle Recogidas,18005,37.1720074,-3.6020422
17,Calle Recogidas,18005,37.1719847,-3.6019032
21,Calle Recogidas,18005,37.1719542,-3.6021307
27,Calle Recogidas,18005,37.1718923,-3.6023264
57,Camino de Purchil,18004,37.1715918,-3.6414355
9,Calle Cañaveral,18004,37.1787856,-3.6130303
5,Calle Doctor Jiménez Díaz,18014,37.1845888,-3.6081957
16,Calle Doctor Jaime García Royo,18014,37.1842467,-3.6082642
3,Placeta Porras,18010,37.1786591,-3.5946445
108,Calle Arabial,18003,37.1793977,-3.6126490
1,Calle San Juan de Letrán,18012,37.1862002,-3.6078906
33,Avenida del Conocimiento,18016,37.1476169,-3.6022027
3,Plaza de los Campos,18009,37.1726518,-3.5956244
56,Calle Gran Vía de Colón,18010,37.1828776,-3.6010947
13,Calle Pedro Antonio de Alarcón,18004,37.1698641,-3.6045516
15,Calle Pedro Antonio de Alarcón,18004,37.1700252,-3.6046697
14,Calle Manuel de Falla,18004,37.1694777,-3.6047971
12,Calle Manuel de Falla,18004,37.1696069,-3.6047420
10,Calle Manuel de Falla,18004,37.1697280,-3.6046659
