House number,Street name,Postal code,Latitude,Longitude
31в/1,улица Панфиловцев,680051,48.3848664,135.1170313
2А,улица Ворошилова,680051,48.3815703,135.1157894
36А,улица Панфиловцев,680051,48.3844555,135.1177075
29,улица Малиновского,680051,48.3832190,135.1219337
14Б,улица Панфиловцев,680051,48.3843359,135.1143285
8,улица Ворошилова,680051,48.3849533,135.1109342
8,улица Ворошилова,680051,48.3850851,135.1108517
90,улица Тургенева,680000,48.4753562,135.0544286
83,Волочаевская улица,680020,48.4683766,135.0813298
6,Магнитогорская улица,680022,48.5072222,135.0725706
36,Амурский бульвар,680028,48.4839154,135.0655941
38,Амурский бульвар,680028,48.4845691,135.0660471
17,улица Ким Ю Чена,680000,48.4829134,135.0687810
43,улица Пушкина,680000,48.4832541,135.0688688
123,улица Шеронова,680000,48.4818744,135.0648449
106,улица Шеронова,680028,48.4828258,135.0657159
174,Волочаевская улица,680000,48.4811135,135.0643139
27,Амурский бульвар,680038,48.4836441,135.0630464
21,улица Ким Ю Чена,680000,48.4838447,135.0703273
182,Волочаевская улица,680038,48.4828923,135.0621125
35,улица Муравьёва-Амурского,680000,48.4810281,135.0707284
33,улица Муравьёва-Амурского,680000,48.4795996,135.0697589
15,улица Шевченко,680000,48.4726654,135.0496500
166,Волочаевская улица,680000,48.4804077,135.0653475
71,улица Фрунзе,680000,48.4774576,135.0603380
17,Амурский бульвар,680028,48.4805530,135.0608765
8,улица Льва Толстого,680000,48.4854563,135.0714665
14,улица Льва Толстого,680000,48.4867371,135.0703217
46,Амурский бульвар,680000,48.4890811,135.0696416
12,улица Гайдара,680000,48.4864132,135.0726099
180,Волочаевская улица,680038,48.4825864,135.0622555
177,Волочаевская улица,680038,48.4822944,135.0619554
48,Амурский бульвар,680028,48.4897352,135.0702213
52,Амурский бульвар,680028,48.4903043,135.0706753
54,Амурский бульвар,680028,48.4907767,135.0710874
16,Амурский бульвар,680028,48.4778620,135.0599537
162,Волочаевская улица,680000,48.4797424,135.0663569
163,Волочаевская улица,680000,48.4806231,135.0639245
161,Волочаевская улица,680000,48.4798897,135.0648930
56,улица Дзержинского,680000,48.4793670,135.0644794
160,Волочаевская улица,680000,48.4793782,135.0667954
11,улица Пушкина,680030,48.4763557,135.0776259
122,Волочаевская улица,680030,48.4741841,135.0741541
120,Волочаевская улица,680030,48.4738090,135.0751418
118,Волочаевская улица,680030,48.4731907,135.0754320
78А,Облачный переулок,680030,48.4690284,135.0969801
13,Ленинградская улица,680013,48.4818597,135.0953204
7,Ленинградская улица,680013,48.4802807,135.0969609
9,Ленинградская улица,680013,48.4799533,135.0962068
15,Ленинградская улица,680013,48.4823423,135.0945493
18,Ленинградская улица,680013,48.4827050,135.0954570
18,Ленинградская улица,680013,48.4828089,135.0957656
7,Ростовский переулок,680013,48.4775244,135.0928958
64,улица Карла Маркса,680000,48.4838643,135.0779141
57,Амурский бульвар,680021,48.4933607,135.0702499
59,Амурский бульвар,680021,48.4939032,135.0705353
63,Амурский бульвар,680021,48.4950775,135.0711225
2 кД,улица Кубяка,680045,48.4424070,135.1061886
62,улица Дзержинского,680000,48.4798042,135.0635486
54,улица Дзержинского,680000,48.4790543,135.0645417
168,Волочаевская улица,680000,48.4808341,135.0648690
52,улица Дзержинского,680000,48.4788588,135.0650675
64,улица Дзержинского,680000,48.4802679,135.0632812
60,улица Дзержинского,680000,48.4795629,135.0638470
48,улица Дзержинского,680000,48.4785350,135.0652263
8,улица Павловича,680030,48.4740186,135.0922040
1Б,улица Павловича,680030,48.4718855,135.0913311
1В,улица Павловича,680030,48.4706858,135.0926539
211,Краснореченская улица,680007,48.4509485,135.1056712
209,Краснореченская улица,680007,48.4503176,135.1065686
6/5,улица Павловича,680030,48.4730376,135.0933792
18Г,улица Профессора Даниловского М.П.,680054,48.5359615,135.0448478
56,улица Карла Маркса,680030,48.4795154,135.0728136
44,улица Муравьёва-Амурского,680000,48.4781244,135.0688769
148,Волочаевская улица,680000,48.4778035,135.0694044
146,Волочаевская улица,680000,48.4774542,135.0695701
23,улица Муравьёва-Амурского,680000,48.4776400,135.0651845
73,улица Запарина,680000,48.4770098,135.0638732
8,улица Флегонтова,680023,48.4357880,135.1145642
96,Краснореченская улица,680023,48.4314637,135.1124964
94,Краснореченская улица,680023,48.4297820,135.1122477
94/5,Краснореченская улица,680006,48.4291318,135.1122032
92 с5,Краснореченская улица,680006,48.4281291,135.1126033
92,Краснореченская улица,680006,48.4271859,135.1119611
3,Индустриальная улица,680006,48.4245545,135.1069954
5,Индустриальная улица,680006,48.4244932,135.1076370
3А,Индустриальная улица,680006,48.4244256,135.1082930
149,Краснореченская улица,680023,48.4243982,135.1091950
1,Индустриальная улица,680006,48.4251678,135.1058388
7,Индустриальная улица,680006,48.4252058,135.1080275
1А с1,Индустриальная улица,680006,48.4245115,135.1058384
4Г,улица Королёва,680045,48.4568422,135.1136356
7,Трубный переулок,680007,48.4605986,135.0923569
4,улица Ленина,680000,48.4661435,135.0652559
4А,улица Белинского,680018,48.5782422,135.0507101
14,улица Авроры,680018,48.5764461,135.0456874
138,Тихоокеанская улица,680035,48.5331358,135.0505594
87А,улица Яшина,680021,48.4941532,135.0598098
3В,Краснофлотская улица,680018,48.5699712,135.0448763
3Г,Краснофлотская улица,680018,48.5687718,135.0449544
11,улица Железнякова,680018,48.5602267,135.0467514
40,улица Ворошилова,680051,48.3962403,135.1148033
30,улица Ворошилова,680051,48.3947708,135.1132579
50,улица Ворошилова,680051,48.3966480,135.1140866
38,улица Ворошилова,680051,48.3954497,135.1144963
32,улица Ворошилова,680051,48.3947935,135.1144160
28,улица Ворошилова,680051,48.3933171,135.1139549
43,улица Ворошилова,680051,48.3960026,135.1128036
33,улица Ворошилова,680051,48.3932787,135.1115778
42,улица Суворова,680051,48.3920298,135.1099081
62,улица Суворова,680051,48.3923920,135.1194178
60,улица Суворова,680051,48.3922539,135.1188360
66,улица Суворова,680051,48.3915731,135.1202306
34,улица Ворошилова,680051,48.3949016,135.1152320
42,улица Ворошилова,680051,48.3955106,135.1135838
45,улица Ворошилова,680051,48.3969052,135.1114998
39,улица Ворошилова,680051,48.3952632,135.1120858
37,улица Ворошилова,680051,48.3944581,135.1110278
41,улица Ворошилова,680051,48.3961852,135.1112466
47,улица Ворошилова,680051,48.3971631,135.1128169
48,Краснореченская улица,680003,48.3982724,135.1009405
46,Краснореченская улица,680003,48.3974398,135.1009457
52,Краснореченская улица,680003,48.3989190,135.1015706
71А,Краснореченская улица,680003,48.3992252,135.0998191
71,Краснореченская улица,680003,48.3986813,135.1000349
69,Краснореченская улица,680003,48.3981004,135.0998013
42А,Краснореченская улица,680003,48.3956407,135.1017437
42,Краснореченская улица,680003,48.3953358,135.1009846
52А,Краснореченская улица,680003,48.3987179,135.1027421
54А,Краснореченская улица,680003,48.3997088,135.1015504
54,Краснореченская улица,680003,48.3998147,135.1024340
8,улица Ленина,680000,48.4675941,135.0678826
15,Уссурийский бульвар,680000,48.4728298,135.0633161
18,улица Муравьёва-Амурского,680000,48.4737151,135.0604212
40,Краснореченская улица,680003,48.3951787,135.0997416
57,Краснореченская улица,680003,48.3949779,135.0985259
57А,Краснореченская улица,680003,48.3950413,135.0977424
40А,Краснореченская улица,680003,48.3951879,135.1003200
59А,Краснореченская улица,680003,48.3960333,135.0986427
59,Краснореченская улица,680003,48.3955707,135.0987570
63,Краснореченская улица,680003,48.3969703,135.0993647
61,Краснореченская улица,680003,48.3964070,135.0991376
51,Краснореченская улица,680003,48.3924597,135.0975945
49,Краснореченская улица,680003,48.3917131,135.0970631
53,Краснореченская улица,680003,48.3932457,135.0976563
32,улица Суворова,680051,48.3932901,135.1070651
32,улица Рокоссовского,680051,48.3885189,135.1178572
16,улица Панфиловцев,680051,48.3831993,135.1132381
36,Краснореченская улица,680003,48.3929784,135.0989030
34,Краснореченская улица,680003,48.3923092,135.0985097
32,Краснореченская улица,680003,48.3916107,135.0983017
47,Краснореченская улица,680003,48.3910631,135.0970352
36А,Краснореченская улица,680003,48.3925389,135.0993840
34А,Краснореченская улица,680003,48.3917869,135.0991154
34Б,Краснореченская улица,680003,48.3921096,135.0995396
27,Архангельская улица,680015,48.4042253,135.1206581
6,улица Халтурина,680015,48.4028182,135.1204441
23А,Архангельская улица,680015,48.4028019,135.1218257
85,Краснореченская улица,680003,48.4035939,135.1020084
83,Краснореченская улица,680003,48.4029879,135.1017758
27,Архангельская улица,680015,48.4041953,135.1197612
27,Архангельская улица,680015,48.4047250,135.1210897
38,улица Суворова,680051,48.3926080,135.1083836
161А,Краснореченская улица,680023,48.4312196,135.1092154
159А,Краснореченская улица,680023,48.4299322,135.1092125
4,улица Флегонтова,680023,48.4345683,135.1104160
94,улица Морозова Павла Леонтьевича,680023,48.4312337,135.1068156
96А,улица Морозова Павла Леонтьевича,680023,48.4325740,135.1079011
96,улица Морозова Павла Леонтьевича,680023,48.4325714,135.1067994
165,Краснореченская улица,680023,48.4335239,135.1107848
2,улица Флегонтова,680023,48.4336187,135.1074236
163,Краснореченская улица,680023,48.4321662,135.1104864
161,Краснореченская улица,680023,48.4308112,135.1102260
94А,улица Морозова Павла Леонтьевича,680023,48.4312394,135.1079312
92А,улица Морозова Павла Леонтьевича,680023,48.4299365,135.1079578
163А,Краснореченская улица,680023,48.4323023,135.1093183
157,Краснореченская улица,680023,48.4287287,135.1100157
159,Краснореченская улица,680023,48.4296583,135.1102229
155А,Краснореченская улица,680023,48.4277074,135.1090189
157А,Краснореченская улица,680023,48.4286853,135.1091471
155,Краснореченская улица,680023,48.4277055,135.1096974
81,Краснореченская улица,680003,48.4022947,135.1014993
79,Краснореченская улица,680003,48.4016286,135.1012217
77,Краснореченская улица,680003,48.4010141,135.1009609
75,Краснореченская улица,680003,48.4002960,135.1006794
64,Краснореченская улица,680003,48.4039424,135.1036016
97,Краснореченская улица,680003,48.4060644,135.1030116
95,Краснореченская улица,680003,48.4053232,135.1027084
147,Краснореченская улица,680006,48.4233002,135.1091290
2,Индустриальная улица,680006,48.4235376,135.1061877
4,Индустриальная улица,680006,48.4236176,135.1053092
100,Краснореченская улица,680023,48.4351362,135.1131021
10,улица Шевченко,680000,48.4713136,135.0572381
8,улица Шевченко,680000,48.4710553,135.0574290
6,улица Шевченко,680000,48.4707787,135.0575416
4,улица Шевченко,680000,48.4703876,135.0578769
3,Уссурийский бульвар,680000,48.4700398,135.0582417
4,улица Муравьёва-Амурского,680000,48.4719699,135.0575056
63А,улица Тургенева,680000,48.4715506,135.0577350
63,улица Тургенева,680000,48.4717818,135.0582263
59,улица Тургенева,680000,48.4714344,135.0586604
5,улица Шевченко,680000,48.4709552,135.0564976
3А,улица Шевченко,680000,48.4698718,135.0570879
41,улица Панфиловцев,680051,48.3862191,135.1184085
73Б,улица Суворова,680015,48.3950291,135.1387438
82А к3,улица Суворова,680015,48.3920130,135.1607672
12,Мирная улица,680029,48.5128374,135.1452003
14,Большая улица,680009,48.5006163,135.0970322
33,Хабаровская улица,680009,48.4955164,135.1005268
8,Сергеевская улица,680025,48.5597499,135.1120827
6,Сергеевская улица,680025,48.5600985,135.1117147
1,Солнечный квартал,680025,48.5604642,135.1113165
2,Солнечный квартал,680025,48.5607927,135.1108175
4,Солнечный квартал,680025,48.5601058,135.1104563
5,Солнечный квартал,680025,48.5597492,135.1108398
12,Сергеевская улица,680025,48.5593694,135.1112490
10,Сергеевская улица,680025,48.5594734,135.1117473
3,Солнечный квартал,680025,48.5604804,135.1102442
11,70-летия Октября квартал,680025,48.5564811,135.1126391
146,Воронежская улица,680042,48.5357097,135.0685132
32А,улица Аксёнова,680015,48.4060002,135.1222294
40,улица Аксёнова,680015,48.4055962,135.1250974
39,Белорусская улица,680015,48.4029709,135.1243006
123,Краснореченская улица,680006,48.4136005,135.1060116
13,Ангарская улица,680006,48.4211871,135.1081596
105А,Краснореченская улица,680006,48.4087918,135.1029181
113,Краснореченская улица,680006,48.4115441,135.1052411
113Б,Краснореченская улица,680006,48.4119563,135.1033233
75А,Краснореченская улица,680003,48.4005001,135.1001410
60,Краснореченская улица,680003,48.4021724,135.1029753
5,Краснореченская улица,680001,48.3752851,135.0917889
43,Белорусская улица,680015,48.4039026,135.1237628
70А,Краснореченская улица,680003,48.4052504,135.1047901
128,Краснореченская улица,680045,48.4527533,135.1059914
8А,Оборонная улица,680007,48.4554817,135.0968013
29,улица Шевчука,680007,48.4579507,135.0891290
21,Волочаевская улица,680007,48.4629753,135.0928044
169,Краснореченская улица,680023,48.4387210,135.1102639
167,Краснореченская улица,680023,48.4382860,135.1079681
6,Байкальский переулок,680045,48.4413922,135.1048721
16,улица Кубяка,680045,48.4447285,135.1079168
181А,Краснореченская улица,680023,48.4411400,135.1094882
17,Трамвайный переулок,680023,48.4336740,135.1171367
2Б,Краснореченская улица,680006,48.4199057,135.1049553
3А,Союзная улица,680003,48.4001832,135.0971982
90 к2,Краснореченская улица,680006,48.4154446,135.1082889
68,улица Тургенева,680000,48.4721497,135.0587478
71,Комсомольская улица,680000,48.4725501,135.0598954
8,улица Муравьёва-Амурского,680000,48.4725837,135.0584176
77,Комсомольская улица,680000,48.4729925,135.0591895
1,улица Муравьёва-Амурского,680000,48.4731320,135.0577525
20,улица Муравьёва-Амурского,680000,48.4743814,135.0616847
72,улица Тургенева,680000,48.4731118,135.0574996
7,улица Муравьёва-Амурского,680000,48.4740673,135.0592603
84,Комсомольская улица,680000,48.4731580,135.0598991
3,улица Муравьёва-Амурского,680000,48.4734447,135.0584457
68,Комсомольская улица,680000,48.4719737,135.0617772
82,Комсомольская улица,680000,48.4730178,135.0601092
9,улица Муравьёва-Амурского,680000,48.4742668,135.0597939
80,Комсомольская улица,680000,48.4728784,135.0603675
3А,улица Муравьёва-Амурского,680000,48.4732636,135.0579451
70,Комсомольская улица,680000,48.4721258,135.0614340
72,Комсомольская улица,680000,48.4722043,135.0612084
5,улица Муравьёва-Амурского,680000,48.4738385,135.0590679
65,улица Калинина,680000,48.4740267,135.0629402
43А,улица Истомина,680000,48.4735562,135.0610239
35,улица Истомина,680000,48.4723261,135.0623796
86,улица Тургенева,680000,48.4751462,135.0546763
42,улица Истомина,680000,48.4732922,135.0622709
63,улица Калинина,680000,48.4737628,135.0633156
61,улица Калинина,680000,48.4736303,135.0635259
37,улица Истомина,680000,48.4726432,135.0623612
34,улица Истомина,680000,48.4731115,135.0629700
39А,улица Истомина,680000,48.4726463,135.0617570
65А,улица Калинина,680000,48.4743675,135.0624883
35А,улица Истомина,680000,48.4723349,135.0619926
59,улица Калинина,680000,48.4734955,135.0636300
44,улица Истомина,680000,48.4737720,135.0616237
41А,улица Истомина,680000,48.4730512,135.0615416
78,улица Калинина,680000,48.4746854,135.0629725
47,улица Фрунзе,680000,48.4742914,135.0651403
80,улица Калинина,680000,48.4749037,135.0629568
41,улица Фрунзе,680000,48.4737856,135.0658328
68,улица Калинина,680000,48.4738509,135.0640911
76,улица Калинина,680000,48.4744442,135.0632410
47А,улица Фрунзе,680000,48.4741593,135.0648046
24,улица Муравьёва-Амурского,680000,48.4753208,135.0630608
43,улица Фрунзе,680000,48.4739720,135.0655894
53,улица Фрунзе,680000,48.4749245,135.0640459
72,улица Калинина,680000,48.4741646,135.0635989
66,улица Калинина,680000,48.4737272,135.0647085
51А,улица Фрунзе,680000,48.4748386,135.0644198
49,улица Фрунзе,680000,48.4744658,135.0645478
46,улица Тургенева,680000,48.4692899,135.0632067
5,улица Ленина,680000,48.4674688,135.0657885
54,улица Тургенева,680000,48.4696883,135.0621504
58,улица Тургенева,680000,48.4701768,135.0618576
11,улица Ленина,680000,48.4679958,135.0667726
32,улица Тургенева,680000,48.4677943,135.0647329
43Б,Комсомольская улица,680000,48.4685484,135.0652859
3,улица Ленина,680000,48.4673313,135.0654784
46,улица Тургенева,680000,48.4688203,135.0634023
56,улица Тургенева,680000,48.4699099,135.0621757
4,Братский переулок,680000,48.4679587,135.0610875
4,Уссурийский бульвар,680000,48.4694847,135.0606571
43,Комсомольская улица,680000,48.4688749,135.0651609
34,улица Тургенева,680000,48.4680281,135.0653281
30,улица Тургенева,680000,48.4676104,135.0649399
53Б,Комсомольская улица,680000,48.4696605,135.0631411
2,Уссурийский бульвар,680000,48.4686288,135.0595303
41,Комсомольская улица,680000,48.4683979,135.0658383
36,улица Тургенева,680000,48.4683754,135.0645019
2Б,Уссурийский бульвар,680000,48.4684454,135.0600056
45Б,Комсомольская улица,680000,48.4686835,135.0647052
43А,Комсомольская улица,680000,48.4685704,135.0649222
28,улица Тургенева,680000,48.4674499,135.0651515
50,улица Тургенева,680000,48.4694270,135.0625617
8,Уссурийский бульвар,680000,48.4704636,135.0622188
23,улица Истомина,680000,48.4709311,135.0642601
132,Тихоокеанская улица,680042,48.5255779,135.0508918
19,улица Демьяна Бедного,680009,48.5013244,135.0951583
28,улица Свердлова,680009,48.5010766,135.0982834
13,Призывной переулок,680013,48.4784108,135.1010149
15,Призывной переулок,680013,48.4784856,135.1022843
8,Служебная улица,680013,48.4779855,135.1002943
6/4,улица Павловича,680030,48.4721126,135.0930677
6/3,улица Павловича,680030,48.4719046,135.0925370
11,ДОС квартал (Большой Аэродром),680014,48.4756620,135.1192457
48Б,Костромская улица,680014,48.4795850,135.1216500
8А,Гаражный переулок,680013,48.4798944,135.1147590
23,улица Постышева,680030,48.4795620,135.0833124
11,улица Дикопольцева,680030,48.4817571,135.0849817
25,улица Постышева,680030,48.4798625,135.0829036
7,улица Дикопольцева,680030,48.4811945,135.0860265
17,улица Мухина,680030,48.4791791,135.0823838
27,улица Постышева,680030,48.4801880,135.0824621
9,улица Дикопольцева,680030,48.4815207,135.0855783
82,улица Гамарника,680030,48.4776620,135.0900330
18,улица Гоголя,680030,48.4788119,135.0728073
10,улица Блюхера,680030,48.4649876,135.0834388
12,улица Блюхера,680030,48.4656068,135.0836883
15А,улица Гамарника,680000,48.4701170,135.0749134
117,Волочаевская улица,680030,48.4712849,135.0766054
23,Волочаевская улица,680007,48.4645155,135.0914231
11,переулок Дзержинского,680020,48.4673988,135.0797217
4,улица Блюхера,680030,48.4640247,135.0824403
20,улица Блюхера,680030,48.4653840,135.0824952
9,Молдавский переулок,680007,48.4635625,135.0906834
25,Волочаевская улица,680007,48.4648246,135.0902372
8,улица Запарина,680000,48.4701562,135.0736975
1,улица Блюхера,680030,48.4658879,135.0828065
2А,улица Блюхера,680030,48.4652018,135.0798985
4,Молдавский переулок,680007,48.4619912,135.0891226
5,Молдавский переулок,680007,48.4632308,135.0893704
24,улица Ленина,680000,48.4710436,135.0749672
27,Ладожская улица,680007,48.4625428,135.0879279
22А,улица Ленина,680000,48.4704274,135.0745485
115,Волочаевская улица,680030,48.4711198,135.0771173
3,Молдавский переулок,680007,48.4629274,135.0899546
2,улица Блюхера,680030,48.4642628,135.0833297
3,улица Блюхера,680030,48.4663474,135.0832247
26,улица Ленина,680000,48.4713924,135.0755037
1А,улица Блюхера,680030,48.4640914,135.0809401
21,Фабричный переулок,680020,48.4665413,135.0785242
3,Доступный переулок,680020,48.4654746,135.0768761
15,улица Гамарника,680020,48.4694457,135.0745755
22,улица Ленина,680000,48.4707760,135.0740983
1,Молдавский переулок,680007,48.4622587,135.0885538
21,улица Шевчука,680007,48.4571962,135.0918472
21,улица Олега Кошевого,680007,48.4597150,135.0921896
29,улица Олега Кошевого,680007,48.4603606,135.0903222
23,Ремесленная улица,680007,48.4567821,135.0884088
25,улица Шевчука,680007,48.4579415,135.0908176
2,Молдавский переулок,680007,48.4603132,135.0890799
17,улица Шевчука,680007,48.4562862,135.0929632
7,Верхнеудинская улица,680007,48.4619355,135.0930674
5,Ладожский переулок,680007,48.4578964,135.0899818
21,Ладожская улица,680007,48.4594120,135.0903832
21,Ремесленная улица,680007,48.4574290,135.0888862
14А,Молдавский переулок,680007,48.4629176,135.0908330
27А,улица Олега Кошевого,680007,48.4598637,135.0906737
15,улица Шевчука,680007,48.4558252,135.0936152
23,улица Олега Кошевого,680007,48.4599041,135.0919243
25,Ремесленная улица,680007,48.4566447,135.0877334
4,Ремесленный переулок,680007,48.4565708,135.0917922
3,Ладожский переулок,680007,48.4576089,135.0893889
31,улица Олега Кошевого,680007,48.4605699,135.0897649
18,улица Ватутина,680007,48.4609430,135.0933108
27,Ремесленная улица,680007,48.4563670,135.0872612
19,Ремесленная улица,680007,48.4570601,135.0892999
19,улица Шевчука,680007,48.4567884,135.0923171
7,Ладожский переулок,680007,48.4581298,135.0904891
29,улица Демьяна Бедного,680009,48.5032250,135.1005006
29А,улица Демьяна Бедного,680009,48.5030233,135.1010472
29,улица Демьяна Бедного,680009,48.5036400,135.1002467
21,улица Демьяна Бедного,680009,48.5023103,135.0969389
29А,улица Демьяна Бедного,680009,48.5040508,135.0999940
21,улица Демьяна Бедного,680009,48.5017650,135.0959844
23,улица Демьяна Бедного,680009,48.5019839,135.0981430
31,улица Демьяна Бедного,680009,48.5042474,135.1009049
29,улица Демьяна Бедного,680009,48.5038829,135.1001895
23,улица Демьяна Бедного,680009,48.5023387,135.0975767
23А,улица Демьяна Бедного,680009,48.5029935,135.0979389
21,улица Демьяна Бедного,680009,48.5020375,135.0964680
109,улица Карла Маркса,680009,48.5061294,135.1056818
2,Хабаровская улица,680009,48.4955196,135.1032015
23,Хабаровская улица,680009,48.4946992,135.1028041
4,Хабаровская улица,680009,48.4957963,135.1024077
29,Хабаровская улица,680009,48.4966027,135.1024254
36,Студенческий переулок,680013,48.4864477,135.0831430
44,Владивостокская улица,680021,48.4935024,135.0739125
66,Амурский бульвар,680021,48.4949250,135.0733272
62,Амурский бульвар,680021,48.4938224,135.0727615
64,Амурский бульвар,680021,48.4943940,135.0730608
16,Мирная улица,680029,48.5124168,135.1467426
10,Мирная улица,680029,48.5114951,135.1444408
5,Мирная улица,680029,48.5110965,135.1428679
74,улица Серышева,680021,48.4932134,135.0646079
47,улица Серышева,680021,48.4935317,135.0630366
8,Первомайская улица,680021,48.4913541,135.0679189
10,Первомайская улица,680021,48.4918896,135.0678700
12,Первомайская улица,680021,48.4924061,135.0678383
56А,Амурский бульвар,680021,48.4927179,135.0720354
81,Ленинградская улица,680021,48.4957428,135.0740255
44,Ленинградская улица,680021,48.4908195,135.0842497
56,Амурский бульвар,680028,48.4923116,135.0717733
12,улица Дикопольцева,680013,48.4844087,135.0867080
8,улица Мухина,680017,48.4788173,135.0829813
8,улица Вострецова,680017,48.4785581,135.0831463
21,улица Постышева,680017,48.4793455,135.0838983
188,Волочаевская улица,680038,48.4837026,135.0609094
29А,Амурский бульвар,680038,48.4846202,135.0637619
42,улица Серышева,680038,48.4840011,135.0604000
4,улица Джамбула,680038,48.4870779,135.0642580
29Б,Амурский бульвар,680038,48.4849126,135.0635495
12,улица Джамбула,680038,48.4876499,135.0634554
29,Амурский бульвар,680038,48.4841048,135.0633665
186,Волочаевская улица,680038,48.4834882,135.0613977
184,Волочаевская улица,680038,48.4830347,135.0616306
85А,Краснореченская улица,680003,48.4038819,135.1014391
98,Краснореченская улица,680023,48.4342091,135.1128399
46,улица Тургенева,680000,48.4690308,135.0638090
5,Большая улица,680009,48.4984545,135.0974649
7,улица Ленина,680000,48.4676161,135.0660617
6/2,улица Павловича,680030,48.4720723,135.0924436
40,улица Ворошилова,680051,48.3958504,135.1152666
11,улица Железнякова,680018,48.5602286,135.0459717
8А,Шмаковская улица,680032,48.4440070,135.1415761
8А с1,Шмаковская улица,680032,48.4435354,135.1411787
4 к1,Геодезическая улица,680032,48.4445864,135.1400580
4 к2,Геодезическая улица,680032,48.4443092,135.1406819
32,улица Аксёнова,680015,48.4060711,135.1216788
8,улица Орджоникидзе,680011,48.4940324,135.0443580
4А,улица Орджоникидзе,680011,48.4927677,135.0431034
10В,улица Орджоникидзе,680011,48.4928353,135.0457643
12Б,улица Орджоникидзе,680011,48.4933259,135.0466186
10,улица Орджоникидзе,680011,48.4942820,135.0449741
9,Брестская улица,680011,48.4910350,135.0426294
13,Брестская улица,680011,48.4915390,135.0435341
10А,улица Орджоникидзе,680011,48.4936541,135.0451177
24,Тихоокеанская улица,680011,48.4909910,135.0415498
12А,улица Орджоникидзе,680011,48.4937755,135.0464609
11,Брестская улица,680011,48.4912626,135.0430619
10Б,улица Орджоникидзе,680011,48.4932365,135.0454433
22,Тихоокеанская улица,680011,48.4907023,135.0417238
6,улица Орджоникидзе,680011,48.4938899,135.0437668
3 к2,Брестская улица,680011,48.4922469,135.0442759
53,улица Знамёнщикова,680011,48.4926309,135.0469742
160,улица Запарина,680011,48.4904226,135.0466091
51,улица Знамёнщикова,680011,48.4923156,135.0473048
16,Тихоокеанская улица,680011,48.4889564,135.0424001
11,Свободный переулок,680011,48.4910219,135.0459184
20,Зеленоборский переулок,680011,48.4884722,135.0463974
20,Тихоокеанская улица,680011,48.4901366,135.0425920
8,Брестская улица,680011,48.4902934,135.0447843
9,Свободный переулок,680011,48.4918780,135.0473465
2,Брестская улица,680011,48.4902429,135.0436089
21А,улица Орджоникидзе,680011,48.4954707,135.0448013
37,Тихоокеанская улица,680011,48.4864780,135.0430679
41,Амурский бульвар,680021,48.4891119,135.0672541
37,Амурский бульвар,680021,48.4881406,135.0664717
35,Амурский бульвар,680021,48.4872430,135.0658390
47,Амурский бульвар,680021,48.4905891,135.0683975
51,Амурский бульвар,680021,48.4918658,135.0693609
45,Амурский бульвар,680021,48.4900595,135.0679202
49,Амурский бульвар,680021,48.4912881,135.0689718
62,улица Пушкина,680000,48.4829944,135.0708126
56,улица Дикопольцева,680000,48.4887420,135.0769915
37,Владивостокская улица,680021,48.4914110,135.0798984
35А,Владивостокская улица,680021,48.4907719,135.0796084
35,Владивостокская улица,680021,48.4908810,135.0806471
144,Волочаевская улица,680000,48.4770712,135.0707761
142,Волочаевская улица,680000,48.4760286,135.0717246
107,Волочаевская улица,680020,48.4691858,135.0781660
10,Доступный переулок,680020,48.4662826,135.0758987
104,Волочаевская улица,680030,48.4702956,135.0796124
2,Доступный переулок,680020,48.4662833,135.0772295
12,Доступный переулок,680020,48.4663916,135.0755314
113А,Волочаевская улица,680030,48.4700824,135.0784600
13,переулок Дзержинского,680020,48.4676043,135.0789100
7,Доступный переулок,680020,48.4656631,135.0760588
8,Уссурийская улица,680030,48.4682996,135.0795687
20,переулок Дзержинского,680030,48.4666701,135.0817437
8,Доступный переулок,680020,48.4661182,135.0763463
11,Доступный переулок,680020,48.4659391,135.0751856
22,переулок Дзержинского,680030,48.4674028,135.0808136
24,переулок Дзержинского,680030,48.4678584,135.0801902
71,Волочаевская улица,680030,48.4660734,135.0858569
4,Доступный переулок,680020,48.4660291,135.0767682
2,Автобусная улица,680041,48.3671169,135.0432495
9,Краснореченская улица,680001,48.3763463,135.0925183
57Б,Артёмовская улица,680001,48.3743846,135.0881794
57А,Артёмовская улица,680001,48.3746314,135.0879823
55А,Артёмовская улица,680001,48.3737637,135.0881085
55,Артёмовская улица,680001,48.3738229,135.0886142
7,Краснореченская улица,680001,48.3758870,135.0919052
57В,Артёмовская улица,680001,48.3741595,135.0883809
55Б,Артёмовская улица,680001,48.3735788,135.0876492
21,Амурский бульвар,680038,48.4818988,135.0621510
181,Волочаевская улица,680038,48.4830788,135.0609759
179,Волочаевская улица,680038,48.4825399,135.0611186
123,Волочаевская улица,680030,48.4725160,135.0751995
15Г,Казарменный переулок,680030,48.4698979,135.0923914
131,Волочаевская улица,680030,48.4740142,135.0730429
6,улица Дзержинского,680000,48.4728059,135.0736504
10,улица Шеронова,680030,48.4690699,135.0849300
6,улица Дзержинского,680000,48.4731120,135.0744388
5А,Картографический переулок,680030,48.4667635,135.0935067
19,Слободская улица,680030,48.4696681,135.0859527
8,улица Дзержинского,680000,48.4734069,135.0732815
3,улица Дзержинского,680000,48.4719467,135.0724308
26,улица Запарина,680000,48.4713749,135.0725073
21А к1,улица Дзержинского,680000,48.4730435,135.0712851
27,улица Ленина,680000,48.4713397,135.0738161
23,улица Дзержинского,680000,48.4739016,135.0705239
30,улица Запарина,680000,48.4727238,135.0713842
21,улица Дзержинского,680000,48.4732082,135.0716511
25,улица Ленина,680000,48.4710184,135.0730712
19,улица Дзержинского,680000,48.4733059,135.0710600
45,улица Тургенева,680000,48.4680606,135.0625907
22,Кавказская улица,680000,48.4653694,135.0652406
24,Кавказская улица,680000,48.4655202,135.0650318
47,улица Тургенева,680000,48.4676293,135.0626582
49,улица Тургенева,680000,48.4690199,135.0612665
27А,Набережная улица,680000,48.4666086,135.0599572
1,улица Шевченко,680000,48.4691068,135.0581249
43А,улица Тургенева,680000,48.4675747,135.0632523
5,Гражданский переулок,680020,48.4648439,135.0758921
12,Гражданский переулок,680000,48.4652768,135.0731014
11,Гражданский переулок,680000,48.4649611,135.0741579
6,улица Запарина,680000,48.4692560,135.0740420
1А,улица Запарина,680000,48.4668090,135.0739355
4,улица Запарина,680000,48.4689386,135.0741403
18А,улица Ленина,680000,48.4692738,135.0722425
13,улица Запарина,680000,48.4685673,135.0733055
18В,улица Ленина,680000,48.4697618,135.0720877
15,Гражданский переулок,680000,48.4647918,135.0732618
18,улица Ленина,680000,48.4693804,135.0713167
9,улица Гамарника,680000,48.4686669,135.0726495
19,улица Гамарника,680000,48.4698750,135.0755382
2А,улица Запарина,680020,48.4676102,135.0749206
20,улица Ленина,680000,48.4698784,135.0728357
7,Гражданский переулок,680020,48.4652212,135.0757592
21,улица Гамарника,680000,48.4705272,135.0760826
10,улица Калинина,680000,48.4675017,135.0724642
17,улица Гамарника,680020,48.4694338,135.0751171
3,Гражданский переулок,680020,48.4646175,135.0761500
12,улица Калинина,680000,48.4684385,135.0719468
18Б,улица Ленина,680000,48.4689716,135.0709169
34,Комсомольская улица,680000,48.4677175,135.0687286
10,улица Ленина,680000,48.4682499,135.0685349
15,улица Запарина,680000,48.4689808,135.0734361
11В,переулок Дзержинского,680020,48.4675598,135.0794335
11,улица Запарина,680000,48.4683203,135.0736127
6,Уссурийская улица,680020,48.4680281,135.0788298
39,улица Гамарника,680030,48.4731532,135.0805037
38,улица Ленина,680030,48.4743365,135.0802001
36,улица Ленина,680030,48.4738375,135.0794834
38А,улица Ленина,680030,48.4740985,135.0810492
37,улица Гамарника,680030,48.4725134,135.0795296
41,улица Гамарника,680030,48.4735686,135.0815323
114,Волочаевская улица,680030,48.4718717,135.0774259
24А,улица Воровского,680052,48.4563623,135.1814051
17,улица Воровского,680052,48.4574221,135.1812974
24Б,улица Воровского,680052,48.4541011,135.1814346
5,Служебная улица,680013,48.4766206,135.1002951
4,Батарейный переулок,680013,48.4782755,135.0962758
8,улица Рабочий Городок,680013,48.4827404,135.0999398
4,улица Лермонтова,680013,48.4774170,135.0965404
15,Служебная улица,680013,48.4779372,135.0989227
3,Служебная улица,680013,48.4761747,135.1003128
4А,улица Рабочий Городок,680013,48.4821525,135.0971878
4,улица Рабочий Городок,680013,48.4828093,135.0979385
1,Засыпной переулок,680013,48.4762894,135.0992888
6,Батарейный переулок,680013,48.4785122,135.0970411
15А,Служебная улица,680013,48.4778502,135.0983094
6А,улица Рабочий Городок,680013,48.4821342,135.0991047
10,Служебная улица,680013,48.4783898,135.0999643
4А,Батарейный переулок,680013,48.4775444,135.0974345
12,Ленинградская улица,680013,48.4814708,135.0968481
11,Служебная улица,680013,48.4779207,135.0996492
5,улица Постышева,680030,48.4759806,135.0888172
4Б,улица Рабочий Городок,680013,48.4821583,135.0980763
13,Служебная улица,680013,48.4783027,135.0991968
6,улица Лермонтова,680013,48.4778038,135.0963168
6,улица Рабочий Городок,680013,48.4827025,135.0988769
24,улица Постышева,680030,48.4806652,135.0832302
22,улица Постышева,680030,48.4807259,135.0836006
20,улица Постышева,680030,48.4803988,135.0836332
23,улица Мухина,680030,48.4802536,135.0844386
15,улица Мухина,680030,48.4788185,135.0821196
22А,улица Постышева,680030,48.4811389,135.0840778
46А,улица Дзержинского,680000,48.4788827,135.0658660
45,улица Фрунзе,680000,48.4740009,135.0650307
28,улица Муравьёва-Амурского,680000,48.4757872,135.0640613
67,улица Запарина,680000,48.4759078,135.0651754
59,улица Запарина,680000,48.4749999,135.0665971
57,улица Запарина,680000,48.4746672,135.0671377
65,улица Запарина,680000,48.4756095,135.0658719
35,Уссурийский бульвар,680000,48.4749760,135.0691212
38А,улица Муравьёва-Амурского,680000,48.4766083,135.0662873
32,улица Муравьёва-Амурского,680000,48.4766566,135.0653815
39/1,улица Дзержинского,680000,48.4747656,135.0687329
66,улица Запарина,680000,48.4752079,135.0672349
47,улица Дзержинского,680000,48.4766852,135.0668071
39,улица Дзержинского,680000,48.4750341,135.0683079
76,улица Запарина,680000,48.4762564,135.0661212
45А,улица Дзержинского,680000,48.4761010,135.0670518
15,улица Муравьёва-Амурского,680000,48.4755894,135.0620326
83,улица Калинина,680028,48.4770984,135.0585638
11,улица Муравьёва-Амурского,680000,48.4747420,135.0604627
76,улица Фрунзе,680000,48.4774864,135.0615780
12,Амурский бульвар,680028,48.4769084,135.0578511
11,улица Шевченко,680000,48.4732993,135.0507780
6,Амурский бульвар,680028,48.4760892,135.0561456
7,улица Шевченко,680000,48.4729541,135.0525547
48,улица Истомина,680000,48.4752020,135.0601032
9,улица Шевченко,680000,48.4731181,135.0515635
2,Амурский бульвар,680028,48.4747266,135.0514663
3,Амурский бульвар,680028,48.4765175,135.0536613
22,улица Шевченко,680000,48.4736259,135.0520755
10,Амурский бульвар,680028,48.4764338,135.0568743
28,улица Шевченко,680000,48.4740523,135.0507220
3,улица Запарина,680000,48.4671929,135.0739722
19,улица Олега Кошевого,680007,48.4594188,135.0925212
32,Волочаевская улица,680030,48.4643734,135.0939727
14,Волочаевская улица,680007,48.4610286,135.0981162
5,Волочаевская улица,680007,48.4588053,135.0982089
16,улица Ватутина,680007,48.4599935,135.0943263
4,Волочаевская улица,680007,48.4587947,135.0998911
7,Волочаевская улица,680007,48.4594307,135.0968451
36А,улица Шевчука,680007,48.4563555,135.0943794
15,Волочаевская улица,680007,48.4612906,135.0957573
28,Волочаевская улица,680007,48.4632577,135.0954906
48,Волочаевская улица,680030,48.4658420,135.0917399
9А,Волочаевская улица,680007,48.4589526,135.0969212
6Б,Волочаевская улица,680007,48.4597401,135.0992246
14 к2,Трубный переулок,680007,48.4594687,135.0955655
8,Трубный переулок,680007,48.4595324,135.0933076
42,улица Шевчука,680007,48.4572173,135.0933106
2А,Волочаевская улица,680007,48.4585675,135.1006011
10,Трубный переулок,680007,48.4597350,135.0938056
13,Трубный переулок,680007,48.4607556,135.0940367
22,Волочаевская улица,680007,48.4627149,135.0962216
7,Оборонная улица,680007,48.4556891,135.0946244
9,улица Олега Кошевого,680007,48.4584986,135.0935725
8А,улица Ленина,680000,48.4671565,135.0676006
2,Волочаевская улица,680007,48.4583057,135.1001462
15,Трубный переулок,680007,48.4609521,135.0943944
44,Волочаевская улица,680030,48.4653941,135.0923598
52,Волочаевская улица,680030,48.4661775,135.0912479
10,Волочаевская улица,680007,48.4604977,135.0985530
20,Волочаевская улица,680007,48.4626369,135.0967423
7,улица Олега Кошевого,680007,48.4578540,135.0946682
3,Облачный переулок,680030,48.4674353,135.0967669
7А,переулок Дьяченко,680000,48.4745495,135.0539668
9А,Оборонная улица,680007,48.4561558,135.0950043
11,Оборонная улица,680007,48.4562217,135.0957877
10,улица Олега Кошевого,680007,48.4586409,135.0947840
7А,улица Олега Кошевого,680007,48.4575739,135.0941918
5,улица Запарина,680000,48.4676536,135.0737089
1,Облачный переулок,680030,48.4664560,135.0969899
13,Волочаевская улица,680007,48.4604736,135.0967695
5,улица Олега Кошевого,680007,48.4573470,135.0954034
9,Оборонная улица,680007,48.4559329,135.0952238
36,Волочаевская улица,680030,48.4647490,135.0933040
1,улица Олега Кошевого,680007,48.4565753,135.0963285
6,улица Ленина,680000,48.4672192,135.0671491
9Б,улица Олега Кошевого,680007,48.4579713,135.0924489
40,Волочаевская улица,680030,48.4650292,135.0929130
6,Волочаевская улица,680007,48.4593777,135.0995161
3А,улица Олега Кошевого,680007,48.4568101,135.0953028
9А,улица Олега Кошевого,680007,48.4581874,135.0930752
16,Оборонная улица,680007,48.4562859,135.0967733
30А,улица Шевчука,680007,48.4545025,135.0968028
28А,улица Шевчука,680007,48.4545336,135.0960812
8,Оборонная улица,680007,48.4553446,135.0950717
12,Оборонная улица,680007,48.4558746,135.0959785
10,Оборонная улица,680007,48.4556637,135.0955717
8Б,Оборонная улица,680007,48.4552763,135.0959832
18,Оборонная улица,680007,48.4564910,135.0971804
2 кВ,улица Кубяка,680045,48.4424274,135.1055205
46,Пионерская улица,680045,48.4413340,135.1040432
207,Краснореченская улица,680007,48.4497995,135.1073023
50,Пионерская улица,680007,48.4435912,135.1027363
203,Краснореченская улица,680007,48.4486450,135.1086454
197,Краснореченская улица,680007,48.4469630,135.1099367
7,улица Кубяка,680007,48.4455809,135.1081432
11,улица Кубяка,680007,48.4460605,135.1094162
2А,Шимановская улица,680007,48.4468429,135.1085230
50,Пионерская улица,680007,48.4440991,135.1021654
201,Краснореченская улица,680007,48.4480501,135.1091651
201А,Краснореченская улица,680007,48.4476674,135.1089227
199,Краснореченская улица,680007,48.4474016,135.1094743
9,улица Кубяка,680007,48.4458282,135.1087686
48,Пионерская улица,680023,48.4423150,135.1032229
205,Краснореченская улица,680007,48.4492343,135.1080578
17,улица Кубяка,680007,48.4463805,135.1102308
14,улица Кубяка,680045,48.4444986,135.1073256
22,улица Кубяка,680045,48.4454730,135.1095983
42Б,Пионерская улица,680023,48.4405698,135.1043335
42,Пионерская улица,680023,48.4398978,135.1047756
179А,Краснореченская улица,680023,48.4396086,135.1098228
18,улица Кубяка,680045,48.4449563,135.1085580
177,Краснореченская улица,680023,48.4405253,135.1111584
20,улица Кубяка,680045,48.4452186,135.1091532
181,Краснореченская улица,680023,48.4418561,135.1102355
173,Краснореченская улица,680023,48.4395368,135.1089941
177Б,Краснореченская улица,680023,48.4404469,135.1102508
10,улица Кубяка,680045,48.4438816,135.1060660
8,улица Кубяка,680045,48.4436700,135.1055274
40,Пионерская улица,680023,48.4389118,135.1056003
10А,улица Кубяка,680045,48.4445172,135.1067490
177А,Краснореченская улица,680023,48.4407417,135.1105311
2А,Байкальский переулок,680023,48.4393388,135.1071678
183,Краснореченская улица,680023,48.4426522,135.1109885
171,Краснореченская улица,680023,48.4394552,135.1081827
179,Краснореченская улица,680023,48.4413757,135.1111838
6,улица Кубяка,680045,48.4434303,135.1048963
116,Краснореченская улица,680045,48.4479088,135.1104679
112,Краснореченская улица,680045,48.4464033,135.1120906
114А,Краснореченская улица,680045,48.4473883,135.1118735
114,Краснореченская улица,680045,48.4471039,135.1112038
175А,Краснореченская улица,680023,48.4396902,135.1106052
122,Краснореченская улица,680045,48.4518781,135.1073048
187А,Краснореченская улица,680023,48.4434402,135.1073008
78,Краснореченская улица,680006,48.4125795,135.1067225
80А,Краснореченская улица,680006,48.4130019,135.1074434
82А,Краснореченская улица,680006,48.4132748,135.1075568
86,Краснореченская улица,680006,48.4142078,135.1075301
84,Краснореченская улица,680006,48.4138693,135.1072487
80,Краснореченская улица,680006,48.4130081,135.1068856
82,Краснореченская улица,680006,48.4134420,135.1070636
76,Краснореченская улица,680006,48.4122164,135.1067394
129,Краснореченская улица,680006,48.4152660,135.1066779
133,Краснореченская улица,680006,48.4159485,135.1069639
34,улица Аксёнова,680015,48.4060590,135.1228589
8,Ургальская улица,680015,48.4063106,135.1127285
47,Белорусская улица,680015,48.4048732,135.1233664
4,улица Халтурина,680015,48.4023010,135.1216639
2,улица Халтурина,680015,48.4025619,135.1231128
36,улица Аксёнова,680015,48.4058261,135.1234900
25,Архангельская улица,680015,48.4038577,135.1208974
49,Белорусская улица,680015,48.4052411,135.1235184
50,Архангельская улица,680015,48.4044006,135.1226135
2Б,улица Халтурина,680015,48.4029367,135.1224206
48А,Архангельская улица,680015,48.4031989,135.1230924
41,Белорусская улица,680015,48.4036266,135.1241610
58,Белорусская улица,680015,48.4056678,135.1240667
74Е,Краснореченская улица,680006,48.4089228,135.1054114
93А,Краснореченская улица,680003,48.4052237,135.1017635
127А,Краснореченская улица,680006,48.4148119,135.1059160
5,Ангарская улица,680006,48.4212864,135.1068230
143,Краснореченская улица,680006,48.4214441,135.1090809
119,Краснореченская улица,680006,48.4129110,135.1056507
6,Ургальская улица,680015,48.4066718,135.1110173
2Е,Индустриальная улица,680006,48.4236625,135.1085574
117,Краснореченская улица,680006,48.4122653,135.1056506
107А,Краснореченская улица,680006,48.4090528,135.1036893
2Д,Индустриальная улица,680006,48.4232665,135.1084642
141,Краснореченская улица,680006,48.4207986,135.1088412
117А,Краснореченская улица,680006,48.4121547,135.1041765
101,Краснореченская улица,680006,48.4080953,135.1040105
3,Ангарская улица,680006,48.4206525,135.1071135
5Б,Ангарская улица,680006,48.4212934,135.1060842
70,Краснореченская улица,680003,48.4053640,135.1040759
145,Краснореченская улица,680006,48.4222551,135.1086434
74В,Краснореченская улица,680006,48.4098271,135.1057791
74,Краснореченская улица,680006,48.4113859,135.1067419
7,Ангарская улица,680006,48.4214799,135.1073416
93,Краснореченская улица,680003,48.4058421,135.1017329
68,Краснореченская улица,680003,48.4049544,135.1039045
2В,Индустриальная улица,680006,48.4230959,135.1068196
97А,Краснореченская улица,680003,48.4068606,135.1029894
131А,Краснореченская улица,680006,48.4156571,135.1064043
5А,Ангарская улица,680006,48.4207208,135.1063113
109,Краснореченская улица,680006,48.4103140,135.1047721
103А,Краснореченская улица,680045,48.4084107,135.1033973
113А,Краснореченская улица,680006,48.4116290,135.1041488
103,Краснореченская улица,680045,48.4086140,135.1040110
72,Краснореченская улица,680003,48.4058035,135.1042680
107,Краснореченская улица,680006,48.4095136,135.1044082
62 с1,Краснореченская улица,680003,48.4030338,135.1033616
66,Краснореченская улица,680003,48.4044738,135.1037543
31,улица Ворошилова,680051,48.3928240,135.1111525
35,улица Ворошилова,680051,48.3941417,135.1116763
43,Краснореченская улица,680003,48.3903536,135.0955811
43А,Краснореченская улица,680003,48.3898242,135.0959754
45,Краснореченская улица,680003,48.3905063,135.0962018
6,улица Радищева,680007,48.4479977,135.1018527
4,Оборонная улица,680007,48.4547772,135.0939603
2,Оборонная улица,680007,48.4545477,135.0934629
6,Конечный переулок,680000,48.4644518,135.0745097
2,Конечный переулок,680000,48.4642790,135.0739329
15,Кавказская улица,680000,48.4642058,135.0657107
4,Конечный переулок,680000,48.4640819,135.0740546
87,улица Запарина,680000,48.4785182,135.0618417
153,Тихоокеанская улица,680042,48.5256111,135.0484670
165А,Краснореченская улица,680023,48.4337715,135.1095124
35/3,Кавказская улица,680000,48.4652951,135.0629681
35/1,Кавказская улица,680000,48.4650089,135.0633361
10,Краснореченская улица,680001,48.3769017,135.0938900
30,Краснореченская улица,680001,48.3808721,135.0956971
12,Краснореченская улица,680001,48.3773331,135.0940863
14,Монтажная улица,680001,48.3745292,135.0953187
24,Краснореченская улица,680001,48.3796161,135.0950828
23А,Краснореченская улица,680001,48.3812486,135.0945411
17,Краснореченская улица,680001,48.3788955,135.0937371
18,Краснореченская улица,680001,48.3785101,135.0945798
22,Краснореченская улица,680001,48.3791678,135.0953253
23,Краснореченская улица,680001,48.3808664,135.0947774
7,Монтажный переулок,680001,48.3753652,135.0941374
14,Краснореченская улица,680001,48.3776483,135.0942128
1,Монтажный переулок,680001,48.3743116,135.0938311
19,Краснореченская улица,680001,48.3795877,135.0932105
15,Краснореченская улица,680001,48.3782743,135.0934672
20,Монтажная улица,680001,48.3756829,135.0956268
28,Краснореченская улица,680001,48.3802255,135.0957972
11,Краснореченская улица,680001,48.3770465,135.0927385
16,Краснореченская улица,680001,48.3780009,135.0948223
17А,Краснореченская улица,680001,48.3792507,135.0928614
54Б,Краснореченская улица,680003,48.4003673,135.1021343
18,Монтажная улица,680001,48.3752084,135.0954957
21,Краснореченская улица,680001,48.3800629,135.0941051
5,Монтажный переулок,680001,48.3749834,135.0940122
13А,Краснореченская улица,680001,48.3779729,135.0926208
6,Краснореченская улица,680001,48.3754173,135.0933395
13,Краснореченская улица,680001,48.3776395,135.0931642
12,Строительная улица,680001,48.3758739,135.0949956
50,Краснореченская улица,680003,48.3980306,135.1018785
16,Монтажная улица,680001,48.3748340,135.0954105
20,Краснореченская улица,680001,48.3788108,135.0947027
56,Краснореченская улица,680003,48.4007193,135.1028049
8,Краснореченская улица,680001,48.3761506,135.0935456
8,Строительная улица,680001,48.3763097,135.0941588
3,Монтажный переулок,680001,48.3747252,135.0939228
26,Краснореченская улица,680001,48.3799122,135.0952335
52,Белорусская улица,680015,48.4037419,135.1248078
30,Вологодская улица,680015,48.4038676,135.1266205
32,Вологодская улица,680015,48.4046082,135.1264058
53,Вологодская улица,680015,48.4050260,135.1255867
52А,Белорусская улица,680015,48.4037403,135.1253592
34,Вологодская улица,680015,48.4053108,135.1260513
51,Вологодская улица,680015,48.4047480,135.1256894
47,Вологодская улица,680015,48.4039408,135.1258563
54,Белорусская улица,680015,48.4045093,135.1243435
86,улица Джамбула,680011,48.4962376,135.0475064
49,Приморская улица,680014,48.4622749,135.1221458
15А с1,улица Шкотова,680014,48.4697095,135.1292206
14,Ладожская улица,680007,48.4594826,135.0913786
10А,Пионерская улица,680007,48.4588303,135.0896972
1,улица Запарина,680020,48.4658209,135.0740659
76,Облачный переулок,680030,48.4692599,135.0979309
72,Облачный переулок,680030,48.4703803,135.0973384
64,Облачный переулок,680030,48.4712941,135.0959995
78,Облачный переулок,680030,48.4694350,135.0968788
70,Облачный переулок,680030,48.4700335,135.0968719
64А,Облачный переулок,680030,48.4717704,135.0958324
74,Облачный переулок,680030,48.4705296,135.0979084
68,Облачный переулок,680030,48.4697714,135.0963445
64,Облачный переулок,680030,48.4707602,135.0959730
5,Картографический переулок,680030,48.4664544,135.0936484
6,Казарменный переулок,680030,48.4678095,135.0916717
46,Волочаевская улица,680030,48.4659689,135.0925831
7,Картографический переулок,680030,48.4669050,135.0929806
5,улица Павловича,680030,48.4719989,135.0878536
9,Картографический переулок,680030,48.4673453,135.0923261
4,Казарменный переулок,680030,48.4672717,135.0911031
38,Волочаевская улица,680030,48.4651626,135.0935233
9,Волочаевская улица,680007,48.4597134,135.0973647
11,Волочаевская улица,680007,48.4600059,135.0969086
8,Монтажная улица,680001,48.3733239,135.0950802
1Б,Монтажная улица,680001,48.3734752,135.0942270
10,Монтажная улица,680001,48.3737266,135.0950625
8А,Монтажная улица,680001,48.3733806,135.0954676
12,Монтажная улица,680001,48.3742039,135.0951859
58А,Краснореченская улица,680003,48.4014607,135.1034004
58,Краснореченская улица,680003,48.4015323,135.1026124
57,улица Дзержинского,680000,48.4781268,135.0650287
163А,Волочаевская улица,680000,48.4802039,135.0639084
159,Волочаевская улица,680000,48.4794306,135.0657180
65А,улица Тургенева,680000,48.4749717,135.0539610
4,переулок Арсеньева,680000,48.4743135,135.0523157
65,улица Тургенева,680000,48.4747725,135.0542038
22А,улица Шевченко,680000,48.4738785,135.0526677
7,переулок Дьяченко,680000,48.4743731,135.0537716
3А,переулок Дьяченко,680000,48.4741035,135.0531701
3,переулок Дьяченко,680000,48.4739041,135.0532837
5,переулок Дьяченко,680000,48.4742073,135.0536054
35,улица Дзержинского,680000,48.4752640,135.0681497
59Б,улица Тургенева,680000,48.4712001,135.0584042
69,Комсомольская улица,680000,48.4724572,135.0601119
45,улица Дзержинского,680000,48.4764300,135.0673008
72,улица Запарина,680000,48.4758609,135.0663493
36А,Студенческий переулок,680013,48.4861622,135.0825979
1А,улица Дзержинского,680000,48.4715466,135.0734428
6,Камская улица,680022,48.5037746,135.0702614
1,Госпитальный переулок,680028,48.4817001,135.0510535
7,Пермская улица,680014,48.4808125,135.1283705
59/1,улица Шелеста,680022,48.5156781,135.0612451
8Б,Больничная улица,680000,48.5118770,135.0686164
54,Волочаевская улица,680030,48.4665305,135.0907849
2,Казарменный переулок,680030,48.4668095,135.0903458
14Б,Засыпной переулок,680013,48.4757443,135.1042292
10,Засыпной переулок,680013,48.4756579,135.1028883
14,Засыпной переулок,680013,48.4756976,135.1050085
8А,Засыпной переулок,680013,48.4749074,135.1029722
8Б,Засыпной переулок,680013,48.4752672,135.1029798
15,Засыпной переулок,680013,48.4762341,135.1034866
14Г,Засыпной переулок,680013,48.4754021,135.1043319
8,Засыпной переулок,680013,48.4751306,135.1020932
14В,Засыпной переулок,680013,48.4757500,135.1053413
1Г,улица Павловича,680030,48.4709944,135.0899926
10А,Засыпной переулок,680013,48.4756931,135.1035567
6,Засыпной переулок,680013,48.4755771,135.1021563
15А,Засыпной переулок,680013,48.4762853,135.1042459
11,Засыпной переулок,680013,48.4761730,135.1026451
54А,Волочаевская улица,680020,48.4668169,135.0914572
3,Цимлянская улица,680020,48.4655799,135.0941264
7,Засыпной переулок,680013,48.4761979,135.1019021
1,Служебная улица,680013,48.4762197,135.1010197
111Е,Краснореченская улица,680006,48.4105991,135.1031463
58Б,Краснореченская улица,680003,48.4019692,135.1036421
2А,Большая улица,680031,48.4979235,135.0990996
1,Брестская улица,680011,48.4902107,135.0416891
12,улица Гамарника,680030,48.4699103,135.0773048
6,улица Гамарника,680020,48.4694454,135.0758674
8,улица Гамарника,680020,48.4695674,135.0765621
6А,улица Гамарника,680020,48.4690693,135.0763553
18,Амурский бульвар,680028,48.4786123,135.0609903
82А,улица Морозова Павла Леонтьевича,680006,48.4267220,135.1010952
28,Вологодская улица,680015,48.4033908,135.1269236
2А,Восточное шоссе,680014,48.4797557,135.1540787
12,Батарейный переулок,680013,48.4785615,135.0979697
7А,Картографический переулок,680030,48.4671071,135.0932690
18А,улица Постышева,680030,48.4808098,135.0843397
2,Трубный переулок,680007,48.4587262,135.0913514
17,Трубный переулок,680007,48.4617233,135.0943276
7,Молдавский переулок,680007,48.4640110,135.0898305
4А,Краснореченская улица,680001,48.3752150,135.0929246
44,Краснореченская улица,680003,48.3960196,135.1004793
62,Краснореченская улица,680003,48.4028939,135.1040521
87А,Краснореченская улица,680003,48.4042577,135.1017299
106А,Краснореченская улица,680045,48.4455292,135.1131278
102А,Краснореченская улица,680045,48.4443682,135.1127169
106,Краснореченская улица,680045,48.4453115,135.1124426
87,Краснореченская улица,680003,48.4045368,135.1012317
104,Краснореченская улица,680045,48.4448103,135.1122314
137,Краснореченская улица,680006,48.4170174,135.1068120
139,Краснореченская улица,680006,48.4174647,135.1075910
124А,Краснореченская улица,680045,48.4523449,135.1059472
9,Служебная улица,680013,48.4773640,135.0997440
2,улица Сысоева,680023,48.4331234,135.1039366
87,улица Морозова Павла Леонтьевича,680023,48.4336723,135.1045275
4,улица Сысоева,680023,48.4336633,135.1033873
8Б,улица Вахова А.А.,680023,48.4360710,135.1011151
8Д,улица Вахова А.А.,680023,48.4340281,135.1007589
8А,улица Вахова А.А.,680023,48.4360767,135.1002638
96Г,улица Морозова Павла Леонтьевича,680023,48.4322556,135.1054676
92,улица Морозова Павла Леонтьевича,680023,48.4310320,135.1048407
94В,улица Морозова Павла Леонтьевича,680023,48.4316403,135.1051660
8В,улица Вахова А.А.,680023,48.4348586,135.1004826
7Б,улица Вахова А.А.,680023,48.4385104,135.0997476
8,улица Вахова А.А.,680023,48.4370089,135.1002805
8Г,улица Вахова А.А.,680023,48.4348392,135.1013588
7,улица Вахова А.А.,680023,48.4377137,135.1000498
15,улица Сысоева,680023,48.4397248,135.0993447
13,Доступный переулок,680020,48.4661253,135.0749217
12,улица Сысоева,680023,48.4357938,135.1034756
8,улица Сысоева,680023,48.4347812,135.1033787
5А,Монтажная улица,680001,48.3745428,135.0946062
2,Монтажная улица,680001,48.3724190,135.0953230
1А,Монтажная улица,680001,48.3728629,135.0947321
4,Монтажная улица,680001,48.3727202,135.0952298
8Б,Монтажная улица,680001,48.3734741,135.0960582
11,улица Менделеева,680001,48.3719899,135.0972982
3А,Монтажная улица,680001,48.3738563,135.0944080
6,Монтажная улица,680001,48.3730355,135.0951450
10А,Монтажная улица,680001,48.3737594,135.0959323
176,Волочаевская улица,680000,48.4817060,135.0642060
32,Амурский бульвар,680028,48.4820764,135.0645273
133,Волочаевская улица,680030,48.4745125,135.0723997
153,Волочаевская улица,680000,48.4768550,135.0693248
17,Волочаевская улица,680007,48.4636914,135.0930201
13,улица Муравьёва-Амурского,680000,48.4750081,135.0611021
25,улица Муравьёва-Амурского,680000,48.4783557,135.0663054
17,улица Муравьёва-Амурского,680000,48.4759245,135.0626177
36,улица Муравьёва-Амурского,680000,48.4769478,135.0661165
38,улица Муравьёва-Амурского,680000,48.4770650,135.0664400
34,улица Муравьёва-Амурского,680000,48.4768023,135.0657448
71,улица Калинина,680000,48.4753638,135.0611139
61,улица Фрунзе,680000,48.4761987,135.0626036
2А,Ленинградская улица,680013,48.4802407,135.1031072
8А,улица Рабочий Городок,680013,48.4820850,135.1000447
10А,улица Рабочий Городок,680013,48.4821108,135.1008786
14,улица Рабочий Городок,680013,48.4825588,135.1018876
10,улица Рабочий Городок,680013,48.4827088,135.1007426
14,улица Рабочий Городок,680013,48.4832707,135.1017381
14А,улица Рабочий Городок,680013,48.4818614,135.1023586
4,Ленинградская улица,680013,48.4800191,135.1016641
2,Ленинградская улица,680013,48.4798582,135.1035394
6,Ленинградская улица,680013,48.4801813,135.1003516
43,улица Тургенева,680000,48.4679256,135.0634288
51,улица Тургенева,680000,48.4708003,135.0596072
5,Уссурийский бульвар,680000,48.4706724,135.0597777
27,улица Олега Кошевого,680007,48.4603433,135.0913294
139 к5,Краснореченская улица,680006,48.4183165,135.1061484
139 к6,Краснореченская улица,680006,48.4196290,135.1084465
139/1,Краснореченская улица,680006,48.4181995,135.1072358
139 к2,Краснореченская улица,680006,48.4191419,135.1076820
139 к4,Краснореченская улица,680006,48.4175592,135.1071063
90,Краснореченская улица,680006,48.4200198,135.1099018
90 к1,Краснореченская улица,680006,48.4193599,135.1098916
2,Ангарская улица,680006,48.4198957,135.1009929
2А,Ангарская улица,680006,48.4203208,135.1036871
7А,Ангарская улица,680006,48.4208858,135.1054290
9,Ангарская улица,680006,48.4209144,135.1045254
124,Волочаевская улица,680030,48.4751077,135.0735658
169В,Краснореченская улица,680023,48.4389668,135.1118993
169А,Краснореченская улица,680023,48.4398092,135.1115737
6,улица Шеронова,680020,48.4680805,135.0871527
8 к1,улица Шеронова,680030,48.4683010,135.0861580
8 к3,улица Шеронова,680030,48.4687763,135.0868711
30А,Матвеевское шоссе,680031,48.5277586,135.1713414
1,Амурский бульвар,680028,48.4761759,135.0513799
55,Амурский бульвар,680021,48.4927756,135.0699343
40,Амурский бульвар,680028,48.4848805,135.0663487
5/1,Уссурийский бульвар,680000,48.4703991,135.0592934
20,улица Шевченко,680000,48.4735534,135.0528354
2,улица Муравьёва-Амурского,680000,48.4716423,135.0569708
2,улица Шевченко,680000,48.4701797,135.0587121
55,улица Тургенева,680000,48.4709277,135.0587388
53А,Комсомольская улица,680000,48.4696924,135.0633221
30,улица Муравьёва-Амурского,680000,48.4762285,135.0646461
19,Амурский бульвар,680038,48.4814454,135.0616376
41,улица Дзержинского,680000,48.4757029,135.0681637
46,улица Дзержинского,680000,48.4785292,135.0656849
43,улица Дзержинского,680000,48.4757123,135.0674262
23,Фабричный переулок,680020,48.4665144,135.0776711
80А,улица Гамарника,680030,48.4771480,135.0896092
9,Амурский бульвар,680028,48.4785148,135.0581925
5,Амурский бульвар,680028,48.4772112,135.0552371
13,Амурский бульвар,680028,48.4794265,135.0596655
7,Амурский бульвар,680028,48.4778032,135.0565023
5В,Волочаевская улица,680007,48.4585237,135.0976739
21,Слободская улица,680030,48.4708433,135.0847666
23,Слободская улица,680030,48.4718067,135.0833566
44Б,улица Ленина,680014,48.4753403,135.0835609
8,улица Постышева,680030,48.4780822,135.0872232
25,Слободская улица,680030,48.4722020,135.0824095
80,Волочаевская улица,680020,48.4687420,135.0820716
82,Волочаевская улица,680030,48.4698147,135.0805491
3,улица Павловича,680030,48.4733535,135.0895824
1,улица Павловича,680030,48.4729783,135.0900725
7,улица Павловича,680030,48.4737230,135.0890689
1В/1,улица Павловича,680030,48.4710547,135.0928428
83,Волочаевская улица,680030,48.4680735,135.0816483
108,Волочаевская улица,680030,48.4707983,135.0789827
106,Волочаевская улица,680030,48.4705794,135.0793245
28,улица Ленина,680020,48.4714829,135.0760978
113,Волочаевская улица,680030,48.4704923,135.0781406
14А,Засыпной переулок,680013,48.4751423,135.1055272
12А,Засыпной переулок,680013,48.4753649,135.1037583
13,улица Гайдара,680000,48.4860979,135.0717198
12,улица Льва Толстого,680000,48.4859386,135.0708545
147,улица Запарина,680011,48.4878221,135.0488845
16А,Тихоокеанская улица,680011,48.4894774,135.0420079
3,Корсаковский переулок,680013,48.4807741,135.1037545
5А,Корсаковский переулок,680013,48.4808851,135.1041272
5,Корсаковский переулок,680013,48.4808343,135.1039721
5,Воронежское шоссе,680042,48.5538665,135.0617954
5,Байкальский переулок,680023,48.4425239,135.1074459
48,Миномётная улица,680042,48.5228057,135.0600084
29,Профсоюзная улица,680042,48.5232231,135.0601006
84А,улица Морозова Павла Леонтьевича,680023,48.4282704,135.1018578
20,Промышленная улица,680009,48.4960139,135.1058526
3А/1,улица Калинина,680000,48.4651304,135.0720354
14,улица Калинина,680000,48.4690561,135.0717624
3А,улица Калинина,680000,48.4654405,135.0718124
149,Краснореченская улица,680023,48.4243867,135.1093798
26А,улица Морозова Павла Леонтьевича,680006,48.4266260,135.1016135
8 к2,улица Шеронова,680030,48.4685861,135.0864352
4,улица Гамарника,680020,48.4687445,135.0755387
1А,Шатурский переулок,680013,48.4805087,135.1046128
3,Шатурский переулок,680013,48.4805453,135.1054451
1,Шатурский переулок,680013,48.4800420,135.1049273
2Б,Проточная улица,680006,48.4247632,135.0981157
2А,Индустриальная улица,680006,48.4238517,135.1075988
30,Демократический переулок,680023,48.4341353,135.1081532
82А,улица Гамарника,680030,48.4772164,135.0904016
2Г,Индустриальная улица,680006,48.4233197,135.1079682
4,Хуторская улица,68000,48.5306874,135.1103656
1В,Индустриальная улица,680006,48.4246298,135.1062334
1,Нижний переулок,680018,48.5868282,135.0544962
2,Нижний переулок,680018,48.5871462,135.0537005
3,Нижний переулок,680018,48.5866850,135.0539773
4,Чукотский переулок,680042,48.5248718,135.0535566
100,Бородинская улица,680042,48.5237572,135.0531868
88,Бородинская улица,680042,48.5240100,135.0549165
102,Бородинская улица,680042,48.5236149,135.0528516
92,Бородинская улица,680042,48.5239107,135.0543531
90,Бородинская улица,680042,48.5239728,135.0546475
97,Бородинская улица,680042,48.5231850,135.0530160
104,Одесская улица,680042,48.5228106,135.0527335
25,улица Суворова,680051,48.3961194,135.1059316
26,улица Тургенева,680000,48.4668343,135.0675379
26А,улица Тургенева,680000,48.4666074,135.0687386
3,Бийская улица,680006,48.4188890,135.1031901
25А,улица Суворова,680051,48.3965599,135.1078447
90 к3,Краснореченская улица,680006,48.4149295,135.1087304
20А,улица Чехова,680022,48.5069061,135.0709605
193,Краснореченская улица,680045,48.4458156,135.1103415
156,улица Запарина,680011,48.4898218,135.0477147
23,улица Шевчука,680007,48.4575505,135.0913391
27,Архангельская улица,680015,48.4043331,135.1212463
111,Краснореченская улица,680006,48.4111192,135.1043954
111Ж,Краснореченская улица,680006,48.4118257,135.1015530
111О,Краснореченская улица,680006,48.4108885,135.1021177
111В,Краснореченская улица,680006,48.4112712,135.1028351
99А,улица Карла Маркса,680009,48.5001405,135.0998206
99Б,улица Карла Маркса,680009,48.5004117,135.0991456
13/1,Воронежское шоссе,680033,48.5614153,135.0579206
13/2,Воронежское шоссе,680033,48.5613400,135.0590346
13/4,Воронежское шоссе,680033,48.5621452,135.0582339
13/3,Воронежское шоссе,680033,48.5620987,135.0590501
45,Александровская улица,680033,48.5539360,135.0609282
47,Александровская улица,680033,48.5548259,135.0606779
56,Белорусская улица,680015,48.4052568,135.1240628
2,улица Вахова А.А.,680012,48.4370070,135.1040603
118,улица Морозова Павла Леонтьевича,680023,48.4381870,135.1059702
22,улица Шеронова,680030,48.4711931,135.0817263
39 к2,Санаторная улица,680000,48.5275680,135.0293885
27А,Хабаровская улица,680009,48.4960580,135.1011459
1,Волочаевская улица,680007,48.4568999,135.0989068
69,улица Тургенева,680000,48.4753392,135.0534265
14,улица Демьяна Бедного,680009,48.5055468,135.0994990
5,Промышленная улица,680000,48.4876900,135.1145674
41,Александровская улица,680033,48.5521343,135.0614121
43,Александровская улица,680033,48.5530396,135.0611729
51,Александровская улица,680033,48.5566481,135.0601351
49,Александровская улица,680033,48.5556804,135.0605069
42А,улица Шевчука,680007,48.4574886,135.0928543
118,улица Морозова Павла Леонтьевича,680023,48.4382133,135.1064073
2 кГ,улица Кубяка,680045,48.4420202,135.1057463
2 кБ,улица Кубяка,680045,48.4421162,135.1042746
2 кА,улица Кубяка,680045,48.4421995,135.1048316
2,улица Кубяка,680045,48.4425216,135.1044414
29,улица Шевчука,680007,48.4584639,135.0899002
13,Гражданский переулок,680000,48.4648724,135.0736862
18,Доступный переулок,680020,48.4666159,135.0749219
11/1,улица Запарина,680000,48.4682760,135.0733398
5,улица Калинина,680000,48.4676478,135.0703650
5А,улица Калинина,680000,48.4674852,135.0706332
28,Комсомольская улица,680000,48.4671012,135.0698320
5А/1,улица Калинина,680000,48.4672598,135.0709911
5А/1,улица Калинина,680000,48.4670179,135.0712270
30/2,Комсомольская улица,680000,48.4672920,135.0692470
30,Комсомольская улица,680000,48.4674890,135.0692526
18А,улица Постышева,680030,48.4809507,135.0844981
18А,улица Постышева,680030,48.4807296,135.0841168
18А,улица Постышева,680030,48.4808722,135.0845893
18А,улица Постышева,680030,48.4806441,135.0841985
41,улица Истомина,680000,48.4730001,135.0611286
49,улица Фрунзе,680000,48.4745583,135.0648116
49,улица Фрунзе,680000,48.4743027,135.0643681
6А/1,улица Вахова А.А.,680012,48.4371339,135.1021253
111Д,Краснореченская улица,680006,48.4107736,135.1025710
2А,улица Менделеева,680001,48.3707176,135.0982984
75Б,Комсомольская улица,680000,48.4728745,135.0595335
10,улица Муравьёва-Амурского,680000,48.4727407,135.0588204
73,Комсомольская улица,680000,48.4723661,135.0591983
73А,Комсомольская улица,680000,48.4725756,135.0593755
78,Комсомольская улица,680000,48.4727464,135.0606774
41,улица Истомина,680000,48.4731025,135.0617290
39А,улица Истомина,680000,48.4727664,135.0620311
74,Комсомольская улица,680000,48.4725088,135.0609496
51А,улица Истомина,680000,48.4749767,135.0587373
10,Волочаевский переулок,680030,48.4698726,135.0784592
11Б,переулок Дзержинского,680020,48.4671284,135.0795107
11А,переулок Дзержинского,680020,48.4673721,135.0792573
39А,Фабричная улица,680020,48.4675385,135.0780247
23А,Фабричный переулок,680020,48.4662017,135.0777288
2В,улица Запарина,680020,48.4677121,135.0745197
2Г,улица Запарина,680020,48.4669413,135.0746804
6,Гражданский переулок,680020,48.4646725,135.0765007
4,Гражданский переулок,680020,48.4643882,135.0765811
1Б,улица Блюхера,680030,48.4646375,135.0804744
73А,Волочаевская улица,680030,48.4663522,135.0844688
18А,улица Блюхера,680030,48.4660255,135.0840980
14,Батарейный переулок,680013,48.4786711,135.0987749
14Д,Засыпной переулок,680013,48.4753714,135.1049246
15,Инский переулок,680007,48.4458787,135.1013240
6В,улица Радищева,680007,48.4483672,135.1041388
2,Трубный переулок,680007,48.4585094,135.0917511
112А,Краснореченская улица,680045,48.4471403,135.1125181
13,Трамвайный переулок,680023,48.4321958,135.1170996
15,Трамвайная улица,680023,48.4326325,135.1170485
23В,Строительная улица,680001,48.3757583,135.1042772
101/1,улица Карла Маркса,680031,48.5009783,135.1009770
101/2,улица Карла Маркса,680031,48.5016647,135.1016727
5,Цветная улица,680009,48.5310619,135.1187867
2,Трубный переулок,680007,48.4589626,135.0919087
16,Восточное шоссе,680014,48.4776259,135.1267205
33,Вершинная улица,680000,48.5338269,135.1147816
59,улица Шелеста,680022,48.5155557,135.0608108
49,Вологодская улица,680015,48.4043982,135.1257771
163,Волочаевская улица,680000,48.4808336,135.0636380
27,Хабаровская улица,680009,48.4954290,135.1017830
25,Хабаровская улица,680009,48.4951445,135.1025032
31,Совхозная улица,680022,48.5289570,135.0805799
111,Краснореченская улица,680006,48.4106056,135.1040997
52,улица Морозова Павла Леонтьевича,680003,48.4077165,135.0996750
51/1,улица Суворова,680051,48.3924652,135.1125321
3А,Донской переулок,680030,48.4779564,135.0914409
99,Бородинская улица,680042,48.5232063,135.0525856
95,Бородинская улица,680042,48.5232313,135.0532853
96,Бородинская улица,680042,48.5238155,135.0536912
94,Бородинская улица,680042,48.5238697,135.0539662
104,Бородинская улица,680042,48.5235605,135.0525759
98,Бородинская улица,680042,48.5238427,135.0534417
1А,Путевая улица,680045,48.4473210,135.1182308
55,Брестская улица,680011,48.4972448,135.0552131
60,улица Суворова,680051,48.3926525,135.1185001
62,улица Суворова,680051,48.3927920,135.1190769
5,улица Олега Кошевого,680007,48.4574656,135.0951151
25/1,улица Суворова,680051,48.3943190,135.1071905
30 с1,улица Панфиловцев,680051,48.3831387,135.1184645
38 с4,улица Малиновского,680051,48.3837444,135.1230839
86,улица Морозова Павла Леонтьевича,680023,48.4288890,135.1038603
30 с2,улица Панфиловцев,680051,48.3838131,135.1183385
30 с3,улица Панфиловцев,680051,48.3826019,135.1180774
6,Трудовой переулок,680052,48.4694779,135.1829374
4,Литовский переулок,680052,48.4685967,135.1826667
6,Литовский переулок,680052,48.4686043,135.1832236
24,Авиационная улица,680009,48.5012078,135.0885267
1,Правобережная улица,680000,48.5006919,135.0338618
54,Ленская улица,680014,48.4635459,135.1248668
29,Ленская улица,680014,48.4592811,135.1236861
63,Приморская улица,680014,48.4642818,135.1228736
78,Приморская улица,680014,48.4645763,135.1238230
10/1,Прогрессивная улица,680051,48.3863300,135.1040527
10,Прогрессивная улица,680051,48.3864428,135.1031524
55,улица Гастелло,680015,48.4018315,135.1133792
10А,Прогрессивная улица,680051,48.3861727,135.1049216
29Б,улица Ворошилова,680051,48.3913831,135.1110453
29/5,улица Ворошилова,680051,48.3912020,135.1111907
29Б/2,улица Ворошилова,680051,48.3914526,135.1112668
51,улица Суворова,680051,48.3928803,135.1128107
5Г,улица Ворошилова,680051,48.3811937,135.1101006
5,улица Ворошилова,680051,48.3807549,135.1108574
22,улица Панфиловцев,680051,48.3827836,135.1159485
22,улица Панфиловцев,680051,48.3828101,135.1160327
39,Литовский переулок,680052,48.4709714,135.1870488
4/1,Слободская улица,680030,48.4713670,135.0852436
69,улица Гастелло,680015,48.4032337,135.1118292
13,Осенняя улица,680018,48.5675598,135.0492840
148В,проспект 60-летия Октября,680022,48.4771166,135.1149161
37Б,Ленинградская улица,680017,48.4895623,135.0851939
31Б,Мельничный переулок,680041,48.3746628,135.0394940
58,Ленская улица,680014,48.4639145,135.1248812
73,улица Гастелло,680015,48.4036280,135.1114283
3/1,Приморская улица,680014,48.4571430,135.1218151
5,Приморская улица,680014,48.4573167,135.1218331
69,Приморская улица,680014,48.4649398,135.1229847
1,Волочаевская улица,680007,48.4570265,135.0992453
53,Приморская улица,680014,48.4633479,135.1227310
137А,проспект 60-летия Октября,680014,48.4814592,135.1087496
137А к1,проспект 60-летия Октября,680014,48.4811798,135.1086555
25,Ленская улица,680014,48.4588695,135.1234801
2,Приморская улица,680014,48.4565588,135.1224630
28 литГ9,Ленинградская улица,680013,48.4832965,135.0952707
4,Перспективная улица,680018,48.5694875,135.0488272
47,Приморская улица,680014,48.4617575,135.1225404
46,Приморская улица,680014,48.4611744,135.1231123
1,Воронежское шоссе,680022,48.5513150,135.0627192
9,улица Пархоменко,680018,48.5687079,135.0499063
51,улица Гастелло,680015,48.4014520,135.1137879
45,Ленская улица,680014,48.4611570,135.1240107
5,улица Пархоменко,680018,48.5683353,135.0500240
35,Ленская улица,680014,48.4600890,135.1238360
2А,Пионерская улица,680006,48.4086557,135.0990283
20,Ленская улица,680014,48.4594638,135.1241336
15,улица Герцена,680003,48.3936256,135.0996396
80/1,улица Джамбула,680038,48.4958281,135.0483413
41,Рельефная улица,680009,48.5324267,135.1209136
44,улица Юности,680045,48.4607665,135.1156480
74,Приморская улица,680014,48.4643147,135.1235774
15,Осенняя улица,680018,48.5673465,135.0495345
37,Ленская улица,680014,48.4602326,135.1238636
10,Перспективная улица,680018,48.5693080,135.0496658
1,улица Ворошилова,680051,48.3816156,135.1111863
2В,Даурская улица,680509,48.3783923,135.1051553
30/1,улица Панфиловцев,680051,48.3828563,135.1198928
61,улица Гастелло,680015,48.4025288,135.1126630
19,улица Муравьёва-Амурского,680000,48.4766894,135.0635152
3,улица Пархоменко,680018,48.5681518,135.0500996
1,улица Пархоменко,680018,48.5678791,135.0500537
1А,Осенняя улица,680018,48.5677170,135.0502343
11,Осенняя улица,680018,48.5676942,135.0489946
7,улица Пархоменко,680018,48.5684928,135.0499820
11,улица Пархоменко,680018,48.5688374,135.0498556
13,улица Пархоменко,680018,48.5690481,135.0497878
8,Перспективная улица,680018,48.5692322,135.0493623
17,Приморская улица,680014,48.4585379,135.1219866
24,Приморская улица,680014,48.4587922,135.1227959
1А,Ленская улица,680014,48.4562186,135.1232098
3,Ленская улица,680014,48.4565338,135.1229391
5,Ленская улица,680014,48.4566897,135.1232658
4,Приморская улица,680014,48.4567162,135.1224420
6,Приморская улица,680014,48.4568918,135.1224735
8,Приморская улица,680014,48.4570927,135.1225184
10,Приморская улица,680014,48.4572792,135.1226260
12,Приморская улица,680014,48.4574360,135.1225279
11,Приморская улица,680014,48.4580185,135.1219481
15,Приморская улица,680014,48.4583819,135.1219751
18,Приморская улица,680014,48.4581111,135.1226307
16,Приморская улица,680014,48.4579346,135.1226087
2,Ленская улица,680014,48.4576322,135.1238408
6,Ленская улица,680014,48.4580356,135.1239159
19,Ленская улица,680014,48.4582428,135.1234817
10,Ленская улица,680014,48.4584242,135.1239804
8,Ленская улица,680014,48.4582192,135.1239354
15,Ленская улица,680014,48.4578688,135.1234723
26,Приморская улица,680014,48.4589730,135.1227630
18,Ленская улица,680014,48.4592482,135.1240937
32,Ленская улица,680014,48.4609145,135.1243604
30,Ленская улица,680014,48.4606000,135.1246326
41,Ленская улица,680014,48.4606669,135.1238735
43,Ленская улица,680014,48.4609198,135.1239124
33,Ленская улица,680014,48.4598565,135.1238924
22,Ленская улица,680014,48.4598651,135.1242019
24,Ленская улица,680014,48.4600360,135.1241971
22А,Ленская улица,680014,48.4598384,135.1245470
34,Приморская улица,680014,48.4599183,135.1232539
36,Приморская улица,680014,48.4601117,135.1230319
38,Приморская улица,680014,48.4602969,135.1229943
42,Приморская улица,680014,48.4606774,135.1230573
44,Приморская улица,680014,48.4609848,135.1230777
48,Приморская улица,680014,48.4613490,135.1231451
47А,Ленская улица,680014,48.4613319,135.1240070
34,Ленская улица,680014,48.4611645,135.1244119
38,Ленская улица,680014,48.4615005,135.1244366
36,Ленская улица,680014,48.4613077,135.1244481
38А,Ленская улица,680014,48.4617172,135.1244859
54,Приморская улица,680014,48.4620364,135.1232740
52,Приморская улица,680014,48.4617908,135.1231925
50,Приморская улица,680014,48.4615679,135.1231666
31,Ленская улица,680014,48.4595714,135.1237584
27,Ленская улица,680014,48.4590645,135.1236500
14,Ленская улица,680014,48.4589020,135.1240717
66,Приморская улица,680014,48.4633593,135.1234320
33,Приморская улица,680014,48.4603992,135.1221453
37,Приморская улица,680014,48.4607565,135.1223523
32,Приморская улица,680014,48.4595116,135.1228426
30,Приморская улица,680014,48.4593466,135.1228203
14,Приморская улица,680014,48.4577107,135.1225654
63,улица Ким Ю Чена,680000,48.4877814,135.0769792
24/1,улица Тургенева,680000,48.4657378,135.0675843
24,улица Тургенева,680000,48.4660753,135.0672030
76,улица Гастелло,680015,48.4045129,135.1116468
66,улица Гастелло,680015,48.4034695,135.1123792
68,улица Гастелло,680015,48.4038039,135.1121744
70,улица Гастелло,680015,48.4038882,135.1119497
72,улица Гастелло,680015,48.4040623,135.1116919
74,улица Гастелло,680015,48.4043714,135.1113831
41,улица Гастелло,680015,48.4007373,135.1145876
43,улица Гастелло,680015,48.4009037,135.1144049
45,улица Гастелло,680015,48.4010582,135.1141957
47А,улица Гастелло,680015,48.4010362,135.1137203
47,улица Гастелло,680015,48.4012795,135.1139950
53,улица Гастелло,680015,48.4016340,135.1135617
57,улица Гастелло,680015,48.4020267,135.1131624
59,улица Гастелло,680015,48.4022858,135.1129016
61А,улица Гастелло,680015,48.4023780,135.1122736
63,улица Гастелло,680015,48.4026562,135.1125012
65,улица Гастелло,680015,48.4028015,135.1121140
67,улица Гастелло,680015,48.4031061,135.1120094
71,улица Гастелло,680015,48.4034486,135.1116258
75,улица Гастелло,680015,48.4038643,135.1111879
77,улица Гастелло,680015,48.4040275,135.1109895
79,улица Гастелло,680015,48.4041342,135.1109613
81,улица Гастелло,680015,48.4041386,135.1103356
14А,улица Морозова Павла Леонтьевича,680000,48.4123433,135.1001013
3А к5,Луговая улица,680014,48.4795500,135.1299660
13,Ленская улица,680014,48.4576862,135.1234386
39,Ленская улица,680014,48.4604090,135.1238785
47Б,Ленская улица,680014,48.4615000,135.1240928
51,Ленская улица,680014,48.4622436,135.1241594
55,Ленская улица,680014,48.4626007,135.1242325
57,Ленская улица,680014,48.4628577,135.1242570
59,Ленская улица,680014,48.4630454,135.1243141
61,Ленская улица,680014,48.4633199,135.1243539
63,Ленская улица,680014,48.4635054,135.1243925
65,Ленская улица,680014,48.4637087,135.1244092
67,Ленская улица,680014,48.4639273,135.1243961
67А,Ленская улица,680014,48.4640895,135.1244555
69,Ленская улица,680014,48.4643068,135.1245467
71,Ленская улица,680014,48.4644926,135.1245229
73,Ленская улица,680014,48.4646751,135.1245483
12,Ленская улица,680014,48.4587063,135.1241407
28,Ленская улица,680014,48.4604096,135.1242808
40,Ленская улица,680014,48.4620230,135.1245564
42В,Ленская улица,680014,48.4621832,135.1245839
42Б,Ленская улица,680014,48.4623214,135.1245293
44,Ленская улица,680014,48.4624164,135.1246322
46,Ленская улица,680014,48.4626107,135.1247608
48,Ленская улица,680014,48.4628344,135.1246976
52,Ленская улица,680014,48.4633353,135.1248280
56,Ленская улица,680014,48.4637318,135.1249006
60,Ленская улица,680014,48.4642273,135.1249515
62,Ленская улица,680014,48.4644046,135.1249406
66,Ленская улица,680014,48.4648065,135.1250645
56,Приморская улица,680014,48.4622523,135.1232807
58,Приморская улица,680014,48.4624331,135.1233059
62,Приморская улица,680014,48.4629282,135.1233615
64,Приморская улица,680014,48.4631981,135.1233993
68,Приморская улица,680014,48.4635404,135.1237749
70,Приморская улица,680014,48.4637370,135.1235124
72,Приморская улица,680014,48.4639182,135.1235047
72А,Приморская улица,680014,48.4640951,135.1235362
76,Приморская улица,680014,48.4644866,135.1236417
80,Приморская улица,680014,48.4648354,135.1236532
36А,Океанская улица,680014,48.4610890,135.1219289
31,Приморская улица,680014,48.4601833,135.1222688
39,Приморская улица,680014,48.4610580,135.1224311
41,Приморская улица,680014,48.4612284,135.1224452
43,Приморская улица,680014,48.4614214,135.1224757
51,Приморская улица,680014,48.4632052,135.1225485
55,Приморская улица,680014,48.4635183,135.1227715
57,Приморская улица,680014,48.4637490,135.1228046
59,Приморская улица,680014,48.4639253,135.1228120
61,Приморская улица,680014,48.4641040,135.1228291
65,Приморская улица,680014,48.4644924,135.1229025
67,Приморская улица,680014,48.4647036,135.1229474
30/3,улица Панфиловцев,680051,48.3827014,135.1199608
1/1,улица 65-летия Победы,680045,48.4566876,135.1034044
1Е,Пионерская улица,680007,48.4620720,135.0871780
39,Слободская улица,680030,48.4725309,135.0849315
41,Слободская улица,680030,48.4727037,135.0851268
1А,Индустриальная улица,680006,48.4246886,135.1055207
14/1,Ситинская улица,680015,48.4015797,135.1500352
14,Ситинская улица,680015,48.4022800,135.1497041
14/3,Ситинская улица,680015,48.4022492,135.1500299
14/2,Ситинская улица,680015,48.4015539,135.1509432
14/4,Ситинская улица,680015,48.4016061,135.1491689
14/5,Ситинская улица,680015,48.4020009,135.1492290
73А,улица Суворова,680015,48.3962669,135.1386887
82А к3,улица Суворова,680015,48.3919714,135.1620304
1/5,улица 65-летия Победы,680045,48.4572789,135.1028831
1/7,улица 65-летия Победы,680045,48.4579150,135.1025560
4 к2,Оборонная улица,680007,48.4546518,135.0943958
100,улица Калинина,680028,48.4775299,135.0594471
53,улица Дикопольцева,680028,48.4910470,135.0713018
22,Авиационная улица,680009,48.5008933,135.0882739
40/1,улица Суворова,680051,48.3921964,135.1078913
51,улица Панфиловцев,680051,48.3862020,135.1234225
80,улица Джамбула,680038,48.4954888,135.0487896
3,Фабричный переулок,680020,48.4670318,135.0790824
17,улица Пчёлка-3,680031,48.5213823,135.1405239
39,улица Пчёлка-3,680031,48.5230236,135.1430724
43,улица Пчёлка-2,680031,48.5225947,135.1436999
30,улица Пчёлка-2,680031,48.5215639,135.1426903
17,улица Пчёлка-1,680031,48.5209629,135.1426161
154,улица Запарина,680011,48.4892747,135.0483901
17,Осенняя улица,680018,48.5675368,135.0502490
1/2,улица 65-летия Победы,680045,48.4568885,135.1041097
5,улица 65-летия Победы,680045,48.4581820,135.1046676
69/1,улица Морозова Павла Леонтьевича,680006,48.4163734,135.0972468
1/3,улица 65-летия Победы,680045,48.4571198,135.1047934
20,Авиационная улица,680009,48.5007070,135.0880205
28/1,Зейская улица,680012,48.4377475,135.1046037
9,улица А.А. Вахова,680023,48.4376240,135.0985547
38А,улица Шевчука,680007,48.4567790,135.0938193
12,улица Мухина,680017,48.4792407,135.0837257
93/1,улица Морозова Павла Леонтьевича,680007,48.4383876,135.1037245
3/3,улица Тимощука,680022,48.5381503,135.0947956
3/2,улица Тимощука,680022,48.5386519,135.0948311
3/1,улица Тимощука,680022,48.5392398,135.0940140
8/17,квартал Моряков-Амурцев,680000,48.5558123,135.0343913
8/18,квартал Моряков-Амурцев,680000,48.5559952,135.0346286
8/13,квартал Моряков-Амурцев,680000,48.5552342,135.0355572
3,улица 65-летия Победы,680045,48.4575513,135.1053905
73Б,Комсомольская улица,680000,48.4727181,135.0596254
16А,Ленинградская улица,680013,48.4825628,135.0962129
62В,Краснореченская улица,680003,48.4027770,135.1036768
8,улица Ворошилова,680051,48.3857186,135.1106102
7А,улица Шевченко,680000,48.4720936,135.0553157
1В,Пионерская улица,680030,48.4642534,135.0816283
26,Ленская улица,680014,48.4602694,135.1242614
3/3,улица Шевченко,680000,48.4696332,135.0558503
74У,Краснореченская улица,680006,48.4104891,135.1071768
87,улица Калинина,680028,48.4780779,135.0570803
2А,улица Фурманова,680051,48.3977374,135.1070636
2,улица Фурманова,680051,48.3979987,135.1055939
26,улица Дикопольцева,680013,48.4847705,135.0841575
4,улица Фурманова,680051,48.3989161,135.1059547
9,переулок Дзержинского,680020,48.4666439,135.0798862
14,улица Блюхера,680030,48.4648541,135.0821469
28,улица Шеронова,680030,48.4719472,135.0806956
27,Слободская улица,680030,48.4727091,135.0816941
42,Волочаевская улица,680030,48.4657694,135.0934745
1 с1,улица Ворошилова,680051,48.3817001,135.1114222
14 к1,Трубный переулок,680007,48.4600088,135.0957713
11В,улица Тургенева,680000,48.4666171,135.0678300
43,Амурский бульвар,680021,48.4896270,135.0672264
30А,Краснореченская улица,680001,48.3814101,135.0960419
1,Клубная улица,680032,48.4275555,135.1337246
101А,Краснореченская улица,680006,48.4079542,135.1033379
1А,Воронежское шоссе,680022,48.5494353,135.0621865
1,улица 65-летия Победы,680045,48.4564104,135.1026586
1/4,улица 65-летия Победы,680007,48.4570002,135.1022398
1/6,улица 65-летия Победы,680045,48.4575844,135.1018338
6,улица Вострецова,680017,48.4783491,135.0835459
10А,Окружная улица,680031,48.5042723,135.1450557
3,улица Шеронова,680020,48.4688496,135.0825598
185,Краснореченская улица,680023,48.4436345,135.1106105
26,улица Муравьёва-Амурского,680000,48.4755437,135.0632761
16,Ленинградская улица,680013,48.4822560,135.0961560
21,улица Малиновского,680051,48.3812856,135.1204616
57,улица Фрунзе,680000,48.4755725,135.0634888
25,улица Демьяна Бедного,680009,48.5027972,135.0990013
27,улица Демьяна Бедного,680009,48.5031999,135.0997223
4,улица Вахова А.А.,680023,48.4369545,135.1029647
3,улица Тимощука,680022,48.5385143,135.0940083
46А,Краснореченская улица,680003,48.3975298,135.1005712
