House number,Street name,Postal code,Latitude,Longitude
140,Taiganova Crescent,T9K 0T4,56.7721566,-111.4164113
9701,Hardin Street,T9H 1L2,56.7239926,-111.3814650
112,Riverstone Ridge,T9K 1S6,56.7593604,-111.4381383
10006,MacDonald Avenue,T9H 1S8,56.7271737,-111.3830692
10006,MacDonald Avenue,T9H 1S8,56.7270945,-111.3828700
221,Tundra Drive,T9K 2L9,56.7292047,-111.4541607
9317,Huggard Street,T9H 1C4,56.6984678,-111.3375677
10015,Main Street,T9H 2G4,56.7292919,-111.3831101
#327 - 8600,Franklin Avenue,T9H 4G8,56.7203125,-111.3609672
9613,Franklin Avenue,T9H 2J8,56.7239275,-111.3728899
108,Riverstone Ridge,T9K 1S6,56.7599748,-111.4381872
312,Gregoire Drive,T9H 3R2,56.6804022,-111.3493487
1,C.A. Knight Way,T9H 5C5,56.7382594,-111.3818960
10216,Centennial Drive,T9H 1Y5,56.7186088,-111.3495025
8106,Fraser Avenue,T9H 0G1,56.7169847,-111.3453668
110,Eymundson Road,T9H 5A5,56.7308051,-111.4377263
3000,Snow Eagle Drive,T9H 0B6,56.6593059,-111.2635619
9713,Hardin Street,T9H 1L2,56.7256064,-111.3771054
412,Thickwood Boulevard,T9K 1P1,56.7330790,-111.4306822
8130,Manning Avenue,T9H 1V7,56.7160657,-111.3479485
151,Loutit Road,T9K 0K6,56.7532580,-111.4419291
107,Riverstone Ridge,T9K 1S6,56.7594766,-111.4378003
9713,Hardin Street,T9H 1L2,56.7246398,-111.3784411
412,Thickwood Boulevard,T9K 1P1,56.7329886,-111.4309268
8406B,Franklin Avenue,T9H 2J3,56.7179886,-111.3554096
8520,Manning Avenue,T9H 5G2,56.7192892,-111.3559433
2,Clearwater Drive,T9H 0J5,56.7302827,-111.3678396
9914,Morrison Street,T9H 4A4,56.7290886,-111.3859905
8528,Manning Avenue,T9H 5G2,56.7199032,-111.3561457
8112,Fraser Avenue,T9H 1W5,56.7167213,-111.3462327
36,Riedel Street,T9H 3E1,56.7249314,-111.3625062
9909,Franklin Avenue,T9H 2K4,56.7268521,-111.3808508
108,Riverstone Ridge,T9K 1S6,56.7597670,-111.4377629
435,Gregoire Drive,T9H 4K7,56.6865856,-111.3485932
2-306,Mackay Crescent,T9H 4E4,56.6711527,-111.3345512
8115,Franklin Avenue,T9H 2H7,56.7127164,-111.3497380
1,C.A. Knight Way,T9H 5C5,56.7382436,-111.3816510
226,Gregoire Drive,T9H 4K6,56.6773503,-111.3493250
450,Gregoire Drive,T9H 3R2,56.6863569,-111.3508531
291,Sakitawaw Trail,T9H 5E7,56.6863498,-111.3542029
291,Sakitawaw Trail,T9H 5E7,56.6865584,-111.3542877
323,Athabasca Avenue,T9J 1G9,56.7120829,-111.3765853
102,Millenium Drive,T9K 1Y8,56.7549645,-111.4618366
255,Powder Drive,T9K 2W6,56.7561776,-111.4578891
9601,Franklin Avenue,T9H 2J8,56.7238127,-111.3736928
10015,Manning Avenue,T9H 2C2,56.7288558,-111.3822512
9913,Biggs Avenue,T9H 1S2,56.7253837,-111.3825588
9802,Morrison Street,T9H 5B8,56.7276720,-111.3867435
10013,MacDonald Avenue,T9H 1S9,56.7271401,-111.3843963
9914,Morrison Street,T9H 1A4,56.7289898,-111.3859115
10021,Biggs Avenue,T9H 1S4,56.7266616,-111.3856291
9824,Franklin Avenue,T9H 2K3,56.7266614,-111.3782420
9824,Franklin Avenue,T9H 2K3,56.7267702,-111.3779956
8130,Manning Avenue,T9H 1V7,56.7161160,-111.3477692
321,Thickwood Boulevard,T9H 3W1,56.7326830,-111.4277689
100,Gregoire Crescent,T9H 2L2,56.6802869,-111.3477184
104,Gregoire Crescent,T9H 2L2,56.6802758,-111.3474889
108,Gregoire Crescent,T9H 2L2,56.6802879,-111.3472701
112,Gregoire Crescent,T9H 2L2,56.6802629,-111.3470712
116,Gregoire Crescent,T9H 2L2,56.6802337,-111.3468765
120,Gregoire Crescent,T9H 2L2,56.6801974,-111.3466614
124,Gregoire Crescent,T9H 2L2,56.6801452,-111.3464664
128,Gregoire Crescent,T9H 2L2,56.6801242,-111.3462830
132,Gregoire Crescent,T9H 2L2,56.6801200,-111.3460673
136,Gregoire Crescent,T9H 2L2,56.6801031,-111.3458694
140,Gregoire Crescent,T9H 2L2,56.6801469,-111.3456749
144,Gregoire Crescent,T9H 2L2,56.6801899,-111.3455077
148,Gregoire Crescent,T9H 2L2,56.6802584,-111.3453157
152,Gregoire Crescent,T9H 2L2,56.6803273,-111.3451674
136A,Sandpiper Road,T9K 0J7,56.7547996,-111.4429479
101,Riverstone Ridge,T9K 0R2,56.7578991,-111.4398238
410,Taiganova Crescent,T9K 0T4,56.7768412,-111.4222381
102,Parsons Creek Drive,T9K 0B3,56.7596479,-111.4692213
10006,MacDonald Avenue,T9H 1S8,56.7272574,-111.3829005
312,Gregoire Drive,T9H 3R2,56.6802268,-111.3488897
275,Macalpine Crescent,T9H 4Y4,56.6629844,-111.3429741
200,Parent Way,T9H 5E6,56.6841253,-111.3506932
374,Gregoire Drive,T9H 3R2,56.6830727,-111.3499240
317,Gregoire Drive,T9H 5A7,56.6816017,-111.3479453
177,Dickins Drive,T9K 1M3,56.7371696,-111.4676754
480,Signal Road,T9H 4R7,56.7260193,-111.4487257
100,Real Martin Drive,T9K 2S1,56.7328124,-111.4635810
395,Loutit Road,t9k0l7,56.7528932,-111.4266983
3,Hospital Street,T9H 1P2,56.7178868,-111.3610536
255,Athabasca Avenue,T9J 1G7,56.7101222,-111.3761881
150,Maclennan Crescent,T9H 4B8,56.6614034,-111.3258034
10002,Franklin Avenue,T9H 2K6,56.7282392,-111.3816315
142,Dickins Drive,T9K 1X4,56.7372351,-111.4656267
384,Silin Forest Road,T9H 4A3,56.7298273,-111.4280952
410,Thickwood Boulevard,T9K 1P1,56.7330056,-111.4296848
9,Haineault Street,T9H 1R8,56.7242433,-111.3772960
10102,Franklin Avenue,T9H 2K9,56.7292027,-111.3844347
211,Thickwood Boulevard,T9H 5A9,56.7328828,-111.4266830
9912,King Street,T9H 5A8,56.7151055,-111.3499532
420,Mackenzie Boulevard,T9H 4C4,56.6700849,-111.3367549
441,Sakitawaw Trail,T9H 4P3,56.6760693,-111.3530024
112,Sandpiper Road,T9K 0L9,56.7546900,-111.4397256
101-375,Loutit Road,T9K 0Z5,56.7527004,-111.4276727
321,Sakitawaw Trail,T9H 5E7,56.6846905,-111.3547028
317,Sakitawaw Trail,T9H 5E7,56.6856560,-111.3554740
175,Eagle Ridge Boulevard,T9K 2Z7,56.7535176,-111.4326944
155,Eagle Ridge Boulevard,T9K 2Z7,56.7526402,-111.4315270
9708,Main Street,T9H 1T6,56.7259674,-111.3843895
102,Parsons Creek Drive,T9K 0B3,56.7594742,-111.4689769
106,Parsons Creek Drive,T9K 0B4,56.7595092,-111.4660330
431,Callen Drive,T9K 0X8,56.7743744,-111.4608800
331,Callen Drive,T9K 0X8,56.7734482,-111.4582104
