House number,Street name,Postal code,Latitude,Longitude
219,улица Павла Красильникова,664040,52.3483766,104.1717463
20,улица Сибирских Партизан,664020,52.3505802,104.2184029
239В,улица Карла Либкнехта,664081,52.2650681,104.3195267
57А,улица Трилиссера,664047,52.2733994,104.3087921
3Б,Советская улица,664047,52.2773972,104.3034744
60Д/1,улица Баррикад,664019,52.2899173,104.3368196
22,улица Сибирских Партизан,664020,52.3514698,104.2161584
90 к1,улица Маршала Конева,664043,52.2587430,104.2010950
36А,улица Маршала Конева,664043,52.2597628,104.2037525
30/2,улица Джамбула,664005,52.2917373,104.2497597
36,улица Чкалова,664025,52.2888253,104.2768612
45,улица Карла Маркса,664007,52.2894498,104.2932754
45,улица Карла Маркса,664007,52.2896176,104.2937653
7А,улица Сухэ-Батора,664011,52.2878914,104.2829895
7Б,улица Сухэ-Батора,664011,52.2880173,104.2825851
7,улица Сухэ-Батора,664011,52.2880427,104.2821625
7Б,улица Сухэ-Батора,664011,52.2879639,104.2826157
7,улица Сухэ-Батора,664011,52.2872083,104.2821963
1,улица Желябова,664011,52.2871558,104.2831920
42,улица Горького,664003,52.2855182,104.2887127
2,улица Урицкого,664003,52.2850554,104.2889007
6,переулок МОПРа,664007,52.2917569,104.2936789
41,улица Свердлова,664011,52.2886161,104.2879845
2А/1,Рабочая улица,664011,52.2897416,104.2838135
3,улица Некрасова,664011,52.2890183,104.2842221
1,улица Некрасова,664011,52.2885831,104.2833785
29А,улица Карла Маркса,664003,52.2850876,104.2884064
36,улица Ленина,664003,52.2803286,104.2815416
62,улица Марата,664025,52.2807430,104.2803697
62,улица Марата,664025,52.2806942,104.2802727
285А,улица Розы Люксембург,664048,52.3540764,104.1574554
36,бульвар Рябикова,664043,52.2608291,104.2119170
17,улица Чехова,664011,52.2848300,104.2940186
164/4,Дальневосточная улица,664075,52.2512541,104.3236266
244А/1,Байкальская улица,664075,52.2548345,104.3334608
250Б/1,Байкальская улица,664075,52.2538010,104.3377074
7,улица Сухэ-Батора,664011,52.2879795,104.2820352
49,Партизанская улица,664007,52.2793488,104.3043795
46,улица Ленина,664003,52.2775326,104.2832450
11/1,Красноярская улица,664009,52.2818732,104.3300245
11А,Красноярская улица,664009,52.2826576,104.3304134
11А,Красноярская улица,664009,52.2827478,104.3301452
30/1,улица Вампилова,664058,52.2537391,104.2312393
74Б,Угольный проезд,664009,52.2830449,104.3396142
1/1,Космический проезд,664009,52.2839437,104.3422134
68/3,Угольный проезд,664009,52.2836263,104.3430165
75,Депутатская улица,664023,52.2640974,104.3321889
1Б,улица Грязнова,664003,52.2819382,104.2858518
25,улица 3 Июля,664022,52.2729014,104.2914927
4,Мельничная улица,664035,52.3131745,104.2980259
3,улица Октябрьской Революции,664007,52.2904380,104.3022595
2,улица Урицкого,664003,52.2848173,104.2890149
26,улица Степана Разина,664025,52.2836505,104.2763755
4,Жигулёвская улица,664009,52.2772901,104.3591074
38А,улица Тельмана,664013,52.3342517,104.2011942
18А,2-я Аларская улица,664009,52.2857516,104.3570970
10,улица Мамина-Сибиряка,664058,52.2619455,104.2342250
3/5,улица Сергеева,664043,52.2661146,104.2251798
25,Советская улица,664047,52.2774449,104.3080924
25,Советская улица,634047,52.2773661,104.3079289
25,Советская улица,664047,52.2774361,104.3080334
12,Пролетарская улица,664011,52.2867972,104.2864714
22,улица Сибирских Партизан,664020,52.3512835,104.2165893
7/2,Депутатская улица,664047,52.2783720,104.3186107
157А,улица Карла Либкнехта,664047,52.2739080,104.3142710
212,улица Баумана,664048,52.3508835,104.1560972
1,Сибирская улица,664022,52.2656062,104.2971488
8/2,Строительный переулок,664022,52.2714085,104.2985114
10,улица Ширямова,664009,52.2741371,104.3535652
44,улица Омулевского,664023,52.2750770,104.3261738
44,улица Омулевского,664023,52.2753872,104.3261523
65А/5,улица Седова,664022,52.2712383,104.2997885
24А,улица Дзержинского,664003,52.2810044,104.2914725
3А,улица Тухачевского,664040,52.3569717,104.1647797
3А,улица Тухачевского,664040,52.3567079,104.1653600
16 с1,улица Литвинова,664003,52.2816279,104.2930724
24/1,Трактовая улица,664014,52.3260689,104.2565765
118к3,Байкальская улица,664046,52.2637525,104.3081541
66,улица Лыткина,664081,52.2695867,104.3272173
3Б/1,улица Сергеева,664043,52.2667746,104.2220824
1 к2 пав23,улица Октябрьской Революции,664026,52.2947641,104.2937857
1,улица Октябрьской Революции,664026,52.2941130,104.2941833
29/183,Челябинская улица,664001,52.3263486,104.2936906
1Б,1-й Советский переулок,664013,52.3303694,104.1992423
4,улица Шевцова,664001,52.3054311,104.2937602
71,Старокузьмихинская улица,664033,52.2397214,104.2889596
66,улица Лыткина,664081,52.2695867,104.3271315
29,улица Рабочего Штаба,664001,52.3071524,104.2974068
40,улица Карла Маркса,664007,52.2913809,104.2970369
277Б,Байкальская улица,664050,52.2610245,104.3608322
81В,Старокузьмихинская улица,664001,52.2392899,104.2932864
3А,улица Розы Люксембург,664040,52.3556025,104.1712558
3А,улица Розы Люксембург,664040,52.3565002,104.1708588
3А,улица Розы Люксембург,664040,52.3560637,104.1715526
3А,улица Розы Люксембург,664040,52.3560464,104.1716800
215А,Байкальская улица,664075,52.2581769,104.3388839
58/1,Советская улица,664047,52.2759766,104.3049519
16,улица Фурье,664003,52.2831350,104.2938679
16,улица Фурье,664003,52.2833276,104.2934752
63,улица Гоголя,664001,52.2723136,104.2573998
17,улица Софьи Перовской,664003,52.2798774,104.2965171
124,улица Баумана,664040,52.3382873,104.1853928
2,улица Ширямова,664009,52.2772435,104.3559815
1А с1,1-я Московская улица,664014,52.3258438,104.2589798
42,улица Горького,664082,52.2853015,104.2886394
41/1,Аэропорт. Поляна. Хальт,664009,52.2780422,104.3722318
29А,Дорожная улица,664009,52.2788208,104.3700991
27,Советская улица,664047,52.2775527,104.3085410
27,проезд Юрия Тена,664082,52.2532186,104.2608626
105А,Байкальская улица,664047,52.2675111,104.3097622
58/1,Советская улица,664047,52.2760498,104.3048580
58/1,Советская улица,664047,52.2760779,104.3049586
58/1,Советская улица,664047,52.2760648,104.3049050
6,улица Чкалова,664025,52.2862283,104.2710404
71,Старокузьмихинская улица,664033,52.2398345,104.2890737
24,улица Лермонтова,664017,52.2737976,104.2537822
244/4,Байкальская улица,664075,52.2563186,104.3309951
32,улица Лермонтова,664017,52.2725944,104.2542271
118к1,Байкальская улица,664046,52.2634494,104.3081511
118к1,Байкальская улица,664046,52.2633602,104.3083620
27с3,улица Братская,664019,52.2900617,104.3577298
189/2,улица Баррикад,664019,52.2922378,104.3552820
189/2,улица Баррикад,664019,52.2923769,104.3554086
189В,улица Баррикад,664019,52.2922145,104.3549518
189/1,улица Баррикад,664019,52.2922937,104.3542979
19/1,Аларская улица,664009,52.2862191,104.3579172
7Б,Братская улица,664019,52.2895732,104.3560304
22/2,Дальневосточная улица,664022,52.2559197,104.3163454
19/1,микрорайон Юбилейный,664049,52.2270719,104.3046287
1,улица Урицкого,664003,52.2853083,104.2892140
10,Верхняя Набережная улица,664022,52.2683777,104.2887185
3/5,улица Сергеева,664043,52.2657937,104.2262750
30,улица Вампилова,664058,52.2537171,104.2310720
30,улица Вампилова,664058,52.2535464,104.2315675
30,улица Вампилова,664058,52.2537298,104.2320806
34,улица Вампилова,664058,52.2532706,104.2314726
109/1,Советская улица,664009,52.2799449,104.3396080
32,улица Лермонтова,664017,52.2724949,104.2543717
30/6,улица Безбокова,664018,52.2349407,104.3034827
26,Академическая улица,664017,52.2343136,104.2938276
150/7,улица Пискунова,664023,52.2696313,104.3407425
37/2б,Старокузьмихинская улица,664033,52.2509206,104.2833830
13Б,улица Ширямова,664009,52.2729117,104.3529541
66,улица Рабочего Штаба,664035,52.3149720,104.3025615
14Б,Российская улица,664025,52.2858294,104.2767247
333В,улица Лермонтова,664033,52.2438768,104.2789205
333Е,улица Лермонтова,664033,52.2440156,104.2800460
335,улица Лермонтова,664033,52.2435660,104.2803209
265Б,Байкальская улица,664050,52.2535331,104.3572530
1,Зелёный переулок,664039,52.2772327,104.2506915
1А,бульвар Постышева,664046,52.2569934,104.3116959
236,улица Ярославского,664048,52.3437005,104.1619303
258Г,улица Ярославского,664048,52.3466138,104.1598375
25А,Академическая улица,664056,52.2348834,104.2981192
237,Байкальская улица,664075,52.2566654,104.3435640
70А,бульвар Гагарина,664025,52.2849715,104.2699437
1А,улица Ленина,664011,52.2902388,104.2803666
31,улица 5-й Армии,664025,52.2847626,104.2726094
4,улица Чкалова,664025,52.2855629,104.2696193
5,Российская улица,664025,52.2846439,104.2734066
25,улица Клары Цеткин,664039,52.2750298,104.2463759
23,улица Клары Цеткин,664039,52.2751844,104.2467765
19,улица Клары Цеткин,664039,52.2754563,104.2477401
21,улица Клары Цеткин,664039,52.2753237,104.2471810
83,улица Лермонтова,664074,52.2626104,104.2618291
26,улица Клары Цеткин,664039,52.2765964,104.2497834
73,4-я Железнодорожная улица,664039,52.2767633,104.2491136
25,улица Терешковой,664039,52.2778574,104.2508540
31,улица Терешковой,664039,52.2772574,104.2496498
22,улица Клары Цеткин,664039,52.2767365,104.2514119
4,улица Лермонтова,664039,52.2773430,104.2518320
6,Зелёный переулок,664039,52.2766850,104.2503290
5,2-я Железнодорожная улица,664005,52.2925288,104.2449847
10,улица Академика Курчатова,664074,52.2576569,104.2658627
25,улица 25 Октября,664022,52.2723553,104.2985833
14,улица Академика Курчатова,664074,52.2573521,104.2643614
1Ж,Пограничный переулок,664022,52.2607930,104.3026861
12,улица Академика Курчатова,664074,52.2575140,104.2651188
1А,Сибирская улица,664022,52.2657859,104.2973916
8,улица Академика Курчатова,664074,52.2583548,104.2643958
125,Байкальская улица,664046,52.2633089,104.3136545
155,Байкальская улица,664081,52.2607340,104.3205507
109,Байкальская улица,664047,52.2660755,104.3115215
161,Байкальская улица,664081,52.2596348,104.3246238
129,Байкальская улица,664046,52.2626421,104.3153851
163,Байкальская улица,664081,52.2593652,104.3254462
157,Байкальская улица,664081,52.2602341,104.3229539
133,Байкальская улица,664081,52.2619704,104.3171281
149,Байкальская улица,664081,52.2610666,104.3195894
251,улица Карла Либкнехта,664081,52.2604369,104.3221735
159,Байкальская улица,664081,52.2599495,104.3237793
143,Байкальская улица,664081,52.2617813,104.3185423
11,улица Ломоносова,664074,52.2639185,104.2521046
11,улица Юрия Тена,664082,52.2541205,104.2547987
5,улица Юрия Тена,664082,52.2541202,104.2535494
3,улица Юрия Тена,664082,52.2541884,104.2526785
13,улица Юрия Тена,664082,52.2542921,104.2551643
15,улица Юрия Тена,664082,52.2541205,104.2555851
9,улица Юрия Тена,664082,52.2541202,104.2543358
1,улица Юрия Тена,664082,52.2541349,104.2522604
2,улица Юрия Тена,664082,52.2537522,104.2536170
7,улица Юрия Тена,664082,52.2542919,104.2539149
81,Советская улица,664009,52.2801276,104.3331549
77,Советская улица,664009,52.2803773,104.3316264
75,Советская улица,664009,52.2806612,104.3310063
6,Нижняя Набережная улица,664011,52.2922535,104.2848860
37,бульвар Рябикова,664043,52.2609497,104.2100437
4,улица Юрия Тена,664082,52.2535475,104.2534510
76,Партизанская улица,664047,52.2719888,104.3088136
79,Байкальская улица,664047,52.2728905,104.3062457
64,Партизанская улица,664047,52.2744608,104.3071780
85,улица Трилиссера,664047,52.2745805,104.3149158
81,Партизанская улица,664047,52.2764200,104.3078986
83,Партизанская улица,664047,52.2759080,104.3075748
51,Ямская улица,664007,52.2850424,104.3106839
30,улица Иосифа Уткина,664007,52.2869333,104.3125421
16,Красногвардейская улица,664007,52.2868938,104.3096958
26,улица Иосифа Уткина,664007,52.2852130,104.3097679
24,улица Иосифа Уткина,664007,52.2846583,104.3097806
1,Подаптечная улица,664007,52.2866056,104.3093161
53,Ямская улица,664007,52.2860361,104.3125055
49,Ямская улица,664007,52.2843153,104.3105124
28А,улица Иосифа Уткина,664007,52.2860671,104.3112327
27,улица Декабрьских Событий,664007,52.2899650,104.2957034
23,улица Декабрьских Событий,664007,52.2907541,104.2935441
2,переулок МОПРа,664007,52.2913708,104.2929708
1А,переулок МОПРа,664007,52.2913185,104.2918907
124В,Советская улица,664047,52.2788608,104.3199812
25,Трудовая улица,664047,52.2759559,104.3174990
94,Советская улица,664047,52.2776901,104.3137663
5,Трудовая улица,664047,52.2776590,104.3163083
9,Трудовая улица,664047,52.2770244,104.3165907
6,Депутатская улица,664047,52.2779757,104.3177588
14,Депутатская улица,664047,52.2765632,104.3184306
10,Депутатская улица,664047,52.2773734,104.3176620
15,улица Станиславского,664081,52.2624851,104.3318368
2,улица Лермонтова,664039,52.2780863,104.2515704
6,улица Лермонтова,664039,52.2754786,104.2524477
13А,улица Клары Цеткин,664039,52.2761072,104.2515969
33,бульвар Постышева,664046,52.2619823,104.3067927
6,улица Ширямова,664009,52.2746820,104.3539138
8,улица Ширямова,664009,52.2739563,104.3540965
10,улица Ширямова,664009,52.2739486,104.3534815
13Б,улица Ширямова,664009,52.2727474,104.3533353
78,Коммунистическая улица,664046,52.2621703,104.3092768
74,Коммунистическая улица,664046,52.2628371,104.3079196
76,Коммунистическая улица,664046,52.2625051,104.3085909
72,Коммунистическая улица,664046,52.2631770,104.3072556
1Е,Пограничный переулок,664022,52.2612832,104.3029808
1Г,Пограничный переулок,664022,52.2604004,104.3029201
1В,Пограничный переулок,664022,52.2608241,104.3031773
1Д,Пограничный переулок,664022,52.2617136,104.3032388
1Б,Пограничный переулок,664022,52.2612855,104.3034575
1А,Пограничный переулок,664022,52.2616418,104.3036739
4,Пограничный переулок,664046,52.2605006,104.3037149
2,Пограничный переулок,664046,52.2600626,104.3034683
23,Сибирская улица,664046,52.2616115,104.3044801
6,Пограничный переулок,664046,52.2610004,104.3040529
38,Сибирская улица,664046,52.2605487,104.3047611
25,Сибирская улица,664046,52.2613276,104.3051322
40,Сибирская улица,664046,52.2604606,104.3054825
27,Сибирская улица,664046,52.2611048,104.3058199
27А,бульвар Постышева,664046,52.2608200,104.3068095
27,бульвар Постышева,664046,52.2606479,104.3078849
25,бульвар Постышева,664046,52.2602999,104.3078736
23,бульвар Постышева,664046,52.2599669,104.3080844
21,бульвар Постышева,664046,52.2596570,104.3084338
25А,бульвар Постышева,664046,52.2602461,104.3067423
21А,бульвар Постышева,664046,52.2591149,104.3084711
57,Дальневосточная улица,664046,52.2590043,104.3050053
51,Дальневосточная улица,664046,52.2596825,104.3041030
53,Дальневосточная улица,664046,52.2592676,104.3042755
55,Дальневосточная улица,664046,52.2592847,104.3054592
55А,Дальневосточная улица,664046,52.2598108,104.3051523
4/3,улица Семёна Лагоды,664022,52.2615845,104.3020538
4/4,улица Семёна Лагоды,664022,52.2618121,104.3023499
4/5,улица Семёна Лагоды,664022,52.2620174,104.3026167
4/2,улица Семёна Лагоды,664022,52.2612948,104.3016772
4/1,улица Семёна Лагоды,664022,52.2610079,104.3013043
4/6,улица Семёна Лагоды,664022,52.2609581,104.3017525
4А,улица Семёна Лагоды,664022,52.2612639,104.3020288
61А,Дальневосточная улица,664046,52.2584781,104.3083060
59,Дальневосточная улица,664046,52.2585558,104.3063293
57А,Дальневосточная улица,664046,52.2590852,104.3068264
59А,Дальневосточная улица,664046,52.2587987,104.3075206
61,Дальневосточная улица,664046,52.2582028,104.3076736
63,Дальневосточная улица,664046,52.2578664,104.3090150
19,бульвар Постышева,664046,52.2601071,104.3099161
7,бульвар Постышева,664046,52.2582923,104.3097107
5,бульвар Постышева,664046,52.2585682,104.3107053
9,бульвар Постышева,664046,52.2587301,104.3097822
3,бульвар Постышева,664046,52.2580660,104.3110089
17,бульвар Постышева,664046,52.2597407,104.3092186
13,бульвар Постышева,664046,52.2593140,104.3095161
65,Дальневосточная улица,664046,52.2575463,104.3103423
11,бульвар Постышева,664046,52.2590758,104.3104319
15,бульвар Постышева,664046,52.2595824,104.3101757
1,бульвар Постышева,664046,52.2575341,104.3112995
29,бульвар Постышева,664046,52.2612151,104.3082641
31,бульвар Постышева,664046,52.2617104,104.3085541
29А,бульвар Постышева,664046,52.2613283,104.3098084
76,2-я Железнодорожная улица,664005,52.2785334,104.2504136
72,2-я Железнодорожная улица,664005,52.2789237,104.2502282
68,2-я Железнодорожная улица,664005,52.2787824,104.2497192
36,улица Терешковой,664005,52.2778759,104.2488435
70,2-я Железнодорожная улица,664005,52.2790892,104.2501718
74,2-я Железнодорожная улица,664005,52.2787478,104.2503238
59,4-я Железнодорожная улица,664005,52.2785419,104.2484622
199,улица Розы Люксембург,664040,52.3484366,104.1805774
197,улица Розы Люксембург,664040,52.3481943,104.1813250
203,улица Розы Люксембург,664040,52.3488853,104.1793162
201,улица Розы Люксембург,664040,52.3486058,104.1800249
195,улица Розы Люксембург,664040,52.3478247,104.1818205
193,улица Розы Люксембург,664040,52.3470964,104.1828285
172,улица Пржевальского,664040,52.3468601,104.1810421
170,улица Пржевальского,664040,52.3465584,104.1815095
168,улица Пржевальского,664040,52.3462178,104.1823068
181,улица Тельмана,664040,52.3472320,104.1805768
185,улица Тельмана,664040,52.3478881,104.1800097
2,15-й Советский переулок,664040,52.3485600,104.1775667
213,улица Розы Люксембург,664040,52.3483453,104.1765033
215А,улица Розы Люксембург,664040,52.3488807,104.1757887
1,15-й Советский переулок,664040,52.3474642,104.1781867
98,4-я Советская улица,664023,52.2734592,104.3224063
70,Красноказачья улица,664023,52.2725285,104.3229274
68,Красноказачья улица,664023,52.2726407,104.3235615
66,Красноказачья улица,664023,52.2727744,104.3242156
27,Депутатская улица,664023,52.2727489,104.3222583
102,4-я Советская улица,664023,52.2738037,104.3231562
100,4-я Советская улица,664023,52.2734702,104.3233105
109Г,Советская улица,664009,52.2807832,104.3385275
113,Советская улица,664009,52.2803392,104.3423838
13,улица Белобородова,664017,52.2342952,104.2780417
10Б,улица Костычева,664017,52.2352626,104.2802368
5,улица Костычева,664017,52.2358204,104.2800893
7,улица Костычева,664017,52.2359733,104.2803591
2,улица Костычева,664017,52.2359476,104.2781992
10А,улица Костычева,664017,52.2355078,104.2794243
1,улица Обручева,664017,52.2355751,104.2779026
8,улица Костычева,664017,52.2357721,104.2798412
10,улица Костычева,664017,52.2355147,104.2798597
6,улица Костычева,664017,52.2360000,104.2794770
1А,улица Костычева,664017,52.2367452,104.2789742
3,улица Костычева,664017,52.2364629,104.2798550
2,улица Бродского,664056,52.2338793,104.3095475
12,улица Белобородова,664017,52.2346828,104.2785425
17,улица Левитана,664017,52.2337557,104.2774346
18/1,Индустриальная улица,664017,52.2341311,104.2769111
16,улица Левитана,664017,52.2340047,104.2758237
14,улица Левитана,664017,52.2345109,104.2762159
11,улица Белобородова,664017,52.2342009,104.2774192
12,улица Левитана,664017,52.2346022,104.2768002
1Б,улица Помяловского,664017,52.2371297,104.2746728
17А,улица Помяловского,664017,52.2379413,104.2757022
30,улица Помяловского,664017,52.2351529,104.2748686
9,улица Помяловского,664017,52.2380486,104.2772145
1А,улица Помяловского,664017,52.2367864,104.2752037
22,улица Помяловского,664017,52.2351960,104.2759904
8,улица Помяловского,664017,52.2362306,104.2772878
13,улица Помяловского,664017,52.2374286,104.2772956
10,улица Помяловского,664017,52.2359175,104.2766684
12,улица Помяловского,664017,52.2358599,104.2755958
32,улица Помяловского,664017,52.2345075,104.2754770
28,улица Помяловского,664017,52.2357823,104.2746215
18,улица Помяловского,664017,52.2356648,104.2761885
24,улица Помяловского,664017,52.2353922,104.2753838
15,улица Помяловского,664017,52.2371265,104.2769015
7,улица Помяловского,664017,52.2377667,104.2776423
17,улица Помяловского,664017,52.2375044,104.2760861
5,улица Помяловского,664017,52.2374970,104.2780798
15А,улица Помяловского,664017,52.2367396,104.2764511
11,улица Помяловского,664017,52.2383339,104.2767858
19,улица Помяловского,664017,52.2362186,104.2738983
6,улица Помяловского,664017,52.2366061,104.2781462
117,Советская улица,664009,52.2810600,104.3422902
62А,Угольный проезд,664009,52.2823625,104.3429020
115,Советская улица,664009,52.2804433,104.3429539
70,Угольный проезд,664009,52.2825135,104.3434478
76А,Угольный проезд,664009,52.2823239,104.3444753
78,Угольный проезд,664009,52.2823650,104.3439870
115А,Советская улица,664009,52.2807129,104.3433587
76,Угольный проезд,664009,52.2826275,104.3443465
68,Угольный проезд,664009,52.2827009,104.3427506
68/1,Угольный проезд,664009,52.2830515,104.3429095
1/3,Космический проезд,664009,52.2830548,104.3421026
68/3,Угольный проезд,664009,52.2834404,104.3430360
1/1,Космический проезд,664009,52.2837935,104.3422875
68/2,Угольный проезд,664009,52.2832133,104.3425760
182,улица Розы Люксембург,664040,52.3556391,104.1621090
1,улица Костычева,664017,52.2370811,104.2794779
15,улица Белобородова,664017,52.2343673,104.2786577
25,улица Бородина,664056,52.2250744,104.3121513
298,улица Ярославского,664048,52.3468436,104.1499806
286,улица Ярославского,664048,52.3464511,104.1522101
270,улица Ярославского,664048,52.3461223,104.1543203
280,улица Ярославского,664048,52.3451929,104.1526463
276,улица Ярославского,664048,52.3470504,104.1538532
290,улица Ярославского,664048,52.3477127,104.1531562
278,улица Ярославского,664048,52.3462063,104.1532376
272,улица Ярославского,664048,52.3468474,104.1549196
258В,улица Ярославского,664048,52.3463948,104.1602683
254,улица Ярославского,664048,52.3449252,104.1585342
282,улица Ярославского,664048,52.3459160,104.1512895
258Д,улица Ярославского,664048,52.3454975,104.1588116
258Е,улица Ярославского,664048,52.3455847,104.1592069
227,улица Баумана,664048,52.3480719,104.1578339
238,улица Ярославского,664048,52.3436468,104.1610517
298А,улица Ярославского,664048,52.3464489,104.1497876
258Б,улица Ярославского,664048,52.3463007,104.1597748
258А,улица Ярославского,664048,52.3459572,104.1596031
227А,улица Баумана,664048,52.3475181,104.1578892
240,улица Ярославского,664048,52.3441567,104.1593663
234,улица Ярославского,664048,52.3442066,104.1619617
246,улица Ярославского,664048,52.3445214,104.1607831
280Б,улица Ярославского,664048,52.3450818,104.1534489
225/4,улица Баумана,664048,52.3480644,104.1569307
225/5,улица Баумана,664048,52.3478544,104.1567510
234А,улица Ярославского,664048,52.3449528,104.1630454
225/1,улица Баумана,664048,52.3487178,104.1573249
225/3,улица Баумана,664048,52.3482720,104.1571082
225/2,улица Баумана,664048,52.3485122,104.1571569
256,улица Ярославского,664048,52.3459748,104.1623193
195,улица Баумана,664048,52.3474216,104.1611650
217,улица Баумана,664048,52.3472682,104.1623053
223,улица Баумана,664048,52.3478037,104.1588134
209,улица Баумана,664048,52.3461234,104.1637956
280Г,улица Ярославского,664048,52.3455636,104.1531786
219/5,улица Баумана,664048,52.3489546,104.1580591
221,улица Баумана,664048,52.3480523,104.1588600
219/1,улица Баумана,664048,52.3483211,104.1589336
280В,улица Ярославского,664048,52.3453026,104.1536179
219/3,улица Баумана,664048,52.3487432,104.1587395
215А,улица Баумана,664048,52.3474907,104.1599294
263В,улица Розы Люксембург,664048,52.3526598,104.1623936
211,улица Баумана,664048,52.3468243,104.1631670
263А,улица Розы Люксембург,664048,52.3533208,104.1629264
263Б,улица Розы Люксембург,664048,52.3530099,104.1626701
371А,улица Розы Люксембург,664053,52.3557854,104.1471030
219/6,улица Баумана,664048,52.3489785,104.1577276
219/2,улица Баумана,664048,52.3485869,104.1589934
214,Севастопольская улица,664048,52.3499582,104.1676243
219А,улица Баумана,664048,52.3486185,104.1593697
96,Почтамтская улица,664020,52.3441143,104.2090836
17А,улица Мира,664020,52.3419273,104.2266685
77А,Ленинградская улица,664020,52.3475179,104.2106657
38,улица Академика Образцова,664020,52.3409440,104.2047525
52,Полтавская улица,664020,52.3438531,104.2086317
3,улица Маршала Говорова,664020,52.3395512,104.2262458
8/5,улица Муравьёва,664020,52.3470102,104.2177836
128,Почтамтская улица,664020,52.3481488,104.2051111
2/1,улица Муравьёва,664020,52.3435899,104.2117637
15,улица Марии Ульяновой,664020,52.3413992,104.2259855
79,Ленинградская улица,664020,52.3464750,104.2107381
95,улица Красный Путь,664020,52.3447423,104.2112568
12,улица Шпачека,664020,52.3417464,104.2220710
13,улица Марии Ульяновой,664020,52.3408292,104.2247259
130,Почтамтская улица,664020,52.3483164,104.2054490
3,Волгоградская улица,664020,52.3371509,104.2313937
17А,улица Марии Ульяновой,664020,52.3418580,104.2255610
20,улица Академика Образцова,664020,52.3381634,104.2098985
32,улица Академика Образцова,664020,52.3405446,104.2063822
27,Вокзальная улица,664020,52.3393840,104.2079863
13/1,улица Марии Ульяновой,664020,52.3412644,104.2239628
11,улица Сибирских Партизан,664020,52.3478561,104.2211943
16,улица Красный Путь,664020,52.3388474,104.2220637
67,Волгоградская улица,664020,52.3450254,104.2178747
12/8,улица Шпачека,664020,52.3410757,104.2227901
20,улица Просвещения,664020,52.3454406,104.2193205
100,Почтамтская улица,664020,52.3433124,104.2104689
96,улица Красный Путь,664020,52.3468657,104.2091885
17,Ленинградская улица,664020,52.3401158,104.2232140
109,улица Красный Путь,664020,52.3464153,104.2086355
7,улица Маршала Жукова,664020,52.3468862,104.2271250
10,улица Мира,664020,52.3404556,104.2302548
91,улица Мира,664020,52.3476379,104.2158383
5,Украинская улица,664020,52.3488258,104.2250545
14,улица Новаторов,664020,52.3499135,104.2116144
69,Волгоградская улица,664020,52.3450313,104.2171816
132,Почтамтская улица,664020,52.3484808,104.2057903
6,улица Новаторов,664020,52.3473429,104.2090032
12/3,улица Шпачека,664020,52.3422039,104.2229624
37,улица Мира,664020,52.3435050,104.2229418
2,улица Лазо,664020,52.3378112,104.2151270
95,Волгоградская улица,664020,52.3468893,104.2138706
40,улица Академика Образцова,664020,52.3416468,104.2041904
27,улица Академика Образцова,664020,52.3378146,104.2077549
75,Ленинградская улица,664020,52.3460528,104.2118253
14,улица Академика Образцова,664020,52.3365689,104.2110778
32А,улица Академика Образцова,664020,52.3403208,104.2072166
28,улица Академика Образцова,664020,52.3392851,104.2070183
12/6,улица Шпачека,664020,52.3414815,104.2234791
122,Волгоградская улица,664020,52.3490179,104.2125062
1,Украинская улица,664020,52.3476533,104.2267736
57,улица Мира,664020,52.3455143,104.2203310
10А,улица Муравьёва,664020,52.3478912,104.2201777
117,Почтамтская улица,664020,52.3464156,104.2054389
82,Волгоградская улица,664020,52.3457261,104.2180709
14,Пулковский переулок,664020,52.3472268,104.2131435
20А,улица Академика Образцова,664020,52.3376386,104.2094017
23,Вокзальная улица,664020,52.3388999,104.2085023
12,улица Сибирских Партизан,664020,52.3475010,104.2229392
26/5,улица Просвещения,664020,52.3481263,104.2244132
13А,улица Марии Ульяновой,664020,52.3409632,104.2235431
111,Почтамтская улица,664020,52.3460159,104.2054819
8/1,улица Муравьёва,664020,52.3460911,104.2172033
104,Ленинградская улица,664020,52.3466320,104.2131821
118,Волгоградская улица,664020,52.3484682,104.2143566
3А,улица Сибирских Партизан,664020,52.3460214,104.2234691
49,Волгоградская улица,664002,52.3429667,104.2206712
97,улица Мира,664020,52.3491406,104.2136222
15,Таманская улица,664020,52.3461384,104.2221699
102,Ленинградская улица,664020,52.3463646,104.2138406
12/7,улица Шпачека,664020,52.3412815,104.2231395
84,улица Мира,664020,52.3466937,104.2195353
78,Ленинградская улица,664020,52.3437686,104.2186231
9,улица Марии Ульяновой,664020,52.3395710,104.2225501
61,улица Мира,664020,52.3459754,104.2185677
95,улица Мира,664020,52.3491015,104.2143963
26/4,улица Просвещения,664020,52.3479427,104.2247315
31,улица Академика Образцова,664020,52.3394849,104.2057281
5,улица Сибирских Партизан,664020,52.3466064,104.2231613
2/6,улица Муравьёва,664020,52.3435875,104.2131894
101,Почтамтская улица,664020,52.3454549,104.2064438
8А,улица Сибирских Партизан,664020,52.3473966,104.2244799
25А/1,улица Марии Ульяновой,664020,52.3426350,104.2273628
92,Почтамтская улица,664020,52.3446484,104.2097483
8/6,улица Муравьёва,664020,52.3467504,104.2181983
19,Ленинградская улица,664020,52.3405411,104.2225598
120,Волгоградская улица,664020,52.3483737,104.2133363
103,Почтамтская улица,664020,52.3451709,104.2060980
8,улица Новаторов,664020,52.3474837,104.2090001
80,Волгоградская улица,664020,52.3449408,104.2200953
45,Волгоградская улица,664002,52.3422918,104.2215251
3/1,улица Мира,664020,52.3380435,104.2307972
24,улица Академика Образцова,664020,52.3387917,104.2078059
7,улица Сибирских Партизан,664020,52.3472393,104.2222228
53,Волгоградская улица,664020,52.3437292,104.2200962
12/2,улица Шпачека,664020,52.3421454,104.2225649
73А,Волгоградская улица,664020,52.3454320,104.2169411
1,Деповский переулок,664020,52.3392918,104.2050175
19,улица Мира,664020,52.3423310,104.2256794
101,улица Мира,664020,52.3497300,104.2127019
11,Волгоградская улица,664020,52.3384265,104.2292974
25А/2,улица Марии Ульяновой,664020,52.3432778,104.2286741
59,улица Мира,664020,52.3462707,104.2190109
116,Почтамтская улица,664020,52.3463916,104.2071962
2/4,улица Муравьёва,664020,52.3440313,104.2124113
26/1,улица Просвещения,664020,52.3478594,104.2238683
48,улица Лазо,664020,52.3432792,104.2074484
98,Почтамтская улица,664020,52.3437371,104.2098673
80,Ленинградская улица,664020,52.3441092,104.2180870
4,Гражданская улица,664020,52.3441081,104.2259057
43,Полтавская улица,664020,52.3425745,104.2092099
26,Волгоградская улица,664020,52.3416515,104.2247560
1,улица Мира,664020,52.3372598,104.2323359
112,Почтамтская улица,664020,52.3464116,104.2077354
29,Вокзальная улица,664020,52.3397157,104.2076027
97,улица Красный Путь,664020,52.3450538,104.2104552
25 с1,улица Марии Ульяновой,664020,52.3427858,104.2284802
3/1,Волгоградская улица,664020,52.3374692,104.2299522
16,улица Мира,664020,52.3416500,104.2291539
13/3,улица Марии Ульяновой,664020,52.3408819,104.2239943
8/2,улица Муравьёва,664020,52.3463490,104.2171854
108А,Ленинградская улица,664020,52.3478868,104.2110212
35А,улица Академика Образцова,664020,52.3402405,104.2044071
93,улица Мира,664020,52.3482807,104.2157767
110,Почтамтская улица,664020,52.3461253,104.2076369
13,улица Муравьёва,664020,52.3471489,104.2164020
3,улица Сибирских Партизан,664020,52.3459221,104.2243218
8/3,улица Муравьёва,664020,52.3465812,104.2173684
36,улица Академика Образцова,664020,52.3405827,104.2053595
103,улица Мира,664020,52.3504157,104.2122158
118,Почтамтская улица,664020,52.3461540,104.2068127
26/7,улица Просвещения,664020,52.3482564,104.2246699
2,Гражданская улица,664020,52.3439734,104.2263436
63,Волгоградская улица,664020,52.3444703,104.2189630
12/5,улица Шпачека,664020,52.3417571,104.2236521
112,Волгоградская улица,664020,52.3482037,104.2148177
60,улица Мира,664020,52.3440488,104.2242161
88,Почтамтская улица,664020,52.3436273,104.2107862
2/2,улица Муравьёва,664020,52.3434374,104.2121470
110,Волгоградская улица,664020,52.3475548,104.2148437
114,Почтамтская улица,664020,52.3467797,104.2078609
90,Почтамтская улица,664020,52.3443647,104.2103164
26,улица Академика Образцова,664020,52.3390530,104.2075183
124,Почтамтская улица,664020,52.3474030,104.2047046
8/4,улица Муравьёва,664020,52.3467386,104.2177314
11,Вокзальная улица,664020,52.3369884,104.2119178
2А,улица Лазо,664020,52.3380299,104.2147935
122,Почтамтская улица,664020,52.3470799,104.2048825
34,улица Академика Образцова,664020,52.3402100,104.2059218
5/2,Деповский переулок,664020,52.3365261,104.2055921
25,Вокзальная улица,664020,52.3393301,104.2087402
130,Ленинградская улица,664020,52.3485164,104.2105789
57,Волгоградская улица,664020,52.3441171,104.2187856
26/6,улица Просвещения,664020,52.3480957,104.2249830
12/1,улица Шпачека,664020,52.3419523,104.2222428
14,улица Сибирских Партизан,664020,52.3479267,104.2226573
26/3,улица Просвещения,664020,52.3479909,104.2241229
115,Почтамтская улица,664020,52.3462280,104.2051493
93,Волгоградская улица,664020,52.3472898,104.2143798
3/2,улица Мира,664020,52.3390328,104.2302460
97,Волгоградская улица,664020,52.3484804,104.2123881
2/3,улица Муравьёва,664020,52.3438893,104.2122009
3,Украинская улица,664020,52.3483712,104.2254538
113,Почтамтская улица,664020,52.3462114,104.2057802
126,Почтамтская улица,664020,52.3476046,104.2050177
14,улица Мира,664020,52.3419703,104.2283369
47,Волгоградская улица,664002,52.3429211,104.2216162
12/9,улица Шпачека,664020,52.3415251,104.2223878
28,улица Просвещения,664020,52.3489940,104.2243780
82,улица Мира,664020,52.3459125,104.2211294
14,улица Просвещения,664020,52.3444128,104.2170146
8,Вокзальная улица,664020,52.3408313,104.2067702
10,улица Шпачека,664020,52.3416607,104.2217532
25А/3,улица Марии Ульяновой,664020,52.3430236,104.2276829
55,Волгоградская улица,664020,52.3441925,104.2193656
65,Ленинградская улица,664020,52.3456889,104.2129374
26/2,улица Просвещения,664020,52.3478038,104.2245145
8,улица Сибирских Партизан,664020,52.3469301,104.2239290
99,Почтамтская улица,664020,52.3456130,104.2067760
68,Ленинградская улица,664002,52.3433176,104.2190352
26,улица Просвещения,664020,52.3484109,104.2235691
105,Почтамтская улица,664020,52.3455058,104.2055419
2,улица Мира,664020,52.3376785,104.2335786
4,улица Сибирских Партизан,664020,52.3462091,104.2255932
77,Ленинградская улица,664020,52.3471453,104.2112787
109,Почтамтская улица,664020,52.3459029,104.2049209
5,улица Муравьёва,664020,52.3452063,104.2132679
83,улица Красный Путь,664020,52.3434337,104.2134784
53А,Волгоградская улица,664020,52.3439837,104.2196262
3А,Украинская улица,664020,52.3476902,104.2250167
108,Почтамтская улица,664020,52.3459005,104.2072413
22,улица Академика Образцова,664020,52.3383230,104.2084903
10,улица Сибирских Партизан,664020,52.3473264,104.2237099
2/5,улица Муравьёва,664020,52.3438716,104.2127072
1,улица Муравьёва,664020,52.3437633,104.2112633
108Б,Ленинградская улица,664020,52.3481443,104.2114475
29,улица Академика Образцова,664020,52.3390489,104.2062970
92,улица Мира,664020,52.3474094,104.2196493
7,улица Марии Ульяновой,664020,52.3391892,104.2225230
1,улица Маршала Жукова,664020,52.3453243,104.2246808
107,Почтамтская улица,664020,52.3457148,104.2061569
99,улица Мира,664020,52.3496131,104.2135464
106,Ленинградская улица,664020,52.3475191,104.2122330
1А,улица Сибирских Партизан,664020,52.3449839,104.2257034
16,улица Шпачека,664020,52.3428174,104.2237680
76,улица Красный Путь,664020,52.3449755,104.2122253
91,Ленинградская улица,664020,52.3478192,104.2102176
6,улица Сибирских Партизан,664020,52.3467997,104.2246120
9,улица Сибирских Партизан,664020,52.3472682,104.2212397
1А,Украинская улица,664020,52.3473123,104.2261445
65,Волгоградская улица,664020,52.3446381,104.2185430
25А,улица Марии Ульяновой,664020,52.3430384,104.2286849
70А,улица Красный Путь,664002,52.3442787,104.2136080
12,улица Марии Ульяновой,664020,52.3401769,104.2253129
74,Гражданская улица,664020,52.3524601,104.2121633
16,улица Авиастроителей,664020,52.3555690,104.2188826
16,улица Шишкина,664020,52.3561871,104.2161299
20,улица Шпачека,664020,52.3461412,104.2289790
24Г,улица Новаторов,664020,52.3595707,104.2147095
26,Пулковский переулок,664020,52.3537061,104.2234514
1,Куликовская улица,664020,52.3595400,104.2156219
22,улица Шпачека,664020,52.3463994,104.2293926
28,улица Сибирских Партизан,664020,52.3526422,104.2145741
28Б/3,улица Авиастроителей,664020,52.3575993,104.2191801
4,Украинская улица,664020,52.3499374,104.2241135
1А,Куликовская улица,664020,52.3585507,104.2155507
64,Гражданская улица,664020,52.3509930,104.2148970
48,Крымская улица,664020,52.3522664,104.2306241
124,улица Мира,664020,52.3513861,104.2130124
27А,Крымская улица,664020,52.3512650,104.2304140
18А,улица Шпачека,664020,52.3455510,104.2278381
28А,улица Авиастроителей,664020,52.3573394,104.2171091
16,улица Новаторов,664020,52.3543962,104.2119044
7,улица Шишкина,664020,52.3555056,104.2139717
2,Куликовская улица,664020,52.3597909,104.2164734
16,улица Муравьёва,664020,52.3498782,104.2218582
22,Алтайская улица,664020,52.3530337,104.2309798
9/3,улица Маршала Жукова,664020,52.3486633,104.2278429
28Б,улица Авиастроителей,664020,52.3572717,104.2193246
2,Украинская улица,664020,52.3496776,104.2246599
36,улица Демьяна Бедного,664020,52.3511209,104.2292939
128,Речная улица,664020,52.3558068,104.2262194
5,улица Шишкина,664020,52.3552548,104.2135609
6,Алтайская улица,664020,52.3524423,104.2323217
31,улица Новаторов,664020,52.3610651,104.2135323
17,улица Муравьёва,664020,52.3491207,104.2186855
9,Инженерная улица,664020,52.3545909,104.2219961
17,улица Кутузова,664020,52.3589755,104.2181466
25А,улица Шпачека,664020,52.3480442,104.2309296
33,улица Новаторов,664020,52.3616970,104.2135187
1,улица Шишкина,664020,52.3547617,104.2127405
31,Пулковский переулок,664020,52.3553467,104.2237406
32,улица Авиастроителей,664020,52.3583354,104.2137324
61,улица Авиастроителей,664020,52.3574342,104.2139813
8,Украинская улица,664020,52.3505832,104.2231269
9,Куликовская улица,664020,52.3618359,104.2158165
8,улица Шишкина,664020,52.3551944,104.2145369
9,Крымская улица,664020,52.3496030,104.2341038
9,улица Шишкина,664020,52.3558929,104.2145558
24,улица Шпачека,664020,52.3469621,104.2303196
10,Гравийная улица,664020,52.3606142,104.2116500
20,улица Новаторов,664020,52.3555130,104.2123045
19,улица Просвещения,664020,52.3519457,104.2283351
12,улица Маршала Жукова,664020,52.3473777,104.2288068
24/1,улица Новаторов,664020,52.3562601,104.2133839
8,улица Маршала Жукова,664020,52.3467281,104.2278690
18,улица Чекалина,664020,52.3602894,104.2178892
27,Пулковский переулок,664020,52.3549160,104.2244999
11 к1,улица Маршала Жукова,664020,52.3492749,104.2304421
23,улица Новаторов,664020,52.3603304,104.2124137
6,улица Шишкина,664020,52.3549879,104.2140696
22,Пулковский переулок,664020,52.3512277,104.2196901
17,улица Шпачека,664020,52.3465670,104.2283143
6,улица Юрия Смирнова,664020,52.3554962,104.2245163
14,Украинская улица,664020,52.3515998,104.2213666
23,улица Муравьёва,664020,52.3502133,104.2212972
28,улица Авиастроителей,664020,52.3570023,104.2162901
26,улица Шпачека,664020,52.3472421,104.2307481
20,Пулковский переулок,664020,52.3508782,104.2193593
32,Пулковский переулок,664020,52.3550905,104.2256283
21,улица Шпачека,664020,52.3474078,104.2296383
32,улица Шпачека,664020,52.3481893,104.2325498
21,улица Муравьёва,664020,52.3502142,104.2205441
15,Крымская улица,664020,52.3499459,104.2333391
3,Куликовская улица,664020,52.3607230,104.2162011
1 с4,улица Сибирских Партизан,664020,52.3440868,104.2288849
27А,улица Шпачека,664020,52.3485297,104.2310459
57,улица Авиастроителей,664020,52.3567800,104.2150490
42,Крымская улица,664020,52.3513371,104.2321472
13,Украинская улица,664020,52.3502494,104.2225864
26,улица Авиастроителей,664020,52.3564817,104.2172202
24Б,улица Новаторов,664020,52.3592672,104.2137659
19,улица Муравьёва,664020,52.3497124,104.2205579
38,Крымская улица,664020,52.3509961,104.2326808
29,Крымская улица,664020,52.3519201,104.2297186
4,улица Шишкина,664020,52.3546957,104.2137220
30,улица Сибирских Партизан,664020,52.3530651,104.2138747
17,Украинская улица,664020,52.3509934,104.2214024
50,Крымская улица,664020,52.3526420,104.2303836
7,улица Серафимовича,664020,52.3544335,104.2254611
20,улица Маршала Жукова,664020,52.3483416,104.2304012
31,улица Шпачека,664020,52.3489718,104.2322300
36,Крымская улица,664020,52.3506822,104.2331684
18,улица Муравьёва,664020,52.3509544,104.2235937
27,улица Просвещения,664020,52.3537729,104.2300307
9/2,улица Маршала Жукова,664020,52.3488671,104.2275035
24А,Пулковский переулок,664020,52.3532101,104.2226141
108,улица Мира,664020,52.3490939,104.2162112
16,улица Маршала Жукова,664020,52.3477558,104.2295517
22,улица Новаторов,664020,52.3561184,104.2123798
4А/1,улица Авиастроителей,664020,52.3510385,104.2265161
23,улица Шпачека,664020,52.3476723,104.2300862
27,улица Новаторов,664020,52.3607594,104.2126055
30,улица Шпачека,664020,52.3479814,104.2319585
21Б,улица Просвещения,664020,52.3529247,104.2286988
18,улица Маршала Жукова,664020,52.3479662,104.2298861
49,улица Новаторов,664020,52.3622843,104.2139732
18,улица Новаторов,664020,52.3549644,104.2119463
4,Инженерная улица,664020,52.3541644,104.2225079
40,улица Демьяна Бедного,664020,52.3522194,104.2276326
28,улица Шпачека,664020,52.3475174,104.2311944
32,улица Сибирских Партизан,664020,52.3537313,104.2131059
24,Пулковский переулок,664020,52.3523903,104.2213547
14,Гравийная улица,664020,52.3611224,104.2111744
100,улица Мира,664020,52.3481503,104.2171915
38,улица Демьяна Бедного,664020,52.3514818,104.2286703
12,улица Шишкина,664020,52.3556953,104.2153280
26,улица Демьяна Бедного,664020,52.3496456,104.2323689
15,улица Шпачека,664020,52.3462690,104.2279269
76,Гражданская улица,664020,52.3527431,104.2117207
18,улица Авиастроителей,664020,52.3554594,104.2204033
16,Украинская улица,664020,52.3519515,104.2207656
4,улица Макаренко,664020,52.3541362,104.2143365
31,Крымская улица,664020,52.3516089,104.2295560
14,улица Авиастроителей,664020,52.3551450,104.2191902
4,улица Серафимовича,664020,52.3537007,104.2252362
15А,Крымская улица,664020,52.3505428,104.2318462
15,Украинская улица,664020,52.3506669,104.2219314
26А,улица Новаторов,664020,52.3604262,104.2151693
46,Крымская улица,664020,52.3521525,104.2311766
9,улица Серафимовича,664020,52.3548541,104.2265197
33,улица Шпачека,664020,52.3493294,104.2337667
5,улица Серафимовича,664020,52.3539816,104.2247570
21,Украинская улица,664020,52.3512952,104.2208471
29,улица Шпачека,664020,52.3487911,104.2315870
47,улица Гражданска,664020,52.3519817,104.2120242
32,улица Просвещения,664020,52.3497368,104.2255974
18Б,улица Шпачека,664020,52.3457636,104.2282053
2А,Куликовская улица,664020,52.3591389,104.2161533
11,улица Маршала Жукова,664020,52.3488283,104.2299110
2,улица Серафимовича,664020,52.3532548,104.2245361
13,улица Сибирских Партизан,664020,52.3503838,104.2169511
33,Крымская улица,664020,52.3521691,104.2293215
66,Гражданская улица,664020,52.3521558,104.2130194
24,улица Авиастроителей,664020,52.3559010,104.2177564
100,улица Мира,664020,52.3486671,104.2173806
15,улица Сибирских Партизан,664020,52.3507802,104.2162915
20,Алтайская улица,664020,52.3528494,104.2312841
22,улица Авиастроителей,664020,52.3559920,104.2195060
11,Украинская улица,664020,52.3499374,104.2232595
1Б,Куликовская улица,664020,52.3585001,104.2176288
34,улица Шпачека,664020,52.3485501,104.2329137
29/1,Крымская улица,664020,52.3518746,104.2303735
3,улица Серафимовича,664020,52.3535275,104.2240106
19,улица Кутузова,664020,52.3593365,104.2172043
24,Алтайская улица,664020,52.3532644,104.2306104
6,Украинская улица,664020,52.3501882,104.2236567
24А,улица Новаторов,664020,52.3586917,104.2139774
26А,улица Авиастроителей,664020,52.3575007,104.2182520
17,улица Сибирских Партизан,664020,52.3511864,104.2156202
2,Алтайская улица,664020,52.3513857,104.2341095
12,Гравийная улица,664020,52.3608001,104.2107269
8,Куликовская улица,664020,52.3611163,104.2176092
10,Куликовская улица,664020,52.3617907,104.2174533
100А,улица Мира,664020,52.3485511,104.2179977
28А,улица Авиастроителей,664020,52.3577435,104.2169822
2,улица Шишкина,664020,52.3544423,104.2133240
21,Пулковский переулок,664020,52.3535019,104.2222968
30,Крымская улица,664020,52.3502480,104.2340830
28А,улица Сибирских Партизан,664020,52.3531804,104.2160977
63,улица Авиастроителей,664020,52.3577581,104.2134559
4,улица Маршала Жукова,664020,52.3463108,104.2271818
3А,Куликовская улица,664020,52.3608696,104.2154153
4А,улица Авиастроителей,664020,52.3517058,104.2274166
23,Украинская улица,664020,52.3516362,104.2202624
25,Крымская улица,664020,52.3512669,104.2311025
25,Пулковский переулок,664020,52.3544468,104.2237503
7,Куликовская улица,664020,52.3619585,104.2167672
16А,улица Авиастроителей,664020,52.3556353,104.2185137
14,улица Маршала Жукова,664020,52.3475527,104.2292164
23,улица Сибирских Партизан,664020,52.3531222,104.2124255
20,улица Авиастроителей,664020,52.3557349,104.2199845
116,улица Мира,664020,52.3499846,104.2151183
24,улица Новаторов,664020,52.3568558,104.2131333
22А,улица Шпачека,664020,52.3467477,104.2297866
2,улица Сибирских Партизан,664020,52.3449784,104.2272148
6,улица Макаренко,664020,52.3549692,104.2161467
14,улица Муравьёва,664020,52.3493752,104.2219264
20,улица Чекалина,664020,52.3610017,104.2182962
19,улица Шпачека,664020,52.3468379,104.2287650
55,улица Авиастроителей,664020,52.3564772,104.2154766
4,Куликовская улица,664020,52.3602890,104.2166501
29,Пулковский переулок,664020,52.3553519,104.2251735
18,Пулковский переулок,664020,52.3506704,104.2188153
16,улица Чекалина,664020,52.3597442,104.2173811
6,улица Серафимовича,664020,52.3541650,104.2259340
24,улица Демьяна Бедного,664020,52.3493443,104.2327784
18,улица Сибирских Партизан,664020,52.3489020,104.2207897
28,улица Демьяна Бедного,664020,52.3498426,104.2319570
19,Украинская улица,664020,52.3507563,104.2205067
30,улица Просвещения,664020,52.3492062,104.2252630
13,улица Просвещения,664020,52.3489174,104.2231413
1 с1,улица Сибирских Партизан,664020,52.3446858,104.2280581
24,улица Сибирских Партизан,664020,52.3519658,104.2156483
7,Алтайская улица,664020,52.3509648,104.2338264
59,улица Авиастроителей,664020,52.3571504,104.2145175
5,Крымская улица,664020,52.3492559,104.2347213
18,Алтайская улица,664020,52.3526400,104.2316291
22,улица Демьяна Бедного,664020,52.3488433,104.2336188
30А,улица Авиастроителей,664020,52.3582490,104.2145422
26,улица Сибирских Партизан,664020,52.3524282,104.2152656
20,улица Муравьёва,664020,52.3512514,104.2239001
32А,улица Шпачека,664020,52.3482913,104.2328821
23,улица Просвещения,664020,52.3532198,104.2291201
36,улица Просвещения,664020,52.3510919,104.2276257
10,улица Шишкина,664020,52.3554493,104.2149214
25,улица Шпачека,664020,52.3479052,104.2305334
11А,улица Сибирских Партизан,664020,52.3497254,104.2179579
4,Алтайская улица,664020,52.3519275,104.2331869
21,улица Сибирских Партизан,664020,52.3526184,104.2133160
21А,улица Просвещения,664020,52.3526410,104.2282934
30,улица Демьяна Бедного,664020,52.3500980,104.2315150
29,улица Новаторов,664020,52.3613747,104.2126434
25,улица Просвещения,664020,52.3535291,104.2296360
10,Украинская улица,664020,52.3509460,104.2223699
33,Пулковский переулок,664020,52.3548737,104.2229581
12,Украинская улица,664020,52.3512970,104.2218623
6,улица Маршала Жукова,664020,52.3465178,104.2275219
34,улица Просвещения,664020,52.3496256,104.2264751
25,улица Муравьёва,664020,52.3512874,104.2229839
12,улица Муравьёва,664020,52.3494122,104.2211244
14,улица Шишкина,664020,52.3559346,104.2157103
10,улица Маршала Жукова,664020,52.3469270,104.2281947
16,улица Сибирских Партизан,664020,52.3481424,104.2221198
8,улица Серафимовича,664020,52.3545629,104.2260239
27,улица Демьяна Бедного,664020,52.3508917,104.2284996
18,улица Шпачека,664020,52.3458667,104.2285446
3,улица Шишкина,664020,52.3550214,104.2131883
9,Украинская улица,664020,52.3496730,104.2237164
25,улица Демьяна Бедного,664020,52.3503155,104.2288334
6,Куликовская улица,664020,52.3606443,104.2170215
28,Крымская улица,664020,52.3497795,104.2347878
38,улица Просвещения,664020,52.3518059,104.2287824
19,улица Сибирских Партизан,664020,52.3516056,104.2140617
23,Пулковский переулок,664020,52.3539995,104.2230392
3/1,Инженерная улица,664020,52.3538623,104.2221473
7,Украинская улица,664020,52.3493418,104.2241498
9,улица Маршала Жукова,664020,52.3482557,104.2277936
245,Байкальская улица,664075,52.2568649,104.3417240
253,Байкальская улица,664050,52.2550263,104.3525932
147,Байкальская улица,664081,52.2613089,104.3189221
141,Байкальская улица,664081,52.2617425,104.3177916
207,Байкальская улица,664075,52.2555275,104.3373381
205,Байкальская улица,664075,52.2557135,104.3367784
203,Байкальская улица,664075,52.2559020,104.3362283
244В,Байкальская улица,664075,52.2556790,104.3326419
201А,Байкальская улица,664075,52.2564458,104.3338396
201,Байкальская улица,664075,52.2561124,104.3348561
106,Байкальская улица,664022,52.2670247,104.3086863
57,улица Лебедева-Кумача,664022,52.2675267,104.3060870
46,улица Пискунова,664022,52.2679004,104.3069225
59,улица Лебедева-Кумача,664022,52.2670701,104.3064974
97,улица Седова,664022,52.2661423,104.3073062
102,Байкальская улица,664022,52.2673286,104.3074590
94,Байкальская улица,664022,52.2679809,104.3075471
95,улица Седова,664022,52.2666004,104.3069291
44,улица Пискунова,664022,52.2679017,104.3063908
104,Байкальская улица,664022,52.2678379,104.3082045
96,Байкальская улица,664022,52.2669641,104.3078941
3,Волжская улица,664046,52.2644683,104.3131203
3А,Волжская улица,664046,52.2643820,104.3134941
1,Волжская улица,664046,52.2643757,104.3124280
121,Байкальская улица,664046,52.2644938,104.3114200
249,улица Карла Либкнехта,664081,52.2610553,104.3218028
247,улица Карла Либкнехта,664081,52.2616415,104.3214652
131,Байкальская улица,664046,52.2625837,104.3166004
199,Байкальская улица,664075,52.2567952,104.3358791
215,Байкальская улица,664075,52.2575711,104.3394705
217,Байкальская улица,664075,52.2578918,104.3397694
211,Байкальская улица,664075,52.2569335,104.3388765
213,Байкальская улица,664075,52.2572478,104.3391693
219,Байкальская улица,664075,52.2583211,104.3401081
221,Байкальская улица,664075,52.2577992,104.3412781
14,улица Степана Разина,664025,52.2850072,104.2734930
12/2,улица Степана Разина,664025,52.2852146,104.2727906
12,улица Степана Разина,664025,52.2853769,104.2732465
12/1,улица Степана Разина,664025,52.2851191,104.2724906
18,улица Безбокова,664056,52.2319143,104.3123987
20,улица Безбокова,664056,52.2319868,104.3118987
22,улица Безбокова,664056,52.2320582,104.3114063
12,улица Безбокова,664056,52.2317223,104.3137231
14,улица Безбокова,664056,52.2317946,104.3132237
10,улица Безбокова,664056,52.2316974,104.3144281
13,улица Франк-Каменецкого,664026,52.2928011,104.2928091
16А,улица Франк-Каменецкого,664007,52.2906780,104.2963542
20,Российская улица,664025,52.2866334,104.2790358
1,улица Канадзавы,664025,52.2854648,104.2784328
11 к2,улица Ленина,664003,52.2807552,104.2829048
8А,улица Пушкина,664005,52.2851017,104.2520843
2,улица Гоголя,664005,52.2864540,104.2494099
239,улица Баумана,664048,52.3445367,104.1580813
2А,улица Ивана Франко,664074,52.2587124,104.2704055
8/1,улица Академика Курчатова,664074,52.2583858,104.2651930
4,улица Ивана Франко,664074,52.2584899,104.2700814
2,улица Академика Курчатова,664074,52.2581039,104.2698509
12,улица Ивана Франко,664074,52.2580770,104.2682217
6,улица Академика Курчатова,664074,52.2577017,104.2679615
8,улица Ивана Франко,664074,52.2582973,104.2692767
2,улица Ивана Франко,664074,52.2588222,104.2703269
6,улица Ивана Франко,664074,52.2586430,104.2695516
10,улица Ивана Франко,664074,52.2584826,104.2686044
6А,улица Академика Курчатова,664074,52.2582651,104.2676589
8А,улица Академика Курчатова,664074,52.2587156,104.2652246
4,улица Академика Курчатова,664074,52.2579678,104.2688715
9А,улица Академика Курчатова,664074,52.2580373,104.2638730
6,улица Салацкого,664056,52.2328731,104.3094934
13,улица Гидростроителей,664056,52.2324139,104.3122858
16,улица Безбокова,664056,52.2321350,104.3129064
15,улица Гидростроителей,664056,52.2326290,104.3129207
8,улица Безбокова,664056,52.2323344,104.3152319
5,улица Бочкина,664056,52.2325915,104.3140096
11,улица Бочкина,664056,52.2333110,104.3134200
13,улица Бочкина,664056,52.2335276,104.3129259
1,улица Бочкина,664056,52.2326746,104.3147352
7,улица Бочкина,664056,52.2330654,104.3138966
3,улица Бочкина,664056,52.2328611,104.3143408
6А,улица Безбокова,664056,52.2325443,104.3156052
17,улица Гидростроителей,664056,52.2329134,104.3132748
6,улица Безбокова,664056,52.2328150,104.3157872
7,улица Крупской,664056,52.2331994,104.3147853
2,улица Бочкина,664056,52.2330226,104.3151572
3,улица Крупской,664056,52.2336196,104.3153092
5,улица Крупской,664056,52.2333924,104.3150251
1,улица Крупской,664056,52.2338013,104.3157832
218,Севастопольская улица,664048,52.3527674,104.1571760
255,улица Розы Люксембург,664048,52.3526053,104.1635200
249,Севастопольская улица,664048,52.3516455,104.1594839
229,улица Розы Люксембург,664048,52.3507393,104.1681402
259,улица Розы Люксембург,664048,52.3537956,104.1624298
241,улица Розы Люксембург,664048,52.3523325,104.1653440
263,улица Розы Люксембург,664048,52.3530835,104.1618403
245,Севастопольская улица,664048,52.3502563,104.1609798
237А,Севастопольская улица,664048,52.3497902,104.1654601
267,улица Розы Люксембург,664048,52.3542222,104.1615997
225,улица Розы Люксембург,664048,52.3515116,104.1693724
285,улица Розы Люксембург,664048,52.3536811,104.1573542
235,улица Розы Люксембург,664048,52.3513934,104.1670494
237,улица Розы Люксембург,664048,52.3515765,104.1664763
253,Севастопольская улица,664048,52.3516161,104.1580874
271,улица Розы Люксембург,664048,52.3545248,104.1599791
212,улица Баумана,664048,52.3509687,104.1559615
227,улица Розы Люксембург,664048,52.3509694,104.1694448
247,Севастопольская улица,664048,52.3509741,104.1606470
233,улица Розы Люксембург,664048,52.3518150,104.1681892
251,улица Розы Люксембург,664048,52.3533681,104.1641337
210,улица Баумана,664048,52.3507115,104.1570708
257,улица Розы Люксембург,664048,52.3521891,104.1635868
206,улица Баумана,664048,52.3491166,104.1621506
231,улица Розы Люксембург,664048,52.3521351,104.1686958
285А,улица Розы Люксембург,664048,52.3540595,104.1574938
239А,Севастопольская улица,664048,52.3506938,104.1630203
243,Севастопольская улица,664048,52.3496698,104.1619299
251,Севастопольская улица,664048,52.3515445,104.1586704
257,Севастопольская улица,664048,52.3520537,104.1564325
243,улица Розы Люксембург,664048,52.3525085,104.1673926
239,Севастопольская улица,664048,52.3503566,104.1624831
287,улица Розы Люксембург,664048,52.3540728,104.1583916
265,улица Розы Люксембург,664048,52.3528524,104.1612198
247А,Севастопольская улица,664048,52.3506479,104.1601437
253,улица Розы Люксембург,664048,52.3529367,104.1637852
204,улица Баумана,664048,52.3485832,104.1642410
243А,Севастопольская улица,664048,52.3496835,104.1634571
247,улица Розы Люксембург,664048,52.3530796,104.1655170
216,Севастопольская улица,664048,52.3511510,104.1644118
237,Севастопольская улица,664048,52.3495846,104.1648643
241,Севастопольская улица,664048,52.3500091,104.1622268
202,улица Баумана,664048,52.3484194,104.1662031
204А,улица Баумана,664048,52.3492106,104.1642770
235,Севастопольская улица,664048,52.3490841,104.1662112
255,Севастопольская улица,664048,52.3516630,104.1574811
245,улица Розы Люксембург,664048,52.3526871,104.1666467
269,улица Розы Люксембург,664048,52.3543310,104.1607035
273,улица Розы Люксембург,664048,52.3547186,104.1592543
275,улица Розы Люксембург,664048,52.3545641,104.1579837
210А,улица Баумана,664048,52.3509676,104.1576546
277,улица Розы Люксембург,664048,52.3535684,104.1609674
261,улица Розы Люксембург,664048,52.3534265,104.1621268
4,улица Крупской,664056,52.2338164,104.3148936
6,улица Гидростроителей,664056,52.2339168,104.3125339
2,улица Крупской,664056,52.2341427,104.3150587
1,улица Ангаргэсстроя,664056,52.2344899,104.3143431
6,улица Бочкина,664056,52.2338622,104.3133486
3,улица Гидростроителей,664056,52.2340425,104.3135380
1,улица Гидростроителей,664056,52.2342625,104.3138355
4,улица Бочкина,664056,52.2336309,104.3138354
8,улица Крупской,664056,52.2334165,104.3143220
6,улица Крупской,664056,52.2335930,104.3146086
2,улица Безбокова,664056,52.2333654,104.3165075
9,улица Гидростроителей,664056,52.2327088,104.3119084
11,улица Гидростроителей,664056,52.2324477,104.3115756
7,улица Гидростроителей,664056,52.2330293,104.3122655
333А,улица Розы Люксембург,664053,52.3568397,104.1437779
325,улица Розы Люксембург,664053,52.3572987,104.1465190
331,улица Розы Люксембург,664053,52.3572773,104.1454683
353,улица Розы Люксембург,664053,52.3588458,104.1454057
273А/3,улица Розы Люксембург,664048,52.3550439,104.1579921
293,улица Розы Люксембург,664048,52.3550087,104.1553673
289/3,улица Розы Люксембург,664053,52.3534030,104.1558002
347,улица Розы Люксембург,664053,52.3577066,104.1474979
343,улица Розы Люксембург,664053,52.3586258,104.1424175
305,улица Розы Люксембург,664053,52.3557159,104.1511971
341,улица Розы Люксембург,664053,52.3578618,104.1426251
297,улица Розы Люксембург,664053,52.3554512,104.1533829
291,улица Розы Люксембург,664053,52.3549594,104.1536566
299,улица Розы Люксембург,664053,52.3549840,104.1521733
214/6,улица Баумана,664048,52.3529893,104.1535442
325А,улица Розы Люксембург,664053,52.3567804,104.1469031
256,улица Баумана,664053,52.3566288,104.1417022
214/3,улица Баумана,664048,52.3526401,104.1527184
317,улица Розы Люксембург,664053,52.3564181,104.1495608
337,улица Розы Люксембург,664053,52.3584415,104.1447105
333,улица Розы Люксембург,664053,52.3575203,104.1440524
341А,улица Розы Люксембург,664053,52.3573861,104.1420380
351,улица Розы Люксембург,664053,52.3585595,104.1470105
349,улица Розы Люксембург,664053,52.3581054,104.1479778
313,улица Розы Люксембург,664053,52.3568650,104.1505031
319,улица Розы Люксембург,664053,52.3560650,104.1505660
327,улица Розы Люксембург,664053,52.3580910,104.1467320
309А,улица Розы Люксембург,664053,52.3569791,104.1524773
345,улица Розы Люксембург,664053,52.3589424,104.1437417
273А,улица Розы Люксембург,664048,52.3550798,104.1586870
339,улица Розы Люксембург,664053,52.3582294,104.1434074
273А/4,улица Розы Люксембург,664048,52.3548732,104.1578172
355,улица Розы Люксембург,664053,52.3593959,104.1442162
301,улица Розы Люксембург,664053,52.3542932,104.1522146
216А,улица Баумана,664048,52.3539019,104.1539183
315,улица Розы Люксембург,664053,52.3571037,104.1493196
214/1,улица Баумана,664048,52.3523179,104.1538170
264,улица Баумана,664053,52.3563819,104.1406246
311,улица Розы Люксембург,664053,52.3561396,104.1516252
319Б,улица Розы Люксембург,664053,52.3560605,104.1507974
335,улица Розы Люксембург,664053,52.3579213,104.1443783
216/1,улица Баумана,664048,52.3535648,104.1536383
309Б,улица Розы Люксембург,664053,52.3572976,104.1513074
273А/2,улица Розы Люксембург,664048,52.3552271,104.1581893
323,улица Розы Люксембург,664053,52.3576219,104.1506623
214/2,улица Баумана,664048,52.3520160,104.1528929
329,улица Розы Люксембург,664053,52.3579753,104.1457674
309,улица Розы Люксембург,664053,52.3566830,104.1517281
289/2,улица Розы Люксембург,664053,52.3539185,104.1563502
216/2,улица Баумана,664048,52.3541704,104.1545781
307,улица Розы Люксембург,664053,52.3559504,104.1526384
240/4,улица Баумана,664053,52.3542433,104.1455229
244,улица Баумана,664053,52.3549156,104.1454093
218,улица Баумана,664053,52.3526334,104.1508527
262,улица Баумана,664053,52.3557907,104.1408969
238,улица Баумана,664053,52.3549111,104.1464080
234,улица Баумана,664053,52.3544174,104.1470662
230,улица Баумана,664053,52.3541978,104.1481827
240/5,улица Баумана,664053,52.3544490,104.1453873
240/1,улица Баумана,664053,52.3544568,104.1461004
240/3,улица Баумана,664053,52.3540461,104.1461927
242,улица Баумана,664053,52.3554811,104.1450330
252,улица Баумана,664053,52.3557198,104.1424576
216,улица Баумана,664053,52.3530150,104.1520417
226,улица Баумана,664053,52.3531566,104.1495220
250,улица Баумана,664053,52.3548858,104.1434967
232,улица Баумана,664053,52.3546086,104.1482824
246,улица Баумана,664053,52.3547003,104.1446705
258,улица Баумана,664053,52.3561412,104.1416712
228,улица Баумана,664053,52.3535932,104.1486886
236,улица Баумана,664053,52.3538194,104.1475454
248,улица Баумана,664053,52.3553163,104.1436042
260,улица Баумана,664053,52.3553563,104.1419361
254,улица Баумана,664053,52.3559973,104.1437835
222,улица Баумана,664053,52.3536797,104.1513348
240/2,улица Баумана,664053,52.3541858,104.1458729
220,улица Баумана,664053,52.3531610,104.1509670
14,улица Чкалова,664025,52.2873157,104.2733583
219А,улица Розы Люксембург,664040,52.3506253,104.1722379
221,улица Розы Люксембург,664040,52.3501412,104.1719606
223А,улица Розы Люксембург,664040,52.3510832,104.1720516
217,улица Розы Люксембург,664040,52.3494870,104.1739919
215,улица Розы Люксембург,664040,52.3493564,104.1759416
219,улица Розы Люксембург,664040,52.3491303,104.1731704
223,улица Розы Люксембург,664040,52.3506282,104.1712907
217А,улица Розы Люксембург,664040,52.3503836,104.1739677
229/1,улица Баумана,664048,52.3492483,104.1575128
229/7,улица Баумана,664048,52.3488981,104.1563075
231/7,улица Баумана,664048,52.3497810,104.1557232
231/5,улица Баумана,664048,52.3495428,104.1556999
231/8,улица Баумана,664048,52.3498837,104.1553761
229/3,улица Баумана,664048,52.3495347,104.1567128
229/5,улица Баумана,664048,52.3493386,104.1565839
229/2,улица Баумана,664048,52.3493515,104.1571775
229/6,улица Баумана,664048,52.3491081,104.1564804
231/9,улица Баумана,664048,52.3499890,104.1550283
36,улица Тельмана,664013,52.3332296,104.2028181
7,улица Ледовского,664013,52.3392192,104.2022841
7,улица Ледовского,664013,52.3391673,104.2017891
7,улица Ледовского,664013,52.3387984,104.2017584
36А,улица Тельмана,664013,52.3323781,104.2040079
14,улица Карла Маркса,664003,52.2776852,104.2813022
219/2,улица Павла Красильникова,664040,52.3486388,104.1709797
219,улица Павла Красильникова,664040,52.3484539,104.1717034
188,улица Павла Красильникова,664040,52.3492022,104.1708127
219/1,улица Павла Красильникова,664040,52.3485209,104.1713107
219/3,улица Павла Красильникова,664040,52.3482323,104.1712810
180,улица Павла Красильникова,664040,52.3482731,104.1739367
207,улица Пржевальского,664040,52.3495014,104.1719899
184,улица Павла Красильникова,664040,52.3484566,104.1733176
219Б,улица Розы Люксембург,664040,52.3507893,104.1724395
217А,улица Павла Красильникова,664040,52.3477671,104.1705763
186,улица Павла Красильникова,664040,52.3485264,104.1730048
178,улица Павла Красильникова,664040,52.3482089,104.1741796
217,улица Павла Красильникова,664040,52.3480382,104.1707426
182,улица Павла Красильникова,664040,52.3483390,104.1736555
219/2,улица Розы Люксембург,664040,52.3509835,104.1725399
182Ж/1,улица Розы Люксембург,664040,52.3569313,104.1629469
58,улица Миронова,664074,52.2624556,104.2538668
100,улица Мира,664020,52.3479681,104.2178078
46,Гражданская улица,664020,52.3493346,104.2174333
22,улица Сибирских Партизан,664020,52.3507423,104.2176422
22,улица Сибирских Партизан,664020,52.3511791,104.2169078
22,улица Сибирских Партизан,664020,52.3516185,104.2161810
64,улица Мира,664002,52.3455013,104.2229522
94,улица Мира,664020,52.3476541,104.2189313
64,улица Мира,664002,52.3453771,104.2224682
64,улица Мира,664002,52.3453316,104.2226805
9А,улица Сибирских Партизан,664020,52.3467330,104.2218810
64,улица Мира,664002,52.3451636,104.2224116
184/14,улица Розы Люксембург,664040,52.3584026,104.1544535
184/10,улица Розы Люксембург,664040,52.3594481,104.1545043
186,улица Розы Люксембург,664053,52.3572003,104.1588875
7/2,улица Мичурина,664013,52.3293265,104.1970268
7/1,улица Мичурина,664013,52.3295829,104.1969653
8,улица 5-й Армии,664025,52.2854906,104.2705463
2А/1,Рабочая улица,664011,52.2896549,104.2836432
5,улица Сухэ-Батора,664011,52.2887611,104.2828410
2А,Рабочая улица,664011,52.2888979,104.2837576
3,улица Некрасова,664011,52.2890822,104.2841467
2А,Рабочая улица,664011,52.2886673,104.2834100
2А/3,Рабочая улица,664011,52.2893245,104.2834852
2,улица Некрасова,664011,52.2882766,104.2831051
7Б,улица Сухэ-Батора,664011,52.2880077,104.2826505
1,улица Желябова,664011,52.2870993,104.2828226
7А,улица Сухэ-Батора,664011,52.2879073,104.2830531
4,Кооперативный переулок,664011,52.2877919,104.2839173
2,Кооперативный переулок,664011,52.2880615,104.2836117
7В,улица Сухэ-Батора,664011,52.2880330,104.2829275
1,улица Сухэ-Батора,664011,52.2904408,104.2824604
10,улица Кожова,664022,52.2706199,104.2864275
4,улица Некрасова,664011,52.2885061,104.2840063
184 к1,улица Розы Люксембург,664040,52.3592109,104.1556698
198,улица Розы Люксембург,664040,52.3618171,104.1495184
198Б,улица Розы Люксембург,664040,52.3623731,104.1504637
198В,улица Розы Люксембург,664040,52.3629043,104.1510479
49,улица Карла Маркса,664007,52.2905712,104.2946941
23,улица Карла Либкнехта,664011,52.2865281,104.2966789
12А,улица Октябрьской Революции,664007,52.2900571,104.3003961
6,бульвар Постышева,664046,52.2593487,104.3120104
122,Байкальская улица,664046,52.2634383,104.3096386
120,Байкальская улица,664046,52.2638513,104.3103128
118А,Байкальская улица,664046,52.2638768,104.3086865
18А,бульвар Постышева,664022,52.2562741,104.3153260
23А,улица Карла Маркса,664003,52.2834693,104.2863327
20,улица Сибирских Партизан,664020,52.3498850,104.2191797
16 с1,улица Литвинова,664003,52.2815584,104.2931134
38,улица Ленина,664003,52.2799730,104.2820625
11,улица Горького,664025,52.2820899,104.2794696
8Б,Красноармейская улица,664003,52.2790881,104.2845439
17,улица Ленина,664003,52.2790055,104.2841409
13А,улица Ленина,664003,52.2797255,104.2834256
4,Красноармейская улица,664003,52.2800005,104.2839947
15,улица Ленина,664003,52.2793373,104.2835845
13,улица Ленина,664003,52.2799790,104.2832807
22,улица Карла Маркса,664003,52.2803851,104.2833188
3,Советская улица,664047,52.2769811,104.3039227
4,улица Урицкого,664003,52.2842937,104.2893481
2,улица Урицкого,664003,52.2848822,104.2890154
18,улица Сухэ-Батора,664003,52.2831668,104.2855660
13,Ямская улица,664007,52.2804116,104.3061396
44А,улица Омулевского,664023,52.2745796,104.3259486
57/1,4-я Советская улица,664023,52.2750493,104.3252225
82,улица Трилиссера,664023,52.2758358,104.3262205
44,улица Омулевского,664023,52.2751993,104.3260698
49,улица Омулевского,664023,52.2746587,104.3291696
239А,улица Карла Либкнехта,664081,52.2645222,104.3198397
147,улица Пискунова,664023,52.2733193,104.3391706
151,улица Пискунова,664023,52.2740099,104.3392026
1,переулок 8 Марта,664011,52.2856000,104.2932957
13,улица Ширямова,664009,52.2729239,104.3558777
13,улица Ширямова,664009,52.2734432,104.3544622
74А,улица Декабрьских Событий,664007,52.2859749,104.3024214
102,улица Красных Мадьяр,664047,52.2765024,104.3173477
98,Советская улица,664047,52.2783730,104.3172333
38,Депутатская улица,664047,52.2732423,104.3207694
27,улица 25 Октября,664022,52.2720123,104.2993308
1А,Академическая улица,664017,52.2344984,104.2823857
87,улица Варламова,664017,52.2297030,104.2798885
89,улица Варламова,664017,52.2297894,104.2803978
3/3,улица Академика Курчатова,664074,52.2569079,104.2704346
12/3,улица Мамина-Сибиряка,664058,52.2616252,104.2337055
12/4,улица Мамина-Сибиряка,664058,52.2616230,104.2333539
12/1,улица Мамина-Сибиряка,664058,52.2616302,104.2344567
12/2,улица Мамина-Сибиряка,664058,52.2616279,104.2340945
2,улица Мамина-Сибиряка,664058,52.2629285,104.2339946
4,улица Мамина-Сибиряка,664058,52.2627404,104.2340007
8А/1,бульвар Рябикова,664043,52.2648086,104.2063930
11 к4,улица Ленина,664003,52.2818056,104.2828558
22,Академическая улица,664017,52.2347251,104.2912256
10А,улица Геологов,664017,52.2340165,104.2915718
24,Академическая улица,664017,52.2343056,104.2926161
39,улица Свердлова,664011,52.2874339,104.2880044
13,Пролетарская улица,664011,52.2875885,104.2871801
8,улица Желябова,664011,52.2888031,104.2894458
10,Пролетарская улица,664011,52.2873822,104.2856000
41,улица Свердлова,664011,52.2881837,104.2881719
7Б,Пролетарская улица,664011,52.2893259,104.2854023
6,улица Желябова,664011,52.2871629,104.2850303
9,улица Желябова,664011,52.2889456,104.2876362
6,улица Некрасова,664011,52.2892447,104.2858997
3Б,Советская улица,664047,52.2773470,104.3034579
69,Байкальская улица,664047,52.2746106,104.3048839
126/4,Байкальская улица,664046,52.2631018,104.3118837
36,Партизанская улица,664007,52.2793145,104.3024996
9,улица Ширямова,664009,52.2751459,104.3570572
2А,улица Можайского,664009,52.2749708,104.3594896
13А,улица Ширямова,664009,52.2739878,104.3572334
11,улица Ширямова,664009,52.2746649,104.3571282
41/1,улица Карла Маркса,664011,52.2886549,104.2925215
47,улица Карла Маркса,664007,52.2900918,104.2940007
21,улица Декабрьских Событий,664007,52.2909575,104.2926362
25А,улица Декабрьских Событий,664007,52.2905650,104.2940373
6,переулок МОПРа,664007,52.2916783,104.2939351
43,улица Карла Маркса,664007,52.2890822,104.2930668
109/2,Советская улица,664009,52.2804461,104.3409475
40,улица Лызина,664009,52.2810643,104.3315719
20/4,Красногвардейская улица,664007,52.2876809,104.3098155
22/1,Красногвардейская улица,664007,52.2878841,104.3101324
53/1,Ямская улица,664007,52.2854779,104.3117754
19,улица Иосифа Уткина,664007,52.2864318,104.3103444
20/3,Красногвардейская улица,664007,52.2875186,104.3096339
24,Красногвардейская улица,664007,52.2882711,104.3106223
36,улица Иосифа Уткина,664007,52.2864675,104.3111295
23,улица Иосифа Уткина,664007,52.2874493,104.3109291
21,улица Иосифа Уткина,664007,52.2870654,104.3110923
17,улица Рабочего Штаба,664035,52.3028961,104.2978335
15,улица Рабочего Штаба,664035,52.3024131,104.2972901
22,Ангарская улица,664035,52.3023792,104.2942274
26Б/1,улица Сурнова,664035,52.3110041,104.2912050
26/1,улица Сурнова,664035,52.3104179,104.2907767
4,Мельничная улица,664035,52.3129302,104.2976155
18,улица Поленова,664009,52.2845301,104.3180785
153Б,улица Баррикад,664019,52.2922858,104.3402883
27 с3,Курортная улица,664019,52.2900079,104.3580559
6/1,улица Глеба Успенского,665035,52.3118200,104.3019081
3/1,переулок Трубецкого,664035,52.3025760,104.2997381
1,переулок Трубецкого,664035,52.3025649,104.2991825
10,улица Рабочего Штаба,664035,52.3025561,104.2988193
4,Угольный проезд,664009,52.2823687,104.3309746
60,Угольный проезд,664009,52.2828733,104.3396379
2А,Угольный проезд,664009,52.2823524,104.3301817
49,улица Омулевского,664023,52.2731529,104.3287817
2,Лесопильный переулок,664009,52.2823611,104.3336460
4,Плодовоягодный проезд,664009,52.2835160,104.3315962
2,Плодовоягодный проезд,664009,52.2837480,104.3315243
6,Плодовоягодный проезд,664009,52.2833191,104.3316480
28,Угольный проезд,664009,52.2824787,104.3331374
9А,Лесопильный переулок,664009,52.2827731,104.3387947
119А,Советская улица,664009,52.2809922,104.3460702
137,Советская улица,664009,52.2811176,104.3534052
2,Угольный проезд,664009,52.2823633,104.3306062
12,Лесопильный переулок,664009,52.2820934,104.3340318
8,Угольный проезд,664009,52.2824114,104.3314464
11Б,Красноярская улица,664009,52.2830673,104.3303781
58,Угольный проезд,664009,52.2828540,104.3392483
30,Угольный проезд,664009,52.2824982,104.3334359
11А,Красноярская улица,664009,52.2827690,104.3303958
8,Плодовоягодный проезд,664009,52.2831599,104.3316763
32,Угольный проезд,664009,52.2825386,104.3339466
10,Плодовоягодный проезд,664009,52.2829911,104.3317596
236Б/1,Байкальская улица,664075,52.2521109,104.3259931
236Б/2,Байкальская улица,664075,52.2524197,104.3262287
5,улица 5-й Армии,664025,52.2879643,104.2684580
23,улица Сурикова,664011,52.2906367,104.2757757
4/1,улица Можайского,664009,52.2728417,104.3599357
4/3,улица Можайского,664009,52.2728548,104.3609491
19А,улица Помяловского,664017,52.2361473,104.2728643
5,улица Калинина,664017,52.2355781,104.2738291
35,улица Гоголя,664005,52.2799127,104.2544539
13,Пролетарская улица,664011,52.2878359,104.2876802
2/3,улица Генерала Доватора,664014,52.3298741,104.2397089
72,улица Ломоносова,664074,52.2664140,104.2595412
281/1,улица Лермонтова,664033,52.2468758,104.2702862
281/2,улица Лермонтова,664033,52.2469838,104.2707122
281/3,улица Лермонтова,664033,52.2470863,104.2711070
7А,улица Чкалова,664025,52.2861430,104.2700645
1/2,Цимлянская улица,664046,52.2588618,104.3156083
10/1,бульвар Постышева,664046,52.2592958,104.3143843
48,4-я Советская улица,664047,52.2701548,104.3092294
22,улица Чехова,664003,52.2828575,104.2957381
29,улица Тимирязева,664003,52.2824540,104.2965420
26,улица Чехова,664003,52.2827875,104.2968843
17,улица Литвинова,664003,52.2821026,104.2947430
22/1,улица Чехова,664003,52.2832957,104.2949898
5,Краснофлотский переулок,664025,52.2851646,104.2702649
60Д,улица Баррикад,664019,52.2902130,104.3368238
60Д/1,улица Баррикад,664019,52.2899365,104.3366477
42,улица Горького,664003,52.2854140,104.2884552
31,улица Лыткина,664047,52.2678541,104.3169972
18/15,Трактовая улица,664024,52.3166910,104.2354373
268Б,улица Ярославского,664048,52.3460201,104.1527235
286А,улица Ярославского,664048,52.3460891,104.1524929
233/2,улица Баумана,664048,52.3489214,104.1537102
233/3,улица Баумана,664048,52.3491376,104.1538963
233/4,улица Баумана,664048,52.3493394,104.1540712
233/5,улица Баумана,664048,52.3495544,104.1541763
201,улица Баумана,664048,52.3482777,104.1607774
30,улица Авиастроителей,664020,52.3578934,104.2152138
197,улица Баумана,664048,52.3479260,104.1609251
205,улица Баумана,664048,52.3481741,104.1602388
40,улица Шмидта,664039,52.2747781,104.2459764
29/1,улица Багратиона,664056,52.2262460,104.3081343
29/2,улица Багратиона,664056,52.2260886,104.3084042
29/3,улица Багратиона,664056,52.2259870,104.3087216
29/4,улица Багратиона,664056,52.2260498,104.3090788
108/3,улица Грибоедова,664074,52.2637129,104.2564507
359,улица Розы Люксембург,664053,52.3601400,104.1419214
36А,улица Маршала Конева,664043,52.2597738,104.2038558
90 к1,улица Маршала Конева,664043,52.2587545,104.2015150
90 к2,улица Маршала Конева,664043,52.2583540,104.2005570
90 к3,улица Маршала Конева,664043,52.2578845,104.2005035
90 к4,улица Маршала Конева,664043,52.2573450,104.2014120
231/1,улица Баумана,664048,52.3485924,104.1549219
231/2,улица Баумана,664048,52.3488291,104.1551159
231/3,улица Баумана,664048,52.3490662,104.1553096
231/4,улица Баумана,664048,52.3493036,104.1555060
231/6,улица Баумана,664048,52.3496935,104.1560019
24/1,Донская улица,664081,52.2629783,104.3181036
24/3,Донская улица,664081,52.2631387,104.3192383
24/4,Донская улица,664081,52.2632830,104.3196802
24/2,Донская улица,664081,52.2630097,104.3186053
19/1,Аларская улица,664009,52.2862219,104.3579238
"50-А, 2",2-я Аларская улица,664009,52.2865192,104.3579136
50,2-я Аларская улица,664009,52.2866466,104.3579051
11А,улица Степана Разина,664025,52.2858575,104.2740282
22А,Трактовая улица,664024,52.3215058,104.2364861
38,улица Карла Маркса,664007,52.2902086,104.2954663
30/6,улица Джамбула,664005,52.2916726,104.2489259
30/1,улица Джамбула,664005,52.2914546,104.2498116
30/5,улица Джамбула,664005,52.2922117,104.2490104
30/4,улица Джамбула,664005,52.2921063,104.2493486
30/3,улица Джамбула,664005,52.2919438,104.2495840
30/2,улица Джамбула,664005,52.2916987,104.2496623
9А,2-я Железнодорожная улица,664005,52.2913862,104.2452703
253,улица Лермонтова,664033,52.2513216,104.2676718
50,улица Мухиной,664056,52.2254353,104.3125216
3,улица Захарова,664056,52.2280506,104.3078283
20/1,улица Мухиной,664056,52.2272208,104.3102028
50А,улица Бородина,664056,52.2234921,104.3123894
50/7,улица Багратиона,664049,52.2237954,104.3113996
158А,улица Багратиона,664049,52.2230305,104.3117244
7А,улица Свердлова,664025,52.2827691,104.2763664
7,улица Свердлова,664025,52.2828909,104.2764424
34А,4-я Железнодорожная улица,664039,52.2761550,104.2486858
2/2,Мельничная улица,664035,52.3125467,104.2915144
2/3,Мельничная улица,664035,52.3126125,104.2919523
2/4,Мельничная улица,664035,52.3125858,104.2926779
2/5,Мельничная улица,664035,52.3126502,104.2931392
30/13,улица Сурнова,664035,52.3124962,104.2935720
30/12,улица Сурнова,664035,52.3122151,104.2936831
30/11,улица Сурнова,664035,52.3119552,104.2934124
30/10,улица Сурнова,664035,52.3118877,104.2929455
30/7,улица Сурнова,664035,52.3117564,104.2917767
30/8,улица Сурнова,664035,52.3118223,104.2922138
30/9,улица Сурнова,664035,52.3123233,104.2923729
6/1,бульвар Постышева,664046,52.2601059,104.3119432
98,Советская улица,664047,52.2783898,104.3176017
267/3,улица Лермонтова,664033,52.2481490,104.2693769
267/1,улица Лермонтова,664033,52.2483146,104.2687404
267/4,улица Лермонтова,664033,52.2482475,104.2697942
267/2,улица Лермонтова,664033,52.2481087,104.2690230
20,улица Левитана,664017,52.2334242,104.2765201
18,улица Левитана,664017,52.2336811,104.2764838
244/2,Байкальская улица,664075,52.2555786,104.3312535
244/1,Байкальская улица,664075,52.2559124,104.3305202
176/200,Советская улица,664009,52.2763198,104.3486387
176/207,Советская улица,664009,52.2765514,104.3485871
39/2,улица Генерала Доватора,664014,52.3302997,104.2385387
1,Тверская улица,664009,52.2854727,104.3579740
45,улица Карла Маркса,664007,52.2896077,104.2934743
5,улица Желябова,664011,52.2879107,104.2851021
1,Кооперативный переулок,664011,52.2881975,104.2842558
4А,улица Некрасова,664011,52.2887356,104.2847060
29А,улица Карла Маркса,664003,52.2850764,104.2883011
25Б,улица Декабрьских Событий,664007,52.2905014,104.2943006
10,улица Желябова,664011,52.2891771,104.2893647
48,улица Марата,664025,52.2823008,104.2794121
15А,улица Горького,664025,52.2829780,104.2822058
13А,улица Карла Маркса,664003,52.2822435,104.2833906
13Б,улица Карла Маркса,664003,52.2820914,104.2838634
13,улица Карла Маркса,664003,52.2818308,104.2841954
11,улица Карла Маркса,664003,52.2817850,104.2838543
11А,улица Карла Маркса,664003,52.2817822,104.2834605
19,улица Карла Маркса,664003,52.2827085,104.2853463
2А/4,Рабочая улица,664011,52.2892021,104.2829811
5/2,улица Сухэ-Батора,664011,52.2886543,104.2819572
5/2,улица Сухэ-Батора,664011,52.2885695,104.2819587
29,улица Карла Маркса,664003,52.2849001,104.2880266
27,улица Карла Маркса,664003,52.2846971,104.2876262
23,улица Карла Маркса,664003,52.2843228,104.2873011
21,улица Карла Маркса,664003,52.2840877,104.2869927
23Б,улица Карла Маркса,664003,52.2836586,104.2866547
109,Советская улица,664009,52.2801835,104.3387393
109Б,Советская улица,664009,52.2804349,104.3391511
109Д,Советская улица,664009,52.2801819,104.3391445
4Б,Красноармейская улица,664003,52.2798042,104.2839561
6А,Красноармейская улица,664003,52.2794146,104.2845054
176/203,Советская улица,664009,52.2764787,104.3477364
176/201,Советская улица,664009,52.2762947,104.3474701
176/202,Советская улица,664009,52.2764167,104.3470748
176/204,Советская улица,664009,52.2766223,104.3469456
176/205,Советская улица,664009,52.2767621,104.3474652
140/6,улица Пискунова,664009,52.2721441,104.3356208
140/7,улица Пискунова,664009,52.2719314,104.3356104
140/8,улица Пискунова,664009,52.2716870,104.3356003
124/2,Байкальская улица,664046,52.2626633,104.3095911
229/8,улица Баумана,664048,52.3484283,104.1559934
235А/1,улица Баумана,664048,52.3482844,104.1547023
235/1,улица Баумана,664048,52.3483799,104.1543870
235/3,улица Баумана,664048,52.3485504,104.1534278
235/2,улица Баумана,664048,52.3484179,104.1540259
233/6,улица Баумана,664048,52.3497426,104.1543397
233/7,улица Баумана,664048,52.3499077,104.1544808
233/1,улица Баумана,664048,52.3489596,104.1533321
233/8,улица Баумана,664048,52.3501146,104.1544989
233/9,улица Баумана,664048,52.3502226,104.1541545
233А,улица Баумана,664048,52.3504699,104.1508582
235/5,улица Баумана,664048,52.3491660,104.1524093
235/4,улица Баумана,664048,52.3493609,104.1525705
235/7,улица Баумана,664048,52.3494782,104.1513650
235/6,улица Баумана,664048,52.3496957,104.1515562
184/9,улица Розы Люксембург,664040,52.3602705,104.1554055
184/15,улица Розы Люксембург,664040,52.3600072,104.1563729
184/1,улица Розы Люксембург,664053,52.3573060,104.1570548
184,улица Розы Люксембург,664053,52.3563480,104.1601665
283,улица Розы Люксембург,664048,52.3531529,104.1581519
281,улица Розы Люксембург,664048,52.3533347,104.1586960
279,улица Розы Люксембург,664048,52.3535101,104.1592517
243А,улица Розы Люксембург,664048,52.3522876,104.1671007
216А,Севастопольская улица,664048,52.3512696,104.1617343
20/2,Красногвардейская улица,664007,52.2873432,104.3094551
20/1,Красногвардейская улица,664007,52.2872377,104.3096874
22/2,Красногвардейская улица,664007,52.2877413,104.3105150
28,улица Иосифа Уткина,664007,52.2866063,104.3117012
201/1,улица Баумана,664048,52.3481635,104.1611233
203,улица Баумана,664048,52.3483938,104.1604251
205А,улица Баумана,664048,52.3484616,104.1600583
215,улица Баумана,664048,52.3470151,104.1608617
213,улица Баумана,664048,52.3466389,104.1620969
193,улица Баумана,664048,52.3476687,104.1619568
191,улица Баумана,664048,52.3477071,104.1626256
189,улица Баумана,664048,52.3474851,104.1633394
187,улица Баумана,664048,52.3472433,104.1641279
185,улица Баумана,664048,52.3466435,104.1642803
181,улица Баумана,664048,52.3467401,104.1649885
183,улица Баумана,664048,52.3463302,104.1646487
56/4А,Култукская улица,664009,52.2827493,104.3323566
56/6В,Култукская улица,664009,52.2831085,104.3323388
56/10Б,Култукская улица,664009,52.2828107,104.3328915
56/6А,Култукская улица,664009,52.2831256,104.3326463
30,улица Вампилова,664058,52.2536370,104.2315713
48/1,Старокузьмихинская улица,664033,52.2422371,104.2824250
168,улица Розы Люксембург,664040,52.3508364,104.1821096
56/8А,Култукская улица,664009,52.2831289,104.3325040
56/8Б,Култукская улица,664009,52.2828085,104.3327561
11,Плодовоягодный проезд,664009,52.2827222,104.3321473
9,Плодовоягодный проезд,664009,52.2828211,104.3321163
42В,бульвар Рябикова,664043,52.2601814,104.2125914
22/1,бульвар Рябикова,664043,52.2606219,104.2130817
36/6,бульвар Рябикова,664043,52.2608961,104.2117473
36/2,бульвар Рябикова,664043,52.2617958,104.2109246
2Б,бульвар Рябикова,664043,52.2623998,104.2116677
15,улица Чернышевского,664074,52.2716215,104.2603427
15,улица Чернышевского,664074,52.2714882,104.2607019
15,улица Чернышевского,664074,52.2708186,104.2613452
15,улица Чернышевского,664074,52.2717540,104.2607369
15,улица Чернышевского,664074,52.2702043,104.2611752
15,улица Чернышевского,664074,52.2707629,104.2608438
56/10А,Култукская улица,664009,52.2831287,104.3329168
16А,Угольный проезд,664009,52.2827654,104.3332737
125,улица Карла Либкнехта,664047,52.2772575,104.3124917
5В,улица Сергеева,664043,52.2681781,104.2234009
136/2,улица Лермонтова,664017,52.2387557,104.2770411
136/1,улица Лермонтова,664017,52.2386843,104.2766784
136/3,улица Лермонтова,664017,52.2386653,104.2773530
136/4,улица Лермонтова,664017,52.2385393,104.2775566
136/5,улица Лермонтова,664017,52.2383972,104.2777872
136/6,улица Лермонтова,664017,52.2382214,104.2780758
36/1,бульвар Рябикова,664043,52.2616194,104.2105253
36/3,бульвар Рябикова,664043,52.2615677,104.2111434
36/4,бульвар Рябикова,664043,52.2613568,104.2113279
36/5,бульвар Рябикова,664043,52.2611152,104.2115399
33,Депутатская улица,664023,52.2721173,104.3222692
42/3,Депутатская улица,664047,52.2724114,104.3213184
42/2,Депутатская улица,664047,52.2725981,104.3211932
42/1,Депутатская улица,664047,52.2725221,104.3208678
5А,улица Берёзовая Роща,664043,52.2646949,104.2317722
103,улица Моцарта,664017,52.2283491,104.2764825
8,Горка станция,664040,52.3663733,104.1550460
48/3,Старокузьмихинская улица,664033,52.2418066,104.2824825
48/4,Старокузьмихинская улица,664033,52.2416221,104.2822144
48/5,Старокузьмихинская улица,664033,52.2414819,104.2818485
6/5,1-й Кузьмихинский переулок,664033,52.2413274,104.2813919
6/4,1-й Кузьмихинский переулок,664033,52.2412753,104.2813189
6/3,1-й Кузьмихинский переулок,664033,52.2412242,104.2812476
6/2,1-й Кузьмихинский переулок,664033,52.2411745,104.2811759
6/1,1-й Кузьмихинский переулок,664033,52.2411132,104.2811014
335Б,улица Лермонтова,664033,52.2434128,104.2809910
335А,улица Лермонтова,664033,52.2430262,104.2806434
4,Майская улица,664033,52.2407215,104.2823315
6,Майская улица,664033,52.2404560,104.2828422
8,Майская улица,664033,52.2401626,104.2833466
10,Майская улица,664033,52.2399238,104.2837878
12,Майская улица,664033,52.2396347,104.2843279
14,Майская улица,664033,52.2393273,104.2848615
3,Майская улица,664033,52.2411264,104.2827221
5,Майская улица,664033,52.2408868,104.2831403
7,Майская улица,664033,52.2407351,104.2834519
9,Майская улица,664033,52.2405263,104.2838890
11,Майская улица,664033,52.2402802,104.2843481
15,Майская улица,664033,52.2396496,104.2853958
13,Майская улица,664033,52.2400057,104.2847991
72,Старокузьмихинская улица,664033,52.2389308,104.2888853
1А,Майская улица,664033,52.2415741,104.2834427
10,улица Лобачевского,664017,52.2338329,104.2728051
8,улица Лобачевского,664017,52.2340562,104.2729451
6,улица Лобачевского,664017,52.2342760,104.2731697
4,улица Лобачевского,664017,52.2344303,104.2733204
2,улица Лобачевского,664017,52.2346302,104.2734592
182/2,улица Розы Люксембург,664040,52.3554851,104.1624642
182/3,улица Розы Люксембург,664040,52.3560643,104.1623292
182Ж,улица Розы Люксембург,664040,52.3564983,104.1625068
182Б,улица Розы Люксембург,664040,52.3557726,104.1621029
87,Новгородская улица,664017,52.2289284,104.2708536
89,Новгородская улица,664017,52.2288239,104.2710034
85,Новгородская улица,664017,52.2292013,104.2706948
92,Новгородская улица,664017,52.2288265,104.2704499
94,Новгородская улица,664017,52.2286914,104.2706649
90,Новгородская улица,664017,52.2290527,104.2703782
88,Новгородская улица,664017,52.2292691,104.2702801
216А/1,Байкальская улица,664075,52.2551496,104.3241949
164/3,Дальневосточная улица,664075,52.2512191,104.3243721
164/5,Дальневосточная улица,664075,52.2515577,104.3235102
164/4,Дальневосточная улица,664075,52.2513864,104.3239353
164/6,Дальневосточная улица,664075,52.2519245,104.3242405
164/7,Дальневосточная улица,664075,52.2517958,104.3245782
164/8,Дальневосточная улица,664075,52.2516636,104.3249252
150/9,улица Пискунова,664023,52.2689709,104.3413661
150/8,улица Пискунова,664023,52.2693354,104.3409570
150/7,улица Пискунова,664023,52.2696325,104.3404870
150,улица Пискунова,664023,52.2694094,104.3402289
150/6,улица Пискунова,664023,52.2698297,104.3401030
150/5,улица Пискунова,664023,52.2700997,104.3398603
150/4,улица Пискунова,664023,52.2699712,104.3394885
150/3,улица Пискунова,664023,52.2704234,104.3395489
150/1,улица Пискунова,664023,52.2707626,104.3392195
250/1,Байкальская улица,664075,52.2543517,104.3366272
154/10,Дальневосточная улица,664075,52.2524176,104.3219673
154/1,Дальневосточная улица,664075,52.2528673,104.3209723
154/2,Дальневосточная улица,664075,52.2527456,104.3212542
154/3,Дальневосточная улица,664075,52.2525899,104.3210687
84/2,Депутатская улица,664081,52.2644107,104.3297395
84/1,Депутатская улица,664081,52.2645031,104.3288728
84/1,Депутатская улица,664081,52.2646461,104.3292477
235/8,улица Баумана,664048,52.3494485,104.1503120
8/1,улица Трилиссера,664022,52.2698897,104.2999356
67,улица Седова,664022,52.2696380,104.3002792
14/1,улица Октябрьской Революции,664007,52.2898963,104.3016830
12/2,улица Октябрьской Революции,664007,52.2900983,104.3010420
12/1,улица Октябрьской Революции,664007,52.2901817,104.3008436
12Б,улица Октябрьской Революции,664007,52.2902497,104.3005684
13,улица Просвещения,664020,52.3490045,104.2228851
26,улица Просвещения,664020,52.3484080,104.2238052
321,Байкальская улица,664050,52.2573191,104.3644800
319,Байкальская улица,664050,52.2576658,104.3645207
317,Байкальская улица,664050,52.2580173,104.3645619
315,Байкальская улица,664050,52.2583092,104.3642708
315/1,Байкальская улица,664050,52.2582643,104.3646002
307,Байкальская улица,664050,52.2586242,104.3625964
309,Байкальская улица,664050,52.2585451,104.3630172
311,Байкальская улица,664050,52.2584659,104.3634376
313,Байкальская улица,664050,52.2583872,104.3638564
6,улица Генерала Доватора,664014,52.3305529,104.2565834
45,Тверская улица,664009,52.2857196,104.3623427
53,Тверская улица,664009,52.2856186,104.3636025
287,Байкальская улица,664050,52.2595362,104.3585409
291/1,Байкальская улица,664050,52.2591747,104.3578152
291/1,Байкальская улица,664050,52.2588242,104.3577666
14А,улица Карла Маркса,664003,52.2773398,104.2811812
16,Угольный проезд,664009,52.2824717,104.3321164
10,Угольный проезд,664009,52.2824545,104.3317881
6,Угольный проезд,664009,52.2823872,104.3312042
11,Красноярская улица,664009,52.2820960,104.3299779
11/3,Красноярская улица,664009,52.2821370,104.3305572
11/1,Красноярская улица,664009,52.2818257,104.3300527
14,Угольный проезд,664009,52.2820372,104.3321233
4,Лесопильный переулок,664009,52.2821694,104.3336466
6,Лесопильный переулок,664009,52.2819859,104.3336315
8,Лесопильный переулок,664009,52.2817961,104.3336082
10,Лесопильный переулок,664009,52.2818482,104.3339022
4,улица Муравьёва,664002,52.3447571,104.2141236
76А,Гражданская улица,664020,52.3529418,104.2120094
17/1,улица Муравьёва,664020,52.3493256,104.2184961
124,улица Мира,664020,52.3512412,104.2127863
19,Пулковский переулок,664020,52.3498994,104.2166698
118,улица Мира,664020,52.3502264,104.2157493
120,улица Мира,664020,52.3503332,104.2144594
90А,улица Мира,664020,52.3468615,104.2200297
90,улица Мира,664020,52.3465338,104.2206073
15/1,улица Калинина,664017,52.2344325,104.2740424
17/1,улица Калинина,664017,52.2341741,104.2741453
16,Индустриальная улица,664017,52.2340596,104.2747450
7,улица Калинина,664017,52.2351788,104.2740171
7А,улица Калинина,664017,52.2350033,104.2740879
9,улица Калинина,664017,52.2348305,104.2741546
8/1,улица Белобородова,664017,52.2348919,104.2772075
8/2,улица Белобородова,664017,52.2351179,104.2774878
8/3,улица Белобородова,664017,52.2349919,104.2778804
8/4,улица Белобородова,664017,52.2350206,104.2782031
8,улица Белобородова,664017,52.2345824,104.2774586
202/6,Байкальская улица,664075,52.2557512,104.3240989
202/14,Байкальская улица,664075,52.2557451,104.3229116
202/10,Байкальская улица,664075,52.2550405,104.3231391
236Б/10,Байкальская улица,664075,52.2517069,104.3271491
202/9,Байкальская улица,664075,52.2549201,104.3234786
22/1,Дальневосточная улица,664022,52.2557527,104.3161823
202/12,Байкальская улица,664075,52.2552666,104.3223805
202/8,Байкальская улица,664075,52.2548395,104.3238633
22/1,Дальневосточная улица,664022,52.2560771,104.3159280
236/2,Байкальская улица,664075,52.2540530,104.3276237
236/1,Байкальская улица,664075,52.2543114,104.3278937
58,улица Вампилова,664058,52.2521044,104.2327835
56,улица Вампилова,664058,52.2523922,104.2328316
112,улица Декабрьских Событий,664007,52.2796032,104.3164895
112Г,улица Декабрьских Событий,664007,52.2796704,104.3167123
112Б,улица Декабрьских Событий,664007,52.2789401,104.3163144
98Б,Советская улица,664047,52.2782393,104.3181244
102/1,улица Красных Мадьяр,664047,52.2767736,104.3173987
121,улица Карла Либкнехта,664047,52.2776020,104.3123947
120,Советская улица,664047,52.2789559,104.3193480
7,Плодовоягодный проезд,664009,52.2830275,104.3321482
5,Плодовоягодный проезд,664009,52.2831317,104.3321344
22А,Угольный проезд,664009,52.2828499,104.3335795
24Б,Угольный проезд,664009,52.2827987,104.3338168
34,улица Лызина,664009,52.2810845,104.3306295
32,улица Лызина,664009,52.2812127,104.3299544
13,Красноярская улица,664009,52.2809990,104.3299393
15,Красноярская улица,664009,52.2808525,104.3302425
17,Красноярская улица,664009,52.2806860,104.3300886
25Б,Красноярская улица,664009,52.2803123,104.3303739
77А,Советская улица,664009,52.2801832,104.3312705
71/1,Депутатская улица,664081,52.2655161,104.3303657
63/2,Депутатская улица,664081,52.2664360,104.3275633
63/1,Депутатская улица,664081,52.2666193,104.3271048
63,Депутатская улица,664081,52.2668142,104.3266148
56/10,Култукская улица,664009,52.2833831,104.3329263
56/6В,Култукская улица,664009,52.2829428,104.3323443
26А,Угольный проезд,664009,52.2828288,104.3342162
32А,Угольный проезд,664009,52.2828644,104.3347298
40Г,Угольный проезд,664009,52.2829121,104.3353874
44А,Угольный проезд,664009,52.2830986,104.3362852
46А,Угольный проезд,664009,52.2831052,104.3364655
50Б,Угольный проезд,664009,52.2829526,104.3368578
52А,Угольный проезд,664009,52.2831215,104.3373261
58Б,Угольный проезд,664009,52.2831295,104.3377438
66А,Угольный проезд,664009,52.2831281,104.3384313
72В,Угольный проезд,664009,52.2830593,104.3393474
74Б,Угольный проезд,664009,52.2831128,104.3396067
7,Угольный проезд,664009,52.2831630,104.3406212
7Б,Угольный проезд,664009,52.2834471,104.3406059
7А,Угольный проезд,664009,52.2834853,104.3408191
88А,Угольный проезд,664009,52.2831703,104.3410004
90А,Угольный проезд,664009,52.2831922,104.3411360
56/90Б,Култукская улица,664009,52.2835060,104.3412736
4Е,Космический проезд,664009,52.2831813,104.3412697
1/2,Космический проезд,664009,52.2834263,104.3421875
5Б,Космический проезд,664009,52.2823264,104.3419303
3,Космический проезд,664009,52.2826520,104.3416414
74,Угольный проезд,664009,52.2829113,104.3438852
72,Угольный проезд,664009,52.2829578,104.3434100
42,Депутатская улица,664047,52.2726818,104.3204932
40,Депутатская улица,664047,52.2728818,104.3209728
1Б,улица Грязнова,664003,52.2820075,104.2858526
30/5,улица Сурнова,664035,52.3115973,104.2907261
30/2,улица Сурнова,664035,52.3123402,104.2904214
30/3,улица Сурнова,664035,52.3120735,104.2905309
30/4,улица Сурнова,664035,52.3118101,104.2906377
30/1,улица Сурнова,664035,52.3125722,104.2903185
2/1,Мельничная улица,664035,52.3125728,104.2906908
30/6,улица Сурнова,664035,52.3116538,104.2910911
30/9а,улица Сурнова,664035,52.3125006,104.2923612
26,улица Сурнова,664035,52.3108692,104.2906483
30А,улица Клары Цеткин,664039,52.2759267,104.2481680
37 к1,улица Терешковой,664039,52.2764753,104.2473836
30А/1,улица Клары Цеткин,664039,52.2758063,104.2477070
30А/2,улица Клары Цеткин,664039,52.2760240,104.2475618
17,улица Клары Цеткин,664039,52.2755271,104.2481115
65А/4,улица Седова,664022,52.2712938,104.2992898
65А/1,улица Седова,664022,52.2703836,104.2989515
65А/5,улица Седова,664022,52.2711460,104.2998046
30/6,улица Безбокова,664018,52.2349528,104.3036701
3/1,улица Можайского,664009,52.2762661,104.3583724
3/2,улица Можайского,664009,52.2761284,104.3590641
7,улица Можайского,664009,52.2759080,104.3597189
155А,Байкальская улица,664081,52.2608323,104.3211354
158/1,улица Пискунова,664023,52.2683027,104.3394931
277/1,улица Лермонтова,664033,52.2508029,104.2732151
82/5,улица Лыткина,664023,52.2695595,104.3301903
82/4,улица Лыткина,664023,52.2697237,104.3300189
82/3,улица Лыткина,664023,52.2699099,104.3299071
82/2,улица Лыткина,664023,52.2701258,104.3298887
82/1,улица Лыткина,664081,52.2700748,104.3294044
72/1,Красноярская улица,664081,52.2696772,104.3306570
2/1,Братская улица,664019,52.2904405,104.3567489
222,улица Розы Люксембург,664053,52.3675576,104.1477086
60А,улица Баррикад,664019,52.2910501,104.3376806
6,улица Мамина-Сибиряка,664058,52.2624239,104.2341222
8,улица Мамина-Сибиряка,664058,52.2621466,104.2342094
10,улица Мамина-Сибиряка,664058,52.2619121,104.2343005
8А,улица Мамина-Сибиряка,664058,52.2620104,104.2334574
3/5,улица Сергеева,664043,52.2656088,104.2267586
3,Академическая улица,664033,52.2382428,104.2850197
4/2,улица Можайского,664009,52.2726877,104.3614465
4/4,улица Можайского,664009,52.2728481,104.3612648
27,Советская улица,664047,52.2775769,104.3085775
109/1,Советская улица,664009,52.2803085,104.3402062
2А,бульвар Постышева,664046,52.2578057,104.3124945
4/2,улица Дыбовского,664050,52.2542959,104.3544018
11/6,улица Лыткина,664022,52.2634906,104.3041831
237,улица Баумана,664053,52.3516118,104.1505438
1,Верхняя Набережная улица,664022,52.2653802,104.2928506
25,Советская улица,664047,52.2774682,104.3079570
18А к2,6-я Советская улица,664022,52.2636505,104.3037978
18А к1,6-я Советская улица,664022,52.2634670,104.3035865
18А,6-я Советская улица,664022,52.2636200,104.3033814
18А/2,6-я Советская улица,664022,52.2643071,104.3032671
18А/2,6-я Советская улица,664022,52.2641400,104.3033857
18А/1,6-я Советская улица,664022,52.2640564,104.3029381
18А/3,6-я Советская улица,664022,52.2637818,104.3029341
9/6,улица Лыткина,664022,52.2632644,104.3051125
9/1,улица Лыткина,664022,52.2626779,104.3049214
9/2,улица Лыткина,664022,52.2628011,104.3050770
9/5,улица Лыткина,664022,52.2631400,104.3043554
9/4,улица Лыткина,664022,52.2630168,104.3041998
11/7,улица Лыткина,664022,52.2636306,104.3043734
142/1,улица Пискунова,664023,52.2704057,104.3367604
142/2,улица Пискунова,664023,52.2706377,104.3367656
142/4,улица Пискунова,664023,52.2711008,104.3367755
142/3,улица Пискунова,664023,52.2708723,104.3367715
188/3,Байкальская улица,644075,52.2582520,104.3221999
188/2,Байкальская улица,644075,52.2584655,104.3224288
188/1,Байкальская улица,644075,52.2586466,104.3221859
79,Сарафановская улица,664019,52.2959337,104.3482212
79/5,Сарафановская улица,664019,52.2957985,104.3500351
79/2,Сарафановская улица,664019,52.2956099,104.3486278
79/1,Сарафановская улица,664019,52.2954233,104.3481421
71,Сарафановская улица,644019,52.2959130,104.3471849
79/3,Сарафановская улица,664019,52.2954531,104.3496775
234В/5,Байкальская улица,664075,52.2523074,104.3252134
234В/3,Байкальская улица,664075,52.2526456,104.3255221
234В/4,Байкальская улица,664075,52.2524918,104.3254069
234В,Байкальская улица,664075,52.2527183,104.3252120
234В/6,Байкальская улица,664075,52.2521525,104.3250448
234В/7,Байкальская улица,664075,52.2523110,104.3247259
236Б/5,Байкальская улица,664075,52.2525194,104.3271648
236Б/4,Байкальская улица,664075,52.2526509,104.3268387
236Б/3,Байкальская улица,664075,52.2526853,104.3264468
236Б/8,Байкальская улица,664075,52.2520640,104.3278026
236Б/9,Байкальская улица,664075,52.2520930,104.3271106
236Б/6,Байкальская улица,664075,52.2522653,104.3274401
236Б/7,Байкальская улица,664075,52.2524587,104.3278911
18,Трактовая улица,664024,52.3169063,104.2370123
1/2,улица Набережная Иркута,664005,52.2950956,104.2529672
2/10,улица Аргунова,664043,52.2639347,104.2221429
30,улица Строитель,664024,52.2948302,104.2296781
115/3,Советская улица,664009,52.2802813,104.3453459
115/2,Советская улица,664009,52.2800979,104.3449605
115Г,Советская улица,664009,52.2805525,104.3447178
13,улица Ширямова,664009,52.2734226,104.3579985
65А/3,улица Седова,664022,52.2710328,104.2989395
65А/2,улица Седова,664022,52.2707421,104.2985524
65А/6,улица Седова,664022,52.2710017,104.3001188
65А/8,улица Седова,664022,52.2707927,104.2999131
65А/7,улица Седова,664022,52.2706074,104.2988089
8/2,улица Трилиссера,664022,52.2701168,104.3002374
8/3,улица Трилиссера,664022,52.2703279,104.3005131
8/4,улица Трилиссера,664022,52.2705286,104.3007769
8/5,улица Трилиссера,664022,52.2707253,104.3010322
8,Строительный переулок,664022,52.2714505,104.2977560
8/1,Строительный переулок,664022,52.2712450,104.2974586
8/2,Строительный переулок,664022,52.2713556,104.2983951
147/1,улица Пискунова,664023,52.2726379,104.3389276
143,улица Пискунова,664023,52.2731922,104.3380365
145,улица Пискунова,664023,52.2738212,104.3374237
48/2,Старокузьмихинская улица,664033,52.2420191,104.2827449
3А,улица Тухачевского,664040,52.3568775,104.1650775
15Г,улица Рабочего Штаба,664035,52.3026332,104.2960781
12,улица Рабочего Штаба,664035,52.3029116,104.2987847
3,переулок Трубецкого,664035,52.3025670,104.2995108
3А,переулок Трубецкого,664035,52.3026507,104.2995014
1,улица Станиславского,644081,52.2593683,104.3276616
3,улица Станиславского,644081,52.2598092,104.3280573
5,улица Станиславского,644081,52.2602202,104.3284261
118к1,Байкальская улица,664046,52.2636612,104.3076071
118,Байкальская улица,664046,52.2641045,104.3083429
20,улица 25 Октября,664022,52.2717657,104.2985677
10А,переулок Серова,664019,52.2957536,104.3214368
4А/2,улица Вампилова,664058,52.2612441,104.2412578
9,Алтайская улица,664020,52.3511390,104.2335875
11/3,Алтайская улица,664020,52.3513578,104.2334111
11,Алтайская улица,664020,52.3515159,104.2332632
13,Алтайская улица,664020,52.3515809,104.2328256
10,Алтайская улица,664020,52.3518488,104.2323635
12,Алтайская улица,664020,52.3519445,104.2321617
12А,Алтайская улица,664020,52.3520391,104.2319745
14А,Алтайская улица,664020,52.3520888,104.2318822
14,Алтайская улица,664020,52.3522266,104.2318830
16,Алтайская улица,664020,52.3523925,104.2317600
21,Алтайская улица,664020,52.3519491,104.2314490
19,Алтайская улица,664020,52.3517566,104.2317689
11А,Вокзальная улица,664020,52.3368435,104.2113868
48,улица Пискунова,664022,52.2680730,104.3071774
7А/2,Воронежская улица,664043,52.2719805,104.2325077
202/11,Байкальская улица,664075,52.2551078,104.3227378
202/13,Байкальская улица,664075,52.2554978,104.3224932
4/3,улица Дыбовского,664050,52.2543928,104.3546965
27/11,улица Костычева,664017,52.2309257,104.2838654
27/12,улица Костычева,664017,52.2308619,104.2834275
27/13,улица Костычева,664017,52.2307999,104.2830056
27/8,улица Костычева,664017,52.2312038,104.2858075
27/9,улица Костычева,664017,52.2311411,104.2853650
27/10,улица Костычева,664017,52.2310776,104.2849217
27/7,улица Костычева,664017,52.2317826,104.2856022
27/6,улица Костычева,664017,52.2317094,104.2851610
27/4,улица Костычева,664017,52.2315575,104.2841936
27/5,улица Костычева,664017,52.2316250,104.2846311
27/3,улица Костычева,664017,52.2314856,104.2837552
27/1,улица Костычева,664017,52.2313383,104.2827861
27/2,улица Костычева,664017,52.2314043,104.2832141
6,Илимская улица,664019,52.3129725,104.4041798
2,Перспективная (Славный),664019,52.3133878,104.4041939
7,Илимская улица,664019,52.3136840,104.4027419
11,Илимская улица,664019,52.3143908,104.4026754
12,Илимская улица,664019,52.3146853,104.4032349
18,Илимская улица,664019,52.3155461,104.4030023
5,Трактовая улица,664024,52.3105880,104.2385479
253/2,Байкальская улица,664050,52.2556487,104.3524477
225/6,улица Баумана,664048,52.3476763,104.1567076
124/3,Байкальская улица,664046,52.2625197,104.3098280
124/1,Байкальская улица,664046,52.2628567,104.3098203
289/4,улица Розы Люксембург,664053,52.3535143,104.1554343
289/1,улица Розы Люксембург,664053,52.3541805,104.1565642
6,улица Румянцева,664005,52.2845105,104.2546267
1/2,улица Берёзовая Роща,664043,52.2612113,104.2203079
13,улица Станиславского,664081,52.2620906,104.3314056
17,улица Станиславского,664081,52.2628880,104.3322742
138/1,улица Пискунова,664023,52.2714976,104.3347875
15Б,улица Помяловского,664017,52.2366541,104.2768132
10/2,бульвар Постышева,664046,52.2591702,104.3147292
94,Почтамтская улица,664020,52.3443049,104.2095459
52,Пшеничная улица,664044,52.3013574,104.3165450
1,улица Губернатора Трескина,664080,52.3157030,104.3167964
3,улица Губернатора Трескина,664080,52.3158677,104.3168654
2,улица Ермака,664080,52.3160985,104.3170812
8,улица Ермака,664080,52.3167628,104.3174634
10,улица Ермака,664080,52.3168829,104.3175689
14,улица Ермака,664080,52.3174538,104.3175837
3,улица Григория Шелехова,664080,52.3180091,104.3180350
4,улица Григория Шелехова,664080,52.3177525,104.3178838
18Б,улица Октябрьской Революции,664007,52.2891511,104.3038452
18,улица Октябрьской Революции,664007,52.2895002,104.3032759
14/3,улица Октябрьской Революции,664007,52.2899288,104.3006765
79,улица Ермака,664080,52.3234393,104.3204775
2,улица Власа Сидорова,664080,52.3241815,104.3217595
72,улица Ермака,664080,52.3239829,104.3215766
70,улица Ермака,664080,52.3238308,104.3214265
68,улица Ермака,664080,52.3236979,104.3212558
50,улица Ермака,664080,52.3220294,104.3198626
52,улица Ермака,664080,52.3222779,104.3201249
56,улица Ермака,664080,52.3227632,104.3202788
58,улица Ермака,664080,52.3229345,104.3204490
60,улица Ермака,664080,52.3230350,104.3205612
62,улица Ермака,664080,52.3232159,104.3207784
64,улица Ермака,664080,52.3233927,104.3209393
66,улица Ермака,664080,52.3235174,104.3211213
54,улица Ермака,664080,52.3226221,104.3201611
71,улица Ермака,664080,52.3228540,104.3198600
48,улица Ермака,664080,52.3217142,104.3197378
46,улица Ермака,664080,52.3215101,104.3196459
63,улица Ермака,664080,52.3218120,104.3193402
61,улица Ермака,664080,52.3216492,104.3192106
40,улица Ермака,664080,52.3208352,104.3195013
42,улица Ермака,664080,52.3210891,104.3192844
38,улица Ермака,664080,52.3208185,104.3191318
36,улица Ермака,664080,52.3206287,104.3190234
34,улица Ермака,664080,52.3203953,104.3190187
32,улица Ермака,664080,52.3202761,104.3188244
30,улица Ермака,664080,52.3199464,104.3186283
28,улица Ермака,664080,52.3198102,104.3185962
26,улица Ермака,664080,52.3195822,104.3186224
16,улица Ермака,664080,52.3186659,104.3181277
18,улица Ермака,664080,52.3189296,104.3181826
20,улица Ермака,664080,52.3190597,104.3183260
22,улица Ермака,664080,52.3192109,104.3183486
29,улица Ермака,664080,52.3185443,104.3175690
31,улица Ермака,664080,52.3187801,104.3177303
33,улица Ермака,664080,52.3190322,104.3175558
35,улица Ермака,664080,52.3191985,104.3177757
37,улица Ермака,664080,52.3193759,104.3179716
43,улица Ермака,664080,52.3196645,104.3180561
45,улица Ермака,664080,52.3200245,104.3182460
47,улица Ермака,664080,52.3201229,104.3183554
49,улица Ермака,664080,52.3203027,104.3184222
51,улица Ермака,664080,52.3204718,104.3182589
53,улица Ермака,664080,52.3206145,104.3185190
55,улица Ермака,664080,52.3209116,104.3187165
57,улица Ермака,664080,52.3211810,104.3187769
59,улица Ермака,664080,52.3214679,104.3190745
65,улица Ермака,664080,52.3220195,104.3193862
67,улица Ермака,664080,52.3222042,104.3195716
36А,улица Новаторов,664020,52.3632839,104.2158766
36,улица Новаторов,664020,52.3634966,104.2160025
38/1,улица Новаторов,664020,52.3626484,104.2170828
38,улица Новаторов,664020,52.3630182,104.2167539
1/1,Цимлянская улица,664046,52.2589817,104.3152551
69,улица Ермака,664080,52.3227566,104.3196432
87/14,Депутатская улица,664081,52.2657253,104.3424324
87/13,Депутатская улица,664081,52.2657267,104.3427758
19А,улица Шпачека,664020,52.3470731,104.2293042
19,улица Александра Невского,664047,52.2786311,104.3086247
19,улица Александра Невского,664047,52.2782431,104.3091447
269,улица Баумана,664053,52.3552432,104.1379094
31,улица Летописца Нита Романова,664053,52.3521656,104.1388089
9,улица Красного Восстания,664003,52.2758617,104.2858001
9,улица Лызина,664009,52.2817330,104.3233090
9,улица Лызина,664009,52.2817508,104.3239052
9,улица Лызина,664009,52.2817729,104.3245530
29А,Дорожная улица,664009,52.2790607,104.3702636
259,улица Баумана,664053,52.3537646,104.1406918
72А,улица Красный Путь,664002,52.3434649,104.2143064
72/1,улица Красный Путь,664002,52.3439157,104.2139995
72/2,улица Красный Путь,664002,52.3439872,104.2143548
72/3,улица Красный Путь,664002,52.3440769,104.2146628
72/4,улица Красный Путь,664002,52.3442936,104.2147720
2,улица Тухачевского,664040,52.3526646,104.1783881
8,Илимская улица,664019,52.3139131,104.4035401
20,Илимская улица,664019,52.3157162,104.4029501
16,Илимская улица,664019,52.3153162,104.4031451
136,улица Пискунова,664023,52.2723158,104.3343104
416,Байкальская улица,664050,52.2526466,104.3797225
418,Байкальская улица,664050,52.2529078,104.3800113
422,Байкальская улица,664050,52.2529047,104.3808480
426,Байкальская улица,664050,52.2529983,104.3818716
420,Байкальская улица,664050,52.2525240,104.3806133
424,Байкальская улица,664050,52.2525167,104.3814947
428,Байкальская улица,664050,52.2525508,104.3824868
402,Байкальская улица,664050,52.2500144,104.3794003
398,Байкальская улица,664050,52.2496735,104.3793842
396,Байкальская улица,664050,52.2493140,104.3792501
392,Байкальская улица,664050,52.2488738,104.3787727
390,Байкальская улица,664050,52.2487359,104.3777963
386,Байкальская улица,664050,52.2489099,104.3772479
384,Байкальская улица,664050,52.2492393,104.3770641
380,Байкальская улица,664050,52.2495447,104.3773605
378,Байкальская улица,664050,52.2498287,104.3776904
374,Байкальская улица,664050,52.2503531,104.3780015
404,Байкальская улица,664050,52.2504708,104.3787655
8,улица Археолога Михаила Герасимова,664053,52.3530811,104.1370022
6,улица Археолога Михаила Герасимова,664053,52.3536813,104.1374970
12,улица Эдуара Дьяконова,664082,52.2516963,104.2559901
16,улица Якоби,664018,52.2282352,104.3140468
18,улица Поленова,664009,52.2845301,104.3180904
1,улица Николая Спафария,664080,52.3153492,104.3160407
1,улица Ермака,664080,52.3156110,104.3162253
3,улица Ермака,664080,52.3157615,104.3164333
5,улица Ермака,664080,52.3159720,104.3163333
7,улица Ермака,664080,52.3160552,104.3164923
9,улица Ермака,664080,52.3162224,104.3167454
11,улица Ермака,664080,52.3164096,104.3167485
13,улица Ермака,664080,52.3165536,104.3168542
15,улица Ермака,664080,52.3167126,104.3168465
17,улица Ермака,664080,52.3168643,104.3171056
19,улица Ермака,664080,52.3170141,104.3170592
21,улица Ермака,664080,52.3172263,104.3170806
23,улица Ермака,664080,52.3173683,104.3171610
25,улица Ермака,664080,52.3176283,104.3170563
27,улица Ермака,664080,52.3176948,104.3172730
2,улица Григория Шелехова,664080,52.3179551,104.3171907
134/1,улица Шевцова,664080,52.3238304,104.3207662
134,улица Шевцова,664080,52.3237608,104.3206655
с134/2,улица Шевцова,664080,52.3238906,104.3209018
136,улица Шевцова,664080,52.3241299,104.3212676
4,улица Ермака,664080,52.3162608,104.3172315
6,улица Ермака,664080,52.3166023,104.3173187
12,улица Ермака,664080,52.3172173,104.3175760
24,улица Ермака,664080,52.3194144,104.3183818
25,улица Ефимия Кузнецова,664080,52.3203933,104.3192839
50-А,2-я Аларская улица,664009,52.2866149,104.3577269
118к2,Байкальская улица,664046,52.2644096,104.3091974
118,Байкальская улица,664046,52.2646516,104.3076483
7А,Братская улица,664019,52.2905539,104.3555086
189/2,улица Баррикад,664019,52.2923432,104.3553504
189В,улица Баррикад,664019,52.2922937,104.3549317
189/1,улица Баррикад,664019,52.2923494,104.3543087
7/7,Братская улица,664019,52.2896562,104.3546128
7/8,Братская улица,664019,52.2896381,104.3539677
7/9,Братская улица,664019,52.2891921,104.3538772
7/10,Братская улица,664019,52.2891757,104.3531992
7/11,Братская улица,664019,52.2896119,104.3529242
7/12,Братская улица,664019,52.2896183,104.3523019
7/15,Братская улица,664019,52.2891611,104.3524885
138,улица Пискунова,664023,52.2721942,104.3348002
18,Култукская улица,664009,52.2834864,104.3246446
176,Советская,664009,52.2774023,104.3388831
30/1,улица Вампилова,664058,52.2537188,104.2315442
32,улица Лермонтова,664017,52.2725411,104.2541864
87/12,Депутатская улица,664081,52.2657291,104.3430983
87/10,Депутатская улица,664081,52.2656591,104.3437220
87/9,Депутатская улица,664081,52.2653551,104.3437816
2/2,улица Вампилова,664058,52.2616019,104.2418484
4А,Алмазная улица,664058,52.2620132,104.2403177
10,Улан-Баторская улица,664082,52.2518903,104.2512109
184/4,улица Розы Люксембург,664053,52.3571712,104.1608610
380,улица Ярославского,664048,52.3483846,104.1520152
317А,улица Розы Люксембург,664053,52.3557854,104.1471030
126,улица Лермонтова,664033,52.2500786,104.2637094
32,улица Клары Цеткин,664039,52.2758537,104.2472944
96,Советская улица,664047,52.2780099,104.3157036
21А,бульвар Рябикова,664043,52.2677619,104.2085254
22А,бульвар Рябикова,664043,52.2673360,104.2101627
5,улица Омулевского,664009,52.2778182,104.3271591
153,улица Баррикад,664019,52.2929249,104.3402658
14,улица Эдуара Дьяконова,664082,52.2519923,104.2556343
10,улица Эдуара Дьяконова,664082,52.2516684,104.2566760
