House number,Street name,Postal code,Latitude,Longitude
2,улица Орджоникидзе,426063,56.8328041,53.2633536
34А,Молодёжная улица,426072,56.8500039,53.2897515
11,Студенческая улица,426069,56.8729332,53.1725952
7,Студенческая улица,426069,56.8706152,53.1750573
158,улица Вадима Сивкова,426057,56.8449184,53.2066187
11,улица Холмогорова,426011,56.8769962,53.2049920
142,улица Кирова,426008,56.8619410,53.2187533
142,улица Кирова,426008,56.8624513,53.2187533
14А,улица Петрова,426065,56.8722458,53.2879944
1А,улица Орджоникидзе,426063,56.8345671,53.2595694
5Б,улица Гагарина,426028,56.8111339,53.1894171
236,улица Коммунаров,426008,56.8634461,53.2175883
23,улица Карла Маркса,426000,56.8239665,53.2071605
3,улица Героя России Ильфата Закирова,426072,56.8421888,53.2872202
244,улица Карла Маркса,426008,56.8515062,53.2062644
23,улица Гагарина,426028,56.8045420,53.1873545
11,площадь им. 50-летия Октября,426056,56.8523018,53.2208224
11,площадь им. 50-летия Октября,426056,56.8522677,53.2208496
14,Автозаводская улица,426065,56.8721460,53.2805753
34,Советская улица,426004,56.8462551,53.2266600
262,улица Карла Маркса,426000,56.8548104,53.2039351
2/55,проезд Дерябина,426057,56.8424312,53.1799152
27,Лесозаводская улица,426052,56.8418342,53.1342804
1,Саночная улица,426000,56.9223086,53.2198287
10,улица Ленина,426000,56.8434258,53.2074089
109А,улица Ворошилова,426053,56.8755365,53.2815330
438,улица Карла Маркса,426011,56.8755374,53.2056641
268,Удмуртская улица,426000,56.8632926,53.2206078
158А,улица Воровского,426063,56.8434677,53.2317123
300,Удмуртская улица,426011,56.8688059,53.2241207
300,Удмуртская улица,426011,56.8684926,53.2238609
300,Удмуртская улица,426011,56.8687676,53.2238380
255В,Удмуртская улица,426011,56.8662021,53.2206497
300,Удмуртская улица,426011,56.8686273,53.2238442
53,Широкий переулок,426008,56.8575320,53.2115531
138А,улица 40 лет Победы,426058,56.8415909,53.2819405
60,Клубная улица,426006,56.8299734,53.1291129
5,улица Гагарина,426028,56.8105600,53.1893157
122,улица 40 лет Победы,426072,56.8439726,53.2812494
122,улица 40 лет Победы,426072,56.8440698,53.2812895
126,Красноармейская улица,426057,56.8390076,53.2108699
73А,Восточная улица,426063,56.8401054,53.2364488
15,улица Гагарина,426028,56.8057729,53.1877119
23А,улица Гагарина,426028,56.8047494,53.1859811
23,улица Гагарина,426028,56.8044176,53.1873380
27,улица Гагарина,426028,56.8015988,53.1863313
25Б,Салютовская улица,426000,56.8831343,53.2789677
92,улица 40 лет Победы,426072,56.8479078,53.2818814
17,улица Гагарина,426028,56.8059070,53.1872620
7,Майская улица,426000,56.8696169,53.2104909
53,улица 10 лет Октября,426011,56.8725544,53.2270710
53,улица 10 лет Октября,426011,56.8727508,53.2271354
25Б,Салютовская улица,426000,56.8833045,53.2792553
152В,Воткинское шоссе,426025,56.8907759,53.2647920
107А,Воткинское шоссе,426025,56.8965333,53.2906436
29,улица Петрова,426068,56.8722545,53.2921661
304,Удмуртская улица,426034,56.8586568,53.2227709
255Б,Удмуртская улица,426008,56.8658653,53.2220829
110,улица 40 лет Победы,426072,56.8464445,53.2813186
154,Воткинское шоссе,426026,56.8905711,53.2647938
53,улица 10 лет Октября,426011,56.8727002,53.2272878
53,улица 10 лет Октября,426011,56.8727002,53.2271108
130,улица Бабушкина,426060,56.8675746,53.2612384
90,улица Холмогорова,426011,56.8742276,53.2264565
28Б,улица 30 лет Победы,426069,56.8683661,53.1830922
3А,Автозаводская улица,426065,56.8733470,53.2775368
29,улица Петрова,426068,56.8719200,53.2929599
19,улица Холмогорова,426011,56.8761597,53.2149508
14А,улица Петрова,426065,56.8722197,53.2879774
5,улица Гагарина,426028,56.8106465,53.1890830
9,улица Гагарина,426028,56.8083829,53.1883273
11,улица Гагарина,426028,56.8076280,53.1883368
200,Пушкинская улица,426076,56.8485053,53.2138351
194А,Пушкинская улица,426076,56.8478961,53.2149106
192,Пушкинская улица,426076,56.8469529,53.2151207
198,Пушкинская улица,426076,56.8479109,53.2137431
196,Пушкинская улица,426076,56.8472838,53.2139545
190,Пушкинская улица,426076,56.8466710,53.2141455
35,Красногеройская улица,426034,56.8492631,53.2137379
23,Советская улица,426004,56.8467587,53.2205050
1 к6,Университетская улица,426056,56.8493109,53.2236053
1 к4,Университетская улица,426056,56.8493758,53.2243919
16,улица Гагарина,426028,56.7993820,53.1867395
12,улица Гагарина,426028,56.8003495,53.1870247
14,улица Гагарина,426028,56.7998466,53.1868993
27,улица Гагарина,426028,56.8022000,53.1865293
97,7-я Подлесная улица,426069,56.8694315,53.1770946
17,Школьная улица,426069,56.8664960,53.1840412
216,Удмуртская улица,426004,56.8430848,53.2279878
177,Пушкинская улица,426076,56.8415938,53.2141852
1 к1,Университетская улица,426034,56.8509993,53.2259385
28Б,улица 30 лет Победы,426069,56.8683676,53.1831437
71,улица Максима Горького,426008,56.8439308,53.1993747
135,Союзная улица,426073,56.8567841,53.3032992
24,улица Труда,426067,56.8616157,53.2879609
90,Молодёжная улица,426075,56.8462396,53.2931538
136А,Воткинское шоссе,426039,56.8891642,53.2569926
106,Воткинское шоссе,426039,56.8870832,53.2435386
261,улица 9 Января,426050,56.8820364,53.2553896
130,улица 40 лет Победы,426072,56.8431015,53.2816021
46,Первомайская улица,426072,56.8436733,53.2843698
48,Первомайская улица,426072,56.8436117,53.2849093
50,Первомайская улица,426072,56.8433716,53.2850621
86А,Красноармейская улица,426077,56.8361903,53.2131212
86Б,Красноармейская улица,426077,56.8361341,53.2143854
25,улица 50-летия ВЛКСМ,426054,56.8752942,53.1915293
86,Красноармейская улица,426077,56.8358436,53.2115596
43,Камбарская улица,426075,56.8404627,53.2976337
15,улица Гагарина,426028,56.8060822,53.1878181
140,улица 40 лет Победы,426072,56.8396022,53.2821492
18,улица Героя России Ильфата Закирова,426072,56.8402255,53.2845847
22,улица Холмогорова,426011,56.8742603,53.2151635
289,улица Карла Маркса,426000,56.8593850,53.2009412
283,улица Карла Маркса,426000,56.8580082,53.2013939
281,улица Карла Маркса,426000,56.8575426,53.2014679
277,улица Карла Маркса,426000,56.8568993,53.2008532
277,Широкий переулок,426000,56.8569892,53.2014640
281,улица Коммунаров,426034,56.8504210,53.2173005
1 к2,Университетская улица,426056,56.8506227,53.2234627
325,улица Коммунаров,426008,56.8599007,53.2157978
63,Красноармейская улица,426003,56.8327412,53.2108918
67,Красноармейская улица,426003,56.8335553,53.2104856
31,улица Орджоникидзе,426063,56.8384953,53.2451710
65,улица Ключевой поселок,426063,56.8399902,53.2453318
75,улица Ключевой поселок,426063,56.8413461,53.2437184
9,Карлутская набережная,426063,56.8442220,53.2422378
44А,улица Баранова,426006,56.8351694,53.1428741
325,улица Азина,426023,56.7983069,53.1616197
34,Советская улица,426004,56.8463429,53.2267406
23А,улица Гагарина,426028,56.8043849,53.1857766
23,улица Гагарина,426028,56.8042528,53.1872020
77,Красногеройская улица,426034,56.8510787,53.2284810
65,улица Орджоникидзе,426063,56.8454180,53.2373171
94А,улица Ленина,426063,56.8458102,53.2398765
96А,улица Ленина,426063,56.8455229,53.2400128
214,Пушкинская улица,426007,56.8531281,53.2126223
15Б,Песочная улица,426069,56.8720479,53.1632824
35,Промышленная улица,426063,56.8362413,53.2439104
34,улица Холмогорова,426011,56.8744504,53.2193185
2А,улица Халтурина,426000,56.8517813,53.2578225
17,Камбарская улица,426072,56.8411630,53.2909512
16,улица Героя России Ильфата Закирова,426072,56.8414787,53.2844218
14,улица Героя России Ильфата Закирова,426072,56.8413065,53.2833961
73А,Восточная улица,426063,56.8400725,53.2364994
106,Воткинское шоссе,426039,56.8869492,53.2435160
21,Профсоюзный переулок,426009,56.8567139,53.2481614
18,Парковая улица,426009,56.8514881,53.2496206
71,улица Дзержинского,426039,56.8852501,53.2519610
17,Орсовская улица,426052,56.8389962,53.1228160
101/2,улица Ленина,426067,56.8508256,53.2751578
99,улица Ленина,426067,56.8502893,53.2725949
37,улица Холмогорова,426011,56.8789840,53.2185626
1А,улица Рылеева,426009,56.8451069,53.2581415
20,улица Героя России Ильфата Закирова,426072,56.8402180,53.2861783
144А,улица 40 лет Победы,426072,56.8371974,53.2824611
17Б,Камбарская улица,426072,56.8418094,53.2916046
15,Камбарская улица,426072,56.8388064,53.2871569
4Б,улица Ломоносова,426056,56.8483615,53.2240330
48,Воткинское шоссе,426039,56.8840432,53.2346487
72,улица Чайковского,426052,56.8482556,53.1137133
291А,Пушкинская улица,426000,56.8710893,53.2072390
9,улица Сороковой километр,426027,56.8286682,53.2385419
3,улица Сороковой километр,426027,56.8297884,53.2381590
99А,Живсовхозная улица,426021,56.8309544,53.1107176
28А,Красногеройская улица,426034,56.8478929,53.2157757
14А,Майская улица,426011,56.8700085,53.2154357
102,улица Леваневского,426019,56.7917438,53.1789058
40А,Депутатская улица,426019,56.8102345,53.1611933
11,Береговая улица,426033,56.8583551,53.1822732
160,улица Максима Горького,426000,56.8578193,53.1994074
427,улица Карла Маркса,426000,56.8661594,53.1978596
193А,улица 9 Января,426060,56.8748269,53.2508151
249,улица 9 Января,426050,56.8815302,53.2512135
71,улица Дзержинского,426039,56.8857540,53.2517214
50,Буммашевская улица,426060,56.8756499,53.2451346
17,улица Ворошилова,426053,56.8804204,53.2654744
57,улица Ворошилова,426053,56.8800684,53.2725056
81,Степная улица,426023,56.8020379,53.1780372
200,улица Коммунаров,426075,56.8413351,53.2220693
1,Восточная улица,426063,56.8350699,53.2377829
75,Восточная улица,426063,56.8402875,53.2357317
138,улица Ленина,426075,56.8456826,53.2891197
2А,Автозаводская улица,426065,56.8688410,53.2778444
288,Удмуртская улица,426011,56.8658540,53.2251684
3,Парковая улица,426000,56.8492290,53.2482148
1,Парковая улица,426000,56.8489242,53.2478907
50,улица Владимира Краева,426004,56.8416381,53.2266710
35,Автозаводская улица,426053,56.8787656,53.2840955
61,Северный переулок,426011,56.8680942,53.2252364
99,посёлок Машиностроителей,426021,56.8303579,53.1112193
142,улица Кирова,426008,56.8621174,53.2183847
255Б,Удмуртская улица,426008,56.8658075,53.2220104
236,улица Коммунаров,426008,56.8633870,53.2177131
5А,Медведевская улица,426016,56.7907532,53.2289798
5Б,Медведевская улица,426016,56.7904931,53.2294469
126,Красноармейская улица,426057,56.8391819,53.2113893
65,улица Холмогорова,426011,56.8802593,53.2167212
61,улица Холмогорова,426011,56.8806026,53.2163104
63,улица Холмогорова,426011,56.8806303,53.2171307
23,Майская улица,426011,56.8700776,53.2202700
223,Пушкинская улица,426008,56.8543948,53.2101477
283А,улица Карла Маркса,426000,56.8582734,53.2005843
23,Автономная улица,426019,56.8159471,53.1734138
55,Ботенёвский переулок,426027,56.8321567,53.2365717
144,улица Коммунаров,426004,56.8375780,53.2232165
1,улица Героя России Ильфата Закирова,426072,56.8416222,53.2866569
144,улица 40 лет Победы,426072,56.8364924,53.2825473
3,улица Героя России Ильфата Закирова,426072,56.8419890,53.2870151
15,улица Софьи Ковалевской,426035,56.8684524,53.2308492
13,улица Софьи Ковалевской,426035,56.8676693,53.2299347
304,Воткинское шоссе,426039,56.9058620,53.3619684
18,улица Дружбы,426028,56.8030980,53.1893054
60,улица Дзержинского,426050,56.8834825,53.2531856
62,улица Дзержинского,426050,56.8826831,53.2532023
32,Тракторная улица,426023,56.8002931,53.1585855
9,улица Героя России Ильфата Закирова,426072,56.8408353,53.2876112
1А,улица Героя России Ильфата Закирова,426072,56.8419183,53.2865995
93,улица Ленина,426009,56.8498113,53.2572684
21,улица Кунгурцева Е.М.,426039,56.8911684,53.2484362
8,улица Орджоникидзе,426063,56.8341742,53.2561437
161,Союзная улица,426073,56.8597633,53.3037518
5,улица Героя России Ильфата Закирова,426072,56.8420309,53.2885044
7,улица Героя России Ильфата Закирова,426072,56.8416902,53.2889942
30,улица Героя России Ильфата Закирова,426072,56.8372919,53.2872206
32,улица Героя России Ильфата Закирова,426072,56.8368962,53.2858313
79Е,улица Пойма,426028,56.7848693,53.1955041
79А литБ,улица Пойма,426028,56.7862523,53.1994922
51Б,улица Гагарина,426049,56.7916759,53.1834572
13,улица Героя России Ильфата Закирова,426072,56.8402119,53.2883376
99Б,посёлок Машиностроителей,426021,56.8306075,53.1101272
28,улица Героя России Ильфата Закирова,426072,56.8376703,53.2866543
1А,Камбарская улица,426072,56.8342116,53.2815994
10,Жемчужная улица,426054,56.9471229,53.1357098
12,Жемчужная улица,426054,56.9471696,53.1361158
2,Якшур-Бодьинский тракт 7 км,426054,56.8999056,53.1412045
107,улица Щорса,426011,56.8671272,53.2139598
168А,Воткинское шоссе,426039,56.8924033,53.2752069
90,улица Холмогорова,426011,56.8742314,53.2264528
110,Камбарская улица,426072,56.8380644,53.3111545
9А,Карлутская набережная,426063,56.8440305,53.2429430
9Б,Карлутская набережная,426063,56.8438441,53.2431871
1,Цветочная улица,426000,56.8735142,53.2712503
11А,улица Софьи Ковалевской,426035,56.8667588,53.2289980
2,Спортивная улица,426062,56.8844000,53.3420259
21,Спортивная улица,426062,56.8866968,53.3343959
5,Спортивная улица,426062,56.8874837,53.3308459
3,Линейная улица,426062,56.8869648,53.3292031
6А,Спортивная улица,426062,56.8842023,53.3431394
15,Спортивная улица,426062,56.8869104,53.3329916
9Р,Линейная улица,426062,56.8865534,53.3312944
61А,Спортивная улица,426062,56.8850283,53.3464590
16А,Спортивная улица,426062,56.8846609,53.3427418
17,Спортивная улица,426062,56.8869127,53.3334208
18А,Спортивная улица,426062,56.8849062,53.3437053
11,Линейная улица,426062,56.8862456,53.3326390
15,Линейная улица,426062,56.8859517,53.3338789
1Б,Спортивная улица,426062,56.8877901,53.3294691
9,Спортивная улица,426062,56.8872904,53.3317414
13,Линейная улица,426062,56.8860992,53.3332149
1А,Спортивная улица,426062,56.8876937,53.3299373
16,Спортивная улица,426062,56.8852196,53.3424051
3А,Спортивная улица,426062,56.8870505,53.3300342
19,Линейная улица,426062,56.8856657,53.3351920
13,Спортивная улица,426062,56.8870937,53.3326145
31,Спортивная улица,426062,56.8860419,53.3369506
17,Линейная улица,426062,56.8858084,53.3345211
9,Линейная улица,426062,56.8863608,53.3321333
12,Спортивная улица,426062,56.8860406,53.3350980
27,Спортивная улица,426062,56.8864548,53.3355081
29,Спортивная улица,426062,56.8863422,53.3360191
7,Спортивная улица,426062,56.8872989,53.3312259
18,Спортивная улица,426062,56.8852135,53.3429917
19,Спортивная улица,426062,56.8868099,53.3338924
20,Спортивная улица,426062,56.8846812,53.3447360
34,улица Героя России Ильфата Закирова,426072,56.8364849,53.2857304
1,улица Володарского,426027,56.8236574,53.2356036
55,Ялтинская улица,426036,56.7950624,53.2424277
53,Ялтинская улица,426036,56.7955016,53.2428819
45,Демократическая улица,426036,56.7950965,53.2446510
47,Демократическая улица,426036,56.7947609,53.2454774
49,Демократическая улица,426036,56.7944296,53.2463316
51,Демократическая улица,426036,56.7955795,53.2459243
55А,Ялтинская улица,426036,56.7946610,53.2422978
2,Аграрная улица,426036,56.8035595,53.2355594
8,Аграрная улица,426036,56.8035122,53.2367780
3,Аграрная улица,426036,56.8028836,53.2354436
13,Аграрная улица,426036,56.8027518,53.2379032
2,Аграрная улица,426036,56.8020145,53.2372210
1,улица 40 лет Победы,426067,56.8495623,53.2788295
243,улица Максима Горького,426001,56.8686100,53.1972443
89,улица Олега Кошевого,426006,56.8264983,53.1288691
91,улица Олега Кошевого,426006,56.8262994,53.1287107
93,улица Олега Кошевого,426006,56.8260630,53.1289460
95,улица Олега Кошевого,426006,56.8259290,53.1287492
97,улица Олега Кошевого,426006,56.8257529,53.1287779
99,улица Олега Кошевого,426006,56.8255613,53.1288380
101,улица Олега Кошевого,426006,56.8253799,53.1288739
103,улица Олега Кошевого,426006,56.8252354,53.1291044
105,улица Олега Кошевого,426006,56.8250554,53.1291356
107,улица Олега Кошевого,426006,56.8248703,53.1291645
109,улица Олега Кошевого,426006,56.8246640,53.1289939
111,улица Олега Кошевого,426006,56.8244854,53.1290636
113,улица Олега Кошевого,426006,56.8243014,53.1290996
115,улица Олега Кошевого,426006,56.8239191,53.1291885
119,улица Олега Кошевого,426006,56.8236950,53.1295358
121,улица Олега Кошевого,426006,56.8235224,53.1296470
92,Керамическая улица,426006,56.8263783,53.1298604
94,Керамическая улица,426006,56.8261866,53.1298893
96,Керамическая улица,426006,56.8260119,53.1299181
98,Керамическая улица,426006,56.8258240,53.1299517
100,Керамическая улица,426006,56.8256466,53.1299829
104,Керамическая улица,426006,56.8254719,53.1300117
106,Керамическая улица,426006,56.8252802,53.1300429
108,Керамическая улица,426006,56.8251147,53.1300645
110,Керамическая улица,426006,56.8249282,53.1301005
112А,Керамическая улица,426006,56.8247417,53.1301341
112,Керамическая улица,426006,56.8245630,53.1301605
116,Керамическая улица,426006,56.8243645,53.1301989
118,Керамическая улица,426006,56.8240112,53.1303166
120,Керамическая улица,426006,56.8238221,53.1303477
122,Керамическая улица,426006,56.8235896,53.1303909
127,Керамическая улица,426006,56.8236512,53.1308784
125,Керамическая улица,426006,56.8240230,53.1308183
123,Керамическая улица,426006,56.8241833,53.1307919
121,Керамическая улица,426006,56.8243843,53.1307487
119,Керамическая улица,426006,56.8245788,53.1307031
117,Керамическая улица,426006,56.8247389,53.1306670
115,Керамическая улица,426006,56.8249031,53.1306286
113,Керамическая улица,426006,56.8250752,53.1305902
111,Керамическая улица,426006,56.8252566,53.1305519
109,Керамическая улица,426006,56.8254575,53.1305111
107,Керамическая улица,426006,56.8256138,53.1304798
105,Керамическая улица,426006,56.8258779,53.1304246
41,Шабердинский переулок,426006,56.8250934,53.1311198
42,Шабердинский переулок,426006,56.8248059,53.1312135
43,Шабердинский переулок,426006,56.8246128,53.1312520
44,Шабердинский переулок,426006,56.8244157,53.1312856
45,Шабердинский переулок,426006,56.8242239,53.1313215
46,Шабердинский переулок,426006,56.8240282,53.1313576
2,Спартаковский переулок,426009,56.8509918,53.2459403
7,Парковая улица,426009,56.8503079,53.2461232
57,улица Пойма,426028,56.7911121,53.1925663
266,Удмуртская улица,426034,56.8576538,53.2245489
10,улица Котовского,426027,56.8268627,53.2324498
12,улица Котовского,426027,56.8271016,53.2323198
12А,улица Котовского,426027,56.8273235,53.2321561
14,улица Котовского,426027,56.8275468,53.2320079
16,улица Котовского,426027,56.8276676,53.2319897
18,улица Котовского,426027,56.8278995,53.2318962
2,улица Котовского,426027,56.8260664,53.2327045
20,улица Котовского,426027,56.8280730,53.2318260
22,улица Котовского,426027,56.8282621,53.2317481
24,улица Котовского,426027,56.8284596,53.2317502
26,улица Котовского,426027,56.8285635,53.2316363
28,улица Котовского,426027,56.8288125,53.2315375
30,улица Котовского,426027,56.8290243,53.2314492
32,улица Котовского,426027,56.8291708,53.2314674
34,улица Котовского,426027,56.8293073,53.2313270
36,улица Котовского,426027,56.8294481,53.2312698
38,улица Котовского,426027,56.8296515,53.2311815
4,улица Котовского,426027,56.8262896,53.2326291
40,улица Котовского,426027,56.8297680,53.2311321
42,улица Котовского,426027,56.8299515,53.2310593
44,улица Котовского,426027,56.8301207,53.2311035
46,улица Котовского,426027,56.8303497,53.2309267
48,улица Котовского,426027,56.8305601,53.2308176
50,улица Котовского,426027,56.8306601,53.2307509
52,Ботенёвский переулок,426027,56.8321741,53.2303784
52,улица Котовского,426027,56.8308658,53.2308150
54,улица Котовского,426027,56.8309924,53.2306461
56,улица Котовского,426027,56.8312341,53.2305525
58,улица Котовского,426027,56.8313464,53.2305057
6,улица Котовского,426027,56.8265115,53.2325486
60,улица Котовского,426027,56.8315341,53.2304277
62,улица Котовского,426027,56.8316380,53.2303835
64,улица Котовского,426027,56.8318371,53.2303056
66,улица Котовского,426027,56.8319892,53.2305161
8,улица Котовского,426027,56.8267048,53.2324836
1,Комсомольская улица,426027,56.8247735,53.2324161
11,Комсомольская улица,426027,56.8258060,53.2318678
13,Комсомольская улица,426027,56.8259894,53.2317664
15,Комсомольская улица,426027,56.8262284,53.2316443
17,Комсомольская улица,426027,56.8263919,53.2315611
19,Комсомольская улица,426027,56.8265953,53.2314571
1А,Комсомольская улица,426027,56.8245331,53.2325903
21,Комсомольская улица,426027,56.8267417,53.2313791
23,Комсомольская улица,426027,56.8269778,53.2311868
25,Комсомольская улица,426027,56.8270945,53.2311088
27,Комсомольская улица,426027,56.8272551,53.2310049
29,Комсомольская улица,426027,56.8274443,53.2308723
29А,Комсомольская улица,426027,56.8273461,53.2309399
3,Комсомольская улица,426027,56.8249783,53.2322914
31,Комсомольская улица,426027,56.8276277,53.2307605
31А,Комсомольская улица,426027,56.8275324,53.2308151
33,Комсомольская улица,426027,56.8277899,53.2306826
35,Комсомольская улица,426027,56.8279890,53.2305890
37,Комсомольская улица,426027,56.8282008,53.2304851
39,Комсомольская улица,426027,56.8284312,53.2303863
41,Комсомольская улица,426027,56.8285805,53.2303213
43,Комсомольская улица,426027,56.8287398,53.2302538
45,Комсомольская улица,426027,56.8288934,53.2301887
47,Комсомольская улица,426027,56.8290270,53.2301264
49А,Комсомольская улица,426027,56.8292204,53.2300329
5,Комсомольская улица,426027,56.8251915,53.2321927
51,Комсомольская улица,426027,56.8294664,53.2299080
51А,Комсомольская улица,426027,56.8293242,53.2299783
53,Комсомольская улица,426027,56.8296869,53.2298015
55,Комсомольская улица,426027,56.8298475,53.2297132
57,Комсомольская улица,426027,56.8299685,53.2296456
59,Комсомольская улица,426027,56.8301291,53.2295650
61,Комсомольская улица,426027,56.8303452,53.2294428
65,Комсомольская улица,426027,56.8304861,53.2294065
7,Комсомольская улица,426027,56.8253707,53.2321017
77,Комсомольская улица,426027,56.8314316,53.2290062
87,Комсомольская улица,426027,56.8323513,53.2286162
89А,Комсомольская улица,426027,56.8325948,53.2285280
89,Комсомольская улица,426027,56.8327342,53.2284760
9,Комсомольская улица,426027,56.8256154,53.2319717
10,Комсомольская улица,426027,56.8248859,53.2329100
12,Комсомольская улица,426027,56.8251446,53.2328034
14,Комсомольская улица,426027,56.8253693,53.2326267
16,Комсомольская улица,426027,56.8255812,53.2325201
18,Комсомольская улица,426027,56.8257647,53.2326578
2,Комсомольская улица,426027,56.8242800,53.2331595
20,Комсомольская улица,426027,56.8259326,53.2322966
22,Комсомольская улица,426027,56.8262980,53.2321094
24,Комсомольская улица,426027,56.8265114,53.2320003
26,Комсомольская улица,426027,56.8267119,53.2318911
28,Комсомольская улица,426027,56.8268242,53.2318288
30,Комсомольская улица,426027,56.8270148,53.2317222
32,Комсомольская улица,426027,56.8271826,53.2316208
34,Комсомольская улица,426027,56.8273305,53.2315325
36,Комсомольская улица,426027,56.8274998,53.2314311
38,Комсомольская улица,426027,56.8276377,53.2313479
4,Комсомольская улица,426027,56.8243909,53.2331075
40,Комсомольская улица,426027,56.8277884,53.2312180
42,Комсомольская улица,426027,56.8279519,53.2311349
44,Комсомольская улица,426027,56.8281298,53.2310595
46,Комсомольская улица,426027,56.8282250,53.2310179
48,Комсомольская улица,426027,56.8284724,53.2309113
50,Комсомольская улица,426027,56.8286815,53.2308230
52,Комсомольская улица,426027,56.8288508,53.2307423
54,Комсомольская улица,426027,56.8289944,53.2307138
56,Комсомольская улица,426027,56.8292603,53.2306072
56А,Комсомольская улица,426027,56.8291607,53.2306462
58,Комсомольская улица,426027,56.8294181,53.2305448
6,Комсомольская улица,426027,56.8245658,53.2330399
60,Комсомольская улица,426027,56.8296044,53.2304773
62,Комсомольская улица,426027,56.8298162,53.2303941
64,Комсомольская улица,426027,56.8299903,53.2303947
68,Комсомольская улица,426027,56.8304121,53.2303135
68А,Комсомольская улица,426027,56.8302500,53.2303759
72,Комсомольская улица,426027,56.8308102,53.2300120
74,Комсомольская улица,426027,56.8309852,53.2299393
76,Комсомольская улица,426027,56.8311145,53.2298873
78,Комсомольская улица,426027,56.8312894,53.2298197
8,Комсомольская улица,426027,56.8247549,53.2329646
90,Комсомольская улица,426027,56.8325578,53.2293233
92,Комсомольская улица,426027,56.8328507,53.2292219
94,Комсомольская улица,426027,56.8330342,53.2292505
10,Комсомольский проезд,426027,56.8310094,53.2285059
12,Комсомольский проезд,426027,56.8312013,53.2284253
14,Комсомольский проезд,426027,56.8313705,53.2283525
16,Комсомольский проезд,426027,56.8315454,53.2282771
18,Комсомольский проезд,426027,56.8317275,53.2280966
2,Комсомольский проезд,426027,56.8300197,53.2289452
20,Комсомольский проезд,426027,56.8319307,53.2280771
22,Комсомольский проезд,426027,56.8318767,53.2276768
24,Комсомольский проезд,426027,56.8321782,53.2281576
26,Комсомольский проезд,426027,56.8322038,53.2276924
28,Комсомольский проезд,426027,56.8324499,53.2278300
30,Комсомольский проезд,426027,56.8325167,53.2274793
32,Комсомольский проезд,426027,56.8326986,53.2273623
34,Комсомольский проезд,426027,56.8329119,53.2276845
4,Комсомольский проезд,426027,56.8303794,53.2287917
6,Комсомольский проезд,426027,56.8306325,53.2286826
8,Комсомольский проезд,426027,56.8308060,53.2286228
1,Пионерская улица,426027,56.8275381,53.2291799
11,Пионерская улица,426027,56.8284994,53.2286704
13,Пионерская улица,426027,56.8286004,53.2286184
13А,Пионерская улица,426027,56.8287811,53.2285274
15,Пионерская улица,426027,56.8289801,53.2283975
1А,Пионерская улица,426027,56.8266237,53.2300713
23,Пионерская улица,426027,56.8295503,53.2279323
25,Пионерская улица,426027,56.8297665,53.2278023
27,Пионерская улица,426027,56.8298944,53.2277530
29,Пионерская улица,426027,56.8300779,53.2276204
33,Пионерская улица,426027,56.8303054,53.2275112
35,Пионерская улица,426027,56.8304605,53.2274332
37,Пионерская улица,426027,56.8306197,53.2273215
40,Подгорная улица,426027,56.8268228,53.2295955
43,Пионерская улица,426027,56.8309666,53.2270642
45,Пионерская улица,426027,56.8311899,53.2268849
47,Пионерская улица,426027,56.8313861,53.2267523
49,Пионерская улица,426027,56.8316080,53.2265989
5,Пионерская улица,426027,56.8277557,53.2290498
51,Пионерская улица,426027,56.8318966,53.2264482
51А,Пионерская улица,426027,56.8316961,53.2263832
55,Пионерская улица,426027,56.8321312,53.2263339
57,Пионерская улица,426027,56.8322890,53.2262688
57А,Пионерская улица,426027,56.8324071,53.2262169
59,Пионерская улица,426027,56.8325507,53.2261571
61,Пионерская улица,426027,56.8326510,53.2261157
65,Пионерская улица,426027,56.8328347,53.2260440
67,Пионерская улица,426027,56.8330393,53.2259762
7,Пионерская улица,426027,56.8279135,53.2289927
10,Пионерская улица,426027,56.8253065,53.2313754
100,Пионерская улица,426027,56.8321352,53.2268837
102,Пионерская улица,426027,56.8323021,53.2268139
104,Пионерская улица,426027,56.8324790,53.2267441
106,Пионерская улица,426027,56.8326982,53.2266540
108,Пионерская улица,426027,56.8328852,53.2265787
110,Пионерская улица,426027,56.8330441,53.2273138
112,Пионерская улица,426027,56.8330924,53.2264996
14,Пионерская улица,426027,56.8255790,53.2312026
16,Пионерская улица,426027,56.8257198,53.2311070
18,Пионерская улица,426027,56.8258777,53.2310004
20,Пионерская улица,426027,56.8261895,53.2308075
22,Пионерская улица,426027,56.8264147,53.2306568
22Б,Пионерская улица,426027,56.8264157,53.2311346
24,Пионерская улица,426027,56.8265635,53.2305557
26,Пионерская улица,426027,56.8268169,53.2303682
28,Пионерская улица,426027,56.8269618,53.2302323
30,Пионерская улица,426027,56.8270271,53.2299583
32,Пионерская улица,426027,56.8272403,53.2299345
34,Пионерская улица,426027,56.8273811,53.2298132
36,Пионерская улица,426027,56.8274746,53.2297323
38,Пионерская улица,426027,56.8275923,53.2298775
40,Пионерская улица,426027,56.8276083,53.2296166
42,Пионерская улица,426027,56.8276958,53.2295393
44,Пионерская улица,426027,56.8278256,53.2294457
46,Пионерская улица,426027,56.8279885,53.2293684
48,Пионерская улица,426027,56.8281584,53.2292729
50,Пионерская улица,426027,56.8283394,53.2291828
52,Пионерская улица,426027,56.8286089,53.2290340
52А,Пионерская улица,426027,56.8284942,53.2290983
54,Пионерская улица,426027,56.8287999,53.2289347
56,Пионерская улица,426027,56.8290040,53.2288245
6,Пионерская улица,426027,56.8248237,53.2320002
62,Пионерская улица,426027,56.8294143,53.2285764
66,Пионерская улица,426027,56.8297140,53.2283190
6А,Пионерская улица,426027,56.8249928,53.2317338
72,Пионерская улица,426027,56.8299211,53.2281977
76,Пионерская улица,426027,56.8301896,53.2280453
78,Пионерская улица,426027,56.8303474,53.2282254
8,Пионерская улица,426027,56.8251647,53.2314930
82,Пионерская улица,426027,56.8306159,53.2278872
82А,Пионерская улица,426027,56.8305475,53.2281500
84,Пионерская улица,426027,56.8307607,53.2277861
86,Пионерская улица,426027,56.8309547,53.2276465
90,Пионерская улица,426027,56.8311126,53.2275306
92,Пионерская улица,426027,56.8312916,53.2274002
94,Пионерская улица,426027,56.8314484,53.2273321
96А,Пионерская улица,426027,56.8316756,53.2273634
98,Пионерская улица,426027,56.8319542,53.2269609
98А,Пионерская улица,426027,56.8317933,53.2273101
33,улица Кунгурцева Е.М.,426039,56.8918678,53.2526455
27,улица Кунгурцева Е.М.,426039,56.8912485,53.2517093
27,улица Кунгурцева Е.М.,426039,56.8913876,53.2509783
29,улица Кунгурцева Е.М.,426039,56.8918943,53.2510260
6,улица Кунгурцева Е.М.,426039,56.8898176,53.2464277
11,Подгорная улица,426027,56.8246458,53.2311049
11А,Подгорная улица,426027,56.8245321,53.2312503
11Б,Подгорная улица,426027,56.8247098,53.2309203
13,Подгорная улица,426027,56.8248820,53.2308943
21,Подгорная улица,426027,56.8254992,53.2302991
23,Подгорная улица,426027,56.8256698,53.2301484
25,Подгорная улица,426027,56.8258960,53.2298625
27,Подгорная улица,426027,56.8259415,53.2295506
29,Подгорная улица,426027,56.8261193,53.2295454
3,Подгорная улица,426027,56.8238722,53.2333166
33,Подгорная улица,426027,56.8263169,53.2295454
35,Подгорная улица,426027,56.8264378,53.2294258
37,Подгорная улица,426027,56.8264663,53.2290334
39,Подгорная улица,426027,56.8267962,53.2290620
3А,Подгорная улица,426027,56.8238907,53.2329476
47,Подгорная улица,426027,56.8275172,53.2282043
49,Подгорная улица,426027,56.8276879,53.2284122
5,Подгорная улица,426027,56.8238423,53.2326877
51,Подгорная улица,426027,56.8278244,53.2283031
55,Подгорная улица,426027,56.8280975,53.2281471
55А,Подгорная улица,426027,56.8282610,53.2280717
57,Подгорная улица,426027,56.8285254,53.2278041
59,Подгорная улица,426027,56.8286478,53.2277079
5А,Подгорная улица,426027,56.8240143,53.2324902
61,Подгорная улица,426027,56.8287601,53.2276091
63,Подгорная улица,426027,56.8288710,53.2274661
65,Подгорная улица,426027,56.8290089,53.2273570
69,Подгорная улица,426027,56.8291953,53.2271985
71,Подгорная улица,426027,56.8293318,53.2270867
75,Подгорная улица,426027,56.8296431,53.2268813
77,Подгорная улица,426027,56.8297470,53.2268112
79,Подгорная улица,426027,56.8298422,53.2267462
81,Подгорная улица,426027,56.8299816,53.2266578
83,Подгорная улица,426027,56.8301480,53.2265149
85,Подгорная улица,426027,56.8302831,53.2263849
87,Подгорная улица,426027,56.8304665,53.2261536
9,Подгорная улица,426027,56.8243059,53.2316220
9А,Подгорная улица,426027,56.8244296,53.2314116
10,Подгорная улица,426027,56.8243188,53.2322198
102А,Подгорная улица,426027,56.8315884,53.2256287
14,Подгорная улица,426027,56.8244525,53.2319339
16,Подгорная улица,426027,56.8245306,53.2318040
18,Подгорная улица,426027,56.8246757,53.2315961
20,Подгорная улица,426027,56.8249232,53.2312426
20А,Подгорная улица,426027,56.8251110,53.2310659
20Б,Подгорная улица,426027,56.8247654,53.2314323
24,Подгорная улица,426027,56.8254267,53.2308112
26,Подгорная улица,426027,56.8256343,53.2307124
28,Подгорная улица,426027,56.8257822,53.2306032
28А,Подгорная улица,426027,56.8259827,53.2304499
32,Подгорная улица,426027,56.8261406,53.2301432
34А,Подгорная улица,426027,56.8263923,53.2300990
38,Подгорная улица,426027,56.8266653,53.2297507
4,Подгорная улица,426027,56.8240869,53.2331008
42,Подгорная улица,426027,56.8269712,53.2294622
44,Подгорная улица,426027,56.8271133,53.2293219
46,Подгорная улица,426027,56.8272214,53.2292231
48,Подгорная улица,426027,56.8274262,53.2289191
50,Подгорная улица,426027,56.8279254,53.2286487
50А,Подгорная улица,426027,56.8275926,53.2288125
56,Подгорная улица,426027,56.8281202,53.2285629
58,Подгорная улица,426027,56.8285212,53.2282563
6,Подгорная улица,426027,56.8241737,53.2327606
66,Подгорная улица,426027,56.8289166,53.2280457
68,Подгорная улица,426027,56.8290957,53.2277001
72,Подгорная улица,426027,56.8294313,53.2275649
74,Подгорная улица,426027,56.8296688,53.2274869
76,Подгорная улица,426027,56.8297911,53.2274115
78,Подгорная улица,426027,56.8298992,53.2273440
8,Подгорная улица,426027,56.8242476,53.2325213
80,Подгорная улица,426027,56.8300271,53.2270919
80,улица Коммунаров,426027,56.8314079,53.2254259
82,Подгорная улица,426027,56.8302390,53.2270893
84,Подгорная улица,426027,56.8304438,53.2269048
86,Подгорная улица,426027,56.8305689,53.2267697
90,Подгорная улица,426027,56.8308661,53.2263434
96,Подгорная улица,426027,56.8311946,53.2258677
98,Подгорная улица,426027,56.8313325,53.2258469
11,Подгорный переулок,426027,56.8254977,53.2286409
12,Подгорный переулок,426027,56.8246872,53.2285344
13,Подгорный переулок,426027,56.8257069,53.2285551
14А,Подгорный переулок,426027,56.8248990,53.2284486
14А1,Подгорный переулок,426027,56.8249914,53.2284097
15,Подгорный переулок,426027,56.8258946,53.2284772
16,Подгорный переулок,426027,56.8251365,53.2281732
17,Подгорный переулок,426027,56.8260297,53.2284900
18,Подгорный переулок,426027,56.8254010,53.2282277
19,Подгорный переулок,426027,56.8264255,53.2282060
2,Подгорный переулок,426027,56.8247525,53.2304447
20,Подгорный переулок,426027,56.8256059,53.2281393
21А,Подгорный переулок,426027,56.8249374,53.2302368
22,Подгорный переулок,426027,56.8258589,53.2280380
24,Подгорный переулок,426027,56.8259970,53.2277287
25,Подгорный переулок,426027,56.8253427,53.2297222
25А,Подгорный переулок,426027,56.8253313,53.2293245
26,Подгорный переулок,426027,56.8263084,53.2278352
27А,Подгорный переулок,426027,56.8255660,53.2292179
28,Подгорный переулок,426027,56.8264392,53.2277806
29,Подгорный переулок,426027,56.8265715,53.2285006
30,Подгорный переулок,426027,56.8267464,53.2276247
31А,Подгорный переулок,426027,56.8258405,53.2290802
32,Подгорный переулок,426027,56.8269085,53.2275571
33А,Подгорный переулок,426027,56.8261050,53.2289580
34,Подгорный переулок,426027,56.8271332,53.2274506
35,Подгорный переулок,426027,56.8270906,53.2278949
35А,Подгорный переулок,426027,56.8262870,53.2287865
36,Подгорный переулок,426027,56.8273849,53.2273362
38,Подгорный переулок,426027,56.8275769,53.2272583
39,Подгорный переулок,426027,56.8276295,53.2276403
39А,Подгорный переулок,426027,56.8268033,53.2283732
40,Подгорный переулок,426027,56.8277931,53.2271672
41,Подгорный переулок,426027,56.8279111,53.2275155
42,Подгорный переулок,426027,56.8279993,53.2271101
43,Подгорный переулок,426027,56.8294868,53.2265979
44,Подгорный переулок,426027,56.8281315,53.2270919
45,Подгорный переулок,426027,56.8294271,53.2262472
46,Подгорный переулок,426027,56.8283818,53.2270971
48,Подгорный переулок,426027,56.8284686,53.2270399
5,Подгорный переулок,426027,56.8248806,53.2288930
50,Подгорный переулок,426027,56.8286406,53.2267618
52,Подгорный переулок,426027,56.8287658,53.2266526
54,Подгорный переулок,426027,56.8290388,53.2266423
5А,Подгорный переулок,426027,56.8249203,53.2295039
6А,Подгорный переулок,426027,56.8249787,53.2298859
7,Подгорный переулок,426027,56.8250598,53.2288229
73,Подгорная улица,426027,56.8292663,53.2264993
8,Подгорный переулок,426027,56.8246046,53.2291036
9,Подгорный переулок,426027,56.8252830,53.2287319
24,улица Ярушки,426068,56.8645932,53.3011618
25,улица Ярушки,426068,56.8648656,53.3005323
26,улица Ярушки,426068,56.8648274,53.3000842
27,улица Ярушки,426068,56.8648515,53.2994052
28,улица Ярушки,426068,56.8650433,53.2989403
29,улица Ярушки,426068,56.8649691,53.2983026
30,улица Ярушки,426068,56.8649333,53.2978526
31,улица Ярушки,426068,56.8650763,53.2972168
32,улица Ярушки,426068,56.8650058,53.2967119
32А,улица Ярушки,426068,56.8653505,53.2968748
023А,улица Воровского,426027,56.8237974,53.2381729
023,улица Воровского,426027,56.8240627,53.2381777
021,улица Воровского,426027,56.8242335,53.2381176
019,улица Воровского,426027,56.8244139,53.2379646
017,улица Воровского,426027,56.8246079,53.2379209
015,улица Воровского,426027,56.8248102,53.2378561
011,улица Воровского,426027,56.8251793,53.2377696
09,улица Воровского,426027,56.8253711,53.2377047
014,улица Воровского,426027,56.8252529,53.2384706
016,улица Воровского,426027,56.8250269,53.2385450
018,улица Воровского,426027,56.8248246,53.2386171
020,улица Воровского,426027,56.8246184,53.2386842
022,улица Воровского,426027,56.8244765,53.2387346
024,улица Воровского,426027,56.8243478,53.2387802
026,улица Воровского,426027,56.8241665,53.2388426
028,улица Воровского,426027,56.8239484,53.2390132
6,Курортная улица,426009,56.8427265,53.2723206
10,Курортная улица,426009,56.8423662,53.2701655
8,Курортная улица,426009,56.8426183,53.2710860
6Б,Союзная улица,426075,56.8455015,53.3056986
10,Ершовская улица,426054,56.9448251,53.1473788
11,Ершовская улица,426054,56.9444979,53.1463993
12,Ершовская улица,426054,56.9448445,53.1480096
13,Ершовская улица,426054,56.9445134,53.1468618
14,Ершовская улица,426054,56.9448665,53.1487520
15,Ершовская улица,426054,56.9445509,53.1475970
16,Ершовская улица,426054,56.9448781,53.1492073
17,Ершовская улица,426054,56.9445599,53.1479243
18,Ершовская улица,426054,56.9448600,53.1495937
19,Ершовская улица,426054,56.9445755,53.1485978
2,Ершовская улица,426054,56.9447964,53.1434532
20,Ершовская улица,426054,56.9448548,53.1501914
21,Ершовская улица,426054,56.9445807,53.1490840
21А,Ершовская улица,426054,56.9445767,53.1494112
22,Ершовская улица,426054,56.9457901,53.1500800
23,Ершовская улица,426054,56.9445781,53.1498619
25,Ершовская улица,426054,56.9445781,53.1504097
26,Ершовская улица,426054,56.9458134,53.1505116
27,Ершовская улица,426054,56.9444786,53.1510394
28,Ершовская улица,426054,56.9448613,53.1507725
28В,Ершовская улица,426054,56.9452339,53.1507085
29,Ершовская улица,426054,56.9445611,53.1516311
2А,Ершовская улица,426054,56.9448002,53.1441453
30,Ершовская улица,426054,56.9448575,53.1514318
31,Ершовская улица,426054,56.9445483,53.1521030
32,Ершовская улица,426054,56.9448601,53.1517568
33,Ершовская улица,426054,56.9445392,53.1525133
34,Ершовская улица,426054,56.9449467,53.1520532
35,Ершовская улица,426054,56.9445315,53.1532057
36,Ершовская улица,426054,56.9448613,53.1523971
37,Ершовская улица,426054,56.9445315,53.1534382
38,Ершовская улица,426054,56.9448639,53.1527468
39,Ершовская улица,426054,56.9445341,53.1542446
4,Ершовская улица,426054,56.9448011,53.1446995
41,Ершовская улица,426054,56.9445548,53.1552998
42,Ершовская улица,426054,56.9449726,53.1536766
43,Ершовская улица,426054,56.9445664,53.1557504
44,Ершовская улица,426054,56.9448976,53.1541485
45,Ершовская улица,426054,56.9445819,53.1563220
46,Ершовская улица,426054,56.9449053,53.1543999
47,Ершовская улица,426054,56.9446311,53.1571000
48,Ершовская улица,426054,56.9449196,53.1549026
49,Ершовская улица,426054,56.9446376,53.1573299
4А,Ершовская улица,426054,56.9448022,53.1453376
50,Ершовская улица,426054,56.9449364,53.1553533
51,Ершовская улица,426054,56.9446453,53.1577474
52,Ершовская улица,426054,56.9449467,53.1556663
52А,Ершовская улица,426054,56.9449558,53.1559651
53,Ершовская улица,426054,56.9449842,53.1575150
55,Ершовская улица,426054,56.9452999,53.1576999
56,Ершовская улица,426054,56.9457008,53.1566363
57,Ершовская улица,426054,56.9457419,53.1573135
58,Ершовская улица,426054,56.9459635,53.1565864
59,Ершовская улица,426054,56.9460682,53.1572422
6,Ершовская улица,426054,56.9448108,53.1460946
60,Ершовская улица,426054,56.9463322,53.1565272
62,Ершовская улица,426054,56.9473560,53.1559953
63,Ершовская улица,426054,56.9465236,53.1570786
64,Ершовская улица,426054,56.9475037,53.1557035
65,Ершовская улица,426054,56.9474290,53.1564644
66,Ершовская улица,426054,56.9477472,53.1556237
66А,Ершовская улица,426054,56.9475357,53.1544968
67,Ершовская улица,426054,56.9476282,53.1563150
67А,Ершовская улица,426054,56.9478766,53.1561157
68,Ершовская улица,426054,56.9480680,53.1553153
69,Ершовская улица,426054,56.9481003,53.1559213
7,Ершовская улица,426054,56.9444707,53.1450048
70,Ершовская улица,426054,56.9482594,53.1551208
71,Ершовская улица,426054,56.9484042,53.1555583
72,Ершовская улица,426054,56.9484896,53.1546631
73,Ершовская улица,426054,56.9485815,53.1553995
74,Ершовская улица,426054,56.9487625,53.1546347
75,Ершовская улица,426054,56.9489269,53.1550770
75,Ершовская улица,426054,56.9492476,53.1548516
76,Ершовская улица,426054,56.9490458,53.1544165
77,Ершовская улица,426054,56.9495438,53.1546549
78,Ершовская улица,426054,56.9498180,53.1539564
79,Ершовская улица,426054,56.9498632,53.1543798
7А,Ершовская улица,426054,56.9440050,53.1450356
8,Ершовская улица,426054,56.9448201,53.1468328
81,Ершовская улица,426054,56.9500728,53.1552264
9,Ершовская улица,426054,56.9443595,53.1457163
5А,Ершовская улица,426054,56.9442663,53.1441569
29,Демократическая улица,426036,56.7981746,53.2437690
27,Демократическая улица,426036,56.7984859,53.2437530
100,Календарная улица,426027,56.8201923,53.2498272
102,Календарная улица,426027,56.8203831,53.2500651
104,Календарная улица,426027,56.8204153,53.2505832
106,Календарная улица,426027,56.8204810,53.2508870
108,Календарная улица,426027,56.8206357,53.2512591
110,Календарная улица,426027,56.8207620,53.2516618
31,Календарная улица,426027,56.8206292,53.2499120
33,Календарная улица,426027,56.8207633,53.2504419
35,Календарная улица,426027,56.8208612,53.2507739
37,Календарная улица,426027,56.8209308,53.2510801
39,Календарная улица,426027,56.8210043,53.2514640
41,Календарная улица,426027,56.8210572,53.2516947
47,Календарная улица,426027,56.8213432,53.2528086
49,Календарная улица,426027,56.8214167,53.2530512
51,Календарная улица,426027,56.8215198,53.2532372
52,Календарная улица,426027,56.8190183,53.2418310
53,Календарная улица,426027,56.8216023,53.2535481
54,Календарная улица,426027,56.8190762,53.2421630
55,Календарная улица,426027,56.8216436,53.2537035
57,Календарная улица,426027,56.8217054,53.2539319
58,Календарная улица,426027,56.8191858,53.2427965
59,Календарная улица,426027,56.8217736,53.2541863
6,Календарная улица,426027,56.8214278,53.2540760
60,Календарная улица,426027,56.8192335,53.2431097
61,Календарная улица,426027,56.8218665,53.2545396
63,Календарная улица,426027,56.8219451,53.2548386
64,Календарная улица,426027,56.8193250,53.2437173
65,Календарная улица,426027,56.8220533,53.2552508
66,Календарная улица,426027,56.8193753,53.2440446
67,Календарная улица,426027,56.8221165,53.2554862
68,Календарная улица,426027,56.8194229,53.2443720
69,Календарная улица,426027,56.8221809,53.2557877
70,Календарная улица,426027,56.8194706,53.2446852
72,Календарная улица,426027,56.8195183,53.2449961
74,Календарная улица,426027,56.8195647,53.2452998
76,Календарная улица,426027,56.8196085,53.2455895
78,Календарная улица,426027,56.8196472,53.2458509
8,Календарная улица,426027,56.8212369,53.2534646
86,Календарная улица,426027,56.8198366,53.2472073
92,Календарная улица,426027,56.8199024,53.2482671
96,Календарная улица,426027,56.8201292,53.2489653
98,Календарная улица,426027,56.8202285,53.2493421
1,переулок Коммунаров,426027,56.8254508,53.2254481
10,переулок Коммунаров,426027,56.8254815,53.2261902
102,переулок Коммунаров,426027,56.8297562,53.2234481
104,переулок Коммунаров,426027,56.8299388,53.2233947
106,переулок Коммунаров,426027,56.8301695,53.2233306
108,переулок Коммунаров,426027,56.8303302,53.2232559
11,переулок Коммунаров,426027,56.8262030,53.2248982
110,переулок Коммунаров,426027,56.8305755,53.2232105
111,переулок Коммунаров,426027,56.8310486,53.2230291
112,переулок Коммунаров,426027,56.8307260,53.2231625
113,переулок Коммунаров,426027,56.8311999,53.2233805
11А,переулок Коммунаров,426027,56.8262264,53.2251144
12,переулок Коммунаров,426027,56.8256612,53.2261261
13А,переулок Коммунаров,426027,56.8265331,53.2249223
14,переулок Коммунаров,426027,56.8258685,53.2260541
15,переулок Коммунаров,426027,56.8264367,53.2252960
17,переулок Коммунаров,426027,56.8267186,53.2252693
18,переулок Коммунаров,426027,56.8263053,53.2258859
19,переулок Коммунаров,426027,56.8268544,53.2252212
1А,переулок Коммунаров,426027,56.8254713,53.2256804
2,переулок Коммунаров,426027,56.8252288,53.2247700
20,переулок Коммунаров,426027,56.8265229,53.2258085
21,переулок Коммунаров,426027,56.8271465,53.2251091
22,переулок Коммунаров,426027,56.8266733,53.2257524
23А,переулок Коммунаров,426027,56.8270502,53.2246393
24,переулок Коммунаров,426027,56.8269990,53.2256296
25,переулок Коммунаров,426027,56.8272926,53.2247061
26,переулок Коммунаров,426027,56.8272152,53.2255549
27,переулок Коммунаров,426027,56.8273552,53.2250550
28,переулок Коммунаров,426027,56.8274034,53.2254794
29,переулок Коммунаров,426027,56.8275874,53.2249749
2А,переулок Коммунаров,426027,56.8252244,53.2250023
3,переулок Коммунаров,426027,56.8257385,53.2255389
30,переулок Коммунаров,426027,56.8275947,53.2254154
31,переулок Коммунаров,426027,56.8277758,53.2249082
32,переулок Коммунаров,426027,56.8278278,53.2253675
33,переулок Коммунаров,426027,56.8277905,53.2244416
34,переулок Коммунаров,426027,56.8280022,53.2252766
37,переулок Коммунаров,426027,56.8280124,53.2248254
38,переулок Коммунаров,426027,56.8284126,53.2251111
39,переулок Коммунаров,426027,56.8282052,53.2247587
4,переулок Коммунаров,426027,56.8252200,53.2252746
41,переулок Коммунаров,426027,56.8284272,53.2246279
42,переулок Коммунаров,426027,56.8286886,53.2246974
43,переулок Коммунаров,426027,56.8284023,53.2240594
43А,переулок Коммунаров,426027,56.8284156,53.2242969
44,переулок Коммунаров,426027,56.8286894,53.2241439
48,переулок Коммунаров,426027,56.8286521,53.2233627
49,переулок Коммунаров,426027,56.8257193,53.2242248
5,переулок Коммунаров,426027,56.8257079,53.2252505
50А,переулок Коммунаров,426027,56.8254479,53.2248715
52,переулок Коммунаров,426027,56.8258393,53.2245805
53,переулок Коммунаров,426027,56.8262101,53.2240674
54,переулок Коммунаров,426027,56.8260774,53.2245352
55,переулок Коммунаров,426027,56.8264044,53.2240060
56,переулок Коммунаров,426027,56.8262381,53.2244845
57,переулок Коммунаров,426027,56.8265971,53.2239446
58,переулок Коммунаров,426027,56.8265170,53.2245432
59,переулок Коммунаров,426027,56.8267826,53.2238859
6,переулок Коммунаров,426027,56.8252156,53.2257738
60,переулок Коммунаров,426027,56.8266850,53.2243404
61,переулок Коммунаров,426027,56.8269900,53.2238165
61А,переулок Коммунаров,426027,56.8272281,53.2237364
62,переулок Коммунаров,426027,56.8270078,53.2242736
63,переулок Коммунаров,426027,56.8273464,53.2236937
64,переулок Коммунаров,426027,56.8271743,53.2242176
65,переулок Коммунаров,426027,56.8275728,53.2236162
66,переулок Коммунаров,426027,56.8273642,53.2241508
67,переулок Коммунаров,426027,56.8278372,53.2235308
68,переулок Коммунаров,426027,56.8276081,53.2240681
69,переулок Коммунаров,426027,56.8280220,53.2234721
6А,переулок Коммунаров,426027,56.8251690,53.2259847
70,переулок Коммунаров,426027,56.8277892,53.2240067
71,переулок Коммунаров,426027,56.8281687,53.2234241
71А,переулок Коммунаров,426027,56.8284112,53.2233466
72,переулок Коммунаров,426027,56.8280491,53.2239159
74,переулок Коммунаров,426027,56.8281879,53.2238679
75,переулок Коммунаров,426027,56.8297650,53.2240247
76,переулок Коммунаров,426027,56.8284187,53.2237958
77,переулок Коммунаров,426027,56.8299110,53.2239445
78,переулок Коммунаров,426027,56.8294992,53.2230184
79,переулок Коммунаров,426027,56.8301535,53.2238538
8,переулок Коммунаров,426027,56.8252332,53.2262383
80,переулок Коммунаров,426027,56.8295313,53.2233680
82,переулок Коммунаров,426027,56.8295386,53.2237150
84,переулок Коммунаров,426027,56.8295168,53.2242035
85,переулок Коммунаров,426027,56.8307931,53.2236056
86,переулок Коммунаров,426027,56.8295241,53.2244971
87,переулок Коммунаров,426027,56.8297416,53.2229918
88,переулок Коммунаров,426027,56.8298731,53.2244063
89,переулок Коммунаров,426027,56.8299344,53.2229543
8А,переулок Коммунаров,426027,56.8252084,53.2264545
9,переулок Коммунаров,426027,56.8262702,53.2254615
91,переулок Коммунаров,426027,56.8301856,53.2228849
92,переулок Коммунаров,426027,56.8301359,53.2243076
93,переулок Коммунаров,426027,56.8303813,53.2228288
94,переулок Коммунаров,426027,56.8303536,53.2241954
95,переулок Коммунаров,426027,56.8305741,53.2227728
96,переулок Коммунаров,426027,56.8305580,53.2241154
97,переулок Коммунаров,426027,56.8307435,53.2227247
98,переулок Коммунаров,426027,56.8308121,53.2242035
1,Жемчужная улица,426054,56.9474270,53.1351878
1,Каштановая улица,426054,56.9464978,53.1340970
10,Жасминовая улица,426054,56.9450788,53.1398020
10,Каштановая улица,426054,56.9462669,53.1357090
10,Ракитовая улица,426054,56.9451749,53.1314982
11,Каштановая улица,426054,56.9466488,53.1363282
11,Ракитовая улица,426054,56.9456677,53.1345824
12,Каштановая улица,426054,56.9463059,53.1361197
12,Ракитовая улица,426054,56.9451921,53.1320491
12,Чистопрудная улица,426054,56.9457114,53.1330062
13,Жасминовая улица,426054,56.9447409,53.1333190
13,Каштановая улица,426054,56.9467133,53.1368138
13,Ракитовая улица,426054,56.9456847,53.1350617
14,Жемчужная улица,426054,56.9472140,53.1365275
14,Каштановая улица,426054,56.9463500,53.1365181
14,Ракитовая улица,426054,56.9452895,53.1336489
14,Чистопрудная улица,426054,56.9461454,53.1331692
15,Жасминовая улица,426054,56.9447511,53.1337329
15,Каштановая улица,426054,56.9467744,53.1372961
15,Ракитовая улица,426054,56.9456966,53.1354569
16,Жемчужная улица,426054,56.9472746,53.1371092
16,Каштановая улица,426054,56.9464009,53.1369476
16,Ракитовая улица,426054,56.9452977,53.1341219
16,Чистопрудная улица,426054,56.9464646,53.1332740
17,Жасминовая улица,426054,56.9447613,53.1341530
17,Каштановая улица,426054,56.9469068,53.1378345
17,Ракитовая улица,426054,56.9457390,53.1359112
18,Жемчужная улица,426054,56.9472283,53.1377168
18,Каштановая улица,426054,56.9464773,53.1374673
18,Ракитовая улица,426054,56.9453044,53.1345015
18,Чистопрудная улица,426054,56.9469820,53.1334777
19,Жасминовая улица,426054,56.9447749,53.1346011
19,Каштановая улица,426054,56.9469948,53.1382902
19,Ракитовая улица,426054,56.9457730,53.1363314
2,Каштановая улица,426054,56.9461837,53.1340596
2,Чистопрудная улица,426054,56.9449436,53.1328202
20,Жемчужная улица,426054,56.9474822,53.1379465
20,Каштановая улица,426054,56.9465730,53.1379565
20,Ракитовая улица,426054,56.9453147,53.1348998
21,Жасминовая улица,426054,56.9447935,53.1350336
21,Каштановая улица,426054,56.9470868,53.1387183
21,Ракитовая улица,426054,56.9458238,53.1367858
22,Жемчужная улица,426054,56.9475578,53.1382698
22,Каштановая улица,426054,56.9466624,53.1384040
22,Ракитовая улица,426054,56.9453367,53.1353480
23,Жасминовая улица,426054,56.9448258,53.1355129
23,Каштановая улица,426054,56.9472116,53.1391213
23,Ракитовая улица,426054,56.9458850,53.1372370
24,Жемчужная улица,426054,56.9476358,53.1387113
24,Каштановая улица,426054,56.9467574,53.1388148
24,Ракитовая улица,426054,56.9453706,53.1357930
25,Жасминовая улица,426054,56.9448445,53.1359549
25,Каштановая улица,426054,56.9473074,53.1395866
25,Ракитовая улица,426054,56.9459648,53.1377473
26,Жемчужная улица,426054,56.9477435,53.1391790
26,Каштановая улица,426054,56.9468457,53.1391789
26,Ракитовая улица,426054,56.9454097,53.1362225
27,Жасминовая улица,426054,56.9448699,53.1363781
27,Каштановая улица,426054,56.9474618,53.1398760
27,Ракитовая улица,426054,56.9460666,53.1383169
28,Каштановая улица,426054,56.9469458,53.1395617
28,Ракитовая улица,426054,56.9454555,53.1365835
29,Жасминовая улица,426054,56.9449141,53.1367951
29,Каштановая улица,426054,56.9477232,53.1403241
29,Ракитовая улица,426054,56.9461565,53.1387401
3,Жемчужная улица,426054,56.9474779,53.1357354
3,Каштановая улица,426054,56.9465114,53.1345513
30,Каштановая улица,426054,56.9470647,53.1399351
30,Ракитовая улица,426054,56.9455064,53.1369694
31,Жасминовая улица,426054,56.9449803,53.1372276
31,Ракитовая улица,426054,56.9462652,53.1391851
32,Каштановая улица,426054,56.9471801,53.1403054
32,Ракитовая улица,426054,56.9455249,53.1374175
33,Жасминовая улица,426054,56.9450379,53.1376322
33,Ракитовая улица,426054,56.9463763,53.1395866
34,Каштановая улица,426054,56.9472955,53.1406789
34,Ракитовая улица,426054,56.9456206,53.1379418
35,Жасминовая улица,426054,56.9451229,53.1381799
36,Ракитовая улица,426054,56.9457357,53.1384071
37,Жасминовая улица,426054,56.9452349,53.1387774
37,Ракитовая улица,426054,56.9466131,53.1403801
38,Ракитовая улица,426054,56.9458221,53.1388553
4,Жемчужная улица,426054,56.9470527,53.1344455
4,Каштановая улица,426054,56.9461956,53.1344766
40,Ракитовая улица,426054,56.9459019,53.1392225
41,Жасминовая улица,426054,56.9454453,53.1395866
42,Ракитовая улица,426054,56.9460021,53.1396520
43,Жасминовая улица,426054,56.9455200,53.1399600
44,Ракитовая улица,426054,56.9461005,53.1400285
45,Жасминовая улица,426054,56.9456371,53.1404019
5,Каштановая улица,426054,56.9465317,53.1349902
5,Чистопрудная улица,426054,56.9463042,53.1323230
50,Ракитовая улица,426054,56.9464256,53.1410832
52,Ракитовая улица,426054,56.9465335,53.1414427
6,Жемчужная улица,426054,56.9470613,53.1348936
6,Каштановая улица,426054,56.9462075,53.1349217
7,Каштановая улица,426054,56.9465606,53.1354414
7,Ракитовая улица,426054,56.9456491,53.1336800
8,Жемчужная улица,426054,56.9470641,53.1353133
8,Каштановая улица,426054,56.9462346,53.1353044
9,Жемчужная улица,426054,56.9478296,53.1375016
9,Каштановая улица,426054,56.9465996,53.1358864
9,Ракитовая улица,426054,56.9456592,53.1341467
124,Колосковый проезд,426054,56.9401802,53.2096283
126,Колосковый проезд,426054,56.9404106,53.2102648
9А,улица Биатлонистов,426039,56.9244291,53.2246347
9,улица Биатлонистов,426039,56.9242931,53.2249618
2,улица Биатлонистов,426039,56.9251273,53.2248724
26А,Клеверная улица,426039,56.9303574,53.2237011
9А,Лыжная улица,426000,56.9211045,53.2209225
11А,Лыжная улица,426000,56.9211418,53.2217372
111А,Спортивная улица,426062,56.8875525,53.3269165
111 к150,Спортивная улица,426062,56.8910566,53.3292399
4,Спортивная улица,426062,56.8846350,53.3389349
16А,Новосмирновская улица,426039,56.9006327,53.3828994
340,Воткинское шоссе,426039,56.9099922,53.3744789
4Б,Якшур-Бодьинский тракт 9 км,426054,56.9093989,53.1327436
4А,Якшур-Бодьинский тракт 9 км,426054,56.9092495,53.1320158
4,Якшур-Бодьинский тракт 9 км,426054,56.9090665,53.1321633
2,Якшур-Бодьинский тракт 9 км,426054,56.9089428,53.1328184
43/1,улица Маяковского,426028,56.8130855,53.2049790
1,улица Сороковой километр,426027,56.8297644,53.2374458
15,улица Сороковой километр,426027,56.8279141,53.2380997
27,улица Сороковой километр,426027,56.8295145,53.2374150
29,улица Сороковой километр,426027,56.8289629,53.2376141
29,улица Сороковой километр,426027,56.8292492,53.2377201
31,улица Сороковой километр,426027,56.8287037,53.2377045
33,улица Сороковой километр,426027,56.8281541,53.2378966
33,улица Сороковой километр,426027,56.8284462,53.2380091
11,улица Сороковой километр,426027,56.8283244,53.2386638
13,улица Сороковой километр,426027,56.8280458,53.2387626
16,Рабочая улица,426027,56.8273305,53.2399754
17Б,Рабочая улица,426027,56.8267868,53.2410862
18,улица Сороковой километр,426027,56.8265677,53.2399671
23,улица Сороковой километр,426027,56.8264903,53.2392993
5,улица Сороковой километр,426027,56.8295024,53.2382542
7,улица Сороковой километр,426027,56.8291760,53.2383631
17,проезд Володарского,426027,56.8256814,53.2363983
18,проезд Володарского,426027,56.8257200,53.2368742
19,проезд Володарского,426027,56.8258989,53.2363988
20,проезд Володарского,426027,56.8259099,53.2368140
21,проезд Володарского,426027,56.8261074,53.2363346
22,проезд Володарского,426027,56.8260767,53.2367719
23,проезд Володарского,426027,56.8262864,53.2362765
24,проезд Володарского,426027,56.8262622,53.2367177
25,проезд Володарского,426027,56.8264400,53.2362283
26,проезд Володарского,426027,56.8264257,53.2366716
27,проезд Володарского,426027,56.8265981,53.2361742
28,проезд Володарского,426027,56.8266200,53.2366134
29,проезд Володарского,426027,56.8267583,53.2361220
30,проезд Володарского,426027,56.8267539,53.2368301
30А,проезд Володарского,426027,56.8269405,53.2365031
31,проезд Володарского,426027,56.8269119,53.2360739
32,проезд Володарского,426027,56.8271084,53.2364510
33,проезд Володарского,426027,56.8270689,53.2360257
34,проезд Володарского,426027,56.8272193,53.2364169
35,проезд Володарского,426027,56.8272566,53.2359696
36,проезд Володарского,426027,56.8273542,53.2363768
37,проезд Володарского,426027,56.8274377,53.2359134
38,проезд Володарского,426027,56.8275837,53.2363045
39,проезд Володарского,426027,56.8275109,53.2355928
40,проезд Володарского,426027,56.8278581,53.2362022
41,проезд Володарского,426027,56.8278009,53.2357730
42,проезд Володарского,426027,56.8279711,53.2362308
43,проезд Володарского,426027,56.8279831,53.2357168
44,проезд Володарского,426027,56.8281889,53.2361907
45,проезд Володарского,426027,56.8281511,53.2356607
46,проезд Володарского,426027,56.8283859,53.2360378
47,проезд Володарского,426027,56.8283289,53.2356045
48,проезд Володарского,426027,56.8285817,53.2359811
49,проезд Володарского,426027,56.8285626,53.2355042
50,проезд Володарского,426027,56.8288399,53.2358707
51,проезд Володарского,426027,56.8287635,53.2354380
52,проезд Володарского,426027,56.8290906,53.2357710
53,проезд Володарского,426027,56.8289116,53.2353939
54,проезд Володарского,426027,56.8293712,53.2356985
55,проезд Володарского,426027,56.8291004,53.2353337
57,проезд Володарского,426027,56.8293276,53.2352254
25,Революционный переулок,426003,56.8268786,53.2210654
23,Революционный переулок,426003,56.8266228,53.2211662
21,Революционный переулок,426003,56.8263826,53.2212346
19,Революционный переулок,426003,56.8261778,53.2212820
19А,Революционный переулок,426003,56.8259137,53.2213372
39,Революционный переулок,426003,56.8284742,53.2205554
37,Революционный переулок,426003,56.8281272,53.2205977
35,Революционный переулок,426003,56.8279361,53.2206683
10,Революционная улица,426003,56.8255623,53.2236621
12,Революционная улица,426003,56.8257987,53.2235929
14,Революционная улица,426003,56.8259627,53.2235469
16,Революционная улица,426003,56.8261439,53.2234921
20А,Революционная улица,426003,56.8264544,53.2234057
24,Революционная улица,426003,56.8269130,53.2232646
26,Революционная улица,426003,56.8271905,53.2231350
28,Революционная улица,426003,56.8274032,53.2230917
30,Революционная улица,426003,56.8276191,53.2230227
32,Революционная улица,426003,56.8278019,53.2229679
34,Революционная улица,426003,56.8280068,53.2229045
36,Революционная улица,426003,56.8282085,53.2228412
38,Революционная улица,426003,56.8283314,53.2228009
40,Революционная улица,426003,56.8285805,53.2227346
42,Революционная улица,426003,56.8288625,53.2226482
48,Революционная улица,426003,56.8294804,53.2224725
50,Революционная улица,426003,56.8297167,53.2223919
54,Революционная улица,426003,56.8301327,53.2222737
56,Революционная улица,426003,56.8303455,53.2222133
6,Революционная улица,426003,56.8252408,53.2237485
60,Революционная улица,426003,56.8307080,53.2221009
66,Революционная улица,426003,56.8319576,53.2217927
68,Революционная улица,426003,56.8322649,53.2216315
8,Революционная улица,426003,56.8254300,53.2237025
1,Аграрная улица,426036,56.8025775,53.2350103
1,Брянский проезд,426036,56.8018540,53.2362411
10,Аграрная улица,426036,56.8041674,53.2368210
10,Брянский проезд,426036,56.8005166,53.2364443
11,Аграрная улица,426036,56.8028294,53.2367318
11,Брянский проезд,426036,56.8014351,53.2334745
12,Аграрная улица,426036,56.8034682,53.2373787
12,Брянский проезд,426036,56.8002804,53.2364317
14,Аграрная улица,426036,56.8040625,53.2373892
14,Брянский проезд,426036,56.8000557,53.2364168
15,Брянский проезд,426036,56.8014120,53.2344764
16,Аграрная улица,426036,56.8048484,53.2368779
17,Брянский проезд,426036,56.8013603,53.2351456
18,Аграрная улица,426036,56.8040141,53.2377239
18,Брянский проезд,426036,56.7996074,53.2363958
2,Брянский проезд,426036,56.8015721,53.2370919
20,Брянский проезд,426036,56.7993400,53.2363811
21,Брянский проезд,426036,56.8012830,53.2360633
3,Брянский проезд,426036,56.8014893,53.2363034
4,Брянский проезд,426036,56.8011378,53.2364525
5,Брянский проезд,426036,56.8015844,53.2359466
6,Аграрная улица,426036,56.8041328,53.2361598
6,Брянский проезд,426036,56.8009234,53.2364611
7,Аграрная улица,426036,56.8047380,53.2394539
7,Брянский проезд,426036,56.8015711,53.2355077
8,Брянский проезд,426036,56.8007310,53.2364568
9,Аграрная улица,426036,56.8026072,53.2360575
9,Брянский проезд,426036,56.8016876,53.2351498
1,Брянская улица,426036,56.8019593,53.2385215
10,Брянская улица,426036,56.8003715,53.2374398
11,Брянская улица,426036,56.7999785,53.2383911
13,Брянская улица,426036,56.7995748,53.2383674
14,Брянская улица,426036,56.7997491,53.2373871
15,Брянская улица,426036,56.7991968,53.2384080
17,Брянская улица,426036,56.7987776,53.2383005
18,Брянская улица,426036,56.7992939,53.2373661
2,Брянская улица,426036,56.8012853,53.2375450
3,Брянская улица,426036,56.8015700,53.2385604
4,Брянская улица,426036,56.8010640,53.2375260
5,Брянская улица,426036,56.8011735,53.2384647
6,Брянская улица,426036,56.8008520,53.2374588
7,Брянская улица,426036,56.8007794,53.2384373
8,Брянская улица,426036,56.8006227,53.2374524
9,Брянская улица,426036,56.8003676,53.2384170
1,Калужская улица,426036,56.8010340,53.2400053
10,Калужская улица,426036,56.8007745,53.2394199
11,Калужская улица,426036,56.8000706,53.2399443
12,Калужская улица,426036,56.8003956,53.2393534
13,Калужская улица,426036,56.7998805,53.2399317
14,Калужская улица,426036,56.8000211,53.2394003
15,Калужская улица,426036,56.7996961,53.2399212
16,Калужская улица,426036,56.7998264,53.2393887
17,Калужская улица,426036,56.7994875,53.2399043
18,Калужская улица,426036,56.7995659,53.2393802
19,Калужская улица,426036,56.7993020,53.2398896
1А,Калужская улица,426036,56.8012933,53.2400011
2,Калужская улица,426036,56.8019498,53.2395066
20,Калужская улица,426036,56.7992610,53.2393400
21,Калужская улица,426036,56.7990530,53.2398706
22,Калужская улица,426036,56.7989171,53.2393276
23,Калужская улица,426036,56.7988295,53.2398538
24,Калужская улица,426036,56.7985886,53.2392876
25,Калужская улица,426036,56.7986047,53.2398328
26,Калужская улица,426036,56.7983499,53.2392713
27,Калужская улица,426036,56.7984400,53.2398222
28,Калужская улица,426036,56.7979709,53.2392658
29,Калужская улица,426036,56.7981283,53.2398425
3,Калужская улица,426036,56.8008301,53.2399927
30,Калужская улица,426036,56.7976678,53.2391971
31,Калужская улица,426036,56.7979513,53.2398012
32,Калужская улица,426036,56.7974246,53.2391845
33,Калужская улица,426036,56.7977485,53.2397927
34,Калужская улица,426036,56.7971733,53.2392161
35,Калужская улица,426036,56.7975110,53.2397823
3А,Калужская улица,426036,56.8015861,53.2400180
4,Калужская улица,426036,56.8016748,53.2392330
5,Калужская улица,426036,56.8006423,53.2399843
6,Калужская улица,426036,56.8013137,53.2394579
7,Калужская улица,426036,56.8004579,53.2399759
8,Калужская улица,426036,56.8010456,53.2394455
9,Калужская улица,426036,56.8002666,53.2399506
20,Аграрная улица,426036,56.8027620,53.2413594
22,Аграрная улица,426036,56.8026244,53.2419227
24,Аграрная улица,426036,56.8033820,53.2385943
5А,Калужская улица,426036,56.8019117,53.2400336
8А,Ялтинская улица,426036,56.8019654,53.2406897
28,Аграрная улица,426036,56.8018854,53.2449151
11,Революционная улица,426003,56.8261115,53.2229507
13,Революционная улица,426003,56.8263319,53.2228898
15,Революционная улица,426003,56.8265306,53.2228334
19А,Революционная улица,426003,56.8269830,53.2225899
23,Революционная улица,426003,56.8272099,53.2226695
25,Революционная улица,426003,56.8273960,53.2224685
27,Революционная улица,426003,56.8276585,53.2224891
29,Революционная улица,426003,56.8278635,53.2224236
31,Революционная улица,426003,56.8280595,53.2223627
33,Революционная улица,426003,56.8282966,53.2222854
35,Революционная улица,426003,56.8284170,53.2222479
37,Революционная улица,426003,56.8286272,53.2221894
39,Революционная улица,426003,56.8288220,53.2221285
3А,Революционная улица,426003,56.8252900,53.2230653
41,Революционная улица,426003,56.8291386,53.2220442
43,Революционная улица,426003,56.8293859,53.2219762
45,Революционная улица,426003,56.8295910,53.2219200
5,Революционная улица,426003,56.8255245,53.2231169
51,Революционная улица,426003,56.8302971,53.2217256
53,Революционная улица,426003,56.8305226,53.2216671
55,Революционная улица,426003,56.8306892,53.2216039
57,Революционная улица,426003,56.8309801,53.2215452
61,Революционная улица,426003,56.8315618,53.2213204
63,Революционная улица,426003,56.8318946,53.2211641
65,Революционная улица,426003,56.8321039,53.2212385
7,Революционная улица,426003,56.8257232,53.2230584
1,Революционный переулок,426003,56.8259725,53.2220710
12,Революционный переулок,426003,56.8263557,53.2223848
14,Революционный переулок,426003,56.8265275,53.2223332
16,Революционный переулок,426003,56.8267966,53.2222606
18,Революционный переулок,426003,56.8269120,53.2222958
20,Революционный переулок,426003,56.8271721,53.2221505
22,Революционный переулок,426003,56.8274118,53.2220757
26,Революционный переулок,426003,56.8277040,53.2219983
27,Революционный переулок,426003,56.8271177,53.2209687
28,Революционный переулок,426003,56.8280218,53.2219000
29,Революционный переулок,426003,56.8273018,53.2207631
3,Революционный переулок,426003,56.8261750,53.2220147
30,Революционный переулок,426003,56.8282948,53.2218086
31,Революционный переулок,426003,56.8275420,53.2207994
32,Революционный переулок,426003,56.8284922,53.2214760
33,Революционный переулок,426003,56.8277209,53.2207348
34,Революционный переулок,426003,56.8284780,53.2210263
4,Пушкинская улица,426003,56.8255986,53.2213220
6,Революционный переулок,426003,56.8256637,53.2224668
8,Революционный переулок,426003,56.8258905,53.2225348
11,Революционный переулок,426003,56.8275763,53.2215805
13,Революционный переулок,426003,56.8278570,53.2214950
15,Революционный переулок,426003,56.8279725,53.2214624
17,Революционный переулок,426003,56.8282636,53.2213582
24,Революционный переулок,426003,56.8275314,53.2222454
34А,Революционный переулок,426003,56.8254218,53.2219036
36,Революционный переулок,426003,56.8255860,53.2218903
38,Революционный переулок,426003,56.8259168,53.2217687
42,Революционный переулок,426003,56.8266664,53.2215159
44,Революционный переулок,426003,56.8272696,53.2213430
46,Революционный переулок,426003,56.8276002,53.2212366
48,Революционный переулок,426003,56.8278362,53.2211396
5,Революционный переулок,426003,56.8264741,53.2219207
50,Революционный переулок,426003,56.8280494,53.2210732
52,Революционный переулок,426003,56.8282324,53.2210161
7,Революционный переулок,426003,56.8266977,53.2218560
9,Революционный переулок,426003,56.8273122,53.2216565
41,Революционный переулок,426003,56.8295420,53.2210139
43,Революционный переулок,426003,56.8298144,53.2209360
45,Революционный переулок,426003,56.8300172,53.2208752
47,Революционный переулок,426003,56.8301700,53.2208296
49,Революционный переулок,426003,56.8304299,53.2207555
51,Революционный переулок,426003,56.8306639,53.2206719
53,Революционный переулок,426003,56.8294110,53.2201645
54А,Революционный переулок,426003,56.8292935,53.2207214
56,Революционный переулок,426003,56.8293040,53.2211659
58,Революционный переулок,426003,56.8293175,53.2215384
59,Революционный переулок,426003,56.8301679,53.2199593
62,Революционный переулок,426003,56.8297666,53.2213560
63,Революционный переулок,426003,56.8305401,53.2198224
66,Революционный переулок,426003,56.8302355,53.2212097
68,Революционный переулок,426003,56.8304778,53.2211451
70,Революционный переулок,426003,56.8306878,53.2210843
72,Революционный переулок,426003,56.8295919,53.2205578
74,Революционный переулок,426003,56.8298165,53.2204914
78,Революционный переулок,426003,56.8302158,53.2203793
82,Революционный переулок,426003,56.8306649,53.2202501
40,улица 40 лет ВЛКСМ,426027,56.8328907,53.2301814
40А,улица 40 лет ВЛКСМ,426027,56.8326491,53.2299847
47,Ботенёвский переулок,426027,56.8323350,53.2298804
49,Ботенёвский переулок,426027,56.8323594,53.2300844
51,Ботенёвский переулок,426027,56.8323984,53.2304604
62А,Пионерская улица,426027,56.8294916,53.2290359
64,Пионерская улица,426027,56.8296733,53.2289433
64,улица Пугачёва,426032,56.8166298,53.2121589
10,проезд Арсена,426027,56.8222564,53.2332462
11,проезд Арсена,426027,56.8219056,53.2337505
12,проезд Арсена,426027,56.8220539,53.2333239
15,проезд Арсена,426027,56.8217030,53.2338309
16,проезд Арсена,426027,56.8217514,53.2334340
17,проезд Арсена,426027,56.8215239,53.2338926
18,проезд Арсена,426027,56.8215547,53.2335037
19,проезд Арсена,426027,56.8213272,53.2339757
20,проезд Арсена,426027,56.8213669,53.2335681
21,проезд Арсена,426027,56.8211321,53.2340509
22,проезд Арсена,426027,56.8211731,53.2336351
23,проезд Арсена,426027,56.8208970,53.2341492
24,проезд Арсена,426027,56.8209911,53.2337021
25,проезд Арсена,426027,56.8207005,53.2342065
26,проезд Арсена,426027,56.8207856,53.2336593
28,проезд Арсена,426027,56.8206623,53.2338336
29,проезд Арсена,426027,56.8204786,53.2342756
3,проезд Арсена,426027,56.8226835,53.2335332
30,проезд Арсена,426027,56.8205067,53.2338926
31,проезд Арсена,426027,56.8201838,53.2343942
32,проезд Арсена,426027,56.8202029,53.2340106
33,проезд Арсена,426027,56.8199739,53.2344585
34,проезд Арсена,426027,56.8199827,53.2340884
35,проезд Арсена,426027,56.8197567,53.2345444
36,проезд Арсена,426027,56.8198036,53.2341555
38,проезд Арсена,426027,56.8196201,53.2342359
39,проезд Арсена,426027,56.8193544,53.2346893
3А,проезд Арсена,426027,56.8228567,53.2335011
4,проезд Арсена,426027,56.8229580,53.2331202
40,проезд Арсена,426027,56.8193618,53.2343459
41,проезд Арсена,426027,56.8190146,53.2348032
43,проезд Арсена,426027,56.8186829,53.2348542
5,проезд Арсена,426027,56.8224768,53.2335881
6,проезд Арсена,426027,56.8225808,53.2331684
7,проезд Арсена,426027,56.8222608,53.2336377
8,проезд Арсена,426027,56.8223885,53.2332140
9,проезд Арсена,426027,56.8221023,53.2336834
10А,Санаторная улица,426016,56.7760092,53.2340963
26,Мраморная улица,426000,56.8137270,53.1404235
2,улица Серова,426035,56.8621422,53.2406843
3Т,Санаторная улица,426016,56.7897946,53.2272892
1,Медведевская улица,426016,56.7913305,53.2286975
10,Медведевская улица,426016,56.7903212,53.2266322
10А,Медведевская улица,426016,56.7904652,53.2268924
10Б,Медведевская улица,426016,56.7901141,53.2262461
11,Медведевская улица,426016,56.7903154,53.2276193
12,Медведевская улица,426016,56.7899819,53.2260208
13,Медведевская улица,426016,56.7901744,53.2273645
14,Медведевская улица,426016,56.7898543,53.2257738
15,Медведевская улица,426016,56.7900700,53.2271593
16,Медведевская улица,426016,56.7895764,53.2253046
17,Медведевская улица,426016,56.7899290,53.2271218
18,Медведевская улица,426016,56.7894457,53.2250631
19,Медведевская улица,426016,56.7897083,53.2268677
2,Медведевская улица,426016,56.7911732,53.2280190
20,Медведевская улица,426016,56.7892429,53.2247574
21,Медведевская улица,426016,56.7895529,53.2264754
22,Медведевская улица,426016,56.7889726,53.2242693
22А,Медведевская улица,426016,56.7890916,53.2244784
23,Медведевская улица,426016,56.7894119,53.2259255
24,Медведевская улица,426016,56.7888478,53.2239441
27,Медведевская улица,426016,56.7891651,53.2255956
29,Медведевская улица,426016,56.7889932,53.2252790
3,Медведевская улица,426016,56.7911395,53.2286279
31,Медведевская улица,426016,56.7888140,53.2249786
33,Медведевская улица,426016,56.7886112,53.2246193
3А,Медведевская улица,426016,56.7909940,53.2287217
4,Медведевская улица,426016,56.7909882,53.2277481
5,Медведевская улица,426016,56.7908795,53.2287968
6,Медведевская улица,426016,56.7908380,53.2272890
7,Медведевская улица,426016,56.7905559,53.2281691
7Б,Медведевская улица,426016,56.7904843,53.2289014
8,Медведевская улица,426016,56.7906620,53.2272251
9,Медведевская улица,426016,56.7904593,53.2278929
1,Санаторная улица,426016,56.7908031,53.2254829
10,Санаторная улица,426016,56.7889916,53.2282647
11,Санаторная улица,426016,56.7891974,53.2285648
12,Санаторная улица,426016,56.7888037,53.2285300
13,Санаторная улица,426016,56.7890519,53.2287982
14,Санаторная улица,426016,56.7886553,53.2286264
15,Санаторная улица,426016,56.7889079,53.2290074
15А,Санаторная улица,426016,56.7888081,53.2291977
16,Медведевский переулок,426016,56.7908545,53.2262339
16,Санаторная улица,426016,56.7881668,53.2288598
17,Санаторная улица,426016,56.7885598,53.2292246
18,Санаторная улица,426016,56.7878281,53.2289296
2,Санаторная улица,426016,56.7906180,53.2250671
21,Санаторная улица,426016,56.7879016,53.2293748
3,Санаторная улица,426016,56.7906576,53.2257887
3А,Санаторная улица,426016,56.7904520,53.2261186
4,Санаторная улица,426016,56.7904946,53.2254508
5,Санаторная улица,426016,56.7895500,53.2278594
5А,Санаторная улица,426016,56.7896998,53.2275643
6,Санаторная улица,426016,56.7894572,53.2272647
7,Санаторная улица,426016,56.7894089,53.2281598
8,Санаторная улица,426016,56.7892079,53.2279279
9,Санаторная улица,426016,56.7892973,53.2283743
1,Санаторный переулок,426016,56.7884672,53.2271131
10,Санаторный переулок,426016,56.7885495,53.2262286
12,Санаторный переулок,426016,56.7884467,53.2259470
14,Санаторный переулок,426016,56.7883144,53.2255956
2,Санаторный переулок,426016,56.7887136,53.2275997
3,Санаторный переулок,426016,56.7883747,53.2267436
4,Санаторный переулок,426016,56.7890255,53.2271379
5,Санаторный переулок,426016,56.7882160,53.2263252
6,Санаторный переулок,426016,56.7888345,53.2269072
7,Санаторный переулок,426016,56.7879648,53.2256063
8,Санаторный переулок,426016,56.7887757,53.2264673
1,Медведевский переулок,426016,56.7899379,53.2247883
10,Медведевский переулок,426016,56.7893105,53.2235436
12,Медведевский переулок,426016,56.7891136,53.2232111
14,Медведевский переулок,426016,56.7896102,53.2226880
15,Медведевский переулок,426016,56.7898775,53.2231548
16А,Медведевский переулок,426016,56.7892061,53.2222697
2,Медведевский переулок,426016,56.7896865,53.2243457
3,Медведевский переулок,426016,56.7900391,53.2243886
4,Медведевский переулок,426016,56.7898277,53.2241981
5,Медведевский переулок,426016,56.7903550,53.2241579
6,Медведевский переулок,426016,56.7899496,53.2238709
6А,Медведевский переулок,426016,56.7894280,53.2231520
7,Медведевский переулок,426016,56.7902226,53.2239208
8,Медведевский переулок,426016,56.7900730,53.2234337
9,Медведевский переулок,426016,56.7903065,53.2235196
71,Изумрудная улица,426016,56.7844731,53.2298241
33,Фронтовая улица,426009,56.8536859,53.2429469
114,Календарная улица,426027,56.8208855,53.2522067
116,Календарная улица,426027,56.8209325,53.2524025
118,Календарная улица,426027,56.8210335,53.2527259
120,Календарная улица,426027,56.8210792,53.2529550
21,улица Позимь,426027,56.8229788,53.2577567
21А,улица Позимь,426027,56.8224033,53.2580619
23,улица Позимь,426027,56.8226865,53.2579091
27,улица Позимь,426027,56.8220979,53.2582953
43,Календарная улица,426027,56.8211189,53.2519572
45,Календарная улица,426027,56.8212422,53.2523944
63,улица Позимь,426027,56.8223842,53.2576114
9А,Карлутская набережная,426063,56.8442292,53.2428027
55,Киварская улица,426054,56.9430699,53.1426326
1,Киварская улица,426054,56.9431987,53.1578192
10,Киварская улица,426054,56.9438264,53.1508401
11,Киварская улица,426054,56.9431490,53.1555635
12,Киварская улица,426054,56.9438614,53.1497833
12А,Киварская улица,426054,56.9438498,53.1505076
13,Киварская улица,426054,56.9433714,53.1552899
14,Киварская улица,426054,56.9438497,53.1493569
15,Киварская улица,426054,56.9434240,53.1544263
16,Киварская улица,426054,56.9438513,53.1488402
17,Киварская улица,426054,56.9432312,53.1541688
18,Киварская улица,426054,56.9437268,53.1478173
19,Киварская улица,426054,56.9434503,53.1537074
1А,Ершовская улица,426054,56.9439171,53.1414712
2,Киварская улица,426054,56.9435879,53.1558693
20,Киварская улица,426054,56.9436449,53.1465137
21,Киварская улица,426054,56.9434606,53.1534284
22,Киварская улица,426054,56.9436040,53.1459450
23,Киварская улица,426054,56.9434723,53.1530958
25,Киварская улица,426054,56.9429880,53.1525755
27,Киварская улица,426054,56.9435104,53.1518083
27А,Киварская улица,426054,56.9435278,53.1514704
27В,Киварская улица,426054,56.9431372,53.1513427
27Б,Киварская улица,426054,56.9429645,53.1516343
29,Киварская улица,426054,56.9435571,53.1509152
3,Киварская улица,426054,56.9432455,53.1574249
31,Киварская улица,426054,56.9435894,53.1504271
33,Киварская улица,426054,56.9436098,53.1499952
35,Киварская улица,426054,56.9435132,53.1492844
37,Киварская улица,426054,56.9434869,53.1488553
39,Киварская улица,426054,56.9435235,53.1482196
4,Киварская улица,426054,56.9436156,53.1552416
41,Киварская улица,426054,56.9434971,53.1478360
45,Киварская улица,426054,56.9434255,53.1467954
47,Киварская улица,426054,56.9433625,53.1459773
49,Киварская улица,426054,56.9432542,53.1447327
49А,Киварская улица,426054,56.9426074,53.1449949
49Б,Киварская улица,426054,56.9427685,53.1448711
5,Киварская улица,426054,56.9432938,53.1568911
51,Киварская улица,426054,56.9432074,53.1441533
59,Киварская улица,426054,56.9423332,53.1440999
6,Киварская улица,426054,56.9436624,53.1542009
63,Киварская улица,426054,56.9426701,53.1551665
7,Киварская улица,426054,56.9433201,53.1563923
8,Киварская улица,426054,56.9437254,53.1522564
81,Киварская улица,426054,56.9424806,53.1569645
47А,Киварская улица,426054,56.9416377,53.1454572
51В,Киварская улица,426054,56.9430882,53.1434493
10,Лозовская улица,426054,56.9481962,53.1526526
11,Лозовская улица,426054,56.9486014,53.1530389
12,Лозовская улица,426054,56.9483266,53.1523327
13,Лозовская улица,426054,56.9487491,53.1529852
14,Лозовская улица,426054,56.9488413,53.1524192
14А,Лозовская улица,426054,56.9486160,53.1524970
15,Лозовская улица,426054,56.9491134,53.1528806
16,Лозовская улица,426054,56.9490097,53.1519754
17,Лозовская улица,426054,56.9493737,53.1527921
18,Лозовская улица,426054,56.9492538,53.1522530
19,Лозовская улица,426054,56.9496225,53.1527035
2,Лозовская улица,426054,56.9468591,53.1531220
2А,Лозовская улица,426054,56.9465621,53.1522798
2В,Лозовская улица,426054,56.9470205,53.1530638
3,Лозовская улица,426054,56.9473177,53.1534944
4,Лозовская улица,426054,56.9474647,53.1528993
4А,Лозовская улица,426054,56.9475876,53.1527840
5,Лозовская улица,426054,56.9475861,53.1533902
6,Лозовская улица,426054,56.9472087,53.1529986
7,Лозовская улица,426054,56.9480791,53.1532105
8,Лозовская улица,426054,56.9477998,53.1527840
9,Лозовская улица,426054,56.9483542,53.1531220
10,Оросовская улица,426054,56.9479270,53.1508180
11,Оросовская улица,426054,56.9480558,53.1501448
13,Оросовская улица,426054,56.9484551,53.1500455
15,Оросовская улица,426054,56.9486599,53.1498068
15А,Оросовская улица,426054,56.9488603,53.1494688
16,Оросовская улица,426054,56.9485736,53.1505900
18,Оросовская улица,426054,56.9488442,53.1504908
20,Оросовская улица,426054,56.9491502,53.1505444
3,Оросовская улица,426054,56.9469316,53.1504546
5,Оросовская улица,426054,56.9471093,53.1504934
6,Оросовская улица,426054,56.9470244,53.1510835
7,Оросовская улица,426054,56.9474545,53.1503406
8,Оросовская улица,426054,56.9472292,53.1509923
8А,Оросовская улица,426054,56.9476681,53.1509038
9,Оросовская улица,426054,56.9476944,53.1502842
10,Бородулинская улица,426054,56.9292710,53.1754715
14,Бородулинская улица,426054,56.9295915,53.1752597
4,Бородулинская улица,426054,56.9286354,53.1758885
6,Бородулинская улица,426054,56.9287939,53.1759489
8,Бородулинская улица,426054,56.9290778,53.1755975
15Т,9 км Якшур-Бодьинского тракта,426054,56.9136285,53.1566557
19,Якшур-Бодьинский тракт 9 км,426054,56.9166472,53.1580010
2,Якшур-Бодьинский тракт 9 км,426054,56.9088655,53.1324748
1Т,Якшур-Бодьинский тракт 9 км,426054,56.9092109,53.1343059
13,Лыжная улица,426000,56.9211193,53.2221811
1,Старосмирновская улица,426039,56.9034426,53.3847131
7,Старосмирновская улица,426039,56.9031596,53.3835077
4,Старосмирновская улица,426039,56.9028684,53.3837541
6,Старосмирновская улица,426039,56.9028500,53.3833288
8,Старосмирновская улица,426039,56.9028758,53.3828597
9,Старосмирновская улица,426039,56.9031559,53.3832242
10,Старосмирновская улица,426039,56.9028629,53.3824175
11,Старосмирновская улица,426039,56.9031431,53.3824007
12,Старосмирновская улица,426039,56.9028421,53.3819494
14,Старосмирновская улица,426039,56.9028610,53.3813814
15,Старосмирновская улица,426039,56.9031448,53.3814826
16,Старосмирновская улица,426039,56.9028537,53.3809595
17,Старосмирновская улица,426039,56.9031429,53.3810752
19,Старосмирновская улица,426039,56.9031375,53.3806220
21,Старосмирновская улица,426039,56.9031265,53.3800078
18,Старосмирновская улица,426039,56.9028482,53.3804330
20,Старосмирновская улица,426039,56.9027910,53.3796871
22,Старосмирновская улица,426039,56.9026712,53.3792281
6,улица Архитектора П.П. Берша,426068,56.8709674,53.3075771
13,Старосмирновская улица,426039,56.9034269,53.3820665
23,Старосмирновская улица,426039,56.9038765,53.3792214
25,Старосмирновская улица,426039,56.9035158,53.3792416
27,Старосмирновская улица,426039,56.9033384,53.3793361
29,Старосмирновская улица,426039,56.9030951,53.3786273
29А,Старосмирновская улица,426039,56.9033532,53.3785058
3,Старосмирновская улица,426039,56.9032168,53.3843345
31,Старосмирновская улица,426039,56.9030601,53.3782527
31А,Старосмирновская улица,426039,56.9030657,53.3780029
33,Старосмирновская улица,426039,56.9030509,53.3774427
35,Старосмирновская улица,426039,56.9030436,53.3770613
37,Старосмирновская улица,426039,56.9031577,53.3767170
43,Старосмирновская улица,426039,56.9029885,53.3761736
45,Старосмирновская улица,426039,56.9028555,53.3757011
47,Старосмирновская улица,426039,56.9027263,53.3752662
47А,Старосмирновская улица,426039,56.9029808,53.3751949
49,Старосмирновская улица,426039,56.9025441,53.3747527
49А,Старосмирновская улица,426039,56.9026012,53.3743916
5,Старосмирновская улица,426039,56.9032057,53.3840072
51,Старосмирновская улица,426039,56.9024169,53.3743444
53,Старосмирновская улица,426039,56.9024630,53.3739360
55,Старосмирновская улица,426039,56.9022584,53.3738550
59,Старосмирновская улица,426039,56.9019119,53.3729437
61,Старосмирновская улица,426039,56.9018174,53.3725560
63,Старосмирновская улица,426039,56.9015820,53.3718232
65,Старосмирновская улица,426039,56.9013498,53.3711067
65А,Старосмирновская улица,426039,56.9015414,53.3713102
65Б,Старосмирновская улица,426039,56.9018050,53.3713507
66,Старосмирновская улица,426039,56.9020648,53.3711062
73,Старосмирновская улица,426039,56.9024666,53.3709254
2,Старосмирновская улица,426039,56.9028555,53.3847160
26,Старосмирновская улица,426039,56.9026492,53.3780198
26А,Старосмирновская улица,426039,56.9027302,53.3783303
28,Старосмирновская улица,426039,56.9027292,53.3776558
30,Старосмирновская улица,426039,56.9027524,53.3768318
32,Старосмирновская улица,426039,56.9021017,53.3767144
34,Старосмирновская улица,426039,56.9026653,53.3764406
36,Старосмирновская улица,426039,56.9026245,53.3762040
38,Старосмирновская улица,426039,56.9024832,53.3756437
40,Старосмирновская улица,426039,56.9018253,53.3758159
40А,Старосмирновская улица,426039,56.9015452,53.3760117
44,Старосмирновская улица,426039,56.9023082,53.3751307
44А,Старосмирновская улица,426039,56.9019414,53.3755257
46,Старосмирновская улица,426039,56.9021275,53.3745806
48,Старосмирновская улица,426039,56.9019930,53.3741048
48А,Старосмирновская улица,426039,56.9018585,53.3745873
50,Старосмирновская улица,426039,56.9018658,53.3737436
52,Старосмирновская улица,426039,56.9016410,53.3730686
52А,Старосмирновская улица,426039,56.9017350,53.3733352
54,Старосмирновская улица,426039,56.9015434,53.3728511
54А,Старосмирновская улица,426039,56.9012687,53.3726635
56,Старосмирновская улица,426039,56.9013590,53.3721405
58,Старосмирновская улица,426039,56.9012503,53.3717523
60,Старосмирновская улица,426039,56.9011802,53.3714553
60А,Старосмирновская улица,426039,56.9010335,53.3709842
24,Старосмирновская улица,426039,56.9028106,53.3787914
1,Спортивная улица,426062,56.8841121,53.3417855
8,Спортивная улица,426062,56.8840018,53.3440959
2А,Спортивная улица,426062,56.8843750,53.3415009
30,Спортивная улица,426062,56.8844692,53.3468474
34,Спортивная улица,426062,56.8843020,53.3475104
36,Спортивная улица,426062,56.8841047,53.3479983
38,Спортивная улица,426062,56.8839572,53.3484022
40,Спортивная улица,426062,56.8839155,53.3490686
42,Спортивная улица,426062,56.8841824,53.3494891
44,Спортивная улица,426062,56.8848580,53.3454775
46,Спортивная улица,426062,56.8839198,53.3428769
53,Спортивная улица,426062,56.8855555,53.3440622
55,Спортивная улица,426062,56.8854894,53.3443809
57,Спортивная улица,426062,56.8853380,53.3450469
59,Спортивная улица,426062,56.8853588,53.3454007
61,Спортивная улица,426062,56.8849027,53.3467359
63,Спортивная улица,426062,56.8847078,53.3474498
65,Спортивная улица,426062,56.8846241,53.3477749
65,Спортивная улица,426062,56.8852108,53.3467950
23,Линейная улица,426062,56.8853427,53.3365969
3,Спортивная улица,426062,56.8874989,53.3303533
35А,Спортивная улица,426062,56.8860859,53.3379508
1В,Спортивная улица,426062,56.8874898,53.3287967
5,Линейная улица,426062,56.8866931,53.3302221
1,Люллинская улица,426036,56.7838811,53.3003393
10,Гороховая улица,426036,56.7827087,53.2998996
2,Гороховая улица,426036,56.7812286,53.3003801
3,Гороховая улица,426036,56.7815063,53.2991248
3,Люллинская улица,426036,56.7843985,53.3000443
4А,Гороховая улица,426036,56.7817796,53.3003077
5,Гороховая улица,426036,56.7816959,53.2990283
5,Гороховая улица,426036,56.7818233,53.2991072
5,Гороховая улица,426036,56.7819648,53.2991008
7,Гороховая улица,426036,56.7823410,53.2988700
7,Люллинская улица,426036,56.7847808,53.2998195
7А,Гороховая улица,426036,56.7821323,53.2988486
1,Овсяная улица,426036,56.7799943,53.2963756
11,Овсяная улица,426036,56.7822498,53.2952329
12,Овсяная улица,426036,56.7823424,53.2958257
2,Овсяная улица,426036,56.7800766,53.2972259
3,Овсяная улица,426036,56.7803866,53.2962951
5,Овсяная улица,426036,56.7809612,53.2959437
5А,Овсяная улица,426036,56.7806585,53.2960377
6,Овсяная улица,426036,56.7810640,53.2965633
7А,Овсяная улица,426036,56.7813006,53.2956836
9,Овсяная улица,426036,56.7818017,53.2954503
9А,Овсяная улица,426036,56.7815563,53.2954073
2,Картофельная улица,426036,56.7793286,53.2938275
4,Картофельная улица,426036,56.7797283,53.2936290
4А,Картофельная улица,426036,56.7800398,53.2939589
4В,Картофельная улица,426036,56.7801250,53.2946134
6,Картофельная улица,426036,56.7802999,53.2932267
6А,Картофельная улица,426036,56.7803455,53.2936049
6Б,Картофельная улица,426036,56.7804189,53.2940260
8,Картофельная улица,426036,56.7805938,53.2930523
8А,Картофельная улица,426036,56.7808569,53.2928941
10А,Картофельная улица,426036,56.7814563,53.2936854
10,Картофельная улица,426036,56.7812903,53.2928726
10,Пшеничная улица,426036,56.7825275,53.2949031
12,Пшеничная улица,426036,56.7824820,53.2944766
15,Гороховая улица,426036,56.7840453,53.2977516
18,Пшеничная улица,426036,56.7820794,53.2921913
18А,Пшеничная улица,426036,56.7824686,53.2916183
2,Пшеничная улица,426036,56.7830932,53.2979420
2А,Пшеничная улица,426036,56.7836016,53.2981781
2Б,Гороховая улица,426036,56.7838197,53.2980569
4,Пшеничная улица,426036,56.7829816,53.2972607
4А,Пшеничная улица,426036,56.7830491,53.2976523
5,Пшеничная улица,426036,56.7825555,53.2971052
5А,Пшеничная улица,426036,56.7824409,53.2967216
6,Пшеничная улица,426036,56.7828787,53.2968101
6А,Пшеничная улица,426036,56.7828567,53.2963997
8А,Пшеничная улица,426036,56.7826671,53.2956138
9,Гороховая улица,426036,56.7826172,53.2974619
5Т,Люллинская улица,426036,56.7852583,53.2999626
10,Люллинская улица,426036,56.7805277,53.3003774
12,Люллинская улица,426036,56.7806849,53.3008871
14А,Люллинская улица,426036,56.7806365,53.3022443
14Б,Люллинская улица,426036,56.7804205,53.3024830
16,Люллинская улица,426036,56.7813242,53.3025689
18,Люллинская улица,426036,56.7814902,53.3029095
18А,Люллинская улица,426036,56.7815769,53.3032099
24,Люллинская улица,426036,56.7822748,53.3043901
26,Люллинская улица,426036,56.7818972,53.3027083
28,Люллинская улица,426036,56.7825020,53.3028832
2А,Люллинская улица,426036,56.7788578,53.2965025
2Б,Люллинская улица,426036,56.7784323,53.2977945
30,Люллинская улица,426036,56.7830693,53.3025131
32,Люллинская улица,426036,56.7834033,53.3023193
34,Люллинская улица,426036,56.7836207,53.3021880
36,Люллинская улица,426036,56.7841148,53.3018811
38,Люллинская улица,426036,56.7846643,53.3015800
40,Люллинская улица,426036,56.7852340,53.3011768
42,Люллинская улица,426036,56.7857338,53.3008559
44,Люллинская улица,426036,56.7862415,53.3002484
46,Люллинская улица,426036,56.7863301,53.3009810
48,Люллинская улица,426036,56.7863668,53.3013565
4А,Люллинская улица,426036,56.7795397,53.2978187
4Б,Люллинская улица,426036,56.7797621,53.2983685
6,Люллинская улица,426036,56.7798870,53.2987091
6А,Люллинская улица,426036,56.7785170,53.2985469
6Б,Люллинская улица,426036,56.7799957,53.2990658
6Г,Люллинская улица,426036,56.7791729,53.3006108
8Б,Люллинская улица,426036,56.7802515,53.2997578
8Г,Люллинская улица,426036,56.7792541,53.3009198
58,Люллинская улица,426036,56.7873003,53.2940483
58А,Люллинская улица,426036,56.7867875,53.2928074
29,улица Габдулхая Тукая,426021,56.8218740,53.0935808
2,Ялтинская улица,426036,56.8010283,53.2413148
2А,Ялтинская улица,426036,56.8012863,53.2413214
4А,Ялтинская улица,426036,56.8015750,53.2413358
6А,Ялтинская улица,426036,56.8019122,53.2413297
10,Ялтинская улица,426036,56.8002454,53.2412827
12,Ялтинская улица,426036,56.8000619,53.2412746
14,Ялтинская улица,426036,56.7998606,53.2412665
16,Ялтинская улица,426036,56.7996727,53.2412585
18,Ялтинская улица,426036,56.7994832,53.2412531
20,Ялтинская улица,426036,56.7992189,53.2412424
22,Ялтинская улица,426036,56.7990338,53.2412317
24,Ялтинская улица,426036,56.7988448,53.2412446
26,Ялтинская улица,426036,56.7986724,53.2412397
28,Ялтинская улица,426036,56.7984801,53.2412343
30,Ялтинская улица,426036,56.7981554,53.2412559
32,Ялтинская улица,426036,56.7979660,53.2412505
34А,Ялтинская улица,426036,56.7976781,53.2412451
36,Ялтинская улица,426036,56.7975400,53.2412424
38,Ялтинская улица,426036,56.7973300,53.2412371
4,Ялтинская улица,426036,56.8008241,53.2413040
40,Ялтинская улица,426036,56.7971347,53.2412317
42,Ялтинская улица,426036,56.7969497,53.2412263
44,Ялтинская улица,426036,56.7967529,53.2412237
46,Ялтинская улица,426036,56.7965590,53.2412183
48,Ялтинская улица,426036,56.7962209,53.2412208
50,Ялтинская улица,426036,56.7956556,53.2411673
6,Ялтинская улица,426036,56.8006317,53.2412961
8,Ялтинская улица,426036,56.8004364,53.2412907
1,Ялтинская улица,426036,56.8010223,53.2418969
11,Ялтинская улица,426036,56.8000457,53.2418673
13,Ялтинская улица,426036,56.7998562,53.2418620
15,Ялтинская улица,426036,56.7996653,53.2418539
17,Ялтинская улица,426036,56.7994611,53.2418164
19,Ялтинская улица,426036,56.7992981,53.2418405
1А,Ялтинская улица,426036,56.8013061,53.2418861
1Б,Ялтинская улица,426036,56.8017924,53.2419472
21,Ялтинская улица,426036,56.7990911,53.2418351
23,Ялтинская улица,426036,56.7988781,53.2418271
25,Ялтинская улица,426036,56.7986636,53.2418191
27,Ялтинская улица,426036,56.7984699,53.2418110
29,Ялтинская улица,426036,56.7981467,53.2418325
3,Ялтинская улица,426036,56.8008109,53.2418942
31,Ялтинская улица,426036,56.7979631,53.2418030
33,Ялтинская улица,426036,56.7977678,53.2417977
35,Ялтинская улица,426036,56.7975723,53.2417923
37,Ялтинская улица,426036,56.7973492,53.2417842
39,Ялтинская улица,426036,56.7971464,53.2417815
41,Ялтинская улица,426036,56.7969423,53.2417734
43,Ялтинская улица,426036,56.7967514,53.2417681
45,Ялтинская улица,426036,56.7964810,53.2417655
47,Ялтинская улица,426036,56.7962637,53.2418271
49,Ялтинская улица,426036,56.7961506,53.2417574
5,Ялтинская улица,426036,56.8006199,53.2418915
51,Ялтинская улица,426036,56.7955694,53.2417727
7,Ялтинская улица,426036,56.8004022,53.2418718
9,Ялтинская улица,426036,56.8002338,53.2418754
10,Демократическая улица,426036,56.8002528,53.2432139
12,Демократическая улица,426036,56.8000486,53.2432165
14,Демократическая улица,426036,56.7998622,53.2432380
16,Демократическая улица,426036,56.7996594,53.2432434
18,Демократическая улица,426036,56.7994626,53.2432460
2,Демократическая улица,426036,56.8010298,53.2431978
20,Демократическая улица,426036,56.7992732,53.2432486
22,Демократическая улица,426036,56.7990896,53.2432514
24,Демократическая улица,426036,56.7988884,53.2432540
26,Демократическая улица,426036,56.7986960,53.2432568
28,Демократическая улица,426036,56.7984786,53.2432568
2А,Демократическая улица,426036,56.8012358,53.2431995
2Б,Демократическая улица,426036,56.8015202,53.2431910
30,Демократическая улица,426036,56.7981687,53.2432165
32,Демократическая улица,426036,56.7979881,53.2432165
34,Демократическая улица,426036,56.7977883,53.2432192
36,Демократическая улица,426036,56.7975709,53.2432218
38,Демократическая улица,426036,56.7973418,53.2432246
4,Демократическая улица,426036,56.8008256,53.2432031
40,Демократическая улица,426036,56.7971743,53.2432273
42,Демократическая улица,426036,56.7969849,53.2432273
44,Демократическая улица,426036,56.7967425,53.2432273
46,Демократическая улица,426036,56.7964145,53.2431471
48,Демократическая улица,426036,56.7962075,53.2431806
6,Демократическая улица,426036,56.8006390,53.2432058
8,Демократическая улица,426036,56.8004129,53.2432353
1,Демократическая улица,426036,56.8010282,53.2437798
11,Демократическая улица,426036,56.8000736,53.2437932
13,Демократическая улица,426036,56.7998724,53.2437932
15,Демократическая улица,426036,56.7996727,53.2437958
17,Демократическая улица,426036,56.7994847,53.2440078
19,Демократическая улица,426036,56.7992982,53.2437905
1А,Демократическая улица,426036,56.8012266,53.2437798
1Б,Демократическая улица,426036,56.8015761,53.2437798
21,Демократическая улица,426036,56.7990852,53.2437932
23,Демократическая улица,426036,56.7988253,53.2437958
25,Демократическая улица,426036,56.7986622,53.2438013
3,Демократическая улица,426036,56.8008079,53.2437824
31,Демократическая улица,426036,56.7979602,53.2437610
33,Демократическая улица,426036,56.7977648,53.2437503
35,Демократическая улица,426036,56.7974397,53.2437508
37А,Демократическая улица,426036,56.7970699,53.2437982
39,Демократическая улица,426036,56.7959170,53.2444744
39А,Демократическая улица,426036,56.7967553,53.2438093
41,Демократическая улица,426036,56.7963742,53.2445232
5,Демократическая улица,426036,56.8006420,53.2437852
7,Демократическая улица,426036,56.8004526,53.2437905
9,Демократическая улица,426036,56.8002572,53.2437932
15,Аграрная улица,426036,56.8013823,53.2449377
1,Азаматовская улица,426054,56.9566087,53.1648121
1,Береговая улица,426033,56.9560972,53.1641601
1,Вишурская улица,426054,56.9566983,53.1688486
1,Новоеловская улица,426054,56.9557506,53.1656970
1,Пихтовая улица,426054,56.9622409,53.1616791
1,Чуровская улица,426054,56.9562191,53.1626208
10,Вишурская улица,426054,56.9551611,53.1690068
10,Граховская улица,426054,56.9602097,53.1687400
11,Азаматовская улица,426054,56.9607814,53.1634292
11,Граховская улица,426054,56.9598864,53.1681284
12,Азаматовская улица,426054,56.9605460,53.1638288
12,Граховская улица,426054,56.9605522,53.1687758
13,Азаматовская улица,426054,56.9610039,53.1635023
13,Граховская улица,426054,56.9605870,53.1674713
14,Азаматовская улица,426054,56.9608069,53.1638872
15,Азаматовская улица,426054,56.9613030,53.1635392
16,Азаматовская улица,426054,56.9610681,53.1639335
17,Азаматовская улица,426054,56.9615652,53.1641909
2,Береговая улица,426033,56.9563136,53.1640528
2,Вишурская улица,426054,56.9563517,53.1685294
2,Граховская улица,426054,56.9601274,53.1649439
2,Новоеловская улица,426054,56.9559374,53.1631531
2,Пихтовая улица,426054,56.9626095,53.1615216
2,Чуровская улица,426054,56.9563027,53.1630219
27,Новоеловская улица,426054,56.9557125,53.1641413
3,Береговая улица,426033,56.9565169,53.1639777
3,Вишурская улица,426054,56.9564146,53.1689773
3,Граховская улица,426054,56.9605164,53.1649972
3,Новоеловская улица,426054,56.9558698,53.1625438
3,Пихтовая улица,426054,56.9626577,53.1606303
3,Чуровская улица,426054,56.9565571,53.1625770
3А,Азаматовская улица,426054,56.9593749,53.1633336
4,Азаматовская улица,426054,56.9594522,53.1637885
4,Береговая улица,426033,56.9567158,53.1639053
4,Вишурская улица,426054,56.9560533,53.1686474
4,Граховская улица,426054,56.9609975,53.1647500
4,Новоеловская улица,426054,56.9557959,53.1621485
4,Чуровская улица,426054,56.9565994,53.1629480
4А,Граховская улица,426054,56.9601190,53.1662026
5,Азаматовская улица,426054,56.9600281,53.1633035
5,Береговая улица,426033,56.9568986,53.1638409
5,Вишурская улица,426054,56.9561147,53.1691061
5,Граховская улица,426054,56.9604915,53.1660490
5,Пихтовая улица,426054,56.9634212,53.1600195
6,Азаматовская улица,426054,56.9598221,53.1636893
6,Береговая улица,426033,56.9570712,53.1637792
6,Вишурская улица,426054,56.9557959,53.1687520
6,Граховская улица,426054,56.9600214,53.1670839
6,Новоеловская улица,426054,56.9555567,53.1676200
6,Пихтовая улица,426054,56.9638303,53.1595440
7,Азаматовская улица,426054,56.9602653,53.1633219
7,Береговая улица,426033,56.9573665,53.1636153
7,Вишурская улица,426054,56.9558588,53.1692161
7,Граховская улица,426054,56.9598148,53.1670314
7,Новоеловская улица,426054,56.9558061,53.1669630
8,Азаматовская улица,426054,56.9601263,53.1637886
8,Береговая улица,426033,56.9575977,53.1633796
8,Вишурская улица,426054,56.9553980,53.1689157
8,Граховская улица,426054,56.9600941,53.1675222
8,Пихтовая улица,426054,56.9631300,53.1597989
9,Азаматовская улица,426054,56.9605914,53.1633889
9,Береговая улица,426033,56.9577776,53.1632160
9,Вишурская улица,426054,56.9554551,53.1693823
9,Граховская улица,426054,56.9598645,53.1674069
9,Пихтовая улица,426054,56.9629092,53.1603272
1,Новая улица,426054,56.9562990,53.1704338
2,Новая улица,426054,56.9562360,53.1699931
3,Новая улица,426054,56.9559991,53.1705062
4,Новая улица,426054,56.9555472,53.1702031
4,Полевская улица,426054,56.9555852,53.1714932
5,Новая улица,426054,56.9556028,53.1706376
5,Полевская улица,426054,56.9551421,53.1720914
6,Новая улица,426054,56.9552196,53.1702702
6,Полевская улица,426054,56.9551011,53.1716059
7,Полевская улица,426054,56.9549051,53.1721638
9,Новая улица,426054,56.9552518,53.1707932
2,Полевская улица,426054,56.9557679,53.1714862
1,Азаматовская улица,426054,56.9571612,53.1668358
30,Азаматовская улица,426054,56.9655490,53.1632939
14,Дружная улица,426054,56.9480147,53.1478860
16,Дружная улица,426054,56.9481986,53.1478142
18,Дружная улица,426054,56.9485279,53.1477498
19,Дружная улица,426054,56.9485148,53.1485222
2,Дружная улица,426054,56.9462361,53.1482571
20,Дружная улица,426054,56.9488892,53.1476720
21,Дружная улица,426054,56.9487553,53.1483849
23,Дружная улица,426054,56.9489947,53.1483166
25,Дружная улица,426054,56.9491340,53.1487654
3,Дружная улица,426054,56.9466455,53.1490911
4,Дружная улица,426054,56.9465896,53.1483345
8,Дружная улица,426054,56.9471953,53.1482432
9,Дружная улица,426054,56.9473840,53.1489514
17,Дружная улица,426054,56.9483217,53.1488119
6,Дружная улица,426054,56.9469041,53.1483264
13,Дружная улица,426054,56.9478418,53.1487502
1,Дружная улица,426054,56.9464615,53.1496183
11,Дружная улица,426054,56.9475869,53.1488830
1,Добрая улица,426054,56.9457952,53.1447268
11,Фермерская улица,426054,56.9474768,53.1467677
16,Фермерская улица,426054,56.9478857,53.1456796
7,Добрая улица,426054,56.9466967,53.1449231
8,Фермерская улица,426054,56.9468310,53.1459876
10,Новоцентральная улица,426054,56.9439255,53.1317236
14А,Новоцентральная улица,426054,56.9439826,53.1331451
16А,Новоцентральная улица,426054,56.9440089,53.1341214
18,Новоцентральная улица,426054,56.9439430,53.1348933
2,Новоцентральная улица,426054,56.9437795,53.1289143
20,Новоцентральная улица,426054,56.9434932,53.1349055
24,Новоцентральная улица,426054,56.9440747,53.1361974
24А,Новоцентральная улица,426054,56.9440577,53.1365687
28,Новоцентральная улица,426054,56.9441350,53.1379391
30,Новоцентральная улица,426054,56.9441442,53.1393379
32,Новоцентральная улица,426054,56.9441449,53.1398961
34,Новоцентральная улица,426054,56.9441598,53.1406829
4,Новоцентральная улица,426054,56.9438547,53.1299887
4А,Новоцентральная улица,426054,56.9437962,53.1296054
6,Новоцентральная улица,426054,56.9439095,53.1305970
8,Новоцентральная улица,426054,56.9439153,53.1312971
1,Яровая улица,426054,56.9429687,53.1291330
11,Яровая улица,426054,56.9430243,53.1325711
11А,Яровая улица,426054,56.9430345,53.1328473
15,Яровая улица,426054,56.9430486,53.1338997
17,Яровая улица,426054,56.9431165,53.1349547
19,Яровая улица,426054,56.9433654,53.1366500
21,Яровая улица,426054,56.9434324,53.1374527
23,Яровая улица,426054,56.9434573,53.1381126
25,Яровая улица,426054,56.9436074,53.1393022
27,Яровая улица,426054,56.9436353,53.1400024
29,Яровая улица,426054,56.9436599,53.1407487
5,Яровая улица,426054,56.9430525,53.1305723
7,Яровая улица,426054,56.9430295,53.1313181
9,Яровая улица,426054,56.9430726,53.1319945
3,Яровая улица,426054,56.9429395,53.1299750
28,Липовая улица,426054,56.9472362,53.1422565
35,Ракитовая улица,426054,56.9465077,53.1399981
41,Ракитовая улица,426054,56.9468427,53.1411569
5,Ракитовая улица,426054,56.9455993,53.1316195
86,улица Ленина,426063,56.8459260,53.2370149
5,Цветочная улица,426061,56.8730305,53.2669130
19,Клубная улица,426006,56.8293504,53.1510387
96А,улица Баранова,426021,56.8352840,53.1208831
6,Цветочная улица,426061,56.8725622,53.2669386
31,улица Габдулхая Тукая,426021,56.8218225,53.0927322
0/17,Славянское шоссе,426030,56.9480260,53.2218140
88,улица Ленина,426063,56.8460096,53.2381399
95,улица 10 лет Октября,426061,56.8718537,53.2635178
93,улица 10 лет Октября,426061,56.8720065,53.2621602
21,Клубная улица,426006,56.8286037,53.1505683
4,Курортная улица,426009,56.8429624,53.2720422
94Б,улица Баранова,426021,56.8345204,53.1225517
7,Цветочная улица,426061,56.8717478,53.2647595
279,улица Карла Маркса,426000,56.8576096,53.2005423
57,улица 10 лет Октября,426011,56.8724309,53.2318853
92Б,улица Баранова,426021,56.8344959,53.1233086
10,улица Архитектора П.П. Берша,426068,56.8708977,53.3063786
82,улица Баранова,426006,56.8349046,53.1298153
72,3-я улица,426009,56.8694302,53.2627614
2К,Университетская улица,426056,56.8510102,53.2239002
1,Базарная площадь,426006,56.8358263,53.1411541
57к1с2,Районная улица,426034,56.8506696,53.2402893
60Б к2,улица 10 лет Октября,426060,56.8683207,53.2635189
60Б к1,улица 10 лет Октября,426060,56.8691289,53.2639993
261,Удмуртская улица,426011,56.8725790,53.2210719
57к1с1,Районная улица,426034,56.8511717,53.2402462
25А,улица Дзержинского,426039,56.8835632,53.2439856
13,улица Гагарина,426028,56.8067600,53.1879371
60Б к3,улица 10 лет Октября,426060,56.8684477,53.2649636
75,улица 40 лет Победы,426060,56.8637514,53.2712025
73,улица 40 лет Победы,426060,56.8638143,53.2720948
85,улица 40 лет Победы,426009,56.8610291,53.2745529
62,улица 10 лет Октября,426060,56.8694660,53.2657358
25,Заречное шоссе,426052,56.8378093,53.1436074
57к2,Районная улица,426034,56.8501672,53.2403921
107,улица 40 лет Победы,426009,56.8579473,53.2750028
135,улица 40 лет Победы,426009,56.8565911,53.2725729
28,улица им. конструктора-оружейника Никонова,426060,56.8643466,53.2715403
4,улица Архитектора П.П. Берша,426068,56.8719550,53.3079665
78,улица Баранова,426006,56.8344550,53.1321557
48,улица Телегина,426006,56.8350753,53.1507201
26,улица Архитектора П.П. Берша,426068,56.8708342,53.3052069
89,улица 40 лет Победы,426009,56.8600817,53.2746972
24,улица Архитектора П.П. Берша,426068,56.8707806,53.3040127
64А к1,улица 10 лет Октября,426060,56.8687793,53.2658858
121,улица 40 лет Победы,426009,56.8574421,53.2714399
24,улица им. конструктора-оружейника Никонова,426060,56.8648439,53.2710742
26А,Клеверная улица,426039,56.9302197,53.2238066
35А к1,улица Репина,426035,56.8693849,53.2327802
35А к3,улица Репина,426035,56.8694225,53.2336768
1,проезд Орджоникидзе,426063,56.8417173,53.2421774
19,Приусадебная улица,426021,56.8152803,53.0789335
13,Приусадебная улица,426021,56.8153709,53.0774122
6,улица  им. Василия Останина,426021,56.8158587,53.0746985
47,Революционная улица,426003,56.8297545,53.2218280
55,Революционный переулок,426003,56.8296852,53.2199750
21,Железнодорожный переулок,426027,56.8252347,53.2221639
6,Подгорный переулок,426027,56.8246731,53.2301773
20,улица Позимь,426027,56.8232137,53.2592765
60 к2,Зелёная улица,426021,56.8290598,53.1134914
114,Пушкинская улица,426077,56.8334006,53.2191452
43,Подгорная улица,426027,56.8271872,53.2285489
41,Подгорная улица,426027,56.8268653,53.2286769
53,Северный переулок,426011,56.8682627,53.2152833
46,улица Металлистов,426054,56.8743390,53.1921413
52,улица Володарского,426027,56.8300974,53.2351455
285,Пушкинская улица,426000,56.8683883,53.2055555
23,Промышленная улица,426063,56.8346261,53.2358474
48А,8-я Подлесная улица,426054,56.8714147,53.1861648
78,Красноармейская улица,426077,56.8352874,53.2139382
71,улица Пойма,426028,56.7898148,53.1956658
41,Советская улица,426076,56.8480028,53.2354114
49,Советская улица,426076,56.8482398,53.2377599
25А,Клубная улица,426006,56.8279130,53.1496427
49,улица 50-летия ВЛКСМ,426054,56.8760554,53.1820368
304,Удмуртская улица,426034,56.8589109,53.2229636
