House number,Street name,Postal code,Latitude,Longitude
59В,Советская улица,427960,56.4776038,53.7947902
27Б,Амурская улица,427964,56.4566164,53.7992558
9,Лесная улица,427967,56.4746331,53.7822459
27,улица Фрунзе,427961,56.4426122,53.7657754
88,Советская улица,427960,56.4779293,53.7980312
6,Электрозаводская улица,427961,56.4488449,53.7644310
1,улица Жуковского,427961,56.4463463,53.7696342
16А,улица Жуковского,427961,56.4430161,53.7681236
181,улица Азина,427960,56.4398188,53.7961320
58Б,4-й Зелёный проезд,427960,56.4642258,53.7282066
31,Индустриальная улица,427960,56.4487343,53.7234077
27,Берёзовая улица,427960,56.4370280,53.7240833
7 к2,улица Фурманова,427961,56.4423263,53.7735402
27,улица Чапаева,427961,56.4414208,53.7746901
15А,Ленинградская улица,427961,56.4447446,53.7763383
9,Ленинградская улица,427961,56.4450030,53.7749799
15,Ленинградская улица,427961,56.4441147,53.7761700
11,Ленинградская улица,427961,56.4445290,53.7744034
13,Ленинградская улица,427961,56.4444455,53.7755027
17,Ленинградская улица,427961,56.4439589,53.7749437
19,Ленинградская улица,427961,56.4432076,53.7743653
21А,Ленинградская улица,427961,56.4435377,53.7753324
69,улица Гоголя,427974,56.4695473,53.8014678
45,улица Азина,427974,56.4690959,53.8056958
59,улица Степана Разина,427974,56.4712101,53.8027130
67,улица Гончарова,427968,56.4349171,53.7400751
27,улица 20 лет Победы,427960,56.4437545,53.7301178
53,улица Гончарова,427968,56.4420169,53.7385235
23,Ленинградская улица,427961,56.4429615,53.7756664
57,Интернациональная улица,427974,56.4697017,53.7952147
9,улица Фурманова,427961,56.4416277,53.7729183
25,Ленинградская улица,427961,56.4422203,53.7754563
27Б,Амурская улица,427964,56.4565245,53.7993886
51,Дубровская улица,427964,56.4610579,53.8064815
82,улица Карла Маркса,427964,56.4638740,53.8078983
18,Озёрная улица,427964,56.4605554,53.8065862
88,улица Карла Маркса,427964,56.4609003,53.8074813
20,Озёрная улица,427964,56.4605808,53.8053252
84,улица Карла Маркса,427964,56.4631658,53.8075950
53,Дубровская улица,427964,56.4610887,53.8054327
7,улица Калинина,427968,56.4385334,53.7402383
9,улица Калинина,427968,56.4386300,53.7390858
1Г,улица Фурманова,427961,56.4441597,53.7731386
1В,улица Фурманова,427961,56.4446044,53.7734237
1Б,улица Фурманова,427961,56.4453405,53.7734232
1А,улица Фурманова,427961,56.4458395,53.7750319
7 к3,улица Фурманова,427961,56.4422523,53.7745837
7,улица Фурманова,427961,56.4424053,53.7727178
1,улица Фурманова,427961,56.4460138,53.7736423
3А,улица Фурманова,427961,56.4436910,53.7734849
47,улица Гончарова,427968,56.4445215,53.7384134
75,улица Азина,427964,56.4634076,53.8056508
69,улица Гончарова,427968,56.4345906,53.7390884
67А,улица Гончарова,427968,56.4349345,53.7386350
64,Интернациональная улица,427974,56.4705950,53.7980509
62,Интернациональная улица,427974,56.4705017,53.8001049
87,улица Азина,427964,56.4608550,53.8044481
48,улица Гончарова,427968,56.4367263,53.7368318
61,улица Степана Разина,427974,56.4711815,53.8001815
63,улица Степана Разина,427974,56.4712447,53.7983526
62А,Интернациональная улица,427974,56.4707290,53.7990463
92,улица Азина,427974,56.4672841,53.8040406
75,улица Гоголя,427974,56.4667865,53.8011563
73,улица Гоголя,427974,56.4675143,53.8013000
34,Пролетарская улица,427974,56.4664750,53.8025208
94,улица Азина,427974,56.4665095,53.8041055
22,Лесная улица,427967,56.4685846,53.7802603
60,Интернациональная улица,427974,56.4702046,53.8024640
78,улица Гагарина,427967,56.4744853,53.7797659
42,1-я Дачная улица,427967,56.4697875,53.7847966
76,улица Гагарина,427967,56.4744677,53.7803996
76,улица Пугачёва,427960,56.4685045,53.7951477
47,улица Азина,427974,56.4681321,53.8058257
39,улица Гагарина,427960,56.4727265,53.8037887
59,Интернациональная улица,427974,56.4698047,53.7938508
40,улица Степана Разина,427974,56.4717114,53.8029646
52,улица Азина,427960,56.4722450,53.8040326
50,улица Азина,427960,56.4724548,53.8047623
47,улица Азина,427974,56.4683879,53.8058221
36,улица Степана Разина,427974,56.4716968,53.8036041
78,улица Пугачёва,427974,56.4685934,53.7939586
9,Первомайская улица,427960,56.4736262,53.8184514
8,Красная площадь,427960,56.4781298,53.8189310
143,улица Пугачёва,427967,56.4676479,53.7827644
46,улица Азина,427960,56.4731910,53.8050882
35А,улица Азина,427974,56.4721213,53.8058888
17,Трактовая улица,427965,56.4987119,53.7962400
26,улица Азина,427960,56.4772081,53.8055250
71,улица Гончарова,427968,56.4344022,53.7410613
77 к2,улица Гончарова,427968,56.4353297,53.7407143
40А,улица Гончарова,427968,56.4422435,53.7374755
7,улица Чапаева,427961,56.4417299,53.7635520
77 к1,улица Гончарова,427968,56.4356717,53.7409471
15,улица Учхоз,427970,56.4857629,53.7835745
59,улица Азина,427974,56.4668635,53.8055167
58Б,4-1 Зеленый проезд,427960,56.4645924,53.7275562
92,Интернациональная улица,427960,56.4703962,53.7954614
86,улица Ефима Колчина,427960,56.4688544,53.7964894
90,Интернациональная улица,427960,56.4703869,53.7959386
77А,улица Гончарова,427968,56.4360095,53.7405096
43,улица Гоголя,427974,56.4722270,53.8027291
82,улица Ефима Колчина,427960,56.4692776,53.7963405
15Б,улица Учхоз,427970,56.4861084,53.7841207
15В,улица Учхоз,427970,56.4858641,53.7844118
15А,улица Учхоз,427970,56.4859877,53.7838279
65,Ясная улица,427960,56.4297935,53.7487746
130,улица Пугачёва,427967,56.4690596,53.7843427
130,улица Пугачёва,427967,56.4689458,53.7832198
67,Пролетарская улица,427967,56.4653139,53.7856573
16,улица Горького,427960,56.4760834,53.8146670
80,улица Достоевского,427960,56.4693142,53.7918650
1,улица Серафима Саровского,427961,56.4407413,53.7717194
2,Советская улица,427960,56.4777313,53.8165058
136,улица Раскольникова,427960,56.4777443,53.8169311
13Б,Электрозаводская улица,427961,56.4484135,53.7628886
2,улица Гагарина,427960,56.4727676,53.8199887
24,улица Труда,427960,56.4731646,53.8200810
4А,улица Гагарина,427960,56.4728897,53.8189980
8,улица Гагарина,427960,56.4727977,53.8182959
133,улица Раскольникова,427960,56.4733450,53.8171538
131,улица Раскольникова,427960,56.4735565,53.8172238
135,улица Раскольникова,427960,56.4731118,53.8171321
10,улица Гагарина,427960,56.4728097,53.8177938
3А,Старый Ижевский тракт,427960,56.4851864,53.7410129
30А,улица Гоголя,427970,56.4770316,53.8010475
82,улица Достоевского,427960,56.4689333,53.7923682
78,улица Достоевского,427960,56.4695471,53.7921172
104,Интернациональная улица,427960,56.4704845,53.7924832
106,Интернациональная улица,427960,56.4705316,53.7920795
108,Интернациональная улица,427960,56.4705248,53.7913930
102,Интернациональная улица,427960,56.4704585,53.7934762
100,Интернациональная улица,427960,56.4704239,53.7941478
98,Интернациональная улица,427960,56.4704056,53.7945675
96,Интернациональная улица,427960,56.4704217,53.7948217
94,Интернациональная улица,427960,56.4703998,53.7950934
6А,улица Ефима Колчина,427966,56.4861911,53.7977343
1,улица Ефима Колчина,427966,56.4863748,53.7983474
62А,Путейская улица,427960,56.4540493,53.7481145
58А,4-й Зелёный проезд,427960,56.4642344,53.7281312
88,улица Пархоменко,427960,56.4900415,53.7638518
8,Кирпичная улица,427960,56.4895362,53.7474955
2,Кирпичная улица,427960,56.4893524,53.7465310
30,улица Степана Разина,427974,56.4716955,53.8060793
8Б,Молодёжная улица,427961,56.4470264,53.7548911
18,улица Горького,427960,56.4760237,53.8144333
18А,улица Горького,427960,56.4760607,53.8140523
63,улица Пугачёва,427974,56.4673360,53.8027233
65,улица Гончарова,427968,56.4359359,53.7393371
12,Октябрьская улица,427960,56.4665677,53.7450036
16,Лесная улица,427967,56.4720056,53.7803835
118,Интернациональная улица,427967,56.4710733,53.7803294
41,улица Гагарина,427960,56.4726428,53.8022122
59В,Советская улица,427970,56.4774800,53.7944546
