House number,Street name,Postal code,Latitude,Longitude
4Б,улица Германа Титова,656023,53.3848834,83.7337787
186,улица Попова,656067,53.3414899,83.6683617
86,переулок Ядринцева,656049,53.3363534,83.7659188
88,переулок Ядринцева,656049,53.3361071,83.7647823
92,бульвар 9 Января,656004,53.3643770,83.7881824
56,улица Попова,656044,53.3728151,83.6773548
4,улица Широкая Просека,656045,53.2733208,83.7414747
131,проспект Строителей,656031,53.3405070,83.7454643
25,шоссе Ленточный Бор,656021,53.3046122,83.7044846
68А,Молодёжная улица,656031,53.3436444,83.7584821
89Е,Змеиногорский тракт,656045,53.2747508,83.7447183
86,переулок Ядринцева,656049,53.3361837,83.7655869
71В,Змеиногорский тракт,656045,53.2860336,83.7545090
92,бульвар 9 Января,656004,53.3646787,83.7881737
147,улица Никитина,656008,53.3288871,83.7728587
88,переулок Ядринцева,656049,53.3360401,83.7645603
77,Балтийская улица,656067,53.3358782,83.6678291
2,улица Широкая Просека,656045,53.2731922,83.7411396
18,улица Авиаторов,656048,53.3495419,83.5612437
18,улица Авиаторов,656048,53.3494579,83.5609864
18,улица Авиаторов,656048,53.3494437,83.5612294
58,1-я Малиновая улица,656048,53.3517215,83.5523334
1,2-я Малиновая улица,656048,53.3493115,83.5657627
1,2-я Малиновая улица,656048,53.3493461,83.5659361
1,2-я Малиновая улица,656048,53.3492485,83.5659180
27,Малиновая улица,656048,53.3486196,83.5666499
27,Малиновая улица,656048,53.3485966,83.5667727
27,Малиновая улица,656048,53.3486225,83.5664955
23,Смоленская улица,656048,53.3457221,83.5540502
23,Смоленская улица,656048,53.3458002,83.5540502
12М,улица Водников,656909,53.2952938,83.8009422
104М/5,Змеиногорский тракт,656045,53.2869330,83.7537129
39,проспект Ленина,656049,53.3412248,83.7834181
116/44,проспект Калинина,656037,53.3887358,83.7455316
9,Комсомольский проспект,656056,53.3346120,83.7995179
88 к2,Трактовая улица,656922,53.3163852,83.6231389
94А,Красноармейский проспект,656049,53.3425134,83.7697046
77,Балтийская улица,656067,53.3356955,83.6676238
313К,Павловский тракт,656922,53.3475122,83.6305662
1А,Весенняя улица,656922,53.3079876,83.6231099
31,Дальняя улица,656922,53.3111643,83.6200831
47 к2,Трактовая улица,656922,53.3110319,83.6202421
129,улица Папанинцев,656031,53.3383198,83.7662466
9,улица Германа Титова,656023,53.3817330,83.7283790
33А,проспект Энергетиков,656022,53.3342183,83.6420386
38,улица Профинтерна,656002,53.3582053,83.7722636
188,Павловский тракт,656922,53.3501419,83.6350821
70А,Кулундинская улица,656016,53.3324518,83.7311457
188,Павловский тракт,656065,53.3495604,83.6370243
3,проспект Ленина,656043,53.3315625,83.7941315
39 оф613,проспект Ленина,656000,53.3410228,83.7835514
110/18,Змеиногорский тракт,656045,53.2822558,83.7456949
52А,Красноармейский проспект,656049,53.3395284,83.7738706
129,проспект Строителей,656031,53.3406886,83.7460473
189 к3,улица Попова,656922,53.3172041,83.6275405
127А,Пролетарская улица,656049,53.3346962,83.7771277
23А,Балтийская улица,656058,53.3357086,83.6768723
149,Партизанская улица,656049,53.3349285,83.7734295
32,Молодёжная улица,656035,53.3480741,83.7730825
171,Песчаная улица,656049,53.3359184,83.7631566
117/7,проспект Строителей,656031,53.3440598,83.7546272
60,Балтийская улица,656067,53.3366327,83.6671095
2,Балтийская улица,656006,53.3342254,83.6923268
156,Павловский тракт,656057,53.3458675,83.6664267
117,проспект Строителей,656031,53.3418483,83.7508378
251А,Павловский тракт,656057,53.3430641,83.6801540
2К,Взлётная улица,656006,53.3394582,83.6885227
113,улица Короленко,656043,53.3297038,83.7779168
28,улица Кулагина,656012,53.3734484,83.7802108
22,проспект Строителей,606531,53.3484631,83.7604050
22,проспект Строителей,606531,53.3484962,83.7604025
116/95,Калинина,656037,53.3896815,83.7493140
118,Песчаная улица,656049,53.3397940,83.7703817
91/101,улица Крупской,656031,53.3426693,83.7684105
104А,Красноармейский проспект,656015,53.3461856,83.7655546
68А,Молодёжная улица,656031,53.3438295,83.7587571
2,Балтийская улица,656006,53.3343916,83.6903056
6В,проспект Космонавтов,656023,53.3891021,83.7320557
188,Павловский тракт,656065,53.3486704,83.6381052
38,улица Профинтерна,656002,53.3582552,83.7719855
14Б,улица Сизова,656002,53.3614331,83.7815752
14Б,улица Сизова,656002,53.3613850,83.7813820
12,Малахова,656006,53.3347600,83.6869869
148,улица Юрина,656053,53.3638555,83.7239521
40,улица Союза Республик,656038,53.3509279,83.7746096
50,Балтийская улица,656058,53.3363165,83.6711720
64,улица Чкалова,656049,53.3417384,83.7826612
56,улица Гоголя,656043,53.3325013,83.7879437
279А,Павловский тракт,656067,53.3426934,83.6653544
64,Молодёжная улица,656031,53.3437431,83.7624399
64,Молодёжная улица,656031,53.3436926,83.7621214
66,Молодёжная улица,656031,53.3432987,83.7616798
66,Молодёжная улица,656031,53.3433147,83.7618166
66,Молодёжная улица,656031,53.3431066,83.7612131
68,Молодёжная улица,656031,53.3428968,83.7603387
68,Молодёжная улица,656031,53.3426438,83.7598264
70,Молодёжная улица,656031,53.3422642,83.7590941
105,Красноармейский проспект,656031,53.3431249,83.7661347
68,Молодёжная улица,656031,53.3427254,83.7599424
66,Молодёжная улица,656031,53.3431322,83.7612613
64,Молодёжная улица,656031,53.3437282,83.7622915
68А,Молодёжная улица,656031,53.3434379,83.7593914
56,Молодёжная улица,656031,53.3441587,83.7637457
62А,Молодёжная улица,656031,53.3438768,83.7615241
63А,Красноармейский проспект,656049,53.3373433,83.7726821
121,улица Папанинцев,656049,53.3372294,83.7667129
8,улица Бехтерева,658011,53.3656101,83.7501408
5,Сиреневая улица,656067,53.3425784,83.6631730
37,улица Солнечная Поляна,656065,53.3591083,83.6598360
55,улица Солнечная Поляна,656065,53.3577355,83.6601361
251,улица Георгия Исакова,656060,53.3666837,83.6651710
7А,улица Профинтерна,656015,53.3534982,83.7645658
16,проспект Строителей,656015,53.3522081,83.7634840
103А,проспект Ленина,656002,53.3575143,83.7658704
101,проспект Ленина,656000,53.3568664,83.7662455
1А,проспект Калинина,656002,53.3574862,83.7695147
46,проспект Ленина,656038,53.3451872,83.7822797
52,улица Островского,656055,53.3665582,83.6875594
204,улица Георгия Исакова,656055,53.3664980,83.7010815
28,улица Попова,656044,53.3760058,83.6756692
154,улица Гущина,656036,53.3792181,83.6780301
12,улица Панфиловцев,656057,53.3501091,83.6751584
89,улица Попова,656057,53.3506035,83.6738294
99Б,улица Попова,656057,53.3466160,83.6722649
54,Северо-Западная улица,656037,53.3720078,83.7449716
10,Балтийская улица,656006,53.3353747,83.6885913
4,Балтийская улица,656006,53.3351926,83.6903458
146В,улица Малахова,656006,53.3353624,83.6920233
142,улица Малахова,656006,53.3362088,83.6927180
9,Взлётная улица,656006,53.3377612,83.6909477
15,Взлётная улица,656006,53.3375031,83.6896758
15А,Лазурная улица,656006,53.3356458,83.6872153
63,улица Малахова,656050,53.3651261,83.7070681
13,улица Эмилии Алексеевой,656010,53.3799859,83.7332240
15А,улица Эмилии Алексеевой,656010,53.3801389,83.7321430
11,улица Эмилии Алексеевой,656010,53.3803197,83.7340884
9,улица Эмилии Алексеевой,656010,53.3809198,83.7346268
51,1-я Западная улица,656010,53.3805798,83.7349733
42,1-я Западная улица,656010,53.3803515,83.7369355
6,улица Петра Сухова,656010,53.3800722,83.7375208
46В,1-я Западная улица,656010,53.3807250,83.7356044
46А,1-я Западная улица,656010,53.3812602,83.7368402
46Б,1-я Западная улица,656010,53.3807946,83.7373875
53,улица Малахова,656050,53.3679607,83.7102917
153В,улица Гущина,656050,53.3683290,83.7149567
153,улица Гущина,656050,53.3681632,83.7159405
171,Северо-Западная улица,656052,53.3557696,83.7235104
11Б,Новороссийская улица,656053,53.3624545,83.7349847
182,улица Попова,656067,53.3428995,83.6683630
162,Власихинская улица,656058,53.3293441,83.6780391
1,Балтийская улица,656006,53.3334457,83.6907810
108,Павловский тракт,108,53.3435324,83.6903768
60Б,Павловский тракт,656064,53.3421922,83.7059110
60Б к1,Павловский тракт,656064,53.3423159,83.7049080
229,Павловский тракт,656064,53.3404089,83.7033133
86В,улица Малахова,656054,53.3569322,83.6968228
86Д,улица Малахова,656054,53.3575134,83.6968450
85,улица Малахова,656039,53.3550822,83.6998027
76,проспект Ленина,656015,53.3523827,83.7731457
23А,улица Союза Республик,656038,53.3512816,83.7777734
5,Молодёжная улица,656038,53.3490949,83.7807830
22,улица Профинтерна,656015,53.3568429,83.7642661
24,улица Профинтерна,656015,53.3571178,83.7640426
35Ак2,переулок Некрасова,656056,53.3446240,83.7924649
80Г,Комсомольский проспект,656056,53.3436835,83.7916942
80,Комсомольский проспект,656056,53.3439281,83.7913729
80В,Комсомольский проспект,656056,53.3441668,83.7911238
51А,проспект Ленина,658560,53.3442296,83.7793395
41,проспект Ленина,656049,53.3418643,83.7826141
94,Партизанская улица,656049,53.3371178,83.7772641
35/1,улица Германа Титова,656023,53.3822786,83.7047467
32А,улица Профинтерна,656002,53.3591937,83.7688058
147,Партизанская улица,656049,53.3351871,83.7740266
47А,Красноармейский проспект,656049,53.3351593,83.7755316
55,улица Пушкина,656043,53.3302336,83.7866523
41,улица Ползунова,656043,53.3287155,83.7870501
76,улица Пушкина,656043,53.3305713,83.7855732
8,Красноармейский проспект,656043,53.3302609,83.7839788
10,площадь Спартака,656043,53.3293767,83.7857622
48,улица Ползунова,656043,53.3292218,83.7869709
76В,улица Пушкина,656043,53.3302561,83.7851954
42,улица Ползунова,656043,53.3300629,83.7889407
108,улица Никитина,656039,53.3336112,83.7832868
139,Пролетарская улица,656049,53.3343554,83.7755437
47,Красноармейский проспект,656049,53.3347814,83.7769145
105,Партизанская улица,656049,53.3367207,83.7796451
89,Социалистический проспект,656049,53.3425063,83.7753388
2Г,Целинная улица,656064,53.3421596,83.7196173
54/1,Павловский тракт,656064,53.3415975,83.7178795
4,Сельскохозяйственная улица,656064,53.3417685,83.7153959
56Б к Д,проспект Строителей,656031,53.3429889,83.7490867
54,проспект Строителей,656000,53.3436579,83.7513844
69,Ткацкая улица,656000,53.3798177,83.7772861
28,улица Кулагина,656012,53.3735516,83.7804207
112/29,проспект Калинина,656037,53.3847277,83.7468807
10,проспект Космонавтов,656023,53.3900498,83.7079442
76,улица Челюскинцев,656031,53.3340438,83.7573404
131,проспект Строителей,656031,53.3405193,83.7454284
100,проспект Строителей,656031,53.3404429,83.7420876
135,проспект Строителей,656031,53.3397368,83.7444675
242,улица Попова,656922,53.3238630,83.6418512
112А,Совхозная улица,656063,53.3816020,83.6881514
120,улица Эмилии Алексеевой,656063,53.3808853,83.6872784
11Г,улица Попова,656063,53.3820161,83.6850401
98,улица Эмилии Алексеевой,656063,53.3822885,83.6926897
13В,улица Попова,656063,53.3820400,83.6904642
126А,улица Эмилии Алексеевой,656019,53.3806065,83.6851295
13Б,улица Попова,656063,53.3818471,83.6894123
84,улица Эмилии Алексеевой,656023,53.3798624,83.6986438
13,улица Попова,656063,53.3821195,83.6885440
28А,улица Гридасова,656009,53.3322396,83.7011116
169,улица Гущина,606519,53.3743067,83.6892026
182,улица Юрина,656055,53.3696138,83.7031590
55,Молодёжная улица,656031,53.3417206,83.7610092
6А,улица Ползунова,656056,53.3355692,83.8012620
28,Пролетарская улица,656038,53.3423570,83.7954578
2,Звёздная улица,656922,53.3483342,83.6042860
3Д,Трактовая улица,656922,53.3467672,83.6113284
323,Павловский тракт,656922,53.3488139,83.6153570
66,улица Ползунова,656043,53.3267767,83.7811998
67И,Власихинская улица,656006,53.3185226,83.6759206
136,улица Малахова,656006,53.3392900,83.6935564
152Б,проспект Ленина,656037,53.3806285,83.7476532
4,улица Энтузиастов,656066,53.3551421,83.6884225
122А,улица Карла Маркса,656004,53.3622733,83.7990939
2,улица Фабричная,656004,53.3595131,83.7990336
19,бульвар 9 Января,656038,53.3541394,83.7869401
1,улица Ползунова,656056,53.3352143,83.8022728
2,улица Льва Толстого,656056,53.3343925,83.8013629
61,проспект Космонавтов,656063,53.3808973,83.6661069
137,Просторная улица,656065,53.3494638,83.6294969
194,Павловский тракт,656922,53.3488930,83.6291229
5,улица Ползунова,656056,53.3347483,83.8008258
8,улица Ползунова,656056,53.3353867,83.8010753
4,улица Ползунова,656056,53.3355799,83.8018910
2,улица Ползунова,656056,53.3356478,83.8021198
6,улица Ползунова,656056,53.3354140,83.8015205
5А,улица Ползунова,656056,53.3346557,83.8005695
32А,улица Гоголя,656056,53.3361436,83.7959065
12А,Весенняя улица,Весенняя,53.3055295,83.6234060
13 к6,улица Суворова,656922,53.3024232,83.6191889
14А,Весенняя улица,Весенняя,53.3060462,83.6223827
25,улица Суворова,656922,53.3007346,83.6207019
11,Благовещенская улица,656922,53.3038759,83.6185801
14,Весенняя улица,656922,53.3047108,83.6236679
13 к5,улица Суворова,656922,53.3013992,83.6215954
13 к4,улица Суворова,656922,53.3008818,83.6199548
11,улица Суворова,656922,53.3047954,83.6187321
11А,улица Суворова,656922,53.3037241,83.6179479
13 к3,улица Суворова,656922,53.3015016,83.6200725
21Б,Целинная улица,656922,53.3019612,83.6196434
12М,улица Водников,656909,53.2951722,83.8009755
26В,улица Кулагина,656012,53.3718955,83.7774072
8,улица Пионеров,656002,53.3623543,83.7669061
12,улица Пионеров,656002,53.3624875,83.7660417
18,улица Пионеров,656002,53.3629223,83.7652670
10,улица Пионеров,656002,53.3623125,83.7664508
14,улица Пионеров,656002,53.3626318,83.7657684
20,улица Пионеров,656002,53.3630694,83.7650189
12,улица Фурманова,656016,53.3388587,83.7326550
143А,улица Крупской,656031,53.3387154,83.7593928
174Б,улица Папанинцев,656031,53.3378141,83.7612236
194 к6,улица Папанинцев,656031,53.3359408,83.7554413
194 к6,улица Папанинцев,656031,53.3356540,83.7556843
80В,улица Челюскинцев,656031,53.3365076,83.7547014
143,улица Крупской,656031,53.3390414,83.7595671
194,улица Чкалова,656008,53.3332079,83.7606932
39,Полюсный проезд,656031,53.3423770,83.7550074
139А,улица Шевченко,656031,53.3397212,83.7582042
25А,улица Шумакова,656058,53.3366033,83.6816334
140,улица Кутузова,656021,53.3147122,83.7058497
90,улица Крупской,656031,53.3415167,83.7644468
96,улица Крупской,656031,53.3413142,83.7639098
98,улица Крупской,656031,53.3411936,83.7635963
88,улица Крупской,656031,53.3416813,83.7647985
53,Молодёжная улица,656031,53.3419326,83.7626443
102/8,Змеиногорский тракт,656045,53.2915061,83.7532059
102/15,Змеиногорский тракт,656045,53.2899917,83.7521268
102/2,Змеиногорский тракт,656045,53.2928082,83.7539028
102/33,Змеиногорский тракт,656045,53.2913274,83.7523141
102/37,Змеиногорский тракт,656045,53.2922046,83.7528104
102/25,Змеиногорский тракт,656045,53.2901234,83.7515723
102/51,Змеиногорский тракт,656045,53.2918165,83.7514265
69Л к6,Змеиногорский тракт,656045,53.2867494,83.7579707
102/28,Змеиногорский тракт,656045,53.2904549,83.7511243
69Л к3,Змеиногорский тракт,656045,53.2878789,83.7572847
102/1,Змеиногорский тракт,656045,53.2930346,83.7539425
69М,Змеиногорский тракт,656045,53.2878274,83.7561615
102/34,Змеиногорский тракт,656045,53.2916158,83.7520072
102/38,Змеиногорский тракт,656045,53.2924424,83.7529554
102/26,Змеиногорский тракт,656045,53.2901885,83.7509379
110/13,Змеиногорский тракт,656045,53.2825470,83.7459848
102/40,Змеиногорский тракт,656045,53.2930990,83.7533131
102/27,Змеиногорский тракт,656045,53.2903724,83.7517871
69Л к2,Змеиногорский тракт,656045,53.2876657,83.7567341
102/61,Змеиногорский тракт,656045,53.2901734,83.7498970
102/14,Змеиногорский тракт,656045,53.2902552,83.7523760
102/39,Змеиногорский тракт,656045,53.2927749,83.7531660
110/16,Змеиногорский тракт,656045,53.2837470,83.7458589
110/15,Змеиногорский тракт,656045,53.2829567,83.7463219
102/41,Змеиногорский тракт,656045,53.2932239,83.7525998
102/29,Змеиногорский тракт,656045,53.2905415,83.7518854
69Л к4,Змеиногорский тракт,656045,53.2874856,83.7576399
102/63,Змеиногорский тракт,656045,53.2899033,83.7497166
102/45,Змеиногорский тракт,656045,53.2926730,83.7521048
106А,Змеиногорский тракт,656045,53.2877895,83.7479623
102/13,Змеиногорский тракт,656045,53.2904980,83.7525139
73,Змеиногорский тракт,656045,53.2849023,83.7543947
102/31,Змеиногорский тракт,656045,53.2908347,83.7521345
49 к2,Змеиногорский тракт,656045,53.2930310,83.7621137
104Д,Змеиногорский тракт,656045,53.2878369,83.7509032
102/43,Змеиногорский тракт,656045,53.2929087,83.7523854
75 к1,Змеиногорский тракт,656045,53.2823720,83.7516207
69Л к5,Змеиногорский тракт,656045,53.2871477,83.7574147
102/47,Змеиногорский тракт,656045,53.2924309,83.7518600
100,Змеиногорский тракт,656045,53.2903208,83.7569110
69Л к1,Змеиногорский тракт,656045,53.2873067,83.7564309
102/12,Змеиногорский тракт,656045,53.2907041,83.7526174
102/48,Змеиногорский тракт,656045,53.2922100,83.7508398
102/32,Змеиногорский тракт,656045,53.2909767,83.7514953
71Б,Змеиногорский тракт,656045,53.2866388,83.7550719
102/7,Змеиногорский тракт,656045,53.2917234,83.7533491
104Г,Змеиногорский тракт,656045,53.2882843,83.7511543
102/53,Змеиногорский тракт,656045,53.2911203,83.7510571
19,Вешняя улица,656045,53.2886322,83.7581003
110/18,Змеиногорский тракт,656045,53.2822984,83.7456540
102/49,Змеиногорский тракт,656045,53.2922002,83.7516909
104Е,Змеиногорский тракт,656045,53.2874445,83.7506292
102/17,Змеиногорский тракт,656045,53.2893503,83.7516685
102/19,Змеиногорский тракт,656045,53.2888595,83.7509498
110/17,Змеиногорский тракт,656045,53.2837386,83.7468961
102/35,Змеиногорский тракт,656045,53.2919258,83.7526377
102/46,Змеиногорский тракт,656045,53.2924250,83.7510950
110/9,Змеиногорский тракт,656045,53.2833673,83.7440607
102/30,Змеиногорский тракт,656045,53.2907359,83.7513558
102/22,Змеиногорский тракт,656045,53.2896439,83.7505905
102/6,Змеиногорский тракт,656045,53.2919882,83.7533981
104Б,Змеиногорский тракт,656045,53.2881595,83.7498869
102/42,Змеиногорский тракт,656045,53.2934627,83.7518831
110/14,Змеиногорский тракт,656045,53.2833898,83.7459976
102/21,Змеиногорский тракт,656045,53.2894735,83.7511036
102/55,Змеиногорский тракт,656045,53.2909628,83.7505734
102/4,Змеиногорский тракт,656045,53.2923987,83.7536291
102/16,Змеиногорский тракт,656045,53.2897076,83.7519889
110/12,Змеиногорский тракт,656045,53.2827685,83.7456933
102/9,Змеиногорский тракт,656045,53.2913313,83.7530488
102/20,Змеиногорский тракт,656045,53.2891944,83.7504058
102/44,Змеиногорский тракт,656045,53.2928801,83.7513434
102/24,Змеиногорский тракт,656045,53.2899053,83.7507149
102/5,Змеиногорский тракт,656045,53.2921720,83.7536508
104В,Змеиногорский тракт,656045,53.2885772,83.7501517
102/10,Змеиногорский тракт,656045,53.2910922,83.7529282
102/3,Змеиногорский тракт,656045,53.2926025,83.7537658
104А,Змеиногорский тракт,656045,53.2877234,83.7496522
102/23,Змеиногорский тракт,656045,53.2897878,83.7514217
134,Партизанская улица,656049,53.3345001,83.7700600
124А,Партизанская улица,656049,53.3354028,83.7720969
138,Партизанская улица,656008,53.3341544,83.7694788
325,Павловский тракт,656922,53.3491135,83.6109759
3,Взлётная улица,656006,53.3384844,83.6925390
18,улица Профинтерна,656015,53.3563126,83.7640449
30,Новоугольная улица,656015,53.3567264,83.7633044
20,улица Профинтерна,656015,53.3565765,83.7641594
102,улица Эмилии Алексеевой,656063,53.3807208,83.6911860
10А,Совхозная улица,656063,53.3810568,83.6898640
17,улица Попова,656063,53.3815707,83.6860506
10,Совхозная улица,656063,53.3812649,83.6899832
11Б,Совхозная улица,656063,53.3808020,83.6902358
110,улица Эмилии Алексеевой,656063,53.3810139,83.6892591
118А,улица Эмилии Алексеевой,656063,53.3810080,83.6880791
112,улица Эмилии Алексеевой,656063,53.3812668,83.6888770
122,улица Эмилии Алексеевой,656063,53.3813363,83.6869801
7,Совхозная улица,656063,53.3810597,83.6904291
13Е,улица Попова,656063,53.3818335,83.6882681
16А,Совхозная улица,656063,53.3809170,83.6893635
5,Совхозная улица,656063,53.3814793,83.6907473
114,улица Эмилии Алексеевой,656063,53.3807721,83.6888180
326,Просторная улица,656065,53.3570856,83.6368868
22,Малиновая улица,656048,53.3490675,83.5656686
58,1-я Малиновая улица,656048,53.3517703,83.5523806
52А,1-я Малиновая улица,656048,53.3514785,83.5559358
10,улица Авиаторов,656048,53.3507568,83.5614305
25,Российская улица,656048,53.3492012,83.5403118
19,Коммерческая улица,656048,53.3495098,83.5432955
61,улица Дружбы,656048,53.3488416,83.5396007
27,Коммерческая улица,656048,53.3488257,83.5420075
26,Коммерческая улица,656048,53.3489660,83.5411696
21,Коммерческая улица,656048,53.3493045,83.5429791
31,Коммерческая улица,656048,53.3485078,83.5413109
28,Коммерческая улица,656048,53.3488023,83.5408167
23,Российская улица,656048,53.3493229,83.5405641
23,Коммерческая улица,656048,53.3491526,83.5426704
29,Коммерческая улица,656048,53.3486558,83.5416575
18,улица Авиаторов,656048,53.3495003,83.5611102
27,Малиновая улица,656048,53.3486211,83.5666298
2,Трактовая улица,656922,53.3422386,83.6246217
177,Власихинская улица,656922,53.3436963,83.6255817
44Б,улица Малахова,656055,53.3697744,83.7077243
157,улица Гущина,656055,53.3703701,83.7075887
5А,Звёздная улица,656922,53.3466099,83.6022383
7Г,Трактовая улица,656922,53.3320197,83.6151471
10,улица Энтузиастов,656066,53.3551956,83.6849176
8,улица Энтузиастов,656066,53.3549502,83.6868265
2А,1-я Осенняя улица,656922,53.3043380,83.6266732
2,1-я Осенняя улица,656922,53.3042933,83.6262351
11А,Целинная улица,656922,53.3039843,83.6231631
7,Целинная улица,656922,53.3043815,83.6242884
5,Целинная улица,656922,53.3046230,83.6251290
244,Целинная улица,656922,53.3047093,83.6254235
9,Целинная улица,656922,53.3042732,83.6240052
11,Целинная улица,656922,53.3040735,83.6235978
4,1-я Осенняя улица,656922,53.3042306,83.6258663
6А,1-я Осенняя улица,656922,53.3040698,83.6244103
6,1-я Осенняя улица,656922,53.3041569,83.6252502
5А,Целинная улица,656922,53.3045343,83.6248753
2В,2-я Осенняя улица,656922,53.3034615,83.6259807
9,1-я Осенняя улица,656922,53.3038437,83.6251556
2Г,2-я Осенняя улица,656922,53.3035033,83.6263388
5,1-я Осенняя улица,656922,53.3039248,83.6258613
2А,2-я Осенняя улица,656922,53.3033725,83.6253815
1,1-я Осенняя улица,656922,53.3040016,83.6266515
3,1-я Осенняя улица,656922,53.3039849,83.6262747
2Б,2-я Осенняя улица,656922,53.3034184,83.6257081
7,1-я Осенняя улица,656922,53.3038750,83.6255278
6,Небесный переулок,656922,53.3034944,83.6247764
4,2-я Осенняя улица,656922,53.3030596,83.6242591
12,2-я Осенняя улица,656922,53.3026148,83.6230129
11,1-я Осенняя улица,656922,53.3036322,83.6242574
21,1-я Осенняя улица,656922,53.3030223,83.6225904
19,Целинная улица,656922,53.3034382,83.6215730
1,2-я Осенняя улица,656922,53.3028123,83.6249229
21,Целинная улица,656922,53.3033186,83.6212067
12,1-я Осенняя улица,656922,53.3034535,83.6226255
13,1-я Осенняя улица,656922,53.3034755,83.6238305
15,Целинная улица,656922,53.3037081,83.6224007
3,2-я Осенняя улица,656922,53.3026609,83.6245809
9,2-я Осенняя улица,656922,53.3023446,83.6233645
8А,1-я Осенняя улица,656922,53.3037203,83.6234682
16,2-я Осенняя улица,656922,53.3023424,83.6222694
18,1-я Осенняя улица,656922,53.3030657,83.6215308
13,2-я Осенняя улица,656922,53.3020823,83.6225939
19,1-я Осенняя улица,656922,53.3031585,83.6229715
17,Целинная улица,656922,53.3035720,83.6219620
23,1-я Осенняя улица,656922,53.3029326,83.6222600
8,1-я Осенняя улица,656922,53.3038210,83.6237949
13,Целинная улица,656922,53.3038238,83.6227405
11,2-я Осенняя улица,656922,53.3022176,83.6230305
14,2-я Осенняя улица,656922,53.3024713,83.6226390
15,1-я Осенняя улица,656922,53.3033669,83.6235749
14,1-я Осенняя улица,656922,53.3033556,83.6222531
6,2-я Осенняя улица,656922,53.3029477,83.6239345
25,1-я Осенняя улица,656922,53.3028211,83.6218772
8,2-я Осенняя улица,656922,53.3028060,83.6236030
7,2-я Осенняя улица,656922,53.3024461,83.6237521
2,2-я Осенняя улица,656922,53.3031814,83.6247298
17,1-я Осенняя улица,656922,53.3032696,83.6232425
5,2-я Осенняя улица,656922,53.3024942,83.6242221
10,1-я Осенняя улица,656922,53.3035557,83.6229457
10,Боровая улица,656922,53.3018971,83.6239834
6,Боровая улица,656922,53.3021924,83.6248710
16,Боровая улица,656922,53.3016831,83.6229803
21Б,Весенняя улица,656922,53.3037628,83.6280330
12,Боровая улица,656922,53.3018606,83.6235690
12,Небесный переулок,656922,53.3024761,83.6250695
8,Боровая улица,656922,53.3020823,83.6244693
21 к2,Весенняя улица,656922,53.3032108,83.6285756
1А,Боровая улица,656922,53.3001005,83.6198220
13,Боровая улица,656922,53.2993573,83.6171457
3,Боровая улица,656922,53.2999254,83.6191142
11,Боровая улица,656922,53.2995236,83.6178011
16В,Целинная улица,656922,53.3021578,83.6156654
20,Боровая улица,656922,53.2998618,83.6177198
16,улица Нахимова,656922,53.2997470,83.6173400
5,Боровая улица,656922,53.2998283,83.6187876
16Б,Целинная улица,656922,53.3020151,83.6154132
16В,Боровая улица,656922,53.3002589,83.6192193
16А,Целинная улица,656922,53.3019537,83.6151739
24,Весенняя улица,656922,53.3025533,83.6276381
15,Небесный переулок,656922,53.3023869,83.6267477
13,Небесный переулок,656922,53.3023227,83.6263606
21 к3,Весенняя улица,656922,53.3031601,83.6292440
69,проспект Космонавтов,656063,53.3875789,83.6580415
151,улица Советской Армии,656039,53.3540722,83.7100933
1,Целинный проезд,656039,53.3553322,83.7147453
138,улица Советской Армии,656039,53.3546999,83.7092540
147,улица Советской Армии,656039,53.3536953,83.7113291
155,улица Советской Армии,656039,53.3542254,83.7092554
157,улица Советской Армии,656039,53.3543777,83.7087023
149,улица Советской Армии,656039,53.3537561,83.7106550
187,Партизанская улица,656008,53.3315865,83.7662404
116/44,проспект Калинина,656037,53.3889068,83.7454846
7,Тальменский проезд,656012,53.3759075,83.7955304
15,улица Степанова,656012,53.3751597,83.7961740
87,Интернациональная улица,656049,53.3355626,83.7825483
103А,улица Анатолия,656000,53.3349179,83.7843015
28,Красноармейский проспект,656043,53.3345346,83.7786004
165,улица Папанинцев,656049,53.3377272,83.7630264
186,улица Чернышевского,656049,53.3337709,83.7655056
171,Песчаная улица,656049,53.3358829,83.7629446
176Б,Партизанская улица,656049,53.3328735,83.7669880
10,Брусничная улица,656064,53.3314425,83.7208350
12,Брусничная улица,656064,53.3312605,83.7209450
14,Брусничная улица,656064,53.3309621,83.7209319
2,Брусничная улица,656064,53.3321646,83.7202468
4,Брусничная улица,656064,53.3319972,83.7204629
13,Пихтовая улица,656064,53.3310181,83.7206834
11,Пихтовая улица,656064,53.3311100,83.7204346
9,Пихтовая улица,656064,53.3312970,83.7202743
8,Брусничная улица,656064,53.3316114,83.7207141
7,Пихтовая улица,656064,53.3314781,83.7201314
5,Пихтовая улица,656064,53.3316529,83.7200440
6,Брусничная улица,656064,53.3318127,83.7205508
3,Пихтовая улица,656064,53.3318375,83.7199137
1,Пихтовая улица,656064,53.3320371,83.7197583
18,Павловский тракт,656016,53.3397913,83.7328560
176,Пивоварская улица,656016,53.3396325,83.7354850
8,Павловский тракт,656016,53.3396443,83.7351279
10,Павловский тракт,656016,53.3396303,83.7345136
19А,Транслесовский переулок,656031,53.3403820,83.7463168
80,Стахановская улица,656031,53.3403644,83.7480964
143 к2,улица Челюскинцев,656031,53.3406022,83.7473207
129,проспект Строителей,656031,53.3406555,83.7459959
125,проспект Строителей,656031,53.3409725,83.7464703
17,Транслесовский переулок,656031,53.3406611,83.7469599
88,Стахановская улица,656031,53.3401310,83.7466875
24А,бульвар 9 Января,656038,53.3562596,83.7882221
24Б,бульвар 9 Января,656038,53.3561679,83.7879574
40,2-я Строительная улица,656039,53.3491180,83.7514867
32,2-я Строительная улица,656039,53.3503479,83.7526343
34,2-я Строительная улица,656039,53.3499262,83.7521821
36,2-я Строительная улица,656039,53.3496385,83.7519379
41,Путейская улица,656039,53.3501770,83.7524020
38,2-я Строительная улица,656039,53.3493816,83.7517177
93В,улица 42-й Краснознамённой Бригады,656039,53.3461077,83.7014024
56В,проспект Строителей,656031,53.3430062,83.7496278
6,Привокзальная улица,656015,53.3559035,83.7615607
10А,Тальменский проезд,656012,53.3772125,83.7932742
6А,улица Декабристов,656012,53.3771076,83.7902067
28 к1,улица Кулагина,656012,53.3729706,83.7791069
15,улица Кулагина,656012,53.3778985,83.7910912
12 к2,Тальменский проезд,656012,53.3767847,83.7948282
4,улица Декабристов,656012,53.3776863,83.7923040
1,Лесокирзаводская улица,656012,53.3788883,83.7943381
5,Тальменский проезд,656012,53.3761435,83.7928107
23,улица Кулагина,656012,53.3792129,83.7941742
12,Тальменский проезд,656012,53.3765392,83.7944078
6,улица Декабристов,656012,53.3773870,83.7915570
8А,Тальменский проезд,656012,53.3766839,83.7913530
2,улица Декабристов,656012,53.3780544,83.7926080
44,улица Кулагина,656012,53.3782264,83.7895891
172,улица Шевченко,656031,53.3364363,83.7493688
30,Балтийская улица,656006,53.3357262,83.6819240
28,Балтийская улица,656006,53.3353348,83.6819970
12,Северный Власихинский проезд,656006,53.3311948,83.6892067
130,улица Папанинцев,656049,53.3388245,83.7640132
26,Пролетарская улица,656038,53.3425350,83.7957546
112/14,проспект Калинина,656037,53.3879768,83.7497056
93Г,улица 42-й Краснознамённой Бригады,656039,53.3461730,83.7008754
277А,Павловский тракт,656067,53.3429676,83.6655657
104М/2,Змеиногорский тракт,656045,53.2868526,83.7524902
104М/4,Змеиногорский тракт,656045,53.2877113,83.7533448
104М/3,Змеиногорский тракт,656045,53.2872944,83.7528976
104М/5,Змеиногорский тракт,656045,53.2869736,83.7537711
102/57,Змеиногорский тракт,656045,53.2906797,83.7503646
102/59,Змеиногорский тракт,656045,53.2904626,83.7502670
104 к7,Змеиногорский тракт,656045,53.2914248,83.7549430
102/50,Змеиногорский тракт,656045,53.2913295,83.7499450
104 к7,Змеиногорский тракт,656045,53.2914705,83.7546359
89,Интернациональная улица,656049,53.3354578,83.7822927
219Б,улица Антона Петрова,656054,53.3590708,83.6977928
110/10,Змеиногорский тракт,656045,53.2831874,83.7450731
1,улица Сергея Семёнова,656065,53.3500797,83.6713679
7,улица Сергея Семёнова,656065,53.3498381,83.6703189
150,улица Попова,656065,53.3490494,83.6714314
11,улица Сергея Семёнова,656065,53.3500654,83.6691963
154,улица Попова,656065,53.3491337,83.6702368
71А к6,Змеиногорский тракт,656045,53.2857680,83.7572069
71А к5,Змеиногорский тракт,656045,53.2858574,83.7560531
71А к1,Змеиногорский тракт,656045,53.2861317,83.7579254
71А к2,Змеиногорский тракт,656045,53.2863383,83.7572599
71А к4,Змеиногорский тракт,656045,53.2862956,83.7556208
71А к3,Змеиногорский тракт,656045,53.2866346,83.7562486
214,улица Попова,656067,53.3307730,83.6646737
15,улица Сергея Семёнова,656065,53.3503542,83.6683696
5,улица Сергея Семёнова,656065,53.3498105,83.6711993
309,Павловский тракт,656909,53.3453528,83.6424307
129,Власихинская улица,656922,53.3302569,83.6562861
142a,улица Малахова,656006,53.3365032,83.6919853
35,Молодёжная улица,656031,53.3438163,83.7656706
2Д,2-я Осенняя улица,656922,53.3035552,83.6267688
21 к5,Весенняя улица,656922,53.3037307,83.6292035
16,Весенняя улица,656922,53.3043777,83.6269908
1А,1-я Осенняя улица,656922,53.3040314,83.6270002
54,Лазурная улица,656006,53.3266490,83.6818214
157А,улица Гущина,656055,53.3709044,83.7060857
16,улица Пионеров,656002,53.3627702,83.7654997
192А,Павловский тракт,656922,53.3503376,83.6324582
188,Павловский тракт,656922,53.3497564,83.6363872
135А,Красноармейский проспект,606531,53.3476674,83.7627981
51А,Красноармейский проспект,656049,53.3370197,83.7739075
56,улица Гоголя,656043,53.3324849,83.7877776
33,Полюсный проезд,656031,53.3427528,83.7557466
111,Молодёжная улица,656031,53.3402559,83.7557934
118,улица Крупской,656031,53.3395142,83.7592119
136,Молодёжная улица,656031,53.3401877,83.7538344
131,улица Шевченко,656031,53.3403429,83.7589486
124,улица Крупской,656031,53.3390072,83.7578678
144А,улица Шевченко,656031,53.3400024,83.7566629
143,переулок Ядринцева,656031,53.3428825,83.7561373
148,Пролетарская улица,656049,53.3339603,83.7730424
18,Транслесовский переулок,656031,53.3409388,83.7471001
166А,улица Юрина,656050,53.3658758,83.7168040
131,Интернациональная улица,656049,53.3331773,83.7761626
160,Пролетарская улица,656049,53.3334018,83.7711611
158,Пролетарская улица,656049,53.3334356,83.7721015
158Б,Пролетарская улица,656049,53.3336326,83.7718508
165,Пролетарская улица,656049,53.3327404,83.7716915
150,Пролетарская улица,656049,53.3336810,83.7724187
8,улица Фомина,656003,53.3193183,83.7793965
10,улица Фомина,656003,53.3190784,83.7790088
5А,улица Фомина,656003,53.3184387,83.7793042
31,Чумышский проезд,656003,53.3186867,83.7774891
12,улица Фомина,656003,53.3187809,83.7788865
3,улица Фомина,656003,53.3186265,83.7794871
1,улица Фомина,656003,53.3188398,83.7796360
14А,переулок Пороховой Взвоз,656003,53.3193673,83.7801320
20А,переулок Пороховой Взвоз,656003,53.3190211,83.7798509
20,переулок Пороховой Взвоз,656003,53.3191628,83.7800127
14Б,переулок Пороховой Взвоз,656003,53.3191338,83.7802937
17,улица Сергея Семёнова,656065,53.3502570,83.6666652
19,улица Сергея Семёнова,656065,53.3508519,83.6671851
13,улица Сергея Семёнова,656065,53.3503179,83.6688345
37,Полюсный проезд,656031,53.3424864,83.7552835
35,Полюсный проезд,656031,53.3426001,83.7554487
180,Песчаная улица,656031,53.3362485,83.7614403
150,улица Димитрова,656031,53.3381521,83.7591775
95,переулок Ядринцева,656031,53.3370061,83.7620639
104Г,Комсомольский проспект,656038,53.3478632,83.7868853
44,улица Парижской Коммуны,656004,53.3638775,83.7835634
42,улица Парижской Коммуны,656004,53.3637084,83.7837928
40,улица Парижской Коммуны,656004,53.3634978,83.7838796
38,улица Парижской Коммуны,656004,53.3633462,83.7840298
34,улица Парижской Коммуны,656004,53.3630465,83.7845938
32,улица Парижской Коммуны,656004,53.3628689,83.7844590
30,улица Парижской Коммуны,656004,53.3627826,83.7845909
49,улица 65 лет Победы,656065,53.3495841,83.6659688
10,улица 280-летия Барнаула,656065,53.3493344,83.6673042
167Б/1,улица Попова,656067,53.3229726,83.6514322
62,улица Ползунова,656043,53.3270395,83.7819021
36А,улица Энгельса,656004,53.3590820,83.7931358
22,улица Энгельса,656004,53.3578534,83.7934055
24,улица Энгельса,656004,53.3580833,83.7933875
34,улица Энгельса,656004,53.3588720,83.7934425
4,Фабричный проезд,656004,53.3577931,83.7941047
31,Татарская улица,656004,53.3593628,83.7944632
41,улица Карла Маркса,656004,53.3579497,83.7946230
39,улица Карла Маркса,656004,53.3577430,83.7945783
23А,Татарская улица,656004,53.3583886,83.7938586
30,улица Энгельса,656004,53.3584764,83.7933556
34А,улица Энгельса,656004,53.3587708,83.7936320
6,Фабричный проезд,656004,53.3578255,83.7938167
30А,улица Энгельса,656004,53.3584871,83.7930564
32,улица Энгельса,656004,53.3586916,83.7933802
21,Татарская улица,656004,53.3582410,83.7940903
23,Татарская улица,656004,53.3584236,83.7941350
35,Татарская улица,656004,53.3592034,83.7939164
26А,улица Энгельса,656004,53.3582066,83.7930729
36,улица Энгельса,656004,53.3590610,83.7934777
32А,улица Энгельса,656004,53.3588720,83.7931015
24А,улица Энгельса,656004,53.3578421,83.7930627
69,улица Фабричная,656004,53.3594636,83.7978963
25,Татарская улица,656004,53.3586169,83.7942082
71,улица Фабричная,656004,53.3596605,83.7979888
59,улица Фабричная,656004,53.3588870,83.7973097
27,Татарская улица,656004,53.3587833,83.7942779
61,улица Фабричная,656004,53.3590755,83.7976825
63,улица Фабричная,656004,53.3592738,83.7975838
65,улица Фабричная,656004,53.3593568,83.7972381
36Б,улица Энгельса,656004,53.3589471,83.7937568
67,улица Фабричная,656004,53.3595211,83.7974406
24,Коммерческая улица,656048,53.3491495,83.5414937
22,Коммерческая улица,656048,53.3492828,83.5418139
20,Коммерческая улица,656048,53.3495298,83.5422907
40,улица Дружбы,656048,53.3471108,83.5429997
51,улица 65 лет Победы,656065,53.3491969,83.6648319
41,улица 65 лет Победы,656065,53.3507262,83.6654369
45,улица 65 лет Победы,656065,53.3497666,83.6645843
4,улица 280-летия Барнаула,656065,53.3484263,83.6698804
2Б,улица 280-летия Барнаула,656065,53.3482386,83.6693958
2,улица 280-летия Барнаула,656065,53.3478931,83.6693665
14,улица 280-летия Барнаула,656065,53.3488006,83.6658858
158,улица Попова,656065,53.3480038,83.6707854
99А к2,улица Попова,656057,53.3465249,83.6722629
180Д,улица Юрина,656055,53.3700835,83.7055809
12,улица Монтажников,656063,53.3804170,83.6792516
59,5-я Западная улица,656036,53.3729007,83.7288540
56,улица Ползунова,656043,53.3273495,83.7826546
150/3,улица Гущина,656055,53.3714740,83.7068445
150/24,улица Гущина,656055,53.3720204,83.7049368
16,улица 280-летия Барнаула,656065,53.3482331,83.6655265
186В,Павловский тракт,656922,53.3483935,83.6394277
53,улица 65 лет Победы,656065,53.3487721,83.6643239
49,Геодезическая улица,656065,53.3600871,83.6562235
49А,Геодезическая улица,656065,53.3601896,83.6566907
49Б,Геодезическая улица,656065,53.3600021,83.6568683
49В,Геодезическая улица,656065,53.3594699,83.6560392
49Г,Геодезическая улица,656065,53.3595631,83.6565474
49Д,Геодезическая улица,656065,53.3593890,83.6567201
49Е,Геодезическая улица,656065,53.3588491,83.6558637
49Ж,Геодезическая улица,656065,53.3589480,83.6563896
49И,Геодезическая улица,656065,53.3587714,83.6565583
6,улица Глушкова,656036,53.3746566,83.7188994
126Б,улица Эмилии Алексеевой,656019,53.3805631,83.6854877
2И,Взлётная улица,656006,53.3383862,83.6852173
134А к4,улица Малахова,656006,53.3399756,83.6911378
2К,Взлётная улица,656006,53.3395363,83.6889681
23,Смоленская улица,656048,53.3457501,83.5540621
69Т,Власихинская улица,656006,53.3183017,83.6746601
1,площадь В.Н.Баварина,656043,53.3294511,83.8048957
151,Партизанская улица,656049,53.3346830,83.7731416
3А,улица Сухэ-Батора,656066,53.3502714,83.6956133
104П/5,Змеиногорский тракт,656045,53.2900003,83.7543070
104П/11,Змеиногорский тракт,656045,53.2883430,83.7533046
104 к15,Змеиногорский тракт,656045,53.2888596,83.7521655
104 к6,Змеиногорский тракт,656045,53.2918905,83.7548868
104П/6,Змеиногорский тракт,656045,53.2898367,83.7535192
104 к12,Змеиногорский тракт,656045,53.2912703,83.7536841
104 к4,Змеиногорский тракт,656045,53.2924965,83.7553349
104 к14,Змеиногорский тракт,656045,53.2895984,83.7526558
106Б,Змеиногорский тракт,656045,53.2886519,83.7492122
104/3,Змеиногорский тракт,656045,53.2905909,83.7534079
104П/10,Змеиногорский тракт,656045,53.2889244,83.7529313
104 к5,Змеиногорский тракт,656045,53.2921982,83.7551481
104 к11,Змеиногорский тракт,656045,53.2920492,83.7541107
104 к10,Змеиногорский тракт,656045,53.2926380,83.7544137
106Ж,Змеиногорский тракт,656045,53.2880942,83.7489645
104М/6,Змеиногорский тракт,656045,53.2865744,83.7529054
106Е,Змеиногорский тракт,656045,53.2884337,83.7491017
104 к13,Змеиногорский тракт,656045,53.2902407,83.7530971
104П/7,Змеиногорский тракт,656045,53.2891191,83.7541076
46,улица Пушкина,656049,53.3329918,83.7917169
18/1,Российская улица,656048,53.3495677,83.5402203
25,Коммерческая улица,656048,53.3489616,83.5423617
1,2-я Малиновая улица,656048,53.3493080,83.5658021
2,3-я Малиновая улица,656048,53.3487468,83.5655578
96/1,улица Крупской,656031,53.3413624,83.7640357
92,улица Крупской,656031,53.3414260,83.7641483
47В,Геодезическая улица,656065,53.3611276,83.6564902
47Д,Геодезическая улица,656065,53.3609594,83.6573005
47Г,Геодезическая улица,656065,53.3611786,83.6570377
47,Геодезическая улица,656065,53.3616393,83.6566139
53А,Геодезическая улица,656065,53.3580824,83.6564664
46,1-я Западная улица,656010,53.3809173,83.7361732
1Б,Брестская улица,656002,53.3531076,83.7756822
69А,проспект Космонавтов,656063,53.3882079,83.6594968
71,проспект Космонавтов,656063,53.3874315,83.6547331
11,Привокзальная улица,656015,53.3540608,83.7607387
29,Южный проезд,656905,53.3087661,83.6386432
14Б,улица 280-летия Барнаула,656065,53.3485483,83.6662143
80Е,Комсомольский проспект,656002,53.3435490,83.7908036
5А,улица Декабристов,656012,53.3774672,83.7940023
8,улица Декабристов,656012,53.3771059,83.7908513
13,улица Кулагина,656012,53.3776280,83.7903815
8Б,Тальменский проезд,656012,53.3766301,83.7933393
190,улица Антона Петрова,656054,53.3605706,83.6966047
196,улица Антона Петрова,656054,53.3603358,83.6993271
196А,улица Антона Петрова,656054,53.3604105,83.6984555
198,улица Антона Петрова,656054,53.3604874,83.6975221
27А,улица Куета,656000,53.3102930,83.6501116
80,Комсомольский проспект,656056,53.3438783,83.7919036
102/36,Змеиногорский тракт,656045,53.2920232,83.7522996
251А,Павловский тракт,656057,53.3428909,83.6804037
11,Балтийская улица,656006,53.3324614,83.6886617
24,Балтийская улица,656006,53.3357049,83.6823367
9,проезд Радлова,656093,53.3483174,83.7255915
206,улица Попова,656067,53.3345053,83.6677054
98Б,улица Попова,656065,53.3610891,83.6747960
299,Павловский тракт,656067,53.3449074,83.6545220
16,Балтийская улица,656006,53.3356319,83.6844415
1А,Трактовая улица,656922,53.3483809,83.6182445
313К,Павловский тракт,656922,53.3474438,83.6306283
23,Взлётная улица,656006,53.3376131,83.6851046
5,Трактовая улица,656922,53.3406741,83.6158405
26,Южный Власихинский проезд,656006,53.3252783,83.6778777
142,Павловский тракт,656057,53.3441550,83.6766306
15,проспект Энергетиков,656922,53.3362937,83.6458892
15Е,6-я Нагорная улица,656045,53.3038731,83.7526846
154,улица Фомина,656045,53.3053383,83.7598940
10/5А,проспект Космонавтов,656023,53.3888491,83.7097434
8,улица 280-летия Барнаула,656065,53.3484228,83.6679028
170,улица Шевченко,656031,53.3369036,83.7514309
189 к3,улица Попова,656922,53.3170758,83.6275420
195А,проспект Ленина,656010,53.3811070,83.7388557
195А к2,проспект Ленина,656010,53.3815169,83.7383503
150/4,улица Гущина,656055,53.3717022,83.7058605
4,Заобская улица,656909,53.2640386,83.8568750
22,Заобская улица,656909,53.2629475,83.8633485
19,Заобская улица,656909,53.2634646,83.8627405
17,Заобская улица,656909,53.2636937,83.8618103
15,Заобская улица,656909,53.2638527,83.8610387
20,Заобская улица,656909,53.2632945,83.8615880
18,Заобская улица,656909,53.2634400,83.8608718
16,Заобская улица,656909,53.2634868,83.8599508
14,Заобская улица,656909,53.2635975,83.8594226
12,Заобская улица,656909,53.2637159,83.8589156
10,Заобская улица,656909,53.2637332,83.8587124
8,Заобская улица,656909,53.2638008,83.8582629
6,Заобская улица,656909,53.2639437,83.8574293
2,Заобская улица,656909,53.2641291,83.8563527
179Б,улица Попова,656922,53.3224053,83.6431240
74-2,переулок Некрасова,656038,53.3496911,83.7879615
74А,переулок Некрасова,656038,53.3494677,83.7877727
15,улица Сергея Ускова,656067,53.3427491,83.6564295
281,Красноярская улица,656012,53.3904628,83.7766650
283,Красноярская улица,656012,53.3909804,83.7768615
285,Красноярская улица,656012,53.3910891,83.7765227
92,Балтийская улица,656067,53.3372553,83.6613439
66,улица Гоголя,656043,53.3315544,83.7851136
70,переулок Ядринцева,656049,53.3337502,83.7670859
130А,Партизанская улица,656049,53.3351943,83.7710024
149,Партизанская улица,656049,53.3348686,83.7733258
157А,улица Шевченко,656031,53.3383539,83.7546031
124,переулок Циолковского,656031,53.3412577,83.7623646
101А,улица Шевченко,656031,53.3420047,83.7637412
101,улица Шевченко,656031,53.3420104,83.7639889
93,улица Шевченко,656031,53.3426385,83.7647348
158,переулок Радищева,656031,53.3424165,83.7649357
156А,переулок Радищева,656031,53.3424024,83.7645673
156,переулок Радищева,656031,53.3422372,83.7646900
137,переулок Радищева,656031,53.3419523,83.7645025
141,переулок Радищева,656031,53.3421612,83.7642183
94,улица Крупской,656031,53.3416606,83.7639236
96Б,улица Крупской,656031,53.3414033,83.7637326
121,проспект Строителей,656031,53.3412967,83.7470718
135А,проспект Строителей,656031,53.3397259,83.7463810
127,проспект Строителей,656031,53.3409468,83.7461954
22,Транслесовский переулок,656031,53.3405850,83.7462713
19,Транслесовский переулок,656031,53.3404618,83.7464844
145,улица Крупской,656031,53.3387216,83.7587753
145А,улица Крупской,656031,53.3384554,83.7587379
5,Целинная улица,656064,53.3422497,83.7190685
107,улица Никитина,656043,53.3316856,83.7802958
122Г,Комсомольский проспект,656002,53.3562044,83.7809715
5Б,Целинная улица,656064,53.3424958,83.7190859
1Б,Целинная улица,656064,53.3415040,83.7187260
1В/1,Заринская улица,656064,53.3425392,83.7186903
10,2-я Осенняя улица,656922,53.3026904,83.6232750
4,Новгородская улица,656054,53.3557949,83.6967688
4 с2,улица Сергея Семёнова,656065,53.3511287,83.6701987
6 с2,улица Сергея Семёнова,656065,53.3512355,83.6689809
15Г,улица Солнечная Поляна,656060,53.3705839,83.6624947
24Б/3,улица Солнечная Поляна,656060,53.3710646,83.6617327
80В к1,улица Челюскинцев,656031,53.3361377,83.7551925
2,Комсомольский проспект,656056,53.3341947,83.8005218
3,улица Ползунова,656056,53.3349143,83.8014615
30,2-я Строительная улица,656039,53.3505512,83.7530826
17,Татарская улица,656004,53.3580148,83.7943044
26,улица Энгельса,656004,53.3581909,83.7936392
94,Матросская улица,656909,53.2954027,83.7969933
127Б,Власихинская улица,656922,53.3304296,83.6568601
127/1,Власихинская улица,656922,53.3302343,83.6584467
44А,1-я Западная улица,656010,53.3805782,83.7367145
110/11,Змеиногорский тракт,656045,53.2829752,83.7454063
110/8,Змеиногорский тракт,656045,53.2830382,83.7444969
63В/293,проспект Космонавтов,656063,53.3885570,83.6746882
20А/294,проспект Космонавтов,656063,53.3885539,83.6743996
63В/295,проспект Космонавтов,656063,53.3885759,83.6740784
63В/297,проспект Космонавтов,656063,53.3887508,83.6732468
63В/282,проспект Космонавтов,656063,53.3890473,83.6730726
20А/280,проспект Космонавтов,656063,53.3890582,83.6737441
63В/279,проспект Космонавтов,656063,53.3888366,83.6739625
122,Комсомольский проспект,656002,53.3558574,83.7789493
104,улица Эмилии Алексеевой,656063,53.3806948,83.6907513
13А,улица Попова,656063,53.3819748,83.6915819
110Б,Совхозная улица,656063,53.3815759,83.6897407
106,улица Эмилии Алексеевой,656063,53.3807518,83.6897024
116,улица Эмилии Алексеевой,656063,53.3812047,83.6884359
116А,улица Эмилии Алексеевой,656063,53.3812185,83.6880659
118,улица Эмилии Алексеевой,656063,53.3808898,83.6883831
11В,улица Попова,656063,53.3823458,83.6850186
42,Сиреневая улица,656067,53.3345073,83.6591433
65,улица Энтузиастов,656065,53.3560370,83.6609980
66 к2,улица Советской Армии,656093,53.3499126,83.7287717
23Б,улица Кулагина,656012,53.3791542,83.7937533
3,Целинная улица,656064,53.3417865,83.7187422
7/11,Трактовая улица,656922,53.3429354,83.6091522
19,Татарская улица,656004,53.3580566,83.7940608
28,улица Энгельса,656004,53.3583046,83.7933579
50/3,Трактовая улица,656922,53.3291875,83.6212690
11,Небесный переулок,656922,53.3021816,83.6258804
20,Весенняя улица,656922,53.3035521,83.6272172
4А,1-я Осенняя улица,656922,53.3041680,83.6255542
16,1-я Осенняя улица,656922,53.3031882,83.6218572
21А,Целинная улица,656922,53.3025125,83.6198367
92 с1,Балтийская улица,656067,53.3375114,83.6613122
92,Трактовая улица,656922,53.3152472,83.6240229
278,Красноярская улица,656012,53.3940832,83.7662711
303,улица Юрина,656060,53.3723927,83.6682881
44,улица Малахова,656055,53.3699310,83.7085116
22А,Весенняя улица,656922,53.3029705,83.6268554
22,Весенняя улица,656922,53.3028238,83.6260496
44,Комсомольский проспект,656056,53.3400530,83.7949583
99,улица Малахова,656039,53.3485881,83.6980138
79,улица Малахова,656039,53.3586848,83.7018499
