House number,Street name,Postal code,Latitude,Longitude
101,улица Мира,618425,59.4118190,56.8540707
85А,улица Мира,618425,59.4087927,56.8494402
86,улица Мира,618425,59.4094473,56.8535305
58,улица Мира,618425,59.4057734,56.8468653
72,Юбилейная улица,618422,59.4083054,56.8365608
17,Советский проспект,618400,59.4117082,56.7862405
122,улица Свердлова,618422,59.4092404,56.8329713
72,Юбилейная улица,618422,59.4075331,56.8383914
62А,улица Мира,618425,59.4086305,56.8505877
80,улица Мира,618425,59.4076227,56.8528518
122,улица Карла Маркса,618400,59.4211307,56.8136104
150,улица Свердлова,618425,59.4140038,56.8491458
37,Юбилейная улица,618400,59.4137172,56.8139203
99,улица Мира,618425,59.4113513,56.8533838
82,Юбилейная улица,618422,59.4063880,56.8409585
97,улица Свердлова,618425,59.4146070,56.8535466
5,Большевистский проезд,618419,59.3988568,56.8095792
26,улица Мира,618426,59.3987553,56.8376140
83,улица Мира,618425,59.4084198,56.8491179
90,улица Пятилетки,618419,59.4018410,56.8269321
31,Загородная улица,618400,59.4573422,56.8353986
22,улица 30 лет Победы,618426,59.3950941,56.8438902
10,Советский проспект,618400,59.4118517,56.7819273
47,проспект Ленина,618400,59.4116603,56.7926993
82,улица Мира,618425,59.4085361,56.8527042
114А,улица Пятилетки,618426,59.3958422,56.8450589
45,проспект Ленина,618400,59.4113993,56.7926832
22,улица Ивана Дощеникова,618409,59.4266729,56.6523692
93,улица Мира,618425,59.4100867,56.8488223
1,Яйвинская улица,618400,59.3009751,56.7362282
3,Яйвинская улица,618400,59.3014332,56.7352180
3А,Яйвинская улица,618400,59.3015652,56.7349270
15А,улица Новожилова,618426,59.3876024,56.8717594
2,улица Новожилова,618426,59.3860861,56.8699066
20,улица Новожилова,618426,59.3884979,56.8741542
8,Запольская улица,618416,59.4379052,56.8970091
19,улица 9 Мая,618416,59.4363601,56.8713218
30,Пермяковская улица,618400,59.4377930,56.8694927
30,улица 9 Мая,618416,59.4372623,56.8708224
12,Ольховская улица,618416,59.4350774,56.8652932
8,Факультетская улица,618416,59.4338553,56.8635892
3,Факультетская улица,618416,59.4330485,56.8641918
1,Ольховская улица,618416,59.4330756,56.8655949
1Б,Ольховская улица,618416,59.4328866,56.8655550
10,улица 9 Мая,618416,59.4338098,56.8698670
52,улица Мира,618400,59.4035793,56.8455677
1,Сильвинитовая улица,618430,59.3448991,56.9275341
6,Садовый переулок,618404,59.3966976,56.8007184
110,улица Пятилетки,618426,59.3990704,56.8355828
110,улица Пятилетки,618426,59.3993588,56.8354160
3,Чуртанское шоссе,618400,59.4121627,56.7400361
31,Загородная улица,618421,59.4571998,56.8357734
48,Загородная улица,618400,59.4511341,56.8282528
103,проспект Ленина,618400,59.4640323,56.8446422
10,Комсомольская улица,618409,59.3987134,56.8566847
41,улица Пятилетки,618400,59.4060862,56.8056113
92,Юбилейная улица,618426,59.4030392,56.8463983
52,улица Мира,618426,59.4035631,56.8448018
1,Юбилейная улица,618417,59.4164638,56.7978377
33,Набережная улица,618426,59.3922131,56.8436449
27,Набережная улица,618426,59.3917665,56.8430287
128,улица Пятилетки,618426,59.3939778,56.8456373
11,Юбилейная улица,618417,59.4162565,56.7989731
31,Набережная улица,618426,59.3918445,56.8451780
29,Набережная улица,618426,59.3915421,56.8442779
80,улица Свердлова,618422,59.4039396,56.8303425
57,проспект Ленина,618400,59.4157754,56.7941383
3,Юбилейная улица,618417,59.4168096,56.7977076
5,Юбилейная улица,618417,59.4167225,56.7982556
7,Юбилейная улица,618417,59.4166309,56.7987803
9,Юбилейная улица,618417,59.4165704,56.7992765
17,Советский проспект,618400,59.4118757,56.7863076
50,Советский проспект,618400,59.4074282,56.8032692
33,улица Свердлова,618422,59.4076671,56.8310935
37,улица Свердлова,618422,59.4082595,56.8311346
35,улица Свердлова,618422,59.4080455,56.8299502
35А,улица Свердлова,618422,59.4081559,56.8285834
52,Юбилейная улица,618422,59.4087883,56.8276180
33А,улица Свердлова,618422,59.4068752,56.8306123
84А,улица Свердлова,618422,59.4053912,56.8313903
82,улица Свердлова,618422,59.4042720,56.8307586
84,улица Свердлова,618422,59.4046054,56.8310611
110,улица Свердлова,618422,59.4059029,56.8324202
108А,улица Свердлова,618422,59.4058573,56.8348850
114А,улица Свердлова,618422,59.4072646,56.8329136
116,улица Свердлова,618422,59.4076417,56.8331414
118,улица Свердлова,618422,59.4080243,56.8338133
124,улица Свердлова,618422,59.4072190,56.8348243
102,Юбилейная улица,618426,59.4014701,56.8483475
104,Юбилейная улица,618426,59.4006426,56.8512826
116,Юбилейная улица,618426,59.3981534,56.8522327
118,Юбилейная улица,618426,59.3978849,56.8529683
120,Юбилейная улица,618426,59.3975656,56.8534746
106,Юбилейная улица,618426,59.3989560,56.8531877
44,улица Парижской Коммуны,618425,59.4132403,56.8481527
150,улица Свердлова,618425,59.4139815,56.8472091
46,улица Парижской Коммуны,618425,59.4114520,56.8477729
54,улица Парижской Коммуны,618425,59.4107152,56.8508216
94,улица Мира,618425,59.4107271,56.8557180
108,улица Мира,618425,59.4122549,56.8556375
84,улица Мира,618425,59.4100873,56.8533164
86,улица Мира,618425,59.4095383,56.8537386
124,улица Мира,618425,59.4113242,56.8597456
112,улица Мира,618425,59.4126011,56.8566100
116,улица Мира,618425,59.4127146,56.8582033
118,улица Мира,618425,59.4119157,56.8582752
99,улица Свердлова,618425,59.4151472,56.8521273
101,улица Свердлова,618425,59.4156441,56.8521286
42,улица Парижской Коммуны,618425,59.4122770,56.8458929
14,улица Потёмина,618425,59.4107213,56.8463211
16,улица Потёмина,618425,59.4110209,56.8468125
93,улица Мира,618425,59.4103544,56.8482048
47,улица Мира,618422,59.4037750,56.8387277
46,улица Мира,618426,59.4018915,56.8435261
54,улица Мира,618426,59.4026445,56.8451094
90,Юбилейная улица,618426,59.4031428,56.8452417
98,Юбилейная улица,618426,59.4021000,56.8476065
100,Юбилейная улица,618426,59.4021365,56.8487547
42,улица Мира,618426,59.4015175,56.8427647
152,улица Свердлова,618425,59.4138540,56.8508058
107,улица Мира,618425,59.4133408,56.8543808
2,улица Потёмина,618425,59.4081664,56.8408801
113,Юбилейная улица,618425,59.4081430,56.8417771
115,Юбилейная улица,618425,59.4079068,56.8423206
111,Юбилейная улица,618425,59.4071081,56.8410273
101,улица Мира,618425,59.4119649,56.8529520
154,улица Свердлова,618425,59.4134095,56.8508022
103,улица Мира,618425,59.4125166,56.8529332
6А,улица Потёмина,618425,59.4095274,56.8443520
12,улица Потёмина,618425,59.4105303,56.8456482
10,улица Потёмина,618425,59.4102523,56.8451951
8,улица Потёмина,618425,59.4099698,56.8447284
6,улица Потёмина,618425,59.4092576,56.8438965
91,улица Мира,618425,59.4093502,56.8462400
89,улица Мира,618425,59.4094024,56.8469787
87,улица Мира,618425,59.4094467,56.8477078
85,улица Мира,618425,59.4094271,56.8494417
79,улица Мира,618425,59.4084689,56.8472426
117,Юбилейная улица,618425,59.4076421,56.8428481
4,улица Потёмина,618425,59.4091006,56.8424082
119,Юбилейная улица,618425,59.4068009,56.8424347
121,Юбилейная улица,618425,59.4065553,56.8430135
125,Юбилейная улица,618425,59.4063064,56.8436003
58,улица Мира,618425,59.4063981,56.8478648
62,улица Мира,618425,59.4078034,56.8506447
69,улица Мира,618425,59.4066485,56.8464262
92,улица Мира,618425,59.4110818,56.8545315
110,улица Мира,618425,59.4133937,56.8556079
67,улица Мира,618425,59.4068553,56.8454786
65,улица Мира,618425,59.4061949,56.8446887
166,улица Свердлова,618425,59.4140009,56.8598640
172,улица Свердлова,618425,59.4140709,56.8610376
48,улица Парижской Коммуны,618425,59.4117105,56.8485822
52,улица Парижской Коммуны,618425,59.4122648,56.8495372
50,улица Парижской Коммуны,618425,59.4119887,56.8490616
162,улица Свердлова,618425,59.4132228,56.8572166
160,улица Свердлова,618425,59.4135994,56.8569442
108,улица Свердлова,618422,59.4061354,56.8355469
106,улица Мира,618425,59.4110247,56.8577777
75,улица Мира,618425,59.4078385,56.8458420
73,улица Мира,618425,59.4078969,56.8465564
101,улица Мира,618425,59.4118881,56.8539525
99,улица Мира,618425,59.4115044,56.8522299
56,улица Парижской Коммуны,618425,59.4111247,56.8500198
123,Юбилейная улица,618425,59.4071309,56.8438203
88,улица Мира,618425,59.4090245,56.8546043
90,улица Мира,618425,59.4094820,56.8555515
104,улица Мира,618425,59.4105237,56.8583837
102,улица Мира,618425,59.4100043,56.8590052
100,улица Мира,618425,59.4094806,56.8595574
80,улица Мира,618425,59.4080946,56.8536129
135,Юбилейная улица,618425,59.4059932,56.8508556
137,Юбилейная улица,618425,59.4054739,56.8511117
143,Юбилейная улица,618425,59.4049438,56.8535625
145,Юбилейная улица,618425,59.4054760,56.8541971
70,улица Мира,618425,59.4072277,56.8525899
72,улица Мира,618425,59.4072491,56.8536829
74,улица Мира,618425,59.4073455,56.8549217
68,улица Мира,618425,59.4064965,56.8517013
60,улица Мира,618425,59.4064389,56.8492889
78,улица Мира,618425,59.4081484,56.8550728
149,Юбилейная улица,618425,59.4064702,56.8540668
126,улица Мира,618425,59.4106994,56.8598750
44А,улица Парижской Коммуны,618425,59.4126321,56.8467266
98,улица Мира,618425,59.4100802,56.8577324
96,улица Мира,618425,59.4101740,56.8566926
114,улица Мира,618425,59.4119442,56.8568995
122,улица Мира,618425,59.4119078,56.8598880
147,Юбилейная улица,618425,59.4057338,56.8550819
141,Юбилейная улица,618425,59.4048588,56.8539749
64,улица Мира,618425,59.4070037,56.8500350
66,улица Мира,618425,59.4073931,56.8513461
62А,улица Мира,618425,59.4085912,56.8507003
120,улица Свердлова,618422,59.4084142,56.8340729
74,Юбилейная улица,618422,59.4075058,56.8367689
72,Юбилейная улица,618422,59.4078536,56.8373447
120,улица Мира,618425,59.4119775,56.8591116
168,улица Свердлова,618425,59.4144424,56.8588340
170,улица Свердлова,618425,59.4147050,56.8603419
164,улица Свердлова,618425,59.4132532,56.8604610
97,улица Свердлова,618425,59.4147197,56.8521307
71,улица Мира,618425,59.4077063,56.8474350
81,улица Мира,618425,59.4082707,56.8481554
83,улица Мира,618425,59.4088254,56.8488247
49,улица Мира,618422,59.4040761,56.8391955
45,улица Мира,618422,59.4034764,56.8382668
39,улица Мира,618422,59.4030779,56.8418915
41,улица Мира,618422,59.4032682,56.8412740
29,Загородная улица,618426,59.4604473,56.8285692
4А,улица Потёмина,618425,59.4086034,56.8438108
4А,улица Потёмина,618425,59.4084960,56.8432450
105,Юбилейная улица,618425,59.4089046,56.8399936
103,Юбилейная улица,618425,59.4091411,56.8394261
101,Юбилейная улица,618425,59.4093511,56.8388097
97,Юбилейная улица,618425,59.4094247,56.8379166
95,Юбилейная улица,618425,59.4083447,56.8381359
127,Юбилейная улица,618425,59.4057668,56.8443962
106,улица Свердлова,618422,59.4049725,56.8366131
80,Юбилейная улица,618422,59.4053606,56.8377300
76,Юбилейная улица,618422,59.4068449,56.8364694
78,Юбилейная улица,618422,59.4066605,56.8394026
33,улица Мира,618422,59.4025143,56.8400240
31,улица Мира,618422,59.4021336,56.8395412
29,улица Мира,618422,59.4017732,56.8390623
129,Юбилейная улица,618425,59.4049830,56.8475928
131,Юбилейная улица,618425,59.4048526,56.8506180
50,улица Мира,618426,59.4027895,56.8438730
43,улица Мира,618422,59.4030085,56.8398409
113,улица Пятилетки,618426,59.3963487,56.8523558
122,Юбилейная улица,618426,59.3972015,56.8539097
128,Юбилейная улица,618426,59.3968548,56.8543397
109,улица Пятилетки,618426,59.3956019,56.8490506
111,улица Пятилетки,618426,59.3956273,56.8510114
130,Юбилейная улица,618426,59.3964395,56.8544858
132,Юбилейная улица,618426,59.3957780,56.8544668
138,Юбилейная улица,618426,59.3950247,56.8549986
56,улица Мира,618425,59.4055169,56.8484425
133,Юбилейная улица,618425,59.4054777,56.8498012
76,улица Мира,618425,59.4082308,56.8558754
82,Юбилейная улица,618422,59.4062424,56.8411389
84А,улица Мира,618425,59.4097483,56.8547010
130,улица Мира,618425,59.4119538,56.8605285
128,улица Мира,618425,59.4103231,56.8610250
53,улица Мира,618422,59.4040530,56.8416301
5А,улица Парижской Коммуны,618419,59.4184738,56.8328838
59,Юбилейная улица,618425,59.4131400,56.8260078
65,Юбилейная улица,618425,59.4130110,56.8267563
63,Юбилейная улица,618425,59.4123780,56.8265064
114,Юбилейная улица,618426,59.3988348,56.8521813
1,Сильвинитовая улица,618430,59.3425846,56.9328749
18,улица Калинина,618404,59.4022874,56.7815777
44,улица Мира,618426,59.4024391,56.8430086
158,улица Свердлова,618425,59.4134105,56.8578285
39,улица Пятилетки,618400,59.4065794,56.8026186
44,улица Пятилетки,618419,59.4057308,56.8035809
87,улица Пятилетки,618426,59.3986858,56.8420944
105,улица Пятилетки,618426,59.3973097,56.8456306
101,улица Пятилетки,618426,59.3979715,56.8439302
108,Юбилейная улица,618426,59.3973036,56.8551382
5,улица Потёмина,618425,59.4104282,56.8426577
13,Строгановская улица,618400,59.4261797,56.6583868
33А,улица Мира,618426,59.4032072,56.8369984
31А,улица Мира,618426,59.4026167,56.8377636
86,улица Свердлова,618422,59.4041442,56.8326391
88,улица Свердлова,618422,59.4038191,56.8343609
37,улица Мира,618422,59.4039993,56.8362016
40,улица Мира,618426,59.4009253,56.8424656
103,улица Пятилетки,618426,59.3980429,56.8454529
93,Юбилейная улица,618425,59.4093362,56.8358620
99,Юбилейная улица,618425,59.4103580,56.8389094
110,Юбилейная улица,618426,59.3957493,56.8550147
112,Юбилейная улица,618426,59.3950762,56.8565444
107,улица Пятилетки,618426,59.3965926,56.8471135
117,улица Пятилетки,618426,59.3945697,56.8543576
96,Юбилейная улица,618426,59.4023224,56.8464267
30,Новосодовая улица,618400,59.4501669,56.7435067
44,Юбилейная улица,618422,59.4098127,56.8266519
42,Юбилейная улица,618422,59.4105809,56.8271867
62,Юбилейная улица,618422,59.4100182,56.8320875
54,Юбилейная улица,618422,59.4095388,56.8288190
50,Юбилейная улица,618422,59.4096493,56.8281124
39,улица Свердлова,618422,59.4084600,56.8298980
47,улица Свердлова,618422,59.4096624,56.8313830
41,улица Свердлова,618422,59.4088881,56.8298736
46,улица Пятилетки,618419,59.4053353,56.8047731
48,улица Пятилетки,618419,59.4052154,56.8061752
21,Уютная улица,618400,59.3772626,56.8741069
2,улица Малая Зырянка,618404,59.3765879,56.8743170
22,Уютная улица,618400,59.3776326,56.8741189
1,улица Малая Зырянка,618404,59.3762363,56.8742556
12,Сиреневая улица,618417,59.3781283,56.8753294
14А,улица Калинина,618404,59.4000549,56.7815713
27,улица Пятилетки,618400,59.4071001,56.7989673
35,улица Пятилетки,618400,59.4066840,56.8016582
54,улица Пятилетки,618419,59.4046919,56.8101500
62,улица Пятилетки,618419,59.4038086,56.8154550
56,улица Пятилетки,618419,59.4042001,56.8124214
58,улица Пятилетки,618419,59.4041450,56.8134589
60,улица Пятилетки,618419,59.4039722,56.8144888
32,улица Мира,618426,59.4001907,56.8401738
36,улица Мира,618426,59.4003327,56.8412996
30,улица Мира,618426,59.3997176,56.8393437
79,улица Свердлова,618422,59.4148871,56.8336692
40,улица Парижской Коммуны,618425,59.4133608,56.8446940
21,Юбилейная улица,618417,59.4154385,56.8053467
23,Юбилейная улица,618417,59.4150544,56.8066331
17,Юбилейная улица,618417,59.4156757,56.8030466
46,Юбилейная улица,618422,59.4105642,56.8288359
19,Юбилейная улица,618417,59.4153753,56.8044268
75,улица Свердлова,618422,59.4142924,56.8370013
73,улица Свердлова,618422,59.4139821,56.8376813
77,улица Свердлова,618422,59.4148591,56.8358478
67,улица Свердлова,618422,59.4137894,56.8347103
87,Юбилейная улица,618425,59.4106948,56.8321831
85,Юбилейная улица,618425,59.4115020,56.8316555
77,Юбилейная улица,618425,59.4110437,56.8301764
83,Юбилейная улица,618425,59.4121278,56.8318772
81,Юбилейная улица,618425,59.4122583,56.8311205
79,Юбилейная улица,618425,59.4116333,56.8309015
55,улица Свердлова,618422,59.4121961,56.8371944
89,Юбилейная улица,618425,59.4113715,56.8324168
63,улица Свердлова,618422,59.4134006,56.8354664
57,улица Свердлова,618422,59.4124970,56.8366311
91,Юбилейная улица,618425,59.4119964,56.8326390
51А,улица Свердлова,618422,59.4114421,56.8345992
49,улица Свердлова,618422,59.4108949,56.8340525
53,улица Свердлова,618422,59.4125313,56.8339484
71,улица Свердлова,618422,59.4137480,56.8384865
69,улица Свердлова,618422,59.4132922,56.8394632
56,Юбилейная улица,618422,59.4102155,56.8308009
65А,улица Свердлова,618422,59.4130057,56.8323731
73,Юбилейная улица,618425,59.4124135,56.8302204
75,Юбилейная улица,618425,59.4117035,56.8297465
69,Юбилейная улица,618425,59.4117039,56.8261772
69А,Юбилейная улица,618425,59.4117169,56.8277340
71,Юбилейная улица,618425,59.4123903,56.8289886
154А,улица Свердлова,618425,59.4127701,56.8508975
67А,Юбилейная улица,618425,59.4128411,56.8276341
76,улица Пятилетки,618419,59.4027764,56.8215472
54,улица Ломоносова,618419,59.4031666,56.8151845
64,улица Пятилетки,618419,59.4034150,56.8177048
68,улица Пятилетки,618419,59.4032097,56.8189378
86,улица Пятилетки,618419,59.4022047,56.8242601
80,улица Пятилетки,618419,59.4025570,56.8228618
90,улица Пятилетки,618419,59.4019082,56.8260026
33,улица Пятилетки,618400,59.4073505,56.8013835
31,улица Пятилетки,618400,59.4075817,56.8000229
48,Советский проспект,618400,59.4078123,56.8023688
81,улица Свердлова,618422,59.4135383,56.8320828
81,улица Свердлова,618422,59.4132422,56.8311686
69А,улица Свердлова,618422,59.4128701,56.8384893
65,улица Свердлова,618422,59.4141815,56.8311050
25,улица Пятилетки,618400,59.4071672,56.7980487
3,Парковая улица,618400,59.4076559,56.7970330
37,улица Пятилетки,618400,59.4070571,56.8021627
23,улица Пятилетки,618400,59.4074518,56.7963225
7,Парковая улица,618400,59.4084743,56.7971953
6,Парковая улица,618400,59.4078635,56.7983026
5,Парковая улица,618400,59.4080917,56.7969469
8,Парковая улица,618400,59.4082543,56.7985592
29,улица Пятилетки,618400,59.4071186,56.8004771
4,Парковая улица,618400,59.4075230,56.7977212
15,улица Челюскинцев,618400,59.4035755,56.7981839
35,улица Ломоносова,618419,59.4029108,56.8165760
66,улица Пятилетки,618419,59.4030631,56.8181693
39,улица Ломоносова,618419,59.4033358,56.8168600
33,улица Ломоносова,618419,59.4025031,56.8163037
37,улица Ломоносова,618419,59.4030453,56.8172654
78,улица Пятилетки,618419,59.4022985,56.8222299
74,улица Пятилетки,618419,59.4024119,56.8211716
92,проспект Ленина,618400,59.4493916,56.8371953
88,улица Пятилетки,618419,59.4017088,56.8246101
84,улица Пятилетки,618419,59.4017000,56.8235952
61,улица Свердлова,618422,59.4132572,56.8364590
59,улица Свердлова,618422,59.4126188,56.8356953
25,улица Ломоносова,618419,59.4010184,56.8153436
27,улица Ломоносова,618419,59.4013450,56.8155250
31,улица Ломоносова,618419,59.4020033,56.8159615
29,улица Ломоносова,618419,59.4016724,56.8157637
25,Набережная улица,618426,59.3910748,56.8439388
19,Набережная улица,618426,59.3912265,56.8414920
17,Набережная улица,618426,59.3915966,56.8396448
4,улица 30 лет Победы,618426,59.3918767,56.8405781
134,улица Пятилетки,618426,59.3935771,56.8480035
21,Набережная улица,618426,59.3917117,56.8417876
124,улица Карла Маркса,618400,59.4237563,56.8154873
7,улица Миндовского,618400,59.4208421,56.7934981
105,улица Карла Маркса,618400,59.4250035,56.8137196
61,проспект Ленина,618400,59.4172672,56.7952012
68,улица Ермака,618419,59.4145282,56.8214995
35,Юбилейная улица,618417,59.4141322,56.8117998
39,Юбилейная улица,618417,59.4135016,56.8157753
37,Юбилейная улица,618417,59.4137608,56.8138860
19,улица Пятилетки,618400,59.4079635,56.7933387
50,улица Пятилетки,618419,59.4051101,56.8074054
8Г,Большевистская улица,618404,59.3997570,56.8032488
15,Строгановская улица,618400,59.4262727,56.6572118
11,Строгановская улица,618400,59.4254078,56.6586076
19,Строгановская улица,618400,59.4270162,56.6559393
11А,Строгановская улица,618400,59.4255678,56.6597393
10,улица Ивана Дощеникова,618400,59.4251006,56.6548833
9,Строгановская улица,618400,59.4253599,56.6575511
20,улица Ивана Дощеникова,618400,59.4267732,56.6539456
22,улица Ивана Дощеникова,618400,59.4270669,56.6531252
18,улица Ивана Дощеникова,618400,59.4263447,56.6521664
12,улица Ивана Дощеникова,618400,59.4253453,56.6523789
14,улица Ивана Дощеникова,618400,59.4255184,56.6534153
4,улица Ивана Дощеникова,618400,59.4233393,56.6563489
16,улица Ивана Дощеникова,618400,59.4261912,56.6551313
31,Юбилейная улица,618417,59.4147697,56.8100477
79,Новосодовая улица,618400,59.4465407,56.7360393
52,улица Пятилетки,618419,59.4046036,56.8087254
46,улица Ломоносова,618419,59.4013307,56.8140609
48,улица Ломоносова,618419,59.4019394,56.8144613
17,улица Ломоносова,618419,59.3997400,56.8145030
84Б,улица Мира,618425,59.4097933,56.8528130
85А,улица Мира,618425,59.4087956,56.8493833
150,Набережная улица,618426,59.3928107,56.8565007
110,улица Мира,618425,59.4138558,56.8556672
13,Юбилейная улица,618417,59.4162995,56.8008815
15,Юбилейная улица,618417,59.4159985,56.8024312
106,улица Пятилетки,618426,59.3995038,56.8344899
5,Большевистский проезд,618419,59.3989026,56.8096515
19,улица Мира,618426,59.3986123,56.8358057
24,улица Мира,618426,59.3982637,56.8369027
28,улица Мира,618426,59.3987355,56.8386459
130,улица Пятилетки,618426,59.3939751,56.8472715
140,улица Пятилетки,618426,59.3936465,56.8518919
26,улица Мира,618426,59.3984126,56.8381572
136,улица Пятилетки,618426,59.3942821,56.8491935
138,улица Пятилетки,618426,59.3940963,56.8505861
14,Советский проспект,618400,59.4113684,56.7834665
21,улица Пятилетки,618400,59.4078782,56.7949622
38,Советский проспект,618400,59.4087941,56.7972007
32,Советский проспект,618400,59.4091737,56.7948267
30,Советский проспект,618400,59.4093036,56.7940238
28,Советский проспект,618400,59.4094547,56.7926988
36,Советский проспект,618400,59.4086229,56.7963625
34,Советский проспект,618400,59.4090348,56.7957400
46,Советский проспект,618400,59.4080610,56.8014961
40,Советский проспект,618400,59.4084937,56.7989015
42,Советский проспект,618400,59.4082506,56.7997474
44,Советский проспект,618400,59.4081970,56.8006993
13,улица Черепанова,618419,59.4036851,56.8053714
7,улица Калинина,618404,59.3989048,56.7794035
4,улица Калинина,618404,59.3978491,56.7797635
1,улица Калинина,618404,59.3977924,56.7787047
2,улица Калинина,618404,59.3970872,56.7793293
6,улица Калинина,618404,59.3984351,56.7799615
144,улица Пятилетки,618426,59.3928263,56.8511898
118,улица Пятилетки,618426,59.3951290,56.8478459
35,Набережная улица,618426,59.3931957,56.8438284
116,улица Пятилетки,618426,59.3953987,56.8469286
126,улица Пятилетки,618426,59.3932186,56.8461396
126,улица Пятилетки,618426,59.3932613,56.8460178
132,улица Пятилетки,618426,59.3932138,56.8494302
42,улица Степанова,618419,59.3977136,56.8134622
44,улица Степанова,618419,59.3979865,56.8147912
11,Северная улица,618400,59.3799791,56.8776465
94,Юбилейная улица,618426,59.4024612,56.8488909
92,Юбилейная улица,618426,59.4033252,56.8469233
105,улица Мира,618425,59.4129708,56.8531839
27,улица Демьяна Бедного,618404,59.3983116,56.8001187
26А,улица Карла Маркса,618404,59.3982034,56.7989252
29,улица Демьяна Бедного,618404,59.3987818,56.8000039
48,Загородная улица,618400,59.4511299,56.8283467
31,Загородная улица,618421,59.4574618,56.8360600
44,Загородная улица,618400,59.4507141,56.8278885
33,Загородная улица,618421,59.4546826,56.8347205
50,Загородная улица,618400,59.4517111,56.8286749
33,Загородная улица,618421,59.4582025,56.8373177
33А,улица Степанова,618419,59.3980663,56.8089453
41,улица Степанова,618419,59.3975835,56.8116137
31А,улица Степанова,618419,59.3981770,56.8082458
1,Привокзальная улица,618400,59.4037690,56.7676148
19,Новосодовая улица,618400,59.4271502,56.7574855
27А,улица Пятилетки,618400,59.4077088,56.7991777
99,улица Мира,618425,59.4114293,56.8532376
128,улица Карла Маркса,618400,59.4257378,56.8182429
107,улица Мира,618425,59.4139054,56.8543277
107,улица Мира,618425,59.4137078,56.8532915
145/9,Березниковская улица,618400,59.4261629,56.7860957
103,улица Карла Маркса,618400,59.4226472,56.8133934
15/2,улица Уральских Танкистов,618400,59.4178970,56.8030997
48,Новосодовая улица,618400,59.4484027,56.7317095
27,Юбилейная улица,618417,59.4151390,56.8085379
202А,Березниковская улица,618400,59.4354264,56.8036111
3,Чуртанское шоссе,618400,59.4149781,56.7361878
1А,Привокзальная площадь,618400,59.4027828,56.7658055
1,улица Трапезникова,618404,59.3754046,56.7876086
26,улица Новаторов,618400,59.3757329,56.7795488
8,Железнодорожная улица,618404,59.3784400,56.7887497
7,Родниковая улица,618416,59.3478319,56.8534234
2,Таёжная улица,618416,59.3484344,56.8529189
1,Родниковая улица,618416,59.3483336,56.8520288
4,Родниковая улица,618416,59.3480017,56.8521165
3,Родниковая улица,618416,59.3481251,56.8526380
4,Лесная улица,618416,59.3470664,56.8517808
1,Лесная улица,618416,59.3476489,56.8511596
2,Лесная улица,618416,59.3472245,56.8512767
2,Родниковая улица,618416,59.3481340,56.8517246
5,Лесная улица,618416,59.3472324,56.8522922
40,улица Москалёва,618426,59.3914917,56.8544571
16а,улица Фрунзе,618400,59.4192307,56.7897091
21,Поселковый проезд,618404,59.3759632,56.7806918
15,Поселковый проезд,618404,59.3767820,56.7808987
16,Поселковый проезд,618404,59.3766711,56.7802674
19,Поселковый проезд,618404,59.3762204,56.7807625
14,Поселковый проезд,618404,59.3769369,56.7805161
17,Поселковый проезд,618404,59.3764882,56.7808237
18,Поселковый проезд,618404,59.3758587,56.7802530
3,проезд Сурикова,618404,59.3741340,56.7804062
6,проезд Сурикова,618404,59.3736514,56.7802451
4,проезд Сурикова,618404,59.3738599,56.7799808
13,улица Аллея Пионеров,618404,59.3744963,56.7805040
5,проезд Сурикова,618404,59.3738532,56.7807524
7,проезд Сурикова,618404,59.3736720,56.7810061
9,проезд Сурикова,618404,59.3734366,56.7813132
11,проезд Сурикова,618404,59.3732313,56.7815930
86,улица Аллея Пионеров,618404,59.3750551,56.7804081
13,улица Леонова,618460,59.4307972,56.6547485
15,улица Леонова,618460,59.4302117,56.6543671
1,Привокзальная улица,618404,59.4007452,56.7614781
15А,Заречная улица,618400,59.3744665,56.8633232
7,Заречная улица,618400,59.3753102,56.8647922
17,Заречная улица,618400,59.3753986,56.8655857
21,Заречная улица,618400,59.3748679,56.8646933
11,Заречная улица,618400,59.3750345,56.8643290
3,Заречная улица,618400,59.3755859,56.8652502
19,Заречная улица,618400,59.3751370,56.8651726
51,улица Свердлова,618422,59.4117335,56.8353778
25,улица Беляева,618460,59.4303910,56.6562736
14,улица Беляева,618460,59.4307295,56.6574960
23,улица Беляева,618460,59.4306490,56.6565236
30,улица Леонова,618460,59.4300673,56.6549596
24,улица Леонова,618460,59.4308708,56.6556691
27,улица Беляева,618460,59.4301282,56.6560234
11,улица Леонова,618460,59.4313332,56.6550710
22,улица Леонова,618460,59.4311202,56.6559318
21,улица Беляева,618460,59.4309025,56.6567723
28,улица Леонова,618460,59.4303346,56.6552001
29,улица Беляева,618460,59.4298528,56.6557794
26,улица Леонова,618460,59.4305902,56.6554446
24,Цветочная улица,618400,59.3755852,56.8743575
18,Уютная улица,618400,59.3776048,56.8751429
16,Уютная улица,618400,59.3776249,56.8752090
142,улица Пятилетки,618426,59.3926630,56.8522188
25,Пихтовая улица,618400,59.3727217,56.8074905
1А,Сильвинитная улица,618426,59.3450915,56.9137394
127А,Юбилейная улица,618425,59.4060308,56.8439405
21,Отрадная улица,618400,59.4889166,56.8471157
19,Отрадная улица,618400,59.4884817,56.8476459
16,Отрадная улица,618400,59.4891956,56.8476539
17,Отрадная улица,618400,59.4881991,56.8479851
15,Отрадная улица,618400,59.4880223,56.8482497
8,Отрадная улица,618400,59.4880013,56.8490769
13,Отрадная улица,618400,59.4877880,56.8485018
11,Отрадная улица,618400,59.4874570,56.8486204
7,Отрадная улица,618400,59.4870580,56.8492799
6,Отрадная улица,618400,59.4877019,56.8494443
128,улица Карла Маркса,618400,59.4261664,56.8204170
150,улица Свердлова,618425,59.4139960,56.8489321
31,Пригородный переулок,618426,59.3973985,56.8319743
14,Сиреневая улица,618417,59.3787172,56.8760556
27,Пригородный переулок,618426,59.3973014,56.8314613
25,Пригородный переулок,618426,59.3972476,56.8312242
94,улица Челюскинцев,618426,59.3976489,56.8317794
168А,улица Свердлова,618425,59.4145388,56.8571029
85,улица Мира,618425,59.4100184,56.8493509
17,улица Всеобуча,618400,59.4198062,56.8266426
4,улица Красина,618400,59.4195455,56.8215853
1В,Яйвинская улица,618400,59.3003399,56.7371264
33,Сухановская улица,618426,59.3842018,56.8566227
35,Сухановская улица,618426,59.3835402,56.8565064
100,Горная улица,618400,59.4832817,56.8683748
100А,Горная улица,618400,59.4834510,56.8689424
74,Горная улица,618400,59.4803918,56.8655859
76,Горная улица,618400,59.4799508,56.8649639
78,Горная улица,618400,59.4808215,56.8662574
78А,Горная улица,618400,59.4802021,56.8652786
86А,Горная улица,618400,59.4810680,56.8666868
90,Горная улица,618400,59.4819328,56.8674653
92,Горная улица,618400,59.4822155,56.8677284
94,Горная улица,618400,59.4824813,56.8679100
96,Горная улица,618400,59.4827901,56.8680073
98,Горная улица,618400,59.4830204,56.8682073
102,Горная улица,618400,59.4837569,56.8686020
104,Горная улица,618400,59.4840380,56.8687274
106,Горная улица,618400,59.4842907,56.8688213
108,Горная улица,618400,59.4844733,56.8688387
110,Горная улица,618400,59.4848389,56.8690261
111,Болотная улица,618400,59.4858134,56.8702306
112А,Горная улица,618400,59.4850686,56.8690414
114,Горная улица,618400,59.4856746,56.8690643
88,улица Дружбы,618400,59.4824452,56.8657034
90,улица Дружбы,618400,59.4826673,56.8659191
91,Горная улица,618400,59.4822062,56.8669025
91,улица Дружбы,618400,59.4824428,56.8652149
92,Профсоюзная улица,618400,59.4825806,56.8642977
92,улица Дружбы,618400,59.4828474,56.8661834
93,Горная улица,618400,59.4825469,56.8671662
93,улица Дружбы,618400,59.4827587,56.8654986
94,Профсоюзная улица,618400,59.4829066,56.8644862
94,улица Дружбы,618400,59.4831753,56.8661676
95,Горная улица,618400,59.4827960,56.8672520
95,улица Дружбы,618400,59.4830216,56.8655308
96,Профсоюзная улица,618400,59.4831502,56.8646095
96,улица Дружбы,618400,59.4834124,56.8664099
97,Горная улица,618400,59.4830697,56.8673884
97,улица Дружбы,618400,59.4833368,56.8657731
98,Профсоюзная улица,618400,59.4834858,56.8648199
99,Горная улица,618400,59.4833000,56.8676489
100,Профсоюзная улица,618400,59.4836860,56.8650946
101,улица Дружбы,618400,59.4839972,56.8661018
85,Профсоюзная улица,618400,59.4835030,56.8641106
99,улица Дружбы,618400,59.4837189,56.8660198
100,улица Дружбы,618400,59.4839073,56.8665284
101,Горная улица,618400,59.4835721,56.8677648
103,Горная улица,618400,59.4841758,56.8679143
105,Горная улица,618400,59.4845882,56.8680641
107,Горная улица,618400,59.4850142,56.8680904
109,Горная улица,618400,59.4854600,56.8681875
109,улица Дружбы,618400,59.4850403,56.8664566
110,улица Дружбы,618400,59.4854234,56.8670456
111,Горная улица,618400,59.4857433,56.8682397
113,Болотная улица,618400,59.4862223,56.8701246
115,Болотная улица,618400,59.4865992,56.8701204
116,Горная улица,618400,59.4861299,56.8690176
117,Болотная улица,618400,59.4869629,56.8701265
118,Горная улица,618400,59.4863452,56.8689996
119,Болотная улица,618400,59.4874219,56.8699216
12,Болотная улица,618400,59.4868508,56.8706185
120,Горная улица,618400,59.4866573,56.8690020
122,Горная улица,618400,59.4868438,56.8689358
126,Горная улица,618400,59.4872103,56.8688426
14,Болотная улица,618400,59.4872748,56.8704810
3А,Ключевой переулок,618400,59.4857052,56.8678734
98,улица Дружбы,618400,59.4836767,56.8664622
113,Горная улица,618400,59.4860676,56.8681297
115,Горная улица,618400,59.4865427,56.8681432
117,Горная улица,618400,59.4868218,56.8681459
119,Горная улица,618400,59.4872845,56.8675807
4,Ключевой переулок,618400,59.4860691,56.8672601
5,Карьерная улица,618426,59.4868849,56.8668357
6,Карьерная улица,618426,59.4872582,56.8670436
6,Ключевой переулок,618400,59.4859948,56.8665505
1,Ключевой переулок,618400,59.4856398,56.8665347
3,Ключевой переулок,618400,59.4857128,56.8658662
5,Ключевой переулок,618400,59.4855960,56.8654755
10,Карьерная улица,618426,59.4869189,56.8662947
15,Карьерная улица,618426,59.4868802,56.8637353
19,Карьерная улица,618426,59.4870837,56.8629396
21,Карьерная улица,618426,59.4872126,56.8624164
8,Карьерная улица,618426,59.4872976,56.8664967
9,Карьерная улица,618426,59.4865623,56.8661036
10,Почтовая улица,618400,59.4853923,56.8634963
11,Ключевой переулок,618400,59.4860234,56.8638633
12,Почтовая улица,618400,59.4855016,56.8629074
13,Ключевой переулок,618400,59.4861201,56.8633304
14,Почтовая улица,618400,59.4855926,56.8622170
15,Ключевой переулок,618400,59.4861982,56.8628685
17,Ключевой переулок,618400,59.4863272,56.8621451
4,Почтовая улица,618400,59.4853315,56.8654523
8,Почтовая улица,618400,59.4853130,56.8640991
9,Ключевой переулок,618400,59.4859675,56.8644188
16,Почтовая улица,618400,59.4857124,56.8617493
18,Почтовая улица,618400,59.4858562,56.8610834
19,Ключевой переулок,618400,59.4864156,56.8616550
20,Почтовая улица,618400,59.4859942,56.8604802
21,Ключевой переулок,618400,59.4865654,56.8608612
22,Почтовая улица,618400,59.4860594,56.8601091
23,Ключевой переулок,618400,59.4867330,56.8601232
24,Почтовая улица,618400,59.4861401,56.8596804
25,Ключевой переулок,618400,59.4867630,56.8596366
26,Почтовая улица,618400,59.4862271,56.8591093
27,Ключевой переулок,618400,59.4869546,56.8591641
29,Ключевой переулок,618400,59.4871135,56.8584271
10,Ключевой переулок,618400,59.4860691,56.8653169
12,Ключевой переулок,618400,59.4862019,56.8647723
14,Ключевой переулок,618400,59.4862854,56.8643339
16,Ключевой переулок,618400,59.4863578,56.8638432
18,Ключевой переулок,618400,59.4864927,56.8632038
20,Ключевой переулок,618400,59.4865792,56.8627524
22,Ключевой переулок,618400,59.4866637,56.8621521
24,Ключевой переулок,618400,59.4867817,56.8618022
8,Ключевой переулок,618400,59.4860248,56.8658896
11,Почтовая улица,618400,59.4853115,56.8627655
13,Почтовая улица,618400,59.4853038,56.8623192
15,Почтовая улица,618400,59.4853022,56.8616787
18,Сельская улица,618400,59.4852353,56.8595901
19,Почтовая улица,618400,59.4855530,56.8607292
20,Сельская улица,618400,59.4853167,56.8590872
21,Почтовая улица,618400,59.4857463,56.8599988
25,Почтовая улица,618400,59.4859387,56.8588915
26,Сельская улица,618400,59.4856424,56.8579601
27,Почтовая улица,618400,59.4860439,56.8585353
28,Сельская улица,618400,59.4857820,56.8573526
29,Почтовая улица,618400,59.4861402,56.8581560
7,Почтовая улица,618400,59.4851828,56.8638969
9,Почтовая улица,618400,59.4851693,56.8631970
2,Отрадная улица,618400,59.4880501,56.8515366
4,Отрадная улица,618400,59.4872534,56.8498708
6,Отрадная улица,618400,59.4887169,56.8518268
6А,Отрадная улица,618400,59.4883449,56.8513745
14,Отрадная улица,618400,59.4889592,56.8479737
5,Отрадная улица,618400,59.4868316,56.8495770
11,улица Геофизиков,618400,59.4905733,56.8638780
12,улица Геофизиков,618400,59.4910177,56.8637687
4,улица Геофизиков,618400,59.4902324,56.8648288
5,улица Геофизиков,618400,59.4906289,56.8655457
7,улица Геофизиков,618400,59.4910753,56.8657101
9,улица Геофизиков,618400,59.4898930,56.8636941
10,Реформаторская улица,618400,59.4849607,56.8908514
15,Реформаторская улица,618400,59.4854890,56.8901104
2,Реформаторская улица,618400,59.4847714,56.8886261
2А,Реформаторская улица,618400,59.4846397,56.8876832
4,Аграрная улица,618404,59.4843652,56.8883029
9,Реформаторская улица,618400,59.4856094,56.8914918
6,Реформаторская улица,618400,59.4847035,56.8894617
7,Реформаторская улица,618400,59.4852208,56.8905044
8,Реформаторская улица,618400,59.4848429,56.8902345
2,Ереминская улица,618400,59.4871540,56.8961426
10,Ереминская улица,618400,59.4875497,56.8987364
12,Ереминская улица,618400,59.4876905,56.8991110
14,Ереминская улица,618400,59.4877782,56.8996904
16,Ереминская улица,618400,59.4878600,56.9002566
18,Ереминская улица,618400,59.4878506,56.9009676
4,Ереминская улица,618400,59.4874060,56.8969702
8,Ереминская улица,618400,59.4874858,56.8978080
1,Ереминская улица,618400,59.4874482,56.8956047
1,Овражный переулок,618404,59.4881474,56.8955455
2А,Овражный переулок,618404,59.4883042,56.8948404
3,Ереминская улица,618400,59.4876263,56.8959938
3,Овражный переулок,618404,59.4882348,56.8968795
5,Ереминская улица,618400,59.4876229,56.8965047
7,Ереминская улица,618400,59.4877521,56.8971765
11,Ереминская улица,618400,59.4880479,56.8995905
13,Ереминская улица,618400,59.4881311,56.9000781
25,Ереминская улица,618400,59.4882845,56.8982290
15,Ереминская улица,618400,59.4882442,56.9008216
15А,Ереминская улица,618400,59.4888468,56.9000323
17,Ереминская улица,618400,59.4886139,56.8992092
2,Овражный переулок,618404,59.4883728,56.8954164
21,Ереминская улица,618400,59.4889539,56.8982503
29,Ереминская улица,618400,59.4885944,56.8966695
4,Овражный переулок,618404,59.4884883,56.8960725
6,Овражный переулок,618404,59.4889058,56.8961116
1,Путейская улица,618400,59.3468946,56.8502661
10,Родниковая улица,618416,59.3475019,56.8536620
10,Таёжная улица,618416,59.3479290,56.8542038
10А,Родниковая улица,618416,59.3473466,56.8531018
11,Лесная улица,618416,59.3466939,56.8538729
11,Путейская улица,618400,59.3460861,56.8523979
11,Родниковая улица,618416,59.3475229,56.8543028
12,Родниковая улица,618416,59.3472661,56.8543341
13,Путейская улица,618400,59.3459482,56.8527488
13А,Путейская улица,618400,59.3465424,56.8533804
1А,Путейская улица,618400,59.3472529,56.8494003
20,Родниковая улица,618416,59.3469971,56.8540419
3,Лесная улица,618416,59.3474581,56.8514466
3,Путейская улица,618400,59.3466973,56.8506046
5,Путейская улица,618400,59.3465064,56.8511006
5,Родниковая улица,618416,59.3480134,56.8530842
6,Лесная улица,618416,59.3469253,56.8521772
6,Родниковая улица,618416,59.3478618,56.8525300
6А,Родниковая улица,618416,59.3477686,56.8528470
7,Лесная улица,618416,59.3470849,56.8527008
7,Путейская улица,618400,59.3463813,56.8515333
7А,Лесная улица,618416,59.3469572,56.8530030
8,Лесная улица,618416,59.3467963,56.8526075
8,Родниковая улица,618416,59.3476629,56.8531651
9,Лесная улица,618416,59.3468515,56.8533272
9,Путейская улица,618400,59.3462357,56.8520253
9,Родниковая улица,618416,59.3477429,56.8538525
1,Центральная улица,618426,59.3564267,56.8860429
10,Центральная улица,618426,59.3545289,56.8895444
10Б,Центральная улица,618426,59.3545271,56.8901803
1А,Центральная улица,618426,59.3562096,56.8850791
2А,Центральная улица,618426,59.3581551,56.8862708
2Б,Центральная улица,618426,59.3570713,56.8863347
2В,Центральная улица,618426,59.3575742,56.8861467
2Д,Центральная улица,618426,59.3567701,56.8864675
4,Центральная улица,618426,59.3555028,56.8875540
4А,Центральная улица,618426,59.3557235,56.8872595
6,Центральная улица,618426,59.3552852,56.8879666
8,Центральная улица,618426,59.3547597,56.8887992
10А,Центральная улица,618426,59.3542965,56.8899358
12,Центральная улица,618426,59.3544709,56.8888794
14,Центральная улица,618426,59.3540310,56.8886573
14А,Центральная улица,618426,59.3539113,56.8901151
16,Центральная улица,618426,59.3538011,56.8885084
16А,Центральная улица,618426,59.3536248,56.8901290
18,Центральная улица,618426,59.3534444,56.8883637
22,Центральная улица,618426,59.3532212,56.8899167
24,Центральная улица,618426,59.3529993,56.8900874
26,Центральная улица,618426,59.3530799,56.8894837
28,Центральная улица,618426,59.3531873,56.8881736
30,Центральная улица,618426,59.3527555,56.8880953
32,Центральная улица,618426,59.3524467,56.8878152
34,Центральная улица,618426,59.3522914,56.8888656
36,Центральная улица,618426,59.3522453,56.8894476
38,Центральная улица,618426,59.3521954,56.8899407
40,Центральная улица,618426,59.3520518,56.8906880
11,Центральная улица,618426,59.3552669,56.8870710
11А,Центральная улица,618426,59.3550357,56.8859975
13,Центральная улица,618426,59.3549168,56.8877203
15,Центральная улица,618426,59.3544763,56.8883855
3,Центральная улица,618426,59.3560742,56.8862993
3А,Центральная улица,618426,59.3560255,56.8853392
40,Центральная улица,618426,59.3517973,56.8909342
40А,Центральная улица,618426,59.3518500,56.8903018
42,Центральная улица,618426,59.3519694,56.8896511
42А,Центральная улица,618426,59.3515004,56.8896684
44,Центральная улица,618426,59.3521172,56.8888212
44А,Центральная улица,618426,59.3518815,56.8889973
46,Центральная улица,618426,59.3522465,56.8876431
47,Центральная улица,618426,59.3511209,56.8890742
47А,Центральная улица,618426,59.3508693,56.8887654
48,Центральная улица,618426,59.3517796,56.8874523
49,Центральная улица,618426,59.3507331,56.8893429
5,Центральная улица,618426,59.3558284,56.8864655
50,Центральная улица,618426,59.3514248,56.8873676
51,Центральная улица,618426,59.3507347,56.8903977
7,Центральная улица,618426,59.3554871,56.8854951
9,Центральная улица,618426,59.3555240,56.8868447
17,Центральная улица,618426,59.3541609,56.8881450
21,Центральная улица,618426,59.3538774,56.8880670
27,Центральная улица,618426,59.3532245,56.8876810
29,Центральная улица,618426,59.3528270,56.8874493
31,Центральная улица,618426,59.3525070,56.8871734
35,Центральная улица,618426,59.3522413,56.8871033
37,Центральная улица,618426,59.3518714,56.8869393
39,Центральная улица,618426,59.3515740,56.8867926
43,Центральная улица,618426,59.3510289,56.8872511
1,Сплавной переулок,618416,59.3041085,56.7255764
13,Легинская улица,618400,59.3050114,56.7243640
15,Легинская улица,618400,59.3052136,56.7239001
17,Легинская улица,618400,59.3055964,56.7231326
19,Легинская улица,618400,59.3058732,56.7236479
22,Легинская улица,618400,59.3026124,56.7296053
24,Легинская улица,618400,59.3023970,56.7298937
28,Легинская улица,618400,59.3021806,56.7304137
3,Сплавной переулок,618416,59.3043890,56.7261014
30,Легинская улица,618400,59.3019834,56.7307962
32,Легинская улица,618400,59.3018445,56.7311933
34,Легинская улица,618400,59.3017464,56.7315688
36,Легинская улица,618400,59.3015549,56.7322287
4,Сплавной переулок,618416,59.3043301,56.7252316
52,Железнодорожная улица,618404,59.3742464,56.7919742
54,Железнодорожная улица,618404,59.3740074,56.7913376
16,Легинская улица,618400,59.3028302,56.7269859
18,Легинская улица,618400,59.3026589,56.7274360
2,Легинская улица,618400,59.3042313,56.7237468
25,Яйвинская улица,618400,59.3043627,56.7292583
27,Яйвинская улица,618400,59.3046124,56.7286316
29,Яйвинская улица,618400,59.3048401,56.7282017
31,Яйвинская улица,618400,59.3052459,56.7276234
7/1,Сплавной переулок,618400,59.3057869,56.7287398
8,Орлинский переулок,618400,59.3039124,56.7305994
11/1,Легинская улица,618400,59.3036579,56.7263652
11/2,Легинская улица,618400,59.3035617,56.7267138
30,Яйвинская улица,618400,59.3048063,56.7273694
19,Рейдовая улица,618400,59.3054008,56.7314389
27,Рейдовая улица,618400,59.3063174,56.7297411
29,Рейдовая улица,618400,59.3064645,56.7293505
30,Рейдовая улица,618400,59.3067302,56.7280954
31,Рейдовая улица,618400,59.3069162,56.7284198
32,Рейдовая улица,618400,59.3069186,56.7277402
33,Рейдовая улица,618400,59.3071226,56.7281588
34,Рейдовая улица,618400,59.3071018,56.7273334
35,Рейдовая улица,618400,59.3072565,56.7278381
37,Рейдовая улица,618400,59.3074103,56.7275176
38,Рейдовая улица,618400,59.3074272,56.7266332
40,Рейдовая улица,618400,59.3075219,56.7264056
1,Рейдовая улица,618400,59.3033415,56.7357480
10,Новая улица,618400,59.3047608,56.7359588
11,Рейдовая улица,618400,59.3040932,56.7341982
12,Новая улица,618400,59.3049003,56.7356829
13,Рейдовая улица,618400,59.3042201,56.7338458
19,Орлинский переулок,618400,59.3049944,56.7335462
2,Новая улица,618400,59.3041638,56.7372431
21,Орлинский переулок,618400,59.3051660,56.7338817
22,Орлинский переулок,618400,59.3053853,56.7333943
24,Орлинский переулок,618400,59.3055602,56.7337022
26,Орлинский переулок,618400,59.3057276,56.7339301
3,Рейдовая улица,618400,59.3034343,56.7354224
4,Новая улица,618400,59.3043050,56.7368075
5,Рейдовая улица,618400,59.3036302,56.7349708
6,Новая улица,618400,59.3044268,56.7365989
7,Рейдовая улица,618400,59.3036909,56.7348176
8,Новая улица,618400,59.3045898,56.7362435
9,Рейдовая улица,618400,59.3039246,56.7344442
1А,Яйвинская улица,618400,59.3012455,56.7359642
1Б,Яйвинская улица,618400,59.3013262,56.7355485
2,Яйвинская улица,618400,59.3011376,56.7347570
2А,Яйвинская улица,618400,59.3009443,56.7350354
4,Яйвинская улица,618400,59.3012775,56.7344328
6,Яйвинская улица,618400,59.3014378,56.7341208
5,Берёзовый переулок,618400,59.3020096,56.7340878
11,Берёзовый переулок,618400,59.3030550,56.7358778
13,Берёзовый переулок,618400,59.3033379,56.7364719
15,Берёзовый переулок,618400,59.3034900,56.7367052
17,Берёзовый переулок,618400,59.3035530,56.7370982
19,Берёзовый переулок,618400,59.3037436,56.7373093
21,Берёзовый переулок,618400,59.3039130,56.7375748
7,Берёзовый переулок,618400,59.3025277,56.7349126
9,Берёзовый переулок,618400,59.3027889,56.7353953
10,Яйвинская улица,618400,59.3024279,56.7322235
12,Яйвинская улица,618400,59.3025610,56.7319303
14,Яйвинская улица,618400,59.3027589,56.7315411
16,Яйвинская улица,618400,59.3029486,56.7311961
8,Яйвинская улица,618400,59.3019083,56.7328385
13,Орлинский переулок,618400,59.3041286,56.7326419
19,Яйвинская улица,618400,59.3031480,56.7315601
10,Легинская улица,618400,59.3034095,56.7258776
12,Легинская улица,618400,59.3032244,56.7262119
14,Легинская улица,618400,59.3030985,56.7264477
6,Легинская улица,618400,59.3038224,56.7248113
8,Легинская улица,618400,59.3035960,56.7254571
32,Яйвинская улица,618400,59.3053775,56.7263119
34,Яйвинская улица,618400,59.3055723,56.7259196
36,Яйвинская улица,618400,59.3057692,56.7255082
38,Яйвинская улица,618400,59.3058780,56.7251342
40,Яйвинская улица,618400,59.3060594,56.7249204
42,Яйвинская улица,618400,59.3062772,56.7245299
6/1,Сплавной переулок,618400,59.3051727,56.7267086
33,Яйвинская улица,618400,59.3053517,56.7271717
35,Яйвинская улица,618400,59.3055606,56.7267625
37,Яйвинская улица,618400,59.3058182,56.7262027
39,Яйвинская улица,618400,59.3060053,56.7259705
41,Яйвинская улица,618400,59.3061281,56.7255870
43,Яйвинская улица,618400,59.3063126,56.7252442
45,Яйвинская улица,618400,59.3064896,56.7249121
47,Яйвинская улица,618400,59.3067122,56.7244494
49,Яйвинская улица,618400,59.3069924,56.7238991
10,улица Ершова,618400,59.3818784,56.7914641
11,Зырянская улица,618404,59.3810175,56.7910540
11,улица Ершова,618400,59.3818919,56.7923528
11А,Зырянская улица,618404,59.3811932,56.7914100
12,улица Ершова,618400,59.3815484,56.7921342
12А,улица Ершова,618400,59.3813313,56.7917571
13,улица Шолохова,618404,59.3801500,56.7894048
14,Зырянская улица,618404,59.3806792,56.7904482
14А,Зырянская улица,618404,59.3804782,56.7900372
15,улица Шолохова,618404,59.3798880,56.7899470
16,Зырянская улица,618404,59.3805366,56.7911734
3,улица Ершова,618400,59.3826260,56.7909210
5,улица Ершова,618400,59.3824708,56.7911295
7,улица Ершова,618400,59.3822637,56.7915087
8,улица Ершова,618400,59.3821463,56.7908570
9,улица Ершова,618400,59.3821037,56.7918894
1,Зырянская улица,618404,59.3824724,56.7888043
3,Зырянская улица,618404,59.3821492,56.7885695
5,Зырянская улица,618404,59.3817479,56.7893201
7,Зырянская улица,618404,59.3815299,56.7897765
9,Зырянская улица,618404,59.3814093,56.7901035
1,Железнодорожная улица,618404,59.3809077,56.7845040
1,улица Шолохова,618404,59.3816765,56.7861736
2,Зырянская улица,618404,59.3822821,56.7871351
2,улица Шолохова,618404,59.3814368,56.7857134
10,Зырянская улица,618404,59.3811898,56.7893455
11,улица Шолохова,618404,59.3803681,56.7887781
11А,улица Шолохова,618404,59.3805894,56.7892337
11Б,улица Шолохова,618404,59.3805301,56.7884751
12,Зырянская улица,618404,59.3809800,56.7899611
12А,Зырянская улица,618404,59.3807085,56.7894423
12Б,Зырянская улица,618404,59.3810876,56.7896511
3,улица Шолохова,618404,59.3813544,56.7866951
4,Зырянская улица,618404,59.3819985,56.7876423
4А,Зырянская улица,618404,59.3817724,56.7870467
5,улица Шолохова,618404,59.3811157,56.7873137
6,Зырянская улица,618404,59.3818028,56.7880483
6А,Зырянская улица,618404,59.3816370,56.7883042
7,улица Шолохова,618404,59.3808770,56.7876989
8,Зырянская улица,618404,59.3815305,56.7886754
9,улица Шолохова,618404,59.3806247,56.7882482
10,улица Шолохова,618404,59.3804505,56.7878271
11,Железнодорожная улица,618404,59.3799729,56.7866238
12,улица Шолохова,618404,59.3801581,56.7885096
12А,улица Шолохова,618404,59.3803356,56.7881378
13,Железнодорожная улица,618404,59.3797881,56.7868613
15,Железнодорожная улица,618404,59.3796908,56.7872249
17,Железнодорожная улица,618404,59.3798144,56.7878600
3,Железнодорожная улица,618404,59.3806775,56.7848937
4,улица Шолохова,618404,59.3811843,56.7862989
5,Железнодорожная улица,618404,59.3803472,56.7856681
6,улица Шолохова,618404,59.3809854,56.7867145
7,Железнодорожная улица,618404,59.3801705,56.7861137
8,улица Шолохова,618404,59.3808090,56.7870607
9,Железнодорожная улица,618404,59.3800923,56.7863380
1,Сухановская улица,618426,59.3894869,56.8583138
11,Сухановская улица,618426,59.3881351,56.8575083
13,Сухановская улица,618426,59.3878709,56.8573619
19,Уютная улица,618400,59.3772628,56.8743276
20,Уютная улица,618400,59.3776342,56.8743034
27,Сухановская улица,618426,59.3857957,56.8568369
29,Сухановская улица,618426,59.3854816,56.8568136
3,Сухановская улица,618426,59.3891974,56.8581787
31,Сухановская улица,618426,59.3852055,56.8568303
5,Сухановская улица,618426,59.3889308,56.8581094
7,Сухановская улица,618426,59.3886601,56.8578213
10,Берёзовая улица,618426,59.3760660,56.8821083
15,Берёзовая улица,618426,59.3761517,56.8814062
15,Лучистая улица,618400,59.3764372,56.8827187
15,Ромашковая улица,618426,59.3764058,56.8789557
17,Берёзовая улица,618426,59.3764348,56.8813774
17,Ромашковая улица,618426,59.3761389,56.8788922
23,Заречная улица,618400,59.3746374,56.8642980
5,Берёзовая улица,618426,59.3749605,56.8813971
6,Счастливая улица,618426,59.3758856,56.8798075
7,Берёзовая улица,618426,59.3752128,56.8814031
8,Берёзовая улица,618426,59.3756495,56.8821203
1,Заречная улица,618400,59.3761022,56.8640501
12,Заречная улица,618400,59.3749969,56.8621308
13,Заречная улица,618400,59.3753014,56.8626509
15,Заречная улица,618400,59.3746938,56.8637043
2,Заречная улица,618400,59.3763143,56.8634433
5,Заречная улица,618400,59.3758207,56.8635803
9,Заречная улица,618400,59.3755566,56.8631395
47,Сухановская улица,618426,59.3763433,56.8648275
51,Сухановская улица,618426,59.3759240,56.8658037
53,Сухановская улица,618426,59.3757374,56.8662106
55,Сухановская улица,618426,59.3756207,56.8665457
1,улица Мазунина,618426,59.3766904,56.8627870
7,улица Мазунина,618426,59.3761510,56.8616804
12,улица Мазунина,618426,59.3754024,56.8602783
5,Урожайная улица,618400,59.3761062,56.8596349
7,Урожайная улица,618400,59.3758218,56.8592772
8,улица Мазунина,618426,59.3757758,56.8603586
2,Урожайная улица,618400,59.3768498,56.8602056
4,Сухановская улица,618426,59.3792350,56.8578421
4,Урожайная улица,618400,59.3765421,56.8596342
5,Мельничный переулок,618426,59.3767904,56.8590634
6,Урожайная улица,618400,59.3762712,56.8591799
8,Мельничный переулок,618426,59.3763301,56.8581143
8,Урожайная улица,618400,59.3760629,56.8588424
37,Сухановская улица,618426,59.3772861,56.8615724
39,Сухановская улица,618426,59.3770517,56.8626444
39А,Сухановская улица,618426,59.3770263,56.8631176
1,Урожайная улица,618400,59.3767367,56.8606801
2,улица Мазунина,618426,59.3766507,56.8619928
3,Урожайная улица,618400,59.3763165,56.8601031
4,улица Мазунина,618426,59.3763646,56.8614782
41,Сухановская улица,618426,59.3768652,56.8634713
43,Сухановская улица,618426,59.3768337,56.8637418
45,Сухановская улица,618426,59.3765869,56.8640250
6,улица Мазунина,618426,59.3760520,56.8607356
1,улица Новожилова,618426,59.3864948,56.8696379
11,улица Новожилова,618426,59.3870146,56.8707157
13,улица Новожилова,618426,59.3874521,56.8697916
15,улица Новожилова,618426,59.3871844,56.8710474
15Б,улица Новожилова,618426,59.3879755,56.8695646
3,улица Новожилова,618426,59.3866423,56.8700102
5,улица Новожилова,618426,59.3869963,56.8693783
6А,улица Новожилова,618426,59.3861361,56.8714662
7,улица Новожилова,618426,59.3868717,56.8703676
12,улица Новожилова,618426,59.3869927,56.8713621
127,улица Новожилова,618426,59.3878025,56.8721562
19,улица Новожилова,618426,59.3879068,56.8724280
23,улица Новожилова,618426,59.3883252,56.8732286
25,улица Новожилова,618426,59.3885779,56.8737117
27,улица Новожилова,618426,59.3886467,56.8738001
29,улица Новожилова,618426,59.3887786,56.8741382
31,улица Новожилова,618426,59.3892099,56.8742462
33,улица Новожилова,618426,59.3892914,56.8751344
35,улица Новожилова,618426,59.3897968,56.8752365
37,улица Новожилова,618426,59.3900618,56.8752121
8,улица Новожилова,618426,59.3868668,56.8710474
1,улица Москалёва,618426,59.3877198,56.8500936
11,улица Москалёва,618426,59.3896705,56.8518169
15,улица Москалёва,618426,59.3899785,56.8521796
2,улица Москалёва,618426,59.3878552,56.8507572
26,улица Москалёва,618426,59.3899279,56.8529037
28,улица Москалёва,618426,59.3901246,56.8531035
3,улица Москалёва,618426,59.3884519,56.8505930
30,улица Москалёва,618426,59.3901975,56.8531873
4,улица Москалёва,618426,59.3879936,56.8509028
5,улица Москалёва,618426,59.3886552,56.8507967
7,улица Москалёва,618426,59.3888927,56.8511644
10,улица Москалёва,618426,59.3885174,56.8515023
12,улица Москалёва,618426,59.3887236,56.8515985
14,улица Москалёва,618426,59.3888558,56.8518393
18,улица Москалёва,618426,59.3890691,56.8519354
20,улица Москалёва,618426,59.3892704,56.8521812
22,улица Москалёва,618426,59.3895404,56.8524820
24,улица Москалёва,618426,59.3897477,56.8527009
10,Баскаковская улица,618426,59.3695774,56.8753224
12,Баскаковская улица,618426,59.3693701,56.8758516
14,Баскаковская улица,618426,59.3692084,56.8763491
16,Баскаковская улица,618426,59.3690204,56.8766041
2,Баскаковская улица,618426,59.3707266,56.8728733
2А,Баскаковская улица,618426,59.3705408,56.8731325
2Б,Баскаковская улица,618426,59.3703354,56.8735157
4,Баскаковская улица,618426,59.3701527,56.8738764
6,Баскаковская улица,618426,59.3699594,56.8742660
8,Баскаковская улица,618426,59.3697159,56.8749726
1,Баскаковская улица,618426,59.3704826,56.8740624
13,Баскаковская улица,618426,59.3691927,56.8770924
17,Баскаковская улица,618426,59.3689101,56.8778009
3А,Баскаковская улица,618426,59.3698981,56.8754828
11,улица Мичурина,618400,59.4396219,56.9008665
5,улица Мичурина,618400,59.4392774,56.8982963
7,улица Мичурина,618400,59.4394234,56.8994986
8,Луговой переулок,618416,59.4397585,56.8984808
9,улица Мичурина,618400,59.4394688,56.8999281
1,улица Мичурина,618400,59.4394851,56.8967124
3,улица Мичурина,618400,59.4393186,56.8978515
9,Луговой переулок,618416,59.4398346,56.8981921
15,Запольская улица,618416,59.4386482,56.9003977
1,Запольская улица,618416,59.4381621,56.8956721
1,Луговой переулок,618416,59.4386514,56.8967511
10,Запольская улица,618416,59.4379043,56.8973721
10,улица Мичурина,618400,59.4391872,56.8993927
12,Запольская улица,618416,59.4379736,56.8986783
12,улица Мичурина,618400,59.4392606,56.8999967
14,Запольская улица,618416,59.4380203,56.8991104
14,улица Мичурина,618400,59.4393314,56.9004903
16,Запольская улица,618416,59.4381814,56.8996399
2,Запольская улица,618416,59.4378908,56.8945469
3,Запольская улица,618416,59.4382380,56.8968024
4,Запольская улица,618416,59.4378773,56.8953161
6,Запольская улица,618416,59.4378778,56.8959933
6,улица Мичурина,618400,59.4389685,56.8982139
8,улица Мичурина,618400,59.4390476,56.8989301
9,Запольская улица,618416,59.4381770,56.8977417
29,улица 9 Мая,618416,59.4377779,56.8718138
31,улица 9 Мая,618416,59.4382104,56.8722968
37,улица 9 Мая,618416,59.4385394,56.8718253
21,улица 9 Мая,618416,59.4367479,56.8712594
23,улица 9 Мая,618416,59.4369782,56.8714308
25,улица 9 Мая,618416,59.4373787,56.8714962
27,улица 9 Мая,618416,59.4374988,56.8716162
13,Крымская улица,618416,59.4349945,56.8709494
13А,Крымская улица,618416,59.4348313,56.8709212
15,Крымская улица,618416,59.4346835,56.8720235
28,Пермяковская улица,618400,59.4373297,56.8694292
16,улица 9 Мая,618416,59.4348498,56.8703254
18,улица 9 Мая,618416,59.4353273,56.8703565
19,Пермяковская улица,618400,59.4356849,56.8692594
20,улица 9 Мая,618416,59.4356429,56.8703877
21,Пермяковская улица,618400,59.4359693,56.8692209
22,улица 9 Мая,618416,59.4361208,56.8705191
24,улица 9 Мая,618416,59.4364463,56.8706121
25,Пермяковская улица,618400,59.4376323,56.8699043
26,улица 9 Мая,618416,59.4367234,56.8706536
28,улица 9 Мая,618416,59.4370400,56.8707618
32,улица 9 Мая,618416,59.4375433,56.8710682
34,улица 9 Мая,618416,59.4378182,56.8711368
9,Крымская улица,618416,59.4349292,56.8694851
1,Крымская улица,618416,59.4351621,56.8660498
10,Ольховская улица,618416,59.4346137,56.8651385
15,Ольховская улица,618416,59.4357699,56.8658609
19,Донская улица,618416,59.4354977,56.8673989
20,Пермяковская улица,618400,59.4354119,56.8687898
21,Донская улица,618416,59.4357320,56.8674735
22,Пермяковская улица,618400,59.4357349,56.8688111
3,Крымская улица,618416,59.4351218,56.8669075
5,Крымская улица,618416,59.4350637,56.8674570
7,Крымская улица,618416,59.4349863,56.8689280
4,улица Пирогова,618416,59.4343377,56.8642034
5,Ярославская улица,618416,59.4337232,56.8643653
6,улица Пирогова,618416,59.4343348,56.8650418
7,Ярославская улица,618416,59.4337296,56.8651519
1А,Ярославская улица,618416,59.4338384,56.8617020
10,Факультетская улица,618416,59.4344111,56.8634668
1А,Ярославская улица,618416,59.4338739,56.8609766
1,Ярославская улица,618416,59.4338049,56.8630202
2,Курганский переулок,618400,59.4331620,56.8619411
2А,Курганский переулок,618400,59.4329614,56.8619266
4,Курганский переулок,618400,59.4334749,56.8620315
1,Курганский переулок,618400,59.4331618,56.8627134
1А,Курганский переулок,618400,59.4328041,56.8625526
2,Факультетская улица,618416,59.4326612,56.8633569
4,Факультетская улица,618416,59.4330936,56.8634476
6,Факультетская улица,618416,59.4334645,56.8635392
6,Ярославская улица,618416,59.4335164,56.8629446
1,Факультетская улица,618416,59.4327271,56.8641187
10,Ярославская улица,618416,59.4334395,56.8643614
12,Ярославская улица,618416,59.4333927,56.8650455
2,Ольховская улица,618416,59.4331176,56.8650825
2А,Ольховская улица,618416,59.4327104,56.8648431
14,Ярославская улица,618416,59.4334065,56.8656726
8,Донская улица,618416,59.4332910,56.8664957
1А,Ольховская улица,618416,59.4325032,56.8653804
2,Донская улица,618416,59.4323754,56.8662456
4,Донская улица,618416,59.4326411,56.8664131
6,Донская улица,618416,59.4329659,56.8664787
1,Донская улица,618416,59.4319051,56.8666820
3,Донская улица,618416,59.4323486,56.8668535
3А,Донская улица,618416,59.4326498,56.8668218
4,Пермяковская улица,618400,59.4322983,56.8678289
5,Донская улица,618416,59.4329808,56.8670438
6,Пермяковская улица,618400,59.4326474,56.8679015
6А,Пермяковская улица,618400,59.4329026,56.8679782
6А,Пермяковская улица,618400,59.4318729,56.8678678
7,Донская улица,618416,59.4332872,56.8669924
8,Пермяковская улица,618400,59.4331373,56.8679854
1,Пермяковская улица,618400,59.4321365,56.8684121
1А,Пермяковская улица,618400,59.4321451,56.8689840
24,Ярославская улица,618416,59.4331015,56.8696867
3,Пермяковская улица,618400,59.4324725,56.8684618
5,Пермяковская улица,618400,59.4328271,56.8684398
7,Пермяковская улица,618400,59.4331198,56.8685277
1,улица 9 Мая,618416,59.4327531,56.8701767
26,Ярославская улица,618416,59.4330260,56.8709744
3,улица 9 Мая,618416,59.4330450,56.8702401
22,улица Пирогова,618416,59.4336668,56.8713580
23,Ярославская улица,618416,59.4332790,56.8709407
24,улица Пирогова,618416,59.4335567,56.8721305
25,Ярославская улица,618416,59.4331872,56.8717500
5,улица 9 Мая,618416,59.4334630,56.8702289
7,улица 9 Мая,618416,59.4337508,56.8703813
11,улица 9 Мая,618416,59.4345290,56.8707342
16,Крымская улица,618416,59.4344881,56.8714679
17,улица Пирогова,618416,59.4339050,56.8715411
18,Крымская улица,618416,59.4343741,56.8721989
19,улица Пирогова,618416,59.4338490,56.8722252
20,Крымская улица,618416,59.4339576,56.8727913
9,улица 9 Мая,618416,59.4340360,56.8705455
16,улица Пирогова,618416,59.4338805,56.8690805
19,Ярославская улица,618416,59.4333951,56.8697224
9,Пермяковская улица,618400,59.4334463,56.8686277
11,улица Пирогова,618416,59.4342197,56.8690528
13,улица Пирогова,618416,59.4341028,56.8699721
14,улица 9 Мая,618416,59.4345404,56.8702174
15,Пермяковская улица,618400,59.4346462,56.8692817
14,Пермяковская улица,618400,59.4342757,56.8685212
16,Пермяковская улица,618400,59.4346683,56.8684166
6,Крымская улица,618416,59.4348427,56.8673958
7,улица Пирогова,618416,59.4343626,56.8675234
11,Ольховская улица,618416,59.4349720,56.8656752
14,Донская улица,618416,59.4343629,56.8667370
16,Донская улица,618416,59.4348737,56.8667905
9,Ольховская улица,618416,59.4345261,56.8655933
10,Донская улица,618416,59.4335926,56.8666259
8,улица Пирогова,618416,59.4342496,56.8656574
9,Ярославская улица,618416,59.4336518,56.8659454
10,Пермяковская улица,618400,59.4335600,56.8680987
11,Донская улица,618416,59.4341055,56.8671737
12,Пермяковская улица,618400,59.4338314,56.8678082
13,Ярославская улица,618416,59.4335051,56.8673330
13,Загородная улица,618426,59.4549302,56.8343119
31,улица Степанова,618419,59.3982064,56.8080707
33,улица Степанова,618419,59.3981026,56.8087291
17,улица Леонова,618460,59.4296933,56.6542766
20,улица Беляева,618460,59.4294362,56.6554747
24,улица Беляева,618460,59.4291583,56.6549962
9,улица Ивана Дощеникова,618409,59.4281680,56.6514509
7,улица Ивана Дощеникова,618409,59.4271760,56.6499191
8,улица Строителей,618409,59.4274853,56.6481011
21,улица Леонова,618460,59.4290634,56.6540862
22,улица Беляева,618460,59.4289291,56.6559932
26,улица Беляева,618460,59.4288117,56.6552259
18,улица Беляева,618460,59.4297060,56.6565335
16,улица Беляева,618460,59.4302513,56.6570330
6,улица Красина,618400,59.4194196,56.8217693
8,улица Красина,618400,59.4192541,56.8219644
10,улица Красина,618400,59.4191135,56.8221310
12,улица Красина,618400,59.4188715,56.8224156
13,улица Коммуны,618400,59.4190018,56.8227409
77,улица Льва Толстого,618400,59.4190424,56.8197292
75,улица Льва Толстого,618400,59.4188716,56.8196228
73,улица Льва Толстого,618400,59.4187082,56.8195008
71,улица Льва Толстого,618400,59.4185303,56.8194235
69,улица Льва Толстого,618400,59.4183254,56.8192813
67,улица Льва Толстого,618400,59.4181373,56.8192121
65,улица Льва Толстого,618400,59.4179676,56.8190577
63,улица Льва Толстого,618400,59.4177938,56.8189601
61,улица Льва Толстого,618400,59.4175601,56.8187975
59,улица Льва Толстого,618400,59.4172417,56.8185290
57,улица Льва Толстого,618400,59.4168942,56.8183095
55,улица Льва Толстого,618400,59.4166790,56.8181836
53,улица Льва Толстого,618400,59.4164887,56.8180168
51,улица Льва Толстого,618400,59.4162281,56.8178908
49,улица Льва Толстого,618400,59.4159488,56.8177364
47,улица Льва Толстого,618400,59.4158020,56.8176388
43,улица Льва Толстого,618400,59.4154317,56.8174193
41,улица Льва Толстого,618400,59.4151421,56.8172160
45,улица Льва Толстого,618400,59.4156406,56.8175411
12,улица Станиславского,618400,59.4151993,56.8165008
14,улица Станиславского,618400,59.4154657,56.8166919
16,улица Станиславского,618400,59.4157354,56.8168706
18,улица Станиславского,618400,59.4160396,56.8170554
20,улица Станиславского,618400,59.4162841,56.8172403
22,улица Станиславского,618400,59.4165443,56.8174190
24,улица Станиславского,618400,59.4168203,56.8175239
28,улица Станиславского,618400,59.4173375,56.8178566
26,улица Станиславского,618400,59.4171056,56.8176902
30,улица Станиславского,618400,59.4177795,56.8181400
32,улица Станиславского,618400,59.4180303,56.8183064
34,улица Станиславского,618400,59.4183439,56.8185098
38,улица Станиславского,618400,59.4189270,56.8188856
40,улица Станиславского,618400,59.4191558,56.8190211
36,улица Станиславского,618400,59.4186167,56.8186762
39,улица Станиславского,618400,59.4192719,56.8183188
37,улица Станиславского,618400,59.4190086,56.8181646
35,улица Станиславского,618400,59.4187421,56.8179921
33,улица Станиславского,618400,59.4184161,56.8177888
31,улица Станиславского,618400,59.4180868,56.8176163
29,улица Станиславского,618400,59.4178047,56.8174561
29,улица Станиславского,618400,59.4174692,56.8172033
27,улица Станиславского,618400,59.4172183,56.8170494
25,улица Станиславского,618400,59.4169206,56.8168953
23,улица Станиславского,618400,59.4166604,56.8167105
21,улица Станиславского,618400,59.4163624,56.8165501
19,улица Станиславского,618400,59.4161744,56.8164455
17,улица Станиславского,618400,59.4160081,56.8163283
15,улица Станиславского,618400,59.4158451,56.8162112
13,улица Станиславского,618400,59.4156225,56.8160203
11,улица Станиславского,618400,59.4153278,56.8158354
12,Гражданская улица,618400,59.4154063,56.8151453
14,Гражданская улица,618400,59.4157393,56.8153536
16,Гражданская улица,618400,59.4159739,56.8154984
18,Гражданская улица,618400,59.4161569,56.8155896
18А,Гражданская улица,618400,59.4163288,56.8157184
20,Гражданская улица,618400,59.4164816,56.8158203
20А,Гражданская улица,618400,59.4166508,56.8159222
22,Гражданская улица,618400,59.4168119,56.8160027
24,Гражданская улица,618400,59.4170656,56.8162174
26,Гражданская улица,618400,59.4173222,56.8163354
28,Гражданская улица,618400,59.4175434,56.8165231
30,Гражданская улица,618400,59.4179336,56.8167645
32,Гражданская улица,618400,59.4182993,56.8169738
36,Гражданская улица,618400,59.4188316,56.8173331
38,Гражданская улица,618400,59.4191045,56.8174834
40,Гражданская улица,618400,59.4193829,56.8176926
34,Гражданская улица,618400,59.4185859,56.8171937
27,Гражданская улица,618400,59.4176716,56.8158579
25,Гражданская улица,618400,59.4174014,56.8156862
23,Гражданская улица,618400,59.4171284,56.8154878
21,Гражданская улица,618400,59.4168638,56.8153482
19,Гражданская улица,618400,59.4166072,56.8152250
11,Гражданская улица,618400,59.4155181,56.8144525
13,Гражданская улица,618400,59.4158130,56.8146830
15,Гражданская улица,618400,59.4160914,56.8148654
17,Гражданская улица,618400,59.4163506,56.8150371
39,Гражданская улица,618400,59.4195139,56.8170918
37,Гражданская улица,618400,59.4191999,56.8169201
35,Гражданская улица,618400,59.4189107,56.8167162
33,Гражданская улица,618400,59.4186624,56.8165391
31,Гражданская улица,618400,59.4183812,56.8163299
29,Гражданская улица,618400,59.4179991,56.8160886
40,улица Хользунова,618400,59.4196148,56.8163567
38,улица Хользунова,618400,59.4192491,56.8161368
34,улица Хользунова,618400,59.4187933,56.8158739
32,улица Хользунова,618400,59.4184986,56.8156166
30,улица Хользунова,618400,59.4181847,56.8154234
36,улица Хользунова,618400,59.4190417,56.8159974
28,улица Хользунова,618400,59.4178026,56.8151551
26,улица Хользунова,618400,59.4175461,56.8149995
24,улица Хользунова,618400,59.4172922,56.8148226
22,улица Хользунова,618400,59.4170111,56.8146402
20,улица Хользунова,618400,59.4167409,56.8144738
18,улица Хользунова,618400,59.4164734,56.8142594
16,улица Хользунова,618400,59.4162223,56.8141092
14,улица Хользунова,618400,59.4159357,56.8139429
12,улица Хользунова,618400,59.4156873,56.8137444
9,Гражданская улица,618400,59.4151646,56.8142257
10,улица Хользунова,618400,59.4152806,56.8135110
8,улица Хользунова,618400,59.4150298,56.8133754
6,улица Хользунова,618400,59.4147884,56.8132213
4,улица Хользунова,618400,59.4145125,56.8130242
2,улица Хользунова,618400,59.4142742,56.8129133
1,улица Хользунова,618400,59.4143996,56.8122046
3,улица Хользунова,618400,59.4146348,56.8124080
5,улица Хользунова,618400,59.4149201,56.8126175
7,улица Хользунова,618400,59.4151490,56.8127839
9,улица Хользунова,618400,59.4154217,56.8129440
11,улица Хользунова,618400,59.4157635,56.8131659
13,улица Хользунова,618400,59.4160457,56.8133630
15,улица Хользунова,618400,59.4163310,56.8135295
17,улица Хользунова,618400,59.4165379,56.8136404
19,улица Хользунова,618400,59.4168263,56.8137760
21,улица Хользунова,618400,59.4171242,56.8140101
23,улица Хользунова,618400,59.4173875,56.8142072
25,улица Хользунова,618400,59.4175976,56.8143798
27,улица Хользунова,618400,59.4179048,56.8145461
29,улица Хользунова,618400,59.4182654,56.8147989
31,улица Хользунова,618400,59.4185883,56.8150021
33,улица Хользунова,618400,59.4188642,56.8151685
35,улица Хользунова,618400,59.4191400,56.8153657
37,улица Хользунова,618400,59.4194316,56.8155630
39,улица Хользунова,618400,59.4197231,56.8157231
2,улица Полины Осипенко,618400,59.4144895,56.8116936
4,улица Полины Осипенко,618400,59.4147570,56.8118063
6,улица Полины Осипенко,618400,59.4150245,56.8119833
8,улица Полины Осипенко,618400,59.4152592,56.8121603
10,улица Полины Осипенко,618400,59.4155322,56.8123267
12,улица Полины Осипенко,618400,59.4158406,56.8125412
14,улица Полины Осипенко,618400,59.4161654,56.8127183
16,улица Полины Осипенко,618400,59.4164274,56.8128845
18,улица Полины Осипенко,618400,59.4166867,56.8130187
20,улица Полины Осипенко,618400,59.4169187,56.8131688
22,улица Полины Осипенко,618400,59.4172053,56.8133782
24,улица Полины Осипенко,618400,59.4174973,56.8135444
26,улица Полины Осипенко,618400,59.4177593,56.8137428
28,улица Полины Осипенко,618400,59.4179913,56.8139092
30,улица Полины Осипенко,618400,59.4184062,56.8141452
32,улица Полины Осипенко,618400,59.4187309,56.8143544
34,улица Полины Осипенко,618400,59.4190093,56.8145798
36,улица Полины Осипенко,618400,59.4192877,56.8147192
38,улица Полины Осипенко,618400,59.4195415,56.8148640
40,улица Полины Осипенко,618400,59.4198308,56.8151000
1,улица Полины Осипенко,618400,59.4145659,56.8111734
3,улица Полины Осипенко,618400,59.4148416,56.8113449
5,улица Полины Осипенко,618400,59.4150845,56.8114470
7,улица Полины Осипенко,618400,59.4153275,56.8115918
9,улица Полины Осипенко,618400,59.4156031,56.8117474
11,улица Полины Осипенко,618400,59.4159580,56.8119459
13,улица Полины Осипенко,618400,59.4162227,56.8121603
15,улица Полины Осипенко,618400,59.4165120,56.8123267
17,улица Полины Осипенко,618400,59.4167495,56.8124715
19,улица Полины Осипенко,618400,59.4170033,56.8126485
21,улица Полины Осипенко,618400,59.4172762,56.8127933
23,улица Полины Осипенко,618400,59.4175874,56.8130240
25,улица Полины Осипенко,618400,59.4178330,56.8131796
27,улица Полины Осипенко,618400,59.4181196,56.8133567
29,улица Полины Осипенко,618400,59.4184553,56.8135873
31,улица Полины Осипенко,618400,59.4188019,56.8137643
33,улица Полины Осипенко,618400,59.4191212,56.8139843
35,улица Полины Осипенко,618400,59.4193941,56.8141667
37,улица Полины Осипенко,618400,59.4196479,56.8143383
39,улица Полины Осипенко,618400,59.4199099,56.8145315
106,улица Карла Маркса,618400,59.4184280,56.8115167
104,улица Карла Маркса,618400,59.4181605,56.8113343
102,улица Карла Маркса,618400,59.4178821,56.8111519
100,улица Карла Маркса,618400,59.4176010,56.8110071
98,улица Карла Маркса,618400,59.4173254,56.8108031
96,улица Карла Маркса,618400,59.4170688,56.8106530
94,улица Карла Маркса,618400,59.4167931,56.8104921
92,улица Карла Маркса,618400,59.4165421,56.8103150
90,улица Карла Маркса,618400,59.4163674,56.8102185
88,улица Карла Маркса,618400,59.4159061,56.8098644
86,улица Карла Маркса,618400,59.4156823,56.8097303
116,улица Карла Маркса,618400,59.4198985,56.8125257
112,улица Карла Маркса,618400,59.4193696,56.8121496
110,улица Карла Маркса,618400,59.4191093,56.8119696
108,улица Карла Маркса,618400,59.4187064,56.8117848
39,улица Целищева,618400,59.4201559,56.8132357
37,улица Целищева,618400,59.4197653,56.8131581
35,улица Целищева,618400,59.4195442,56.8129866
33,улица Целищева,618400,59.4192795,56.8128363
31,улица Целищева,618400,59.4189851,56.8126402
29,улица Целищева,618400,59.4187009,56.8123749
27,улица Целищева,618400,59.4183216,56.8121496
25,улица Целищева,618400,59.4180568,56.8119727
23,улица Целищева,618400,59.4177566,56.8118439
21,улица Целищева,618400,59.4175001,56.8116562
19,улица Целищева,618400,59.4172462,56.8114631
17,улица Целищева,618400,59.4169678,56.8113129
15,улица Целищева,618400,59.4166840,56.8110929
13,улица Целищева,618400,59.4163837,56.8108891
11,улица Целищева,618400,59.4161326,56.8107388
9,улица Целищева,618400,59.4157969,56.8104974
7,улица Целищева,618400,59.4155813,56.8103472
10,улица Целищева,618400,59.4157178,56.8110929
8,улица Целищева,618400,59.4154803,56.8109855
6,улица Целищева,618400,59.4151992,56.8108031
12,улица Целищева,618400,59.4160453,56.8113075
14,улица Целищева,618400,59.4162964,56.8114791
16,улица Целищева,618400,59.4166321,56.8116830
18,улица Целищева,618400,59.4168696,56.8118815
20,улица Целищева,618400,59.4171425,56.8120263
22,улица Целищева,618400,59.4173936,56.8121979
24,улица Целищева,618400,59.4176583,56.8123749
26,улица Целищева,618400,59.4179558,56.8125359
28,улица Целищева,618400,59.4181851,56.8127183
30,улица Целищева,618400,59.4185535,56.8129275
32,улица Целищева,618400,59.4189438,56.8131367
34,улица Целищева,618400,59.4192304,56.8134156
36,улица Целищева,618400,59.4194514,56.8135336
38,улица Целищева,618400,59.4197271,56.8137053
40,улица Целищева,618400,59.4199836,56.8139252
97,улица Карла Маркса,618400,59.4197110,56.8116524
95,улица Карла Маркса,618400,59.4194670,56.8115222
93,улица Карла Маркса,618400,59.4192188,56.8113596
91,улица Карла Маркса,618400,59.4188364,56.8111320
38,улица Лермонтова,618400,59.4204453,56.8114613
36,улица Лермонтова,618400,59.4201346,56.8112574
34,улица Лермонтова,618400,59.4198579,56.8110628
32,улица Лермонтова,618400,59.4195538,56.8108962
30,улица Лермонтова,618400,59.4192725,56.8107416
28,улица Лермонтова,618400,59.4189362,56.8105049
26,улица Лермонтова,618400,59.4186458,56.8102619
24,улица Лермонтова,618400,59.4183563,56.8100994
22,улица Лермонтова,618400,59.4180646,56.8098798
20,улица Лермонтова,618400,59.4177792,56.8096683
18,улица Лермонтова,618400,59.4175372,56.8095098
16,улица Лермонтова,618400,59.4172890,56.8093676
14,улица Лермонтова,618400,59.4170180,56.8091603
12,улица Лермонтова,618400,59.4166912,56.8089650
10,улица Лермонтова,618400,59.4164678,56.8087984
9,улица Лермонтова,618400,59.4165733,56.8082333
11,улица Лермонтова,618400,59.4168815,56.8083553
13,улица Лермонтова,618400,59.4171649,56.8085586
15,улица Лермонтова,618400,59.4173924,56.8087496
17,улица Лермонтова,618400,59.4176344,56.8089326
19,улица Лермонтова,618400,59.4179343,56.8090910
21,улица Лермонтова,618400,59.4181805,56.8092415
23,улица Лермонтова,618400,59.4184907,56.8095057
27,улица Лермонтова,618400,59.4187617,56.8097049
29,улица Лермонтова,618400,59.4191009,56.8099163
31,улица Лермонтова,618400,59.4193904,56.8101116
33,улица Лермонтова,618400,59.4196655,56.8102782
35,улица Лермонтова,618400,59.4199758,56.8104653
37,улица Лермонтова,618400,59.4202446,56.8106523
39,улица Лермонтова,618400,59.4205395,56.8108330
89,улица Карла Маркса,618400,59.4185445,56.8109003
87,улица Карла Маркса,618400,59.4182466,56.8107254
85,улица Карла Маркса,618400,59.4179550,56.8105099
83,улица Карла Маркса,618400,59.4176551,56.8102945
81,улица Карла Маркса,618400,59.4174069,56.8101928
79,улица Карла Маркса,618400,59.4171483,56.8099651
77,улица Карла Маркса,618400,59.4169001,56.8098229
75,улица Карла Маркса,618400,59.4166581,56.8096522
36,улица Островского,618400,59.4203788,56.8099596
34,улица Островского,618400,59.4200935,56.8097625
32,улица Островского,618400,59.4198209,56.8096147
30,улица Островского,618400,59.4195136,56.8094050
28,улица Островского,618400,59.4191971,56.8091955
26,улица Островского,618400,59.4188396,56.8090661
24,улица Островского,618400,59.4185543,56.8088381
22,улица Островского,618400,59.4182972,56.8086656
20,улица Островского,618400,59.4179774,56.8084623
18,улица Островского,618400,59.4177110,56.8083082
16,улица Островского,618400,59.4174602,56.8081111
14,улица Островского,618400,59.4172030,56.8079262
12,улица Островского,618400,59.4169554,56.8078091
10,улица Островского,618400,59.4166450,56.8076119
9,улица Островского,618400,59.4167360,56.8069402
15,улица Островского,618400,59.4189838,56.8083946
13А,улица Островского,618400,59.4186672,56.8082467
11,улица Островского,618400,59.4179901,56.8079015
17,улица Островского,618400,59.4193287,56.8086534
23А,улица Островского,618400,59.4206359,56.8094383
21,улица Островского,618400,59.4204510,56.8093311
23,улица Островского,618400,59.4208322,56.8093518
19,улица Островского,618400,59.4200611,56.8088782
34,улица Маяковского,618400,59.4208492,56.8088013
32,улица Маяковского,618400,59.4205669,56.8086656
30,улица Маяковского,618400,59.4203288,56.8085425
28,улица Маяковского,618400,59.4200215,56.8083144
26,улица Маяковского,618400,59.4197330,56.8081172
24,улица Маяковского,618400,59.4195011,56.8080494
12,улица Маяковского,618400,59.4168237,56.8065397
14,улица Маяковского,618400,59.4171749,56.8067307
16,улица Маяковского,618400,59.4174978,56.8070018
18,улица Маяковского,618400,59.4177173,56.8071683
20,улица Маяковского,618400,59.4178615,56.8072854
22,улица Маяковского,618400,59.4181499,56.8075010
13,улица Островского,618400,59.4183819,56.8076982
47,улица Маяковского,618400,59.4209776,56.8082220
34,улица Маяковского,618400,59.4206992,56.8080985
45,улица Маяковского,618400,59.4204209,56.8078733
43,улица Маяковского,618400,59.4201207,56.8077069
41,улица Маяковского,618400,59.4198779,56.8075460
36,улица Ермака,618400,59.4195448,56.8073368
16,улица Щорса,618400,59.4193102,56.8065215
14,улица Щорса,618400,59.4189772,56.8062532
12,улица Щорса,618400,59.4187098,56.8060816
10,улица Щорса,618400,59.4183659,56.8058401
10А,улица Щорса,618400,59.4181748,56.8057544
8Б,улица Щорса,618400,59.4179755,56.8055720
8А,улица Щорса,618400,59.4177737,56.8054700
8,улица Щорса,618400,59.4175307,56.8055720
6,улица Щорса,618400,59.4174052,56.8052179
13,улица Уральских Танкистов,618400,59.4171596,56.8051643
22,улица Ермака,618400,59.4192201,56.8070578
35,улица Маяковского,618400,59.4188653,56.8075086
33,улица Маяковского,618400,59.4185351,56.8071920
31,улица Маяковского,618400,59.4182048,56.8068969
29,улица Маяковского,618400,59.4178827,56.8066662
27,улица Маяковского,618400,59.4177054,56.8065108
25,улица Маяковского,618400,59.4175171,56.8063391
23,улица Маяковского,618400,59.4172168,56.8061996
21,улица Маяковского,618400,59.4169793,56.8059690
41,улица Тельмана,618400,59.3959397,56.8006446
39,улица Тельмана,618400,59.3960162,56.8001618
39,улица Тельмана,618400,59.3960926,56.7996950
10,улица Демьяна Бедного,618400,59.3961391,56.7992874
19,улица Демьяна Бедного,618400,59.3962674,56.7988367
17,улица Демьяна Бедного,618400,59.3959227,56.7985235
15,улица Демьяна Бедного,618400,59.3957057,56.7984007
11,улица Демьяна Бедного,618400,59.3948332,56.7978497
13,улица Демьяна Бедного,618400,59.3954019,56.7981930
9,улица Демьяна Бедного,618400,59.3944437,56.7976419
7,улица Демьяна Бедного,618400,59.3941869,56.7974643
5,улица Демьяна Бедного,618400,59.3938731,56.7972496
1,улица Демьяна Бедного,618400,59.3933940,56.7969693
2,улица Окулова,618400,59.3934986,56.7963412
4,улица Окулова,618400,59.3939350,56.7966196
6,улица Окулова,618400,59.3942612,56.7968353
8,улица Окулова,618400,59.3946095,56.7971249
7,улица Окулова,618400,59.3946942,56.7965520
5,улица Окулова,618400,59.3943648,56.7964101
1,улица Окулова,618400,59.3936306,56.7959173
10,улица Окулова,618400,59.3949044,56.7972913
12,улица Окулова,618400,59.3951962,56.7974763
14,улица Окулова,618400,59.3954440,56.7975625
16,улица Окулова,618400,59.3960401,56.7979938
18,улица Окулова,618400,59.3963349,56.7981726
17,улица Окулова,618400,59.3964134,56.7976549
15,улица Окулова,618400,59.3960275,56.7974023
13,улица Окулова,618400,59.3957201,56.7972297
11,улица Окулова,618400,59.3954377,56.7970203
9,улица Окулова,618400,59.3949640,56.7967182
18,улица Карла Маркса,618400,59.3964761,56.7972175
16,улица Карла Маркса,618400,59.3962194,56.7970296
14,улица Карла Маркса,618400,59.3958698,56.7967615
12,улица Карла Маркса,618400,59.3953837,56.7964879
10,улица Карла Маркса,618400,59.3950860,56.7962196
2,улица Карла Маркса,618400,59.3936617,56.7952487
17,улица Карла Маркса,618400,59.3962151,56.7960231
13,улица Карла Маркса,618400,59.3957885,56.7958443
9,улица Карла Маркса,618400,59.3954654,56.7955609
15,улица Карла Маркса,618400,59.3960583,56.7958998
11,улица Карла Маркса,618400,59.3956599,56.7957088
7,улица Карла Маркса,618400,59.3952607,56.7954158
5,улица Карла Маркса,618400,59.3948909,56.7951945
3,улица Карла Маркса,618400,59.3944112,56.7948461
1,улица Карла Маркса,618400,59.3938591,56.7944641
26,Калийная улица,618400,59.3936220,56.7941921
16,улица Матросова,618400,59.3963320,56.7950147
14,улица Матросова,618400,59.3959576,56.7947850
12,улица Матросова,618400,59.3954051,56.7944618
10,улица Матросова,618400,59.3950823,56.7941893
8,улица Матросова,618400,59.3945934,56.7939317
4,улица Матросова,618400,59.3939652,56.7936744
2,улица Матросова,618400,59.3936835,56.7934777
19,улица Матросова,618400,59.3965238,56.7945081
17,улица Матросова,618400,59.3962092,56.7943293
15,улица Матросова,618400,59.3959194,56.7941503
11,улица Матросова,618400,59.3957249,56.7940610
9,улица Матросова,618400,59.3955551,56.7938657
5,улица Матросова,618400,59.3947231,56.7933779
3,улица Матросова,618400,59.3944581,56.7931990
1,улица Матросова,618400,59.3941891,56.7930689
20,Рудничная улица,618400,59.3948096,56.7925566
22,Рудничная улица,618400,59.3948997,56.7930394
24,Рудничная улица,618400,59.3950007,56.7935009
4,улица Нахимова,618400,59.3945228,56.7927980
8,улица Панфилова,618400,59.3951014,56.7925486
29,Рудничная улица,618400,59.3951778,56.7930099
33,Рудничная улица,618400,59.3953499,56.7937395
31,Рудничная улица,618400,59.3952652,56.7933747
10,улица Панфилова,618400,59.3954096,56.7926694
12,улица Панфилова,618400,59.3957294,56.7928972
14,улица Панфилова,618400,59.3959180,56.7930099
16,улица Панфилова,618400,59.3960737,56.7931226
18,улица Панфилова,618400,59.3962648,56.7932728
20,улица Панфилова,618400,59.3964451,56.7933103
22,улица Панфилова,618400,59.3966143,56.7934176
24,улица Панфилова,618400,59.3967536,56.7935571
1,улица Панфилова,618400,59.3954892,56.7920551
3,улица Панфилова,618400,59.3958251,56.7922053
5,улица Панфилова,618400,59.3959808,56.7923072
7,улица Панфилова,618400,59.3961856,56.7924306
9,улица Панфилова,618400,59.3963959,56.7925486
11,улица Панфилова,618400,59.3967072,56.7923233
14А,улица Нахимова,618400,59.3968519,56.7918727
14,улица Нахимова,618400,59.3968315,56.7914676
12,улица Нахимова,618400,59.3966103,56.7913094
10,улица Нахимова,618400,59.3963527,56.7912234
8,улица Нахимова,618400,59.3961570,56.7914138
11,улица Нахимова,618400,59.3962220,56.7908433
9,улица Нахимова,618400,59.3957774,56.7912449
7,улица Нахимова,618400,59.3955919,56.7913943
5,улица Нахимова,618400,59.3953684,56.7915671
3,улица Нахимова,618400,59.3951901,56.7917119
13,улица Нахимова,618400,59.3965215,56.7906471
15,улица Нахимова,618400,59.3967566,56.7906771
17,улица Нахимова,618400,59.3969661,56.7908293
19,улица Нахимова,618400,59.3971420,56.7909647
43,Гвардейская улица,618400,59.3933141,56.7945926
41,Гвардейская улица,618400,59.3931475,56.7947021
39,Гвардейская улица,618400,59.3929709,56.7948296
37,Гвардейская улица,618400,59.3928159,56.7949428
35,Гвардейская улица,618400,59.3926466,56.7950631
33,Гвардейская улица,618400,59.3924988,56.7952047
31,Гвардейская улица,618400,59.3923043,56.7953463
29,Гвардейская улица,618400,59.3920051,56.7956294
27,Гвардейская улица,618400,59.3918213,56.7957497
25,Гвардейская улица,618400,59.3916568,56.7958096
23,Гвардейская улица,618400,59.3914843,56.7958711
21,Гвардейская улица,618400,59.3912930,56.7959763
19,Гвардейская улица,618400,59.3910878,56.7959196
17,Гвардейская улица,618400,59.3909157,56.7958653
15,Гвардейская улица,618400,59.3905644,56.7956715
13,Гвардейская улица,618400,59.3902644,56.7954620
11,Гвардейская улица,618400,59.3899446,56.7950319
9,Гвардейская улица,618400,59.3897878,56.7947610
7,Гвардейская улица,618400,59.3896379,56.7944014
5,Гвардейская улица,618400,59.3894929,56.7939998
3,Гвардейская улица,618400,59.3893882,56.7935327
1,Гвардейская улица,618400,59.3892765,56.7928743
88,улица Котовского,618400,59.3931690,56.7938830
86,улица Котовского,618400,59.3930049,56.7940278
84,улица Котовского,618400,59.3928598,56.7941212
82,улица Котовского,618400,59.3926840,56.7942473
80,улица Котовского,618400,59.3925270,56.7943453
78,улица Котовского,618400,59.3923511,56.7944714
76,улица Котовского,618400,59.3921632,56.7946442
74,улица Котовского,618400,59.3918540,56.7948450
72,улица Котовского,618400,59.3916639,56.7949711
70,улица Котовского,618400,59.3915189,56.7950459
68,улица Котовского,618400,59.3913399,56.7950941
66,улица Котовского,618400,59.3911706,56.7951075
64,улица Котовского,618400,59.3910135,56.7951263
62,улица Котовского,618400,59.3906877,56.7951403
60,улица Котовского,618400,59.3903752,56.7949055
58,улица Котовского,618400,59.3901505,56.7945444
56,улица Котовского,618400,59.3899607,56.7943110
54,улица Котовского,618400,59.3898081,56.7939957
52,улица Котовского,618400,59.3896936,56.7936907
50,улица Котовского,618400,59.3895995,56.7933117
48,улица Котовского,618400,59.3895210,56.7929174
46,улица Котовского,618400,59.3893970,56.7924182
44,улица Котовского,618400,59.3892637,56.7916726
42,улица Котовского,618400,59.3890488,56.7913090
88,улица Котовского,618400,59.3893955,56.7910934
88,улица Котовского,618400,59.3894613,56.7914015
88,улица Котовского,618400,59.3895335,56.7918174
88,улица Котовского,618400,59.3896152,56.7921286
88,улица Котовского,618400,59.3896935,56.7924798
88,улица Котовского,618400,59.3897500,56.7928157
88,улица Котовского,618400,59.3898301,56.7931484
88,улица Котовского,618400,59.3899132,56.7934627
88,улица Котовского,618400,59.3900607,56.7938324
88,улица Котовского,618400,59.3902625,56.7940698
88,улица Котовского,618400,59.3904663,56.7943180
88,улица Котовского,618400,59.3908152,56.7946134
88,улица Котовского,618400,59.3910297,56.7946800
88,улица Котовского,618400,59.3912211,56.7946240
88,улица Котовского,618400,59.3914125,56.7946077
88,улица Котовского,618400,59.3916158,56.7944956
88,улица Котовского,618400,59.3917787,56.7944069
88,улица Котовского,618400,59.3920569,56.7941780
88,улица Котовского,618400,59.3922423,56.7939959
88,улица Котовского,618400,59.3924219,56.7938581
103,улица Котовского,618400,59.3926121,56.7937414
105,улица Котовского,618400,59.3927357,56.7936550
107,улица Котовского,618400,59.3929354,56.7935009
109,улица Котовского,618400,59.3930725,56.7933070
157,улица Челюскинцев,618426,59.3967819,56.8385844
29/1,Советский проспект,618400,59.4101385,56.7973961
59,Набережная улица,618426,59.3923620,56.8548046
14,улица Шолохова,618404,59.3799159,56.7888548
16,улица Шолохова,618404,59.3796853,56.7894910
18,улица Шолохова,618404,59.3795432,56.7898305
18,улица Шолохова,618404,59.3793527,56.7879889
18,улица Шолохова,618404,59.3791995,56.7882734
18,улица Шолохова,618404,59.3788682,56.7889971
18,улица Шолохова,618404,59.3790712,56.7886149
14А,улица Шолохова,618404,59.3797296,56.7885540
2,Железнодорожная улица,618404,59.3788486,56.7876506
49,Сухановская улица,618426,59.3760532,56.8653769
19,улица Леонова,618460,59.4293630,56.6535661
57А,проспект Ленина,618400,59.4152850,56.7936599
57,Набережная улица,618426,59.3922470,56.8542035
7,улица Аллея Пионеров,618404,59.3761325,56.7837013
55,Набережная улица,618426,59.3919239,56.8534215
148,улица Пятилетки,618426,59.3924947,56.8538691
53,Набережная улица,618426,59.3921000,56.8530785
2,улица Геннадия Братчикова,618460,59.4262854,56.6472975
8 с2,улица Уральских Танкистов,618400,59.4163212,56.8068179
8,улица Уральских Танкистов,618400,59.4161807,56.8060092
1,улица Ивана Дощеникова,618409,59.4261328,56.6505075
36,Новосодовая улица,618400,59.4533245,56.7390534
101,проспект Ленина,618400,59.4615920,56.8410031
50,Загородная улица,618400,59.4518269,56.8290743
3С,Загородная улица,618426,59.4641069,56.8426094
8/3,улица Уральских Танкистов,618400,59.4157586,56.8067515
8/4,улица Уральских Танкистов,618400,59.4161310,56.8075728
21,улица Парижской Коммуны,618416,59.4144690,56.8389569
88,Юбилейная улица,618422,59.4049160,56.8430500
82,улица Мира,618425,59.4089337,56.8523448
48,улица Мира,618426,59.4012325,56.8458576
98А,улица Мира,618425,59.4091290,56.8580284
139,Юбилейная улица,618425,59.4056327,56.8527001
3,Привокзальная улица,618400,59.4042429,56.7694539
12,улица Строителей,618400,59.4284938,56.6499625
6,улица Строителей,618400,59.4278081,56.6467279
10,улица Строителей,618409,59.4287286,56.6479111
146,улица Пятилетки,618426,59.3927036,56.8539724
75,Чуртанское шоссе,618401,59.4022919,56.7404360
5,улица Парижской Коммуны,618405,59.4204174,56.8301253
