House number,Street name,Postal code,Latitude,Longitude
1,улица Работницы,614107,58.0273000,56.2952013
1,Весёлая улица,614002,58.0045280,56.2799454
41,улица Мира,614022,57.9764270,56.1872813
27,Комсомольский проспект,614015,58.0096962,56.2391371
59,шоссе Космонавтов,614081,57.9946336,56.2167707
21,улица Карпинского,614022,57.9872609,56.2177634
76,улица Репина,614112,58.1135777,56.2811051
35,улица Тургенева,614107,58.0135087,56.2940741
80А,улица Крупской,614077,57.9947921,56.2936253
105,улица Героев Хасана,614025,57.9648035,56.2639805
113Б,бульвар Гагарина,614077,57.9920415,56.2943386
83,Уральская улица,614107,58.0272959,56.2953827
30,Комсомольский проспект,614000,58.0100745,56.2405733
1А,улица Постаногова,614014,58.0307634,56.3231531
8,Пионерская улица,614039,57.9973298,56.2480940
104,улица Мира,614036,57.9735692,56.1692501
1/1,Парковый проспект,614015,57.9977686,56.1360593
32А,Екатерининская улица,614000,58.0143149,56.2567899
11,улица Советской Армии,614066,57.9871340,56.1940136
23А,улица Гашкова,614056,58.0622946,56.3513139
50,улица Карпинского,614022,57.9820244,56.2160482
54А,улица Ленина,614000,58.0116543,56.2404422
8А,улица Академика Вавилова,614087,57.9938692,56.1971311
8А,улица Академика Вавилова,614087,57.9937896,56.1968253
45Б,улица Мира,614022,57.9770535,56.1842861
45Б,улица Мира,614022,57.9770540,56.1840439
54А,улица Ленина,614000,58.0116642,56.2403807
21,1-я Красноармейская улица,614007,58.0018932,56.2630709
31А,Комсомольский проспект,614000,58.0071848,56.2422712
19,улица Чернышевского,614002,57.9968753,56.2647163
23,улица Чернышевского,614002,57.9964660,56.2627683
23,улица Чернышевского,614002,57.9962083,56.2617528
58,улица Ленина,614000,58.0100492,56.2388046
86,шоссе Космонавтов,614081,57.9946247,56.2087140
95Б,улица Куйбышева,614010,57.9909284,56.2476841
48,Советская улица,614015,58.0150359,56.2382491
23,улица Клары Цеткин,614010,57.9895425,56.2399121
55,Цветочная улица,614089,57.9378593,56.4140714
162,Цветочная улица,614089,57.9379818,56.4152257
170,Цветочная улица,614089,57.9369191,56.4140988
57,Цветочная улица,614089,57.9376484,56.4139332
59,Цветочная улица,614089,57.9374374,56.4137950
61,Цветочная улица,614089,57.9372265,56.4136568
69,Цветочная улица,614089,57.9362640,56.4130263
172,Цветочная улица,614089,57.9367002,56.4139534
47,Цветочная улица,614089,57.9389090,56.4147759
10,Бродовское кольцо,614089,57.9374654,56.4165333
113,Бродовское кольцо,614089,57.9367220,56.4150581
13,Ясеневая улица,614089,57.9422809,56.4158016
15,Ландышевая улица,614089,57.9438210,56.4197935
16,Кленовая улица,614089,57.9419231,56.4184451
17,Ландышевая улица,614089,57.9437768,56.4200812
19,Ясеневая улица,614089,57.9419361,56.4138555
24А,Кленовая улица,614089,57.9410064,56.4168830
27,Ясеневая улица,614089,57.9413132,56.4127490
37,Ореховая улица,614089,57.9391932,56.4095195
5,Радужный переулок,614089,57.9436460,56.4139966
5,Ясеневая улица,614089,57.9433474,56.4170442
7,Ореховая улица,614089,57.9428627,56.4142122
8,Ясеневая улица,614089,57.9430415,56.4174906
9,Ореховая улица,614089,57.9427249,56.4135049
11,Ландышевая улица,614089,57.9440125,56.4188398
1,Абрикосовая улица,614089,57.9405015,56.4247129
10,Ландышевая улица,614089,57.9354264,56.4442208
12,Малиновая улица,614089,57.9405887,56.4268212
12,Пасечная улица,614089,57.9412894,56.4282815
14,Абрикосовая улица,614089,57.9397212,56.4262554
14,Пасечная улица,614089,57.9412022,56.4286684
15,Пасечная улица,614089,57.9413476,56.4301637
17,Малиновая улица,614089,57.9407042,56.4296500
18,Абрикосовая улица,614089,57.9396057,56.4270291
18,Малиновая улица,614089,57.9403244,56.4281461
18,Пасечная улица,614089,57.9410867,56.4294759
19,Малиновая улица,614089,57.9404399,56.4302447
21,Малиновая улица,614089,57.9406041,56.4303124
22,Малиновая улица,614089,57.9399341,56.4288815
23,Пасечная улица,614089,57.9410397,56.4318895
24,Малиновая улица,614089,57.9401165,56.4292728
29,Пасечная улица,614089,57.9408101,56.4333786
2А,Виноградная улица,614089,57.9430428,56.4237889
33,Пасечная улица,614089,57.9408446,56.4341274
369,Бродовское кольцо,614089,57.9395851,56.4247999
39,Пасечная улица,614089,57.9405061,56.4354506
43,Пасечная улица,614089,57.9403201,56.4362285
47,Ландышевая улица,614089,57.9421107,56.4288183
47,Пасечная улица,614089,57.9401401,56.4370629
49,Пасечная улица,614089,57.9400748,56.4374527
4А,Виноградная улица,614089,57.9427425,56.4235665
51,Ландышевая улица,614089,57.9419542,56.4296403
53,Ландышевая улица,614089,57.9419003,56.4300900
53,Пасечная улица,614089,57.9398988,56.4384357
55,Абрикосовая улица,614089,57.9383913,56.4364114
55,Пасечная улица,614089,57.9400521,56.4386033
57А,Ландышевая улица,614089,57.9416385,56.4309459
59А,Ландышевая улица,614089,57.9414199,56.4319647
59,Пасечная улица,614089,57.9358782,56.4430409
6,Ландышевая улица,614089,57.9358166,56.4438339
6,Малиновая улица,614089,57.9408403,56.4256365
60,Малиновая улица,614089,57.9387403,56.4369094
61,Пасечная улица,614089,57.9356831,56.4431956
63,Ландышевая улица,614089,57.9413836,56.4333085
65,Ландышевая улица,614089,57.9412883,56.4336538
67,Ландышевая улица,614089,57.9412393,56.4340265
69,Ландышевая улица,614089,57.9411286,56.4345531
7,Абрикосовая улица,614089,57.9403475,56.4262313
73,Ландышевая улица,614089,57.9409453,56.4352951
75,Ландышевая улица,614089,57.9408773,56.4356531
77,Ландышевая улица,614089,57.9408773,56.4358328
79,Ландышевая улица,614089,57.9408265,56.4360171
81,Ландышевая улица,614089,57.9406969,56.4369214
85,Ландышевая улица,614089,57.9404895,56.4377467
87,Ландышевая улица,614089,57.9404106,56.4383451
89А,Ландышевая улица,614089,57.9402300,56.4387178
89,Ландышевая улица,614089,57.9403897,56.4385092
9,Абрикосовая улица,614089,57.9402807,56.4265020
9А,Абрикосовая улица,614089,57.9402371,56.4266810
1,Бродовское кольцо,614089,57.9401731,56.4198923
1,Грибная улица,614089,57.9261531,56.4241307
100,Смородиновая улица,614089,57.9258063,56.4171048
101,Кленовая улица,614089,57.9306330,56.4086976
101,Ясеневая улица,614089,57.9297714,56.4075496
102,Ореховая улица,614089,57.9336340,56.4065547
103,Кленовая улица,614089,57.9304087,56.4088433
105,Кленовая улица,614089,57.9302463,56.4089889
105,Ясеневая улица,614089,57.9292828,56.4080886
106,Ореховая улица,614089,57.9311872,56.4060151
106,Ясеневая улица,614089,57.9303816,56.4078577
107,Ясеневая улица,614089,57.9291151,56.4082877
11,2-й Ромашковый переулок,614089,57.9324260,56.4223681
110,Ореховая улица,614089,57.9308276,56.4060539
112,Ясеневая улица,614089,57.9297230,56.4084718
114,Ясеневая улица,614089,57.9294239,56.4087098
118,Ореховая улица,614089,57.9298931,56.4064569
12,Смородиновая улица,614089,57.9303956,56.4043994
12,Цветочная улица,614089,57.9420409,56.4203109
120,Кленовая улица,614089,57.9278844,56.4123056
122,Кленовая улица,614089,57.9274707,56.4124619
122,Ореховая улица,614089,57.9295258,56.4069261
123,Кленовая улица,614089,57.9280588,56.4111204
124,Кленовая улица,614089,57.9272439,56.4126998
125,Ореховая улица,614089,57.9254895,56.4096771
126,Кленовая улица,614089,57.9270711,56.4128212
129,Бродовское кольцо,614089,57.9348868,56.4138108
13,Бродовское кольцо,614089,57.9392793,56.4166769
13,Виноградная улица,614089,57.9416765,56.4210901
13,2-й Ромашковый переулок,614089,57.9324234,56.4219894
130,Кленовая улица,614089,57.9266483,56.4133455
131,Бродовское кольцо,614089,57.9346684,56.4137121
131,Ореховая улица,614089,57.9248630,56.4102452
133,Цветочная улица,614089,57.9270092,56.4137048
134,Ясеневая улица,614089,57.9273963,56.4105669
135,Бродовское кольцо,614089,57.9342264,56.4133779
137,Цветочная улица,614089,57.9266896,56.4144428
138,Ореховая улица,614089,57.9278464,56.4083118
138,Ясеневая улица,614089,57.9268549,56.4110937
14,Зимняя улица,614089,57.9261415,56.4215119
14,Смородиновая улица,614089,57.9301352,56.4044480
143,Кленовая улица,614089,57.9260157,56.4131815
15,Виноградная улица,614089,57.9414505,56.4209631
15,1-й Ромашковый переулок,614089,57.9288621,56.4235608
152,Ясеневая улица,614089,57.9254356,56.4131960
154,Ореховая улица,614089,57.9260653,56.4099803
16,Смородиновая улица,614089,57.9298903,56.4047587
164,Ясеневая улица,614089,57.9249802,56.4156178
17,1-й Ромашковый переулок,614089,57.9290881,56.4233410
173,Бродовское кольцо,614089,57.9282435,56.4145440
176,Бродовское кольцо,614089,57.9273308,56.4193791
185,Бродовское кольцо,614089,57.9272391,56.4163156
185,Бродовское кольцо,614089,57.9272737,56.4160512
19,Смородиновая улица,614089,57.9294108,56.4043218
196,Цветочная улица,614089,57.9339543,56.4125273
199,Бродовское кольцо,614089,57.9266313,56.4190842
2,Зимняя улица,614089,57.9262858,56.4203903
2,Смородиновая улица,614089,57.9311264,56.4054895
20,Утренняя улица,614089,57.9258659,56.4063998
20,2-й Ромашковый переулок,614089,57.9317016,56.4245093
201,Бродовское кольцо,614089,57.9266571,56.4194290
209,Бродовское кольцо,614089,57.9269510,56.4210069
217,Бродовское кольцо,614089,57.9272604,56.4225898
219,Бродовское кольцо,614089,57.9273526,56.4229359
22,Утренняя улица,614089,57.9257370,56.4067057
22,Цветочная улица,614089,57.9408893,56.4199232
22,Осенняя улица,614089,57.9302920,56.4158832
225,Бродовское кольцо,614089,57.9277209,56.4240208
229,Бродовское кольцо,614089,57.9278266,56.4246525
23,Ландышевая улица,614089,57.9435133,56.4213339
24,Ясеневая улица,614089,57.9414623,56.4142219
25,Ландышевая улица,614089,57.9434677,56.4216086
27,Летняя улица,614089,57.9295311,56.4188161
27,1-й Ромашковый переулок,614089,57.9303167,56.4220364
29,Зимняя улица,614089,57.9308899,56.4161990
3,Бродовское кольцо,614089,57.9405430,56.4198374
3,Летняя улица,614089,57.9259816,56.4221625
31,Кленовая улица,614089,57.9408027,56.4141120
33,Зимняя улица,614089,57.9312836,56.4158317
33,1-й Ромашковый переулок,614089,57.9312479,56.4215087
35,Кленовая улица,614089,57.9404218,56.4137584
35,Утренняя улица,614089,57.9249197,56.4064241
35,1-й Ромашковый переулок,614089,57.9314207,56.4211154
36,Грибная улица,614089,57.9312995,56.4205814
36,Осенняя улица,614089,57.9340792,56.4158518
39,1-й Ромашковый переулок,614089,57.9318293,56.4208447
4,1-й Ромашковый переулок,614089,57.9311912,56.4226788
40,Летняя улица,614089,57.9312763,56.4187464
40А,Цветочная улица,614089,57.9387361,56.4153480
41,Смородиновая улица,614089,57.9261573,56.4074267
41,Утренняя улица,614089,57.9242932,56.4072641
42,Кленовая улица,614089,57.9394577,56.4139885
43,Грибная улица,614089,57.9314787,56.4194915
43,1-й Ромашковый переулок,614089,57.9320820,56.4204417
44,Грибная улица,614089,57.9320459,56.4200824
45,Смородиновая улица,614089,57.9256751,56.4075651
47,Смородиновая улица,614089,57.9254998,56.4077739
47,Ясеневая улица,614089,57.9384778,56.4107840
49,Утренняя улица,614089,57.9242596,56.4085021
5,Виноградная улица,614089,57.9424800,56.4217485
5,Грибная улица,614089,57.9264703,56.4240071
5,1-й Ромашковый переулок,614089,57.9272615,56.4250714
50,Осенняя улица,614089,57.9355607,56.4168423
50,Ясеневая улица,614089,57.9387480,56.4117936
51,Смородиновая улица,614089,57.9251053,56.4081283
51,Утренняя улица,614089,57.9243473,56.4089246
54,Летняя улица,614089,57.9346154,56.4196127
55,Летняя улица,614089,57.9340657,56.4186094
56,Летняя улица,614089,57.9348860,56.4197510
57,Ясеневая улица,614089,57.9374263,56.4101091
59,Грибная улица,614089,57.9347778,56.4207828
59,Ясеневая улица,614089,57.9368450,56.4097838
59А,Ясеневая улица,614089,57.9369237,56.4094610
6,Грибная улица,614089,57.9271193,56.4243847
6,2-й Ромашковый переулок,614089,57.9318254,56.4236208
60,Летняя улица,614089,57.9353227,56.4200746
60,Смородиновая улица,614089,57.9249249,56.4093518
60,Ясеневая улица,614089,57.9377201,56.4110211
61,Грибная улица,614089,57.9350214,56.4209017
62,Смородиновая улица,614089,57.9246799,56.4094926
63,Ясеневая улица,614089,57.9359485,56.4092927
64,Смородиновая улица,614089,57.9244814,56.4096043
65,Ореховая улица,614089,57.9360945,56.4072825
67,Ореховая улица,614089,57.9358977,56.4072070
68А,Кленовая улица,614089,57.9357897,56.4119251
69,Ореховая улица,614089,57.9356644,56.4070285
69,Смородиновая улица,614089,57.9233598,56.4125660
7,Виноградная улица,614089,57.9422668,56.4216287
7,Летняя улица,614089,57.9265179,56.4220557
7,Смородиновая улица,614089,57.9310993,56.4037149
7,Утренняя улица,614089,57.9282043,56.4037149
7,1-й Ромашковый переулок,614089,57.9274693,56.4247967
72,Смородиновая улица,614089,57.9240276,56.4112648
73,Кленовая улица,614089,57.9361238,56.4110382
74,Смородиновая улица,614089,57.9239116,56.4117066
75,Цветочная улица,614089,57.9357717,56.4122601
76,Зимняя улица,614089,57.9350284,56.4183521
76,Ореховая улица,614089,57.9365574,56.4085871
77,Грибная улица,614089,57.9341861,56.4219686
77,Ясеневая улица,614089,57.9345234,56.4080790
78,Ореховая улица,614089,57.9363684,56.4083574
79,Ясеневая улица,614089,57.9343266,56.4079486
80,Кленовая улица,614089,57.9345169,56.4106979
81,Ясеневая улица,614089,57.9340649,56.4079747
82,Зимняя улица,614089,57.9356741,56.4186556
82,Смородиновая улица,614089,57.9239788,56.4133398
83,Кленовая улица,614089,57.9348814,56.4099992
83,Ореховая улица,614089,57.9303750,56.4053656
83,Ясеневая улица,614089,57.9338897,56.4077779
85,Кленовая улица,614089,57.9346598,56.4099506
86,Ясеневая улица,614089,57.9348041,56.4091932
87,Грибная улица,614089,57.9345598,56.4212751
87,Кленовая улица,614089,57.9344742,56.4097564
87,Ореховая улица,614089,57.9299522,56.4055744
87,Цветочная улица,614089,57.9343555,56.4115568
89,Кленовая улица,614089,57.9342577,56.4094942
89,Ореховая улица,614089,57.9297537,56.4057638
89,Цветочная улица,614089,57.9339173,56.4113869
9,Грибная улица,614089,57.9269188,56.4236020
91,Цветочная улица,614089,57.9339276,56.4110568
94,Ясеневая улица,614089,57.9337937,56.4084067
97,Кленовая улица,614089,57.9313017,56.4082488
98/146,Кленовая улица,614089,57.9256815,56.4167539
99,Кленовая улица,614089,57.9308340,56.4086029
99,Смородиновая улица,614089,57.9263735,56.4183123
104,Смородиновая улица,614089,57.9261971,56.4170744
27,Цветочная улица,614089,57.9414399,56.4163507
1,Цветочная улица,614089,57.9432084,56.4204715
10,Кленовая улица,614089,57.9425922,56.4188722
9,Бродовское кольцо,614089,57.9398199,56.4183486
115,Бродовское кольцо,614089,57.9364983,56.4149293
117,Бродовское кольцо,614089,57.9362909,56.4147473
119,Бродовское кольцо,614089,57.9360757,56.4146381
121,Бродовское кольцо,614089,57.9358618,56.4144973
13,Ландышевая улица,614089,57.9439509,56.4192182
14,Кленовая улица,614089,57.9421324,56.4185883
18,Кленовая улица,614089,57.9417099,56.4181976
2,Цветочная улица,614089,57.9431123,56.4210306
28,Кленовая улица,614089,57.9408353,56.4153485
3,Виноградная улица,614089,57.9427128,56.4219097
3,Цветочная улица,614089,57.9430242,56.4203453
36,Кленовая улица,614089,57.9401248,56.4144150
5,Ландышевая улица,614089,57.9442347,56.4176935
5,Цветочная улица,614089,57.9427832,56.4201878
52,Кленовая улица,614089,57.9386421,56.4133964
54,Кленовая улица,614089,57.9380412,56.4130044
6,Кленовая улица,614089,57.9429954,56.4191343
60,Кленовая улица,614089,57.9374544,56.4125761
71,Цветочная улица,614089,57.9361865,56.4125703
8,Цветочная улица,614089,57.9424820,56.4205947
9,Виноградная улица,614089,57.9420466,56.4214356
18А,Ясеневая улица,614089,57.9417894,56.4161485
24,Кленовая улица,614089,57.9412185,56.4167265
10,Ясеневая улица,614089,57.9428258,56.4173184
11,Ясеневая улица,614089,57.9427026,56.4166234
14,Ясеневая улица,614089,57.9428002,56.4152448
17,Ореховая улица,614089,57.9422833,56.4120490
19,Кленовая улица,614089,57.9414727,56.4164364
21,Кленовая улица,614089,57.9416398,56.4162901
6,Ореховая улица,614089,57.9437381,56.4161644
7,Ясеневая улица,614089,57.9431159,56.4169306
9,Кленовая улица,614089,57.9426380,56.4183678
9,Ландышевая улица,614089,57.9440773,56.4185535
11,Маршрутная улица,614010,57.9816627,56.2419115
15,Стахановская улица,614022,57.9853424,56.2195127
35,улица Тургенева,614017,58.0133259,56.2940806
113,Петропавловская улица,614068,58.0061853,56.1979588
19Б,Монастырская улица,614000,58.0172043,56.2416813
2,Сельская улица,614097,58.0009065,56.1588481
56,улица Карпинского,614022,57.9818919,56.2160109
21,улица Советской Армии,614066,57.9848165,56.1969621
21,улица Максима Горького,614000,58.0147054,56.2524320
114,Шоссе Космонавтов;шоссе Космонавтов,614087,57.9914418,56.1950479
15,Транспортная улица,614031,58.0349057,56.1350524
8,улица Космонавта Леонова,614036,57.9759636,56.1651088
23,Стахановская улица,614022,57.9868054,56.2176698
72А,улица Ленина,614068,58.0080347,56.2221835
97,улица Луначарского,614000,58.0048888,56.2281622
9А,улица Голева,614081,57.9987789,56.2150164
330/4,шоссе Космонавтов,614513,57.9457963,56.0771258
14,улица Революции,614007,58.0053017,56.2680731
58,улица Героев Хасана,614025,57.9663688,56.2608592
58,улица Героев Хасана,614025,57.9667126,56.2607551
20,Светлогорская улица,614023,58.0394308,56.0254470
63,Уральская улица,614107,58.0297825,56.3029099
11,Комсомольский проспект,614000,58.0132725,56.2362034
34,Южноуральская улица,614089,57.9825591,56.3095078
113,Петропавловская улица,614068,58.0062454,56.1977052
115,Петропавловская улица,614068,58.0062989,56.1974052
50,1-я Красноармейская улица,614039,57.9992780,56.2541353
104,улица Мира,614036,57.9736147,56.1694377
27А,Ласьвинская улица,614101,58.0037639,55.9387429
58,Комсомольский проспект,614039,57.9995347,56.2506900
35,улица Тургенева,614017,58.0129638,56.2941249
29,улица Тургенева,614107,58.0149231,56.2939002
25,улица Лебедева,614017,58.0208569,56.2885931
47А,Сибирская улица,614051,58.0055779,56.2526665
2,улица Куйбышева,614000,58.0151851,56.2312549
60/1,улица Революции,614016,58.0030728,56.2348809
60/1,улица Революции,614016,58.0030132,56.2349981
54,Хабаровская улица,614067,58.0509633,56.0886920
54,Хабаровская улица,614067,58.0510683,56.0888042
54,Хабаровская улица,614067,58.0507357,56.0898442
54,Хабаровская улица,614067,58.0505691,56.0899143
13,Уинская улица,614051,58.0061156,56.3071769
15А,Уинская улица,614051,58.0066165,56.3090129
15А,Уинская улица,614051,58.0063987,56.3088060
15А,Уинская улица,614051,58.0061472,56.3089539
15А,Уинская улица,614051,58.0062499,56.3090765
15А,Уинская улица,614051,58.0063735,56.3092307
5,проезд Якуба Коласа,614068,58.0085071,56.2052069
101,Петропавловская улица,614068,58.0078873,56.2072891
135Б,Хабаровская улица,614067,58.0518219,56.0938577
135Б,Хабаровская улица,614067,58.0518869,56.0938759
135Б,Хабаровская улица,614067,58.0517566,56.0939529
135Б,Хабаровская улица,614067,58.0517587,56.0940067
24,улица Революции,614039,58.0047528,56.2564267
28,Комсомольский проспект,614000,58.0106227,56.2401311
35,Делегатская улица,614026,58.1360886,56.3969590
99,улица Николая Островского,614000,57.9998274,56.2704371
111 к27,шоссе Космонавтов,614066,57.9919034,56.2040517
103,Петропавловская улица,614068,58.0081415,56.2061611
26,улица Ленина,614000,58.0143094,56.2502404
8/47,улица Зои Космодемьянской,614046,58.0005435,56.1671215
93В,улица Николая Островского,614002,58.0012803,56.2676260
9,Маршрутная улица,614068,57.9809850,56.2406569
179Б,шоссе Космонавтов,614036,57.9786900,56.1713252
1,Весёлая улица,614002,58.0045654,56.2799427
53,бульвар Гагарина,614070,58.0098223,56.2822801
21,улица Революции,614007,58.0057652,56.2551324
60,улица Ленина,614037,58.0091913,56.2340850
10,Маршрутная улица,614010,57.9829923,56.2414754
57,Новозвягинская улица,614014,58.0687662,56.3356086
33,улица Подводников,614012,57.9751520,56.2049040
11,улица Пушкина,614000,58.0104368,56.2556351
66,Комсомольский проспект,614039,57.9975473,56.2525126
112,улица Куйбышева,614010,57.9857741,56.2493849
19,Петропавловская улица,614000,58.0164747,56.2494460
71,улица Пушкина,614000,58.0062552,56.2410013
2,улица Братьев Игнатовых,614990,57.9798301,56.1788759
21,улица Революции,614007,58.0057189,56.2556981
27,Причальная улица,614042,57.9751433,55.9286492
6А,улица Маршала Толбухина,614030,58.1037636,56.3044472
1А,улица Писарева,614030,58.1048160,56.3150922
1,улица 25 Октября,614000,58.0182012,56.2452350
11,Косьвинская улица,614025,57.9723313,56.2723727
31,улица Мильчакова,614000,57.9914652,56.2324010
2,улица Куйбышева,614000,58.0157343,56.2310302
126,Пермская улица,614045,58.0085201,56.2329109
1/1,улица Маршала Толбухина,614030,58.1046825,56.3079705
86,улица Юрша,614051,58.0016272,56.3041908
86,улица Юрша,614051,58.0014158,56.3048227
8,Судозаводская улица,614023,58.0323966,56.0314524
1,Комсомольский проспект,614000,58.0162524,56.2333078
33,улица Докучаева,614031,58.0403095,56.1676464
16,Данилихинская улица,614081,57.9980041,56.2184125
16,Данилихинская улица,614081,57.9979740,56.2183197
116,улица Калинина,614023,58.0440190,56.0269827
6,улица Генкеля,614068,58.0065253,56.1822971
6 оф.142,улица Генкеля,614068,58.0065078,56.1821188
16А,улица Дзержинского,614068,58.0079493,56.1797110
27,улица Сухобруса,614068,58.0075883,56.1805109
27,улица Сухобруса,614068,58.0076277,56.1804915
194,Екатерининская улица,614068,58.0044240,56.2134625
48,Транспортная улица,614031,58.0339854,56.1230975
84 к2,Промышленная улица,614055,57.9248257,56.1359431
96А,Промышленная улица,614055,57.8835425,56.1621240
98 к16,Ласьвинская улица,614042,58.0166703,55.9073858
30,улица Чкалова,614010,57.9858742,56.2554757
30 к2,улица Чкалова,614010,57.9859776,56.2557548
2А/1,Лесопарковый переулок,614018,58.0433657,56.2734501
16,улица Куйбышева,614000,58.0090999,56.2358622
41/1,улица Мира,614095,57.9780259,56.1891618
74,улица Ленина,614068,58.0075551,56.2193117
162Б,шоссе Космонавтов,614990,57.9718695,56.1502754
72,Комсомольский проспект,614039,57.9957540,56.2540743
114,улица Спешилова,614013,58.0392727,56.1901397
41/1,улица Мира,614095,57.9780091,56.1894694
162Б,шоссе Космонавтов,614990,57.9709547,56.1497178
1В,улица Юрша,614051,58.0124334,56.3052959
79,Комсомольский проспект,614010,57.9904384,56.2504270
8,улица Александра Невского,614101,57.9990363,55.9447477
9,улица Ушинского,614077,57.9974788,56.2885237
85,бульвар Гагарина,614077,57.9975030,56.2880663
16,Сибирская улица,614015,58.0108043,56.2493549
33,проспект Парковый,614097,57.9984427,56.1650812
42А,улица Белинского,614010,57.9959808,56.2569080
32Б,улица Чернышевского,614010,57.9951504,56.2595317
32,улица Чернышевского,614010,57.9948327,56.2586840
58а,улица Плеханова,614081,57.9991594,56.2085497
51,улица Луначарского,614000,58.0080523,56.2438902
115,Уральская улица,614060,58.0190792,56.2765103
5,улица Металлистов,614107,58.0259084,56.2947716
14,улица Циолковского,614107,58.0272511,56.2973820
13,улица Циолковского,614107,58.0271645,56.2987054
63,Уральская улица,614107,58.0298403,56.3025607
32,улица Крупской,614060,58.0171746,56.2785436
37,бульвар Гагарина,614060,58.0162607,56.2759718
99А,улица КИМ,614070,58.0173062,56.2856353
51,бульвар Гагарина,66080,58.0107445,56.2819461
41,улица Крупской,614070,58.0139786,56.2826253
51,улица Крупской,614070,58.0123302,56.2839790
16,улица Тургенева,614070,58.0163826,56.2922128
18,улица Добролюбова,614107,58.0158746,56.3007518
6,улица Макаренко,614017,58.0138476,56.3032329
39,улица Тургенева,614107,58.0116349,56.2943592
44,улица КИМ,614107,58.0279668,56.3074451
41,улица Мира,614022,57.9766147,56.1871407
8,Парковый проспект,614017,57.9967496,56.1414963
65,шоссе Космонавтов,614081,57.9932462,56.2090893
2,Соликамский тракт,614037,58.1412090,56.4150933
7,улица Профессора Поздеева,614013,58.0542147,56.2228102
8А,улица Профессора Дедюкина,614013,58.0500804,56.2173017
12,улица Сигаева,614056,58.0594302,56.3424637
16,улица Попова,614000,58.0084370,56.2282034
60,улица Ленина,614000,58.0094316,56.2335492
9,Уинская улица,614051,58.0067645,56.3045645
31А,Целинная улица,614054,58.0545261,56.3538176
108,улица Спешилова,614068,58.0398510,56.2020221
125А,улица Спешилова,614068,58.0382037,56.1843304
293,Соликамская улица,614047,58.0919523,56.3503138
10,Дачная улица,614026,58.1425997,56.3809278
1,улица Бумажников,614037,58.1551645,56.4408498
1,улица Бумажников,614037,58.1527695,56.4555596
82,Новогайвинская улица,614030,58.1056839,56.3184722
10,Уинская улица,614051,58.0052046,56.3058873
143,Промышленная улица,614055,57.9145016,56.1725288
17,улица Архитектора Свиязева,614088,57.9635298,56.1899133
38А,Чердынская улица,614088,57.9655449,56.1799010
24,улица Архитектора Свиязева,614088,57.9636091,56.1860530
38,Чердынская улица,614088,57.9649974,56.1811718
71А,улица Старцева,614083,57.9877265,56.2825740
31,улица Докучаева,614031,58.0395326,56.1551398
27,улица Докучаева,614031,58.0445457,56.1402855
60,улица Докучаева,614031,58.0376241,56.1694303
19,улица Папанинцев,614046,57.9999844,56.1775909
21,улица Папанинцев,614046,57.9995618,56.1773854
26,улица Федосеева,614101,58.0022472,55.9378865
4,Буксирная улица,614023,58.0329553,56.0454789
13,Парковый проспект,614097,57.9984803,56.1499313
25А,Парковый проспект,614097,57.9992863,56.1580411
25Б,Парковый проспект,614097,57.9989818,56.1582114
25В,Парковый проспект,614097,57.9988753,56.1591458
40,Парковый проспект,614097,57.9978447,56.1593290
12,улица Комиссара Пожарского,614097,57.9959521,56.1542965
28А,Парковый проспект,614097,57.9975032,56.1514381
25Г,Парковый проспект,614097,57.9987798,56.1606219
80,3-я Набережная улица,614018,58.0201221,56.1407617
80А,3-я Набережная улица,614018,58.0226347,56.1355566
68А,улица Татьяны Барамзиной,614046,57.9996640,56.1819275
105,Гайвинская улица,614030,58.1219771,56.2791533
16,улица Малкова,614087,57.9945114,56.1929166
8,улица Академика Вавилова,614087,57.9942097,56.1978809
33,Подольская улица,614051,58.0033784,56.3068072
41,Воронежская улица,614034,58.0399575,55.8496729
28А,улица Малкова,614087,57.9976932,56.1926944
8А,улица Адмирала Старикова,614026,58.1436302,56.3849183
4,Монастырская улица,614990,58.0178432,56.2405038
2 к1,Монастырская улица,614000,58.0207122,56.2514751
15,улица Букирева,614990,58.0084400,56.1882672
22,улица Гусарова,614090,57.9637300,56.2143127
17,Тбилисская улица,614090,57.9644012,56.2119024
77А,улица Ленина,614068,58.0052328,56.2002487
113,Петропавловская улица,614068,58.0062851,56.1979072
12,проезд Якуба Коласа,614068,58.0085488,56.2011846
8,улица Гусарова,614021,57.9636986,56.2219304
92,улица Ленина,614068,58.0053386,56.2077963
66,улица Мира,614066,57.9801236,56.1908878
147,улица Героев Хасана,614025,57.9462304,56.2701464
26,улица Сергея Данщина,614990,58.0067557,56.1833177
28,улица Сергея Данщина,614068,58.0062043,56.1836646
70Б,бульвар Гагарина,614077,57.9950788,56.2866664
84А,улица Крупской,614077,57.9946003,56.2957919
97,бульвар Гагарина,614077,57.9945662,56.2889469
85,бульвар Гагарина,614077,57.9972303,56.2881292
73,Пушкарская улица,614077,57.9977547,56.3009256
22,Рабоче-Крестьянская улица,614007,58.0046518,56.2714196
12,улица Революции,614007,58.0053168,56.2690997
72А,улица Николая Островского,614002,58.0023044,56.2706392
72А,улица Николая Островского,614002,58.0022091,56.2713320
16,Фонтанная улица,614000,58.0019543,56.2713330
60,улица Николая Островского,614007,58.0072533,56.2650474
6,Рабоче-Крестьянская улица,614007,58.0073780,56.2699068
8,улица Снайперов,614066,57.9856522,56.2065998
26,улица Связистов,614094,57.9952798,56.2211693
24,улица Связистов,614094,57.9954853,56.2218314
22,улица Связистов,614094,57.9957361,56.2229289
49,шоссе Космонавтов,614094,57.9970685,56.2243021
51,шоссе Космонавтов,614094,57.9966235,56.2233130
53,шоссе Космонавтов,614094,57.9962506,56.2221810
2,улица Сивкова,614022,57.9833705,56.2227195
15,Стахановская улица,614022,57.9848327,56.2193657
5,Стахановская улица,614022,57.9847829,56.2237444
26,Самолётная улица,614022,57.9837129,56.2249039
47,улица Кочегаров,614031,58.0339935,56.1297718
14,улица Лепешинской,614067,58.0411673,56.1036823
83,Комсомольский проспект,614010,57.9892486,56.2521792
2А,Монастырская улица,614000,58.0220310,56.2575948
1к1,Монастырская улица,614000,58.0213183,56.2547978
3А литБ,Монастырская улица,614000,58.0210091,56.2540954
2Б,Монастырская улица,614000,58.0202361,56.2497338
2,улица Максима Горького,614000,58.0190982,56.2493860
19,2-я Шоссейная улица,614068,58.0034078,56.1834996
44,Транспортная улица,614031,58.0336073,56.1310979
17А,улица Татьяны Барамзиной,614046,58.0033864,56.1789988
57,Новозвягинская улица,614014,58.0685796,56.3346796
17,Холмогорская улица,614083,57.9821835,56.2880686
1,Запорожская улица,614083,57.9864290,56.2905268
17,Иньвенская улица,614056,58.0642207,56.3594804
13,Целинная улица,614056,58.0633589,56.3623523
12,Баранчинская улица,614056,58.0682284,56.3539667
10,Баранчинская улица,614056,58.0675777,56.3548191
29,улица 25 Октября,614000,58.0097456,56.2532063
11,Нейвинская улица,614025,57.9722034,56.2683176
14А,Нейвинская улица,614025,57.9711805,56.2725858
49А,Коломенская улица,614025,57.9785123,56.2781732
30Б,Краснофлотская улица,614016,57.9966116,56.2415699
3,Пионерская улица,614016,57.9987225,56.2459091
30,Комсомольский проспект,614000,58.0101197,56.2405207
88,Екатерининская улица,614000,58.0097860,56.2416908
78,Пермская улица,614000,58.0111241,56.2432085
45,улица Полины Осипенко,614039,57.9980540,56.2555452
69/1,улица Куйбышева,614016,57.9966586,56.2432082
62,улица Куйбышева,614016,57.9996809,56.2428452
84,Екатерининская улица,614000,58.0100118,56.2424893
27,улица Пушкина,614000,58.0074093,56.2457507
32,Комсомольский проспект,614000,58.0096873,56.2409325
2,улица Льва Шатрова,614064,57.9873261,56.2589035
9,Пионерская улица,614039,57.9974030,56.2474184
5А,Пионерская улица,614039,57.9983420,56.2465208
7А,Пионерская улица,614039,57.9980024,56.2468430
25,улица Пушкина,614000,58.0083203,56.2467285
12А,улица Газеты Звезда,614000,58.0150147,56.2412298
86,Пермская улица,614000,58.0106423,56.2417576
84А,Екатерининская улица,614000,58.0102538,56.2422244
68,улица Плеханова,614081,57.9965869,56.2088999
87,Петропавловская улица,614000,58.0103886,56.2166182
11,улица Связистов,614094,57.9953899,56.2253267
131,улица Луначарского,614068,58.0024298,56.2143381
3,улица Горняков,614094,57.9959322,56.2298239
5,улица Овчинникова,614094,57.9950083,56.2304876
76,Монастырская улица,614000,58.0130267,56.2155015
7,улица Блюхера,614081,57.9955803,56.2124987
93,Петропавловская улица,614000,58.0093347,56.2124527
9,улица Голева,614081,57.9984989,56.2133759
4,улица Котовского,614094,57.9932412,56.2317134
160,Пермская улица,614068,58.0071212,56.2245788
116В,улица Пушкина,614068,58.0006801,56.2194832
10,улица Овчинникова,614094,57.9952396,56.2291690
5,улица Голева,614081,57.9993851,56.2128392
23,улица Челюскинцев,614094,57.9861879,56.2313016
7,улица Овчинникова,614094,57.9945379,56.2309040
30,улица Мильчакова,614094,57.9890614,56.2334309
19,Вильвенская улица,614094,57.9914079,56.2341086
5,улица Мильчакова,614094,57.9966476,56.2266215
19,улица Голева,614081,57.9957437,56.2149981
23,улица Мильчакова,614094,57.9930171,56.2308707
22,улица Мильчакова,614094,57.9918173,56.2298644
10,улица Голева,614081,57.9972848,56.2128606
1,улица Голева,614081,58.0002991,56.2124584
67,улица Крисанова,614081,58.0002376,56.2144569
15,улица Мильчакова,614094,57.9954642,56.2278373
32,улица Мильчакова,614094,57.9883571,56.2332114
61,улица Плеханова,614081,57.9981305,56.2079593
4,улица Крылова,614068,58.0010319,56.2211781
5Б,улица Голева,614081,57.9997082,56.2148763
116Б,улица Пушкина,614068,58.0005890,56.2201298
2,улица Котовского,614094,57.9935052,56.2325107
2,улица Овчинникова,614094,57.9958695,56.2303422
73,улица Крисанова,614081,57.9979881,56.2165968
80,шоссе Космонавтов,614081,57.9953583,56.2143289
11,улица Голева,614081,57.9980284,56.2138462
108А,улица Пушкина,614068,58.0014109,56.2199690
29В,улица Солдатова,614111,57.9703949,56.2305968
47,улица Никулина,614021,57.9653274,56.2258049
17,улица Солдатова,614021,57.9654709,56.2251050
35,улица Карпинского,614095,57.9831705,56.2181449
78,улица Карпинского,614012,57.9761456,56.2122018
28,Самолётная улица,614022,57.9833706,56.2239859
21,Вижайская улица,614021,57.9645566,56.2320961
48,улица Емельяна Ярославского,614021,57.9681966,56.2292255
145,улица Куйбышева,614021,57.9664037,56.2443759
101,улица Карпинского,614012,57.9661224,56.2016697
166,шоссе Космонавтов,614065,57.9670885,56.1458083
11/2,улица Геологов,614088,57.9632006,56.1718282
166А,шоссе Космонавтов,614065,57.9683010,56.1454004
166Б,шоссе Космонавтов,614065,57.9677624,56.1449433
54,улица Веры Засулич,614012,57.9699395,56.2001066
5,1-я Ипподромная улица,614065,57.9690802,56.1444437
7,улица Давыдова,614036,57.9745203,56.1621736
14,4-я Ипподромная улица,614065,57.9659008,56.1432098
47,улица Космонавта Леонова,614088,57.9651527,56.1780871
166В,шоссе Космонавтов,614065,57.9675165,56.1442335
112,улица Карпинского,614012,57.9689267,56.2029089
22А,Чердынская улица,614088,57.9671657,56.1884396
27,улица Одоевского,614036,57.9772057,56.1773491
92,улица Мира,614036,57.9737154,56.1613940
26,Чердынская улица,614088,57.9657370,56.1854228
1,проспект Декабристов,614012,57.9789989,56.2137405
38,улица Маршала Рыбалко,614101,58.0057218,55.9538490
4,улица Академика Вавилова,614087,57.9924619,56.1986529
89А,улица Ленина,614960,58.0042364,56.1871257
6,улица Татьяны Барамзиной,614046,58.0021476,56.1626387
16,Светлогорская улица,614023,58.0418514,56.0327401
6,Станционная улица,614023,58.0476265,56.0217439
6,улица Советской Армии,614066,57.9872097,56.1921699
4,улица Мира,614095,57.9857932,56.2099786
2,Талицкий переулок,614047,58.0881691,56.3889102
18,Можайская улица,614047,58.0879281,56.3908852
23,улица Генерала Черняховского,614047,58.0883099,56.3915806
19,улица Генерала Черняховского,614047,58.0889916,56.3901750
21,улица Генерала Черняховского,614047,58.0887779,56.3910694
8,улица Бушмакина,614047,58.0878671,56.3896335
4,Талицкий переулок,614047,58.0885933,56.3895757
45,улица Генерала Черняховского,614104,58.0836677,56.4039119
12,Можайская улица,614047,58.0875665,56.3902174
28А,улица Академика Веденеева,614038,58.1097963,56.3722648
287А,Соликамская улица,614054,58.0863167,56.3481726
80А,улица Академика Веденеева,614038,58.1053017,56.3814322
28Б,улица Академика Веденеева,614038,58.1094567,56.3715933
4А,Зюкайская улица,614038,58.1113512,56.3759269
291,Соликамская улица,614047,58.0929524,56.3539186
23,Ольховская улица,614047,58.0937333,56.3782025
10,Первомайская улица,614038,58.1152161,56.3665941
21,Ольховская улица,614047,58.0941529,56.3775694
19,Ольховская улица,614047,58.0942713,56.3768314
252Н,Соликамская улица,614054,58.0743804,56.3500512
5,Газонная улица,614038,58.1096290,56.3786870
293,Соликамская улица,614047,58.0935619,56.3539088
23,Волховская улица,614038,58.1119283,56.3730398
13,улица Чернышевского,614002,57.9977570,56.2690149
19,улица Чернышевского,614002,57.9969518,56.2651396
163,Екатерининская улица,614068,58.0037617,56.2139145
76,шоссе Космонавтов,614081,57.9958823,56.2155974
74,шоссе Космонавтов,614081,57.9960633,56.2163990
9А,улица Голева,614081,57.9987918,56.2151421
70,улица Ленина,614990,58.0079596,56.2242893
6,улица Левченко,614095,57.9891937,56.2198286
47,улица Льва Толстого,614095,57.9877623,56.2136771
11/1,проспект Декабристов,614022,57.9779417,56.2082364
19А,улица Мильчакова,614094,57.9938468,56.2311386
19,улица Мильчакова,614094,57.9942597,56.2298105
11,улица Овчинникова,614094,57.9935437,56.2263732
26,улица Мильчакова,614094,57.9903458,56.2310884
28,улица Овчинникова,614094,57.9950015,56.2227170
18,улица Овчинникова,614094,57.9946937,56.2254096
6,Телеграфная улица,614058,58.0023558,56.1544257
3,Алтайская улица,614058,58.0026142,56.1369584
16,улица 9 Января,614058,58.0074102,56.1417753
5,Подлесная улица,614097,57.9930044,56.1403338
17,Серпуховская улица,614025,57.9692469,56.2649143
7,улица Маяковского,614058,58.0063520,56.1262296
12,улица Красина,614058,58.0064555,56.1238467
13,улица Сергея Есенина,614058,58.0043249,56.1181291
43,улица Маяковского,614058,58.0019171,56.1087074
1,улица Маяковского,614058,58.0066403,56.1272185
22,улица Маяковского,614058,58.0049824,56.1177203
11,улица Танкистов,614095,57.9882001,56.2149527
7,Янаульская улица,614030,58.1030097,56.3105551
34,Янаульская улица,614030,58.0966550,56.2992308
26,Барнаульская улица,614030,58.1092349,56.3076519
93,улица Кабельщиков,614112,58.1140647,56.2892010
41,улица Вильямса,614030,58.1042489,56.3009595
6,улица Карбышева,614030,58.1135811,56.3191377
70,Новогайвинская улица,614030,58.1094298,56.3194070
19,улица Репина,614030,58.1131651,56.3099131
6,улица Маршала Толбухина,614030,58.1038743,56.3058418
10,Барнаульская улица,614030,58.1077081,56.3074981
15,улица Маршала Толбухина,614030,58.1013222,56.3031262
38,Янаульская улица,614030,58.0960604,56.2983182
21А,улица Кабельщиков,614030,58.1003737,56.2924396
29/1,Янаульская улица,614030,58.0967718,56.3030859
1 к4,улица Писарева,614030,58.1037272,56.3134589
71,улица Репина,614112,58.1126193,56.2815327
28,Гайвинская улица,614030,58.1059363,56.2981190
36,Янаульская улица,614030,58.0963614,56.2987719
26,Янаульская улица,614030,58.1000443,56.3036895
45А,улица Карбышева,614030,58.1095088,56.3096201
20/2,улица Вильямса,614030,58.1026569,56.2957692
45,улица Карбышева,614030,58.1094435,56.3100703
74,шоссе Космонавтов,614081,57.9957830,56.2137982
5А,улица Голева,614081,57.9997314,56.2143378
12А,улица Голева,614081,57.9960391,56.2140397
13,улица Голева,614081,57.9974863,56.2142879
70А,улица Плеханова,614081,57.9953964,56.2096012
66,улица Плеханова,614081,57.9973617,56.2088675
46,улица Плеханова,614068,58.0019327,56.2081385
2А,улица Голева,614081,58.0006099,56.2099474
104,Шоссе Космонавтов,614081,57.9959877,56.2040193
2,улица Голева,614081,58.0008019,56.2107695
9А,Грузинская улица,614081,58.0014792,56.2067518
23,улица Попова,614068,58.0067008,56.2267283
69,улица Луначарского,614000,58.0075515,56.2415205
25,улица Клары Цеткин,614010,57.9901740,56.2397858
4,Шарташская улица,614010,57.9866638,56.2415525
2,Шарташская улица,614010,57.9865503,56.2423313
109,улица Куйбышева,614010,57.9847756,56.2472589
11,улица Героев Хасана,614010,57.9905480,56.2577429
9,Рабочая улица,614087,57.9952454,56.1988575
32,улица Чернышевского,614010,57.9948444,56.2586165
31А,Комсомольский проспект,614000,58.0072938,56.2420302
56,Хабаровская улица,614067,58.0494579,56.0870950
125,Ветлужская улица,614067,58.0454766,56.0834512
2,Красноводская улица,614067,58.0472185,56.0920778
20,улица Каляева,614109,58.0292640,56.0183099
10,Судозаводская улица,614023,58.0328515,56.0324177
28,Судозаводская улица,614023,58.0360441,56.0316634
26,Судозаводская улица,614023,58.0355851,56.0325395
6,Сочинская улица,614031,58.0378751,56.1254651
26А/1,улица Солдатова,614111,57.9720975,56.2311605
15/6А,Парковый проспект,614097,57.9987605,56.1536409
8,Деревообделочная улица,614058,58.0058539,56.1507193
33,Трамвайная улица,614058,58.0018145,56.1454584
5/2,улица Сергея Есенина,614058,58.0019873,56.1180764
28,улица Дзержинского,614068,58.0080471,56.1778286
27,улица Сухобруса,614068,58.0076498,56.1806552
6 к2,улица Генкеля,614068,58.0054154,56.1827394
217,шоссе Космонавтов,614065,57.9693563,56.1530092
213,шоссе Космонавтов,614065,57.9702537,56.1541342
215,шоссе Космонавтов,614065,57.9698027,56.1535478
136,улица Мира,614065,57.9694856,56.1546049
8,улица Кочегаров,614067,58.0372119,56.1092624
53А,Уральская улица,614107,58.0316675,56.3072082
12,улица Гальперина,614042,57.9925195,55.9246867
13,улица Газеты Звезда,614000,58.0135040,56.2414848
31,улица Ленина,614000,58.0128914,56.2422002
15,улица Овчинникова,614094,57.9940037,56.2247422
17,улица Овчинникова,614094,57.9940969,56.2236000
27В,улица Докучаева,614031,58.0457606,56.1394647
97,Ласьвинская улица,614042,58.0110906,55.9003200
34,улица Костычева,614031,58.0375099,56.1310039
37,улица Костычева,614031,58.0375642,56.1329033
27,улица Машинистов,614067,58.0399714,56.1112146
65,Пермская улица,614000,58.0110318,56.2404113
21,улица Каляева,614109,58.0281416,56.0185592
19,улица Каляева,614109,58.0279050,56.0196225
17,улица Каляева,614109,58.0272887,56.0189975
32А,улица Калинина,614109,58.0268024,56.0175171
30А,улица Калинина,614109,58.0264459,56.0185659
32,улица Калинина,614109,58.0268517,56.0163755
34,улица Калинина,614109,58.0272028,56.0166403
30,улица Калинина,614109,58.0261388,56.0164576
16,Капитанская улица,614109,58.0257089,56.0174946
27,улица Танцорова,614109,58.0261805,56.0193613
4,Нижнекурьинская улица,614109,58.0233688,56.0171091
75,Пензенская улица,614042,58.0202459,55.9430981
55А,Пензенская улица,614042,58.0148023,55.9339944
88,Ласьвинская улица,614042,58.0208765,55.9286281
2,улица Маршала Рыбалко,614101,57.9969426,55.9387962
13,улица Федосеева,614101,57.9989319,55.9435820
60А,Ласьвинская улица,614042,58.0087655,55.9339632
30А,улица Адмирала Ушакова,614023,58.0347196,56.0225717
25,улица Грачёва,614107,58.0282764,56.3067700
98,Ласьвинская улица,614042,58.0236479,55.9089573
106,Ласьвинская улица,614042,58.0230897,55.8822202
111,улица Маршала Рыбалко,614032,58.0153519,55.9781436
101,улица Маршала Рыбалко,614032,58.0139038,55.9733947
109Б,улица Маршала Рыбалко,614032,58.0164174,55.9743522
96,Магистральная улица,614032,58.0170779,55.9695461
63,шоссе Космонавтов,614081,57.9932639,56.2109466
4Б,Холмогорская улица,614083,57.9860406,56.2883306
63А,улица Плеханова,614081,57.9981452,56.2061322
15,улица Шишкина,614113,58.0060342,55.9590624
21,Вильвенская улица,614094,57.9905814,56.2345895
37,улица Мильчакова,614094,57.9899257,56.2346089
33,улица Мильчакова,614094,57.9902612,56.2340452
51,Фоминская улица,614058,58.0095326,56.0690081
42,улица Докучаева,614031,58.0358562,56.1432511
31 к1,улица Докучаева,614031,58.0370585,56.1569519
12,улица Дедюкина,614013,58.0466114,56.2245092
55,Пермская улица,614000,58.0116919,56.2435519
61,Пермская улица,614000,58.0112474,56.2421798
59,Пермская улица,614000,58.0113763,56.2425724
53А,Екатерининская улица,614990,58.0114871,56.2502925
15,2-я Шоссейная улица,614068,58.0034221,56.1873039
25,улица Попова,614068,58.0058399,56.2278316
63,улица Куйбышева,614016,57.9989628,56.2416037
10,улица Льва Толстого,614095,57.9877169,56.2199606
61А,шоссе Космонавтов,614081,57.9932477,56.2124209
61А,шоссе Космонавтов,614081,57.9932482,56.2125983
23,улица Адмирала Макарова,614023,58.0317917,56.0265220
5/1,Байкальская улица,614023,58.0304562,56.0273629
68,улица Космонавта Леонова,614088,57.9624066,56.1789734
48,улица Архитектора Свиязева,614088,57.9603600,56.1701902
110,улица Карпинского,614012,57.9698337,56.2037112
66,Закамская улица,614113,58.0071906,55.9647229
132,Верхнемуллинская улица,614065,57.9433669,56.1414269
124,Верхнемуллинская улица,614500,57.9425411,56.1511351
89А,улица Ленина,614068,58.0050333,56.1867804
89/3,улица Ленина,614068,58.0048963,56.1836423
31Б,улица Газеты Звезда,614000,58.0080184,56.2457850
31А,улица Газеты Звезда,614000,58.0081872,56.2461485
35,Закамская улица,614101,58.0029157,55.9548440
8,улица Александра Невского,610101,57.9990087,55.9449705
39,Закамская улица,614113,58.0043587,55.9567312
46,улица Куйбышева,614000,58.0051938,56.2376212
5Б,улица Старцева,614051,58.0066006,56.3138321
30А,улица Мильчакова,614094,57.9887354,56.2323851
3,Кировоградская улица,614042,57.9926455,55.9389616
44,улица Костычева,614031,58.0344873,56.1397683
20,улица Гусарова,614090,57.9639573,56.2159042
15,улица Менжинского,614026,58.1208266,56.3807725
32,улица Менжинского,614026,58.1197745,56.3789590
8,Кавказская улица,614026,58.1212388,56.3800856
34,улица Менжинского,614026,58.1196457,56.3805614
22А,Светлогорская улица,614023,58.0393792,56.0252926
63,Пермская улица,614000,58.0111196,56.2415464
74,Пермская улица,614000,58.0113418,56.2439126
61В,Пермская улица,614000,58.0114600,56.2421054
63/1,Пермская улица,614000,58.0113738,56.2407848
76,Екатерининская улица,614000,58.0104696,56.2439464
80,Пермская улица,614000,58.0110253,56.2428711
67,Пермская улица,614000,58.0107809,56.2405532
74,Екатерининская улица,614000,58.0106202,56.2445285
74Б,Екатерининская улица,614000,58.0105539,56.2441503
76А,Пермская улица,614000,58.0107509,56.2437809
82,Пермская улица,614000,58.0109299,56.2424564
80,Екатерининская улица,614000,58.0102786,56.2433251
82,Екатерининская улица,614000,58.0101767,56.2428132
84,Пермская улица,614000,58.0108311,56.2420391
27,улица Окулова,614000,58.0137513,56.2175024
136А,улица Мира,614065,57.9699175,56.1550826
166/1,шоссе Космонавтов,614065,57.9674612,56.1458005
124,Пермская улица,614037,58.0084392,56.2336438
126,Пермская улица,614037,58.0084615,56.2323523
126А,Пермская улица,614037,58.0082859,56.2314822
128,Пермская улица,614037,58.0081433,56.2305695
128А,Пермская улица,614037,58.0080273,56.2297882
18,улица Попова,614037,58.0074630,56.2296594
18А,улица Попова,614037,58.0078639,56.2292031
72Б,улица Ленина,614068,58.0076090,56.2230606
10А,Стахановская улица,614022,57.9870351,56.2185210
18,улица Генерала Панфилова,614034,58.0261675,55.8438544
16,улица Генерала Панфилова,614034,58.0262319,55.8428663
3/1,Глазовская улица,614034,58.0266119,55.8289891
1,Глазовская улица,614034,58.0265591,55.8285955
2,улица Генерала Панфилова,614034,58.0276000,55.8284427
22,Илецкая улица,614111,57.9719579,56.2270290
1А,Трамвайная улица,614058,58.0016751,56.1331380
12,улица Сухобруса,614068,58.0071363,56.1781351
16,улица Дзержинского,614068,58.0081730,56.1796331
1,улица Василия Васильева,614033,57.9598824,56.2108236
10,улица Куйбышева,614000,58.0127949,56.2329459
1,Сибирская улица,614000,58.0173461,56.2422904
4,Сибирская улица,614000,58.0174835,56.2434952
25,Петропавловская улица,614000,58.0150770,56.2443537
6,улица Максима Горького,614000,58.0185567,56.2496872
8,улица Максима Горького,614000,58.0183996,56.2499333
1А,Глазовская улица,614034,58.0265419,55.8313029
4А,улица Генерала Панфилова,614034,58.0270690,55.8310374
8Б,улица Генерала Панфилова,614034,58.0263193,55.8370113
12,улица Генерала Панфилова,614034,58.0266393,55.8399380
10,улица Генерала Панфилова,614034,58.0265011,55.8381701
8А,улица Генерала Панфилова,614034,58.0264607,55.8359911
11/1,Глазовская улица,614034,58.0255971,55.8366175
3,Глазовская улица,614034,58.0268193,55.8297532
8,улица Генерала Панфилова,614034,58.0270017,55.8367313
6А,улица Генерала Панфилова,614034,58.0268441,55.8329546
7,Глазовская улица,614034,58.0262857,55.8330238
14,улица Генерала Панфилова,614034,58.0263905,55.8417335
41,Воронежская улица,614034,58.0354767,55.8401992
9,Глазовская улица,614034,58.0262976,55.8349006
38Б,улица Газеты Звезда,614000,58.0071795,56.2489337
64,улица Максима Горького,614007,58.0081325,56.2608600
108,улица Спешилова,614068,58.0389191,56.2047092
108А,улица Спешилова,614068,58.0390716,56.2035638
108Б,улица Спешилова,614068,58.0388592,56.2027658
15/2,улица Старцева,614051,58.0012831,56.3123971
2Г,Холмогорская улица,614083,57.9846244,56.2819298
2Д,Холмогорская улица,614083,57.9849453,56.2822045
2Е,Холмогорская улица,614083,57.9849430,56.2831448
72А,улица Ленина,614068,58.0078703,56.2217275
28,улица Александра Щербакова,614026,58.1263684,56.3830880
3,Химградская улица,614042,58.0012190,55.9309050
12/2,Кировоградская улица,614101,57.9944188,55.9469752
75,Пензенская улица,614032,58.0181978,55.9442507
1/2,Парковый проспект,614015,57.9980791,56.1357266
36,улица Александра Щербакова,614026,58.1269371,56.3860145
34,улица Александра Щербакова,614026,58.1267206,56.3855204
38,улица Александра Щербакова,614026,58.1270030,56.3866066
19,Ангарская улица,614018,58.0459192,56.2822817
11,Ангарская улица,614018,58.0451342,56.2808227
102/3,улица Спешилова,614068,58.0379595,56.2066861
33А к2,улица Докучаева,614031,58.0428232,56.1674739
33А к1,улица Докучаева,614031,58.0401487,56.1648321
33А,улица Докучаева,614031,58.0400529,56.1640304
33 сА1,улица Докучаева,614031,58.0401840,56.1667463
83,улица Марии Загуменных,614067,58.0519386,56.1016745
40/1,улица Промучасток,614023,58.0371215,56.0682187
40,улица Промучасток,614023,58.0385631,56.0641735
4,Гаревая улица,614023,58.0611035,56.0520907
41,2-я Гаревая улица,614023,58.0580355,56.0501979
43,2-я Гаревая улица,614023,58.0577936,56.0501188
42,улица Судостроителей,614023,58.0606929,56.0323286
40 к1,улица Промучасток,614023,58.0388779,56.0625744
3А,Светлогорская улица,614023,58.0383721,56.0506339
100А,улица Калинина,614023,58.0432519,56.0274917
2,Веслянский переулок,614023,58.0322603,56.0216365
98 к1,Ласьвинская улица,614042,58.0170381,55.9070229
98А,Ласьвинская улица,614042,58.0174577,55.9098637
100А,Ласьвинская улица,614042,58.0162106,55.9076113
102,Ласьвинская улица,614042,58.0157652,55.9064846
98,Ласьвинская улица,614042,58.0156721,55.9094412
15А,Сивашская улица,614101,58.0078283,55.9126700
17/1,Миргородская улица,614042,58.0046495,55.9132002
8,улица Гальперина,614042,57.9918322,55.9302954
6 к2,улица Гальперина,614042,57.9910851,55.9356303
6 к3,улица Гальперина,614042,57.9904103,55.9358178
6А,улица Гальперина,614042,57.9910136,55.9369704
41А,Закамская улица,614113,58.0051410,55.9572734
6,Железнодорожная улица,614105,58.0529480,56.5979672
7,улица Пушкина,614105,58.0535041,56.6016912
8,улица Пушкина,614105,58.0533381,56.6033355
10,улица Пушкина,614105,58.0535053,56.6029559
2,Транспортная улица,614105,58.0532623,56.5866290
9А,Железнодорожная улица,614026,58.1406511,56.3818736
14,Дачная улица,614026ь,58.1334253,56.3735267
14Б,Дачная улица,614026,58.1330973,56.3725631
21,улица Серго,614026,58.1214554,56.3986891
26,улица Фрунзе,614026,58.1233752,56.3993482
24,Верхне-Волжская улица,614026,58.1231601,56.4010307
36,Верхне-Волжская улица,614026,58.1216575,56.4005911
7,Омская улица,614056,58.0604917,56.3412306
9,Омская улица,614056,58.0607146,56.3414243
35 к16,улица 1905 года,614014,58.0449062,56.3145682
35 к15,улица 1905 года,614014,58.0490355,56.3182422
1,улица Смирнова,614014,58.0389440,56.3092470
1А,улица Смирнова,614014,58.0392863,56.3097600
1Б,улица Смирнова,614014,58.0396781,56.3100857
119,Пролетарская улица,614014,58.0278830,56.3282393
22,Виноградная улица,614089,57.9411262,56.4233457
30,Виноградная улица,614089,57.9409908,56.4240303
26,Виноградная улица,614089,57.9402605,56.4230117
24,Виноградная улица,614089,57.9399562,56.4228178
28/1,Виноградная улица,614089,57.9407291,56.4235325
29,Ландышевая улица,614089,57.9432610,56.4224148
1,Ореховая улица,614089,57.9443373,56.4169711
85,Ясеневая улица,614089,57.9335328,56.4072662
21,Ландышевая улица,614089,57.9435279,56.4206484
46,Кленовая улица,614089,57.9389292,56.4140101
70,Зимняя улица,614089,57.9340048,56.4175646
7,Ясеневая улица,614089,57.9440320,56.4181734
50,Кленовая улица,614089,57.9385033,56.4137422
67,Грибная улица,614089,57.9352085,56.4217680
29,Ландышевая улица,614089,57.9433699,56.4223255
191,Осенняя улица,614089,57.9371208,56.4171468
194,Цветочная улица,614089,57.9339941,56.4121662
58,Осенняя улица,614089,57.9363840,56.4173785
18,Ясеневая улица,614089,57.9420045,56.4160543
70,Ореховая улица,614089,57.9367891,56.4094015
72,Ясеневая улица,614089,57.9362293,56.4100878
71,Кленовая улица,614089,57.9361392,56.4107548
20,Ясеневая улица,614089,57.9417341,56.4150712
86,Зимняя улица,614089,57.9363147,56.4190576
185,Осенняя улица,614089,57.9343292,56.4153161
58,Летняя улица,614089,57.9350382,56.4200729
59,Ореховая улица,614089,57.9366870,56.4079019
45,Кленовая улица,614089,57.9388500,56.4129107
62,Летняя улица,614089,57.9356968,56.4204147
61,Ясеневая улица,614089,57.9364399,56.4091612
123,Бродовское кольцо,614089,57.9354912,56.4143192
57,Ореховая улица,614089,57.9370662,56.4081689
68,Ясеневая улица,614089,57.9365866,56.4103474
108,Ореховая улица,614089,57.9311706,56.4062907
89,Ясеневая улица,614089,57.9313049,56.4069789
140,Ореховая улица,614089,57.9274031,56.4087757
119,Ясеневая улица,614089,57.9276540,56.4096107
200,Цветочная улица,614089,57.9313004,56.4111755
21,улица Революции,614007,58.0059163,56.2558350
55А,улица Героев Хасана,614064,57.9781970,56.2607259
105Е,улица Героев Хасана,614025,57.9626051,56.2762754
64/7,улица Героев Хасана,614025,57.9646335,56.2591165
98,улица Героев Хасана,614025,57.9537658,56.2643692
98 к6,улица Героев Хасана,614025,57.9528946,56.2590979
98 к5,улица Героев Хасана,614025,57.9527786,56.2624991
100,улица Героев Хасана,614025,57.9516989,56.2636623
49,1-я Бахаревская улица,614033,57.9523802,56.2333655
24,Таврическая улица,614094,57.9921266,56.2264977
20,Таврическая улица,614094,57.9925362,56.2279467
18,Таврическая улица,614094,57.9928346,56.2283777
22,Таврическая улица,614094,57.9922919,56.2271475
28А,улица Мильчакова,614094,57.9893649,56.2322738
10,Маршрутная улица,614010,57.9829141,56.2415388
11,Маршрутная улица,614010,57.9816593,56.2420070
104 литАБ,улица Пушкина,614068,58.0019437,56.2226311
92,улица Мира,614036,57.9756996,56.1750739
33,улица Подводников,614012,57.9751173,56.2048946
92,улица Советской Армии,614012,57.9740606,56.2070306
69,улица Мира,614036,57.9731156,56.1700603
4,улица Челюскинцев,614094,57.9930447,56.2199466
33,Кронштадтская улица,614081,57.9983747,56.2050069
1,улица Татьяны Барамзиной,614046,58.0041854,56.1638298
6 к14,улица Гальперина,614101,57.9855738,55.9345140
6 к16,улица Гальперина,614101,57.9850459,55.9340059
6 к12,улица Гальперина,614101,57.9850859,55.9331229
164,Цветочная улица,614089,57.9375401,56.4145384
2 к2,Алтайская улица,614058,58.0028440,56.1420041
2 к3,Алтайская улица,614058,58.0033214,56.1437489
2,Алтайская улица,614058,58.0027853,56.1437925
2 к4,Алтайская улица,614058,58.0031286,56.1446433
33 к8,Трамвайная улица,614058,58.0020079,56.1436494
71,улица Восстания,614014,58.0338705,56.3239528
21,улица Докучаева,614031,58.0384342,56.1380658
9,улица Солдатова,614090,57.9646870,56.2256464
45 к1,улица Кочегаров,614067,58.0401980,56.0928752
11/1,Краснофлотская улица,614016,58.0007014,56.2370803
4А,Маршрутная улица,614010,57.9827528,56.2372271
40,улица Максима Горького,614000,58.0128640,56.2551692
115А,улица Куйбышева,614111,57.9788316,56.2452637
4,Пионерская улица,614039,57.9983336,56.2471746
2,Пионерская улица,614039,57.9986444,56.2469167
30,улица Липатова,614032,58.0224519,55.9545554
4,улица Крисанова,614000,58.0122340,56.2103013
4А,улица Зенкова,614014,58.0339572,56.3225616
36,улица Карпинского,614022,57.9853760,56.2164906
6,Деревообделочная улица,614058,58.0072191,56.1469957
6 к1,Деревообделочная улица,614058,58.0072876,56.1481196
6 к2,Деревообделочная улица,614058,58.0068485,56.1477462
196,Бродовское кольцо,614089,57.9283766,56.4241382
4В,Холмогорская улица,614083,57.9859554,56.2853208
118,улица Карпинского,614012,57.9665512,56.2005245
18А,Чердынская улица,614012,57.9668522,56.1956671
10,улица Сусанина,614012,57.9664191,56.1971348
13/1,Чердынская улица,614012,57.9675182,56.1915862
8Б,улица Василия Васильева,614025,57.9499506,56.2554622
61,улица Крисанова,614068,58.0019173,56.2154121
50,3-я Набережная улица,614013,58.0205486,56.1561532
11,улица Шишкина,614101,58.0056205,55.9607832
82,Ореховая улица,614089,57.9359313,56.4081271
1,улица Крылова,614068,58.0013521,56.2218711
1А,улица Данщина,614068,58.0130451,56.1817700
43 к1,улица Дзержинского,614068,58.0074523,56.1677273
29А,улица Овчинникова,614094,57.9946952,56.2205986
175,Екатерининская улица,614081,58.0019542,56.2056909
18,Гатчинская улица,614046,57.9954652,56.1809121
41В,Кронштадтская улица,614081,57.9970239,56.2035446
9,улица Хохрякова,614068,58.0082799,56.1969965
112 к1,улица Героев Хасана,614025,57.9415450,56.2697660
7,Сельская улица,614097,58.0006863,56.1591221
1,Малая улица,614095,57.9882963,56.2269980
44,улица Веры Засулич,614012,57.9713224,56.2043125
50,улица Веры Засулич,614012,57.9704938,56.2021642
52,улица Веры Засулич,614012,57.9702313,56.2005268
48,улица Веры Засулич,614012,57.9708008,56.2026081
46,улица Веры Засулич,614012,57.9710502,56.2038704
17,Уинская улица,614051,58.0056747,56.3102702
31,улица Левченко,614095,57.9884440,56.2237829
67,Цветочная улица,614089,57.9365875,56.4132163
65,Цветочная улица,614089,57.9367864,56.4132671
16,Бродовское кольцо,614089,57.9365811,56.4159399
174,Цветочная улица,614089,57.9364568,56.4137923
51,Цветочная улица,614089,57.9383088,56.4143239
105,Бродовское кольцо,614089,57.9375848,56.4156134
111,Бродовское кольцо,614089,57.9370003,56.4150290
42,Цветочная улица,614089,57.9384831,56.4151735
166,Цветочная улица,614089,57.9373150,56.4143543
63,Цветочная улица,614089,57.9370068,56.4134461
109,Бродовское кольцо,614089,57.9371375,56.4153453
178,Цветочная улица,614089,57.9359581,56.4137357
62,Кленовая улица,614089,57.9371701,56.4124958
66А,Кленовая улица,614089,57.9365355,56.4124067
56,Кленовая улица,614089,57.9378368,56.4129067
49,Цветочная улица,614089,57.9388251,56.4143057
38,Цветочная улица,614089,57.9391893,56.4156742
40,Цветочная улица,614089,57.9388867,56.4154671
45,Цветочная улица,614089,57.9391771,56.4148666
43,Цветочная улица,614089,57.9393798,56.4149740
39,Цветочная улица,614089,57.9397698,56.4152819
37,Цветочная улица,614089,57.9399255,56.4154658
17,Бродовское кольцо,614089,57.9386561,56.4162106
18,Виноградная улица,614089,57.9413516,56.4219021
16,Виноградная улица,614089,57.9415226,56.4220104
18А,Виноградная улица,614089,57.9412223,56.4224902
16А,Виноградная улица,614089,57.9413894,56.4225858
14А,Виноградная улица,614089,57.9415836,56.4227316
12А,Виноградная улица,614089,57.9418633,56.4229461
10А,Виноградная улица,614089,57.9421292,56.4230822
1,Виноградная улица,614089,57.9428989,56.4219831
4,Цветочная улица,614089,57.9428462,56.4210328
6,Цветочная улица,614089,57.9426313,56.4208205
14,Виноградная улица,614089,57.9418538,56.4202042
16,Виноградная улица,614089,57.9416020,56.4200529
18,Цветочная улица,614089,57.9413768,56.4200053
17,Виноградная улица,614089,57.9412151,56.4209608
11,Виноградная улица,614089,57.9418454,56.4212476
21,Виноградная улица,614089,57.9405939,56.4204318
5,Бродовское кольцо,614089,57.9399741,56.4193517
26,Цветочная улица,614089,57.9406388,56.4188436
24,Цветочная улица,614089,57.9408227,56.4191824
30,Цветочная улица,614089,57.9405249,56.4179471
28,Цветочная улица,614089,57.9405636,56.4183422
20,Цветочная улица,614089,57.9411508,56.4197798
7,Цветочная улица,614089,57.9425652,56.4200120
9,Цветочная улица,614089,57.9423389,56.4198152
11,Цветочная улица,614089,57.9420878,56.4197486
13,Цветочная улица,614089,57.9419449,56.4196123
15,Цветочная улица,614089,57.9417312,56.4194345
17,Цветочная улица,614089,57.9414677,56.4192076
21,Цветочная улица,614089,57.9410222,56.4184414
23,Цветочная улица,614089,57.9409722,56.4180808
25,Цветочная улица,614089,57.9408273,56.4177583
137,Бродовское кольцо,614089,57.9339796,56.4129247
22,Кленовая улица,614089,57.9414054,56.4175600
4,Кленовая улица,614089,57.9431373,56.4194143
20,Виноградная улица,614089,57.9414520,56.4239193
7,Кленовая улица,614089,57.9428602,56.4184371
10,Цветочная улица,614089,57.9422223,56.4204864
11,Кленовая улица,614089,57.9424401,56.4181806
2,Ясеневая улица,614089,57.9436976,56.4179449
5,Кленовая улица,614089,57.9430710,56.4185287
6,Ясеневая улица,614089,57.9432362,56.4176265
2,Кленовая улица,614089,57.9433263,56.4194582
4,Ясеневая улица,614089,57.9434671,56.4177913
3,Кленовая улица,614089,57.9432479,56.4186791
20,Кленовая улица,614089,57.9414463,56.4181267
95,улица Сакко и Ванцетти,614113,58.0036109,56.3337358
2А,Боковая улица,614038,58.1163193,56.3885494
114,улица Спешилова,614013,58.0396681,56.1910769
11,улица Левченко,614095,57.9902712,56.2199406
13,улица Левченко,614095,57.9903750,56.2202942
6 к1,улица Гальперина,614042,57.9908654,55.9358996
75,Новосельская улица,614023,58.0528714,56.0466852
13,улица Веры Фигнер,614017,58.0246445,56.2865431
1,Решетниковский спуск,614068,58.0132050,56.2027613
28,улица Чернышевского,614002,57.9980482,56.2666150
15А,улица Чернышевского,614002,57.9965605,56.2670468
54А,улица Ленина,614000,58.0115915,56.2401551
54,улица Ленина,614000,58.0116497,56.2404224
56,Фоминская улица,614058,58.0108501,56.0926992
86,улица Фрезеровщиков,614060,58.0216926,56.2650853
83,улица Героев Хасана,614064,57.9745317,56.2610623
61,Ореховая улица,614089,57.9365227,56.4077840
160,Цветочная улица,614089,57.9378581,56.4147088
103,Бродовское кольцо,614089,57.9377921,56.4157733
93,Кленовая улица,614089,57.9337208,56.4091301
66,Кленовая улица,614089,57.9365459,56.4119854
107,Бродовское кольцо,614089,57.9373901,56.4154197
66Б,Кленовая улица,614089,57.9363505,56.4118415
98,Ореховая улица,614089,57.9342180,56.4070073
103А,Бродовское кольцо,614089,57.9379239,56.4154443
64,Кленовая улица,614089,57.9367768,56.4122315
42,Осенняя улица,614089,57.9347104,56.4162489
175,Осенняя улица,614089,57.9349337,56.4156429
40,Осенняя улица,614089,57.9344966,56.4161301
48,Осенняя улица,614089,57.9353460,56.4166963
44,Осенняя улица,614089,57.9349189,56.4164196
10,Виноградная улица,614089,57.9419847,56.4223076
12,Виноградная улица,614089,57.9418314,56.4222233
14,Виноградная улица,614089,57.9416792,56.4221054
2,Виноградная улица,614089,57.9431238,56.4230469
32/8,Виноградная улица,614089,57.9415542,56.4250443
32/7,Виноградная улица,614089,57.9415103,56.4249612
36,Виноградная улица,614089,57.9417951,56.4245641
4,Виноградная улица,614089,57.9428902,56.4229489
57,Ландышевая улица,614089,57.9418453,56.4309520
6А,Виноградная улица,614089,57.9425012,56.4233190
71,Ландышевая улица,614089,57.9410297,56.4349153
8А,Виноградная улица,614089,57.9423058,56.4232400
1,Кленовая улица,614089,57.9434854,56.4189295
1,Летняя улица,614089,57.9259818,56.4228719
1,Ореховая улица,614089,57.9436199,56.4154082
1,Радужный переулок,614089,57.9437839,56.4136085
1,2-й Ромашковый переулок,614089,57.9313138,56.4229789
10,Ореховая улица,614089,57.9433418,56.4159639
100,Ореховая улица,614089,57.9339375,56.4070132
100,Ясеневая улица,614089,57.9311632,56.4077607
103,Цветочная улица,614089,57.9302974,56.4108194
103,Ясеневая улица,614089,57.9295801,56.4077905
105,Цветочная улица,614089,57.9300440,56.4108206
108,Ясеневая улица,614089,57.9301635,56.4080572
11,Бродовское кольцо,614089,57.9400196,56.4181534
111А,Ореховая улица,614089,57.9272258,56.4077890
111,Ясеневая улица,614089,57.9286515,56.4086393
113,Ясеневая улица,614089,57.9284592,56.4088675
114,Ореховая улица,614089,57.9304060,56.4064849
115,Ясеневая улица,614089,57.9282669,56.4090238
117,Ясеневая улица,614089,57.9281289,56.4092414
118,Кленовая улица,614089,57.9278118,56.4120207
118,Ясеневая улица,614089,57.9290093,56.4090528
119,Кленовая улица,614089,57.9286510,56.4104511
119,Цветочная улица,614089,57.9284399,56.4125909
119А,Ясеневая улица,614089,57.9276419,56.4092667
12,2-й Ромашковый переулок,614089,57.9324926,56.4230912
12,Кленовая улица,614089,57.9423439,56.4187912
12,Осенняя улица,614089,57.9292083,56.4171514
126,Ореховая улица,614089,57.9290331,56.4072053
127,Кленовая улица,614089,57.9276971,56.4114063
127,Цветочная улица,614089,57.9276934,56.4131920
127,Ясеневая улица,614089,57.9265087,56.4106006
128,Кленовая улица,614089,57.9268503,56.4129751
128,Ясеневая улица,614089,57.9280808,56.4099816
129,Цветочная улица,614089,57.9274104,56.4135248
129,Ясеневая улица,614089,57.9262671,56.4108552
13,Зимняя улица,614089,57.9293711,56.4178084
13,Ореховая улица,614089,57.9425709,56.4128003
13,1-й Ромашковый переулок,614089,57.9286568,56.4235746
133,Кленовая улица,614089,57.9270680,56.4119438
135,Ореховая улица,614089,57.9245427,56.4110522
136,Ореховая улица,614089,57.9280583,56.4081582
137,Ореховая улица,614089,57.9244605,56.4114056
139,Ясеневая улица,614089,57.9253217,56.4119458
14,Грибная улица,614089,57.9285024,56.4230671
14,Летняя улица,614089,57.9280441,56.4214717
14,Осенняя улица,614089,57.9295149,56.4169331
14,1-й Ромашковый переулок,614089,57.9323369,56.4217234
14,2-й Ромашковый переулок,614089,57.9324992,56.4239012
140,Кленовая улица,614089,57.9259917,56.4153199
143,Ореховая улица,614089,57.9241813,56.4125590
143,Цветочная улица,614089,57.9264629,56.4157380
147,Бродовское кольцо,614089,57.9313106,56.4118354
147,Цветочная улица,614089,57.9263270,56.4164815
148,Ясеневая улица,614089,57.9258681,56.4120420
15,Бродовское кольцо,614089,57.9390142,56.4164468
15,Ореховая улица,614089,57.9425749,56.4122476
150,Ореховая улица,614089,57.9264413,56.4095935
153,Ясеневая улица,614089,57.9247839,56.4147171
155,Бродовское кольцо,614089,57.9302471,56.4127743
157,Кленовая улица,614089,57.9253516,56.4157832
15А,Ясеневая улица,614089,57.9422850,56.4149909
16,Ореховая улица,614089,57.9426142,56.4154879
164,Ореховая улица,614089,57.9249552,56.4112954
168,Ореховая улица,614089,57.9246816,56.4120892
168,Цветочная улица,614089,57.9371385,56.4142516
17,Зимняя улица,614089,57.9296284,56.4171851
17,Смородиновая улица,614089,57.9296231,56.4041137
171,Бродовское кольцо,614089,57.9284268,56.4145222
174,Ореховая улица,614089,57.9245079,56.4133792
175,Бродовское кольцо,614089,57.9280842,56.4148471
176,Цветочная улица,614089,57.9363151,56.4137094
178,Ореховая улица,614089,57.9243706,56.4142962
179,Бродовское кольцо,614089,57.9277025,56.4151516
18,Зимняя улица,614089,57.9265144,56.4211822
18,Смородиновая улица,614089,57.9296995,56.4048011
180,Бродовское кольцо,614089,57.9273338,56.4204175
183,Бродовское кольцо,614089,57.9271848,56.4158135
19,Грибная улица,614089,57.9285173,56.4221874
19,Цветочная улица,614089,57.9412603,56.4189983
191,Бродовское кольцо,614089,57.9271269,56.4173308
192,Цветочная улица,614089,57.9344102,56.4124603
2,Радужный переулок,614089,57.9430825,56.4124793
2,2-й Ромашковый переулок,614089,57.9314287,56.4239709
20А,Ясеневая улица,614089,57.9417780,56.4154255
21,Бродовское кольцо,614089,57.9382030,56.4157640
21,Ореховая улица,614089,57.9418360,56.4113152
210,Цветочная улица,614089,57.9300200,56.4118621
221,Бродовское кольцо,614089,57.9275237,56.4231614
224,Цветочная улица,614089,57.9281974,56.4135833
227,Бродовское кольцо,614089,57.9278324,56.4243585
23,Зимняя улица,614089,57.9302676,56.4170428
24,Грибная улица,614089,57.9295730,56.4220326
24,Летняя улица,614089,57.9290185,56.4206690
25,Смородиновая улица,614089,57.9284285,56.4050578
26,Кленовая улица,614089,57.9409161,56.4158288
26,Ореховая улица,614089,57.9420875,56.4132633
26,Ясеневая улица,614089,57.9413526,56.4139467
27,Ландышевая улица,614089,57.9434321,56.4219840
27,Смородиновая улица,614089,57.9281216,56.4054547
27,Утренняя улица,614089,57.9257605,56.4057784
28,Ореховая улица,614089,57.9420367,56.4129654
29,Летняя улица,614089,57.9297193,56.4192808
29,Ореховая улица,614089,57.9404777,56.4104041
29,Утренняя улица,614089,57.9255411,56.4060083
29,Ясеневая улица,614089,57.9410700,56.4126014
3,Ландышевая улица,614089,57.9442732,56.4172787
3,Ясеневая улица,614089,57.9435602,56.4171260
30,Зимняя улица,614089,57.9281312,56.4193863
31,Грибная улица,614089,57.9300338,56.4205022
31,1-й Ромашковый переулок,614089,57.9309741,56.4218509
32,Ореховая улица,614089,57.9417141,56.4120752
32,Ясеневая улица,614089,57.9408862,56.4131891
33,Грибная улица,614089,57.9303776,56.4201407
33,Ореховая улица,614089,57.9396158,56.4098741
33,Смородиновая улица,614089,57.9275074,56.4060665
33,Цветочная улица,614089,57.9402970,56.4158456
33,Ясеневая улица,614089,57.9406531,56.4123279
34,Летняя улица,614089,57.9306514,56.4191922
34,Осенняя улица,614089,57.9315725,56.4146150
34,Утренняя улица,614089,57.9247375,56.4085857
35,Зимняя улица,614089,57.9314726,56.4157931
35,Смородиновая улица,614089,57.9273063,56.4062523
36,Ясеневая улица,614089,57.9404540,56.4128890
37,Кленовая улица,614089,57.9401565,56.4137944
37,Смородиновая улица,614089,57.9268706,56.4066600
37,1-й Ромашковый переулок,614089,57.9316878,56.4211763
37А,Смородиновая улица,614089,57.9268300,56.4063008
37А,Ясеневая улица,614089,57.9399372,56.4115214
38,Кленовая улица,614089,57.9398774,56.4143558
39А,Смородиновая улица,614089,57.9263129,56.4068161
4,2-й Ромашковый переулок,614089,57.9315716,56.4237907
40,Бродовское кольцо,614089,57.9313651,56.4133582
40,Кленовая улица,614089,57.9396868,56.4141748
41,Зимняя улица,614089,57.9339835,56.4167604
41,Ясеневая улица,614089,57.9390577,56.4113420
42,Ореховая улица,614089,57.9407358,56.4113459
42,Смородиновая улица,614089,57.9272585,56.4070156
43,Зимняя улица,614089,57.9344178,56.4170932
43,Утренняя улица,614089,57.9242695,56.4077354
43,Ясеневая улица,614089,57.9388048,56.4111301
44,Кленовая улица,614089,57.9390819,56.4137246
44,Ореховая улица,614089,57.9405003,56.4111834
44,Смородиновая улица,614089,57.9267228,56.4075112
45,Грибная улица,614089,57.9316844,56.4193663
45,Зимняя улица,614089,57.9346635,56.4172887
45,Ореховая улица,614089,57.9383294,56.4089363
46,Смородиновая улица,614089,57.9262820,56.4079100
46,Ясеневая улица,614089,57.9392220,56.4120380
47,Грибная улица,614089,57.9319248,56.4191006
47,Зимняя улица,614089,57.9348503,56.4173993
47,Ореховая улица,614089,57.9381134,56.4088412
48,Ясеневая улица,614089,57.9390925,56.4123063
49,Кленовая улица,614089,57.9389965,56.4126037
49,Ореховая улица,614089,57.9379167,56.4086183
49,Ясеневая улица,614089,57.9382521,56.4106734
5,Смородиновая улица,614089,57.9313541,56.4040502
50,Ореховая улица,614089,57.9396347,56.4108649
50,Смородиновая улица,614089,57.9258778,56.4082791
52,Ясеневая улица,614089,57.9385233,56.4115867
53,Грибная улица,614089,57.9338944,56.4201973
53,Кленовая улица,614089,57.9381540,56.4124192
53,Ореховая улица,614089,57.9375592,56.4079804
55,Грибная улица,614089,57.9342940,56.4205487
55,Зимняя улица,614089,57.9358034,56.4177054
55,Кленовая улица,614089,57.9379316,56.4122533
55,Ореховая улица,614089,57.9373060,56.4081305
56,Ореховая улица,614089,57.9388264,56.4100400
56,Осенняя улица,614089,57.9361679,56.4171992
56,Смородиновая улица,614089,57.9252856,56.4088724
57,Грибная улица,614089,57.9345564,56.4207155
57,Зимняя улица,614089,57.9359148,56.4180439
57,Летняя улица,614089,57.9343642,56.4187566
59,Зимняя улица,614089,57.9361301,56.4181608
59,Ландышевая улица,614089,57.9415960,56.4321147
59,Летняя улица,614089,57.9345387,56.4189353
59,Смородиновая улица,614089,57.9235936,56.4105025
6,Зимняя улица,614089,57.9259512,56.4209220
6,Радужный переулок,614089,57.9432830,56.4133599
6,Смородиновая улица,614089,57.9311023,56.4045886
61,Зимняя улица,614089,57.9365516,56.4185197
61,Ландышевая улица,614089,57.9414298,56.4328758
63А,Ясеневая улица,614089,57.9361848,56.4093680
64,Ореховая улица,614089,57.9379928,56.4095147
65,Ясеневая улица,614089,57.9357488,56.4090284
66,Ореховая улица,614089,57.9377772,56.4093296
67,Смородиновая улица,614089,57.9233308,56.4119787
67,Ясеневая улица,614089,57.9355687,56.4088874
68,Ореховая улица,614089,57.9376141,56.4092312
69,Летняя улица,614089,57.9356377,56.4196529
7,Бродовское кольцо,614089,57.9400225,56.4187982
7,Радужный переулок,614089,57.9435988,56.4143591
71,Ореховая улица,614089,57.9354556,56.4070505
73,Ореховая улица,614089,57.9352994,56.4066168
71,Ясеневая улица,614089,57.9351241,56.4086419
72,Зимняя улица,614089,57.9346302,56.4179688
74,Зимняя улица,614089,57.9347537,56.4183438
76,Смородиновая улица,614089,57.9237634,56.4119570
77,Кленовая улица,614089,57.9354809,56.4106065
77,Смородиновая улица,614089,57.9239290,56.4146813
78,Кленовая улица,614089,57.9347317,56.4109516
8,Смородиновая улица,614089,57.9308569,56.4045618
8,Утренняя улица,614089,57.9276743,56.4048017
84,Зимняя улица,614089,57.9359056,56.4187757
85,Ореховая улица,614089,57.9301623,56.4054610
88,Зимняя улица,614089,57.9359772,56.4192040
9,Смородиновая улица,614089,57.9307479,56.4036803
91,Ореховая улица,614089,57.9295485,56.4059864
95,Ясеневая улица,614089,57.9303737,56.4071084
13А,Ясеневая улица,614089,57.9424614,56.4156332
100,Кленовая улица,614089,57.9299555,56.4100600
17,Кленовая улица,614089,57.9417576,56.4172752
5,Зимняя улица,614089,57.9281970,56.4182610
14,Ясеневая улица,614089,57.9424695,56.4170661
29,1-й Ромашковый переулок,614089,57.9306998,56.4215671
1,Зимняя улица,614089,57.9278235,56.4180088
2,Осенняя улица,614089,57.9279395,56.4178352
98,Кленовая улица,614089,57.9304399,56.4096928
15,Кленовая улица,614089,57.9419272,56.4177487
8,Радужный переулок,614089,57.9432816,56.4138819
8,Ясеневая улица,614089,57.9435390,56.4161263
4,Радужный переулок,614089,57.9431824,56.4129479
49,Грибная улица,614089,57.9322124,56.4189198
21,Грибная улица,614089,57.9286962,56.4219452
1,Ясеневая улица,614089,57.9438076,56.4173420
9,Ясеневая улица,614089,57.9429424,56.4167197
32,Кленовая улица,614089,57.9405366,56.4148148
30,Кленовая улица,614089,57.9406843,56.4150175
34,Кленовая улица,614089,57.9403049,56.4146607
26А,Кленовая улица,614089,57.9408132,56.4161719
23,Ореховая улица,614089,57.9415301,56.4110657
29,Цветочная улица,614089,57.9405372,56.4163953
19,Ореховая улица,614089,57.9421575,56.4117267
35,Цветочная улица,614089,57.9401462,56.4156682
31,Цветочная улица,614089,57.9407251,56.4164804
13,Кленовая улица,614089,57.9422534,56.4179732
3,Ореховая улица,614089,57.9434096,56.4152835
58,Кленовая улица,614089,57.9376064,56.4127697
56,Зимняя улица,614089,57.9308809,56.4175460
8,Кленовая улица,614089,57.9427530,56.4190109
21,Зимняя улица,614089,57.9301437,56.4171145
16,Ясеневая улица,614089,57.9421902,56.4167886
172,Бродовское кольцо,614089,57.9275019,56.4180146
12,Ясеневая улица,614089,57.9426152,56.4172295
41,Цветочная улица,614089,57.9395892,56.4151985
50,улица Калинина,614024,58.0318593,56.0198369
93Д,улица Николая Островского,614002,58.0009864,56.2667182
34,улица Танцорова,614109,58.0232318,56.0194085
1 к5,Решетниковский спуск,614068,58.0153491,56.2122884
4,Звенигородская улица,614030,58.1121567,56.3113954
81,Каховская улица,614109,58.0299086,56.0016622
6/1,Деревообделочная улица,614058,58.0075930,56.1481736
3,Арагвинская улица,614089,57.9772434,56.2914719
2,4-й Еловский переулок,614054,58.0746503,56.3554297
3,Заозёрская улица,614029,58.1459437,56.3126641
7,Заозёрская улица,614029,58.1465623,56.3125742
14,Затонская улица,614029,58.1472725,56.3115085
8,Новоалмазная улица,614026,58.1200578,56.3988761
6,Новоалмазная улица,614026,58.1202383,56.3987090
4,Новоалмазная улица,614026,58.1204167,56.3988182
2,Новоалмазная улица,614026,58.1206222,56.3988466
11,Пароходная улица,614029,58.1472713,56.3117905
1,1-я улица Поваренный Лог,614014,58.0395113,56.3347906
3,1-я улица Поваренный Лог,614014,58.0393330,56.3351119
5А,1-я улица Поваренный Лог,614014,58.0392291,56.3354586
7,1-я улица Поваренный Лог,614014,58.0388864,56.3361485
74,2-я Самолётная улица,614012,57.9690312,56.2066897
72/1,2-я Самолётная улица,614012,57.9685773,56.2064357
72,2-я Самолётная улица,614012,57.9681274,56.2060369
70,2-я Самолётная улица,614012,57.9676066,56.2054737
70/1,2-я Самолётная улица,614012,57.9672348,56.2048007
106А,шоссе Космонавтов,614087,57.9931602,56.2032854
6 к3,Деревообделочная улица,614058,58.0064542,56.1473893
6 к4,Деревообделочная улица,614058,58.0062330,56.1471610
6Б,Деревообделочная улица,614058,58.0066035,56.1461563
3,Вишерская улица,614058,58.0069631,56.1498153
8А,Деревообделочная улица,614058,58.0065002,56.1486817
3 к8,Деревообделочная улица,614058,58.0049310,56.1453794
8 к2,Деревообделочная улица,614058,58.0049219,56.1492632
8 к5,Деревообделочная улица,614058,58.0048674,56.1467054
8В,Деревообделочная улица,614058,58.0043914,56.1469854
8 к6,Деревообделочная улица,614058,58.0055397,56.1475084
3 к11,Деревообделочная улица,614058,58.0040861,56.1459827
196,Сумская улица,614109,58.0300036,55.9974881
8Б,5-я Каховская улица,614109,58.0219798,56.0076322
84,Промышленная улица,614056,57.9213346,56.1423609
26,Костаревская улица,614014,58.0228645,56.3203172
24А,Костаревская улица,614014,58.0227928,56.3196794
16 к5,улица 9 Января,614058,58.0072617,56.1391488
8,улица Космонавта Беляева,614022,57.9755321,56.1870334
112/1,улица Карпинского,614012,57.9689611,56.2018385
107,Гайвинская улица,614030,58.1261624,56.2908514
41В,улица Мира,614095,57.9765879,56.1897694
27,Углеуральская улица,614046,57.9959731,56.1779609
20,Гатчинская улица,614046,57.9952287,56.1797724
51,улица Маяковского,614058,58.0012840,56.1073129
45,улица Маяковского,614058,58.0012999,56.1093857
43/1,улица Маяковского,614058,58.0022284,56.1084670
53,улица Маяковского,614058,58.0017608,56.1075028
11,Светлогорская улица,614023,58.0386462,56.0358138
6,улица Космонавта Леонова,614036,57.9760455,56.1654160
4Г,Холмогорская улица,614083,57.9857760,56.2823361
14/2,Трамвайная улица,614058,58.0043704,56.1561049
14В,Трамвайная улица,614058,58.0053708,56.1556285
14Р,Трамвайная улица,614058,58.0051119,56.1546942
14Ж,Трамвайная улица,614058,58.0055329,56.1539209
14Л,Трамвайная улица,614058,58.0063373,56.1541187
14Д,Трамвайная улица,614058,58.0060036,56.1551475
14М,Трамвайная улица,614058,58.0049984,56.1533830
73,улица Луначарского,614015,58.0072747,56.2409261
143Б,Промышленная улица,614055,57.9132881,56.1714149
3,улица Швецова,614039,58.0055452,56.2604511
1А с6,3-я Водопроводная улица,614097,58.0013182,56.1587167
7,1-я Андроновская улица,614065,57.9593857,56.1505851
9,1-я Андроновская улица,614065,57.9592444,56.1507314
57,Экскаваторная улица,614065,57.9594493,56.1480837
55,Экскаваторная улица,614065,57.9601964,56.1485239
13/1,Уссурийская улица,614104,58.0886051,56.4118558
123А,Промышленная улица,614055,57.9242948,56.1646210
84,Промышленная улица,614055,57.9114122,56.1382741
3А,Стахановская улица,614022,57.9842728,56.2248870
43,улица Исхакова,614053,58.0452607,56.3688726
45,улица Исхакова,614053,58.0455546,56.3689619
49,улица Исхакова,614053,58.0461267,56.3691566
16,улица 9 Января,614058,58.0062420,56.1392559
3Б,улица Сивкова,614022,57.9825743,56.2207748
45,улица Космонавта Леонова,614088,57.9668449,56.1764155
29А,улица Писарева,614030,58.1091146,56.3030906
7,Стахановская улица,614022,57.9849609,56.2222180
127,Лядовская улица,614053,58.0352480,56.3595213
25,улица Танкистов,614095,57.9831398,56.2139359
25/1,улица Танкистов,614095,57.9830329,56.2142740
38,улица Формовщиков,614095,57.9826699,56.2138012
91Ек1,улица Карпинского,614012,57.9710022,56.2092117
24,улица Решетникова,614068,58.0095804,56.2077731
8,улица Космонавта Леонова,614036,57.9757876,56.1646780
2,Вильвенская улица,614094,57.9981609,56.2265498
24,1-я Юннатская улица,614065,57.9620887,56.1324346
22,1-я Юннатская улица,614065,57.9622824,56.1328459
20,1-я Юннатская улица,614065,57.9623812,56.1330385
18,1-я Юннатская улица,614065,57.9624810,56.1332218
16,1-я Верховая улица,614065,57.9626035,56.1334698
19,Оверятская улица,614065,57.9621937,56.1317464
17,Оверятская улица,614065,57.9626052,56.1313220
3,Глухой переулок,614065,57.9628285,56.1316331
1,Глухой переулок,614065,57.9629922,56.1319121
10,1-я Верховая улица,614065,57.9632468,56.1322447
12,1-я Верховая улица,614065,57.9630427,56.1327811
14,1-я Верховая улица,614065,57.9627553,56.1333068
18,1-я Верховая улица,614065,57.9623124,56.1335994
20,1-я Верховая улица,614065,57.9622284,56.1341704
22,1-я Верховая улица,614065,57.9621352,56.1344868
2,2-я Юннатская улица,614065,57.9619261,56.1347378
4,2-я Юннатская улица,614065,57.9617814,56.1344604
6,2-я Юннатская улица,614065,57.9616249,56.1340884
8,2-я Юннатская улица,614065,57.9614362,56.1337171
25А,Оверятская улица,614065,57.9613815,56.1331416
23,Оверятская улица,614065,57.9617740,56.1325913
303А,шоссе Космонавтов,614065,57.9623795,56.1401728
305,шоссе Космонавтов,614065,57.9624566,56.1382895
105А,Петропавловская улица,614068,58.0074871,56.2055098
23,улица Маршала Толбухина,614030,58.1002944,56.3022172
110,шоссе Космонавтов,614087,57.9916876,56.1977142
112,шоссе Космонавтов,614087,57.9915026,56.1966908
9,Алтайская улица,614058,58.0058698,56.1374258
3А,Алтайская улица,614058,58.0035210,56.1364489
46В/1,улица Плеханова,614068,58.0024006,56.2084374
47,улица Анри Барбюса,614107,58.0299257,56.3060513
26А,улица Архитектора Свиязева,614088,57.9630715,56.1842603
9,улица Левченко,614095,57.9903106,56.2195399
32,Осокинская улица,614089,57.9813576,56.3110339
43,Осокинская улица,614089,57.9809000,56.3105954
59,Зеленогорская улица,614089,57.9784174,56.3122817
40,Осокинская улица,614089,57.9802639,56.3112114
39,Зеленогорская улица,614089,57.9803548,56.3120411
34А,Осокинская улица,614089,57.9810772,56.3111248
29А,Зеленогорская улица,614089,57.9814533,56.3116073
17,Зеленогорская улица,614089,57.9829244,56.3115849
28,Южноуральская улица,614089,57.9834285,56.3094682
21,Осокинская улица,614089,57.9830296,56.3102630
52,Южноуральская улица,614089,57.9808155,56.3097827
45,Осокинская улица,614089,57.9807572,56.3105600
51,Осокинская улица,614089,57.9802534,56.3105452
53,Осокинская улица,614089,57.9800927,56.3106035
64,Южноуральская улица,614089,57.9798388,56.3098756
61,Осокинская улица,614089,57.9791280,56.3108483
65,Осокинская улица,614089,57.9788465,56.3108771
69,Осокинская улица,614089,57.9784227,56.3109490
62,Осокинская улица,614089,57.9782464,56.3115241
66,Осокинская улица,614089,57.9779221,56.3115232
68,Осокинская улица,614089,57.9777138,56.3117106
81,Осокинская улица,614089,57.9774864,56.3110320
86,Южноуральская улица,614089,57.9778318,56.3102266
84,Южноуральская улица,614089,57.9780121,56.3101468
76,Южноуральская улица,614089,57.9786470,56.3100932
9,Зеленогорская улица,614089,57.9836697,56.3117005
2,Осокинская улица,614089,57.9840789,56.3113324
4,Осокинская улица,614089,57.9838876,56.3110110
6,Осокинская улица,614089,57.9837650,56.3108180
19,Зеленогорская улица,614089,57.9827509,56.3116515
15,Зеленогорская улица,614089,57.9831097,56.3116287
13,Зеленогорская улица,614089,57.9832372,56.3116019
11,Зеленогорская улица,614089,57.9834118,56.3115818
8,Осокинская улица,614089,57.9835507,56.3106660
10,Осокинская улица,614089,57.9833677,56.3107463
12,Осокинская улица,614089,57.9832081,56.3107617
14,Осокинская улица,614089,57.9830446,56.3108314
16,Осокинская улица,614089,57.9828914,56.3108194
18,Осокинская улица,614089,57.9827143,56.3108676
20,Осокинская улица,614089,57.9825664,56.3109005
21,Зеленогорская улица,614089,57.9825764,56.3116750
22,Осокинская улица,614089,57.9823836,56.3110015
31,Зеленогорская улица,614089,57.9811589,56.3118064
29,Зеленогорская улица,614089,57.9816500,56.3118399
27,Зеленогорская улица,614089,57.9818430,56.3116548
28,Осокинская улица,614089,57.9817978,56.3109522
30,Осокинская улица,614089,57.9816183,56.3109575
41,Зеленогорская улица,614089,57.9801261,56.3120404
35,Зеленогорская улица,614089,57.9806200,56.3119942
33,Зеленогорская улица,614089,57.9808763,56.3119137
32,Зеленогорская улица,614089,57.9808553,56.3115040
34,Осокинская улица,614089,57.9808390,56.3111358
36,Осокинская улица,614089,57.9805791,56.3111433
38,Осокинская улица,614089,57.9804592,56.3111674
42,Осокинская улица,614089,57.9800948,56.3112385
44,Осокинская улица,614089,57.9798637,56.3112802
74,Красноуфимская улица,614089,57.9798816,56.3117104
43,Зеленогорская улица,614089,57.9799315,56.3121055
45,Зеленогорская улица,614089,57.9795188,56.3121457
71,Красноуфимская улица,614089,57.9795466,56.3117923
46,Осокинская улица,614089,57.9795192,56.3113739
48,Осокинская улица,614089,57.9793610,56.3113565
47,Зеленогорская улица,614089,57.9791958,56.3121491
50,Осокинская улица,614089,57.9791786,56.3114362
52,Осокинская улица,614089,57.9790293,56.3113880
54,Осокинская улица,614089,57.9788889,56.3114075
49,Зеленогорская улица,614089,57.9789159,56.3119546
69,Зеленогорская улица,614089,57.9776074,56.3123909
65,Зеленогорская улица,614089,57.9779242,56.3123985
67,Зеленогорская улица,614089,57.9777517,56.3123764
63,Зеленогорская улица,614089,57.9780800,56.3123368
61,Зеленогорская улица,614089,57.9782360,56.3123200
57,Зеленогорская улица,614089,57.9786161,56.3121671
58,Осокинская улица,614089,57.9785699,56.3115746
60,Осокинская улица,614089,57.9783875,56.3115791
64,Осокинская улица,614089,57.9780770,56.3115668
32,Южноуральская улица,614089,57.9828907,56.3095287
30,Южноуральская улица,614089,57.9831797,56.3094615
26,Южноуральская улица,614089,57.9836126,56.3093402
15,Осокинская улица,614089,57.9835473,56.3099034
17,Осокинская улица,614089,57.9833902,56.3101623
19,Осокинская улица,614089,57.9832063,56.3102346
23,Осокинская улица,614089,57.9828895,56.3102601
25,Осокинская улица,614089,57.9827126,56.3102997
27,Осокинская улица,614089,57.9825449,56.3102648
29,Осокинская улица,614089,57.9822809,56.3104264
36,Южноуральская улица,614089,57.9823361,56.3095876
70,Красноуфимская улица,614089,57.9798766,56.3107625
49,Осокинская улица,614089,57.9804331,56.3106484
47,Осокинская улица,614089,57.9805772,56.3105619
41,Осокинская улица,614089,57.9810629,56.3105572
39,Осокинская улица,614089,57.9811892,56.3104726
37,Осокинская улица,614089,57.9813847,56.3104989
35,Осокинская улица,614089,57.9815450,56.3104592
33,Осокинская улица,614089,57.9817064,56.3104492
31,Осокинская улица,614089,57.9819333,56.3103897
40,Южноуральская улица,614089,57.9819002,56.3096050
42,Южноуральская улица,614089,57.9816713,56.3096928
44,Южноуральская улица,614089,57.9814775,56.3096687
46,Южноуральская улица,614089,57.9813509,56.3096687
48,Южноуральская улица,614089,57.9811521,56.3097324
50,Южноуральская улица,614089,57.9810359,56.3098055
54,Южноуральская улица,614089,57.9807103,56.3098210
56,Южноуральская улица,614089,57.9805044,56.3098524
58,Южноуральская улица,614089,57.9803934,56.3098599
60,Южноуральская улица,614089,57.9802206,56.3098319
62,Южноуральская улица,614089,57.9800447,56.3098659
79,Осокинская улица,614089,57.9777031,56.3110413
77,Осокинская улица,614089,57.9778727,56.3109891
75,Осокинская улица,614089,57.9780375,56.3110145
73,Осокинская улица,614089,57.9781877,56.3109568
71,Осокинская улица,614089,57.9783104,56.3109294
67,Осокинская улица,614089,57.9785810,56.3108814
63,Осокинская улица,614089,57.9789966,56.3107973
59,Осокинская улица,614089,57.9793194,56.3108281
57А,Осокинская улица,614089,57.9795207,56.3106048
66,Южноуральская улица,614089,57.9794428,56.3100181
68,Южноуральская улица,614089,57.9792700,56.3099624
70,Южноуральская улица,614089,57.9791270,56.3100668
72,Южноуральская улица,614089,57.9789312,56.3100334
74,Южноуральская улица,614089,57.9787725,56.3100355
78,Южноуральская улица,614089,57.9784782,56.3101488
80,Южноуральская улица,614089,57.9783257,56.3101711
82,Южноуральская улица,614089,57.9781756,56.3101690
90,Южноуральская улица,614089,57.9775937,56.3103074
1А лит1,улица Дзержинского,614068,58.0110391,56.1870129
1А лит2,улица Дзержинского,614068,58.0111921,56.1864521
6,улица Гальперина,614042,57.9871212,55.9304237
1А,Локомотивная улица,614046,57.9962594,56.1898848
105М,улица Героев Хасана,614025,57.9601261,56.2694288
19Б,Монастырская улица,614000,58.0171485,56.2415060
37А,улица Строителей,614097,58.0003887,56.1571831
55,Целинная улица,614054,58.0508514,56.3482229
12,Озёрная улица,614058,58.0026623,56.1582609
8,Озёрная улица,614058,58.0025096,56.1587224
18,Озёрная улица,614058,58.0024694,56.1577678
42А,улица Веры Засулич,614012,57.9719040,56.2031076
48,улица Журналиста Дементьева,614053,58.0456228,56.3681477
52,улица Журналиста Дементьева,614053,58.0462031,56.3683432
94,улица Бушмакина,614104,58.0826360,56.4044990
45А,улица Генерала Черняховского,614104,58.0835719,56.4055649
27А,Уссурийская улица,614104,58.0841409,56.4111089
27,Уссурийская улица,614104,58.0843743,56.4123846
25,Уссурийская улица,614104,58.0845343,56.4135278
96,улица Бушмакина,614104,58.0823277,56.4063891
15А,Судозаводская улица,614023,58.0331549,56.0298844
36,Агатовая улица,614000,58.0005578,56.3380471
36,Агатовая улица,614000,58.0006461,56.3393478
36,Агатовая улица,614000,58.0002256,56.3387757
36,Агатовая улица,614000,58.0009321,56.3386157
28,Агатовая улица,614014,58.0024376,56.3387839
108,улица Карпинского,614012,57.9703960,56.2043241
15А,Уинская улица,614051,58.0057544,56.3088798
15А,Уинская улица,614051,58.0062092,56.3090837
17,улица Крылова,614081,57.9984405,56.2187882
47,Кронштадтская улица,614081,57.9986142,56.2011095
104,шоссе Космонавтов,614081,57.9957246,56.2037634
29,улица Левченко,614095,57.9889381,56.2235582
27,улица Левченко,614095,57.9891954,56.2229538
5,улица Капитана Гастелло,614095,57.9898273,56.2242361
7,улица Капитана Гастелло,614095,57.9896739,56.2233764
35А,улица Овчинникова,614094,57.9946551,56.2189161
47А,улица Карбышева,614030,58.1091679,56.3082484
194В,шоссе Космонавтов,614065,57.9650114,56.1380332
109А,улица Куйбышева,614010,57.9844369,56.2454004
66,улица Калинина,614023,58.0348410,56.0219410
6,улица Куйбышева,614000,58.0143003,56.2330132
135Б,Хабаровская улица,614067,58.0518376,56.0939939
17,улица Папанинцев,614046,58.0002173,56.1781515
20А,улица Адмирала Макарова,614023,58.0336256,56.0290934
17,Судозаводская улица,614023,58.0336104,56.0306838
67,улица Крупской,614077,58.0024397,56.2924414
67,улица Крупской,614077,58.0028832,56.2923606
67,улица Крупской,614077,58.0030124,56.2929340
67,улица Крупской,614077,58.0028162,56.2935623
67,улица Крупской,614077,58.0025184,56.2935940
5,Черниговская улица,614109,58.0289372,56.0217787
30А,Ижевская улица,614064,57.9818305,56.2722366
127,Хабаровская улица,614067,58.0519893,56.0996477
123,Хабаровская улица,614067,58.0520114,56.1000903
119,Хабаровская улица,614067,58.0520063,56.1005221
115,Хабаровская улица,614067,58.0520128,56.1009754
125,Хабаровская улица,614067,58.0516700,56.0995423
121,Хабаровская улица,614067,58.0516695,56.0999660
117,Хабаровская улица,614067,58.0516802,56.1003903
83А,улица Марии Загуменных,614067,58.0520406,56.1027025
81А,улица Марии Загуменных,614067,58.0517798,56.1026393
125А,Хабаровская улица,614067,58.0519477,56.1022434
85,улица Марии Загуменных,614067,58.0521283,56.1016379
3А,Пермская улица,614000,58.0172623,56.2622048
32Б,улица Чернышевского,614010,57.9951480,56.2595434
42А,улица Белинского,614010,57.9959745,56.2569133
17В,улица Чернышевского,614002,57.9955457,56.2688806
93В,улица Николая Островского,614002,58.0013855,56.2675170
4,улица Василия Татищева,614010,57.9907604,56.2610689
69,улица Красные Казармы,614010,57.9916562,56.2676040
64,улица Красные Казармы,614010,57.9908950,56.2699343
131,улица Журналиста Дементьева,614053,58.0448521,56.3659241
133,улица Журналиста Дементьева,614053,58.0451105,56.3660144
135,улица Журналиста Дементьева,614053,58.0453539,56.3660754
137,улица Журналиста Дементьева,614053,58.0455295,56.3661582
29Б,улица Писарева,614030,58.1094371,56.3017517
27А,улица Писарева,614030,58.1083607,56.3030300
25Б,улица Писарева,614030,58.1082620,56.3015879
29В,улица Писарева,614030,58.1089056,56.3015941
10А,Молдавская улица,614104,58.0870532,56.4078216
6/1,улица Генерала Панфилова,614034,58.0275226,55.8331541
6А,2-я Бахаревская улица,614033,57.9510597,56.2546605
10,улица Василия Васильева,614033,57.9513442,56.2540736
96,улица Ломоносова,614018,58.0257972,56.1599951
98 к6,улица Героев Хасана,614025,57.9523798,56.2576292
4А,улица Милиционера Власова,614065,57.9673374,56.1552641
83,Верхнемуллинская улица,614065,57.9557300,56.1324408
8,улица Голева,614081,57.9977618,56.2109121
68Б,улица Космонавта Леонова,614088,57.9621501,56.1778728
5,Луньевская улица,614095,57.9907578,56.2196719
6,Бершетский переулок,614095,57.9906385,56.2207588
16,улица Желябова,614097,57.9950427,56.1471784
54А,улица Веры Засулич,614012,57.9700116,56.1992788
50А,улица Веры Засулич,614012,57.9704292,56.2012508
46А,улица Веры Засулич,614012,57.9711534,56.2031120
2,Набережная улица,614068,58.0115919,56.1625947
98,Промышленная улица,614055,57.8795109,56.1734222
4А,улица Академика Вавилова,614087,57.9923017,56.1983478
114,шоссе Космонавтов,614087,57.9913016,56.1956702
8,улица Александра Турчевича,614010,57.9899581,56.2655246
6,улица Александра Турчевича,614010,57.9899219,56.2633190
84 к3,Промышленная улица,614055,57.9250979,56.1354952
84 к2,Промышленная улица,614055,57.9246557,56.1359846
18А,улица Строителей,614017,57.9997729,56.1458834
74В,бульвар Гагарина,614077,57.9941122,56.2855851
103/2,Рязанская улица,614036,57.9689709,56.1803943
162Б,шоссе Космонавтов,614065,57.9720199,56.1504416
18,Лесопарковый переулок,614018,58.0448753,56.2776492
15,Ангарская улица,614018,58.0455481,56.2815138
2,Лесопарковый переулок,614018,58.0450621,56.2736520
108,улица Героев Хасана,614025,57.9458481,56.2626992
16А,улица Малкова,614087,57.9946066,56.1935287
28,улица Строителей,614097,57.9994605,56.1510914
31А,1-я Бахаревская улица,614033,57.9525164,56.2302025
22,1-я Бахаревская улица,614033,57.9522286,56.2285823
28А,Агатовая улица,614113,58.0027794,56.3388628
43,Кронштадтская улица,614081,57.9972194,56.2017763
45,Кронштадтская улица,614081,57.9980013,56.2013820
34,улица Малкова,614087,58.0003931,56.1936092
27,улица Олега Кошевого,614012,57.9739961,56.1909624
9,улица Космонавта Беляева,614036,57.9732814,56.1863476
1,улица Сергея Есенина,614058,58.0073943,56.1152305
47,улица Маяковского,614058,58.0007260,56.1089672
41/1,улица Маяковского,614058,58.0010506,56.1118113
33Д,улица Тургенева,614107,58.0141240,56.2971932
96,Алексеевская улица,614014,58.0226552,56.3302494
123,улица Восстания,618716,58.0290550,56.3289303
21,улица Володарского,614014,58.0267463,56.3366736
6,переулок Володарского,614014,58.0267940,56.3383793
10А,Кронштадтская улица,614081,57.9971329,56.2062561
1Д,Мраморная улица,614014,57.9993444,56.3215422
55,Горловская улица,614089,57.9882255,56.3081204
77,Бердичевская улица,614089,57.9892369,56.3050894
70,Самаркандская улица,614089,57.9906689,56.3047198
127Б,Лядовская улица,614053,58.0358796,56.3592571
127В,Лядовская улица,614053,58.0358839,56.3600752
127Г,Лядовская улица,614053,58.0358816,56.3609154
78А,Пермская улица,614000,58.0108710,56.2433688
107А,улица Журналиста Дементьева,614053,58.0394742,56.3638776
107,улица Журналиста Дементьева,614053,58.0394174,56.3641856
105,улица Журналиста Дементьева,614053,58.0392187,56.3640619
103,улица Журналиста Дементьева,614053,58.0389605,56.3639484
101,улица Журналиста Дементьева,614053,58.0384773,56.3638116
5,Бахчисарайский переулок,614053,58.0386560,56.3634263
3,Бахчисарайский переулок,614053,58.0387000,56.3628808
8,Севастопольская улица,614053,58.0389420,56.3626214
10,Севастопольская улица,614053,58.0391038,56.3630034
12,Севастопольская улица,614053,58.0393781,56.3630009
14,Севастопольская улица,614053,58.0396475,56.3633241
16,Севастопольская улица,614053,58.0399546,56.3635998
31,улица Исхакова,614053,58.0432884,56.3681708
37,Целинная улица,614054,58.0537651,56.3525767
22А,улица Словцовой,614053,58.0373584,56.4067637
30,Таджикская улица,614089,57.9762686,56.2918651
68А,Таджикская улица,614089,57.9763301,56.2979545
3/1,Казахская улица,614089,57.9744041,56.3007783
58,Калгановская улица,614014,58.0502056,56.3370989
17А,улица Розы Люксембург,614014,58.0419555,56.3338972
11,улица Труда,614014,58.0431183,56.3226268
37,улица Левченко,614095,57.9877451,56.2246254
8,Спартаковская улица,614095,57.9876075,56.2262790
1В,улица Смирнова,614014,58.0408364,56.3110561
10,улица Восстания,614014,58.0412575,56.3146853
23,улица Серго,614026,58.1211936,56.3983821
19,улица Серго,614026,58.1217046,56.3985975
17,улица Серго,614026,58.1219879,56.3987269
15,улица Серго,614026,58.1221959,56.3988253
13,улица Серго,614026,58.1225323,56.3991086
11А,улица Серго,614026,58.1227045,56.3990666
11,улица Серго,614026,58.1228281,56.3990908
9,улица Серго,614026,58.1231153,56.3991931
38,Верхне-Волжская улица,614026,58.1215945,56.3999701
34,Верхне-Волжская улица,614026,58.1218037,56.4006403
32,Верхне-Волжская улица,614026,58.1219972,56.4006812
30,Верхне-Волжская улица,614026,58.1223258,56.4008509
28А,Верхне-Волжская улица,614026,58.1226275,56.4001351
28,Верхне-Волжская улица,614026,58.1225935,56.4009326
26,Верхне-Волжская улица,614026,58.1228774,56.4010381
28,улица Фрунзе,614026,58.1233066,56.3998897
30,улица Фрунзе,614026,58.1232193,56.4004753
19,Верхнесылвенская улица,614026,58.1180942,56.4002129
72А,Верхне-Волжская улица,614026,58.1170446,56.3977706
38,Яблоневая улица,614037,58.1436284,56.4400240
26,1-й Мозырьский переулок,614037,58.1476630,56.4320407
35,улица Чапаева,614054,58.0798512,56.3539940
10,Планерная улица,614054,58.0758694,56.3562259
14А,улица Голева,614081,57.9955627,56.2139993
42,Ракитная улица,614047,58.0901314,56.4009769
40А,Ракитная улица,614047,58.0897997,56.4016858
3,Молдавская улица,614104,58.0886187,56.4027057
41,улица Генерала Ватутина,614047,58.0907948,56.3897427
81,улица Бакинских Комиссаров,614026,58.0948151,56.3823297
14,улица Косякова,614038,58.1118664,56.3742824
16,улица Косякова,614038,58.1116104,56.3752293
313Б,Соликамская улица,614038,58.1075299,56.3613654
24А,Кавказская улица,614026,58.1192150,56.3791504
24Б,Кавказская улица,614026,58.1191772,56.3798413
24,Кавказская улица,614026,58.1192961,56.3807651
21Б,Цимлянская улица,614026,58.1339694,56.3996690
19Б,Цимлянская улица,614026,58.1334918,56.3984428
21А,Цимлянская улица,614026,58.1334416,56.3994922
41,улица Софьи Ковалевской,614067,58.0487901,56.1142167
67,улица Генерала Наумова,614067,58.0471480,56.1095083
36,Высокая улица,614023,58.0435385,56.0546538
14,Налимихинская улица,614023,58.0566862,56.0360953
28,Мореходная улица,614023,58.0588505,56.0357639
21,Изумрудная улица,614023,58.0597266,56.0325210
23,Изумрудная улица,614023,58.0599853,56.0324936
25,Изумрудная улица,614023,58.0602603,56.0323647
27,Изумрудная улица,614023,58.0604678,56.0324150
28,Бирюзовая улица,614023,58.0606377,56.0313492
26,Бирюзовая улица,614023,58.0602063,56.0313720
24,Бирюзовая улица,614023,58.0599019,56.0314185
22,Бирюзовая улица,614023,58.0596285,56.0314889
20,Бирюзовая улица,614023,58.0593786,56.0314939
19,Изумрудная улица,614023,58.0594749,56.0326216
18,Бирюзовая улица,614023,58.0590898,56.0316819
16,Бирюзовая улица,614023,58.0586670,56.0317695
40,Мореходная улица,614023,58.0586816,56.0322557
15,Изумрудная улица,614023,58.0588335,56.0326982
9,Магазинная улица,614023,58.0467503,56.0306606
56,Кудымкарская улица,614023,58.0525371,56.0203471
83,Налимихинская улица,614023,58.0587598,56.0048209
6,Колокольчиковая улица,614023,58.0583164,56.0219055
407,улица Борцов Революции,614018,58.0271573,56.1627625
405А,улица Борцов Революции,614018,58.0271643,56.1633533
405,улица Борцов Революции,614018,58.0271934,56.1637846
403,улица Борцов Революции,614018,58.0271714,56.1641838
401,улица Борцов Революции,614018,58.0272423,56.1645150
46,шоссе Космонавтов,614081,57.9976287,56.2231110
17,Ангарская улица,614018,58.0457394,56.2818428
13,Ангарская улица,614018,58.0453244,56.2812797
21/2,Клубная улица,614089,57.9595191,56.3674860
107А,улица Пушкина,614068,58.0028357,56.2209777
21,проспект Декабристов,614012,57.9762800,56.2025662
29,Оханская улица,614109,58.0308136,56.0216113
2,улица Гашкова,614056,58.0685001,56.3545850
3,улица Вильгельма де Геннина,614010,57.9936789,56.2616857
13,улица Голева,614081,57.9974668,56.2140382
6,улица Голева,614081,57.9988022,56.2109449
4,улица Голева,614081,57.9999002,56.2105242
38Б,улица Яблочкова,614111,57.9688207,56.2334193
38А,улица Яблочкова,614111,57.9687542,56.2345196
38,улица Яблочкова,614111,57.9687518,56.2357577
10А,улица 40 лет Победы,614105,58.0475409,56.5872126
35А,улица Маршала Жукова,614068,58.0352668,56.1819241
20,улица Решетникова,614068,58.0098478,56.2070893
46,улица Огородникова,614014,58.0432349,56.3277967
80,улица Подводников,614012,57.9732841,56.1968575
80 к2,улица Подводников,614012,57.9735316,56.1977533
12,Кисловодская улица,614094,57.9936184,56.2214770
7,улица Нефтяников,614036,57.9739967,56.1801932
63,улица Плеханова,614081,57.9966263,56.2070420
19,улица Циолковского,614107,58.0257515,56.3007242
2З,Холмогорская улица,614083,57.9851490,56.2869819
1А,Запорожская улица,614083,57.9860410,56.2913697
2,улица Братьев Игнатовых,614990,57.9797738,56.1789399
85Г,Верхнемуллинская улица,614065,57.9551903,56.1325157
85В,Верхнемуллинская улица,614065,57.9550249,56.1326373
81,Верхнемуллинская улица,614065,57.9560123,56.1322591
33,улица Лизы Чайкиной,614012,57.9729018,56.1919838
24 к2,Теплогорская улица,614012,57.9739009,56.1885465
24 к3,Теплогорская улица,614012,57.9735298,56.1882930
23,улица Лифанова,614113,58.0337555,56.3131992
25,улица Лифанова,614113,58.0335317,56.3131341
15,улица Лифанова,614113,58.0344876,56.3125302
10,улица Грачёва,614107,58.0291817,56.3046614
59,улица Анри Барбюса,614107,58.0292722,56.3033505
92,улица Мира,614036,57.9761429,56.1746189
1,Трактовая улица,614105,58.0518310,56.5971701
5,Железнодорожная улица,614105,58.0524648,56.5980542
7,Железнодорожная улица,614105,58.0527607,56.5972719
9,Железнодорожная улица,614105,58.0529518,56.5966765
11,Железнодорожная улица,614105,58.0531077,56.5962727
15,Железнодорожная улица,614105,58.0534045,56.5955432
17,Железнодорожная улица,614105,58.0535292,56.5951136
5,улица Пушкина,614105,58.0535078,56.6021609
16,улица Пушкина,614105,58.0537597,56.6009425
18,улица Пушкина,614105,58.0536984,56.6003380
12,улица Пушкина,614105,58.0537804,56.6022002
1,улица Пушкина,614105,58.0526430,56.6045043
4,улица Пушкина,614105,58.0530121,56.6042456
6,улица Пушкина,614105,58.0531747,56.6037899
6,Амурская улица,614014,58.0573408,56.3309917
1,Омская улица,614056,58.0599364,56.3402777
1Б,Омская улица,614056,58.0598314,56.3407131
5,Омская улица,614056,58.0602763,56.3411085
3,Омская улица,614056,58.0600745,56.3409006
10,улица Сигаева,614056,58.0613453,56.3443450
316/16,шоссе Космонавтов,614513,57.9520576,56.1060618
393Д,шоссе Космонавтов,614513,57.9528176,56.1165258
34,улица Гальперина,614042,58.0002480,55.8465735
8,Прибрежная улица,614065,57.9541922,56.1295754
63/1,Промышленная улица,614065,57.9482232,56.1310599
73,Промышленная улица,614065,57.9479673,56.1303325
50,проспект Декабристов,614095,57.9773332,56.2028557
16,Лесопарковый переулок,614018,58.0444791,56.2768985
14,Лесопарковый переулок,614018,58.0442901,56.2764426
12,Лесопарковый переулок,614018,58.0440964,56.2759640
10,Лесопарковый переулок,614018,58.0439056,56.2754823
4,Лесопарковый переулок,614018,58.0448912,56.2740647
6,Лесопарковый переулок,614018,58.0445182,56.2744533
8,Лесопарковый переулок,614018,58.0441545,56.2748592
4,Трамвайная улица,614058,58.0042756,56.1607528
20к2,Трамвайная улица,614058,58.0042867,56.1515528
12А,улица Сергея Есенина,614058,58.0052637,56.1183410
24,улица Сергея Есенина,614058,58.0060136,56.1177160
26,улица Физкультурников,614058,58.0070111,56.1174344
60,Фоминская улица,614058,58.0116735,56.0747312
96Б,Промышленная улица,614055,57.8832079,56.1614662
123,Сокольская улица,614109,58.0333148,56.0141031
58А,Капитанская улица,614109,58.0293640,56.0082140
100,Ласьвинская улица,614042,58.0159215,55.9062897
23,Автозаводская улица,614101,58.0034566,55.9406575
6 к17,улица Гальперина,614101,57.9847745,55.9339428
80Б,Автозаводская улица,614032,58.0103810,55.9564420
80А,Автозаводская улица,614032,58.0103464,55.9552858
21,1-я Бахаревская улица,614033,57.9528761,56.2272372
47Б,улица Карбышева,614030,58.1091927,56.3090807
1В,улица Юрша,614051,58.0123350,56.3048296
10Б,улица Сигаева,614056,58.0604811,56.3434110
53,Целинная улица,614056,58.0504876,56.3501594
6А,Уфимская улица,614111,57.9735940,56.2303333
15А,Краснофлотская улица,614016,57.9990611,56.2347104
10,Буксирная улица,614023,58.0383810,56.0380374
15,улица Адмирала Ушакова,614023,58.0340938,56.0297301
15,улица Каляева,614109,58.0281099,56.0205380
8,Серебрянная улица,614113,58.0116406,56.3330608
9,Сапфирная улица,614113,58.0122789,56.3317165
6,улица Писарева,614030,58.1062838,56.3054072
81,улица Маршала Рыбалко,614113,58.0103314,55.9651382
13А,Петропавловская улица,614000,58.0175830,56.2518592
28А,улица Лодыгина,614021,57.9660152,56.2260510
6 к1,Телеграфная улица,614058,58.0026848,56.1533936
9,улица Окулова,614000,58.0175327,56.2321160
37А,Комсомольский проспект,614000,58.0056635,56.2430579
313В,Соликамская улица,614038,58.1079235,56.3615915
2В,Холмогорская улица,614083,57.9840666,56.2824210
84Б,Екатерининская улица,614000,58.0101614,56.2426276
137А,Самаркандская улица,614077,57.9872595,56.2973537
44,улица Судостроителей,614023,58.0605934,56.0317272
27/16,Магистральная улица,614042,58.0099780,55.9450224
27/17,Магистральная улица,614042,58.0100019,55.9452842
27/18,Магистральная улица,614042,58.0098281,55.9453127
13,улица Менжинского,614026,58.1214351,56.3785613
93Б,бульвар Гагарина,614002,58.0013653,56.2687695
28/5,Виноградная улица,614089,57.9405427,56.4231939
28/6,Виноградная улица,614089,57.9404724,56.4231279
28/2,Виноградная улица,614089,57.9406819,56.4234510
28/3,Виноградная улица,614089,57.9406345,56.4233694
28/4,Виноградная улица,614089,57.9405871,56.4232878
32/2,Виноградная улица,614089,57.9412904,56.4245456
32/3,Виноградная улица,614089,57.9413344,56.4246287
32/4,Виноградная улица,614089,57.9413784,56.4247118
32/5,Виноградная улица,614089,57.9414224,56.4247949
32/6,Виноградная улица,614089,57.9414663,56.4248781
32/1,Виноградная улица,614089,57.9412465,56.4244625
8,Виноградная улица,614089,57.9423103,56.4225244
6,Виноградная улица,614089,57.9425720,56.4227135
4Б,Виноградная улица,614089,57.9428135,56.4241418
42,Виноградная улица,614089,57.9426700,56.4244821
44,Виноградная улица,614089,57.9426512,56.4249303
38,Виноградная улица,614089,57.9423538,56.4239522
40,Виноградная улица,614089,57.9422724,56.4244996
40А,Виноградная улица,614089,57.9421612,56.4250215
34,Виноградная улица,614089,57.9417878,56.4254437
46,Виноградная улица,614089,57.9420605,56.4259476
48,Виноградная улица,614089,57.9422337,56.4262591
50А/1,Виноградная улица,614089,57.9425836,56.4269153
50А/2,Виноградная улица,614089,57.9425175,56.4268390
50,Виноградная улица,614089,57.9424076,56.4265689
1А,Омская улица,614056,58.0595376,56.3405839
3/2,Казахская улица,614089,57.9744299,56.3008683
3/3,Казахская улица,614089,57.9744558,56.3009583
3/4,Казахская улица,614089,57.9744817,56.3010483
3/5,Казахская улица,614089,57.9745075,56.3011383
3/6,Казахская улица,614089,57.9745334,56.3012283
3/7,Казахская улица,614089,57.9745592,56.3013182
3/8,Казахская улица,614089,57.9745851,56.3014082
3/9,Казахская улица,614089,57.9746110,56.3014982
4,Спартаковская улица,614095,57.9874358,56.2268333
17,Самолётная улица,614095,57.9874718,56.2275486
3,Малая улица,614095,57.9880476,56.2261489
3А,улица Красных Командиров,614095,57.9890509,56.2253746
7,улица Красных Командиров,614095,57.9887461,56.2246253
2,Малая улица,614095,57.9886819,56.2262571
1,улица Капитана Гастелло,614095,57.9900828,56.2248698
3,улица Капитана Гастелло,614095,57.9897896,56.2248045
8,улица Красных Командиров,614095,57.9892861,56.2247325
4,улица Красных Командиров,614095,57.9894578,56.2253354
2,улица Красных Командиров,614095,57.9895451,56.2256325
24 к4,Теплогорская улица,614012,57.9731208,56.1880975
24 к1,Теплогорская улица,614012,57.9740351,56.1877284
32,улица Костычева,614031,58.0376602,56.1296886
8В,5-я Каховская улица,614109,58.0226053,56.0069798
1,Черниговская улица,614109,58.0284554,56.0211593
9,Черниговская улица,614023,58.0294717,56.0224470
38,улица Татьяны Барамзиной,614046,58.0025186,56.1767351
6,Заводская улица,614058,58.0050836,56.1419757
9,улица 9 Января,614058,58.0051451,56.1404121
18,бульвар Гагарина,614060,58.0146414,56.2758462
6,Домостроительная улица,614026,58.1276695,56.3835986
65Б,улица Борчанинова,614068,58.0013608,56.2224221
65,улица Борчанинова,614068,58.0015008,56.2236719
12/4,улица Художника Зеленина,614113,58.0023006,56.3231000
12/2,улица Художника Зеленина,614113,58.0023591,56.3232899
12/1,улица Художника Зеленина,614113,58.0023884,56.3233848
12,улица Художника Зеленина,614113,58.0024176,56.3234798
10/4,улица Художника Зеленина,614113,58.0025536,56.3228217
10/2,улица Художника Зеленина,614113,58.0026100,56.3230148
10/1,улица Художника Зеленина,614113,58.0026381,56.3231114
10,улица Художника Зеленина,614113,58.0026662,56.3232079
12/3,улица Художника Зеленина,614113,58.0023298,56.3231950
10/3,улица Художника Зеленина,614113,58.0025818,56.3229183
101А,улица Спешилова,614013,58.0341386,56.2010701
6,улица Фридриха Энгельса,614046,58.0007113,56.1792556
293,Соликамская улица,614047,58.0944420,56.3547413
305,Соликамская улица,614047,58.0975647,56.3482942
287А,Соликамская улица,614054,58.0872644,56.3463108
283,Соликамская улица,614054,58.0845971,56.3459502
57 К 343,Новозвягинская улица,614056,58.0780549,56.3371967
5,Монастырская улица,614000,58.0200914,56.2513458
92,Новогайвинская улица,614030,58.1009432,56.3125438
100А,Новогайвинская улица,614030,58.0970172,56.3064038
9,Янаульская улица,614030,58.1023819,56.3094912
104,улица Репина,614030,58.1237747,56.2627108
33А,улица Докучаева,614031,58.0399505,56.1637475
33,улица Докучаева,614031,58.0403140,56.1677696
60,улица Докучаева,614031,58.0372622,56.1677185
2,Монастырская улица,614000,58.0214728,56.2544685
14А,Сивашская улица,614042,58.0050205,55.9138876
30,Корсуньская улица,614037,58.1550279,56.4280134
32,Корсуньская улица,614037,58.1556799,56.4284407
101,Корсуньская 2-я улица,614037,58.1496676,56.4034513
13,Железнодорожная улица,614105,58.0532367,56.5959499
108В,улица Спешилова,614068,58.0391269,56.2024975
108В,улица Спешилова,614068,58.0392207,56.2024146
108Б1,улица Спешилова,614068,58.0389586,56.2024077
123,улица Спешилова,614068,58.0378249,56.1863984
35,улица Маршала Жукова,614068,58.0349664,56.1796014
33,улица Маршала Жукова,614068,58.0337041,56.1749837
109,улица Журналиста Дементьева,614053,58.0397392,56.3642636
409,улица Борцов Революции,614018,58.0266276,56.1612365
389А,улица Борцов Революции,614018,58.0269710,56.1674481
2,Сельская улица,614097,58.0009353,56.1587538
1,Сельская улица,614097,58.0011259,56.1593371
16,Данилихинская улица,614081,57.9980997,56.2183725
12,улица Сергея Есенина,614058,58.0048118,56.1182805
3,улица Ударника,614058,58.0058365,56.1200331
24,улица Сергея Есенина,614058,58.0060361,56.1176890
5,улица Ударника,614058,58.0061689,56.1197870
7,улица Ударника,614058,58.0064862,56.1195513
9,улица Ударника,614058,58.0068091,56.1193074
11,улица Ударника,614058,58.0071285,56.1190553
24А,Бородулинская улица,614023,58.0428151,56.0298392
28,Бородулинская улица,614023,58.0436192,56.0295781
28,Бородулинская улица,614023,58.0436833,56.0292302
19,Светлогорская улица,614023,58.0382129,56.0244895
16,Светлогорская улица,614023,58.0422911,56.0322707
89,улица Ленина,614961,58.0047278,56.1811062
32,улица Дзержинского,614068,58.0068391,56.1686399
30,улица Сергея Данщина,614068,58.0055356,56.1838599
72,шоссе Космонавтов,614081,57.9963207,56.2171891
6,улица Генкеля,614068,58.0056636,56.1824652
28,улица Сергея Данщина,614068,58.0058876,56.1837028
4,улица Генкеля,614068,58.0064158,56.1779363
25,улица Сухобруса,614068,58.0080763,56.1805135
38,улица Красина,614058,58.0087025,56.1231301
18,улица 9 Января,614058,58.0068277,56.1373052
7А,Алтайская улица,614058,58.0050626,56.1374733
16,улица 9 Января,614058,58.0059027,56.1388400
7Б,Алтайская улица,614058,58.0042414,56.1372332
20,улица 9 Января,614058,58.0080943,56.1333051
20/1,улица 9 Января,614058,58.0067660,56.1322042
3,улица Маяковского,614058,58.0065514,56.1268960
5,улица Маяковского,614058,58.0064671,56.1265973
9,улица Маяковского,614058,58.0062542,56.1258981
11,улица Маяковского,614058,58.0061540,56.1255408
13,улица Маяковского,614058,58.0060511,56.1251798
6,улица Маяковского,614058,58.0063014,56.1244756
9А,улица Сергея Есенина,614058,58.0031838,56.1177412
31,улица Маяковского,614058,58.0041320,56.1171276
7А,улица Сергея Есенина,614058,58.0013385,56.1182323
31,Кронштадтская улица,614081,57.9979919,56.2047750
29,Кронштадтская улица,614081,57.9974089,56.2049985
5Б,улица Голева,614081,57.9997004,56.2148832
5В,улица Голева,614081,57.9994667,56.2146892
12,улица Голева,614081,57.9963486,56.2132721
7А,улица Голева,614081,57.9986012,56.2123942
42А,Транспортная улица,614031,58.0343452,56.1277260
12,улица Кочегаров,614067,58.0375241,56.1067179
2,улица ОПМС-14,614067,58.0342590,56.0648798
1,улица ОПМС-14,614067,58.0345930,56.0657799
40,улица Промучасток,614023,58.0387196,56.0667663
40А,улица Промучасток,614023,58.0380030,56.0649293
42,улица Промучасток,614023,58.0376443,56.0699220
40/1,улица Промучасток,614023,58.0370566,56.0674956
23,улица Кочегаров,614067,58.0390222,56.1065949
23,улица Кочегаров,614067,58.0391224,56.1066405
27,улица Кочегаров,614067,58.0393590,56.1051069
29,улица Кочегаров,614067,58.0395848,56.1041041
25,улица Кочегаров,614067,58.0392031,56.1057779
46,Транспортная улица,614067,58.0335124,56.1216362
48,Транспортная улица,614031,58.0335772,56.1237750
110,улица Героев Хасана,614025,57.9442319,56.2646672
18,1-я Бахаревская улица,614033,57.9523053,56.2274416
20,1-я Бахаревская улица,614033,57.9517476,56.2274886
24,1-я Бахаревская улица,614033,57.9522286,56.2290475
26,1-я Бахаревская улица,614033,57.9522209,56.2295512
106,улица Героев Хасана,614025,57.9469079,56.2614701
106,улица Героев Хасана,614025,57.9482553,56.2616912
104,улица Героев Хасана,614077,57.9489911,56.2611133
102 к1,улица Героев Хасана,614025,57.9507335,56.2608109
100,улица Героев Хасана,614025,57.9510649,56.2635389
147,Промышленная улица,614055,57.9139837,56.1749927
84В,Промышленная улица,614055,57.9259766,56.1340049
84Б,Промышленная улица,614055,57.9273853,56.1317764
96,Промышленная улица,614055,57.8835209,56.1588710
98,Промышленная улица,614055,57.8846982,56.1618510
96А,Промышленная улица,614055,57.8834324,56.1619927
2,Закаменная зона,614055,57.8850147,56.1565195
28А,улица Фрунзе,614026,58.1232856,56.4000991
26А,улица Фрунзе,614026,58.1233009,56.3995771
8,улица Гальперина,614042,57.9914835,55.9289354
1Б,Причальная улица,614042,57.9869047,55.9350061
29,улица Гальперина,614042,57.9960088,55.8849593
56,Воронежская улица,614034,58.0382818,55.8375281
58,Воронежская улица,614034,58.0394919,55.8347734
59,Воронежская улица,614034,58.0364874,55.8333785
44,Воронежская улица,614034,58.0372455,55.8349393
58,Воронежская улица,614034,58.0394637,55.8362817
110,Ласьвинская улица,614042,58.0194454,55.8754490
104В,Ласьвинская улица,614042,58.0166021,55.8938502
98К,Ласьвинская улица,614042,58.0173382,55.9111304
98Д,Ласьвинская улица,614042,58.0170698,55.9115981
1,Миргородская улица,614042,58.0028583,55.9169132
3,Сивашская улица,614042,57.9998049,55.9028226
31,улица Гальперина,614042,57.9959948,55.9036203
9,Сивашская улица,614042,58.0061813,55.9098750
89А,бульвар Гагарина,614077,57.9963749,56.2901922
12,Невская улица,614018,58.0442725,56.2847967
12А,Невская улица,614018,58.0443816,56.2846362
108В,Лядовская улица,614053,58.0345884,56.3559654
9,улица Блюхера,614081,57.9949750,56.2112668
17/2,улица Яблочкова,614111,57.9708486,56.2259424
4А,Молдавская улица,614104,58.0877955,56.4044410
86,улица Юрша,614051,58.0015257,56.3044627
82,улица Юрша,614051,58.0025028,56.3053472
80,улица Юрша,614051,58.0029861,56.3058244
84,улица Юрша,614051,58.0020274,56.3048855
36аа,Парковый проспект,614097,57.9978768,56.1558816
4А,улица Академика Вавилова,614087,57.9924654,56.1981873
2,Полевая улица,614990,57.9981714,56.2215915
8,Вольская улица,614023,58.0458466,56.0328746
1,Спартаковская улица,614095,57.9868215,56.2273743
17,Сочинская улица,614031,58.0413297,56.1274161
37Б,Кронштадтская улица,614081,57.9989019,56.2032284
34,улица Разведчиков,614065,57.9602487,56.1607640
27,Грибная улица,614089,57.9293658,56.4213914
17,Грибная улица,614089,57.9282834,56.4223880
24,Зимняя улица,614089,57.9276730,56.4202193
26,Зимняя улица,614089,57.9277278,56.4190490
28,Зимняя улица,614089,57.9278683,56.4193906
178,Бродовское кольцо,614089,57.9278187,56.4199302
3,Зимняя улица,614089,57.9279712,56.4185453
9,Зимняя улица,614089,57.9287321,56.4182544
8,Осенняя улица,614089,57.9286369,56.4173260
10,Осенняя улица,614089,57.9288530,56.4170540
10А,Осенняя улица,614089,57.9290539,56.4168682
165,Осенняя улица,614089,57.9315464,56.4136814
163А,Осенняя улица,614089,57.9315560,56.4138497
163,Осенняя улица,614089,57.9313227,56.4141702
49,Летняя улица,614089,57.9318494,56.4173390
64,Зимняя улица,614089,57.9317596,56.4166365
62,Зимняя улица,614089,57.9317070,56.4163494
43,Летняя улица,614089,57.9311253,56.4179507
35,Летняя улица,614089,57.9302786,56.4187917
50,Зимняя улица,614089,57.9302699,56.4177404
48,Зимняя улица,614089,57.9300501,56.4178537
16,Осенняя улица,614089,57.9294835,56.4165285
106,Смородиновая улица,614089,57.9265635,56.4170687
189,Бродовское кольцо,614089,57.9271284,56.4169312
88,Кленовая улица,614089,57.9312678,56.4092803
101,Цветочная улица,614089,57.9305165,56.4106192
102,Кленовая улица,614089,57.9296154,56.4103480
212,Цветочная улица,614089,57.9298153,56.4120633
159,Бродовское кольцо,614089,57.9298117,56.4132525
222,Цветочная улица,614089,57.9287992,56.4129671
167,Бродовское кольцо,614089,57.9290108,56.4139078
114,Кленовая улица,614089,57.9283238,56.4116285
116,Кленовая улица,614089,57.9285086,56.4117149
121,Цветочная улица,614089,57.9283570,56.4122595
232,Цветочная улица,614089,57.9274264,56.4142838
234,Цветочная улица,614089,57.9271645,56.4146172
236,Цветочная улица,614089,57.9270910,56.4151088
28А,улица Лукоянова,614021,57.9586692,56.2300726
5,Пасечная улица,614089,57.9418510,56.4278313
1,Комсомольская улица,614105,58.0523509,56.6039966
21/1,улица 9 Мая,614095,57.9793224,56.1965312
69,улица Красные Казармы,614010,57.9916576,56.2676754
6,улица Карла Модераха,614010,57.9927278,56.2625916
63Г,шоссе Космонавтов,614081,57.9937571,56.2110443
15А,Подлесная улица,614097,57.9943664,56.1450162
17А,Бородулинская улица,614023,58.0429098,56.0280594
43,улица Энергетиков,614065,57.9576336,56.1540092
34А,Бродовское кольцо,614089,57.9339877,56.4143697
7Е,Мраморная улица,614014,57.9996029,56.3229109
24,улица Танцорова,614109,58.0215748,56.0178697
20,Запольская улица,614023,58.0432905,56.0516374
39,Верхне-Волжская улица,614026,58.1213388,56.4012034
17А,Гатчинская улица,614097,57.9925236,56.1789450
37,Полазненская улица,614064,57.9761328,56.2681678
79,улица Героев Хасана,614064,57.9761208,56.2609923
18,2-я Липогорская улица,614025,57.9554944,56.2895298
11,Мраморная улица,614014,57.9985681,56.3244274
14/2,Маршрутная улица,614010,57.9843771,56.2393721
39,2-я Гаревая улица,614023,58.0582408,56.0502100
17Б,Ишимская улица,614038,58.1119867,56.3862718
31,Полазненская улица,614064,57.9759839,56.2691555
28А,1-я Палубная улица,614029,58.1517603,56.3021214
31/213,Цимлянская улица,614026,58.1341714,56.4045376
15,4-я Липогорская улица,614025,57.9555959,56.2870408
5,улица 2-е Загарье,614064,57.9827716,56.2765430
26,3-я Гаревая улица,614023,58.0578762,56.0521908
93,1-я Соболинская улица,614025,57.9486770,56.2957837
88В,улица Фрунзе,614026,58.1203443,56.4197944
2,Трактовая улица,614054,58.0856120,56.3536823
2А,2-я Липогорская улица,614025,57.9534170,56.2891018
20А,Закамская улица,614113,57.9998133,55.9524308
41,Полазненская улица,614064,57.9762306,56.2674818
42,Хабаровская улица,614067,58.0550844,56.0929335
12А,улица Снайперов,614095,57.9828196,56.2088378
38,улица Маршала Рыбалко,614101,58.0062195,55.9526116
16,Бенгальская улица,614037,58.1451396,56.4339419
17,Новосибирская улица,614021,57.9633137,56.2358457
32,улица Адмирала Ушакова,614109,58.0327409,56.0146558
55/2,улица Адмирала Ушакова,614109,58.0268891,56.0020511
42,улица Докучаева,614031,58.0358562,56.1432979
73,улица Карпинского,614095,57.9787167,56.2162584
3В,Деревообделочная улица,614058,58.0011823,56.1461903
38,улица Ивана Франко,614056,58.0633187,56.3546325
12А,улица Маршала Рыбалко,614101,57.9986761,55.9425868
57,улица Плеханова,614081,57.9988482,56.2078167
11,Ямпольская улица,614032,58.0129658,55.9661519
24,улица Гашкова,614056,58.0605521,56.3483325
56Б,улица Писарева,614030,58.1149830,56.3045766
43/2,улица Архитектора Свиязева,614065,57.9623262,56.1569884
65,улица Плеханова,614081,57.9974220,56.2077891
2,Гаревая улица,614023,58.0615001,56.0521084
5,Полевая улица,614081,57.9973580,56.2206686
39,Кронштадтская улица,614081,57.9959407,56.2021747
6,улица Фридриха Энгельса,614046,58.0004250,56.1800626
10,улица Фридриха Энгельса,614046,57.9999467,56.1823181
17,Боровая улица,614046,57.9994037,56.1815484
42,улица Татьяны Барамзиной,614046,58.0022196,56.1787441
114,улица Пушкина,614068,58.0007950,56.2187214
48Б,шоссе Космонавтов,614081,57.9979588,56.2226742
61,Подгорная улица,614081,57.9988203,56.2212603
116Б,улица Пушкина,614068,58.0005064,56.2200996
67,Подгорная улица,614068,58.0002109,56.2207418
13,Подгорная улица,614016,57.9986892,56.2288896
109,улица Пушкина,614068,58.0029945,56.2197202
112,улица Пушкина,614068,58.0012763,56.2180691
114А,улица Пушкина,614068,58.0008153,56.2182268
27,улица Попова,614068,58.0060163,56.2271189
21,улица Попова,614068,58.0073227,56.2263166
71А,улица Борчанинова,614068,58.0011148,56.2228631
16,Локомотивная улица,614046,58.0005846,56.1904421
41,Кронштадтская улица,614081,57.9978124,56.2030968
7,Рабочая улица,614087,57.9938689,56.1988855
35А,проспект Декабристов,614022,57.9746325,56.1994754
54 литЖ,Стахановская улица,614066,57.9882537,56.2054496
8,Воронежская улица,614034,58.0256208,55.8415023
64,улица Куйбышева,614016,57.9992967,56.2424425
2 к1,Алтайская улица,614058,58.0023094,56.1423404
15А,улица Чернышевского,614002,57.9966310,56.2672015
98,Промышленная улица,614055,57.8791519,56.1857500
96,Промышленная улица,614055,57.8791310,56.1611858
3Б,улица Сивкова,614022,57.9826658,56.2210797
29,Комсомольский проспект,614990,58.0081268,56.2396412
53,улица Гашкова,614054,58.0531405,56.3469960
27,улица Энгельса,614087,57.9986121,56.1920288
18,улица Энгельса,614046,57.9984810,56.1845588
43,улица Комбайнёров,614036,57.9747180,56.1851611
65,улица Карпинского,614095,57.9808528,56.2168849
50,улица Карпинского,614095,57.9829903,56.2152729
177А,Екатерининская улица,614068,58.0017893,56.2011727
39,улица Чернышевского,614010,57.9956731,56.2613878
11Б,улица Героев Хасана,614010,57.9907599,56.2591004
67,улица Красные Казармы,614010,57.9898350,56.2677948
68,улица Красные Казармы,614010,57.9907391,56.2677399
13,Сапфирная улица,614113,58.0100871,56.3345013
10,Сапфирная улица,614113,58.0118948,56.3298954
12,Сапфирная улица,614113,58.0111264,56.3308258
16,Сапфирная улица,614113,58.0087822,56.3337844
14,Сапфирная улица,614113,58.0099491,56.3323123
59,улица Кочегаров,614067,58.0424398,56.0926351
1,улица Максима Горького,614000,58.0189538,56.2494880
6,1-я Красноармейская улица,614007,58.0021212,56.2669159
14,улица Карпинского,614095,57.9889575,56.2163616
19,Цимлянская улица,614026,58.1329317,56.4000473
6,Кавказская улица,614026,58.1213999,56.3813950
26,Кавказская улица,614026,58.1188746,56.3801453
47,улица Генерала Черняховского,614104,58.0842176,56.4038659
56,улица Шмидта,614051,58.0035107,56.3009404
66,Уинская улица,614113,58.0047058,56.3356830
26,Агатовая улица,614113,58.0038713,56.3377171
68,Уинская улица,614113,58.0048335,56.3376964
97,улица Сакко и Ванцетти,614113,58.0036626,56.3359825
93А,улица Сакко и Ванцетти,614113,58.0046610,56.3335403
19,Иньвенская улица,614056,58.0638334,56.3608960
57,Целинная улица,614054,58.0501400,56.3474210
31,улица Белинского,614002,57.9997832,56.2685254
22,улица Революции,614007,58.0052500,56.2591758
20,улица Революции,614007,58.0057219,56.2609371
45,улица Максима Горького,614000,58.0094603,56.2573911
6,улица Пушкина,614000,58.0116190,56.2627227
17,Пермская улица,614000,58.0150113,56.2553123
48Б,улица Революции,614039,58.0004946,56.2455410
52Г,улица Революции,614039,58.0010383,56.2430440
48В,улица Революции,614039,58.0007072,56.2437893
50,улица Революции,614039,58.0024806,56.2448122
48А,улица Революции,614039,58.0015450,56.2453699
52Б,улица Революции,614039,58.0019608,56.2419268
52В,улица Революции,614039,58.0011762,56.2416867
54,улица Революции,614039,58.0028332,56.2406684
52,улица Революции,614039,58.0027268,56.2425245
99,улица Луначарского,614068,58.0038950,56.2241973
46,Монастырская улица,614000,58.0136407,56.2220823
70,Монастырская улица,614000,58.0133592,56.2174355
24,улица Окулова,614000,58.0138492,56.2187511
29,улица Окулова,614000,58.0133859,56.2157707
21,Краснополянская улица,614025,57.9710903,56.2739577
31,улица Лукоянова,614033,57.9592230,56.2319091
53А,улица Карпинского,614095,57.9818534,56.2170799
49А,улица Карпинского,614095,57.9823796,56.2178484
1А,Стахановская улица,614095,57.9842230,56.2263503
15А,улица Овчинникова,614094,57.9934816,56.2246200
29,улица Подводников,614012,57.9752486,56.2055414
24 к5,Теплогорская улица,614012,57.9734036,56.1874048
115Б,улица Мира,614065,57.9667018,56.1523916
11,улица Давыдова,614036,57.9738015,56.1644134
100,улица Мира,614036,57.9743047,56.1708232
17,улица Решетникова,614068,58.0095628,56.2064020
19,улица Решетникова,614068,58.0092205,56.2066662
5,Локомотивная улица,614046,57.9983607,56.1909461
50А,Парковый проспект,614097,57.9971630,56.1629390
10Б,улица Куфонина,614017,57.9959960,56.1351453
2,Подлесная улица,614017,57.9921173,56.1376600
9А,Малая Ямская улица,618000,58.0092469,56.2565886
10,2-я Корсуньская улица,614037,58.1502315,56.3977529
104,улица Пушкина,614068,58.0023322,56.2260390
2Ж,Холмогорская улица,614083,57.9845919,56.2849217
57,Новозвягинская улица,614014,58.0720123,56.3362632
27,улица Клары Цеткин,614010,57.9909557,56.2391863
101,улица Куйбышева,614010,57.9885751,56.2475493
6,улица Генкеля,614068,58.0063855,56.1823514
11,улица Гальперина,614113,57.9792145,55.8812497
43 к2,улица Анри Барбюса,614107,58.0305382,56.3070340
8,улица Василия Татищева,614010,57.9908253,56.2654488
6,улица Василия Татищева,614010,57.9907862,56.2632448
21А,улица Свободы,614014,58.0296720,56.3215142
21,улица Свободы,614014,58.0294694,56.3224426
51,улица Анри Барбюса,614107,58.0298782,56.3051866
7,Транспортная улица,614031,58.0329241,56.1387322
60,Монастырская улица,614000,58.0132573,56.2187670
65 к2,улица Плеханова,614081,57.9976155,56.2066515
21,улица 9 Мая,614095,57.9794371,56.1955035
8,улица Карла Модераха,614010,57.9916626,56.2626417
54 литП,Стахановская улица,614066,57.9888569,56.2064572
54Б,Стахановская улица,614066,57.9893809,56.2065735
54 литР,Стахановская улица,614066,57.9883394,56.2062933
54 литО,Стахановская улица,614066,57.9890602,56.2050007
3/1,Байкальская улица,614023,58.0302387,56.0261857
86,шоссе Космонавтов,614081,57.9944529,56.2079951
45А,улица Мира,614095,57.9765213,56.1837108
45,улица Мира,614095,57.9768533,56.1836865
45Б,улица Мира,614095,57.9770146,56.1842288
36,улица Крылова,614081,57.9996692,56.2181645
15,улица Борчанинова,614068,58.0034049,56.2214989
104Н,улица Пушкина,614068,58.0016626,56.2246190
33,Парковый проспект,614046,57.9984882,56.1648191
