House number,Street name,Postal code,Latitude,Longitude
2716,North Green Valley Parkway,89014,36.0696149,-115.0813114
100,Delmar Gardens Drive,89074,36.0331000,-115.0961000
1180,East Lake Mead Parkway,89015,36.0615586,-114.9622756
1500,West Warm Springs Road,89014,36.0574856,-115.0498300
1560,West Warm Springs Road,89014,36.0566667,-115.0530556
100,North Green Valley Parkway,89074,36.0259559,-115.0837649
830,S> Boulder Highway,89015,36.0268895,-114.9657478
835,Seven Hills Drive,89052,35.9965162,-115.1244529
53,Lake Mead Parkway,89015,36.0373694,-114.9847547
19,West Pacific Avenue,89015,36.0332021,-114.9854928
18,West Pacific Avenue,89015,36.0335058,-114.9856162
76,"West Horizon Ridge Parkway, STE 150",89012,36.0137634,-114.9928676
9550,South Eastern Avenue,89123,36.0150079,-115.1172361
26,West Horizon Ridge Parkway,89012,36.0120233,-114.9923702
10604,South Eastern Avenue,89052,35.9992281,-115.1040070
10890,S. Eastern Ave,89052,35.9949754,-115.0999810
2310,Icarus Drive,89074,36.0524714,-115.0860907
10345,Eastern Avenue,89052,36.0008937,-115.1092556
2220,Village Walk Drive,89052,36.0219057,-115.0856560
560,Cape Horn Drive,89011,36.0606571,-115.0181079
605,Mall Ring Circle,89014,36.0647098,-115.0392205
641,Marks Street,89014,36.0653553,-115.0368484
10120,Eastern Avenue,89052,36.0063049,-115.1110340
1610,Lake Las Vegas Parkway,89011,36.1021092,-114.9320728
10,Via Bel Canto,89011,36.1030545,-114.9291045
10,Via Bel Canto,89011,36.1030410,-114.9291508
4161,Saint Rose Parkway,89044,35.9674163,-115.1687949
220,West Sunset,89105,36.0653715,-115.0130582
1453,North Boulder Highway,89011,36.0581546,-115.0038435
579,North Stephanie Street,89014,36.0610337,-115.0482854
2718,North Green Valley Parkway,89014-2132,36.0696106,-115.0810312
2240,Village Walk Drive,89052,36.0216267,-115.0867200
2265,Village Walk Drive,89052,36.0210847,-115.0878630
2240,Village Walk Drive,89052,36.0216794,-115.0865770
2255,Village Walk Drive,89052,36.0209496,-115.0866284
2225,Village Walk Drive,89052,36.0215003,-115.0859140
2225,Village Walk Drive,89052,36.0212638,-115.0857275
2225,Village Walk Drive,89052,36.0215891,-115.0854220
2275,Village Walk Drive,89052,36.0210288,-115.0880550
2240,Village Walk Drive,89052,36.0216981,-115.0863960
2265,Village Walk Drive,89052,36.0211541,-115.0875580
2260,Village Walk Drive,89052,36.0214071,-115.0877385
2225,Village Walk Drive,89052,36.0212548,-115.0858550
2260,Village Walk Drive,89052,36.0214864,-115.0873890
2220,Village Walk Drive,89052,36.0217605,-115.0861880
2235,Village Walk Drive,89052,36.0210802,-115.0860030
110,Corporate Park Dr,89074,36.0361981,-115.0340574
382,Lake Mead Parkway,89015,36.0369534,-114.9957286
7485,Commercial Way,89011,36.0528904,-115.0244816
20,South Water Street,89015,36.0352992,-114.9860471
255,Elliott Road,89011,36.0658247,-115.0170155
2607,Windmill Parkway,89074-3384,36.0420071,-115.1012791
175,North Stephanie Street,89074,36.0403285,-115.0476625
510,Marks Street,89014,36.0600107,-115.0359687
9460,South Eastern Avenue,89123,36.0175498,-115.1183786
9460,South Eastern Avenue,89123,36.0175563,-115.1181399
9530,South Eastern Avenue,89123,36.0159025,-115.1172079
9310,South Eastern Avenue,89123,36.0190509,-115.1174838
2694,African Violet Avenue,89074,36.0458548,-115.1028052
2654,West Horizon Ridge Parkway,89052,36.0015807,-115.1042620
2280,Paseo Verde Parkway,89052,36.0198066,-115.0869716
140,South Green Valley Parkway,89012,36.0224315,-115.0831659
1489,West Warm Springs Road,89014,36.0547399,-115.0501840
338,South Water Street,89015,36.0280369,-114.9786101
7350,Eastgate Road,89011,36.0539410,-115.0185302
731,Mall Ring Circle,89014,36.0704825,-115.0448909
4190,East Sunset Road,89014,36.0713112,-115.0828352
9550,South Eastern Avenue,89123,36.0147177,-115.1172484
601,West Lake Mead Parkway,89015,36.0346954,-115.0006820
1200,West Warm Springs Road,89014,36.0569174,-115.0380830
4036,East Sunset Road,89014,36.0713392,-115.0867739
4036,East Sunset Road,89014,36.0715959,-115.0866291
4190,East Sunset Road,89014,36.0715903,-115.0829991
46,Desert Sunflower Circle,89002,35.9953682,-114.9912388
2810,Bicentennial Parkway,89044,35.9416619,-115.1166867
2810,Bicentennial Parkway,89044,35.9415508,-115.1166509
1075,American Pacific Drive,89074,36.0412597,-115.0340810
2451,Hampton Road,89052,35.9536465,-115.0934700
3470,Volunteer Boulevard,89044,35.9605352,-115.1405596
641,Marks Street,89014,36.0653551,-115.0366940
2843,North Green Valley Parkway,89014,36.0729768,-115.0837482
46,South Water Street,89015,36.0344781,-114.9851084
2890,Bicentennial Parkway,89044,35.9432428,-115.1173016
7980,South Eastern Avenue,89123,36.0443605,-115.1178087
65,Lake Mead Parkway,89015,36.0365102,-114.9872769
2861,North Green Valley Parkway,89014,36.0719288,-115.0833919
2280,Paseo Verde Parkway,89052,36.0199464,-115.0870526
10075,South Eastern Avenue,89052,36.0047829,-115.1123750
3660,St Rose Parkway,89052,35.9842615,-115.1482302
915,Alper Center Drive,89052,35.9932810,-115.1313218
2300,Paseo Verde Parkway,89052,36.0211151,-115.0909382
9680,South Eastern Avenue,89123,36.0135794,-115.1183800
1489,W Warm Springs Rd #110-9,89014,36.0546973,-115.0501722
1381,West Sunset Road,89014,36.0632335,-115.0456380
1311,West Sunset Road,89014,36.0632084,-115.0433809
10616,10616 S. Eastern Avenue,89052,35.9995066,-115.1024046
1360,West Horizon Ridge Parkway,89012,36.0225364,-115.0464975
171,N Gibson Rd #170,89014,36.0393700,-115.0299224
107,South Water Street,89015,36.0340547,-114.9841474
3215,Saint Rose Parkway,89052,35.9966810,-115.1277745
2712,North Green Valley Parkway,89014,36.0696987,-115.0815360
9540,South Eastern Avenue,89123,36.0152785,-115.1170730
2558,Wigwam Parkway,89074,36.0357148,-115.0993237
886,S. Boulder Highway,89015,36.0254577,-114.9637699
868,S. Boulder Highway,89015,36.0257497,-114.9641946
894,S. Boulder Highway,89015,36.0253633,-114.9645981
856,S Boulder Highway,89015,36.0264882,-114.9646795
842,S Boulder Highway,89015,36.0266570,-114.9648671
154,Rocky Star Street,89012,36.0252483,-115.0366148
1070,W Horizon Ridge Pkwy,89012,36.0224795,-115.0324290
260,E Lake Mead Parkway,89015,36.0410255,-114.9773084
280,North Gibson Road,89014,36.0489154,-115.0281460
400,N Stephanie St,89014,36.0570782,-115.0449030
336,Cadence Vista Drive,89011,36.0550556,-114.9808893
1505,Wigwam Parkway,89074,36.0334692,-115.0486440
201,South Stephanie Street,89012,36.0204828,-115.0491005
695,South Green Valley Parkway,89052,36.0031384,-115.0852751
695,South Green Valley Parkway,89052,36.0031443,-115.0853527
605,Mall Ring Circle,89014,36.0644096,-115.0392843
7585,Commercial Way,89011,36.0514952,-115.0239030
9400,South Eastern Avenue,89123,36.0182125,-115.1179060
16,South Water Street,89015,36.0354455,-114.9861756
509,North Stephanie Street,89014,36.0570515,-115.0469038
509,North Stephanie Street,89014,36.0567654,-115.0468967
1405,West Sunset Road,89014,36.0633132,-115.0471839
1405,West Sunset Road,89014,36.0633741,-115.0469465
1445,West Sunset Road,89014,36.0631982,-115.0485972
1445,West Sunset Road,89014,36.0624827,-115.0486186
1445,West Sunset Road,89014,36.0627819,-115.0486401
571,North Stephanie Street,89014,36.0607221,-115.0482968
537,North Stephanie Street,89014,36.0590958,-115.0482538
535,North Stephanie Street,89014,36.0587836,-115.0482699
517,North Stephanie Street,89014,36.0571962,-115.0481826
550,North Stephanie Street,89014,36.0601616,-115.0459241
550,North Stephanie Street,89014,36.0601692,-115.0456335
550,North Stephanie Street,89014,36.0601690,-115.0457561
500,North Stephanie Street,89014,36.0591464,-115.0441317
470,North Stephanie Street,89014,36.0583499,-115.0455980
517,North Stephanie Street,89014,36.0574163,-115.0481830
509,North Stephanie Street,89014,36.0569168,-115.0469031
1321,West Sunset Road,89014,36.0632087,-115.0440475
1321,West Sunset Road,89014,36.0632090,-115.0441316
1311,West Sunset Road,89014,36.0632089,-115.0436824
1381,West Sunset Road,89014,36.0632333,-115.0450595
1381,West Sunset Road,89014,36.0632261,-115.0452081
1381,West Sunset Road,89014,36.0628779,-115.0456876
1351,West Sunset Road,89014,36.0632476,-115.0448082
1351,West Sunset Road,89014,36.0632533,-115.0445003
1351,West Sunset Road,89014,36.0632547,-115.0446560
1311,West Sunset Road,89014,36.0632147,-115.0435358
1301,West Sunset Road,89014,36.0599081,-115.0409947
390,North Stephanie Street,89014,36.0551039,-115.0457757
390,North Stephanie Street,89014,36.0552041,-115.0453926
1275,West Warm Springs Road,89014,36.0554971,-115.0416652
1211,West Warm Springs Road,89014,36.0558289,-115.0393254
1331,West Warm Springs Road,89014,36.0558009,-115.0423441
1371,West Warm Springs Road,89014,36.0556429,-115.0448366
560,Marks Street,89014,36.0618255,-115.0359573
560,Marks Street,89014,36.0619406,-115.0359666
560,Marks Street,89014,36.0615555,-115.0359993
560,Marks Street,89014,36.0617707,-115.0359526
560,Marks Street,89014,36.0617235,-115.0359526
530,Marks Street,89014,36.0604528,-115.0345247
510,Marks Street,89014,36.0600584,-115.0361265
510,Marks Street,89014,36.0601176,-115.0363948
545,Marks Street,89014,36.0618896,-115.0368000
1080,West Sunset Road,89014,36.0663142,-115.0352137
1080,West Sunset Road,89014,36.0668779,-115.0350474
711,Marks Street,89014,36.0676640,-115.0366910
711,Marks Street,89014,36.0676636,-115.0367908
711,Marks Street,89014,36.0676674,-115.0365865
691,Marks Street,89014,36.0669724,-115.0367206
661,Marks Street,89014,36.0661193,-115.0366568
661,Marks Street,89014,36.0661217,-115.0368581
661,Marks Street,89014,36.0661224,-115.0367484
617,Mall Ring Circle,89014,36.0649857,-115.0400937
617,Mall Ring Circle,89014,36.0647049,-115.0401415
617,Mall Ring Circle,89014,36.0648494,-115.0402158
605,Mall Ring Circle,89014,36.0652973,-115.0391964
605,Mall Ring Circle,89014,36.0646309,-115.0392144
605,Mall Ring Circle,89014,36.0649842,-115.0392013
605,Mall Ring Circle,89014,36.0651451,-115.0391983
605,Mall Ring Circle,89014,36.0650617,-115.0392013
605,Mall Ring Circle,89014,36.0652221,-115.0391966
671,Mall Ring Circle,89014,36.0645000,-115.0456236
671,Mall Ring Circle,89014,36.0646396,-115.0456729
675,Mall Ring Circle,89014,36.0651099,-115.0454814
675,Mall Ring Circle,89014,36.0649484,-115.0457537
619,North Stephanie Street,89014,36.0655410,-115.0479123
617,North Stephanie Street,89014,36.0654870,-115.0479087
615,North Stephanie Street,89014,36.0654414,-115.0479089
621,North Stephanie Street,89014,36.0656032,-115.0479131
613,North Stephanie Street,89014,36.0653965,-115.0479085
611,North Stephanie Street,89014,36.0653324,-115.0478723
689,North Stephanie Street,89014,36.0663752,-115.0466368
695,North Stephanie Street,89014,36.0665527,-115.0466286
693,North Stephanie Street,89014,36.0664696,-115.0466356
631,North Stephanie Street,89014,36.0665004,-115.0478917
633,North Stephanie Street,89014,36.0665801,-115.0478823
1521,West Sunset Road,89014,36.0625743,-115.0511412
1531,West Sunset Road,89014,36.0625771,-115.0514597
1533,West Sunset Road,89014,36.0633053,-115.0515101
1533,West Sunset Road,89014,36.0633035,-115.0512605
1533,West Sunset Road,89014,36.0633050,-115.0514073
1405,West Sunset Road,89014,36.0633062,-115.0469456
1405,West Sunset Road,89014,36.0633120,-115.0470675
1308,West Sunset Road,89014,36.0679208,-115.0405906
1316,West Sunset Road,89014,36.0676054,-115.0436397
1300,West Sunset Road,89014,36.0670588,-115.0420070
1620,West Sunset Road,89014,36.0641986,-115.0562905
1540,West Sunset Road,89014,36.0641529,-115.0520855
1540,West Sunset Road,89014,36.0641557,-115.0518838
1620,West Sunset Road,89014,36.0642115,-115.0566546
1080,Whitney Ranch Drive,89014,36.0813705,-115.0533153
1017,Whitney Ranch Drive,89014,36.0792732,-115.0536363
1045,Whitney Ranch Drive,89014,36.0800145,-115.0540306
1039,Whitney Ranch Drive,89014,36.0798758,-115.0539394
1001,Whitney Ranch Drive,89014,36.0786922,-115.0535751
4451,East Sunset Road,89014,36.0695152,-115.0739981
4451,East Sunset Road,89014,36.0695152,-115.0743462
4604,East Sunset Road,89014,36.0722885,-115.0727674
4606,East Sunset Road,89014,36.0722892,-115.0726955
4640,East Sunset Road,89014,36.0719928,-115.0723025
4642,East Sunset Road,89014,36.0718769,-115.0723004
4610,East Sunset Road,89014,36.0723205,-115.0725209
4608,East Sunset Road,89014,36.0722902,-115.0726348
4500,East Sunset Road,89014,36.0722924,-115.0747854
4500,East Sunset Road,89014,36.0720498,-115.0759717
4500,East Sunset Road,89014,36.0719998,-115.0761293
4500,East Sunset Road,89014,36.0719983,-115.0767807
4500,East Sunset Road,89014,36.0719946,-115.0769224
6451,South Mountain Vista Street,89014,36.0713892,-115.0718394
4650,East Sunset Road,89014,36.0713306,-115.0723142
4650,East Sunset Road,89014,36.0714106,-115.0723119
4650,East Sunset Road,89014,36.0712398,-115.0723151
4662,East Sunset Road,89014,36.0716347,-115.0720226
4660,East Sunset Road,89014,36.0715948,-115.0721030
4658,East Sunset Road,89014,36.0715429,-115.0721941
4656,East Sunset Road,89014,36.0714816,-115.0722851
4500,East Sunset Road,89014,36.0722933,-115.0746092
4500,East Sunset Road,89014,36.0722918,-115.0744687
4500,East Sunset Road,89014,36.0719927,-115.0762935
205,North Stephanie Street,89074,36.0420163,-115.0481474
249,North Stephanie Street,89074,36.0447786,-115.0471890
245,North Stephanie Street,89074,36.0451317,-115.0480483
245,North Stephanie Street,89074,36.0450014,-115.0480483
245,North Stephanie Street,89074,36.0449506,-115.0480521
237,North Stephanie Street,89074,36.0443935,-115.0480747
237,North Stephanie Street,89074,36.0444872,-115.0480686
229,North Stephanie Street,89074,36.0437746,-115.0480767
237,North Stephanie Street,89074,36.0441059,-115.0480660
213,North Stephanie Street,89074,36.0429627,-115.0481087
213,North Stephanie Street,89074,36.0429101,-115.0481068
205,North Stephanie Street,89074,36.0419556,-115.0481470
213,North Stephanie Street,89074,36.0427825,-115.0481111
205,North Stephanie Street,89074,36.0421485,-115.0481419
205,North Stephanie Street,89074,36.0420937,-115.0481419
205,North Stephanie Street,89074,36.0422157,-115.0481404
213,North Stephanie Street,89074,36.0428582,-115.0481095
217,North Stephanie Street,89074,36.0432048,-115.0480967
217,North Stephanie Street,89074,36.0432677,-115.0480980
217,North Stephanie Street,89074,36.0431039,-115.0480953
229,North Stephanie Street,89074,36.0438212,-115.0480767
229,North Stephanie Street,89074,36.0438754,-115.0480781
175,North Stephanie Street,89074,36.0399535,-115.0474348
175,North Stephanie Street,89074,36.0399864,-115.0475498
175,North Stephanie Street,89074,36.0404028,-115.0476277
175,North Stephanie Street,89074,36.0400265,-115.0476660
175,North Stephanie Street,89074,36.0401052,-115.0477374
175,North Stephanie Street,89074,36.0401810,-115.0477409
175,North Stephanie Street,89074,36.0402526,-115.0477037
1231,American Pacific Drive,89074,36.0413193,-115.0402678
193,North Gibson Road,89014,36.0410220,-115.0299291
193,North Gibson Road,89014,36.0407161,-115.0299187
183,North Gibson Road,89014,36.0402076,-115.0299233
171,North Gibson Road,89014,36.0391600,-115.0299472
151,North Gibson Road,89014,36.0383825,-115.0299068
151,North Gibson Road,89014,36.0385452,-115.0299007
151,North Gibson Road,89014,36.0384703,-115.0299020
1015,American Pacific Drive,89074,36.0414565,-115.0303624
183,North Gibson Road,89014,36.0400143,-115.0299254
975,American Pacific Drive,89014,36.0414529,-115.0279877
980,American Pacific Drive,89014,36.0423164,-115.0276039
175,Cassia Way,89014,36.0403682,-115.0275233
175,Cassia Way,89014,36.0397055,-115.0273570
931,American Pacific Drive,89014,36.0415978,-115.0259465
222,South Water Street,89015,36.0314507,-114.9820745
155,South Water Street,89015,36.0322135,-114.9822981
155,South Water Street,89015,36.0322880,-114.9823685
155,South Water Street,89015,36.0323322,-114.9822971
147,South Water Street,89015,36.0324813,-114.9825535
143,South Water Street,89015,36.0325961,-114.9826660
3021,West Horizon Ridge Parkway,89052,35.9963042,-115.1203312
2930,Siena Heights Drive,89052,36.0030712,-115.1170058
10301,Jeffreys Street,89052,36.0011021,-115.1208832
3535,Executive Terminal Dr.,89052,35.9760663,-115.1416810
1321,West Sunset Road,89014,36.0632072,-115.0442161
595,West Lake Mead Parkway,89015,36.0341248,-114.9993957
72,West Horizon Ridge Parkway,89012,36.0133382,-114.9927685
72,West Horizon Ridge Parkway,89012,36.0134175,-114.9927918
72,West Horizon Ridge Parkway,89012,36.0132896,-114.9927506
72,West Horizon Ridge Parkway,89012,36.0132338,-114.9927406
76,West Horizon Ridge Parkway,89012,36.0135508,-114.9928319
76,West Horizon Ridge Parkway,89012,36.0136211,-114.9928520
72,West Horizon Ridge Parkway,89012,36.0128194,-114.9926226
76,West Horizon Ridge Parkway,89012,36.0141237,-114.9930959
1887,Whitney Mesa Drive,89014,36.0774811,-115.0685790
1445,West Sunset Road,89014,36.0630323,-115.0485606
1425,West Sunset Road,89014,36.0621450,-115.0471685
1431,West Sunset Road,89014,36.0621482,-115.0478552
1437,West Sunset Road,89014,36.0621504,-115.0483594
140,South Water Street,89015,36.0320207,-114.9831454
1331,W Warm Springs Rd,89014,36.0558439,-115.0425309
1887,Whitney Mesa Drive,89014,36.0775238,-115.0685095
676,Glenwood Court,89002,36.0102247,-114.9642952
100,North Green Valley Parkway,89074,36.0261089,-115.0838177
2480,West Horizon Ridge Parkway,89052,36.0062405,-115.0938353
1381,West Sunset Road,89014,36.0630480,-115.0456660
4300,East Sunset Road,89014,36.0723613,-115.0798749
2240,Village Walk Drive,89052,36.0216792,-115.0864608
2240,Village Walk Drive,89052,36.0216126,-115.0867960
2240,Village Walk Drive,89052,36.0215707,-115.0869697
2240,Village Walk Drive,89052,36.0215227,-115.0871357
2260,Village Walk Drive,89052,36.0214820,-115.0874404
2260,Village Walk Drive,89052,36.0213859,-115.0878716
2270,Village Walk Drive,89052,36.0212959,-115.0882129
2265,Village Walk Drive,89052,36.0211234,-115.0877208
2265,Village Walk Drive,89052,36.0211542,-115.0876202
2265,Village Walk Drive,89052,36.0212060,-115.0873460
2255,Village Walk Drive,89052,36.0212639,-115.0870992
2235,Village Walk Drive,89052,36.0211739,-115.0864044
2235,Village Walk Drive,89052,36.0209903,-115.0863344
2235,Village Walk Drive,89052,36.0214758,-115.0861241
2225,Village Walk Drive,89052,36.0215719,-115.0856274
2225,Village Walk Drive,89052,36.0216028,-115.0855116
308,North Boulder Highway,89015,36.0420798,-114.9838120
10855,South Eastern Avenue,89052,35.9944753,-115.1013676
1225,West Warm Springs Road,89014,36.0537199,-115.0384539
1225,West Warm Springs Road,89014,36.0537372,-115.0387651
1205,West Warm Springs Road,89014,36.0553636,-115.0378907
1550,Railroad Pass Casino Road,89002,35.9708079,-114.9104400
106,North Stephanie Street,89074,36.0348697,-115.0454302
106,North Stephanie Street,89074,36.0350909,-115.0454489
106,North Stephanie Street,89074,36.0349890,-115.0454650
116,North Stephanie Street,89074,36.0352059,-115.0454382
126,North Stephanie Street,89074,36.0355833,-115.0454462
126,North Stephanie Street,89074,36.0354488,-115.0454436
126,North Stephanie Street,89074,36.0355225,-115.0454409
136,North Stephanie Street,89074,36.0356874,-115.0454462
136,North Stephanie Street,89074,36.0357546,-115.0454489
375,North Stephanie Street,89014,36.0540854,-115.0469270
375,North Stephanie Street,89014,36.0547512,-115.0469145
490,North Stephanie Street,89014,36.0585668,-115.0441238
2217,North Green Valley Parkway,89014-5024,36.0534540,-115.0830200
1205,West Sunset Road,89014,36.0632835,-115.0380982
1205,West Sunset Road,89014,36.0632973,-115.0384705
1205,West Sunset Road,89014,36.0633042,-115.0382715
545,Marks Street,89014,36.0620977,-115.0367955
641,North Stephanie Street,89014,36.0666915,-115.0477733
639,North Stephanie Street,89014,36.0666526,-115.0478131
629,North Stephanie Street,89014,36.0664253,-115.0478887
673,North Stephanie Street,89014,36.0678183,-115.0467410
669,North Stephanie Street,89014,36.0677590,-115.0467500
1445,West Sunset Road,89014,36.0623641,-115.0486135
1445,West Sunset Road,89014,36.0622585,-115.0486023
1490,West Sunset Road,89014,36.0641358,-115.0495507
1690,West Sunset Road,89014,36.0643756,-115.0595666
470,North Stephanie Street,89014,36.0583824,-115.0458848
3007,West Horizon Ridge Parkway,89052,35.9981734,-115.1202374
835,East Lake Mead Parkway,89015,36.0533073,-114.9722200
3551,Saint Rose Parkway,89052,35.9863582,-115.1420976
921,American Pacific Drive,89014,36.0412467,-115.0261535
1477,Lake Mead Parkway,89015,36.0766302,-114.9509584
2764,North Green Valley Parkway,89014,36.0702552,-115.0800155
2762,North Green Valley Parkway,89014,36.0702086,-115.0800235
2758,North Green Valley Parkway,89014,36.0700867,-115.0799976
2750,North Green Valley Parkway,89014,36.0698958,-115.0799996
2744,North Green Valley Parkway,89014,36.0698236,-115.0799838
400,North Stephanie Street,89014,36.0568884,-115.0450438
400,North Stephanie Street,89014,36.0567323,-115.0452154
691,Marks Street,89014,36.0669816,-115.0366156
1146,West Sunset Road,89014,36.0641736,-115.0357525
1152,West Sunset Road,89014,36.0641733,-115.0358901
1142,West Sunset Road,89014,36.0641687,-115.0355906
1138,West Sunset Road,89014,36.0641653,-115.0355105
1134,West Sunset Road,89014,36.0641642,-115.0354430
1130,West Sunset Road,89014,36.0641630,-115.0353545
1124,West Sunset Road,89014,36.0641619,-115.0351801
1000,West Sunset Road,89014,36.0642517,-115.0340766
1008,West Sunset Road,89014,36.0642349,-115.0342836
1006,West Sunset Road,89014,36.0642403,-115.0342157
1004,West Sunset Road,89014,36.0642466,-115.0341487
1012,West Sunset Road,89014,36.0642267,-115.0343662
1014,West Sunset Road,89014,36.0642187,-115.0344969
1016,West Sunset Road,89014,36.0642165,-115.0346150
1018,West Sunset Road,89014,36.0642130,-115.0346965
1022,West Sunset Road,89014,36.0642062,-115.0347879
1050,West Warm Springs Road,89014,36.0574638,-115.0324561
1100,West Warm Springs Road,89014,36.0571017,-115.0338340
1145,Vitality Drive,89011,36.0722895,-115.0351671
1135,Vitality Drive,89011,36.0729463,-115.0345270
1135,Vitality Drive,89011,36.0728810,-115.0347520
1275,West Warm Springs Road,89014,36.0554996,-115.0412478
1275,West Warm Springs Road,89014,36.0555009,-115.0415594
1275,West Warm Springs Road,89014,36.0555025,-115.0413500
1275,West Warm Springs Road,89014,36.0555033,-115.0414109
1275,West Warm Springs Road,89014,36.0555025,-115.0414778
1205,West Warm Springs Road,89014,36.0548260,-115.0379335
1205,West Warm Springs Road,89014,36.0550255,-115.0379338
1205,West Warm Springs Road,89014,36.0549237,-115.0379333
1211,West Warm Springs Road,89014,36.0558367,-115.0390650
390,North Stephanie Street,89014,36.0551578,-115.0455947
800,Gibson Road,89011,36.0716837,-115.0276216
1540,West Sunset Road,89014,36.0641600,-115.0519534
1701,"N Green Valley Parkway, Suite #1",89074,36.0357165,-115.0842804
1655,West Warm Springs Road,89014,36.0555663,-115.0563771
1659,West Warm Springs Road,89014,36.0558743,-115.0563182
1659,West Warm Springs Road,89014,36.0559318,-115.0562800
1399,Galleria Drive,89014,36.0702714,-115.0458059
1399,Galleria Drive,89014,36.0702197,-115.0458043
1399,Galleria Drive,89014,36.0701642,-115.0458043
1399,Galleria Drive,89014,36.0701113,-115.0458043
715,Mall Ring Circle,89014,36.0699021,-115.0458171
711,Mall Ring Circle,89014,36.0692435,-115.0458426
657,North Stephanie Street,89014,36.0674866,-115.0469355
655,North Stephanie Street,89014,36.0674138,-115.0469602
651,North Stephanie Street,89014,36.0672116,-115.0471586
661,North Stephanie Street,89014,36.0675882,-115.0468776
663,North Stephanie Street,89014,36.0676600,-115.0468357
667,North Stephanie Street,89014,36.0677048,-115.0467888
4300,E Sunset Rd,89014,36.0724008,-115.0797538
1321,West Sunset Road,89014,36.0632130,-115.0442666
1311,West Sunset Road,89014,36.0632173,-115.0434309
2714,North Green Valley Parkway,89014,36.0697100,-115.0814124
2702,North Green Valley Parkway,89014,36.0697457,-115.0818980
2630,North Green Valley Parkway,89014,36.0695495,-115.0819486
2620,North Green Valley Parkway,89014,36.0694015,-115.0819486
2720,North Green Valley Parkway,89014,36.0697310,-115.0806918
2722,North Green Valley Parkway,89014,36.0697394,-115.0805919
2724,North Green Valley Parkway,89014,36.0697352,-115.0805036
1180,Center Point Drive,89074,36.0397094,-115.0388669
2570,Wigwam Parkway,89074,36.0357013,-115.0996519
2580,Wigwam Parkway,89074,36.0361162,-115.0997611
2566,Wigwam Parkway,89074,36.0357086,-115.0994735
2562,Wigwam Parkway,89074,36.0357113,-115.0994089
2558,Wigwam Parkway,89074,36.0357188,-115.0992261
2548,Wigwam Parkway,89074,36.0351421,-115.0982599
2548,Wigwam Parkway,89074,36.0350876,-115.0982599
2548,Wigwam Parkway,89074,36.0350117,-115.0982599
222,South Water Street,89015,36.0311238,-114.9817419
222,South Water Street,89015,36.0316885,-114.9823174
140,South Water Street,89015,36.0322265,-114.9831563
140,South Water Street,89015,36.0320784,-114.9837268
140,South Water Street,89015,36.0319362,-114.9835803
155,South Water Street,89015,36.0321940,-114.9821871
139,South Water Street,89015,36.0328421,-114.9829310
129,South Water Street,89015,36.0331798,-114.9832763
127,South Water Street,89015,36.0332194,-114.9833189
125,South Water Street,89015,36.0332619,-114.9833608
123,South Water Street,89015,36.0333034,-114.9834022
121,South Water Street,89015,36.0333424,-114.9834398
119,South Water Street,89015,36.0334507,-114.9835495
117,South Water Street,89015,36.0335696,-114.9836660
115,South Water Street,89015,36.0336409,-114.9837413
109,South Water Street,89015,36.0339336,-114.9840217
375,North Stephanie Street,89014,36.0539191,-115.0468815
375,North Stephanie Street,89014,36.0554305,-115.0468144
375,North Stephanie Street,89014,36.0553741,-115.0468171
543,North Stephanie Street,89014,36.0585048,-115.0467435
543,North Stephanie Street,89014,36.0586050,-115.0467420
543,North Stephanie Street,89014,36.0587329,-115.0467474
155,E Galleria Drive,89011,36.0697291,-114.9770059
711,Sea Coast Dr,89002,36.0023509,-114.9443387
256,West Lake Mead Parkway,89015,36.0375362,-114.9903379
490,North Stephanie Street,89014,36.0587294,-115.0441312
2016,Via Firenze,89044,35.9550248,-115.1255935
10575,South Eastern Avenue,89052,35.9991231,-115.1062165
10271,South Eastern Avenue,89052,36.0031751,-115.1110739
16,West Pacific Avenue,89015,36.0337056,-114.9853745
9480,South Eastern Avenue,89123,36.0175363,-115.1177097
9480,South Eastern Avenue,89123,36.0175378,-115.1176428
9480,South Eastern Avenue,89123,36.0175393,-115.1175710
9480,South Eastern Avenue,89123,36.0175414,-115.1174773
9480,South Eastern Avenue,89123,36.0174635,-115.1172306
9480,South Eastern Avenue,89123,36.0174121,-115.1172227
9480,South Eastern Avenue,89123,36.0173542,-115.1172195
9480,South Eastern Avenue,89123,36.0172929,-115.1172210
9480,South Eastern Avenue,89123,36.0172103,-115.1172271
9480,South Eastern Avenue,89123,36.0171537,-115.1172262
9480,South Eastern Avenue,89123,36.0169939,-115.1172200
9480,South Eastern Avenue,89123,36.0170763,-115.1172308
9500,South Eastern Avenue,89123,36.0165866,-115.1172155
9500,South Eastern Avenue,89123,36.0165410,-115.1172235
9500,South Eastern Avenue,89123,36.0164933,-115.1172208
9500,South Eastern Avenue,89123,36.0164456,-115.1172208
9500,South Eastern Avenue,89123,36.0163805,-115.1172208
9500,South Eastern Avenue,89123,36.0161505,-115.1172155
9500,South Eastern Avenue,89123,36.0162916,-115.1172101
2625,Saint Rose Parkway,89052,36.0146627,-115.1025448
4056,East Sunset Road,89014,36.0713183,-115.0858645
2851,North Green Valley Parkway,89014,36.0730659,-115.0832830
2823,North Green Valley Parkway,89014,36.0726645,-115.0839269
2831,North Green Valley Parkway,89014,36.0728299,-115.0839019
2801,North Green Valley Parkway,89014,36.0717064,-115.0840317
2871,North Green Valley Parkway,89014,36.0716700,-115.0834103
2879,North Green Valley Parkway,89014,36.0714683,-115.0834028
2885,North Green Valley Parkway,89014,36.0712942,-115.0834010
2891,North Green Valley Parkway,89014,36.0711469,-115.0833998
2890,North Green Valley Parkway,89014,36.0740664,-115.0816824
2920,North Green Valley Parkway,89014,36.0754692,-115.0818953
2920,North Green Valley Parkway,89014,36.0750411,-115.0808771
4300,East Sunset Road,89014,36.0724592,-115.0801361
4300,East Sunset Road,89014,36.0723316,-115.0806269
4300,East Sunset Road,89014,36.0723977,-115.0795988
4300,East Sunset Road,89014,36.0723509,-115.0793026
460,North Arroyo Grande Boulevard,89014,36.0584162,-115.0547278
1300,West Sunset Road,89014,36.0673460,-115.0421804
1301,West Sunset Road,89014,36.0604746,-115.0403493
1661,Galleria Drive,89014,36.0801951,-115.0600635
2,Cactus Garden Drive,89014,36.0739344,-115.0720820
4550,East Sunset Road,89014,36.0712799,-115.0746165
45,East Horizon Ridge Parkway,89012,36.0090748,-114.9933915
2667,East Windmill Parkway,89014,36.0413603,-115.1028472
2511,Anthem Village Drive,89052,35.9784048,-115.0999215
144,Westminster Way,89015,36.0371375,-114.9718484
2872,Kinknockie Way,89044,35.9283960,-115.1104970
2870,Kinknockie Way,89044,35.9284060,-115.1102267
2862,Kinknockie Way,89044,35.9283989,-115.1098218
2868,Kinknockie Way,89044,35.9283947,-115.1100931
2874,Kinknockie Way,89044,35.9283910,-115.1106334
2910,Bicentennial Parkway,89044,35.9424696,-115.1174284
2940,Bicentennial Parkway,89052,35.9413861,-115.1182300
100,North Green Valley Parkway,89074,36.0258339,-115.0838769
500,North Green Valley Parkway,89074,36.0267958,-115.0847404
2390,Democracy Drive,89044,35.9298620,-115.0906443
2333,Canyon Retreat Drive,89044,35.9313469,-115.0885881
695,South Green Valley Parkway,89052-0404,36.0028357,-115.0857832
2300,Sunridge Heights Parkway,89052,35.9992870,-115.0892480
715,Green Valley Parkway,89052,36.0019749,-115.0836063
201,South Stephanie Street,89012,36.0203339,-115.0493714
3005,West Horizon Ridge Parkway,89052,35.9982158,-115.1198477
3007,West Horizon Ridge Parkway,89052,35.9981423,-115.1203050
10510,South Eastern Avenue,89052,36.0008074,-115.1061050
102,East Lake Mead Parkway,89015,36.0387548,-114.9850675
3245,Saint Rose Parkway,89052,35.9969226,-115.1260156
3500,Executive Airport Drive,89052,35.9772397,-115.1390983
2910,West Horizon Ridge Parkway,89052,35.9995014,-115.1142387
10345,South Eastern Avenue,89052,36.0009153,-115.1094715
10020,South Eastern,89052,36.0067080,-115.1129208
2725,Anthem Highlands Drive,89044,35.9321701,-115.1092614
1001,Coronado Center Drive,89052,35.9952272,-115.1121601
65,South Valle Verde Drive,89012,36.0250378,-115.0630568
55,South Valle Verde Drive,89012,36.0246942,-115.0638966
55,South Valle Verde Drive,89012,36.0258341,-115.0640209
1510,West Horizon Ridge Parkway,89012,36.0190783,-115.0534449
35,S Stephanie St,89012,36.0281484,-115.0504596
1481,Paseo Verde Parkway,89012,36.0256374,-115.0502255
1471,Paseo Verde Parkway,89012,36.0258058,-115.0492672
1491,West Horizon Ridge Parkway,89012,36.0195760,-115.0509355
1430,West Horizon Ridge Parkway,89012,36.0216652,-115.0490817
1420,West Horizon Ridge Parkway,89012,36.0217983,-115.0486914
217,South Stephanie Street,89012,36.0198092,-115.0478073
191,South Arroyo Grande Boulevard,89012,36.0198186,-115.0533170
1360,West Horizon Ridge Parkway,89012,36.0223965,-115.0466018
5,South Gibson Road,89012,36.0308724,-115.0299969
21,West Horizon Ridge Parkway,89012,36.0110507,-114.9933013
36,West Horizon Ridge Parkway,89012,36.0123022,-114.9920384
61,West Horizon Ridge Parkway,89012,36.0128116,-114.9937891
10,East Horizon Ridge Parkway,89105,36.0105039,-114.9912351
151,East Horizon Ridge Parkway,89012,36.0071317,-114.9926157
401,East Horizon Ridge Parkway,89002,35.9974076,-114.9888345
304,East Paradise Hills Drive,89002,35.9919891,-114.9752299
250,Conestoga Way,89002,35.9976368,-114.9426445
251,Conestoga Way,89002,35.9957028,-114.9427783
501,Conestoga Way,89002,35.9918310,-114.9339618
500,Conestoga Way,89002,35.9942182,-114.9342317
530,Conestoga Way,89002,35.9933888,-114.9331434
500,Conestoga Way,89002,35.9938573,-114.9339165
550,Conestoga Way,89002,35.9918509,-114.9297606
2100,South Boulder Highway,89002,36.0042900,-114.9405976
2140,South Boulder Highway,89002,36.0025226,-114.9388363
2138,South Boulder Highway,89002,36.0028269,-114.9391160
2000,South Boulder Highway,89002,36.0049808,-114.9413786
1600,South Boulder Highway,89015,36.0132349,-114.9505990
1500,South Boulder Highway,89015,36.0145682,-114.9518439
725,South Racetrack Road,89015,36.0177556,-114.9482081
2245,Village Walk Drive,89052,36.0206504,-115.0863982
9955,South Eastern Avenue,89183,36.0076269,-115.1178022
9520,South Eastern Avenue,89123,36.0157942,-115.1180993
9385,South Eastern Avenue,89123,36.0187336,-115.1191189
100,South Green Valley Parkway,89012,36.0233658,-115.0825081
160,South Green Valley Parkway,89052,36.0218843,-115.0832546
9600,South Eastern Avenue,89052,36.0140075,-115.1182701
2240,Village Walk Drive,89052,36.0216805,-115.0868045
3041,Saint Rose Parkway,89052,35.9999560,-115.1217370
101,South Green Valley Parkway,89012,36.0224280,-115.0849598
3055,St Rose Parkway,89052,35.9987611,-115.1224092
2260,Village Walk Drive,89052,36.0214497,-115.0878478
2225,Village Walk Dr,89052,36.0220751,-115.0859246
730,East Horizon Drive,89015,36.0122722,-114.9620637
740,East Horizon Drive,89015,36.0120195,-114.9616181
750,East Horizon Drive,89015,36.0123368,-114.9614162
701,East Horizon Drive,89015,36.0131103,-114.9628463
575,College Drive,89015,36.0137466,-114.9649512
771,East Horizon Drive,89015,36.0133198,-114.9601253
1411,South Boulder Highway,89015,36.0141894,-114.9557627
800,East Horizon Drive,89015,36.0113173,-114.9577852
601,Arrowhead Trail,89015,36.0118839,-114.9592940
830,East Horizon Drive,89015,36.0117365,-114.9550913
850,East Horizon Drive,89015,36.0128024,-114.9542820
1211,South Boulder Highway,89015,36.0163657,-114.9582709
1301,South Boulder Highway,89015,36.0158066,-114.9580863
1201,South Boulder Highway,89015,36.0166792,-114.9585695
1401,South Boulder Highway,89015,36.0137093,-114.9575691
975,South Boulder Highway,89015,36.0200850,-114.9616580
971,South Boulder Highway,89015,36.0202042,-114.9621336
400,College Drive,89015,36.0196385,-114.9624721
989,South Boulder Highway,89015,36.0193918,-114.9612027
732,South Racetrack Road,89015,36.0169184,-114.9513903
1460,South Boulder Highway,89015,36.0151363,-114.9529812
733,South Racetrack Road,89015,36.0145036,-114.9505721
733,South Racetrack Road,89015,36.0150774,-114.9507526
310,N Boulder Highway,89015,36.0425618,-114.9842294
621,Mall Ring Circle,89014,36.0642693,-115.0409817
641,Mall Ring Circle,89014,36.0642392,-115.0426044
631,Mall Ring Circle,89014,36.0642505,-115.0418300
140,South Water Street,89015,36.0322070,-114.9832798
155,South Water Street,89015,36.0322954,-114.9822225
147,South Water Street,89015,36.0325660,-114.9824860
139,South Water Street,89015,36.0328699,-114.9828769
205,South Stephanie Street,89012,36.0210520,-115.0481515
1020,Boulder Highway,89015,36.0190884,-114.9571838
2373,Via Alicante,89044,35.9422814,-115.1206375
363,Humboldt North Drive,89074,36.0526218,-115.1011229
901,West Sunset Road,89011,36.0635047,-115.0291155
611,Mall Ring Circle,89014,36.0642580,-115.0392120
601,Mall Ring Circle,89014,36.0655114,-115.0392068
907,Carnegie Street,89052,36.0219602,-115.0939370
540,Marks Street,89014,36.0603934,-115.0331366
9901,South Eastern Avenue,89183,36.0106583,-115.1186363
475,Marks Street,89014,36.0591091,-115.0380335
440,Marks Street,89014,36.0578299,-115.0354859
791,Marks Street,89014,36.0684027,-115.0385495
2399,Silver Wolf Drive,89011,36.0697676,-114.9997794
1860,Whitney Mesa Drive,89014,36.0778114,-115.0662568
460,N Boulder Highwway,89015,36.0451785,-114.9862687
900,Galleria Drive,89011,36.0721196,-115.0246102
2282,Feathertree Avenue,89052,36.0122747,-115.0892979
1051,Sunset Road,89014,36.0633064,-115.0339434
310,South Racetrack Road,89015,36.0322166,-114.9513969
300,South Racetrack Road,89015,36.0329431,-114.9516700
2600,Hampton Road,89052,35.9545340,-115.1024204
2851,Grand Hills Drive,89052,35.9762599,-115.1108173
1350,West Horizon Ridge Parkway,89012,36.0228341,-115.0454348
500,Via Biano Avenue,89183,35.9897089,-115.1469206
1050,West Galleria Drive,89011,36.0727387,-115.0299313
1940,North Boulder Highway,89011,36.0664025,-115.0087881
1245,West Warm Springs Road,89014,36.0533834,-115.0409787
1221,West Warm Springs Road,89014,36.0534746,-115.0381139
1231,West Warm Springs Road,89014,36.0533773,-115.0390655
1201,West Warm Springs Road,89014,36.0558412,-115.0379133
1281,West Warm Springs Road,89014,36.0559471,-115.0413326
611,Marks Street,89014,36.0645251,-115.0383403
621,Marks Street,89014,36.0650254,-115.0383509
631,Marks Street,89014,36.0654382,-115.0382337
651,Marks Street,89014,36.0659582,-115.0383208
671,Marks Street,89014,36.0664468,-115.0383426
691,Marks Street,89014,36.0668876,-115.0383174
791,Marks Street,89014,36.0698302,-115.0379858
75,South Gibson Road,89012,36.0298126,-115.0302367
65,South Stephanie Street,89012,36.0258938,-115.0479357
180,South Stephanie Street,89012,36.0229416,-115.0465808
515,Green Valley Parkway,89052,36.0043243,-115.0849068
645,South Green Valley Parkway,89052,36.0040288,-115.0847533
675,South Green Valley Parkway,89052,36.0035908,-115.0854513
159,North Gibson Road,89014,36.0387948,-115.0299757
1055,American Pacific Drive,89074,36.0403881,-115.0323688
1045,American Pacific Drive,89074,36.0412685,-115.0316639
1065,American Pacific Drive,89074,36.0412648,-115.0330113
1075,American Pacific Drive,89074,36.0412790,-115.0341252
1125,American Pacific Drive,89074,36.0412748,-115.0352834
1175,American Pacific Drive,89074,36.0412707,-115.0365539
193,North Gibson Road,89014,36.0408673,-115.0299764
180,Cassia Way,89014,36.0407184,-115.0255597
921,American Pacific Drive,89014,36.0412623,-115.0261850
931,American Pacific Drive,89014,36.0415465,-115.0262087
911,American Pacific Drive,89014,36.0413784,-115.0250807
901,American Pacific Drive,89014,36.0416832,-115.0251452
1301,American Pacific Drive,89074,36.0405098,-115.0431536
7685,Commercial Way,89011,36.0501420,-115.0232385
315,Auto Mall Drive,89014,36.0507232,-115.0261243
310,North Gibson Road,89014,36.0506039,-115.0279076
7777,Eastgate Road,89011,36.0454393,-115.0211480
7738,Eastgate Road,89011,36.0475127,-115.0188640
7740,Eastgate Road,89011,36.0471667,-115.0185235
975,American Pacific Drive,89014,36.0412513,-115.0277842
198,North Gibson Road,89014,36.0411138,-115.0286922
980,American Pacific Drive,89014,36.0424256,-115.0273529
874,American Pacific Drive,89014,36.0431837,-115.0240769
925,Auto Show Drive,89014,36.0447568,-115.0244719
933,Auto Show Drive,89014,36.0443882,-115.0261690
983,Auto Show Drive,89014,36.0443060,-115.0274447
993,Auto Show Drive,89014,36.0442781,-115.0283764
930,Auto Show Drive,89014,36.0461409,-115.0261928
240,North Gibson Road,89014,36.0460632,-115.0275788
260,North Gibson Road,89014,36.0469740,-115.0278254
260,North Gibson Road,89014,36.0474762,-115.0278352
261,Auto Mall Drive,89014,36.0468013,-115.0247017
275,Auto Mall Drive,89014,36.0478975,-115.0255478
7733,Eastgate Road,89011,36.0476376,-115.0210857
7736,Eastgate Road,89011,36.0484767,-115.0183183
335,Auto Mall Drive,89014,36.0520679,-115.0268396
330,North Gibson Road,89014,36.0518523,-115.0279282
280,North Gibson Road,89014,36.0486366,-115.0278589
295,Auto Mall Drive,89014,36.0489065,-115.0258288
1000,West Warm Springs Road,89014,36.0579558,-115.0302365
1010,West Warm Springs Road,89014,36.0584046,-115.0312265
1100,West Warm Springs Road,89014,36.0572024,-115.0337314
441,Astaire Drive,89014,36.0577992,-115.0390681
1270,West Warm Springs Road,89014,36.0566796,-115.0393770
1230,West Warm Springs Road,89014,36.0567719,-115.0385562
421,Astaire Drive,89014,36.0574851,-115.0398306
1211,West Warm Springs Road,89014,36.0558594,-115.0391833
1235,West Warm Springs Road,89014,36.0534269,-115.0395457
1243,West Warm Springs Road,89014,36.0536693,-115.0402518
1239,West Warm Springs Road,89014,36.0535559,-115.0399924
1275,West Warm Springs Road,89014,36.0554619,-115.0414506
1300,West Warm Springs Road,89014,36.0570047,-115.0425397
1030,West Sunset Road,89014,36.0649586,-115.0345463
601,Marks Street,89014,36.0646344,-115.0368290
1100,West Sunset Road,89014,36.0657825,-115.0359857
1090,West Sunset Road,89014,36.0662840,-115.0359744
661,Marks Street,89014,36.0661817,-115.0367553
1291,Galleria Drive,89014,36.0704059,-115.0424914
731,Mall Ring Circle,89014,36.0701541,-115.0437626
721,Mall Ring Circle,89014,36.0699612,-115.0444919
1349,Galleria Drive,89014,36.0706079,-115.0437274
1389,Galleria Drive,89014,36.0705695,-115.0446166
1397,Galleria Drive,89014,36.0706257,-115.0452593
1399,Galleria Drive,89014,36.0701822,-115.0457445
715,Mall Ring Circle,89014,36.0697502,-115.0457737
711,Mall Ring Circle,89014,36.0693398,-115.0457487
1620,West Sunset Road,89014,36.0643074,-115.0564834
1600,West Sunset Road,89014,36.0642488,-115.0557327
601,Whitney Ranch Drive,89014,36.0641204,-115.0548472
601,Whitney Ranch Drive,89014,36.0642160,-115.0543889
601,Whitney Ranch Drive,89014,36.0642218,-115.0536781
601,Whitney Ranch Drive,89014,36.0641398,-115.0532145
1600,West Sunset Road,89014,36.0642840,-115.0577983
1680,West Sunset Road,89014,36.0643330,-115.0590787
1690,West Sunset Road,89014,36.0642392,-115.0596132
4400,East Sunset Road,89014,36.0714529,-115.0772404
4330,East Sunset Road,89014,36.0712305,-115.0797611
4250,East Sunset Road,89014,36.0713930,-115.0808904
4200,East Sunset Road,89014,36.0712282,-115.0816985
4300,East Sunset Road,89014,36.0723915,-115.0795566
4300,East Sunset Road,89014,36.0724562,-115.0801298
4300,East Sunset Road,89014,36.0723496,-115.0806862
4500,East Sunset Road,89014,36.0724880,-115.0747680
4600,East Sunset Road,89014,36.0725655,-115.0735087
4500,East Sunset Road,89014,36.0722389,-115.0763100
869,Sumner Ranch Road,89012,36.0272793,-115.0243736
107,Misty Rain Street,89012,36.0276762,-115.0247903
106,Misty Rain Street,89012,36.0276669,-115.0242453
873,Sumner Ranch Road,89012,36.0273010,-115.0247907
871,Sumner Ranch Road,89012,36.0272988,-115.0245873
867,Sumner Ranch Road,89012,36.0272870,-115.0241593
875,Sumner Ranch Road,89012,36.0272985,-115.0249941
1399,American Pacific Drive,89074,36.0403859,-115.0460630
195,North Stephanie Street,89012,36.0411046,-115.0472451
199,North Pecos,89014,36.0420767,-115.1008267
1390,American Pacific Drive,89074,36.0422790,-115.0459654
185,North Stephanie Street,89074,36.0407015,-115.0471571
175,North Stephanie Street,89074,36.0401649,-115.0476158
1401,American Pacific Drive,89074,36.0405019,-115.0482821
9320,South Eastern Avenue,89123,36.0198204,-115.1180487
1445,American Pacific Drive,89074,36.0413521,-115.0491401
201,North Stephanie Street,89074,36.0423676,-115.0473094
220,North Stephanie Street,89074,36.0428628,-115.0461201
249,North Stephanie Street,89074,36.0446265,-115.0472753
150,North Stephanie Street,89074,36.0363296,-115.0460804
233,North Stephanie Street,89074,36.0439119,-115.0472722
221,North Stephanie Street,89074,36.0431448,-115.0473339
205,North Stephanie Street,89074,36.0420814,-115.0481844
209,North Stephanie Street,89074,36.0424146,-115.0482067
213,North Stephanie Street,89074,36.0428304,-115.0481812
217,North Stephanie Street,89074,36.0432143,-115.0481729
225,North Stephanie Street,89074,36.0435437,-115.0481878
229,North Stephanie Street,89074,36.0438773,-115.0481507
237,North Stephanie Street,89074,36.0442907,-115.0481349
241,North Stephanie Street,89074,36.0447338,-115.0481303
245,North Stephanie Street,89074,36.0450703,-115.0480917
514,North Stephanie Street,89014,36.0576554,-115.0468526
543,North Stephanie Street,89014,36.0586182,-115.0468667
555,North Stephanie Street,89014,36.0594606,-115.0468777
573,North Stephanie Street,89014,36.0606395,-115.0468171
400,North Stephanie Street,89014,36.0568918,-115.0450118
450,North Stephanie Street,89014,36.0576165,-115.0449242
501,North Stephanie Street,89014,36.0565538,-115.0483987
515,North Stephanie Street,89014,36.0568896,-115.0483356
519,North Stephanie Street,89014,36.0576374,-115.0483611
523,North Stephanie Street,89014,36.0578510,-115.0483268
525,North Stephanie Street,89014,36.0580593,-115.0483474
531,North Stephanie Street,89014,36.0583903,-115.0483488
549,North Stephanie Street,89014,36.0594497,-115.0483509
561,North Stephanie Street,89014,36.0598541,-115.0483650
567,North Stephanie Street,89014,36.0602922,-115.0483019
470,North Stephanie Street,89014,36.0583021,-115.0457502
530,North Stephanie Street,89014,36.0596119,-115.0457483
590,North Stephanie Street,89014,36.0610424,-115.0457694
1306,Laurel Wreath Court,89012,36.0215141,-115.0427209
205,South Stephanie Street,89012,36.0211215,-115.0478680
60,North Stephanie Street,89012,36.0329590,-115.0464692
76,North Stephanie Street,89074,36.0333371,-115.0463087
90,North Stephanie Street,89074,36.0340480,-115.0461695
651,Mall Ring Circle,89014,36.0642601,-115.0436640
661,Mall Ring Circle,89014,36.0644383,-115.0449483
673,Mall Ring Circle,89014,36.0649497,-115.0451145
681,Mall Ring Circle,89014,36.0656049,-115.0457650
711,Marks Street,89014,36.0677219,-115.0367016
601,Marks Street,89014,36.0642456,-115.0368610
594,North Stephanie Street,89014,36.0617402,-115.0455728
596,North Stephanie Street,89014,36.0624794,-115.0457629
580,North Stephanie Street,89014,36.0611125,-115.0438998
500,North Stephanie Street,89014,36.0591441,-115.0438688
510,North Stephanie Street,89014,36.0596289,-115.0438613
490,North Stephanie Street,89014,36.0586897,-115.0439633
480,North Stephanie Street,89014,36.0582798,-115.0438290
460,North Stephanie Street,89014,36.0574217,-115.0457318
1511,West Sunset Road,89014,36.0624818,-115.0506143
1551,West Sunset Road,89014,36.0625151,-115.0521227
1501,West Sunset Road,89014,36.0632928,-115.0503269
605,North Stephanie Street,89014,36.0646754,-115.0482599
609,North Stephanie Street,89014,36.0652286,-115.0479420
643,North Stephanie Street,89014,36.0667710,-115.0477307
687,North Stephanie Street,89014,36.0670559,-115.0475097
683,North Stephanie Street,89014,36.0681484,-115.0466288
699,North Stephanie Street,89014,36.0655485,-115.0466718
687,North Stephanie Street,89014,36.0670411,-115.0467260
1419,West Sunset Road,89014,36.0619481,-115.0467361
1411,West Sunset Road,89014,36.0629519,-115.0467143
1489,West Warm Springs Road,89014,36.0554465,-115.0499100
130,North Pecos Road,89074,36.0368747,-115.0983106
2556,Wigwam Parkway,89074,36.0359866,-115.0987450
390,Lake Mead Parkway,89015,36.0386557,-114.9962961
350,Lake Mead Parkway,89015,36.0388637,-114.9948156
346,Lake Mead Parkway,89015,36.0388976,-114.9933731
300,Lake Mead Parkway,89015,36.0388455,-114.9927991
290,Lake Mead Parkway,89015,36.0390564,-114.9923092
286,Lake Mead Parkway,89015,36.0391174,-114.9918306
280,West Lake Mead Parkway,89015,36.0391168,-114.9913541
100,Lake Mead Parkway,89015,36.0397636,-114.9890278
735,South Green Valley Parkway,89052,36.0011548,-115.0836032
470,Bruner Avenue,89044,35.9680702,-115.1462346
4450,East Sunset Road,89014,36.0712245,-115.0760218
2155,Via Firenze,89044,35.9489693,-115.1252030
3200,Artella Avenue,89044,35.9487388,-115.1285729
80,S Gibson RD,89012,36.0295935,-115.0259790
80,S Gibson Rd,89012,36.0310036,-115.0271523
375,North Stephanie Street,89014,36.0556871,-115.0469398
110,North Stephanie Street,89012,36.0350791,-115.0463910
125,North Stephanie Street,89074,36.0352291,-115.0474316
712,Red Bark Lane,89011,36.0773693,-115.0153525
300,East Lake Mead Parkway,89015,36.0388454,-114.9775116
12215,Gilespie Street,89044,35.9686318,-115.1637688
2751,North Green Valley Parkway,89014,36.0698871,-115.0828173
2798,North Green Valley Parkway,89014,36.0705454,-115.0818970
4325,East Sunset Road,89014,36.0704335,-115.0793151
4425,East Sunset Road,89014,36.0705147,-115.0766101
4501,East Sunset Road,89014,36.0704342,-115.0748086
4563,East Sunset Road,89014,36.0706147,-115.0743732
33,Contrada Fiore Drive,89011,36.0928961,-114.9366625
5,Contrada Fiore,89011,36.0903970,-114.9364678
13,Contrada Fiore Drive,89011,36.0911002,-114.9364105
5,Largo Turchino Court,89011,36.0912047,-114.9355173
1,Largo Turchino Court,89011,36.0912699,-114.9359612
17,Contrada Fiore Drive,89011,36.0914587,-114.9364082
2,Largo Turchino Court,89011,36.0916602,-114.9358826
2,Vita Carino Court,89011,36.0924945,-114.9360937
6,Vita Carino Court,89011,36.0926033,-114.9356054
8,Vita Fresco Court,89011,36.0932984,-114.9356476
43,Contrada Fiore Drive,89011,36.0937591,-114.9368822
89,Contrada Fiore Drive,89011,36.0988026,-114.9360751
95,Contrada Fiore Drive,89011,36.0989570,-114.9355238
90,Contrada Fiore Drive,89011,36.0987150,-114.9348439
96,Contrada Fiore Drive,89011,36.0985621,-114.9342920
100,Contrada Fiore Drive,89011,36.0985771,-114.9338508
2300,Sunridge Heights Parkway,89052,35.9987404,-115.0902097
204,South Boulder Highway,89015,36.0384004,-114.9792040
241,Palo Verde Drive,89009-0625,36.0294061,-114.9637893
1550,West Horizon Ridge Parkway,89012,36.0183785,-115.0544398
1550,West Horizon Ridge Parkway,89012,36.0184290,-115.0543464
1570,West Horizon Ridge Parkway,89012,36.0175062,-115.0555607
1590,West Horizon Ridge Parkway,89012,36.0168954,-115.0563456
1590,West Horizon Ridge Parkway,89012,36.0167367,-115.0565537
1758,Summerwood Circle,89012,36.0235966,-115.0580490
1499,West Horizon Ridge Parkway,89012,36.0193327,-115.0515046
19,South Stephanie Street,89012,36.0281636,-115.0483223
11,South Stephanie Street,89012,36.0278438,-115.0478291
7980,South Eastern Avenue,89123,36.0443317,-115.1174888
2525,Via Firenze,89044,35.9345472,-115.1198080
1207,Macdonald Ranch Drive,89012,36.0065524,-115.0449188
1001,Coronado Center Drive,89052,35.9939792,-115.1119624
1300,West Sunset Road,89014,36.0678338,-115.0414992
198,South Naples Street,89015,36.0383288,-114.9446808
2100,W. Warm Springs Rd.,89014,36.0613680,-115.0781650
1475,Raiders Way,89052,35.9740169,-115.1461017
1550,Railroad Pass Casino Road,89002,35.9714304,-114.9104560
1500,Railroad Pass Casino Road,89002,35.9725862,-114.9118625
1550,Railroad Pass Casino Road,89002,35.9710919,-114.9107714
1550,Railroad Pass Casino Road,89002,35.9709707,-114.9101281
3541,Saint Rose Parkway,89052,35.9866403,-115.1417563
3411,Saint Rose Parkway,89052-4570,35.9871341,-115.1376867
7760,Eastgate Road,89011,36.0463771,-115.0184708
380,North Gibson Road,89014,36.0545086,-115.0279134
1701,Cypress Manor Drive,89012,36.0105650,-115.0622495
1705,Cypress Manor Drive,89012,36.0103617,-115.0625201
506,Beneficial Place,89012,36.0108348,-115.0618793
502,Beneficial Place,89012,36.0110612,-115.0621096
1700,Cypress Manor Drive,89012,36.0108621,-115.0625563
1704,Cypress Manor Drive,89012,36.0106913,-115.0627586
12300,Bermuda Road,89044,35.9651877,-115.1519414
510,Beneficial Place,89012,36.0106064,-115.0616310
514,Beneficial Place,89012,36.0104323,-115.0613883
518,Beneficial Place,89012,36.0101895,-115.0611461
522,Beneficial Place,89012,36.0099304,-115.0609376
1708,Cypress Manor Drive,89012,36.0104977,-115.0630151
1712,Cypress Manor Drive,89012,36.0103064,-115.0632584
1716,Cypress Manor Drive,89012,36.0101150,-115.0634939
1720,Cypress Manor Drive,89012,36.0099221,-115.0637344
1724,Cypress Manor Drive,89012,36.0097291,-115.0639776
1728,Cypress Manor Drive,89012,36.0095388,-115.0642312
1732,Cypress Manor Drive,89012,36.0093448,-115.0644553
1736,Cypress Manor Drive,89012,36.0091711,-115.0646837
1740,Cypress Manor Drive,89012,36.0089923,-115.0649099
1744,Cypress Manor Drive,89012,36.0087381,-115.0650418
1748,Cypress Manor Drive,89012,36.0084834,-115.0650346
1752,Cypress Manor Drive,89012,36.0082030,-115.0649445
1756,Cypress Manor Drive,89012,36.0079337,-115.0648984
1737,Cypress Manor Drive,89012,36.0087707,-115.0645093
1733,Cypress Manor Drive,89012,36.0089612,-115.0642740
1729,Cypress Manor Drive,89012,36.0091617,-115.0640245
1725,Cypress Manor Drive,89012,36.0093552,-115.0637790
1721,Cypress Manor Drive,89012,36.0095374,-115.0635260
1717,Cypress Manor Drive,89012,36.0097466,-115.0632848
1713,Cypress Manor Drive,89012,36.0099577,-115.0630197
1709,Cypress Manor Drive,89012,36.0101532,-115.0627766
1740,Choice Hills Drive,89012,36.0084444,-115.0644013
1736,Choice Hills Drive,89012,36.0086383,-115.0641420
1732,Choice Hills Drive,89012,36.0088466,-115.0639004
1728,Choice Hills Drive,89012,36.0090208,-115.0636697
1724,Choice Hills Drive,89012,36.0092131,-115.0634247
1720,Choice Hills Drive,89012,36.0094063,-115.0631858
1716,Choice Hills Drive,89012,36.0096035,-115.0629243
1712,Choice Hills Drive,89012,36.0097920,-115.0626986
1708,Choice Hills Drive,89012,36.0099906,-115.0624391
1704,Choice Hills Drive,89012,36.0101722,-115.0622187
1700,Choice Hills Drive,89012,36.0103713,-115.0619748
2275,Millbrae Drive,89074,36.0525495,-115.0854432
2445,Via Centro,89044,35.9388764,-115.1407704
1340,West Warm Springs Road,89014,36.0570087,-115.0432103
1553,North Boulder Highway,89011,36.0592222,-115.0054024
2041,West Sunset Road,89014,36.0694890,-115.0703198
625,Green Valley Parkway,89052,36.0046595,-115.0848843
10450,South Eastern Avenue,89052,36.0017851,-115.1059041
3225,Saint Rose Parkway,89052,35.9965336,-115.1269477
160,Cologne Drive,89074,36.0397552,-115.1139840
158,Cologne Drive,89074,36.0395646,-115.1139878
162,Cologne Drive,89074,36.0399389,-115.1139868
164,Cologne Drive,89074,36.0401374,-115.1139610
156,Cologne Drive,89074,36.0393763,-115.1139929
154,Cologne Drive,89074,36.0392016,-115.1140010
152,Cologne Drive,89074,36.0390104,-115.1139976
150,Cologne Drive,89074,36.0388120,-115.1140300
5749,East Russell Road,89014,36.0833450,-115.0475655
5739,East Russell Road,89014,36.0833777,-115.0472684
5755,East Russell Road,89014,36.0834680,-115.0473799
1195,Wellness Place,89011,36.0766100,-115.0379230
59,Lynn Lane,89015,36.0281330,-114.9832355
59,Lynn Lane,89015,36.0284520,-114.9835230
105,West Basic Road,89015,36.0287208,-114.9850728
433,West Lake Mead Parkway,89015,36.0353665,-114.9965140
1741,Boulder Highway,89011,36.0622915,-115.0082335
316,N Boulder Highway,89015,36.0427320,-114.9846410
340,N Boulder Highway,89015,36.0432175,-114.9852255
306,N Boulder Highway,89015,36.0416885,-114.9834920
306,N Boulder Highway,89015,36.0418120,-114.9833015
150,N Boulder Highway,89015,36.0410800,-114.9827375
404,South Boulder Highway,89015,36.0359337,-114.9750926
240,East Lake Mead Parkway,89015,36.0410655,-114.9786470
220,E Lake Mead Parkway,89015,36.0405615,-114.9791745
910,Boulder Highway,89015,36.0244170,-114.9631190
85,Lake Mead Parkway,89015,36.0365353,-114.9881264
2800,North Green Valley Parkway,89014,36.0720537,-115.0816221
2190,Olympic Avenue,89014,36.0736018,-115.0805734
11500,Bermuda Road,89052,35.9765566,-115.1532072
1939,Kachina Mountain Drive,89012,36.0191766,-115.0683074
300,Scarlet Sunset Lane,89012,36.0163026,-115.0699718
243,Camelback Ridge Avenue,89012,36.0221787,-115.0704647
190,North Boulder Highway,89015,36.0417431,-114.9811828
1483,West Horizon Ridge Parkway,89012,36.0196082,-115.0505323
1475,West Horizon Ridge Parkway,89012,36.0204223,-115.0501321
1450,West Horizon Ridge Parkway,89012,36.0224985,-115.0502423
1410,West Horizon Ridge Parkway,89012,36.0224777,-115.0479218
1450,Horizon Ridge Parkway,89012,36.0229292,-115.0491772
1450,West Horizon Ridge Parkway,89012,36.0230670,-115.0490796
1450,West Horizon Ridge Parkway,89012,36.0232445,-115.0483302
1450,West Horizon Ridge Parkway,89012,36.0232968,-115.0479039
75,South Valle Verde Drive,89012,36.0240496,-115.0631022
55,South Valle Verde Drive,89012,36.0251129,-115.0637694
90,South Stephanie Street,89012,36.0253693,-115.0466137
60,South Stephanie Street,89012,36.0260597,-115.0468917
209,South Stephanie,89012,36.0207082,-115.0476544
209,South Stephanie Street,89012,36.0207091,-115.0477412
30,North Valle Verde Drive,89074,36.0288542,-115.0613160
50,North Valle Verde Drive,89074,36.0296035,-115.0625960
34,North Valle Verde Drive,89074,36.0286976,-115.0626226
85,North Stephanie Street,89074,36.0341684,-115.0475792
55,North Stephanie Street,89012,36.0338071,-115.0474588
55,North Stephanie Street,89074,36.0338774,-115.0474587
1651,West Horizon Ridge Parkway,89012,36.0157814,-115.0563111
725,Green Valley Parkway,89052,36.0014378,-115.0836051
543,Green Valley Parkway,89052,36.0054416,-115.0846985
655,Green Valley Parkway,89052,36.0039481,-115.0838097
665,Green Valley Parkway,89052,36.0036235,-115.0835541
1000,North Green Valley Parkway,89074,36.0276245,-115.0840305
1500,North Green Valley Parkway,89074,36.0294481,-115.0858602
1500,North Green Valley Parkway,89074,36.0297680,-115.0854460
1500,North Green Valley Parkway,89074,36.0296587,-115.0858727
146,North Stephanie Street,89012,36.0357931,-115.0463533
494,North Stephanie Street,89014,36.0588328,-115.0457080
320,North Stephanie Street,89014,36.0530833,-115.0457631
360,North Stephanie Street,89014,36.0537166,-115.0457550
370,North Stephanie Street,89014,36.0546027,-115.0458062
390,North Stephanie Street,89014,36.0551176,-115.0455771
1381,West Warm Springs Road,89014,36.0555753,-115.0454923
1261,West Warm Springs Road,89014,36.0558305,-115.0398377
1363,West Warm Springs Road,89014,36.0552734,-115.0444208
1351,West Warm Springs Road,89014,36.0551909,-115.0439710
1361,West Warm Springs Road,89014,36.0556899,-115.0443388
1341,West Warm Springs Road,89014,36.0556986,-115.0434838
1290,West Warm Springs Road,89014,36.0568175,-115.0414891
1284,West Warm Springs Road,89014,36.0567145,-115.0411708
1282,West Warm Springs Road,89014,36.0567384,-115.0407723
1280,West Warm Springs Road,89014,36.0567455,-115.0404008
1310,West Warm Springs Road,89014,36.0582485,-115.0425504
520,Marks Street,89014,36.0601864,-115.0348014
520,Marks Street,89014,36.0601254,-115.0351875
520,Marks Street,89014,36.0599416,-115.0354722
550,Marks Street,89014,36.0609378,-115.0360904
560,Marks Street,89014,36.0617709,-115.0360229
570,Marks Street,89014,36.0623489,-115.0360059
1131,West Sunset Road,89014,36.0633015,-115.0356035
1101,West Sunset Road,89014,36.0634386,-115.0351052
1101,West Sunset Road,89014,36.0631998,-115.0350126
1071,West Sunset Road,89014,36.0633474,-115.0346586
535,Marks Street,89014,36.0616661,-115.0368486
525,Marks Street,89014,36.0608447,-115.0369346
565,Marks Street,89014,36.0623530,-115.0370122
515,Marks Street,89014,36.0602917,-115.0370681
509,Marks Street,89014,36.0599097,-115.0372497
601,North Stephanie Street,89014,36.0640234,-115.0467224
1421,West Sunset Road,89014,36.0632565,-115.0475997
1540,West Sunset Road,89014,36.0642185,-115.0520604
1520,West Sunset Road,89014,36.0642247,-115.0511039
1530,West Sunset Road,89014,36.0641980,-115.0515235
1510,Whitney Ranch Drive,89014,36.0640131,-115.0504712
1500,West Sunset Road,89014,36.0642325,-115.0500514
1490,West Sunset Road,89014,36.0641255,-115.0496289
1630,West Sunset Road,89014,36.0642085,-115.0571139
1590,West Sunset Road,89014,36.0642486,-115.0554953
1076,Whitney Ranch Drive,89014,36.0813278,-115.0533616
1001,Whitney Ranch Drive,89014,36.0786926,-115.0536140
1009,Whitney Ranch Drive,89014,36.0788228,-115.0541938
1640,Patrick Lane,89014,36.0788481,-115.0547468
4663,East Sunset Road,89014,36.0705240,-115.0717749
4665,East Sunset Road,89014,36.0704723,-115.0714912
4661,East Sunset Road,89014,36.0704759,-115.0723339
4625,East Sunset Road,89014,36.0704234,-115.0725482
2061,West Sunset Road,89014,36.0698126,-115.0707178
2081,West Sunset Road,89014,36.0700546,-115.0710310
2031,West Sunset Road,89014,36.0692939,-115.0698819
6451,South Mountain Vista Street,89014,36.0714162,-115.0720009
251,North Stephanie Street,89074,36.0451982,-115.0471148
1475,American Pacific Drive,89074,36.0410886,-115.0495950
1475,American Pacific Drive,89074,36.0407934,-115.0493214
1475,American Pacific Drive,89074,36.0409898,-115.0503356
1475,American Pacific Drive,89074,36.0409073,-115.0501068
1025,American Pacific Drive,89074,36.0414723,-115.0307629
1005,American Pacific Drive,89074,36.0413761,-115.0299379
360,North Gibson Road,89014,36.0536995,-115.0278109
135,North Stephanie Street,89074,36.0355463,-115.0475088
2649,Cava Tirreni St,89044,35.9317573,-115.1542467
222,South Water Street,89015,36.0312316,-114.9822818
3251,Bicentennial Parkway,89044,35.9395072,-115.1307975
276,Helmsdale Drive,89014,36.0469691,-115.0561432
274,Helmsdale Drive,89014,36.0469354,-115.0563779
278,Helmsdale Drive,89014,36.0470406,-115.0559300
280,Helmsdale Drive,89014,36.0471965,-115.0557642
282,Helmsdale Drive,89014,36.0473687,-115.0557096
284,Helmsdale Drive,89014,36.0475465,-115.0556947
286,Helmsdale Drive,89014,36.0477249,-115.0556912
288,Helmsdale Drive,89014,36.0478936,-115.0556984
290,Helmsdale Drive,89014,36.0480767,-115.0556812
292,Helmsdale Drive,89014,36.0482474,-115.0556859
294,Helmsdale Drive,89014,36.0484328,-115.0556779
296,Helmsdale Drive,89014,36.0486015,-115.0556850
298,Helmsdale Drive,89014,36.0487759,-115.0556705
1672,Santiago Drive,89014,36.0491344,-115.0557636
1670,Santiago Drive,89014,36.0491293,-115.0555687
1674,Santiago Drive,89014,36.0491297,-115.0559856
1676,Santiago Drive,89014,36.0491254,-115.0562149
297,Helmsdale Drive,89014,36.0487630,-115.0561597
295,Helmsdale Drive,89014,36.0485690,-115.0561465
293,Helmsdale Drive,89014,36.0483907,-115.0561566
291,Helmsdale Drive,89014,36.0481970,-115.0561559
289,Helmsdale Drive,89014,36.0480085,-115.0561514
287,Helmsdale Drive,89014,36.0477989,-115.0561840
283,Helmsdale Drive,89014,36.0476255,-115.0561773
279,Helmsdale Drive,89014,36.0474047,-115.0562447
275,Helmsdale Drive,89014,36.0473327,-115.0564830
1060,Wellness Place,89011,36.0763518,-115.0327043
2335,Via Inspirada Boulevard,89044,35.9423482,-115.1319875
1227,Santa Ynez Avenue,89002,35.9854155,-114.9426910
1223,Santa Ynez Avenue,89002,35.9855737,-114.9430097
1219,Santa Ynez Avenue,89002,35.9858372,-114.9433707
1215,Santa Ynez Avenue,89002,35.9860878,-114.9437037
1211,Santa Ynez Avenue,89002,35.9863089,-114.9440838
1207,Santa Ynez Avenue,89002,35.9865349,-114.9444313
1203,Santa Ynez Avenue,89002,35.9867815,-114.9447373
599,West Lake Mead Parkway,89015,36.0350368,-114.9997719
155,E Galleria Drive,89011,36.0697353,-114.9770025
1205,West Sunset Road,89014,36.0631023,-115.0382794
1050,Wellness Place,89011,36.0761817,-115.0302217
2955,North Green Valley Parkway,89014,36.0768991,-115.0829059
2920,North Green Valley Parkway,89014,36.0763594,-115.0817629
2920,North Green Valley Parkway,89014,36.0762346,-115.0810149
2920,North Green Valley Parkway,89014,36.0758065,-115.0808861
2920,North Green Valley Parkway,89014,36.0755070,-115.0808887
2920,North Green Valley Parkway,89014,36.0754824,-115.0818209
2920,North Green Valley Parkway,89014,36.0757812,-115.0818168
2898,North Green Valley Parkway,89014,36.0747876,-115.0819802
2920,North Green Valley Parkway,89014,36.0750322,-115.0812708
2920,North Green Valley Parkway,89014,36.0750233,-115.0808658
2196,Olympic Avenue,89014,36.0733410,-115.0817287
2100,Olympic Avenue,89014,36.0738596,-115.0780829
1421,West Warm Springs Road,89014,36.0557268,-115.0475338
375,North Stephanie Street,89014,36.0550283,-115.0469174
1659,West Warm Springs Road,89014,36.0558812,-115.0563210
1606,West Warm Springs Road,89014,36.0565008,-115.0555880
1654,West Warm Springs Road,89014,36.0569315,-115.0565491
401,North Arroyo Grande Boulevard,89014,36.0567935,-115.0576746
1660,West Warm Springs Road,89014,36.0565522,-115.0564212
1530,Railroad Pass Casino Road,89002,35.9729002,-114.9112784
1415,West Sunset Road,89014,36.0624818,-115.0467031
1195,West Sunset Road,89014,36.0632160,-115.0368508
1199,West Sunset Road,89014,36.0630343,-115.0375117
2625,Saint Rose Parkway,89052,36.0145486,-115.1025920
7050,Wetlands Park Lane,89122,36.0976349,-114.9841363
5600,Wiesner Way,89122,36.0873988,-115.0090197
1521,Albino Drive,89002,36.0116191,-114.9308760
1511,Albino Drive,89002,36.0116144,-114.9312696
1531,Albino Drive,89002,36.0116017,-114.9304214
1541,Albino Drive,89002,36.0116220,-114.9300875
1070,Wellness Place,89011,36.0762935,-115.0345183
1115,Vitality Drive,89011,36.0730356,-115.0335213
1135,Vitality Drive,89011,36.0729028,-115.0347054
1145,Vitality Drive,89011,36.0723271,-115.0352614
831,David Baker Way,89011,36.0725775,-115.0332397
985,West Galleria Drive,89011,36.0705239,-115.0282275
375,North Gibson Road,89014,36.0530918,-115.0301874
550,Dave Wood Circle,89011,36.0844896,-114.9612579
10550,Jeffreys Street,89052,35.9997172,-115.1180048
613,Golden Knights Way,89052,35.9615615,-115.1383147
2701,Bonaparte Lane,89044,35.9286127,-115.0897831
1500,Railroad Pass Casino Road,89002,35.9726815,-114.9116848
1520,Railroad Pass Casino Road,89002,35.9716251,-114.9124126
2836,Trossachs Street,89044,35.9274242,-115.1090873
2840,Trossachs Street,89044,35.9275266,-115.1091450
2844,Trossachs Street,89044,35.9276337,-115.1092654
2848,Trossachs Street,89044,35.9276883,-115.1094311
2852,Trossachs Street,89044,35.9276734,-115.1095648
2856,Trossachs Street,89044,35.9276689,-115.1097005
2860,Trossachs Street,89044,35.9276870,-115.1098349
2864,Trossachs Street,89044,35.9277037,-115.1099804
2868,Trossachs Street,89044,35.9276689,-115.1101963
2872,Trossachs Street,89044,35.9276006,-115.1103050
2861,Trossachs Street,89044,35.9272532,-115.1098741
2857,Trossachs Street,89044,35.9272541,-115.1097266
2849,Trossachs Street,89044,35.9272495,-115.1095835
2829,Trossachs Street,89044,35.9270651,-115.1094628
2825,Trossachs Street,89044,35.9269546,-115.1094356
2821,Trossachs Street,89044,35.9268474,-115.1094763
2816,Trossachs Street,89044,35.9267833,-115.1088204
2820,Trossachs Street,89044,35.9268913,-115.1087919
2824,Trossachs Street,89044,35.9270375,-115.1088332
2828,Trossachs Street,89044,35.9271523,-115.1088811
2860,Kinknockie Way,89044,35.9283895,-115.1096871
2864,Kinknockie Way,89044,35.9283941,-115.1099577
2870,Kinknockie Way,89044,35.9284019,-115.1103617
2737,Drumlanrig Street,89044,35.9274094,-115.1103261
2741,Drumlanrig Street,89044,35.9272999,-115.1103234
2745,Drumlanrig Street,89044,35.9271906,-115.1103064
2749,Drumlanrig Street,89044,35.9270809,-115.1103204
2753,Drumlanrig Street,89044,35.9269706,-115.1103164
2757,Drumlanrig Street,89044,35.9268614,-115.1103212
2761,Drumlanrig Street,89044,35.9267522,-115.1103333
2765,Drumlanrig Street,89044,35.9266410,-115.1103326
2769,Drumlanrig Street,89044,35.9265236,-115.1103617
2773,Drumlanrig Street,89044,35.9264130,-115.1103718
821,David Baker Way,89011,36.0720649,-115.0334254
2777,Drumlanrig Street,89044,35.9262593,-115.1102818
2871,Dunnottar Avenue,89044,35.9261863,-115.1101490
2867,Dunnottar Avenue,89044,35.9261736,-115.1099885
2863,Dunnottar Avenue,89044,35.9262091,-115.1098517
2859,Dunnottar Avenue,89044,35.9262355,-115.1097159
2855,Dunnottar Avenue,89044,35.9262412,-115.1095794
2851,Dunnottar Avenue,89044,35.9262485,-115.1094447
2847,Dunnottar Avenue,89044,35.9262381,-115.1093082
2843,Dunnottar Avenue,89044,35.9262181,-115.1091758
2839,Dunnottar Avenue,89044,35.9261950,-115.1090403
2835,Dunnottar Avenue,89044,35.9262110,-115.1089052
2831,Dunnottar Avenue,89044,35.9261608,-115.1087720
2827,Dunnottar Avenue,89044,35.9261583,-115.1086370
2823,Dunnottar Avenue,89044,35.9261252,-115.1085045
2819,Dunnottar Avenue,89044,35.9261266,-115.1083687
2811,Dunnottar Avenue,89044,35.9261317,-115.1080961
2815,Dunnottar Avenue,89044,35.9261106,-115.1082349
2807,Dunnottar Avenue,89044,35.9261162,-115.1079597
2803,Dunnottar Avenue,89044,35.9261092,-115.1078229
2801,Dunnottar Avenue,89044,35.9261402,-115.1076865
2812,Dunnottar Avenue,89044,35.9265276,-115.1081146
2816,Dunnottar Avenue,89044,35.9265307,-115.1082595
2820,Dunnottar Avenue,89044,35.9265351,-115.1083941
2824,Dunnottar Avenue,89044,35.9265506,-115.1085259
2828,Dunnottar Avenue,89044,35.9265769,-115.1086611
2832,Dunnottar Avenue,89044,35.9265856,-115.1087949
2836,Dunnottar Avenue,89044,35.9266030,-115.1089271
2840,Dunnottar Avenue,89044,35.9266290,-115.1090640
2844,Dunnottar Avenue,89044,35.9266385,-115.1092012
2848,Dunnottar Avenue,89044,35.9266475,-115.1093360
2852,Dunnottar Avenue,89044,35.9266355,-115.1094796
2856,Dunnottar Avenue,89044,35.9266601,-115.1096310
2766,Drumlanrig Street,89044,35.9265957,-115.1098454
2760,Drumlanrig Street,89044,35.9267044,-115.1098382
2752,Drumlanrig Street,89044,35.9269512,-115.1098127
2748,Drumlanrig Street,89044,35.9270647,-115.1097884
2756,Drumlanrig Street,89044,35.9268406,-115.1098037
112,N Pecos Road,89074,36.0353435,-115.0997791
1060,Wellness Place,89011,36.0765692,-115.0337190
1070,Wellness Place,89011,36.0771136,-115.0334991
143,South Water Street,89015,36.0326375,-114.9826302
151,South Water Street,89015,36.0324362,-114.9824248
274,West Lake Mead Parkway,89015,36.0370692,-114.9908626
145,North Stephanie Street,89074,36.0358579,-115.0476277
2288,Montferrat Lane,89044,35.9339092,-115.0878713
2284,Montferrat Lane,89044,35.9339703,-115.0877195
2276,Montferrat Lane,89044,35.9341483,-115.0873745
2272,Montferrat Lane,89044,35.9342148,-115.0872477
2268,Montferrat Lane,89044,35.9342813,-115.0871190
2264,Montferrat Lane,89044,35.9343423,-115.0869839
2260,Montferrat Lane,89044,35.9344130,-115.0868600
2256,Montferrat Lane,89044,35.9344794,-115.0867308
2252,Montferrat Lane,89044,35.9345377,-115.0865974
2632,Vendange Place,89044,35.9341249,-115.0885193
2636,Vendange Place,89044,35.9340251,-115.0884264
2640,Vendange Place,89044,35.9339334,-115.0883237
2644,Vendange Place,89044,35.9338434,-115.0882206
2648,Vendange Place,89044,35.9337594,-115.0881289
2460,Hampton Road,89052,35.9547655,-115.0944178
2450,Hampton Road,89052,35.9563140,-115.0959601
2811,Kinknockie Way,89044,35.9265150,-115.1077854
2813,Kinknockie Way,89044,35.9266013,-115.1078481
2819,Kinknockie Way,89044,35.9266979,-115.1079334
2821,Kinknockie Way,89044,35.9268146,-115.1080525
2833,Culloden Avenue,89044,35.9286124,-115.1092075
2837,Culloden Avenue,89044,35.9286453,-115.1093432
2856,Culloden Avenue,89044,35.9283572,-115.1093617
2854,Kinknockie Way,89044,35.9283376,-115.1092263
2852,Kinknockie Way,89044,35.9283163,-115.1090918
2850,Kinknockie Way,89044,35.9283059,-115.1089589
2848,Kinknockie Way,89044,35.9282942,-115.1088016
2846,Kinknockie Way,89044,35.9282168,-115.1086163
2844,Kinknockie Way,89044,35.9280995,-115.1085417
2842,Kinknockie Way,89044,35.9279906,-115.1085006
2833,Kinknockie Way,89044,35.9272930,-115.1086291
2831,Kinknockie Way,89044,35.9272122,-115.1085323
2829,Kinknockie Way,89044,35.9271106,-115.1084590
2827,Kinknockie Way,89044,35.9270412,-115.1083485
2825,Kinknockie Way,89044,35.9269600,-115.1082540
2823,Kinknockie Way,89044,35.9268903,-115.1081511
901,Olivia Parkway,89011,36.0804588,-114.9676018
552,South Stephanie Street,89012,36.0063910,-115.0493768
130,Par Excellence Drive,89074,36.0355943,-115.0814195
2020,West Horizon Ridge Pkwy,89012,36.0059776,-115.0746855
1,Club Side Drive,89052,35.9657179,-115.0830161
100,Strada Di Circolo,89011,36.1071141,-114.9179560
897,West Horizon Ridge Parkway,89012,36.0214951,-115.0249481
1831,Fox Ridge Drive,89014,36.0586228,-115.0669679
1935,Paseo Verde Parkway,89012,36.0207353,-115.0674469
2126;2120,South Boulder Highway,89002,36.0034800,-114.9401600
3001,Saint Rose Parkway,89052,36.0046051,-115.1155646
240,South Water Street,89015,36.0297339,-114.9820740
