House number,Street name,Postal code,Latitude,Longitude
118,East Haskell Street,89445,40.9712116,-117.7275249
1139,West Winnemucca Boulevard,89445,40.9644960,-117.7433336
530,Melarkey Street,89445,40.9708163,-117.7335297
1125,West Winnemucca Boulevard,89445,40.9648419,-117.7419624
1051,West 4th Street,89445,40.9651867,-117.7412985
1059,West 4th Street,89445,40.9650968,-117.7413747
1061,West 4th Street,89445,40.9650358,-117.7414265
508,West Winnemucca Boulevard,89445,40.9701042,-117.7400047
508,West Winnemucca Boulevard,89445,40.9700506,-117.7400810
508,West Winnemucca Boulevard,89445,40.9699713,-117.7401863
1440,West Winnemucca Boulevard,89445,40.9640616,-117.7448096
1460,West Winnemucca Boulevard,89445,40.9638692,-117.7449436
1480,West Winnemucca Boulevard,89445,40.9637426,-117.7450318
1490,West Winnemucca Boulevard,89445,40.9636529,-117.7450943
1500,West Winnemucca Boulevard,89445,40.9634603,-117.7452285
1985,West Winnemucca Boulevard,89445,40.9584071,-117.7470753
3300,Traders Way,89445,40.9575225,-117.7421897
3200,Traders Way,89445,40.9585290,-117.7453713
195,Melarkey Street,89445,40.9738107,-117.7366992
3013,Potato Road,89445,40.9545497,-117.7451506
3013,Potato Road,89445,40.9545771,-117.7452137
33,West 4th Street,89445,40.9724720,-117.7340606
33,West 4th Street,89445,40.9724248,-117.7341181
311,East Winnemucca Boulevard,89445,40.9737140,-117.7344119
311,East Winnemucca Boulevard,89445,40.9736325,-117.7345113
311,East Winnemucca Boulevard,89445,40.9735606,-117.7345412
350,South Bridge Street,89445,40.9728730,-117.7342008
346,South Bridge Street,89445,40.9729699,-117.7343374
342,South Bridge Street,89445,40.9730146,-117.7344005
332,South Bridge Street,89445,40.9730513,-117.7344523
324,South Bridge Street,89445,40.9731371,-117.7345733
318,South Bridge Street,89445,40.9732058,-117.7346703
352,South Bridge Street,89445,40.9728305,-117.7341408
47,East Winnemucca Boulevard,89445,40.9741426,-117.7344191
49,East Winnemucca Boulevard,89445,40.9742631,-117.7342670
16,East 2nd Street,89445,40.9743865,-117.7354100
201,South Bridge Street,89445,40.9742508,-117.7355784
251,South Bridge Street,89445,40.9738476,-117.7350081
1038,Grass Valley Road,89445,40.9609916,-117.7370144
3010,Potato Road,89445,40.9540864,-117.7457189
566,Hanson Street,89445,40.9659371,-117.7381500
566,Hanson Street,89445,40.9658463,-117.7380230
566,Hanson Street,89445,40.9657686,-117.7379143
401,South Bridge Street,89445,40.9728495,-117.7335953
423,South Bridge Street,89445,40.9727378,-117.7334353
407,South Bridge Street,89445,40.9727931,-117.7335144
1063,West 4th Street,89445,40.9649488,-117.7415003
20,West 4th Street,89445,40.9730439,-117.7333573
329,South Bridge Street,89445,40.9733225,-117.7342811
331,South Bridge Street,89445,40.9732770,-117.7342160
337,South Bridge Street,89445,40.9733223,-117.7340447
341,South Bridge Street,89445,40.9731850,-117.7340843
345,South Bridge Street,89445,40.9731506,-117.7340350
40,West 4th Street,89445,40.9726566,-117.7343570
135,West 2nd Street,89445,40.9729368,-117.7371111
227,South Bridge Street,89445,40.9740911,-117.7353524
221,South Bridge Street,89445,40.9741461,-117.7354302
215,South Bridge Street,89445,40.9741925,-117.7354959
233,South Bridge Street,89445,40.9740328,-117.7352700
237,South Bridge Street,89445,40.9739858,-117.7352035
241,South Bridge Street,89445,40.9739300,-117.7351245
259,South Bridge Street,89445,40.9737550,-117.7348770
45,East Winnemucca Boulevard,89445,40.9740647,-117.7345174
1178,East Winnemucca Boulevard,89445,40.9749391,-117.7196755
4530,Grass Valley Road,89445,40.9539818,-117.7419376
4550,Grass Valley Road,89445,40.9535874,-117.7421448
4570,Grass Valley Road,89445,40.9533179,-117.7423916
4590,Grass Valley Road,89445,40.9530789,-117.7425727
4600,Grass Valley Road,89445,40.9527819,-117.7427726
4602,Grass Valley Road,89445,40.9526441,-117.7428705
4610,Grass Valley Road,89445,40.9524393,-117.7431187
4620,Grass Valley Road,89445,40.9523096,-117.7432152
221,South Bridge Street,89445-3108,40.9745857,-117.7349135
3550,Winnemucca Boulevard,89445,40.9507676,-117.7571840
5830,East Winnemucca Boulevard,89445,40.9825734,-117.7000685
5368,Western Way,89445,40.9629375,-117.7078509
5366,Western Way,89445,40.9629370,-117.7079558
5362,Western Way,89445,40.9629365,-117.7080758
5360,Western Way,89445,40.9629360,-117.7081848
5328,Western Way,89445,40.9629349,-117.7083978
5326,Western Way,89445,40.9629344,-117.7085058
5322,Western Way,89445,40.9629339,-117.7086258
5320,Western Way,89445,40.9629334,-117.7087348
5288,Western Way,89445,40.9629323,-117.7089478
5286,Western Way,89445,40.9629318,-117.7090568
5282,Western Way,89445,40.9629313,-117.7091758
5280,Western Way,89445,40.9629308,-117.7092847
5258,Western Way,89445,40.9629297,-117.7094977
5256,Western Way,89445,40.9629292,-117.7096067
5252,Western Way,89445,40.9629287,-117.7097267
5250,Western Way,89445,40.9629279,-117.7098968
3011,Potato Road,89445,40.9544010,-117.7448082
4596,Grass Valley Road,89445,40.9528920,-117.7431734
4598,Grass Valley Road,89445,40.9527361,-117.7432917
4594,Grass Valley Road,89445,40.9530531,-117.7430512
4580,Grass Valley Road,89445,40.9532150,-117.7424696
4556,Grass Valley Road,89445,40.9537344,-117.7425109
4554,Grass Valley Road,89445,40.9536794,-117.7423739
4552,Grass Valley Road,89445,40.9536279,-117.7422457
4532,Grass Valley Road,89445,40.9540620,-117.7421360
3452,Crown Royal Circle,89445,40.9535170,-117.7363470
3552,Crown Royal Circle,89445,40.9532410,-117.7365640
3562,Crown Royal Circle,89445,40.9532410,-117.7367810
3572,Crown Royal Circle,89445,40.9532410,-117.7369980
3582,Crown Royal Circle,89445,40.9532410,-117.7372160
3592,Crown Royal Circle,89445,40.9532410,-117.7374330
3602,Crown Royal Circle,89445,40.9532410,-117.7376500
3612,Crown Royal Circle,89445,40.9532410,-117.7378670
3622,Crown Royal Circle,89445,40.9532410,-117.7380850
3632,Crown Royal Circle,89445,40.9532410,-117.7383020
3642,Crown Royal Circle,89445,40.9532410,-117.7385190
3652,Crown Royal Circle,89445,40.9532410,-117.7387360
3662,Crown Royal Circle,89445,40.9532410,-117.7389530
3672,Crown Royal Circle,89445,40.9532410,-117.7391710
3667,Crown Royal Circle,89445,40.9528280,-117.7389530
3657,Crown Royal Circle,89445,40.9528280,-117.7387360
3647,Crown Royal Circle,89445,40.9528280,-117.7385190
3637,Crown Royal Circle,89445,40.9528400,-117.7383440
3617,Crown Royal Circle,89445,40.9528280,-117.7378670
3597,Crown Royal Circle,89445,40.9528280,-117.7374330
3587,Crown Royal Circle,89445,40.9528280,-117.7372160
3577,Crown Royal Circle,89445,40.9528280,-117.7369980
3567,Crown Royal Circle,89445,40.9528280,-117.7367810
3557,Crown Royal Circle,89445,40.9528280,-117.7365640
3547,Crown Royal Circle,89445,40.9528280,-117.7363470
3537,Crown Royal Circle,89445,40.9528280,-117.7361300
3527,Crown Royal Circle,89445,40.9528160,-117.7357940
3517,Crown Royal Circle,89445,40.9529850,-117.7355710
3507,Crown Royal Circle,89445,40.9532680,-117.7355860
3497,Crown Royal Circle,89445,40.9534890,-117.7355860
3487,Crown Royal Circle,89445,40.9536520,-117.7355930
3467,Crown Royal Circle,89445,40.9539300,-117.7361290
3457,Crown Royal Circle,89445,40.9539300,-117.7363470
3447,Crown Royal Circle,89445,40.9539300,-117.7365640
3437,Crown Royal Circle,89445,40.9539300,-117.7367810
3427,Crown Royal Circle,89445,40.9539300,-117.7369980
3417,Crown Royal Circle,89445,40.9539300,-117.7372160
3397,Crown Royal Circle,89445,40.9539300,-117.7376500
3387,Crown Royal Circle,89445,40.9539300,-117.7378670
3377,Crown Royal Circle,89445,40.9539300,-117.7380840
3367,Crown Royal Circle,89445,40.9539300,-117.7383020
3357,Crown Royal Circle,89445,40.9539300,-117.7385190
3347,Crown Royal Circle,89445,40.9539300,-117.7387360
3337,Crown Royal Circle,89445,40.9539300,-117.7389530
3327,Crown Royal Circle,89445,40.9539300,-117.7391710
3322,Crown Royal Circle,89445,40.9535170,-117.7391710
3332,Crown Royal Circle,89445,40.9535170,-117.7389530
3352,Crown Royal Circle,89445,40.9535170,-117.7385190
3392,Crown Royal Circle,89445,40.9535170,-117.7376500
3402,Crown Royal Circle,89445,40.9535170,-117.7374330
3422,Crown Royal Circle,89445,40.9535170,-117.7369980
3442,Crown Royal Circle,89445,40.9535170,-117.7365640
3687,Crown Royal Circle,89445,40.9528300,-117.7393940
3677,Crown Royal Circle,89445,40.9528400,-117.7392430
1042,S Grass Valley Rd,89445,40.9610376,-117.7369813
1734,West Winnemucca Boulevard,89445,40.9621116,-117.7458834
1692,West Winnemucca Boulevard,89445,40.9627102,-117.7455158
1985,West Winnemucca Boulevard,89445,40.9584969,-117.7472931
450,West Winnemucca Boulevard,89445,40.9762256,-117.7302604
450,West Winnemucca Boulevard,89445,40.9765025,-117.7306570
3309,Potato Road,89445,40.9570544,-117.7454395
610,Bridge Street,89445,40.9713365,-117.7315834
608,Bridge Street,89445,40.9713609,-117.7316413
185,Melarkey Street,89445,40.9738649,-117.7367753
451,Reinhart Street,89445,40.9751725,-117.7292748
522,Lay Street,89445,40.9698832,-117.7345758
597,West Winnemucca Boulevard,89445,40.9692733,-117.7397707
5585,Patrician Way,89445,40.9507543,-117.7017471
5565,Patrician Way,89445,40.9514578,-117.7019208
5545,Patrician Way,89445,40.9514891,-117.7029161
5515,Patrician Way,89445,40.9514957,-117.7045095
5895,Brooke Drive,89445,40.9502226,-117.7024551
5885,Brooke Drive,89445,40.9502071,-117.7030095
5860,Water Canyon Road,89445,40.9500616,-117.7055062
4195,Two Rock Drive,89445,40.9550312,-117.7103464
4189,Two Rock Drive,89445,40.9552519,-117.7100293
4175,Two Rock Drive,89445,40.9554847,-117.7098453
4163,Two Rock Drive,89445,40.9558384,-117.7097781
5188,Stone House Drive,89445,40.9560657,-117.7092051
4170,Autumn Hill Drive,89445,40.9560733,-117.7088190
4171,Autumn Hill Drive,89445,40.9556925,-117.7082997
4165,Autumn Hill Drive,89445,40.9560101,-117.7078362
4161,Autumn Hill Drive,89445,40.9563082,-117.7076562
4155,Autumn Hill Drive,89445,40.9565995,-117.7076522
4149,Autumn Hill Drive,89445,40.9568754,-117.7076947
4143,Autumn Hill Drive,89445,40.9571306,-117.7076564
4135,Autumn Hill Drive,89445,40.9575787,-117.7076759
4111,Autumn Hill Drive,89445,40.9580371,-117.7076900
5300,Snowy Mountain Drive,89445,40.9583206,-117.7076845
5378,Snowy Mountain Drive,89445,40.9583236,-117.7072519
4110,Stoneybrook Drive,89445,40.9580450,-117.7072895
4124,Stoneybrook Drive,89445,40.9577319,-117.7072232
4136,Stoneybrook Drive,89445,40.9574609,-117.7072246
4144,Stoneybrook Drive,89445,40.9571537,-117.7072270
4125,Stoneybrook Drive,89445,40.9576907,-117.7066657
4113,Stoneybrook Drive,89445,40.9580105,-117.7066947
4107,Stoneybrook Drive,89445,40.9582863,-117.7066645
4061,Stoneybrook Drive,89445,40.9585880,-117.7066957
4029,Stoneybrook Drive,89445,40.9588836,-117.7066902
4013,Stoneybrook Drive,89445,40.9591987,-117.7066769
4165,Stoneybrook Drive,89445,40.9561855,-117.7066255
244,West 4th Street,89445,40.9711012,-117.7366316
605,West Haskell Street,89445,40.9638355,-117.7330249
426,Melarkey Street,89445,40.9716554,-117.7345205
434,Melarkey Street,89445,40.9715375,-117.7343800
442,Melarkey Street,89445,40.9714315,-117.7342774
530,Melarkey Street,89445,40.9707226,-117.7334054
511,West Winnemucca Boulevard,89445,40.9693692,-117.7390834
698,West 4th Street,89445,40.9680231,-117.7401444
597,West Winnemucca Boulevard,89445,40.9690705,-117.7395711
508,West Winnemucca Boulevard,89445,40.9700313,-117.7400874
504,West Winnemucca Boulevard,89445,40.9699573,-117.7397270
330,West Winnemucca Boulevard,89445,40.9713460,-117.7380313
331,West Winnemucca Boulevard,89445,40.9710841,-117.7375434
405,West Winnemucca Boulevard,89445,40.9702139,-117.7385518
460,West Winnemucca Boulevard,89445,40.9702153,-117.7393524
685,West Winnemucca Boulevard,89445,40.9684709,-117.7406071
685,West Winnemucca Boulevard,89445,40.9685852,-117.7407290
335,Garrison Street,89445,40.9696302,-117.7385927
755,Minor Street,89445,40.9603097,-117.7277280
737,Minor Street,89445,40.9600698,-117.7265307
471,East Winnemucca Boulevard,89445,40.9766104,-117.7314660
515,West Haskell Street,89445,40.9657033,-117.7321826
465,West Haskell Street,89445,40.9660977,-117.7320026
423,West Winnemucca Boulevard,89445,40.9700637,-117.7388068
485,West Winnemucca Boulevard,89445,40.9699292,-117.7389003
438,West 4th Street,89445,40.9695026,-117.7382796
436,West 4th Street,89445,40.9695979,-117.7381600
420,West 4th Street,89445,40.9697843,-117.7380136
410,West 4th Street,89445,40.9698698,-117.7378791
400,West 4th Street,89445,40.9699737,-117.7377872
334,Pavillion Street,89445,40.9701130,-117.7380491
250,West National Avenue,89445,40.9798165,-117.7459564
4139,Stoneybrook Drive,89445,40.9573951,-117.7066604
4147,Stoneybrook Drive,89445,40.9570917,-117.7066652
4151,Stoneybrook Drive,89445,40.9567854,-117.7066593
5387,Snowy Mountain Drive,89445,40.9587887,-117.7072494
5335,Snowy Mountain Drive,89445,40.9587659,-117.7075572
5299,Snowy Mountain Drive,89445,40.9587596,-117.7078552
5275,Snowy Mountain Drive,89445,40.9587703,-117.7081721
5247,Snowy Mountain Drive,89445,40.9587657,-117.7084832
5215,Snowy Mountain Drive,89445,40.9587655,-117.7087882
4019,Broken Hill Drive,89445,40.9591973,-117.7088068
5272,Offenhauser Drive,89445,40.9592092,-117.7085401
5284,Offenhauser Drive,89445,40.9592029,-117.7082645
5296,Offenhauser Drive,89445,40.9592113,-117.7079978
5312,Offenhauser Drive,89445,40.9591989,-117.7077216
5360,Offenhauser Drive,89445,40.9592257,-117.7074518
4198,Two Rock Drive,89445,40.9554337,-117.7108080
4186,Two Rock Drive,89445,40.9556131,-117.7104755
4162,Two Rock Drive,89445,40.9559635,-117.7103931
4144,Two Rock Drive,89445,40.9568812,-117.7103824
4132,Two Rock Drive,89445,40.9572108,-117.7104436
4128,Two Rock Drive,89445,40.9575322,-117.7103803
4122,Two Rock Drive,89445,40.9577989,-117.7104104
4104,Two Rock Drive,89445,40.9580666,-117.7103930
4100,Two Rock Drive,89445,40.9583114,-117.7104197
4101,Two Rock Drive,89445,40.9583072,-117.7098155
4107,Two Rock Drive,89445,40.9580445,-117.7098338
4125,Two Rock Drive,89445,40.9577626,-117.7098289
4131,Two Rock Drive,89445,40.9574820,-117.7098204
4139,Two Rock Drive,89445,40.9571972,-117.7098296
4145,Two Rock Drive,89445,40.9569257,-117.7097891
4151,Two Rock Drive,89445,40.9566311,-117.7097998
4158,Broken Hill Drive,89445,40.9566021,-117.7093632
4146`,Broken Hill Drive,89445,40.9569102,-117.7093266
4140,Broken Hill Drive,89445,40.9572141,-117.7093358
4132,Broken Hill Drive,89445,40.9574876,-117.7093828
4124,Broken Hill Drive,89445,40.9577866,-117.7093364
5188,Snowy Mountain Drive,89445,40.9583329,-117.7093799
4103,Broken Hill Drive,89445,40.9583223,-117.7087525
4109,Broken Hill Drive,89445,40.9580325,-117.7087730
4127,Broken Hill Drive,89445,40.9577680,-117.7087554
4133,Broken Hill Drive,89445,40.9574620,-117.7087418
4141,Broken Hill Drive,89445,40.9571812,-117.7087682
4147,Broken Hill Drive,89445,40.9569055,-117.7087948
4153,Broken Hill Drive,89445,40.9566238,-117.7087609
4100,Autumn Hill Drive,89445,40.9583345,-117.7082200
4108,Autumn Hill Drive,89445,40.9580475,-117.7082690
4122,Autumn Hill Drive,89445,40.9577825,-117.7082906
4134,Autumn Hill Drive,89445,40.9574982,-117.7082891
4142,Autumn Hill Drive,89445,40.9572217,-117.7082870
4148,Autumn Hill Drive,89445,40.9569520,-117.7082716
4152,Autumn Hill Drive,89445,40.9566928,-117.7082916
4160,Autumn Hill Drive,89445,40.9564375,-117.7082722
1985,Hanson Street,89445,40.9587845,-117.7168520
5246,Offenhauser Drive,89445,40.9592013,-117.7093176
5234,Offenhauser Drive,89445,40.9591839,-117.7099140
5230,Offenhauser Drive,89445,40.9591777,-117.7102473
5202,Offenhauser Drive,89445,40.9592140,-117.7107764
4025,Foothill Drive,89445,40.9589646,-117.7108920
5105,Snowy Mountain Drive,89445,40.9587387,-117.7107644
5127,Snowy Mountain Drive,89445,40.9587364,-117.7102954
5139,Snowy Mountain Drive,89445,40.9587890,-117.7099060
5151,Snowy Mountain Drive,89445,40.9587554,-117.7095767
4084,Broken Hill Drive,89445,40.9588076,-117.7093182
4136,Foothill Drive,89445,40.9574971,-117.7114346
4158,Foothill Drive,89445,40.9571091,-117.7114215
4168,Foothill Drive,89445,40.9566637,-117.7114593
4188,Foothill Drive,89445,40.9563544,-117.7114496
4196,Foothill Drive,89445,40.9560565,-117.7116152
4103,Foothill Drive,89445,40.9583378,-117.7108552
4109,Foothill Drive,89445,40.9581340,-117.7108842
4129,Foothill Drive,89445,40.9578528,-117.7108609
4151,Foothill Drive,89445,40.9572321,-117.7109131
4163,Foothill Drive,89445,40.9568719,-117.7109156
4171,Foothill Drive,89445,40.9565954,-117.7109274
4183,Foothill Drive,89445,40.9562894,-117.7108960
4191,Foothill Drive,89445,40.9559118,-117.7109713
4197,Foothill Drive,89445,40.9557040,-117.7112140
5001,Adelaide Court,89445,40.9568180,-117.7127365
5013,Adelaide Court,89445,40.9569713,-117.7124804
5025,Adelaide Court,89445,40.9571555,-117.7121643
5028,Adelaide Court,89445,40.9570312,-117.7118018
5016,Adelaide Court,89445,40.9566448,-117.7118975
5004,Adelaide Court,89445,40.9565245,-117.7122617
5469,Offenhauser Drive,89445,40.9596638,-117.7066480
5427,Offenhauser Drive,89445,40.9596344,-117.7069188
5395,Offenhauser Drive,89445,40.9596531,-117.7072199
5351,Offenhauser Drive,89445,40.9596507,-117.7075182
5303,Offenhauser Drive,89445,40.9596439,-117.7078154
5287,Offenhauser Drive,89445,40.9596628,-117.7081099
5279,Offenhauser Drive,89445,40.9596430,-117.7084049
5267,Offenhauser Drive,89445,40.9596853,-117.7087034
5251,Offenhauser Drive,89445,40.9596874,-117.7089998
5249,Offenhauser Drive,89445,40.9596366,-117.7092947
5243,Offenhauser Drive,89445,40.9596566,-117.7096047
5237,Offenhauser Drive,89445,40.9596610,-117.7098910
5231,Offenhauser Drive,89445,40.9596483,-117.7101884
5227,Offenhauser Drive,89445,40.9596226,-117.7105670
3997,Foothill Drive,89445,40.9596830,-117.7108947
111,West McArthur Avenue,89445,40.9649402,-117.7206060
319,Aiken Street,89445,40.9711979,-117.7369892
238,West 4th Street,89445,40.9714236,-117.7361636
185,West Winnemucca Boulevard,89445,40.9719672,-117.7358823
109,West 4th Street,89445,40.9718212,-117.7347367
151,West 4th Street,89445,40.9714476,-117.7350790
125,East Winnemucca Boulevard,89445,40.9749331,-117.7339822
500,East Winnemucca Boulevard,89445,40.9777129,-117.7286437
2925,Frontier Street,89445,40.9623152,-117.7044901
2891,Frontier Street,89445,40.9615511,-117.7044293
2851,Frontier Street,89445,40.9608490,-117.7044336
2835,Frontier Street,89445,40.9605021,-117.7044628
5100,Offenhauser Drive,89445,40.9592088,-117.7118398
5090,Offenhauser Drive,89445,40.9592081,-117.7122054
5080,Offenhauser Drive,89445,40.9592030,-117.7125741
5070,Offenhauser Drive,89445,40.9591656,-117.7129322
5060,Offenhauser Drive,89445,40.9591914,-117.7133005
5050,Offenhauser Drive,89445,40.9591638,-117.7136397
5040,Offenhauser Drive,89445,40.9591499,-117.7140118
5030,Offenhauser Drive,89445,40.9590604,-117.7144375
5020,Offenhauser Drive,89445,40.9588863,-117.7147186
5010,Offenhauser Drive,89445,40.9586532,-117.7149564
5000,Offenhauser Drive,89445,40.9584885,-117.7151492
5005,Offenhauser Drive,89445,40.9589757,-117.7154695
5025,Offenhauser Drive,89445,40.9596595,-117.7151461
5045,Offenhauser Drive,89445,40.9596370,-117.7143943
5055,Offenhauser Drive,89445,40.9596193,-117.7139933
5065,Offenhauser Drive,89445,40.9596434,-117.7136594
5075,Offenhauser Drive,89445,40.9596052,-117.7132990
5085,Offenhauser Drive,89445,40.9595964,-117.7129356
5095,Offenhauser Drive,89445,40.9596018,-117.7125695
5105,Offenhauser Drive,89445,40.9596279,-117.7122082
5115,Offenhauser Drive,89445,40.9596342,-117.7118412
5125,Offenhauser Drive,89445,40.9596282,-117.7115071
5390,Shreiner Drive,89445,40.9628448,-117.7072642
3374,Hackamore Way,89445,40.9607370,-117.7077900
3352,Hackamore Way,89445,40.9609588,-117.7077826
3330,Hackamore Way,89445,40.9611870,-117.7077828
3318,Hackamore Way,89445,40.9614186,-117.7077962
3296,Hackamore Way,89445,40.9616552,-117.7077762
3274,Hackamore Way,89445,40.9618873,-117.7077876
3252,Hackamore Way,89445,40.9621131,-117.7077862
3230,Hackamore Way,89445,40.9623697,-117.7077570
3221,Hackamore Way,89445,40.9625884,-117.7072545
3243,Hackamore Way,89445,40.9623435,-117.7072452
3265,Hackamore Way,89445,40.9621059,-117.7072549
3287,Hackamore Way,89445,40.9618610,-117.7072472
3309,Hackamore Way,89445,40.9616076,-117.7072553
3321,Hackamore Way,89445,40.9613619,-117.7072535
3343,Hackamore Way,89445,40.9611146,-117.7072636
3365,Hackamore Way,89445,40.9608736,-117.7072568
3387,Hackamore Way,89445,40.9606191,-117.7072613
5394,Marla Drive,89445,40.9601768,-117.7069999
5386,Marla Drive,89445,40.9601195,-117.7072796
2804,Great Basin Avenue,89445,40.9601487,-117.7066800
5011,Snowy Mountain Drive,89445,40.9583931,-117.7143363
5013,Snowy Mountain Drive,89445,40.9586288,-117.7140986
5015,Snowy Mountain Drive,89445,40.9586650,-117.7138184
5017,Snowy Mountain Drive,89445,40.9586970,-117.7135567
5023,Snowy Mountain Drive,89445,40.9587080,-117.7132447
5027,Snowy Mountain Drive,89445,40.9587296,-117.7129657
5039,Snowy Mountain Drive,89445,40.9587496,-117.7126698
5047,Snowy Mountain Drive,89445,40.9587129,-117.7123858
5069,Snowy Mountain Drive,89445,40.9587159,-117.7120819
5073,Snowy Mountain Drive,89445,40.9587430,-117.7118057
4030,Foothill Drive,89445,40.9587726,-117.7114976
5090,Snowy Mountain Drive,89445,40.9583569,-117.7115046
5072,Snowy Mountain Drive,89445,40.9583162,-117.7117995
5068,Snowy Mountain Drive,89445,40.9583112,-117.7120776
5046,Snowy Mountain Drive,89445,40.9583495,-117.7123763
5038,Snowy Mountain Drive,89445,40.9583406,-117.7126589
5026,Snowy Mountain Drive,89445,40.9583143,-117.7129592
5022,Snowy Mountain Drive,89445,40.9583134,-117.7132492
5016,Snowy Mountain Drive,89445,40.9582733,-117.7136091
5012,Snowy Mountain Drive,89445,40.9581125,-117.7139196
5008,Snowy Mountain Drive,89445,40.9579918,-117.7140685
5002,Snowy Mountain Drive,89445,40.9578176,-117.7142726
5187,Mount Tobin Place,89445,40.9579379,-117.7115021
5179,Mount Tobin Place,89445,40.9579222,-117.7117789
5167,Mount Tobin Place,89445,40.9579386,-117.7120907
5155,Mount Tobin Place,89445,40.9579183,-117.7123730
5147,Mount Tobin Place,89445,40.9579103,-117.7126704
5133,Mount Tobin Place,89445,40.9579268,-117.7129496
5121,Mount Tobin Place,89445,40.9578662,-117.7131495
5111,Mount Tobin Place,89445,40.9577530,-117.7133931
5107,Mount Tobin Place,89445,40.9576055,-117.7135486
5105,Mount Tobin Place,89445,40.9574806,-117.7137963
5182,Mount Tobin Place,89445,40.9575547,-117.7117195
5166,Mount Tobin Place,89445,40.9575578,-117.7120015
5154,Mount Tobin Place,89445,40.9575287,-117.7123026
5144,Mount Tobin Place,89445,40.9575352,-117.7126051
5122,Mount Tobin Place,89445,40.9575002,-117.7129266
5108,Mount Tobin Place,89445,40.9573507,-117.7131988
5106,Mount Tobin Place,89445,40.9571774,-117.7132967
4251,Water Canyon Road,89445,40.9581484,-117.7147485
29,Pacific Avenue,89445,40.9781665,-117.7410293
5375,Kluncy Canyon Road,89445,40.9726048,-117.7086929
325,Hanson Street,89445,40.9684101,-117.7403973
380,East Haskell Street,89445,40.9732413,-117.7256133
635,West Winnemucca Boulevard,89445,40.9686825,-117.7401788
670,West Winnemucca Boulevard,89445,40.9690219,-117.7412662
5146,Shreiner Drive,89445,40.9627990,-117.7109913
5134,Shreiner Drive,89445,40.9627979,-117.7112866
5122,Shreiner Drive,89445,40.9627865,-117.7115869
5201,Shreiner Drive,89445,40.9632297,-117.7104788
5167,Shreiner Drive,89445,40.9632484,-117.7107855
5145,Shreiner Drive,89445,40.9632385,-117.7111612
5133,Shreiner Drive,89445,40.9632624,-117.7114328
5121,Shreiner Drive,89445,40.9632373,-117.7117363
140,South Bridge Street,89445,40.9744699,-117.7366674
188,Museum Lane,89445,40.9778644,-117.7438917
1,Routson Park Lane,89445,40.9459609,-117.7051631
5880,Water Canyon Road,89445,40.9492334,-117.7045161
5850,Water Canyon Road,89445,40.9503372,-117.7059130
5840,Water Canyon Road,89445,40.9506151,-117.7061374
5875,Water Canyon Road,89445,40.9501669,-117.7047331
5865,Water Canyon Road,89445,40.9504501,-117.7049991
5510,Patrician Way,89445,40.9510124,-117.7048234
5535,Patrician Way,89445,40.9515169,-117.7034895
5525,Patrician Way,89445,40.9514996,-117.7039725
6000,Water Canyon Road,89445,40.9487370,-117.7040662
6010,Water Canyon Road,89445,40.9482945,-117.7036176
6020,Water Canyon Road,89445,40.9478785,-117.7031819
6030,Water Canyon Road,89445,40.9473475,-117.7025955
5610,Patrician Way,89445,40.9496308,-117.7024426
5945,Water Canyon Road,89445,40.9492281,-117.7034628
6005,Water Canyon Road,89445,40.9486963,-117.7028067
6025,Water Canyon Road,89445,40.9478573,-117.7018528
6015,Water Canyon Road,89445,40.9483726,-117.7021778
5625,Patrician Way,89445,40.9491213,-117.7019619
5615,Patrician Way,89445,40.9494915,-117.7017695
5605,Patrician Way,89445,40.9498858,-117.7018275
5622,Cross Creek Drive,89445,40.9496440,-117.7040343
5877,Water Canyon Road,89445,40.9499148,-117.7043031
5520,Patrician Way,89445,40.9509580,-117.7042826
5860,Brooke Drive,89445,40.9505977,-117.7042650
5870,Brooke Drive,89445,40.9502605,-117.7039593
5880,Brooke Drive,89445,40.9500403,-117.7036674
5875,Brooke Drive,89445,40.9504171,-117.7032529
5855,Patrician Way,89445,40.9510190,-117.7035650
5540,Patrician Way,89445,40.9510047,-117.7030423
5550,Patrician Way,89445,40.9510251,-117.7024884
5555,Patrician Way,89445,40.9515150,-117.7024056
5575,Patrician Way,89445,40.9510367,-117.7017857
5865,Brooke Drive,89445,40.9506145,-117.7035053
5595,Patrician Way,89445,40.9503148,-117.7017934
5590,Patrician Way,89445,40.9506085,-117.7024220
5525,Stonybrook Drive,89445,40.9514089,-117.7080590
747,Grass Valley Road,89445,40.9615632,-117.7349839
700,West National Avenue,89445,40.9806680,-117.7503995
712,West National Avenue,89445,40.9805779,-117.7506435
720,West National Avenue,89445,40.9805063,-117.7509697
118,E Haskell Street,89445,40.9714864,-117.7272717
1200,South Bridge Street,89445,40.9690370,-117.7249185
73,Binder Street,89445,40.9779123,-117.7484155
1310,Hanson Street,89445,40.9611889,-117.7280430
1300,Hanson Street,89445,40.9613459,-117.7286062
1250,Hanson Street,89445,40.9616762,-117.7295826
1200,Hanson Street,89445,40.9612166,-117.7302777
1100,Hanson Street,89445,40.9608129,-117.7310035
1806,Scott Street,89445,40.9619842,-117.7208748
1834,Scott Street,89445,40.9618847,-117.7207107
1876,Scott Street,89445,40.9617682,-117.7204873
1641,Midas Drive,89445,40.9620087,-117.7215233
1673,Midas Drive,89445,40.9619034,-117.7211836
1727,Midas Drive,89445,40.9617144,-117.7209430
1791,Midas Drive,89445,40.9615441,-117.7206877
1825,Midas Drive,89445,40.9613851,-117.7204986
1936,Midas Drive,89445,40.9606168,-117.7206255
419,Big Rock Court,89445,40.9609480,-117.7205803
447,Big Rock Court,89445,40.9607605,-117.7209089
450,Big Rock Court,89445,40.9610428,-117.7213231
420,Big Rock Court,89445,40.9612613,-117.7210549
5198,Western Way,89445,40.9625224,-117.7105499
5186,Western Way,89445,40.9623908,-117.7107565
4505,Center Street,89445,40.9520072,-117.7348389
4500,Grass Valley Road,89445,40.9546824,-117.7415940
3375,Moon Lane,89445,40.9546311,-117.7381264
3365,Moon Lane,89445,40.9546532,-117.7383336
3355,Moon Lane,89445,40.9546431,-117.7385483
3345,Moon Lane,89445,40.9545848,-117.7388085
3335,Moon Lane,89445,40.9546316,-117.7389854
3325,Moon Lane,89445,40.9546328,-117.7391934
3315,Moon Lane,89445,40.9545863,-117.7394628
3305,Moon Lane,89445,40.9545856,-117.7396760
3295,Moon Lane,89445,40.9546278,-117.7398532
4409,Grass Valley Road,89445,40.9540003,-117.7402371
3317,Crown Royal Circle,89445,40.9539398,-117.7395282
3607,Crown Royal Circle,89445,40.9528170,-117.7377376
3627,Crown Royal Circle,89445,40.9528395,-117.7381669
3542,Crown Royal Circle,89445,40.9532177,-117.7363880
3502,Crown Royal Circle,89445,40.9532136,-117.7361040
3492,Crown Royal Circle,89445,40.9535067,-117.7361358
3432,Crown Royal Circle,89445,40.9534829,-117.7368216
3412,Crown Royal Circle,89445,40.9535302,-117.7372984
3382,Crown Royal Circle,89445,40.9534887,-117.7379068
3372,Crown Royal Circle,89445,40.9535172,-117.7381266
3362,Crown Royal Circle,89445,40.9534876,-117.7383461
3342,Crown Royal Circle,89445,40.9535211,-117.7387911
3312,Crown Royal Circle,89445,40.9534867,-117.7393525
4395,Grass Valley Road,89445,40.9553562,-117.7355316
4540,Walther Lane,89445,40.9559912,-117.7258155
4530,Walther Lane,89445,40.9559860,-117.7261325
4520,Walther Lane,89445,40.9559986,-117.7263684
4510,Walther Lane,89445,40.9559259,-117.7266669
4330,Walther Lane,89445,40.9559586,-117.7281786
4320,Walther Lane,89445,40.9559857,-117.7284110
4065,Fannie Lane,89445,40.9558893,-117.7286560
4075,Fannie Lane,89445,40.9556775,-117.7286527
4325,Marvin Gardens,89445,40.9556513,-117.7283731
4335,Marvin Gardens,89445,40.9554221,-117.7281756
4345,Marvin Gardens,89445,40.9552128,-117.7281759
4355,Marvin Gardens,89445,40.9549625,-117.7284304
4335,Moon Lane,89445,40.9546450,-117.7281665
4325,Moon Lane,89445,40.9547405,-117.7283887
4315,Moon Lane,89445,40.9547242,-117.7286629
4125,Fannie Lane,89445,40.9550509,-117.7286620
4300,Walther Lane,89445,40.9560546,-117.7291666
4070,Fannie Lane,89445,40.9558387,-117.7291733
4080,Fannie Lane,89445,40.9556232,-117.7291264
4090,Fannie Lane,89445,40.9554175,-117.7291346
4100,Fannie Lane,89445,40.9552622,-117.7291815
4110,Fannie Lane,89445,40.9550028,-117.7291450
4120,Fannie Lane,89445,40.9547989,-117.7291391
4130,Fannie Lane,89445,40.9546316,-117.7291417
4125,Myers Lane,89445,40.9546034,-117.7296054
4115,Myers Lane,89445,40.9547996,-117.7296102
4105,Myers Lane,89445,40.9550081,-117.7296599
4095,Myers Lane,89445,40.9552153,-117.7296526
4085,Myers Lane,89445,40.9553928,-117.7296616
4075,Myers Lane,89445,40.9556203,-117.7296755
4065,Myers Lane,89445,40.9557821,-117.7296533
4290,Walther Lane,89445,40.9560233,-117.7296657
4280,Walther Lane,89445,40.9560280,-117.7303073
4070,Myers Lane,89445,40.9558214,-117.7302338
4080,Myers Lane,89445,40.9556092,-117.7301542
4100,Myers Lane,89445,40.9551997,-117.7302304
4110,Myers Lane,89445,40.9550169,-117.7301931
4120,Myers Lane,89445,40.9547850,-117.7302207
4130,Myers Lane,89445,40.9546105,-117.7301557
3407,Crown Royal Circle,89445,40.9539279,-117.7374296
3477,Crown Royal Circle,89445,40.9539262,-117.7358737
3490,Moon Lane,89445,40.9542147,-117.7355888
3480,Moon Lane,89445,40.9542425,-117.7357679
3470,Moon Lane,89445,40.9542058,-117.7360242
3460,Moon Lane,89445,40.9542012,-117.7362419
3450,Moon Lane,89445,40.9541967,-117.7364632
3430,Moon Lane,89445,40.9542037,-117.7368918
3420,Moon Lane,89445,40.9542204,-117.7371165
3410,Moon Lane,89445,40.9541941,-117.7372905
3400,Moon Lane,89445,40.9542110,-117.7375236
3390,Moon Lane,89445,40.9541791,-117.7377626
3370,Moon Lane,89445,40.9542138,-117.7381976
3350,Moon Lane,89445,40.9542253,-117.7386306
3340,Moon Lane,89445,40.9542531,-117.7388145
3330,Moon Lane,89445,40.9542217,-117.7390729
3320,Moon Lane,89445,40.9542488,-117.7392473
3310,Moon Lane,89445,40.9541903,-117.7395009
3495,Moon Lane,89445,40.9546207,-117.7355494
3485,Moon Lane,89445,40.9546269,-117.7357698
3475,Moon Lane,89445,40.9546330,-117.7359786
3465,Moon Lane,89445,40.9546324,-117.7361895
3455,Moon Lane,89445,40.9546178,-117.7363957
3435,Moon Lane,89445,40.9546081,-117.7368268
3425,Moon Lane,89445,40.9545804,-117.7370735
3415,Moon Lane,89445,40.9546197,-117.7372606
3405,Moon Lane,89445,40.9546115,-117.7374644
3395,Moon Lane,89445,40.9546012,-117.7377075
3385,Moon Lane,89445,40.9546113,-117.7379125
4154,Dorie Drive,89445,40.9583538,-117.7325925
4164,Dorie Drive,89445,40.9583916,-117.7323662
4174,Dorie Drive,89445,40.9583865,-117.7321533
4184,Dorie Drive,89445,40.9583903,-117.7319127
4194,Dorie Drive,89445,40.9583856,-117.7317161
4204,Dorie Drive,89445,40.9583517,-117.7315079
4214,Dorie Drive,89445,40.9583832,-117.7312731
4217,Dorie Drive,89445,40.9587992,-117.7312384
4207,Dorie Drive,89445,40.9588291,-117.7315328
4197,Dorie Drive,89445,40.9588102,-117.7316943
4187,Dorie Drive,89445,40.9587867,-117.7319532
4177,Dorie Drive,89445,40.9588107,-117.7321840
4167,Dorie Drive,89445,40.9588058,-117.7323754
4157,Dorie Drive,89445,40.9588055,-117.7325805
4152,Boni Drive,89445,40.9590512,-117.7325541
4162,Boni Drive,89445,40.9590517,-117.7323732
4172,Boni Drive,89445,40.9590688,-117.7321432
4182,Boni Drive,89445,40.9590484,-117.7319341
4192,Boni Drive,89445,40.9590398,-117.7317608
4202,Boni Drive,89445,40.9590209,-117.7315449
4212,Boni Drive,89445,40.9590920,-117.7312053
4215,Boni Drive,89445,40.9594374,-117.7312342
4205,Boni Drive,89445,40.9594909,-117.7314857
4195,Boni Drive,89445,40.9594683,-117.7317390
4185,Boni Drive,89445,40.9594566,-117.7319529
4175,Boni Drive,89445,40.9594589,-117.7321798
4165,Boni Drive,89445,40.9594625,-117.7324036
4155,Boni Drive,89445,40.9594776,-117.7325660
4210,Sunny Drive,89445,40.9597300,-117.7312506
4200,Sunny Drive,89445,40.9597047,-117.7314894
4190,Sunny Drive,89445,40.9596953,-117.7317066
4180,Sunny Drive,89445,40.9597180,-117.7319216
4170,Sunny Drive,89445,40.9597048,-117.7321775
4160,Sunny Drive,89445,40.9597054,-117.7323700
4150,Sunny Drive,89445,40.9597356,-117.7325818
4102,Sunny Drive,89445,40.9594781,-117.7336456
4100,Sunny Drive,89445,40.9597361,-117.7335648
4130,Sunny Drive,89445,40.9597355,-117.7331113
4036,Turner Lane,89445,40.9593717,-117.7332037
4040,Turner Lane,89445,40.9595018,-117.7330666
4050,Turner Lane,89445,40.9592638,-117.7331157
4060,Turner Lane,89445,40.9590217,-117.7330778
4070,Turner Lane,89445,40.9588837,-117.7331348
4080,Turner Lane,89445,40.9587149,-117.7331261
4100,Turner Lane,89445,40.9583270,-117.7334719
4130,Turner Lane,89445,40.9581284,-117.7331322
4150,Turner Lane,89445,40.9579466,-117.7331025
4160,Turner Lane,89445,40.9578157,-117.7331864
4170,Turner Lane,89445,40.9576637,-117.7331382
4180,Turner Lane,89445,40.9574643,-117.7331009
20,Vista Avenue,89445,40.9800091,-117.7423082
15,Bellvue Avenue,89445,40.9810729,-117.7429148
25,Bellvue Avenue,89445,40.9809553,-117.7432553
51,Vista Avenue,89445,40.9806121,-117.7426972
31,Vista Avenue,89445,40.9799637,-117.7428355
631,Camelot Way,89445,40.9794993,-117.7488170
628,Ross Street,89445,40.9791199,-117.7484012
702,Camelot Way,89445,40.9797842,-117.7501971
701,West National Avenue,89445,40.9802558,-117.7503150
608,Camelot Way,89445,40.9798850,-117.7483373
312,Mesa Way,89445,40.9808851,-117.7499272
5015,Offenhauser Drive,89445,40.9592696,-117.7151247
333,West Winnemucca Boulevard,89445,40.9708312,-117.7379173
333,West Winnemucca Boulevard,89445,40.9707362,-117.7377941
333,West Winnemucca Boulevard,89445,40.9707060,-117.7379174
4010,Grass Valley Road,89445,40.9596868,-117.7379657
4090,Myers Lane,89445,40.9554110,-117.7302055
4400,Longhorn Drive,89445,40.9827517,-117.6992919
1050,Hanson Street,89445,40.9616520,-117.7311399
141,West National Avenue,89445,40.9793896,-117.7434138
137,West National Avenue,89445,40.9793832,-117.7431808
155,West National Avenue,89445,40.9793468,-117.7436848
175,West National Avenue,89445,40.9793500,-117.7441780
165,West National Avenue,89445,40.9793525,-117.7439224
183,West National Avenue,89445,40.9793085,-117.7444431
4,Vista Avenue,89445,40.9792824,-117.7429051
1,Vista Avenue,89445,40.9792001,-117.7423787
140,West National Avenue,89445,40.9798402,-117.7432914
150,West National Avenue,89445,40.9798494,-117.7437331
194,West National Avenue,89445,40.9798434,-117.7441058
420,Ida Avenue,89445,40.9800913,-117.7441306
432,Ida Avenue,89445,40.9803050,-117.7441482
444,Ida Avenue,89445,40.9805529,-117.7441506
458,Ida Avenue,89445,40.9807792,-117.7441355
470,Ida Avenue,89445,40.9810430,-117.7441228
480,Ida Avenue,89445,40.9812467,-117.7441645
494,Ida Avenue,89445,40.9815069,-117.7441988
493,Ida Avenue,89445,40.9814873,-117.7446766
481,Ida Avenue,89445,40.9812681,-117.7446396
471,Ida Avenue,89445,40.9810317,-117.7446641
457,Ida Avenue,89445,40.9808212,-117.7446642
447,Ida Avenue,89445,40.9805869,-117.7446550
435,Ida Avenue,89445,40.9803313,-117.7446559
421,Ida Avenue,89445,40.9800849,-117.7446685
411,Ida Avenue,89445,40.9798314,-117.7446071
66,Bellvue Avenue,89445,40.9814733,-117.7431316
58,Bellvue Avenue,89445,40.9814614,-117.7429210
54,Bellvue Avenue,89445,40.9814337,-117.7426889
50,Bellvue Avenue,89445,40.9814433,-117.7424781
10,Bellvue Avenue,89445,40.9814716,-117.7419538
40,Bellvue Avenue,89445,40.9814305,-117.7422754
70,Bellvue Avenue,89445,40.9814436,-117.7434928
80,Bellvue Avenue,89445,40.9812295,-117.7438188
39,Bellvue Avenue,89445,40.9809519,-117.7437769
40,Sunnyside Avenue,89445,40.9802617,-117.7438162
33,Sunnyside Avenue,89445,40.9801056,-117.7435228
25,Sunnyside Avenue,89445,40.9801930,-117.7432343
15,Sunnyside Avenue,89445,40.9802500,-117.7429721
41,Vista Avenue,89445,40.9802399,-117.7427440
102,West National Avenue,89445,40.9798031,-117.7428350
92,West National Avenue,89445,40.9798382,-117.7423314
30,Vista Avenue,89445,40.9801806,-117.7423181
44,Vista Avenue,89445,40.9803472,-117.7422739
60,Vista Avenue,89445,40.9805282,-117.7421867
72,Vista Avenue,89445,40.9806707,-117.7420984
88,Vista Avenue,89445,40.9809375,-117.7419929
81,Vista Avenue,89445,40.9810288,-117.7425509
61,Vista Avenue,89445,40.9807553,-117.7426019
30,Sunnyside Avenue,89445,40.9806093,-117.7431416
38,Sunnyside Avenue,89445,40.9806009,-117.7436624
677,West National Avenue,89445,40.9802561,-117.7497125
665,West National Avenue,89445,40.9802557,-117.7494923
653,West National Avenue,89445,40.9802473,-117.7492588
649,West National Avenue,89445,40.9802240,-117.7490424
637,West National Avenue,89445,40.9801933,-117.7488135
625,West National Avenue,89445,40.9801884,-117.7486372
613,West National Avenue,89445,40.9801284,-117.7484094
601,West National Avenue,89445,40.9799098,-117.7481178
612,Camelot Way,89445,40.9798730,-117.7485705
622,Camelot Way,89445,40.9798806,-117.7488047
634,Camelot Way,89445,40.9798781,-117.7490160
642,Camelot Way,89445,40.9798892,-117.7492375
650,Camelot Way,89445,40.9798789,-117.7494629
664,Camelot Way,89445,40.9798805,-117.7496703
300,Mesa Way,89445,40.9807211,-117.7498382
674,West National Avenue,89445,40.9807052,-117.7495805
662,West National Avenue,89445,40.9806861,-117.7493597
650,West National Avenue,89445,40.9806439,-117.7491324
646,West National Avenue,89445,40.9806403,-117.7488879
624,West National Avenue,89445,40.9806073,-117.7484993
620,West National Avenue,89445,40.9805655,-117.7482581
618,West National Avenue,89445,40.9804816,-117.7480829
610,West National Avenue,89445,40.9803684,-117.7479443
600,West National Avenue,89445,40.9801379,-117.7477823
205,Castle Way,89445,40.9802086,-117.7475632
217,Castle Way,89445,40.9804291,-117.7475049
229,Castle Way,89445,40.9806415,-117.7476596
605,Castle Way,89445,40.9807938,-117.7479711
627,Castle Way,89445,40.9808598,-117.7481666
639,Castle Way,89445,40.9809290,-117.7485093
647,Castle Way,89445,40.9809315,-117.7487900
659,Castle Way,89445,40.9809815,-117.7490179
665,Castle Way,89445,40.9810222,-117.7493166
677,Castle Way,89445,40.9810550,-117.7495610
689,Castle Way,89445,40.9810628,-117.7499171
315,Mesa Way,89445,40.9810028,-117.7505159
702,Castle Way,89445,40.9814408,-117.7504692
694,Castle Way,89445,40.9814383,-117.7501605
686,Castle Way,89445,40.9814471,-117.7498494
672,Castle Way,89445,40.9814380,-117.7495449
660,Castle Way,89445,40.9814135,-117.7492350
656,Castle Way,89445,40.9814104,-117.7489295
644,Castle Way,89445,40.9813872,-117.7486154
632,Castle Way,89445,40.9813388,-117.7483450
624,Castle Way,89445,40.9812915,-117.7480082
315,King's Avenue,89445,40.9810897,-117.7475764
345,King's Avenue,89445,40.9813089,-117.7476254
363,King's Avenue,89445,40.9815024,-117.7475824
366,King's Avenue,89445,40.9814820,-117.7470560
342,King's Avenue,89445,40.9812658,-117.7470395
320,King's Avenue,89445,40.9810577,-117.7470595
222,Castle Way,89445,40.9808327,-117.7471073
218,Castle Way,89445,40.9805630,-117.7470012
216,Castle Way,89445,40.9803540,-117.7469311
210,Castle Way,89445,40.9800950,-117.7469966
206,Castle Way,89445,40.9800046,-117.7471792
588,West National Avenue,89445,40.9798001,-117.7473323
574,West National Avenue,89445,40.9797700,-117.7470035
409,Chris Court,89445,40.9805465,-117.7465299
202,Summit Avenue,89445,40.9805765,-117.7449621
460,Aron Court,89445,40.9808878,-117.7451095
490,Aron Court,89445,40.9811167,-117.7451680
500,Aron Court,89445,40.9813869,-117.7451678
515,Aron Court,89445,40.9814526,-117.7455366
511,Aron Court,89445,40.9813055,-117.7459695
463,Aron Court,89445,40.9808351,-117.7456824
419,Aron Court,89445,40.9805694,-117.7456730
410,Chris Court,89445,40.9805751,-117.7459963
278,West National Avenue,89445,40.9798041,-117.7463084
230,West National Avenue,89445,40.9798384,-117.7455158
202,West National Avenue,89445,40.9798289,-117.7452097
201,Summit Avenue,89445,40.9801584,-117.7452102
253,Summit Avenue,89445,40.9801265,-117.7459467
277,Summit Avenue,89445,40.9801458,-117.7463330
241,West National Avenue,89445,40.9793822,-117.7455850
140,Modoc Drive,89445,40.9793867,-117.7451589
180,Modoc Drive,89445,40.9791206,-117.7451989
289,West National Avenue,89445,40.9793815,-117.7462895
183,Welch Drive,89445,40.9790911,-117.7463486
230,Ross Street,89445,40.9790795,-117.7455324
250,Ross Street,89445,40.9790808,-117.7459470
247,Ross Street,89445,40.9786640,-117.7454743
210,Modoc Drive,89445,40.9784252,-117.7451263
269,Ross Street,89445,40.9786958,-117.7459136
287,Ross Street,89445,40.9786809,-117.7463127
275,Maple Avenue,89445,40.9783909,-117.7463465
299,Welch Drive,89445,40.9771858,-117.7463106
175,Museum Lane,89445,40.9771571,-117.7440807
181,Maple Avenue,89445,40.9778612,-117.7435790
192,Museum Lane,89445,40.9777382,-117.7440883
194,Museum Lane,89445,40.9775669,-117.7445195
193,Maple Avenue,89445,40.9779264,-117.7445615
211,Maple Avenue,89445,40.9779556,-117.7455398
300,Maple Avenue,89445,40.9779220,-117.7462855
220,Welch Drive,89445,40.9786392,-117.7468620
240,Welch Drive,89445,40.9783993,-117.7468847
250,Welch Drive,89445,40.9781628,-117.7468876
260,Welch Drive,89445,40.9779026,-117.7468827
272,Welch Drive,89445,40.9776509,-117.7468261
617,Ross Street,89445,40.9787245,-117.7472622
619,Ross Street,89445,40.9787252,-117.7475369
621,Ross Street,89445,40.9787224,-117.7478301
625,Ross Street,89445,40.9787232,-117.7481016
629,Ross Street,89445,40.9787273,-117.7483929
640,Ross Street,89445,40.9791359,-117.7495072
638,Ross Street,89445,40.9791655,-117.7492244
634,Ross Street,89445,40.9791192,-117.7489400
630,Ross Street,89445,40.9791479,-117.7486911
624,Ross Street,89445,40.9791561,-117.7481363
620,Ross Street,89445,40.9791198,-117.7478553
618,Ross Street,89445,40.9791438,-117.7475009
614,Ross Street,89445,40.9791436,-117.7472208
120,Welch Drive,89445,40.9791884,-117.7469014
573,West National Avenue,89445,40.9794107,-117.7469464
581,West National Avenue,89445,40.9793842,-117.7473318
603,Camelot Way,89445,40.9795328,-117.7478164
589,West National Avenue,89445,40.9794567,-117.7476013
607,Camelot Way,89445,40.9794759,-117.7480588
613,Camelot Way,89445,40.9794786,-117.7482935
625,Camelot Way,89445,40.9794668,-117.7485475
641,Camelot Way,89445,40.9794776,-117.7490488
649,Camelot Way,89445,40.9794775,-117.7493695
651,Camelot Way,89445,40.9794747,-117.7495452
631,Ross Street,89445,40.9787272,-117.7486711
635,Ross Street,89445,40.9787300,-117.7489657
639,Ross Street,89445,40.9787264,-117.7492416
641,Ross Street,89445,40.9787224,-117.7495300
100,Mesa Way,89445,40.9787176,-117.7500893
650,Husker Street,89445,40.9783616,-117.7495335
642,Husker Street,89445,40.9783534,-117.7492400
636,Husker Street,89445,40.9783567,-117.7489663
630,Husker Street,89445,40.9783600,-117.7486723
620,Husker Street,89445,40.9783520,-117.7478314
612,Husker Street,89445,40.9783293,-117.7475132
83,Planter Street,89445,40.9781228,-117.7473281
71,Planter Street,89445,40.9779039,-117.7473425
75,Mesa Way,89445,40.9779205,-117.7494717
112,Mesa Way,89445,40.9791409,-117.7501215
136,Mesa Way,89445,40.9793705,-117.7500682
713,Camelot Way,89445,40.9793811,-117.7502660
253,Mesa Way,89445,40.9799577,-117.7502293
275,Mesa Way,89445,40.9801344,-117.7502726
733,West National Avenue,89445,40.9799641,-117.7510751
6040,Water Canyon Road,89445,40.9466965,-117.7018322
3,Routson Park Lane,89445,40.9465723,-117.7032401
2,Routson Park Lane,89445,40.9468740,-117.7055850
6085,Water Canyon Road,89445,40.9460543,-117.6998396
4640,Grass Valley Road,89445,40.9515990,-117.7437988
4630,Grass Valley Road,89445,40.9519729,-117.7435124
4582,Grass Valley Road,89445,40.9532929,-117.7429205
3505,Construction Way,89445,40.9538814,-117.7488815
3010,Potato Road,89445,40.9533548,-117.7458219
3665,Construction Way,89445,40.9519250,-117.7511272
3567,Construction Way,89445,40.9526776,-117.7503282
4650,Grass Valley Road,89445,40.9509333,-117.7442501
3200,Traders Way,89445,40.9586300,-117.7455915
3270,West Railroad Street,89445,40.9560726,-117.7447679
3325,Potato Road,89445,40.9582665,-117.7457553
3085,Potato Road,89445,40.9550161,-117.7459188
3089,Potato Road,89445,40.9553492,-117.7456679
3300,West Railroad Street,89445,40.9548389,-117.7440769
3300,West Railroad Street,89445,40.9551513,-117.7445800
3005,Potato Road,89445,40.9542995,-117.7443871
3275,Fountain Way,89445,40.9584811,-117.7434029
3300,Traders Way,89445,40.9573345,-117.7422850
3298,Traders Way,89445,40.9574107,-117.7424874
3110,West Railroad Street,89445,40.9578174,-117.7417888
1987,West Winnemucca Boulevard,89445,40.9581994,-117.7475669
1927,West Winnemucca Boulevard,89445,40.9591044,-117.7471003
5614,Offenhauser Drive,89445,40.9592212,-117.7046773
5590,Offenhauser Drive,89445,40.9592094,-117.7049239
5546,Offenhauser Drive,89445,40.9592112,-117.7055414
901,West Sixth Street,89445,40.9636873,-117.7388122
980,West Railroad Street,89445,40.9633249,-117.7381864
751,West Sixth Street,89445,40.9647792,-117.7371387
751,West Sixth Street,89445,40.9648974,-117.7373449
585,Anderson Street,89445,40.9648500,-117.7392725
920,West Sixth Street,89445,40.9643039,-117.7394552
1105,West 4th Street,89445,40.9654953,-117.7422729
403,Hanson Street,89445,40.9675690,-117.7392749
725,West 4th Street,89445,40.9668201,-117.7402501
545,Hanson Street,89445,40.9668413,-117.7381006
770,West Sixth Street,89445,40.9653318,-117.7379005
580,Hanson Street,89445,40.9656348,-117.7375196
741,West Winnemucca Boulevard,89445,40.9671963,-117.7419927
921,West Winnemucca Boulevard,89445,40.9663115,-117.7423359
741,West Winnemucca Boulevard,89445,40.9675862,-117.7410651
705,West Winnemucca Boulevard,89445,40.9680558,-117.7410245
1099,West Winnemucca Boulevard,89445,40.9659745,-117.7427845
1005,West 4th Street,89445,40.9659099,-117.7416819
741,West Winnemucca Boulevard,89445,40.9670017,-117.7422440
1157,West Winnemucca Boulevard,89445,40.9637996,-117.7429694
735,West 4th Street,89445,40.9663103,-117.7409949
1195,West Winnemucca Boulevard,89445,40.9638889,-117.7436001
1062,Grass Valley Road,89445,40.9601876,-117.7376488
3050,West Railroad Street,89445,40.9589085,-117.7416548
1410,West Railroad Street,89445,40.9608139,-117.7397098
3220,Fountain Way,89445,40.9592762,-117.7454132
3240,Fountain Way,89445,40.9593000,-117.7442043
3290,Fountain Way,89445,40.9593638,-117.7430022
1630,Midas Drive,89445,40.9620655,-117.7229703
94,West Railroad Street,89445,40.9705230,-117.7317598
44,West Railroad Street,89445,40.9708018,-117.7315072
602,Bridge Street,89445,40.9713270,-117.7317935
618,South Bridge Street,89445,40.9712572,-117.7315578
777,South Bridge Street,89445,40.9717104,-117.7308884
639,South Bridge Street,89445,40.9716213,-117.7312980
601,South Bridge Street,89445,40.9718066,-117.7315216
549,South Bridge Street,89445,40.9718534,-117.7318897
539,South Bridge Street,89445,40.9719212,-117.7320335
529,South Bridge Street,89445,40.9720156,-117.7321489
550,Bridge Street,89445,40.9714722,-117.7322102
1930,West Winnemucca Boulevard,89445,40.9592715,-117.7483164
1880,West Winnemucca Boulevard,89445,40.9602918,-117.7481562
1620,West Winnemucca Boulevard,89445,40.9631169,-117.7455061
1800,West Winnemucca Boulevard,89445,40.9621212,-117.7463863
714,West Winnemucca Boulevard,89445,40.9685781,-117.7419379
738,West Winnemucca Boulevard,89445,40.9682290,-117.7419484
740,West Winnemucca Boulevard,89445,40.9678308,-117.7424683
750,West Winnemucca Boulevard,89445,40.9676469,-117.7424671
936,West Winnemucca Boulevard,89445,40.9667360,-117.7431160
942,West Winnemucca Boulevard,89445,40.9664280,-117.7435981
1130,West Winnemucca Boulevard,89445,40.9653351,-117.7438885
1130,West Winnemucca Boulevard,89445,40.9657914,-117.7437834
1058,West Winnemucca Boulevard,89445,40.9650206,-117.7450658
2950,Frontier Street,89445,40.9626511,-117.7050676
2876,Frontier Street,89445,40.9611512,-117.7051209
2852,Frontier Street,89445,40.9608129,-117.7050984
2834,Frontier Street,89445,40.9605047,-117.7050639
2806,Frontier Street,89445,40.9601689,-117.7052032
2811,Great Basin Avenue,89445,40.9601825,-117.7060352
2833,Great Basin Avenue,89445,40.9604865,-117.7060188
2904,Frontier Street,89445,40.9619378,-117.7051481
2809,Frontier Street,89445,40.9601928,-117.7044727
2808,Paiute Street,89445,40.9601423,-117.7035135
2949,Frontier Street,89445,40.9626393,-117.7044758
1078,East Winnemucca Boulevard,89445,40.9746811,-117.7221179
4800,Ada Vista Drive,89445,40.9474291,-117.7010108
138,West Winnemucca Boulevard,89445,40.9726048,-117.7366089
50,West Winnemucca Boulevard,89445,40.9735081,-117.7361073
1500,Melarkey Street,89445,40.9651640,-117.7226151
5378,Marla Drive,89445,40.9600839,-117.7075717
5377,Marla Drive,89445,40.9605149,-117.7077548
215,Aiken Street,89445,40.9720057,-117.7380503
240,West Winnemucca Boulevard,89445,40.9717826,-117.7375340
218,West Winnemucca Boulevard,89445,40.9720959,-117.7373200
500,Garrison Street,89445,40.9684896,-117.7366887
4150,Two Rock Drive,89445,40.9565568,-117.7103791
4137,Foothill Drive,89445,40.9575444,-117.7109008
5505,Patrician Way,89445,40.9515004,-117.7050662
5855,Water Canyon Road,89445,40.9507804,-117.7053233
5835,Water Canyon Road,89445,40.9513711,-117.7058945
1365,Mizpah Street,89445,40.9702555,-117.7223523
136,West 2nd Street,89445,40.9732210,-117.7375469
146,West 2nd Street,89445,40.9730897,-117.7377141
102,West Railroad Street,89445,40.9702035,-117.7319476
640,Melarkey Street,89445,40.9703689,-117.7323824
1041,Grass Valley Road,89445,40.9604477,-117.7353467
1023,Grass Valley Road,89445,40.9609219,-117.7349474
850,Hanson Street,89445,40.9625461,-117.7341242
1050,Grass Valley Road,89445,40.9602920,-117.7371500
1042,Grass Valley Road,89445,40.9607288,-117.7368610
1038,Grass Valley Road,89445,40.9611648,-117.7369360
1022,Grass Valley Road,89445,40.9615795,-117.7363310
3095,Potato Road,89445,40.9553741,-117.7464000
3305,Potato Road,89445,40.9566647,-117.7460889
3319,Potato Road,89445,40.9580631,-117.7463432
3307,Potato Road,89445,40.9572610,-117.7464806
3305,Potato Road,89445,40.9567852,-117.7470473
3294,Traders Way,89445,40.9577401,-117.7432515
3245,Fountain Way,89445,40.9584889,-117.7445720
550,West Winnemucca Boulevard,89445,40.9695268,-117.7402453
215,South Bridge Street,89445,40.9742627,-117.7353425
221,South Bridge Street,89445,40.9744893,-117.7348432
216,South Bridge Street,89445,40.9735432,-117.7353753
71,Giroux Street,89445,40.9749365,-117.7379933
180,South Bridge Street,89445,40.9742570,-117.7364267
150,South Bridge Street,89445,40.9743567,-117.7365312
140,South Bridge Street,89445,40.9742793,-117.7371208
140,South Bridge Street,89445,40.9745630,-117.7367769
47,West 1st Street,89445,40.9743752,-117.7375109
139,South Bridge Street,89445,40.9748870,-117.7362259
180,Melarkey Street,89445,40.9735237,-117.7371456
355,South Bridge Street,89445,40.9731654,-117.7337811
345,South Bridge Street,89445,40.9732094,-117.7340370
347,South Bridge Street,89445,40.9731649,-117.7339604
337,South Bridge Street,89445,40.9733507,-117.7340068
331,South Bridge Street,89445,40.9733112,-117.7341634
329,South Bridge Street,89445,40.9733972,-117.7341861
49,East Winnemucca Boulevard,89445,40.9737678,-117.7340519
50,West 5th Street,89445,40.9719670,-117.7336468
426,South Bridge Street,89445,40.9723520,-117.7335977
25,West 4th Street,89445,40.9724712,-117.7338811
33,West 4th Street,89445,40.9723776,-117.7339891
319,Baud Street,89445,40.9743285,-117.7334740
353,Baud Street,89445,40.9740502,-117.7328835
250,East Winnemucca Boulevard,89445,40.9752670,-117.7324023
232,East Winnemucca Boulevard,89445,40.9750575,-117.7326700
220,East Winnemucca Boulevard,89445,40.9748797,-117.7328143
146,East Winnemucca Boulevard,89445,40.9747556,-117.7329504
130,East Winnemucca Boulevard,89445,40.9745146,-117.7332537
3245,Potato Road,89445,40.9559945,-117.7476056
3555,Construction Way,89445,40.9532314,-117.7496281
3475,Construction Way,89445,40.9547477,-117.7487977
3405,Construction Way,89445,40.9552634,-117.7484991
350,Melarkey Street,89445,40.9720478,-117.7351374
90,West 4th Street,89445,40.9724254,-117.7348242
352,South Bridge Street,89445,40.9727288,-117.7342752
350,South Bridge Street,89445,40.9727756,-117.7343269
348,South Bridge Street,89445,40.9728615,-117.7343466
346,South Bridge Street,89445,40.9729087,-117.7344107
342,South Bridge Street,89445,40.9729392,-117.7344939
332,South Bridge Street,89445,40.9729951,-117.7345507
330,South Bridge Street,89445,40.9730207,-117.7346686
324,South Bridge Street,89445,40.9731181,-117.7346754
318,South Bridge Street,89445,40.9731567,-117.7347277
310,South Bridge Street,89445,40.9731942,-117.7347838
33,West Winnemucca Boulevard,89445,40.9732197,-117.7349413
85,East 5th Street,89445,40.9728090,-117.7325307
38,East 4th Street,89445,40.9730480,-117.7329980
36,East 4th Street,89445,40.9731527,-117.7331592
310,East 4th Street,89445,40.9750430,-117.7304004
1365,Mizpah Street,89445,40.9718769,-117.7216443
451,Reinhart Street,89445,40.9745197,-117.7296156
