House number,Street name,Postal code,Latitude,Longitude
74,Маладзёжная вуліца,211446,55.5349700,28.6445169
20,Маладзёжная вуліца,211443,55.5397721,28.6304190
8,Паркавая вуліца,211443,55.5423864,28.6330583
5А,вуліца Калініна,211440,55.5317354,28.6597131
3,вуліца Калініна,211440,55.5323949,28.6606174
67,Маладзёжная вуліца,211440,55.5352258,28.6543994
169,Маладзёжная вуліца,211501,55.5177276,28.6875385
3,вуліца Калініна,211440,55.5322167,28.6607786
169-1,Маладзёжная вуліца,211501,55.5177564,28.6882145
169,Маладзёжная вуліца,211501,55.5174385,28.6877556
10,Камсамольская вуліца,211449,55.5212467,28.6601067
166А,Маладзёжная вуліца,211500,55.5165617,28.6866789
66,Маладзёжная вуліца,211446,55.5368377,28.6418818
68,Маладзёжная вуліца,211446,55.5365529,28.6424916
217,Маладзёжная вуліца,211501,55.5092482,28.7000370
178,Маладзёжная вуліца,211501,55.5077910,28.6982093
12А,вуліца Якуба Коласа,211444,55.5311185,28.6726568
10,Камсамольская вуліца,211449,55.5211441,28.6600726
10,Камсамольская вуліца,211449,55.5212613,28.6602524
19/1,вуліца Дзяржынскага,211443,55.5404543,28.6263327
17/1,вуліца Дзяржынскага,211443,55.5402497,28.6261272
169,Маладзёжная вуліца,211501,55.5175855,28.6874817
6Б,Заводскі праезд,211449,55.5150460,28.6749672
169,Маладзёжная вуліца,211501,55.5175352,28.6880191
2,Вымяральны праезд,211501,55.5161790,28.6859339
166Б/5,Маладзёжная вуліца,211501,55.5126554,28.6815240
3,вуліца Калініна,211440,55.5322102,28.6607972
135,Маладзёжная вуліца,211448,55.5283830,28.6715883
135,Маладзёжная вуліца,211448,55.5285960,28.6718867
135,Маладзёжная вуліца,211448,55.5286509,28.6719935
11,вуліца Дружбы,211449,55.5221258,28.6643266
26,вуліца Якуба Коласа,211444,55.5277870,28.6757931
166А,Маладзёжная вуліца,211500,55.5167580,28.6864281
102,Маладзёжная вуліца,211440,55.5326430,28.6569238
20,Маладзёжная вуліца,211443,55.5403899,28.6284485
2А,вуліца Дзянісава,211500,55.5128365,28.6923618
2А,Паркавая вуліца,211440,55.5432659,28.6297427
19,вуліца Калініна,211440,55.5247955,28.6525989
3,вуліца Калініна,211440,55.5322860,28.6606604
51,Маладзёжная вуліца,211446,55.5348114,28.6500784
92а,Маладзёжная вуліца,211446,55.5333747,28.6528662
54,Маладзёжная вуліца,211446,55.5377453,28.6398582
2,Алімпійская вуліца,211449,55.5197869,28.6696173
33,Дзвінская вуліца,211443,55.5474742,28.6209968
137,Маладзёжная вуліца,211448,55.5264117,28.6731623
18,вуліца Якуба Коласа,211444,55.5289113,28.6739123
10,вуліца Якуба Коласа,211440,55.5325365,28.6690067
89,Маладзёжная вуліца,211440,55.5317184,28.6621815
3,вуліца Калініна,211440,55.5330194,28.6617110
21,вуліца Дружбы,211449,55.5205808,28.6668784
143,Маладзёжная вуліца,211444,55.5268341,28.6758060
169,Маладзёжная вуліца,211501,55.5176273,28.6876275
20,Заводскі праезд,211440,55.5161361,28.6778946
166Д,Маладзёжная вуліца,211440,55.5121447,28.6820223
6Б,Заводскі праезд,211449,55.5149539,28.6744590
215,Маладзёжная вуліца,211501,55.5102674,28.6996127
67,Маладзёжная вуліца,211440,55.5352759,28.6543416
63,Маладзёжная вуліца,211440,55.5355298,28.6534272
21,Маладзёжная вуліца,211443,55.5403032,28.6355480
2,вуліца Ктатарава,211443,55.5405945,28.6362804
17,Маладзёжная вуліца,211443,55.5408451,28.6351916
15,Маладзёжная вуліца,211443,55.5407534,28.6341848
13,Маладзёжная вуліца,211443,55.5412606,28.6342554
8,Паркавая вуліца,211443,55.5424029,28.6328200
4,Паркавая вуліца,211443,55.5428814,28.6313278
6,Паркавая вуліца,211443,55.5426309,28.6320587
7/2,Маладзёжная вуліца,211443,55.5421836,28.6303949
11,Маладзёжная вуліца,211443,55.5413867,28.6328516
9,Маладзёжная вуліца,211443,55.5417291,28.6316398
11А,Маладзёжная вуліца,211443,55.5410672,28.6333171
5,Маладзёжная вуліца,211443,55.5428996,28.6281642
7,Маладзёжная вуліца,211443,55.5423525,28.6294400
2А,Паркавая вуліца,211443,55.5433010,28.6297407
1А,Маладзёжная вуліца,211443,55.5439837,28.6249223
2,Дзвінская вуліца,211443,55.5438567,28.6267436
3,Маладзёжная вуліца,211443,55.5435248,28.6273737
2Б,Паркавая вуліца,211443,55.5437766,28.6283548
1,Маладзёжная вуліца,211443,55.5430439,28.6266730
12,Маладзёжная вуліца,211443,55.5422415,28.6257383
10,вуліца 1-я Лінія,211443,55.5414814,28.6261009
10,вуліца 1-я Лінія,211443,55.5415726,28.6254662
5А,вуліца Гайдара,211443,55.5412675,28.6251471
7,вуліца Гайдара,211443,55.5401965,28.6234070
5,вуліца Гайдара,211443,55.5412159,28.6242198
5,вуліца Дзяржынскага,211443,55.5402141,28.6249534
13,вуліца Гайдара,211443,55.5390517,28.6214259
15,вуліца Гайдара,211443,55.5387408,28.6223839
9,вуліца Гайдара,211443,55.5396237,28.6220991
8,вуліца Дзяржынскага,211443,55.5394259,28.6247535
16,Слабадская вуліца,211443,55.5378839,28.6265255
14,Слабадская вуліца,211443,55.5375107,28.6272931
12,Слабадская вуліца,211443,55.5373089,28.6260663
10,Слабадская вуліца,211443,55.5375874,28.6251759
8,Слабадская вуліца,211443,55.5378779,28.6242978
6,Слабадская вуліца,211443,55.5381744,28.6235636
17/2,вуліца Дзяржынскага,211443,55.5407531,28.6273841
17/1,вуліца Дзяржынскага,211443,55.5403949,28.6264789
9,вуліца Дзяржынскага,211443,55.5392622,28.6298609
11,вуліца Дзяржынскага,211443,55.5395288,28.6289699
13,вуліца Дзяржынскага,211443,55.5398082,28.6281028
8,вуліца 6-я Лінія,211443,55.5390270,28.6305402
6,вуліца 6-я Лінія,211443,55.5394077,28.6309233
4,вуліца 6-я Лінія,211443,55.5402471,28.6317633
24,Маладзёжная вуліца,211443,55.5406265,28.6321399
22,Маладзёжная вуліца,211443,55.5406900,28.6309352
22,Маладзёжная вуліца,211443,55.5409059,28.6315954
5,вуліца 5-я Лінія,211443,55.5401845,28.6310201
4,вуліца 7-я Лінія,211443,55.5387616,28.6310244
9,вуліца 7-я Лінія,211443,55.5386632,28.6316608
7,вуліца 7-я Лінія,211443,55.5390340,28.6320269
5,вуліца 7-я Лінія,211443,55.5394553,28.6324476
3,вуліца 7-я Лінія,211443,55.5398611,28.6328593
28,Маладзёжная вуліца,211443,55.5402674,28.6332681
26,Маладзёжная вуліца,211443,55.5405366,28.6327863
30,Маладзёжная вуліца,211443,55.5399965,28.6339309
32,Маладзёжная вуліца,211443,55.5397935,28.6345823
34,Маладзёжная вуліца,211443,55.5395515,28.6352465
6,вуліца Ктатарава,211443,55.5391933,28.6344074
8,вуліца Ктатарава,211443,55.5387610,28.6336228
10,вуліца Ктатарава,211443,55.5384380,28.6328800
2,вуліца Дзяржынскага,211443,55.5384169,28.6307455
16,вуліца Ктатарава,211443,55.5367461,28.6310490
12А,Слабадская вуліца,211443,55.5371227,28.6268282
18,вуліца Ктатарава,211443,55.5368957,28.6281391
24,вуліца Ктатарава,211443,55.5367161,28.6287868
20,вуліца Ктатарава,211443,55.5365449,28.6294369
22,вуліца Ктатарава,211443,55.5352056,28.6288376
29,вуліца Блахіна,211440,55.5320452,28.6466927
92А,Маладзёжная вуліца,211446,55.5331674,28.6529873
148,Маладзёжная вуліца,211444,55.5245683,28.6739411
2А,вуліца Дзяржынскага,211443,55.5397666,28.6263388
6,вуліца Дзяржынскага,211443,55.5397761,28.6255721
3,вуліца Калініна,211440,55.5323617,28.6607786
37,Дзвінская вуліца,211443,55.5480237,28.6191062
41,Дзвінская вуліца,211443,55.5485576,28.6188133
43,Дзвінская вуліца,211443,55.5484838,28.6182708
35,Дзвінская вуліца,211443,55.5482101,28.6195150
39,Дзвінская вуліца,211443,55.5482472,28.6186252
33А,Дзвінская вуліца,211443,55.5478854,28.6195722
10,Камсамольская вуліца,211449,55.5212800,28.6600119
9А,вуліца Нафтаперапрацоўшчыкаў,211440,55.5234543,28.5886774
9,Прамысловая вуліца,211440,55.5152192,28.5867090
1,вуліца Гайдара,211443,55.5428100,28.6250156
6,вуліца Нафтаперапрацоўшчыкаў,211440,55.5323102,28.6124542
30,вуліца Блахіна,211440,55.5284290,28.6466044
29,вуліца Блахіна,211440,55.5309692,28.6473075
89,Маладзёжная вуліца,211440,55.5316691,28.6621166
5А,вуліца Калініна,211440,55.5316834,28.6598412
86,вуліца Якуба Коласа,211501,55.5112264,28.7025880
10,вуліца Еранько,211501,55.5116190,28.6901715
2А,вуліца Дзянісава,211500,55.5128040,28.6923490
21,Дзвінская вуліца,211443,55.5462090,28.6237070
9,Дзвінская вуліца,211443,55.5455545,28.6253171
7,Дзвінская вуліца,211443,55.5451752,28.6251187
15,Дзвінская вуліца,211443,55.5455975,28.6242851
11,Дзвінская вуліца,211443,55.5453515,28.6247112
29,Дзвінская вуліца,211443,55.5470016,28.6220583
13,Дзвінская вуліца,211443,55.5457429,28.6248207
27,Дзвінская вуліца,211443,55.5468102,28.6225058
3,Дзвінская вуліца,211443,55.5449311,28.6254543
31,Дзвінская вуліца,211443,55.5471639,28.6216278
17,Дзвінская вуліца,211443,55.5459407,28.6242078
23,Дзвінская вуліца,211443,55.5463897,28.6233533
5,Дзвінская вуліца,211443,55.5453215,28.6257819
25,Дзвінская вуліца,211443,55.5466007,28.6229346
1,Дзвінская вуліца,211443,55.5449955,28.6261886
19,Дзвінская вуліца,211443,55.5458067,28.6235605
10,вуліца 1-я Лінія,211443,55.5413272,28.6264933
15,вуліца Дзяржынскага,211443,55.5401547,28.6274768
5,вуліца Гайдара,211443,55.5412823,28.6236619
1,Маладзёжная вуліца,211443,55.5427361,28.6273855
5,вуліца Гайдара,211443,55.5410922,28.6234822
2А,Паркавая вуліца,211443,55.5434168,28.6299860
6,Прамысловая вуліца,211440,55.5195172,28.5821634
209А,Маладзёжная вуліца,211501,55.5106729,28.6979150
1Г,Маладзёжная вуліца,211443,55.5444134,28.6209018
8,Тэхнічная вуліца,211440,55.5137175,28.5773727
3,вуліца Мантажнікаў,211440,55.5145823,28.5713702
18,Маладзёжная вуліца,211443,55.5408408,28.6301365
7А,Базарная вуліца,211440,55.5874660,28.5976505
139,Маладзёжная вуліца,211444,55.5276658,28.6744763
7А,вуліца Еранько,211501,55.5138288,28.6907094
28,вуліца Ктатарава,211446,55.5334385,28.6128162
225,Маладзёжная вуліца,211501,55.5090187,28.7014630
227,Маладзёжная вуліца,211501,55.5087068,28.7019140
7,вуліца Еранько,211500,55.5136184,28.6897969
9,вуліца Еранько,211500,55.5132891,28.6902964
16,Маладзёжная вуліца,211443,55.5411753,28.6286985
22,Камсамольская вуліца,211449,55.5145864,28.6764048
14,Маладзёжная вуліца,211443,55.5417456,28.6272142
14,вуліца Дзянісава,211501,55.5108601,28.6858511
10/6,вуліца Нафтаперапрацоўшчыкаў,211446,55.5295596,28.5990665
16,вуліца Дзянісава,211501,55.5113844,28.6851014
10,вуліца 1-я Лінія,211443,55.5412380,28.6264001
