House number,Street name,Postal code,Latitude,Longitude
3,Gower Street,a1c 1m9,47.5708959,-52.7018133
7,Burling Crescent,A1E 5G9,47.5295367,-52.7692659
5,Burling Crescent,A1E 5G9,47.5296994,-52.7693880
349,Main Road,A1S 1G8,47.4642807,-52.7709356
294,Water Street,A1C 5J9,47.5620777,-52.7098041
288,Water Street,A1C 5J9,47.5621600,-52.7097021
342,Freshwater Road,A1B 1C2,47.5616339,-52.7466996
127,Harbour Drive,A1C 6N6,47.5610914,-52.7089344
384,Elizabeth Avenue,A1B 1V2,47.5655054,-52.7383976
342,Freshwater Road,A1B 1C2,47.5615959,-52.7467763
336,Freshwater Road,A1B 1C2,47.5619769,-52.7454876
43,Churchill Square,A1B 2X1,47.5754653,-52.7226964
10,Rowan Street,A1B 2X1,47.5746438,-52.7217767
250,Water Street,A1C 1B7,47.5628630,-52.7085316
220,Water Street,A1C1A9,47.5636500,-52.7076537
216,Water Street,A1C1A9,47.5637455,-52.7075666
204,Water Street,A1C1A9,47.5640748,-52.7072742
160,Water Street,A1C1A9,47.5653607,-52.7059780
336,Freshwater Road,A1B 1C2,47.5620685,-52.7453210
336,Freshwater Road,A1B 1C2,47.5621032,-52.7452297
336,Freshwater Road,A1B 1C2,47.5621364,-52.7451654
336,Freshwater Road,A1B 1C2,47.5621602,-52.7450973
10,Rowan Street,A1B 4J9,47.5743745,-52.7222000
36,Pearson Street,A1A 3R1,47.5958856,-52.7093303
36,Pearson Street,A1A 3R1,47.5959002,-52.7092238
36,Pearson Street,A1A 3R1,47.5959646,-52.7092456
12,Gleneyre Street,A1A 2M7,47.6015915,-52.7130229
37,Rowan Street,A1B 2X2,47.5740347,-52.7229539
210,Water Street,A1C1A9,47.5638155,-52.7074836
31,Rowan Street,A1B 2X2,47.5738778,-52.7226819
330,LeMarchant Road,A1E 1R2,47.5508725,-52.7266957
364,Duckworth Street,A1C 1H5,47.5627267,-52.7097339
75,Shaw Street,A1E 4L8,47.5467652,-52.7293420
222,LeMarchant Road,A1C 2H9,47.5557478,-52.7233637
279,Portugal Cove Rd,A1B 2N7,47.5943658,-52.7272525
215,Water Street,A1C 6C9,47.5630653,-52.7076773
351,Kenmount Road,A1B 3P9,47.5489063,-52.7808687
96,Brazil Street,A1C 4V4,47.5597441,-52.7173930
336,Water Street,A1C 1C1,47.5611182,-52.7106491
125,Harbour Drive,A1C 6N6,47.5613714,-52.7085935
14,George Street,A1C 1H7,47.5618744,-52.7107575
35,Rowan Street,A1B 2X2,47.5739271,-52.7227655
7,Rowan Street,A1B 2X2,47.5735771,-52.7220322
9,Rowan Street,A1B 2X2,47.5736062,-52.7220841
15,Rowan Street,A1B 2X2,47.5736348,-52.7221479
15,Rowan Street,A1B 2X2,47.5736816,-52.7223080
21,Rowan Street,A1B 2X2,47.5737018,-52.7223723
23,Rowan Street,A1B 2X2,47.5738096,-52.7225787
439,Allandale Road,A1B 4E8,47.5832077,-52.7491381
40,Livyer's Loop,A1B 3P7,47.5736636,-52.7300761
459,Torbay Road,A1A 5C9,47.6071183,-52.7211197
47,Harvey Road,A1C 2E9,47.5648190,-52.7125470
12;12A,MacPherson Avenue,A1B 2B9,47.5632123,-52.7524951
11,MacPherson Avenue,A1B 2B8,47.5633065,-52.7520709
2,MacPherson Avenue,A1B 2B9,47.5639330,-52.7521586
3,MacPherson Avenue,A1B 2B8,47.5638654,-52.7518220
50,Thorburn Road,A1B 3M1,47.5629670,-52.7560718
44;44A,Larkhall Street,A1B 2C6,47.5656873,-52.7526099
74;74A,Baird Place,A1B 2B2,47.5620558,-52.7502694
75;75A,Baird Place,A1B 2A7,47.5621241,-52.7498494
2;2A,Ayrshire Place,A1B 3L4,47.5625140,-52.7506046
12,Ayrshire Place,A1B 3L4,47.5627974,-52.7509747
15,Ayrshire Place,A1B 3L4,47.5627074,-52.7501769
14;14A,Prestwick Place,A1B 3L3,47.5633797,-52.7499706
2,Prestwick Place,A1B 3L3,47.5631837,-52.7503582
54,Baird Place,A1B 2A9,47.5635524,-52.7496897
1;1A,Larkhall Street,A1C 2C2,47.5628419,-52.7555710
3,Ayrshire Place,A1B 3L4,47.5625313,-52.7508389
4,Ayrshire Place,A1B 3L4,47.5625556,-52.7510272
5,Ayrshire Place,A1B 3L4,47.5625661,-52.7512065
6;6A,Ayrshire Place,A1B 3L4,47.5625294,-52.7514606
7;7A,Ayrshire Place,A1B 3L4,47.5626126,-52.7516068
8,Ayrshire Place,A1B 3L4,47.5627136,-52.7516702
9,Ayrshire Place,A1B 3L4,47.5628208,-52.7516088
10,Ayrshire Place,A1B 3L4,47.5628713,-52.7514347
11,Ayrshire Place,A1B 3L4,47.5628439,-52.7512062
13;13A,Ayrshire Place,A1B 3L4,47.5627701,-52.7507109
14,Glasgow Place,A1B 2B4,47.5664518,-52.7498862
4,MacPherson Avenue,A1B 2B9,47.5637868,-52.7522243
6,MacPherson Avenue,A1B 2B9,47.5636178,-52.7523105
8,MacPherson Avenue,A1B 2B9,47.5634864,-52.7523598
14;14A,MacPherson Avenue,A1B 2B9,47.5629284,-52.7526837
23;23A,MacPherson Avenue,A1B 2B8,47.5623662,-52.7523041
21;21A,MacPherson Avenue,A1B 2B8,47.5625128,-52.7522749
19;19A,MacPherson Avenue,A1B 2B8,47.5626775,-52.7522505
17;17A,MacPherson Avenue,A1B 2B8,47.5628493,-52.7522357
15,MacPherson Avenue,A1B 2B8,47.5630182,-52.7521924
13,MacPherson Avenue,A1B 2B8,47.5631528,-52.7521331
9,MacPherson Avenue,A1B 2B8,47.5634440,-52.7520246
7,MacPherson Avenue,A1B 2B8,47.5635816,-52.7519549
5,MacPherson Avenue,A1B 2B8,47.5637170,-52.7518746
97;97A,Oxen Pond Road,A1B 3J6,47.5651232,-52.7519572
72,Oxen Pond Road,A1B 3J5,47.5652626,-52.7493399
3;3A,Prestwick Place,A1B 3L3,47.5632115,-52.7505741
4,Prestwick Place,A1B 3L3,47.5632340,-52.7508260
5;5A,Prestwick Place,A1B 3L3,47.5632386,-52.7510729
6;6A,Prestwick Place,A1B 3L3,47.5632712,-52.7512741
7,Prestwick Place,A1B 3L3,47.5633923,-52.7514371
8,Prestwick Place,A1B 3L3,47.5635394,-52.7513790
9,Prestwick Place,A1B 3L3,47.5635935,-52.7511682
10,Prestwick Place,A1B 3L3,47.5635697,-52.7509597
12;12A,Prestwick Place,A1B 3L3,47.5634558,-52.7504883
13,Prestwick Place,A1B 3L3,47.5634312,-52.7502668
64,Baird Place,A1B 2B1,47.5628924,-52.7500188
70;70A,Baird Place,A1B 2B2,47.5623802,-52.7501972
15,Larkhall Street,A1B 2C4,47.5642579,-52.7548471
16,Donnegal Place,A1B 3L6,47.5635919,-52.7552589
60,Larkhall Street,A1B 2C6,47.5666776,-52.7515967
62;62A,Larkhall Street,A1B 2C6,47.5668028,-52.7514929
64;64A;64B,Larkhall Street,A1B 2C6,47.5669040,-52.7513962
66;66A,Larkhall Street,A1B 2C6,47.5670341,-52.7512449
68,Larkhall Street,A1B 2C6,47.5671370,-52.7511332
70;70A;72B,Larkhall Street,A1B 2C6,47.5672861,-52.7509719
25,Wicklow Street,A1B 3H4,47.5679894,-52.7487054
27,Wicklow Street,A1B 3H4,47.5682008,-52.7487097
29,Wicklow Street,A1B 3H4,47.5683322,-52.7486717
31,Wicklow Street,A1B 3H4,47.5684667,-52.7485907
33,Wicklow Street,A1B 3H4,47.5685762,-52.7484785
35,Wicklow Street,A1B 3H4,47.5686849,-52.7483577
37,Wicklow Street,A1B 3H4,47.5688181,-52.7482427
39,Wicklow Street,A1B 3H4,47.5690063,-52.7482064
41,Wicklow Street,A1B 3H4,47.5691941,-52.7482209
43,Wicklow Street,A1B 3H4,47.5693440,-52.7483533
48,Wicklow Street,A1B 3H2,47.5695803,-52.7481455
46,Wicklow Street,A1B 3H2,47.5694539,-52.7479532
44,Wicklow Street,A1B 3H2,47.5693268,-52.7478209
30;30A,Wicklow Street,A1B 3H2,47.5683724,-52.7480752
32,Wicklow Street,A1B 3H2,47.5684933,-52.7479369
34;34A,Wicklow Street,A1B 3H2,47.5686118,-52.7478331
36;36A,Wicklow Street,A1B 3H2,47.5687619,-52.7477484
42,Wicklow Street,A1B 3H2,47.5692023,-52.7477349
40,Wicklow Street,A1B 3H2,47.5690530,-52.7477375
38;38A,Wicklow Street,A1B 3H2,47.5689054,-52.7477173
1,Vinnicombe Street,A1B 3K8,47.5637739,-52.7497417
3,Vinnicombe Street,A1B 3K8,47.5638316,-52.7500426
5,Vinnicombe Street,A1B 3K8,47.5638700,-52.7502946
7,Vinnicombe Street,A1B 3K8,47.5639301,-52.7505516
9,Vinnicombe Street,A1B 3K8,47.5639413,-52.7507500
11,Vinnicombe Street,A1B 3K8,47.5639577,-52.7509329
13,Vinnicombe Street,A1B 3K8,47.5639879,-52.7511606
15,Vinnicombe Street,A1B 3K8,47.5640169,-52.7514122
6,Vinnicombe Street,A1B 3K9,47.5641454,-52.7501382
40,Baird Place,A1B 2A7,47.5638684,-52.7492598
51;51A,Baird Place,A1B 2A7,47.5637277,-52.7493131
53;53A,Baird Place,A1B 2A7,47.5636176,-52.7493575
55,Baird Place,A1B 2A7,47.5634892,-52.7494074
57;57A,Baird Place,A1B 2A7,47.5633797,-52.7494580
59;59A,Baird Place,A1B 2A7,47.5631902,-52.7495262
61;61A,Baird Place,A1B 2A7,47.5630754,-52.7495604
63;63A,Baird Place,A1B 2A7,47.5629159,-52.7495516
65,Baird Place,A1B 2A7,47.5627718,-52.7496009
67;67A,Baird Place,A1B 2A7,47.5626335,-52.7496658
69,Baird Place,A1B 2A7,47.5625019,-52.7497286
71,Baird Place,A1B 2A7,47.5623834,-52.7497817
73,Baird Place,A1B 2A7,47.5622479,-52.7498144
54A,Baird Place,A1B 2A9,47.5635240,-52.7497166
11;11A,Prestwick Place,A1B 3K8;A1B 3L3,47.5634883,-52.7507297
7A,Vinnicombe Street,A1B 3K8,47.5638621,-52.7502415
15A,Vinnicombe Street,A1B 3K8,47.5639960,-52.7513466
70,White Rose Drive,A1A 0L2,47.6196061,-52.7190726
70,White Rose Drive,A1A 0H5,47.6195551,-52.7187914
300,Water Street,A1C 5J9,47.5619569,-52.7099293
20,Lake Avenue,A1A 1H4,47.5759603,-52.7024471
20,Lake Avenue,A1A 1H4,47.5763200,-52.7014490
17,Hallett Crescent,A1B 4C4,47.5627428,-52.7680182
11,Hallett Crescent,A1B 4C4,47.5616839,-52.7698716
44,Austin Street,A1B 4C2,47.5625448,-52.7645854
30,Hallett Crescent,A1B 4C5,47.5624706,-52.7658970
11,Austin Street,A1B 4C1,47.5610915,-52.7687823
36,Austin Street,A1B 4C2,47.5618977,-52.7644794
20,Hallett Crescent,A1B 3N4,47.5624028,-52.7668576
14,Hallett Crescent,A1B 4C5,47.5623177,-52.7672826
26,Austin Street,A1B 4C2,47.5610109,-52.7657608
22,Austin Street,A1B 4C2,47.5608411,-52.7664529
85,Thorburn Road,A1B 3M2,47.5639346,-52.7619258
85,Thorburn Road,A1B 3M2,47.5639226,-52.7621176
85,Thorburn Road,A1B 3M2,47.5639039,-52.7620260
85,Thorburn Road,A1B 3M2,47.5638750,-52.7618677
85,Thorburn Road,A1B 3M2,47.5638530,-52.7617812
85,Thorburn Road,A1B 3M2,47.5638904,-52.7619533
44,Austin Street,A1B 4C2,47.5626194,-52.7647082
20,Amherst Heights,A1E 3J1,47.5405810,-52.7395064
358,Main Road,A1G 1C4,47.4646270,-52.7716260
2630,Trans Canada Highway,A1L 2A9,47.5040980,-52.8594300
36,Blackmarsh Road,A1E 1S3,47.5525011,-52.7294377
154,Pennywell Road,A1C 2L6,47.5611603,-52.7235083
46,Torbay Road,A1A 2G4,47.5841744,-52.7064107
660,Torbay Road,A1A 5G9,47.6165637,-52.7226750
10,Julieann Place,A1A 5Z5,47.6072151,-52.6911552
37,Elizabeth Avenue,A1A 1W6,47.5837723,-52.7095262
42,Toronto Street,A1A 2T4,47.5965377,-52.7127094
227,Kenmount Road,A1B 3P9,47.5520527,-52.7734142
425,Topsail Road,A1E 5N7,47.5324631,-52.7483756
279,Portugal Cove Road,A1B 4B8,47.5944066,-52.7271585
279,Portugal Cove Road,A1B 4B8,47.5942214,-52.7266316
279,Portugal Cove Road,A1B 4B8,47.5941773,-52.7265895
279,Portugal Cove Road,A1B 4B8,47.5942812,-52.7266806
1,Howlett Avenue1,A1B 1K8,47.5648611,-52.7356688
21,Anderson Avenue,A1B 3E3,47.5648181,-52.7355768
19,Anderson Avenue,A1B 3E3,47.5647823,-52.7354954
54,Ridge Road,A1A 4P5,47.5890628,-52.7342644
90,Ridge Road,A1A 4P5,47.5879574,-52.7368736
334,Water Street,A1C 1C1,47.5611737,-52.7106044
164,Water Street,A1C1A9,47.5652351,-52.7061063
16,Stavanger Drive,A1A 5E8,47.6150956,-52.7190786
16,Stavanger Drive,A1A 5E8,47.6150341,-52.7192142
42,O'Leary Avenue,A1B 2C7,47.5608909,-52.7618692
47,O'Leary Avenue,A1B 3W8,47.5596130,-52.7612308
42,O'Leary Avenue,A1B 4B7,47.5603732,-52.7616439
155,Ridge Road,A1C 5E3,47.5861257,-52.7367353
12,Gleneyre Street,A1A 2M7,47.6017191,-52.7130230
193,Kenmount Road,A1B 3P9,47.5540742,-52.7689545
427,Newfoundland Drive,A1A 4A5,47.5994265,-52.7102863
427,Newfoundland Drive,A1A 4A5,47.5994211,-52.7103828
120,Stavanger Drive,A1A 5E8,47.6186428,-52.7129042
120,Stavanger Drive,A1A 5E8,47.6187275,-52.7128688
120,Stavanger Drive,A1A 5E8,47.6185497,-52.7131219
120,Stavanger Drive,A1A 5E8,47.6186833,-52.7130405
238,Torbay Road,A1A 5C6,47.5984174,-52.7104899
238,Torbay Road,A1A 5C6,47.5982429,-52.7103552
50,Ropewalk Lane,A1E 5T2,47.5568709,-52.7355036
355,Hamilton Avenue,A1C 5K4,47.5479389,-52.7304235
125,Water Street,A1C 5X4,47.5661062,-52.7043774
140,Water Street,A1C 1A8,47.5662648,-52.7055518
266,Duckworth Street,A1C 1G9,47.5660853,-52.7061773
141,Torbay Road,A1A 2H1,47.5918160,-52.7106877
18-A,Mews Place,A1B4M3,47.5594205,-52.7746493
10,Fort William Place,A1C 1K4,47.5718845,-52.6997632
439,Kenmount Road,A1B 4G1,47.5464931,-52.7862255
447,Kenmount Road,A1B 3P9,47.5465148,-52.7865503
7,Patrick Street,A1E 2S5,47.5526851,-52.7162827
8,Murphys Square,A1E 2T7,47.5526874,-52.7160732
21,Patrick Street,A1E 2S5,47.5529515,-52.7162341
23,Patrick Street,A1E 2S5,47.5529904,-52.7163159
17,Patrick Street,A1E 2S5,47.5529041,-52.7161335
3,Job Street,A1E1H1,47.5546932,-52.7149623
5,Job Street,A1E1H1,47.5547898,-52.7151220
201,Blackmarsh Road,A1E 1T1,47.5461197,-52.7383687
203,Blackmarsh Road,A1E 1T1,47.5460094,-52.7385661
388,Elizabeth Avenue,A1B 1V2,47.5653165,-52.7386208
392,Elizabeth Avenue,A1B 1V2,47.5652181,-52.7387324
386,Elizabeth Avenue,A1B 1V2,47.5650791,-52.7388697
400,Elizabeth Avenue,A1B 1V2,47.5648677,-52.7391057
386,Elizabeth Avenue,A1B 1V2,47.5650067,-52.7389555
336,Freshwater Road,A1B 1C2,47.5620320,-52.7454052
1,Arctic Avenue,A1C 5S7,47.5731022,-52.7348949
1,Arctic Avenue,A1B 1T0,47.5732831,-52.7351911
342,Freshwater Road,A1B 1C2,47.5614807,-52.7468647
342,Freshwater Road,A1B 1C2,47.5615734,-52.7470106
9,Paton Street,A1B 4S8,47.5659352,-52.7391953
396,Elizabeth Avenue,A1B 1V2,47.5651689,-52.7387869
30,Ropewalk Lane,A1E 5T2,47.5566196,-52.7350364
50,Ropewalk Lane,A1E 5T2,47.5565849,-52.7353846
43,Cashin Avenue,A1E 3A9,47.5572973,-52.7347559
43,Cashin Avenue,A1E 3A9,47.5570584,-52.7346894
10,Rowan Street,A1B 2X1,47.5741611,-52.7224124
10,Rowan Street,A1B 2X1,47.5742436,-52.7221227
39,Rowan Street,A1B 2X0,47.5741958,-52.7231870
23,Rowan Street,A1B 2X2,47.5737477,-52.7224733
151,Crosbie Road,A1B 4B4,47.5612452,-52.7450881
323,Freshwater Road,A1B 1C3,47.5623689,-52.7427675
323,Freshwater Road,A1B 1C3,47.5623041,-52.7427248
251,Empire Avenue,A1C 3H9,47.5625928,-52.7305724
25,Kenmount Road,A1B 1W1,47.5597171,-52.7494804
25,Kenmount Road,A1B 1W1,47.5598133,-52.7493531
25,Kenmount Road,A1B 1W1,47.5598742,-52.7492147
25,Kenmount Road,A1B 1W1,47.5599053,-52.7490087
25,Kenmount Road,A1B 1W1,47.5599603,-52.7488831
30,Ropewalk Lane,A1E 5T2,47.5565716,-52.7344094
30,Ropewalk Lane,A1E 5T2,47.5566165,-52.7344930
38,Ropewalk Lane,A1E 5T2,47.5564486,-52.7342833
38,Ropewalk Lane,A1E 5T2,47.5563725,-52.7342157
38,Ropewalk Lane,A1E 5T2,47.5562719,-52.7341095
38,Ropewalk Lane,A1E 5T2,47.5561111,-52.7339679
30,Ropewalk Lane,A1E 5T2,47.5560170,-52.7339528
38,Ropewalk Lane,A1E 5T2,47.5559634,-52.7339700
30,Ropewalk Lane,A1E 5T2,47.5556784,-52.7340646
30,Ropewalk Lane,A1E 5T2,47.5557240,-52.7340492
38,Ropewalk Lane,A1E 5T2,47.5557780,-52.7340342
30,Ropewalk Lane,A1E 5T2,47.5558947,-52.7339880
50,Ropewalk Lane,A1E 5T2,47.5570359,-52.7355315
117,Ropewalk Lane,A1E 4P1,47.5549253,-52.7362125
117,Ropewalk Lane,A1E 4P1,47.5549640,-52.7362634
117,Ropewalk Lane,A1E 4P1,47.5549561,-52.7359705
117,Ropewalk Lane,A1E 4P1,47.5548887,-52.7361164
117,Ropewalk Lane,A1E 4P1,47.5549047,-52.7358911
117,Ropewalk Lane,A1E 4P1,47.5550842,-52.7355338
117,Ropewalk Lane,A1E 4P1,47.5549850,-52.7357462
300,Torbay Road,A1A 3P4,47.6011460,-52.7125404
176,Water Street,A1C1A9,47.5649287,-52.7064096
170,Water Street,A1C1A9,47.5650703,-52.7062637
166,Water Street,A1C1A9,47.5651879,-52.7061484
162,Water Street,A1C1A9,47.5653171,-52.7060266
156,Water Street,A1C1A9,47.5654404,-52.7058990
200,Water Street,A1C1A9,47.5641702,-52.7071868
200,Water Street,A1C1A9,47.5641923,-52.7071654
202,Water Street,A1C1A9,47.5641268,-52.7072201
206,Water Street,A1C1A9,47.5640240,-52.7073320
208,Water Street,A1C1A9,47.5639501,-52.7073931
256,Water Street,A1C 1B7,47.5627703,-52.7086500
258,Water Street,A1C 1B7,47.5627268,-52.7086994
286,Water Street,A1C 1B7,47.5623080,-52.7094166
284,Water Street,A1C 1B7,47.5623334,-52.7093512
282,Water Street,A1C 1B7,47.5623596,-52.7092782
276,Water Street,A1C 1B7,47.5624487,-52.7090776
270,Water Street,A1C 1B7,47.5625315,-52.7089344
302,Water Street,A1C 1B8,47.5618869,-52.7099959
304,Water Street,A1C 1B8,47.5618592,-52.7100292
272,Water Street,A1C 1B7,47.5624826,-52.7090137
308,Water Street,A1C 1B8,47.5617413,-52.7101600
310,Water Street,A1C 1B8,47.5616904,-52.7102137
318,Water Street,A1C 1B8,47.5615034,-52.7103662
320,Water Street,A1C 1C1,47.5614285,-52.7104078
324,Water Street,A1C 1C1,47.5613753,-52.7104476
330,Water Street,A1C 1C1,47.5613128,-52.7105013
332,Water Street,A1C 1C1,47.5612333,-52.7105611
36,Pearson Street,A1A 3R1,47.5959263,-52.7093409
238,Torbay Road,A1A 5C6,47.5983406,-52.7104090
36,Pearson Street,A1A 3R1,47.5958616,-52.7094472
38,Pearson Street,A1A 3R1,47.5958356,-52.7095836
135,Harbour Drive,A1C 6N6,47.5607563,-52.7092964
10,Highland Drive,A1A 3C4,47.6050627,-52.7156304
20,Highland Drive,A1A 3C4,47.6049565,-52.7157751
187,Kenmount Road,A1B 3P9,47.5546273,-52.7670284
187,Kenmount Road,A1B 3P9,47.5545047,-52.7674559
187,Kenmount Road,A1B 3P9,47.5545127,-52.7671676
193,Kenmount Road,A1B 3P9,47.5536116,-52.7684117
193,Kenmount Road,A1B 3P9,47.5537609,-52.7685342
227,Kenmount Road,A1B 3P9,47.5519381,-52.7738149
274,Kenmount Road,A1B 4A4,47.5521007,-52.7755799
300,Kenmount Road,A1B 3R2,47.5517213,-52.7766417
300,Kenmount Road,A1B 3R2,47.5516597,-52.7768502
300,Kenmount Road,A1B 3R2,47.5516216,-52.7769828
300,Kenmount Road,A1B 3R2,47.5515703,-52.7771261
300,Kenmount Road,A1B 3R2,47.5514720,-52.7772565
300,Kenmount Road,A1B 3R2,47.5514515,-52.7773673
430,Torbay Road,A1A 5J3,47.6062516,-52.7189173
430,Torbay Road,A1A 5C9,47.6062860,-52.7191802
55,Kelsey Drive,A1B 5C8,47.5529542,-52.7816400
55,Kelsey Drive,A1B 5C8,47.5530009,-52.7815370
55,Kelsey Drive,A1B 5C8,47.5530503,-52.7813968
74,O'Leary Avenue,A1B 2C7,47.5593021,-52.7661057
95,Water Street,A1C 5W2,47.5667077,-52.7040285
90,Aberdeen Avenue,A1A 5N6,47.6198340,-52.7151608
75,Kelsey Drive,A1B 0C7,47.5550666,-52.7833131
55,White Rose Drive,A1A 0L2,47.6199396,-52.7203785
55,White Rose Drive,A1A 5G9,47.6198025,-52.7203582
48,Kenmount Road,A1B 1W3,47.5607413,-52.7563191
200,Military Road,A1C 2E8,47.5675100,-52.7105715
9,Bonaventure Avenue,A1C 5P9,47.5660968,-52.7115986
32,Frecker Drive,A1E 5Z2,47.5401672,-52.7577798
3,Victoria Street,A1C 3V2,47.5661512,-52.7064911
349,Main Road,A1S 1G8,47.4643936,-52.7711201
390,Torbay Road,A1E 2B6,47.6050634,-52.7180239
349,Main Road,A1S 1G8,47.4642860,-52.7709240
12,Bay Bulls Road,A1G 1A5,47.5237704,-52.7485750
632,Topsail Road,A1E 2C9,47.5255876,-52.7691122
632,Topsail Road,A1E 2C9,47.5258089,-52.7692504
230,Elizabeth Avenue,A1B 5S7,47.5711661,-52.7325402
30,Ropewalk Lane,A1E 2T2,47.5554573,-52.7350182
4,Cathedral Street,A1C1H3,47.5655629,-52.7071567
286,Duckworth Street,A1C 1H3,47.5656138,-52.7068951
278,Duckworth Street,A1C1H3,47.5659247,-52.7065157
280;282,Duckworth Street,A1C 1H3,47.5658015,-52.7066770
300,Prince Phillip Drive,A1B 3V6,47.5718416,-52.7418752
1,Arctic Avenue,A1B 3T5,47.5742901,-52.7379454
100,Elizabeth Avenue,A1B 1R9,47.5812490,-52.7156048
50,Elizabeth Avenue,A1A 1W5,47.5859834,-52.7095758
80,East White Hills Road,A1C 5X1,47.5877410,-52.6790916
130,George Street West,A1C 5L4,47.5579433,-52.7131984
140,Water Street,A1C 6H6,47.5661611,-52.7053937
34,Stavanger Drive,A1A 5E8,47.6168177,-52.7155631
551,Torbay Road,A1A 5C9,47.6116510,-52.7232480
330,Elizabeth Avenue,A1B 1T9,47.5661904,-52.7377455
45,Bonaventure Avenue,A1C3Z3,47.5676274,-52.7152638
43,Kenmount Road,A1B 1W1,47.5588796,-52.7509675
54,Kenmount Road,A1B 1W2,47.5593246,-52.7535702
10,Stavanger Drive,A1A 5E8,47.6130864,-52.7188771
75,Kelsey Drive,A1B 5C8,47.5547576,-52.7837507
460,Topsail Road,A1E 5N7,47.5329541,-52.7521541
470,Topsail Road,A1E2C3,47.5324245,-52.7536948
194,Higgins Line,A1B 4B8,47.5945116,-52.7272491
175,Higgins Line,A1B 4N4,47.5949813,-52.7281282
32,Frecker Drive,A1E 5Z2,47.5400549,-52.7574845
1,Anderson Avenue,A1B 3E3,47.5637357,-52.7335836
4,Portugal Cove Road,A1B 2L5,47.5742436,-52.7093619
341,Freshwater Road,A1B 1C4,47.5608055,-52.7461392
110,macDonald Drive,A1A 2K9,47.5940506,-52.7152607
27,Elizabeth Avenue,A1A1W6,47.5844601,-52.7090132
71,Elizabeth Avenue,A1A 1W8,47.5818581,-52.7122739
20,Crosbie Place,A1B 3Y8,47.5597505,-52.7465677
3,Kenmount Road,A1B 1W1,47.5604197,-52.7474530
329,Freshwater Road,A1B 3B2,47.5614741,-52.7442763
19,Crosbie Place,A1B 3Y8,47.5594847,-52.7457709
290,Freshwater Road,A1B 1C1,47.5631822,-52.7418903
336,Freshwater Road,A1B 1C2,47.5618733,-52.7458073
320,Freshwater Road,A1B 1C2,47.5629158,-52.7427174
342,Freshwater Road,A1B 1C2,47.5617219,-52.7462904
336,Freshwater Road,A1B 1C2,47.5621528,-52.7453272
292,Freshwater Road,A1B 1C1,47.5630580,-52.7421552
326,Freshwater Road,A1B 1C2,47.5623657,-52.7447462
342,Freshwater Road,A1B 1C2,47.5616463,-52.7467601
109,Terra Nova Road,A1B 1G1,47.5584878,-52.7441711
105,Terra Nova Road,A1B 1G1,47.5586070,-52.7431263
99,Terra Nova Road,A1B 1G1,47.5589801,-52.7434832
274,Freshwater Road,A1B 1C1,47.5635140,-52.7399640
324,Freshwater Road,A1B 1C2,47.5626893,-52.7441537
42,Elizabeth Avenue,A1A 1W4,47.5866047,-52.7088628
135,Mayor Avenue,A1C 3G3,47.5694347,-52.7243348
65,Ridge Road,A1A 4P5,47.5884862,-52.7322036
35,Ridge Road,A1A 5G6,47.5892398,-52.7298370
1352A,Topsail Road,A1B 4A7,47.5400408,-52.8474042
348,Water Street,A1C 5M2,47.5606415,-52.7110523
320,Elizabeth Avenue,A1B 1T9,47.5667359,-52.7368426
25,Buckmaster's Circle,A1C 4V7,47.5598253,-52.7215605
150,Kenmount Road,A1B 3R2,47.5549005,-52.7703202
120,Kenmount Road,A1B 3R2,47.5551492,-52.7691231
120,Stavanger Drive,A1A 5E8,47.6186473,-52.7129725
573,Torbay Road,A1A 5G9,47.6128415,-52.7232206
561,Torbay Road,A1A 5G9,47.6122856,-52.7231724
100,World Parkway,A1A 0H6,47.6127281,-52.7430036
16,Larkhall Street,A1B 2C3,47.5639045,-52.7540093
73,Kenmount Road,A1B 3N7,47.5577280,-52.7550232
55,Kenmount Road,A1B 3P8,47.5583960,-52.7530710
77,Kenmount Road,A1B 3P8,47.5574744,-52.7565162
79,Kenmount Road,A1B 3P8,47.5574984,-52.7570466
167,Kenmount Road,A1B 3P9,47.5556607,-52.7631483
40,Mews Place,A1B4M2,47.5580276,-52.7729774
98,Kenmount Road,A1B 1W0,47.5562381,-52.7664063
102,Kenmount Road,A1B 3R2,47.5555674,-52.7680801
90,Kenmount Road,A1B 3V1,47.5567612,-52.7648670
88,Kenmount Road,A1B 3R1,47.5569510,-52.7631639
649,Topsail Road,A1E 2E3,47.5250963,-52.7687247
289,Elizabeth Avenue,A1B 1T8,47.5678837,-52.7346287
287,Elizabeth Avenue,A1B 1T8,47.5679810,-52.7345235
291,Elizabeth Avenue,A1B 1T8,47.5677475,-52.7347148
293,Elizabeth Avenue,A1B 1T8,47.5676360,-52.7348410
295,Elizabeth Avenue,A1B 1T8,47.5675391,-52.7349719
297,Elizabeth Avenue,A1B 1T8,47.5674512,-52.7350882
299,Elizabeth Avenue,A1B 1T8,47.5673320,-52.7352444
285,Elizabeth Avenue,A1B 1T8,47.5681109,-52.7343899
283,Elizabeth Avenue,A1B 1T8,47.5682247,-52.7342189
281,Elizabeth Avenue,A1B 1T8,47.5683655,-52.7341014
301,Elizabeth Avenue,A1B 1T8,47.5672141,-52.7353545
279,Elizabeth Avenue,A1B 1T8,47.5684861,-52.7339518
40,Mundy Pond Road,A1E 1V1,47.5546412,-52.7353114
253,Elizabeth Avenue,A1B 1T6,47.5699493,-52.7317844
251,Elizabeth Avenue,A1B 1T6,47.5700131,-52.7315621
249,Elizabeth Avenue,A1B 1T6,47.5701091,-52.7313334
247,Elizabeth Avenue,A1B 1T6,47.5701949,-52.7311518
245,Elizabeth Avenue,A1B 1T6,47.5703059,-52.7309781
243,Elizabeth Avenue,A1B 1T6,47.5704056,-52.7307593
241,Elizabeth Avenue,A1B 1T6,47.5705043,-52.7306087
239,Elizabeth Avenue,A1B 1T6,47.5706160,-52.7303996
41,Kenmount Road,A1B 1W4,47.5590931,-52.7507272
19,Cochrane Street,A1C 3L2,47.5690168,-52.7028161
21,Cochrane Street,A1C 3L2,47.5690595,-52.7028466
25,Cochrane Street,A1C 3L2,47.5691226,-52.7029041
29,Cochrane Street,A1C 3L2,47.5692144,-52.7029782
27,Cochrane Street,A1C 3L2,47.5691705,-52.7029427
31,Cochrane Street,A1C 3L2,47.5692543,-52.7030105
35,Cochrane Street,A1C 3L2,47.5693512,-52.7030886
33,Cochrane Street,A1C 3L2,47.5692988,-52.7030464
37,Cochrane Street,A1C 3L2,47.5694074,-52.7031341
43,Cochrane Street,A1C 3L2,47.5695770,-52.7032414
45,Cochrane Street,A1C 3L2,47.5696598,-52.7032927
42,O'Regan Road,A1A 2K1,47.5923969,-52.7033457
44,O'Regan Road,A1A 2K1,47.5925175,-52.7035578
46,O'Regan Road,A1A 2K1,47.5925998,-52.7037102
48,O'Regan Road,A1A 2K1,47.5926802,-52.7039137
50,O'Regan Road,A1A 2K1,47.5927559,-52.7041066
52,O'Regan Road,A1A 2K1,47.5928104,-52.7042959
54,O'Regan Road,A1A 2K1,47.5928848,-52.7044702
56,O'Regan Road,A1A 2K1,47.5929626,-52.7046766
58,O'Regan Road,A1A 2K1,47.5930314,-52.7048997
60,O'Regan Road,A1A 2K1,47.5930769,-52.7051527
62,O'Regan Road,A1A 2K1,47.5930752,-52.7054163
64,O'Regan Road,A1A 2K1,47.5930356,-52.7056879
66,O'Regan Road,A1A 2K1,47.5929800,-52.7059131
68,O'Regan Road,A1A 2K1,47.5929460,-52.7061446
390,Duckworth Street,A1C 1H8,47.5624217,-52.7107520
128,Elizabeth Avenue,A1B 1S3,47.5800258,-52.7174596
4,Rigolet Crescent,A1A 3S2,47.6020363,-52.7032079
10,Hunt's Lane,A1B 2L3,47.5961504,-52.7316769
48,Kenmount Road,A1B 1W3,47.5619597,-52.7553376
335,Freshwater Road,A1B 1C3,47.5618961,-52.7434865
47,Oxen Pond Road,A1B 3J4,47.5648160,-52.7466089
45,Oxen Pond Road,A1B 3J4,47.5648021,-52.7463714
49,Oxen Pond Road,A1B 3J4,47.5647706,-52.7468403
51,Oxen Pond Road,A1B 3J4,47.5646561,-52.7470511
54,Oxen Pond Road,A1B 3J4,47.5651895,-52.7467657
11,Ropewalk Lane,A1E 6J9,47.5551300,-52.7384330
43,Oxen Pond Road,A1B 3J4,47.5647987,-52.7461428
41,Oxen Pond Road,A1B 3J4,47.5647469,-52.7459238
39,Oxen Pond Road,A1B 3J4,47.5647424,-52.7457066
37,Oxen Pond Road,A1B 3J4,47.5647662,-52.7455305
51,Kenmount Road,A1B 3P8,47.5585081,-52.7523259
436,Torbay Road,A1A 5C9,47.6065318,-52.7191867
154,LeMarchant Road,A1C 2H6,47.5574831,-52.7214497
5,Navigator Avenue,A1C 1E9,47.6124578,-52.7518859
115,RCAF Road,a1a5b5,47.6223809,-52.7302630
55,White Rose Drive,A1A 0L2,47.6199098,-52.7203423
65,White Rose Drive,a1a 4a5,47.6201624,-52.7197276
15,Hallett Crescent,A1B 4C4,47.5626328,-52.7686518
15,Hallett Crescent,A1B 4C4,47.5626252,-52.7688591
17,Hallett Crescent,A1B 4C4,47.5628053,-52.7681322
17,Hallett Crescent,A1B 4C4,47.5626858,-52.7682837
9,Hallett Crescent,A1B 4C4,47.5618352,-52.7693426
11,Hallett Crescent,A1B 4C4,47.5620274,-52.7701634
44,Austin Street,A1B 4C2,47.5625671,-52.7645826
44,Austin Street,A1B 4C2,47.5625503,-52.7644995
30,Hallett Crescent,A1B 4C5,47.5624433,-52.7658857
11,Austin Street,A1B 4C1,47.5610874,-52.7688154
14,Hallett Crescent,A1B 4C5,47.5622129,-52.7674566
20,Hallett Crescent,A1B 3N4,47.5623263,-52.7667032
26,Austin Street,A1B 4C2,47.5610085,-52.7657528
20,Austin Street,A1B 4C2,47.5606177,-52.7671543
85,Thorburn Road,A1B 3M2,47.5638385,-52.7619558
81,Thorburn Road,A1B 3M2,47.5634564,-52.7610626
88A,Water Street,A1C 1G3,47.5677548,-52.7032152
76,Kenmount Road,A1B 3R1,47.5576479,-52.7600647
56A,Kenmount Road,A1B 1W2,47.5591005,-52.7547078
33,Picea Lane,A1B 4R7,47.5633306,-52.7593197
120,Moss Heather Drive,A1B 4S1,47.5633767,-52.7596237
118,Moss Heather Drive,A1B 4S1,47.5632499,-52.7597480
31,Picea Lane,A1B 4R7,47.5632356,-52.7593910
27,Picea Lane,A1B 4R7,47.5631152,-52.7595098
21,Picea Lane,A1B 4R7,47.5629565,-52.7596499
17,Picea Lane,A1B 4R7,47.5628414,-52.7597747
13,Picea Lane,A1B 4R7,47.5627099,-52.7598929
9,Picea Lane,A1B 4R7,47.5625862,-52.7600082
5,Picea Lane,A1B 4R7,47.5624662,-52.7601266
1,Picea Lane,A1B 4R7,47.5623468,-52.7602320
28,Moss Heather Drive,A1B 4R8,47.5623514,-52.7605279
32,Moss Heather Drive,A1B 4R8,47.5623660,-52.7607416
36,Moss Heather Drive,A1B 4R8,47.5623608,-52.7609952
40,Moss Heather Drive,A1B 4R8,47.5623212,-52.7612158
44,Moss Heather Drive,A1B 4R8,47.5622753,-52.7614493
50,Moss Heather Drive,A1B 4S1,47.5621223,-52.7619223
54,Moss Heather Drive,A1B 4S1,47.5620661,-52.7621065
58,Moss Heather Drive,A1B 4S1,47.5620110,-52.7622999
60,Moss Heather Drive,A1B 4S1,47.5620702,-52.7624979
66,Moss Heather Drive,A1B 4S1,47.5622219,-52.7626910
70,Moss Heather Drive,A1B 4S1,47.5623927,-52.7627521
74,Moss Heather Drive,A1B 4S1,47.5625130,-52.7625507
86,Moss Heather Drive,A1B 4S1,47.5628472,-52.7617843
116,Moss Heather Drive,A1B 4S1,47.5631492,-52.7598492
114,Moss Heather Drive,A1B 4S1,47.5630556,-52.7599707
112,Moss Heather Drive,A1B 4S1,47.5629587,-52.7600619
110,Moss Heather Drive,A1B 4S1,47.5628598,-52.7601647
108,Moss Heather Drive,A1B 4S1,47.5627606,-52.7602774
106,Moss Heather Drive,A1B 4S1,47.5626816,-52.7603968
104,Moss Heather Drive,A1B 4S1,47.5626372,-52.7605291
102,Moss Heather Drive,A1B 4S1,47.5626175,-52.7606782
100,Moss Heather Drive,A1B 4S1,47.5626230,-52.7608630
98,Moss Heather Drive,A1B 4S1,47.5626364,-52.7610131
96,Moss Heather Drive,A1B 4S1,47.5626885,-52.7611450
94,Moss Heather Drive,A1B 4S1,47.5627477,-52.7612689
92,Moss Heather Drive,A1B 4S1,47.5628074,-52.7613872
90,Moss Heather Drive,A1B 4S1,47.5628642,-52.7614893
7,Ledum Place,A1B 4R8,47.5626801,-52.7618545
5,Ledum Place,A1B 4R8,47.5626120,-52.7616416
3,Ledum Place,A1B 4R8,47.5624724,-52.7615566
9,Ledum Place,A1B 4R8,47.5626597,-52.7620907
11,Ledum Place,A1B 4R8,47.5625188,-52.7622533
13,Ledum Place,A1B 4R8,47.5623628,-52.7622770
15,Ledum Place,A1B 4R8,47.5622343,-52.7621660
143,Forest Road,A1A 3T3,47.5781459,-52.6919977
22,Ridge Road,A1A 2H4,47.5900759,-52.7306675
20,Ridge Road,A1A 2H4,47.5901217,-52.7303651
18,Ridge Road,A1A 2H4,47.5901661,-52.7301346
16,Ridge Road,A1A 2H4,47.5902217,-52.7299298
14,Ridge Road,A1A 2H4,47.5902856,-52.7297214
12,Ridge Road,A1A 2H4,47.5903223,-52.7294900
10,Ridge Road,A1A 2H4,47.5903845,-52.7292815
36,Ridge Road,A1A 2H5,47.5894620,-52.7322629
30,Ridge Road,A1A 2H5,47.5897569,-52.7315984
32,Ridge Road,A1A 2H5,47.5896486,-52.7318266
34,Ridge Road,A1A 2H5,47.5895828,-52.7320481
28,Ridge Road,A1A 2H5,47.5898286,-52.7313819
26,Ridge Road,A1A 2H5,47.5899102,-52.7311641
135,Moss Heather Drive,A1B 4R9,47.5629670,-52.7605877
133,Moss Heather Drive,A1B 4R9,47.5629319,-52.7607711
131,Moss Heather Drive,A1B 4R9,47.5629829,-52.7609264
129,Moss Heather Drive,A1B 4R9,47.5630530,-52.7610713
127,Moss Heather Drive,A1B 4R9,47.5631250,-52.7612194
125,Moss Heather Drive,A1B 4R9,47.5631797,-52.7613887
121,Moss Heather Drive,A1B 4R9,47.5632054,-52.7616900
119,Thorburn Road,A1B 4R9,47.5631614,-52.7618640
117,Moss Heather Drive,A1B 4R9,47.5630992,-52.7620262
123,Moss Heather Drive,A1B 4R9,47.5632186,-52.7615445
115,Moss Heather Drive,A1B 4R9,47.5630191,-52.7622123
113,Moss Heather Drive,A1B 4R9,47.5629348,-52.7624216
109,Moss Heather Drive,A1B 4R9,47.5628583,-52.7626303
107,Austin Street,A1B 4R9,47.5627950,-52.7627486
105,Moss Heather Drive,A1B 4R9,47.5627292,-52.7629206
101,Moss Heather Drive,A1B 4R9,47.5626535,-52.7630955
97,Moss Heather Drive,A1B 4R9,47.5625380,-52.7632604
93,Moss Heather Drive,A1B 4R9,47.5624106,-52.7633350
28,Stavanger Drive,A1A 5E8,47.6136834,-52.7148160
8,First Avenue,A1B 1N4,47.5781485,-52.7114263
32,Portugal Cove Road,A1B 2L9,47.5785812,-52.7102633
60,Viking Road,A1B 1H9,47.5590749,-52.7497564
58,Viking Road,A1B 1H9,47.5591606,-52.7495901
56,Viking Road,A1B 1H9,47.5592249,-52.7494229
62,Viking Road,A1B 1H9,47.5590091,-52.7499368
87,Old Pennywell Road,A1B 1A8,47.5556950,-52.7489954
64,Viking Road,A1B 1H9,47.5589201,-52.7501227
66,Viking Road,A1B 1H9,47.5588423,-52.7503003
68,Viking Road,A1B 1H9,47.5587654,-52.7504713
70,Viking Road,A1B 1H9,47.5587015,-52.7506798
72,Viking Road,A1B 1H9,47.5586140,-52.7508919
54,Viking Road,A1B 1H9,47.5593130,-52.7492501
52,Viking Road,A1B 1H9,47.5593769,-52.7490559
50,Viking Road,A1B 1H9,47.5594519,-52.7488855
42,Viking Road,A1B 1H9,47.5597535,-52.7482294
44,Viking Road,A1B 1H9,47.5596941,-52.7483764
48,Viking Road,A1B 1H9,47.5595263,-52.7487136
46,Viking Road,A1B 1H9,47.5596073,-52.7485693
2;2A,Thorburn Road,A1B 3L7,47.5619499,-52.7498224
79,Whiteway Street,A1B 1K5,47.5675215,-52.7313827
84,Whiteway Street,A1B 1K6,47.5673972,-52.7322286
82,Whiteway Street,A1B 1K6,47.5675494,-52.7320882
78,Whiteway Street,A1B 1K6,47.5677367,-52.7318608
76,Whiteway Street,A1B 1K6,47.5678520,-52.7317433
74,Whiteway Street,A1B 1K6,47.5679658,-52.7316236
139,Newtown Road,A1B 3B2,47.5691049,-52.7314926
11,Byron Street1,A1B 3B6,47.5694272,-52.7310770
141,Newtown Road,A1B 3B2,47.5692196,-52.7316156
143,Newtown Road,A1B 3B2,47.5693266,-52.7317601
269,Elizabeth Avenue,A1B 1T8,47.5690724,-52.7333583
275,Elizabeth Avenue,A1B 1T8,47.5686547,-52.7333986
277,Elizabeth Avenue,A1B 1T8,47.5686373,-52.7338123
267,Elizabeth Avenue,A1B 1T8,47.5691662,-52.7331578
25,Anderson Avenue,A1B 3E4,47.5650672,-52.7362044
389,Elizabeth Avenue,A1B 1V1,47.5651009,-52.7376529
17,Majors Path,A1A 4Z9,47.6105505,-52.7237294
170,Portugal Cove Road,a1b 2n2,47.5890950,-52.7174318
101,MacDonald Drive,A1A 0E4,47.5920507,-52.7131810
595,Kenmount Road,A1B 3P9,47.5410811,-52.7994650
575,Kenmount Road,A1B 4B8,47.5416767,-52.7977714
220,Kenmount Road,A1B 3T2,47.5536048,-52.7727222
177,Kenmount Road,A1B 3P9,47.5551333,-52.7646305
152,Airport Road,A1A 4Y3,47.6078012,-52.7408926
199,Elizabeth Avenue,A1B 1T3,47.5738361,-52.7252321
41,Allandale Road,A1B 2Z8,47.5735795,-52.7250453
146,Bonaventure Avenue,A1B 2Y3,47.5736310,-52.7253358
144,Bonaventure Avenue,A1B 2Y3,47.5734607,-52.7253134
142,Bonaventure Avenue,A1B 2Y3,47.5733089,-52.7252360
140,Bonaventure Avenue,A1B 2Y3,47.5732062,-52.7251849
138,Bonaventure Avenue,A1B 2Y3,47.5730664,-52.7251199
136,Bonaventure Avenue,A1B 2Y3,47.5729384,-52.7250192
134,Bonaventure Avenue,A1B 2Y3,47.5728127,-52.7249058
132,Bonaventure Avenue,A1B 2Y3,47.5727203,-52.7248181
39,Allandale Road,A1B 2Z8,47.5735350,-52.7248134
37,Allandale Road,A1B 2Z8,47.5734722,-52.7245690
35,Allandale Road,A1B 2Z8,47.5734075,-52.7244038
33,Milbanke Street,A1B 2Z8,47.5733658,-52.7242734
31-A,Allandale Road,A1B 2Z8,47.5731936,-52.7240212
31,Allandale Road,A1B 2Z8,47.5730921,-52.7237586
2,Milbanke Street,A1B 1P3,47.5730036,-52.7240214
4,Milbanke Street,A1B 1P3,47.5729186,-52.7241863
6,Milbanke Street,A1B 1P3,47.5728669,-52.7243692
8,Milbanke Street,A1B 1P3,47.5728017,-52.7245382
201,Elizabeth Avenue,A1B 1T4,47.5730859,-52.7260578
203,Elizabeth Avenue,A1B 1T4,47.5729604,-52.7261940
205,Elizabeth Avenue,A1B 1T4,47.5728459,-52.7263593
207,Elizabeth Avenue,A1B 1T4,47.5727106,-52.7264350
207-A,Elizabeth Avenue,A1B 1T4,47.5725982,-52.7266217
209,Elizabeth Avenue,A1B 1T4,47.5724910,-52.7267858
464,Torbay Road,A1A 5J3,47.6076480,-52.7199245
135,Torbay Road,A1A 2G9,47.5902842,-52.7108574
52,Kenmount Road,A1B 1W2,47.5593536,-52.7532557
52,Kenmount Road,A1B 1W2,47.5592333,-52.7529593
2,Dundas Street,A1B 1X2,47.5646503,-52.7452952
4,Dundas Street,A1B 1X2,47.5644750,-52.7455502
6,Dundas Street,A1B 1X2,47.5643930,-52.7457597
8,Dundas Street,A1B 1X2,47.5643130,-52.7459731
10,Dundas Street,A1B 1X2,47.5642486,-52.7461408
12,Dundas Street,A1B 1X2,47.5641832,-52.7463361
44,Dundas Street,A1B 1X2,47.5625199,-52.7484082
42,Dundas Street,A1B 1X2,47.5626639,-52.7483387
40,Dundas Street,A1B 1X2,47.5628126,-52.7482873
10,Paton Street,A1B 3E7,47.5661014,-52.7382161
14,Dundas Street,A1B 1X2,47.5641142,-52.7465107
16,Dundas Street,A1B 1X2,47.5640473,-52.7466809
18,Dundas Street,A1B 1X2,47.5640013,-52.7468607
20,Dundas Street,A1B 1X2,47.5639472,-52.7470373
22,Dundas Street,A1B 1X2,47.5638677,-52.7472095
24,Dundas Street,A1B 1X2,47.5638158,-52.7474107
26,Dundas Street,A1B 1X2,47.5637490,-52.7475898
28,Dundas Street,A1B 1X2,47.5636502,-52.7477521
30,Dundas Street,A1B 1X2,47.5635368,-52.7479103
32,Dundas Street,A1B 1X2,47.5633994,-52.7480314
34,Dundas Street,A1B 1X2,47.5632746,-52.7481390
36,Dundas Street,A1B 1X2,47.5631004,-52.7481875
38,Dundas Street,A1B 1X2,47.5629612,-52.7482411
42,Oxen Pond Road,A1B 3J3,47.5650849,-52.7452351
44,Oxen Pond Road,A1B 3J3,47.5651850,-52.7454467
1,Dundas Street,A1B 1X1,47.5644271,-52.7447789
3,Dundas Street,A1B 1X1,47.5643208,-52.7449864
5,Dundas Street,A1B 1X1,47.5642195,-52.7451492
7,Dundas Street,A1B 1X1,47.5641433,-52.7453264
9,Dundas Street,A1B 1X1,47.5640712,-52.7454817
11,Dundas Street,A1B 1X1,47.5640151,-52.7456399
13,Dundas Street,A1B 1X1,47.5639418,-52.7458465
15,Dundas Street,A1B 1X1,47.5638783,-52.7460235
17,Dundas Street,A1B 1X1,47.5638080,-52.7462165
19,Dundas Street,A1B 1X1,47.5637518,-52.7464162
21,Dundas Street,A1B 1X1,47.5636849,-52.7465987
25,Dundas Street,A1B 1X1,47.5635356,-52.7469845
27,Dundas Street,A1B 1X1,47.5634467,-52.7471332
29,Dundas Street,A1B 1X1,47.5633719,-52.7472803
31,Dundas Street,A1B 1X1,47.5632583,-52.7474612
33,Dundas Street,A1B 1X1,47.5631146,-52.7475797
23,Dundas Street,A1B 1X1,47.5636126,-52.7468042
40,Oxen Pond Road,A1B 3J3,47.5650520,-52.7450324
38,Oxen Pond Road,A1B 3J3,47.5649317,-52.7448270
227,Elizabeth Avenue,A1B 1T6,47.5714550,-52.7288849
225,Elizabeth Avenue,A1B 1T6,47.5715348,-52.7287050
229,Elizabeth Avenue,A1B 1T6,47.5713774,-52.7290424
223,Elizabeth Avenue,A1B 1T6,47.5716336,-52.7285189
221,Elizabeth Avenue,A1B 1T6,47.5717195,-52.7283376
60,O'Leary Avenue,A1B 4B5,47.5602270,-52.7635968
30,Oxen Pond Road,A1B 3J3,47.5648305,-52.7446688
28,Oxen Pond Road,A1B 3J3,47.5647687,-52.7443733
26,Oxen Pond Road,A1B 3J3,47.5646580,-52.7441655
24,Oxen Pond Road,A1B 3J3,47.5645538,-52.7440319
48,Hatcher Street,A1B 1Z2,47.5651712,-52.7465447
38,Dorset Street,A1B 1W9,47.5631225,-52.7471634
36,Dorset Street,A1B 1W9,47.5631821,-52.7469735
34,Dorset Street,A1B 1W9,47.5632472,-52.7468092
32,Dorset Street,A1B 1W9,47.5633187,-52.7466248
30,Dorset Street,A1B 1W9,47.5633829,-52.7464332
28,Dorset Street,A1B 1W9,47.5634456,-52.7462665
26,Dorset Street,A1B 1W9,47.5635391,-52.7460622
24,Dorset Street,A1B 1W9,47.5635800,-52.7459023
22,Dorset Street,A1B 1W9,47.5636518,-52.7457131
20,Dorset Street,A1B 1W9,47.5637214,-52.7455248
18,Dorset Street,A1B 1W9,47.5637819,-52.7453526
16,Dorset Street,A1B 1W9,47.5638493,-52.7451681
14,Dorset Street,A1B 1W9,47.5639085,-52.7449595
12,Dorset Street,A1B 1W9,47.5639153,-52.7447404
10,Dorset Street,A1B 1W9,47.5638910,-52.7445364
8,Dorset Street,A1B 1W9,47.5638414,-52.7442815
6,Dorset Street,A1B 1W9,47.5637641,-52.7441472
4,Dorset Street,A1B 1W9,47.5636414,-52.7439684
2,Wexford Street,A1B 1W5,47.5636733,-52.7434069
389,Main Road,A1S 1G7,47.4614681,-52.7711652
6,Thorburn Road,A1B 3L8,47.5620399,-52.7507619
8,Thorburn Road,A1B 3L8,47.5620646,-52.7509861
10,Thorburn Road,A1B 3L8,47.5621219,-52.7511940
12,Thorburn Road,A1B 3L8,47.5621069,-52.7514049
85,Moss Heather Drive,A1B 4R9,47.5621418,-52.7632043
81,Moss Heather Drive,A1B 4R9,47.5620174,-52.7630842
79,Moss Heather Drive,A1B 4R9,47.5619466,-52.7630017
73,Moss Heather Drive,A1B 4R9,47.5617938,-52.7627994
69,Moss Heather Drive,A1B 4R9,47.5617039,-52.7626284
65,Moss Heather Drive,A1B 4R9,47.5616737,-52.7624138
61,Moss Heather Drive,A1B 4R9,47.5616847,-52.7621979
57,Moss Heather Drive,A1B 4R9,47.5617346,-52.7619946
53,Moss Heather Drive,A1B 4R9,47.5617872,-52.7618120
49,Moss Heather Drive,A1B 4R8,47.5618423,-52.7616260
45,Moss Heather Drive,A1B 4R8,47.5618882,-52.7614404
41,Moss Heather Drive,A1B 4R8,47.5619472,-52.7612572
37,Moss Heather Drive,A1B 4R8,47.5619971,-52.7610757
33,Moss Heather Drive,A1B 4R8,47.5620298,-52.7608784
31,Moss Heather Drive,A1B 4R8,47.5620347,-52.7607309
27,Moss Heather Drive,A1B 4R7,47.5620196,-52.7605041
23,Moss Heather Drive,A1B 4R7,47.5619739,-52.7602973
19,Moss Heather Drive,A1B 4R7,47.5619241,-52.7601045
2,Picea Lane,A1B 4R7,47.5621792,-52.7598184
6,Picea Lane,A1B 4R7,47.5623011,-52.7597028
10,Picea Lane,A1B 4R7,47.5624226,-52.7595886
14,Picea Lane,A1B 4R7,47.5625424,-52.7594750
18,Picea Lane,A1B 4R7,47.5626611,-52.7593573
22,Picea Lane,A1B 4R7,47.5627837,-52.7592472
28,Picea Lane,A1B 4R7,47.5629395,-52.7590932
34,Picea Lane,A1B 4R7,47.5630958,-52.7589168
36,Picea Lane,A1B 4R7,47.5631493,-52.7588245
4,Picea Lane,A1B 4R7,47.5622283,-52.7597729
8,Picea Lane,A1B 4R7,47.5623503,-52.7596573
16,Picea Lane,A1B 4R7,47.5625917,-52.7594284
20,Picea Lane,A1B 4R7,47.5627107,-52.7593138
24,Picea Lane,A1B 4R7,47.5628323,-52.7592032
30,Picea Lane,A1B 4R7,47.5629909,-52.7590459
32,Picea Lane,A1B 4R7,47.5630472,-52.7589621
29,Picea Lane,A1B 4R7,47.5631713,-52.7594600
23,Picea Lane,A1B 4R7,47.5630057,-52.7596041
19,Picea Lane,A1B 4R7,47.5628905,-52.7597287
15,Picea Lane,A1B 4R7,47.5627586,-52.7598471
11,Picea Lane,A1B 4R7,47.5626350,-52.7599624
7,Picea Lane,A1B 4R7,47.5625151,-52.7600806
3,Picea Lane,A1B 4R7,47.5623952,-52.7601865
26,Moss Heather Drive,A1B 4R8,47.5623424,-52.7604434
30,Moss Heather Drive,A1B 4R8,47.5623650,-52.7606548
34,Moss Heather Drive,A1B 4R8,47.5623691,-52.7609129
38,Moss Heather Drive,A1B 4R8,47.5623371,-52.7611337
42,Moss Heather Drive,A1B 4R8,47.5622988,-52.7613617
10,Ledum Place,A1B 4R8,47.5625716,-52.7622178
8,Ledum Place,A1B 4R8,47.5626827,-52.7620121
6,Ledum Place,A1B 4R8,47.5626660,-52.7617711
4,Ledum Place,A1B 4R8,47.5625592,-52.7615891
2,Ledum Place,A1B 4R8,47.5624164,-52.7615364
12,Ledum Place,A1B 4R8,47.5624194,-52.7622920
14,Ledum Place,A1B 4R8,47.5622832,-52.7622102
48,Moss Heather Drive,A1B 4S1,47.5621437,-52.7618417
52,Moss Heather Drive,A1B 4S1,47.5620888,-52.7620273
56,Moss Heather Drive,A1B 4S1,47.5620355,-52.7622131
68,Moss Heather Drive,A1B 4S1,47.5623296,-52.7627675
72,Moss Heather Drive,A1B 4S1,47.5624794,-52.7626301
64,Moss Heather Drive,A1B 4S1,47.5621728,-52.7626306
62,Moss Heather Drive,A1B 4S1,47.5621146,-52.7625523
88,Moss Heather Drive,A1B 4S1,47.5628806,-52.7617043
15,Moss Heather Drive,A1B 4R7,47.5617994,-52.7599424
13,Moss Heather Drive,A1B 4R7,47.5617453,-52.7599030
17,Moss Heather Drive,A1B 4R7,47.5618929,-52.7600348
21,Moss Heather Drive,A1B 4R7,47.5619528,-52.7602183
25,Moss Heather Drive,A1B 4R7,47.5620052,-52.7604223
29,Moss Heather Drive,A1B 4R8,47.5620318,-52.7606444
115A,Moss Heather Drive,A1B 4R9,47.5630479,-52.7621342
113A,Moss Heather Drive,A1B 4R9,47.5629621,-52.7623488
111,Moss Heather Drive,A1B 4R9,47.5628903,-52.7625527
103,Moss Heather Drive,A1B 4R9,47.5626824,-52.7630229
99,Moss Heather Drive,A1B 4R9,47.5625927,-52.7632213
95,Moss Heather Drive,A1B 4R9,47.5624667,-52.7633151
91,Moss Heather Drive,A1B 4R9,47.5623243,-52.7633304
87,Moss Heather Drive,A1B 4R9,47.5621906,-52.7632478
83,Moss Heather Drive,A1B 4R9,47.5620617,-52.7631389
75,Moss Heather Drive,A1B 4R9,47.5618376,-52.7628555
71,Moss Heather Drive,A1B 4R9,47.5617373,-52.7626986
77,Moss Heather Drive,A1B 4R9,47.5619025,-52.7629469
67,Moss Heather Drive,A1B 4R9,47.5616852,-52.7624983
63,Moss Heather Drive,A1B 4R9,47.5616744,-52.7622813
59,Moss Heather Drive,A1B 4R9,47.5617117,-52.7620742
55,Moss Heather Drive,A1B 4R9,47.5617645,-52.7618904
51,Moss Heather Drive,A1B 4R9,47.5618191,-52.7617058
47,Moss Heather Drive,A1B 4R8,47.5618651,-52.7615200
43,Moss Heather Drive,A1B 4R8,47.5619243,-52.7613365
39,Moss Heather Drive,A1B 4R8,47.5619771,-52.7611567
35,Moss Heather Drive,A1B 4R8,47.5620205,-52.7609640
27,Oxen Pond Road,A1B 3J2,47.5643613,-52.7444886
25,Oxen Pond Road,A1B 3J2,47.5642171,-52.7443008
23,Oxen Pond Road,A1B 3J2,47.5641459,-52.7441324
21,Oxen Pond Road,A1B 3J2,47.5640584,-52.7439506
19,Oxen Pond Road,A1B 3J2,47.5639622,-52.7437843
17,Oxen Pond Road,A1B 3J2,47.5638784,-52.7436187
7,Oxen Pond Road,A1B 3H9,47.5634388,-52.7431121
5,Oxen Pond Road,A1B 3H9,47.5633234,-52.7430197
3,Oxen Pond Road,A1B 3H9,47.5632176,-52.7429003
4,Oxen Pond Road,A1B 3J1,47.5634797,-52.7423077
6,Oxen Pond Road,A1B 3J1,47.5635317,-52.7425286
8,Oxen Pond Road,A1B 3J1,47.5636483,-52.7426968
22,Oxen Pond Road,A1B 3J3,47.5645231,-52.7437931
20,Oxen Pond Road,A1B 3J3,47.5644660,-52.7435792
18,Oxen Pond Road,A1B 3J3,47.5643137,-52.7435062
14,Oxen Pond Road,A1B 3J1,47.5640610,-52.7430279
12,Oxen Pond Road,A1B 3J1,47.5639587,-52.7429192
10,Oxen Pond Road,A1B 3J1,47.5637579,-52.7428885
6,Wexford Street,A1B 1W5,47.5635296,-52.7438310
4,Wexford Street,A1B 1W5,47.5636178,-52.7436071
172,Freshwater Road,A1C 2N9,47.5634970,-52.7272650
1,Dorset Street,A1B 1W8,47.5633909,-52.7443532
10,Wexford Street,A1B 1W7,47.5633023,-52.7445886
12,Wexford Street,A1B 1W7,47.5632163,-52.7447346
16,Wexford Street,A1B 1W7,47.5630924,-52.7451025
14,Wexford Street,A1B 1W7,47.5631617,-52.7449412
18,Wexford Street,A1B 1W7,47.5630578,-52.7452725
20,Wexford Street,A1B 1W7,47.5629669,-52.7454738
22,Wexford Street,A1B 1W7,47.5628823,-52.7456532
24,Wexford Street,A1B 1W7,47.5628197,-52.7458223
26,Wexford Street,A1B 1W7,47.5627576,-52.7460263
28,Wexford Street,A1B 1W7,47.5626915,-52.7461991
30,Wexford Street,A1B 1W7,47.5626166,-52.7463806
32,Wexford Street,A1B 1W7,47.5625572,-52.7465646
34,Wexford Street,A1B 1W7,47.5624920,-52.7467475
36,Wexford Street,A1B 1W7,47.5624390,-52.7469590
38,Wexford Street,A1B 1W7,47.5624055,-52.7471811
40,Wexford Street,A1B 1W7,47.5623825,-52.7474200
42,Wexford Street,A1B 1W7,47.5624151,-52.7476499
44,Wexford Street,A1B 1W7,47.5624337,-52.7478566
3,Dorset Street,A1B 1W8,47.5635447,-52.7446118
5,Dorset Street,A1B 1W8,47.5635195,-52.7448562
7,Dorset Street,A1B 1W8,47.5634869,-52.7450454
9,Dorset Street,A1B 1W8,47.5634184,-52.7452320
11,Dorset Street,A1B 1W8,47.5633449,-52.7453939
13,Dorset Street,A1B 1W8,47.5632799,-52.7455724
15,Dorset Street,A1B 1W8,47.5632139,-52.7457503
17,Dorset Street,A1B 1W8,47.5631519,-52.7459289
19,Dorset Street,A1B 1W8,47.5630841,-52.7461210
35,Dundas Street,A1B 1X3,47.5627162,-52.7477770
33,Dorset Street,A1B 1W8,47.5626948,-52.7474927
31,Dorset Street,A1B 1W8,47.5626986,-52.7471960
29,Dorset Street,A1B 1W8,47.5627626,-52.7470257
27,Dorset Street,A1B 1W8,47.5628237,-52.7468391
25,Dorset Street,A1B 1W8,47.5628860,-52.7466563
23,Dorset Street,A1B 1W8,47.5629525,-52.7464761
21,Dorset Street,A1B 1W8,47.5630130,-52.7462986
29,Wexford Street,A1B 1W6,47.5624368,-52.7457188
19,Wexford Street,A1B 1W6,47.5627743,-52.7448456
17,Wexford Street,A1B 1W6,47.5628403,-52.7446677
11,Wexford Street,A1B 1W6,47.5630333,-52.7441294
9,Wexford Street,A1B 1W6,47.5630990,-52.7439408
3,Wexford Street,A1B 1W6,47.5632801,-52.7434079
5,Wexford Street,A1B 1W6,47.5632275,-52.7435947
7,Wexford Street,A1B 1W6,47.5631602,-52.7437691
13,Wexford Street,A1B 1W6,47.5629622,-52.7443016
15,Wexford Street,A1B 1W6,47.5628978,-52.7444699
21,Wexford Street,A1B 1W6,47.5627017,-52.7450249
23,Wexford Street,A1B 1W6,47.5626384,-52.7452046
25,Wexford Street,A1B 1W6,47.5625711,-52.7453731
27,Wexford Street,A1B 1W6,47.5625107,-52.7455502
31,Wexford Street,A1B 1W6,47.5623790,-52.7458907
33,Wexford Street,A1B 1W6,47.5623154,-52.7460659
35,Wexford Street,A1B 1W6,47.5622426,-52.7462648
37,Wexford Street,A1B 1W6,47.5621396,-52.7464169
39,Wexford Street,A1B 1W6,47.5620912,-52.7465966
41,Wexford Street,A1B 1W6,47.5620442,-52.7468231
43,Wexford Street,A1B 1W6,47.5620270,-52.7470491
45,Wexford Street,A1B 1W6,47.5619932,-52.7473527
47,Wexford Street,A1B 1W6,47.5620177,-52.7476598
49,Wexford Street,A1B 1W6,47.5620504,-52.7478702
55,Wexford Street,A1B 1W6,47.5621551,-52.7484601
53,Wexford Street,A1B 1W6,47.5621173,-52.7482715
51,Wexford Street,A1B 1W6,47.5620829,-52.7480599
14,Thorburn Road,A1B 3L8,47.5621134,-52.7516297
16,MacPherson Avenue,A1B 3L8,47.5621546,-52.7518572
18,Thorburn Road,A1B 3L8,47.5621754,-52.7520868
46,Hatcher Street,A1B 1Z2,47.5653536,-52.7463784
44,Hatcher Street,A1B 1Z2,47.5655075,-52.7462010
42,Hatcher Street,A1B 1Z2,47.5656086,-52.7460557
40,Hatcher Street,A1B 1Z2,47.5657102,-52.7459093
38,Hatcher Street,A1B 1Z2,47.5658111,-52.7457622
36,Hatcher Street,A1B 1Z2,47.5658857,-52.7456054
34,Hatcher Street,A1B 1Z2,47.5660096,-52.7454675
32,Hatcher Street,A1B 1Z2,47.5661140,-52.7453055
30,Hatcher Street,A1B 1Z2,47.5662432,-52.7450908
28,Hatcher Street,A1B 1Z2,47.5663616,-52.7449283
26,Hatcher Street,A1B 1Z2,47.5664700,-52.7447617
24,Hatcher Street,A1B 1Z2,47.5665963,-52.7446113
22,Hatcher Street,A1B 1Z2,47.5666861,-52.7444540
20,Hatcher Street,A1B 1Z2,47.5667976,-52.7442909
18,Hatcher Street,A1B 1Z2,47.5669008,-52.7441354
16,Hatcher Street,A1B 1Z2,47.5670626,-52.7439408
14,Hatcher Street,A1B 1Z2,47.5671624,-52.7437974
12,Hatcher Street,A1B 1Z2,47.5672224,-52.7436619
154,University Avenue,A1B 1Z2,47.5675437,-52.7427141
4,Hatcher Street,A1B 1Z2,47.5675125,-52.7429479
6,Hatcher Street,A1B 1Z1,47.5674812,-52.7431519
8,Hatcher Street,A1B 1Z1,47.5674317,-52.7433542
10,Hatcher Street,A1B 1Z1,47.5673257,-52.7435174
33,Hatcher Street,A1B 1Z3,47.5653677,-52.7456823
31,Hatcher Street,A1B 1Z3,47.5654965,-52.7454602
29,Hatcher Street,A1B 1Z3,47.5655776,-52.7452925
27,Hatcher Street,A1B 1Z3,47.5656740,-52.7451303
25,Hatcher Street,A1B 1Z3,47.5657656,-52.7449858
23,Oxen Pond Road,A1B 1Z3,47.5658724,-52.7448663
21,Hatcher Street,A1B 1Z3,47.5659960,-52.7447278
19,Hatcher Street,A1B 1Z3,47.5660750,-52.7445865
17,Hatcher Street,A1B 1Z3,47.5661789,-52.7444499
15,Hatcher Street,A1B 1Z3,47.5662860,-52.7443133
11,Hatcher Street,A1B 1Z3,47.5665251,-52.7439486
13,Hatcher Street,A1B 1Z3,47.5664104,-52.7441354
24,Burke Place,A1B 3H1,47.5668341,-52.7434842
5,Hatcher Street,A1B 1Z1,47.5670273,-52.7432316
3,Hatcher Street,A1B 1Z1,47.5671118,-52.7430121
17,Burke Place,A1B 3G9,47.5663100,-52.7438474
15,Burke Place,A1B 3G9,47.5661313,-52.7438648
13,Burke Place,A1B 3G9,47.5659898,-52.7438797
11,Burke Place,A1B 3G9,47.5658506,-52.7439003
9,Burke Place,A1B 3G9,47.5657042,-52.7439294
7,Burke Place,A1B 3G9,47.5655510,-52.7439639
5,Burke Place,A1B 3G9,47.5653995,-52.7439971
3,Burke Place,A1B 3G9,47.5652003,-52.7440029
1,Burke Place,A1B 3G9,47.5650915,-52.7437484
2,Burke Place,A1B 3H1,47.5652075,-52.7433810
4,Burke Place,A1B 3H1,47.5653745,-52.7433192
6,Burke Place,A1B 3H1,47.5655294,-52.7433872
8,Burke Place,A1B 3H1,47.5656730,-52.7433731
10,Burke Place,A1B 3H1,47.5658154,-52.7433628
12,Burke Place,A1B 3H1,47.5659605,-52.7433451
14,Burke Place,A1B 3H1,47.5661001,-52.7433089
16,Burke Place,A1B 3H1,47.5662443,-52.7433363
18,Burke Place,A1B 3H1,47.5663882,-52.7433155
20,Burke Place,A1B 3H1,47.5665348,-52.7433013
22,Burke Place,A1B 3H1,47.5666870,-52.7433801
156,University Avenue,A1B 1Z7,47.5671287,-52.7427386
158,University Avenue,A1B 1Z7,47.5668898,-52.7427591
157,University Avenue,A1B 1Z6,47.5669719,-52.7421819
160,University Avenue,A1B 1Z7,47.5667294,-52.7427955
159,University Avenue,A1B 1Z6,47.5668272,-52.7421591
161,University Avenue,A1B 1Z6,47.5666819,-52.7421987
162,University Avenue,A1B 1Z7,47.5665838,-52.7428149
163,University Avenue,A1B 1Z6,47.5665335,-52.7422128
164,University Avenue,A1B 1Z7,47.5664399,-52.7428055
166,University Avenue,A1B 1Z7,47.5663069,-52.7428303
168,University Avenue,A1B 1Z7,47.5661521,-52.7428390
165,University Avenue,A1B 1Z6,47.5663871,-52.7422085
167,University Avenue,A1B 1Z6,47.5662447,-52.7422093
169,University Avenue,A1B 1Z6,47.5661025,-52.7422263
171,University Avenue,A1B 1Z6,47.5659749,-52.7422394
170,University Avenue,A1B 1Z7,47.5660144,-52.7428413
172,University Avenue,A1B 1Z7,47.5658723,-52.7428513
192,University Avenue,A1B 1Z7,47.5644068,-52.7432881
190,University Avenue,A1B 1Z7,47.5645301,-52.7430939
188,University Avenue,A1B 1Z7,47.5646838,-52.7429678
186,University Avenue,A1B 1Z7,47.5649115,-52.7429195
174,University Avenue,A1B 1Z7,47.5657307,-52.7428625
176,University Avenue,A1B 1Z7,47.5655838,-52.7428766
178,University Avenue,A1B 1Z7,47.5654399,-52.7428926
180,University Avenue,A1B 1Z7,47.5653073,-52.7429049
182,University Avenue,A1B 1Z7,47.5651632,-52.7429116
184,University Avenue,A1B 1Z7,47.5650456,-52.7429530
185,University Avenue,A1B 1Z6,47.5650059,-52.7422947
183,University Avenue,A1B 1Z6,47.5651408,-52.7422939
181,University Avenue,A1B 1Z6,47.5652772,-52.7422841
173,University Avenue,A1B 1Z6,47.5658291,-52.7422402
175,University Avenue,A1B 1Z6,47.5656897,-52.7422658
177,University Avenue,A1B 1Z6,47.5655524,-52.7422624
179,University Avenue,A1B 1Z6,47.5654179,-52.7422949
193,University Avenue,A1B 1Z6,47.5641656,-52.7428306
191,University Avenue,A1B 1Z6,47.5642772,-52.7426445
189,University Avenue,A1B 1Z6,47.5644236,-52.7424849
187,University Avenue,A1B 1Z6,47.5645981,-52.7423742
24,Curtis Place,A1B 1Z8,47.5649856,-52.7420288
22,Curtis Place,A1B 1Z8,47.5649363,-52.7418376
20,Curtis Place,A1B 1Z8,47.5648571,-52.7416400
18,Curtis Place,A1B 1Z8,47.5647456,-52.7415025
16,Curtis Place,A1B 1Z8,47.5646060,-52.7414409
14,Curtis Place,A1B 1Z8,47.5644365,-52.7412487
12,Curtis Place,A1B 1Z8,47.5642924,-52.7411137
10,Curtis Place,A1B 1Z8,47.5641761,-52.7410024
6,Curtis Place,A1B 1Z8,47.5639496,-52.7406962
4,Curtis Place,A1B 1Z8,47.5638004,-52.7407467
2,Curtis Place,A1B 1Z8,47.5636773,-52.7409323
1,Curtis Place,A1B 1Z7,47.5637496,-52.7411893
3,Curtis Place,A1B 1Z7,47.5638385,-52.7413872
5,Curtis Place,A1B 1Z7,47.5639695,-52.7414473
7,Curtis Place,A1B 1Z7,47.5640893,-52.7415381
9,Curtis Place,A1B 1Z7,47.5641689,-52.7416484
11,Curtis Place,A1B 1Z7,47.5642637,-52.7416605
13,Curtis Place,A1B 1Z7,47.5643266,-52.7417491
15,Curtis Place,A1B 1Z7,47.5644365,-52.7418359
17,Curtis Place,A1B 1Z7,47.5645500,-52.7419761
153,University Avenue,A1B 1Z6,47.5672830,-52.7421576
155,University Avenue,A1B 1Z6,47.5671184,-52.7421389
151,University Avenue,A1B 1Z6,47.5675182,-52.7420570
39,Paton Street,A1B 3E9,47.5674438,-52.7418492
37,Paton Street,A1B 3E9,47.5673015,-52.7415977
53,Gambier Street,A1B 3G2,47.5671198,-52.7416693
51,Gambier Street,A1B 3G2,47.5669744,-52.7417029
49,Gambier Street,A1B 3G2,47.5668281,-52.7416990
47,Gambier Street,A1B 3G2,47.5666901,-52.7417229
45,Gambier Street,A1B 3G2,47.5665374,-52.7417253
43,Gambier Street,A1B 3G2,47.5664061,-52.7417420
41,Gambier Street,A1B 3G2,47.5662675,-52.7417384
39,Gambier Street,A1B 3G2,47.5661242,-52.7417679
37,Gambier Street,A1B 3G2,47.5659804,-52.7417892
65,Empire Avenue,A1C 3E7,47.5732530,-52.7098388
35,Gambier Street,A1B 3G2,47.5658333,-52.7417976
33,Gambier Street,A1B 3G2,47.5656927,-52.7418067
31,University Avenue,A1B 3G2,47.5655324,-52.7417655
29,Gambier Street,A1B 3G2,47.5653885,-52.7416915
27,Gambier Street,A1B 3G2,47.5652544,-52.7415893
25,Gambier Street,A1B 3G2,47.5651441,-52.7414101
23,Gambier Street,A1B 3G2,47.5650550,-52.7412333
21,Gambier Street,A1B 3G2,47.5649717,-52.7410660
19,Gambier Street,A1B 3G2,47.5648898,-52.7409009
17,Gambier Street,A1B 3G2,47.5648064,-52.7407398
15,Gambier Street,A1B 3G2,47.5647400,-52.7405642
13,Gambier Street,A1B 3G2,47.5646262,-52.7403915
11,Gambier Street,A1B 3G2,47.5645425,-52.7402203
9,Gambier Street,A1B 3G2,47.5644915,-52.7400549
7,Gambier Street,A1B 3G2,47.5643833,-52.7399032
5,Gambier Street,A1B 3G2,47.5643115,-52.7397636
3,Gambier Street,A1B 3G2,47.5642185,-52.7394704
408,Elizabeth Avenue,A1B 1V3,47.5640545,-52.7395245
410,Elizabeth Avenue,A1B 1V3,47.5639656,-52.7396423
412,Elizabeth Avenue,A1B 1V3,47.5638376,-52.7397383
414,Elizabeth Avenue,A1B 1V3,47.5637466,-52.7398515
288,Freshwater Road,A1B 1C1,47.5631705,-52.7414470
276,Freshwater Road,A1B 1C1,47.5635408,-52.7402507
278,Freshwater Road,A1B 1C1,47.5634848,-52.7404078
280,Freshwater Road,A1B 1C1,47.5634040,-52.7406461
286,Freshwater Road,A1B 1C1,47.5632124,-52.7412448
282,Freshwater Road,A1B 1C1,47.5633471,-52.7408387
284,Freshwater Road,A1B 1C1,47.5632705,-52.7410328
416,Elizabeth Avenue,A1B 1V3,47.5636651,-52.7400217
27,Gambier Street,A1B 3E8,47.5670430,-52.7411437
42,Blackall Place,A1B 3G4,47.5667995,-52.7411915
40,Gambier Street,A1B 3G4,47.5666396,-52.7411886
38,Paton Street,A1B 3G4,47.5665025,-52.7411960
36,Gambier Street,A1B 3G4,47.5663470,-52.7411993
34,Gambier Street,A1B 3G4,47.5662095,-52.7412104
32,Gambier Street,A1B 3G4,47.5660622,-52.7412013
11,Paton Street,A1B 3E8,47.5663403,-52.7397041
13,Paton Street,A1B 3E8,47.5664240,-52.7398575
15,Paton Street,A1B 3E8,47.5665189,-52.7400280
17,Paton Street,A1B 3E8,47.5665971,-52.7402131
19,Paton Street,A1B 3E8,47.5666927,-52.7403551
21,Paton Street,A1B 3E8,47.5667709,-52.7405161
25,Gambier Street,A1B 3E8,47.5669439,-52.7408757
23,Paton Street,A1B 3E8,47.5668371,-52.7406965
404,Elizabeth Avenue,A1B 1V2,47.5644791,-52.7391192
6,Gambier Street,A1B 3G3,47.5645553,-52.7392677
8,Gambier Street,A1B 3G3,47.5646488,-52.7395183
2,Blackall Place,A1B 3G4,47.5648426,-52.7397493
4,Blackall Place,A1B 3G4,47.5650378,-52.7396236
6,Blackall Place,A1B 3G4,47.5652265,-52.7395550
8,Blackall Place,A1B 3G4,47.5653701,-52.7395822
10,Blackall Place,A1B 3G4,47.5655190,-52.7397013
12,Blackall Place,A1B 3G4,47.5656480,-52.7398223
14,Blackall Place,A1B 3G4,47.5657412,-52.7399981
28,Gambier Street,A1B 3G4,47.5659146,-52.7412262
26,Gambier Street,A1B 3G4,47.5657711,-52.7412288
24,Gambier Street,A1B 3G4,47.5656041,-52.7412348
22,Gambier Street,A1B 3G4,47.5654571,-52.7410780
20,Gambier Street,A1B 3G4,47.5653561,-52.7409073
18,Gambier Street,A1B 3G4,47.5652692,-52.7407336
16,Gambier Street,A1B 3G3,47.5651818,-52.7405760
14,Gambier Street,A1B 3G4,47.5650986,-52.7404063
1,Blackall Place,A1B 3G5,47.5650346,-52.7401895
3,Blackall Place,A1B 3G5,47.5653165,-52.7401311
5,Gambier Street,A1B 3G5,47.5654490,-52.7402913
7,Blackall Place,A1B 3G5,47.5655408,-52.7404618
9,Blackall Place,A1B 3G5,47.5656554,-52.7406260
11,Blackall Place,A1B 3G5,47.5657833,-52.7407366
13,Blackall Place,A1B 3G5,47.5659464,-52.7407784
15,Paton Street,A1B 3G5,47.5661157,-52.7407973
17,Blackall Place,A1B 3G5,47.5662851,-52.7406317
20,Blackall Place,A1B 3G4,47.5662687,-52.7403366
18,Blackall Place,A1B 3G4,47.5661293,-52.7401401
16,Blackall Place,A1B 3G4,47.5658920,-52.7401875
118,University Avenue,A1B 1Z5,47.5695722,-52.7402695
120,University Avenue,A1B 1Z5,47.5694582,-52.7403740
122,University Avenue,A1B 1Z5,47.5693677,-52.7405165
124,University Avenue,A1B 1Z5,47.5692509,-52.7406634
126,Prince Phillip Drive,A1B 1Z5,47.5691532,-52.7408173
128,University Avenue,A1B 1Z5,47.5690503,-52.7409306
130,University Avenue,A1B 1Z5,47.5689586,-52.7410584
132,University Avenue,A1B 1Z5,47.5688590,-52.7412293
134,University Avenue,A1B 1Z5,47.5687591,-52.7413641
138,University Avenue,A1B 1Z5,47.5685869,-52.7416425
140,University Avenue,A1B 1Z5,47.5684717,-52.7418113
142,University Avenue,A1B 1Z5,47.5683640,-52.7419263
144,University Avenue,A1B 1Z5,47.5682632,-52.7420760
146,University Avenue,A1B 1Z5,47.5681602,-52.7422271
152,University Avenue,A1B 1Z5,47.5677728,-52.7426068
150,University Avenue,A1B 1Z5,47.5679040,-52.7425387
148,University Avenue,A1B 1Z5,47.5680439,-52.7423791
136,University Avenue,A1B 1Z5,47.5686665,-52.7414761
265,Elizabeth Avenue,A1B 1T8,47.5692440,-52.7330313
2,Howlett Avenue,A1B 3R8,47.5647181,-52.7364484
415,Elizabeth Avenue,A1B 1V1,47.5636906,-52.7389490
413,Elizabeth Avenue,A1B 1V1,47.5638156,-52.7388794
411,Elizabeth Avenue,A1B 1V1,47.5639308,-52.7388147
397,Elizabeth Avenue,A1B 1V1,47.5647733,-52.7380173
399,Elizabeth Avenue,A1B 1V1,47.5646596,-52.7382396
401,Elizabeth Avenue,A1B 1V1,47.5645001,-52.7383178
403,Elizabeth Avenue,A1B 1V1,47.5643901,-52.7384117
405,Elizabeth Avenue,A1B 1V1,47.5642852,-52.7384940
409,Elizabeth Avenue,A1B 1V1,47.5640508,-52.7387145
407,Elizabeth Avenue,A1B 1V1,47.5641782,-52.7386403
263,Elizabeth Avenue,A1B 1T7,47.5694985,-52.7326729
261,Elizabeth Avenue,A1B 1T7,47.5695708,-52.7324896
259,Elizabeth Avenue,A1B 1T7,47.5696588,-52.7323171
257,Elizabeth Avenue,A1B 1T7,47.5697531,-52.7321443
219,Elizabeth Avenue,A1B 1T4,47.5719480,-52.7279314
217,Elizabeth Avenue,A1B 1T4,47.5721034,-52.7276997
215,Elizabeth Avenue,A1B 1T4,47.5721554,-52.7273917
213,Elizabeth Avenue,A1B 1T4,47.5722975,-52.7272515
211,Elizabeth Avenue,A1B 1T4,47.5724051,-52.7270141
1,Halliday Place,A1B 1T6,47.5710797,-52.7295398
129,Bonaventure Avenue,A1B 2X9,47.5730290,-52.7257355
127,Bonaventure Avenue,A1B 2X9,47.5728983,-52.7256292
125,Bonaventure Avenue,A1B 2X9,47.5727774,-52.7255932
123,Bonaventure Avenue,A1B 2X9,47.5726620,-52.7254741
121,Bonaventure Avenue,A1B 2X9,47.5725335,-52.7254044
119,Bonaventure Avenue,A1B 2X9,47.5724118,-52.7253488
117,Bonaventure Avenue,A1B 2X9,47.5723256,-52.7252917
115,Bonaventure Avenue,A1B 2X9,47.5722444,-52.7252451
113,Bonaventure Avenue,A1B 2X9,47.5721350,-52.7250986
111,Bonaventure Avenue,A1B 2X9,47.5720046,-52.7250457
2,Pine Bud Place,A1B 1N2,47.5718401,-52.7248797
14,Howlett Avenue,A1B 1K9,47.5636076,-52.7370598
12,Howlett Avenue,A1B 1K9,47.5637659,-52.7370426
10,Howlett Avenue,A1B 1K9,47.5639226,-52.7370037
8,Howlett Avenue,A1B 1K9,47.5640560,-52.7369599
6,Howlett Avenue,A1B 1K9,47.5642034,-52.7368134
137,Newtown Road,A1B 3B2,47.5690055,-52.7313574
135,Newtown Road,A1B 3B2,47.5689123,-52.7311991
133,Newtown Road,A1B 3B2,47.5688452,-52.7310288
131,Whiteway Street,A1B 3B2,47.5687906,-52.7308595
132,Newtown Road,A1B 3B1,47.5691784,-52.7305892
136,Newtown Road,A1B 3B1,47.5693123,-52.7309723
134,Newtown Road,A1B 3B1,47.5692342,-52.7308068
115,George Street West,A1C 0B7,47.5582223,-52.7122239
9,Arctic Avenue,a1b 3x5,47.5740742,-52.7342832
273,Portugal Cove Road,A1B 2N7,47.5940814,-52.7262170
150,Elizabeth Avenue,A1B 1S4,47.5780792,-52.7212842
147 1/2,Elizabeth Avenue,A1B 1S2,47.5777553,-52.7202184
153,Elizabeth Avenue,A1B 1S2,47.5773438,-52.7209168
151,Elizabeth Avenue,A1B 1S2,47.5775267,-52.7207505
149,Elizabeth Avenue,A1B 1S2,47.5776626,-52.7205806
147,Elizabeth Avenue,A1B 1S2,47.5778977,-52.7200194
145 1/2,Elizabeth Avenue,A1B 1S2,47.5780004,-52.7198115
145,Elizabeth Avenue,A1B 1S2,47.5781202,-52.7196476
143,Elizabeth Avenue,A1B 1S2,47.5782646,-52.7193731
81,Higgins Line,A1B 2Y4,47.5870220,-52.7295351
44,Pleasant Street,A1C 1L4,47.5574119,-52.7155444
632,Topsail Road,A1E 2C9,47.5257192,-52.7694487
8,Bay Bulls Road,A1G 1G3,47.5236797,-52.7487809
2,Stavanger Drive,A1A 5E8,47.6143711,-52.7218750
2,Stavanger Drive,A1A 5E8,47.6141282,-52.7218344
2,Stavanger Drive,A1A 5E8,47.6141856,-52.7220021
21,Howlett Avenue,A1B 1L1,47.5633325,-52.7366107
322,Freshwater Road,A1B 1C2,47.5629605,-52.7431742
147,Newtown Road,A1B 3B2,47.5695559,-52.7319784
145,Newtown Road,A1B 3B2,47.5694276,-52.7318802
22,Byron Street,A1B 3B7,47.5696975,-52.7314883
20,Byron Street,A1B 3B7,47.5697739,-52.7313517
18,Byron Street,A1B 3B7,47.5698665,-52.7311641
16,Byron Street,A1B 3B7,47.5699635,-52.7310167
4,Pine Bud Place,A1B 1N2,47.5717404,-52.7251361
6,Pine Bud Place,A1B 1N2,47.5716546,-52.7254484
8,Pine Bud Place,A1B 1N2,47.5716969,-52.7256984
10,Pine Bud Place,A1B 1N2,47.5718538,-52.7257656
12,Pine Bud Place,A1B 1N2,47.5719919,-52.7258839
14,Milbank Street,A1B 1N2,47.5721004,-52.7260549
16,Pine Bud Place,A1B 1N2,47.5721087,-52.7263053
25,Pine Bud Place,A1B 1N1,47.5719782,-52.7266245
23,Pine Bud Place,A1B 1N1,47.5718002,-52.7266396
21,Pine Bud Place,A1B 1N1,47.5716596,-52.7266195
19,Pine Bud Place,A1B 1N1,47.5715260,-52.7265255
17,Pine Bud Place,A1B 1N1,47.5713961,-52.7264411
15,Pine Bud Place,A1B 1N1,47.5712725,-52.7262930
13,Pine Bud Place,A1B 1N1,47.5712128,-52.7259933
11,Pine Bud Place,A1B 1N1,47.5712532,-52.7257476
9,Pine Bud Place,A1B 1N1,47.5712621,-52.7255603
7,Pine Bud Place,A1B 1N1,47.5713029,-52.7253360
5,Pine Bud Place,A1B 1N1,47.5713311,-52.7251435
3,Pine Bud Place,A1B 1N1,47.5714008,-52.7249014
1,Pine Bud Place,A1B 1N1,47.5714174,-52.7246115
98,Whiteway Street,A1B 1K6,47.5668228,-52.7333151
96,Whiteway Street,A1B 1K6,47.5668131,-52.7330888
94,Whiteway Street,A1B 1K6,47.5668239,-52.7328971
92,Whiteway Street,A1B 1K6,47.5669641,-52.7327313
88,Whiteway Street,A1B 1K6,47.5671829,-52.7324970
90,Whiteway Street,A1B 1K6,47.5671131,-52.7325697
86,Whiteway Street,A1B 1K6,47.5672969,-52.7323381
319,Freshwater Road,A1B 1B4,47.5626952,-52.7417232
317,Freshwater Road,A1B 1B4,47.5627584,-52.7415410
315,Freshwater Road,A1B 1B4,47.5628124,-52.7413342
313,Freshwater Road,A1B 1B4,47.5628713,-52.7411649
311,Freshwater Road,A1B 1B4,47.5629115,-52.7410219
309,Freshwater Road,A1B 1B4,47.5629383,-52.7408640
307,Freshwater Road,A1B 1B4,47.5629924,-52.7406831
305,Freshwater Road,A1B 1B4,47.5629835,-52.7404013
321,Freshwater Road,A1B 1C3,47.5623742,-52.7422242
81,Stamps Lane,A1B 3H7,47.5622268,-52.7419842
79,Stamps Lane,A1B 3H7,47.5620744,-52.7419891
77,Stamps Lane,A1B 3H7,47.5619779,-52.7418273
72,Stamps Lane,A1B 3H8,47.5624104,-52.7416143
70,Stamps Lane,A1B 3H8,47.5623160,-52.7415720
68,Stamps Lane,A1B 3H8,47.5622261,-52.7415166
66,Stamps Lane,A1B 3H8,47.5621410,-52.7414577
64,Stamps Lane,A1B 3H6,47.5619520,-52.7412771
62,Stamps Lane,A1B 3H6,47.5618624,-52.7412257
60,Stamps Lane,A1B 3H6,47.5617856,-52.7412021
56,Stamps Lane,A1B 3H6,47.5616149,-52.7410682
54,Stamps Lane,A1B 3H6,47.5615288,-52.7410090
52,Stamps Lane,A1B 3H6,47.5614370,-52.7409631
50,Stamps Lane,A1B 3H6,47.5613459,-52.7409087
48,Stamps Lane,A1B 3H6,47.5612795,-52.7407752
46,Stamps Lane,A1B 3H6,47.5611763,-52.7407616
80,Whiteway Street,A1B 1K6,47.5676079,-52.7320249
58,Stamps Lane,A1B 3H6,47.5616992,-52.7411471
5,Abbott Avenue,A1B 3H2,47.5622992,-52.7409698
7,Abbott Avenue,A1B 3H2,47.5623478,-52.7408416
9,Abbott Avenue,A1B 3H2,47.5623810,-52.7407206
11,Abbott Avenue,A1B 3H2,47.5624421,-52.7405746
13,Abbott Avenue,A1B 3H2,47.5623244,-52.7403414
17,Abbott Avenue,A1B 3H2,47.5620698,-52.7403064
19,Abbott Avenue,A1B 3H2,47.5620824,-52.7405422
21,Abbott Avenue,A1B 3H2,47.5620414,-52.7406658
23,Abbott Avenue,A1B 3H2,47.5620170,-52.7408080
36,Wishingwell Road,A1B 1G5,47.5615696,-52.7396647
38,Wishingwell Road,A1B 1G5,47.5615392,-52.7398195
40,Wishingwell Road,A1B 1G5,47.5615184,-52.7399655
42,Wishingwell Road,A1B 1G5,47.5614782,-52.7401675
44,Wishingwell Road,A1B 1G5,47.5613946,-52.7403409
46,Wishingwell Road,A1B 1G5,47.5613182,-52.7404837
273,Freshwater Road,A1B 1B4,47.5629135,-52.7385900
2,Terra Nova Road,A1B 1E5,47.5630604,-52.7357694
4,Wishingwell Place,A1B 1H1,47.5628434,-52.7360315
6,Wishingwell Place,A1B 1H1,47.5627679,-52.7362089
8,Wishingwell Place,A1B 1H1,47.5626487,-52.7363727
10,Wishingwell Place,A1B 1H1,47.5625492,-52.7365406
12,Wishingwell Place,A1B 1H1,47.5624189,-52.7367274
8,Wishingwell Road,A1B 1G3,47.5623308,-52.7369540
10,Wishingwell Road,A1B 1G3,47.5623035,-52.7371237
32,Wishingwell Road,A1B 1G5,47.5617157,-52.7391193
61,Stamps Lane,A1B 3H7,47.5618233,-52.7417730
59,Stamps Lane,A1B 3H7,47.5617298,-52.7416848
57,Stamps Lane,A1B 3H7,47.5616379,-52.7416174
55,Stamps Lane,A1B 3H7,47.5615172,-52.7416063
53,Stamps Lane,A1B 3H7,47.5614635,-52.7415023
51,Stamps Lane,A1B 3H7,47.5613494,-52.7414562
49,Stamps Lane,A1B 3H7,47.5612565,-52.7413128
47,Stamps Lane,A1B 3H7,47.5611749,-52.7412226
52,Wishingwell Road,A1B 1G7,47.5610620,-52.7411828
54,Wishingwell Road,A1B 1G7,47.5609899,-52.7414660
56,Wishingwell Road,A1B 1G7,47.5609568,-52.7416376
58,Wishingwell Road,A1B 1G7,47.5609008,-52.7418035
2,Thetis Place,A1B 3K2,47.5608562,-52.7420108
6,Thetis Place,A1B 3K2,47.5610915,-52.7421645
8,Thetis Place,A1B 3K2,47.5612271,-52.7422505
10,Thetis Place,A1B 3K2,47.5613815,-52.7422672
12,Thetis Place,A1B 3K2,47.5615237,-52.7423373
14,Thetis Place,A1B 3K2,47.5616571,-52.7424008
16,Thetis Place,A1B 3K2,47.5617754,-52.7426130
17,Thetis Place,A1B 3K1,47.5617783,-52.7428994
15,Thetis Place,A1B 3K1,47.5616519,-52.7430940
13,Thetis Place,A1B 3K1,47.5614472,-52.7430363
11,Thetis Place,A1B 3K1,47.5613180,-52.7429146
9,Thetis Place,A1B 3K1,47.5611813,-52.7427886
7,Thetis Place,A1B 3K1,47.5610522,-52.7426981
5,Thetis Place,A1B 3K1,47.5609315,-52.7426361
3,Thetis Place,A1B 3K1,47.5608132,-52.7425195
68,Wishingwell Road,A1B 1G8,47.5606776,-52.7424400
51,Wishingwell Road,A1B 1G6,47.5607334,-52.7409926
39,Stamps Lane,A1B 3H5,47.5606056,-52.7408551
35,Stamps Lane,A1B 3H5,47.5604763,-52.7407728
68,Terra Nova Road,A1B 1E9,47.5603518,-52.7406816
53,Wishingwell Road,A1B 1G6,47.5606336,-52.7412541
55,Wishingwell Road,A1B 1G6,47.5605566,-52.7414581
70,Terra Nova Road,A1B 1E9,47.5602682,-52.7409555
72,Terra Nova Road,A1B 1E9,47.5601968,-52.7411687
74,Terra Nova Road,A1B 1E9,47.5601563,-52.7413674
76,Terra Nova Road,A1B 1E9,47.5600944,-52.7415395
78,Terra Nova Road,A1B 1E9,47.5600366,-52.7417205
80,Terra Nova Road,A1B 1E9,47.5600027,-52.7419122
82,Terra Nova Road,A1B 1E9,47.5599147,-52.7421069
84,Terra Nova Road,A1B 1E9,47.5598700,-52.7423345
86,Terra Nova Road,A1B 1E9,47.5598113,-52.7425295
88,Terra Nova Road,A1B 1E9,47.5597363,-52.7427248
90,Terra Nova Road,A1B 1E9,47.5596291,-52.7430283
75,Wishingwell Road,A1B 1G6,47.5600211,-52.7433987
71,Wishingwell Road,A1B 1G6,47.5601221,-52.7430639
69,Wishingwell Road,A1B 1G6,47.5601784,-52.7428392
67,Wishingwell Road,A1B 1G6,47.5602229,-52.7426145
57,Wishingwell Road,A1B 1G6,47.5605325,-52.7416632
59,Wishingwell Road,A1B 1G6,47.5604656,-52.7418459
61,Wishingwell Road,A1B 1G6,47.5603951,-52.7420324
63,Wishingwell Road,A1B 1G6,47.5603463,-52.7422294
65,Wishingwell Road,A1B 1G6,47.5602988,-52.7424259
91,Terra Nova Road,A1B 1E8,47.5593416,-52.7427400
89,Terra Nova Road,A1B 1E8,47.5594058,-52.7425015
87,Terra Nova Road,A1B 1E8,47.5594657,-52.7423075
85,Terra Nova Road,A1B 1E8,47.5595238,-52.7420954
83,Terra Nova Road,A1B 1E8,47.5595882,-52.7419354
81,Terra Nova Road,A1B 1E8,47.5596536,-52.7417200
79,Terra Nova Road,A1B 1E8,47.5597054,-52.7415343
77,Terra Nova Road,A1B 1E8,47.5597681,-52.7413428
75,Terra Nova Road,A1B 1E8,47.5598219,-52.7411562
73,Terra Nova Road,A1B 1E8,47.5598807,-52.7409533
71,Terra Nova Road,A1B 1E8,47.5599403,-52.7407613
69,Terra Nova Road,A1B 1E8,47.5599997,-52.7405682
67,Terra Nova Road,A1B 1E8,47.5600656,-52.7403633
61,Terra Nova Road,A1B 1E7,47.5602260,-52.7398185
12,Terra Nova Road,A1B 1E5,47.5624730,-52.7357803
14,Terra Nova Road,A1B 1E5,47.5623226,-52.7358351
16,Terra Nova Road,A1B 1E5,47.5621840,-52.7359077
6,Wishingwell Road,A1B 1G3,47.5620437,-52.7360515
24,Terra Nova Road,A1B 1E6,47.5616985,-52.7364143
253,Freshwater Road,A1B 1B4,47.5629758,-52.7363376
255,Freshwater Road,A1B 1B4,47.5629720,-52.7366739
257,Freshwater Road,A1B 1B4,47.5628520,-52.7370617
259,Freshwater Road,A1B 1B4,47.5629278,-52.7372208
271,Freshwater Road,A1B 1B4,47.5630228,-52.7382925
269,Freshwater Road,A1B 1B4,47.5629785,-52.7381990
267,Freshwater Road,A1B 1B4,47.5629789,-52.7380486
265,Freshwater Road,A1B 1B4,47.5629778,-52.7378169
263,Freshwater Road,A1B 1B4,47.5629789,-52.7376247
261 1/2,Freshwater Road,A1B 1B4,47.5629261,-52.7375002
261,Freshwater Road,A1B 1B4,47.5629028,-52.7373889
9,Wishingwell Road,A1B 1G4,47.5618312,-52.7366565
11,Wishingwell Road,A1B 1G4,47.5618696,-52.7368783
13,Wishingwell Road,A1B 1G4,47.5618701,-52.7371199
15,Wishingwell Road,A1B 1G4,47.5618217,-52.7373423
17,Wishingwell Road,A1B 1G4,47.5617806,-52.7375337
19,Wishingwell Road,A1B 1G4,47.5617303,-52.7377234
21,Wishingwell Road,A1B 1G4,47.5616660,-52.7379060
23,Wishingwell Road,A1B 1G4,47.5616144,-52.7381106
25,Wishingwell Road,A1B 1G4,47.5615600,-52.7383061
27,Wishingwell Road,A1B 1G4,47.5614916,-52.7384881
29,Wishingwell Road,A1B 1G4,47.5614364,-52.7386830
31,Wishingwell Road,A1B 1G4,47.5613812,-52.7388796
33,Wishingwell Road,A1B 1G4,47.5613271,-52.7390733
35,Wishingwell Road,A1B 1G4,47.5612557,-52.7392716
37,Wishingwell Road,A1B 1G4,47.5611845,-52.7394209
39,Wishingwell Road,A1B 1G4,47.5611640,-52.7396350
41,Wishingwell Road,A1B 1G4,47.5610904,-52.7398551
43,Wishingwell Road,A1B 1G4,47.5610293,-52.7400265
58,Terra Nova Road,A1B 1E6,47.5606338,-52.7397149
59,Terra Nova Road,A1B 1E7,47.5602986,-52.7396121
57,Terra Nova Road,A1B 1E7,47.5603606,-52.7394032
55,Terra Nova Road,A1B 1E7,47.5604160,-52.7392027
53,Terra Nova Road,A1B 1E7,47.5604700,-52.7389966
51,Terra Nova Road,A1B 1E7,47.5605191,-52.7387753
49,Terra Nova Road,A1B 1E7,47.5605994,-52.7385931
47,Terra Nova Road,A1B 1E7,47.5606614,-52.7383789
45,Terra Nova Road,A1B 1E7,47.5607236,-52.7381848
43,Terra Nova Road,A1B 1E7,47.5607792,-52.7379494
41,Terra Nova Road,A1B 1E7,47.5608475,-52.7377810
39,Terra Nova Road,A1B 1E7,47.5609087,-52.7375816
56,Terra Nova Road,A1B 1E6,47.5607138,-52.7395185
54,Terra Nova Road,A1B 1E6,47.5607710,-52.7393107
52,Terra Nova Road,A1B 1E6,47.5608353,-52.7391139
50,Terra Nova Road,A1B 1E6,47.5609134,-52.7389313
48,Terra Nova Road,A1B 1E6,47.5609536,-52.7387250
46,Terra Nova Road,A1B 1E6,47.5610123,-52.7385392
44,Terra Nova Road,A1B 1E6,47.5610721,-52.7383478
42,Terra Nova Road,A1B 1E6,47.5611361,-52.7381539
40,Terra Nova Road,A1B 1E6,47.5611862,-52.7379631
38,Terra Nova Road,A1B 1E6,47.5612512,-52.7377683
36,Terra Nova Road,A1B 1E6,47.5613027,-52.7375642
34,Terra Nova Road,A1B 1E6,47.5613645,-52.7373742
32,Terra Nova Road,A1B 1E6,47.5614197,-52.7371780
30,Terra Nova Road,A1B 1E6,47.5614769,-52.7369932
28,Terra Nova Road,A1B 1E6,47.5615410,-52.7367993
26,Terra Nova Road,A1B 1E6,47.5616064,-52.7365983
15,Terra Nova Road,A1B 1E7,47.5619115,-52.7353245
3,Howlett Avenue,A1B 1K8,47.5647223,-52.7357946
5,Howlett Avenue,A1B 1K8,47.5645698,-52.7359792
7,Howlett Avenue,A1B 1K8,47.5644558,-52.7361164
9,Howlett Avenue,A1B 1K8,47.5643243,-52.7362223
11,Howlett Avenue,A1B 1K8,47.5641897,-52.7362901
13,Howlett Avenue,A1B 1K8,47.5640456,-52.7363625
16,Gosling Street,A1B 3E6,47.5640119,-52.7359541
14,Gosling Street,A1B 3E6,47.5640136,-52.7357372
12,Gosling Street,A1B 3E6,47.5640295,-52.7355417
10,Gosling Street,A1B 3E6,47.5640162,-52.7353312
8,Gosling Street,A1B 3E6,47.5640197,-52.7351257
6,Gosling Street,A1B 3E6,47.5640698,-52.7348648
4,Gosling Street,A1B 3E6,47.5641727,-52.7347307
9,Anderson Avenue,A1B 3E3,47.5643065,-52.7346077
11,Anderson Avenue,A1B 3E3,47.5644362,-52.7348920
13,Anderson Avenue,A1B 3E3,47.5645401,-52.7350365
15,Anderson Avenue,A1B 3E3,47.5646193,-52.7351994
17,Anderson Avenue,A1B 3E3,47.5647027,-52.7353644
19,Howlett Avenue,A1B 1L1,47.5634619,-52.7365154
17,Howlett Avenue,A1B 1L1,47.5635939,-52.7365327
15,Howlett Avenue,A1B 1L1,47.5637266,-52.7365348
19,Gosling Street,A1B 3E5,47.5636851,-52.7360631
17,Gosling Street,A1B 3E5,47.5636991,-52.7358563
15,Gosling Street,A1B 3E5,47.5637047,-52.7356616
13,Gosling Street,A1B 3E5,47.5636988,-52.7354696
11,Gosling Street,A1B 3E5,47.5636992,-52.7352597
9,Gosling Street,A1B 3E5,47.5637020,-52.7350305
7,Gosling Street,A1B 3E5,47.5637246,-52.7347860
5,Gosling Street,A1B 3E5,47.5637873,-52.7345711
3,Gosling Street,A1B 3E5,47.5638977,-52.7344080
7,Anderson Avenue,A1B 3E1,47.5640983,-52.7341666
5,Anderson Avenue,A1B 3E1,47.5639921,-52.7339618
3,Anderson Avenue,A1B 3E1,47.5639022,-52.7337988
18,Freshwater Road,A1B 3E2,47.5641263,-52.7332284
20,Anderson Avenue,A1B 3E2,47.5641710,-52.7333179
22,Anderson Avenue,A1B 3E2,47.5642708,-52.7335147
24,Anderson Avenue,A1B 3E2,47.5643605,-52.7336705
26,Anderson Avenue,A1B 3E2,47.5644382,-52.7338470
34,Anderson Avenue,A1B 3E2,47.5645855,-52.7341977
69,Guy Street,A1B 1P8,47.5647461,-52.7340806
67,Guy Street,A1B 1P8,47.5648102,-52.7340104
65,Guy Street,A1B 1P8,47.5649481,-52.7338278
63,Guy Street,A1B 1P8,47.5650514,-52.7337960
61,Guy Street,A1B 1P8,47.5652347,-52.7336667
59,Guy Street,A1B 1P8,47.5654008,-52.7335569
57,Guy Street,A1B 1P8,47.5654704,-52.7335391
55,Guy Street,A1B 1P8,47.5656549,-52.7334742
1,LeMarchant Road,A1C 2G4,47.5640368,-52.7151216
3,LeMarchant Road,A1C 2G4,47.5640130,-52.7147038
5,LeMarchant Road,A1C 2G4,47.5639605,-52.7147467
7,Freshwater Road,A1C 2G4,47.5638673,-52.7147789
9,Carter's Hill,A1C 2G4,47.5637969,-52.7148613
15,Freshwater Road,A1C 2G4,47.5637403,-52.7149098
15,Freshwater Road,A1C 2G4,47.5637114,-52.7149730
5,Freshwater Road,A1C 2N1,47.5639143,-52.7156115
27,Freshwater Road,A1C 2N1,47.5637304,-52.7165328
250,LeMarchant Road,A1E 1P7,47.5543479,-52.7236250
101,Torbay Road,A1A 2G9,47.5879142,-52.7106515
107,Torbay Road,A1A 2G9,47.5895809,-52.7103435
137,Torbay Road,A1A 2G9,47.5900449,-52.7125875
105,Torbay Road,A1A 2G9,47.5888916,-52.7108892
100,Prince Phillip Drive,A1B 4J6,47.5833753,-52.7239315
100,Prince Phillip Drive,A1B 4J6,47.5822348,-52.7260426
74,Ridge Road,A1A 4P5,47.5883433,-52.7356152
78,Ridge Road,A1A 4P5,47.5881928,-52.7358826
80,Ridge Road,A1A 4P5,47.5886215,-52.7363424
82,Ridge Road,A1A 4P5,47.5880274,-52.7359687
84,Ridge Road,A1A 4P5,47.5880305,-52.7361342
153,Ridge Road,A1B 5E7,47.5870424,-52.7346401
155,Ridge Road,A1B 5E7,47.5859931,-52.7362291
1,Navy Street,A1C 4W2,47.5601881,-52.7238928
132,Buckmaster's Circle,A1C 4V9,47.5601773,-52.7239680
150,Buckmaster's Circle,A1C 4V9,47.5601260,-52.7243217
152,Buckmaster's Circle,A1C 4V9,47.5601149,-52.7243967
160,Buckmaster's Circle,A1C 4V9,47.5603449,-52.7244715
158,Buckmaster's Circle,A1C 4V9,47.5602874,-52.7244528
156,Buckmaster's Circle,A1C 4V9,47.5602299,-52.7244341
154,Buckmaster's Circle,A1C 4V9,47.5601724,-52.7244154
142,Buckmaster's Circle,A1C 4V9,47.5603560,-52.7243964
144,Buckmaster's Circle,A1C 4V9,47.5602985,-52.7243777
146,Buckmaster's Circle,A1C 4V9,47.5602410,-52.7243590
148,Buckmaster's Circle,A1C 4V9,47.5601835,-52.7243403
140,Buckmaster's Circle,A1C 4V9,47.5604072,-52.7240415
138,Buckmaster's Circle,A1C 4V9,47.5603497,-52.7240231
136,Buckmaster's Circle,A1C 4V9,47.5602923,-52.7240048
134,Buckmaster's Circle,A1C 4V9,47.5602348,-52.7239864
9,Navy Street,A1C 4W2,47.5604182,-52.7239663
7,Navy Street,A1C 4W2,47.5603607,-52.7239479
5,Navy Street,A1C 4W2,47.5603033,-52.7239296
3,Navy Street,A1C 4W2,47.5602458,-52.7239112
188,Buckmaster's Circle,A1C 4V9,47.5595273,-52.7246898
196,Buckmaster's Circle,A1C 4V9,47.5593095,-52.7246554
121,Buckmaster's Circle,A1C 4V7,47.5599137,-52.7227741
123,Buckmaster's Circle,A1C 4V7,47.5599443,-52.7228518
125,Buckmaster's Circle,A1C 4V7,47.5599751,-52.7229298
119,Brigade Street,A1C 0A6,47.5598930,-52.7231155
117,Brigade Street,A1C 0A6,47.5598427,-52.7231592
115,Brigade Street,A1C 0A6,47.5597922,-52.7232032
113,Brigade Street,A1C 0A6,47.5597418,-52.7232470
101,Brigade Street,A1C 0A6,47.5596507,-52.7235736
99,Brigade Street,A1C 0A6,47.5596082,-52.7236098
97,Brigade Street,A1C 0A6,47.5595658,-52.7236459
95,Brigade Street,A1C 0A6,47.5595234,-52.7236820
214,Buckmaster's Circle,A1C 4W1,47.5587242,-52.7235521
216,Buckmaster's Circle,A1C 4W1,47.5586809,-52.7235677
218,Buckmaster's Circle,A1C 4W1,47.5586380,-52.7236020
220,Buckmaster's Circle,A1C 4W1,47.5585932,-52.7236398
222,Buckmaster's Circle,A1C 4W1,47.5585477,-52.7236776
224,Buckmaster's Circle,A1C 4W1,47.5585047,-52.7237159
212,Buckmaster's Circle,A1C 4V9,47.5589246,-52.7242556
210,Buckmaster's Circle,A1C 4V9,47.5589494,-52.7243189
208,Buckmaster's Circle,A1C 4V9,47.5589741,-52.7243819
190,Buckmaster's Circle,A1C 4V9,47.5594542,-52.7247000
192,Buckmaster's Circle,A1C 4V9,47.5594059,-52.7246851
194,Buckmaster's Circle,A1C 4V9,47.5593577,-52.7246703
182,Buckmaster's Circle,A1C 4V9,47.5596764,-52.7247330
184,Buckmaster's Circle,A1C 4V9,47.5596267,-52.7247185
186,Buckmaster's Circle,A1C 4V9,47.5595769,-52.7247042
198,Buckmaster's Circle,A1C 4V9,47.5591337,-52.7245642
200,Buckmaster's Circle,A1C 4V9,47.5590910,-52.7246014
202,Buckmaster's Circle,A1C 4V9,47.5590482,-52.7246389
61,Buckmaster's Circle,A1C 4V7,47.5597652,-52.7227918
63,Buckmaster's Circle,A1C 4V7,47.5597154,-52.7228355
65,Buckmaster's Circle,A1C 4V7,47.5596649,-52.7228799
67,Buckmaster's Circle,A1C 4V7,47.5596147,-52.7229239
103,Brigade Street,A1C 0A6,47.5594215,-52.7233082
105,Brigade Street,A1C 0A6,47.5594701,-52.7232657
107,Brigade Street,A1C 0A6,47.5595190,-52.7232240
133,Buckmaster's Circle,A1C 4V7,47.5599141,-52.7236748
131,Buckmaster's Circle,A1C 4V7,47.5598892,-52.7236102
129,Buckmaster's Circle,A1C 4V7,47.5599617,-52.7234404
127,Buckmaster's Circle,A1C 4V7,47.5598393,-52.7234811
185,Buckmaster's Circle,A1C 4V7,47.5594161,-52.7241803
181,Buckmaster's Circle,A1C 4V7,47.5594662,-52.7241367
177,Buckmaster's Circle,A1C 4V7,47.5595165,-52.7240932
173,Buckmaster's Circle,A1C 4V7,47.5595673,-52.7240492
169,Buckmaster's Circle,A1C 4V7,47.5596175,-52.7240061
172,Buckmaster's Circle,A1C 4V9,47.5598780,-52.7245595
174,Buckmaster's Circle,A1C 4V9,47.5598672,-52.7246452
176,Buckmaster's Circle,A1C 4V9,47.5598563,-52.7247310
178,Buckmaster's Circle,A1C 4V9,47.5598456,-52.7248168
180,Buckmaster's Circle,A1C 4V9,47.5598346,-52.7249026
162,Buckmaster's Circle,A1C 4V9,47.5598857,-52.7249178
164,Buckmaster's Circle,A1C 4V9,47.5598964,-52.7248321
166,Buckmaster's Circle,A1C 4V9,47.5599072,-52.7247462
168,Buckmaster's Circle,A1C 4V9,47.5599178,-52.7246605
170,Buckmaster's Circle,A1C 4V9,47.5599285,-52.7245748
204,Buckmaster's Circle,A1C 4V9,47.5589956,-52.7246522
206,Buckmaster's Circle,A1C 4V9,47.5589528,-52.7246899
157,Buckmaster's Circle,A1C 4V7,47.5597618,-52.7238608
161,Buckmaster's Circle,A1C 4V7,47.5597116,-52.7239044
165,Buckmaster's Circle,A1C 4V7,47.5596615,-52.7239472
248,Buckmaster's Circle,A1C 4W1,47.5582794,-52.7230730
246,Buckmaster's Circle,A1C 4W1,47.5583201,-52.7230383
244,Buckmaster's Circle,A1C 4W1,47.5583611,-52.7230035
242,Buckmaster's Circle,A1C 4W1,47.5584016,-52.7229686
232,Buckmaster's Circle,A1C 4W1,47.5584699,-52.7232970
230,Buckmaster's Circle,A1C 4W1,47.5584195,-52.7233401
228,Buckmaster's Circle,A1C 4W1,47.5583686,-52.7233822
226,Buckmaster's Circle,A1C 4W1,47.5583178,-52.7234246
236,Buckmaster's Circle,A1C 4W1,47.5585845,-52.7232504
234,Buckmaster's Circle,A1C 4W1,47.5585356,-52.7232917
238,Buckmaster's Circle,A1C 4W1,47.5584987,-52.7229392
240,Buckmaster's Circle,A1C 4W1,47.5584581,-52.7229741
38,Buckmaster's Circle,A1C 4V8,47.5605852,-52.7217902
40,Buckmaster's Circle,A1C 4V8,47.5605638,-52.7218515
42,Buckmaster's Circle,A1C 4V8,47.5605147,-52.7218947
44,Buckmaster's Circle,A1C 4V8,47.5604905,-52.7219566
46,Buckmaster's Circle,A1C 4V8,47.5604664,-52.7220187
48,Buckmaster's Circle,A1C 4V8,47.5604440,-52.7220805
36,Buckmaster's Circle,A1C 4V8,47.5604575,-52.7216195
34,Buckmaster's Circle,A1C 4V8,47.5604801,-52.7215577
32,Buckmaster's Circle,A1C 4V8,47.5605041,-52.7214956
30,Buckmaster's Circle,A1C 4V8,47.5605283,-52.7214337
28,Buckmaster's Circle,A1C 4V8,47.5605774,-52.7213905
26,Buckmaster's Circle,A1C 4V8,47.5605988,-52.7213292
24,Buckmaster's Circle,A1C 4V8,47.5604727,-52.7211530
22,Buckmaster's Circle,A1C 4V8,47.5604951,-52.7210912
20,Buckmaster's Circle,A1C 4V8,47.5605192,-52.7210290
18,Buckmaster's Circle,A1C 4V8,47.5605434,-52.7209672
16,Buckmaster's Circle,A1C 4V8,47.5605925,-52.7209239
14,Buckmaster's Circle,A1C 4V8,47.5606139,-52.7208628
2,Buckmaster's Circle,A1C 4V8,47.5606310,-52.7204038
4,Buckmaster's Circle,A1C 4V8,47.5606080,-52.7204651
6,Buckmaster's Circle,A1C 4V8,47.5605834,-52.7205268
8,Buckmaster's Circle,A1C 4V8,47.5605585,-52.7205883
10,Buckmaster's Circle,A1C 4V8,47.5605092,-52.7206305
12,Buckmaster's Circle,A1C 4V8,47.5604872,-52.7206913
111,Brigade Street,A1C 0A6,47.5596255,-52.7231431
109,Brigade Street,A1C 0A6,47.5595742,-52.7231874
47,Buckmaster's Circle,A1C 4V7,47.5600110,-52.7224451
49,Buckmaster's Circle,A1C 4V7,47.5599686,-52.7224813
53,Buckmaster's Circle,A1C 4V7,47.5598837,-52.7225535
55,Buckmaster's Circle,A1C 4V7,47.5598407,-52.7225799
57,Buckmaster's Circle,A1C 4V7,47.5598010,-52.7226126
59,Buckmaster's Circle,A1C 4V7,47.5597609,-52.7226482
229,Buckmaster's Circle,A1C 4V7,47.5589038,-52.7232051
225,Buckmaster's Circle,A1C 4V7,47.5589334,-52.7232806
221,Buckmaster's Circle,A1C 4V7,47.5589549,-52.7233638
217,Buckmaster's Circle,A1C 4V7,47.5589862,-52.7234392
85,Brigade Street,A1C 0A6,47.5592025,-52.7232517
83,Brigade Street,A1C 0A6,47.5591712,-52.7231764
81,Brigade Street,A1C 0A6,47.5591497,-52.7230931
79,Brigade Street,A1C 0A6,47.5591201,-52.7230176
195,Buckmaster's Circle,A1C 4V7,47.5592042,-52.7240838
199,Buckmaster's Circle,A1C 4V7,47.5591725,-52.7240057
203,Buckmaster's Circle,A1C 4V7,47.5591407,-52.7239276
207,Buckmaster's Circle,A1C 4V7,47.5591088,-52.7238493
93,Brigade Street,A1C 0A6,47.5594081,-52.7238873
91,Brigade Street,A1C 0A6,47.5593825,-52.7237899
89,Brigade Street,A1C 0A6,47.5593550,-52.7237213
87,Brigade Street,A1C 0A6,47.5593274,-52.7236527
13,Ricketts Road,A1C 2J6,47.5583805,-52.7216392
39,Ricketts Road,A1C 2J6,47.5590514,-52.7216538
49,Ricketts Road,A1C 2J6,47.5593226,-52.7213944
51,Ricketts Road,A1C 2J6,47.5593711,-52.7213527
53,Ricketts Road,A1C 2J6,47.5594195,-52.7213110
55,Ricketts Road,A1C 2J6,47.5594680,-52.7212693
57,Ricketts Road,A1C 2J6,47.5595165,-52.7212276
59,Ricketts Road,A1C 2J6,47.5595649,-52.7211859
61,Ricketts Road,A1C 2J6,47.5596134,-52.7211442
63,Ricketts Road,A1C 2J6,47.5596618,-52.7211034
65,Ricketts Road,A1C 2J6,47.5597100,-52.7210608
47,Ricketts Road,A1C 2J6,47.5592508,-52.7214804
45,Ricketts Road,A1C 2J6,47.5592010,-52.7215238
43,Ricketts Road,A1C 2J6,47.5591511,-52.7215671
41,Ricketts Road,A1C 2J6,47.5591012,-52.7216104
25,Ricketts Road,A1C 2J6,47.5588775,-52.7214255
23,Ricketts Road,A1C 2J6,47.5588338,-52.7214636
21,Ricketts Road,A1C 2J6,47.5587907,-52.7215016
19,Ricketts Road,A1C 2J6,47.5587476,-52.7215397
17,Ricketts Road,A1C 2J6,47.5587045,-52.7215777
15,Ricketts Road,A1C 2J6,47.5586613,-52.7216158
37,Ricketts Road,A1C 2J6,47.5590974,-52.7210805
35,Ricketts Road,A1C 2J6,47.5590543,-52.7211184
33,Ricketts Road,A1C 2J6,47.5590112,-52.7211554
31,Ricketts Road,A1C 2J6,47.5589682,-52.7211930
29,Ricketts Road,A1C 2J6,47.5589251,-52.7212305
27,Ricketts Road,A1C 2J6,47.5588820,-52.7212679
71,Ricketts Road,A1C 2J6,47.5591725,-52.7210848
69,Ricketts Road,A1C 2J6,47.5592170,-52.7210479
71,Ricketts Road,A1C 2J6,47.5592614,-52.7210112
73,Ricketts Road,A1C 2J6,47.5593059,-52.7209744
75,Ricketts Road,A1C 2J6,47.5593502,-52.7209376
77,Ricketts Road,A1C 2J6,47.5593947,-52.7209008
79,Ricketts Road,A1C 2J6,47.5594391,-52.7208641
81,Ricketts Road,A1C 2J6,47.5594835,-52.7208272
83,Ricketts Road,A1C 2J6,47.5595279,-52.7207905
85,Ricketts Road,A1C 2J6,47.5595723,-52.7207537
95,Ricketts Road,A1C 2J6,47.5597852,-52.7205410
93,Ricketts Road,A1C 2J6,47.5597430,-52.7205776
91,Ricketts Road,A1C 2J6,47.5597009,-52.7206142
89,Ricketts Road,A1C 2J6,47.5596588,-52.7206507
87,Ricketts Road,A1C 2J6,47.5596168,-52.7206873
13,Buckmaster's Circle,A1C 4V7,47.5600271,-52.7205149
11,Buckmaster's Circle,A1C 4V7,47.5599759,-52.7205587
9,Buckmaster's Circle,A1C 4V7,47.5599249,-52.7206024
7,Buckmaster's Circle,A1C 4V7,47.5598739,-52.7206462
1,Buckmaster's Circle,A1C 4V7,47.5600819,-52.7201980
3,Buckmaster's Circle,A1C 4V7,47.5601121,-52.7202751
5,Buckmaster's Circle,A1C 4V7,47.5601418,-52.7203518
134,Ricketts Road,A1C 6M7,47.5608352,-52.7190124
132,Ricketts Road,A1C 6M7,47.5607864,-52.7190547
130,Ricketts Road,A1C 6M7,47.5607371,-52.7190969
128,Ricketts Road,A1C 6M7,47.5606881,-52.7191392
126,Ricketts Road,A1C 6M7,47.5606390,-52.7191814
124,Ricketts Road,A1C 6M7,47.5605900,-52.7192237
112,Ricketts Road,A1C 6M7,47.5602609,-52.7195078
114,Ricketts Road,A1C 6M7,47.5603098,-52.7194655
116,Ricketts Road,A1C 2M7,47.5603586,-52.7194231
118,Ricketts Road,A1C 2M7,47.5604074,-52.7193808
120,Ricketts Road,A1C 6M7,47.5604563,-52.7193376
122,Ricketts Road,A1C 6M7,47.5605062,-52.7192961
105,Ricketts Road,A1C 2J7,47.5604461,-52.7199458
107,Ricketts Road,A1C 2J7,47.5604872,-52.7199104
109,Ricketts Road,A1C 2J7,47.5605283,-52.7198749
111,Ricketts Road,A1C 2J7,47.5605693,-52.7198394
113,Ricketts Road,A1C 2J7,47.5606104,-52.7198040
115,Ricketts Road,A1C 2J7,47.5606516,-52.7197685
117,Ricketts Road,A1C 2J7,47.5606926,-52.7197335
119,Ricketts Road,A1C 2J7,47.5607342,-52.7196976
8,Vimy Avenue,A1E 1T9,47.5540401,-52.7318578
24,Vimy Avenue,A1E 1T9,47.5538452,-52.7324397
32,Vimy Avenue,A1E 1T9,47.5536905,-52.7327853
81,Froude Avenue,A1E 3B8,47.5535514,-52.7333960
49,Froude Avenue,A1E 3B8,47.5527830,-52.7331543
25,Froude Avenue,A1E 3B8,47.5524556,-52.7324118
33,Froude Avenue,A1E 3B8,47.5524209,-52.7327785
11,Froude Avenue,A1E 3B8,47.5521352,-52.7327145
26,Froude Avenue,A1E 3B9,47.5525755,-52.7321354
47,Vickers Avenue,A1E 1T8,47.5526761,-52.7321252
18,Froude Avenue,A1E 3B9,47.5524668,-52.7318164
39,Vickers Avenue,A1E 1T8,47.5528050,-52.7318466
31,Vickers Avenue,A1E 1T8,47.5528188,-52.7315636
17,Vickers Avenue,A1E 1T8,47.5529217,-52.7313167
15,Vickers Avenue,A1E 1T8,47.5530558,-52.7312842
7,Vickers Avenue,A1E 1T8,47.5531668,-52.7309880
127,Cashin Avenue Extension,A1E 3B7,47.5528640,-52.7308913
125,Cashin Avenue Extension,A1E 3B7,47.5524691,-52.7305942
117,Cashin Avenue Extension,A1E 3B7,47.5526237,-52.7301735
135,Cashin Avenue Extension,A1E 3B7,47.5530366,-52.7305860
137,Cashin Avenue Extension,A1E 3B7,47.5530843,-52.7306254
139,Cashin Avenue Extension,A1E 3B7,47.5531334,-52.7306661
141,Cashin Avenue Extension,A1E 3B7,47.5531825,-52.7307067
120,Cashin Avenue Extension,A1E 3B6,47.5530851,-52.7299722
122,Cashin Avenue Extension,A1E 3B6,47.5531263,-52.7300065
124,Cashin Avenue Extension,A1E 3B6,47.5531675,-52.7300409
126,Cashin Avenue Extension,A1E 3B6,47.5532087,-52.7300751
128,Cashin Avenue Extension,A1E 3B6,47.5532821,-52.7301640
130,Cashin Avenue Extension,A1E 3B6,47.5533300,-52.7302042
132,Cashin Avenue Extension,A1E 3B6,47.5533778,-52.7302443
134,Cashin Avenue Extension,A1E 3B6,47.5534257,-52.7302845
136,Cashin Avenue Extension,A1E 3B6,47.5535156,-52.7303225
138,Cashin Avenue Extension,A1E 3B6,47.5535561,-52.7303560
140,Cashin Avenue Extension,A1E 3B6,47.5535967,-52.7303893
142,Cashin Avenue Extension,A1E 3B6,47.5536372,-52.7304228
144,Cashin Avenue Extension,A1E 3B6,47.5536778,-52.7304561
146,Cashin Avenue Extension,A1E 3B6,47.5537183,-52.7304896
148,Cashin Avenue Extension,A1E 3B6,47.5537588,-52.7305230
150,Cashin Avenue Extension,A1E 3B6,47.5537994,-52.7305564
158,Cashin Avenue Extension,A1E 3B6,47.5540240,-52.7307627
156,Cashin Avenue Extension,A1E 3B6,47.5539751,-52.7307226
154,Cashin Avenue Extension,A1E 3B6,47.5539262,-52.7306825
152,Cashin Avenue Extension,A1E 3B6,47.5538772,-52.7306423
181,Cashin Avenue Extension,A1E 3B7,47.5543311,-52.7317094
179,Cashin Avenue Extension,A1E 3B7,47.5542897,-52.7316758
177,Cashin Avenue Extension,A1E 3B7,47.5542482,-52.7316421
175,Cashin Avenue Extension,A1E 3B7,47.5542067,-52.7316084
2,Vimy Avenue,A1E 1T9,47.5541202,-52.7316411
4,Vimy Avenue,A1E 1T9,47.5540935,-52.7317133
6,Vimy Avenue,A1E 1T9,47.5540668,-52.7317856
10,Vimy Avenue,A1E 1T9,47.5540002,-52.7320151
12,Vimy Avenue,A1E 1T9,47.5539780,-52.7320757
14,Vimy Avenue,A1E 1T9,47.5539559,-52.7321364
16,Vimy Avenue,A1E 1T9,47.5539337,-52.7321971
18,Vimy Avenue,A1E 1T9,47.5539116,-52.7322578
20,Vimy Avenue,A1E 1T9,47.5538894,-52.7323184
22,Vimy Avenue,A1E 1T9,47.5538673,-52.7323791
26,Vimy Avenue,A1E 1T9,47.5537723,-52.7325720
28,Vimy Avenue,A1E 1T9,47.5537451,-52.7326431
30,Vimy Avenue,A1E 1T9,47.5537178,-52.7327142
20,Froude Avenue,A1E 3B9,47.5524256,-52.7320280
22,Froude Avenue,A1E 3B9,47.5524756,-52.7320638
24,Froude Avenue,A1E 3B9,47.5525255,-52.7320996
17,Froude Avenue,A1E 3B8,47.5521959,-52.7325259
15,Froude Avenue,A1E 3B8,47.5521757,-52.7325888
13,Froude Avenue,A1E 3B8,47.5521555,-52.7326517
19,Froude Avenue,A1E 3B8,47.5523055,-52.7323045
21,Froude Avenue,A1E 3B8,47.5523556,-52.7323403
23,Froude Avenue,A1E 3B8,47.5524056,-52.7323760
27,Froude Avenue,A1E 3B8,47.5524816,-52.7325900
29,Froude Avenue,A1E 3B8,47.5524614,-52.7326529
31,Froude Avenue,A1E 3B8,47.5524411,-52.7327157
35,Froude Avenue,A1E 3B8,47.5524877,-52.7329460
37,Froude Avenue,A1E 3B8,47.5525298,-52.7329758
39,Froude Avenue,A1E 3B8,47.5525720,-52.7330056
41,Froude Avenue,A1E 3B8,47.5526142,-52.7330353
43,Froude Avenue,A1E 3B8,47.5526563,-52.7330651
45,Froude Avenue,A1E 3B8,47.5526986,-52.7330949
47,Froude Avenue,A1E 3B8,47.5527407,-52.7331246
67,Froude Avenue,A1E 3B8,47.5532561,-52.7331877
69,Froude Avenue,A1E 3B8,47.5532983,-52.7332175
71,Froude Avenue,A1E 3B8,47.5533405,-52.7332473
73,Froude Avenue,A1E 3B8,47.5533826,-52.7332770
75,Froude Avenue,A1E 3B8,47.5534248,-52.7333068
77,Froude Avenue,A1E 3B8,47.5534670,-52.7333366
79,Froude Avenue,A1E 3B8,47.5535092,-52.7333663
83,Froude Avenue,A1E 3B8,47.5537524,-52.7334302
59,Froude Avenue,A1E 3B8,47.5530422,-52.7329287
111,Cashin Avenue Extension,A1E 3B7,47.5524738,-52.7300663
113,Cashin Avenue Extension,A1E 3B7,47.5525238,-52.7301020
115,Cashin Avenue Extension,A1E 3B7,47.5525738,-52.7301377
119,Cashin Avenue Extension,A1E 3B7,47.5525381,-52.7304084
121,Cashin Avenue Extension,A1E 3B7,47.5525151,-52.7304703
123,Cashin Avenue Extension,A1E 3B7,47.5524921,-52.7305322
133,Cashin Avenue Extension,A1E 3B7,47.5529343,-52.7307085
131,Cashin Avenue Extension,A1E 3B7,47.5529109,-52.7307694
129,Cashin Avenue Extension,A1E 3B7,47.5528874,-52.7308303
1,Vickers Avenue,A1E 1T8,47.5532358,-52.7308022
3,Vickers Avenue,A1E 1T8,47.5532128,-52.7308642
5,Vickers Avenue,A1E 1T8,47.5531898,-52.7309261
12,Froude Avenue,A1E 3B9,47.5525360,-52.7316306
14,Froude Avenue,A1E 3B9,47.5525130,-52.7316926
16,Froude Avenue,A1E 3B9,47.5524899,-52.7317544
25,Vickers Avenue,A1E 1T8,47.5526687,-52.7314564
27,Vickers Avenue,A1E 1T8,47.5527187,-52.7314922
29,Vickers Avenue,A1E 1T8,47.5527687,-52.7315279
23,Vickers Avenue,A1E 1T8,47.5527716,-52.7312095
21,Vickers Avenue,A1E 1T8,47.5528216,-52.7312452
19,Vickers Avenue,A1E 1T8,47.5528717,-52.7312809
9,Vickers Avenue,A1E 1T8,47.5531248,-52.7310983
11,Vickers Avenue,A1E 1T8,47.5531018,-52.7311603
13,Vickers Avenue,A1E 1T8,47.5530788,-52.7312223
33,Vickers Avenue,A1E 1T8,47.5528740,-52.7316608
35,Vickers Avenue,A1E 1T8,47.5528510,-52.7317227
37,Vickers Avenue,A1E 1T8,47.5528280,-52.7317847
41,Vimy Avenue,A1E 1T8,47.5527453,-52.7319394
43,Vickers Avenue,A1E 1T8,47.5527223,-52.7320013
45,Vickers Avenue,A1E 1T8,47.5526993,-52.7320632
65,Froude Avenue,A1E 3B8,47.5531965,-52.7330389
63,Froude Avenue,A1E 3B8,47.5531451,-52.7330021
61,Froude Avenue,A1E 3B8,47.5530936,-52.7329654
60,Blackmarsh Road,A1E 1S7,47.5514780,-52.7317553
58,Blackmarsh Road,A1E 1S5,47.5516151,-52.7315043
5,Froude Avenue,A1E 3B8,47.5517156,-52.7320312
7,Froude Avenue,A1E 3B8,47.5517856,-52.7321226
9,Froude Avenue,A1E 3B8,47.5518960,-52.7322014
10,Froude Avenue,A1E 3B9,47.5520837,-52.7318162
8,Froude Avenue,A1E 3B9,47.5520084,-52.7317195
6,Froude Avenue,A1E 3B9,47.5519213,-52.7316542
38,Blackmarsh Road,A1E 1S5,47.5522809,-52.7302384
40,Blackmarsh Road,A1E 1S5,47.5521040,-52.7303939
42,Blackmarsh Road,A1E 1S5,47.5520568,-52.7305254
44,Blackmarsh Road,A1E 1S5,47.5519900,-52.7306981
50,Blackmarsh Road,A1E 1S5,47.5518875,-52.7309465
46,Blackmarsh Road,A1E 1S5,47.5519589,-52.7307717
44,Blackmarsh Road,A1E 1S5,47.5518575,-52.7310211
52,Blackmarsh Road,A1E 1S5,47.5517499,-52.7311447
54,Blackmarsh Road,A1E 1S5,47.5516908,-52.7312378
56,Blackmarsh Road,A1E 1S5,47.5516436,-52.7313573
2,St. Theresa's Court,A1E 4Y9,47.5539225,-52.7377589
4,St. Theresa's Court,A1E 4Y9,47.5539689,-52.7377962
5,St. Theresa's Court,A1E 4Y9,47.5538734,-52.7383440
7,St. Theresa's Court,A1E 4Y9,47.5539218,-52.7383767
9,St. Theresa's Court,A1E 4Y9,47.5539950,-52.7384557
11,St. Theresa's Court,A1E 4Y9,47.5540427,-52.7384903
13,St. Theresa's Court,A1E 4Y9,47.5541268,-52.7385727
15,St. Theresa's Court,A1E 4Y9,47.5541735,-52.7386094
19,St. Theresa's Court,A1E 4Y9,47.5542980,-52.7387206
17,St. Theresa's Court,A1E 4Y9,47.5542514,-52.7386840
30,St. Theresa's Court,A1E 4Y9,47.5546209,-52.7384026
29,St. Theresa's Court,A1E 4Y9,47.5546053,-52.7384795
22,St. Theresa's Court,A1E 4Y9,47.5546497,-52.7379703
24,St. Theresa's Court,A1E 4Y9,47.5546820,-52.7380298
18,St. Theresa's Court,A1E 4Y9,47.5544723,-52.7379126
20,St. Theresa's Court,A1E 4Y9,47.5545282,-52.7379212
16,St. Theresa's Court,A1E 4Y9,47.5543766,-52.7378911
14,St. Theresa's Court,A1E 4Y9,47.5543206,-52.7378824
8,St. Theresa's Court,A1E 4Y9,47.5540888,-52.7379059
6,St. Theresa's Court,A1E 4Y9,47.5540424,-52.7378686
4,Pond View Court,A1E 4V7,47.5537237,-52.7386438
2,Pond View Court,A1E 4V7,47.5536798,-52.7386088
8,Pond View Court,A1E 4V7,47.5538490,-52.7387560
6,Pond View Court,A1E 4V7,47.5538051,-52.7387211
102,Terra Nova Road,A1B 1G2,47.5592005,-52.7443192
122,Terra Nova Road,A1B 1G2,47.5589712,-52.7450828
124,Terra Nova Road,A1B 1G2,47.5588254,-52.7452690
136,Airport Road,A1A 4Y3,47.6072319,-52.7411685
287,Kenmount Road,A1B 3M9,47.5506143,-52.7757723
287,Kenmount Road,A1B 3M9,47.5510894,-52.7757782
315,Kenmount Road,A1B 3P9,47.5500227,-52.7779632
18,Craig Dobbins Way,A1A 4Y3,47.6087935,-52.7425998
149,Airport Road,A1A 5B5,47.6079603,-52.7422459
15,Wickham Place,A1B 3L5,47.5630537,-52.7531457
71,Elizabeth Avenue,A1A 1W8,47.5818424,-52.7125762
355,Main Road,A1S 1J9,47.4630036,-52.7699714
435,Back Line,A1S 1G6,47.4592999,-52.7826597
61,Kelsey Drive,A1B 5C8,47.5528997,-52.7821340
75,Kelsey Drive,A1B 0C7,47.5531060,-52.7822845
115,Kelsey Drive,A1B 0L2,47.5577342,-52.7816738
16,Central Street,A1C 1W2,47.5604362,-52.7146047
18,Central Street,A1C 1W2,47.5603850,-52.7146101
50,O'Leary Avenue,A1B 2C7,47.5601958,-52.7623628
129,Buckmaster's Circle,A1C 4V7,47.5598640,-52.7235456
30,Monroe Street,A1C 1X8,47.5604967,-52.7160653
27,Peppertree Place,A1H 1A3,47.4942540,-52.8186535
694,Water Street,A1E 6E3,47.5501272,-52.7185774
7,Lilac Crescent,A1H 0M9,47.4983541,-52.8134252
85,Messenger Drive,A1B 4R1,47.5573110,-52.7914140
222,Kenmount Road,A1B 3R2,47.5535316,-52.7734837
208,Kenmount Road,A1B 3P2,47.5540718,-52.7716171
391,Kenmount Road,A1B 3P9,47.5476568,-52.7828946
415,Kenmount Road,A1B 3P9,47.5470652,-52.7851081
12,Gleneyre Street,A1A 2M7,47.6016915,-52.7130394
340,Newfoundland Drive,A1A 3R9,47.6018297,-52.7063465
14,Middleton Street,A1A 3H9,47.5976333,-52.6920171
24,Sitka Street,A1H 0G5,47.4860912,-52.8188524
57,Kenai Crescent,A1H 0G5,47.4870202,-52.8168744
340,Torbay Road,A1A 4E1,47.6030454,-52.7157478
330,Torbay Road,A1A 4E1,47.6028946,-52.7148630
2,Fogwill Place,A1A 4Y6,47.6138157,-52.7242277
115,Hussey Drive,A1A 4Y6,47.6140134,-52.7241097
248,Torbay Road,A1A 2H4,47.5987641,-52.7106730
427,Newfoundland Drive,A1A 4A5,47.5993390,-52.7102646
145,Churchill Avenue,A1A0N9,47.5829620,-52.6973003
39,Weymouth Street,A1B 2B7,47.5656695,-52.7513360
41,Weymouth Street,A1B 2B7,47.5654610,-52.7515384
40,Weymouth Street,A1B 2B6,47.5659856,-52.7516919
34;34A;34B,Weymouth Street,A1B 2B6;A1B 2B7,47.5663294,-52.7513412
36,Weymouth Street,A1B 2B6,47.5662135,-52.7514520
38;38A,Weymouth Street,A1B 2B6,47.5661023,-52.7515883
32;32A,Weymouth Street,A1B 2B6,47.5664432,-52.7512275
30,Weymouth Street,A1B 2B6,47.5665603,-52.7511145
28,Weymouth Street,A1B 2B6,47.5666841,-52.7510013
26,Weymouth Street,A1B 2B6,47.5668000,-52.7508664
24;24A,Weymouth Street,A1B 2B6,47.5669203,-52.7507590
22,Weymouth Street,A1B 2B6,47.5670601,-52.7506562
20;20A,Weymouth Street,A1B 2B6,47.5671508,-52.7505067
18;18A,Weymouth Street,A1B 2B6,47.5672639,-52.7503478
16;16A,Weymouth Street,A1B 2B6,47.5673604,-52.7501717
21;21A,Weymouth Street,A1B 2B7,47.5666868,-52.7503435
19;19A;19B,Weymouth Street,A1B 2B7,47.5668065,-52.7501980
17,Weymouth Street,A1B 2B7,47.5669166,-52.7500846
23,Weymouth Street,A1B 2B7,47.5665740,-52.7504581
25;25A,Weymouth Street,A1B 2B7,47.5664606,-52.7505697
27,Weymouth Street,A1B 2B7,47.5663423,-52.7506669
29;29A,Weymouth Street,A1B 2B7,47.5662329,-52.7507924
31,Weymouth Street,A1B 2B7,47.5661086,-52.7509025
33,Weymouth Street,A1B 2B7,47.5659945,-52.7510097
37;37A,Weymouth Street,A1B 2B7,47.5657664,-52.7512297
35;35A;35B,Weymouth Street,A1B 2B7,47.5658891,-52.7511294
42,Vinnicombe Street,A1B 3L1,47.5645011,-52.7538674
40,Vinnicombe Street,A1B 3L1,47.5644607,-52.7536997
38;38A,Vinnicombe Street,A1B 3L1,47.5644128,-52.7534889
36;36A,Vinnicombe Street,A1B 3L1,47.5643866,-52.7532815
34;34A,Vinnicombe Street,A1B 3L1,47.5643816,-52.7530727
32,Vinnicombe Street,A1B 3L1,47.5643683,-52.7528702
30,Vinnicombe Street,A1B 3L1,47.5643515,-52.7526572
28,Vinnicombe Street,A1B 3L1,47.5643408,-52.7524626
26;26A,Vinnicombe Street,A1B 3L1,47.5643310,-52.7522638
24;24A,Vinnicombe Street,A1B 3L1,47.5643209,-52.7520602
22;22A,Vinnicombe Street,A1B 3L1,47.5643291,-52.7518520
20,Vinnicombe Street,A1B 3L1,47.5643092,-52.7516699
18;18A,Vinnicombe Street,A1B 3L1,47.5642878,-52.7514714
16;16A,Vinnicombe Street,A1B 3L1,47.5642749,-52.7512583
14,Vinnicombe Street,A1B 3L1,47.5642730,-52.7510368
12,Vinnicombe Street,A1B 3L1,47.5642396,-52.7508452
10;10A,Vinnicombe Street,A1B 3K9,47.5642078,-52.7506363
1,Vinnicombe Place,A1B 2B5,47.5644927,-52.7506468
2,Vinnicombe Place,A1B 2B5,47.5646497,-52.7504477
3,Vinnicombe Place,A1B 2B5,47.5646397,-52.7501484
4,Vinnicombe Place,A1B 2B5,47.5645298,-52.7499454
5;5A,Vinnicombe Place,A1B 2B5,47.5643635,-52.7499757
35,Baird Place,A1B 2A7,47.5649109,-52.7488127
62;62A,Baird Place,A1B 2B1,47.5630332,-52.7500391
26,Baird Place,A1B 2A6,47.5658444,-52.7490631
24,Baird Place,A1B 2A6,47.5660000,-52.7489894
3,Glasgow Place,A1B 2B3,47.5661525,-52.7489061
5;5A,Glasgow Place,A1B 2B3,47.5662538,-52.7491082
18;18A,Baird Place,A1B 2A5,47.5664700,-52.7486253
4,Glasgow Place,A1B 2B4,47.5665797,-52.7488551
8;8A,Glasgow Place,A1B 2B4,47.5667575,-52.7493286
6,Glasgow Place,A1B 2B4,47.5666679,-52.7490693
10,Glasgow Place,A1B 2B4,47.5667169,-52.7496099
12,Glasgow Place,A1B 2B4,47.5666013,-52.7498158
14,Glasgow Place,A1B 2B4,47.5664563,-52.7499965
16,Glasgow Place,A1B 2B4,47.5663267,-52.7501259
18,Glasgow Place,A1B 2B4,47.5661970,-52.7502660
7,Glasgow Place,A1B 2B3,47.5663254,-52.7493517
11,Glasgow Place,A1B 2B3,47.5662034,-52.7495579
13,Glasgow Place,A1B 2B3,47.5660860,-52.7496963
15,Glasgow Place,A1B 2B3,47.5659141,-52.7497252
17,Glasgow Place,A1B 2B3,47.5657321,-52.7497755
19,Glasgow Place,A1B 2B3,47.5656527,-52.7500624
21,Glasgow Place,A1B 2B3,47.5656836,-52.7503589
22;22A,Glasgow Place,A1B 2B4,47.5658704,-52.7504946
20,Glasgow Place,A1B 2B4,47.5660751,-52.7504252
28,Baird Place,A1B 2A6,47.5657092,-52.7491337
30,Baird Place,A1B 2A6,47.5655597,-52.7491903
72A,Oxen Pond Road,A1B 3J5,47.5653617,-52.7493336
74,Oxen Pond Road,A1B 3J5,47.5653148,-52.7496036
32,Cessna Street,A1A 5Y4,47.6060411,-52.7526273
87,Oxen Pond Road,A1B 3J6,47.5650605,-52.7511638
85;85A;85B;85C,Oxen Pond Road,A1B 3J6,47.5650154,-52.7508323
83;83A,Oxen Pond Road,A1B 3J6,47.5649878,-52.7505409
81,Oxen Pond Road,A1B 3J6,47.5649780,-52.7503229
79,Oxen Pond Road,A1B 3J6,47.5649798,-52.7501154
77,Oxen Pond Road,A1B 3J6,47.5649626,-52.7499058
75;75A,Oxen Pond Road,A1B 3J6,47.5649583,-52.7496828
"36,36A",Baird Place,A1B 2A8,47.5649191,-52.7493709
38;38A,Baird Place,A1B 2A8,47.5647729,-52.7494109
40;40A,Baird Place,A1B 2A8,47.5646152,-52.7494770
42;42A,Baird Place,A1B 2A8,47.5644488,-52.7495271
37A;37,Baird Place,A1B 2A7,47.5646932,-52.7488651
39,Baird Place,A1B 2A7,47.5645451,-52.7489120
41;41A,Baird Place,A1B 2A7,47.5644285,-52.7489657
43,Baird Place,A1B 2A7,47.5642870,-52.7490179
47,Baird Place,A1B 2A7,47.5640128,-52.7491321
45,Baird Place,A1B 2A7,47.5641512,-52.7490728
2,Otter Drive,A1A 0B3,47.6048042,-52.7474309
95,Oxen Pond Road,A1B 3J6,47.5645752,-52.7510591
91,Oxen Pond Road,A1B 3J6,47.5650545,-52.7514530
93,Oxen Pond Road,A1B 3J6,47.5650462,-52.7516206
3,Oxen Pond Place,A1B 4E1,47.5649188,-52.7521040
97;97A,Oxen Pond Road,A1B 3J6,47.5649968,-52.7519106
5;5A,Oxen Pond Place,A1B 4E1,47.5647619,-52.7521921
7,Oxen Pond Place,A1B 4E1,47.5646389,-52.7523927
8,Oxen Pond Place,A1B 4E1,47.5646522,-52.7528253
6,Oxen Pond Place,A1B 4E1,47.5648890,-52.7529380
4,Oxen Pond Place,A1B 4E1,47.5650792,-52.7527805
2,Oxen Pond Place,A1B 4E1,47.5652250,-52.7526001
96;96A,Oxen Pond Road,A1B 3J7,47.5655098,-52.7521678
46;46A,Weymouth Street,A1B 2B6,47.5656219,-52.7520464
44,Weymouth Street,A1B 2B6,47.5657464,-52.7519537
42;42A,Weymouth Street,A1B 2B6,47.5658701,-52.7518221
98;98A,Oxen Pond Road,A1B 3J7,47.5655881,-52.7524495
41,Larkhall Street,A1B 2C5,47.5658511,-52.7531687
43,Larkhall Street,A1B 2C5,47.5659767,-52.7530132
45,Larkhall Street,A1B 2C5,47.5661004,-52.7528884
2,Wickham Place,A1B 3L5,47.5626544,-52.7530954
16,Wickham Place,A1B3L5,47.5630092,-52.7529378
14,Wickham Place,A1B 3L5,47.5630973,-52.7533613
13,Wickham Place,A1B 3L5,47.5631449,-52.7535991
12,Wickham Place,A1B 3L5,47.5631860,-52.7538144
12,Wickham Place,A1B 3L5,47.5632769,-52.7539881
10,Wickham Place,A1B 3L5,47.5632735,-52.7543122
9,Wickham Place,A1B 3L5,47.5631035,-52.7544485
3;3A,Larkhall Street,A1C 2C2,47.5632251,-52.7554173
9,Donnegal Place,A1B 3L6,47.5639915,-52.7565075
8,Donnegal Place,A1B 3L6,47.5638347,-52.7565673
10,Donnegal Place,A1B 3L6,47.5641400,-52.7563159
11;11A,Donnegal Place,A1B 3L6,47.5641971,-52.7560524
12;12A,Donnegal Place,A1B 3L6,47.5640615,-52.7558240
13;13A,Donnegal Place,A1B 3L6,47.5638023,-52.7558631
7,Donnegal Place,A1B 3L6,47.5636858,-52.7566171
6,Donnegal Place,A1B 3L6,47.5635528,-52.7565288
5;5A,Donnegal Place,A1B 3L6,47.5634676,-52.7562622
4;4A,Donnegal Place,A1B 3L6,47.5634278,-52.7560638
42;42A,Thorburn Road,A1B 3L9,47.5626831,-52.7549043
40,Thorburn Road,A1B 3L9,47.5626390,-52.7547088
38,Thorburn Road,A1B 3L9,47.5625796,-52.7545008
36,Thorburn Road,A1B 3L9,47.5625635,-52.7543013
34;34A,Thorburn Road,A1B 3L9,47.5625033,-52.7541190
32,Thorburn Road,A1B 3L9,47.5624563,-52.7539223
30,Thorburn Road,A1B 3L9,47.5624153,-52.7537258
28;28A,Thorburn Road,A1B 3L9,47.5624054,-52.7535039
26;26A,Thorburn Road,A1B 3L9,47.5623420,-52.7533313
24;24A,Thorburn Road,A1B 3L9,47.5623018,-52.7531366
22;22A,Thorburn Road,A1B 3L9,47.5622724,-52.7529242
16;16A,MacPherson Avenue,A1B 2C1,47.5625495,-52.7528375
3,Wickham Place,A1B 3L5,47.5626759,-52.7532925
4,Wickham Place,A1B 3L5,47.5627430,-52.7535529
5,Wickham Place,A1B 3L5,47.5627997,-52.7537473
6,Wickham Place,A1B 3L5,47.5628368,-52.7539547
7,Wickham Place,A1B 3L5,47.5628151,-52.7542107
8,Wickham Place,A1B 3L5,47.5629453,-52.7543884
4;4A,Larkhall Street,A1B 1C2;A1B 2C3,47.5628905,-52.7550435
1;1A,Larkhall Street,A1C 2C2,47.5628828,-52.7556788
4,Larkhall Street,A1B 2C3,47.5630258,-52.7549732
6,Larkhall Street,A1B 2C3,47.5631504,-52.7548956
8,Larkhall Street,A1B 2C3,47.5632710,-52.7548162
2;2A,Donnegal Place,A1B 3L6,47.5633091,-52.7556455
3,Donnegal Place,A1B 3L6,47.5633695,-52.7558549
14;14A;14B,Donnegal Place,A1B 3L6,47.5637041,-52.7556802
15;15A,Donnegal Place,A1B 3L6,47.5636545,-52.7554389
16,Donnegal Place,A1B 3L6,47.5635846,-52.7552329
7,Larkhall Street,A1C 2C4,47.5637821,-52.7551209
9,Larkhall Street,A1C 2C4,47.5639084,-52.7550438
8,Larkhall Street,A1C 2C3,47.5634131,-52.7547565
29,Larkhall Street,A1B 2C4,47.5649874,-52.7540830
30;30A,Larkhall Street,A1B 4C7,47.5647268,-52.7536587
32;32A,Larkhall Street,A1B 4C7,47.5648425,-52.7535507
36,Larkhall Street,A1B 4C7,47.5650936,-52.7532667
34,Larkhall Street,A1B 4C7,47.5649617,-52.7533885
31;31A,Larkhall Street,A1B 2C4,47.5650963,-52.7539301
33;33A,Larkhall;Larkhall Street,A1B 2C4,47.5652161,-52.7538087
14,Middleton Street,A1A3H9,47.5980958,-52.6918244
38,Larkhall Street,A1B 4C7,47.5652530,-52.7531123
40,Larkhall Street,A1B 4C7,47.5653802,-52.7529665
"44, 44A",Baird Place,A1B 2A8,47.5643056,-52.7495568
6,Vinnicombe Street,A1B 3K9,47.5641415,-52.7500974
4,Vinnicombe Street,A1B 3K9,47.5641018,-52.7498788
2,Vinnicombe Street,A1B 3K9,47.5640699,-52.7496627
90,Oxen Pond Road,A1B 3J5,47.5654509,-52.7513534
"88, 88A",Oxen Pond Road,A1B 3J5,47.5654126,-52.7511224
"86, 86A",Oxen Pond Road,A1B 3J5,47.5653779,-52.7508862
84,Oxen Pond Road,A1B 3J5,47.5653970,-52.7506594
82,Oxen Pond Road,A1B 3J5,47.5653679,-52.7504452
80,Oxen Pond Road,A1B 3J5,47.5653573,-52.7502355
"78, 78A",Oxen Pond Road,A1B 3J5,47.5653515,-52.7500242
"76, 76A",Oxen Pond Road,A1B 3J5,47.5653286,-52.7498157
24;24A,Wicklow Street,A1B 3H2,47.5679029,-52.7482020
26;26A,Wicklow Street,A1B 3H2,47.5680618,-52.7482535
28;28A,Wicklow Street,A1B 3H2,47.5682255,-52.7482069
47;47A,Larkhall Street,A1B 2C5,47.5662225,-52.7527341
49,Larkhall Street,A1B 2C5,47.5663630,-52.7525994
51,Larkhall Street,A1B 2C5,47.5664858,-52.7524459
53,Larkhall Street,A1B 2C5,47.5666140,-52.7523233
55;55a,Larkhall Street,A1B 2C5,47.5667431,-52.7521665
59,Larkhall Street,A1B 2C5,47.5670029,-52.7518943
57,Larkhall Street,A1B 2C5,47.5668735,-52.7520445
61,Larkhall Street,A1B 2C5,47.5671310,-52.7517631
63;63A,Larkhall Street,A1B 2C5,47.5672586,-52.7516250
65,Larkhall Street,A1B 2C5,47.5673872,-52.7515155
67,Larkhall Street,A1B 2C5,47.5675187,-52.7513491
69,Larkhall Street,A1B 2C5,47.5676437,-52.7512084
71,Larkhall Street,A1B 2C5,47.5677711,-52.7510523
73,Larkhall Street,A1B 2C5,47.5678939,-52.7508692
75,Larkhall Street,A1B 2C5,47.5679999,-52.7506915
77,Larkhall Street,A1B 2C5,47.5681053,-52.7505143
79;79A,Larkhall Street,A1B 2C5,47.5682015,-52.7503385
91,Larkhall Street,A1B 2C5,47.5689818,-52.7493828
107;107A,Larkhall Street,A1B 2C5,47.5700002,-52.7484511
105,Larkhall Street,A1B 2C5,47.5698701,-52.7485473
103,Larkhall Street,A1B 2C5,47.5697091,-52.7486398
101;101A,Larkhall Street,A1B 2C5,47.5695811,-52.7487574
99;99A,Larkhall Street,A1B 2C5,47.5694415,-52.7488709
102;102A,Larkhall Street,A1B 2C6,47.5689072,-52.7486962
100;100A,Larkhall Street,A1B 2C6,47.5687860,-52.7488035
98;98A,Larkhall Street,A1B 2C6,47.5686672,-52.7489040
96;96A;96B,Larkhall Street,A1B 2C6,47.5685525,-52.7490256
94;94A,Larkhall Street,A1B 2C6,47.5684419,-52.7491407
92;92A,Larkhall Street,A1B 2C6,47.5683345,-52.7492796
104;104A,Larkhall Street,A1B 2C6,47.5690396,-52.7485870
90;90A,Larkhall Street,A1B 2C6,47.5682282,-52.7494331
88;88A,Larkhall Street,A1B 2C6,47.5681275,-52.7495857
86;86A,Larkhall Street,A1B 2C6,47.5680465,-52.7497479
84;84A;84B,Larkhall Street,A1B 2C6,47.5679522,-52.7499019
82;82A,Larkhall Street,A1B 2C6,47.5678416,-52.7501008
80;80A,Larkhall Street,A1B 2C6,47.5677437,-52.7502642
78;78A,Larkhall Street,A1B 2C6,47.5676292,-52.7504428
72;72A,Larkhall Street,A1B 2C6,47.5673882,-52.7507645
76;76A,Larkhall Street,A1B 2C6,47.5675151,-52.7506028
48,Larkhall Street,A1B 2C6,47.5659742,-52.7523089
50;50A,Larkhall Street,A1B 2C6,47.5660905,-52.7521840
52,Larkhall Street,A1B 2C6,47.5662061,-52.7520645
54;54A,Larkhall Street,A1B 2C6,47.5663112,-52.7519401
56,Larkhall Street,A1B 2C6,47.5664393,-52.7518097
46;46A,Larkhall Street,A1B 2C6;A1B 4C6,47.5658512,-52.7524393
58;58A,Larkhall Street,A1B 2C6,47.5665549,-52.7516850
142,Pennywell Road,A1C 2L4,47.5614521,-52.7227623
134,Airport Heights Drive,A1A 4Z7,47.6053974,-52.7462260
355,Hamilton Avenue,A1C 5K4,47.5478274,-52.7302333
355,Hamilton Avenue,A1C 5K4,47.5479527,-52.7291980
328,Hamilton Avenue,A1E 1J9,47.5493837,-52.7289039
305,Hamilton Avenue,A1E 1J8,47.5496124,-52.7271891
319,Hamilton Avenue,A1E 1K1,47.5494918,-52.7275704
321,Hamilton Avenue,A1E 1K1,47.5494250,-52.7276397
323,Hamilton Avenue,A1E 1K1,47.5492754,-52.7277635
330,LeMarchant Road,A1E 1R2,47.5508713,-52.7266997
304,Hamilton Avenue,A1E 1J9,47.5500940,-52.7275400
301,Hamilton Avenue,A1E 1J8,47.5496393,-52.7264465
314,Hamilton Avenue,A1E 1J9,47.5496125,-52.7281403
320,Hamilton Avenue,A1E 1J9,47.5495371,-52.7282991
1,Job Street,A1E 1G9,47.5542724,-52.7145587
1,Logy Bay Road,A1A 1J1,47.5816020,-52.7043151
240,Water Street,A1C 1B7,47.5630931,-52.7084446
77,Portugal Cove Road,A1B 2M4,47.5823340,-52.7138764
25,Tiffany Lane,a1a 5b4,47.5883759,-52.7145920
130,Portugal Cove Road,a1b 2n2,47.5877486,-52.7140727
184,Torbay Road,A1A 2H3,47.5949210,-52.7092346
99,New Cove Road,a1a2c2,47.5812512,-52.7089382
8,Kennas Hill,A1A 1H9,47.5786076,-52.7039210
8,Military Road,A1C 2C4,47.5717165,-52.7022545
50,Gooseberry Lane,A1C5P7,47.5851148,-52.7206046
66,Churchill Avenue,A1A 0L8,47.5860483,-52.6910719
54,Ropewalk Lane,A1E5T2,47.5566177,-52.7364564
54,Ropewalk Lane,A1E 5T2,47.5566417,-52.7361705
45,Ropewalk Lane,A1E 4P1,47.5556490,-52.7374488
45,Ropewalk Lane,A1E 4P1,47.5552585,-52.7371629
40,Mount Pleasant Avenue,A1C 6E4,47.5571678,-52.7322123
235,Blackmarsh Road,A1E 4T2,47.5445385,-52.7414187
225,Blackmarsh Road,A1E 4T1,47.5446900,-52.7401546
209,Blackmarsh Road,A1E 1T1,47.5457417,-52.7389570
207,Blackmarsh Road,A1E 1T1,47.5459892,-52.7389284
181,Blackmarsh Road,A1E 1T1,47.5454919,-52.7383023
26;28-32,Graves Street,A1B 3C5,47.5648373,-52.7324285
323,Freshwater Road,A1B 1C3,47.5623300,-52.7427379
325,Freshwater Road,A1B 1C3,47.5622683,-52.7429173
327,Freshwater Road,A1B 1C3,47.5622588,-52.7431818
689,Water Street,A1C 5J2,47.5499873,-52.7177200
164,MacDonald Drive,A1A 4B3,47.5921898,-52.7171361
74,The Boulevard,A1A 1K2,47.5803261,-52.6994546
190,Water Street,A1C1A9,47.5647565,-52.7067295
66,O'Leary Avenue,A1B 2C7,47.5597091,-52.7648378
173,Kenmount Road,A1B 3P9,47.5555863,-52.7638836
203,Kenmount Road,A1B 3P9,47.5525747,-52.7702305
227,Kenmount Road,A1B 3P9,47.5514857,-52.7733807
23,Rhodora Street,A1A 4W8,47.6006328,-52.7377086
12,Rumboldt Place,A1A 5K8,47.5858673,-52.7061243
36,Burry Port Street,A1A 5Y2,47.6045675,-52.7559232
32,Branscombe Street,A1A 5J8,47.5974254,-52.7384938
24,Erley Street,A1E 6C9,47.5528278,-52.7442787
225,Thorburn Road,A1B 3M9,47.5668608,-52.7766778
408,Water Street,A1C 1C9,47.5585392,-52.7120658
351,Main Road,A1S 1J1,47.4640517,-52.7710218
314,Brookfield Road,A1N 2C4,47.5064510,-52.7915620
544,Water Street,A1E 1B7,47.5534833,-52.7151714
238,LeMarchant Road,A1E 2Z1,47.5547640,-52.7231907
50,New Gower Street,A1C 1J3,47.5604898,-52.7133558
75,Kelsey Drive,A1B 0C7,47.5527748,-52.7830831
