House number,Street name,Postal code,Latitude,Longitude
295,Calea lui Traian,240636,45.1370115,24.3654845
2,Strada Timiș,240630,45.1318034,24.3653664
4,Strada George Coșbuc,240533,45.0962417,24.3651560
11,Strada Matache Temelie,240091,45.0962250,24.3664337
18,Strada Știrbei Vodă,240165,45.1030340,24.3609530
143,Calea lui Traian,240096,45.1064811,24.3631917
25,Strada Carol I,240591,45.1063821,24.3619833
53,Strada Carol I,240591,45.1094119,24.3624132
1,Strada Priba,240278,45.1276252,24.3373564
34,Strada Dealul Malului,240424,45.1246067,24.3544118
37,Strada Dealul Malului,240424,45.1236540,24.3508274
5,Strada Priba,240278,45.1260424,24.3398013
52,Strada Dealul Malului,240424,45.1238320,24.3522714
53,Strada Dealul Malului,240424,45.1246332,24.3484844
7,Strada Priba,240278,45.1269323,24.3381375
8,Strada Priba,240278,45.1270048,24.3378519
23,Ferdinand,240156,45.1076736,24.3774206
99,Strada Ostroveni,240042,45.0813780,24.3695026
10,Strada Rapsodiei,240254,45.1168932,24.3667153
12,Strada Rapsodiei,240254,45.1169846,24.3674688
12,Strada Republicii,240257,45.1185940,24.3685278
14,Strada Rapsodiei,240254,45.1169236,24.3680341
14,Strada Republicii,240257,45.1186054,24.3690430
16,Strada Rapsodiei,240254,45.1168548,24.3685589
16,Strada Republicii,240257,45.1186162,24.3698426
18,Strada Rapsodiei,240254,45.1167541,24.3690503
2,Strada Republicii,240704,45.1188794,24.3639373
20,Strada Rapsodiei,240254,45.1165349,24.3694521
22,Strada Rapsodiei,240254,45.1162895,24.3699984
22,Strada Republicii,240264,45.1186406,24.3710524
24,Strada Rapsodiei,240254,45.1152138,24.3705160
26,Strada Republicii,240264,45.1186151,24.3714757
2A,Strada Republicii,240704,45.1188280,24.3642983
2A,Strada Republicii,240704,45.1188623,24.3641077
2B,Strada Republicii,240704,45.1188058,24.3644362
30,Strada Republicii,240264,45.1186142,24.3719164
4,Strada Rapsodiei,240254,45.1159847,24.3658602
4,Strada Republicii,240704,45.1187759,24.3651414
6,Strada Republicii,240704,45.1187274,24.3659592
8,Strada Rapsodiei,240254,45.1166472,24.3662513
1,Strada Matei Basarab,240616,45.1143405,24.3644919
11,Strada Matei Basarab,240616,45.1140669,24.3675884
12,Strada Matei Basarab,240234,45.1138943,24.3661945
13,Strada Matei Basarab,240616,45.1139968,24.3682042
15,Strada Matei Basarab,240616,45.1138589,24.3691344
16,Strada Matei Basarab,240234,45.1137934,24.3670297
17,Strada Matei Basarab,240616,45.1138029,24.3695191
19,Strada Matei Basarab,240616,45.1137550,24.3699936
2,Strada Matei Basarab,240234,45.1141299,24.3640531
20,Strada Matei Basarab,240234,45.1136680,24.3681986
21,Strada Matei Basarab,240616,45.1137123,24.3704284
23,Strada Matei Basarab,240218,45.1136163,24.3712085
24,Strada Matei Basarab,240614,45.1135519,24.3691341
25,Strada Matei Basarab,240218,45.1134917,24.3720064
26,Strada Matei Basarab,240614,45.1134405,24.3700209
27,Strada Matei Basarab,240218,45.1133729,24.3727910
28,Strada Matei Basarab,240614,45.1133313,24.3706880
29,Strada Matei Basarab,240218,45.1133175,24.3739123
3,Strada Matei Basarab,240616,45.1143096,24.3647604
30,Strada Matei Basarab,240614,45.1132867,24.3716161
30A,Strada Matei Basarab,240614,45.1132742,24.3717286
30B,Strada Matei Basarab,240614,45.1132749,24.3718600
30C,Strada Matei Basarab,240614,45.1132626,24.3719852
34,Strada Matei Basarab,240613,45.1131202,24.3726289
36,Strada Matei Basarab,240613,45.1128618,24.3726915
38,Strada Matei Basarab,240613,45.1130573,24.3731691
4,Strada Matei Basarab,240234,45.1141226,24.3645742
40,Strada Matei Basarab,240613,45.1128513,24.3731373
42,Strada Matei Basarab,240613,45.1127968,24.3735417
44,Strada Matei Basarab,240613,45.1129445,24.3740439
46,Strada Matei Basarab,240613,45.1127221,24.3739155
5,Strada Matei Basarab,240616,45.1142060,24.3660509
6,Strada Matei Basarab,240234,45.1140264,24.3652539
7,Strada Matei Basarab,240616,45.1141524,24.3665269
9,Strada Matei Basarab,240616,45.1141196,24.3668882
1,Strada Avram Iancu,240605,45.1068432,24.3672942
10,Strada Avram Iancu,240605,45.1064655,24.3679243
11,Strada Avram Iancu,240605,45.1066612,24.3681503
12,Strada Avram Iancu,240605,45.1064035,24.3680701
13,Strada Avram Iancu,240605,45.1066404,24.3682582
14,Strada Avram Iancu,240605,45.1063776,24.3681823
15,Strada Avram Iancu,240605,45.1065957,24.3683963
16,Strada Avram Iancu,240605,45.1063512,24.3683048
18,Strada Avram Iancu,240605,45.1063238,24.3683845
19,Strada Avram Iancu,240605,45.1065169,24.3687387
2,Strada Avram Iancu,240605,45.1066320,24.3672968
20,Strada Avram Iancu,240605,45.1063011,24.3685216
22,Strada Avram Iancu,240605,45.1062809,24.3686229
3,Strada Avram Iancu,240605,45.1067904,24.3674843
4,Strada Avram Iancu,240605,45.1065690,24.3675330
5,Strada Avram Iancu,240605,45.1067679,24.3676816
6,Strada Avram Iancu,240605,45.1065252,24.3676918
7,Strada Avram Iancu,240605,45.1067378,24.3678027
8,Strada Avram Iancu,240605,45.1064795,24.3678720
9,Strada Avram Iancu,240605,45.1066816,24.3680633
1,Strada Radu de la Afumați,240281,45.1152910,24.3626255
10,Strada Radu de la Afumați,240281,45.1154926,24.3622025
11,Strada Radu de la Afumați,240281,45.1153152,24.3614305
12,Strada Radu de la Afumați,240281,45.1155110,24.3620527
13,Strada Radu de la Afumați,240281,45.1153205,24.3612427
14,Strada Radu de la Afumați,240281,45.1155182,24.3619582
15,Strada Radu de la Afumați,240281,45.1153200,24.3610627
17,Strada Radu de la Afumați,240281,45.1153116,24.3609306
19,Strada Radu de la Afumați,240281,45.1153387,24.3607222
2,Strada Constantin Brâncuși,240249,45.1160884,24.3712083
2,Strada Radu de la Afumați,240281,45.1154509,24.3627703
20,Strada Radu de la Afumați,240281,45.1155235,24.3617891
22,Strada Radu de la Afumați,240281,45.1155347,24.3616529
31,Strada Rapsodiei,240618,45.1160638,24.3707149
24,Strada Radu de la Afumați,240281,45.1155366,24.3614945
26 BIS,Strada Radu de la Afumați,240281,45.1155336,24.3612517
26,Strada Radu de la Afumați,240281,45.1155371,24.3613658
28,Strada Radu de la Afumați,240281,45.1155409,24.3610470
3,Strada Radu de la Afumați,240281,45.1152905,24.3622892
4,Strada Constantin Brâncuși,240249,45.1160959,24.3716320
4,Strada Radu de la Afumați,240281,45.1154575,24.3626141
6,Strada Constantin Brâncuși,240249,45.1160959,24.3720907
6,Strada Radu de la Afumați,240281,45.1154857,24.3624361
7,Strada Radu de la Afumați,240281,45.1153319,24.3618820
8,Strada Constantin Brâncuși,240249,45.1162019,24.3727328
8,Strada Radu de la Afumați,240281,45.1154992,24.3623259
9,Strada Radu de la Afumați,240281,45.1153332,24.3616130
1,Strada Dacia,240535,45.0993627,24.3633443
1,Strada Doctor Suciu,240532,45.0971117,24.3669146
10,Aleea Olănești,240122,45.0993058,24.3653737
10,Strada Dacia,240539,45.0985279,24.3645738
10,Strada Doctor Suciu,240532,45.0974798,24.3665513
10,Strada Petre Constantinescu,240091,45.0965639,24.3664904
11,Strada Dacia,240122,45.0988562,24.3659862
11,Strada Doctor Suciu,240532,45.0973719,24.3662630
12,Aleea Olănești,240122,45.0991135,24.3663739
12,Strada Dacia,240539,45.0984972,24.3648734
12,Strada Doctor Suciu,240532,45.0975499,24.3663845
13,Aleea Olănești,240122,45.0983101,24.3675237
13,Strada Doctor Suciu,240532,45.0974442,24.3660630
14,Aleea Olănești,240122,45.0989249,24.3671858
14,Strada Dacia,240538,45.0984552,24.3651649
14,Strada Doctor Suciu,240532,45.0976053,24.3662459
15,Aleea Olănești,240122,45.0985496,24.3676321
15,Strada Doctor Suciu,240532,45.0974907,24.3659275
16,Strada Doctor Suciu,240532,45.0976877,24.3660972
2,Strada Dacia,240539,45.0988497,24.3628663
2,Strada Petre Constantinescu,240091,45.0967801,24.3659441
20,Strada Dacia,240538,45.0981565,24.3665892
24,Strada Dacia,240538,45.0978723,24.3668673
3,Strada Dacia,240535,45.0992519,24.3639062
3,Strada Doctor Suciu,240532,45.0971484,24.3668439
3,Strada Petre Constantinescu,240091,45.0970683,24.3658523
4,Strada Dacia,240539,45.0987782,24.3632237
4,Strada Doctor Suciu,240532,45.0973064,24.3669627
4,Strada Petre Constantinescu,240091,45.0967337,24.3660350
5,Strada Dacia,240535,45.0991409,24.3643980
5,Strada Doctor Suciu,240532,45.0972161,24.3665931
5,Strada Petre Constantinescu,240091,45.0970016,24.3660014
5A,Strada Petre Constantinescu,240091,45.0969380,24.3661505
6,Aleea Olănești,240122,45.0997150,24.3633341
6,Strada Dacia,240539,45.0987267,24.3635097
6,Strada Doctor Suciu,240532,45.0973682,24.3668217
6,Strada Petre Constantinescu,240091,45.0966909,24.3661605
60,Calea lui Traian,240012,45.0912942,24.3612102
7,Strada Dacia,240122,45.0990539,24.3649562
7,Strada Doctor Suciu,240532,45.0972599,24.3664710
7,Strada Petre Constantinescu,240091,45.0968641,24.3663741
8,Aleea Olănești,240122,45.0995108,24.3643404
8,Strada Dacia,240539,45.0986178,24.3640461
8,Strada Doctor Suciu,240532,45.0974187,24.3666770
8,Strada Petre Constantinescu,240091,45.0966340,24.3663106
9,Strada Dacia,240122,45.0989645,24.3654290
9,Strada Doctor Suciu,240532,45.0973109,24.3663535
9,Strada Petre Constantinescu,240091,45.0967799,24.3665556
1,Strada Alexandru Sahia,240113,45.0993695,24.3591722
1,Strada George Enescu,240114,45.0990267,24.3611600
1,Strada Mircea Eliade,240114,45.0994384,24.3603805
10,Strada Alexandru Sahia,240113,45.0991993,24.3588456
10,Strada George Enescu,240114,45.0989260,24.3608321
10,Strada Mircea Eliade,240114,45.0988583,24.3599288
11,Strada Alexandru Sahia,240113,45.0987392,24.3590257
11,Strada George Enescu,240114,45.0984586,24.3610043
11,Strada Mircea Eliade,240114,45.0988903,24.3602505
12,Strada Alexandru Sahia,240113,45.0991125,24.3588367
12,Strada George Enescu,240114,45.0988409,24.3608067
12,Strada Mircea Eliade,240114,45.0987469,24.3598941
13,Strada Alexandru Sahia,240113,45.0986371,24.3590052
13,Strada George Enescu,240114,45.0983634,24.3609845
13,Strada Mircea Eliade,240114,45.0987409,24.3602004
14,Strada Alexandru Sahia,240113,45.0989770,24.3588205
14,Strada George Enescu,240114,45.0986879,24.3607712
14,Strada Mircea Eliade,240114,45.0986728,24.3598792
15,Strada Alexandru Sahia,240113,45.0985542,24.3589724
15,Strada George Enescu,240114,45.0974816,24.3607600
15,Strada Mircea Eliade,240114,45.0986504,24.3601780
16,Strada Alexandru Sahia,240113,45.0989101,24.3587914
16,Strada George Enescu,240114,45.0986119,24.3607523
16,Strada Mircea Eliade,240114,45.0985352,24.3598422
17,Strada George Enescu,240114,45.0973832,24.3607345
17,Strada Mircea Eliade,240114,45.0985138,24.3601736
18,Strada Alexandru Sahia,240113,45.0988137,24.3587529
18,Strada George Enescu,240114,45.0984657,24.3607210
18,Strada Mircea Eliade,240114,45.0983666,24.3597940
18A,Strada Mircea Eliade,240114,45.0981909,24.3597417
19,Strada Alexandru Sahia,240548,45.0977441,24.3588288
19,Strada George Enescu,240114,45.0972728,24.3607217
19,Strada Mircea Eliade,240114,45.0984326,24.3601526
2,Strada Alexandru Sahia,240113,45.0995912,24.3589516
2,Strada George Enescu,240114,45.0993572,24.3609317
2,Strada Mircea Eliade,240114,45.0992540,24.3600061
20,Strada Alexandru Sahia,240548,45.0987093,24.3587461
20,Strada George Enescu,240114,45.0983744,24.3607014
20,Strada Mircea Eliade,240547,45.0977711,24.3596664
21,Strada Alexandru Sahia,240548,45.0976392,24.3588009
21,Strada George Enescu,240545,45.0971740,24.3606960
21,Strada Mircea Eliade,240547,45.0975884,24.3598997
22,Strada Alexandru Sahia,240548,45.0986024,24.3587238
22,Strada George Enescu,240545,45.0976709,24.3605195
22,Strada Mircea Eliade,240547,45.0976211,24.3596436
23,Strada Alexandru Sahia,240548,45.0975157,24.3587684
23,Strada George Enescu,240545,45.0967521,24.3610439
23,Strada Mircea Eliade,240547,45.0974926,24.3598747
24,Strada George Enescu,240545,45.0975174,24.3605075
24,Strada Mircea Eliade,240547,45.0975074,24.3596148
25,Strada Alexandru Sahia,240548,45.0974228,24.3587386
25,Strada George Enescu,240545,45.0969631,24.3613863
25,Strada Mircea Eliade,240547,45.0973692,24.3598501
26,Strada Alexandru Sahia,240548,45.0976896,24.3585121
26,Strada George Enescu,240545,45.0974468,24.3604901
26,Strada Mircea Eliade,240547,45.0973978,24.3595881
27,Strada Alexandru Sahia,240548,45.0973098,24.3587071
27,Strada George Enescu,240545,45.0965437,24.3605526
27,Strada Mircea Eliade,240547,45.0972742,24.3598239
28,Strada Alexandru Sahia,240548,45.0975535,24.3584802
28,Strada George Enescu,240545,45.0973030,24.3604538
28,Strada Mircea Eliade,240547,45.0973034,24.3595647
29,Strada Alexandru Sahia,240548,45.0972008,24.3586753
29,Strada George Enescu,240545,45.0962465,24.3604721
29,Strada Mircea Eliade,240547,45.0971239,24.3597973
3,Strada Alexandru Sahia,240113,45.0992275,24.3591332
3,Strada George Enescu,240114,45.0989012,24.3611187
3,Strada Mircea Eliade,240114,45.0993298,24.3603496
30,Strada Alexandru Sahia,240548,45.0974846,24.3584676
30,Strada George Enescu,240545,45.0972065,24.3604226
30,Strada Mircea Eliade,240547,45.0971788,24.3595429
31,Strada Alexandru Sahia,240548,45.0971118,24.3586466
31,Strada Mircea Eliade,240547,45.0969229,24.3597794
32,Strada Alexandru Sahia,240548,45.0973210,24.3584383
32,Strada George Enescu,240545,45.0970821,24.3604065
32,Strada Mircea Eliade,240547,45.0970824,24.3595199
33,Strada Mircea Eliade,240547,45.0968220,24.3597528
34,Strada Alexandru Sahia,240548,45.0970240,24.3582342
34,Strada George Enescu,240545,45.0969778,24.3603766
34,Strada Mircea Eliade,240547,45.0969574,24.3594984
35,Strada Mircea Eliade,240547,45.0967027,24.3597307
36,Strada George Enescu,240545,45.0968613,24.3603580
36,Strada Mircea Eliade,240547,45.0968653,24.3594714
37,Strada Mircea Eliade,240547,45.0965945,24.3597012
38,Strada George Enescu,240545,45.0967512,24.3603296
38,Strada Mircea Eliade,240547,45.0967258,24.3594235
39,Strada Mircea Eliade,240547,45.0964699,24.3596626
4,Strada Alexandru Sahia,240113,45.0995174,24.3589361
4,Strada George Enescu,240114,45.0992592,24.3609126
4,Strada Mircea Eliade,240114,45.0991627,24.3599867
40,Strada George Enescu,240545,45.0966223,24.3602950
40,Strada Mircea Eliade,240547,45.0966387,24.3594014
42,Strada George Enescu,240545,45.0964426,24.3602073
46,Strada George Enescu,240545,45.0963179,24.3601627
48,Strada George Enescu,240545,45.0963356,24.3612826
5,Strada Alexandru Sahia,240113,45.0990899,24.3591008
5,Strada George Enescu,240114,45.0988026,24.3611312
5,Strada Mircea Eliade,240114,45.0991872,24.3603239
6,Strada Alexandru Sahia,240113,45.0993859,24.3589039
6,Strada George Enescu,240114,45.0991306,24.3608763
6,Strada Mircea Eliade,240114,45.0990548,24.3599628
7,Strada Alexandru Sahia,240113,45.0989610,24.3590733
7,Strada Mircea Eliade,240114,45.0990901,24.3602998
8,Strada Alexandru Sahia,240113,45.0993157,24.3588877
8,Strada George Enescu,240114,45.0990321,24.3608538
8,Strada Mircea Eliade,240114,45.0989664,24.3599468
9,Strada Alexandru Sahia,240113,45.0988322,24.3590486
9,Strada George Enescu,240114,45.0985804,24.3610606
9,Strada Mircea Eliade,240114,45.0989717,24.3602707
1,Strada Inătești,240503,45.0999161,24.3576554
10,Strada Inătești,240503,45.0996791,24.3568056
100,Strada Inătești,240503,45.0991980,24.3480300
102,Strada Inătești,240503,45.0993063,24.3479099
103,Strada Inătești,240503,45.0975791,24.3505064
107,Strada Inătești,240503,45.0976175,24.3503107
109,Strada Inătești,240503,45.0976744,24.3501013
11,Strada Inătești,240503,45.0996628,24.3570795
111,Strada Inătești,240503,45.0980579,24.3496669
113,Strada Inătești,240503,45.0981570,24.3495225
12,Strada Inătești,240503,45.0996042,24.3567532
121,Strada Inătești,240503,45.0982926,24.3492392
125,Strada Inătești,240503,45.0985246,24.3487651
127,Strada Inătești,240503,45.0986383,24.3485514
13,Strada Inătești,240503,45.0995735,24.3569818
131,Strada Inătești,240503,45.0987144,24.3483237
133,Strada Inătești,240503,45.0988086,24.3481644
14,Strada Inătești,240503,45.0995510,24.3566888
15,Strada Inătești,240503,45.0995238,24.3569248
16,Strada Inătești,240503,45.0994534,24.3565685
17,Strada Inătești,240503,45.0994861,24.3568827
18,Strada Inătești,240503,45.0994037,24.3565200
19,Strada Inătești,240503,45.0994131,24.3568184
2,Strada Inătești,240503,45.0999579,24.3572436
20,Strada Inătești,240503,45.0992607,24.3563784
20A,Strada Inătești,240503,45.0992465,24.3563591
20B,Strada Inătești,240503,45.0993050,24.3564216
21,Strada Inătești,240503,45.0993183,24.3567137
22,Strada Inătești,240503,45.0992151,24.3563423
23,Strada Inătești,240503,45.0992619,24.3566544
24,Strada Inătești,240503,45.0991465,24.3562934
25,Strada Inătești,240503,45.0991535,24.3565621
26,Strada Inătești,240503,45.0990809,24.3562354
27,Strada Inătești,240503,45.0990360,24.3564788
28,Strada Inătești,240503,45.0989708,24.3561721
29,Strada Inătești,240503,45.0989823,24.3564405
3,Strada Inătești,240503,45.0998661,24.3573252
30,Strada Inătești,240503,45.0988664,24.3560592
31,Strada Inătești,240503,45.0988906,24.3563538
32,Strada Inătești,240503,45.0986985,24.3558154
33,Strada Inătești,240503,45.0988136,24.3562620
34,Strada Inătești,240503,45.0986209,24.3556801
36,Strada 1 Mai,240108,45.0983838,24.3579618
36,Strada Inătești,240503,45.0985595,24.3554994
37,Strada Inătești,240503,45.0987732,24.3562223
38,Strada Inătești,240503,45.0984966,24.3553076
39,Strada Inătești,240503,45.0986800,24.3561205
4,Strada Inătești,240503,45.0998912,24.3571001
41,Strada Inătești,240503,45.0986223,24.3560647
42A,Strada Inătești,240503,45.0983778,24.3550498
44,Strada Inătești,240503,45.0983188,24.3547011
45,Strada Inătești,240503,45.0985736,24.3560100
46,Strada Inătești,240503,45.0982909,24.3545722
47,Strada Inătești,240503,45.0984259,24.3556312
48,Strada Inătești,240503,45.0982413,24.3543628
49,Strada Inătești,240503,45.0983618,24.3554104
5,Strada Inătești,240503,45.0997951,24.3572393
50,Strada Inătești,240503,45.0982003,24.3542155
51,Strada Inătești,240503,45.0982984,24.3552225
52,Strada Inătești,240503,45.0981647,24.3540726
53,Strada Inătești,240503,45.0981735,24.3547294
54,Strada Inătești,240503,45.0981334,24.3539323
55,Strada Inătești,240503,45.0981013,24.3545066
56,Strada Inătești,240503,45.0981090,24.3537634
57,Strada Inătești,240503,45.0980605,24.3542859
58,Strada Inătești,240503,45.0980791,24.3536097
58A,Strada Inătești,240503,45.0980419,24.3534744
6,Strada Inătești,240503,45.0997979,24.3569822
60,Strada Inătești,240503,45.0979999,24.3534018
61,Strada Inătești,240503,45.0979500,24.3538382
63,Strada Inătești,240503,45.0980262,24.3541479
65,Strada Inătești,240503,45.0979911,24.3539693
67,Strada Inătești,240503,45.0979010,24.3537093
68,Strada Inătești,240503,45.0979222,24.3532006
69,Strada Inătești,240503,45.0978741,24.3536018
7,Strada Inătești,240503,45.0997630,24.3571964
70,Strada Inătești,240503,45.0978642,24.3530957
71,Strada Inătești,240503,45.0978433,24.3534808
72,Strada Inătești,240503,45.0978101,24.3530068
73,Strada Inătești,240503,45.0977974,24.3533577
74,Strada Inătești,240503,45.0976860,24.3528333
75,Strada Inătești,240503,45.0977105,24.3532235
76,Strada Inătești,240503,45.0976147,24.3527285
76A,Strada Inătești,240503,45.0975957,24.3526947
78,Strada Inătești,240503,45.0975323,24.3526097
78A,Strada Inătești,240503,45.0975095,24.3525337
78B,Strada Inătești,240503,45.0974829,24.3524948
79,Strada Inătești,240503,45.0975072,24.3529493
8,Strada Inătești,240503,45.0997312,24.3569037
80,Strada Inătești,240503,45.0974132,24.3524257
81,Strada Inătești,240503,45.0974037,24.3527640
84,Strada Inătești,240503,45.0972342,24.3521019
85,Strada Inătești,240503,45.0973594,24.3526922
87,Strada Inătești,240503,45.0973188,24.3526553
87A,Strada Inătești,240503,45.0970247,24.3519095
89,Strada Inătești,240503,45.0971979,24.3515836
9,Strada Inătești,240503,45.0996973,24.3571629
90,Strada Inătești,240503,45.0976690,24.3506409
91,Strada Inătești,240503,45.0972606,24.3513938
92,Strada Inătești,240503,45.0981104,24.3499993
93,Strada Inătești,240503,45.0973744,24.3511722
94,Strada Inătești,240503,45.0983196,24.3497853
95,Strada Inătești,240503,45.0974341,24.3509885
96,Strada Inătești,240503,45.0987882,24.3487321
97,Strada Inătești,240503,45.0975196,24.3506933
1,Strada Luceafărului,240065,45.0977324,24.3696101
10,Strada Luceafărului,240061,45.0968252,24.3728924
11,Strada Luceafărului,240070,45.0970572,24.3725989
13,Strada Luceafărului,240070,45.0969975,24.3732445
2,Strada Luceafărului,240066,45.0974995,24.3693262
3,Strada Luceafărului,240065,45.0981390,24.3705197
4,Strada Luceafărului,240066,45.0973484,24.3700695
5,Strada Luceafărului,240065,45.0975156,24.3705705
6,Strada Luceafărului,240066,45.0971839,24.3708305
7,Strada Luceafărului,240070,45.0971782,24.3721541
8,Strada Luceafărului,240061,45.0970413,24.3715315
9,Strada Luceafărului,240070,45.0979975,24.3720971
1,Bulevardul Pandurilor,240524,45.0971454,24.3682737
13A,Bulevardul Pandurilor,240312,45.0932811,24.3649960
7,Bulevardul Pandurilor,240069,45.0956401,24.3669567
11,Bulevardul Pandurilor,240312,45.0939325,24.3655110
13,Bulevardul Pandurilor,240312,45.0929327,24.3646609
3,Bulevardul Pandurilor,240530,45.0967004,24.3678499
9,Bulevardul Pandurilor,240069,45.0950285,24.3664712
5,Bulevardul Pandurilor,240069,45.0960775,24.3673564
1,Strada Maior Georgescu,240185,45.1036376,24.3573485
1,Strada Pătrașcu Vodă,240466,45.1033276,24.3617261
1,Strada Știrbei Vodă,240184,45.1026920,24.3615294
10,Strada Maior Georgescu,240185,45.1035282,24.3582848
10,Strada Știrbei Vodă,240706,45.1029496,24.3595417
100,Strada Știrbei Vodă,240588,45.1047488,24.3520254
101,Strada Știrbei Vodă,240588,45.1055001,24.3475362
102,Strada Știrbei Vodă,240588,45.1047740,24.3518988
103A,Strada Știrbei Vodă,240588,45.1055781,24.3472952
104,Strada Știrbei Vodă,240588,45.1048654,24.3516071
105,Strada Știrbei Vodă,240588,45.1056543,24.3464722
107,Strada Știrbei Vodă,240588,45.1056622,24.3462114
109,Strada Știrbei Vodă,240588,45.1056517,24.3459485
109A,Strada Știrbei Vodă,240588,45.1056226,24.3455901
10A,Strada Maior Georgescu,240185,45.1034421,24.3583878
110,Strada Știrbei Vodă,240588,45.1048987,24.3514229
111-113,Strada Știrbei Vodă,240588,45.1056880,24.3442023
111-113,Strada Știrbei Vodă,240588,45.1057702,24.3439399
114,Strada Știrbei Vodă,240588,45.1049754,24.3511892
115,Strada Știrbei Vodă,240588,45.1059771,24.3434471
116,Strada Știrbei Vodă,240588,45.1050291,24.3509694
117,Strada Știrbei Vodă,240588,45.1060177,24.3433244
118,Strada Știrbei Vodă,240588,45.1050288,24.3507887
119,Strada Știrbei Vodă,240588,45.1060641,24.3431884
120,Strada Știrbei Vodă,240588,45.1050660,24.3507059
120,Strada Știrbei Vodă,240588,45.1050880,24.3505772
124,Strada Știrbei Vodă,240588,45.1051233,24.3503873
125,Strada Știrbei Vodă,240588,45.1061161,24.3430945
126,Strada Știrbei Vodă,240588,45.1051606,24.3502085
127,Strada Știrbei Vodă,240588,45.1062267,24.3428990
128,Strada Știrbei Vodă,240588,45.1052063,24.3499917
129,Strada Știrbei Vodă,240588,45.1063768,24.3426381
12B,Strada Maior Georgescu,240185,45.1036412,24.3581833
13,Strada Gabriel Stoianovici,240176,45.1037524,24.3605912
13,Strada Știrbei Vodă,240588,45.1037163,24.3555103
130,Strada Știrbei Vodă,240588,45.1052565,24.3497959
131,Strada Știrbei Vodă,240588,45.1064538,24.3425063
132,Strada Știrbei Vodă,240588,45.1053526,24.3494903
133,Strada Știrbei Vodă,240588,45.1064841,24.3424193
134,Strada Știrbei Vodă,240588,45.1053892,24.3493699
135,Strada Știrbei Vodă,240588,45.1065221,24.3423186
136,Strada Știrbei Vodă,240588,45.1054353,24.3491549
138,Strada Știrbei Vodă,240588,45.1054178,24.3492517
14,Strada Maior Georgescu,240185,45.1037164,24.3580691
14,Strada Știrbei Vodă,240588,45.1031067,24.3582945
140,Strada Știrbei Vodă,240588,45.1054603,24.3490744
141,Strada Știrbei Vodă,240588,45.1069136,24.3416227
142,Strada Știrbei Vodă,240588,45.1054823,24.3489503
143,Strada Știrbei Vodă,240588,45.1070436,24.3412881
143A,Strada Știrbei Vodă,240588,45.1070949,24.3411022
144,Strada Știrbei Vodă,240588,45.1055222,24.3488142
145,Strada Știrbei Vodă,240588,45.1071559,24.3408889
145,Strada Știrbei Vodă,240588,45.1071836,24.3407870
146,Strada Știrbei Vodă,240588,45.1055703,24.3486751
148,Strada Știrbei Vodă,240588,45.1056064,24.3485526
15,Strada Gabriel Stoianovici,240176,45.1038957,24.3610056
15,Strada Știrbei Vodă,240588,45.1037755,24.3552493
150,Strada Știrbei Vodă,240588,45.1055902,24.3484296
150A,Strada Știrbei Vodă,240588,45.1056263,24.3483075
152,Strada Știrbei Vodă,240588,45.1056426,24.3481344
154,Strada Știrbei Vodă,240588,45.1056755,24.3480053
156,Strada Știrbei Vodă,240588,45.1057203,24.3478043
158,Strada Știrbei Vodă,240588,45.1057762,24.3475463
16,Strada Maior Georgescu,240185,45.1037476,24.3579645
16,Strada Știrbei Vodă,240588,45.1031540,24.3581201
160,Strada Știrbei Vodă,240588,45.1058130,24.3473333
162,Strada Știrbei Vodă,240588,45.1058428,24.3471406
164,Strada Știrbei Vodă,240588,45.1058682,24.3469979
166,Strada Știrbei Vodă,240588,45.1059182,24.3467247
168,Strada Știrbei Vodă,240588,45.1059257,24.3465395
17,Strada Gabriel Stoianovici,240176,45.1039737,24.3612809
17,Strada Știrbei Vodă,240588,45.1038334,24.3549768
170,Strada Știrbei Vodă,240588,45.1059390,24.3464028
172,Strada Știrbei Vodă,240588,45.1059390,24.3462633
172A,Strada Știrbei Vodă,240588,45.1059371,24.3461775
174,Strada Știrbei Vodă,240588,45.1059243,24.3459578
174A,Strada Știrbei Vodă,240588,45.1059333,24.3458503
176,Strada Știrbei Vodă,240588,45.1059336,24.3457313
178,Strada Știrbei Vodă,240588,45.1059126,24.3454601
18,Strada Maior Georgescu,240185,45.1037990,24.3577802
18,Strada Știrbei Vodă,240588,45.1031976,24.3579780
180,Strada Știrbei Vodă,240588,45.1059212,24.3453065
182,Strada Știrbei Vodă,240588,45.1058956,24.3451429
182,Strada Știrbei Vodă,240588,45.1059079,24.3450463
184,Strada Știrbei Vodă,240588,45.1059314,24.3448497
186,Strada Știrbei Vodă,240588,45.1059382,24.3447070
188,Strada Știrbei Vodă,240588,45.1059658,24.3445525
18A,Strada Maior Georgescu,240185,45.1038289,24.3576682
19,Strada Gabriel Stoianovici,240176,45.1040148,24.3614379
19,Strada Știrbei Vodă,240588,45.1038830,24.3547531
190,Strada Știrbei Vodă,240588,45.1059805,24.3444781
192,Strada Știrbei Vodă,240588,45.1060032,24.3443642
194,Strada Știrbei Vodă,240588,45.1060333,24.3442587
196,Strada Știrbei Vodă,240588,45.1060972,24.3441349
198,Strada Știrbei Vodă,240588,45.1061439,24.3439930
2,Strada Pătrașcu Vodă,240466,45.1034757,24.3613864
2,Strada Știrbei Vodă,240706,45.1029421,24.3613994
20,Strada Maior Georgescu,240185,45.1038355,24.3575277
20,Strada Știrbei Vodă,240588,45.1032317,24.3578466
200,Strada Știrbei Vodă,240588,45.1062268,24.3438492
202,Strada Știrbei Vodă,240588,45.1063292,24.3436183
204,Strada Știrbei Vodă,240588,45.1064093,24.3434391
206,Strada Știrbei Vodă,240588,45.1064371,24.3432767
208,Strada Știrbei Vodă,240588,45.1065161,24.3431841
21,Strada Gabriel Stoianovici,240176,45.1040419,24.3615394
21,Strada Știrbei Vodă,240588,45.1039110,24.3546619
212,Strada Știrbei Vodă,240588,45.1068190,24.3425485
22,Strada Maior Georgescu,240185,45.1038117,24.3573649
22,Strada Știrbei Vodă,240588,45.1032657,24.3577446
23,Strada Gabriel Stoianovici,240176,45.1040773,24.3616204
23,Strada Știrbei Vodă,240588,45.1039483,24.3545442
24,Strada Maior Georgescu,240185,45.1038047,24.3572791
24,Strada Știrbei Vodă,240588,45.1032922,24.3576400
24A,Strada Știrbei Vodă,240588,45.1033244,24.3575327
25,Strada Gabriel Stoianovici,240176,45.1041084,24.3617323
25,Strada Știrbei Vodă,240588,45.1039765,24.3543942
26,Strada Maior Georgescu,240185,45.1037663,24.3572184
26,Strada Știrbei Vodă,240588,45.1033509,24.3574335
26A,Strada Știrbei Vodă,240588,45.1033850,24.3572967
27,Strada Gabriel Stoianovici,240176,45.1041611,24.3618952
27,Strada Știrbei Vodă,240588,45.1039960,24.3543115
28,Strada Știrbei Vodă,240588,45.1034361,24.3571197
28A,Strada Maior Georgescu,240185,45.1037088,24.3570561
29,Strada Știrbei Vodă,240588,45.1039889,24.3542220
3,Strada Gabriel Stoianovici,240176,45.1032208,24.3591554
3,Strada Maior Georgescu,240185,45.1036260,24.3576367
3,Strada Pătrașcu Vodă,240466,45.1033373,24.3613073
3,Strada Știrbei Vodă,240184,45.1026967,24.3608584
30,Strada Maior Georgescu,240185,45.1036635,24.3569912
31,Strada Știrbei Vodă,240588,45.1040119,24.3541070
31BIS,Strada Știrbei Vodă,240588,45.1040415,24.3540195
32,Strada Știrbei Vodă,240588,45.1036013,24.3568632
33,Strada Știrbei Vodă,240588,45.1040752,24.3539317
33A,Strada Știrbei Vodă,240588,45.1040977,24.3538451
34,Strada Știrbei Vodă,240588,45.1036247,24.3567196
35,Strada Știrbei Vodă,240588,45.1041031,24.3536899
36,Strada Știrbei Vodă,240588,45.1036616,24.3565772
37,Strada Știrbei Vodă,240588,45.1041361,24.3535889
38,Strada Știrbei Vodă,240588,45.1036790,24.3564502
39,Strada Știrbei Vodă,240588,45.1041774,24.3533273
4,Strada Pătrașcu Vodă,240466,45.1034805,24.3611068
4,Strada Știrbei Vodă,240706,45.1029247,24.3609445
40,Strada Știrbei Vodă,240588,45.1037211,24.3563367
41,Strada Știrbei Vodă,240588,45.1041908,24.3532226
42,Strada Știrbei Vodă,240588,45.1037367,24.3562500
43,Strada Știrbei Vodă,240588,45.1042070,24.3531030
44,Strada Știrbei Vodă,240588,45.1037754,24.3561418
45,Strada Știrbei Vodă,240588,45.1042158,24.3529843
46,Strada Știrbei Vodă,240588,45.1038086,24.3560117
47,Strada Știrbei Vodă,240588,45.1042364,24.3529014
48,Strada Știrbei Vodă,240588,45.1038407,24.3559068
49,Strada Știrbei Vodă,240588,45.1042589,24.3527983
5,Strada Gabriel Stoianovici,240176,45.1033597,24.3594990
5,Strada Pătrașcu Vodă,240466,45.1033345,24.3610610
5,Strada Știrbei Vodă,240184,45.1026565,24.3600581
50,Strada Știrbei Vodă,240588,45.1038737,24.3557729
51,Strada Știrbei Vodă,240588,45.1042800,24.3526655
51,Strada Știrbei Vodă,240588,45.1042970,24.3525424
52,Strada Știrbei Vodă,240588,45.1039245,24.3555902
54,Strada Știrbei Vodă,240588,45.1039499,24.3554088
56,Strada Știrbei Vodă,240588,45.1039924,24.3552662
57,Strada Știrbei Vodă,240588,45.1043458,24.3524016
58,Strada Știrbei Vodă,240588,45.1040720,24.3549045
59,Strada Știrbei Vodă,240588,45.1043829,24.3522828
6,Strada Gabriel Stoianovici,240176,45.1036160,24.3607383
6,Strada Maior Georgescu,240185,45.1032655,24.3585868
6,Strada Pătrașcu Vodă,240466,45.1034812,24.3609062
6,Strada Știrbei Vodă,240706,45.1029427,24.3603702
60,Strada Știrbei Vodă,240588,45.1040922,24.3547816
61,Strada Știrbei Vodă,240588,45.1044117,24.3521717
62,Strada Știrbei Vodă,240588,45.1041201,24.3546423
64,Strada Știrbei Vodă,240588,45.1041556,24.3544658
66,Strada Știrbei Vodă,240588,45.1041764,24.3543633
67,Strada Știrbei Vodă,240588,45.1044677,24.3519607
68,Strada Știrbei Vodă,240588,45.1042048,24.3542542
69,Strada Știrbei Vodă,240588,45.1045363,24.3517382
69,Strada Știrbei Vodă,240588,45.1046373,24.3513620
7,Strada Gabriel Stoianovici,240176,45.1034115,24.3601103
7,Strada Gabriel Stoianovici,240176,45.1036288,24.3602267
7,Strada Pătrașcu Vodă,240466,45.1033441,24.3608776
7,Strada Știrbei Vodă,240184,45.1027556,24.3590438
70,Strada Știrbei Vodă,240588,45.1042301,24.3541955
72,Strada Știrbei Vodă,240588,45.1042552,24.3540922
73,Strada Știrbei Vodă,240588,45.1047156,24.3510582
74,Strada Știrbei Vodă,240588,45.1042768,24.3539772
75,Strada Știrbei Vodă,240588,45.1047453,24.3509331
76,Strada Știrbei Vodă,240588,45.1042955,24.3538627
77,Strada Știrbei Vodă,240588,45.1047556,24.3507448
78,Strada Știrbei Vodă,240588,45.1043100,24.3537547
79,Strada Știrbei Vodă,240588,45.1048711,24.3503413
8,Strada Gabriel Stoianovici,240176,45.1038749,24.3615422
8,Strada Maior Georgescu,240185,45.1033537,24.3584835
8,Strada Pătrașcu Vodă,240466,45.1034816,24.3606548
8,Strada Știrbei Vodă,240706,45.1029469,24.3599443
80,Strada Știrbei Vodă,240588,45.1043505,24.3536366
81,Strada Știrbei Vodă,240588,45.1049631,24.3499519
82,Strada Știrbei Vodă,240588,45.1043989,24.3535135
83,Strada Știrbei Vodă,240588,45.1050130,24.3496930
84,Strada Știrbei Vodă,240588,45.1044178,24.3533620
85,Strada Știrbei Vodă,240588,45.1050597,24.3494314
86,Strada Știrbei Vodă,240588,45.1044290,24.3532754
87,Strada Știrbei Vodă,240588,45.1051944,24.3489261
88,Strada Știrbei Vodă,240588,45.1044565,24.3530170
89,Strada Știrbei Vodă,240588,45.1053765,24.3482642
9,Strada Gabriel Stoianovici,240176,45.1034997,24.3598231
9,Strada Maior Georgescu,240185,45.1034229,24.3580987
9,Strada Pătrașcu Vodă,240466,45.1033517,24.3607565
9,Strada Știrbei Vodă,240184,45.1027938,24.3584590
90,Strada Știrbei Vodă,240588,45.1044801,24.3528749
91,Strada Știrbei Vodă,240588,45.1054026,24.3481396
92,Strada Știrbei Vodă,240588,45.1045017,24.3527551
93,Strada Știrbei Vodă,240588,45.1054261,24.3479625
94,Strada Știrbei Vodă,240588,45.1045515,24.3526157
95,Strada Știrbei Vodă,240588,45.1054475,24.3478262
96,Strada Știrbei Vodă,240588,45.1045721,24.3524395
97,Strada Știrbei Vodă,240588,45.1054596,24.3477161
98,Strada Știrbei Vodă,240588,45.1046144,24.3523381
98A,Strada Știrbei Vodă,240588,45.1046952,24.3521730
99,Strada Știrbei Vodă,240588,45.1054914,24.3476351
1,Strada Doctor Hacman,240217,45.1132368,24.3641619
10,Strada Buna Vestire,240200,45.1119149,24.3693108
10,Strada Doctor Hacman,240232,45.1128497,24.3656983
10A,Strada Buna Vestire,240200,45.1118730,24.3695316
11,Strada Buna Vestire,240200,45.1123381,24.3675177
11,Strada Doctor Hacman,240217,45.1131724,24.3663574
12,Strada Buna Vestire,240200,45.1118562,24.3696819
12,Strada Doctor Hacman,240232,45.1128130,24.3660124
13,Strada Buna Vestire,240200,45.1123188,24.3677582
13,Strada Doctor Hacman,240217,45.1129117,24.3669147
14,Strada Buna Vestire,240200,45.1118109,24.3698801
15,Strada Buna Vestire,240200,45.1123024,24.3679173
15,Strada Doctor Hacman,240217,45.1127968,24.3678696
16,Strada Buna Vestire,240200,45.1117789,24.3701756
16,Strada Doctor Hacman,240232,45.1127650,24.3665296
17,Strada Buna Vestire,240200,45.1122894,24.3681252
17,Strada Doctor Hacman,240217,45.1127240,24.3685850
19,Strada Buna Vestire,240200,45.1121527,24.3690281
19,Strada Doctor Hacman,240716,45.1126878,24.3689073
2,Strada Buna Vestire,240200,45.1121196,24.3675013
2,Strada Doctor Hacman,240716,45.1130351,24.3640141
20,Strada Doctor Hacman,240216,45.1125619,24.3678598
21,Strada Buna Vestire,240200,45.1121313,24.3692104
21,Strada Doctor Hacman,240716,45.1126658,24.3690931
22,Strada Doctor Hacman,240216,45.1124239,24.3690680
23,Strada Buna Vestire,240200,45.1121137,24.3693942
23,Strada Doctor Hacman,240716,45.1126373,24.3693265
23A,Strada Buna Vestire,240200,45.1121094,24.3694650
24,Strada Doctor Hacman,240216,45.1123700,24.3697329
25,Strada Buna Vestire,240200,45.1120812,24.3696084
25,Strada Doctor Hacman,240716,45.1126025,24.3695431
26,Strada Doctor Hacman,240216,45.1122838,24.3703974
27,Strada Buna Vestire,240200,45.1120765,24.3697792
27,Strada Doctor Hacman,240716,45.1125907,24.3697877
27A,Strada Buna Vestire,240200,45.1120558,24.3699529
28,Strada Doctor Hacman,240233,45.1121382,24.3716087
29,Strada Buna Vestire,240200,45.1120268,24.3701268
29,Strada Doctor Hacman,240211,45.1125666,24.3699855
29A,Strada Doctor Hacman,240211,45.1125520,24.3701324
3,Strada Doctor Hacman,240217,45.1132270,24.3643784
30,Strada Doctor Hacman,240233,45.1120790,24.3721851
31,Strada Buna Vestire,240200,45.1120142,24.3703140
32,Strada Doctor Hacman,240233,45.1119837,24.3730152
33,Strada Doctor Hacman,240211,45.1124045,24.3713794
34,Strada Doctor Hacman,240233,45.1119190,24.3736619
35,Strada Doctor Hacman,240211,45.1123279,24.3722363
37,Strada Doctor Hacman,240211,45.1122263,24.3730593
39,Strada Doctor Hacman,240211,45.1120570,24.3741168
4,Strada Buna Vestire,240200,45.1120789,24.3678157
4,Strada Doctor Hacman,240232,45.1129871,24.3645028
5,Strada Doctor Hacman,240217,45.1131423,24.3646284
6,Strada Buna Vestire,240200,45.1119511,24.3689562
6,Strada Doctor Hacman,240232,45.1129411,24.3649229
6A,Strada Buna Vestire,240200,45.1119353,24.3690492
7,Strada Buna Vestire,240200,45.1123626,24.3673177
7,Strada Doctor Hacman,240217,45.1131419,24.3650676
8,Strada Buna Vestire,240200,45.1119248,24.3691743
8,Strada Doctor Hacman,240232,45.1128812,24.3653254
9,Strada Buna Vestire,240200,45.1123252,24.3676357
9,Strada Buna Vestire,240200,45.1123487,24.3674259
9,Strada Doctor Hacman,240217,45.1130810,24.3656959
1,Strada Republicii,240703,45.1191287,24.3649333
10,Strada Republicii,240256,45.1186950,24.3673414
11,Strada Republicii,240622,45.1190397,24.3669159
13,Strada Republicii,240622,45.1190263,24.3673251
15,Strada Republicii,240622,45.1190186,24.3680365
17,Strada Republicii,240263,45.1190240,24.3687868
27,Strada Republicii,240263,45.1190090,24.3703431
29,Strada Republicii,240263,45.1190007,24.3707608
28B,Strada Republicii,240264,45.1192882,24.3705186
3,Strada Republicii,240703,45.1191029,24.3655098
31,Strada Republicii,240263,45.1189806,24.3712017
32,Strada Republicii,240264,45.1185326,24.3722978
33,Strada Republicii,240263,45.1189361,24.3715769
37,Strada Republicii,240263,45.1188943,24.3721669
41,Strada Republicii,240263,45.1188177,24.3726216
5,Strada Republicii,240703,45.1190886,24.3657547
5A,Strada Republicii,240703,45.1190841,24.3658355
7,Strada Republicii,240622,45.1190727,24.3660914
8,Strada Republicii,240256,45.1186012,24.3665761
9,Strada Republicii,240622,45.1190621,24.3665240
33,Strada Rapsodiei,240618,45.1152322,24.3708968
9,Strada Constantin Brâncuși,240258,45.1165020,24.3724445
1,Strada Constantin Brâncuși,240258,45.1171558,24.3711250
3,Strada Constantin Brâncuși,240258,45.1166285,24.3707337
1,Aleea Privighetorii,240607,45.1096366,24.3690511
1,Strada Bujorului,240204,45.1101994,24.3670044
1,Strada Mărășești,240219,45.1095122,24.3664401
10,Strada Mărășești,240219,45.1106504,24.3670906
11,Strada Mărășești,240201,45.1124766,24.3670495
12,Strada Mărășești,240201,45.1111065,24.3669885
14,Strada Mărășești,240201,45.1116391,24.3671695
2,Aleea Privighetorii,240607,45.1096898,24.3685711
2,Strada Mărășești,240219,45.1091328,24.3668181
3,Aleea Privighetorii,240607,45.1096792,24.3678800
3,Strada Bujorului,240204,45.1101873,24.3671798
4,Aleea Privighetorii,240607,45.1096575,24.3674134
4,Strada Mărășești,240219,45.1094740,24.3668235
5,Strada Bujorului,240204,45.1101665,24.3673492
6,Strada Mărășești,240219,45.1097810,24.3669065
7,Strada Bujorului,240204,45.1101437,24.3674997
7,Strada Mărășești,240201,45.1113850,24.3668269
8,Strada Mărășești,240219,45.1104702,24.3670571
9,Strada Bujorului,240204,45.1101159,24.3677134
9,Strada Mărășești,240201,45.1119157,24.3669107
1,Strada Grigore Procopiu,240202,45.1112446,24.3654355
10,Strada Grigore Procopiu,240202,45.1107066,24.3685325
11,Strada Grigore Procopiu,240202,45.1111398,24.3665161
12,Strada Grigore Procopiu,240202,45.1106637,24.3687233
13,Strada Grigore Procopiu,240202,45.1110505,24.3673005
14,Strada Grigore Procopiu,240202,45.1106497,24.3689216
15,Strada Grigore Procopiu,240202,45.1110150,24.3676053
16,Strada Grigore Procopiu,240202,45.1106384,24.3690411
17,Strada Grigore Procopiu,240202,45.1109944,24.3678973
18,Strada Grigore Procopiu,240202,45.1106128,24.3692002
19,Strada Grigore Procopiu,240202,45.1109815,24.3681103
2,Strada Grigore Procopiu,240202,45.1109660,24.3649732
20,Strada Grigore Procopiu,240202,45.1106013,24.3693444
21,Strada Grigore Procopiu,240202,45.1108910,24.3688282
22,Strada Grigore Procopiu,240202,45.1105821,24.3695266
23,Strada Grigore Procopiu,240202,45.1108680,24.3690617
24,Strada Grigore Procopiu,240202,45.1105554,24.3697353
25,Strada Grigore Procopiu,240202,45.1108174,24.3694279
26,Strada Grigore Procopiu,240202,45.1105266,24.3700039
28,Strada Grigore Procopiu,240202,45.1104095,24.3710497
29,Strada Grigore Procopiu,240202,45.1107294,24.3699193
3,Strada Grigore Procopiu,240202,45.1112543,24.3657691
30,Strada Grigore Procopiu,240202,45.1103808,24.3712107
31,Strada Grigore Procopiu,240202,45.1106051,24.3714500
32,Strada Grigore Procopiu,240202,45.1103563,24.3713712
33,Strada Grigore Procopiu,240202,45.1105236,24.3720816
34,Strada Grigore Procopiu,240202,45.1102531,24.3718683
35,Strada Grigore Procopiu,240600,45.1105003,24.3726572
36,Strada Grigore Procopiu,240600,45.1101968,24.3723799
37,Strada Grigore Procopiu,240600,45.1105104,24.3730692
39,Strada Grigore Procopiu,240600,45.1105162,24.3734087
4,Strada Grigore Procopiu,240202,45.1108709,24.3660123
5,Strada Grigore Procopiu,240202,45.1112339,24.3659395
6,Strada Grigore Procopiu,240202,45.1107874,24.3674644
7,Strada Grigore Procopiu,240202,45.1112052,24.3661578
7A,Strada Grigore Procopiu,240202,45.1112001,24.3662663
7B,Strada Grigore Procopiu,240202,45.1112630,24.3662805
8,Strada Grigore Procopiu,240202,45.1107526,24.3679408
9,Strada Grigore Procopiu,240202,45.1111623,24.3663620
2,Aleea Ciocârliei,240193,45.1095457,24.3713297
3,Aleea Ciocârliei,240193,45.1094965,24.3719466
1,Aleea Ciocârliei,240193,45.1095910,24.3707777
4,Aleea Ciocârliei,240193,45.1095342,24.3724670
1,Strada Cerna,240565,45.1035989,24.3675946
11,Strada Cerna,240565,45.1036135,24.3684494
12,Strada Cerna,240565,45.1033706,24.3687763
14,Strada Cerna,240565,45.1033699,24.3689370
15,Strada Cerna,240565,45.1036140,24.3685929
17,Strada Cerna,240565,45.1036132,24.3687571
19,Strada Cerna,240565,45.1036185,24.3689994
19A,Strada Cerna,240565,45.1036245,24.3691470
21,Strada Cerna,240565,45.1036253,24.3692237
21A,Strada Cerna,240565,45.1036181,24.3693756
21B,Strada Cerna,240565,45.1036153,24.3695131
21C,Strada Cerna,240565,45.1035554,24.3700613
23,Strada Cerna,240565,45.1035521,24.3703051
27,Strada Cerna,240565,45.1038307,24.3707900
29,Strada Cerna,240565,45.1038152,24.3711481
3,Strada Cerna,240565,45.1036072,24.3677372
5,Strada Cerna,240565,45.1036121,24.3678692
7,Strada Cerna,240565,45.1036148,24.3680436
9,Strada Cerna,240565,45.1036117,24.3682351
1,Strada Regina Maria,240140,45.1028092,24.3657289
1,Strada Vasile Olănescu,240492,45.1044420,24.3699303
14,Strada Regina Maria,240712,45.1022235,24.3693136
16,Strada Regina Maria,240712,45.1025066,24.3697622
17,Strada Regina Maria,240140,45.1029596,24.3690523
17A,Strada Regina Maria,240140,45.1030694,24.3690496
18,Strada Regina Maria,240712,45.1024998,24.3701832
2,Strada Regina Maria,240712,45.1026882,24.3638733
20,Strada Regina Maria,240712,45.1024953,24.3703229
20A,Strada Regina Maria,240712,45.1024949,24.3704267
23,Strada Regina Maria,240567,45.1029704,24.3707319
25,Strada Regina Maria,240567,45.1027192,24.3709701
27,Strada Regina Maria,240567,45.1027172,24.3712865
4,Strada Regina Maria,240712,45.1026642,24.3647455
5,Strada Regina Maria,240140,45.1028066,24.3662639
6,Strada Regina Maria,240712,45.1026320,24.3657074
7,Strada Regina Maria,240140,45.1027943,24.3671967
9,Strada Regina Maria,240140,45.1027821,24.3676650
14A,Strada Gib Mihăescu,240574,45.1010734,24.3716676
20A,Strada Gib Mihăescu,240574,45.1010438,24.3719808
22A,Strada Gib Mihăescu,240574,45.1010336,24.3720995
4,Strada Decebal,240255,45.1179329,24.3687216
5A,Strada Rapsodiei,240241,45.1176301,24.3664953
3,Strada Decebal,240255,45.1181706,24.3671717
15,Strada Rapsodiei,240702,45.1172548,24.3671313
3,Strada Rapsodiei,240241,45.1147514,24.3651998
5,Strada Rapsodiei,240241,45.1151243,24.3652669
21,Strada Rapsodiei,240618,45.1172491,24.3693072
13,Strada Rapsodiei,240702,45.1171280,24.3664500
2,Strada Decebal,240255,45.1180939,24.3680674
19,Strada Rapsodiei,240702,45.1174460,24.3685314
1,Strada Rapsodiei,240241,45.1144089,24.3651328
7,Strada Rapsodiei,240240,45.1159079,24.3654037
17,Strada Rapsodiei,240702,45.1172909,24.3676811
5B,Strada Rapsodiei,240241,45.1176049,24.3672654
29,Strada Rapsodiei,240618,45.1173748,24.3702286
23,Strada Rapsodiei,240618,45.1172349,24.3697726
11,Strada Rapsodiei,240702,45.1168234,24.3658465
27,Strada Rapsodiei,240618,45.1177034,24.3702909
18,Strada Republicii,240264,45.1183057,24.3698803
2,Strada Rapsodiei,240254,45.1145917,24.3654176
9,Aleea Primăverii,240617,45.1165933,24.3652775
25,Strada Rapsodiei,240618,45.1177960,24.3697438
1,Strada Decebal,240255,45.1181663,24.3676740
5,Strada Decebal,240255,45.1181727,24.3667129
4,Aleea Doinei,240225,45.1145880,24.3666780
3,Aleea Doinei,240223,45.1145653,24.3675363
3,Aleea Doinei,240223,45.1144877,24.3690464
2,Aleea Doinei,240225,45.1144063,24.3684885
2,Aleea Doinei,240225,45.1148245,24.3659189
1,Aleea Doinei,240223,45.1148132,24.3668014
1,Aleea Doinei,240223,45.1144517,24.3681103
4,Aleea Melodiei,240226,45.1141249,24.3709209
6,Aleea Melodiei,240226,45.1139962,24.3713581
1,Aleea Melodiei,240226,45.1142499,24.3699016
1,Strada Zefirului,240633,45.1220504,24.3632501
10,Strada Decebal,240255,45.1199606,24.3688357
10,Strada Zefirului,240633,45.1221900,24.3626598
11,Strada Decebal,240265,45.1210451,24.3686149
12,Strada Decebal,240265,45.1200537,24.3688497
12,Strada Zefirului,240633,45.1221637,24.3624979
14,Strada Decebal,240265,45.1201336,24.3688789
14,Strada Zefirului,240633,45.1221579,24.3623726
16,Strada Zefirului,240633,45.1221488,24.3622584
18,Strada Zefirului,240633,45.1221262,24.3621379
2,Strada Zefirului,240633,45.1222034,24.3633198
20,Strada Zefirului,240633,45.1221096,24.3620054
3,Strada Zefirului,240633,45.1220334,24.3628622
4,Strada Zefirului,240633,45.1222092,24.3631500
5,Strada Zefirului,240633,45.1220232,24.3625353
5C,Strada Decebal,240255,45.1194464,24.3682391
6,Strada Decebal,240255,45.1198144,24.3687927
6,Strada Zefirului,240633,45.1222077,24.3630127
7,Strada Decebal,240255,45.1199162,24.3684464
7,Strada Zefirului,240633,45.1220115,24.3622984
8,Strada Decebal,240255,45.1199183,24.3688277
8,Strada Zefirului,240633,45.1221953,24.3628172
9,Strada Decebal,240255,45.1204418,24.3685998
7,Strada Florilor,240012,45.0923833,24.3630284
5,Strada Florilor,240012,45.0928266,24.3633878
2,Aleea Bradului,240067,45.0963484,24.3682212
2,Strada Matache Temelie,240085,45.0942088,24.3646860
1,Strada Matache Temelie,240085,45.0937315,24.3642837
4,Aleea Teilor,240068,45.0962801,24.3690956
2,Aleea Teilor,240068,45.0960036,24.3689722
4,Aleea Bradului,240067,45.0966324,24.3690634
5,Aleea Trandafirilor,240525,45.0952387,24.3673629
8,Aleea Bradului,240067,45.0962386,24.3712682
3,Aleea Bradului,240067,45.0963749,24.3711716
3,Strada Florilor,240012,45.0931369,24.3635756
1,Aleea Bradului,240067,45.0966756,24.3696213
1,Strada Florilor,240012,45.0933151,24.3636346
9,Strada Florilor,240012,45.0919402,24.3626368
3,Strada Matache Temelie,240085,45.0946782,24.3650776
5,Bulevardul Tineretului,240032,45.0936597,24.3724537
1,Bulevardul Tineretului,240058,45.0953146,24.3731350
4,Bulevardul Tineretului,240060,45.0955681,24.3726468
3,Bulevardul Tineretului,240032,45.0944928,24.3727809
10,Bulevardul Tineretului,240523,45.0937315,24.3720782
12,Bulevardul Tineretului,240023,45.0927923,24.3717563
7,Bulevardul Tineretului,240032,45.0928493,24.3721318
8,Bulevardul Tineretului,240522,45.0946555,24.3721211
6,Bulevardul Tineretului,240060,45.0951743,24.3723250
1 BIS,Strada Carpați,240640,45.1326381,24.3651231
1,Strada Carpați,240640,45.1326096,24.3652713
1,Strada Câmpului,240627,45.1238059,24.3644937
1,Strada Someș,240629,45.1331126,24.3652337
10,Strada Carpați,240640,45.1323175,24.3661615
10,Strada Câmpului,240627,45.1236184,24.3654209
10,Strada Câmpului,240627,45.1236981,24.3658453
10,Strada Someș,240629,45.1327801,24.3662776
11,Strada Câmpului,240627,45.1240972,24.3665332
11,Strada Someș,240629,45.1329356,24.3665470
11,Strada Timiș,240630,45.1319133,24.3659210
12,Strada Carpați,240640,45.1322660,24.3664739
12,Strada Câmpului,240627,45.1237714,24.3660975
12,Strada Someș,240629,45.1327432,24.3665577
12,Strada Timiș,240630,45.1316618,24.3665050
13,Strada Carpați,240640,45.1323978,24.3667734
13,Strada Câmpului,240627,45.1241992,24.3668352
13,Strada Someș,240629,45.1329038,24.3667278
13,Strada Timiș,240630,45.1318668,24.3662253
13,Strada Timiș,240630,45.1318909,24.3660631
14,Strada Carpați,240640,45.1322249,24.3668530
14,Strada Câmpului,240627,45.1238313,24.3663870
14,Strada Someș,240629,45.1327076,24.3668178
14,Strada Timiș,240630,45.1316309,24.3666903
14B,Strada Carpați,240640,45.1322066,24.3669837
15,Strada Carpați,240640,45.1323698,24.3669533
15,Strada Câmpului,240627,45.1242752,24.3670778
15,Strada Someș,240629,45.1328826,24.3669065
15,Strada Timiș,240630,45.1318449,24.3664315
15A,Strada Câmpului,240627,45.1249770,24.3690761
16,Strada Carpați,240640,45.1321922,24.3671180
16,Strada Câmpului,240627,45.1239143,24.3666024
16,Strada Someș,240629,45.1326692,24.3670796
16,Strada Timiș,240630,45.1316040,24.3669121
17,Strada Câmpului,240627,45.1252101,24.3699692
17,Strada Someș,240629,45.1328388,24.3671756
17,Strada Timiș,240630,45.1318267,24.3665598
18,Strada Barajului,240266,45.1208417,24.3701967
18,Strada Carpați,240640,45.1321644,24.3672427
18,Strada Câmpului,240627,45.1240257,24.3670141
18,Strada Someș,240629,45.1326369,24.3673623
19,Strada Someș,240629,45.1328231,24.3672846
19,Strada Timiș,240630,45.1318057,24.3666982
2,Strada Carpați,240640,45.1324698,24.3651207
2,Strada Someș,240629,45.1329134,24.3653689
20,Strada Câmpului,240627,45.1241319,24.3672795
20,Strada Someș,240629,45.1325556,24.3679304
20,Strada Timiș,240630,45.1315320,24.3674983
21,Strada Barajului,240277,45.1234593,24.3682728
21,Strada Carpați,240640,45.1321960,24.3681903
21,Strada Timiș,240630,45.1317883,24.3667950
22,Strada Carpați,240640,45.1320656,24.3677905
22,Strada Câmpului,240627,45.1243923,24.3683584
22,Strada Someș,240629,45.1324934,24.3684198
22,Strada Timiș,240630,45.1313803,24.3685618
23,Strada Carpați,240640,45.1321506,24.3685185
23,Strada Someș,240629,45.1327535,24.3679506
23,Strada Timiș,240630,45.1317671,24.3669566
24,Strada Carpați,240640,45.1320042,24.3682357
24,Strada Câmpului,240627,45.1244401,24.3685796
24,Strada Someș,240629,45.1324689,24.3686235
24,Strada Timiș,240630,45.1313250,24.3690136
25 BIS,Strada Timiș,240630,45.1317420,24.3671093
25,Strada Carpați,240640,45.1321267,24.3687167
25,Strada Someș,240629,45.1327227,24.3681523
25,Strada Timiș,240630,45.1317541,24.3670392
26,Strada Barajului,240266,45.1211668,24.3699602
26,Strada Carpați,240640,45.1319865,24.3683865
26,Strada Câmpului,240627,45.1245035,24.3687890
26,Strada Someș,240629,45.1324390,24.3688917
26,Strada Timiș,240630,45.1312612,24.3694430
27,Strada Carpați,240640,45.1320675,24.3693275
27,Strada Someș,240629,45.1327125,24.3682908
28,Strada Carpați,240640,45.1319131,24.3691184
28,Strada Câmpului,240627,45.1245744,24.3691026
28,Strada Someș,240629,45.1324006,24.3691274
29,Strada Carpați,240640,45.1320056,24.3698202
29,Strada Someș,240629,45.1326803,24.3684780
29,Strada Timiș,240630,45.1316835,24.3675939
3,Strada Carpați,240640,45.1325584,24.3655970
3,Strada Câmpului,240627,45.1238183,24.3646383
3,Strada Someș,240629,45.1330691,24.3656396
3,Strada Timiș,240630,45.1320261,24.3650874
30,Strada Carpați,240640,45.1318966,24.3692255
30,Strada Câmpului,240627,45.1246762,24.3694059
30,Strada Someș,240629,45.1323616,24.3693714
31,Strada Carpați,240640,45.1319540,24.3701174
31,Strada Someș,240629,45.1326554,24.3686351
31,Strada Timiș,240630,45.1316584,24.3677858
32,Strada Carpați,240640,45.1318424,24.3696093
32,Strada Câmpului,240627,45.1247458,24.3695635
32,Strada Someș,240629,45.1323365,24.3696100
33,Strada Someș,240629,45.1326184,24.3688530
33,Strada Timiș,240630,45.1316205,24.3680592
34,Strada Carpați,240640,45.1318114,24.3698100
34,Strada Câmpului,240627,45.1248220,24.3697259
34,Strada Someș,240629,45.1322962,24.3699118
34A,Strada Someș,240629,45.1322838,24.3700594
35,Strada Barajului,240277,45.1248224,24.3670276
35,Strada Someș,240629,45.1325966,24.3691224
35,Strada Timiș,240630,45.1315740,24.3683660
36,Strada Barajului,240266,45.1219488,24.3693708
36,Strada Carpați,240640,45.1317425,24.3702294
36,Strada Câmpului,240627,45.1248851,24.3699599
36,Strada Someș,240629,45.1322745,24.3701583
37,Strada Barajului,240277,45.1249726,24.3675564
37,Strada Someș,240629,45.1325804,24.3692266
37,Strada Timiș,240630,45.1315519,24.3685388
38,Strada Carpați,240640,45.1316816,24.3705948
38,Strada Câmpului,240627,45.1249436,24.3701198
38,Strada Someș,240629,45.1322552,24.3703193
39,Strada Barajului,240277,45.1247789,24.3667928
39,Strada Someș,240629,45.1325539,24.3694682
4,Strada Carpați,240640,45.1324429,24.3653047
4,Strada Câmpului,240627,45.1235189,24.3643609
4,Strada Someș,240629,45.1328769,24.3655972
4,Strada Timiș,240630,45.1317160,24.3659786
40,Strada Barajului,240266,45.1231415,24.3691792
40,Strada Someș,240629,45.1322437,24.3704187
41,Strada Someș,240629,45.1325405,24.3696457
41,Strada Timiș,240630,45.1314785,24.3690534
42,Strada Barajului,240266,45.1231908,24.3687789
42,Strada Câmpului,240627,45.1250235,24.3703666
43,Strada Barajului,240277,45.1246684,24.3662816
43,Strada Timiș,240630,45.1314276,24.3694843
44,Strada Barajului,240266,45.1235718,24.3686156
44,Strada Câmpului,240627,45.1250530,24.3705004
45,Strada Someș,240629,45.1324916,24.3700106
46,Strada Barajului,240266,45.1238534,24.3684960
46,Strada Câmpului,240627,45.1250953,24.3706191
47,Strada Someș,240629,45.1324790,24.3701971
48,Strada Câmpului,240627,45.1251410,24.3707493
49,Strada Barajului,240277,45.1248942,24.3662998
49,Strada Someș,240629,45.1324329,24.3704726
49A,Strada Timiș,240630,45.1311694,24.3698009
5,Strada Carpați,240640,45.1325323,24.3658542
5,Strada Câmpului,240627,45.1238304,24.3648549
5,Strada Someș,240629,45.1330390,24.3658295
5,Strada Timiș,240630,45.1320045,24.3652551
51,Strada Barajului,240277,45.1251859,24.3674367
51,Strada Someș,240629,45.1323565,24.3709706
51A,Strada Timiș,240630,45.1310620,24.3707167
52,Strada Barajului,240266,45.1261949,24.3675527
56,Strada Barajului,240266,45.1255870,24.3678699
6,Strada Carpați,240640,45.1323759,24.3657295
6,Strada Câmpului,240627,45.1236037,24.3644900
6,Strada Someș,240629,45.1328553,24.3657592
6A,Strada Câmpului,240627,45.1236278,24.3647462
6B,Strada Someș,240629,45.1328359,24.3659082
7,Strada Câmpului,240627,45.1238285,24.3651758
7,Strada Someș,240629,45.1330018,24.3660327
7,Strada Timiș,240630,45.1319802,24.3654205
8,Strada Carpați,240640,45.1323569,24.3658953
8,Strada Câmpului,240627,45.1236436,24.3649981
8,Strada Someș,240629,45.1328118,24.3660653
9,Strada Câmpului,240627,45.1239769,24.3661137
9,Strada Someș,240629,45.1329644,24.3662378
9,Strada Timiș,240630,45.1319421,24.3656515
9A,Strada Câmpului,240627,45.1240370,24.3663330
1,Strada Timiș,240630,45.1320590,24.3648619
1,Aleea Castanilor,240589,45.1084778,24.3598706
1,Strada Daniil Ionescu,240283,45.1129027,24.3623533
1,Strada Panait Istrati,240468,45.1365405,24.3667160
1,Strada Popa Șapcă,240590,45.1078296,24.3617440
10,Strada Bujorencii,240275,45.1369041,24.3643866
10,Strada Daniil Ionescu,240283,45.1130701,24.3621805
10,Strada Panait Istrati,240468,45.1361223,24.3682579
11,Aleea Castanilor,240589,45.1079666,24.3585021
11,Strada Bujorencii,240275,45.1368594,24.3631222
11,Strada Daniil Ionescu,240283,45.1129877,24.3617282
11,Strada Panait Istrati,240468,45.1362092,24.3689179
11,Strada Popa Șapcă,240590,45.1078554,24.3608336
11A,Strada Daniil Ionescu,240283,45.1131107,24.3611258
12,Strada Bujorencii,240275,45.1369845,24.3639307
12,Strada Daniil Ionescu,240283,45.1130797,24.3621045
12,Strada Panait Istrati,240468,45.1360559,24.3685890
13,Aleea Castanilor,240589,45.1077991,24.3582834
13,Strada Daniil Ionescu,240283,45.1131653,24.3610082
13,Strada Popa Șapcă,240590,45.1076615,24.3607996
14,Strada Bujorencii,240275,45.1371562,24.3629267
14,Strada Daniil Ionescu,240283,45.1130893,24.3620077
14,Strada Panait Istrati,240468,45.1360211,24.3688456
15,Aleea Castanilor,240589,45.1077111,24.3581378
15,Strada Daniil Ionescu,240283,45.1133078,24.3609074
15,Strada Popa Șapcă,240590,45.1076543,24.3607068
15A,Strada Daniil Ionescu,240283,45.1133413,24.3608922
16,Strada Bujorencii,240275,45.1371970,24.3626449
16,Strada Daniil Ionescu,240283,45.1131224,24.3618075
16,Strada Panait Istrati,240468,45.1359702,24.3691530
17,Aleea Castanilor,240589,45.1076324,24.3580173
17,Strada Daniil Ionescu,240283,45.1135172,24.3608830
17,Strada Popa Șapcă,240590,45.1072794,24.3606533
18,Strada Panait Istrati,240468,45.1359541,24.3692903
18A,Strada Daniil Ionescu,240283,45.1131358,24.3616952
19,Strada Daniil Ionescu,240283,45.1136810,24.3608698
19,Strada Popa Șapcă,240590,45.1078712,24.3605792
1B,Aleea Castanilor,240589,45.1084357,24.3597120
2,Strada Bujorencii,240275,45.1367758,24.3650565
2,Strada Daniil Ionescu,240283,45.1130105,24.3626119
20,Strada Daniil Ionescu,240283,45.1131409,24.3616549
20,Strada Panait Istrati,240468,45.1359363,24.3694358
21,Strada Daniil Ionescu,240283,45.1138699,24.3608477
21,Strada Popa Șapcă,240590,45.1076399,24.3605303
22,Strada Daniil Ionescu,240283,45.1131492,24.3615940
23,Strada Daniil Ionescu,240283,45.1140258,24.3608291
23,Strada Popa Șapcă,240590,45.1078842,24.3604274
24,Strada Daniil Ionescu,240283,45.1131586,24.3614916
25,Strada Daniil Ionescu,240283,45.1141671,24.3608299
25,Strada Popa Șapcă,240590,45.1077840,24.3602696
25BIS,Strada Popa Șapcă,240590,45.1076420,24.3602616
26,Strada Daniil Ionescu,240283,45.1131833,24.3613787
27,Strada Daniil Ionescu,240283,45.1142886,24.3607932
27,Strada Popa Șapcă,240590,45.1075613,24.3600775
28,Strada Daniil Ionescu,240283,45.1132411,24.3612226
29,Strada Daniil Ionescu,240283,45.1143732,24.3607837
29,Strada Popa Șapcă,240590,45.1074127,24.3598092
3,Strada Daniil Ionescu,240283,45.1129205,24.3621771
3,Strada Panait Istrati,240468,45.1365132,24.3670509
3,Strada Popa Șapcă,240590,45.1078331,24.3614308
30,Strada Daniil Ionescu,240283,45.1133936,24.3611357
31,Strada Daniil Ionescu,240283,45.1145033,24.3607758
31,Strada Popa Șapcă,240590,45.1078883,24.3600552
32,Strada Daniil Ionescu,240283,45.1134698,24.3611220
33,Strada Daniil Ionescu,240283,45.1145780,24.3607679
34,Strada Daniil Ionescu,240283,45.1137324,24.3610964
35,Strada Daniil Ionescu,240283,45.1146899,24.3607616
35,Strada Popa Șapcă,240590,45.1075342,24.3595291
36,Strada Daniil Ionescu,240283,45.1138459,24.3610771
37,Strada Popa Șapcă,240590,45.1076471,24.3595735
38,Strada Daniil Ionescu,240283,45.1139547,24.3610428
39,Strada Daniil Ionescu,240283,45.1149015,24.3607009
39,Strada Popa Șapcă,240590,45.1077759,24.3596653
3A,Aleea Castanilor,240589,45.1083050,24.3592633
4,Strada Bujorencii,240275,45.1368250,24.3648095
4,Strada Daniil Ionescu,240283,45.1130280,24.3625004
4,Strada Panait Istrati,240468,45.1362452,24.3673864
40,Strada Daniil Ionescu,240283,45.1140697,24.3610298
41,Strada Daniil Ionescu,240283,45.1149921,24.3606751
41,Strada Popa Șapcă,240590,45.1078961,24.3597356
42,Strada Daniil Ionescu,240283,45.1142081,24.3610287
44,Strada Daniil Ionescu,240283,45.1143604,24.3610136
45,Strada Daniil Ionescu,240283,45.1152098,24.3605876
45,Strada Popa Șapcă,240590,45.1080013,24.3598241
46,Strada Daniil Ionescu,240283,45.1144910,24.3609956
47,Strada Daniil Ionescu,240283,45.1152893,24.3605490
48,Strada Daniil Ionescu,240283,45.1145854,24.3609830
49,Strada Daniil Ionescu,240283,45.1153797,24.3605081
5,Aleea Castanilor,240589,45.1081926,24.3589642
5,Strada Panait Istrati,240468,45.1364567,24.3673738
5,Strada Popa Șapcă,240590,45.1078464,24.3612923
51,Strada Daniil Ionescu,240283,45.1155867,24.3604096
53,Strada Daniil Ionescu,240283,45.1156661,24.3603840
54,Strada Daniil Ionescu,240283,45.1148863,24.3609687
54A,Strada Daniil Ionescu,240283,45.1148115,24.3609740
55,Strada Daniil Ionescu,240283,45.1157202,24.3603601
56,Strada Daniil Ionescu,240283,45.1149197,24.3609588
59,Strada Daniil Ionescu,240283,45.1153102,24.3590453
6,Strada Daniil Ionescu,240283,45.1130483,24.3623641
6,Strada Panait Istrati,240468,45.1361970,24.3677486
60,Strada Daniil Ionescu,240283,45.1149444,24.3609555
61,Strada Daniil Ionescu,240283,45.1152258,24.3587562
62,Strada Daniil Ionescu,240283,45.1149895,24.3609447
64,Strada Daniil Ionescu,240283,45.1150385,24.3609291
65A,Strada Daniil Ionescu,240283,45.1156459,24.3588624
66,Strada Daniil Ionescu,240283,45.1151300,24.3608923
67,Strada Daniil Ionescu,240283,45.1157709,24.3597924
68,Strada Daniil Ionescu,240283,45.1156190,24.3605915
69,Strada Daniil Ionescu,240283,45.1158940,24.3602281
7,Aleea Castanilor,240589,45.1081355,24.3588451
7,Strada Daniil Ionescu,240283,45.1129553,24.3619714
7,Strada Panait Istrati,240468,45.1364245,24.3677056
7,Strada Popa Șapcă,240590,45.1076276,24.3610137
70,Strada Daniil Ionescu,240283,45.1158534,24.3604856
71,Strada Daniil Ionescu,240283,45.1160465,24.3600498
73,Strada Daniil Ionescu,240283,45.1161497,24.3596544
75,Strada Daniil Ionescu,240283,45.1161494,24.3593219
77,Strada Daniil Ionescu,240283,45.1161171,24.3591950
79,Strada Daniil Ionescu,240283,45.1160811,24.3591065
8,Strada Bujorencii,240275,45.1368611,24.3645725
8,Strada Daniil Ionescu,240283,45.1130566,24.3622697
8,Strada Panait Istrati,240468,45.1361483,24.3680286
81,Strada Daniil Ionescu,240283,45.1160206,24.3590045
83,Strada Daniil Ionescu,240283,45.1159657,24.3588837
9,Aleea Castanilor,240589,45.1080601,24.3586734
9,Strada Popa Șapcă,240590,45.1078768,24.3609843
1,Strada Lt. Alexandru Costeanu,240642,45.1118051,24.3625572
10,Strada Lt. Alexandru Costeanu,240642,45.1120269,24.3614629
11,Strada Lt. Alexandru Costeanu,240642,45.1118624,24.3616230
12,Strada Lt. Alexandru Costeanu,240642,45.1120269,24.3613534
13,Strada Lt. Alexandru Costeanu,240642,45.1118714,24.3614860
14,Strada Lt. Alexandru Costeanu,240642,45.1120358,24.3611332
15,Strada Lt. Alexandru Costeanu,240642,45.1118718,24.3614045
16,Strada Lt. Alexandru Costeanu,240642,45.1120600,24.3610275
16A,Strada Lt. Alexandru Costeanu,240642,45.1120288,24.3609548
17,Strada Lt. Alexandru Costeanu,240642,45.1118758,24.3613461
18,Strada Lt. Alexandru Costeanu,240642,45.1119313,24.3607961
19,Strada Lt. Alexandru Costeanu,240642,45.1119014,24.3611754
2,Strada Lt. Alexandru Costeanu,240642,45.1119669,24.3625140
20,Strada Lt. Alexandru Costeanu,240642,45.1118344,24.3606543
21,Strada Lt. Alexandru Costeanu,240642,45.1118492,24.3609699
3,Strada Lt. Alexandru Costeanu,240642,45.1118194,24.3623694
4,Strada Lt. Alexandru Costeanu,240642,45.1119963,24.3619757
5,Strada Lt. Alexandru Costeanu,240642,45.1118284,24.3621939
6,Strada Lt. Alexandru Costeanu,240642,45.1120110,24.3617190
7,Strada Lt. Alexandru Costeanu,240642,45.1118424,24.3620211
8,Strada Lt. Alexandru Costeanu,240642,45.1120104,24.3616045
9,Strada Lt. Alexandru Costeanu,240642,45.1118524,24.3618365
15,Strada George Coșbuc,240533,45.0973448,24.3654940
4,Strada George Coșbuc,240533,45.0965578,24.3650951
30,Strada Ștrandului,240501,45.0719015,24.3460077
64,Strada Ștrandului,240501,45.0736555,24.3513563
14,Strada Ștrandului,240501,45.0708956,24.3450665
66,Strada Ștrandului,240501,45.0736688,24.3515521
20,Strada Ștrandului,240501,45.0711741,24.3452996
50,Strada Ștrandului,240501,45.0733548,24.3489530
52,Strada Ștrandului,240501,45.0734092,24.3492317
38,Strada Ștrandului,240501,45.0723769,24.3464878
32,Strada Ștrandului,240501,45.0720757,24.3461767
44,Strada Ștrandului,240501,45.0731611,24.3479925
28,Strada Ștrandului,240501,45.0716042,24.3457127
48,Strada Ștrandului,240501,45.0733088,24.3486982
60,Strada Ștrandului,240501,45.0736555,24.3511495
56,Strada Ștrandului,240501,45.0736080,24.3505031
54,Strada Ștrandului,240501,45.0735039,24.3498325
46,Strada Ștrandului,240501,45.0732313,24.3482527
16,Strada Ștrandului,240501,45.0709809,24.3451306
68,Strada Ștrandului,240501,45.0736838,24.3517852
70,Strada Ștrandului,240501,45.0736631,24.3519971
60A,Strada Ștrandului,240501,45.0736421,24.3509403
34,Strada Ștrandului,240501,45.0721629,24.3462732
22,Strada Ștrandului,240501,45.0713314,24.3454820
42,Strada Ștrandului,240501,45.0730948,24.3478212
18,Strada Ștrandului,240501,45.0710796,24.3451967
24,Strada Ștrandului,240501,45.0714942,24.3455973
36,Strada Ștrandului,240501,45.0722747,24.3463779
28,Strada Matei Basarab,240614,45.1134143,24.3706879
22,Strada Gib Mihăescu,240574,45.1010008,24.3722153
12,Bulevardul Tineretului,240023,45.0929923,24.3717463
18D,Strada Nicolae Iorga,240510,45.0922282,24.3768489
18B,Strada Nicolae Iorga,240510,45.0917207,24.3775462
35,Strada Nicolae Iorga,240510,45.0909353,24.3787204
18A,Strada Nicolae Iorga,240510,45.0920502,24.3777018
18F,Strada Nicolae Iorga,240510,45.0916372,24.3766236
18C,Strada Nicolae Iorga,240510,45.0925350,24.3769722
39,Strada Nicolae Iorga,240510,45.0904820,24.3787617
29,Strada Nicolae Iorga,240510,45.0918766,24.3786044
18E,Strada Nicolae Iorga,240510,45.0919326,24.3767416
31,Strada Nicolae Iorga,240510,45.0914049,24.3786545
4,Strada Ostroveni,240036,45.0945073,24.3741643
204,Strada Căzănești,240002,45.0469832,24.2717928
38A,Strada Ferdinand,240571,45.1120562,24.3828669
38A,Strada Ferdinand,240571,45.1115169,24.3799778
121,Calea lui Traian,240165,45.1016112,24.3627790
111,Strada Copăcelu,240003,45.0727487,24.3224053
111,Strada Copăcelu,240003,45.0729250,24.3223870
8,Strada Cătăneștilor,240413,45.0722777,24.3357693
6,Strada Cătăneștilor,240413,45.0723974,24.3356934
4,Strada Cătăneștilor,240413,45.0724790,24.3356210
2,Strada Cătăneștilor,240413,45.0725834,24.3355177
8,Strada Cătăneștilor,240413,45.0723343,24.3357350
1,Strada Carol I,240176,45.1025700,24.3617237
9,Strada Căpitan Negoescu,240590,45.1060488,24.3613769
7,Strada Căpitan Negoescu,240590,45.1060504,24.3615528
5,Strada Căpitan Negoescu,240590,45.1060472,24.3618415
3,Strada Căpitan Negoescu,240590,45.1060488,24.3620986
1,Strada Căpitan Negoescu,240590,45.1060647,24.3625294
11,Strada Căpitan Negoescu,240590,45.1060743,24.3611829
1,Strada Avram Iancu,240605,45.1068715,24.3673196
40,Strada General Gheorghe Magheru,240605,45.1070933,24.3672530
42,Strada General Gheorghe Magheru,240605,45.1071669,24.3672687
38,Strada General Gheorghe Magheru,240605,45.1069030,24.3671852
36,Strada General Gheorghe Magheru,240605,45.1066986,24.3670741
34,Strada General Gheorghe Magheru,240605,45.1065623,24.3670178
32,Strada General Gheorghe Magheru,240605,45.1064345,24.3669333
30,Strada General Gheorghe Magheru,240605,45.1063015,24.3669641
28,Strada General Gheorghe Magheru,240605,45.1061808,24.3668636
26,Strada General Gheorghe Magheru,240605,45.1059593,24.3668636
24,Strada General Gheorghe Magheru,240605,45.1058088,24.3669722
42,Strada General Gheorghe Magheru,240605,45.1079077,24.3678220
234,Strada Copăcelu,240003,45.0659800,24.3071166
259,Strada Copăcelu,240003,45.0625950,24.3020176
247,Strada Copăcelu,240003,45.0630648,24.3030877
239,Strada Copăcelu,240003,45.0635696,24.3037408
237,Strada Copăcelu,240003,45.0637926,24.3041671
227,Strada Copăcelu,240003,45.0641520,24.3048973
225,Strada Copăcelu,240003,45.0642380,24.3050326
205,Strada Copăcelu,240003,45.0652283,24.3066306
3,Strada Damian Ureche,240003,45.0737906,24.3310584
75,Strada Copăcelu,240003,45.0732531,24.3265109
85,Strada Copăcelu,240003,45.0732711,24.3257978
53,Strada Copăcelu,240003,45.0731093,24.3295943
49,Strada Copăcelu,240003,45.0729356,24.3300209
19,Strada Copăcelu,240003,45.0733040,24.3333743
24,Strada Ghioceilor,240003,45.0743713,24.3223169
54,Drumul Gării,240003,45.0680750,24.3205682
33A,Strada Gării,240003,45.0686785,24.3213894
64,Drumul Gării,240003,45.0675536,24.3210101
66,Drumul Gării,240003,45.0674035,24.3210995
7,Strada Bâlciului,240003,45.0675226,24.3117583
13,Strada Bâlciului,240003,45.0669397,24.3117082
4,Strada Bâlciului,240003,45.0668066,24.3112482
49,Strada Bâlciului,240003,45.0639154,24.3120046
74,Strada Eftimeștilor,240003,45.0673549,24.3020427
13,Strada Eftimeștilor,240003,45.0671790,24.3053206
15,Strada Eftimeștilor,240003,45.0671715,24.3050967
4,Strada Eftimeștilor,240003,45.0666773,24.3072203
296,Strada Copăcelu,240003,45.0630421,24.3014670
296A,Strada Copăcelu,240003,45.0629272,24.3012884
296B,Strada Copăcelu,240003,45.0628190,24.3010906
5,Strada Căzănești,240002,45.0619039,24.3007794
7,Strada Căzănești,240002,45.0618433,24.3004455
7,Bulevardul Nicolae Bălcescu,240219,45.1092035,24.3652911
140,Calea lui Traian,240591,45.1092068,24.3649035
7,Bulevardul Nicolae Bălcescu,240591,45.1092085,24.3656577
23,Strada Gabriel Stoianovici,240176,45.1041503,24.3616239
18,Strada Bâlciului,240003,45.0544888,24.3114541
100,Strada Bâlciului,240003,45.0567110,24.3116970
1B,Bulevardul Tineretului,240047,45.0964520,24.3757759
37A,Strada Patriarh Iustinian Marina,240425,45.0846363,24.3662051
4,Strada George Coșbuc,240533,45.0969301,24.3651814
17,Strada Octavian Goga,240461,45.0860372,24.3778772
17A,Strada Octavian Goga,240461,45.0862171,24.3779635
17B,Strada Octavian Goga,240461,45.0863349,24.3777503
19,Strada Octavian Goga,240461,45.0863153,24.3773240
21,Strada Octavian Goga,240461,45.0861975,24.3774785
21A,Strada Octavian Goga,240461,45.0861299,24.3776546
101,Strada Ostroveni,240042,45.0807581,24.3681123
101A,Strada Ostroveni,240042,45.0805825,24.3680617
101B,Strada Ostroveni,240042,45.0802045,24.3685127
101C,Strada Ostroveni,240042,45.0800974,24.3679185
101D,Strada Ostroveni,240042,45.0803355,24.3674844
99,Strada Ostroveni,240042,45.0814177,24.3694421
99A,Strada Ostroveni,240042,45.0815824,24.3683252
99A,Strada Ostroveni,240042,45.0815906,24.3681461
21A,Strada Căminului,240411,45.0817868,24.3714199
21,Strada Căminului,240411,45.0816788,24.3713205
3,Strada Marin Sorescu,240513,45.0920968,24.3763121
37,Strada Nicolae Iorga,240510,45.0905543,24.3780443
33,Strada Nicolae Iorga,240510,45.0910460,24.3782464
3E,Bulevardul Tineretului,240519,45.0943925,24.3733670
6,Strada Ostroveni,240029,45.0935173,24.3740690
4,Strada Mircea Buciu,240456,45.0878569,24.3776441
2,Strada Mircea Buciu,240456,45.0877085,24.3776118
5,Strada Mircea Buciu,240456,45.0879933,24.3773277
1,Strada Inginer Ion Filote,240446,45.0881429,24.3777488
3,Strada Inginer Ion Filote,240446,45.0882262,24.3781807
5,Strada Inginer Ion Filote,240446,45.0883417,24.3786554
2,Strada Inginer Ion Filote,240446,45.0879611,24.3781351
4,Strada Inginer Ion Filote,240446,45.0880368,24.3785052
6,Strada Inginer Ion Filote,240446,45.0881448,24.3789800
6,Strada Mircea Buciu,240456,45.0883889,24.3776681
8,Strada Mircea Buciu,240456,45.0885773,24.3778359
10,Strada Mircea Buciu,240456,45.0886886,24.3776479
12,Strada Mircea Buciu,240456,45.0888813,24.3779087
14,Strada Mircea Buciu,240456,45.0890197,24.3778561
7A,Strada Mircea Buciu,240456,45.0884888,24.3771163
7B,Strada Mircea Buciu,240456,45.0884660,24.3769586
7,Strada Mircea Buciu,240456,45.0883518,24.3771062
9,Strada Mircea Buciu,240456,45.0887557,24.3773508
11,Strada Mircea Buciu,240456,45.0890026,24.3773204
13,Strada Mircea Buciu,240456,45.0890897,24.3770273
3,Strada Mircea Buciu,240456,45.0877923,24.3773305
1,Strada Mircea Buciu,240456,45.0877167,24.3773144
16,Strada Mircea Buciu,240456,45.0891014,24.3777353
18,Strada Mircea Buciu,240456,45.0892444,24.3775560
20,Strada Mircea Buciu,240456,45.0893973,24.3775281
22,Strada Mircea Buciu,240456,45.0894630,24.3773581
24,Strada Mircea Buciu,240456,45.0896373,24.3772300
15,Strada Mircea Buciu,240456,45.0892849,24.3769102
17,Strada Mircea Buciu,240456,45.0896167,24.3766354
19,Strada Mircea Buciu,240456,45.0898429,24.3762985
21,Strada Mircea Buciu,240456,45.0899703,24.3763657
26,Strada Mircea Buciu,240456,45.0898289,24.3772156
28,Strada Mircea Buciu,240456,45.0898651,24.3768267
30,Strada Mircea Buciu,240456,45.0899654,24.3767149
24A,Strada Mircea Buciu,240456,45.0897774,24.3776310
5,Strada Ostroveni,240512,45.0938967,24.3745068
16,Bulevardul Tineretului,240021,45.0918565,24.3678787
36,Bulevardul Nicolae Bălcescu,240209,45.1079126,24.3781459
26,Strada Gib Mihăescu,240574,45.1008214,24.3726282
24,Bulevardul Nicolae Bălcescu,240605,45.1080458,24.3709459
4,Strada Grigore Procopiu,240202,45.1108718,24.3659486
26,Strada Carol I,240591,45.1065228,24.3627284
3,Strada Gib Mihăescu,240133,45.1022179,24.3677737
43,Calea lui Traian,240011,45.0845902,24.3563073
13,Strada Berzei,240407,45.0732663,24.3418971
2A,Strada Berzei,240407,45.0743383,24.3401110
7,Strada Gib Mihăescu,240133,45.1022021,24.3683527
3A,Bulevardul Tineretului,240032,45.0937074,24.3733626
64,Strada Iancu Pop,240599,45.1094364,24.3728512
10,Strada Gib Mihăescu,240142,45.0995417,24.3734913
8,Strada Nicolae Iorga,240047,45.0957355,24.3768012
7,Strada Rapsodiei,240240,45.1165614,24.3647655
7,Strada Rapsodiei,240240,45.1163670,24.3649252
7,Strada Rapsodiei,240240,45.1161769,24.3650929
7,Strada Rapsodiei,240240,45.1159978,24.3652337
7,Strada Rapsodiei,240240,45.1158191,24.3650444
9,Aleea Primăverii,240240,45.1162626,24.3643648
9,Aleea Primăverii,240240,45.1160754,24.3645273
38,Strada Dealul Malului,240424,45.1244674,24.3541417
17,Strada Dealul Malului,240424,45.1240341,24.3555404
35a,Strada Dealul Malului,240424,45.1235260,24.3522643
56a,Strada Dealul Malului,240424,45.1239787,24.3516858
28,Strada Dealul Malului,240424,45.1246596,24.3551153
30,Strada Dealul Malului,240424,45.1242484,24.3543751
24,Strada Dealul Malului,240424,45.1245696,24.3552119
86,Strada Dealul Malului,240424,45.1251563,24.3469494
22,Strada Dealul Malului,240424,45.1244665,24.3553902
20,Strada Dealul Malului,240424,45.1244882,24.3558046
27,Strada Dealul Malului,240424,45.1244787,24.3545776
50,Strada Dealul Malului,240424,45.1240710,24.3526825
70,Strada Dealul Malului,240424,45.1246331,24.3498575
33,Strada Dealul Malului,240424,45.1238675,24.3537916
25,Strada Dealul Malului,240424,45.1247901,24.3548196
2,Strada Dealul Malului,240424,45.1241241,24.3600267
55,Strada Dealul Malului,240424,45.1246194,24.3480714
72,Strada Dealul Malului,240424,45.1247740,24.3495537
66,Strada Dealul Malului,240424,45.1243046,24.3501870
31,Strada Dealul Malului,240424,45.1239498,24.3538761
23,Strada Dealul Malului,240424,45.1242541,24.3551791
63,Strada Dealul Malului,240424,45.1243575,24.3499800
45,Strada Dealul Malului,240424,45.1241374,24.3493108
48,Strada Dealul Malului,240424,45.1242290,24.3529414
62,Strada Dealul Malului,240424,45.1241405,24.3507434
76H,Strada Dealul Malului,240424,45.1263235,24.3506697
10,Strada Dealul Malului,240424,45.1251156,24.3585003
57,Strada Dealul Malului,240424,45.1247884,24.3474922
6,Strada Dealul Malului,240424,45.1248165,24.3588624
15,Strada Dealul Malului,240424,45.1239177,24.3558503
80,Strada Dealul Malului,240424,45.1248202,24.3486774
1,Strada Dealul Malului,240424,45.1238855,24.3598910
80b,Strada Dealul Malului,240424,45.1250763,24.3481913
64,Strada Dealul Malului,240424,45.1241361,24.3505105
60,Strada Dealul Malului,240424,45.1240481,24.3511243
35,Strada Dealul Malului,240424,45.1239540,24.3519393
13,Strada Dealul Malului,240424,45.1239461,24.3567690
39,Strada Dealul Malului,240424,45.1235645,24.3505223
41,Strada Dealul Malului,240424,45.1236407,24.3502284
28,Bulevardul Nicolae Bălcescu,240599,45.1078745,24.3747101
26,Bulevardul Nicolae Bălcescu,240599,45.1081062,24.3733041
30,Bulevardul Nicolae Bălcescu,240599,45.1080082,24.3751637
16,Strada Cerna,240565,45.1033131,24.3701888
17,Strada Gib Mihăescu,240141,45.1013120,24.3727119
19,Strada Gib Mihăescu,240141,45.1012289,24.3737790
12,Strada Regina Maria,240712,45.1024781,24.3686637
10,Strada Regina Maria,240712,45.1025185,24.3677255
11,Strada Regina Maria,240140,45.1028262,24.3681444
15,Strada Regina Maria,240140,45.1028069,24.3689307
22,Strada Regina Maria,240713,45.1020887,24.3707614
27,Strada Tudor Vladimirescu,240492,45.1053058,24.3712765
29,Strada Tudor Vladimirescu,240492,45.1054411,24.3722589
18,Strada Mihai Viteazul,240605,45.1073350,24.3698741
31,Strada Tudor Vladimirescu,240492,45.1057102,24.3733381
125,Strada Tudor Vladimirescu,240492,45.1060044,24.3705145
21,Strada Regina Maria,240567,45.1028833,24.3702789
23,Strada Tudor Vladimirescu,240492,45.1053869,24.3699648
28,Strada Gib Mihăescu,240574,45.1008828,24.3730001
19,Strada Republicii,240263,45.1191993,24.3693957
6,Strada Lucian Blaga,240029,45.0912709,24.3743048
3,Strada Nicolae Iorga,240513,45.0920876,24.3763265
10,Strada Barajului,240266,45.1204305,24.3714783
12,Aleea Olănești,240122,45.0986890,24.3664966
8,Strada Dacia,240539,45.0985942,24.3639593
2,Strada Gib Mihăescu,240142,45.1014786,24.3684617
9,Strada Gib Mihăescu,240133,45.1017583,24.3690051
13,Strada Gib Mihăescu,240141,45.1016015,24.3700238
15,Strada Gib Mihăescu,240141,45.1018701,24.3701615
7,Strada Vasile Olănescu,240492,45.1039085,24.3699542
1,Strada Gib Mihăescu,240133,45.1019965,24.3674525
25,Strada Cerna,240565,45.1039240,24.3703546
5,Strada Gib Mihăescu,240133,45.1019274,24.3681338
11,Strada Gib Mihăescu,240133,45.1019062,24.3695411
18,Strada Cerna,240565,45.1033139,24.3709413
60,Calea lui Traian,240012,45.0910970,24.3613764
9,Strada Florilor,240012,45.0919726,24.3625891
3,Strada Vasile Olănescu,240492,45.1043246,24.3699553
9,Strada Vasile Olănescu,240492,45.1036596,24.3699527
5,Strada Vasile Olănescu,240492,45.1041450,24.3699461
12,Strada Gib Mihăescu,240574,45.1010907,24.3712587
4,Strada Gib Mihăescu,240142,45.1012772,24.3692100
58,Prelungirea Bulevardul Tineretului,240152,45.1051033,24.3752736
16,Strada Gib Mihăescu,240574,45.1007865,24.3717459
24A,Strada Gib Mihăescu,240574,45.1009985,24.3722985
20,Strada Gib Mihăescu,240574,45.1007836,24.3719713
26A,Strada Gib Mihăescu,240574,45.1004078,24.3722461
14,Strada Gib Mihăescu,240574,45.1009427,24.3714844
32,Strada Gib Mihăescu,240131,45.1007455,24.3738076
18,Strada Gib Mihăescu,240574,45.1009389,24.3719927
26B,Strada Gib Mihăescu,240574,45.1003762,24.3725043
8,Strada Cerna,240565,45.1032864,24.3682745
10,Strada Cerna,240565,45.1033118,24.3685147
10,Strada Vasile Olănescu,240492,45.1039730,24.3695036
12,Strada Vasile Olănescu,240492,45.1038354,24.3694877
6,Strada Vasile Olănescu,240492,45.1041805,24.3694627
8,Strada Vasile Olănescu,240492,45.1040742,24.3694081
4,Strada Vasile Olănescu,240492,45.1042847,24.3694691
2,Strada Vasile Olănescu,240492,45.1043943,24.3694676
95,Strada Ostroveni,240042,45.0830046,24.3716710
10,Strada Gib Mihăescu,240142,45.1011879,24.3704054
8,Strada Gib Mihăescu,240142,45.1012321,24.3702111
4,Strada Cerna,240565,45.1033299,24.3678557
2,Strada Cerna,240565,45.1033522,24.3675437
6,Strada Cerna,240565,45.1032883,24.3680431
2,Strada Iancu Pop,240193,45.1095267,24.3740141
2,Strada Târgului,240485,45.0693427,24.3454480
22,Strada Ferdinand,240156,45.1071345,24.3775255
49,Strada Stolniceni,240050,45.0441213,24.3129498
26,Bulevardul Nicolae Bălcescu,240599,45.1079626,24.3732457
5A,Strada Berzei,240407,45.0737615,24.3409209
20,Strada Copăcelu,240003,45.0745382,24.3342656
22,Strada Gib Mihăescu,240574,45.1009423,24.3721698
11,Strada Vasile Olănescu,240492,45.1031527,24.3699627
24,Strada Gib Mihăescu,240574,45.1006692,24.3722401
204,Strada Căzănești,240002,45.0466855,24.2706806
20A,Strada Salcâmilor,240468,45.1357910,24.3696262
38A,Strada Ferdinand,240571,45.1115584,24.3814810
6,Strada Căzănești,240002,45.0621358,24.2999989
4,Strada Căzănești,240002,45.0623274,24.3002738
2,Strada Căzănești,240002,45.0625738,24.3007033
51C,Strada Timiș,240630,45.1294895,24.3698732
167,Strada Copăcelu,240003,45.0675633,24.3109740
2,Strada Bâlciului,240003,45.0670822,24.3112286
2,Strada Ghioceilor,240003,45.0733663,24.3228529
1,Strada Ghioceilor,240003,45.0733763,24.3224127
3,Strada Ghioceilor,240003,45.0733711,24.3222903
111,Strada Copăcelu,240003,45.0727582,24.3224405
109,Strada Copăcelu,240003,45.0728407,24.3227302
66,Strada Copăcelu,240003,45.0735547,24.3279067
64,Strada Copăcelu,240003,45.0735710,24.3280968
61,Strada Copăcelu,240003,45.0732538,24.3277923
59,Strada Copăcelu,240003,45.0732121,24.3279658
62,Strada Copăcelu,240003,45.0734838,24.3283693
62A,Strada Copăcelu,240003,45.0736905,24.3286754
60,Strada Copăcelu,240003,45.0734686,24.3289942
55,Strada Copăcelu,240003,45.0731367,24.3292569
56,Strada Copăcelu,240003,45.0734994,24.3295910
58,Strada Copăcelu,240003,45.0735456,24.3293810
68,Strada Copăcelu,240003,45.0735643,24.3276676
112,Strada Copăcelu,240003,45.0737070,24.3243350
103,Strada Copăcelu,240003,45.0730735,24.3242566
101,Strada Copăcelu,240003,45.0730745,24.3243916
99,Strada Copăcelu,240003,45.0731187,24.3245903
30A,Strada Copăcelu,240003,45.0737307,24.3334058
27,Strada Copăcelu,240003,45.0731073,24.3322063
25,Strada Copăcelu,240003,45.0729039,24.3324698
23,Strada Copăcelu,240003,45.0730959,24.3326788
56,Drumul Gării,240003,45.0679830,24.3206291
52,Drumul Gării,240003,45.0681730,24.3205303
50,Drumul Gării,240003,45.0683615,24.3204484
46,Drumul Gării,240003,45.0685156,24.3202103
6,Drumul Gării,240003,45.0709908,24.3187138
32-34,Strada Barajului,240266,45.1213645,24.3710354
113,Strada Copăcelu,240003,45.0726754,24.3216276
8,Strada Cătăneștilor,240413,45.0722125,24.3356506
220,Strada Copăcelu,240003,45.0670593,24.3091280
294,Strada Copăcelu,240003,45.0631473,24.3016390
292,Strada Căzănești,240003,45.0631488,24.3019132
290,Strada Copăcelu,240003,45.0633401,24.3022545
288,Strada Copăcelu,240003,45.0633857,24.3023260
286,Strada Copăcelu,240003,45.0634964,24.3024930
284,Strada Copăcelu,240003,45.0636024,24.3027068
282,Strada Copăcelu,240003,45.0637632,24.3029809
280,Strada Copăcelu,240003,45.0638238,24.3030591
280,Strada Copăcelu,240003,45.0639219,24.3032038
278,Strada Copăcelu,240003,45.0641892,24.3030722
276,Strada Copăcelu,240003,45.0640748,24.3035300
274,Strada Copăcelu,240003,45.0642026,24.3037340
274A,Strada Copăcelu,240003,45.0643354,24.3034844
272,Strada Copăcelu,240003,45.0642295,24.3039872
270,Strada Copăcelu,240003,45.0643687,24.3041825
268,Strada Copăcelu,240003,45.0644447,24.3043144
268,Strada Copăcelu,240003,45.0645858,24.3043499
266,Strada Copăcelu,240003,45.0646139,24.3045644
264,Strada Copăcelu,240003,45.0648023,24.3048204
262,Strada Copăcelu,240003,45.0649634,24.3049041
260,Strada Copăcelu,240003,45.0650514,24.3052901
1,Strada Dem Teodorescu,240003,45.0653442,24.3051946
246,Strada Copăcelu,240003,45.0655627,24.3056262
244,Strada Copăcelu,240003,45.0654311,24.3061219
242,Strada Copăcelu,240003,45.0655303,24.3062795
240,Strada Copăcelu,240003,45.0657106,24.3065916
238,Strada Copăcelu,240003,45.0658210,24.3067467
236,Strada Copăcelu,240003,45.0659114,24.3069322
240,Strada Copăcelu,240003,45.0661628,24.3072643
232,Strada Copăcelu,240003,45.0661377,24.3074543
230,Strada Copăcelu,240003,45.0663740,24.3076021
228B,Strada Copăcelu,240003,45.0664242,24.3077295
228A,Strada Copăcelu,240003,45.0664808,24.3078139
228,Strada Copăcelu,240003,45.0664828,24.3079514
226,Strada Copăcelu,240003,45.0665661,24.3080936
224,Strada Copăcelu,240003,45.0667789,24.3082151
228,Strada Copăcelu,240003,45.0669483,24.3083844
228,Strada Copăcelu,240003,45.0670940,24.3088094
222,Strada Copăcelu,240003,45.0668632,24.3087267
6,Strada Eftimeștilor,240003,45.0671356,24.3075379
93,Strada Toporașilor,240003,45.0716702,24.3137095
13,Strada Toporașilor,240003,45.0688736,24.3095087
13A,Strada Toporașilor,240003,45.0689535,24.3091353
14,Strada Toporașilor,240003,45.0689570,24.3086414
19,Strada Toporașilor,240003,45.0694367,24.3093568
5,Strada Toporașilor,240003,45.0690286,24.3102744
21,Strada Toporașilor,240003,45.0696423,24.3097882
21A,Strada Toporașilor,240003,45.0698124,24.3097908
FN,Strada Toporașilor,240003,45.0694015,24.3087408
4,Strada Toporașilor,240003,45.0694780,24.3107146
10,Strada Toporașilor,240003,45.0697355,24.3105921
14,Strada Toporașilor,240003,45.0697803,24.3107810
164,Strada Copăcelu,240003,45.0696525,24.3121643
176,Strada Copăcelu,240003,45.0685839,24.3114474
176,Strada Copăcelu,240003,45.0684193,24.3114078
174,Strada Copăcelu,240003,45.0686531,24.3116728
162,Strada Copăcelu,240003,45.0699163,24.3124148
166,Strada Copăcelu,240003,45.0692879,24.3121344
168,Strada Copăcelu,240003,45.0691405,24.3119773
170,Strada Copăcelu,240003,45.0689898,24.3118397
172,Strada Copăcelu,240003,45.0689677,24.3117030
261,Strada Căzănești,240003,45.0624817,24.3018949
257,Strada Căzănești,240003,45.0628234,24.3021910
255,Strada Căzănești,240003,45.0628749,24.3022887
253,Strada Copăcelu,240003,45.0629624,24.3025184
251,Strada Căzănești,240003,45.0630430,24.3026341
249,Strada Căzănești,240003,45.0629681,24.3029883
245,Strada Copăcelu,240003,45.0632995,24.3031059
243,Strada Copăcelu,240003,45.0633634,24.3033304
241,Strada Căzănești,240003,45.0634330,24.3034090
235,Strada Căzănești,240003,45.0639133,24.3043921
233,Strada Căzănești,240003,45.0639665,24.3045213
231,Strada Căzănești,240003,45.0640216,24.3046436
229,Strada Căzănești,240003,45.0640713,24.3047595
223,Strada Căzănești,240003,45.0643388,24.3052182
221,Strada Căzănești,240003,45.0644294,24.3053258
219,Strada Căzănești,240003,45.0645287,24.3054660
217,Strada Căzănești,240003,45.0646385,24.3056726
215,Strada Căzănești,240003,45.0647091,24.3057580
213,Strada Căzănești,240003,45.0648117,24.3059716
211,Strada Căzănești,240003,45.0648289,24.3061926
209,Strada Căzănești,240003,45.0649582,24.3063600
207,Strada Căzănești,240003,45.0651083,24.3064637
203,Strada Căzănești,240003,45.0650667,24.3072335
201,Strada Căzănești,240003,45.0655169,24.3070734
199,Strada Căzănești,240003,45.0655967,24.3074076
197,Strada Căzănești,240003,45.0657211,24.3075495
195,Strada Căzănești,240003,45.0658607,24.3076274
193,Strada Căzănești,240003,45.0659761,24.3078317
189A,Strada Căzănești,240003,45.0660910,24.3080217
191,Strada Căzănești,240003,45.0659438,24.3081063
189,Strada Căzănești,240003,45.0661516,24.3084039
187,Strada Căzănești,240003,45.0662544,24.3086736
185,Strada Căzănești,240003,45.0663511,24.3087096
183,Strada Căzănești,240003,45.0664906,24.3088322
181,Strada Căzănești,240003,45.0665419,24.3090308
179,Strada Căzănești,240003,45.0665154,24.3094969
177,Strada Căzănești,240003,45.0668081,24.3095877
169,Strada Căzănești,240003,45.0674403,24.3107535
97,Strada Copăcelu,240003,45.0731437,24.3247913
95,Strada Copăcelu,240003,45.0732505,24.3250398
93,Strada Copăcelu,240003,45.0732704,24.3252961
91,Strada Copăcelu,240003,45.0732876,24.3253961
89,Strada Copăcelu,240003,45.0732992,24.3255416
87,Strada Copăcelu,240003,45.0732690,24.3256369
83,Strada Copăcelu,240003,45.0733355,24.3259822
22,Strada Copăcelu,240003,45.0738565,24.3338002
26,Strada Copăcelu,240003,45.0737984,24.3336725
45,Strada Toamnei,240003,45.0739490,24.3331864
46,Strada Copăcelu,240003,45.0734057,24.3313888
48,Strada Copăcelu,240003,45.0734730,24.3311421
1,Strada Damian Ureche,240003,45.0736486,24.3310832
5,Strada Damian Ureche,240003,45.0740031,24.3310417
9,Strada Damian Ureche,240003,45.0742200,24.3310088
11,Strada Damian Ureche,240003,45.0745017,24.3308630
10,Strada Damian Ureche,240003,45.0739740,24.3313079
12,Strada Damian Ureche,240003,45.0743568,24.3312338
54,Strada Copăcelu,240003,45.0733773,24.3299728
52,Strada Copăcelu,240003,45.0733931,24.3301577
50,Strada Copăcelu,240003,45.0733667,24.3307518
37,Strada Copăcelu,240003,45.0730353,24.3312856
39,Strada Copăcelu,240003,45.0730019,24.3310817
80,Strada Copăcelu,240003,45.0736753,24.3267450
78,Strada Copăcelu,240003,45.0736417,24.3268816
76,Strada Copăcelu,240003,45.0737661,24.3270923
74,Strada Copăcelu,240003,45.0737440,24.3272325
70,Strada Copăcelu,240003,45.0739334,24.3273242
72,Strada Copăcelu,240003,45.0735517,24.3272585
92,Strada Copăcelu,240003,45.0736274,24.3264605
94,Strada Copăcelu,240003,45.0735861,24.3259934
94,Strada Copăcelu,240003,45.0739334,24.3247086
14,Strada Cetății,240003,45.0753315,24.3289597
16,Strada Cetății,240003,45.0752866,24.3287472
10A,Strada Cetății,240003,45.0755729,24.3297781
10,Strada Cetății,240003,45.0753873,24.3296918
8,Strada Cetății,240003,45.0748674,24.3301922
6A,Strada Cetății,240003,45.0745417,24.3299889
6,Strada Cetății,240003,45.0743625,24.3299554
6A,Strada Cetății,240003,45.0747612,24.3295711
4,Strada Cetății,240003,45.0741849,24.3299876
5A,Strada Cetății,240003,45.0743967,24.3296883
6A,Strada Cetății,240003,45.0739832,24.3294945
18,Strada Copăcelu,240003,45.0741138,24.3348177
4,Strada Toamnei,240003,45.0744583,24.3346474
32,Strada Ghioceilor,240003,45.0739383,24.3219362
32A,Strada Ghioceilor,240003,45.0737661,24.3216479
34,Strada Ghioceilor,240003,45.0737748,24.3213527
5,Strada Ghioceilor,240003,45.0734420,24.3216985
7,Strada Ghioceilor,240003,45.0734509,24.3214648
9,Strada Ghioceilor,240003,45.0734918,24.3210016
32A,Strada Ghioceilor,240003,45.0735396,24.3207236
15,Strada Ghioceilor,240003,45.0732992,24.3204078
17,Strada Ghioceilor,240003,45.0736476,24.3203780
36,Strada Ghioceilor,240003,45.0739382,24.3206035
40,Strada Ghioceilor,240003,45.0741812,24.3201025
5,Strada Ghioceilor,240003,45.0731897,24.3209288
38,Strada Toamnei,240003,45.0743474,24.3327319
41,Strada Toamnei,240003,45.0747224,24.3327631
36,Strada Toamnei,240003,45.0747675,24.3324001
39,Strada Toamnei,240003,45.0749918,24.3326486
32,Strada Toamnei,240003,45.0761015,24.3328341
24,Strada Toamnei,240003,45.0760037,24.3334944
26,Strada Toamnei,240003,45.0759755,24.3332643
81,Strada Copăcelu,240003,45.0732288,24.3261421
79,Strada Copăcelu,240003,45.0731725,24.3262588
77,Strada Copăcelu,240003,45.0732381,24.3263566
73,Strada Copăcelu,240003,45.0732798,24.3266760
71,Strada Copăcelu,240003,45.0729062,24.3269918
69,Strada Copăcelu,240003,45.0731618,24.3270709
67,Strada Copăcelu,240003,45.0732826,24.3272450
65,Strada Copăcelu,240003,45.0732281,24.3273551
63,Strada Copăcelu,240003,45.0732419,24.3275582
51,Strada Copăcelu,240003,45.0729204,24.3298789
47,Strada Copăcelu,240003,45.0729242,24.3302233
45,Strada Copăcelu,240003,45.0730106,24.3305522
43,Strada Copăcelu,240003,45.0729851,24.3306909
41,Strada Copăcelu,240003,45.0728975,24.3308902
37A,Strada Copăcelu,240003,45.0729083,24.3314010
37B,Strada Copăcelu,240003,45.0726389,24.3313965
33,Strada Copăcelu,240003,45.0726704,24.3318499
31,Strada Copăcelu,240003,45.0725581,24.3318492
29,Strada Copăcelu,240003,45.0724567,24.3318310
21,Strada Copăcelu,240003,45.0731544,24.3330826
19,Strada Copăcelu,240003,45.0732914,24.3333645
3,Strada Toamnei,240003,45.0750998,24.3340605
16,Strada Toamnei,240003,45.0752197,24.3343511
18A,Strada Toamnei,240003,45.0753627,24.3342993
18,Strada Toamnei,240003,45.0752952,24.3343655
7,Strada Toamnei,240003,45.0753977,24.3340360
5,Strada Toamnei,240003,45.0753081,24.3340591
1,Strada Toamnei,240003,45.0749608,24.3342092
9,Strada Toamnei,240003,45.0754785,24.3339463
20,Strada Toamnei,240003,45.0755281,24.3341730
11,Strada Toamnei,240003,45.0756016,24.3337058
13,Strada Toamnei,240003,45.0757220,24.3334079
15,Strada Toamnei,240003,45.0758141,24.3331471
17,Strada Toamnei,240003,45.0758227,24.3329176
13,Strada Damian Ureche,240003,45.0753761,24.3308175
12,Strada Toamnei,240003,45.0748824,24.3344779
10,Strada Toamnei,240003,45.0747547,24.3346890
14,Strada Toamnei,240003,45.0750671,24.3344388
3A,Strada Toamnei,240003,45.0752098,24.3339580
2,Strada Toamnei,240003,45.0742720,24.3347592
26,Strada Ghioceilor,240003,45.0741818,24.3224472
12,Strada Ghioceilor,240003,45.0741517,24.3228430
14,Strada Ghioceilor,240003,45.0744215,24.3227967
18,Strada Ghioceilor,240003,45.0746251,24.3225668
22,Strada Ghioceilor,240003,45.0746047,24.3221087
20,Strada Ghioceilor,240003,45.0747774,24.3221392
28,Strada Ghioceilor,240003,45.0736663,24.3224494
6,Strada Ghioceilor,240003,45.0736334,24.3231218
4,Strada Ghioceilor,240003,45.0736756,24.3233881
2B,Strada Ghioceilor,240003,45.0737039,24.3236219
2A,Strada Ghioceilor,240003,45.0736900,24.3237503
2,Strada Ghioceilor,240003,45.0736961,24.3240556
105,Strada Ghioceilor,240003,45.0731155,24.3238629
105A,Strada Ghioceilor,240003,45.0730502,24.3236194
107,Strada Ghioceilor,240003,45.0730042,24.3234232
12,Drumul Gării,240003,45.0705637,24.3190216
14,Drumul Gării,240003,45.0704556,24.3190106
18,Drumul Gării,240003,45.0703443,24.3191858
16,Drumul Gării,240003,45.0703609,24.3189846
20,Strada Gării,240003,45.0702389,24.3192850
22,Drumul Gării,240003,45.0701646,24.3193120
24,Drumul Gării,240003,45.0699977,24.3193544
26,Drumul Gării,240003,45.0697988,24.3195426
28,Drumul Gării,240003,45.0696412,24.3195598
30,Drumul Gării,240003,45.0694739,24.3196069
17,Drumul Gării,240003,45.0697591,24.3200494
32,Strada Gării,240003,45.0693707,24.3194564
34,Drumul Gării,240003,45.0693806,24.3198621
36,Drumul Gării,240003,45.0692437,24.3198855
38,Drumul Gării,240003,45.0691129,24.3200050
40,Drumul Gării,240003,45.0690108,24.3200548
42,Drumul Gării,240003,45.0688566,24.3201655
44,Strada Gării,240003,45.0687320,24.3202003
48,Drumul Gării,240003,45.0684397,24.3202391
58,Drumul Gării,240003,45.0679084,24.3200737
29,Drumul Gării,240003,45.0688487,24.3206145
33,Drumul Gării,240003,45.0685625,24.3209250
39,Drumul Gării,240003,45.0682087,24.3211082
35,Drumul Gării,240003,45.0683443,24.3210252
37,Drumul Gării,240003,45.0683989,24.3214801
41,Strada Gării,240003,45.0681466,24.3212348
45,Drumul Gării,240003,45.0678264,24.3213922
43,Drumul Gării,240003,45.0680404,24.3214719
62,Drumul Gării,240003,45.0676565,24.3209340
68,Drumul Gării,240003,45.0672318,24.3210764
88,Strada Gării,240003,45.0657274,24.3223422
88,Strada Gării,240003,45.0657561,24.3229782
92,Strada Gării,240003,45.0654905,24.3225401
88A,Strada Gării,240003,45.0654841,24.3216336
94,Strada Gării,240003,45.0654174,24.3227153
88A,Strada Gării,240003,45.0651528,24.3224556
72,Strada Eftimeștilor,240003,45.0675914,24.3022944
70,Strada Eftimeștilor,240003,45.0677117,24.3024093
34,Strada Dragoș Serafim,240003,45.0690568,24.3256301
5,Drumul Gării,240003,45.0708926,24.3192974
10,Drumul Gării,240003,45.0707310,24.3189297
8,Drumul Gării,240003,45.0708358,24.3187882
16,Drumul Gării,240003,45.0704907,24.3187683
56,Strada Ghioceilor,240003,45.0757884,24.3174388
58,Strada Ghioceilor,240003,45.0763497,24.3168433
60,Strada Ghioceilor,240003,45.0764903,24.3166698
62,Strada Ghioceilor,240003,45.0766325,24.3164553
64,Strada Ghioceilor,240003,45.0767308,24.3163465
66,Strada Ghioceilor,240003,45.0768745,24.3161798
70A,Strada Ghioceilor,240003,45.0769607,24.3160963
52,Strada Ghioceilor,240003,45.0757392,24.3180740
2,Strada Valea Gorunelului,240003,45.0760662,24.3182049
54,Strada Ghioceilor,240003,45.0756261,24.3179347
3,Strada Bâlciului,240003,45.0677556,24.3117642
5,Strada Bâlciului,240003,45.0676310,24.3117411
1,Strada Bâlciului,240003,45.0678675,24.3117604
7A,Strada Bâlciului,240003,45.0674621,24.3118811
7B,Strada Bâlciului,240003,45.0673635,24.3118589
11,Strada Bâlciului,240003,45.0672913,24.3117887
11,Strada Bâlciului,240003,45.0671227,24.3118038
6,Strada Bâlciului,240003,45.0664837,24.3112214
13,Strada Bâlciului,240003,45.0669367,24.3117145
15,Strada Bâlciului,240003,45.0668465,24.3118954
17,Strada Bâlciului,240003,45.0664722,24.3118512
19,Strada Bâlciului,240003,45.0663483,24.3118770
31,Strada Bâlciului,240003,45.0655152,24.3119544
33,Strada Bâlciului,240003,45.0653789,24.3119542
39,Strada Bâlciului,240003,45.0648208,24.3119395
45,Strada Bâlciului,240003,45.0646274,24.3121086
41,Strada Bâlciului,240003,45.0643532,24.3120147
43,Strada Bâlciului,240003,45.0645612,24.3122786
47,Strada Bâlciului,240003,45.0640421,24.3122292
51,Strada Bâlciului,240003,45.0637725,24.3120035
53,Strada Bâlciului,240003,45.0636076,24.3121022
55,Strada Bâlciului,240003,45.0634155,24.3121063
36,Strada Bâlciului,240003,45.0632076,24.3114464
34,Strada Bâlciului,240003,45.0635381,24.3114650
61,Strada Bâlciului,240003,45.0626531,24.3121880
67,Strada Bâlciului,240003,45.0623450,24.3122241
69,Strada Bâlciului,240003,45.0621819,24.3122727
79,Strada Bâlciului,240003,45.0614725,24.3122533
81,Strada Bâlciului,240003,45.0613411,24.3124791
83,Strada Bâlciului,240003,45.0612278,24.3122227
85,Strada Bâlciului,240003,45.0610920,24.3122380
89,Strada Bâlciului,240003,45.0608423,24.3122482
87,Strada Bâlciului,240003,45.0609402,24.3121712
91,Strada Bâlciului,240003,45.0608375,24.3126147
93,Strada Bâlciului,240003,45.0606420,24.3122163
95,Strada Bâlciului,240003,45.0603940,24.3123429
97,Strada Bâlciului,240003,45.0602377,24.3122080
99,Strada Bâlciului,240003,45.0600334,24.3122745
101,Strada Bâlciului,240003,45.0598885,24.3124181
103,Strada Bâlciului,240003,45.0596941,24.3123927
105,Strada Bâlciului,240003,45.0594981,24.3122428
109,Strada Bâlciului,240003,45.0592692,24.3123141
111,Strada Bâlciului,240003,45.0591060,24.3123426
117,Strada Bâlciului,240003,45.0584860,24.3123720
121,Strada Bâlciului,240003,45.0579264,24.3123579
123,Strada Bâlciului,240003,45.0577852,24.3124178
125,Strada Bâlciului,240003,45.0576117,24.3124371
127,Strada Bâlciului,240003,45.0573742,24.3125007
66,Strada Bâlciului,240003,45.0600426,24.3114475
88,Strada Eftimeștilor,240003,45.0676824,24.3012618
86,Strada Eftimeștilor,240003,45.0675705,24.3012979
86A,Strada Eftimeștilor,240003,45.0674352,24.3012189
84,Strada Eftimeștilor,240003,45.0673551,24.3012948
82,Strada Eftimeștilor,240003,45.0672284,24.3012642
104A,Strada Eftimeștilor,240003,45.0672465,24.3009258
102,Strada Eftimeștilor,240003,45.0674700,24.3009519
100,Strada Eftimeștilor,240003,45.0676539,24.3009516
41,Strada Eftimeștilor,240003,45.0668666,24.3012271
88,Strada Eftimeștilor,240003,45.0668612,24.3010728
39,Strada Eftimeștilor,240003,45.0668683,24.3014648
37,Strada Eftimeștilor,240003,45.0669657,24.3018451
80,Strada Eftimeștilor,240003,45.0672198,24.3017278
78,Strada Eftimeștilor,240003,45.0672625,24.3018549
25,Strada Eftimeștilor,240003,45.0672437,24.3024570
23,Strada Eftimeștilor,240003,45.0673843,24.3027343
27,Strada Eftimeștilor,240003,45.0670525,24.3023065
29,Strada Eftimeștilor,240003,45.0666716,24.3025198
33,Strada Eftimeștilor,240003,45.0663551,24.3023894
FN,Strada Dem Teodorescu,240003,45.0665791,24.3028769
72A,Strada Eftimeștilor,240003,45.0674611,24.3022287
70A,Strada Eftimeștilor,240003,45.0678307,24.3026820
68,Strada Eftimeștilor,240003,45.0679254,24.3029496
70,Strada Eftimeștilor,240003,45.0678904,24.3025235
64,Strada Eftimeștilor,240003,45.0685346,24.3028155
62,Strada Eftimeștilor,240003,45.0688205,24.3028782
62A,Strada Eftimeștilor,240003,45.0687619,24.3026699
58,Strada Eftimeștilor,240003,45.0681357,24.3035735
60,Strada Eftimeștilor,240003,45.0686130,24.3030399
56,Strada Eftimeștilor,240003,45.0679358,24.3036650
54,Strada Eftimeștilor,240003,45.0676218,24.3043862
52,Strada Eftimeștilor,240003,45.0679267,24.3044785
40,Strada Eftimeștilor,240003,45.0674876,24.3048741
36,Strada Eftimeștilor,240003,45.0675054,24.3055469
34,Strada Eftimeștilor,240003,45.0675221,24.3058076
38,Strada Eftimeștilor,240003,45.0675109,24.3051877
32,Strada Eftimeștilor,240003,45.0673881,24.3061673
17,Strada Eftimeștilor,240003,45.0671954,24.3048498
11,Strada Eftimeștilor,240003,45.0670578,24.3054709
7,Strada Eftimeștilor,240003,45.0669671,24.3058319
1,Strada Eftimeștilor,240003,45.0664620,24.3070331
1A,Strada Eftimeștilor,240003,45.0664588,24.3066086
1B,Strada Eftimeștilor,240003,45.0663466,24.3062065
3,Strada Eftimeștilor,240003,45.0667908,24.3063317
5,Strada Eftimeștilor,240003,45.0669650,24.3061538
8,Strada Eftimeștilor,240003,45.0670192,24.3068042
4A,Strada Eftimeștilor,240003,45.0668103,24.3070242
2,Strada Eftimeștilor,240003,45.0665809,24.3074120
7,Intrarea Grigore Râmniceanu,240003,45.0679306,24.3084592
3,Intrarea Grigore Râmniceanu,240003,45.0677125,24.3086424
5,Intrarea Grigore Râmniceanu,240003,45.0677976,24.3085935
9,Intrarea Grigore Râmniceanu,240003,45.0680976,24.3082644
7,Intrarea Grigore Râmniceanu,240003,45.0680578,24.3080878
7,Intrarea Grigore Râmniceanu,240003,45.0684331,24.3080655
13A,Intrarea Grigore Râmniceanu,240003,45.0689069,24.3083644
12,Intrarea Grigore Râmniceanu,240003,45.0686926,24.3085739
9,Intrarea Grigore Râmniceanu,240003,45.0687836,24.3080320
13,Intrarea Grigore Râmniceanu,240003,45.0688352,24.3074733
15,Intrarea Grigore Râmniceanu,240003,45.0687968,24.3072440
20,Strada Eftimeștilor,240003,45.0682017,24.3065774
16,Strada Eftimeștilor,240003,45.0682446,24.3068306
14,Strada Eftimeștilor,240003,45.0679329,24.3068168
22,Strada Eftimeștilor,240003,45.0684591,24.3054867
24,Strada Eftimeștilor,240003,45.0679928,24.3063160
24,Strada Eftimeștilor,240003,45.0678108,24.3063853
18,Strada Eftimeștilor,240003,45.0687185,24.3067504
9,Intrarea Grigore Râmniceanu,240003,45.0689940,24.3076459
3,Strada Dem Teodorescu,240003,45.0657111,24.3051343
6,Strada Dem Teodorescu,240003,45.0657731,24.3054371
100,Strada Eftimeștilor,240003,45.0669472,24.3007433
24,Strada Apusului,240002,45.0644097,24.2959679
19,Strada Căzănești,240002,45.0610568,24.2992671
13,Strada Căzănești,240002,45.0614200,24.2998043
1,Strada Căzănești,240003,45.0620562,24.3013489
3,Strada Căzănești,240003,45.0620463,24.3010246
298,Strada Căzănești,240003,45.0627354,24.3008814
10,Strada Căzănești,240003,45.0617780,24.2994579
20,Strada Căzănești,240003,45.0614206,24.2985928
18,Strada Căzănești,240003,45.0614948,24.2989047
16,Strada Căzănești,240003,45.0616212,24.2989922
8,Strada Căzănești,240003,45.0619403,24.2996882
15,Strada Căzănești,240002,45.0613467,24.2995570
17,Strada Căzănești,240002,45.0611042,24.2995010
9,Strada Căzănești,240002,45.0616191,24.3004226
265,Strada Căzănești,240003,45.0623542,24.3014293
263,Strada Căzănești,240003,45.0624775,24.3014898
8A,Strada Căzănești,240003,45.0618431,24.2995551
12,Strada Căzănești,240003,45.0615957,24.2991997
22,Strada Căzănești,240003,45.0613280,24.2984829
15A,Strada Gib Mihăescu,240141,45.1016061,24.3722379
44,Strada Tudor Vladimirescu,240152,45.1050775,24.3762317
42,Strada Tudor Vladimirescu,240152,45.1050564,24.3764235
27,Strada Tudor Vladimirescu,240492,45.1058199,24.3717499
24,Bulevardul Nicolae Bălcescu,240605,45.1070246,24.3707948
36,Strada Patriarh Iustinian Marina,240425,45.0846623,24.3657070
98,Strada Bâlciului,240003,45.0572061,24.3117940
52,Aleea Nuci,240484,45.0271140,24.2745546
48,Aleea Nuci,240484,45.0270814,24.2753036
46,Aleea Nuci,240484,45.0271053,24.2756149
55,Aleea Nuci,240484,45.0266362,24.2738714
50,Aleea Nuci,240484,45.0271167,24.2748722
44,Aleea Nuci,240484,45.0272624,24.2757756
33,Aleea Nuci,240484,45.0265879,24.2797089
31,Aleea Nuci,240484,45.0265841,24.2798383
29,Aleea Nuci,240484,45.0265489,24.2800547
42,Strada Patriarh Iustinian Marina,240425,45.0844884,24.3652788
13,Strada Regina Maria,240140,45.1028243,24.3683925
