House number,Street name,Postal code,Latitude,Longitude
7/1,проспект 50 лет Октября,683024,53.0525636,158.6386955
8,улица Пономарёва,683013,52.9828275,158.6799873
5/1,улица Пономарёва,683013,52.9864449,158.6772486
35/1,Петропавловское шоссе,683015,52.9805657,158.6884319
13,Индустриальная улица,683015,52.9705692,158.6966688
122/2в,Океанская улица,683013,52.9819334,158.6802370
121/1,Океанская улица,683013,52.9818826,158.6803406
121/2а,Океанская улица,683013,52.9819971,158.6800248
74,Ленинградская улица,683003,53.0362707,158.6557073
44/1,Петропавловское шоссе,683015,52.9811721,158.6874181
2/1,улица Пономарёва,683013,52.9842903,158.6789368
26/1,улица Лермонтова,683030,52.9738714,158.6879350
4/1,Пограничная улица,683000,53.0351019,158.6643510
49,Зеркальная улица,683024,53.0494740,158.6476239
8,улица Чубарова,683006,53.0710319,158.6141164
14А,Ленинградская улица,683003,53.0316462,158.6378030
37,улица Тушканова,683031,53.0644301,158.6256376
10,Дальневосточная улица,683002,53.0786597,158.6437753
19,улица Лукашевского,683024,53.0607754,158.6378457
16,проспект 50 лет Октября,683024,53.0563048,158.6360462
16,проспект 50 лет Октября,683024,53.0564871,158.6356299
3/1,улица Топоркова,683031,53.0640831,158.6228341
"ГСК 28, 158",Омская улица,683024,53.0555628,158.6244640
47,проспект Победы,683006,53.0695446,158.5968154
45/3,улица Академика Королёва,683009,53.0569309,158.6506780
3,Высотная улица,683000,53.0285937,158.6778364
10,улица Чкалова,683003,53.0341054,158.6376420
11,улица Чкалова,683003,53.0342234,158.6382012
46,Ленинская улица,683000,53.0175908,158.6487652
35,Советская улица,683000,53.0187387,158.6489148
18,Пограничная улица,683032,53.0329214,158.6677452
74,Ленинградская улица,683003,53.0361503,158.6555657
98,Океанская улица,683013,52.9810110,158.6811170
98,Океанская улица,683013,52.9810790,158.6818897
2/2,Пограничная улица,683032,53.0366838,158.6595951
2А,Сахалинская улица,683030,52.9706626,158.6920280
19,Петропавловское шоссе,683015,52.9767802,158.6920983
78,Ленинградская улица,683003,53.0358736,158.6559365
74В,Ленинградская улица,683003,53.0363780,158.6569694
74,Ленинградская улица,683003,53.0366505,158.6568442
74,Ленинградская улица,683003,53.0367278,158.6566949
74,Ленинградская улица,683003,53.0367487,158.6567357
74,Ленинградская улица,683003,53.0367680,158.6567732
74/3,Ленинградская улица,683003,53.0368557,158.6566846
74/2,Ленинградская улица,683003,53.0369192,158.6568462
74/4,Ленинградская улица,683003,53.0364168,158.6574954
74/4,Ленинградская улица,683003,53.0363647,158.6576183
60,Ленинская улица,683001,53.0208505,158.6471174
1,площадь Ленина,683040,53.0231802,158.6463989
121/2,Океанская улица,683013,52.9805601,158.6804676
7А,улица Войцешека,683031,53.0565300,158.6290364
28,проспект 50 лет Октября,683000,53.0584488,158.6329698
2/1,проспект Рыбаков,683024,53.0548004,158.6391370
16/1,проспект 50 лет Октября,683024,53.0570890,158.6349703
1/1,проспект Победы,683006,53.0688975,158.6156782
2/2,Пограничная улица,683003,53.0367993,158.6588510
67,проспект Победы,683018,53.0720100,158.5866932
27/2,улица Максутова,683032,53.0351915,158.6579790
1/2,улица Топоркова,683031,53.0644811,158.6241560
61,Ленинградская улица,683003,53.0375191,158.6556954
56/1,Вилюйская улица,683003,53.0360225,158.6494028
31,улица Максутова,683003,53.0349864,158.6586835
90,Ленинградская улица,683003,53.0352884,158.6572805
25,Ленинградская улица,683003,53.0329375,158.6436485
34,Ключевская улица,684000,53.0341076,158.6450039
37,Ленинградская улица,683003,53.0345799,158.6493812
45,Ленинградская улица,683003,53.0358071,158.6539924
25,Вилюйская улица,683003,53.0354065,158.6435402
1,площадь Ленина,683040,53.0228608,158.6468092
116,Мишенная улица,683016,53.0458562,158.6189514
106,Мишенная улица,683000,53.0422181,158.6190754
118,Мишенная улица,683016,53.0458595,158.6182983
115А,улица Беринга,683000,53.0423160,158.6207280
12,улица Старицына,683016,53.0454840,158.6229780
104А,улица Беринга,683016,53.0425369,158.6223756
27,улица Пржевальского,683000,53.0430380,158.6194036
113,улица Беринга,683000,53.0426078,158.6205147
116/2,Мишенная улица,683016,53.0457081,158.6202234
116/1,Мишенная улица,683016,53.0458418,158.6196378
117,улица Беринга,683000,53.0431836,158.6204801
27,Фестивальная улица,683905,53.0545779,158.6105970
120,Мишенная улица,683016,53.0457589,158.6176993
9,Владивостокская улица,683017,53.0458357,158.6536776
2/1,Владивостокская улица,683017,53.0436402,158.6605255
10,улица Горького,683024,53.0551848,158.6315201
21,проспект 50 лет Октября,683024,53.0553518,158.6359377
7,проспект 50 лет Октября,683024,53.0527800,158.6396932
7,проспект 50 лет Октября,683024,53.0529945,158.6392894
25А,проспект 50 лет Октября,683024,53.0560784,158.6348562
7/2,проспект 50 лет Октября,683024,53.0520336,158.6388151
11,улица Автомобилистов,683024,53.0534387,158.6305359
2,улица Горького,683024,53.0556173,158.6304715
7,улица Автомобилистов,683024,53.0539899,158.6298728
9,улица Автомобилистов,683024,53.0542585,158.6311414
17,проспект 50 лет Октября,683024,53.0550714,158.6364656
23,проспект 50 лет Октября,683024,53.0555857,158.6356739
7,проспект 50 лет Октября,683024,53.0532057,158.6389061
7/3,проспект 50 лет Октября,683024,53.0516931,158.6384824
31,улица Тушканова,683031,53.0641770,158.6248289
9,улица Тушканова,683031,53.0598136,158.6295912
5,улица Давыдова,683024,53.0572962,158.6252329
9,бульвар Пийпа,683006,53.0666297,158.6075594
7,бульвар Пийпа,683006,53.0672798,158.6065978
1/1,Якорная улица,683006,53.0622642,158.5996636
6,Флотская улица,683006,53.0617247,158.6004859
3,Флотская улица,683006,53.0631283,158.6008090
2,Флотская улица,683006,53.0623991,158.6005856
3,Якорная улица,683006,53.0625433,158.5991614
1,Флотская улица,683006,53.0628067,158.6007346
3/1,Якорная улица,683006,53.0620618,158.5986599
7/1,Якорная улица,683006,53.0623826,158.5980407
11,Якорная улица,683006,53.0623639,158.5963754
4,Флотская улица,683006,53.0620551,158.6005130
5,Якорная улица,683006,53.0626501,158.5985670
7/2,Якорная улица,683006,53.0620532,158.5980523
7,Якорная улица,683006,53.0627185,158.5980485
12,Флотская улица,683006,53.0607706,158.5994879
1/1,Якорная улица,683006,53.0617574,158.5986159
8,Флотская улица,683006,53.0614128,158.5999723
18/1,Пограничная улица,683032,53.0339742,158.6694172
20,Пограничная улица,683032,53.0356229,158.6702623
12,улица Максутова,683003,53.0334661,158.6544321
3А,Космический проезд,683009,53.0556751,158.6626328
10/1,проспект 50 лет Октября,683024,53.0539281,158.6405046
3/1,улица Ларина,683002,53.0722156,158.6477829
8/2,улица Виталия Кручины,683002,53.0686190,158.6479703
45,улица Академика Курчатова,683009,53.0627616,158.6542913
8,улица Виталия Кручины,683002,53.0690326,158.6478714
10,улица Тушканова,683031,53.0626950,158.6286113
10/1,улица Тушканова,683031,53.0630258,158.6300355
10,улица Тушканова,683031,53.0620403,158.6291571
8/1,улица Тушканова,683031,53.0625965,158.6294336
38,Дальняя улица,683020,53.0593412,158.6792682
36,Дальняя улица,683020,53.0586881,158.6800023
4,проспект Победы,683006,53.0701705,158.6114627
10/3,улица Тушканова,683031,53.0622063,158.6306126
8,улица Тушканова,683031,53.0619078,158.6296216
10/2,улица Тушканова,683031,53.0627114,158.6301445
42,Дальняя улица,683020,53.0588228,158.6782883
6 к3,бульвар Рыбацкой Славы,683024,53.0553812,158.6397428
16,Флотская улица,683006,53.0601717,158.5991196
14,Флотская улица,683006,53.0604630,158.5992208
2,проспект Победы,683006,53.0698544,158.6141118
10,Флотская улица,683006,53.0609834,158.6001858
7,Геологическая улица,683016,53.0446951,158.6231809
8,Геологическая улица,683016,53.0449689,158.6234068
11,Геологическая улица,683016,53.0452387,158.6236186
5,Геологическая улица,683016,53.0456336,158.6243151
14,Кроноцкая улица,683017,53.0457026,158.6608965
14,Петропавловское шоссе,683015,52.9750109,158.6930822
11,улица Лукашевского,683024,53.0604172,158.6362512
7/1,проспект 50 лет Октября,683024,53.0524673,158.6391122
24,улица Атласова,683000,53.0373845,158.6720866
13,улица Пономарёва,683013,52.9841637,158.6822179
6,улица Пономарёва,683013,52.9835842,158.6803144
60,Океанская улица,683010,52.9911877,158.6681081
12,Океанская улица,683010,52.9936512,158.6663034
5,улица Капитана Беляева,683010,52.9906154,158.6653660
9,Командорская улица,683004,52.9957810,158.6560935
82,Океанская улица,683013,52.9843312,158.6735104
10,Рябиковская улица,683004,52.9983953,158.6599954
14,Курильская улица,683004,52.9949050,158.6579024
54Б,Океанская улица,683010,52.9933663,158.6667175
7,Командорская улица,683004,52.9961518,158.6561350
9,улица Пономарёва,683013,52.9855947,158.6793621
52,Океанская улица,683010,52.9928768,158.6670572
27,Рябиковская улица,683004,52.9961112,158.6574091
89,Рябиковская улица,683004,52.9891101,158.6601561
12,Командорская улица,683004,52.9957933,158.6556088
22Г,Океанская улица,683010,52.9923707,158.6662445
4,Корякская улица,683004,52.9961907,158.6592735
33,улица Пономарёва,683013,52.9848240,158.6833509
69,Рябиковская улица,683004,52.9892803,158.6612496
29,Рябиковская улица,683004,52.9957229,158.6573604
23,улица Пономарёва,683013,52.9841173,158.6844248
35А,Рябиковская улица,683004,52.9942197,158.6579312
2,улица Капитана Беляева,683010,52.9912900,158.6635772
64А,Океанская улица,683010,52.9922765,158.6657042
44,улица Красная Сопка,683004,52.9989272,158.6606800
81/1,Рябиковская улица,683004,52.9886858,158.6618173
63/1,Океанская улица,683010,52.9887146,158.6712380
31,Рябиковская улица,683004,52.9953493,158.6573553
1А,улица Капитана Беляева,683010,52.9915707,158.6639522
87,Рябиковская улица,683004,52.9901136,158.6597603
83,Океанская улица,683013,52.9841707,158.6778652
7А,улица Пономарёва,683013,52.9852066,158.6790370
81/3,Рябиковская улица,683004,52.9882404,158.6622742
63,Океанская улица,683010,52.9885505,158.6705736
35/1,Пограничная улица,683032,53.0362574,158.6763074
3,улица Капитана Беляева,683010,52.9911115,158.6646909
91,Рябиковская улица,683004,52.9897216,158.6595825
2,улица Пономарёва,683013,52.9843058,158.6783944
3,улица Пономарёва,683013,52.9857494,158.6779911
65,Океанская улица,683010,52.9879978,158.6709406
28,Рябиковская улица,683004,52.9967841,158.6568798
32,Курильская улица,683004,52.9914743,158.6600457
16,улица Капитана Драбкина,683010,52.9894429,158.6681385
35,Пограничная улица,683032,53.0365281,158.6767493
1,Охотская улица,683004,52.9976204,158.6552231
91,Океанская улица,683013,52.9835310,158.6787610
16,Курильская улица,683004,52.9942935,158.6584598
4,улица Капитана Драбкина,683010,52.9919559,158.6648381
5,улица Пономарёва,683013,52.9862203,158.6781296
71/1,Рябиковская улица,683004,52.9907927,158.6598730
62,Океанская улица,683010,52.9907317,158.6683165
11,улица Капитана Драбкина,683010,52.9901517,158.6680415
10,Командорская улица,683004,52.9961631,158.6556362
19,Курильская улица,683004,52.9939584,158.6593805
1,улица Капитана Драбкина,683010,52.9923302,158.6649483
84,Океанская улица,683013,52.9843575,158.6742077
24,Рябиковская улица,683004,52.9975530,158.6569463
97,Рябиковская улица,683004,52.9900352,158.6604896
64,Океанская улица,683010,52.9902920,158.6685617
12,Курильская улица,683004,52.9953371,158.6579757
9,улица Капитана Драбкина,683010,52.9905111,158.6675693
10,улица Пономарёва,683013,52.9829588,158.6821381
40/1,Океанская улица,683010,52.9927638,158.6650962
86,Океанская улица,683013,52.9843831,158.6748372
22В,Рябиковская улица,683004,52.9978634,158.6582520
9,улица Капитана Беляева,683010,52.9898229,158.6663441
61,Океанская улица,683010,52.9896620,158.6699269
10,Курильская улица,683004,52.9956947,158.6580077
10,улица Капитана Драбкина,683010,52.9906534,158.6666911
88,Океанская улица,683013,52.9843856,158.6754145
40,улица Красная Сопка,683004,53.0001610,158.6597273
20,Рябиковская улица,683004,52.9980773,158.6581844
8,Курильская улица,683004,52.9960787,158.6580535
22,Корякская улица,683004,52.9934955,158.6609166
12,улица Капитана Драбкина,683010,52.9903125,158.6671465
70,Рябиковская улица,683004,52.9885352,158.6593151
22Б,Океанская улица,683010,52.9928960,158.6663273
4,улица Пономарёва,683013,52.9839530,158.6793652
42,улица Красная Сопка,683004,52.9998731,158.6605713
6,улица Капитана Беляева,683010,52.9906186,158.6637857
2А,Рябиковская улица,683004,52.9992166,158.6598838
5,улица Сапун-Гора,683010,52.9936704,158.6618017
14,улица Капитана Драбкина,683010,52.9899549,158.6676178
68,Рябиковская улица,683004,52.9887878,158.6588412
27,улица Пономарёва,683013,52.9834582,158.6832870
22В,Океанская улица,683010,52.9929106,158.6656259
11,улица Пономарёва,683013,52.9843429,158.6799820
4,улица Капитана Беляева,683010,52.9909197,158.6636845
8,Командорская улица,683004,52.9965015,158.6556549
81/4,Рябиковская улица,683004,52.9884986,158.6626485
66,Рябиковская улица,683004,52.9892341,158.6583231
17,улица Пономарёва,683013,52.9833680,158.6844665
7,улица Пономарёва,683013,52.9847468,158.6790386
30,Курильская улица,683004,52.9917237,158.6607500
83/1,Рябиковская улица,683004,52.9900026,158.6613234
81/2,Рябиковская улица,683004,52.9889224,158.6621956
18,улица Капитана Драбкина,683010,52.9879261,158.6693571
12,улица Пономарёва,683013,52.9828536,158.6839341
38А,Рябиковская улица,683004,52.9936294,158.6567218
1,улица Пономарёва,683013,52.9853117,158.6779789
30,Океанская улица,683010,52.9936524,158.6653975
79,Океанская улица,683013,52.9828648,158.6795116
34,Курильская улица,683004,52.9910949,158.6609828
56,Океанская улица,683010,52.9920658,158.6676228
33,Пограничная улица,683032,53.0359462,158.6759252
48,улица Красная Сопка,683004,52.9986378,158.6616634
1,улица Капитана Беляева,683010,52.9917188,158.6643810
20,Корякская улица,683004,52.9938582,158.6601017
101,Рябиковская улица,683004,52.9909563,158.6604573
58,Океанская улица,683010,52.9916366,158.6678615
33,Рябиковская улица,683004,52.9949161,158.6573196
20,Курильская улица,683004,52.9934370,158.6592979
46,улица Красная Сопка,683004,52.9990532,158.6613172
6,улица Капитана Драбкина,683010,52.9915466,158.6654651
80,Океанская улица,683013,52.9842919,158.6729372
7,улица Капитана Драбкина,683010,52.9909170,158.6671645
15,Курильская улица,683004,52.9954454,158.6587531
6А,Садовая улица,683013,52.9813530,158.6794549
121/1,Океанская улица,683013,52.9826124,158.6813336
1,Садовый переулок,683013,52.9808429,158.6823788
3,Садовый переулок,683013,52.9805042,158.6825592
102,Океанская улица,683013,52.9811588,158.6840188
104,Океанская улица,683013,52.9807521,158.6843489
6,Садовый переулок,683013,52.9798133,158.6812001
21,улица Штурмана Елагина,683013,52.9796958,158.6799897
8,Садовый переулок,683013,52.9800087,158.6821497
4,Садовый переулок,683013,52.9801827,158.6808466
5,Садовый переулок,683013,52.9802315,158.6832428
12,Садовый переулок,683013,52.9792249,158.6832517
13,улица Штурмана Елагина,683013,52.9789692,158.6817452
10,Садовый переулок,683013,52.9797480,158.6823064
11,улица Штурмана Елагина,683013,52.9793660,158.6821738
53,улица Тургенева,683013,52.9820582,158.6843055
54,улица Тургенева,683013,52.9820627,158.6864786
25,улица Пономарёва,683013,52.9839695,158.6857384
35,улица Пономарёва,683013,52.9853486,158.6847145
43,улица Штурмана Елагина,683013,52.9774076,158.6794223
29,улица Пономарёва,683013,52.9845901,158.6856852
37,улица Пономарёва,683013,52.9851874,158.6829204
31,улица Пономарёва,683013,52.9849600,158.6860332
19,улица Пономарёва,683013,52.9832609,158.6853252
39,улица Пономарёва,683013,52.9853109,158.6814902
123,Океанская улица,683013,52.9819887,158.6814978
7,Садовый переулок,683013,52.9800157,158.6837301
119,Океанская улица,683013,52.9824543,158.6792274
81,Океанская улица,683013,52.9842661,158.6771363
4,улица Зелёная Роща,683030,52.9729478,158.6920233
1,Индустриальная улица,683015,52.9738807,158.6948428
9,Индустриальная улица,683015,52.9714847,158.6958191
7,Индустриальная улица,683015,52.9720763,158.6955815
94А,Океанская улица,683013,52.9819812,158.6780710
65/4,Океанская улица,683010,52.9868303,158.6732874
26,улица Лермонтова,683030,52.9740356,158.6873185
10,Комсомольская улица,683030,52.9726740,158.6865079
27/2,Петропавловское шоссе,683015,52.9781887,158.6896348
20/1,улица Лермонтова,683030,52.9724260,158.6849183
2А,улица Свердлова,683013,52.9832997,158.6714202
12,Комсомольская улица,683030,52.9721411,158.6862775
3,Индустриальная улица,683015,52.9734836,158.6950269
67,Океанская улица,683010,52.9874423,158.6712998
7,улица Павлова,683013,52.9867860,158.6755583
8,улица Павлова,683013,52.9862487,158.6757207
28,улица Лермонтова,683030,52.9740984,158.6889822
7,улица Свердлова,683013,52.9837925,158.6731479
8,Комсомольская улица,683030,52.9732318,158.6868321
22,улица Лермонтова,683030,52.9730022,158.6847634
2,улица Зелёная Роща,683030,52.9722292,158.6923482
14,Комсомольская улица,683030,52.9715508,158.6859786
20,улица Лермонтова,683030,52.9725732,158.6842155
65/1,Океанская улица,683010,52.9879938,158.6719158
24,улица Лермонтова,683030,52.9734378,158.6853885
94,Океанская улица,683013,52.9822114,158.6785083
65/2,Океанская улица,683010,52.9874276,158.6723123
92В,Океанская улица,683013,52.9819670,158.6760375
92А,Океанская улица,683013,52.9815875,158.6770191
5,улица Павлова,683013,52.9862505,158.6745752
18,улица Лермонтова,683030,52.9719639,158.6837211
24,улица Лермонтова,683030,52.9733475,158.6860776
65/3,Океанская улица,683010,52.9870909,158.6727614
10,улица Лермонтова,683030,52.9711868,158.6856064
22А,улица Лермонтова,683030,52.9728431,158.6855709
6,Комсомольская улица,683030,52.9731248,158.6873551
20А,улица Лермонтова,683030,52.9722965,158.6855872
92Б,Океанская улица,683013,52.9814498,158.6756640
23,улица Свердлова,683013,52.9824019,158.6756808
7,улица Лаперуза,683015,52.9805446,158.6871531
33/1,Петропавловское шоссе,683015,52.9800464,158.6883965
39,улица Труда,683030,52.9667635,158.6921474
27/1,Индустриальная улица,683015,52.9660779,158.6990484
19,Заводская улица,683015,52.9651418,158.6968591
29,улица Труда,683030,52.9654000,158.6920793
25,Индустриальная улица,683015,52.9672690,158.6976191
1/1,Пушкинская улица,683015,52.9718743,158.6995017
28,Индустриальная улица,683015,52.9661880,158.6979334
35,улица Труда,683030,52.9657831,158.6924555
33,улица Труда,683030,52.9654638,158.6933971
27,улица Труда,683030,52.9670361,158.6904996
19,Индустриальная улица,683015,52.9686656,158.6970071
4,Сахалинская улица,683030,52.9701679,158.6908836
31,улица Труда,683030,52.9651178,158.6930992
37,улица Труда,683030,52.9666772,158.6914574
8,Сахалинская улица,683030,52.9700049,158.6896493
30,Индустриальная улица,683015,52.9658108,158.6982750
17,Заводская улица,683015,52.9660001,158.6961470
25,улица Труда,683030,52.9661912,158.6909197
23,Индустриальная улица,683015,52.9677042,158.6974301
21,Заводская улица,683015,52.9644952,158.6972488
43,улица Труда,683030,52.9657866,158.6937163
21,Индустриальная улица,683015,52.9681279,158.6972521
7,Комсомольская улица,683030,52.9707938,158.6877897
20,Заводская улица,683015,52.9659571,158.6972138
13,Заводская улица,683015,52.9673892,158.6948265
41,улица Труда,683030,52.9669594,158.6925880
74,улица Петра Ильичёва,683012,52.9569778,158.6739570
32,Индустриальная улица,683015,52.9650347,158.6989794
18,Заводская улица,683015,52.9670791,158.6963558
1,Пушкинская улица,683015,52.9723147,158.6996022
15,Заводская улица,683015,52.9668868,158.6955010
49/3,улица Петра Ильичёва,683012,52.9563002,158.6773724
49/2,улица Петра Ильичёва,683012,52.9564197,158.6768932
80,улица Петра Ильичёва,683012,52.9581275,158.6741114
14,улица Тургенева,683015,52.9798442,158.6899148
22,Ленинская улица,683000,53.0127842,158.6510316
24,Ленинская улица,683000,53.0131215,158.6506909
26,Ленинская улица,683000,53.0134283,158.6504676
2,улица Челюскинцев,683030,52.9716450,158.6880878
6,улица Челюскинцев,683030,52.9717657,158.6873750
1,улица Хабарова,683030,52.9718831,158.6882621
2А,Школьная улица,683030,52.9686004,158.6939234
21,Сахалинская улица,683030,52.9693509,158.6883411
5,улица Хабарова,683030,52.9720171,158.6875559
3,улица Хабарова,683030,52.9719462,158.6879044
10,Сахалинская улица,683030,52.9699248,158.6889332
1А,Школьная улица,683030,52.9682157,158.6931785
4,улица Челюскинцев,683030,52.9716957,158.6877063
2А,Сахалинская улица,683030,52.9706278,158.6916529
60,Ленинская улица,683001,53.0207854,158.6472401
54,Ленинская улица,683001,53.0196093,158.6479627
65,Ленинская улица,683001,53.0198164,158.6467752
62,Ленинская улица,683001,53.0212161,158.6474781
2А,Комсомольская улица,683030,52.9734948,158.6910727
18А,улица Лермонтова,683030,52.9718967,158.6849752
30,улица Лермонтова,683030,52.9746217,158.6889372
79,улица Павлова,683013,52.9852124,158.6754562
80А,Океанская улица,683013,52.9863784,158.6708891
4,улица Павлова,683013,52.9855014,158.6741541
77,Океанская улица,683013,52.9849062,158.6752473
2,улица Павлова,683013,52.9857922,158.6747183
75,Океанская улица,683013,52.9851930,158.6741265
13,Индустриальная улица,683015,52.9702928,158.6965775
26 к3,улица Радиосвязи,683001,53.0060977,158.6580463
2,площадь Щедрина,683001,53.0069735,158.6568945
6,Красноармейская улица,683001,53.0094679,158.6532204
39А,Советская улица,683000,53.0199741,158.6482281
19,улица Свердлова,683013,52.9834000,158.6744311
22Б,Рябиковская улица,683004,52.9980530,158.6586688
65,Рябиковская улица,683004,52.9895803,158.6580440
64В,Рябиковская улица,683004,52.9892226,158.6558505
80,Рябиковская улица,683004,52.9873043,158.6616902
14А,улица Свердлова,683013,52.9823587,158.6727130
1,Школьная улица,683030,52.9684187,158.6924336
91А,Рябиковская улица,683004,52.9905062,158.6592019
62,Рябиковская улица,683004,52.9896431,158.6570492
3,Сахалинская улица,683030,52.9697662,158.6915058
17,улица Свердлова,683013,52.9832047,158.6744961
64,Рябиковская улица,683004,52.9894171,158.6557697
60А,Рябиковская улица,683004,52.9898891,158.6563462
3,улица Труда,683030,52.9692197,158.6930941
78,Рябиковская улица,683004,52.9874952,158.6613134
13,улица Труда,683030,52.9690081,158.6910732
42,улица Кулешова,683015,52.9743898,158.6817587
57А,Рябиковская улица,683004,52.9906215,158.6576594
62Б,Рябиковская улица,683004,52.9895706,158.6560548
21,улица Свердлова,683013,52.9834200,158.6749453
16А,улица Труда,683030,52.9689324,158.6891213
60,Рябиковская улица,683004,52.9899595,158.6569654
2,Школьная улица,683030,52.9688666,158.6931980
63,Рябиковская улица,683004,52.9898015,158.6578394
61,Рябиковская улица,683004,52.9900847,158.6577116
64Б,Рябиковская улица,683004,52.9896167,158.6557140
5,улица Свердлова,683013,52.9838080,158.6737789
5,улица Труда,683030,52.9692105,158.6927063
6А,улица Свердлова,683013,52.9825578,158.6726517
11,улица Труда,683030,52.9690834,158.6915051
15,улица Труда,683030,52.9689245,158.6905751
62А,Рябиковская улица,683004,52.9896056,158.6564412
1,Курильская улица,683004,52.9971958,158.6591222
29,улица Красная Сопка,683004,53.0014308,158.6594895
16,улица Лаперуза,683013,52.9798935,158.6842536
10,Береговая улица,683013,52.9786204,158.6841445
5,улица Вилкова,683013,52.9793847,158.6844992
41,улица Штурмана Елагина,683013,52.9769232,158.6792479
1,Береговая улица,683013,52.9798058,158.6854872
5,Береговая улица,683013,52.9788477,158.6845027
18,улица Лаперуза,683013,52.9796566,158.6839343
24,Корякская улица,683004,52.9928710,158.6608296
22,Курильская улица,683004,52.9926506,158.6591438
9А,улица Капитана Беляева,683010,52.9894419,158.6668368
9Б,улица Капитана Беляева,683010,52.9890592,158.6673312
16,улица Никифора Бойко,683010,52.9891350,158.6666143
18,улица Никифора Бойко,683010,52.9887446,158.6671422
80/1,Океанская улица,683013,52.9859912,158.6709619
11,улица Свердлова,683013,52.9829328,158.6734095
12А,улица Свердлова,683013,52.9830860,158.6716557
26,Курильская улица,683004,52.9918180,158.6601991
5/1,Артиллерийская улица,683013,53.0369489,158.6650568
15,улица Сапун-Гора,683004,52.9957054,158.6609822
9А,улица Тургенева,683015,52.9802537,158.6913341
43,улица Тургенева,683015,52.9824404,158.6874795
39,улица Тургенева,683015,52.9821365,158.6877129
41,улица Тургенева,683015,52.9822886,158.6875917
23/1,Петропавловское шоссе,683015,52.9758854,158.6911998
18,Авиационная улица,683011,53.0297848,158.7323387
24,проспект Победы,683023,53.0719699,158.5950513
3/1,проспект Циолковского,683009,53.0459529,158.6713685
6,Тундровая улица,683009,53.0438168,158.6681740
2,Тундровая улица,683009,53.0460487,158.6678214
47,улица Тургенева,683015,52.9827581,158.6872699
5/2,улица Вилкова,683013,52.9789925,158.6841733
8/1а,улица Тушканова,683031,53.0623044,158.6294055
8А,улица Свердлова,683013,52.9833086,158.6725603
6,бульвар Рыбацкой Славы,683024,53.0551923,158.6410666
8А,Заводская улица,683015,52.9689547,158.6946192
6А,Заводская улица,683015,52.9695624,158.6943617
5,улица Челюскинцев,683030,52.9715118,158.6872456
3,улица Челюскинцев,683030,52.9714496,158.6876400
10А,Заводская улица,683015,52.9683355,158.6948898
2А,улица Зелёная Роща,683030,52.9719242,158.6921158
1,улица Челюскинцев,683030,52.9713790,158.6880046
3А,Школьная улица,683030,52.9680013,158.6940264
4А,улица Зелёная Роща,683030,52.9726459,158.6918087
104,Ленинградская улица,683003,53.0389981,158.6591976
2,Красноармейская улица,683001,53.0087468,158.6539945
31,улица Савченко,683002,53.0785958,158.6520280
33,улица Савченко,683002,53.0787368,158.6529949
12/1,улица Ларина,683002,53.0740549,158.6505676
12/2,улица Ларина,683032,53.0742056,158.6513481
28,Сахалинская улица,683000,52.9695087,158.6846534
10,Набережная улица,683000,53.0234683,158.6475651
4/1,Пограничная улица,683000,53.0351091,158.6643503
18,Пограничная улица,683032,53.0355459,158.6693851
61,Ленинградская улица,683003,53.0373852,158.6556954
13/1,проспект 50 лет Октября,683024,53.0529069,158.6366430
13Б,проспект 50 лет Октября,683024,53.0534873,158.6370856
13,Халатырское шоссе,683011,53.0289214,158.7118764
13/1,Халатырское шоссе,683011,53.0290318,158.7121770
1к6,улица Невского,683011,53.0298148,158.7165574
26/1,Индустриальная улица,683015,52.9670539,158.6971011
25 к3,проспект Циолковского,683009,53.0568148,158.6739690
3/1,улица Фурманова,683021,53.0600007,158.8247875
34,улица Сафонова,683021,53.0484357,158.8023736
22,улица Сафонова,683021,53.0505134,158.8038715
10,улица Тушканова,683031,53.0621923,158.6291540
40,Кавказская улица,683023,53.0700712,158.6167539
41,улица Красная Сопка,683004,53.0021603,158.6597077
3,улица Павлова,683013,52.9860302,158.6739147
18,Туристический проезд,683024,53.0499421,158.6518847
16,Туристический проезд,683024,53.0495820,158.6525012
14,Туристический проезд,683024,53.0492689,158.6530818
12,Туристический проезд,683024,53.0489716,158.6536687
10,Туристический проезд,683024,53.0486262,158.6543602
14А,Туристический проезд,683024,53.0490880,158.6526909
12А,Туристический проезд,683024,53.0488052,158.6532618
7,Заводская улица,683015,52.9695406,158.6954423
7А,Заводская улица,683015,52.9685147,158.6958760
10А,Дальневосточная улица,683002,53.0791333,158.6432455
74/7,Ленинградская улица,683003,53.0368117,158.6579680
1,улица Невского,683011,53.0292994,158.7191189
57/1,проспект Победы,683006,53.0693534,158.5939963
47,проспект Победы,683006,53.0694868,158.5968011
96,Приморская улица,683901,53.0698084,158.5688680
1,улица Ватутина,683000,53.0493336,158.6351019
11/8,улица Озерновская Коса,683001,53.0302464,158.6376524
18,улица Максутова,683003,53.0332096,158.6557750
107,Тундровая улица,683032,53.0359646,158.6896185
71,Дальняя улица,683041,53.0626728,158.6733587
10,Тундровая улица,683009,53.0436062,158.6690296
8,Тундровая улица,683009,53.0436813,158.6687379
16,Тундровая улица,683009,53.0434051,158.6699152
14,Тундровая улица,683009,53.0434448,158.6697164
12,Тундровая улица,683009,53.0435498,158.6693173
10А,Тундровая улица,683009,53.0433716,158.6687283
12А,Тундровая улица,683009,53.0432667,158.6691670
14А,Тундровая улица,683009,53.0431759,158.6694693
16А,Тундровая улица,683009,53.0431115,158.6697466
18А,Тундровая улица,683009,53.0430415,158.6700386
18,Тундровая улица,683009,53.0433130,158.6702257
20,Тундровая улица,683009,53.0432522,158.6705228
9,улица Лермонтова,683030,52.9708627,158.6862211
10,улица Чкалова,683003,53.0341068,158.6375587
11,улица Чкалова,683003,53.0342224,158.6382036
78,Ленинградская улица,683003,53.0358506,158.6559222
9,улица Озерновская Коса,683001,53.0271703,158.6410291
46А,улица Невельского,683016,53.0444983,158.6265130
4,улица Невельского,683016,53.0446685,158.6265834
42,улица Невельского,683016,53.0442366,158.6270417
40,улица Невельского,683016,53.0443741,158.6272103
5,Авачинская улица,683003,53.0323071,158.6322433
3,Авачинская улица,683003,53.0322109,158.6326722
9,Авачинская улица,683003,53.0324933,158.6315654
11,Авачинская улица,683003,53.0325751,158.6312773
30/2,Омская улица,683905,53.0555545,158.6111138
40А,Омская улица,683905,53.0562090,158.6116759
40Г,Омская улица,683905,53.0558882,158.6121217
42А,Омская улица,683905,53.0564505,158.6114326
44А,Омская улица,683905,53.0568708,158.6114188
74Б,Ленинградская улица,683003,53.0361318,158.6561481
19,Петропавловское шоссе,683015,52.9768824,158.6920218
21/6,Петропавловское шоссе,683015,52.9760683,158.6942737
5/2,улица Сапун-Гора,683010,52.9942677,158.6616019
38,Индустриальная улица,683015,52.9643985,158.7003931
33,Индустриальная улица,683015,52.9646329,158.6999418
17,улица Сапун-Гора,683010,52.9952553,158.6614403
19,Сахалинская улица,683030,52.9693463,158.6889962
3А/1,Сахалинская улица,683015,52.9698229,158.6919711
23А,Петропавловское шоссе,683015,52.9784928,158.6930663
27,улица Тургенева,683015,52.9811822,158.6885831
25,улица Тургенева,683015,52.9811017,158.6889904
33,улица Тургенева,683015,52.9816267,158.6881602
35,улица Тургенева,683015,52.9817882,158.6880020
37,улица Тургенева,683015,52.9819684,158.6878430
1,улица Кирова,683015,52.9740691,158.6982815
3,улица Кирова,683015,52.9742634,158.6981964
7,улица Кирова,683015,52.9746725,158.6979911
9,улица Кирова,683015,52.9748388,158.6979309
11,улица Кирова,683015,52.9750647,158.6978283
13,улица Кирова,683015,52.9752587,158.6977646
15,улица Кирова,683015,52.9754483,158.6976938
21,улица Кирова,683015,52.9760621,158.6974850
23,улица Кирова,683015,52.9762347,158.6974709
25,улица Кирова,683015,52.9764179,158.6974319
27,улица Кирова,683015,52.9765906,158.6974355
29,улица Кирова,683015,52.9767654,158.6974284
31,улица Кирова,683015,52.9769422,158.6974532
33,улица Кирова,683015,52.9772850,158.6976155
6А,улица Кирова,683015,52.9741460,158.6987937
8,улица Кирова,683015,52.9743076,158.6987052
10,улица Кирова,683015,52.9745580,158.6984263
12,улица Кирова,683015,52.9747210,158.6983592
14,улица Кирова,683015,52.9749198,158.6982975
16,улица Кирова,683015,52.9751334,158.6982069
18,улица Кирова,683015,52.9754578,158.6981080
32,улица Кирова,683015,52.9767208,158.6978132
34,улица Кирова,683015,52.9772085,158.6980002
34А,улица Кирова,683015,52.9773842,158.6980886
38,улица Кирова,683015,52.9777289,158.6982576
35,улица Кирова,683015,52.9774375,158.6976566
36,улица Кирова,683015,52.9776064,158.6979779
8,улица Капитана Драбкина,683010,52.9910831,158.6661300
26,улица Кирова,683015,52.9761807,158.6978744
52,улица Тургенева,683013,52.9821911,158.6848025
26/1,улица Лермонтова,683030,52.9738463,158.6878903
3А,Сахалинская улица,683030,52.9698056,158.6917738
5,Сахалинская улица,683030,52.9697116,158.6911652
7,Сахалинская улица,683030,52.9696801,158.6908594
9,Сахалинская улица,683030,52.9696365,158.6905362
11,Сахалинская улица,683030,52.9696018,158.6902210
13,Сахалинская улица,683030,52.9695655,158.6898925
15,Сахалинская улица,683030,52.9695509,158.6895518
17,Сахалинская улица,683030,52.9695033,158.6892716
4,улица Труда,683030,52.9694633,158.6916317
6,улица Труда,683030,52.9694187,158.6912760
8,улица Труда,683030,52.9693569,158.6909538
10,улица Труда,683030,52.9693273,158.6906594
12,улица Труда,683030,52.9692861,158.6903463
14,улица Труда,683030,52.9692558,158.6899728
16,улица Труда,683030,52.9691897,158.6896564
7,улица Труда,683030,52.9691545,158.6922436
3/7,Сахалинская улица,683030,52.9693674,158.6922162
9,улица Труда,683030,52.9691223,158.6919237
17,улица Труда,683030,52.9688894,158.6902544
19,улица Труда,683030,52.9688222,158.6897713
5,Школьная улица,683030,52.9683713,158.6920357
9,Школьная улица,683030,52.9683138,158.6915946
13,Школьная улица,683030,52.9682667,158.6911680
7,Школьная улица,683030,52.9681434,158.6921315
11,Школьная улица,683030,52.9680858,158.6916903
15,Школьная улица,683030,52.9680388,158.6912637
3,Школьная улица,683030,52.9681908,158.6925294
17А,Школьная улица,683030,52.9681196,158.6901663
4,Школьная улица,683030,52.9687644,158.6928679
6,Школьная улица,683030,52.9687166,158.6924009
8,Школьная улица,683030,52.9686730,158.6920460
10,Школьная улица,683030,52.9686055,158.6915650
12,Школьная улица,683030,52.9685955,158.6912240
14,Школьная улица,683030,52.9684867,158.6907259
16,Школьная улица,683030,52.9684593,158.6904180
18,Школьная улица,683030,52.9684118,158.6899458
19,улица Штурмана Елагина,683013,52.9794050,158.6806767
2,Пролетарская улица,683015,52.9742327,158.6995834
1,Пролетарская улица,683015,52.9741888,158.6991092
3,Пролетарская улица,683015,52.9744308,158.6990138
5,Пролетарская улица,683015,52.9746251,158.6989358
7,Пролетарская улица,683015,52.9747974,158.6988475
9,Пролетарская улица,683015,52.9749881,158.6987360
11,Пролетарская улица,683015,52.9752155,158.6986922
13,Пролетарская улица,683015,52.9753547,158.6985897
15,Пролетарская улица,683015,52.9756204,158.6985082
14,Пролетарская улица,683015,52.9754505,158.6989851
12,Пролетарская улица,683015,52.9752394,158.6990577
10,Пролетарская улица,683015,52.9750521,158.6991411
8,Пролетарская улица,683015,52.9748376,158.6991973
6,Пролетарская улица,683015,52.9746712,158.6992874
4,Пролетарская улица,683015,52.9744786,158.6993483
17,Пролетарская улица,683015,52.9759518,158.6984888
16,Пролетарская улица,683015,52.9756769,158.6989029
18,Пролетарская улица,683015,52.9759092,158.6987773
20,Пролетарская улица,683015,52.9760680,158.6986977
22,Пролетарская улица,683015,52.9762271,158.6986663
19,Пролетарская улица,683015,52.9761420,158.6983227
23,Пролетарская улица,683015,52.9765591,158.6981460
21,Пролетарская улица,683015,52.9763468,158.6982048
3А,Пушкинская улица,683015,52.9743168,158.6999181
16А,Пушкинская улица,683015,52.9741868,158.7004881
16,Пушкинская улица,683015,52.9740382,158.7004167
14,Пушкинская улица,683015,52.9738127,158.7003735
18А,Пушкинская улица,683015,52.9743959,158.7002926
18,Пушкинская улица,683015,52.9746105,158.7002397
5,Пушкинская улица,683015,52.9745512,158.6998654
7,Пушкинская улица,683015,52.9747161,158.6998248
9,Пушкинская улица,683015,52.9749189,158.6997602
11,Пушкинская улица,683015,52.9751368,158.6997144
24,Пушкинская улица,683015,52.9752094,158.7000832
24Б,Пушкинская улица,683015,52.9752352,158.7003536
20А,Пушкинская улица,683015,52.9748879,158.7006821
24А,Пушкинская улица,683015,52.9752490,158.7006122
22А,Пушкинская улица,683015,52.9750554,158.7006516
22,Пушкинская улица,683015,52.9750351,158.7003980
26,Пушкинская улица,683015,52.9754224,158.6999626
15,Пушкинская улица,683015,52.9755428,158.6995839
28,Пушкинская улица,683015,52.9756217,158.6999570
17,Пушкинская улица,683015,52.9758377,158.6995008
26Б,Пушкинская улица,683015,52.9754849,158.7005744
30,Пушкинская улица,683015,52.9758734,158.7000036
32,Пушкинская улица,683015,52.9759019,158.7004083
38,Пушкинская улица,683015,52.9762163,158.7014331
12,Пушкинская улица,683015,52.9735690,158.7003753
10,Пушкинская улица,683015,52.9733873,158.7003408
8,Пушкинская улица,683015,52.9731201,158.7002884
6,Пушкинская улица,683015,52.9728547,158.7002268
7,Луговая улица,683015,52.9714812,158.7004568
1/3,улица Аммональная падь,683015,52.9759873,158.6940782
49,Луговая улица,683015,52.9743099,158.7010490
47,Луговая улица,683015,52.9740231,158.7011826
48,Луговая улица,683015,52.9740221,158.7016248
52,Луговая улица,683015,52.9745516,158.7014021
53,Луговая улица,683015,52.9747932,158.7011785
54,Луговая улица,683015,52.9747831,158.7014678
54А,Луговая улица,683015,52.9749526,158.7014901
55,Луговая улица,683015,52.9750738,158.7012168
57,Луговая улица,683015,52.9752075,158.7011455
59,Луговая улица,683015,52.9754198,158.7013184
56А,Луговая улица,683015,52.9754798,158.7017048
63,Луговая улица,683015,52.9757142,158.7013486
65,Луговая улица,683015,52.9758092,158.7016744
58,Луговая улица,683015,52.9757748,158.7021217
67,Луговая улица,683015,52.9760105,158.7019682
69,Луговая улица,683015,52.9760934,158.7020938
71,Луговая улица,683015,52.9762283,158.7023457
62,Луговая улица,683015,52.9760289,158.7025661
60,Луговая улица,683015,52.9758963,158.7025277
64,Луговая улица,683015,52.9762406,158.7028022
66,Луговая улица,683015,52.9764554,158.7031113
79,Луговая улица,683015,52.9769029,158.7032931
77,Луговая улица,683015,52.9767419,158.7031083
74,Луговая улица,683015,52.9772271,158.7041238
85,Луговая улица,683015,52.9773100,158.7038379
76,Луговая улица,683015,52.9773977,158.7043409
78,Луговая улица,683015,52.9777974,158.7048808
91,Луговая улица,683015,52.9777732,158.7044810
93,Луговая улица,683015,52.9779169,158.7046908
89,Луговая улица,683015,52.9776817,158.7041993
87,Луговая улица,683015,52.9775352,158.7040455
82,Луговая улица,683015,52.9782916,158.7059003
82А,Луговая улица,683015,52.9784625,158.7062203
41,Луговая улица,683015,52.9735161,158.7013963
42,Луговая улица,683015,52.9733304,158.7016529
40,Луговая улица,683015,52.9729332,158.7015261
35,Луговая улица,683015,52.9729813,158.7011273
38,Луговая улица,683015,52.9727270,158.7016279
36,Луговая улица,683015,52.9726369,158.7012867
38А,Луговая улица,683015,52.9725694,158.7017353
33,Луговая улица,683015,52.9723673,158.7019224
34,Луговая улица,683015,52.9724649,158.7011850
27,Луговая улица,683015,52.9726281,158.7009372
29,Луговая улица,683015,52.9727798,158.7010225
25,Луговая улица,683015,52.9724442,158.7008945
32,Луговая улица,683015,52.9722719,158.7010848
30,Луговая улица,683015,52.9721074,158.7010504
28,Луговая улица,683015,52.9719793,158.7009160
26,Луговая улица,683015,52.9718654,158.7008486
23,Луговая улица,683015,52.9722749,158.7007858
19,Луговая улица,683015,52.9720054,158.7004928
21,Луговая улица,683015,52.9720874,158.7006379
37,улица Нагорная Слободка,683015,52.9714385,158.7014536
16,Луговая улица,683015,52.9713347,158.7007287
67А,улица Нагорная Слободка,683015,52.9717615,158.7011754
8,Луговая улица,683015,52.9708243,158.7001742
9,улица Нагорная Слободка,683015,52.9710056,158.7009863
21,улица Нагорная Слободка,683015,52.9712634,158.7010082
58,Полярная улица,683015,52.9747432,158.7021231
53,Полярная улица,683015,52.9743167,158.7020138
54,Полярная улица,683015,52.9743401,158.7024194
56,Полярная улица,683015,52.9745166,158.7022693
52,Полярная улица,683015,52.9741849,158.7024845
50,Полярная улица,683015,52.9740043,158.7025283
48,Полярная улица,683015,52.9738489,158.7026542
46,Полярная улица,683015,52.9736391,158.7027673
47,Полярная улица,683015,52.9737711,158.7022897
45,Полярная улица,683015,52.9735118,158.7024732
44,Полярная улица,683015,52.9734524,158.7028719
42,Полярная улица,683015,52.9732398,158.7029797
43,Полярная улица,683015,52.9732092,158.7026328
38,Полярная улица,683015,52.9729419,158.7032244
46А,улица Сурикова,683015,52.9726362,158.7029194
36,Полярная улица,683015,52.9726289,158.7032751
34,Полярная улица,683015,52.9725001,158.7033811
32,Полярная улица,683015,52.9724107,158.7034631
30,Полярная улица,683015,52.9722319,158.7035891
26А,Полярная улица,683015,52.9720354,158.7038871
24А,Полярная улица,683015,52.9719064,158.7040086
29,Полярная улица,683015,52.9717895,158.7033228
22,Полярная улица,683015,52.9717796,158.7036549
20,Полярная улица,683015,52.9717265,158.7037863
39,Полярная улица,683015,52.9721770,158.7032644
18,Гражданская улица,683015,52.9713158,158.7052571
25,улица Нагорная Слободка,683015,52.9708542,158.7016043
41,улица Нагорная Слободка,683015,52.9708928,158.7020486
20,улица Репина,683015,52.9708181,158.7029204
26,улица Репина,683015,52.9711869,158.7026029
28,улица Репина,683015,52.9713525,158.7024915
17,Полярная улица,683015,52.9710646,158.7037030
16,Полярная улица,683015,52.9711966,158.7041877
7,Полярная улица,683015,52.9704342,158.7040377
10,Полярная улица,683015,52.9706485,158.7045274
8,Полярная улица,683015,52.9705278,158.7051265
10А,Полярная улица,683015,52.9706993,158.7049351
12,Полярная улица,683015,52.9708690,158.7044120
6,Полярная улица,683015,52.9701465,158.7048858
4,улица Сурикова,683015,52.9698918,158.7042664
4,Полярная улица,683015,52.9700057,158.7049900
4А,Полярная улица,683015,52.9700103,158.7053889
2,Полярная улица,683015,52.9697177,158.7051271
2А,Полярная улица,683015,52.9697731,158.7055093
70,улица Нагорная Слободка,683015,52.9703179,158.7026583
52,улица Нагорная Слободка,683015,52.9705039,158.7017655
67,улица Нагорная Слободка,683015,52.9715455,158.7011476
28,улица Нагорная Слободка,683015,52.9705639,158.7013212
22,улица Нагорная Слободка,683015,52.9705005,158.7011197
24,улица Нагорная Слободка,683015,52.9705743,158.7008335
14,улица Нагорная Слободка,683015,52.9702362,158.7011455
38,улица Нагорная Слободка,683015,52.9701474,158.7015772
48,улица Нагорная Слободка,683015,52.9701412,158.7019151
46,улица Нагорная Слободка,683015,52.9702843,158.7020193
50,улица Нагорная Слободка,683015,52.9701080,158.7023082
44,улица Нагорная Слободка,683015,52.9700431,158.7020787
58,улица Нагорная Слободка,683015,52.9703576,158.7022534
14,Полярная улица,683015,52.9710028,158.7043099
77Б,Океанская улица,683013,52.9846833,158.6762664
77А,Океанская улица,683013,52.9848759,158.6763320
13/3,Индустриальная улица,683015,52.9699853,158.6970203
3,Береговая улица,683013,52.9793824,158.6850783
5,Рабочая улица,683015,52.9695368,158.7029746
7,Рабочая улица,683015,52.9692977,158.7030992
9,Рабочая улица,683015,52.9690965,158.7032291
15,Рабочая улица,683015,52.9682915,158.7037992
17,Рабочая улица,683015,52.9681229,158.7040362
16,Рабочая улица,683015,52.9679765,158.7037174
21,Рабочая улица,683015,52.9675175,158.7044738
20,Рабочая улица,683015,52.9674651,158.7041891
23,Рабочая улица,683015,52.9672575,158.7046734
20А,Рабочая улица,683015,52.9671929,158.7043553
25,Рабочая улица,683015,52.9670635,158.7048550
22,Рабочая улица,683015,52.9670267,158.7045650
9,улица Некрасова,683015,52.9674445,158.7051118
7,улица Некрасова,683015,52.9677813,158.7048383
5,улица Некрасова,683015,52.9679615,158.7047136
3,улица Некрасова,683015,52.9682668,158.7044834
2,улица Некрасова,683015,52.9690782,158.7040095
27,Индустриальная улица,683015,52.9656110,158.6990427
74/3,Ленинградская улица,683003,53.0367790,158.6564685
74/2,Ленинградская улица,683003,53.0369561,158.6568941
74/5,Ленинградская улица,683003,53.0365673,158.6572224
74/9,Ленинградская улица,683003,53.0366543,158.6582297
80/1,Пограничная улица,683003,53.0367754,158.6572096
13,улица Сапун-Гора,683004,52.9955562,158.6610777
13/1,Индустриальная улица,683015,52.9700158,158.6972143
47,улица Крупской,683015,52.9686757,158.6978436
49,улица Крупской,683015,52.9685183,158.6979870
51,улица Крупской,683015,52.9683077,158.6980643
53,улица Крупской,683015,52.9680551,158.6982106
55,улица Крупской,683015,52.9677768,158.6983968
30,улица Крупской,683015,52.9679764,158.6979050
24,улица Крупской,683015,52.9683631,158.6976042
26,улица Крупской,683015,52.9682279,158.6977245
59,улица Крупской,683015,52.9673703,158.6985801
34,улица Крупской,683015,52.9673831,158.6982975
2,улица Мичурина,683015,52.9706023,158.6984134
3,улица Мичурина,683015,52.9702800,158.6986478
5,улица Мичурина,683015,52.9699339,158.6989521
4,улица Мичурина,683015,52.9701037,158.6987539
6,улица Мичурина,683015,52.9697756,158.6991026
9,улица Мичурина,683015,52.9692957,158.6999639
13,улица Мичурина,683015,52.9688908,158.7003494
15,улица Мичурина,683015,52.9686686,158.7005645
25,улица Мичурина,683015,52.9673225,158.7018359
26,улица Мичурина,683015,52.9670621,158.7020386
27,улица Мичурина,683015,52.9667544,158.7023479
28,улица Мичурина,683015,52.9665375,158.7025556
29,улица Мичурина,683015,52.9662759,158.7027801
30,улица Мичурина,683015,52.9660644,158.7029934
31,улица Мичурина,683015,52.9657962,158.7031678
32,улица Мичурина,683015,52.9655911,158.7033662
33,улица Мичурина,683015,52.9652809,158.7036291
34,улица Мичурина,683015,52.9650984,158.7038195
35,улица Мичурина,683015,52.9648544,158.7040717
86А,Строительная улица,683015,52.9649012,158.7046510
86,Строительная улица,683015,52.9650353,158.7045142
84,Строительная улица,683015,52.9652469,158.7043345
88,Строительная улица,683015,52.9647478,158.7047154
95,Строительная улица,683015,52.9653907,158.7046530
97А,Строительная улица,683015,52.9652794,158.7050509
2Д,Сахалинская улица,683030,52.9704938,158.6911232
2Г,Сахалинская улица,683030,52.9704565,158.6913159
2Е,Сахалинская улица,683030,52.9707158,158.6924751
6,Сахалинская улица,683030,52.9706932,158.6896905
6А,Сахалинская улица,683030,52.9704798,158.6896636
3А/3,Сахалинская улица,683030,52.9699240,158.6913206
36,Индустриальная улица,683015,52.9646001,158.6994684
38,Индустриальная улица,683015,52.9633202,158.6958174
48,улица Кулешова,683015,52.9762266,158.6884842
50,улица Кулешова,683015,52.9760474,158.6885271
41,улица Кулешова,683015,52.9754050,158.6895495
43,улица Кулешова,683015,52.9753432,158.6892646
45,улица Кулешова,683015,52.9752931,158.6889360
47,улица Кулешова,683015,52.9752302,158.6886484
36,улица Кулешова,683015,52.9756851,158.6891248
38,улица Кулешова,683015,52.9758765,158.6890547
1А к5,Строительная улица,683015,52.9748722,158.6973661
61/1,Океанская улица,683010,52.9891626,158.6703588
5,улица Капитана Драбкина,683010,52.9916752,158.6664852
8,улица Сапун-Гора,683004,52.9960367,158.6614179
2,улица Сапун-Гора,683004,52.9962718,158.6635447
42,Рябиковская улица,683004,52.9927931,158.6573387
118/1,Мишенная улица,683016,53.0465452,158.6185779
2,улица Ушакова,683016,53.0366118,158.6293898
4,улица Ушакова,683016,53.0367674,158.6290383
6,улица Макарова,683016,53.0367434,158.6282474
1,улица Осипенко,683016,53.0358299,158.6288893
1,улица Лазо,683016,53.0368404,158.6299176
8,улица Ушакова,683000,53.0370112,158.6287325
10,улица Ушакова,683016,53.0371569,158.6285151
12,улица Ушакова,683000,53.0372615,158.6283395
14,улица Ушакова,683000,53.0373858,158.6281608
16,улица Ушакова,683000,53.0376572,158.6277188
8,улица Крашенинникова,683000,53.0386122,158.6272515
2А,улица Ушакова,683000,53.0364340,158.6296698
10,Октябрьская улица,683000,53.0369173,158.6263472
4,улица Лазо,683000,53.0372671,158.6293675
20,улица Ушакова,683000,53.0378064,158.6275063
18,улица Макарова,683000,53.0375617,158.6271031
82,улица Ушакова,683016,53.0433781,158.6241740
36,улица Крашенинникова,683016,53.0431660,158.6255895
43,улица Крашенинникова,683016,53.0432162,158.6252848
45,улица Крашенинникова,683016,53.0434493,158.6253539
54,Уральская,683016,53.0434024,158.6268285
19,Байкальская,683016,53.0439304,158.6266017
48,Уральская,683016,53.0437916,158.6269443
45,улица Невельского,683016,53.0440699,158.6259751
3,улица Крашенинникова,683016,53.0374183,158.6301548
5,улица Невельского,683016,53.0384387,158.6295407
6,улица Невельского,683016,53.0391714,158.6285040
8,улица Крашенинникова,683016,53.0382127,158.6288556
18,улица Невельского,683016,53.0405636,158.6272376
16,улица Невельского,683016,53.0401680,158.6275007
20,улица Крашенинникова,683016,53.0402719,158.6266370
15,Авачинская улица,683003,53.0326421,158.6308058
17,Авачинская улица,683003,53.0327632,158.6303795
25,улица Крашенинникова,683016,53.0409886,158.6260746
11,улица Байкальская,683016,53.0463767,158.6295253
9,улица Байкальская,683016,53.0465692,158.6295217
23,улица Байкальская,683016,53.0454166,158.6281278
51,улица Невельского,683016,53.0458093,158.6282749
32,улица Крашенинникова,683016,53.0423795,158.6253628
31,улица Крашенинникова,683016,53.0421363,158.6254665
30,улица Крашенинникова,683016,53.0419359,158.6255596
26,улица Крашенинникова,683016,53.0412507,158.6259266
19,улица Крашенинникова,683016,53.0398668,158.6269961
2,Кроноцкая улица,683017,53.0441288,158.6596201
2,Кроноцкая улица,683017,53.0445577,158.6590786
27/2,улица Максутова,683032,53.0351572,158.6580127
27/1,Звёздная улица,683049,53.0495006,158.6649695
5,улица Лукашевского,683024,53.0590132,158.6344459
36,улица Чернышевского,683017,53.0418152,158.6504520
6,улица Абеля,683006,53.0678915,158.5988312
24,улица Зелёная Роща,683030,52.9716593,158.6892689
98,Океанская улица,683013,52.9811076,158.6815041
9А,Рабочая улица,683015,52.9689756,158.7033127
10,улица Некрасова,683015,52.9673239,158.7052798
12,улица Лермонтова,683030,52.9710913,158.6842548
5,Комсомольская улица,683030,52.9714194,158.6866867
23,Сахалинская улица,683030,52.9653545,158.6863765
80,Ленинградская улица,683003,53.0368852,158.6574316
17,улица Лаперуза,683013,52.9795316,158.6842227
4Б,Сахалинская улица,683030,52.9705046,158.6903471
121/2,Океанская улица,683013,52.9820871,158.6805572
7,проспект Победы,683023,53.0689615,158.6115892
18,Петропавловское шоссе,683015,52.9754669,158.6909183
10А,улица Лермонтова,683030,52.9707304,158.6846534
45,улица Труда,683030,52.9659653,158.6948537
6,улица Павлова,683013,52.9855331,158.6753713
8,улица Пономарёва,683013,52.9832070,158.6799625
8А,Школьная улица,683030,52.9688435,158.6917830
2,Садовый переулок,683013,52.9805995,158.6807009
73,Океанская улица,683013,52.9849822,158.6737399
6,улица Зелёная Роща,683030,52.9719622,158.6909349
69/1,Океанская улица,683010,52.9860812,158.6720555
74,Ленинградская улица,683003,53.0364524,158.6562432
14А,улица Крупской,683015,52.9711303,158.6969056
3,улица Капитана Драбкина,683010,52.9919486,158.6655436
7А,улица Капитана Драбкина,683010,52.9914336,158.6672276
84,Рябиковская улица,683004,52.9889017,158.6597192
7,улица Капитана Беляева,683010,52.9902768,158.6657989
4,улица Кирова,683015,52.9735576,158.6993564
32А,Курильская улица,683004,52.9915492,158.6595310
5,Корякская улица,683004,52.9958591,158.6597674
38,Рябиковская улица,683004,52.9932686,158.6569159
35Б,Рябиковская улица,683004,52.9945486,158.6575289
37,Рябиковская улица,683004,52.9939445,158.6574833
вл36А,Рябиковская улица,683004,52.9953507,158.6562609
36Б соор2,Рябиковская улица,683004,52.9946660,158.6565242
36Б к1,Рябиковская улица,683004,52.9950955,158.6567977
36Б соор1,Рябиковская улица,683004,52.9950855,158.6564583
6,Рябиковская улица,683004,52.9981514,158.6611995
11,Индустриальная улица,683015,52.9708931,158.6960664
3А,Корякская улица,683004,52.9965595,158.6608670
1,Комсомольская улица,683030,52.9724296,158.6878122
3,Комсомольская улица,683030,52.9720570,158.6870194
1А к1,Строительная улица,683015,52.9745416,158.6970079
1А к3,Строительная улица,683015,52.9743712,158.6975377
1А к2,Строительная улица,683015,52.9741974,158.6969522
2А,Пушкинская улица,683015,52.9722112,158.7002145
26,Звёздная улица,683049,53.0518254,158.6618376
