House number,Street name,Postal code,Latitude,Longitude
76/4,Bahar köçesi,800422,39.0446689,63.5821264
41,Эрсары баба,746100,39.0892307,63.5842459
74,Magtymguly Pyragy köçesi,746100,39.0969587,63.5935176
34,S.A.Niyazow şayoly,746100,39.0501854,63.5824224
51,Garaşsyz Dıyar,746100,39.0943002,63.5745603
4,S.A. Nyýazow köçesi,746100,39.0814032,63.5774134
150,S.A. Niýazow köçesi,746100,39.0693397,63.5794907
152w,S.A. Niýazow köçesi,746100,39.0682795,63.5813833
20,Görogly koçesi,746100,39.0723613,63.5834848
172,S.A. Niýazow köçesi,746100,39.0715038,63.5811938
7 (220),S.A.Niyazow kocesi,746100,39.0692882,63.5852382
142a,S.A. Niýazow köçesi,746100,39.0686832,63.5790703
208,S.A. Niýazow köçesi,746100,39.0712530,63.5852424
206,S.A. Niýazow köçesi,746100,39.0709192,63.5847038
136,S.A. Niýazow köçesi,746100,39.0716748,63.5785008
144,S.A. Niýazow köçesi,746100,39.0713385,63.5790988
170,S.A. Niýazow köçesi,746100,39.0710578,63.5810118
162,S.A. Niýazow köçesi,746100,39.0706535,63.5803398
212,S.A. Niýazow köçesi,746100,39.0714358,63.5859560
164,S.A. Niýazow köçesi,746100,39.0703619,63.5805922
4 (228),S.A.Niyazow kocesi,746100,39.0690341,63.5845835
202,S.A. Niýazow köçesi,746100,39.0718353,63.5847514
18,Görogly koçesi,746100,39.0723066,63.5825689
166b,S.A. Niýazow köçesi,746100,39.0688185,63.5815863
174,S.A. Niýazow köçesi,746100,39.0717203,63.5806540
168,S.A. Niýazow köçesi,746100,39.0707954,63.5816009
152b,S.A. Niýazow köçesi,746100,39.0683686,63.5807054
140,S.A. Niýazow köçesi,746100,39.0702669,63.5787416
216,S.A.Niyazow kocesi,746100,39.0699045,63.5861848
146,S.A. Niýazow köçesi,746100,39.0706878,63.5792260
194,S.A. Niýazow köçesi,746100,39.0717760,63.5827378
134/7,S.A. Niýazow köçesi,746100,39.0708317,63.5826650
6 (222),S.A.Niyazow kocesi,746100,39.0687986,63.5860797
24,Görogly koçesi,746100,39.0723673,63.5853671
218,S.A.Niyazow kocesi,746100,39.0693599,63.5863362
134/5,S.A. Niýazow köçesi,746100,39.0714721,63.5821220
204,S.A. Niýazow köçesi,746100,39.0714154,63.5843215
1 (232),S.A.Niyazow kocesi,746100,39.0688113,63.5838832
142б,S.A.Niyazow kocesi,746100,39.0682287,63.5794290
192,S.A. Niýazow köçesi,746100,39.0711959,63.5831994
200,S.A. Niýazow köçesi,746100,39.0718978,63.5839551
166,S.A. Niýazow köçesi,746100,39.0700794,63.5808471
156,S.A. Niýazow köçesi,746100,39.0716817,63.5798200
138,S.A. Niýazow köçesi,746100,39.0709677,63.5786282
150а,S.A. Niýazow köçesi,746100,39.0689835,63.5797268
134/4,S.A. Niýazow köçesi,746100,39.0717895,63.5818363
148,S.A. Niýazow köçesi,746100,39.0700240,63.5793306
3 (226),S.A.Niyazow kocesi,746100,39.0684667,63.5848558
166а,S.A. Niýazow köçesi,746100,39.0693602,63.5813571
152а,S.A. Niýazow köçesi,746100,39.0691331,63.5807146
16,Görogly koçesi,746100,39.0721897,63.5816211
214,S.A. Niýazow köçesi,746100,39.0709485,63.5859741
22,Görogly koçesi,746100,39.0722956,63.5844406
134/6,S.A. Niýazow köçesi,746100,39.0711611,63.5823908
152,S.A. Niýazow köçesi,746100,39.0695460,63.5803034
158,S.A. Niýazow köçesi,746100,39.0713071,63.5799540
210,S.A. Niýazow köçesi,746100,39.0719068,63.5859286
10,Görogly koçesi,746100,39.0721746,63.5790974
14,Görogly koçesi,746100,39.0722648,63.5806714
160,S.A. Niýazow köçesi,746100,39.0709764,63.5801387
10,S.A. Niýazow köçesi,746100,39.0651912,63.5806207
27,Bitarap Türkmenistan şaýoly,746100,39.0660509,63.5859548
4,S.A. Niýazow köçesi,746100,39.0675803,63.5807285
15,S.A. Niýazow köçesi,746100,39.0646806,63.5808916
11,S.A. Niýazow köçesi,746100,39.0649365,63.5798710
2,S.A. Niýazow köçesi,746100,39.0670198,63.5795064
5 (224),S.A.Niyazow kocesi,746100,39.0683561,63.5861026
37,S.A. Niýazow köçesi,746100,39.0661450,63.5810853
1,S.A. Niýazow köçesi,746100,39.0675313,63.5792801
7,S.A. Niýazow köçesi,746100,39.0666029,63.5812452
8,S.A. Niýazow köçesi,746100,39.0665243,63.5797302
5,S.A. Niýazow köçesi,746100,39.0670236,63.5806445
3,S.A. Niýazow köçesi,746100,39.0677292,63.5799239
9,S.A. Niýazow köçesi,746100,39.0660614,63.5798075
6,S.A. Niýazow köçesi,746100,39.0670716,63.5816101
19,бахар микрорайон,746100,39.0542824,63.5840715
1,kiçi etrapça BAHAR,746100,39.0546728,63.5866482
4,Bitarap Turkmenistan,746100,39.0401463,63.5881341
10,Bitarap Turkmenistan,746100,39.0396897,63.5874950
9,Bitarap Turkmenistan,746100,39.0399781,63.5872265
99342226222,S.A.Niyazow kocesi,746100,39.0720757,63.5786276
33,Garaşsyz diyar köçesi,746100,39.0945971,63.5787989
14,Ärsary Baba köçesi,746100,39.0930264,63.5831417
7,Şabende köçesi,746100,39.0878079,63.5820780
2 (230),S.A.Niyazow kocesi,746100,39.0683481,63.5841810
68,Гагарин,746100,39.0966679,63.5886715
9,Гагарин,746100,39.0980168,63.5875556
69,Гагарин,746100,39.0967238,63.5888647
70,Гагарин,746100,39.0967467,63.5893351
80,микрорайон гагарина,746100,39.0962675,63.5906462
2,Гагарин,746100,39.0972977,63.5899935
1,Гагарин,746100,39.0971185,63.5916650
5,Gagarin Etrapçasy,746100,39.0974648,63.5918592
14,Soltan-Sanjar,746100,39.1057303,63.5548843
16,Soltan-Sanjar,746100,39.1056739,63.5538902
48,Soltan-Sanjar,746100,39.1059500,63.5526806
14a,Soltan-Sanjar,746100,39.1059363,63.5542539
20,Soltan-Sanjar,746100,39.1069832,63.5529492
22,Soltan-Sanjar,746100,39.1064120,63.5536425
9 А,S.A. Niýazow köçesi,746100,39.0656496,63.5798541
7А,Zynhary köçesi,746100,39.0235877,63.5896555
6А,Zynhary köçesi,746100,39.0232108,63.5903045
1,Berdi Kerbabaýew köçesi,746100,39.1062477,63.5612861
9Б,S.A. Niýazow köçesi,746100,39.0655985,63.5808743
