House number,Street name,Postal code,Latitude,Longitude
85,улица Амангельды,110000,53.2181276,63.6380149
95,улица Амангельды,110000,53.2192766,63.6357952
65,проспект Аль-Фараби,110000,53.2114346,63.6367831
213,улица Баймагамбетова,110000,53.2202268,63.6349586
38,проспект Аль-Фараби,110000,53.2105390,63.6407260
32,проспект Аль-Фараби,110000,53.2097767,63.6417233
32,проспект Аль-Фараби,110000,53.2099725,63.6420333
41,улица Майлина,110003,53.2243773,63.6136594
83,улица Тарана,110000,53.2146851,63.6354267
117,улица Алтынсарина,110000,53.2139596,63.6354877
51,улица Толстого,110000,53.2101680,63.6352314
100,улица Пушкина,110000,53.2178902,63.6351759
48,проспект Аль-Фараби,110000,53.2122149,63.6387493
65,проспект Аль-Фараби,110000,53.2112777,63.6368719
14,улица Темирбаева,110000,53.2256816,63.6095199
42,проспект Аль-Фараби,110000,53.2107861,63.6395836
72,улица Амангельды,110000,53.2175233,63.6404988
8 Б,Текстильщиков,110000,53.2431760,63.6849799
19,Складская улица,110000,53.2388774,63.6317859
21,Складская улица,110000,53.2388272,63.6312099
11а,улица Ворошилова,110005,53.1736974,63.6127625
10,улица Чкалова,110005,53.1797159,63.6099267
3,Базовая улица,110000,53.1645239,63.6002202
37,улица Тарана,110000,53.2120520,63.6407150
62,улица Гоголя,110000,53.2084142,63.6349592
71 / 1,улица Карбышева,110000,53.1958765,63.5887140
30,Баймагамбетова улица,110000,53.1989740,63.6091246
30,Баймагамбетова улица,110000,53.1986157,63.6090708
82,Абая проспект,110000,53.1993085,63.6230787
12,улица Лермонтова,110000,53.2264508,63.6594325
153,Абая проспект,110000,53.2094240,63.6351056
155,Толстого улица,110000,53.2102544,63.6362622
153,Абая проспект,110000,53.2097298,63.6354305
45,проспект Аль-Фараби,110000,53.2108414,63.6383597
40А,проспект Аль-Фараби,110000,53.2112157,63.6413334
62,улица Гоголя,110000,53.2085823,63.6348832
46,улица Павлова,110000,53.2070052,63.6332352
18,Абая проспект,110005,53.1791375,63.6041271
29,Хакимжанова улица,110000,53.2015118,63.6105105
98,улица Пушкина,110000,53.2179920,63.6354173
95,улица Амангельды,110000,53.2191966,63.6358368
87,улица Амангельды,110000,53.2183338,63.6368539
85,улица Амангельды,110000,53.2181923,63.6378043
91,Дулатова улица,110000,53.2174557,63.6372971
100,улица Пушкина,110000,53.2182381,63.6345224
132,улица Алтынсарина,110000,53.2166009,63.6403050
100/1,улица Пушкина,110000,53.2183608,63.6351553
136,улица Алтынсарина,110000,53.2171862,63.6411485
134,улица Алтынсарина,110000,53.2167069,63.6406278
119,улица Алтынсарина,110000,53.2150721,63.6370472
70,Дулатова улица,110000,53.2163094,63.6366529
62,Дулатова улица,110000,53.2156798,63.6357931
68,Дулатова улица,110000,53.2159867,63.6361996
74,улица Гоголя,110000,53.2118672,63.6294874
109,улица Алтынсарина,110000,53.2110923,63.6306461
111,Толстого улица,110000,53.2116808,63.6316539
69,проспект Аль-Фараби,110000,53.2124793,63.6345483
162,Абая проспект,110000,53.2091030,63.6357929
60,улица Гоголя,110000,53.2073831,63.6372559
50,Толстого улица,110000,53.2106397,63.6354023
62,улица Гоголя,110000,53.2080969,63.6358538
42,улица Павлова,110000,53.2068015,63.6348096
160,Абая проспект,110000,53.2075353,63.6334414
51,Толстого улица,110000,53.2100046,63.6354121
155,Абая проспект,110000,53.2104085,63.6364222
64,улица Гоголя,110000,53.2090266,63.6339080
164,Абая проспект,110000,53.2102376,63.6376604
61,улица Гоголя,110000,53.2076411,63.6351840
44,улица Павлова,110000,53.2071924,63.6340771
74,улица Алтынсарина,110000,53.2142966,63.6400036
127,Карбышева улица,110005,53.1727065,63.5903482
32,Абая проспект,110000,53.1883795,63.6127096
79,Садовая улица,P01E6B6,53.1887793,63.6030051
65,проспект Аль-Фараби,110000,53.2112679,63.6367051
42а,улица Павлова,110000,53.2067035,63.6339858
50,улица Павлова,110000,53.2087052,63.6304800
57,Толстого улица,110000,53.2106551,63.6336207
112,улица Алтынсарина,110000,53.2104484,63.6319921
65,проспект Аль-Фараби,110000,53.2111809,63.6357764
2А,Байтурсынова улица,110000,53.2087464,63.6221715
98,улица Гоголя,110000,53.2143275,63.6237378
90/2,1 Мая улица,110000,53.2157347,63.6235935
67,Толстого улица,110000,53.2146847,63.6257004
88,1 Мая улица,110000,53.2165375,63.6247028
90/1,1 Мая улица,110000,53.2161013,63.6241651
51,Байтурсынова улица,110000,53.2148526,63.6303581
111A,улица Алтынсарина,110000,53.2120168,63.6313255
38,проспект Аль-Фараби,110000,53.2104974,63.6407969
40А,проспект Аль-Фараби,110000,53.2110640,63.6410802
36А,проспект Аль-Фараби,110000,53.2107348,63.6417139
42,проспект Аль-Фараби,110000,53.2108169,63.6396333
88,проспект Аль-Фараби,110000,53.2167329,63.6284883
77,улица Летунова,110000,53.2202245,63.6229453
116,проспект Аль-Фараби,110000,53.2199887,63.6223955
3,Железнодорожная,110000,53.2228014,63.6177622
14,улица Темирбаева,P01F6M9,53.2254760,63.6090741
137,улица Дощанова,111007,53.2186756,63.6061196
133,улица Пушкина,110000,53.2208813,63.6279287
89,Дулатова улица,110000,53.2163917,63.6356344
38,улица Тауелсыздык,110000,53.2122868,63.6414805
40,улица Тауелсыздык,110000,53.2124467,63.6412524
42,улица Тауелсыздык,110000,53.2125611,63.6411992
36,улица Тауелсыздык,110000,53.2121805,63.6422641
78,Касымканова улица,110000,53.2155330,63.6417696
130,улица Алтынсарина,110000,53.2161499,63.6403464
115,Касымканова улица,110000,53.2167714,63.6426599
123,Касымканова улица,110000,53.2173289,63.6433340
99,Касымканова улица,110000,53.2158500,63.6412316
111,Касымканова улица,110000,53.2165206,63.6421967
76,улица Амангельды,110000,53.2195698,63.6363336
115,улица Победы,110000,53.2214875,63.6359144
21,улица Урицкого,110003,53.2293310,63.6235276
146,Шаяхметова улица,110000,53.2273062,63.6310349
120/2,Касымканова улица,110000,53.2183092,63.6457705
116,Касымканова улица,110000,53.2176023,63.6449205
12/1,Карбышева улица,110007,53.1941885,63.5845409
156,проспект Нурсултана Назарбаева,110000,53.2277076,63.6370510
179,Касымканова улица,110000,53.2227135,63.6500555
171,Касымканова улица,110000,53.2212323,63.6484452
175,Касымканова улица,110000,53.2219386,63.6496985
177,Касымканова улица,110000,53.2223693,63.6502179
236,улица Алтынсарина,110000,53.2291672,63.6596006
50,Орджоникидзе улица,110008,53.2311640,63.6605339
23,Урожайная улица,110008,53.2323364,63.6626652
2,улица Кубеева,110010,53.2319756,63.6758821
12а,улица Текстильщиков,110000,53.2443654,63.6827928
8б,улица Текстильщиков,110000,53.2431736,63.6850473
18,улица Текстильщиков,110000,53.2450698,63.6811904
16,улица Текстильщиков,110000,53.2446505,63.6821308
10,улица Текстильщиков,110000,53.2441875,63.6840176
11в,проспект Кобланды батыра,110000,53.2377685,63.6656768
2,Фабричная улица,110000,53.2361270,63.6237692
14а,Чкалова улица,110005,53.1810021,63.6055226
38,проспект Аль-Фараби,110000,53.2103341,63.6409052
2А,Абая проспект,110000,53.1740782,63.6001550
26в,Абая проспект,110000,53.1844500,63.6086792
51/4,улица 8 Марта,110000,53.1995588,63.6339916
51/10,улица 8 Марта,110000,53.1999474,63.6344433
18,Автомобильная улица,110000,53.2338386,63.6689401
6в,Наурыз микрорайон,110000,53.1879473,63.6177068
18,Узкоколейная улица,110000,53.2582555,63.6465601
18,Цветочная 1 проезд,110010,53.2568034,63.7005401
2,улица Дулатова,110000,53.2075488,63.6243018
4,улица Дулатова,110000,53.2076465,63.6244094
6,улица Дулатова,110000,53.2077594,63.6246363
10,улица Дулатова,110000,53.2079978,63.6248887
8,улица Дулатова,110000,53.2078595,63.6247668
14,улица Дулатова,110000,53.2080367,63.6252021
16,Байтурсынова улица,110000,53.2087539,63.6233089
12,Байтурсынова улица,110000,53.2085697,63.6230393
1,улица Дулатова,110000,53.2076386,63.6231068
1А,улица Дулатова,110000,53.2076428,63.6233858
2,Байтурсынова улица,110000,53.2081586,63.6222093
6,Байтурсынова улица,110000,53.2084557,63.6223940
10,Байтурсынова улица,110000,53.2086170,63.6227934
9,улица Дулатова,110000,53.2080677,63.6240375
7,улица Дулатова,110000,53.2079473,63.6239082
5,улица Дулатова,110000,53.2078257,63.6236216
1А,улица Дулатова,110000,53.2077743,63.6241105
13,улица Дулатова,110000,53.2083114,63.6240365
17,улица Дулатова,110000,53.2085458,63.6245213
14,Байтурсынова улица,110000,53.2087569,63.6229712
18,Байтурсынова улица,110000,53.2089225,63.6231491
20,Байтурсынова улица,110000,53.2090417,63.6233148
35,Ключевая улица,11000,53.2254087,63.6674774
183,Касымканова улица,110000,53.2231252,63.6507023
192,Касымканова улица,110000,53.2234343,63.6519844
187,Касымканова улица,110000,53.2233452,63.6510053
196,Касымканова улица,110000,53.2235780,63.6522607
170,Касымканова улица,110000,53.2220299,63.6505132
202,Касымканова улица,110000,53.2239449,63.6525422
182,Касымканова улица,110000,53.2230730,63.6515203
180,Касымканова улица,110000,53.2229782,63.6514425
184,Касымканова улица,110000,53.2231307,63.6515821
164,Касымканова улица,110000,53.2217529,63.6500613
188,Касымканова улица,110000,53.2232809,63.6518140
168,Касымканова улица,110000,53.2218886,63.6504582
176,Касымканова улица,110000,53.2225294,63.6509035
181,Касымканова улица,110000,53.2229886,63.6506405
194,Касымканова улица,110000,53.2235218,63.6520822
204,Касымканова улица,110000,53.2240678,63.6526764
198,Касымканова улица,110000,53.2237040,63.6522942
172,Касымканова улица,110000,53.2221062,63.6506822
200,Касымканова улица,110000,53.2238509,63.6524162
162,Касымканова улица,110000,53.2216526,63.6498950
186,Касымканова улица,110000,53.2231926,63.6517484
166,Касымканова улица,110000,53.2218630,63.6501711
174,Касымканова улица,110000,53.2223030,63.6506312
190,Касымканова улица,110000,53.2233708,63.6518677
132,улица Пушкина,110000,53.2202924,63.6303930
122,улица Пушкина,110000,53.2199134,63.6310327
128,улица Пушкина,110000,53.2201897,63.6306384
124,улица Пушкина,110000,53.2200548,63.6309576
134,улица Пушкина,110000,53.2203712,63.6301449
142,Касымканова улица,110000,53.2200230,63.6482942
131,Касымканова улица,110000,53.2186305,63.6450420
134,Касымканова улица,110000,53.2194892,63.6472268
139,Касымканова улица,110000,53.2191750,63.6457341
130,Касымканова улица,110000,53.2191086,63.6472966
146,Касымканова улица,110000,53.2203112,63.6483331
143,Касымканова улица,110000,53.2193018,63.6460397
133,Касымканова улица,110000,53.2187036,63.6454001
148,Касымканова улица,110000,53.2204565,63.6484391
150,Касымканова улица,110000,53.2205842,63.6486147
165,Касымканова улица,110000,53.2208444,63.6474426
120,Касымканова улица,110000,53.2186541,63.6462880
152,Касымканова улица,110000,53.2207078,63.6487891
149,Касымканова улица,110000,53.2196375,63.6465011
157,Касымканова улица,110000,53.2204701,63.6468753
167,Касымканова улица,110000,53.2208010,63.6478611
124,Касымканова улица,110000,53.2188267,63.6465027
152а,Касымканова улица,110000,53.2207744,63.6488749
169,Касымканова улица,110000,53.2209046,63.6480059
126,Касымканова улица,110000,53.2189994,63.6466246
136,Касымканова улица,110000,53.2197836,63.6476196
154,Касымканова улица,110000,53.2209527,63.6490572
159а,Касымканова улица,110000,53.2205616,63.6472736
140,Касымканова улица,110000,53.2200261,63.6479388
128,Касымканова улица,110000,53.2191616,63.6468285
145,Касымканова улица,110000,53.2193853,63.6462047
144,Касымканова улица,110000,53.2202405,63.6482258
121,Касымканова улица,110000,53.2171954,63.6432786
110,Касымканова улица,110000,53.2171967,63.6442963
108,Касымканова улица,110000,53.2170345,63.6440670
127,Касымканова улица,110000,53.2175015,63.6436545
119,Касымканова улица,110000,53.2171718,63.6429955
17,Цветочная 1 проезд,110010,53.2569501,63.6999772
20,улица Павлова,110000,53.2058633,63.6355393
20,улица Дулатова,110000,53.2087847,63.6261090
99,улица Алтынсарина,110000,53.2073688,63.6260310
28,улица Дулатова,110000,53.2092122,63.6267087
18,улица Павлова,110000,53.2057613,63.6357083
24,улица Павлова,110000,53.2060810,63.6351516
22,улица Дулатова,110000,53.2088265,63.6263372
22,улица Павлова,110000,53.2059564,63.6353340
28,улица Павлова,110000,53.2063195,63.6346367
24,улица Дулатова,110000,53.2090002,63.6264137
26,улица Дулатова,110000,53.2091271,63.6265425
18,улица Дулатова,110000,53.2086666,63.6258782
26,улица Павлова,110000,53.2062006,63.6349196
126,улица Пушкина,110000,53.2201548,63.6308268
130,улица Пушкина,110000,53.2202078,63.6304514
91,Касымканова улица,110000,53.2145781,63.6391699
125,Касымканова улица,110000,53.2174864,63.6433623
153,Касымканова улица,110000,53.2200419,63.6470202
163,Касымканова улица,110000,53.2205500,63.6476110
155,Касымканова улица,110000,53.2202757,63.6471396
161,Касымканова улица,110000,53.2204805,63.6474534
185,Касымканова улица,110000,53.2232200,63.6509576
138,Касымканова улица,110000,53.2199400,63.6478034
141,Касымканова улица,110000,53.2191764,63.6459847
147,Касымканова улица,110000,53.2194871,63.6463509
137,Касымканова улица,110000,53.2190198,63.6457877
135,Касымканова улица,110000,53.2191370,63.6452230
132,Касымканова улица,110000,53.2193916,63.6471234
1,Байтурсынова улица,110000,53.2092342,63.6219563
4,Байтурсынова улица,110000,53.2083806,63.6221680
8,Байтурсынова улица,110000,53.2084461,63.6227897
1б,улица Дулатова,110000,53.2075763,63.6236702
15,улица Дулатова,110000,53.2083322,63.6243421
3,улица Дулатова,110000,53.2077531,63.6235200
101,улица Алтынсарина,110000,53.2075153,63.6261995
156,проспект Нурсултана Назарбаева,110000,53.2280212,63.6365591
3а,улица Дулатова,110000,53.2081256,63.6246259
28,Абая проспект,110000,53.1870064,63.6120744
