House number,Street name,Postal code,Latitude,Longitude
9,вуліца Жукава,224002,52.0613657,23.7318824
58/1,Вулькаўская вуліца,224033,52.0691411,23.7312341
42,Піянерская вуліца,224020,52.1014746,23.7237453
6,бульвар Шаўчэнкі,224013,52.0858123,23.7045101
80,праспект Машэрава,224013,52.0886900,23.7055961
24,бульвар Касманаўтаў,224016,52.0990368,23.6949976
1,Пушкінская вуліца,224005,52.0938539,23.6857885
58,Адамкоўская вуліца,224014,52.1049292,23.6532427
340,Маскоўская вуліца,224023,52.1011547,23.7687078
21,вуліца Гаўрылава,224028,52.1089327,23.7741702
24,Арлоўская вуліца,224021,52.1068973,23.7695566
21,вуліца Стафеева,224007,52.1010900,23.7861714
112,вуліца Суворава,224022,52.0723858,23.7609845
6,бульвар Шаўчэнкі,224013,52.0856977,23.7044243
5,вуліца Халтурына,224013,52.0919259,23.7047294
6,бульвар Шаўчэнкі,224013,52.0858336,23.7043447
22,вуліца Арджанікідзэ,224016,52.1022602,23.6910625
78,Вулькаўская вуліца,224033,52.0698285,23.7294608
42,праспект Машэрава,224030,52.0864180,23.6929792
78,Вулькаўская вуліца,224033,52.0698111,23.7295257
23,Гвардзейская вуліца,224002,52.0546325,23.7445815
1,вуліца Янкі Купалы,224020,52.0989572,23.7289730
74,вуліца Герояў Абароны Брэсцкай Крэпасці,224018,52.0916048,23.6548766
3,вуліца Карла Маркса,224012,52.0970214,23.6832715
253,Маскоўская вуліца,224023,52.0968376,23.7520630
66,Савецкая вуліца,224030,52.0901473,23.6945779
204Б,Маскоўская вуліца,224020,52.0991730,23.7425504
11,Варшаўская шаша,224003,52.0756173,23.7174283
188/1,вуліца Пісьменніка Смірнова,224014,52.1237262,23.6288457
106А,вуліца Янкі Купалы,224032,52.1111336,23.7545376
16/1,Пушкінская вуліца,224005,52.0955274,23.6888940
23,6-я Верасовая вуліца,224024,52.1347008,23.7134979
31В,вуліца Халтурына,224013,52.0908775,23.7056351
104/3,вуліца Янкі Купалы,224032,52.1113220,23.7514426
7,вуліца Чкалава,224005,52.0941087,23.6812652
108,вуліца Суворава,224022,52.0726577,23.7602958
96/1,вуліца Суворава,224022,52.0715021,23.7512443
27,Баўманская вуліца,224014,52.1130588,23.6449535
3,2-я Заводская вуліца,224020,52.1003229,23.7368741
2,вуліца Міцкевіча,224005,52.0959880,23.6830582
24,бульвар Касманаўтаў,224016,52.0990473,23.6952775
146,вуліца Машэнскага,224028,52.1192175,23.7590292
75/1,вуліца Машэрава,224030,52.0888786,23.7139378
146,вуліца Машэнскага,224028,52.1192744,23.7591801
129,Чырвонагвардзейская вуліца,224000,52.1232075,23.6987557
273/2,Маскоўская вуліца,224023,52.0984644,23.7674585
22,праспект Машэрава,224030,52.0864578,23.6874421
112,Чырвонагвардзейская вуліца,224024,52.1242157,23.6973336
60,вуліца Гогаля,224005,52.0929670,23.6923939
25,вуліца Карбышава,224000,52.0978092,23.6927978
18/1,Беларуская вуліца,224025,52.1160857,23.6664356
5,вуліца Марозава,224033,52.0758206,23.7225737
92А,вуліца Машэнскага,224009,52.1150551,23.7368870
60,вуліца Гогаля,224000,52.0929237,23.6922971
24,вуліца Будзённага,224030,52.0905527,23.6906714
11,Лебядзіная вуліца,224026,52.1032019,23.8068521
28,вуліца Карла Маркса,224005,52.0939361,23.6870453
59,праспект Машэрава,224013,52.0884529,23.7089120
30,вуліца Савецкай Канстытуцыі,224032,52.1094281,23.7563151
131Г,Чырвонагвардзейская вуліца,224024,52.1219932,23.6990828
340,Маскоўская вуліца,224023,52.1010416,23.7687080
20А,Ясеневая вуліца,224022,52.0669106,23.7645806
24,вуліца Будзённага,224030,52.0905177,23.6908114
124,вуліца Багданчука,224017,52.0920506,23.7631689
301,Маскоўская вуліца,224007,52.1024164,23.7813318
56,Луцкая вуліца,224033,52.0770753,23.7539842
340,Маскоўская вуліца,224023,52.1010269,23.7685750
28,Высокаўская вуліца,224025,52.1084291,23.6629239
33,вуліца Карла Маркса,224030,52.0920963,23.6878431
275,Маскоўская вуліца,224023,52.0997299,23.7694808
275,Маскоўская вуліца,224023,52.0998045,23.7691490
275,Маскоўская вуліца,224023,52.0993429,23.7689582
340,Маскоўская вуліца,224023,52.1006424,23.7664139
5,вуліца 17 Верасня,224030,52.0898909,23.6923944
8,праспект Машэрава,224030,52.0864658,23.6807607
8,праспект Машэрава,224030,52.0863241,23.6800700
8,праспект Машэрава,224030,52.0865515,23.6805649
8,праспект Машэрава,224030,52.0864230,23.6801117
13 пом8А,вуліца Куйбышава,224016,52.0971832,23.6897964
94,Пушкінская вуліца,224016,52.1011829,23.7037202
20,вуліца Леніна,224006,52.0948569,23.6846453
5,Гвардзейская вуліца,224002,52.0554455,23.7380103
11,вуліца Дзмітрыя Данскога,224012,52.0892899,23.7221054
10/1,вуліца Баброва,224001,52.1096361,23.6806684
112,вуліца Скрыпнікава,224026,52.1093370,23.7267047
112,вуліца Скрыпнікава,224026,52.1093226,23.7264333
57,вуліца Суворава,224022,52.0702919,23.7511299
129В,Чырвонагвардзейская вуліца,224024,52.1235796,23.6984921
57,праспект Машэрава,224013,52.0882223,23.7074810
15,вуліца Кірава,224016,52.1012531,23.6944774
4,вуліца Вароўскага,224030,52.0880481,23.6852027
11,Валгаградская вуліца,224022,52.0754724,23.7563654
356А,Маскоўская вуліца,224007,52.1031049,23.7788607
31,Ленінградская вуліца,224028,52.1116426,23.7760783
29А,вуліца Лейтэнанта Рабцава,224004,52.1196469,23.6712287
267,Маскоўская вуліца,224017,52.0972639,23.7591166
13,вуліца Стафеева,224007,52.1020215,23.7872694
13,вуліца Стафеева,224007,52.1019505,23.7874271
24,вуліца Будзённага,224030,52.0904791,23.6909613
50а,вуліца Янкі Купалы,224020,52.1045087,23.7372102
245,Маскоўская вуліца,224023,52.0961913,23.7486531
5-5,вуліца Марозава,224033,52.0758689,23.7229391
70-43,праспект Машэрава,224030,52.0877811,23.7010724
36В,Дубровская,224025,52.1252087,23.6420407
33,вуліца Карла Маркса,224030,52.0921286,23.6879815
98,вуліца Карбышава,224030,52.0898671,23.6997135
100,вуліца Карбышава,224030,52.0890795,23.6998595
97,бульвар Касманаўтаў,224030,52.0901345,23.7007868
99,бульвар Касманаўтаў,224030,52.0891643,23.7014565
90,вуліца Куйбышава,224030,52.0881270,23.6980525
85,вуліца Карбышава,224030,52.0898766,23.6989049
64,праспект Машэрава,224030,52.0873766,23.6985874
103,вуліца Карбышава,224030,52.0885059,23.6991943
105,вуліца Карбышава,224030,52.0881152,23.6997636
112,вуліца Карбышава,224030,52.0879180,23.7004084
66,праспект Машэрава,224030,52.0875729,23.6996390
70,праспект Машэрава,224030,52.0878549,23.7011428
110,вуліца Карбышава,224030,52.0885354,23.7005590
63,вуліца Дзяржынскага,224030,52.0891998,23.7005956
10,Пушкінская вуліца,224005,52.0948660,23.6874306
34,вуліца Леніна,224005,52.0932122,23.6860714
22,праспект Машэрава,224030,52.0865924,23.6872618
15,вуліца Куйбышава,224016,52.0963485,23.6912863
3,вуліца Карла Маркса,224005,52.0971382,23.6831080
342/8,Маскоўская вуліца,224023,52.1047212,23.7674378
23,Пушкінская вуліца,224005,52.0956916,23.6907178
9,бульвар Шаўчэнкі,224013,52.0845885,23.7037483
76,вуліца Гогаля,224016,52.0939372,23.6975840
49/51,бульвар Касманаўтаў,224016,52.0958908,23.6971194
63,бульвар Касманаўтаў,224016,52.0951251,23.6980320
80,вуліца Гогаля,224016,52.0942221,23.6988863
37,вуліца Халтурына,224013,52.0896338,23.7055517
80,вуліца Карбышава,224030,52.0916103,23.6988282
82,вуліца Кірава,224013,52.0907965,23.7042723
176А,Маскоўская вуліца,224020,52.0943070,23.7261809
176,Маскоўская вуліца,224020,52.0936481,23.7277289
82/1,Пушкінская вуліца,224016,52.1013590,23.7006831
31,вуліца Горкага,224016,52.0997852,23.6976903
16,вуліца Мянжынскага,224016,52.1017961,23.7003590
82,Пушкінская вуліца,224016,52.1009106,23.7013060
4,вуліца Горкага,224016,52.1021266,23.6964032
20,вуліца Кірава,224016,52.1012386,23.6952594
129,вуліца Кірава,224013,52.0916306,23.7027997
3,Чырвонасцяжная вуліца,224013,52.0875896,23.7146220
40/1,набярэжная Францыска Скарыны,224013,52.0856710,23.7161915
52,вуліца Савецкіх Пагранічнікаў,224030,52.0845456,23.6915641
24,вуліца Будзённага,224030,52.0905166,23.6907579
21,вуліца Гогаля,224030,52.0914955,23.6875982
64,вуліца Карла Маркса,224030,52.0893392,23.6894157
50,праспект Машэрава,224030,52.0868826,23.6956299
30,вуліца 17 Верасня,224030,52.0869175,23.6937485
82,вуліца Гогаля,224016,52.0947980,23.7003478
82,вуліца Сікорскага,224012,52.0932790,23.7173571
32,вуліца Міцкевіча,224016,52.0989965,23.6905606
26,вуліца Асіпенкі,224001,52.1111926,23.6882569
31,вуліца Асіпенкі,224001,52.1106063,23.6896836
81,вуліца Куйбышава,224030,52.0883976,23.6973340
41,вуліца Дзяржынскага,224030,52.0886239,23.6962196
58/1,Вулькаўская вуліца,224033,52.0691241,23.7312138
41,Пушкінская вуліца,224016,52.0968256,23.6937694
58,вуліца Маякоўскага,224016,52.0961532,23.6961585
49,вуліца Карла Маркса,224000,52.0900673,23.6882939
31,вуліца 17 Верасня,224030,52.0882001,23.6928853
37,вуліца 17 Верасня,224030,52.0878582,23.6929568
33,вуліца 17 Верасня,224030,52.0880764,23.6928879
20,вуліца 17 Верасня,224030,52.0879933,23.6937241
12,вуліца Астроўскага,224030,52.0877074,23.6947568
116/1,вуліца Суворава,224022,52.0742012,23.7622264
5,Валгаградская вуліца,224022,52.0745111,23.7575335
113,вуліца Суворава,224022,52.0723373,23.7642088
115,вуліца Суворава,224022,52.0725089,23.7644965
117,вуліца Суворава,224022,52.0727168,23.7646947
121,вуліца Суворава,224022,52.0730786,23.7650861
119,вуліца Суворава,224022,52.0728659,23.7649578
115,бульвар Касманаўтаў,224030,52.0882568,23.7020229
72,праспект Машэрава,224030,52.0879996,23.7019534
63А,вуліца Дзяржынскага,224030,52.0889538,23.7008716
64/1,праспект Машэрава,224030,52.0880159,23.6989104
46,праспект Машэрава,224030,52.0866396,23.6944983
7,Прывакзальная плошча,224001,52.1017583,23.6836356
14,Прывакзальная плошча,224001,52.1020393,23.6843550
17,вуліца Чкалава,224005,52.0927134,23.6787750
54,вуліца Герояў Абароны Брэсцкай Крэпасці,224018,52.0906472,23.6619229
18,вуліца Наганава,224005,52.0911230,23.6788241
18/2,вуліца Леванеўскага,224005,52.0931994,23.6787589
151А,Маскоўская вуліца,224023,52.0913814,23.7387050
34/1,Піянерская вуліца,224020,52.1034882,23.7216595
46/1,Піянерская вуліца,224220,52.1014002,23.7262057
10/4,вуліца Янкі Купалы,224220,52.1030784,23.7285835
28,вуліца Янкі Купалы,224220,52.1052882,23.7352999
8А,вуліца Янкі Купалы,224220,52.1010268,23.7297481
10/2,вуліца Янкі Купалы,224220,52.1025795,23.7286330
12,вуліца Янкі Купалы,224220,52.1020731,23.7314302
6/1,вуліца Янкі Купалы,224020,52.1015538,23.7277323
26,вуліца Янкі Купалы,224220,52.1047784,23.7357964
50А,вуліца Янкі Купалы,224020,52.1045436,23.7370838
22/2,вуліца Янкі Купалы,224220,52.1044932,23.7347823
6,вуліца Янкі Купалы,224220,52.1008480,23.7288159
22,вуліца Янкі Купалы,224220,52.1036940,23.7352755
20,вуліца Янкі Купалы,224020,52.1046660,23.7329485
46,Піянерская вуліца,224220,52.1007910,23.7258119
10/1,вуліца Янкі Купалы,224220,52.1023706,23.7296275
6/1,вуліца Янкі Купалы,224020,52.1015448,23.7278055
24,вуліца Янкі Купалы,224220,52.1043604,23.7359678
50/1,вуліца Янкі Купалы,224020,52.1055308,23.7363316
8,2-і Заводскі завулак,224220,52.1048423,23.7344062
22/3,вуліца Янкі Купалы,224220,52.1042267,23.7351243
14/1,вуліца Янкі Купалы,224220,52.1031821,23.7308486
22/1,вуліца Янкі Купалы,224220,52.1040237,23.7345993
4/1,вуліца Янкі Купалы,224220,52.1011517,23.7271189
10/3,вуліца Янкі Купалы,224220,52.1027944,23.7281210
10,вуліца Янкі Купалы,224220,52.1014782,23.7306614
4,вуліца Янкі Купалы,224220,52.1002721,23.7281008
16/2,вуліца Янкі Купалы,224020,52.1040233,23.7308921
34,вуліца Янкі Купалы,224020,52.1060698,23.7358897
30,вуліца Янкі Купалы,224220,52.1057339,23.7350202
78,вуліца Янкі Купалы,224020,52.1070493,23.7421546
52,вуліца Янкі Купалы,224020,52.1056934,23.7385387
36,вуліца Янкі Купалы,224020,52.1065749,23.7368437
7/1,3-і Заводскі завулак,224020,52.1065575,23.7391701
7,3-і Заводскі завулак,224020,52.1070497,23.7385485
5,3-і Заводскі завулак,224020,52.1063985,23.7399120
34/1,вуліца Янкі Купалы,224020,52.1062852,23.7353927
60,вуліца Янкі Купалы,224020,52.1072145,23.7394889
60/3,вуліца Янкі Купалы,224020,52.1086893,23.7377453
76,вуліца Янкі Купалы,224020,52.1069155,23.7413739
74,вуліца Янкі Купалы,224020,52.1064877,23.7409668
60/1,вуліца Янкі Купалы,224020,52.1081976,23.7389717
44,Луцкая вуліца,224011,52.0788223,23.7484090
43,вуліца 28 Ліпеня,224011,52.0791614,23.7439301
52,вуліца Кірава,224016,52.0935069,23.7024608
48,бульвар Касманаўтаў,224016,52.0977360,23.6976007
85/1,вуліца Куйбышава,224030,52.0879137,23.6969141
28/3,Вішнёвая вуліца,224012,52.0958362,23.7171246
28,Вішнёвая вуліца,224012,52.0952348,23.7180201
35,вуліца Войкава,224012,52.0988833,23.7149162
28/2,Вішнёвая вуліца,224012,52.0953595,23.7167100
28/1,Вішнёвая вуліца,224012,52.0959004,23.7178030
56,вуліца Сікорскага,224012,52.0962080,23.7150179
6,вуліца Карбышава,224016,52.1002204,23.6909561
14,вуліца Карбышава,224016,52.0996286,23.6915554
44,вуліца Міцкевіча,224016,52.0996792,23.6923889
18,вуліца Янкі Купалы,224220,52.1032572,23.7339008
22/1,Высокая вуліца,224020,52.0980916,23.7232415
18/1,вуліца Янкі Купалы,224220,52.1037952,23.7330622
22/2,Высокая вуліца,224020,52.0982938,23.7242179
16,вуліца Янкі Купалы,224220,52.1026746,23.7331641
85,Піянерская вуліца,224020,52.0952585,23.7305127
1В,вуліца Янкі Купалы,224020,52.0999925,23.7315786
16/1,вуліца Янкі Купалы,224220,52.1035660,23.7321688
386,Маскоўская вуліца,224007,52.1050041,23.7823684
20,Партызанскі праспект,224032,52.1062306,23.7599715
20/1,Партызанскі праспект,224032,52.1060971,23.7588572
12/2,Маладагвардзейская вуліца,224032,52.1054721,23.7563898
29/1,вуліца Герояў Абароны Брэсцкай Крэпасці,224018,52.0920888,23.6589404
54,праспект Машэрава,224030,52.0870417,23.6967576
20,вуліца 17 Верасня,224030,52.0882232,23.6933728
41/1,вуліца Дзяржынскага,224030,52.0887276,23.6966265
22; 24,вуліца 17 Верасня,224030,52.0877474,23.6935004
29,вуліца 17 Верасня,224030,52.0883089,23.6928553
35,вуліца 17 Верасня,224030,52.0879506,23.6929426
46,вуліца Дзяржынскага,224030,52.0890361,23.6959544
10,вуліца Астроўскага,224030,52.0876275,23.6942531
51,Савецкая вуліца,224030,52.0924014,23.6928552
16А,Трышынская вуліца,224020,52.0949145,23.7291244
163/1,Маскоўская вуліца,224023,52.0935936,23.7383160
151,Маскоўская вуліца,224023,52.0926533,23.7384931
10,Чырвонасцяжная вуліца,224013,52.0853048,23.7185232
6,Чырвонасцяжная вуліца,224013,52.0860902,23.7181030
35,Піянерская вуліца,224020,52.1032201,23.7191129
103,вуліца Скрыпнікава,224020,52.1077743,23.7196838
39,Піянерская вуліца,224020,52.1023974,23.7203327
63,вуліца Калініна,224012,52.1001288,23.7175020
94,Пушкінская вуліца,224016,52.1012315,23.7037949
26,вуліца Гаўрылава,224028,52.1106582,23.7700625
4,Партызанскі праспект,224017,52.1005843,23.7625448
14,вуліца Лактыёнава,224007,52.0986345,23.7830129
16,вуліца Лактыёнава,224007,52.0989406,23.7832330
330/2,Маскоўская вуліца,224017,52.1018275,23.7591639
11,вуліца Гаўрылава,224007,52.1049768,23.7768925
28,вуліца Гаўрылава,224028,52.1110475,23.7696152
52,вуліца Мічурына,224014,52.1028197,23.6534512
16,вуліца Генерала Папова,224012,52.0878141,23.7209850
1Г,вуліца Гогаля,224030,52.0885470,23.6762738
48/2,Адамкоўская вуліца,224014,52.1021265,23.6532486
11,вуліца Дзмітрыя Данскога,224001,52.0893890,23.7212457
25,Прыгарадная вуліца,224014,52.0988157,23.6542116
27,Прыгарадная вуліца,224014,52.0988541,23.6521764
49,Гродзенская вуліца,224028,52.1154051,23.7801076
47/4,Гродзенская вуліца,224028,52.1143451,23.7811818
9,1-я Першамайская вуліца,224028,52.1232875,23.7759528
5,3-я Першамайская вуліца,224028,52.1241371,23.7792235
17,Старазадворскі завулак,224028,52.1228172,23.7740919
10,Старазадворская вуліца,224028,52.1243239,23.7733694
13,Першамайская вуліца,224028,52.1230495,23.7786212
4,Першамайская вуліца,224028,52.1220964,23.7765573
38,Першамайская вуліца,224028,52.1234068,23.7810225
1,3-я Першамайская вуліца,224028,52.1237311,23.7795489
10,Старазадворскі завулак,224028,52.1231480,23.7747549
7,Першамайская вуліца,224028,52.1227155,23.7773032
5,1-я Першамайская вуліца,224028,52.1238585,23.7764747
11,Першамайская вуліца,224028,52.1229769,23.7782594
5,Першамайская вуліца,224028,52.1225798,23.7769441
11,Старазадворскі завулак,224028,52.1223254,23.7747342
44,Першамайская вуліца,224028,52.1236252,23.7817824
3,Першамайская вуліца,224028,52.1224781,23.7766057
8,3-я Першамайская вуліца,224028,52.1244710,23.7795613
36,Першамайская вуліца,224028,52.1233072,23.7807910
28,Першамайская вуліца,224028,52.1229801,23.7797259
42,Першамайская вуліца,224028,52.1235573,23.7815369
4,Старазадворскі завулак,224028,52.1226583,23.7754506
1,Старазадворскі завулак,224028,52.1214943,23.7758598
15,Першамайская вуліца,224028,52.1231776,23.7790297
12,Старазадворская вуліца,224028,52.1245770,23.7737275
30,Першамайская вуліца,224028,52.1230377,23.7800418
9,Першамайская вуліца,224028,52.1228461,23.7778143
11,Старазадворская вуліца,224028,52.1242631,23.7739676
8,Першамайская вуліца,224028,52.1222406,23.7770615
6,Старазадворскі завулак,224028,52.1228342,23.7752176
2,Першамайская вуліца,224028,52.1219952,23.7762915
9,3-я Першамайская вуліца,224028,52.1245387,23.7789123
10,Першамайская вуліца,224028,52.1223233,23.7773360
10,1-я Першамайская вуліца,224028,52.1240387,23.7769167
15,4-я Першамайская вуліца,224028,52.1255335,23.7796626
34,Першамайская вуліца,224028,52.1232074,23.7805007
2,4-я Першамайская вуліца,224028,52.1238903,23.7815188
5,Старазадворская вуліца,224028,52.1232105,23.7730974
9,4-я Першамайская вуліца,224028,52.1248829,23.7801499
14,3-я Першамайская вуліца,224028,52.1251271,23.7791384
4,3-я Першамайская вуліца,224028,52.1240554,23.7798584
40,Першамайская вуліца,224028,52.1234874,23.7813095
12,Старазадворскі завулак,224028,52.1233144,23.7745063
7,Старазадворская вуліца,224028,52.1233345,23.7735739
5,4-я Першамайская вуліца,224028,52.1244762,23.7804566
19,Першамайская вуліца,224028,52.1233939,23.7797410
20,Першамайская вуліца,224028,52.1226815,23.7786637
48,Першамайская вуліца,224028,52.1239051,23.7827665
10,3-я Першамайская вуліца,224028,52.1246914,23.7793750
6,Першамайская вуліца,224028,52.1221770,23.7767921
6,Старазадворская вуліца,224028,52.1236932,23.7725974
7,1-я Першамайская вуліца,224028,52.1230604,23.7763933
13,Старазадворская вуліца,224028,52.1245539,23.7742059
13,4-я Першамайская вуліца,224028,52.1253014,23.7798483
8,1-я Першамайская вуліца,224028,52.1237713,23.7770684
17,Першамайская вуліца,224028,52.1232879,23.7793681
7,4-я Першамайская вуліца,224028,52.1246837,23.7802785
1,4-я Першамайская вуліца,224028,52.1240681,23.7807424
32,Першамайская вуліца,224028,52.1231698,23.7802698
11,3-я Першамайская вуліца,224028,52.1247466,23.7787572
7,3-я Першамайская вуліца,224028,52.1243248,23.7790886
11,1-я Першамайская вуліца,224028,52.1235974,23.7755491
8,Старазадворскі завулак,224028,52.1229699,23.7749827
2,1-я Першамайская вуліца,224028,52.1231480,23.7775518
2,Старазадворскі завулак,224028,52.1222936,23.7758546
5,Старазадворскі завулак,224028,52.1218038,23.7754783
3,3-я Першамайская вуліца,224028,52.1239283,23.7793850
22,Першамайская вуліца,224028,52.1227664,23.7788985
3,1-я Першамайская вуліца,224028,52.1234904,23.7767145
4,1-я Першамайская вуліца,224028,52.1233703,23.7774111
25,Першамайская вуліца,224028,52.1237500,23.7809841
12,3-я Першамайская вуліца,224028,52.1248737,23.7792300
6,1-я Першамайская вуліца,224028,52.1235641,23.7772655
9,Старазадворскі завулак,224028,52.1221441,23.7750069
14,Першамайская вуліца,224028,52.1224017,23.7778971
12,Першамайская вуліца,224028,52.1223127,23.7776312
3,Старазадворскі завулак,224028,52.1216300,23.7756872
15,Старазадворскі завулак,224028,52.1226519,23.7743059
7,Старазадворскі завулак,224028,52.1219734,23.7752314
21,Першамайская вуліца,224028,52.1235211,23.7802107
11,4-я Першамайская вуліца,224028,52.1251059,23.7799900
1,1-я Першамайская вуліца,224028,52.1232042,23.7769562
2,3-я Першамайская вуліца,224028,52.1238585,23.7800488
46,Першамайская вуліца,224028,52.1237140,23.7821001
24,Першамайская вуліца,224028,52.1228592,23.7791433
6,вуліца Энтузіястаў,224028,52.1246614,23.7831246
18,Першамайская вуліца,224028,52.1226005,23.7783729
50,Першамайская вуліца,224028,52.1239861,23.7830401
16,Першамайская вуліца,224028,52.1224522,23.7781589
12,вуліца Энтузіястаў,224028,52.1256559,23.7819858
14,вуліца Энтузіястаў,224028,52.1260884,23.7814611
8,вуліца Энтузіястаў,224028,52.1249466,23.7828127
16,вуліца Энтузіястаў,224028,52.1263485,23.7810953
10,вуліца Энтузіястаў,224028,52.1253421,23.7823027
4,вуліца Энтузіястаў,224028,52.1241894,23.7836019
12,вуліца Газдзецкага,224028,52.1148619,23.7861973
25,вуліца Газдзецкага,224000,52.1154650,23.7912141
55,Гродзенская вуліца,224028,52.1176576,23.7801450
1,1-я Сунічная вуліца,224022,52.0716282,23.7665056
2,1-я Сунічная вуліца,224022,52.0721384,23.7660281
6,Сунічная вуліца,224022,52.0720912,23.7654841
4,1-я Сунічная вуліца,224022,52.0721923,23.7657528
5,1-я Сунічная вуліца,224022,52.0716194,23.7659439
3,1-я Сунічная вуліца,224022,52.0715943,23.7662103
22,вуліца Энтузіястаў,224028,52.1271182,23.7801148
18,вуліца Энтузіястаў,224028,52.1267501,23.7806522
20,вуліца Энтузіястаў,224028,52.1269549,23.7804325
1,Старазадворская вуліца,224028,52.1214893,23.7725234
1Б,Старазадворская вуліца,224028,52.1210886,23.7730794
24А,вуліца Кіжаватава,224001,52.1029271,23.6818735
1,Спартыўная вуліца,224001,52.1023877,23.6812511
26,вуліца Кіжаватава,224001,52.1028869,23.6824085
24,вуліца Кіжаватава,224001,52.1026485,23.6819236
17,Рэспубліканская вуліца,224001,52.1033742,23.6811077
24Б,вуліца Кіжаватава,224001,52.1031218,23.6815902
36В,Дубровская,224025,52.1260073,23.6412468
97,Кіеўская вуліца,224020,52.1073441,23.7316770
13,вуліца Лактыёнава,224028,52.0982822,23.7882207
23,Гвардзейская вуліца,224002,52.0546277,23.7446227
8,вуліца Ракасоўскага,224002,52.0580367,23.7329305
5,вуліца Энтузіястаў,224028,52.1248626,23.7836905
1,вуліца Энтузіястаў,224028,52.1242328,23.7843490
1,Хвойная вуліца,224028,52.1242938,23.7849874
7,вуліца Энтузіястаў,224028,52.1251796,23.7832976
3,вуліца Энтузіястаў,224028,52.1244287,23.7841532
7,Хвойная вуліца,224028,52.1251822,23.7862936
55,Сяброўская вуліца,224033,52.0663492,23.7284055
57,Вулькаўская вуліца,224033,52.0693102,23.7331369
32,Рабінавая вуліца,224033,52.0704377,23.7357418
115,Сяброўская вуліца,224033,52.0693052,23.7210407
77,Сяброўская вуліца,224033,52.0673168,23.7247361
61,Сяброўская вуліца,224033,52.0665310,23.7271285
77,Вулькаўская вуліца,224033,52.0709176,23.7295366
98,Вулькаўская вуліца,224033,52.0698678,23.7256024
111,Сяброўская вуліца,224033,52.0683818,23.7210781
97,Сяброўская вуліца,224033,52.0679732,23.7230239
69,Вулькаўская вуліца,224033,52.0705964,23.7310757
81,Сяброўская вуліца,224033,52.0675727,23.7259403
54,Палявая вуліца,224033,52.0716125,23.7356956
6,Рабінавая вуліца,224033,52.0666481,23.7300945
84,Вулькаўская вуліца,224033,52.0698620,23.7281667
67,Вулькаўская вуліца,224033,52.0702831,23.7310744
71,Сяброўская вуліца,224033,52.0669023,23.7260415
116,Вулькаўская вуліца,224033,52.0698843,23.7225867
63,Сяброўская вуліца,224033,52.0673173,23.7282882
64,Вулькаўская вуліца,224033,52.0685243,23.7311487
105,Сяброўская вуліца,224033,52.0685824,23.7231585
122,Вулькаўская вуліца,224033,52.0707462,23.7232685
53,Сяброўская вуліца,224033,52.0661327,23.7284175
89,Сяброўская вуліца,224033,52.0689156,23.7251825
44,Рабінавая вуліца,224033,52.0711792,23.7366192
106/1,Вулькаўская вуліца,224033,52.0708159,23.7245525
83,Сяброўская вуліца,224033,52.0680097,23.7258553
59,Вулькаўская вуліца,224033,52.0693785,23.7328088
57,Сяброўская вуліца,224033,52.0665646,23.7283494
28,Рабінавая вуліца,224033,52.0694721,23.7339238
58,Палявая вуліца,224033,52.0715483,23.7351565
30,Рабінавая вуліца,224033,52.0697098,23.7346926
54,Вулькаўская вуліца,224033,52.0686937,23.7322501
100/1,Вулькаўская вуліца,224033,52.0703873,23.7258163
14,Рабінавая вуліца,224033,52.0673721,23.7312875
60,Палявая вуліца,224033,52.0717526,23.7347847
59,Сяброўская вуліца,224033,52.0665297,23.7278173
66,Вулькаўская вуліца,224033,52.0683856,23.7301898
99,Сяброўская вуліца,224033,52.0679214,23.7223522
93,Сяброўская вуліца,224033,52.0675629,23.7236613
18,Рабінавая вуліца,224033,52.0679322,23.7311858
98/1,Вулькаўская вуліца,224033,52.0694387,23.7255417
88,Вулькаўская вуліца,224033,52.0702207,23.7278012
75,Вулькаўская вуліца,224033,52.0706892,23.7295455
40,Рабінавая вуліца,224033,52.0708472,23.7361668
85,Сяброўская вуліца,224033,52.0685094,23.7256837
101,Сяброўская вуліца,224033,52.0680213,23.7235357
120,Вулькаўская вуліца,224033,52.0709869,23.7239630
56,Вулькаўская вуліца,224033,52.0688179,23.7319577
74,Вулькаўская вуліца,224033,52.0694630,23.7296395
73,Вулькаўская вуліца,224033,52.0704881,23.7298637
114,Вулькаўская вуліца,224033,52.0695426,23.7221378
106,Вулькаўская вуліца,224033,52.0705876,23.7245586
108/1,Вулькаўская вуліца,224033,52.0694261,23.7245754
112,Вулькаўская вуліца,224033,52.0691948,23.7230250
65,Вулькаўская вуліца,224033,52.0700862,23.7314127
95,Сяброўская вуліца,224033,52.0677931,23.7236462
56,Палявая вуліца,224033,52.0714824,23.7354877
103,Сяброўская вуліца,224033,52.0682332,23.7235668
118,Вулькаўская вуліца,224033,52.0702831,23.7231504
73,Сяброўская вуліца,224033,52.0671334,23.7260310
42,Рабінавая вуліца,224033,52.0710154,23.7364149
61,Вулькаўская вуліца,224033,52.0695325,23.7325288
91,Сяброўская вуліца,224033,52.0693417,23.7237396
107,Сяброўская вуліца,224033,52.0687331,23.7222426
20,Рабінавая вуліца,224033,52.0681880,23.7320819
4,Рабінавая вуліца,224033,52.0666492,23.7292263
79,Сяброўская вуліца,224033,52.0673584,23.7259315
109,Сяброўская вуліца,224033,52.0682846,23.7219769
113,Сяброўская вуліца,224033,52.0688335,23.7210968
52,Палявая вуліца,224033,52.0714483,23.7363346
62,Вулькаўская вуліца,224033,52.0688839,23.7304968
75,Сяброўская вуліца,224033,52.0673143,23.7254120
16/1,набярэжная Францыска Скарыны,224013,52.0845367,23.7027828
49,Падгародцкая вуліца,224033,52.0713087,23.7219942
55,Падгародцкая вуліца,224033,52.0710827,23.7208476
3,Армейская вуліца,224033,52.0698821,23.7176292
4,Армейская вуліца,224033,52.0693978,23.7177271
61,Падгародцкая вуліца,224033,52.0710302,23.7199945
51/1,Падгародцкая вуліца,224033,52.0715373,23.7212757
4А;4/1,набярэжная Францыска Скарыны,224013,52.0837956,23.6990699
65,Чырвонасцяжная вуліца,224033,52.0700365,23.7179690
59,Падгародцкая вуліца,224033,52.0710589,23.7201557
63,Інтэрнацыянальная вуліца,224013,52.0846797,23.7016753
65,Падгародцкая вуліца,224033,52.0709587,23.7195037
59,Інтэрнацыянальная вуліца,224013,52.0843916,23.6997629
57,Падгародцкая вуліца,224033,52.0710968,23.7204477
2,набярэжная Францыска Скарыны,224013,52.0832089,23.6984728
6,набярэжная Францыска Скарыны,224013,52.0834951,23.7001182
63,Падгародцкая вуліца,224033,52.0710556,23.7197597
61,Інтэрнацыянальная вуліца,224013,52.0847745,23.7006399
4,набярэжная Францыска Скарыны,224013,52.0833192,23.6992822
58/2,Адамкоўская вуліца,224014,52.1050636,23.6519811
60,Адамкоўская вуліца,224014,52.1060761,23.6512929
58,Адамкоўская вуліца,224014,52.1054264,23.6527636
25/1,вуліца Мічурына,224014,52.1032192,23.6581272
10Б,Рэспубліканская вуліца,224001,52.1028024,23.6776497
2,Чырвонагвардзейская вуліца,224001,52.1039141,23.6793770
11,Чырвонагвардзейская вуліца,224001,52.1059216,23.6814062
13,Чырвонагвардзейская вуліца,224001,52.1064217,23.6817923
9,Чырвонагвардзейская вуліца,224001,52.1054444,23.6811241
42,Валгаградская вуліца,224011,52.0798487,23.7497702
108Д,вуліца Янкі Купалы,224032,52.1134964,23.7546678
97/1,Чырвонагвардзейская вуліца,224024,52.1181519,23.6907147
44/2,вуліца Лейтэнанта Рабцава,224025,52.1176960,23.6683752
97,Чырвонагвардзейская вуліца,224024,52.1182666,23.6899578
18,Беларуская вуліца,224025,52.1162276,23.6662433
35,5-я Верасовая вуліца,224024,52.1343003,23.7105944
52,5-я Верасовая вуліца,224024,52.1344523,23.7074886
48,5-я Верасовая вуліца,224024,52.1343463,23.7081899
49,4-я Верасовая вуліца,224024,52.1339294,23.7074230
50,4-я Верасовая вуліца,224024,52.1336330,23.7071151
58,4-я Верасовая вуліца,224024,52.1334379,23.7057834
42,6-я Верасовая вуліца,224024,52.1349489,23.7098862
57,5-я Верасовая вуліца,224024,52.1349407,23.7067574
32,4-я Верасовая вуліца,224024,52.1330276,23.7106409
50,6-я Верасовая вуліца,224024,52.1351912,23.7084174
41,6-я Верасовая вуліца,224024,52.1352746,23.7099605
37,5-я Верасовая вуліца,224024,52.1343378,23.7103269
56,4-я Верасовая вуліца,224024,52.1336995,23.7058281
37,6-я Верасовая вуліца,224024,52.1351812,23.7106290
33,5-я Верасовая вуліца,224024,52.1341956,23.7110273
53,5-я Верасовая вуліца,224024,52.1348353,23.7075238
47,5-я Верасовая вуліца,224024,52.1346644,23.7085195
51,4-я Верасовая вуліца,224024,52.1340072,23.7070740
38,6-я Верасовая вуліца,224024,52.1347950,23.7105016
42,4-я Верасовая вуліца,224024,52.1333806,23.7084861
60/1,4-я Верасовая вуліца,224024,52.1331009,23.7064853
52,6-я Верасовая вуліца,224024,52.1352529,23.7080970
39,6-я Верасовая вуліца,224024,52.1352400,23.7103104
52,4-я Верасовая вуліца,224024,52.1336773,23.7067967
44,7-я Верасовая вуліца,224024,52.1358843,23.7096413
46,4-я Верасовая вуліца,224024,52.1335151,23.7078041
49,5-я Верасовая вуліца,224024,52.1347009,23.7081523
43,3-я Верасовая вуліца,224024,52.1329609,23.7077102
43,5-я Верасовая вуліца,224024,52.1345121,23.7092727
62,6-я Верасовая вуліца,224024,52.1355440,23.7063316
62,4-я Верасовая вуліца,224024,52.1330078,23.7055789
46,7-я Верасовая вуліца,224024,52.1359442,23.7093202
61,5-я Верасовая вуліца,224024,52.1351024,23.7058804
48,6-я Верасовая вуліца,224024,52.1351294,23.7088430
43,6-я Верасовая вуліца,224024,52.1353594,23.7095677
36,5-я Верасовая вуліца,224024,52.1339727,23.7103195
55,5-я Верасовая вуліца,224024,52.1348924,23.7070912
55,4-я Верасовая вуліца,224024,52.1340982,23.7064221
37,4-я Верасовая вуліца,224024,52.1335521,23.7095706
44,4-я Верасовая вуліца,224024,52.1334502,23.7081476
40,5-я Верасовая вуліца,224024,52.1341131,23.7096067
53,6-я Верасовая вуліца,224024,52.1357050,23.7078167
58/1,4-я Верасовая вуліца,224024,52.1333356,23.7066242
58,6-я Верасовая вуліца,224024,52.1354082,23.7069640
60,4-я Верасовая вуліца,224024,52.1332095,23.7056819
54,6-я Верасовая вуліца,224024,52.1353228,23.7076841
33,6-я Верасовая вуліца,224024,52.1351095,23.7114693
32,2-я Верасовая вуліца,224024,52.1313641,23.7090933
48,4-я Верасовая вуліца,224024,52.1335882,23.7074394
57,6-я Верасовая вуліца,224024,52.1357941,23.7070961
45,5-я Верасовая вуліца,224024,52.1345781,23.7088992
41,4-я Верасовая вуліца,224024,52.1336899,23.7088569
45,4-я Верасовая вуліца,224024,52.1338110,23.7081522
38,5-я Верасовая вуліца,224024,52.1340344,23.7099736
33,4-я Верасовая вуліца,224024,52.1334505,23.7102272
45,6-я Верасовая вуліца,224024,52.1354133,23.7092931
54,5-я Верасовая вуліца,224024,52.1345400,23.7071178
38,4-я Верасовая вуліца,224024,52.1332751,23.7091828
59,4-я Верасовая вуліца,224024,52.1342593,23.7055214
42,5-я Верасовая вуліца,224024,52.1341667,23.7092022
55,6-я Верасовая вуліца,224024,52.1357706,23.7074913
49,6-я Верасовая вуліца,224024,52.1355410,23.7085262
60,6-я Верасовая вуліца,224024,52.1355070,23.7066145
56,6-я Верасовая вуліца,224024,52.1353710,23.7073758
47,3-я Верасовая вуліца,224024,52.1330950,23.7070370
39,5-я Верасовая вуліца,224024,52.1344078,23.7099506
35,4-я Верасовая вуліца,224024,52.1335159,23.7099235
46,5-я Верасовая вуліца,224024,52.1342913,23.7085360
36,4-я Верасовая вуліца,224024,52.1332259,23.7095858
39,4-я Верасовая вуліца,224024,52.1336245,23.7092380
58,5-я Верасовая вуліца,224024,52.1346790,23.7063052
43,4-я Верасовая вуліца,224024,52.1337326,23.7084632
34,5-я Верасовая вуліца,224024,52.1339281,23.7107333
47,6-я Верасовая вуліца,224024,52.1354642,23.7089123
56,5-я Верасовая вуліца,224024,52.1346007,23.7067574
59,6-я Верасовая вуліца,224024,52.1358716,23.7067663
46,6-я Верасовая вуліца,224024,52.1350775,23.7091034
50,5-я Верасовая вуліца,224024,52.1344088,23.7078364
40,4-я Верасовая вуліца,224024,52.1333261,23.7088382
36,6-я Верасовая вуліца,224024,52.1347604,23.7108778
51,6-я Верасовая вуліца,224024,52.1356102,23.7082017
53,4-я Верасовая вуліца,224024,52.1340532,23.7067264
40,6-я Верасовая вуліца,224024,52.1348900,23.7102314
47,4-я Верасовая вуліца,224024,52.1338713,23.7078184
41,5-я Верасовая вуліца,224024,52.1344709,23.7096564
119,вуліца Кацін Бор,224025,52.1470000,23.6761481
22,Рэчыцкая вуліца,224014,52.1071679,23.6501569
6,Рэчыцкая вуліца,224014,52.1070944,23.6522123
3,Рэчыцкая вуліца,224014,52.1074132,23.6523683
5,Рэчыцкая вуліца,224014,52.1074387,23.6520383
20,Рэчыцкая вуліца,224014,52.1071907,23.6504061
11,Рэчыцкая вуліца,224014,52.1074727,23.6513206
8,Рэчыцкая вуліца,224014,52.1071434,23.6519268
4,Рэчыцкая вуліца,224014,52.1069786,23.6524505
30,Рэчыцкая вуліца,224014,52.1071421,23.6490015
26/1,Рэчыцкая вуліца,224014,52.1067641,23.6497265
7,Рэчыцкая вуліца,224014,52.1074164,23.6518138
13,Рэчыцкая вуліца,224014,52.1074908,23.6509621
24,Рэчыцкая вуліца,224014,52.1071967,23.6499054
1,Рэчыцкая вуліца,224014,52.1073417,23.6527630
12,Рэчыцкая вуліца,224014,52.1071332,23.6513361
2,Рэчыцкая вуліца,224014,52.1070676,23.6526999
10,Рэчыцкая вуліца,224014,52.1071161,23.6516710
26,Рэчыцкая вуліца,224014,52.1071663,23.6495084
18,Рэчыцкая вуліца,224014,52.1071570,23.6507048
32,Рэчыцкая вуліца,224014,52.1071116,23.6487742
9,Рэчыцкая вуліца,224014,52.1074430,23.6515635
63,вуліца Дворнікава,224014,52.1107279,23.6539790
11,3-і Заводскі завулак,224020,52.1078098,23.7376894
28/1,вуліца Кіжаватава,224001,52.1030079,23.6825163
75,Чырвонагвардзейская вуліца,224001,52.1148070,23.6875400
30,вуліца Асіпенкі,224001,52.1125064,23.6868462
73,Чырвонагвардзейская вуліца,224001,52.1143845,23.6871831
28,вуліца Асіпенкі,224001,52.1117798,23.6876324
51/1,Чырвонагвардзейская вуліца,224001,52.1103517,23.6845495
28 к1,вуліца Кіжаватава,224001,52.1030781,23.6823277
61,вуліца Асіпенкі,224001,52.1137676,23.6861332
9,вуліца Караленкі,224001,52.1131719,23.6845889
26,вуліца Караленкі,224001,52.1140628,23.6831144
77,Лінейная вуліца,224001,52.1151912,23.6861403
7/2,вуліца Караленкі,224001,52.1132199,23.6853800
7,Чырвоная вуліца,224001,52.1117894,23.6822919
68,вуліца Асіпенкі,224001,52.1151989,23.6839023
27/1,вуліца Баброва,224001,52.1115597,23.6818119
54,Чырвонагвардзейская вуліца,224001,52.1106547,23.6841169
28,вуліца Караленкі,224001,52.1142155,23.6829452
3,вуліца Караленкі,224001,52.1126012,23.6852235
17,вуліца Караленкі,224001,52.1137654,23.6839332
81,Чырвонагвардзейская вуліца,224001,52.1157112,23.6881165
27,вуліца Караленкі,224001,52.1145119,23.6830422
66,вуліца Асіпенкі,224001,52.1150054,23.6841053
82,вуліца Карасёва,224001,52.1137554,23.6822127
66/2,вуліца Карасёва,224001,52.1123770,23.6828192
52,Чырвонагвардзейская вуліца,224001,52.1104833,23.6840788
42,Чырвонагвардзейская вуліца,224001,52.1095026,23.6834457
8/2,Чырвонагвардзейскі завулак,224001,52.1107816,23.6828299
70,Чырвонагвардзейская вуліца,224001,52.1127661,23.6855875
77,вуліца Асіпенкі,224001,52.1152144,23.6844649
7,вуліца Баброва,224001,52.1086843,23.6822284
63,вуліца Асіпенкі,224001,52.1139333,23.6859335
49,Паўночная вуліца,224001,52.1126063,23.6816316
6,Чырвоная вуліца,224001,52.1121400,23.6819559
66/1,вуліца Карасёва,224001,52.1125053,23.6831454
78,Лінейная вуліца,224001,52.1145767,23.6861987
56,вуліца Карасёва,224001,52.1118507,23.6843899
14,Чырвоная вуліца,224001,52.1119076,23.6831619
56,Чырвонагвардзейская вуліца,224001,52.1108139,23.6842359
25,вуліца Баброва,224001,52.1112964,23.6814548
6/1,Чырвонагвардзейскі завулак,224001,52.1105195,23.6824773
17,вуліца Баброва,224001,52.1103603,23.6817286
62,вуліца Асіпенкі,224001,52.1146507,23.6845595
70,вуліца Карасёва,224001,52.1128593,23.6832232
79,Лінейная вуліца,224001,52.1155798,23.6855856
8,вуліца Караленкі,224001,52.1127911,23.6845647
15,вуліца Караленкі,224001,52.1136097,23.6841010
72,вуліца Карасёва,224001,52.1129736,23.6830921
48,Чырвонагвардзейскі завулак,224001,52.1101340,23.6838013
8/1,Чырвонагвардзейскі завулак,224001,52.1104797,23.6828897
5,вуліца Караленкі,224001,52.1127364,23.6850845
21,вуліца Караленкі,224001,52.1141384,23.6836141
74,Лінейная вуліца,224001,52.1142433,23.6865800
18,Чырвоная вуліца,224001,52.1117898,23.6837400
73,вуліца Асіпенкі,224001,52.1147771,23.6849422
8,Чырвонагвардзейскі завулак,224001,52.1102422,23.6827555
56,вуліца Асіпенкі,224001,52.1141832,23.6850552
25,вуліца Караленкі,224001,52.1142854,23.6832816
7,вуліца Караленкі,224001,52.1129225,23.6848539
10,Чырвоная вуліца,224001,52.1120202,23.6825920
21/1,вуліца Баброва,224001,52.1107929,23.6820381
67,Паўночная вуліца,224001,52.1150159,23.6831151
75,Лінейная вуліца,224001,52.1149757,23.6863629
19,вуліца Караленкі,224001,52.1139339,23.6836968
64,вуліца Карасёва,224001,52.1124267,23.6836579
5,Чырвонагвардзейскі завулак,224001,52.1099425,23.6828392
74,Чырвонагвардзейская вуліца,224001,52.1134311,23.6858967
23/2,вуліца Баброва,224001,52.1112107,23.6822793
30,Чырвонагвардзейская вуліца,224001,52.1083434,23.6825733
1,вуліца Караленкі,224001,52.1124192,23.6853819
73/1,Лінейная вуліца,224001,52.1148147,23.6865139
55,Паўночная вуліца,224001,52.1131759,23.6819072
29,Паўночная вуліца,224001,52.1146956,23.6828622
64,вуліца Асіпенкі,224001,52.1148521,23.6842239
52,вуліца Карасёва,224001,52.1115418,23.6847284
12,Чырвоная вуліца,224001,52.1119753,23.6828344
5,вуліца Баброва,224001,52.1084659,23.6822843
4,Чырвонагвардзейскі завулак,224001,52.1103194,23.6820662
60,вуліца Карасёва,224001,52.1121522,23.6840727
51,Паўночная вуліца,224001,52.1127819,23.6818264
32,Чырвонагвардзейская вуліца,224001,52.1085039,23.6826722
69,вуліца Асіпенкі,224001,52.1144512,23.6853082
3,Чырвонагвардзейскі завулак,224001,52.1097232,23.6825616
53,Паўночная вуліца,224001,52.1130043,23.6818517
60,вуліца Асіпенкі,224001,52.1144513,23.6847498
13,Чырвоны завулак,224001,52.1114527,23.6840067
84,Лінейная вуліца,224001,52.1151596,23.6854811
73,Лінейная вуліца,224001,52.1146030,23.6867777
16,вуліца Караленкі,224001,52.1134653,23.6837808
25/1,вуліца Караленкі,224001,52.1143930,23.6837879
73,вуліца Карасёва,224001,52.1140259,23.6824934
13,Чырвоная вуліца,224001,52.1115609,23.6832935
40,Чырвонагвардзейская вуліца,224001,52.1093259,23.6832798
77/1,Лінейная вуліца,224001,52.1154075,23.6858062
24,вуліца Караленкі,224001,52.1137557,23.6834668
9,Чырвоная вуліца,224001,52.1117108,23.6826617
7/1,вуліца Караленкі,224001,52.1130735,23.6851398
8,Чырвоная вуліца,224001,52.1120547,23.6823185
27,вуліца Баброва,224001,52.1115255,23.6814292
6/2,Чырвонагвардзейскі завулак,224001,52.1107875,23.6825159
72,вуліца Асіпенкі,224001,52.1154827,23.6835816
10,вуліца Караленкі,224001,52.1130374,23.6842749
3,Чырвоная вуліца,224001,52.1118818,23.6816996
62,вуліца Карасёва,224001,52.1123695,23.6837891
19,вуліца Баброва,224001,52.1105643,23.6817159
11,вуліца Караленкі,224001,52.1133476,23.6845039
8/1,Чырвоная вуліца,224001,52.1123296,23.6824793
21/2,вуліца Баброва,224001,52.1109924,23.6819990
44,Чырвонагвардзейская вуліца,224001,52.1097829,23.6834799
81,вуліца Асіпенкі,224001,52.1156790,23.6839624
57,Паўночная вуліца,224001,52.1133669,23.6820307
9,вуліца Баброва,224001,52.1089652,23.6821903
25/1,вуліца Баброва,224001,52.1113725,23.6818497
64,Чырвонагвардзейская вуліца,224001,52.1113262,23.6846416
85,Чырвонагвардзейская вуліца,224001,52.1162334,23.6884177
2,Чырвоная вуліца,224001,52.1122534,23.6813689
13,вуліца Баброва,224001,52.1097296,23.6820231
67,вуліца Асіпенкі,224001,52.1142686,23.6855080
58,Чырвонагвардзейская вуліца,224001,52.1110434,23.6842206
58,вуліца Карасёва,224001,52.1119911,23.6842496
16,Чырвоная вуліца,224001,52.1118582,23.6834733
6,Чырвонагвардзейскі завулак,224001,52.1102932,23.6824041
6/2,Чырвоная вуліца,224001,52.1126346,23.6822641
68,вуліца Карасёва,224001,52.1127647,23.6833452
78,вуліца Карасёва,224001,52.1133940,23.6825920
11,вуліца Баброва,224001,52.1093317,23.6821045
38,Чырвонагвардзейская вуліца,224001,52.1091452,23.6831580
74,вуліца Карасёва,224001,52.1130804,23.6829655
71,вуліца Асіпенкі,224001,52.1146085,23.6851740
76,Лінейная вуліца,224001,52.1144063,23.6863970
15,Чырвонагвардзейскі завулак,224001,52.1100541,23.6819087
6/1,Чырвоная вуліца,224001,52.1124099,23.6820951
31,вуліца Баброва,224001,52.1118695,23.6813181
11/1,Чырвоная вуліца,224001,52.1114242,23.6828157
82,Лінейная вуліца,224001,52.1149813,23.6856910
71,вуліца Карасёва,224001,52.1139252,23.6825746
9/1,вуліца Караленкі,224001,52.1132901,23.6850350
11,Чырвоная вуліца,224001,52.1116283,23.6829105
80,вуліца Карасёва,224001,52.1135289,23.6825172
90,Чырвонагвардзейская вуліца,224001,52.1162417,23.6878634
19/1,вуліца Баброва,224001,52.1106138,23.6820918
34,Чырвонагвардзейская вуліца,224001,52.1088993,23.6829235
86,Лінейная вуліца,224001,52.1152943,23.6853074
15,Чырвоная вуліца,224001,52.1115367,23.6835423
5,Чырвоная вуліца,224001,52.1118433,23.6819772
54,вуліца Асіпенкі,224001,52.1140231,23.6852458
83,вуліца Асіпенкі,224001,52.1159046,23.6838091
23,вуліца Баброва,224001,52.1111173,23.6815256
79,вуліца Асіпенкі,224001,52.1154533,23.6842026
88,Чырвонагвардзейская вуліца,224001,52.1158316,23.6875956
65,вуліца Асіпенкі,224001,52.1141010,23.6856757
21/3,вуліца Баброва,224001,52.1110080,23.6823773
48,вуліца Асіпенкі,224001,52.1136092,23.6857017
4,Чырвоная вуліца,224001,52.1122019,23.6816540
53/1,Паўночная вуліца,224001,52.1128902,23.6823632
70,вуліца Асіпенкі,224001,52.1153595,23.6837551
72,Чырвонагвардзейская вуліца,224001,52.1130414,23.6857839
13,вуліца Караленкі,224001,52.1134726,23.6842788
60,Чырвонагвардзейская вуліца,224001,52.1109872,23.6844555
50/1,вуліца Асіпенкі,224001,52.1137609,23.6855721
23/1,вуліца Баброва,224001,52.1111840,23.6819198
7/1,Чырвоная вуліца,224001,52.1114636,23.6822154
80,Лінейная вуліца,224001,52.1147565,23.6859441
8/2,Чырвоная вуліца,224001,52.1126296,23.6826064
76,вуліца Карасёва,224001,52.1132919,23.6827810
62,Чырвонагвардзейская вуліца,224001,52.1111099,23.6845150
10,Чырвонагвардзейскі завулак,224001,52.1102183,23.6830813
77,Паўночная вуліца,224001,52.1162891,23.6838717
66,вуліца Карасёва,224001,52.1126346,23.6835237
25А,вуліца Караленкі,224001,52.1145194,23.6835637
21,вуліца Баброва,224001,52.1108567,23.6816433
43,вуліца Карасёва,224001,52.1116916,23.6849780
75,вуліца Асіпенкі,224001,52.1149935,23.6847424
13/1,Чырвоная вуліца,224001,52.1113383,23.6831483
36,Чырвонагвардзейская вуліца,224001,52.1091882,23.6828437
18/1,вуліца Заслонава,224001,52.1162428,23.6805695
84/2,Паўночная вуліца,224001,52.1164608,23.6826514
78,Паўночная вуліца,224001,52.1156242,23.6829309
10/1,вуліца Заслонава,224001,52.1155318,23.6815257
17,вуліца Заслонава,224001,52.1169840,23.6810839
81,вуліца Карасёва,224001,52.1147858,23.6806976
77,вуліца Карасёва,224001,52.1144855,23.6816735
71/1,вуліца Баброва,224001,52.1167026,23.6800678
72,Паўночная вуліца,224001,52.1149229,23.6825474
4,Абходная вуліца,224001,52.1171954,23.6802024
15,вуліца Заслонава,224001,52.1166861,23.6812154
69/1,вуліца Баброва,224001,52.1164777,23.6801638
20/1,вуліца Заслонава,224001,52.1164985,23.6804963
14/1,вуліца Заслонава,224001,52.1157114,23.6807693
82/3,Паўночная вуліца,224001,52.1163364,23.6822768
6,Абходная вуліца,224001,52.1172345,23.6808075
69,вуліца Баброва,224001,52.1164451,23.6798062
22/1,вуліца Заслонава,224001,52.1166886,23.6804658
5,Абходная вуліца,224001,52.1169443,23.6803118
9,Сялянская вуліца,224001,52.1152273,23.6807662
80,Паўночная вуліца,224001,52.1158093,23.6831118
63/1,вуліца Баброва,224001,52.1158777,23.6803423
82,Паўночная вуліца,224001,52.1160103,23.6832066
84,Паўночная вуліца,224001,52.1162243,23.6833671
90А,Паўночная вуліца,224001,52.1170155,23.6831808
10,вуліца Заслонава,224001,52.1157582,23.6815638
86,Паўночная вуліца,224001,52.1164195,23.6834810
17/1,Абходная вуліца,224001,52.1167960,23.6824301
15/1,вуліца Заслонава,224001,52.1167054,23.6816056
82/2,Паўночная вуліца,224001,52.1162238,23.6825752
67/1,вуліца Баброва,224001,52.1162859,23.6802325
13,вуліца Заслонава,224001,52.1164733,23.6813271
90,Паўночная вуліца,224001,52.1167934,23.6836985
10,Абходная вуліца,224001,52.1172723,23.6827550
67,вуліца Баброва,224001,52.1162447,23.6798147
7/1,Сялянская вуліца,224001,52.1152928,23.6814860
15/2,Абходная вуліца,224001,52.1165393,23.6820537
13/1,вуліца Заслонава,224001,52.1165005,23.6816345
11,Абходная вуліца,224001,52.1169928,23.6814441
5/1,Сялянская вуліца,224001,52.1152217,23.6817452
16/1,вуліца Заслонава,224001,52.1160589,23.6806101
8,вуліца Заслонава,224001,52.1156468,23.6819786
9,вуліца Заслонава,224001,52.1160534,23.6814828
11,Сялянская вуліца,224001,52.1153097,23.6804492
7,Абходная вуліца,224001,52.1169826,23.6807418
6,Сялянская вуліца,224001,52.1148172,23.6812579
11/1,Сялянская вуліца,224001,52.1155363,23.6806396
8/1,вуліца Заслонава,224001,52.1154164,23.6817452
65,вуліца Баброва,224001,52.1160378,23.6799016
13,Абходная вуліца,224001,52.1170113,23.6817549
79,вуліца Карасёва,224001,52.1145872,23.6813673
3,Абходная вуліца,224001,52.1169283,23.6799534
5,Сялянская вуліца,224001,52.1149772,23.6815363
65/1,вуліца Баброва,224001,52.1160893,23.6802538
3/1,Сялянская вуліца,224001,52.1151046,23.6820960
17/2,Абходная вуліца,224001,52.1165627,23.6824268
15,Абходная вуліца,224001,52.1170033,23.6820794
14,вуліца Заслонава,224001,52.1158779,23.6809127
17,Абходная вуліца,224001,52.1170094,23.6825161
3,Сялянская вуліца,224001,52.1148274,23.6819541
11,вуліца Заслонава,224001,52.1162801,23.6814982
20,вуліца Заслонава,224001,52.1165088,23.6808852
61/1,вуліца Баброва,224001,52.1156725,23.6803743
76,Паўночная вуліца,224001,52.1152848,23.6828006
57,вуліца Баброва,224001,52.1150723,23.6801702
18,вуліца Заслонава,224001,52.1162999,23.6809309
12,вуліца Заслонава,224001,52.1158322,23.6813000
3,вуліца Заслонава,224001,52.1157349,23.6824563
12/1,вуліца Заслонава,224001,52.1155991,23.6811047
7,Сялянская вуліца,224001,52.1150981,23.6812069
6,вуліца Заслонава,224001,52.1155457,23.6822790
68,Паўночная вуліца,224001,52.1144917,23.6822454
74,Паўночная вуліца,224001,52.1151355,23.6824636
13,Сялянская вуліца,224001,52.1154173,23.6800895
75,вуліца Баброва,224001,52.1171711,23.6795395
11/1,вуліца Заслонава,224001,52.1162824,23.6817039
71,вуліца Баброва,224001,52.1166738,23.6796891
16,вуліца Заслонава,224001,52.1160284,23.6810270
70,Паўночная вуліца,224001,52.1146885,23.6824270
63,вуліца Баброва,224001,52.1158401,23.6799138
82/1,Паўночная вуліца,224001,52.1161264,23.6828711
9/1,Сялянская вуліца,224001,52.1154585,23.6809599
73,вуліца Баброва,224001,52.1168949,23.6796016
22,вуліца Заслонава,224001,52.1167963,23.6807937
7,вуліца Заслонава,224001,52.1159361,23.6818915
84/1,Паўночная вуліца,224001,52.1163373,23.6829529
15/1,Абходная вуліца,224001,52.1167890,23.6820447
75,вуліца Карасёва,224001,52.1143091,23.6821997
5,вуліца Заслонава,224001,52.1158220,23.6821848
88,Паўночная вуліца,224001,52.1166156,23.6833868
8,Абходная вуліца,224001,52.1172719,23.6814186
7,вуліца Алега Кашавога,224001,52.1096779,23.6765858
4,1-ы Паўночны завулак,224001,52.1122474,23.6801020
15,1-ы Паўночны завулак,224001,52.1131167,23.6784157
4,вуліца Баброва,224001,52.1083270,23.6818114
18/1,Паўночная вуліца,224001,52.1090949,23.6788744
6,6-ы Паўночны завулак,224001,52.1086776,23.6777805
30/1,2-і Паўночны завулак,224001,52.1124372,23.6760094
21,Сялянская вуліца,224001,52.1159058,23.6786463
90,вуліца Карасёва,224001,52.1144717,23.6807357
7/1,6-ы Паўночны завулак,224001,52.1093481,23.6775170
13/1,вуліца Алега Кашавога,224001,52.1103544,23.6773199
4,8-ы Паўночны завулак,224001,52.1074227,23.6773731
88,вуліца Карасёва,224001,52.1142936,23.6811673
14,6-ы Паўночны завулак,224001,52.1090643,23.6763884
47,вуліца Баброва,224001,52.1141153,23.6804459
13,1-ы Паўночны завулак,224001,52.1130043,23.6787085
12,4-ы Паўночны завулак,224001,52.1107620,23.6777722
15,вуліца Шчорса,224001,52.1086394,23.6792511
6,7-ы Паўночны завулак,224001,52.1081853,23.6773376
3,6-ы Паўночны завулак,224001,52.1089491,23.6779272
40,вуліца Баброва,224001,52.1142049,23.6799574
4,6-ы Паўночны завулак,224001,52.1085389,23.6781490
7,2-і Паўночны завулак,224001,52.1121244,23.6796971
7,Паўночная вуліца,224001,52.1080513,23.6789436
28,2-і Паўночны завулак,224001,52.1130381,23.6754001
28,вуліца Баброва,224001,52.1127038,23.6804367
8,7-ы Паўночны завулак,224001,52.1082685,23.6769741
1,8-ы Паўночны завулак,224001,52.1076351,23.6779731
16,3-і Паўночны завулак,224001,52.1114366,23.6778548
168,Фартэчная вуліца,224001,52.1166846,23.6774593
2,вуліца Шчорса,224001,52.1078749,23.6795234
96,вуліца Карасёва,224001,52.1148640,23.6791531
27,Сялянская вуліца,224001,52.1161487,23.6778618
13,Паўночная вуліца,224001,52.1089587,23.6795007
29,Паўночная вуліца,224001,52.1103640,23.6801545
97,вуліца Карасёва,224001,52.1157620,23.6775861
7,5-ы Паўночны завулак,224001,52.1102066,23.6771266
2,1-ы Паўночны завулак,224001,52.1121098,23.6805544
45,вуліца Баброва,224001,52.1139262,23.6805435
11,1-ы Паўночны завулак,224001,52.1129907,23.6791124
5,8-ы Паўночны завулак,224001,52.1078884,23.6767709
13,6-ы Паўночны завулак,224001,52.1093705,23.6764266
48,вуліца Баброва,224001,52.1152795,23.6796135
38/2,вуліца Баброва,224001,52.1138889,23.6791719
15,3-і Паўночны завулак,224001,52.1117634,23.6777475
19/1,2-і Паўночны завулак,224001,52.1128795,23.6770187
8,вуліца Баброва,224001,52.1089275,23.6816773
12,3-і Паўночны завулак,224001,52.1112979,23.6783458
14,3-і Паўночны завулак,224001,52.1113541,23.6780712
22,2-і Паўночны завулак,224001,52.1126217,23.6768420
166/2,Фартэчная вуліца,224001,52.1164871,23.6779448
17,1-ы Паўночны завулак,224001,52.1131777,23.6781017
170,Фартэчная вуліца,224001,52.1167085,23.6770763
23,Паўночная вуліца,224001,52.1096073,23.6799850
44,вуліца Баброва,224001,52.1146818,23.6797420
50,Паўночная вуліца,224001,52.1127151,23.6812182
84,вуліца Карасёва,224001,52.1140244,23.6819343
8,3-і Паўночны завулак,224001,52.1111381,23.6788190
16,5-ы Паўночны завулак,224001,52.1099090,23.6768372
58,Паўночная вуліца,224001,52.1136191,23.6816613
16,4-ы Паўночны завулак,224001,52.1109524,23.6770439
23,Сялянская вуліца,224001,52.1159720,23.6784855
31,Паўночная вуліца,224001,52.1105424,23.6802566
32,3-і Паўночны завулак,224001,52.1108387,23.6798115
19,Паўночная вуліца,224001,52.1090576,23.6802503
37,Паўночная вуліца,224001,52.1111934,23.6806763
36,Паўночная вуліца,224001,52.1113723,23.6800192
28/1,2-і Паўночны завулак,224001,52.1125814,23.6753338
53,вуліца Баброва,224001,52.1145200,23.6803392
56/1,Паўночная вуліца,224001,52.1134690,23.6812756
9/1,6-ы Паўночны завулак,224001,52.1094286,23.6771860
36/2,вуліца Баброва,224001,52.1137573,23.6792255
15,вуліца Алега Кашавога,224001,52.1106957,23.6769420
8,1-ы Паўночны завулак,224001,52.1124906,23.6793869
8,2-і Паўночны завулак,224001,52.1119260,23.6792676
12/2,вуліца Баброва,224001,52.1095100,23.6810727
41,вуліца Баброва,224001,52.1133988,23.6807053
52,Паўночная вуліца,224001,52.1128896,23.6812835
93,вуліца Карасёва,224001,52.1155541,23.6782975
14,2-і Паўночны завулак,224001,52.1121710,23.6784173
5,1-ы Паўночны завулак,224001,52.1125885,23.6800261
19,2-і Паўночны завулак,224001,52.1126631,23.6776708
14,4-ы Паўночны завулак,224001,52.1108831,23.6773300
5,7-ы Паўночны завулак,224001,52.1083149,23.6777626
25,Сялянская вуліца,224001,52.1159994,23.6782591
35/2,Паўночная вуліца,224001,52.1106116,23.6809110
8А,вуліца Алега Кашавога,224001,52.1123248,23.6764791
10,6-ы Паўночны завулак,224001,52.1088896,23.6770412
9,6-ы Паўночны завулак,224001,52.1092122,23.6770351
39,вуліца Баброва,224001,52.1131900,23.6807739
10,1-ы Паўночны завулак,224001,52.1125978,23.6789528
6,вуліца Шчорса,224001,52.1083359,23.6790382
29,Сялянская вуліца,224001,52.1163368,23.6773820
84/1,Паўночная вуліца,224001,52.1138823,23.6818333
10,3-і Паўночны завулак,224001,52.1111908,23.6786038
11,6-ы Паўночны завулак,224001,52.1093125,23.6768183
9,1-ы Паўночны завулак,224001,52.1127439,23.6794680
8,4-ы Паўночны завулак,224001,52.1105948,23.6784114
2,вуліца Баброва,224001,52.1080377,23.6818202
7,8-ы Паўночны завулак,224001,52.1079969,23.6763609
10,Паўночная вуліца,224001,52.1081578,23.6783644
33/1,Паўночная вуліца,224001,52.1104342,23.6806423
6,8-ы Паўночны завулак,224001,52.1074615,23.6769042
24,2-і Паўночны завулак,224001,52.1127959,23.6762457
3,5-ы Паўночны завулак,224001,52.1100098,23.6777594
16,1-ы Паўночны завулак,224001,52.1129483,23.6776580
13,7-ы Паўночны завулак,224001,52.1086956,23.6764934
49,вуліца Баброва,224001,52.1142941,23.6804337
13,вуліца Шчорса,224001,52.1083638,23.6795384
6,4-ы Паўночны завулак,224001,52.1104998,23.6787275
16,Паўночная вуліца,224001,52.1088454,23.6787014
5,Паўночная вуліца,224001,52.1077956,23.6788286
43,вуліца Баброва,224001,52.1136002,23.6806565
33/2,Паўночная вуліца,224001,52.1102912,23.6808132
10,вуліца Баброва,224001,52.1092706,23.6815277
105,вуліца Карасёва,224001,52.1164356,23.6765799
2,8-ы Паўночны завулак,224001,52.1074240,23.6779605
17,2-і Паўночны завулак,224001,52.1125947,23.6779137
36,вуліца Баброва,224001,52.1136627,23.6801099
4,7-ы Паўночны завулак,224001,52.1080537,23.6777904
20,вуліца Баброва,224001,52.1106931,23.6811208
30/2,2-і Паўночны завулак,224001,52.1124493,23.6755823
14,5-ы Паўночны завулак,224001,52.1098514,23.6771039
2,3-і Паўночны завулак,224001,52.1108941,23.6795566
21,1-ы Паўночны завулак,224001,52.1133653,23.6774491
25,Паўночная вуліца,224001,52.1097975,23.6801908
23,2-і Паўночны завулак,224001,52.1131597,23.6760012
38,вуліца Баброва,224001,52.1139052,23.6800719
10,4-ы Паўночны завулак,224001,52.1106847,23.6781049
12,5-ы Паўночны завулак,224001,52.1097630,23.6774483
7/1,Паўночная вуліца,224001,52.1078609,23.6791779
42/1,вуліца Баброва,224001,52.1143665,23.6796506
7,1-ы Паўночны завулак,224001,52.1126747,23.6797928
24,Чырвонагвардзейская вуліца,224001,52.1079238,23.6817395
9,8-ы Паўночны завулак,224001,52.1080976,23.6758383
99,вуліца Карасёва,224001,52.1158457,23.6772950
56/1,вуліца Баброва,224001,52.1162361,23.6786878
6,3-і Паўночны завулак,224001,52.1110942,23.6790978
34/2,вуліца Баброва,224001,52.1132411,23.6794345
18,3-і Паўночны завулак,224001,52.1114459,23.6775558
21,2-і Паўночны завулак,224001,52.1130376,23.6763659
10/2,вуліца Баброва,224001,52.1093583,23.6807509
6,2-і Паўночны завулак,224001,52.1117855,23.6796205
12,6-ы Паўночны завулак,224001,52.1089690,23.6767118
27,вуліца Алега Кашавога,224001,52.1122261,23.6773627
4,4-ы Паўночны завулак,224001,52.1104294,23.6791190
40/2,вуліца Баброва,224001,52.1140860,23.6792442
18,1-ы Паўночны завулак,224001,52.1131336,23.6771560
109,вуліца Карасёва,224001,52.1163875,23.6760720
16/1,1-ы Паўночны завулак,224001,52.1129138,23.6779489
36/1,вуліца Баброва,224001,52.1136786,23.6796525
50,вуліца Баброва,224001,52.1156146,23.6794591
164/1,Фартэчная вуліца,224001,52.1165903,23.6782751
13/1,Паўночная вуліца,224001,52.1087295,23.6797646
35,Паўночная вуліца,224001,52.1109721,23.6804832
20,Сялянская вуліца,224001,52.1159013,23.6777624
25,2-і Паўночны завулак,224001,52.1132551,23.6756683
107,вуліца Карасёва,224001,52.1162994,23.6761847
15,2-і Паўночны завулак,224001,52.1125354,23.6783610
1,2-і Паўночны завулак,224001,52.1118819,23.6804896
27/1,Сялянская вуліца,224001,52.1162297,23.6776187
22,Чырвонагвардзейская вуліца,224001,52.1076256,23.6818388
11/1,6-ы Паўночны завулак,224001,52.1094998,23.6769360
9,2-і Паўночны завулак,224001,52.1122168,23.6793026
11,3-і Паўночны завулак,224001,52.1115701,23.6784405
103,вуліца Карасёва,224001,52.1162638,23.6768090
9,3-і Паўночны завулак,224001,52.1114869,23.6787540
24,1-ы Паўночны завулак,224001,52.1135290,23.6761525
15/2,вуліца Алега Кашавога,224001,52.1104838,23.6777594
6/1,5-ы Паўночны завулак,224001,52.1093402,23.6781866
39,Паўночная вуліца,224001,52.1114015,23.6807733
6/1,2-і Паўночны завулак,224001,52.1116114,23.6794873
16,2-і Паўночны завулак,224001,52.1122531,23.6779681
16,Чырвонагвардзейская вуліца,224001,52.1067548,23.6813287
33,Паўночная вуліца,224001,52.1107033,23.6803514
6,1-ы Паўночны завулак,224001,52.1123577,23.6797663
8/1,2-і Паўночны завулак,224001,52.1116682,23.6791553
9,вуліца Шчорса,224001,52.1078798,23.6801543
8,6-ы Паўночны завулак,224001,52.1087854,23.6774572
27/1,Паўночная вуліца,224001,52.1100522,23.6802030
18,2-і Паўночны завулак,224001,52.1123698,23.6777471
30,вуліца Баброва,224001,52.1129704,23.6802975
15/1,вуліца Алега Кашавога,224001,52.1105970,23.6773690
14,вуліца Баброва,224001,52.1100060,23.6813380
3,8-ы Паўночны завулак,224001,52.1076692,23.6775023
54,вуліца Баброва,224001,52.1160259,23.6793642
43/1,вуліца Баброва,224001,52.1136190,23.6809782
35/1,Паўночная вуліца,224001,52.1107504,23.6807041
3/1,5-ы Паўночны завулак,224001,52.1102520,23.6779208
12/1,1-ы Паўночны завулак,224001,52.1127039,23.6782758
34/1,вуліца Баброва,224001,52.1134350,23.6796685
7,7-ы Паўночны завулак,224001,52.1084295,23.6774718
17,3-і Паўночны завулак,224001,52.1118533,23.6774389
27,Паўночная вуліца,224001,52.1101679,23.6800421
8,8-ы Паўночны завулак,224001,52.1076596,23.6765916
8,вуліца Алега Кашавога,224001,52.1122258,23.6768415
45/1,вуліца Баброва,224001,52.1139036,23.6809492
2/1,вуліца Шчорса,224001,52.1077139,23.6794787
3,7-ы Паўночны завулак,224001,52.1082116,23.6781025
12,вуліца Баброва,224001,52.1095651,23.6814169
5,5-ы Паўночны завулак,224001,52.1100810,23.6774910
10,8-ы Паўночны завулак,224001,52.1077638,23.6759515
7,3-і Паўночны завулак,224001,52.1113903,23.6790749
32,вуліца Баброва,224001,52.1132385,23.6801489
26,вуліца Баброва,224001,52.1124230,23.6805504
10,7-ы Паўночны завулак,224001,52.1084064,23.6764910
47/1,вуліца Баброва,224001,52.1141463,23.6808124
41,Паўночная вуліца,224001,52.1115690,23.6808645
15,7-ы Паўночны завулак,224001,52.1087952,23.6762128
18,вуліца Баброва,224001,52.1103930,23.6812116
31,вуліца Карасёва,224001,52.1154296,23.6786334
11,7-ы Паўночны завулак,224001,52.1086124,23.6767508
4,вуліца Шчорса,224001,52.1081515,23.6792498
3/2,5-ы Паўночны завулак,224001,52.1103947,23.6780385
38/1,вуліца Баброва,224001,52.1138768,23.6795989
16,вуліца Баброва,224001,52.1101751,23.6812776
46,вуліца Баброва,224001,52.1150905,23.6796610
95,вуліца Карасёва,224001,52.1156049,23.6780394
19,1-ы Паўночны завулак,224001,52.1133205,23.6777785
34/4,вуліца Баброва,224001,52.1135582,23.6792293
9,7-ы Паўночны завулак,224001,52.1084933,23.6770815
27/1,вуліца Алега Кашавога,224001,52.1120601,23.6776170
166/1,Фартэчная вуліца,224001,52.1166624,23.6778399
19,Сялянская вуліца,224001,52.1158346,23.6788537
60,Паўночная вуліца,224001,52.1137066,23.6818391
101,вуліца Карасёва,224001,52.1159642,23.6768614
40/1,вуліца Баброва,224001,52.1142433,23.6795076
3,Паўночная вуліца,224001,52.1076277,23.6787121
13,2-і Паўночны завулак,224001,52.1123826,23.6787254
5,3-і Паўночны завулак,224001,52.1112794,23.6793981
20,3-і Паўночны завулак,224001,52.1116324,23.6771837
31,Сялянская вуліца,224001,52.1163985,23.6771112
46,Паўночная вуліца,224001,52.1124746,23.6810590
34,вуліца Баброва,224001,52.1134389,23.6801908
12,8-ы Паўночны завулак,224001,52.1078354,23.6754771
30,Паўночная вуліца,224001,52.1106199,23.6796249
166,Фартэчная вуліца,224001,52.1169471,23.6777668
5,2-і Паўночны завулак,224001,52.1120548,23.6798411
20,1-ы Паўночны завулак,224001,52.1132064,23.6767894
21,Паўночная вуліца,224001,52.1096705,23.6798026
16/1,Паўночная вуліца,224001,52.1090063,23.6785878
10,2-і Паўночны завулак,224001,52.1119756,23.6790327
20,2-і Паўночны завулак,224001,52.1124302,23.6774364
54,Паўночная вуліца,224001,52.1131817,23.6813680
86/1,вуліца Карасёва,224001,52.1140796,23.6813163
3,2-і Паўночны завулак,224001,52.1119849,23.6801544
12,2-і Паўночны завулак,224001,52.1120961,23.6787394
52,вуліца Баброва,224001,52.1157903,23.6793998
98,вуліца Карасёва,224001,52.1150827,23.6784442
7,6-ы Паўночны завулак,224001,52.1090980,23.6773248
86,вуліца Карасёва,224001,52.1142490,23.6814768
4,3-і Паўночны завулак,224001,52.1110447,23.6793138
89/1,вуліца Карасёва,224001,52.1152366,23.6792619
38,Паўночная вуліца,224001,52.1116661,23.6802656
6,вуліца Баброва,224001,52.1086136,23.6817494
56,Паўночная вуліца,224001,52.1133751,23.6815725
5,6-ы Паўночны завулак,224001,52.1090474,23.6776054
13,3-і Паўночны завулак,224001,52.1116983,23.6781318
9,5-ы Паўночны завулак,224001,52.1102626,23.6767239
15,Паўночная вуліца,224001,52.1091339,23.6794948
11,2-і Паўночны завулак,224001,52.1123131,23.6790655
3,3-і Паўночны завулак,224001,52.1112195,23.6796666
12,Паўночная вуліца,224001,52.1084392,23.6785647
12/1,вуліца Баброва,224001,52.1098218,23.6811241
44,Паўночная вуліца,224001,52.1123959,23.6810301
89,вуліца Карасёва,224001,52.1152998,23.6789820
26,2-і Паўночны завулак,224001,52.1129205,23.6758142
7,вуліца Шчорса,224001,52.1076557,23.6803449
8,Паўночная вуліца,224001,52.1078588,23.6781969
17,Сялянская вуліца,224001,52.1157747,23.6790355
13,вуліца Алега Кашавога,224001,52.1105042,23.6768039
34/3,вуліца Баброва,224001,52.1133972,23.6790346
17,Паўночная вуліца,224001,52.1091727,23.6797974
5/1,6-ы Паўночны завулак,224001,52.1093003,23.6777899
11,вуліца Шчорса,224001,52.1081164,23.6798417
12,1-ы Паўночны завулак,224001,52.1126780,23.6784099
26,Лугавая вуліца,224024,52.1093091,23.6946964
91,Сяброўская вуліца,224033,52.0688753,23.7242653
77,Сяброўская вуліца,224033,52.0673236,23.7242325
86,Вулькаўская вуліца,224033,52.0695306,23.7281226
76,Вулькаўская вуліца,224033,52.0691300,23.7295937
92,Вулькаўская вуліца,224033,52.0702629,23.7269754
96,Вулькаўская вуліца,224033,52.0698817,23.7266073
72,Вулькаўская вуліца,224033,52.0695128,23.7299576
67,Сяброўская вуліца,224033,52.0682283,23.7275089
4/1,Рабінавая вуліца,224033,52.0670681,23.7292197
12,Рабінавая вуліца,224033,52.0686510,23.7285505
82,Вулькаўская вуліца,224033,52.0699123,23.7284827
2,вуліца Сальнікава,224033,52.0735135,23.7166511
94,Вулькаўская вуліца,224033,52.0702139,23.7266533
25,вуліца Вароўскага,224035,52.0877384,23.6792064
8,вуліца Савецкай Канстытуцыі,224023,52.1000736,23.7500145
120/1,вуліца Янкі Купалы,224028,52.1163837,23.7693213
12/1,вуліца Лейтэнанта Рабцава,224025,52.1116881,23.6647142
4,вуліца Крупскай,224005,52.0936710,23.6802159
90В,Сяброўская вуліца,224002,52.0646023,23.7180421
12,вуліца Лактыёнава,224007,52.0986769,23.7836291
26,вуліца Лактыёнава,224007,52.0993208,23.7853510
24,вуліца Лактыёнава,224007,52.0992599,23.7848338
55,Школьная вуліца,224014,52.1019806,23.6326412
41,1-ы Зарэчны завулак,224014,52.1036688,23.6334812
30,1-ы Зарэчны завулак,224014,52.1034063,23.6340777
26,1-ы Зарэчны завулак,224014,52.1035444,23.6347077
36,1-ы Зарэчны завулак,224014,52.1033697,23.6328042
39,1-ы Зарэчны завулак,224014,52.1037161,23.6339313
43,1-ы Зарэчны завулак,224014,52.1037209,23.6331032
28,1-ы Зарэчны завулак,224014,52.1034749,23.6343810
32,1-ы Зарэчны завулак,224014,52.1033028,23.6337412
25,вуліца Лейтэнанта Рабцава,224025,52.1174643,23.6703168
8,Старазадворская вуліца,224028,52.1239738,23.7729309
24,вуліца Гаўрылава,224028,52.1101059,23.7701016
22,вуліца Гаўрылава,224028,52.1097149,23.7705502
1,вуліца Плоска,224024,52.1260245,23.7174158
3,Хвойная вуліца,224028,52.1244762,23.7852986
2/2,Хвойная вуліца,224028,52.1247860,23.7868186
14,Старазадворскі завулак,224028,52.1235435,23.7741067
1,Першамайская вуліца,224028,52.1223980,23.7761889
5,Хвойная вуліца,224028,52.1248731,23.7856932
13,Старазадворскі завулак,224028,52.1224549,23.7745174
2,Хвойная вуліца,224028,52.1256739,23.7872975
19,Старазадворскі завулак,224028,52.1228127,23.7733828
45/5,Гродзенская вуліца,224028,52.1135971,23.7819880
19,вуліца Газдзецкага,224028,52.1149350,23.7893804
2,вуліца Гогаля,224005,52.0887092,23.6738324
14,набярэжная Францыска Скарыны,224013,52.0838511,23.7022915
16,набярэжная Францыска Скарыны,224013,52.0839650,23.7032619
11,бульвар Шаўчэнкі,224013,52.0841324,23.7038798
18,вуліца Леванеўскага,224005,52.0933994,23.6785836
100,Вулькаўская вуліца,224033,52.0703830,23.7254473
104,Вулькаўская вуліца,224033,52.0703922,23.7247186
15,Варшаўская шаша,224033,52.0745005,23.7161907
39,Варшаўская шаша,224033,52.0735650,23.7104822
51,Падгародцкая вуліца,224033,52.0712845,23.7215603
53,Падгародцкая вуліца,224033,52.0714193,23.7210396
59/1,Падгародцкая вуліца,224033,52.0713701,23.7200416
63/1,Падгародцкая вуліца,224033,52.0713119,23.7195921
129/1,Чырвонагвардзейская вуліца,224024,52.1222679,23.6981977
2,Армейская вуліца,224033,52.0695418,23.7180549
68,5-я Верасовая вуліца,224024,52.1340333,23.7045461
66,6-я Верасовая вуліца,224024,52.1356059,23.7051991
35,6-я Верасовая вуліца,224024,52.1352123,23.7110625
64,6-я Верасовая вуліца,224024,52.1356179,23.7057269
61,4-я Верасовая вуліца,224024,52.1344722,23.7049812
64,5-я Верасовая вуліца,224024,52.1346147,23.7045232
62,5-я Верасовая вуліца,224024,52.1348660,23.7044972
57,4-я Верасовая вуліца,224024,52.1343862,23.7062999
55,Гарадская вуліца,224033,52.1333725,23.7288151
65,5-я Верасовая вуліца,224024,52.1352859,23.7052022
66,5-я Верасовая вуліца,224024,52.1343734,23.7045841
3,вуліца Плоска,224024,52.1262455,23.7175823
78,Вулькаўская вуліца,224033,52.0698290,23.7293169
56,вуліца Мічурына,224014,52.1023617,23.6507882
68,Сяброўская вуліца,224033,52.0666298,23.7219359
60/2,вуліца Янкі Купалы,224020,52.1087934,23.7387578
10,Ясеневая вуліца,224022,52.0683054,23.7633839
12,Ясеневая вуліца,224022,52.0679391,23.7626537
380,Маскоўская вуліца,224007,52.1044742,23.7832984
374,Маскоўская вуліца,224007,52.1042359,23.7820020
376,Маскоўская вуліца,224007,52.1040196,23.7828067
20А,Ясеневая вуліца,224022,52.0669988,23.7644165
23,Валгаградская вуліца,224011,52.0812425,23.7543194
384,Маскоўская вуліца,224007,52.1047636,23.7846145
2,Гродзенская вуліца,224007,52.1049663,23.7856315
386А,Маскоўская вуліца,224007,52.1045217,23.7853119
267А,Маскоўская вуліца,224017,52.0932167,23.7602033
267,Маскоўская вуліца,224017,52.0937920,23.7588588
36,вуліца Васняцова,224017,52.0935535,23.7568397
42/1,вуліца Васняцова,224017,52.0926860,23.7576482
40А,вуліца Васняцова,224017,52.0929991,23.7574776
188А,Маскоўская вуліца,224020,52.0952672,23.7297146
350,Маскоўская вуліца,224007,52.1029938,23.7777750
354,Маскоўская вуліца,224007,52.1034363,23.7780895
366А,Маскоўская вуліца,224007,52.1035108,23.7802168
370,Маскоўская вуліца,224007,52.1039611,23.7806825
1,вуліца Гаўрылава,224007,52.1031963,23.7771508
366Г,Маскоўская вуліца,224007,52.1037357,23.7794430
16,Рэчыцкая вуліца,224014,52.1071697,23.6509361
62,Адамкоўская вуліца,224014,52.1061853,23.6520084
176Б,Маскоўская вуліца,224020,52.0943124,23.7269146
62,Палявая вуліца,224033,52.0722902,23.7350230
52А,вуліца Лейтэнанта Рабцава,224025,52.1204278,23.6684167
91,Сяброўская вуліца,224033,52.0693483,23.7238763
32Г,Камерцыйная вуліца,224028,52.1289278,23.7626136
32/1,Камерцыйная вуліца,224028,52.1287053,23.7631280
34,Савецкая вуліца,224003,52.0941419,23.6925787
4,вуліца Тарнапольскага,224002,52.0518188,23.7322400
3,вуліца Грыбаедава,224003,52.0722647,23.6998503
21,вуліца Марозава,224033,52.0758709,23.7253846
5,вуліца Грыбаедава,224003,52.0720571,23.6990991
368,Маскоўская вуліца,224007,52.1038599,23.7814361
2,праспект Машэрава,224004,52.0856549,23.6721888
8,праспект Машэрава,224030,52.0863886,23.6806125
59А,Фартэчная вуліца,224024,52.1137899,23.6999074
108В,вуліца Лейтэнанта Рабцава,224025,52.1366074,23.6702553
1,Белаазёрская вуліца,224025,52.1281305,23.6699071
13А,вуліца Лейтэнанта Рабцава,224025,52.1147802,23.6731531
31,2-я Прахадная вуліца,224025,52.1206648,23.6656733
29,2-я Прахадная вуліца,224025,52.1207189,23.6653297
29/1,2-я Прахадная вуліца,224025,52.1204985,23.6652395
31/2,2-я Прахадная вуліца,224025,52.1202256,23.6654755
29/2,2-я Прахадная вуліца,224025,52.1203267,23.6651990
31/1,2-я Прахадная вуліца,224025,52.1204460,23.6655939
5,вуліца Марозава,224033,52.0759427,23.7228097
80,Савецкая вуліца,224030,52.0890098,23.6953993
28,вуліца Махновіча,224003,52.0685960,23.7007399
9Б,Карʼерная вуліца,224022,52.0639652,23.7564948
124В,вуліца Янкі Купалы,224028,52.1146124,23.7692183
13/1,Карʼерная вуліца,224022,52.0637581,23.7575041
99А,Сяброўская вуліца,224033,52.0672263,23.7221478
171,вуліца Пісьменніка Смірнова,224014,52.1253390,23.6319118
2,вуліца Генерала Благавешчанскага,224003,52.0683540,23.6991917
44,6-я Верасовая вуліца,224024,52.1349920,23.7094934
51,5-я Верасовая вуліца,224024,52.1347925,23.7078304
59,5-я Верасовая вуліца,224024,52.1350035,23.7063553
59/1,5-я Верасовая вуліца,224024,52.1351101,23.7061686
61/1,6-я Верасовая вуліца,224024,52.1353555,23.7060312
63,5-я Верасовая вуліца,224024,52.1351794,23.7054798
88 к6,Чырвонагвардзейская вуліца,224001,52.1154768,23.6873373
122,вуліца Кірава,224013,52.0855430,23.7063710
129Б,вуліца Вычулкі,224026,52.0963099,23.8201552
129А,Вычулкі,224026,52.0953604,23.8202911
4,Прамысловая вуліца,224026,52.0945701,23.8248315
11,Пясчаная вуліца,224026,52.0941935,23.8198292
13,Пясчаная вуліца,224026,52.0939637,23.8203925
15,Пясчаная вуліца,224026,52.0938269,23.8207519
19,Пясчаная вуліца,224026,52.0939225,23.8220608
23,Пясчаная вуліца,224026,52.0938204,23.8228454
21,Пясчаная вуліца,224026,52.0937841,23.8223867
11,Прамысловая вуліца,224026,52.0941392,23.8233309
5,Прамысловая вуліца,224026,52.0941515,23.8246505
7,Прамысловая вуліца,224026,52.0941598,23.8242361
9,Прамысловая вуліца,224026,52.0941689,23.8237090
25,Пясчаная вуліца,224026,52.0937610,23.8233228
31,Пясчаная вуліца,224026,52.0937264,23.8245419
33,Пясчаная вуліца,224026,52.0937288,23.8250690
35,Пясчаная вуліца,224026,52.0937157,23.8254820
35,Блакітная вуліца,224026,52.0929338,23.8254779
33,Блакітная вуліца,224026,52.0929775,23.8250447
36,Пясчаная вуліца,224026,52.0933795,23.8254350
34,Пясчаная вуліца,224026,52.0933894,23.8250783
31,Блакітная вуліца,224026,52.0930714,23.8245633
32,Пясчаная вуліца,224026,52.0933771,23.8245862
30,Пясчаная вуліца,224026,52.0933993,23.8240805
29,Блакітная вуліца,224026,52.0930227,23.8240738
27,Блакітная вуліца,224026,52.0930392,23.8234368
28,Пясчаная вуліца,224026,52.0934092,23.8237574
26,Пясчаная вуліца,224026,52.0934010,23.8233134
24,Пясчаная вуліца,224026,52.0934257,23.8228601
23,Блакітная вуліца,224026,52.0930532,23.8227998
21,Блакітная вуліца,224026,52.0930450,23.8223197
22,Пясчаная вуліца,224026,52.0934150,23.8223867
20,Пясчаная вуліца,224026,52.0934668,23.8219334
19,Блакітная вуліца,224026,52.0930640,23.8219147
17,Блакітная вуліца,224026,52.0930664,23.8211676
18,Пясчаная вуліца,224026,52.0934636,23.8212052
16,Пясчаная вуліца,224026,52.0934784,23.8206943
15,Блакітная вуліца,224026,52.0930805,23.8207036
13,Блакітная вуліца,224026,52.0931018,23.8202906
14,Пясчаная вуліца,224026,52.0934570,23.8201819
12,Пясчаная вуліца,224026,52.0934833,23.8198225
11,Блакітная вуліца,224026,52.0931430,23.8198238
9,Блакітная вуліца,224026,52.0931620,23.8192915
10,Пясчаная вуліца,224026,52.0935089,23.8193786
8,Пясчаная вуліца,224026,52.0934553,23.8189132
7,Блакітная вуліца,224026,52.0931851,23.8189187
9,Пясчаная вуліца,224026,52.0938484,23.8193438
7,Пясчаная вуліца,224026,52.0938697,23.8190715
5,Пясчаная вуліца,224026,52.0938864,23.8187537
3,Пясчаная вуліца,224026,52.0938797,23.8184841
6,Пясчаная вуліца,224026,52.0935418,23.8185338
5,Блакітная вуліца,224026,52.0931260,23.8184854
1/3,Пясчаная вуліца,224026,52.0939049,23.8174252
1/2,Пясчаная вуліца,224026,52.0939178,23.8178064
2,Пясчаная вуліца,224026,52.0935682,23.8175869
4,Пясчаная вуліца,224026,52.0935353,23.8180885
3,Блакітная вуліца,224026,52.0931464,23.8179866
1,Блакітная вуліца,224026,52.0931481,23.8173045
97А,Чырвонагвардзейская вуліца,224024,52.1188712,23.6903012
19А,вуліца Пісьменніка Смірнова,224034,52.0995968,23.6525751
188/1,вуліца Пісьменніка Смірнова,224014,52.1237741,23.6287362
14,вуліца Леніна,224005,52.0959513,23.6827093
4,вуліца Міцкевіча,224005,52.0960650,23.6831022
12,вуліца Леніна,224005,52.0961070,23.6825465
3,Ковельская вуліца,224008,52.0742483,23.6702263
131А,Чырвонагвардзейская вуліца,224000,52.1233026,23.6989721
43,Верасовая вуліца,224024,52.1330919,23.7099045
6,вуліца Махновіча,224003,52.0729685,23.7065935
60,5-я Верасовая вуліца,224024,52.1347250,23.7060021
44,5-я Верасовая вуліца,224024,52.1342084,23.7088482
30,2-я Верасовая вуліца,224024,52.1314130,23.7095958
82,Луцкая вуліца,224011,52.0812184,23.7654655
58,Вулькаўская вуліца,224033,52.0689552,23.7317028
116А,вуліца Суворава,224022,52.0742031,23.7609912
119,вуліца Багданчука,224017,52.0909975,23.7681491
12,вуліца Халтурына,224013,52.0910305,23.7073811
10,Чырвонагвардзейская вуліца,224001,52.1065166,23.6804362
12,Чырвонагвардзейская вуліца,224001,52.1064283,23.6793611
14А,Чырвонагвардзейская вуліца,224001,52.1067837,23.6781938
14,Чырвонагвардзейская вуліца,224001,52.1072765,23.6795263
163,Маскоўская вуліца,224023,52.0940961,23.7380970
28,Высокаўская вуліца,224025,52.1084592,23.6631676
90,Вулькаўская вуліца,224033,52.0702506,23.7272978
80,Вулькаўская вуліца,224033,52.0699034,23.7288134
70,Вулькаўская вуліца,224033,52.0694988,23.7302846
102,Вулькаўская вуліца,224033,52.0703837,23.7250795
9,Казловіцкая вуліца,224014,52.1168752,23.6301997
1,вуліца Янкі Купалы,224020,52.0991890,23.7286495
9,Хвойная вуліца,224028,52.1253832,23.7864892
26,Першамайская вуліца,224028,52.1228696,23.7794954
23,Першамайская вуліца,224028,52.1236753,23.7806993
4,4-я Першамайская вуліца,224028,52.1240281,23.7813764
6/1,4-я Першамайская вуліца,224028,52.1241771,23.7812970
47,вуліца Кастрычніцкай Рэвалюцыі,224011,52.0807105,23.7587295
41,Варшаўская шаша,224003,52.0743214,23.7079350
19/1,Пясчаная вуліца,224026,52.0941368,23.8219287
17,Пясчаная вуліца,224026,52.0938116,23.8212665
1А,вуліца Калесніка,224033,52.0721626,23.7204038
35/1,вуліца Шаўчэнкі,224013,52.0838983,23.7160016
53А,Гродзенская вуліца,224028,52.1173795,23.7817132
81,вуліца Карбышава,224030,52.0903691,23.6977916
12,Абходная вуліца,224001,52.1171274,23.6838203
14,1-ы Паўночны завулак,224001,52.1128596,23.6781858
2,вуліца Гаўрылава,224023,52.1025267,23.7752338
4,вуліца Гаўрылава,224023,52.1028696,23.7757121
336,Маскоўская вуліца,224023,52.1005320,23.7650306
334,Маскоўская вуліца,224023,52.1006182,23.7644323
320,Маскоўская вуліца,224023,52.0985989,23.7538298
318,Маскоўская вуліца,224023,52.0982588,23.7534056
29,1-ы Паўночны завулак,224001,52.1143030,23.6751533
32,1-ы Паўночны завулак,224001,52.1138216,23.6749783
25,1-ы Паўночны завулак,224001,52.1138426,23.6763786
23,1-ы Паўночны завулак,224001,52.1136479,23.6766281
60Б,Адамкоўская вуліца,224014,52.1061419,23.6493368
245,Маскоўская вуліца,224023,52.0959561,23.7478628
1,3-і Паўночны завулак,224001,52.1111427,23.6798355
3,Прывакзальная плошча,224004,52.0996527,23.6776371
1А,Васілеўскі завулак,224009,52.1246893,23.7433250
88/2,Чырвонагвардзейская вуліца,224001,52.1152332,23.6871105
74,вуліца Кіжаватава,224024,52.1060911,23.6916835
165,вуліца Пісьменніка Смірнова,224014,52.1243743,23.6330034
165,вуліца Пісьменніка Смірнова,224014,52.1241762,23.6328266
165,вуліца Пісьменніка Смірнова,224014,52.1241176,23.6330540
267,Маскоўская вуліца,224017,52.0964176,23.7584960
267,Маскоўская вуліца,224017,52.0964355,23.7577452
267,Маскоўская вуліца,224017,52.0956588,23.7592051
267,Маскоўская вуліца,224017,52.0958179,23.7569982
267,Маскоўская вуліца,224017,52.0949642,23.7571919
267,Маскоўская вуліца,224017,52.0940787,23.7578980
2 кв. 2,вуліца Шчорса,224001,52.1080533,23.6793257
34,вуліца Карасёва,224001,52.1097180,23.6858322
3,вуліца Гурава,224001,52.1049309,23.6818654
10/1,вуліца Баброва,224001,52.1095605,23.6806976
18,Паўночная вуліца,224001,52.1091892,23.6789283
2,6-ы Паўночны завулак,224001,52.1084587,23.6784811
54,вуліца Карасёва,224001,52.1115863,23.6846806
9/1,Чырвоная вуліца,224001,52.1114697,23.6825585
12/1,Чырвоная вуліца,224001,52.1122215,23.6831123
17,Добрая вуліца,224001,52.1110139,23.6897809
15/1,3-і Паўночны завулак,224001,52.1119494,23.6780464
56,вуліца Баброва,224001,52.1161929,23.6793404
58,вуліца Баброва,224001,52.1163411,23.6792455
60,вуліца Баброва,224001,52.1165736,23.6791768
60/1,вуліца Баброва,224001,52.1167963,23.6788496
64,вуліца Баброва,224001,52.1171512,23.6790374
164,Фартэчная вуліца,224001,52.1170603,23.6783661
4,вуліца Заслонава,224001,52.1154454,23.6825435
61,вуліца Баброва,224001,52.1155658,23.6800507
253,Маскоўская вуліца,224023,52.0968403,23.7527090
273,Маскоўская вуліца,224023,52.0984971,23.7669164
18,праспект Машэрава,224030,52.0865819,23.6858309
245,Маскоўская вуліца,224023,52.0959056,23.7482695
8А,вуліца Савецкай Канстытуцыі,224023,52.1005983,23.7501717
3,вуліца Калесніка,224033,52.0730030,23.7219128
25,вуліца Марозава,224033,52.0760831,23.7262567
15,вуліца Марозава,224033,52.0757892,23.7238671
3,вуліца Марозава,224033,52.0754830,23.7213623
34,Піянерская вуліца,224020,52.1031455,23.7209213
8,Чырвонагвардзейская вуліца,224001,52.1058615,23.6804693
114Б/2,Чырвонагвардзейская вуліца,224024,52.1270588,23.6980092
340,Маскоўская вуліца,224023,52.1009688,23.7674569
346,Маскоўская вуліца,224023,52.1019142,23.7722940
8,набярэжная Францыска Скарыны,224013,52.0838252,23.7011350
8/1,набярэжная Францыска Скарыны,224013,52.0842999,23.7008062
38,набярэжная Францыска Скарыны,224013,52.0847461,23.7150948
34А,Рабінавая вуліца,224033,52.0714239,23.7340162
79А,Вулькаўская вуліца,224033,52.0713889,23.7321199
63B,Вулькаўская вуліца,224033,52.0711702,23.7326904
79Б,Вулькаўская вуліца,224033,52.0715530,23.7326799
79,Вулькаўская вуліца,224033,52.0710320,23.7305084
63Б,Вулькаўская вуліца,224033,52.0706594,23.7327264
63,Вулькаўская вуліца,224033,52.0701005,23.7325807
23А,вуліца Кастрычніцкай Рэвалюцыі,224011,52.0812232,23.7491681
65,бульвар Касманаўтаў,224016,52.0945469,23.6987709
78,вуліца Гогаля,224016,52.0940533,23.6982394
34,вуліца Леніна,224005,52.0931949,23.6860475
34,Рабінавая вуліца,224033,52.0711110,23.7346584
63А,Вулькаўская вуліца,224033,52.0703239,23.7331787
50,вуліца Янкі Купалы,224020,52.1050336,23.7370079
45,3-я Верасовая вуліца,224024,52.1330210,23.7073696
34,6-я Верасовая вуліца,224024,52.1346870,23.7111982
2,Валгаградская вуліца,224022,52.0718111,23.7555524
6А,Чырвонагвардзейская вуліца,224001,52.1054335,23.6796143
267,Маскоўская вуліца,224017,52.0962000,23.7596754
60А,Адамкоўская вуліца,224014,52.1061457,23.6503633
28/1,Рэчыцкая вуліца,224014,52.1067714,23.6494197
6/1,Рэчыцкая вуліца,224014,52.1066498,23.6523670
8/1,Рэчыцкая вуліца,224014,52.1066744,23.6521019
10А,Рэспубліканская вуліца,224001,52.1031186,23.6785318
10,Рэспубліканская вуліца,224001,52.1034257,23.6788986
26,вуліца 17 Верасня,224030,52.0875783,23.6935402
2,вуліца Міцкевіча,224005,52.0959835,23.6829137
7,Старазадворскі завулак,224028,52.1217287,23.7747601
20,вуліца Леванеўскага,224005,52.0932046,23.6780726
82,вуліца Кірава,224013,52.0905867,23.7039505
7,Валгаградская вуліца,224022,52.0745352,23.7588340
3,Прывакзальная плошча,224004,52.0997457,23.6778464
20,Паўночная вуліца,224001,52.1098207,23.6787379
52,Луцкая вуліца,224011,52.0814847,23.7404776
22,вуліца Лактыёнава,224007,52.1001099,23.7845566
54,Луцкая вуліца,224011,52.0780606,23.7510666
36А,Луцкая вуліца,224011,52.0779692,23.7485221
20,Луцкая вуліца,224011,52.0777119,23.7458996
20,вуліца Горкага,224016,52.1003276,23.6984546
