House number,Street name,Postal code,Latitude,Longitude
87,улица Горького,160014,59.2260100,39.9070363
70,проспект Победы,160004,59.2270537,39.8626250
6,улица Авксентьевского,160031,59.2188110,39.8733629
23,Новгородская улица,160022,59.1961941,39.8619536
17,Северная улица,160024,59.2181350,39.9384719
6,Северная улица,160029,59.2158350,39.9224240
38,улица Мира,160001,59.2177131,39.8823857
37,улица Дзержинского,160033,59.1869285,39.9195968
33,Окружное шоссе,160034,59.1928267,39.8361605
4,Советский проспект,160000,59.2186731,39.8923428
5,улица Клубова,160004,59.2345224,39.8287818
11,улица Батюшкова,160001,59.2197662,39.8838050
11,Кубинская улица,160010,59.2451739,39.8401334
20Б,улица Михаила Поповича,160010,59.2472436,39.8410349
64,улица Гагарина,160034,59.1984277,39.8236676
42,Судоремонтная улица,160029,59.2163645,39.9260875
45,улица Герцена,160011,59.2112770,39.8959339
18,Планерная улица,160023,59.2022113,39.8741331
32,улица Челюскинцев,160000,59.2141102,39.8769456
8,улица Ильюшина,160000,59.2103855,39.8162362
2,Псковская улица,160000,59.2011553,39.8296778
89,улица Карла Маркса,160000,59.2212109,39.9253927
48Б,Технический переулок,160032,59.1888770,39.9094497
50,Технический переулок,160032,59.1885418,39.9107371
3,Петрозаводская улица,160000,59.1919645,39.9332880
17,Окружное шоссе,160034,59.1979960,39.8244656
5,улица Беляева,160025,59.1956980,39.9170497
28,Окружное шоссе,160000,59.1939563,39.8288972
26,Окружное шоссе,160028,59.1949989,39.8263533
48А,Кирпичная улица,160002,59.2113125,39.8427400
22,Путейская улица,160009,59.2096668,39.8757119
3,Московское шоссе,160025,59.1897800,39.9386286
1225,улица Маршала Конева,160013,59.1937008,39.9014482
3,улица Щетинина,160002,59.2071310,39.8351670
72,Советский проспект,160012,59.2103663,39.9052237
33,Дальняя улица,160024,59.2213943,39.9446551
19,улица Лермонтова,160004,59.2201649,39.8937384
164,Советский проспект,160012,59.1976973,39.9240339
4,улица Мира,160000,59.2223329,39.8906158
48Б,Технический переулок,160032,59.1887703,39.9096718
131Б к8,Советский проспект,160014,59.1992885,39.9336430
9Д,Окружное шоссе,160000,59.2028629,39.8174597
60А,улица Саммера,160014,59.2322609,39.9356130
4,улица Ильюшина,160028,59.2106552,39.8200544
4,Благовещенская улица,160001,59.2200515,39.8846785
11,Вологодская Слобода,160000,59.2199006,39.9083703
52,улица Герцена,160004,59.2102810,39.8962101
38,улица Мира,160001,59.2172145,39.8823563
12,Окружное шоссе,160028,59.2029129,39.8135799
66,Зосимовская улица,160000,59.2090388,39.8878864
17,улица Маршала Конева,160032,59.1935194,39.9074688
10 к1,ГПЗ-23,156012,59.2147268,39.8220318
9,проспект Победы,160035,59.2211169,39.8869577
3 к1,ГПЗ-23,156012,59.2148633,39.8128248
31,Пошехонское шоссе,160022,59.1899755,39.8590887
11,улица Батюшкова,160001,59.2195529,39.8837702
7,ГПЗ-23,156012,59.2139476,39.8181104
120,улица Горького,160014,59.2226763,39.9130010
17,Торговая площадь,160035,59.2237003,39.8863067
97А,Ленинградская улица,160034,59.1992283,39.8234389
106Б,Козленская улица,160012,59.2060985,39.9071610
1Б,Псковская улица,160034,59.2015817,39.8319628
20/1,Псковская улица,160022,59.1946788,39.8473149
12,Советский проспект,160000,59.2175924,39.8939216
22,улица Саммера,160014,59.2272010,39.9158803
7,улица М.Ульяновой,160035,59.2186124,39.8886950
10,Промышленная улица,160012,59.2062155,39.9889189
1Б,Рабочая улица,160012,59.2032591,39.9166594
77,улица Энгельса,160019,59.2351552,39.8969938
8,улица Ильюшина,160028,59.2104492,39.8162923
11,Кубинская улица,160010,59.2453555,39.8393841
27,ГПЗ-23,160028,59.2111218,39.8189955
120Б,улица Горького,160014,59.2221782,39.9124845
2,ГПЗ-23,156012,59.2126254,39.8134278
5,ГПЗ-23,156012,59.2143643,39.8161349
26,ГПЗ-23,160028,59.2113963,39.8199689
80,улица Мира,160009,59.2126460,39.8802874
44,улица Можайского,160013,59.1999580,39.9021564
6 к2,ГПЗ-23,156012,59.2144074,39.8170299
1,улица М.Ульяновой,160035,59.2192388,39.8903680
12,Окружное шоссе,160028,59.2030676,39.8129070
74,Советский проспект,160012,59.2105657,39.9056540
9,улица Щетинина,160002,59.2086939,39.8327032
120А,улица Горького,160014,59.2225217,39.9118704
36,улица Мира,160001,59.2178944,39.8822404
103,улица Гоголя,160014,59.2221770,39.9115435
3,улица Ленина,160000,59.2212796,39.8934628
70,проспект Победы,160004,59.2270590,39.8631489
1,ГПЗ-23,160028,59.2110440,39.8134541
5,улица Клубова,160004,59.2344968,39.8286059
74В,улица Возрождения,160034,59.1964777,39.8321188
12,улица Луначарского,160010,59.2456029,39.8305077
20Б,улица Михаила Поповича,160010,59.2471258,39.8415066
33,ГПЗ-23,160028,59.2109581,39.8154100
4,ГПЗ-23,156012,59.2149640,39.8155014
6 к1,ГПЗ-23,156012,59.2152117,39.8180806
39,улица Мальцева,160009,59.2145274,39.8748827
9,Полевая улица,160010,59.2491008,39.8386995
6,улица Авксентьевского,160031,59.2186497,39.8732275
80А,улица Карла Маркса,160029,59.2187853,39.9263222
23А,Окружное шоссе,160034,59.1966244,39.8299000
24В,Залинейная улица,160010,59.2390027,39.8499539
24А,Петрозаводская улица,160033,59.1861289,39.9249970
28,ГПЗ-23,160028,59.2115432,39.8178928
17,Окружное шоссе,160034,59.1975799,39.8255379
34,ГПЗ-23,160028,59.2114049,39.8149958
4,Благовещенская улица,160001,59.2201946,39.8848444
29,ГПЗ-23,160028,59.2110381,39.8172610
101,улица Горького,160014,59.2228564,39.9143511
3 к2,ГПЗ-23,156012,59.2149904,39.8137596
37,улица Дзержинского,160033,59.1869622,39.9188169
41,улица Мальцева,160009,59.2140359,39.8740215
2,Псковская улица,160000,59.2010267,39.8293993
2,проспект Победы,160000,59.2216072,39.8892240
47,улица Челюскинцев,160009,59.2122583,39.8770007
20,улица Текстильщиков,160033,59.1887208,39.9203418
73,улица Энгельса,160019,59.2348354,39.8968414
3,ГПЗ-23,156012,59.2141856,39.8129688
6,улица Сергея Орлова,160035,59.2239106,39.8872303
38,улица Мира,160001,59.2171931,39.8823551
10 к2,ГПЗ-23,156012,59.2153480,39.8207729
164,Советский проспект,160012,59.1977139,39.9241881
121,Козленская улица,160012,59.1990506,39.9215625
97А,улица Герцена,160012,59.2059672,39.9058154
89,улица Гоголя,160014,59.2251216,39.9043673
134,Ленинградская улица,160002,59.2089427,39.8434188
38,улица Мира,160001,59.2177027,39.8823463
26,Канифольная улица,160024,59.2183888,39.9609532
12,улица Луначарского,160010,59.2450956,39.8313215
38,улица Мира,160001,59.2172184,39.8820902
4,Новгородская улица,160034,59.2033038,39.8424033
3,улица Южакова,160002,59.2096589,39.8421398
33,Ярославская улица,160022,59.1956469,39.8776512
4,улица Щетинина,160002,59.2086348,39.8346663
6,улица Щетинина,160002,59.2088883,39.8342203
8,улица Щетинина,160002,59.2091420,39.8337991
17Б,Окружное шоссе,160034,59.1979420,39.8246458
18,Окружное шоссе,160034,59.1989581,39.8184097
31,Фрязиновская улица,160024,59.2226418,39.9333026
101 к2,Ленинградская улица,160034,59.2005625,39.8280606
131Б к8,Советский проспект,160014,59.1993272,39.9335404
12,3-й Турундаевский переулок,160012,59.2070293,39.9504237
10Б,Северная улица,160029,59.2151199,39.9278046
16,Петрозаводская улица,160000,59.1896845,39.9281045
121,Козленская улица,160012,59.1990109,39.9213791
22,Новгородская улица,160022,59.1942391,39.8635204
26,Окружное шоссе,160028,59.1944390,39.8263532
12,Пригородная улица,160025,59.1908441,39.9117332
2Б,Судоремонтная улица,160029,59.2090288,39.9241294
1А,Рабочая улица,160012,59.2034597,39.9154107
51,Сиреневая улица,160021,59.2244286,39.7612757
35,Первомайская улица,160000,59.2083016,39.8945903
60А,Колхозная улица,160901,59.2710984,39.8959714
6,Алексинская улица,160901,59.2710352,39.8968014
52,улица Герцена,160004,59.2102796,39.8962122
12,Северная улица,160029,59.2153377,39.9289174
4,улица Прокатова,160029,59.2166811,39.9164205
8 к1,Псковская улица,160034,59.1991434,39.8334028
8В,Псковская улица,160034,59.1983552,39.8294572
8В1,Псковская улица,160034,59.1984700,39.8304858
1,Костромская улица,160034,59.2038788,39.8366764
12А,Псковская улица,160034,59.1982525,39.8331298
101 к1,Ленинградская улица,160034,59.1998103,39.8294023
13,Вологодская Слобода,160000,59.2201127,39.9083978
13А,Вологодская Слобода,160000,59.2203105,39.9084737
15,Вологодская Слобода,160000,59.2204955,39.9085666
22,улица Энгельса,160000,59.2286046,39.8913895
22А,улица Энгельса,160000,59.2284944,39.8917573
28,улица Горького,160000,59.2287235,39.8926585
7,улица Щетинина,160002,59.2081049,39.8334091
11Б,Вологодская Слобода,160000,59.2198986,39.9083467
31 к1,Молодёжная улица,160022,59.1910125,39.8737359
9Д,Окружное шоссе,160000,59.2028976,39.8173884
72,улица Некрасова,160014,59.2235910,39.9170500
72,улица Некрасова,160014,59.2231102,39.9155249
101,улица Горького,160014,59.2230318,39.9141762
101,улица Горького,160014,59.2229660,39.9142131
15,Копрецовская улица,160028,59.2184984,39.8047686
31 к2,Молодёжная улица,160022,59.1905446,39.8730137
31 к3,Молодёжная улица,160022,59.1899933,39.8732844
31 к4,Молодёжная улица,160022,59.1895514,39.8738215
42 к3,Новгородская улица,160022,59.1890680,39.8750079
2Ж,Окружное шоссе,160026,59.2214633,39.8180473
128А,Козленская улица,160012,59.2020590,39.9125422
136,Ленинградская улица,160002,59.2088932,39.8426908
6,Костромская улица,160034,59.2020609,39.8376439
26,Канифольная улица,160024,59.2190791,39.9601487
3В,Окружное шоссе,160034,59.2078577,39.8145244
29,Фрязиновская улица,160024,59.2221977,39.9317311
16Б,Пригородная улица,160032,59.1917754,39.9086676
113 к1,Козленская улица,160012,59.2026223,39.9149152
113,Козленская улица,160012,59.2027193,39.9154799
