House number,Street name,Postal code,Latitude,Longitude
10900,Park Road,40223,38.2692152,-85.5513398
10915,Park Road,40223,38.2700696,-85.5506470
11301,Park Road,40223,38.2680880,-85.5435141
11602,Valley View Road,40223,38.2711704,-85.5376582
11606,Hazelwood Road,40223,38.2656077,-85.5380377
11608,Hazelwood Road,40223,38.2657146,-85.5373716
11611,Valley View Road,40223,38.2730184,-85.5381796
11700,East Osage Road,40223,38.2675660,-85.5370069
11703,Hazelwood Road,40223,38.2667106,-85.5376540
11707,Hazelwood Road,40223,38.2663375,-85.5372482
11715,Hazelwood Road,40223,38.2666299,-85.5358927
11807,Spring Garden Lane,40223,38.2676288,-85.5349002
11816,Springhill Gardens Drive,40223,38.2733737,-85.5315617
11903,La Grange Road,40223,38.2752894,-85.5213311
12203,Owl Cove Place,40223,38.2746421,-85.5273204
12312,Forest School Lane,40223,38.2695007,-85.5259250
12313,Forest School Lane,40223,38.2703458,-85.5252671
12325,Forest School Lane,40223,38.2701251,-85.5243414
12337,Forest School Lane,40223,38.2710890,-85.5237726
12343,North Osage Road,40223,38.2726173,-85.5271868
12404,Lucas Lane,40223,38.2774456,-85.5224797
12600,North Osage Road,40223,38.2751602,-85.5301375
12802,North Osage Road,40223,38.2767013,-85.5324840
12805,North Osage Road,40223,38.2777249,-85.5308882
13002,North Osage Road,40223,38.2803477,-85.5337378
1304,Evergreen Road,40223,38.2640294,-85.5389110
1500,Cold Spring Road,40223,38.2660459,-85.5298544
1500,Evergreen Road,40223,38.2661257,-85.5398042
1602,Evergreen Road,40223,38.2680116,-85.5409920
1605,Osage Circle,40223,38.2688327,-85.5377596
1659,Cold Spring Road,40223,38.2677244,-85.5269400
1663,Cold Spring Road,40223,38.2689800,-85.5295710
1702,Stone Gate Road,40223,38.2688772,-85.5348299
1900,Stone Gate Road,40223,38.2689728,-85.5326723
2010,Evergreen Road,40223,38.2743300,-85.5447061
2111,Evergreen Road,40223,38.2768204,-85.5424407
2205,Evergreen Road,40223,38.2775584,-85.5415328
2220,Cave Spring Place,40223,38.2769384,-85.5257861
2221,Cave Spring Place,40223,38.2770681,-85.5249344
2404,Anchor Way,40223,38.2792136,-85.5207147
2412,Anchor Way,40223,38.2797926,-85.5206805
2600,Bushwood Road,40223,38.2793634,-85.5403943
2601,Bushwood Road,40223,38.2795730,-85.5393346
2701,Little Hills Lane,40223,38.2841036,-85.5225067
2808,South Winchester Acres Road,40223,38.2836148,-85.5190471
3311,South Winchester Acres Road,40223,38.2851869,-85.5269137
1101,Bellewood Road,40223,38.2609293,-85.5439412
11108,Ridge Road,40223,38.2657540,-85.5484323
11318,Ridge Road,40223,38.2655315,-85.5437555
11400,Ridge Road,40223,38.2653916,-85.5432296
11409,Owl Creek Lane,40223,38.2626820,-85.5417014
11418,Owl Creek Lane,40223,38.2593420,-85.5417091
11804,Ridge Road,40223,38.2618539,-85.5349747
11806,Ridge Road,40223,38.2618300,-85.5348942
11900,Woodland Road,40223,38.2587477,-85.5349015
12003,Ridge Road,40223,38.2625581,-85.5330890
12006,Woodland Road,40223,38.2601293,-85.5323851
12102,La Grange Road,40223,38.2626663,-85.5303783
603,Evergreen Road,40223,38.2547597,-85.5335223
805,Surrey Lane,40223,38.2582022,-85.5260321
807,Surrey Lane,40223,38.2586999,-85.5260792
1407,Somerhill Way,40223,38.2664549,-85.5542951
904,Old Harrods Creek Road,40223,38.2579565,-85.5495985
10613,La Grange Road,40223,38.2697680,-85.5517234
10903,Park Road,40223,38.2697147,-85.5512915
10905,Park Road,40223,38.2695189,-85.5508533
10907,Park Road,40223,38.2694069,-85.5505813
11001,Park Road,40223,38.2699076,-85.5496913
11003,Park Road,40223,38.2693922,-85.5491696
11005,Park Road,40223,38.2691399,-85.5483218
11103,Park Road,40223,38.2683165,-85.5439740
11112,Nutwood Road,40223,38.2792173,-85.5445120
11124,Nutwood Road,40223,38.2794603,-85.5440108
11200,Nutwood Road,40223,38.2796151,-85.5435368
11220,Nutwood Road,40223,38.2795414,-85.5427375
11300,Nutwood Road,40223,38.2799603,-85.5411940
11303,Park Road,40223,38.2681591,-85.5430410
11305,Park Road,40223,38.2677091,-85.5430828
11403,Park Road,40223,38.2671395,-85.5424453
11405,Park Road,40223,38.2666898,-85.5416138
11407,Valley View Road,40223,38.2719621,-85.5417202
11411,Park Road,40223,38.2673056,-85.5411051
11500,Valley View Road,40223,38.2707199,-85.5406546
11501,Park Road,40223,38.2660236,-85.5409456
11501,Valley View Road,40223,38.2720980,-85.5411729
11503,Park Road,40223,38.2657024,-85.5405943
11505,Valley View Road,40223,38.2723064,-85.5406215
11506,Park Road,40223,38.2651874,-85.5403981
11506,Valley View Road,40223,38.2702482,-85.5394719
11507,Park Road,40223,38.2655120,-85.5403121
11511,Valley View Road,40223,38.2725365,-85.5400667
11600,Valley View Road,40223,38.2707967,-85.5386344
11601,Valley View Road,40223,38.2726631,-85.5393333
11603,Hazelwood Road,40223,38.2659028,-85.5390132
11604,East Osage Road,40223,38.2668666,-85.5387730
11604,Hazelwood Road,40223,38.2655147,-85.5384794
11604,Little Lane,40223,38.2640942,-85.5381991
11605,Valley View Road,40223,38.2728209,-85.5388037
11606,East Osage Road,40223,38.2669872,-85.5382953
11607,East Osage Road,40223,38.2677271,-85.5388659
11607,Hazelwood Road,40223,38.2662410,-85.5383706
11608,Little Lane,40223,38.2641001,-85.5377500
11610,Hazelwood Road,40223,38.2657831,-85.5363322
11701,Hazelwood Road,40223,38.2663237,-85.5380012
11701,Little Lane,40223,38.2646342,-85.5384865
11701,Valley View Road,40223,38.2733715,-85.5376183
11703,East Osage Road,40223,38.2680821,-85.5375231
11703,Little Lane,40223,38.2647076,-85.5381102
11704,Little Lane,40223,38.2640051,-85.5371014
11705,Little Lane,40223,38.2647628,-85.5378007
11706,Little Lane,40223,38.2641453,-85.5366862
11707,Little Lane,40223,38.2648449,-85.5373936
11708,Little Lane,40223,38.2643043,-85.5363337
11709,East Osage Road,40223,38.2685676,-85.5366932
11709,Little Lane,40223,38.2650430,-85.5370619
11710,East Osage Road,40223,38.2679269,-85.5355904
11711,Hazelwood Road,40223,38.2668826,-85.5367528
11801,East Osage Road,40223,38.2691420,-85.5364599
11801,Springhill Gardens Drive,40223,38.2740125,-85.5344518
11804,East Osage Road,40223,38.2680661,-85.5350350
11804,Springhill Gardens Drive,40223,38.2734330,-85.5339877
11805,Springhill Gardens Drive,40223,38.2746231,-85.5338156
11806,East Osage Road,40223,38.2681530,-85.5347295
11808,East Osage Road,40223,38.2682479,-85.5344004
11808,Spring Garden Lane,40223,38.2670837,-85.5347047
11808,Springhill Gardens Drive,40223,38.2728274,-85.5335017
11809,Springhill Gardens Drive,40223,38.2749824,-85.5329497
11810,Hazelwood Road,40223,38.2660032,-85.5338747
11811,Hazelwood Road,40223,38.2667810,-85.5343544
11811,Spring Garden Lane,40223,38.2676943,-85.5345882
11812,Springhill Gardens Drive,40223,38.2730719,-85.5325442
11813,Springhill Gardens Drive,40223,38.2747557,-85.5313030
11817,Springhill Gardens Drive,40223,38.2742340,-85.5330177
11820,Springhill Gardens Drive,40223,38.2739411,-85.5309757
11900,East Osage Road,40223,38.2683237,-85.5340836
11900,Spring Garden Lane,40223,38.2672590,-85.5342341
11901,Creel Lodge Drive,40223,38.2706565,-85.5339767
11902,East Osage Road,40223,38.2684085,-85.5337366
11902,Spring Garden Lane,40223,38.2673760,-85.5339272
11903,Spring Garden Lane,40223,38.2679141,-85.5339537
11904,East Osage Road,40223,38.2684389,-85.5325710
11905,Creel Lodge Drive,40223,38.2708181,-85.5334613
11905,La Grange Road,40223,38.2761222,-85.5204550
11905,Spring Garden Lane,40223,38.2679871,-85.5335991
11911,Creel Lodge Drive,40223,38.2709069,-85.5330212
11914,Creel Lodge Drive,40223,38.2703623,-85.5323871
11915,Creel Lodge Drive,40223,38.2709618,-85.5325773
11921,Creel Lodge Drive,40223,38.2710995,-85.5320517
11926,Creel Lodge Drive,40223,38.2704885,-85.5318880
11929,Creel Lodge Drive,40223,38.2710876,-85.5315800
11933,Creel Lodge Drive,40223,38.2707788,-85.5311822
11937,Creel Lodge Drive,40223,38.2704005,-85.5310334
11941,Creel Lodge Drive,40223,38.2699475,-85.5309583
12000,East Osage Road,40223,38.2685934,-85.5320466
12000,Hazelwood Road,40223,38.2668743,-85.5321982
12004,East Osage Road,40223,38.2687361,-85.5314899
12004,Hazelwood Road,40223,38.2671003,-85.5315679
12005,East Osage Road,40223,38.2696420,-85.5329592
12005,Hazelwood Road,40223,38.2679532,-85.5316494
12007,Locust Lane,40223,38.2658766,-85.5317603
12009,Hazelwood Road,40223,38.2680732,-85.5310060
1203,Elm Road,40223,38.2634151,-85.5337747
1205,Elm Road,40223,38.2635911,-85.5343960
12100,Hazelwood Road,40223,38.2673306,-85.5309192
12101,Locust Lane,40223,38.2660006,-85.5313249
12102,East Osage Road,40223,38.2698203,-85.5296572
12103,Hazelwood Road,40223,38.2683138,-85.5304282
12103,Locust Lane,40223,38.2660156,-85.5308817
12104,Locust Lane,40223,38.2650225,-85.5302866
12106,East Osage Road,40223,38.2695317,-85.5289293
12106,Locust Lane,40223,38.2649424,-85.5297948
12107,Locust Lane,40223,38.2657348,-85.5296948
12108,Locust Lane,40223,38.2647405,-85.5293951
12200,Lucas Lane,40223,38.2766121,-85.5281207
12200,Owl Cove Place,40223,38.2735997,-85.5276764
12201,Owl Cove Place,40223,38.2742691,-85.5280315
12202,East Osage Road,40223,38.2702021,-85.5280643
12202,Holly Lane,40223,38.2719228,-85.5269986
12202,Lucas Lane,40223,38.2766087,-85.5276803
12202,Owl Cove Place,40223,38.2738156,-85.5269569
12203,Lucas Lane,40223,38.2774022,-85.5284524
12204,East Osage Road,40223,38.2693898,-85.5276497
12204,Locust Lane,40223,38.2650431,-85.5287750
12204,Lucas Lane,40223,38.2766494,-85.5271264
12204,Owl Cove Place,40223,38.2744265,-85.5266157
12205,Lucas Lane,40223,38.2778526,-85.5273605
12206,East Osage Road,40223,38.2699567,-85.5269319
12206,Lucas Lane,40223,38.2766666,-85.5264426
12207,Locust Lane,40223,38.2658562,-85.5283189
12207,Old Lucas Lane,40223,38.2753392,-85.5277357
12208,East Osage Road,40223,38.2705112,-85.5272327
12208,Locust Lane,40223,38.2652735,-85.5279381
12209,Locust Lane,40223,38.2660152,-85.5278828
12209,Old Lucas Lane,40223,38.2754543,-85.5272222
12300,Forest School Lane,40223,38.2707620,-85.5267207
12300,Holly Lane,40223,38.2721014,-85.5265839
12300,Locust Lane,40223,38.2653721,-85.5276210
12300,Owl Court,40223,38.2745098,-85.5258923
12301,Forest School Lane,40223,38.2713365,-85.5266984
12301,Locust Lane,40223,38.2661865,-85.5273412
12301,Old Lucas Lane,40223,38.2755299,-85.5267310
12302,Locust Lane,40223,38.2657569,-85.5271790
12303,Old Lucas Lane,40223,38.2757397,-85.5262771
12304,Forest School Lane,40223,38.2714390,-85.5254542
12306,Forest School Lane,40223,38.2700085,-85.5260630
12306,Holly Lane,40223,38.2725278,-85.5253984
12306,Mistletoe Road,40223,38.2717936,-85.5260653
12307,Forest School Lane,40223,38.2708559,-85.5258695
12307,Holly Lane,40223,38.2729350,-85.5262263
12309,Holly Lane,40223,38.2734107,-85.5259182
12310,Holly Lane,40223,38.2729609,-85.5250168
12310,Owl Court,40223,38.2742440,-85.5253508
12311,Holly Lane,40223,38.2736874,-85.5252764
12311,Owl Court,40223,38.2750104,-85.5258309
12312,Holly Lane,40223,38.2735651,-85.5247501
12318,Forest School Lane,40223,38.2690385,-85.5256150
12319,Forest School Lane,40223,38.2696353,-85.5248881
12324,Forest School Lane,40223,38.2688709,-85.5250796
12331,Forest School Lane,40223,38.2706778,-85.5240207
12342,Forest School Lane,40223,38.2724707,-85.5226320
12343,Forest School Lane,40223,38.2715108,-85.5234274
12345,North Osage Road,40223,38.2733293,-85.5267476
12348,Forest School Lane,40223,38.2727587,-85.5233040
12349,Forest School Lane,40223,38.2721000,-85.5233662
12354,Forest School Lane,40223,38.2730093,-85.5240035
12355,Forest School Lane,40223,38.2724743,-85.5242517
12400,Lucas Lane,40223,38.2767259,-85.5238151
12400,North Osage Road,40223,38.2725953,-85.5284783
12401,Lucas Lane,40223,38.2785095,-85.5247140
12401,Mistletoe Road,40223,38.2720894,-85.5249669
12404,Mistletoe Road,40223,38.2712099,-85.5246527
12405,Mistletoe Road,40223,38.2718032,-85.5244512
12407,Lucas Lane,40223,38.2784752,-85.5239264
12409,Lucas Lane,40223,38.2786624,-85.5230404
12413,Lucas Lane,40223,38.2789121,-85.5222239
12422,Captains Bridge Way,40223,38.2818247,-85.5222588
12501,Captains Bridge Way,40223,38.2827077,-85.5226450
12502,Lucas Lane,40223,38.2776364,-85.5219995
12504,Captains Bridge Way,40223,38.2819592,-85.5217144
12504,Lucas Lane,40223,38.2779259,-85.5216336
12505,North Osage Road,40223,38.2751039,-85.5282680
12506,Lucas Lane,40223,38.2773075,-85.5209479
12507,North Osage Road,40223,38.2754591,-85.5284558
12509,North Osage Road,40223,38.2759509,-85.5286143
12600,Woodington Place,40223,38.2859572,-85.5218396
12601,North Osage Road,40223,38.2763952,-85.5288126
12601,Woodington Place,40223,38.2859882,-85.5215431
12605,Crest Arm Road,40223,38.2836553,-85.5204290
12609,Crest Arm Road,40223,38.2833211,-85.5198038
12611,Crest Arm Road,40223,38.2828313,-85.5196287
12627,North Osage Road,40223,38.2771855,-85.5300050
12700,East Cove Road,40223,38.2819238,-85.5187969
12700,Lucas Lane,40223,38.2778229,-85.5193995
12702,East Cove Road,40223,38.2823973,-85.5184850
12702,Lucas Lane,40223,38.2773241,-85.5196523
12800,North Osage Road,40223,38.2766633,-85.5310191
12804,North Osage Road,40223,38.2770060,-85.5342634
12806,North Osage Road,40223,38.2773064,-85.5332346
12808,North Osage Road,40223,38.2776370,-85.5321902
12809,North Osage Road,40223,38.2786060,-85.5315480
12900,North Osage Road,40223,38.2777745,-85.5337111
12902,North Osage Road,40223,38.2787108,-85.5329467
12903,North Osage Road,40223,38.2791481,-85.5317570
12906,North Osage Road,40223,38.2791706,-85.5329221
1300,Elm Road,40223,38.2633333,-85.5357751
1300,Glenbrook Road,40223,38.2630635,-85.5321748
13000,North Osage Road,40223,38.2789068,-85.5346591
13004,North Osage Road,40223,38.2808274,-85.5339668
13006,North Osage Road,40223,38.2814328,-85.5355642
13008,North Osage Road,40223,38.2819723,-85.5347302
1301,Glenbrook Road,40223,38.2634145,-85.5309821
1302,Elm Road,40223,38.2637798,-85.5358746
1302,Glenbrook Road,40223,38.2634856,-85.5323219
1303,Elm Road,40223,38.2640978,-85.5342912
1304,Elm Road,40223,38.2640251,-85.5360055
1305,Glenbrook Road,40223,38.2638939,-85.5309883
1306,Elm Road,40223,38.2644291,-85.5358882
1306,Evergreen Road,40223,38.2647800,-85.5398086
1306,Glenbrook Road,40223,38.2640823,-85.5325779
1307,Glenbrook Road,40223,38.2644970,-85.5310638
1308,Glenbrook Road,40223,38.2647058,-85.5330651
1310,Glenbrook Road,40223,38.2652055,-85.5326264
13100,North Osage Road,40223,38.2798248,-85.5350540
1312,Glenbrook Road,40223,38.2659592,-85.5329190
1313,Glenbrook Road,40223,38.2649158,-85.5312427
1400,Cold Spring Road,40223,38.2639837,-85.5293647
1400,Elm Road,40223,38.2649329,-85.5359924
1400,Evergreen Road,40223,38.2652107,-85.5395716
1401,Cold Spring Road,40223,38.2644833,-85.5284799
1401,Elm Road,40223,38.2649620,-85.5342529
1401,Evergreen Road,40223,38.2650407,-85.5387116
1402,Cold Spring Road,40223,38.2643768,-85.5294389
1402,Elm Road,40223,38.2652956,-85.5360735
1402,Evergreen Road,40223,38.2654618,-85.5395467
1403,Evergreen Road,40223,38.2652802,-85.5388365
1404,Elm Road,40223,38.2655402,-85.5361234
1404,Evergreen Road,40223,38.2656666,-85.5396176
1405,Elm Road,40223,38.2655963,-85.5348765
1407,Cold Spring Road,40223,38.2657289,-85.5288032
1407,Glenbrook Road,40223,38.2662993,-85.5321036
1411,Evergreen Road,40223,38.2655213,-85.5389854
1413,Evergreen Road,40223,38.2658732,-85.5392224
1415,Evergreen Road,40223,38.2663215,-85.5390881
1501,Cold Spring Road,40223,38.2664965,-85.5285375
1502,Cold Spring Road,40223,38.2664634,-85.5299893
1502,Hobbs Park Road,40223,38.2666110,-85.5351829
1503,Cold Spring Road,40223,38.2668637,-85.5275149
1503,Evergreen Road,40223,38.2669087,-85.5393266
1504,Cold Spring Road,40223,38.2672974,-85.5301818
1504,Glenbrook Road,40223,38.2670248,-85.5335297
1504,Hobbs Park Road,40223,38.2668339,-85.5352591
1509,Cold Spring Road,40223,38.2676431,-85.5282915
1510,Hobbs Park Road,40223,38.2675100,-85.5354463
1515,Cold Spring Road,40223,38.2682418,-85.5292788
1600,Caring Way,40223,38.2683370,-85.5456588
1600,Glenbrook Road,40223,38.2674537,-85.5334910
1601,Caring Way,40223,38.2685855,-85.5445912
1601,Evergreen Road,40223,38.2675407,-85.5396296
1601,Osage Circle,40223,38.2680380,-85.5379670
1603,Evergreen Road,40223,38.2679291,-85.5398756
1603,Glenbrook Road,40223,38.2677870,-85.5324662
1604,Caring Way,40223,38.2691137,-85.5454541
1604,Osage Circle,40223,38.2682325,-85.5392120
1605,Caring Way,40223,38.2689417,-85.5439636
1605,Evergreen Road,40223,38.2683450,-85.5399431
1606,Caring Way,40223,38.2694382,-85.5455578
1606,Osage Circle,40223,38.2686382,-85.5385890
1607,Evergreen Road,40223,38.2690068,-85.5400398
1608,Caring Way,40223,38.2696899,-85.5460877
1610,Caring Way,40223,38.2692998,-85.5463645
1612,Caring Way,40223,38.2689731,-85.5462549
1661,Cold Spring Road,40223,38.2685218,-85.5274985
1700,Cold Spring Road,40223,38.2689351,-85.5307658
1700,Evergreen Road,40223,38.2692529,-85.5413716
1701,Evergreen Road,40223,38.2698758,-85.5402442
1702,Evergreen Road,40223,38.2696297,-85.5416030
1704,Evergreen Road,40223,38.2696657,-85.5420152
1704,Stone Gate Road,40223,38.2695404,-85.5350909
1705,Cold Spring Road,40223,38.2693903,-85.5297056
1705,Evergreen Road,40223,38.2701974,-85.5404309
1706,Magnolia Lane,40223,38.2706876,-85.5484848
1707,Magnolia Lane,40223,38.2703504,-85.5477947
1707,Spring Hill Drive,40223,38.2703614,-85.5498249
1710,Spring Hill Drive,40223,38.2705696,-85.5506276
1711,Spring Hill Drive,40223,38.2705552,-85.5492861
1720,Evergreen Road,40223,38.2704961,-85.5410966
1800,Evergreen Road,40223,38.2700890,-85.5419256
1800,Spring Hill Court,40223,38.2708075,-85.5510077
1800,Stone Gate Road,40223,38.2700150,-85.5353014
1801,Spring Hill Drive,40223,38.2710340,-85.5490185
1802,Evergreen Road,40223,38.2709600,-85.5424911
1802,Spring Hill Court,40223,38.2711466,-85.5508942
1802,Stone Gate Road,40223,38.2705539,-85.5354885
1803,Spring Hill Drive,40223,38.2712261,-85.5495345
1804,Spring Hill Court,40223,38.2712401,-85.5503334
1805,Spring Hill Drive,40223,38.2711430,-85.5499094
1806,Stone Gate Road,40223,38.2707792,-85.5366376
1820,Evergreen Road,40223,38.2716186,-85.5428212
1901,Stone Gate Road,40223,38.2712540,-85.5343051
1902,Evergreen Road,40223,38.2721249,-85.5429836
1904,Stone Gate Road,40223,38.2713467,-85.5366682
1904,Stone Gate Road,40223,38.2718325,-85.5369776
1905,Stone Gate Road,40223,38.2718988,-85.5346996
1908,Evergreen Road,40223,38.2725786,-85.5433307
2000,Evergreen Road,40223,38.2729217,-85.5435904
2000,Stone Gate Road,40223,38.2739304,-85.5367309
2001,Homewood Drive,40223,38.2752363,-85.5357214
2002,Evergreen Road,40223,38.2734165,-85.5435863
2003,Evergreen Road,40223,38.2748956,-85.5406911
2004,Stone Gate Road,40223,38.2751184,-85.5381527
2005,Evergreen Road,40223,38.2722102,-85.5416323
2006,Evergreen Road,40223,38.2733419,-85.5446261
2006,Stone Gate Road,40223,38.2763075,-85.5375337
2007,Evergreen Road,40223,38.2753185,-85.5417772
2008,Evergreen Road,40223,38.2740931,-85.5438862
2100,Cave Spring Place,40223,38.2735619,-85.5225737
2101,Cave Spring Place,40223,38.2742453,-85.5223012
2103,Evergreen Road,40223,38.2751521,-85.5432531
2104,Evergreen Road,40223,38.2756216,-85.5459759
2105,Evergreen Road,40223,38.2756124,-85.5434949
2106,Homewood Drive,40223,38.2766259,-85.5360105
2107,Evergreen Road,40223,38.2762561,-85.5437273
2109,Evergreen Road,40223,38.2768777,-85.5414036
2110,Cave Spring Place,40223,38.2737735,-85.5232975
2111,Cave Spring Place,40223,38.2746904,-85.5229240
2120,Cave Spring Place,40223,38.2741529,-85.5238030
2121,Cave Spring Place,40223,38.2751304,-85.5236728
2125,Cave Spring Place,40223,38.2759995,-85.5237245
2130,Cave Spring Place,40223,38.2744967,-85.5244792
2200,Cave Spring Place,40223,38.2752932,-85.5250732
2200,Homewood Drive,40223,38.2773951,-85.5367965
2201,Cave Spring Place,40223,38.2759408,-85.5244252
2201,Evergreen Road,40223,38.2766575,-85.5431693
2204,Evergreen Road,40223,38.2763611,-85.5453175
2207,Evergreen Road,40223,38.2771548,-85.5442214
2207,Homewood Drive,40223,38.2760402,-85.5346051
2210,Cave Spring Place,40223,38.2758829,-85.5255113
2211,Homewood Drive,40223,38.2772135,-85.5351898
2300,Cave Spring Place,40223,38.2782106,-85.5264198
2300,Evergreen Road,40223,38.2772963,-85.5452574
2300,Homewood Drive,40223,38.2786905,-85.5376291
2301,Evergreen Road,40223,38.2774870,-85.5444050
2301,Homewood Drive,40223,38.2790019,-85.5362971
2302,Evergreen Road,40223,38.2779441,-85.5457050
2303,Evergreen Road,40223,38.2776209,-85.5431332
2304,Evergreen Road,40223,38.2784770,-85.5459589
2305,Cave Spring Place,40223,38.2790457,-85.5255088
2305,Evergreen Road,40223,38.2788307,-85.5430143
2307,Evergreen Road,40223,38.2782824,-85.5447529
2309,Evergreen Road,40223,38.2786824,-85.5448986
2400,Anchor Way,40223,38.2787667,-85.5203321
2400,Greten Lane,40223,38.2806607,-85.5318402
2401,Greten Lane,40223,38.2796437,-85.5319229
2403,Anchor Way,40223,38.2786354,-85.5190410
2403,Cave Spring Place,40223,38.2800655,-85.5258185
2403,Evergreen Road,40223,38.2792094,-85.5451597
2403,Greten Lane,40223,38.2797176,-85.5308203
2404,Evergreen Road,40223,38.2789102,-85.5461136
2405,Anchor Way,40223,38.2790994,-85.5193069
2405,Greten Lane,40223,38.2802163,-85.5298748
2406,Cave Spring Place,40223,38.2793769,-85.5270585
2406,Greten Lane,40223,38.2814358,-85.5322861
2407,Anchor Way,40223,38.2794780,-85.5195117
2407,Cave Spring Place,40223,38.2809886,-85.5262838
2407,Greten Lane,40223,38.2817804,-85.5309404
2408,Greten Lane,40223,38.2824144,-85.5326313
2409,Greten Lane,40223,38.2825483,-85.5315348
2500,Nutwood Drive,40223,38.2798288,-85.5381284
2501,Little Hills Lane,40223,38.2796116,-85.5212351
2501,Nutwood Drive,40223,38.2803186,-85.5371253
2502,Anchor Way,40223,38.2802770,-85.5209249
2503,Little Hills Lane,40223,38.2805312,-85.5216128
2504,Anchor Way,40223,38.2807610,-85.5207948
2504,Little Hills Lane,40223,38.2804910,-85.5227230
2505,Anchor Way,40223,38.2800943,-85.5198092
2505,Nutwood Drive,40223,38.2809061,-85.5373822
2506,Cave Spring Place,40223,38.2801146,-85.5282091
2506,Nutwood Drive,40223,38.2804121,-85.5387410
2507,Cave Spring Place,40223,38.2819106,-85.5264430
2509,Anchor Way,40223,38.2805610,-85.5198870
2509,Nutwood Drive,40223,38.2815316,-85.5376455
2600,Anchor Way,40223,38.2814511,-85.5208760
2600,Little Hills Lane,40223,38.2815259,-85.5236632
2600,Nutwood Drive,40223,38.2810735,-85.5389472
2601,Little Hills Lane,40223,38.2809867,-85.5217981
2602,Cave Spring Place,40223,38.2809434,-85.5281495
2603,Little Hills Lane,40223,38.2813388,-85.5219767
2605,Anchor Way,40223,38.2818341,-85.5199539
2608,Cave Spring Place,40223,38.2816680,-85.5285730
2609,Anchor Way,40223,38.2825098,-85.5202067
2609,Cave Spring Place,40223,38.2828080,-85.5274422
2631,Bushwood Road,40223,38.2804506,-85.5398102
2700,Anchor Way,40223,38.2821571,-85.5211370
2700,Little Hills Lane,40223,38.2823282,-85.5240264
2701,Anchor Way,40223,38.2830498,-85.5211341
2701,Cave Spring Place,40223,38.2836364,-85.5274639
2703,Little Hills Lane,40223,38.2831745,-85.5227029
2704,Cave Spring Place,40223,38.2825014,-85.5288357
2704,Little Hills Lane,40223,38.2828958,-85.5238538
2705,Cave Spring Place,40223,38.2836767,-85.5284438
2708,Cave Spring Place,40223,38.2832483,-85.5289983
2709,Anchor Way,40223,38.2834895,-85.5214005
2800,Little Hills Lane,40223,38.2839627,-85.5248026
2801,Little Hills Lane,40223,38.2845367,-85.5235655
2802,South Winchester Acres Road,40223,38.2830513,-85.5181389
2804,South Winchester Acres Road,40223,38.2833518,-85.5186405
2805,Little Hills Lane,40223,38.2853545,-85.5237623
2806,Little Hills Lane,40223,38.2847708,-85.5250399
2810,South Winchester Acres Road,40223,38.2838895,-85.5193441
3006,South Winchester Acres Road,40223,38.2861863,-85.5219939
3008,South Winchester Acres Road,40223,38.2862729,-85.5225770
3010,South Winchester Acres Road,40223,38.2863170,-85.5228423
3012,South Winchester Acres Road,40223,38.2863136,-85.5230811
3018,South Winchester Acres Road,40223,38.2863680,-85.5233602
3225,South Winchester Acres Road,40223,38.2847599,-85.5286398
3227,South Winchester Acres Road,40223,38.2846956,-85.5283791
3301,South Winchester Acres Road,40223,38.2848240,-85.5281708
3303,South Winchester Acres Road,40223,38.2848699,-85.5279224
3305,South Winchester Acres Road,40223,38.2849227,-85.5277176
3307,South Winchester Acres Road,40223,38.2850062,-85.5274690
3309,South Winchester Acres Road,40223,38.2850706,-85.5272777
3313,South Winchester Acres Road,40223,38.2852886,-85.5264488
3315,South Winchester Acres Road,40223,38.2853530,-85.5262469
3317,South Winchester Acres Road,40223,38.2854185,-85.5259831
3319,South Winchester Acres Road,40223,38.2854873,-85.5257885
3321,South Winchester Acres Road,40223,38.2855544,-85.5255319
3401,South Winchester Acres Road,40223,38.2855963,-85.5252646
3403,South Winchester Acres Road,40223,38.2856839,-85.5250279
3405,South Winchester Acres Road,40223,38.2857674,-85.5247950
3407,South Winchester Acres Road,40223,38.2858160,-85.5245729
3409,South Winchester Acres Road,40223,38.2859323,-85.5243379
3411,South Winchester Acres Road,40223,38.2860860,-85.5241662
11505,Park Road,40223,38.2656619,-85.5403446
1000,Bellewood Road,40223,38.2598633,-85.5464351
1001,Anchorage Woods Circle,40223,38.2604673,-85.5442571
1001,Old Harrods Creek Road,40223,38.2598314,-85.5490239
1002,Anchorage Woods Circle,40223,38.2599386,-85.5437125
1003,Anchorage Woods Circle,40223,38.2604846,-85.5437333
1003,Old Harrods Creek Road,40223,38.2602077,-85.5490629
1004,Anchorage Woods Circle,40223,38.2599247,-85.5431263
1005,Anchorage Woods Circle,40223,38.2606059,-85.5429306
1005,Old Harrods Creek Road,40223,38.2606178,-85.5492414
1006,Bellewood Road,40223,38.2606921,-85.5452447
1006,Evergreen Road,40223,38.2601573,-85.5371495
1007,Anchorage Woods Circle,40223,38.2602903,-85.5423287
1007,Old Harrods Creek Road,40223,38.2610172,-85.5493729
1008,Evergreen Road,40223,38.2605899,-85.5373940
1009,Anchorage Woods Circle,40223,38.2597704,-85.5422842
1010,Anchorage Woods Circle,40223,38.2594264,-85.5431337
1011,Anchorage Woods Circle,40223,38.2591919,-85.5423350
1012,Anchorage Woods Circle,40223,38.2589115,-85.5429971
1013,Anchorage Woods Circle,40223,38.2586234,-85.5422044
1017,Anchorage Woods Circle,40223,38.2577123,-85.5426592
1019,Anchorage Woods Circle,40223,38.2577701,-85.5433472
1021,Anchorage Woods Circle,40223,38.2579457,-85.5438476
1022,Anchorage Woods Circle,40223,38.2583832,-85.5435395
1023,Anchorage Woods Circle,40223,38.2582737,-85.5443267
1024,Anchorage Woods Circle,40223,38.2588916,-85.5437227
1025,Anchorage Woods Circle,40223,38.2587855,-85.5443923
1026,Anchorage Woods Circle,40223,38.2594343,-85.5437212
1029,Anchorage Woods Circle,40223,38.2598097,-85.5444671
1100,Bellewood Road,40223,38.2613089,-85.5452961
11002,Ridge Road,40223,38.2678238,-85.5497605
11007,Owl Creek Lane,40223,38.2641966,-85.5495107
11011,Owl Creek Lane,40223,38.2653229,-85.5487767
1102,Bellewood Road,40223,38.2611976,-85.5463173
1104,Bellewood Road,40223,38.2617240,-85.5454634
1107,Old Harrods Creek Road,40223,38.2617647,-85.5499575
11100,Cherry Lane,40223,38.2614808,-85.5480987
11100,Ridge Road,40223,38.2671771,-85.5490979
11102,Owl Creek Lane,40223,38.2626197,-85.5492519
11102,Ridge Road,40223,38.2672971,-85.5482741
11104,Owl Creek Lane,40223,38.2628230,-85.5483017
11104,Ridge Road,40223,38.2669670,-85.5478799
11105,Owl Creek Lane,40223,38.2644595,-85.5485913
11106,Beech Road,40223,38.2566987,-85.5479648
11106,Cherry Lane,40223,38.2615155,-85.5475282
11106,Owl Creek Lane,40223,38.2631035,-85.5475603
11106,Ridge Road,40223,38.2670915,-85.5472384
11107,Owl Creek Lane,40223,38.2648309,-85.5475634
11108,Beech Road,40223,38.2567993,-85.5475583
11109,Cherry Lane,40223,38.2619912,-85.5479456
1111,Bellewood Road,40223,38.2614942,-85.5438641
11111,Beech Road,40223,38.2580365,-85.5478118
1115,Bellewood Road,40223,38.2621991,-85.5442595
1116,Bellewood Road,40223,38.2625522,-85.5464984
11200,Beech Road,40223,38.2569089,-85.5469410
11200,Cherry Lane,40223,38.2616591,-85.5468450
11203,Beech Road,40223,38.2581733,-85.5472149
11205,Beech Road,40223,38.2581690,-85.5468082
11207,Beech Road,40223,38.2581349,-85.5456281
11300,Ridge Road,40223,38.2666623,-85.5451802
11308,Owl Creek Lane,40223,38.2619110,-85.5433672
11310,Ridge Road,40223,38.2665384,-85.5445259
11401,Owl Creek Lane,40223,38.2631748,-85.5429128
11404,Owl Creek Lane,40223,38.2616274,-85.5425917
11405,Owl Creek Lane,40223,38.2630149,-85.5422255
11406,Ridge Road,40223,38.2646977,-85.5427490
11409,Willow Lane,40223,38.2572684,-85.5422866
11410,Owl Creek Lane,40223,38.2612682,-85.5419955
11411,Owl Creek Lane,40223,38.2624954,-85.5412063
11500,Arbor Court,40223,38.2534075,-85.5425211
11500,Redwood Way,40223,38.2547774,-85.5431243
11500,Ridge Road,40223,38.2645647,-85.5419562
11501,Arbor Court,40223,38.2539244,-85.5427078
11501,Cedardale Road,40223,38.2520488,-85.5419176
11501,Redwood Way,40223,38.2552407,-85.5430132
11501,Willow Lane,40223,38.2572714,-85.5418018
11502,Anchorage Woods Court,40223,38.2580452,-85.5413460
11502,Arbor Court,40223,38.2533576,-85.5420605
11502,Redwood Way,40223,38.2545893,-85.5425739
11503,Anchorage Woods Court,40223,38.2587160,-85.5415558
11503,Arbor Court,40223,38.2541277,-85.5421629
11503,Willow Lane,40223,38.2573647,-85.5413310
11504,Anchorage Woods Court,40223,38.2582248,-85.5407986
11504,Arbor Court,40223,38.2535269,-85.5417047
11504,Ridge Road,40223,38.2644120,-85.5411883
11505,Anchorage Woods Court,40223,38.2586488,-85.5409661
11506,Arbor Court,40223,38.2536396,-85.5411773
11508,East Arbor Drive,40223,38.2537250,-85.5407001
11508,Ridge Road,40223,38.2639067,-85.5407040
11509,Cedardale Road,40223,38.2522219,-85.5411812
11509,Owl Creek Lane,40223,38.2617086,-85.5395902
11511,Cedardale Road,40223,38.2527745,-85.5415190
11515,Cedardale Road,40223,38.2529672,-85.5408106
11600,East Arbor Drive,40223,38.2538239,-85.5402009
11600,East Arbor Drive,40223,38.2534293,-85.5402483
11600,Owl Creek Lane,40223,38.2605672,-85.5411886
11600,Ridge Road,40223,38.2636471,-85.5402797
11601,Cedardale Road,40223,38.2525406,-85.5406169
11602,East Arbor Drive,40223,38.2539658,-85.5397093
11602,Owl Creek Lane,40223,38.2594620,-85.5409244
11602,Ridge Road,40223,38.2634332,-85.5397931
11604,Owl Creek Lane,40223,38.2603519,-85.5394713
11605,Cedardale Road,40223,38.2525327,-85.5400044
11607,Owl Creek Lane,40223,38.2616382,-85.5387487
11608,Owl Creek Lane,40223,38.2600096,-85.5385222
11700,Owl Creek Lane,40223,38.2606873,-85.5380082
11701,Cedardale Road,40223,38.2530304,-85.5394550
11701,East Arbor Drive,40223,38.2547335,-85.5391779
11702,East Arbor Drive,40223,38.2540774,-85.5391893
11703,Cedardale Road,40223,38.2529849,-85.5389209
11704,East Arbor Drive,40223,38.2541873,-85.5386402
11704,Owl Creek Lane,40223,38.2609019,-85.5375104
11705,Cedardale Road,40223,38.2531028,-85.5383611
11705,East Arbor Drive,40223,38.2548499,-85.5385750
11705,Owl Creek Lane,40223,38.2618675,-85.5380769
11706,East Arbor Drive,40223,38.2543105,-85.5382008
11707,Cedardale Road,40223,38.2532088,-85.5380361
11708,East Arbor Drive,40223,38.2544030,-85.5377885
11709,Cedardale Road,40223,38.2532853,-85.5377367
11710,East Arbor Drive,40223,38.2545434,-85.5373326
11711,Cedardale Road,40223,38.2533705,-85.5374155
11800,East Arbor Drive,40223,38.2546583,-85.5369012
11801,Cedardale Road,40223,38.2534163,-85.5371217
11801,East Arbor Drive,40223,38.2551194,-85.5376525
11803,Cedardale Road,40223,38.2534683,-85.5368314
11803,East Arbor Drive,40223,38.2553240,-85.5368585
11805,Cedardale Road,40223,38.2536580,-85.5362539
11805,East Arbor Drive,40223,38.2553364,-85.5357685
11806,East Arbor Drive,40223,38.2547567,-85.5363142
11808,East Arbor Drive,40223,38.2546878,-85.5357892
11815,Cedardale Road,40223,38.2541648,-85.5361239
11900,East Arbor Drive,40223,38.2545860,-85.5353362
11902,East Arbor Drive,40223,38.2544638,-85.5347345
11905,Cedardale Road,40223,38.2538235,-85.5354509
11907,Cedardale Road,40223,38.2539077,-85.5350636
11909,Cedardale Road,40223,38.2539513,-85.5344614
1201,Maple Lane,40223,38.2621740,-85.5396931
1203,Old Harrods Creek Road,40223,38.2638014,-85.5504822
1205,Maple Lane,40223,38.2626714,-85.5394152
1205,Old Harrods Creek Road,40223,38.2645952,-85.5508571
1206,Maple Lane,40223,38.2626475,-85.5403554
1208,Evergreen Road,40223,38.2629127,-85.5385795
1209,Maple Lane,40223,38.2629418,-85.5391693
1213,Maple Lane,40223,38.2632436,-85.5389432
1305,Bellewood Road,40223,38.2635284,-85.5435638
1306,Bellewood Road,40223,38.2645210,-85.5442617
1400,Walnut Lane,40223,38.2650089,-85.5467533
1401,Old Harrods Creek Road,40223,38.2650803,-85.5511976
1401,Walnut Lane,40223,38.2643906,-85.5453849
1403,Old Harrods Creek Road,40223,38.2659348,-85.5512851
1403,Walnut Lane,40223,38.2650935,-85.5454553
1404,Walnut Lane,40223,38.2660262,-85.5469709
1405,Walnut Lane,40223,38.2657787,-85.5452412
1407,Walnut Lane,40223,38.2662404,-85.5451525
1408,Walnut Lane,40223,38.2664487,-85.5467726
1409,Old Harrods Creek Road,40223,38.2665262,-85.5510441
1500,Ridge Court,40223,38.2663496,-85.5501287
1500,Walnut Lane,40223,38.2671725,-85.5463127
1501,Ridge Court,40223,38.2660609,-85.5492973
1502,Walnut Lane,40223,38.2670804,-85.5467732
1503,Ridge Court,40223,38.2660121,-85.5498537
1505,Old Harrods Creek Road,40223,38.2674451,-85.5512669
1506,Ridge Court,40223,38.2673446,-85.5499721
1509,Old Harrods Creek Road,40223,38.2677570,-85.5509770
1603,Old Harrods Creek Road,40223,38.2681753,-85.5509194
1607,Old Harrods Creek Road,40223,38.2684068,-85.5507041
511,Bellewood Road,40223,38.2527253,-85.5423048
600,North Arbor Drive,40223,38.2542547,-85.5416098
601,North Arbor Drive,40223,38.2543885,-85.5407898
602,Linden Drive,40223,38.2545550,-85.5400413
603,North Arbor Drive,40223,38.2547434,-85.5409508
604,Linden Drive,40223,38.2548689,-85.5402021
605,Linden Drive,40223,38.2550623,-85.5393867
605,North Arbor Drive,40223,38.2551077,-85.5412173
606,Linden Drive,40223,38.2552404,-85.5405158
606,North Arbor Drive,40223,38.2547413,-85.5419645
607,North Arbor Drive,40223,38.2554817,-85.5414514
608,North Arbor Drive,40223,38.2554051,-85.5424919
609,North Arbor Drive,40223,38.2558834,-85.5415388
700,Evergreen Road,40223,38.2552211,-85.5349348
700,Hickory Lane,40223,38.2555822,-85.5385361
700,Linden Drive,40223,38.2556097,-85.5406222
701,Hickory Lane,40223,38.2554696,-85.5377836
701,Linden Drive,40223,38.2554821,-85.5396865
702,Hickory Lane,40223,38.2552225,-85.5386528
702,Linden Drive,40223,38.2560552,-85.5408167
703,Hickory Lane,40223,38.2556939,-85.5380911
703,Linden Drive,40223,38.2559395,-85.5399639
703,Pine Way,40223,38.2556802,-85.5360238
704,Evergreen Road,40223,38.2556028,-85.5351676
704,Linden Drive,40223,38.2564279,-85.5410142
704,North Arbor Drive,40223,38.2557377,-85.5426226
704,Pine Way,40223,38.2556522,-85.5369764
705,Linden Drive,40223,38.2563987,-85.5400875
706,Evergreen Road,40223,38.2561664,-85.5354431
706,North Arbor Drive,40223,38.2560187,-85.5429676
707,North Arbor Drive,40223,38.2562401,-85.5418983
708,North Arbor Drive,40223,38.2562929,-85.5432467
709,North Arbor Drive,40223,38.2565373,-85.5421994
739,Old Harrods Creek Road,40223,38.2562664,-85.5473064
800,Evergreen Road,40223,38.2565967,-85.5356464
800,Linden Drive,40223,38.2567739,-85.5411157
800,North Arbor Drive,40223,38.2565498,-85.5435157
800,Towner Place,40223,38.2551783,-85.5463645
801,Linden Drive,40223,38.2568323,-85.5402153
801,Towner Place,40223,38.2554699,-85.5454752
802,North Arbor Drive,40223,38.2567927,-85.5437977
802,Towner Place,40223,38.2554023,-85.5464832
803,Linden Drive,40223,38.2572284,-85.5403981
803,Towner Place,40223,38.2556755,-85.5455370
804,Bellewood Road,40223,38.2575450,-85.5451445
804,Evergreen Road,40223,38.2567529,-85.5380430
804,North Arbor Drive,40223,38.2571490,-85.5441318
804,Towner Place,40223,38.2556330,-85.5466158
805,Linden Drive,40223,38.2575864,-85.5405490
805,North Arbor Drive,40223,38.2571955,-85.5429366
805,Pine Way,40223,38.2561006,-85.5362072
805,Towner Place,40223,38.2558901,-85.5455852
806,Pine Way,40223,38.2559850,-85.5367671
806,Towner Place,40223,38.2558637,-85.5466796
807,Towner Place,40223,38.2560994,-85.5456618
808,Towner Place,40223,38.2561041,-85.5466856
809,Towner Place,40223,38.2563300,-85.5455613
810,Towner Place,40223,38.2565606,-85.5462414
811,Towner Place,40223,38.2565320,-85.5454835
812,Towner Place,40223,38.2571195,-85.5463965
813,Towner Place,40223,38.2568877,-85.5454469
815,Towner Place,40223,38.2572818,-85.5457282
11109,Beech Road,40223,38.2575366,-85.5483162
902,Bellewood Road,40223,38.2584605,-85.5458076
903,Bellewood Road,40223,38.2591981,-85.5444015
903,Old Harrods Creek Road,40223,38.2585422,-85.5483565
904,Bellewood Road,40223,38.2588751,-85.5462459
905,Old Harrods Creek Road,40223,38.2589189,-85.5486235
906,Evergreen Road,40223,38.2587997,-85.5370875
907,Old Harrods Creek Road,40223,38.2592017,-85.5487977
909,Old Harrods Creek Road,40223,38.2595128,-85.5488673
1014,Anchorage Woods Circle,40223,38.2582778,-85.5428595
1,Anchorage Pointe,40223,38.2628688,-85.5296261
1000,Glenbrook Road,40223,38.2592717,-85.5311853
1001,Glenbrook Road,40223,38.2593527,-85.5299799
1003,Glenbrook Road,40223,38.2597800,-85.5301051
1007,Evergreen Road,40223,38.2605827,-85.5364152
1011,Glenbrook Road,40223,38.2603028,-85.5300652
1012,Glenbrook Road,40223,38.2599732,-85.5313848
11,Anchorage Pointe,40223,38.2626823,-85.5262644
1100,Glenbrook Road,40223,38.2609202,-85.5317607
1101,Glenbrook Road,40223,38.2608583,-85.5300385
1103,Evergreen Road,40223,38.2612386,-85.5366868
1104,Shady Lane,40223,38.2610255,-85.5346784
1105,Evergreen Road,40223,38.2616121,-85.5368522
1105,Glenbrook Road,40223,38.2612804,-85.5306193
1105,Shady Lane,40223,38.2612491,-85.5337741
1107,Glenbrook Road,40223,38.2616617,-85.5306354
1109,Evergreen Road,40223,38.2622379,-85.5372818
11706,Ridge Road,40223,38.2626353,-85.5373255
11800,Ridge Road,40223,38.2620158,-85.5364737
11801,Squires Lane,40223,38.2601571,-85.5357101
11802,Ridge Road,40223,38.2619401,-85.5359075
11802,Squires Lane,40223,38.2606079,-85.5358781
11804,Woodland Road,40223,38.2592628,-85.5356089
11806,Woodland Road,40223,38.2593780,-85.5352125
11812,Woodland Road,40223,38.2593349,-85.5344785
11901,Woodland Road,40223,38.2605010,-85.5346711
11904,Log Cabin Lane,40223,38.2563532,-85.5339618
11904,Woodland Road,40223,38.2594919,-85.5333443
11905,Woodland Road,40223,38.2605243,-85.5337720
11906,Ridge Road,40223,38.2617470,-85.5339043
11907,Log Cabin Lane,40223,38.2570458,-85.5341447
11909,Log Cabin Lane,40223,38.2572085,-85.5338957
12,Anchorage Pointe,40223,38.2629431,-85.5264894
1200,Glenbrook Road,40223,38.2616398,-85.5316790
12000,Log Cabin Lane,40223,38.2565446,-85.5330101
12000,Parkway Road,40223,38.2536649,-85.5332542
12000,Ridge Road,40223,38.2619079,-85.5330812
12001,Log Cabin Lane,40223,38.2574377,-85.5332966
12001,Woodland Road,40223,38.2606755,-85.5332530
12002,Parkway Road,40223,38.2538167,-85.5328268
12003,Log Cabin Lane,40223,38.2576197,-85.5329947
12003,Woodland Road,40223,38.2611249,-85.5327652
12004,Log Cabin Lane,40223,38.2567251,-85.5325699
12004,Parkway Road,40223,38.2539698,-85.5324022
12004,Ridge Road,40223,38.2617958,-85.5324443
12004,Woodland Road,40223,38.2600100,-85.5326235
12005,Woodland Road,40223,38.2610187,-85.5322881
12006,Log Cabin Lane,40223,38.2570384,-85.5320277
12007,Log Cabin Lane,40223,38.2576634,-85.5324496
12008,Log Cabin Lane,40223,38.2571856,-85.5317392
12008,Woodland Road,40223,38.2601806,-85.5320040
1201,Evergreen Road,40223,38.2628462,-85.5377338
12100,La Grange Road,40223,38.2625234,-85.5308720
12100,Log Cabin Lane,40223,38.2573425,-85.5313562
12100,Parkway Road,40223,38.2542371,-85.5320365
12100,Ridge Road,40223,38.2616830,-85.5299356
12101,Log Cabin Lane,40223,38.2579127,-85.5319317
12102,Log Cabin Lane,40223,38.2574097,-85.5310410
12102,Parkway Road,40223,38.2544695,-85.5315012
12103,Log Cabin Lane,40223,38.2581082,-85.5314872
12104,Log Cabin Lane,40223,38.2577992,-85.5303270
12106,Parkway Road,40223,38.2546413,-85.5310360
12200,Ridge Road,40223,38.2613157,-85.5296502
12204,Ridge Road,40223,38.2612348,-85.5289271
12207,Log Cabin Lane,40223,38.2593789,-85.5286368
12208,Log Cabin Lane,40223,38.2585975,-85.5283785
12300,Log Cabin Lane,40223,38.2587508,-85.5274723
12300,Ridge Road,40223,38.2608805,-85.5280865
12304,Ridge Road,40223,38.2604350,-85.5266967
12307,Log Cabin Lane,40223,38.2596136,-85.5277712
12402,Ridge Road,40223,38.2606497,-85.5254835
12500,Ridge Road,40223,38.2603659,-85.5240161
12507,Old Henry Road,40223,38.2590442,-85.5230113
14,Anchorage Pointe,40223,38.2633970,-85.5268095
15,Anchorage Pointe,40223,38.2638196,-85.5264706
16,Anchorage Pointe,40223,38.2643609,-85.5265610
17,Anchorage Pointe,40223,38.2643450,-85.5270146
18,Anchorage Pointe,40223,38.2640546,-85.5273503
19,Anchorage Pointe,40223,38.2637891,-85.5277360
2,Anchorage Pointe,40223,38.2626180,-85.5294642
20,Anchorage Pointe,40223,38.2634723,-85.5279250
21,Anchorage Pointe,40223,38.2631538,-85.5277002
2102,Meadow Lane Court,40223,38.2559773,-85.5311276
2105,Meadow Lane Court,40223,38.2567980,-85.5311071
2107,Meadow Lane Court,40223,38.2564767,-85.5305835
2108,Meadow Lane Court,40223,38.2558440,-85.5304338
22,Anchorage Pointe,40223,38.2628668,-85.5275265
23,Anchorage Pointe,40223,38.2626196,-85.5273019
24,Anchorage Pointe,40223,38.2623771,-85.5271408
3,Anchorage Pointe,40223,38.2622767,-85.5290880
4,Anchorage Pointe,40223,38.2631047,-85.5287584
5,Anchorage Pointe,40223,38.2626650,-85.5284719
6,Anchorage Pointe,40223,38.2623691,-85.5282130
601,Evergreen Road,40223,38.2543960,-85.5332504
605,Evergreen Road,40223,38.2550185,-85.5336969
7,Anchorage Pointe,40223,38.2621396,-85.5269512
700,Shady Lane,40223,38.2551391,-85.5316659
701,Evergreen Road,40223,38.2556006,-85.5337759
701,Shady Lane,40223,38.2555876,-85.5309681
702,Shady Lane,40223,38.2552747,-85.5321898
704,Shady Lane,40223,38.2558049,-85.5323971
8,Anchorage Pointe,40223,38.2617190,-85.5260831
800,Glenbrook Road,40223,38.2566437,-85.5300560
800,Surrey Lane,40223,38.2566166,-85.5276710
801,Glenbrook Road,40223,38.2565371,-85.5287005
801,Shady Lane,40223,38.2565724,-85.5316845
802,Surrey Lane,40223,38.2570130,-85.5274160
803,Evergreen Road,40223,38.2569753,-85.5347439
804,Surrey Lane,40223,38.2574584,-85.5276743
805,Glenbrook Road,40223,38.2572006,-85.5288202
806,Glenbrook Road,40223,38.2571478,-85.5303184
807,Evergreen Road,40223,38.2574128,-85.5349521
809,Evergreen Road,40223,38.2577082,-85.5350613
809,Glenbrook Road,40223,38.2577595,-85.5289546
900,Glenbrook Road,40223,38.2582708,-85.5309098
900,Shady Lane,40223,38.2577582,-85.5337393
900,Surrey Lane,40223,38.2579719,-85.5277374
901,Glenbrook Road,40223,38.2582567,-85.5295428
901,Shady Lane,40223,38.2584668,-85.5320675
902,Glenbrook Road,40223,38.2587876,-85.5308642
902,Shady Lane,40223,38.2580275,-85.5337605
902,Surrey Lane,40223,38.2583233,-85.5276647
903,Evergreen Road,40223,38.2582959,-85.5352344
904,Shady Lane,40223,38.2584157,-85.5339177
905,Glenbrook Road,40223,38.2587051,-85.5296876
905,Shady Lane,40223,38.2588473,-85.5325029
906,Shady Lane,40223,38.2587884,-85.5340960
907,Glenbrook Road,40223,38.2589676,-85.5298885
1015,Anchorage Woods Circle,40223,38.2580461,-85.5421338
1901,Evergreen Road,40223,38.2734920,-85.5407153
901,Old Harrods Creek Road,40223,38.2581027,-85.5484810
11705,East Osage Road,40223,38.2681798,-85.5370941
10720,Hobbs Station Road,40223,38.2588769,-85.5526768
10722,Hobbs Station Road,40223,38.2590935,-85.5527522
10724,Hobbs Station Road,40223,38.2593019,-85.5528157
10726,Hobbs Station Road,40223,38.2595108,-85.5528809
10728,Hobbs Station Road,40223,38.2597041,-85.5529895
10730,Hobbs Station Road,40223,38.2598933,-85.5530991
10732,Hobbs Station Road,40223,38.2600816,-85.5532130
10734,Hobbs Station Road,40223,38.2602635,-85.5533202
10736,Hobbs Station Road,40223,38.2604575,-85.5533587
10738,Hobbs Station Road,40223,38.2606320,-85.5535260
10740,Hobbs Station Road,40223,38.2608304,-85.5535359
10742,Hobbs Station Road,40223,38.2610486,-85.5536652
10744,Hobbs Station Road,40223,38.2612454,-85.5537643
10746,Hobbs Station Road,40223,38.2614355,-85.5538427
10748,Hobbs Station Road,40223,38.2616258,-85.5538944
10800,Hobbs Station Road,40223,38.2617946,-85.5539299
10800,Somerhill Court,40223,38.2634092,-85.5546169
10801,Somerhill Court,40223,38.2638047,-85.5546862
10802,Hobbs Station Road,40223,38.2620091,-85.5541115
10802,Somerhill Court,40223,38.2632679,-85.5541904
10803,Somerhill Court,40223,38.2639496,-85.5541204
10804,Hobbs Station Road,40223,38.2621918,-85.5542653
10804,Somerhill Court,40223,38.2633915,-85.5537380
10806,Hobbs Station Road,40223,38.2625375,-85.5546240
10808,Hobbs Station Road,40223,38.2626763,-85.5548762
10900,Old Bridge Place,40223,38.2615796,-85.5530704
10901,Old Bridge Place,40223,38.2619303,-85.5532158
10902,Old Bridge Place,40223,38.2613830,-85.5526992
10903,Old Bridge Place,40223,38.2621295,-85.5528886
10904,Old Bridge Place,40223,38.2614144,-85.5522544
10905,Old Bridge Place,40223,38.2619864,-85.5523396
10906,Old Bridge Place,40223,38.2615073,-85.5516732
10907,Old Bridge Place,40223,38.2621011,-85.5519186
10908,Old Bridge Place,40223,38.2617819,-85.5510750
10909,Old Bridge Place,40223,38.2623699,-85.5513912
1102,Old Harrods Creek Road,40223,38.2629979,-85.5516911
1104,Old Harrods Creek Road,40223,38.2633478,-85.5519143
1200,Old Harrods Creek Road,40223,38.2638231,-85.5521275
1202,Old Harrods Creek Road,40223,38.2643438,-85.5523429
1300,Somerhill Place,40223,38.2628209,-85.5533415
1301,Somerhill Place,40223,38.2628740,-85.5527134
1302,Old Harrods Creek Road,40223,38.2662511,-85.5528606
1303,Somerhill Place,40223,38.2632770,-85.5527456
1305,Somerhill Place,40223,38.2637005,-85.5530929
1306,Somerhill Place,40223,38.2644279,-85.5542930
1307,Somerhill Place,40223,38.2640641,-85.5532888
1308,Somerhill Place,40223,38.2648148,-85.5541971
1309,Somerhill Place,40223,38.2645604,-85.5534780
1311,Somerhill Place,40223,38.2648928,-85.5530046
1312,Somerhill Place,40223,38.2654742,-85.5532063
1313,Somerhill Place,40223,38.2649840,-85.5524361
1314,Somerhill Place,40223,38.2655638,-85.5526395
1400,Somerhill Way,40223,38.2652000,-85.5539035
1402,Somerhill Way,40223,38.2655907,-85.5543059
1403,Somerhill Way,40223,38.2659506,-85.5537196
1404,Somerhill Way,40223,38.2657341,-85.5547006
1405,Somerhill Way,40223,38.2660856,-85.5541086
1406,Somerhill Way,40223,38.2659474,-85.5551352
1408,Somerhill Way,40223,38.2663932,-85.5555199
1409,Somerhill Way,40223,38.2666945,-85.5548618
1410,Somerhill Way,40223,38.2666143,-85.5553392
715,Talon Place,40223,38.2582148,-85.5522434
900,Old Harrods Creek Road,40223,38.2572225,-85.5491436
902,Old Harrods Creek Road,40223,38.2575530,-85.5492784
906,Old Harrods Creek Road,40223,38.2583678,-85.5496167
914,Old Harrods Creek Road,40223-2541,38.2593308,-85.5508058
3413,South Winchester Acres Road,40223,38.2862576,-85.5240328
1302,Bellewood Road,40223,38.2641867,-85.5447821
