House number,Street name,Postal code,Latitude,Longitude
101,Blankenbaker Parkway,40243,38.2432023,-85.5444638
101,Burnley Road,40243,38.2440719,-85.5510673
103,Blankenbaker Parkway,40243,38.2431611,-85.5444513
105,Blankenbaker Parkway,40243,38.2431063,-85.5444212
107,Blankenbaker Parkway,40243,38.2430660,-85.5444043
109,Blankenbaker Parkway,40243,38.2430269,-85.5443901
11001,Fellswood Court,40243,38.2407176,-85.5517589
11012,Fellswood Court,40243,38.2407219,-85.5504245
111,Blankenbaker Parkway,40243,38.2429924,-85.5443769
113,Blankenbaker Parkway,40243,38.2429558,-85.5443632
11300,Main Street,40243,38.2428859,-85.5461862
115,Blankenbaker Parkway,40243,38.2427633,-85.5443311
11500,Herrick Lane,40243,38.2392374,-85.5429925
11504,Christian Village Court,40243,38.2408482,-85.5425128
11506,Christian Village Court,40243,38.2408074,-85.5426518
11508,Christian Village Court,40243,38.2407855,-85.5427798
117,Blankenbaker Parkway,40243,38.2427262,-85.5443596
119,Blankenbaker Parkway,40243,38.2426837,-85.5443923
121,Blankenbaker Parkway,40243,38.2426466,-85.5444156
123,Blankenbaker Parkway,40243,38.2426119,-85.5444468
125,Blankenbaker Parkway,40243,38.2425716,-85.5444709
127,Blankenbaker Parkway,40243,38.2425449,-85.5444965
129,Blankenbaker Parkway,40243,38.2425204,-85.5445174
131,Blankenbaker Parkway,40243,38.2424954,-85.5445405
203,Burnley Road,40243,38.2421204,-85.5523926
204,Kinnaird Lane,40243,38.2416951,-85.5499440
219,Blankenbaker Parkway,40243,38.2420602,-85.5449803
227,Blankenbaker Parkway,40243,38.2419723,-85.5450565
231,Blankenbaker Parkway,40243,38.2418781,-85.5451623
233,Blankenbaker Parkway,40243,38.2418441,-85.5452024
235,Blankenbaker Parkway,40243,38.2417953,-85.5452476
237,Blankenbaker Parkway,40243,38.2419167,-85.5457526
239,Blankenbaker Parkway,40243,38.2416890,-85.5453460
241,Blankenbaker Parkway,40243,38.2416312,-85.5453955
243,Blankenbaker Parkway,40243,38.2415762,-85.5454471
290,Rannoch Court,40243,38.2417410,-85.5470206
300,Christian Village Circle,40243,38.2395939,-85.5426672
301,Christian Village Circle,40243,38.2397933,-85.5423325
302,Christian Village Circle,40243,38.2396627,-85.5427345
303,Christian Village Circle,40243,38.2398712,-85.5423709
304,Christian Village Circle,40243,38.2397352,-85.5427432
305,Christian Village Circle,40243,38.2399347,-85.5423942
306,Christian Village Circle,40243,38.2397899,-85.5427808
307,Christian Village Circle,40243,38.2399895,-85.5424244
308,Christian Village Circle,40243,38.2398560,-85.5428337
309,Christian Village Circle,40243,38.2400616,-85.5424626
310,Christian Village Circle,40243,38.2399428,-85.5428575
311,Christian Village Circle,40243,38.2401484,-85.5424899
312,Christian Village Circle,40243,38.2399908,-85.5428949
313,Christian Village Circle,40243,38.2403898,-85.5427314
314,Christian Village Circle,40243,38.2402744,-85.5431620
315,Christian Village Circle,40243,38.2404252,-85.5427742
316,Christian Village Circle,40243,38.2403345,-85.5432362
317,Christian Village Circle,40243,38.2404767,-85.5428304
318,Christian Village Circle,40243,38.2403832,-85.5432888
319,Christian Village Circle,40243,38.2405312,-85.5428867
320,Christian Village Circle,40243,38.2404406,-85.5433377
321,Christian Village Circle,40243,38.2405886,-85.5429391
322,Christian Village Circle,40243,38.2404835,-85.5434007
323,Christian Village Circle,40243,38.2406344,-85.5429991
324,Christian Village Circle,40243,38.2405379,-85.5434679
325,Christian Village Circle,40243,38.2407031,-85.5430847
400,Christian Village Circle,40243,38.2403929,-85.5439224
400,Logsdon Court,40243,38.2411048,-85.5530260
401,Logsdon Court,40243,38.2410921,-85.5531028
402,Christian Village Circle,40243,38.2403067,-85.5438474
402,Logsdon Court,40243,38.2410759,-85.5531730
403,Logsdon Court,40243,38.2410548,-85.5532588
404,Christian Village Circle,40243,38.2402173,-85.5438017
404,Logsdon Court,40243,38.2410384,-85.5533412
405,Christian Village Circle,40243,38.2398492,-85.5442230
405,Christian Village Circle,40243,38.2398744,-85.5441112
405,Christian Village Circle,40243,38.2399224,-85.5442531
405,Christian Village Circle,40243,38.2399318,-85.5441424
405,Christian Village Circle,40243,38.2399751,-85.5442744
405,Christian Village Circle,40243,38.2399909,-85.5441692
405,Christian Village Circle,40243,38.2400272,-85.5442958
405,Christian Village Circle,40243,38.2400430,-85.5441891
405,Christian Village Circle,40243,38.2401028,-85.5443218
405,Christian Village Circle,40243,38.2401195,-85.5442322
405,Christian Village Circle,40243,38.2401699,-85.5443504
405,Christian Village Circle,40243,38.2401886,-85.5442512
405,Christian Village Circle,40243,38.2402343,-85.5443778
405,Christian Village Circle,40243,38.2402486,-85.5442729
405,Christian Village Circle,40243,38.2402952,-85.5443932
405,Christian Village Circle,40243,38.2403126,-85.5442890
405,Logsdon Court,40243,38.2410209,-85.5534205
406,Christian Village Circle,40243,38.2401568,-85.5437567
406,Logsdon Court,40243,38.2410045,-85.5535016
407,Logsdon Court,40243,38.2409881,-85.5535871
408,Christian Village Circle,40243,38.2400907,-85.5437075
408,Logsdon Court,40243,38.2409681,-85.5536803
409,Logsdon Court,40243,38.2409519,-85.5537505
410,Christian Village Circle,40243,38.2399929,-85.5436399
410,Logsdon Court,40243,38.2409333,-85.5538120
411,Logsdon Court,40243,38.2409146,-85.5538992
412,Christian Village Circle,40243,38.2398913,-85.5435673
412,Logsdon Court,40243,38.2408971,-85.5539711
413,Logsdon Court,40243,38.2408822,-85.5540340
414,Christian Village Circle,40243,38.2397969,-85.5435028
414,Logsdon Court,40243,38.2408110,-85.5540192
415,Logsdon Court,40243,38.2408287,-85.5539246
416,Christian Village Circle,40243,38.2397131,-85.5434756
416,Logsdon Court,40243,38.2408438,-85.5538544
417,Christian Village Circle,40243,38.2391118,-85.5436380
417,Christian Village Circle,40243,38.2391536,-85.5436741
417,Christian Village Circle,40243,38.2391559,-85.5435418
417,Christian Village Circle,40243,38.2391978,-85.5435864
417,Christian Village Circle,40243,38.2392028,-85.5437065
417,Christian Village Circle,40243,38.2392436,-85.5437319
417,Christian Village Circle,40243,38.2392621,-85.5436325
417,Christian Village Circle,40243,38.2393036,-85.5436661
417,Christian Village Circle,40243,38.2393164,-85.5437798
417,Christian Village Circle,40243,38.2393623,-85.5438228
417,Christian Village Circle,40243,38.2393678,-85.5437070
417,Christian Village Circle,40243,38.2394083,-85.5437349
417,Christian Village Circle,40243,38.2394088,-85.5438508
417,Christian Village Circle,40243,38.2394481,-85.5438804
417,Christian Village Circle,40243,38.2394496,-85.5437644
417,Christian Village Circle,40243,38.2394856,-85.5437911
417,Logsdon Court,40243,38.2408576,-85.5537806
418,Christian Village Circle,40243,38.2396410,-85.5434374
418,Logsdon Court,40243,38.2408763,-85.5537074
419,Logsdon Court,40243,38.2408914,-85.5536337
420,Christian Village Circle,40243,38.2395834,-85.5433998
420,Logsdon Court,40243,38.2409100,-85.5535618
421,Logsdon Court,40243,38.2409274,-85.5534868
422,Christian Village Circle,40243,38.2395145,-85.5433398
422,Logsdon Court,40243,38.2409426,-85.5534148
423,Logsdon Court,40243,38.2409576,-85.5533411
424,Christian Village Circle,40243,38.2394364,-85.5433123
424,Logsdon Court,40243,38.2409690,-85.5532721
425,Logsdon Court,40243,38.2409829,-85.5532001
426,Logsdon Court,40243,38.2409956,-85.5531324
427,Logsdon Court,40243,38.2410118,-85.5530648
428,Logsdon Court,40243,38.2410221,-85.5529927
429,Logsdon Court,40243,38.2410333,-85.5529420
430,Logsdon Court,40243,38.2410460,-85.5530837
431,Logsdon Court,40243,38.2410613,-85.5529873
500,Logsdon Court,40243,38.2409241,-85.5546419
501,Logsdon Court,40243,38.2409117,-85.5545768
502,Logsdon Court,40243,38.2408959,-85.5545026
503,Logsdon Court,40243,38.2408754,-85.5544286
504,Logsdon Court,40243,38.2408596,-85.5543513
505,Logsdon Court,40243,38.2408484,-85.5542954
506,Logsdon Court,40243,38.2408659,-85.5547462
507,Logsdon Court,40243,38.2408512,-85.5546828
508,Logsdon Court,40243,38.2408365,-85.5546164
509,Logsdon Court,40243,38.2408229,-85.5545513
510,Logsdon Court,40243,38.2408106,-85.5544862
511,Logsdon Court,40243,38.2408005,-85.5544303
512,Logsdon Court,40243,38.2407905,-85.5543683
513,Logsdon Court,40243,38.2407827,-85.5543168
514,Logsdon Court,40243,38.2407938,-85.5546052
515,Logsdon Court,40243,38.2407546,-85.5543886
600,Logsdon Court,40243,38.2414465,-85.5553064
601,Logsdon Court,40243,38.2414102,-85.5552531
602,Logsdon Court,40243,38.2413775,-85.5552072
603,Logsdon Court,40243,38.2413365,-85.5551507
604,Logsdon Court,40243,38.2412920,-85.5550960
605,Logsdon Court,40243,38.2412522,-85.5550452
606,Logsdon Court,40243,38.2412123,-85.5549979
607,Logsdon Court,40243,38.2411736,-85.5549537
608,Logsdon Court,40243,38.2411385,-85.5549078
609,Logsdon Court,40243,38.2410986,-85.5548679
610,Logsdon Court,40243,38.2410575,-85.5548206
611,Logsdon Court,40243,38.2410118,-85.5547654
612,Logsdon Court,40243,38.2414160,-85.5553720
613,Logsdon Court,40243,38.2413844,-85.5553322
614,Logsdon Court,40243,38.2413516,-85.5552912
615,Logsdon Court,40243,38.2413153,-85.5552470
616,Logsdon Court,40243,38.2412814,-85.5551998
617,Logsdon Court,40243,38.2412461,-85.5551565
618,Logsdon Court,40243,38.2412158,-85.5551111
619,Logsdon Court,40243,38.2411794,-85.5550713
620,Logsdon Court,40243,38.2411408,-85.5550223
621,Logsdon Court,40243,38.2411034,-85.5549690
622,Logsdon Court,40243,38.2410683,-85.5549244
623,Logsdon Court,40243,38.2410307,-85.5548819
624,Logsdon Court,40243,38.2409802,-85.5548266
625,Logsdon Court,40243,38.2413684,-85.5553820
626,Logsdon Court,40243,38.2413368,-85.5553423
627,Logsdon Court,40243,38.2413017,-85.5552951
628,Logsdon Court,40243,38.2412629,-85.5552504
629,Logsdon Court,40243,38.2412266,-85.5552062
630,Logsdon Court,40243,38.2411927,-85.5551647
631,Logsdon Court,40243,38.2411517,-85.5551100
100,Burnsdale Road,40243,38.2442424,-85.5551686
100,Charlestown Court,40243,38.2434841,-85.5546840
100,Logsdon Court,40243,38.2415520,-85.5550079
101,Burnsdale Road,40243,38.2442606,-85.5545560
101,Charlestown Court,40243,38.2434604,-85.5546444
101,Logsdon Court,40243,38.2415739,-85.5549439
102,Burnley Road,40243,38.2438478,-85.5518207
102,Charlestown Court,40243,38.2434397,-85.5546031
102,Logsdon Court,40243,38.2416002,-85.5548586
103,Burnsdale Road,40243,38.2442121,-85.5545656
103,Charlestown Court,40243,38.2434178,-85.5545592
103,Logsdon Court,40243,38.2416222,-85.5547889
104,Burnley Road,40243,38.2438097,-85.5518466
104,Charlestown Court,40243,38.2433971,-85.5545148
104,Logsdon Court,40243,38.2416399,-85.5547248
105,Burnsdale Road,40243,38.2441658,-85.5545809
105,Charlestown Court,40243,38.2433753,-85.5544705
105,Logsdon Court,40243,38.2416621,-85.5546391
106,Burnley Road,40243,38.2437695,-85.5518702
106,Charlestown Court,40243,38.2433535,-85.5544187
106,Logsdon Court,40243,38.2416840,-85.5545698
107,Burnsdale Road,40243,38.2441237,-85.5545853
107,Charlestown Court,40243,38.2433271,-85.5543590
107,Logsdon Court,40243,38.2416152,-85.5550417
10718,Shelbyville Road,40243,38.2443362,-85.5551859
108,Burnley Road,40243,38.2437378,-85.5518853
108,Charlestown Court,40243,38.2429460,-85.5542708
108,Logsdon Court,40243,38.2416371,-85.5549773
10801,Gatehouse Lane,40243,38.2421309,-85.5549065
10803,Gatehouse Lane,40243,38.2421632,-85.5548130
10805,Gatehouse Lane,40243,38.2421375,-85.5547738
10807,Gatehouse Lane,40243,38.2421891,-85.5546977
10809,Gatehouse Lane,40243,38.2421633,-85.5546716
10811,Gatehouse Lane,40243,38.2422159,-85.5545776
10813,Gatehouse Lane,40243,38.2421878,-85.5545558
10815,Gatehouse Lane,40243,38.2421627,-85.5545305
109,Burnsdale Road,40243,38.2440857,-85.5546008
109,Charlestown Court,40243,38.2429990,-85.5542117
109,Logsdon Court,40243,38.2416547,-85.5549184
10901,Gatehouse Lane,40243,38.2421387,-85.5537605
10903,Gatehouse Lane,40243,38.2421152,-85.5537214
10905,Gatehouse Lane,40243,38.2420900,-85.5536926
10907,Gatehouse Lane,40243,38.2420716,-85.5536518
10909,Gatehouse Lane,40243,38.2420533,-85.5536014
10911,Gatehouse Lane,40243,38.2420337,-85.5535375
10912,Shelbyville Road,40243,38.2442409,-85.5527440
10913,Gatehouse Lane,40243,38.2420138,-85.5534950
10914,Shelbyville Road,40243,38.2442268,-85.5526811
10915,Gatehouse Lane,40243,38.2419956,-85.5534402
10916,Shelbyville Road,40243,38.2442073,-85.5525958
10920,Shelbyville Road,40243,38.2441966,-85.5524746
10922,Shelbyville Road,40243,38.2441887,-85.5523374
10926,Shelbyville Road,40243,38.2441767,-85.5522871
110,Burnley Road,40243,38.2437038,-85.5519221
110,Charlestown Court,40243,38.2430554,-85.5541574
110,Logsdon Court,40243,38.2416767,-85.5548543
11002,Shelbyville Road,40243,38.2441731,-85.5520398
11004,Shelbyville Road,40243,38.2441590,-85.5519782
11006,Shelbyville Road,40243,38.2441514,-85.5519141
11008,Shelbyville Road,40243,38.2441522,-85.5518475
11010,Shelbyville Road,40243,38.2441402,-85.5517941
11012,Shelbyville Road,40243,38.2441324,-85.5517352
11014,Shelbyville Road,40243,38.2441645,-85.5516797
11016,Shelbyville Road,40243,38.2441182,-85.5516871
111,Burnsdale Road,40243,38.2440394,-85.5546078
111,Charlestown Court,40243,38.2431169,-85.5540919
111,Logsdon Court,40243,38.2416900,-85.5548010
112,Burnley Road,40243,38.2436677,-85.5519533
112,Charlestown Court,40243,38.2431530,-85.5540390
112,Logsdon Court,40243,38.2417075,-85.5547530
113,Burnsdale Road,40243,38.2439910,-85.5546204
113,Charlestown Court,40243,38.2431991,-85.5539885
113,Logsdon Court,40243,38.2417207,-85.5547045
114,Burnley Road,40243,38.2436360,-85.5519766
114,Charlestown Court,40243,38.2431902,-85.5540288
114,Logsdon Court,40243,38.2417383,-85.5546565
115,Burnsdale Road,40243,38.2439341,-85.5546302
115,Charlestown Court,40243,38.2431028,-85.5541430
115,Logsdon Court,40243,38.2417600,-85.5546034
116,Burnley Road,40243,38.2436041,-85.5520083
116,Charlestown Court,40243,38.2433594,-85.5538809
116,Charlestown Court,40243,38.2433654,-85.5539427
116,Charlestown Court,40243,38.2434215,-85.5538772
116,Charlestown Court,40243,38.2434255,-85.5539449
117,Burnsdale Road,40243,38.2438115,-85.5546942
117,Charlestown Court,40243,38.2434951,-85.5539450
117,Charlestown Court,40243,38.2434957,-85.5538870
117,Charlestown Court,40243,38.2435828,-85.5539466
117,Charlestown Court,40243,38.2435835,-85.5538801
118,Burnley Road,40243,38.2435193,-85.5520838
118,Charlestown Court,40243,38.2436448,-85.5538618
118,Charlestown Court,40243,38.2436479,-85.5539199
118,Charlestown Court,40243,38.2437001,-85.5538568
118,Charlestown Court,40243,38.2437051,-85.5539222
119,Burnsdale Road,40243,38.2437610,-85.5547120
119,Charlestown Court,40243,38.2438762,-85.5541482
120,Burnley Road,40243,38.2434789,-85.5521283
120,Charlestown Court,40243,38.2439052,-85.5541318
121,Burnsdale Road,40243,38.2437167,-85.5547247
121,Charlestown Court,40243,38.2439511,-85.5540982
122,Burnley Road,40243,38.2434450,-85.5521465
122,Charlestown Court,40243,38.2439914,-85.5541159
123,Burnsdale Road,40243,38.2436700,-85.5547613
123,Charlestown Court,40243,38.2440322,-85.5540975
124,Burnley Road,40243,38.2434111,-85.5521724
124,Charlestown Court,40243,38.2440695,-85.5540921
125,Burnsdale Road,40243,38.2436257,-85.5547814
125,Charlestown Court,40243,38.2441067,-85.5540884
126,Burnley Road,40243,38.2433793,-85.5521958
126,Charlestown Court,40243,38.2441507,-85.5540700
127,Burnsdale Road,40243,38.2435940,-85.5547996
128,Burnley Road,40243,38.2433456,-85.5522060
129,Burnsdale Road,40243,38.2435644,-85.5548099
130,Burnley Road,40243,38.2433263,-85.5522457
131,Burnsdale Road,40243,38.2435307,-85.5548171
132,Burnley Road,40243,38.2433007,-85.5522745
200,Charlestown Court,40243,38.2430611,-85.5548553
200,Logsdon Court,40243,38.2417298,-85.5543643
201,Burnsdale Road,40243,38.2432108,-85.5550591
201,Charlestown Court,40243,38.2430169,-85.5548780
201,Logsdon Court,40243,38.2417218,-85.5543206
202,Charlestown Court,40243,38.2429762,-85.5548968
202,Logsdon Court,40243,38.2417125,-85.5542722
203,Burnsdale Road,40243,38.2431603,-85.5550690
203,Charlestown Court,40243,38.2429405,-85.5549175
203,Logsdon Court,40243,38.2417070,-85.5542098
204,Charlestown Court,40243,38.2429064,-85.5549426
204,Logsdon Court,40243,38.2417002,-85.5541627
205,Burnsdale Road,40243,38.2431115,-85.5551108
205,Charlestown Court,40243,38.2428607,-85.5549588
205,Logsdon Court,40243,38.2416934,-85.5541051
206,Charlestown Court,40243,38.2428299,-85.5549882
206,Logsdon Court,40243,38.2416843,-85.5540440
207,Burnsdale Road,40243,38.2430627,-85.5551469
207,Charlestown Court,40243,38.2427892,-85.5550006
207,Logsdon Court,40243,38.2416764,-85.5539816
208,Charlestown Court,40243,38.2425096,-85.5548196
208,Charlestown Court,40243,38.2425237,-85.5547461
208,Charlestown Court,40243,38.2425551,-85.5548386
208,Charlestown Court,40243,38.2425693,-85.5547614
208,Logsdon Court,40243,38.2416673,-85.5539127
209,Burnsdale Road,40243,38.2430080,-85.5551621
209,Charlestown Court,40243,38.2425486,-85.5546583
209,Charlestown Court,40243,38.2425735,-85.5545608
209,Charlestown Court,40243,38.2425979,-85.5546785
209,Charlestown Court,40243,38.2426163,-85.5545737
209,Logsdon Court,40243,38.2417976,-85.5543529
210,Charlestown Court,40243,38.2425696,-85.5544821
210,Charlestown Court,40243,38.2425868,-85.5543930
210,Charlestown Court,40243,38.2426199,-85.5545000
210,Charlestown Court,40243,38.2426362,-85.5544096
210,Logsdon Court,40243,38.2417909,-85.5542953
211,Burnsdale Road,40243,38.2429594,-85.5551908
211,Charlestown Court,40243,38.2428504,-85.5540998
211,Logsdon Court,40243,38.2417842,-85.5542312
212,Charlestown Court,40243,38.2428288,-85.5540650
212,Logsdon Court,40243,38.2417752,-85.5541592
213,Burnsdale Road,40243,38.2429212,-85.5552193
213,Charlestown Court,40243,38.2428078,-85.5540324
213,Logsdon Court,40243,38.2417674,-85.5540873
214,Charlestown Court,40243,38.2427856,-85.5539941
214,Logsdon Court,40243,38.2417596,-85.5540127
215,Burnsdale Road,40243,38.2428792,-85.5552211
215,Charlestown Court,40243,38.2427614,-85.5539476
215,Logsdon Court,40243,38.2417532,-85.5539221
215,Moser Road,40223,38.2435086,-85.5598991
216,Charlestown Court,40243,38.2427398,-85.5539036
217,Burnsdale Road,40243,38.2427964,-85.5552993
217,Charlestown Court,40243,38.2427184,-85.5538549
217,Moser Road,40223,38.2434461,-85.5599419
218,Burnley Road,40243,38.2426377,-85.5527605
218,Charlestown Court,40243,38.2426923,-85.5537992
219,Burnsdale Road,40243,38.2427419,-85.5552905
219,Charlestown Court,40243,38.2424708,-85.5543968
219,Moser Road,40223,38.2434535,-85.5597806
220,Burnley Road,40243,38.2426082,-85.5527787
220,Charlestown Court,40243,38.2424376,-85.5543853
221,Burnsdale Road,40243,38.2426913,-85.5553057
221,Charlestown Court,40243,38.2424083,-85.5543730
221,Moser Road,40223,38.2433969,-85.5598209
222,Burnley Road,40243,38.2425743,-85.5527994
222,Charlestown Court,40243,38.2423724,-85.5543671
223,Burnsdale Road,40243,38.2426366,-85.5553151
223,Charlestown Court,40243,38.2423325,-85.5543512
224,Burnley Road,40243,38.2425385,-85.5528097
224,Charlestown Court,40243,38.2422900,-85.5543430
225,Burnsdale Road,40243,38.2425838,-85.5553329
225,Charlestown Court,40243,38.2422361,-85.5543234
226,Burnley Road,40243,38.2425047,-85.5528195
226,Charlestown Court,40243,38.2421829,-85.5543098
227,Burnsdale Road,40243,38.2425250,-85.5553345
228,Burnley Road,40243,38.2424710,-85.5528350
229,Burnsdale Road,40243,38.2424745,-85.5553388
230,Burnley Road,40243,38.2424244,-85.5528633
231,Burnsdale Road,40243,38.2424220,-85.5553378
232,Burnley Road,40243,38.2423737,-85.5528972
233,Burnsdale Road,40243,38.2422922,-85.5552928
234,Burnley Road,40243,38.2422087,-85.5529901
235,Burnsdale Road,40243,38.2422464,-85.5552602
236,Burnley Road,40243,38.2421748,-85.5530160
237,Burnsdale Road,40243,38.2421923,-85.5552140
238,Burnley Road,40243,38.2421450,-85.5530529
239,Burnsdale Road,40243,38.2421421,-85.5551996
240,Burnley Road,40243,38.2421132,-85.5530841
241,Burnsdale Road,40243,38.2420959,-85.5551936
242,Burnley Road,40243,38.2420793,-85.5531048
243,Burnsdale Road,40243,38.2420608,-85.5551346
244,Burnley Road,40243,38.2420454,-85.5531312
245,Burnsdale Road,40243,38.2420252,-85.5551257
246,Burnley Road,40243,38.2420031,-85.5531596
247,Burnsdale Road,40243,38.2422000,-85.5552755
248,Burnley Road,40243,38.2419627,-85.5532015
300,Charlestown Court,40243,38.2421861,-85.5539272
300,Logsdon Court,40243,38.2415984,-85.5537030
301,Charlestown Court,40243,38.2422244,-85.5538987
301,Logsdon Court,40243,38.2415693,-85.5536650
302,Charlestown Court,40243,38.2422604,-85.5538689
302,Logsdon Court,40243,38.2415391,-85.5536144
303,Charlestown Court,40243,38.2422948,-85.5538565
303,Logsdon Court,40243,38.2415053,-85.5535637
304,Charlestown Court,40243,38.2423338,-85.5538345
304,Logsdon Court,40243,38.2414738,-85.5535196
305,Charlestown Court,40243,38.2423705,-85.5538126
305,Logsdon Court,40243,38.2414411,-85.5534755
306,Charlestown Court,40243,38.2424125,-85.5537811
306,Logsdon Court,40243,38.2414110,-85.5534236
307,Charlestown Court,40243,38.2424612,-85.5537528
307,Logsdon Court,40243,38.2413722,-85.5533729
308,Charlestown Court,40243,38.2424607,-85.5533981
308,Logsdon Court,40243,38.2413313,-85.5532990
309,Charlestown Court,40243,38.2424952,-85.5533752
309,Logsdon Court,40243,38.2416544,-85.5536430
310,Charlestown Court,40243,38.2425303,-85.5533597
310,Logsdon Court,40243,38.2416158,-85.5535736
311,Charlestown Court,40243,38.2425707,-85.5533435
311,Logsdon Court,40243,38.2415735,-85.5535106
312,Charlestown Court,40243,38.2426066,-85.5533241
312,Logsdon Court,40243,38.2415337,-85.5534428
313,Charlestown Court,40243,38.2426388,-85.5533086
313,Logsdon Court,40243,38.2414963,-85.5533782
314,Charlestown Court,40243,38.2426793,-85.5532792
314,Logsdon Court,40243,38.2414493,-85.5532994
315,Charlestown Court,40243,38.2427083,-85.5532758
315,Logsdon Court,40243,38.2413911,-85.5532235
316,Charlestown Court,40243,38.2428880,-85.5536802
316,Charlestown Court,40243,38.2429180,-85.5537255
316,Charlestown Court,40243,38.2429343,-85.5536290
316,Charlestown Court,40243,38.2429634,-85.5536694
317,Charlestown Court,40243,38.2429790,-85.5535609
317,Charlestown Court,40243,38.2430081,-85.5536013
317,Charlestown Court,40243,38.2430446,-85.5534859
317,Charlestown Court,40243,38.2430698,-85.5535359
318,Charlestown Court,40243,38.2430966,-85.5534445
318,Charlestown Court,40243,38.2431294,-85.5534923
318,Charlestown Court,40243,38.2431487,-85.5533886
318,Charlestown Court,40243,38.2431816,-85.5534340
319,Charlestown Court,40243,38.2429030,-85.5531022
320,Charlestown Court,40243,38.2428763,-85.5530281
321,Charlestown Court,40243,38.2428497,-85.5529502
322,Charlestown Court,40243,38.2428200,-85.5528804
323,Charlestown Court,40243,38.2427953,-85.5528182
324,Charlestown Court,40243,38.2427875,-85.5527162
325,Charlestown Court,40243,38.2427659,-85.5527872
326,Charlestown Court,40243,38.2427430,-85.5527076
400,Charlestown Court,40243,38.2430845,-85.5524342
401,Charlestown Court,40243,38.2431083,-85.5524673
402,Charlestown Court,40243,38.2431365,-85.5525100
403,Charlestown Court,40243,38.2431647,-85.5525523
404,Charlestown Court,40243,38.2431852,-85.5526006
405,Charlestown Court,40243,38.2432134,-85.5526433
406,Charlestown Court,40243,38.2432475,-85.5527070
407,Charlestown Court,40243,38.2432904,-85.5527788
408,Charlestown Court,40243,38.2436294,-85.5530701
408,Charlestown Court,40243,38.2436611,-85.5531155
408,Charlestown Court,40243,38.2436855,-85.5530191
408,Charlestown Court,40243,38.2437172,-85.5530655
409,Charlestown Court,40243,38.2434705,-85.5526041
409,Charlestown Court,40243,38.2434990,-85.5526485
409,Charlestown Court,40243,38.2435283,-85.5525490
409,Charlestown Court,40243,38.2435551,-85.5525965
410,Charlestown Court,40243,38.2437441,-85.5529548
410,Charlestown Court,40243,38.2437678,-85.5530001
410,Charlestown Court,40243,38.2438036,-85.5528926
410,Charlestown Court,40243,38.2438360,-85.5529432
411,Charlestown Court,40243,38.2435930,-85.5525125
411,Charlestown Court,40243,38.2436190,-85.5525599
411,Charlestown Court,40243,38.2436556,-85.5524514
411,Charlestown Court,40243,38.2436840,-85.5525029
412,Charlestown Court,40243,38.2438675,-85.5528591
412,Charlestown Court,40243,38.2438886,-85.5529115
412,Charlestown Court,40243,38.2439187,-85.5528080
412,Charlestown Court,40243,38.2439415,-85.5528574
413,Charlestown Court,40243,38.2437087,-85.5523860
413,Charlestown Court,40243,38.2437354,-85.5524406
413,Charlestown Court,40243,38.2437646,-85.5523483
413,Charlestown Court,40243,38.2437850,-85.5523935
700,Logsdon Court,40243,38.2411789,-85.5541768
701,Logsdon Court,40243,38.2412171,-85.5541666
702,Logsdon Court,40243,38.2412578,-85.5541530
703,Logsdon Court,40243,38.2413010,-85.5541433
704,Logsdon Court,40243,38.2413330,-85.5541313
705,Logsdon Court,40243,38.2413700,-85.5541241
706,Logsdon Court,40243,38.2412103,-85.5542270
707,Logsdon Court,40243,38.2412978,-85.5542051
12002,Hillrose Circle,40243,38.2331091,-85.5359095
12019,Running Creek Road,40243,38.2331221,-85.5339425
12021,Running Creek Road,40243,38.2330666,-85.5343915
12023,Running Creek Road,40243,38.2322434,-85.5341703
12024,Running Creek Road,40243,38.2328606,-85.5358763
12107,Ellingsworth Lane,40243,38.2287824,-85.5325959
12109,Ellingsworth Lane,40243,38.2288089,-85.5324637
1000,Silvercrest Lane,40223,38.2298896,-85.5574357
10601,Kinross Court,40243,38.2315272,-85.5575096
10816,Falkirk Road,40243,38.2335178,-85.5517875
10900,Cowgill Place,40243,38.2367722,-85.5537613
10900,Shetland Place,40243,38.2355667,-85.5541701
10901,Alloway Court,40243,38.2349403,-85.5543782
10906,Cheskirk Court,40243,38.2362928,-85.5533157
10908,Cheskirk Court,40243,38.2358723,-85.5526183
1100,Silvercrest Lane,40223,38.2300683,-85.5578480
11113,Kilrenny Court,40243,38.2374002,-85.5485013
443,Whiteheath Lane,40243,38.2345810,-85.5592753
504,Lauder Place,40243,38.2377476,-85.5481972
604,Burnett Ridge Road,40243,38.2349015,-85.5450610
801,Moser Road,40223,38.2327212,-85.5588836
809,Kinross Place,40243,38.2324672,-85.5574395
812,Bowmore Place,40243,38.2328988,-85.5575069
100,La Fontenay Court,40223,38.2456389,-85.5596080
100,Laurie Vallee,40223,38.2454821,-85.5588025
1000,La Fontenay Court,40223,38.2471768,-85.5593071
1001,La Fontenay Court,40223,38.2471633,-85.5591318
1002,La Fontenay Court,40223,38.2472220,-85.5593035
1003,La Fontenay Court,40223,38.2472029,-85.5591343
1004,La Fontenay Court,40223,38.2472595,-85.5592985
1005,La Fontenay Court,40223,38.2472482,-85.5591351
1006,La Fontenay Court,40223,38.2473037,-85.5592980
1007,La Fontenay Court,40223,38.2472834,-85.5591340
1008,La Fontenay Court,40223,38.2473445,-85.5592875
1009,La Fontenay Court,40223,38.2473254,-85.5591265
101,La Fontenay Court,40223,38.2455085,-85.5596096
101,La Fontenay Drive,40223,38.2461284,-85.5584097
101,Laurie Vallee,40223,38.2459185,-85.5588286
1010,La Fontenay Court,40223,38.2473919,-85.5592870
1011,La Fontenay Court,40223,38.2473706,-85.5591216
1012,La Fontenay Court,40223,38.2474372,-85.5592839
1013,La Fontenay Court,40223,38.2474181,-85.5591155
1014,La Fontenay Court,40223,38.2474791,-85.5592777
1015,La Fontenay Court,40223,38.2474656,-85.5591094
102,La Fontenay Court,40223,38.2456456,-85.5596830
102,Laurie Vallee,40223,38.2455814,-85.5587969
103,La Fontenay Court,40223,38.2455091,-85.5596940
103,La Fontenay Drive,40223,38.2461738,-85.5583035
103,Laurie Vallee,40223,38.2460300,-85.5588124
104,La Fontenay Court,40223,38.2456521,-85.5597776
104,Laurie Vallee,40223,38.2454749,-85.5586948
105,La Fontenay Court,40223,38.2455111,-85.5597785
105,La Fontenay Drive,40223,38.2461762,-85.5584411
105,Laurie Vallee,40223,38.2459137,-85.5587297
10500,Mcmeekin Lane,40223,38.2515339,-85.5589259
10500,Mcmeekin Lane,40223,38.2515612,-85.5590252
10500,Mcmeekin Lane,40223,38.2515923,-85.5589048
10500,Mcmeekin Lane,40223,38.2516132,-85.5590183
10500,Mcmeekin Lane,40223,38.2516493,-85.5588823
10500,Mcmeekin Lane,40223,38.2516617,-85.5589987
10500,Mcmeekin Lane,40223,38.2517040,-85.5588615
10500,Mcmeekin Lane,40223,38.2517113,-85.5589792
10501,Mcmeekin Lane,40223,38.2519683,-85.5584997
10501,Mcmeekin Lane,40223,38.2519962,-85.5584441
10501,Mcmeekin Lane,40223,38.2520225,-85.5583953
10501,Mcmeekin Lane,40223,38.2520445,-85.5585390
10501,Mcmeekin Lane,40223,38.2520666,-85.5583208
10501,Mcmeekin Lane,40223,38.2520773,-85.5584769
10501,Mcmeekin Lane,40223,38.2521026,-85.5584225
10501,Mcmeekin Lane,40223,38.2521367,-85.5583617
10521,Mcmeekin Lane,40223,38.2514503,-85.5579445
10521,Mcmeekin Lane,40223,38.2514895,-85.5578851
10521,Mcmeekin Lane,40223,38.2515221,-85.5578078
10521,Mcmeekin Lane,40223,38.2515323,-85.5580060
10521,Mcmeekin Lane,40223,38.2515650,-85.5579487
10521,Mcmeekin Lane,40223,38.2515682,-85.5577398
10521,Mcmeekin Lane,40223,38.2515991,-85.5578853
10521,Mcmeekin Lane,40223,38.2516331,-85.5578311
106,La Fontenay Court,40223,38.2456603,-85.5598582
106,Laurie Vallee,40223,38.2455731,-85.5586918
107,La Fontenay Court,40223,38.2455193,-85.5598613
107,La Fontenay Drive,40223,38.2462219,-85.5583096
107,Laurie Vallee,40223,38.2460205,-85.5587047
10700,Mcmeekin Lane,40223,38.2505576,-85.5557688
10700,Mcmeekin Lane,40223,38.2505704,-85.5558430
10700,Mcmeekin Lane,40223,38.2505784,-85.5558962
10700,Mcmeekin Lane,40223,38.2505940,-85.5559483
10700,Mcmeekin Lane,40223,38.2506173,-85.5557433
10700,Mcmeekin Lane,40223,38.2506338,-85.5558050
10700,Mcmeekin Lane,40223,38.2506517,-85.5558680
10700,Mcmeekin Lane,40223,38.2506658,-85.5559353
10701,Mcmeekin Lane,40223,38.2513253,-85.5565274
10701,Mcmeekin Lane,40223,38.2513345,-85.5564775
10701,Mcmeekin Lane,40223,38.2513524,-85.5564212
10701,Mcmeekin Lane,40223,38.2513656,-85.5563479
10701,Mcmeekin Lane,40223,38.2513894,-85.5565425
10701,Mcmeekin Lane,40223,38.2514024,-85.5564866
10701,Mcmeekin Lane,40223,38.2514128,-85.5564384
10701,Mcmeekin Lane,40223,38.2514235,-85.5563629
10711,Mcmeekin Lane,40223,38.2513832,-85.5562224
10711,Mcmeekin Lane,40223,38.2513975,-85.5561582
10711,Mcmeekin Lane,40223,38.2514082,-85.5560879
10711,Mcmeekin Lane,40223,38.2514327,-85.5559974
10711,Mcmeekin Lane,40223,38.2514726,-85.5561909
10711,Mcmeekin Lane,40223,38.2514794,-85.5561284
10711,Mcmeekin Lane,40223,38.2514923,-85.5560798
10711,Mcmeekin Lane,40223,38.2515055,-85.5560113
10729,Colonial Woods Way,40223,38.2492616,-85.5568250
10731,Colonial Woods Way,40223,38.2492695,-85.5568931
10733,Colonial Woods Way,40223,38.2492776,-85.5569503
10735,Colonial Woods Way,40223,38.2492856,-85.5570109
10737,Colonial Woods Way,40223,38.2492964,-85.5570812
10739,Colonial Woods Way,40223,38.2493045,-85.5571401
10741,Colonial Woods Way,40223,38.2493481,-85.5573816
10743,Colonial Woods Way,40223,38.2493533,-85.5574422
10745,Colonial Woods Way,40223,38.2493582,-85.5575163
10747,Colonial Woods Way,40223,38.2493691,-85.5575879
10749,Colonial Woods Way,40223,38.2493841,-85.5576600
10751,Colonial Woods Way,40223,38.2493935,-85.5577337
10753,Colonial Woods Way,40223,38.2494540,-85.5580308
10755,Colonial Woods Way,40223,38.2494854,-85.5580697
108,La Fontenay Court,40223,38.2456669,-85.5599467
108,Laurie Vallee,40223,38.2454641,-85.5585928
109,La Fontenay Court,40223,38.2455274,-85.5599503
109,La Fontenay Drive,40223,38.2462241,-85.5584698
109,Laurie Vallee,40223,38.2459053,-85.5586251
110,La Fontenay Court,40223,38.2456781,-85.5600279
110,Laurie Vallee,40223,38.2455659,-85.5585855
1100,La Fontenay Court,40223,38.2477571,-85.5589989
1101,La Fontenay Court,40223,38.2478773,-85.5589754
1102,La Fontenay Court,40223,38.2477639,-85.5590538
1103,La Fontenay Court,40223,38.2478786,-85.5590411
1104,La Fontenay Court,40223,38.2477706,-85.5591201
1105,La Fontenay Court,40223,38.2478864,-85.5591048
1106,La Fontenay Court,40223,38.2477784,-85.5591821
1107,La Fontenay Court,40223,38.2478869,-85.5591640
1108,La Fontenay Court,40223,38.2477831,-85.5592344
1109,La Fontenay Court,40223,38.2478980,-85.5592125
111,La Fontenay Court,40223,38.2455371,-85.5600349
111,La Fontenay Drive,40223,38.2462836,-85.5583538
111,Laurie Vallee,40223,38.2460156,-85.5586027
1110,La Fontenay Court,40223,38.2477878,-85.5592898
1111,La Fontenay Court,40223,38.2479025,-85.5592744
1112,La Fontenay Court,40223,38.2477999,-85.5593531
1113,La Fontenay Court,40223,38.2479125,-85.5593312
1114,La Fontenay Court,40223,38.2478097,-85.5594142
1115,La Fontenay Court,40223,38.2479203,-85.5593958
1116,La Fontenay Court,40223,38.2478186,-85.5594762
1117,La Fontenay Court,40223,38.2479323,-85.5594565
1118,La Fontenay Court,40223,38.2478243,-85.5595407
1119,La Fontenay Court,40223,38.2479391,-85.5595215
112,La Fontenay Court,40223,38.2456816,-85.5601202
112,Laurie Vallee,40223,38.2454543,-85.5585029
1120,La Fontenay Court,40223,38.2478320,-85.5596123
1121,La Fontenay Court,40223,38.2479521,-85.5595944
1122,La Fontenay Court,40223,38.2478417,-85.5596825
1123,La Fontenay Court,40223,38.2479629,-85.5596643
113,La Fontenay Court,40223,38.2455421,-85.5601234
113,La Fontenay Drive,40223,38.2462900,-85.5585014
113,Laurie Vallee,40223,38.2458967,-85.5585370
114,Laurie Vallee,40223,38.2455608,-85.5584988
115,La Fontenay Drive,40223,38.2463314,-85.5583903
115,Laurie Vallee,40223,38.2460034,-85.5585189
116,Laurie Vallee,40223,38.2454446,-85.5584135
117,La Fontenay Drive,40223,38.2465677,-85.5587681
117,Laurie Vallee,40223,38.2458880,-85.5584563
118,Laurie Vallee,40223,38.2455534,-85.5584168
119,La Fontenay Drive,40223,38.2466849,-85.5587576
119,Laurie Vallee,40223,38.2459948,-85.5584326
120,Laurie Vallee,40223,38.2454371,-85.5583268
1200,La Fontenay Court,40223,38.2482181,-85.5589654
1201,La Fontenay Court,40223,38.2483262,-85.5589134
1202,La Fontenay Court,40223,38.2482492,-85.5590447
1203,La Fontenay Court,40223,38.2483559,-85.5589962
1204,La Fontenay Court,40223,38.2482747,-85.5591279
1205,La Fontenay Court,40223,38.2483788,-85.5590810
1206,La Fontenay Court,40223,38.2482966,-85.5591958
1207,La Fontenay Court,40223,38.2484005,-85.5591537
1208,La Fontenay Court,40223,38.2483197,-85.5592615
1209,La Fontenay Court,40223,38.2484211,-85.5592163
121,La Fontenay Drive,40223,38.2465600,-85.5587109
121,Laurie Vallee,40223,38.2458793,-85.5583743
1210,La Fontenay Court,40223,38.2483454,-85.5593294
1211,La Fontenay Court,40223,38.2484508,-85.5592891
1212,La Fontenay Court,40223,38.2483777,-85.5594175
1213,La Fontenay Court,40223,38.2484777,-85.5593706
1214,La Fontenay Court,40223,38.2484048,-85.5594885
1215,La Fontenay Court,40223,38.2485049,-85.5594398
122,Laurie Vallee,40223,38.2455447,-85.5583348
123,La Fontenay Drive,40223,38.2466823,-85.5586848
123,Laurie Vallee,40223,38.2459873,-85.5583532
124,Laurie Vallee,40223,38.2454272,-85.5582521
125,La Fontenay Drive,40223,38.2465550,-85.5586312
125,Laurie Vallee,40223,38.2458744,-85.5582907
126,Laurie Vallee,40223,38.2455362,-85.5582480
127,La Fontenay Drive,40223,38.2466757,-85.5586059
127,Laurie Vallee,40223,38.2459799,-85.5582695
128,Laurie Vallee,40223,38.2454220,-85.5581837
129,La Fontenay Drive,40223,38.2465486,-85.5585444
129,Laurie Vallee,40223,38.2458691,-85.5582253
130,Laurie Vallee,40223,38.2455237,-85.5581855
1300,La Fontenay Court,40223,38.2485204,-85.5587689
1301,La Fontenay Court,40223,38.2486550,-85.5587121
1302,La Fontenay Court,40223,38.2485343,-85.5588261
1303,La Fontenay Court,40223,38.2486690,-85.5587715
1304,La Fontenay Court,40223,38.2485470,-85.5588703
1305,La Fontenay Court,40223,38.2486790,-85.5588187
1306,La Fontenay Court,40223,38.2485637,-85.5589194
1307,La Fontenay Court,40223,38.2486944,-85.5588678
1308,La Fontenay Court,40223,38.2485765,-85.5589684
1309,La Fontenay Court,40223,38.2487058,-85.5589167
131,La Fontenay Drive,40223,38.2466750,-85.5585227
131,Laurie Vallee,40223,38.2459699,-85.5581984
1310,La Fontenay Court,40223,38.2485919,-85.5590209
1311,La Fontenay Court,40223,38.2487225,-85.5589693
1312,La Fontenay Court,40223,38.2486111,-85.5590817
1313,La Fontenay Court,40223,38.2487417,-85.5590271
1314,La Fontenay Court,40223,38.2486263,-85.5591390
1315,La Fontenay Court,40223,38.2487544,-85.5590808
133,La Fontenay Drive,40223,38.2465429,-85.5584625
133,Laurie Vallee,40223,38.2461333,-85.5580694
135,La Fontenay Drive,40223,38.2466692,-85.5584491
135,Laurie Vallee,40223,38.2462362,-85.5581392
137,La Fontenay Drive,40223,38.2465354,-85.5583831
137,Laurie Vallee,40223,38.2461674,-85.5580000
139,La Fontenay Drive,40223,38.2466617,-85.5583697
139,Laurie Vallee,40223,38.2462637,-85.5580674
1400,La Fontenay Court,40223,38.2488877,-85.5586362
1401,La Fontenay Court,40223,38.2489889,-85.5585684
1402,La Fontenay Court,40223,38.2489118,-85.5587010
1403,La Fontenay Court,40223,38.2490170,-85.5586420
1404,La Fontenay Court,40223,38.2489439,-85.5587769
1405,La Fontenay Court,40223,38.2490465,-85.5587087
1406,La Fontenay Court,40223,38.2489762,-85.5588454
1407,La Fontenay Court,40223,38.2490815,-85.5587829
1408,La Fontenay Court,40223,38.2490057,-85.5589160
1409,La Fontenay Court,40223,38.2491040,-85.5588529
141,La Fontenay Drive,40223,38.2465314,-85.5583021
141,Laurie Vallee,40223,38.2462032,-85.5579453
1410,La Fontenay Court,40223,38.2490447,-85.5589968
1411,La Fontenay Court,40223,38.2491472,-85.5589273
1412,La Fontenay Court,40223,38.2490836,-85.5590863
1413,La Fontenay Court,40223,38.2491833,-85.5590202
1414,La Fontenay Court,40223,38.2491198,-85.5591728
1415,La Fontenay Court,40223,38.2492181,-85.5591079
143,La Fontenay Drive,40223,38.2466560,-85.5582895
143,Laurie Vallee,40223,38.2462961,-85.5580105
145,La Fontenay Drive,40223,38.2465223,-85.5582201
145,Laurie Vallee,40223,38.2462375,-85.5578758
147,La Fontenay Drive,40223,38.2466495,-85.5582054
147,Laurie Vallee,40223,38.2463303,-85.5579476
149,La Fontenay Drive,40223,38.2465165,-85.5581416
149,Laurie Vallee,40223,38.2462782,-85.5578174
151,La Fontenay Drive,40223,38.2466428,-85.5581356
151,Laurie Vallee,40223,38.2463677,-85.5578930
153,La Fontenay Drive,40223,38.2465067,-85.5580618
153,Laurie Vallee,40223,38.2463107,-85.5577627
155,La Fontenay Drive,40223,38.2466379,-85.5580554
155,Laurie Vallee,40223,38.2463969,-85.5578260
157,La Fontenay Drive,40223,38.2465057,-85.5579986
157,Laurie Vallee,40223,38.2463396,-85.5577123
159,La Fontenay Drive,40223,38.2466288,-85.5579817
159,Laurie Vallee,40223,38.2464343,-85.5577736
160,Laurie Vallee,40223,38.2459613,-85.5572898
161,La Fontenay Drive,40223,38.2465006,-85.5579319
161,Laurie Vallee,40223,38.2463737,-85.5576620
162,Laurie Vallee,40223,38.2460590,-85.5573720
163,La Fontenay Drive,40223,38.2466229,-85.5579154
163,Laurie Vallee,40223,38.2464684,-85.5577146
164,Laurie Vallee,40223,38.2459889,-85.5572162
165,Laurie Vallee,40223,38.2464060,-85.5576077
166,Laurie Vallee,40223,38.2460983,-85.5573092
167,Laurie Vallee,40223,38.2465026,-85.5576495
168,Laurie Vallee,40223,38.2460079,-85.5571652
169,Laurie Vallee,40223,38.2464386,-85.5575465
170,Laurie Vallee,40223,38.2461308,-85.5572419
1700,La Fontenay Court,40223,38.2482923,-85.5596902
1701,La Fontenay Court,40223,38.2483039,-85.5598437
1702,La Fontenay Court,40223,38.2483561,-85.5596861
1703,La Fontenay Court,40223,38.2483650,-85.5598365
1704,La Fontenay Court,40223,38.2484305,-85.5596762
1705,La Fontenay Court,40223,38.2484381,-85.5598326
1706,La Fontenay Court,40223,38.2485195,-85.5596691
1707,La Fontenay Court,40223,38.2485312,-85.5598173
171,Laurie Vallee,40223,38.2465353,-85.5575695
172,Laurie Vallee,40223,38.2460590,-85.5570752
173,Laurie Vallee,40223,38.2464711,-85.5574791
174,Laurie Vallee,40223,38.2461700,-85.5571681
175,Laurie Vallee,40223,38.2465711,-85.5575127
177,Laurie Vallee,40223,38.2465036,-85.5574057
179,Laurie Vallee,40223,38.2465867,-85.5574642
190,Springview Court,40243,38.2485736,-85.5562816
1900,La Fontenay Court,40223,38.2492177,-85.5593926
1901,La Fontenay Court,40223,38.2492769,-85.5593867
1902,La Fontenay Court,40223,38.2492290,-85.5594868
1903,La Fontenay Court,40223,38.2492884,-85.5594722
1904,La Fontenay Court,40223,38.2492460,-85.5595672
1905,La Fontenay Court,40223,38.2492999,-85.5595508
1906,La Fontenay Court,40223,38.2492587,-85.5596637
1907,La Fontenay Court,40223,38.2493153,-85.5596473
1908,La Fontenay Court,40223,38.2492715,-85.5597492
1909,La Fontenay Court,40223,38.2493281,-85.5597363
192,Springview Court,40243,38.2485097,-85.5562978
194,Springview Court,40243,38.2484281,-85.5563116
196,Springview Court,40243,38.2483521,-85.5563033
200,La Fontenay Court,40223,38.2459579,-85.5592716
200,La Normandy Drive,40223,38.2476878,-85.5585601
200,La Ruisseau Road,40223,38.2481531,-85.5575238
201,La Fontenay Court,40223,38.2460731,-85.5592680
201,La Fontenay Drive,40223,38.2470257,-85.5587093
201,La Normandy Drive,40223,38.2479775,-85.5584409
201,La Ruisseau Road,40223,38.2490856,-85.5573808
201,Laurie Vallee,40223,38.2466913,-85.5572289
202,La Fontenay Court,40223,38.2459584,-85.5593617
202,La Normandy Drive,40223,38.2475856,-85.5585975
202,La Ruisseau Road,40223,38.2481844,-85.5574064
203,La Fontenay Court,40223,38.2460796,-85.5593639
203,La Fontenay Drive,40223,38.2470108,-85.5585928
203,La Normandy Drive,40223,38.2480843,-85.5584123
203,La Ruisseau Road,40223,38.2490644,-85.5572642
203,Laurie Vallee,40223,38.2467278,-85.5574076
204,La Fontenay Court,40223,38.2459557,-85.5594735
204,La Normandy Drive,40223,38.2475695,-85.5585410
204,La Ruisseau Road,40223,38.2482139,-85.5573172
205,La Fontenay Court,40223,38.2460770,-85.5594657
205,La Fontenay Drive,40223,38.2470599,-85.5587068
205,La Normandy Drive,40223,38.2479571,-85.5583434
205,La Ruisseau Road,40223,38.2490493,-85.5571307
205,Laurie Vallee,40223,38.2467265,-85.5572208
206,La Fontenay Court,40223,38.2459637,-85.5595660
206,La Normandy Drive,40223,38.2476706,-85.5584898
206,La Ruisseau Road,40223,38.2482469,-85.5571811
207,La Fontenay Court,40223,38.2460788,-85.5595720
207,La Fontenay Drive,40223,38.2470560,-85.5585962
207,La Normandy Drive,40223,38.2480640,-85.5583070
207,La Ruisseau Road,40223,38.2490339,-85.5570369
207,Laurie Vallee,40223,38.2467647,-85.5573995
208,La Fontenay Court,40223,38.2459644,-85.5596330
208,La Normandy Drive,40223,38.2475488,-85.5584710
208,La Ruisseau Road,40223,38.2482751,-85.5570807
209,La Fontenay Court,40223,38.2460812,-85.5596312
209,La Fontenay Drive,40223,38.2471001,-85.5587041
209,La Normandy Drive,40223,38.2479365,-85.5582577
209,La Ruisseau Road,40223,38.2490215,-85.5569339
209,Laurie Vallee,40223,38.2467635,-85.5572110
210,La Fontenay Court,40223,38.2459725,-85.5597215
210,La Normandy Drive,40223,38.2476535,-85.5584107
210,La Ruisseau Road,40223,38.2483019,-85.5569762
211,La Fontenay Court,40223,38.2460878,-85.5597219
211,La Fontenay Drive,40223,38.2470979,-85.5585987
211,La Normandy Drive,40223,38.2480422,-85.5582174
211,La Ruisseau Road,40223,38.2490061,-85.5568348
211,Laurie Vallee,40223,38.2468000,-85.5573854
212,La Fontenay Court,40223,38.2459805,-85.5598218
212,La Normandy Drive,40223,38.2475281,-85.5583962
213,La Fontenay Court,40223,38.2460974,-85.5598104
213,La Fontenay Drive,40223,38.2471385,-85.5587026
213,La Normandy Drive,40223,38.2479159,-85.5581742
213,La Ruisseau Road,40223,38.2489877,-85.5567374
213,Laurie Vallee,40223,38.2467922,-85.5571902
214,La Fontenay Court,40223,38.2459962,-85.5599048
214,La Normandy Drive,40223,38.2476400,-85.5583390
215,La Fontenay Court,40223,38.2461161,-85.5598974
215,La Fontenay Drive,40223,38.2471338,-85.5585950
215,La Normandy Drive,40223,38.2480276,-85.5581384
215,La Ruisseau Road,40223,38.2489650,-85.5566247
215,Laurie Vallee,40223,38.2468337,-85.5573690
216,La Fontenay Court,40223,38.2460011,-85.5600146
216,La Normandy Drive,40223,38.2475157,-85.5583307
217,La Fontenay Court,40223,38.2461241,-85.5600011
217,La Fontenay Drive,40223,38.2471822,-85.5586947
217,La Normandy Drive,40223,38.2478989,-85.5580903
217,Laurie Vallee,40223,38.2468342,-85.5571740
218,La Normandy Drive,40223,38.2476288,-85.5582705
219,La Fontenay Drive,40223,38.2471774,-85.5585940
219,La Normandy Drive,40223,38.2480117,-85.5580545
219,Laurie Vallee,40223,38.2468757,-85.5573463
220,La Normandy Drive,40223,38.2474975,-85.5582455
221,La Fontenay Drive,40223,38.2472293,-85.5586881
221,La Normandy Drive,40223,38.2478798,-85.5579807
221,Laurie Vallee,40223,38.2468710,-85.5571703
222,La Normandy Drive,40223,38.2476060,-85.5581730
223,La Fontenay Drive,40223,38.2472244,-85.5585884
223,La Normandy Drive,40223,38.2479854,-85.5579509
223,Laurie Vallee,40223,38.2469143,-85.5573365
224,La Normandy Drive,40223,38.2474745,-85.5581632
225,La Fontenay Drive,40223,38.2472695,-85.5586832
225,La Normandy Drive,40223,38.2478569,-85.5578863
225,Laurie Vallee,40223,38.2469114,-85.5571541
226,La Normandy Drive,40223,38.2475876,-85.5581043
227,La Fontenay Drive,40223,38.2472663,-85.5585878
227,La Normandy Drive,40223,38.2479613,-85.5578607
227,Laurie Vallee,40223,38.2469513,-85.5573202
228,La Normandy Drive,40223,38.2474538,-85.5580836
229,La Fontenay Drive,40223,38.2473080,-85.5586795
229,La Normandy Drive,40223,38.2478364,-85.5577936
229,Laurie Vallee,40223,38.2469465,-85.5571482
230,La Normandy Drive,40223,38.2475728,-85.5580361
231,La Fontenay Drive,40223,38.2473040,-85.5585811
231,La Normandy Drive,40223,38.2479372,-85.5577632
231,Laurie Vallee,40223,38.2469866,-85.5573039
232,La Normandy Drive,40223,38.2474343,-85.5580123
233,La Fontenay Drive,40223,38.2473465,-85.5586728
233,Laurie Vallee,40223,38.2469803,-85.5571235
234,La Normandy Drive,40223,38.2475604,-85.5579706
235,La Fontenay Drive,40223,38.2473442,-85.5585762
235,Laurie Vallee,40223,38.2470219,-85.5572919
236,La Normandy Drive,40223,38.2474171,-85.5579467
237,La Fontenay Drive,40223,38.2473885,-85.5586671
237,Laurie Vallee,40223,38.2470240,-85.5571052
238,La Normandy Drive,40223,38.2475445,-85.5578972
239,La Fontenay Drive,40223,38.2473879,-85.5585630
239,Laurie Vallee,40223,38.2470706,-85.5572697
240,La Normandy Drive,40223,38.2474070,-85.5578764
240,Laurie Vallee,40223,38.2476321,-85.5568314
241,Laurie Vallee,40223,38.2472874,-85.5571769
242,La Normandy Drive,40223,38.2475247,-85.5578424
242,Laurie Vallee,40223,38.2477181,-85.5567494
243,Laurie Vallee,40223,38.2472031,-85.5573252
244,La Normandy Drive,40223,38.2473958,-85.5578188
244,Laurie Vallee,40223,38.2477568,-85.5568223
245,Laurie Vallee,40223,38.2473138,-85.5572031
246,La Normandy Drive,40223,38.2475086,-85.5577782
246,Laurie Vallee,40223,38.2476709,-85.5568822
247,Laurie Vallee,40223,38.2472270,-85.5573434
248,Laurie Vallee,40223,38.2477965,-85.5569071
249,Laurie Vallee,40223,38.2473403,-85.5572232
250,Laurie Vallee,40223,38.2477095,-85.5569521
251,Laurie Vallee,40223,38.2472497,-85.5573665
252,Laurie Vallee,40223,38.2478440,-85.5569819
253,Laurie Vallee,40223,38.2473680,-85.5572476
254,Laurie Vallee,40223,38.2477491,-85.5570512
255,Laurie Vallee,40223,38.2472735,-85.5573909
256,Laurie Vallee,40223,38.2478913,-85.5570746
257,Laurie Vallee,40223,38.2473957,-85.5572725
258,Laurie Vallee,40223,38.2478028,-85.5571444
259,Laurie Vallee,40223,38.2473026,-85.5574110
260,Laurie Vallee,40223,38.2479336,-85.5571594
261,Laurie Vallee,40223,38.2474309,-85.5573084
262,Laurie Vallee,40223,38.2478451,-85.5572192
263,Laurie Vallee,40223,38.2473378,-85.5574438
264,Laurie Vallee,40223,38.2479909,-85.5572588
265,Laurie Vallee,40223,38.2474636,-85.5573394
266,Laurie Vallee,40223,38.2478986,-85.5573264
267,Laurie Vallee,40223,38.2473744,-85.5574754
268,Laurie Vallee,40223,38.2480383,-85.5573437
269,Laurie Vallee,40223,38.2475001,-85.5573758
270,Laurie Vallee,40223,38.2479472,-85.5574195
271,La Fontenay Drive,40223,38.2482106,-85.5583541
271,Laurie Vallee,40223,38.2474160,-85.5575031
273,La Fontenay Drive,40223,38.2482550,-85.5583471
273,Laurie Vallee,40223,38.2475377,-85.5574248
275,La Fontenay Drive,40223,38.2482961,-85.5583069
275,Laurie Vallee,40223,38.2474562,-85.5575509
277,La Fontenay Drive,40223,38.2483550,-85.5582809
277,Laurie Vallee,40223,38.2475729,-85.5574576
279,La Fontenay Drive,40223,38.2484139,-85.5582602
279,Laurie Vallee,40223,38.2475015,-85.5575887
280,Laurie Vallee,40223,38.2485443,-85.5575404
281,La Fontenay Drive,40223,38.2484752,-85.5582344
281,Laurie Vallee,40223,38.2481518,-85.5578794
282,Laurie Vallee,40223,38.2486002,-85.5575893
283,La Fontenay Drive,40223,38.2485329,-85.5582154
283,Laurie Vallee,40223,38.2481985,-85.5579020
284,Laurie Vallee,40223,38.2486607,-85.5576461
285,La Fontenay Drive,40223,38.2485931,-85.5581847
285,Laurie Vallee,40223,38.2482563,-85.5579231
286,Laurie Vallee,40223,38.2487227,-85.5577047
287,La Fontenay Drive,40223,38.2486494,-85.5581705
287,Laurie Vallee,40223,38.2483140,-85.5579498
288,Laurie Vallee,40223,38.2487832,-85.5577615
289,La Fontenay Drive,40223,38.2487095,-85.5581476
289,Laurie Vallee,40223,38.2483796,-85.5579728
290,Laurie Vallee,40223,38.2488469,-85.5578162
291,Laurie Vallee,40223,38.2484341,-85.5580055
300,La Fontenay Court,40223,38.2463606,-85.5594900
301,Creason Court,40223,38.2503774,-85.5549911
301,Creason Court,40223,38.2504057,-85.5548945
301,Creason Court,40223,38.2504267,-85.5549998
301,Creason Court,40223,38.2504487,-85.5549157
301,Creason Court,40223,38.2504784,-85.5550277
301,Creason Court,40223,38.2504930,-85.5549353
301,Creason Court,40223,38.2505312,-85.5550535
301,Creason Court,40223,38.2505485,-85.5549506
301,La Fontenay Court,40223,38.2464513,-85.5595830
302,La Fontenay Court,40223,38.2463259,-85.5595472
303,La Fontenay Court,40223,38.2464167,-85.5596386
304,La Fontenay Court,40223,38.2462873,-85.5596062
305,La Fontenay Court,40223,38.2463832,-85.5596945
306,La Fontenay Court,40223,38.2462499,-85.5596721
307,La Fontenay Court,40223,38.2463379,-85.5597634
311,Creason Court,40223,38.2506345,-85.5551176
311,Creason Court,40223,38.2506531,-85.5550065
311,Creason Court,40223,38.2506702,-85.5551339
311,Creason Court,40223,38.2506837,-85.5550275
311,Creason Court,40223,38.2507046,-85.5551532
311,Creason Court,40223,38.2507195,-85.5550360
311,Creason Court,40223,38.2507600,-85.5551716
311,Creason Court,40223,38.2507835,-85.5550497
321,Piatt Place,40223,38.2499638,-85.5554076
321,Piatt Place,40223,38.2499768,-85.5554693
321,Piatt Place,40223,38.2499836,-85.5555177
321,Piatt Place,40223,38.2500015,-85.5555759
321,Piatt Place,40223,38.2500432,-85.5553825
321,Piatt Place,40223,38.2500500,-85.5554453
321,Piatt Place,40223,38.2500630,-85.5554956
321,Piatt Place,40223,38.2500696,-85.5555602
331,Piatt Place,40223,38.2500397,-85.5556989
331,Piatt Place,40223,38.2500589,-85.5557528
331,Piatt Place,40223,38.2500694,-85.5558092
331,Piatt Place,40223,38.2500812,-85.5558533
331,Piatt Place,40223,38.2501178,-85.5556786
331,Piatt Place,40223,38.2501307,-85.5557397
331,Piatt Place,40223,38.2501390,-85.5557743
331,Piatt Place,40223,38.2501556,-85.5558294
341,Piatt Place,40223,38.2501072,-85.5559735
341,Piatt Place,40223,38.2501152,-85.5560346
341,Piatt Place,40223,38.2501258,-85.5560866
341,Piatt Place,40223,38.2501376,-85.5561356
341,Piatt Place,40223,38.2501792,-85.5559592
341,Piatt Place,40223,38.2501872,-85.5560094
341,Piatt Place,40223,38.2501989,-85.5560662
341,Piatt Place,40223,38.2502119,-85.5561212
400,Ethridge Avenue,40223,38.2490032,-85.5563032
400,Ethridge Avenue,40223,38.2490203,-85.5562126
400,Ethridge Avenue,40223,38.2490524,-85.5563246
400,Ethridge Avenue,40223,38.2490609,-85.5562320
400,Ethridge Avenue,40223,38.2490953,-85.5563567
400,Ethridge Avenue,40223,38.2491002,-85.5562519
400,Ethridge Avenue,40223,38.2491445,-85.5563811
400,Ethridge Avenue,40223,38.2491543,-85.5562746
400,La Fontenay Court,40223,38.2465668,-85.5592112
401,Creason Court,40223,38.2510172,-85.5552807
401,Creason Court,40223,38.2510640,-85.5553038
401,Creason Court,40223,38.2511120,-85.5553173
401,Creason Court,40223,38.2511600,-85.5553399
401,La Fontenay Court,40223,38.2467071,-85.5591985
402,La Fontenay Court,40223,38.2465738,-85.5592892
403,La Fontenay Court,40223,38.2467102,-85.5592769
404,La Fontenay Court,40223,38.2465755,-85.5593741
405,La Fontenay Court,40223,38.2467144,-85.5593666
406,La Fontenay Court,40223,38.2465851,-85.5594488
407,La Fontenay Court,40223,38.2467227,-85.5594482
408,La Fontenay Court,40223,38.2465896,-85.5595189
409,La Fontenay Court,40223,38.2467246,-85.5595161
410,Ethridge Avenue,40223,38.2492700,-85.5563315
410,Ethridge Avenue,40223,38.2493155,-85.5563511
410,Ethridge Avenue,40223,38.2493537,-85.5563705
410,Ethridge Avenue,40223,38.2494030,-85.5563823
410,La Fontenay Court,40223,38.2465888,-85.5595838
411,Creason Court,40223,38.2512482,-85.5553759
411,Ethridge Avenue,40223,38.2492441,-85.5564395
411,Ethridge Avenue,40223,38.2492859,-85.5564585
411,Ethridge Avenue,40223,38.2493227,-85.5564814
411,Ethridge Avenue,40223,38.2493683,-85.5564966
411,La Fontenay Court,40223,38.2467277,-85.5595810
412,La Fontenay Court,40223,38.2465946,-85.5596583
413,La Fontenay Court,40223,38.2467296,-85.5596542
414,La Fontenay Court,40223,38.2466056,-85.5597216
415,La Fontenay Court,40223,38.2467353,-85.5597192
416,La Fontenay Court,40223,38.2466166,-85.5597949
417,La Fontenay Court,40223,38.2467346,-85.5597858
418,La Fontenay Court,40223,38.2466184,-85.5598733
419,La Fontenay Court,40223,38.2467520,-85.5598688
420,Ethridge Avenue,40223,38.2494766,-85.5565264
420,Ethridge Avenue,40223,38.2495000,-85.5564236
420,Ethridge Avenue,40223,38.2495184,-85.5565402
420,Ethridge Avenue,40223,38.2495418,-85.5564431
420,Ethridge Avenue,40223,38.2495652,-85.5565593
420,Ethridge Avenue,40223,38.2495837,-85.5564552
420,Ethridge Avenue,40223,38.2496157,-85.5565794
420,Ethridge Avenue,40223,38.2496355,-85.5564665
430,Ethridge Avenue,40223,38.2499555,-85.5567344
430,Ethridge Avenue,40223,38.2499850,-85.5566361
430,Ethridge Avenue,40223,38.2500121,-85.5567589
430,Ethridge Avenue,40223,38.2500269,-85.5566512
430,Ethridge Avenue,40223,38.2500613,-85.5567833
430,Ethridge Avenue,40223,38.2500687,-85.5566720
430,Ethridge Avenue,40223,38.2501031,-85.5567980
430,Ethridge Avenue,40223,38.2501204,-85.5566886
440,Ethridge Avenue,40223,38.2502039,-85.5568215
440,Ethridge Avenue,40223,38.2502236,-85.5567218
440,Ethridge Avenue,40223,38.2502509,-85.5568241
440,Ethridge Avenue,40223,38.2502679,-85.5567395
440,Ethridge Avenue,40223,38.2502939,-85.5568497
440,Ethridge Avenue,40223,38.2503159,-85.5567561
440,Ethridge Avenue,40223,38.2503492,-85.5568760
440,Ethridge Avenue,40223,38.2503701,-85.5567758
600,Tessin Way,40223,38.2514840,-85.5574282
602,Tessin Way,40223,38.2515519,-85.5571629
603,Savoy Road,40223,38.2518578,-85.5559490
604,Tessin Way,40223,38.2516674,-85.5572211
605,Savoy Road,40223,38.2519453,-85.5559963
606,Tessin Way,40223,38.2515795,-85.5574809
608,Tessin Way,40223,38.2518342,-85.5575657
610,Tessin Way,40223,38.2518929,-85.5573278
612,Tessin Way,40223,38.2520045,-85.5573807
614,Tessin Way,40223,38.2519217,-85.5576282
700,La Fontenay Court,40223,38.2462299,-85.5600505
700,Tessin Way,40223,38.2522138,-85.5576769
702,La Fontenay Court,40223,38.2462941,-85.5600551
702,Tessin Way,40223,38.2522680,-85.5574794
704,La Fontenay Court,40223,38.2463582,-85.5600628
706,Tessin Way,40223,38.2523172,-85.5577397
812,La Fontenay Court,40223,38.2469872,-85.5599940
814,La Fontenay Court,40223,38.2470260,-85.5599765
816,La Fontenay Court,40223,38.2470648,-85.5599550
818,La Fontenay Court,40223,38.2471046,-85.5599404
10514,Lawrencekirk Court,40243,38.2410632,-85.5590680
436,Whiteheath Lane,40243,38.2359010,-85.5561934
517,Lymington Court,40243,38.2370385,-85.5580549
803,Stoneykirk Drive,40223,38.2312305,-85.5597151
203,Moser Road,40223,38.2440516,-85.5592607
233,Blankenbaker Parkway,40243,38.2419399,-85.5451752
237,Blankenbaker Parkway,40243,38.2418476,-85.5452670
217,Blankenbaker Parkway,40243,38.2426575,-85.5445501
239,Blankenbaker Parkway,40243,38.2417367,-85.5453877
103,Burnley Road,40243,38.2438291,-85.5512261
106,North Watterson Trail,40243,38.2435211,-85.5437385
110,North Watterson Trail,40243,38.2431220,-85.5434969
11002,Fellswood Court,40243,38.2398232,-85.5519346
11003,Fellswood Court,40243,38.2404095,-85.5516090
11003,Finchley Road,40243,38.2390666,-85.5519717
11005,Fellswood Court,40243,38.2406016,-85.5514703
11005,Finchley Road,40243,38.2389056,-85.5517227
11006,Fellswood Court,40243,38.2402721,-85.5510988
11007,Fellswood Court,40243,38.2407376,-85.5512068
11007,Finchley Road,40243,38.2387319,-85.5514936
11008,Fellswood Court,40243,38.2403312,-85.5507738
11009,Fellswood Court,40243,38.2409267,-85.5509548
11009,Finchley Road,40243,38.2385604,-85.5512771
11010,Fellswood Court,40243,38.2405171,-85.5505365
11011,Fellswood Court,40243,38.2408166,-85.5506101
11011,Finchley Road,40243,38.2384246,-85.5510202
11013,Finchley Road,40243,38.2383597,-85.5507115
11015,Finchley Road,40243,38.2383755,-85.5503992
11017,Finchley Road,40243,38.2384135,-85.5501271
11100,Berwick Place,40243,38.2409847,-85.5500262
11100,Huntley Place,40243,38.2390289,-85.5496263
11100,Kinnaird Court,40243,38.2399010,-85.5497165
11101,Berwick Place,40243,38.2412458,-85.5500110
11101,Finchley Road,40243,38.2384388,-85.5498173
11101,Huntley Place,40243,38.2392753,-85.5498253
11101,Kinnaird Court,40243,38.2401600,-85.5499219
11102,Berwick Place,40243,38.2407962,-85.5497607
11102,Huntley Place,40243,38.2390135,-85.5492620
11102,Kinnaird Court,40243,38.2399118,-85.5494030
11103,Berwick Place,40243,38.2413219,-85.5496092
11103,Finchley Road,40243,38.2384696,-85.5495046
11103,Huntley Place,40243,38.2395138,-85.5496173
11103,Kinnaird Court,40243,38.2403883,-85.5496630
11104,Berwick Place,40243,38.2408535,-85.5494364
11104,Huntley Place,40243,38.2389227,-85.5489313
11104,Kinnaird Court,40243,38.2399543,-85.5490823
11105,Finchley Road,40243,38.2385347,-85.5492124
11105,Huntley Place,40243,38.2394626,-85.5492992
11105,Kinnaird Court,40243,38.2403694,-85.5493265
11106,Huntley Place,40243,38.2388870,-85.5486374
11107,Finchley Road,40243,38.2385560,-85.5488368
11107,Huntley Place,40243,38.2394044,-85.5490142
11108,Huntley Place,40243,38.2390041,-85.5483294
11109,Finchley Road,40243,38.2385872,-85.5485256
11109,Huntley Place,40243,38.2393183,-85.5486977
11111,Finchley Road,40243,38.2385692,-85.5482200
11113,Finchley Road,40243,38.2385303,-85.5479040
11115,Finchley Road,40243,38.2384684,-85.5475261
11200,Lochinvar Court,40243,38.2386984,-85.5468590
11201,Finchley Road,40243,38.2381812,-85.5469369
11201,Lochinvar Court,40243,38.2391469,-85.5470108
11202,Darlington Place,40243,38.2416449,-85.5483787
11202,Lochinvar Court,40243,38.2388083,-85.5464709
11203,Darlington Place,40243,38.2420059,-85.5486010
11203,Finchley Road,40243,38.2380112,-85.5467162
11203,Lochinvar Court,40243,38.2392585,-85.5466804
11203,Rannoch Lane,40243,38.2402850,-85.5478021
11204,Darlington Place,40243,38.2417465,-85.5481104
11204,Rannoch Lane,40243,38.2399299,-85.5475378
11205,Darlington Place,40243,38.2421132,-85.5482942
11205,Finchley Road,40243,38.2378561,-85.5465025
11206,Darlington Place,40243,38.2418413,-85.5478659
11206,Rannoch Lane,40243,38.2400746,-85.5472649
11207,Darlington Place,40243,38.2422272,-85.5480397
11207,Finchley Road,40243,38.2376571,-85.5462400
11208,Darlington Place,40243,38.2418932,-85.5475560
11208,Rannoch Lane,40243,38.2401684,-85.5469932
11209,Darlington Place,40243,38.2423675,-85.5477954
11209,Rannoch Lane,40243,38.2406192,-85.5469396
11210,Darlington Place,40243,38.2420694,-85.5472247
11210,Rannoch Lane,40243,38.2402336,-85.5467393
11211,Darlington Place,40243,38.2423723,-85.5474325
11211,Finchley Road,40243,38.2373070,-85.5457431
11211,Rannoch Lane,40243,38.2407209,-85.5466137
11212,Rannoch Lane,40243,38.2403195,-85.5464833
11213,Finchley Road,40243,38.2370062,-85.5453845
11215,Finchley Road,40243,38.2366480,-85.5447721
11330,Main Street,40243,38.2435691,-85.5463743
11414,Main Street,40243,38.2437775,-85.5441071
11418,Main Street,40243,38.2439475,-85.5438587
11500,Christian Village Court,40243,38.2403073,-85.5422664
11502,Christian Village Court,40243,38.2406029,-85.5424148
11530,Herrick Lane,40243,38.2394257,-85.5422847
116,North Watterson Trail,40243,38.2424788,-85.5432015
118,North Watterson Trail,40243,38.2422280,-85.5431316
200,Dunbar Place,40243,38.2426940,-85.5512865
200,Kinnaird Lane,40243,38.2429441,-85.5515867
200,Lanark Dell,40243,38.2436181,-85.5507171
200,Lanark Place,40243,38.2435352,-85.5482087
201,Dunbar Place,40243,38.2424184,-85.5508940
201,Kinnaird Lane,40243,38.2434878,-85.5513023
201,Lanark Dell,40243,38.2437628,-85.5505413
201,Lanark Place,40243,38.2433572,-85.5479462
202,Dunbar Place,40243,38.2424811,-85.5515342
202,Lanark Dell,40243,38.2433022,-85.5505829
202,Lanark Place,40243,38.2433963,-85.5485570
203,Dunbar Place,40243,38.2422164,-85.5510782
203,Kinnaird Lane,40243,38.2431294,-85.5509815
203,Lanark Dell,40243,38.2436585,-85.5501749
203,Lanark Place,40243,38.2431132,-85.5479317
204,Dunbar Place,40243,38.2422595,-85.5516368
204,Lanark Dell,40243,38.2432010,-85.5503030
204,Lanark Place,40243,38.2431153,-85.5485195
205,Burnley Road,40243,38.2416072,-85.5527328
205,Dunbar Place,40243,38.2419803,-85.5511079
205,Kinnaird Lane,40243,38.2429484,-85.5507937
205,Lanark Dell,40243,38.2435583,-85.5498992
205,Lanark Place,40243,38.2428864,-85.5480570
206,Dunbar Place,40243,38.2419744,-85.5517311
206,Kinnaird Lane,40243,38.2422163,-85.5504263
206,Lanark Dell,40243,38.2431791,-85.5500166
206,Lanark Place,40243,38.2429112,-85.5486671
207,Burnley Road,40243,38.2417821,-85.5526557
207,Dunbar Place,40243,38.2418196,-85.5509232
207,Kinnaird Lane,40243,38.2427663,-85.5505034
207,Lanark Dell,40243,38.2435417,-85.5496082
207,Lanark Place,40243,38.2426515,-85.5482384
208,Dunbar Place,40243,38.2417461,-85.5515947
208,Kinnaird Lane,40243,38.2421364,-85.5501892
208,Lanark Dell,40243,38.2431001,-85.5496959
208,Lanark Place,40243,38.2428825,-85.5490697
209,Dunbar Place,40243,38.2418251,-85.5506239
209,Kinnaird Lane,40243,38.2426470,-85.5502917
209,Lanark Dell,40243,38.2433779,-85.5493039
209,Lanark Place,40243,38.2425348,-85.5484656
210,Dunbar Place,40243,38.2414553,-85.5518061
210,Kinnaird Lane,40243,38.2420199,-85.5499249
210,Lanark Place,40243,38.2427739,-85.5496321
211,Dunbar Place,40243,38.2416130,-85.5503123
211,Kinnaird Lane,40243,38.2425182,-85.5499842
211,Lanark Dell,40243,38.2431792,-85.5491837
211,Lanark Place,40243,38.2424532,-85.5487818
212,Dunbar Place,40243,38.2411672,-85.5516779
212,Kinnaird Lane,40243,38.2418908,-85.5496778
213,Dunbar Place,40243,38.2413277,-85.5504990
213,Kinnaird Lane,40243,38.2422179,-85.5493730
213,Lanark Place,40243,38.2424682,-85.5490559
214,Dunbar Place,40243,38.2411627,-85.5513690
214,Kinnaird Lane,40243,38.2417451,-85.5494787
215,Dunbar Place,40243,38.2413155,-85.5508452
215,Kinnaird Lane,40243,38.2419139,-85.5490090
216,Dunbar Place,40243,38.2413222,-85.5511264
216,Kinnaird Lane,40243,38.2415507,-85.5493421
218,Kinnaird Lane,40243,38.2413400,-85.5492015
300,Kinnaird Lane,40243,38.2408472,-85.5490804
300,Rannoch Court,40243,38.2415114,-85.5473706
301,Kinnaird Lane,40243,38.2414606,-85.5486928
301,Rannoch Court,40243,38.2414656,-85.5470154
302,Rannoch Court,40243,38.2414590,-85.5476323
303,Gatehouse Lane,40243,38.2401628,-85.5553551
303,Kinnaird Lane,40243,38.2411907,-85.5486100
303,Rannoch Court,40243,38.2412375,-85.5468575
304,Rannoch Court,40243,38.2412390,-85.5479278
305,Kinnaird Lane,40243,38.2409658,-85.5485096
305,Rannoch Court,40243,38.2410123,-85.5470408
306,Rannoch Court,40243,38.2410063,-85.5479419
307,Kinnaird Lane,40243,38.2407369,-85.5485241
307,Rannoch Court,40243,38.2409224,-85.5474439
308,Kinnaird Lane,40243,38.2405989,-85.5490079
308,Rannoch Court,40243,38.2408028,-85.5478944
309,Kinnaird Lane,40243,38.2405289,-85.5484545
310,Kinnaird Lane,40243,38.2404062,-85.5489864
310,Rannoch Court,40243,38.2405639,-85.5478353
311,Kinnaird Lane,40243,38.2403281,-85.5483074
311,Rannoch Court,40243,38.2405469,-85.5472697
312,Kinnaird Lane,40243,38.2399711,-85.5487087
313,Kinnaird Lane,40243,38.2401356,-85.5482360
314,Kinnaird Lane,40243,38.2397713,-85.5485326
316,Kinnaird Lane,40243,38.2395892,-85.5483733
400,Blankenbaker Parkway,40243,38.2401524,-85.5447633
400,Fellswood Place,40243,38.2398337,-85.5514406
400,Kinnaird Lane,40243,38.2392536,-85.5479470
400,Lochinvar Place,40243,38.2398407,-85.5467532
401,Fellswood Place,40243,38.2400473,-85.5509522
401,Kinnaird Lane,40243,38.2397568,-85.5478054
401,Lochinvar Place,40243,38.2398801,-85.5464655
402,Clydebank Court,40243,38.2374520,-85.5453969
402,Fellswood Place,40243,38.2396211,-85.5512619
402,Lochinvar Place,40243,38.2395706,-85.5468809
403,Clydebank Court,40243,38.2378086,-85.5459979
403,Fellswood Place,40243,38.2398436,-85.5507868
403,Lochinvar Place,40243,38.2396284,-85.5462231
404,Clydebank Court,40243,38.2377000,-85.5453553
404,Fellswood Place,40243,38.2394255,-85.5511188
404,Kinnaird Lane,40243,38.2390476,-85.5476967
405,Clydebank Court,40243,38.2379143,-85.5457043
405,Fellswood Place,40243,38.2396557,-85.5507019
405,Kinnaird Lane,40243,38.2395198,-85.5475537
405,Lochinvar Place,40243,38.2394099,-85.5461722
406,Blankenbaker Parkway,40243,38.2394606,-85.5445890
406,Fellswood Place,40243,38.2391623,-85.5509952
407,Fellswood Place,40243,38.2394587,-85.5505191
407,Kinnaird Lane,40243,38.2393543,-85.5473583
407,Lochinvar Place,40243,38.2391882,-85.5460800
408,Blankenbaker Parkway,40243,38.2389835,-85.5443947
408,Fellswood Place,40243,38.2389443,-85.5507020
408,Kinnaird Lane,40243,38.2388261,-85.5474852
409,Fellswood Place,40243,38.2391804,-85.5503433
409,Lochinvar Place,40243,38.2389647,-85.5459884
410,Fellswood Place,40243,38.2402205,-85.5505737
410,Lochinvar Place,40243,38.2386011,-85.5463743
411,Lochinvar Place,40243,38.2387428,-85.5458871
412,Lochinvar Place,40243,38.2383354,-85.5464326
413,Kinnaird Lane,40243,38.2384215,-85.5469131
413,Lochinvar Place,40243,38.2385031,-85.5457433
414,Lochinvar Place,40243,38.2381696,-85.5461656
415,Lochinvar Place,40243,38.2382356,-85.5458248
500,North Watterson Trail,40243,38.2375218,-85.5427081
500,Selkirk Lane,40243,38.2371584,-85.5451246
501,Gatehouse Lane,40243,38.2385170,-85.5549479
600,Gatehouse Lane,40243,38.2392349,-85.5522749
602,Gatehouse Lane,40243,38.2394930,-85.5522257
604,Gatehouse Lane,40243,38.2398183,-85.5522713
606,Gatehouse Lane,40243,38.2403309,-85.5523406
608,Gatehouse Lane,40243,38.2405550,-85.5523414
610,Gatehouse Lane,40243,38.2407574,-85.5523740
612,Gatehouse Lane,40243,38.2409456,-85.5523816
614,Gatehouse Lane,40243,38.2411701,-85.5524985
616,Gatehouse Lane,40243,38.2413444,-85.5525589
825,North Pope Lick Road,40243,38.2302692,-85.5260844
102,Burnsdale Road,40243,38.2439797,-85.5552695
104,Burnsdale Road,40243,38.2437927,-85.5553474
106,Burnsdale Road,40243,38.2435988,-85.5555023
10600,Shelbyville Road,40223,38.2447255,-85.5587992
10602,Shelbyville Road,40223,38.2445561,-85.5582089
10602,Sunderland Road,40243,38.2431727,-85.5588867
10603,Sunderland Road,40243,38.2433760,-85.5593399
10604,Sunderland Road,40243,38.2433347,-85.5587714
10605,Helmsdale Lane,40243,38.2432084,-85.5594980
10605,Sunderland Road,40243,38.2435366,-85.5592148
10607,Sunderland Road,40243,38.2437018,-85.5590667
10608,Sunderland Road,40243,38.2435033,-85.5585497
10609,Helmsdale Lane,40243,38.2429575,-85.5589619
10609,Sunderland Road,40243,38.2438493,-85.5588640
10610,Sunderland Road,40243,38.2435412,-85.5583302
10611,Helmsdale Lane,40243,38.2428064,-85.5586593
10611,Sunderland Road,40243,38.2439428,-85.5586110
10613,Sunderland Road,40243,38.2439754,-85.5583508
10614,Sunderland Road,40243,38.2435023,-85.5580676
10615,Sunderland Road,40243,38.2439658,-85.5580892
10617,Sunderland Road,40243,38.2438561,-85.5577583
10700,Shelbyville Road,40243,38.2445085,-85.5576373
10700,Sunderland Road,40243,38.2434066,-85.5578665
10702,Shelbyville Road,40243,38.2444848,-85.5573573
10702,Sunderland Road,40243,38.2432407,-85.5577098
10703,Helmsdale Lane,40243,38.2424660,-85.5580670
10703,Sunderland Place,40243,38.2440230,-85.5575045
10703,Sunderland Road,40243,38.2433862,-85.5571366
10704,Shelbyville Road,40243,38.2444642,-85.5570991
10704,Sunderland Place,40243,38.2436297,-85.5572304
10704,Sunderland Road,40243,38.2431088,-85.5575537
10705,Helmsdale Lane,40243,38.2422683,-85.5577743
10705,Sunderland Place,40243,38.2440919,-85.5572200
10705,Sunderland Road,40243,38.2432255,-85.5569321
10706,Shelbyville Road,40243,38.2444244,-85.5568401
10706,Sunderland Road,40243,38.2429625,-85.5573930
10707,Sunderland Road,40243,38.2430380,-85.5567691
10708,Shelbyville Road,40243,38.2444210,-85.5565783
10708,Sunderland Place,40243,38.2436438,-85.5567633
10708,Sunderland Road,40243,38.2428192,-85.5572236
10709,Helmsdale Lane,40243,38.2418443,-85.5573807
10709,Sunderland Place,40243,38.2440798,-85.5569925
10710,Shelbyville Road,40243,38.2444007,-85.5563281
10710,Sunderland Road,40243,38.2426796,-85.5570812
10711,Helmsdale Lane,40243,38.2416496,-85.5572165
10711,Sunderland Place,40243,38.2440692,-85.5567590
10711,Sunderland Road,40243,38.2429018,-85.5565954
10712,Shelbyville Road,40243,38.2443656,-85.5560615
10712,Sunderland Place,40243,38.2433242,-85.5565342
10712,Sunderland Road,40243,38.2425063,-85.5568374
10713,Sunderland Place,40243,38.2440161,-85.5565376
10713,Sunderland Road,40243,38.2427740,-85.5563423
10714,Shelbyville Road,40243,38.2443451,-85.5558111
10714,Sunderland Place,40243,38.2432625,-85.5561881
10714,Sunderland Road,40243,38.2423818,-85.5565792
10715,Sunderland Place,40243,38.2439559,-85.5562810
10715,Sunderland Road,40243,38.2427414,-85.5560114
10716,Shelbyville Road,40243,38.2443260,-85.5555499
10716,Sunderland Place,40243,38.2435795,-85.5560121
10716,Sunderland Road,40243,38.2423284,-85.5563188
10717,Sunderland Place,40243,38.2438399,-85.5560448
108,Burnsdale Road,40243,38.2433772,-85.5555894
10801,Helmsdale Lane,40243,38.2414807,-85.5571054
10803,Helmsdale Lane,40243,38.2413139,-85.5569935
10805,Helmsdale Lane,40243,38.2410957,-85.5569126
10807,Helmsdale Lane,40243,38.2409356,-85.5567698
10809,Helmsdale Lane,40243,38.2407824,-85.5565390
110,Burnsdale Road,40243,38.2431786,-85.5557122
112,Burnsdale Road,40243,38.2429945,-85.5558258
200,Burnsdale Road,40243,38.2422242,-85.5558831
200,Dunblane Place,40243,38.2422976,-85.5572008
200,Grantown Place,40243,38.2430299,-85.5580690
201,Dunblane Place,40243,38.2420466,-85.5571104
201,Grantown Place,40243,38.2427869,-85.5578655
201,Moser Road,40223,38.2443714,-85.5589523
202,Dunblane Place,40243,38.2424047,-85.5574681
202,Grantown Place,40243,38.2429975,-85.5584307
203,Moser Road,40223,38.2440534,-85.5592577
205,Moser Road,40223,38.2438082,-85.5594853
208,Gatehouse Lane,40243,38.2415312,-85.5559036
210,Gatehouse Lane,40243,38.2413954,-85.5560885
212,Gatehouse Lane,40243,38.2412019,-85.5562487
213,Moser Road,40223,38.2436567,-85.5597259
214,Gatehouse Lane,40243,38.2410209,-85.5563418
300,Burnsdale Road,40243,38.2418959,-85.5560299
428,Charlestown Court,40243,38.2433861,-85.5532608
800,Logsdon Court,40243,38.2413196,-85.5545809
704,Tessin Way,40223,38.2522881,-85.5575975
11602,Grand Vista Court,40243,38.2347111,-85.5419423
11603,Grand Vista Court,40243,38.2351632,-85.5423034
11604,Grand Vista Court,40243,38.2349173,-85.5418915
11605,Grand Vista Court,40243,38.2350781,-85.5420491
11610,Running Creek Road,40243,38.2341480,-85.5409107
11612,Running Creek Road,40243,38.2343706,-85.5408453
11613,Running Creek Road,40243,38.2345933,-85.5414791
11615,Running Creek Road,40243,38.2348348,-85.5414398
11616,Running Creek Road,40243,38.2345881,-85.5408264
11618,Running Creek Road,40243,38.2348446,-85.5402919
11700,Cherry Point Circle,40243,38.2360324,-85.5392271
11700,Running Creek Road,40243,38.2348312,-85.5396312
11701,Cherry Point Circle,40243,38.2362398,-85.5391210
11702,Cherry Point Circle,40243,38.2358294,-85.5391435
11702,Running Creek Road,40243,38.2348094,-85.5393631
11703,Cherry Point Circle,40243,38.2362798,-85.5388709
11703,Running Creek Road,40243,38.2353019,-85.5393033
11705,Cherry Point Circle,40243,38.2362421,-85.5386387
11705,Running Creek Road,40243,38.2352951,-85.5390058
11710,Robindale Road,40243,38.2366859,-85.5391004
11716,Robindale Road,40243,38.2368292,-85.5383978
11718,Robindale Road,40243,38.2368519,-85.5381508
11720,Robindale Road,40243,38.2369093,-85.5378987
11800,Robindale Road,40243,38.2369451,-85.5376712
11801,Running Creek Road,40243,38.2352676,-85.5383649
11802,Running Creek Road,40243,38.2347963,-85.5381796
11803,Running Creek Road,40243,38.2353100,-85.5380943
11804,Running Creek Road,40243,38.2347712,-85.5379381
11806,Running Creek Road,40243,38.2347330,-85.5377123
11900,Berry Hill Road,40243,38.2351532,-85.5372237
11900,Running Creek Road,40243,38.2347196,-85.5374614
11901,Berry Hill Road,40243,38.2352440,-85.5378144
11901,Brookmoor Drive,40243,38.2365675,-85.5377258
11902,Berry Hill Road,40243,38.2354233,-85.5371552
11902,Running Creek Road,40243,38.2345349,-85.5362571
11903,Berry Hill Road,40243,38.2354750,-85.5377572
11903,Brookmoor Drive,40243,38.2366077,-85.5374676
11903,Running Creek Road,40243,38.2350784,-85.5369613
11905,Berry Hill Road,40243,38.2356765,-85.5376493
11905,Running Creek Road,40243,38.2350663,-85.5366884
11907,Berry Hill Road,40243,38.2358069,-85.5375111
11907,Running Creek Road,40243,38.2350259,-85.5364899
11908,Berry Hill Road,40243,38.2354858,-85.5369156
11909,Berry Hill Road,40243,38.2359200,-85.5372754
11909,Running Creek Road,40243,38.2349678,-85.5362297
11910,Berry Hill Road,40243,38.2354282,-85.5366246
11911,Berry Hill Road,40243,38.2359687,-85.5370464
11911,Running Creek Road,40243,38.2349330,-85.5359912
11912,Berry Hill Road,40243,38.2354112,-85.5363306
11913,Berry Hill Road,40243,38.2359612,-85.5368134
11914,Berry Hill Road,40243,38.2353719,-85.5360707
11915,Berry Hill Road,40243,38.2359066,-85.5365921
11916,Berry Hill Road,40243,38.2352872,-85.5358015
11917,Berry Hill Road,40243,38.2358693,-85.5363236
11918,Berry Hill Road,40243,38.2354072,-85.5355708
11919,Berry Hill Road,40243,38.2360024,-85.5355239
11920,Berry Hill Road,40243,38.2355879,-85.5353899
11921,Berry Hill Road,40243,38.2361040,-85.5351129
12000,Hillrose Circle,40243,38.2333913,-85.5355135
12001,Hillrose Circle,40243,38.2335607,-85.5353188
12001,Running Creek Road,40243,38.2348892,-85.5357537
12002,Hillrose Circle,40243,38.2332802,-85.5357233
12002,Running Creek Road,40243,38.2343731,-85.5353589
12003,Hillrose Circle,40243,38.2338223,-85.5353188
12003,Running Creek Road,40243,38.2348523,-85.5353575
12004,Hillrose Circle,40243,38.2333191,-85.5360137
12004,Running Creek Road,40243,38.2343192,-85.5351250
12005,Hillrose Circle,40243,38.2339724,-85.5355019
12006,Hillrose Circle,40243,38.2334597,-85.5361230
12006,Running Creek Road,40243,38.2341496,-85.5349246
12007,Running Creek Road,40243,38.2345446,-85.5346091
12008,Greenvalley Drive,40243,38.2297781,-85.5356783
12009,Greenvalley Drive,40243,38.2302063,-85.5358346
12009,Running Creek Road,40243,38.2344157,-85.5344374
12010,Greenvalley Drive,40243,38.2298238,-85.5354606
12010,Running Creek Road,40243,38.2339428,-85.5348238
12011,Greenvalley Drive,40243,38.2302291,-85.5356368
12011,Running Creek Road,40243,38.2342422,-85.5343568
12012,Greenvalley Drive,40243,38.2298939,-85.5351927
12012,Running Creek Road,40243,38.2337474,-85.5347746
12013,Running Creek Road,40243,38.2340233,-85.5342865
12014,Running Creek Road,40243,38.2335378,-85.5348175
12015,Running Creek Road,40243,38.2338767,-85.5342154
12016,Running Creek Road,40243,38.2333729,-85.5350035
12017,Running Creek Road,40243,38.2336835,-85.5342353
12018,Running Creek Road,40243,38.2331827,-85.5351153
12019,Running Creek Road,40243,38.2335010,-85.5342246
12020,Running Creek Road,40243,38.2329937,-85.5352409
12022,Running Creek Road,40243,38.2328532,-85.5353609
12023,Running Creek Road,40243,38.2326764,-85.5348732
12025,Running Creek Road,40243,38.2322808,-85.5351838
12026,Running Creek Road,40243,38.2324432,-85.5357083
12027,Running Creek Road,40243,38.2321482,-85.5352718
12029,Running Creek Road,40243,38.2319777,-85.5354009
12031,Running Creek Road,40243,38.2318776,-85.5355544
12033,Running Creek Road,40243,38.2317475,-85.5356746
12036,Running Creek Road,40243,38.2320667,-85.5361004
12038,Running Creek Road,40243,38.2318908,-85.5364505
12100,Edenwood Drive,40243,38.2295439,-85.5336743
12102,Edenwood Drive,40243,38.2295508,-85.5332774
12102,Greenvalley Drive,40243,38.2304581,-85.5343495
12103,Edenwood Drive,40243,38.2300049,-85.5337460
12103,Ellingsworth Lane,40243,38.2287013,-85.5330491
12103,Greenvalley Drive,40243,38.2308134,-85.5346791
12104,Edenwood Drive,40243,38.2292948,-85.5330961
12104,Greenvalley Drive,40243,38.2305878,-85.5341797
12105,Edenwood Drive,40243,38.2299643,-85.5331181
12105,Ellingsworth Lane,40243,38.2287325,-85.5327843
12105,Greenvalley Drive,40243,38.2309717,-85.5344732
12106,Edenwood Drive,40243,38.2292413,-85.5328331
12106,Greenvalley Drive,40243,38.2307293,-85.5339943
12107,Edenwood Drive,40243,38.2299556,-85.5328808
12107,Greenvalley Drive,40243,38.2310870,-85.5342989
12108,Edenwood Drive,40243,38.2293027,-85.5325988
12108,Greenvalley Drive,40243,38.2308695,-85.5338182
12109,Greenvalley Drive,40243,38.2314253,-85.5339142
12110,Greenvalley Drive,40243,38.2310103,-85.5336305
12111,Greenvalley Drive,40243,38.2315139,-85.5337404
12112,Greenvalley Drive,40243,38.2311484,-85.5333859
400,Berry Hill Place,40243,38.2362579,-85.5361294
400,Bruner Hill Drive,40243,38.2359764,-85.5404980
400,Cherry Point Drive,40243,38.2365206,-85.5382228
400,Golden Gate Court,40243,38.2353526,-85.5349439
401,Berry Hill Place,40243,38.2363411,-85.5358343
401,Bruner Hill Drive,40243,38.2362878,-85.5398749
401,Cherry Point Drive,40243,38.2364084,-85.5379985
401,Golden Gate Court,40243,38.2352612,-85.5346727
402,Berry Hill Place,40243,38.2360898,-85.5362991
402,Bruner Hill Drive,40243,38.2357116,-85.5404166
402,Cherry Point Drive,40243,38.2363951,-85.5384929
402,Golden Gate Court,40243,38.2353229,-85.5352538
403,Berry Hill Place,40243,38.2362144,-85.5355638
403,Bruner Hill Drive,40243,38.2361175,-85.5397882
403,Cherry Point Drive,40243,38.2361599,-85.5378916
403,Golden Gate Court,40243,38.2349950,-85.5346715
404,Bruner Hill Drive,40243,38.2355044,-85.5403938
404,Golden Gate Court,40243,38.2350589,-85.5353544
405,Bruner Hill Drive,40243,38.2359390,-85.5397695
405,Cherry Point Drive,40243,38.2359911,-85.5379892
405,Golden Gate Court,40243,38.2347229,-85.5348005
406,Bruner Hill Drive,40243,38.2353192,-85.5403019
407,Bruner Hill Drive,40243,38.2357787,-85.5396499
407,Cherry Point Drive,40243,38.2358735,-85.5382176
408,Cherry Point Drive,40243,38.2357015,-85.5389124
409,Bruner Hill Drive,40243,38.2355642,-85.5395756
409,Cherry Point Drive,40243,38.2356954,-85.5383707
410,Cherry Point Drive,40243,38.2354763,-85.5389456
410,Tucker Station Road,40243,38.2365140,-85.5352206
411,Bruner Hill Drive,40243,38.2353457,-85.5395912
411,Cherry Point Drive,40243,38.2354878,-85.5384315
412,Tucker Station Road,40243,38.2363378,-85.5351778
500,Cherry Point Drive,40243,38.2348421,-85.5390125
500,Grand Vista Place,40243,38.2352755,-85.5435309
500,Penny Circle,40243,38.2355678,-85.5411541
500,Running Creek Place,40243,38.2346563,-85.5371868
500,Tucker Station Road,40243,38.2357346,-85.5349311
501,Cherry Point Drive,40243,38.2347822,-85.5384485
501,Grand Vista Place,40243,38.2354514,-85.5434049
501,Hillrose Drive,40243,38.2343877,-85.5356392
501,Penny Circle,40243,38.2355373,-85.5408559
501,Running Creek Place,40243,38.2345593,-85.5366209
502,Bruner Hill Drive,40243,38.2343263,-85.5402825
502,Cherry Point Drive,40243,38.2345782,-85.5390632
502,Grand Vista Place,40243,38.2350825,-85.5434648
502,Hillrose Drive,40243,38.2342887,-85.5362373
502,Penny Circle,40243,38.2354246,-85.5413616
502,Running Creek Place,40243,38.2344216,-85.5372785
503,Bruner Hill Drive,40243,38.2346190,-85.5396394
503,Cherry Point Drive,40243,38.2345357,-85.5384774
503,Grand Vista Place,40243,38.2355287,-85.5431744
503,Hillrose Drive,40243,38.2340495,-85.5357496
503,North Watterson Trail,40243,38.2359874,-85.5408223
503,Penny Circle,40243,38.2352908,-85.5406916
503,Running Creek Place,40243,38.2343684,-85.5367347
504,Cherry Point Drive,40243,38.2343814,-85.5390742
504,Grand Vista Place,40243,38.2349615,-85.5430749
504,Hillrose Drive,40243,38.2340390,-85.5363096
504,Running Creek Place,40243,38.2343477,-85.5375672
505,Bruner Hill Drive,40243,38.2340856,-85.5396494
505,Cherry Point Drive,40243,38.2343302,-85.5385195
505,Grand Vista Place,40243,38.2354546,-85.5429018
505,North Watterson Trail,40243,38.2359512,-85.5410532
505,Running Creek Place,40243,38.2341749,-85.5368348
506,Cherry Point Drive,40243,38.2339720,-85.5393165
506,Grand Vista Place,40243,38.2348079,-85.5429694
506,Hillrose Drive,40243,38.2338486,-85.5364521
506,Running Creek Place,40243,38.2342798,-85.5378008
507,Cherry Point Drive,40243,38.2341655,-85.5386243
507,Grand Vista Place,40243,38.2353245,-85.5427099
507,North Watterson Trail,40243,38.2359220,-85.5412726
507,Running Creek Place,40243,38.2340338,-85.5370213
508,Cherry Point Drive,40243,38.2337996,-85.5394220
508,Grand Vista Place,40243,38.2345903,-85.5428103
508,Hillrose Drive,40243,38.2336747,-85.5366464
508,Running Creek Place,40243,38.2341725,-85.5379985
509,Cherry Point Drive,40243,38.2337083,-85.5386582
509,Grand Vista Place,40243,38.2351218,-85.5425346
509,North Watterson Trail,40243,38.2359048,-85.5415161
509,Running Creek Place,40243,38.2339647,-85.5372496
510,Cherry Point Drive,40243,38.2335804,-85.5393164
510,Grand Vista Place,40243,38.2343901,-85.5427209
510,Running Creek Place,40243,38.2340231,-85.5382000
511,Cherry Point Drive,40243,38.2335394,-85.5388130
511,North Watterson Trail,40243,38.2357085,-85.5417877
511,Running Creek Place,40243,38.2338749,-85.5374924
512,Cherry Point Drive,40243,38.2334605,-85.5390804
512,Grand Vista Place,40243,38.2341455,-85.5427270
512,Running Creek Place,40243,38.2335710,-85.5383694
513,Running Creek Place,40243,38.2338149,-85.5376634
514,Grand Vista Place,40243,38.2339369,-85.5426059
515,Grand Vista Place,40243,38.2345768,-85.5422145
515,North Watterson Trail,40243,38.2358306,-85.5421249
516,Grand Vista Place,40243,38.2338435,-85.5423341
517,Grand Vista Place,40243,38.2344239,-85.5420876
517,North Watterson Trail,40243,38.2357999,-85.5423416
518,Grand Vista Place,40243,38.2339231,-85.5420771
519,Grand Vista Place,40243,38.2343982,-85.5417829
519,North Watterson Trail,40243,38.2357782,-85.5425755
520,Grand Vista Place,40243,38.2339767,-85.5417927
521,Grand Vista Place,40243,38.2344236,-85.5414966
522,Grand Vista Place,40243,38.2339740,-85.5414900
523,North Watterson Trail,40243,38.2356542,-85.5435095
611,Watterson Way,40243,38.2348008,-85.5435657
613,Watterson Way,40243,38.2343590,-85.5433316
615,Watterson Way,40243,38.2339934,-85.5432308
619,Watterson Way,40243,38.2335765,-85.5430950
700,Greenvalley Circle,40243,38.2316523,-85.5346380
700,Thorpe Drive,40243,38.2314281,-85.5362687
701,Greenvalley Circle,40243,38.2317704,-85.5344523
701,Thorpe Drive,40243,38.2315829,-85.5357696
701,Watterson Way,40243,38.2334478,-85.5420412
702,Greenvalley Circle,40243,38.2315153,-85.5348130
702,Thorpe Drive,40243,38.2311933,-85.5361242
703,Greenvalley Circle,40243,38.2318400,-85.5341989
703,Thorpe Drive,40243,38.2310341,-85.5353470
704,Greenvalley Circle,40243,38.2313534,-85.5348891
704,Thorpe Drive,40243,38.2306303,-85.5356805
705,Greenvalley Circle,40243,38.2316693,-85.5339740
705,Thorpe Drive,40243,38.2308266,-85.5351340
706,Greenvalley Circle,40243,38.2311608,-85.5347834
706,Thorpe Drive,40243,38.2303732,-85.5353990
707,Thorpe Drive,40243,38.2306485,-85.5349058
800,Edenwood Circle,40243,38.2305315,-85.5332898
800,Thorpe Drive,40243,38.2299699,-85.5348896
801,Edenwood Circle,40243,38.2304094,-85.5330957
801,Thorpe Drive,40243,38.2303082,-85.5345164
802,Edenwood Circle,40243,38.2303953,-85.5336266
803,Edenwood Circle,40243,38.2302002,-85.5330553
803,Thorpe Drive,40243,38.2301181,-85.5342984
804,Edenwood Circle,40243,38.2302785,-85.5337349
804,Thorpe Drive,40243,38.2296829,-85.5345056
805,Thorpe Drive,40243,38.2299345,-85.5340605
900,Thorpe Drive,40243,38.2292864,-85.5341708
902,Thorpe Drive,40243,38.2291001,-85.5340921
903,Thorpe Drive,40243,38.2293443,-85.5336081
904,Thorpe Drive,40243,38.2289381,-85.5340322
905,Thorpe Drive,40243,38.2291805,-85.5335595
906,Thorpe Drive,40243,38.2287782,-85.5339697
907,Thorpe Drive,40243,38.2290218,-85.5334862
908,Thorpe Drive,40243,38.2285234,-85.5338774
909,Thorpe Drive,40243,38.2288564,-85.5333960
911,Thorpe Drive,40243,38.2286166,-85.5333668
10600,Findon Court,40243,38.2329376,-85.5588667
10602,Findon Court,40243,38.2329533,-85.5585616
10602,Kinross Court,40243,38.2311422,-85.5584300
10603,Findon Court,40243,38.2333686,-85.5586925
10603,Kinross Court,40243,38.2316289,-85.5582328
10604,Findon Court,40243,38.2330035,-85.5582009
10604,Kinross Court,40243,38.2312149,-85.5580985
10605,Findon Court,40243,38.2334452,-85.5583597
10605,Kinross Court,40243,38.2313755,-85.5575242
10606,Findon Court,40243,38.2332521,-85.5580881
10606,Kinross Court,40243,38.2309963,-85.5577976
10607,Kinross Court,40243,38.2311914,-85.5573793
10608,Kinross Court,40243,38.2306015,-85.5576107
10609,Kinross Court,40243,38.2310231,-85.5571574
10610,Kinross Court,40243,38.2305394,-85.5572447
10611,Kinross Court,40243,38.2307837,-85.5570513
10700,Bowmore Court,40243,38.2311263,-85.5567061
10701,Bowmore Court,40243,38.2313930,-85.5567866
10702,Bowmore Court,40243,38.2310760,-85.5563921
10703,Bowmore Court,40243,38.2316139,-85.5565873
10704,Bowmore Court,40243,38.2311985,-85.5561297
10705,Bowmore Court,40243,38.2316999,-85.5563159
10706,Bowmore Court,40243,38.2313087,-85.5559368
10707,Bowmore Court,40243,38.2318491,-85.5559985
10708,Bowmore Court,40243,38.2314633,-85.5557525
10710,Bowmore Court,40243,38.2315965,-85.5555082
10712,Bowmore Court,40243,38.2317320,-85.5552879
10800,Bell Rock Court,40243,38.2341946,-85.5586383
10801,Bell Rock Court,40243,38.2343644,-85.5584041
10802,Bell Rock Court,40243,38.2339568,-85.5586249
10802,Falkirk Road,40243,38.2328311,-85.5541673
10803,Bell Rock Court,40243,38.2342880,-85.5581233
10803,Falkirk Road,40243,38.2332065,-85.5544691
10804,Bell Rock Court,40243,38.2337785,-85.5583853
10805,Bell Rock Court,40243,38.2343220,-85.5578446
10805,Falkirk Road,40243,38.2333007,-85.5542195
10806,Bell Rock Court,40243,38.2338473,-85.5581037
10807,Bell Rock Court,40243,38.2343211,-85.5575858
10807,Falkirk Road,40243,38.2333193,-85.5539309
10808,Bell Rock Court,40243,38.2339224,-85.5578373
10808,Falkirk Road,40243,38.2330934,-85.5533889
10809,Bell Rock Court,40243,38.2343865,-85.5572623
10809,Falkirk Road,40243,38.2334206,-85.5536737
10810,Bell Rock Court,40243,38.2339276,-85.5574786
10810,Falkirk Road,40243,38.2332447,-85.5530806
10811,Bell Rock Court,40243,38.2344021,-85.5569851
10811,Falkirk Road,40243,38.2335634,-85.5534577
10812,Bell Rock Court,40243,38.2340050,-85.5568206
10813,Falkirk Road,40243,38.2336984,-85.5532617
10814,Bell Rock Court,40243,38.2341045,-85.5564858
10815,Falkirk Road,40243,38.2338764,-85.5531155
10817,Falkirk Road,40243,38.2340998,-85.5529846
10818,Falkirk Road,40243,38.2341010,-85.5524230
10819,Falkirk Road,40243,38.2342802,-85.5529346
10900,Cheskirk Court,40243,38.2362334,-85.5529395
10900,Glenbarr Court,40243,38.2343554,-85.5514000
10901,Cheskirk Court,40243,38.2365536,-85.5529266
10901,Cowgill Place,40243,38.2371036,-85.5545681
10901,Falkirk Road,40243,38.2344931,-85.5528680
10902,Alloway Court,40243,38.2335950,-85.5548007
10902,Cheskirk Court,40243,38.2361023,-85.5525706
10902,Cowgill Place,40243,38.2367363,-85.5542331
10902,Glenbarr Court,40243,38.2345807,-85.5511169
10902,Shetland Place,40243,38.2356444,-85.5546405
10903,Alloway Court,40243,38.2339310,-85.5551397
10903,Cowgill Place,40243,38.2371308,-85.5542933
10903,Falkirk Road,40243,38.2347167,-85.5528355
10903,Glenbarr Court,40243,38.2347214,-85.5517797
10903,Shetland Place,40243,38.2359718,-85.5543375
10904,Alloway Court,40243,38.2336742,-85.5545581
10904,Cheskirk Court,40243,38.2362829,-85.5522686
10904,Cowgill Place,40243,38.2367635,-85.5539541
10904,Glenbarr Court,40243,38.2348091,-85.5510754
10904,Shetland Place,40243,38.2355429,-85.5544179
10905,Alloway Court,40243,38.2340212,-85.5548454
10905,Cowgill Place,40243,38.2371720,-85.5540281
10905,Glenbarr Court,40243,38.2349729,-85.5516337
10906,Alloway Court,40243,38.2337283,-85.5541966
10906,Cowgill Place,40243,38.2368372,-85.5535857
10906,Falkirk Road,40243,38.2347467,-85.5522619
10906,Glenbarr Court,40243,38.2350610,-85.5512299
10906,Shetland Place,40243,38.2355860,-85.5539824
10907,Alloway Court,40243,38.2342039,-85.5546335
10907,Cowgill Place,40243,38.2372978,-85.5537867
10907,Falkirk Road,40243,38.2352059,-85.5527228
10908,Alloway Court,40243,38.2339371,-85.5540364
10908,Cowgill Place,40243,38.2369078,-85.5533070
10908,Falkirk Road,40243,38.2349283,-85.5521933
10908,Shetland Place,40243,38.2357374,-85.5537198
10909,Alloway Court,40243,38.2341539,-85.5542723
10909,Cowgill Place,40243,38.2373786,-85.5534758
10909,Falkirk Road,40243,38.2354522,-85.5525005
10909,Shetland Place,40243,38.2362068,-85.5541659
10910,Cowgill Place,40243,38.2371726,-85.5532863
10910,Falkirk Road,40243,38.2351631,-85.5521139
10910,Shetland Place,40243,38.2359266,-85.5535711
10911,Falkirk Road,40243,38.2356490,-85.5523289
10911,Shetland Place,40243,38.2363572,-85.5538795
10912,Falkirk Road,40243,38.2352868,-85.5519965
10912,Shetland Place,40243,38.2361809,-85.5535884
10914,Falkirk Road,40243,38.2354526,-85.5517622
11001,Brechin Road,40243,38.2341103,-85.5496671
11002,Finchley Road,40243,38.2386776,-85.5521691
11003,Brechin Road,40243,38.2341608,-85.5493694
11003,Greenock Court,40243,38.2348786,-85.5496907
11004,Brechin Road,40243,38.2337145,-85.5491634
11004,Greenock Court,40243,38.2345046,-85.5494968
11005,Brechin Road,40243,38.2342341,-85.5490630
11005,Greenock Court,40243,38.2349429,-85.5493911
11006,Brechin Road,40243,38.2337872,-85.5489173
11006,Falkirk Road,40243,38.2354818,-85.5515118
11006,Greenock Court,40243,38.2345524,-85.5492130
11007,Brechin Road,40243,38.2342902,-85.5487629
11007,Greenock Court,40243,38.2351545,-85.5492293
11008,Brechin Road,40243,38.2338415,-85.5486680
11008,Falkirk Road,40243,38.2355778,-85.5512459
11008,Greenock Court,40243,38.2346472,-85.5489525
11009,Brechin Road,40243,38.2343687,-85.5484345
11009,Greenock Court,40243,38.2354094,-85.5491612
11010,Brechin Road,40243,38.2339263,-85.5484114
11010,Falkirk Road,40243,38.2356344,-85.5509535
11010,Greenock Court,40243,38.2348249,-85.5487129
11011,Brechin Road,40243,38.2344961,-85.5481524
11011,Greenock Court,40243,38.2355145,-85.5487458
11012,Brechin Road,40243,38.2340069,-85.5481376
11012,Falkirk Road,40243,38.2356709,-85.5505879
11012,Finchley Road,40243,38.2378765,-85.5506688
11012,Greenock Court,40243,38.2350759,-85.5485607
11014,Brechin Road,40243,38.2340554,-85.5478928
11014,Greenock Court,40243,38.2353194,-85.5485385
11015,Brechin Road,40243,38.2345529,-85.5479114
11016,Brechin Road,40243,38.2341321,-85.5476378
11017,Brechin Road,40243,38.2346404,-85.5475967
11018,Brechin Road,40243,38.2342406,-85.5473618
11019,Brechin Road,40243,38.2347005,-85.5473718
1102,Silvercrest Lane,40223,38.2300123,-85.5576301
11020,Brechin Road,40243,38.2342900,-85.5471265
11021,Brechin Road,40243,38.2348356,-85.5470089
1104,Silvercrest Lane,40223,38.2300774,-85.5574674
1106,Silvercrest Lane,40223,38.2301277,-85.5572728
1108,Silvercrest Lane,40223,38.2302310,-85.5571187
1110,Silvercrest Lane,40223,38.2299560,-85.5569983
11100,Ainwick Court,40243,38.2349781,-85.5480222
11100,Finchley Road,40243,38.2380136,-85.5497830
11100,Halkirk Place,40243,38.2358484,-85.5485220
11100,Kilrenny Court,40243,38.2366040,-85.5479051
11101,Ainwick Court,40243,38.2352492,-85.5481447
11101,Halkirk Place,40243,38.2360836,-85.5485968
11101,Kilrenny Court,40243,38.2367596,-85.5482175
11102,Ainwick Court,40243,38.2349470,-85.5476745
11102,Bedington Court,40243,38.2363709,-85.5490754
11102,Finchley Road,40243,38.2380258,-85.5494716
11102,Halkirk Place,40243,38.2357331,-85.5481940
11102,Kilrenny Court,40243,38.2367358,-85.5476071
11102,Rothbury Court,40243,38.2372138,-85.5492875
11103,Ainwick Court,40243,38.2354692,-85.5479771
11103,Bedington Court,40243,38.2369195,-85.5492278
11103,Halkirk Place,40243,38.2362641,-85.5482914
11103,Kilrenny Court,40243,38.2370389,-85.5482559
11103,Rothbury Court,40243,38.2377022,-85.5494385
11104,Bedington Court,40243,38.2365525,-85.5488225
11104,Finchley Road,40243,38.2380850,-85.5491914
11104,Halkirk Place,40243,38.2358390,-85.5479137
11104,Kilrenny Court,40243,38.2369060,-85.5475033
11104,Rothbury Court,40243,38.2372977,-85.5489596
11105,Ainwick Court,40243,38.2354754,-85.5476462
11105,Bedington Court,40243,38.2368494,-85.5488702
11105,Halkirk Place,40243,38.2362908,-85.5479696
11105,Kilrenny Court,40243,38.2372346,-85.5479613
11105,Rothbury Court,40243,38.2377470,-85.5491172
11106,Ainwick Court,40243,38.2350792,-85.5474032
11106,Finchley Road,40243,38.2381489,-85.5487563
11106,Halkirk Place,40243,38.2358626,-85.5476273
11106,Kilrenny Court,40243,38.2371373,-85.5472958
11107,Ainwick Court,40243,38.2354790,-85.5473463
11107,Halkirk Place,40243,38.2362888,-85.5476799
11107,Kilrenny Court,40243,38.2374058,-85.5477159
11107,Rothbury Court,40243,38.2375670,-85.5488970
11108,Ainwick Court,40243,38.2350857,-85.5471026
11108,Finchley Road,40243,38.2381556,-85.5484354
11108,Halkirk Place,40243,38.2358941,-85.5473335
11108,Kilrenny Court,40243,38.2372453,-85.5470529
11109,Kilrenny Court,40243,38.2375192,-85.5474523
11110,Halkirk Place,40243,38.2359091,-85.5470115
11111,Halkirk Place,40243,38.2362893,-85.5467168
11112,Finchley Road,40243,38.2380073,-85.5477305
11112,Halkirk Place,40243,38.2358354,-85.5467274
11113,Halkirk Place,40243,38.2361750,-85.5463559
11114,Finchley Road,40243,38.2379412,-85.5474120
1112,Silvercrest Lane,40223,38.2297959,-85.5569830
1114,Silvercrest Lane,40223,38.2296705,-85.5568931
1116,Silvercrest Lane,40223,38.2295217,-85.5569265
1118,Silvercrest Lane,40223,38.2293689,-85.5568152
1120,Silvercrest Lane,40223,38.2293541,-85.5565945
11202,Finchley Road,40243,38.2377388,-85.5471728
11206,Finchley Road,40243,38.2373687,-85.5467224
11208,Finchley Road,40243,38.2372590,-85.5464384
11210,Finchley Road,40243,38.2370985,-85.5462544
11212,Finchley Road,40243,38.2369134,-85.5460212
11214,Finchley Road,40243,38.2367172,-85.5457139
11216,Finchley Road,40243,38.2363133,-85.5452352
11218,Finchley Road,40243,38.2361159,-85.5449759
11220,Finchley Road,40243,38.2359362,-85.5447791
400,Braemoor Place,40243,38.2379004,-85.5544242
401,Braemoor Place,40243,38.2380579,-85.5537760
401,Whiteheath Lane,40243,38.2378768,-85.5547521
402,Braemoor Place,40243,38.2376752,-85.5543048
402,Rockstone Place,40243,38.2380201,-85.5533794
403,Braemoor Place,40243,38.2378568,-85.5536969
403,Rockstone Place,40243,38.2382734,-85.5527874
403,Whiteheath Lane,40243,38.2376439,-85.5547508
404,Braemoor Place,40243,38.2376570,-85.5539417
404,Rockstone Place,40243,38.2379154,-85.5530588
405,Rockstone Place,40243,38.2380220,-85.5527541
405,Whiteheath Lane,40243,38.2373779,-85.5546834
409,Whiteheath Lane,40243,38.2366617,-85.5545434
411,Whiteheath Lane,40243,38.2364095,-85.5545882
413,Whiteheath Lane,40243,38.2361516,-85.5546549
415,Whiteheath Lane,40243,38.2357274,-85.5549863
417,Whiteheath Lane,40243,38.2354828,-85.5552548
419,Whiteheath Lane,40243,38.2352183,-85.5557162
421,Whiteheath Lane,40243,38.2350759,-85.5561318
423,Whiteheath Lane,40243,38.2349109,-85.5568085
425,Whiteheath Lane,40243,38.2348947,-85.5570755
427,Whiteheath Lane,40243,38.2348872,-85.5573296
429,Whiteheath Lane,40243,38.2348438,-85.5576202
431,Whiteheath Lane,40243,38.2348331,-85.5578501
433,Whiteheath Lane,40243,38.2348237,-85.5581237
435,Whiteheath Lane,40243,38.2348006,-85.5583256
437,Whiteheath Lane,40243,38.2347317,-85.5585753
439,Whiteheath Lane,40243,38.2346415,-85.5588520
441,Whiteheath Lane,40243,38.2345864,-85.5591083
500,Cheskirk Place,40243,38.2376663,-85.5526915
500,Falkirk Court,40243,38.2368096,-85.5509356
500,Langholm Place,40243,38.2381140,-85.5514881
500,Rothbury Lane,40243,38.2379018,-85.5503132
501,Cheskirk Place,40243,38.2377211,-85.5524006
501,Falkirk Court,40243,38.2367494,-85.5506087
501,Finchley Court,40243,38.2382315,-85.5517205
501,Halkirk Court,40243,38.2363571,-85.5472841
501,Langholm Place,40243,38.2379160,-85.5510537
501,Rothbury Lane,40243,38.2376485,-85.5497781
502,Cheskirk Place,40243,38.2374446,-85.5528635
502,Falkirk Court,40243,38.2366109,-85.5511926
502,Finchley Court,40243,38.2384063,-85.5523090
502,Halkirk Court,40243,38.2365069,-85.5464523
502,Langholm Place,40243,38.2378285,-85.5516352
502,Lauder Place,40243,38.2378593,-85.5483426
502,Rothbury Lane,40243,38.2376127,-85.5502565
503,Cheskirk Place,40243,38.2375959,-85.5521388
503,Falkirk Court,40243,38.2364941,-85.5504630
503,Finchley Court,40243,38.2381608,-85.5521809
503,Halkirk Court,40243,38.2366191,-85.5471941
503,Langholm Place,40243,38.2376598,-85.5510151
503,Lauder Place,40243,38.2377517,-85.5479865
504,Cheskirk Place,40243,38.2372057,-85.5526304
504,Falkirk Court,40243,38.2363324,-85.5511607
504,Halkirk Court,40243,38.2367749,-85.5464760
504,Langholm Place,40243,38.2375667,-85.5516119
504,Rothbury Lane,40243,38.2373663,-85.5502183
505,Cheskirk Place,40243,38.2373577,-85.5521307
505,Falkirk Court,40243,38.2362167,-85.5504850
505,Halkirk Court,40243,38.2368234,-85.5470641
505,Langholm Place,40243,38.2374430,-85.5508081
505,Selkirk Lane,40243,38.2361241,-85.5455397
506,Cheskirk Place,40243,38.2369661,-85.5525177
506,Falkirk Court,40243,38.2360970,-85.5510754
506,Gatehouse Lane,40243,38.2381711,-85.5534750
506,Langholm Place,40243,38.2373412,-85.5515312
506,Rothbury Lane,40243,38.2371447,-85.5501692
506,Selkirk Lane,40243,38.2364790,-85.5458742
507,Cheskirk Place,40243,38.2371790,-85.5519959
507,Halkirk Court,40243,38.2369624,-85.5467396
507,Langholm Place,40243,38.2371671,-85.5509538
507,Rothbury Lane,40243,38.2371969,-85.5496204
507,Selkirk Lane,40243,38.2359412,-85.5457014
508,Cheskirk Place,40243,38.2366885,-85.5524568
508,Gatehouse Lane,40243,38.2384728,-85.5529073
508,Langholm Place,40243,38.2370921,-85.5513381
508,Rothbury Lane,40243,38.2368828,-85.5500698
508,Selkirk Lane,40243,38.2363268,-85.5460848
509,Cheskirk Place,40243,38.2369603,-85.5519019
509,Rothbury Lane,40243,38.2369040,-85.5495535
509,Selkirk Lane,40243,38.2358026,-85.5458749
510,Gatehouse Lane,40243,38.2387735,-85.5525459
510,Rothbury Lane,40243,38.2366374,-85.5499694
511,Cheskirk Place,40243,38.2367877,-85.5517963
511,Selkirk Lane,40243,38.2355719,-85.5461493
512,Rothbury Lane,40243,38.2364037,-85.5500034
513,Cheskirk Place,40243,38.2365679,-85.5517473
513,Rothbury Lane,40243,38.2364079,-85.5494669
513,Selkirk Lane,40243,38.2353494,-85.5463315
514,Rothbury Lane,40243,38.2361251,-85.5501077
514,Selkirk Lane,40243,38.2355128,-85.5468963
515,Cheskirk Place,40243,38.2363772,-85.5516838
515,Rothbury Lane,40243,38.2361625,-85.5495066
515,Selkirk Lane,40243,38.2351147,-85.5463596
516,Cheskirk Place,40243,38.2360258,-85.5521462
517,Cheskirk Place,40243,38.2361759,-85.5516262
517,Rothbury Lane,40243,38.2358897,-85.5495911
517,Selkirk Lane,40243,38.2348918,-85.5463429
518,Cheskirk Place,40243,38.2358218,-85.5520625
519,Cheskirk Place,40243,38.2359668,-85.5515597
519,Rothbury Lane,40243,38.2357407,-85.5497697
600,Burnett Ridge Road,40243,38.2354946,-85.5447774
600,Selkirk Lane,40243,38.2343314,-85.5468199
601,Rothbury Lane,40243,38.2355287,-85.5499487
601,Selkirk Lane,40243,38.2346931,-85.5462914
602,Rothbury Lane,40243,38.2353777,-85.5505727
603,Rothbury Lane,40243,38.2353084,-85.5500388
603,Selkirk Lane,40243,38.2344678,-85.5461418
604,Rothbury Lane,40243,38.2351227,-85.5506154
605,Rothbury Lane,40243,38.2351080,-85.5500263
606,Burnett Ridge Road,40243,38.2347096,-85.5447378
606,Rothbury Lane,40243,38.2348780,-85.5505614
607,Rothbury Lane,40243,38.2348454,-85.5499593
608,Rothbury Lane,40243,38.2346575,-85.5504552
610,Rothbury Lane,40243,38.2344495,-85.5504405
611,Rothbury Lane,40243,38.2343672,-85.5498100
612,Burnett Ridge Road,40243,38.2341294,-85.5444437
612,Rothbury Lane,40243,38.2342228,-85.5503499
614,Rothbury Lane,40243,38.2339906,-85.5502825
616,Rothbury Lane,40243,38.2337788,-85.5502279
701,Moser Road,40223,38.2344952,-85.5593973
702,Bell Rock Place,40243,38.2336516,-85.5574601
702,Farmingham Road,40243,38.2345514,-85.5566827
702,Karly Court,40243,38.2349882,-85.5555459
703,Bell Rock Place,40243,38.2336989,-85.5567365
703,Farmingham Road,40243,38.2347384,-85.5561186
703,Karly Court,40243,38.2351946,-85.5550544
703,Moser Road,40223,38.2342127,-85.5592512
704,Bell Rock Place,40243,38.2334278,-85.5572082
704,Karly Court,40243,38.2347745,-85.5554844
705,Bell Rock Place,40243,38.2335008,-85.5568894
705,Farmingham Road,40243,38.2345267,-85.5560110
705,Karly Court,40243,38.2350456,-85.5547874
705,Moser Road,40223,38.2339875,-85.5591813
706,Farmingham Road,40243,38.2338599,-85.5562470
706,Karly Court,40243,38.2345787,-85.5552206
707,Farmingham Road,40243,38.2343209,-85.5559196
707,Karly Court,40243,38.2346638,-85.5549033
707,Moser Road,40223,38.2337435,-85.5591356
708,Farmingham Road,40243,38.2336282,-85.5560431
709,Farmingham Road,40243,38.2341335,-85.5557456
709,Moser Road,40223,38.2333517,-85.5590882
710,Farmingham Road,40243,38.2334348,-85.5558548
711,Farmingham Road,40243,38.2337732,-85.5554005
712,Farmingham Road,40243,38.2333046,-85.5556731
718,Watterson Trail,40243,38.2311658,-85.5431342
800,Bowmore Place,40243,38.2329680,-85.5568027
800,Farmingham Road,40243,38.2331458,-85.5555265
800,Kinross Place,40243,38.2324792,-85.5576825
800,Sandness Court,40243,38.2346687,-85.5539040
801,Bowmore Place,40243,38.2330824,-85.5564465
801,Farmingham Road,40243,38.2334445,-85.5550677
801,Glenbarr Place,40243,38.2345452,-85.5522939
801,Kinross Place,40243,38.2322859,-85.5574253
801,Sandness Court,40243,38.2349796,-85.5539043
801,Scone Court,40243,38.2337175,-85.5525994
802,Bowmore Place,40243,38.2327511,-85.5568648
802,Creetown Court,40243,38.2325584,-85.5539164
802,Farmingham Road,40243,38.2329599,-85.5554571
802,Glenbarr Place,40243,38.2340845,-85.5520812
802,Kinross Place,40243,38.2323701,-85.5580153
802,Sandness Court,40243,38.2345637,-85.5536506
802,Scone Court,40243,38.2331159,-85.5527021
803,Bowmore Place,40243,38.2329314,-85.5562174
803,Creetown Court,40243,38.2327776,-85.5532889
803,Farmingham Road,40243,38.2331340,-85.5548100
803,Glenbarr Place,40243,38.2344782,-85.5519317
803,Kinross Place,40243,38.2320217,-85.5574433
803,Moser Road,40223,38.2325317,-85.5588402
803,Sandness Court,40243,38.2351026,-85.5536659
803,Scone Court,40243,38.2334752,-85.5523698
804,Bowmore Place,40243,38.2325393,-85.5567330
804,Creetown Court,40243,38.2325962,-85.5535526
804,Farmingham Road,40243,38.2327715,-85.5553118
804,Glenbarr Place,40243,38.2339586,-85.5517900
804,Kinross Place,40243,38.2320891,-85.5580834
804,Sandness Court,40243,38.2346747,-85.5533473
804,Scone Court,40243,38.2332444,-85.5524230
805,Bowmore Place,40243,38.2327803,-85.5560285
805,Farmingham Road,40243,38.2326512,-85.5546249
805,Kinross Place,40243,38.2318662,-85.5575947
805,Moser Road,40223,38.2323304,-85.5587738
805,Sandness Court,40243,38.2352604,-85.5534555
806,Bowmore Place,40243,38.2324691,-85.5564167
806,Farmingham Road,40243,38.2325767,-85.5552774
806,Glenbarr Place,40243,38.2338796,-85.5514930
806,Kinross Place,40243,38.2318869,-85.5581432
806,Sandness Court,40243,38.2348162,-85.5531388
807,Bowmore Place,40243,38.2325886,-85.5558759
807,Farmingham Road,40243,38.2324241,-85.5546497
807,Glenbarr Place,40243,38.2342765,-85.5509658
807,Kinross Place,40243,38.2316224,-85.5576215
807,Moser Road,40223,38.2320889,-85.5587351
807,Sandness Court,40243,38.2351934,-85.5531241
808,Bowmore Place,40243,38.2322981,-85.5562724
808,Farmingham Road,40243,38.2323270,-85.5552115
808,Glenbarr Place,40243,38.2337862,-85.5512066
809,Bowmore Place,40243,38.2324025,-85.5557532
809,Farmingham Road,40243,38.2322049,-85.5545270
809,Glenbarr Place,40243,38.2341116,-85.5508312
809,Moser Road,40223,38.2318782,-85.5586759
810,Bowmore Place,40243,38.2321193,-85.5561401
810,Glenbarr Place,40243,38.2338718,-85.5509111
811,Bowmore Place,40243,38.2321720,-85.5556127
811,Moser Road,40223,38.2316305,-85.5586021
900,Farmingham Road,40243,38.2318525,-85.5550408
901,Farmingham Road,40243,38.2320056,-85.5544952
903,Moser Road,40223,38.2307859,-85.5583923
905,Moser Road,40223,38.2304750,-85.5582381
907,Moser Road,40223,38.2302689,-85.5580710
916,Watterson Trail,40299,38.2321838,-85.5508482
10601,Mcmeekin Lane,40223,38.2510269,-85.5569864
10605,Shelbyville Road,40223,38.2453903,-85.5575518
175,La Fontenay Drive,40223,38.2470216,-85.5580785
500,La Fontenay Court,40223,38.2469597,-85.5594908
511,Dorsey Lane,40223,38.2523580,-85.5581756
1000,Chesterton Place,40299,38.2270148,-85.5243023
1001,Chesterton Place,40299,38.2267724,-85.5242540
1002,Chesterton Place,40299,38.2271892,-85.5245607
1004,Chesterton Place,40299,38.2271328,-85.5248922
1005,Chesterton Place,40299,38.2265714,-85.5248031
1006,Chesterton Place,40299,38.2270826,-85.5252077
1007,Chesterton Place,40299,38.2266416,-85.5251630
1008,Chesterton Place,40299,38.2271500,-85.5255177
12400,Brierly Hill Place,40299,38.2291758,-85.5277750
12400,Kirkham Road,40299,38.2278105,-85.5287119
12401,Brierly Hill Place,40299,38.2293595,-85.5275835
12401,Kirkham Road,40299,38.2282590,-85.5289344
12401,Tamworth Court,40299,38.2273002,-85.5284235
12402,Brierly Hill Place,40299,38.2288259,-85.5276397
12402,Kirkham Road,40299,38.2279059,-85.5284631
12403,Brierly Hill Place,40299,38.2293350,-85.5272500
12403,Kirkham Road,40299,38.2283193,-85.5286672
12403,Tamworth Court,40299,38.2273705,-85.5281700
12404,Brierly Hill Place,40299,38.2288508,-85.5271743
12404,Kirkham Road,40299,38.2279753,-85.5281932
12405,Brierly Hill Place,40299,38.2292488,-85.5269715
12405,Tamworth Court,40299,38.2274205,-85.5279158
12406,Kirkham Road,40299,38.2280261,-85.5279115
12407,Brierly Hill Place,40299,38.2291544,-85.5266801
12407,Kirkham Road,40299,38.2284898,-85.5276408
12407,Tamworth Court,40299,38.2274357,-85.5276226
12408,Kirkham Road,40299,38.2280128,-85.5274814
12408,Tamworth Court,40299,38.2268292,-85.5273984
12409,Tamworth Court,40299,38.2273330,-85.5273239
12410,Kirkham Road,40299,38.2279305,-85.5272217
12410,Tamworth Court,40299,38.2266431,-85.5270899
12411,Tamworth Court,40299,38.2272405,-85.5270689
12412,Tamworth Court,40299,38.2267463,-85.5267686
12413,Tamworth Court,40299,38.2270553,-85.5267729
12500,Kirkham Road,40299,38.2278776,-85.5269302
12501,Kirkham Road,40299,38.2283267,-85.5267194
12502,Kirkham Road,40299,38.2277417,-85.5267047
12503,Kirkham Road,40299,38.2281203,-85.5263912
12504,Kirkham Road,40299,38.2275724,-85.5264950
12505,Kirkham Road,40299,38.2279753,-85.5261590
12506,Kirkham Road,40299,38.2273735,-85.5263473
12507,Kirkham Road,40299,38.2277875,-85.5259759
12508,Kirkham Road,40299,38.2271677,-85.5261938
12509,Kirkham Road,40299,38.2275708,-85.5258218
12510,Kirkham Road,40299,38.2269313,-85.5261136
12511,Kirkham Road,40299,38.2273616,-85.5256975
12512,Kirkham Road,40299,38.2266533,-85.5260312
12514,Kirkham Road,40299,38.2262288,-85.5264881
12515,Kirkham Road,40299,38.2266586,-85.5254600
12516,Kirkham Road,40299,38.2260544,-85.5266957
824,North Pope Lick Road,40243,38.2299535,-85.5270444
830,North Pope Lick Road,40243,38.2296604,-85.5261867
832,North Pope Lick Road,40243,38.2297105,-85.5258771
834,North Pope Lick Road,40243,38.2297674,-85.5256010
836,North Pope Lick Road,40243,38.2298164,-85.5253180
838,North Pope Lick Road,40243,38.2298800,-85.5250452
900,Ramsgate Court,40299,38.2290777,-85.5289323
901,Brierly Hill Court,40299,38.2284826,-85.5272998
901,Ramsgate Court,40299,38.2290659,-85.5286230
902,Ramsgate Court,40299,38.2288336,-85.5290974
903,Ramsgate Court,40299,38.2289181,-85.5284171
904,Ramsgate Court,40299,38.2286139,-85.5289710
905,Ramsgate Court,40299,38.2287217,-85.5282435
907,Brierly Hill Court,40299,38.2291775,-85.5263834
907,Ramsgate Court,40299,38.2284847,-85.5281308
908,Brierly Hill Court,40299,38.2286111,-85.5265965
909,Brierly Hill Court,40299,38.2291783,-85.5260816
910,Brierly Hill Court,40299,38.2287269,-85.5262757
911,Brierly Hill Court,40299,38.2291307,-85.5257739
912,Brierly Hill Court,40299,38.2286878,-85.5259351
913,Brierly Hill Court,40299,38.2290441,-85.5255042
914,Brierly Hill Court,40299,38.2285445,-85.5256838
915,Brierly Hill Court,40299,38.2288766,-85.5252881
916,Brierly Hill Court,40299,38.2283427,-85.5255210
917,Brierly Hill Court,40299,38.2286839,-85.5250985
918,Brierly Hill Court,40299,38.2281209,-85.5254064
919,Brierly Hill Court,40299,38.2284669,-85.5249779
920,Brierly Hill Court,40299,38.2279050,-85.5254066
921,Brierly Hill Court,40299,38.2282477,-85.5248451
922,Brierly Hill Court,40299,38.2275985,-85.5252718
923,Brierly Hill Court,40299,38.2280353,-85.5247670
924,Brierly Hill Court,40299,38.2275733,-85.5248838
925,Brierly Hill Court,40299,38.2278005,-85.5247176
10501,Lawrencekirk Court,40243,38.2418009,-85.5610921
10502,Lawrencekirk Court,40243,38.2413126,-85.5610924
10503,Lawrencekirk Court,40243,38.2416747,-85.5608571
10504,Lawrencekirk Court,40243,38.2412140,-85.5608542
10505,Lawrencekirk Court,40243,38.2415695,-85.5606313
10506,Lawrencekirk Court,40243,38.2411219,-85.5606165
10507,Lawrencekirk Court,40243,38.2414761,-85.5603708
10508,Lawrencekirk Court,40243,38.2409963,-85.5603572
10509,Lawrencekirk Court,40243,38.2413667,-85.5601082
10510,Lawrencekirk Court,40243,38.2408372,-85.5602053
10511,Lawrencekirk Court,40243,38.2413114,-85.5598389
10512,Lawrencekirk Court,40243,38.2408033,-85.5598215
10513,Lawrencekirk Court,40243,38.2410829,-85.5596034
10600,Helmsdale Lane,40243,38.2430375,-85.5601748
10600,Ledbury Court,40243,38.2387576,-85.5610150
10602,Chertsey Place,40243,38.2395789,-85.5611205
10602,Helmsdale Lane,40243,38.2429493,-85.5599412
10603,Chertsey Place,40243,38.2399656,-85.5612646
10603,Ledbury Court,40243,38.2391686,-85.5609482
10604,Chertsey Place,40243,38.2396563,-85.5608564
10604,Helmsdale Lane,40243,38.2428461,-85.5597234
10604,Ledbury Court,40243,38.2388268,-85.5606942
10605,Chertsey Place,40243,38.2400531,-85.5610066
10605,Ledbury Court,40243,38.2392850,-85.5606954
10606,Chertsey Place,40243,38.2397189,-85.5605749
10606,Helmsdale Lane,40243,38.2427478,-85.5595335
10606,Ledbury Court,40243,38.2388642,-85.5604228
10607,Ledbury Court,40243,38.2393474,-85.5603794
10608,Chertsey Place,40243,38.2397907,-85.5603263
10608,Helmsdale Lane,40243,38.2426214,-85.5592632
10608,Ledbury Court,40243,38.2389698,-85.5601443
10609,Chertsey Place,40243,38.2403098,-85.5602271
10609,Ledbury Court,40243,38.2392361,-85.5600907
10610,Chertsey Place,40243,38.2398082,-85.5600308
10611,Chertsey Place,40243,38.2404067,-85.5598960
10612,Chertsey Place,40243,38.2398763,-85.5597233
10614,Chertsey Place,40243,38.2401695,-85.5595833
10700,Brentford Place,40243,38.2380060,-85.5601923
10700,Helmsdale Lane,40243,38.2423406,-85.5586593
10701,Brentford Place,40243,38.2382489,-85.5604199
10702,Brentford Place,40243,38.2380673,-85.5598414
10702,Helmsdale Lane,40243,38.2422191,-85.5584632
10703,Brentford Place,40243,38.2384778,-85.5602000
10704,Helmsdale Lane,40243,38.2420686,-85.5582816
10705,Brentford Place,40243,38.2385520,-85.5598954
10706,Helmsdale Lane,40243,38.2419479,-85.5581288
10708,Helmsdale Lane,40243,38.2418057,-85.5579724
10710,Helmsdale Lane,40243,38.2415910,-85.5577825
10713,Tattenham Lane,40243,38.2374994,-85.5605073
10715,Tattenham Lane,40243,38.2375861,-85.5601980
10717,Tattenham Lane,40243,38.2376670,-85.5599179
10718,Tattenham Lane,40243,38.2371947,-85.5600144
10719,Tattenham Lane,40243,38.2377432,-85.5596399
10722,Tattenham Lane,40243,38.2374013,-85.5591742
10724,Tattenham Lane,40243,38.2375067,-85.5589021
10800,Dartford Place,40243,38.2367259,-85.5571936
10800,Helmsdale Lane,40243,38.2411550,-85.5575348
10800,Tattenham Lane,40243,38.2376149,-85.5586077
10800,Wenlock Court,40243,38.2364712,-85.5559794
10801,Dartford Place,40243,38.2366911,-85.5575869
10801,Tattenham Lane,40243,38.2380096,-85.5587942
10801,Wenlock Court,40243,38.2367353,-85.5559046
10802,Dartford Place,40243,38.2369918,-85.5570400
10802,Tattenham Lane,40243,38.2377705,-85.5582850
10802,Wenlock Court,40243,38.2362700,-85.5557757
10803,Dartford Place,40243,38.2369247,-85.5577665
10803,Tattenham Lane,40243,38.2381982,-85.5583937
10803,Wenlock Court,40243,38.2367730,-85.5555622
10804,Helmsdale Lane,40243,38.2409472,-85.5574119
10804,Tattenham Lane,40243,38.2378467,-85.5580553
10805,Dartford Place,40243,38.2371533,-85.5579059
10806,Dartford Place,40243,38.2372208,-85.5573599
10806,Helmsdale Lane,40243,38.2405476,-85.5570033
10806,Tattenham Lane,40243,38.2379873,-85.5577622
10807,Dartford Place,40243,38.2374402,-85.5578304
10807,Tattenham Lane,40243,38.2383990,-85.5578181
10808,Dartford Place,40243,38.2373723,-85.5571018
10808,Helmsdale Lane,40243,38.2403972,-85.5566891
10808,Tattenham Lane,40243,38.2380749,-85.5574937
10809,Dartford Place,40243,38.2376204,-85.5576114
10809,Tattenham Lane,40243,38.2385379,-85.5574974
10810,Dartford Place,40243,38.2375631,-85.5568772
10810,Tattenham Lane,40243,38.2383277,-85.5568761
10811,Dartford Place,40243,38.2378123,-85.5573220
10811,Tattenham Lane,40243,38.2386227,-85.5572461
10812,Tattenham Lane,40243,38.2384474,-85.5566246
10813,Tattenham Lane,40243,38.2387824,-85.5569865
10814,Tattenham Lane,40243,38.2385446,-85.5563990
10815,Tattenham Lane,40243,38.2389257,-85.5566889
200,Prestwick Place,40243,38.2424105,-85.5593909
201,Prestwick Place,40243,38.2419760,-85.5590079
202,Prestwick Place,40243,38.2421966,-85.5595670
203,Prestwick Place,40243,38.2418252,-85.5587596
204,Prestwick Place,40243,38.2423556,-85.5599352
205,Prestwick Place,40243,38.2416102,-85.5585625
206,Prestwick Place,40243,38.2422777,-85.5602420
207,Prestwick Place,40243,38.2413795,-85.5587135
208,Prestwick Place,40243,38.2420219,-85.5603182
209,Prestwick Place,40243,38.2413311,-85.5590690
210,Prestwick Place,40243,38.2418560,-85.5600611
211,Prestwick Place,40243,38.2415713,-85.5592889
212,Prestwick Place,40243,38.2417736,-85.5597357
213,Prestwick Place,40243,38.2417176,-85.5595031
223,Moser Road,40223,38.2427694,-85.5603952
225,Moser Road,40223,38.2425899,-85.5605074
227,Moser Road,40223,38.2424084,-85.5606475
229,Moser Road,40223,38.2422109,-85.5608031
231,Moser Road,40223,38.2420525,-85.5609060
300,Brentford Court,40243,38.2400773,-85.5587214
300,Bromwick Court,40243,38.2393094,-85.5574290
300,Chertsey Court,40243,38.2408176,-85.5610577
301,Brentford Court,40243,38.2399432,-85.5584049
301,Bromwick Court,40243,38.2390714,-85.5573332
301,Chertsey Court,40243,38.2407367,-85.5607240
301,Moser Road,40223,38.2414247,-85.5614102
302,Brentford Court,40243,38.2399001,-85.5590491
302,Bromwick Court,40243,38.2394359,-85.5577233
302,Chertsey Court,40243,38.2405918,-85.5613000
302,Coatbridge Place,40243,38.2406849,-85.5575926
302,Gatehouse Lane,40243,38.2401177,-85.5566787
302,Hawick Place,40243,38.2414471,-85.5580444
303,Brentford Court,40243,38.2396677,-85.5583524
303,Bromwick Court,40243,38.2388865,-85.5575855
303,Chertsey Court,40243,38.2405457,-85.5605700
303,Coatbridge Place,40243,38.2403262,-85.5572125
303,Hawick Place,40243,38.2410914,-85.5577974
303,Moser Road,40223,38.2412072,-85.5614901
304,Brentford Court,40243,38.2397041,-85.5592459
304,Bromwick Court,40243,38.2392498,-85.5580439
304,Chertsey Court,40243,38.2403365,-85.5611224
304,Coatbridge Place,40243,38.2404640,-85.5576793
304,Gatehouse Lane,40243,38.2399243,-85.5567312
304,Hawick Place,40243,38.2412643,-85.5582657
305,Brentford Court,40243,38.2394849,-85.5585754
305,Bromwick Court,40243,38.2388498,-85.5578988
305,Chertsey Court,40243,38.2402831,-85.5605190
305,Coatbridge Place,40243,38.2400852,-85.5571892
305,Hawick Place,40243,38.2409138,-85.5579584
305,Moser Road,40223,38.2410321,-85.5616605
306,Brentford Court,40243,38.2394250,-85.5594804
306,Bromwick Court,40243,38.2391023,-85.5583063
306,Coatbridge Place,40243,38.2402833,-85.5577938
306,Gatehouse Lane,40243,38.2397009,-85.5567143
306,Hawick Place,40243,38.2410802,-85.5584287
307,Brentford Court,40243,38.2393555,-85.5588550
307,Bromwick Court,40243,38.2385919,-85.5579702
307,Coatbridge Place,40243,38.2398881,-85.5574228
307,Hawick Place,40243,38.2406795,-85.5580361
307,Moser Road,40223,38.2408549,-85.5617615
308,Brentford Court,40243,38.2392247,-85.5595937
308,Bromwick Court,40243,38.2389204,-85.5584943
308,Coatbridge Place,40243,38.2400221,-85.5578087
308,Gatehouse Lane,40243,38.2394362,-85.5566771
308,Hawick Place,40243,38.2409259,-85.5585861
309,Brentford Court,40243,38.2391581,-85.5590031
309,Hawick Place,40243,38.2404793,-85.5581944
309,Moser Road,40223,38.2406389,-85.5618042
310,Brentford Court,40243,38.2390006,-85.5596504
310,Bromwick Court,40243,38.2386865,-85.5586053
310,Gatehouse Lane,40243,38.2392219,-85.5566634
310,Hawick Place,40243,38.2407240,-85.5587745
311,Brentford Court,40243,38.2389323,-85.5591313
311,Hawick Place,40243,38.2404614,-85.5585003
311,Moser Road,40223,38.2404190,-85.5617367
312,Brentford Court,40243,38.2387490,-85.5596846
312,Bromwick Court,40243,38.2384322,-85.5584699
313,Brentford Court,40243,38.2387009,-85.5591846
313,Moser Road,40223,38.2402079,-85.5616685
315,Brentford Court,40243,38.2384595,-85.5590797
315,Moser Road,40223,38.2399636,-85.5615872
317,Brentford Court,40243,38.2382355,-85.5589613
318,Brentford Court,40243,38.2381899,-85.5595704
320,Brentford Court,40243,38.2378850,-85.5593353
401,Moser Road,40223,38.2394558,-85.5613994
402,Gatehouse Lane,40243,38.2383126,-85.5561890
402,Whiteheath Lane,40243,38.2376559,-85.5553759
402,Willenhall Court,40243,38.2374947,-85.5565007
403,Moser Road,40223,38.2391635,-85.5612641
403,Willenhall Court,40243,38.2380933,-85.5567845
404,Gatehouse Lane,40243,38.2382544,-85.5560077
404,Whiteheath Lane,40243,38.2374159,-85.5553354
404,Willenhall Court,40243,38.2372416,-85.5566518
405,Willenhall Court,40243,38.2379720,-85.5564925
406,Gatehouse Lane,40243,38.2380976,-85.5557931
406,Whiteheath Lane,40243,38.2372082,-85.5552823
406,Willenhall Court,40243,38.2369879,-85.5565007
407,Moser Road,40223,38.2384872,-85.5610077
407,Willenhall Court,40243,38.2378543,-85.5562044
408,Gatehouse Lane,40243,38.2380531,-85.5555851
408,Whiteheath Lane,40243,38.2369470,-85.5551944
408,Willenhall Court,40243,38.2369669,-85.5561561
409,Moser Road,40223,38.2383234,-85.5608932
409,Willenhall Court,40243,38.2376951,-85.5559735
410,Gatehouse Lane,40243,38.2379328,-85.5553664
410,Whiteheath Lane,40243,38.2367245,-85.5552018
411,Moser Road,40223,38.2381154,-85.5607976
411,Willenhall Court,40243,38.2374329,-85.5558161
412,Whiteheath Lane,40243,38.2362501,-85.5553337
413,Moser Road,40223,38.2379046,-85.5607663
413,Willenhall Court,40243,38.2371349,-85.5558756
414,Whiteheath Lane,40243,38.2360238,-85.5554475
415,Moser Road,40223,38.2377194,-85.5606492
416,Whiteheath Lane,40243,38.2358679,-85.5556401
418,Whiteheath Lane,40243,38.2357377,-85.5558254
420,Whiteheath Lane,40243,38.2356113,-85.5561112
422,Whiteheath Lane,40243,38.2355529,-85.5563309
424,Whiteheath Lane,40243,38.2354708,-85.5565468
426,Whiteheath Lane,40243,38.2354397,-85.5568117
428,Whiteheath Lane,40243,38.2353938,-85.5570535
430,Whiteheath Lane,40243,38.2353363,-85.5573612
432,Whiteheath Lane,40243,38.2353530,-85.5579579
434,Whiteheath Lane,40243,38.2352826,-85.5582789
440,Whiteheath Lane,40243,38.2351362,-85.5589039
442,Whiteheath Lane,40243,38.2350966,-85.5591926
444,Whiteheath Lane,40243,38.2350045,-85.5595072
501,Lymington Court,40243,38.2372928,-85.5594408
501,Moser Road,40223,38.2370568,-85.5604074
502,Lymington Court,40243,38.2369555,-85.5598187
503,Lymington Court,40243,38.2370313,-85.5593391
503,Moser Road,40223,38.2368456,-85.5602931
504,Lymington Court,40243,38.2367313,-85.5597238
505,Lymington Court,40243,38.2367833,-85.5592420
505,Moser Road,40223,38.2366560,-85.5602149
506,Lymington Court,40243,38.2364981,-85.5596799
507,Lymington Court,40243,38.2367312,-85.5589067
507,Moser Road,40223,38.2364731,-85.5601664
508,Lymington Court,40243,38.2362514,-85.5595873
509,Lymington Court,40243,38.2369984,-85.5588986
509,Moser Road,40223,38.2362704,-85.5600733
510,Lymington Court,40243,38.2361103,-85.5593118
511,Lymington Court,40243,38.2371940,-85.5586373
511,Moser Road,40223,38.2360797,-85.5599580
512,Lymington Court,40243,38.2362423,-85.5590074
513,Lymington Court,40243,38.2371182,-85.5583187
513,Moser Road,40223,38.2358778,-85.5599239
514,Lymington Court,40243,38.2363253,-85.5587279
515,Lymington Court,40243,38.2368746,-85.5582042
515,Moser Road,40223,38.2356738,-85.5597864
516,Lymington Court,40243,38.2364185,-85.5584596
517,Moser Road,40223,38.2354443,-85.5597145
518,Lymington Court,40243,38.2366154,-85.5582055
519,Moser Road,40223,38.2352298,-85.5596470
600,Armadale Place,40243,38.2364435,-85.5565168
600,Whiteheath Court,40243,38.2356684,-85.5592107
601,Armadale Place,40243,38.2362565,-85.5563056
601,Whiteheath Court,40243,38.2358567,-85.5589519
602,Armadale Place,40243,38.2364516,-85.5568069
602,Whiteheath Court,40243,38.2354134,-85.5591630
603,Armadale Place,40243,38.2360051,-85.5564746
603,Whiteheath Court,40243,38.2357912,-85.5585808
604,Armadale Place,40243,38.2363276,-85.5570365
605,Armadale Place,40243,38.2359316,-85.5567491
605,Whiteheath Court,40243,38.2355426,-85.5584753
606,Armadale Place,40243,38.2362435,-85.5572351
607,Armadale Place,40243,38.2358901,-85.5569852
608,Armadale Place,40243,38.2362099,-85.5574614
609,Armadale Place,40243,38.2358155,-85.5572342
610,Armadale Place,40243,38.2360451,-85.5577378
612,Armadale Place,40243,38.2358363,-85.5578996
613,Armadale Place,40243,38.2356487,-85.5573528
614,Armadale Place,40243,38.2355891,-85.5579373
10417,Edgewater Road,40223,38.2285135,-85.5619386
10419,Edgewater Road,40223,38.2286025,-85.5616964
10421,Edgewater Road,40223,38.2286831,-85.5614199
10423,Edgewater Road,40223,38.2287637,-85.5611740
10425,Edgewater Road,40223,38.2288127,-85.5608601
10427,Edgewater Road,40223,38.2288876,-85.5605858
10428,Edgewater Road,40223,38.2284722,-85.5604631
10429,Edgewater Road,40223,38.2289689,-85.5603399
10430,Edgewater Road,40223,38.2285160,-85.5602019
10500,Edgewater Road,40223,38.2286043,-85.5599170
10500,Larkhall Court,40223,38.2299070,-85.5613116
10501,Edgewater Road,40223,38.2290447,-85.5600716
10501,Larkhall Court,40223,38.2298818,-85.5616407
10502,Brookhill Court,40223,38.2331397,-85.5607988
10502,Edgewater Road,40223,38.2286725,-85.5596471
10502,Larkhall Court,40223,38.2299824,-85.5610245
10503,Edgewater Road,40223,38.2291015,-85.5597963
10503,Larkhall Court,40223,38.2301693,-85.5618257
10504,Brookhill Court,40223,38.2333340,-85.5605152
10504,Edgewater Road,40223,38.2287125,-85.5593475
10504,Florian Road,40223,38.2343575,-85.5600112
10504,Larkhall Court,40223,38.2301521,-85.5608577
10505,Brookhill Court,40223,38.2336238,-85.5605985
10505,Edgewater Road,40223,38.2291520,-85.5595055
10505,Larkhall Court,40223,38.2303664,-85.5617653
10506,Edgewater Road,40223,38.2288111,-85.5591065
10506,Larkhall Court,40223,38.2303725,-85.5608705
10507,Edgewater Road,40223,38.2292487,-85.5592503
10507,Larkhall Court,40223,38.2305973,-85.5616785
10508,Edgewater Road,40223,38.2288717,-85.5588202
10508,Larkhall Court,40223,38.2305359,-85.5611739
10509,Larkhall Court,40223,38.2308758,-85.5616353
10510,Edgewater Road,40223,38.2289263,-85.5585328
10510,Larkhall Court,40223,38.2307918,-85.5610525
10511,Larkhall Court,40223,38.2310398,-85.5614795
10512,Edgewater Road,40223,38.2289919,-85.5582954
10513,Larkhall Court,40223,38.2311901,-85.5612311
10514,Edgewater Road,40223,38.2291406,-85.5580742
10515,Edgewater Road,40223,38.2293692,-85.5588221
10515,Larkhall Court,40223,38.2312694,-85.5609729
10516,Edgewater Road,40223,38.2293788,-85.5580284
10518,Applecross Way,40223,38.2318401,-85.5615696
10520,Applecross Way,40223,38.2317511,-85.5612043
10520,Edgewater Road,40223,38.2297301,-85.5583926
10521,Applecross Way,40223,38.2321067,-85.5609473
10521,Edgewater Road,40223,38.2295823,-85.5591125
10522,Applecross Way,40223,38.2316608,-85.5609430
10522,Edgewater Road,40223,38.2298519,-85.5586069
10524,Edgewater Road,40223,38.2300393,-85.5587850
10526,Edgewater Road,40223,38.2301270,-85.5590569
10528,Edgewater Road,40223,38.2300408,-85.5593431
10529,Edgewater Road,40223,38.2295522,-85.5594698
10600,Edgewater Road,40223,38.2298971,-85.5599255
10601,Edgewater Road,40223,38.2294709,-85.5597233
10602,Edgewater Road,40223,38.2297964,-85.5601812
10603,Edgewater Road,40223,38.2294097,-85.5599963
10604,Edgewater Road,40223,38.2297595,-85.5604891
10605,Edgewater Road,40223,38.2293673,-85.5602957
10606,Edgewater Road,40223,38.2296933,-85.5607571
10607,Edgewater Road,40223,38.2293077,-85.5605704
10608,Edgewater Road,40223,38.2296275,-85.5610097
10609,Edgewater Road,40223,38.2292190,-85.5608182
10610,Edgewater Road,40223,38.2295841,-85.5612586
10611,Edgewater Road,40223,38.2291716,-85.5611167
10612,Edgewater Road,40223,38.2295579,-85.5615838
10613,Edgewater Road,40223,38.2290111,-85.5613595
10614,Edgewater Road,40223,38.2293098,-85.5618495
10615,Edgewater Road,40223,38.2290945,-85.5617637
1100,Wood Wynd Way,40223,38.2288334,-85.5577077
1101,Timber Oak Drive,40223,38.2283568,-85.5595785
1104,Moser Road,40223,38.2292205,-85.5575101
706,Moser Road,40223,38.2337528,-85.5598017
708,Moser Road,40223,38.2335092,-85.5597703
710,Moser Road,40223,38.2332299,-85.5596962
801,Stoneykirk Drive,40223,38.2327546,-85.5595615
802,Moser Road,40223,38.2325012,-85.5594574
802,Stoneykirk Drive,40223,38.2331839,-85.5601123
804,Moser Road,40223,38.2322628,-85.5593702
804,Stoneykirk Drive,40223,38.2329882,-85.5602792
805,Stoneykirk Drive,40223,38.2323659,-85.5599444
806,Moser Road,40223,38.2320504,-85.5593518
806,Stoneykirk Drive,40223,38.2327807,-85.5604622
807,Stoneykirk Drive,40223,38.2321473,-85.5600302
808,Moser Road,40223,38.2318534,-85.5592953
808,Stoneykirk Drive,40223,38.2325156,-85.5604743
809,Stoneykirk Drive,40223,38.2319476,-85.5601167
810,Moser Road,40223,38.2316503,-85.5592419
810,Stoneykirk Drive,40223,38.2323554,-85.5605951
811,Stoneykirk Drive,40223,38.2317081,-85.5601814
812,Moser Road,40223,38.2314525,-85.5591893
812,Stoneykirk Drive,40223,38.2320474,-85.5606681
813,Brookhill Road,40223,38.2322899,-85.5613278
813,Stoneykirk Drive,40223,38.2314816,-85.5603081
814,Moser Road,40223,38.2312510,-85.5590974
900,Moser Road,40223,38.2309013,-85.5590269
901,Stoneykirk Drive,40223,38.2312330,-85.5603292
902,Moser Road,40223,38.2306686,-85.5589739
902,Stoneykirk Drive,40223,38.2308467,-85.5607809
903,Brookhill Road,40223,38.2315260,-85.5618673
903,Stoneykirk Drive,40223,38.2309847,-85.5601416
904,Moser Road,40223,38.2304788,-85.5589409
904,Stoneykirk Drive,40223,38.2306672,-85.5604829
905,Stoneykirk Drive,40223,38.2308359,-85.5599850
906,Stoneykirk Drive,40223,38.2305018,-85.5603625
907,Stoneykirk Drive,40223,38.2306717,-85.5598188
908,Stoneykirk Drive,40223,38.2303321,-85.5601884
909,Stoneykirk Drive,40223,38.2305161,-85.5596588
910,Stoneykirk Drive,40223,38.2301728,-85.5600111
911,Stoneykirk Drive,40223,38.2303094,-85.5594579
10518,Edgewater Road,40223,38.2295344,-85.5582289
11400,Main Street,40243,38.2435665,-85.5448176
201,Blankenbaker Parkway,40243,38.2425822,-85.5448225
