House number,Street name,Postal code,Latitude,Longitude
10,Swope Autocenter Drive,40299,38.2178429,-85.5821262
1933,South Hurstbourne Parkway,40220,38.2157734,-85.5843481
1935,South Hurstbourne Parkway,40220,38.2157206,-85.5845487
1939,South Hurstbourne Parkway,40220,38.2158272,-85.5846547
1941,South Hurstbourne Parkway,40220,38.2159410,-85.5847525
1945,South Hurstbourne Parkway,40220,38.2160348,-85.5850035
1955,South Hurstbourne Parkway,40220,38.2166612,-85.5852454
1969,South Hurstbourne Parkway,40220,38.2170347,-85.5855892
1971,South Hurstbourne Parkway,40220,38.2168434,-85.5854201
1975,South Hurstbourne Parkway,40220,38.2171532,-85.5856874
1977,South Hurstbourne Parkway,40220,38.2172900,-85.5858834
1979,South Hurstbourne Parkway,40220,38.2172131,-85.5860473
1983,South Hurstbourne Parkway,40220,38.2171676,-85.5861391
1987,South Hurstbourne Parkway,40220,38.2171134,-85.5862404
2001,South Hurstbourne Parkway,40220,38.2169224,-85.5866674
2007,South Hurstbourne Parkway,40220,38.2168575,-85.5867709
2009,South Hurstbourne Parkway,40220,38.2168282,-85.5868378
2011,South Hurstbourne Parkway,40220,38.2167894,-85.5869442
2015,South Hurstbourne Parkway,40220,38.2167825,-85.5869375
2017,South Hurstbourne Parkway,40220,38.2167157,-85.5871391
2025,South Hurstbourne Parkway,40220,38.2166601,-85.5872119
2033,South Hurstbourne Parkway,40220,38.2165992,-85.5873958
2035,South Hurstbourne Parkway,40220,38.2165718,-85.5874588
2039,South Hurstbourne Parkway,40220,38.2165370,-85.5875347
2043,South Hurstbourne Parkway,40220,38.2165058,-85.5876177
2045,South Hurstbourne Parkway,40220,38.2164783,-85.5876803
2105,South Hurstbourne Parkway,40220,38.2157689,-85.5893287
2115,Canterbrook Drive,40299,38.2153699,-85.5878137
2115,South Hurstbourne Parkway,40220,38.2157166,-85.5894003
2125,South Hurstbourne Parkway,40220,38.2156642,-85.5894754
2209,Janlyn Road,40299,38.2137656,-85.5815058
2300,Hurstbourne Village Drive,40299,38.2160740,-85.5795285
2300,Hurstbourne Village Drive,40299,38.2161097,-85.5794676
2300,Hurstbourne Village Drive,40299,38.2161180,-85.5795683
2300,Hurstbourne Village Drive,40299,38.2161465,-85.5793870
2300,Hurstbourne Village Drive,40299,38.2161492,-85.5794915
2300,Hurstbourne Village Drive,40299,38.2161829,-85.5793001
2300,Hurstbourne Village Drive,40299,38.2161846,-85.5794249
2300,Hurstbourne Village Drive,40299,38.2162182,-85.5792282
2300,Hurstbourne Village Drive,40299,38.2162297,-85.5793332
2300,Hurstbourne Village Drive,40299,38.2162468,-85.5791586
2300,Hurstbourne Village Drive,40299,38.2162635,-85.5792681
2300,Hurstbourne Village Drive,40299,38.2163000,-85.5791892
2301,Hurstbourne Village Drive,40299,38.2162927,-85.5783494
2301,Hurstbourne Village Drive,40299,38.2163097,-85.5784202
2301,Hurstbourne Village Drive,40299,38.2163363,-85.5785152
2301,Hurstbourne Village Drive,40299,38.2163442,-85.5783349
2301,Hurstbourne Village Drive,40299,38.2163551,-85.5786044
2301,Hurstbourne Village Drive,40299,38.2163608,-85.5783978
2301,Hurstbourne Village Drive,40299,38.2163885,-85.5785014
2301,Hurstbourne Village Drive,40299,38.2164171,-85.5785836
2302,Hurstbourne Village Drive,40299,38.2154443,-85.5798033
2302,Hurstbourne Village Drive,40299,38.2154448,-85.5797346
2302,Hurstbourne Village Drive,40299,38.2155089,-85.5797457
2302,Hurstbourne Village Drive,40299,38.2155101,-85.5798179
2302,Hurstbourne Village Drive,40299,38.2155742,-85.5798376
2302,Hurstbourne Village Drive,40299,38.2155780,-85.5797589
2302,Hurstbourne Village Drive,40299,38.2156514,-85.5798460
2302,Hurstbourne Village Drive,40299,38.2156538,-85.5797745
2302,Hurstbourne Village Drive,40299,38.2157071,-85.5798534
2302,Hurstbourne Village Drive,40299,38.2157116,-85.5797830
2302,Hurstbourne Village Drive,40299,38.2157747,-85.5797910
2302,Hurstbourne Village Drive,40299,38.2157749,-85.5798663
2303,Hurstbourne Village Drive,40299,38.2158209,-85.5780313
2303,Hurstbourne Village Drive,40299,38.2158220,-85.5780988
2303,Hurstbourne Village Drive,40299,38.2158873,-85.5780958
2303,Hurstbourne Village Drive,40299,38.2158892,-85.5780292
2303,Hurstbourne Village Drive,40299,38.2159470,-85.5780960
2303,Hurstbourne Village Drive,40299,38.2159473,-85.5780237
2303,Hurstbourne Village Drive,40299,38.2160134,-85.5780938
2303,Hurstbourne Village Drive,40299,38.2160138,-85.5780202
2303,Hurstbourne Village Drive,40299,38.2160818,-85.5780168
2303,Hurstbourne Village Drive,40299,38.2160818,-85.5780887
2303,Hurstbourne Village Drive,40299,38.2161457,-85.5780915
2303,Hurstbourne Village Drive,40299,38.2161464,-85.5780177
2304,Hurstbourne Village Drive,40299,38.2150715,-85.5790956
2304,Hurstbourne Village Drive,40299,38.2150999,-85.5791796
2304,Hurstbourne Village Drive,40299,38.2151190,-85.5792465
2304,Hurstbourne Village Drive,40299,38.2151239,-85.5790731
2304,Hurstbourne Village Drive,40299,38.2151471,-85.5791626
2304,Hurstbourne Village Drive,40299,38.2151515,-85.5793529
2304,Hurstbourne Village Drive,40299,38.2151696,-85.5792345
2304,Hurstbourne Village Drive,40299,38.2151763,-85.5794428
2304,Hurstbourne Village Drive,40299,38.2151982,-85.5793344
2304,Hurstbourne Village Drive,40299,38.2151992,-85.5795158
2304,Hurstbourne Village Drive,40299,38.2152220,-85.5794194
2304,Hurstbourne Village Drive,40299,38.2152464,-85.5794941
2305,Hurstbourne Village Drive,40299,38.2152283,-85.5782423
2305,Hurstbourne Village Drive,40299,38.2152527,-85.5783163
2305,Hurstbourne Village Drive,40299,38.2152975,-85.5782324
2305,Hurstbourne Village Drive,40299,38.2153132,-85.5782906
2305,Hurstbourne Village Drive,40299,38.2153501,-85.5782099
2305,Hurstbourne Village Drive,40299,38.2153619,-85.5782697
2305,Hurstbourne Village Drive,40299,38.2154193,-85.5781741
2305,Hurstbourne Village Drive,40299,38.2154280,-85.5782418
2305,Hurstbourne Village Drive,40299,38.2154830,-85.5781462
2305,Hurstbourne Village Drive,40299,38.2154965,-85.5782171
2305,Hurstbourne Village Drive,40299,38.2155425,-85.5781207
2305,Hurstbourne Village Drive,40299,38.2155531,-85.5781874
3,Swope Autocenter Drive,40299,38.2166083,-85.5802273
4,Swope Autocenter Drive,40299,38.2167668,-85.5797859
5,Swope Autocenter Drive,40299,38.2179458,-85.5822503
9107,Taylorsville Road,40299,38.2136908,-85.5879074
9109,Taylorsville Road,40299,38.2137835,-85.5870872
9113,Taylorsville Road,40299,38.2133187,-85.5876447
9550,Bluegrass Parkway,40299,38.2201853,-85.5799943
2305,Hurstbourne Village Drive,40299,38.2154003,-85.5781395
1935,South Hurstbourne Parkway,40220,38.2158796,-85.5845432
2051,South Hurstbourne Parkway,40220,38.2163411,-85.5882050
2401,Merriwood Drive,40299,38.2113482,-85.5832463
1,Narwood Drive,40299,38.2130382,-85.5866390
1,Swope Autocenter Drive,40299,38.2169339,-85.5816229
10,Narwood Drive,40299,38.2131808,-85.5851275
1000,Envoy Circle,40299,38.2156835,-85.5777933
11,Narwood Drive,40299,38.2137590,-85.5852401
1100,Envoy Circle,40299,38.2154312,-85.5778094
12,Narwood Drive,40299,38.2133126,-85.5848447
13,Narwood Drive,40299,38.2139409,-85.5849733
15,Narwood Drive,40299,38.2140883,-85.5847407
16,Narwood Drive,40299,38.2136043,-85.5843096
17,Narwood Drive,40299,38.2142474,-85.5844225
18,Narwood Drive,40299,38.2137235,-85.5839587
1846,Embassy Square Boulevard,40299,38.2184144,-85.5797315
1850,Embassy Square Boulevard,40299,38.2190902,-85.5795370
19,Narwood Drive,40299,38.2145132,-85.5838715
1900,Embassy Square Boulevard,40299,38.2172736,-85.5785007
2,Narwood Drive,40299,38.2125582,-85.5862087
2,Swope Autocenter Drive,40299,38.2177002,-85.5808142
20,Narwood Drive,40299,38.2140485,-85.5834708
21,Narwood Drive,40299,38.2147102,-85.5835666
2101,South Hurstbourne Parkway,40220,38.2158879,-85.5887772
2108,Bridlewood Drive,40299,38.2160346,-85.5873406
2108,Janlyn Road,40299,38.2137096,-85.5795323
2109,Bridlewood Drive,40299,38.2162718,-85.5868996
2109,Janlyn Road,40299,38.2132676,-85.5797249
2110,Bridlewood Drive,40299,38.2158776,-85.5872045
2110,Janlyn Road,40299,38.2137675,-85.5797504
2111,Bridlewood Drive,40299,38.2161073,-85.5867600
2111,Canterbrook Drive,40299,38.2156971,-85.5879522
2111,Janlyn Road,40299,38.2133310,-85.5799551
2112,Canterbrook Drive,40299,38.2154176,-85.5884641
2113,Bridlewood Drive,40299,38.2159579,-85.5866325
2113,Canterbrook Drive,40299,38.2155454,-85.5878618
2114,Bridlewood Drive,40299,38.2157276,-85.5870670
2114,Canterbrook Drive,40299,38.2152449,-85.5883162
2115,Bridlewood Drive,40299,38.2158347,-85.5864261
2116,Ann Marie Drive,40299,38.2125563,-85.5810143
2116,Bridlewood Drive,40299,38.2155590,-85.5869871
2117,Canterbrook Drive,40299,38.2151608,-85.5876491
2118,Ann Marie Drive,40299,38.2124170,-85.5811796
2124,Ann Marie Drive,40299,38.2121366,-85.5817813
2193,Janlyn Road,40299,38.2134114,-85.5801935
2194,Janlyn Road,40299,38.2138523,-85.5800168
2196,Janlyn Road,40299,38.2139266,-85.5802602
2198,Janlyn Road,40299,38.2139950,-85.5805046
22,Narwood Drive,40299,38.2142413,-85.5832081
2200,Janlyn Road,40299,38.2140741,-85.5807671
2200,Mahan Drive,40299,38.2142280,-85.5864255
2201,Cherian Drive,40299,38.2134145,-85.5804906
2201,Mahan Drive,40299,38.2143952,-85.5865941
2202,Janlyn Road,40299,38.2141370,-85.5809770
2202,Mahan Drive,40299,38.2141470,-85.5861537
2203,Cherian Drive,40299,38.2132077,-85.5807123
2203,Mahan Drive,40299,38.2146307,-85.5865140
2204,Janlyn Road,40299,38.2142081,-85.5811963
2204,Mahan Drive,40299,38.2142061,-85.5859205
2205,Cherian Drive,40299,38.2130693,-85.5809651
2205,Janlyn Road,40299,38.2136310,-85.5810523
2205,Mahan Drive,40299,38.2147393,-85.5862064
2206,Cherian Drive,40299,38.2133680,-85.5814738
2206,Janlyn Road,40299,38.2142904,-85.5814639
2206,Mahan Drive,40299,38.2143259,-85.5857105
2207,Cherian Drive,40299,38.2129630,-85.5811567
2207,Janlyn Road,40299,38.2137101,-85.5813156
2207,Mahan Drive,40299,38.2147451,-85.5859146
2208,Cherian Drive,40299,38.2132382,-85.5816988
2208,Janlyn Road,40299,38.2142626,-85.5817116
2208,Mahan Drive,40299,38.2144403,-85.5855035
2209,Cherian Drive,40299,38.2128354,-85.5813876
2209,Mahan Drive,40299,38.2148449,-85.5857214
2210,Cherian Drive,40299,38.2131064,-85.5819336
2210,Janlyn Road,40299,38.2142046,-85.5819336
2210,Mahan Drive,40299,38.2145183,-85.5852949
2211,Cherian Drive,40299,38.2127359,-85.5815734
2211,Janlyn Road,40299,38.2136983,-85.5818163
2211,Mahan Drive,40299,38.2149881,-85.5855178
2212,Cherian Drive,40299,38.2130256,-85.5821469
2212,Janlyn Road,40299,38.2140993,-85.5821655
2212,Mahan Drive,40299,38.2146599,-85.5851037
2213,Cherian Drive,40299,38.2126093,-85.5818110
2213,Janlyn Road,40299,38.2135358,-85.5819949
2213,Mahan Drive,40299,38.2150856,-85.5853070
2214,Cherian Drive,40299,38.2128589,-85.5823825
2214,Janlyn Road,40299,38.2139741,-85.5823520
2214,Mahan Drive,40299,38.2146978,-85.5848700
2215,Cherian Drive,40299,38.2124751,-85.5820406
2215,Janlyn Road,40299,38.2134666,-85.5822065
2215,Mahan Drive,40299,38.2152028,-85.5850817
2216,Janlyn Road,40299,38.2138560,-85.5825689
2217,Janlyn Road,40299,38.2133499,-85.5824243
2218,Janlyn Road,40299,38.2137379,-85.5827740
2219,Janlyn Road,40299,38.2131684,-85.5826969
2220,Janlyn Road,40299,38.2135971,-85.5830237
23,Narwood Drive,40299,38.2148460,-85.5832771
2300,Cherian Drive,40299,38.2125558,-85.5829455
2300,Janlyn Road,40299,38.2133397,-85.5836156
2301,Cherian Drive,40299,38.2121574,-85.5825604
2301,Janlyn Road,40299,38.2128920,-85.5832138
2302,Cherian Drive,40299,38.2124142,-85.5831893
2302,Janlyn Road,40299,38.2131573,-85.5838434
2303,Cherian Drive,40299,38.2120072,-85.5828346
2303,Janlyn Road,40299,38.2127725,-85.5834797
2304,Cherian Drive,40299,38.2123019,-85.5834007
2304,Janlyn Road,40299,38.2130399,-85.5840572
2305,Janlyn Road,40299,38.2126366,-85.5836894
2306,Cherian Drive,40299,38.2121723,-85.5836408
2306,Janlyn Road,40299,38.2129266,-85.5842722
2307,Janlyn Road,40299,38.2125378,-85.5839064
2308,Cherian Drive,40299,38.2120674,-85.5838311
2308,Janlyn Road,40299,38.2128191,-85.5844868
2309,Janlyn Road,40299,38.2124227,-85.5841186
2310,Janlyn Road,40299,38.2126847,-85.5846933
2311,Janlyn Road,40299,38.2123023,-85.5843367
2312,Janlyn Road,40299,38.2125693,-85.5849168
2313,Janlyn Road,40299,38.2121881,-85.5845504
2314,Janlyn Road,40299,38.2124467,-85.5851217
2315,Janlyn Road,40299,38.2120156,-85.5847601
2316,Janlyn Road,40299,38.2122845,-85.5853537
2318,Janlyn Road,40299,38.2120631,-85.5854789
24,Narwood Drive,40299,38.2143508,-85.5829200
2400,Cherian Drive,40299,38.2119741,-85.5840542
2400,Janlyn Road,40299,38.2118469,-85.5853867
2402,Cherian Drive,40299,38.2118323,-85.5842555
2402,Janlyn Road,40299,38.2116330,-85.5852715
2402,Mahan Drive,40299,38.2119055,-85.5823393
2404,Cherian Drive,40299,38.2117071,-85.5844765
2405,Cherian Drive,40299,38.2110251,-85.5846588
2406,Cherian Drive,40299,38.2113585,-85.5851623
2407,Cherian Drive,40299,38.2107984,-85.5851102
2408,Merriwood Drive,40299,38.2109392,-85.5843024
2410,Merriwood Drive,40299,38.2108253,-85.5839971
2412,Merriwood Drive,40299,38.2107054,-85.5837147
2415,Merriwood Drive,40299,38.2109317,-85.5829708
25,Narwood Drive,40299,38.2149706,-85.5830298
26,Narwood Drive,40299,38.2145192,-85.5826821
27,Narwood Drive,40299,38.2151387,-85.5827761
28,Narwood Drive,40299,38.2146930,-85.5823755
29,Narwood Drive,40299,38.2152721,-85.5825040
3,Narwood Drive,40299,38.2132056,-85.5863296
30,Narwood Drive,40299,38.2148482,-85.5821092
31,Narwood Drive,40299,38.2154163,-85.5821483
32,Narwood Drive,40299,38.2148581,-85.5817795
33,Narwood Drive,40299,38.2153732,-85.5816676
34,Narwood Drive,40299,38.2147444,-85.5814556
35,Narwood Drive,40299,38.2152961,-85.5813536
36,Narwood Drive,40299,38.2146634,-85.5811407
37,Narwood Drive,40299,38.2151965,-85.5810392
38,Narwood Drive,40299,38.2145969,-85.5808686
39,Narwood Drive,40299,38.2151267,-85.5807830
4,Narwood Drive,40299,38.2127291,-85.5859415
40,Narwood Drive,40299,38.2145087,-85.5805701
41,Narwood Drive,40299,38.2150586,-85.5804935
42,Narwood Drive,40299,38.2144126,-85.5802943
43,Narwood Drive,40299,38.2149618,-85.5802259
44,Narwood Drive,40299,38.2143435,-85.5799954
45,Narwood Drive,40299,38.2148792,-85.5799359
46,Narwood Drive,40299,38.2142537,-85.5796921
47,Narwood Drive,40299,38.2147774,-85.5795923
48,Narwood Drive,40299,38.2141420,-85.5793972
49,Narwood Drive,40299,38.2146949,-85.5793123
5,Narwood Drive,40299,38.2133345,-85.5860802
50,Narwood Drive,40299,38.2140468,-85.5791004
51,Narwood Drive,40299,38.2146177,-85.5790458
52,Narwood Drive,40299,38.2139511,-85.5788108
53,Narwood Drive,40299,38.2145321,-85.5787280
54,Narwood Drive,40299,38.2138751,-85.5785465
55,Narwood Drive,40299,38.2144358,-85.5784369
56,Narwood Drive,40299,38.2137932,-85.5782205
57,Narwood Drive,40299,38.2143563,-85.5782009
59,Narwood Drive,40299,38.2142226,-85.5777666
6,Narwood Drive,40299,38.2128863,-85.5856545
6,Swope Autocenter Drive,40299,38.2185075,-85.5810434
7,Narwood Drive,40299,38.2134537,-85.5858121
7,Swope Autocenter Drive,40299,38.2192712,-85.5816582
700,Envoy Circle,40299,38.2163861,-85.5777537
8,Narwood Drive,40299,38.2130064,-85.5853503
8,Swope Autocenter Drive,40299,38.2189233,-85.5827192
800,Envoy Circle,40299,38.2161336,-85.5777672
9,Narwood Drive,40299,38.2136189,-85.5854987
900,Envoy Circle,40299,38.2159091,-85.5777806
9017,Taylorsville Road,40299,38.2148832,-85.5891267
9021,Taylorsville Road,40299,38.2144299,-85.5886139
9101,Taylorsville Road,40299,38.2140776,-85.5883553
9117,Taylorsville Road,40299,38.2128689,-85.5872303
9200,Axminster Drive,40299,38.2146735,-85.5875186
9201,Axminster Drive,40299,38.2151102,-85.5882114
9201,Taylorsville Road,40299,38.2122631,-85.5867193
9202,Axminster Drive,40299,38.2147638,-85.5871196
9204,Axminster Drive,40299,38.2148288,-85.5868266
9205,Axminster Drive,40299,38.2151720,-85.5873562
9205,Taylorsville Road,40299,38.2119874,-85.5864474
9206,Axminster Drive,40299,38.2149892,-85.5866571
9207,Axminster Drive,40299,38.2152427,-85.5871437
9207,Taylorsville Road,40299,38.2117209,-85.5862633
9208,Axminster Drive,40299,38.2150824,-85.5864753
9209,Axminster Drive,40299,38.2154028,-85.5868326
9209,Taylorsville Road,40299,38.2115301,-85.5860705
9210,Axminster Drive,40299,38.2152050,-85.5862889
9211,Axminster Drive,40299,38.2156948,-85.5863041
9211,Taylorsville Road,40299,38.2112492,-85.5858786
9212,Axminster Drive,40299,38.2153014,-85.5861185
9213,Taylorsville Road,40299,38.2110843,-85.5856455
9214,Axminster Drive,40299,38.2154079,-85.5858951
9215,Axminster Drive,40299,38.2158993,-85.5860713
9216,Axminster Drive,40299,38.2155082,-85.5857027
9217,Axminster Drive,40299,38.2159605,-85.5858670
9218,Axminster Drive,40299,38.2155739,-85.5855510
9301,Taylorsville Road,40299,38.2106193,-85.5853296
9607,Gateway Drive,40299,38.2135168,-85.5778342
9609,Gateway Drive,40299,38.2137577,-85.5778480
9700,Bunsen Parkway,40299,38.2158364,-85.5814873
9703,Gateway Drive,40299,38.2143897,-85.5774602
9710,Bunsen Parkway,40299,38.2156614,-85.5807262
9720,Bunsen Parkway,40299,38.2155934,-85.5803160
1901,South Hurstbourne Parkway,40220,38.2181477,-85.5842730
1915,South Hurstbourne Parkway,40220,38.2160399,-85.5831677
1905,South Hurstbourne Parkway,40220,38.2178390,-85.5848251
