House number,Street name,Postal code,Latitude,Longitude
1603,Carlimar Lane,40222,38.2749909,-85.6298549
1903,Lynn Way,40222,38.2787938,-85.6179239
6809,Crossmoor Lane,40222,38.2773810,-85.6265793
1606,Herr Lane,40222,38.2737531,-85.6194180
1701,Herr Lane,40222,38.2752894,-85.6192789
1714,Lynn Way,40222,38.2759453,-85.6171528
1810,Buttonwood Road,40222,38.2759472,-85.6227600
1811,Buttonwood Road,40222,38.2761504,-85.6222950
4800,Blacktree Court,40222,38.2700719,-85.6181422
4800,Mountblair Court,40222,38.2698368,-85.6179233
4800,Whitekirk Court,40222,38.2695861,-85.6177017
4801,Gullane Court,40222,38.2695103,-85.6176376
4801,Mountblair Court,40222,38.2699723,-85.6180896
4801,Whitekirk Court,40222,38.2697559,-85.6178584
4802,Blacktree Court,40222,38.2702236,-85.6179034
4802,Mountblair Court,40222,38.2699730,-85.6176690
4802,Whitekirk Court,40222,38.2697302,-85.6174356
4803,Gullane Court,40222,38.2696545,-85.6173780
4803,Mountblair Court,40222,38.2701300,-85.6178245
4803,Whitekirk Court,40222,38.2698843,-85.6176007
4806,Blacktree Court,40222,38.2703814,-85.6175543
4806,Mountblair Court,40222,38.2701616,-85.6173564
4806,Whitekirk Court,40222,38.2699158,-85.6171144
4807,Gullane Court,40222,38.2698458,-85.6170637
4807,Mountblair Court,40222,38.2703285,-85.6174982
4807,Whitekirk Court,40222,38.2701031,-85.6172797
4808,Blacktree Court,40222,38.2705439,-85.6172965
4808,Mountblair Court,40222,38.2702874,-85.6170931
4808,Whitekirk Court,40222,38.2700677,-85.6168632
4809,Gullane Court,40222,38.2699801,-85.6167954
4809,Mountblair Court,40222,38.2704850,-85.6172380
4809,Whitekirk Court,40222,38.2702310,-85.6170333
7106,Arrowwood Road,40222,38.2746358,-85.6186064
1100,Dudley Square Way,40222,38.2683398,-85.6100133
1101,Dudley Square Way,40222,38.2684736,-85.6097585
1102,Dudley Square Way,40222,38.2684336,-85.6100952
1103,Dudley Square Way,40222,38.2685720,-85.6098404
1600,Crossridge Lane,40222,38.2707226,-85.6083514
1600,King Of Arms,40222,38.2706361,-85.6112071
1600,King Of Arms,40222,38.2706725,-85.6112418
1600,King Of Arms,40222,38.2706895,-85.6111000
1600,King Of Arms,40222,38.2707165,-85.6112874
1600,King Of Arms,40222,38.2707305,-85.6111388
1600,King Of Arms,40222,38.2707651,-85.6113244
1600,King Of Arms,40222,38.2707661,-85.6111725
1600,King Of Arms,40222,38.2708056,-85.6112093
1601,King Of Arms Court,40222,38.2704548,-85.6104283
1602,Crossridge Lane,40222,38.2707651,-85.6083949
1602,King Of Arms,40222,38.2708255,-85.6113450
1602,King Of Arms,40222,38.2708711,-85.6113818
1602,King Of Arms,40222,38.2708873,-85.6112478
1602,King Of Arms,40222,38.2709206,-85.6112835
1602,King Of Arms,40222,38.2709287,-85.6114452
1602,King Of Arms,40222,38.2709667,-85.6114800
1602,King Of Arms,40222,38.2709866,-85.6113499
1602,King Of Arms,40222,38.2710284,-85.6113819
1603,King Of Arms Court,40222,38.2704967,-85.6103542
1604,Crossridge Lane,40222,38.2708225,-85.6084365
1604,King Of Arms,40222,38.2712030,-85.6117227
1604,King Of Arms,40222,38.2712512,-85.6117750
1604,King Of Arms,40222,38.2712566,-85.6116332
1604,King Of Arms,40222,38.2712965,-85.6118158
1604,King Of Arms,40222,38.2713026,-85.6116760
1604,King Of Arms,40222,38.2713381,-85.6118499
1604,King Of Arms,40222,38.2713427,-85.6117120
1604,King Of Arms,40222,38.2713873,-85.6117518
1605,King Of Arms Court,40222,38.2705475,-85.6103029
1606,Crossridge Lane,40222,38.2708633,-85.6084703
1606,King Of Arms,40222,38.2713948,-85.6118843
1606,King Of Arms,40222,38.2714393,-85.6119290
1606,King Of Arms,40222,38.2714486,-85.6117758
1606,King Of Arms,40222,38.2714802,-85.6119573
1606,King Of Arms,40222,38.2714909,-85.6118147
1606,King Of Arms,40222,38.2715241,-85.6119953
1606,King Of Arms,40222,38.2715310,-85.6118488
1606,King Of Arms,40222,38.2715801,-85.6118897
1607,King Of Arms Court,40222,38.2705847,-85.6102343
1608,Crossridge Lane,40222,38.2709076,-85.6085256
1608,King Of Arms,40222,38.2717940,-85.6123057
1608,King Of Arms,40222,38.2718209,-85.6122360
1608,King Of Arms,40222,38.2718566,-85.6121727
1608,King Of Arms,40222,38.2718738,-85.6123711
1608,King Of Arms,40222,38.2718874,-85.6121145
1608,King Of Arms,40222,38.2719047,-85.6123016
1608,King Of Arms,40222,38.2719332,-85.6122309
1608,King Of Arms,40222,38.2719607,-85.6121747
1609,King Of Arms Court,40222,38.2706174,-85.6101709
1610,Crossridge Lane,40222,38.2709538,-85.6085691
1610,King Of Arms,40222,38.2719186,-85.6120434
1610,King Of Arms,40222,38.2719399,-85.6119872
1610,King Of Arms,40222,38.2719609,-85.6119484
1610,King Of Arms,40222,38.2719820,-85.6119096
1610,King Of Arms,40222,38.2720053,-85.6121167
1610,King Of Arms,40222,38.2720214,-85.6120623
1610,King Of Arms,40222,38.2720374,-85.6120172
1610,King Of Arms,40222,38.2720638,-85.6119826
1611,King Of Arms Court,40222,38.2706548,-85.6100906
1612,Crossridge Lane,40222,38.2710520,-85.6086493
1613,King Of Arms,40222,38.2714769,-85.6113444
1613,King Of Arms,40222,38.2715006,-85.6112896
1613,King Of Arms,40222,38.2715294,-85.6112360
1613,King Of Arms,40222,38.2715573,-85.6111792
1613,King Of Arms,40222,38.2715654,-85.6114139
1613,King Of Arms,40222,38.2716073,-85.6113537
1613,King Of Arms,40222,38.2716268,-85.6112963
1613,King Of Arms,40222,38.2716538,-85.6112514
1614,Crossridge Lane,40222,38.2711038,-85.6087026
1615,King Of Arms,40222,38.2716000,-85.6111052
1615,King Of Arms,40222,38.2716159,-85.6110600
1615,King Of Arms,40222,38.2716352,-85.6110182
1615,King Of Arms,40222,38.2716562,-85.6109752
1615,King Of Arms,40222,38.2716849,-85.6111809
1615,King Of Arms,40222,38.2717164,-85.6111292
1615,King Of Arms,40222,38.2717326,-85.6110839
1615,King Of Arms,40222,38.2717527,-85.6110431
1616,Crossridge Lane,40222,38.2711575,-85.6087441
1617,King Of Arms,40222,38.2719737,-85.6114386
1617,King Of Arms,40222,38.2720148,-85.6114823
1617,King Of Arms,40222,38.2720328,-85.6113293
1617,King Of Arms,40222,38.2720547,-85.6115177
1617,King Of Arms,40222,38.2720746,-85.6113713
1617,King Of Arms,40222,38.2721049,-85.6115582
1617,King Of Arms,40222,38.2721215,-85.6114142
1617,King Of Arms,40222,38.2721640,-85.6114513
1618,Crossridge Lane,40222,38.2712076,-85.6087851
1619,King Of Arms,40222,38.2721687,-85.6116039
1619,King Of Arms,40222,38.2722008,-85.6116342
1619,King Of Arms,40222,38.2722274,-85.6114756
1619,King Of Arms,40222,38.2722292,-85.6116578
1619,King Of Arms,40222,38.2722589,-85.6115058
1619,King Of Arms,40222,38.2722684,-85.6116948
1619,King Of Arms,40222,38.2722949,-85.6115403
1619,King Of Arms,40222,38.2723276,-85.6115772
1620,Crossridge Lane,40222,38.2712629,-85.6088431
1622,Crossridge Lane,40222,38.2713407,-85.6089156
1624,Crossridge Lane,40222,38.2714795,-85.6090392
1626,Crossridge Lane,40222,38.2715091,-85.6090707
1628,Crossridge Lane,40222,38.2715442,-85.6091092
1630,Crossridge Lane,40222,38.2715848,-85.6091527
1632,Crossridge Lane,40222,38.2716199,-85.6091890
1634,Crossridge Lane,40222,38.2716681,-85.6092278
1636,Crossridge Lane,40222,38.2720344,-85.6095739
1638,Crossridge Lane,40222,38.2720789,-85.6096057
1640,Crossridge Lane,40222,38.2721382,-85.6096542
1642,Crossridge Lane,40222,38.2721883,-85.6096887
1644,Crossridge Lane,40222,38.2722231,-85.6097486
1646,Crossridge Lane,40222,38.2722638,-85.6097920
1648,Crossridge Lane,40222,38.2725006,-85.6100124
1650,Crossridge Lane,40222,38.2725507,-85.6100560
1652,Crossridge Lane,40222,38.2725970,-85.6100900
1654,Crossridge Lane,40222,38.2726451,-85.6101384
1656,Crossridge Lane,40222,38.2726931,-85.6101915
1658,Crossridge Lane,40222,38.2727765,-85.6102549
7500,Dudley Square Drive,40222,38.2676859,-85.6109815
7500,Heyburn Court,40222,38.2678133,-85.6091801
7502,Dudley Square Drive,40222,38.2676607,-85.6108207
7502,Heyburn Court,40222,38.2678574,-85.6090369
7503,Heyburn Court,40222,38.2681964,-85.6091648
7504,Dudley Square Drive,40222,38.2676843,-85.6105835
7504,Heyburn Court,40222,38.2679270,-85.6088529
7505,Heyburn Court,40222,38.2682998,-85.6090189
7506,Dudley Square Drive,40222,38.2677510,-85.6104131
7506,Heyburn Court,40222,38.2680280,-85.6086990
7507,Heyburn Court,40222,38.2683795,-85.6088407
7508,Dudley Square Drive,40222,38.2678222,-85.6102614
7508,Heyburn Court,40222,38.2681207,-85.6085358
7510,Dudley Square Drive,40222,38.2679144,-85.6101029
7510,Heyburn Court,40222,38.2681811,-85.6084004
7511,Heyburn Court,40222,38.2686717,-85.6084237
7512,Dudley Square Drive,40222,38.2680018,-85.6099613
7512,Heyburn Court,40222,38.2682541,-85.6082638
7513,Heyburn Court,40222,38.2685714,-85.6082758
7514,Dudley Square Drive,40222,38.2680985,-85.6097972
7514,Heyburn Court,40222,38.2683411,-85.6081212
7516,Dudley Square Drive,40222,38.2682552,-85.6095253
7518,Dudley Square Drive,40222,38.2683428,-85.6093607
7520,Dudley Square Drive,40222,38.2684576,-85.6091969
7522,Dudley Square Drive,40222,38.2685407,-85.6090439
7524,Dudley Square Drive,40222,38.2686552,-85.6088971
7526,Dudley Square Drive,40222,38.2687470,-85.6087669
7528,Dudley Square Drive,40222,38.2689331,-85.6086846
7530,Dudley Square Drive,40222,38.2690638,-85.6086983
7600,Dudley Square Drive,40222,38.2692424,-85.6088680
7600,Westport Road,40222,38.2725030,-85.6112509
7602,Dudley Square Drive,40222,38.2692914,-85.6090257
7602,Westport Road,40222,38.2725260,-85.6112061
7604,Dudley Square Drive,40222,38.2692702,-85.6092382
7604,Westport Road,40222,38.2725814,-85.6111052
7606,Dudley Square Drive,40222,38.2692277,-85.6093912
7606,Westport Road,40222,38.2726177,-85.6110419
7608,Dudley Square Drive,40222,38.2691170,-85.6096003
7608,Westport Road,40222,38.2726654,-85.6109644
7610,Dudley Square Drive,40222,38.2690333,-85.6097555
7610,Westport Road,40222,38.2727076,-85.6108681
7612,Dudley Square Drive,40222,38.2689501,-85.6099250
7612,Westport Road,40222,38.2727805,-85.6107148
7614,Dudley Square Drive,40222,38.2688443,-85.6100942
7614,Westport Road,40222,38.2728129,-85.6106610
7616,Dudley Square Drive,40222,38.2686785,-85.6103175
7616,Westport Road,40222,38.2728492,-85.6105977
7618,Dudley Square Drive,40222,38.2685953,-85.6104814
7618,Westport Road,40222,38.2728816,-85.6105439
7620,Dudley Square Drive,40222,38.2685078,-85.6106335
7620,Westport Road,40222,38.2729105,-85.6104682
7622,Dudley Square Drive,40222,38.2684083,-85.6108178
7622,Westport Road,40222,38.2729354,-85.6104212
7624,Dudley Square Drive,40222,38.2683130,-85.6109571
7626,Dudley Square Drive,40222,38.2682060,-85.6110812
7628,Dudley Square Drive,40222,38.2680430,-85.6111683
7630,Dudley Square Drive,40222,38.2679137,-85.6111498
7700,Royalty Avenue,40222,38.2707680,-85.6107198
7701,Oxted Lane,40222,38.2698053,-85.6098000
7701,Royalty Avenue,40222,38.2712947,-85.6107750
7702,Royalty Avenue,40222,38.2708118,-85.6106518
7703,Oxted Lane,40222,38.2698632,-85.6097632
7703,Royalty Avenue,40222,38.2711626,-85.6110455
7704,Royalty Avenue,40222,38.2708480,-85.6105933
7705,Oxted Lane,40222,38.2699167,-85.6097206
7706,Royalty Avenue,40222,38.2709032,-85.6105068
7707,Oxted Lane,40222,38.2699839,-85.6096722
7708,Royalty Avenue,40222,38.2709453,-85.6104244
7709,Oxted Lane,40222,38.2700396,-85.6096323
7710,Royalty Avenue,40222,38.2709778,-85.6103632
7711,Oxted Lane,40222,38.2700952,-85.6095898
7807,Oxted Lane,40222,38.2704222,-85.6089541
7809,Oxted Lane,40222,38.2704458,-85.6089019
7811,Oxted Lane,40222,38.2704881,-85.6088326
7813,Oxted Lane,40222,38.2705302,-85.6087724
7813,Royalty Avenue,40222,38.2708307,-85.6092352
7813,Royalty Avenue,40222,38.2708698,-85.6092768
7813,Royalty Avenue,40222,38.2708957,-85.6091283
7813,Royalty Avenue,40222,38.2709144,-85.6093142
7813,Royalty Avenue,40222,38.2709382,-85.6091674
7813,Royalty Avenue,40222,38.2709482,-85.6093446
7813,Royalty Avenue,40222,38.2709774,-85.6092031
7813,Royalty Avenue,40222,38.2710146,-85.6092361
7815,Oxted Lane,40222,38.2705773,-85.6086770
7815,Royalty Avenue,40222,38.2706115,-85.6097781
7815,Royalty Avenue,40222,38.2706520,-85.6098200
7815,Royalty Avenue,40222,38.2706746,-85.6096604
7815,Royalty Avenue,40222,38.2706994,-85.6098648
7815,Royalty Avenue,40222,38.2707156,-85.6097057
7815,Royalty Avenue,40222,38.2707505,-85.6099090
7815,Royalty Avenue,40222,38.2707609,-85.6097471
7815,Royalty Avenue,40222,38.2708110,-85.6097906
7817,Oxted Lane,40222,38.2706267,-85.6085756
7817,Royalty Avenue,40222,38.2709890,-85.6093607
7817,Royalty Avenue,40222,38.2710307,-85.6094057
7817,Royalty Avenue,40222,38.2710526,-85.6092504
7817,Royalty Avenue,40222,38.2710831,-85.6094561
7817,Royalty Avenue,40222,38.2710931,-85.6092903
7817,Royalty Avenue,40222,38.2711270,-85.6094901
7817,Royalty Avenue,40222,38.2711369,-85.6093328
7817,Royalty Avenue,40222,38.2711860,-85.6093797
7819,Royalty Avenue,40222,38.2708108,-85.6099207
7819,Royalty Avenue,40222,38.2708471,-85.6099600
7819,Royalty Avenue,40222,38.2708660,-85.6098163
7819,Royalty Avenue,40222,38.2708927,-85.6100054
7819,Royalty Avenue,40222,38.2709066,-85.6098586
7819,Royalty Avenue,40222,38.2709454,-85.6100514
7819,Royalty Avenue,40222,38.2709475,-85.6099027
7819,Royalty Avenue,40222,38.2709996,-85.6099494
7821,Royalty Avenue,40222,38.2711493,-85.6100334
7821,Royalty Avenue,40222,38.2711718,-85.6099834
7821,Royalty Avenue,40222,38.2711950,-85.6099259
7821,Royalty Avenue,40222,38.2712169,-85.6100893
7821,Royalty Avenue,40222,38.2712222,-85.6098633
7821,Royalty Avenue,40222,38.2712487,-85.6100285
7821,Royalty Avenue,40222,38.2712779,-85.6099703
7821,Royalty Avenue,40222,38.2713111,-85.6099112
7823,Royalty Avenue,40222,38.2712583,-85.6097766
7823,Royalty Avenue,40222,38.2712813,-85.6097350
7823,Royalty Avenue,40222,38.2713044,-85.6096842
7823,Royalty Avenue,40222,38.2713295,-85.6096376
7823,Royalty Avenue,40222,38.2713422,-85.6098521
7823,Royalty Avenue,40222,38.2713660,-85.6097996
7823,Royalty Avenue,40222,38.2713882,-85.6097623
7823,Royalty Avenue,40222,38.2714154,-85.6097106
7834,Royalty Avenue,40222,38.2714200,-85.6104526
7834,Royalty Avenue,40222,38.2714612,-85.6104939
7834,Royalty Avenue,40222,38.2714816,-85.6103488
7834,Royalty Avenue,40222,38.2714916,-85.6105259
7834,Royalty Avenue,40222,38.2715180,-85.6103855
7834,Royalty Avenue,40222,38.2715317,-85.6105588
7834,Royalty Avenue,40222,38.2715502,-85.6104183
7834,Royalty Avenue,40222,38.2715890,-85.6104580
7836,Royalty Avenue,40222,38.2717238,-85.6099993
7836,Royalty Avenue,40222,38.2717691,-85.6100488
7836,Royalty Avenue,40222,38.2717816,-85.6098983
7836,Royalty Avenue,40222,38.2718108,-85.6100871
7836,Royalty Avenue,40222,38.2718246,-85.6099350
7836,Royalty Avenue,40222,38.2718575,-85.6101271
7836,Royalty Avenue,40222,38.2718694,-85.6099765
7836,Royalty Avenue,40222,38.2719110,-85.6100156
7838,Royalty Avenue,40222,38.2715798,-85.6105720
7838,Royalty Avenue,40222,38.2716181,-85.6106079
7838,Royalty Avenue,40222,38.2716414,-85.6104690
7838,Royalty Avenue,40222,38.2716605,-85.6106470
7838,Royalty Avenue,40222,38.2716766,-85.6105056
7838,Royalty Avenue,40222,38.2717102,-85.6106824
7838,Royalty Avenue,40222,38.2717136,-85.6105446
7838,Royalty Avenue,40222,38.2717661,-85.6105977
7840,Royalty Avenue,40222,38.2719012,-85.6101542
7840,Royalty Avenue,40222,38.2719373,-85.6101876
7840,Royalty Avenue,40222,38.2719686,-85.6100454
7840,Royalty Avenue,40222,38.2719729,-85.6102146
7840,Royalty Avenue,40222,38.2720003,-85.6100771
7840,Royalty Avenue,40222,38.2720115,-85.6102488
7840,Royalty Avenue,40222,38.2720338,-85.6101112
7840,Royalty Avenue,40222,38.2720692,-85.6101486
7842,Royalty Avenue,40222,38.2721216,-85.6103834
7842,Royalty Avenue,40222,38.2721508,-85.6103313
7842,Royalty Avenue,40222,38.2721795,-85.6102903
7842,Royalty Avenue,40222,38.2722066,-85.6102546
7842,Royalty Avenue,40222,38.2722088,-85.6104617
7842,Royalty Avenue,40222,38.2722352,-85.6104177
7842,Royalty Avenue,40222,38.2722606,-85.6103755
7842,Royalty Avenue,40222,38.2722823,-85.6103344
7844,Royalty Avenue,40222,38.2720054,-85.6106252
7844,Royalty Avenue,40222,38.2720467,-85.6105611
7844,Royalty Avenue,40222,38.2720801,-85.6105043
7844,Royalty Avenue,40222,38.2720870,-85.6107046
7844,Royalty Avenue,40222,38.2721047,-85.6104557
7844,Royalty Avenue,40222,38.2721219,-85.6106362
7844,Royalty Avenue,40222,38.2721581,-85.6105789
7844,Royalty Avenue,40222,38.2721849,-85.6105332
7846,Royalty Avenue,40222,38.2720133,-85.6109790
7846,Royalty Avenue,40222,38.2720419,-85.6110069
7846,Royalty Avenue,40222,38.2720737,-85.6108683
7846,Royalty Avenue,40222,38.2720761,-85.6110372
7846,Royalty Avenue,40222,38.2721030,-85.6108993
7846,Royalty Avenue,40222,38.2721103,-85.6110629
7846,Royalty Avenue,40222,38.2721340,-85.6109304
7846,Royalty Avenue,40222,38.2721669,-85.6109662
7848,Royalty Avenue,40222,38.2721635,-85.6110990
7848,Royalty Avenue,40222,38.2721994,-85.6111349
7848,Royalty Avenue,40222,38.2722246,-85.6109868
7848,Royalty Avenue,40222,38.2722367,-85.6111677
7848,Royalty Avenue,40222,38.2722630,-85.6110266
7848,Royalty Avenue,40222,38.2722836,-85.6112108
7848,Royalty Avenue,40222,38.2723020,-85.6110641
7848,Royalty Avenue,40222,38.2723446,-85.6111110
900,Dudley Square Way,40222,38.2673493,-85.6106736
901,Dudley Square Way,40222,38.2672764,-85.6106115
903,Dudley Square Way,40222,38.2671513,-85.6105128
905,Dudley Square Way,40222,38.2671481,-85.6102225
907,Dudley Square Way,40222,38.2672626,-85.6100807
908,Dudley Square Way,40222,38.2676190,-85.6101862
909,Dudley Square Way,40222,38.2673502,-85.6099274
910,Dudley Square Way,40222,38.2677026,-85.6100323
911,Dudley Square Way,40222,38.2674353,-85.6097401
912,Dudley Square Way,40222,38.2677967,-85.6098995
913,Dudley Square Way,40222,38.2675230,-85.6095888
915,Dudley Square Way,40222,38.2676231,-85.6094930
917,Dudley Square Way,40222,38.2677314,-85.6093725
1201,Herr Lane,40222,38.2674119,-85.6123568
1201,Herr Lane,40222,38.2674601,-85.6123976
1201,Herr Lane,40222,38.2675225,-85.6124424
1201,Herr Lane,40222,38.2675708,-85.6124723
1201,Herr Lane,40222,38.2676276,-85.6125024
1201,Herr Lane,40222,38.2676843,-85.6125506
1201,Herr Lane,40222,38.2677111,-85.6125788
1201,Herr Lane,40222,38.2677437,-85.6126098
1201,Herr Lane,40222,38.2678060,-85.6126618
1201,Herr Lane,40222,38.2678653,-85.6127246
1211,Herr Lane,40222,38.2681249,-85.6123013
1211,Herr Lane,40222,38.2681785,-85.6122388
1211,Herr Lane,40222,38.2681948,-85.6121937
1215,Herr Lane,40222,38.2684328,-85.6124236
1215,Herr Lane,40222,38.2684928,-85.6126821
1215,Herr Lane,40222,38.2684984,-85.6124813
1215,Herr Lane,40222,38.2685247,-85.6126278
1215,Herr Lane,40222,38.2685650,-85.6125454
1301,Herr Lane,40222,38.2681269,-85.6131068
1301,Herr Lane,40222,38.2681570,-85.6130416
1301,Herr Lane,40222,38.2681752,-85.6131404
1301,Herr Lane,40222,38.2682206,-85.6131703
1301,Herr Lane,40222,38.2682687,-85.6132184
1301,Herr Lane,40222,38.2683368,-85.6132632
1301,Herr Lane,40222,38.2683822,-85.6132931
1301,Herr Lane,40222,38.2684361,-85.6133340
1301,Herr Lane,40222,38.2684956,-85.6133859
1301,Herr Lane,40222,38.2685408,-85.6134339
1301,Herr Lane,40222,38.2685945,-85.6134857
1301,Herr Lane,40222,38.2686413,-85.6135258
1301,Herr Lane,40222,38.2686725,-85.6135489
1301,Herr Lane,40222,38.2686992,-85.6135857
1301,Herr Lane,40222,38.2687473,-85.6136301
1301,Herr Lane,40222,38.2687757,-85.6135309
1311,Herr Lane,40222,38.2690290,-85.6130887
1311,Herr Lane,40222,38.2690920,-85.6130279
1311,Herr Lane,40222,38.2692065,-85.6131216
1315,Herr Lane,40222,38.2693464,-85.6132372
1315,Herr Lane,40222,38.2693849,-85.6134211
1315,Herr Lane,40222,38.2694322,-85.6133187
1321,Herr Lane,40222,38.2689897,-85.6140629
1321,Herr Lane,40222,38.2690036,-85.6139797
1321,Herr Lane,40222,38.2690458,-85.6140349
1321,Herr Lane,40222,38.2690912,-85.6140720
1321,Herr Lane,40222,38.2691393,-85.6141128
1321,Herr Lane,40222,38.2691790,-85.6141462
1321,Herr Lane,40222,38.2692327,-85.6142017
1321,Herr Lane,40222,38.2692750,-85.6142497
1321,Herr Lane,40222,38.2693174,-85.6142976
1321,Herr Lane,40222,38.2694295,-85.6143816
1321,Herr Lane,40222,38.2694665,-85.6143203
1321,Herr Lane,40222,38.2696198,-85.6140819
1415,Lyndon Lane,40222,38.2709948,-85.6137179
1415,Lyndon Lane,40222,38.2708042,-85.6135704
1215,Herr Lane,40222,38.2684786,-85.6125789
1215,Herr Lane,40222,38.2684746,-85.6127441
1321,Herr Lane,40222,38.2694271,-85.6141317
1200,Girard Drive,40222,38.2683011,-85.6195355
1202,Girard Drive,40222,38.2684344,-85.6196945
1204,Girard Drive,40222,38.2686149,-85.6198170
1206,Girard Drive,40222,38.2687697,-85.6199281
1208,Girard Drive,40222,38.2689342,-85.6200730
1210,Girard Drive,40222,38.2691061,-85.6202213
1300,Girard Drive,40222,38.2692634,-85.6203359
1302,Girard Drive,40222,38.2694239,-85.6204738
1304,Girard Drive,40222,38.2695885,-85.6206231
1306,Girard Drive,40222,38.2697310,-85.6207470
1312,Carlimar Lane,40222,38.2704835,-85.6265021
1313,Carlimar Lane,40222,38.2706496,-85.6259723
1394,Girard Drive,40222,38.2698952,-85.6209003
1396,Girard Drive,40222,38.2701446,-85.6211155
1398,Girard Drive,40222,38.2703474,-85.6213379
1400,Carlimar Lane,40222,38.2706538,-85.6266539
1400,Girard Drive,40222,38.2705964,-85.6215187
1402,Carlimar Lane,40222,38.2708294,-85.6268140
1402,Girard Drive,40222,38.2707858,-85.6216974
1404,Carlimar Lane,40222,38.2710085,-85.6269792
1404,Girard Drive,40222,38.2710140,-85.6219270
1406,Carlimar Lane,40222,38.2711792,-85.6271337
1406,Girard Drive,40222,38.2712675,-85.6221671
1408,Carlimar Lane,40222,38.2713631,-85.6273065
1408,Girard Drive,40222,38.2714965,-85.6223405
1410,Carlimar Lane,40222,38.2715694,-85.6274775
1410,Girard Drive,40222,38.2717203,-85.6225426
1412,Carlimar Lane,40222,38.2717356,-85.6276318
1412,Girard Drive,40222,38.2719544,-85.6227619
1414,Carlimar Lane,40222,38.2718991,-85.6277983
1414,Girard Drive,40222,38.2721722,-85.6229585
1416,Carlimar Lane,40222,38.2720771,-85.6279593
1416,Girard Drive,40222,38.2724316,-85.6232184
1418,Carlimar Lane,40222,38.2722563,-85.6281198
1420,Carlimar Lane,40222,38.2724460,-85.6282897
1500,Carlimar Lane,40222,38.2726212,-85.6284538
1502,Carlimar Lane,40222,38.2727981,-85.6286033
1503,Carlimar Lane,40222,38.2732484,-85.6283725
1504,Carlimar Lane,40222,38.2730080,-85.6288113
1505,Carlimar Lane,40222,38.2734119,-85.6285066
1506,Carlimar Lane,40222,38.2731903,-85.6289788
1507,Carlimar Lane,40222,38.2735884,-85.6286754
1508,Carlimar Lane,40222,38.2733734,-85.6291370
1509,Carlimar Lane,40222,38.2737729,-85.6288392
1510,Carlimar Lane,40222,38.2735564,-85.6293053
1512,Carlimar Lane,40222,38.2737245,-85.6294695
1513,Carlimar Lane,40222,38.2740753,-85.6291061
1514,Carlimar Lane,40222,38.2739030,-85.6296340
1516,Carlimar Lane,40222,38.2740718,-85.6297991
1518,Carlimar Lane,40222,38.2742431,-85.6299601
1600,Carlimar Lane,40222,38.2744668,-85.6301624
1601,Carlimar Lane,40222,38.2747428,-85.6297779
1602,Carlimar Lane,40222,38.2746404,-85.6303304
1604,Carlimar Lane,40222,38.2748288,-85.6305045
1605,Carlimar Lane,40222,38.2751990,-85.6301442
1700,Girard Drive,40222,38.2745783,-85.6263978
1701,Girard Drive,40222,38.2750561,-85.6260870
1702,Girard Drive,40222,38.2747165,-85.6265990
1704,Girard Drive,40222,38.2748730,-85.6267705
1705,Girard Drive,40222,38.2752084,-85.6263272
1706,Girard Drive,40222,38.2750524,-85.6269205
1708,Girard Drive,40222,38.2752368,-85.6270420
1710,Girard Drive,40222,38.2754128,-85.6271650
1800,Girard Drive,40222,38.2755640,-85.6273192
1800,Gretchen K Court,40222,38.2751095,-85.6279781
1801,Gretchen K Court,40222,38.2752846,-85.6278407
1801,Herr Lane,40222,38.2762923,-85.6206938
1802,Baden Court,40222,38.2792919,-85.6161488
1802,Corona Court,40222,38.2789178,-85.6172463
1802,Girard Drive,40222,38.2757213,-85.6274137
1802,Gretchen K Court,40222,38.2750360,-85.6282415
1802,Leawood Court,40222,38.2768671,-85.6204021
1803,Baden Court,40222,38.2796464,-85.6154914
1803,Corona Court,40222,38.2791519,-85.6165796
1803,Girard Drive,40222,38.2763111,-85.6271459
1803,Gretchen K Court,40222,38.2754910,-85.6278718
1803,Herr Lane,40222,38.2764709,-85.6209061
1803,Leawood Court,40222,38.2773638,-85.6201094
1804,Baden Court,40222,38.2795961,-85.6161891
1804,Corona Court,40222,38.2792113,-85.6169761
1804,Gretchen K Court,40222,38.2751565,-85.6284646
1804,Leawood Court,40222,38.2771876,-85.6204618
1805,Baden Court,40222,38.2797975,-85.6158804
1805,Herr Lane,40222,38.2766502,-85.6210940
1807,Girard Drive,40222,38.2770479,-85.6275122
1807,Herr Lane,40222,38.2768590,-85.6212365
1808,Girard Drive,40222,38.2766856,-85.6280891
1809,Girard Drive,40222,38.2772717,-85.6276320
1809,Herr Lane,40222,38.2770263,-85.6214690
1810,Girard Drive,40222,38.2768964,-85.6282476
1900,Buttonwood Road,40222,38.2766412,-85.6234987
1900,Herr Lane,40222,38.2773003,-85.6226985
1902,Buttonwood Road,40222,38.2768463,-85.6237156
1902,Herr Lane,40222,38.2775642,-85.6229331
1902,Hollen Road,40222,38.2798368,-85.6150186
1903,Buttonwood Road,40222,38.2771194,-85.6232287
1904,Buttonwood Road,40222,38.2770128,-85.6239080
1904,Herr Lane,40222,38.2777362,-85.6231126
1904,Hollen Road,40222,38.2800348,-85.6152306
1904,Lynn Way,40222,38.2784879,-85.6183937
1905,Buttonwood Road,40222,38.2773217,-85.6233977
1905,Lynn Way,40222,38.2786217,-85.6176650
1906,Herr Lane,40222,38.2778895,-85.6232892
1906,Hollen Road,40222,38.2802459,-85.6154317
1907,Buttonwood Road,40222,38.2775414,-85.6235545
1908,Herr Lane,40222,38.2780559,-85.6234529
1909,Buttonwood Road,40222,38.2776571,-85.6238106
1911,Buttonwood Road,40222,38.2775846,-85.6240901
1912,Herr Lane,40222,38.2782530,-85.6236698
1913,Buttonwood Road,40222,38.2774104,-85.6242924
1914,Buttonwood Road,40222,38.2768774,-85.6241656
1914,Herr Lane,40222,38.2784757,-85.6239024
1915,Buttonwood Road,40222,38.2772823,-85.6245144
1916,Buttonwood Road,40222,38.2767439,-85.6243625
1917,Buttonwood Road,40222,38.2771737,-85.6247080
1918,Buttonwood Road,40222,38.2766313,-85.6245760
1919,Buttonwood Road,40222,38.2770366,-85.6249055
1920,Buttonwood Road,40222,38.2765105,-85.6248001
1920,Herr Lane,40222,38.2789018,-85.6242717
1921,Buttonwood Road,40222,38.2769066,-85.6251185
1922,Buttonwood Road,40222,38.2763812,-85.6250076
1923,Buttonwood Road,40222,38.2767824,-85.6253361
1924,Buttonwood Road,40222,38.2762514,-85.6252066
1925,Buttonwood Road,40222,38.2766625,-85.6255359
1926,Buttonwood Road,40222,38.2761382,-85.6254309
1927,Buttonwood Road,40222,38.2765352,-85.6257524
1928,Buttonwood Road,40222,38.2760159,-85.6256389
1929,Buttonwood Road,40222,38.2764190,-85.6259647
1930,Buttonwood Road,40222,38.2758961,-85.6258482
1931,Buttonwood Road,40222,38.2762948,-85.6261779
1932,Buttonwood Road,40222,38.2757748,-85.6260626
1933,Buttonwood Road,40222,38.2761716,-85.6263759
1934,Buttonwood Road,40222,38.2756475,-85.6262654
1935,Buttonwood Road,40222,38.2760363,-85.6265889
1936,Buttonwood Road,40222,38.2754700,-85.6265057
1937,Buttonwood Road,40222,38.2759302,-85.6268281
6601,Bedford Lane,40222,38.2746026,-85.6294392
6603,Bedford Lane,40222,38.2745461,-85.6291772
6605,Bedford Lane,40222,38.2745158,-85.6289134
6606,Bedford Lane,40222,38.2740483,-85.6286084
6607,Bedford Lane,40222,38.2745008,-85.6286234
6608,Bedford Lane,40222,38.2740015,-85.6283336
6609,Bedford Lane,40222,38.2744417,-85.6283353
6700,Bedford Lane,40222,38.2739766,-85.6280704
6700,Crossmoor Lane,40222,38.2751102,-85.6293776
6701,Bedford Lane,40222,38.2744013,-85.6280852
6701,Crossmoor Lane,40222,38.2753194,-85.6294630
6701,Greenlawn Road,40222,38.2729515,-85.6280505
6702,Bedford Lane,40222,38.2739319,-85.6277363
6702,Crossmoor Lane,40222,38.2750044,-85.6291152
6703,Bedford Lane,40222,38.2743814,-85.6278185
6703,Crossmoor Lane,40222,38.2755323,-85.6293524
6703,Greenlawn Road,40222,38.2730951,-85.6278048
6704,Crossmoor Lane,40222,38.2751149,-85.6288488
6705,Bedford Lane,40222,38.2743083,-85.6275320
6705,Crossmoor Lane,40222,38.2756041,-85.6291041
6705,Greenlawn Road,40222,38.2732996,-85.6276416
6706,Bedford Lane,40222,38.2738596,-85.6272717
6706,Crossmoor Lane,40222,38.2753145,-85.6286443
6707,Bedford Lane,40222,38.2743049,-85.6272610
6707,Crossmoor Lane,40222,38.2756785,-85.6288871
6707,Greenlawn Road,40222,38.2734805,-85.6274947
6709,Bedford Lane,40222,38.2742353,-85.6269817
6709,Crossmoor Lane,40222,38.2758092,-85.6287085
6709,Greenlawn Road,40222,38.2736464,-85.6273699
6711,Bedford Lane,40222,38.2742478,-85.6266269
6711,Crossmoor Lane,40222,38.2759433,-85.6285186
6712,Crossmoor Lane,40222,38.2756744,-85.6280469
6713,Crossmoor Lane,40222,38.2761084,-85.6283447
6714,Crossmoor Lane,40222,38.2759091,-85.6278654
6715,Crossmoor Lane,40222,38.2762706,-85.6281695
6716,Crossmoor Lane,40222,38.2760677,-85.6276417
6717,Crossmoor Lane,40222,38.2764291,-85.6279612
6801,Crossmoor Lane,40222,38.2767736,-85.6274021
6802,Crossmoor Lane,40222,38.2764707,-85.6269550
6802,Graymoor Road,40222,38.2708256,-85.6257443
6803,Crossmoor Lane,40222,38.2769281,-85.6271330
6803,Greenlawn Road,40222,38.2752590,-85.6258516
6804,Crossmoor Lane,40222,38.2766130,-85.6267601
6804,Graymoor Road,40222,38.2709320,-85.6255283
6805,Crossmoor Lane,40222,38.2770836,-85.6269036
6805,Greenlawn Road,40222,38.2753851,-85.6256336
6806,Crossmoor Lane,40222,38.2766917,-85.6264699
6806,Graymoor Road,40222,38.2710129,-85.6252647
6807,Crossmoor Lane,40222,38.2771728,-85.6266964
6807,Greenlawn Road,40222,38.2755006,-85.6254225
6808,Crossmoor Lane,40222,38.2768435,-85.6263597
6808,Graymoor Road,40222,38.2711563,-85.6250077
6809,Greenlawn Road,40222,38.2756176,-85.6252158
6810,Crossmoor Lane,40222,38.2769526,-85.6261425
6810,Graymoor Road,40222,38.2713029,-85.6248327
6811,Crossmoor Lane,40222,38.2774060,-85.6263196
6811,Greenlawn Road,40222,38.2757453,-85.6250010
6812,Crossmoor Lane,40222,38.2770784,-85.6259613
6812,Graymoor Road,40222,38.2714517,-85.6245085
6813,Crossmoor Lane,40222,38.2775355,-85.6261095
6813,Greenlawn Road,40222,38.2758724,-85.6247906
6814,Crossmoor Lane,40222,38.2772288,-85.6257521
6815,Crossmoor Lane,40222,38.2776348,-85.6259263
6816,Crossmoor Lane,40222,38.2773234,-85.6255450
6817,Crossmoor Lane,40222,38.2777623,-85.6257347
6818,Crossmoor Lane,40222,38.2774438,-85.6253191
6819,Crossmoor Lane,40222,38.2778643,-85.6255249
6820,Crossmoor Lane,40222,38.2775764,-85.6251512
6821,Crossmoor Lane,40222,38.2779766,-85.6253383
6822,Crossmoor Lane,40222,38.2776730,-85.6249576
6823,Crossmoor Lane,40222,38.2780940,-85.6251312
6824,Crossmoor Lane,40222,38.2777720,-85.6247195
6825,Crossmoor Lane,40222,38.2782534,-85.6249672
6826,Crossmoor Lane,40222,38.2779520,-85.6245521
6827,Crossmoor Lane,40222,38.2784446,-85.6247934
6828,Crossmoor Lane,40222,38.2780891,-85.6243793
6830,Crossmoor Lane,40222,38.2782818,-85.6242830
6900,Graymoor Road,40222,38.2716039,-85.6242451
6901,Greenlawn Road,40222,38.2760365,-85.6246355
6902,Graymoor Road,40222,38.2717172,-85.6239955
6903,Greenlawn Road,40222,38.2761261,-85.6243910
6904,Graymoor Road,40222,38.2718818,-85.6237465
6905,Greenlawn Road,40222,38.2762611,-85.6241560
6906,Graymoor Road,40222,38.2721089,-85.6235234
6907,Greenlawn Road,40222,38.2763673,-85.6239597
6909,Greenlawn Road,40222,38.2764830,-85.6237426
6913,Greenlawn Road,40222,38.2769622,-85.6230278
6915,Greenlawn Road,40222,38.2771032,-85.6228402
7103,Glen Arbor Road,40222,38.2764742,-85.6203238
7106,Greenlawn Road,40222,38.2776549,-85.6208454
7107,Glen Arbor Road,40222,38.2767054,-85.6200009
7200,Greenlawn Road,40222,38.2781906,-85.6200165
7201,Glen Arbor Road,40222,38.2772900,-85.6197253
7203,Glen Arbor Road,40222,38.2776110,-85.6195515
7204,Greenlawn Road,40222,38.2785209,-85.6194408
7205,Glen Arbor Road,40222,38.2778144,-85.6192241
7206,Greenlawn Road,40222,38.2786605,-85.6191670
7207,Glen Arbor Road,40222,38.2779237,-85.6189258
7209,Glen Arbor Road,40222,38.2780501,-85.6186129
7211,Glen Arbor Road,40222,38.2781620,-85.6181881
7300,Greenlawn Road,40222,38.2791696,-85.6183441
7301,Glen Arbor Road,40222,38.2784223,-85.6175040
7303,Glen Arbor Road,40222,38.2785933,-85.6170673
7304,Greenlawn Road,40222,38.2795052,-85.6177795
7307,Glen Arbor Road,40222,38.2788526,-85.6163519
7311,Glen Arbor Road,40222,38.2790416,-85.6158803
7315,Glen Arbor Road,40222,38.2793499,-85.6152445
7319,Glen Arbor Road,40222,38.2795769,-85.6148622
7404,Greenlawn Road,40222,38.2802818,-85.6164405
1201,Girard Drive,40222,38.2685746,-85.6190711
1203,Girard Drive,40222,38.2687480,-85.6192224
1205,Girard Drive,40222,38.2689265,-85.6192839
1207,Girard Drive,40222,38.2690705,-85.6194845
1209,Girard Drive,40222,38.2692308,-85.6196157
1211,Girard Drive,40222,38.2693994,-85.6197349
1300,Abbeywood Road,40222,38.2689152,-85.6185263
1301,Abbeywood Road,40222,38.2692049,-85.6180209
1301,Girard Drive,40222,38.2696036,-85.6199518
1302,Abbeywood Road,40222,38.2690999,-85.6186484
1303,Abbeywood Road,40222,38.2693738,-85.6181835
1304,Abbeywood Road,40222,38.2692512,-85.6188186
1305,Abbeywood Road,40222,38.2695420,-85.6182498
1306,Abbeywood Road,40222,38.2694104,-85.6189223
1307,Abbeywood Road,40222,38.2696971,-85.6184420
1307,Girard Drive,40222,38.2700794,-85.6203532
1308,Abbeywood Road,40222,38.2695647,-85.6190579
1309,Abbeywood Road,40222,38.2698542,-85.6185840
1310,Abbeywood Road,40222,38.2697283,-85.6191668
1311,Abbeywood Road,40222,38.2700052,-85.6187009
1313,Abbeywood Road,40222,38.2701909,-85.6188621
1393,Girard Drive,40222,38.2709781,-85.6209367
1395,Girard Drive,40222-6642,38.2710594,-85.6203084
1397,Girard Drive,40222,38.2715320,-85.6195825
1399,Girard Drive,40222,38.2712785,-85.6192517
1400,Herr Lane,40222,38.2704037,-85.6161918
1401,Community Way,40222,38.2716280,-85.6252729
1402,Community Way,40222,38.2715587,-85.6259659
1403,Carlimar Lane,40222,38.2712678,-85.6265477
1403,Community Way,40222,38.2718306,-85.6255094
1403,Herr Lane,40222,38.2708219,-85.6157846
1404,Community Way,40222,38.2717469,-85.6261114
1404,Herr Lane,40222,38.2707393,-85.6165851
1405,Carlimar Lane,40222,38.2714410,-85.6267152
1405,Community Way,40222,38.2719785,-85.6256779
1405,Herr Lane,40222,38.2709886,-85.6159266
1405,Techny Lane,40222,38.2719412,-85.6203476
1406,Community Way,40222,38.2719260,-85.6262811
1406,Herr Lane,40222,38.2708940,-85.6167581
1406,Mirimar Road,40222,38.2725026,-85.6200001
1406,Techny Lane,40222,38.2718685,-85.6210536
1407,Carlimar Lane,40222,38.2716149,-85.6268703
1407,Community Way,40222,38.2721985,-85.6258459
1407,Girard Drive,40222,38.2715522,-85.6216391
1407,Herr Lane,40222,38.2711688,-85.6160340
1407,Mirimar Road,40222,38.2727723,-85.6194596
1407,Techny Lane,40222,38.2721674,-85.6205849
1408,Community Way,40222,38.2721178,-85.6264451
1408,Herr Lane,40222,38.2711096,-85.6168693
1408,Mirimar Road,40222,38.2727160,-85.6201913
1408,Techny Lane,40222,38.2720832,-85.6212463
1409,Carlimar Lane,40222,38.2717951,-85.6270425
1409,Community Way,40222,38.2723931,-85.6259163
1409,Girard Drive,40222,38.2717872,-85.6218615
1409,Herr Lane,40222,38.2713300,-85.6162349
1409,Mirimar Road,40222,38.2729743,-85.6196838
1409,Techny Lane,40222,38.2723899,-85.6207903
1410,Community Way,40222,38.2723462,-85.6265241
1410,Mirimar Road,40222,38.2729236,-85.6203790
1410,Techny Lane,40222,38.2722990,-85.6214830
1411,Carlimar Lane,40222,38.2719708,-85.6272061
1411,Community Way,40222,38.2726155,-85.6259553
1411,Girard Drive,40222,38.2720109,-85.6220655
1411,Herr Lane,40222,38.2714657,-85.6163555
1411,Mirimar Road,40222,38.2732158,-85.6198936
1411,Techny Lane,40222,38.2726105,-85.6209464
1412,Community Way,40222,38.2726009,-85.6265162
1412,Herr Lane,40222,38.2712912,-85.6170379
1412,Mirimar Road,40222,38.2731276,-85.6205789
1412,Techny Lane,40222,38.2725301,-85.6216587
1413,Carlimar Lane,40222,38.2721477,-85.6273716
1413,Girard Drive,40222,38.2722385,-85.6222662
1413,Mirimar Road,40222,38.2734388,-85.6201027
1413,Techny Lane,40222,38.2728104,-85.6211569
1414,Herr Lane,40222,38.2714498,-85.6171853
1414,Mirimar Road,40222,38.2733818,-85.6208762
1414,Techny Lane,40222,38.2727548,-85.6218699
1415,Carlimar Lane,40222,38.2723287,-85.6275162
1415,Girard Drive,40222,38.2724599,-85.6224607
1415,Mirimar Road,40222,38.2736472,-85.6202981
1415,Techny Lane,40222,38.2730548,-85.6213419
1417,Girard Drive,40222,38.2727386,-85.6227128
1418,Girard Drive,40222,38.2728885,-85.6237017
1500,Community Way,40222,38.2728307,-85.6265093
1500,Herr Lane,40222,38.2716492,-85.6173880
1500,Lynn Way,40222,38.2713468,-85.6143856
1501,Community Way,40222,38.2728385,-85.6259107
1501,Herrs Dale Court,40222,38.2715165,-85.6152946
1501,Lynn Way,40222,38.2716492,-85.6139192
1502,Community Way,40222,38.2730638,-85.6264702
1502,Herr Lane,40222,38.2717772,-85.6175743
1502,Herrs Dale Court,40222,38.2714120,-85.6155789
1502,Lynn Way,40222,38.2716846,-85.6145998
1503,Community Way,40222,38.2730478,-85.6257916
1503,Herr Lane,40222,38.2721780,-85.6169925
1503,Herrs Dale Court,40222,38.2717919,-85.6151717
1503,Lynn Way,40222,38.2719941,-85.6141641
1504,Community Way,40222,38.2732477,-85.6263037
1504,Herr Lane,40222,38.2719620,-85.6177540
1504,Herrs Dale Court,40222,38.2716794,-85.6157750
1504,Lynn Way,40222,38.2718842,-85.6147127
1505,Herr Lane,40222,38.2723334,-85.6171329
1506,Herr Lane,40222,38.2721477,-85.6179219
1508,Herr Lane,40222,38.2723382,-85.6180869
1508,Ocala Road,40222,38.2718986,-85.6247854
1509,Herr Lane,40222,38.2725413,-85.6172524
1509,Ocala Road,40222,38.2724566,-85.6244550
1510,Ocala Road,40222,38.2721677,-85.6249692
1511,Herr Lane,40222,38.2726805,-85.6174209
1511,Ocala Road,40222,38.2727351,-85.6243717
1512,Herr Lane,40222,38.2724918,-85.6182372
1512,Ocala Road,40222,38.2724643,-85.6250747
1513,Herr Lane,40222,38.2729147,-85.6175798
1513,Ocala Road,40222,38.2730501,-85.6243135
1514,Herr Lane,40222,38.2726734,-85.6183887
1514,Ocala Road,40222,38.2727301,-85.6250009
1515,Herr Lane,40222,38.2730796,-85.6177434
1518,Herr Lane,40222,38.2729520,-85.6186397
1600,Clearview Drive,40222,38.2723935,-85.6160107
1600,Herr Lane,40222,38.2731689,-85.6189604
1601,Clearview Drive,40222,38.2726643,-85.6154739
1601,Girard Drive,40222,38.2742450,-85.6241417
1601,Lynn Way,40222,38.2726860,-85.6144083
1602,Clearview Drive,40222,38.2726697,-85.6160819
1602,Girard Drive,40222,38.2739409,-85.6246223
1602,Herr Lane,40222,38.2732988,-85.6192145
1602,Lynn Way,40222,38.2727980,-85.6150080
1603,Clearview Drive,40222,38.2728563,-85.6155730
1603,Lynn Way,40222,38.2729804,-85.6145085
1604,Clearview Drive,40222,38.2728388,-85.6164440
1604,Girard Drive,40222,38.2740607,-85.6248007
1604,Herr Lane,40222,38.2735245,-85.6192825
1604,Lynn Way,40222,38.2730297,-85.6151000
1605,Clearview Drive,40222,38.2730700,-85.6156519
1605,Herr Lane,40222,38.2738502,-85.6184994
1605,Lynn Way,40222,38.2735112,-85.6146589
1606,Clearview Drive,40222,38.2729810,-85.6166281
1606,Girard Drive,40222,38.2741430,-85.6250443
1606,Lynn Way,40222,38.2732691,-85.6151708
1607,Herr Lane,40222,38.2740911,-85.6186728
1607,Lynn Way,40222,38.2737679,-85.6147309
1608,Clearview Drive,40222,38.2732377,-85.6166757
1608,Herr Lane,40222,38.2739052,-85.6195510
1609,Herr Lane,40222,38.2743021,-85.6188494
1610,Clearview Drive,40222,38.2734381,-85.6164301
1610,Girard Drive,40222,38.2742393,-85.6253344
1610,Herr Lane,40222,38.2740967,-85.6196671
1611,Girard Drive,40222,38.2745001,-85.6247235
1611,Herr Lane,40222,38.2745122,-85.6190598
1612,Clearview Drive,40222,38.2735689,-85.6162090
1612,Girard Drive,40222,38.2743167,-85.6255570
1612,Herr Lane,40222,38.2744067,-85.6199047
1613,Girard Drive,40222,38.2746552,-85.6250603
1613,Herr Lane,40222,38.2746939,-85.6192359
1614,Clearview Drive,40222,38.2737213,-85.6159565
1614,Girard Drive,40222,38.2743806,-85.6258060
1615,Clearview Drive,40222,38.2733614,-85.6156705
1616,Clearview Drive,40222,38.2738729,-85.6157132
1617,Clearview Drive,40222,38.2735012,-85.6153264
1700,Devondale Drive,40222,38.2731209,-85.6113881
1700,Lynn Way,40222,38.2740364,-85.6154523
1701,Corlon Court,40222,38.2773427,-85.6182558
1701,Devondale Drive,40222,38.2734400,-85.6109174
1701,Lynn Way,40222,38.2743997,-85.6149266
1702,Corlon Court,40222,38.2769225,-85.6186189
1702,Devondale Drive,40222,38.2733831,-85.6116167
1702,Herr Lane,40222,38.2751641,-85.6206241
1703,Clearview Drive,40222,38.2739964,-85.6145787
1703,Corlon Court,40222,38.2770703,-85.6182731
1703,Devondale Drive,40222,38.2737321,-85.6111574
1703,Lynn Way,40222,38.2746780,-85.6149870
1704,Clearview Drive,40222,38.2744443,-85.6146978
1704,Devondale Drive,40222,38.2736015,-85.6118191
1704,Lynn Way,40222,38.2752747,-85.6160245
1705,Clearview Drive,40222,38.2741005,-85.6143761
1705,Devondale Drive,40222,38.2739480,-85.6113874
1705,Lynn Way,40222,38.2755654,-85.6151070
1706,Clearview Drive,40222,38.2746250,-85.6145135
1706,Devondale Drive,40222,38.2738509,-85.6120248
1707,Clearview Drive,40222,38.2742542,-85.6141293
1707,Devondale Drive,40222,38.2742155,-85.6115295
1708,Clearview Drive,40222,38.2747047,-85.6142897
1708,Devondale Drive,40222,38.2741509,-85.6121827
1709,Clearview Drive,40222,38.2743526,-85.6138663
1709,Herr Lane,40222,38.2758185,-85.6203012
1709,Lynn Way,40222,38.2757644,-85.6157777
1710,Clearview Drive,40222,38.2748380,-85.6140295
1710,Devondale Drive,40222,38.2744029,-85.6122302
1712,Clearview Drive,40222,38.2748751,-85.6137233
1712,Devondale Drive,40222,38.2747018,-85.6122446
1712,Lynn Way,40222,38.2760489,-85.6168408
1713,Devondale Drive,40222,38.2750286,-85.6115092
1715,Devondale Drive,40222,38.2753216,-85.6115414
1716,Devondale Drive,40222,38.2752735,-85.6122176
1717,Devondale Drive,40222,38.2756061,-85.6117410
1718,Devondale Drive,40222,38.2755344,-85.6124155
1719,Devondale Drive,40222,38.2758661,-85.6119371
1720,Devondale Drive,40222,38.2757165,-85.6125658
1721,Devondale Drive,40222,38.2761211,-85.6122084
1722,Devondale Drive,40222,38.2759267,-85.6127578
1723,Devondale Drive,40222,38.2763798,-85.6124267
1724,Devondale Drive,40222,38.2761747,-85.6130479
1725,Devondale Drive,40222,38.2766242,-85.6126259
1800,Herr Lane,40222,38.2759102,-85.6212354
1802,Devondale Drive,40222,38.2766922,-85.6138418
1803,Devondale Drive,40222,38.2771199,-85.6134349
1806,Lynn Way,40222,38.2773260,-85.6176391
1807,Lynn Way,40222,38.2776475,-85.6171342
1808,Herr Lane,40222,38.2763343,-85.6216783
1808,Lynn Way,40222,38.2775382,-85.6177676
1810,Herr Lane,40222,38.2765366,-85.6218901
1812,Buttonwood Road,40222,38.2760755,-85.6229095
1812,Herr Lane,40222,38.2767178,-85.6220725
1813,Buttonwood Road,40222,38.2763372,-85.6223957
1814,Herr Lane,40222,38.2768716,-85.6222647
1815,Buttonwood Road,40222,38.2765328,-85.6226113
4831,Westport Road,40222,38.2701018,-85.6165375
4833,Westport Road,40222,38.2702223,-85.6163322
6700,Greenlawn Road,40222,38.2725905,-85.6277090
6702,Greenlawn Road,40222,38.2727636,-85.6273505
6704,Greenlawn Road,40222,38.2730467,-85.6271324
6706,Greenlawn Road,40222,38.2732594,-85.6270051
6708,Greenlawn Road,40222,38.2734496,-85.6268646
6800,Bedford Lane,40222,38.2736460,-85.6266107
6800,Greenlawn Road,40222,38.2748190,-85.6254918
6801,Bedford Lane,40222,38.2739624,-85.6260481
6801,Graymoor Road,40222,38.2710861,-85.6262872
6802,Dartmoor Drive,40222,38.2744187,-85.6239312
6803,Dartmoor Drive,40222,38.2746406,-85.6244549
6804,Dartmoor Drive,40222,38.2745521,-85.6237230
6804,Greenlawn Road,40222,38.2749643,-85.6253062
6805,Bedford Lane,40222,38.2738769,-85.6258045
6805,Dartmoor Drive,40222,38.2747637,-85.6242266
6805,Graymoor Road,40222,38.2713032,-85.6258017
6806,Bedford Lane,40222,38.2735146,-85.6262186
6806,Dartmoor Drive,40222,38.2746600,-85.6234929
6806,Greenlawn Road,40222,38.2751062,-85.6251006
6807,Bedford Lane,40222,38.2737699,-85.6255134
6807,Dartmoor Drive,40222,38.2748853,-85.6240245
6808,Dartmoor Drive,40222,38.2747942,-85.6232888
6808,Greenlawn Road,40222,38.2752310,-85.6248920
6809,Dartmoor Drive,40222,38.2750172,-85.6238089
6810,Dartmoor Drive,40222,38.2749102,-85.6230800
6810,Greenlawn Road,40222,38.2753360,-85.6246838
6811,Dartmoor Drive,40222,38.2751297,-85.6236028
6812,Dartmoor Drive,40222,38.2750396,-85.6228580
6812,Greenlawn Road,40222,38.2754692,-85.6244759
6813,Dartmoor Drive,40222,38.2752488,-85.6233879
6900,Bedford Lane,40222,38.2732467,-85.6256230
6900,Greenlawn Road,40222,38.2755956,-85.6242572
6901,Bedford Lane,40222,38.2736551,-85.6252414
6902,Greenlawn Road,40222,38.2757133,-85.6240421
6904,Bedford Lane,40222,38.2730349,-85.6249672
6904,Greenlawn Road,40222,38.2758338,-85.6238402
6905,Bedford Lane,40222,38.2735365,-85.6248941
6905,Graymoor Road,40222,38.2721716,-85.6242482
6906,Greenlawn Road,40222,38.2759621,-85.6236304
6907,Bedford Lane,40222,38.2734933,-85.6245713
6907,Graymoor Road,40222,38.2725334,-85.6239045
6908,Bedford Lane,40222,38.2732205,-85.6240007
6908,Greenlawn Road,40222,38.2760578,-85.6233960
6910,Greenlawn Road,40222,38.2762274,-85.6231462
6914,Greenlawn Road,40222,38.2767098,-85.6224537
6917,Bedford Lane,40222,38.2736714,-85.6243137
7000,Bedford Lane,40222,38.2735399,-85.6234238
7000,Dartmoor Drive,40222,38.2751801,-85.6226422
7001,Bedford Lane,40222,38.2739675,-85.6237869
7001,Dartmoor Drive,40222,38.2753750,-85.6231893
7001,Graymoor Road,40222,38.2731889,-85.6230680
7002,Bedford Lane,40222,38.2737356,-85.6231400
7002,Dartmoor Drive,40222,38.2753034,-85.6224103
7002,Graymoor Road,40222,38.2729611,-85.6224219
7003,Bedford Lane,40222,38.2741406,-85.6235344
7003,Dartmoor Drive,40222,38.2755043,-85.6229656
7003,Graymoor Road,40222,38.2733474,-85.6227751
7004,Bedford Lane,40222,38.2738968,-85.6228643
7004,Dartmoor Drive,40222,38.2754156,-85.6222163
7004,Graymoor Road,40222,38.2730792,-85.6221682
7005,Bedford Lane,40222,38.2742640,-85.6232533
7005,Dartmoor Drive,40222,38.2756268,-85.6227656
7005,Graymoor Road,40222,38.2735273,-85.6224976
7006,Bedford Lane,40222,38.2740581,-85.6225778
7006,Dartmoor Drive,40222,38.2755438,-85.6219962
7007,Bedford Lane,40222,38.2744309,-85.6229857
7007,Dartmoor Drive,40222,38.2757623,-85.6225769
7007,Graymoor Road,40222,38.2736792,-85.6222207
7008,Bedford Lane,40222,38.2742307,-85.6222993
7008,Dartmoor Drive,40222,38.2756616,-85.6217802
7008,Graymoor Road,40222,38.2733376,-85.6216281
7009,Bedford Lane,40222,38.2745983,-85.6226886
7009,Dartmoor Drive,40222,38.2760280,-85.6220837
7009,Graymoor Road,40222,38.2738371,-85.6219415
7010,Bedford Lane,40222,38.2743708,-85.6220583
7010,Dartmoor Drive,40222,38.2757958,-85.6215852
7010,Graymoor Road,40222,38.2735423,-85.6214093
7011,Bedford Lane,40222,38.2747612,-85.6224088
7011,Dartmoor Drive,40222,38.2761845,-85.6218606
7011,Graymoor Road,40222,38.2739937,-85.6216871
7012,Bedford Lane,40222,38.2745381,-85.6217251
7012,Graymoor Road,40222,38.2737018,-85.6211166
7013,Bedford Lane,40222,38.2749316,-85.6221299
7013,Graymoor Road,40222,38.2741596,-85.6213901
7014,Bedford Lane,40222,38.2746746,-85.6214571
7015,Bedford Lane,40222,38.2751097,-85.6218804
7015,Graymoor Road,40222,38.2743304,-85.6211132
7016,Bedford Lane,40222,38.2748556,-85.6212162
7016,Graymoor Road,40222,38.2740446,-85.6205631
7017,Bedford Lane,40222,38.2752897,-85.6215514
7017,Graymoor Road,40222,38.2744675,-85.6208659
7018,Bedford Lane,40222,38.2750303,-85.6209032
7018,Graymoor Road,40222,38.2741631,-85.6202757
7019,Bedford Lane,40222,38.2754375,-85.6212761
7019,Graymoor Road,40222,38.2746482,-85.6205585
7021,Bedford Lane,40222,38.2756086,-85.6209894
7021,Graymoor Road,40222,38.2748722,-85.6203264
7100,Boxwood Road,40222,38.2733223,-85.6178239
7101,Boxwood Road,40222,38.2736977,-85.6182388
7102,Arrowwood Road,40222,38.2743117,-85.6180538
7102,Boxwood Road,40222,38.2735418,-85.6174484
7102,Glen Arbor Road,40222,38.2760623,-85.6199590
7103,Boxwood Road,40222,38.2738509,-85.6179581
7103,Woolrich Road,40222,38.2701307,-85.6201084
7104,Arrowwood Road,40222,38.2745374,-85.6182927
7104,Boxwood Road,40222,38.2736788,-85.6171497
7104,Glen Arbor Road,40222,38.2762396,-85.6196792
7104,Woolrich Road,40222,38.2697607,-85.6198028
7105,Arrowwood Road,40222,38.2747383,-85.6175520
7105,Boxwood Road,40222,38.2739959,-85.6176590
7105,Woolrich Road,40222,38.2702614,-85.6199451
7106,Glen Arbor Road,40222,38.2764213,-85.6194345
7106,Woolrich Road,40222,38.2698822,-85.6195943
7107,Woolrich Road,40222,38.2703821,-85.6197267
7108,Glen Arbor Road,40222,38.2767001,-85.6193126
7108,Woolrich Road,40222,38.2699642,-85.6193549
7109,Woolrich Road,40222,38.2704665,-85.6195408
7110,Glen Arbor Road,40222,38.2769616,-85.6192057
7200,Boxwood Road,40222,38.2738444,-85.6168825
7201,Arrowwood Road,40222,38.2749089,-85.6184788
7201,Boxwood Road,40222,38.2743038,-85.6170843
7201,Woolrich Road,40222,38.2705960,-85.6193430
7202,Boxwood Road,40222,38.2740272,-85.6165526
7203,Arrowwood Road,40222,38.2750941,-85.6181927
7203,Boxwood Road,40222,38.2744858,-85.6167602
7203,Woolrich Road,40222,38.2707111,-85.6191440
7204,Boxwood Road,40222,38.2741573,-85.6162768
7204,Glen Arbor Road,40222,38.2772870,-85.6190628
7204,Woolrich Road,40222,38.2703717,-85.6186633
7205,Arrowwood Road,40222,38.2752067,-85.6179302
7205,Boxwood Road,40222,38.2746837,-85.6165161
7205,Woolrich Road,40222,38.2708140,-85.6189577
7206,Arrowwood Road,40222,38.2750108,-85.6171942
7206,Boxwood Road,40222,38.2743150,-85.6159801
7206,Woolrich Road,40222,38.2705174,-85.6184845
7207,Arrowwood Road,40222,38.2753578,-85.6176313
7207,Boxwood Road,40222,38.2748271,-85.6161498
7207,Woolrich Road,40222,38.2709229,-85.6187804
7208,Arrowwood Road,40222,38.2751817,-85.6169130
7208,Boxwood Road,40222,38.2744803,-85.6156590
7208,Glen Arbor Road,40222,38.2775680,-85.6183961
7208,Woolrich Road,40222,38.2706418,-85.6182573
7209,Arrowwood Road,40222,38.2755535,-85.6173280
7209,Boxwood Road,40222,38.2750162,-85.6159071
7209,Woolrich Road,40222,38.2710362,-85.6185576
7210,Arrowwood Road,40222,38.2753207,-85.6166327
7210,Glen Arbor Road,40222,38.2777313,-85.6179476
7210,Woolrich Road,40222,38.2707457,-85.6180518
7211,Arrowwood Road,40222,38.2756792,-85.6171128
7211,Woolrich Road,40222,38.2711683,-85.6183590
7212,Arrowwood Road,40222,38.2754993,-85.6163337
7212,Woolrich Road,40222,38.2708899,-85.6178513
7213,Arrowwood Road,40222,38.2758638,-85.6167308
7213,Woolrich Road,40222,38.2712717,-85.6181729
7214,Woolrich Road,40222,38.2710167,-85.6176343
7215,Woolrich Road,40222,38.2713726,-85.6179834
7300,Glen Arbor Road,40222,38.2779676,-85.6172474
7301,Arrowwood Road,40222,38.2762244,-85.6162861
7302,Arrowwood Road,40222,38.2759784,-85.6154985
7302,Boxwood Road,40222,38.2750429,-85.6146817
7302,Glen Arbor Road,40222,38.2781100,-85.6168773
7303,Arrowwood Road,40222,38.2763230,-85.6159773
7304,Arrowwood Road,40222,38.2761527,-85.6152342
7304,Boxwood Road,40222,38.2752395,-85.6143105
7304,Glen Arbor Road,40222,38.2782279,-85.6165793
7305,Arrowwood Road,40222,38.2765167,-85.6157296
7305,Boxwood Road,40222,38.2756941,-85.6145813
7306,Arrowwood Road,40222,38.2762959,-85.6149581
7306,Glen Arbor Road,40222,38.2783383,-85.6162224
7307,Arrowwood Road,40222,38.2767002,-85.6153941
7307,Boxwood Road,40222,38.2758834,-85.6142586
7308,Arrowwood Road,40222,38.2764920,-85.6146638
7308,Boxwood Road,40222,38.2757842,-85.6134583
7308,Glen Arbor Road,40222,38.2784588,-85.6159129
7309,Arrowwood Road,40222,38.2768471,-85.6151547
7309,Boxwood Road,40222,38.2760394,-85.6140381
7310,Arrowwood Road,40222,38.2766573,-85.6144037
7310,Boxwood Road,40222,38.2760209,-85.6132671
7310,Glen Arbor Road,40222,38.2785755,-85.6155981
7311,Arrowwood Road,40222,38.2770464,-85.6148631
7311,Boxwood Road,40222,38.2762558,-85.6138209
7312,Arrowwood Road,40222,38.2767959,-85.6141330
7312,Glen Arbor Road,40222,38.2787424,-85.6153018
7313,Arrowwood Road,40222,38.2771968,-85.6145671
7313,Boxwood Road,40222,38.2765415,-85.6135620
7314,Arrowwood Road,40222,38.2773704,-85.6136269
7314,Glen Arbor Road,40222,38.2789126,-85.6150061
7315,Arrowwood Road,40222,38.2773794,-85.6143502
7316,Arrowwood Road,40222,38.2776083,-85.6135692
7316,Glen Arbor Road,40222,38.2790751,-85.6147194
7317,Arrowwood Road,40222,38.2775899,-85.6141884
7318,Glen Arbor Road,40222,38.2792484,-85.6144312
7400,Boxwood Court,40222,38.2753710,-85.6139672
7400,Moredale Road,40222,38.2716993,-85.6164845
7401,Boxwood Road,40222,38.2770299,-85.6131087
7401,Moredale Road,40222,38.2720477,-85.6167891
7401,Westport Road,40222,38.2706518,-85.6155410
7402,Boxwood Court,40222,38.2752294,-85.6133762
7403,Moredale Road,40222,38.2722083,-85.6165194
7403,Westport Road,40222,38.2708208,-85.6152676
7404,Arrowwood Road,40222,38.2778917,-85.6130682
7404,Boxwood Court,40222,38.2755162,-85.6132194
7404,Moredale Road,40222,38.2718408,-85.6161677
7405,Moredale Road,40222,38.2722655,-85.6162936
7405,Westport Road,40222,38.2709430,-85.6150417
7406,Moredale Road,40222,38.2718640,-85.6158970
7407,Westport Road,40222,38.2710735,-85.6148137
7408,Moredale Road,40222,38.2720392,-85.6152058
7409,Moredale Road,40222,38.2724500,-85.6153910
7409,Westport Road,40222,38.2712097,-85.6145748
7410,Moredale Road,40222,38.2720996,-85.6148439
7411,Moredale Road,40222,38.2725422,-85.6149999
7500,Moredale Road,40222,38.2722354,-85.6142004
7500,Tudor Court,40222,38.2749275,-85.6130594
7501,Tudor Court,40222,38.2752638,-85.6127569
7502,Moredale Road,40222,38.2723206,-85.6138265
7502,Tudor Court,40222,38.2747269,-85.6126426
7502,Westdale Road,40222,38.2731085,-85.6142365
7503,Moredale Road,40222,38.2727038,-85.6141116
7503,Westdale Road,40222,38.2735208,-85.6143467
7503,Westport Road,40222,38.2718069,-85.6136576
7504,Moredale Road,40222,38.2723511,-85.6135854
7504,Westdale Road,40222,38.2732070,-85.6139634
7505,Moredale Road,40222,38.2728345,-85.6138732
7505,Westdale Road,40222,38.2736735,-85.6140095
7505,Westport Road,40222,38.2719040,-85.6134201
7506,Moredale Road,40222,38.2725150,-85.6132928
7506,Westdale Road,40222,38.2733357,-85.6136979
7507,Moredale Road,40222,38.2728776,-85.6136212
7507,Westdale Road,40222,38.2738295,-85.6137264
7507,Westport Road,40222,38.2720270,-85.6131884
7508,Moredale Road,40222,38.2727875,-85.6133520
7508,Westdale Road,40222,38.2734834,-85.6134200
7509,Westdale Road,40222,38.2739839,-85.6134996
7509,Westport Road,40222,38.2721581,-85.6129741
7510,Westdale Road,40222,38.2736177,-85.6132134
7511,Westdale Road,40222,38.2741684,-85.6136646
7511,Westport Road,40222,38.2723018,-85.6128142
7512,Westdale Road,40222,38.2737484,-85.6129901
7514,Westdale Road,40222,38.2739864,-85.6128104
7515,Westport Road,40222,38.2729389,-85.6125119
7516,Westdale Road,40222,38.2741717,-85.6129871
7518,Westdale Road,40222,38.2743672,-85.6131328
7520,Westdale Road,40222,38.2745668,-85.6133243
7522,Westdale Road,40222,38.2747538,-85.6134858
7601,Devondale Court,40222,38.2747779,-85.6114797
7602,Devondale Court,40222,38.2742084,-85.6111250
7603,Devondale Court,40222,38.2747985,-85.6110984
7603,Westport Road,40222,38.2735623,-85.6106142
7604,Devondale Court,40222,38.2743332,-85.6107124
7605,Devondale Court,40222,38.2746345,-85.6107506
7605,Westport Road,40222,38.2737262,-85.6103098
7607,Westport Road,40222,38.2738861,-85.6100517
7701,Westport Road,40222,38.2773328,-85.6121424
1313,Lyndon Lane,40222,38.2704437,-85.6132118
1500,Applewood Lane,40222,38.2687264,-85.6077446
1500,Mccarthy Court,40222,38.2674025,-85.6062174
1501,Applewood Lane,40222,38.2690697,-85.6073740
1501,Mccarthy Court,40222,38.2672817,-85.6064903
1502,Applewood Lane,40222,38.2684384,-85.6076126
1502,Mccarthy Court,40222,38.2676354,-85.6060914
1502,Valley Brook Road,40222,38.2679219,-85.6049719
1503,Mccarthy Court,40222,38.2673615,-85.6067692
1503,Valley Brook Road,40222,38.2677228,-85.6054511
1504,Applewood Lane,40222,38.2683837,-85.6073123
1504,Valley Brook Road,40222,38.2681200,-85.6051270
1505,Applewood Lane,40222,38.2691628,-85.6070993
1505,Valley Brook Road,40222,38.2679316,-85.6056612
1506,Applewood Lane,40222,38.2685609,-85.6070636
1506,Valley Brook Road,40222,38.2683026,-85.6052960
1507,Applewood Lane,40222,38.2692837,-85.6068719
1508,Applewood Lane,40222,38.2687269,-85.6068913
1508,Valley Brook Road,40222,38.2684821,-85.6054881
1509,Applewood Lane,40222,38.2694222,-85.6066564
1510,Applewood Lane,40222,38.2689095,-85.6066178
1510,Valley Brook Road,40222,38.2686617,-85.6056546
1511,Applewood Lane,40222,38.2695407,-85.6064276
1512,Applewood Lane,40222,38.2691933,-85.6060933
1512,Valley Brook Road,40222,38.2688526,-85.6058057
1513,Applewood Lane,40222,38.2696867,-85.6061590
1513,Valley Brook Road,40222,38.2685580,-85.6062256
1514,Applewood Lane,40222,38.2693479,-85.6057504
1514,Valley Brook Road,40222,38.2690458,-85.6059705
1515,Valley Brook Road,40222,38.2687845,-85.6064256
1516,Applewood Lane,40222,38.2694347,-85.6054865
1518,Applewood Lane,40222,38.2696362,-85.6052804
1520,Applewood Lane,40222,38.2698707,-85.6054705
1600,Ormsby Lane,40222,38.2697414,-85.6047666
1601,Applewood Lane,40222,38.2699751,-85.6056765
1602,Applewood Lane,40222,38.2699154,-85.6062875
1602,Ormsby Lane,40222,38.2699128,-85.6049392
1603,Applewood Lane,40222,38.2701421,-85.6058513
1603,Crossridge Lane,40222,38.2711835,-85.6081236
1604,Ormsby Lane,40222,38.2700849,-85.6050968
1605,Crossridge Lane,40222,38.2713682,-85.6082397
1606,Ormsby Lane,40222,38.2702606,-85.6052579
1607,Crossridge Lane,40222,38.2715039,-85.6084015
1608,Applewood Lane,40222,38.2705860,-85.6069808
1608,Ormsby Lane,40222,38.2704241,-85.6054161
1609,Applewood Lane,40222,38.2708885,-85.6065342
1609,Crossridge Lane,40222,38.2716929,-85.6085715
1611,Applewood Lane,40222,38.2710665,-85.6067018
1611,Crossridge Lane,40222,38.2718292,-85.6087364
1613,Applewood Lane,40222,38.2712767,-85.6068720
1613,Crossridge Lane,40222,38.2720313,-85.6088382
1614,Ormsby Lane,40222,38.2711438,-85.6060634
1615,Crossridge Lane,40222,38.2721720,-85.6090363
1616,Ormsby Lane,40222,38.2713509,-85.6062836
1617,Crossridge Lane,40222,38.2723199,-85.6091938
1618,Ormsby Lane,40222,38.2715454,-85.6064629
1619,Crossridge Lane,40222,38.2725121,-85.6093258
1621,Crossridge Lane,40222,38.2727000,-85.6095219
1623,Crossridge Lane,40222,38.2728548,-85.6096720
1625,Crossridge Lane,40222,38.2730323,-85.6098348
1627,Crossridge Lane,40222,38.2731895,-85.6099939
1700,Applewood Lane,40222,38.2712419,-85.6075603
1700,Ormsby Lane,40222,38.2716994,-85.6065893
1701,Applewood Lane,40222,38.2714560,-85.6070035
1702,Applewood Lane,40222,38.2714430,-85.6077281
1702,Ormsby Lane,40222,38.2718795,-85.6067920
1703,Applewood Lane,40222,38.2716447,-85.6072079
1704,Applewood Lane,40222,38.2716114,-85.6078560
1704,Ormsby Lane,40222,38.2720535,-85.6069272
1705,Applewood Lane,40222,38.2718213,-85.6073834
1706,Applewood Lane,40222,38.2718047,-85.6080104
1706,Ormsby Lane,40222,38.2722883,-85.6071558
1707,Applewood Lane,40222,38.2720093,-85.6075489
1708,Applewood Lane,40222,38.2719572,-85.6081890
1708,Ormsby Lane,40222,38.2724758,-85.6073110
1709,Applewood Lane,40222,38.2722357,-85.6076646
1710,Applewood Lane,40222,38.2721591,-85.6083712
1710,Ormsby Lane,40222,38.2726227,-85.6074802
1711,Applewood Lane,40222,38.2723799,-85.6079029
1712,Applewood Lane,40222,38.2723864,-85.6085572
1712,Ormsby Lane,40222,38.2728469,-85.6076772
1713,Applewood Lane,40222,38.2725720,-85.6080785
1714,Applewood Lane,40222,38.2725143,-85.6087598
1714,Ormsby Lane,40222,38.2729998,-85.6078364
1715,Applewood Lane,40222,38.2727713,-85.6082212
1716,Applewood Lane,40222,38.2727500,-85.6088907
1716,Ormsby Lane,40222,38.2731941,-85.6080175
1717,Applewood Lane,40222,38.2729595,-85.6084208
1718,Applewood Lane,40222,38.2728735,-85.6091055
1718,Ormsby Lane,40222,38.2733805,-85.6081864
1719,Applewood Lane,40222,38.2731637,-85.6085944
1720,Applewood Lane,40222,38.2730720,-85.6092575
1720,Ormsby Lane,40222,38.2735543,-85.6083346
1721,Applewood Lane,40222,38.2733363,-85.6087670
1722,Applewood Lane,40222,38.2732615,-85.6093636
1722,Ormsby Lane,40222,38.2737765,-85.6085281
1723,Applewood Lane,40222,38.2735407,-85.6089416
1724,Applewood Lane,40222,38.2734215,-85.6096203
1724,Ormsby Lane,40222,38.2739373,-85.6086963
1725,Applewood Lane,40222,38.2737085,-85.6091171
7509,Heyburn Court,40222,38.2685512,-85.6087209
7714,Fairmeadows Lane,40222,38.2686578,-85.6079558
7715,Fairmeadows Lane,40222,38.2689983,-85.6082877
7800,Fairmeadows Lane,40222,38.2693972,-85.6076660
7800,Mccarthy Lane,40222,38.2675664,-85.6069198
7801,Fairmeadows Lane,40222,38.2691436,-85.6081133
7801,Mccarthy Lane,40222,38.2678939,-85.6072705
7802,Oxted Lane,40222,38.2695908,-85.6093351
7803,Mccarthy Lane,40222,38.2680416,-85.6069988
7804,Mccarthy Lane,40222,38.2678942,-85.6063841
7804,Oxted Lane,40222,38.2698523,-85.6090502
7805,Fairmeadows Lane,40222,38.2693112,-85.6084207
7805,Mccarthy Lane,40222,38.2682136,-85.6067464
7805,Oxted Lane,40222,38.2703019,-85.6093798
7806,Mccarthy Lane,40222,38.2679660,-85.6061330
7806,Oxted Lane,40222,38.2699535,-85.6088299
7807,Fairmeadows Lane,40222,38.2695092,-85.6084904
7807,Mccarthy Lane,40222,38.2683486,-85.6064651
7808,Mccarthy Lane,40222,38.2681476,-85.6059132
7808,Oxted Lane,40222,38.2700832,-85.6085575
7809,Fairmeadows Lane,40222,38.2697357,-85.6083480
7810,Oxted Lane,40222,38.2702134,-85.6083784
7811,Fairmeadows Lane,40222,38.2698149,-85.6080706
7812,Fairmeadows Lane,40222,38.2695636,-85.6074870
7812,Oxted Lane,40222,38.2703705,-85.6081186
7813,Fairmeadows Lane,40222,38.2699020,-85.6078102
7814,Fairmeadows Lane,40222,38.2696824,-85.6072348
7814,Oxted Lane,40222,38.2704873,-85.6079070
7815,Fairmeadows Lane,40222,38.2700115,-85.6076243
7816,Fairmeadows Lane,40222,38.2698094,-85.6070358
7816,Oxted Lane,40222,38.2706234,-85.6076973
7817,Fairmeadows Lane,40222,38.2701475,-85.6073999
7818,Fairmeadows Lane,40222,38.2699338,-85.6067904
7818,Oxted Lane,40222,38.2707381,-85.6074525
7819,Fairmeadows Lane,40222,38.2702808,-85.6071517
7819,Oxted Lane,40222,38.2710179,-85.6079281
7820,Fairmeadows Lane,40222,38.2701194,-85.6065306
7820,Oxted Lane,40222,38.2708782,-85.6072176
7821,Fairmeadows Lane,40222,38.2704418,-85.6068353
7822,Fairmeadows Lane,40222,38.2703719,-85.6059958
7823,Fairmeadows Lane,40222,38.2707400,-85.6063319
7826,Fairmeadows Lane,40222,38.2705950,-85.6056095
7827,Fairmeadows Lane,40222,38.2709509,-85.6059590
1415,Lyndon Lane,40222,38.2707759,-85.6135553
7410,Westport Road,40222,38.2702605,-85.6146597
7420,Westport Road,40222,38.2704698,-85.6143032
1801,Lynn Way,40222,38.2771729,-85.6163605
1705,Herr Lane,40222,38.2762682,-85.6180462
1201,Lyndon Lane,40222,38.2696868,-85.6115774
1101,Lyndon Lane,40222,38.2672955,-85.6091459
