House number,Street name,Postal code,Latitude,Longitude
4317,Barbour Lane,40241,38.3142736,-85.6132105
4319,Barbour Lane,40241,38.3145241,-85.6135869
4402,Deepwood Drive,40241,38.3168614,-85.6126604
4751,Bilandon Road,40241,38.3171954,-85.6082554
7114,Green Spring Drive,40241,38.3181117,-85.6118184
7109,Creekton Drive,40241,38.3130668,-85.6155506
4400,Deepwood Drive,40241,38.3169199,-85.6122929
4403,Deepwood Drive,40241,38.3172278,-85.6130653
4404,Deepwood Drive,40241,38.3167053,-85.6129346
4405,Deepwood Drive,40241,38.3170329,-85.6133300
4406,Deepwood Drive,40241,38.3165081,-85.6131398
4407,Deepwood Drive,40241,38.3168367,-85.6135161
4408,Deepwood Drive,40241,38.3163111,-85.6132704
4409,Deepwood Drive,40241,38.3166023,-85.6137271
4410,Deepwood Drive,40241,38.3160796,-85.6133861
4411,Deepwood Drive,40241,38.3163866,-85.6138467
4412,Deepwood Drive,40241,38.3158657,-85.6134808
4414,Deepwood Drive,40241,38.3156307,-85.6136041
4416,Deepwood Drive,40241,38.3154200,-85.6137619
4418,Deepwood Drive,40241,38.3152154,-85.6139904
4419,Deepwood Drive,40241,38.3155299,-85.6145776
4420,Deepwood Drive,40241,38.3151122,-85.6142505
4422,Deepwood Drive,40241,38.3150630,-85.6145761
4500,Deepwood Drive,40241,38.3150187,-85.6148955
4501,Deepwood Drive,40241,38.3155081,-85.6148727
4502,Deepwood Drive,40241,38.3149624,-85.6151966
4503,Deepwood Drive,40241,38.3154254,-85.6151960
4504,Deepwood Drive,40241,38.3149076,-85.6154830
4505,Deepwood Drive,40241,38.3153695,-85.6155732
4506,Deepwood Drive,40241,38.3148562,-85.6158283
4507,Deepwood Drive,40241,38.3153470,-85.6158945
4508,Deepwood Drive,40241,38.3148697,-85.6161533
4509,Deepwood Drive,40241,38.3153807,-85.6162194
4510,Deepwood Drive,40241,38.3149305,-85.6164600
4511,Deepwood Drive,40241,38.3155245,-85.6164995
4511,Wolfspring Drive,40241,38.3163928,-85.6088650
4512,Deepwood Drive,40241,38.3150802,-85.6167540
4513,Deepwood Drive,40241,38.3156976,-85.6166128
4513,Wolfspring Drive,40241,38.3162351,-85.6091833
4514,Deepwood Drive,40241,38.3152533,-85.6169946
4515,Wolfspring Drive,40241,38.3159771,-85.6094207
4516,Deepwood Drive,40241,38.3155184,-85.6171755
4516,Wolfspring Drive,40241,38.3152619,-85.6095184
4517,Wolfspring Drive,40241,38.3158057,-85.6096268
4518,Wolfspring Drive,40241,38.3150937,-85.6097812
4519,Wolfspring Drive,40241,38.3156285,-85.6100190
4600,Wolfspring Drive,40241,38.3151497,-85.6104567
4601,Deepwood Court,40241,38.3160051,-85.6172959
4601,Deepwood Drive,40241,38.3160170,-85.6166152
4601,Wolfspring Drive,40241,38.3156775,-85.6103970
4602,Deepwood Court,40241,38.3155919,-85.6174919
4602,Deepwood Drive,40241,38.3163931,-85.6171468
4602,Wolfspring Drive,40241,38.3153444,-85.6107810
4603,Deepwood Drive,40241,38.3162841,-85.6165474
4604,Deepwood Court,40241,38.3156662,-85.6177976
4604,Deepwood Drive,40241,38.3166035,-85.6170077
4604,Wolfspring Drive,40241,38.3156108,-85.6111138
4605,Deepwood Court,40241,38.3161305,-85.6176175
4605,Deepwood Drive,40241,38.3165073,-85.6164179
4605,Wolfspring Drive,40241,38.3159289,-85.6106958
4606,Deepwood Court,40241,38.3158022,-85.6180972
4606,Deepwood Drive,40241,38.3168760,-85.6168417
4606,Wolfspring Drive,40241,38.3159689,-85.6114261
4607,Deepwood Drive,40241,38.3169687,-85.6161348
4607,Wolfspring Drive,40241,38.3162196,-85.6109098
4608,Deepwood Court,40241,38.3159083,-85.6183587
4608,Deepwood Drive,40241,38.3170874,-85.6167449
4609,Deepwood Court,40241,38.3163527,-85.6178144
4609,Wolfspring Drive,40241,38.3164704,-85.6110631
4610,Deepwood Court,40241,38.3160939,-85.6185352
4610,Deepwood Drive,40241,38.3173850,-85.6166741
4611,Wolfspring Drive,40241,38.3167729,-85.6112499
4612,Deepwood Court,40241,38.3163937,-85.6184471
4612,Wolfspring Drive,40241,38.3164749,-85.6117319
4613,Deepwood Court,40241,38.3166154,-85.6177610
4613,Wolfspring Drive,40241,38.3170321,-85.6114666
4614,Deepwood Court,40241,38.3165919,-85.6183506
4614,Wolfspring Drive,40241,38.3167395,-85.6119496
4615,Deepwood Court,40241,38.3168036,-85.6175889
4615,Wolfspring Drive,40241,38.3172644,-85.6116507
4616,Deepwood Court,40241,38.3168235,-85.6182438
4617,Deepwood Court,40241,38.3169716,-85.6174127
4617,Wolfspring Drive,40241,38.3175023,-85.6118855
4618,Deepwood Court,40241,38.3170502,-85.6181168
4619,Deepwood Court,40241,38.3172790,-85.6174353
4619,Wolfspring Drive,40241,38.3176595,-85.6121181
4620,Deepwood Court,40241,38.3173074,-85.6180345
4620,Wolfspring Drive,40241,38.3173550,-85.6127403
4622,Deepwood Court,40241,38.3174050,-85.6177541
4701,Fox Den Court,40241,38.3179880,-85.6142117
4702,Fox Den Court,40241,38.3182469,-85.6147864
4703,Fox Den Court,40241,38.3183193,-85.6142515
4704,Fox Den Court,40241,38.3184551,-85.6148141
4705,Fox Den Court,40241,38.3188270,-85.6143716
4707,Fox Den Court,40241,38.3189912,-85.6146289
4708,Fox Den Court,40241,38.3186525,-85.6150761
4709,Fox Den Court,40241,38.3192052,-85.6148530
4711,Fox Den Court,40241,38.3192310,-85.6152380
4712,Fox Den Court,40241,38.3186321,-85.6154475
4713,Fox Den Court,40241,38.3191086,-85.6155277
4714,Fox Den Court,40241,38.3184164,-85.6156226
4715,Fox Den Court,40241,38.3189823,-85.6157748
4717,Fox Den Court,40241,38.3188418,-85.6160561
4718,Fox Den Court,40241,38.3182567,-85.6158865
4719,Fox Den Court,40241,38.3186456,-85.6163000
4720,Fox Den Court,40241,38.3183607,-85.6161905
4800,Bilandon Road,40241,38.3167916,-85.6090676
4800,Springdale Court,40241,38.3185604,-85.6121246
4801,Bilandon Road,40241,38.3170928,-85.6086181
4802,Bilandon Road,40241,38.3169502,-85.6091957
4802,Springdale Court,40241,38.3188428,-85.6122967
4803,Bilandon Road,40241,38.3173259,-85.6088481
4803,Springdale Court,40241,38.3190884,-85.6117499
4804,Bilandon Road,40241,38.3171336,-85.6093551
4804,Clipping Court,40241,38.3163146,-85.6100005
4804,Springdale Court,40241,38.3190884,-85.6121523
4806,Bilandon Road,40241,38.3173115,-85.6095912
4806,Clipping Court,40241,38.3163883,-85.6102902
4807,Clipping Court,40241,38.3164144,-85.6097380
4808,Bilandon Road,40241,38.3175141,-85.6096883
4808,Clipping Court,40241,38.3165781,-85.6103905
4809,Bilandon Road,40241,38.3176495,-85.6090047
4809,Clipping Court,40241,38.3166179,-85.6095503
4810,Bilandon Road,40241,38.3177665,-85.6095935
4810,Clipping Court,40241,38.3167737,-85.6105177
4811,Clipping Court,40241,38.3168201,-85.6097474
4812,Clipping Court,40241,38.3169546,-85.6107009
4813,Clipping Court,40241,38.3169661,-85.6099963
4814,Clipping Court,40241,38.3171506,-85.6108245
4815,Clipping Court,40241,38.3171729,-85.6101268
4816,Clipping Court,40241,38.3173747,-85.6108926
4817,Clipping Court,40241,38.3173913,-85.6102374
4818,Clipping Court,40241,38.3175736,-85.6109290
4819,Clipping Court,40241,38.3176414,-85.6103084
4820,Clipping Court,40241,38.3178396,-85.6108754
7000,Green Spring Drive,40241,38.3178686,-85.6176188
7001,Green Spring Drive,40241,38.3183087,-85.6170185
7002,Green Spring Drive,40241,38.3176993,-85.6173084
7003,Green Spring Drive,40241,38.3180899,-85.6167716
7003,Quail Brace Court,40241,38.3167728,-85.6158408
7004,Green Spring Drive,40241,38.3175929,-85.6170219
7004,Quail Brace Court,40241,38.3163633,-85.6160498
7005,Green Spring Drive,40241,38.3179839,-85.6164796
7005,Quail Brace Court,40241,38.3166005,-85.6155858
7007,Green Spring Drive,40241,38.3178973,-85.6162244
7007,Quail Brace Court,40241,38.3163508,-85.6154376
7008,Green Spring Drive,40241,38.3172061,-85.6160278
7008,Quail Brace Court,40241,38.3160295,-85.6161389
7009,Green Spring Drive,40241,38.3178784,-85.6158480
7009,Quail Brace Court,40241,38.3160812,-85.6154174
7010,Green Spring Drive,40241,38.3171916,-85.6156184
7010,Quail Brace Court,40241,38.3157701,-85.6159099
7011,Green Spring Drive,40241,38.3178900,-85.6155591
7011,Quail Brace Court,40241,38.3158011,-85.6155748
7012,Green Spring Drive,40241,38.3171619,-85.6152709
7013,Green Spring Drive,40241,38.3179538,-85.6151818
7014,Green Spring Drive,40241,38.3172081,-85.6148517
7015,Green Spring Drive,40241,38.3178971,-85.6148410
7016,Green Spring Drive,40241,38.3172657,-85.6145159
7100,Green Spring Drive,40241,38.3173252,-85.6141788
7102,Green Spring Drive,40241,38.3174192,-85.6138353
7102,Greengate Court,40241,38.3184614,-85.6138995
7103,Green Spring Drive,40241,38.3179894,-85.6138662
7104,Green Spring Drive,40241,38.3175100,-85.6134608
7104,Greengate Court,40241,38.3185974,-85.6135867
7105,Green Spring Drive,40241,38.3180837,-85.6135775
7105,Greengate Court,40241,38.3189371,-85.6139651
7106,Green Spring Drive,40241,38.3175301,-85.6131458
7106,Greengate Court,40241,38.3186934,-85.6133023
7107,Green Spring Drive,40241,38.3181964,-85.6133005
7107,Greengate Court,40241,38.3191887,-85.6138149
7108,Greengate Court,40241,38.3188624,-85.6130756
7109,Green Spring Drive,40241,38.3182838,-85.6130056
7110,Greengate Court,40241,38.3191180,-85.6130716
7111,Green Spring Drive,40241,38.3183774,-85.6127383
7112,Green Spring Drive,40241,38.3179771,-85.6122221
7112,Greengate Court,40241,38.3193626,-85.6133368
7113,Green Spring Drive,40241,38.3184703,-85.6124691
7114,Greengate Court,40241,38.3196019,-85.6134597
7115,Greengate Court,40241,38.3194244,-85.6141353
7116,Green Spring Drive,40241,38.3182262,-85.6115031
7116,Greengate Court,40241,38.3198053,-85.6136553
7117,Greengate Court,40241,38.3196368,-85.6143653
7118,Greengate Court,40241,38.3199647,-85.6139316
7119,Green Spring Drive,40241,38.3188893,-85.6114642
7119,Greengate Court,40241,38.3198652,-85.6142375
7121,Green Spring Drive,40241,38.3191911,-85.6111997
7122,Green Spring Drive,40241,38.3189043,-85.6106632
7200,Iron Gate Court,40241,38.3168108,-85.6149119
7200,Springdale Road,40241,38.3196588,-85.6129153
7201,Iron Gate Court,40241,38.3167880,-85.6145126
7202,Iron Gate Court,40241,38.3165860,-85.6150570
7202,Springdale Road,40241,38.3196003,-85.6126288
7203,Iron Gate Court,40241,38.3165757,-85.6143496
7204,Iron Gate Court,40241,38.3163134,-85.6149747
7204,Springdale Road,40241,38.3195161,-85.6123608
7206,Iron Gate Court,40241,38.3161147,-85.6148625
7206,Springdale Road,40241,38.3194608,-85.6121165
7207,Iron Gate Court,40241,38.3162409,-85.6143408
7208,Iron Gate Court,40241,38.3158695,-85.6146120
7208,Springdale Road,40241,38.3193973,-85.6118042
7209,Iron Gate Court,40241,38.3161487,-85.6140093
7210,Iron Gate Court,40241,38.3157467,-85.6142693
7210,Springdale Road,40241,38.3193476,-85.6115197
7300,Springdale Road,40241,38.3190991,-85.6104861
7302,Springdale Road,40241,38.3189635,-85.6101726
7304,Springdale Road,40241,38.3189204,-85.6098755
7306,Springdale Road,40241,38.3188712,-85.6096031
7308,Springdale Road,40241,38.3187649,-85.6092923
7368,Wolfspring Trace,40241,38.3132028,-85.6105620
7370,Wolfspring Trace,40241,38.3132060,-85.6110734
7372,Wolfspring Trace,40241,38.3132414,-85.6114296
7373,Wolfspring Trace,40241,38.3138318,-85.6101387
7374,Wolfspring Trace,40241,38.3133557,-85.6117904
7375,Wolfspring Trace,40241,38.3136452,-85.6106051
7376,Wolfspring Trace,40241,38.3135426,-85.6121105
7377,Wolfspring Trace,40241,38.3136214,-85.6110260
7378,Wolfspring Trace,40241,38.3137557,-85.6123824
7379,Wolfspring Trace,40241,38.3136858,-85.6114040
7380,Wolfspring Trace,40241,38.3140181,-85.6125847
7381,Wolfspring Trace,40241,38.3138534,-85.6117591
7382,Wolfspring Trace,40241,38.3143752,-85.6127408
7383,Wolfspring Trace,40241,38.3141462,-85.6120405
7384,Wolfspring Trace,40241,38.3146471,-85.6127118
7385,Wolfspring Trace,40241,38.3144647,-85.6121308
7386,Wolfspring Trace,40241,38.3149501,-85.6125885
7387,Wolfspring Trace,40241,38.3147768,-85.6120995
7388,Wolfspring Trace,40241,38.3152186,-85.6124561
7389,Wolfspring Trace,40241,38.3151217,-85.6119056
7390,Wolfspring Trace,40241,38.3155247,-85.6123880
7391,Wolfspring Trace,40241,38.3154120,-85.6118276
7392,Wolfspring Trace,40241,38.3158155,-85.6123137
7393,Wolfspring Trace,40241,38.3156929,-85.6117774
7394,Wolfspring Trace,40241,38.3161705,-85.6121121
7400,Springdale Road,40241,38.3187322,-85.6090255
7402,Springdale Road,40241,38.3186607,-85.6087260
7404,Springdale Road,40241,38.3186058,-85.6084331
7406,Springdale Road,40241,38.3185625,-85.6081786
7408,Springdale Road,40241,38.3184932,-85.6078165
7500,Clipping Cross Road,40241,38.3183284,-85.6111782
7500,Deer View Court,40241,38.3143158,-85.6112605
7500,Springdale Road,40241,38.3184184,-85.6071534
7501,Clipping Cross Road,40241,38.3187054,-85.6107899
7501,Deer View Court,40241,38.3146100,-85.6114793
7502,Clipping Cross Road,40241,38.3181144,-85.6107852
7502,Deer View Court,40241,38.3142670,-85.6108631
7503,Clipping Cross Road,40241,38.3184863,-85.6105189
7503,Deer View Court,40241,38.3148156,-85.6111719
7504,Clipping Cross Road,40241,38.3179116,-85.6101995
7504,Deer View Court,40241,38.3143204,-85.6104467
7505,Clipping Cross Road,40241,38.3184057,-85.6102272
7505,Deer View Court,40241,38.3147346,-85.6107085
7506,Clipping Cross Road,40241,38.3178863,-85.6099037
7506,Deer View Court,40241,38.3145488,-85.6101512
7507,Clipping Cross Road,40241,38.3183454,-85.6099415
7508,Deer View Court,40241,38.3147994,-85.6099492
7509,Clipping Cross Road,40241,38.3182793,-85.6096702
7511,Clipping Cross Road,40241,38.3182266,-85.6093829
7513,Clipping Cross Road,40241,38.3181632,-85.6090916
7515,Clipping Cross Road,40241,38.3181110,-85.6088061
7516,Clipping Cross Road,40241,38.3176505,-85.6086764
7517,Clipping Cross Road,40241,38.3180655,-85.6084905
7518,Clipping Cross Road,40241,38.3175926,-85.6083131
7519,Clipping Cross Road,40241,38.3181045,-85.6081224
7520,Clipping Cross Road,40241,38.3176618,-85.6080133
7521,Clipping Cross Road,40241,38.3182529,-85.6078849
7522,Clipping Cross Road,40241,38.3177608,-85.6077025
4640,Barbour Lane,40241,38.3152104,-85.6196641
7101,Creekton Drive,40241,38.3132648,-85.6165793
7103,Creekton Drive,40241,38.3132102,-85.6163303
7105,Creekton Drive,40241,38.3131894,-85.6160383
7107,Creekton Drive,40241,38.3131530,-85.6157922
