House number,Street name,Postal code,Latitude,Longitude
9114,Hogarth Court,40222,38.2264009,-85.5863658
9116,Hogarth Court,40222,38.2265116,-85.5862982
9112,Hogarth Court,40222,38.2266181,-85.5866949
9110,Hogarth Court,40222,38.2267209,-85.5866319
9118,Hogarth Court,40222,38.2267396,-85.5861994
9120,Hogarth Court,40222,38.2268381,-85.5861612
9100,Hogarth Court,40222,38.2269026,-85.5875109
9122,Hogarth Court,40222,38.2269326,-85.5861233
9102,Hogarth Court,40222,38.2270206,-85.5874361
9108,Hogarth Court,40222,38.2270971,-85.5867479
9106,Hogarth Court,40222,38.2271428,-85.5868728
9104,Hogarth Court,40222,38.2271807,-85.5869880
1241,Hogarth Drive,40222,38.2270194,-85.5879937
1243,Hogarth Drive,40222,38.2270617,-85.5884219
1245,Hogarth Drive,40222,38.2271019,-85.5885337
1215,Hogarth Drive,40222,38.2271027,-85.5859023
1239,Hogarth Drive,40222,38.2271282,-85.5879373
1247,Hogarth Drive,40222,38.2271290,-85.5886599
1217,Hogarth Drive,40222,38.2271464,-85.5860698
1219,Hogarth Drive,40222,38.2272072,-85.5862840
1237,Hogarth Drive,40222,38.2272349,-85.5878586
1221,Hogarth Drive,40222,38.2272370,-85.5864238
1223,Hogarth Drive,40222,38.2272707,-85.5865589
1225,Hogarth Drive,40222,38.2273606,-85.5868720
1212,Hogarth Drive,40222,38.2273940,-85.5854538
1227,Hogarth Drive,40222,38.2274025,-85.5869872
1214,Hogarth Drive,40222,38.2274276,-85.5855989
1229,Hogarth Drive,40222,38.2274324,-85.5871070
1235,Hogarth Drive,40222,38.2274593,-85.5877832
1248,Hogarth Drive,40222,38.2274635,-85.5888920
1216,Hogarth Drive,40222,38.2274731,-85.5857390
1233,Hogarth Drive,40222,38.2274808,-85.5875945
1231,Hogarth Drive,40222,38.2275062,-85.5874330
1246,Hogarth Drive,40222,38.2275278,-85.5887640
1218,Hogarth Drive,40222,38.2275464,-85.5860009
1220,Hogarth Drive,40222,38.2275841,-85.5861360
1244,Hogarth Drive,40222,38.2275882,-85.5886258
1222,Hogarth Drive,40222,38.2276566,-85.5863856
1224,Hogarth Drive,40222,38.2276943,-85.5865155
1242,Hogarth Drive,40222,38.2277323,-85.5883502
1226,Hogarth Drive,40222,38.2277359,-85.5866407
1240,Hogarth Drive,40222,38.2277851,-85.5882005
1228,Hogarth Drive,40222,38.2278193,-85.5869608
1238,Hogarth Drive,40222,38.2278485,-85.5880316
1230,Hogarth Drive,40222,38.2278534,-85.5870711
1232,Hogarth Drive,40222,38.2278912,-85.5871911
1236,Hogarth Drive,40222,38.2279251,-85.5877654
1234,Hogarth Drive,40222,38.2279443,-85.5875622
9206,Linn Station Road,40222,38.2266471,-85.5817425
9206,LINN STATION RD,40222,38.2266632,-85.5816501
9206,LINN STATION RD,40222,38.2266832,-85.5817318
9206,LINN STATION RD,40222,38.2266974,-85.5817986
9206,LINN STATION RD,40222,38.2267109,-85.5816601
9206,Linn Station Road,40222,38.2267222,-85.5817195
9206,LINN STATION RD,40222,38.2267334,-85.5817841
9206,Linn Station Road,40222,38.2267383,-85.5816131
9206,LINN STATION RD,40222,38.2267496,-85.5816817
9206,LINN STATION RD,40222,38.2267653,-85.5817525
9206,LINN STATION RD,40222,38.2267759,-85.5816025
9208,Linn Station Road,40222,38.2267866,-85.5821075
9206,Linn Station Road,40222,38.2267960,-85.5816712
9208,LINN STATION RD,40222,38.2268038,-85.5821701
9206,LINN STATION RD,40222,38.2268075,-85.5817245
9208,LINN STATION RD,40222,38.2268138,-85.5822159
9208,LINN STATION RD,40222,38.2268297,-85.5822654
9206,LINN STATION RD,40222,38.2268300,-85.5815865
9208,LINN STATION RD,40222,38.2268332,-85.5820875
9206,LINN STATION RD,40222,38.2268428,-85.5816438
9208,Linn Station Road,40222,38.2268536,-85.5821388
9206,LINN STATION RD,40222,38.2268616,-85.5816990
9208,Linn Station Road,40222,38.2268665,-85.5821864
9206,LINN STATION RD,40222,38.2268768,-85.5815456
9208,LINN STATION RD,40222,38.2268768,-85.5820713
9208,Linn Station Road,40222,38.2268807,-85.5822516
9206,LINN STATION RD,40222,38.2268898,-85.5815876
9208,LINN STATION RD,40222,38.2268941,-85.5821282
9208,Linn Station Road,40222,38.2269085,-85.5821759
9206,LINN STATION RD,40222,38.2269104,-85.5816146
9208,LINN STATION RD,40222,38.2269153,-85.5822387
9206,LINN STATION RD,40222,38.2269218,-85.5816661
9208,LINN STATION RD,40222,38.2269230,-85.5820891
9208,LINN STATION RD,40222,38.2269615,-85.5821308
9208,LINN STATION RD,40222,38.2269594,-85.5821677
9208,LINN STATION RD,40222,38.2269679,-85.5822209
9208,LINN STATION RD,40222,38.2269755,-85.5820766
9208,LINN STATION RD,40222,38.2270068,-85.5821294
9208,LINN STATION RD,40222,38.2270045,-85.5821646
9208,LINN STATION RD,40222,38.2270160,-85.5822009
9206,Linn Station Road,40222,38.2270306,-85.5814462
9206,LINN STATION RD,40222,38.2270450,-85.5814917
9206,LINN STATION RD,40222,38.2270565,-85.5814027
9206,LINN STATION RD,40222,38.2270581,-85.5815280
9206,LINN STATION RD,40222,38.2270605,-85.5815755
9206,LINN STATION RD,40222,38.2270680,-85.5814468
9206,Linn Station Road,40222,38.2270869,-85.5814907
9206,Linn Station Road,40222,38.2270968,-85.5815401
9206,Linn Station Road,40222,38.2271024,-85.5815724
9206,LINN STATION RD,40222,38.2271274,-85.5813548
9208,LINN STATION RD,40222,38.2271345,-85.5820434
9206,LINN STATION RD,40222,38.2271375,-85.5813911
9206,LINN STATION RD,40222,38.2271504,-85.5814388
9208,LINN STATION RD,40222,38.2271546,-85.5821143
9208,Linn Station Road,40222,38.2271576,-85.5819777
9206,LINN STATION RD,40222,38.2271619,-85.5814751
9208,Linn Station Road,40222,38.2271720,-85.5820328
9206,Linn Station Road,40222,38.2271733,-85.5815267
9206,Linn Station Road,40222,38.2271753,-85.5813500
9208,Linn Station Road,40222,38.2271833,-85.5820900
9206,LINN STATION RD,40222,38.2271898,-85.5813882
9208,LINN STATION RD,40222,38.2271909,-85.5819478
9206,LINN STATION RD,40222,38.2271999,-85.5814245
9208,Linn Station Road,40222,38.2272081,-85.5820165
9206,LINN STATION RD,40222,38.2272144,-85.5814665
9206,LINN STATION RD,40222,38.2272214,-85.5815028
9208,Linn Station Road,40222,38.2272238,-85.5820833
9208,Linn Station Road,40222,38.2272299,-85.5819372
9208,Linn Station Road,40222,38.2272472,-85.5820002
9208,LINN STATION RD,40222,38.2272600,-85.5820592
9208,LINN STATION RD,40222,38.2272794,-85.5819364
9208,LINN STATION RD,40222,38.2273049,-85.5819819
9208,LINN STATION RD,40222,38.2273051,-85.5820448
9208,LINN STATION RD,40222,38.2273055,-85.5818720
9208,LINN STATION RD,40222,38.2273244,-85.5819276
9208,LINN STATION RD,40222,38.2273327,-85.5819809
9208,LINN STATION RD,40222,38.2273485,-85.5820360
9204,LINN STATION RD,40222,38.2274643,-85.5813383
9204,LINN STATION RD,40222,38.2274657,-85.5814655
9204,LINN STATION RD,40222,38.2274799,-85.5815414
9204,LINN STATION RD,40222,38.2274990,-85.5814413
9204,LINN STATION RD,40222,38.2275150,-85.5816087
9204,LINN STATION RD,40222,38.2275182,-85.5813298
9204,LINN STATION RD,40222,38.2275251,-85.5815140
9204,Linn Station Road,40222,38.2275366,-85.5814250
9204,LINN STATION RD,40222,38.2275398,-85.5816718
9204,LINN STATION RD,40222,38.2275558,-85.5813117
9204,LINN STATION RD,40222,38.2275601,-85.5815869
9204,Linn Station Road,40222,38.2275628,-85.5814899
9204,LINN STATION RD,40222,38.2275741,-85.5819396
9204,Linn Station Road,40222,38.2275773,-85.5814009
9204,LINN STATION RD,40222,38.2275774,-85.5816572
9204,LINN STATION RD,40222,38.2275814,-85.5818205
9204,LINN STATION RD,40222,38.2275854,-85.5818715
9204,LINN STATION RD,40222,38.2275965,-85.5819400
9204,LINN STATION RD,40222,38.2275973,-85.5814792
9204,LINN STATION RD,40222,38.2276023,-85.5815724
9204,Linn Station Road,40222,38.2276124,-85.5818607
9204,LINN STATION RD,40222,38.2276149,-85.5816388
9204,LINN STATION RD,40222,38.2276162,-85.5819252
9204,Linn Station Road,40222,38.2276175,-85.5818077
9204,LINN STATION RD,40222,38.2276263,-85.5815576
9204,Linn Station Road,40222,38.2276372,-85.5819142
9204,LINN STATION RD,40222,38.2276439,-85.5818595
9204,LINN STATION RD,40222,38.2276466,-85.5816206
9204,LINN STATION RD,40222,38.2276504,-85.5818083
9204,LINN STATION RD,40222,38.2276567,-85.5819089
9204,Linn Station Road,40222,38.2276620,-85.5818429
9204,LINN STATION RD,40222,38.2276688,-85.5818996
9204,LINN STATION RD,40222,38.2276693,-85.5817290
9204,LINN STATION RD,40222,38.2276807,-85.5817784
9204,Linn Station Road,40222,38.2276884,-85.5818925
9204,LINN STATION RD,40222,38.2276920,-85.5818356
9204,LINN STATION RD,40222,38.2277064,-85.5818872
9200,Linn Station Road,40222,38.2285962,-85.5815410
9200,Linn Station Road,40222,38.2285986,-85.5815850
9200,Linn Station Road,40222,38.2286141,-85.5812759
9200,Linn Station Road,40222,38.2286203,-85.5815889
9200,Linn Station Road,40222,38.2286230,-85.5815454
9200,Linn Station Road,40222,38.2286247,-85.5813918
9200,Linn Station Road,40222,38.2286361,-85.5815796
9200,Linn Station Road,40222,38.2286440,-85.5812803
9200,Linn Station Road,40222,38.2286487,-85.5813940
9200,Linn Station Road,40222,38.2286570,-85.5815822
9200,Linn Station Road,40222,38.2286679,-85.5812842
9200,Linn Station Road,40222,38.2286723,-85.5815542
9200,Linn Station Road,40222,38.2286795,-85.5815769
9200,Linn Station Road,40222,38.2286882,-85.5813473
9200,Linn Station Road,40222,38.2286947,-85.5812942
9200,Linn Station Road,40222,38.2287020,-85.5815773
9200,Linn Station Road,40222,38.2287027,-85.5813837
9200,Linn Station Road,40222,38.2287091,-85.5813459
9200,Linn Station Road,40222,38.2287195,-85.5814844
9200,Linn Station Road,40222,38.2287228,-85.5811924
9200,Linn Station Road,40222,38.2287249,-85.5815397
9200,Linn Station Road,40222,38.2287275,-85.5815739
9200,Linn Station Road,40222,38.2287277,-85.5812853
9200,Linn Station Road,40222,38.2287356,-85.5813865
9200,Linn Station Road,40222,38.2287494,-85.5814851
9200,Linn Station Road,40222,38.2287503,-85.5815347
9200,Linn Station Road,40222,38.2287529,-85.5815687
101,Arundel Way,40222,38.2471178,-85.5893481
101,Chancery Court,40222,38.2465319,-85.5858810
101,Chancery Court,40222,38.2465435,-85.5859556
101,Chancery Court,40222,38.2465692,-85.5858704
101,Chancery Court,40222,38.2465772,-85.5859541
101,Chancery Court,40222,38.2466155,-85.5858668
101,Chancery Court,40222,38.2466180,-85.5859548
101,Chancery Court,40222,38.2466652,-85.5858608
101,Chancery Court,40222,38.2466748,-85.5859511
101,South Chadwick Road,40222,38.2468062,-85.5871166
101,South Chadwick Road,40222,38.2468086,-85.5872172
101,South Chadwick Road,40222,38.2468354,-85.5871172
101,South Chadwick Road,40222,38.2468432,-85.5872179
101,South Chadwick Road,40222,38.2468683,-85.5871178
101,South Chadwick Road,40222,38.2468752,-85.5872158
101,South Chadwick Road,40222,38.2469056,-85.5871163
101,South Chadwick Road,40222,38.2469107,-85.5872143
101,Whittington Parkway,40222,38.2447673,-85.5804290
102,Chancery Court,40222,38.2465263,-85.5865247
102,Chancery Court,40222,38.2465269,-85.5866261
102,Chancery Court,40222,38.2465955,-85.5865216
102,Chancery Court,40222,38.2466033,-85.5866249
102,Chancery Court,40222,38.2466578,-85.5865093
102,Chancery Court,40222,38.2466619,-85.5866129
102,Chancery Court,40222,38.2467164,-85.5865103
102,Chancery Court,40222,38.2467223,-85.5866141
102,Chipping Way,40222,38.2461707,-85.5845597
102,Chipping Way,40222,38.2461768,-85.5846365
102,Chipping Way,40222,38.2462061,-85.5845560
102,Chipping Way,40222,38.2462124,-85.5846301
102,Chipping Way,40222,38.2462497,-85.5846308
102,Chipping Way,40222,38.2462505,-85.5845568
102,Chipping Way,40222,38.2462861,-85.5845549
102,Chipping Way,40222,38.2462870,-85.5846293
102,Old Bond Court,40222,38.2460024,-85.5830496
102,Old Bond Court,40222,38.2460134,-85.5831582
102,Old Bond Court,40222,38.2460490,-85.5830379
102,Old Bond Court,40222,38.2460576,-85.5831403
102,Old Bond Court,40222,38.2460881,-85.5830416
102,Old Bond Court,40222,38.2461040,-85.5831473
102,Old Bond Court,40222,38.2461517,-85.5830428
102,Old Bond Court,40222,38.2461530,-85.5831390
103,Arundel Way,40222,38.2469300,-85.5893094
103,Chancery Court,40222,38.2463578,-85.5858956
103,Chancery Court,40222,38.2463726,-85.5859930
103,Chancery Court,40222,38.2463932,-85.5858963
103,Chancery Court,40222,38.2464064,-85.5859892
103,Chancery Court,40222,38.2464358,-85.5858971
103,Chancery Court,40222,38.2464473,-85.5859852
103,Chancery Court,40222,38.2464891,-85.5858915
103,Chancery Court,40222,38.2464901,-85.5859655
103,Chipping Way,40222,38.2459183,-85.5835657
103,Chipping Way,40222,38.2459294,-85.5836590
103,Chipping Way,40222,38.2459944,-85.5835392
103,Chipping Way,40222,38.2460104,-85.5836418
103,Chipping Way,40222,38.2460629,-85.5835374
103,Chipping Way,40222,38.2460787,-85.5836430
103,Chipping Way,40222,38.2461436,-85.5835358
103,Chipping Way,40222,38.2461522,-85.5836383
103,South Chadwick Road,40222,38.2465468,-85.5871332
103,South Chadwick Road,40222,38.2465527,-85.5872426
103,South Chadwick Road,40222,38.2465921,-85.5871366
103,South Chadwick Road,40222,38.2465970,-85.5872447
103,South Chadwick Road,40222,38.2466321,-85.5871317
103,South Chadwick Road,40222,38.2466343,-85.5872410
103,South Chadwick Road,40222,38.2466746,-85.5871312
103,South Chadwick Road,40222,38.2466806,-85.5872340
103,Whittington Parkway,40222,38.2447358,-85.5800938
104,Chipping Way,40222,38.2459517,-85.5846032
104,Chipping Way,40222,38.2459580,-85.5846773
104,Chipping Way,40222,38.2459944,-85.5846018
104,Chipping Way,40222,38.2459972,-85.5846671
104,Chipping Way,40222,38.2460370,-85.5845978
104,Chipping Way,40222,38.2460399,-85.5846653
104,Chipping Way,40222,38.2460852,-85.5845808
104,Chipping Way,40222,38.2460861,-85.5846548
104,Old Bond Court,40222,38.2457660,-85.5831972
104,Old Bond Court,40222,38.2457670,-85.5831010
104,Old Bond Court,40222,38.2458210,-85.5830894
104,Old Bond Court,40222,38.2458295,-85.5831984
104,Old Bond Court,40222,38.2458698,-85.5830968
104,Old Bond Court,40222,38.2458736,-85.5831961
104,Old Bond Court,40222,38.2459212,-85.5830943
104,Old Bond Court,40222,38.2459227,-85.5831783
105,Arundel Way,40222,38.2466923,-85.5893354
105,Chipping Way,40222,38.2456353,-85.5835078
105,Chipping Way,40222,38.2456369,-85.5835792
105,Chipping Way,40222,38.2456435,-85.5836477
105,Chipping Way,40222,38.2456475,-85.5837283
105,Chipping Way,40222,38.2457086,-85.5835122
105,Chipping Way,40222,38.2457176,-85.5835868
105,Chipping Way,40222,38.2457241,-85.5836492
105,Chipping Way,40222,38.2457257,-85.5837297
106,Old Bond Court,40222,38.2454826,-85.5831703
106,Old Bond Court,40222,38.2454885,-85.5830833
106,Old Bond Court,40222,38.2455526,-85.5830414
106,Old Bond Court,40222,38.2455538,-85.5831498
106,Old Bond Court,40222,38.2456039,-85.5830454
106,Old Bond Court,40222,38.2456076,-85.5831508
106,Old Bond Court,40222,38.2456552,-85.5830494
106,Old Bond Court,40222,38.2456640,-85.5831361
107,Arundel Way,40222,38.2464457,-85.5893627
107,Chipping Way,40222,38.2454566,-85.5839511
107,Chipping Way,40222,38.2454653,-85.5840505
107,Chipping Way,40222,38.2455107,-85.5839273
107,Chipping Way,40222,38.2455265,-85.5840360
107,Chipping Way,40222,38.2455620,-85.5839283
107,Chipping Way,40222,38.2455682,-85.5840368
107,Chipping Way,40222,38.2456182,-85.5839323
107,Chipping Way,40222,38.2456318,-85.5840223
200,Old Bond Court,40222,38.2444803,-85.5829703
200,Old Bond Court,40222,38.2444814,-85.5830622
200,Old Bond Court,40222,38.2445207,-85.5829737
200,Old Bond Court,40222,38.2445239,-85.5830630
200,Old Bond Court,40222,38.2445632,-85.5829797
200,Old Bond Court,40222,38.2445665,-85.5830664
200,Old Bond Court,40222,38.2446037,-85.5829804
200,Old Bond Court,40222,38.2446070,-85.5830619
201,Marksfield Circle,40222,38.2446540,-85.5839917
201,Marksfield Circle,40222,38.2446807,-85.5840731
201,Marksfield Circle,40222,38.2447098,-85.5839548
201,Marksfield Circle,40222,38.2447470,-85.5840504
201,Marksfield Circle,40222,38.2447867,-85.5839293
201,Marksfield Circle,40222,38.2448072,-85.5840054
201,Marksfield Circle,40222,38.2448425,-85.5839007
201,Marksfield Circle,40222,38.2448671,-85.5839847
202,Old Bond Court,40222,38.2442265,-85.5829979
202,Old Bond Court,40222,38.2442318,-85.5830898
202,Old Bond Court,40222,38.2442914,-85.5830992
202,Old Bond Court,40222,38.2442946,-85.5830074
202,Old Bond Court,40222,38.2443404,-85.5830949
202,Old Bond Court,40222,38.2443459,-85.5829922
202,Old Bond Court,40222,38.2443969,-85.5829984
202,Old Bond Court,40222,38.2443982,-85.5830742
203,Marksfield Circle,40222,38.2442970,-85.5842798
203,Marksfield Circle,40222,38.2443154,-85.5843554
203,Marksfield Circle,40222,38.2443551,-85.5842373
203,Marksfield Circle,40222,38.2443817,-85.5843297
203,Marksfield Circle,40222,38.2444171,-85.5842115
203,Marksfield Circle,40222,38.2444439,-85.5842930
203,Marksfield Circle,40222,38.2444772,-85.5841669
203,Marksfield Circle,40222,38.2445020,-85.5842427
204,Marksfield Circle,40222,38.2444564,-85.5849535
204,Marksfield Circle,40222,38.2444968,-85.5848898
204,Marksfield Circle,40222,38.2445304,-85.5850093
204,Marksfield Circle,40222,38.2445452,-85.5848185
204,Marksfield Circle,40222,38.2445706,-85.5849539
204,Marksfield Circle,40222,38.2445759,-85.5847685
204,Marksfield Circle,40222,38.2446127,-85.5848841
204,Marksfield Circle,40222,38.2446502,-85.5848060
204,Old Bond Court,40222,38.2439352,-85.5831358
204,Old Bond Court,40222,38.2439363,-85.5830439
204,Old Bond Court,40222,38.2439812,-85.5830260
204,Old Bond Court,40222,38.2439882,-85.5831585
204,Old Bond Court,40222,38.2440223,-85.5831565
204,Old Bond Court,40222,38.2440258,-85.5830377
204,Old Bond Court,40222,38.2440619,-85.5830410
204,Old Bond Court,40222,38.2440675,-85.5831195
205,Whittington Parkway,40222,38.2446651,-85.5796062
210,Marksfield Circle,40222,38.2452560,-85.5862079
210,Marksfield Circle,40222,38.2452810,-85.5861670
210,Marksfield Circle,40222,38.2453185,-85.5861133
210,Marksfield Circle,40222,38.2453189,-85.5862613
210,Marksfield Circle,40222,38.2453459,-85.5860437
210,Marksfield Circle,40222,38.2453482,-85.5862096
210,Marksfield Circle,40222,38.2453754,-85.5861557
210,Marksfield Circle,40222,38.2454089,-85.5860915
211,Marksfield Circle,40222,38.2448739,-85.5859593
211,Marksfield Circle,40222,38.2449219,-85.5858775
211,Marksfield Circle,40222,38.2449327,-85.5860074
211,Marksfield Circle,40222,38.2449471,-85.5858205
211,Marksfield Circle,40222,38.2449704,-85.5857587
211,Marksfield Circle,40222,38.2449705,-85.5859276
211,Marksfield Circle,40222,38.2450079,-85.5858765
211,Marksfield Circle,40222,38.2450333,-85.5858095
212,Marksfield Circle,40222,38.2450952,-85.5864831
212,Marksfield Circle,40222,38.2451202,-85.5864444
212,Marksfield Circle,40222,38.2451457,-85.5865411
212,Marksfield Circle,40222,38.2451617,-85.5863908
212,Marksfield Circle,40222,38.2451792,-85.5864794
212,Marksfield Circle,40222,38.2451973,-85.5863318
212,Marksfield Circle,40222,38.2452105,-85.5864304
212,Marksfield Circle,40222,38.2452501,-85.5863637
225,Whittington Parkway,40222,38.2444626,-85.5795616
227,Whittington Parkway,40222,38.2443654,-85.5795237
231,Whittington Parkway,40222,38.2442547,-85.5794682
235,Whittington Parkway,40222,38.2440800,-85.5795160
237,Whittington Parkway,40222,38.2440272,-85.5794471
250,Whittington Parkway,40222,38.2436216,-85.5813292
251,Whittington Parkway,40222,38.2443639,-85.5793005
252,Whittington Parkway,40222,38.2435460,-85.5812612
259,Whittington Parkway,40222,38.2443404,-85.5790110
263,Whittington Parkway,40222,38.2445682,-85.5790152
273,Whittington Parkway,40222,38.2440592,-85.5789889
275,Whittington Parkway,40222,38.2440435,-85.5791923
304,South Chadwick Road,40222,38.2449530,-85.5892128
305,Whittington Parkway,40222,38.2439225,-85.5792240
307,South Lyndon Lane,40222,38.2436292,-85.6014212
307,Whittington Parkway,40222,38.2438126,-85.5792303
309,Whittington Parkway,40222,38.2437093,-85.5792310
311,Whittington Parkway,40222,38.2435260,-85.5790832
313,Whittington Parkway,40222,38.2435067,-85.5788878
315,Whittington Parkway,40222,38.2436935,-85.5785382
8598,Wimborne Way,40222,38.2474432,-85.5946585
8800,Marksfield Road,40222,38.2460556,-85.5870201
8800,Marksfield Road,40222,38.2460733,-85.5870801
8800,Marksfield Road,40222,38.2460891,-85.5871322
8800,Marksfield Road,40222,38.2461029,-85.5871790
8800,Marksfield Road,40222,38.2461377,-85.5870086
8800,Marksfield Road,40222,38.2461473,-85.5870579
8800,Marksfield Road,40222,38.2461569,-85.5871125
8800,Marksfield Road,40222,38.2461665,-85.5871701
8801,Springsbury Place,40222,38.2456837,-85.5869484
8801,Springsbury Place,40222,38.2457091,-85.5868810
8801,Springsbury Place,40222,38.2457302,-85.5869984
8801,Springsbury Place,40222,38.2457637,-85.5869368
8801,Springsbury Place,40222,38.2457687,-85.5870431
8801,Springsbury Place,40222,38.2458104,-85.5869764
8801,Springsbury Place,40222,38.2458175,-85.5870675
8801,Springsbury Place,40222,38.2458510,-85.5870033
8802,Marksfield Road,40222,38.2459887,-85.5867799
8802,Marksfield Road,40222,38.2460065,-85.5868372
8802,Marksfield Road,40222,38.2460182,-85.5868893
8802,Marksfield Road,40222,38.2460340,-85.5869444
8802,Marksfield Road,40222,38.2460769,-85.5867658
8802,Marksfield Road,40222,38.2460886,-85.5868179
8802,Marksfield Road,40222,38.2461003,-85.5868703
8802,Marksfield Road,40222,38.2461141,-85.5869198
8803,Springsbury Place,40222,38.2455165,-85.5867090
8803,Springsbury Place,40222,38.2455438,-85.5866446
8803,Springsbury Place,40222,38.2455569,-85.5867511
8803,Springsbury Place,40222,38.2455806,-85.5866579
8803,Springsbury Place,40222,38.2455851,-85.5867934
8803,Springsbury Place,40222,38.2456230,-85.5867083
8803,Springsbury Place,40222,38.2456258,-85.5868198
8803,Springsbury Place,40222,38.2456594,-85.5867425
8804,Marksfield Road,40222,38.2458322,-85.5865019
8804,Marksfield Road,40222,38.2458581,-85.5865646
8804,Marksfield Road,40222,38.2458861,-85.5866169
8804,Marksfield Road,40222,38.2459041,-85.5866612
8804,Marksfield Road,40222,38.2459084,-85.5864667
8804,Marksfield Road,40222,38.2459363,-85.5865295
8804,Marksfield Road,40222,38.2459520,-85.5865816
8804,Marksfield Road,40222,38.2459678,-85.5866341
8805,Springsbury Place,40222,38.2453421,-85.5865551
8805,Springsbury Place,40222,38.2453756,-85.5864983
8805,Springsbury Place,40222,38.2453785,-85.5865998
8805,Springsbury Place,40222,38.2454006,-85.5866341
8805,Springsbury Place,40222,38.2454120,-85.5865303
8805,Springsbury Place,40222,38.2454465,-85.5865623
8805,Springsbury Place,40222,38.2454494,-85.5866659
8805,Springsbury Place,40222,38.2454850,-85.5865965
8806,Marksfield Road,40222,38.2457217,-85.5861334
8806,Marksfield Road,40222,38.2457477,-85.5861913
8806,Marksfield Road,40222,38.2457797,-85.5862515
8806,Marksfield Road,40222,38.2457938,-85.5861038
8806,Marksfield Road,40222,38.2458016,-85.5863063
8806,Marksfield Road,40222,38.2458218,-85.5861613
8806,Marksfield Road,40222,38.2458436,-85.5862161
8806,Marksfield Road,40222,38.2458655,-85.5862788
8808,Marksfield Road,40222,38.2454484,-85.5858532
8808,Marksfield Road,40222,38.2454799,-85.5857915
8808,Marksfield Road,40222,38.2455032,-85.5859012
8808,Marksfield Road,40222,38.2455415,-85.5859537
8808,Marksfield Road,40222,38.2455470,-85.5858341
8808,Marksfield Road,40222,38.2455955,-85.5858873
8808,Marksfield Road,40222,38.2455963,-85.5859987
8808,Marksfield Road,40222,38.2456257,-85.5859318
8898,Shelbyville Road,40222,38.2470988,-85.5875683
8900,Shelbyville Road,40222,38.2468182,-85.5867651
8900,Shelbyville Road,40222,38.2468191,-85.5866864
8900,Shelbyville Road,40222,38.2468228,-85.5868305
8900,Shelbyville Road,40222,38.2468292,-85.5868894
8900,Shelbyville Road,40222,38.2469069,-85.5867694
8900,Shelbyville Road,40222,38.2469096,-85.5866858
8900,Shelbyville Road,40222,38.2469117,-85.5868234
8900,Shelbyville Road,40222,38.2469144,-85.5868888
8901,Marksfield Road,40222,38.2461898,-85.5856788
8901,Marksfield Road,40222,38.2461975,-85.5857804
8901,Marksfield Road,40222,38.2461998,-85.5857378
8901,Marksfield Road,40222,38.2462005,-85.5858322
8901,Marksfield Road,40222,38.2462732,-85.5856803
8901,Marksfield Road,40222,38.2462762,-85.5857344
8901,Marksfield Road,40222,38.2462786,-85.5858337
8901,Marksfield Road,40222,38.2462792,-85.5857797
8902,Shelbyville Road,40222,38.2465264,-85.5854264
8902,Shelbyville Road,40222,38.2465275,-85.5854848
8902,Shelbyville Road,40222,38.2465375,-85.5855433
8902,Shelbyville Road,40222,38.2465457,-85.5856044
8902,Shelbyville Road,40222,38.2466045,-85.5854300
8902,Shelbyville Road,40222,38.2466092,-85.5854863
8902,Shelbyville Road,40222,38.2466138,-85.5855425
8902,Shelbyville Road,40222,38.2466150,-85.5855987
8903,Marksfield Road,40222,38.2461961,-85.5854360
8903,Marksfield Road,40222,38.2461967,-85.5853821
8903,Marksfield Road,40222,38.2461993,-85.5853098
8903,Marksfield Road,40222,38.2462044,-85.5854880
8903,Marksfield Road,40222,38.2462740,-85.5853043
8903,Marksfield Road,40222,38.2462873,-85.5853789
8903,Marksfield Road,40222,38.2462878,-85.5854917
8903,Marksfield Road,40222,38.2462937,-85.5854400
8904,Shelbyville Road,40222,38.2464766,-85.5851260
8904,Shelbyville Road,40222,38.2464797,-85.5851644
8904,Shelbyville Road,40222,38.2464845,-85.5852158
8904,Shelbyville Road,40222,38.2464874,-85.5852681
8904,Shelbyville Road,40222,38.2465507,-85.5851679
8904,Shelbyville Road,40222,38.2465512,-85.5851183
8904,Shelbyville Road,40222,38.2465555,-85.5852084
8904,Shelbyville Road,40222,38.2465568,-85.5852555
8905,Marksfield Road,40222,38.2460685,-85.5849518
8905,Marksfield Road,40222,38.2460748,-85.5850216
8905,Marksfield Road,40222,38.2460776,-85.5850891
8905,Marksfield Road,40222,38.2460927,-85.5851594
8905,Marksfield Road,40222,38.2461484,-85.5849511
8905,Marksfield Road,40222,38.2461585,-85.5851607
8905,Marksfield Road,40222,38.2461600,-85.5850279
8905,Marksfield Road,40222,38.2461628,-85.5850907
8906,Shelbyville Road,40222,38.2464294,-85.5849088
8906,Shelbyville Road,40222,38.2464324,-85.5849493
8906,Shelbyville Road,40222,38.2464352,-85.5848641
8906,Shelbyville Road,40222,38.2464372,-85.5849947
8906,Shelbyville Road,40222,38.2465027,-85.5848584
8906,Shelbyville Road,40222,38.2465119,-85.5849869
8906,Shelbyville Road,40222,38.2465124,-85.5849421
8906,Shelbyville Road,40222,38.2465129,-85.5848990
8908,Shelbyville Road,40222,38.2464559,-85.5846033
8908,Shelbyville Road,40222,38.2464586,-85.5845267
8908,Shelbyville Road,40222,38.2464623,-85.5846665
8908,Shelbyville Road,40222,38.2464705,-85.5847250
8908,Shelbyville Road,40222,38.2465349,-85.5845303
8908,Shelbyville Road,40222,38.2465429,-85.5846005
8908,Shelbyville Road,40222,38.2465476,-85.5846659
8908,Shelbyville Road,40222,38.2465539,-85.5847244
8914,Marksfield Road,40222,38.2449021,-85.5853983
8914,Marksfield Road,40222,38.2449395,-85.5853128
8914,Marksfield Road,40222,38.2449444,-85.5854417
8914,Marksfield Road,40222,38.2449789,-85.5854746
8914,Marksfield Road,40222,38.2449818,-85.5853619
8914,Marksfield Road,40222,38.2450211,-85.5853987
8914,Marksfield Road,40222,38.2450230,-85.5855115
8914,Marksfield Road,40222,38.2450540,-85.5854316
8915,Marksfield Circle,40222,38.2445682,-85.5858675
8915,Marksfield Circle,40222,38.2446084,-85.5858156
8915,Marksfield Circle,40222,38.2446199,-85.5859224
8915,Marksfield Circle,40222,38.2446619,-85.5858610
8915,Marksfield Circle,40222,38.2446623,-85.5859615
8915,Marksfield Circle,40222,38.2447059,-85.5858979
8915,Marksfield Circle,40222,38.2447063,-85.5859967
8915,Marksfield Circle,40222,38.2447466,-85.5859391
8917,Marksfield Circle,40222,38.2444105,-85.5855020
8917,Marksfield Circle,40222,38.2444333,-85.5854424
8917,Marksfield Circle,40222,38.2444634,-85.5855896
8917,Marksfield Circle,40222,38.2444961,-85.5855097
8917,Marksfield Circle,40222,38.2445168,-85.5856389
8917,Marksfield Circle,40222,38.2445590,-85.5855574
8917,Marksfield Circle,40222,38.2445609,-85.5856741
8917,Marksfield Circle,40222,38.2446093,-85.5856062
8918,Marksfield Road,40222,38.2446438,-85.5852186
8918,Marksfield Road,40222,38.2446810,-85.5851531
8918,Marksfield Road,40222,38.2446861,-85.5852677
8918,Marksfield Road,40222,38.2447219,-85.5851921
8918,Marksfield Road,40222,38.2447286,-85.5853007
8918,Marksfield Road,40222,38.2447580,-85.5852250
8918,Marksfield Road,40222,38.2447678,-85.5853419
8918,Marksfield Road,40222,38.2448069,-85.5852581
9000,Marksfield Road,40222,38.2445374,-85.5835682
9000,Marksfield Road,40222,38.2445495,-85.5836306
9000,Marksfield Road,40222,38.2445638,-85.5836770
9000,Marksfield Road,40222,38.2445759,-85.5837312
9000,Marksfield Road,40222,38.2446099,-85.5835586
9000,Marksfield Road,40222,38.2446178,-85.5836158
9000,Marksfield Road,40222,38.2446322,-85.5836565
9000,Marksfield Road,40222,38.2446401,-85.5837133
9000,Shelbyville Road,40222,38.2463465,-85.5835396
9000,Shelbyville Road,40222,38.2463482,-85.5835984
9000,Shelbyville Road,40222,38.2463519,-85.5837073
9000,Shelbyville Road,40222,38.2463526,-85.5836450
9000,Shelbyville Road,40222,38.2464223,-85.5835410
9000,Shelbyville Road,40222,38.2464265,-85.5835937
9000,Shelbyville Road,40222,38.2464278,-85.5836991
9000,Shelbyville Road,40222,38.2464285,-85.5836434
9001,Gilpin Place,40222,38.2442180,-85.5837408
9001,Gilpin Place,40222,38.2442364,-85.5838086
9001,Gilpin Place,40222,38.2442507,-85.5838680
9001,Gilpin Place,40222,38.2442713,-85.5839281
9001,Gilpin Place,40222,38.2442842,-85.5837228
9001,Gilpin Place,40222,38.2443070,-85.5837855
9001,Gilpin Place,40222,38.2443191,-85.5838397
9001,Gilpin Place,40222,38.2443312,-85.5839048
9001,Marksfield Road,40222,38.2453120,-85.5837717
9001,Marksfield Road,40222,38.2453126,-85.5837191
9001,Marksfield Road,40222,38.2453157,-85.5836599
9001,Marksfield Road,40222,38.2453211,-85.5838276
9001,Marksfield Road,40222,38.2453914,-85.5836613
9001,Marksfield Road,40222,38.2454025,-85.5837704
9001,Marksfield Road,40222,38.2454032,-85.5837112
9001,Marksfield Road,40222,38.2454091,-85.5838323
9002,Marksfield Road,40222,38.2444656,-85.5833266
9002,Marksfield Road,40222,38.2444757,-85.5833725
9002,Marksfield Road,40222,38.2444880,-85.5834162
9002,Marksfield Road,40222,38.2445002,-85.5834652
9002,Marksfield Road,40222,38.2445426,-85.5832953
9002,Marksfield Road,40222,38.2445568,-85.5833526
9002,Marksfield Road,40222,38.2445691,-85.5833986
9002,Marksfield Road,40222,38.2445771,-85.5834475
9002,Shelbyville Road,40222,38.2463618,-85.5832700
9002,Shelbyville Road,40222,38.2463632,-85.5833631
9002,Shelbyville Road,40222,38.2463637,-85.5833166
9002,Shelbyville Road,40222,38.2463649,-85.5834219
9002,Shelbyville Road,40222,38.2464394,-85.5833210
9002,Shelbyville Road,40222,38.2464400,-85.5832714
9002,Shelbyville Road,40222,38.2464431,-85.5834264
9002,Shelbyville Road,40222,38.2464438,-85.5833677
9003,Gilpin Place,40222,38.2441157,-85.5833767
9003,Gilpin Place,40222,38.2441341,-85.5834367
9003,Gilpin Place,40222,38.2441504,-85.5835045
9003,Gilpin Place,40222,38.2441624,-85.5835696
9003,Gilpin Place,40222,38.2441712,-85.5833617
9003,Gilpin Place,40222,38.2442004,-85.5834188
9003,Gilpin Place,40222,38.2442145,-85.5834895
9003,Gilpin Place,40222,38.2442266,-85.5835464
9003,Marksfield Road,40222,38.2452883,-85.5832751
9003,Marksfield Road,40222,38.2452947,-85.5833557
9003,Marksfield Road,40222,38.2452988,-85.5834211
9003,Marksfield Road,40222,38.2453007,-85.5834738
9003,Marksfield Road,40222,38.2453714,-85.5832766
9003,Marksfield Road,40222,38.2453780,-85.5833420
9003,Marksfield Road,40222,38.2453846,-85.5834070
9003,Marksfield Road,40222,38.2453887,-85.5834754
9004,Shelbyville Road,40222,38.2463544,-85.5830591
9004,Shelbyville Road,40222,38.2463549,-85.5830095
9004,Shelbyville Road,40222,38.2463563,-85.5831119
9004,Shelbyville Road,40222,38.2463628,-85.5831803
9004,Shelbyville Road,40222,38.2464088,-85.5830075
9004,Shelbyville Road,40222,38.2464156,-85.5830572
9004,Shelbyville Road,40222,38.2464173,-85.5831160
9004,Shelbyville Road,40222,38.2464240,-85.5831784
950,South Hurstbourne Parkway,40222,38.2313225,-85.5774680
8008,Shelbyville Road,40222,38.2483619,-85.6053583
8014,Shelbyville Road,40222,38.2483185,-85.6051925
8304,Shelbyville Road,40222,38.2478944,-85.6003461
8306,Shelbyville Road,40222,38.2481433,-85.6006115
15,Muirfield Place,40222,38.2403403,-85.5850363
601,Hatherleigh Lane,40222,38.2383652,-85.5882348
603,Nottingham Parkway,40222,38.2356735,-85.5778862
9105,Seaton Springs Parkway,40222,38.2375507,-85.5838643
9207,Linn Station Road,40222,38.2292479,-85.5802385
9209,Linn Station Road,40222,38.2292154,-85.5797072
9300,Seaton Springs Parkway,40222,38.2335769,-85.5796732
1102,South Hurstbourne Parkway,40222,38.2280945,-85.5781572
1200,Dalmally Court,40222,38.2286797,-85.5798460
1200,South Hurstbourne Parkway,40222,38.2278892,-85.5782387
1202,Dalmally Court,40222,38.2286272,-85.5798450
1204,Dalmally Court,40222,38.2285705,-85.5798623
1206,Dalmally Court,40222,38.2285167,-85.5798648
1208,Dalmally Court,40222,38.2284589,-85.5798650
1210,Dalmally Court,40222,38.2283958,-85.5798739
1212,Hogarth Drive,40222,38.2273940,-85.5854536
1212,Inverary Court,40222,38.2280540,-85.5796796
1214,Hogarth Drive,40222,38.2274276,-85.5855987
1214,Inverary Court,40222,38.2279950,-85.5796638
1215,Hogarth Drive,40222,38.2271027,-85.5859022
1216,Hogarth Drive,40222,38.2274731,-85.5857388
1216,Inverary Court,40222,38.2279215,-85.5796724
1217,Hogarth Drive,40222,38.2271465,-85.5860697
1218,Hogarth Drive,40222,38.2275464,-85.5860007
1218,Inverary Court,40222,38.2278335,-85.5796625
1219,Hogarth Drive,40222,38.2272072,-85.5862839
1220,Hogarth Drive,40222,38.2275842,-85.5861359
1220,Inverary Court,40222,38.2277693,-85.5796614
1221,Hogarth Drive,40222,38.2272370,-85.5864237
1222,Hogarth Drive,40222,38.2276566,-85.5863854
1222,Inverary Court,40222,38.2277168,-85.5796534
1223,Hogarth Drive,40222,38.2272707,-85.5865588
1224,Hogarth Drive,40222,38.2276943,-85.5865154
1224,Inverary Court,40222,38.2276513,-85.5796405
1225,Hogarth Drive,40222,38.2273607,-85.5868719
1226,Hogarth Drive,40222,38.2277360,-85.5866406
1226,Inverary Court,40222,38.2276080,-85.5796432
1227,Hogarth Drive,40222,38.2274025,-85.5869871
1228,Hogarth Drive,40222,38.2278193,-85.5869607
1228,Inverary Court,40222,38.2274542,-85.5796604
1229,Hogarth Drive,40222,38.2274325,-85.5871069
1230,Hogarth Drive,40222,38.2278534,-85.5870710
1230,Inverary Court,40222,38.2274419,-85.5795870
1230,South Hurstbourne Parkway,40222,38.2276383,-85.5782433
1231,Hogarth Drive,40222,38.2275062,-85.5874329
1232,Hogarth Drive,40222,38.2278913,-85.5871909
1232,Inverary Court,40222,38.2274246,-85.5794866
1233,Hogarth Drive,40222,38.2274808,-85.5875943
1234,Hogarth Drive,40222,38.2279443,-85.5875621
1234,Inverary Court,40222,38.2274243,-85.5793935
1235,Hogarth Drive,40222,38.2274593,-85.5877831
1236,Hogarth Drive,40222,38.2279252,-85.5877653
1236,Inverary Court,40222,38.2274281,-85.5792970
1237,Hogarth Drive,40222,38.2272349,-85.5878585
1238,Hogarth Drive,40222,38.2278485,-85.5880315
1238,Inverary Court,40222,38.2274263,-85.5792238
1239,Hogarth Drive,40222,38.2271282,-85.5879372
1240,Hogarth Drive,40222,38.2277851,-85.5882004
1240,Inverary Court,40222,38.2274086,-85.5791652
1240,Liberty Bank Lane,40222,38.2273178,-85.5788241
1241,Hogarth Drive,40222,38.2270194,-85.5879936
1242,Hogarth Drive,40222,38.2277323,-85.5883501
1242,Inverary Court,40222,38.2274028,-85.5790985
1243,Hogarth Drive,40222,38.2270617,-85.5884217
1244,Hogarth Drive,40222,38.2275882,-85.5886257
1245,Hogarth Drive,40222,38.2271019,-85.5885336
1246,Hogarth Drive,40222,38.2275279,-85.5887638
1247,Hogarth Drive,40222,38.2271291,-85.5886597
1248,Hogarth Drive,40222,38.2274636,-85.5888919
1300,Galston Court,40222,38.2272092,-85.5793730
1301,Lancaster Place,40222,38.2271779,-85.5797054
1302,Galston Court,40222,38.2271448,-85.5793836
1303,Lancaster Place,40222,38.2271462,-85.5797213
1304,Galston Court,40222,38.2270920,-85.5794109
1305,Lancaster Place,40222,38.2270906,-85.5797621
1306,Galston Court,40222,38.2270221,-85.5794362
1307,Lancaster Place,40222,38.2270457,-85.5797826
1308,Galston Court,40222,38.2269719,-85.5794618
1309,Lancaster Place,40222,38.2269903,-85.5797999
1310,Galston Court,40222,38.2269058,-85.5794972
1311,Lancaster Place,40222,38.2271947,-85.5799520
1313,Lancaster Place,40222,38.2272174,-85.5800455
1315,Lancaster Place,40222,38.2272336,-85.5801176
1317,Lancaster Place,40222,38.2272486,-85.5801841
1319,Lancaster Place,40222,38.2272714,-85.5802580
1321,Lancaster Place,40222,38.2272866,-85.5803014
1324,Lancaster Place,40222,38.2273556,-85.5804741
1326,Lancaster Place,40222,38.2272964,-85.5804848
1328,Lancaster Place,40222,38.2272395,-85.5805186
1330,Lancaster Place,40222,38.2271868,-85.5805328
1332,Lancaster Place,40222,38.2271447,-85.5805486
1334,Lancaster Place,40222,38.2270958,-85.5805725
1400,South Hurstbourne Parkway,40222,38.2253514,-85.5790688
8603,Cheffield Drive,40222,38.2321805,-85.5966829
8811,Linn Station Road,40222,38.2299395,-85.5933003
9100,Hogarth Court,40222,38.2269026,-85.5875107
9102,Hogarth Court,40222,38.2270206,-85.5874360
9104,Hogarth Court,40222,38.2271807,-85.5869878
9106,Hogarth Court,40222,38.2271428,-85.5868727
9108,Hogarth Court,40222,38.2270971,-85.5867478
9110,Hogarth Court,40222,38.2267209,-85.5866318
9112,Hogarth Court,40222,38.2266182,-85.5866947
9114,Hogarth Court,40222,38.2264010,-85.5863657
9116,Hogarth Court,40222,38.2265116,-85.5862981
9118,Hogarth Court,40222,38.2267396,-85.5861993
9120,Hogarth Court,40222,38.2268381,-85.5861610
9122,Hogarth Court,40222,38.2269326,-85.5861232
9200,Linn Station Road,40222,38.2285979,-85.5813929
9200,Linn Station Road,40222,38.2286013,-85.5813477
9200,Linn Station Road,40222,38.2286237,-85.5813573
9200,Linn Station Road,40222,38.2286455,-85.5815439
9200,Linn Station Road,40222,38.2286567,-85.5813505
9200,Linn Station Road,40222,38.2286742,-85.5813887
9200,Linn Station Road,40222,38.2286914,-85.5811918
9200,Linn Station Road,40222,38.2286985,-85.5814857
9200,Linn Station Road,40222,38.2287009,-85.5815428
9200,Linn Station Road,40222,38.2287278,-85.5812852
9200,Linn Station Road,40222,38.2287315,-85.5813501
9204,Linn Station Road,40222,38.2274643,-85.5813382
9204,Linn Station Road,40222,38.2274658,-85.5814653
9204,Linn Station Road,40222,38.2274799,-85.5815413
9204,Linn Station Road,40222,38.2274990,-85.5814411
9204,Linn Station Road,40222,38.2275150,-85.5816085
9204,Linn Station Road,40222,38.2275182,-85.5813296
9204,Linn Station Road,40222,38.2275251,-85.5815138
9204,Linn Station Road,40222,38.2275366,-85.5814248
9204,Linn Station Road,40222,38.2275398,-85.5816716
9204,Linn Station Road,40222,38.2275558,-85.5813116
9204,Linn Station Road,40222,38.2275602,-85.5815867
9204,Linn Station Road,40222,38.2275628,-85.5814897
9204,Linn Station Road,40222,38.2275742,-85.5819395
9204,Linn Station Road,40222,38.2275773,-85.5814008
9204,Linn Station Road,40222,38.2275774,-85.5816571
9204,Linn Station Road,40222,38.2275814,-85.5818204
9204,Linn Station Road,40222,38.2275854,-85.5818714
9204,Linn Station Road,40222,38.2275966,-85.5819399
9204,Linn Station Road,40222,38.2275973,-85.5814790
9204,Linn Station Road,40222,38.2276023,-85.5815723
9204,Linn Station Road,40222,38.2276124,-85.5818605
9204,Linn Station Road,40222,38.2276149,-85.5816386
9204,Linn Station Road,40222,38.2276162,-85.5819250
9204,Linn Station Road,40222,38.2276175,-85.5818075
9204,Linn Station Road,40222,38.2276263,-85.5815575
9204,Linn Station Road,40222,38.2276373,-85.5819141
9204,Linn Station Road,40222,38.2276439,-85.5818594
9204,Linn Station Road,40222,38.2276466,-85.5816205
9204,Linn Station Road,40222,38.2276504,-85.5818081
9204,Linn Station Road,40222,38.2276567,-85.5819088
9204,Linn Station Road,40222,38.2276620,-85.5818427
9204,Linn Station Road,40222,38.2276688,-85.5818994
9204,Linn Station Road,40222,38.2276693,-85.5817289
9204,Linn Station Road,40222,38.2276807,-85.5817782
9204,Linn Station Road,40222,38.2276884,-85.5818924
9204,Linn Station Road,40222,38.2276921,-85.5818355
9204,Linn Station Road,40222,38.2277064,-85.5818871
9206,Linn Station Road,40222,38.2266471,-85.5817423
9206,Linn Station Road,40222,38.2266632,-85.5816499
9206,Linn Station Road,40222,38.2266832,-85.5817317
9206,Linn Station Road,40222,38.2266974,-85.5817985
9206,Linn Station Road,40222,38.2267109,-85.5816599
9206,Linn Station Road,40222,38.2267222,-85.5817193
9206,Linn Station Road,40222,38.2267334,-85.5817839
9206,Linn Station Road,40222,38.2267384,-85.5816130
9206,Linn Station Road,40222,38.2267496,-85.5816815
9206,Linn Station Road,40222,38.2267653,-85.5817523
9206,Linn Station Road,40222,38.2267759,-85.5816024
9206,Linn Station Road,40222,38.2267961,-85.5816711
9206,Linn Station Road,40222,38.2268075,-85.5817244
9206,Linn Station Road,40222,38.2268300,-85.5815864
9206,Linn Station Road,40222,38.2268428,-85.5816436
9206,Linn Station Road,40222,38.2268616,-85.5816988
9206,Linn Station Road,40222,38.2268768,-85.5815455
9206,Linn Station Road,40222,38.2268898,-85.5815875
9206,Linn Station Road,40222,38.2269104,-85.5816144
9206,Linn Station Road,40222,38.2269219,-85.5816660
9206,Linn Station Road,40222,38.2270306,-85.5814460
9206,Linn Station Road,40222,38.2270450,-85.5814915
9206,Linn Station Road,40222,38.2270565,-85.5814025
9206,Linn Station Road,40222,38.2270581,-85.5815279
9206,Linn Station Road,40222,38.2270605,-85.5815754
9206,Linn Station Road,40222,38.2270680,-85.5814467
9206,Linn Station Road,40222,38.2270869,-85.5814906
9206,Linn Station Road,40222,38.2270968,-85.5815399
9206,Linn Station Road,40222,38.2271025,-85.5815722
9206,Linn Station Road,40222,38.2271274,-85.5813547
9206,Linn Station Road,40222,38.2271375,-85.5813910
9206,Linn Station Road,40222,38.2271504,-85.5814386
9206,Linn Station Road,40222,38.2271619,-85.5814750
9206,Linn Station Road,40222,38.2271734,-85.5815265
9206,Linn Station Road,40222,38.2271754,-85.5813499
9206,Linn Station Road,40222,38.2271899,-85.5813880
9206,Linn Station Road,40222,38.2271999,-85.5814243
9206,Linn Station Road,40222,38.2272144,-85.5814664
9206,Linn Station Road,40222,38.2272214,-85.5815026
9208,Linn Station Road,40222,38.2267866,-85.5821074
9208,Linn Station Road,40222,38.2268039,-85.5821699
9208,Linn Station Road,40222,38.2268138,-85.5822158
9208,Linn Station Road,40222,38.2268297,-85.5822653
9208,Linn Station Road,40222,38.2268332,-85.5820873
9208,Linn Station Road,40222,38.2268536,-85.5821386
9208,Linn Station Road,40222,38.2268665,-85.5821863
9208,Linn Station Road,40222,38.2268768,-85.5820712
9208,Linn Station Road,40222,38.2268808,-85.5822514
9208,Linn Station Road,40222,38.2268941,-85.5821281
9208,Linn Station Road,40222,38.2269086,-85.5821758
9208,Linn Station Road,40222,38.2269153,-85.5822386
9208,Linn Station Road,40222,38.2269230,-85.5820890
9208,Linn Station Road,40222,38.2269450,-85.5821255
9208,Linn Station Road,40222,38.2269595,-85.5821676
9208,Linn Station Road,40222,38.2269679,-85.5822208
9208,Linn Station Road,40222,38.2269755,-85.5820765
9208,Linn Station Road,40222,38.2269899,-85.5821242
9208,Linn Station Road,40222,38.2270045,-85.5821645
9208,Linn Station Road,40222,38.2270160,-85.5822008
9208,Linn Station Road,40222,38.2271345,-85.5820433
9208,Linn Station Road,40222,38.2271546,-85.5821141
9208,Linn Station Road,40222,38.2271577,-85.5819775
9208,Linn Station Road,40222,38.2271720,-85.5820326
9208,Linn Station Road,40222,38.2271833,-85.5820899
9208,Linn Station Road,40222,38.2271910,-85.5819477
9208,Linn Station Road,40222,38.2272081,-85.5820163
9208,Linn Station Road,40222,38.2272238,-85.5820832
9208,Linn Station Road,40222,38.2272300,-85.5819371
9208,Linn Station Road,40222,38.2272473,-85.5820001
9208,Linn Station Road,40222,38.2272601,-85.5820591
9208,Linn Station Road,40222,38.2272794,-85.5819363
9208,Linn Station Road,40222,38.2272938,-85.5819857
9208,Linn Station Road,40222,38.2273051,-85.5820446
9208,Linn Station Road,40222,38.2273055,-85.5818719
9208,Linn Station Road,40222,38.2273244,-85.5819275
9208,Linn Station Road,40222,38.2273327,-85.5819807
9208,Linn Station Road,40222,38.2273485,-85.5820359
9370,Blairwood Road,40222,38.2253655,-85.5814016
9400,Blairwood Road,40222,38.2256168,-85.5813857
9220,Marlboro Circle,40222,38.2330762,-85.5809197
9200,Shelbyville Road,40222,38.2451093,-85.5798751
9108,Linn Station Road,40222,38.2288516,-85.5822480
337,Whittington Parkway,40222,38.2431494,-85.5776404
100,Liverton Lane,40222,38.2476586,-85.5980584
101,Liverton Lane,40222,38.2474520,-85.5974703
101,South Lyndon Lane,40222,38.2477556,-85.5986086
102,Liverton Lane,40222,38.2474135,-85.5981379
103,South Lyndon Lane,40222,38.2474946,-85.5986508
140,Whittington Parkway,40222,38.2452274,-85.5817945
200,Whittington Parkway,40222,38.2444759,-85.5816297
201,South Lyndon Lane,40222,38.2466407,-85.5987602
202,Liverton Court,40222,38.2463100,-85.5983607
202,South Chadwick Road,40222,38.2455365,-85.5887858
203,Liverton Court,40222,38.2462688,-85.5976634
203,South Lyndon Lane,40222,38.2460510,-85.5991384
204,South Chadwick Road,40222,38.2452955,-85.5887623
205,Liverton Court,40222,38.2461387,-85.5980363
205,South Chadwick Road,40222,38.2450426,-85.5882373
205,South Lyndon Lane,40222,38.2458929,-85.5994907
206,South Chadwick Road,40222,38.2450768,-85.5888132
207,South Chadwick Road,40222,38.2447902,-85.5882578
207,South Lyndon Lane,40222,38.2457412,-85.5996952
208,South Chadwick Road,40222,38.2448471,-85.5888367
209,South Chadwick Road,40222,38.2445369,-85.5882522
209,South Lyndon Lane,40222,38.2455856,-85.5999954
210,Oxfordshire Lane,40222,38.2450943,-85.5922399
210,South Chadwick Road,40222,38.2445884,-85.5888434
211,South Lyndon Lane,40222,38.2454312,-85.6002452
213,South Lyndon Lane,40222,38.2453215,-85.6005021
215,South Lyndon Lane,40222,38.2451309,-85.6007956
217,South Lyndon Lane,40222,38.2449302,-85.6010200
219,South Lyndon Lane,40222,38.2446981,-85.6011866
240,Whittington Parkway,40222,38.2440482,-85.5814217
300,Oxfordshire Lane,40222,38.2440627,-85.5915380
300,South Chadwick Road,40222,38.2442275,-85.5889083
301,South Lyndon Lane,40222,38.2444304,-85.6012920
302,South Chadwick Road,40222,38.2438446,-85.5890452
303,Oxfordshire Lane,40222,38.2439767,-85.5909932
303,South Chadwick Road,40222,38.2436776,-85.5884305
303,South Lyndon Lane,40222,38.2441513,-85.6013866
304,Oxfordshire Lane,40222,38.2435196,-85.5914107
305,Oxfordshire Lane,40222,38.2437724,-85.5908040
305,South Chadwick Road,40222,38.2433094,-85.5889127
305,South Lyndon Lane,40222,38.2438526,-85.6014364
306,Oxfordshire Lane,40222,38.2433328,-85.5911596
306,South Chadwick Road,40222,38.2436216,-85.5896494
307,Oxfordshire Lane,40222,38.2435832,-85.5906035
307,South Chadwick Road,40222,38.2431874,-85.5894487
308,Oxfordshire Lane,40222,38.2431589,-85.5909264
308,South Chadwick Road,40222,38.2435234,-85.5899475
309,Oxfordshire Lane,40222,38.2435098,-85.5902676
310,Oxfordshire Lane,40222,38.2429743,-85.5906235
321,Whittington Parkway,40222,38.2443090,-85.5775014
329,Whittington Parkway,40222,38.2437003,-85.5776766
333,Whittington Parkway,40222,38.2426550,-85.5776685
400,Edinburgh Place,40222,38.2428221,-85.5903689
401,Edinburgh Place,40222,38.2430395,-85.5897645
402,Edinburgh Place,40222,38.2426007,-85.5901585
403,Edinburgh Place,40222,38.2428280,-85.5895004
404,Edinburgh Place,40222,38.2424380,-85.5898775
405,Edinburgh Place,40222,38.2427243,-85.5891604
406,Edinburgh Place,40222,38.2422830,-85.5896185
407,Edinburgh Place,40222,38.2424282,-85.5888389
408,Edinburgh Place,40222,38.2422257,-85.5892265
8401,Nottingham Parkway,40222,38.2472030,-85.5986422
8402,Nottingham Parkway,40222,38.2466637,-85.5982826
8403,Nottingham Parkway,40222,38.2471850,-85.5981897
8404,Nottingham Parkway,40222,38.2465989,-85.5975457
8405,Nottingham Parkway,40222,38.2471202,-85.5975304
8406,Nottingham Parkway,40222,38.2465643,-85.5971173
8407,Nottingham Parkway,40222,38.2470840,-85.5972467
8408,Wimborne Way,40222,38.2475290,-85.5971585
8409,Nottingham Parkway,40222,38.2470549,-85.5969471
8410,Wimborne Way,40222,38.2475045,-85.5968621
8411,Nottingham Parkway,40222,38.2470491,-85.5966942
8412,Wimborne Way,40222,38.2474349,-85.5965769
8414,Wimborne Way,40222,38.2474543,-85.5962923
8500,Nottingham Parkway,40222,38.2464931,-85.5964747
8501,Nottingham Parkway,40222,38.2470347,-85.5963908
8502,Cheltenham Circle,40222,38.2462021,-85.5970670
8502,Nottingham Parkway,40222,38.2464796,-85.5961353
8502,Wimborne Way,40222,38.2474104,-85.5960016
8503,Cheltenham Circle,40222,38.2462354,-85.5962909
8503,Nottingham Parkway,40222,38.2469705,-85.5961119
8504,Cheltenham Circle,40222,38.2459554,-85.5968053
8504,Nottingham Parkway,40222,38.2464463,-85.5957393
8504,Wimborne Way,40222,38.2473943,-85.5957123
8505,Cheltenham Circle,40222,38.2460921,-85.5960520
8505,Nottingham Parkway,40222,38.2469406,-85.5958318
8506,Cheltenham Circle,40222,38.2457847,-85.5964532
8506,Nottingham Parkway,40222,38.2462227,-85.5955047
8506,Wimborne Way,40222,38.2473725,-85.5954568
8507,Cheltenham Circle,40222,38.2459715,-85.5957724
8507,Nottingham Parkway,40222,38.2469428,-85.5955258
8508,Cheltenham Circle,40222,38.2456323,-85.5961661
8508,Nottingham Parkway,40222,38.2462086,-85.5951793
8508,Wimborne Way,40222,38.2473452,-85.5951671
8509,Nottingham Parkway,40222,38.2469262,-85.5952536
8510,Cheltenham Circle,40222,38.2454846,-85.5958472
8510,Nottingham Parkway,40222,38.2463887,-85.5948584
8510,Wimborne Way,40222,38.2472917,-85.5948716
8511,Cheltenham Circle,40222,38.2458444,-85.5955072
8511,Nottingham Parkway,40222,38.2468918,-85.5949504
8512,Cheltenham Circle,40222,38.2452905,-85.5955563
8512,Nottingham Parkway,40222,38.2463355,-85.5945244
8513,Cheltenham Circle,40222,38.2458274,-85.5951840
8515,Cheltenham Circle,40222,38.2459338,-85.5949021
8517,Cheltenham Circle,40222,38.2460747,-85.5946545
8518,Cheltenham Circle,40222,38.2456780,-85.5943371
8520,Cheltenham Circle,40222,38.2458703,-85.5941261
8522,Cheltenham Circle,40222,38.2460458,-85.5939980
8600,Cheltenham Court,40222,38.2452384,-85.5951849
8600,Loftingham Court,40222,38.2441421,-85.5932007
8600,Wimborne Way,40222,38.2472213,-85.5942645
8601,Cheltenham Court,40222,38.2454585,-85.5945653
8601,Loftingham Court,40222,38.2444076,-85.5929733
8601,Nottingham Parkway,40222,38.2468467,-85.5943069
8602,Cheltenham Court,40222,38.2449640,-85.5949286
8602,Loftingham Court,40222,38.2438898,-85.5929876
8602,Wimborne Way,40222,38.2472312,-85.5939764
8603,Cheltenham Court,40222,38.2451980,-85.5943403
8603,Loftingham Court,40222,38.2444242,-85.5926193
8603,Nottingham Parkway,40222,38.2468047,-85.5940196
8604,Cheltenham Court,40222,38.2447712,-85.5945847
8604,Loftingham Court,40222,38.2438131,-85.5926176
8604,Nottingham Parkway,40222,38.2462724,-85.5937560
8604,Wimborne Way,40222,38.2471972,-85.5936894
8605,Cheltenham Court,40222,38.2449955,-85.5940431
8605,Loftingham Court,40222,38.2442281,-85.5924234
8605,Nottingham Parkway,40222,38.2468078,-85.5937608
8606,Cheltenham Court,40222,38.2445907,-85.5942930
8606,Loftingham Court,40222,38.2436639,-85.5923552
8606,Nottingham Parkway,40222,38.2462655,-85.5934091
8606,Wimborne Way,40222,38.2471977,-85.5933883
8607,Cheltenham Court,40222,38.2448517,-85.5937020
8607,Loftingham Court,40222,38.2441091,-85.5921507
8607,Nottingham Parkway,40222,38.2467708,-85.5934547
8608,Cheltenham Court,40222,38.2444004,-85.5940141
8608,Loftingham Court,40222,38.2435593,-85.5920768
8608,Nottingham Parkway,40222,38.2462173,-85.5931252
8608,Wimborne Way,40222,38.2471495,-85.5931067
8609,Cheltenham Court,40222,38.2446446,-85.5933435
8609,Loftingham Court,40222,38.2440105,-85.5918762
8609,Nottingham Parkway,40222,38.2467229,-85.5931644
8610,Cheltenham Court,40222,38.2442830,-85.5936225
8610,Loftingham Court,40222,38.2435610,-85.5917448
8610,Nottingham Parkway,40222,38.2462224,-85.5928472
8611,Nottingham Parkway,40222,38.2466967,-85.5928782
8612,Nottingham Parkway,40222,38.2461249,-85.5925231
8612,Wimborne Way,40222,38.2471278,-85.5925046
8613,Nottingham Parkway,40222,38.2466882,-85.5925849
8614,Nottingham Parkway,40222,38.2461459,-85.5922281
8614,Wimborne Way,40222,38.2470854,-85.5922263
8615,Nottingham Parkway,40222,38.2466460,-85.5922898
8616,Nottingham Parkway,40222,38.2461482,-85.5919387
8617,Nottingham Parkway,40222,38.2466606,-85.5919919
8618,Nottingham Parkway,40222,38.2461260,-85.5916201
8619,Nottingham Parkway,40222,38.2466023,-85.5917228
8620,Nottingham Parkway,40222,38.2460830,-85.5913553
8621,Nottingham Parkway,40222,38.2466103,-85.5914349
8700,Creighton Court,40222,38.2442767,-85.5909304
8700,Nottingham Parkway,40222,38.2460307,-85.5907160
8700,Storrington Court,40222,38.2451478,-85.5908353
8700,Wimborne Way,40222,38.2470783,-85.5919347
8701,Creighton Court,40222,38.2447193,-85.5908930
8701,Nottingham Parkway,40222,38.2465528,-85.5911536
8701,Storrington Court,40222,38.2456268,-85.5907743
8702,Creighton Court,40222,38.2442475,-85.5906094
8702,Nottingham Parkway,40222,38.2460011,-85.5904336
8702,Storrington Court,40222,38.2451111,-85.5905513
8703,Creighton Court,40222,38.2447083,-85.5906190
8703,Nottingham Parkway,40222,38.2465232,-85.5908663
8703,Storrington Court,40222,38.2455963,-85.5904881
8704,Creighton Court,40222,38.2441908,-85.5903342
8704,Nottingham Parkway,40222,38.2459784,-85.5901645
8704,Storrington Court,40222,38.2450729,-85.5902703
8704,Wimborne Way,40222,38.2469792,-85.5913921
8705,Creighton Court,40222,38.2446915,-85.5903342
8705,Nottingham Parkway,40222,38.2465072,-85.5905805
8705,Storrington Court,40222,38.2455493,-85.5902164
8706,Creighton Court,40222,38.2439617,-85.5899483
8706,Nottingham Parkway,40222,38.2459631,-85.5898886
8706,Storrington Court,40222,38.2450794,-85.5899994
8706,Wimborne Way,40222,38.2469753,-85.5910807
8707,Creighton Court,40222,38.2446142,-85.5900694
8707,Nottingham Parkway,40222,38.2465294,-85.5902965
8707,Storrington Court,40222,38.2456021,-85.5898625
8708,Creighton Court,40222,38.2440477,-85.5896193
8708,Nottingham Parkway,40222,38.2459410,-85.5896047
8708,Storrington Court,40222,38.2450776,-85.5896654
8708,Wimborne Way,40222,38.2469562,-85.5907789
8709,Creighton Court,40222,38.2445592,-85.5897858
8709,Nottingham Parkway,40222,38.2464712,-85.5900012
8709,Storrington Court,40222,38.2455117,-85.5895273
8710,Creighton Court,40222,38.2443394,-85.5895797
8710,Nottingham Parkway,40222,38.2459324,-85.5893172
8710,Storrington Court,40222,38.2452545,-85.5894757
8710,Wimborne Way,40222,38.2469414,-85.5904944
8712,Wimborne Way,40222,38.2469491,-85.5902291
8714,Wimborne Way,40222,38.2468662,-85.5899640
8800,Chadwick Court,40222,38.2440430,-85.5882814
8800,Nottingham Parkway,40222,38.2458700,-85.5888179
8800,Shelbyville Road,40222,38.2467489,-85.5883905
8802,Chadwick Court,40222,38.2438513,-85.5881402
8802,Nottingham Parkway,40222,38.2457811,-85.5885652
8802,Peterborough Drive,40222,38.2430613,-85.5886217
8803,Chadwick Court,40222,38.2444254,-85.5879063
8803,Peterborough Drive,40222,38.2434226,-85.5881786
8804,Chadwick Court,40222,38.2437147,-85.5878637
8804,Nottingham Parkway,40222,38.2453759,-85.5880943
8804,Peterborough Drive,40222,38.2429531,-85.5883247
8805,Chadwick Court,40222,38.2442403,-85.5876518
8805,Nottingham Parkway,40222,38.2457016,-85.5876253
8805,Peterborough Drive,40222,38.2433411,-85.5879128
8806,Chadwick Court,40222,38.2437420,-85.5875063
8806,Nottingham Parkway,40222,38.2451107,-85.5878627
8806,Peterborough Drive,40222,38.2428972,-85.5880092
8807,Chadwick Court,40222,38.2440337,-85.5874347
8807,Nottingham Parkway,40222,38.2454919,-85.5874450
8807,Peterborough Drive,40222,38.2432703,-85.5876326
8808,Nottingham Parkway,40222,38.2448824,-85.5877167
8808,Peterborough Drive,40222,38.2427910,-85.5877039
8809,Nottingham Parkway,40222,38.2452834,-85.5872717
8809,Peterborough Drive,40222,38.2432584,-85.5873591
8810,Nottingham Parkway,40222,38.2446787,-85.5874581
8810,Peterborough Drive,40222,38.2427880,-85.5874076
8811,Nottingham Parkway,40222,38.2450611,-85.5870868
8811,Peterborough Drive,40222,38.2432326,-85.5870794
8812,Nottingham Parkway,40222,38.2444677,-85.5872679
8812,Peterborough Drive,40222,38.2427092,-85.5870420
8813,Nottingham Parkway,40222,38.2448615,-85.5868698
8814,Nottingham Parkway,40222,38.2442547,-85.5871017
8815,Nottingham Parkway,40222,38.2446556,-85.5866910
8900,Nottingham Parkway,40222,38.2440448,-85.5868926
8900,Peterborough Drive,40222,38.2426808,-85.5867470
8901,Nottingham Parkway,40222,38.2444613,-85.5864735
8901,Peterborough Drive,40222,38.2431335,-85.5867987
8902,Nottingham Parkway,40222,38.2438230,-85.5867030
8902,Peterborough Drive,40222,38.2425894,-85.5863911
8903,Nottingham Parkway,40222,38.2442487,-85.5862997
8903,Peterborough Drive,40222,38.2431132,-85.5864893
8904,Nottingham Parkway,40222,38.2435971,-85.5864261
8904,Peterborough Drive,40222,38.2425391,-85.5860338
8905,Nottingham Parkway,40222,38.2440389,-85.5860856
8905,Peterborough Drive,40222,38.2430322,-85.5861321
8906,Nottingham Parkway,40222,38.2434630,-85.5861347
8906,Peterborough Drive,40222,38.2425111,-85.5857097
8907,Nottingham Parkway,40222,38.2439392,-85.5857870
8907,Peterborough Drive,40222,38.2429701,-85.5857969
8908,Nottingham Parkway,40222,38.2434238,-85.5857467
8908,Peterborough Drive,40222,38.2424963,-85.5853398
8909,Nottingham Parkway,40222,38.2439372,-85.5854676
8909,Peterborough Drive,40222,38.2429853,-85.5854174
8910,Nottingham Parkway,40222,38.2434289,-85.5853671
8911,Nottingham Parkway,40222,38.2439671,-85.5851646
8916,Marksfield Road,40222,38.2451723,-85.5849008
9000,Nottingham Parkway,40222,38.2434353,-85.5847391
9000,Peterborough Court,40222,38.2425406,-85.5850129
9001,Nottingham Parkway,40222,38.2439513,-85.5848252
9001,Peterborough Court,40222,38.2430903,-85.5847418
9002,Nottingham Parkway,40222,38.2434025,-85.5844306
9002,Peterborough Court,40222,38.2424936,-85.5846540
9003,Nottingham Parkway,40222,38.2439264,-85.5844947
9003,Peterborough Court,40222,38.2429493,-85.5843368
9004,Peterborough Court,40222,38.2426464,-85.5843220
9005,Nottingham Parkway,40222,38.2438858,-85.5842069
9007,Nottingham Parkway,40222,38.2437167,-85.5838410
9009,Nottingham Parkway,40222,38.2435005,-85.5835657
9010,Nottingham Parkway,40222,38.2432047,-85.5841091
9011,Nottingham Parkway,40222,38.2432851,-85.5833858
9012,Nottingham Parkway,40222,38.2428888,-85.5838500
9013,Nottingham Parkway,40222,38.2430860,-85.5832172
9100,Marksfield Road,40222,38.2445042,-85.5824426
9100,Nottingham Parkway,40222,38.2426810,-85.5837762
9100,Shelbyville Road,40222,38.2462269,-85.5819084
9102,Nottingham Parkway,40222,38.2423978,-85.5838164
9104,Nottingham Parkway,40222,38.2421253,-85.5838797
9106,Nottingham Parkway,40222,38.2418149,-85.5838609
9108,Nottingham Parkway,40222,38.2415426,-85.5837910
9113,Leesgate Road,40222,38.2431552,-85.5827708
9115,Leesgate Road,40222,38.2431641,-85.5822926
9117,Leesgate Road,40222,38.2433955,-85.5816486
9200,Shelbyville Road,40222,38.2450830,-85.5798457
9300,Shelbyville Road,40222,38.2460294,-85.5787112
9120,Shelbyville Road,40222,38.2461434,-85.5805778
100,South Lyndon Lane,40222,38.2477933,-85.5992623
100,South Whipps Mill Road,40222,38.2480670,-85.6033467
102,South Lyndon Lane,40222,38.2475316,-85.5992690
103,South Whipps Mill Road,40222,38.2479839,-85.6026891
104,South Lyndon Lane,40222,38.2472746,-85.5993536
104,South Whipps Mill Road,40222,38.2478500,-85.6035946
105,South Whipps Mill Road,40222,38.2477618,-85.6028553
107,South Whipps Mill Road,40222,38.2475990,-85.6030742
108,South Whipps Mill Road,40222,38.2477811,-85.6039088
109,South Whipps Mill Road,40222,38.2474737,-85.6032939
110,South Whipps Mill Road,40222,38.2477191,-85.6042031
112,South Whipps Mill Road,40222,38.2476072,-85.6044435
114,South Whipps Mill Road,40222,38.2474903,-85.6047117
115,South Whipps Mill Road,40222,38.2471331,-85.6043629
202,South Lyndon Lane,40222,38.2463847,-85.5997558
204,South Lyndon Lane,40222,38.2462346,-85.5999581
206,South Lyndon Lane,40222,38.2460979,-85.6001885
208,South Lyndon Lane,40222,38.2459857,-85.6004379
210,South Lyndon Lane,40222,38.2458712,-85.6006659
212,South Lyndon Lane,40222,38.2457252,-85.6008854
214,South Lyndon Lane,40222,38.2455568,-85.6011347
216,South Lyndon Lane,40222,38.2453982,-85.6013137
218,South Lyndon Lane,40222,38.2452427,-85.6014890
220,South Lyndon Lane,40222,38.2450228,-85.6016949
300,South Lyndon Lane,40222,38.2445177,-85.6019942
301,Buckingham Terrace,40222,38.2445945,-85.6025632
302,Buckingham Terrace,40222,38.2441522,-85.6032047
302,Canton Court,40222,38.2455674,-85.6039895
302,Paddington Court,40222,38.2442468,-85.6042848
302,South Lyndon Lane,40222,38.2442224,-85.6020113
303,Buckingham Terrace,40222,38.2442869,-85.6025741
303,Canton Court,40222,38.2453840,-85.6032907
303,Paddington Court,40222,38.2441711,-85.6037044
304,Buckingham Terrace,40222,38.2439107,-85.6033456
304,Canton Court,40222,38.2453024,-85.6038796
304,Paddington Court,40222,38.2440887,-85.6040288
304,South Lyndon Lane,40222,38.2439698,-85.6020591
305,Buckingham Terrace,40222,38.2440235,-85.6026254
305,Canton Court,40222,38.2452158,-85.6035887
306,Buckingham Terrace,40222,38.2437105,-85.6035110
306,South Lyndon Lane,40222,38.2437294,-85.6021302
307,Buckingham Terrace,40222,38.2438199,-85.6028033
308,Buckingham Terrace,40222,38.2434550,-85.6035250
308,South Lyndon Lane,40222,38.2435050,-85.6021569
309,Buckingham Terrace,40222,38.2435679,-85.6028903
310,Buckingham Terrace,40222,38.2432180,-85.6033843
310,South Lyndon Lane,40222,38.2432158,-85.6022215
311,Buckingham Terrace,40222,38.2433157,-85.6026590
312,Buckingham Terrace,40222,38.2430215,-85.6032138
312,South Lyndon Lane,40222,38.2427285,-85.6022818
313,Buckingham Terrace,40222,38.2429680,-85.6025947
314,Buckingham Terrace,40222,38.2428343,-85.6029787
8004,Shelbyville Road,40222,38.2483433,-85.6055668
8016,Shelbyville Road,40222,38.2480609,-85.6049393
8200,Camberley Drive,40222,38.2471526,-85.6041142
8200,Paddington Drive,40222,38.2458529,-85.6056279
8200,Tillman Road,40222,38.2481876,-85.6043485
8201,Camberley Drive,40222,38.2473342,-85.6035700
8201,Nottingham Parkway,40222,38.2461107,-85.6055899
8202,Camberley Drive,40222,38.2469350,-85.6038472
8202,Paddington Drive,40222,38.2456595,-85.6054283
8202,Tillman Road,40222,38.2481439,-85.6040805
8203,Camberley Drive,40222,38.2471675,-85.6032777
8203,Nottingham Parkway,40222,38.2461988,-85.6053337
8203,Paddington Drive,40222,38.2456691,-85.6047262
8204,Camberley Drive,40222,38.2467896,-85.6036235
8204,Nottingham Parkway,40222,38.2458975,-85.6048414
8204,Paddington Drive,40222,38.2452698,-85.6050648
8204,Tillman Road,40222,38.2481396,-85.6037246
8205,Camberley Drive,40222,38.2470331,-85.6029991
8205,Nottingham Parkway,40222,38.2463089,-85.6050954
8205,Paddington Drive,40222,38.2454908,-85.6045847
8206,Camberley Drive,40222,38.2467135,-85.6033922
8206,Nottingham Parkway,40222,38.2460744,-85.6045788
8206,Paddington Drive,40222,38.2450618,-85.6049273
8207,Camberley Drive,40222,38.2469127,-85.6027551
8207,Nottingham Parkway,40222,38.2464481,-85.6048536
8207,Paddington Drive,40222,38.2453160,-85.6044289
8208,Camberley Drive,40222,38.2465052,-85.6031349
8208,Paddington Drive,40222,38.2448821,-85.6047593
8209,Camberley Drive,40222,38.2467712,-85.6025263
8209,Nottingham Parkway,40222,38.2466269,-85.6045672
8209,Paddington Drive,40222,38.2451198,-85.6042507
8210,Camberley Drive,40222,38.2463848,-85.6028120
8210,Nottingham Parkway,40222,38.2461143,-85.6042579
8210,Paddington Drive,40222,38.2446915,-85.6045879
8211,Camberley Drive,40222,38.2466680,-85.6022962
8211,Nottingham Parkway,40222,38.2466070,-85.6042388
8211,Paddington Drive,40222,38.2449367,-85.6040043
8212,Camberley Drive,40222,38.2462057,-85.6025098
8212,Nottingham Parkway,40222,38.2459698,-85.6039846
8212,Paddington Drive,40222,38.2445296,-85.6043030
8213,Camberley Drive,40222,38.2464918,-85.6020741
8213,Nottingham Parkway,40222,38.2465115,-85.6039772
8213,Paddington Drive,40222,38.2449042,-85.6036603
8214,Camberley Drive,40222,38.2460021,-85.6023104
8214,Nottingham Parkway,40222,38.2458728,-85.6037118
8214,Paddington Drive,40222,38.2444048,-85.6035113
8215,Camberley Drive,40222,38.2462768,-85.6018349
8215,Nottingham Parkway,40222,38.2463980,-85.6037237
8215,Paddington Drive,40222,38.2448886,-85.6033487
8216,Paddington Drive,40222,38.2444441,-85.6032015
8217,Nottingham Parkway,40222,38.2462837,-85.6034791
8217,Paddington Drive,40222,38.2450180,-85.6030226
8218,Nottingham Parkway,40222,38.2456020,-85.6031282
8219,Nottingham Parkway,40222,38.2461725,-85.6032250
8219,Paddington Drive,40222,38.2451011,-85.6026301
8220,Nottingham Parkway,40222,38.2454600,-85.6027957
8221,Nottingham Parkway,40222,38.2460203,-85.6029568
8222,Nottingham Parkway,40222,38.2454740,-85.6025233
8223,Nottingham Parkway,40222,38.2459637,-85.6026279
8223,Paddington Drive,40222,38.2451130,-85.6023517
8224,Nottingham Parkway,40222,38.2455073,-85.6022096
8224,Paddington Drive,40222,38.2445951,-85.6023204
8225,Paddington Drive,40222,38.2450812,-85.6020591
8226,Nottingham Parkway,40222,38.2456295,-85.6019304
8300,Nottingham Parkway,40222,38.2457979,-85.6016069
8302,Nottingham Parkway,40222,38.2460256,-85.6012465
8302,Shelbyville Road,40222,38.2478139,-85.5998763
8303,Nottingham Parkway,40222,38.2463950,-85.6015543
8304,Nottingham Parkway,40222,38.2462308,-85.6009679
8306,Nottingham Parkway,40222,38.2464651,-85.6006991
8308,Nottingham Parkway,40222,38.2466785,-85.6005416
8309,Nottingham Parkway,40222,38.2472668,-85.6005118
8311,Nottingham Parkway,40222,38.2472831,-85.6002477
8312,Nottingham Parkway,40222,38.2468381,-85.6002109
8313,Nottingham Parkway,40222,38.2472518,-85.5999842
8314,Nottingham Parkway,40222,38.2468147,-85.5999054
8315,Nottingham Parkway,40222,38.2472529,-85.5996551
8316,Nottingham Parkway,40222,38.2467223,-85.5995745
8305,Nottingham Parkway,40222,38.2474013,-85.6016720
1,Muirfield Place,40222,38.2405841,-85.5837048
10,Muirfield Place,40222,38.2406342,-85.5855551
1001,Colonel Anderson Parkway,40222,38.2334722,-85.5917272
1003,Colonel Anderson Parkway,40222,38.2332141,-85.5915105
1005,Colonel Anderson Parkway,40222,38.2329158,-85.5912590
1007,Gateshead Court,40222,38.2330010,-85.5908323
1009,Gateshead Court,40222,38.2327991,-85.5905453
1011,Colonel Anderson Parkway,40222,38.2324648,-85.5904154
1013,Colonel Anderson Parkway,40222,38.2323695,-85.5901139
1015,Colonel Anderson Parkway,40222,38.2322500,-85.5897868
1017,Colonel Anderson Parkway,40222,38.2321418,-85.5894510
1019,Colonel Anderson Parkway,40222,38.2319456,-85.5891554
1021,Colonel Anderson Parkway,40222,38.2317130,-85.5888786
11,Muirfield Place,40222,38.2406415,-85.5852426
1101,Colonel Anderson Parkway,40222,38.2314426,-85.5886600
1102,Rugby Court,40222,38.2300962,-85.5840261
1103,Colonel Anderson Parkway,40222,38.2312091,-85.5884349
1103,Rugby Court,40222,38.2303859,-85.5835677
1105,Colonel Anderson Parkway,40222,38.2309376,-85.5881847
1107,Colonel Anderson Parkway,40222,38.2307057,-85.5880032
1109,Colonel Anderson Parkway,40222,38.2304580,-85.5878104
1111,Colonel Anderson Parkway,40222,38.2302556,-85.5875672
1113,Colonel Anderson Parkway,40222,38.2299469,-85.5873587
1115,Colonel Anderson Parkway,40222,38.2297222,-85.5871105
1117,Colonel Anderson Parkway,40222,38.2294981,-85.5869989
12,Muirfield Place,40222,38.2406436,-85.5849441
13,Muirfield Place,40222,38.2406210,-85.5846643
14,Muirfield Place,40222,38.2406891,-85.5842820
2,Muirfield Place,40222,38.2404145,-85.5840281
3,Muirfield Place,40222,38.2403648,-85.5842521
304,Whittington Parkway,40222,38.2430114,-85.5807688
310,Whittington Parkway,40222,38.2420372,-85.5806485
312,Whittington Parkway,40222,38.2423466,-85.5797357
320,Whittington Parkway,40222,38.2418166,-85.5787735
330,Whittington Parkway,40222,38.2417444,-85.5774861
340,Whittington Parkway,40222,38.2412883,-85.5778332
4,Muirfield Place,40222,38.2401486,-85.5845180
401,Colonel Anderson Parkway,40222,38.2424252,-85.6016260
403,Colonel Anderson Parkway,40222,38.2422703,-85.6011704
405,Colonel Anderson Parkway,40222,38.2421306,-85.6007266
420,South Hurstbourne Parkway,40222,38.2401785,-85.5775063
5,Muirfield Place,40222,38.2400521,-85.5847304
500,Croydon Court,40222,38.2435132,-85.5966906
500,Nottingham Parkway,40222,38.2400101,-85.5827044
500,Seaton Springs Court,40222,38.2373096,-85.5846729
500,South Hurstbourne Parkway,40222,38.2392347,-85.5777487
501,Colonel Anderson Parkway,40222,38.2419161,-85.5999819
501,Croydon Court,40222,38.2432281,-85.5960766
501,Leicester Circle,40222,38.2362921,-85.5826057
501,Nottingham Parkway,40222,38.2404035,-85.5821153
501,Seaton Springs Court,40222,38.2373666,-85.5843187
502,Croydon Court,40222,38.2434368,-85.5971108
502,Leicester Circle,40222,38.2366477,-85.5821173
502,Nottingham Parkway,40222,38.2397591,-85.5824480
502,Seaton Springs Court,40222,38.2369234,-85.5848694
502,Westerham Court,40222,38.2385641,-85.5840343
503,Colonel Anderson Parkway,40222,38.2417272,-85.5994836
503,Croydon Court,40222,38.2429161,-85.5965274
503,Leicester Circle,40222,38.2366483,-85.5828022
503,Nottingham Parkway,40222,38.2401604,-85.5819573
503,Seaton Springs Court,40222,38.2369942,-85.5841312
503,Westerham Court,40222,38.2389495,-85.5836325
504,Croydon Court,40222,38.2432313,-85.5974955
504,Leicester Circle,40222,38.2368623,-85.5822888
504,Nottingham Parkway,40222,38.2395539,-85.5822096
504,Westerham Court,40222,38.2384048,-85.5837545
505,Colonel Anderson Parkway,40222,38.2414578,-85.5991092
505,Leicester Circle,40222,38.2368996,-85.5829186
505,Nottingham Parkway,40222,38.2399643,-85.5817569
506,Leicester Circle,40222,38.2370999,-85.5824305
506,Nottingham Parkway,40222,38.2393770,-85.5820431
506,Westerham Court,40222,38.2384319,-85.5834666
507,Leicester Circle,40222,38.2371407,-85.5830632
507,Nottingham Parkway,40222,38.2397701,-85.5815516
507,Westerham Court,40222,38.2390787,-85.5832640
508,Leicester Circle,40222,38.2373374,-85.5825416
508,Nottingham Parkway,40222,38.2391871,-85.5817898
508,Westerham Court,40222,38.2385666,-85.5831818
509,Leicester Circle,40222,38.2373749,-85.5832219
509,Nottingham Parkway,40222,38.2395771,-85.5813369
509,Westerham Court,40222,38.2392590,-85.5830207
510,Nottingham Parkway,40222,38.2389986,-85.5816116
510,Westerham Court,40222,38.2387049,-85.5828808
511,Leicester Circle,40222,38.2376549,-85.5832492
511,Nottingham Parkway,40222,38.2393909,-85.5811207
511,Westerham Court,40222,38.2392016,-85.5826498
512,Nottingham Parkway,40222,38.2388121,-85.5813692
512,Westerham Court,40222,38.2389435,-85.5825550
513,Leicester Circle,40222,38.2379164,-85.5831573
513,Nottingham Parkway,40222,38.2392343,-85.5808651
514,Leicester Circle,40222,38.2377472,-85.5824639
514,Nottingham Parkway,40222,38.2386268,-85.5811399
515,Leicester Circle,40222,38.2380529,-85.5828335
515,Nottingham Parkway,40222,38.2390367,-85.5806697
516,Leicester Circle,40222,38.2378757,-85.5820709
516,Nottingham Parkway,40222,38.2384641,-85.5808630
517,Leicester Circle,40222,38.2382220,-85.5825934
517,Nottingham Parkway,40222,38.2388663,-85.5804304
518,Nottingham Parkway,40222,38.2382787,-85.5806406
519,Leicester Circle,40222,38.2383378,-85.5823087
519,Nottingham Parkway,40222,38.2386994,-85.5801881
520,Leicester Circle,40222,38.2376893,-85.5816097
520,Nottingham Parkway,40222,38.2381285,-85.5803543
521,Leicester Circle,40222,38.2383935,-85.5819497
521,Nottingham Parkway,40222,38.2385382,-85.5799033
522,Nottingham Parkway,40222,38.2379629,-85.5801283
523,Leicester Circle,40222,38.2382990,-85.5816138
523,Nottingham Parkway,40222,38.2383607,-85.5796490
524,Nottingham Parkway,40222,38.2378016,-85.5798869
525,Leicester Circle,40222,38.2380998,-85.5813714
525,Nottingham Parkway,40222,38.2382297,-85.5794110
526,Nottingham Parkway,40222,38.2376407,-85.5796217
527,Leicester Circle,40222,38.2379480,-85.5811604
527,Nottingham Parkway,40222,38.2380467,-85.5792025
528,Nottingham Parkway,40222,38.2374769,-85.5794076
529,Leicester Circle,40222,38.2377826,-85.5809140
529,Nottingham Parkway,40222,38.2378722,-85.5789251
530,Leicester Circle,40222,38.2372406,-85.5809682
531,Leicester Circle,40222,38.2376110,-85.5806621
531,Nottingham Parkway,40222,38.2376840,-85.5787153
532,Leicester Circle,40222,38.2370531,-85.5806419
533,Leicester Circle,40222,38.2374848,-85.5804131
534,Leicester Circle,40222,38.2368467,-85.5803695
535,Leicester Circle,40222,38.2373041,-85.5801645
536,Leicester Circle,40222,38.2366334,-85.5801978
537,Leicester Circle,40222,38.2371343,-85.5798846
539,Leicester Circle,40222,38.2368837,-85.5797142
541,Leicester Circle,40222,38.2366175,-85.5795586
6,Muirfield Place,40222,38.2399054,-85.5849927
600,Hatherleigh Lane,40222,38.2376595,-85.5862829
600,Nottingham Parkway,40222,38.2372812,-85.5792634
601,Colonel Anderson Parkway,40222,38.2410361,-85.5985639
602,Hatherleigh Lane,40222,38.2380782,-85.5866768
602,Nottingham Parkway,40222,38.2370791,-85.5791093
603,Colonel Anderson Parkway,40222,38.2408466,-85.5982995
603,Hatherleigh Lane,40222,38.2383353,-85.5860416
604,Nottingham Parkway,40222,38.2368670,-85.5789427
605,Colonel Anderson Parkway,40222,38.2405270,-85.5979902
605,Hatherleigh Lane,40222,38.2386308,-85.5862749
605,Nottingham Parkway,40222,38.2353648,-85.5778179
606,Nottingham Parkway,40222,38.2366377,-85.5788966
607,Colonel Anderson Parkway,40222,38.2402867,-85.5977973
607,Hatherleigh Lane,40222,38.2389290,-85.5869574
607,Nottingham Parkway,40222,38.2351426,-85.5777279
608,Hatherleigh Lane,40222,38.2386346,-85.5875431
609,Nottingham Parkway,40222,38.2348483,-85.5776492
610,Hatherleigh Lane,40222,38.2389189,-85.5877558
611,Hatherleigh Lane,40222,38.2393062,-85.5872604
611,Nottingham Parkway,40222,38.2346289,-85.5776647
612,Hatherleigh Lane,40222,38.2392490,-85.5879094
614,Hatherleigh Lane,40222,38.2396038,-85.5879829
615,Hatherleigh Lane,40222,38.2397217,-85.5872056
616,Hatherleigh Lane,40222,38.2400025,-85.5878968
617,Hatherleigh Lane,40222,38.2398283,-85.5867282
618,Hatherleigh Lane,40222,38.2403056,-85.5876049
619,Hatherleigh Lane,40222,38.2401797,-85.5865118
620,Hatherleigh Lane,40222,38.2404871,-85.5871837
621,Hatherleigh Lane,40222,38.2404593,-85.5868198
7,Muirfield Place,40222,38.2400250,-85.5852656
700,Nottingham Parkway,40222,38.2343178,-85.5784344
701,Colonel Anderson Parkway,40222,38.2397731,-85.5974120
701,Nottingham Parkway,40222,38.2343414,-85.5776546
701,Salford Court,40222,38.2411012,-85.5953143
702,Nottingham Parkway,40222,38.2340868,-85.5783673
702,Rugby Place,40222,38.2325613,-85.5878134
703,Cadogan Way,40222,38.2351694,-85.5803461
703,Colonel Anderson Parkway,40222,38.2395434,-85.5972122
703,Nottingham Parkway,40222,38.2340562,-85.5776211
703,Rugby Place,40222,38.2327857,-85.5869886
704,Cadogan Court,40222,38.2350043,-85.5809882
704,Nottingham Parkway,40222,38.2338138,-85.5784545
705,Colonel Anderson Parkway,40222,38.2393324,-85.5970195
705,Nottingham Parkway,40222,38.2337982,-85.5777198
706,Cadogan Court,40222,38.2346098,-85.5808927
706,Nottingham Parkway,40222,38.2335445,-85.5784936
707,Colonel Anderson Parkway,40222,38.2388905,-85.5966397
707,Nottingham Parkway,40222,38.2335038,-85.5777516
708,Cadogan Court,40222,38.2344098,-85.5805011
708,Nottingham Parkway,40222,38.2332115,-85.5786261
709,Cadogan Court,40222,38.2346596,-85.5798870
709,Colonel Anderson Parkway,40222,38.2385917,-85.5963947
709,Nottingham Parkway,40222,38.2331411,-85.5778798
710,Cadogan Court,40222,38.2341746,-85.5801919
710,Nottingham Parkway,40222,38.2328066,-85.5788484
711,Cadogan Court,40222,38.2344746,-85.5792564
711,Colonel Anderson Parkway,40222,38.2383520,-85.5961753
711,Nottingham Parkway,40222,38.2326247,-85.5781914
712,Cadogan Court,40222,38.2340297,-85.5798869
713,Cadogan Court,40222,38.2341425,-85.5791855
713,Colonel Anderson Parkway,40222,38.2380888,-85.5959697
713,Nottingham Parkway,40222,38.2323652,-85.5783384
714,Cadogan Court,40222,38.2338831,-85.5794689
715,Colonel Anderson Parkway,40222,38.2378641,-85.5957510
8,Muirfield Place,40222,38.2402020,-85.5854440
800,Nottingham Parkway,40222,38.2323345,-85.5791999
800,Rugby Place,40222,38.2317503,-85.5877647
8000,Laughton Lane,40222,38.2378689,-85.5895121
8001,Laughton Lane,40222,38.2382096,-85.5894633
8002,Laughton Lane,40222,38.2374599,-85.5895388
8003,Laughton Lane,40222,38.2384210,-85.5890627
8004,Laughton Lane,40222,38.2372661,-85.5891402
8005,Laughton Lane,40222,38.2383148,-85.5886258
8006,Laughton Lane,40222,38.2373767,-85.5886656
8007,Laughton Lane,40222,38.2379048,-85.5885289
8008,Laughton Lane,40222,38.2374008,-85.5882467
8009,Laughton Lane,40222,38.2379798,-85.5881143
801,Colonel Anderson Parkway,40222,38.2376644,-85.5955715
801,Nottingham Parkway,40222,38.2321235,-85.5784927
801,Rugby Place,40222,38.2317062,-85.5868527
8010,Laughton Lane,40222,38.2374477,-85.5878625
802,Nottingham Parkway,40222,38.2320857,-85.5792974
802,Rugby Place,40222,38.2312280,-85.5875668
803,Colonel Anderson Parkway,40222,38.2374407,-85.5953603
803,Nottingham Parkway,40222,38.2316227,-85.5786403
804,Nottingham Parkway,40222,38.2317979,-85.5794556
804,Rugby Place,40222,38.2308744,-85.5873151
805,Colonel Anderson Parkway,40222,38.2372108,-85.5951595
805,Nottingham Parkway,40222,38.2313429,-85.5787332
805,Rugby Place,40222,38.2311334,-85.5866364
806,Nottingham Parkway,40222,38.2312737,-85.5795243
806,Rugby Place,40222,38.2304549,-85.5868889
807,Colonel Anderson Parkway,40222,38.2370024,-85.5950006
807,Nottingham Parkway,40222,38.2310652,-85.5787404
808,Nottingham Parkway,40222,38.2308550,-85.5795580
808,Rugby Place,40222,38.2302608,-85.5863137
809,Colonel Anderson Parkway,40222,38.2367695,-85.5948034
809,Nottingham Parkway,40222,38.2305030,-85.5788694
809,Rugby Place,40222,38.2308548,-85.5861951
810,Rugby Place,40222,38.2301602,-85.5857001
811,Colonel Anderson Parkway,40222,38.2365534,-85.5946013
811,Nottingham Parkway,40222,38.2302653,-85.5788950
811,Rugby Place,40222,38.2308073,-85.5855426
812,Rugby Place,40222,38.2301381,-85.5849890
813,Colonel Anderson Parkway,40222,38.2362794,-85.5943764
813,Rugby Place,40222,38.2308406,-85.5849961
814,Rugby Place,40222,38.2303636,-85.5844764
815,Colonel Anderson Parkway,40222,38.2360988,-85.5941912
815,Rugby Place,40222,38.2310822,-85.5845501
816,Rugby Place,40222,38.2308617,-85.5836600
817,Colonel Anderson Parkway,40222,38.2358622,-85.5939905
817,Rugby Place,40222,38.2313793,-85.5841922
818,Rugby Place,40222,38.2311894,-85.5833248
819,Rugby Place,40222,38.2317579,-85.5838569
820,Rugby Place,40222,38.2316857,-85.5828734
821,Rugby Place,40222,38.2320725,-85.5834449
8302,Cheshire Way,40222,38.2391619,-85.5962165
8302,Salford Way,40222,38.2399844,-85.5969323
8303,Cheshire Way,40222,38.2395376,-85.5965702
8303,Croydon Circle,40222,38.2424964,-85.6003036
8303,Salford Way,40222,38.2404185,-85.5972704
8304,Cheshire Way,40222,38.2392643,-85.5958102
8304,Salford Way,40222,38.2401246,-85.5965115
8305,Cheshire Way,40222,38.2396995,-85.5963126
8305,Croydon Circle,40222,38.2426849,-85.5998939
8305,Salford Way,40222,38.2405062,-85.5968671
8306,Croydon Circle,40222,38.2422888,-85.5994960
8306,Salford Way,40222,38.2402699,-85.5960276
8307,Cheshire Way,40222,38.2398058,-85.5959302
8307,Croydon Circle,40222,38.2428240,-85.5995132
8307,Salford Way,40222,38.2406736,-85.5964682
8308,Croydon Circle,40222,38.2423730,-85.5991391
8308,Salford Way,40222,38.2403825,-85.5956538
8309,Cheshire Way,40222,38.2398135,-85.5955408
8309,Croydon Circle,40222,38.2429473,-85.5991523
8309,Salford Way,40222,38.2407891,-85.5960577
8310,Cheshire Way,40222,38.2395611,-85.5953151
8310,Croydon Circle,40222,38.2425112,-85.5987191
8310,Salford Way,40222,38.2403200,-85.5952984
8311,Croydon Circle,40222,38.2431149,-85.5987794
8311,Salford Way,40222,38.2408851,-85.5956721
8312,Croydon Circle,40222,38.2426082,-85.5982140
8312,Salford Way,40222,38.2400997,-85.5949572
8313,Croydon Circle,40222,38.2431334,-85.5983041
8313,Salford Way,40222,38.2407084,-85.5945771
8314,Croydon Circle,40222,38.2426408,-85.5976934
8314,Salford Way,40222,38.2398407,-85.5947235
8315,Croydon Circle,40222,38.2431819,-85.5979318
8315,Salford Way,40222,38.2405594,-85.5942453
8316,Salford Way,40222,38.2399644,-85.5942563
8317,Salford Way,40222,38.2402209,-85.5938398
8319,Croydon Circle,40222,38.2426702,-85.5968637
8321,Croydon Circle,40222,38.2423364,-85.5969366
8323,Croydon Circle,40222,38.2419911,-85.5972425
8324,Croydon Circle,40222,38.2422272,-85.5979283
8325,Croydon Circle,40222,38.2418018,-85.5975801
8326,Croydon Circle,40222,38.2420001,-85.5982809
8327,Croydon Circle,40222,38.2415769,-85.5979267
8328,Croydon Circle,40222,38.2418015,-85.5986058
8329,Croydon Circle,40222,38.2414281,-85.5982010
8800,Denington Drive,40222,38.2359405,-85.5907302
8801,Denington Drive,40222,38.2363905,-85.5907682
8802,Denington Drive,40222,38.2358344,-85.5902302
8803,Denington Drive,40222,38.2365074,-85.5901583
8804,Denington Drive,40222,38.2358096,-85.5897779
8805,Denington Drive,40222,38.2364815,-85.5896272
8806,Denington Drive,40222,38.2357935,-85.5892920
8807,Denington Drive,40222,38.2365363,-85.5892060
8808,Denington Drive,40222,38.2359420,-85.5888372
8809,Denington Drive,40222,38.2366198,-85.5887924
8810,Denington Drive,40222,38.2361107,-85.5882166
8811,Denington Drive,40222,38.2366916,-85.5883020
8900,Cromwell Hill Road,40222,38.2326243,-85.5886390
8900,Denington Drive,40222,38.2361300,-85.5878009
8901,Ayrshire Avenue,40222,38.2321264,-85.5884874
8901,Cromwell Hill Road,40222,38.2326192,-85.5894100
8901,Denington Drive,40222,38.2367641,-85.5878540
8902,Cromwell Hill Road,40222,38.2334795,-85.5887326
8902,Denington Drive,40222,38.2361193,-85.5872557
8903,Cromwell Hill Road,40222,38.2332354,-85.5897607
8903,Denington Drive,40222,38.2368991,-85.5874156
8904,Ayrshire Avenue,40222,38.2314767,-85.5861864
8905,Ayrshire Avenue,40222,38.2323805,-85.5865112
8906,Ayrshire Avenue,40222,38.2313809,-85.5855397
8906,Cromwell Hill Road,40222,38.2335476,-85.5880025
8907,Ayrshire Avenue,40222,38.2321932,-85.5857908
8908,Ayrshire Avenue,40222,38.2316689,-85.5848164
8910,Ayrshire Avenue,40222,38.2321176,-85.5844898
8910,Cromwell Hill Road,40222,38.2334488,-85.5869713
8912,Ayrshire Avenue,40222,38.2325656,-85.5841261
8914,Ayrshire Avenue,40222,38.2327444,-85.5836326
8914,Cromwell Hill Road,40222,38.2333999,-85.5862989
8915,Cromwell Hill Road,40222,38.2340468,-85.5857673
8916,Ayrshire Avenue,40222,38.2326418,-85.5830310
8916,Cromwell Hill Road,40222,38.2330209,-85.5858257
8917,Cromwell Hill Road,40222,38.2336249,-85.5852600
8918,Cromwell Hill Road,40222,38.2325881,-85.5853501
8919,Cromwell Hill Road,40222,38.2331875,-85.5847714
9,Muirfield Place,40222,38.2406377,-85.5858273
900,Nottingham Parkway,40222,38.2302801,-85.5795782
900,Rugby Place,40222,38.2322506,-85.5822981
9000,Hurstbourne Club Lane,40222,38.2395805,-85.5904336
9000,Laughton Lane,40222,38.2377509,-85.5871447
9000,Seaton Springs Parkway,40222,38.2362195,-85.5868525
9000,Wessex Place,40222,38.2408274,-85.5800818
9001,Denington Drive,40222,38.2372617,-85.5869359
9001,Laughton Lane,40222,38.2383320,-85.5873021
9001,Seaton Springs Parkway,40222,38.2368778,-85.5862367
9002,Denington Drive,40222,38.2371326,-85.5859809
9002,Hurstbourne Club Lane,40222,38.2392037,-85.5892999
9003,Denington Drive,40222,38.2374669,-85.5865835
9003,Linn Station Road,40222,38.2295754,-85.5864915
9003,Seaton Springs Parkway,40222,38.2365853,-85.5858134
9004,Denington Drive,40222,38.2373451,-85.5856696
9004,Hurstbourne Club Lane,40222,38.2392744,-85.5887102
9005,Laughton Lane,40222,38.2390742,-85.5866291
9005,Linn Station Road,40222,38.2296999,-85.5861283
9005,Seaton Springs Parkway,40222,38.2365013,-85.5853749
9006,Denington Drive,40222,38.2375356,-85.5853217
9006,Laughton Lane,40222,38.2388576,-85.5858277
9007,Denington Drive,40222,38.2380283,-85.5856677
9007,Laughton Lane,40222,38.2394020,-85.5862379
9007,Linn Station Road,40222,38.2296958,-85.5856923
9007,Seaton Springs Parkway,40222,38.2365039,-85.5848634
9008,Denington Drive,40222,38.2377908,-85.5849457
9008,Laughton Lane,40222,38.2391779,-85.5855818
9009,Denington Drive,40222,38.2383448,-85.5853093
9009,Laughton Lane,40222,38.2394289,-85.5858203
9009,Linn Station Road,40222,38.2296838,-85.5853470
901,Colonel Anderson Parkway,40222,38.2356495,-85.5938282
901,Rugby Place,40222,38.2332793,-85.5825705
9010,Denington Drive,40222,38.2381350,-85.5846826
9011,Denington Drive,40222,38.2387335,-85.5851155
9011,Linn Station Road,40222,38.2296982,-85.5850344
9013,Linn Station Road,40222,38.2296593,-85.5846365
9015,Linn Station Road,40222,38.2296132,-85.5842497
902,Nottingham Parkway,40222,38.2300223,-85.5796032
902,Rugby Place,40222,38.2328313,-85.5818588
903,Albemarle Court,40222,38.2318953,-85.5820085
903,Colonel Anderson Parkway,40222,38.2354655,-85.5936391
904,Albemarle Court,40222,38.2314298,-85.5824737
904,Nottingham Parkway,40222,38.2297695,-85.5796338
904,Rugby Place,40222,38.2333187,-85.5816210
905,Albemarle Court,40222,38.2315340,-85.5817533
905,Colonel Anderson Parkway,40222,38.2352451,-85.5934198
905,Rugby Place,40222,38.2338467,-85.5823697
906,Nottingham Parkway,40222,38.2294764,-85.5796933
906,Rugby Place,40222,38.2338447,-85.5815788
907,Albemarle Court,40222,38.2311560,-85.5818126
907,Colonel Anderson Parkway,40222,38.2350646,-85.5931923
907,Rugby Place,40222,38.2343846,-85.5823535
908,Albemarle Court,40222,38.2310167,-85.5825748
908,Rugby Place,40222,38.2343314,-85.5815824
909,Albemarle Court,40222,38.2308479,-85.5818671
909,Colonel Anderson Parkway,40222,38.2348050,-85.5928775
909,Rugby Place,40222,38.2348958,-85.5824761
910,Albemarle Court,40222,38.2307192,-85.5826452
910,Rugby Place,40222,38.2351399,-85.5816339
9100,Denington Drive,40222,38.2388193,-85.5843656
9100,Leicester Court,40222,38.2370946,-85.5813250
9101,Denington Drive,40222,38.2393840,-85.5847469
9101,Leicester Court,40222,38.2371214,-85.5816624
9101,Linn Station Road,40222,38.2295908,-85.5839178
9101,Nottingham Parkway,40222,38.2423590,-85.5831817
9101,Seaton Springs Parkway,40222,38.2364848,-85.5840494
9102,Denington Drive,40222,38.2393409,-85.5839823
9103,Denington Drive,40222,38.2395978,-85.5845755
9103,Leicester Court,40222,38.2373531,-85.5817589
9103,Linn Station Road,40222,38.2295718,-85.5835398
9103,Nottingham Parkway,40222,38.2421199,-85.5831943
9103,Seaton Springs Parkway,40222,38.2364092,-85.5835786
9104,Denington Drive,40222,38.2395722,-85.5836982
9105,Denington Drive,40222,38.2397771,-85.5842829
9105,Linn Station Road,40222,38.2294834,-85.5831582
9105,Nottingham Parkway,40222,38.2418445,-85.5831796
9106,Denington Drive,40222,38.2397244,-85.5833997
9107,Denington Drive,40222,38.2399568,-85.5840576
9107,Linn Station Road,40222,38.2294939,-85.5828671
9107,Nottingham Parkway,40222,38.2415493,-85.5830567
9108,Denington Drive,40222,38.2398625,-85.5831144
9109,Denington Drive,40222,38.2400865,-85.5837404
9109,Linn Station Road,40222,38.2294455,-85.5824406
9109,Nottingham Parkway,40222,38.2411285,-85.5828612
911,Albemarle Court,40222,38.2305475,-85.5819862
911,Colonel Anderson Parkway,40222,38.2344752,-85.5926112
911,Rugby Place,40222,38.2354261,-85.5827078
9110,Leesgate Road,40222,38.2427024,-85.5815967
9110,Nottingham Parkway,40222,38.2404538,-85.5831697
9111,Denington Drive,40222,38.2402744,-85.5834579
9111,Linn Station Road,40222,38.2293752,-85.5821451
9111,Nottingham Parkway,40222,38.2408303,-85.5825324
9112,Leesgate Road,40222,38.2424093,-85.5815508
9113,Linn Station Road,40222,38.2293496,-85.5818050
9114,Leesgate Road,40222,38.2421085,-85.5815366
9116,Leesgate Road,40222,38.2418010,-85.5814946
912,Albemarle Court,40222,38.2304086,-85.5827206
912,Rugby Place,40222,38.2356096,-85.5817442
913,Albemarle Court,40222,38.2302469,-85.5820528
913,Colonel Anderson Parkway,40222,38.2342170,-85.5923819
914,Albemarle Court,40222,38.2300251,-85.5827068
915,Albemarle Court,40222,38.2299254,-85.5822989
915,Colonel Anderson Parkway,40222,38.2339659,-85.5921508
917,Colonel Anderson Parkway,40222,38.2337033,-85.5919610
9200,Leesgate Road,40222,38.2419195,-85.5825238
9200,Whitegate Court,40222,38.2297451,-85.5803169
9201,Linn Station Road,40222,38.2293356,-85.5814110
9201,Seaton Springs Parkway,40222,38.2363395,-85.5819046
9201,Whitegate Court,40222,38.2297601,-85.5806482
9202,Marlboro Circle,40222,38.2313505,-85.5799202
9202,Seaton Springs Parkway,40222,38.2356545,-85.5811643
9203,Linn Station Road,40222,38.2292997,-85.5810999
9203,Seaton Springs Parkway,40222,38.2363340,-85.5814234
9203,Whitegate Court,40222,38.2298863,-85.5809177
9204,Marlboro Circle,40222,38.2313385,-85.5802412
9204,Seaton Springs Parkway,40222,38.2356468,-85.5807431
9204,Whitegate Court,40222,38.2299593,-85.5801589
9205,Linn Station Road,40222,38.2292807,-85.5807584
9205,Marlboro Circle,40222,38.2317889,-85.5799644
9205,Seaton Springs Parkway,40222,38.2362980,-85.5810877
9205,Whitegate Court,40222,38.2300360,-85.5810535
9206,Marlboro Circle,40222,38.2314034,-85.5805879
9206,Seaton Springs Parkway,40222,38.2356007,-85.5802725
9207,Seaton Springs Parkway,40222,38.2362873,-85.5807033
9207,Whitegate Court,40222,38.2303084,-85.5811155
9208,Marlboro Circle,40222,38.2315150,-85.5809216
9208,Whitegate Court,40222,38.2303428,-85.5803606
9209,Seaton Springs Parkway,40222,38.2363270,-85.5802042
9209,Whitegate Court,40222,38.2305826,-85.5811131
9210,Marlboro Circle,40222,38.2317539,-85.5810525
9211,Seaton Springs Parkway,40222,38.2362893,-85.5794340
9211,Whitegate Court,40222,38.2307698,-85.5808579
9212,Marlboro Circle,40222,38.2320275,-85.5810314
9212,Reigate Court,40222,38.2303971,-85.5783101
9212,Whitegate Court,40222,38.2303450,-85.5800059
9213,Marlboro Circle,40222,38.2318973,-85.5804596
9213,Parkington Court,40222,38.2318832,-85.5778323
9213,Reigate Court,40222,38.2309878,-85.5782436
9213,Seaton Springs Parkway,40222,38.2362998,-85.5789033
9213,Whitegate Court,40222,38.2308864,-85.5805526
9214,Marlboro Circle,40222,38.2322872,-85.5810060
9214,Parkington Court,40222,38.2315914,-85.5779421
9214,Reigate Court,40222,38.2305112,-85.5779439
9215,Marlboro Circle,40222,38.2321949,-85.5804652
9215,Reigate Court,40222,38.2308118,-85.5779560
9215,Whitegate Court,40222,38.2308051,-85.5802104
9216,Marlboro Circle,40222,38.2325371,-85.5809847
9217,Marlboro Circle,40222,38.2324726,-85.5803719
9217,Whitegate Court,40222,38.2307719,-85.5798781
9218,Marlboro Circle,40222,38.2328091,-85.5809819
9220,Marlboro Circle,40222,38.2330734,-85.5809125
9221,Marlboro Circle,40222,38.2327784,-85.5802951
9222,Marlboro Circle,40222,38.2332953,-85.5807773
9224,Marlboro Circle,40222,38.2334061,-85.5804718
9226,Marlboro Circle,40222,38.2332968,-85.5801489
9227,Marlboro Circle,40222,38.2326527,-85.5799308
9228,Marlboro Circle,40222,38.2331992,-85.5798426
9229,Marlboro Circle,40222,38.2324720,-85.5796600
9230,Marlboro Circle,40222,38.2330838,-85.5795686
9232,Marlboro Circle,40222,38.2329613,-85.5793004
9300,Seaton Springs Parkway,40222,38.2355761,-85.5790799
9400,Williamsburg Plaza,40222,38.2404308,-85.5812200
9401,Williamsburg Plaza,40222,38.2409940,-85.5816689
9418,Wessex Place,40222,38.2394339,-85.5803712
9420,Wessex Place,40222,38.2394309,-85.5802179
9422,Wessex Place,40222,38.2393871,-85.5801598
9424,Wessex Place,40222,38.2393418,-85.5800976
9426,Wessex Place,40222,38.2392925,-85.5800302
9428,Wessex Place,40222,38.2392409,-85.5799591
9500,Wessex Place,40222,38.2391934,-85.5798937
9500,Williamsburg Plaza,40222,38.2402105,-85.5801745
9501,Wessex Place,40222,38.2394346,-85.5794093
9502,Wessex Place,40222,38.2391497,-85.5798336
9502,Williamsburg Plaza,40222,38.2401593,-85.5792493
9503,Wessex Place,40222,38.2393801,-85.5793260
9504,Wessex Place,40222,38.2391073,-85.5797750
9505,Wessex Place,40222,38.2393271,-85.5792417
9505,Williamsburg Plaza,40222,38.2408403,-85.5791854
9506,Wessex Place,40222,38.2390663,-85.5797208
9507,Wessex Place,40222,38.2392669,-85.5791618
9508,Wessex Place,40222,38.2390089,-85.5796254
9509,Wessex Place,40222,38.2392318,-85.5790687
9510,Wessex Place,40222,38.2389749,-85.5795534
9511,Wessex Place,40222,38.2391715,-85.5789886
9512,Wessex Place,40222,38.2389210,-85.5795033
9513,Wessex Place,40222,38.2391145,-85.5789068
9514,Wessex Place,40222,38.2388807,-85.5794327
9515,Wessex Place,40222,38.2390594,-85.5788244
9516,Wessex Place,40222,38.2388509,-85.5793638
9517,Wessex Place,40222,38.2390117,-85.5787116
9518,Wessex Place,40222,38.2388062,-85.5793030
9519,Wessex Place,40222,38.2389573,-85.5786502
9520,Wessex Place,40222,38.2387690,-85.5792291
9521,Wessex Place,40222,38.2389300,-85.5785713
9522,Wessex Place,40222,38.2387089,-85.5791859
9523,Wessex Place,40222,38.2388839,-85.5785101
9524,Wessex Place,40222,38.2386759,-85.5791118
9525,Wessex Place,40222,38.2388379,-85.5784441
9526,Wessex Place,40222,38.2386446,-85.5790340
9527,Wessex Place,40222,38.2387344,-85.5782263
9528,Wessex Place,40222,38.2385868,-85.5789402
9529,Wessex Place,40222,38.2387083,-85.5781421
9530,Wessex Place,40222,38.2385331,-85.5788866
9531,Wessex Place,40222,38.2386825,-85.5780599
9532,Wessex Place,40222,38.2384935,-85.5788196
9533,Wessex Place,40222,38.2386604,-85.5779747
9534,Wessex Place,40222,38.2384659,-85.5787446
9535,Wessex Place,40222,38.2386436,-85.5778908
9536,Wessex Place,40222,38.2384251,-85.5786770
9537,Wessex Place,40222,38.2386144,-85.5778093
9538,Wessex Place,40222,38.2383926,-85.5786034
9539,Wessex Place,40222,38.2385927,-85.5777173
9540,Wessex Place,40222,38.2383586,-85.5785293
9541,Wessex Place,40222,38.2385926,-85.5776226
9542,Wessex Place,40222,38.2381452,-85.5775767
9543,Wessex Place,40222,38.2385924,-85.5775297
9545,Wessex Place,40222,38.2385918,-85.5774351
601,Nottingham Parkway,40222,38.2368879,-85.5778187
1000,South Hurstbourne Parkway,40222,38.2295163,-85.5782607
1000,Colonel Anderson Parkway,40222,38.2330898,-85.5922507
1000,Oxmoor Woods Parkway,40222,38.2367242,-85.5993191
1001,Oxmoor Woods Parkway,40222,38.2371163,-85.5988004
1002,Colonel Anderson Parkway,40222,38.2328873,-85.5920866
1002,Oxmoor Woods Parkway,40222,38.2364242,-85.5991193
1003,Oxmoor Woods Parkway,40222,38.2368730,-85.5986240
1004,Colonel Anderson Parkway,40222,38.2326286,-85.5918627
1004,Oxmoor Woods Parkway,40222,38.2362140,-85.5990096
1005,Oxmoor Woods Parkway,40222,38.2366298,-85.5984608
1006,Colonel Anderson Parkway,40222,38.2323926,-85.5916632
1006,Oxmoor Woods Parkway,40222,38.2359218,-85.5988660
1007,Oxmoor Woods Parkway,40222,38.2363761,-85.5983224
1008,Colonel Anderson Parkway,40222,38.2321726,-85.5913597
1008,Oxmoor Woods Parkway,40222,38.2356488,-85.5986803
1009,Oxmoor Woods Parkway,40222,38.2361268,-85.5981757
1010,Colonel Anderson Parkway,40222,38.2319986,-85.5910913
1010,Oxmoor Woods Parkway,40222,38.2354000,-85.5985595
1011,Oxmoor Woods Parkway,40222,38.2358346,-85.5979819
1012,Fulham Court,40222,38.2315777,-85.5909167
1014,Fulham Court,40222,38.2314895,-85.5905060
1016,Colonel Anderson Parkway,40222,38.2317134,-85.5901445
1018,Colonel Anderson Parkway,40222,38.2314419,-85.5896037
1100,Colonel Anderson Parkway,40222,38.2310296,-85.5891513
1100,Oxmoor Woods Parkway,40222,38.2351297,-85.5984133
1100,South Hurstbourne Parkway,40222,38.2283380,-85.5782396
1101,Oxmoor Woods Parkway,40222,38.2352619,-85.5976295
1102,Colonel Anderson Parkway,40222,38.2307795,-85.5889408
1102,Oxmoor Woods Parkway,40222,38.2348920,-85.5981612
1104,Colonel Anderson Parkway,40222,38.2305383,-85.5888008
1104,Oxmoor Woods Parkway,40222,38.2346591,-85.5979760
1105,Oxmoor Woods Parkway,40222,38.2348838,-85.5972635
1106,Colonel Anderson Parkway,40222,38.2303366,-85.5885364
1106,Oxmoor Woods Parkway,40222,38.2344148,-85.5977989
1107,Oxmoor Woods Parkway,40222,38.2345009,-85.5969523
1108,Colonel Anderson Parkway,40222,38.2300952,-85.5883377
1108,Oxmoor Woods Parkway,40222,38.2342148,-85.5975745
1110,Oxmoor Woods Parkway,40222,38.2339630,-85.5973827
1114,Colonel Anderson Parkway,40222,38.2296393,-85.5879442
1116,Colonel Anderson Parkway,40222,38.2292538,-85.5877068
1200,Club House Drive,40222,38.2280379,-85.5800293
1200,Oxmoor Woods Parkway,40222,38.2337806,-85.5971197
1201,Oxmoor Woods Parkway,40222,38.2340427,-85.5964357
1202,Hogarth Drive,40222,38.2287011,-85.5844565
1202,Oxmoor Woods Parkway,40222,38.2335223,-85.5968978
1203,Hogarth Drive,40222,38.2286313,-85.5838716
1205,Hogarth Drive,40222,38.2281776,-85.5841085
1205,Oxmoor Woods Parkway,40222,38.2336935,-85.5959848
1206,Hogarth Drive,40222,38.2279886,-85.5849281
1207,Hogarth Drive,40222,38.2279291,-85.5842931
1208,Hogarth Drive,40222,38.2278250,-85.5851818
1210,Hogarth Drive,40222,38.2276183,-85.5853516
1230,Liberty Bank Lane,40222,38.2281743,-85.5790917
1300,Leighton Circle,40222,38.2298339,-85.5928553
1300,Oxmoor Woods Parkway,40222,38.2329243,-85.5959455
1301,Leighton Circle,40222,38.2296434,-85.5921371
1301,Oxmoor Woods Parkway,40222,38.2334180,-85.5955748
1302,Leighton Circle,40222,38.2301765,-85.5927192
1302,Oxmoor Woods Parkway,40222,38.2326322,-85.5955887
1303,Leighton Circle,40222,38.2299503,-85.5919086
1303,Oxmoor Woods Parkway,40222,38.2331782,-85.5952339
1304,Leighton Circle,40222,38.2307568,-85.5923350
1304,Oxmoor Woods Parkway,40222,38.2323780,-85.5953954
1305,Leighton Circle,40222,38.2304090,-85.5916591
1306,Oxmoor Woods Parkway,40222,38.2320725,-85.5952834
1307,Leighton Circle,40222,38.2311441,-85.5914390
1307,Oxmoor Woods Parkway,40222,38.2324743,-85.5945708
1308,Leighton Circle,40222,38.2311073,-85.5921977
1309,Leighton Circle,40222,38.2315440,-85.5917262
1311,Leighton Circle,40222,38.2319204,-85.5919674
1312,Leighton Circle,40222,38.2314391,-85.5925049
1313,Leighton Circle,40222,38.2322187,-85.5923272
1315,Leighton Circle,40222,38.2320495,-85.5928191
1316,Leighton Circle,40222,38.2312937,-85.5929711
1317,Leighton Circle,40222,38.2318368,-85.5932296
1319,Leighton Circle,40222,38.2315930,-85.5936651
1320,South Hurstbourne Parkway,40222,38.2265183,-85.5784449
1321,Leighton Circle,40222,38.2312573,-85.5939990
1322,Leighton Circle,40222,38.2310897,-85.5933322
1323,Leighton Circle,40222,38.2309517,-85.5941604
1325,Leighton Circle,40222,38.2305643,-85.5940732
1326,Leighton Circle,40222,38.2308421,-85.5928370
1327,Leighton Circle,40222,38.2304482,-85.5935502
1329,Leighton Circle,40222,38.2302915,-85.5932114
1330,South Hurstbourne Parkway,40222,38.2258425,-85.5788168
1400,Oxmoor Woods Parkway,40222,38.2317678,-85.5952643
1402,Hadleigh Place,40222,38.2300877,-85.5912847
1402,Oxmoor Woods Parkway,40222,38.2314882,-85.5953679
1403,Hadleigh Place,40222,38.2308296,-85.5910875
1403,Oxmoor Woods Parkway,40222,38.2315896,-85.5945453
1404,Hadleigh Place,40222,38.2297667,-85.5910729
1404,Oxmoor Woods Parkway,40222,38.2312441,-85.5955005
1405,Hadleigh Place,40222,38.2305218,-85.5908036
1405,Oxmoor Woods Parkway,40222,38.2312971,-85.5946401
1406,Hadleigh Place,40222,38.2293847,-85.5907172
1406,Oxmoor Woods Parkway,40222,38.2309663,-85.5956213
1407,Hadleigh Place,40222,38.2302030,-85.5906280
1407,Oxmoor Woods Parkway,40222,38.2310160,-85.5947496
1408,Hadleigh Place,40222,38.2291293,-85.5903366
1408,Oxmoor Woods Parkway,40222,38.2306916,-85.5958126
1409,Hadleigh Place,40222,38.2299062,-85.5903014
1409,Oxmoor Woods Parkway,40222,38.2307488,-85.5948681
1410,Hadleigh Place,40222,38.2289529,-85.5898897
1411,Hadleigh Place,40222,38.2296405,-85.5899676
1411,Oxmoor Woods Parkway,40222,38.2304102,-85.5949955
1412,Hadleigh Place,40222,38.2290551,-85.5894059
400,Colonel Anderson Parkway,40222,38.2418363,-85.6018613
402,Colonel Anderson Parkway,40222,38.2417305,-85.6014474
403,South Lyndon Lane,40222,38.2416005,-85.6019972
500,Colonel Anderson Parkway,40222,38.2415357,-85.6006667
502,Bedfordshire Road,40222,38.2413542,-85.6013649
502,Colonel Anderson Parkway,40222,38.2412762,-85.6001559
503,Bedfordshire Road,40222,38.2412054,-85.6007608
504,Bedfordshire Road,40222,38.2410201,-85.6013392
504,Colonel Anderson Parkway,40222,38.2411605,-85.5998323
505,Bedfordshire Road,40222,38.2409450,-85.6005868
506,Bedfordshire Road,40222,38.2408189,-85.6011382
506,Colonel Anderson Parkway,40222,38.2409579,-85.5994774
507,Bedfordshire Road,40222,38.2407790,-85.6003807
508,Bedfordshire Road,40222,38.2405913,-85.6009427
509,Bedfordshire Road,40222,38.2405541,-85.6002240
510,Bedfordshire Road,40222,38.2403713,-85.6007522
511,Bedfordshire Road,40222,38.2403150,-85.6000552
512,Bedfordshire Road,40222,38.2401140,-85.6005296
600,Bedfordshire Road,40222,38.2398914,-85.6003568
600,Colonel Anderson Parkway,40222,38.2403451,-85.5987686
601,Bedfordshire Road,40222,38.2401174,-85.5998070
602,Bedfordshire Road,40222,38.2396585,-85.6001309
602,Colonel Anderson Parkway,40222,38.2399602,-85.5985326
603,Bedfordshire Road,40222,38.2398673,-85.5996467
604,Bedfordshire Road,40222,38.2394316,-85.5999813
605,Bedfordshire Road,40222,38.2396418,-85.5994654
606,Bedfordshire Road,40222,38.2391930,-85.5998000
607,Bedfordshire Road,40222,38.2394429,-85.5992786
608,Bedfordshire Road,40222,38.2389563,-85.5995554
609,Bedfordshire Road,40222,38.2392186,-85.5990786
700,Bedfordshire Road,40222,38.2387162,-85.5993740
700,Colonel Anderson Parkway,40222,38.2394124,-85.5979891
700,Oxmoor Woods Parkway,40222,38.2406951,-85.6026962
701,Bedfordshire Road,40222,38.2389633,-85.5988896
701,Oxmoor Woods Parkway,40222,38.2410857,-85.6021385
702,Bedfordshire Road,40222,38.2385070,-85.5991808
702,Colonel Anderson Parkway,40222,38.2390027,-85.5976468
702,Oxmoor Woods Parkway,40222,38.2403894,-85.6025084
703,Bedfordshire Road,40222,38.2387822,-85.5987165
703,Oxmoor Woods Parkway,40222,38.2408498,-85.6019740
704,Bedfordshire Road,40222,38.2382973,-85.5989684
704,Colonel Anderson Parkway,40222,38.2385127,-85.5972155
704,Oxmoor Woods Parkway,40222,38.2401533,-85.6023349
705,Oxmoor Woods Parkway,40222,38.2405730,-85.6017924
706,Bedfordshire Road,40222,38.2380882,-85.5988096
706,Colonel Anderson Parkway,40222,38.2382569,-85.5969435
706,Oxmoor Woods Parkway,40222,38.2399102,-85.6021314
707,Oxmoor Woods Parkway,40222,38.2403188,-85.6016340
708,Bedfordshire Road,40222,38.2378054,-85.5986549
708,Colonel Anderson Parkway,40222,38.2379930,-85.5967931
709,Bedfordshire Road,40222,38.2378521,-85.5976100
709,Oxmoor Woods Parkway,40222,38.2401021,-85.6014206
710,Bedfordshire Road,40222,38.2375901,-85.5984058
710,Colonel Anderson Parkway,40222,38.2378142,-85.5965565
711,Bedfordshire Road,40222,38.2377035,-85.5973245
712,Bedfordshire Road,40222,38.2375041,-85.5981012
712,Colonel Anderson Parkway,40222,38.2375884,-85.5963728
713,Bedfordshire Road,40222,38.2375004,-85.5970631
714,Bedfordshire Court,40222,38.2370312,-85.5979519
715,Bedfordshire Road,40222,38.2372741,-85.5968882
716,Bedfordshire Road,40222,38.2371009,-85.5974147
800,Bedfordshire Road,40222,38.2368749,-85.5972490
800,Colonel Anderson Parkway,40222,38.2373503,-85.5961752
801,Bedfordshire Road,40222,38.2370369,-85.5966857
801,Oxmoor Woods Parkway,40222,38.2398934,-85.6012111
802,Colonel Anderson Parkway,40222,38.2371376,-85.5959717
802,Huddersfield Court,40222,38.2365372,-85.5975429
802,Oxmoor Woods Parkway,40222,38.2392358,-85.6014465
803,Bedfordshire Road,40222,38.2368302,-85.5965008
803,Oxmoor Woods Parkway,40222,38.2396667,-85.6009848
804,Colonel Anderson Parkway,40222,38.2369286,-85.5957959
804,Huddersfield Court,40222,38.2361766,-85.5972740
804,Oxmoor Woods Parkway,40222,38.2389984,-85.6012529
805,Bedfordshire Road,40222,38.2366191,-85.5962619
805,Oxmoor Woods Parkway,40222,38.2394476,-85.6007620
806,Bedfordshire Road,40222,38.2363685,-85.5967982
806,Colonel Anderson Parkway,40222,38.2367022,-85.5956029
806,Oxmoor Woods Parkway,40222,38.2387456,-85.6011092
807,Bedfordshire Road,40222,38.2363548,-85.5960946
807,Oxmoor Woods Parkway,40222,38.2392061,-85.6005562
808,Colonel Anderson Parkway,40222,38.2364606,-85.5954050
808,Oxmoor Woods Parkway,40222,38.2384914,-85.6009618
809,Bedfordshire Road,40222,38.2360910,-85.5960062
809,Oxmoor Woods Parkway,40222,38.2389639,-85.6003585
810,Bedfordshire Road,40222,38.2360090,-85.5966479
810,Colonel Anderson Parkway,40222,38.2362658,-85.5952597
810,Oxmoor Woods Parkway,40222,38.2382503,-85.6007803
811,Oxmoor Woods Parkway,40222,38.2387024,-85.6001720
812,Bedfordshire Road,40222,38.2358103,-85.5968869
812,Colonel Anderson Parkway,40222,38.2360676,-85.5950677
814,Bedfordshire Road,40222,38.2358162,-85.5975389
814,Colonel Anderson Parkway,40222,38.2357584,-85.5947848
815,Bedfordshire Road,40222,38.2352939,-85.5970550
8200,Cheshire Way,40222,38.2381099,-85.5980657
8200,Derbyshire Court,40222,38.2403612,-85.5992204
8200,Salford Way,40222,38.2393208,-85.5985232
8201,Cheshire Way,40222,38.2385775,-85.5984104
8201,Derbyshire Court,40222,38.2405779,-85.5994994
8201,Salford Way,40222,38.2396265,-85.5987384
8202,Cheshire Way,40222,38.2383571,-85.5976869
8203,Cheshire Way,40222,38.2388184,-85.5980339
8508,Cheffield Drive,40222,38.2318573,-85.5979081
8509,Cheffield Drive,40222,38.2321616,-85.5973052
8510,Cheffield Drive,40222,38.2316344,-85.5976903
8511,Cheffield Drive,40222,38.2319138,-85.5971585
8512,Cheffield Drive,40222,38.2314547,-85.5974835
8513,Cheffield Drive,40222,38.2316164,-85.5968826
8514,Cheffield Drive,40222,38.2311822,-85.5973067
8516,Cheffield Drive,40222,38.2310940,-85.5968902
8518,Cheffield Drive,40222,38.2310667,-85.5964661
8600,Cheffield Drive,40222,38.2312680,-85.5961301
8600,Herefordshire Drive,40222,38.2353651,-85.5964882
8601,Cheffield Drive,40222,38.2318402,-85.5965216
8601,Herefordshire Drive,40222,38.2357601,-85.5960595
8602,Cheffield Drive,40222,38.2315217,-85.5958768
8602,Herefordshire Drive,40222,38.2352595,-85.5962155
8603,Herefordshire Drive,40222,38.2356694,-85.5956647
8604,Cheffield Drive,40222,38.2318257,-85.5958920
8604,Herefordshire Drive,40222,38.2351754,-85.5958880
8605,Cheffield Drive,40222,38.2324211,-85.5967101
8605,Herefordshire Drive,40222,38.2356295,-85.5952872
8606,Cheffield Drive,40222,38.2320742,-85.5959042
8606,Herefordshire Drive,40222,38.2351836,-85.5955481
8607,Cheffield Drive,40222,38.2327164,-85.5967433
8608,Cheffield Drive,40222,38.2323576,-85.5960044
8608,Herefordshire Drive,40222,38.2351078,-85.5952282
8609,Blackpool Drive,40222,38.2347417,-85.5965679
8609,Cheffield Drive,40222,38.2330324,-85.5966662
8610,Blackpool Drive,40222,38.2341911,-85.5960792
8610,Cheffield Drive,40222,38.2326515,-85.5960902
8610,Herefordshire Drive,40222,38.2351511,-85.5948378
8611,Blackpool Drive,40222,38.2347177,-85.5960352
8612,Blackpool Drive,40222,38.2341890,-85.5955385
8613,Blackpool Drive,40222,38.2346900,-85.5957011
8614,Blackpool Court,40222,38.2338910,-85.5953053
8615,Blackpool Drive,40222,38.2346353,-85.5953823
8615,Cheffield Drive,40222,38.2332849,-85.5965633
8616,Blackpool Court,40222,38.2338174,-85.5949314
8617,Blackpool Drive,40222,38.2345937,-85.5950203
8618,Blackpool Drive,40222,38.2340796,-85.5946186
8619,Blackpool Drive,40222,38.2346381,-85.5946204
8620,Blackpool Drive,40222,38.2342019,-85.5942771
8622,Blackpool Drive,40222,38.2344078,-85.5939815
8700,Oldbury Place,40222,38.2327449,-85.5947200
8700,Stockport Road,40222,38.2318881,-85.5944841
8702,Oldbury Place,40222,38.2329838,-85.5944657
8702,Stockport Road,40222,38.2320737,-85.5940744
8703,Oldbury Place,40222,38.2332917,-85.5948753
8703,Stockport Road,40222,38.2325500,-85.5941906
8704,Oldbury Place,40222,38.2331499,-85.5941725
8704,Stockport Road,40222,38.2321550,-85.5937430
8705,Oldbury Place,40222,38.2334553,-85.5945771
8705,Stockport Road,40222,38.2326921,-85.5938752
8706,Oldbury Place,40222,38.2333010,-85.5938069
8706,Stockport Road,40222,38.2323247,-85.5934261
8707,Oldbury Place,40222,38.2336287,-85.5943070
8707,Stockport Road,40222,38.2328566,-85.5935865
8708,Oldbury Place,40222,38.2335445,-85.5934615
8708,Stockport Road,40222,38.2325165,-85.5931485
8709,Oldbury Place,40222,38.2338443,-85.5940706
8709,Stockport Road,40222,38.2330618,-85.5932915
8710,Oldbury Place,40222,38.2339289,-85.5936129
8710,Stockport Road,40222,38.2326594,-85.5928838
8711,Stockport Road,40222,38.2332863,-85.5929867
8712,Stockport Road,40222,38.2328718,-85.5926772
8716,Linn Station Road,40222,38.2302295,-85.5964814
8718,Linn Station Road,40222,38.2301508,-85.5961492
8720,Linn Station Road,40222,38.2300195,-85.5958213
8800,Linn Station Road,40222,38.2299367,-85.5954597
8802,Linn Station Road,40222,38.2298023,-85.5951307
8803,Linn Station Road,40222,38.2302947,-85.5946365
8805,Linn Station Road,40222,38.2301754,-85.5943595
8806,Linn Station Road,40222,38.2296783,-85.5946955
8807,Linn Station Road,40222,38.2300765,-85.5939903
8808,Linn Station Road,40222,38.2295139,-85.5941158
8809,Linn Station Road,40222,38.2299879,-85.5936655
8810,Linn Station Road,40222,38.2294338,-85.5937870
8812,Linn Station Road,40222,38.2293112,-85.5934509
8814,Linn Station Road,40222,38.2291970,-85.5931361
8816,Linn Station Road,40222,38.2290815,-85.5927386
8817,Linn Station Road,40222,38.2293230,-85.5917448
8818,Linn Station Road,40222,38.2289389,-85.5924014
8819,Linn Station Road,40222,38.2291621,-85.5913996
8820,Linn Station Road,40222,38.2287894,-85.5920307
8821,Linn Station Road,40222,38.2289907,-85.5911100
8901,Linn Station Road,40222,38.2287861,-85.5908278
8902,Lippincott Road,40222,38.2312148,-85.5899243
8903,Linn Station Road,40222,38.2286456,-85.5905158
8904,Lippincott Road,40222,38.2310443,-85.5901578
8905,Linn Station Road,40222,38.2285058,-85.5901612
8906,Lippincott Road,40222,38.2307789,-85.5902489
8907,Linn Station Road,40222,38.2284574,-85.5897866
8907,Lippincott Road,40222,38.2307950,-85.5895812
8908,Linn Station Road,40222,38.2278987,-85.5892551
8908,Lippincott Road,40222,38.2305394,-85.5900209
8909,Linn Station Road,40222,38.2285727,-85.5894334
8909,Lippincott Road,40222,38.2305458,-85.5894034
8910,Linn Station Road,40222,38.2279804,-85.5888743
8910,Lippincott Road,40222,38.2303036,-85.5898512
8911,Linn Station Road,40222,38.2285931,-85.5889954
8911,Lippincott Road,40222,38.2303057,-85.5891870
8912,Linn Station Road,40222,38.2280598,-85.5885109
8912,Lippincott Road,40222,38.2300702,-85.5896210
8913,Linn Station Road,40222,38.2287375,-85.5886158
8913,Lippincott Road,40222,38.2300803,-85.5890070
8914,Linn Station Road,40222,38.2282018,-85.5881797
8914,Lippincott Road,40222,38.2298274,-85.5894378
8915,Linn Station Road,40222,38.2288949,-85.5883590
8915,Lippincott Road,40222,38.2298519,-85.5888088
8916,Linn Station Road,40222,38.2284553,-85.5879008
8916,Lippincott Road,40222,38.2296125,-85.5892524
8917,Linn Station Road,40222,38.2290708,-85.5880188
8918,Linn Station Road,40222,38.2286412,-85.5875612
8918,Lippincott Road,40222,38.2293581,-85.5890097
8920,Linn Station Road,40222,38.2287300,-85.5872972
8920,Lippincott Road,40222,38.2292975,-85.5886475
8922,Lippincott Road,40222,38.2294801,-85.5883392
900,Colonel Anderson Parkway,40222,38.2352965,-85.5944301
900,Oxmoor Woods Parkway,40222,38.2380218,-85.6005696
9000,Hurstwood Court,40222,38.2280935,-85.5867402
9000,Linn Station Road,40222,38.2288573,-85.5869826
9001,Hurstwood Court,40222,38.2283791,-85.5867638
9002,Hurstwood Court,40222,38.2279813,-85.5864212
9002,Linn Station Road,40222,38.2289730,-85.5865505
9003,Hurstwood Court,40222,38.2285435,-85.5865039
9004,Hurstwood Court,40222,38.2280879,-85.5861197
9004,Linn Station Road,40222,38.2290395,-85.5862001
9005,Hurstwood Court,40222,38.2284911,-85.5861904
9006,Hurstwood Court,40222,38.2280901,-85.5858291
9006,Linn Station Road,40222,38.2290859,-85.5858346
9007,Hurstwood Court,40222,38.2285061,-85.5859346
9008,Hurstwood Court,40222,38.2281034,-85.5855455
9008,Linn Station Road,40222,38.2291168,-85.5855396
9009,Hurstwood Court,40222,38.2285785,-85.5857039
901,Oxmoor Woods Parkway,40222,38.2384633,-85.5999982
9010,Hurstwood Court,40222,38.2281955,-85.5852647
9010,Linn Station Road,40222,38.2290822,-85.5851033
9011,Hurstwood Court,40222,38.2285965,-85.5854140
9012,Hurstwood Court,40222,38.2282362,-85.5849826
9012,Linn Station Road,40222,38.2290713,-85.5847285
9013,Hurstwood Court,40222,38.2286498,-85.5851365
9014,Hurstwood Court,40222,38.2282965,-85.5847012
9014,Linn Station Road,40222,38.2290442,-85.5844106
9015,Hurstwood Court,40222,38.2286919,-85.5848407
902,Colonel Anderson Parkway,40222,38.2349954,-85.5940892
902,Oxmoor Woods Parkway,40222,38.2378066,-85.6003501
903,Oxmoor Woods Parkway,40222,38.2382461,-85.5998068
904,Colonel Anderson Parkway,40222,38.2345672,-85.5936488
904,Oxmoor Woods Parkway,40222,38.2375791,-85.6001581
905,Oxmoor Woods Parkway,40222,38.2380082,-85.5996134
906,Colonel Anderson Parkway,40222,38.2342813,-85.5933145
906,Oxmoor Woods Parkway,40222,38.2373531,-85.5999651
907,Oxmoor Woods Parkway,40222,38.2377950,-85.5994151
908,Colonel Anderson Parkway,40222,38.2340309,-85.5930800
908,Oxmoor Woods Parkway,40222,38.2371644,-85.5997468
909,Oxmoor Woods Parkway,40222,38.2375605,-85.5992086
910,Colonel Anderson Parkway,40222,38.2337964,-85.5928656
9100,Linn Station Road,40222,38.2289901,-85.5837351
9102,Hurstwood Court,40222,38.2281328,-85.5837667
9102,Linn Station Road,40222,38.2289509,-85.5833706
9103,Hurstwood Court,40222,38.2285176,-85.5836140
9104,Hurstwood Court,40222,38.2280642,-85.5835201
9104,Linn Station Road,40222,38.2289157,-85.5829791
9105,Hurstwood Court,40222,38.2284619,-85.5833462
9106,Hurstwood Court,40222,38.2280337,-85.5832279
9106,Linn Station Road,40222,38.2288541,-85.5826079
9107,Hurstwood Court,40222,38.2284185,-85.5830759
9108,Hurstwood Court,40222,38.2280004,-85.5829676
9109,Hurstwood Court,40222,38.2284125,-85.5828087
911,Oxmoor Woods Parkway,40222,38.2373283,-85.5990064
9110,Hurstwood Court,40222,38.2279231,-85.5826834
9110,Linn Station Road,40222,38.2288047,-85.5818908
9111,Hurstwood Court,40222,38.2284106,-85.5825150
9112,Hurstwood Court,40222,38.2280004,-85.5823379
9113,Hurstwood Court,40222,38.2282783,-85.5822451
912,Colonel Anderson Parkway,40222,38.2335427,-85.5926409
9200,Woodhurst Court,40222,38.2275315,-85.5846188
9202,Linn Station Road,40222,38.2279920,-85.5811451
9202,Woodhurst Court,40222,38.2274438,-85.5843659
9203,Woodhurst Court,40222,38.2278269,-85.5840134
9204,Woodhurst Court,40222,38.2273398,-85.5840692
9205,Woodhurst Court,40222,38.2277162,-85.5837651
9206,Woodhurst Court,40222,38.2273117,-85.5837885
9207,Woodhurst Court,40222,38.2277232,-85.5835038
9208,Woodhurst Court,40222,38.2272116,-85.5835239
9209,Woodhurst Court,40222,38.2276151,-85.5832283
9210,Woodhurst Court,40222,38.2271810,-85.5832597
9211,Woodhurst Court,40222,38.2275980,-85.5829531
9212,Woodhurst Court,40222,38.2270624,-85.5829600
9213,Woodhurst Court,40222,38.2274435,-85.5826960
9214,Woodhurst Court,40222,38.2271638,-85.5826913
9300,Blairwood Road,40222,38.2259087,-85.5842323
9330,Blairwood Road,40222,38.2260836,-85.5824994
9340,Blairwood Road,40222,38.2256077,-85.5821703
9501,Blairwood Road,40222,38.2263864,-85.5804873
9600,Linn Station Road,40222,38.2285497,-85.5790119
9608,Blairwood Road,40222,38.2252874,-85.5805400
9797,Blairwood Road,40222,38.2259347,-85.5793272
9800,Blairwood Road,40222,38.2252697,-85.5796099
9400,Blairwood Road,40222,38.2255747,-85.5813605
1232,South Hurstbourne Parkway,40222,38.2272372,-85.5782845
8610,Wimborne Way,40222,38.2471326,-85.5928238
8702,Wimborne Way,40222,38.2470368,-85.5916613
101,South Whipps Mill Road,40222,38.2482134,-85.6026519
