House number,Street name,Postal code,Latitude,Longitude
109,Tribal Road,40207,38.2745061,-85.6634890
126,Indian Hills Trail,40207,38.2700795,-85.6641035
127,Indian Hills Trail,40207,38.2700660,-85.6639726
31,Southwind Road,40207,38.2762837,-85.6664858
3801,Brownsboro Road,40207,38.2658848,-85.6668669
3803,Brownsboro Road,40207,38.2659599,-85.6666088
3805,Brownsboro Road,40207,38.2660186,-85.6664271
3900,Old Brownsboro Road,40207,38.2664610,-85.6659816
3901,Brownsboro Road,40207,38.2661155,-85.6657532
3903,Brownsboro Road,40207,38.2662995,-85.6654755
4707,Indian Hills GRN,40207,38.2678819,-85.6637019
72,Westwind Road,40207,38.2794908,-85.6668881
73,Westwind Road,40207,38.2796199,-85.6661825
74,Westwind Road,40207,38.2793841,-85.6658795
76,Westwind Road,40207,38.2784810,-85.6654569
115,Blankenbaker Lane,40207,38.2765719,-85.6468667
1804,Rudy Lane,40207,38.2788107,-85.6390869
1821,Ballard Mill Lane,40207,38.2799155,-85.6416723
2002,Croghan House Drive,40207,38.2816337,-85.6432970
2102,Bainbridge Row Drive,40207,38.2834358,-85.6460306
35,Poplar Hill Road,40207,38.2931791,-85.6600234
8,Poplar Hill Road,40207,38.2901683,-85.6656670
1201,Navajo Court,40207,38.2738440,-85.6521848
1203,Navajo Court,40207,38.2737705,-85.6521954
1205,Navajo Court,40207,38.2736744,-85.6522225
1207,Navajo Court,40207,38.2735891,-85.6522287
1209,Navajo Court,40207,38.2734315,-85.6522620
1211,Navajo Court,40207,38.2733398,-85.6522680
1213,Navajo Court,40207,38.2732520,-85.6522761
1215,Navajo Court,40207,38.2731748,-85.6522799
1217,Navajo Court,40207,38.2730843,-85.6523119
1219,Navajo Court,40207,38.2729339,-85.6523338
1221,Navajo Court,40207,38.2728446,-85.6523493
1223,Navajo Court,40207,38.2727340,-85.6523656
1225,Navajo Court,40207,38.2726545,-85.6523476
1227,Navajo Court,40207,38.2725487,-85.6523576
1301,Navajo Court,40207,38.2718126,-85.6520398
1303,Navajo Court,40207,38.2717159,-85.6519839
1305,Navajo Court,40207,38.2716132,-85.6519044
1307,Navajo Court,40207,38.2720958,-85.6507781
1309,Navajo Court,40207,38.2721807,-85.6508106
1310,Navajo Court,40207,38.2719228,-85.6512905
1311,Navajo Court,40207,38.2722657,-85.6508353
1312,Navajo Court,40207,38.2719892,-85.6513116
1314,Navajo Court,40207,38.2720681,-85.6513336
1316,Navajo Court,40207,38.2721922,-85.6513748
1318,Navajo Court,40207,38.2723997,-85.6513400
1320,Navajo Court,40207,38.2724791,-85.6513263
1322,Navajo Court,40207,38.2725393,-85.6513105
1324,Navajo Court,40207,38.2726448,-85.6513045
1326,Navajo Court,40207,38.2728525,-85.6511637
1328,Navajo Court,40207,38.2729685,-85.6511502
1330,Navajo Court,40207,38.2730660,-85.6511521
1332,Navajo Court,40207,38.2731547,-85.6511230
1334,Navajo Court,40207,38.2734206,-85.6510353
1336,Navajo Court,40207,38.2735368,-85.6509988
14,River Hill Road,40207,38.2834839,-85.6679725
150,Totem Road,40207,38.2698807,-85.6606282
1509,Northwind Road,40207,38.2763575,-85.6551422
151,Totem Road,40207,38.2704306,-85.6604782
174,Westwind Road,40207,38.2780536,-85.6614142
175,Westwind Road,40207,38.2779006,-85.6603540
184,Bow Lane,40207,38.2724873,-85.6587533
186,Bow Lane,40207,38.2722212,-85.6587141
2001,Rio Vista Drive,40207,38.2816126,-85.6753485
2005,Rio Vista Drive,40207,38.2822647,-85.6735277
202,Travois Road,40207,38.2780920,-85.6506207
202,Travois Road,40207,38.2782117,-85.6507188
2105,Indian Hills Trail,40207,38.2855313,-85.6787029
2110,River Bluff Road,40207,38.2876916,-85.6759099
220,Sequoya Road,40207,38.2800724,-85.6554081
2201,Indian Hills Trail,40207,38.2870459,-85.6798934
221,Travois Road,40207,38.2804174,-85.6515065
2211,River Bluff Road,40207,38.2858855,-85.6769272
222,Blankenbaker Lane,40207,38.2805312,-85.6512209
2401,Indian Hills Trail,40207,38.2889945,-85.6816937
2597,Indian Hills Trail,40207,38.2896630,-85.6821799
29,Stonebridge Road,40207,38.2898413,-85.6717703
307,Blankenbaker Lane,40207,38.2825759,-85.6529602
32,River Bluff Road,40207,38.2866073,-85.6771317
3904,River Road,40207,38.2886231,-85.6805456
3916,River Road,40207,38.2894841,-85.6806275
3918,River Road,40207,38.2897002,-85.6803669
3928,River Road,40207,38.2885441,-85.6791516
3928,River Road,40207,38.2899276,-85.6798853
3932,River Road,40207,38.2898427,-85.6789554
3939,Old Brownsboro Road,40207,38.2676784,-85.6609317
4,River Bluff Road,40207,38.2862352,-85.6766483
4100,River Road,40207,38.2898964,-85.6787531
4102,River Road,40207,38.2899699,-85.6785180
4106,River Road,40207,38.2901148,-85.6778880
4108,River Road,40207,38.2902711,-85.6777656
4109,Brownsboro Road,40207,38.2683102,-85.6593937
4118,River Road,40207,38.2907293,-85.6771618
4501,Brownsboro Road,40207,38.2742550,-85.6465234
5502,Tecumseh Circle,40207,38.2722847,-85.6505309
5504,Tecumseh Circle,40207,38.2723227,-85.6504306
5506,Tecumseh Circle,40207,38.2723608,-85.6503225
5508,Tecumseh Circle,40207,38.2724681,-85.6501405
5510,Tecumseh Circle,40207,38.2725147,-85.6500339
5512,Tecumseh Circle,40207,38.2725393,-85.6499414
5514,Tecumseh Circle,40207,38.2725579,-85.6498246
5516,Apache Road,40207,38.2772321,-85.6513235
5516,Tecumseh Circle,40207,38.2726472,-85.6494754
5518,Tecumseh Circle,40207,38.2726985,-85.6495386
5520,Tecumseh Circle,40207,38.2727562,-85.6495902
5521,Apache Road,40207,38.2777375,-85.6513329
5522,Tecumseh Circle,40207,38.2728202,-85.6496307
5530,Tecumseh Circle,40207,38.2729607,-85.6499497
5532,Tecumseh Circle,40207,38.2730183,-85.6500406
5534,Tecumseh Circle,40207,38.2730564,-85.6501215
5536,Tecumseh Circle,40207,38.2730911,-85.6502108
5538,Tecumseh Circle,40207,38.2731351,-85.6502922
5540,Tecumseh Circle,40207,38.2731835,-85.6503659
5542,Tecumseh Circle,40207,38.2732214,-85.6504433
5544,Tecumseh Circle,40207,38.2732787,-85.6505316
6,River Bluff Road,40207,38.2863398,-85.6764879
61,Indian Hills Trail,40207,38.2806614,-85.6743377
8,River Hill Road,40207,38.2878300,-85.6735450
9,River Bluff Road,40207,38.2857367,-85.6751435
1,Indian Hills Trail,40207,38.2685577,-85.6646654
10,Arrowhead Road,40207,38.2720422,-85.6670495
10,Indian Hills Trail,40207,38.2719180,-85.6652494
101,Wampum Road,40207,38.2746185,-85.6641792
102,Wampum Road,40207,38.2744383,-85.6646339
103,Indian Hills Trail,40207,38.2741791,-85.6651345
104,Indian Hills Trail,40207,38.2737109,-85.6651778
105,Indian Hills Trail,40207,38.2732877,-85.6649422
106,Tribal Road,40207,38.2738085,-85.6643537
107,Tribal Road,40207,38.2741597,-85.6638939
110,Tribal Road,40207,38.2740219,-85.6625928
111,Tribal Road,40207,38.2736580,-85.6629712
112,Tribal Road,40207,38.2733920,-85.6632737
113,Tribal Road,40207,38.2731206,-85.6637199
114,Tribal Road,40207,38.2728565,-85.6641873
115,Indian Hills Trail,40207,38.2726279,-85.6646062
116,Indian Hills Trail,40207,38.2722516,-85.6644136
117,Indian Hills Trail,40207,38.2718569,-85.6641589
118,Arrowhead Road,40207,38.2722790,-85.6636188
119,Arrowhead Road,40207,38.2725187,-85.6632838
12,Arrowhead Road,40207,38.2723505,-85.6664759
120,Arrowhead Road,40207,38.2728367,-85.6629449
122,Arrowhead Road,40207,38.2733673,-85.6623271
123,Arrowhead Road,40207,38.2725348,-85.6619975
123,Indian Hills Trail,40207,38.2710451,-85.6639186
125,Arrowhead Road,40207,38.2713351,-85.6634767
125,Indian Hills Trail,40207,38.2711774,-85.6624423
127,Arrowhead Road,40207,38.2716558,-85.6629651
128,Council Road,40207,38.2700629,-85.6632741
129,Council Road,40207,38.2698118,-85.6626882
13,Arrowhead Road,40207,38.2717492,-85.6660617
130,Council Road,40207,38.2693802,-85.6611880
131,Council Road,40207,38.2692186,-85.6617925
132,Council Road,40207,38.2691720,-85.6623197
133,Council Road,40207,38.2691854,-85.6629253
134,Council Road,40207,38.2692669,-85.6634370
135,Indian Hills Trail,40207,38.2692574,-85.6639235
136,Indian Hills Trail,40207,38.2687766,-85.6638371
137,Sagamore Road,40207,38.2687031,-85.6632135
138,Sagamore Road,40207,38.2686856,-85.6627418
139,Sagamore Road,40207,38.2685123,-85.6622804
14,Indian Hills Trail,40207,38.2716035,-85.6651392
140,Sagamore Road,40207,38.2683764,-85.6619067
140,Westwind Road,40207,38.2684486,-85.6615741
141,Westwind Road,40207,38.2687104,-85.6612002
142,Westwind Road,40207,38.2689861,-85.6607692
15,Indian Hills Trail,40207,38.2722059,-85.6653923
16,Indian Hills Trail,40207,38.2724932,-85.6655206
17,Indian Hills Trail,40207,38.2731375,-85.6658788
18,Indian Hills Trail,40207,38.2735260,-85.6660478
19,Indian Hills Trail,40207,38.2741721,-85.6661613
2,Indian Hills Trail,40207,38.2690408,-85.6647766
20,Indian Hills Trail,40207,38.2746645,-85.6661380
202,Council Road,40207,38.2698307,-85.6621510
203,Council Road,40207,38.2699909,-85.6617600
206,Totem Road,40207,38.2710259,-85.6614684
208,Totem Road,40207,38.2716235,-85.6615627
21,Indian Hills Trail,40207,38.2754323,-85.6660108
210,Totem Road,40207,38.2704564,-85.6613478
211,Totem Road,40207,38.2720965,-85.6616528
22,Southwind Road,40207,38.2756991,-85.6668794
23,Southwind Road,40207,38.2760833,-85.6672373
24,Southwind Road,40207,38.2764554,-85.6673293
25,Southwind Road,40207,38.2769126,-85.6675076
26,Southwind Road,40207,38.2772118,-85.6678099
27,Southwind Road,40207,38.2776876,-85.6681684
28,Southwind Road,40207,38.2774552,-85.6674892
29,Southwind Road,40207,38.2770596,-85.6671372
3,Indian Hills Trail,40207,38.2695573,-85.6649090
30,Southwind Road,40207,38.2766164,-85.6668073
32,Southwind Road,40207,38.2761214,-85.6663898
33,Arrowhead Road,40207,38.2725231,-85.6678084
34,Arrowhead Road,40207,38.2735016,-85.6686942
36,Arrowhead Road,40207,38.2741415,-85.6689959
37,Arrowhead Road,40207,38.2744727,-85.6695389
3730,Canoe Lane,40207,38.2708217,-85.6671463
3743,Deep Dale Lane,40207,38.2700690,-85.6665529
39,Calumet Road,40207,38.2752811,-85.6702033
3902,Old Brownsboro Road,40207,38.2665588,-85.6656871
3904,Old Brownsboro Road,40207,38.2667026,-85.6654707
3905,Brownsboro Road,40207,38.2663082,-85.6651861
3906,Old Brownsboro Road,40207,38.2668268,-85.6652375
3907,Brownsboro Road,40207,38.2663930,-85.6649540
3909,Brownsboro Road,40207,38.2664447,-85.6647336
3910,Old Brownsboro Road,40207,38.2670278,-85.6648053
3911,Brownsboro Road,40207,38.2665248,-85.6643933
3919,Brownsboro Road,40207,38.2668712,-85.6633038
3921,Brownsboro Road,40207,38.2669608,-85.6630217
3928,Old Brownsboro Road,40207,38.2675757,-85.6628455
3930,Old Brownsboro Road,40207,38.2676875,-85.6625332
3932,Old Brownsboro Road,40207,38.2674430,-85.6617485
4,Indian Hills Trail,40207,38.2699765,-85.6648619
40,Calumet Road,40207,38.2756554,-85.6699028
4001,Brownsboro Road,40207,38.2670418,-85.6626664
4003,Brownsboro Road,40207,38.2671226,-85.6622798
4005,Brownsboro Road,40207,38.2673063,-85.6620629
4007,Brownsboro Road,40207,38.2673218,-85.6611989
41,Calumet Road,40207,38.2760843,-85.6697537
42,Calumet Road,40207,38.2757981,-85.6704257
43,Calumet Road,40207,38.2762193,-85.6708689
44,Calumet Road,40207,38.2765890,-85.6708826
45,Calumet Road,40207,38.2769959,-85.6705348
46,Calumet Road,40207,38.2772895,-85.6706948
47,Tepee Road,40207,38.2780154,-85.6699491
4700,Indian Hills GRN,40207,38.2673183,-85.6631557
4700,Old Brownsboro Court,40207,38.2667802,-85.6636525
4702,Indian Hills GRN,40207,38.2671836,-85.6633638
4702,Old Brownsboro Court,40207,38.2667307,-85.6641282
4703,Old Brownsboro Court,40207,38.2670385,-85.6637821
4704,Indian Hills GRN,40207,38.2672452,-85.6635568
4705,Old Brownsboro Court,40207,38.2671861,-85.6639242
4706,Indian Hills GRN,40207,38.2674011,-85.6636647
4706,Old Brownsboro Court,40207,38.2669491,-85.6643199
4707,Old Brownsboro Court,40207,38.2673327,-85.6640706
4708,Indian Hills GRN,40207,38.2675326,-85.6637791
4708,Old Brownsboro Court,40207,38.2670669,-85.6644595
4709,Old Brownsboro Court,40207,38.2674549,-85.6642047
4710,Indian Hills GRN,40207,38.2676625,-85.6639075
4710,Old Brownsboro Court,40207,38.2672187,-85.6645880
48,Tepee Road,40207,38.2783134,-85.6699924
49,Tepee Road,40207,38.2782246,-85.6707095
5,Indian Hills Trail,40207,38.2703933,-85.6647625
50,Tepee Road,40207,38.2779441,-85.6711920
51,Calumet Road,40207,38.2771517,-85.6711263
52,Calumet Road,40207,38.2767533,-85.6713736
53,Tepee Road,40207,38.2781796,-85.6715648
54,Tepee Road,40207,38.2784433,-85.6712930
55,Tepee Road,40207,38.2787290,-85.6707793
6,Indian Hills Trail,40207,38.2709282,-85.6648336
69,Warrior Road,40207,38.2774550,-85.6661288
7,Arrowhead Road,40207,38.2707689,-85.6657559
70,Warrior Road,40207,38.2784006,-85.6663277
71,Indian Hills Trail,40207,38.2792555,-85.6673148
75,Westwind Road,40207,38.2789608,-85.6656026
77,Westwind Road,40207,38.2780307,-85.6650367
78,Westwind Road,40207,38.2780506,-85.6643892
79,Westwind Road,40207,38.2781773,-85.6635250
8,Arrowhead Road,40207,38.2707319,-85.6663529
81,Warrior Road,40207,38.2772310,-85.6639308
82,Warrior Road,40207,38.2771195,-85.6634611
83,Warrior Road,40207,38.2766898,-85.6633323
84,Wampum Road,40207,38.2760649,-85.6630926
85,Wampum Road,40207,38.2758221,-85.6637310
86,Wampum Road,40207,38.2754928,-85.6642706
87,Wampum Road,40207,38.2752503,-85.6647703
88,Indian Hills Trail,40207,38.2747985,-85.6652788
89,Indian Hills Trail,40207,38.2751373,-85.6653040
9,Arrowhead Road,40207,38.2713221,-85.6667648
90,Indian Hills Trail,40207,38.2756134,-85.6652534
90,Warrior Road,40207,38.2757902,-85.6647062
91,Warrior Road,40207,38.2762206,-85.6640274
93,Warrior Road,40207,38.2767797,-85.6642332
94,Warrior Road,40207,38.2764237,-85.6651859
95,Indian Hills Trail,40207,38.2762123,-85.6655466
96,Indian Hills Trail,40207,38.2766755,-85.6657820
97,Warrior Road,40207,38.2769476,-85.6654205
98,Warrior Road,40207,38.2768683,-85.6649331
100,Wampum Road,40207,38.2748936,-85.6634405
21,Poplar Hill Road,40207,38.2946259,-85.6645803
2702,Poplar Hill Court,40207,38.2938548,-85.6662754
2703,Poplar Hill Court,40207,38.2954869,-85.6650104
2704,Poplar Hill Court,40207,38.2944706,-85.6658312
2010,Rudy Lane,40207,38.2839817,-85.6439534
10,Poplar Hill Road,40207,38.2887568,-85.6651337
103,Blankenbaker Lane,40207,38.2749936,-85.6457010
105,Blankenbaker Lane,40207,38.2751652,-85.6458502
107,Blankenbaker Lane,40207,38.2754018,-85.6460745
109,Blankenbaker Lane,40207,38.2756169,-85.6462360
110,Spruce Lane,40207,38.2760852,-85.6459747
111,Blankenbaker Lane,40207,38.2758369,-85.6463523
112,Spruce Lane,40207,38.2765975,-85.6464130
113,Blankenbaker Lane,40207,38.2762906,-85.6466841
117,Blankenbaker Lane,40207,38.2766982,-85.6470326
119,Blankenbaker Lane,40207,38.2769272,-85.6471257
12,Poplar Hill Road,40207,38.2897446,-85.6647689
121,Blankenbaker Lane,40207,38.2771238,-85.6473459
123,Blankenbaker Lane,40207,38.2773710,-85.6475956
125,Blankenbaker Lane,40207,38.2776318,-85.6477649
14,Poplar Hill Road,40207,38.2886240,-85.6637814
15,Poplar Hill Road,40207,38.2896592,-85.6633968
1800,Ballard Mill Lane,40207,38.2780658,-85.6396955
1800,Rudy Lane,40207,38.2783853,-85.6388050
1801,Bainbridge Row Drive,40207,38.2791806,-85.6393740
1801,Ballard Mill Lane,40207,38.2781719,-85.6391328
1802,Ballard Mill Lane,40207,38.2782951,-85.6399162
1802,Rudy Lane,40207,38.2786315,-85.6389144
1803,Ballard Mill Lane,40207,38.2783776,-85.6392897
1805,Bainbridge Row Drive,40207,38.2787229,-85.6402327
1805,Ballard Mill Lane,40207,38.2785700,-85.6394571
1806,Bainbridge Row Drive,40207,38.2781451,-85.6401675
1807,Bainbridge Row Drive,40207,38.2785873,-85.6404399
1807,Ballard Mill Lane,40207,38.2790069,-85.6397667
1808,Bainbridge Row Drive,40207,38.2780177,-85.6403871
1809,Bainbridge Row Drive,40207,38.2784178,-85.6406592
1809,Ballard Mill Lane,40207,38.2792071,-85.6399088
1810,Bainbridge Row Drive,40207,38.2778718,-85.6406146
1811,Bainbridge Row Drive,40207,38.2783060,-85.6408417
1811,Ballard Mill Lane,40207,38.2793894,-85.6400762
1813,Bainbridge Row Drive,40207,38.2782432,-85.6411272
1813,Ballard Mill Lane,40207,38.2795643,-85.6402330
1814,Bainbridge Row Drive,40207,38.2779269,-85.6417650
1815,Bainbridge Row Drive,40207,38.2783237,-85.6413735
1815,Ballard Mill Lane,40207,38.2798033,-85.6403879
1816,Bainbridge Row Drive,40207,38.2781295,-85.6419477
1817,Bainbridge Row Drive,40207,38.2784964,-85.6415090
1817,Ballard Mill Lane,40207,38.2799055,-85.6407237
1818,Ballard Mill Lane,40207,38.2795141,-85.6412180
1819,Bainbridge Row Drive,40207,38.2786942,-85.6416971
1820,Bainbridge Row Drive,40207,38.2783514,-85.6420966
1820,Ballard Mill Lane,40207,38.2794839,-85.6415243
1821,Bainbridge Row Drive,40207,38.2788956,-85.6418601
1822,Bainbridge Row Drive,40207,38.2785573,-85.6422227
1822,Ballard Mill Lane,40207,38.2794952,-85.6418104
1823,Bainbridge Row Drive,40207,38.2791010,-85.6419951
1823,Ballard Mill Lane,40207,38.2802555,-85.6423099
1824,Bainbridge Row Drive,40207,38.2787398,-85.6423726
1824,Ballard Mill Lane,40207,38.2793284,-85.6420941
1826,Bainbridge Row Drive,40207,38.2789195,-85.6425160
1828,Bainbridge Row Drive,40207,38.2791153,-85.6426713
19,Poplar Hill Road,40207,38.2894855,-85.6623833
1900,Bainbridge Row Drive,40207,38.2792849,-85.6428255
1900,Lonlipman Court,40207,38.2799871,-85.6413694
1901,Bainbridge Row Drive,40207,38.2797310,-85.6424885
1901,Daleview Lane,40207,38.2807881,-85.6445921
1902,Bainbridge Row Drive,40207,38.2794631,-85.6429536
1902,Rudy Lane,40207,38.2794009,-85.6394743
1903,Bainbridge Row Drive,40207,38.2798776,-85.6426281
1903,Lonlipman Court,40207,38.2801433,-85.6407929
1904,Bainbridge Row Drive,40207,38.2796833,-85.6430987
1904,Lonlipman Court,40207,38.2802290,-85.6415999
1904,Rudy Lane,40207,38.2795903,-85.6396220
1905,Bainbridge Row Drive,40207,38.2800742,-85.6427738
1905,Lonlipman Court,40207,38.2803503,-85.6408486
1906,Bainbridge Row Drive,40207,38.2798511,-85.6432434
1906,Lonlipman Court,40207,38.2804632,-85.6416186
1906,Rudy Lane,40207,38.2797985,-85.6398065
1907,Bainbridge Row Drive,40207,38.2802678,-85.6428796
1907,Lonlipman Court,40207,38.2805766,-85.6409379
1908,Bainbridge Row Drive,40207,38.2800423,-85.6434393
1908,Rudy Lane,40207,38.2799755,-85.6399035
1909,Bainbridge Row Drive,40207,38.2804464,-85.6430616
1910,Bainbridge Row Drive,40207,38.2802261,-85.6435295
1910,Rudy Lane,40207,38.2801623,-85.6401044
1911,Bainbridge Row Drive,40207,38.2806401,-85.6431831
1912,Bainbridge Row Drive,40207,38.2804235,-85.6437025
1912,Rudy Lane,40207,38.2803523,-85.6402528
1914,Bainbridge Row Drive,40207,38.2806032,-85.6438612
1914,Rudy Lane,40207,38.2805440,-85.6403975
1916,Rudy Lane,40207,38.2807445,-85.6404998
2000,Bainbridge Row Drive,40207,38.2810056,-85.6441772
2002,Bainbridge Row Drive,40207,38.2812065,-85.6443033
2003,Bainbridge Row Drive,40207,38.2814395,-85.6438026
2003,Croghan House Drive,40207,38.2816464,-85.6426305
2004,Bainbridge Row Drive,40207,38.2814116,-85.6444426
2004,Croghan House Drive,40207,38.2818603,-85.6431724
2005,Bainbridge Row Drive,40207,38.2816435,-85.6439509
2005,Croghan House Drive,40207,38.2818701,-85.6426473
2006,Bainbridge Row Drive,40207,38.2816049,-85.6445771
2006,Croghan House Drive,40207,38.2825834,-85.6429368
2007,Bainbridge Row Drive,40207,38.2818312,-85.6441139
2007,Croghan House Drive,40207,38.2821019,-85.6425452
2008,Bainbridge Row Drive,40207,38.2817674,-85.6447594
2008,Croghan House Drive,40207,38.2827576,-85.6427586
2009,Bainbridge Row Drive,40207,38.2820155,-85.6442431
2009,Croghan House Drive,40207,38.2823097,-85.6424268
2010,Bainbridge Row Drive,40207,38.2819594,-85.6448946
2010,Croghan House Drive,40207,38.2828981,-85.6425401
2011,Bainbridge Row Drive,40207,38.2822107,-85.6444184
2011,Croghan House Drive,40207,38.2824978,-85.6422284
2012,Bainbridge Row Drive,40207,38.2821883,-85.6450649
2012,Croghan House Drive,40207,38.2830162,-85.6423057
2013,Bainbridge Row Drive,40207,38.2824349,-85.6445794
2013,Croghan House Drive,40207,38.2825974,-85.6419863
2014,Bainbridge Row Drive,40207,38.2823899,-85.6452025
2015,Bainbridge Row Drive,40207,38.2826283,-85.6447185
2016,Bainbridge Row Drive,40207,38.2826013,-85.6453620
2017,Bainbridge Row Drive,40207,38.2828455,-85.6448841
2018,Bainbridge Row Drive,40207,38.2827991,-85.6455467
2019,Bainbridge Row Drive,40207,38.2830406,-85.6450674
2020,Bainbridge Row Drive,40207,38.2830442,-85.6457086
2021,Bainbridge Row Drive,40207,38.2832459,-85.6451646
2100,Bainbridge Row Drive,40207,38.2832706,-85.6458955
2101,Bainbridge Row Drive,40207,38.2835017,-85.6453997
2102,Glen Cove Way,40207,38.2841101,-85.6530107
2103,Bainbridge Row Drive,40207,38.2837026,-85.6455384
2103,Glen Cove Way,40207,38.2843296,-85.6524023
2103,Rudy Lane,40207,38.2853590,-85.6437951
2104,Bainbridge Row Drive,40207,38.2836697,-85.6462005
2104,Glen Cove Way,40207,38.2844207,-85.6531368
2104,Rudy Lane,40207,38.2849177,-85.6440849
2105,Bainbridge Row Drive,40207,38.2839311,-85.6456737
2105,Glen Cove Way,40207,38.2846184,-85.6525100
2105,Rudy Lane,40207,38.2854016,-85.6440584
2106,Bainbridge Row Drive,40207,38.2838845,-85.6462542
2106,Glen Cove Way,40207,38.2846935,-85.6532684
2106,Rudy Lane,40207,38.2848147,-85.6443534
2107,Bainbridge Row Drive,40207,38.2841396,-85.6456615
2107,Glen Cove Way,40207,38.2849006,-85.6526622
2107,Rudy Lane,40207,38.2853830,-85.6443387
2108,Bainbridge Row Drive,40207,38.2841195,-85.6462423
2108,Glen Cove Way,40207,38.2850157,-85.6530314
2108,Rudy Lane,40207,38.2846719,-85.6445802
2110,Bainbridge Row Drive,40207,38.2843589,-85.6461448
2110,Rudy Lane,40207,38.2845899,-85.6448907
2111,Rudy Lane,40207,38.2850274,-85.6451021
2112,Rudy Lane,40207,38.2844139,-85.6451598
2113,Rudy Lane,40207,38.2848719,-85.6453992
2114,Rudy Lane,40207,38.2843534,-85.6453968
2201,Bell Tavern Court,40207,38.2853231,-85.6446335
2202,Ardsley Road,40207,38.2846272,-85.6517216
2202,Bell Tavern Court,40207,38.2852558,-85.6452263
2203,Ardsley Road,40207,38.2848959,-85.6511814
2203,Bell Tavern Court,40207,38.2855974,-85.6447816
2203,Merrick Road,40207,38.2854476,-85.6499771
2204,Ardsley Road,40207,38.2848936,-85.6519143
2204,Bell Tavern Court,40207,38.2853935,-85.6455718
2204,Merrick Road,40207,38.2852118,-85.6505760
2205,Ardsley Road,40207,38.2851701,-85.6513326
2205,Bell Tavern Court,40207,38.2858121,-85.6448732
2205,Merrick Road,40207,38.2857424,-85.6502099
2206,Bell Tavern Court,40207,38.2857209,-85.6455916
2206,Merrick Road,40207,38.2854756,-85.6507357
2207,Ardsley Road,40207,38.2851125,-85.6516745
2207,Bell Tavern Court,40207,38.2860277,-85.6450031
2207,Merrick Road,40207,38.2859886,-85.6503679
2208,Bell Tavern Court,40207,38.2860680,-85.6459900
2208,Merrick Road,40207,38.2857090,-85.6509504
2209,Bell Tavern Court,40207,38.2862078,-85.6452411
2210,Bell Tavern Court,40207,38.2863017,-85.6458480
2211,Bell Tavern Court,40207,38.2863516,-85.6455027
2217,Grove Hill Place,40207,38.2880722,-85.6646518
2219,Grove Hill Place,40207,38.2880473,-85.6650482
2300,Merrick Road,40207,38.2859607,-85.6511548
2300,Phoenix Hill Drive,40207,38.2859626,-85.6479508
2300,Tuckaho Road,40207,38.2855118,-85.6491620
2301,Merrick Road,40207,38.2862733,-85.6505712
2302,Merrick Road,40207,38.2862449,-85.6513794
2302,Phoenix Hill Drive,40207,38.2862224,-85.6481574
2303,Fallsview Road,40207,38.2860797,-85.6464517
2303,Merrick Road,40207,38.2865080,-85.6507492
2303,Phoenix Hill Drive,40207,38.2865358,-85.6477254
2303,Tuckaho Road,40207,38.2859014,-85.6487019
2304,Merrick Road,40207,38.2865353,-85.6515816
2304,Phoenix Hill Drive,40207,38.2864022,-85.6482324
2304,Tuckaho Road,40207,38.2858427,-85.6494527
2305,Fallsview Road,40207,38.2863568,-85.6464572
2305,Merrick Road,40207,38.2867671,-85.6509569
2305,Phoenix Hill Drive,40207,38.2867464,-85.6478638
2305,Tuckaho Road,40207,38.2861797,-85.6489234
2306,Fallsview Road,40207,38.2863909,-85.6469966
2306,Merrick Road,40207,38.2867481,-85.6517697
2306,Phoenix Hill Drive,40207,38.2866927,-85.6484739
2306,Tuckaho Road,40207,38.2860743,-85.6496944
2307,Fallsview Road,40207,38.2866059,-85.6465084
2307,Merrick Road,40207,38.2870258,-85.6511835
2307,Phoenix Hill Drive,40207,38.2869400,-85.6480146
2307,Tuckaho Road,40207,38.2864035,-85.6491591
2308,Fallsview Road,40207,38.2866193,-85.6470316
2308,Merrick Road,40207,38.2870423,-85.6519211
2308,Phoenix Hill Drive,40207,38.2868740,-85.6485964
2308,Tuckaho Road,40207,38.2863122,-85.6498817
2309,Merrick Road,40207,38.2872580,-85.6513669
2309,Phoenix Hill Drive,40207,38.2872355,-85.6482386
2309,Tuckaho Road,40207,38.2866041,-85.6493693
2310,Fallsview Road,40207,38.2868851,-85.6471188
2310,Merrick Road,40207,38.2872979,-85.6521199
2310,Phoenix Hill Drive,40207,38.2871403,-85.6488002
2310,Tuckaho Road,40207,38.2865355,-85.6501372
2311,Fallsview Road,40207,38.2868492,-85.6465320
2311,Phoenix Hill Drive,40207,38.2874046,-85.6483711
2311,Tuckaho Road,40207,38.2868373,-85.6495451
2312,Fallsview Road,40207,38.2871336,-85.6472867
2312,Tuckaho Road,40207,38.2867944,-85.6503298
2313,Tuckaho Road,40207,38.2870676,-85.6497606
2314,Fallsview Road,40207,38.2873528,-85.6474426
2314,Tuckaho Road,40207,38.2870335,-85.6505624
2315,Tuckaho Road,40207,38.2873842,-85.6499817
2316,Fallsview Road,40207,38.2875992,-85.6476382
2318,Fallsview Road,40207,38.2878337,-85.6478623
2400,Fallsview Road,40207,38.2880452,-85.6480770
2400,Merrick Road,40207,38.2875786,-85.6522486
2400,Phoenix Hill Drive,40207,38.2873731,-85.6489809
2400,Tuckaho Road,40207,38.2872902,-85.6506962
2401,Merrick Road,40207,38.2875336,-85.6515260
2401,Phoenix Hill Drive,40207,38.2876507,-85.6485565
2401,Tuckaho Road,40207,38.2876005,-85.6501435
2402,Fallsview Road,40207,38.2882396,-85.6482841
2402,Merrick Road,40207,38.2878199,-85.6520901
2402,Phoenix Hill Drive,40207,38.2875716,-85.6491722
2402,Tuckaho Road,40207,38.2875664,-85.6508827
2403,Phoenix Hill Drive,40207,38.2878931,-85.6487261
2403,Tuckaho Road,40207,38.2878559,-85.6503028
2404,Merrick Road,40207,38.2880189,-85.6518830
2404,Phoenix Hill Drive,40207,38.2877778,-85.6493172
2405,Merrick Road,40207,38.2878798,-85.6511280
2405,Phoenix Hill Drive,40207,38.2881896,-85.6489543
2405,Tuckaho Road,40207,38.2881057,-85.6504439
2406,Merrick Road,40207,38.2881896,-85.6516386
2406,Phoenix Hill Drive,40207,38.2880000,-85.6494740
2407,Tuckaho Road,40207,38.2883574,-85.6506556
2408,Phoenix Hill Drive,40207,38.2881956,-85.6496515
2409,Tuckaho Road,40207,38.2886410,-85.6508317
2410,Merrick Road,40207,38.2884462,-85.6514633
25,Poplar Hill Road,40207,38.2917985,-85.6624173
2500,Poplar Crest Road,40207,38.2903158,-85.6650800
2501,Poplar Crest Road,40207,38.2904120,-85.6642451
2501,Tuckaho Road,40207,38.2888828,-85.6509566
2505,Poplar Crest Road,40207,38.2909863,-85.6643839
2508,Poplar Crest Road,40207,38.2908498,-85.6652675
2511,Poplar Crest Road,40207,38.2914695,-85.6645308
2512,Poplar Crest Road,40207,38.2913515,-85.6655270
2513,Poplar Crest Road,40207,38.2918947,-85.6648428
2514,Poplar Crest Road,40207,38.2919330,-85.6655243
26,Poplar Hill Road,40207,38.2901058,-85.6628966
27,Poplar Hill Road,40207,38.2924891,-85.6622045
2700,Poplar Hill Court,40207,38.2925943,-85.6654937
2701,Poplar Hill Court,40207,38.2928785,-85.6642561
29,Poplar Hill Road,40207,38.2896920,-85.6616572
30,Poplar Hill Road,40207,38.2915215,-85.6630621
31,Poplar Hill Road,40207,38.2910091,-85.6626429
32,Poplar Hill Road,40207,38.2923502,-85.6637010
35,Poplar Hill Road,40207,38.2906651,-85.6602946
401,Blankenbaker Lane,40207,38.2837208,-85.6538427
409,Blankenbaker Lane,40207,38.2841206,-85.6539159
417,Blankenbaker Lane,40207,38.2844079,-85.6538704
419,Blankenbaker Lane,40207,38.2847916,-85.6538602
427,Blankenbaker Lane,40207,38.2852259,-85.6538131
4320,Poplar Hill Woods,40207,38.2909648,-85.6662539
4601,Brownsboro Road,40207,38.2747339,-85.6454471
4605,Brownsboro Road,40207,38.2748732,-85.6451757
5009,Old Federal Road,40207,38.2867255,-85.6523925
5015,Old Federal Road,40207,38.2858685,-85.6517376
5209,Hempstead Road,40207,38.2837778,-85.6529932
5300,Hempstead Road,40207,38.2833264,-85.6521413
5301,Hempstead Road,40207,38.2840097,-85.6521888
5302,Hempstead Road,40207,38.2835231,-85.6518214
5303,Hempstead Road,40207,38.2841642,-85.6518241
5304,Hempstead Road,40207,38.2836236,-85.6515118
5306,Hempstead Road,40207,38.2837924,-85.6511803
5307,Hempstead Road,40207,38.2843393,-85.6515062
5308,Hempstead Road,40207,38.2839242,-85.6508719
5309,Hempstead Road,40207,38.2845567,-85.6508984
5310,Hempstead Road,40207,38.2840872,-85.6505459
5311,Hempstead Road,40207,38.2846738,-85.6505819
5312,Hempstead Road,40207,38.2842188,-85.6502344
5313,Hempstead Road,40207,38.2848593,-85.6502895
5314,Hempstead Road,40207,38.2843941,-85.6499647
5400,Hempstead Road,40207,38.2845770,-85.6496054
5401,Hempstead Road,40207,38.2851807,-85.6497692
5402,Hempstead Road,40207,38.2846868,-85.6493512
5404,Hempstead Road,40207,38.2848761,-85.6490232
5406,Hempstead Road,40207,38.2850203,-85.6487065
5500,Hempstead Road,40207,38.2851587,-85.6483887
5501,Hempstead Road,40207,38.2856797,-85.6485222
5502,Hempstead Road,40207,38.2853253,-85.6480950
5504,Hempstead Road,40207,38.2854525,-85.6477879
5505,Hempstead Road,40207,38.2860800,-85.6471317
5506,Hempstead Road,40207,38.2855963,-85.6475356
5507,Hempstead Road,40207,38.2858115,-85.6465060
5508,Hempstead Road,40207,38.2856247,-85.6471869
5509,Hempstead Road,40207,38.2855837,-85.6462616
5510,Hempstead Road,40207,38.2854788,-85.6469116
5512,Hempstead Road,40207,38.2853061,-85.6467488
5513,Hempstead Road,40207,38.2853372,-85.6461303
5514,Hempstead Road,40207,38.2851176,-85.6466020
5515,Hempstead Road,40207,38.2850299,-85.6458883
5516,Hempstead Road,40207,38.2849350,-85.6472689
5517,Hempstead Road,40207,38.2848039,-85.6456792
5518,Hempstead Road,40207,38.2844610,-85.6469463
5520,Hempstead Road,40207,38.2847929,-85.6463668
5522,Hempstead Road,40207,38.2846072,-85.6462154
5710,Apache Road,40207,38.2802414,-85.6440808
5800,Apache Road,40207,38.2808471,-85.6433174
5800,Beyroth Court,40207,38.2822204,-85.6436681
5801,Apache Road,40207,38.2812577,-85.6436113
5801,Beyroth Court,40207,38.2824531,-85.6435096
5802,Apache Road,40207,38.2809727,-85.6429627
5802,Beyroth Court,40207,38.2819674,-85.6435040
5803,Apache Road,40207,38.2813875,-85.6432480
5803,Beyroth Court,40207,38.2825068,-85.6432628
5900,Apache Road,40207,38.2809167,-85.6426617
5900,Croft Court,40207,38.2787153,-85.6410980
5900,Hickman Court,40207,38.2817043,-85.6421584
5901,Apache Road,40207,38.2813563,-85.6425008
5901,Croft Court,40207,38.2789048,-85.6413291
5901,Hickman Court,40207,38.2819450,-85.6421627
5902,Apache Road,40207,38.2808761,-85.6424075
5902,Croft Court,40207,38.2787563,-85.6407736
5902,Hickman Court,40207,38.2815874,-85.6418385
5903,Apache Road,40207,38.2812742,-85.6421426
5903,Croft Court,40207,38.2791797,-85.6412991
5903,Hickman Court,40207,38.2821281,-85.6419246
5904,Apache Road,40207,38.2807878,-85.6421491
5904,Croft Court,40207,38.2789746,-85.6404840
5904,Hickman Court,40207,38.2816422,-85.6415761
5905,Apache Road,40207,38.2812062,-85.6418503
5905,Croft Court,40207,38.2793382,-85.6407335
5905,Hickman Court,40207,38.2822205,-85.6416937
5906,Apache Road,40207,38.2807367,-85.6418509
5906,Hickman Court,40207,38.2818147,-85.6413812
5907,Apache Road,40207,38.2812471,-85.6415442
5908,Apache Road,40207,38.2807346,-85.6415449
5909,Apache Road,40207,38.2812782,-85.6412985
5910,Apache Road,40207,38.2807824,-85.6412453
5911,Apache Road,40207,38.2813893,-85.6410625
5912,Apache Road,40207,38.2808873,-85.6409817
5914,Apache Road,40207,38.2810046,-85.6407547
6000,Hackney Coach Drive,40207,38.2777531,-85.6415128
6001,Hackney Coach Drive,40207,38.2776951,-85.6408829
6002,Hackney Coach Drive,40207,38.2774646,-85.6414262
6004,Hackney Coach Drive,40207,38.2772387,-85.6412266
6005,Hackney Coach Drive,40207,38.2774091,-85.6406578
6006,Hackney Coach Drive,40207,38.2769955,-85.6410671
6007,Hackney Coach Drive,40207,38.2775702,-85.6403092
6009,Hackney Coach Drive,40207,38.2777066,-85.6400875
6011,Hackney Coach Drive,40207,38.2778489,-85.6398698
609,Blankenbaker Lane,40207,38.2884807,-85.6662381
701,Blankenbaker Lane,40207,38.2902498,-85.6669365
703,Blankenbaker Lane,40207,38.2895201,-85.6680853
705,Blankenbaker Lane,40207,38.2900922,-85.6683564
1,River Bluff Road,40207,38.2861272,-85.6753101
1,River Hill Road,40207,38.2864722,-85.6737605
1,Woodhill Road,40207,38.2822002,-85.6711635
10,Rio Vista Drive,40207,38.2848168,-85.6733333
10,River Hill Road,40207,38.2854366,-85.6736105
10,Woodhill Road,40207,38.2822965,-85.6685194
100,Blankenbaker Lane,40207,38.2744061,-85.6461342
100,Westwind Road,40207,38.2787510,-85.6637485
102,Blankenbaker Lane,40207,38.2746525,-85.6466402
102,Travois Road,40207,38.2734279,-85.6480875
104,Blankenbaker Lane,40207,38.2749622,-85.6465645
105,Travois Road,40207,38.2737544,-85.6473033
106,Blankenbaker Lane,40207,38.2752057,-85.6467401
106,Travois Road,40207,38.2737901,-85.6481638
107,Travois Road,40207,38.2742154,-85.6474829
108,Blankenbaker Lane,40207,38.2754520,-85.6469517
109,Travois Road,40207,38.2745007,-85.6474824
11,Rio Vista Drive,40207,38.2849870,-85.6730211
11,River Hill Road,40207,38.2852527,-85.6704497
11,Stonebridge Road,40207,38.2881070,-85.6738605
11,Woodhill Road,40207,38.2831221,-85.6676158
110,Blankenbaker Lane,40207,38.2756774,-85.6471305
110,Travois Road,40207,38.2745765,-85.6481883
111,Travois Road,40207,38.2747999,-85.6475061
112,Blankenbaker Lane,40207,38.2759109,-85.6473075
112,Travois Road,40207,38.2748755,-85.6481386
113,Travois Road,40207,38.2751032,-85.6475399
114,Blankenbaker Lane,40207,38.2761542,-85.6474893
114,Travois Road,40207,38.2751053,-85.6482068
115,Travois Road,40207,38.2754128,-85.6476547
116,Blankenbaker Lane,40207,38.2763819,-85.6476698
116,Travois Road,40207,38.2753220,-85.6483254
117,Travois Road,40207,38.2756774,-85.6477984
118,Blankenbaker Lane,40207,38.2766110,-85.6478090
118,Travois Road,40207,38.2755561,-85.6484696
119,Travois Road,40207,38.2759186,-85.6479936
12,River Hill Road,40207,38.2849116,-85.6700226
12,River Hill Road,40207,38.2845808,-85.6693694
12,Westwind Road,40207,38.2678313,-85.6613554
12,Woodhill Road,40207,38.2825096,-85.6679108
120,Blankenbaker Lane,40207,38.2768581,-85.6480515
120,Travois Road,40207,38.2757689,-85.6486484
121,Travois Road,40207,38.2761296,-85.6482020
122,Blankenbaker Lane,40207,38.2771114,-85.6482321
122,Travois Road,40207,38.2759995,-85.6488861
123,Travois Road,40207,38.2763478,-85.6484193
124,Blankenbaker Lane,40207,38.2773388,-85.6484157
124,Travois Road,40207,38.2762035,-85.6490841
125,Travois Road,40207,38.2765462,-85.6486158
126,Blankenbaker Lane,40207,38.2775870,-85.6485768
127,Travois Road,40207,38.2767721,-85.6488164
128,Blankenbaker Lane,40207,38.2777910,-85.6488251
128,Travois Road,40207,38.2766892,-85.6495527
129,Travois Road,40207,38.2770041,-85.6489941
13,River Hill Road,40207,38.2842554,-85.6688400
13,Westwind Road,40207,38.2680148,-85.6611158
130,Travois Road,40207,38.2769237,-85.6496924
131,Travois Road,40207,38.2772608,-85.6491853
132,Travois Road,40207,38.2771701,-85.6498705
133,Travois Road,40207,38.2775857,-85.6492939
134,Travois Road,40207,38.2773635,-85.6501279
14,Rio Vista Drive,40207,38.2847928,-85.6717844
14,River Hill Road,40207,38.2838274,-85.6682802
14,Westwind Road,40207,38.2681815,-85.6608296
14,Woodhill Road,40207,38.2826357,-85.6673635
1400,Northwind Road,40207,38.2724744,-85.6572130
1401,Northwind Road,40207,38.2725435,-85.6565714
1402,Northwind Road,40207,38.2728616,-85.6573164
1403,Northwind Road,40207,38.2730077,-85.6566777
1404,Northwind Road,40207,38.2732768,-85.6574117
1405,Northwind Road,40207,38.2733823,-85.6567863
1406,Northwind Road,40207,38.2736239,-85.6575077
1407,Northwind Road,40207,38.2740996,-85.6568389
1408,Northwind Road,40207,38.2739677,-85.6574492
1410,Northwind Road,40207,38.2743324,-85.6573572
1412,Northwind Road,40207,38.2748678,-85.6578534
1414,Northwind Road,40207,38.2752604,-85.6578669
143,Westwind Road,40207,38.2695302,-85.6602400
144,Westwind Road,40207,38.2701107,-85.6597877
145,Westwind Road,40207,38.2709340,-85.6595810
146,Westwind Road,40207,38.2712723,-85.6597339
147,Westwind Road,40207,38.2718089,-85.6599965
148,Westwind Road,40207,38.2724671,-85.6603387
149,Westwind Road,40207,38.2729456,-85.6604566
15,Rio Vista Drive,40207,38.2843281,-85.6715410
15,River Hill Road,40207,38.2820108,-85.6662319
15,Westwind Road,40207,38.2683147,-85.6605627
150,Westwind Road,40207,38.2733739,-85.6605760
1501,Northwind Road,40207,38.2750590,-85.6565433
1503,Northwind Road,40207,38.2753605,-85.6564346
1505,Northwind Road,40207,38.2755394,-85.6559884
1506,Northwind Road,40207,38.2759992,-85.6566333
1507,Northwind Road,40207,38.2756571,-85.6555230
1508,Northwind Road,40207,38.2762136,-85.6562867
1510,Northwind Road,40207,38.2767691,-85.6559066
1511,Northwind Road,40207,38.2766601,-85.6551051
1513,Northwind Road,40207,38.2769653,-85.6550534
1515,Northwind Road,40207,38.2774096,-85.6551554
1516,Northwind Road,40207,38.2772051,-85.6561443
1517,Northwind Road,40207,38.2777272,-85.6553096
1518,Northwind Road,40207,38.2775858,-85.6560496
152,Totem Road,40207,38.2708204,-85.6604436
1520,Northwind Road,40207,38.2777844,-85.6556923
153,Totem Road,40207,38.2711542,-85.6605047
154,Totem Road,40207,38.2715341,-85.6606085
155,Totem Road,40207,38.2719491,-85.6608093
156,Totem Road,40207,38.2724138,-85.6609738
157,Totem Road,40207,38.2728253,-85.6611451
158,Arrowhead Road,40207,38.2733254,-85.6611560
159,Westwind Road,40207,38.2740347,-85.6606829
16,Rio Vista Drive,40207,38.2837531,-85.6715914
16,River Hill Road,40207,38.2816351,-85.6643823
16,Westwind Road,40207,38.2685343,-85.6603000
160,Westwind Road,40207,38.2747916,-85.6605047
161,Westwind Road,40207,38.2753376,-85.6601534
162,Arrowhead Road,40207,38.2737600,-85.6616911
163,Arrowhead Road,40207,38.2742213,-85.6615452
164,Arrowhead Road,40207,38.2747907,-85.6615224
165,Totem Road,40207,38.2752677,-85.6617983
166,Totem Road,40207,38.2757241,-85.6617265
167,Totem Road,40207,38.2761510,-85.6614722
168,Totem Road,40207,38.2765427,-85.6611867
169,Westwind Road,40207,38.2769777,-85.6607393
17,Rio Vista Drive,40207,38.2834970,-85.6722386
17,River Hill Road,40207,38.2827528,-85.6657606
17,Westwind Road,40207,38.2686963,-85.6600105
170,Westwind Road,40207,38.2765484,-85.6607120
171,Westwind Road,40207,38.2760467,-85.6604509
172,Arrowhead Road,40207,38.2756222,-85.6608494
173,Arrowhead Road,40207,38.2751512,-85.6612116
177,Westwind Road,40207,38.2717508,-85.6589765
178,Westwind Road,40207,38.2721015,-85.6593043
179,Westwind Road,40207,38.2725569,-85.6595347
18,Rio Vista Drive,40207,38.2831674,-85.6730987
18,River Hill Road,40207,38.2822239,-85.6650109
18,Westwind Road,40207,38.2688878,-85.6597709
180,Westwind Road,40207,38.2732556,-85.6598474
181,Westwind Road,40207,38.2737741,-85.6597822
182,Bow Lane,40207,38.2732360,-85.6592625
183,Bow Lane,40207,38.2727731,-85.6589622
185,Westwind Road,40207,38.2698452,-85.6590629
187,Westwind Road,40207,38.2704096,-85.6589135
188,Bow Lane,40207,38.2711316,-85.6586662
189,Bow Lane,40207,38.2718366,-85.6581900
189,Bow Lane,40207,38.2715606,-85.6584206
19,Rio Vista Drive,40207,38.2827770,-85.6736139
19,River Hill Road,40207,38.2868262,-85.6731617
19,Westwind Road,40207,38.2690410,-85.6594958
190,Bow Lane,40207,38.2722269,-85.6580686
191,Bow Lane,40207,38.2727238,-85.6581948
192,Bow Lane,40207,38.2732146,-85.6585468
193,Bow Lane,40207,38.2739311,-85.6586780
194,Westwind Road,40207,38.2745857,-85.6596278
195,Westwind Road,40207,38.2751403,-85.6592553
196,Westwind Road,40207,38.2757585,-85.6591862
197,Westwind Road,40207,38.2762403,-85.6595388
198,Sequoya Road,40207,38.2769593,-85.6540509
198,Westwind Road,40207,38.2765692,-85.6597383
199,Bow Lane,40207,38.2742743,-85.6592433
199,Westwind Road,40207,38.2771858,-85.6598386
2,Rio Vista Drive,40207,38.2824227,-85.6748476
2,River Bluff Road,40207,38.2858691,-85.6746165
2,River Hill Road,40207,38.2855179,-85.6711310
2,Woodhill Road,40207,38.2818841,-85.6706298
20,Rio Vista Drive,40207,38.2833101,-85.6739082
20,River Hill Road,40207,38.2833418,-85.6663942
20,Stonebridge Road,40207,38.2885481,-85.6733225
20,Westwind Road,40207,38.2691458,-85.6591884
200,Cayuga Road,40207,38.2781024,-85.6533908
200,Choctaw Road,40207,38.2792402,-85.6521723
200,Sequoya Road,40207,38.2772345,-85.6540551
200,Travois Road,40207,38.2778851,-85.6505633
200,Westwind Road,40207,38.2777992,-85.6598322
2000,Glen Cove Way,40207,38.2827192,-85.6526538
2000,Indian Chute,40207,38.2808092,-85.6578095
2000,Long Knife Court,40207,38.2818480,-85.6576018
2001,Long Knife Court,40207,38.2821895,-85.6575717
2001,Rio Vista Drive,40207,38.2816919,-85.6746794
2002,Indian Chute,40207,38.2810999,-85.6576795
2002,Long Knife Court,40207,38.2817623,-85.6580113
2003,Indian Chute,40207,38.2811138,-85.6568070
2003,Long Knife Court,40207,38.2823667,-85.6578126
2003,Rio Vista Drive,40207,38.2819698,-85.6741047
2004,Glen Cove Way,40207,38.2829909,-85.6528199
2004,Indian Chute,40207,38.2812579,-85.6574120
2004,Long Knife Court,40207,38.2820217,-85.6582667
2005,Indian Chute,40207,38.2813194,-85.6565126
2005,Long Knife Court,40207,38.2825211,-85.6580496
2006,Indian Chute,40207,38.2814709,-85.6571610
2006,Long Knife Court,40207,38.2821855,-85.6584792
2007,Indian Chute,40207,38.2813775,-85.6562479
2007,Rio Vista Drive,40207,38.2828642,-85.6725604
2008,Indian Chute,40207,38.2816225,-85.6569148
2009,Indian Chute,40207,38.2815639,-85.6558732
201,Choctaw Road,40207,38.2797338,-85.6524790
201,Sequoya Road,40207,38.2779457,-85.6536608
201,Travois Road,40207,38.2781102,-85.6496718
201,Westwind Road,40207,38.2787126,-85.6632385
2011,Indian Chute,40207,38.2817809,-85.6553623
2012,Indian Chute,40207,38.2820778,-85.6559477
202,Blankenbaker Lane,40207,38.2782915,-85.6492091
202,Choctaw Road,40207,38.2791812,-85.6526765
202,Sequoya Road,40207,38.2775064,-85.6541530
203,Choctaw Road,40207,38.2797209,-85.6527707
203,Travois Road,40207,38.2782735,-85.6498406
204,Blankenbaker Lane,40207,38.2785502,-85.6493666
204,Cayuga Road,40207,38.2784994,-85.6535708
204,Choctaw Road,40207,38.2791454,-85.6530860
204,Sequoya Road,40207,38.2777756,-85.6542424
204,Travois Road,40207,38.2784231,-85.6508868
205,Choctaw Road,40207,38.2797244,-85.6530749
205,Sequoya Road,40207,38.2784046,-85.6539174
205,Travois Road,40207,38.2784912,-85.6501295
206,Blankenbaker Lane,40207,38.2787776,-85.6495505
206,Cayuga Road,40207,38.2787794,-85.6537024
206,Sequoya Road,40207,38.2780310,-85.6544200
206,Travois Road,40207,38.2788985,-85.6512817
207,Choctaw Road,40207,38.2798719,-85.6533434
207,Sequoya Road,40207,38.2786939,-85.6540792
207,Travois Road,40207,38.2787374,-85.6503230
208,Blankenbaker Lane,40207,38.2789859,-85.6497734
208,Cayuga Road,40207,38.2790788,-85.6538412
208,Choctaw Road,40207,38.2796316,-85.6541018
208,Sequoya Road,40207,38.2783560,-85.6545740
208,Travois Road,40207,38.2791434,-85.6514169
209,Choctaw Road,40207,38.2800247,-85.6535108
209,Sequoya Road,40207,38.2789323,-85.6542023
209,Travois Road,40207,38.2789752,-85.6505177
21,Rio Vista Drive,40207,38.2838385,-85.6742017
21,River Hill Road,40207,38.2842491,-85.6670917
210,Blankenbaker Lane,40207,38.2792640,-85.6499897
210,Cayuga Road,40207,38.2793693,-85.6539583
210,Choctaw Road,40207,38.2798822,-85.6542218
210,Sequoya Road,40207,38.2785758,-85.6547336
210,Travois Road,40207,38.2793483,-85.6516081
2100,Croghan Cross,40207,38.2819243,-85.6568850
2100,Indian Chute,40207,38.2822667,-85.6556273
2101,Croghan Cross,40207,38.2820665,-85.6563547
2101,Indian Chute,40207,38.2819454,-85.6549246
2102,Croghan Cross,40207,38.2821541,-85.6569529
2103,Croghan Cross,40207,38.2824254,-85.6563061
2103,Indian Chute,40207,38.2822836,-85.6549684
2104,Croghan Cross,40207,38.2824390,-85.6570295
2104,Indian Chute,40207,38.2825555,-85.6558206
2105,Croghan Cross,40207,38.2827110,-85.6563824
2105,Indian Chute,40207,38.2825714,-85.6551274
2106,Croghan Cross,40207,38.2827417,-85.6571291
2106,Indian Chute,40207,38.2828199,-85.6558783
2107,Croghan Cross,40207,38.2829501,-85.6564596
2107,Indian Chute,40207,38.2828308,-85.6552709
2108,Croghan Cross,40207,38.2830824,-85.6572563
2108,Indian Chute,40207,38.2830891,-85.6559611
2109,Croghan Cross,40207,38.2832281,-85.6566476
2109,Indian Chute,40207,38.2830866,-85.6553051
211,Choctaw Road,40207,38.2802255,-85.6536435
211,Sequoya Road,40207,38.2792223,-85.6543403
211,Travois Road,40207,38.2792247,-85.6506638
2110,Indian Chute,40207,38.2833708,-85.6560259
2111,Croghan Cross,40207,38.2834749,-85.6568329
2111,Indian Chute,40207,38.2833162,-85.6554170
2112,Indian Chute,40207,38.2836366,-85.6561756
2112,River Bluff Road,40207,38.2846519,-85.6755940
2113,Indian Chute,40207,38.2835633,-85.6554649
2114,Indian Chute,40207,38.2838423,-85.6563838
2116,River Bluff Road,40207,38.2849140,-85.6760503
2118,Starmont Road,40207,38.2861877,-85.6668236
212,Blankenbaker Lane,40207,38.2795021,-85.6501189
212,Choctaw Road,40207,38.2801501,-85.6543613
212,Sequoya Road,40207,38.2788816,-85.6549363
212,Travois Road,40207,38.2798278,-85.6520331
2120,Starmont Road,40207,38.2864833,-85.6668088
213,Choctaw Road,40207,38.2804873,-85.6537209
213,Sequoya Road,40207,38.2794814,-85.6544985
213,Travois Road,40207,38.2794254,-85.6508151
214,Blankenbaker Lane,40207,38.2797366,-85.6503055
214,Choctaw Road,40207,38.2804147,-85.6543886
214,Sequoya Road,40207,38.2791302,-85.6550551
214,Travois Road,40207,38.2801062,-85.6522674
215,Choctaw Road,40207,38.2807292,-85.6537621
215,Sequoya Road,40207,38.2797308,-85.6545966
215,Travois Road,40207,38.2796717,-85.6510511
216,Blankenbaker Lane,40207,38.2799656,-85.6504597
216,Choctaw Road,40207,38.2807243,-85.6543849
216,Sequoya Road,40207,38.2794726,-85.6552226
216,Travois Road,40207,38.2801995,-85.6526282
217,Choctaw Road,40207,38.2809979,-85.6537370
217,Sequoya Road,40207,38.2799689,-85.6546944
217,Travois Road,40207,38.2798798,-85.6512022
218,Blankenbaker Lane,40207,38.2801936,-85.6506525
218,Choctaw Road,40207,38.2810334,-85.6543722
218,Sequoya Road,40207,38.2797301,-85.6552674
218,Travois Road,40207,38.2803633,-85.6530203
219,Choctaw Road,40207,38.2812381,-85.6536816
219,Sequoya Road,40207,38.2802266,-85.6547559
219,Travois Road,40207,38.2801252,-85.6514212
22,Rio Vista Drive,40207,38.2841107,-85.6737232
22,River Hill Road,40207,38.2847762,-85.6676625
22,Stonebridge Road,40207,38.2880009,-85.6718938
220,Blankenbaker Lane,40207,38.2804588,-85.6508515
220,Choctaw Road,40207,38.2813732,-85.6543307
220,Travois Road,40207,38.2806415,-85.6531963
2200,River Bluff Road,40207,38.2851291,-85.6766208
2201,River Bluff Road,40207,38.2855079,-85.6760975
221,Choctaw Road,40207,38.2815092,-85.6536125
221,Sequoya Road,40207,38.2805044,-85.6547812
2210,River Bluff Road,40207,38.2856064,-85.6770382
222,Choctaw Road,40207,38.2816172,-85.6542497
222,Travois Road,40207,38.2810157,-85.6531473
223,Choctaw Road,40207,38.2818351,-85.6535123
223,Sequoya Road,40207,38.2807460,-85.6547964
223,Travois Road,40207,38.2806360,-85.6517128
224,Blankenbaker Lane,40207,38.2809238,-85.6512391
224,Travois Road,40207,38.2812763,-85.6528719
225,Sequoya Road,40207,38.2810106,-85.6547861
225,Travois Road,40207,38.2808803,-85.6518796
226,Sequoya Road,40207,38.2810636,-85.6554961
226,Travois Road,40207,38.2813568,-85.6525333
227,Sequoya Road,40207,38.2812287,-85.6547184
228,Travois Road,40207,38.2814361,-85.6521121
229,Sequoya Road,40207,38.2814853,-85.6546754
23,Rio Vista Drive,40207,38.2843165,-85.6731255
23,River Hill Road,40207,38.2851149,-85.6682233
24,Eastwind Road,40207,38.2691814,-85.6587577
24,Rio Vista Drive,40207,38.2845433,-85.6724425
24,River Hill Road,40207,38.2853803,-85.6690117
25,Rio Vista Drive,40207,38.2840836,-85.6722684
25,River Hill Road,40207,38.2856548,-85.6693614
25,Stonebridge Road,40207,38.2889158,-85.6727285
26,Rio Vista Drive,40207,38.2839113,-85.6729006
26,River Hill Road,40207,38.2857389,-85.6699092
27,Rio Vista Drive,40207,38.2836506,-85.6734529
27,River Hill Road,40207,38.2861046,-85.6695473
27,Stonebridge Road,40207,38.2896746,-85.6720698
28,River Hill Road,40207,38.2859349,-85.6687925
28,River Hill Road,40207,38.2862206,-85.6692943
29,River Hill Road,40207,38.2863976,-85.6682475
3,Rio Vista Drive,40207,38.2828413,-85.6746554
3,River Bluff Road,40207,38.2853564,-85.6746820
3,River Hill Road,40207,38.2852634,-85.6722771
3,Woodhill Road,40207,38.2829232,-85.6702955
30,River Hill Road,40207,38.2868853,-85.6679324
30,River Hill Road,40207,38.2867268,-85.6679886
30,Stonebridge Road,40207,38.2889245,-85.6705994
300,Blankenbaker Lane,40207,38.2814565,-85.6515782
302,Blankenbaker Lane,40207,38.2817005,-85.6518253
304,Blankenbaker Lane,40207,38.2820783,-85.6520769
306,Blankenbaker Lane,40207,38.2820136,-85.6524587
308,Blankenbaker Lane,40207,38.2818821,-85.6527931
31,River Hill Road,40207,38.2871921,-85.6679946
31,Stonebridge Road,40207,38.2901512,-85.6714497
310,Blankenbaker Lane,40207,38.2817874,-85.6531504
32,River Hill Road,40207,38.2874882,-85.6687376
32,Stonebridge Road,40207,38.2895550,-85.6706430
321,Blankenbaker Lane,40207,38.2824634,-85.6535212
323,Blankenbaker Lane,40207,38.2827738,-85.6535995
325,Blankenbaker Lane,40207,38.2831923,-85.6537306
326,Blankenbaker Lane,40207,38.2819001,-85.6543949
328,Blankenbaker Lane,40207,38.2822498,-85.6544188
33,River Hill Road,40207,38.2880480,-85.6689802
330,Blankenbaker Lane,40207,38.2825294,-85.6545148
332,Blankenbaker Lane,40207,38.2828188,-85.6546550
334,Blankenbaker Lane,40207,38.2830793,-85.6547143
336,Blankenbaker Lane,40207,38.2833484,-85.6547598
34,Stonebridge Road,40207,38.2892998,-85.6700681
35,River Hill Road,40207,38.2869681,-85.6695302
35,Stonebridge Road,40207,38.2905049,-85.6708596
36,River Hill Road,40207,38.2828982,-85.6653022
37,River Hill Road,40207,38.2806406,-85.6632849
4,Rio Vista Drive,40207,38.2832183,-85.6747524
4,River Hill Road,40207,38.2882360,-85.6712055
4,Woodhill Road,40207,38.2815154,-85.6702399
40,River Hill Road,40207,38.2862267,-85.6731506
404,Blankenbaker Lane,40207,38.2836307,-85.6548133
410,Blankenbaker Lane,40207,38.2842881,-85.6549028
4101,Brownsboro Road,40207,38.2677074,-85.6605956
4104,River Road,40207,38.2909301,-85.6787958
4105,Brownsboro Road,40207,38.2679835,-85.6598871
4110,River Road,40207,38.2914132,-85.6783478
414,Blankenbaker Lane,40207,38.2845636,-85.6549016
418,Blankenbaker Lane,40207,38.2848977,-85.6548446
4201,Riviera Drive,40207,38.2906143,-85.6735277
422,Blankenbaker Lane,40207,38.2851563,-85.6548272
426,Blankenbaker Lane,40207,38.2854301,-85.6547963
430,Blankenbaker Lane,40207,38.2857053,-85.6547926
4300,River Hill Lane,40207,38.2811255,-85.6677691
4301,River Hill Lane,40207,38.2810458,-85.6690923
4301,Talahi Way,40207,38.2806248,-85.6571508
4302,Talahi Way,40207,38.2801109,-85.6572192
4303,Talahi Way,40207,38.2805839,-85.6566479
4304,Talahi Way,40207,38.2800818,-85.6567966
4305,Talahi Way,40207,38.2806980,-85.6562931
4306,Talahi Way,40207,38.2801714,-85.6562905
4307,Talahi Way,40207,38.2809132,-85.6559045
4308,Talahi Way,40207,38.2802611,-85.6559041
4310,Talahi Way,40207,38.2803412,-85.6554933
4317,Comanche Trail,40207,38.2758221,-85.6539674
4318,Comanche Trail,40207,38.2759431,-85.6535973
4319,Comanche Trail,40207,38.2761101,-85.6542125
4320,Comanche Trail,40207,38.2762521,-85.6534902
4321,Comanche Trail,40207,38.2763707,-85.6541438
4322,Comanche Trail,40207,38.2765271,-85.6534534
4323,Comanche Trail,40207,38.2766647,-85.6541062
4324,Comanche Trail,40207,38.2767772,-85.6534305
4326,Comanche Trail,40207,38.2770541,-85.6533551
434,Blankenbaker Lane,40207,38.2859477,-85.6547791
4400,Comanche Trail,40207,38.2772432,-85.6532767
4400,River Hill Lane,40207,38.2817633,-85.6669694
4400,Signal Hill Road,40207,38.2765900,-85.6515347
4401,Signal Hill Road,40207,38.2768177,-85.6512293
4402,Comanche Trail,40207,38.2774735,-85.6530884
4402,Signal Hill Road,40207,38.2762240,-85.6512838
4404,Comanche Trail,40207,38.2776568,-85.6528866
4406,Comanche Trail,40207,38.2778288,-85.6525819
4407,Comanche Trail,40207,38.2784886,-85.6527869
4408,Comanche Trail,40207,38.2779331,-85.6523691
4409,Comanche Trail,40207,38.2785801,-85.6524111
4410,Comanche Trail,40207,38.2780462,-85.6520895
4410,Signal Hill Road,40207,38.2762062,-85.6509141
4411,Comanche Trail,40207,38.2786925,-85.6520815
4411,Signal Hill Road,40207,38.2767756,-85.6508334
4412,Comanche Trail,40207,38.2781490,-85.6517482
4413,Comanche Trail,40207,38.2787432,-85.6517478
4414,Comanche Trail,40207,38.2782785,-85.6513729
4415,Signal Hill Road,40207,38.2767142,-85.6504739
4418,Signal Hill Road,40207,38.2761484,-85.6505491
4420,Signal Hill Road,40207,38.2761200,-85.6502127
4425,Signal Hill Road,40207,38.2766560,-85.6501638
4440,Signal Hill Road,40207,38.2760365,-85.6498154
4497,Brownsboro Road,40207,38.2739040,-85.6470361
4499,Brownsboro Road,40207,38.2740409,-85.6467771
5,Rio Vista Drive,40207,38.2836256,-85.6749091
5,River Bluff Road,40207,38.2849306,-85.6745915
5,River Hill Road,40207,38.2868653,-85.6711215
5,Woodhill Road,40207,38.2828772,-85.6696174
50,River Hill Road,40207,38.2873313,-85.6731647
5000,Long Knife Run,40207,38.2820662,-85.6591610
5001,Long Knife Run,40207,38.2823128,-85.6592259
5002,Long Knife Run,40207,38.2819616,-85.6587737
5003,Long Knife Run,40207,38.2825245,-85.6589896
5005,Long Knife Run,40207,38.2826991,-85.6587165
5007,Long Knife Run,40207,38.2828898,-85.6585280
5008,Long Knife Run,40207,38.2827439,-85.6578394
5009,Long Knife Run,40207,38.2830532,-85.6582849
5010,Long Knife Run,40207,38.2829660,-85.6575728
5011,Long Knife Run,40207,38.2832631,-85.6580625
5013,Long Knife Run,40207,38.2834213,-85.6577916
5015,Long Knife Run,40207,38.2836080,-85.6575282
5101,Long Knife Run,40207,38.2838122,-85.6572852
5101,Moccasin Court,40207,38.2689129,-85.6571408
5103,Long Knife Run,40207,38.2840143,-85.6570651
5103,Moccasin Court,40207,38.2690974,-85.6578160
5105,Long Knife Run,40207,38.2842144,-85.6568188
5105,Moccasin Court,40207,38.2694655,-85.6575032
5107,Long Knife Run,40207,38.2843950,-85.6565761
5107,Moccasin Court,40207,38.2696591,-85.6570450
5109,Long Knife Run,40207,38.2845799,-85.6563370
5109,Moccasin Court,40207,38.2698354,-85.6566357
5110,Long Knife Run,40207,38.2841720,-85.6559289
5111,Long Knife Run,40207,38.2847556,-85.6560927
5112,Long Knife Run,40207,38.2846257,-85.6554562
5113,Long Knife Run,40207,38.2849197,-85.6558572
5115,Long Knife Run,40207,38.2851572,-85.6556698
5117,Long Knife Run,40207,38.2853238,-85.6553414
5200,Moccasin Trail,40207,38.2693934,-85.6562074
5200,Tomahawk Road,40207,38.2699900,-85.6562987
5201,Tomahawk Road,40207,38.2703516,-85.6557816
5202,Eastwind Road,40207,38.2698194,-85.6577736
5202,Moccasin Trail,40207,38.2696034,-85.6557874
5202,Tomahawk Road,40207,38.2703781,-85.6564845
5203,Clarks Pointe Road,40207,38.2841731,-85.6554044
5203,Tomahawk Road,40207,38.2706749,-85.6557734
5204,Eastwind Road,40207,38.2701127,-85.6574511
5204,Moccasin Trail,40207,38.2697984,-85.6554851
5204,Tomahawk Road,40207,38.2707632,-85.6564332
5205,Tomahawk Road,40207,38.2709623,-85.6554664
5206,Eastwind Road,40207,38.2705655,-85.6571761
5206,Moccasin Trail,40207,38.2699898,-85.6551305
5206,Tomahawk Road,40207,38.2711856,-85.6562319
5207,Eastwind Road,40207,38.2708654,-85.6578211
5207,Moccasin Trail,40207,38.2705925,-85.6551799
5207,Tomahawk Road,40207,38.2712336,-85.6551306
5208,Eastwind Road,40207,38.2710476,-85.6569753
5208,Hempstead Road,40207,38.2832672,-85.6530018
5208,Moccasin Trail,40207,38.2701235,-85.6548450
5208,Tomahawk Road,40207,38.2714183,-85.6558828
5209,Eastwind Road,40207,38.2714127,-85.6575726
5209,Tomahawk Road,40207,38.2715396,-85.6547599
5210,Eastwind Road,40207,38.2714871,-85.6567261
5210,Moccasin Trail,40207,38.2702383,-85.6545845
5210,Tomahawk Road,40207,38.2717150,-85.6555123
5211,Eastwind Road,40207,38.2717708,-85.6574494
5211,Moccasin Trail,40207,38.2708377,-85.6547251
5211,Tomahawk Road,40207,38.2719722,-85.6544396
5212,Eastwind Road,40207,38.2717576,-85.6564127
5212,Moccasin Trail,40207,38.2704035,-85.6542311
5213,Moccasin Trail,40207,38.2710745,-85.6543444
5214,Eastwind Road,40207,38.2720958,-85.6559462
5214,Moccasin Trail,40207,38.2706716,-85.6538938
5215,Eastwind Road,40207,38.2726892,-85.6559686
5216,Eastwind Road,40207,38.2720913,-85.6553160
5216,Moccasin Trail,40207,38.2708778,-85.6536854
5217,Moccasin Trail,40207,38.2713656,-85.6541011
5218,Moccasin Trail,40207,38.2712117,-85.6534013
5219,Moccasin Trail,40207,38.2716620,-85.6539312
5220,Moccasin Trail,40207,38.2715007,-85.6532702
5221,Moccasin Trail,40207,38.2720426,-85.6539331
5222,Moccasin Trail,40207,38.2718428,-85.6532048
5224,Moccasin Trail,40207,38.2722209,-85.6531506
5226,Moccasin Trail,40207,38.2725296,-85.6533063
5228,Moccasin Trail,40207,38.2726576,-85.6537259
5230,Moccasin Trail,40207,38.2725583,-85.6541058
5232,Moccasin Trail,40207,38.2725577,-85.6545210
5234,Moccasin Trail,40207,38.2726532,-85.6548999
5236,Moccasin Trail,40207,38.2728074,-85.6552202
5300,Pueblo Road,40207,38.2752113,-85.6523011
5301,Pueblo Road,40207,38.2757184,-85.6521944
5302,Pueblo Road,40207,38.2751358,-85.6515992
5303,Pueblo Road,40207,38.2756450,-85.6516896
5304,Indian Crest Road,40207,38.2730424,-85.6555187
5305,Indian Crest Road,40207,38.2730227,-85.6561624
5305,Pueblo Road,40207,38.2756661,-85.6513571
5306,Indian Crest Road,40207,38.2733235,-85.6557590
5307,Indian Crest Road,40207,38.2734681,-85.6563293
5308,Indian Crest Road,40207,38.2737221,-85.6556085
5309,Indian Crest Road,40207,38.2737649,-85.6562851
5310,Indian Crest Road,40207,38.2739633,-85.6560239
5400,Apache Road,40207,38.2737949,-85.6537726
5400,Pueblo Road,40207,38.2750710,-85.6508619
5401,Apache Road,40207,38.2739322,-85.6540811
5401,Pueblo Road,40207,38.2755524,-85.6510117
5402,Apache Road,40207,38.2741737,-85.6532432
5402,Navajo Road,40207,38.2748135,-85.6515344
5402,Pueblo Road,40207,38.2750082,-85.6504360
5403,Apache Road,40207,38.2742020,-85.6541654
5403,Navajo Road,40207,38.2747739,-85.6508472
5403,Pueblo Road,40207,38.2755102,-85.6506818
5404,Navajo Road,40207,38.2745419,-85.6513627
5404,Pueblo Road,40207,38.2749703,-85.6501114
5405,Apache Road,40207,38.2744266,-85.6538582
5405,Navajo Road,40207,38.2745741,-85.6507078
5405,Pueblo Road,40207,38.2754666,-85.6502876
5406,Navajo Road,40207,38.2743329,-85.6511968
5406,Pueblo Road,40207,38.2749028,-85.6498209
5407,Apache Road,40207,38.2745216,-85.6535937
5407,Navajo Road,40207,38.2744521,-85.6503998
5407,Pueblo Road,40207,38.2754101,-85.6499807
5408,Apache Road,40207,38.2749282,-85.6524636
5408,Navajo Road,40207,38.2741118,-85.6508749
5409,Apache Road,40207,38.2747439,-85.6533426
5409,Pueblo Road,40207,38.2754032,-85.6496391
5411,Apache Road,40207,38.2753539,-85.6529991
5411,Navajo Road,40207,38.2743634,-85.6500776
5411,Pueblo Road,40207,38.2752708,-85.6493105
5412,Navajo Road,40207,38.2739030,-85.6501335
5412,Pueblo Road,40207,38.2747610,-85.6494526
5413,Navajo Road,40207,38.2742442,-85.6496963
5413,Pueblo Road,40207,38.2751013,-85.6490223
5414,Navajo Road,40207,38.2737546,-85.6497572
5414,Pueblo Road,40207,38.2745630,-85.6492037
5415,Navajo Road,40207,38.2741827,-85.6493833
5415,Pueblo Road,40207,38.2749221,-85.6488669
5416,Navajo Road,40207,38.2736839,-85.6493778
5416,Pueblo Road,40207,38.2743025,-85.6490109
5417,Pueblo Road,40207,38.2746992,-85.6486392
5418,Navajo Road,40207,38.2737410,-85.6489655
5420,Navajo Road,40207,38.2738283,-85.6486488
5501,Apache Road,40207,38.2756879,-85.6529159
5503,Apache Road,40207,38.2759483,-85.6528668
5505,Apache Road,40207,38.2762082,-85.6528270
5506,Apache Road,40207,38.2760630,-85.6522433
5507,Apache Road,40207,38.2764622,-85.6528283
5508,Apache Road,40207,38.2763653,-85.6521814
5509,Apache Road,40207,38.2767315,-85.6527411
5510,Apache Road,40207,38.2766904,-85.6521329
5511,Apache Road,40207,38.2770174,-85.6526537
5512,Apache Road,40207,38.2769768,-85.6519140
5513,Apache Road,40207,38.2772452,-85.6524269
5514,Apache Road,40207,38.2771108,-85.6516629
5515,Apache Road,40207,38.2774457,-85.6521724
5517,Apache Road,40207,38.2775717,-85.6519312
5518,Apache Road,40207,38.2773091,-85.6509880
5519,Apache Road,40207,38.2776773,-85.6516101
5520,Apache Road,40207,38.2772897,-85.6506499
5523,Apache Road,40207,38.2777722,-85.6509984
6,Rio Vista Drive,40207,38.2840510,-85.6750319
6,River Hill Road,40207,38.2865581,-85.6718479
6,Woodhill Road,40207,38.2819380,-85.6696167
606,Blankenbaker Lane,40207,38.2869771,-85.6667466
62,Indian Hills Trail,40207,38.2806749,-85.6738612
63,Indian Hills Trail,40207,38.2805289,-85.6731043
64,Indian Hills Trail,40207,38.2802134,-85.6725306
65,Westwind Road,40207,38.2799419,-85.6672443
66,Westwind Road,40207,38.2801262,-85.6667691
68,Westwind Road,40207,38.2802194,-85.6657810
7,River Bluff Road,40207,38.2859207,-85.6756288
7,River Hill Road,40207,38.2877890,-85.6725022
7,Totem Road,40207,38.2701024,-85.6604269
7,Woodhill Road,40207,38.2829348,-85.6688764
700,Blankenbaker Lane,40207,38.2896870,-85.6694241
720,Blankenbaker Lane,40207,38.2900970,-85.6696733
8,Rio Vista Drive,40207,38.2845040,-85.6742853
8,Woodhill Road,40207,38.2820971,-85.6690775
9,Rio Vista Drive,40207,38.2846457,-85.6738916
9,River Hill Road,40207,38.2873147,-85.6748668
9,Woodhill Road,40207,38.2830527,-85.6682630
913,West Riverside Drive,40207,38.2927035,-85.6753315
4200,River Road,40207,38.2916585,-85.6763504
7,Rio Vista Drive,40207,38.2843133,-85.6748931
