House number,Street name,Postal code,Latitude,Longitude
2440,Lone Oak Road,42003,37.0434640,-88.6551614
121,Market House Square,42001,37.0872399,-88.5953467
127,Market House Square,42003,37.0868243,-88.5953424
119,Market House Square,42001,37.0870428,-88.5954785
202,Broadway Street,42001,37.0875189,-88.5958433
136,Broadway Street,42001,37.0876912,-88.5953698
112,Market House Square,42001,37.0873970,-88.5952196
114,Market House Square,42001,37.0873488,-88.5951915
211,Broadway Street,42001,37.0876738,-88.5961920
100,Kentucky Avenue,42003,37.0861490,-88.5937593
3000,Broadway Street,42001,37.0708967,-88.6360022
2703,H C Mathis Drive,42001,37.0820537,-88.6345849
425,Broadway Street,42001,37.0864587,-88.5992127
816,Joe Clifton Drive,42001,37.0819606,-88.6359016
3955,Hinkleville Road,42001,37.0802031,-88.6773932
125,South 2nd Street,42003,37.0868906,-88.5953907
451,Jordan Dr.,42001,37.0830756,-88.6908032
2314,Lone Oak Road,42003,37.0449228,-88.6555263
3121,Broadway,42001,37.0714713,-88.6377158
414,Lone Oak Road,42002,37.0650418,-88.6376601
233,North 8th Street,42001,37.0865383,-88.6043666
314,Broadway Street,42003,37.0868955,-88.5974415
600,North 32nd Street,42001,37.0765826,-88.6427625
548,North 32nd Street,42001,37.0762974,-88.6420599
500,County Park Road,42001,37.0898012,-88.6716870
821,Broadway Street,42001,37.0845319,-88.6059763
2720,New Holt Road,42001,37.0717733,-88.6899560
5194,Hinkleville Road,42001,37.0727065,-88.6978506
2819,Lone Oak Road,42003,37.0407357,-88.6610017
2817,Lone Oak Road,42003,37.0408064,-88.6608676
900,Mc Guire Avenue,42003,37.0822881,-88.6393797
534,South 6th Street,42003,37.0805171,-88.5971292
817,Broadway Street,42001,37.0845653,-88.6039032
2690,Olivet Church Road,42001,37.0696660,-88.7005861
2921,Irvin Cobb Drive,42003,37.0558160,-88.5738764
2921,Irvin Cobb Drive,42003,37.0558048,-88.5737620
3480,Clarks River Road,42001,37.0490123,-88.5638218
2627,Jackson Street,42001,37.0691458,-88.6261788
1650,South 6th Street,42001,37.0679926,-88.5889363
2900,Broadway Street,42001,37.0711916,-88.6348852
1312,Langstaff Avenue,42001,37.0910068,-88.6294160
2400,Washington Street,42003,37.0722516,-88.6235774
150,Ballard Circle,42001,37.0446838,-88.7194164
300,South 5th Street,42003,37.0839146,-88.5971622
555,Washington Street,42003;42003-1735,37.0841305,-88.5988557
300,South 7th Street,42003,37.0827331,-88.5995528
301,Washington Street,42003,37.0852512,-88.5959749
1704,Kentucky Avenue,42003,37.0771447,-88.6168488
116,South 6th Street,42001,37.0855113,-88.6002009
5104,Old Hinkleville Road,42001,37.0761036,-88.6867350
2950,James Sanders Boulevard,42001,37.0764631,-88.6835977
3275,Irvin Cobb Drive,42003,37.0512240,-88.5702193
1335,North 13th Street,42001,37.0891733,-88.6246970
100,Kentucky Avenue,42003,37.0860118,-88.5935658
215,Jefferson Street,42001,37.0893198,-88.5972028
1530,Lone Oak Road,42003,37.0501239,-88.6471754
5159,Hinkleville Road,42001,37.0810556,-88.6909966
2501,Kentucky Avenue,42003,37.0734991,-88.6276384
3835,Technology Drive,42001,37.0779564,-88.6751824
2224,Lone Oak Road,42001,37.0458440,-88.6553310
3199,Jackson Street,42003,37.0647422,-88.6378798
510,Clark Street,42003,37.0828723,-88.5975893
3141,Park Avenue,42001,37.0857569,-88.6464823
1525,Lone Oak Road,42003,37.0532790,-88.6494413
1515,Lone Oak Road,42003-7904,37.0534524,-88.6489807
1908,Lone Oak Road,42003,37.0495933,-88.6524409
1916,Lone Oak Road,42003,37.0491862,-88.6528347
2070,Lone Oak Road,42003,37.0479408,-88.6538349
2090,Lone Oak Road,42003,37.0477434,-88.6540725
2405,Lone Oak Road,42003,37.0448627,-88.6568814
3220,Irvin Cobb Drive,42003,37.0539433,-88.5663129
3150,Irvin Cobb Drive,42003,37.0547946,-88.5699776
3226,Irvin Cobb Drive,42003-0337,37.0542272,-88.5694041
3400,Clarks River Road,42003-0509,37.0493758,-88.5647097
3450,Clark River Road,42003,37.0492424,-88.5644343
3901,Coleman Crossing Circle,42001,37.0843761,-88.6802546
3950,Coleman Crossing Circle,42001,37.0853080,-88.6827980
905,Harrison Street,42001,37.0883319,-88.6075491
901,Madison Street,42001,37.0873444,-88.6068155
2880,James Sanders Boulevard,42001,37.0742757,-88.6829670
145,McBride Lane,42001,37.0741713,-88.6823265
2801,James Sanders Road,42001,37.0719221,-88.6848128
5139,Hinkleville Road,42001,37.0764291,-88.6895801
3120,James Sanders Boulevard,42001,37.0791084,-88.6839304
3550,James-Sanders Boulevard,42001,37.0841294,-88.6889443
2935,James Sanders Boulevard,42001,37.0760530,-88.6844082
5015,Hinkleville Road,42001,37.0781965,-88.6839956
3950,Hinkleville Road,42001-9017,37.0788998,-88.6767702
5193,Hinkleville Road,42001,37.0738417,-88.6981945
225,Tully Street,42003,37.0601271,-88.5752861
225,Tully Street,42003,37.0601193,-88.5753565
600,North 4th Street,42001,37.0924533,-88.6011617
5015,Hinkleville Road,42001,37.0782689,-88.6836289
3900,Coleman Crossing Circle,42001,37.0835775,-88.6806510
5300,Cairo Road,42001,37.0962968,-88.6904717
5106,Cairo Road,42001,37.0970486,-88.6836051
5125,Cairo Road,42001,37.0990343,-88.6841121
5135,Cairo Road,42001,37.0987765,-88.6848052
724,Oscar Cross Avenue,42003,37.0792794,-88.5992179
5101,Hinkleville Road,42001,37.0791437,-88.6866065
5101,Hinkleville Road,42001,37.0789143,-88.6872051
133,South 3rd Street,42001,37.0862179,-88.5964795
3240,James Sanders Boulevard,42001,37.0808373,-88.6833841
5101,Hinkleville Road,42001,37.0799623,-88.6890360
3050,New Holt Road,42001,37.0781505,-88.6904412
5101,Hinkleville Road,42001-9049,37.0778840,-88.6906855
3051,New Holt Road,42001,37.0767186,-88.6930410
5101,Hinkleville Road,42001,37.0791613,-88.6882004
3960,Coleman Crossing Circle,42001,37.0864043,-88.6830808
3918,Coleman Crossing Circle,42001,37.0831570,-88.6812766
810,Kentucky Avenue,42003,37.0831663,-88.6026737
1425,Bloom Avenue,42003,37.0665925,-88.6047688
3901,Hinkleville Road,42001,37.0806252,-88.6761011
5450,Cairo Road,42001,37.0955405,-88.6939434
5440,Cairo Road,42001,37.0959046,-88.6934404
101,Carlisle Court,42001,37.0513394,-88.7287427
711,Ohio Street,42001,37.0787618,-88.5986898
5645,Blandville Road,42001-8722,37.0501081,-88.6805490
1034,North 13th Street,42001,37.0884132,-88.6159803
1726,Broadway Street,42001,37.0782282,-88.6182108
5015,Hinkleville Road,42001,37.0782247,-88.6838971
5015,Hinkleville Road,42001,37.0782555,-88.6837909
5187,Hinkleville Road,42001-9667,37.0752169,-88.6964167
5187,Hinkleville Road,42001,37.0755100,-88.6949843
5191,Hinkleville Road,42001,37.0750459,-88.6974339
3200,Irvin Cobb Road,42003,37.0557562,-88.5687300
3131,Irvin Cobb Drive,42003,37.0521868,-88.5715481
1031,Joe Clifton Drive,42001-3749,37.0831008,-88.6378878
2902,Park Avenue,42001,37.0831048,-88.6399959
5156,Hinkleville Road,42001,37.0740810,-88.6919329
5176,Hinkleville Road,42001,37.0724492,-88.6919860
5130,Hinkleville Road,42001,37.0725555,-88.6882426
2929,James Sanders Boulevard,42001,37.0757292,-88.6860273
2929,James Sanders Boulevard,42001,37.0749978,-88.6858654
6500,Turnberry Drive,42001,37.0495001,-88.7040842
112,Maiden Alley,42001,37.0877542,-88.5944023
809,Joe Clifton Drive,42001,37.0805369,-88.6362692
800,Caldwell Street,42003,37.0736677,-88.5967509
1101,Mallory Street,42003,37.0712205,-88.6034545
1201,Mallory Street,42003,37.0703947,-88.6027734
1100,Mallory Street,42003,37.0714130,-88.6028950
1218,Markham Avenue,42003,37.0560136,-88.6136140
3120,Shelbourne Street,42003,37.0558785,-88.6129480
3130,Shelbourne Street,42003,37.0556760,-88.6130125
3110,Shelbourne Street,42003,37.0560675,-88.6129400
3158,Shelbourne Street,42003,37.0549805,-88.6131310
3164,Shelbourne Street,42003,37.0548210,-88.6131275
1211,Markham Avenue,42003,37.0564630,-88.6133770
1207,Markham Avenue,42003,37.0564485,-88.6135760
1205,Markham Avenue,42003,37.0565450,-88.6137300
1201,Markham Avenue,42003,37.0565995,-88.6140695
1115,Markham Avenue,42003,37.0567085,-88.6143795
1113,Markham Avenue,42003,37.0567575,-88.6145430
1111,Markham Avenue,42003,37.0568090,-88.6146940
1109,Markham Avenue,42003,37.0568555,-88.6148640
1107,Markham Avenue,42003,37.0569055,-88.6150160
1105,Markham Avenue,42003,37.0569605,-88.6151810
1103,Markham Avenue,42003,37.0570180,-88.6153120
1101,Markham Avenue,42003,37.0570615,-88.6154945
1220,Markham Avenue,42003,37.0559490,-88.6133867
1206,Markham Avenue,42003,37.0561500,-88.6140760
1214,Markham Avenue,42003,37.0561195,-88.6139150
1200,Markham Avenue,42003,37.0562129,-88.6142492
1118,Markham Avenue,42003,37.0563230,-88.6145770
1114,Markham Avenue,42003,37.0564040,-88.6148930
1110,Markham Avenue,42003,37.0564495,-88.6150420
1106,Markham Avenue,42003,37.0565445,-88.6153820
1104,Markham Avenue,42003,37.0566015,-88.6155435
1102,Markham Avenue,42003,37.0565820,-88.6157225
1005,Markham Avenue,42003,37.0571525,-88.6158615
1001,Markham Avenue,42003,37.0572870,-88.6162875
1002,Markham Avenue,42003,37.0568855,-88.6164790
1004,Markham Avenue,42003,37.0568260,-88.6162970
1006,Markham Avenue,42003,37.0567575,-88.6160595
815,Markham Avenue,42003,37.0578355,-88.6183865
821,Markham Avenue,42003,37.0577650,-88.6181815
3208,Alabama Street,42003,37.0572250,-88.6178870
3212,Alabama Street,42003,37.0570830,-88.6179750
3218,Alabama Street,42003,37.0569435,-88.6180335
3213,Alabama Street,42003,37.0571550,-88.6184810
3219,Alabama Street,42003,37.0570180,-88.6185135
3201,Alabama Street,42003,37.0574210,-88.6183555
3209,Alabama Street,42003,37.0573029,-88.6184679
3222,Alabama Street,42003,37.0568000,-88.6181140
3223,Alabama Street,42003,37.0568855,-88.6185775
3229,Alabama Street,42003,37.0567515,-88.6186460
3228,Alabama Street,42003,37.0566530,-88.6181780
3234,Alabama Street,42003,37.0565170,-88.6182470
3241,Alabama Street,42003,37.0564685,-88.6187800
3240,Alabama Street,42003,37.0563712,-88.6183126
3244,Alabama Street,42003,37.0562270,-88.6183720
3245,Alabama Street,42003,37.0563250,-88.6188460
3251,Alabama Street,42003,37.0561910,-88.6189120
3250,Alabama Street,42003,37.0560826,-88.6184464
3254,Alabama Street,42003,37.0559462,-88.6184997
3235,Alabama Street,42003,37.0566099,-88.6187098
3200,Alabama Street,42003,37.0572978,-88.6177292
820,Starke Avenue,42003,37.0558925,-88.6191820
826,Starke Avenue,42003,37.0558165,-88.6190250
900,Starke Avenue,42003,37.0557255,-88.6188660
910,Starke Avenue,42003,37.0555365,-88.6185620
904,Starke Avenue,42003,37.0556305,-88.6187220
916,Starke Avenue,42003,37.0554545,-88.6184235
922,Starke Avenue,42003,37.0553369,-88.6182936
3400,Schneidman Road,42003,37.0552167,-88.6178166
3402,Schneidman Road,42003,37.0550830,-88.6178515
1016,Starke Avenue,42003,37.0549420,-88.6174275
1018,Starke Avenue,42003,37.0549105,-88.6172360
1024,Starke Avenue,42003,37.0548765,-88.6168914
1027,Starke Avenue,42003,37.0552880,-88.6168975
1015,Starke Avenue,42003,37.0553255,-88.6170645
1017,Starke Avenue,42003,37.0553929,-88.6172097
1019,Starke Avenue,42003,37.0552415,-88.6167255
1105,Starke Avenue,42003,37.0551075,-88.6162580
1107,Starke Avenue,42003,37.0549690,-88.6158380
1119,Starke Avenue,42003,37.0549322,-88.6155850
1113,Starke Avenue,42003,37.0550355,-88.6160710
1137,Starke Avenue,42003,37.0548307,-88.6152804
1201,Starke Avenue,42003,37.0547410,-88.6149565
1203,Starke Avenue,42003,37.0546825,-88.6147990
1205,Starke Avenue,42003,37.0546465,-88.6146355
1207,Starke Avenue,42003,37.0545700,-88.6144850
1209,Starke Avenue,42003,37.0545350,-88.6143295
1211,Starke Avenue,42003,37.0544670,-88.6141715
1213,Starke Avenue,42003,37.0543985,-88.6140150
1225,Starke Avenue,42003,37.0543425,-88.6138585
1227,Starke Avenue,42003,37.0543004,-88.6136845
1206,Starke Avenue,42003,37.0541610,-88.6146610
1214,Starke Avenue,42003,37.0540370,-88.6142005
1242,Starke Avenue,42003,37.0539080,-88.6138650
1216,Starke Avenue,42003,37.0539748,-88.6140431
1202,Starke Avenue,42003,37.0542795,-88.6149850
1200,Starke Avenue,42003,37.0543375,-88.6151819
1128,Starke Avenue,42003,37.0543590,-88.6157125
1126,Starke Avenue,42003,37.0544770,-88.6158585
1120,Starke Avenue,42003,37.0545225,-88.6159515
1116,Starke Avenue,42003,37.0546395,-88.6161060
1110,Starke Avenue,42003,37.0546835,-88.6162580
