House number,Street name,Postal code,Latitude,Longitude
7901,Montero Drive,40059,38.3421350,-85.5991850
6901,Wolf Pen Branch Road,40059,38.3213093,-85.6212447
7800,U S Highway 42,40059,38.3216332,-85.6213972
9521,U S Highway 42,40059,38.3437101,-85.6186488
5907,Timber Ridge Drive,40059,38.3395758,-85.6206489
5909,Timber Ridge Drive,40059,38.3396043,-85.6207161
5911,Timber Ridge Drive,40059,38.3396446,-85.6207766
5913,Timber Ridge Drive,40059,38.3396848,-85.6208366
5915,Timber Ridge Drive,40059,38.3397251,-85.6208971
5917,Timber Ridge Drive,40059,38.3397653,-85.6209646
5919,Timber Ridge Drive,40059,38.3397942,-85.6210022
5920,Timber Ridge Drive,40059,38.3382615,-85.6220776
5921,Timber Ridge Drive,40059,38.3398345,-85.6210552
5922,Timber Ridge Drive,40059,38.3382202,-85.6221441
5924,Timber Ridge Drive,40059,38.3382936,-85.6221621
5926,Timber Ridge Drive,40059,38.3382595,-85.6222327
5928,Timber Ridge Drive,40059,38.3383257,-85.6222436
5930,Timber Ridge Drive,40059,38.3382893,-85.6223295
5932,Timber Ridge Drive,40059,38.3383631,-85.6223459
5934,Timber Ridge Drive,40059,38.3383274,-85.6224155
5935,Timber Ridge Drive,40059,38.3403432,-85.6219322
5936,Timber Ridge Drive,40059,38.3383996,-85.6224257
5937,Timber Ridge Drive,40059,38.3403677,-85.6219872
5938,Timber Ridge Drive,40059,38.3383556,-85.6224930
5939,Timber Ridge Drive,40059,38.3403941,-85.6220347
5940,Timber Ridge Drive,40059,38.3384220,-85.6225105
5941,Timber Ridge Drive,40059,38.3404185,-85.6220897
5942,Timber Ridge Drive,40059,38.3383855,-85.6225757
5943,Timber Ridge Drive,40059,38.3404474,-85.6221421
5944,Timber Ridge Drive,40059,38.3384595,-85.6225978
5945,Timber Ridge Drive,40059,38.3404800,-85.6222020
5947,Timber Ridge Drive,40059,38.3405165,-85.6222750
5949,Timber Ridge Drive,40059,38.3405491,-85.6223450
5951,Timber Ridge Drive,40059,38.3405819,-85.6224205
5953,Timber Ridge Drive,40059,38.3406186,-85.6224631
6000,Timber Ridge Drive,40059,38.3392702,-85.6237673
6001,Timber Ridge Drive,40059,38.3405746,-85.6225721
6003,Timber Ridge Drive,40059,38.3405715,-85.6226740
6005,Timber Ridge Drive,40059,38.3405318,-85.6227199
6007,Timber Ridge Drive,40059,38.3404965,-85.6227563
6009,Timber Ridge Drive,40059,38.3404595,-85.6227844
6011,Timber Ridge Drive,40059,38.3404262,-85.6228160
6013,Timber Ridge Drive,40059,38.3403907,-85.6228519
6015,Timber Ridge Drive,40059,38.3403530,-85.6228817
6017,Timber Ridge Drive,40059,38.3403179,-85.6229103
6019,Timber Ridge Drive,40059,38.3402804,-85.6229518
6021,Timber Ridge Drive,40059,38.3402430,-85.6229808
6023,Timber Ridge Drive,40059,38.3401993,-85.6230170
6025,Timber Ridge Drive,40059,38.3401580,-85.6230589
6027,Timber Ridge Drive,40059,38.3401148,-85.6230930
6029,Timber Ridge Drive,40059,38.3400714,-85.6231340
6031,Timber Ridge Drive,40059,38.3400199,-85.6231783
6033,Timber Ridge Drive,40059,38.3399785,-85.6232172
6035,Timber Ridge Drive,40059,38.3399330,-85.6232538
6039,Timber Ridge Drive,40059,38.3398401,-85.6233388
6041,Timber Ridge Drive,40059,38.3397888,-85.6233749
6043,Timber Ridge Drive,40059,38.3397370,-85.6234262
6045,Timber Ridge Drive,40059,38.3396895,-85.6234676
6047,Timber Ridge Drive,40059,38.3396421,-85.6235064
6049,Timber Ridge Drive,40059,38.3395989,-85.6235504
6051,Timber Ridge Drive,40059,38.3395556,-85.6235823
6053,Timber Ridge Drive,40059,38.3395123,-85.6236190
6055,Timber Ridge Drive,40059,38.3394690,-85.6236574
6065,Timber Ridge Drive,40059,38.3406318,-85.6245703
6066,Timber Ridge Drive,40059,38.3398607,-85.6249239
6502,Forest Cove Lane,40059,38.3391029,-85.6240105
6502,Forest Cove Lane,40059,38.3391042,-85.6239347
7401,Smithfield Greene Lane,40059,38.3400740,-85.6237631
7403,Smithfield Greene Lane,40059,38.3401390,-85.6238908
7405,Smithfield Greene Lane,40059,38.3402235,-85.6240579
7407,Smithfield Greene Lane,40059,38.3404118,-85.6241178
7409,Smithfield Greene Lane,40059,38.3405051,-85.6240398
7411,Smithfield Greene Lane,40059,38.3405722,-85.6239849
7413,Smithfield Greene Lane,40059,38.3406109,-85.6237567
7415,Smithfield Greene Lane,40059,38.3405344,-85.6236079
7417,Smithfield Greene Lane,40059,38.3403968,-85.6235255
7501,Smithfield Greene Lane,40059,38.3407580,-85.6232241
7503,Smithfield Greene Lane,40059,38.3408189,-85.6233887
7505,Smithfield Greene Lane,40059,38.3408877,-85.6235121
7507,Smithfield Greene Lane,40059,38.3410100,-85.6236542
7509,Smithfield Greene Lane,40059,38.3411495,-85.6236449
7511,Smithfield Greene Lane,40059,38.3412504,-85.6235440
7513,Smithfield Greene Lane,40059,38.3413028,-85.6234887
7515,Smithfield Greene Lane,40059,38.3413399,-85.6232956
7517,Smithfield Greene Lane,40059,38.3412655,-85.6231657
7519,Smithfield Greene Lane,40059,38.3411464,-85.6230077
7521,Smithfield Greene Lane,40059,38.3410254,-85.6229257
7523,Smithfield Greene Lane,40059,38.3411188,-85.6227097
7601,Smithfield Greene Lane,40059,38.3412864,-85.6225908
7603,Smithfield Greene Lane,40059,38.3413332,-85.6226993
7605,Smithfield Greene Lane,40059,38.3414433,-85.6227581
7607,Smithfield Greene Lane,40059,38.3415236,-85.6228437
7609,Smithfield Greene Lane,40059,38.3416523,-85.6228980
7611,Smithfield Greene Lane,40059,38.3417433,-85.6230122
7613,Smithfield Greene Lane,40059,38.3418572,-85.6230658
9213,U S Highway 42,40059,38.3408060,-85.6187835
9509,U S Highway 42,40059,38.3430497,-85.6192020
9509,U S Highway 42,40059,38.3430835,-85.6190388
9509,U S Highway 42,40059,38.3430965,-85.6192278
9509,U S Highway 42,40059,38.3431165,-85.6190547
9509,U S Highway 42,40059,38.3431354,-85.6192555
9509,U S Highway 42,40059,38.3431475,-85.6190757
9509,U S Highway 42,40059,38.3431760,-85.6192829
9509,U S Highway 42,40059,38.3431837,-85.6191008
9509,U S Highway 42,40059,38.3432149,-85.6193085
9509,U S Highway 42,40059,38.3432193,-85.6191268
9509,U S Highway 42,40059,38.3432533,-85.6191470
9509,U S Highway 42,40059,38.3432589,-85.6193350
9509,U S Highway 42,40059,38.3432922,-85.6191739
9509,U S Highway 42,40059,38.3433079,-85.6193634
9509,U S Highway 42,40059,38.3433384,-85.6192053
9509,U S Highway 42,40059,38.3433726,-85.6192260
9519,U S Highway 42,40059,38.3426935,-85.6176523
9521,U S Highway 42,40059,38.3437393,-85.6185759
9521,U S Highway 42,40059,38.3437953,-85.6184380
9521,U S Highway 42,40059,38.3438504,-85.6183087
9521,U S Highway 42,40059,38.3439130,-85.6181408
9523,U S Highway 42,40059,38.3441610,-85.6180535
9525,U S Highway 42,40059,38.3442063,-85.6179672
9527,U S Highway 42,40059,38.3442206,-85.6178794
9529,U S Highway 42,40059,38.3442736,-85.6177850
9531,U S Highway 42,40059,38.3443211,-85.6176616
9533,U S Highway 42,40059,38.3443572,-85.6175376
9535,U S Highway 42,40059,38.3445005,-85.6174340
9537,U S Highway 42,40059,38.3444455,-85.6174037
9543,U S Highway 42,40059,38.3443854,-85.6173634
9545,U S Highway 42,40059,38.3443259,-85.6173235
9547,U S Highway 42,40059,38.3442648,-85.6172787
9549,U S Highway 42,40059,38.3442469,-85.6168752
9549,U S Highway 42,40059,38.3443133,-85.6168394
9549,U S Highway 42,40059,38.3443541,-85.6168123
9551,U S Highway 42,40059,38.3444002,-85.6167970
9553,U S Highway 42,40059,38.3445161,-85.6167438
9555,U S Highway 42,40059,38.3446285,-85.6167146
9557,U S Highway 42,40059,38.3447044,-85.6166310
9559,U S Highway 42,40059,38.3447854,-85.6166068
9561,U S Highway 42,40059,38.3448544,-85.6165078
9561,U S Highway 42,40059,38.3449171,-85.6164872
5929,Timber Ridge Drive,40059,38.3399963,-85.6216335
10307,U S Highway 42,40059,38.3559756,-85.6116097
6202,Walnut Ridge Trail,40059,38.3505122,-85.6250379
6303,Innisbrook Drive,40059,38.3601378,-85.6265205
6320,Innisbrook Drive,40059,38.3600739,-85.6244248
6400,Duroc Avenue,40059,38.3504992,-85.6244775
6406,Walnut Ridge Trail,40059,38.3541847,-85.6245369
6500,Sedgwicke Drive,40059,38.3451655,-85.6175093
6502,Sedgwicke Drive,40059,38.3460580,-85.6178984
6504,Sedgwicke Drive,40059,38.3464494,-85.6180688
6827,Windham Parkway,40059,38.3511408,-85.6206486
6907,Greenmere Boulevard,40059,38.3513621,-85.6139578
6919,Windham Parkway,40059,38.3538959,-85.6242288
7103,Windham Parkway,40059,38.3526291,-85.6175733
7109,Mount Batten Place,40059,38.3542139,-85.6200576
7500,Rose Island Road,40059,38.3557688,-85.6118595
7500,Rose Island Road,40059,38.3558329,-85.6118437
8003,Allielough Court,40059,38.3599534,-85.6244788
9715,U S Highway 42,40059,38.3517165,-85.6137412
9989,U S Highway 42,40059,38.3570759,-85.6151573
5202,Cherry Valley Road,40059,38.3233137,-85.6128234
5206,Cherry Valley Road,40059,38.3229912,-85.6130292
6800,Bridgepointe Boulevard,40059,38.3271390,-85.6208598
7004,Breakwater Place,40059,38.3294433,-85.6175511
7313,Grand Isle Way,40059,38.3255170,-85.6143535
7315,Grand Isle Way,40059,38.3255788,-85.6139376
8500,Harrods Bridge Way,40059,38.3294953,-85.6219448
8500,Harrods Bridge Way,40059,38.3295468,-85.6219849
8500,Harrods Bridge Way,40059,38.3296050,-85.6220259
8500,Harrods Bridge Way,40059,38.3297125,-85.6220688
8500,Harrods Bridge Way,40059,38.3297695,-85.6220849
8500,Harrods Bridge Way,40059,38.3298535,-85.6221046
8500,U S Highway 42,40059,38.3320884,-85.6219435
8501,Harrods Bridge Way,40059,38.3296120,-85.6214987
8501,Harrods Bridge Way,40059,38.3296832,-85.6215246
8501,Harrods Bridge Way,40059,38.3297429,-85.6215500
8501,Harrods Bridge Way,40059,38.3298445,-85.6216211
8501,Harrods Bridge Way,40059,38.3298969,-85.6216798
8501,Harrods Bridge Way,40059,38.3299705,-85.6217453
8502,Harrods Bridge Way,40059,38.3300154,-85.6221223
8502,Harrods Bridge Way,40059,38.3300838,-85.6221541
8502,Harrods Bridge Way,40059,38.3301448,-85.6221898
8502,Harrods Bridge Way,40059,38.3302498,-85.6222096
8502,Harrods Bridge Way,40059,38.3303000,-85.6222111
8502,Harrods Bridge Way,40059,38.3303757,-85.6222165
8503,Harrods Bridge Way,40059,38.3301295,-85.6218026
8503,Harrods Bridge Way,40059,38.3302136,-85.6218005
8503,Harrods Bridge Way,40059,38.3302709,-85.6217916
8503,Harrods Bridge Way,40059,38.3303899,-85.6218171
8503,Harrods Bridge Way,40059,38.3304579,-85.6218443
8503,Harrods Bridge Way,40059,38.3305304,-85.6218898
8504,Harrods Bridge Way,40059,38.3306554,-85.6222680
8504,Harrods Bridge Way,40059,38.3307310,-85.6222943
8504,Harrods Bridge Way,40059,38.3307951,-85.6223032
8504,Harrods Bridge Way,40059,38.3308820,-85.6223048
8504,Harrods Bridge Way,40059,38.3309434,-85.6223088
8504,Harrods Bridge Way,40059,38.3309995,-85.6223046
8505,Harrods Bridge Way,40059,38.3307041,-85.6218756
8505,Harrods Bridge Way,40059,38.3307732,-85.6218467
8505,Harrods Bridge Way,40059,38.3308404,-85.6218347
8505,Harrods Bridge Way,40059,38.3309623,-85.6218405
8505,Harrods Bridge Way,40059,38.3310194,-85.6218511
8505,Harrods Bridge Way,40059,38.3310978,-85.6218721
1,Autumn HL,40059,38.3449169,-85.5962622
11,Autumn HL,40059,38.3464199,-85.5968586
12,Autumn HL,40059,38.3464924,-85.5969836
19,Autumn HL,40059,38.3476661,-85.5970347
2,Autumn HL,40059,38.3450697,-85.5963466
3,Autumn HL,40059,38.3452004,-85.5963612
6,Autumn HL,40059,38.3458376,-85.5963765
6523,Gunpowder Lane,40059,38.3435417,-85.6122005
6711,John Hancock Place,40059,38.3456730,-85.5980569
6711,Tallwood Court,40059,38.3445589,-85.6074353
6713,John Hancock Place,40059,38.3457431,-85.5979675
6715,John Hancock Place,40059,38.3459894,-85.5980806
6717,John Hancock Place,40059,38.3460801,-85.5982606
6719,John Hancock Place,40059,38.3461383,-85.5983768
7003,Fox Harbor Road,40059,38.3407464,-85.6161380
7051,Hunting Creek Drive,40059,38.3522941,-85.6125860
7053,Hunting Creek Drive,40059,38.3521367,-85.6122504
7055,Hunting Creek Drive,40059,38.3519088,-85.6123041
7100,Covered Cove Way,40059,38.3505913,-85.6006379
7107,Hunting Creek Drive,40059,38.3511557,-85.6094097
7204,Covered Bridge Road,40059,38.3534421,-85.6091723
7250,Happy Hollow Road,40059,38.3461020,-85.6127887
7501,Hunting Creek Drive,40059,38.3484653,-85.6025717
7503,Hunting Creek Drive,40059,38.3482468,-85.6025415
7505,Hunting Creek Drive,40059,38.3478672,-85.6025357
7603,Tallwood Road,40059,38.3424076,-85.6069810
7697,Happy Hollow Road,40059,38.3454374,-85.6090393
7701,Happy Hollow Road,40059,38.3455565,-85.6087036
7703,Happy Hollow Road,40059,38.3449201,-85.6083609
7704,Cedar Ridge Court,40059,38.3547750,-85.6009434
7705,Happy Hollow Road,40059,38.3452733,-85.6077137
7800,Westover Drive,40059,38.3452250,-85.6013570
7807,Westover Drive,40059,38.3451012,-85.6006755
7809,Westover Drive,40059,38.3451346,-85.6005606
7915,Westover Drive,40059,38.3448851,-85.5995534
7917,Westover Drive,40059,38.3449174,-85.5994211
7919,Westover Drive,40059,38.3448794,-85.5992608
8,Autumn HL,40059,38.3462622,-85.5966093
8001,Westover Drive,40059,38.3447996,-85.5991776
8031,Westover Drive,40059,38.3445923,-85.5974244
8033,Westover Drive,40059,38.3446138,-85.5972134
8301,Westover Drive,40059,38.3464804,-85.5943920
1,Harrods Landing Drive,40059,38.3360660,-85.6188941
1001,Harrods Landing Drive,40059,38.3355753,-85.6196167
1002,Harrods Landing Drive,40059,38.3355321,-85.6196507
1003,Harrods Landing Drive,40059,38.3354945,-85.6197019
1004,Harrods Landing Drive,40059,38.3354493,-85.6197333
11,Harrods Landing Drive,40059,38.3358069,-85.6192292
12014,Charlock Court,40059,38.3481878,-85.5860786
13,Harrods Landing Drive,40059,38.3357488,-85.6193079
15,Harrods Landing Drive,40059,38.3357028,-85.6193667
2001,Harrods Landing Drive,40059,38.3353806,-85.6198258
2002,Harrods Landing Drive,40059,38.3353508,-85.6198939
2003,Harrods Landing Drive,40059,38.3353279,-85.6199585
2004,Harrods Landing Drive,40059,38.3352858,-85.6200092
2005,Harrods Landing Drive,40059,38.3352519,-85.6200702
3,Harrods Landing Drive,40059,38.3360168,-85.6189547
3001,Harrods Landing Drive,40059,38.3348519,-85.6203596
3002,Harrods Landing Drive,40059,38.3347896,-85.6203536
3003,Harrods Landing Drive,40059,38.3347313,-85.6203477
3004,Harrods Landing Drive,40059,38.3346709,-85.6203414
3005,Harrods Landing Drive,40059,38.3346165,-85.6203382
4001,Harrods Landing Drive,40059,38.3345159,-85.6203328
4002,Harrods Landing Drive,40059,38.3344645,-85.6203109
4003,Harrods Landing Drive,40059,38.3344077,-85.6202911
4004,Harrods Landing Drive,40059,38.3343536,-85.6202744
4005,Harrods Landing Drive,40059,38.3342968,-85.6202476
5,Harrods Landing Drive,40059,38.3359380,-85.6190251
5001,Harrods Landing Drive,40059,38.3341785,-85.6202471
5002,Harrods Landing Drive,40059,38.3341214,-85.6202560
5003,Harrods Landing Drive,40059,38.3340735,-85.6202778
5004,Harrods Landing Drive,40059,38.3340148,-85.6202972
5005,Harrods Landing Drive,40059,38.3339562,-85.6203152
5500,Timber Creek Court,40059,38.3307783,-85.6172799
5502,Timber Creek Court,40059,38.3308003,-85.6173331
5504,Timber Creek Court,40059,38.3308146,-85.6174053
5504,Timber Ridge Drive,40059,38.3314322,-85.6129653
5506,Timber Creek Court,40059,38.3308364,-85.6174776
5508,Timber Creek Court,40059,38.3308660,-85.6175261
5510,Timber Creek Court,40059,38.3308694,-85.6175597
5512,Timber Creek Court,40059,38.3309065,-85.6176179
5514,Timber Creek Court,40059,38.3309288,-85.6176471
5516,Timber Creek Court,40059,38.3309507,-85.6177146
5516,Timber Ridge Drive,40059,38.3311825,-85.6152636
5517,Timber Ridge Drive,40059,38.3317106,-85.6157020
5518,Timber Creek Court,40059,38.3309806,-85.6177240
5600,Harrods Run Road,40059,38.3315601,-85.6188571
5600,Timber Creek Court,40059,38.3310902,-85.6179082
5602,Harrods Run Road,40059,38.3315745,-85.6189149
5602,Timber Creek Court,40059,38.3311101,-85.6179617
5603,Harrods Run Road,40059,38.3315592,-85.6189337
5604,Harrods Run Road,40059,38.3315813,-85.6189821
5604,Timber Creek Court,40059,38.3311588,-85.6179966
5606,Harrods Run Road,40059,38.3316071,-85.6190301
5606,Timber Creek Court,40059,38.3311848,-85.6180259
5608,Harrods Run Road,40059,38.3316213,-85.6191027
5608,Timber Creek Court,40059,38.3312261,-85.6180458
5610,Harrods Run Road,40059,38.3316470,-85.6191651
5610,Timber Creek Court,40059,38.3312710,-85.6180798
5612,Harrods Run Road,40059,38.3316617,-85.6192037
5612,Timber Creek Court,40059,38.3313121,-85.6181141
5614,Harrods Run Road,40059,38.3316909,-85.6192905
5614,Timber Creek Court,40059,38.3313496,-85.6181340
5616,Harrods Run Road,40059,38.3317093,-85.6193292
5616,Timber Creek Court,40059,38.3313796,-85.6181585
5618,Harrods Run Road,40059,38.3317201,-85.6193774
5618,Timber Creek Court,40059,38.3314358,-85.6181836
5620,Harrods Run Road,40059,38.3317422,-85.6194257
5620,Timber Creek Court,40059,38.3314695,-85.6182130
5621,Harrods Run Road,40059,38.3321591,-85.6191285
5622,Harrods Run Road,40059,38.3317567,-85.6194740
5622,Timber Creek Court,40059,38.3315218,-85.6182571
5623,Harrods Run Road,40059,38.3321936,-85.6192434
5624,Harrods Run Road,40059,38.3317788,-85.6195271
5626,Harrods Run Road,40059,38.3318144,-85.6195339
5700,Harrods Run Road,40059,38.3320157,-85.6199561
5702,Harrods Run Road,40059,38.3320945,-85.6200055
5704,Harrods Run Road,40059,38.3321655,-85.6200596
5706,Harrods Run Road,40059,38.3322369,-85.6200897
5708,Harrods Run Road,40059,38.3323051,-85.6201263
5710,Harrods Run Road,40059,38.3324867,-85.6200839
5712,Harrods Run Road,40059,38.3325697,-85.6200855
5714,Harrods Run Road,40059,38.3326413,-85.6200917
5716,Harrods Run Road,40059,38.3327131,-85.6200882
5718,Harrods Run Road,40059,38.3327887,-85.6200801
5720,Harrods Run Road,40059,38.3328681,-85.6200672
5815,Timber Ridge Drive,40059,38.3363128,-85.6184036
5900,Marina View Court,40059,38.3367250,-85.6207742
5901,Marina View Court,40059,38.3363349,-85.6209228
5902,Marina View Court,40059,38.3366855,-85.6206549
5903,Marina View Court,40059,38.3363069,-85.6208042
5904,Marina View Court,40059,38.3366515,-85.6205597
5905,Marina View Court,40059,38.3362734,-85.6207090
5906,Marina View Court,40059,38.3366175,-85.6204640
5907,Marina View Court,40059,38.3362400,-85.6206133
5908,Marina View Court,40059,38.3365836,-85.6203683
5909,Marina View Court,40059,38.3362065,-85.6205177
5910,Marina View Court,40059,38.3365495,-85.6202731
5911,Marina View Court,40059,38.3361730,-85.6204220
5912,Marina View Court,40059,38.3365155,-85.6201779
5913,Marina View Court,40059,38.3361379,-85.6203318
5914,Marina View Court,40059,38.3364815,-85.6200827
5916,Marina View Court,40059,38.3364630,-85.6199924
5920,Marina View Court,40059,38.3360116,-85.6198807
6001,Harrods Landing Drive,40059,38.3338605,-85.6203670
6002,Harrods Landing Drive,40059,38.3338111,-85.6204058
6003,Harrods Landing Drive,40059,38.3337644,-85.6204410
6004,Harrods Landing Drive,40059,38.3337192,-85.6204798
6005,Harrods Landing Drive,40059,38.3336725,-85.6205169
6102,Deep Creek Drive,40059,38.3365569,-85.6104956
6103,Deep Creek Drive,40059,38.3352085,-85.6097145
6105,Deep Creek Drive,40059,38.3354115,-85.6092637
6107,Deep Creek Drive,40059,38.3356676,-85.6088963
6114,Deep Creek Drive,40059,38.3375257,-85.6082582
6130,Deep Creek Drive,40059,38.3376644,-85.6062742
6201,Deep Creek Drive,40059,38.3352058,-85.6055400
6419,Deep Creek Drive,40059,38.3409326,-85.6019125
6500,Deep Creek Drive,40059,38.3410375,-85.6018533
6500,Harrods View Circle,40059,38.3430141,-85.5939137
6503,Deep Creek Drive,40059,38.3410516,-85.6011999
6503,Deep Creek Drive,40059,38.3410544,-85.6012749
6503,Deep Creek Drive,40059,38.3411480,-85.6011974
6503,Deep Creek Drive,40059,38.3411519,-85.6012768
6505,Deep Creek Drive,40059,38.3412216,-85.6011830
6505,Deep Creek Drive,40059,38.3412220,-85.6012567
6505,Deep Creek Drive,40059,38.3413168,-85.6011866
6505,Deep Creek Drive,40059,38.3413219,-85.6012599
6510,Deep Creek Drive,40059,38.3414946,-85.6019278
6512,Deep Creek Drive,40059,38.3415666,-85.6019649
6518,Montero Drive,40059,38.3415128,-85.6011000
6518,Montero Drive,40059,38.3415263,-85.6009856
6518,Montero Drive,40059,38.3415705,-85.6011194
6518,Montero Drive,40059,38.3415850,-85.6010063
6520,Montero Drive,40059,38.3415588,-85.6008838
6520,Montero Drive,40059,38.3415744,-85.6007786
6520,Montero Drive,40059,38.3416091,-85.6009030
6520,Montero Drive,40059,38.3416260,-85.6007870
6522,Gunpowder Lane,40059,38.3421047,-85.6107883
6600,Deep Creek Drive,40059,38.3418701,-85.6020740
6602,Deep Creek Drive,40059,38.3419745,-85.6019721
6618,Deep Creek Drive,40059,38.3427602,-85.6021858
6618,Harrods View Circle,40059,38.3428856,-85.5939113
6620,Deep Creek Drive,40059,38.3428367,-85.6020839
6701,Gunston Lane,40059,38.3435243,-85.5967285
6701,Gunston Lane,40059,38.3435305,-85.5966358
6703,Gunston Lane,40059,38.3436575,-85.5967541
6703,Gunston Lane,40059,38.3436647,-85.5966382
6705,Gunston Lane,40059,38.3437126,-85.5967612
6705,Gunston Lane,40059,38.3437189,-85.5966510
6707,Gunston Lane,40059,38.3437586,-85.5967738
6707,Gunston Lane,40059,38.3437687,-85.5966519
6708,Deep Creek Drive,40059,38.3435898,-85.6022043
6709,Gunston Lane,40059,38.3437907,-85.5967801
6709,Gunston Lane,40059,38.3438035,-85.5966452
6711,Gunston Lane,40059,38.3438735,-85.5967759
6711,Gunston Lane,40059,38.3438833,-85.5966510
6713,Gunston Lane,40059,38.3439195,-85.5967825
6713,Gunston Lane,40059,38.3439281,-85.5966710
6715,Gunston Lane,40059,38.3439608,-85.5967889
6715,Gunston Lane,40059,38.3439732,-85.5966793
6717,Gunston Lane,40059,38.3440021,-85.5968014
6717,Gunston Lane,40059,38.3440218,-85.5966758
6719,Gunston Lane,40059,38.3441032,-85.5968151
6719,Gunston Lane,40059,38.3441145,-85.5966627
6721,Gunston Lane,40059,38.3441355,-85.5968096
6721,Gunston Lane,40059,38.3441492,-85.5966738
6723,Gunston Lane,40059,38.3441724,-85.5968046
6723,Gunston Lane,40059,38.3441838,-85.5966727
6726,Deep Creek Drive,40059,38.3444989,-85.6024550
6900,Ridge Run Circle,40059,38.3323989,-85.6188707
6901,Ridge Run Circle,40059,38.3319480,-85.6187023
6903,Ridge Run Circle,40059,38.3319712,-85.6186548
6905,Ridge Run Circle,40059,38.3319944,-85.6186025
6907,Ridge Run Circle,40059,38.3320176,-85.6185550
6909,Ridge Run Circle,40059,38.3320407,-85.6185170
6911,Ridge Run Circle,40059,38.3320640,-85.6184647
6913,Ridge Run Circle,40059,38.3320872,-85.6184172
6915,Ridge Run Circle,40059,38.3321027,-85.6183888
6917,Ridge Run Circle,40059,38.3321220,-85.6183460
6919,Ridge Run Circle,40059,38.3321480,-85.6182702
6920,Ridge Run Circle,40059,38.3324861,-85.6188662
7,Harrods Landing Drive,40059,38.3359001,-85.6190789
7000,Ridge Run Circle,40059,38.3324288,-85.6190218
7001,Harrods Landing Drive,40059,38.3335316,-85.6205953
7001,Ridge Run Circle,40059,38.3328615,-85.6186084
7002,Harrods Landing Drive,40059,38.3334760,-85.6205855
7002,Ridge Run Circle,40059,38.3324410,-85.6191081
7003,Harrods Landing Drive,40059,38.3334204,-85.6205792
7003,Ridge Run Circle,40059,38.3328525,-85.6187328
7004,Harrods Landing Drive,40059,38.3333620,-85.6205712
7004,Ridge Run Circle,40059,38.3324394,-85.6192419
7005,Harrods Landing Drive,40059,38.3333077,-85.6205653
7005,Ridge Run Circle,40059,38.3328740,-85.6188243
7006,Ridge Run Circle,40059,38.3324383,-85.6193378
7007,Ridge Run Circle,40059,38.3328991,-85.6189351
7008,Fox Valley Court,40059,38.3388129,-85.6148864
7008,Ridge Run Circle,40059,38.3324485,-85.6194338
7009,Ridge Run Circle,40059,38.3329017,-85.6190358
7010,Ridge Run Circle,40059,38.3324400,-85.6195152
7011,Ridge Run Circle,40059,38.3329043,-85.6191409
7012,Ridge Run Circle,40059,38.3324497,-85.6196544
7013,Ridge Run Circle,40059,38.3329144,-85.6192465
7015,Ridge Run Circle,40059,38.3329286,-85.6193235
7017,Ridge Run Circle,40059,38.3329271,-85.6194481
7018,Shallow Lake Road,40059,38.3332601,-85.6143403
7019,Ridge Run Circle,40059,38.3329336,-85.6195345
7107,Gunpowder Court,40059,38.3408531,-85.6131260
7108,Fox Harbor Road,40059,38.3395983,-85.6140961
7206,Deer Ridge Road,40059,38.3310899,-85.6152619
7247,Fox Harbor Road,40059,38.3359957,-85.6121369
7255,Fox Harbor Road,40059,38.3358199,-85.6126548
7402,Pine Knoll Circle,40059,38.3529290,-85.5925202
7601,Laurel Hill Place,40059,38.3386674,-85.6040452
7800,Grenoble Lane,40059,38.3425986,-85.6015400
7801,Montero Drive,40059,38.3419969,-85.6014525
7802,Grenoble Lane,40059,38.3426058,-85.6014494
7803,Montero Drive,40059,38.3420094,-85.6013742
7804,Grenoble Lane,40059,38.3426131,-85.6013410
7805,Montero Drive,40059,38.3420163,-85.6012859
7806,Grenoble Lane,40059,38.3426162,-85.6012530
7807,Montero Drive,40059,38.3420208,-85.6012271
7808,Grenoble Lane,40059,38.3426195,-85.6011446
7809,Montero Drive,40059,38.3420353,-85.6011394
7810,Grenoble Lane,40059,38.3426351,-85.6010259
7811,Montero Drive,40059,38.3420437,-85.6010781
7812,Grenoble Lane,40059,38.3426469,-85.6008814
7813,Montero Drive,40059,38.3420467,-85.6009896
7815,Montero Drive,40059,38.3420591,-85.6009236
7819,Montero Drive,40059,38.3420860,-85.6007698
7821,Montero Drive,40059,38.3420830,-85.6006935
7823,Montero Drive,40059,38.3420878,-85.6006103
7825,Montero Drive,40059,38.3421041,-85.6005396
7827,Montero Drive,40059,38.3421147,-85.6004561
7829,Montero Drive,40059,38.3421233,-85.6003804
7831,Montero Drive,40059,38.3421396,-85.6003097
7833,Montero Drive,40059,38.3421424,-85.6002334
7850,Montero Drive,40059,38.3384176,-85.5952376
7900,Grenoble Lane,40059,38.3427928,-85.5999552
7900,Grenoble Lane,40059,38.3428798,-85.6000131
7902,Grenoble Lane,40059,38.3428176,-85.5998903
7902,Grenoble Lane,40059,38.3429030,-85.5999564
7903,Montero Drive,40059,38.3421645,-85.5999911
7904,Grenoble Lane,40059,38.3428582,-85.5998056
7904,Grenoble Lane,40059,38.3429467,-85.5998714
7904,Montero Drive,40059,38.3422318,-85.5985879
7905,Montero Drive,40059,38.3421809,-85.5999103
7906,Grenoble Lane,40059,38.3428907,-85.5997452
7906,Grenoble Lane,40059,38.3429746,-85.5998104
7907,Montero Drive,40059,38.3421876,-85.5998346
7908,Grenoble Lane,40059,38.3429185,-85.5996834
7908,Grenoble Lane,40059,38.3429985,-85.5997551
7909,Montero Drive,40059,38.3421981,-85.5997585
7910,Grenoble Lane,40059,38.3429441,-85.5996259
7910,Grenoble Lane,40059,38.3430287,-85.5996933
7911,Montero Drive,40059,38.3422085,-85.5996950
7912,Grenoble Lane,40059,38.3429840,-85.5995338
7912,Grenoble Lane,40059,38.3430740,-85.5996044
7913,Montero Drive,40059,38.3422114,-85.5996066
7914,Grenoble Lane,40059,38.3430211,-85.5994765
7914,Grenoble Lane,40059,38.3431011,-85.5995399
7915,Montero Drive,40059,38.3422256,-85.5995506
7915,Montero Drive,40059,38.3422558,-85.5995386
7917,Montero Drive,40059,38.3425025,-85.5990096
7919,Montero Drive,40059,38.3425480,-85.5989717
7920,Grenoble Lane,40059,38.3435816,-85.5988937
7921,Montero Drive,40059,38.3426056,-85.5988995
7921,Montero Drive,40059,38.3426418,-85.5989560
7922,Grenoble Lane,40059,38.3436227,-85.5988805
7923,Montero Drive,40059,38.3426471,-85.5988550
7923,Montero Drive,40059,38.3426896,-85.5989089
7924,Grenoble Lane,40059,38.3437699,-85.5988763
7926,Grenoble Lane,40059,38.3438056,-85.5988565
7928,Grenoble Lane,40059,38.3439023,-85.5987471
7930,Grenoble Lane,40059,38.3439354,-85.5987133
7932,Grenoble Lane,40059,38.3440417,-85.5987188
7934,Grenoble Lane,40059,38.3440773,-85.5986985
7936,Grenoble Lane,40059,38.3441293,-85.5986820
8000,Westover Drive,40059,38.3439254,-85.5979133
8000,Westover Drive,40059,38.3440066,-85.5978973
8001,Harrods Landing Drive,40059,38.3348105,-85.6196672
8001,Montero Drive,40059,38.3429950,-85.5985001
8001,Montero Drive,40059,38.3430550,-85.5985832
8002,Harrods Landing Drive,40059,38.3347545,-85.6196901
8002,Westover Drive,40059,38.3439237,-85.5978574
8002,Westover Drive,40059,38.3440026,-85.5978384
8002,Weyanoke Court,40059,38.3408392,-85.5984709
8003,Harrods Landing Drive,40059,38.3346985,-85.6197169
8003,Montero Drive,40059,38.3430232,-85.5984688
8003,Montero Drive,40059,38.3430840,-85.5985541
8004,Harrods Landing Drive,40059,38.3346451,-85.6197434
8004,Westover Drive,40059,38.3439174,-85.5978015
8004,Westover Drive,40059,38.3439986,-85.5977882
8005,Harrods Landing Drive,40059,38.3345865,-85.6197627
8005,Montero Drive,40059,38.3430513,-85.5984327
8005,Montero Drive,40059,38.3431131,-85.5985180
8006,Harrods Landing Drive,40059,38.3345303,-85.6198031
8006,Westover Drive,40059,38.3439157,-85.5977457
8006,Westover Drive,40059,38.3439969,-85.5977354
8007,Harrods Landing Drive,40059,38.3344757,-85.6198299
8007,Montero Drive,40059,38.3430822,-85.5983958
8007,Montero Drive,40059,38.3431459,-85.5984733
8008,Westover Drive,40059,38.3439140,-85.5976929
8008,Westover Drive,40059,38.3439906,-85.5976765
8009,Montero Drive,40059,38.3431231,-85.5983443
8009,Montero Drive,40059,38.3431813,-85.5984251
8010,Westover Drive,40059,38.3439101,-85.5976340
8010,Westover Drive,40059,38.3439912,-85.5976264
8011,Montero Drive,40059,38.3431558,-85.5983117
8011,Montero Drive,40059,38.3432095,-85.5983912
8012,Westover Drive,40059,38.3439061,-85.5975869
8012,Westover Drive,40059,38.3439872,-85.5975648
8013,Montero Drive,40059,38.3431849,-85.5982761
8013,Montero Drive,40059,38.3432386,-85.5983543
8014,Westover Drive,40059,38.3439045,-85.5975219
8014,Westover Drive,40059,38.3439833,-85.5975029
8015,Montero Drive,40059,38.3432176,-85.5982392
8015,Montero Drive,40059,38.3432723,-85.5983104
8016,Westover Drive,40059,38.3439005,-85.5974691
8016,Westover Drive,40059,38.3439794,-85.5974439
8017,Montero Drive,40059,38.3432585,-85.5981907
8017,Montero Drive,40059,38.3433087,-85.5982588
8018,Westover Drive,40059,38.3438988,-85.5974132
8018,Westover Drive,40059,38.3439779,-85.5973825
8019,Montero Drive,40059,38.3432884,-85.5981538
8019,Montero Drive,40059,38.3433368,-85.5982266
8020,Westover Drive,40059,38.3438948,-85.5973574
8020,Westover Drive,40059,38.3439739,-85.5973205
8021,Montero Drive,40059,38.3433175,-85.5981160
8021,Montero Drive,40059,38.3433696,-85.5981828
8022,Westover Drive,40059,38.3438932,-85.5972985
8022,Westover Drive,40059,38.3439767,-85.5972826
8023,Montero Drive,40059,38.3433512,-85.5980743
8023,Montero Drive,40059,38.3433979,-85.5981388
8031,Montero Drive,40059,38.3425555,-85.5957097
8212,Montero Drive,40059,38.3393126,-85.5923972
8251,Montero Drive,40059,38.3426706,-85.5919707
8251,Montero Drive,40059,38.3469364,-85.5908788
8804,U S Highway 42,40059,38.3326178,-85.6206286
8804,U S Highway 42,40059,38.3326314,-85.6207944
8804,U S Highway 42,40059,38.3326608,-85.6208050
8804,U S Highway 42,40059,38.3326642,-85.6206491
8804,U S Highway 42,40059,38.3326951,-85.6206579
8804,U S Highway 42,40059,38.3326979,-85.6208214
8804,U S Highway 42,40059,38.3327226,-85.6208280
8804,U S Highway 42,40059,38.3327291,-85.6206782
8804,U S Highway 42,40059,38.3327554,-85.6206883
8804,U S Highway 42,40059,38.3327643,-85.6208584
8804,U S Highway 42,40059,38.3327860,-85.6208645
8804,U S Highway 42,40059,38.3327894,-85.6207029
8804,U S Highway 42,40059,38.3328173,-85.6207152
8804,U S Highway 42,40059,38.3328229,-85.6208892
8804,U S Highway 42,40059,38.3328493,-85.6208975
8804,U S Highway 42,40059,38.3328543,-85.6207337
8804,U S Highway 42,40059,38.3328822,-85.6207382
8804,U S Highway 42,40059,38.3328833,-85.6209099
8804,U S Highway 42,40059,38.3329050,-85.6209199
8804,U S Highway 42,40059,38.3329161,-85.6207584
8804,U S Highway 42,40059,38.3329425,-85.6207611
8804,U S Highway 42,40059,38.3329467,-85.6209386
8804,U S Highway 42,40059,38.3329730,-85.6209469
8804,U S Highway 42,40059,38.3329750,-85.6207757
8804,U S Highway 42,40059,38.3330044,-85.6207880
8804,U S Highway 42,40059,38.3330400,-85.6208022
8804,U S Highway 42,40059,38.3330725,-85.6208106
8804,U S Highway 42,40059,38.3331017,-85.6208408
8804,U S Highway 42,40059,38.3331296,-85.6208474
8804,U S Highway 42,40059,38.3331696,-85.6208757
8804,U S Highway 42,40059,38.3332222,-85.6209024
8804,U S Highway 42,40059,38.3332810,-85.6209253
8804,U S Highway 42,40059,38.3336392,-85.6214275
8804,U S Highway 42,40059,38.3333909,-85.6209531
8804,U S Highway 42,40059,38.3334484,-85.6209581
8804,U S Highway 42,40059,38.3335058,-85.6209653
8804,U S Highway 42,40059,38.3335231,-85.6215195
8804,U S Highway 42,40059,38.3335494,-85.6209600
8804,U S Highway 42,40059,38.3335540,-85.6215253
8804,U S Highway 42,40059,38.3335966,-85.6215187
8804,U S Highway 42,40059,38.3336053,-85.6209650
8804,U S Highway 42,40059,38.3336469,-85.6215219
8804,U S Highway 42,40059,38.3336503,-85.6209680
8804,U S Highway 42,40059,38.3336860,-85.6209704
8804,U S Highway 42,40059,38.3336894,-85.6215279
8804,U S Highway 42,40059,38.3337326,-85.6209713
8804,U S Highway 42,40059,38.3337339,-85.6215213
8804,U S Highway 42,40059,38.3337764,-85.6215243
8804,U S Highway 42,40059,38.3337777,-85.6209704
8804,U S Highway 42,40059,38.3338242,-85.6209809
8804,U S Highway 42,40059,38.3338288,-85.6215179
8804,U S Highway 42,40059,38.3338692,-85.6209800
8804,U S Highway 42,40059,38.3338791,-85.6215119
8804,U S Highway 42,40059,38.3339096,-85.6209825
8804,U S Highway 42,40059,38.3339333,-85.6215077
8804,U S Highway 42,40059,38.3339484,-85.6209832
8804,U S Highway 42,40059,38.3339777,-85.6215233
8804,U S Highway 42,40059,38.3339982,-85.6209824
8804,U S Highway 42,40059,38.3340240,-85.6215342
8804,U S Highway 42,40059,38.3340433,-85.6209789
8804,U S Highway 42,40059,38.3340686,-85.6215224
8804,U S Highway 42,40059,38.3340838,-85.6209740
8804,U S Highway 42,40059,38.3341286,-85.6215188
8804,U S Highway 42,40059,38.3341320,-85.6209710
8804,U S Highway 42,40059,38.3341791,-85.6215001
8804,U S Highway 42,40059,38.3341802,-85.6209640
8804,U S Highway 42,40059,38.3342175,-85.6209648
8804,U S Highway 42,40059,38.3342278,-85.6214814
8804,U S Highway 42,40059,38.3342611,-85.6209556
8804,U S Highway 42,40059,38.3342782,-85.6214702
8804,U S Highway 42,40059,38.3343016,-85.6209546
8804,U S Highway 42,40059,38.3343268,-85.6214489
8804,U S Highway 42,40059,38.3343498,-85.6209494
8804,U S Highway 42,40059,38.3343789,-85.6214572
8804,U S Highway 42,40059,38.3343871,-85.6209462
8804,U S Highway 42,40059,38.3344195,-85.6214628
8804,U S Highway 42,40059,38.3344354,-85.6209392
8804,U S Highway 42,40059,38.3344661,-85.6214467
8804,U S Highway 42,40059,38.3344759,-85.6209322
8804,U S Highway 42,40059,38.3345030,-85.6214352
8804,U S Highway 42,40059,38.3345211,-85.6209173
8804,U S Highway 42,40059,38.3345459,-85.6214112
8804,U S Highway 42,40059,38.3345568,-85.6209158
8804,U S Highway 42,40059,38.3345848,-85.6213923
8804,U S Highway 42,40059,38.3346160,-85.6209052
8804,U S Highway 42,40059,38.3346351,-85.6213910
8804,U S Highway 42,40059,38.3346752,-85.6208884
8804,U S Highway 42,40059,38.3346759,-85.6213770
8804,U S Highway 42,40059,38.3347089,-85.6213702
8804,U S Highway 42,40059,38.3347158,-85.6208752
8804,U S Highway 42,40059,38.3347574,-85.6213563
8804,U S Highway 42,40059,38.3347641,-85.6208605
8804,U S Highway 42,40059,38.3348037,-85.6213646
8804,U S Highway 42,40059,38.3348141,-85.6208435
8804,U S Highway 42,40059,38.3348406,-85.6213553
8804,U S Highway 42,40059,38.3348593,-85.6208287
8804,U S Highway 42,40059,38.3348931,-85.6213292
8804,U S Highway 42,40059,38.3349079,-85.6207921
8804,U S Highway 42,40059,38.3349262,-85.6213155
8804,U S Highway 42,40059,38.3349531,-85.6207773
8804,U S Highway 42,40059,38.3349574,-85.6212938
8804,U S Highway 42,40059,38.3349945,-85.6212675
8804,U S Highway 42,40059,38.3350157,-85.6207410
8804,U S Highway 42,40059,38.3350413,-85.6212366
8804,U S Highway 42,40059,38.3350628,-85.6207062
8804,U S Highway 42,40059,38.3350726,-85.6212076
8804,U S Highway 42,40059,38.3351081,-85.6206874
8804,U S Highway 42,40059,38.3351212,-85.6211862
8804,U S Highway 42,40059,38.3351475,-85.6206328
8804,U S Highway 42,40059,38.3351582,-85.6211599
8804,U S Highway 42,40059,38.3351991,-85.6206063
8804,U S Highway 42,40059,38.3351991,-85.6211411
8804,U S Highway 42,40059,38.3352302,-85.6211295
8804,U S Highway 42,40059,38.3352353,-85.6205695
8804,U S Highway 42,40059,38.3352772,-85.6210885
8804,U S Highway 42,40059,38.3352855,-85.6205312
8804,U S Highway 42,40059,38.3353180,-85.6210697
8804,U S Highway 42,40059,38.3353342,-85.6204864
8804,U S Highway 42,40059,38.3353589,-85.6210434
8804,U S Highway 42,40059,38.3353902,-85.6210353
8804,U S Highway 42,40059,38.3354376,-85.6209961
8804,U S Highway 42,40059,38.3354741,-85.6209724
8804,U S Highway 42,40059,38.3355043,-85.6209472
8804,U S Highway 42,40059,38.3355395,-85.6209209
8804,U S Highway 42,40059,38.3355707,-85.6208992
8804,U S Highway 42,40059,38.3356001,-85.6208654
8900,U S Highway 42,40059,38.3366316,-85.6210269
9,Harrods Landing Drive,40059,38.3358490,-85.6191668
9001,Harrods Landing Drive,40059,38.3352049,-85.6194140
9002,Harrods Landing Drive,40059,38.3351229,-85.6194469
9003,Harrods Landing Drive,40059,38.3350491,-85.6194886
9004,Harrods Landing Drive,40059,38.3349820,-85.6195305
9005,Harrods Landing Drive,40059,38.3349054,-85.6195722
9108,U S Highway 42,40059,38.3382928,-85.6190120
9120,U S Highway 42,40059,38.3403315,-85.6184224
9220,U S Highway 42,40059,38.3414044,-85.6175195
9207,US-42,40059,38.3406513,-85.6197947
9207,US-42,40059,38.3407064,-85.6196757
9207,US-42,40059,38.3405836,-85.6199555
9207,US-42,40059,38.3407802,-85.6195184
9213,US-42,40059,38.3405969,-85.6190519
9213,US-42,40059,38.3406516,-85.6189992
8202,Woodrose Court,40059,38.3438565,-85.5959008
6909,Wolf Pen Branch Road,40059,38.3205076,-85.6188370
6909,Wolf Pen Branch Road,40059,38.3214052,-85.6187815
9515,U S Highway 42,40059,38.3423748,-85.6181934
5900,Timber Ridge Drive,40059,38.3381411,-85.6216862
7419,Smithfield Greene Lane,40059,38.3405385,-85.6233347
9001,U S Highway 42,40059,38.3380226,-85.6225543
9101,U S Highway 42,40059,38.3388562,-85.6208286
9105,U S Highway 42,40059,38.3394236,-85.6201494
9109,U S Highway 42,40059,38.3396756,-85.6200129
9201,U S Highway 42,40059,38.3399825,-85.6197408
9205,U S Highway 42,40059,38.3401910,-85.6195328
9217,U S Highway 42,40059,38.3410698,-85.6190754
9219,U S Highway 42,40059,38.3415096,-85.6185905
9225,U S Highway 42,40059,38.3418059,-85.6184145
9505,U S Highway 42,40059,38.3435829,-85.6193759
9517,U S Highway 42,40059,38.3428900,-85.6186357
5905,Timber Ridge Drive,40059,38.3391639,-85.6205087
13910,River Glen Lane,40059,38.3712994,-85.6217274
3604,River Ridge Cove,40059,38.3719672,-85.6236645
3606,River Ridge Cove,40059,38.3712903,-85.6239661
3607,River Ridge Cove,40059,38.3705784,-85.6228918
3608,River Ridge Cove,40059,38.3706283,-85.6240941
6200,Walnut Ridge Trail,40059,38.3502929,-85.6251484
6202,Burnham Place,40059,38.3512046,-85.6276618
6203,Burnham Place,40059,38.3517449,-85.6281135
6204,Burnham Place,40059,38.3514837,-85.6274852
6204,Walnut Ridge Trail,40059,38.3507509,-85.6251150
6205,Burnham Place,40059,38.3519423,-85.6278837
6206,Burnham Place,40059,38.3517279,-85.6272947
6206,Walnut Ridge Trail,40059,38.3510631,-85.6253392
6207,Burnham Place,40059,38.3521929,-85.6277727
6207,Walnut Ridge Trail,40059,38.3513575,-85.6259442
6208,Burnham Place,40059,38.3520235,-85.6271728
6208,Walnut Ridge Trail,40059,38.3513196,-85.6252869
6209,Burnham Place,40059,38.3524388,-85.6276755
6209,Walnut Ridge Trail,40059,38.3516773,-85.6259507
6210,Burnham Place,40059,38.3523492,-85.6270119
6210,Walnut Ridge Trail,40059,38.3516143,-85.6252944
6211,Burnham Place,40059,38.3526979,-85.6275852
6211,Walnut Ridge Trail,40059,38.3519594,-85.6259079
6212,Walnut Ridge Trail,40059,38.3518887,-85.6252786
6213,Burnham Place,40059,38.3529072,-85.6273592
6214,Walnut Ridge Trail,40059,38.3521591,-85.6252941
6300,Innisbrook Drive,40059,38.3596887,-85.6255944
6300,Walnut Ridge Trail,40059,38.3524459,-85.6252033
6301,Bass Road,40059,38.3508109,-85.6266987
6301,Innisbrook Drive,40059,38.3596705,-85.6262301
6301,Walnut Ridge Trail,40059,38.3525018,-85.6257825
6302,Innisbrook Drive,40059,38.3599823,-85.6254143
6302,Walnut Ridge Trail,40059,38.3527043,-85.6251090
6303,Walnut Ridge Trail,40059,38.3528148,-85.6257269
6304,Walnut Ridge Trail,40059,38.3529815,-85.6250745
6305,Innisbrook Drive,40059,38.3603709,-85.6261604
6305,Walnut Ridge Trail,40059,38.3530824,-85.6256709
6306,Walnut Ridge Trail,40059,38.3533252,-85.6249940
6307,Innisbrook Drive,40059,38.3606998,-85.6260442
6307,Walnut Ridge Trail,40059,38.3534592,-85.6255745
6308,Walnut Ridge Trail,40059,38.3535894,-85.6249138
6309,Innisbrook Drive,40059,38.3610272,-85.6259955
6309,Walnut Ridge Trail,40059,38.3538103,-85.6255104
6310,Innisbrook Drive,40059,38.3603190,-85.6254354
6311,Innisbrook Drive,40059,38.3612982,-85.6258007
6313,Innisbrook Drive,40059,38.3608275,-85.6251429
6315,Innisbrook Drive,40059,38.3606785,-85.6248036
6316,Innisbrook Drive,40059,38.3600905,-85.6249620
6317,Innisbrook Drive,40059,38.3604872,-85.6244976
6400,Innisbrook Drive,40059,38.3598830,-85.6241903
6400,Walnut Ridge Trail,40059,38.3538987,-85.6247789
6401,Innisbrook Drive,40059,38.3604260,-85.6241235
6401,Walnut Ridge Trail,40059,38.3543076,-85.6251648
6403,Innisbrook Drive,40059,38.3602880,-85.6237907
6403,Walnut Ridge Trail,40059,38.3545264,-85.6249309
6404,Innisbrook Drive,40059,38.3595161,-85.6241152
6405,Innisbrook Drive,40059,38.3601251,-85.6235345
6405,Walnut Ridge Trail,40059,38.3547447,-85.6246210
6406,Innisbrook Drive,40059,38.3593065,-85.6238881
6407,Walnut Ridge Trail,40059,38.3549003,-85.6242929
6408,Innisbrook Drive,40059,38.3590816,-85.6236506
6408,Walnut Ridge Trail,40059,38.3543054,-85.6241526
6409,Innisbrook Drive,40059,38.3592352,-85.6230071
6409,Walnut Ridge Trail,40059,38.3549070,-85.6238934
6410,Innisbrook Drive,40059,38.3588889,-85.6234300
6412,Innisbrook Drive,40059,38.3586964,-85.6231487
6413,Innisbrook Drive,40059,38.3589692,-85.6226408
6414,Innisbrook Drive,40059,38.3584893,-85.6229158
6500,Innisbrook Drive,40059,38.3583163,-85.6226262
6500,Mount Batten Court,40059,38.3548720,-85.6214215
6500,Turnbridge Place,40059,38.3543915,-85.6223998
6501,Innisbrook Drive,40059,38.3585672,-85.6221262
6501,Mount Batten Court,40059,38.3549302,-85.6209772
6501,Turnbridge Place,40059,38.3543011,-85.6219567
6502,Innisbrook Drive,40059,38.3581592,-85.6224208
6502,Mount Batten Court,40059,38.3546250,-85.6215583
6502,Turnbridge Place,40059,38.3542035,-85.6227464
6503,Mount Batten Court,40059,38.3547571,-85.6207264
6503,Turnbridge Place,40059,38.3540360,-85.6218943
6504,Innisbrook Drive,40059,38.3579716,-85.6220962
6504,Mount Batten Court,40059,38.3543808,-85.6212891
6504,Turnbridge Place,40059,38.3538905,-85.6226818
6505,Mount Batten Court,40059,38.3545760,-85.6204367
6505,Turnbridge Place,40059,38.3537879,-85.6218544
6506,Innisbrook Drive,40059,38.3578026,-85.6218157
6506,Mount Batten Court,40059,38.3542387,-85.6209070
6506,Sedgwicke Drive,40059,38.3468129,-85.6182313
6506,Turnbridge Place,40059,38.3536574,-85.6224115
6507,Sedgwicke Drive,40059,38.3467367,-85.6174518
6507,Turnbridge Place,40059,38.3535454,-85.6216919
6508,Innisbrook Drive,40059,38.3576087,-85.6215361
6508,Mount Batten Court,40059,38.3539385,-85.6208148
6508,Sedgwicke Drive,40059,38.3470837,-85.6186312
6508,Turnbridge Place,40059,38.3534334,-85.6222467
6509,Innisbrook Drive,40059,38.3577023,-85.6206803
6509,Mount Batten Court,40059,38.3539140,-85.6201989
6509,Sedgwicke Drive,40059,38.3471826,-85.6177646
6509,Turnbridge Place,40059,38.3533052,-85.6214610
6510,Innisbrook Drive,40059,38.3573997,-85.6213007
6510,Mount Batten Court,40059,38.3536386,-85.6207816
6510,Sedgwicke Drive,40059,38.3474818,-85.6188658
6510,Turnbridge Place,40059,38.3531790,-85.6221209
6511,Mount Batten Court,40059,38.3536411,-85.6200012
6511,Sedgwicke Drive,40059,38.3475973,-85.6181146
6511,Turnbridge Place,40059,38.3530701,-85.6212776
6512,Mount Batten Court,40059,38.3533836,-85.6206300
6512,Turnbridge Place,40059,38.3527679,-85.6217296
6513,Mount Batten Court,40059,38.3533522,-85.6198368
6513,Turnbridge Place,40059,38.3528589,-85.6210395
6514,Mount Batten Court,40059,38.3531011,-85.6204225
6514,Turnbridge Place,40059,38.3524793,-85.6215360
6515,Mount Batten Court,40059,38.3531086,-85.6200460
6515,Turnbridge Place,40059,38.3526279,-85.6207996
6516,Turnbridge Place,40059,38.3522622,-85.6209880
6800,Chadworth Place,40059,38.3546276,-85.6171214
6800,Penfield Court,40059,38.3528253,-85.6167497
6800,Windham Parkway,40059,38.3492930,-85.6177392
6801,Chadworth Place,40059,38.3551309,-85.6175822
6801,Hunters Run Place,40059,38.3541912,-85.6170357
6801,Penfield Court,40059,38.3530157,-85.6163193
6802,Chadworth Place,40059,38.3549262,-85.6167088
6802,Hunters Run Place,40059,38.3536676,-85.6167502
6802,Penfield Court,40059,38.3524257,-85.6165888
6803,Chadworth Place,40059,38.3553825,-85.6169392
6803,Hunters Run Place,40059,38.3543700,-85.6163441
6803,Penfield Court,40059,38.3527432,-85.6158932
6803,Windham Parkway,40059,38.3481688,-85.6170708
6804,Hunters Run Place,40059,38.3537522,-85.6161888
6805,Hunters Run Place,40059,38.3541790,-85.6159152
6805,Windham Parkway,40059,38.3478454,-85.6174542
6806,Windham Parkway,40059,38.3484900,-85.6177517
6808,Windham Parkway,40059,38.3482197,-85.6181855
6809,Windham Parkway,40059,38.3478274,-85.6190912
6810,Windham Parkway,40059,38.3483821,-85.6187600
6811,Windham Parkway,40059,38.3484667,-85.6198632
6812,Windham Parkway,40059,38.3489819,-85.6193011
6813,Windham Parkway,40059,38.3488544,-85.6200439
6814,Windham Parkway,40059,38.3494685,-85.6192413
6815,Windham Parkway,40059,38.3493041,-85.6201105
6816,Windham Parkway,40059,38.3498117,-85.6190986
6817,Windham Parkway,40059,38.3497034,-85.6198849
6819,Windham Parkway,40059,38.3500846,-85.6198079
6821,Windham Parkway,40059,38.3505396,-85.6198013
6822,Windham Parkway,40059,38.3512422,-85.6195748
6823,Windham Parkway,40059,38.3508144,-85.6201037
6824,Windham Parkway,40059,38.3514019,-85.6199093
6825,Windham Parkway,40059,38.3509582,-85.6204093
6826,Windham Parkway,40059,38.3515071,-85.6202428
6828,Windham Parkway,40059,38.3516038,-85.6205578
6829,Windham Parkway,40059,38.3512085,-85.6211462
6830,Windham Parkway,40059,38.3517201,-85.6208631
6832,Windham Parkway,40059,38.3518020,-85.6211835
6900,Cabot Court,40059,38.3521463,-85.6198324
6900,Greenmere Boulevard,40059,38.3487773,-85.6167088
6900,Windham Parkway,40059,38.3519056,-85.6215400
6901,Cabot Court,40059,38.3519257,-85.6194680
6901,Windham Parkway,40059,38.3514044,-85.6218551
6902,Cabot Court,40059,38.3525140,-85.6197852
6902,Windham Parkway,40059,38.3520014,-85.6218626
6903,Cabot Court,40059,38.3517847,-85.6190408
6904,Cabot Court,40059,38.3526770,-85.6193775
6904,Windham Parkway,40059,38.3520989,-85.6221549
6905,Cabot Court,40059,38.3518034,-85.6185997
6905,Windham Parkway,40059,38.3518001,-85.6228984
6906,Cabot Court,40059,38.3524011,-85.6189823
6906,Windham Parkway,40059,38.3522476,-85.6224524
6907,Windham Parkway,40059,38.3520262,-85.6231061
6908,Windham Parkway,40059,38.3527342,-85.6227796
6909,Windham Parkway,40059,38.3522756,-85.6232840
6910,Windham Parkway,40059,38.3529805,-85.6228337
6911,Windham Parkway,40059,38.3526205,-85.6234803
6912,Windham Parkway,40059,38.3532705,-85.6230854
6914,Windham Parkway,40059,38.3534909,-85.6232457
6915,Windham Parkway,40059,38.3533325,-85.6239905
6916,Windham Parkway,40059,38.3537556,-85.6234061
6917,Windham Parkway,40059,38.3536126,-85.6242195
6918,Windham Parkway,40059,38.3540310,-85.6234863
6920,Windham Parkway,40059,38.3543104,-85.6233923
6922,Windham Parkway,40059,38.3545468,-85.6232240
6924,Windham Parkway,40059,38.3547301,-85.6229522
6925,Windham Parkway,40059,38.3550560,-85.6236191
6926,Windham Parkway,40059,38.3548685,-85.6226392
6927,Windham Parkway,40059,38.3552249,-85.6232794
6928,Windham Parkway,40059,38.3549754,-85.6223404
6929,Windham Parkway,40059,38.3553660,-85.6229778
6930,Windham Parkway,40059,38.3551040,-85.6219900
6931,Windham Parkway,40059,38.3554597,-85.6226396
7000,Penfield Place,40059,38.3516733,-85.6164543
7000,Windham Parkway,40059,38.3552864,-85.6217316
7001,Penfield Place,40059,38.3511610,-85.6160375
7001,Windham Parkway,40059,38.3557696,-85.6220073
7002,Penfield Place,40059,38.3521489,-85.6160691
7002,Windham Parkway,40059,38.3554199,-85.6213958
7003,Penfield Place,40059,38.3515397,-85.6157184
7003,Windham Parkway,40059,38.3558801,-85.6217282
7004,Windham Parkway,40059,38.3554380,-85.6210454
7005,Penfield Place,40059,38.3518646,-85.6153829
7005,Windham Parkway,40059,38.3559913,-85.6213295
7006,Windham Parkway,40059,38.3553928,-85.6207048
7007,Penfield Place,40059,38.3523165,-85.6152352
7007,Windham Parkway,40059,38.3560485,-85.6209666
7008,Windham Parkway,40059,38.3552677,-85.6203938
7009,Penfield Place,40059,38.3527438,-85.6151113
7009,Windham Parkway,40059,38.3558331,-85.6202391
7010,Penfield Place,40059,38.3532992,-85.6156213
7010,Windham Parkway,40059,38.3550701,-85.6201248
7011,Penfield Place,40059,38.3531663,-85.6150776
7011,Windham Parkway,40059,38.3556746,-85.6199031
7012,Windham Parkway,40059,38.3548245,-85.6200104
7013,Windham Parkway,40059,38.3554634,-85.6196353
7015,Windham Parkway,40059,38.3552320,-85.6193767
7017,Windham Parkway,40059,38.3549711,-85.6192710
7019,Windham Parkway,40059,38.3546968,-85.6191606
7020,Windham Parkway,40059,38.3539136,-85.6194349
7021,Windham Parkway,40059,38.3544674,-85.6189834
7022,Windham Parkway,40059,38.3535679,-85.6191170
7023,Windham Parkway,40059,38.3542623,-85.6186156
7024,Windham Parkway,40059,38.3533218,-85.6187253
7025,Windham Parkway,40059,38.3537319,-85.6181477
7100,Windham Parkway,40059,38.3529216,-85.6185044
7101,Windham Parkway,40059,38.3531959,-85.6177561
7104,Windham Parkway,40059,38.3523548,-85.6184390
7105,Windham Parkway,40059,38.3521774,-85.6175146
7106,Windham Parkway,40059,38.3517717,-85.6180828
7107,Windham Parkway,40059,38.3518894,-85.6171585
7108,Windham Parkway,40059,38.3514519,-85.6177308
7110,Windham Parkway,40059,38.3509947,-85.6168033
7111,Mount Batten Place,40059,38.3542759,-85.6197145
7113,Windham Parkway,40059,38.3507328,-85.6159867
7115,Windham Parkway,40059,38.3501567,-85.6161492
7116,Windham Parkway,40059,38.3503330,-85.6171251
7117,Windham Parkway,40059,38.3497754,-85.6162688
7119,Windham Parkway,40059,38.3494099,-85.6164821
7202,Edmonson Place,40059,38.3563199,-85.6206950
7202,Hunters Run Drive,40059,38.3540974,-85.6177178
7203,Edmonson Place,40059,38.3561558,-85.6200773
7203,Hunters Run Drive,40059,38.3535488,-85.6173591
7204,Edmonson Place,40059,38.3565358,-85.6204640
7204,Hunters Run Drive,40059,38.3544053,-85.6177639
7205,Edmonson Place,40059,38.3563103,-85.6198018
7206,Edmonson Place,40059,38.3566941,-85.6201481
7206,Hunters Run Drive,40059,38.3546839,-85.6180528
7207,Edmonson Place,40059,38.3564166,-85.6194830
7208,Edmonson Place,40059,38.3567929,-85.6198166
7208,Hunters Run Drive,40059,38.3549608,-85.6182889
7209,Edmonson Place,40059,38.3565373,-85.6191735
7210,Edmonson Place,40059,38.3569378,-85.6195071
7210,Hunters Run Drive,40059,38.3552394,-85.6185490
7211,Edmonson Place,40059,38.3566478,-85.6188351
7212,Edmonson Place,40059,38.3570630,-85.6192016
7212,Hunters Run Drive,40059,38.3555749,-85.6188655
7213,Edmonson Place,40059,38.3567630,-85.6184226
7213,Hunters Run Drive,40059,38.3556191,-85.6179094
7214,Edmonson Place,40059,38.3572672,-85.6189239
7214,Hunters Run Drive,40059,38.3559927,-85.6188979
7215,Edmonson Place,40059,38.3570443,-85.6182611
7215,Hunters Run Drive,40059,38.3559505,-85.6175171
7216,Edmonson Place,40059,38.3573093,-85.6185341
7216,Hunters Run Drive,40059,38.3561762,-85.6183434
7217,Hunters Run Drive,40059,38.3562650,-85.6178304
7300,Blakemore Court,40059,38.3510198,-85.6238345
7300,Edgemore Place,40059,38.3498240,-85.6210421
7301,Blakemore Court,40059,38.3507731,-85.6236519
7301,Edgemore Place,40059,38.3498180,-85.6205816
7302,Blakemore Court,40059,38.3512590,-85.6237719
7302,Edgemore Place,40059,38.3500553,-85.6213061
7303,Blakemore Court,40059,38.3507838,-85.6233247
7303,Edgemore Place,40059,38.3502232,-85.6205085
7304,Blakemore Court,40059,38.3515024,-85.6239165
7304,Edgemore Place,40059,38.3502678,-85.6215022
7305,Blakemore Court,40059,38.3509579,-85.6230786
7305,Edgemore Place,40059,38.3504314,-85.6208150
7306,Blakemore Court,40059,38.3517633,-85.6238432
7306,Edgemore Place,40059,38.3505156,-85.6217062
7307,Blakemore Court,40059,38.3511226,-85.6228235
7307,Edgemore Place,40059,38.3506278,-85.6211082
7308,Blakemore Court,40059,38.3519500,-85.6235391
7308,Edgemore Place,40059,38.3507734,-85.6218600
7309,Blakemore Court,40059,38.3512907,-85.6225672
7309,Edgemore Place,40059,38.3508907,-85.6212254
7310,Edgemore Place,40059,38.3510760,-85.6218752
7311,Blakemore Court,40059,38.3515483,-85.6223040
7400,Haddington Court,40059,38.3509211,-85.6192459
7400,Wilcotte Court,40059,38.3524522,-85.6241806
7401,Haddington Court,40059,38.3503001,-85.6189797
7401,Wilcotte Court,40059,38.3523703,-85.6237675
7402,Haddington Court,40059,38.3510541,-85.6186842
7402,Wilcotte Court,40059,38.3527644,-85.6242491
7402,Wycliffe Drive,40059,38.3520329,-85.6262959
7403,Haddington Court,40059,38.3504186,-85.6184334
7403,Wycliffe Drive,40059,38.3526136,-85.6262524
7404,Haddington Court,40059,38.3507797,-85.6181619
7404,Wilcotte Court,40059,38.3531284,-85.6237981
7404,Wycliffe Drive,40059,38.3521842,-85.6265883
7405,Wycliffe Drive,40059,38.3527585,-85.6265668
7412,Wycliffe Drive,40059,38.3534154,-85.6274308
7413,Wycliffe Drive,40059,38.3536897,-85.6267710
7414,Wycliffe Drive,40059,38.3539013,-85.6274869
7416,Wycliffe Drive,40059,38.3542185,-85.6274732
7417,Wycliffe Drive,40059,38.3541025,-85.6267737
7418,Wycliffe Drive,40059,38.3545091,-85.6274001
7420,Wycliffe Drive,40059,38.3548012,-85.6272945
7421,Wycliffe Drive,40059,38.3544880,-85.6265930
7422,Wycliffe Drive,40059,38.3550734,-85.6270849
7500,Wycliffe Court,40059,38.3531371,-85.6267046
7502,Wycliffe Court,40059,38.3531502,-85.6262853
7503,Wycliffe Court,40059,38.3535652,-85.6261944
7600,Endecott Place,40059,38.3564036,-85.6270660
7601,Endecott Place,40059,38.3557724,-85.6272986
7602,Endecott Place,40059,38.3554893,-85.6265564
7603,Endecott Place,40059,38.3554157,-85.6272748
7604,Endecott Place,40059,38.3552305,-85.6263957
7606,Endecott Place,40059,38.3550273,-85.6261973
7608,Endecott Place,40059,38.3547616,-85.6260273
7609,Endecott Place,40059,38.3541196,-85.6261845
7610,Endecott Place,40059,38.3545177,-85.6258360
7612,Endecott Place,40059,38.3543737,-85.6255729
7613,Endecott Place,40059,38.3539707,-85.6258686
7616,Rose Island Road,40059,38.3616961,-85.6239418
7720,Rose Island Road,40059,38.3658278,-85.6288524
7800,Sutherland Farm Road,40059,38.3591318,-85.6265071
7818,Rose Island Road,40059,38.3641464,-85.6252225
7820,Sutherland Farm Road,40059,38.3580612,-85.6264245
7900,Innisbrook Court,40059,38.3583570,-85.6217489
7900,Sutherland Farm Road,40059,38.3578506,-85.6189150
7901,Innisbrook Court,40059,38.3580077,-85.6211572
7901,Sutherland Farm Road,40059,38.3582478,-85.6193786
7902,Bent Pine Court,40059,38.3591814,-85.6223755
7902,Innisbrook Court,40059,38.3585210,-85.6213604
7903,Bent Pine Court,40059,38.3587648,-85.6218322
7903,Innisbrook Court,40059,38.3581660,-85.6209071
7903,Sutherland Farm Road,40059,38.3581441,-85.6197280
7904,Bent Pine Court,40059,38.3594162,-85.6220973
7904,Innisbrook Court,40059,38.3587774,-85.6211733
7904,Sutherland Farm Road,40059,38.3577885,-85.6192932
7905,Innisbrook Court,40059,38.3583020,-85.6205552
7905,Sutherland Farm Road,40059,38.3580110,-85.6200791
7906,Bent Pine Court,40059,38.3591372,-85.6215956
7906,Innisbrook Court,40059,38.3588563,-85.6207622
7906,Sutherland Farm Road,40059,38.3576336,-85.6196090
7907,Innisbrook Court,40059,38.3586223,-85.6204780
7907,Sutherland Farm Road,40059,38.3578590,-85.6203450
7908,Sutherland Farm Road,40059,38.3575048,-85.6199008
7910,Sutherland Farm Road,40059,38.3573411,-85.6201989
7912,Sutherland Farm Road,40059,38.3572138,-85.6205029
8000,Allielough Court,40059,38.3596310,-85.6250316
8000,Rose Island Road,40059,38.3695662,-85.6244118
8000,Sutherland Farm Road,40059,38.3570489,-85.6208072
8000,Three Springs Court,40059,38.3597422,-85.6233299
8001,Allielough Court,40059,38.3594449,-85.6246090
8002,Rose Island Road,40059,38.3677754,-85.6249084
8003,Three Springs Court,40059,38.3594850,-85.6227807
8004,Rose Island Road,40059,38.3674917,-85.6250122
8004,Three Springs Court,40059,38.3599973,-85.6231214
8005,Three Springs Court,40059,38.3597192,-85.6225217
8006,Rose Island Road,40059,38.3683515,-85.6245608
8008,Rose Island Road,40059,38.3701444,-85.6243793
8010,Rose Island Road,40059,38.3689629,-85.6245086
8016,Rose Island Road,40059,38.3680154,-85.6178105
9601,U S Highway 42,40059,38.3457945,-85.6169092
9603,U S Highway 42,40059,38.3463090,-85.6169134
9605,U S Highway 42,40059,38.3468229,-85.6167236
9607,U S Highway 42,40059,38.3474115,-85.6166770
9609,U S Highway 42,40059,38.3479459,-85.6163544
9611,U S Highway 42,40059,38.3483971,-85.6162475
9701,U S Highway 42,40059,38.3494678,-85.6156275
9703,U S Highway 42,40059,38.3501142,-85.6152844
9705,U S Highway 42,40059,38.3507214,-85.6151928
9707,U S Highway 42,40059,38.3513045,-85.6149790
9709,U S Highway 42,40059,38.3517437,-85.6145969
9711,U S Highway 42,40059,38.3523054,-85.6143421
4900,Olde Creek Way,40059,38.3217392,-85.6126252
4903,Olde Creek Way,40059,38.3222705,-85.6123104
4905,Olde Creek Way,40059,38.3224349,-85.6125209
4907,Olde Creek Way,40059,38.3226589,-85.6127853
4910,Olde Creek Way,40059,38.3224412,-85.6137596
4911,Olde Creek Way,40059,38.3231828,-85.6136797
4913,Olde Creek Way,40059,38.3233099,-85.6139946
4915,Olde Creek Way,40059,38.3234789,-85.6143386
5000,Olde Creek Way,40059,38.3231075,-85.6149114
5001,Olde Creek Way,40059,38.3237120,-85.6150531
5003,Olde Creek Way,40059,38.3238816,-85.6155342
5005,Olde Creek Way,40059,38.3242207,-85.6160972
5008,Olde Creek Way,40059,38.3235381,-85.6159286
5010,Olde Creek Way,40059,38.3237015,-85.6162068
5100,Forest Grove Place,40059,38.3248026,-85.6188906
5100,Olde Creek Way,40059,38.3243071,-85.6169005
5101,Olde Creek Way,40059,38.3244428,-85.6163326
5102,Forest Grove Place,40059,38.3247247,-85.6192769
5103,Olde Creek Way,40059,38.3246661,-85.6164878
5104,Forest Grove Place,40059,38.3247593,-85.6195799
5105,Olde Creek Way,40059,38.3249030,-85.6165644
5106,Forest Grove Place,40059,38.3248789,-85.6199779
5106,Olde Creek Way,40059,38.3252844,-85.6172126
5107,Olde Creek Way,40059,38.3251651,-85.6166031
5108,Forest Grove Court,40059,38.3246981,-85.6202899
5108,Olde Creek Way,40059,38.3255883,-85.6171743
5109,Forest Grove Place,40059,38.3252812,-85.6197060
5109,Olde Creek Way,40059,38.3254096,-85.6165879
5110,Forest Grove Court,40059,38.3247522,-85.6206620
5111,Forest Grove Place,40059,38.3254819,-85.6199262
5111,Olde Creek Way,40059,38.3256503,-85.6165223
5112,Forest Grove Court,40059,38.3250206,-85.6207945
5113,Forest Grove Place,40059,38.3257162,-85.6200684
5113,Olde Creek Way,40059,38.3259009,-85.6164746
5114,Forest Grove Place,40059,38.3252985,-85.6204139
5115,Forest Grove Place,40059,38.3259513,-85.6201648
5116,Forest Grove Place,40059,38.3255959,-85.6206397
5117,Forest Grove Place,40059,38.3261895,-85.6201764
5118,Forest Grove Place,40059,38.3258416,-85.6206936
5119,Forest Grove Place,40059,38.3264999,-85.6202537
5120,Forest Grove Place,40059,38.3260714,-85.6208768
5121,Forest Grove Place,40059,38.3265046,-85.6206543
5122,Forest Grove Place,40059,38.3263597,-85.6209552
5201,Olde Creek Way,40059,38.3261242,-85.6164185
5203,Olde Creek Way,40059,38.3263789,-85.6162753
5204,Cherry Valley Road,40059,38.3231451,-85.6124759
5205,Olde Creek Way,40059,38.3266876,-85.6161989
5206,Olde Creek Way,40059,38.3269833,-85.6168747
5207,Olde Creek Way,40059,38.3269502,-85.6161408
5301,Olde Creek Way,40059,38.3272193,-85.6160473
5302,Olde Creek Way,40059,38.3279789,-85.6167196
5303,Olde Creek Way,40059,38.3274556,-85.6160508
5304,Olde Creek Way,40059,38.3282763,-85.6165929
5305,Olde Creek Way,40059,38.3278064,-85.6159564
5306,Olde Creek Way,40059,38.3283859,-85.6161934
5308,Olde Creek Way,40059,38.3283292,-85.6156907
6900,Bridgepointe Boulevard,40059,38.3270114,-85.6201727
6902,Bridgepointe Boulevard,40059,38.3267359,-85.6198870
6903,Bridgepointe Boulevard,40059,38.3270681,-85.6193842
6904,Bridgepointe Boulevard,40059,38.3265075,-85.6197080
6905,Bridgepointe Boulevard,40059,38.3268402,-85.6192140
6906,Bridgepointe Boulevard,40059,38.3262531,-85.6196137
6907,Bridgepointe Boulevard,40059,38.3265646,-85.6190459
6908,Bridgepointe Boulevard,40059,38.3260245,-85.6195149
6909,Bridgepointe Boulevard,40059,38.3263214,-85.6189762
6910,Bridgepointe Boulevard,40059,38.3257877,-85.6194357
6911,Bridgepointe Boulevard,40059,38.3260894,-85.6188844
6912,Bridgepointe Boulevard,40059,38.3255491,-85.6193478
6913,Bridgepointe Boulevard,40059,38.3258446,-85.6188150
6914,Bridgepointe Boulevard,40059,38.3252654,-85.6193072
6915,Bridgepointe Boulevard,40059,38.3256093,-85.6187178
7000,New Bern Court,40059,38.3236155,-85.6182979
7001,Breakwater Place,40059,38.3285169,-85.6207357
7001,Bridgepointe Boulevard,40059,38.3253814,-85.6185251
7001,New Bern Court,40059,38.3239457,-85.6184118
7002,Bridgepointe Boulevard,40059,38.3247497,-85.6185021
7002,New Bern Court,40059,38.3235870,-85.6179298
7003,Breakwater Place,40059,38.3283264,-85.6203428
7003,Bridgepointe Boulevard,40059,38.3252270,-85.6182593
7003,New Bern Court,40059,38.3241685,-85.6182053
7004,Bridgepointe Boulevard,40059,38.3247071,-85.6181975
7004,New Bern Court,40059,38.3236162,-85.6176209
7005,Breakwater Place,40059,38.3281836,-85.6199655
7005,Bridgepointe Boulevard,40059,38.3251781,-85.6179202
7005,New Bern Court,40059,38.3241651,-85.6178710
7006,Breakwater Place,40059,38.3275749,-85.6195926
7006,Bridgepointe Boulevard,40059,38.3246856,-85.6178594
7006,New Bern Court,40059,38.3236294,-85.6172917
7007,Breakwater Place,40059,38.3279893,-85.6194697
7007,Bridgepointe Boulevard,40059,38.3252028,-85.6176033
7007,New Bern Court,40059,38.3240669,-85.6175535
7008,Breakwater Place,40059,38.3274516,-85.6190969
7008,Bridgepointe Boulevard,40059,38.3247182,-85.6175517
7008,New Bern Court,40059,38.3237070,-85.6169515
7009,Breakwater Place,40059,38.3279062,-85.6191003
7009,New Bern Court,40059,38.3241050,-85.6172491
7010,Breakwater Place,40059,38.3273550,-85.6186679
7010,Bridgepointe Boulevard,40059,38.3247067,-85.6171715
7010,New Bern Court,40059,38.3238304,-85.6165376
7011,Breakwater Place,40059,38.3278311,-85.6186565
7012,Breakwater Place,40059,38.3273044,-85.6182240
7013,Breakwater Place,40059,38.3277636,-85.6181742
7014,Breakwater Place,40059,38.3272439,-85.6177795
7015,Breakwater Place,40059,38.3277108,-85.6176523
7016,Breakwater Place,40059,38.3271451,-85.6173597
7017,Breakwater Place,40059,38.3276268,-85.6171783
7019,Breakwater Place,40059,38.3275275,-85.6167098
7100,Cove Pointe Place,40059,38.3262860,-85.6183746
7100,Olde Oak Court,40059,38.3228335,-85.6163157
7101,Cove Pointe Place,40059,38.3265457,-85.6184576
7101,Olde Oak Court,40059,38.3230517,-85.6165706
7102,Cove Pointe Place,40059,38.3260281,-85.6182748
7102,Olde Oak Court,40059,38.3228369,-85.6160115
7103,Cove Pointe Place,40059,38.3267492,-85.6182723
7103,Olde Oak Court,40059,38.3233231,-85.6165126
7104,Cove Pointe Place,40059,38.3257177,-85.6181071
7104,Olde Oak Court,40059,38.3230279,-85.6157424
7105,Cove Pointe Place,40059,38.3267485,-85.6179289
7106,Cove Pointe Place,40059,38.3257601,-85.6177002
7106,Olde Oak Court,40059,38.3232156,-85.6153998
7107,Cove Pointe Place,40059,38.3265481,-85.6176253
7108,Cove Pointe Place,40059,38.3260091,-85.6175434
7109,Cove Pointe Place,40059,38.3264709,-85.6173264
7110,Cove Pointe Place,40059,38.3259773,-85.6171234
7111,Cove Pointe Place,40059,38.3264570,-85.6169520
7200,Wyndefair Court,40059,38.3221733,-85.6151231
7201,Wyndefair Court,40059,38.3223911,-85.6153490
7202,Leafland Place,40059,38.3242115,-85.6154034
7202,Wyndefair Court,40059,38.3221731,-85.6148122
7203,Leafland Place,40059,38.3245269,-85.6158658
7203,Wyndefair Court,40059,38.3226479,-85.6152714
7204,Leafland Place,40059,38.3244502,-85.6153058
7204,Wyndefair Court,40059,38.3223892,-85.6146288
7205,Leafland Place,40059,38.3247804,-85.6158272
7205,Wyndefair Court,40059,38.3228383,-85.6150276
7206,Leafland Place,40059,38.3247092,-85.6153053
7206,Wyndefair Court,40059,38.3226447,-85.6145348
7207,Leafland Place,40059,38.3250338,-85.6158322
7208,Leafland Place,40059,38.3249565,-85.6152495
7208,Wyndefair Court,40059,38.3228899,-85.6143825
7209,Leafland Place,40059,38.3252750,-85.6159067
7210,Leafland Place,40059,38.3251673,-85.6150949
7211,Leafland Place,40059,38.3255176,-85.6158279
7212,Leafland Place,40059,38.3254644,-85.6151126
7213,Leafland Place,40059,38.3255978,-85.6154382
7302,Grand Isle Way,40059,38.3237276,-85.6142831
7303,Grand Isle Way,40059,38.3239996,-85.6147770
7304,Grand Isle Way,40059,38.3239796,-85.6141379
7305,Grand Isle Way,40059,38.3242748,-85.6146757
7306,Grand Isle Way,40059,38.3242230,-85.6140899
7307,Grand Isle Way,40059,38.3245621,-85.6146750
7308,Grand Isle Way,40059,38.3244630,-85.6140624
7309,Grand Isle Way,40059,38.3248294,-85.6146533
7310,Grand Isle Way,40059,38.3247840,-85.6139354
7311,Grand Isle Way,40059,38.3250474,-85.6144144
8507,Harrods Bridge Way,40059,38.3313604,-85.6218090
1,Riding Ridge Road,40059,38.3489407,-85.6013815
1,Scenic HL,40059,38.3516403,-85.6060557
10,Riding Ridge Road,40059,38.3478633,-85.6015138
10320,U S Highway 42,40059,38.3524982,-85.6115585
11,Riding Ridge Road,40059,38.3476405,-85.6015607
12,Riding Ridge Road,40059,38.3475284,-85.6016778
13,Autumn HL,40059,38.3466616,-85.5971876
13,Riding Ridge Road,40059,38.3474400,-85.6016849
14,Autumn HL,40059,38.3468945,-85.5968158
14,Riding Ridge Road,40059,38.3473555,-85.6017246
15,Riding Ridge Road,40059,38.3472741,-85.6017584
16,Autumn HL,40059,38.3471378,-85.5967849
16,Riding Ridge Road,40059,38.3471472,-85.6017514
17,Autumn HL,40059,38.3473398,-85.5967542
17,Riding Ridge Road,40059,38.3469358,-85.6018881
18,Autumn HL,40059,38.3478768,-85.5967090
18,Riding Ridge Road,40059,38.3468759,-85.6020577
19,Riding Ridge Road,40059,38.3468056,-85.6021281
2,Riding Ridge Road,40059,38.3488198,-85.6014071
2,Scenic HL,40059,38.3513876,-85.6075104
20,Autumn HL,40059,38.3475892,-85.5973697
20,Riding Ridge Road,40059,38.3466942,-85.6022157
21,Autumn HL,40059,38.3473910,-85.5975413
21,Riding Ridge Road,40059,38.3465470,-85.6024177
22,Autumn HL,40059,38.3472095,-85.5976907
22,Riding Ridge Road,40059,38.3464194,-85.6026164
23,Autumn HL,40059,38.3469503,-85.5978648
24,Autumn HL,40059,38.3468208,-85.5980242
25,Autumn HL,40059,38.3466190,-85.5982499
26,Autumn HL,40059,38.3464428,-85.5984257
27,Autumn HL,40059,38.3462665,-85.5977319
28,Autumn HL,40059,38.3461719,-85.5973659
29,Autumn HL,40059,38.3460446,-85.5971502
3,Riding Ridge Road,40059,38.3487296,-85.6014084
3,Scenic HL,40059,38.3517846,-85.6070451
30,Autumn HL,40059,38.3458522,-85.5969792
31,Autumn HL,40059,38.3456259,-85.5968826
32,Autumn HL,40059,38.3454035,-85.5968869
33,Autumn HL,40059,38.3451817,-85.5968769
34,Autumn HL,40059,38.3449531,-85.5968747
4,Autumn HL,40059,38.3453944,-85.5963425
4,Riding Ridge Road,40059,38.3486417,-85.6014106
4,Scenic Hill Court,40059,38.3521730,-85.6067541
5,Autumn HL,40059,38.3456232,-85.5963251
5,Riding Ridge Road,40059,38.3483813,-85.6014225
5,Scenic HL,40059,38.3524829,-85.6060618
6,Riding Ridge Road,40059,38.3482662,-85.6015431
6,Scenic HL,40059,38.3523028,-85.6053347
6405,Gunpowder Lane,40059,38.3404419,-85.6089811
6407,Gunpowder Lane,40059,38.3409432,-85.6088927
6409,Gunpowder Lane,40059,38.3414281,-85.6092229
6501,Gunpowder Lane,40059,38.3415253,-85.6095887
6503,Gunpowder Lane,40059,38.3418729,-85.6094781
6505,Gunpowder Lane,40059,38.3422252,-85.6092707
6507,Gunpowder Lane,40059,38.3426425,-85.6093547
6509,Gunpowder Lane,40059,38.3429104,-85.6095274
6511,Gunpowder Lane,40059,38.3432001,-85.6098053
6513,Gunpowder Lane,40059,38.3433842,-85.6103078
6515,Gunpowder Lane,40059,38.3439673,-85.6110191
6517,Gunpowder Lane,40059,38.3433375,-85.6108923
6519,Gunpowder Lane,40059,38.3436097,-85.6116343
6521,Gunpowder Lane,40059,38.3430718,-85.6115811
6601,Gunpowder Lane,40059,38.3429163,-85.6120071
6603,Gunpowder Lane,40059,38.3427873,-85.6123346
6605,Gunpowder Lane,40059,38.3426367,-85.6126541
6699,Tallwood Court,40059,38.3426439,-85.6062782
6700,John Hancock Place,40059,38.3447484,-85.5985460
6700,Tallwood Court,40059,38.3426321,-85.6069674
6701,Gunpowder Lane,40059,38.3424437,-85.6129221
6701,John Hancock Place,40059,38.3446720,-85.5980451
6701,Tallwood Court,40059,38.3429562,-85.6064927
6702,John Hancock Place,40059,38.3448746,-85.5984384
6702,Tallwood Court,40059,38.3429333,-85.6072783
6703,Gunpowder Lane,40059,38.3422788,-85.6131135
6703,John Hancock Place,40059,38.3448055,-85.5980052
6703,Tallwood Court,40059,38.3432142,-85.6067630
6704,Foxcroft Road,40059,38.3429213,-85.6047890
6704,John Hancock Place,40059,38.3451043,-85.5983920
6704,Tallwood Court,40059,38.3431714,-85.6076054
6705,Gunpowder Lane,40059,38.3421294,-85.6134163
6705,John Hancock Place,40059,38.3449588,-85.5979316
6705,Tallwood Court,40059,38.3434599,-85.6071701
6706,Foxcroft Road,40059,38.3430747,-85.6050771
6706,John Hancock Place,40059,38.3452690,-85.5983637
6706,Tallwood Court,40059,38.3434199,-85.6079230
6707,Gunpowder Lane,40059,38.3420245,-85.6137569
6707,John Hancock Place,40059,38.3452688,-85.5979040
6707,Tallwood Court,40059,38.3438043,-85.6075089
6708,Foxcroft Road,40059,38.3431546,-85.6054600
6708,Tallwood Court,40059,38.3436992,-85.6082481
6709,Gunpowder Lane,40059,38.3419996,-85.6141431
6709,John Hancock Place,40059,38.3453561,-85.5980622
6710,Foxcroft Road,40059,38.3433348,-85.6057729
6710,Tallwood Court,40059,38.3439934,-85.6081259
6711,Gunpowder Lane,40059,38.3418619,-85.6144953
6711,Tallwood Court,40059,38.3441146,-85.6077701
6712,Foxcroft Road,40059,38.3435911,-85.6059937
6712,John Hancock Place,40059,38.3455673,-85.5987911
6713,Gunpowder Lane,40059,38.3417211,-85.6147672
6714,Foxcroft Road,40059,38.3438866,-85.6060847
6714,John Hancock Place,40059,38.3456800,-85.5986681
6715,Gunpowder Lane,40059,38.3415398,-85.6149785
6716,Foxcroft Road,40059,38.3441987,-85.6062043
6800,Fairway View Court,40059,38.3467594,-85.5955035
6800,Foxcroft Road,40059,38.3444805,-85.6062704
6800,Shadwell Place,40059,38.3459521,-85.6075303
6801,Fairway View Court,40059,38.3470598,-85.5947867
6801,Gunpowder Lane,40059,38.3413050,-85.6151694
6801,Shadwell Place,40059,38.3456963,-85.6071495
6802,Fairway View Court,40059,38.3470855,-85.5958601
6802,Foxcroft Road,40059,38.3449438,-85.6060344
6803,Gunpowder Lane,40059,38.3410712,-85.6152335
6803,Shadwell Place,40059,38.3459712,-85.6068450
6804,Fairway View Court,40059,38.3475128,-85.5958171
6804,Foxcroft Road,40059,38.3453827,-85.6057555
6805,Fairway View Court,40059,38.3477444,-85.5948957
6805,Gunpowder Lane,40059,38.3408191,-85.6152620
6806,Fairway View Court,40059,38.3478894,-85.5956273
6806,Foxcroft Road,40059,38.3456378,-85.6054367
6808,Fairway View Court,40059,38.3482162,-85.5954848
6808,Foxcroft Road,40059,38.3459354,-85.6050734
6809,Fairway View Court,40059,38.3481229,-85.5945558
6810,Fairway View Court,40059,38.3485275,-85.5951847
6810,Foxcroft Road,40059,38.3462838,-85.6051523
6812,Fairway View Court,40059,38.3487873,-85.5948125
6813,Fairway View Court,40059,38.3485067,-85.5940857
6814,Fairway View Court,40059,38.3491317,-85.5944833
6816,Fairway View Court,40059,38.3493604,-85.5941777
6817,Fairway View Court,40059,38.3489805,-85.5933629
6818,Fairway View Court,40059,38.3496633,-85.5935741
6900,Crossbow Place,40059,38.3469054,-85.6075242
6900,Foxcroft Road,40059,38.3469642,-85.6059940
6900,Wythe Hill Circle,40059,38.3509835,-85.6120733
6901,Wythe Hill Circle,40059,38.3504309,-85.6119976
6902,Crossbow Place,40059,38.3476244,-85.6073938
6902,Foxcroft Road,40059,38.3474512,-85.6060386
6902,Narrow Creek Court,40059,38.3467287,-85.6094150
6902,Wythe Hill Circle,40059,38.3507900,-85.6123843
6903,Crossbow Place,40059,38.3474530,-85.6067977
6903,Narrow Creek Court,40059,38.3469944,-85.6088122
6903,Wythe Hill Circle,40059,38.3502772,-85.6122616
6904,Narrow Creek Court,40059,38.3470652,-85.6093712
6904,Wythe Hill Circle,40059,38.3505390,-85.6126940
6905,Narrow Creek Court,40059,38.3475553,-85.6082395
6905,Wythe Hill Circle,40059,38.3499801,-85.6124874
6906,Narrow Creek Court,40059,38.3476597,-85.6092435
6906,Wythe Hill Circle,40059,38.3502775,-85.6129317
6907,Narrow Creek Court,40059,38.3481552,-85.6082731
6907,Wythe Hill Circle,40059,38.3497555,-85.6126142
6908,Narrow Creek Court,40059,38.3479042,-85.6095554
6908,Wythe Hill Circle,40059,38.3500025,-85.6131124
6909,Narrow Creek Court,40059,38.3488540,-85.6087027
6910,Narrow Creek Court,40059,38.3481878,-85.6093284
6910,Wythe Hill Circle,40059,38.3497858,-85.6132731
6911,Wythe Hill Circle,40059,38.3494770,-85.6127932
6912,Wythe Hill Circle,40059,38.3495223,-85.6133827
6914,Wythe Hill Circle,40059,38.3491700,-85.6135435
6915,Wythe Hill Circle,40059,38.3491279,-85.6128525
6916,Wythe Hill Circle,40059,38.3488560,-85.6135902
6918,Wythe Hill Circle,40059,38.3485550,-85.6132774
6919,Wythe Hill Circle,40059,38.3491810,-85.6125181
6920,Wythe Hill Circle,40059,38.3485438,-85.6127953
6922,Wythe Hill Circle,40059,38.3485805,-85.6123453
6923,Wythe Hill Circle,40059,38.3490522,-85.6120589
6924,Wythe Hill Circle,40059,38.3485603,-85.6120447
6925,Wythe Hill Circle,40059,38.3489769,-85.6116897
6926,Wythe Hill Circle,40059,38.3485443,-85.6115501
6928,Wythe Hill Circle,40059,38.3487112,-85.6111565
6930,Wythe Hill Circle,40059,38.3489190,-85.6109886
6932,Wythe Hill Circle,40059,38.3492099,-85.6107837
6934,Wythe Hill Circle,40059,38.3494798,-85.6106214
6936,Wythe Hill Circle,40059,38.3497529,-85.6104860
6937,Wythe Hill Circle,40059,38.3499623,-85.6110437
6938,Wythe Hill Circle,40059,38.3501160,-85.6104525
6939,Wythe Hill Circle,40059,38.3501884,-85.6113142
6940,Wythe Hill Circle,40059,38.3503770,-85.6106557
6941,Wythe Hill Circle,40059,38.3503259,-85.6116289
6942,Wythe Hill Circle,40059,38.3505593,-85.6109781
6944,Wythe Hill Circle,40059,38.3507266,-85.6112912
6946,Wythe Hill Circle,40059,38.3510385,-85.6113921
7,Autumn HL,40059,38.3460355,-85.5964820
7,Riding Ridge Road,40059,38.3481724,-85.6015481
7,Scenic HL,40059,38.3517143,-85.6047756
7001,Foxcroft Place,40059,38.3484532,-85.6054782
7003,Foxcroft Place,40059,38.3485811,-85.6058502
7004,Foxcroft Place,40059,38.3487769,-85.6066395
7005,Fox Harbor Road,40059,38.3404642,-85.6157452
7005,Foxcroft Place,40059,38.3488093,-85.6060200
7006,Foxcroft Place,40059,38.3490722,-85.6067294
7007,Fox Harbor Road,40059,38.3405185,-85.6153574
7007,Foxcroft Place,40059,38.3491427,-85.6062005
7008,Foxcroft Place,40059,38.3494347,-85.6068955
7009,Foxcroft Place,40059,38.3495680,-85.6062474
7010,Foxcroft Place,40059,38.3496602,-85.6066130
7100,Wythe Hill Place,40059,38.3497737,-85.6120143
7101,Covered Cove Way,40059,38.3522335,-85.6011082
7101,Hunting Creek Drive,40059,38.3518449,-85.6117026
7101,Wythe Hill Place,40059,38.3499173,-85.6116209
7102,Covered Cove Way,40059,38.3494063,-85.6011829
7102,Wythe Hill Place,40059,38.3494574,-85.6119838
7103,Covered Cove Way,40059,38.3525839,-85.6016228
7103,Hunting Creek Drive,40059,38.3515962,-85.6110903
7103,Wythe Hill Place,40059,38.3496909,-85.6112108
7104,Covered Cove Way,40059,38.3512139,-85.6026090
7104,Hunting Creek Drive,40059,38.3509754,-85.6107976
7104,Wythe Hill Place,40059,38.3492479,-85.6114494
7105,Covered Cove Way,40059,38.3539991,-85.6028701
7105,Hunting Creek Drive,40059,38.3514734,-85.6104232
7106,Covered Cove Way,40059,38.3530257,-85.6040956
7107,Covered Cove Way,40059,38.3545228,-85.6032788
7109,Hunting Creek Drive,40059,38.3509754,-85.6032641
7112,Covered Bridge Road,40059,38.3536034,-85.6109374
7200,Covered Bridge Road,40059,38.3527649,-85.6096706
7206,Covered Bridge Road,40059,38.3534820,-85.6086825
7208,Covered Bridge Road,40059,38.3534653,-85.6083028
7300,Happy Hollow Road,40059,38.3449062,-85.6123762
7300,Hunting Creek Drive,40059,38.3503015,-85.6077949
7300,Shadwell Lane,40059,38.3467064,-85.6108871
7301,Shadwell Lane,40059,38.3470298,-85.6103006
7302,Hunting Creek Drive,40059,38.3504246,-85.6073479
7302,Shadwell Lane,40059,38.3463121,-85.6106217
7303,Shadwell Lane,40059,38.3464415,-85.6099890
7304,Hunting Creek Drive,40059,38.3504976,-85.6067943
7304,Shadwell Lane,40059,38.3460026,-85.6103051
7305,Shadwell Lane,40059,38.3462381,-85.6096988
7306,Hunting Creek Drive,40059,38.3504188,-85.6064240
7306,Shadwell Lane,40059,38.3458045,-85.6099392
7308,Hunting Creek Drive,40059,38.3502329,-85.6060583
7308,Shadwell Lane,40059,38.3456955,-85.6095294
7309,Shadwell Lane,40059,38.3462205,-85.6091596
7310,Hunting Creek Drive,40059,38.3498321,-85.6057739
7310,Shadwell Lane,40059,38.3457689,-85.6090744
7312,Hunting Creek Drive,40059,38.3495379,-85.6054945
7312,Shadwell Lane,40059,38.3459181,-85.6086820
7314,Hunting Creek Drive,40059,38.3492057,-85.6052765
7400,Shadwell Lane,40059,38.3461918,-85.6081950
7401,Cedar Bluff Court,40059,38.3549565,-85.5948457
7401,Shadwell Lane,40059,38.3466291,-85.6084628
7402,Cedar Bluff Court,40059,38.3551005,-85.5937056
7402,Shadwell Lane,40059,38.3463667,-85.6078148
7403,Cedar Bluff Court,40059,38.3555166,-85.5946536
7403,Pine Knoll Circle,40059,38.3535458,-85.5928785
7403,Shadwell Lane,40059,38.3467360,-85.6081395
7404,Cedar Bluff Court,40059,38.3554938,-85.5938734
7404,Shadwell Lane,40059,38.3464036,-85.6073291
7405,Cedar Bluff Court,40059,38.3558740,-85.5949716
7405,Pine Knoll Circle,40059,38.3537824,-85.5922998
7407,Cedar Bluff Court,40059,38.3562586,-85.5953727
7407,Pine Knoll Circle,40059,38.3539897,-85.5917122
7407,Shadwell Lane,40059,38.3468778,-85.6069332
7408,Shadwell Lane,40059,38.3463658,-85.6065363
7409,Pine Knoll Circle,40059,38.3539435,-85.5909537
7409,Pine Knoll Circle,40059,38.3539466,-85.5909401
7409,Shadwell Lane,40059,38.3468668,-85.6064802
7410,Shadwell Lane,40059,38.3463591,-85.6060382
7412,Shadwell Lane,40059,38.3465702,-85.6055509
7500,Chestnut Hill Drive,40059,38.3505089,-85.5994798
7501,Chestnut Hill Drive,40059,38.3510271,-85.5995384
7501,Hunting Creek Drive,40059,38.3489457,-85.6035999
7502,Chestnut Hill Drive,40059,38.3504037,-85.5989032
7503,Chestnut Hill Drive,40059,38.3511431,-85.5989751
7504,Chestnut Hill Drive,40059,38.3505682,-85.5983204
7505,Chestnut Hill Drive,40059,38.3512473,-85.5984623
7506,Chestnut Hill Drive,40059,38.3507788,-85.5977561
7507,Chestnut Hill Drive,40059,38.3515138,-85.5979897
7507,Hunting Creek Drive,40059,38.3471991,-85.6029892
7508,Chestnut Hill Drive,40059,38.3510139,-85.5973167
7509,Chestnut Hill Drive,40059,38.3518614,-85.5975610
7509,Hunting Creek Drive,40059,38.3469259,-85.6028807
7510,Chestnut Hill Drive,40059,38.3512329,-85.5968546
7511,Chestnut Hill Drive,40059,38.3519957,-85.5970979
7512,Chestnut Hill Drive,40059,38.3514596,-85.5963809
7513,Chestnut Hill Drive,40059,38.3521190,-85.5963982
7514,Chestnut Hill Drive,40059,38.3516703,-85.5958026
7601,Tallwood Road,40059,38.3421566,-85.6071711
7609,Tallwood Road,40059,38.3424778,-85.6058218
7611,Tallwood Road,40059,38.3424483,-85.6051114
7615,Tallwood Road,40059,38.3424961,-85.6046836
7699,Happy Hollow Road,40059,38.3452870,-85.6086290
7700,Cedar Ridge Court,40059,38.3540575,-85.6016934
7701,Cedar Ridge Court,40059,38.3544485,-85.6024663
7702,Cedar Ridge Court,40059,38.3543240,-85.6012063
7703,Cedar Ridge Court,40059,38.3549089,-85.6019423
7705,Cedar Ridge Court,40059,38.3553333,-85.6016932
7706,Cedar Ridge Court,40059,38.3551308,-85.6008462
7707,Cedar Ridge Court,40059,38.3557909,-85.6017167
7708,Cedar Ridge Court,40059,38.3555381,-85.6008525
7709,Cedar Ridge Court,40059,38.3561494,-85.6013387
7710,Cedar Ridge Court,40059,38.3559144,-85.6005485
7711,Cedar Ridge Court,40059,38.3564199,-85.6009622
7713,Cedar Ridge Court,40059,38.3564980,-85.6004176
7715,Cedar Ridge Court,40059,38.3564105,-85.5998928
7800,Cedar Ridge Court,40059,38.3550964,-85.5991688
7801,Westover Drive,40059,38.3451894,-85.6009782
7802,Cedar Ridge Court,40059,38.3546379,-85.5990230
7803,Westover Drive,40059,38.3451528,-85.6008706
7804,Cedar Ridge Court,40059,38.3541115,-85.5990453
7805,Cedar Ridge Court,40059,38.3545179,-85.5980627
7805,Westover Drive,40059,38.3451276,-85.6007679
7806,Cedar Ridge Court,40059,38.3535228,-85.5996452
7807,Cedar Ridge Court,40059,38.3541350,-85.5976522
7808,Cedar Ridge Court,40059,38.3536117,-85.5987584
7810,Cedar Ridge Court,40059,38.3535015,-85.5981877
7811,Westover Drive,40059,38.3451291,-85.6003719
7812,Cedar Ridge Court,40059,38.3534984,-85.5975571
7814,Cedar Ridge Court,40059,38.3532709,-85.5970815
7901,Westover Drive,40059,38.3450496,-85.6002961
7903,Westover Drive,40059,38.3450273,-85.6001879
7905,Westover Drive,40059,38.3449962,-85.6000777
7907,Westover Drive,40059,38.3449863,-85.5999757
7909,Westover Drive,40059,38.3449681,-85.5998594
7911,Westover Drive,40059,38.3449435,-85.5997560
7913,Westover Drive,40059,38.3449106,-85.5996459
8,Riding Ridge Road,40059,38.3480862,-85.6015675
8003,Westover Drive,40059,38.3447853,-85.5990558
8005,Westover Drive,40059,38.3447611,-85.5989456
8007,Westover Drive,40059,38.3447403,-85.5988327
8035,Westover Drive,40059,38.3446716,-85.5968876
8203,Westover Drive,40059,38.3454688,-85.5956819
8205,Westover Drive,40059,38.3458309,-85.5953511
8207,Westover Drive,40059,38.3461444,-85.5948969
8305,Westover Drive,40059,38.3466885,-85.5937558
8309,Westover Drive,40059,38.3469298,-85.5934056
8313,Westover Drive,40059,38.3473124,-85.5930714
8317,Westover Drive,40059,38.3477439,-85.5929843
8321,Westover Drive,40059,38.3481991,-85.5929393
8325,Westover Drive,40059,38.3486226,-85.5930671
8401,Westover Drive,40059,38.3500348,-85.5931643
8403,Westover Drive,40059,38.3505174,-85.5930155
8407,Spruce Hill Road,40059,38.3546512,-85.5924426
8501,Spruce Hill Road,40059,38.3544491,-85.5931390
8501,Westover Drive,40059,38.3510236,-85.5926673
8503,Spruce Hill Road,40059,38.3543927,-85.5936096
8503,Westover Drive,40059,38.3515095,-85.5929187
8505,Westover Drive,40059,38.3518974,-85.5932956
8507,Westover Drive,40059,38.3522165,-85.5935813
8508,Westover Drive,40059,38.3533882,-85.5934372
8509,Westover Drive,40059,38.3526237,-85.5938247
8510,Westover Drive,40059,38.3538310,-85.5939018
8511,Westover Drive,40059,38.3529598,-85.5940901
8512,Westover Drive,40059,38.3542460,-85.5943736
8513,Westover Drive,40059,38.3535514,-85.5947313
8515,Westover Drive,40059,38.3539047,-85.5950645
8601,Westover Drive,40059,38.3542681,-85.5953516
8602,Westover Drive,40059,38.3553783,-85.5954709
8603,Westover Drive,40059,38.3546352,-85.5956649
8605,Westover Drive,40059,38.3549936,-85.5960616
8607,Westover Drive,40059,38.3552497,-85.5965051
8609,Westover Drive,40059,38.3554441,-85.5969647
8610,Westover Drive,40059,38.3556703,-85.5961985
8611,Westover Drive,40059,38.3557719,-85.5975019
8612,Westover Drive,40059,38.3559733,-85.5963273
8613,Westover Drive,40059,38.3561107,-85.5979774
8614,Westover Drive,40059,38.3568207,-85.5973107
8615,Westover Drive,40059,38.3564391,-85.5983589
8616,Westover Drive,40059,38.3571681,-85.5975996
8617,Westover Drive,40059,38.3567719,-85.5987636
8618,Westover Drive,40059,38.3575168,-85.5978738
8619,Westover Drive,40059,38.3574266,-85.5991154
8622,Westover Drive,40059,38.3578691,-85.5980914
9,Riding Ridge Road,40059,38.3479948,-85.6015688
9402,U S Highway 42,40059,38.3420500,-85.6159276
9504,U S Highway 42,40059,38.3433796,-85.6156587
9506,U S Highway 42,40059,38.3438266,-85.6151626
9610,U S Highway 42,40059,38.3446172,-85.6148585
9612,U S Highway 42,40059,38.3449983,-85.6147444
9620,U S Highway 42,40059,38.3437556,-85.6123511
9716,U S Highway 42,40059,38.3453799,-85.6143878
9718,U S Highway 42,40059,38.3459203,-85.6145318
9720,U S Highway 42,40059,38.3465501,-85.6142947
9722,U S Highway 42,40059,38.3471222,-85.6140913
9800,U S Highway 42,40059,38.3477804,-85.6139788
9810,U S Highway 42,40059,38.3473592,-85.6114199
9812,U S Highway 42,40059,38.3523937,-85.5949078
12000,Charlock Court,40059,38.3494070,-85.5860488
12001,Charlock Court,40059,38.3495219,-85.5855272
12003,Charlock Court,40059,38.3497127,-85.5850073
12004,Charlock Court,40059,38.3500457,-85.5867411
12005,Charlock Court,40059,38.3501680,-85.5856060
12006,Charlock Court,40059,38.3504621,-85.5869484
12007,Charlock Court,40059,38.3505389,-85.5860938
12008,Charlock Court,40059,38.3508320,-85.5871180
12009,Charlock Court,40059,38.3510706,-85.5863411
12010,Charlock Court,40059,38.3512883,-85.5874040
12011,Charlock Court,40059,38.3514629,-85.5866440
12012,Charlock Court,40059,38.3487525,-85.5852068
12016,Charlock Court,40059,38.3485168,-85.5878129
12018,Charlock Court,40059,38.3493807,-85.5885176
5500,Timber Ridge Drive,40059,38.3323198,-85.6129797
5505,Timber Ridge Drive,40059,38.3325121,-85.6136459
5506,Timber Ridge Drive,40059,38.3318488,-85.6137379
5507,Timber Ridge Drive,40059,38.3324004,-85.6139995
5508,Timber Ridge Drive,40059,38.3316641,-85.6140097
5510,Timber Ridge Drive,40059,38.3313847,-85.6143114
5511,Timber Ridge Drive,40059,38.3321067,-85.6143795
5518,Timber Ridge Drive,40059,38.3311024,-85.6156248
5519,Timber Ridge Drive,40059,38.3322319,-85.6161205
5601,Timber Ridge Drive,40059,38.3317795,-85.6161641
5602,Timber Ridge Drive,40059,38.3314592,-85.6169015
5603,Timber Ridge Drive,40059,38.3318412,-85.6164541
5604,Timber Ridge Drive,40059,38.3315328,-85.6171641
5605,Timber Ridge Drive,40059,38.3319344,-85.6167095
5606,Timber Ridge Drive,40059,38.3317679,-85.6173983
5607,Timber Ridge Drive,40059,38.3321041,-85.6169632
5609,Timber Ridge Drive,40059,38.3322989,-85.6171055
5611,Timber Ridge Drive,40059,38.3324649,-85.6172859
5630,Timber Creek Court,40059,38.3317585,-85.6182778
5700,Timber Ridge Drive,40059,38.3323963,-85.6179644
5701,Timber Ridge Drive,40059,38.3326830,-85.6174639
5702,Timber Ridge Drive,40059,38.3326445,-85.6181241
5703,Timber Ridge Drive,40059,38.3328934,-85.6175703
5704,Timber Ridge Drive,40059,38.3328760,-85.6181750
5705,Timber Ridge Drive,40059,38.3331255,-85.6174898
5706,Timber Ridge Drive,40059,38.3331175,-85.6182043
5708,Timber Ridge Drive,40059,38.3333588,-85.6182119
5709,Timber Ridge Drive,40059,38.3338658,-85.6173800
5710,Timber Ridge Drive,40059,38.3335912,-85.6181114
5711,Timber Ridge Drive,40059,38.3342038,-85.6173171
5712,Timber Ridge Drive,40059,38.3338421,-85.6180366
5800,Timber Ridge Drive,40059,38.3345653,-85.6179980
5801,Timber Ridge Drive,40059,38.3344483,-85.6173292
5802,Timber Ridge Drive,40059,38.3347938,-85.6181601
5803,Timber Ridge Drive,40059,38.3346969,-85.6173788
5804,Timber Ridge Drive,40059,38.3349913,-85.6183506
5805,Timber Ridge Drive,40059,38.3351739,-85.6177505
5806,Timber Ridge Drive,40059,38.3351789,-85.6185361
5807,Timber Ridge Drive,40059,38.3355087,-85.6179118
5808,Timber Ridge Drive,40059,38.3354260,-85.6186513
6000,Fox Hill Road,40059,38.3366059,-85.6137835
6000,Timber Ridge Place,40059,38.3347038,-85.6190162
6001,Timber Ridge Place,40059,38.3346574,-85.6186749
6002,Fox Hill Road,40059,38.3369260,-85.6136951
6002,Timber Ridge Place,40059,38.3344757,-85.6192346
6003,Fox Hill Road,40059,38.3367579,-85.6130292
6004,Fox Hill Road,40059,38.3371908,-85.6133875
6005,Fox Hill Road,40059,38.3370683,-85.6130318
6100,Deep Creek Drive,40059,38.3361810,-85.6107561
6100,Fox Cove Court,40059,38.3381025,-85.6118194
6100,Fox Hunt Court,40059,38.3373083,-85.6122046
6101,Deep Creek Drive,40059,38.3356085,-85.6108523
6101,Fox Cove Court,40059,38.3380650,-85.6114324
6101,Tidewater Court,40059,38.3391438,-85.6082452
6102,Fox Cove Court,40059,38.3384055,-85.6120250
6102,Fox Hunt Court,40059,38.3374534,-85.6126839
6102,Indian Springs Court,40059,38.3398481,-85.6061429
6102,Tidewater Court,40059,38.3389299,-85.6074349
6103,Fox Cove Court,40059,38.3385550,-85.6112739
6103,Fox Hunt Court,40059,38.3377314,-85.6118819
6103,Indian Springs Court,40059,38.3393404,-85.6067210
6103,Tidewater Court,40059,38.3388337,-85.6080730
6104,Deep Creek Drive,40059,38.3365126,-85.6098798
6104,Fox Cove Court,40059,38.3387312,-85.6117671
6104,Fox Hunt Court,40059,38.3376186,-85.6129798
6104,Indian Springs Court,40059,38.3394619,-85.6060313
6104,Tidewater Court,40059,38.3388765,-85.6068628
6105,Fox Cove Court,40059,38.3388646,-85.6112251
6105,Fox Hunt Court,40059,38.3378081,-85.6122860
6105,Tidewater Court,40059,38.3385818,-85.6077786
6106,Deep Creek Drive,40059,38.3366575,-85.6095308
6106,Fox Cove Court,40059,38.3389761,-85.6117928
6106,Fox Hunt Court,40059,38.3378603,-85.6132300
6106,Indian Springs Court,40059,38.3392730,-85.6063074
6106,Tidewater Court,40059,38.3387731,-85.6063922
6107,Fox Cove Court,40059,38.3392159,-85.6112825
6107,Fox Hunt Court,40059,38.3380131,-85.6126646
6107,Tidewater Court,40059,38.3384664,-85.6073237
6108,Deep Creek Drive,40059,38.3369122,-85.6091722
6108,Fox Cove Court,40059,38.3392970,-85.6118581
6108,Fox Hunt Court,40059,38.3384017,-85.6133533
6108,Tidewater Court,40059,38.3385885,-85.6060960
6109,Deep Creek Drive,40059,38.3364445,-85.6088891
6109,Fox Cove Court,40059,38.3395173,-85.6112049
6109,Fox Hunt Court,40059,38.3383709,-85.6126287
6109,Tidewater Court,40059,38.3384239,-85.6070017
6110,Deep Creek Drive,40059,38.3371131,-85.6088683
6110,Fox Cove Court,40059,38.3397279,-85.6117668
6110,Fox Hunt Court,40059,38.3387008,-85.6131893
6110,Tidewater Court,40059,38.3382564,-85.6062438
6111,Fox Hunt Court,40059,38.3386115,-85.6123918
6111,Tidewater Court,40059,38.3382233,-85.6065933
6112,Deep Creek Drive,40059,38.3372950,-85.6085202
6112,Fox Hunt Court,40059,38.3388997,-85.6129532
6113,Fox Hunt Court,40059,38.3389892,-85.6124909
6116,Deep Creek Drive,40059,38.3375199,-85.6077810
6116,Fox Valley Drive,40059,38.3394650,-85.6162409
6117,Deep Creek Drive,40059,38.3369582,-85.6080103
6117,Fox Valley Drive,40059,38.3391627,-85.6158348
6119,Deep Creek Drive,40059,38.3369935,-85.6075990
6122,Deep Creek Drive,40059,38.3374575,-85.6073162
6124,Deep Creek Drive,40059,38.3373750,-85.6069280
6125,Deep Creek Drive,40059,38.3369486,-85.6071924
6126,Deep Creek Drive,40059,38.3372956,-85.6065791
6200,Deep Creek Drive,40059,38.3373146,-85.6062495
6200,Fox Valley Drive,40059,38.3396977,-85.6160791
6201,Fox Valley Drive,40059,38.3396611,-85.6155290
6202,Deep Creek Drive,40059,38.3370099,-85.6058009
6203,Deep Creek Drive,40059,38.3366018,-85.6060829
6203,Fox Valley Drive,40059,38.3399865,-85.6154811
6204,Deep Creek Drive,40059,38.3367350,-85.6054347
6205,Deep Creek Drive,40059,38.3363696,-85.6057998
6206,Deep Creek Drive,40059,38.3366157,-85.6050469
6207,Deep Creek Drive,40059,38.3361571,-85.6054614
6208,Deep Creek Drive,40059,38.3366312,-85.6046693
6209,Deep Creek Court,40059,38.3358538,-85.6052901
6209,Deep Creek Drive,40059,38.3361280,-85.6047688
6210,Deep Creek Court,40059,38.3356189,-85.6042820
6211,Deep Creek Court,40059,38.3355515,-85.6050721
6212,Deep Cove Court,40059,38.3353875,-85.6073736
6212,Deep Creek Court,40059,38.3353439,-85.6042003
6213,Deep Cove Court,40059,38.3353782,-85.6081142
6213,Deep Creek Court,40059,38.3351773,-85.6048901
6214,Deep Cove Court,40059,38.3353662,-85.6069942
6214,Deep Creek Court,40059,38.3349267,-85.6042973
6215,Deep Cove Court,40059,38.3359111,-85.6076551
6215,Deep Creek Court,40059,38.3349381,-85.6047128
6216,Deep Cove Court,40059,38.3354169,-85.6065967
6217,Deep Cove Court,40059,38.3359631,-85.6071685
6218,Deep Cove Court,40059,38.3358540,-85.6065392
6219,Deep Cove Court,40059,38.3362556,-85.6074107
6220,Deep Cove Court,40059,38.3361293,-85.6065825
6221,Deep Cove Court,40059,38.3365685,-85.6071967
6222,Deep Cove Court,40059,38.3364147,-85.6066511
6224,Deep Cove Court,40059,38.3368015,-85.6066267
6300,Deep Creek Drive,40059,38.3366475,-85.6043599
6300,Dillard Court,40059,38.3393151,-85.6053424
6300,Hunting Harbor Road,40059,38.3392623,-85.6091765
6301,Deep Creek Drive,40059,38.3362061,-85.6040172
6301,Dillard Court,40059,38.3393088,-85.6049079
6301,Rockingham Court,40059,38.3373621,-85.6051179
6302,Deep Creek Drive,40059,38.3369382,-85.6040279
6302,Dillard Court,40059,38.3396266,-85.6054571
6302,Rockingham Court,40059,38.3376318,-85.6052924
6303,Deep Creek Drive,40059,38.3364075,-85.6037510
6303,Dillard Court,40059,38.3395886,-85.6047279
6303,Rockingham Court,40059,38.3373266,-85.6046623
6304,Deep Creek Drive,40059,38.3370989,-85.6037539
6304,Dillard Court,40059,38.3399856,-85.6053012
6304,Rockingham Court,40059,38.3378809,-85.6050862
6305,Deep Creek Drive,40059,38.3366156,-85.6034892
6305,Dillard Court,40059,38.3398867,-85.6047824
6305,Rockingham Court,40059,38.3374481,-85.6043034
6306,Deep Creek Drive,40059,38.3373808,-85.6034645
6306,Rockingham Court,40059,38.3378057,-85.6046166
6307,Deep Creek Drive,40059,38.3368093,-85.6030890
6307,Rockingham Court,40059,38.3377069,-85.6039879
6308,Deep Creek Drive,40059,38.3376742,-85.6032735
6308,Rockingham Court,40059,38.3381598,-85.6042489
6309,Deep Creek Drive,40059,38.3371415,-85.6030058
6309,Rockingham Court,40059,38.3379806,-85.6037939
6310,Deep Creek Drive,40059,38.3379245,-85.6031047
6311,Deep Creek Drive,40059,38.3373945,-85.6028281
6311,Rockingham Court,40059,38.3382413,-85.6035788
6313,Deep Creek Drive,40059,38.3375978,-85.6026835
6315,Deep Creek Drive,40059,38.3379240,-85.6024836
6317,Deep Creek Drive,40059,38.3381651,-85.6022836
6400,Coventry Court,40059,38.3399770,-85.6036177
6400,Deep Creek Drive,40059,38.3386555,-85.6025649
6400,Gunpowder Lane,40059,38.3398515,-85.6091131
6401,Deep Creek Drive,40059,38.3384099,-85.6020586
6402,Coventry Court,40059,38.3400091,-85.6031635
6402,Deep Creek Drive,40059,38.3389433,-85.6023770
6403,Coventry Court,40059,38.3394524,-85.6030306
6403,Deep Creek Drive,40059,38.3386268,-85.6018493
6404,Coventry Court,40059,38.3397563,-85.6028873
6404,Deep Creek Drive,40059,38.3391844,-85.6022439
6405,Deep Creek Drive,40059,38.3389798,-85.6017133
6406,Deep Creek Drive,40059,38.3395506,-85.6022425
6406,Gunpowder Lane,40059,38.3405935,-85.6095218
6407,Deep Creek Drive,40059,38.3392959,-85.6017003
6408,Deep Creek Drive,40059,38.3397905,-85.6022202
6408,Gunpowder Lane,40059,38.3411104,-85.6099600
6409,Deep Creek Drive,40059,38.3396080,-85.6016781
6410,Deep Creek Drive,40059,38.3401524,-85.6021114
6410,Gunpowder Lane,40059,38.3414317,-85.6102023
6411,Deep Creek Drive,40059,38.3398296,-85.6016381
6412,Deep Creek Drive,40059,38.3403996,-85.6019936
6413,Deep Creek Drive,40059,38.3401374,-85.6015129
6415,Deep Creek Drive,40059,38.3404795,-85.6013542
6500,Gunpowder Lane,40059,38.3417736,-85.6102571
6501,Deep Creek Drive,40059,38.3407883,-85.6012251
6502,Deep Creek Drive,40059,38.3411183,-85.6018793
6502,Gunpowder Lane,40059,38.3421312,-85.6100277
6503,Harrods View Circle,40059,38.3434421,-85.5942400
6504,Deep Creek Drive,40059,38.3412118,-85.6018794
6504,Gunpowder Lane,40059,38.3423794,-85.6099460
6505,Harrods View Circle,40059,38.3433218,-85.5947234
6506,Deep Creek Drive,40059,38.3413061,-85.6018906
6506,Harrods View Circle,40059,38.3428944,-85.5943513
6507,Harrods View Circle,40059,38.3428655,-85.5951354
6508,Deep Creek Drive,40059,38.3414044,-85.6019022
6508,Gunpowder Lane,40059,38.3427592,-85.6100885
6510,Harrods View Circle,40059,38.3424932,-85.5944707
6511,Harrods View Circle,40059,38.3421686,-85.5950199
6512,Gunpowder Lane,40059,38.3429546,-85.6104875
6512,Harrods View Circle,40059,38.3422027,-85.5943465
6513,Harrods View Circle,40059,38.3417668,-85.5947305
6514,Harrods View Circle,40059,38.3418571,-85.5940942
6515,Harrods View Circle,40059,38.3414478,-85.5945112
6516,Harrods View Circle,40059,38.3415715,-85.5938973
6517,Harrods View Circle,40059,38.3410961,-85.5942637
6518,Gunpowder Lane,40059,38.3428640,-85.6108376
6518,Harrods View Circle,40059,38.3413340,-85.5937726
6519,Harrods View Circle,40059,38.3407767,-85.5941438
6520,Gunpowder Lane,40059,38.3427248,-85.6112173
6520,Harrods View Circle,40059,38.3410439,-85.5936207
6521,Harrods View Circle,40059,38.3405021,-85.5938914
6522,Montero Drive,40059,38.3379408,-85.6014650
6523,Harrods View Circle,40059,38.3402782,-85.5934745
6524,Harrods View Circle,40059,38.3407720,-85.5932749
6525,Harrods View Circle,40059,38.3402661,-85.5930000
6530,Montero Drive,40059,38.3398318,-85.5997657
6600,Gunpowder Lane,40059,38.3425469,-85.6116596
6600,Harrods View Circle,40059,38.3409540,-85.5929095
6601,Harrods View Circle,40059,38.3403613,-85.5925237
6602,Foxcroft Road,40059,38.3404014,-85.6025123
6602,Gunpowder Lane,40059,38.3423978,-85.6120028
6603,Harrods View Circle,40059,38.3404229,-85.5919296
6604,Deep Creek Drive,40059,38.3420572,-85.6020025
6604,Foxcroft Road,40059,38.3403916,-85.6028548
6604,Gunpowder Lane,40059,38.3423132,-85.6122358
6605,Harrods View Circle,40059,38.3408033,-85.5919832
6606,Deep Creek Drive,40059,38.3421417,-85.6020108
6606,Foxcroft Road,40059,38.3405692,-85.6032558
6607,Harrods View Circle,40059,38.3410887,-85.5922224
6608,Deep Creek Drive,40059,38.3422225,-85.6020287
6608,Harrods View Circle,40059,38.3413491,-85.5930927
6609,Foxcroft Road,40059,38.3416258,-85.6035921
6609,Harrods View Circle,40059,38.3413788,-85.5924239
6610,Deep Creek Drive,40059,38.3423129,-85.6020333
6610,Foxcroft Road,40059,38.3417254,-85.6042297
6610,Harrods View Circle,40059,38.3415743,-85.5932370
6611,Foxcroft Road,40059,38.3419320,-85.6036624
6611,Harrods View Circle,40059,38.3416811,-85.5926460
6612,Deep Creek Drive,40059,38.3423922,-85.6020484
6612,Harrods View Circle,40059,38.3418652,-85.5934481
6613,Foxcroft Road,40059,38.3422461,-85.6037332
6613,Harrods View Circle,40059,38.3419361,-85.5928431
6614,Deep Creek Drive,40059,38.3424796,-85.6020449
6614,Harrods View Circle,40059,38.3421944,-85.5935827
6615,Foxcroft Road,40059,38.3424953,-85.6039051
6615,Harrods View Circle,40059,38.3423220,-85.5930399
6616,Deep Creek Drive,40059,38.3425944,-85.6021525
6616,Harrods View Circle,40059,38.3425209,-85.5937363
6617,Harrods View Circle,40059,38.3426419,-85.5931277
6619,Harrods View Circle,40059,38.3430284,-85.5932244
6622,Deep Creek Drive,40059,38.3429211,-85.6021056
6624,Deep Creek Drive,40059,38.3430032,-85.6021260
6626,Deep Creek Drive,40059,38.3430879,-85.6021267
6700,Deep Creek Drive,40059,38.3431717,-85.6021441
6700,Gunpowder Lane,40059,38.3421063,-85.6125067
6700,Gunston Lane,40059,38.3435663,-85.5979916
6700,Wild Fox Lane,40059,38.3434253,-85.6000319
6701,Deep Creek Drive,40059,38.3432614,-85.6015477
6701,Foxcroft Road,40059,38.3427012,-85.6040161
6701,Wild Fox Lane,40059,38.3437641,-85.5996665
6702,Deep Creek Drive,40059,38.3432599,-85.6021585
6702,Wild Fox Lane,40059,38.3435966,-85.6003191
6703,Deep Creek Drive,40059,38.3435448,-85.6015244
6703,Foxcroft Road,40059,38.3430340,-85.6041915
6703,Wild Fox Lane,40059,38.3439224,-85.5999308
6704,Deep Creek Drive,40059,38.3433506,-85.6021600
6704,Wild Fox Lane,40059,38.3436319,-85.6007732
6705,Deep Creek Drive,40059,38.3438107,-85.6016692
6705,Foxcroft Road,40059,38.3432586,-85.6043639
6705,Wild Fox Lane,40059,38.3440777,-85.6002648
6706,Deep Creek Drive,40059,38.3434639,-85.6022660
6706,Wild Fox Lane,40059,38.3437749,-85.6010352
6707,Foxcroft Road,40059,38.3435118,-85.6046982
6707,Harrods View Circle,40059,38.3433852,-85.5931966
6707,Wild Fox Lane,40059,38.3441362,-85.6005478
6708,Gunpowder Lane,40059,38.3415809,-85.6136098
6708,Harrods View Circle,40059,38.3435545,-85.5938208
6708,Wild Fox Lane,40059,38.3440789,-85.6012625
6709,Harrods View Circle,40059,38.3437485,-85.5931599
6709,Wild Fox Lane,40059,38.3443181,-85.6008698
6710,Deep Creek Drive,40059,38.3436964,-85.6023027
6710,Harrods View Circle,40059,38.3439119,-85.5938173
6711,Harrods View Circle,40059,38.3440875,-85.5931518
6712,Deep Creek Drive,40059,38.3438317,-85.6022497
6712,Gunpowder Lane,40059,38.3415368,-85.6140254
6712,Harrods View Circle,40059,38.3443136,-85.5938103
6714,Deep Creek Drive,40059,38.3439144,-85.6022838
6714,Harrods View Circle,40059,38.3448935,-85.5939360
6715,Harrods View Circle,40059,38.3444711,-85.5931738
6716,Deep Creek Drive,40059,38.3439962,-85.6023154
6717,Harrods View Circle,40059,38.3449217,-85.5932883
6718,Deep Creek Drive,40059,38.3440901,-85.6023251
6719,Harrods View Circle,40059,38.3451916,-85.5934095
6720,Deep Creek Drive,40059,38.3441715,-85.6023610
6722,Deep Creek Drive,40059,38.3442469,-85.6023828
6724,Deep Creek Drive,40059,38.3443693,-85.6024791
6728,Deep Creek Drive,40059,38.3445890,-85.6025279
6730,Deep Creek Drive,40059,38.3447173,-85.6025165
6732,Deep Creek Drive,40059,38.3448071,-85.6025470
6734,Deep Creek Drive,40059,38.3449066,-85.6025365
6804,Gunpowder Lane,40059,38.3408649,-85.6146594
6806,Gunpowder Lane,40059,38.3404977,-85.6147153
6807,Foxcroft Road,40059,38.3447455,-85.6034473
6809,Foxcroft Road,40059,38.3464417,-85.6044227
6811,Foxcroft Road,40059,38.3466129,-85.6046740
6813,Foxcroft Road,40059,38.3469527,-85.6051086
6900,Timber Bluff Court,40059,38.3306322,-85.6164119
6900,Timber Ridge Court,40059,38.3331590,-85.6189019
6901,Foxcroft Road,40059,38.3472652,-85.6053776
6901,Timber Bluff Court,40059,38.3307542,-85.6166936
6901,Timber Ridge Court,40059,38.3332009,-85.6192593
6902,Timber Bluff Court,40059,38.3306815,-85.6161004
6902,Timber Ridge Court,40059,38.3333265,-85.6185742
6903,Foxcroft Road,40059,38.3474648,-85.6050033
6903,Timber Bluff Court,40059,38.3310252,-85.6167083
6903,Timber Ridge Court,40059,38.3332715,-85.6195505
6904,Timber Bluff Court,40059,38.3308757,-85.6160000
6904,Timber Ridge Court,40059,38.3336077,-85.6185610
6905,Timber Bluff Court,40059,38.3312808,-85.6165287
6905,Timber Ridge Court,40059,38.3334216,-85.6197793
6906,Timber Bluff Court,40059,38.3312109,-85.6160198
6906,Timber Ridge Court,40059,38.3337624,-85.6189349
6908,Timber Ridge Court,40059,38.3339342,-85.6186689
6909,Timber Ridge Court,40059,38.3337265,-85.6196254
6910,Timber Ridge Court,40059,38.3339787,-85.6184039
6911,Timber Ridge Court,40059,38.3339742,-85.6194694
6912,Timber Ridge Court,40059,38.3340741,-85.6179845
6913,Timber Ridge Court,40059,38.3341978,-85.6191952
6915,Timber Ridge Court,40059,38.3344742,-85.6184899
6920,Timber Crest Drive,40059,38.3319594,-85.6176822
7000,Fox Harbor Road,40059,38.3399759,-85.6166790
7000,Shallow Lake Road,40059,38.3333997,-85.6174779
7002,Fox Harbor Road,40059,38.3399769,-85.6161108
7002,Rock Hill Road,40059,38.3346721,-85.6168020
7002,Shallow Lake Road,40059,38.3331646,-85.6169478
7003,Fox Valley Court,40059,38.3394938,-85.6151730
7003,Rock Hill Road,40059,38.3352923,-85.6173199
7003,Shallow Lake Road,40059,38.3336903,-85.6169129
7004,Fox Valley Court,40059,38.3390969,-85.6154112
7004,Rock Hill Road,40059,38.3345036,-85.6164769
7004,Shallow Lake Road,40059,38.3331534,-85.6166478
7005,Fox Valley Court,40059,38.3393909,-85.6149123
7005,Shallow Lake Road,40059,38.3336317,-85.6164817
7006,Fox Harbor Road,40059,38.3400243,-85.6151105
7006,Fox Valley Court,40059,38.3389784,-85.6152014
7006,Rock Hill Road,40059,38.3343674,-85.6160781
7006,Shallow Lake Road,40059,38.3331058,-85.6161659
7007,Fox Valley Court,40059,38.3392893,-85.6144622
7007,Shallow Lake Road,40059,38.3335987,-85.6160678
7008,Rock Hill Road,40059,38.3343274,-85.6156579
7008,Shallow Lake Road,40059,38.3330598,-85.6157861
7009,Shallow Lake Road,40059,38.3335273,-85.6156927
7010,Fox Valley Court,40059,38.3389074,-85.6144776
7010,Rock Hill Road,40059,38.3344781,-85.6152307
7010,Shallow Lake Road,40059,38.3330731,-85.6154010
7011,Shallow Lake Road,40059,38.3335577,-85.6152678
7012,Rock Hill Road,40059,38.3347603,-85.6149215
7013,Rock Hill Road,40059,38.3353151,-85.6146068
7013,Shallow Lake Road,40059,38.3336432,-85.6149064
7014,Rock Hill Road,40059,38.3343649,-85.6145875
7015,Rock Hill Road,40059,38.3350473,-85.6143603
7015,Shallow Lake Road,40059,38.3337463,-85.6144653
7016,Rock Hill Road,40059,38.3343617,-85.6141482
7016,Shallow Lake Road,40059,38.3331624,-85.6147242
7017,Rock Hill Road,40059,38.3347397,-85.6141299
7017,Shallow Lake Road,40059,38.3335268,-85.6142257
7100,Cannonade Court,40059,38.3416091,-85.6132518
7101,Cannonade Court,40059,38.3418489,-85.6127319
7101,Gunpowder Court,40059,38.3413228,-85.6143842
7102,Cannonade Court,40059,38.3414235,-85.6129845
7102,Fox Harbor Road,40059,38.3399695,-85.6147494
7102,Gunpowder Court,40059,38.3407966,-85.6142715
7103,Cannonade Court,40059,38.3417420,-85.6123831
7103,Fox Harbor Road,40059,38.3403680,-85.6143871
7103,Gunpowder Court,40059,38.3411634,-85.6140242
7104,Cannonade Court,40059,38.3413001,-85.6125581
7104,Fox Harbor Road,40059,38.3398259,-85.6144646
7104,Gunpowder Court,40059,38.3407082,-85.6139682
7105,Cannonade Court,40059,38.3417820,-85.6120469
7105,Fox Harbor Road,40059,38.3401834,-85.6140822
7105,Gunpowder Court,40059,38.3411358,-85.6136252
7106,Cannonade Court,40059,38.3412828,-85.6121739
7106,Fox Harbor Road,40059,38.3396830,-85.6142294
7106,Gunpowder Court,40059,38.3405848,-85.6136725
7107,Cannonade Court,40059,38.3419252,-85.6116727
7107,Fox Harbor Road,40059,38.3400155,-85.6138797
7107,Gunpowder Court,40059,38.3410455,-85.6133242
7108,Cannonade Court,40059,38.3413701,-85.6118236
7108,Gunpowder Court,40059,38.3407153,-85.6133060
7109,Cannonade Court,40059,38.3419716,-85.6113202
7109,Fox Harbor Road,40059,38.3398604,-85.6135982
7110,Cannonade Court,40059,38.3413468,-85.6114281
7110,Fox Harbor Road,40059,38.3394401,-85.6137320
7112,Cannonade Court,40059,38.3416223,-85.6110874
7200,Deer Ridge Road,40059,38.3321453,-85.6155490
7200,Doe Crest Court,40059,38.3490886,-85.5896259
7200,Fox Harbor Road,40059,38.3393411,-85.6134177
7201,Deer Ridge Road,40059,38.3323355,-85.6149068
7201,Fox Harbor Road,40059,38.3398339,-85.6131958
7202,Deer Ridge Road,40059,38.3316842,-85.6153834
7202,Doe Crest Court,40059,38.3491317,-85.5902378
7203,Deer Ridge Road,40059,38.3318055,-85.6148063
7203,Doe Crest Court,40059,38.3495023,-85.5893847
7203,Fox Harbor Road,40059,38.3398693,-85.6127941
7204,Doe Crest Court,40059,38.3496686,-85.5905105
7204,Fox Harbor Road,40059,38.3394783,-85.6126080
7205,Doe Crest Court,40059,38.3499003,-85.5898421
7205,Fox Harbor Road,40059,38.3400532,-85.6123918
7206,Doe Crest Court,40059,38.3499695,-85.5910278
7206,Fox Harbor Road,40059,38.3396066,-85.6122477
7207,Deer Ridge Road,40059,38.3312247,-85.6146680
7207,Doe Crest Court,40059,38.3502756,-85.5902775
7207,Fox Harbor Road,40059,38.3401812,-85.6120688
7208,Deer Ridge Road,40059,38.3307590,-85.6152466
7209,Deer Ridge Road,40059,38.3308526,-85.6145569
7209,Doe Crest Court,40059,38.3505969,-85.5906173
7209,Fox Harbor Road,40059,38.3402487,-85.6116780
7210,Deer Ridge Road,40059,38.3304793,-85.6149261
7211,Deer Ridge Road,40059,38.3307676,-85.6141454
7211,Doe Crest Court,40059,38.3507308,-85.5911958
7211,Fox Harbor Road,40059,38.3401910,-85.6112845
7212,Deer Ridge Road,40059,38.3303113,-85.6145696
7213,Deer Ridge Road,40059,38.3308768,-85.6138239
7213,Doe Crest Court,40059,38.3508042,-85.5917848
7213,Fox Harbor Road,40059,38.3399683,-85.6109143
7214,Deer Ridge Road,40059,38.3302815,-85.6142070
7215,Deer Ridge Road,40059,38.3307841,-85.6133649
7215,Fox Harbor Road,40059,38.3396833,-85.6106292
7216,Deer Ridge Road,40059,38.3302339,-85.6137732
7217,Deer Ridge Road,40059,38.3303877,-85.6133857
7217,Fox Harbor Road,40059,38.3393876,-85.6103626
7218,Fox Harbor Road,40059,38.3390128,-85.6107639
7219,Fox Harbor Road,40059,38.3391852,-85.6100104
7220,Fox Harbor Road,40059,38.3387357,-85.6103354
7221,Fox Harbor Road,40059,38.3390816,-85.6096117
7222,Fox Harbor Road,40059,38.3386012,-85.6098966
7223,Fox Harbor Road,40059,38.3387491,-85.6087792
7224,Fox Harbor Road,40059,38.3385667,-85.6094654
7225,Fox Harbor Road,40059,38.3383774,-85.6086625
7226,Fox Harbor Road,40059,38.3383078,-85.6093732
7227,Fox Harbor Road,40059,38.3380610,-85.6088329
7228,Fox Harbor Road,40059,38.3382223,-85.6098728
7229,Fox Harbor Road,40059,38.3378764,-85.6091287
7230,Fox Harbor Road,40059,38.3381416,-85.6102380
7231,Fox Harbor Road,40059,38.3377635,-85.6096189
7232,Fox Harbor Road,40059,38.3379823,-85.6106012
7233,Fox Harbor Road,40059,38.3376446,-85.6100164
7234,Fox Harbor Road,40059,38.3377533,-85.6108129
7235,Fox Harbor Road,40059,38.3374147,-85.6103639
7236,Fox Harbor Road,40059,38.3375396,-85.6111200
7237,Fox Harbor Road,40059,38.3371360,-85.6106930
7238,Fox Harbor Road,40059,38.3375220,-85.6115416
7239,Fox Harbor Road,40059,38.3370266,-85.6110673
7241,Fox Harbor Road,40059,38.3370306,-85.6115590
7242,Fox Harbor Road,40059,38.3368791,-85.6123593
7243,Fox Harbor Road,40059,38.3367047,-85.6117901
7244,Fox Harbor Road,40059,38.3366176,-85.6123863
7245,Fox Harbor Road,40059,38.3362783,-85.6119230
7246,Fox Harbor Road,40059,38.3363681,-85.6126861
7248,Fox Harbor Road,40059,38.3364462,-85.6131178
7249,Fox Harbor Road,40059,38.3359253,-85.6124942
7251,Fox Harbor Road,40059,38.3357908,-85.6130144
7253,Fox Harbor Road,40059,38.3359573,-85.6133831
7300,Fox Bluff Place,40059,38.3373492,-85.6142897
7301,Fox Bluff Place,40059,38.3376163,-85.6144977
7301,Fox Harbor Road,40059,38.3360659,-85.6140486
7302,Fox Bluff Place,40059,38.3373483,-85.6138235
7302,Fox Harbor Road,40059,38.3366537,-85.6143938
7302,Willow Gate Court,40059,38.3514997,-85.5915382
7303,Fox Bluff Place,40059,38.3379243,-85.6140994
7303,Fox Harbor Road,40059,38.3359513,-85.6145896
7303,Willow Gate Court,40059,38.3522234,-85.5919603
7304,Fox Bluff Place,40059,38.3376240,-85.6135699
7304,Fox Harbor Road,40059,38.3365962,-85.6149429
7304,Willow Gate Court,40059,38.3518086,-85.5912168
7305,Fox Bluff Place,40059,38.3381612,-85.6137546
7305,Fox Harbor Road,40059,38.3359530,-85.6151962
7305,Willow Gate Court,40059,38.3521672,-85.5914131
7306,Fox Harbor Road,40059,38.3364231,-85.6154231
7307,Fox Harbor Road,40059,38.3361333,-85.6159023
7401,Tallwood Road,40059,38.3396085,-85.6086916
7404,Pine Knoll Circle,40059,38.3531635,-85.5921112
7408,Pine Knoll Circle,40059,38.3533295,-85.5915770
7410,Pine Knoll Circle,40059,38.3532898,-85.5909003
7500,Pine Knoll Circle,40059,38.3528004,-85.5906115
7501,Pine Knoll Circle,40059,38.3530808,-85.5897424
7501,Rockingham Road,40059,38.3397987,-85.6080401
7502,Pine Knoll Circle,40059,38.3524472,-85.5904149
7502,Rockingham Road,40059,38.3393555,-85.6075183
7503,Pine Knoll Circle,40059,38.3525449,-85.5896113
7503,Rockingham Road,40059,38.3397656,-85.6076802
7504,Pine Knoll Circle,40059,38.3520053,-85.5902301
7504,Rockingham Road,40059,38.3395524,-85.6070767
7505,Pine Knoll Circle,40059,38.3519817,-85.5893206
7505,Rockingham Road,40059,38.3399539,-85.6073799
7506,Pine Knoll Circle,40059,38.3515685,-85.5899280
7506,Rockingham Road,40059,38.3397612,-85.6068394
7507,Pine Knoll Circle,40059,38.3516309,-85.5889667
7507,Rockingham Road,40059,38.3401513,-85.6071359
7508,Pine Knoll Circle,40059,38.3511112,-85.5895879
7509,Pine Knoll Circle,40059,38.3512312,-85.5891094
7509,Rockingham Road,40059,38.3403962,-85.6068611
7510,Rockingham Road,40059,38.3402244,-85.6063450
7511,Rockingham Road,40059,38.3406401,-85.6066059
7512,Rockingham Road,40059,38.3404231,-85.6059114
7513,Rockingham Road,40059,38.3408461,-85.6062739
7514,Rockingham Road,40059,38.3404673,-85.6055483
7515,Rockingham Road,40059,38.3408976,-85.6059343
7516,Rockingham Road,40059,38.3403974,-85.6051647
7517,Rockingham Road,40059,38.3409375,-85.6054685
7519,Rockingham Road,40059,38.3408542,-85.6051044
7521,Rockingham Road,40059,38.3407411,-85.6047344
7522,Rockingham Road,40059,38.3401566,-85.6046137
7523,Rockingham Road,40059,38.3406549,-85.6044746
7524,Rockingham Road,40059,38.3398726,-85.6042182
7525,Rockingham Road,40059,38.3404949,-85.6040736
7527,Rockingham Road,40059,38.3402342,-85.6038743
7602,Laurel Hill Place,40059,38.3383379,-85.6046781
7602,Rockingham Road,40059,38.3395175,-85.6040865
7603,Laurel Hill Place,40059,38.3388432,-85.6044087
7603,Rockingham Road,40059,38.3393560,-85.6034109
7604,Laurel Hill Place,40059,38.3386212,-85.6047717
7604,Rockingham Road,40059,38.3392840,-85.6039887
7605,Rockingham Road,40059,38.3390781,-85.6031793
7606,Rockingham Road,40059,38.3389552,-85.6038214
7607,Rockingham Road,40059,38.3388784,-85.6029714
7608,Rockingham Road,40059,38.3385144,-85.6033369
7610,Rockingham Road,40059,38.3382794,-85.6029233
7614,Tallwood Road,40059,38.3420373,-85.6043670
7801,Deep Trail Court,40059,38.3367125,-85.6084267
7802,Deep Trail Court,40059,38.3362177,-85.6087072
7803,Deep Trail Court,40059,38.3365608,-85.6081898
7803,Grenoble Lane,40059,38.3432238,-85.6008430
7804,Deep Trail Court,40059,38.3360385,-85.6083427
7805,Deep Trail Court,40059,38.3362860,-85.6080389
7805,Grenoble Lane,40059,38.3432699,-85.6003773
7900,Montero Drive,40059,38.3417668,-85.5993148
7900,Westover Drive,40059,38.3445160,-85.6004219
7902,Montero Drive,40059,38.3418396,-85.5990555
7902,Westover Drive,40059,38.3444596,-85.6000653
7903,Grenoble Lane,40059,38.3440469,-85.5994547
7904,Montero Drive,40059,38.3420589,-85.5987554
7904,Westover Drive,40059,38.3443992,-85.5997282
7906,Montero Drive,40059,38.3424833,-85.5983170
7906,Westover Drive,40059,38.3443424,-85.5993531
7908,Montero Drive,40059,38.3426508,-85.5980874
8000,Harrods Landing Drive,40059,38.3349495,-85.6198668
8000,Montero Court,40059,38.3417360,-85.5974653
8000,Montero Drive,40059,38.3427638,-85.5978128
8000,Weyanoke Court,40059,38.3408925,-85.5989137
8001,Montero Court,40059,38.3419847,-85.5974515
8001,Rock Hill Road,40059,38.3354334,-85.6161015
8001,Weyanoke Court,40059,38.3410560,-85.5991101
8002,Ashdowne Court,40059,38.3401399,-85.5956453
8002,Montero Court,40059,38.3415582,-85.5972381
8002,Montero Drive,40059,38.3428433,-85.5975380
8003,Ashdowne Court,40059,38.3404964,-85.5958552
8003,Montero Court,40059,38.3421639,-85.5971842
8003,Weyanoke Court,40059,38.3413262,-85.5990141
8004,Ashdowne Court,40059,38.3401729,-85.5953350
8004,Montero Court,40059,38.3416104,-85.5967635
8004,Montero Drive,40059,38.3428724,-85.5972283
8004,Weyanoke Court,40059,38.3411211,-85.5982595
8005,Ashdowne Court,40059,38.3406701,-85.5955833
8005,Montero Court,40059,38.3420936,-85.5968424
8005,Weyanoke Court,40059,38.3414942,-85.5987694
8006,Ashdowne Court,40059,38.3402812,-85.5950535
8006,Montero Drive,40059,38.3428302,-85.5969116
8006,Weyanoke Court,40059,38.3409056,-85.5979200
8007,Montero Court,40059,38.3419971,-85.5964813
8007,Weyanoke Court,40059,38.3415758,-85.5984871
8008,Ashdowne Court,40059,38.3404702,-85.5948523
8008,Montero Drive,40059,38.3427085,-85.5965765
8008,Weyanoke Court,40059,38.3407768,-85.5976648
8009,Weyanoke Court,40059,38.3418921,-85.5980623
8010,Ashdowne Court,40059,38.3407277,-85.5948413
8010,Weyanoke Court,40059,38.3407218,-85.5973678
8011,Ashdowne Court,40059,38.3409327,-85.5956799
8011,Weyanoke Court,40059,38.3414330,-85.5978321
8012,Ashdowne Court,40059,38.3409505,-85.5949201
8012,Weyanoke Court,40059,38.3406086,-85.5970247
8013,Ashdowne Court,40059,38.3411926,-85.5957425
8013,Weyanoke Court,40059,38.3412752,-85.5976646
8014,Ashdowne Court,40059,38.3412033,-85.5949516
8015,Ashdowne Court,40059,38.3413886,-85.5955359
8015,Weyanoke Court,40059,38.3411309,-85.5973561
8016,Ashdowne Court,40059,38.3414025,-85.5951790
8017,Weyanoke Court,40059,38.3411175,-85.5969688
8025,Montero Drive,40059,38.3431013,-85.5963234
8027,Montero Drive,40059,38.3429683,-85.5960991
8028,Westover Drive,40059,38.3445469,-85.6012985
8029,Montero Drive,40059,38.3427720,-85.5958700
8100,Montero Drive,40059,38.3422611,-85.5963191
8101,Montero Drive,40059,38.3423176,-85.5957246
8103,Montero Drive,40059,38.3420658,-85.5957892
8105,Montero Drive,40059,38.3418638,-85.5958419
8107,Montero Drive,40059,38.3416684,-85.5960111
8109,Montero Drive,40059,38.3414704,-85.5961579
8110,Montero Drive,40059,38.3413775,-85.5968139
8111,Montero Drive,40059,38.3412447,-85.5962784
8113,Montero Drive,40059,38.3410269,-85.5963696
8115,Montero Drive,40059,38.3407843,-85.5963881
8116,Montero Drive,40059,38.3403651,-85.5968554
8117,Montero Drive,40059,38.3404365,-85.5963001
8118,Montero Drive,40059,38.3401293,-85.5967394
8119,Montero Drive,40059,38.3399757,-85.5960396
8120,Montero Drive,40059,38.3399080,-85.5965940
8122,Montero Drive,40059,38.3397060,-85.5964883
8123,Montero Drive,40059,38.3397731,-85.5958730
8124,Montero Drive,40059,38.3394905,-85.5963331
8125,Montero Drive,40059,38.3396173,-85.5956573
8126,Montero Drive,40059,38.3392678,-85.5961590
8127,Montero Drive,40059,38.3395812,-85.5953485
8128,Montero Drive,40059,38.3391703,-85.5958339
8129,Montero Drive,40059,38.3396257,-85.5950650
8130,Montero Drive,40059,38.3391282,-85.5955336
8132,Montero Drive,40059,38.3391705,-85.5951491
8133,Montero Drive,40059,38.3397372,-85.5947811
8134,Montero Drive,40059,38.3392410,-85.5947755
8135,Montero Drive,40059,38.3399880,-85.5946081
8136,Montero Drive,40059,38.3392954,-85.5944775
8200,Harrods View Court,40059,38.3440646,-85.5946281
8200,Montero Drive,40059,38.3393276,-85.5940638
8200,Woodrose Court,40059,38.3442363,-85.5959024
8201,Harrods View Court,40059,38.3443668,-85.5948227
8201,Montero Drive,40059,38.3400493,-85.5942879
8201,Woodrose Court,40059,38.3444270,-85.5954337
8202,Harrods View Court,40059,38.3439595,-85.5942477
8202,Montero Drive,40059,38.3392984,-85.5937922
8202,Woodrose Court,40059,38.3438239,-85.5959046
8203,Harrods View Court,40059,38.3446318,-85.5946030
8203,Montero Drive,40059,38.3399845,-85.5940039
8203,Woodrose Court,40059,38.3440798,-85.5952451
8204,Montero Drive,40059,38.3392909,-85.5935177
8204,Woodrose Court,40059,38.3435247,-85.5957690
8205,Harrods View Court,40059,38.3446986,-85.5942927
8205,Montero Drive,40059,38.3397749,-85.5937343
8205,Woodrose Court,40059,38.3436179,-85.5950806
8206,Montero Drive,40059,38.3392111,-85.5932046
8206,Woodrose Court,40059,38.3432182,-85.5955374
8207,Montero Drive,40059,38.3397564,-85.5934366
8208,Montero Drive,40059,38.3392002,-85.5928796
8208,Westover Drive,40059,38.3450498,-85.5949977
8209,Montero Drive,40059,38.3397248,-85.5931620
8210,Montero Drive,40059,38.3392294,-85.5925905
8210,Westover Drive,40059,38.3454925,-85.5944066
8211,Montero Drive,40059,38.3397285,-85.5928746
8213,Montero Drive,40059,38.3398332,-85.5925832
8215,Montero Drive,40059,38.3400151,-85.5924270
8300,Star Point Court,40059,38.3394326,-85.5922506
8300,Westover Drive,40059,38.3458050,-85.5935665
8301,Star Point Court,40059,38.3397620,-85.5918143
8302,Star Point Court,40059,38.3392362,-85.5919389
8302,Westover Drive,40059,38.3460796,-85.5932016
8303,Star Point Court,40059,38.3395730,-85.5915492
8304,Star Point Court,40059,38.3391461,-85.5916522
8305,Star Point Court,40059,38.3394793,-85.5912527
8306,Star Point Court,40059,38.3390721,-85.5913620
8306,Westover Drive,40059,38.3465865,-85.5926160
8307,Star Point Court,40059,38.3394057,-85.5909590
8308,Star Point Court,40059,38.3389328,-85.5911115
8308,Westover Drive,40059,38.3470757,-85.5922439
8309,Star Point Court,40059,38.3392378,-85.5907357
8310,Star Point Court,40059,38.3387230,-85.5908158
8310,Westover Drive,40059,38.3474851,-85.5920092
8311,Star Point Court,40059,38.3391280,-85.5904640
8312,Star Point Court,40059,38.3385981,-85.5904177
8312,Westover Drive,40059,38.3479222,-85.5919541
8313,Star Point Court,40059,38.3390239,-85.5901768
8314,Star Point Court,40059,38.3387525,-85.5901525
8316,Westover Court,40059,38.3482201,-85.5914020
8320,Westover Court,40059,38.3486206,-85.5914433
8324,Westover Drive,40059,38.3488380,-85.5920191
8400,Westover Drive,40059,38.3493445,-85.5924191
8402,Westover Drive,40059,38.3498197,-85.5922926
8404,Westover Drive,40059,38.3502055,-85.5921539
8502,Westover Drive,40059,38.3512896,-85.5918243
8504,Westover Drive,40059,38.3519927,-85.5923959
8506,Westover Drive,40059,38.3525451,-85.5928586
8804,U S Highway 42,40059,38.3359117,-85.6211207
9104,Putney Lane,40059,38.3359899,-85.6172210
9106,Putney Lane,40059,38.3378582,-85.6171664
9110,U S Highway 42,40059,38.3392150,-85.6187234
9114,U S Highway 42,40059,38.3395935,-85.6186698
9118,U S Highway 42,40059,38.3398066,-85.6184229
9200,U S Highway 42,40059,38.3407421,-85.6181892
9211,US-42,40059,38.3406054,-85.6192489
9213,US-42,40059,38.3406590,-85.6190977
6807,Foxcroft Road,40059,38.3484952,-85.6035148
9519,U S Highway 42,40059,38.3430413,-85.6176585
