House number,Street name,Postal code,Latitude,Longitude
1910,Charbdin Place,40207,38.2792188,-85.6594396
1919,Charbdin Place,40207,38.2781624,-85.6563815
528,Blankenbaker Lane,40207,38.2860196,-85.6596483
1800,Round Ridge Road,40207,38.2799114,-85.6596368
1802,Round Ridge Road,40207,38.2798688,-85.6599607
1803,Round Ridge Road,40207,38.2803368,-85.6599413
1804,Round Ridge Road,40207,38.2798175,-85.6603424
1805,Round Ridge Road,40207,38.2802975,-85.6602719
1806,Round Ridge Road,40207,38.2797805,-85.6606609
1807,Round Ridge Road,40207,38.2802474,-85.6606005
1808,Round Ridge Road,40207,38.2798569,-85.6615016
1809,Round Ridge Road,40207,38.2802863,-85.6609510
1810,Round Ridge Road,40207,38.2800039,-85.6618415
1811,Round Ridge Road,40207,38.2807621,-85.6612545
1812,Round Ridge Road,40207,38.2802703,-85.6618447
1814,Round Ridge Road,40207,38.2805453,-85.6619861
1900,Charbdin Place,40207,38.2812010,-85.6592132
1900,Round Ridge Road,40207,38.2805896,-85.6624376
1901,Charbdin Place,40207,38.2809581,-85.6590057
1901,Round Ridge Road,40207,38.2811521,-85.6612703
1902,Charbdin Place,40207,38.2812680,-85.6596298
1902,Round Ridge Road,40207,38.2808501,-85.6626506
1903,Charbdin Place,40207,38.2806818,-85.6590038
1903,Round Ridge Road,40207,38.2813112,-85.6616369
1904,Charbdin Place,40207,38.2809249,-85.6598013
1904,Round Ridge Road,40207,38.2810947,-85.6628657
1905,Charbdin Place,40207,38.2804122,-85.6590190
1905,Round Ridge Road,40207,38.2815347,-85.6618351
1906,Round Ridge Road,40207,38.2813736,-85.6629954
1907,Charbdin Place,40207,38.2801687,-85.6590276
1907,Round Ridge Road,40207,38.2818454,-85.6620923
1908,Round Ridge Road,40207,38.2818672,-85.6630478
1909,Charbdin Place,40207,38.2799385,-85.6586106
1911,Charbdin Place,40207,38.2795586,-85.6584483
1913,Charbdin Place,40207,38.2792062,-85.6577047
1915,Camargo Road,40207,38.2818976,-85.6613593
1915,Charbdin Place,40207,38.2790849,-85.6572940
1917,Camargo Road,40207,38.2819132,-85.6609562
1917,Charbdin Place,40207,38.2787096,-85.6568147
1918,Charbdin Place,40207,38.2777119,-85.6570223
2000,Camargo Road,40207,38.2827190,-85.6605937
2000,High Ridge Road,40207,38.2824246,-85.6612974
2000,Indian Chute,40207,38.2808092,-85.6578095
2000,Round Ridge Road,40207,38.2821713,-85.6628379
2000,Starmont Road,40207,38.2821357,-85.6637228
2001,Camargo Road,40207,38.2820651,-85.6605136
2001,Round Ridge Road,40207,38.2824488,-85.6620689
2001,Starmont Road,40207,38.2823875,-85.6633293
2002,High Ridge Road,40207,38.2827170,-85.6613139
2002,Round Ridge Road,40207,38.2824850,-85.6627011
2002,Starmont Road,40207,38.2824066,-85.6641209
2003,Camargo Road,40207,38.2822126,-85.6602341
2003,Round Ridge Road,40207,38.2828428,-85.6621292
2003,Starmont Road,40207,38.2827467,-85.6634579
2004,High Ridge Road,40207,38.2829923,-85.6613517
2004,Round Ridge Road,40207,38.2828145,-85.6628364
2004,Starmont Road,40207,38.2826323,-85.6642309
2005,Camargo Road,40207,38.2824638,-85.6599571
2005,High Canyon Road,40207,38.2833816,-85.6640837
2005,High Ridge Road,40207,38.2831002,-85.6607862
2005,Round Ridge Road,40207,38.2831245,-85.6621864
2005,Starmont Road,40207,38.2829411,-85.6637553
2006,Camargo Road,40207,38.2830815,-85.6600758
2006,High Ridge Road,40207,38.2832687,-85.6614158
2006,Round Ridge Road,40207,38.2830922,-85.6628662
2006,Starmont Road,40207,38.2829306,-85.6644335
2007,Camargo Road,40207,38.2826680,-85.6596710
2007,High Canyon Road,40207,38.2836385,-85.6636927
2007,High Ridge Road,40207,38.2833969,-85.6608047
2007,Round Ridge Road,40207,38.2835017,-85.6622715
2007,Twin Hill Road,40207,38.2838472,-85.6645027
2008,High Canyon Road,40207,38.2831766,-85.6634147
2008,High Ridge Road,40207,38.2835736,-85.6614637
2008,Round Ridge Road,40207,38.2834159,-85.6628693
2008,Starmont Road,40207,38.2831473,-85.6646741
2009,Camargo Road,40207,38.2829458,-85.6594272
2009,High Canyon Road,40207,38.2837722,-85.6633831
2009,High Ridge Road,40207,38.2836852,-85.6609049
2009,Starmont Road,40207,38.2835932,-85.6643555
2010,Camargo Road,40207,38.2834845,-85.6600343
2010,Starmont Road,40207,38.2834223,-85.6649207
2011,Camargo Road,40207,38.2832739,-85.6593996
2011,High Canyon Road,40207,38.2839237,-85.6629951
2012,Camargo Road,40207,38.2837662,-85.6600642
2012,Starmont Road,40207,38.2836621,-85.6651649
2013,Camargo Road,40207,38.2835683,-85.6594675
2015,Camargo Road,40207,38.2838538,-85.6594953
2100,Camargo Road,40207,38.2840491,-85.6601653
2100,High Ridge Road,40207,38.2839054,-85.6615696
2100,Starmont Road,40207,38.2838997,-85.6654199
2100,Twin Hill Road,40207,38.2849013,-85.6647136
2101,Camargo Road,40207,38.2844133,-85.6595689
2101,High Ridge Road,40207,38.2839610,-85.6609461
2101,Round Ridge Road,40207,38.2837725,-85.6622814
2101,Starmont Road,40207,38.2842403,-85.6649525
2101,Twin Hill Road,40207,38.2850832,-85.6638122
2102,Camargo Road,40207,38.2843546,-85.6601999
2102,High Ridge Road,40207,38.2841829,-85.6616274
2102,Starmont Road,40207,38.2841282,-85.6656306
2102,Twin Hill Road,40207,38.2853515,-85.6648625
2103,Camargo Road,40207,38.2847292,-85.6596719
2103,High Ridge Road,40207,38.2842543,-85.6608877
2103,Round Ridge Road,40207,38.2840906,-85.6623574
2103,Starmont Road,40207,38.2844855,-85.6652223
2103,Twin Hill Road,40207,38.2855181,-85.6639254
2104,Camargo Road,40207,38.2846649,-85.6602496
2104,High Ridge Road,40207,38.2844686,-85.6616995
2104,Round Ridge Road,40207,38.2842986,-85.6630251
2104,Starmont Road,40207,38.2843738,-85.6658200
2104,Twin Hill Road,40207,38.2856225,-85.6652591
2105,High Ridge Road,40207,38.2845628,-85.6609922
2105,Round Ridge Road,40207,38.2843960,-85.6624032
2105,Starmont Road,40207,38.2847550,-85.6654444
2105,Twin Hill Road,40207,38.2858542,-85.6641384
2106,Camargo Road,40207,38.2849391,-85.6603378
2106,High Ridge Road,40207,38.2847716,-85.6617136
2106,Starmont Road,40207,38.2845868,-85.6660097
2107,Camargo Road,40207,38.2855609,-85.6597476
2107,Round Ridge Road,40207,38.2847028,-85.6624599
2107,Starmont Road,40207,38.2850377,-85.6656246
2107,Twin Hill Road,40207,38.2862981,-85.6644176
2108,Camargo Road,40207,38.2854870,-85.6604223
2108,Starmont Road,40207,38.2848051,-85.6662809
2109,Camargo Road,40207,38.2859526,-85.6598034
2109,Starmont Road,40207,38.2852364,-85.6658613
2110,Camargo Road,40207,38.2858626,-85.6605354
2110,Starmont Road,40207,38.2850754,-85.6664234
2111,Starmont Road,40207,38.2855217,-85.6660380
2112,Starmont Road,40207,38.2853749,-85.6666104
2113,Starmont Road,40207,38.2859171,-85.6661456
2114,Starmont Road,40207,38.2856303,-85.6667302
2115,Starmont Road,40207,38.2859238,-85.6655359
2116,Starmont Road,40207,38.2858958,-85.6668304
2117,Starmont Road,40207,38.2865328,-85.6659504
2118,Starmont Road,40207,38.2861877,-85.6668236
2119,Starmont Road,40207,38.2866929,-85.6662822
2120,Starmont Road,40207,38.2864833,-85.6668088
4300,Talahi Way,40207,38.2803870,-85.6577719
4302,Talahi Way,40207,38.2801109,-85.6572192
4304,Talahi Way,40207,38.2800818,-85.6567966
4700,Crofton Road,40207,38.2842358,-85.6641224
4702,Crofton Road,40207,38.2844653,-85.6636984
4703,Crofton Road,40207,38.2850901,-85.6631966
4704,Crofton Road,40207,38.2846029,-85.6631134
4705,Crofton Road,40207,38.2851814,-85.6627505
4800,Cassia Court,40207,38.2793456,-85.6611569
4801,Cassia Court,40207,38.2794659,-85.6608179
4801,Crofton Road,40207,38.2852077,-85.6623369
4802,Cassia Court,40207,38.2795551,-85.6614422
4805,Crofton Road,40207,38.2852405,-85.6619579
4807,Crofton Road,40207,38.2852504,-85.6615878
4809,Crofton Road,40207,38.2853219,-85.6612071
4810,Crofton Road,40207,38.2849231,-85.6610278
4811,Crofton Road,40207,38.2853599,-85.6608215
4900,Crofton Road,40207,38.2849911,-85.6596468
4903,Clovernook Road,40207,38.2843718,-85.6591076
4903,Crofton Road,40207,38.2854869,-85.6593698
4904,Clovernook Road,40207,38.2838248,-85.6589255
4904,Crofton Road,40207,38.2850085,-85.6591032
4905,Clovernook Road,40207,38.2842443,-85.6587498
4905,Crofton Road,40207,38.2854816,-85.6589664
4906,Clovernook Road,40207,38.2837768,-85.6585235
4906,Crofton Road,40207,38.2849636,-85.6587063
4907,Clovernook Road,40207,38.2842271,-85.6583785
4907,Crofton Road,40207,38.2854265,-85.6586038
4908,Clovernook Road,40207,38.2837103,-85.6581838
4908,Crofton Road,40207,38.2848444,-85.6583311
4909,Clovernook Road,40207,38.2841645,-85.6579846
4910,Crofton Road,40207,38.2848520,-85.6578836
4911,Crofton Road,40207,38.2854123,-85.6581857
5000,Long Knife Run,40207,38.2820662,-85.6591610
5001,Long Knife Run,40207,38.2823128,-85.6592259
5003,Long Knife Run,40207,38.2825245,-85.6589896
5005,Long Knife Run,40207,38.2826991,-85.6587165
5007,Long Knife Run,40207,38.2828898,-85.6585280
5009,Long Knife Run,40207,38.2830532,-85.6582849
5011,Long Knife Run,40207,38.2832631,-85.6580625
5013,Long Knife Run,40207,38.2834213,-85.6577916
5102,Charbdin Court,40207,38.2789176,-85.6565231
5103,Charbdin Court,40207,38.2792605,-85.6570173
5104,Charbdin Court,40207,38.2791137,-85.6564319
5105,Charbdin Court,40207,38.2794228,-85.6567301
518,Blankenbaker Lane,40207,38.2859208,-85.6579450
520,Blankenbaker Lane,40207,38.2858791,-85.6583162
522,Blankenbaker Lane,40207,38.2859554,-85.6587106
524,Blankenbaker Lane,40207,38.2860817,-85.6591117
526,Blankenbaker Lane,40207,38.2860374,-85.6594591
558,Blankenbaker Lane,40207,38.2858864,-85.6609303
560,Blankenbaker Lane,40207,38.2857830,-85.6613196
562,Blankenbaker Lane,40207,38.2857537,-85.6616798
564,Blankenbaker Lane,40207,38.2857696,-85.6620332
566,Blankenbaker Lane,40207,38.2856445,-85.6624628
570,Blankenbaker Lane,40207,38.2856377,-85.6629743
572,Blankenbaker Lane,40207,38.2858297,-85.6634574
574,Blankenbaker Lane,40207,38.2860870,-85.6639292
600,Blankenbaker Lane,40207,38.2864628,-85.6650985
1801,Round Ridge Road,40207,38.2804490,-85.6596302
