House number,Street name,Postal code,Latitude,Longitude
3607,Brownsboro Road,40207,38.2648302,-85.6713459
3613,Brownsboro Road,40207,38.2650339,-85.6704468
3621,Brownsboro Road,40207,38.2653588,-85.6694038
3621,Brownsboro Road,40207,38.2653744,-85.6691411
3621,Brownsboro Road,40207,38.2653790,-85.6692797
3621,Brownsboro Road,40207,38.2653876,-85.6694035
3621,Brownsboro Road,40207,38.2654026,-85.6691408
3621,Brownsboro Road,40207,38.2654165,-85.6692773
3621,Brownsboro Road,40207,38.2654700,-85.6687306
3621,Brownsboro Road,40207,38.2654965,-85.6687298
3621,Brownsboro Road,40207,38.2655175,-85.6687303
3621,Brownsboro Road,40207,38.2655625,-85.6685609
3621,Brownsboro Road,40207,38.2655796,-85.6685612
3621,Brownsboro Road,40207,38.2655945,-85.6685628
3621,Brownsboro Road,40207,38.2656085,-85.6685631
3715,Fairway Lane,40207,38.2717407,-85.6711907
400,Country Lane,40207,38.2650865,-85.6703246
401,Country Lane,40207,38.2652039,-85.6698336
414,Club Lane,40207,38.2655646,-85.6728887
3600,Basswood Lane,40207,38.2667894,-85.6736243
3601,Basswood Lane,40207,38.2672361,-85.6740145
3603,Basswood Lane,40207,38.2673473,-85.6737894
3604,Basswood Lane,40207,38.2669430,-85.6733854
3605,Basswood Lane,40207,38.2674634,-85.6735408
3606,Basswood Lane,40207,38.2671151,-85.6730913
3607,Basswood Lane,40207,38.2676320,-85.6733497
3701,Fairway Lane,40207,38.2712058,-85.6738162
3702,Fairway Lane,40207,38.2709602,-85.6728535
3703,Fairway Lane,40207,38.2716418,-85.6733346
3703,Old Brownsboro Road,40207,38.2671272,-85.6661940
3703,Pennington Lane,40207,38.2688759,-85.6716305
3704,Fairway Lane,40207,38.2710734,-85.6724502
3705,Fairway Lane,40207,38.2716908,-85.6728740
3705,Pennington Lane,40207,38.2686885,-85.6711081
3706,Fairway Lane,40207,38.2711339,-85.6719950
3706,Pennington Lane,40207,38.2680545,-85.6711675
3707,Fairway Lane,40207,38.2717202,-85.6724870
3709,Fairway Lane,40207,38.2717226,-85.6721059
3710,Fairway Lane,40207,38.2711387,-85.6711818
3711,Fairway Lane,40207,38.2716935,-85.6717565
3712,Fairway Lane,40207,38.2711207,-85.6707450
3714,Fairway Lane,40207,38.2711204,-85.6704110
3715,Edmond Lane,40207,38.2673245,-85.6677820
3715,Fairway Lane,40207,38.2717188,-85.6714036
3716,Edmond Lane,40207,38.2672946,-85.6671821
3716,Fairway Lane,40207,38.2711099,-85.6700352
3717,Crocus Lane,40207,38.2699958,-85.6688647
3717,Edmond Lane,40207,38.2676355,-85.6678977
3717,Fairway Lane,40207,38.2716913,-85.6708727
3718,Crocus Lane,40207,38.2696264,-85.6683785
3718,Edmond Lane,40207,38.2675826,-85.6672845
3718,Fairway Lane,40207,38.2711113,-85.6696679
3719,Crocus Lane,40207,38.2701257,-85.6685394
3719,Edmond Lane,40207,38.2679076,-85.6678983
3719,Fairway Lane,40207,38.2716688,-85.6704640
3720,Canoe Lane,40207,38.2688310,-85.6676557
3720,Crocus Lane,40207,38.2699078,-85.6682591
3720,Edmond Lane,40207,38.2678566,-85.6673076
3720,Fairway Lane,40207,38.2712109,-85.6692652
3721,Edmond Lane,40207,38.2681422,-85.6678035
3721,Fairway Lane,40207,38.2716429,-85.6700592
3722,Canoe Lane,40207,38.2691808,-85.6674948
3722,Edmond Lane,40207,38.2681670,-85.6674073
3722,Fairway Lane,40207,38.2713550,-85.6689662
3723,Fairway Lane,40207,38.2716525,-85.6697410
3724,Canoe Lane,40207,38.2694271,-85.6673550
3724,Fairway Lane,40207,38.2714900,-85.6686261
3725,Fairway Lane,40207,38.2717422,-85.6694325
3726,Canoe Lane,40207,38.2701311,-85.6672018
3726,Fairway Lane,40207,38.2716604,-85.6683316
3727,Fairway Lane,40207,38.2718641,-85.6691567
3728,Canoe Lane,40207,38.2704657,-85.6672600
3729,Canoe Lane,40207,38.2706430,-85.6681837
3729,Fairway Lane,40207,38.2719836,-85.6688630
3730,Canoe Lane,40207,38.2708217,-85.6671463
3731,Canoe Lane,40207,38.2709777,-85.6678822
3731,Fairway Lane,40207,38.2722890,-85.6686491
3733,Canoe Lane,40207,38.2713040,-85.6677291
3733,Fairway Lane,40207,38.2720362,-85.6682462
3740,Deep Dale Lane,40207,38.2695268,-85.6669106
3742,Deep Dale Lane,40207,38.2696355,-85.6664378
3743,Deep Dale Lane,40207,38.2700690,-85.6665529
3907,Old Brownsboro Road,40207,38.2672442,-85.6656646
3923,Old Brownsboro Road,40207,38.2678429,-85.6646892
400,Club Lane,40207,38.2652430,-85.6705488
400,Duff Lane,40207,38.2674249,-85.6654522
400,Rolling Lane,40207,38.2658464,-85.6686217
401,Club Lane,40207,38.2657164,-85.6710040
401,Duff Lane,40207,38.2677230,-85.6649567
402,Club Lane,40207,38.2652547,-85.6708624
402,Duff Lane,40207,38.2677149,-85.6657537
402,Rolling Lane,40207,38.2658607,-85.6690850
403,Country Lane,40207,38.2653995,-85.6699232
403,Duff Lane,40207,38.2680606,-85.6652387
403,Rolling Lane,40207,38.2663676,-85.6689092
404,Club Lane,40207,38.2651929,-85.6712164
404,Duff Lane,40207,38.2679678,-85.6659540
404,Rolling Lane,40207,38.2659864,-85.6694394
405,Country Lane,40207,38.2656119,-85.6700493
405,Duff Lane,40207,38.2684324,-85.6654592
405,Rolling Lane,40207,38.2664538,-85.6691842
406,Club Lane,40207,38.2650993,-85.6715176
406,Duff Lane,40207,38.2682007,-85.6660941
406,Rolling Lane,40207,38.2661748,-85.6697715
407,Club Lane,40207,38.2656396,-85.6716378
407,Rolling Lane,40207,38.2666074,-85.6693972
408,Club Lane,40207,38.2651400,-85.6718220
408,Duff Lane,40207,38.2684709,-85.6662639
408,Rolling Lane,40207,38.2663879,-85.6700382
409,Duff Lane,40207,38.2687842,-85.6656564
409,Rolling Lane,40207,38.2668018,-85.6695823
410,Club Lane,40207,38.2652696,-85.6721491
410,Duff Lane,40207,38.2688134,-85.6663134
410,Rolling Lane,40207,38.2666981,-85.6702883
411,Country Lane,40207,38.2659022,-85.6702631
411,Duff Lane,40207,38.2691334,-85.6660721
411,Rolling Lane,40207,38.2670153,-85.6697968
412,Club Lane,40207,38.2654552,-85.6723511
412,Rolling Lane,40207,38.2669355,-85.6704925
413,Rolling Lane,40207,38.2672773,-85.6699591
414,Club Lane,40207,38.2657219,-85.6724710
414,Pennington Lane,40207,38.2663763,-85.6685980
414,Rolling Lane,40207,38.2671899,-85.6706645
415,Country Lane,40207,38.2661600,-85.6704822
415,Rolling Lane,40207,38.2675632,-85.6701309
416,Country Lane,40207,38.2660268,-85.6710975
416,Pennington Lane,40207,38.2667504,-85.6687230
416,Rolling Lane,40207,38.2674440,-85.6708384
417,Club Lane,40207,38.2658811,-85.6718315
417,Country Lane,40207,38.2663745,-85.6706631
418,Country Lane,40207,38.2661878,-85.6712694
418,Pennington Lane,40207,38.2669836,-85.6687644
418,Rolling Lane,40207,38.2677320,-85.6710151
419,Pennington Lane,40207,38.2672408,-85.6681914
420,Club Lane,40207,38.2659678,-85.6725834
420,Country Lane,40207,38.2663890,-85.6714104
420,Pennington Lane,40207,38.2672059,-85.6688830
421,Club Lane,40207,38.2661336,-85.6719707
421,Country Lane,40207,38.2666224,-85.6707744
422,Club Lane,40207,38.2662669,-85.6727140
422,Country Lane,40207,38.2665725,-85.6716005
422,Pennington Lane,40207,38.2673899,-85.6691385
423,Club Lane,40207,38.2664180,-85.6720849
423,Pennington Lane,40207,38.2678753,-85.6688221
423,Swing Lane,40207,38.2659887,-85.6729308
424,Country Lane,40207,38.2667856,-85.6717091
424,Pennington Lane,40207,38.2674859,-85.6693618
425,Club Lane,40207,38.2666384,-85.6722095
425,Country Lane,40207,38.2668369,-85.6710125
425,Pennington Lane,40207,38.2679889,-85.6691345
425,Swing Lane,40207,38.2663441,-85.6732262
426,Country Lane,40207,38.2670158,-85.6718089
426,Pennington Lane,40207,38.2675634,-85.6696586
427,Club Lane,40207,38.2668451,-85.6722910
427,Country Lane,40207,38.2670905,-85.6711652
427,Pennington Lane,40207,38.2681255,-85.6694282
428,Club Lane,40207,38.2665242,-85.6728435
428,Country Lane,40207,38.2672639,-85.6719961
429,Club Lane,40207,38.2670492,-85.6723746
429,Country Lane,40207,38.2673486,-85.6713744
429,Swing Lane,40207,38.2665863,-85.6734407
430,Club Lane,40207,38.2667913,-85.6729506
431,Country Lane,40207,38.2675251,-85.6714408
432,Country Lane,40207,38.2674812,-85.6720666
433,Club Lane,40207,38.2672900,-85.6724801
433,Country Lane,40207,38.2677128,-85.6714911
434,Club Lane,40207,38.2678736,-85.6734887
434,Country Lane,40207,38.2677181,-85.6721326
435,Club Lane,40207,38.2675316,-85.6726231
435,Country Lane,40207,38.2679210,-85.6715539
436,Club Lane,40207,38.2680301,-85.6736536
436,Country Lane,40207,38.2679624,-85.6722156
437,Club Lane,40207,38.2677741,-85.6727299
437,Country Lane,40207,38.2681245,-85.6715979
439,Club Lane,40207,38.2679749,-85.6728383
439,Country Lane,40207,38.2683107,-85.6716004
439,Swing Lane,40207,38.2675462,-85.6741617
440,Country Lane,40207,38.2683533,-85.6722674
441,Club Lane,40207,38.2681566,-85.6729452
441,Swing Lane,40207,38.2677281,-85.6743146
443,Swing Lane,40207,38.2679286,-85.6744854
445,Swing Lane,40207,38.2681746,-85.6746523
447,Swing Lane,40207,38.2683751,-85.6748447
449,Swing Lane,40207,38.2686455,-85.6750187
451,Swing Lane,40207,38.2688527,-85.6752295
453,Swing Lane,40207,38.2690607,-85.6753790
455,Swing Lane,40207,38.2693194,-85.6755617
457,Swing Lane,40207,38.2695566,-85.6757973
459,Swing Lane,40207,38.2697979,-85.6760019
461,Swing Lane,40207,38.2700092,-85.6762065
463,Swing Lane,40207,38.2702899,-85.6763404
500,Club Lane,40207,38.2682703,-85.6737725
500,Country Lane,40207,38.2687687,-85.6728059
500,Tiffany Lane,40207,38.2683035,-85.6701216
501,Club Lane,40207,38.2685947,-85.6732535
501,Country Lane,40207,38.2690053,-85.6720382
501,Rolling Lane,40207,38.2684078,-85.6704419
502,Club Lane,40207,38.2684756,-85.6739882
502,Country Lane,40207,38.2690372,-85.6729232
502,Rolling Lane,40207,38.2689616,-85.6710724
502,Tiffany Lane,40207,38.2685843,-85.6698114
503,Club Lane,40207,38.2688190,-85.6734200
503,Country Lane,40207,38.2692439,-85.6722874
503,Rolling Lane,40207,38.2688166,-85.6703210
503,Tiffany Lane,40207,38.2683674,-85.6691205
504,Club Lane,40207,38.2687726,-85.6741145
504,Country Lane,40207,38.2692516,-85.6730974
504,Rolling Lane,40207,38.2692189,-85.6711806
504,Tiffany Lane,40207,38.2687709,-85.6695248
505,Club Lane,40207,38.2690429,-85.6735981
505,Country Lane,40207,38.2694743,-85.6724571
505,Rolling Lane,40207,38.2691983,-85.6704534
505,Tiffany Lane,40207,38.2686162,-85.6689417
506,Club Lane,40207,38.2689913,-85.6743201
506,Country Lane,40207,38.2695100,-85.6732074
506,Rolling Lane,40207,38.2694561,-85.6713207
506,Tiffany Lane,40207,38.2690250,-85.6694763
507,Club Lane,40207,38.2693082,-85.6737923
507,Country Lane,40207,38.2697215,-85.6725867
507,Rolling Lane,40207,38.2695173,-85.6706055
507,Tiffany Lane,40207,38.2689046,-85.6688420
508,Club Lane,40207,38.2692373,-85.6744819
508,Country Lane,40207,38.2697765,-85.6733875
508,Rolling Lane,40207,38.2696951,-85.6715850
508,Tiffany Lane,40207,38.2692748,-85.6695793
509,Club Lane,40207,38.2695650,-85.6739576
509,Country Lane,40207,38.2699841,-85.6727318
509,Rolling Lane,40207,38.2697771,-85.6707459
509,Tiffany Lane,40207,38.2692608,-85.6687803
510,Club Lane,40207,38.2694429,-85.6746486
510,Country Lane,40207,38.2699666,-85.6735526
510,Rolling Lane,40207,38.2699803,-85.6716673
510,Tiffany Lane,40207,38.2695188,-85.6697019
511,Club Lane,40207,38.2697854,-85.6741410
511,Country Lane,40207,38.2702411,-85.6729352
511,Rolling Lane,40207,38.2700696,-85.6708512
511,Tiffany Lane,40207,38.2698136,-85.6690972
512,Club Lane,40207,38.2696837,-85.6748682
512,Country Lane,40207,38.2701780,-85.6737066
512,Rolling Lane,40207,38.2702740,-85.6717725
512,Tiffany Lane,40207,38.2697092,-85.6699397
513,Club Lane,40207,38.2700148,-85.6743517
513,Country Lane,40207,38.2705040,-85.6731929
513,Tiffany Lane,40207,38.2700212,-85.6693408
514,Club Lane,40207,38.2698687,-85.6750598
514,Country Lane,40207,38.2703930,-85.6738899
514,Rolling Lane,40207,38.2705697,-85.6718247
514,Tiffany Lane,40207,38.2698700,-85.6701979
515,Club Lane,40207,38.2702633,-85.6746078
515,Country Lane,40207,38.2707992,-85.6733499
515,Rolling Lane,40207,38.2708727,-85.6711837
515,Tiffany Lane,40207,38.2704138,-85.6696376
516,Club Lane,40207,38.2700126,-85.6753341
516,Country Lane,40207,38.2705658,-85.6741708
516,Rolling Lane,40207,38.2708517,-85.6718868
516,Tiffany Lane,40207,38.2700730,-85.6704911
517,Club Lane,40207,38.2704475,-85.6749139
517,Tiffany Lane,40207,38.2705249,-85.6700300
518,Club Lane,40207,38.2701443,-85.6755716
518,Country Lane,40207,38.2707456,-85.6744641
519,Club Lane,40207,38.2705749,-85.6751999
519,Country Lane,40207,38.2712935,-85.6741478
519,Tiffany Lane,40207,38.2706436,-85.6705556
520,Club Lane,40207,38.2702905,-85.6758816
520,Country Lane,40207,38.2708464,-85.6746942
521,Club Lane,40207,38.2707432,-85.6755827
521,Country Lane,40207,38.2714716,-85.6745227
521,Tiffany Lane,40207,38.2706096,-85.6710691
522,Country Lane,40207,38.2709725,-85.6749626
523,Club Lane,40207,38.2708180,-85.6758886
523,Country Lane,40207,38.2715926,-85.6748320
524,Country Lane,40207,38.2711322,-85.6753363
525,Club Lane,40207,38.2709153,-85.6763038
525,Country Lane,40207,38.2717204,-85.6751705
526,Country Lane,40207,38.2712657,-85.6757188
527,Club Lane,40207,38.2709888,-85.6766825
527,Country Lane,40207,38.2718217,-85.6754985
528,Country Lane,40207,38.2715246,-85.6762791
529,Club Lane,40207,38.2708756,-85.6770114
529,Country Lane,40207,38.2719403,-85.6758072
25,25 Mockingbird Valley Trail,40207,38.2777475,-85.6749173
3701,Old Brownsboro Road,40207,38.2664629,-85.6671877
