House number,Street name,Postal code,Latitude,Longitude
362,Old Gallatin Road,42164,36.7481494,-86.1961245
1224,Gallatin Road,42164,36.7422654,-86.2063027
1421,Old Gallatin Road,42164,36.7410058,-86.2101026
1605,Gallatin Road,42164-8907,36.7386188,-86.2114722
1751,Old Gallatin Road,42164,36.7374041,-86.2121518
147,Southwest Circle,42164,36.7414677,-86.2121784
101,Southwest Circle,42164,36.7415351,-86.2125037
115,Southwest Circle,42164,36.7415619,-86.2128688
125,Southwest Circle,42164,36.7416130,-86.2135136
143,Southwest Circle,42164,36.7420821,-86.2139860
201,Southwest Circle,42164,36.7429258,-86.2139309
261,Southwest Circle,42164,36.7437113,-86.2138154
263,Southwest Circle,42164,36.7439624,-86.2134747
265,Southwest Circle,42164,36.7440363,-86.2131985
275,Southwest Circle,42164,36.7441189,-86.2128776
311,Southwest Circle,42164,36.7442179,-86.2125355
331,Southwest Circle,42164,36.7443065,-86.2122265
367,Southwest Circle,42164,36.7443934,-86.2119354
375,Southwest Circle,42164,36.7444724,-86.2116238
298,Southwest Drive,42164,36.7443589,-86.2105529
284,Southwest Drive,42164,36.7441013,-86.2105854
264,Southwest Drive,42164,36.7438178,-86.2106415
244,Southwest Drive,42164,36.7435384,-86.2106798
226,Southwest Drive,42164,36.7432694,-86.2107203
208,Southwest Drive,42164,36.7429967,-86.2107580
188,Southwest Drive,42164,36.7427192,-86.2107427
170,Southwest Drive,42164,36.7424228,-86.2108173
148,Southwest Drive,42164,36.7421851,-86.2108624
130,Southwest Drive,42164,36.7419320,-86.2108808
116,Southwest Drive,42164,36.7416233,-86.2109093
135,Carter Street,42164,36.7437364,-86.2126300
113,Carter Street,42164,36.7434899,-86.2126064
89,Carter Street,42164,36.7432109,-86.2126373
75,Carter Street,42164,36.7429273,-86.2126540
39,Carter Street,42164,36.7424169,-86.2127182
27,Carter Street,42164,36.7419983,-86.2127388
180,Southwest Circle,42164,36.7429961,-86.2133380
152,Carter Street,42164,36.7439073,-86.2120068
370,Southwest Circle,42164,36.7440048,-86.2116793
126,Carter Street,42164,36.7436578,-86.2120566
108,Carter Street,42164,36.7433995,-86.2120705
90,Carter Street,42164,36.7431064,-86.2120757
72,Carter Street,42164,36.7428635,-86.2121109
60,Carter Street,42164,36.7426535,-86.2121248
185,Southwest Drive,42164,36.7424722,-86.2113238
187,Southwest Drive,42164,36.7426999,-86.2112815
215,Southwest Drive,42164,36.7431348,-86.2112290
225,Southwest Drive,42164,36.7433866,-86.2111972
235,Southwest Drive,42164,36.7435681,-86.2111834
253,Southwest Drive,42164,36.7438185,-86.2111462
285,Southwest Drive,42164,36.7441603,-86.2110904
1138,Old Gallatin Road,42164,36.7428375,-86.2034958
126,Holt Drive,42164,36.7387084,-86.2091050
100,Holt Drive,42164,36.7387592,-86.2097511
298,Bluegrass Drive South,42164,36.7683051,-86.1751682
106,West Public Square,42164-1175,36.7530334,-86.1912345
213,East Main Street,42164,36.7532780,-86.1886148
498,Old Gallatin Road,42164,36.7477681,-86.1955330
