House number,Street name,Postal code,Latitude,Longitude
1415,Hugh Avenue,40213,38.1914301,-85.7029937
1417,Hugh Avenue,40213,38.1914434,-85.7027978
1441,Hugh Avenue,40213,38.1916930,-85.7005100
1445,Hugh Avenue,40213,38.1916950,-85.7003569
3904,Produce Road,40218,38.1813098,-85.6868507
3904,Produce Road,40218,38.1814976,-85.6864739
3904,Produce Road,40218,38.1816768,-85.6860896
3904,Produce Road,40218,38.1818437,-85.6857776
4005,Contractors Court,40213,38.1764735,-85.6878520
4018,Contractors Court,40213,38.1762629,-85.6870885
4020,Contractors Court,40213,38.1761637,-85.6869322
4022,Contractors Court,40213,38.1760109,-85.6867456
4123,Bishop Lane,40218,38.1907948,-85.6901405
4200,Produce Road,40218,38.1845088,-85.6814186
4201,Produce Road,40218,38.1856475,-85.6814354
4202,Produce Road,40218,38.1843945,-85.6813089
4203,Produce Road,40218,38.1856920,-85.6813514
4205,Produce Road,40218,38.1857332,-85.6812674
4207,Produce Road,40218,38.1857710,-85.6811834
4209,East Indian Trail,40213,38.1748061,-85.6833841
4209,Produce Road,40218,38.1858222,-85.6811000
4211,East Indian Trail,40213,38.1745195,-85.6825300
4211,Produce Road,40218,38.1858731,-85.6810331
4213,Produce Road,40218,38.1859243,-85.6809493
4215,Produce Road,40218,38.1859756,-85.6808612
4217,Produce Road,40218,38.1860301,-85.6807779
4219,Produce Road,40218,38.1860744,-85.6807148
4221,East Indian Trail,40213,38.1763957,-85.6822900
4223,Produce Road,40218,38.1863687,-85.6809833
4225,Produce Road,40218,38.1863510,-85.6810595
4227,Produce Road,40218,38.1863230,-85.6811647
4229,Produce Road,40218,38.1862985,-85.6812533
4231,Produce Road,40218,38.1862457,-85.6814641
4231,Produce Road,40218,38.1862672,-85.6813502
4233,Produce Road,40218,38.1867370,-85.6812111
4235,Produce Road,40218,38.1866790,-85.6813074
4237,Produce Road,40218,38.1866141,-85.6814205
4251,Produce Road,40218,38.1862826,-85.6803631
4257,Produce Road,40218,38.1863580,-85.6802163
4261,Produce Road,40218,38.1864194,-85.6801162
4263,Produce Road,40218,38.1864774,-85.6800238
4265,Produce Road,40218,38.1865385,-85.6799489
4267,Produce Road,40218,38.1865866,-85.6798398
4269,Produce Road,40218,38.1866246,-85.6797470
4271,Produce Road,40218,38.1868260,-85.6807722
4277,Produce Road,40218,38.1869699,-85.6804871
4279,Produce Road,40218,38.1870247,-85.6803821
4281,Produce Road,40218,38.1870794,-85.6802901
4283,Produce Road,40218,38.1871373,-85.6801981
4300,Chefs Way,40218,38.1849534,-85.6808339
4300,Chefs Way,40218,38.1851580,-85.6804755
4300,Chefs Way,40218,38.1853700,-85.6801082
4300,Chefs Way,40218,38.1856041,-85.6796778
4302,Chefs Way,40218,38.1845374,-85.6791766
4302,Chefs Way,40218,38.1846558,-85.6788527
4413,East Indian Trail,40213,38.1778242,-85.6788507
4415,East Indian Trail,40213,38.1788172,-85.6797248
4439,East Indian Trail,40213,38.1785210,-85.6812359
4649,Jennings Lane,40218,38.1885605,-85.6853191
4727,Poplar Level Road,40213,38.1764002,-85.6879745
4735,Poplar Level Road,40213,38.1755640,-85.6872769
4735,Poplar Level Road,40213,38.1756412,-85.6873237
4735,Poplar Level Road,40213,38.1757183,-85.6873709
4735,Poplar Level Road,40213,38.1758015,-85.6874178
4735,Poplar Level Road,40213,38.1759080,-85.6875108
4735,Poplar Level Road,40213,38.1760233,-85.6875600
4743,Poplar Level Road,40213,38.1754490,-85.6871420
4745,Poplar Level Road,40213,38.1752111,-85.6869810
4805,Poplar Level Road,40213,38.1746730,-85.6867596
4821,Jennings Lane,40218,38.1839606,-85.6805827
4823,Jennings Lane,40218,38.1838284,-85.6804971
4825,Jennings Lane,40218,38.1837039,-85.6803798
4827,Jennings Lane,40218,38.1836082,-85.6803001
4829,Jennings Lane,40218,38.1835035,-85.6802028
4831,Jennings Lane,40218,38.1834108,-85.6801274
4833,Jennings Lane,40218,38.1833153,-85.6800299
4833,Poplar Level Road,40213,38.1730545,-85.6851026
4835,Jennings Lane,40218,38.1832226,-85.6799484
4835,Poplar Level Road,40213,38.1726278,-85.6853855
4835,Poplar Level Road,40213,38.1726538,-85.6853199
4835,Poplar Level Road,40213,38.1726755,-85.6852655
4835,Poplar Level Road,40213,38.1726975,-85.6852095
4835,Poplar Level Road,40213,38.1727200,-85.6851451
4835,Poplar Level Road,40213,38.1727479,-85.6850865
4835,Poplar Level Road,40213,38.1727742,-85.6849987
4835,Poplar Level Road,40213,38.1727863,-85.6849572
4835,Poplar Level Road,40213,38.1728143,-85.6848843
4837,Jennings Lane,40218,38.1831270,-85.6798631
4839,Jennings Lane,40218,38.1830267,-85.6797889
4840,Jennings Lane,40218,38.1794458,-85.6794954
4840,Jennings Lane,40218,38.1803922,-85.6791304
4841,Jennings Lane,40218,38.1829022,-85.6796721
4842,Jennings Lane,40218,38.1802767,-85.6793182
4844,Jennings Lane,40218,38.1801687,-85.6795335
4846,Jennings Lane,40218,38.1800569,-85.6797379
4848,Jennings Lane,40218,38.1799477,-85.6799567
4851,Jennings Lane,40218,38.1821824,-85.6790973
4853,Jennings Lane,40218,38.1820388,-85.6789853
4855,Jennings Lane,40218,38.1818906,-85.6788850
4857,Jennings Lane,40218,38.1817517,-85.6787618
4859,Jennings Lane,40218,38.1815858,-85.6786263
101,Spring Creek Court,40218,38.1942268,-85.6789158
101,Spring Creek Court,40218,38.1942457,-85.6789894
101,Spring Creek Court,40218,38.1942681,-85.6788974
101,Spring Creek Court,40218,38.1942915,-85.6789730
101,Spring Creek Court,40218,38.1943094,-85.6788789
101,Spring Creek Court,40218,38.1943404,-85.6789528
102,Spring Creek Court,40218,38.1937105,-85.6783624
102,Spring Creek Court,40218,38.1937401,-85.6783071
102,Spring Creek Court,40218,38.1937575,-85.6782458
102,Spring Creek Court,40218,38.1937587,-85.6783961
102,Spring Creek Court,40218,38.1937867,-85.6783484
102,Spring Creek Court,40218,38.1938086,-85.6782988
103,Spring Creek Court,40218,38.1940998,-85.6789789
103,Spring Creek Court,40218,38.1941142,-85.6790427
103,Spring Creek Court,40218,38.1941426,-85.6789604
103,Spring Creek Court,40218,38.1941586,-85.6790243
103,Spring Creek Court,40218,38.1941793,-85.6789438
103,Spring Creek Court,40218,38.1941967,-85.6790174
104,Spring Creek Court,40218,38.1936310,-85.6785188
104,Spring Creek Court,40218,38.1936576,-85.6784615
104,Spring Creek Court,40218,38.1936780,-85.6784080
104,Spring Creek Court,40218,38.1936793,-85.6785525
104,Spring Creek Court,40218,38.1937104,-85.6784972
104,Spring Creek Court,40218,38.1937322,-85.6784514
105,Spring Creek Court,40218,38.1939609,-85.6790243
105,Spring Creek Court,40218,38.1939781,-85.6791056
105,Spring Creek Court,40218,38.1939960,-85.6790134
105,Spring Creek Court,40218,38.1940179,-85.6790851
105,Spring Creek Court,40218,38.1940448,-85.6789990
105,Spring Creek Court,40218,38.1940608,-85.6790629
106,Spring Creek Court,40218,38.1935483,-85.6786906
106,Spring Creek Court,40218,38.1935748,-85.6786391
106,Spring Creek Court,40218,38.1935996,-85.6787224
106,Spring Creek Court,40218,38.1936014,-85.6785779
106,Spring Creek Court,40218,38.1936292,-85.6786710
106,Spring Creek Court,40218,38.1936587,-85.6786157
107,Spring Creek Court,40218,38.1938065,-85.6790868
107,Spring Creek Court,40218,38.1938239,-85.6791622
107,Spring Creek Court,40218,38.1938569,-85.6790704
107,Spring Creek Court,40218,38.1938895,-85.6791404
107,Spring Creek Court,40218,38.1939105,-85.6790445
107,Spring Creek Court,40218,38.1939338,-85.6791240
108,Spring Creek Court,40218,38.1934721,-85.6788336
108,Spring Creek Court,40218,38.1935049,-85.6787649
108,Spring Creek Court,40218,38.1935297,-85.6787230
108,Spring Creek Court,40218,38.1935324,-85.6788714
108,Spring Creek Court,40218,38.1935591,-85.6788083
108,Spring Creek Court,40218,38.1935854,-85.6787664
109,Spring Creek Court,40218,38.1936599,-85.6791417
109,Spring Creek Court,40218,38.1936924,-85.6792155
109,Spring Creek Court,40218,38.1937087,-85.6791311
109,Spring Creek Court,40218,38.1937427,-85.6792069
109,Spring Creek Court,40218,38.1937652,-85.6791071
109,Spring Creek Court,40218,38.1937900,-85.6791943
110,Spring Creek Court,40218,38.1933955,-85.6790055
110,Spring Creek Court,40218,38.1934176,-85.6789385
110,Spring Creek Court,40218,38.1934441,-85.6788850
110,Spring Creek Court,40218,38.1934484,-85.6790296
110,Spring Creek Court,40218,38.1934719,-85.6789742
110,Spring Creek Court,40218,38.1934968,-85.6789265
112,Spring Creek Court,40218,38.1933269,-85.6791428
112,Spring Creek Court,40218,38.1933564,-85.6790914
112,Spring Creek Court,40218,38.1933719,-85.6791880
112,Spring Creek Court,40218,38.1933751,-85.6790532
112,Spring Creek Court,40218,38.1934016,-85.6791231
112,Spring Creek Court,40218,38.1934234,-85.6790812
114,Spring Creek Court,40218,38.1932413,-85.6793049
114,Spring Creek Court,40218,38.1932709,-85.6792439
114,Spring Creek Court,40218,38.1932850,-85.6793385
114,Spring Creek Court,40218,38.1932942,-85.6792000
114,Spring Creek Court,40218,38.1933175,-85.6792852
114,Spring Creek Court,40218,38.1933425,-85.6792337
1200,Gardiner Lane,40213,38.1925886,-85.7052952
1391,Gardiner Lane,40213,38.1975048,-85.6988685
1408,Bunton Road,40213,38.1940665,-85.7050491
1410,Bunton Road,40213,38.1942048,-85.7047566
1440,Gardiner Lane,40213,38.1979377,-85.6940250
1448,Gardiner Lane,40213,38.1979225,-85.6930444
1448,Gardiner Lane,40213,38.1979230,-85.6929454
1448,Gardiner Lane,40213,38.1979290,-85.6931578
1448,Gardiner Lane,40213,38.1979331,-85.6932674
1448,Gardiner Lane,40213,38.1979631,-85.6929451
1448,Gardiner Lane,40213,38.1979687,-85.6930428
1448,Gardiner Lane,40213,38.1979735,-85.6931511
1448,Gardiner Lane,40213,38.1979801,-85.6932572
1448,Gardiner Lane,40213,38.1980192,-85.6929448
1448,Gardiner Lane,40213,38.1980217,-85.6930458
1448,Gardiner Lane,40213,38.1980257,-85.6931513
1448,Gardiner Lane,40213,38.1980314,-85.6932549
1450,Gardiner Lane,40213,38.1982361,-85.6925874
1450,Gardiner Lane,40213,38.1982657,-85.6925623
1450,Gardiner Lane,40213,38.1982946,-85.6925452
1450,Gardiner Lane,40213,38.1984966,-85.6925819
1450,Gardiner Lane,40213,38.1985145,-85.6926018
1450,Gardiner Lane,40213,38.1985359,-85.6926279
3321,Red Roof Inn Place,40218,38.1997451,-85.6877304
3323,Red Roof Inn Place,40218,38.1997355,-85.6876436
3325,Red Roof Inn Place,40218,38.1997303,-85.6875743
3327,Red Roof Inn Place,40218,38.1997177,-85.6874875
3329,Red Roof Inn Place,40218,38.1997141,-85.6874065
3331,Red Roof Inn Place,40218,38.1997043,-85.6873350
3412,Robards Court,40218,38.1922342,-85.6957856
3417,Robards Court,40218,38.1928175,-85.6940677
3424,Robards Court,40218,38.1916557,-85.6939927
3426,Robards Court,40218,38.1916457,-85.6938324
3501,Caravan Way,40218,38.1909228,-85.6760125
3503,Caravan Way,40218,38.1908791,-85.6761417
3504,Blue Park Lane,40218,38.1911268,-85.6765737
3505,Caravan Way,40218,38.1908362,-85.6761978
3505,Crossland Way,40218,38.1910838,-85.6763936
3506,Blue Park Lane,40218,38.1910773,-85.6766797
3508,Blue Park Lane,40218,38.1910399,-85.6767821
3509,Crossland Way,40218,38.1910058,-85.6766174
3510,Caravan Way,40218,38.1905209,-85.6763634
3511,Caravan Way,40218,38.1906388,-85.6765758
3512,Caravan Way,40218,38.1904866,-85.6764619
3513,Caravan Way,40218,38.1905863,-85.6766853
3513,Crossland Way,40218,38.1908955,-85.6767679
3514,Blue Park Lane,40218,38.1908889,-85.6770614
3515,Caravan Way,40218,38.1905366,-85.6768026
3516,Blue Park Lane,40218,38.1908398,-85.6771409
3516,Caravan Way,40218,38.1903818,-85.6766548
3518,Blue Park Lane,40218,38.1908051,-85.6772659
3519,Caravan Way,40218,38.1904224,-85.6770257
3520,Caravan Way,40218,38.1902921,-85.6768435
3521,Crossland Way,40218,38.1907133,-85.6771306
3523,Blue Park Lane,40218,38.1909225,-85.6775162
3523,Caravan Way,40218,38.1903267,-85.6772148
3525,Blue Park Lane,40218,38.1908850,-85.6776303
3527,Bluegrass Park Drive,40218,38.1906660,-85.6758243
3527,Caravan Way,40218,38.1902338,-85.6774226
3528,Caravan Way,40218,38.1901097,-85.6772292
3528,Crossland Way,40218,38.1904373,-85.6772857
3528,Fleetwood Drive,40218,38.1906078,-85.6786170
3529,Caravan Way,40218,38.1901906,-85.6775057
3530,Crossland Way,40218,38.1903974,-85.6773497
3531,Crossland Way,40218,38.1904903,-85.6776299
3534,Blue Park Lane,40218,38.1904223,-85.6780218
3535,Bluegrass Park Drive,40218,38.1904806,-85.6762061
3537,Bluegrass Park Drive,40218,38.1904195,-85.6762814
3537,Crossland Way,40218,38.1903485,-85.6779020
3541,Blue Park Lane,40218,38.1904682,-85.6784503
3541,Bluegrass Park Drive,40218,38.1903206,-85.6764857
3541,Crossland Way,40218,38.1902589,-85.6780834
3542,Blue Park Lane,40218,38.1902398,-85.6784114
3542,Crossland Way,40218,38.1900761,-85.6780072
3543,Bluegrass Park Drive,40218,38.1902892,-85.6765916
3544,Crossland Way,40218,38.1900180,-85.6780787
4008,Champions Trace Lane,40218,38.1923800,-85.6854833
4010,Champions Trace Lane,40218,38.1923539,-85.6852370
4100,Eastmoor Road,40218,38.1942791,-85.6833312
4100,Eastmoor Road,40218,38.1945061,-85.6833055
4100,Eastmoor Road,40218,38.1946802,-85.6832761
4200,Bishop Lane,40218,38.2005774,-85.6866279
4208,Bishop Lane,40218,38.2005346,-85.6866371
4210,Bishop Lane,40218,38.2003677,-85.6867090
4210,Gardiner View Avenue,40213,38.1965036,-85.7034910
4212,Bishop Lane,40218,38.2002648,-85.6867340
4214,Bishop Lane,40218,38.2001618,-85.6867633
4216,Bishop Lane,40218,38.2000803,-85.6867843
4218,Bishop Lane,40218,38.2000165,-85.6867874
4220,Bishop Lane,40218,38.1999633,-85.6868041
4222,Bishop Lane,40218,38.1999908,-85.6868678
4240,Regina Avenue,40213,38.1962669,-85.7029695
4300,Champions Trace Lane,40218,38.1918905,-85.6788458
4314,Bishop Lane,40218,38.1987654,-85.6874552
4314,Bishop Lane,40218,38.1987842,-85.6874521
4314,Bishop Lane,40218,38.1987859,-85.6873999
4314,Bishop Lane,40218,38.1987869,-85.6875944
4314,Bishop Lane,40218,38.1987908,-85.6874979
4314,Bishop Lane,40218,38.1988007,-85.6877247
4314,Bishop Lane,40218,38.1988015,-85.6873967
4314,Bishop Lane,40218,38.1988019,-85.6876295
4314,Bishop Lane,40218,38.1988041,-85.6874485
4314,Bishop Lane,40218,38.1988069,-85.6875347
4314,Bishop Lane,40218,38.1988074,-85.6874952
4314,Bishop Lane,40218,38.1988090,-85.6875913
4314,Bishop Lane,40218,38.1988125,-85.6877567
4314,Bishop Lane,40218,38.1988169,-85.6873975
4314,Bishop Lane,40218,38.1988191,-85.6876263
4314,Bishop Lane,40218,38.1988229,-85.6877204
4314,Bishop Lane,40218,38.1988246,-85.6875329
4314,Bishop Lane,40218,38.1988257,-85.6874446
4314,Bishop Lane,40218,38.1988257,-85.6874938
4314,Bishop Lane,40218,38.1988307,-85.6877540
4314,Bishop Lane,40218,38.1988333,-85.6875883
4314,Bishop Lane,40218,38.1988341,-85.6873943
4314,Bishop Lane,40218,38.1988373,-85.6876228
4314,Bishop Lane,40218,38.1988417,-85.6877177
4314,Bishop Lane,40218,38.1988418,-85.6875311
4314,Bishop Lane,40218,38.1988445,-85.6874411
4314,Bishop Lane,40218,38.1988490,-85.6877509
4314,Bishop Lane,40218,38.1988495,-85.6874890
4314,Bishop Lane,40218,38.1988523,-85.6873921
4314,Bishop Lane,40218,38.1988578,-85.6876197
4314,Bishop Lane,40218,38.1988582,-85.6875845
4314,Bishop Lane,40218,38.1988605,-85.6877142
4314,Bishop Lane,40218,38.1988617,-85.6875284
4314,Bishop Lane,40218,38.1988672,-85.6874376
4314,Bishop Lane,40218,38.1988677,-85.6874868
4314,Bishop Lane,40218,38.1988700,-85.6877470
4314,Bishop Lane,40218,38.1988728,-85.6873890
4314,Bishop Lane,40218,38.1988804,-85.6877102
4314,Bishop Lane,40218,38.1988805,-85.6875271
4314,Bishop Lane,40218,38.1988816,-85.6876150
4314,Bishop Lane,40218,38.1988825,-85.6875823
4314,Bishop Lane,40218,38.1988871,-85.6874850
4314,Bishop Lane,40218,38.1988894,-85.6874341
4314,Bishop Lane,40218,38.1988894,-85.6877426
4314,Bishop Lane,40218,38.1988955,-85.6873864
4314,Bishop Lane,40218,38.1988993,-85.6877071
4314,Bishop Lane,40218,38.1988998,-85.6875253
4314,Bishop Lane,40218,38.1989030,-85.6875797
4314,Bishop Lane,40218,38.1989032,-85.6876093
4314,Bishop Lane,40218,38.1989077,-85.6877381
4314,Bishop Lane,40218,38.1989092,-85.6874828
4314,Bishop Lane,40218,38.1989098,-85.6874302
4314,Bishop Lane,40218,38.1989154,-85.6873816
4314,Bishop Lane,40218,38.1989192,-85.6877027
4314,Bishop Lane,40218,38.1989231,-85.6875222
4314,Bishop Lane,40218,38.1989276,-85.6876037
4314,Bishop Lane,40218,38.1989285,-85.6874797
4314,Bishop Lane,40218,38.1989285,-85.6875754
4314,Bishop Lane,40218,38.1989304,-85.6877338
4314,Bishop Lane,40218,38.1989325,-85.6874263
4314,Bishop Lane,40218,38.1989392,-85.6873799
4314,Bishop Lane,40218,38.1989396,-85.6876996
4314,Bishop Lane,40218,38.1989424,-85.6875205
4314,Bishop Lane,40218,38.1989479,-85.6874779
4314,Bishop Lane,40218,38.1989508,-85.6875998
4314,Bishop Lane,40218,38.1989513,-85.6874241
4314,Bishop Lane,40218,38.1989612,-85.6875187
4314,Bishop Lane,40218,38.1989630,-85.6873769
4314,Bishop Lane,40218,38.1989689,-85.6874749
4314,Bishop Lane,40218,38.1989740,-85.6874223
4314,Bishop Lane,40218,38.1989817,-85.6875164
4314,Bishop Lane,40218,38.1989862,-85.6873756
4314,Bishop Lane,40218,38.1989899,-85.6874722
4314,Bishop Lane,40218,38.1989994,-85.6874207
4314,Bishop Lane,40218,38.1990005,-85.6875138
4314,Bishop Lane,40218,38.1990077,-85.6873743
4314,Bishop Lane,40218,38.1990099,-85.6874670
4314,Bishop Lane,40218,38.1990187,-85.6875115
4314,Bishop Lane,40218,38.1990237,-85.6874172
4314,Bishop Lane,40218,38.1990303,-85.6874656
4314,Bishop Lane,40218,38.1990331,-85.6873730
4314,Bishop Lane,40218,38.1990381,-85.6875084
4314,Bishop Lane,40218,38.1990442,-85.6874155
4314,Bishop Lane,40218,38.1990497,-85.6874608
4314,Bishop Lane,40218,38.1990541,-85.6873721
4314,Bishop Lane,40218,38.1990558,-85.6875057
4314,Bishop Lane,40218,38.1990636,-85.6874137
4314,Bishop Lane,40218,38.1990680,-85.6874577
4314,Bishop Lane,40218,38.1990762,-85.6875044
4324,Bishop Lane,40218,38.1977743,-85.6869240
4325,Robards Lane,40218,38.1973870,-85.6908628
4325,Robards Lane,40218,38.1976884,-85.6907883
4326,Bishop Lane,40218,38.1976734,-85.6869342
4330,Champions Trace Lane,40218,38.1920827,-85.6783476
4330,Robards Lane,40218,38.1973812,-85.6922930
4343,Poplar Level Road,40213,38.1926233,-85.7055498
4399,Poplar Level Road,40213,38.1930722,-85.7032262
4400,Kiln Court,40218,38.1921763,-85.6851943
4401,Bishop Lane,40218,38.1973171,-85.6845502
4401,Kiln Court,40218,38.1923062,-85.6842578
4402,Kiln Court,40218,38.1919753,-85.6852111
4403,Kiln Court,40218,38.1920520,-85.6842862
4405,Kiln Court,40218,38.1918003,-85.6843217
4421,Kiln Court,40218,38.1912842,-85.6845730
4422,Kiln Court,40218,38.1913372,-85.6858572
4423,Kiln Court,40218,38.1912650,-85.6844116
4424,Kiln Court,40218,38.1913303,-85.6857735
4425,Kiln Court,40218,38.1912537,-85.6842574
4426,Kiln Court,40218,38.1913262,-85.6856695
4427,Kiln Court,40218,38.1912397,-85.6841062
4428,Kiln Court,40218,38.1913147,-85.6855349
4429,Kiln Court,40218,38.1912289,-85.6839116
4430,Kiln Court,40218,38.1913030,-85.6854111
4431,Kiln Court,40218,38.1912152,-85.6837338
4432,Kiln Court,40218,38.1912986,-85.6853371
4433,Kiln Court,40218,38.1907542,-85.6850331
4434,Kiln Court,40218,38.1912916,-85.6852630
4435,Kiln Court,40218,38.1907202,-85.6848968
4436,Kiln Court,40218,38.1912923,-85.6852064
4437,Kiln Court,40218,38.1907396,-85.6846827
4437,Robards Lane,40218,38.1941062,-85.6912941
4439,Kiln Court,40218,38.1907189,-85.6844278
4440,Kiln Court,40218,38.1908309,-85.6859511
4441,Kiln Court,40218,38.1907012,-85.6841526
4442,Kiln Court,40218,38.1908190,-85.6858435
4444,Kiln Court,40218,38.1908097,-85.6857428
4446,Kiln Court,40218,38.1908003,-85.6856456
4448,Kiln Court,40218,38.1907908,-85.6855550
4449,Robards Lane,40218,38.1934931,-85.6894210
4450,Kiln Court,40218,38.1907840,-85.6854678
4452,Kiln Court,40218,38.1907771,-85.6853803
4454,Kiln Court,40218,38.1907729,-85.6852967
4456,Kiln Court,40218,38.1907660,-85.6852061
4500,Conaem Drive,40213,38.1929490,-85.6990966
4500,Robards Lane,40218,38.1933769,-85.6932797
4522,Bishop Lane,40218,38.1929803,-85.6883438
4580,Conaem Drive,40213,38.1922926,-85.6992805
3430,Newburg Road,40218,38.1945520,-85.6794479
1403,Hugh Avenue,40213,38.1912005,-85.7041967
1405,Hugh Avenue,40213,38.1913368,-85.7037268
1407,Hugh Avenue,40213,38.1913275,-85.7034877
1413,Hugh Avenue,40213,38.1914836,-85.7032267
1433,Hugh Avenue,40213,38.1916735,-85.7015624
1435,Hugh Avenue,40213,38.1916774,-85.7012912
1447,Hugh Avenue,40213,38.1917181,-85.7001720
1455,Hugh Avenue,40213,38.1914768,-85.6996984
3900,Produce Road,40218,38.1799281,-85.6890059
3906,Produce Road,40218,38.1825473,-85.6841787
3908,Produce Road,40218,38.1805274,-85.6863418
4007,Contractors Court,40213,38.1765672,-85.6875759
4009,Contractors Court,40213,38.1766524,-85.6873691
4013,Contractors Court,40213,38.1766702,-85.6871481
4015,Contractors Court,40213,38.1767080,-85.6868770
4021,Contractors Court,40213,38.1765035,-85.6865111
4022,Produce Road,40218,38.1834663,-85.6828963
4024,Produce Road,40218,38.1834370,-85.6825248
4026,Produce Road,40218,38.1838581,-85.6825914
4105,East Indian Trail,40213,38.1720153,-85.6844436
4107,East Indian Trail,40213,38.1721071,-85.6842199
4109,East Indian Trail,40213,38.1723693,-85.6844512
4111,East Indian Trail,40213,38.1722581,-85.6839660
4115,East Indian Trail,40213,38.1726579,-85.6839928
4119,East Indian Trail,40213,38.1727400,-85.6836771
4121,Bishop Lane,40218,38.1904937,-85.6908188
4123,East Indian Trail,40213,38.1729339,-85.6833552
4127,East Indian Trail,40213,38.1732027,-85.6832227
4131,East Indian Trail,40213,38.1733564,-85.6828916
4140,Bishop Lane,40218,38.1905982,-85.6886635
4201,East Indian Trail,40213,38.1735627,-85.6827585
4207,East Indian Trail,40213,38.1748388,-85.6841509
4213,East Indian Trail,40213,38.1744740,-85.6820283
4215,East Indian Trail,40213,38.1745715,-85.6819112
4217,East Indian Trail,40213,38.1747986,-85.6821085
4300,Produce Road,40218,38.1863049,-85.6779503
4301,Chefs Way,40218,38.1854089,-85.6773112
4301,Produce Road,40218,38.1881241,-85.6792984
4400,Produce Road,40218,38.1864319,-85.6755156
4401,Produce Road,40218,38.1893936,-85.6777338
4441,Produce Road,40218,38.1882960,-85.6767165
4500,Produce Road,40218,38.1875776,-85.6740288
4501,East Indian Trail,40213,38.1786254,-85.6779864
4505,Produce Road,40218,38.1888070,-85.6758616
4515,Produce Road,40218,38.1890971,-85.6752311
4517,Produce Road,40218,38.1892747,-85.6748106
4600,Jennings Lane,40218,38.1904371,-85.6878702
4601,East Indian Trail,40213,38.1796928,-85.6767672
4601,Jennings Lane,40218,38.1890648,-85.6844978
4601,Jennings Lane,40218,38.1897559,-85.6843929
4701,Jennings Lane,40218,38.1873459,-85.6833141
4705,Jennings Lane,40218,38.1868650,-85.6831303
4717,Poplar Level Road,40213,38.1771539,-85.6885982
4719,Poplar Level Road,40213,38.1770362,-85.6882660
4725,Poplar Level Road,40213,38.1768400,-85.6879354
4801,Poplar Level Road,40213,38.1750704,-85.6868492
4805,Poplar Level Road,40213,38.1756233,-85.6859334
4809,Jennings Lane,40218,38.1841476,-85.6810986
4809,Poplar Level Road,40213,38.1752227,-85.6851527
4815,Poplar Level Road,40213,38.1744153,-85.6860518
4819,Poplar Level Road,40213,38.1738511,-85.6861932
4820,Jennings Lane,40218,38.1831272,-85.6814835
4823,Poplar Level Road,40213,38.1734690,-85.6859736
4829,Poplar Level Road,40213,38.1730347,-85.6856157
4830,Jennings Lane,40218,38.1807484,-85.6802205
4839,Poplar Level Road,40213,38.1724894,-85.6850323
4843,Poplar Level Road,40213,38.1724149,-85.6847476
4845,Poplar Level Road,40213,38.1720378,-85.6848663
4205,East Indian Trail,40213,38.1739496,-85.6826953
4500,Annshire Avenue,40213,38.1933408,-85.7002324
4204,Gardiner View Avenue,40213,38.1964435,-85.7042594
3430,Newburg Road,40218,38.1945231,-85.6797459
1200,Hodel Road,40213,38.1920396,-85.7044650
1201,Hodel Road,40213,38.1925458,-85.7049583
1218,Gardiner Lane,40213,38.1929353,-85.7046441
1220,Gardiner Lane,40213,38.1932073,-85.7044659
1224,Gardiner Lane,40213,38.1932666,-85.7041633
1225,Gardiner Lane,40213,38.1939857,-85.7043767
1234,Gardiner Lane,40213,38.1930663,-85.7018836
1235,Gardiner Lane,40213,38.1943660,-85.7043458
1238,Gardiner Lane,40213,38.1920842,-85.7011150
1300,Gardiner Lane,40213,38.1945238,-85.7033976
1301,Gardiner Lane,40213,38.1954512,-85.7041656
1356,Gardiner Lane,40213,38.1964963,-85.7022918
1357,Gardiner Lane,40213,38.1979757,-85.7020739
1358,Gardiner Lane,40213,38.1965273,-85.7019595
1360,Gardiner Lane,40213,38.1965373,-85.7016550
1363,Gardiner Lane,40213,38.1970883,-85.7009966
1365,Gardiner Lane,40213,38.1970595,-85.7005221
1367,Gardiner Lane,40213,38.1974795,-85.6999278
1370,Gardiner Lane,40213,38.1965193,-85.7009384
1372,Gardiner Lane,40213,38.1965311,-85.7006296
1380,Gardiner Lane,40213,38.1964859,-85.6999342
1382,Gardiner Lane,40213,38.1965260,-85.6997115
1384,Gardiner Lane,40213,38.1965459,-85.6994763
1386,Gardiner Lane,40213,38.1965358,-85.6992091
1400,Gardiner Lane,40213,38.1965303,-85.6985694
1404,Bunton Road,40213,38.1939181,-85.7054500
1410,Gardiner Lane,40213,38.1961031,-85.6979016
1438,Gardiner Lane,40213,38.1978341,-85.6943203
1442,Gardiner Lane,40213,38.1980971,-85.6938785
1444,Gardiner Lane,40213,38.1982637,-85.6935886
1446,Gardiner Lane,40213,38.1984468,-85.6933157
1501,Gardiner Lane,40218,38.2003137,-85.6903085
1507,Gardiner Lane,40218,38.1991723,-85.6896905
1516,Gardiner Lane,40218,38.1978507,-85.6884700
1519,Gardiner Lane,40218,38.1982056,-85.6878707
1700,Larkmoor Lane,40218,38.1937640,-85.6816300
1701,Larkmoor Lane,40218,38.1938188,-85.6822617
1702,Larkmoor Lane,40218,38.1939416,-85.6816264
1703,Larkmoor Lane,40218,38.1939947,-85.6822135
1704,Larkmoor Lane,40218,38.1941073,-85.6816034
1705,Larkmoor Lane,40218,38.1941471,-85.6822052
1706,Larkmoor Lane,40218,38.1942706,-85.6815929
1707,Larkmoor Lane,40218,38.1943122,-85.6821779
1708,Larkmoor Lane,40218,38.1944342,-85.6815419
1709,Larkmoor Lane,40218,38.1944768,-85.6821674
1710,Larkmoor Lane,40218,38.1945983,-85.6815247
1711,Larkmoor Lane,40218,38.1946642,-85.6821518
1712,Larkmoor Lane,40218,38.1947665,-85.6815205
1713,Larkmoor Lane,40218,38.1948025,-85.6821036
1714,Larkmoor Lane,40218,38.1949544,-85.6814923
1715,Larkmoor Lane,40218,38.1949668,-85.6820868
1716,Larkmoor Lane,40218,38.1951158,-85.6814643
1717,Larkmoor Lane,40218,38.1951452,-85.6821531
1718,Larkmoor Lane,40218,38.1952729,-85.6815103
1719,Larkmoor Lane,40218,38.1953273,-85.6821450
1720,Larkmoor Lane,40218,38.1954418,-85.6815294
1721,Larkmoor Lane,40218,38.1955302,-85.6821667
1722,Larkmoor Lane,40218,38.1956735,-85.6815475
1723,Larkmoor Lane,40218,38.1957561,-85.6820997
1724,Larkmoor Lane,40218,38.1958620,-85.6815180
1725,Larkmoor Lane,40218,38.1959659,-85.6820872
1726,Larkmoor Lane,40218,38.1960729,-85.6814866
1727,Larkmoor Lane,40218,38.1961865,-85.6820479
1728,Larkmoor Lane,40218,38.1963471,-85.6814170
1729,Larkmoor Lane,40218,38.1963881,-85.6820271
1731,Larkmoor Lane,40218,38.1966210,-85.6819854
1733,Larkmoor Lane,40218,38.1968846,-85.6819949
1735,Larkmoor Lane,40218,38.1972387,-85.6820130
3001,Stober Road,40213,38.1920620,-85.7035212
3103,Stober Road,40213,38.1922357,-85.7026439
3111,Stober Road,40213,38.1921093,-85.7022089
3303,Vineyard Drive,40213,38.1947657,-85.6996857
3340,Newburg Road,40218,38.1987580,-85.6842163
3350,Newburg Road,40218,38.1985069,-85.6836328
3352,Newburg Road,40218,38.1983850,-85.6834458
3354,Newburg Road,40218,38.1982209,-85.6832763
3356,Newburg Road,40218,38.1980553,-85.6831046
3358,Newburg Road,40218,38.1979332,-85.6829201
3360,Newburg Road,40218,38.1977504,-85.6827484
3362,Newburg Road,40218,38.1976208,-85.6825848
3364,Newburg Road,40218,38.1974382,-85.6823810
3400,Robards Court,40218,38.1931611,-85.6976825
3402,Newburg Road,40218,38.1967171,-85.6813859
3403,Vineyard Drive,40213,38.1947659,-85.6985537
3405,Robards Court,40218,38.1932582,-85.6964247
3410,Robards Court,40218,38.1921676,-85.6965781
3411,Robards Court,40218,38.1932577,-85.6954989
3416,Newburg Road,40218,38.1935538,-85.6809813
3416,Robards Court,40218,38.1919065,-85.6948917
3440,Newburg Road,40218,38.1941934,-85.6783889
3450,Newburg Road,40218,38.1932691,-85.6773513
3452,Newburg Road,40218,38.1931667,-85.6771820
3454,Newburg Road,40218,38.1930275,-85.6770231
3456,Newburg Road,40218,38.1928979,-85.6768682
3458,Newburg Road,40218,38.1927643,-85.6767142
3460,Newburg Road,40218,38.1926360,-85.6765671
3462,Newburg Road,40218,38.1925005,-85.6763983
3464,Newburg Road,40218,38.1923757,-85.6762551
3500,Blue Park Lane,40218,38.1912249,-85.6763818
3500,Caravan Way,40218,38.1907499,-85.6758837
3500,Crossland Way,40218,38.1909809,-85.6761776
3500,Fleetwood Drive,40218,38.1916272,-85.6765495
3500,Newburg Road,40218,38.1920278,-85.6759595
3501,Blue Park Lane,40218,38.1914982,-85.6763974
3501,Crossland Way,40218,38.1911911,-85.6762128
3501,Fleetwood Drive,40218,38.1917693,-85.6767053
3502,Blue Park Lane,40218,38.1911826,-85.6764852
3502,Caravan Way,40218,38.1907018,-85.6759743
3502,Crossland Way,40218,38.1909187,-85.6762674
3502,Fleetwood Drive,40218,38.1915602,-85.6767045
3502,Newburg Road,40218,38.1918754,-85.6757856
3503,Blue Park Lane,40218,38.1914319,-85.6764977
3503,Crossland Way,40218,38.1911388,-85.6762918
3503,Fleetwood Drive,40218,38.1918509,-85.6767617
3504,Caravan Way,40218,38.1906568,-85.6760369
3504,Crossland Way,40218,38.1908755,-85.6763640
3504,Fleetwood Drive,40218,38.1914795,-85.6768348
3505,Blue Park Lane,40218,38.1913945,-85.6766011
3505,Fleetwood Drive,40218,38.1916255,-85.6769805
3506,Caravan Way,40218,38.1906127,-85.6761623
3506,Crossland Way,40218,38.1908289,-85.6764602
3506,Fleetwood Drive,40218,38.1914025,-85.6770006
3506,Newburg Road,40218,38.1917349,-85.6756236
3507,Blue Park Lane,40218,38.1913350,-85.6767136
3507,Caravan Way,40218,38.1907837,-85.6763019
3507,Crossland Way,40218,38.1910444,-85.6764954
3507,Fleetwood Drive,40218,38.1917102,-85.6770360
3508,Caravan Way,40218,38.1905702,-85.6762609
3508,Fleetwood Drive,40218,38.1913347,-85.6771364
3508,Newburg Road,40218,38.1915798,-85.6754264
3509,Blue Park Lane,40218,38.1912842,-85.6768012
3509,Caravan Way,40218,38.1907395,-85.6763827
3509,Fleetwood Drive,40218,38.1915161,-85.6772060
3510,Blue Park Lane,40218,38.1909864,-85.6768806
3510,Bluegrass Park Drive,40218,38.1912705,-85.6758979
3510,Fleetwood Drive,40218,38.1912589,-85.6772802
3511,Blue Park Lane,40218,38.1912334,-85.6769021
3511,Crossland Way,40218,38.1909461,-85.6766836
3511,Fleetwood Drive,40218,38.1915982,-85.6772616
3512,Blue Park Lane,40218,38.1909380,-85.6769718
3512,Bluegrass Park Drive,40218,38.1911663,-85.6757872
3512,Fleetwood Drive,40218,38.1911885,-85.6774331
3513,Blue Park Lane,40218,38.1911808,-85.6770118
3513,Fleetwood Drive,40218,38.1913703,-85.6775008
3514,Bluegrass Park Drive,40218,38.1910831,-85.6756874
3514,Caravan Way,40218,38.1904383,-85.6765510
3514,Crossland Way,40218,38.1907477,-85.6766351
3514,Fleetwood Drive,40218,38.1911154,-85.6775721
3515,Blue Park Lane,40218,38.1911398,-85.6771159
3515,Crossland Way,40218,38.1908508,-85.6768695
3515,Fleetwood Drive,40218,38.1914421,-85.6775689
3516,Bluegrass Park Drive,40218,38.1910102,-85.6756349
3516,Fleetwood Drive,40218,38.1910550,-85.6777529
3516,Newburg Road,40218,38.1906665,-85.6746613
3517,Blue Park Lane,40218,38.1910803,-85.6772177
3517,Caravan Way,40218,38.1904703,-85.6769310
3517,Crossland Way,40218,38.1908105,-85.6769688
3517,Fleetwood Drive,40218,38.1912568,-85.6777322
3518,Bluegrass Park Drive,40218,38.1909521,-85.6755706
3518,Caravan Way,40218,38.1903380,-85.6767445
3518,Crossland Way,40218,38.1906724,-85.6768015
3518,Fleetwood Drive,40218,38.1909715,-85.6778676
3519,Blue Park Lane,40218,38.1910280,-85.6773207
3519,Crossland Way,40218,38.1907726,-85.6770730
3519,Fleetwood Drive,40218,38.1913311,-85.6778098
3520,Blue Park Lane,40218,38.1907477,-85.6773464
3520,Bluegrass Park Drive,40218,38.1908880,-85.6755507
3520,Crossland Way,40218,38.1906230,-85.6769089
3520,Fleetwood Drive,40218,38.1909060,-85.6780186
3528,Newburg Road,40218,38.1903809,-85.6753587
3521,Blue Park Lane,40218,38.1909797,-85.6774195
3521,Caravan Way,40218,38.1903750,-85.6771163
3521,Fleetwood Drive,40218,38.1911174,-85.6780203
3522,Blue Park Lane,40218,38.1907085,-85.6774653
3522,Bluegrass Park Drive,40218,38.1908167,-85.6755057
3522,Caravan Way,40218,38.1902496,-85.6769335
3522,Crossland Way,40218,38.1905672,-85.6770032
3522,Fleetwood Drive,40218,38.1908280,-85.6781652
3523,Crossland Way,40218,38.1906773,-85.6772700
3523,Fleetwood Drive,40218,38.1911903,-85.6781007
3524,Blue Park Lane,40218,38.1906509,-85.6775525
3524,Bluegrass Park Drive,40218,38.1907635,-85.6754808
3524,Caravan Way,40218,38.1902056,-85.6770264
3524,Crossland Way,40218,38.1905323,-85.6770890
3524,Fleetwood Drive,40218,38.1907574,-85.6783271
3524,Newburg Road,40218,38.1902153,-85.6740377
3525,Caravan Way,40218,38.1902830,-85.6773122
3525,Crossland Way,40218,38.1906249,-85.6773431
3525,Fleetwood Drive,40218,38.1910053,-85.6782477
3526,Blue Park Lane,40218,38.1906111,-85.6776431
3526,Caravan Way,40218,38.1901525,-85.6771188
3526,Crossland Way,40218,38.1904717,-85.6771749
3526,Fleetwood Drive,40218,38.1906884,-85.6784624
3526,Newburg Road,40218,38.1898906,-85.6745613
3527,Blue Park Lane,40218,38.1908350,-85.6777413
3527,Crossland Way,40218,38.1905737,-85.6774342
3527,Fleetwood Drive,40218,38.1910844,-85.6783059
3528,Blue Park Lane,40218,38.1905596,-85.6777335
3529,Blue Park Lane,40218,38.1907778,-85.6778322
3529,Bluegrass Park Drive,40218,38.1906159,-85.6759037
3529,Crossland Way,40218,38.1905297,-85.6775414
3529,Fleetwood Drive,40218,38.1908475,-85.6785623
3530,Blue Park Lane,40218,38.1905154,-85.6778275
3530,Caravan Way,40218,38.1900594,-85.6773144
3530,Fleetwood Drive,40218,38.1905446,-85.6787773
3531,Blue Park Lane,40218,38.1907340,-85.6779394
3531,Bluegrass Park Drive,40218,38.1905593,-85.6759927
3531,Fleetwood Drive,40218,38.1909367,-85.6786154
3532,Blue Park Lane,40218,38.1904658,-85.6779172
3532,Caravan Way,40218,38.1900215,-85.6774139
3532,Crossland Way,40218,38.1903376,-85.6774811
3532,Fleetwood Drive,40218,38.1904658,-85.6789070
3533,Blue Park Lane,40218,38.1906790,-85.6780429
3533,Bluegrass Park Drive,40218,38.1905141,-85.6760831
3533,Crossland Way,40218,38.1904314,-85.6777245
3533,Fleetwood Drive,40218,38.1907463,-85.6787707
3534,Caravan Way,40218,38.1899681,-85.6775033
3534,Crossland Way,40218,38.1902915,-85.6775793
3534,Fleetwood Drive,40218,38.1903978,-85.6790590
3535,Blue Park Lane,40218,38.1906274,-85.6781439
3535,Caravan Way,40218,38.1900158,-85.6778779
3535,Crossland Way,40218,38.1903937,-85.6778157
3535,Fleetwood Drive,40218,38.1908286,-85.6788276
3536,Blue Park Lane,40218,38.1903715,-85.6781065
3536,Crossland Way,40218,38.1902107,-85.6777118
3536,Fleetwood Drive,40218,38.1903263,-85.6791958
3537,Blue Park Lane,40218,38.1905768,-85.6782570
3537,Fleetwood Drive,40218,38.1905934,-85.6790860
3538,Blue Park Lane,40218,38.1903278,-85.6782144
3538,Fleetwood Drive,40218,38.1902450,-85.6793363
3539,Blue Park Lane,40218,38.1905256,-85.6783528
3539,Bluegrass Park Drive,40218,38.1903799,-85.6763834
3539,Crossland Way,40218,38.1903007,-85.6780107
3539,Fleetwood Drive,40218,38.1906774,-85.6791374
3540,Blue Park Lane,40218,38.1902794,-85.6782955
3540,Crossland Way,40218,38.1901447,-85.6778442
3540,Fleetwood Drive,40218,38.1901820,-85.6794797
3541,Fleetwood Drive,40218,38.1904918,-85.6793026
3543,Blue Park Lane,40218,38.1904236,-85.6785620
3543,Crossland Way,40218,38.1902019,-85.6781940
3543,Fleetwood Drive,40218,38.1905830,-85.6793594
3544,Blue Park Lane,40218,38.1901991,-85.6785025
3545,Blue Park Lane,40218,38.1903749,-85.6786682
3545,Bluegrass Park Drive,40218,38.1902334,-85.6766607
3545,Crossland Way,40218,38.1901635,-85.6782964
3545,Fleetwood Drive,40218,38.1903425,-85.6795946
3546,Blue Park Lane,40218,38.1901463,-85.6786001
3547,Blue Park Lane,40218,38.1903214,-85.6787648
3547,Bluegrass Park Drive,40218,38.1901968,-85.6767595
3547,Crossland Way,40218,38.1901061,-85.6783911
3547,Fleetwood Drive,40218,38.1904256,-85.6796547
3548,Blue Park Lane,40218,38.1900921,-85.6786992
3549,Blue Park Lane,40218,38.1902684,-85.6788689
3549,Bluegrass Park Drive,40218,38.1901453,-85.6768518
3549,Crossland Way,40218,38.1900745,-85.6784905
3549,Fleetwood Drive,40218,38.1902202,-85.6798439
3551,Blue Park Lane,40218,38.1902217,-85.6789698
3551,Bluegrass Park Drive,40218,38.1901072,-85.6769656
3551,Fleetwood Drive,40218,38.1903140,-85.6798743
3553,Blue Park Lane,40218,38.1901762,-85.6790831
3553,Bluegrass Park Drive,40218,38.1900519,-85.6770396
3555,Blue Park Lane,40218,38.1901227,-85.6792515
3555,Bluegrass Park Drive,40218,38.1900011,-85.6771299
3557,Bluegrass Park Drive,40218,38.1899477,-85.6772172
3900,Classified Place,40218,38.1992060,-85.6873768
3902,Bantam Court,40218,38.1928898,-85.6779602
3903,Atkinson Square Drive,40218,38.1995949,-85.6882626
3903,Bantam Court,40218,38.1931454,-85.6776103
3904,Bantam Court,40218,38.1927550,-85.6778081
3905,Bantam Court,40218,38.1930161,-85.6774482
3906,Bantam Court,40218,38.1926250,-85.6776462
3907,Bantam Court,40218,38.1928779,-85.6773037
3908,Bantam Court,40218,38.1924870,-85.6774966
3909,Bantam Court,40218,38.1927332,-85.6771209
3910,Bantam Court,40218,38.1923579,-85.6773352
3911,Bantam Court,40218,38.1926189,-85.6769778
3912,Bantam Court,40218,38.1921837,-85.6772266
3913,Bantam Court,40218,38.1924875,-85.6767629
3914,Bantam Court,40218,38.1921019,-85.6769630
3915,Bantam Court,40218,38.1923045,-85.6766810
3916,Bantam Court,40218,38.1921684,-85.6767713
4000,Radio Drive,40218,38.1961437,-85.6852316
4011,Gardiner Point Drive,40213,38.1995825,-85.6918459
4104,Eastmoor Road,40218,38.1954703,-85.6843333
4106,Eastmoor Road,40218,38.1957494,-85.6838796
4110,Eastmoor Road,40218,38.1953157,-85.6830765
4111,Champions Trace Lane,40218,38.1932329,-85.6824410
4200,Bunton Court,40213,38.1951562,-85.7056091
4200,Champions Trace Lane,40218,38.1916817,-85.6813767
4200,Gardiner View Avenue,40213,38.1959268,-85.7047054
4201,Champions Trace Lane,40218,38.1926700,-85.6813370
4202,Bunton Court,40213,38.1947069,-85.7052522
4203,Bunton Court,40213,38.1958983,-85.7052533
4205,Bunton Court,40213,38.1954353,-85.7049191
4207,Bunton Court,40213,38.1950143,-85.7046930
4209,Gardiner View Avenue,40213,38.1978237,-85.7031692
4239,Regina Avenue,40213,38.1962738,-85.7023123
4241,Regina Avenue,40213,38.1961089,-85.7023124
4242,Regina Avenue,40213,38.1960978,-85.7029140
4243,Regina Avenue,40213,38.1959437,-85.7023097
4244,Regina Avenue,40213,38.1959202,-85.7029000
4245,Regina Avenue,40213,38.1957781,-85.7023198
4246,Regina Avenue,40213,38.1957402,-85.7029020
4247,Regina Avenue,40213,38.1955984,-85.7023130
4248,Regina Avenue,40213,38.1955648,-85.7029047
4249,Regina Avenue,40213,38.1954081,-85.7022793
4250,Regina Avenue,40213,38.1953980,-85.7028951
4251,Regina Avenue,40213,38.1952309,-85.7022829
4252,Regina Avenue,40213,38.1952288,-85.7029294
4253,Regina Avenue,40213,38.1950765,-85.7023086
4254,Regina Avenue,40213,38.1950685,-85.7028624
4255,Regina Avenue,40213,38.1949044,-85.7022166
4256,Regina Avenue,40213,38.1949051,-85.7028699
4257,Regina Avenue,40213,38.1947472,-85.7023039
4258,Regina Avenue,40213,38.1947424,-85.7028588
4259,Regina Avenue,40213,38.1945839,-85.7022813
4260,Regina Avenue,40213,38.1945796,-85.7028917
4261,Regina Avenue,40213,38.1944187,-85.7023000
4262,Regina Avenue,40213,38.1944058,-85.7028685
4263,Regina Avenue,40213,38.1942444,-85.7022649
4264,Regina Avenue,40213,38.1942517,-85.7028962
4265,Regina Avenue,40213,38.1940840,-85.7022983
4266,Regina Avenue,40213,38.1940415,-85.7028790
4301,Milldaun Road,40213,38.1965157,-85.7011260
4302,Conaem Drive,40213,38.1962082,-85.6992293
4303,Annshire Avenue,40213,38.1961726,-85.6999541
4303,Conaem Drive,40213,38.1963475,-85.6985933
4303,Poplar Level Road,40213,38.1941643,-85.7061427
4304,Annshire Avenue,40213,38.1963358,-85.7005480
4304,Conaem Drive,40213,38.1960383,-85.6992503
4305,Annshire Avenue,40213,38.1960208,-85.6999299
4305,Conaem Drive,40213,38.1961513,-85.6986205
4305,Milldaun Road,40213,38.1962244,-85.7010858
4306,Annshire Avenue,40213,38.1961337,-85.7005386
4306,Conaem Drive,40213,38.1958594,-85.6993124
4306,Milldaun Road,40213,38.1962101,-85.7016675
4307,Annshire Avenue,40213,38.1958324,-85.6999690
4307,Conaem Drive,40213,38.1959684,-85.6986269
4307,Milldaun Road,40213,38.1960517,-85.7009167
4308,Annshire Avenue,40213,38.1959423,-85.7005635
4308,Bishop Lane,40218,38.1997418,-85.6865734
4308,Conaem Drive,40213,38.1956697,-85.6993464
4308,Milldaun Road,40213,38.1960096,-85.7016616
4308,Robards Lane,40218,38.1993778,-85.6918177
4309,Annshire Avenue,40213,38.1956391,-85.6999464
4309,Bishop Lane,40218,38.1984248,-85.6855389
4309,Conaem Drive,40213,38.1957753,-85.6987149
4309,Milldaun Road,40213,38.1958105,-85.7010577
4310,Annshire Avenue,40213,38.1957359,-85.7005406
4310,Bishop Lane,40218,38.1994706,-85.6867471
4310,Conaem Drive,40213,38.1954668,-85.6993739
4310,Milldaun Road,40213,38.1958019,-85.7016774
4310,Robards Lane,40218,38.1990903,-85.6918079
4311,Annshire Avenue,40213,38.1954230,-85.6999544
4311,Conaem Drive,40213,38.1956113,-85.6987507
4311,Milldaun Road,40213,38.1955586,-85.7010223
4312,Annshire Avenue,40213,38.1955549,-85.7005396
4312,Bishop Lane,40218,38.1991708,-85.6866711
4312,Conaem Drive,40213,38.1952739,-85.6993476
4312,Milldaun Road,40213,38.1956282,-85.7017384
4313,Annshire Avenue,40213,38.1952443,-85.6999534
4313,Conaem Drive,40213,38.1954367,-85.6987932
4313,Milldaun Road,40213,38.1953419,-85.7010475
4314,Annshire Avenue,40213,38.1954038,-85.7005390
4314,Conaem Drive,40213,38.1950902,-85.6993662
4314,Milldaun Road,40213,38.1954017,-85.7016272
4315,Annshire Avenue,40213,38.1950514,-85.6999393
4315,Conaem Drive,40213,38.1952616,-85.6987699
4315,Milldaun Road,40213,38.1951610,-85.7010273
4316,Annshire Avenue,40213,38.1952016,-85.7005389
4316,Conaem Drive,40213,38.1947740,-85.6993455
4316,Milldaun Road,40213,38.1951520,-85.7016738
4317,Annshire Avenue,40213,38.1948246,-85.6999518
4317,Conaem Drive,40213,38.1950817,-85.6987686
4317,Milldaun Road,40213,38.1949428,-85.7010164
4318,Annshire Avenue,40213,38.1950494,-85.7005382
4318,Milldaun Road,40213,38.1949238,-85.7016179
4319,Conaem Drive,40213,38.1948334,-85.6987709
4319,Milldaun Road,40213,38.1946825,-85.7010477
4320,Annshire Avenue,40213,38.1948687,-85.7005094
4320,Bishop Lane,40218,38.1984474,-85.6866493
4320,Milldaun Road,40213,38.1946810,-85.7016392
4320,Robards Lane,40218,38.1981645,-85.6919764
4321,Milldaun Road,40213,38.1945131,-85.7010217
4322,Annshire Avenue,40213,38.1946763,-85.7005167
4322,Bishop Lane,40218,38.1981381,-85.6869983
4322,Milldaun Road,40213,38.1943854,-85.7016355
4322,Robards Lane,40218,38.1979479,-85.6920495
4323,Milldaun Road,40213,38.1941687,-85.7010313
4323,Poplar Level Road,40213,38.1936429,-85.7062687
4324,Annshire Avenue,40213,38.1944839,-85.7005070
4325,Poplar Level Road,40213,38.1934339,-85.7061591
4325,Watterson Park Road,40213,38.1926110,-85.7043219
4326,Annshire Avenue,40213,38.1942921,-85.7005259
4326,Robards Lane,40218,38.1977007,-85.6922215
4328,Annshire Avenue,40213,38.1941066,-85.7005520
4328,Robards Lane,40218,38.1973347,-85.6927941
4328,Robards Lane,40218,38.1976660,-85.6933103
4331,Poplar Level Road,40213,38.1932951,-85.7060621
4331,Robards Lane,40218,38.1958648,-85.6912536
4332,Robards Lane,40218,38.1971553,-85.6922027
4333,Poplar Level Road,40213,38.1931236,-85.7058184
4333,Robards Lane,40218,38.1950246,-85.6912306
4333,Watterson Park Road,40213,38.1926886,-85.7038811
4340,Robards Lane,40218,38.1968304,-85.6923528
4350,Robards Lane,40218,38.1958374,-85.6925077
4400,Bishop Lane,40218,38.1972598,-85.6870556
4400,Champions Trace Lane,40218,38.1929785,-85.6781094
4400,Conaem Drive,40213,38.1942775,-85.6993356
4400,Ole Brickyard Circle,40218,38.1920116,-85.6826042
4401,Annshire Avenue,40213,38.1942696,-85.6998827
4401,Champions Trace Lane,40218,38.1932628,-85.6784952
4401,Conaem Drive,40213,38.1943003,-85.6987316
4402,Conaem Drive,40213,38.1940893,-85.6993530
4403,Annshire Avenue,40213,38.1940839,-85.6999387
4403,Champions Trace Lane,40218,38.1933638,-85.6783630
4403,Conaem Drive,40213,38.1940984,-85.6987411
4404,Champions Trace Lane,40218,38.1932813,-85.6777128
4405,Champions Trace Lane,40218,38.1934589,-85.6782420
4406,Ole Brickyard Circle,40218,38.1907430,-85.6817456
4407,Champions Trace Lane,40218,38.1935918,-85.6780564
4408,Champions Trace Lane,40218,38.1934053,-85.6775445
4409,Champions Trace Lane,40218,38.1936835,-85.6779284
4410,Bishop Lane,40218,38.1974555,-85.6889599
4420,Bishop Lane,40218,38.1961104,-85.6886202
4427,Bishop Lane,40218,38.1955098,-85.6854034
4445,Robards Lane,40218,38.1934618,-85.6914357
4451,Robards Lane,40218,38.1919924,-85.6908471
4482,Robards Lane,40218,38.1944727,-85.6930651
4484,Robards Lane,40218,38.1941836,-85.6928489
4500,Bishop Lane,40218,38.1952117,-85.6892194
4504,Bishop Lane,40218,38.1949927,-85.6873363
4505,Bishop Lane,40218,38.1949846,-85.6856480
4507,Bishop Lane,40218,38.1946446,-85.6863148
4508,Bishop Lane,40218,38.1945499,-85.6872892
4509,Bishop Lane,40218,38.1943692,-85.6859676
4510,Robards Lane,40218,38.1926657,-85.6933171
4511,Bishop Lane,40218,38.1941727,-85.6863865
4512,Bishop Lane,40218,38.1938536,-85.6877588
4515,Bishop Lane,40218,38.1934741,-85.6850626
4518,Robards Lane,40218,38.1916432,-85.6929388
4520,Bishop Lane,40218,38.1934397,-85.6880115
4520,Robards Lane,40218,38.1917174,-85.6932899
4521,Bishop Lane,40218,38.1910702,-85.6883399
4524,Bishop Lane,40218,38.1923186,-85.6890508
4528,Bishop Lane,40218,38.1920602,-85.6883013
4530,Bishop Lane,40218,38.1925623,-85.6876820
4531,Bishop Lane,40218,38.1914411,-85.6875682
4534,Bishop Lane,40218,38.1918666,-85.6889563
4545,Bishop Lane,40218,38.1922491,-85.6864978
4575,Jennings Lane,40218,38.1912014,-85.6865350
3322,Red Roof Inn Place,40218,38.2004513,-85.6873900
4205,Gardiner View Avenue,40213,38.1972644,-85.7038036
3408,Newburg Road,40218,38.1956140,-85.6809101
3332,Newburg Road,40218,38.1995059,-85.6852229
3901,Atkinson Square Drive,40218,38.2003878,-85.6889255
