House number,Street name,Postal code,Latitude,Longitude
100,Donard Park Avenue,40218,38.2008507,-85.6695987
101,Donard Park Avenue,40218,38.2008644,-85.6695098
102,Donard Park Avenue,40218,38.2008213,-85.6694793
103,Donard Park Avenue,40218,38.2007799,-85.6694402
104,Donard Park Avenue,40218,38.2008969,-85.6694508
105,Donard Park Avenue,40218,38.2008503,-85.6694268
106,Donard Park Avenue,40218,38.2008040,-85.6693876
107,Donard Park Avenue,40218,38.2009294,-85.6693879
108,Donard Park Avenue,40218,38.2008795,-85.6693682
109,Donard Park Avenue,40218,38.2008249,-85.6693224
111,Donard Park Avenue,40218,38.2009107,-85.6692731
112,Donard Park Avenue,40218,38.2008676,-85.6692471
202,Donard Park Avenue,40218,38.2006499,-85.6698214
203,Donard Park Avenue,40218,38.2006086,-85.6697780
1900,Bashford Manor Lane,40218,38.1957273,-85.6749596
1900,Bashford Manor Lane,40218,38.1957447,-85.6749595
1900,Bashford Manor Lane,40218,38.1957622,-85.6749595
1900,Bashford Manor Lane,40218,38.1957653,-85.6746389
1900,Bashford Manor Lane,40218,38.1957777,-85.6749593
1900,Bashford Manor Lane,40218,38.1957833,-85.6748494
1900,Bashford Manor Lane,40218,38.1957853,-85.6746389
1900,Bashford Manor Lane,40218,38.1958022,-85.6748502
1900,Bashford Manor Lane,40218,38.1958066,-85.6746397
1900,Bashford Manor Lane,40218,38.1958174,-85.6748496
1900,Bashford Manor Lane,40218,38.1958281,-85.6745214
1900,Bashford Manor Lane,40218,38.1958282,-85.6746397
1900,Bashford Manor Lane,40218,38.1958301,-85.6748499
1900,Bashford Manor Lane,40218,38.1958490,-85.6745218
1900,Bashford Manor Lane,40218,38.1958673,-85.6745222
1900,Bashford Manor Lane,40218,38.1958867,-85.6745225
1900,Bashford Manor Lane,40218,38.1959626,-85.6750682
1900,Bashford Manor Lane,40218,38.1959759,-85.6750689
1900,Bashford Manor Lane,40218,38.1959903,-85.6754381
1900,Bashford Manor Lane,40218,38.1959914,-85.6750696
1900,Bashford Manor Lane,40218,38.1960043,-85.6750699
1900,Bashford Manor Lane,40218,38.1960131,-85.6754398
1900,Bashford Manor Lane,40218,38.1960172,-85.6750702
1900,Bashford Manor Lane,40218,38.1960195,-85.6751968
1900,Bashford Manor Lane,40218,38.1960311,-85.6750704
1900,Bashford Manor Lane,40218,38.1960341,-85.6751971
1900,Bashford Manor Lane,40218,38.1960374,-85.6754407
1900,Bashford Manor Lane,40218,38.1960473,-85.6751973
1900,Bashford Manor Lane,40218,38.1960490,-85.6756067
1900,Bashford Manor Lane,40218,38.1960555,-85.6745019
1900,Bashford Manor Lane,40218,38.1960609,-85.6751980
1900,Bashford Manor Lane,40218,38.1960649,-85.6754413
1900,Bashford Manor Lane,40218,38.1960708,-85.6756071
1900,Bashford Manor Lane,40218,38.1960728,-85.6751983
1900,Bashford Manor Lane,40218,38.1960743,-85.6745027
1900,Bashford Manor Lane,40218,38.1960857,-85.6751985
1900,Bashford Manor Lane,40218,38.1960878,-85.6745865
1900,Bashford Manor Lane,40218,38.1960925,-85.6754427
1900,Bashford Manor Lane,40218,38.1960937,-85.6756076
1900,Bashford Manor Lane,40218,38.1960949,-85.6745027
1900,Bashford Manor Lane,40218,38.1961105,-85.6745870
1900,Bashford Manor Lane,40218,38.1961168,-85.6754432
1900,Bashford Manor Lane,40218,38.1961186,-85.6745032
1900,Bashford Manor Lane,40218,38.1961213,-85.6756073
1900,Bashford Manor Lane,40218,38.1961300,-85.6745873
1900,Bashford Manor Lane,40218,38.1961464,-85.6756086
1900,Bashford Manor Lane,40218,38.1961495,-85.6745873
1900,Bashford Manor Lane,40218,38.1961724,-85.6756091
1900,Bashford Manor Lane,40218,38.1961830,-85.6758303
1900,Bashford Manor Lane,40218,38.1962003,-85.6758311
1900,Bashford Manor Lane,40218,38.1962172,-85.6758310
1900,Bashford Manor Lane,40218,38.1962355,-85.6758318
1900,Bashford Manor Lane,40218,38.1962365,-85.6759732
1900,Bashford Manor Lane,40218,38.1962419,-85.6746835
1900,Bashford Manor Lane,40218,38.1962521,-85.6759735
1900,Bashford Manor Lane,40218,38.1962690,-85.6759738
1900,Bashford Manor Lane,40218,38.1962695,-85.6746832
1900,Bashford Manor Lane,40218,38.1962859,-85.6759737
1900,Bashford Manor Lane,40218,38.1962944,-85.6746828
1900,Bashford Manor Lane,40218,38.1963010,-85.6747773
1900,Bashford Manor Lane,40218,38.1963200,-85.6746815
1900,Bashford Manor Lane,40218,38.1963280,-85.6747761
1900,Bashford Manor Lane,40218,38.1963515,-85.6747766
1900,Bashford Manor Lane,40218,38.1963533,-85.6762178
1900,Bashford Manor Lane,40218,38.1963680,-85.6762185
1900,Bashford Manor Lane,40218,38.1963756,-85.6747770
1900,Bashford Manor Lane,40218,38.1963823,-85.6762192
1900,Bashford Manor Lane,40218,38.1963964,-85.6762195
1900,Bashford Manor Lane,40218,38.1964034,-85.6763649
1900,Bashford Manor Lane,40218,38.1964167,-85.6763652
1900,Bashford Manor Lane,40218,38.1964314,-85.6763655
1900,Bashford Manor Lane,40218,38.1964435,-85.6763661
1900,Bashford Manor Lane,40218,38.1964477,-85.6748559
1900,Bashford Manor Lane,40218,38.1964726,-85.6748555
1900,Bashford Manor Lane,40218,38.1964960,-85.6748559
1900,Bashford Manor Lane,40218,38.1965194,-85.6748564
1900,Bashford Manor Lane,40218,38.1965261,-85.6749492
1900,Bashford Manor Lane,40218,38.1965304,-85.6759311
1900,Bashford Manor Lane,40218,38.1965502,-85.6759315
1900,Bashford Manor Lane,40218,38.1965509,-85.6749488
1900,Bashford Manor Lane,40218,38.1965688,-85.6759318
1900,Bashford Manor Lane,40218,38.1965744,-85.6749484
1900,Bashford Manor Lane,40218,38.1965867,-85.6759318
1900,Bashford Manor Lane,40218,38.1965978,-85.6749489
1900,Bashford Manor Lane,40218,38.1966046,-85.6759321
1900,Bashford Manor Lane,40218,38.1966176,-85.6757523
1900,Bashford Manor Lane,40218,38.1966231,-85.6759325
1900,Bashford Manor Lane,40218,38.1966362,-85.6757522
1900,Bashford Manor Lane,40218,38.1966397,-85.6759332
1900,Bashford Manor Lane,40218,38.1966528,-85.6757517
1900,Bashford Manor Lane,40218,38.1966608,-85.6759332
1900,Bashford Manor Lane,40218,38.1966678,-85.6750285
1900,Bashford Manor Lane,40218,38.1966690,-85.6755754
1900,Bashford Manor Lane,40218,38.1966720,-85.6757520
1900,Bashford Manor Lane,40218,38.1966787,-85.6759327
1900,Bashford Manor Lane,40218,38.1966907,-85.6755758
1900,Bashford Manor Lane,40218,38.1966911,-85.6757507
1900,Bashford Manor Lane,40218,38.1966926,-85.6750290
1900,Bashford Manor Lane,40218,38.1967084,-85.6757510
1900,Bashford Manor Lane,40218,38.1967118,-85.6755762
1900,Bashford Manor Lane,40218,38.1967146,-85.6750281
1900,Bashford Manor Lane,40218,38.1967288,-85.6757514
1900,Bashford Manor Lane,40218,38.1967342,-85.6755766
1900,Bashford Manor Lane,40218,38.1967402,-85.6750278
1900,Bashford Manor Lane,40218,38.1967473,-85.6757518
1900,Bashford Manor Lane,40218,38.1967498,-85.6751154
1900,Bashford Manor Lane,40218,38.1967539,-85.6755770
1900,Bashford Manor Lane,40218,38.1967651,-85.6754524
1900,Bashford Manor Lane,40218,38.1967737,-85.6755792
1900,Bashford Manor Lane,40218,38.1967789,-85.6751151
1900,Bashford Manor Lane,40218,38.1967855,-85.6754537
1900,Bashford Manor Lane,40218,38.1967936,-85.6755787
1900,Bashford Manor Lane,40218,38.1968037,-85.6751156
1900,Bashford Manor Lane,40218,38.1968072,-85.6754550
1900,Bashford Manor Lane,40218,38.1968140,-85.6755804
1900,Bashford Manor Lane,40218,38.1968285,-85.6751161
1900,Bashford Manor Lane,40218,38.1968302,-85.6754554
1900,Bashford Manor Lane,40218,38.1968351,-85.6755817
1900,Bashford Manor Lane,40218,38.1968513,-85.6754558
1900,Bashford Manor Lane,40218,38.1968730,-85.6754563
1900,Bashford Manor Lane,40218,38.1968942,-85.6754567
1900,Bashford Manor Lane,40218,38.1969165,-85.6754571
1918,Hikes Lane,40218,38.1958003,-85.6631140
1918,Hikes Lane,40218,38.1958141,-85.6628651
1918,Hikes Lane,40218,38.1958603,-85.6629853
2003,Hikes Lane,40218,38.1973847,-85.6630728
2006,Hikes Lane,40218,38.1971274,-85.6624488
2126,Old Shepherdsville Road,40218,38.1972173,-85.6610815
3400,Fountain Drive,40218,38.1930589,-85.6705334
3400,Fountain Drive,40218,38.1930829,-85.6705600
3400,Fountain Drive,40218,38.1931203,-85.6705882
3400,Fountain Drive,40218,38.1931544,-85.6706201
3401,Fountain Drive,40218,38.1934436,-85.6709077
3401,Fountain Drive,40218,38.1934610,-85.6708632
3401,Fountain Drive,40218,38.1934659,-85.6709486
3401,Fountain Drive,40218,38.1935224,-85.6709871
3402,Fountain Drive,40218,38.1931057,-85.6704428
3402,Fountain Drive,40218,38.1931390,-85.6704715
3402,Fountain Drive,40218,38.1931723,-85.6705002
3402,Fountain Drive,40218,38.1932082,-85.6705250
3403,Fountain Drive,40218,38.1934871,-85.6708113
3403,Fountain Drive,40218,38.1935088,-85.6708196
3403,Fountain Drive,40218,38.1935446,-85.6708565
3403,Fountain Drive,40218,38.1935821,-85.6708960
3404,Fountain Drive,40218,38.1931863,-85.6703220
3404,Fountain Drive,40218,38.1932141,-85.6702851
3404,Fountain Drive,40218,38.1932351,-85.6702481
3404,Fountain Drive,40218,38.1932560,-85.6702107
3405,Fountain Drive,40218,38.1936586,-85.6708278
3405,Fountain Drive,40218,38.1936773,-85.6707933
3405,Fountain Drive,40218,38.1936913,-85.6707619
3405,Fountain Drive,40218,38.1937192,-85.6707220
3406,Fountain Drive,40218,38.1932544,-85.6701615
3406,Fountain Drive,40218,38.1932661,-85.6701361
3406,Fountain Drive,40218,38.1932937,-85.6701105
3406,Fountain Drive,40218,38.1933078,-85.6700760
3407,Fountain Drive,40218,38.1937472,-85.6706651
3407,Fountain Drive,40218,38.1937612,-85.6706419
3407,Fountain Drive,40218,38.1937753,-85.6706021
3407,Fountain Drive,40218,38.1938053,-85.6705705
3408,Fountain Drive,40218,38.1933425,-85.6700362
3408,Fountain Drive,40218,38.1933634,-85.6700023
3408,Fountain Drive,40218,38.1933913,-85.6699563
3408,Fountain Drive,40218,38.1934157,-85.6699104
3409,Fountain Drive,40218,38.1937650,-85.6703451
3409,Fountain Drive,40218,38.1937830,-85.6703654
3409,Fountain Drive,40218,38.1938146,-85.6703891
3409,Fountain Drive,40218,38.1938483,-85.6704276
3410,Fountain Drive,40218,38.1934606,-85.6698885
3410,Fountain Drive,40218,38.1934792,-85.6698540
3410,Fountain Drive,40218,38.1935069,-85.6698228
3410,Fountain Drive,40218,38.1935210,-85.6697944
3411,Fountain Drive,40218,38.1938257,-85.6702279
3411,Fountain Drive,40218,38.1938549,-85.6702602
3411,Fountain Drive,40218,38.1938774,-85.6702837
3411,Fountain Drive,40218,38.1939090,-85.6703074
3412,Fountain Drive,40218,38.1935747,-85.6696828
3412,Fountain Drive,40218,38.1936038,-85.6697294
3412,Fountain Drive,40218,38.1936262,-85.6697590
3412,Fountain Drive,40218,38.1936602,-85.6697797
3413,Bashford Avenue Court,40218,38.1929209,-85.6678578
3413,Fountain Drive,40218,38.1940045,-85.6699539
3413,Fountain Drive,40218,38.1940382,-85.6699950
3413,Fountain Drive,40218,38.1940675,-85.6700243
3413,Fountain Drive,40218,38.1941081,-85.6700599
3414,Fountain Drive,40218,38.1936171,-85.6695740
3414,Fountain Drive,40218,38.1936510,-85.6695977
3414,Fountain Drive,40218,38.1936872,-85.6696214
3414,Fountain Drive,40218,38.1937186,-85.6696625
3415,Fountain Drive,40218,38.1940763,-85.6698570
3415,Fountain Drive,40218,38.1941098,-85.6698893
3415,Fountain Drive,40218,38.1941484,-85.6699336
3415,Fountain Drive,40218,38.1941778,-85.6699516
3416,Fountain Drive,40218,38.1938128,-85.6692908
3416,Fountain Drive,40218,38.1938345,-85.6693150
3416,Fountain Drive,40218,38.1938715,-85.6693312
3416,Fountain Drive,40218,38.1938929,-85.6693827
3417,Fountain Drive,40218,38.1942362,-85.6698528
3417,Fountain Drive,40218,38.1942510,-85.6698309
3417,Fountain Drive,40218,38.1942712,-85.6698022
3417,Fountain Drive,40218,38.1942889,-85.6697626
3418,Fountain Drive,40218,38.1938772,-85.6692083
3418,Fountain Drive,40218,38.1939019,-85.6692067
3418,Fountain Drive,40218,38.1939310,-85.6692534
3418,Fountain Drive,40218,38.1939582,-85.6692657
3419,Fountain Drive,40218,38.1943277,-85.6697107
3419,Fountain Drive,40218,38.1943449,-85.6696769
3419,Fountain Drive,40218,38.1943658,-85.6696481
3419,Fountain Drive,40218,38.1943854,-85.6696153
3420,Fountain Drive,40218,38.1939465,-85.6691037
3420,Fountain Drive,40218,38.1939674,-85.6690697
3420,Fountain Drive,40218,38.1939905,-85.6690467
3420,Fountain Drive,40218,38.1940092,-85.6690040
3421,Fountain Drive,40218,38.1944242,-85.6695622
3421,Fountain Drive,40218,38.1944458,-85.6695373
3421,Fountain Drive,40218,38.1944596,-85.6694930
3421,Fountain Drive,40218,38.1944781,-85.6694678
3422,Fountain Drive,40218,38.1940533,-85.6689383
3422,Fountain Drive,40218,38.1940696,-85.6689155
3422,Fountain Drive,40218,38.1940835,-85.6688927
3422,Fountain Drive,40218,38.1940998,-85.6688700
3423,Fountain Drive,40218,38.1945046,-85.6694323
3423,Fountain Drive,40218,38.1945354,-85.6694095
3423,Fountain Drive,40218,38.1945478,-85.6693758
3423,Fountain Drive,40218,38.1945643,-85.6693466
3424,Fountain Drive,40218,38.1941113,-85.6686706
3424,Fountain Drive,40218,38.1941518,-85.6687149
3424,Fountain Drive,40218,38.1941971,-85.6687418
3424,Fountain Drive,40218,38.1942329,-85.6687974
3425,Fountain Drive,40218,38.1945436,-85.6691097
3425,Fountain Drive,40218,38.1945819,-85.6691509
3425,Fountain Drive,40218,38.1946110,-85.6691919
3425,Fountain Drive,40218,38.1946673,-85.6692478
3426,Fountain Drive,40218,38.1941581,-85.6685680
3426,Fountain Drive,40218,38.1942031,-85.6686206
3426,Fountain Drive,40218,38.1942434,-85.6686762
3426,Fountain Drive,40218,38.1942929,-85.6687350
3427,Fountain Drive,40218,38.1945968,-85.6690441
3427,Fountain Drive,40218,38.1946399,-85.6690624
3427,Fountain Drive,40218,38.1946805,-85.6690949
3427,Fountain Drive,40218,38.1947346,-85.6691508
3500,Fountain Drive,40218,38.1943989,-85.6682603
3500,Fountain Drive,40218,38.1944460,-85.6683221
3500,Fountain Drive,40218,38.1944776,-85.6683545
3500,Fountain Drive,40218,38.1945115,-85.6683782
3501,Fountain Drive,40218,38.1948178,-85.6686787
3501,Fountain Drive,40218,38.1948604,-85.6687374
3501,Fountain Drive,40218,38.1949011,-85.6687669
3501,Fountain Drive,40218,38.1949598,-85.6688085
3502,Fountain Drive,40218,38.1944346,-85.6681401
3502,Fountain Drive,40218,38.1944867,-85.6681642
3502,Fountain Drive,40218,38.1945316,-85.6682255
3502,Fountain Drive,40218,38.1945767,-85.6682638
3503,Fountain Drive,40218,38.1948782,-85.6685846
3503,Fountain Drive,40218,38.1949255,-85.6686272
3503,Fountain Drive,40218,38.1949714,-85.6686844
3503,Fountain Drive,40218,38.1950292,-85.6687233
3504,Fountain Drive,40218,38.1945765,-85.6680907
3504,Fountain Drive,40218,38.1946088,-85.6680565
3504,Fountain Drive,40218,38.1946321,-85.6680195
3504,Fountain Drive,40218,38.1946529,-85.6679912
3505,Fountain Drive,40218,38.1950509,-85.6685576
3505,Fountain Drive,40218,38.1950691,-85.6685315
3505,Fountain Drive,40218,38.1950854,-85.6685026
3505,Fountain Drive,40218,38.1951073,-85.6684777
3506,Fountain Drive,40218,38.1946852,-85.6679627
3506,Fountain Drive,40218,38.1947083,-85.6679345
3506,Fountain Drive,40218,38.1947202,-85.6678912
3506,Fountain Drive,40218,38.1947435,-85.6678512
3507,Bashford Avenue,40218,38.1949461,-85.6640246
3507,Fountain Drive,40218,38.1951342,-85.6684044
3507,Fountain Drive,40218,38.1951548,-85.6683685
3507,Fountain Drive,40218,38.1951750,-85.6683348
3507,Fountain Drive,40218,38.1951931,-85.6683033
3508,Fountain Drive,40218,38.1947579,-85.6677860
3508,Fountain Drive,40218,38.1947733,-85.6677541
3508,Fountain Drive,40218,38.1947920,-85.6677342
3508,Fountain Drive,40218,38.1948049,-85.6676854
3509,Fountain Drive,40218,38.1952466,-85.6682769
3509,Fountain Drive,40218,38.1952607,-85.6682428
3509,Fountain Drive,40218,38.1952769,-85.6682257
3509,Fountain Drive,40218,38.1952909,-85.6681999
3510,Bardstown Road,40218,38.2019164,-85.6645574
3510,Fountain Drive,40218,38.1948948,-85.6675945
3510,Fountain Drive,40218,38.1949218,-85.6676237
3510,Fountain Drive,40218,38.1949488,-85.6676560
3510,Fountain Drive,40218,38.1949851,-85.6676684
3511,Fountain Drive,40218,38.1952504,-85.6679624
3511,Fountain Drive,40218,38.1952752,-85.6679916
3511,Fountain Drive,40218,38.1953066,-85.6680327
3511,Fountain Drive,40218,38.1953404,-85.6680651
3512,Bardstown Road,40218,38.2017570,-85.6644745
3512,Fountain Drive,40218,38.1949388,-85.6675190
3512,Fountain Drive,40218,38.1949734,-85.6675007
3512,Fountain Drive,40218,38.1950119,-85.6675271
3512,Fountain Drive,40218,38.1950388,-85.6675594
3513,Fountain Drive,40218,38.1952998,-85.6678420
3513,Fountain Drive,40218,38.1953312,-85.6678775
3513,Fountain Drive,40218,38.1953561,-85.6679010
3513,Fountain Drive,40218,38.1953830,-85.6679333
3514,Fountain Drive,40218,38.1951207,-85.6671943
3514,Fountain Drive,40218,38.1951590,-85.6672355
3514,Fountain Drive,40218,38.1951884,-85.6672591
3514,Fountain Drive,40218,38.1952199,-85.6672828
3515,Fountain Drive,40218,38.1954901,-85.6675626
3515,Fountain Drive,40218,38.1955262,-85.6675950
3515,Fountain Drive,40218,38.1955509,-85.6676216
3515,Fountain Drive,40218,38.1955824,-85.6676570
3516,Fountain Drive,40218,38.1951891,-85.6670990
3516,Fountain Drive,40218,38.1952152,-85.6671152
3516,Fountain Drive,40218,38.1952512,-85.6671507
3516,Fountain Drive,40218,38.1952768,-85.6671818
3517,Fountain Drive,40218,38.1955575,-85.6674543
3517,Fountain Drive,40218,38.1955777,-85.6674808
3517,Fountain Drive,40218,38.1956137,-85.6675189
3517,Fountain Drive,40218,38.1956476,-85.6675426
3518,Fountain Drive,40218,38.1952426,-85.6669799
3518,Fountain Drive,40218,38.1952604,-85.6669547
3518,Fountain Drive,40218,38.1952859,-85.6669261
3518,Fountain Drive,40218,38.1953114,-85.6668861
3519,Fountain Drive,40218,38.1957214,-85.6674688
3519,Fountain Drive,40218,38.1957354,-85.6674490
3519,Fountain Drive,40218,38.1957495,-85.6674145
3519,Fountain Drive,40218,38.1957614,-85.6673686
3520,Fountain Drive,40218,38.1953734,-85.6668499
3520,Fountain Drive,40218,38.1954140,-85.6668794
3520,Fountain Drive,40218,38.1954367,-85.6668886
3520,Fountain Drive,40218,38.1954548,-85.6668976
3521,Fountain Drive,40218,38.1958125,-85.6672918
3521,Fountain Drive,40218,38.1958311,-85.6672630
3521,Fountain Drive,40218,38.1958495,-85.6672464
3521,Fountain Drive,40218,38.1958634,-85.6672231
3523,Fountain Drive,40218,38.1958775,-85.6670082
3523,Fountain Drive,40218,38.1959082,-85.6670547
3523,Fountain Drive,40218,38.1959446,-85.6671064
3523,Fountain Drive,40218,38.1959987,-85.6671566
3525,Fountain Drive,40218,38.1959282,-85.6669336
3525,Fountain Drive,40218,38.1959551,-85.6669733
3525,Fountain Drive,40218,38.1959894,-85.6669859
3525,Fountain Drive,40218,38.1960455,-85.6670592
3530,Bardstown Road,40218,38.2005588,-85.6643460
3532,Bardstown Road,40218,38.2004944,-85.6643060
3534,Bardstown Road,40218,38.2004304,-85.6642419
3536,Bardstown Road,40218,38.2003774,-85.6642023
3538,Bardstown Road,40218,38.2003056,-85.6641525
3540,Bardstown Road,40218,38.2002526,-85.6641128
3542,Bardstown Road,40218,38.2001696,-85.6640387
3544,Bardstown Road,40218,38.2000979,-85.6639745
3550,Bardstown Road,40218,38.2001301,-85.6644681
3600,Fountain Drive,40218,38.1957217,-85.6662547
3600,Fountain Drive,40218,38.1957673,-85.6662941
3600,Mall Road,40218,38.1983410,-85.6712102
3601,Fountain Drive,40218,38.1961446,-85.6665905
3601,Fountain Drive,40218,38.1961829,-85.6666286
3601,Fountain Drive,40218,38.1962030,-85.6666669
3601,Fountain Drive,40218,38.1962461,-85.6666851
3602,Fountain Drive,40218,38.1960222,-85.6657907
3602,Fountain Drive,40218,38.1960515,-85.6658174
3602,Fountain Drive,40218,38.1960740,-85.6658352
3602,Fountain Drive,40218,38.1961057,-85.6658533
3603,Fountain Drive,40218,38.1962008,-85.6664733
3603,Fountain Drive,40218,38.1962369,-85.6665057
3603,Fountain Drive,40218,38.1962752,-85.6665413
3603,Fountain Drive,40218,38.1962975,-85.6665761
3604,Fountain Drive,40218,38.1960510,-85.6656704
3604,Fountain Drive,40218,38.1960580,-85.6656531
3604,Fountain Drive,40218,38.1960788,-85.6656304
3604,Fountain Drive,40218,38.1960953,-85.6655842
3605,Fountain Drive,40218,38.1963516,-85.6664414
3605,Fountain Drive,40218,38.1963726,-85.6663987
3605,Fountain Drive,40218,38.1963938,-85.6663500
3605,Fountain Drive,40218,38.1964066,-85.6664164
3606,Fountain Drive,40218,38.1961719,-85.6654761
3606,Fountain Drive,40218,38.1962011,-85.6655115
3606,Fountain Drive,40218,38.1962372,-85.6655409
3606,Fountain Drive,40218,38.1962707,-85.6655937
3607,Fountain Drive,40218,38.1964264,-85.6662897
3607,Fountain Drive,40218,38.1964426,-85.6662670
3607,Fountain Drive,40218,38.1964634,-85.6662443
3607,Fountain Drive,40218,38.1964845,-85.6661986
3608,Fountain Drive,40218,38.1962323,-85.6653820
3608,Fountain Drive,40218,38.1962774,-85.6654177
3608,Fountain Drive,40218,38.1963136,-85.6654384
3608,Fountain Drive,40218,38.1963427,-85.6654881
3609,Fountain Drive,40218,38.1965217,-85.6661415
3609,Fountain Drive,40218,38.1965357,-85.6661131
3609,Fountain Drive,40218,38.1965542,-85.6660843
3609,Fountain Drive,40218,38.1965751,-85.6660560
3610,Fountain Drive,40218,38.1964066,-85.6651052
3610,Fountain Drive,40218,38.1964337,-85.6651262
3610,Fountain Drive,40218,38.1964675,-85.6651556
3610,Fountain Drive,40218,38.1964945,-85.6651848
3610,Mall Road,40218,38.1980039,-85.6705138
3611,Fountain Drive,40218,38.1965454,-85.6658792
3611,Fountain Drive,40218,38.1965838,-85.6659061
3611,Fountain Drive,40218,38.1966108,-85.6659353
3611,Fountain Drive,40218,38.1966445,-85.6659708
3612,Fountain Drive,40218,38.1964877,-85.6649942
3612,Fountain Drive,40218,38.1965147,-85.6650208
3612,Fountain Drive,40218,38.1965531,-85.6650502
3612,Fountain Drive,40218,38.1965778,-85.6650799
3613,Fountain Drive,40218,38.1966173,-85.6657710
3613,Fountain Drive,40218,38.1966488,-85.6658060
3613,Fountain Drive,40218,38.1966828,-85.6658240
3613,Fountain Drive,40218,38.1967081,-85.6658741
3614,Buechel Bypass,40218,38.1986250,-85.6639028
3614,Buechel Bypass,40218,38.1986358,-85.6639163
3614,Buechel Bypass,40218,38.1986554,-85.6639323
3614,Buechel Bypass,40218,38.1986723,-85.6639507
3614,Buechel Bypass,40218,38.1986978,-85.6639730
3614,Buechel Bypass,40218,38.1987193,-85.6639910
3614,Fountain Drive,40218,38.1965615,-85.6649264
3614,Fountain Drive,40218,38.1965802,-85.6648863
3614,Fountain Drive,40218,38.1965988,-85.6648576
3614,Fountain Drive,40218,38.1966197,-85.6648262
3614,Mall Road,40218,38.1979530,-85.6704736
3615,Fountain Drive,40218,38.1968056,-85.6654710
3615,Fountain Drive,40218,38.1968371,-85.6655008
3615,Fountain Drive,40218,38.1968641,-85.6655300
3615,Fountain Drive,40218,38.1969004,-85.6655512
3616,Fountain Drive,40218,38.1966775,-85.6647582
3616,Fountain Drive,40218,38.1966800,-85.6647408
3616,Fountain Drive,40218,38.1966984,-85.6647212
3616,Fountain Drive,40218,38.1967170,-85.6646924
3616,Mall Road,40218,38.1979044,-85.6704335
3617,Fountain Drive,40218,38.1968660,-85.6653800
3617,Fountain Drive,40218,38.1969044,-85.6654038
3617,Fountain Drive,40218,38.1969248,-85.6654159
3617,Fountain Drive,40218,38.1969517,-85.6654478
3618,Fountain Drive,40218,38.1967751,-85.6646013
3618,Fountain Drive,40218,38.1967844,-85.6645841
3618,Fountain Drive,40218,38.1967961,-85.6645643
3618,Fountain Drive,40218,38.1968100,-85.6645441
3618,Mall Road,40218,38.1978684,-85.6704044
3619,Fountain Drive,40218,38.1970167,-85.6653599
3619,Fountain Drive,40218,38.1970467,-85.6653200
3619,Fountain Drive,40218,38.1970630,-85.6652973
3619,Fountain Drive,40218,38.1970770,-85.6652714
3620,Fountain Drive,40218,38.1968408,-85.6644464
3620,Fountain Drive,40218,38.1968594,-85.6644181
3620,Fountain Drive,40218,38.1968688,-85.6643921
3620,Fountain Drive,40218,38.1968850,-85.6643724
3621,Fountain Drive,40218,38.1971054,-85.6651824
3621,Fountain Drive,40218,38.1971307,-85.6651628
3621,Fountain Drive,40218,38.1971402,-85.6651339
3621,Fountain Drive,40218,38.1971566,-85.6650938
3622,Fountain Drive,40218,38.1968894,-85.6641990
3622,Fountain Drive,40218,38.1969232,-85.6642288
3622,Fountain Drive,40218,38.1969366,-85.6642577
3622,Fountain Drive,40218,38.1969656,-85.6643018
3622,Mall Road,40218,38.1978310,-85.6703626
3623,Fountain Drive,40218,38.1972094,-85.6650604
3623,Fountain Drive,40218,38.1972258,-85.6650285
3623,Fountain Drive,40218,38.1972422,-85.6649915
3623,Fountain Drive,40218,38.1972561,-85.6649774
3624,Fountain Drive,40218,38.1969637,-85.6640821
3624,Fountain Drive,40218,38.1969794,-85.6641054
3624,Fountain Drive,40218,38.1970201,-85.6641354
3624,Fountain Drive,40218,38.1970470,-85.6641703
3625,Fountain Drive,40218,38.1972194,-85.6648035
3625,Fountain Drive,40218,38.1972442,-85.6648271
3625,Fountain Drive,40218,38.1972826,-85.6648539
3625,Fountain Drive,40218,38.1973141,-85.6648889
3626,Mall Road,40218,38.1977889,-85.6703265
3627,Fountain Drive,40218,38.1972936,-85.6646949
3627,Fountain Drive,40218,38.1973208,-85.6647159
3627,Fountain Drive,40218,38.1973614,-85.6647510
3627,Fountain Drive,40218,38.1973883,-85.6647807
3629,Fountain Drive,40218,38.1974563,-85.6646289
3629,Fountain Drive,40218,38.1974970,-85.6646558
3629,Fountain Drive,40218,38.1974980,-85.6645749
3629,Fountain Drive,40218,38.1975410,-85.6645988
3630,Mall Road,40218,38.1977421,-85.6702955
3631,Fountain Drive,40218,38.1974727,-85.6644039
3631,Fountain Drive,40218,38.1975074,-85.6643615
3631,Fountain Drive,40218,38.1975450,-85.6644575
3631,Fountain Drive,40218,38.1975704,-85.6644288
3634,Mall Road,40218,38.1977013,-85.6702660
3638,Mall Road,40218,38.1976584,-85.6702353
3642,Mall Road,40218,38.1976289,-85.6702161
3646,Mall Road,40218,38.1975824,-85.6701454
3650,Mall Road,40218,38.1975536,-85.6700325
3654,Mall Road,40218,38.1975546,-85.6699498
3658,Mall Road,40218,38.1975533,-85.6698776
3660,Mall Road,40218,38.1975473,-85.6698053
3703,Ethel Avenue,40218,38.1924487,-85.6597522
3703,St Francis Avenue,40218,38.1940356,-85.6602564
3705,Roosevelt Avenue,40218,38.1972946,-85.6608112
3705,St Francis Avenue,40218,38.1940582,-85.6601025
3706,Marvin Avenue,40218,38.1929233,-85.6597027
3706,Roosevelt Avenue,40218,38.1969418,-85.6607586
3707,Roosevelt Avenue,40218,38.1973285,-85.6606059
3707,St Francis Avenue,40218,38.1940892,-85.6599573
3710,Bashford Avenue,40218,38.1945480,-85.6596725
3711,Bashford Avenue,40218,38.1949448,-85.6600256
3712,Roosevelt Avenue,40218,38.1969765,-85.6601316
3715,Marvin Avenue,40218,38.1934453,-85.6590978
3716,Marvin Avenue,40218,38.1929924,-85.6589168
3717,Marvin Avenue,40218,38.1934729,-85.6589083
3718,Ethel Avenue,40218,38.1922053,-85.6585227
3720,Marvin Avenue,40218,38.1930304,-85.6586065
3723,Bashford Avenue,40218,38.1950931,-85.6588700
3723,St Francis Avenue,40218,38.1943699,-85.6585041
3725,St Francis Avenue,40218,38.1944174,-85.6581758
3726,Bashford Avenue,40218,38.1947006,-85.6586006
3728,Bashford Avenue,40218,38.1947502,-85.6582731
3728,Hikes Avenue,40218,38.1954388,-85.6584822
3730,Bashford Avenue,40218,38.1947869,-85.6579824
3730,Ethel Avenue,40218,38.1923244,-85.6577820
3732,St Francis Avenue,40218,38.1940128,-85.6575672
3736,Ethel Avenue,40218,38.1924186,-85.6572421
3736,St Francis Avenue,40218,38.1940602,-85.6571953
3738,Ethel Avenue,40218,38.1924439,-85.6571386
3738,Marvin Avenue,40218,38.1932776,-85.6571908
3739,Ethel Avenue,40218,38.1929028,-85.6570176
3740,Ethel Avenue,40218,38.1924877,-85.6570675
3741,Ethel Avenue,40218,38.1929513,-85.6569238
3742,Marvin Avenue,40218,38.1933379,-85.6568690
3800,Shepherdsville Road,40218,38.1966408,-85.6622462
3802,Shepherdsville Road,40218,38.1966059,-85.6621972
3804,Shepherdsville Road,40218,38.1965649,-85.6621337
3806,Shepherdsville Road,40218,38.1965214,-85.6620742
3808,Shepherdsville Road,40218,38.1964922,-85.6620258
3810,Shepherdsville Road,40218,38.1964566,-85.6619768
3812,Shepherdsville Road,40218,38.1964272,-85.6619192
3814,Shepherdsville Road,40218,38.1963867,-85.6618636
3815,Shepherdsville Road,40218,38.1958489,-85.6621412
3906,Shepherdsville Road,40218,38.1955901,-85.6608838
3910,Shepherdsville Road,40218,38.1952984,-85.6608855
3912,Shepherdsville Road,40218,38.1951649,-85.6608337
3914,Shepherdsville Road,40218,38.1950346,-85.6607968
4031,Mccollum Court,40218,38.1936966,-85.6627997
4043,Mccollum Court,40218,38.1932736,-85.6621421
4600,Champions Trace Lane,40218,38.1950590,-85.6718106
4710,Champions Trace Lane,40218,38.1969846,-85.6664246
4710,Champions Trace Lane,40218,38.1970295,-85.6663433
4710,Champions Trace Lane,40218,38.1970607,-85.6662781
4710,Champions Trace Lane,40218,38.1970947,-85.6662135
4710,Champions Trace Lane,40218,38.1971289,-85.6661342
4710,Champions Trace Lane,40218,38.1971646,-85.6660696
4710,Champions Trace Lane,40218,38.1971969,-85.6660049
4710,Champions Trace Lane,40218,38.1972259,-85.6659465
4710,Champions Trace Lane,40218,38.1972599,-85.6658840
4710,Champions Trace Lane,40218,38.1972888,-85.6658278
4710,Champions Trace Lane,40218,38.1973145,-85.6657630
4730,Champions Trace Lane,40218,38.1976379,-85.6652196
5000,Crown Manor Place,40218,38.1946785,-85.6663622
5011,Crown Manor Place,40218,38.1954381,-85.6660839
3510,Paragon Court,40218,38.1967955,-85.6769112
3510,Paragon Court,40218,38.1968135,-85.6769119
3510,Paragon Court,40218,38.1968326,-85.6769119
3510,Paragon Court,40218,38.1968491,-85.6769126
3510,Paragon Court,40218,38.1968655,-85.6769125
3510,Paragon Court,40218,38.1968810,-85.6769128
3510,Paragon Court,40218,38.1968960,-85.6769131
3510,Paragon Court,40218,38.1969114,-85.6769139
3533,Leith Lane,40218,38.1965547,-85.6775685
3533,Leith Lane,40218,38.1965679,-85.6775683
3533,Leith Lane,40218,38.1965794,-85.6775677
3533,Leith Lane,40218,38.1965921,-85.6775679
3533,Leith Lane,40218,38.1966077,-85.6775678
3533,Leith Lane,40218,38.1966207,-85.6775681
1803,Bashford Manor Lane,40218,38.1958561,-85.6786862
1803,Bashford Manor Lane,40218,38.1958733,-85.6786866
1803,Bashford Manor Lane,40218,38.1958898,-85.6786860
1803,Bashford Manor Lane,40218,38.1959070,-85.6786864
1803,Bashford Manor Lane,40218,38.1959257,-85.6786867
1805,Bashford Manor Lane,40218,38.1959991,-85.6784367
1805,Bashford Manor Lane,40218,38.1960148,-85.6784384
1805,Bashford Manor Lane,40218,38.1960313,-85.6784387
1805,Bashford Manor Lane,40218,38.1960477,-85.6784390
1805,Bashford Manor Lane,40218,38.1960627,-85.6784393
1805,Bashford Manor Lane,40218,38.1960777,-85.6784396
1807,Bashford Manor Lane,40218,38.1961060,-85.6782009
1807,Bashford Manor Lane,40218,38.1961300,-85.6782014
1807,Bashford Manor Lane,40218,38.1961591,-85.6782041
3534,Leith Lane,40218,38.1963220,-85.6779789
3534,Leith Lane,40218,38.1963333,-85.6779792
3534,Leith Lane,40218,38.1963450,-85.6779794
3534,Leith Lane,40218,38.1963580,-85.6779796
3534,Leith Lane,40218,38.1963717,-85.6779799
3534,Leith Lane,40218,38.1963858,-85.6779802
4301,Petersburg Road,40218,38.1895972,-85.6721109
4303,Petersburg Road,40218,38.1893983,-85.6718665
4305,Petersburg Road,40218,38.1892931,-85.6717292
4307,Petersburg Road,40218,38.1891883,-85.6715614
4309,Petersburg Road,40218,38.1890594,-85.6714236
4311,Petersburg Road,40218,38.1889308,-85.6712554
2021,Hikes Lane,40218,38.1985814,-85.6619933
1908,Bashford Manor Lane,40218,38.1972939,-85.6744277
1960,Bashford Manor Lane,40218,38.1976677,-85.6733445
1901,Hikes Lane,40218,38.1957058,-85.6656081
1903,Hikes Lane,40218,38.1958089,-85.6655100
1905,Hikes Lane,40218,38.1958717,-85.6653343
1907,Hikes Lane,40218,38.1959665,-85.6652074
1909,Hikes Lane,40218,38.1960419,-85.6650577
1911,Hikes Lane,40218,38.1961369,-85.6649341
1913,Hikes Lane,40218,38.1962092,-85.6647959
1915,Hikes Lane,40218,38.1963158,-85.6646736
1917,Hikes Lane,40218,38.1963834,-85.6645257
1919,Hikes Lane,40218,38.1964745,-85.6643853
1920,Old Shepherdsville Road,40218,38.1920566,-85.6591601
1921,Hikes Lane,40218,38.1965580,-85.6642440
1923,Hikes Lane,40218,38.1966357,-85.6641043
1925,Hikes Lane,40218,38.1967849,-85.6639794
1930,Old Shepherdsville Road,40218,38.1919987,-85.6595487
1940,Old Shepherdsville Road,40218,38.1918848,-85.6598972
2000,Hikes Lane,40218,38.1969017,-85.6626386
2000,Old Shepherdsville Road,40218,38.1923712,-85.6599938
2001,Hikes Lane,40218,38.1972038,-85.6631929
2002,Old Shepherdsville Road,40218,38.1924572,-85.6600779
2004,Old Shepherdsville Road,40218,38.1925429,-85.6599921
2005,Hikes Lane,40218,38.1974454,-85.6628414
2008,Hikes Lane,40218,38.1972195,-85.6622746
2008,Old Shepherdsville Road,40218,38.1927281,-85.6601905
2010,Old Shepherdsville Road,40218,38.1928680,-85.6602569
2018,Bashford Manor Lane,40218,38.1998459,-85.6696160
2020,Bashford Manor Lane,40218,38.1990715,-85.6676011
2026,Old Shepherdsville Road,40218,38.1935127,-85.6603576
2106,Old Shepherdsville Road,40218,38.1958073,-85.6610345
2108,Old Shepherdsville Road,40218,38.1959631,-85.6610530
2110,Old Shepherdsville Road,40218,38.1960941,-85.6610682
2114,Old Shepherdsville Road,40218,38.1963795,-85.6610325
2116,Old Shepherdsville Road,40218,38.1965275,-85.6609701
2118,Old Shepherdsville Road,40218,38.1966451,-85.6610393
2119,Old Shepherdsville Road,40218,38.1966089,-85.6616876
2120,Old Shepherdsville Road,40218,38.1967796,-85.6611084
2122,Old Shepherdsville Road,40218,38.1969304,-85.6610646
2123,Old Shepherdsville Road,40218,38.1968264,-85.6616994
2125,Old Shepherdsville Road,40218,38.1969851,-85.6617263
2127,Old Shepherdsville Road,40218,38.1971213,-85.6617373
2129,Old Shepherdsville Road,40218,38.1972741,-85.6619996
2138,Old Shepherdsville Road,40218,38.1975353,-85.6610466
2140,Old Shepherdsville Road,40218,38.1978290,-85.6611501
3400,Bashford Avenue Court,40218,38.1916421,-85.6675249
3401,Bashford Avenue Court,40218,38.1918867,-85.6692329
3407,Bashford Avenue Court,40218,38.1925510,-85.6683977
3410,Bashford Avenue Court,40218,38.1931906,-85.6665191
3419,Bashford Avenue Court,40218,38.1932936,-85.6673925
3500,Bashford Avenue,40218,38.1936098,-85.6654616
3501,Bashford Avenue,40218,38.1944527,-85.6653563
3502,Bashford Avenue,40218,38.1936327,-85.6649281
3503,Bashford Avenue,40218,38.1953092,-85.6643546
3505,Bashford Avenue,40218,38.1946566,-85.6646521
3509,Bashford Avenue,40218,38.1950418,-85.6633170
3515,Newburg Road,40218,38.1913795,-85.6724539
3519,Newburg Road,40218,38.1907540,-85.6720536
3521,Newburg Road,40218,38.1912940,-85.6702880
3524,Bardstown Road,40218,38.2005941,-85.6635858
3540,Bashford Avenue,40218,38.1941055,-85.6629818
3560,Bardstown Road,40218,38.1997508,-85.6651910
3560,Bashford Avenue,40218,38.1938591,-85.6615628
3600,Bardstown Road,40218,38.2022595,-85.6648748
3600,Fountain Drive,40218,38.1956203,-85.6664746
3608,Buechel Bypass,40218,38.1995814,-85.6626701
3610,Buechel Bypass,40218,38.1992337,-85.6626479
3701,Glengyle Avenue,40218,38.1964964,-85.6607121
3702,Bashford Avenue,40218,38.1944558,-85.6603564
3702,Glengyle Avenue,40218,38.1961142,-85.6605052
3703,Glengyle Avenue,40218,38.1965064,-85.6605773
3704,Bashford Avenue,40218,38.1944675,-85.6601821
3704,Glengyle Avenue,40218,38.1961237,-85.6603578
3704,Marvin Avenue,40218,38.1928821,-85.6598435
3705,Bashford Avenue,40218,38.1948417,-85.6607318
3705,Ethel Avenue,40218,38.1924766,-85.6595868
3705,Glengyle Avenue,40218,38.1965257,-85.6603979
3705,Marvin Avenue,40218,38.1932537,-85.6599715
3706,Bashford Avenue,40218,38.1944946,-85.6600157
3706,Glengyle Avenue,40218,38.1961508,-85.6601919
3706,Selma Avenue,40218,38.1952950,-85.6605876
3706,St Francis Avenue,40218,38.1936767,-85.6599288
3707,Ethel Avenue,40218,38.1924943,-85.6594596
3707,Marvin Avenue,40218,38.1932609,-85.6598156
3707,Selma Avenue,40218,38.1956684,-85.6606355
3708,Bashford Avenue,40218,38.1945152,-85.6598622
3708,Glengyle Avenue,40218,38.1961825,-85.6600380
3708,Marvin Avenue,40218,38.1929235,-85.6595453
3708,Roosevelt Avenue,40218,38.1969509,-85.6606017
3708,St Francis Avenue,40218,38.1937121,-85.6597829
3709,Ethel Avenue,40218,38.1925093,-85.6592562
3709,Glengyle Avenue,40218,38.1965881,-85.6602029
3709,Marvin Avenue,40218,38.1933030,-85.6595788
3709,St Francis Avenue,40218,38.1941188,-85.6598172
3710,Ethel Avenue,40218,38.1921573,-85.6588984
3710,Glengyle Avenue,40218,38.1962065,-85.6598827
3710,Marvin Avenue,40218,38.1929297,-85.6594092
3710,Roosevelt Avenue,40218,38.1969950,-85.6604398
3710,Selma Avenue,40218,38.1953453,-85.6602730
3710,St Francis Avenue,40218,38.1937183,-85.6596426
3711,Ethel Avenue,40218,38.1927120,-85.6592233
3711,Glengyle Avenue,40218,38.1966000,-85.6600161
3711,Marvin Avenue,40218,38.1933064,-85.6594017
3711,Selma Avenue,40218,38.1956716,-85.6603522
3711,St Francis Avenue,40218,38.1941336,-85.6596107
3712,Ethel Avenue,40218,38.1921775,-85.6588050
3712,Glengyle Avenue,40218,38.1961841,-85.6596904
3712,Marvin Avenue,40218,38.1929878,-85.6592646
3712,St Francis Avenue,40218,38.1937660,-85.6594541
3713,Bashford Avenue,40218,38.1949530,-85.6597381
3713,Ethel Avenue,40218,38.1925327,-85.6590503
3713,Glengyle Avenue,40218,38.1966333,-85.6597922
3713,Marvin Avenue,40218,38.1933660,-85.6592644
3713,Selma Avenue,40218,38.1957024,-85.6601719
3713,St Francis Avenue,40218,38.1941750,-85.6594568
3714,Ethel Avenue,40218,38.1921930,-85.6587277
3714,Glengyle Avenue,40218,38.1962211,-85.6594649
3714,Marvin Avenue,40218,38.1929918,-85.6590989
3715,Bashford Avenue,40218,38.1949749,-85.6595010
3715,Ethel Avenue,40218,38.1925476,-85.6589234
3715,Selma Avenue,40218,38.1957408,-85.6599848
3715,St Francis Avenue,40218,38.1941899,-85.6592767
3716,Bashford Avenue,40218,38.1946039,-85.6594510
3716,Ethel Avenue,40218,38.1922083,-85.6586502
3716,St Francis Avenue,40218,38.1937525,-85.6591180
3717,Bashford Avenue,40218,38.1949929,-85.6593522
3717,Ethel Avenue,40218,38.1925926,-85.6587265
3717,Selma Avenue,40218,38.1957796,-85.6598254
3717,St Francis Avenue,40218,38.1942460,-85.6591202
3718,Bashford Avenue,40218,38.1946270,-85.6592438
3718,Marvin Avenue,40218,38.1930460,-85.6587939
3718,Selma Avenue,40218,38.1953917,-85.6598110
3718,St Francis Avenue,40218,38.1938237,-85.6588355
3719,Bashford Avenue,40218,38.1950231,-85.6591936
3719,Ethel Avenue,40218,38.1926393,-85.6585271
3719,Selma Avenue,40218,38.1957954,-85.6596733
3719,St Francis Avenue,40218,38.1942479,-85.6589549
3720,Bashford Avenue,40218,38.1946286,-85.6590719
3720,Ethel Avenue,40218,38.1922219,-85.6583812
3720,Selma Avenue,40218,38.1954239,-85.6596410
3720,St Francis Avenue,40218,38.1937601,-85.6586444
3721,Bashford Avenue,40218,38.1950701,-85.6590055
3721,Ethel Avenue,40218,38.1926595,-85.6583003
3721,Marvin Avenue,40218,38.1935227,-85.6585886
3721,Selma Avenue,40218,38.1958206,-85.6594646
3721,St Francis Avenue,40218,38.1942405,-85.6588077
3722,Bashford Avenue,40218,38.1946544,-85.6589215
3722,Ethel Avenue,40218,38.1922749,-85.6582373
3722,Marvin Avenue,40218,38.1930802,-85.6584693
3722,Selma Avenue,40218,38.1954351,-85.6593708
3722,St Francis Avenue,40218,38.1939027,-85.6585486
3723,Ethel Avenue,40218,38.1927053,-85.6580908
3723,Selma Avenue,40218,38.1958405,-85.6592963
3724,Bashford Avenue,40218,38.1946979,-85.6587875
3724,Ethel Avenue,40218,38.1922730,-85.6580571
3724,Marvin Avenue,40218,38.1930800,-85.6582676
3724,Selma Avenue,40218,38.1954690,-85.6591972
3724,St Francis Avenue,40218,38.1939276,-85.6583665
3725,Bashford Avenue,40218,38.1950982,-85.6587199
3725,Ethel Avenue,40218,38.1927582,-85.6576164
3725,Marvin Avenue,40218,38.1935037,-85.6582835
3725,Selma Avenue,40218,38.1958681,-85.6590592
3726,Ethel Avenue,40218,38.1923001,-85.6579337
3726,St Francis Avenue,40218,38.1939604,-85.6580301
3727,St Francis Avenue,40218,38.1944064,-85.6580182
3728,Ethel Avenue,40218,38.1923126,-85.6578547
3728,Selma Avenue,40218,38.1955544,-85.6588658
3728,St Francis Avenue,40218,38.1939933,-85.6578861
3729,Ethel Avenue,40218,38.1928316,-85.6574914
3729,Marvin Avenue,40218,38.1935344,-85.6579158
3729,St Francis Avenue,40218,38.1943772,-85.6578064
3730,Hikes Avenue,40218,38.1952003,-85.6583227
3730,Marvin Avenue,40218,38.1931937,-85.6577922
3730,St Francis Avenue,40218,38.1939981,-85.6577329
3731,Ethel Avenue,40218,38.1927931,-85.6573674
3731,Marvin Avenue,40218,38.1935654,-85.6577621
3731,St Francis Avenue,40218,38.1944314,-85.6575641
3732,Ethel Avenue,40218,38.1923657,-85.6575236
3732,Marvin Avenue,40218,38.1931886,-85.6576317
3733,Ethel Avenue,40218,38.1928320,-85.6572729
3733,Marvin Avenue,40218,38.1935582,-85.6576068
3734,Ethel Avenue,40218,38.1923861,-85.6573296
3734,Marvin Avenue,40218,38.1932310,-85.6575268
3734,St Francis Avenue,40218,38.1940383,-85.6574679
3735,Marvin Avenue,40218,38.1937880,-85.6573545
3736,Marvin Avenue,40218,38.1932527,-85.6573428
3737,Ethel Avenue,40218,38.1928420,-85.6571594
3737,Marvin Avenue,40218,38.1936708,-85.6571346
3740,Marvin Avenue,40218,38.1933204,-85.6569991
3743,Ethel Avenue,40218,38.1930248,-85.6567733
3743,Marvin Avenue,40218,38.1936840,-85.6568927
3744,Marvin Avenue,40218,38.1933602,-85.6567285
3745,Ethel Avenue,40218,38.1931482,-85.6564031
3746,Ethel Avenue,40218,38.1926974,-85.6564542
3752,Ethel Avenue,40218,38.1927869,-85.6560855
3809,Shepherdsville Road,40218,38.1959318,-85.6623841
3901,Shepherdsville Road,40218,38.1954516,-85.6620992
3904,Shepherdsville Road,40218,38.1956933,-85.6610279
3913,Shepherdsville Road,40218,38.1950356,-85.6617630
4000,Mccollum Court,40218,38.1937762,-85.6641483
4002,Shepherdsville Road,40218,38.1944355,-85.6605976
4004,Shepherdsville Road,40218,38.1942184,-85.6606028
4006,Shepherdsville Road,40218,38.1940415,-85.6605437
4011,Shepherdsville Road,40218,38.1931498,-85.6613701
4020,Mccollum Court,40218,38.1927778,-85.6642870
4021,Shepherdsville Road,40218,38.1924815,-85.6615106
4041,Mccollum Court,40218,38.1933829,-85.6627045
4045,Mccollum Court,40218,38.1929915,-85.6626893
4051,Mccollum Court,40218,38.1926678,-85.6622476
4061,Mccollum Court,40218,38.1917776,-85.6622325
4092,Mccollum Court,40218,38.1917079,-85.6634190
4500,Champions Trace Lane,40218,38.1938624,-85.6750553
4501,Champions Trace Lane,40218,38.1945970,-85.6772914
4515,Champions Trace Lane,40218,38.1948575,-85.6771060
5001,Crown Manor Place,40218,38.1948899,-85.6669063
2100,Bashford Manor Lane,40218,38.2007513,-85.6653615
3435,Bashford Avenue Court,40218,38.1943208,-85.6661557
3520,Bardstown Road,40218,38.2012474,-85.6639457
3602,Buechel Bypass,40218,38.1998195,-85.6629918
2021,Hikes Lane,40218,38.1984370,-85.6620245
3616,Buechel Bypass,40218,38.1982641,-85.6636405
3531,Leith Lane,40218,38.1967839,-85.6776684
3532,Leith Lane,40218,38.1965811,-85.6781454
4300,Petersburg Road,40218,38.1887359,-85.6725392
4500,Produce Road,40218,38.1875776,-85.6740288
