House number,Street name,Postal code,Latitude,Longitude
1000,Westgate Place,40207,38.2649523,-85.6337096
1002,Westgate Place,40207,38.2648000,-85.6339409
1004,Westgate Place,40207,38.2646513,-85.6341667
1005,Westgate Place,40207,38.2654543,-85.6346426
1005,Westgate Place,40207,38.2656099,-85.6344331
1006,Westgate Place,40207,38.2645049,-85.6344155
1100,Chamberlain Hill Road,40207,38.2699945,-85.6453624
1101,Chamberlain Hill Road,40207,38.2705973,-85.6449076
1102,Chamberlain Hill Road,40207,38.2700248,-85.6452785
1103,Chamberlain Hill Road,40207,38.2705713,-85.6451492
1104,Chamberlain Hill Road,40207,38.2700938,-85.6452106
1104,Wellington Place,40207,38.2706884,-85.6450496
1105,Chamberlain Hill Road,40207,38.2706321,-85.6452989
1106,Chamberlain Hill Road,40207,38.2701630,-85.6451257
1107,Chamberlain Hill Road,40207,38.2707195,-85.6454059
1108,Wellington Place,40207,38.2708227,-85.6453021
1109,Chamberlain Hill Road,40207,38.2708973,-85.6454524
1110,Chamberlain Hill Road,40207,38.2702712,-85.6457583
1110,Chamberlain Hill Road,40207,38.2702793,-85.6456461
1110,Chamberlain Hill Road,40207,38.2703188,-85.6457592
1110,Chamberlain Hill Road,40207,38.2703405,-85.6456560
1110,Chamberlain Hill Road,40207,38.2704004,-85.6457782
1110,Chamberlain Hill Road,40207,38.2704082,-85.6456921
1110,Chamberlain Hill Road,40207,38.2704683,-85.6457882
1110,Chamberlain Hill Road,40207,38.2704763,-85.6456934
1112,Chamberlain Hill Road,40207,38.2708484,-85.6458992
1200,Creighton Hill Road,40207,38.2712767,-85.6462906
1200,Wellington Place,40207,38.2714802,-85.6456648
1201,Wellington Place,40207,38.2714979,-85.6450669
1202,Creighton Hill Road,40207,38.2713273,-85.6464244
1202,Wellington Place,40207,38.2715701,-85.6457907
1203,Wellington Place,40207,38.2715560,-85.6451067
1204,Creighton Hill Road,40207,38.2714042,-85.6465582
1204,Wellington Place,40207,38.2716273,-85.6459163
1205,Wellington Place,40207,38.2716307,-85.6451722
1206,Creighton Hill Road,40207,38.2714682,-85.6466670
1207,Wellington Place,40207,38.2717469,-85.6452558
1208,Creighton Hill Road,40207,38.2715446,-85.6468261
1209,Wellington Place,40207,38.2719346,-85.6454402
1211,Wellington Place,40207,38.2720011,-85.6454837
1213,Wellington Place,40207,38.2718646,-85.6462853
1215,Wellington Place,40207,38.2719440,-85.6461959
1217,Wellington Place,40207,38.2720105,-85.6460979
1219,Wellington Place,40207,38.2720968,-85.6459832
1221,Wellington Place,40207,38.2721701,-85.6458688
1223,Wellington Place,40207,38.2722498,-85.6457541
1309,Killiney Place,40207,38.2734031,-85.6465039
1310,Killiney Place,40207,38.2732278,-85.6468855
1608,Two Springs Place,40207,38.2722191,-85.6334949
301,Kirkwood Glen Circle,40207,38.2649462,-85.6369951
305,Kirkwood Glen Circle,40207,38.2653427,-85.6370897
307,Kirkwood Glen Circle,40207,38.2654756,-85.6372193
309,Kirkwood Glen Circle,40207,38.2655998,-85.6373668
315,Kirkwood Glen Circle,40207,38.2659309,-85.6380469
414,Deerfield Lane,40207,38.2657477,-85.6429047
416,Deerfield Lane,40207,38.2658057,-85.6429554
4301,Kirkhill Road,40207,38.2659894,-85.6377988
4303,Kirkhill Road,40207,38.2661118,-85.6376124
4304,Kirkhill Road,40207,38.2659053,-85.6371731
4305,Kirkhill Road,40207,38.2662139,-85.6374475
4306,Kirkhill Road,40207,38.2660365,-85.6369615
4307,Kirkhill Road,40207,38.2663564,-85.6372506
4402,Jonlyn Court,40207,38.2660604,-85.6336989
4488,Brownsboro Road,40207,38.2721675,-85.6476280
4748,Brownsboro Road,40207,38.2773466,-85.6387706
4750,Brownsboro Road,40207,38.2776460,-85.6381540
511,Kinglan Road,40207,38.2697522,-85.6380096
5600,Coach Gate Wynde,40207,38.2686986,-85.6479706
5601,Coach Gate Wynde,40207,38.2689599,-85.6484184
5601,Coach Gate Wynde,40207,38.2689693,-85.6485452
5601,Coach Gate Wynde,40207,38.2689805,-85.6486720
5601,Coach Gate Wynde,40207,38.2689879,-85.6488103
5601,Coach Gate Wynde,40207,38.2690038,-85.6483962
5601,Coach Gate Wynde,40207,38.2690043,-85.6489602
5601,Coach Gate Wynde,40207,38.2690314,-85.6491492
5601,Coach Gate Wynde,40207,38.2690377,-85.6492264
5601,Coach Gate Wynde,40207,38.2690441,-85.6492875
5601,Coach Gate Wynde,40207,38.2690522,-85.6493582
5601,Coach Gate Wynde,40207,38.2690547,-85.6483856
5601,Coach Gate Wynde,40207,38.2690602,-85.6494306
5601,Coach Gate Wynde,40207,38.2690701,-85.6495057
5601,Coach Gate Wynde,40207,38.2690713,-85.6485172
5601,Coach Gate Wynde,40207,38.2690761,-85.6495968
5601,Coach Gate Wynde,40207,38.2690823,-85.6486578
5601,Coach Gate Wynde,40207,38.2690840,-85.6496854
5601,Coach Gate Wynde,40207,38.2690918,-85.6497804
5601,Coach Gate Wynde,40207,38.2690988,-85.6487917
5601,Coach Gate Wynde,40207,38.2691014,-85.6498760
5601,Coach Gate Wynde,40207,38.2691080,-85.6489323
5601,Coach Gate Wynde,40207,38.2691162,-85.6499808
5601,Coach Gate Wynde,40207,38.2691257,-85.6491871
5601,Coach Gate Wynde,40207,38.2691356,-85.6492601
5601,Coach Gate Wynde,40207,38.2691419,-85.6493259
5601,Coach Gate Wynde,40207,38.2691518,-85.6493984
5601,Coach Gate Wynde,40207,38.2691583,-85.6494556
5601,Coach Gate Wynde,40207,38.2691627,-85.6495301
5601,Coach Gate Wynde,40207,38.2691708,-85.6496008
5601,Coach Gate Wynde,40207,38.2691789,-85.6496689
5601,Coach Gate Wynde,40207,38.2691870,-85.6497483
5601,Coach Gate Wynde,40207,38.2691932,-85.6498190
5601,Coach Gate Wynde,40207,38.2692012,-85.6499005
5601,Coach Gate Wynde,40207,38.2692091,-85.6499826
5602,Coach Gate Wynde,40207,38.2686405,-85.6479233
5604,Coach Gate Wynde,40207,38.2688641,-85.6476764
5606,Coach Gate Wynde,40207,38.2688366,-85.6476475
5608,Coach Gate Wynde,40207,38.2690636,-85.6473401
5610,Coach Gate Wynde,40207,38.2690109,-85.6473034
5612,Coach Gate Wynde,40207,38.2691983,-85.6470523
5614,Coach Gate Wynde,40207,38.2691566,-85.6470336
565,North Hubbards Lane,40207,38.2698529,-85.6513331
5700,Coach Gate Wynde,40207,38.2693330,-85.6467609
5701,Coach Gate Wynde,40207,38.2694243,-85.6476919
5701,Coach Gate Wynde,40207,38.2694522,-85.6477469
5701,Coach Gate Wynde,40207,38.2694802,-85.6477953
5701,Coach Gate Wynde,40207,38.2695065,-85.6478411
5701,Coach Gate Wynde,40207,38.2695309,-85.6478891
5701,Coach Gate Wynde,40207,38.2695372,-85.6482589
5701,Coach Gate Wynde,40207,38.2695432,-85.6483587
5701,Coach Gate Wynde,40207,38.2695447,-85.6485286
5701,Coach Gate Wynde,40207,38.2695458,-85.6484336
5701,Coach Gate Wynde,40207,38.2695517,-85.6479439
5701,Coach Gate Wynde,40207,38.2695525,-85.6486310
5701,Coach Gate Wynde,40207,38.2695672,-85.6479938
5701,Coach Gate Wynde,40207,38.2695673,-85.6487332
5701,Coach Gate Wynde,40207,38.2695754,-85.6480576
5701,Coach Gate Wynde,40207,38.2695817,-85.6481213
5701,Coach Gate Wynde,40207,38.2695862,-85.6481984
5701,Coach Gate Wynde,40207,38.2695873,-85.6482598
5701,Coach Gate Wynde,40207,38.2695912,-85.6488269
5701,Coach Gate Wynde,40207,38.2695937,-85.6483209
5701,Coach Gate Wynde,40207,38.2695947,-85.6483867
5701,Coach Gate Wynde,40207,38.2696010,-85.6484574
5701,Coach Gate Wynde,40207,38.2696055,-85.6485297
5701,Coach Gate Wynde,40207,38.2696101,-85.6485934
5701,Coach Gate Wynde,40207,38.2696218,-85.6486594
5701,Coach Gate Wynde,40207,38.2696319,-85.6487118
5701,Coach Gate Wynde,40207,38.2696419,-85.6487778
5701,Coach Gate Wynde,40207,38.2696554,-85.6488368
5701,Coach Gate Wynde,40207,38.2696762,-85.6488916
5701,Coach Gate Wynde,40207,38.2696953,-85.6489399
5701,Coach Gate Wynde,40207,38.2697162,-85.6489808
5701,Coach Gate Wynde,40207,38.2697408,-85.6490222
5702,Coach Gate Wynde,40207,38.2693114,-85.6467000
5704,Coach Gate Wynde,40207,38.2695346,-85.6464813
5706,Coach Gate Wynde,40207,38.2694876,-85.6464412
5708,Coach Gate Wynde,40207,38.2698183,-85.6463488
5710,Coach Gate Wynde,40207,38.2700439,-85.6463030
5716,Coach Gate Wynde,40207,38.2703400,-85.6463797
5718,Coach Gate Wynde,40207,38.2703657,-85.6463345
5720,Coach Gate Wynde,40207,38.2703785,-85.6464336
5722,Coach Gate Wynde,40207,38.2704155,-85.6463777
5724,Coach Gate Wynde,40207,38.2704312,-85.6464668
5726,Coach Gate Wynde,40207,38.2704765,-85.6464106
5728,Coach Gate Wynde,40207,38.2704891,-85.6465280
5730,Coach Gate Wynde,40207,38.2705172,-85.6465072
5800,Coach Gate Wynde,40207,38.2696898,-85.6473095
5800,Coach Gate Wynde,40207,38.2697051,-85.6472236
5800,Coach Gate Wynde,40207,38.2697158,-85.6473736
5800,Coach Gate Wynde,40207,38.2697347,-85.6472877
5800,Coach Gate Wynde,40207,38.2697403,-85.6474237
5800,Coach Gate Wynde,40207,38.2697591,-85.6473448
5800,Coach Gate Wynde,40207,38.2697646,-85.6474808
5800,Coach Gate Wynde,40207,38.2697782,-85.6473926
5800,Coach Gate Wynde,40207,38.2697907,-85.6475383
5800,Coach Gate Wynde,40207,38.2698008,-85.6474453
5800,Coach Gate Wynde,40207,38.2698186,-85.6475998
5800,Coach Gate Wynde,40207,38.2698252,-85.6474959
5800,Coach Gate Wynde,40207,38.2698464,-85.6476639
5800,Coach Gate Wynde,40207,38.2698477,-85.6475529
5800,Coach Gate Wynde,40207,38.2698668,-85.6476029
5800,Coach Gate Wynde,40207,38.2698743,-85.6477232
5800,Coach Gate Wynde,40207,38.2698912,-85.6476604
5800,Coach Gate Wynde,40207,38.2698968,-85.6477872
5800,Coach Gate Wynde,40207,38.2699068,-85.6478488
5800,Coach Gate Wynde,40207,38.2699119,-85.6477174
5800,Coach Gate Wynde,40207,38.2699131,-85.6479169
5800,Coach Gate Wynde,40207,38.2699153,-85.6480328
5800,Coach Gate Wynde,40207,38.2699159,-85.6479779
5800,Coach Gate Wynde,40207,38.2699183,-85.6480846
5800,Coach Gate Wynde,40207,38.2699201,-85.6482231
5800,Coach Gate Wynde,40207,38.2699210,-85.6481461
5800,Coach Gate Wynde,40207,38.2699211,-85.6482933
5800,Coach Gate Wynde,40207,38.2699237,-85.6483795
5800,Coach Gate Wynde,40207,38.2699344,-85.6477814
5800,Coach Gate Wynde,40207,38.2699496,-85.6478518
5800,Coach Gate Wynde,40207,38.2699612,-85.6479313
5800,Coach Gate Wynde,40207,38.2699709,-85.6480177
5800,Coach Gate Wynde,40207,38.2699753,-85.6480970
5800,Coach Gate Wynde,40207,38.2699778,-85.6481881
5800,Coach Gate Wynde,40207,38.2699785,-85.6482765
5800,Coach Gate Wynde,40207,38.2699808,-85.6483828
5800,Coach Gate Wynde,40207,38.2699850,-85.6484804
5800,Coach Gate Wynde,40207,38.2700635,-85.6470036
5800,Coach Gate Wynde,40207,38.2700817,-85.6471176
5800,Coach Gate Wynde,40207,38.2700985,-85.6472107
5800,Coach Gate Wynde,40207,38.2701153,-85.6473016
5800,Coach Gate Wynde,40207,38.2701320,-85.6474042
5800,Coach Gate Wynde,40207,38.2701388,-85.6469802
5800,Coach Gate Wynde,40207,38.2701470,-85.6474838
5800,Coach Gate Wynde,40207,38.2701557,-85.6470576
5800,Coach Gate Wynde,40207,38.2701674,-85.6475769
5800,Coach Gate Wynde,40207,38.2701727,-85.6471307
5800,Coach Gate Wynde,40207,38.2701879,-85.6472102
5800,Coach Gate Wynde,40207,38.2702003,-85.6476685
5800,Coach Gate Wynde,40207,38.2702065,-85.6473011
5800,Coach Gate Wynde,40207,38.2702215,-85.6473898
5800,Coach Gate Wynde,40207,38.2702400,-85.6474855
5800,Coach Gate Wynde,40207,38.2702425,-85.6477281
5800,Coach Gate Wynde,40207,38.2702690,-85.6475950
5800,Coach Gate Wynde,40207,38.2702882,-85.6477856
5800,Coach Gate Wynde,40207,38.2703360,-85.6478297
5800,Coach Gate Wynde,40207,38.2703361,-85.6476733
5800,Coach Gate Wynde,40207,38.2703800,-85.6478828
5800,Coach Gate Wynde,40207,38.2703979,-85.6477355
5800,Coach Gate Wynde,40207,38.2704277,-85.6479359
5800,Coach Gate Wynde,40207,38.2704615,-85.6477959
5800,Coach Gate Wynde,40207,38.2704701,-85.6479799
5800,Coach Gate Wynde,40207,38.2705162,-85.6478536
5800,Coach Gate Wynde,40207,38.2705176,-85.6480396
5800,Coach Gate Wynde,40207,38.2705692,-85.6479090
5800,Coach Gate Wynde,40207,38.2705706,-85.6480880
5800,Coach Gate Wynde,40207,38.2706167,-85.6479714
5800,Coach Gate Wynde,40207,38.2706201,-85.6481369
5800,Coach Gate Wynde,40207,38.2706679,-85.6480242
5800,Coach Gate Wynde,40207,38.2706714,-85.6481788
5800,Coach Gate Wynde,40207,38.2707155,-85.6480843
5800,Creighton Hill Road,40207,38.2708300,-85.6463046
5801,Coach Gate Wynde,40207,38.2710992,-85.6475844
5801,Creighton Hill Road,40207,38.2708864,-85.6471627
5802,Creighton Hill Road,40207,38.2708659,-85.6461412
5803,Coach Gate Wynde,40207,38.2711705,-85.6476885
5803,Creighton Hill Road,40207,38.2709675,-85.6471534
5804,Creighton Hill Road,40207,38.2708944,-85.6460381
5805,Coach Gate Wynde,40207,38.2713642,-85.6478307
5805,Creighton Hill Road,40207,38.2710518,-85.6471088
5806,Creighton Hill Road,40207,38.2709121,-85.6461024
5807,Coach Gate Wynde,40207,38.2714777,-85.6479213
5807,Creighton Hill Road,40207,38.2711365,-85.6470329
5809,Coach Gate Wynde,40207,38.2716101,-85.6480584
5809,Creighton Hill Road,40207,38.2712040,-85.6469951
5811,Coach Gate Wynde,40207,38.2717153,-85.6481349
5811,Creighton Hill Road,40207,38.2712975,-85.6468728
5813,Coach Gate Wynde,40207,38.2719493,-85.6484429
5813,Coach Gate Wynde,40207,38.2719860,-85.6484806
5813,Coach Gate Wynde,40207,38.2720081,-85.6484994
5813,Coach Gate Wynde,40207,38.2720272,-85.6484018
5813,Coach Gate Wynde,40207,38.2720414,-85.6485344
5813,Coach Gate Wynde,40207,38.2720674,-85.6484265
5813,Coach Gate Wynde,40207,38.2720805,-85.6485478
5813,Coach Gate Wynde,40207,38.2721094,-85.6484800
5900,Creighton Hill Road,40207,38.2710071,-85.6443028
5900,Creighton Hill Road,40207,38.2710664,-85.6442508
5900,Creighton Hill Road,40207,38.2710682,-85.6443288
5900,Creighton Hill Road,40207,38.2711012,-85.6441348
5900,Creighton Hill Road,40207,38.2711136,-85.6442730
5900,Creighton Hill Road,40207,38.2711320,-85.6443688
5900,Creighton Hill Road,40207,38.2711481,-85.6441888
5900,Creighton Hill Road,40207,38.2712075,-85.6441294
5901,Creighton Hill Road,40207,38.2715647,-85.6446148
5902,Creighton Hill Road,40207,38.2713268,-85.6439510
5903,Creighton Hill Road,40207,38.2716383,-85.6445344
5904,Creighton Hill Road,40207,38.2714006,-85.6438570
5905,Creighton Hill Road,40207,38.2717863,-85.6443003
5906,Creighton Hill Road,40207,38.2714996,-85.6437457
5907,Creighton Hill Road,40207,38.2718710,-85.6442201
5909,Creighton Hill Road,40207,38.2719869,-85.6441021
5910,Creighton Hill Road,40207,38.2719261,-85.6435767
5911,Creighton Hill Road,40207,38.2720859,-85.6439978
5912,Creighton Hill Road,40207,38.2718551,-85.6434477
599,North Hubbards Lane,40207,38.2701235,-85.6518199
6112,Two Springs Lane,40207,38.2716146,-85.6364127
6202,Two Springs Lane,40207,38.2720810,-85.6361464
6206,Two Springs Lane,40207,38.2722973,-85.6358635
6208,Two Springs Lane,40207,38.2725542,-85.6357957
701,Tunbridge Wells Lane,40207,38.2722912,-85.6464525
703,Tunbridge Wells Lane,40207,38.2723583,-85.6464877
705,Tunbridge Wells Lane,40207,38.2725379,-85.6466449
707,Tunbridge Wells Lane,40207,38.2726064,-85.6467076
709,Tunbridge Wells Lane,40207,38.2727962,-85.6468607
710,Victoria Place,40207,38.2727747,-85.6455029
711,Tunbridge Wells Lane,40207,38.2728482,-85.6469147
301,South Foeburn Lane,40207,38.2651941,-85.6331673
4802,Brownsboro Center,40207,38.2774109,-85.6367899
4804,Brownsboro Center,40207,38.2774695,-85.6367884
4806,Brownsboro Center,40207,38.2776728,-85.6368715
4808,Brownsboro Center,40207,38.2777615,-85.6367221
4812,Brownsboro Center,40207,38.2778690,-85.6365191
4814,Brownsboro Center,40207,38.2779042,-85.6364479
4816,Brownsboro Center,40207,38.2779269,-85.6364048
4818,Brownsboro Center,40207,38.2779479,-85.6363437
4820,Brownsboro Center,40207,38.2779931,-85.6362775
4822,Brownsboro Center,40207,38.2779136,-85.6361658
4824,Brownsboro Center,40207,38.2778695,-85.6361341
4826,Brownsboro Center,40207,38.2778255,-85.6360949
4828,Brownsboro Center,40207,38.2778570,-85.6360006
4830,Brownsboro Center,40207,38.2779009,-85.6360476
4832,Brownsboro Center,40207,38.2779448,-85.6360946
4834,Brownsboro Center,40207,38.2779818,-85.6360439
4836,Brownsboro Center,40207,38.2779357,-85.6360073
4838,Brownsboro Center,40207,38.2779078,-85.6359732
4840,Brownsboro Center,40207,38.2778761,-85.6359243
4842,Brownsboro Center,40207,38.2778951,-85.6358528
4844,Brownsboro Center,40207,38.2779331,-85.6358840
4846,Brownsboro Center,40207,38.2779732,-85.6359105
4848,Brownsboro Center,40207,38.2780111,-85.6359548
4850,Brownsboro Center,40207,38.2780514,-85.6361402
4852,Brownsboro Center,40207,38.2780785,-85.6360741
4854,Brownsboro Center,40207,38.2781013,-85.6360257
4856,Brownsboro Center,40207,38.2781221,-85.6359752
4858,Brownsboro Center,40207,38.2781408,-85.6359315
4860,Brownsboro Center,40207,38.2781554,-85.6358961
4868,Brownsboro Center,40207,38.2779509,-85.6357537
4870,Brownsboro Center,40207,38.2778435,-85.6357695
4872,Brownsboro Center,40207,38.2777420,-85.6359753
4874,Brownsboro Center,40207,38.2775847,-85.6362802
4876,Brownsboro Center,40207,38.2776367,-85.6363326
4880,Brownsboro Road,40207,38.2786507,-85.6362339
4882,Brownsboro Road,40207,38.2786114,-85.6363103
4884,Brownsboro Road,40207,38.2787301,-85.6363609
4888,Brownsboro Road,40207,38.2788020,-85.6364419
4892,Brownsboro Road,40207,38.2789040,-85.6365258
4898,Brownsboro Road,40207,38.2789368,-85.6366649
902,Clerkenwell Court,40207,38.2659108,-85.6252846
903,Clerkenwell Court,40207,38.2661244,-85.6252934
4858,Brownsboro Road,40207,38.2780082,-85.6359346
4858,Brownsboro Road,40207,38.2781608,-85.6359730
4870,Brownsboro Center,40207,38.2777492,-85.6359046
4350,Brownsboro Road,40207,38.2693658,-85.6533928
4360,Brownsboro Road,40207,38.2696711,-85.6528297
1,Pin Oak Lane,40207,38.2650311,-85.6448626
1001,Westgate Place,40207,38.2651427,-85.6344359
1001,Windsong Way,40207,38.2664201,-85.6383319
1002,Windsong Way,40207,38.2664405,-85.6391597
1003,Westgate Place,40207,38.2653308,-85.6348498
1003,Windsong Way,40207,38.2665747,-85.6385202
1004,Windsong Way,40207,38.2665878,-85.6394329
1005,Windsong Way,40207,38.2667265,-85.6386894
1006,Windsong Way,40207,38.2667450,-85.6396337
1007,Westgate Place,40207,38.2658534,-85.6344852
1007,Windsong Way,40207,38.2668587,-85.6389015
1008,Westgate Place,40207,38.2644394,-85.6347223
1008,Windsong Way,40207,38.2668897,-85.6397730
1009,Westgate Place,40207,38.2660066,-85.6346496
1009,Windsong Way,40207,38.2669822,-85.6391087
1010,Westgate Place,40207,38.2645938,-85.6347856
1011,Windsong Way,40207,38.2670976,-85.6392435
1012,Westgate Place,40207,38.2647599,-85.6349168
1012,Windsong Way,40207,38.2676447,-85.6404216
1014,Westgate Place,40207,38.2648636,-85.6350278
1014,Windsong Way,40207,38.2677778,-85.6406291
1015,Windsong Way,40207,38.2678094,-85.6398341
1016,Westgate Place,40207,38.2650530,-85.6351540
1016,Windsong Way,40207,38.2678121,-85.6409230
1017,Windsong Way,40207,38.2680143,-85.6400086
1018,Westgate Place,40207,38.2651805,-85.6352841
1018,Windsong Way,40207,38.2678078,-85.6411870
1019,Windsong Way,40207,38.2681307,-85.6402298
1020,Windsong Way,40207,38.2678547,-85.6414645
1021,Windsong Way,40207,38.2682274,-85.6404852
1022,Windsong Way,40207,38.2678452,-85.6417048
1023,Windsong Way,40207,38.2682442,-85.6407588
1024,Westgate Place,40207,38.2653044,-85.6357109
1024,Windsong Way,40207,38.2679110,-85.6420050
1025,Windsong Way,40207,38.2682344,-85.6410624
1026,Westgate Place,40207,38.2654559,-85.6354927
1028,Westgate Place,40207,38.2655845,-85.6352816
1030,Westgate Place,40207,38.2656458,-85.6350858
1100,Windsong Way,40207,38.2681678,-85.6421491
1101,Windsong Way,40207,38.2682884,-85.6412795
1102,Windsong Way,40207,38.2683332,-85.6419634
1103,Windsong Way,40207,38.2685893,-85.6411647
1104,Windsong Way,40207,38.2685670,-85.6418386
1105,Windsong Way,40207,38.2685912,-85.6408866
1106,Windsong Way,40207,38.2687710,-85.6416981
1108,Windsong Way,40207,38.2689132,-85.6415311
1110,Windsong Way,40207,38.2692311,-85.6410683
1111,Wellington Place,40207,38.2711371,-85.6449228
1111,Windsong Way,40207,38.2690669,-85.6406817
1112,Windsong Way,40207,38.2693696,-85.6409178
1113,Windsong Way,40207,38.2692572,-85.6405238
1114,Windsong Way,40207,38.2694898,-85.6407932
1115,Windsong Way,40207,38.2694131,-85.6403549
1116,Windsong Way,40207,38.2696303,-85.6406350
1300,Killiney Place,40207,38.2723927,-85.6460014
1301,Killiney Place,40207,38.2725751,-85.6458358
1302,Grassy Fork Court,40207,38.2719257,-85.6374857
1302,Killiney Place,40207,38.2724312,-85.6462685
1303,Grassy Fork Court,40207,38.2724724,-85.6372348
1303,Killiney Place,40207,38.2728054,-85.6460252
1304,Grassy Fork Court,40207,38.2719573,-85.6379158
1304,Killiney Place,40207,38.2726485,-85.6464161
1305,Grassy Fork Court,40207,38.2725957,-85.6375970
1305,Killiney Place,40207,38.2729943,-85.6462229
1306,Grassy Fork Court,40207,38.2721986,-85.6381761
1306,Killiney Place,40207,38.2728063,-85.6465338
1307,Grassy Fork Court,40207,38.2725190,-85.6379623
1307,Killiney Place,40207,38.2731529,-85.6463548
1308,Killiney Place,40207,38.2729738,-85.6466956
1600,Two Springs Place,40207,38.2709471,-85.6334633
1602,Two Springs Place,40207,38.2714294,-85.6334387
1604,Two Springs Place,40207,38.2716894,-85.6334025
1606,Two Springs Place,40207,38.2719461,-85.6334280
1609,Two Springs Place,40207,38.2723199,-85.6328935
1610,Two Springs Place,40207,38.2723891,-85.6336597
1611,Two Springs Place,40207,38.2726488,-85.6329975
1612,Two Springs Place,40207,38.2725477,-85.6338287
1613,Two Springs Place,40207,38.2728839,-85.6332155
1614,Two Springs Place,40207,38.2725716,-85.6341336
1615,Two Springs Place,40207,38.2730451,-85.6334583
1616,Two Springs Place,40207,38.2725827,-85.6343919
1617,Two Springs Place,40207,38.2730628,-85.6337877
1618,Two Springs Place,40207,38.2725988,-85.6346811
1619,Two Springs Place,40207,38.2731005,-85.6340647
1620,Two Springs Place,40207,38.2726934,-85.6349588
1621,Two Springs Place,40207,38.2731827,-85.6346729
1622,Two Springs Place,40207,38.2728128,-85.6352395
1623,Two Springs Place,40207,38.2733202,-85.6349271
1624,Two Springs Place,40207,38.2730312,-85.6354509
2,Pin Oak Lane,40207,38.2653059,-85.6447397
2502,Rudy Lane,40207,38.2717091,-85.6319761
2504,Rudy Lane,40207,38.2714946,-85.6317789
2504,Windy Way,40207,38.2709816,-85.6327450
2506,Rudy Lane,40207,38.2712663,-85.6315748
2507,Windy Way,40207,38.2711690,-85.6324345
2508,Rudy Lane,40207,38.2710740,-85.6313802
2508,Windy Way,40207,38.2707077,-85.6327177
2509,Windy Way,40207,38.2709901,-85.6321166
2510,Windy Way,40207,38.2704757,-85.6325322
2511,Windy Way,40207,38.2707459,-85.6319858
2512,Rudy Lane,40207,38.2708611,-85.6312092
2512,Windy Way,40207,38.2702348,-85.6323952
2513,Windy Way,40207,38.2705106,-85.6318649
2514,Windy Way,40207,38.2699748,-85.6321850
2515,Windy Way,40207,38.2702947,-85.6316767
3,Pin Oak Lane,40207,38.2655929,-85.6444922
300,South Foeburn Lane,40207,38.2654699,-85.6337540
303,Kirkwood Glen Circle,40207,38.2651680,-85.6369403
304,South Foeburn Lane,40207,38.2656239,-85.6334419
308,South Foeburn Lane,40207,38.2657859,-85.6331628
310,South Foeburn Lane,40207,38.2659949,-85.6328500
311,Kirkwood Glen Circle,40207,38.2657626,-85.6374302
312,East Foeburn Lane,40207,38.2661994,-85.6329915
314,East Foeburn Lane,40207,38.2663735,-85.6331996
316,East Foeburn Lane,40207,38.2667629,-85.6335211
318,East Foeburn Lane,40207,38.2669995,-85.6337467
338,Foeburn Way,40207,38.2667012,-85.6358282
340,Foeburn Way,40207,38.2669908,-85.6360989
4,Pin Oak Lane,40207,38.2656683,-85.6440783
401,Brookview Road,40207,38.2672857,-85.6368559
401,Highfield Road,40207,38.2696899,-85.6326679
402,Highfield Road,40207,38.2693992,-85.6331610
404,Deerfield Lane,40207,38.2648303,-85.6420363
405,Deerfield Lane,40207,38.2651184,-85.6415557
405,Highfield Road,40207,38.2699812,-85.6329604
406,Deerfield Lane,40207,38.2649970,-85.6421932
406,Highfield Road,40207,38.2696250,-85.6334030
406,Kaelin Drive,40207,38.2655312,-85.6411964
407,Deerfield Lane,40207,38.2652816,-85.6417085
407,Kaelin Drive,40207,38.2658263,-85.6406892
407,North Hubbards Lane,40207,38.2638996,-85.6439995
408,Deerfield Lane,40207,38.2651658,-85.6423453
408,Kaelin Drive,40207,38.2656777,-85.6413755
409,Deerfield Lane,40207,38.2654612,-85.6418613
409,Kaelin Drive,40207,38.2659766,-85.6408403
409,Stonehaven Commons Court,40207,38.2647787,-85.6426462
410,Deerfield Lane,40207,38.2653351,-85.6425195
410,Highfield Road,40207,38.2697786,-85.6336107
410,Kaelin Drive,40207,38.2658536,-85.6415008
410,Stonehaven Commons Court,40207,38.2645160,-85.6433464
411,Deerfield Lane,40207,38.2656391,-85.6420079
411,Highfield Road,40207,38.2701338,-85.6331891
411,Kaelin Drive,40207,38.2661523,-85.6409759
412,Deerfield Lane,40207,38.2655087,-85.6426862
412,Highfield Road,40207,38.2699817,-85.6339242
412,Kaelin Drive,40207,38.2660197,-85.6416626
413,Deerfield Lane,40207,38.2657765,-85.6421672
413,Highfield Road,40207,38.2703468,-85.6334645
413,Kaelin Drive,40207,38.2663380,-85.6411648
413,Stonehaven Commons Court,40207,38.2651871,-85.6429062
414,Highfield Road,40207,38.2701208,-85.6341191
414,Kaelin Drive,40207,38.2661957,-85.6418130
414,Stonehaven Commons Court,40207,38.2648835,-85.6436336
415,Deerfield Lane,40207,38.2659442,-85.6422889
415,Kaelin Drive,40207,38.2665256,-85.6413601
415,Stonehaven Commons Court,40207,38.2652662,-85.6432626
416,Highfield Road,40207,38.2703298,-85.6344188
416,Kaelin Drive,40207,38.2663625,-85.6419631
417,Deerfield Lane,40207,38.2661440,-85.6424951
417,Highfield Road,40207,38.2705201,-85.6337616
417,Kaelin Drive,40207,38.2667492,-85.6415579
418,Deerfield Lane,40207,38.2658837,-85.6431511
418,Highfield Road,40207,38.2704938,-85.6346690
418,Kaelin Drive,40207,38.2665400,-85.6421570
419,Deerfield Lane,40207,38.2662767,-85.6427922
419,Kaelin Drive,40207,38.2669465,-85.6417800
420,Deerfield Lane,40207,38.2659085,-85.6433980
420,Highfield Road,40207,38.2706428,-85.6349852
420,Kaelin Drive,40207,38.2666474,-85.6424715
420,Old Stone Lane,40207,38.2683180,-85.6358291
4200,Hill Top Road,40207,38.2654489,-85.6453073
4201,Hill Top Road,40207,38.2659716,-85.6456929
4202,Hill Top Road,40207,38.2656420,-85.6450861
4204,Hill Top Road,40207,38.2658464,-85.6448612
4205,Hill Top Road,40207,38.2662365,-85.6452594
4205,Rudy Lane,40207,38.2642158,-85.6435220
421,Deerfield Lane,40207,38.2663638,-85.6430594
421,Highfield Road,40207,38.2707046,-85.6339998
421,Kaelin Drive,40207,38.2670828,-85.6421053
422,Deerfield Lane,40207,38.2660131,-85.6436386
422,Kaelin Drive,40207,38.2667464,-85.6427691
423,Deerfield Lane,40207,38.2664231,-85.6432708
423,Kaelin Drive,40207,38.2671929,-85.6425082
423,Old Stone Lane,40207,38.2691278,-85.6356126
424,Deerfield Lane,40207,38.2660739,-85.6438884
424,Kaelin Drive,40207,38.2668388,-85.6431027
425,Deerfield Lane,40207,38.2664884,-85.6435170
425,Highfield Road,40207,38.2708944,-85.6342712
425,Kaelin Drive,40207,38.2673031,-85.6428782
426,Deerfield Lane,40207,38.2661124,-85.6441372
426,Kaelin Drive,40207,38.2669078,-85.6433964
427,Deerfield Lane,40207,38.2665461,-85.6437616
427,Kaelin Drive,40207,38.2673870,-85.6432438
427,Old Stone Lane,40207,38.2695219,-85.6358824
429,Highfield Road,40207,38.2710725,-85.6345752
429,Kaelin Drive,40207,38.2675105,-85.6436205
430,Highfield Road,40207,38.2708558,-85.6352289
430,Kaelin Drive,40207,38.2670239,-85.6437849
4300,Hill Top Road,40207,38.2660113,-85.6446516
4301,Hill Top Road,40207,38.2663991,-85.6449596
4301,Westport Road,40207,38.2637790,-85.6358348
4302,Hill Top Road,40207,38.2662229,-85.6444427
4303,Hill Top Road,40207,38.2665629,-85.6447174
4304,Hill Top Road,40207,38.2666506,-85.6441282
4305,Hill Top Road,40207,38.2667495,-85.6444134
4305,Westport Road,40207,38.2640416,-85.6354627
4307,Westport Road,40207,38.2642800,-85.6350808
431,Highfield Road,40207,38.2712562,-85.6347972
431,Kaelin Drive,40207,38.2676545,-85.6439783
4315,North Foeburn Lane,40207,38.2656281,-85.6367713
4315,Rudy Lane,40207,38.2667873,-85.6380071
4316,North Foeburn Lane,40207,38.2652521,-85.6364850
4317,North Foeburn Lane,40207,38.2659191,-85.6364779
4318,North Foeburn Lane,40207,38.2654721,-85.6361424
4319,North Foeburn Lane,40207,38.2662293,-85.6362365
432,Kaelin Drive,40207,38.2671772,-85.6442882
4320,North Foeburn Lane,40207,38.2656972,-85.6359436
4320,Rudy Lane,40207,38.2668790,-85.6363769
4322,North Foeburn Lane,40207,38.2659627,-85.6357445
4324,North Foeburn Lane,40207,38.2663523,-85.6353404
4328,North Foeburn Lane,40207,38.2664723,-85.6350451
433,Kaelin Drive,40207,38.2678493,-85.6442976
4330,North Foeburn Lane,40207,38.2666398,-85.6347976
4332,North Foeburn Lane,40207,38.2668115,-85.6344869
4334,North Foeburn Lane,40207,38.2669607,-85.6342068
4336,North Foeburn Lane,40207,38.2671348,-85.6339160
435,Highfield Road,40207,38.2713820,-85.6350120
435,Kaelin Drive,40207,38.2680546,-85.6446290
4353,Rudy Lane,40207,38.2674773,-85.6364760
4355,Rudy Lane,40207,38.2676222,-85.6362485
4357,Rudy Lane,40207,38.2677875,-85.6359713
436,Highfield Road,40207,38.2710192,-85.6354586
436,Kaelin Drive,40207,38.2675622,-85.6447973
4365,Rudy Lane,40207,38.2679927,-85.6355388
437,Kaelin Drive,40207,38.2681738,-85.6449741
440,Highfield Road,40207,38.2711559,-85.6357291
4400,Brownsboro Road,40207,38.2705845,-85.6514034
4400,Jonlyn Court,40207,38.2659767,-85.6340381
4401,Jonlyn Court,40207,38.2662444,-85.6342801
4401,Rudy Lane,40207,38.2683962,-85.6350327
4403,Jonlyn Court,40207,38.2664566,-85.6341379
4403,Rudy Lane,40207,38.2686361,-85.6347042
4404,Jonlyn Court,40207,38.2661878,-85.6334934
4405,Jonlyn Court,40207,38.2665636,-85.6338581
4405,Rudy Lane,40207,38.2687611,-85.6343879
4407,Rudy Lane,40207,38.2689331,-85.6341382
4409,Rudy Lane,40207,38.2691018,-85.6338978
441,Highfield Road,40207,38.2715700,-85.6353011
4411,Rudy Lane,40207,38.2692550,-85.6335526
4415,Rudy Lane,40207,38.2698271,-85.6324680
442,Highfield Road,40207,38.2713824,-85.6359599
4423,Rudy Lane,40207,38.2704313,-85.6313588
4425,Rudy Lane,40207,38.2706241,-85.6310797
4486,Brownsboro Road,40207,38.2718827,-85.6476737
4490,Brownsboro Road,40207,38.2725772,-85.6475655
4492,Brownsboro Road,40207,38.2726672,-85.6472446
4500,Brownsboro Road,40207,38.2734193,-85.6460873
4600,Brownsboro Road,40207,38.2737382,-85.6454224
4700,Kitty Hawk Way,40207,38.2702319,-85.6428471
4701,Kitty Hawk Way,40207,38.2703764,-85.6432185
4702,Kitty Hawk Way,40207,38.2704921,-85.6426139
4703,Kitty Hawk Way,40207,38.2706133,-85.6431918
4704,Kitty Hawk Way,40207,38.2707101,-85.6425052
4705,Kitty Hawk Way,40207,38.2708126,-85.6431094
4706,Kitty Hawk Way,40207,38.2708808,-85.6423664
4707,Kitty Hawk Way,40207,38.2710502,-85.6429579
4708,Kitty Hawk Way,40207,38.2710576,-85.6422371
4709,Kitty Hawk Way,40207,38.2712311,-85.6428323
4710,Kitty Hawk Way,40207,38.2712414,-85.6420369
4711,Kitty Hawk Way,40207,38.2714576,-85.6426268
4712,Kitty Hawk Way,40207,38.2713927,-85.6419159
4713,Kitty Hawk Way,40207,38.2716956,-85.6424204
4714,Kitty Hawk Way,40207,38.2715623,-85.6417456
4715,Kitty Hawk Way,40207,38.2719223,-85.6421967
4716,Kitty Hawk Way,40207,38.2716797,-85.6415837
4717,Kitty Hawk Way,40207,38.2720771,-85.6420307
4718,Kitty Hawk Way,40207,38.2718852,-85.6414596
4719,Kitty Hawk Way,40207,38.2722540,-85.6418889
4721,Kitty Hawk Way,40207,38.2724120,-85.6417231
4722,Brownsboro Road,40207,38.2750978,-85.6428186
4723,Kitty Hawk Way,40207,38.2726178,-85.6415593
4724,Brownsboro Road,40207,38.2752628,-85.6425964
4726,Brownsboro Road,40207,38.2754403,-85.6422423
4728,Brownsboro Road,40207,38.2755797,-85.6419650
4730,Brownsboro Road,40207,38.2757353,-85.6416792
4732,Brownsboro Road,40207,38.2758935,-85.6413940
4734,Brownsboro Road,40207,38.2760068,-85.6411342
4736,Brownsboro Road,40207,38.2761842,-85.6408672
4738,Brownsboro Road,40207,38.2764608,-85.6403636
4740,Brownsboro Road,40207,38.2766503,-85.6400656
4742,Brownsboro Road,40207,38.2768161,-85.6397696
4744,Brownsboro Road,40207,38.2769786,-85.6394847
4746,Brownsboro Road,40207,38.2771080,-85.6392178
491,Kinglan Road,40207,38.2677026,-85.6369148
495,Kinglan Road,40207,38.2679695,-85.6366684
497,Kinglan Road,40207,38.2681870,-85.6364619
499,Kinglan Road,40207,38.2685118,-85.6364557
5,Pin Oak Lane,40207,38.2655194,-85.6437437
500,Brookview Road,40207,38.2676052,-85.6377658
500,Indian Ridge Road,40207,38.2687591,-85.6432153
500,Kinglan Road,40207,38.2683706,-85.6370916
501,Brookview Road,40207,38.2680466,-85.6373785
501,Kinglan Road,40207,38.2687549,-85.6366604
501,Old Stone Lane,40207,38.2698102,-85.6367624
502,Brookview Road,40207,38.2677961,-85.6380771
502,Indian Ridge Road,40207,38.2689405,-85.6430522
502,Kinglan Road,40207,38.2685222,-85.6373026
503,Brookview Road,40207,38.2682181,-85.6376680
503,Indian Ridge Road,40207,38.2686026,-85.6425128
503,Kinglan Road,40207,38.2689702,-85.6369095
504,Brookview Road,40207,38.2679825,-85.6383199
504,Indian Ridge Road,40207,38.2691028,-85.6428818
504,Kinglan Road,40207,38.2687061,-85.6375887
505,Brookview Road,40207,38.2683751,-85.6379114
505,Indian Ridge Road,40207,38.2687811,-85.6423447
505,Kinglan Road,40207,38.2691142,-85.6371875
506,Brookview Road,40207,38.2681499,-85.6385877
506,Indian Ridge Road,40207,38.2692986,-85.6427604
506,Kinglan Road,40207,38.2688873,-85.6378444
507,Brookview Road,40207,38.2685633,-85.6382248
507,Indian Ridge Road,40207,38.2689606,-85.6421600
507,Kinglan Road,40207,38.2693046,-85.6374740
508,Brookview Road,40207,38.2683489,-85.6388604
508,Indian Ridge Road,40207,38.2694703,-85.6426034
508,Kinglan Road,40207,38.2690358,-85.6380987
509,Brookview Road,40207,38.2687322,-85.6384757
509,Indian Ridge Road,40207,38.2691291,-85.6420098
509,Kinglan Road,40207,38.2695318,-85.6377833
510,Brookview Road,40207,38.2685240,-85.6391281
510,Indian Ridge Road,40207,38.2698531,-85.6423192
511,Brookview Road,40207,38.2688987,-85.6387440
511,Indian Ridge Road,40207,38.2695433,-85.6417108
511,North Hubbards Lane,40207,38.2667536,-85.6452129
512,Brookview Road,40207,38.2686671,-85.6394614
512,Indian Ridge Road,40207,38.2700806,-85.6422666
512,Kinglan Road,40207,38.2691991,-85.6383430
513,Brookview Road,40207,38.2690792,-85.6389895
513,Indian Ridge Road,40207,38.2698142,-85.6416483
514,Indian Ridge Road,40207,38.2702890,-85.6422151
514,Kinglan Road,40207,38.2693781,-85.6386031
515,Brookview Road,40207,38.2692006,-85.6393990
515,Indian Ridge Road,40207,38.2700455,-85.6415708
515,North Hubbards Lane,40207,38.2671649,-85.6456043
516,Indian Ridge Road,40207,38.2704888,-85.6421209
517,Brookview Road,40207,38.2691259,-85.6398404
517,Indian Ridge Road,40207,38.2702802,-85.6414625
517,Old Stone Lane,40207,38.2705787,-85.6377346
518,Indian Ridge Road,40207,38.2707176,-85.6419415
519,Brookview Road,40207,38.2689100,-85.6401698
519,North Hubbards Lane,40207,38.2675806,-85.6458196
520,Old Stone Lane,40207,38.2701833,-85.6387510
525,North Hubbards Lane,40207,38.2679459,-85.6470194
529,North Hubbards Lane,40207,38.2684503,-85.6464063
531,North Hubbards Lane,40207,38.2686012,-85.6456941
533,North Hubbards Lane,40207,38.2694714,-85.6448727
535,North Hubbards Lane,40207,38.2701516,-85.6439931
5800,Bonfire Drive,40207,38.2697887,-85.6434829
5801,Bonfire Drive,40207,38.2696011,-85.6431271
5802,Bonfire Drive,40207,38.2695922,-85.6437701
5803,Bonfire Drive,40207,38.2693391,-85.6431378
5804,Bonfire Drive,40207,38.2694310,-85.6439618
5806,Bonfire Drive,40207,38.2692760,-85.6440732
5807,Bonfire Drive,40207,38.2691423,-85.6433190
5808,Bonfire Drive,40207,38.2690399,-85.6442938
5810,Bonfire Drive,40207,38.2688112,-85.6441716
5811,Bonfire Drive,40207,38.2689348,-85.6435276
5812,Bonfire Drive,40207,38.2686333,-85.6439419
5814,Bonfire Drive,40207,38.2684796,-85.6437094
5816,Bonfire Drive,40207,38.2683323,-85.6435060
5818,Bonfire Drive,40207,38.2681913,-85.6433694
5820,Bonfire Drive,40207,38.2680702,-85.6431554
5821,Bonfire Drive,40207,38.2683739,-85.6426384
5822,Bonfire Drive,40207,38.2679407,-85.6429698
5908,Creighton Hill Road,40207,38.2716595,-85.6435702
595,North Hubbards Lane,40207,38.2701555,-85.6507338
6,Pin Oak Lane,40207,38.2652197,-85.6438000
600,Indian Ridge Road,40207,38.2709236,-85.6417172
6000,Two Springs Lane,40207,38.2696366,-85.6398201
6000,Windsong Court,40207,38.2667722,-85.6410432
6001,Two Springs Lane,40207,38.2700730,-85.6399900
6001,Windsong Court,40207,38.2672136,-85.6414457
6003,Two Springs Lane,40207,38.2704947,-85.6394035
6003,Windsong Court,40207,38.2673422,-85.6411551
6005,Two Springs Lane,40207,38.2708619,-85.6389147
6005,Windsong Court,40207,38.2673400,-85.6408964
6007,Two Springs Lane,40207,38.2719053,-85.6389531
6007,Windsong Court,40207,38.2673080,-85.6406330
6009,Windsong Court,40207,38.2672724,-85.6403837
601,Indian Ridge Road,40207,38.2704729,-85.6412008
6011,Two Springs Lane,40207,38.2712469,-85.6378276
6011,Windsong Court,40207,38.2672442,-85.6401573
602,Indian Ridge Road,40207,38.2710335,-85.6415242
604,Indian Ridge Road,40207,38.2711934,-85.6413943
605,Indian Ridge Road,40207,38.2707077,-85.6410254
606,Indian Ridge Road,40207,38.2713054,-85.6411993
607,Indian Ridge Road,40207,38.2709119,-85.6408045
608,Indian Ridge Road,40207,38.2714239,-85.6410130
609,Indian Ridge Road,40207,38.2710331,-85.6406060
610,Indian Ridge Road,40207,38.2716016,-85.6407942
6100,Two Springs Lane,40207,38.2706198,-85.6367275
6100,Windrow Place,40207,38.2674875,-85.6395246
6102,Windrow Place,40207,38.2673973,-85.6391397
6103,Windrow Place,40207,38.2678524,-85.6394710
6105,Windrow Place,40207,38.2677526,-85.6391813
6107,Windrow Place,40207,38.2675799,-85.6388649
6108,Two Springs Lane,40207,38.2711130,-85.6367812
6109,Two Springs Lane,40207,38.2714874,-85.6373703
611,Indian Ridge Road,40207,38.2711906,-85.6404289
6110,Two Springs Lane,40207,38.2713622,-85.6366086
6111,Two Springs Lane,40207,38.2717288,-85.6371248
612,Indian Ridge Road,40207,38.2718046,-85.6408929
613,Indian Ridge Road,40207,38.2713152,-85.6401752
614,Indian Ridge Road,40207,38.2719690,-85.6410158
615,Indian Ridge Road,40207,38.2715451,-85.6401594
616,Indian Ridge Road,40207,38.2721495,-85.6411806
616,Rudy Lane,40207,38.2743982,-85.6355189
617,Indian Ridge Road,40207,38.2717620,-85.6401743
618,Rudy Lane,40207,38.2748013,-85.6364372
619,Indian Ridge Road,40207,38.2719504,-85.6402451
620,Rudy Lane,40207,38.2751676,-85.6368774
6200,Two Springs Lane,40207,38.2718144,-85.6363347
6201,Two Springs Lane,40207,38.2722461,-85.6368686
6203,Two Springs Lane,40207,38.2724803,-85.6367758
6205,Two Springs Lane,40207,38.2726945,-85.6365988
6207,Two Springs Lane,40207,38.2729231,-85.6364399
6209,Two Springs Lane,40207,38.2731170,-85.6363276
621,Indian Ridge Road,40207,38.2721140,-85.6404196
6211,Two Springs Lane,40207,38.2733061,-85.6360361
6212,Two Springs Lane,40207,38.2717315,-85.6343871
623,Indian Ridge Road,40207,38.2722778,-85.6405426
625,Indian Ridge Road,40207,38.2724527,-85.6406273
627,Indian Ridge Road,40207,38.2726186,-85.6407698
629,Indian Ridge Road,40207,38.2727943,-85.6409017
6301,Two Springs Lane,40207,38.2734538,-85.6357987
6303,Two Springs Lane,40207,38.2736295,-85.6355429
6303,Windygo Court,40207,38.2724105,-85.6325602
6304,Windygo Court,40207,38.2722045,-85.6323378
6305,Two Springs Lane,40207,38.2737890,-85.6352945
6307,Two Springs Lane,40207,38.2739793,-85.6350760
6311,Two Springs Lane,40207,38.2742005,-85.6348223
6402,Keith Springs Circle,40207,38.2733950,-85.6338595
6403,Keith Springs Circle,40207,38.2734472,-85.6346223
6404,Keith Springs Circle,40207,38.2736050,-85.6337207
6405,Keith Springs Circle,40207,38.2736726,-85.6345091
6406,Keith Springs Circle,40207,38.2738567,-85.6339842
6407,Keith Springs Circle,40207,38.2738911,-85.6342937
7,Pin Oak Lane,40207,38.2650583,-85.6442081
700,Rudy Lane,40207,38.2756545,-85.6370576
700,Victoria Place,40207,38.2721030,-85.6446728
701,Antrim Road,40207,38.2735769,-85.6378270
701,Indian Ridge Road,40207,38.2729587,-85.6410244
701,Victoria Place,40207,38.2722282,-85.6444952
701,Waterford Road,40207,38.2730770,-85.6376575
702,Antrim Road,40207,38.2736280,-85.6386657
702,Indian Ridge Road,40207,38.2728611,-85.6417146
702,Victoria Place,40207,38.2721678,-85.6449867
702,Wicklow Road,40207,38.2728650,-85.6382208
703,Antrim Road,40207,38.2738245,-85.6379888
703,Indian Ridge Road,40207,38.2731239,-85.6411572
703,Victoria Place,40207,38.2724712,-85.6444172
703,Waterford Road,40207,38.2731888,-85.6374215
704,Antrim Road,40207,38.2738325,-85.6389043
704,Indian Ridge Road,40207,38.2730159,-85.6418057
704,Rudy Lane,40207,38.2761782,-85.6370470
704,Victoria Place,40207,38.2723424,-85.6451155
704,Wicklow Road,40207,38.2727775,-85.6385100
705,Antrim Road,40207,38.2740168,-85.6382009
705,Indian Ridge Road,40207,38.2732947,-85.6413126
705,Victoria Place,40207,38.2726269,-85.6445435
705,Waterford Road,40207,38.2733255,-85.6371811
706,Antrim Road,40207,38.2740137,-85.6391540
706,Indian Ridge Road,40207,38.2731675,-85.6419632
706,Victoria Place,40207,38.2725849,-85.6452723
706,Wicklow Road,40207,38.2726722,-85.6388101
707,Antrim Road,40207,38.2742703,-85.6384123
707,Indian Ridge Road,40207,38.2734833,-85.6414306
707,Victoria Place,40207,38.2727634,-85.6446906
707,Waterford Road,40207,38.2734211,-85.6369569
707,Wicklow Road,40207,38.2732547,-85.6385699
708,Antrim Road,40207,38.2742188,-85.6394768
708,Indian Ridge Road,40207,38.2733555,-85.6420692
708,Rudy Lane,40207,38.2765777,-85.6373549
708,Wicklow Road,40207,38.2725691,-85.6391488
709,Antrim Road,40207,38.2744418,-85.6387134
709,Indian Ridge Road,40207,38.2736469,-85.6415484
709,Victoria Place,40207,38.2729121,-85.6448501
709,Waterford Road,40207,38.2735790,-85.6366742
710,Antrim Road,40207,38.2744763,-85.6397071
710,Indian Ridge Road,40207,38.2735156,-85.6421993
710,Wicklow Road,40207,38.2724950,-85.6395712
711,Antrim Road,40207,38.2746030,-85.6390018
711,Indian Ridge Road,40207,38.2738200,-85.6416575
711,Victoria Place,40207,38.2730768,-85.6449825
711,Waterford Road,40207,38.2738844,-85.6366025
711,Wicklow Road,40207,38.2730312,-85.6392473
712,Antrim Road,40207,38.2747434,-85.6398280
712,Indian Ridge Road,40207,38.2736815,-85.6423253
712,Rudy Lane,40207,38.2769781,-85.6377078
712,Victoria Place,40207,38.2729592,-85.6456446
712,Wicklow Road,40207,38.2726547,-85.6398685
713,Antrim Road,40207,38.2747826,-85.6391152
713,Indian Ridge Road,40207,38.2739777,-85.6418149
713,Victoria Place,40207,38.2732346,-85.6450792
713,Waterford Road,40207,38.2741458,-85.6367917
713,Wicklow Road,40207,38.2732368,-85.6395099
714,Antrim Road,40207,38.2749871,-85.6399810
714,Indian Ridge Road,40207,38.2738332,-85.6424598
714,Victoria Place,40207,38.2731528,-85.6457607
714,Waterford Road,40207,38.2738177,-85.6373396
714,Wicklow Road,40207,38.2728835,-85.6400169
715,Antrim Road,40207,38.2750365,-85.6392248
715,Indian Ridge Road,40207,38.2741363,-85.6419169
715,Victoria Place,40207,38.2733963,-85.6452489
715,Waterford Road,40207,38.2743459,-85.6369943
715,Wicklow Road,40207,38.2734604,-85.6396863
716,Antrim Road,40207,38.2752399,-85.6401143
716,Indian Ridge Road,40207,38.2739740,-85.6426242
716,Victoria Place,40207,38.2733022,-85.6458875
716,Waterford Road,40207,38.2740470,-85.6374735
716,Wicklow Road,40207,38.2730787,-85.6402016
717,Antrim Road,40207,38.2753027,-85.6394128
717,Indian Ridge Road,40207,38.2742832,-85.6420825
717,Victoria Place,40207,38.2735489,-85.6453974
717,Waterford Road,40207,38.2745905,-85.6371489
717,Wicklow Road,40207,38.2736982,-85.6398499
718,Indian Ridge Road,40207,38.2741228,-85.6427862
718,Waterford Road,40207,38.2742387,-85.6376823
718,Wicklow Road,40207,38.2732712,-85.6403409
719,Antrim Road,40207,38.2755266,-85.6395390
719,Indian Ridge Road,40207,38.2744528,-85.6422409
719,Waterford Road,40207,38.2748114,-85.6373421
719,Wicklow Road,40207,38.2739100,-85.6400376
720,Indian Ridge Road,40207,38.2743318,-85.6428860
720,Waterford Road,40207,38.2744785,-85.6378609
720,Wicklow Road,40207,38.2735053,-85.6404944
721,Indian Ridge Road,40207,38.2746099,-85.6423620
721,Waterford Road,40207,38.2750378,-85.6375671
721,Wicklow Road,40207,38.2741554,-85.6402116
722,Indian Ridge Road,40207,38.2745551,-85.6431178
722,Waterford Road,40207,38.2746522,-85.6380254
722,Wicklow Road,40207,38.2737039,-85.6406243
723,Indian Ridge Road,40207,38.2747542,-85.6424929
723,Waterford Road,40207,38.2752638,-85.6377282
723,Wicklow Road,40207,38.2743883,-85.6404067
724,Waterford Road,40207,38.2748802,-85.6382233
724,Wicklow Road,40207,38.2739009,-85.6407866
725,Indian Ridge Road,40207,38.2749198,-85.6426392
725,Waterford Road,40207,38.2754915,-85.6379468
725,Wicklow Road,40207,38.2746130,-85.6405702
726,Indian Ridge Road,40207,38.2748066,-85.6433758
726,Waterford Road,40207,38.2749391,-85.6387548
726,Wicklow Road,40207,38.2741072,-85.6409797
727,Waterford Road,40207,38.2756857,-85.6380982
727,Wicklow Road,40207,38.2748235,-85.6407787
728,Waterford Road,40207,38.2753833,-85.6386794
728,Wicklow Road,40207,38.2742863,-85.6411624
729,Waterford Road,40207,38.2758866,-85.6382874
729,Wicklow Road,40207,38.2751050,-85.6409067
730,Waterford Road,40207,38.2756077,-85.6388179
730,Wicklow Road,40207,38.2745280,-85.6413102
731,Waterford Road,40207,38.2760985,-85.6384634
732,Waterford Road,40207,38.2758292,-85.6390390
732,Wicklow Road,40207,38.2747279,-85.6414869
733,Waterford Road,40207,38.2763062,-85.6386782
733,Wicklow Road,40207,38.2753794,-85.6403466
734,Waterford Road,40207,38.2760297,-85.6392334
734,Wicklow Road,40207,38.2749675,-85.6416603
735,Waterford Road,40207,38.2765280,-85.6388573
736,Waterford Road,40207,38.2757427,-85.6396938
736,Wicklow Road,40207,38.2752576,-85.6415967
737,Waterford Road,40207,38.2765730,-85.6392788
738,Wicklow Road,40207,38.2754511,-85.6413492
739,Waterford Road,40207,38.2764179,-85.6395888
740,Wicklow Road,40207,38.2756009,-85.6410753
741,Waterford Road,40207,38.2762903,-85.6398351
742,Wicklow Road,40207,38.2757258,-85.6408281
743,Waterford Road,40207,38.2761648,-85.6400808
744,Wicklow Road,40207,38.2758961,-85.6406003
8,Pin Oak Lane,40207,38.2647813,-85.6443322
9,Pin Oak Lane,40207,38.2644961,-85.6445103
900,Windsong Place,40207,38.2659836,-85.6401040
901,Windsong Place,40207,38.2663252,-85.6398680
902,Windsong Place,40207,38.2661329,-85.6402669
903,Windsong Place,40207,38.2664743,-85.6400049
904,Windsong Place,40207,38.2662908,-85.6404143
905,Windsong Place,40207,38.2666627,-85.6401779
906,Windsong Place,40207,38.2664423,-85.6405732
907,Windsong Place,40207,38.2668098,-85.6403140
908,Windsong Place,40207,38.2666042,-85.6406890
910,Windsong Place,40207,38.2668968,-85.6408090
411,North Hubbards Lane,40207,38.2641244,-85.6441176
2501,Rudy Lane,40207,38.2723529,-85.6305328
1000,Ambridge Drive,40207,38.2653847,-85.6277857
1000,Clerkenwell Road,40207,38.2662790,-85.6260372
1000,Copperfield Court,40207,38.2665760,-85.6292617
1001,Ambridge Drive,40207,38.2656436,-85.6273140
1001,Clerkenwell Road,40207,38.2663062,-85.6254678
1001,Copperfield Court,40207,38.2666764,-85.6295149
1002,Ambridge Drive,40207,38.2656458,-85.6279818
1002,Copperfield Court,40207,38.2667101,-85.6290234
1003,Ambridge Drive,40207,38.2659053,-85.6275439
1003,Clerkenwell Road,40207,38.2665071,-85.6255465
1003,Copperfield Court,40207,38.2668589,-85.6297495
1004,Ambridge Drive,40207,38.2661012,-85.6283650
1005,Ambridge Drive,40207,38.2663651,-85.6278521
1005,Clerkenwell Road,40207,38.2666753,-85.6256403
1006,Ambridge Drive,40207,38.2663686,-85.6285291
1006,Chesham Road,40207,38.2657019,-85.6294792
1007,Ambridge Drive,40207,38.2666435,-85.6280182
1007,Chesham Road,40207,38.2659565,-85.6289915
1007,Clerkenwell Road,40207,38.2668575,-85.6257418
1008,Ambridge Drive,40207,38.2665457,-85.6285647
1008,Chesham Road,40207,38.2657771,-85.6297239
1009,Ambridge Drive,40207,38.2668451,-85.6280508
1009,Chesham Road,40207,38.2660638,-85.6292166
1009,Clerkenwell Road,40207,38.2670488,-85.6258486
1010,Ambridge Drive,40207,38.2668238,-85.6286001
1010,Clerkenwell Road,40207,38.2672103,-85.6265334
1011,Chesham Road,40207,38.2661607,-85.6294452
1011,Clerkenwell Road,40207,38.2672364,-85.6259641
1012,Clerkenwell Road,40207,38.2673786,-85.6266243
1013,Clerkenwell Road,40207,38.2674339,-85.6260484
1015,Clerkenwell Road,40207,38.2675991,-85.6261654
1100,Ambridge Drive,40207,38.2673092,-85.6285314
1100,Bentwood Place Court,40207,38.2668079,-85.6320500
1100,Clerkenwell Road,40207,38.2675650,-85.6267361
1101,Ambridge Drive,40207,38.2671357,-85.6280215
1101,Bentwood Place Court,40207,38.2670208,-85.6317175
1101,Clerkenwell Road,40207,38.2677805,-85.6262348
1102,Ambridge Drive,40207,38.2676735,-85.6283946
1102,Bentwood Place Court,40207,38.2670088,-85.6323698
1102,Clerkenwell Road,40207,38.2677236,-85.6268216
1103,Ambridge Drive,40207,38.2676268,-85.6277962
1103,Bentwood Place Court,40207,38.2672937,-85.6318493
1103,Clerkenwell Road,40207,38.2679683,-85.6263704
1104,Bentwood Place Court,40207,38.2672639,-85.6325494
1104,Clerkenwell Road,40207,38.2679027,-85.6269322
1105,Ambridge Drive,40207,38.2678747,-85.6276920
1105,Bentwood Place Court,40207,38.2675211,-85.6320987
1105,Clerkenwell Road,40207,38.2681639,-85.6264895
1106,Ambridge Drive,40207,38.2681651,-85.6281858
1106,Bentwood Place Court,40207,38.2674972,-85.6327522
1106,Clerkenwell Road,40207,38.2680588,-85.6271014
1107,Ambridge Drive,40207,38.2681200,-85.6276045
1107,Bentwood Place Court,40207,38.2677867,-85.6323445
1107,Clerkenwell Road,40207,38.2683137,-85.6266580
1108,Ambridge Drive,40207,38.2685519,-85.6280829
1108,Bentwood Place Court,40207,38.2677377,-85.6329639
1108,Clerkenwell Road,40207,38.2681183,-85.6273367
1109,Ambridge Drive,40207,38.2687097,-85.6274879
1109,Bentwood Place Court,40207,38.2680092,-85.6325585
1109,Clerkenwell Road,40207,38.2684539,-85.6268457
1110,Bentwood Place Court,40207,38.2680085,-85.6332085
1111,Bentwood Place Court,40207,38.2682415,-85.6327754
1111,Clerkenwell Road,40207,38.2685491,-85.6270588
1112,Bentwood Place Court,40207,38.2682182,-85.6334298
1113,Bentwood Place Court,40207,38.2684572,-85.6329730
1113,Clerkenwell Road,40207,38.2685595,-85.6272831
1114,Bentwood Place Court,40207,38.2684243,-85.6336017
1115,Bentwood Place Court,40207,38.2686868,-85.6331599
1200,Ambridge Drive,40207,38.2691864,-85.6282552
1201,Ambridge Drive,40207,38.2691326,-85.6275853
1202,Ambridge Drive,40207,38.2693905,-85.6283887
1203,Ambridge Drive,40207,38.2697256,-85.6280196
1204,Ambridge Drive,40207,38.2698877,-85.6288818
1205,Ambridge Drive,40207,38.2699385,-85.6282057
1206,Ambridge Drive,40207,38.2702050,-85.6291687
1207,Ambridge Drive,40207,38.2705139,-85.6287349
1209,Ambridge Drive,40207,38.2706930,-85.6289083
1300,Ambridge Drive,40207,38.2705597,-85.6299197
1302,Ambridge Drive,40207,38.2705095,-85.6301208
1303,Ambridge Drive,40207,38.2709731,-85.6295283
1305,Ambridge Drive,40207,38.2710234,-85.6298202
2403,Rudy Lane,40207,38.2740281,-85.6332443
2405,Rudy Lane,40207,38.2738819,-85.6330875
2407,Rudy Lane,40207,38.2737045,-85.6329260
2409,Rudy Lane,40207,38.2734941,-85.6327301
2411,Rudy Lane,40207,38.2733245,-85.6326001
2413,Rudy Lane,40207,38.2731664,-85.6324612
2415,Rudy Lane,40207,38.2729638,-85.6322385
2417,Rudy Lane,40207,38.2727915,-85.6320885
2419,Rudy Lane,40207,38.2725989,-85.6318794
300,Chelsea Road,40207,38.2674002,-85.6315000
300,Old Farm Road,40207,38.2679610,-85.6309412
301,Chelsea Road,40207,38.2676812,-85.6311089
301,Old Farm Road,40207,38.2682612,-85.6302287
302,Chelsea Road,40207,38.2676388,-85.6317318
302,Old Farm Road,40207,38.2682052,-85.6309257
303,Chelsea Road,40207,38.2678863,-85.6313093
303,South Foeburn Lane,40207,38.2653480,-85.6328309
304,Chelsea Road,40207,38.2678925,-85.6319611
304,Old Farm Road,40207,38.2684446,-85.6310373
305,Chelsea Road,40207,38.2681333,-85.6315437
305,Old Farm Road,40207,38.2691239,-85.6303788
305,South Foeburn Lane,40207,38.2655038,-85.6326191
306,Chelsea Road,40207,38.2680980,-85.6321581
306,Old Farm Road,40207,38.2686485,-85.6311628
307,Chelsea Road,40207,38.2683945,-85.6317380
307,Old Farm Road,40207,38.2693517,-85.6305627
307,South Foeburn Lane,40207,38.2656121,-85.6323571
308,Chelsea Road,40207,38.2683220,-85.6323544
308,Old Farm Road,40207,38.2689733,-85.6311765
309,Chelsea Road,40207,38.2685993,-85.6319730
309,East Foeburn Lane,40207,38.2658718,-85.6320269
309,Old Farm Road,40207,38.2695640,-85.6307748
310,Chelsea Road,40207,38.2685502,-85.6325791
310,Old Farm Road,40207,38.2692779,-85.6312652
311,Chelsea Road,40207,38.2688242,-85.6321819
311,East Foeburn Lane,40207,38.2661687,-85.6321838
313,East Foeburn Lane,40207,38.2663694,-85.6323806
315,East Foeburn Lane,40207,38.2665916,-85.6325683
317,East Foeburn Lane,40207,38.2668250,-85.6327889
319,East Foeburn Lane,40207,38.2670529,-85.6330147
321,East Foeburn Lane,40207,38.2672924,-85.6332229
323,East Foeburn Lane,40207,38.2674947,-85.6333996
325,Chelsea Road,40207,38.2690622,-85.6323840
4323,North Foeburn Lane,40207,38.2670071,-85.6352806
4324,Rudy Lane,40207,38.2672819,-85.6355958
4325,North Foeburn Lane,40207,38.2671201,-85.6350795
4326,Rudy Lane,40207,38.2674737,-85.6353081
4327,North Foeburn Lane,40207,38.2672371,-85.6348274
4328,Rudy Lane,40207,38.2675941,-85.6350657
4329,North Foeburn Lane,40207,38.2673800,-85.6345566
4331,North Foeburn Lane,40207,38.2675103,-85.6343703
4333,North Foeburn Lane,40207,38.2676630,-85.6340316
4335,North Foeburn Lane,40207,38.2677268,-85.6336068
4400,Rudy Lane,40207,38.2677182,-85.6348288
4402,Rudy Lane,40207,38.2678681,-85.6346093
4404,Rudy Lane,40207,38.2680011,-85.6343947
4406,Rudy Lane,40207,38.2681139,-85.6341992
4408,Rudy Lane,40207,38.2682616,-85.6339288
4412,Rudy Lane,40207,38.2688108,-85.6328252
4414,Rudy Lane,40207,38.2692282,-85.6320854
4416,Rudy Lane,40207,38.2694014,-85.6318271
4417,Westport Road,40207,38.2660783,-85.6305645
4418,Rudy Lane,40207,38.2695443,-85.6315362
4420,Greenbriar Road,40207,38.2684890,-85.6301909
4422,Greenbriar Road,40207,38.2686226,-85.6298776
4422,Rudy Lane,40207,38.2698375,-85.6310226
4424,Greenbriar Road,40207,38.2688562,-85.6296905
4424,Rudy Lane,40207,38.2700139,-85.6307732
4425,Greenbriar Road,40207,38.2692580,-85.6301431
4426,Greenbriar Road,40207,38.2690370,-85.6293127
4426,Rudy Lane,40207,38.2701598,-85.6305269
4427,Greenbriar Road,40207,38.2694563,-85.6297141
4428,Rudy Lane,40207,38.2702909,-85.6303121
4800,Brownsboro Road,40207,38.2783120,-85.6376528
4810,Brownsboro Road,40207,38.2783623,-85.6371841
4864,Brownsboro Road,40207,38.2786402,-85.6367142
4869,Brownsboro Center,40207,38.2780263,-85.6354246
4875,Brownsboro Center,40207,38.2773715,-85.6361981
600,Southview Drive,40207,38.2754233,-85.6335028
602,Southview Drive,40207,38.2752635,-85.6338967
604,Southview Drive,40207,38.2753395,-85.6342556
605,Southview Drive,40207,38.2758092,-85.6338885
606,Southview Drive,40207,38.2755355,-85.6344985
607,Southview Drive,40207,38.2760228,-85.6341388
608,Southview Drive,40207,38.2757483,-85.6346811
609,Southview Drive,40207,38.2762305,-85.6343252
610,Southview Drive,40207,38.2759951,-85.6348379
611,Rudy Lane,40207,38.2746184,-85.6338815
611,Southview Drive,40207,38.2764928,-85.6344957
612,Southview Drive,40207,38.2761852,-85.6350744
613,Rudy Lane,40207,38.2748747,-85.6343927
615,Rudy Lane,40207,38.2750358,-85.6346535
617,Rudy Lane,40207,38.2752575,-85.6348354
619,Rudy Lane,40207,38.2754656,-85.6350584
621,Rudy Lane,40207,38.2756991,-85.6352792
623,Rudy Lane,40207,38.2759413,-85.6354255
6400,Regency Lane,40207,38.2742319,-85.6333927
6403,Regency Lane,40207,38.2747152,-85.6335791
6405,Regency Lane,40207,38.2748480,-85.6333434
6406,Regency Lane,40207,38.2744893,-85.6329229
6407,Regency Lane,40207,38.2749770,-85.6331285
6409,Regency Lane,40207,38.2750305,-85.6328387
6411,Regency Lane,40207,38.2749614,-85.6325098
6413,Regency Lane,40207,38.2747978,-85.6323709
6414,Regency Lane,40207,38.2743181,-85.6326998
6415,Regency Lane,40207,38.2746382,-85.6321979
6416,Regency Lane,40207,38.2741451,-85.6325243
6417,Regency Lane,40207,38.2744318,-85.6320338
6418,Regency Lane,40207,38.2739897,-85.6323661
6419,Regency Lane,40207,38.2742901,-85.6318433
6420,Regency Lane,40207,38.2738061,-85.6321927
6421,Regency Lane,40207,38.2741027,-85.6316764
6422,Regency Lane,40207,38.2736448,-85.6320447
6423,Regency Lane,40207,38.2739321,-85.6315618
6424,Regency Lane,40207,38.2734727,-85.6318783
6425,Regency Lane,40207,38.2737955,-85.6313770
6426,Regency Lane,40207,38.2732673,-85.6316979
6427,Regency Lane,40207,38.2736052,-85.6311786
6428,Regency Lane,40207,38.2730875,-85.6315615
6429,Regency Lane,40207,38.2734231,-85.6310235
6430,Regency Lane,40207,38.2729012,-85.6314005
6431,Regency Lane,40207,38.2732259,-85.6308333
6600,Tottenham Road,40207,38.2646450,-85.6295157
6600,Windhurst Road,40207,38.2644205,-85.6305243
6601,Tottenham Road,40207,38.2648218,-85.6300159
6601,Windhurst Road,40207,38.2648507,-85.6302824
6602,Tottenham Road,40207,38.2649465,-85.6293536
6602,Windhurst Road,40207,38.2643629,-85.6303152
6603,Tottenham Road,40207,38.2650475,-85.6299211
6604,Tottenham Road,40207,38.2650864,-85.6291980
6604,Windhurst Road,40207,38.2643120,-85.6301079
6605,Tottenham Road,40207,38.2652398,-85.6297854
6606,Windhurst Road,40207,38.2642032,-85.6298355
6607,Tottenham Road,40207,38.2653942,-85.6296361
6608,Windhurst Road,40207,38.2641688,-85.6295425
6700,Copperfield Road,40207,38.2676204,-85.6305143
6700,Kingslook Court,40207,38.2682128,-85.6294338
6700,Tottenham Road,40207,38.2652638,-85.6289347
6701,Copperfield Road,40207,38.2678062,-85.6303605
6701,Kingslook Court,40207,38.2683464,-85.6291811
6701,Tottenham Road,40207,38.2655579,-85.6293309
6701,Windhurst Road,40207,38.2646735,-85.6290943
6702,Copperfield Road,40207,38.2673863,-85.6304806
6702,Kingslook Court,40207,38.2679747,-85.6293577
6702,Tottenham Road,40207,38.2653670,-85.6286987
6702,Windhurst Road,40207,38.2644682,-85.6284634
6703,Copperfield Road,40207,38.2678898,-85.6299884
6703,Kingslook Court,40207,38.2683586,-85.6289111
6703,Tottenham Road,40207,38.2658397,-85.6287764
6703,Windhurst Road,40207,38.2647850,-85.6288665
6704,Copperfield Road,40207,38.2672594,-85.6302269
6704,Kingslook Court,40207,38.2678445,-85.6290848
6704,Tottenham Road,40207,38.2654816,-85.6284809
6705,Copperfield Road,40207,38.2677144,-85.6298250
6705,Kingslook Court,40207,38.2682263,-85.6286886
6705,Tottenham Road,40207,38.2659726,-85.6285678
6705,Windhurst Road,40207,38.2649000,-85.6286329
6706,Copperfield Road,40207,38.2672211,-85.6299513
6706,Kingslook Court,40207,38.2678471,-85.6288126
6706,Tottenham Road,40207,38.2655858,-85.6282759
6707,Copperfield Road,40207,38.2675597,-85.6296645
6707,Kingslook Court,40207,38.2681927,-85.6284503
6707,Windhurst Road,40207,38.2650065,-85.6284063
6708,Copperfield Road,40207,38.2670825,-85.6296688
6708,Kingslook Court,40207,38.2677758,-85.6285798
6708,Windhurst Road,40207,38.2647154,-85.6279372
6709,Copperfield Road,40207,38.2674547,-85.6294887
6709,Windhurst Road,40207,38.2651401,-85.6281901
6710,Windhurst Road,40207,38.2649485,-85.6275252
6711,Copperfield Road,40207,38.2673650,-85.6292576
6711,Windhurst Road,40207,38.2652346,-85.6279884
6713,Copperfield Road,40207,38.2673074,-85.6290145
6714,Copperfield Road,40207,38.2669074,-85.6289116
6715,Copperfield Road,40207,38.2672833,-85.6287940
6800,Chepstow Court,40207,38.2687178,-85.6285130
6800,Ossulston Court,40207,38.2701182,-85.6296544
6800,Starcross Court,40207,38.2693032,-85.6289389
6800,Windhurst Road,40207,38.2652607,-85.6269080
6801,Chepstow Court,40207,38.2689902,-85.6284892
6801,Ossulston Court,40207,38.2702444,-85.6298609
6801,Starcross Court,40207,38.2695372,-85.6291322
6802,Chepstow Court,40207,38.2685838,-85.6283030
6802,Ossulston Court,40207,38.2700847,-85.6294091
6802,Penwern Court,40207,38.2670483,-85.6277453
6802,Starcross Court,40207,38.2692813,-85.6286877
6802,Tottenham Road,40207,38.2660496,-85.6273642
6802,Windhurst Road,40207,38.2654282,-85.6265789
6803,Penwern Court,40207,38.2675378,-85.6275901
6803,Starcross Court,40207,38.2697442,-85.6290898
6803,Tottenham Road,40207,38.2664381,-85.6276609
6803,Windhurst Road,40207,38.2656998,-85.6270428
6804,Penwern Court,40207,38.2669775,-85.6274327
6804,Tottenham Road,40207,38.2661475,-85.6271486
6805,Penwern Court,40207,38.2674913,-85.6272953
6805,Tottenham Road,40207,38.2665206,-85.6274320
6805,Windhurst Road,40207,38.2658261,-85.6268597
6806,Penwern Court,40207,38.2671116,-85.6271770
6806,Tottenham Road,40207,38.2662652,-85.6269258
6807,Penwern Court,40207,38.2673038,-85.6271613
6807,Tottenham Road,40207,38.2666263,-85.6272491
6807,Windhurst Road,40207,38.2659050,-85.6266212
6808,Eastgate Court,40207,38.2701233,-85.6280463
6808,Itworth Court,40207,38.2692319,-85.6273769
6808,Taxham Court,40207,38.2708815,-85.6286994
6808,Tottenham Road,40207,38.2663777,-85.6267103
6808,Windhurst Road,40207,38.2656627,-85.6260411
6809,Eastgate Court,40207,38.2705876,-85.6284538
6809,Itworth Court,40207,38.2698187,-85.6277714
6809,Taxham Court,40207,38.2711922,-85.6293616
6809,Tottenham Road,40207,38.2667279,-85.6270145
6809,Windhurst Road,40207,38.2660109,-85.6264144
6810,Eastgate Court,40207,38.2703339,-85.6280574
6810,Itworth Court,40207,38.2694718,-85.6273326
6810,Taxham Court,40207,38.2710825,-85.6287150
6810,Tottenham Road,40207,38.2664850,-85.6264830
6810,Windhurst Road,40207,38.2657814,-85.6258452
6811,Eastgate Court,40207,38.2705050,-85.6281805
6811,Itworth Court,40207,38.2697700,-85.6274959
6811,Taxham Court,40207,38.2712827,-85.6291473
6811,Tottenham Road,40207,38.2668297,-85.6268029
6811,Windhurst Road,40207,38.2661231,-85.6262147
6812,Tottenham Road,40207,38.2665813,-85.6262205
6813,Taxham Court,40207,38.2712721,-85.6288828
6813,Tottenham Road,40207,38.2669860,-85.6264882
700,Merrifield Road,40207,38.2767204,-85.6355266
701,Rudy Lane,40207,38.2763923,-85.6358074
701,Southview Drive,40207,38.2766893,-85.6347191
703,Merrifield Road,40207,38.2768681,-85.6348689
703,Rudy Lane,40207,38.2766086,-85.6360081
704,Merrifield Road,40207,38.2770576,-85.6355966
705,Merrifield Road,40207,38.2771032,-85.6349502
705,Rudy Lane,40207,38.2768138,-85.6362060
706,Merrifield Road,40207,38.2773466,-85.6355502
707,Rudy Lane,40207,38.2770453,-85.6363960
708,Merrifield Road,40207,38.2775927,-85.6353398
900,Ambridge Drive,40207,38.2644255,-85.6270662
900,Clerkenwell Court,40207,38.2656915,-85.6254890
900,Falgate Court,40207,38.2640608,-85.6279078
900,Windhurst Court,40207,38.2650827,-85.6259614
901,Ambridge Drive,40207,38.2646552,-85.6265152
901,Cath Cart Court,40207,38.2640362,-85.6288621
901,Falgate Court,40207,38.2642169,-85.6277029
901,Windhurst Court,40207,38.2652280,-85.6257536
902,Ambridge Drive,40207,38.2646045,-85.6271699
902,Cath Cart Court,40207,38.2639530,-85.6291045
902,Falgate Court,40207,38.2641357,-85.6281621
902,Windhurst Court,40207,38.2650828,-85.6262340
903,Ambridge Drive,40207,38.2648318,-85.6266672
903,Cath Cart Court,40207,38.2642637,-85.6287990
903,Falgate Court,40207,38.2644089,-85.6276047
903,Windhurst Court,40207,38.2654500,-85.6257837
904,Ambridge Drive,40207,38.2647789,-85.6273032
904,Cath Cart Court,40207,38.2639820,-85.6293590
904,Falgate Court,40207,38.2642874,-85.6283440
904,Windhurst Court,40207,38.2652262,-85.6263903
905,Ambridge Drive,40207,38.2650055,-85.6267813
905,Falgate Court,40207,38.2645770,-85.6277731
411,Stonehaven Commons Court,40207,38.2649893,-85.6428072
416,Stonehaven Commons Court,40207,38.2650667,-85.6434891
412,Stonehaven Commons Court,40207,38.2646687,-85.6435310
407,Stonehaven Commons Court,40207,38.2645711,-85.6424155
408,Stonehaven Commons Court,40207,38.2643689,-85.6432047
4614,Brownsboro Road,40207,38.2738363,-85.6439524
