House number,Street name,Postal code,Latitude,Longitude
218,Marengo Drive,40243,38.2416722,-85.5287725
319,Caroldale Lane,40243,38.2405276,-85.5292694
12110,Meadow Lane,40243,38.2383929,-85.5324415
12200,Hardwick Road,40243,38.2358064,-85.5306483
12200,Meadow Lane,40243,38.2388077,-85.5319578
12201,Hardwick Road,40243,38.2362139,-85.5308170
12202,Hardwick Road,40243,38.2358763,-85.5302400
12202,Meadow Lane,40243,38.2391360,-85.5315169
12202,Ridge Crest Drive,40243,38.2372564,-85.5306533
12203,Ridge Crest Drive,40243,38.2371825,-85.5318135
12204,Hardwick Road,40243,38.2359898,-85.5300328
12206,Hardwick Road,40243,38.2360476,-85.5298198
12208,Hardwick Road,40243,38.2361064,-85.5296055
12210,Hardwick Road,40243,38.2361595,-85.5294119
12212,Hardwick Road,40243,38.2362196,-85.5291795
12214,Hardwick Road,40243,38.2362730,-85.5289627
12216,Hardwick Road,40243,38.2363187,-85.5287431
12218,Hardwick Road,40243,38.2363907,-85.5284652
402,Westwood Drive,40243,38.2388967,-85.5312919
403,Willow Brook Road,40243,38.2385356,-85.5318838
404,Westwood Drive,40243,38.2385915,-85.5311562
406,Westwood Drive,40243,38.2384100,-85.5310755
408,Westwood Drive,40243,38.2382329,-85.5310067
410,Westwood Drive,40243,38.2380651,-85.5309385
412,Westwood Drive,40243,38.2378943,-85.5308649
414,Westwood Drive,40243,38.2376948,-85.5307808
502,Westwood Drive,40243,38.2370578,-85.5305132
504,Westwood Drive,40243,38.2369015,-85.5304345
506,Westwood Drive,40243,38.2367321,-85.5303655
508,Westwood Drive,40243,38.2365644,-85.5302856
510,Westwood Drive,40243,38.2363986,-85.5302159
510,Willow Brook Road,40243,38.2361118,-85.5314014
512,Willow Brook Road,40243,38.2359529,-85.5313284
600,Willow Brook Road,40243,38.2357704,-85.5312564
602,Willow Brook Road,40243,38.2356052,-85.5311876
603,Willow Brook Road,40243,38.2356015,-85.5306050
604,Willow Brook Road,40243,38.2354263,-85.5311324
605,Willow Brook Road,40243,38.2354211,-85.5305335
606,Willow Brook Road,40243,38.2352659,-85.5310406
112,Ambling Way,40243,38.2428259,-85.5306931
113,Ambling Way,40243,38.2427937,-85.5301222
114,Ambling Way,40243,38.2427819,-85.5303877
12201,Meadow Lane,40243,38.2392626,-85.5321281
12202,Davidson Drive,40243,38.2384477,-85.5300581
12203,Davidson Drive,40243,38.2388447,-85.5302650
12204,Davidson Drive,40243,38.2385110,-85.5298106
12204,Meadow Lane,40243,38.2393433,-85.5307964
12205,Davidson Drive,40243,38.2388877,-85.5300582
12205,Meadow Lane,40243,38.2397463,-85.5310418
12205,Ridge Crest Drive,40243,38.2378020,-85.5302420
12206,Davidson Drive,40243,38.2385821,-85.5296113
12206,Meadow Lane,40243,38.2394427,-85.5305086
12206,Ridge Crest Drive,40243,38.2375153,-85.5296852
12207,Davidson Drive,40243,38.2389570,-85.5298574
12207,Meadow Lane,40243,38.2398559,-85.5306854
12207,Ridge Crest Drive,40243,38.2379038,-85.5298532
12208,Davidson Drive,40243,38.2386272,-85.5293766
12208,Meadow Lane,40243,38.2394972,-85.5303043
12208,Ridge Crest Drive,40243,38.2375947,-85.5294191
12209,Davidson Drive,40243,38.2389970,-85.5296196
12209,Meadow Lane,40243,38.2399068,-85.5304845
12209,Ridge Crest Drive,40243,38.2379703,-85.5296597
12210,Davidson Drive,40243,38.2386493,-85.5291293
12210,Meadow Lane,40243,38.2395559,-85.5300761
12210,Ridge Crest Drive,40243,38.2376357,-85.5291692
12211,Davidson Drive,40243,38.2390397,-85.5293964
12211,Meadow Lane,40243,38.2399786,-85.5302412
12211,Ridge Crest Drive,40243,38.2380250,-85.5294454
12212,Meadow Lane,40243,38.2395949,-85.5298557
12213,Davidson Drive,40243,38.2390557,-85.5291537
12213,Hardwick Road,40243,38.2366195,-85.5293037
12213,Meadow Lane,40243,38.2400621,-85.5299263
12213,Ridge Crest Drive,40243,38.2380699,-85.5291610
12214,Davidson Drive,40243,38.2386593,-85.5287963
12214,Meadow Lane,40243,38.2396382,-85.5296274
12215,Davidson Drive,40243,38.2390925,-85.5287366
12215,Hardwick Road,40243,38.2367022,-85.5289844
12216,Meadow Lane,40243,38.2396667,-85.5293467
12217,Meadow Lane,40243,38.2401006,-85.5292245
12218,Meadow Lane,40243,38.2396731,-85.5291524
12220,Meadow Lane,40243,38.2396820,-85.5287731
12300,Davidson Drive,40243,38.2386234,-85.5281758
12300,Hardwick Road,40243,38.2365595,-85.5279074
12300,Ridge Crest Drive,40243,38.2376409,-85.5281767
12301,Hardwick Road,40243,38.2369436,-85.5280672
12301,Ridge Crest Drive,40243,38.2380608,-85.5282095
12302,Davidson Drive,40243,38.2386305,-85.5277423
12302,Hardwick Road,40243,38.2366195,-85.5276731
12302,Meadow Lane,40243,38.2396658,-85.5277311
12302,Ridge Crest Drive,40243,38.2376589,-85.5277765
12303,Davidson Drive,40243,38.2390616,-85.5277699
12303,Hardwick Road,40243,38.2369960,-85.5278645
12303,Meadow Lane,40243,38.2401031,-85.5277003
12303,Ridge Crest Drive,40243,38.2380832,-85.5277824
12304,Davidson Drive,40243,38.2386614,-85.5274852
12304,Hardwick Road,40243,38.2366507,-85.5274636
12304,Meadow Lane,40243,38.2396353,-85.5274521
12304,Ridge Crest Drive,40243,38.2376694,-85.5275410
12305,Davidson Drive,40243,38.2390639,-85.5275450
12305,Hardwick Road,40243,38.2370804,-85.5276535
12305,Meadow Lane,40243,38.2401119,-85.5274899
12305,Ridge Crest Drive,40243,38.2380687,-85.5275487
12306,Davidson Drive,40243,38.2386854,-85.5272453
12306,Hardwick Road,40243,38.2367331,-85.5272294
12306,Meadow Lane,40243,38.2396686,-85.5272554
12306,Ridge Crest Drive,40243,38.2376672,-85.5273074
12307,Davidson Drive,40243,38.2390924,-85.5273370
12307,Hardwick Road,40243,38.2371206,-85.5274248
12307,Meadow Lane,40243,38.2401165,-85.5272644
12307,Ridge Crest Drive,40243,38.2381038,-85.5273367
12308,Davidson Drive,40243,38.2387104,-85.5270063
12308,Hardwick Road,40243,38.2367803,-85.5270503
12308,Meadow Lane,40243,38.2397053,-85.5270334
12308,Ridge Crest Drive,40243,38.2376926,-85.5270814
12309,Davidson Drive,40243,38.2391116,-85.5271072
12309,Hardwick Road,40243,38.2371789,-85.5272105
12309,Meadow Lane,40243,38.2401342,-85.5270347
12309,Ridge Crest Drive,40243,38.2381145,-85.5271263
12310,Davidson Drive,40243,38.2387406,-85.5268078
12310,Hardwick Road,40243,38.2368515,-85.5267994
12310,Meadow Lane,40243,38.2397323,-85.5267677
12310,Ridge Crest Drive,40243,38.2377285,-85.5268435
12311,Davidson Drive,40243,38.2391593,-85.5268832
12311,Hardwick Road,40243,38.2372246,-85.5269964
12311,Meadow Lane,40243,38.2401593,-85.5268104
12311,Ridge Crest Drive,40243,38.2381458,-85.5268957
12312,Davidson Drive,40243,38.2387780,-85.5265872
12312,Hardwick Road,40243,38.2369028,-85.5265859
12312,Ridge Crest Drive,40243,38.2377636,-85.5266096
12313,Davidson Drive,40243,38.2391718,-85.5266596
12313,Hardwick Road,40243,38.2372823,-85.5267731
12313,Meadow Lane,40243,38.2402037,-85.5265898
12313,Ridge Crest Drive,40243,38.2381660,-85.5266589
12314,Davidson Drive,40243,38.2388131,-85.5262749
12314,Hardwick Road,40243,38.2369572,-85.5264086
12314,Meadow Lane,40243,38.2397838,-85.5263787
12314,Ridge Crest Drive,40243,38.2377923,-85.5263647
12315,Davidson Drive,40243,38.2392255,-85.5262599
12315,Hardwick Road,40243,38.2373559,-85.5265626
12315,Meadow Lane,40243,38.2402190,-85.5263429
12315,Ridge Crest Drive,40243,38.2382018,-85.5264367
12316,Hardwick Road,40243,38.2370024,-85.5261658
12316,Ridge Crest Drive,40243,38.2378320,-85.5260809
12317,Hardwick Road,40243,38.2373985,-85.5263532
12317,Meadow Lane,40243,38.2401873,-85.5260883
12317,Ridge Crest Drive,40243,38.2382420,-85.5260983
12318,Hardwick Road,40243,38.2370617,-85.5259645
12319,Hardwick Road,40243,38.2374911,-85.5258881
12320,Hardwick Road,40243,38.2370978,-85.5257444
12322,Hardwick Road,40243,38.2371920,-85.5254899
12409,Brightfield Drive,40243,38.2366454,-85.5251112
12411,Brightfield Drive,40243,38.2367006,-85.5248684
12413,Brightfield Drive,40243,38.2367778,-85.5246300
12415,Brightfield Drive,40243,38.2368540,-85.5243981
12501,Brightfield Drive,40243,38.2369292,-85.5241350
12503,Brightfield Drive,40243,38.2370201,-85.5238787
12505,Brightfield Drive,40243,38.2370777,-85.5236582
12507,Brightfield Drive,40243,38.2371374,-85.5234282
12509,Brightfield Drive,40243,38.2372034,-85.5231387
200,Marengo Drive,40243,38.2426251,-85.5294702
200,South Evergreen Road,40243,38.2425252,-85.5301021
200,Whitland Court,40243,38.2425661,-85.5307503
201,Marengo Drive,40243,38.2431703,-85.5294732
201,Whitland Court,40243,38.2423952,-85.5305391
202,South Evergreen Road,40243,38.2423596,-85.5300714
202,Whitland Court,40243,38.2425800,-85.5310469
203,Marengo Drive,40243,38.2431088,-85.5290859
203,Westwood Drive,40243,38.2418481,-85.5319761
204,Marengo Drive,40243,38.2426111,-85.5290863
205,Marengo Drive,40243,38.2430075,-85.5287775
205,South Evergreen Road,40243,38.2419322,-85.5296115
206,South Evergreen Road,40243,38.2421651,-85.5300629
206,Westwood Drive,40243,38.2413574,-85.5323821
207,Marengo Drive,40243,38.2428246,-85.5285612
207,South Evergreen Road,40243,38.2417775,-85.5297184
207,Westwood Drive,40243,38.2413611,-85.5318128
208,Westwood Drive,40243,38.2411697,-85.5322916
209,Marengo Drive,40243,38.2426215,-85.5284440
209,South Evergreen Road,40243,38.2416556,-85.5298845
209,Westwood Drive,40243,38.2411479,-85.5316940
210,Marengo Drive,40243,38.2423567,-85.5289565
210,South Evergreen Road,40243,38.2420113,-85.5302229
210,Westwood Drive,40243,38.2410079,-85.5322493
211,Marengo Drive,40243,38.2424050,-85.5283472
211,South Evergreen Road,40243,38.2415789,-85.5300951
212,Marengo Drive,40243,38.2421815,-85.5289063
212,Westwood Drive,40243,38.2408272,-85.5321574
213,Marengo Drive,40243,38.2421423,-85.5283093
213,South Evergreen Road,40243,38.2415400,-85.5303280
214,Marengo Drive,40243,38.2420060,-85.5288563
214,South Evergreen Road,40243,38.2419961,-85.5305336
214,Westwood Drive,40243,38.2406682,-85.5320836
215,Marengo Drive,40243,38.2419616,-85.5282682
215,South Evergreen Road,40243,38.2415441,-85.5305737
216,Marengo Drive,40243,38.2418332,-85.5288109
217,Marengo Drive,40243,38.2417862,-85.5282271
217,South Evergreen Road,40243,38.2416323,-85.5308132
218,South Evergreen Road,40243,38.2420846,-85.5307289
219,Marengo Drive,40243,38.2416028,-85.5281416
219,South Evergreen Road,40243,38.2417091,-85.5309757
220,Marengo Drive,40243,38.2414766,-85.5287441
221,South Evergreen Road,40243,38.2418126,-85.5311464
300,Caroldale Lane,40243,38.2405019,-85.5313671
300,Marengo Drive,40243,38.2413104,-85.5286939
300,South Evergreen Road,40243,38.2423569,-85.5312372
300,Westwood Drive,40243,38.2405041,-85.5319802
301,Caroldale Lane,40243,38.2409335,-85.5315545
301,Marengo Drive,40243,38.2414128,-85.5281562
301,South Evergreen Road,40243,38.2418955,-85.5313316
301,Willow Brook Road,40243,38.2402453,-85.5326282
302,Caroldale Lane,40243,38.2405698,-85.5309628
302,Marengo Drive,40243,38.2411322,-85.5286675
302,South Evergreen Road,40243,38.2424340,-85.5314229
302,Westwood Drive,40243,38.2403192,-85.5319216
303,Caroldale Lane,40243,38.2409771,-85.5311398
303,Marengo Drive,40243,38.2412535,-85.5281524
303,South Evergreen Road,40243,38.2419995,-85.5315408
303,Westwood Drive,40243,38.2402358,-85.5313247
303,Willow Brook Road,40243,38.2400441,-85.5325502
304,Caroldale Lane,40243,38.2406175,-85.5307106
304,Marengo Drive,40243,38.2409279,-85.5286448
304,South Evergreen Road,40243,38.2424982,-85.5316258
304,Westwood Drive,40243,38.2401523,-85.5318295
305,Caroldale Lane,40243,38.2409989,-85.5309276
305,Marengo Drive,40243,38.2410678,-85.5281367
305,Westwood Drive,40243,38.2399737,-85.5312006
305,Willow Brook Road,40243,38.2398587,-85.5324831
306,Marengo Drive,40243,38.2407368,-85.5286514
306,South Evergreen Road,40243,38.2425640,-85.5318362
306,Westwood Drive,40243,38.2399761,-85.5317518
307,Caroldale Lane,40243,38.2410256,-85.5306514
307,Marengo Drive,40243,38.2408766,-85.5281169
307,Willow Brook Road,40243,38.2396737,-85.5323967
308,Caroldale Lane,40243,38.2406382,-85.5303262
308,Marengo Drive,40243,38.2405428,-85.5286579
308,Westwood Drive,40243,38.2397938,-85.5317075
309,Caroldale Lane,40243,38.2410650,-85.5303953
309,Marengo Drive,40243,38.2407024,-85.5281537
309,Willow Brook Road,40243,38.2395024,-85.5323001
310,Marengo Drive,40243,38.2403551,-85.5286597
310,Westwood Drive,40243,38.2396150,-85.5316496
311,Caroldale Lane,40243,38.2410883,-85.5299471
311,Marengo Drive,40243,38.2405233,-85.5281490
313,Caroldale Lane,40243,38.2410043,-85.5297489
313,Marengo Drive,40243,38.2403448,-85.5281599
314,Caroldale Lane,40243,38.2405986,-85.5299853
314,Marengo Drive,40243,38.2401318,-85.5286884
315,Caroldale Lane,40243,38.2408652,-85.5295464
315,Marengo Drive,40243,38.2401195,-85.5281203
317,Caroldale Lane,40243,38.2406856,-85.5294090
318,Caroldale Lane,40243,38.2403300,-85.5299081
321,Caroldale Lane,40243,38.2403276,-85.5293470
401,Marengo Drive,40243,38.2396535,-85.5281430
401,Scarsdale Road,40243,38.2400755,-85.5258319
402,Marengo Drive,40243,38.2394640,-85.5286947
403,Marengo Drive,40243,38.2394695,-85.5281720
403,Scarsdale Road,40243,38.2398975,-85.5257684
403,Westwood Drive,40243,38.2390776,-85.5308254
404,Marengo Drive,40243,38.2392948,-85.5287110
404,Scarsdale Road,40243,38.2396146,-85.5262948
405,Marengo Drive,40243,38.2392745,-85.5282057
405,Scarsdale Road,40243,38.2396946,-85.5257661
405,Westwood Drive,40243,38.2387454,-85.5306264
406,Scarsdale Road,40243,38.2394388,-85.5262628
407,Marengo Drive,40243,38.2390756,-85.5281487
407,Scarsdale Road,40243,38.2395138,-85.5257357
407,Westwood Drive,40243,38.2383252,-85.5304826
409,Scarsdale Road,40243,38.2393409,-85.5256885
409,Westwood Drive,40243,38.2381586,-85.5304235
410,Marengo Drive,40243,38.2383379,-85.5287487
411,Marengo Drive,40243,38.2384516,-85.5282181
411,Scarsdale Road,40243,38.2391678,-85.5256425
411,Westwood Drive,40243,38.2379910,-85.5303529
413,Marengo Drive,40243,38.2382788,-85.5282203
413,Scarsdale Road,40243,38.2390104,-85.5256208
414,Marengo Drive,40243,38.2381000,-85.5287422
415,Scarsdale Road,40243,38.2388078,-85.5255634
416,Scarsdale Road,40243,38.2386451,-85.5260866
417,Scarsdale Road,40243,38.2386338,-85.5255327
418,Scarsdale Road,40243,38.2384690,-85.5260508
419,Scarsdale Road,40243,38.2384622,-85.5255194
500,Marengo Drive,40243,38.2376104,-85.5287666
501,Scarsdale Road,40243,38.2382836,-85.5254806
501,Westwood Drive,40243,38.2373799,-85.5300892
502,Marengo Drive,40243,38.2373845,-85.5287562
503,Marengo Drive,40243,38.2374441,-85.5282473
503,Scarsdale Road,40243,38.2381124,-85.5254228
503,Westwood Drive,40243,38.2372169,-85.5300227
504,Marengo Drive,40243,38.2372025,-85.5287274
505,Marengo Drive,40243,38.2372564,-85.5282206
505,Scarsdale Road,40243,38.2379294,-85.5254155
505,Westwood Drive,40243,38.2370474,-85.5299457
506,Marengo Drive,40243,38.2370225,-85.5286967
507,Scarsdale Road,40243,38.2377496,-85.5253866
507,Westwood Drive,40243,38.2368790,-85.5298722
508,Marengo Drive,40243,38.2368269,-85.5286631
509,Scarsdale Road,40243,38.2374846,-85.5252774
509,Westwood Drive,40243,38.2367141,-85.5298005
511,Westwood Drive,40243,38.2365359,-85.5296751
12408,Old Shelbyville Road,40243,38.2381077,-85.5239616
12400,Old Shelbyville Road,40243,38.2429977,-85.5260750
