House number,Street name,Postal code,Latitude,Longitude
11752,Tazwell Drive,40245,38.3074625,-85.5312871
11754,Tazwell Drive,40245,38.3074844,-85.5312230
11756,Tazwell Drive,40245,38.3075099,-85.5311573
11805,Nansemond Drive,40245,38.3059157,-85.5306412
11807,Nansemond Drive,40245,38.3059720,-85.5305677
11809,Nansemond Drive,40245,38.3059901,-85.5305243
11821,Nansemond Circle,40245,38.3060774,-85.5306651
11823,Nansemond Circle,40245,38.3061156,-85.5306972
11825,Nansemond Circle,40245,38.3061770,-85.5307078
11825,Nansemond Circle,40245,38.3062784,-85.5307822
11839,Nansemond Place,40245,38.3065020,-85.5308971
11841,Nansemond Place,40245,38.3066410,-85.5309464
11841,Nansemond Place,40245,38.3066697,-85.5308949
11841,Nansemond Place,40245,38.3067385,-85.5309464
11847,Nansemond Place,40245,38.3067930,-85.5309939
11849,Nansemond Place,40245,38.3068915,-85.5310655
11851,Nansemond Place,40245,38.3069458,-85.5310991
11901,Nansemond Circle,40245,38.3063179,-85.5306496
11901,Nansemond Circle,40245,38.3063534,-85.5305750
11901,Nansemond Circle,40245,38.3063601,-85.5306814
11901,Nansemond Circle,40245,38.3063977,-85.5306046
11901,Tazwell Drive,40245,38.3079717,-85.5314098
11903,Nansemond Circle,40245,38.3063643,-85.5305099
11903,Nansemond Circle,40245,38.3064094,-85.5305363
11903,Nansemond Circle,40245,38.3064117,-85.5304042
11903,Nansemond Circle,40245,38.3064543,-85.5304367
11905,Nansemond Circle,40245,38.3064558,-85.5303542
11905,Nansemond Circle,40245,38.3064858,-85.5302774
11905,Nansemond Circle,40245,38.3064957,-85.5303789
11905,Nansemond Circle,40245,38.3065269,-85.5303109
11905,Tazwell Drive,40245,38.3079953,-85.5311177
11905,Tazwell Drive,40245,38.3080465,-85.5310458
11905,Tazwell Drive,40245,38.3080473,-85.5311572
11905,Tazwell Drive,40245,38.3080837,-85.5310711
11905,Tazwell Drive,40245,38.3081082,-85.5312016
11905,Tazwell Drive,40245,38.3081351,-85.5311162
11905,Tazwell Drive,40245,38.3081427,-85.5312327
11905,Tazwell Drive,40245,38.3081733,-85.5311489
11907,Tazwell Drive,40245,38.3082178,-85.5306736
11907,Tazwell Drive,40245,38.3082440,-85.5305873
11907,Tazwell Drive,40245,38.3082515,-85.5307127
11907,Tazwell Drive,40245,38.3082974,-85.5306268
11907,Tazwell Drive,40245,38.3083117,-85.5307620
11907,Tazwell Drive,40245,38.3083458,-85.5307777
11907,Tazwell Drive,40245,38.3083488,-85.5306687
11907,Tazwell Drive,40245,38.3084023,-85.5306977
11909,Tazwell Drive,40245,38.3081163,-85.5302936
11909,Tazwell Drive,40245,38.3081678,-85.5303274
11909,Tazwell Drive,40245,38.3081683,-85.5302052
11909,Tazwell Drive,40245,38.3082036,-85.5302357
11909,Tazwell Drive,40245,38.3082242,-85.5303790
11909,Tazwell Drive,40245,38.3082575,-85.5302776
11909,Tazwell Drive,40245,38.3082694,-85.5304103
11909,Tazwell Drive,40245,38.3083020,-85.5303218
11911,Tazwell Drive,40245,38.3083233,-85.5304554
11911,Tazwell Drive,40245,38.3083603,-85.5303591
11911,Tazwell Drive,40245,38.3083629,-85.5304810
11911,Tazwell Drive,40245,38.3083975,-85.5303853
11911,Tazwell Drive,40245,38.3084156,-85.5305237
11911,Tazwell Drive,40245,38.3084476,-85.5304303
11911,Tazwell Drive,40245,38.3084538,-85.5305557
11911,Tazwell Drive,40245,38.3084952,-85.5304705
11913,Tazwell Drive,40245,38.3085214,-85.5300158
11913,Tazwell Drive,40245,38.3085591,-85.5299225
11913,Tazwell Drive,40245,38.3085616,-85.5300416
11913,Tazwell Drive,40245,38.3085998,-85.5299591
11913,Tazwell Drive,40245,38.3086191,-85.5300824
11913,Tazwell Drive,40245,38.3086583,-85.5299882
11913,Tazwell Drive,40245,38.3086732,-85.5301213
11913,Tazwell Drive,40245,38.3087158,-85.5300308
11915,Tazwell Drive,40245,38.3083416,-85.5298577
11915,Tazwell Drive,40245,38.3083738,-85.5297702
11915,Tazwell Drive,40245,38.3083915,-85.5299002
11915,Tazwell Drive,40245,38.3084192,-85.5298058
11915,Tazwell Drive,40245,38.3084308,-85.5299299
11915,Tazwell Drive,40245,38.3084616,-85.5298385
11915,Tazwell Drive,40245,38.3084635,-85.5299478
11915,Tazwell Drive,40245,38.3085025,-85.5298644
11917,Tazwell Drive,40245,38.3084494,-85.5296243
11917,Tazwell Drive,40245,38.3084898,-85.5295412
11917,Tazwell Drive,40245,38.3085023,-85.5296698
11917,Tazwell Drive,40245,38.3085354,-85.5295745
11917,Tazwell Drive,40245,38.3085522,-85.5297152
11917,Tazwell Drive,40245,38.3085852,-85.5296209
11917,Tazwell Drive,40245,38.3085923,-85.5297430
11917,Tazwell Drive,40245,38.3086245,-85.5296545
11919,Tazwell Drive,40245,38.3086392,-85.5297806
11919,Tazwell Drive,40245,38.3086780,-85.5296775
11919,Tazwell Drive,40245,38.3086869,-85.5298125
11919,Tazwell Drive,40245,38.3087185,-85.5297143
11919,Tazwell Drive,40245,38.3087421,-85.5298560
11919,Tazwell Drive,40245,38.3087736,-85.5297636
11919,Tazwell Drive,40245,38.3087806,-85.5298945
11919,Tazwell Drive,40245,38.3088182,-85.5298022
11921,Tazwell Drive,40245,38.3089287,-85.5291835
11921,Tazwell Drive,40245,38.3089625,-85.5290980
11921,Tazwell Drive,40245,38.3089651,-85.5292084
11921,Tazwell Drive,40245,38.3089996,-85.5291199
11921,Tazwell Drive,40245,38.3090188,-85.5292500
11921,Tazwell Drive,40245,38.3090521,-85.5292677
11921,Tazwell Drive,40245,38.3090556,-85.5291587
11921,Tazwell Drive,40245,38.3090988,-85.5291924
11923,Tazwell Drive,40245,38.3087291,-85.5290193
11923,Tazwell Drive,40245,38.3087628,-85.5289434
11923,Tazwell Drive,40245,38.3087813,-85.5290628
11923,Tazwell Drive,40245,38.3088097,-85.5289752
11923,Tazwell Drive,40245,38.3088395,-85.5291113
11923,Tazwell Drive,40245,38.3088650,-85.5290169
11923,Tazwell Drive,40245,38.3088796,-85.5291368
11923,Tazwell Drive,40245,38.3089073,-85.5290515
12001,Fallen Oak Court,40245,38.3090567,-85.5314273
12301,Westport Road,40245,38.3051514,-85.5233212
12303,Westport Road,40245,38.3052471,-85.5229694
4001,Pacelli Place,40245,38.3054818,-85.5272416
4300,Pacelli Place,40245,38.3066302,-85.5304329
4302,Pacelli Place,40245,38.3066815,-85.5304752
4304,Pacelli Place,40245,38.3067224,-85.5305117
4306,Pacelli Place,40245,38.3067455,-85.5305312
4308,Pacelli Place,40245,38.3068044,-85.5305693
4310,Pacelli Place,40245,38.3068511,-85.5306067
4314,Pacelli Place,40245,38.3069743,-85.5307387
4318,Pacelli Place,40245,38.3070858,-85.5307978
4320,Pacelli Place,40245,38.3071298,-85.5308382
4322,Pacelli Place,40245,38.3071817,-85.5308639
4324,Pacelli Place,40245,38.3072133,-85.5309033
4326,Pacelli Place,40245,38.3072682,-85.5309260
12202,Jonel Court,40245,38.3092952,-85.5275483
12302,Bristol Bay Place,40245,38.3127587,-85.5251894
4016,Emerald Spring Place,40245,38.3116864,-85.5241867
4020,Emerald Spring Place,40245,38.3118316,-85.5244192
4022,Emerald Spring Place,40245,38.3120028,-85.5245531
4028,Emerald Spring Place,40245,38.3123907,-85.5248714
4032,Emerald Spring Place,40245,38.3126170,-85.5250733
4034,Emerald Spring Place,40245,38.3127861,-85.5251142
4607,Lunenburg Drive,40245,38.3091463,-85.5280559
12305,Westport Road,40245,38.3052970,-85.5227572
12205,Westport Road,40245,38.3047249,-85.5241007
11001,Bay Run Drive,40245,38.3078799,-85.5272220
11003,Bay Run Drive,40245,38.3077499,-85.5273333
11004,Bay Run Drive,40245,38.3079313,-85.5279211
11005,Bay Run Drive,40245,38.3076339,-85.5274423
11007,Bay Run Drive,40245,38.3075530,-85.5276039
11008,Bay Run Drive,40245,38.3078177,-85.5280400
11009,Bay Run Drive,40245,38.3074559,-85.5277472
11010,Bay Run Drive,40245,38.3077162,-85.5281545
11011,Bay Run Drive,40245,38.3073329,-85.5278742
11012,Bay Run Drive,40245,38.3076150,-85.5282808
11015,Bay Run Drive,40245,38.3071623,-85.5279452
11016,Bay Run Drive,40245,38.3074690,-85.5283912
11017,Bay Run Drive,40245,38.3070122,-85.5279859
11018,Bay Run Drive,40245,38.3072928,-85.5284357
11700,Oak Bay Drive,40245,38.3087364,-85.5308900
11701,Oak Bay Drive,40245,38.3088832,-85.5310646
11702,Oak Bay Drive,40245,38.3087161,-85.5306415
11703,Oak Bay Drive,40245,38.3090749,-85.5310585
11704,Oak Bay Drive,40245,38.3088030,-85.5304596
11705,Oak Bay Drive,40245,38.3092127,-85.5308826
11706,Oak Bay Drive,40245,38.3089157,-85.5303014
11707,Oak Bay Drive,40245,38.3092403,-85.5306566
11708,Oak Bay Drive,40245,38.3090225,-85.5301412
11709,Oak Bay Drive,40245,38.3093300,-85.5304797
11710,Oak Bay Drive,40245,38.3091139,-85.5299633
11712,Oak Bay Drive,40245,38.3091650,-85.5297456
11714,Oak Bay Drive,40245,38.3093045,-85.5295849
11715,Oak Bay Drive,40245,38.3094871,-85.5302126
11716,Oak Bay Drive,40245,38.3095117,-85.5295972
11718,Oak Bay Drive,40245,38.3096488,-85.5297156
11720,Oak Bay Drive,40245,38.3097892,-85.5298166
11721,Oak Bay Drive,40245,38.3096461,-85.5303062
11722,Oak Bay Drive,40245,38.3099293,-85.5299311
11723,Oak Bay Drive,40245,38.3097891,-85.5304053
11724,Oak Bay Drive,40245,38.3100709,-85.5300404
11725,Oak Bay Drive,40245,38.3099294,-85.5305115
11726,Oak Bay Drive,40245,38.3102011,-85.5301319
11727,Oak Bay Drive,40245,38.3101589,-85.5307186
11728,Oak Bay Drive,40245,38.3103675,-85.5302763
11800,Oak Bay Drive,40245,38.3105016,-85.5303807
11828,Olde Spring Road,40245,38.3140667,-85.5317438
11830,Olde Spring Road,40245,38.3141022,-85.5314687
11832,Olde Spring Road,40245,38.3141518,-85.5312580
11834,Olde Spring Road,40245,38.3141776,-85.5310446
11836,Olde Spring Road,40245,38.3142463,-85.5308758
11838,Olde Spring Road,40245,38.3143066,-85.5306592
11900,Boydton Court,40245,38.3115591,-85.5306269
11900,Heathsville Court,40245,38.3122609,-85.5309805
11901,Boydton Court,40245,38.3117576,-85.5306183
11901,Heathsville Court,40245,38.3124426,-85.5311253
11902,Boydton Court,40245,38.3114241,-85.5304737
11902,Heathsville Court,40245,38.3122140,-85.5307454
11902,Olde Spring Court,40245,38.3138053,-85.5320828
11903,Boydton Court,40245,38.3119129,-85.5304443
11903,Heathsville Court,40245,38.3126484,-85.5310588
11904,Boydton Court,40245,38.3113809,-85.5302152
11904,Halifax Drive,40245,38.3130697,-85.5313690
11904,Olde Spring Court,40245,38.3139200,-85.5318923
11905,Boydton Court,40245,38.3118982,-85.5301127
11905,Halifax Drive,40245,38.3134860,-85.5317152
11905,Heathsville Court,40245,38.3127475,-85.5308674
11906,Halifax Drive,40245,38.3131224,-85.5311822
11906,Heathsville Court,40245,38.3122699,-85.5305250
11907,Halifax Drive,40245,38.3135645,-85.5315116
11907,Heathsville Court,40245,38.3127923,-85.5306578
11908,Halifax Drive,40245,38.3131754,-85.5309742
11908,Heathsville Court,40245,38.3124733,-85.5303438
11909,Halifax Drive,40245,38.3135865,-85.5312827
11909,Heathsville Court,40245,38.3128609,-85.5304549
11910,Halifax Drive,40245,38.3132279,-85.5307677
11911,Halifax Drive,40245,38.3136337,-85.5310756
11911,Heathsville Court,40245,38.3128973,-85.5302364
11912,Halifax Drive,40245,38.3132621,-85.5305598
11913,Halifax Drive,40245,38.3137111,-85.5308917
11913,Heathsville Court,40245,38.3129392,-85.5299948
11914,Halifax Drive,40245,38.3133375,-85.5303656
11915,Halifax Drive,40245,38.3137391,-85.5306739
11917,Halifax Drive,40245,38.3137954,-85.5304623
12000,Fallen Oak Court,40245,38.3088791,-85.5316216
12001,Bay Run Drive,40245,38.3068649,-85.5279828
12002,Bay Run Drive,40245,38.3066360,-85.5284973
12002,Fallen Oak Court,40245,38.3089016,-85.5318815
12003,Bay Run Drive,40245,38.3067164,-85.5279540
12004,Bay Run Drive,40245,38.3064830,-85.5284347
12004,Fallen Oak Court,40245,38.3090615,-85.5320387
12005,Bay Run Drive,40245,38.3065720,-85.5279106
12005,Fallen Oak Court,40245,38.3093177,-85.5314348
12006,Bay Run Drive,40245,38.3063328,-85.5283606
12006,Fallen Oak Court,40245,38.3092330,-85.5320867
12007,Bay Run Drive,40245,38.3064631,-85.5278246
12007,Fallen Oak Court,40245,38.3094420,-85.5316384
12008,Bay Run Drive,40245,38.3062180,-85.5282471
12008,Fallen Oak Court,40245,38.3093729,-85.5321939
12009,Bay Run Drive,40245,38.3063239,-85.5276704
12010,Fallen Oak Court,40245,38.3095219,-85.5322973
12011,Bay Run Drive,40245,38.3062631,-85.5275489
12012,Bay Run Drive,40245,38.3061012,-85.5281212
12013,Bay Run Drive,40245,38.3062023,-85.5273649
12014,Bay Run Drive,40245,38.3060064,-85.5279729
12015,Bay Run Drive,40245,38.3061336,-85.5271772
12016,Bay Run Drive,40245,38.3059283,-85.5278396
12017,Bay Run Drive,40245,38.3061429,-85.5269622
12018,Bay Run Drive,40245,38.3058418,-85.5276717
12020,Bay Run Drive,40245,38.3057744,-85.5275113
12022,Bay Run Drive,40245,38.3057503,-85.5273266
12024,Bay Run Drive,40245,38.3057056,-85.5271379
12026,Bay Run Drive,40245,38.3056900,-85.5269373
12100,Bay Run Drive,40245,38.3056694,-85.5267552
12101,Bay Run Drive,40245,38.3062015,-85.5264022
12102,Bay Run Drive,40245,38.3056958,-85.5265584
12102,Eastbay Court,40245,38.3051650,-85.5292940
12103,Eastbay Court,40245,38.3057428,-85.5292338
12104,Bay Run Drive,40245,38.3057170,-85.5263443
12104,Eastbay Court,40245,38.3051834,-85.5291649
12105,Eastbay Court,40245,38.3057268,-85.5290598
12106,Bay Run Drive,40245,38.3057902,-85.5261762
12106,Eastbay Court,40245,38.3052096,-85.5290004
12107,Eastbay Court,40245,38.3056572,-85.5289054
12108,Bay Run Drive,40245,38.3058383,-85.5260086
12108,Eastbay Court,40245,38.3052972,-85.5288734
12109,Eastbay Court,40245,38.3055468,-85.5288421
12110,Bay Run Drive,40245,38.3058922,-85.5258434
12110,Eastbay Court,40245,38.3053982,-85.5287903
12112,Bay Run Drive,40245,38.3059170,-85.5256725
12114,Bay Run Drive,40245,38.3059850,-85.5255042
12116,Bay Run Drive,40245,38.3060216,-85.5253441
12117,Bay Run Drive,40245,38.3064380,-85.5253824
12118,Bay Run Drive,40245,38.3060531,-85.5251645
12119,Bay Run Drive,40245,38.3065193,-85.5251847
12120,Bay Run Drive,40245,38.3061166,-85.5250026
12121,Bay Run Drive,40245,38.3065565,-85.5249869
12122,Bay Run Drive,40245,38.3061496,-85.5248338
12123,Bay Run Drive,40245,38.3066053,-85.5248091
12124,Bay Run Drive,40245,38.3061724,-85.5246597
12125,Bay Run Drive,40245,38.3066422,-85.5246088
12126,Bay Run Drive,40245,38.3062267,-85.5244986
12127,Bay Run Drive,40245,38.3067421,-85.5243987
12128,Bay Run Drive,40245,38.3062813,-85.5243320
12130,Bay Run Drive,40245,38.3063201,-85.5241488
12200,Bay Run Drive,40245,38.3066355,-85.5236777
12200,Hideaway Court,40245,38.3055947,-85.5282455
12201,Bay Run Drive,40245,38.3070128,-85.5238919
12201,Hideaway Court,40245,38.3055723,-85.5280779
12202,Bay Run Drive,40245,38.3067683,-85.5234555
12202,Hideaway Court,40245,38.3055295,-85.5283516
12203,Hideaway Court,40245,38.3055382,-85.5279302
12203,Westport Road,40245,38.3054238,-85.5244891
12204,Hideaway Court,40245,38.3054012,-85.5284508
12205,Hideaway Court,40245,38.3054988,-85.5278084
12205,Westport Road,40245,38.3047252,-85.5240983
12206,Hideaway Court,40245,38.3052848,-85.5284681
12207,Hideaway Court,40245,38.3053643,-85.5277448
12207,Westport Road,40245,38.3050561,-85.5237106
12208,Hideaway Court,40245,38.3051409,-85.5284064
12209,Hideaway Court,40245,38.3052761,-85.5276639
12211,Hideaway Court,40245,38.3051513,-85.5276152
12305,Westport Road,40245,38.3052904,-85.5227307
3800,Northumberland Drive,40245,38.3059159,-85.5229513
3806,Northumberland Drive,40245,38.3066542,-85.5230059
3808,Northumberland Drive,40245,38.3068372,-85.5231081
3810,Northumberland Drive,40245,38.3072870,-85.5233620
3812,Northumberland Drive,40245,38.3074627,-85.5234782
3814,Northumberland Drive,40245,38.3076227,-85.5235823
3816,Northumberland Drive,40245,38.3077881,-85.5236963
4000,Pacelli Place,40245,38.3053257,-85.5268169
4002,Pacelli Place,40245,38.3052529,-85.5267442
4003,Pacelli Place,40245,38.3053747,-85.5273802
4005,Pacelli Place,40245,38.3052412,-85.5274564
4009,Pacelli Place,40245,38.3050313,-85.5281133
4011,Pacelli Place,40245,38.3050001,-85.5282475
4013,Pacelli Place,40245,38.3049667,-85.5283991
4015,Pacelli Place,40245,38.3049664,-85.5285386
4017,Pacelli Place,40245,38.3049575,-85.5286862
4019,Pacelli Place,40245,38.3049072,-85.5288040
4021,Pacelli Place,40245,38.3048596,-85.5289208
4023,Pacelli Place,40245,38.3048044,-85.5290546
4025,Pacelli Place,40245,38.3047497,-85.5291787
4026,Pacelli Place,40245,38.3044936,-85.5296081
4100,Pacelli Place,40245,38.3046216,-85.5296689
4102,Pacelli Place,40245,38.3047201,-85.5297295
4104,Pacelli Place,40245,38.3048239,-85.5298168
4105,Pacelli Place,40245,38.3047485,-85.5293303
4106,Pacelli Place,40245,38.3049282,-85.5298265
4107,Pacelli Place,40245,38.3049319,-85.5294290
4108,Pacelli Place,40245,38.3050240,-85.5298968
4109,Pacelli Place,40245,38.3050506,-85.5294667
4110,Pacelli Place,40245,38.3051236,-85.5299064
4111,Pacelli Place,40245,38.3052357,-85.5295590
4112,Pacelli Place,40245,38.3052131,-85.5299289
4114,Pacelli Place,40245,38.3053168,-85.5299323
4116,Pacelli Place,40245,38.3054156,-85.5299395
4118,Pacelli Place,40245,38.3055093,-85.5299059
4119,Pacelli Place,40245,38.3056325,-85.5294461
4120,Pacelli Place,40245,38.3056039,-85.5299039
4121,Pacelli Place,40245,38.3057809,-85.5294654
4300,Bay Run Court,40245,38.3061526,-85.5234936
4301,Bay Run Court,40245,38.3063325,-85.5234439
4302,Arwine Court,40245,38.3063763,-85.5270022
4302,Bay Run Court,40245,38.3060522,-85.5237028
4303,Arwine Court,40245,38.3063878,-85.5264739
4303,Bay Run Court,40245,38.3065110,-85.5235543
4304,Arwine Court,40245,38.3065232,-85.5270053
4305,Arwine Court,40245,38.3065280,-85.5264321
4306,Arwine Court,40245,38.3067156,-85.5269770
4307,Arwine Court,40245,38.3066764,-85.5264528
4308,Arwine Court,40245,38.3067192,-85.5273091
4309,Arwine Court,40245,38.3068437,-85.5264333
4310,Arwine Court,40245,38.3068332,-85.5274890
4311,Arwine Court,40245,38.3069959,-85.5265510
4312,Arwine Court,40245,38.3069966,-85.5275386
4313,Arwine Court,40245,38.3070687,-85.5267192
4314,Arwine Court,40245,38.3071551,-85.5274311
4315,Arwine Court,40245,38.3071604,-85.5268360
4316,Arwine Court,40245,38.3072648,-85.5272609
4317,Arwine Court,40245,38.3072634,-85.5270348
4400,Baygarden Court,40245,38.3080872,-85.5283218
4400,Bays End Court,40245,38.3061683,-85.5292806
4400,Maxwell Circle,40245,38.3063009,-85.5259447
4401,Baygarden Court,40245,38.3084436,-85.5286429
4401,Bays End Court,40245,38.3061976,-85.5290589
4402,Bay Run Court,40245,38.3069664,-85.5243972
4402,Baygarden Court,40245,38.3080596,-85.5284738
4402,Bays End Court,40245,38.3062433,-85.5294935
4402,Maxwell Circle,40245,38.3064342,-85.5260491
4403,Bay Run Court,40245,38.3072444,-85.5238619
4403,Baygarden Court,40245,38.3083842,-85.5287727
4403,Maxwell Circle,40245,38.3065925,-85.5254142
4404,Bay Run Court,40245,38.3074836,-85.5242745
4404,Baygarden Court,40245,38.3079942,-85.5285992
4404,Bays End Court,40245,38.3063890,-85.5295995
4404,Maxwell Circle,40245,38.3066302,-85.5260332
4405,Bay Run Court,40245,38.3074366,-85.5240285
4405,Baygarden Court,40245,38.3083240,-85.5288890
4405,Bays End Court,40245,38.3063365,-85.5288824
4405,Maxwell Circle,40245,38.3067515,-85.5255977
4406,Baygarden Court,40245,38.3079417,-85.5287243
4406,Bays End Court,40245,38.3065510,-85.5296859
4406,Maxwell Circle,40245,38.3067778,-85.5258286
4407,Baygarden Court,40245,38.3082535,-85.5289943
4408,Baygarden Court,40245,38.3078565,-85.5288053
4408,Bays End Court,40245,38.3067156,-85.5296140
4409,Baygarden Court,40245,38.3081699,-85.5290882
4409,Bays End Court,40245,38.3066323,-85.5290063
4410,Baygarden Court,40245,38.3077716,-85.5288984
4410,Bays End Court,40245,38.3068409,-85.5295136
4411,Baygarden Court,40245,38.3081128,-85.5292036
4412,Baygarden Court,40245,38.3076902,-85.5289945
4412,Bays End Court,40245,38.3069674,-85.5293511
4413,Baygarden Court,40245,38.3080123,-85.5292706
4414,Baygarden Court,40245,38.3076140,-85.5291042
4414,Bays End Court,40245,38.3070759,-85.5291962
4415,Baygarden Court,40245,38.3079442,-85.5293863
4415,Bays End Court,40245,38.3067226,-85.5288349
4416,Baygarden Court,40245,38.3075426,-85.5292111
4416,Bays End Court,40245,38.3071273,-85.5290231
4417,Baygarden Court,40245,38.3078645,-85.5294981
4418,Baygarden Court,40245,38.3074679,-85.5293216
4418,Bays End Court,40245,38.3071861,-85.5288365
4419,Baygarden Court,40245,38.3077889,-85.5295908
4419,Bays End Court,40245,38.3067865,-85.5285670
4420,Baygarden Court,40245,38.3073952,-85.5294588
4420,Bays End Court,40245,38.3072294,-85.5286445
4421,Baygarden Court,40245,38.3077435,-85.5297329
4422,Baygarden Court,40245,38.3073529,-85.5295742
4423,Baygarden Court,40245,38.3076857,-85.5298571
4424,Baygarden Court,40245,38.3073123,-85.5297027
4425,Baygarden Court,40245,38.3076280,-85.5299740
4426,Baygarden Court,40245,38.3072248,-85.5297695
4427,Baygarden Court,40245,38.3075685,-85.5300844
4428,Baygarden Court,40245,38.3071191,-85.5298561
4429,Baygarden Court,40245,38.3075217,-85.5301999
4430,Baygarden Court,40245,38.3070338,-85.5299403
4431,Baygarden Court,40245,38.3074523,-85.5303192
4432,Baygarden Court,40245,38.3069847,-85.5300748
4433,Baygarden Court,40245,38.3073790,-85.5304299
4502,Lunenburg Drive,40245,38.3079838,-85.5238646
4504,Lunenburg Drive,40245,38.3079463,-85.5240769
4506,Lunenburg Drive,40245,38.3079343,-85.5243141
4508,Lunenburg Drive,40245,38.3079288,-85.5245271
4508,Pulaski Court,40245,38.3072513,-85.5247128
4509,Pulaski Court,40245,38.3074331,-85.5248043
4510,Lunenburg Drive,40245,38.3079278,-85.5247701
4510,Pulaski Court,40245,38.3071018,-85.5248338
4511,Pulaski Court,40245,38.3075539,-85.5250980
4512,Lunenburg Drive,40245,38.3079523,-85.5250437
4512,Pulaski Court,40245,38.3070045,-85.5250559
4513,Pulaski Court,40245,38.3075233,-85.5253480
4514,Lunenburg Drive,40245,38.3079830,-85.5252491
4514,Pulaski Court,40245,38.3070586,-85.5252755
4515,Pulaski Court,40245,38.3075400,-85.5255935
4516,Lunenburg Drive,40245,38.3080017,-85.5255138
4516,Pulaski Court,40245,38.3071575,-85.5255210
4517,Pulaski Court,40245,38.3075649,-85.5258454
4518,Lunenburg Drive,40245,38.3079911,-85.5257488
4518,Pulaski Court,40245,38.3071703,-85.5257413
4519,Pulaski Court,40245,38.3078011,-85.5260243
4520,Lunenburg Drive,40245,38.3080336,-85.5259546
4520,Pulaski Court,40245,38.3071874,-85.5259635
4522,Pulaski Court,40245,38.3072436,-85.5261826
4524,Lunenburg Drive,40245,38.3081388,-85.5268516
4524,Pulaski Court,40245,38.3073668,-85.5263958
4526,Lunenburg Drive,40245,38.3081771,-85.5270506
4526,Pulaski Court,40245,38.3075082,-85.5265194
4528,Pulaski Court,40245,38.3077030,-85.5265744
4530,Pulaski Court,40245,38.3078744,-85.5265715
4532,Pulaski Court,40245,38.3080389,-85.5265391
4600,Lunenburg Drive,40245,38.3083553,-85.5276722
4602,Lunenburg Drive,40245,38.3084369,-85.5278661
4604,Lunenburg Drive,40245,38.3085388,-85.5280585
4606,Lunenburg Drive,40245,38.3086474,-85.5282299
4608,Lunenburg Drive,40245,38.3087499,-85.5283863
4610,Lunenburg Drive,40245,38.3089076,-85.5285313
4612,Lunenburg Drive,40245,38.3090739,-85.5286808
4614,Lunenburg Drive,40245,38.3092281,-85.5288379
4618,Lunenburg Drive,40245,38.3094806,-85.5290210
4620,Lunenburg Drive,40245,38.3096510,-85.5291143
4622,Lunenburg Drive,40245,38.3098126,-85.5292345
4624,Lunenburg Drive,40245,38.3099933,-85.5293860
4626,Lunenburg Drive,40245,38.3101145,-85.5294677
4628,Lunenburg Drive,40245,38.3102784,-85.5295945
4630,Lunenburg Drive,40245,38.3104343,-85.5297098
4700,Lunenburg Drive,40245,38.3106797,-85.5298916
4702,Lunenburg Drive,40245,38.3108305,-85.5300069
4704,Lunenburg Drive,40245,38.3109655,-85.5300902
4706,Lunenburg Drive,40245,38.3111628,-85.5301554
4712,Lunenburg Drive,40245,38.3121108,-85.5300220
4714,Lunenburg Drive,40245,38.3122853,-85.5299914
4716,Lunenburg Drive,40245,38.3124842,-85.5299635
4726,Lunenburg Drive,40245,38.3131888,-85.5299283
4728,Lunenburg Drive,40245,38.3133615,-85.5300557
4800,Lunenburg Drive,40245,38.3138919,-85.5302332
4804,Lunenburg Drive,40245,38.3143220,-85.5304375
5100,Oakbrook Drive,40245,38.3096616,-85.5318099
5102,Oakbrook Drive,40245,38.3097393,-85.5316249
5104,Oakbrook Drive,40245,38.3098182,-85.5314233
5106,Oakbrook Drive,40245,38.3099105,-85.5312266
5108,Oakbrook Drive,40245,38.3100005,-85.5310485
11001,Lunenburg Court,40245,38.3101743,-85.5288015
11002,Lunenburg Court,40245,38.3098487,-85.5285750
11003,Lunenburg Court,40245,38.3102833,-85.5285647
11004,Lunenburg Court,40245,38.3099452,-85.5283690
11005,Lunenburg Court,40245,38.3103810,-85.5283861
11006,Lunenburg Court,40245,38.3100611,-85.5281487
11007,Lunenburg Court,40245,38.3105045,-85.5282000
11008,Lunenburg Court,40245,38.3101647,-85.5279736
11009,Lunenburg Court,40245,38.3106326,-85.5280265
11010,Lunenburg Court,40245,38.3103327,-85.5277332
11011,Lunenburg Court,40245,38.3107283,-85.5278129
11012,Lunenburg Court,40245,38.3103397,-85.5274546
11013,Lunenburg Court,40245,38.3107666,-85.5275814
11014,Lunenburg Court,40245,38.3102143,-85.5272566
11015,Lunenburg Court,40245,38.3107440,-85.5273375
11016,Lunenburg Court,40245,38.3102320,-85.5269893
11017,Lunenburg Court,40245,38.3107770,-85.5270436
11018,Lunenburg Court,40245,38.3103998,-85.5267934
11019,Lunenburg Court,40245,38.3106529,-85.5268829
11900,Queen Annes Court,40245,38.3106046,-85.5291148
11902,Queen Annes Court,40245,38.3107011,-85.5288738
11903,Queen Annes Court,40245,38.3110326,-85.5291597
11904,Queen Annes Court,40245,38.3108031,-85.5287172
11905,Queen Annes Court,40245,38.3111224,-85.5289947
11906,Queen Annes Court,40245,38.3109165,-85.5285267
11907,Queen Annes Court,40245,38.3112292,-85.5288173
11908,Queen Annes Court,40245,38.3110176,-85.5283513
11909,Queen Annes Court,40245,38.3113492,-85.5286434
11910,Queen Annes Court,40245,38.3111502,-85.5281782
11911,Queen Annes Court,40245,38.3114826,-85.5284903
11912,Queen Annes Court,40245,38.3112525,-85.5280328
11913,Queen Annes Court,40245,38.3116153,-85.5283559
11914,Queen Annes Court,40245,38.3113251,-85.5278379
11915,Queen Annes Court,40245,38.3117811,-85.5281888
11916,Queen Annes Court,40245,38.3114705,-85.5276831
11917,Queen Annes Court,40245,38.3118002,-85.5279321
11918,Queen Annes Court,40245,38.3116815,-85.5277401
12000,Rustburg Court,40245,38.3129733,-85.5282199
12001,Luray Court,40245,38.3123916,-85.5276994
12001,Rustburg Court,40245,38.3133649,-85.5283089
12002,Halifax Drive,40245,38.3135986,-85.5292444
12002,Luray Court,40245,38.3122263,-85.5274452
12002,Rustburg Court,40245,38.3130211,-85.5278850
12003,Halifax Drive,40245,38.3140646,-85.5294368
12003,Luray Court,40245,38.3126041,-85.5276738
12003,Rustburg Court,40245,38.3134974,-85.5280882
12004,Luray Court,40245,38.3122391,-85.5272174
12004,Rustburg Court,40245,38.3130860,-85.5276614
12005,Halifax Drive,40245,38.3141084,-85.5292285
12005,Luray Court,40245,38.3127475,-85.5275320
12005,Rustburg Court,40245,38.3135547,-85.5278650
12006,Luray Court,40245,38.3124211,-85.5270340
12006,Rustburg Court,40245,38.3132956,-85.5275131
12007,Halifax Drive,40245,38.3141662,-85.5290356
12007,Luray Court,40245,38.3127762,-85.5272813
12007,Rustburg Court,40245,38.3134403,-85.5275848
12008,Luray Court,40245,38.3125240,-85.5268631
12009,Halifax Drive,40245,38.3142240,-85.5288168
12009,Luray Court,40245,38.3128575,-85.5270840
12010,Halifax Drive,40245,38.3138181,-85.5284853
12010,Luray Court,40245,38.3126045,-85.5266881
12011,Halifax Drive,40245,38.3142708,-85.5286234
12011,Luray Court,40245,38.3129373,-85.5269200
12012,Halifax Drive,40245,38.3138934,-85.5282239
12013,Halifax Drive,40245,38.3143382,-85.5284173
12014,Halifax Drive,40245,38.3139463,-85.5280171
12015,Halifax Drive,40245,38.3143857,-85.5281859
12017,Halifax Drive,40245,38.3144324,-85.5279924
12018,Halifax Drive,40245,38.3139641,-85.5277796
12019,Halifax Drive,40245,38.3144709,-85.5277930
12200,Jonel Court,40245,38.3094417,-85.5277173
12201,Jonel Court,40245,38.3096795,-85.5277010
12203,Jonel Court,40245,38.3098368,-85.5275074
12204,Jonel Court,40245,38.3092343,-85.5273432
12205,Jonel Court,40245,38.3098105,-85.5272174
12206,Jonel Court,40245,38.3091364,-85.5271391
12207,Jonel Court,40245,38.3096270,-85.5270456
12208,Jonel Court,40245,38.3090521,-85.5269133
12209,Jonel Court,40245,38.3095121,-85.5268645
12210,Jonel Court,40245,38.3089975,-85.5266768
12211,Jonel Court,40245,38.3094454,-85.5266335
12212,Jonel Court,40245,38.3089708,-85.5264410
12213,Jonel Court,40245,38.3094076,-85.5264471
12500,Bridgetown Place,40245,38.3113271,-85.5238271
12502,Bridgetown Place,40245,38.3111406,-85.5238420
12504,Bridgetown Place,40245,38.3109943,-85.5237601
12506,Bridgetown Place,40245,38.3108657,-85.5236698
12508,Bridgetown Place,40245,38.3107367,-85.5235678
12510,Bridgetown Place,40245,38.3106013,-85.5234645
12512,Bridgetown Place,40245,38.3104627,-85.5233326
12514,Bridgetown Place,40245,38.3103232,-85.5232237
12516,Bridgetown Place,40245,38.3101865,-85.5231420
12518,Bridgetown Place,40245,38.3100298,-85.5230565
12520,Bridgetown Place,40245,38.3098740,-85.5229981
12522,Bridgetown Place,40245,38.3097552,-85.5227746
3811,Northumberland Drive,40245,38.3073294,-85.5227239
3813,Northumberland Drive,40245,38.3075060,-85.5228465
3815,Northumberland Drive,40245,38.3076926,-85.5229847
3817,Northumberland Drive,40245,38.3079088,-85.5231134
3819,Northumberland Drive,40245,38.3081060,-85.5232162
3820,Northumberland Drive,40245,38.3084016,-85.5239113
3821,Northumberland Drive,40245,38.3083396,-85.5232902
3822,Northumberland Drive,40245,38.3085884,-85.5239423
3823,Northumberland Drive,40245,38.3085762,-85.5233346
3824,Northumberland Drive,40245,38.3087888,-85.5239564
3900,Northumberland Drive,40245,38.3090016,-85.5239525
3901,Northumberland Drive,40245,38.3090738,-85.5233574
3902,Northumberland Drive,40245,38.3092236,-85.5239676
3904,Northumberland Drive,40245,38.3094276,-85.5239843
3905,Northumberland Drive,40245,38.3097513,-85.5234940
3906,Northumberland Drive,40245,38.3096448,-85.5240663
3907,Northumberland Drive,40245,38.3099351,-85.5235872
3908,Northumberland Drive,40245,38.3098246,-85.5241864
3909,Northumberland Drive,40245,38.3101107,-85.5237120
3910,Northumberland Drive,40245,38.3099973,-85.5243023
3911,Northumberland Drive,40245,38.3102771,-85.5238404
3913,Northumberland Drive,40245,38.3104223,-85.5239547
3915,Northumberland Drive,40245,38.3105909,-85.5240287
4001,Northumberland Drive,40245,38.3107571,-85.5241840
4002,Northumberland Drive,40245,38.3107698,-85.5249005
4003,Northumberland Drive,40245,38.3109208,-85.5243419
4004,Northumberland Drive,40245,38.3109672,-85.5250571
4005,Northumberland Drive,40245,38.3110719,-85.5244525
4007,Northumberland Drive,40245,38.3112622,-85.5245783
4009,Northumberland Drive,40245,38.3114167,-85.5247183
4011,Northumberland Drive,40245,38.3115672,-85.5248414
4013,Northumberland Drive,40245,38.3117167,-85.5249580
4014,Northumberland Drive,40245,38.3116879,-85.5256219
4015,Northumberland Drive,40245,38.3118902,-85.5250952
4016,Northumberland Drive,40245,38.3118574,-85.5257511
4017,Northumberland Drive,40245,38.3120321,-85.5252079
4018,Northumberland Drive,40245,38.3120191,-85.5258765
4019,Northumberland Drive,40245,38.3121774,-85.5253091
4020,Northumberland Drive,40245,38.3121685,-85.5259938
4021,Northumberland Drive,40245,38.3123203,-85.5254255
4022,Northumberland Drive,40245,38.3123199,-85.5261147
4023,Northumberland Drive,40245,38.3124822,-85.5255539
4024,Emerald Spring Place,40245,38.3121099,-85.5246732
4026,Emerald Spring Place,40245,38.3122324,-85.5247683
4030,Emerald Spring Place,40245,38.3124987,-85.5249744
4031,Emerald Spring Place,40245,38.3129219,-85.5246908
4100,Northumberland Drive,40245,38.3125153,-85.5262646
4101,Northumberland Drive,40245,38.3128994,-85.5258744
4102,Northumberland Drive,40245,38.3127205,-85.5264289
4103,Northumberland Drive,40245,38.3130589,-85.5259990
4105,Northumberland Drive,40245,38.3132048,-85.5261176
4106,Northumberland Drive,40245,38.3131004,-85.5267075
4107,Northumberland Drive,40245,38.3133547,-85.5262289
4108,Northumberland Drive,40245,38.3132456,-85.5268269
4109,Northumberland Drive,40245,38.3134955,-85.5263375
4110,Northumberland Drive,40245,38.3134022,-85.5269502
4111,Northumberland Drive,40245,38.3136514,-85.5264626
4112,Northumberland Drive,40245,38.3135531,-85.5270660
4113,Northumberland Drive,40245,38.3137831,-85.5265557
4114,Northumberland Drive,40245,38.3136981,-85.5271672
4115,Northumberland Drive,40245,38.3139178,-85.5266704
4116,Northumberland Drive,40245,38.3138463,-85.5273116
4117,Northumberland Drive,40245,38.3140886,-85.5267995
4118,Northumberland Drive,40245,38.3139646,-85.5275533
4119,Northumberland Drive,40245,38.3142841,-85.5269219
4121,Northumberland Drive,40245,38.3144504,-85.5269559
4123,Northumberland Drive,40245,38.3145962,-85.5271204
4125,Northumberland Drive,40245,38.3146554,-85.5273756
4127,Northumberland Drive,40245,38.3146197,-85.5275800
4412,Bath Drive,40245,38.3093896,-85.5230384
4416,Bath Drive,40245,38.3093390,-85.5232908
4500,Dickerson Court,40245,38.3102109,-85.5245121
4500,Micklenburg Court,40245,38.3111113,-85.5252530
4501,Dickerson Court,40245,38.3105285,-85.5247457
4501,Micklenburg Court,40245,38.3114445,-85.5254750
4502,Micklenburg Court,40245,38.3110005,-85.5254838
4503,Dickerson Court,40245,38.3104231,-85.5249757
4503,Lunenburg Drive,40245,38.3083350,-85.5242522
4503,Micklenburg Court,40245,38.3113394,-85.5257192
4504,Dickerson Court,40245,38.3100845,-85.5247382
4504,Micklenburg Court,40245,38.3109314,-85.5257254
4505,Dickerson Court,40245,38.3103168,-85.5251496
4505,Lunenburg Drive,40245,38.3083333,-85.5245198
4505,Micklenburg Court,40245,38.3113490,-85.5260015
4506,Micklenburg Court,40245,38.3109271,-85.5259767
4507,Dickerson Court,40245,38.3101604,-85.5252842
4507,Lunenburg Drive,40245,38.3083480,-85.5247224
4507,Micklenburg Court,40245,38.3115171,-85.5261741
4508,Dickerson Court,40245,38.3098652,-85.5248654
4508,Micklenburg Court,40245,38.3109829,-85.5262017
4509,Dickerson Court,40245,38.3099850,-85.5253507
4509,Lunenburg Drive,40245,38.3083885,-85.5249955
4509,Micklenburg Court,40245,38.3116842,-85.5263045
4510,Micklenburg Court,40245,38.3110980,-85.5263935
4511,Dickerson Court,40245,38.3097865,-85.5253479
4511,Lunenburg Drive,40245,38.3083852,-85.5252409
4511,Micklenburg Court,40245,38.3118618,-85.5264385
4512,Dickerson Court,40245,38.3096758,-85.5247650
4512,Micklenburg Court,40245,38.3112162,-85.5265388
4513,Dickerson Court,40245,38.3096159,-85.5252746
4513,Lunenburg Drive,40245,38.3084210,-85.5254950
4513,Micklenburg Court,40245,38.3119465,-85.5266548
4514,Dickerson Court,40245,38.3094986,-85.5246278
4514,Micklenburg Court,40245,38.3113321,-85.5267142
4515,Dickerson Court,40245,38.3094661,-85.5251672
4515,Lunenburg Drive,40245,38.3084226,-85.5257206
4515,Micklenburg Court,40245,38.3118389,-85.5269238
4516,Dickerson Court,40245,38.3093344,-85.5245056
4516,Micklenburg Court,40245,38.3114753,-85.5269170
4517,Dickerson Court,40245,38.3092777,-85.5251282
4517,Lunenburg Drive,40245,38.3084439,-85.5259603
4518,Dickerson Court,40245,38.3091192,-85.5244089
4518,Micklenburg Court,40245,38.3116695,-85.5270176
4519,Dickerson Court,40245,38.3091022,-85.5251252
4520,Dickerson Court,40245,38.3089229,-85.5244239
4521,Dickerson Court,40245,38.3089174,-85.5250462
4522,Dickerson Court,40245,38.3087741,-85.5246264
4523,Dickerson Court,40245,38.3087741,-85.5248610
4523,Lunenburg Drive,40245,38.3085182,-85.5264905
4525,Lunenburg Drive,40245,38.3085653,-85.5267392
4527,Lunenburg Drive,40245,38.3086077,-85.5269545
4529,Lunenburg Drive,40245,38.3086632,-85.5271913
4601,Lunenburg Drive,40245,38.3087354,-85.5274024
4603,Lunenburg Drive,40245,38.3088134,-85.5276213
4603,Pulaski Court,40245,38.3087641,-85.5259217
4605,Lunenburg Drive,40245,38.3089425,-85.5277705
4605,Pulaski Court,40245,38.3089411,-85.5258969
4607,Pulaski Court,40245,38.3091275,-85.5259101
4609,Pulaski Court,40245,38.3093037,-85.5258587
4611,Lunenburg Drive,40245,38.3093730,-85.5282332
4611,Pulaski Court,40245,38.3094976,-85.5258623
4612,Pulaski Court,40245,38.3097695,-85.5265638
4613,Lunenburg Drive,40245,38.3094966,-85.5283539
4613,Pulaski Court,40245,38.3097049,-85.5258752
4614,Pulaski Court,40245,38.3099632,-85.5266036
4615,Pulaski Court,40245,38.3099656,-85.5258697
4616,Pulaski Court,40245,38.3101673,-85.5263791
4617,Pulaski Court,40245,38.3101037,-85.5260569
4627,Lunenburg Drive,40245,38.3103611,-85.5290283
4700,Rustburg Place,40245,38.3124306,-85.5284180
4701,Lunenburg Drive,40245,38.3109127,-85.5294641
4701,Rustburg Place,40245,38.3125496,-85.5282292
4702,Rustburg Place,40245,38.3124848,-85.5287390
4703,Lunenburg Drive,40245,38.3112088,-85.5296250
4703,Rustburg Place,40245,38.3127403,-85.5281686
4704,Rustburg Place,40245,38.3126696,-85.5288571
4705,Lunenburg Drive,40245,38.3114241,-85.5296229
4706,Rustburg Place,40245,38.3128729,-85.5287718
4707,Lunenburg Drive,40245,38.3115900,-85.5295996
4708,Rustburg Place,40245,38.3130582,-85.5287685
4709,Lunenburg Drive,40245,38.3117490,-85.5295524
4710,Rustburg Place,40245,38.3132325,-85.5288108
4711,Lunenburg Drive,40245,38.3119328,-85.5295095
4712,Rustburg Place,40245,38.3134036,-85.5288559
4713,Lunenburg Drive,40245,38.3121079,-85.5295031
4713,Rustburg Place,40245,38.3136135,-85.5284352
4714,Rustburg Place,40245,38.3136463,-85.5289539
4715,Lunenburg Drive,40245,38.3122602,-85.5294563
4717,Lunenburg Drive,40245,38.3124382,-85.5294483
4718,Middlesex Drive,40245,38.3076360,-85.5223496
4719,Lunenburg Drive,40245,38.3125935,-85.5294028
4720,Middlesex Drive,40245,38.3078085,-85.5224412
4721,Lunenburg Drive,40245,38.3127832,-85.5293890
4723,Lunenburg Drive,40245,38.3129437,-85.5293755
4725,Lunenburg Drive,40245,38.3131221,-85.5293912
4727,Lunenburg Drive,40245,38.3133155,-85.5294364
4729,Lunenburg Drive,40245,38.3135133,-85.5295129
4800,Middlesex Drive,40245,38.3079924,-85.5225882
4801,Lunenburg Drive,40245,38.3140213,-85.5296793
4802,Middlesex Drive,40245,38.3081598,-85.5226992
4803,Lunenburg Drive,40245,38.3143126,-85.5298432
4804,Middlesex Drive,40245,38.3083307,-85.5228072
4805,Lunenburg Drive,40245,38.3144608,-85.5299032
4806,Middlesex Drive,40245,38.3085236,-85.5228974
4808,Middlesex Drive,40245,38.3087374,-85.5229336
4810,Middlesex Drive,40245,38.3089305,-85.5228680
4812,Middlesex Drive,40245,38.3091070,-85.5228103
4814,Middlesex Drive,40245,38.3093050,-85.5226068
4958,Winding Spring Circle,40245,38.3140028,-85.5256590
4960,Winding Spring Circle,40245,38.3141189,-85.5259266
4962,Winding Spring Circle,40245,38.3142401,-85.5260944
4964,Winding Spring Circle,40245,38.3143841,-85.5262402
4966,Winding Spring Circle,40245,38.3145156,-85.5263416
4968,Winding Spring Circle,40245,38.3146611,-85.5264485
4970,Winding Spring Circle,40245,38.3147982,-85.5265619
4972,Winding Spring Circle,40245,38.3149426,-85.5266644
4974,Winding Spring Circle,40245,38.3150884,-85.5267831
