House number,Street name,Postal code,Latitude,Longitude
182,улица 10 лет Октября,644031,54.9894454,73.4619371
6/2,улица Малиновского,644090,55.0428531,73.3303101
14,улица Малиновского,644012,55.0376719,73.3266533
2,улица Лермонтова,644024,54.9811361,73.3707303
69,Волгоградская улица,644073,54.9967171,73.2098980
2,улица Броз Тито,644024,54.9802035,73.3733595
1/1,Енисейская улица,644011,54.9782925,73.3394453
19,Заводская улица,644065,55.0569369,73.2887374
7Б,улица Дианова,644106,54.9905626,73.2613755
43,проспект Карла Маркса,644042,54.9553732,73.3878915
35Д,2-я Солнечная улица,644073,55.0009607,73.1894762
11,Мельничная улица,644082,54.9305104,73.3236422
126,Октябрьская улица,644007,54.9988670,73.3785055
3,Молодогвардейская улица,644058,54.9246273,73.4536592
11,улица Волкова,644045,55.0354635,73.3061306
20,улица Лермонтова,644024,54.9816786,73.3824086
18,улица Маяковского,644046,54.9707135,73.3912509
145А,улица Красный Путь,644033,55.0114468,73.3351165
113,улица 50 лет Профсоюзов,644089,55.0319938,73.2498929
113,улица 50 лет Профсоюзов,644089,55.0321887,73.2498861
127,Октябрьская улица,644082,54.9996582,73.3794811
20,улица Красный Путь,644007,54.9965485,73.3581807
4Б,улица Лермонтова,644024,54.9811993,73.3736159
80,улица Масленникова,644001,54.9741334,73.4098578
80,улица Масленникова,644001,54.9741402,73.4099643
2,улица Броз Тито,644024,54.9797043,73.3735177
49,Молодогвардейская улица,644058,54.9255461,73.4658399
1,Рощинская улица,644117,54.9560375,73.4589725
105,улица Булатова,644007,54.9948596,73.3809299
16,27-я Северная улица,644034,55.0259451,73.3608578
212,24-я Северная улица,644052,55.0230571,73.4003982
212,24-я Северная улица,644052,55.0230294,73.4007041
7,Средняя улица,644122,55.0050706,73.3575188
172А к1,5-я Северная улица,644007,55.0069532,73.3791933
9 к2,улица 40 лет Ракетных Войск,644061,55.0319730,73.5044331
15,проспект Комарова,644074,54.9857270,73.3016532
75,улица Кондратюка,644073,54.9769986,73.2277111
21А,Волочаевская улица,644043,54.9984328,73.3515322
7/1,бульвар Архитекторов,644123,54.9885345,73.3068757
2В,4-я Транспортная улица,644021,54.9513283,73.4063370
35,бульвар Архитекторов,644074,54.9713498,73.2828423
91,улица Декабристов,644010,54.9750753,73.3970874
69,улица Олега Кошевого,667330,54.9358516,73.3159992
16А,улица Серова,644048,54.9471850,73.3840184
3,Музейная улица,644099,54.9857737,73.3725399
40,4-я Крайняя улица,644012,55.0352427,73.3232823
2/1,Ишимская улица,644058,54.9301643,73.4718855
91А,улица Арнольда Нейбута,644031,54.9929838,73.4102366
91А,улица Арнольда Нейбута,644031,54.9929465,73.4108932
19Г,улица 19-го Партсъезда,644065,55.0422440,73.2698441
34/1,улица 19-го Партсъезда,644065,55.0415154,73.2710800
152,Учебная улица,644046,54.9702536,73.3919334
18,улица Маяковского,644046,54.9706492,73.3909330
59,улица Красный Путь,644043,54.9955897,73.3577486
26,улица Гусарова,644007,54.9956283,73.3787380
182,улица 10 лет Октября,644031,54.9884588,73.4619317
219,улица 10 лет Октября,644031,54.9943706,73.4805524
219,улица 10 лет Октября,644031,54.9943170,73.4805605
14,бульвар Архитекторов,644112,54.9908525,73.3062702
4,улица Игоря Мишина,644109,54.9106132,73.4593608
107,улица 10 лет Октября,644070,54.9862023,73.4007943
25,улица Маршала Жукова,644024,54.9851887,73.3878347
41/5,Интернациональная улица,644043,54.9912620,73.3711313
6,Больничный переулок,644099,54.9900210,73.3778515
30,улица Иртышская Набережная,644048,54.9545049,73.3798914
18/2,проспект Карла Маркса,644042,54.9672956,73.3832906
63,улица Красный Путь,644099,54.9963701,73.3562611
92,улица 10 лет Октября,644070,54.9847017,73.4017758
19,улица 70 лет Октября,644074,54.9809241,73.3221582
44,улица 10 лет Октября,644070,54.9843753,73.3910105
83 к1,улица Орджоникидзе,644122,55.0041086,73.3643851
25/16В,улица 70 лет Октября,644074,54.9749573,73.3390302
35,Интернациональная улица,644043,54.9913345,73.3695542
31,Нефтезаводская улица,644053,55.0395329,73.2628085
1/1,Енисейская улица,644011,54.9782501,73.3394058
10В,улица Лукашевича,644081,54.9954185,73.2727585
2/1,Волгоградская улица,644022,54.9818989,73.2768130
7/3,улица Дианова,644106,54.9935166,73.2613356
19А,Заозёрная улица,644090,55.0400912,73.3132448
36/4,улица Дергачёва,644073,54.9921668,73.2468876
15,улица 70 лет Октября,644074,54.9825441,73.3182007
4Б,Комсомольский проспект,644901,55.1736478,73.2150552
24/1,улица Красный Путь,644043,54.9980492,73.3564435
167,24-я Северная улица,644052,55.0234455,73.4013246
169,24-я Северная улица,644052,55.0234742,73.4016857
7/4,улица Дианова,644106,54.9935640,73.2616294
75,улица Куйбышева,644001,54.9799396,73.3987584
16/1,улица 50-летия ВЛКСМ,644076,54.9728672,73.4781908
119/2,4-я улица Челюскинцев,644052,55.0260689,73.4142683
56,проспект Карла Маркса,644048,54.9481290,73.3858000
3,улица Дианова,644106,54.9929808,73.2625117
1/1,3-я Енисейская улица,644011,54.9781155,73.3393566
110А,улица Красных Зорь,644009,54.9805750,73.4291739
118,улица Красных Зорь,644009,54.9806389,73.4301336
122,улица Красных Зорь,644009,54.9806571,73.4305620
116,улица Красных Зорь,644009,54.9806221,73.4299227
126,улица Красных Зорь,644009,54.9806745,73.4310162
120,улица Красных Зорь,644009,54.9806478,73.4303535
16,улица Маяковского,644046,54.9706846,73.3890167
195,Учебная улица,644046,54.9606500,73.3953367
12,улица Пономаренко,644076,54.9782526,73.4715289
108Б,улица Красных Зорь,644009,54.9803404,73.4263951
102А,улица Красных Зорь,644009,54.9803716,73.4246570
1В,улица Дианова,644106,54.9921160,73.2658187
1,улица Бархатовой,644110,55.0475832,73.3267495
212А,улица Богдана Хмельницкого,644021,54.9612726,73.4134181
18/7,улица Завертяева,644013,55.0334759,73.4464461
39/1,21-я Амурская улица,644013,55.0449489,73.4265253
39/2,21-я Амурская улица,644013,55.0449253,73.4270831
20,улица Кирова,644041,54.9422372,73.4241405
1А,2-я Железнодорожная улица,644023,54.9435548,73.4355548
102,улица Суровцева,644103,54.9476442,73.3417671
17Б/1,Космический проспект,644076,54.9695845,73.4473154
25Б,проспект Карла Маркса,644042,54.9635440,73.3853215
52/5,Космический проспект,644076,54.9789639,73.4634920
109,улица 10 лет Октября,644070,54.9856171,73.4037571
109,улица 10 лет Октября,644070,54.9855203,73.4022638
12,улица Кирова,644041,54.9459702,73.4196102
14/4,улица Крупской,644112,54.9970065,73.3100798
25,улица Бетховена,644082,54.9332159,73.3255535
16,Крутогорская улица,644902,55.3663964,73.2210036
26,Ишимская улица,644058,54.9242672,73.4695984
2,улица Игоря Мишина,644109,54.9110432,73.4590972
43,3-я Ленинградская улица,644120,54.9235098,73.4872275
7/2А,улица Дианова,644106,54.9937328,73.2599684
8,Загородный микрорайон,644094,55.0638957,73.5168209
7В,улица Ватутина,644022,54.9878752,73.2761038
28,улица Перелёта,644119,55.0032714,73.3007153
49,5-я Кордная улица,644018,54.9590441,73.4688086
59,3-я Молодёжная улица,644117,54.9518456,73.4602972
25,улица Гуртьева,644060,54.9200192,73.4076968
14,улица Суворова,644015,54.9408251,73.3402290
72,улица 10 лет Октября,644070,54.9847166,73.3976355
83,улица Демьяна Бедного,644030,54.9232254,73.4166770
9,улица Марченко,644121,54.9402590,73.3766582
102,улица 2-я Линия,644046,54.9694072,73.4007551
195Б,10 лет октября,644031,54.9898528,73.4469564
10,проспект Комарова,644119,54.9967130,73.2861785
26/5,улица Конева,644074,54.9790775,73.3127942
55,улица Нахимова,644105,55.0142021,73.4222306
16,улица Ярослава Гашека,644109,54.9087871,73.4467221
16,улица Ярослава Гашека,644109,54.9087851,73.4465994
93,улица Лермонтова,644001,54.9834900,73.4054768
19/1,1-я Заводская улица,644065,55.0540549,73.2673166
18/1,бульвар Архитекторов,644112,54.9770776,73.2869866
11,улица Серова,644020,54.9483330,73.3848797
164,улица Лермонтова,644001,54.9828112,73.4044721
164,улица Лермонтова,644001,54.9828129,73.4045771
18,проспект Карла Маркса,644042,54.9681108,73.3831885
2/2,проспект Комарова,644119,54.9972854,73.2832313
13,Моторная улица,644109,54.9111172,73.4471269
19,улица Березовского,644024,54.9883947,73.3831447
19/1,улица Березовского,644024,54.9887005,73.3846324
14/4,улица Лукашевича,644081,54.9967015,73.2739843
10,проспект Карла Маркса,644010,54.9738505,73.3814236
10,улица Масленникова,644010,54.9722379,73.3837094
31А,проспект Карла Маркса,644010,54.9716948,73.3840754
37,Полковая улица,644010,54.9724363,73.3851925
26,улица Масленникова,644010,54.9723676,73.3857416
26,проспект Карла Маркса,644042,54.9616907,73.3856586
30,проспект Карла Маркса,644042,54.9609350,73.3858771
8,бульвар Победы,644048,54.9547412,73.3841107
6,бульвар Победы,644048,54.9546416,73.3832518
4,бульвар Победы,644048,54.9545200,73.3825935
8Г,улица Серова,644048,54.9522287,73.3843830
8В,улица Серова,644048,54.9527546,73.3841249
8Б,улица Серова,644048,54.9533663,73.3839045
4Б,улица Серова,644048,54.9539053,73.3837695
4А,улица Серова,644048,54.9542052,73.3847618
6А,улица Серова,644048,54.9535244,73.3846920
1В,улица Серова,644048,54.9522862,73.3853737
1А,улица Серова,644048,54.9529096,73.3857716
8А,улица Серова,644048,54.9529364,73.3846311
38,проспект Карла Маркса,644048,54.9539804,73.3864327
1Г,улица Серова,644048,54.9516074,73.3856373
61,проспект Карла Маркса,644048,54.9501556,73.3881822
12,улица Серова,644048,54.9492827,73.3842349
20,улица Серова,644020,54.9460246,73.3835188
205,Учебная улица,644046,54.9590953,73.3967391
10,улица Панфилова,644046,54.9594761,73.3992056
185,Учебная улица,644046,54.9600738,73.3985167
199А,Учебная улица,644046,54.9601345,73.3970037
202,Учебная улица,644046,54.9600351,73.3959319
197,Учебная улица,644046,54.9604791,73.3959483
193,Учебная улица,644046,54.9611131,73.3953206
193А,Учебная улица,644046,54.9611730,73.3959890
193Б,Учебная улица,644046,54.9612326,73.3966445
191А,Учебная улица,644046,54.9618249,73.3958091
191,Учебная улица,644046,54.9617351,73.3951932
189,Учебная улица,644046,54.9623270,73.3950083
21,Братская улица,644046,54.9510617,73.4014309
148 к1,улица Куйбышева,644046,54.9673712,73.3991176
140,улица Куйбышева,644046,54.9685286,73.3990783
105,улица Маршала Жукова,644046,54.9701272,73.3911827
25А,улица Лукашевича,644119,55.0021124,73.2856747
27,улица Лукашевича,644119,55.0041964,73.2868185
1,улица Крупской,644119,55.0049114,73.2900984
3,улица Крупской,644119,55.0046255,73.2918122
6,улица Крупской,644119,55.0056802,73.2930884
7/1,улица Крупской,644119,55.0025775,73.2961648
29,улица Лукашевича,644119,55.0054613,73.2888822
27А,улица Лукашевича,644119,55.0039905,73.2882232
27А,улица Лукашевича,644119,55.0037009,73.2872105
5,улица Крупской,644119,55.0039084,73.2933845
7,улица Крупской,644119,55.0030879,73.2950525
9/1,улица Крупской,644119,55.0019056,73.2948927
10,Заречный бульвар,644119,55.0033624,73.2930683
6,Зелёный бульвар,644119,55.0015912,73.2902163
9А,Зелёный бульвар,644119,54.9996328,73.2903121
7,Зелёный бульвар,644119,54.9995583,73.2893724
9А,Зелёный бульвар,644119,54.9990902,73.2901840
2Б,Заречный бульвар,644119,54.9988896,73.2890833
10/3,улица Степанца,644119,54.9980297,73.2895522
23А,улица Лукашевича,644119,55.0009694,73.2837645
12,улица Степанца,644119,54.9993245,73.2840496
12/2,улица Степанца,644119,54.9995115,73.2855106
2,Заречный бульвар,644119,54.9993457,73.2867857
2А,Заречный бульвар,644119,54.9989207,73.2876213
10,улица Степанца,644119,54.9984592,73.2861928
25,улица Лукашевича,644119,55.0026598,73.2850570
1,проспект Комарова,644073,54.9969458,73.2807298
3,проспект Комарова,644073,54.9958788,73.2825852
21/2,улица Лукашевича,644073,54.9968257,73.2789200
3А,улица Туполева,644112,54.9938357,73.3023327
19,улица Лукашевича,644073,54.9957214,73.2774970
19А,улица Лукашевича,644073,54.9955338,73.2789334
21,улица Лукашевича,644092,54.9965986,73.2774496
17Б,улица Лукашевича,644073,54.9946595,73.2779759
17,улица Лукашевича,644073,54.9955197,73.2762036
6/1,улица Лукашевича,644106,54.9928173,73.2675824
8,улица Рокоссовского,644081,54.9983299,73.2650351
8,улица Дианова,644106,54.9944600,73.2589536
7Г,улица Дианова,644106,54.9912254,73.2598464
7,улица Дианова,644106,54.9928804,73.2610996
5Б,улица Дианова,644106,54.9914297,73.2623304
26,Волгоградская улица,644106,54.9892284,73.2581973
3А,улица Дианова,644106,54.9920156,73.2642836
5А,улица Дианова,644106,54.9922760,73.2628490
3,улица Дианова,644106,54.9926920,73.2639293
24Б,Волгоградская улица,644106,54.9902404,73.2608569
26Б,Волгоградская улица,644106,54.9901410,73.2576133
24В,Волгоградская улица,644106,54.9899228,73.2597262
3,Лесной проезд,644106,54.9901153,73.2564908
26А,Волгоградская улица,644106,54.9899711,73.2587343
4,Звёздная улица,644073,54.9970596,73.2444379
16/1,улица Дианова,644073,54.9957148,73.2488049
5,улица Лисицкого,644073,54.9977064,73.2419371
30,улица Рокоссовского,644073,55.0005643,73.2364586
149,6-я Станционная улица,644120,54.9265651,73.4975066
6,6-я Ленинградская улица,644120,54.9282418,73.4975635
86,3-я Станционная улица,644120,54.9281280,73.4969208
84,3-я Станционная улица,644120,54.9280808,73.4962679
39,6-я Станционная улица,644058,54.9246464,73.4715523
6,Моторная улица,644109,54.9119736,73.4525936
8,Моторная улица,644109,54.9120606,73.4503383
9,улица Шакурова,644109,54.9140069,73.4478792
10,Моторная улица,644109,54.9126063,73.4503913
10/1,Моторная улица,644109,54.9129982,73.4505883
6/2,Моторная улица,644109,54.9126685,73.4516230
10/2,Моторная улица,644109,54.9133753,73.4503717
4,Моторная улица,644109,54.9119842,73.4548952
1,Моторная улица,644109,54.9112160,73.4544558
2,улица Ярослава Гашека,644109,54.9091072,73.4555677
3,Моторная улица,644109,54.9105913,73.4527658
5,Моторная улица,644109,54.9103866,73.4518715
11,Моторная улица,644109,54.9103904,73.4480690
13,Моторная улица,644109,54.9105495,73.4470525
20/1,улица Ярослава Гашека,644109,54.9098983,73.4460770
15,Моторная улица,644109,54.9111511,73.4454797
6,улица Ярослава Гашека,644109,54.9093359,73.4535582
12,улица Ярослава Гашека,644109,54.9093169,73.4497230
20,улица Ярослава Гашека,644109,54.9093209,73.4459070
5,Машиностроительная улица,644058,54.9206583,73.4507591
7,Машиностроительная улица,644058,54.9206827,73.4498806
13,Новокирпичная улица,644058,54.9225295,73.4517282
3,Молодогвардейская улица,644058,54.9252992,73.4537995
11,Молодогвардейская улица,644058,54.9258503,73.4570342
13,Молодогвардейская улица,644058,54.9258992,73.4576989
15,Молодогвардейская улица,644058,54.9259531,73.4583636
17,Молодогвардейская улица,644058,54.9251883,73.4579246
9,Молодогвардейская улица,644058,54.9251654,73.4572711
14,Молодогвардейская улица,644058,54.9246303,73.4623201
10,Молодогвардейская улица,644058,54.9245032,73.4610888
10/1,Молодогвардейская улица,644058,54.9244052,73.4604403
23/1,Молодогвардейская улица,644058,54.9253471,73.4600034
27,Молодогвардейская улица,644058,54.9257760,73.4604367
29,Молодогвардейская улица,644058,54.9262294,73.4606318
25,Молодогвардейская улица,644058,54.9263846,73.4600596
33/1,Молодогвардейская улица,644058,54.9259247,73.4614592
37,Молодогвардейская улица,644058,54.9265469,73.4629484
41,Молодогвардейская улица,644058,54.9256032,73.4636752
43,Молодогвардейская улица,644058,54.9256077,73.4645324
26,Ишимская улица,644058,54.9244410,73.4695667
24,Молодогвардейская улица,644058,54.9245265,73.4689333
22,Молодогвардейская улица,644058,54.9246605,73.4679497
53,Молодогвардейская улица,644058,54.9254251,73.4678463
51,Молодогвардейская улица,644058,54.9254384,73.4668799
55,Молодогвардейская улица,644058,54.9251938,73.4687280
16,Молодогвардейская улица,644058,54.9251515,73.4662914
20,Молодогвардейская улица,644058,54.9249448,73.4671092
21,проспект Менделеева,644083,55.0463868,73.3116254
21/1,проспект Менделеева,644083,55.0467716,73.3109704
19/1,проспект Менделеева,644083,55.0470721,73.3091088
19/2,проспект Менделеева,644083,55.0466887,73.3097552
17/1,проспект Менделеева,644083,55.0473691,73.3072686
17,проспект Менделеева,644083,55.0469872,73.3079062
4,Молодогвардейская улица,644058,54.9241429,73.4549330
3,Молодогвардейская улица,644058,54.9247727,73.4535374
6,Молодогвардейская улица,644058,54.9242785,73.4582477
21,Молодогвардейская улица,644058,54.9251875,73.4590076
8,Молодогвардейская улица,644058,54.9243589,73.4593019
2/4,6-я Станционная улица,644058,54.9211219,73.4571455
12,Молодогвардейская улица,644058,54.9248489,73.4616152
31,Молодогвардейская улица,644058,54.9253920,73.4608688
47А,улица Кирова,644041,54.9470694,73.4201626
66А,5-я Рабочая улица,644041,54.9473019,73.4210902
12,улица Кирова,644041,54.9457466,73.4195652
9,улица Кирова,644041,54.9479532,73.4197066
83,5-я Рабочая улица,644041,54.9482798,73.4205926
3 к1,Харьковская улица,644041,54.9475549,73.4138710
7,улица Кирова,644041,54.9490131,73.4184414
5,улица Кирова,644041,54.9503193,73.4170744
5А,улица Кирова,644041,54.9505416,73.4178823
4,Краснопресненская улица,644041,54.9510885,73.4205527
85,5-я Рабочая улица,644041,54.9485671,73.4218983
5/2,Машиностроительная улица,644058,54.9208256,73.4513156
5/3,Машиностроительная улица,644058,54.9205960,73.4515098
66,Машиностроительная улица,644113,54.9146025,73.4426826
8/2,улица Шакурова,644109,54.9147579,73.4502552
40,Фрезерная улица,644109,54.9145533,73.4477423
36,Фрезерная улица,644113,54.9148494,73.4454793
28,Фрезерная улица,644113,54.9148398,73.4438953
14,улица Ярослава Гашека,644109,54.9089528,73.4476689
16,улица Ярослава Гашека,644109,54.9088909,73.4470276
26,улица Ярослава Гашека,644109,54.9090171,73.4441231
9/1,улица Ярослава Гашека,644109,54.9082004,73.4470546
3,улица Ярослава Гашека,644109,54.9078656,73.4522464
12,улица Орловского,644020,54.9505618,73.3935800
10,улица Орловского,644020,54.9510913,73.3930061
19,Братская улица,644046,54.9512165,73.3985983
367,16-й Военный городок,644006,54.9551268,73.3941374
142А,улица Масленникова,644071,54.9742271,73.4243928
67 к1,улица Пушкина,644010,54.9743623,73.3875152
91,улица Декабристов,644010,54.9753615,73.3968022
59,улица Пушкина,644050,54.9769444,73.3867902
59 к1,улица Пушкина,644050,54.9774709,73.3875468
76,улица Пушкина,644050,54.9742720,73.3867025
64А/1,улица Пушкина,644050,54.9766503,73.3857230
64А/2,улица Пушкина,644050,54.9769524,73.3856617
79,улица Куйбышева,644001,54.9765447,73.3991384
219,улица 8-я Линия,644021,54.9551731,73.4126830
15 к1,проспект Королёва,644012,55.0371054,73.3164333
32,Заозёрная улица,644100,55.0444069,73.3120208
12/1,проспект Менделеева,644100,55.0443139,73.3076375
14,проспект Менделеева,644100,55.0451095,73.3086110
12,проспект Менделеева,644100,55.0452466,73.3076789
14/1,проспект Менделеева,644100,55.0457419,73.3084779
3,улица Сергея Тюленина,644100,55.0432347,73.3079642
3/1,улица Сергея Тюленина,644100,55.0436504,73.3069350
12,улица Химиков,644050,55.0359079,73.2908230
3,Краснопресненская улица,644041,54.9507890,73.4220352
5,Краснопресненская улица,644041,54.9500644,73.4231861
5,Краснопресненская улица,644041,54.9498810,73.4242902
71,улица Декабристов,644024,54.9776896,73.3941009
192,улица Богдана Хмельницкого,644082,54.9647281,73.4129363
190,улица Богдана Хмельницкого,644082,54.9651458,73.4128654
188,улица Богдана Хмельницкого,644082,54.9654599,73.4126490
167,улица 9-я Линия,644082,54.9655853,73.4120311
186,улица Богдана Хмельницкого,644082,54.9663527,73.4124868
184,улица Богдана Хмельницкого,644082,54.9666710,73.4125931
182,улица Богдана Хмельницкого,644082,54.9671040,73.4125240
163,улица 9-я Линия,644082,54.9671618,73.4119242
2,улица Серова,644048,54.9517180,73.3844989
16Б,улица Серова,644048,54.9474535,73.3832924
1,улица Маркова,644048,54.9476015,73.3808095
3,улица Маркова,644048,54.9474283,73.3818895
18А,улица Серова,644020,54.9468419,73.3832999
18,улица Серова,644020,54.9467132,73.3839126
16,улица Серова,644048,54.9481269,73.3841422
16А,улица Серова,644048,54.9475211,73.3840278
14,улица Серова,644048,54.9486141,73.3841814
10,улица Серова,644048,54.9499234,73.3843103
8,улица Серова,644048,54.9504362,73.3843710
6,улица Серова,644048,54.9508610,73.3844224
4,улица Серова,644048,54.9512881,73.3844615
60А,проспект Карла Маркса,644048,54.9487700,73.3856178
3,улица Серова,644048,54.9507293,73.3851988
5,улица Серова,644048,54.9501689,73.3851328
7,улица Серова,644048,54.9496137,73.3850933
9,улица Серова,644048,54.9490967,73.3850384
9 к1,улица Серова,644048,54.9487917,73.3850087
11,улица Серова,644048,54.9483734,73.3849657
13,улица Серова,644020,54.9477007,73.3856302
43,проспект Карла Маркса,644042,54.9552361,73.3881128
9,3-я Железнодорожная улица,644023,54.9442080,73.4382765
10А,3-я Железнодорожная улица,644023,54.9436559,73.4413978
11,3-я Железнодорожная улица,644023,54.9430302,73.4413273
11,3-я Железнодорожная улица,644023,54.9426659,73.4422766
1А,2-я Железнодорожная улица,644023,54.9431657,73.4368546
20,3-я Железнодорожная улица,644023,54.9428555,73.4396783
1,2-я Железнодорожная улица,644023,54.9426517,73.4384412
18,3-я Железнодорожная улица,644023,54.9429599,73.4387530
3,2-я Железнодорожная улица,644023,54.9418065,73.4399925
26,3-я Железнодорожная улица,644023,54.9417373,73.4415637
22,3-я Железнодорожная улица,644023,54.9422911,73.4402904
24,3-я Железнодорожная улица,644023,54.9421078,73.4407500
24А,3-я Железнодорожная улица,644023,54.9425381,73.4411017
22А,3-я Железнодорожная улица,644023,54.9428037,73.4402700
31,29-я Рабочая улица,644079,54.9338221,73.4386125
42,28-я Рабочая улица,644079,54.9332711,73.4379521
38,28-я Рабочая улица,644079,54.9330030,73.4373408
40,28-я Рабочая улица,644079,54.9331580,73.4376373
29,29-я Рабочая улица,644079,54.9330317,73.4382170
5,1-й Ткацкий переулок,644079,54.9362522,73.4416839
31,проспект Комарова,644074,54.9799182,73.3165585
22/1,улица Конева,644074,54.9786453,73.3160984
20,улица Конева,644074,54.9791757,73.3162566
31Б,проспект Комарова,644074,54.9800768,73.3151413
20/1,улица Конева,644074,54.9795246,73.3148438
24/2,улица Конева,644074,54.9793337,73.3137987
26,улица Конева,644074,54.9776486,73.3127891
27/5,проспект Комарова,644074,54.9791540,73.3118305
27/6,проспект Комарова,644074,54.9794033,73.3105884
24/1,улица Конева,644074,54.9787801,73.3136721
29,проспект Комарова,644074,54.9808895,73.3156401
27/4,проспект Комарова,644074,54.9798164,73.3118701
27/7,проспект Комарова,644074,54.9800254,73.3109523
22,улица Конева,644074,54.9782520,73.3153712
28,улица Конева,644074,54.9770805,73.3113788
30/1,улица Конева,644074,54.9773912,73.3096998
30/2,улица Конева,644074,54.9779156,73.3097360
30,улица Конева,644074,54.9766641,73.3100555
30/3,улица Конева,644074,54.9764019,73.3103237
32/2,улица Конева,644074,54.9770107,73.3088203
32/1,улица Конева,644074,54.9768565,73.3080504
32,улица Конева,644074,54.9762925,73.3088359
32/3,улица Конева,644074,54.9774857,73.3088476
28/1,улица Конева,644074,54.9777630,73.3111458
43,Интернациональная улица,644099,54.9922844,73.3734431
5 к3,проспект Мира,644080,55.0219341,73.3009359
14,проспект Мира,644080,55.0244439,73.3006163
16Б,проспект Мира,644080,55.0254338,73.3008419
18,проспект Мира,644080,55.0246590,73.2983842
20,проспект Мира,644080,55.0251677,73.2982284
24,проспект Мира,644080,55.0256206,73.2969680
26,проспект Мира,644080,55.0254920,73.2961163
26Б,проспект Мира,644080,55.0266374,73.2968140
28А,проспект Мира,644050,55.0268873,73.2960804
22,проспект Мира,644080,55.0255456,73.2977605
24 к1,проспект Мира,644080,55.0261565,73.2972079
26/1,4-я Поселковая улица,644080,55.0264940,73.2976044
24/2,4-я Поселковая улица,644080,55.0261163,73.2983443
10Б,проспект Мира,644080,55.0251451,73.3020763
14А,проспект Мира,644080,55.0250751,73.3013112
1,проспект Мира,644008,55.0209508,73.3060254
8,проспект Мира,644080,55.0238028,73.3023346
6А,проспект Мира,644080,55.0238270,73.3035689
6,проспект Мира,644080,55.0232226,73.3023713
8А,проспект Мира,644080,55.0244837,73.3030940
10А,проспект Мира,644080,55.0247141,73.3023008
12А,проспект Мира,644080,55.0245632,73.3014425
8Б,проспект Мира,644080,55.0247716,73.3040842
6Б,проспект Мира,644080,55.0244879,73.3038825
2Б,проспект Мира,644008,55.0210705,73.3090686
2А,проспект Мира,644008,55.0205923,73.3098172
26/3,улица Конева,644074,54.9787427,73.3119545
47/2,улица Кирова,644041,54.9464684,73.4217603
6Б,улица Берко Цемента,644041,54.9492627,73.4255428
13,3-я Железнодорожная улица,644023,54.9420257,73.4439301
24,улица Конева,644074,54.9780274,73.3140157
44А,27-я Рабочая улица,644079,54.9338606,73.4376962
44,27-я Рабочая улица,644079,54.9337764,73.4372801
40,27-я Рабочая улица,644079,54.9333945,73.4364106
31,28-я Рабочая улица,644079,54.9332685,73.4370832
33,28-я Рабочая улица,644079,54.9335018,73.4372157
35,28-я Рабочая улица,644079,54.9334977,73.4375965
42,27-я Рабочая улица,644079,54.9336254,73.4369230
10,улица 70 лет Октября,644123,54.9864142,73.3115717
12,улица 70 лет Октября,644123,54.9857439,73.3130285
6,улица Дмитриева,644123,54.9858653,73.3140765
2,проспект Мира,644008,55.0217364,73.3072044
28,Волгоградская улица,644106,54.9893807,73.2564596
7Г,улица Дианова,644106,54.9906978,73.2597707
7Б,улица Дианова,644106,54.9906254,73.2613652
7Б,улица Дианова,644106,54.9911531,73.2614399
7В,улица Дианова,644106,54.9911893,73.2606425
5В,улица Дианова,644106,54.9914596,73.2637146
21/3,улица Лукашевича,644092,54.9978162,73.2772907
21В,улица Багратиона,644086,55.0273188,73.4201377
21Б,улица Багратиона,644086,55.0270685,73.4207697
17,улица Багратиона,644086,55.0255054,73.4202470
21,улица Багратиона,644086,55.0262283,73.4229060
4,улица 22-го Партсъезда,644052,55.0191837,73.4090767
1,Авангардная улица,644052,55.0184572,73.4085395
3,Авангардная улица,644052,55.0185048,73.4097888
64,4-я улица Челюскинцев,644086,55.0250693,73.4169596
66 к2,4-я улица Челюскинцев,644086,55.0257749,73.4164574
21А,улица Багратиона,644086,55.0264961,73.4222629
4,улица Багратиона,644052,55.0208939,73.4103477
2,улица Багратиона,644052,55.0206223,73.4092708
99,4-я улица Челюскинцев,644051,55.0217107,73.4175645
97,4-я улица Челюскинцев,644051,55.0213555,73.4178823
95,4-я улица Челюскинцев,644051,55.0211143,73.4191961
119,4-я улица Челюскинцев,644052,55.0263519,73.4138558
90,27-я Северная улица,644052,55.0251655,73.4013999
171,24-я Северная улица,644052,55.0234359,73.4030662
169,24-я Северная улица,644052,55.0235099,73.4019306
167,24-я Северная улица,644052,55.0235266,73.4010509
5,21-я Амурская улица,644086,55.0260303,73.4072568
212,24-я Северная улица,644052,55.0223714,73.4005112
2В,4-я Транспортная улица,644021,54.9512207,73.4062880
160А,улица Богдана Хмельницкого,644001,54.9729600,73.4108193
82,улица Масленникова,644001,54.9740699,73.4106750
11,2-я улица Челюскинцев,644047,55.0109717,73.4103865
1,улица Арсеньева,644052,55.0123587,73.4077181
30,2-я Солнечная улица,644073,54.9970761,73.2189277
32,улица Дианова,644073,54.9967708,73.2292692
13,3-я Любинская улица,644073,55.0001601,73.2237937
46,4-я Любинская улица,644073,54.9992321,73.2294466
9Б,улица Лисицкого,644073,54.9999896,73.2418284
177,улица Масленникова,644009,54.9755718,73.4198245
175,улица Масленникова,644009,54.9756747,73.4190856
27,проспект Менделеева,644090,55.0436016,73.3227884
4В,улица Бархатовой,644110,55.0477293,73.3219846
44Б,улица Бородина,644110,55.0485422,73.3223307
42 к1,улица Бородина,644110,55.0496198,73.3224357
11Г,Заозёрная улица,644090,55.0469983,73.3209161
27А,проспект Менделеева,644090,55.0443100,73.3223807
25,проспект Менделеева,644110,55.0443449,73.3202590
25А,проспект Менделеева,644090,55.0451104,73.3197838
25Б,проспект Менделеева,644090,55.0446226,73.3214372
23А,проспект Менделеева,644090,55.0454761,73.3190756
23,проспект Менделеева,644090,55.0448951,73.3183880
25В,проспект Менделеева,644090,55.0451891,73.3209627
42,улица Бородина,644110,55.0493931,73.3213799
44А,улица Бородина,644110,55.0484015,73.3213631
42А,улица Бородина,644110,55.0489558,73.3202727
44,улица Бородина,644110,55.0490641,73.3223395
6А,улица Бархатовой,644110,55.0469284,73.3244162
10,улица Бархатовой,644090,55.0439615,73.3240684
6В,улица Бархатовой,644110,55.0465368,73.3236134
27Б,проспект Менделеева,644110,55.0444603,73.3233005
8А,улица Бархатовой,644110,55.0453700,73.3236374
8,улица Бархатовой,644110,55.0451364,73.3245847
6,улица Бархатовой,644110,55.0464157,73.3251805
6Б,улица Бархатовой,644110,55.0459946,73.3240202
4А,улица Бархатовой,644110,55.0473150,73.3247880
4,улица Бархатовой,644110,55.0477481,73.3258183
46Б,улица Бородина,644110,55.0481599,73.3229849
46А,улица Бородина,644110,55.0489857,73.3231315
46,улица Бородина,644110,55.0494036,73.3241051
4Б,улица Бархатовой,644110,55.0483859,73.3241392
4Г,улица Бархатовой,644110,55.0479748,73.3241186
2,улица Бархатовой,644110,55.0485727,73.3258752
2А,улица Бархатовой,644110,55.0488912,73.3259240
48,улица Бородина,644110,55.0488147,73.3252361
18/1,Заозёрная улица,644083,55.0517017,73.3140713
1/1,Светлая улица,644083,55.0512035,73.3012609
1,Светлая улица,644083,55.0508826,73.3007042
2,Светлая улица,644083,55.0500791,73.3006229
3,проспект Менделеева,644100,55.0478406,73.3010793
1,проспект Менделеева,644100,55.0485107,73.2992783
40,улица Химиков,644083,55.0497245,73.2988382
42,улица Химиков,644083,55.0505651,73.2995724
2,улица Глинки,644083,55.0526440,73.3045812
13,улица Белозёрова,644083,55.0495819,73.3060305
15,улица Белозёрова,644083,55.0504425,73.3063877
7/2,Светлая улица,644083,55.0497765,73.3051273
4,Светлая улица,644083,55.0493680,73.3018630
3А,проспект Менделеева,644100,55.0483072,73.3019428
5,проспект Менделеева,644100,55.0475848,73.3027708
9,Светлая улица,644083,55.0487119,73.3043581
7/1,Светлая улица,644083,55.0492022,73.3046713
11,улица Белозёрова,644083,55.0486750,73.3054056
7,Светлая улица,644083,55.0491928,73.3037610
5,Светлая улица,644083,55.0501884,73.3026933
1/2,Светлая улица,644083,55.0515228,73.3018148
3,Светлая улица,644083,55.0508179,73.3020336
2А,улица Глинки,644083,55.0518098,73.3046492
4Б,улица Глинки,644083,55.0509734,73.3047362
4А,улица Глинки,644083,55.0512460,73.3052159
4,улица Глинки,644083,55.0515039,73.3057163
14 к1,улица Калинина,644121,54.9321663,73.3626321
14/2,улица Калинина,644121,54.9326716,73.3617505
14/1,улица Калинина,644121,54.9321386,73.3620562
31,улица Труда,644121,54.9313277,73.3680547
29А,улица Труда,644121,54.9315736,73.3689578
49,улица Труда,644121,54.9321746,73.3721697
5,улица Чайковского,644121,54.9313059,73.3760087
4,улица Калинина,644121,54.9317342,73.3788455
35,улица Труда,644121,54.9306651,73.3663480
33,улица Труда,644121,54.9313174,73.3669034
6,улица Калинина,644121,54.9312468,73.3778772
11,улица Калинина,644121,54.9294369,73.3717894
12,улица Чайковского,644121,54.9306291,73.3675468
68,улица Чайковского,644121,54.9300808,73.3696813
10,улица Чайковского,644121,54.9313614,73.3706538
10,улица Чайковского,644121,54.9311743,73.3697490
66/1,улица Чайковского,644121,54.9310513,73.3712695
66,улица Чайковского,644121,54.9309528,73.3701925
13,улица Калинина,644121,54.9296324,73.3678680
12,улица Калинина,644121,54.9292949,73.3700073
10А,улица Калинина,644121,54.9298307,73.3737718
10,улица Калинина,644121,54.9305341,73.3763434
8,улица Калинина,644121,54.9308765,73.3772663
14,улица Калинина,644121,54.9330494,73.3594566
44,улица Труда,644121,54.9337040,73.3660909
11,улица Труда,644121,54.9336474,73.3772939
2,улица Чайковского,644121,54.9328864,73.3773544
4А,улица Чайковского,644121,54.9319373,73.3778942
3Б,улица Чайковского,644121,54.9322880,73.3777776
29,улица Труда,644121,54.9319692,73.3686029
6,улица Чайковского,644121,54.9318116,73.3730675
4,улица Чайковского,644121,54.9322937,73.3755053
21А,улица Труда,644121,54.9330489,73.3739424
21,улица Труда,644121,54.9330223,73.3749442
17,улица Труда,644121,54.9331570,73.3755613
3,улица Чайковского,644121,54.9325695,73.3790497
2,улица Калинина,644121,54.9321838,73.3792649
1,улица Чайковского,644121,54.9327514,73.3802766
9А,улица Труда,644121,54.9334910,73.3788100
9,улица Труда,644121,54.9336781,73.3793968
7,улица Труда,644121,54.9338049,73.3800073
5,улица Труда,644121,54.9339190,73.3806337
9,улица Марченко,644121,54.9400499,73.3776072
12,улица Труда,644121,54.9342982,73.3751046
10,улица Труда,644121,54.9346039,73.3763967
32,улица Труда,644121,54.9337820,73.3747084
10А,улица Труда,644121,54.9338386,73.3749925
12А,улица Труда,644121,54.9339358,73.3752803
9А,улица Сулеймана Стальского,644121,54.9355858,73.3756704
7,улица Сулеймана Стальского,644121,54.9362687,73.3757294
9,улица Сулеймана Стальского,644121,54.9356935,73.3743305
2,улица Сулеймана Стальского,644121,54.9398680,73.3752038
39,улица Серова,644020,54.9364511,73.3802447
4,10-я Ленинская улица,644020,54.9358724,73.3800561
22,улица Лобкова,644020,54.9362014,73.3808363
7/1,улица Труда,644121,54.9346628,73.3792288
22,улица Красный Путь,644043,54.9972702,73.3573042
20,улица Красный Путь,644043,54.9962458,73.3583345
39,улица Яковлева,644122,54.9981636,73.3638821
2/1,улица Чернышевского,644007,54.9959865,73.3778737
2,улица Чернышевского,644007,54.9964754,73.3768555
147,улица Яковлева,644007,54.9985705,73.3776482
46,улица Герцена,644001,54.9998878,73.3736235
44,улица Герцена,644007,54.9994305,73.3735487
143,улица Яковлева,644007,54.9991404,73.3742812
120,Октябрьская улица,644007,54.9997937,73.3746241
124,Октябрьская улица,644007,54.9995824,73.3760658
126,Октябрьская улица,644007,54.9994352,73.3774884
1,улица Герцена,644043,54.9916159,73.3708817
35,Интернациональная улица,644099,54.9913956,73.3693122
81,улица Чапаева,644099,54.9933909,73.3693809
17,улица Герцена,644099,54.9934716,73.3717753
28,Тарская улица,644099,54.9937751,73.3692017
83,улица Чапаева,644099,54.9933438,73.3707677
13,улица Герцена,644099,54.9928419,73.3713982
19,улица Герцена,644099,54.9940069,73.3711720
72/1,улица Фрунзе,644099,54.9941927,73.3701046
20/2,улица 70 лет Октября,644123,54.9834467,73.3222180
28/2,улица Конева,644074,54.9781476,73.3106518
1А,проспект Мира,644008,55.0203807,73.3072008
2А к1,проспект Мира,644008,55.0238922,73.3068140
7А,улица Ватутина,644022,54.9875999,73.2751953
7В,улица Ватутина,644022,54.9879456,73.2758306
7/1,бульвар Архитекторов,644123,54.9886295,73.3070328
7/3,бульвар Архитекторов,644123,54.9889594,73.3089711
6/1,улица 70 лет Октября,644123,54.9884879,73.3090245
6/1,улица 70 лет Октября,644123,54.9885552,73.3083201
19В,улица Крупской,644123,54.9912345,73.3173172
1/1,Енисейская улица,644011,54.9782667,73.3394184
15,проспект Комарова,644074,54.9852705,73.3013394
5В,улица Перелёта,644092,54.9908047,73.2842911
15/3,проспект Комарова,644074,54.9854479,73.3042047
19,проспект Комарова,644074,54.9845689,73.3047406
29,Магистральная улица,644029,55.0360521,73.2791252
31 к1,Магистральная улица,644029,55.0360244,73.2775443
31 к2,Магистральная улица,644029,55.0356093,73.2782138
31,Магистральная улица,644029,55.0350411,73.2776042
19,улица Энергетиков,644029,55.0354614,73.2794427
13,улица Химиков,644050,55.0313319,73.2857676
9 к2,проспект Мира,644050,55.0239377,73.2950698
110,улица 12 Декабря,644103,54.9510447,73.3306060
104,улица 12 Декабря,644103,54.9504249,73.3306616
108,улица 12 Декабря,644103,54.9514862,73.3313811
106,улица 12 Декабря,644103,54.9512060,73.3318192
112,улица 12 Декабря,644103,54.9519900,73.3308845
64,улица 12 Декабря,644103,54.9456307,73.3392282
107,улица Красный Путь,644043,55.0056679,73.3446174
4Б,улица Лермонтова,644024,54.9811010,73.3736694
2,улица Броз Тито,644024,54.9799342,73.3736181
9,улица Иртышская Набережная,644024,54.9791502,73.3742904
3 к1,улица Броз Тито,644024,54.9806609,73.3764132
20,улица Ленина,644024,54.9809453,73.3767557
9,Ильинская улица,644024,54.9802902,73.3756771
9,Ильинская улица,644024,54.9799090,73.3757880
33,проспект Карла Маркса,644010,54.9711271,73.3834347
32,Полковая улица,644010,54.9717197,73.3847817
41,Полковая улица,644010,54.9716823,73.3853320
15,улица Маяковского,644010,54.9707947,73.3844339
110,улица Пушкина,644010,54.9717891,73.3865665
99,улица Пушкина,644010,54.9720290,73.3876184
101,улица Пушкина,644010,54.9712909,73.3878696
112,улица Пушкина,644010,54.9712461,73.3869754
64А/4,улица Пушкина,644050,54.9775286,73.3855420
62,улица Пушкина,644050,54.9779041,73.3855951
12,улица Ленина,644099,54.9856969,73.3737923
26,улица Гусарова,644007,54.9957138,73.3791173
239/1,улица Василия Маргелова,644025,54.8860394,73.4857076
302,улица Василия Маргелова,644025,54.8832572,73.4903291
42В,проспект Мира,644050,55.0304711,73.2896658
38Г,проспект Мира,644050,55.0300418,73.2899697
18А,проспект Мира,644080,55.0249266,73.2991750
28,проспект Мира,644050,55.0260917,73.2953094
38А,проспект Мира,644050,55.0287693,73.2909583
38Б,проспект Мира,644050,55.0292092,73.2906329
38В,проспект Мира,644050,55.0296200,73.2902993
26А,проспект Мира,644080,55.0260236,73.2961510
26,4-я Поселковая улица,644080,55.0255144,73.2989355
26/2,4-я Поселковая улица,644080,55.0259242,73.2991012
6 к1,улица Химиков,644050,55.0307004,73.2873579
6А,улица Химиков,644050,55.0310688,73.2887014
6Б,улица Химиков,644050,55.0307744,73.2891990
6,улица Андрианова,644029,55.0266216,73.2793636
29,проспект Мира,644029,55.0287517,73.2787090
6,проспект Культуры,644029,55.0281278,73.2784748
37А,проспект Мира,644029,55.0280584,73.2730015
2,проспект Культуры,644029,55.0268210,73.2784117
40,проспект Мира,644050,55.0280134,73.2891217
25В,проспект Мира,644029,55.0278409,73.2802374
4А,проспект Культуры,644029,55.0276016,73.2794606
23А,проспект Мира,644029,55.0276202,73.2820455
4Б,проспект Культуры,644029,55.0269856,73.2797911
23Б,проспект Мира,644029,55.0270109,73.2819134
1,бульвар Петухова,644029,55.0268781,73.2832751
27А,проспект Мира,644029,55.0283444,73.2794320
27,проспект Мира,644029,55.0288544,73.2799265
25,проспект Мира,644029,55.0286032,73.2807488
21,проспект Мира,644029,55.0288885,73.2827405
23,проспект Мира,644029,55.0283588,73.2820279
5,бульвар Петухова,644029,55.0283791,73.2832097
4,улица Химиков,644050,55.0302146,73.2864097
44Б,проспект Мира,644050,55.0295517,73.2885140
40А,проспект Мира,644050,55.0284578,73.2893216
42,проспект Мира,644050,55.0288955,73.2885072
44,проспект Мира,644050,55.0288403,73.2868624
4Б,улица Химиков,644050,55.0297316,73.2872637
4А,улица Химиков,644050,55.0296675,73.2865317
6В,улица Химиков,644050,55.0302585,73.2882920
6,улица Химиков,644050,55.0311556,73.2874115
21,Пригородная улица,644077,55.0239756,73.2622873
19,Пригородная улица,644077,55.0232667,73.2615477
15,Пригородная улица,644077,55.0235087,73.2644005
17/2,Пригородная улица,644077,55.0230090,73.2624197
15/1,Пригородная улица,644077,55.0229401,73.2641016
10,Пригородная улица,644077,55.0244878,73.2654564
10,Пригородная улица,644077,55.0245171,73.2665367
10/1,Пригородная улица,644077,55.0248979,73.2656526
17,Пригородная улица,644077,55.0235180,73.2631158
10/2,Пригородная улица,644077,55.0255577,73.2658400
51,проспект Мира,644070,55.0286605,73.2664598
49,проспект Мира,644070,55.0281411,73.2673821
70,проспект Мира,644053,55.0292597,73.2697931
68,проспект Мира,644053,55.0295258,73.2707133
75,проспект Карла Маркса,644020,54.9464399,73.3866287
23,улица Гризодубовой,644005,54.9412734,73.3918086
27,улица Академика Павлова,644005,54.9409096,73.3906199
28,улица Карбышева,644005,54.9408122,73.3921041
1,улица Воровского,644014,54.9224368,73.3668528
2,4-я Марьяновская улица,644014,54.9223475,73.3573110
4,4-я Марьяновская улица,644014,54.9216551,73.3573961
51/53,улица Герцена,644007,54.9986294,73.3725793
6,Нефтезаводская улица,644029,55.0312165,73.2711082
35,улица 20-го Партсъезда,644029,55.0328283,73.2741682
35/3,улица 20-го Партсъезда,644029,55.0330674,73.2746963
35/2,улица 20-го Партсъезда,644029,55.0331644,73.2739871
63,проспект Мира,644077,55.0281884,73.2567907
62,улица 20-го Партсъезда,644077,55.0314226,73.2565785
65,проспект Мира,644077,55.0281508,73.2555466
38,улица Андрианова,644077,55.0271867,73.2560288
98Б,проспект Мира,644089,55.0301712,73.2502171
96,проспект Мира,644089,55.0292929,73.2511535
64,улица 20-го Партсъезда,644077,55.0312471,73.2558510
55А,проспект Мира,644077,55.0281157,73.2647574
34,улица Андрианова,644077,55.0261654,73.2596708
32А,улица Андрианова,644077,55.0265530,73.2614457
57Б,проспект Мира,644077,55.0266630,73.2597552
57А,проспект Мира,644077,55.0270663,73.2597984
57,проспект Мира,644077,55.0274612,73.2597708
59,проспект Мира,644077,55.0283276,73.2590336
61,проспект Мира,644077,55.0282141,73.2580666
58,улица 20-го Партсъезда,644077,55.0316660,73.2582507
60,улица 20-го Партсъезда,644077,55.0316415,73.2574027
86Б,проспект Мира,644077,55.0305610,73.2576555
113А,улица 50 лет Профсоюзов,644089,55.0316837,73.2509766
113,улица 50 лет Профсоюзов,644089,55.0320444,73.2500045
111,улица 50 лет Профсоюзов,644089,55.0325522,73.2504397
82,Магистральная улица,644089,55.0314169,73.2535671
82Б,Магистральная улица,644089,55.0320237,73.2551691
107/1,улица 50 лет Профсоюзов,644089,55.0322197,73.2525096
109,улица 50 лет Профсоюзов,644089,55.0321288,73.2517771
109А,улица 50 лет Профсоюзов,644089,55.0312895,73.2519619
107,улица 50 лет Профсоюзов,644089,55.0329325,73.2523870
17,Нефтезаводская улица,644053,55.0332033,73.2677650
69 к1,проспект Мира,644077,55.0271740,73.2511959
69/3,проспект Мира,644077,55.0267280,73.2507355
69/5,проспект Мира,644077,55.0262146,73.2502117
165,проспект Мира,644085,55.0319463,73.2234460
171,проспект Мира,644085,55.0332731,73.2188211
173А,проспект Мира,644085,55.0334510,73.2180995
169,проспект Мира,644085,55.0330937,73.2206463
167Б,проспект Мира,644085,55.0318353,73.2216320
167А,проспект Мира,644085,55.0320598,73.2210142
167,проспект Мира,644085,55.0325552,73.2219617
169Б,проспект Мира,644085,55.0323176,73.2195749
169А,проспект Мира,644085,55.0326246,73.2199571
169В,проспект Мира,644085,55.0318381,73.2189436
14,улица Белозёрова,644100,55.0460075,73.3054729
10,проспект Менделеева,644100,55.0461773,73.3067975
10/1,улица Белозёрова,644100,55.0454136,73.3066954
21/2,проспект Менделеева,644083,55.0476539,73.3118200
8/1,улица Белозёрова,644100,55.0441193,73.3061647
8,улица Белозёрова,644100,55.0443303,73.3047943
2,улица Белозёрова,644100,55.0426681,73.3040526
1,улица Белозёрова,644100,55.0430384,73.3031967
7,улица Белозёрова,644100,55.0453336,73.3035625
9,улица Белозёрова,644100,55.0459187,73.3044162
21/3,проспект Менделеева,644083,55.0474900,73.3124393
65,улица Энтузиастов,644053,55.0410094,73.2568537
65Б,улица Энтузиастов,644053,55.0404445,73.2567103
37,Нефтезаводская улица,644053,55.0416579,73.2610314
61Б,улица Энтузиастов,644053,55.0413691,73.2600389
63,улица Энтузиастов,644053,55.0414487,73.2585284
67,улица Энтузиастов,644053,55.0405641,73.2551975
67А,улица Энтузиастов,644053,55.0402507,73.2559889
4А,Круговая улица,644053,55.0397783,73.2593376
6Б,Круговая улица,644053,55.0399674,73.2577280
4Б,Круговая улица,644053,55.0404549,73.2593041
33,Нефтезаводская улица,644053,55.0404533,73.2619581
63А,улица Энтузиастов,644053,55.0411491,73.2593623
63Б,улица Энтузиастов,644053,55.0409211,73.2583940
65А,улица Энтузиастов,644053,55.0407179,73.2576374
31А,Нефтезаводская улица,644053,55.0392104,73.2617337
31Б,Нефтезаводская улица,644053,55.0393405,73.2601666
35,Нефтезаводская улица,644053,55.0409489,73.2611419
31,Нефтезаводская улица,644053,55.0394591,73.2627592
61,улица Энтузиастов,644053,55.0419220,73.2601392
5,улица Лаптева,644100,55.0431380,73.3012127
5А,улица Лаптева,644100,55.0424937,73.3023352
11,улица Красный Путь,644099,54.9925057,73.3602587
33,улица 19-го Партсъезда,644053,55.0390001,73.2718229
3,улица Энтузиастов,644088,55.0467147,73.2944871
1,улица Энтузиастов,644088,55.0467940,73.2952236
5,улица Энтузиастов,644088,55.0467045,73.2937418
2,улица 22 Апреля,644088,55.0429287,73.2929333
1А,проспект Королёва,644100,55.0422715,73.2965333
6,улица Белозёрова,644100,55.0438500,73.3047902
4,улица Белозёрова,644100,55.0434302,73.3046200
2,проспект Королёва,644045,55.0410581,73.2948036
2А,проспект Королёва,644045,55.0400410,73.2948608
20А,улица Химиков,644045,55.0402833,73.2939143
15,улица Волкова,644045,55.0363904,73.3072092
16,проспект Королёва,644045,55.0372285,73.3064995
12,улица Белозёрова,644100,55.0452846,73.3053051
10,улица Белозёрова,644100,55.0448643,73.3051358
17/2,проспект Менделеева,644083,55.0483198,73.3078194
17/3,проспект Менделеева,644083,55.0484312,73.3087438
17/4,проспект Менделеева,644083,55.0478939,73.3089351
26/4,Заозёрная улица,644083,55.0492086,73.3089335
17/5,проспект Менделеева,644083,55.0477791,73.3080081
19/4,проспект Менделеева,644083,55.0481646,73.3106147
19/6,проспект Менделеева,644083,55.0475122,73.3098809
19/3,проспект Менделеева,644083,55.0480542,73.3096834
19/5,проспект Менделеева,644083,55.0476184,73.3108177
26/3,Заозёрная улица,644083,55.0488569,73.3107220
26/2,Заозёрная улица,644083,55.0485953,73.3126687
12А,улица Блюхера,644045,55.0346351,73.3012346
6,улица Марка Никифорова,644045,55.0354052,73.3011145
9А,улица Волкова,644045,55.0360168,73.3044375
11,улица Волкова,644045,55.0357340,73.3062776
1А,улица Волкова,644045,55.0335094,73.3026753
9,улица Волкова,644045,55.0355034,73.3052533
5,улица Волкова,644045,55.0343497,73.3042739
7А,улица Волкова,644045,55.0351206,73.3048436
7,улица Волкова,644045,55.0347188,73.3044319
3А,улица Волкова,644045,55.0341058,73.3026478
3,улица Волкова,644045,55.0337694,73.3044037
3Б,улица Волкова,644045,55.0345963,73.3020672
5Б,улица Волкова,644045,55.0356372,73.3027056
16/1,проспект Королёва,644045,55.0368926,73.3060538
13,улица Волкова,644045,55.0364480,73.3056781
16А,проспект Мира,644080,55.0247032,73.3000022
10/1,проспект Мира,644080,55.0237541,73.3016762
4,проспект Мира,644080,55.0231924,73.3034799
1А,улица Достоевского,644043,54.9844032,73.3684611
145А,улица Красный Путь,644033,55.0113235,73.3347520
9,улица Путилова,644092,54.9910664,73.2783012
15,Волочаевская улица,644043,54.9963381,73.3556725
57,улица Красный Путь,644043,54.9950766,73.3581109
79А,улица Красный Путь,644043,54.9989197,73.3532283
4,улица СибНИИСХоз,644012,55.0340130,73.3368449
3 к2,улица СибНИИСХоз,644012,55.0338969,73.3345231
36Б,Нефтезаводская улица,644065,55.0416695,73.2648159
36В,Нефтезаводская улица,644065,55.0418720,73.2656578
36А,Нефтезаводская улица,644065,55.0414804,73.2641486
35А,улица 19-го Партсъезда,644065,55.0416384,73.2673807
38,Нефтезаводская улица,644065,55.0419285,73.2623504
34/1,улица 19-го Партсъезда,644065,55.0415042,73.2711616
30Б,Нефтезаводская улица,644065,55.0395424,73.2675073
30/1,Нефтезаводская улица,644065,55.0388308,73.2648639
30А,Нефтезаводская улица,644065,55.0389207,73.2665463
32/1,Нефтезаводская улица,644065,55.0391278,73.2652284
32А,Нефтезаводская улица,644065,55.0397556,73.2649292
32Б,Нефтезаводская улица,644065,55.0399524,73.2656583
32В,Нефтезаводская улица,644065,55.0402356,73.2665853
34/1,Нефтезаводская улица,644065,55.0409405,73.2651546
32,Нефтезаводская улица,644065,55.0395688,73.2642073
34,Нефтезаводская улица,644065,55.0406369,73.2641575
34/1,Нефтезаводская улица,644065,55.0411299,73.2659647
30В,Нефтезаводская улица,644065,55.0392501,73.2681242
38 к1,улица 22 Апреля,644065,55.0406059,73.2718488
38 к8,улица 22 Апреля,644065,55.0401404,73.2688973
63,улица Энергетиков,644065,55.0431395,73.2784075
35Б,улица 19-го Партсъезда,644065,55.0421982,73.2675664
37,улица 19-го Партсъезда,644065,55.0436438,73.2681808
36Д,Нефтезаводская улица,644065,55.0427595,73.2678065
36Г,Нефтезаводская улица,644065,55.0420486,73.2663126
38А,Нефтезаводская улица,644065,55.0424500,73.2629163
38Б,Нефтезаводская улица,644065,55.0425969,73.2645426
38В,Нефтезаводская улица,644065,55.0428671,73.2653748
55,улица Энтузиастов,644065,55.0428718,73.2636730
65А,улица Энергетиков,644065,55.0441773,73.2762733
67,улица Энергетиков,644065,55.0446860,73.2771684
38,улица 19-го Партсъезда,644065,55.0439569,73.2737841
6А,улица Владимира Горячева,644065,55.0441371,73.2744544
30А,улица 22 Апреля,644065,55.0421997,73.2735189
47А,улица Энтузиастов,644065,55.0444126,73.2705830
36Б,улица 19-го Партсъезда,644065,55.0434275,73.2717764
36А,улица 19-го Партсъезда,644065,55.0432476,73.2711097
36,улица 19-го Партсъезда,644065,55.0429688,73.2700458
35,улица 19-го Партсъезда,644065,55.0427733,73.2693215
32А,улица 19-го Партсъезда,644065,55.0423938,73.2719017
36Г,улица 19-го Партсъезда,644065,55.0433770,73.2703349
32Б,улица 19-го Партсъезда,644065,55.0425421,73.2710140
38А,улица 19-го Партсъезда,644065,55.0437268,73.2727868
35В,улица 19-го Партсъезда,644065,55.0421563,73.2691260
65,улица Энергетиков,644065,55.0438619,73.2771203
63А,улица Энергетиков,644065,55.0430098,73.2777264
63Б,улица Энергетиков,644065,55.0428849,73.2769018
8,улица Владимира Горячева,644065,55.0436798,73.2755655
63В,улица Энергетиков,644065,55.0427283,73.2761021
28А,улица 22 Апреля,644065,55.0420138,73.2756724
32,улица 22 Апреля,644065,55.0431071,73.2744804
28Б,улица 22 Апреля,644065,55.0424952,73.2749555
67А,улица Энергетиков,644065,55.0447701,73.2763030
6Б,улица Владимира Горячева,644065,55.0446721,73.2752241
69,улица Энергетиков,644065,55.0457582,73.2763065
69А,улица Энергетиков,644065,55.0455860,73.2756517
45,улица Энтузиастов,644065,55.0452921,73.2742401
31А,улица Энтузиастов,644088,55.0463506,73.2801003
11/1,улица Энтузиастов,644088,55.0469542,73.2901304
14А,улица 22 Апреля,644088,55.0438079,73.2837418
31,улица Энтузиастов,644088,55.0469738,73.2804366
66,улица Энергетиков,644088,55.0445736,73.2792506
33Б,улица Энтузиастов,644088,55.0452619,73.2794732
29,улица Энтузиастов,644088,55.0465357,73.2819669
66А,улица Энергетиков,644088,55.0443654,73.2784516
11Б,улица Энтузиастов,644088,55.0451875,73.2900313
33В,улица Энтузиастов,644088,55.0449211,73.2801553
11А,улица Энтузиастов,644088,55.0458761,73.2913070
13А,улица Энтузиастов,644088,55.0457153,73.2890156
8Б,улица 22 Апреля,644088,55.0429813,73.2883506
9,улица Энтузиастов,644088,55.0471360,73.2919555
33Г,улица Энтузиастов,644088,55.0445816,73.2808314
18В,улица 22 Апреля,644088,55.0440294,73.2815697
4,улица 22 Апреля,644088,55.0429185,73.2919498
20А,улица 22 Апреля,644088,55.0428282,73.2807739
6А,улица 22 Апреля,644088,55.0439139,73.2895349
12Б,улица 22 Апреля,644088,55.0438397,73.2845904
25,улица Энтузиастов,644088,55.0465574,73.2834518
70,улица Энергетиков,644088,55.0461468,73.2770302
13,улица Энтузиастов,644088,55.0466403,73.2893594
11/1,улица Энтузиастов,644088,55.0467031,73.2897649
23,улица Энтузиастов,644088,55.0467032,73.2848517
4А,улица 22 Апреля,644088,55.0439204,73.2902690
27,улица Энтузиастов,644088,55.0465466,73.2827121
68,улица Энергетиков,644088,55.0452849,73.2778166
19А,улица Энтузиастов,644088,55.0451113,73.2880797
25Б,улица Энтузиастов,644088,55.0450820,73.2842498
7А,улица Энтузиастов,644088,55.0465417,73.2921619
23Б,улица Энтузиастов,644088,55.0466587,73.2841358
14,улица 22 Апреля,644088,55.0428044,73.2843423
12,улица 22 Апреля,644088,55.0428181,73.2852795
21А,улица Энтузиастов,644088,55.0453575,73.2868634
5А,улица Энтузиастов,644088,55.0454728,73.2927270
20,улица 22 Апреля,644088,55.0431253,73.2797601
18А,улица 22 Апреля,644088,55.0437847,73.2822448
8В,улица 22 Апреля,644088,55.0424958,73.2874077
16А,улица 22 Апреля,644088,55.0437910,73.2830019
19,улица Энтузиастов,644088,55.0470831,73.2860386
16,улица 22 Апреля,644088,55.0424570,73.2828812
12А,улица 22 Апреля,644088,55.0439417,73.2854767
23А,улица Энтузиастов,644088,55.0457921,73.2853882
25А,улица Энтузиастов,644088,55.0453347,73.2825946
18,улица 22 Апреля,644088,55.0429047,73.2818301
16,улица 22 Апреля,644088,55.0423825,73.2821737
15,улица Энтузиастов,644088,55.0466359,73.2886191
16,улица 22 Апреля,644088,55.0424103,73.2835947
6,улица 22 Апреля,644088,55.0429044,73.2909429
4Б,улица 22 Апреля,644088,55.0439420,73.2911165
8А,улица 22 Апреля,644088,55.0439074,73.2888099
68,улица Энергетиков,644088,55.0457770,73.2773872
17,улица Энтузиастов,644088,55.0466192,73.2878903
33А,улица Энтузиастов,644088,55.0457540,73.2793365
11,улица Энтузиастов,644088,55.0467786,73.2908011
35,улица Энтузиастов,644088,55.0463954,73.2786509
17А,улица Энтузиастов,644088,55.0464509,73.2862444
18Б,улица 22 Апреля,644088,55.0437220,73.2805561
31Б,улица Энтузиастов,644088,55.0453290,73.2808949
11В,улица Энтузиастов,644088,55.0462300,73.2901089
18/2,проспект Карла Маркса,644042,54.9672040,73.3834969
34,Полковая улица,644010,54.9712447,73.3847888
10,улица Гагарина,644024,54.9873370,73.3774777
140А,улица Куйбышева,644046,54.9687754,73.3981536
131А,улица Куйбышева,644046,54.9688139,73.4006677
150,улица Куйбышева,644046,54.9667003,73.3994736
2Б,Ипподромная улица,644046,54.9604431,73.4016450
1А,улица Панфилова,644046,54.9609950,73.4015641
30,улица Иртышская Набережная,644048,54.9544828,73.3802145
132,улица Лермонтова,644001,54.9822720,73.4032045
132,улица Лермонтова,644001,54.9827977,73.4031083
130,улица Лермонтова,644001,54.9827447,73.4021441
132/3,улица Куйбышева,644010,54.9764080,73.3970814
77 к1,улица Куйбышева,644001,54.9800487,73.4030877
130Б,улица Лермонтова,644001,54.9817733,73.4005319
134,улица Лермонтова,644001,54.9829107,73.4040200
138,улица Лермонтова,644001,54.9829943,73.4084823
83,улица Красных Зорь,644001,54.9798084,73.4084990
130,улица Лермонтова,644001,54.9822193,73.4022334
77 к3,улица Куйбышева,644001,54.9803546,73.4030018
136,улица Лермонтова,644001,54.9828531,73.4058603
134В,улица Лермонтова,644001,54.9823255,73.4041872
128,улица Лермонтова,644001,54.9826425,73.4005739
136А,улица Лермонтова,644001,54.9820639,73.4062883
128А,улица Лермонтова,644001,54.9820688,73.3995202
77,улица Куйбышева,644001,54.9784705,73.3994572
77,улица Куйбышева,644001,54.9788857,73.4003056
83В,улица Красных Зорь,644001,54.9810296,73.4086420
130А,улица Лермонтова,644001,54.9818119,73.4013241
83Б,улица Красных Зорь,644001,54.9802107,73.4084263
48,улица 10 лет Октября,644070,54.9841794,73.3927223
96,улица Декабристов,644024,54.9775631,73.3934876
20,улица Лермонтова,644024,54.9812712,73.3825789
7,проспект Карла Маркса,644024,54.9783811,73.3820487
3,проспект Карла Маркса,644024,54.9803019,73.3811441
20,улица Лермонтова,644024,54.9812836,73.3816485
15,улица 70 лет Октября,644074,54.9820535,73.3190406
198/47,улица 5-я Линия,644046,54.9615381,73.4039667
3,Думская улица,644024,54.9837633,73.3825754
14/1,улица Ленина,644099,54.9846257,73.3743832
14,улица Ленина,644099,54.9846905,73.3746982
8/2,улица Карла Либкнехта,644099,54.9859838,73.3752502
13А,улица Ленина,644043,54.9851867,73.3761681
3,улица Гагарина,644099,54.9861180,73.3766949
7,улица Ленина,644099,54.9857559,73.3749232
89,проспект Карла Маркса,644020,54.9421600,73.3846459
89А,проспект Карла Маркса,644020,54.9419895,73.3855667
87,проспект Карла Маркса,644020,54.9428662,73.3849780
38,улица Карбышева,644005,54.9396659,73.3924117
38А,улица Карбышева,644005,54.9401932,73.3925329
3,улица Лобкова,644020,54.9389431,73.3837231
22,улица Академика Павлова,644005,54.9410203,73.3893802
1,улица Труда,644121,54.9343799,73.3819239
2/1,улица Леконта,644020,54.9378974,73.3845185
1А,улица Калинина,644121,54.9327682,73.3820292
1Б,улица Труда,644121,54.9333861,73.3817853
1,улица Калинина,644121,54.9332951,73.3825785
3,улица Труда,644121,54.9341299,73.3812962
1А,улица Труда,644121,54.9338714,73.3821626
9/3,Зелёный бульвар,644119,54.9989295,73.2912698
9/1,Зелёный бульвар,644119,54.9985807,73.2908180
9/4,Зелёный бульвар,644119,54.9989510,73.2906842
10/1,улица Степанца,644119,54.9973930,73.2883176
11,Зелёный бульвар,644119,54.9985334,73.2901918
27В,улица Лукашевича,644119,55.0032728,73.2879468
9/2,Зелёный бульвар,644119,54.9987444,73.2913588
12/1,улица Степанца,644119,55.0002636,73.2842452
9/3,Зелёный бульвар,644119,54.9991350,73.2913317
2В,Заречный бульвар,644119,54.9984695,73.2885754
34,улица Красный Путь,644122,55.0014505,73.3537223
89,улица Красный Путь,644043,55.0012889,73.3509472
82А,улица Красный Путь,644033,55.0083142,73.3451221
4В,Комсомольский проспект,644901,55.1734983,73.2161042
4А,Комсомольский проспект,644901,55.1729039,73.2149546
6А,Комсомольский проспект,644901,55.1728231,73.2164972
4Б,Комсомольский проспект,644901,55.1733659,73.2151219
19,Космический проспект,644027,54.9715840,73.4456359
25,Космический проспект,644027,54.9719830,73.4463736
21,Космический проспект,644027,54.9703861,73.4465493
33,Космический проспект,644027,54.9711808,73.4480337
35,Космический проспект,644027,54.9715510,73.4484950
13,улица Пархоменко,644027,54.9737700,73.4466640
211,улица 10 лет Октября,644031,54.9937484,73.4756334
58,улица Орджоникидзе,644007,55.0008045,73.3661287
110,Октябрьская улица,644007,55.0000078,73.3722320
98,Октябрьская улица,644007,54.9999377,73.3675602
102,Октябрьская улица,744007,54.9999036,73.3709923
87,Октябрьская улица,644007,55.0006597,73.3695136
63,улица Герцена,644007,54.9994841,73.3727955
65,улица Герцена,644007,54.9998916,73.3728134
55,Тарская улица,644007,55.0009894,73.3673885
8А,5-я Северная улица,644122,55.0062510,73.3536220
39,1-я Северная улица,644007,55.0047493,73.3589884
102,улица Долгирева,644034,55.0190789,73.3561835
77А,17-я Северная улица,644069,55.0177614,73.3708061
157А,13-я Северная улица,644007,55.0145453,73.3777803
77,17-я Северная улица,644069,55.0184041,73.3699598
16,27-я Северная улица,644034,55.0258918,73.3608677
161Б,Осоавиахимовская улица,644069,55.0199988,73.3718957
59,3-я Молодёжная улица,644117,54.9518639,73.4617584
49,5-я Кордная улица,644018,54.9591097,73.4679710
37,бульвар Архитекторов,644123,54.9696059,73.2791544
35,бульвар Архитекторов,644074,54.9718351,73.2849538
14А,улица Романенко,644076,54.9818948,73.4765313
14А,улица 75-й Гвардейской Бригады,644076,54.9713193,73.4761695
4,Олимпийская улица,644076,54.9754183,73.4699648
3,Олимпийская улица,644076,54.9744281,73.4699811
14,улица 75-й Гвардейской Бригады,644076,54.9720508,73.4754205
8,улица 75-й Гвардейской Бригады,744076,54.9744514,73.4759141
6,улица 75-й Гвардейской Бригады,644076,54.9734360,73.4742736
7,улица 75-й Гвардейской Бригады,644076,54.9734416,73.4750259
28,Космический проспект,644076,54.9792904,73.4655270
52,Космический проспект,644076,54.9793309,73.4630018
3,улица Пономаренко,644076,54.9781603,73.4694625
3,улица Василия Товстухо,644076,54.9783032,73.4671180
2,улица Василия Товстухо,644076,54.9787624,73.4663966
1,улица Ермолаева,644076,54.9774629,73.4686064
4,улица Василия Товстухо,644076,54.9778540,73.4678646
2А,улица Василия Товстухо,644076,54.9791917,73.4679527
101/1,Космический проспект,644076,54.9832382,73.4709283
9,улица Романенко,644076,54.9824857,73.4721043
8,улица Романенко,644076,54.9821844,73.4713854
10,улица Романенко,644076,54.9828629,73.4728282
7А,улица Романенко,644076,54.9816272,73.4742542
10А,улица Романенко,644076,54.9830999,73.4740253
7,улица Романенко,644076,54.9816283,73.4726016
10,улица Романенко,644076,54.9822446,73.4729531
12,улица Романенко,644076,54.9816263,73.4756834
14В,улица 50-летия ВЛКСМ,644076,54.9759507,73.4809104
12,улица 50-летия ВЛКСМ,644076,54.9759484,73.4784684
22,улица 75-й Гвардейской Бригады,644076,54.9725644,73.4810574
18,улица 75-й Гвардейской Бригады,644076,54.9724011,73.4792926
20,улица 75-й Гвардейской Бригады,644076,54.9711176,73.4778332
15,улица 50-летия ВЛКСМ,644076,54.9744428,73.4767165
13,улица 50-летия ВЛКСМ,644076,54.9744434,73.4775506
16,улица 50-летия ВЛКСМ,644076,54.9734774,73.4784884
12,улица 75-й Гвардейской Бригады,644076,54.9730319,73.4796511
14,улица 50-летия ВЛКСМ,644076,54.9746643,73.4784787
12А,улица 75-й Гвардейской Бригады,644076,54.9734842,73.4809153
16А,улица 50-летия ВЛКСМ,644076,54.9739860,73.4796101
14Б,улица 50-летия ВЛКСМ,644076,54.9746586,73.4802553
14А,улица 50-летия ВЛКСМ,644076,54.9751323,73.4802515
2,улица 50-летия ВЛКСМ,644076,54.9806853,73.4784302
2Б,улица 50-летия ВЛКСМ,644076,54.9811588,73.4802119
6,улица 50-летия ВЛКСМ,644076,54.9783649,73.4808993
8,улица 50-летия ВЛКСМ,644076,54.9783491,73.4784490
5А,улица 50-летия ВЛКСМ,644076,54.9776182,73.4802175
7А,улица 50-летия ВЛКСМ,644076,54.9771514,73.4802212
10,улица 50-летия ВЛКСМ,644076,54.9771611,73.4784586
8А,улица 50-летия ВЛКСМ,644076,54.9766848,73.4802251
2В,улица 50-летия ВЛКСМ,644076,54.9806842,73.4802157
4Б,улица 50-летия ВЛКСМ,644076,54.9798816,73.4808918
4А,улица 50-летия ВЛКСМ,644076,54.9800077,73.4795522
4В,улица 50-летия ВЛКСМ,644076,54.9790835,73.4802287
4,улица 50-летия ВЛКСМ,644076,54.9795315,73.4784394
14,улица Романенко,644076,54.9818715,73.4771766
15,улица Романенко,644076,54.9818722,73.4778621
2А,улица 50-летия ВЛКСМ,644076,54.9816262,73.4792353
15А,улица Романенко,644076,54.9824359,73.4791211
3,Берёзовая улица,644111,55.0215960,73.3409408
3/1,Берёзовая улица,644111,55.0224998,73.3392817
3А,Олимпийская улица,644076,54.9755299,73.4727923
5,Олимпийская улица,644076,54.9750794,73.4719219
6,Олимпийская улица,644076,54.9755094,73.4717097
26А,Космический проспект,644076,54.9782642,73.4638465
11,улица Ермолаева,644076,54.9771307,73.4714881
2,Юбилейная улица,644076,54.9762764,73.4745426
3,Юбилейная улица,644076,54.9762982,73.4718197
6А,Олимпийская улица,644076,54.9759076,73.4717035
97Б,улица 22-го Партсъезда,644105,55.0146802,73.4465917
57,улица 22-го Партсъезда,644105,55.0197544,73.4446159
103А к3,улица 22-го Партсъезда,644105,55.0176524,73.4535142
105,улица 22-го Партсъезда,644105,55.0206805,73.4591818
103А,улица 22-го Партсъезда,644105,55.0183023,73.4553104
103Б,улица 22-го Партсъезда,644105,55.0179306,73.4538465
97АА1,улица 22-го Партсъезда,644105,55.0191892,73.4447891
135,улица 5-й Армии,644047,55.0020788,73.3833102
105,улица 10 лет Октября,644070,54.9855433,73.3985907
113,улица 10 лет Октября,644070,54.9857958,73.4053280
109,улица 10 лет Октября,644070,54.9856126,73.4026270
111,улица 10 лет Октября,644070,54.9859401,73.4040058
115,улица 10 лет Октября,644070,54.9861282,73.4073869
117,улица 10 лет Октября,644070,54.9859607,73.4086713
145,улица 10 лет Октября,644031,54.9864418,73.4190767
64,улица Арнольда Нейбута,644031,54.9921823,73.4133635
66,улица Арнольда Нейбута,644031,54.9923452,73.4143956
128,улица Звездова,644031,54.9875138,73.4162109
130,улица Звездова,644031,54.9874227,73.4175829
132,улица Звездова,644031,54.9877512,73.4188956
61,улица 20-я Линия,644031,54.9875347,73.4250675
152,Омская улица,644031,54.9913478,73.4254110
154,Омская улица,644031,54.9909137,73.4263672
158,Омская улица,644031,54.9916206,73.4293712
162,Омская улица,644031,54.9915660,73.4307256
156,Омская улица,644031,54.9909644,73.4273642
298/1,улица 20 лет РККА,644027,54.9766633,73.4407921
185,улица Масленникова,644009,54.9761020,73.4248970
206А,улица 20 лет РККА,644009,54.9767796,73.4218230
179,улица Масленникова,644009,54.9757626,73.4210779
191,улица Масленникова,644009,54.9759453,73.4231699
202А,улица 20 лет РККА,644009,54.9764485,73.4212553
181,улица Масленникова,644009,54.9758595,73.4223032
173,улица 20-я Линия,644009,54.9761554,73.4264101
167,улица 20-я Линия,644009,54.9771190,73.4262510
222,улица 20 лет РККА,644009,54.9769639,73.4233398
181,улица Масленникова,644009,54.9758616,73.4225893
169,улица 20-я Линия,644009,54.9768616,73.4262935
179,улица Масленникова,644009,54.9757553,73.4213619
218,улица 20 лет РККА,644009,54.9769338,73.4226868
171,улица 20-я Линия,644009,54.9764877,73.4262432
210,улица 20 лет РККА,644009,54.9766908,73.4246874
201,улица Масленникова,644009,54.9758798,73.4264556
6,улица Рождественского,644020,54.9408078,73.3779851
6,улица Марченко,644020,54.9408752,73.3765591
6,улица Рождественского,644020,54.9410587,73.3774283
4,улица Лобкова,644020,54.9390198,73.3821834
7,улица Котельникова,644020,54.9380051,73.3799647
6 к2,улица Рождественского,644020,54.9410108,73.3804226
28,улица Серова,644020,54.9407075,73.3816053
32,улица Серова,644020,54.9400763,73.3812466
2,улица Рождественского,644020,54.9414149,73.3748976
21,улица Серова,644020,54.9392408,73.3815800
4/1,улица Лобкова,644020,54.9385538,73.3814794
6 к7,улица Рождественского,644020,54.9403523,73.3810600
6Б,улица Рождественского,644020,54.9411514,73.3766956
4,улица Рождественского,644020,54.9412228,73.3760106
6 к9,улица Рождественского,644020,54.9408692,73.3794208
14,улица Котельникова,644121,54.9344903,73.3769336
98,улица 10 лет Октября,644001,54.9850789,73.4046584
5,улица Профинтерна,644082,54.9349775,73.3331676
4/1,улица Профинтерна,644082,54.9355690,73.3319301
4,улица Профинтерна,644082,54.9354507,73.3325944
3/1,улица Профинтерна,644082,54.9354594,73.3335717
3,улица Профинтерна,644082,54.9356534,73.3337940
46,Керченская улица,644082,54.9362098,73.3341398
7,улица Профинтерна,644082,54.9346055,73.3327259
30,улица Бетховена,644082,54.9331663,73.3259692
26,улица Бетховена,644082,54.9326880,73.3272902
25А,улица Бетховена,644082,54.9318416,73.3258716
19,улица Бетховена,644082,54.9314507,73.3278562
25,улица Бетховена,644082,54.9324373,73.3256875
58Б,Мельничная улица,644036,54.9243194,73.3187009
58А,Мельничная улица,644036,54.9256068,73.3195262
58В,Мельничная улица,644036,54.9250737,73.3182326
21,улица Профинтерна,644082,54.9303089,73.3291274
18А,улица Романенко,644076,54.9703821,73.4959511
42,4-я Кордная улица,644018,54.9621137,73.4417966
46,1-я Шинная улица,644018,54.9618486,73.4449276
4,улица Нефтебаза,644036,54.9187061,73.3216590
100,Семиреченская улица,644016,54.9325952,73.2991301
102,Семиреченская улица,644016,54.9322183,73.2970247
48,33-я Северная улица,644119,55.0299662,73.3860634
11 к1,Индустриальная улица,644027,54.9652861,73.4458317
25А,3-я Кордная улица,644018,54.9615424,73.4517216
205,5-я Северная улица,644047,55.0072927,73.3961474
370,17-й Военный городок,644007,55.0081656,73.3846368
83,улица Челюскинцев,644047,55.0077124,73.3987719
207,5-я Северная улица,644047,55.0073927,73.3967502
26/2,улица Конева,644074,54.9783885,73.3127747
26/3,улица Конева,644074,54.9788160,73.3121637
"182, лит. Д",улица 10 лет Октября,644031,54.9860281,73.4575808
182/4,улица 10 лет Октября,644031,54.9888474,73.4563772
29,проспект Комарова,644074,54.9806294,73.3164922
26/1,улица Конева,644074,54.9782225,73.3119865
174Б,улица 10 лет Октября,644031,54.9866138,73.4341070
8,проспект Комарова,644019,54.9960647,73.2861937
10,проспект Комарова,644119,54.9965330,73.2866648
10,проспект Комарова,644019,54.9962927,73.2872195
10,проспект Комарова,644119,54.9967249,73.2863032
174 к2,улица 10 лет Октября,644031,54.9859418,73.4360795
6,проспект Комарова,644019,54.9972286,73.2846195
195Б,улица 10 лет Октября,644031,54.9901243,73.4474102
15/4,проспект Комарова,644074,54.9849844,73.3028863
2/2,проспект Комарова,644119,54.9976274,73.2828471
6/1,проспект Комарова,644019,54.9968428,73.2854819
19 к1,улица Малиновского,644090,55.0393993,73.3235778
14,Крутогорская улица,644902,55.3666200,73.2216703
143 к3,улица Красный Путь,644033,55.0100786,73.3345414
143 к3,улица Красный Путь,644033,55.0096313,73.3354070
8,улица Ярослава Гашека,644109,54.9090091,73.4515047
5,Моторная улица,644109,54.9111396,73.4518494
1/1,Моторная улица,644109,54.9106145,73.4540785
6/1,Моторная улица,644109,54.9127579,73.4529148
203Б,улица 10 лет Октября,644031,54.9910448,73.4583471
32,улица Жуковского,644060,54.9234607,73.4084387
31,Крыловская улица,644060,54.9224361,73.4060430
13,6-я Ремесленная улица,644047,55.0052917,73.3877074
81А,улица Челюскинцев,644047,55.0067668,73.3976626
25,улица Гуртьева,644060,54.9200802,73.4075607
17 кА,8-я Ремесленная улица,644047,55.0065932,73.3894607
1,1-я Заводская улица,644065,55.0523759,73.2680327
25/1,1-я Заводская улица,644065,55.0582017,73.2642617
19/2,1-я Заводская улица,644065,55.0545523,73.2670521
17,1-я Заводская улица,644065,55.0543541,73.2679472
19,1-я Заводская улица,644065,55.0546023,73.2662253
26,10-я Чередовая улица,644030,54.9216711,73.4182301
73,улица Демьяна Бедного,644030,54.9238354,73.4173098
31/2,улица Жуковского,644060,54.9249782,73.4103210
67,улица Демьяна Бедного,644030,54.9264161,73.4182901
26/1,10-я Чередовая улица,644030,54.9213056,73.4182206
67/1,улица Демьяна Бедного,644030,54.9268791,73.4188935
31,улица Жуковского,644060,54.9244714,73.4098288
27,10-я Чередовая улица,644030,54.9228510,73.4227096
31/3,улица Жуковского,644060,54.9239663,73.4108593
15,10-я Чередовая улица,644060,54.9230168,73.4181145
15/1,10-я Чередовая улица,644060,54.9234517,73.4187491
17/1,10-я Чередовая улица,644030,54.9227377,73.4191632
25,10-я Чередовая улица,644030,54.9222708,73.4219035
26А,10-я Чередовая улица,644030,54.9213416,73.4172420
69,улица Демьяна Бедного,644030,54.9257283,73.4173581
80,улица Фрунзе,644007,54.9940438,73.3738220
3 к2,Берёзовая улица,644111,55.0199419,73.3414868
1 к3,Раздольная улица,644105,55.0102537,73.4458254
33,Молодогвардейская улица,644058,54.9254819,73.4619083
4 к1,бульвар Архитекторов,644112,54.9941135,73.3096288
200/36,5-я Северная улица,644047,55.0064791,73.4040026
200/35,5-я Северная улица,644047,55.0066989,73.4039911
77,7-я Ремесленная улица,644047,55.0019838,73.3993297
1/1,улица Фрунзе,644043,54.9942256,73.3555309
6/1,Зелёный бульвар,644119,55.0012252,73.2916237
37,улица Лукашевича,644119,55.0073217,73.3008385
8,улица Крупской,644119,55.0050252,73.2947630
8/1,улица Крупской,644119,55.0052075,73.2958448
6/1,улица Крупской,644119,55.0063918,73.2933038
10,улица Крупской,644119,55.0042664,73.2959574
12/1,улица Крупской,644119,55.0044188,73.2976910
12,улица Крупской,644119,55.0037385,73.2974105
72,улица 10 лет Октября,644070,54.9842643,73.3979237
174 к1,улица 10 лет Октября,644031,54.9869742,73.4332845
182,улица 10 лет Октября,644031,54.9891557,73.4606727
174,улица 10 лет Октября,644031,54.9872097,73.4344568
107,улица 10 лет Октября,644070,54.9860935,73.4004637
205,улица 10 лет Октября,644031,54.9905503,73.4632468
182 к3,улица 10 лет Октября,644031,54.9890987,73.4583369
19,улица Березовского,644024,54.9887211,73.3831276
20Б/2,21-я Амурская улица,644086,55.0288252,73.4193774
3/1,улица Дианова,644106,54.9930704,73.2648626
1Б,улица Дианова,644106,54.9922550,73.2668564
197А,Учебная улица,644046,54.9606448,73.3967929
7 к5,улица Завертяева,644013,55.0344507,73.4447184
7 к2,улица Завертяева,644013,55.0356673,73.4450831
13,улица Завертяева,644013,55.0344095,73.4471255
23 к3,улица Завертяева,644013,55.0343607,73.4565577
26 к5,Краснознамённая улица,644013,55.0346165,73.4555760
26 к3,Краснознамённая улица,644013,55.0352972,73.4553844
8,улица Орловского,644020,54.9514960,73.3926381
6,улица Орловского,644020,54.9518821,73.3930447
26В,10-я Чередовая улица,644030,54.9217841,73.4169572
1А,улица Победы,644043,54.9840049,73.3686128
1Б,улица Победы,644043,54.9839873,73.3680390
174А,улица 10 лет Октября,644031,54.9861356,73.4335852
166,улица 10 лет Октября,644009,54.9861562,73.4252543
152 к1,Омская улица,644031,54.9914597,73.4267439
166/4,улица 10 лет Октября,644009,54.9856372,73.4261062
166,улица 10 лет Октября,644009,54.9856640,73.4250602
132/1,улица Звездова,644031,54.9874377,73.4210355
28,улица Завертяева,644013,55.0323208,73.4629630
135 к1,улица Красный Путь,644033,55.0088861,73.3369081
11В,2-я Барнаульская улица,644105,55.0147053,73.4247130
11Б,2-я Барнаульская улица,644105,55.0149089,73.4257722
203/1,улица Масленникова,644009,54.9765110,73.4268040
57,улица Нахимова,644105,55.0130927,73.4242666
61,улица Нахимова,644105,55.0131401,73.4261962
57А,улица Нахимова,644105,55.0133026,73.4255099
11Г,2-я Барнаульская улица,644105,55.0138440,73.4245235
11,2-я Барнаульская улица,644105,55.0138908,73.4267210
13,2-я Барнаульская улица,644105,55.0143398,73.4272811
149,Омская улица,644031,54.9916288,73.4139646
7/1,улица Крупской,644119,55.0025904,73.2967239
10/3,улица Степанца,644119,54.9979537,73.2897804
133,улица 5-й Армии,644047,55.0017347,73.3827767
10/1,улица Степанца,644119,54.9973260,73.2885461
135/1,улица 5-й Армии,644047,55.0015306,73.3836225
51,Успешная улица,644105,55.0127529,73.4455508
51 к1,Успешная улица,644105,55.0126420,73.4441794
10,Зелёная улица,644105,55.0123773,73.4374056
24Б,Космический проспект,644027,54.9754513,73.4591433
79/1,3-я Молодёжная улица,644117,54.9584983,73.4910798
69,3-я Станционная улица,644120,54.9287396,73.4909127
30,улица Куйбышева,644070,54.9877477,73.3959167
77,улица Лермонтова,644070,54.9832856,73.3982207
2,Иртышская улица,644901,55.1769813,73.2135126
4Б,Комсомольский проспект,644901,55.1736327,73.2151476
21 к1,улица Багратиона,644086,55.0267275,73.4214560
27,Вокзальная улица,644005,54.9407236,73.3965582
127,улица Звездова,644031,54.9880313,73.4143255
19/1,1-я Заводская улица,644065,55.0540377,73.2673189
21А,улица Дергачёва,644106,54.9916806,73.2487562
36В,улица Дергачёва,644106,54.9920384,73.2488064
67,30-я Северная улица,644116,55.0288317,73.3826221
239/2,улица Василия Маргелова,644025,54.8861731,73.4854371
65Б,30-я Северная улица,644116,55.0287797,73.3813050
47,улица Энтузиастов,644065,55.0445665,73.2720321
137,улица 5-й Армии,644047,55.0013904,73.3843739
4,1-я Ремесленная улица,644047,55.0011691,73.3848845
34,4-я Транспортная улица,644041,54.9515823,73.4191944
2 к1,Заречный бульвар,644119,54.9989687,73.2860867
201А,5-я Северная улица,644047,55.0079947,73.3932730
9б/1,Авиагородок,644103,54.9575446,73.3300426
148,улица Красных Зорь,644009,54.9804714,73.4342103
25А,улица 3-й Разъезд,644009,54.9816846,73.4389226
108Б,улица Красных Зорь,644009,54.9804494,73.4274286
10/3,улица 70 лет Октября,644123,54.9872571,73.3102888
174,улица 10 лет Октября,644031,54.9871663,73.4356168
14,бульвар Архитекторов,644112,54.9909603,73.3059766
49В,2-я Солнечная улица,644073,55.0066796,73.1885272
40,улица Труда,644121,54.9327847,73.3697124
38,улица Труда,644121,54.9329164,73.3703216
42/1,улица Труда,644121,54.9333278,73.3712694
46,улица Труда,644121,54.9325801,73.3685732
42,улица Труда,644121,54.9336886,73.3670077
6/2,улица Калинина,644121,54.9310375,73.3785575
6/1,улица Калинина,644121,54.9308884,73.3782342
55,проспект Мира,644077,55.0282008,73.2618431
5,Пригородная улица,644077,55.0233367,73.2679682
5/1,Пригородная улица,644077,55.0234996,73.2672508
55/1,улица Энтузиастов,644065,55.0430420,73.2638893
49,улица Энтузиастов,644065,55.0439789,73.2696481
30,улица Дианова,644073,54.9962426,73.2303867
28,улица Дианова,644073,54.9968146,73.2308736
2,улица Успенского,644064,54.9802231,73.3905365
4,улица Успенского,644064,54.9802404,73.3908452
20,улица Лобкова,644020,54.9368173,73.3807706
13,улица Дианова,644073,54.9932558,73.2552328
104Б,улица 12 Декабря,644103,54.9511515,73.3291108
104А,улица 12 Декабря,644103,54.9510135,73.3293901
42 к1,проспект Мира,644050,55.0285546,73.2881483
15,улица Яковлева,644007,54.9993604,73.3702082
10 к1,улица Ленина,644099,54.9872517,73.3725998
28,33-я Северная улица,644116,55.0300938,73.3779761
70,улица 10 лет Октября,644070,54.9841857,73.3957251
43/1,улица 10 лет Октября,644024,54.9853427,73.3954864
3/3,3-я Автомобильная улица,644046,54.9387071,73.2853565
5,улица Ярослава Гашека,644109,54.9080726,73.4478115
9,улица Я.М.Сметнева,644521,54.8871219,73.3086522
166Е,улица 10 лет Октября,644009,54.9861961,73.4259207
10В,улица Лукашевича,644106,54.9954719,73.2725042
19,3-я Заводская улица,644065,55.0515621,73.2727820
183,улица Масленникова,644009,54.9759860,73.4241219
17/1,проспект Комарова,744074,54.9837203,73.3024523
17/2,проспект Комарова,644074,54.9837864,73.3036805
14,улица Ватутина,644074,54.9791308,73.2960575
19,бульвар Архитекторов,644074,54.9808786,73.2965449
16,улица Ватутина,644074,54.9793651,73.2971183
18,улица Ватутина,644074,54.9798745,73.2979390
85,улица Конева,644074,54.9720657,73.3036338
4,улица Крупской,644119,55.0062237,73.2916487
1,улица Орловского,644020,54.9519011,73.3934319
124А,улица Звездова,644031,54.9875271,73.4150805
100,улица 10 лет Октября,644001,54.9848704,73.4057384
47,улица Белинского,644121,54.9366175,73.3720200
49,улица Белинского,644121,54.9363672,73.3718989
24/2,улица Дианова,644073,54.9960012,73.2350558
80,улица Масленникова,644001,54.9737715,73.4095688
88,улица Декабристов,644024,54.9781534,73.3933455
90,улица Декабристов,644024,54.9779581,73.3933392
12 к1,улица Перелёта,644019,54.9967467,73.2901222
12 к1,улица 70 лет Октября,644011,54.9851466,73.3146037
6,улица Карбышева,644005,54.9457483,73.3928672
6 к3,улица Рождественского,644020,54.9413110,73.3787117
11,улица Ф.И.Тютчева,644033,55.0189759,73.3485851
17,2-я Кольцевая улица,644033,55.0151934,73.3410118
1 к2,Берёзовая улица,644012,55.0149859,73.3369744
6,улица Ф.И.Тютчева,644033,55.0175663,73.3475877
9,улица В.М.Шукшина,644033,55.0171504,73.3483150
2,улица В.М.Шукшина,644033,55.0151545,73.3464585
135 к2,улица Красный Путь,644033,55.0083137,73.3363709
50,улица 10 лет Октября,644070,54.9841595,73.3937717
1В,Енисейская улица,644011,54.9728181,73.3463213
5,Российская улица,644902,55.3676128,73.2204261
6,улица Полтавцева,644902,55.3636892,73.2207889
7,Российская улица,644902,55.3681963,73.2205956
4,улица Полтавцева,644902,55.3639246,73.2200307
5,улица Туполева,644112,54.9949936,73.3060708
6/3,улица 70 лет Октября,644123,54.9883058,73.3087963
6,Училищная улица,644046,54.9693021,73.3887008
79,3-я Молодёжная улица,644117,54.9587942,73.4905130
126А,Мельничная улица,644036,54.9086749,73.3109247
18/2,улица Малиновского,644012,55.0363495,73.3277633
105В,улица Красный Путь,644033,55.0044786,73.3467620
77А/1,17-я Северная улица,644069,55.0188311,73.3691022
47,улица Кирова,644041,54.9465129,73.4208056
9,улица Силина,644902,55.3679207,73.2263448
15,Крутогорская улица,644902,55.3672983,73.2215779
1,улица Силина,644902,55.3689629,73.2221797
1А,улица Силина,644902,55.3688907,73.2225074
7,улица Силина,644902,55.3683819,73.2255630
4,Российская улица,644902,55.3686232,73.2214411
5,улица Силина,644902,55.3684352,73.2248885
9А,улица Силина,644902,55.3671280,73.2261450
11,улица 40 лет Ракетных Войск,644061,55.0315390,73.5004589
201Б,5-я Северная улица,644047,55.0074931,73.3940480
43,улица 10 лет Октября,644024,54.9853818,73.3934109
44,улица 10 лет Октября,644070,54.9841754,73.3912963
4/1,улица Ярослава Гашека,644109,54.9099421,73.4542366
46,проспект Мира,644050,55.0293775,73.2860652
6/1,Молодогвардейская улица,644058,54.9246166,73.4582165
13,улица Ленина,644099,54.9848973,73.3754700
9,улица Ленина,644099,54.9852671,73.3752205
11,улица Ленина,644099,54.9850861,73.3755352
9Б к7,Заозёрная улица,644090,55.0475812,73.3159390
2/2,улица Бархатовой,644110,55.0491801,73.3261013
16А к1,Космический проспект,644076,54.9690307,73.4505582
3,Зелёный переулок,644010,54.9775183,73.3923233
43А,проспект Карла Маркса,644042,54.9550589,73.3887961
19/2,Братская улица,644046,54.9509030,73.3969407
10,улица Цукановой,644013,55.0422009,73.4307412
6,посёлок Биофабрика,644031,54.9920165,73.4499787
92,улица 10 лет Октября,644070,54.9844775,73.4017942
2,бульвар Архитекторов,644112,54.9945509,73.3111783
2,бульвар Архитекторов,644112,54.9946341,73.3109245
12,2-я Судоремонтная улица,644012,55.0251181,73.3397269
98,Семиреченская улица,644016,54.9323075,73.3003828
4,улица Андрианова,644029,55.0268754,73.2808038
171,7-я Северная улица,644033,55.0091622,73.3736156
19/1,улица Березовского,644024,54.9885260,73.3847597
2/2,улица Багратиона,644052,55.0206677,73.4098641
2 к1,1-я Поселковая улица,644050,55.0300158,73.3018923
5/1,улица Туполева,644112,54.9945735,73.3054141
4,улица Ярослава Гашека,644109,54.9088951,73.4527554
27 к1,Нефтезаводская улица,644053,55.0383040,73.2634465
23,Молодогвардейская улица,644058,54.9257137,73.4596966
65В,улица Энтузиастов,644053,55.0407464,73.2560473
37/1,улица Энтузиастов,644088,55.0463204,73.2774925
18 к1,улица Завертяева,644013,55.0328314,73.4439316
104,улица Красных Зорь,644009,54.9803610,73.4248707
11,улица Мамина-Сибиряка,644089,55.0351814,73.2575432
1,улица Долгирева,644034,55.0186513,73.3565886
8,19-я Северная улица,644034,55.0191834,73.3569129
6,19-я Северная улица,644034,55.0191593,73.3567725
200/9,5-я Северная улица,644047,55.0064438,73.4028807
44,улица Конева,644074,54.9738204,73.3009424
44,улица Конева,644074,54.9740745,73.3016719
4,19-я Северная улица,644034,55.0191168,73.3564359
43А,Черноморская улица,644031,54.9967085,73.4318772
26 к5,улица Конева,644074,54.9789222,73.3126266
23,Пригородная улица,644077,55.0245969,73.2580736
23 к1,Пригородная улица,644077,55.0245903,73.2565617
183 к1,Осоавиахимовская улица,644034,55.0254698,73.3721838
30,улица Химиков,644100,55.0430837,73.2957766
48,Ялтинская улица,644082,54.9308516,73.3355322
16Б,1-я Береговая улица,644007,54.9951993,73.3845541
10/1,бульвар Архитекторов,644112,54.9924106,73.3058930
35/1,улица 20-го Партсъезда,644029,55.0331719,73.2745051
100,улица 2-я Линия,644046,54.9694940,73.4007257
65,улица Потанина,644046,54.9692990,73.4007864
15 к1,проспект Комарова,644074,54.9858046,73.3022942
15/2,проспект Комарова,644074,54.9858389,73.3031374
87,улица Лермонтова,644001,54.9832260,73.4030825
27,Пригородная улица,644077,55.0237846,73.2549105
23 к2,Пригородная улица,644077,55.0235805,73.2582435
23 к3,Пригородная улица,644077,55.0235652,73.2563764
50,Ялтинская улица,644082,54.9307356,73.3354563
52,Ялтинская улица,644082,54.9305595,73.3354015
73,Ялтинская улица,644082,54.9262339,73.3326403
11,Горская улица,644082,54.9275139,73.3349789
11А/16А,Горская улица,644082,54.9274584,73.3349324
56,проспект Карла Маркса,644048,54.9480814,73.3858680
71,Ялтинская улица,644082,54.9270331,73.3331808
70,4-я улица Челюскинцев,644086,55.0271118,73.4147293
9Б,Зелёный бульвар,644119,54.9999220,73.2898062
135,Кемеровская улица,644047,54.9993338,73.3843938
3,улица Марата,644047,54.9994686,73.3845127
68/1,4-я улица Челюскинцев,644086,55.0262017,73.4149156
1/1,Берёзовая улица,644012,55.0145014,73.3353534
37/2,улица Энтузиастов,644088,55.0460232,73.2778636
7А,проспект Мира,644080,55.0239290,73.2976637
20,улица Белозёрова,644083,55.0496741,73.3074065
4Г,улица 50-летия ВЛКСМ,644076,54.9784437,73.4799680
9,улица Ватутина,644022,54.9870657,73.2774249
99 к1,9-я Северная улица,644033,55.0112525,73.3677718
181 к1,Осоавиахимовская улица,644034,55.0246092,73.3721104
131,улица Лермонтова,644018,54.9842864,73.4153802
1,улица Шота Руставели,644060,54.9259948,73.4074792
16,набережная Тухачевского,644043,54.9903221,73.3567403
16,проспект Мира,644080,55.0242552,73.2995328
12,проспект Мира,644080,55.0238314,73.3006594
10,проспект Мира,644080,55.0241046,73.3016453
26/3,4-я Поселковая улица,644080,55.0256134,73.2998144
108,улица Красных Зорь,644009,54.9804336,73.4262237
17,улица Маяковского,644010,54.9710578,73.3855976
99,улица 6-я Линия,644001,54.9729930,73.4063222
10 к1,улица Конева,644011,54.9840669,73.3298411
10,улица Конева,644011,54.9835284,73.3303895
40,улица Конева,644074,54.9740877,73.3026463
134,улица Красных Зорь,644009,54.9807794,73.4325835
140,улица Красных Зорь,644009,54.9807806,73.4334188
136А,улица Красных Зорь,644009,54.9805127,73.4330461
32,3-я Енисейская улица,644011,54.9875136,73.3380404
43А,5-я Кордная улица,644018,54.9598232,73.4646567
11,3-й Приветливый переулок,644022,54.9688433,73.2626711
12,4-й Приветливый переулок,644022,54.9685589,73.2631204
51/1,Успешная улица,644105,55.0126031,73.4462691
33,улица Перелёта,644112,55.0019892,73.3054872
170,улица 4-я Линия,644046,54.9698995,73.4033424
41/3,21-я Амурская улица,644013,55.0441003,73.4223048
35,21-я Амурская улица,644013,55.0425506,73.4268752
37,21-я Амурская улица,644013,55.0434911,73.4264529
44Б,4-я Поселковая улица,644050,55.0299202,73.2914724
29,28-я Рабочая улица,644079,54.9332061,73.4366555
88,улица 50 лет Профсоюзов,644065,55.0396018,73.2778466
6/1,улица Лобкова,644020,54.9378431,73.3810718
8 к2,бульвар Архитекторов,644112,54.9932149,73.3067276
1 к1,улица 12 Декабря,644015,54.9390659,73.3499140
126,улица Демьяна Бедного,644030,54.9228755,73.4158861
118,улица Демьяна Бедного,644030,54.9235336,73.4159535
114,улица Демьяна Бедного,644030,54.9239701,73.4160314
120,улица Демьяна Бедного,644030,54.9232214,73.4160227
114А,улица Демьяна Бедного,644030,54.9239742,73.4157722
122,улица Демьяна Бедного,644030,54.9231199,73.4160264
128,улица Демьяна Бедного,644030,54.9225388,73.4159537
116,улица Демьяна Бедного,644030,54.9237111,73.4160032
11,10-я Чередовая улица,644030,54.9222101,73.4159551
19,проспект Мира,644029,55.0284506,73.2845538
60,улица 10 лет Октября,644001,54.9846792,73.3960354
62,улица 10 лет Октября,644001,54.9846979,73.3963415
35/1,21-я Амурская улица,644013,55.0429012,73.4260933
18/3,улица Малиновского,644012,55.0366714,73.3268167
18,улица Ярослава Гашека,644109,54.9089142,73.4455024
12/2,улица Ярослава Гашека,644109,54.9088107,73.4484243
25 к1,Пригородная улица,644077,55.0255645,73.2578171
25 к2,Пригородная улица,644077,55.0257926,73.2567916
14,улица Суворова,644015,54.9407668,73.3404309
6,Малый Цеховой переулок,644113,54.9196379,73.4492520
21,Совхозная улица,644007,55.0065101,73.3774600
25 к4,21-я Амурская улица,644013,55.0431059,73.4232303
25 к3,21-я Амурская улица,644013,55.0430472,73.4222891
21,бульвар Архитекторов,644074,54.9804668,73.2961127
23,бульвар Архитекторов,644074,54.9805101,73.2948134
34Б,Волгоградская улица,644106,54.9919114,73.2508739
17,21-я Амурская улица,644086,55.0305847,73.4151763
18/5,улица Завертяева,644013,55.0324747,73.4419755
16,улица Завертяева,644013,55.0332939,73.4422188
10/1,бульвар Архитекторов,644112,54.9919224,73.3050653
51,4-я улица Челюскинцев,644052,55.0157940,73.4194850
49,4-я улица Челюскинцев,644052,55.0155544,73.4194491
95,Полевая улица,644032,55.0548586,73.1763837
60,Полевая улица,644032,55.0511448,73.1821837
58,Полевая улица,644032,55.0509458,73.1825384
95А,Полевая улица,644032,55.0558439,73.1751112
146,Загородная улица,644032,55.0551184,73.1736758
32,Загородная улица,644032,55.0479381,73.1804251
18/3,улица Завертяева,644013,55.0334673,73.4459874
143 к5,улица Красный Путь,644033,55.0091792,73.3348735
103,улица Красный Путь,644033,55.0030742,73.3473259
105,улица Красный Путь,644033,55.0036843,73.3465940
105 к3,улица Красный Путь,644033,55.0029846,73.3425454
105 к1,улица Красный Путь,644033,55.0040943,73.3453119
101 к2,улица Красный Путь,644033,55.0017484,73.3461648
105 к2,улица Красный Путь,644033,55.0035333,73.3438661
1,улица Архиепископа Сильвестра,644109,54.9089132,73.4597519
2,улица Игоря Мишина,644109,54.9110382,73.4592641
3,улица Архиепископа Сильвестра,644109,54.9091175,73.4605923
7,улица Архиепископа Сильвестра,644109,54.9091121,73.4642694
3/1А,улица Дианова,644106,54.9928684,73.2655443
107,Октябрьская улица,644007,54.9998808,73.3696562
25,бульвар Архитекторов,644074,54.9800715,73.2945026
11/3,проспект Комарова,644112,54.9886273,73.2924404
67 к2,улица Пушкина,644050,54.9747752,73.3873779
2,улица Путилова,644092,54.9919381,73.2769324
45/1,проспект Карла Маркса,644048,54.9528295,73.3894691
16,Партизанская улица,644019,54.9852511,73.3670644
108А,улица 2-я Линия,644046,54.9681308,73.4009512
110,улица 2-я Линия,644046,54.9679530,73.4009488
104,улица 2-я Линия,644046,54.9684046,73.4009260
22Б,4-я Солнечная улица,644073,54.9930046,73.2199724
112,улица 10 лет Октября,644001,54.9852733,73.4078727
45,Барнаульская улица,644047,55.0094905,73.4131215
23Б,улица Дианова,644106,54.9917680,73.2485468
181,улица 15-я Линия,644009,54.9774305,73.4188938
147/4,6-я Станционная улица,644120,54.9264651,73.4956060
147/3,6-я Станционная улица,644120,54.9264556,73.4952274
13,Ишимская улица,644058,54.9255035,73.4708001
7А,Олимпийская улица,644076,54.9755429,73.4750456
20,проспект Королёва,644090,55.0352509,73.3127860
17/1,Космический проспект,644027,54.9700753,73.4461630
109,4-я Станционная улица,644120,54.9276798,73.4945180
31,3-я улица Челюскинцев,644105,55.0128069,73.4148062
27,бульвар Кузьмина,644112,54.9963174,73.3093971
13/4,улица Крупской,644112,54.9970079,73.3098134
24Б,4-я Солнечная улица,644073,54.9928928,73.2204526
143 к6,улица Красный Путь,644033,55.0096844,73.3337305
36,28-я Рабочая улица,644079,54.9328493,73.4372006
128,2-я улица Челюскинцев,644052,55.0190214,73.4122492
122,2-я улица Челюскинцев,644052,55.0185044,73.4121922
12,улица 22-го Партсъезда,644052,55.0193801,73.4123658
11,Авангардная улица,644052,55.0181111,73.4121030
130,2-я улица Челюскинцев,644052,55.0191380,73.4122727
124,2-я улица Челюскинцев,644052,55.0186881,73.4122291
120,2-я улица Челюскинцев,644052,55.0183517,73.4121747
126,2-я улица Челюскинцев,644052,55.0188538,73.4122431
25,Ипподромная улица,644046,54.9640537,73.4070688
215,улица 5-я Линия,644046,54.9642760,73.4061894
28,Бульварная улица,644046,54.9650237,73.4066027
158А,улица 6-я Линия,644046,54.9645332,73.4070061
30,Бульварная улица,644046,54.9650660,73.4068454
154,улица 6-я Линия,644046,54.9647503,73.4069856
209,улица 5-я Линия,644046,54.9647642,73.4061066
21,Ипподромная улица,644046,54.9639981,73.4065826
19,Ипподромная улица,644046,54.9639431,73.4062467
26,Бульварная улица,644046,54.9649867,73.4062628
217,улица 5-я Линия,644046,54.9641271,73.4062088
152,улица 6-я Линия,644046,54.9649826,73.4069571
158,улица 6-я Линия,644046,54.9644206,73.4069655
156,улица 6-я Линия,644046,54.9646443,73.4070191
211,улица 5-я Линия,644046,54.9645793,73.4061843
23,Ипподромная улица,644046,54.9640189,73.4068318
213,улица 5-я Линия,644046,54.9644196,73.4061863
21А,Космический проспект,644027,54.9702123,73.4462358
71,1-я улица Красной Звезды,644014,54.9190596,73.3508415
79,1-я улица Красной Звезды,644014,54.9179886,73.3504469
81,1-я улица Красной Звезды,644014,54.9179230,73.3514444
94,улица Декабристов,644024,54.9777854,73.3934458
92,улица Декабристов,644024,54.9778353,73.3934103
105Б,улица Красный Путь,644033,55.0048105,73.3459687
29 к1,Пригородная улица,644077,55.0261734,73.2553942
29 к2,Пригородная улица,644077,55.0257312,73.2551615
19,улица 22-го Партсъезда,644052,55.0199066,73.4194083
37 к2,улица 20-го Партсъезда,644029,55.0328681,73.2736156
4А,улица Василия Товстухо,644076,54.9760604,73.4681872
2/2Г,улица Энтузиастов,644065,55.0474193,73.2793456
9,улица Архиепископа Сильвестра,644109,54.9089887,73.4651765
11,проспект Комарова,644112,54.9892993,73.2958081
13/3,улица Крупской,644112,54.9976099,73.3087177
8,улица Ватутина,644074,54.9795390,73.2952446
5/1,бульвар Архитекторов,644123,54.9897106,73.3076416
3,улица Кирова,644041,54.9511228,73.4168830
212Б,24-я Северная улица,644052,55.0230093,73.4009859
20/1,улица Ватутина,644074,54.9776182,73.2989911
32,11-я Комсомольская улица,644091,54.9090382,73.3827402
30,11-я Комсомольская улица,644091,54.9091133,73.3824545
59,3-я улица Красной Звезды,644091,54.9092105,73.3821528
61,3-я улица Красной Звезды,644091,54.9090274,73.3820602
65,12-я Комсомольская улица,644091,54.9087957,73.3818256
67,12-я Комсомольская улица,644091,54.9086951,73.3821608
69,12-я Комсомольская улица,644091,54.9086462,73.3824733
71,12-я Комсомольская улица,644091,54.9085914,73.3827538
73,12-я Комсомольская улица,644091,54.9085085,73.3830124
66,улица М.И.Леонова,644091,54.9084330,73.3835274
64,улица М.И.Леонова,644091,54.9086821,73.3836720
38Б,11-я Комсомольская улица,644091,54.9088693,73.3835936
36,11-я Комсомольская улица,644091,54.9089123,73.3833616
34,11-я Комсомольская улица,644091,54.9089703,73.3830242
13А,улица Крупской,644112,54.9990049,73.3055443
38,улица 22 Апреля,644065,55.0409602,73.2732180
119/2,4-я улица Челюскинцев,644052,55.0260678,73.4142598
1 к1,3-й Амурский проезд,644013,55.0465202,73.4238579
1,3-й Амурский проезд,644013,55.0464294,73.4231292
29,бульвар Кузьмина,644112,54.9966144,73.3099102
22,бульвар Архитекторов,644022,54.9733011,73.2789802
13В,проспект Комарова,644112,54.9863914,73.2982742
11,Взлётная улица,644112,54.9986902,73.3027407
27 к3,Пригородная улица,644077,55.0242745,73.2548167
6,4-я Марьяновская улица,644014,54.9209381,73.3572659
12,улица Дианова,644106,54.9951564,73.2540266
143В,Авиационная улица,644103,54.9513420,73.3340052
6 к2,4-й Амурский проезд,644013,55.0469612,73.4248705
5,3-й Амурский проезд,644013,55.0482104,73.4244054
1 к2,3-й Амурский проезд,644013,55.0480078,73.4226275
3/1,3-й Амурский проезд,644013,55.0473130,73.4236157
3,3-й Амурский проезд,644013,55.0472225,73.4228727
9,1-й Амурский проезд,644013,55.0401559,73.4200652
11,Сибирский проспект,644082,54.9107605,73.4580826
39,улица Ватутина,644074,54.9748788,73.3017038
15,4-я Транспортная улица,644021,54.9539298,73.4089085
134,улица Масленникова,644009,54.9741775,73.4138320
28,улица Перелёта,644119,55.0035190,73.3002431
22,улица Лермонтова,644024,54.9816726,73.3829079
9Б,проспект Мира,644050,55.0247965,73.2947793
18/5,3-я Молодёжная улица,644117,54.9555373,73.4928959
154,улица Герцена,644069,55.0155193,73.3754355
148,улица Герцена,644069,55.0152142,73.3754030
141,14-я Северная улица,644069,55.0152229,73.3758522
139,14-я Северная улица,644069,55.0152262,73.3756865
143,14-я Северная улица,644069,55.0152124,73.3760523
145,14-я Северная улица,644069,55.0152218,73.3762807
147,14-я Северная улица,644069,55.0152067,73.3765956
149,14-я Северная улица,644069,55.0152134,73.3769738
95,1-я Совхозная улица,644069,55.0155465,73.3774105
134,15-я Северная улица,644069,55.0156978,73.3755072
138,15-я Северная улица,644069,55.0156134,73.3759614
140,15-я Северная улица,644069,55.0156870,73.3761175
142,15-я Северная улица,644069,55.0156684,73.3762969
148,15-я Северная улица,644069,55.0154788,73.3770071
93,1-я Совхозная улица,644069,55.0153598,73.3773833
47,улица Фрунзе,644007,54.9950007,73.3655655
25/16В,улица 70 лет Октября,644074,54.9749470,73.3390014
73,1-я улица Красной Звезды,644014,54.9188159,73.3518184
7,1-й Амурский проезд,644013,55.0397107,73.4203606
9 к1,1-й Амурский проезд,644013,55.0399551,73.4192451
143 к4,улица Красный Путь,644033,55.0101192,73.3351014
52,Спортивная улица,644060,54.9230239,73.4104241
35,улица А.М.Никандрова,644901,55.1764282,73.2263600
33,улица А.М.Никандрова,644901,55.1766879,73.2263876
31,улица А.М.Никандрова,644901,55.1769043,73.2264197
29,улица А.М.Никандрова,644901,55.1771514,73.2264873
27,улица А.М.Никандрова,644901,55.1773951,73.2265600
25,улица А.М.Никандрова,644901,55.1778398,73.2265374
23,улица А.М.Никандрова,644901,55.1781171,73.2267001
21,улица А.М.Никандрова,644901,55.1782707,73.2267915
19,улица А.М.Никандрова,644901,55.1783917,73.2268542
17,улица А.М.Никандрова,644901,55.1786240,73.2270238
15,улица А.М.Никандрова,644901,55.1787890,73.2271460
13,улица А.М.Никандрова,644901,55.1789720,73.2272534
11,улица А.М.Никандрова,644901,55.1791344,73.2273347
9,улица А.М.Никандрова,644901,55.1793285,73.2274942
7,улица А.М.Никандрова,644901,55.1795608,73.2276320
5,улица А.М.Никандрова,644901,55.1797611,73.2277811
3,улица А.М.Никандрова,644901,55.1799439,73.2279444
1,улица А.М.Никандрова,644901,55.1802547,73.2280541
1,улица Арсеньева,644052,55.0124443,73.4079583
29А,бульвар Кузьмина,644112,54.9968265,73.3102508
96,20-я Северная улица,644069,55.0200437,73.3738829
186,Осоавиахимовская улица,644069,55.0200404,73.3728636
88,20-я Северная улица,644069,55.0200176,73.3732089
90,20-я Северная улица,644069,55.0200304,73.3734410
92,20-я Северная улица,644069,55.0200247,73.3736546
98,20-я Северная улица,644069,55.0200195,73.3740418
100,20-я Северная улица,644069,55.0198800,73.3741493
104,20-я Северная улица,644069,55.0200407,73.3745002
102,20-я Северная улица,644069,55.0199589,73.3743529
207,улица Герцена,644069,55.0197941,73.3752114
205,улица Герцена,644069,55.0195855,73.3752316
117А,19-я Северная улица,644069,55.0195718,73.3749187
115,19-я Северная улица,644069,55.0195616,73.3746470
111,19-я Северная улица,644069,55.0195590,73.3744179
109,19-я Северная улица,644069,55.0195672,73.3742544
107,19-я Северная улица,644069,55.0195779,73.3740420
103,19-я Северная улица,644069,55.0195689,73.3736685
184,Осоавиахимовская улица,644069,55.0197565,73.3730246
101,19-я Северная улица,644069,55.0195960,73.3733913
180,Осоавиахимовская улица,644069,55.0196138,73.3729583
55,улица Нахимова,644105,55.0138905,73.4220011
162А,улица 6-я Линия,644046,54.9641886,73.4071550
2,улица А.Н. Кабанова,644119,55.0056274,73.3003517
7/2Б,улица Дианова,644106,54.9938010,73.2599938
12,улица Ватутина,644074,54.9794981,73.2951097
24А,4-я Солнечная улица,644073,54.9926998,73.2201806
26А,4-я Солнечная улица,644073,54.9926491,73.2207405
26,4-я Солнечная улица,644073,54.9924078,73.2207245
26Б,4-я Солнечная улица,644073,54.9927505,73.2209562
36,4-я Заозёрная улица,644050,55.0297081,73.3022720
34,4-я Заозёрная улица,644050,55.0296090,73.3025703
32,4-я Заозёрная улица,644050,55.0295299,73.3028519
30,4-я Заозёрная улица,644050,55.0294807,73.3031326
28,4-я Заозёрная улица,644050,55.0293792,73.3034125
26,4-я Заозёрная улица,644050,55.0292966,73.3036774
24,4-я Заозёрная улица,644050,55.0292166,73.3039536
22,4-я Заозёрная улица,644050,55.0291298,73.3042460
20,4-я Заозёрная улица,644050,55.0290813,73.3045679
18А,4-я Заозёрная улица,644050,55.0291125,73.3049386
18,4-я Заозёрная улица,644050,55.0289619,73.3048200
16,4-я Заозёрная улица,644050,55.0289161,73.3049742
14,4-я Заозёрная улица,644050,55.0288915,73.3050842
8,4-я Заозёрная улица,644050,55.0286893,73.3057122
6,4-я Заозёрная улица,644050,55.0286617,73.3059384
4,4-я Заозёрная улица,644050,55.0285494,73.3062651
1,5-я Заозёрная улица,644050,55.0288899,73.3064548
3,5-я Заозёрная улица,644050,55.0290037,73.3061826
5,5-я Заозёрная улица,644050,55.0290891,73.3058734
11,5-я Заозёрная улица,644050,55.0292807,73.3051992
13,5-я Заозёрная улица,644050,55.0293765,73.3047975
15,5-я Заозёрная улица,644050,55.0295679,73.3041618
19А,5-я Заозёрная улица,644050,55.0296776,73.3037934
21,5-я Заозёрная улица,644050,55.0297300,73.3035447
23,5-я Заозёрная улица,644050,55.0298136,73.3033421
25,5-я Заозёрная улица,644050,55.0298973,73.3030548
27,5-я Заозёрная улица,644050,55.0299736,73.3028415
29,5-я Заозёрная улица,644050,55.0300352,73.3026289
31,5-я Заозёрная улица,644050,55.0301181,73.3023168
33,5-я Заозёрная улица,644050,55.0301859,73.3020647
43/3,21-я Амурская улица,644013,55.0453854,73.4240140
43,12-я Амурская улица,644116,55.0302387,73.3982176
41,12-я Амурская улица,644116,55.0300072,73.3981583
39,12-я Амурская улица,644116,55.0298247,73.3981731
37,12-я Амурская улица,644116,55.0296345,73.3982088
35,12-я Амурская улица,644116,55.0294834,73.3980965
29,12-я Амурская улица,644116,55.0289317,73.3981525
27,12-я Амурская улица,644116,55.0287466,73.3981275
33,12-я Амурская улица,644116,55.0292627,73.3981203
31,12-я Амурская улица,644116,55.0290640,73.3981477
25,12-я Амурская улица,644116,55.0284779,73.3980849
23,12-я Амурская улица,644116,55.0282792,73.3981098
26,11-я Амурская улица,644116,55.0282682,73.3976965
28,11-я Амурская улица,644116,55.0285633,73.3976807
30,11-я Амурская улица,644116,55.0287397,73.3977013
32,11-я Амурская улица,644116,55.0289040,73.3976626
34,11-я Амурская улица,644116,55.0290691,73.3976732
36,11-я Амурская улица,644116,55.0292823,73.3977317
40,11-я Амурская улица,644116,55.0296321,73.3977500
42,11-я Амурская улица,644116,55.0298084,73.3977347
44,11-я Амурская улица,644116,55.0300039,73.3977952
46,11-я Амурская улица,644116,55.0302339,73.3977156
7/4,улица Дианова,644106,54.9935664,73.2616314
1,7-я Амурская улица,644116,55.0234819,73.3929652
3,7-я Амурская улица,644116,55.0237130,73.3930031
7,7-я Амурская улица,644116,55.0239864,73.3930067
11,7-я Амурская улица,644116,55.0242552,73.3930046
13,7-я Амурская улица,644116,55.0243574,73.3930244
15,7-я Амурская улица,644116,55.0245316,73.3930261
17,7-я Амурская улица,644116,55.0246260,73.3930206
19,7-я Амурская улица,644116,55.0247372,73.3930214
21,7-я Амурская улица,644116,55.0249122,73.3930472
23,7-я Амурская улица,644116,55.0250740,73.3930347
25,7-я Амурская улица,644116,55.0252194,73.3929460
27,7-я Амурская улица,644116,55.0253527,73.3930718
29,7-я Амурская улица,644116,55.0255353,73.3930606
30,6-я Амурская улица,644116,55.0254874,73.3925526
28,6-я Амурская улица,644116,55.0253556,73.3925156
26,6-я Амурская улица,644116,55.0252024,73.3925109
24,6-я Амурская улица,644116,55.0250844,73.3925110
22,6-я Амурская улица,644116,55.0249552,73.3925093
20,6-я Амурская улица,644116,55.0248186,73.3925140
18,6-я Амурская улица,644116,55.0246816,73.3925851
16,6-я Амурская улица,644116,55.0245462,73.3924722
14,6-я Амурская улица,644116,55.0244061,73.3924873
12,6-я Амурская улица,644116,55.0242560,73.3924548
10,6-я Амурская улица,644116,55.0241223,73.3924474
8,6-я Амурская улица,644116,55.0240031,73.3924425
6,6-я Амурская улица,644116,55.0238758,73.3924942
4,6-я Амурская улица,644116,55.0236967,73.3924485
2,6-я Амурская улица,644116,55.0235070,73.3924370
108,1-я Станционная улица,644120,54.9301283,73.4921004
108/1,1-я Станционная улица,644120,54.9298910,73.4926746
2А,6-я Крайняя улица,644012,55.0361944,73.3280375
2,6-я Крайняя улица,644012,55.0360173,73.3278437
38,11-я Комсомольская улица,644091,54.9088560,73.3838224
85,2-я Амурская улица,644116,55.0307327,73.3881918
87,2-я Амурская улица,644116,55.0308675,73.3883345
88,1-я Амурская улица,172387,55.0309091,73.3878567
89,2-я Амурская улица,644116,55.0310788,73.3883690
90,1-я Амурская улица,172387,55.0310460,73.3878645
91,2-я Амурская улица,644116,55.0311768,73.3883555
92,1-я Амурская улица,172387,55.0312115,73.3879003
93,2-я Амурская улица,644116,55.0313258,73.3884117
94,1-я Амурская улица,172387,55.0313381,73.3878893
95,2-я Амурская улица,644116,55.0314746,73.3883364
96,1-я Амурская улица,172387,55.0315040,73.3879161
97,2-я Амурская улица,644116,55.0316409,73.3884030
98,1-я Амурская улица,172387,55.0316131,73.3880544
99,2-я Амурская улица,644116,55.0317884,73.3883936
100,1-я Амурская улица,172387,55.0317931,73.3878940
101,2-я Амурская улица,644116,55.0318884,73.3884063
102,1-я Амурская улица,172387,55.0318898,73.3879094
103,2-я Амурская улица,644116,55.0320698,73.3884144
104,1-я Амурская улица,172387,55.0320927,73.3879260
105,2-я Амурская улица,644116,55.0322251,73.3884144
107,2-я Амурская улица,644116,55.0323785,73.3883998
106,1-я Амурская улица,172387,55.0323360,73.3879331
108,1-я Амурская улица,172387,55.0325201,73.3879261
109,2-я Амурская улица,644116,55.0325339,73.3884427
111,2-я Амурская улица,644116,55.0326720,73.3883943
110,1-я Амурская улица,172387,55.0326736,73.3878937
112,1-я Амурская улица,172387,55.0327926,73.3878953
1,15-я Северная улица,644033,55.0162813,73.3583978
4,16-я Северная улица,644033,55.0166823,73.3587479
133,улица Сазонова,644033,55.0163794,73.3597230
13,15-я Северная улица,644033,55.0161764,73.3597479
3,15-я Северная улица,644033,55.0162687,73.3586742
5,15-я Северная улица,644033,55.0162052,73.3588714
91Б,Космический проспект,644076,54.9765295,73.4582510
38,21-я Амурская улица,644086,55.0403495,73.4294388
83,улица Демьяна Бедного,644030,54.9231714,73.4168997
110,1-я Станционная улица,644120,54.9299930,73.4935703
11,улица Леонида Маслова,644015,54.9367499,73.3494356
173,7-я Северная улица,644033,55.0092555,73.3738922
33/2,Молодогвардейская улица,644058,54.9257611,73.4627422
37А,Молодогвардейская улица,644058,54.9255830,73.4630811
270,Тарская улица,644069,55.0232309,73.3691588
121,23-я Северная улица,644069,55.0230049,73.3691157
123,23-я Северная улица,644069,55.0230232,73.3693669
125,23-я Северная улица,644069,55.0230069,73.3697236
127,23-я Северная улица,644069,55.0229744,73.3699259
129,23-я Северная улица,644069,55.0229832,73.3702811
131,23-я Северная улица,644069,55.0229932,73.3705746
135,23-я Северная улица,644069,55.0229803,73.3708674
137,23-я Северная улица,644069,55.0229915,73.3711356
139,23-я Северная улица,644069,55.0229992,73.3714655
141,23-я Северная улица,644069,55.0230715,73.3716264
143,23-я Северная улица,644069,55.0229850,73.3717862
147,23-я Северная улица,644069,55.0229664,73.3721283
149,23-я Северная улица,644069,55.0229695,73.3724958
187А,Осоавиахимовская улица,644069,55.0230957,73.3725554
187,Осоавиахимовская улица,644069,55.0231664,73.3725246
185,Осоавиахимовская улица,644069,55.0232523,73.3725137
148,24-я Северная улица,644069,55.0234328,73.3725273
144,24-я Северная улица,644069,55.0234284,73.3721652
142,24-я Северная улица,644069,55.0234415,73.3719534
140,24-я Северная улица,644069,55.0234466,73.3716157
138,24-я Северная улица,644069,55.0234286,73.3713085
136,24-я Северная улица,644069,55.0233252,73.3711531
134,24-я Северная улица,644069,55.0234596,73.3710310
132,24-я Северная улица,644069,55.0234262,73.3708458
130А,24-я Северная улица,644069,55.0234364,73.3707206
130,24-я Северная улица,644069,55.0234523,73.3705172
128,24-я Северная улица,644069,55.0234214,73.3702873
126,24-я Северная улица,644069,55.0234126,73.3700668
272,Тарская улица,644069,55.0234270,73.3691528
82,5-я Станционная улица,644120,54.9261793,73.4902995
82А,5-я Станционная улица,644120,54.9261993,73.4905987
84,5-я Станционная улица,644120,54.9262362,73.4911388
86,5-я Станционная улица,644120,54.9262689,73.4915230
90,5-я Станционная улица,644120,54.9263250,73.4922030
92,5-я Станционная улица,644120,54.9263641,73.4926461
94,5-я Станционная улица,644120,54.9263904,73.4929286
96,5-я Станционная улица,644120,54.9264149,73.4931715
100,5-я Станционная улица,644120,54.9264403,73.4935584
98,5-я Станционная улица,644120,54.9264266,73.4933759
45,7-я Заозёрная улица,644050,55.0306257,73.3026542
43,7-я Заозёрная улица,644050,55.0307662,73.3027742
41,7-я Заозёрная улица,644050,55.0306600,73.3030631
39,7-я Заозёрная улица,644050,55.0305988,73.3033933
37,7-я Заозёрная улица,644050,55.0305446,73.3035542
35,7-я Заозёрная улица,644050,55.0304723,73.3038157
33,7-я Заозёрная улица,644050,55.0304232,73.3040211
31,7-я Заозёрная улица,644050,55.0303707,73.3042029
29,7-я Заозёрная улица,644050,55.0302352,73.3043710
27,7-я Заозёрная улица,644050,55.0302512,73.3046409
25,7-я Заозёрная улица,644050,55.0301861,73.3048102
23,7-я Заозёрная улица,644050,55.0301305,73.3050435
21,7-я Заозёрная улица,644050,55.0300114,73.3054252
19,7-я Заозёрная улица,644050,55.0299692,73.3055754
17,7-я Заозёрная улица,644050,55.0298937,73.3058366
15,7-я Заозёрная улица,644050,55.0298146,73.3059991
13,7-я Заозёрная улица,644050,55.0297468,73.3062534
11,7-я Заозёрная улица,644050,55.0297140,73.3064483
9,7-я Заозёрная улица,644050,55.0295767,73.3066226
7,7-я Заозёрная улица,644050,55.0295903,73.3068410
44,5-я Заозёрная улица,644050,55.0303802,73.3024451
42,5-я Заозёрная улица,644050,55.0302472,73.3028380
40,5-я Заозёрная улица,644050,55.0301913,73.3030325
38,5-я Заозёрная улица,644050,55.0301198,73.3032408
36,5-я Заозёрная улица,644050,55.0300664,73.3034485
34,5-я Заозёрная улица,644050,55.0300263,73.3036625
32,5-я Заозёрная улица,644050,55.0299496,73.3038378
30,5-я Заозёрная улица,644050,55.0298682,73.3041186
28,5-я Заозёрная улица,644050,55.0298357,73.3043269
26,5-я Заозёрная улица,644050,55.0297536,73.3045291
24,5-я Заозёрная улица,644050,55.0296678,73.3048133
22,5-я Заозёрная улица,644050,55.0296256,73.3049373
20,5-я Заозёрная улица,644050,55.0296399,73.3052489
18,5-я Заозёрная улица,644050,55.0295187,73.3053544
12,5-я Заозёрная улица,644050,55.0293120,73.3060652
10,5-я Заозёрная улица,644050,55.0292612,73.3061921
16,5-я Заозёрная улица,644050,55.0294368,73.3055845
14,5-я Заозёрная улица,644050,55.0294162,73.3058122
8,5-я Заозёрная улица,644050,55.0291977,73.3065304
53,улица Кирова,644041,54.9428762,73.4255712
18Ак5,Космический проспект,644027,54.9672771,73.4524464
4,Зелёный бульвар,644119,55.0024538,73.2880852
10/4,улица Степанца,644119,54.9978833,73.2877206
159,проспект Мира,644085,55.0303638,73.2248851
21,10-я Чередовая улица,644030,54.9237597,73.4219917
25,2-я Совхозная улица,644069,55.0202879,73.3781467
8/4,Сибирский проспект,644113,54.9138316,73.4517812
14 к2,улица Малиновского,644090,55.0384631,73.3263042
20,посёлок Биофабрика,644031,54.9925704,73.4532315
2/1,Сибирский проспект,644113,54.9158439,73.4553854
10Б,улица Романенко,644076,54.9831472,73.4754694
102,улица Суровцева,644103,54.9473898,73.3422901
1,улица Бархатовой,644110,55.0479629,73.3270048
96,улица 6-я Линия,644010,54.9736524,73.4053806
9,улица Гризодубовой,644005,54.9438946,73.3919480
17,10-я Самарская улица,644036,54.9155669,73.3059578
9,Сибирский проспект,644109,54.9111692,73.4580840
16,улица 75-й Гвардейской Бригады,644076,54.9724230,73.4766839
12Б,улица 75-й Гвардейской Бригады,644076,54.9724247,73.4739182
163,проспект Мира,644085,55.0312295,73.2249166
130,улица Красных Зорь,644009,54.9806976,73.4315899
128,улица Красных Зорь,644009,54.9806976,73.4313834
132,улица Красных Зорь,644009,54.9805818,73.4318348
128А,улица Красных Зорь,644009,54.9805697,73.4312711
3,улица Орловского,644020,54.9518129,73.3945475
7,проспект Комарова,644092,54.9921176,73.2874824
5,улица Орловского,644020,54.9506619,73.3953856
7А,улица Кирова,644041,54.9491483,73.4200948
11Б,улица Фугенфирова,644081,54.9962081,73.2692265
5,бульвар Архитекторов,644123,54.9901634,73.3087407
8,Заречный бульвар,644119,55.0025255,73.2919443
3,Заречный бульвар,644119,55.0015293,73.2869523
5,Заречный бульвар,644119,55.0031145,73.2896882
9,Моторная улица,644109,54.9107760,73.4497220
14,улица Степанца,644119,55.0006088,73.2823123
23,улица Лукашевича,644119,55.0015864,73.2834776
20,улица Белозёрова,644083,55.0494231,73.3072748
107,улица Маршала Жукова,644046,54.9685391,73.3919013
7А,Олимпийская улица,644076,54.9755161,73.4740769
98,проспект Мира,644089,55.0295215,73.2503444
8,Зелёный бульвар,644119,55.0005184,73.2903270
10/2,улица Степанца,644119,54.9980079,73.2883511
13А,улица 50-летия ВЛКСМ,644076,54.9755009,73.4775020
38,проспект Мира,644050,55.0280246,73.2901228
54,проспект Карла Маркса,644048,54.9484094,73.3865568
13,Ишимская улица,644058,54.9254876,73.4716394
7,улица Багратиона,644052,55.0236225,73.4124989
5,улица Белозёрова,644100,55.0445906,73.3022722
30,Нефтезаводская улица,644065,55.0386108,73.2653548
31Б,Нефтезаводская улица,644053,55.0399434,73.2622428
36,Нефтезаводская улица,644065,55.0410875,73.2630372
12,Сибирский проспект,644109,54.9107324,73.4562868
26 к4,Краснознамённая улица,644013,55.0351979,73.4563258
23 к4,улица Завертяева,644013,55.0342527,73.4553755
23,улица Бетховена,644082,54.9319166,73.3266009
21,улица Бетховена,644082,54.9317314,73.3273452
24,улица Дианова,644073,54.9959163,73.2377230
22,улица Дианова,644073,54.9956298,73.2403705
19,улица 70 лет Октября,644074,54.9810103,73.3213565
19/1,улица Крупской,644123,54.9915947,73.3183666
124,24-я Северная улица,644069,55.0233894,73.3697020
122,24-я Северная улица,644069,55.0234347,73.3694686
7,5-я Заозёрная улица,644050,55.0291106,73.3054759
9,5-я Заозёрная улица,644050,55.0291961,73.3054081
10,4-я Заозёрная улица,644050,55.0287575,73.3055102
12,4-я Заозёрная улица,644050,55.0287802,73.3053862
6А,Краснопресненская улица,644041,54.9504067,73.4211424
6,Краснопресненская улица,644041,54.9498191,73.4216657
12,улица Котельникова,644121,54.9353317,73.3773663
162Б,улица Орджоникидзе,644033,55.0120119,73.3664488
10,4-я Транспортная улица,644021,54.9524819,73.4076136
10,улица Котельникова,644121,54.9362747,73.3776649
32,Космический проспект,644076,54.9838001,73.4769282
25,улица Олега Кошевого,644082,54.9334555,73.3271413
