House number,Street name,Postal code,Latitude,Longitude
84,Strada Independenței,MD-4601,48.1711069,27.3026288
79,Strada Independenței,MD-4601,48.1680849,27.3086253
1,Strada Independenței,MD-4601,48.1676185,27.3082466
79,Strada Independenței,MD-4601,48.1685027,27.3081391
2A,Strada 31 August 1989,MD-4601,48.1674200,27.3072600
13,str. Șos. Bucovinei,MD-4601,48.1797050,27.3027877
5,Strada Ștefan Vodă,MD-4601,48.1712096,27.2980545
81/1,Strada Nicolae Moroșanu,MD-4601,48.1728271,27.2800574
77A,Strada Independenței,MD-4601,48.1686575,27.3075002
8/B,Strada 31 August 1989,MD-4601,48.1670278,27.3066343
7/1,Strada Mihai Eminescu,4601,48.1698872,27.3083685
67A,Strada Independenței,MD-4601,48.1701726,27.3054151
10,Strada 31 August 1989,MD-4601,48.1672271,27.3069198
115,Strada Florar,MD-4601,48.1801479,27.3029199
16,Strada Alexandr Pușkin,4601,48.1693952,27.3027158
1A,Strada Mihai Eminescu,MD-4601,48.1691940,27.3069329
82,Strada Independenței,MD-4601,48.1713097,27.3026821
228,Strada Independenței,MD-4601,48.1618958,27.3252903
66,Strada 31 August 1989,4601,48.1669211,27.3067427
106/59,Strada Independenței,MD-4601,48.1685583,27.3067448
26,Strada Șos. Bucovinei,MD-4601,48.1820726,27.2973585
1,Strada Gheorghe Asachi,MD-4601,48.1817707,27.2959781
3,Strada N. Testimițianu,MD-4601,48.1821370,27.2967363
1,Strada N. Testimițianu,MD-4601,48.1822939,27.2970462
60,Strada Independenței,MD-4601,48.1742110,27.2977445
63,Strada Independenței,MD-4601,48.1718259,27.3014191
65,Strada Alexandru cel Bun,MD-4601,48.1713681,27.3018546
71,Strada Independenței,MD-4601,48.1697614,27.3064625
84,Strada Independenței,MD-4601,48.1709330,27.3028161
58-59,Strada Iurii Gagarin,4601,48.1728414,27.2834122
29,Strada Șoseaua Bucovinei,MD-4601,48.1784253,27.3056292
81,Strada Independenței,MD-4601,48.1679951,27.3095758
35/3,Strada Șoseaua Bucovinei,MD-4601,48.1781278,27.3074652
13,Strada Șoseaua Bucovinei,MD-4601,48.1798381,27.3029872
25/5,Strada Șoseaua Bucovinei,MD-4601,48.1775610,27.3063980
2,Strada 31 August 1989,MD-4601,48.1676822,27.3075135
25,Strada Șoseaua Bucovinei,MD-4601,48.1789404,27.3045159
19/4,Strada Șoseaua Bucovinei,MD-4601,48.1790912,27.3030638
35,Strada Șoseaua Bucovinei,MD-4601,48.1772860,27.3071875
1,Strada Șoseaua Bucovina,MD-4601,48.1832476,27.2980044
2,Strada Independenței,MD-4601,48.1689566,27.3080191
5,Stradela Arhitect Petru Bradu,MD-4601,48.1697825,27.3022340
21,Strada Șoseaua Bucovinei,MD-4601,48.1797201,27.3048239
19,Strada Șoseaua Bucovinei,MD-4601,48.1786682,27.3037795
11,Strada Șoseaua Bucovinei,MD-4601,48.1800635,27.3026903
109,Strada Alexandru cel Bun,MD-4601,48.1682142,27.3061723
31,Strada Șoseaua Bucovinei,MD-4601,48.1775813,27.3049799
101,Strada Florar,MD-4601,48.1816504,27.3021707
86,Strada Independenței,MD-4601,48.1706868,27.3035225
99,Strada Florar,MD-4601,48.1812915,27.3026586
11/9,Strada Șoseaua Bucovinei,MD-4601,48.1802094,27.3036549
35/1,Strada Șoseaua Bucovinei,MD-4601,48.1766738,27.3076448
19/8,Strada Șoseaua Bucovinei,MD-4601,48.1796811,27.3059103
88,Strada Independenței,MD-4601,48.1703836,27.3040280
19/6,Strada Șoseaua Bucovinei,MD-4601,48.1802163,27.3046960
67,Strada Independenței,4601,48.1701659,27.3054765
25/3,Strada Șoseaua Bucovinei,MD-4601,48.1775712,27.3059532
108,Strada Independenței,MD-4601,48.1679792,27.3075283
33,Strada Independenței,MD-4601,48.1735553,27.3011483
1,Strada Independenței,MD-4601,48.1676214,27.3082488
15,Strada Șoseaua Bucovinei,MD-4601,48.1795703,27.3034974
73,Strada Independenței,MD-4601,48.1692302,27.3068706
21b,Strada Șoseaua Bucovinei,MD-4601,48.1793608,27.3051918
25/7,Strada Șos. Bucovinei,MD-4601,48.1773173,27.3067155
1,Strada Independenței,MD-4601,48.1692743,27.3075086
17/1,Strada Șoseaua Bucovinei,MD-4601,48.1795301,27.3042958
104,Strada Independenței,MD-4601,48.1688728,27.3063587
19/5,Strada Șoseaua Bucovinei,MD-4601,48.1788905,27.3034109
79,Strada Independenței,MD-4601,48.1682795,27.3084176
25/1,Strada Șoseaua Bucovinei,MD-4601,48.1793745,27.3056586
106,Strada Independenței,MD-4601,48.1684416,27.3068647
29,Strada Șoseaua Bucovinei,MD-4601,48.1782240,27.3044377
5,Strada Șos. Bucovinei,MD-4601,48.1816189,27.3003311
1,Strada Șoseaua Bucovina,MD-4601,48.1850100,27.2969600
11/7,Strada Șoseaua Bucovinei,MD-4601,48.1803970,27.3041495
9,Strada Șoseaua Bucovinei,MD-4601,48.1803049,27.3023886
35/2,Strada Șoseaua Bucovinei,MD-4601,48.1769547,27.3084573
19/7,Strada Șoseaua Bucovinei,MD-4601,48.1801523,27.3055087
33,Strada Șoseaua Bucovinei,MD-4601,48.1773212,27.3052034
113,Strada Alexandru cel Bun,MD-4601,48.1676277,27.3070158
31,Strada Independenței,MD-4601,48.1737326,27.3001846
1,Strada Șoseaua Bucovinei,MD-4601,48.1838442,27.2973258
1,Strada Șoseaua Bucovinei,MD-4601,48.1841187,27.2964825
75,Strada Independenței,MD-4601,48.1685811,27.3089698
21a,Strada Șos. Bucovinei,MD-4601,48.1798234,27.3045183
90,Strada Independenței,MD-4601,48.1700709,27.3044365
103,Strada Florar,MD-4601,48.1817478,27.3029001
59,Strada V. Roșca,MD-4601,48.1541531,27.2930674
110,Strada Independenței,MD-4601,48.1678438,27.3077645
15b,Strada Șoseaua Bucovinei,MD-4601,48.1793214,27.3027692
77A,Strada Independenței,MD-4601,48.1686713,27.3075766
35/10,Strada Șoseaua Bucovinei,MD-4601,48.1755400,27.3079402
37a,Strada Independenței,MD-4601,48.1731113,27.3021873
2A,Strada 31 August 1989,MD-4601,48.1674735,27.3072428
7/A,Strada Mihai Eminescu,MD-4601,48.1704773,27.3078071
14,Strada Mihai Eminescu,4601,48.1698001,27.3123433
10,Strada Аleksandr Тkachenko,MD-4601,48.1671181,27.2844046
1,Strada Independenței,MD-4601,48.1815858,27.2918201
