House number,Street name,Postal code,Latitude,Longitude
9222,Avenida 5 de Febrero,76100,20.6494733,-100.4328348
272,Avenida Sabinos,76100,20.6594825,-100.4375019
1,Calle Paseo de Jurica,76100,20.6470070,-100.4339431
105-Int 3,Priv. de los Industriales,76120,20.6519505,-100.4337372
23,Reforma,76000,20.5908442,-100.3899710
27 norte,Vicente Guerrero,76000,20.5930226,-100.3957851
6,Reforma,76000,20.5901260,-100.3906252
104,Playa Rincón,76160,20.6259052,-100.4076958
38,Juárez Norte,76000,20.5948413,-100.3931012
174,Avenida Universidad,76020,20.6006909,-100.3842527
52,Topacio Santa Catarina,76150,20.6046877,-100.4021401
101,Calle Parlamento,76148,20.6595648,-100.4026051
105,Calle La Cordura,76148,20.6601346,-100.4029405
113,Calle La Cordura,76148,20.6601655,-100.4032745
214,Calle Parlamento,76148,20.6597186,-100.4039377
307,Calle Parlamento,76148,20.6598494,-100.4045175
308,Calle Parlamento,76148,20.6598146,-100.4046142
408,Calle Parlamento,76148,20.6599287,-100.4054065
412,Calle La Cordura,76148,20.6604447,-100.4056577
418,Calle Parlamento,76148,20.6600095,-100.4059310
102,Avenida Peñuelas,76148,20.6256325,-100.3995981
108,Jardineros,46148,20.6318641,-100.3997018
148,Avenida Peñuelas,76148,20.6268305,-100.3993483
86,Jardineros,76148,20.6317441,-100.3985341
90,Jardineros,76148,20.6317605,-100.3987290
98,Jardineros,46148,20.6318342,-100.3994212
88,Jardineros,76148,20.6317502,-100.3986331
101,Espiritualidad,76148,20.6264046,-100.3984231
101,Perseverancia,76148,20.6267755,-100.3989458
101,Sabiduría,76148,20.6263989,-100.3988448
101,Sinceridad,76148,20.6256065,-100.3991635
102,Espiritualidad,76148,20.6264332,-100.3982133
102,Generosidad,76148,20.6265748,-100.3989886
102,Lealtad,76148,20.6263807,-100.3990447
102,Sabiduría,76148,20.6264086,-100.3986476
111,Sinceridad,76148,20.6254955,-100.3989067
119,Lealtad,76148,20.6267857,-100.3991597
126,Generosidad,76148,20.6266038,-100.3982918
130,Sabiduría,76148,20.6256370,-100.3987836
131,Espiritualidad,76148,20.6255769,-100.3985788
131,Sabiduría,76148,20.6257868,-100.3989584
132,Lealtad,76148,20.6258177,-100.3991629
137,Perseverancia,76148,20.6268261,-100.3979257
137,Sinceridad,76148,20.6251975,-100.3982510
138,Espiritualidad,76148,20.6254623,-100.3984024
138,Generosidad,76148,20.6266178,-100.3979566
150,Paseo Constitución,76148,20.6249971,-100.3983178
162,Manuel Gomez Morín,76148,20.6264274,-100.3979870
167,Lealtad,76148,20.6255470,-100.3994198
186,Paseo Constitución,76148,20.6254253,-100.3992454
200,Manuel Gomez Morín,76148,20.6253946,-100.3981934
10,Albañiles,76148,20.6329326,-100.3960316
108,Avenida Plateros,76148,20.6304896,-100.3953643
11,Avenida Plateros,76148,20.6287465,-100.3955820
12,Campesinos,76148,20.6322849,-100.3988708
134,Avenida Plateros,76148,20.6321233,-100.3954766
14,Albañiles,76148,20.6329108,-100.3963338
14,Campesinos,76148,20.6324348,-100.3988577
140,Avenida Plateros,76148,20.6325522,-100.3954893
144,Avenida Plateros,76148,20.6328417,-100.3954916
18,Albañiles,76148,20.6328889,-100.3965876
19,Albañiles,76148,20.6326920,-100.3966021
19,Avenida Plateros,76148,20.6291188,-100.3956211
2,Campesinos,76148,20.6318048,-100.3989116
20,Albañiles,76148,20.6328565,-100.3968638
21,Calle Albañiles,76148,20.6326709,-100.3968803
23,Avenida Plateros,76148,20.6295420,-100.3956695
28,Albañiles,76148,20.6328263,-100.3973162
3,Avenida Plateros,76148,20.6283753,-100.3955373
3,Campesinos,76148,20.6319264,-100.3991005
35,Calle Albañiles,76148,20.6326164,-100.3974650
37,Avenida Plateros,76148,20.6304256,-100.3957496
38,Albañiles,76148,20.6327893,-100.3977520
39,Calle Albañiles,76148,20.6325892,-100.3977681
4,Campesinos,76148,20.6320037,-100.3988992
41,Calle Albañiles,76148,20.6325670,-100.3981425
44,Albañiles,76148,20.6327389,-100.3983785
5,Albañiles,76148,20.6327460,-100.3959871
5,Campesinos,76148,20.6320965,-100.3990863
53,Avenida Plateros,76148,20.6314379,-100.3957738
54,Albañiles,76148,20.6326925,-100.3988389
57,Albañiles,76148,20.6325100,-100.3988270
57,Avenida Plateros,76148,20.6317804,-100.3957903
57 E,Albañiles,76148,20.6325256,-100.3986266
65,Avenida Plateros,76148,20.6320557,-100.3958051
7,Campesinos,76148,20.6322119,-100.3990827
72,Avenida Plateros,76148,20.6284334,-100.3952647
73,Avenida Plateros,76148,20.6325256,-100.3958203
78,Avenida Plateros,76148,20.6287553,-100.3953048
80,Avenida Plateros,76148,20.6289487,-100.3953209
82,Avenida Plateros,76148,20.6291050,-100.3953341
96,Avenida Plateros,76148,20.6297455,-100.3953883
101,Rio Culiacan,76130,20.6197989,-100.4053928
101,Rio Yaqui,76130,20.6196284,-100.4064785
101,Río Sonora,76130,20.6200931,-100.4062720
101,Río Tula,76130,20.6201941,-100.4055615
101,Río Verde,76130,20.6202388,-100.4059304
102,Rio Yaqui,76130,20.6200265,-100.4064273
102,Río Sonora,76130,20.6201730,-100.4061012
102,Río Verde,76130,20.6203152,-100.4057618
104,Rio Culiacan,76130,20.6199337,-100.4055286
104,Río Mayo,76130,20.6208390,-100.4058721
106,Rio Tuxpan,76130,20.6194874,-100.4054044
107,Rio Culiacan,76130,20.6197038,-100.4056106
116,Río Verde,76130,20.6206840,-100.4059437
119,Río Sonora,76130,20.6206242,-100.4065264
119,Río Verde,76130,20.6207323,-100.4061791
120,Río Sonora,76130,20.6206806,-100.4063406
123,Rio Culiacan,76130,20.6194599,-100.4061693
123,Río Tula,76130,20.6198573,-100.4063533
124,Rio Culiacan,76130,20.6196249,-100.4062366
124,Rio Tuxpan,76130,20.6192186,-100.4060481
127,Rio Yaqui,76130,20.6201200,-100.4067128
139,Rio Yaqui,76130,20.6205751,-100.4069114
201,Avenida Pie de la Cuesta,76130,20.6195872,-100.4051722
202,Rio Yaqui,76130,20.6196882,-100.4062938
207,Avenida Pie de la Cuesta,76130,20.6198322,-100.4052858
301,Avenida Pie de la Cuesta,76130,20.6200220,-100.4053715
305,Avenida Pie de la Cuesta,76130,20.6201458,-100.4054301
307,Avenida Pie de la Cuesta,76130,20.6202210,-100.4054652
401,Pie de la Cuesta,76130,20.6204172,-100.4055483
409,Pie de la Cuesta,76130,20.6207176,-100.4056846
1,Ignacio Ramírez,76150,20.6084088,-100.3982643
13,Ignacio Ramírez,76150,20.6082877,-100.3984450
15,Ignacio Ramírez,76150,20.6083511,-100.3973275
25,Ignacio Ramírez,76150,20.6082157,-100.3978913
27,Ignacio Ramírez,76150,20.6083845,-100.3991837
3,Ignacio Ramírez,76150,20.6081490,-100.3970739
36,Ignacio Ramírez,76150,20.6085015,-100.3986280
44,Ignacio Ramírez,76150,20.6084185,-100.3983841
44,Ignacio Ramírez,76150,20.6085296,-100.3988684
45,Ignacio Ramírez,76150,20.6084282,-100.3984576
46,Ignacio Ramírez,76150,20.6085677,-100.3991437
49,Ignacio Ramírez,76150,20.6082968,-100.3985246
50,Ignacio Ramírez,76150,20.6085810,-100.3992477
6,Ignacio Ramírez,76150,20.6083790,-100.3980199
7,Ignacio Ramírez,76150,20.6084246,-100.3978518
9,Ignacio Ramírez,76150,20.6083965,-100.3976948
101,Alfonso Cravioto,76147,20.6251840,-100.3919527
107,Alfonso Cravioto,76147,20.6252454,-100.3917431
111,Alfonso Cravioto,76147,20.6252916,-100.3915579
121,Alfonso Cravioto,76147,20.6253857,-100.3911454
14,Jesús Romero,76147,20.6238750,-100.3944768
21,Alfonso Cravioto,76147,20.6240885,-100.3949067
31,Alfonso Cravioto,76147,20.6241867,-100.3946485
37,Alfonso Cravioto,76147,20.6242706,-100.3944278
4,Jesús Romero,76147,20.6235111,-100.3945678
54,Paseo Constitución,76147,20.6233721,-100.3945629
55,Alfonso Cravioto,76147,20.6245824,-100.3936080
61,Alfonso Cravioto,76147,20.6246670,-100.3933853
69,Alfonso Cravioto,76147,20.6247806,-100.3930866
7,Jesús Romero,76147,20.6237710,-100.3947533
71,Alfonso Cravioto,76147,20.6248620,-100.3928726
81,Alfonso Cravioto,76147,20.6250313,-100.3924022
76,Avenida Zaragoza,76000,20.5912106,-100.3810704
41,Avenida Corregidora,76000,20.5913936,-100.3908651
18,Reforma,76000,20.5903256,-100.3899788
15,Reforma,76000,20.5904901,-100.3901024
1,Luis G. Balvanera,76000,20.5871940,-100.3898811
1,Reforma,76000,20.5902425,-100.3908051
10,Manuel Tolsá,76000,20.5872205,-100.3906573
104,Avenida Corregidora,76000,20.5903179,-100.3906391
11,Colón,76000,20.5877788,-100.3898248
12,Luis G. Balvanera,76000,20.5872406,-100.3901993
13,Andador Vergara,76000,20.5919080,-100.3901302
13,Manuel Tolsá,76000,20.5872315,-100.3909662
15,Independencia,76000,20.5917037,-100.3905268
17,Luis G. Balvanera,76000,20.5869679,-100.3904417
17,Manuel Tolsá,76000,20.5871520,-100.3909357
18,Luis G. Balvanera,76000,20.5871354,-100.3904853
23,Juárez Sur,76000,20.5899732,-100.3908966
25,Juárez Sur,76000,20.5898270,-100.3908233
26,Independencia,76000,20.5916061,-100.3903878
3,Manuel Tolsá,76000,20.5877880,-100.3911792
3,Reforma,76000,20.5902699,-100.3907039
36,Independencia,76000,20.5917024,-100.3901739
39,Juárez Sur,76000,20.5892750,-100.3905464
4,Andador Vergara,76000,20.5921257,-100.3904459
42,Avenida Corregidora,76000,20.5912409,-100.3910469
43,Juárez Sur,76000,20.5890702,-100.3904911
5,Andador Vergara,76000,20.5922318,-100.3903079
58,Juárez Sur,76000,20.5897104,-100.3910196
7,Manuel Tolsá,76000,20.5876622,-100.3911310
70,Juárez Sur,76000,20.5891303,-100.3907268
9,Independencia,76000,20.5916311,-100.3907019
81,Avenida Corregidora,76000,20.5904834,-100.3904405
47,Avenida Corregidora,76000,20.5909281,-100.3906479
100,Avenida Paseo de la Constitución,76125,20.6290204,-100.4087534
1009,Avenida Paseo de la Constitución,76125,20.6304932,-100.4115646
103,Ciprés Mexicano,76125,20.6313363,-100.4108618
1039,Avenida Paseo de la Constitución,76125,20.6300849,-100.4108151
104,Ciprés Europeo,76125,20.6336698,-100.4134301
104,Ciprés Mexicano,76125,20.6310963,-100.4105915
108,Avenida Paseo de la Constitución,76125,20.6291656,-100.4089927
1114,Avenida Cerro del Sombrerete,76125,20.6341042,-100.4140812
1115,Cerro del Sombrerete,76125,20.6350929,-100.4140477
1131,Avenida Cerro del Sombrerete,76125,20.6360494,-100.4147057
1145,Avenida Cerro del Sombrerete,76125,20.6366210,-100.4148073
SN,Avenida Cerro del Sombrerete,76148,20.6379512,-100.4145950
120,Ciprés Mexicano,76125,20.6315283,-100.4105996
122,Ciprés Mexicano,76125,20.6316356,-100.4106228
124,Ciprés Mexicano,76125,20.6317139,-100.4106031
127,Ciprés Mexicano,76125,20.6319897,-100.4108677
131,Ciprés Mexicano,76125,20.6321645,-100.4108693
132,Ciprés Europeo,76125,20.6336136,-100.4127085
132,Ciprés Mexicano,76125,20.6319255,-100.4106071
134,Calle Ciprés Europeo,76125,20.6336211,-100.4125845
136,Ciprés Europeo,76125,20.6336006,-100.4125419
136,Ciprés Mexicano,76125,20.6320919,-100.4106102
139,Ciprés Mexicano,76125,20.6323969,-100.4108714
143,Ciprés Mexicano,76125,20.6325382,-100.4108727
144,Ciprés Europeo,76125,20.6335822,-100.4123053
144,Ciprés Mexicano,76125,20.6322901,-100.4106139
146,Calle Ciprés Europeo,76125,20.6335745,-100.4122048
148,Ciprés Europeo,76125,20.6335680,-100.4121232
148,Ciprés Mexicano,76125,20.6324749,-100.4106174
151,Ciprés Mexicano,76125,20.6327548,-100.4108746
155,Ciprés Mexicano,76125,20.6329056,-100.4108760
156,Ciprés Europeo,76125,20.6335560,-100.4118759
156,Ciprés Mexicano,76125,20.6326848,-100.4106213
158,Calle Ciprés Europeo,76125,20.6335382,-100.4117648
160,Ciprés Europeo,76125,20.6335359,-100.4117108
160,Ciprés Mexicano,76125,20.6328487,-100.4106244
161,Ciprés Mexicano,76125,20.6330799,-100.4108749
163,Ciprés Mexicano,76125,20.6331424,-100.4108781
166,Ciprés Europeo,76125,20.6335148,-100.4114403
167,Ciprés Mexicano,76125,20.6333005,-100.4108795
168,Ciprés Mexicano,76125,20.6330650,-100.4106285
172,Ciprés Mexicano,76125,20.6332241,-100.4106315
174,Ciprés Mexicano,76125,20.6333211,-100.4106333
184,Ciprés Europeo,76125,20.6334840,-100.4110442
186,Ciprés Europeo,76125,20.6334723,-100.4108936
32,Itzcoatl,76125,20.6285935,-100.4086474
4,Itzcoatl,76125,20.6286490,-100.4080755
499,Paseo Constitución,76125,20.6305881,-100.4101959
503,Avenida Paseo de la Constitución,76125,20.6306856,-100.4104352
90,Avenida Paseo de la Constitución,76125,20.6288938,-100.4085189
85,Avenida Plateros,76148,20.6330879,-100.3957748
111,Avenida Plateros,76148,20.6344359,-100.3957265
119,Avenida Plateros,76148,20.6347899,-100.3957061
83,Avenida Plateros,76148,20.6329351,-100.3957749
89,Avenida Plateros,76148,20.6333646,-100.3957748
99,Avenida Plateros,76148,20.6337288,-100.3957747
101,Avenida Plateros,76148,20.6340149,-100.3957507
201,Playa Rincón,76160,20.6253385,-100.4083260
229,Playa Rincón,76160,20.6252595,-100.4092528
109,Calle Paseo de Jurica,76100,20.6477566,-100.4347464
1,Privada Técnicos,76148,20.6347440,-100.3961958
100,Obreros,76148,20.6337058,-100.3965500
101,Obreros,76148,20.6332708,-100.3968523
103,Obreros,76148,20.6339478,-100.3968181
112,Obreros,76148,20.6340551,-100.3965166
119,Obreros,76148,20.6346723,-100.3967725
121,Privada Técnicos,76148,20.6347689,-100.3960502
122,Obreros,76148,20.6347037,-100.3964634
47,Técnicos,76148,20.6347815,-100.3958379
51,Técnicos,76148,20.6347779,-100.3959309
55,Técnicos,76148,20.6347316,-100.3963546
57,Obreros,46148,20.6314390,-100.3969440
85,Obreros,76148,20.6331726,-100.3968563
86,Obreros,76148,20.6329721,-100.3965612
93,Obreros,76148,20.6336988,-100.3968424
101,Obreros,76148,20.6338644,-100.3968321
86,Plomeros,76148,20.6337648,-100.3982384
200,Avenida Plateros,76148,20.6351434,-100.3954365
133,Avenida Plateros,76148,20.6375759,-100.3953360
51,Cocineras,76148,20.6385856,-100.3992077
80,Calle Plomeros,76148,20.6338113,-100.3976870
10,Fundidores,46148,20.6309470,-100.3974420
10,Privada Técnicos,76148,20.6342681,-100.3960830
100,Plomeros,76148,20.6337047,-100.3989814
101,Plomeros,76148,20.6335089,-100.3989770
11,Privada Técnicos,76148,20.6342722,-100.3962393
113,Plomeros,76148,20.6334348,-100.3997828
118,Plomeros,76148,20.6336346,-100.3997828
12,Privada Técnicos,76148,20.6343969,-100.3960671
13,Fundidores,46148,20.6309259,-100.3976457
13,Privada Técnicos,76148,20.6341239,-100.3960962
137,Avenida Plateros,76148,20.6379419,-100.3952819
141,Avenida Plateros,76148,20.6380992,-100.3952570
147,Avenida Plateros,76148,20.6361687,-100.3955366
15,Electricistas,76148,20.6330100,-100.4000231
15,Privada Técnicos,76148,20.6341094,-100.3962327
16,Electricistas,76148,20.6326520,-100.3998872
16,Privada Técnicos,76148,20.6345164,-100.3960561
160,Avenida Plateros,76148,20.6392718,-100.3950404
17,Electricistas,76148,20.6331033,-100.4000231
170,Avenida Plateros,76148,20.6394758,-100.3950964
170,Campesinos,76148,20.6397421,-100.3984684
178,Campesinos,76148,20.6399605,-100.3984331
187,Avenida Plateros,76148,20.6384681,-100.3951836
189,Avenida Plateros,76148,20.6386397,-100.3951573
191,Avenida Plateros,76148,20.6388432,-100.3951873
197,Avenida Plateros,76148,20.6392397,-100.3953144
200 B,Cocineras,76148,20.6387403,-100.3993081
200 C,Cocineras,76148,20.6387229,-100.3997319
200,Cocineras,76148,20.6387145,-100.4001044
202,Avenida Plateros,76148,20.6352643,-100.3954208
203,Campesinos,76148,20.6389599,-100.3984754
206,Avenida Plateros,76148,20.6354652,-100.3954010
21,Fundidores,46148,20.6308992,-100.3979040
212,Avenida Plateros,76148,20.6357834,-100.3953697
216,Avenida Plateros,76148,20.6360528,-100.3953394
217,Campesinos,76148,20.6394463,-100.3984721
22,Fundidores,46148,20.6310576,-100.3979152
227,Avenida Plateros,76148,20.6374200,-100.3953640
240,Avenida Plateros,76148,20.6375979,-100.3950739
242,Avenida Plateros,76148,20.6373332,-100.3951235
246,Avenida Plateros,76148,20.6378603,-100.3950266
28,Electricistas,76148,20.6331475,-100.3998598
288,Avenida Plateros,76148,20.6399065,-100.3951750
30,Electricistas,76148,20.6333638,-100.3998414
42,Cima,76148,20.6401799,-100.3961209
42,Cocineras,76148,20.6385879,-100.3985986
44,Cima,76148,20.6402025,-100.3962354
44,Plomeros,76148,20.6339698,-100.3959206
45,Plomeros,76148,20.6338036,-100.3958831
48,Plomeros,76148,20.6338501,-100.3970916
5,Electricistas,46148,20.6320808,-100.4000940
5,Fundidores,46148,20.6309723,-100.3971970
5,Fundidores,46148,20.6311235,-100.3973609
50,Cocineras,76148,20.6385913,-100.3988296
52,Cima,76148,20.6402746,-100.3965569
52,Plomeros,76148,20.6339430,-100.3962714
53,Cima,76148,20.6400789,-100.3965723
53,Plomeros,76148,20.6337672,-100.3962338
54,Plomeros,76148,20.6339307,-100.3963486
56,Cima,76148,20.6403287,-100.3968390
57,Plomeros,76148,20.6337427,-100.3964700
58,Jardineros,76148,20.6319019,-100.3970384
59,Jardineros,76148,20.6316833,-100.3970073
6,Fundidores,46148,20.6310955,-100.3975961
61,Plomeros,76148,20.6336830,-100.3969653
64,Cima,76148,20.6404200,-100.3972960
65,Jardineros,76148,20.6316492,-100.3973968
66,Jardineros,76148,20.6318619,-100.3974715
7,Electricistas,76148,20.6327554,-100.4000274
7,Privada Técnicos,76148,20.6344298,-100.3962256
72,Cima,76148,20.6404773,-100.3975830
72,Plomeros,76148,20.6338287,-100.3974062
79,Jardineros,76148,20.6315968,-100.3981887
79,Plomeros,76148,20.6336163,-100.3977082
8,Electricistas,46148,20.6321391,-100.3998994
8,Fundidores,46148,20.6309632,-100.3972856
80,Cima,76148,20.6405369,-100.3978812
80,Jardineros,76148,20.6317716,-100.3982218
81,Plomeros,76148,20.6336096,-100.3979327
82,Plomeros,76148,20.6337847,-100.3980252
84,Jardineros,76148,20.6317505,-100.3984577
85,Cocineras,76148,20.6385321,-100.3999922
85,Jardineros,76148,20.6315829,-100.3984157
88,Cima,76148,20.6405883,-100.3981380
9,Fundidores,46148,20.6310775,-100.3977478
93,Plomeros,76148,20.6335392,-100.3987729
95,Plomeros,76148,20.6335611,-100.3984802
98,Plomeros,76148,20.6337155,-100.3987649
131,Avenida Plateros,76148,20.6375205,-100.3953437
18,Electricistas,76148,20.6327984,-100.3998791
60,Cima,76148,20.6403601,-100.3969962
6,Juárez Norte,76000,20.5938350,-100.3926626
35,Juárez Norte,76000,20.5948063,-100.3932940
39,Juárez Norte,76000,20.5935435,-100.3927863
24,Juárez Sur,76000,20.5915353,-100.3918735
113,Juárez Norte,76000,20.5961282,-100.3938324
1,Juárez Norte,76000,20.5925805,-100.3923779
115,Juárez Norte,76000,20.5961865,-100.3938552
12,Juárez Sur,76000,20.5920990,-100.3921338
123,Juárez Norte,76000,20.5965919,-100.3940138
20,Juárez Norte,76000,20.5940710,-100.3927759
24,Juárez Norte,76000,20.5946012,-100.3930030
25,Juárez Norte,76000,20.5931189,-100.3925961
3,Juárez Sur,76000,20.5921634,-100.3919262
34,Juárez Sur,76000,20.5913769,-100.3918004
4,Juárez Norte,76000,20.5936017,-100.3925719
40,Juárez Norte,76000,20.5950730,-100.3931886
50,Calle Benito Juárez Norte,76000,20.5955854,-100.3933842
53,Juárez Norte,76000,20.5940995,-100.3930056
7,Juárez Sur,76000,20.5920016,-100.3918525
71,Juárez Norte,76000,20.5945580,-100.3931873
74,Juárez Norte,76000,20.5966277,-100.3937824
79,Juárez Norte,76000,20.5951942,-100.3934671
97,Juárez Norte,76000,20.5954923,-100.3935837
18,Juárez Norte,76000,20.5939915,-100.3927504
37,Juárez Norte,76000,20.5934620,-100.3927536
26,Luis Pasteur,76000,20.5921655,-100.3888279
29,Luis Pasteur,76000,20.5921893,-100.3886149
37,Luis Pasteur,76000,20.5917698,-100.3882628
40,Luis Pasteur,76000,20.5916821,-100.3884167
48,Luis Pasteur,76000,20.5910553,-100.3878692
48,Luis Pasteur,76000,20.5913966,-100.3881738
49,Luis Pasteur,76000,20.5913586,-100.3879177
50,Luis Pasteur,76000,20.5908403,-100.3877171
51,Luis Pasteur,76000,20.5911039,-100.3876775
53,Luis Pasteur,76000,20.5910506,-100.3876212
55,Luis Pasteur,76000,20.5909447,-100.3875290
75,Luis Pasteur,76000,20.5904151,-100.3870639
76,Luis Pasteur,76000,20.5902507,-100.3871842
77,Luis Pasteur,76000,20.5902315,-100.3869274
10,San Luis Potosí,76058,20.5884023,-100.3856913
11,San Luis Potosí,76058,20.5887216,-100.3856170
17,San Luis Potosí,76058,20.5883738,-100.3854598
20,San Luis Potosí,76058,20.5880118,-100.3855487
3,San Luis Potosí,76058,20.5889603,-100.3857224
30,San Luis Potosí,76058,20.5875993,-100.3853833
31,San Luis Potosí,76058,20.5877205,-100.3852305
7,San Luis Potosí,76058,20.5888524,-100.3856734
705,Pie de la Cuesta,76130,20.6231763,-100.4060530
701,Pie de la Cuesta,76130,20.6229703,-100.4060148
703,Pie de la Cuesta,76130,20.6230993,-100.4060387
16,Encino,76160,20.6079347,-100.3818382
18,Encino,76160,20.6077944,-100.3816756
2,Encino,76160,20.6083676,-100.3823355
20,Encino,76160,20.6075465,-100.3814030
22,Encino,76160,20.6071803,-100.3809987
24,Encino,76160,20.6073861,-100.3812196
9200-A,Av. 5 de Febrero,76100,20.6493001,-100.4322889
9100,Av. 5 de Febrero,76127,20.6503743,-100.4327287
24,16 de Septiembre,76000,20.5930866,-100.3936638
9200,Av. 5 de Febrero,76127,20.6490652,-100.4325915
8,Roberto Barrios,76020,20.5755074,-100.4020222
101,Playa Escondida,73130,20.6228080,-100.4077460
102,Playa Cancún,73130,20.6219310,-100.4093267
102,Playa Escondida,73130,20.6229264,-100.4081514
119,Playa Cuyutlán,73130,20.6225441,-100.4092707
129,Playa Cuyutlán,73130,20.6228647,-100.4093407
130,Playa Cancún,73130,20.6228110,-100.4095401
132,Playa Encantada,73130,20.6230250,-100.4092915
132,Playa Escondida,73130,20.6227115,-100.4091401
141,Playa Escondida,73130,20.6225220,-100.4090879
142,Playa Encantada,73130,20.6229651,-100.4095792
197,Calle Miguel Hidalgo,76010,20.5899890,-100.4059730
176,Avenida Corregidora,76000,20.5881716,-100.3897829
702,Pie de la Cuesta,76130,20.6235531,-100.4055829
23,Boulevard Bernardo Quintana,76160,20.6069463,-100.3785689
322,Hacienda Grande,76180,20.5721967,-100.4112932
s/n,Av. 24 Lomas de Casablanca,760080,20.5665021,-100.3893108
320 int 1,Camino Real de Carretas,76060,20.5959911,-100.3525348
36 local 2,Senda del Amanecer,76060,20.5927298,-100.3469827
16,5 de Mayo,76000,20.5930194,-100.3904598
58-66,Avenida Universidad,76000,20.5981789,-100.3917597
104,Mariano Escobedo,76000,20.5959752,-100.3973330
405,Pie de la Cuesta,76130,20.6206166,-100.4056388
1415,De Los Gobernadores,76130,20.5525515,-100.3742067
35,Diamante,76168,20.6055550,-100.3969639
"101,Casa Blanca",Av.Constituyentes,76030,20.5826926,-100.3960841
"1303,Colonia Carrillo Puerto",Av.5 de febrero,76138,20.6069198,-100.4188045
22,Cerro de la Bufa,76090,20.5666113,-100.3715152
32,Avenida del Olmo,76160,20.6069051,-100.3808681
10,J. Encarnación Cabrera,76000,20.5851320,-100.3924219
96,Acceso No. 3,76120,20.6284344,-100.4343157
131,Avenida Universidad,76005,20.5961376,-100.4008604
2107,Autopista MX-Querétaro,76030,20.5770659,-100.3889380
2920,Avenida Fray Luis de León,76090,20.5724555,-100.3690280
410,Luis M. Vega y Monroy,76030,20.5772894,-100.3725010
57,Regules,76000,20.5921176,-100.4036776
156-28,Costureras,76148,20.6448505,-100.4024366
71,Guerrero,76000,20.5871880,-100.3935624
68-D,Avenida Corregidora,76160,20.6000387,-100.3937247
1,Avenida Constituyentes,76057,20.5872264,-100.3857272
4,San Juan,76058,20.5901273,-100.3807173
20,Calle Portal de la Alegría,76148,20.6496225,-100.3966499
220,Playa Erizo,76160,20.6250800,-100.4093436
10,Paseo Constitución,76125,20.6290950,-100.4073967
302,Camino Real de Carretas,76060,20.5958936,-100.3536160
2 interior 101,Avenida del Olmo,76160,20.6081258,-100.3793213
709 local S,Boulevard Hacienda El Jacal,76180,20.5683849,-100.4126917
70,Calle Reforma,76000,20.5911295,-100.3879525
105,Plutarco Elías Calles,76134,20.6078721,-100.4396055
105,Plutarco Elías Calles,76134,20.6079233,-100.4395949
4096,Avenida Cerro del Sombrerete,76148,20.6486750,-100.4158413
48,Calle Aquiles Serdán,76157,20.6069181,-100.4024005
127,Calle Plan de Ayala Poniente,76157,20.6074435,-100.4013573
2,Calle Alejandrina,76157,20.6061451,-100.3996405
37,Luis Moya,76168,20.6031377,-100.3948536
101,Calle Playa Tomatlán,76130,20.6223835,-100.4072488
134,Calle Playa Langosta,76130,20.6227730,-100.4071801
3-D,Calle Ángela Peralta,76000,20.5945557,-100.3926741
17,Calle Manuel Gutiérrez Nájera,76020,20.5940376,-100.3851422
971,Avenida Paseo Constitución,76125,20.6325707,-100.4151687
956,Avenida Paseo Constitución,76125,20.6339781,-100.4165654
73B Pte,Avenida Constituyentes,76030,20.5810927,-100.3976843
27,Campesinos,76148,20.6330396,-100.3990106
39,Campesinos,76148,20.6337837,-100.3989640
44,Campesinos,76148,20.6341672,-100.3987192
61,Campesinos,76148,20.6348425,-100.3988737
78,Campesinos,76148,20.6358885,-100.3985186
77,Campesinos,76148,20.6359312,-100.3987411
84,Campesinos,76148,20.6362209,-100.3984870
112,Campesinos,76148,20.6378586,-100.3983646
110,Campesinos,76148,20.6376364,-100.3984053
22,Privada Campesinos,76148,20.6380659,-100.3981894
1,Privada Campesinos,76148,20.6379105,-100.3977364
20,Campesinos,76148,20.6328336,-100.3988272
54,Campesinos,76148,20.6347615,-100.3986681
81,Campesinos,76148,20.6361895,-100.3987223
46,Campesinos,76148,20.6338788,-100.3987618
50,Campesinos,76148,20.6343947,-100.3987122
109,Campesinos,76148,20.6375734,-100.3986098
67,Campesinos,76148,20.6351607,-100.3988207
105,Campesinos,76148,20.6377238,-100.3986175
18,Privada Campesinos,76148,20.6380905,-100.3979674
127,Calle Playa Tomatlán,76130,20.6231931,-100.4074466
125,Calle Playa Tomatlán,76130,20.6231308,-100.4074314
123,Calle Playa Tomatlán,76130,20.6230685,-100.4074162
121,Calle Playa Tomatlán,76130,20.6230062,-100.4074010
119,Calle Playa Tomatlán,76130,20.6229440,-100.4073857
117,Calle Playa Tomatlán,76130,20.6228817,-100.4073705
115,Calle Playa Tomatlán,76130,20.6228194,-100.4073553
113,Calle Playa Tomatlán,76130,20.6227571,-100.4073401
111,Calle Playa Tomatlán,76130,20.6226949,-100.4073249
109,Calle Playa Tomatlán,76130,20.6226326,-100.4073097
107,Calle Playa Tomatlán,76130,20.6225703,-100.4072944
105,Calle Playa Tomatlán,76130,20.6225080,-100.4072792
103,Calle Playa Tomatlán,76130,20.6224458,-100.4072640
129,Calle Playa Tomatlán,76130,20.6232554,-100.4074618
222,Calle Playa San Blas,76130,20.6231262,-100.4071856
220,Calle Playa San Blas,76130,20.6231401,-100.4071198
218,Calle Playa San Blas,76130,20.6231541,-100.4070541
216,Calle Playa San Blas,76130,20.6231680,-100.4069884
214,Calle Playa San Blas,76130,20.6231819,-100.4069227
212,Calle Playa San Blas,76130,20.6231959,-100.4068570
210,Calle Playa San Blas,76130,20.6232098,-100.4067913
208,Calle Playa San Blas,76130,20.6232237,-100.4067256
206,Calle Playa San Blas,76130,20.6232377,-100.4066598
131,Calle Playa San Blas,76130,20.6229569,-100.4071456
129,Calle Playa San Blas,76130,20.6229697,-100.4070801
127,Calle Playa San Blas,76130,20.6229825,-100.4070147
125,Calle Playa San Blas,76130,20.6229953,-100.4069493
123,Calle Playa San Blas,76130,20.6230081,-100.4068838
121,Calle Playa San Blas,76130,20.6230209,-100.4068184
119,Calle Playa San Blas,76130,20.6230337,-100.4067529
117,Calle Playa San Blas,76130,20.6230465,-100.4066875
115,Calle Playa San Blas,76130,20.6230593,-100.4066220
113,Calle Playa San Blas,76130,20.6230721,-100.4065566
111,Calle Playa San Blas,76130,20.6230849,-100.4064911
109,Calle Playa San Blas,76130,20.6230977,-100.4064257
107,Calle Playa San Blas,76130,20.6231105,-100.4063602
105,Calle Playa San Blas,76130,20.6231233,-100.4062948
204,Calle Playa San Blas,76130,20.6232516,-100.4065941
224,Calle Playa San Blas,76130,20.6231123,-100.4072513
103,Calle Playa San Blas,76130,20.6231361,-100.4062293
133,Calle Playa San Blas,76130,20.6229441,-100.4072110
45,Avenida Moctezuma,76130,20.6281529,-100.4055829
2,Calle Marte,76000,20.6016712,-100.3855194
183,Calle Miguel Hidalgo,76000,20.5906766,-100.4043031
72b,Pathe,76020,20.5995590,-100.3759770
328,Avenida Senda Eterna,76060,20.5986627,-100.3468169
42,Avenida Universidad,76000,20.5983782,-100.3926696
501A,Avenida 6,76080,20.5735105,-100.3890174
27-C,Andador 16 de Septiembre,76000,20.5942455,-100.3906783
11-C,Calle Molino del Rey,76010,20.5872182,-100.4106510
122,Avenida del Parque,76074,20.5700881,-100.3821583
9200,Avenida 5 de Febrero,76100,20.6488422,-100.4332264
7,Calle José María Pino Suárez,76000,20.5909361,-100.3920574
315,Calle Hacienda del Vegil,76180,20.5749446,-100.4135241
407,Calle Hacienda La Muralla,76180,20.5762210,-100.4105665
221,Avenida Colinas del Cimatario,76090,20.5650957,-100.3695656
501,Avenida Fray Luis de León,76090,20.5596045,-100.3622677
138,Rio Yaqui,76130,20.6205948,-100.4067066
7,Avenida Primavera Oriente,76165,20.6003763,-100.3942918
1,Avenida Primavera Oriente,76165,20.6003557,-100.3947830
26,Calle Pípila,76168,20.6025952,-100.3937611
19,Calle Pípila,76168,20.6027547,-100.3937638
15,Calle Pípila,76168,20.6026844,-100.3938577
22,Calle Pípila,76168,20.6025337,-100.3938510
14,Calle Pípila,76168,20.6024220,-100.3939676
11,Calle Pípila,76168,20.6025086,-100.3940548
12,Calle Pípila,76168,20.6023605,-100.3940052
5,Calle Pípila,76168,20.6024120,-100.3942030
2,Calle Pípila,76168,20.6021258,-100.3941152
5,Luis Moya,76168,20.6020517,-100.3942667
9,Luis Moya,76168,20.6021935,-100.3943861
20,Luis Moya,76168,20.6023856,-100.3943485
15,Luis Moya,76168,20.6024961,-100.3945389
28,Luis Moya,76168,20.6026655,-100.3944840
34,Luis Moya,76168,20.6028011,-100.3945497
29,Luis Moya,76168,20.6028764,-100.3947321
40,Luis Moya,76168,20.6029618,-100.3946422
48,Luis Moya,76168,20.6031288,-100.3947307
20,Avenida Primavera Oriente,76165,20.6003268,-100.3931536
37,Avenida Primavera Oriente,76165,20.6004285,-100.3931402
35,Avenida Primavera Oriente,76165,20.6004221,-100.3933783
33,Avenida Primavera Oriente,76165,20.6004205,-100.3934353
31,Avenida Primavera Oriente,76165,20.6004160,-100.3935955
60,Avenida Galeana,76160,20.6041518,-100.3886193
83,Avenida Galeana,76160,20.6043091,-100.3885895
156,Calle Plan de Ayala Oriente,76168,20.6067893,-100.3910534
119,Calle Plan de Ayala Oriente,76168,20.6065784,-100.3910400
149,Calle Plan de Ayala Oriente,76168,20.6067885,-100.3911224
117,Calle Plan de Ayala Oriente,76168,20.6065836,-100.3912117
113,Calle Plan de Ayala Oriente,76168,20.6065884,-100.3913713
146,Calle Plan de Ayala Oriente,76168,20.6067855,-100.3913878
135,Calle Plan de Ayala Oriente,76168,20.6067830,-100.3916100
177,Calzada de los Arcos,76020,20.5984924,-100.3706597
47,Reforma,76000,20.5910410,-100.3884581
104,Reforma,76000,20.5918444,-100.3865063
49B,Calle Fraternidad,76157,20.6055615,-100.3999004
49A,Calle Fraternidad,76157,20.6055682,-100.3998281
142,Avenida Las Peñas,76158,20.6063105,-100.4061175
99-A,Avenida Plateros,76050,20.5932487,-100.3761420
16A LOCAL 6,Privada Ignacio Zaragoza,76000,20.5841264,-100.3998779
6,Calle Acceso 111,76121,20.6282835,-100.4141464
76230,"Carr a S.L.P, Exhacienda de Alvarado km. 8.5, Av. 5 de febrero norte 0, Zona Industrial, Benito Juárez",76230,20.6412769,-100.4294110
101-2,Avenida de la Acordada,76050,20.5894565,-100.3733511
4607-Local 13,Prol. Bernardo Quintana,76160,20.6105923,-100.3823416
75,Circuito Álamos,76160,20.6070864,-100.3829807
322,Avenida Corregidora,76160,20.6106776,-100.3868993
68,Circuito Álamos,76160,20.6063292,-100.3823364
4,P.º del Mesón,76100,20.6759553,-100.4516880
141,Calle Camelinas,76100,20.6777967,-100.4521672
700,Calle Paseo de Jurica,76100,20.6743245,-100.4535869
102,Av. 5 de Febrero,76100,20.6475982,-100.4336093
8751,Av. Acceso Jurica,76127,20.6479362,-100.4327912
C7A,Av. 5 de Febrero 9200,76127,20.6483799,-100.4320719
9200,Av. 5 de Febrero,76100,20.6484001,-100.4328512
9200,Avenida 5 de Febrero,76127,20.6490633,-100.4330230
67,Calle Camelinas,76100,20.6777779,-100.4508832
9200,Av. 5 de Febrero,76130,20.6490679,-100.4326384
147,Calle Camelinas,76100,20.6777677,-100.4512554
9200,Avenida 5 de Febrero,76127,20.6482773,-100.4327185
8,Calle Paseo del Mesón,76100,20.6763437,-100.4522191
4F,Calle Paseo del Mesón,76100,20.6759262,-100.4516016
62,Calzada de los Arcos,76050,20.5936670,-100.3762188
9750,Boulevard Bernardo Quintana,76090,20.5609089,-100.3584210
206,Hidalgo,76000,20.5914487,-100.4026992
57,Calle José María Pino Suárez,76000,20.5898061,-100.3956375
133,Calle Cerro de la Estrella,76090,20.5722095,-100.3707902
110,Calle Paseo de Jurica,76100,20.6480511,-100.4345129
110,Calle Paseo de Jurica,76100,20.6481917,-100.4343049
136,Calle Independencia,76000,20.5929307,-100.3854311
216,Calle Juan Caballero y Ocio,76020,20.5970956,-100.3808264
4,Calle Ignacio López Rayón,76165,20.5989222,-100.3895235
22,Calle Manuel Gutiérrez Nájera Sur,76020,20.5936049,-100.3852672
22,Calle Manuel Gutiérrez Nájera Sur,76020,20.5936142,-100.3851845
9670,Boulevard Bernardo Quintana,76090,20.5643357,-100.3591419
9200,Avenida 5 de Febrero,76127,20.6493514,-100.4325399
8,Andador 5 de Mayo,76000,20.5931553,-100.3909406
59,Calle de las Artes,76090,20.5869350,-100.3825961
9,Calle Miguel Hidalgo,76000,20.5940891,-100.3937041
73C,Avenida Universidad,76000,20.5986271,-100.3908044
127,Calle Reforma,76020,20.5917728,-100.3867896
114B,Avenida Universidad,76165,20.5995769,-100.3885612
175,Avenida Universidad,76028,20.6004371,-100.3869078
997,Prolongación Cuauhtémoc,76130,20.6341501,-100.4029721
9670,Boulevard Bernardo Quintana,76090,20.5641480,-100.3590080
8200,Boulevard Bernardo Quintana Arrioja,76090,20.5681449,-100.3597043
4113-4107,Sierra Morena,76117,20.6230387,-100.4761596
20,Av. Peñuelas,76148,20.6189448,-100.4014475
542,Boulevard Bernado Quintana,76140,20.6147172,-100.3860446
5,Colón,76000,20.5882846,-100.3899569
22,Independencia,76000,20.5913945,-100.3904984
5,Colón,76000,20.5881260,-100.3898856
1,Colón,76000,20.5885083,-100.3900697
236,Avenida Plateros,76148,20.6371227,-100.3951155
1050,Av. Pie de la Cuesta,76148,20.6427669,-100.4050017
104,Calle Infinito,76800,20.5510882,-100.3824068
815,Pie de la Cuesta,76130,20.6239576,-100.4062347
711,Pie de la Cuesta,76130,20.6237677,-100.4062102
709,Avenida Pie De La Cuesta,76130,20.6236731,-100.4061984
817,Pie de la Cuesta,76130,20.6241617,-100.4062587
813,Pie de la Cuesta,76130,20.6238605,-100.4062222
613,Pie de la Cuesta,76130,20.6234100,-100.4061363
107,Rio Tuxpan,76130,20.6188577,-100.4054503
13-19,Calle Damián Carmona,76020,20.6000265,-100.3842859
101,Avenida Tecnológico,76000,20.5928303,-100.4066176
S/N,Calle Pasteur Norte,76000,20.5943908,-100.3898393
500,Calle Epigmenio González,76130,20.6132886,-100.4059100
407,Cerro del Sombrerete,46121,20.6251903,-100.4126396
6D,Acceso 4,76120,20.6368020,-100.4354515
6B,Acceso 4,76120,20.6389511,-100.4348275
2,Manuel Tolsá,76000,20.5880295,-100.3907688
2,Manuel Tolsá,76000,20.5882473,-100.3910133
61,Prolongación Zaragoza,76170,20.5787428,-100.4123338
131,Paseos de san miguel tabachines,76116,20.6646807,-100.4681147
1412,5 de Febrero,76130,20.6104641,-100.4171260
155,Valle del Sol,76125,20.6334053,-100.4090624
34,Augustín Melgar,76010,20.5886066,-100.4064813
1058,Avenida Del Parque,76087,20.5595528,-100.3726858
103,Monte Horeb,76116,20.6430374,-100.4742788
7,Calle 2,76120,20.6281563,-100.4418706
417,Calle Choles,76116,20.6392757,-100.4691637
101,Primero de Mayo,76100,20.6801504,-100.4502680
416,Calle Arroyo,76138,20.6028285,-100.4352761
223,Calle Lago,76138,20.6025225,-100.4319340
219,Calle Arroyo,76138,20.6035657,-100.4323060
7,Calle Paseo del Mesón,76100,20.6769211,-100.4505251
S/N,Circuito Universitario,76010,20.5918129,-100.4125074
520,Río Blanco,76140,20.6264454,-100.3893245
8200,Boulevard Bernardo Quintana Arrioja,76090,20.5676840,-100.3609740
130,Fuerte del Muro,76750,20.6497099,-100.4157839
4060,Boulevard Bernardo Quintana,76125,20.6173535,-100.4074162
206,Hacienda Buena Vista,76180,20.5696532,-100.4087962
509,Calle 39,76080,20.5709000,-100.3960369
509 A,Calle 39,76080,20.5710150,-100.3960772
131,José Antonio de Murguía,76117,20.6227994,-100.4485216
129,José Antonio de Murguía,76117,20.6228215,-100.4484643
127,José Antonio de Murguía,76117,20.6228345,-100.4484039
125,José Antonio de Murguía,76117,20.6228444,-100.4483412
123,José Antonio de Murguía,76117,20.6228581,-100.4482790
121,José Antonio de Murguía,76117,20.6228682,-100.4482167
119,José Antonio de Murguía,76117,20.6228817,-100.4481550
117,José Antonio de Murguía,76117,20.6228920,-100.4480927
115,José Antonio de Murguía,76117,20.6229027,-100.4480310
113,José Antonio de Murguía,76117,20.6229134,-100.4479707
111,José Antonio de Murguía,76117,20.6229225,-100.4479101
109,José Antonio de Murguía,76117,20.6229349,-100.4478495
107,José Antonio de Murguía,76117,20.6229473,-100.4477882
105,José Antonio de Murguía,76117,20.6229595,-100.4477257
106,José Antonio de Murguía,76117,20.6227201,-100.4476605
108,José Antonio de Murguía,76117,20.6227101,-100.4477209
110,José Antonio de Murguía,76117,20.6226975,-100.4477827
112,José Antonio de Murguía,76117,20.6226881,-100.4478462
114,José Antonio de Murguía,76117,20.6226757,-100.4479077
116,José Antonio de Murguía,76117,20.6226664,-100.4479706
118,José Antonio de Murguía,76117,20.6226540,-100.4480326
120,José Antonio de Murguía,76117,20.6226422,-100.4480943
122,José Antonio de Murguía,76117,20.6226310,-100.4481547
124,José Antonio de Murguía,76117,20.6226182,-100.4482135
126,José Antonio de Murguía,76117,20.6226081,-100.4482746
128,José Antonio de Murguía,76117,20.6225979,-100.4483370
130,José Antonio de Murguía,76117,20.6225879,-100.4483978
8071,Avenida Fray Luis de León,76090,20.5595923,-100.3620900
5,Calle José María Arteaga,76000,20.5896094,-100.3913666
3,Calle José María Arteaga,76000,20.5897998,-100.3912419
1,Calle José María Arteaga,76000,20.5898766,-100.3910635
96,Calle Reforma,76000,20.5917392,-100.3867385
124,Calle Reforma,76000,20.5920076,-100.3860356
126,Calle Reforma,76000,20.5919985,-100.3858887
100,Calle Reforma,76000,20.5917939,-100.3866115
102,Calle Reforma,76000,20.5918268,-100.3865565
104,Calle Reforma,76000,20.5918428,-100.3865023
124,Calle Plomeros,76148,20.6337065,-100.4003016
303,Calle Galaxia,76080,20.5484699,-100.3808254
89,José María Arteaga,76000,20.5875762,-100.3959086
324,Calle Luis Chávez Orozco,76180,20.5622337,-100.4165404
1199,Avenida Cerro del Sombrerete,76125,20.6407934,-100.4167574
S/N,"Próspero, Cristobal Vega",76000,20.5951274,-100.3893855
1572,Calle Begonias,76057,20.6283837,-100.4525344
4,Calle Vicente Guerrero Norte,76000,20.5930923,-100.3953643
306,Calle Lirios,76100,20.6736103,-100.4527849
120_1,Avenida Universidad,76150,20.5949019,-100.4142028
57,Calle 16 de Septiembre,76000,20.5953422,-100.3889842
231,Avenida Paseo de la Reforma,76146,20.6111426,-100.3608819
157,Avenida Paseo de la Reforma,76146,20.6109032,-100.3652482
205,Avenida Paseo de la Reforma,76146,20.6109303,-100.3647290
206,Avenida Paseo de la Reforma,76146,20.6105726,-100.3636707
217,Avenida Paseo de la Reforma,76146,20.6109364,-100.3641308
219,Avenida Paseo de la Reforma,76146,20.6109157,-100.3640630
101,Calle Marqués de Casa Fuerte,76146,20.6101015,-100.3669015
119,Avenida Paseo de la Reforma,76146,20.6108105,-100.3670879
997,Prolongación Luis Pasteur,76085,20.5559679,-100.3829664
S/N,Boulevard Bernardo Quintana,76089,20.6184228,-100.4362963
139,Avenida Paseo de la Reforma,76146,20.6108561,-100.3662427
110,Calle Paseo de Jurica,76100,20.6484079,-100.4342956
112,Calle Paseo de Jurica,76100,20.6483827,-100.4346312
105,Calle Paseo de Jurica,76100,20.6473151,-100.4345526
70,Calle Fernando de Tapia,76000,20.5841243,-100.3950948
90,Prolongación Ignacio Zaragoza,76178,20.5797215,-100.4152164
9670,Boulevard Bernardo Quintana,76090,20.5640717,-100.3590258
997,Prolongación Cuauhtémoc,76130,20.6340914,-100.4031107
180,Avenida Universidad,76020,20.6005016,-100.3823111
52,Calle Joaquín Izcabalceta,76070,20.5744074,-100.3824766
2,Calle Marte,76000,20.6015376,-100.3850017
16,Calle Ángela Peralta,76000,20.5946941,-100.3914503
1500-A,Anillo Vial II Fray Junipero Serra,76140,20.6195369,-100.3840953
