House number,Street name,Postal code,Latitude,Longitude
17,улица Воровского,454092,55.1527979,61.3916482
112,улица Кирова,454091,55.1613666,61.4005239
101,улица Братьев Кашириных,454016,55.1781051,61.3447559
83А,улица Блюхера,454087,55.1232496,61.3643836
166,проспект Победы,454084,55.1846435,61.4004305
5,Курганская улица,454010,55.1478365,61.4356239
196,Российская улица,454091,55.1630675,61.4154117
68,проспект Ленина,454091,55.1602432,61.3763815
6,улица Пушкина,454091,55.1674492,61.4071902
44,улица Коммуны,454091,55.1638319,61.4090219
20А,улица 250-летия Челябинска,454021,55.1797303,61.2988958
66А,проспект Ленина,454080,55.1604097,61.3806337
141,улица Братьев Кашириных,454128,55.1706466,61.2995330
135,улица Братьев Кашириных,454128,55.1713377,61.3038472
135 к2,улица Братьев Кашириных,454128,55.1716078,61.3024787
135 к3,улица Братьев Кашириных,454128,55.1711001,61.3032023
137,улица Братьев Кашириных,454128,55.1704812,61.3026335
139,улица Братьев Кашириных,454128,55.1709409,61.3004319
126,улица Братьев Кашириных,454128,55.1736363,61.3032229
141А,улица Братьев Кашириных,454128,55.1703828,61.2991197
141А,улица Братьев Кашириных,454128,55.1702177,61.2993345
82,Копейское шоссе,454091,55.1484669,61.4467185
92,Комсомольский проспект,454100,55.1926583,61.2945861
305А,проспект Победы,454136,55.1880011,61.3082645
108,Комсомольский проспект,454100,55.1897868,61.2905341
107,Комсомольский проспект,454100,55.1884861,61.2908870
103А,Комсомольский проспект,454100,55.1904214,61.2954884
99А,улица Братьев Кашириных,454016,55.1781286,61.3482903
10,улица Правдухина,454071,55.1726640,61.4359041
12,улица Правдухина,454071,55.1727733,61.4365258
30А,улица Курчатова,454020,55.1529922,61.3855553
28,улица Энтузиастов,454080,55.1508858,61.3759627
9,улица Гагарина,454010,55.1417933,61.4429963
11,Электростальская улица,454030,55.2521573,61.3984113
11,Электростальская улица,454031,55.2521825,61.3987519
15,улица Гагарина,454010,55.1398217,61.4418136
14,Верхнеуральская улица,454048,55.1462014,61.3751095
222,Российская улица,454091,55.1559576,61.4170776
42,улица Энергетиков,454135,55.1350131,61.4579865
41,улица Энергетиков,454135,55.1353197,61.4593912
98,Линейная улица,454079,55.1593317,61.4883086
98,Линейная улица,454079,55.1589794,61.4880374
98,Линейная улица,454079,55.1595479,61.4884156
9,улица Татьяничевой,454080,55.1508623,61.3684253
22,улица 250-летия Челябинска,454021,55.1786881,61.2990032
164,улица Труда,454080,55.1697398,61.3760853
2А,улица Болейко,454084,55.1910167,61.4014924
161,проспект Победы,454084,55.1837703,61.3977300
162,проспект Победы,454084,55.1847015,61.4030288
164,проспект Победы,454084,55.1848241,61.4020253
66,проспект Ленина,454080,55.1603088,61.3786498
3,улица Северный Луч,454081,55.2150779,61.4298599
9,улица Гагарина,454010,55.1417895,61.4430601
7,Верхнеуральская улица,454048,55.1460870,61.3745071
12/1,улица Худякова,454048,55.1495609,61.3718132
32П,улица Героев Танкограда,454081,55.2175741,61.4359984
51,улица Энгельса,454080,55.1625248,61.3815754
35Д,улица Чичерина,454003,55.1757874,61.3024937
33Б,улица Молодогвардейцев,454021,55.1869835,61.3333548
27,улица Доватора,454048,55.1446307,61.3853912
1А,улица Молодогвардейцев,454021,55.2079007,61.3188583
64/2,Каслинская улица,454000,55.1738442,61.3896733
26,улица Тимирязева,454091,55.1584753,61.4108127
41А,улица Цвиллинга,454091,55.1558828,61.4071964
29,улица Тимирязева,454091,55.1574581,61.4091283
159,улица Кирова,454091,55.1645391,61.4013724
87,улица Коммуны,454091,55.1622890,61.3972523
22,Каслинская улица,454008,55.1916633,61.3904808
56,улица Энгельса,454008,55.1487727,61.3801750
13В,улица 50-летия ВЛКСМ,454025,55.2422975,61.3854497
7/1,улица Профессора Благих,454030,55.2097906,61.3121907
102,улица Героев Танкограда,454071,55.1764493,61.4486953
14,улица Бейвеля,454100,55.1941217,61.2807676
16,улица Энтузиастов,454080,55.1549794,61.3754201
5,площадь Революции,454091,55.1569134,61.4047423
15Г,улица Воровского,454092,55.1545737,61.3937768
75,улица Профессора Благих,454030,55.2171843,61.3005386
9А,улица Воровского,454092,55.1554392,61.3965531
64,Каслинская улица,454084,55.1734151,61.3911473
17,улица Воровского,454092,55.1528242,61.3916161
66А,улица Пушкина,454091,55.1571151,61.4096915
44,улица Энгельса,454080,55.1539092,61.3812432
69,Красная улица,454080,55.1590963,61.3940759
68,улица Молодогвардейцев,454136,55.1807303,61.3320946
46,улица Цвиллинга,454091,55.1561947,61.4060797
12 к1,улица Худякова,454048,55.1481134,61.3692562
5,улица Цвиллинга,454091,55.1671715,61.4039141
386Б,проспект Победы,454100,55.1850929,61.2955589
60,улица Свободы,454091,55.1624909,61.4108901
20А,Советская улица,454091,55.1658527,61.4056736
1Ж/5,Свердловский тракт,454008,55.2339071,61.3697872
203,улица Труда,454091,55.1716246,61.3550930
86,улица Кирова,454091,55.1664610,61.4001193
31,улица Академика Королёва,454004,55.1626167,61.2912979
60,улица Университетская Набережная,454128,55.1728840,61.3134303
46,улица Цвиллинга,454091,55.1563320,61.4062187
12,улица 60 лет Октября,454017,55.2646704,61.3977149
5А,3-й Томский переулок,454077,55.1880515,61.4698577
20Б,Троицкий тракт,454058,55.1211970,61.3869359
32,Механическая улица,454081,55.1925485,61.4296406
3,улица Наркома Малышева,454136,55.1753031,61.3263213
185,улица Свободы,454000,55.1431253,61.4154594
100,Комсомольский проспект,454100,55.1902068,61.2923911
45,улица Чичерина,454128,55.1715581,61.3084105
100,Комсомольский проспект,454100,55.1912099,61.2944773
112,улица Комарова,454071,55.1754762,61.4556586
27Б,улица Курчатова,454020,55.1523103,61.3826559
83/1,улица Энгельса,454080,55.1538117,61.3819685
50Б,Троицкий тракт,454053,55.1114389,61.3872790
133А/1,улица Комарова,454071,55.1761344,61.4599261
23,улица Марченко,454085,55.1668610,61.4599830
57,улица 40-летия Победы,454001,55.1748395,61.3149387
9,улица Карла Либкнехта,454080,55.1555705,61.3870127
55,улица Братьев Кашириных,454084,55.1733961,61.3960143
22,улица Карла Либкнехта,454080,55.1559199,61.3906171
44,улица Котина,454071,55.1766461,61.4424270
91,Новороссийская улица,454129,55.1155077,61.4470440
14,Кыштымская улица,454008,55.1849393,61.3912366
9А,Кыштымская улица,454008,55.1844673,61.3920212
81,улица Цвиллинга,454000,55.1455315,61.4142911
45А,улица Елькина,454091,55.1610481,61.3987559
10,Салютная улица,454071,55.1730101,61.4522408
61/1,Красноармейская улица,454091,55.1676001,61.4138944
77/1,улица Братьев Кашириных,454016,55.1765332,61.3744877
59,улица Цвиллинга,454091,55.1505907,61.4116510
11А,улица Мамина,454077,55.1956413,61.4814225
166,проспект Победы,454084,55.1850570,61.4003705
3,улица 60 лет Октября,454017,55.2642331,61.4015159
18,улица Марченко,454085,55.1710969,61.4601734
63,улица Энгельса,454080,55.1608885,61.3815724
54А,улица Молодогвардейцев,454136,55.1873214,61.3319507
90,3 интернационала,454091,55.1665709,61.4194489
64,Копейское шоссе,454135,55.1453237,61.4509062
1Б,Молдавская улица,454021,55.1904114,61.3027770
7,улица Молодогвардейцев,454138,55.2047661,61.3255257
25,улица Цвиллинга,454091,55.1648279,61.4050871
203,улица Труда,454091,55.1706627,61.3549158
21,Молдавская улица,454021,55.1920836,61.3050311
25 к.1,улица Цвиллинга,454091,55.1638224,61.4047375
102д/1,улица Братьев Кашириных,454001,55.1788400,61.3172688
102д/1,улица Братьев Кашириных,454001,55.1788518,61.3172671
115А,улица Карла Маркса,454091,55.1651083,61.3990794
151,улица Братьев Кашириных,454004,55.1668332,61.2955948
16,Кожзаводская улица,454084,55.1933675,61.3940182
174,улица Труда,454080,55.1715248,61.3653385
78,проспект Ленина,454091,55.1602240,61.3673847
80,проспект Ленина,454080,55.1599892,61.3662455
80А,проспект Ленина,454091,55.1608648,61.3655986
74Б,проспект Ленина,454080,55.1604952,61.3729534
72,проспект Ленина,454080,55.1605835,61.3750166
74,проспект Ленина,454080,55.1602156,61.3740152
81,проспект Ленина,454080,55.1591768,61.3731997
31,проспект Ленина,454091,55.1602799,61.4190701
29,проспект Ленина,454091,55.1602903,61.4206877
249,Российская улица,454091,55.1601697,61.4169665
128А,улица 3 Интернационала,454091,55.1597498,61.4202186
33А,проспект Ленина,454091,55.1596671,61.4179880
10,улица Тимирязева,454091,55.1591042,61.4170316
4,улица Тимирязева,454091,55.1589583,61.4204914
2,улица Тимирязева,454091,55.1592483,61.4212172
8,улица Тимирязева,454091,55.1588772,61.4178578
28,улица Тимирязева,454091,55.1584979,61.4078468
1,площадь Революции,454091,55.1592994,61.4042190
40,улица Цвиллинга,454091,55.1585857,61.4061346
21,улица Воровского,454048,55.1515196,61.3908132
20,улица Курчатова,454048,55.1506525,61.3907007
18,улица Курчатова,454048,55.1500832,61.3908572
16,улица Курчатова,454048,55.1496185,61.3914494
14,улица Курчатова,454048,55.1494235,61.3926921
12,улица Курчатова,454048,55.1487988,61.3930359
21Б,улица Воровского,454048,55.1513165,61.3915500
18А,улица Курчатова,454048,55.1508042,61.3914794
20А,улица Курчатова,454048,55.1510406,61.3926201
20Б,улица Курчатова,454048,55.1507038,61.3930859
16А,улица Курчатова,454048,55.1503282,61.3924516
23В,улица Воровского,454048,55.1508780,61.3940091
12А,улица Курчатова,454048,55.1491765,61.3938316
10,улица Курчатова,454048,55.1487044,61.3938225
8Б,улица Курчатова,454048,55.1482882,61.3939349
8,улица Курчатова,454048,55.1484236,61.3951931
6А,улица Курчатова,454048,55.1482700,61.3962460
6,улица Курчатова,454048,55.1477877,61.3956583
4,улица Курчатова,454048,55.1477404,61.3964371
19А,улица Воровского,454048,55.1519852,61.3920824
19А,улица Воровского,454092,55.1522749,61.3920288
9,улица Курчатова,454048,55.1479019,61.3921198
7,улица Курчатова,454048,55.1474643,61.3932487
30,улица Крупской,454048,55.1473467,61.3917596
75В,улица Сулимова,454048,55.1466340,61.3924121
71,улица Сулимова,454048,55.1457669,61.3914795
75,улица Сулимова,454048,55.1460264,61.3922295
73,улица Сулимова,454048,55.1463142,61.3914118
98,улица Сулимова,454048,55.1465966,61.3938074
96,улица Сулимова,454048,55.1458690,61.3929554
94А,улица Сулимова,454048,55.1453156,61.3935056
94Б,улица Сулимова,454048,55.1450228,61.3942493
94,улица Сулимова,454048,55.1453408,61.3925586
100,улица Сулимова,454048,55.1466210,61.3952793
98А,улица Сулимова,454048,55.1462224,61.3948188
4А,улица Курчатова,454048,55.1473264,61.3966306
2,улица Курчатова,454048,55.1475255,61.3977175
34,улица Доватора,454048,55.1432494,61.3908105
34А,улица Доватора,454048,55.1437602,61.3909692
34Б,улица Доватора,454048,55.1434925,61.3918151
94В,улица Сулимова,454048,55.1444250,61.3929286
92А,улица Сулимова,454048,55.1448178,61.3920684
92Б,улица Сулимова,454048,55.1443924,61.3912518
75А,улица Сулимова,454048,55.1468826,61.3915653
1Б,улица Блюхера,454048,55.1459165,61.3889519
14А,улица Курчатова,454048,55.1501629,61.3933255
23А,улица Воровского,454048,55.1516588,61.3925200
23Б,улица Воровского,454048,55.1516426,61.3935776
16 к1,улица Воровского,454048,55.1536086,61.3909018
16 к7,улица Воровского,454048,55.1542389,61.3902579
16 к8,улица Воровского,454048,55.1548547,61.3900487
16 к11,улица Воровского,454048,55.1553695,61.3902008
16А,улица Воровского,454091,55.1551113,61.3909763
16 к5Б,улица Воровского,454048,55.1548895,61.3927099
48,Красная улица,454091,55.1561628,61.3934780
42,Красная улица,454091,55.1568666,61.3934634
40,Красная улица,454091,55.1575628,61.3934096
18,улица Карла Либкнехта,454091,55.1561155,61.3927202
20,улица Карла Либкнехта,454091,55.1559951,61.3916632
20А,улица Карла Либкнехта,454091,55.1559472,61.3911205
22,улица Карла Либкнехта,454091,55.1560755,61.3905222
71,Свердловский проспект,454091,55.1561382,61.3896905
69,Свердловский проспект,454091,55.1568071,61.3898436
39,улица Сони Кривой,454091,55.1574354,61.3897799
37Б,улица Сони Кривой,454091,55.1571208,61.3902509
37А,улица Сони Кривой,454091,55.1574258,61.3909425
37,улица Сони Кривой,454091,55.1577553,61.3906243
35,улица Сони Кривой,454091,55.1577971,61.3916293
33,улица Сони Кривой,454091,55.1577751,61.3925108
35А,улица Сони Кривой,454091,55.1574320,61.3920917
40А,Красная улица,454091,55.1572509,61.3926443
33А,улица Сони Кривой,454091,55.1571846,61.3915764
44,Красная улица,454091,55.1566013,61.3920486
26,улица Сони Кривой,454091,55.1583352,61.3950897
69,Красная улица,454091,55.1590999,61.3940496
100,улица Васенко,454091,55.1591003,61.3958681
61А,проспект Ленина,454091,55.1592702,61.3952371
61Б,проспект Ленина,454091,55.1592565,61.3946794
63,улица Васенко,454091,55.1592928,61.3965101
59,проспект Ленина,454091,55.1597489,61.3967040
57,проспект Ленина,454091,55.1598937,61.3980328
2,улица Воровского,454091,55.1594156,61.3991416
65А,улица Васенко,454091,55.1591314,61.3975084
59,улица Елькина,454048,55.1579990,61.3989710
36,улица Тимирязева,454091,55.1577925,61.3999802
8,площадь Революции,454091,55.1579842,61.4006546
118,улица Кирова,454091,55.1585030,61.4006871
4,улица Сони Кривой,454091,55.1584707,61.3999919
116,улица Кирова,454091,55.1591934,61.4005020
1А,улица Воровского,454048,55.1587911,61.3994081
1,улица Воровского,454048,55.1591770,61.3998641
76,улица Елькина,454048,55.1563429,61.3982046
5А,улица Воровского,454048,55.1565671,61.3972162
7,улица Воровского,454048,55.1561261,61.3967258
9,улица Воровского,454048,55.1556622,61.3961683
76А,улица Елькина,454048,55.1558075,61.3977936
17,улица Воровского,454048,55.1529960,61.3921307
15,улица Воровского,454048,55.1539859,61.3933155
13А,улица Воровского,454048,55.1545795,61.3948785
84Г,улица Елькина,454048,55.1534530,61.3946904
84В,улица Елькина,454048,55.1533361,61.3954528
84Б,улица Елькина,454048,55.1532237,61.3962959
15А,улица Воровского,454048,55.1534613,61.3938353
17А,улица Воровского,454048,55.1531299,61.3931268
21А,улица Воровского,454048,55.1522315,61.3928693
84А,улица Елькина,454048,55.1531622,61.3971383
82,улица Елькина,454048,55.1535019,61.3979785
86,улица Елькина,454048,55.1523860,61.3979943
86А,улица Елькина,454048,55.1523714,61.3970073
90,улица Елькина,454048,55.1507047,61.3979773
90А,улица Елькина,454048,55.1506546,61.3970901
90Б,улица Елькина,454048,55.1506263,61.3961802
92А,улица Елькина,454048,55.1497860,61.3972294
92Б,улица Елькина,454048,55.1497793,61.3963135
92,улица Елькина,454048,55.1498402,61.3981077
96,улица Елькина,454048,55.1483294,61.3981974
94,улица Елькина,454048,55.1489675,61.3978467
88,улица Елькина,454048,55.1514970,61.3969825
88Б,улица Елькина,454048,55.1515771,61.3954800
17В,улица Воровского,454048,55.1518099,61.3947783
86Б,улица Елькина,454048,55.1523863,61.3955979
13Б,улица Воровского,454048,55.1543928,61.3956904
80,улица Елькина,454048,55.1543118,61.3981428
78,улица Елькина,454048,55.1551294,61.3982776
11,улица Воровского,454048,55.1552808,61.3949539
13,улица Воровского,454048,55.1548384,61.3945018
11А,улица Воровского,454048,55.1551910,61.3954780
80Б,улица Елькина,454048,55.1544334,61.3966039
24,улица Курчатова,454048,55.1515454,61.3878121
30,улица Курчатова,454048,55.1525225,61.3851505
28,улица Курчатова,454048,55.1520839,61.3857596
32,улица Курчатова,454048,55.1526344,61.3840266
34,улица Курчатова,454048,55.1532894,61.3835334
7,Южная улица,454048,55.1534444,61.3854880
9,Южная улица,454048,55.1534273,61.3846560
1,Южная улица,454048,55.1534468,61.3880635
3,Южная улица,454048,55.1534377,61.3872626
4,Южная улица,454048,55.1541705,61.3851108
4А,Южная улица,454048,55.1547779,61.3850539
4Б,Южная улица,454048,55.1553395,61.3850631
2,Южная улица,454048,55.1543934,61.3865718
2А,Южная улица,454048,55.1552453,61.3865162
83,улица Энгельса,454048,55.1537467,61.3822804
81,улица Энгельса,454048,55.1544672,61.3821940
26А,улица Воровского,454048,55.1525308,61.3877086
86,Свердловский проспект,454048,55.1533262,61.3889973
87,проспект Ленина,454080,55.1589419,61.3660198
87,проспект Ленина,454080,55.1584618,61.3649933
85,проспект Ленина,454080,55.1588685,61.3683306
9,улица Татьяничевой,454126,55.1510715,61.3683875
26,улица Образцова,454048,55.1457693,61.3698243
28,улица Образцова,454048,55.1457654,61.3690053
76,проспект Ленина,454080,55.1602968,61.3688569
139,улица Коммуны,454080,55.1614468,61.3725886
57,улица Сони Кривой,454048,55.1573106,61.3819563
75,улица Энгельса,454048,55.1566292,61.3820201
55,улица Сони Кривой,454048,55.1571945,61.3828504
53,улица Сони Кривой,454048,55.1571996,61.3836698
75А,улица Энгельса,454048,55.1564980,61.3833427
51А,улица Сони Кривой,454048,55.1570346,61.3845942
49А,улица Сони Кривой,454048,55.1570438,61.3854216
47,улица Сони Кривой,454048,55.1572975,61.3862797
45,улица Сони Кривой,454048,55.1573328,61.3870990
43,улица Сони Кривой,454048,55.1573470,61.3878871
51,улица Сони Кривой,454048,55.1576030,61.3843842
49,улица Сони Кривой,454048,55.1576324,61.3855441
47А,улица Сони Кривой,454048,55.1564314,61.3863597
32,улица Карла Либкнехта,454048,55.1558517,61.3861210
30,улица Карла Либкнехта,454048,55.1558761,61.3872683
82,Свердловский проспект,454048,55.1558969,61.3884840
80,Свердловский проспект,454048,55.1563573,61.3887680
78,Свердловский проспект,454048,55.1571317,61.3887066
41,улица Сони Кривой,454048,55.1576750,61.3885054
34,улица Карла Либкнехта,454048,55.1562139,61.3855346
36,улица Карла Либкнехта,454048,55.1562009,61.3845960
9А,улица Татьяничевой,454126,55.1510780,61.3691252
15А,улица Смирных,454126,55.1511965,61.3698762
13А,улица Смирных,454126,55.1512085,61.3707081
27,Тернопольская улица,454126,55.1511489,61.3714331
9А,улица Смирных,454126,55.1512019,61.3722882
204,Российская улица,454090,55.1592868,61.4157645
206,Российская улица,454091,55.1590187,61.4157663
6,улица Тимирязева,454091,55.1592788,61.4190909
68,улица Свободы,454091,55.1602012,61.4110709
26,улица Тимирязева,454091,55.1585163,61.4108310
72,улица Свободы,454091,55.1593012,61.4113262
208,Российская улица,454091,55.1588371,61.4158232
82,проспект Ленина,454080,55.1601712,61.3650537
78А,проспект Ленина,454091,55.1605393,61.3665524
147,улица Коммуны,454091,55.1612720,61.3663969
151,улица Коммуны,454091,55.1617161,61.3658495
149,улица Коммуны,454091,55.1616332,61.3663811
145,улица Коммуны,454091,55.1615004,61.3673023
78В,проспект Ленина,454091,55.1608406,61.3674070
78Б,проспект Ленина,454091,55.1608837,61.3666724
76А,проспект Ленина,454091,55.1608994,61.3683066
149,улица Коммуны,454091,55.1614446,61.3682747
141 к1,улица Коммуны,454091,55.1617765,61.3701772
141,улица Коммуны,454091,55.1616225,61.3715345
3,Лесопарковая улица,454126,55.1576591,61.3650936
62,улица Сони Кривой,454048,55.1577579,61.3664389
60,улица Сони Кривой,454048,55.1576425,61.3679054
4,Тернопольская улица,454048,55.1579236,61.3695002
83,проспект Ленина,454080,55.1585552,61.3717269
79Б,проспект Ленина,454080,55.1586198,61.3733018
79,проспект Ленина,454080,55.1589838,61.3746459
6,улица Энтузиастов,454048,55.1586746,61.3752133
8,улица Энтузиастов,454048,55.1578990,61.3752382
52,улица Сони Кривой,454048,55.1576755,61.3747427
7,улица Энтузиастов,454048,55.1582355,61.3760379
50,улица Сони Кривой,454048,55.1577774,61.3768608
54,улица Сони Кривой,454048,55.1578698,61.3732390
6А,улица Энтузиастов,454048,55.1581330,61.3743312
60А,улица Сони Кривой,454048,55.1579636,61.3673694
79,улица Сони Кривой,454048,55.1571388,61.3718058
77,улица Сони Кривой,454048,55.1566125,61.3720812
75,улица Сони Кривой,454048,55.1570706,61.3732033
75А,улица Сони Кривой,454048,55.1565748,61.3732252
7,Лесопарковая улица,454080,55.1555938,61.3654229
6,Тернопольская улица,454080,55.1558953,61.3700484
7А,Лесопарковая улица,454080,55.1562002,61.3684782
3А,Лесопарковая улица,454048,55.1573324,61.3643349
83,улица Сони Кривой,454048,55.1570126,61.3685459
6,Тернопольская улица,454048,55.1570595,61.3696650
80,улица Коммуны,454080,55.1628240,61.3870615
19 к1,улица Курчатова,454048,55.1498932,61.3881203
19 к2,улица Курчатова,454048,55.1495412,61.3886382
17Б,улица Воровского,454048,55.1523905,61.3936195
5,улица Воровского,454048,55.1571393,61.3971823
35,проспект Ленина,454091,55.1601890,61.4156674
41А,проспект Ленина,454091,55.1598245,61.4136879
41,улица Воровского,454048,55.1496530,61.3872645
41А,улица Воровского,454048,55.1490441,61.3874884
41Б,улица Воровского,454048,55.1490018,61.3882124
43,улица Воровского,454048,55.1485243,61.3866991
45,улица Воровского,454048,55.1483228,61.3857341
47,улица Воровского,454048,55.1480201,61.3853240
49,улица Воровского,454048,55.1477879,61.3847210
51,улица Воровского,454048,55.1474272,61.3842014
53,улица Воровского,454048,55.1470417,61.3837070
55,улица Воровского,454048,55.1466135,61.3831306
48,улица Доватора,454048,55.1462713,61.3836404
44,улица Доватора,454048,55.1459931,61.3851033
42,улица Доватора,454048,55.1452391,61.3858111
2Б,улица Блюхера,454048,55.1453251,61.3868895
2В,улица Блюхера,454048,55.1459291,61.3877163
2Г,улица Блюхера,454048,55.1464957,61.3884170
2Е,улица Блюхера,454048,55.1476166,61.3891845
19А,улица Курчатова,454048,55.1486995,61.3891550
44,улица Крупской,454048,55.1480497,61.3881114
21,улица Крупской,454048,55.1473793,61.3882355
23,улица Крупской,454048,55.1474508,61.3873445
51А,улица Воровского,454048,55.1468958,61.3853649
27,улица Крупской,454048,55.1476406,61.3860086
23Б,улица Крупской,454048,55.1464445,61.3873753
42А,улица Доватора,454048,55.1458653,61.3857078
42Б,улица Доватора,454048,55.1461957,61.3862804
44А,улица Доватора,454048,55.1465260,61.3866096
30,улица Воровского,454048,55.1506734,61.3862003
34А,улица Воровского,454048,55.1504625,61.3853775
23,улица Курчатова,454048,55.1511817,61.3845920
95,улица Энгельса,454048,55.1523583,61.3816061
25А,улица Курчатова,454048,55.1510634,61.3835917
23А,улица Курчатова,454048,55.1506260,61.3844019
27А,улица Курчатова,454048,55.1514499,61.3824559
97,улица Энгельса,454048,55.1514066,61.3809307
97А,улица Энгельса,454048,55.1508293,61.3821760
97Б,улица Энгельса,454048,55.1507603,61.3810462
99,улица Энгельса,454048,55.1501897,61.3809817
101,улица Энгельса,454048,55.1495649,61.3810814
103,улица Энгельса,454048,55.1489352,61.3811506
99А,улица Энгельса,454048,55.1500777,61.3817116
101А,улица Энгельса,454048,55.1495510,61.3824544
99Б,улица Энгельса,454048,55.1500737,61.3827661
36Б,улица Воровского,454048,55.1501519,61.3836953
36А,улица Воровского,454048,55.1499154,61.3843439
34,улица Воровского,454048,55.1496938,61.3855945
36,улица Воровского,454048,55.1493095,61.3846577
38,улица Воровского,454048,55.1486913,61.3841313
38Б,улица Воровского,454048,55.1478608,61.3831773
38В,улица Воровского,454048,55.1482780,61.3819355
38А,улица Воровского,454048,55.1483768,61.3831445
38/2,улица Воровского,454048,55.1490779,61.3824636
191,улица Труда,454091,55.1680148,61.3697532
64,улица Пушкина,454091,55.1580593,61.4087584
141А,улица Свободы,454091,55.1594948,61.4137745
41,проспект Ленина,454091,55.1602217,61.4133285
30,улица Сони Кривой,454091,55.1581925,61.3914836
63,Свердловский проспект,454091,55.1588470,61.3895545
63А,Свердловский проспект,454091,55.1592506,61.3895608
61,Свердловский проспект,454091,55.1595292,61.3895182
65,проспект Ленина,454091,55.1596789,61.3913512
63,проспект Ленина,454091,55.1597371,61.3928558
38,Красная улица,454091,55.1590212,61.3928121
28,улица Сони Кривой,454091,55.1582928,61.3929877
71,Красная улица,454091,55.1585177,61.3941657
67,Красная улица,454091,55.1596449,61.3939916
53А,Свердловский проспект,454091,55.1664806,61.3896244
66,улица 3 Интернационала,454006,55.1703079,61.4193201
64,улица 3 Интернационала,454006,55.1707316,61.4192867
62,улица 3 Интернационала,454006,55.1711552,61.4192526
84А,Свердловский проспект,454048,55.1546169,61.3877830
9,улица Карла Либкнехта,454048,55.1554000,61.3874179
84,Свердловский проспект,454048,55.1554415,61.3882371
84,Свердловский проспект,454048,55.1550585,61.3887878
72,Свердловский проспект,454080,55.1591811,61.3885531
74,Свердловский проспект,454080,55.1586737,61.3885777
34,улица Сони Кривой,454048,55.1581570,61.3878939
69/1,проспект Ленина,454091,55.1595123,61.3868219
36,улица Сони Кривой,454048,55.1581506,61.3863333
38,улица Сони Кривой,454048,55.1580139,61.3853747
50,улица Володарского,454048,55.1587735,61.3850966
52,улица Володарского,454048,55.1587796,61.3862721
71А,проспект Ленина,454080,55.1593838,61.3822798
69А,улица Энгельса,454048,55.1587317,61.3832194
69,улица Энгельса,454048,55.1586925,61.3818377
42,улица Сони Кривой,454048,55.1579326,61.3827384
40,улица Сони Кривой,454048,55.1584075,61.3841391
71,улица Энгельса,454048,55.1580893,61.3818718
17,улица Володарского,454080,55.1634495,61.3865099
15,улица Володарского,454080,55.1640054,61.3868593
13,улица Володарского,454080,55.1645516,61.3864269
58,Свердловский проспект,454080,55.1630531,61.3880221
58,Свердловский проспект,454080,55.1636654,61.3881367
58А,Свердловский проспект,454080,55.1635506,61.3874638
52,Свердловский проспект,454080,55.1648019,61.3872303
50,Свердловский проспект,454080,55.1651997,61.3871159
18,улица Володарского,454080,55.1646370,61.3848134
20,улица Володарского,454080,55.1636678,61.3848654
10,улица 40-летия Победы,454100,55.1902263,61.2900711
7,улица Молодогвардейцев,454138,55.2047911,61.3272538
60А,улица Кирова,454084,55.1742245,61.3991194
46,улица Цвиллинга,454091,55.1564128,61.4060813
136,Артиллерийская улица,454007,55.1642021,61.4309359
51,Советская улица,454091,55.1631902,61.4067305
111/2,Артиллерийская улица,454007,55.1660051,61.4367303
80,улица Кирова,454091,55.1675526,61.3994828
28 к2,улица Горького,454091,55.1751506,61.4439282
20,Российская улица,454006,55.1915621,61.4112882
145,улица Свободы,454091,55.1575963,61.4133950
185,улица Чайковского,454016,55.1766181,61.3555990
185А,улица Чайковского,454016,55.1767557,61.3559750
9,улица Разина,454111,55.1399949,61.4136931
92,Комсомольский проспект,454100,55.1928032,61.2948492
16,Молдавская улица,454100,55.1905938,61.3032456
60,улица Пушкина,454091,55.1595875,61.4088252
60А,улица Пушкина,454091,55.1592708,61.4089458
62,улица Пушкина,454091,55.1589264,61.4089908
51,проспект Ленина,454091,55.1601118,61.4066273
49,проспект Ленина,454091,55.1601603,61.4078936
15Б,улица Энтузиастов,454048,55.1530120,61.3770751
348 с1,проспект Победы,454014,55.1901758,61.3201935
5А,улица Чичерина,454100,55.1892901,61.2860942
44,Троицкий тракт,454053,55.1142753,61.3877076
40А,Троицкий тракт,454053,55.1153472,61.3882014
40,Троицкий тракт,454053,55.1153077,61.3874150
42А,Троицкий тракт,454053,55.1148585,61.3881985
11к1,Троицкий тракт,454053,55.1104249,61.3845345
46,Троицкий тракт,454053,55.1137227,61.3875123
30,улица Володарского,454080,55.1611156,61.3859928
28,улица Володарского,454080,55.1619596,61.3859043
64А,проспект Ленина,454080,55.1615120,61.3842616
32,улица Володарского,454080,55.1605426,61.3853492
65,улица Энгельса,454080,55.1604633,61.3825148
64,проспект Ленина,454080,55.1607143,61.3838023
28,улица Энгельса,454080,55.1604021,61.3797845
66,проспект Ленина,454080,55.1605254,61.3782743
68,проспект Ленина,454091,55.1604830,61.3768065
133,улица Коммуны,454080,55.1620209,61.3776936
135,улица Коммуны,454080,55.1620037,61.3768350
1,улица Энтузиастов,454080,55.1610490,61.3758008
68А,проспект Ленина,454080,55.1611659,61.3770528
63,улица Энгельса,454080,55.1607944,61.3816595
61,улица Энгельса,454080,55.1614156,61.3815977
47Б,улица Энгельса,454080,55.1641183,61.3823814
45,улица Энгельса,454080,55.1644213,61.3815175
88,улица Коммуны,454080,55.1625284,61.3826462
86,улица Коммуны,454080,55.1625609,61.3840754
48,улица Клары Цеткин,454080,55.1630295,61.3832553
61А,улица Куйбышева,454138,55.1964312,61.3379040
30,улица Бажова,454074,55.1863202,61.4579245
34,улица Бажова,454074,55.1852684,61.4570897
36,улица Бажова,454074,55.1847674,61.4571500
38,улица Бажова,454074,55.1843229,61.4571289
40,улица Бажова,454074,55.1838914,61.4563466
42,улица Бажова,454074,55.1834607,61.4555954
3,1-й переулок Лермонтова,454074,55.1834992,61.4545964
13,3-я Арзамасская улица,454074,55.1866113,61.4566495
13,3-я Арзамасская улица,454074,55.1870226,61.4562476
36А,улица Бажова,454074,55.1855599,61.4558128
26,улица Бажова,454074,55.1871237,61.4584498
24,улица Бажова,454074,55.1868480,61.4596350
28,улица Бажова,454074,55.1867359,61.4581715
1,1-й переулок Лермонтова,454074,55.1845633,61.4538997
19,3-я Арзамасская улица,454074,55.1850315,61.4542904
17,3-я Арзамасская улица,454074,55.1854948,61.4550907
46,улица Бажова,454074,55.1830584,61.4515478
29,улица Героев Танкограда,454081,55.1819795,61.4461652
27А,улица Героев Танкограда,454081,55.1824851,61.4464843
27,улица Героев Танкограда,454081,55.1827358,61.4456725
25,улица Героев Танкограда,454081,55.1833009,61.4456316
50,улица Бажова,454074,55.1818386,61.4482067
50Б,улица Бажова,454074,55.1831873,61.4478328
50А,улица Бажова,454074,55.1824316,61.4483160
27Б,улица Героев Танкограда,454074,55.1826933,61.4474994
25Б,улица Героев Танкограда,454081,55.1836372,61.4472689
31,3-я Арзамасская улица,454074,55.1831677,61.4488920
23А,3-я Арзамасская улица,454074,55.1835695,61.4507055
33,3-я Арзамасская улица,454074,55.1836457,61.4482707
29,3-я Арзамасская улица,454074,55.1837779,61.4488992
27,3-я Арзамасская улица,454074,55.1839118,61.4495199
25,3-я Арзамасская улица,454074,55.1840157,61.4501402
124/2,Артиллерийская улица,454007,55.1667038,61.4324129
19,улица Энтузиастов,454048,55.1504180,61.3773864
5А,улица Труда,454091,55.1665237,61.4260242
7А,улица Труда,454091,55.1663494,61.4249225
82,Пермская улица,454091,55.1664363,61.4241279
82А,Пермская улица,454091,55.1658865,61.4241792
89,улица Коммуны,454091,55.1621533,61.3970848
28А,улица Цвиллинга,454091,55.1622490,61.4035547
65,Советская улица,454091,55.1620839,61.4069256
60,проспект Ленина,454091,55.1608514,61.3972227
45,улица Васенко,454091,55.1618500,61.3964750
87,улица Коммуны,454091,55.1621186,61.3977063
177,улица Кирова,454091,55.1609765,61.4012441
36,улица Цвиллинга,454091,55.1610376,61.4036621
52,проспект Ленина,454091,55.1609807,61.4054761
31,улица Цвиллинга,454091,55.1617419,61.4048280
38,Советская улица,454091,55.1614324,61.4061925
75,улица Коммуны,454091,55.1626753,61.4022239
70,улица Коммуны,454091,55.1633676,61.3948241
28,улица Цвиллинга,454091,55.1626012,61.4033354
69,улица Коммуны,454091,55.1627636,61.4088287
27А,улица Пушкина,454091,55.1639494,61.4098427
27,улица Пушкина,454091,55.1642475,61.4090583
25,улица Пушкина,454091,55.1647687,61.4092014
40,улица Свободы,454091,55.1647104,61.4102783
71,улица Коммуны,454091,55.1623965,61.4057667
27,улица Цвиллинга,454091,55.1624121,61.4048293
48,улица Пушкина,454091,55.1620593,61.4083594
50,проспект Ленина,454091,55.1608309,61.4077430
66,улица Свободы,454091,55.1612049,61.4109156
56,улица Пушкина,454091,55.1611600,61.4085585
59,улица Пушкина,454091,55.1611827,61.4092597
46,проспект Ленина,454091,55.1609610,61.4101134
48,проспект Ленина,454091,55.1608794,61.4093948
55,улица Пушкина,454091,55.1618608,61.4091894
45,Советская улица,454091,55.1645808,61.4066056
47,Советская улица,454091,55.1641322,61.4065969
30,улица Пушкина,454091,55.1646345,61.4083158
32,улица Пушкина,454091,55.1640595,61.4075373
9,улица Шота Руставели,454010,55.1384064,61.4434394
9,Отечественная улица,454078,55.1362280,61.4247292
122,Новороссийская улица,454046,55.1173714,61.4385217
4А,улица Шота Руставели,454135,55.1392751,61.4461626
3,улица Тухачевского,454010,55.1438987,61.4396945
3,улица Шота Руставели,454010,55.1375809,61.4450014
18,улица Гагарина,454010,55.1385340,61.4388189
96,улица Дзержинского,454010,55.1315544,61.4376161
18 к4,улица Гагарина,454010,55.1377656,61.4376576
1,Отечественная улица,454078,55.1375090,61.4259285
4,улица Коммунаров,454010,55.1437016,61.4379378
5,улица Шота Руставели,454010,55.1382017,61.4448908
9,улица Гагарина,454010,55.1418498,61.4431129
6,улица Шота Руставели,454135,55.1386284,61.4458573
3А,Отечественная улица,454078,55.1369014,61.4260298
63А,улица Энергетиков,454135,55.1372052,61.4497880
16,улица Гагарина,454010,55.1399631,61.4395055
65,улица Энергетиков,454135,55.1385268,61.4504321
3,Отечественная улица,454078,55.1372150,61.4253202
7,улица Шота Руставели,454010,55.1380370,61.4438939
10,улица Шота Руставели,454010,55.1391845,61.4422487
4,улица Шота Руставели,454135,55.1382978,61.4475527
1А,улица Вагнера,454078,55.1373787,61.4270451
65А,улица Энергетиков,454135,55.1380143,61.4490083
8,улица Шота Руставели,454010,55.1392055,61.4431153
7,Отечественная улица,454078,55.1367072,61.4250086
30,улица Агалакова,454078,55.1341206,61.4363118
92,улица Дзержинского,454010,55.1312420,61.4392756
18,улица Масленникова,454129,55.1198360,61.4575610
27,улица Машиностроителей,454129,55.1142292,61.4696460
1,Ереванская улица,454129,55.1125387,61.4666894
34,улица Машиностроителей,454129,55.1173073,61.4693632
17,улица Масленникова,454129,55.1177267,61.4594783
15,Батумская улица,454129,55.1165896,61.4665115
29,улица Машиностроителей,454139,55.1137442,61.4697617
32,улица Машиностроителей,454129,55.1177781,61.4699705
38,улица Машиностроителей,454129,55.1158339,61.4687356
15А,улица Масленникова,454129,55.1184022,61.4604705
20,Батумская улица,454129,55.1169001,61.4658838
26,улица Машиностроителей,454129,55.1193123,61.4708847
74,Новороссийская улица,454129,55.1127838,61.4630615
13,улица Масленникова,454129,55.1176501,61.4614435
6,улица Дзержинского,454119,55.1214096,61.4699140
8А,улица Масленникова,454129,55.1189908,61.4636874
112,Новороссийская улица,454129,55.1158033,61.4483074
21,улица Машиностроителей,454129,55.1164581,61.4712344
8,улица Масленникова,454129,55.1185750,61.4634278
88,Новороссийская улица,454129,55.1148223,61.4561858
6А,улица Нахимова,454119,55.1238061,61.4692787
44,улица Машиностроителей,454129,55.1139296,61.4675998
3,улица Масленникова,454129,55.1167725,61.4679500
24,улица Машиностроителей,454129,55.1198566,61.4712663
8В,улица Масленникова,454129,55.1198085,61.4641979
114,Новороссийская улица,454129,55.1159395,61.4476429
30,улица Машиностроителей,454129,55.1182651,61.4702721
40,улица Машиностроителей,454129,55.1152631,61.4683426
15,улица Масленникова,454129,55.1178529,61.4607093
17,улица Лизы Чайкиной,454129,55.1187522,61.4563779
29,Ереванская улица,454129,55.1149742,61.4560923
3А,улица Лизы Чайкиной,454135,55.1243912,61.4644088
66,Новороссийская улица,454129,55.1122613,61.4659464
5,улица Дзержинского,454129,55.1208915,61.4697442
33,улица Машиностроителей,454139,55.1128418,61.4685005
8Б,улица Масленникова,454129,55.1194000,61.4639411
4,улица Суркова,454129,55.1157445,61.4678014
68,Новороссийская улица,454129,55.1123017,61.4653177
2А,улица Шота Руставели,454135,55.1374224,61.4517846
28,улица Машиностроителей,454129,55.1188000,61.4705137
6А,улица Масленникова,454129,55.1190123,61.4650411
11,улица Масленникова,454129,55.1177773,61.4630912
21А,улица Машиностроителей,454129,55.1227118,61.4750270
84,Новороссийская улица,454129,55.1139022,61.4578728
9А,улица Масленникова,454129,55.1174977,61.4646146
52,Грозненская улица,454129,55.1178227,61.4497013
19,улица Масленникова,454129,55.1189337,61.4579675
35,улица Машиностроителей,454139,55.1124571,61.4681564
15,улица Безрукова,454129,55.1154303,61.4501256
3,улица Лизы Чайкиной,454135,55.1246869,61.4651755
64,Новороссийская улица,454129,55.1121174,61.4663551
8,улица Безрукова,454129,55.1156595,61.4490504
14,улица Масленникова,454129,55.1199604,61.4612884
2,улица Масленникова,454129,55.1175272,61.4681361
3,улица Дзержинского,454129,55.1207024,61.4707622
42,улица Машиностроителей,454129,55.1146332,61.4680046
16А,улица Масленникова,454129,55.1200188,61.4600211
2,Ереванская улица,454129,55.1132923,61.4671335
2,Пограничная улица,454010,55.1418810,61.4472375
17А,улица Масленникова,454129,55.1184794,61.4594221
1,улица Дзержинского,454129,55.1204084,61.4716068
70,Новороссийская улица,454129,55.1124780,61.4644527
31,улица Машиностроителей,454129,55.1133610,61.4690772
80,Новороссийская улица,454129,55.1137032,61.4609423
104,Новороссийская улица,454129,55.1152724,61.4514017
7,улица Гагарина,454010,55.1428308,61.4449925
25,улица Суркова,454129,55.1169177,61.4564427
10,улица Масленникова,454129,55.1194100,61.4626337
76,Новороссийская улица,454129,55.1129389,61.4623086
36,улица Машиностроителей,454129,55.1164827,61.4689001
82,Новороссийская улица,454129,55.1139025,61.4585871
12,улица Масленникова,454129,55.1198067,61.4620352
1,улица Гагарина,454010,55.1447776,61.4462473
16,улица Масленникова,454129,55.1193297,61.4599240
95В,улица Братьев Кашириных,454016,55.1781366,61.3538004
40,улица Университетская Набережная,454016,55.1750245,61.3397397
79,улица Василевского,454139,55.0991564,61.4832114
32,улица Университетская Набережная,454016,55.1750332,61.3469250
91,Новороссийская улица,454129,55.1152699,61.4469572
93,Новороссийская улица,454129,55.1156875,61.4461704
34А,улица Университетская Набережная,454016,55.1748206,61.3463385
103А,улица Братьев Кашириных,454021,55.1771626,61.3423597
105Б,улица Братьев Кашириных,454021,55.1769935,61.3384154
38,Туруханская улица,454139,55.1021849,61.4842761
59,улица Молодогвардейцев,454021,55.1773898,61.3340249
89,Новороссийская улица,454129,55.1153147,61.4479815
30,улица Университетская Набережная,454016,55.1753193,61.3494602
38,улица Университетская Набережная,454016,55.1750267,61.3408772
24,улица Университетская Набережная,454016,55.1768449,61.3599869
97,улица Братьев Кашириных,454021,55.1778528,61.3507492
20,улица Харлова,454108,55.1493794,61.4347923
6,улица Масленникова,454129,55.1180958,61.4653649
37,улица Машиностроителей,454139,55.1118934,61.4680290
61,улица Молодогвардейцев,454016,55.1761717,61.3353171
97А,улица Братьев Кашириных,454021,55.1770283,61.3503190
107Б к1,улица Братьев Кашириных,454021,55.1772180,61.3369606
105,улица Братьев Кашириных,454021,55.1778475,61.3388080
24А,улица Университетская Набережная,454016,55.1771924,61.3607144
22,улица Университетская Набережная,454016,55.1766527,61.3620976
34,улица Университетская Набережная,454016,55.1750270,61.3457828
87,Новороссийская улица,454129,55.1149068,61.4487234
95,Новороссийская улица,454129,55.1156421,61.4451452
95,улица Братьев Кашириных,454021,55.1779359,61.3615681
101,улица Братьев Кашириных,454021,55.1778405,61.3448170
101Б,улица Братьев Кашириных,454021,55.1769977,61.3443386
25,Днепровская улица,454139,55.1023804,61.4851381
107А,улица Братьев Кашириных,454021,55.1773975,61.3358418
70,улица Чайковского,454016,55.1766162,61.3520471
103Б,улица Братьев Кашириных,454021,55.1762128,61.3422148
16,улица Университетская Набережная,454016,55.1764436,61.3668240
107Б,улица Братьев Кашириных,454021,55.1781593,61.3362052
70А,улица Чайковского,454016,55.1759716,61.3513289
32А,улица Университетская Набережная,454016,55.1753951,61.3469015
22А,улица Университетская Набережная,454016,55.1769828,61.3620420
103,улица Братьев Кашириных,454021,55.1781663,61.3418524
5Б,улица 250-летия Челябинска,454001,55.1804375,61.3150052
57,улица Ворошилова,454136,55.1793517,61.3256834
1,улица 250-летия Челябинска,454001,55.1815145,61.3188547
55,улица Ворошилова,454136,55.1800886,61.3241407
7А,улица 250-летия Челябинска,454001,55.1801334,61.3138535
1А,улица 250-летия Челябинска,454001,55.1806776,61.3188333
70,Солнечная улица,454001,55.1815729,61.3167992
49,улица 40-летия Победы,454001,55.1782216,61.3114471
5А,улица 250-летия Челябинска,454001,55.1808919,61.3149804
53А,улица Ворошилова,454136,55.1814702,61.3239266
104А,улица Братьев Кашириных,454001,55.1795566,61.3152427
110,улица Братьев Кашириных,454001,55.1777576,61.3119167
72,Солнечная улица,454001,55.1810205,61.3168008
53,улица Ворошилова,454136,55.1809250,61.3223996
47А,улица 40-летия Победы,454001,55.1787486,61.3112386
100А,улица Братьев Кашириных,454001,55.1800177,61.3186374
102,улица Братьев Кашириных,454001,55.1792219,61.3170064
20,улица 250-летия Челябинска,454021,55.1794633,61.3001842
104,улица Братьев Кашириных,454001,55.1790033,61.3155925
53В,улица Ворошилова,454136,55.1807120,61.3261050
74,Солнечная улица,454001,55.1804618,61.3168108
57Б,улица Ворошилова,454136,55.1798254,61.3261470
53Б,улица Ворошилова,454136,55.1812906,61.3252789
5,улица 250-летия Челябинска,454001,55.1813717,61.3143035
48,улица Молодогвардейцев,454014,55.1905409,61.3319801
27А,улица Чичерина,454021,55.1806022,61.2978263
20А,улица 250-летия Челябинска,454021,55.1800499,61.2993405
29,улица Чичерина,454021,55.1793101,61.2981458
41А,улица 40-летия Победы,454001,55.1806733,61.3093209
27,улица Чичерина,454021,55.1802740,61.2969760
25,улица Чичерина,454128,55.1808304,61.2967471
348А,проспект Победы,454014,55.1905922,61.3184303
23,улица Чичерина,454128,55.1812288,61.2952503
106,улица Братьев Кашириных,454001,55.1786627,61.3143532
45А,улица 40-летия Победы,454001,55.1794886,61.3113137
106А,улица Братьев Кашириных,454001,55.1794754,61.3140176
10А,улица 40-летия Победы,454100,55.1906834,61.2889004
5Б,улица Чичерина,454100,55.1896889,61.2866788
40,улица Чичерина,<different>,55.1754899,61.2988031
19,улица 250-летия Челябинска,454003,55.1766799,61.2967025
21,улица 250-летия Челябинска,<different>,55.1759603,61.2952349
182А,проспект Победы,454008,55.1848176,61.3904175
7,Свердловский проспект,454008,55.1899302,61.3878627
9,Кыштымская улица,454008,55.1849298,61.3920345
178,проспект Победы,454008,55.1844657,61.3920563
180,проспект Победы,454008,55.1848346,61.3912270
182,проспект Победы,454008,55.1843714,61.3908742
141,улица Свободы,454091,55.1592043,61.4126493
72А,улица Свободы,454091,55.1588019,61.4105615
40,улица Энгельса,454048,55.1552238,61.3807762
42,улица Энгельса,454048,55.1546970,61.3806535
38,улица Энгельса,454048,55.1559402,61.3809257
36,улица Энгельса,454048,55.1565047,61.3810409
40Б,улица Энгельса,454048,55.1548822,61.3811517
34,улица Энгельса,454048,55.1572323,61.3809653
61,улица Сони Кривой,454048,55.1572566,61.3801514
159А,проспект Победы,454084,55.1837593,61.4002164
149,проспект Победы,454084,55.1833101,61.4053117
151,проспект Победы,454084,55.1832821,61.4043845
155А,проспект Победы,454084,55.1840179,61.4020429
153,проспект Победы,454084,55.1832579,61.4035353
157,проспект Победы,454084,55.1832075,61.4018333
9,улица Кирова,454084,55.1784110,61.3999416
155,проспект Победы,454084,55.1832323,61.4026851
151А,проспект Победы,454084,55.1840903,61.4038487
99,Береговая улица,454084,55.1752829,61.4038611
14А,Набережная улица,454084,55.1777663,61.4069789
3,улица Калинина,454084,55.1795526,61.4062878
13Б,улица Кирова,454084,55.1764024,61.4044191
9/4,улица Кирова,454084,55.1773934,61.4033255
19А,улица Кирова,454084,55.1745054,61.4017348
11,улица Кирова,454084,55.1772833,61.4001034
21А,улица Кирова,454084,55.1745976,61.4029369
9/3,улица Кирова,454084,55.1775313,61.4024822
18,Набережная улица,454084,55.1757675,61.4064389
21,улица Кирова,454084,55.1745672,61.4041340
12А,Набережная улица,454084,55.1786206,61.4055781
147,проспект Победы,454084,55.1841305,61.4084485
15Б,улица Кирова,454084,55.1757259,61.4044392
16А,Набережная улица,454084,55.1767840,61.4072479
9/6,улица Кирова,454084,55.1775476,61.4049495
16,Набережная улица,454084,55.1764031,61.4068124
14,Набережная улица,454084,55.1774366,61.4063688
9,улица Калинина,454084,55.1790332,61.4030069
11,улица Калинина,454084,55.1794094,61.4014209
149А,проспект Победы,454084,55.1841510,61.4069874
9/2,улица Кирова,454084,55.1775118,61.4016807
11В,улица Калинина,454084,55.1788155,61.4020570
147А,проспект Победы,454084,55.1838662,61.4087660
15А,улица Кирова,454084,55.1757773,61.4016184
9А,улица Калинина,454084,55.1782922,61.4033163
13А,улица Кирова,454084,55.1764370,61.4015780
7,улица Калинина,454084,55.1794452,61.4032018
9/5,улица Кирова,454084,55.1775111,61.4041136
11Г,улица Калинина,454084,55.1783038,61.4021145
17А,улица Кирова,454084,55.1751286,61.4016724
20,Набережная улица,454084,55.1751840,61.4061199
12Б,Набережная улица,454084,55.1780083,61.4058275
9/1,улица Кирова,454084,55.1774875,61.4008807
160,проспект Победы,454084,55.1856834,61.4045787
74,улица Кирова,454084,55.1724966,61.3990342
78,улица Кирова,454084,55.1714812,61.3993901
44,улица Расковой,454106,55.1901080,61.3685230
17,улица Расковой,454106,55.1894999,61.3687413
42,улица Расковой,454106,55.1902158,61.3698161
64,улица Островского,454106,55.1890501,61.3681761
81,улица Островского,454106,55.1882777,61.3675755
3,Тепличная улица,454106,55.1863903,61.3696617
14,улица Косарева,454106,55.1884039,61.3712065
62,улица Островского,454106,55.1890829,61.3693699
12,улица Косарева,454106,55.1893040,61.3713802
22,улица Косарева,454106,55.1859147,61.3713068
227,проспект Победы,454045,55.1836534,61.3705097
15,улица Чайковского,454106,55.1909570,61.3646461
54,улица Братьев Кашириных,454018,55.1794582,61.3673466
10,улица Косарева,454106,55.1902843,61.3712234
34/1,Стартовая улица,454018,55.1845666,61.3618237
68,Северо-Крымская улица,454106,55.1900152,61.3670350
10А,улица Косарева,454106,55.1899506,61.3708887
5,Тепличная улица,454106,55.1857793,61.3688054
34,Стартовая улица,454106,55.1841747,61.3631396
8,улица Косарева,454106,55.1909249,61.3707919
66,улица Островского,454106,55.1894787,61.3671303
54,улица Вострецова,454106,55.1906515,61.3692377
60,улица Островского,454106,55.1883253,61.3698870
160А,проспект Победы,454084,55.1849338,61.4036232
162,проспект Победы,454084,55.1847070,61.4028668
162В,проспект Победы,454084,55.1875045,61.4033769
9,Пионерская улица,454112,55.1909923,61.3490708
9А,Пионерская улица,454112,55.1909947,61.3511077
318,проспект Победы,454112,55.1901249,61.3381980
45,Комсомольский проспект,454138,55.1938212,61.3362646
39Б,Комсомольский проспект,454112,55.1929073,61.3421356
37Б,Комсомольский проспект,454112,55.1928597,61.3427667
41А,Комсомольский проспект,454112,55.1931374,61.3395355
37А,Комсомольский проспект,454112,55.1932269,61.3442688
5,площадь Революции,454091,55.1571768,61.4048639
30,улица Горького,454071,55.1748537,61.4401302
63,улица Сони Кривой,454048,55.1572314,61.3793298
189,улица Танкистов,454085,55.1663773,61.4680540
146/1,улица Танкистов,454085,55.1691288,61.4686053
193А,улица Танкистов,454085,55.1648210,61.4677900
191,улица Танкистов,454085,55.1655621,61.4674504
193,улица Танкистов,454085,55.1649153,61.4671213
19,улица Марченко,454085,55.1681380,61.4613212
179А,улица Танкистов,454085,55.1688477,61.4707257
181,улица Танкистов,454085,55.1685790,61.4704182
23Г,улица Марченко,454085,55.1664597,61.4638981
179,улица Танкистов,454085,55.1694646,61.4706838
89,проспект Ленина,454080,55.1581834,61.3633957
30А,улица Горького,454071,55.1755409,61.4399162
32,улица Горького,454071,55.1760873,61.4396084
18,улица Горького,454085,55.1687569,61.4452481
22А,Комсомольский проспект,454138,55.1939349,61.3601188
14,улица Чайковского,454138,55.1941731,61.3610711
5,улица Болейко,454084,55.1867465,61.4061417
3,улица Болейко,454084,55.1876094,61.4056199
1,улица Болейко,454084,55.1879525,61.4048697
65А,улица Сони Кривой,454048,55.1565046,61.3795861
36А,улица Энгельса,454048,55.1562508,61.3790504
42Б,улица Энгельса,454048,55.1546429,61.3811109
44,улица Энгельса,454048,55.1541318,61.3809337
44В,улица Энгельса,454048,55.1538769,61.3803266
166Г,проспект Победы,454084,55.1865231,61.4001401
7,Моховая улица,454085,55.1685599,61.4746671
67,улица Сони Кривой,454048,55.1568426,61.3775244
14,улица Энтузиастов,454048,55.1558429,61.3753550
14А,улица Энтузиастов,454048,55.1555278,61.3745083
9А,улица Энтузиастов,454048,55.1568316,61.3763522
1Б,Витебская улица,454048,55.1531498,61.3736534
11,улица Смирных,454126,55.1517205,61.3713813
11,улица Энтузиастов,454048,55.1561425,61.3766234
14Б,улица Энтузиастов,454048,55.1555137,61.3736251
1А,Витебская улица,454048,55.1531434,61.3728677
19,Черкасская улица,454008,55.2282653,61.3755534
17,Черкасская улица,454008,55.2291345,61.3755134
15,Черкасская улица,454092,55.2302465,61.3783398
64Б,улица Молодогвардейцев,454136,55.1823865,61.3316284
51,улица Ворошилова,454084,55.1815795,61.3226234
57В,улица Ворошилова,454136,55.1798326,61.3224060
5Б,улица Художника Русакова,454021,55.1840188,61.3391527
58,улица 3 Интернационала,454006,55.1723322,61.4192569
14,улица Горького,454007,55.1668946,61.4433645
4А,Артиллерийский переулок,454091,55.1598299,61.4370253
15,проспект Ленина,454091,55.1600970,61.4385416
7А,улица Горького,454007,55.1636411,61.4403073
6,улица Горького,454007,55.1626595,61.4425675
12А,проспект Ленина,454007,55.1610856,61.4487854
13А,проспект Ленина,454091,55.1594592,61.4411183
12,улица Горького,454007,55.1658348,61.4431660
7,улица Горького,454007,55.1635892,61.4411501
16,проспект Ленина,454007,55.1610622,61.4446505
17,проспект Ленина,454091,55.1605425,61.4365976
59,улица Грибоедова,454007,55.1626372,61.4382345
13,проспект Ленина,454007,55.1598652,61.4399687
12,проспект Ленина,454007,55.1608224,61.4482347
26,улица Ловина,454007,55.1625019,61.4449926
3,улица Белостоцкого,454007,55.1633262,61.4485999
29,улица Первой Пятилетки,454007,55.1667442,61.4457747
18,проспект Ленина,454007,55.1611688,61.4429456
3,улица Горького,454007,55.1624751,61.4406698
63А,Российская улица,454006,55.1717973,61.4190292
21,улица Первой Пятилетки,454007,55.1665263,61.4491640
24,улица Ловина,454007,55.1625279,61.4458621
6А,Артиллерийский переулок,454091,55.1600396,61.4362531
65,Российская улица,454006,55.1713680,61.4175191
2А,Артиллерийский переулок,454091,55.1599345,61.4379050
9,улица Горького,454007,55.1641044,61.4409794
5,улица Белостоцкого,454007,55.1633827,61.4476280
3,улица Савина,454007,55.1647307,61.4455698
12,улица Савина,454007,55.1657127,61.4448655
28,улица Ловина,454007,55.1625432,61.4442911
55А,улица Грибоедова,454007,55.1636151,61.4390905
14,проспект Ленина,454007,55.1609259,61.4465129
2,Артиллерийский переулок,454091,55.1594081,61.4379153
25,улица Первой Пятилетки,454007,55.1666198,61.4474711
5А,улица Горького,454007,55.1630385,61.4402107
4,Артиллерийский переулок,454091,55.1595157,61.4364499
57,улица Грибоедова,454007,55.1631503,61.4380659
36,улица Ловина,454007,55.1625426,61.4395614
19,улица Белостоцкого,454007,55.1641702,61.4398705
14,улица Савина,454007,55.1657984,61.4438990
6,Артиллерийский переулок,454091,55.1596224,61.4346857
55,улица Грибоедова,454007,55.1637676,61.4381793
5,улица Горького,454007,55.1629734,61.4410385
9,улица Белостоцкого,454007,55.1635254,61.4451960
31,улица Первой Пятилетки,454007,55.1667805,61.4450619
21,улица Белостоцкого,454007,55.1642637,61.4385451
63,Российская улица,454006,55.1727035,61.4168723
4,улица Горького,454007,55.1617774,61.4430019
63Б,Российская улица,454006,55.1726740,61.4178749
20,улица Ловина,454007,55.1623472,61.4474249
57А,улица Грибоедова,454007,55.1631857,61.4390226
19,проспект Ленина,454091,55.1603353,61.4342819
118А,улица Героев Танкограда,454085,55.1691829,61.4509322
116,улица Героев Танкограда,454071,55.1707547,61.4518508
17,Салютная улица,454071,55.1707279,61.4492195
15,Салютная улица,454071,55.1710080,61.4498703
15А,Салютная улица,454071,55.1702472,61.4504076
118,улица Героев Танкограда,454085,55.1693783,61.4518011
13,Салютная улица,454071,55.1710369,61.4507057
22 к1,улица Марченко,454085,55.1671516,61.4583824
118Б,улица Героев Танкограда,454085,55.1697232,61.4510323
25,Салютная улица,454071,55.1696145,61.4453860
27,Салютная улица,454071,55.1697204,61.4440282
21А,Салютная улица,454071,55.1700757,61.4486106
21,Салютная улица,454071,55.1705821,61.4482381
19В,улица Марченко,454085,55.1675971,61.4636205
17А,Салютная улица,454085,55.1696328,61.4497230
111/1,Артиллерийская улица,454007,55.1664212,61.4364711
9Б,улица Рождественского,454007,55.1578021,61.4462019
11,улица Марченко,454085,55.1714065,61.4635028
3,улица Марченко,454085,55.1739463,61.4655169
150А,улица Танкистов,454085,55.1678761,61.4646071
11,Салютная улица,454071,55.1712474,61.4515068
21Б,улица Марченко,454085,55.1670796,61.4620387
17В,улица Марченко,454085,55.1683648,61.4638813
47,улица Грибоедова,454007,55.1666399,61.4391230
50,улица Грибоедова,454007,55.1661885,61.4378016
9А,улица Марченко,454085,55.1719606,61.4648067
25Б,улица Марченко,454085,55.1657038,61.4629654
48,улица Грибоедова,454007,55.1669973,61.4380178
148В,улица Танкистов,454085,55.1686634,61.4661446
18,улица Савина,454007,55.1656169,61.4407403
142Б,улица Танкистов,454085,55.1714894,61.4688390
140В,улица Танкистов,454085,55.1725299,61.4683654
146,улица Танкистов,454085,55.1695099,61.4693870
124/3,Артиллерийская улица,454007,55.1648854,61.4340021
189А,улица Танкистов,454085,55.1659250,61.4689714
43А,улица Первой Пятилетки,454007,55.1669839,61.4366844
144,улица Танкистов,454085,55.1702104,61.4699219
148,улица Танкистов,454085,55.1680659,61.4684345
138Б,улица Танкистов,454085,55.1727895,61.4695470
146Б,улица Танкистов,454085,55.1699020,61.4677503
19А,улица Марченко,454085,55.1679335,61.4622466
36В,улица 40-летия Октября,454007,55.1575768,61.4468207
15,улица Горького,454007,55.1665271,61.4413247
11Б,улица Марченко,454085,55.1705226,61.4643626
11,проспект Ленина,454007,55.1599815,61.4473617
150Д,улица Танкистов,454085,55.1675291,61.4671712
23В,улица Марченко,454085,55.1662047,61.4622431
11Б,проспект Ленина,454007,55.1596496,61.4467523
7А,улица Рождественского,454007,55.1590982,61.4464564
11А,улица Марченко,454085,55.1713082,61.4642702
154А,улица Танкистов,454085,55.1658116,61.4653442
3 к4,улица Марченко,454085,55.1736310,61.4661056
152Б,улица Танкистов,454085,55.1667664,61.4659520
15Г,улица Марченко,454085,55.1689824,61.4654125
138А,улица Танкистов,454085,55.1725266,61.4705664
15А,улица Горького,454007,55.1662033,61.4392642
9В,улица Марченко,454085,55.1715880,61.4661847
13,улица Кулибина,454085,55.1739690,61.4681425
11,улица Горького,454007,55.1649000,61.4407967
21А,улица Марченко,454085,55.1672908,61.4612134
140А,улица Танкистов,454085,55.1718982,61.4700913
189Б,улица Танкистов,454085,55.1658691,61.4718534
140,улица Танкистов,454085,55.1716696,61.4710398
30А,улица 40-летия Октября,454007,55.1590273,61.4477799
140Б,улица Танкистов,454085,55.1718783,61.4689499
10А,улица Первой Пятилетки,454085,55.1684793,61.4503364
191А,улица Танкистов,454085,55.1653371,61.4689617
111,Артиллерийская улица,454007,55.1662913,61.4356097
3 к1,улица Марченко,454085,55.1732601,61.4650112
17А,улица Марченко,454085,55.1687698,61.4623289
142А,улица Танкистов,454085,55.1710231,61.4693917
22 к2,улица Марченко,454085,55.1675893,61.4591734
36,улица 40-летия Октября,454007,55.1575869,61.4478475
13Г,улица Марченко,454085,55.1703543,61.4654880
6,Детская улица,454085,55.1735841,61.4668961
148А,улица Танкистов,454085,55.1682752,61.4677123
15А,улица Марченко,454085,55.1694605,61.4629058
7,улица Рождественского,454007,55.1587667,61.4456654
150Г,улица Танкистов,454085,55.1677112,61.4664489
23Б,улица Марченко,454085,55.1663881,61.4615076
9,улица Марченко,454085,55.1721444,61.4641128
7А,улица Марченко,454085,55.1724746,61.4656288
22,улица Белостоцкого,454007,55.1648223,61.4387158
20,улица Савина,454007,55.1656840,61.4397171
7Б,улица Марченко,454085,55.1726138,61.4669555
9Б,улица Марченко,454085,55.1717903,61.4655338
109,Артиллерийская улица,454007,55.1671634,61.4353642
193Г,улица Танкистов,454085,55.1653731,61.4705510
13,улица Горького,454007,55.1657654,61.4415518
11А,улица Кулибина,454085,55.1732803,61.4687338
146А,улица Танкистов,454085,55.1697618,61.4686197
132,Артиллерийская улица,454007,55.1653570,61.4334033
17,улица Горького,454007,55.1672354,61.4416078
187А,улица Танкистов,454085,55.1663128,61.4689768
25,улица Марченко,454085,55.1661730,61.4599041
5,улица Рождественского,454007,55.1597503,61.4457906
5,Детская улица,454085,55.1729817,61.4664133
21В,улица Марченко,454085,55.1668929,61.4627778
32В,улица 40-летия Октября,454007,55.1585025,61.4470046
17Б,улица Марченко,454085,55.1685612,61.4631684
11В,улица Марченко,454085,55.1710056,61.4649311
28,улица 40-летия Октября,454007,55.1595138,61.4486083
4,Детская улица,454085,55.1742084,61.4673448
49,улица Грибоедова,454007,55.1660157,61.4386196
150Б,улица Танкистов,454085,55.1682924,61.4649184
11А,проспект Ленина,454007,55.1595978,61.4476821
15В,улица Марченко,454085,55.1690872,61.4644414
148Б,улица Танкистов,454085,55.1684584,61.4668875
11,улица Кулибина,454085,55.1737799,61.4691241
156Б,улица Танкистов,454085,55.1653204,61.4644493
53А,улица Грибоедова,454007,55.1652087,61.4387874
150В,улица Танкистов,454085,55.1678931,61.4657216
140/1,улица Танкистов,454085,55.1714674,61.4704712
23А,улица Марченко,454085,55.1665811,61.4606823
15Б,улица Марченко,454085,55.1692848,61.4636892
138,улица Танкистов,454085,55.1722984,61.4715121
9Г,улица Марченко,454085,55.1714078,61.4669122
2А,Детская улица,454085,55.1733818,61.4674721
193Б,улица Танкистов,454085,55.1649081,61.4701061
19Б,улица Марченко,454085,55.1677595,61.4629302
142,улица Танкистов,454085,55.1708230,61.4702017
150,улица Танкистов,454085,55.1673685,61.4679137
30Б,улица 40-летия Октября,454007,55.1591455,61.4471070
146В,улица Танкистов,454085,55.1701334,61.4668273
9,улица Рождественского,454007,55.1578339,61.4455732
152,улица Танкистов,454085,55.1664673,61.4670727
3 к3,улица Марченко,454085,55.1732278,61.4657847
144А,улица Танкистов,454085,55.1703846,61.4690949
36,Колхозная улица,454018,55.1827792,61.3767419
76,улица Братьев Кашириных,454018,55.1803211,61.3472060
36Б,улица Университетская Набережная,454016,55.1762497,61.3436762
54А,улица Чайковского,454018,55.1806092,61.3503566
17,Двинская улица,454018,55.1803405,61.3460111
52А,улица Чайковского,454018,55.1807935,61.3511757
3,Двинская улица,454018,55.1811832,61.3506625
56А,улица Чайковского,454018,55.1804357,61.3493881
63,улица Молодогвардейцев,454016,55.1754911,61.3354674
7,Двинская улица,454018,55.1810842,61.3488733
13,Двинская улица,454018,55.1809761,61.3469379
72А,улица Братьев Кашириных,454018,55.1802494,61.3483168
54А,улица Молодогвардейцев,454136,55.1873526,61.3319966
54Б,улица Чайковского,454018,55.1800551,61.3500140
66,улица Братьев Кашириных,454018,55.1792068,61.3499495
15,Двинская улица,454018,55.1807960,61.3463160
54,улица Чайковского,454018,55.1805190,61.3521069
19,Двинская улица,454018,55.1806273,61.3456853
21,Двинская улица,454018,55.1810743,61.3452998
52,улица Чайковского,454018,55.1812052,61.3519465
99Б,улица Братьев Кашириных,454021,55.1772012,61.3483161
63,улица Куйбышева,454138,55.1971419,61.3378826
31А,улица Куйбышева,454138,55.1970137,61.3493209
8А,улица Чайковского,454138,55.1957501,61.3594649
17Б,улица Куйбышева,454138,55.1967470,61.3576670
30А,улица Клары Цеткин,454080,55.1647361,61.3826373
84А,улица Коммуны,454080,55.1629159,61.3852395
49,улица Энгельса,454080,55.1631687,61.3815929
32,улица Клары Цеткин,454080,55.1637494,61.3831905
115,улица Коммуны,454080,55.1622236,61.3849993
125,улица Коммуны,454080,55.1621344,61.3836952
47,улица Энгельса,454080,55.1637279,61.3815669
86А,улица Коммуны,454080,55.1631384,61.3842060
30,улица Клары Цеткин,454080,55.1644620,61.3833681
127,улица Коммуны,454080,55.1619724,61.3821128
51,улица Энгельса,454080,55.1626905,61.3817188
82,улица Коммуны,454080,55.1626925,61.3857573
10,улица Володарского,454080,55.1667728,61.3854404
9,улица Володарского,454080,55.1657171,61.3863520
12,улица Володарского,454080,55.1661802,61.3855068
61Б,улица Энгельса,454080,55.1614594,61.3830969
13,улица Клары Цеткин,454080,55.1654353,61.3838215
165,улица Труда,454080,55.1670194,61.3862733
49А,улица Энгельса,454080,55.1631437,61.3823715
64Д,Свердловский проспект,454080,55.1605447,61.3879919
62А,Свердловский проспект,454080,55.1613648,61.3881784
14,улица Володарского,454080,55.1653539,61.3853514
64,Свердловский проспект,454080,55.1609666,61.3878450
48,Свердловский проспект,454080,55.1656675,61.3880082
9А,улица Володарского,454080,55.1657541,61.3871812
54,Свердловский проспект,454080,55.1646485,61.3881150
7,улица Володарского,454080,55.1663768,61.3865143
62,Свердловский проспект,454080,55.1617891,61.3883326
161,улица Труда,454080,55.1670566,61.3878851
46,Свердловский проспект,454080,55.1663486,61.3877447
163,улица Труда,454080,55.1670182,61.3870934
55,улица Потёмкина,454081,55.1805144,61.4251407
23,улица Сергея Герасимова,454079,55.1686864,61.5367020
1,10-й Лобинский переулок,454079,55.1684112,61.5357389
2,10-й Лобинский переулок,454079,55.1680456,61.5352360
3А,10-й Лобинский переулок,454079,55.1678849,61.5359901
24,2-я Эльтонская улица,454079,55.1692665,61.5327113
22В,2-я Эльтонская улица,454079,55.1691415,61.5320153
10,улица Зальцмана,454079,55.1703440,61.5316957
22Б,2-я Эльтонская улица,454079,55.1687819,61.5310135
16А,2-я Эльтонская улица,454079,55.1672777,61.5319543
8,улица Зальцмана,454079,55.1708108,61.5320913
14,улица Зальцмана,454079,55.1699967,61.5292795
22,2-я Эльтонская улица,454079,55.1685180,61.5293461
20,2-я Эльтонская улица,454079,55.1678474,61.5299294
26,2-я Эльтонская улица,454079,55.1695290,61.5332789
22А,2-я Эльтонская улица,454079,55.1687088,61.5300319
62А,улица Кирова,454084,55.1740042,61.3974949
23,улица Кирова,454084,55.1741799,61.4004292
25,улица Доватора,454048,55.1443073,61.3855074
19В,Каслинская улица,454084,55.1885916,61.3968881
172,проспект Победы,454084,55.1848104,61.3953724
166В,проспект Победы,454084,55.1865588,61.4011359
4Б,улица Болейко,454084,55.1884180,61.4008922
21Б,Каслинская улица,454084,55.1876455,61.4001947
166Б,проспект Победы,454084,55.1857166,61.4010451
7А,Шенкурская улица,454084,55.1888914,61.4000924
3,Шенкурская улица,454084,55.1900628,61.3998038
162А,проспект Победы,454084,55.1856040,61.4026085
51,улица Цвиллинга,454091,55.1536191,61.4086896
88Г,улица Свободы,454091,55.1537388,61.4123943
31,улица Плеханова,454091,55.1550939,61.4118901
43Б,улица Плеханова,454091,55.1544146,61.4091521
51А,улица Цвиллинга,454091,55.1532913,61.4090373
53,улица Цвиллинга,454091,55.1529455,61.4095018
45,улица Плеханова,454091,55.1548345,61.4088223
32,улица Орджоникидзе,454091,55.1533705,61.4134818
88А,улица Свободы,454091,55.1542678,61.4129602
47Б,улица Цвиллинга,454091,55.1540757,61.4094933
36,улица Орджоникидзе,454091,55.1529590,61.4104689
86,улица Свободы,454091,55.1547887,61.4134540
29,улица Плеханова,454091,55.1553939,61.4128867
47,улица Плеханова,454091,55.1548611,61.4078890
43,улица Цвиллинга,454091,55.1545984,61.4077138
47В,улица Цвиллинга,454091,55.1537134,61.4095904
34,улица Орджоникидзе,454091,55.1531156,61.4122836
43,улица Плеханова,454091,55.1548949,61.4096653
88Б,улица Свободы,454091,55.1543113,61.4123771
49А,улица Цвиллинга,454091,55.1539512,61.4088804
19,улица Тимирязева,454091,55.1583896,61.4157599
2,улица Карла Либкнехта,454091,55.1560775,61.4003696
21А,улица Тимирязева,454091,55.1578308,61.4140243
157А,улица Свободы,454091,55.1515830,61.4163353
145А,улица Свободы,454091,55.1571875,61.4148173
4,улица Евтеева,454091,55.1509416,61.4167807
19,улица Плеханова,454091,55.1554046,61.4160530
218,Российская улица,454091,55.1577291,61.4166172
220,Российская улица,454091,55.1566521,61.4171593
73А,улица Пушкина,454091,55.1563311,61.4112186
41А,улица Тимирязева,454091,55.1573610,61.4007511
67,улица Пушкина,454091,55.1577223,61.4102100
2А,улица Карла Либкнехта,454091,55.1559817,61.4016503
49,улица Цвиллинга,454091,55.1541845,61.4081161
4,площадь Революции,454091,55.1563711,61.4013086
41,улица Тимирязева,454091,55.1573339,61.3997773
224,Российская улица,454091,55.1543004,61.4176802
14,улица Плеханова,454091,55.1561983,61.4164102
27,улица Плеханова,454091,55.1556222,61.4145575
155Б,улица Свободы,454091,55.1524900,61.4160758
16,улица Плеханова,454091,55.1560555,61.4150090
159,улица Свободы,454091,55.1510891,61.4158350
21,улица Тимирязева,454091,55.1583340,61.4141283
157,улица Свободы,454091,55.1519555,61.4155232
155/1,улица Свободы,454091,55.1543127,61.4161314
80,улица Свободы,454091,55.1571283,61.4124505
69А,улица Пушкина,454091,55.1569551,61.4112885
78,улица Свободы,454091,55.1577144,61.4122327
71А,улица Пушкина,454091,55.1568723,61.4104983
61А,улица Елькина,454091,55.1566921,61.4001325
2,площадь Революции,454091,55.1570938,61.4012089
63,улица Елькина,454091,55.1562067,61.3991949
153,улица Свободы,454091,55.1548270,61.4150322
220А,Российская улица,454091,55.1567998,61.4160028
155В,улица Свободы,454091,55.1529020,61.4159744
151,улица Свободы,454091,55.1552214,61.4143334
258,Российская улица,454091,55.1530200,61.4181973
218А,Российская улица,454091,55.1574964,61.4158516
155Г,улица Свободы,454091,55.1533643,61.4158104
19А,улица Плеханова,454091,55.1557359,61.4156116
21,улица Плеханова,454091,55.1553375,61.4153868
155А,улица Свободы,454091,55.1532316,61.4166321
27,улица Тимирязева,454091,55.1580356,61.4105066
76,улица Свободы,454091,55.1580442,61.4120898
28,улица Плеханова,454091,55.1556837,61.4112224
25,улица Тимирязева,454091,55.1581768,61.4114995
73,улица Пушкина,454091,55.1559229,61.4108329
61,улица Елькина,454091,55.1569501,61.3990268
44,улица Цвиллинга,454091,55.1572257,61.4055633
7,площадь Революции,454091,55.1565521,61.4041208
5,улица Евтеева,454091,55.1501071,61.4143964
27А,улица Орджоникидзе,454091,55.1526411,61.4126500
96,улица Свободы,454091,55.1508112,61.4148457
27,улица Орджоникидзе,454091,55.1528045,61.4136720
92А,улица Свободы,454091,55.1517405,61.4136115
8,улица Евтеева,454091,55.1505051,61.4128332
59,улица Цвиллинга,454091,55.1506820,61.4116525
94А,улица Свободы,454091,55.1511620,61.4133367
7,улица Евтеева,454091,55.1499485,61.4130045
29,улица Орджоникидзе,454091,55.1525599,61.4116249
94,улица Свободы,454091,55.1513841,61.4145929
92Б,улица Свободы,454091,55.1515996,61.4124437
56,улица Цвиллинга,454091,55.1518968,61.4088614
58,улица Цвиллинга,454091,55.1509813,61.4102493
92,улица Свободы,454091,55.1519957,61.4144252
6,улица Евтеева,454091,55.1505089,61.4141403
57,улица Цвиллинга,454091,55.1512956,61.4110595
90А,улица Свободы,454091,55.1523382,61.4132204
55Б,улица Цвиллинга,454091,55.1517622,61.4107157
98,улица Свободы,454091,55.1495891,61.4153132
55А,улица Цвиллинга,454091,55.1522143,61.4104560
90,улица Свободы,454091,55.1524755,61.4141707
23,улица Белостоцкого,454007,55.1643067,61.4376339
153,улица Труда,454091,55.1669237,61.3953453
5,Красная улица,454091,55.1666961,61.3922060
157,улица Труда,454091,55.1670390,61.3921769
2,улица Болейко,454084,55.1899041,61.4019349
168А,проспект Победы,454084,55.1855464,61.3975356
11А,Шенкурская улица,454084,55.1893477,61.3974857
164,проспект Победы,454084,55.1850932,61.4019594
21А,Каслинская улица,454084,55.1873813,61.3971935
162Б,проспект Победы,454084,55.1863410,61.4025543
3А,Шенкурская улица,454084,55.1896636,61.3998963
168В,проспект Победы,454084,55.1862763,61.3995771
11,Шенкурская улица,454084,55.1898205,61.3966018
170,проспект Победы,454084,55.1848031,61.3970145
4,улица Болейко,454084,55.1887679,61.4024464
19Г,Каслинская улица,454084,55.1881126,61.3975918
7Б,Шенкурская улица,454084,55.1883972,61.4000180
22А,улица Хохрякова,454085,55.1764737,61.4856677
24,улица Карпенко,454081,55.1775020,61.4361189
3А,улица Грибоедова,454081,55.1789756,61.4340559
113,Красноармейская улица,454091,55.1613349,61.4143244
38,улица Кудрявцева,454081,55.1751037,61.4256955
65А,Артиллерийская улица,454081,55.1774066,61.4307913
65А,улица Горького,454081,55.1810591,61.4334179
55,Артиллерийская улица,454081,55.1803146,61.4283404
98А,Артиллерийская улица,454081,55.1783875,61.4257657
83,улица Кудрявцева,454081,55.1722545,61.4286448
47А,улица Либединского,454081,55.1764277,61.4245332
112,Артиллерийская улица,454081,55.1735757,61.4308054
63Б,Артиллерийская улица,454081,55.1786064,61.4314089
32,улица Кудрявцева,454081,55.1767261,61.4260681
106,Артиллерийская улица,454081,55.1751891,61.4297768
55А,Артиллерийская улица,454081,55.1803190,61.4306773
30А,улица Кудрявцева,454081,55.1778576,61.4242031
63А,улица Горького,454081,55.1807024,61.4336907
53,улица Горького,454081,55.1776905,61.4369846
28,улица Карпенко,454081,55.1771778,61.4345548
75А,улица Кудрявцева,454081,55.1761781,61.4284090
3,улица Грибоедова,454081,55.1786025,61.4332448
116В,Артиллерийская улица,454081,55.1705446,61.4298219
65Б,улица Горького,454081,55.1807922,61.4319672
53,Артиллерийская улица,454081,55.1807359,61.4279351
114,Артиллерийская улица,454081,55.1729349,61.4317098
5,улица Грибоедова,454081,55.1779814,61.4334050
200,Российская улица,454091,55.1612954,61.4158583
83,улица Карла Маркса,454091,55.1650967,61.4074011
68,Артиллерийская улица,454081,55.1794910,61.4277058
65,Артиллерийская улица,454081,55.1772203,61.4299273
108,Артиллерийская улица,454081,55.1746552,61.4301388
48,улица Коммуны,454091,55.1640352,61.4052806
61,Артиллерийская улица,454081,55.1789259,61.4290358
65Б,Артиллерийская улица,454081,55.1776030,61.4317561
30,улица Карпенко,454081,55.1770018,61.4336929
104,Артиллерийская улица,454081,55.1760204,61.4295342
4,улица Грибоедова,454081,55.1786056,61.4323408
34,улица Карпенко,454081,55.1767119,61.4323336
104А,Артиллерийская улица,454081,55.1757150,61.4287005
63А,Артиллерийская улица,454081,55.1786062,61.4304023
66А,Артиллерийская улица,454081,55.1792654,61.4271498
7,улица Грибоедова,454081,55.1778307,61.4340441
61А,Артиллерийская улица,454081,55.1795953,61.4301160
38,улица Горького,454071,55.1785543,61.4387065
89,улица Карла Маркса,454091,55.1647880,61.4052044
66,Артиллерийская улица,454081,55.1800707,61.4273326
67В,улица Горького,454081,55.1812307,61.4314744
111,Красноармейская улица,454091,55.1621533,61.4141771
59,Артиллерийская улица,454081,55.1794424,61.4289058
198,Российская улица,454091,55.1620360,61.4159492
6,улица Грибоедова,454081,55.1777855,61.4325861
67,улица Горького,454081,55.1818287,61.4341110
100,Артиллерийская улица,454081,55.1784263,61.4280404
32,улица Карпенко,454081,55.1768938,61.4331774
35,улица Потёмкина,454081,55.1820722,61.4329271
36,улица Карпенко,454081,55.1765164,61.4313889
53Б,Артиллерийская улица,454081,55.1810387,61.4304108
75,улица Кудрявцева,454081,55.1755010,61.4275212
63,Артиллерийская улица,454081,55.1786054,61.4295039
2,улица Грибоедова,454091,55.1795983,61.4319287
116,Артиллерийская улица,454081,55.1720285,61.4323995
64,Артиллерийская улица,454081,55.1807381,61.4268610
67Г,улица Горького,454081,55.1810775,61.4308693
116Б,Артиллерийская улица,454081,55.1716308,61.4300518
198А,Российская улица,454091,55.1622613,61.4150219
30,улица Кудрявцева,454081,55.1781575,61.4253750
43,улица Либединского,454081,55.1783663,61.4225065
196,Российская улица,454091,55.1627838,61.4157797
33,улица Потёмкина,454081,55.1822424,61.4337034
51,улица Либединского,454081,55.1745095,61.4252044
59,улица Горького,454081,55.1793833,61.4358979
67А,улица Горького,454081,55.1816747,61.4333347
59А,улица Горького,454081,55.1793380,61.4348882
67,Артиллерийская улица,454081,55.1763238,61.4305060
75,улица Кудрявцева,454081,55.1759116,61.4276457
43,улица Потёмкина,454081,55.1811419,61.4286539
36,улица Кудрявцева,454081,55.1755723,61.4260232
57,Артиллерийская улица,454081,55.1798230,61.4285156
83А,улица Кудрявцева,454081,55.1724854,61.4292909
63,улица Кудрявцева,454081,55.1800501,61.4243403
53А,Артиллерийская улица,454081,55.1807969,61.4294002
81,улица Кудрявцева,454081,55.1729321,61.4281271
45,улица Либединского,454081,55.1773551,61.4230553
114А,Артиллерийская улица,454081,55.1728168,61.4308322
39,улица Потёмкина,454081,55.1815340,61.4307401
196А,Российская улица,454091,55.1627553,61.4149670
57,улица Горького,454081,55.1786657,61.4363343
53,улица Либединского,454081,55.1737454,61.4261020
67Б,улица Горького,454081,55.1814496,61.4324663
98,Артиллерийская улица,454081,55.1787756,61.4269983
81А,улица Кудрявцева,454081,55.1733865,61.4281745
34,улица Кудрявцева,454081,55.1757498,61.4268557
102,Артиллерийская улица,454081,55.1770933,61.4278834
63Б,улица Горького,454081,55.1803994,61.4322212
36,улица Кудрявцева,454081,55.1752900,61.4265559
77А,улица Кудрявцева,454081,55.1750182,61.4283649
63,улица Горького,454081,55.1808475,61.4348487
77,улица Кудрявцева,454081,55.1734281,61.4294072
47,улица Либединского,454081,55.1761266,61.4238518
41,улица Потёмкина,454081,55.1813260,61.4296817
79,улица Кудрявцева,454081,55.1741753,61.4286727
109,Красноармейская улица,454091,55.1627271,61.4141386
32А,улица Кудрявцева,454081,55.1765918,61.4253096
110,Артиллерийская улица,454081,55.1741432,61.4304137
55,улица Горького,454081,55.1782166,61.4359001
81Б,улица Кудрявцева,454081,55.1733715,61.4274042
37,улица Потёмкина,454081,55.1817594,61.4317596
55А,улица Горького,454081,55.1783754,61.4348040
114Б,Артиллерийская улица,454081,55.1726538,61.4300733
54,улица Горького,454081,55.1804075,61.4367161
54А,улица Горького,454081,55.1808465,61.4370222
56А,улица Горького,454081,55.1812108,61.4360087
63,улица Потёмкина,454081,55.1799505,61.4248185
51,улица Потёмкина,454081,55.1807435,61.4262743
41,улица Либединского,454081,55.1797248,61.4226435
56,улица Горького,454081,55.1808774,61.4361522
6А,Телевизионная улица,454091,55.1501268,61.4056578
4,улица Монакова,454091,55.1489555,61.4096304
6,улица Монакова,454091,55.1494068,61.4088806
41,улица Орджоникидзе,454091,55.1512292,61.4055709
6Б,Телевизионная улица,454091,55.1501294,61.4048693
1,Телевизионная улица,454091,55.1500981,61.4073066
54,улица Цвиллинга,454091,55.1526103,61.4080994
3,Телевизионная улица,454091,55.1502190,61.4080142
4А,Телевизионная улица,454091,55.1507438,61.4061726
41 к2,улица Орджоникидзе,454091,55.1512315,61.4047104
2А,улица Монакова,454091,55.1499262,61.4100306
35,улица Орджоникидзе,454091,55.1515104,61.4074668
4,Телевизионная улица,454091,55.1510171,61.4062705
6,Телевизионная улица,454091,55.1500149,61.4065621
2,улица Монакова,454091,55.1494570,61.4098587
43,улица Орджоникидзе,454091,55.1511874,61.4038546
4А,улица Монакова,454091,55.1499707,61.4088994
58А,улица Орджоникидзе,454091,55.1525296,61.4035737
260А,Российская улица,454091,55.1524766,61.4176698
44,проспект Ленина,454091,55.1611433,61.4131340
47Б,улица Горького,454081,55.1760700,61.4373922
47,улица Горького,454081,55.1758330,61.4380734
29,улица Карпенко,454081,55.1767705,61.4358871
31,улица Карпенко,454081,55.1766682,61.4353694
56,улица Котина,454081,55.1755848,61.4373314
27,улица Карпенко,454081,55.1769773,61.4364435
47А,улица Горького,454081,55.1759205,61.4369356
13А,улица Грибоедова,454081,55.1759899,61.4353817
49А,улица Горького,454081,55.1762672,61.4367111
60А,улица Котина,454081,55.1756475,61.4356102
29А,улица Карпенко,454081,55.1761838,61.4360250
13,улица Грибоедова,454081,55.1756154,61.4346324
9,улица Грибоедова,454081,55.1764228,61.4341296
26,улица Карпенко,454081,55.1775213,61.4352225
15,улица Грибоедова,454081,55.1751979,61.4349772
49,улица Горького,454081,55.1764883,61.4376949
51Б,улица Горького,454081,55.1766238,61.4370322
51,улица Горького,454081,55.1770671,61.4372253
11,улица Грибоедова,454081,55.1759842,61.4344526
11А,улица Грибоедова,454081,55.1763903,61.4351214
51А,улица Горького,454081,55.1766364,61.4364716
58,улица Котина,454081,55.1755856,61.4364092
33,улица Карпенко,454081,55.1766435,61.4347903
60,улица Котина,454081,55.1752755,61.4356549
58 к1,улица Клары Цеткин,454080,55.1618517,61.3829576
16,улица Образцова,454048,55.1458322,61.3735114
12,Тернопольская улица,454126,55.1527485,61.3704644
21А,Тернопольская улица,454126,55.1526838,61.3717374
1,Витебская улица,454048,55.1533588,61.3717286
25,улица Образцова,454048,55.1452903,61.3688109
3,Витебская улица,454126,55.1532365,61.3702178
6,улица Смирных,454126,55.1524945,61.3737035
26,улица Энгельса,454080,55.1613210,61.3805509
3,улица Татьяничевой,454126,55.1528805,61.3682331
16,улица Смирных,454126,55.1525642,61.3697066
10,улица Смирных,454126,55.1524497,61.3725624
21,улица Образцова,454048,55.1448519,61.3703869
13,улица Образцова,454048,55.1454509,61.3726289
26А,улица Образцова,454048,55.1461037,61.3695489
129,улица Коммуны,454080,55.1620000,61.3802089
22,улица Образцова,454048,55.1460669,61.3712384
61А,улица Энгельса,454080,55.1612737,61.3822720
18,улица Образцова,454048,55.1460689,61.3728105
24,улица Образцова,454048,55.1460362,61.3704733
21,Тернопольская улица,454126,55.1528539,61.3711549
20,улица Смирных,454126,55.1523985,61.3684792
14,улица Смирных,454126,55.1523657,61.3702791
11,улица Образцова,454048,55.1454021,61.3735716
14,улица Образцова,454048,55.1460273,61.3743685
23,Тернопольская улица,454126,55.1523832,61.3715714
19,улица Образцова,454048,55.1451331,61.3713768
18,улица Смирных,454126,55.1525641,61.3690529
8,улица Смирных,454126,55.1524755,61.3731513
17,улица Образцова,454048,55.1451647,61.3721161
20,улица Образцова,454048,55.1460885,61.3720735
135А,улица Коммуны,454080,55.1616751,61.3773596
26А,улица Энгельса,454080,55.1612515,61.3792902
66А,проспект Ленина,454080,55.1604945,61.3805834
137,улица Коммуны,454080,55.1618712,61.3760032
5,Витебская улица,454126,55.1531995,61.3693760
23А,улица Мамина,454077,55.1898104,61.4848303
19,улица Мамина,454077,55.1920625,61.4821363
3А,переулок Мамина,454077,55.1928390,61.4840402
17А,улица Мамина,454077,55.1938492,61.4814789
1,переулок Мамина,454077,55.1936042,61.4849228
3,переулок Мамина,454077,55.1932042,61.4826724
23,улица Мамина,454077,55.1892246,61.4840042
19А,улица Мамина,454077,55.1925958,61.4829729
21,улица Доватора,454048,55.1425502,61.3896563
32,улица Доватора,454048,55.1425885,61.3918014
30,улица Доватора,454048,55.1423338,61.3926544
17,улица Доватора,454048,55.1414437,61.3921205
19,улица Доватора,454048,55.1420271,61.3909616
29А,проспект Ленина,454091,55.1604306,61.4198674
36А,проспект Ленина,454091,55.1616394,61.4192722
36Б,проспект Ленина,454091,55.1620821,61.4187310
36,проспект Ленина,454091,55.1611413,61.4187450
34,проспект Ленина,454091,55.1612137,61.4204136
32,улица Богдана Хмельницкого,454017,55.2588005,61.3741268
6,улица Румянцева,454017,55.2586972,61.3781896
52,улица 60 лет Октября,454017,55.2613768,61.3815914
2А,улица Румянцева,454017,55.2608507,61.3782365
48А,улица 60 лет Октября,454017,55.2621923,61.3814601
36,улица Богдана Хмельницкого,454017,55.2586125,61.3697292
42,улица Богдана Хмельницкого,454017,55.2586453,61.3645601
38,улица 60 лет Октября,454017,55.2629949,61.3863449
38,улица Богдана Хмельницкого,454017,55.2585802,61.3676181
34,улица Богдана Хмельницкого,454017,55.2586606,61.3723415
37,Дачная улица,454017,55.2576222,61.3625364
11/4,улица 60 лет Октября,454017,55.2614156,61.3858530
56,улица 60 лет Октября,454017,55.2611805,61.3807045
46А,улица 60 лет Октября,454017,55.2635730,61.3834513
1,Балканская улица,454017,55.2577061,61.3683312
46,улица 60 лет Октября,454017,55.2627102,61.3828009
50,улица 60 лет Октября,454017,55.2616177,61.3821523
40,улица Богдана Хмельницкого,454017,55.2585685,61.3661982
4,улица Жукова,454047,55.2593885,61.3896568
42,улица 60 лет Октября,454017,55.2626824,61.3848136
1,улица Румянцева,454017,55.2623244,61.3801141
44,улица 60 лет Октября,454017,55.2624540,61.3842501
38Б,улица 60 лет Октября,454017,55.2635356,61.3864832
30,улица Богдана Хмельницкого,454017,55.2586626,61.3766443
5,улица Румянцева,454017,55.2615553,61.3801560
4,улица Румянцева,454017,55.2592172,61.3787016
48,улица 60 лет Октября,454017,55.2618396,61.3826887
40,улица 60 лет Октября,454017,55.2629006,61.3853570
3,улица Румянцева,454017,55.2619392,61.3801190
38А,улица 60 лет Октября,454017,55.2641497,61.3862850
17Б,Свердловский тракт,454008,55.1983046,61.3910853
18А,улица 32-й Годовщины Октября,454025,55.2389723,61.3935024
107А,улица 26-ти Бакинских Комиссаров,454025,55.2353128,61.4086844
2,улица Приборостроителей,454017,55.2717078,61.4011140
45,улица Елькина,454091,55.1615413,61.3986843
62,проспект Ленина,454091,55.1604700,61.3948242
66,улица Коммуны,454091,55.1631006,61.3967779
86,улица Кирова,454091,55.1664064,61.4000524
19,улица Труда,454091,55.1670601,61.4179691
163,Российская улица,454091,55.1659283,61.4180786
17,улица Труда,454091,55.1675494,61.4193554
90А,улица 3 Интернационала,454091,55.1673675,61.4204869
171,Российская улица,454091,55.1649721,61.4181784
6,площадь МОПРа,454091,55.1644398,61.4185474
165,Российская улица,454091,55.1653671,61.4172502
107,улица Могильникова,454091,55.1646179,61.4192309
4,площадь МОПРа,454091,55.1645002,61.4200230
2,площадь МОПРа,454091,55.1645221,61.4207505
3,улица Постышева,454091,55.1635469,61.4226369
28Г,проспект Ленина,454091,55.1633574,61.4243309
119А,улица 3 Интернационала,454091,55.1618694,61.4225485
8А,площадь МОПРа,454091,55.1642360,61.4176423
100,улица 3 Интернационала,454091,55.1650016,61.4197712
94А,улица 3 Интернационала,454091,55.1655334,61.4206423
92,улица 3 Интернационала,454091,55.1656852,61.4199793
21,улица Труда,454091,55.1675704,61.4170116
7,площадь МОПРа,454091,55.1625268,61.4184034
116,улица 3 Интернационала,454091,55.1624418,61.4204793
30А,проспект Ленина,454091,55.1620703,61.4242537
18,Салютная улица,454071,55.1716177,61.4480916
22,Салютная улица,454071,55.1712144,61.4478056
1,переулок Радистов,454071,55.1722588,61.4476796
3,переулок Радистов,454071,55.1721337,61.4470805
26,Салютная улица,454071,55.1707650,61.4455612
5,переулок Радистов,454071,55.1720061,61.4464655
114,улица Героев Танкограда,454071,55.1722333,61.4513812
7,переулок Радистов,454071,55.1718709,61.4458602
14,Салютная улица,454071,55.1718657,61.4509134
112,улица Героев Танкограда,454071,55.1728663,61.4507176
20,Салютная улица,454071,55.1714618,61.4471604
1,Журавлиная улица,454930,55.0728870,61.2677132
20,улица Красных Казаков,454930,55.0736976,61.2671846
4,Журавлиная улица,454930,55.0727752,61.2672157
7,Пионерская улица,454930,55.0651308,61.2631499
13,Пионерская улица,454930,55.0635088,61.2630699
2Б,улица Коммуны,454930,55.0666283,61.2675812
1,Пионерская улица,454930,55.0663677,61.2637542
2А,Пионерская улица,454930,55.0665910,61.2651881
9,Пионерская улица,454930,55.0649130,61.2614119
5,Пионерская улица,454930,55.0654970,61.2621830
10,Пионерская улица,454930,55.0642079,61.2638436
2,Пионерская улица,454930,55.0660234,61.2643418
2В,улица Калинина,454930,55.0659897,61.2694530
8,Пионерская улица,454930,55.0649979,61.2636695
4,Пионерская улица,454930,55.0655284,61.2639170
3,Пионерская улица,454930,55.0659346,61.2629874
6,Пионерская улица,454930,55.0652828,61.2626547
2Б,улица Калинина,454930,55.0662845,61.2692411
11,Пионерская улица,454930,55.0644443,61.2626643
1/1,Степная улица,454930,55.0742970,61.2798084
17,Пионерская улица,454930,55.0591474,61.2625811
2А,Водопроводная улица,454930,55.0631595,61.2612144
3,Водопроводная улица,454930,55.0636142,61.2610482
7,Водопроводная улица,454930,55.0639829,61.2605035
14,улица Жукова,454047,55.2569571,61.3906036
4,Театральный переулок,454047,55.2566362,61.3897397
13,улица Богдана Хмельницкого,454047,55.2574658,61.3960439
15,улица Богдана Хмельницкого,454047,55.2575295,61.3940828
9А,улица Жукова,454047,55.2565549,61.3924648
14,улица Мира,454017,55.2550192,61.3965769
17,улица Богдана Хмельницкого,454047,55.2575198,61.3922440
9,улица Жукова,454047,55.2567809,61.3915606
15А,улица Богдана Хмельницкого,454047,55.2570848,61.3930517
12,улица Мира,454017,55.2550193,61.3978320
19,улица Богдана Хмельницкого,454047,55.2575267,61.3902323
15Б,улица Богдана Хмельницкого,454047,55.2567858,61.3941365
36,улица Плеханова,454091,55.1553741,61.4079964
70А,улица Пушкина,454091,55.1561066,61.4092159
35,улица Горького,454071,55.1737604,61.4392098
32,улица Плеханова,454091,55.1555082,61.4097634
29,улица Тимирязева,454091,55.1575074,61.4085718
36А,улица Плеханова,454091,55.1557066,61.4088532
68,улица Пушкина,454091,55.1567567,61.4096256
4,улица Лермонтова,454081,55.1832371,61.4427937
10,улица Лермонтова,454081,55.1827572,61.4413464
48,улица Бажова,454074,55.1823936,61.4501055
61,Механическая улица,454081,55.1939491,61.4411751
2Г,Черкасская улица,454052,55.2448387,61.3766605
113,проспект Победы,454081,55.1861921,61.4358476
111,проспект Победы,454081,55.1865892,61.4378215
111,проспект Победы,454081,55.1869157,61.4391942
100,проспект Победы,454081,55.1872546,61.4374323
102,улица Культуры,454071,55.1791568,61.4412804
28 к3,улица Горького,454091,55.1758368,61.4434186
28 к1,улица Горького,454091,55.1747733,61.4420339
28,улица Горького,454071,55.1732603,61.4420731
8,улица Лермонтова,454081,55.1831682,61.4420747
7А,улица Потёмкина,454081,55.1832482,61.4408846
58,улица Кулибина,454085,55.1746720,61.4692101
57,улица Героев Танкограда,454071,55.1771326,61.4497256
55,улица Героев Танкограда,454071,55.1781458,61.4488632
61,улица Горького,454081,55.1799061,61.4355347
48,улица Котина,454071,55.1765363,61.4411667
104,улица Героев Танкограда,454071,55.1756430,61.4483704
28 к4,улица Горького,454071,55.1739680,61.4425677
116,улица Комарова,454071,55.1729579,61.4537634
114,улица 3 Интернационала,454091,55.1631942,61.4202179
73,Российская улица,454006,55.1694241,61.4168991
131,проспект Победы,454081,55.1851735,61.4223300
151,Российская улица,454006,55.1684034,61.4160026
68А,улица 3 Интернационала,454006,55.1697287,61.4188983
137,проспект Победы,454081,55.1850664,61.4197248
65,Красная улица,454091,55.1605724,61.3940390
68,улица 3 Интернационала,454006,55.1697558,61.4199821
63,Красная улица,454091,55.1609787,61.3941623
146,проспект Победы,454081,55.1858285,61.4209542
129,проспект Победы,454081,55.1852116,61.4236643
59,Пермская улица,454006,55.1693471,61.4246476
53,Пермская улица,454006,55.1708166,61.4243302
8,площадь МОПРа,454091,55.1636568,61.4190469
71,улица 3 Интернационала,454006,55.1691929,61.4219430
55,Пермская улица,454006,55.1702026,61.4246226
5,площадь МОПРа,454091,55.1625004,61.4193267
20,улица Кудрявцева,454081,55.1807886,61.4226331
132,улица Могильникова,454091,55.1650434,61.4174918
133,проспект Победы,454081,55.1851135,61.4209952
34,улица Труда,454006,55.1684240,61.4191261
29,улица Либединского,454081,55.1847346,61.4184202
142,проспект Победы,454081,55.1859360,61.4236123
141,проспект Победы,454081,55.1850956,61.4188137
61А,Российская улица,454006,55.1729431,61.4161014
26,улица Труда,454006,55.1687165,61.4246028
61Б,Российская улица,454006,55.1735554,61.4167116
57,Пермская улица,454006,55.1697721,61.4246098
70,улица 3 Интернационала,454006,55.1691302,61.4194588
65А,улица 3 Интернационала,454006,55.1704626,61.4224389
167,Российская улица,454091,55.1647170,61.4166525
69,улица 3 Интернационала,454006,55.1695533,61.4212163
20А,улица Кудрявцева,454081,55.1806134,61.4218332
71,Российская улица,454006,55.1697846,61.4168038
96,улица Васенко,454091,55.1609760,61.3955024
65,улица 3 Интернационала,454006,55.1704257,61.4212636
59,Красная улица,454091,55.1619257,61.3944415
144,проспект Победы,454081,55.1858976,61.4222836
71А,Российская улица,454006,55.1697077,61.4178292
58,Пермская улица,454006,55.1695870,61.4227193
139,проспект Победы,454081,55.1847680,61.4193011
131,улица Карла Маркса,454091,55.1649475,61.3942405
73,Российская улица,454006,55.1692959,61.4174896
43,улица Елькина,454091,55.1622880,61.3986532
56,Пермская улица,454006,55.1701529,61.4229348
135,проспект Победы,454081,55.1847879,61.4201720
133,улица Карла Маркса,454091,55.1645001,61.3939434
18,Нагорная улица,454006,55.1733524,61.4195298
39,улица Либединского,454081,55.1804650,61.4210561
35,улица Коммуны,454091,55.1627440,61.4128985
8,улица Васенко,454091,55.1645089,61.3953183
38,Архитекторная улица,454006,55.1705348,61.4172725
9,площадь МОПРа,454091,55.1629136,61.4175611
50,улица Героев Танкограда,454081,55.1838147,61.4432000
48,улица Героев Танкограда,454081,55.1851674,61.4428121
125А,проспект Победы,454081,55.1847058,61.4267253
42,улица Героев Танкограда,454081,55.1864440,61.4416425
81,улица Горького,454081,55.1847167,61.4324335
40,улица Героев Танкограда,454081,55.1868038,61.4414156
66А,улица Горького,454081,55.1847858,61.4346920
121А,проспект Победы,454081,55.1847881,61.4293089
17А,3-я Арзамасская улица,454074,55.1845837,61.4552767
61А,улица Героев Танкограда,454071,55.1761302,61.4515915
62,улица Горького,454081,55.1825081,61.4352472
7,улица Потёмкина,454081,55.1837171,61.4405288
44,улица Героев Танкограда,454081,55.1860877,61.4418898
78,улица Бажова,454081,55.1799197,61.4388095
27,улица 5-го Декабря,454081,55.1844399,61.4350829
74,улица Бажова,454081,55.1805991,61.4407518
34,улица 5-го Декабря,454081,55.1840665,61.4313127
64,улица Горького,454081,55.1832540,61.4346179
48,Абразивная улица,454081,55.1843245,61.4358384
79,улица Горького,454081,55.1832739,61.4330827
80,улица Бажова,454081,55.1796498,61.4375835
10,улица Потёмкина,454081,55.1847499,61.4421879
52,улица Горького,454081,55.1797092,61.4368691
29,улица Потёмкина,454081,55.1826213,61.4358436
55,улица Культуры,454081,55.1858284,61.4381673
59А,улица Культуры,454081,55.1849602,61.4400959
98,улица Культуры,454081,55.1812592,61.4403139
57,улица Культуры,454081,55.1850720,61.4388271
59,улица Героев Танкограда,454071,55.1768418,61.4515798
23,3-я Арзамасская улица,454074,55.1841457,61.4507402
21,3-я Арзамасская улица,454074,55.1842703,61.4513386
34А,улица Потёмкина,454081,55.1835928,61.4357052
121,проспект Победы,454081,55.1852791,61.4294538
18А,улица Потёмкина,454081,55.1840009,61.4376244
59,улица Культуры,454081,55.1843186,61.4391528
46,Абразивная улица,454081,55.1852957,61.4352262
4,1-й переулок Лермонтова,454074,55.1838345,61.4535123
61,улица Героев Танкограда,454071,55.1758063,61.4503945
11,улица Котина,454071,55.1776034,61.4511931
46,улица Героев Танкограда,454081,55.1856193,61.4416327
3А,улица Котина,454071,55.1775334,61.4555037
55А,улица Культуры,454081,55.1860428,61.4394321
2,1-й переулок Лермонтова,454074,55.1843750,61.4524623
38А,улица Бажова,454074,55.1838864,61.4571495
63А,улица Героев Танкограда,454071,55.1755136,61.4527043
14,улица Потёмкина,454081,55.1841065,61.4404253
18,улица Потёмкина,454081,55.1835725,61.4379450
76,улица Бажова,454081,55.1801961,61.4400611
27А,улица 5-го Декабря,454081,55.1839986,61.4353769
66,улица Горького,454081,55.1844459,61.4338987
13,улица Котина,454071,55.1774413,61.4504009
58,улица Горького,454081,55.1815804,61.4358127
76А,улица Бажова,454081,55.1805429,61.4395154
32,улица 5-го Декабря,454081,55.1840883,61.4322063
48А,улица Героев Танкограда,454081,55.1851499,61.4415298
64А,улица Горького,454081,55.1831114,61.4356776
5,улица Котина,454071,55.1775552,61.4539523
40А,улица Героев Танкограда,454081,55.1863502,61.4406240
50,Абразивная улица,454081,55.1834033,61.4364918
60,улица Горького,454081,55.1820556,61.4353976
98А,улица Культуры,454081,55.1812512,61.4392517
28,улица Лермонтова,454081,55.1817454,61.4363878
3,улица Котина,454071,55.1786155,61.4543237
3,улица Потёмкина,454081,55.1837429,61.4417792
7А,улица Гагарина,454010,55.1424144,61.4435345
11,улица Тухачевского,454010,55.1453973,61.4350975
5,Курганская улица,454010,55.1478544,61.4356614
90,улица 3 Интернационала,454091,55.1661855,61.4205603
8,Енисейская улица,454010,55.1466589,61.4589773
16,улица 60 лет Октября,454017,55.2648101,61.3942138
10А,улица Приборостроителей,454017,55.2721873,61.3982230
15,улица Дегтярёва,454017,55.2700380,61.3969128
19А,Трудовая улица,454017,55.2666916,61.3937899
10,улица Сталеваров,454017,55.2692746,61.4017946
13,Трудовая улица,454047,55.2676323,61.3974174
7А,улица Дегтярёва,454017,55.2722694,61.3975387
9,улица Дегтярёва,454017,55.2716574,61.3968583
3,Трудовая улица,454047,55.2672694,61.4009293
17А,Трудовая улица,454017,55.2669335,61.3947986
1А,улица Приборостроителей,454017,55.2709069,61.3978257
4,улица 60 лет Октября,454017,55.2651435,61.4010325
3А,улица Дегтярёва,454017,55.2734315,61.3974520
16А,улица 60 лет Октября,454017,55.2653890,61.3939836
28,улица 60 лет Октября,454017,55.2652580,61.3883383
35,Трудовая улица,454017,55.2672362,61.3886547
20,улица Сталеваров,454017,55.2657452,61.4022368
20,улица 60 лет Октября,454017,55.2647873,61.3926693
30,улица 60 лет Октября,454017,55.2648954,61.3877613
16,улица Сталеваров,454017,55.2666304,61.4021852
33,улица Дегтярёва,454017,55.2661305,61.3973328
6,улица 60 лет Октября,454017,55.2646505,61.4003143
21,Трудовая улица,454017,55.2672963,61.3934536
37,улица Дегтярёва,454017,55.2650889,61.3983422
35А,Трудовая улица,454017,55.2666793,61.3877720
2,улица 60 лет Октября,454017,55.2646669,61.4018348
6,улица Приборостроителей,454017,55.2715946,61.3995447
26,улица 60 лет Октября,454017,55.2643263,61.3894401
19,улица Дегтярёва,454017,55.2691811,61.3969416
29,улица Дегтярёва,454017,55.2666464,61.3973236
28А,улица 60 лет Октября,454017,55.2661413,61.3875070
16Б,улица 60 лет Октября,454017,55.2658831,61.3938062
15,Трудовая улица,454017,55.2675770,61.3958441
18,улица 60 лет Октября,454017,55.2647985,61.3934415
21,улица Дегтярёва,454017,55.2686730,61.3969540
20А,улица 60 лет Октября,454017,55.2653660,61.3924119
40А,улица Дегтярёва,454017,55.2669426,61.3955596
25А,Трудовая улица,454017,55.2667081,61.3924176
39,улица Дегтярёва,454047,55.2651743,61.3973745
1Б,улица Приборостроителей,454017,55.2710554,61.3968563
24,улица 60 лет Октября,454017,55.2647692,61.3910668
42,улица Дегтярёва,454017,55.2662638,61.3953516
5,улица Дегтярёва,454017,55.2728857,61.3968170
35А,улица Дегтярёва,454017,55.2656162,61.3990922
36,улица 60 лет Октября,454017,55.2635715,61.3877189
13,улица Дегтярёва,454017,55.2705596,61.3968722
46,улица Дегтярёва,454017,55.2651870,61.3956092
35,улица Дегтярёва,454017,55.2657590,61.3983286
34,улица 60 лет Октября,454017,55.2640146,61.3874132
31,Трудовая улица,454017,55.2672555,61.3899847
27А,Трудовая улица,454017,55.2666915,61.3917558
10,улица 60 лет Октября,454017,55.2646169,61.3987824
10,Вишнегорская улица,454017,55.2735903,61.3989032
7,улица Дегтярёва,454017,55.2721581,61.3968376
33,Трудовая улица,454017,55.2672500,61.3893264
6А,улица 60 лет Октября,454017,55.2656000,61.4002780
11,Трудовая улица,454047,55.2672721,61.3982383
30А,улица 60 лет Октября,454017,55.2656111,61.3872834
24А,улица 60 лет Октября,454017,55.2653537,61.3908292
8,Вишнегорская улица,454017,55.2740503,61.3983236
7,Трудовая улица,454047,55.2673016,61.3994319
23,улица Дегтярёва,454017,55.2681556,61.3969636
27,улица Дегтярёва,454017,55.2671415,61.3969948
6,Вишнегорская улица,454017,55.2741607,61.3974465
16,Вишнегорская улица,454017,55.2721818,61.4007419
9А,Трудовая улица,454017,55.2666964,61.3990168
22А,улица 60 лет Октября,454017,55.2653531,61.3916213
20А,улица Сталеваров,454017,55.2656561,61.4014182
14,Вишнегорская улица,454017,55.2726455,61.4001542
18А,улица 60 лет Октября,454017,55.2653757,61.3931976
5А,улица Дегтярёва,454017,55.2728104,61.3982537
29А,Трудовая улица,454017,55.2666787,61.3910845
22,улица 60 лет Октября,454017,55.2647458,61.3918702
19,Трудовая улица,454017,55.2673039,61.3941232
48,улица Дегтярёва,454017,55.2648571,61.3963684
14,улица 60 лет Октября,454017,55.2645939,61.3954566
10,улица Приборостроителей,454017,55.2716868,61.3982248
23,Трудовая улица,454017,55.2672947,61.3927863
32А,улица 60 лет Октября,454017,55.2647623,61.3861311
14,улица Сталеваров,454017,55.2672066,61.4021668
40,улица Дегтярёва,454017,55.2669431,61.3962901
4,улица Приборостроителей,454017,55.2715874,61.4004411
12,улица Приборостроителей,454017,55.2715707,61.3975405
44,улица Дегтярёва,454017,55.2655288,61.3948533
10А,Вишнегорская улица,454017,55.2734463,61.3983241
1,Трудовая улица,454047,55.2676869,61.4017015
31,улица Дегтярёва,454017,55.2664228,61.3982335
29,Трудовая улица,454017,55.2672590,61.3906557
22,улица Сталеваров,454017,55.2651690,61.4022537
3,улица Дегтярёва,454017,55.2735213,61.3967524
18,улица Сталеваров,454017,55.2661742,61.4012175
12,Вишнегорская улица,454017,55.2731173,61.3995204
25Б,Трудовая улица,454017,55.2658627,61.3923721
32,улица 60 лет Октября,454017,55.2644901,61.3874244
26А,улица 60 лет Октября,454017,55.2654976,61.3893712
16А,улица Сталеваров,454017,55.2666687,61.4013774
27Б,Трудовая улица,454017,55.2658569,61.3911929
8,улица 60 лет Октября,454017,55.2651388,61.3995136
1,улица Дегтярёва,454017,55.2740378,61.3967387
45,Российская улица,454006,55.1839018,61.4147974
45А,Российская улица,454006,55.1832339,61.4155232
47,Российская улица,454006,55.1825164,61.4148995
32,Российская улица,454006,55.1847652,61.4135135
49,Российская улица,454006,55.1808440,61.4150549
49А,Российская улица,454006,55.1815494,61.4157787
47А,Российская улица,454006,55.1822649,61.4156103
34,Российская улица,454006,55.1828064,61.4139638
2,улица Дзержинского,454119,55.1211286,61.4720155
4,улица Дзержинского,454119,55.1211953,61.4711063
18,улица Машиностроителей,454129,55.1215526,61.4722029
1,улица Нахимова,454119,55.1222070,61.4721673
1,улица Плеханова,454091,55.1559699,61.4194533
277,Российская улица,454091,55.1555281,61.4186258
279,Российская улица,454091,55.1549379,61.4191175
4,улица Плеханова,454091,55.1564875,61.4192432
110,улица Дзержинского,454078,55.1332431,61.4324851
36,улица Гагарина,454078,55.1302838,61.4347813
68,улица Коммуны,454091,55.1629198,61.3962333
36,улица Елькина,454091,55.1630727,61.3976602
16,Салютная улица,454071,55.1718065,61.4495035
35,улица Грибоедова,454071,55.1711368,61.4378054
32,улица Бажова,454074,55.1856373,61.4580260
10,улица Елькина,454091,55.1672164,61.3970669
119,улица 3 Интернационала,454091,55.1617157,61.4219392
117,улица 3 Интернационала,454091,55.1631108,61.4218132
113В,улица 3 Интернационала,454091,55.1632770,61.4234664
118,улица 3 Интернационала,454091,55.1615582,61.4211391
28Б,проспект Ленина,454091,55.1626318,61.4243781
113,улица 3 Интернационала,454091,55.1623919,61.4224418
113А,улица 3 Интернационала,454091,55.1628928,61.4224509
82,улица Кирова,454091,55.1672492,61.3999970
1Б,улица Горького,454007,55.1617105,61.4411313
1,улица Горького,454007,55.1616103,61.4407999
84,улица Кирова,454091,55.1670584,61.4000379
20,проспект Ленина,454007,55.1612635,61.4403315
19,улица Ловина,454091,55.1622572,61.4358005
26,проспект Ленина,454091,55.1619522,61.4347693
13,улица Ловина,454091,55.1620384,61.4393896
19В,проспект Ленина,454007,55.1606373,61.4321063
24,проспект Ленина,454091,55.1618184,61.4365803
61,улица Грибоедова,454091,55.1618184,61.4379815
22,проспект Ленина,454091,55.1614145,61.4384331
3,Артиллерийский переулок,454007,55.1596929,61.4326729
81,улица Коммуны,454091,55.1625552,61.3990740
112,улица Кирова,454091,55.1613872,61.4000879
45А,улица Елькина,454091,55.1610629,61.3987898
59,Свердловский проспект,454091,55.1647267,61.3909509
57,Свердловский проспект,454091,55.1659154,61.3900589
56,проспект Ленина,454091,55.1607575,61.4002780
108,улица Кирова,454091,55.1625086,61.3998312
194,Российская улица,454091,55.1635706,61.4148618
26А/1,проспект Ленина,454007,55.1618526,61.4305713
28Д,проспект Ленина,454091,55.1613932,61.4265114
52А,проспект Ленина,454091,55.1612108,61.4054040
55А,проспект Ленина,454091,55.1599308,61.3989796
75,проспект Ленина,454080,55.1592024,61.3783982
62А,проспект Ленина,454091,55.1607071,61.3947338
83А,проспект Ленина,454080,55.1586173,61.3722205
9,проспект Ленина,454007,55.1596758,61.4499730
83Б,проспект Ленина,454080,55.1589169,61.3721541
8А,проспект Ленина,454007,55.1605897,61.4520439
45,улица Горького,454081,55.1753574,61.4382873
19,улица Горького,454071,55.1700493,61.4417458
25,улица Горького,454071,55.1712354,61.4409520
21,улица Горького,454071,55.1704508,61.4416080
33,улица Горького,454071,55.1733661,61.4396082
43,улица Горького,454081,55.1749509,61.4387385
37,улица Горького,454081,55.1742268,61.4390971
29,улица Горького,454071,55.1726695,61.4401931
23,улица Горького,454071,55.1708690,61.4413083
27,улица Горького,454071,55.1722965,61.4403377
31,улица Горького,454071,55.1730039,61.4399767
10,улица Горького,454007,55.1647339,61.4432276
39,улица Горького,454081,55.1746521,61.4389221
34,улица Горького,454071,55.1766893,61.4388936
36,улица Горького,454071,55.1773764,61.4388450
41,улица Горького,454081,55.1746872,61.4382607
22,улица Котина,454071,55.1794566,61.4545410
3,Октябрьская улица,454085,55.1801532,61.4684836
266,Российская улица,454091,55.1499664,61.4175295
161,улица Свободы,454091,55.1494841,61.4165646
63,улица 26-ти Бакинских Комиссаров,454025,55.2359604,61.3997634
7Б,улица Комаровского,454052,55.2390675,61.3757595
11Б,улица Комаровского,454052,55.2401641,61.3729158
6,улица Блюхера,454048,55.1436678,61.3842811
9А,Российская улица,454006,55.1969038,61.4095837
7,улица Болейко,454084,55.1855204,61.4059904
19,Российская улица,454006,55.1939440,61.4112342
17В,Российская улица,454006,55.1943852,61.4127954
19Б,Российская улица,454006,55.1937011,61.4131521
13В,Российская улица,454006,55.1957437,61.4097408
8А,Российская улица,454006,55.1966741,61.4072018
6,Российская улица,454006,55.1973947,61.4073299
6А,Российская улица,454006,55.1969364,61.4061984
19А,Российская улица,454006,55.1940950,61.4121876
7Б,улица Болейко,454084,55.1855657,61.4078535
33,Российская улица,454006,55.1883033,61.4137265
39,Российская улица,454006,55.1864518,61.4141178
37,Российская улица,454006,55.1871111,61.4139122
35,Российская улица,454006,55.1877373,61.4137221
17Б,Российская улица,454006,55.1951473,61.4123518
27,Российская улица,454006,55.1902293,61.4129605
19В,Российская улица,454006,55.1935862,61.4124598
7А,Российская улица,454006,55.1973330,61.4091031
11Б,Российская улица,454006,55.1966821,61.4102580
5,Российская улица,454006,55.1975678,61.4078290
41,Российская улица,454006,55.1858021,61.4143541
17,Российская улица,454006,55.1947195,61.4107292
7,Российская улица,454006,55.1970814,61.4083375
21В,Российская улица,454006,55.1930787,61.4135372
8Б,Российская улица,454006,55.1964903,61.4075479
8,Российская улица,454006,55.1969031,61.4078677
15А,Российская улица,454006,55.1954213,61.4111769
10Б,Российская улица,454006,55.1960250,61.4078847
21А,Российская улица,454006,55.1930650,61.4127484
15В,Российская улица,454006,55.1953794,61.4121116
26,Российская улица,454006,55.1871214,61.4130996
11В,Российская улица,454006,55.1964457,61.4109964
26А,Российская улица,454006,55.1866961,61.4132317
29А,Российская улица,454006,55.1897560,61.4137954
13Б,Российская улица,454006,55.1960316,61.4114796
30,Российская улица,454006,55.1857211,61.4134662
12А,Российская улица,454006,55.1955216,61.4083567
35А/1,Российская улица,454006,55.1879961,61.4142926
31А,Российская улица,454006,55.1891166,61.4139847
25,Российская улица,454006,55.1908097,61.4128257
10,Российская улица,454006,55.1964727,61.4083531
15Б,Российская улица,454006,55.1956244,61.4119063
25А,Российская улица,454006,55.1908758,61.4134794
27А,Российская улица,454006,55.1902941,61.4136221
23А,Российская улица,454006,55.1923515,61.4125604
14,Российская улица,454006,55.1953591,61.4095197
21,Российская улица,454006,55.1929254,61.4118182
28,Российская улица,454006,55.1863695,61.4133290
7А,улица Болейко,454084,55.1856024,61.4069394
12,Российская улица,454006,55.1957873,61.4090538
22,Российская улица,454006,55.1881466,61.4127819
29,Российская улица,454006,55.1896823,61.4131211
3,Российская улица,454006,55.1980252,61.4075288
28А,Российская улица,454006,55.1863774,61.4127837
23,Российская улица,454006,55.1917205,61.4128158
24,Российская улица,454006,55.1876798,61.4129475
9Б,Российская улица,454006,55.1968585,61.4085789
31,Российская улица,454006,55.1890492,61.4134450
4А,Российская улица,454006,55.1976663,61.4060407
4,Российская улица,454006,55.1979209,61.4067570
11,Российская улица,454006,55.1959651,61.4095111
11А,Российская улица,454006,55.1962214,61.4102759
17А,Российская улица,454006,55.1949721,61.4115817
13А,Российская улица,454006,55.1957993,61.4107511
65,улица Сулимова,454048,55.1439554,61.3898504
42В,улица Доватора,454048,55.1457697,61.3865371
36,улица Доватора,454048,55.1438132,61.3890984
47А,улица Сталеваров,454038,55.2451811,61.4044607
7,Молодёжная улица,454038,55.2441365,61.4080860
7А,Молодёжная улица,454038,55.2438631,61.4081745
7,улица Жукова,454047,55.2574090,61.3915134
6,улица Пушкина,454091,55.1673312,61.4075973
33,улица Доватора,454048,55.1456312,61.3831017
35,улица Доватора,454048,55.1459279,61.3823151
26,улица Хохрякова,454085,55.1752183,61.4857320
3,улица Чоппа,454085,55.1770374,61.4848080
24,улица Хохрякова,454085,55.1756909,61.4858602
10,улица Чоппа,454085,55.1794061,61.4823294
17,улица Хохрякова,454085,55.1803481,61.4896739
275,Российская улица,454091,55.1564920,61.4181166
17,улица Тимирязева,454091,55.1582250,61.4180537
218Б,Российская улица,454091,55.1570617,61.4169531
2,переулок Мамина,454077,55.1956402,61.4855922
1А,переулок Мамина,454077,55.1929876,61.4856543
1Б,переулок Мамина,454077,55.1921985,61.4856382
2А,переулок Мамина,454077,55.1963296,61.4857210
2Б,переулок Мамина,454077,55.1970464,61.4852710
5,улица Захаренко,454014,55.1980239,61.3104332
91,улица Бажова,454071,55.1814891,61.4531395
97,улица Бажова,454071,55.1816000,61.4509022
24,улица Тимирязева,454091,55.1587794,61.4137480
43,проспект Ленина,454091,55.1602672,61.4120723
6,Арматурный переулок,454012,55.1222683,61.5009441
67,проспект Ленина,454091,55.1596594,61.3899705
40,Подольская улица,454071,55.1803246,61.4517450
7А,улица Молодогвардейцев,454138,55.2052507,61.3237733
7 к5,улица Молодогвардейцев,454138,55.2062514,61.3273064
111,улица 3 Интернационала,454091,55.1640136,61.4216997
105,улица 3 Интернационала,454091,55.1669536,61.4214241
4,улица Постышева,454091,55.1646104,61.4248359
7Б,улица Труда,454091,55.1659376,61.4249340
82А с1,Пермская улица,454091,55.1661321,61.4239314
2,улица Постышева,454091,55.1643932,61.4257362
6,улица Постышева,454091,55.1639618,61.4236354
111А,улица 3 Интернационала,454091,55.1640228,61.4225073
107,улица 3 Интернационала,454091,55.1653146,61.4218616
82Б,Пермская улица,454091,55.1661766,61.4234068
105,улица 3 Интернационала,454091,55.1676260,61.4213006
16,улица Цвиллинга,454091,55.1645111,61.4032432
18,Советская улица,454091,55.1663368,61.4058077
88,улица Труда,454091,55.1682691,61.4030183
101,улица Карла Маркса,454091,55.1651094,61.4024407
159/1,улица Кирова,454091,55.1647220,61.4021128
6,улица Цвиллинга,454091,55.1659266,61.4031710
143,улица Кирова,454091,55.1656773,61.4009968
11,улица Цвиллинга,454091,55.1666862,61.4042652
147,улица Кирова,454091,55.1651375,61.4009728
82,улица Труда,454091,55.1682870,61.4057339
10,Советская улица,454091,55.1670495,61.4056076
5,улица Цвиллинга,454091,55.1672553,61.4039282
8,улица Цвиллинга,454091,55.1655882,61.4032072
10,улица Цвиллинга,454091,55.1649044,61.4030363
7,улица Цвиллинга,454091,55.1669474,61.4039587
95,улица Труда,454091,55.1675947,61.4054481
15,улица Цвиллинга,454091,55.1658526,61.4043910
92А,улица Труда,454091,55.1681654,61.4010921
84,улица Труда,454091,55.1684872,61.4050078
70,улица Карла Маркса,454091,55.1655036,61.4016876
139,улица Кирова,454091,55.1662020,61.4008072
161А,улица Кирова,454091,55.1639408,61.4010792
20А,Советская улица,454091,55.1658565,61.4056908
13,улица Цвиллинга,454091,55.1664185,61.4040681
2,улица Цвиллинга,454091,55.1662651,61.4031001
20,Советская улица,454091,55.1655903,61.4059008
8А,улица Цвиллинга,454091,55.1655566,61.4028062
92,улица Труда,454091,55.1681806,61.4023518
141,улица Кирова,454091,55.1658741,61.4013110
139А,улица Кирова,454091,55.1663643,61.4011513
68,улица Карла Маркса,454091,55.1655131,61.4022448
161,улица Кирова,454091,55.1639704,61.4018547
149,улица Кирова,454091,55.1649714,61.4010653
145,улица Кирова,454091,55.1654942,61.4008467
82А,улица Труда,454091,55.1686572,61.4055829
25 к1,улица Цвиллинга,454091,55.1641774,61.4045546
161,улица Кирова,454091,55.1642448,61.4021533
1 к1,Привокзальная площадь,454091,55.1399196,61.4156706
53А,Российская улица,454006,55.1784400,61.4150378
59,улица 3 Интернационала,454006,55.1740821,61.4209361
16,Нагорная улица,454006,55.1739962,61.4187455
43,Российская улица,454006,55.1849445,61.4146568
47,проспект Ленина,454091,55.1601133,61.4086776
130,улица Кирова,454091,55.1552515,61.4009200
54Б,улица Орджоникидзе,454091,55.1519528,61.4064485
85,улица Елькина,454048,55.1539700,61.3973086
45,улица Елькина,454048,55.1550919,61.3991776
63Б,улица Елькина,454048,55.1544720,61.3994036
130Е,улица Кирова,454048,55.1543432,61.4016841
1А,улица Монакова,454091,55.1474767,61.4070662
101А,улица Елькина,454091,55.1471094,61.4023436
6В,Телевизионная улица,454091,55.1504957,61.4038155
50,улица Орджоникидзе,454091,55.1540140,61.4058776
132,улица Кирова,454091,55.1548795,61.4008432
58А к1,улица Орджоникидзе,454091,55.1535735,61.4044481
1,улица Карла Либкнехта,454091,55.1553968,61.4001756
58,улица Орджоникидзе,454091,55.1538593,61.4054404
62,улица Орджоникидзе,454048,55.1528403,61.4016058
3,улица Гагарина,454010,55.1442666,61.4452437
3Б,улица Гагарина,454010,55.1440475,61.4460799
36,улица Курчатова,454048,55.1533321,61.3826956
29,улица Доватора,454048,55.1450463,61.3840230
27,улица Доватора,454048,55.1447839,61.3849705
44А,улица Энгельса,454048,55.1524783,61.3798644
44Б,улица Энгельса,454048,55.1533061,61.3799813
73,проспект Ленина,454080,55.1591257,61.3802092
32,улица Энгельса,454048,55.1583229,61.3808825
44Г,улица Энгельса,454048,55.1534611,61.3809967
3,улица Пятницкого,454038,55.2479627,61.4023408
19А,Пекинская улица,454038,55.2446872,61.4014787
1,улица Калинина,454084,55.1787308,61.4078022
5,улица Калинина,454084,55.1794702,61.4041059
11,Электростальская улица,454031,55.2521497,61.3985845
15Г,улица Воровского,454092,55.1544545,61.3937533
15Б,улица Воровского,454048,55.1539672,61.3944857
88,улица Куйбышева,454138,55.1995345,61.3332358
19,улица Молодогвардейцев,454138,55.1992472,61.3320308
125Д,улица Блюхера,454087,55.1041980,61.3482196
21,улица Хохрякова,454085,55.1773840,61.4888972
31,Вязовая улица,454077,55.1894056,61.4750191
29А,Вязовая улица,454077,55.1896033,61.4741811
29,Вязовая улица,454077,55.1900532,61.4746070
40А,улица Танкистов,454077,55.1888478,61.4753266
75/1,улица Братьев Кашириных,454016,55.1768497,61.3747612
79/1,улица Братьев Кашириных,454016,55.1766654,61.3740228
79/2,улица Братьев Кашириных,454016,55.1766891,61.3747373
116А,Артиллерийская улица,454081,55.1716893,61.4315311
100,улица Труда,454091,55.1683245,61.3976609
100В,Артиллерийская улица,454081,55.1771451,61.4291257
118,Артиллерийская улица,454081,55.1691423,61.4341838
98,улица Труда,454091,55.1680795,61.3982296
8,1-й переулок Лермонтова,454074,55.1806595,61.4554139
10,1-й переулок Лермонтова,454074,55.1799292,61.4560258
95,улица Бажова,454071,55.1820394,61.4513169
38,Подольская улица,454071,55.1797518,61.4531094
93,улица Бажова,454071,55.1821982,61.4520790
91 к2,улица Бажова,454074,55.1808162,61.4544191
23,1-й переулок Лермонтова,454074,55.1799060,61.4569173
55,улица Героев Танкограда,454071,55.1782072,61.4491013
20,улица Зыкова,454071,55.1786816,61.4492841
53А,улица Героев Танкограда,454071,55.1786548,61.4488911
76,проспект Ленина,454080,55.1604747,61.3701853
76,проспект Ленина,454080,55.1607572,61.3701564
76,проспект Ленина,454080,55.1605671,61.3715533
76А,проспект Ленина,454091,55.1606125,61.3683143
82А,проспект Ленина,454080,55.1603369,61.3653717
149,улица Коммуны,454091,55.1617408,61.3687317
76,проспект Ленина,454080,55.1604965,61.3688087
75,Артиллерийская улица,454081,55.1740290,61.4321523
81,Артиллерийская улица,454081,55.1728942,61.4327653
16А,улица Крылова,454071,55.1707145,61.4396403
25,улица Котина,454081,55.1752324,61.4375219
6,улица Правдухина,454071,55.1723925,61.4345977
15А,улица Правдухина,454081,55.1741592,61.4372744
30,улица Грибоедова,454071,55.1722479,61.4361450
24,улица Грибоедова,454081,55.1738248,61.4351453
5А,улица Крылова,454071,55.1713971,61.4348020
5,улица Правдухина,454081,55.1731020,61.4341245
39А,улица Грибоедова,454071,55.1704245,61.4390735
29,улица Грибоедова,454071,55.1724007,61.4367393
13,улица Правдухина,454081,55.1736573,61.4367735
8,улица Правдухина,454071,55.1725157,61.4351824
15,улица Правдухина,454081,55.1738097,61.4375112
17,улица Грибоедова,454081,55.1747015,61.4353657
87,Артиллерийская улица,454071,55.1716835,61.4335589
32,улица Грибоедова,454071,55.1718522,61.4364039
42,Салютная улица,454071,55.1694082,61.4388045
27,улица Котина,454081,55.1750833,61.4368458
30А,улица Грибоедова,454071,55.1719849,61.4354551
21,улица Грибоедова,454081,55.1742289,61.4361802
89,Артиллерийская улица,454071,55.1717674,61.4343882
85,Артиллерийская улица,454071,55.1720902,61.4333085
27,улица Грибоедова,454071,55.1727586,61.4364962
47,улица Первой Пятилетки,454007,55.1676685,61.4344956
25,улица Грибоедова,454081,55.1735337,61.4360061
4,улица Правдухина,454071,55.1722737,61.4340180
3,улица Крылова,454071,55.1710458,61.4347891
29А,улица Грибоедова,454071,55.1724593,61.4376489
93,Артиллерийская улица,454071,55.1709266,61.4340725
7А,улица Крылова,454071,55.1715851,61.4355350
7,улица Крылова,454071,55.1712913,61.4359751
25А,улица Грибоедова,454081,55.1732193,61.4365539
126,Артиллерийская улица,454007,55.1670025,61.4344479
38,Салютная улица,454071,55.1696695,61.4403102
5,улица Крылова,454071,55.1711708,61.4353876
17,улица Крылова,454071,55.1719536,61.4391339
40А,улица Грибоедова,454071,55.1697900,61.4368513
33,улица Грибоедова,454071,55.1715807,61.4372561
50,Салютная улица,454071,55.1689358,61.4368072
34,улица Грибоедова,454071,55.1714683,61.4366596
59,улица Первой Пятилетки,454007,55.1676027,61.4305947
122,Артиллерийская улица,454007,55.1672518,61.4344915
73,Артиллерийская улица,454081,55.1745784,61.4317987
18,улица Правдухина,454071,55.1731803,61.4383574
18,улица Грибоедова,454081,55.1745593,61.4344883
99,Артиллерийская улица,454071,55.1695189,61.4349767
15,улица Крылова,454071,55.1718411,61.4385819
31,улица Грибоедова,454071,55.1719787,61.4370097
46,Салютная улица,454071,55.1690500,61.4373557
40,Салютная улица,454071,55.1695265,61.4396541
77,Артиллерийская улица,454081,55.1735816,61.4323217
19,улица Крылова,454071,55.1720685,61.4396834
70,улица Котина,454081,55.1746914,61.4324359
101,Артиллерийская улица,454071,55.1695809,61.4358323
13,улица Крылова,454071,55.1717016,61.4379682
16,улица Елькина,454091,55.1666969,61.3974202
31А,улица Горького,454071,55.1727774,61.4391565
44,Салютная улица,454071,55.1692720,61.4379741
37А,улица Котина,454081,55.1739084,61.4335761
20,улица Грибоедова,454081,55.1741961,61.4348993
12,улица Грибоедова,454081,55.1758665,61.4338720
52,Салютная улица,454071,55.1691559,61.4362370
93А,Артиллерийская улица,454071,55.1704649,61.4346246
13А,улица Крылова,454071,55.1720581,61.4380750
69,Артиллерийская улица,454081,55.1757077,61.4309479
18,улица Елькина,454091,55.1665182,61.3976294
16,улица Правдухина,454071,55.1730626,61.4378010
18А,улица Правдухина,454071,55.1728507,61.4382564
36,Салютная улица,454071,55.1697991,61.4409610
79,Артиллерийская улица,454081,55.1732641,61.4325369
43,улица Карпенко,454081,55.1758768,61.4316562
18,улица Крылова,454071,55.1711223,61.4401038
41,улица Грибоедова,454071,55.1698177,61.4383840
48,Салютная улица,454071,55.1693154,61.4369552
20,улица Правдухина,454071,55.1732955,61.4389097
71,Артиллерийская улица,454081,55.1751312,61.4312862
4,улица Васенко,454091,55.1662364,61.3949886
14,улица Правдухина,454071,55.1729189,61.4371105
10А,улица Правдухина,454071,55.1729878,61.4353939
105,Артиллерийская улица,454071,55.1687587,61.4355996
37,улица Котина,454081,55.1742522,61.4329367
22,улица Грибоедова,454081,55.1738672,61.4345023
21А,улица Горького,454071,55.1701976,61.4406913
23А,улица Горького,454071,55.1707165,61.4403413
91,Артиллерийская улица,454071,55.1713144,61.4338280
8,улица Крылова,454071,55.1703665,61.4365666
42,улица Грибоедова,454071,55.1696644,61.4377759
39,улица Грибоедова,454071,55.1701903,61.4381375
19,улица Грибоедова,454081,55.1742823,61.4355213
29,улица Котина,454081,55.1749397,61.4361595
7,улица Правдухина,454081,55.1732473,61.4347923
17А,улица Крылова,454071,55.1724916,61.4384580
3,улица Правдухина,454081,55.1729497,61.4335162
16,улица Крылова,454071,55.1709672,61.4393860
68,улица Котина,454081,55.1748207,61.4329868
14,улица Крылова,454071,55.1708149,61.4386643
17,улица Правдухина,454081,55.1739675,61.4382660
28,улица Грибоедова,454071,55.1726360,61.4359076
54,Салютная улица,454071,55.1688241,61.4362890
23,улица Грибоедова,454081,55.1739518,61.4357220
26,улица Грибоедова,454081,55.1734649,61.4353366
103,Артиллерийская улица,454071,55.1691434,61.4351951
41,улица Карпенко,454081,55.1759601,61.4322434
41А,улица Грибоедова,454071,55.1699315,61.4393977
111,улица Карла Маркса,454091,55.1648782,61.4002030
58,проспект Ленина,454091,55.1604851,61.3991434
96,улица Кирова,454091,55.1643216,61.4002904
15,улица Елькина,454091,55.1655125,61.3987248
86Б,улица Кирова,454091,55.1662889,61.3988635
100,улица Кирова,454091,55.1639530,61.4000280
90,улица Кирова,454091,55.1654980,61.4000620
102,улица Кирова,454091,55.1637288,61.4002794
98,улица Кирова,454091,55.1641561,61.4003021
72Б,улица Карла Маркса,454091,55.1654573,61.3993689
47,улица Елькина,454091,55.1607786,61.3987485
59/2,Свердловский проспект,454091,55.1651728,61.3900958
59/1,Свердловский проспект,454091,55.1651981,61.3916378
59А,Свердловский проспект,454091,55.1629029,61.3894286
127,проспект Победы,454081,55.1849601,61.4252492
5Б,улица Калинина,454084,55.1782633,61.4044849
4,улица Чоппа,454085,55.1789090,61.4853249
10,улица Грибоедова,454081,55.1762802,61.4335815
39,улица Карпенко,454081,55.1761947,61.4328561
40А,Российская улица,454006,55.1771156,61.4125692
38,Российская улица,454006,55.1781235,61.4136761
2А,улица Болейко,454084,55.1909565,61.4015275
2А,Витебская улица,454048,55.1543665,61.3745835
12,улица Татьяничевой,454126,55.1504290,61.3675739
18,улица Энтузиастов,454048,55.1542038,61.3754693
21А,улица Смирных,454126,55.1515153,61.3656651
22,улица Энтузиастов,454048,55.1528772,61.3756123
38А,улица Энтузиастов,454048,55.1464766,61.3757947
3,улица Смирных,454126,55.1518808,61.3746932
12Б,улица Татьяничевой,454126,55.1494991,61.3671004
32,улица Энтузиастов,454048,55.1486752,61.3755870
16А,улица Энтузиастов,454048,55.1548957,61.3740925
10,улица Образцова,454048,55.1458631,61.3760515
7,улица Татьяничевой,454126,55.1517089,61.3684973
1,улица Смирных,454126,55.1519073,61.3760671
5,улица Смирных,454126,55.1518729,61.3739518
1А,улица Смирных,454126,55.1518930,61.3753491
4,улица Смирных,454126,55.1527186,61.3747677
24,улица Смирных,454126,55.1522490,61.3669542
6,улица Татьяничевой,454126,55.1523315,61.3675077
13,улица Смирных,454126,55.1517541,61.3703113
14,Верхнеуральская улица,454048,55.1460250,61.3751135
15,улица Смирных,454126,55.1518447,61.3694055
14,улица Татьяничевой,454126,55.1489981,61.3678707
16,улица Татьяничевой,454126,55.1485567,61.3678470
38,улица Энтузиастов,454048,55.1466518,61.3763531
4,улица Татьяничевой,454126,55.1526415,61.3674721
19,улица Смирных,454126,55.1516706,61.3665804
7А,улица Смирных,454126,55.1514568,61.3730632
13,улица Худякова,454048,55.1472990,61.3755580
32А,улица Энтузиастов,454048,55.1491142,61.3755411
26А,улица Энтузиастов,454048,55.1511872,61.3748401
12А,улица Татьяничевой,454126,55.1498938,61.3678068
43А,улица Энгельса,454080,55.1656979,61.3822469
141,улица Братьев Кашириных,454128,55.1706800,61.2996287
28,улица Клары Цеткин,454080,55.1652985,61.3831287
24,улица Клары Цеткин,454080,55.1664234,61.3830103
177,улица Труда,454080,55.1671841,61.3817076
23,улица Энгельса,454080,55.1669607,61.3813461
175,улица Труда,454080,55.1671012,61.3826952
41,улица Энгельса,454080,55.1659925,61.3814076
137,улица Братьев Кашириных,454128,55.1711027,61.3017256
26,улица Клары Цеткин,454080,55.1658986,61.3829154
22В,улица Университетская Набережная,454016,55.1774791,61.3627785
43,улица Энгельса,454080,55.1652335,61.3814702
22,улица Энгельса,454080,55.1646445,61.3796899
12,улица Энтузиастов,454048,55.1567326,61.3753282
38А,Подольская улица,454071,55.1796205,61.4522326
15Д,улица Энтузиастов,454048,55.1520397,61.3768345
15,улица Энтузиастов,454048,55.1540184,61.3769511
18,улица Косарева,454106,55.1871957,61.3710885
1,Тепличная улица,454106,55.1872025,61.3703364
22Б,улица Университетская Набережная,454016,55.1774305,61.3620154
28А,улица Университетская Набережная,454016,55.1754236,61.3527938
21,улица Чичерина,454128,55.1817006,61.2945711
122,улица Чапаева,454082,55.0858475,61.4039003
5А,Тепличная улица,454106,55.1854529,61.3682783
72,улица Кирова,454084,55.1726195,61.3980155
55,улица Братьев Кашириных,454084,55.1732952,61.3965537
76,улица Кирова,454084,55.1719857,61.3980899
22,Молодёжная улица,454038,55.2409666,61.4103996
20,Молодёжная улица,454038,55.2414497,61.4097515
31Б,шоссе Металлургов,454038,55.2467847,61.3849940
7,Октябрьская улица,454085,55.1806332,61.4649026
11,Октябрьская улица,454071,55.1815117,61.4633928
5,Октябрьская улица,454085,55.1810554,61.4659576
12А,Южноуральская улица,454085,55.1791718,61.4655804
16,Южноуральская улица,454085,55.1796690,61.4645541
12,Южноуральская улица,454085,55.1795413,61.4665940
125,улица Комарова,454071,55.1805950,61.4619340
18,Южноуральская улица,454085,55.1799035,61.4636679
11,Южноуральская улица,454085,55.1781828,61.4654455
11Б,Южноуральская улица,454085,55.1786181,61.4648442
129,улица Комарова,454085,55.1784677,61.4603747
67,Краснофлотская улица,454085,55.1779802,61.4633210
4,Шуменская улица,454085,55.1786759,61.4618047
65,Краснофлотская улица,454085,55.1773976,61.4644495
13,Южноуральская улица,454085,55.1786291,61.4636045
6,Шуменская улица,454085,55.1773395,61.4623215
131Б,улица Комарова,454085,55.1777800,61.4604530
10,Шуменская улица,454071,55.1760740,61.4613518
131,улица Комарова,454071,55.1774903,61.4593187
131А,улица Комарова,454085,55.1770699,61.4607398
31А,Шуменская улица,454085,55.1764679,61.4646874
31,Шуменская улица,454085,55.1759073,61.4639159
2К,проспект Ленина,454091,55.1599432,61.4723481
2С,проспект Ленина,454091,55.1604475,61.4742640
18А,улица Ловина,454007,55.1619474,61.4480030
5,улица Савина,454007,55.1648219,61.4443064
106,улица Героев Танкограда,454071,55.1750108,61.4495159
110,улица Комарова,454071,55.1773985,61.4571885
10,Салютная улица,454071,55.1728529,61.4528006
110А,улица Комарова,454071,55.1782657,61.4563817
47,Шуменская улица,454085,55.1718580,61.4603209
14,улица Марченко,454085,55.1722195,61.4631964
45,Шуменская улица,454085,55.1726069,61.4615254
47А,Шуменская улица,454085,55.1716687,61.4611066
16А,улица Марченко,454085,55.1717340,61.4619467
14А,улица Марченко,454085,55.1724123,61.4624316
4,Салютная улица,454071,55.1726294,61.4573635
6,Салютная улица,454071,55.1728369,61.4565319
20А,Шуменская улица,454071,55.1726797,61.4582785
8,Салютная улица,454071,55.1730331,61.4556290
20,Шуменская улица,454071,55.1723439,61.4594635
2,Салютная улица,454071,55.1717174,61.4571140
16,улица Машиностроителей,454129,55.1218455,61.4724856
12А,улица Марченко,454085,55.1731135,61.4630691
13,Детская улица,454085,55.1739751,61.4628782
12,улица Марченко,454085,55.1730676,61.4636947
13А,улица Марченко,454085,55.1700834,61.4640333
11Д,улица Марченко,454085,55.1707199,61.4663349
25,улица Кулибина,454085,55.1749253,61.4640130
11Г,улица Марченко,454085,55.1708847,61.4656435
43А,Шуменская улица,454085,55.1733401,61.4622758
33,Шуменская улица,454085,55.1750387,61.4631854
41А,улица Комарова,454077,55.1905992,61.4713233
41,улица Комарова,454077,55.1895417,61.4694911
26,улица Комарова,454077,55.1908557,61.4681698
39,улица Комарова,454077,55.1905120,61.4698410
37,Ржевская улица,454077,55.1876839,61.4678163
9,переулок Радистов,454071,55.1717415,61.4452511
3,улица Ковалевской,454071,55.1716103,61.4446270
4,улица Ковалевской,454071,55.1719427,61.4436571
26А,Салютная улица,454071,55.1712412,61.4455485
2,улица Ковалевской,454071,55.1723441,61.4433346
6,улица Ковалевской,454071,55.1714122,61.4435948
5,улица Ковалевской,454071,55.1709986,61.4449927
12,улица Потёмкина,454081,55.1845326,61.4414350
67,Российская улица,454006,55.1712442,61.4161424
92А,улица 3 Интернационала,454091,55.1656576,61.4191434
44,Миасская улица,454006,55.1711588,61.4167374
94,улица 3 Интернационала,454091,55.1651559,61.4206825
64,улица Котина,454081,55.1750505,61.4343461
14,улица Грибоедова,454081,55.1754366,61.4340879
66,улица Котина,454081,55.1748329,61.4337269
28А,Салютная улица,454071,55.1705286,61.4442517
97А,улица Бажова,454071,55.1810476,61.4512553
6/1,Корабельная улица,454045,55.1036123,61.3662453
115,проспект Победы,454081,55.1855671,61.4338226
120,проспект Победы,454081,55.1864686,61.4331289
102,проспект Победы,454081,55.1872362,61.4365866
115А,проспект Победы,454081,55.1859399,61.4342897
119,проспект Победы,454081,55.1854476,61.4308917
21А,улица Героев Танкограда,454074,55.1891117,61.4428408
21Б,улица Героев Танкограда,454074,55.1895001,61.4426468
14А,улица Володарского,454080,55.1656064,61.3853079
23А,улица Кирова,454084,55.1739077,61.4006419
12Д,улица Братьев Кашириных,454084,55.1739782,61.4039159
12Б,улица Братьев Кашириных,454084,55.1739711,61.4024802
12В,улица Братьев Кашириных,454084,55.1740001,61.4032206
12,улица Братьев Кашириных,454084,55.1739472,61.4016207
25А,улица Героев Танкограда,454081,55.1833413,61.4465138
100,улица Героев Танкограда,454071,55.1772906,61.4477098
1,Передовой переулок,454071,55.1768536,61.4465000
3,Передовой переулок,454071,55.1761599,61.4469299
102,улица Героев Танкограда,454071,55.1765903,61.4485267
6,улица Рождественского,454007,55.1578676,61.4437568
150,проспект Победы,454081,55.1858092,61.4196492
154,проспект Победы,454081,55.1858014,61.4187163
148,проспект Победы,454081,55.1860474,61.4200782
152,проспект Победы,454081,55.1860352,61.4191633
5,улица Тимирязева,454091,55.1584208,61.4199706
27,проспект Ленина,454091,55.1592134,61.4220401
21,Южноуральская улица,454074,55.1805333,61.4579246
19,Южноуральская улица,454074,55.1799259,61.4587797
11,Салютная улица,454071,55.1717151,61.4525773
9,Салютная улица,454071,55.1717569,61.4527711
36,улица Грибоедова,454071,55.1709493,61.4368190
35,улица Котина,454081,55.1744413,61.4336893
83,Артиллерийская улица,454081,55.1724720,61.4330130
281,Российская улица,454091,55.1542771,61.4192058
222А,Российская улица,454091,55.1548911,61.4168043
23Б,Российская улица,454006,55.1916187,61.4135736
55,Красноармейская улица,454006,55.1694761,61.4135730
160В,проспект Победы,454084,55.1865150,61.4045038
158,проспект Победы,454084,55.1850602,61.4065974
15Д к1,улица Энтузиастов,454048,55.1523546,61.3768501
15А/2,улица Энтузиастов,454048,55.1540876,61.3795733
15В,улица Энтузиастов,454048,55.1517154,61.3766514
44Д,улица Энгельса,454048,55.1533956,61.3790616
46А,улица Энгельса,454048,55.1518485,61.3789081
15А/1,улица Энтузиастов,454048,55.1541200,61.3786811
7,улица Мамина,454077,55.1966808,61.4774970
7А,улица Мамина,454077,55.1974550,61.4765558
6В,переулок Мамина,454077,55.1971092,61.4837489
4А,переулок Мамина,454077,55.1958939,61.4842834
13,улица Мамина,454077,55.1948052,61.4804555
3,улица Мамина,454077,55.1971006,61.4740275
14,улица Университетская Набережная,454016,55.1760349,61.3676823
3А,улица Мамина,454077,55.1976380,61.4744302
11,улица Мамина,454077,55.1957867,61.4795168
5,улица Мамина,454077,55.1962732,61.4760036
6,переулок Мамина,454077,55.1952875,61.4836663
6А,переулок Мамина,454077,55.1961541,61.4827789
11А,улица Мамина,454077,55.1955814,61.4811888
15,улица Мамина,454077,55.1943655,61.4812828
1А,улица Крылова,454071,55.1705764,61.4354657
3,1-я Окружная улица,454048,55.1445209,61.3998287
110,улица Елькина,454048,55.1436540,61.4001000
30,улица Зальцмана,454079,55.1677385,61.5233319
49,2-я Эльтонская улица,454079,55.1693839,61.5264462
47,2-я Эльтонская улица,454079,55.1691884,61.5269265
53,2-я Эльтонская улица,454079,55.1701573,61.5247000
36,улица Зальцмана,454079,55.1672658,61.5201010
34,улица Зальцмана,454079,55.1670220,61.5211246
22,улица Зальцмана,454079,55.1688348,61.5256340
32,улица Зальцмана,454079,55.1676216,61.5214457
20,улица Зальцмана,454079,55.1686569,61.5265917
13,1-я Эльтонская улица,454079,55.1683841,61.5192447
45,улица Трашутина,454079,55.1698206,61.5171609
41,улица Трашутина,454079,55.1699483,61.5184532
132,проспект Победы,454081,55.1860668,61.4273940
136,проспект Победы,454081,55.1862535,61.4260848
138,проспект Победы,454081,55.1859504,61.4254909
123,проспект Победы,454081,55.1850080,61.4279732
128,проспект Победы,454081,55.1860955,61.4292964
125,проспект Победы,454081,55.1851965,61.4264441
140,проспект Победы,454081,55.1860050,61.4247874
134,проспект Победы,454081,55.1859889,61.4267013
130,проспект Победы,454081,55.1861634,61.4283883
126,проспект Победы,454081,55.1862089,61.4302913
40,Российская улица,454006,55.1776007,61.4137535
14А,Российская улица,454006,55.1950986,61.4088868
15,Российская улица,454006,55.1951578,61.4103965
9,Российская улица,454006,55.1966360,61.4088199
16А,Российская улица,454006,55.1947428,61.4091169
13,Российская улица,454006,55.1955251,61.4099676
9,улица Первой Пятилетки,454085,55.1652773,61.4598139
27,улица Марченко,454085,55.1650904,61.4589366
19Д,проспект Ленина,454007,55.1601383,61.4296251
1А,улица Горького,454007,55.1620904,61.4409092
124/4,Артиллерийская улица,454007,55.1655742,61.4326967
124,Артиллерийская улица,454007,55.1664854,61.4333125
124/1,Артиллерийская улица,454007,55.1673095,61.4330197
124/1,Артиллерийская улица,454007,55.1661431,61.4318534
37,улица Грибоедова,454071,55.1706131,61.4378576
6,улица Крылова,454071,55.1702465,61.4359844
40Б,улица Грибоедова,454071,55.1697313,61.4363247
40,улица Грибоедова,454071,55.1700300,61.4375833
38,улица Грибоедова,454071,55.1704503,61.4373091
14,улица Хохрякова,454085,55.1806351,61.4862694
25,улица Чоппа,454085,55.1768369,61.4833900
16А,улица Хохрякова,454085,55.1799317,61.4853816
18,улица Хохрякова,454085,55.1798139,61.4868087
6,улица Чоппа,454085,55.1788665,61.4842846
7,улица Чоппа,454085,55.1777287,61.4831067
20,улица Хохрякова,454085,55.1791379,61.4876431
2,улица Чоппа,454085,55.1786157,61.4867555
154,улица Мамина,454085,55.1767500,61.4812660
12А,улица Хохрякова,454085,55.1810768,61.4840188
16,улица Хохрякова,454085,55.1802297,61.4865163
6А,улица Чоппа,454085,55.1798471,61.4842647
8,улица Чоппа,454085,55.1789785,61.4833879
5,улица Чоппа,454085,55.1775983,61.4839669
19,улица Хохрякова,454077,55.1790862,61.4912380
21В,улица Мамина,454077,55.1918997,61.4846159
21А,улица Мамина,454077,55.1916411,61.4835448
11В,улица Мамина,454077,55.1970982,61.4824418
25А,улица Мамина,454077,55.1895626,61.4857916
21Б,улица Мамина,454077,55.1920277,61.4839807
25Б,улица Мамина,454077,55.1882128,61.4863247
9А,улица Мамина,454077,55.1974484,61.4785394
5Б,улица Мамина,454077,55.1977995,61.4755442
32,улица Тимирязева,454091,55.1579040,61.4047303
82А,улица Свободы,454091,55.1564047,61.4120429
42,улица Цвиллинга,454091,55.1581303,61.4061720
66А,улица Пушкина,454091,55.1571385,61.4097685
38,улица Цвиллинга,454091,55.1592049,61.4054407
70,улица Пушкина,454091,55.1559335,61.4101211
74,улица Свободы,454091,55.1587488,61.4116209
69,улица Пушкина,454091,55.1572351,61.4103681
45,проспект Ленина,454091,55.1601735,61.4100941
65,улица Пушкина,454091,55.1591705,61.4096549
37,улица Цвиллинга,454091,55.1586699,61.4070347
66,улица Пушкина,454091,55.1573738,61.4096774
31,улица Тимирязева,454091,55.1575224,61.4074008
70,улица Свободы,454091,55.1598910,61.4110937
49Б,проспект Ленина,454091,55.1596063,61.4076112
70,улица Островского,454106,55.1902000,61.3658491
95Б,улица Братьев Кашириных,454021,55.1778933,61.3577161
57,улица Пушкина,454091,55.1615281,61.4092205
56А,улица Пушкина,454091,55.1613627,61.4077243
60,улица Коммуны,454091,55.1631031,61.3989853
63А,Красная улица,454091,55.1611731,61.3946871
39,улица Васенко,454091,55.1638918,61.3961876
34,улица Елькина,454091,55.1638038,61.3972541
28,улица Елькина,454091,55.1649668,61.3972176
94,улица Кирова,454091,55.1644861,61.3998939
30,улица Елькина,454091,55.1645386,61.3978429
22,улица Елькина,454091,55.1660803,61.3976296
113А,улица Карла Маркса,454091,55.1651034,61.3998193
72А,улица Карла Маркса,454091,55.1654771,61.3996974
11,улица Елькина,454091,55.1659169,61.3985092
9,Красная улица,454091,55.1660248,61.3939566
24,улица Елькина,454091,55.1658568,61.3977191
80,улица Карла Маркса,454091,55.1655582,61.3944773
14,улица Елькина,454091,55.1669608,61.3975989
5/1,улица Елькина,454091,55.1671058,61.3989014
25,улица Васенко,454091,55.1661468,61.3959701
78,улица Карла Маркса,454091,55.1656307,61.3969981
50А,улица Володарского,454080,55.1583977,61.3852970
69Б,улица Энгельса,454080,55.1582814,61.3832656
88А,улица Коммуны,454080,55.1625125,61.3819958
4А,улица Болейко,454084,55.1882068,61.4017533
139А,улица Коммуны,454080,55.1618826,61.3729612
137А,улица Коммуны,454080,55.1616015,61.3740279
47А,улица Энгельса,454080,55.1636369,61.3824106
139Б,улица Коммуны,454080,55.1618502,61.3734332
129А,улица Коммуны,454080,55.1619355,61.3796485
2,улица Энтузиастов,454080,55.1613702,61.3747418
73А,проспект Ленина,454080,55.1593989,61.3795408
43Б,улица Энгельса,454080,55.1651801,61.3820701
39,улица Энгельса,454080,55.1666090,61.3819302
14В,улица Энтузиастов,454048,55.1553354,61.3753851
12Б,улица Энтузиастов,454080,55.1560954,61.3747181
67А,улица Сони Кривой,454048,55.1573724,61.3778346
69А,улица Сони Кривой,454048,55.1572717,61.3761590
65Б,улица Сони Кривой,454048,55.1566797,61.3774791
2,Витебская улица,454048,55.1538061,61.3745462
12А,улица Энтузиастов,454048,55.1560370,61.3740659
11Б,улица Энтузиастов,454048,55.1550827,61.3764118
11В,улица Энтузиастов,454048,55.1544856,61.3764858
13/1,улица Энтузиастов,454048,55.1547159,61.3770523
18Б,улица Энтузиастов,454048,55.1543383,61.3736909
9,улица Энтузиастов,454048,55.1565680,61.3762469
73,улица Сони Кривой,454048,55.1572441,61.3744739
11/2,улица Энтузиастов,454048,55.1554610,61.3767357
2Б,Витебская улица,454048,55.1538652,61.3737930
11А,улица Энтузиастов,454048,55.1561577,61.3772188
69,улица Сони Кривой,454048,55.1572477,61.3767916
31,улица Доватора,454048,55.1453645,61.3835122
18,улица Приборостроителей,454017,55.2716574,61.3935449
26,Павелецкая улица,454017,55.2730601,61.3945896
16А,улица Приборостроителей,454017,55.2722036,61.3953418
20,Павелецкая улица,454017,55.2716198,61.3944227
6,улица Дегтярёва,454017,55.2730708,61.3958480
22,Павелецкая улица,454017,55.2721384,61.3943999
4,улица Дегтярёва,454017,55.2735205,61.3960090
2А,улица Дегтярёва,454017,55.2747394,61.3952488
22,улица Приборостроителей,454017,55.2717964,61.3924619
8,улица Дегтярёва,454017,55.2722946,61.3960630
2,улица Дегтярёва,454017,55.2740298,61.3959889
16,улица Приборостроителей,454017,55.2715463,61.3958979
4А,улица Дегтярёва,454017,55.2735373,61.3949316
18А,улица Приборостроителей,454017,55.2726093,61.3937082
8,улица Приборостроителей,454017,55.2716686,61.3987465
22А,улица Дегтярёва,454017,55.2701855,61.3953050
3А,улица Вахтангова,454017,55.2683112,61.3888971
16,Трудовая улица,454017,55.2682183,61.3936835
3А,улица Приборостроителей,454017,55.2710205,61.3952791
8,Павелецкая улица,454017,55.2689819,61.3945355
20,улица Дегтярёва,454017,55.2707779,61.3961302
8,улица Вахтангова,454017,55.2690530,61.3910628
5,Уржумская улица,454017,55.2685499,61.3917012
13,Павелецкая улица,454017,55.2708543,61.3932644
7,улица Вахтангова,454017,55.2693777,61.3899005
14,Павелецкая улица,454017,55.2702677,61.3944955
9,Павелецкая улица,454017,55.2695643,61.3940102
5А,улица Вахтангова,454017,55.2687447,61.3894192
10,Павелецкая улица,454017,55.2694010,61.3945279
16,Павелецкая улица,454017,55.2707460,61.3944775
26,Трудовая улица,454017,55.2679766,61.3899690
3,улица Вахтангова,454017,55.2682894,61.3901572
10,улица Вахтангова,454017,55.2695786,61.3910303
10А,улица Вахтангова,454017,55.2694799,61.3918423
7,улица Приборостроителей,454017,55.2711060,61.3924774
12,Павелецкая улица,454017,55.2697737,61.3945205
24,улица Дегтярёва,454017,55.2699132,61.3961678
10,Трудовая улица,454017,55.2682423,61.3948858
7,Павелецкая улица,454017,55.2690173,61.3936339
3,улица Приборостроителей,454017,55.2711463,61.3959180
22,улица Дегтярёва,454017,55.2702925,61.3961494
18,Трудовая улица,454017,55.2683070,61.3926703
32,улица Дегтярёва,454017,55.2683308,61.3957126
10А,Павелецкая улица,454017,55.2693252,61.3951194
28,Трудовая улица,454017,55.2679702,61.3891201
5,улица Приборостроителей,454017,55.2711305,61.3946470
5,улица Вахтангова,454017,55.2687548,61.3900873
9А,Павелецкая улица,454017,55.2695485,61.3931813
11А,Павелецкая улица,454017,55.2701973,61.3935635
20,Трудовая улица,454017,55.2682597,61.3914291
12,улица 60 лет Октября,454017,55.2647502,61.3977210
5А,Трудовая улица,454017,55.2667129,61.4001762
2Б,улица Румянцева,454017,55.2618605,61.3783329
2,улица Румянцева,454017,55.2614819,61.3777887
13,улица Рождественского,454007,55.1555769,61.4450403
17А,улица Энтузиастов,454048,55.1516144,61.3779385
2,проспект Героя России Е.Н. Родионова,454003,55.1745387,61.2770081
31,Сахалинская улица,454013,55.2975914,61.3540617
20,Сахалинская улица,454013,55.2967482,61.3559578
77,улица Сосновая Роща,454013,55.2965435,61.3571197
76А,шоссе Металлургов,454052,55.2471405,61.3731342
28 к2,улица Румянцева,454047,55.2530896,61.3780320
12А,улица Комаровского,454052,55.2411535,61.3701644
9А,улица Пети Калмыкова,454052,55.2415991,61.3685916
6,улица Комаровского,454052,55.2418100,61.3760262
7,улица Комаровского,454052,55.2401019,61.3759266
11А,улица Пети Калмыкова,454052,55.2406462,61.3677393
13,улица Комаровского,454052,55.2398084,61.3713569
14А,улица Пети Калмыкова,454052,55.2371432,61.3729675
2,улица Пети Калмыкова,454052,55.2405100,61.3658370
12,улица Комаровского,454052,55.2406290,61.3712024
12Б,улица Пети Калмыкова,454052,55.2377549,61.3708091
16,улица Пети Калмыкова,454052,55.2366876,61.3731501
15,улица Комаровского,454052,55.2390258,61.3703785
19А,улица Пети Калмыкова,454052,55.2375682,61.3732058
7А,улица Пети Калмыкова,454052,55.2415101,61.3666812
4,улица Пети Калмыкова,454052,55.2397120,61.3662532
14,улица Пети Калмыкова,454052,55.2368616,61.3718085
19,улица Пети Калмыкова,454052,55.2380770,61.3719374
7А,улица Комаровского,454052,55.2408825,61.3757162
7Б,улица Пети Калмыкова,454052,55.2416197,61.3674956
25,улица Пети Калмыкова,454052,55.2376705,61.3750687
12,улица Пети Калмыкова,454052,55.2371301,61.3706900
8,улица Пети Калмыкова,454052,55.2382990,61.3679580
17,улица Пети Калмыкова,454052,55.2386052,61.3713810
7,улица Пети Калмыкова,454052,55.2413576,61.3658813
12,Черкасская улица,454052,55.2366624,61.3771778
9А,улица Комаровского,454052,55.2398055,61.3752945
23,улица Пети Калмыкова,454052,55.2381927,61.3737742
8,улица Комаровского,454052,55.2413574,61.3735077
21,улица Пети Калмыкова,454052,55.2386772,61.3725090
14,Черкасская улица,454052,55.2366789,61.3761257
27А,улица Пети Калмыкова,454052,55.2384230,61.3755802
10А,улица Комаровского,454052,55.2416556,61.3720279
6,улица Пети Калмыкова,454052,55.2388340,61.3668906
14,улица Комаровского,454052,55.2399214,61.3696484
10,улица Комаровского,454052,55.2409731,61.3723385
9,улица Комаровского,454052,55.2405521,61.3748709
2,улица Комаровского,454052,55.2421039,61.3781579
6А,улица Пети Калмыкова,454052,55.2391278,61.3679367
5,улица Комаровского,454052,55.2402770,61.3767852
10,улица Пети Калмыкова,454052,55.2377869,61.3694823
11А,улица Комаровского,454052,55.2396759,61.3744286
8А,улица Комаровского,454052,55.2419126,61.3730184
27,улица Пети Калмыкова,454052,55.2374656,61.3761478
11,улица Комаровского,454052,55.2404186,61.3740167
4,улица Комаровского,454052,55.2420165,61.3772099
5А,улица Комаровского,454052,55.2410765,61.3765384
11Б,улица Пети Калмыкова,454052,55.2410252,61.3682577
13А,улица Комаровского,454052,55.2393984,61.3717735
9,улица Пети Калмыкова,454052,55.2407810,61.3665125
3А,улица Комаровского,454052,55.2411774,61.3776043
4А,улица Комаровского,454052,55.2423649,61.3769382
11,улица Пети Калмыкова,454052,55.2402381,61.3672483
6А,улица Комаровского,454052,55.2415611,61.3748822
61,улица Пети Калмыкова,454052,55.2433836,61.3654748
59А,улица Пети Калмыкова,454052,55.2427498,61.3661284
63,улица Пети Калмыкова,454052,55.2432508,61.3646957
59Б,улица Пети Калмыкова,454052,55.2423909,61.3674134
25О,шоссе Металлургов,454031,55.2482157,61.3900446
37,Туруханская улица,454139,55.1028826,61.4847992
36,Туруханская улица,454139,55.1027840,61.4837655
30/1,улица Энтузиастов,454048,55.1493923,61.3760683
18,Челябинская улица,454904,55.0395309,61.3766050
88,Красноармейская улица,454091,55.1677810,61.4126256
38,улица Карла Маркса,454090,55.1659433,61.4123234
3Д,Белостокская улица,454046,55.1210200,61.4364482
12А,улица 8 Марта,454096,55.0351791,61.3760436
28,Советская улица,454904,55.0398883,61.3705676
11А,Сетевая улица,454008,55.1937343,61.3803792
86,Линейная улица,454079,55.1571643,61.4990003
82,Линейная улица,454079,55.1571857,61.5021640
82,Копейское шоссе,454091,55.1483858,61.4469098
60,Копейское шоссе,454091,55.1517476,61.4443388
30,улица Трубников,454135,55.1382989,61.4562634
15Д к2,улица Энтузиастов,454048,55.1516644,61.3774550
23,улица Энтузиастов,454048,55.1495037,61.3768226
1А,улица Тимирязева,454091,55.1567186,61.4221783
102А,Линейная улица,454079,55.1592582,61.4840051
15Д к3,улица Энтузиастов,454048,55.1514600,61.3767540
82Б,проспект Ленина,454080,55.1602733,61.3657031
63В,улица Энергетиков,454135,55.1381730,61.4509220
32,2-я Павелецкая улица,<различные>,55.2737518,61.4004602
80,улица Сталеваров,454038,55.2445651,61.4028266
24,улица Челябэнерго,454016,55.2336861,61.2882707
26,улица Челябэнерго,454016,55.2334396,61.2886331
28,улица Челябэнерго,454016,55.2334046,61.2876739
30,улица Челябэнерго,454016,55.2331676,61.2880505
1,улица Лизы Чайкиной,454135,55.1251637,61.4657586
15А,Батумская улица,454129,55.1157226,61.4660245
70,Донбасская улица,454087,55.1211484,61.3683549
135 к1,улица Братьев Кашириных,454128,55.1717951,61.3033387
141А,улица Братьев Кашириных,454128,55.1699940,61.2998542
12,Загородная улица,454048,55.1433028,61.3987498
14,Загородная улица,454048,55.1432931,61.3979818
16,Загородная улица,454048,55.1432542,61.3971825
18,Загородная улица,454048,55.1433464,61.3967741
1,2-я Окружная улица,454048,55.1441266,61.3992784
33,улица Образцова,454048,55.1452837,61.3677078
1А к1,улица Фёдорова,454048,55.1350818,61.4027629
11А,улица Образцова,454048,55.1454014,61.3744667
23,улица Образцова,454048,55.1453573,61.3695271
36,улица Энтузиастов,454048,55.1473175,61.3763225
36А,улица Энтузиастов,454048,55.1470911,61.3763001
46,улица Бажова,454074,55.1833120,61.4527636
46,улица Бажова,454074,55.1831739,61.4533929
5,Автодорожная улица,454008,55.2059816,61.3652895
17А,Свердловский тракт,454008,55.1982519,61.3904375
1А,улица Ворошилова,454008,55.2068843,61.3398129
19,Автодорожная улица,454008,55.2063060,61.3446654
8А/1,Производственная улица,454008,55.2039721,61.3434771
21,Автодорожная улица,454008,55.2077403,61.3439020
15А,Автодорожная улица,454008,55.2063520,61.3491621
102А,улица Братьев Кашириных,454001,55.1799260,61.3171567
102Д,улица Братьев Кашириных,454001,55.1788306,61.3166181
126,улица Братьев Кашириных,454128,55.1736189,61.3028555
135 к3,улица Братьев Кашириных,454128,55.1710628,61.3032458
139,улица Братьев Кашириных,454128,55.1707407,61.3009716
21Б,улица Чичерина,454128,55.1820565,61.2949713
38Б,улица Чичерина,454003,55.1758993,61.2971370
5В,улица 250-летия Челябинска,454001,55.1808868,61.3137775
16,улица Чайковского,454138,55.1934261,61.3614746
22,Комсомольский проспект,454138,55.1932142,61.3600015
24,Комсомольский проспект,454138,55.1937061,61.3582793
26,Комсомольский проспект,454138,55.1945191,61.3573067
41Д,Комсомольский проспект,454112,55.1912841,61.3395339
6,участок 1 ЧЭМК,454006,55.1958456,61.4141778
163,улица Братьев Кашириных,454004,55.1624985,61.2960985
12,Свердловский тракт,454036,55.2295300,61.3679224
12Б,Радонежская улица,454036,55.2254773,61.3556106
10/2,Радонежская улица,454036,55.2254272,61.3583302
33 к3,Партизанская улица,454016,55.1778252,61.3720342
297,проспект Победы,454074,55.1881690,61.3163737
9Б,Пионерская улица,454112,55.1909939,61.3503344
2,улица Смирных,454126,55.1524681,61.3757276
21Б,Тернопольская улица,454126,55.1531224,61.3718436
26,улица Смирных,454126,55.1523087,61.3662656
2А,улица Смирных,454126,55.1524768,61.3752418
4А,Витебская улица,454126,55.1538013,61.3722876
29П,улица Героев Танкограда,454081,55.2230971,61.4428591
1А/3,улица Плеханова,454091,55.1570117,61.4216764
28А,улица Энтузиастов,454080,55.1509016,61.3759176
9А,улица Автоматики,454038,55.2355336,61.4274566
5 к2,улица Сталеваров,454047,55.2630899,61.4050593
7,улица Сталеваров,454047,55.2618753,61.4038181
5 к6,улица Сталеваров,454047,55.2633666,61.4059264
9,улица Громова,454904,55.0386601,61.3824350
61,улица Труда,454091,55.1675248,61.4149543
67,улица Труда,454091,55.1676437,61.4141788
48,улица Труда,454006,55.1690087,61.4143661
40,улица Труда,454006,55.1690092,61.4151069
84А,улица Свободы,454091,55.1550296,61.4126784
7 к2,улица Молодогвардейцев,454138,55.2039076,61.3281455
1,улица Котина,454071,55.1789900,61.4562030
191Б,улица Танкистов,454085,55.1658530,61.4701205
193Д,улица Танкистов,454085,55.1645559,61.4670093
21,улица 40-летия Октября,454007,55.1642270,61.4510449
38Б,улица Энгельса,454048,55.1558428,61.3802845
43А,улица Сони Кривой,454048,55.1567893,61.3879531
4В,Южная улица,454048,55.1551446,61.3856369
88А,улица Елькина,454048,55.1519884,61.3979032
3,улица Монтажников,454038,55.2478311,61.4290602
30,2-я Павелецкая улица,<различные>,55.2717061,61.4033414
36,2-я Павелецкая улица,454047,55.2772095,61.3988377
2А/1,Цинковая улица,454008,55.1952861,61.3846069
41,Верстовая улица,454036,55.2225827,61.3110488
2,Свердловский тракт,454038,55.2490418,61.3550166
28/5,улица Румянцева,454047,55.2527703,61.3736419
13А,Валдайская улица,454081,55.2130865,61.4559016
4,Артиллерийская улица,454081,55.1904402,61.4234617
102,Шадринская улица,454081,55.1881810,61.4176780
98,Линейная улица,454079,55.1589994,61.4882183
96А,Линейная улица,454079,55.1601332,61.4911941
98,Линейная улица,454079,55.1596606,61.4882179
96В,Линейная улица,454079,55.1593120,61.4896790
3А,проспект Ленина,454091,55.1580723,61.4786115
69,Линейная улица,454079,55.1558448,61.4982581
1Б,проспект Ленина,454079,55.1558064,61.5013334
1В,проспект Ленина,454079,55.1556208,61.5034458
21,улица Трашутина,454079,55.1712197,61.5278924
17,улица Трашутина,454079,55.1713708,61.5289928
19,улица Трашутина,454079,55.1714971,61.5282986
32А,улица Клары Цеткин,454080,55.1641669,61.3832961
21,улица Сергея Герасимова,454079,55.1688054,61.5380619
4Б,улица Монакова,454091,55.1490993,61.4093002
65,Свердловский проспект,454091,55.1582555,61.3896207
32,улица Сони Кривой,454091,55.1581495,61.3900843
11,Железнодорожная улица,454091,55.1369288,61.4133947
6,Златоустовская улица,454048,55.1301737,61.4013793
149А,улица Блюхера,454048,55.0806685,61.3298721
63,улица Косарева,454018,55.1817222,61.3740646
6,улица Луценко,454007,55.1499468,61.4400984
35А,Российская улица,454006,55.1884277,61.4142733
141,улица Свободы,454091,55.1592832,61.4127589
69,проспект Ленина,454080,55.1590074,61.3876460
63А,проспект Ленина,454091,55.1597514,61.3923243
61,проспект Ленина,454091,55.1597553,61.3949346
39,улица Цвиллинга,454091,55.1572971,61.4071750
135,улица Братьев Кашириных,454128,55.1712193,61.3039711
137 ст 2,улица Братьев Кашириных,454128,55.1704311,61.3027376
38,улица Хохрякова,454071,55.1715181,61.4827022
36,улица Хохрякова,454071,55.1721421,61.4833331
40,улица Хохрякова,454071,55.1712610,61.4841979
28,улица Энгельса,454080,55.1605672,61.3797415
66,проспект Ленина,454080,55.1603439,61.3783739
68,проспект Ленина,454091,55.1603141,61.3767071
305Д,проспект Победы,454136,55.1880361,61.3085127
305Е,проспект Победы,454136,55.1880610,61.3077232
108,Комсомольский проспект,454100,55.1896400,61.2903452
111,Комсомольский проспект,454100,55.1869080,61.2877192
11,1-я Эльтонская улица,454079,55.1684842,61.5201931
64,проспект Ленина,454080,55.1605147,61.3838591
32,улица Володарского,454080,55.1607546,61.3852672
30,Товарный двор,454000,55.1390926,61.4171505
10,2-я Шагольская улица,454015,55.2334984,61.3042049
60В,улица Молодогвардейцев,454136,55.1846265,61.3319914
38,улица 3 Интернационала,454006,55.1752101,61.4197956
39,улица Энгельса,454080,55.1663080,61.3821485
39,улица Энгельса,454080,55.1663514,61.3819668
51,2-я Эльтонская улица,454079,55.1697245,61.5253747
2,улица Качалина,454100,55.1861588,61.2752878
44/1,улица Братьев Кашириных,454106,55.1762020,61.3785664
9,улица Лобырина,454030,55.2138550,61.3022471
10,Загородная улица,454048,55.1433289,61.3992749
8,Кузбасская улица,454048,55.1439783,61.3974899
1,улица Героя России Александра Яковлева,454080,55.1719886,61.3706370
3,улица Героя России Александра Яковлева,454080,55.1718599,61.3694912
5,улица Героя России Александра Яковлева,454080,55.1719842,61.3683494
143,улица Танкистов,454085,55.1762207,61.4736811
151,улица Танкистов,454085,55.1756239,61.4735024
153,улица Танкистов,454085,55.1754543,61.4734706
157,улица Танкистов,454085,55.1750889,61.4734021
163,улица Танкистов,454085,55.1746107,61.4732238
165,улица Танкистов,454085,55.1744716,61.4731981
169,улица Танкистов,454085,55.1741648,61.4731205
4,2-й Катерный переулок,454085,55.1753884,61.4722932
6,2-й Катерный переулок,454085,55.1753947,61.4718328
52,улица Кулибина,454085,55.1737895,61.4730153
167,улица Танкистов,454085,55.1743108,61.4731389
171,улица Танкистов,454085,55.1740000,61.4730504
147,улица Танкистов,454085,55.1759346,61.4735879
149,улица Танкистов,454085,55.1757707,61.4735382
159,улица Танкистов,454085,55.1748846,61.4733076
155,улица Танкистов,454085,55.1752912,61.4734213
11,Транзитная улица,454085,55.1756497,61.4709148
2,1-й Катерный переулок,454085,55.1748697,61.4724798
2,2-й Катерный переулок,454085,55.1753781,61.4726582
54,улица Кулибина,454085,55.1743404,61.4713387
262,улица Татищева,454003,55.1727027,61.2818004
266,улица Татищева,454003,55.1717305,61.2824911
2Г,улица Ворошилова,454138,55.2045445,61.3298068
84,улица Елькина,454048,55.1529042,61.3979043
11,Салютная улица,454071,55.1713620,61.4509726
12А,улица Первой Пятилетки,454085,55.1687422,61.4494841
11,улица Трашутина,454079,55.1716595,61.5306109
13,улица Трашутина,454079,55.1713793,61.5301944
25,улица Трашутина,454079,55.1712030,61.5266753
27,улица Трашутина,454079,55.1713335,61.5259874
29,улица Трашутина,454079,55.1710600,61.5256093
3,10-й Лобинский переулок,454079,55.1680453,61.5370150
34,2-я Эльтонская улица,454079,55.1703389,61.5364035
9,улица Трашутина,454079,55.1715341,61.5313010
4,улица Мира,454047,55.2552706,61.4012786
58,улица Чайковского,454018,55.1796866,61.3514575
10,Лазурная улица,454017,55.2878394,61.3844358
72/2,улица Сосновая Роща,454013,55.2982566,61.3645865
10,Санаторная улица,454013,55.3121292,61.3565502
8Б,Заводская улица,454902,55.1530954,61.3058355
8В,Заводская улица,454902,55.1534438,61.3052537
126/1,улица Братьев Кашириных,454128,55.1738993,61.3026079
24,улица Скульптора Головницкого,454030,55.2083008,61.2799690
6В,улица Хохрякова,454077,55.1839365,61.4820462
24,улица Чичерина,454100,55.1839138,61.2891591
14А/1,улица Пети Калмыкова,454052,55.2374018,61.3727868
7Б,улица Рождественского,454007,55.1584752,61.4464203
61Б,улица Героев Танкограда,454071,55.1764258,61.4526418
163/1,улица Труда,454080,55.1674917,61.3869602
30,улица Тимирязева,454091,55.1579292,61.4054967
55,проспект Ленина,454091,55.1598449,61.3994639
3А,площадь Революции,454091,55.1582155,61.4052561
7А,площадь Революции,454091,55.1566564,61.4045841
10,улица Рылеева,454087,55.1291078,61.3759184
4А,улица Худякова,454048,55.1484373,61.3786279
46Б,улица Энтузиастов,454048,55.1512803,61.3790171
46,улица Энгельса,454048,55.1512736,61.3798087
260,Российская улица,454091,55.1522930,61.4179951
22,улица Хохрякова,454085,55.1766750,61.4864499
56,улица Блюхера,454087,55.1295352,61.3617362
100,Шадринская улица,454081,55.1880005,61.4187065
1В,Троицкая улица,454087,55.1246434,61.3726370
22А,улица Дзержинского,454119,55.1242310,61.4615060
84,Ржевская улица,454077,55.1882461,61.4676737
5А,3-й Томский переулок,454077,55.1880491,61.4698559
5,3-й Томский переулок,454077,55.1879534,61.4707546
124/5,Артиллерийская улица,454007,55.1670019,61.4318401
35/2,улица Бажова,454077,55.1903718,61.4660861
99В,улица Энгельса,454048,55.1504809,61.3829673
54Б,улица Чайковского,454018,55.1796189,61.3500109
8,улица Аношкина,454100,55.1947647,61.2845416
5,улица 40-летия Победы,454100,55.1925499,61.2867959
10А,улица Скульптора Головницкого,454030,55.2086760,61.2862976
8А,улица Пети Калмыкова,454052,55.2378995,61.3683932
10А,улица Пети Калмыкова,454052,55.2382880,61.3701614
60,Северная улица,454006,55.1572429,61.2994365
16А,улица Пети Калмыкова,454052,55.2364721,61.3744478
11Г/2,Троицкий тракт,454053,55.1118388,61.3852263
23,Салютная улица,454071,55.1703004,61.4459466
10,улица Белостоцкого,454007,55.1643244,61.4455925
204,Российская улица,454090,55.1593682,61.4159156
1,1-я Томинская улица,454087,55.1231899,61.3908631
18А,улица Хохрякова,454085,55.1802678,61.4873770
24А,улица Хохрякова,454085,55.1751906,61.4868375
12А,Свердловский тракт,454008,55.2261932,61.3716402
8,улица Городок 11а,454015,55.2285033,61.2913047
14,улица Городок 11а,454015,55.2290802,61.2911918
110,улица Городок 11а,454015,55.2288216,61.2894384
1,улица Городок 11а,454015,55.2291906,61.2904090
5А,улица Калинина,454084,55.1793971,61.4048277
5,улица Городок 11а,454015,55.2287084,61.2910868
43,улица Городок 11а,454015,55.2291436,61.2951500
26,улица Городок 11а,454015,55.2301777,61.2936819
41,улица Городок 11а,454015,55.2293133,61.2947059
35,улица Городок 11а,454015,55.2291838,61.2931550
37,улица Городок 11а,454015,55.2292656,61.2941041
16,улица Городок 11а,454015,55.2293516,61.2896211
64,улица Городок 11а,454015,55.2281145,61.2939212
69,улица Городок 11а,454015,55.2280355,61.2930969
21,улица Городок 11а,454015,55.2306263,61.2923720
39А,улица Городок 11а,454015,55.2300732,61.2941606
68,улица Городок 11а,454015,55.2281333,61.2923235
27,улица Городок 11а,454015,55.2300913,61.2934808
30,улица Городок 11а,454015,55.2298019,61.2926730
81,улица Городок 11а,454015,55.2274080,61.2930393
40,улица Городок 11а,454015,55.2295017,61.2943913
28,улица Городок 11а,454015,55.2299589,61.2932190
46А,улица Городок 11а,454015,55.2288777,61.2956346
15,улица Городок 11а,454015,55.2292942,61.2908570
19А,улица Городок 11а,454015,55.2300571,61.2911947
39,улица Городок 11а,454015,55.2296628,61.2942020
18,улица Городок 11а,454015,55.2299237,61.2908656
24,улица Городок 11а,454015,55.2303737,61.2926430
78,улица Городок 11а,454015,55.2269791,61.2929194
81,улица Городок 11а,454015,55.2269571,61.2923502
72,улица Городок 11а,454015,55.2269883,61.2932251
16А,улица Городок 11а,454015,55.2295045,61.2899243
70,улица Городок 11а,454015,55.2276837,61.2938117
65,улица Городок 11а,454015,55.2280850,61.2934489
29,улица Городок 11а,454015,55.2298198,61.2929657
60,улица Городок 11а,454015,55.2281974,61.2946768
33,улица Городок 11а,454015,55.2295024,61.2928062
80,улица Городок 11а,454015,55.2273814,61.2921817
47,улица Городок 11а,454015,55.2282276,61.2954337
50,улица Городок 11а,454015,55.2283399,61.2973869
52,улица Городок 11а,454015,55.2281014,61.2966294
44,улица Городок 11а,454015,55.2295052,61.2956176
59,улица Городок 11а,454015,55.2279523,61.2948837
86,улица Городок 11а,454015,55.2279051,61.2977907
55,улица Городок 11а,454015,55.2283288,61.2959111
49,улица Городок 11а,454015,55.2290196,61.2965278
84,улица Городок 11а,454015,55.2276527,61.2972342
56,улица Городок 11а,454015,55.2280662,61.2958626
62,улица Городок 11а,454015,55.2278358,61.2943571
61,улица Городок 11а,454015,55.2278805,61.2946715
54,улица Городок 11а,454015,55.2280780,61.2961461
48,улица Городок 11а,454015,55.2289423,61.2963868
71,улица Городок 11а,454015,55.2274176,61.2938934
38,улица Городок 11а,454015,55.2291026,61.2942058
6,улица Городок 11а,454015,55.2286241,61.2911910
13,улица Городок 11а,454015,55.2289035,61.2914277
31,улица Городок 11а,454015,55.2296013,61.2923745
32,улица Городок 11а,454015,55.2294921,61.2920232
17,улица Городок 11а,454015,55.2295517,61.2900808
3,улица Городок 11а,454015,55.2289921,61.2906962
2,улица Городок 11а,454015,55.2290525,61.2906287
9,улица Городок 11а,454015,55.2284470,61.2914789
11,улица Городок 11а,454015,55.2282629,61.2916094
10,улица Городок 11а,454015,55.2283563,61.2915316
25,улица Городок 11а,454015,55.2305772,61.2930383
12,улица Городок 11а,454015,55.2279996,61.2918077
1Б,улица Гагарина,454010,55.1446311,61.4455760
3Б/1,Центральная улица,454902,55.1514392,61.3044182
11Б,Свердловский тракт,454008,55.2014837,61.3898220
34,Свердловский тракт,454038,55.2021814,61.3797411
11,Двинская улица,454018,55.1812621,61.3466279
16,Актюбинская улица,454018,55.1814183,61.3535962
7,Актюбинская улица,454018,55.1815116,61.3540655
4,Актюбинская улица,454018,55.1822865,61.3543025
147,улица Чайковского,454018,55.1825589,61.3540136
13,Актюбинская улица,454018,55.1806134,61.3541094
17,Актюбинская улица,454018,55.1801381,61.3543023
24,Актюбинская улица,454018,55.1806798,61.3535081
68,Партизанская улица,454018,55.1790892,61.3558300
25,Актюбинская улица,454018,55.1794841,61.3541140
27,Актюбинская улица,454018,55.1792666,61.3542374
30,Актюбинская улица,454018,55.1798196,61.3536498
28,Актюбинская улица,454018,55.1799896,61.3536316
34,Актюбинская улица,454018,55.1794566,61.3536613
32,Актюбинская улица,454018,55.1796200,61.3536642
9,Актюбинская улица,454018,55.1812503,61.3540706
18,Актюбинская улица,454018,55.1812094,61.3536263
20,Актюбинская улица,454018,55.1810838,61.3535265
6,Актюбинская улица,454018,55.1820642,61.3541765
11,Актюбинская улица,454018,55.1809782,61.3541201
12,Актюбинская улица,454018,55.1816912,61.3536622
14,Актюбинская улица,454018,55.1815482,61.3535936
8,Актюбинская улица,454018,55.1819055,61.3540045
21,Актюбинская улица,454018,55.1797793,61.3541450
23,Актюбинская улица,454018,55.1796210,61.3541273
72,Партизанская улица,454018,55.1790953,61.3546901
10,Актюбинская улица,454018,55.1818112,61.3538467
167А,Российская улица,454091,55.1641638,61.4166564
153,улица Труда,454091,55.1672276,61.3958772
95А,улица Братьев Кашириных,454016,55.1778376,61.3568889
40А,улица Университетская Набережная,454016,55.1748067,61.3402641
65,улица Энгельса,454080,55.1606710,61.3823439
68А,улица Братьев Кашириных,454018,55.1794400,61.3480212
16,улица Энтузиастов,454048,55.1549376,61.3751725
9А,Лесопарковая улица,454126,55.1531313,61.3654030
34,улица Хохрякова,454071,55.1717846,61.4850237
108,улица Братьев Кашириных,454001,55.1782289,61.3131432
108А,улица Братьев Кашириных,454001,55.1789613,61.3126333
108Б,улица Братьев Кашириных,454001,55.1796751,61.3124597
2,Ильменская улица,454048,55.1428298,61.3978173
36,Электролитный переулок,454106,55.1911621,61.3683860
29,Электролитный переулок,454106,55.1909342,61.3683487
34,Электролитный переулок,454106,55.1911735,61.3687324
15,Актюбинская улица,454018,55.1803537,61.3541063
19,Актюбинская улица,454018,55.1799642,61.3540941
74,Партизанская улица,454018,55.1790988,61.3541705
3,Актюбинская улица,454018,55.1819904,61.3546504
17Б,улица Масленникова,454129,55.1181541,61.4590951
13,Электролитный переулок,454106,55.1910287,61.3729158
11,Электролитный переулок,454106,55.1910131,61.3732527
16,Электролитный переулок,454106,55.1912310,61.3725447
12,Электролитный переулок,454106,55.1912495,61.3732505
14,Электролитный переулок,454106,55.1912399,61.3729256
15,Электролитный переулок,454106,55.1910165,61.3726003
16,Транзитная улица,454085,55.1759427,61.4705566
13,Транзитная улица,454085,55.1756557,61.4705495
3,Транзитная улица,454085,55.1756577,61.4723627
4,1-й Катерный переулок,454085,55.1749492,61.4719695
71,Катерная улица,454085,55.1759427,61.4701793
7,Транзитная улица,454085,55.1756597,61.4716967
73,Катерная улица,454085,55.1756537,61.4701938
5,Транзитная улица,454085,55.1756636,61.4720593
10,1-й Катерный переулок,454085,55.1751405,61.4709339
126,улица Танкистов,454085,55.1759254,61.4727631
12,Транзитная улица,454085,55.1761117,61.4711262
8,2-й Катерный переулок,454085,55.1753690,61.4713340
12,1-й Катерный переулок,454085,55.1751658,61.4705817
9,Транзитная улица,454085,55.1756477,61.4713201
4,Транзитная улица,454085,55.1759222,61.4724702
6,Транзитная улица,454085,55.1759189,61.4719070
16,1-й Катерный переулок,454085,55.1752893,61.4697196
128,улица Танкистов,454085,55.1756477,61.4727078
10,2-й Катерный переулок,454085,55.1753849,61.4709226
14,1-й Катерный переулок,454085,55.1752176,61.4702278
21А,Транзитная улица,454085,55.1755757,61.4688485
161,улица Танкистов,454085,55.1747476,61.4732647
1,2-я Порядковая улица,454138,55.1994612,61.3581702
57,улица Пестеля,454087,55.1281420,61.3851656
31А,улица Молодогвардейцев,454021,55.1886631,61.3332693
22,Актюбинская улица,454018,55.1808614,61.3536480
80А,улица Городок 11а,454015,55.2272512,61.2924929
63,улица Городок 11а,454015,55.2281846,61.2942436
66,улица Городок 11а,454015,55.2280633,61.2933205
73,улица Городок 11а,454015,55.2277334,61.2934615
51,улица Городок 11а,454015,55.2282216,61.2970321
86А,улица Городок 11а,454015,55.2278891,61.2974881
11,Набережная улица,454084,55.1753475,61.4066909
7,Набережная улица,454084,55.1774650,61.4078103
9,Набережная улица,454084,55.1759763,61.4070675
19,улица Кирова,454084,55.1747317,61.4004120
25,Советская улица,454091,55.1661362,61.4064534
15,Кубанская улица,454087,55.1216769,61.3699165
9А,улица Воровского,454048,55.1551628,61.3967332
268,улица Татищева,454003,55.1725645,61.2849784
42,улица 250-летия Челябинска,454003,55.1714929,61.2846787
117,проспект Победы,454081,55.1853619,61.4318423
5В,улица Курчатова,454048,55.1471945,61.3945060
3,улица Блюхера,452048,55.1453303,61.3885837
25,улица Курчатова,454048,55.1516359,61.3835675
2Д,улица Блюхера,454048,55.1470117,61.3890073
21,улица Куйбышева,454138,55.1982633,61.3551700
16,улица 250-летия Челябинска,454021,55.1805172,61.3010907
16А,улица 250-летия Челябинска,454021,55.1800830,61.3019673
8,Рязанская улица,454100,55.1872834,61.2748008
2,Каретный переулок,454002,55.1802562,61.2783984
48,улица Карла Маркса,454091,55.1657708,61.4092651
136/3,Артиллерийская улица,454007,55.1641151,61.4319091
29,улица Дружбы,454052,55.2500730,61.3683092
50,улица Орджоникидзе,454091,55.1519570,61.4042345
4,Волгоградская улица,454048,55.1404014,61.3868501
25,улица Ленина,454902,55.1547166,61.3015472
3Б,Центральная улица,454902,55.1492076,61.3060179
41А,улица Цвиллинга,454091,55.1557369,61.4073130
34,Физкультурная улица,454053,55.1128760,61.3967883
77,улица Энгельса,454048,55.1555065,61.3822026
3,1-я Окружная улица,454048,55.1445301,61.3999898
4,Рыночный переулок,454010,55.1234977,61.4456153
9,улица Толстого,454129,55.1215223,61.4543862
2,2-й Брестский переулок,454129,55.1228793,61.4568285
2,Комсомольский проспект,454008,55.1934560,61.3847710
8,Двинская улица,454106,55.1818288,61.3519436
30,Локомотивная улица,454053,55.1191111,61.4016288
5,Каслинская улица,454084,55.1922098,61.3934012
5Б с4,Каслинская улица,454084,55.1923804,61.3920241
5Б с2,Каслинская улица,454084,55.1919637,61.3923245
5Б с3,Каслинская улица,454084,55.1921413,61.3921473
35,Свердловский проспект,454084,55.1789237,61.3881356
181/1,проспект Победы,454084,55.1837402,61.3877795
74/1,5-я Электровозная улица,454046,55.1106344,61.4186061
2,улица Шота Руставели,454135,55.1367012,61.4510231
63,улица Энергетиков,454135,55.1381038,61.4517318
14А,улица Пети Калмыкова,454052,55.2373493,61.3724008
19Б,улица Пети Калмыкова,454052,55.2372326,61.3743824
28/4,улица Румянцева,454047,55.2528102,61.3732171
28 к8,улица Румянцева,454047,55.2532500,61.3727951
24,посёлок Аэропорт,454133,55.2866688,61.5184165
8,Пчелиная улица,454000,55.1552617,61.2836509
34,улица Хохрякова,454071,55.1721636,61.4845685
34,улица Хохрякова,454071,55.1716490,61.4850068
34,Лазуритовая улица,454000,55.1517848,61.2598073
16,Лазуритовая улица,454000,55.1539837,61.2598634
34,улица Хохрякова,454071,55.1721742,61.4843548
34,улица Хохрякова,454071,55.1719684,61.4847984
1,улица Приборостроителей,454017,55.2709518,61.4000427
8А,улица Приборостроителей,454017,55.2720969,61.3992208
91А,улица Бажова,454071,55.1823575,61.4529233
4А,1-й переулок Лермонтова,454074,55.1832607,61.4539111
91 к1,улица Бажова,454074,55.1818397,61.4547206
91 к1,улица Бажова,454071,55.1809226,61.4535191
152А,улица Танкистов,454085,55.1653516,61.4662783
193В,улица Танкистов,454085,55.1647110,61.4693659
1,Водопроводная улица,454930,55.0630201,61.2619754
34,улица Елькина,454091,55.1639476,61.3966524
34,улица Елькина,454091,55.1638627,61.3975807
34,улица Елькина,454091,55.1639048,61.3971326
54/1,улица Кулибина,454085,55.1745308,61.4716846
9А,улица Воровского,454092,55.1551311,61.3964664
13А,улица Энтузиастов,454048,55.1554935,61.3779463
35А,улица Кузнецова,454087,55.1110420,61.3382174
13/2,улица Энтузиастов,454048,55.1543081,61.3776012
24,улица Сони Кривой,454091,55.1584098,61.3965400
26,улица Энтузиастов,454048,55.1513523,61.3759778
45,улица Монакова,454091,55.1454973,61.4070993
1,улица Орджоникидзе,454091,55.1538025,61.4181636
155,улица Свободы,454091,55.1530880,61.4154478
222,Российская улица,454091,55.1552394,61.4172478
41,улица Цвиллинга,454091,55.1566077,61.4078162
41,улица Плеханова,454091,55.1545037,61.4113837
68,улица Пушкина,454091,55.1568511,61.4090763
3,площадь Революции,454091,55.1583600,61.4043360
21,улица Героев Танкограда,454074,55.1887373,61.4430007
18,улица Александра Шмакова,456518,55.2074083,61.2737231
12,улица Александра Шмакова,456518,55.2063232,61.2716987
15,улица Габдуллы Тукая,456518,55.2054284,61.2764028
16,улица Александра Шмакова,456518,55.2070639,61.2725155
9,улица Габдуллы Тукая,456518,55.2039251,61.2748749
22,улица Габдуллы Тукая,456518,55.2061908,61.2801992
21,улица Габдуллы Тукая,456518,55.2062600,61.2785655
18,улица Габдуллы Тукая,456518,55.2050042,61.2785079
14,улица Александра Шмакова,456518,55.2066945,61.2720961
10,улица Александра Шмакова,456518,55.2056945,61.2715960
13,улица Габдуллы Тукая,456518,55.2048480,61.2758353
17,улица Габдуллы Тукая,456518,55.2058074,61.2773003
20,улица Габдуллы Тукая,456518,55.2056037,61.2795924
11,улица Габдуллы Тукая,456518,55.2042622,61.2754074
1Б,улица Шота Руставели,454135,55.1374122,61.4471240
71,улица Пушкина,454091,55.1565370,61.4106279
86,проспект Ленина,454080,55.1593569,61.3636638
19А,Автодорожная улица,454008,55.2059051,61.3475189
21 с1,Автодорожная улица,454008,55.2078394,61.3429516
21 с3,Автодорожная улица,454008,55.2070367,61.3427890
113,Комсомольский проспект,454021,55.1854563,61.2859253
3,2-я Окружная улица,454048,55.1446224,61.3990615
5,1-я Окружная улица,454048,55.1452352,61.3992743
82,улица Труда,454091,55.1645466,61.4042266
14А,улица Чайковского,454138,55.1941913,61.3620475
86,улица Труда,454091,55.1682568,61.4042377
64,Копейское шоссе,454010,55.1452814,61.4521068
122,улица Шаумяна,454048,55.1450818,61.3984674
88,Копейское шоссе,454079,55.1496194,61.4483330
9А,улица 40-летия Победы,454100,55.1924749,61.2927602
9,улица 40-летия Победы,454100,55.1925483,61.2911129
22,улица Бейвеля,454100,55.1955704,61.2814008
7Б,Лесопарковая улица,454080,55.1554000,61.3685641
13,улица Героя России Александра Яковлева,454080,55.1719834,61.3626357
9,улица Героя России Александра Яковлева,454080,55.1718346,61.3654994
11,улица Героя России Александра Яковлева,454080,55.1719849,61.3643749
7,улица Героя России Александра Яковлева,454080,55.1719867,61.3666233
15,улица Героя России Александра Яковлева,454080,55.1718297,61.3615101
63,улица 40-летия Победы,454001,55.1749112,61.3159593
1А,улица Тимирязева,454091,55.1561778,61.4219073
1,Актюбинская улица,454018,55.1822452,61.3548621
5,Актюбинская улица,454018,55.1817582,61.3543655
26,Актюбинская улица,454018,55.1801541,61.3534885
70,Партизанская улица,454018,55.1791088,61.3552641
96,улица Блюхера,454028,55.1149510,61.3579491
12,улица Скульптора Головницкого,454030,55.2085637,61.2849853
12А,улица Скульптора Головницкого,454030,55.2086083,61.2856603
13,Проходной переулок,454048,55.1442104,61.3973354
10,Литейная улица,454048,55.1445037,61.3977406
105,улица Елькина,454048,55.1457018,61.3983468
269,Российская улица,454091,55.1575689,61.4182739
7В,Лесопарковая улица,454080,55.1549435,61.3680611
12,улица Овчинникова,454091,55.1444108,61.4053329
177/1,улица Труда,454080,55.1674097,61.3819985
1/1,улица Куйбышева,454008,55.1955832,61.3835426
17,улица Петра Столыпина,454003,55.1727185,61.2565870
19,улица Петра Столыпина,454003,55.1718634,61.2559416
54А,улица Бейвеля,454030,55.2034733,61.2864037
46А,улица Бейвеля,454030,55.2025790,61.2865595
52,улица Бейвеля,454030,55.2029492,61.2857372
54,улица Бейвеля,454030,55.2032933,61.2851307
48,улица Бейвеля,454030,55.2027084,61.2850471
46,улица Бейвеля,454030,55.2021386,61.2848458
44,улица Бейвеля,454030,55.2017131,61.2854535
211,улица Блюхера,454901,55.0583996,61.3231841
115,улица Братьев Кашириных,454136,55.1780772,61.3285836
111,улица Братьев Кашириных,454136,55.1780565,61.3299420
121,улица Братьев Кашириных,454136,55.1775097,61.3264278
109,улица Братьев Кашириных,454136,55.1775155,61.3307809
117,улица Братьев Кашириных,454136,55.1775113,61.3278791
113,улица Братьев Кашириных,454136,55.1775122,61.3293319
34,Свердловский тракт,454008,55.2020364,61.3814430
13,Логовая улица,454021,55.1763398,61.2716171
11,Логовая улица,454021,55.1762201,61.2722269
6,переулок Энергетиков,454135,55.1393248,61.4498978
86В,Комсомольский проспект,454014,55.1946046,61.3025706
2А/3,улица Молодогвардейцев,454030,55.2072349,61.3161770
44,улица Университетская Набережная,454136,55.1751567,61.3308267
48,улица Университетская Набережная,454136,55.1751565,61.3274416
68/1,улица Университетская Набережная,454128,55.1692837,61.3048556
2Р,проспект Ленина,454091,55.1601592,61.4697206
15,улица Александра Шмакова,454030,55.2072081,61.2702074
17,улица Александра Шмакова,454030,55.2077960,61.2699395
21,улица Александра Шмакова,454030,55.2080113,61.2720148
23,улица Александра Шмакова,454030,55.2086002,61.2717466
29,улица Александра Шмакова,454030,55.2088178,61.2738200
31,улица Александра Шмакова,454030,55.2094061,61.2735512
25,улица Александра Шмакова,454030,55.2094014,61.2719247
46,улица Университетская Набережная,454136,55.1754860,61.3291316
8,улица Наркома Малышева,454136,55.1758440,61.3247121
17,улица Героя России Александра Яковлева,454080,55.1719794,61.3603835
50,улица Университетская Набережная,454136,55.1752522,61.3248990
1,Прохладная улица,454010,55.1286589,61.4531212
66А,улица Агалакова,454010,55.1296095,61.4517596
68,улица Агалакова,454010,55.1306334,61.4544506
5,Прохладная улица,454010,55.1298234,61.4556694
3,Прохладная улица,454010,55.1292120,61.4545081
66,улица Агалакова,454010,55.1306141,61.4531616
45,улица Плеханова,454091,55.1549689,61.4087870
45А,улица Энгельса,454080,55.1643448,61.3818738
48,улица Клары Цеткин,454080,55.1627443,61.3832732
147,улица Свободы,454091,55.1566859,61.4138255
149,улица Свободы,454091,55.1562100,61.4140029
124,Артиллерийская улица,454007,55.1652434,61.4339012
12,улица Генерала Мартынова,454030,55.2172212,61.2990143
14,улица Генерала Мартынова,454030,55.2168580,61.2999237
68,улица Братьев Кашириных,454018,55.1794421,61.3487096
74,улица Братьев Кашириных,454018,55.1795544,61.3460273
80Г,Комсомольский проспект,454014,55.1950253,61.3074873
37,улица Академика Королёва,454000,55.1625748,61.2894718
13А,улица Громова,454904,55.0397132,61.3849039
27,улица Энтузиастов,454048,55.1490297,61.3768446
22,Каслинская улица,454008,55.1919721,61.3901241
1,улица 40-летия Победы,454100,55.1918997,61.2817849
17А,улица Габдуллы Тукая,454030,55.2054054,61.2770532
75,улица Братьев Кашириных,454016,55.1752322,61.3762198
29,улица Сергея Герасимова,454079,55.1705265,61.5371006
165,улица Братьев Кашириных,454004,55.1621436,61.2961313
10,улица 40-летия Победы,454100,55.1911187,61.2908189
1,улица 50-летия ВЛКСМ,454031,55.2477425,61.3917780
60,улица Гагарина,454046,55.1190233,61.4328187
10,Транзитная улица,454085,55.1759245,61.4713534
14,Транзитная улица,454085,55.1760185,61.4708378
5,2-й Катерный переулок,454085,55.1751675,61.4717651
8,1-й Катерный переулок,454085,55.1750370,61.4713146
8,Транзитная улица,454085,55.1759483,61.4716152
93Б,улица Дзержинского,454078,55.1305137,61.4339250
42,2-я Эльтонская улица,454079,55.1733950,61.5244497
20,улица Трашутина,454079,55.1716096,61.5221145
20/1,улица Трашутина,454079,55.1718767,61.5225552
30,улица Трашутина,454079,55.1724222,61.5207207
77,улица Профессора Благих,454030,55.2177017,61.2999238
75,улица Профессора Благих,454030,55.2173025,61.3004207
46/2,улица Сони Кривой,454080,55.1580615,61.3795966
126,улица Дзержинского,454078,55.1333846,61.4289649
73,улица Профессора Благих,454030,55.2168456,61.3010485
71,улица Профессора Благих,454030,55.2164237,61.3015775
42,Подольская улица,454071,55.1804704,61.4524895
75 к1,улица Героев Танкограда,454081,55.1693434,61.4562758
21,Гранитная улица,454119,55.1264745,61.4592425
50,улица Цвиллинга,454091,55.1553983,61.4061106
13,Витебская улица,454126,55.1532210,61.3672933
75А,Енисейская улица,45410,55.1477815,61.5027569
10А,улица Чайковского,454138,55.1948943,61.3596647
55Б,улица Ворошилова,454136,55.1813873,61.3263260
9А,Литейная улица,454048,55.1440840,61.3985117
7,Литейная улица,454048,55.1442628,61.3984976
7А,Литейная улица,454048,55.1444302,61.3984535
11,Проходной переулок,454048,55.1444043,61.3971596
18,Проходной переулок,454048,55.1439767,61.3970537
6,Кузбасская улица,454048,55.1439493,61.3981275
11,Кузбасская улица,454048,55.1436777,61.3978400
5,Литейная улица,454048,55.1446015,61.3983456
135 к2,улица Братьев Кашириных,454128,55.1715920,61.3026384
31А,улица Марченко,454085,55.1626609,61.4620333
7,улица Мусы Джалиля,454076,55.2122323,61.2860919
72,улица Бейвеля,454076,55.2117602,61.2850873
40,2-я Эльтонская улица,454079,55.1724333,61.5247866
89А,проспект Ленина,454080,55.1586105,61.3635711
16 к4А,улица Воровского,454048,55.1546774,61.3920178
16 к6В,улица Воровского,454048,55.1551039,61.3932084
16 к3,улица Воровского,454048,55.1554787,61.3928402
82Д,улица Кирова,454091,55.1672082,61.3996911
62С,Троицкий тракт,454053,55.0928852,61.3887810
67,улица Профессора Благих,454030,55.2161030,61.3009329
12А,Автодорожная улица,454008,55.2087514,61.3601534
78,улица Хариса Юсупова,454076,55.2114553,61.2898033
172,улица Труда,454080,55.1714976,61.3694990
174,улица Труда,454080,55.1714930,61.3654941
25,Индивидуальная улица,454036,55.2404164,61.3555376
25,Индивидуальная улица,454036,55.2401078,61.3556708
7А,улица Мусы Джалиля,454076,55.2123561,61.2875571
100Б,улица Братьев Кашириных,454001,55.1802914,61.3200325
10А,улица Яблочкина,454048,55.1442194,61.3813403
2,Шагольская улица,454015,55.2352541,61.3003501
22,улица Марченко,454085,55.1663387,61.4587175
5,улица Елькина,454091,55.1675984,61.3984337
93А,Красноармейская улица,454091,55.1645205,61.4148057
22/2,Троицкий тракт,454058,55.1198761,61.3877480
5 к5,улица Сталеваров,454047,55.2642269,61.4051861
23,улица Академика Сахарова,454021,55.1594683,61.2874425
1А,улица 60-летия Октября,454047,55.2642841,61.4060404
14А,улица Зальцмана,454079,55.1704124,61.5286007
2Б к1,улица 60-летия Октября,454047,55.2649541,61.4073635
2Б,улица 60-летия Октября,454047,55.2649887,61.4082817
2Б/5,улица 60-летия Октября,454047,55.2648150,61.4078375
2Б/3,улица 60-летия Октября,454047,55.2647635,61.4090231
5Д,улица Сталеваров,454047,55.2627962,61.4058741
5Д/1,улица Сталеваров,454047,55.2624512,61.4060085
7В,улица Сталеваров,454047,55.2620665,61.4033809
59Б,2-я Эльтонская улица,454079,55.1730699,61.5181290
97А,улица Университетская Набережная,454128,55.1721343,61.3167911
15Б с1,Автодорожная улица,454008,55.2070274,61.3488402
17А с1,Автодорожная улица,454008,55.2076089,61.3462557
21,Кузнечная улица,454048,55.1331244,61.3988229
196,Российская улица,454091,55.1630290,61.4154316
20,проспект Ленина,454007,55.1613677,61.4397291
47А,улица Сулимова,454048,55.1400902,61.3829240
78,улица Братьев Кашириных,454018,55.1790964,61.3461180
13 с1,Витебская улица,454126,55.1532682,61.3667331
28,улица Горького,454071,55.1732468,61.4412928
10,улица Клайна,454030,55.2187520,61.2831645
8,улица Клайна,454030,55.2183380,61.2843589
33А,улица Дегтярёва,454047,55.2660922,61.3992514
76,улица Хариса Юсупова,454076,55.2110590,61.2885694
9,Кузбасская улица,454048,55.1436482,61.3982724
8,Литейная улица,454048,55.1446633,61.3977773
2Б к1,проспект Победы,454074,55.1937836,61.4644661
5В,Набережная улица,454084,55.1801391,61.4097957
64,Каслинская улица,454084,55.1731910,61.3924962
90,улица 3 Интернационала,454091,55.1660167,61.4200115
153А,проспект Победы,454084,55.1840643,61.4029431
12,проспект Героя России Е.Н. Родионова,454003,55.1692964,61.2763617
10,проспект Героя России Е.Н. Родионова,454003,55.1698931,61.2763631
23,Набережная героя России Сергея Кислова,454080,55.1732004,61.3625952
176,улица Труда,454080,55.1714918,61.3614874
25,Набережная героя России Сергея Кислова,454080,55.1733588,61.3614259
7,Железнодорожная улица,454091,55.1381751,61.4142200
37,улица Орджоникидзе,454091,55.1512833,61.4067441
10,Телевизионная улица,454091,55.1488938,61.4033715
6,площадь Революции,454091,55.1559326,61.4028436
26,улица Академика Макеева,454003,55.1681081,61.2763964
44 c1,улица Братьев Кашириных,454106,55.1764345,61.3784757
83/1,улица Энгельса,454080,55.1538271,61.3819667
44,2-я Эльтонская улица,454079,55.1735778,61.5255477
63Б,2-я Эльтонская улица,454079,55.1746794,61.5179551
159,улица Кирова,454091,55.1646233,61.4012107
45Б,улица 40-летия Победы,454001,55.1792085,61.3095555
118А,улица 3 Интернационала,454091,55.1618785,61.4211087
8,Производственная улица,454008,55.2031116,61.3517230
55 с2,Бродокалмакский тракт,454077,55.2332298,61.5121692
101,улица Университетская Набережная,454128,55.1707330,61.3141150
35,улица Маршала Чуйкова,454030,55.2191573,61.2839681
46,улица Александра Шмакова,454030,55.2172693,61.2813240
72,улица Братьев Кашириных,454018,55.1795569,61.3471365
99,улица Университетская Набережная,454128,55.1713947,61.3157514
92 с1,Комсомольский проспект,454100,55.1916083,61.2949677
15литА,Свердловский тракт,454008,55.1994988,61.3879596
52,улица Карла Маркса,454091,55.1656671,61.4080008
18,улица Пушкина,454091,55.1657649,61.4082074
28,улица Цвиллинга,454091,55.1624120,61.4033517
137А,улица Коммуны,454080,55.1614080,61.3739650
71,проспект Ленина,454080,55.1594822,61.3846286
107,улица Университетская Набережная,454128,55.1693494,61.3113616
8В,Производственная улица,454008,55.2035007,61.3492368
25/7,Отрадная улица,454018,55.1791402,61.3419143
21 с2,Автодорожная улица,454008,55.2073584,61.3439611
16,Абрикосовая улица,454902,55.1494121,61.2745345
1А,улица 250-летия Челябинска,454001,55.1809706,61.3183940
1В,Олонецкая улица,454002,55.1799970,61.2816240
348/2,проспект Победы,454014,55.1905734,61.3193303
145,Комсомольский проспект,454103,55.1696893,61.2701499
3А,Набережная улица,454084,55.1820984,61.4096201
31,Шуменская улица,454085,55.1764917,61.4638415
96с1,Кожзаводская улица,454084,55.1936197,61.3995104
96Б/2,Кожзаводская улица,454084,55.1924807,61.3996324
88,улица Свободы,454091,55.1539398,61.4136060
53,улица Либединского,454081,55.1729711,61.4259980
60,Свердловский проспект,454080,55.1618461,61.3873847
72А,улица Братьев Кашириных,454018,55.1798828,61.3481359
10А,улица Первой Пятилетки,454085,55.1685852,61.4509982
5А,Каслинская улица,454084,55.1918915,61.3912983
28,улица Академика Макеева,454003,55.1675875,61.2742558
6,проспект Героя России Е.Н. Родионова,454003,55.1711223,61.2778704
4,проспект Героя России Е.Н. Родионова,454003,55.1720463,61.2783067
41,улица Комарова,454077,55.1893382,61.4696440
41,улица Комарова,454077,55.1892930,61.4703505
41,улица Комарова,454077,55.1895934,61.4705806
41,улица Комарова,454077,55.1891921,61.4701413
29,Турбинная улица,454081,55.1874453,61.4357488
12с1,улица Худякова,454048,55.1478813,61.3741228
52,улица Университетская Набережная,454136,55.1754282,61.3235379
3,улица Наркома Малышева,454136,55.1755399,61.3265126
74,улица Молодогвардейцев,454136,55.1765877,61.3315554
76,улица Молодогвардейцев,454136,55.1755398,61.3317572
119,улица Братьев Кашириных,454136,55.1780105,61.3270174
71,улица Косарева,454018,55.1804889,61.3737689
52,улица Косарева,454018,55.1796935,61.3714226
52,улица 40-летия Победы,454128,55.1739864,61.3140382
124,улица Братьев Кашириных,454128,55.1743721,61.3046028
131А,улица Братьев Кашириных,454128,55.1741804,61.3086551
131Б,улица Братьев Кашириных,454128,55.1733414,61.3067698
131,улица Братьев Кашириных,454128,55.1749698,61.3104453
1А с1,Автодорожная улица,454008,55.2062245,61.3389847
19А с1,Автодорожная улица,454008,55.2058562,61.3489588
2А,Производственная улица,454008,55.2068424,61.3548727
2,Производственная улица,454008,55.2076663,61.3551097
13,Автодорожная улица,454008,55.2070525,61.3526226
15,Автодорожная улица,454008,55.2070134,61.3499067
101А,улица Братьев Кашириных,454021,55.1766216,61.3461261
105А,улица Братьев Кашириных,454021,55.1766168,61.3401905
36,улица Университетская Набережная,454016,55.1753114,61.3435208
65,улица Молодогвардейцев,454016,55.1753219,61.3375599
36А,улица Университетская Набережная,454016,55.1759647,61.3453864
65А,улица Молодогвардейцев,454016,55.1759648,61.3394627
183,улица Чайковского,454016,55.1779393,61.3546297
183А,улица Чайковского,454016,55.1779346,61.3557713
38В,улица Чичерина,454003,55.1770640,61.2986347
42Б,улица Чичерина,454003,55.1752049,61.3014548
99А,улица Братьев Кашириных,454021,55.1779760,61.3479273
95А,улица Братьев Кашириных,454016,55.1780879,61.3566418
113,улица Хариса Юсупова,454076,55.2134734,61.2927381
21А,улица Маршала Чуйкова,454076,55.2151164,61.2939308
1,улица Мусы Джалиля,454076,55.2119699,61.2888733
7А,улица Клайна,454030,55.2175932,61.2830081
23,Двинская улица,454018,55.1802292,61.3449083
28,улица Университетская Набережная,454016,55.1749359,61.3521463
238,проспект Победы,454106,55.1849531,61.3703496
1Б,улица 250-летия Челябинска,454001,55.1811335,61.3199331
100,улица Братьев Кашириных,454001,55.1797834,61.3201276
7 к3,улица Молодогвардейцев,454138,55.2035522,61.3274828
1,улица Евтеева,454091,55.1503884,61.4170945
3,улица Евтеева,454091,55.1503520,61.4164719
33,проспект Ленина,454091,55.1604693,61.4175619
97,улица Университетская Набережная,454128,55.1723385,61.3155432
103,улица Университетская Набережная,454128,55.1713490,61.3133021
105,улица Университетская Набережная,454128,55.1700684,61.3110221
20,улица Университетская Набережная,454016,55.1761105,61.3637146
18,улица Университетская Набережная,454016,55.1762076,61.3647137
215,проспект Победы,454018,55.1827450,61.3738375
10,Проходной переулок,454048,55.1441629,61.3969326
111/1,Артиллерийская улица,454007,55.1667415,61.4353302
57А,улица Ворошилова,454136,55.1793596,61.3234430
15Б,Автодорожная улица,454008,55.2073275,61.3494652
19А,Автодорожная улица,454008,55.2053805,61.3479192
52Б,улица Косарева,454018,55.1792162,61.3697898
20,улица Салавата Юлаева,454000,55.1896936,61.2764766
24,улица Салавата Юлаева,454000,55.1891321,61.2749864
30/1,улица Энтузиастов,454048,55.1494773,61.3760623
40,улица Энтузиастов,454048,55.1460761,61.3764065
12,улица Образцова,454048,55.1458706,61.3752985
34А,улица Чичерина,454003,55.1792597,61.2957922
40В,улица Чичерина,454003,55.1760765,61.3001747
325,проспект Победы,454128,55.1823821,61.2937931
133,улица Братьев Кашириных,454128,55.1719739,61.3052918
130,Комсомольский проспект,454100,55.1860186,61.2795695
132,Комсомольский проспект,454100,55.1855649,61.2795251
392,проспект Победы,454100,55.1837070,61.2927052
41Г,Комсомольский проспект,454112,55.1917541,61.3395508
39А,Комсомольский проспект,454112,55.1930592,61.3411805
41Б,Комсомольский проспект,454112,55.1929558,61.3377483
34,улица Молодогвардейцев,454014,55.1938411,61.3317921
319,проспект Победы,454128,55.1839204,61.2972393
26,улица 40-летия Победы,454128,55.1833553,61.3018412
76,улица Университетская Набережная,454004,55.1667072,61.3013462
42,улица Академика Королёва,454004,55.1642606,61.2910839
388,проспект Победы,454100,55.1847552,61.2941328
132,улица Кирова,454091,55.1547366,61.4006430
132,улица Кирова,454091,55.1545340,61.4006211
132,улица Кирова,454091,55.1547296,61.4002347
36А,улица Чичерина,454003,55.1783749,61.2933154
264,улица Татищева,454003,55.1726000,61.2832329
13,проспект Героя России Е.Н. Родионова,454003,55.1712080,61.2813087
10/2,улица Харлова,454010,55.1487698,61.4374972
8,проспект Героя России Е.Н. Родионова,454003,55.1696053,61.2778854
24,улица Академика Макеева,454103,55.1681166,61.2779130
17А,улица Героя России Александра Яковлева,454080,55.1719028,61.3597326
39,Комсомольский проспект,454112,55.1940291,61.3420254
26,улица Петра Сумина,454003,55.1724001,61.2583559
10,площадь МОПРа,454091,55.1636407,61.4175582
128,Комсомольский проспект,454100,55.1865918,61.2797896
84,улица Куйбышева,454138,55.1989582,61.3362553
7,улица Маршала Чуйкова,454076,55.2119109,61.2975066
17,улица Маршала Чуйкова,454076,55.2135142,61.2959587
38,улица Бейвеля,454030,55.2011442,61.2856223
36,Красная улица,454091,55.1595857,61.3932374
5,улица Маршала Чуйкова,454076,55.2111863,61.2979247
1,улица Маршала Чуйкова,454076,55.2105226,61.2983445
222,Российская улица,454091,55.1556430,61.4163954
14,улица Плеханова,454091,55.1562594,61.4169818
117,улица Хариса Юсупова,454076,55.2142461,61.2946491
115,улица Хариса Юсупова,454076,55.2138535,61.2936097
20 к2,Российская улица,454006,55.1907162,61.4115522
7Б,Учебная улица,454087,55.1350633,61.3806004
15/1,улица Цвиллинга,454091,55.1656498,61.4042826
319А с1,проспект Победы,454128,55.1839584,61.2968465
10,Ярославская улица,454028,55.1125864,61.3471902
54,улица Коммуны,454091,55.1637855,61.4028817
63,2-я Эльтонская улица,454079,55.1750034,61.5201244
147А,улица Кирова,454091,55.1651334,61.4012295
78,улица Дегтярёва,454030,55.2512956,61.3967849
37,улица Гагарина,454010,55.1263937,61.4348808
67А,улица Бейвеля,454030,55.2167403,61.2872218
49Б,Копейское шоссе,454010,55.1432791,61.4479933
38 к4,улица Воровского,454048,55.1489287,61.3819215
16,улица Трашутина,454079,55.1717397,61.5231792
30А,улица Университетская Набережная,454016,55.1762698,61.3483691
83,Новороссийская улица,454129,55.1138128,61.4528520
61А,улица Молодогвардейцев,454016,55.1762517,61.3373117
21,улица Мамина,454077,55.1907939,61.4836672
26А,улица Хохрякова,454085,55.1754223,61.4841698
61,улица 3 Интернационала,454006,55.1726541,61.4214731
113А,проспект Победы,454081,55.1847750,61.4371238
9,улица Мамина,454077,55.1970990,61.4800742
82,улица Свободы,454091,55.1561899,61.4128779
51А,Свердловский проспект,454091,55.1700271,61.3913196
287,проспект Победы,454021,55.1872244,61.3404135
1А,улица Калинина,454930,55.0669496,61.2687719
79А,улица Сони Кривой,454048,55.1571601,61.3709920
79А,улица Сони Кривой,454048,55.1567189,61.3709435
87,проспект Ленина,454080,55.1589453,61.3649168
7,улица 250-летия Челябинска,454001,55.1810005,61.3115430
21,улица Петра Столыпина,454003,55.1717112,61.2574600
12,улица Тимирязева,454091,55.1588291,61.4150841
44 c3,улица Братьев Кашириных,454106,55.1759422,61.3799475
44 c4,улица Братьев Кашириных,454106,55.1762980,61.3799602
44 c2,улица Братьев Кашириных,454106,55.1763714,61.3785646
44,улица Братьев Кашириных,454106,55.1762808,61.3792763
27,Набережная героя России Сергея Кислова,454080,55.1729331,61.3603062
25,улица Кирова,454084,55.1725261,61.4020617
110,улица Кирова,454091,55.1619514,61.4003364
36В,улица Чичерина,454003,55.1784430,61.2968908
80,Комсомольский проспект,454014,55.1949816,61.3084711
47,улица Чичерина,454128,55.1711370,61.3090894
34,Краснопольский проспект,454076,55.2105440,61.2891561
37/1,Соловьиная улица,454902,55.1491812,61.2760244
11,улица Клары Цеткин,454080,55.1662965,61.3840498
166А,проспект Победы,454084,55.1846977,61.4014557
166,проспект Победы,454084,55.1850411,61.4008128
168,проспект Победы,454084,55.1850616,61.3989001
143,Комсомольский проспект,454103,55.1711685,61.2707912
35А,улица Марченко,454085,55.1619796,61.4587630
35Б,улица Марченко,454085,55.1617297,61.4594168
77,проспект Ленина,454080,55.1590190,61.3765908
159,проспект Победы,454084,55.1839461,61.4009468
10,улица Худякова,454020,55.1482441,61.3754094
