House number,Street name,Postal code,Latitude,Longitude
310,West Madison Avenue,59714-3966,45.7727486,-111.1870950
409,West Main Street,59714,45.7796149,-111.1826534
101,Donjo Avenue,59714,45.7609276,-111.1861178
6999,Jackrabbit Lane,59714,45.7717275,-111.1871750
7001,Jackrabbit Lane,59714,45.7722057,-111.1869814
205,West Madison Avenue,59714,45.7740834,-111.1839118
206,Alaska Frontage Road,59714,45.7653423,-111.1811443
19599,Frontage Road,59714,45.7815841,-111.1865122
126,West Rosebud Avenue,59714,45.7688056,-111.1831823
126,West Rosebud Avenue,59714,45.7684184,-111.1827883
207,West Jefferson Avenue,59714,45.7723934,-111.1842873
6915,Jackrabbit Lane,59714-8961,45.7712540,-111.1856871
308,Stiles Avenue,59714,45.7655892,-111.1757857
1301,Wyoming Street,59714,45.7640957,-111.1680174
902,Las Campanas,59714,45.7661625,-111.1724617
205,East Main Street,59714,45.7751698,-111.1727257
6261,Jackrabbit Lane,59714,45.7613530,-111.1860336
109,West Main Street,59714,45.7773499,-111.1786819
303,East Northern Pacific Avenue,59714,45.7734366,-111.1751907
203,West Madison Avenue,59714,45.7739677,-111.1836186
100,West Madison Avenue,59714,45.7726666,-111.1822056
90,West Madison Avenue,59714,45.7725935,-111.1813115
309,West Madison Avenue,59714,45.7736490,-111.1876094
10,Main Street,59714,45.7758497,-111.1769269
106,North Broadway,59714,45.7776025,-111.1751481
100,South Broadway,59714,45.7748249,-111.1774807
609,North Quaw Boulevard,59714,45.7841600,-111.1724913
101,Silverbow Avenue,59714,45.7740218,-111.1818866
303,North Hoffman Street,59714,45.7821849,-111.1779303
405,Bridger View Drive,59714,45.7799983,-111.1703576
309,South Broadway,59714,45.7750207,-111.1790060
6450,Jackrabbit Lane,59714,45.7643245,-111.1843397
297,297 Bridger View Drive,59714,45.7771572,-111.1706984
6445,Jackrabbit Lane,59714,45.7640770,-111.1876482
6280,Jackrabbit Lane,59714-9022,45.7617744,-111.1838662
220,South Broadway,59714,45.7738171,-111.1792176
106,West Madison Avenue,59714,45.7726564,-111.1828637
104,West Madison Avenue,59714,45.7726605,-111.1825908
201,West Madison Avenue,59714,45.7733473,-111.1823971
161,West Madison Avenue,59714,45.7732134,-111.1816760
119,South Broadway,59714,45.7740624,-111.1800301
91,West Madison Avenue,59714,45.7734073,-111.1807096
913,Montana Street,59714,45.7671411,-111.1766945
702,Homerun Drive,59714,45.7900383,-111.1812631
33,West Main Street,59714,45.7769197,-111.1779591
119,West Main Street,59714,45.7774938,-111.1789394
31,East Main Street,59714,45.7759926,-111.1760265
27,East Main Street,59714,45.7760863,-111.1763070
26,East Main Street,59714,45.7756988,-111.1765970
202,South Weaver Street,59714,45.7746859,-111.1799013
91,North Broadway,59714,45.7769184,-111.1768833
91,North Broadway,59714,45.7770938,-111.1774286
19599,Frontage Road,59714,45.7814900,-111.1863037
92,North Kennedy Street,59714,45.7760178,-111.1750202
92,East Cameron Avenue,59714,45.7823745,-111.1696122
81,8th Street,59714,45.7834531,-111.1904005
306,9th Street,59714,45.7868543,-111.1871412
222,Spooner Road,59714,45.7836305,-111.1806147
1800,West Silver Circle,59714,45.7967083,-111.1511924
904,Westwood Circle,59714,45.7946434,-111.1903211
915,Montana Street,59714,45.7669021,-111.1767300
917,Montana Street,59714,45.7665236,-111.1767300
6999,Jackrabbit Lane,59714,45.7717266,-111.1871812
206,West Madison,59714,45.7726204,-111.1844380
