House number,Street name,Postal code,Latitude,Longitude
200,South 23rd Avenue,59718,45.6769407,-111.0652474
1203,North Rouse Avenue,59715,45.6917226,-111.0318127
300,North Willson Avenue,59715,45.6824304,-111.0380026
300,North Willson Avenue,59715,45.6822946,-111.0380242
931,Highland Boulevard,59715,45.6689810,-111.0209439
1221,West Durston Road,59715,45.6860414,-111.0541144
205,North Tracy Avenue,59715,45.6816720,-111.0385073
2740,West Main Street,59718,45.6722947,-111.0740450
504,North Broadway Avenue,59715,45.6845234,-111.0238884
1735,West MAIN Street,59715,45.6799034,-111.0605179
321,East Main Street,59715,45.6795601,-111.0322357
105,West Main Street,59715,45.6794667,-111.0391406
515,West Aspen Street,59715,45.6877319,-111.0443999
2825,West Main Street,59718-3927,45.6740259,-111.0779060
855,South 29th Avenue,59718,45.6705828,-111.0762469
200,South 23rd Avenue,59718,45.6758057,-111.0666088
777,East Main Street,59715,45.6795355,-111.0270709
777,East Main Street,59715,45.6795502,-111.0262280
777,East Main Street,59715,45.6796020,-111.0264899
1007,East Main Street,59715,45.6796041,-111.0232454
1007,East Main Street,59715,45.6795618,-111.0234191
205,Haggerty Lane,59715,45.6762646,-111.0177600
205,Haggerty Lane,59715,45.6761679,-111.0172291
205,Haggerty Lane,59715,45.6762204,-111.0174505
205,Haggerty Lane,59715,45.6761127,-111.0170630
215,Haggerty Lane,59715,45.6762632,-111.0162939
215,Haggerty Lane,59715,45.6761265,-111.0164085
1532,Ellis Street,59715,45.6713104,-111.0146324
1532,Ellis Street,59715,45.6713272,-111.0145124
1600,Ellis Street,59715,45.6718238,-111.0133169
1648,Ellis Street,59715,45.6713792,-111.0126879
1450,Ellis Street,59715,45.6712635,-111.0155375
1122,East Main Street,59715,45.6789286,-111.0213078
1128,East Main Street,59715,45.6788279,-111.0208613
1128,East Main Street,59715,45.6788179,-111.0213126
1050,East Main Street,59715,45.6788883,-111.0225201
280,West Kagy Boulevard,59715,45.6600604,-111.0403560
111,East Oak Street,59715,45.6930570,-111.0346776
113,East Oak Street,59715,45.6931125,-111.0340604
111 Suite 1F,East Oak Street,59715,45.6931345,-111.0346902
101,East Oak Street,59715,45.6929734,-111.0343576
27,East Main Street,59715,45.6794702,-111.0363780
19,Tai Lane,59715,45.6631488,-111.0541288
19,Tai Lane,59715,45.6632586,-111.0541274
221,East Main Street,59715,45.6795318,-111.0337312
321,East Main Street,59715,45.6795105,-111.0324070
410,North Broadway Avenue,59715,45.6840934,-111.0239138
412,North Broadway Avenue,59715,45.6842087,-111.0238588
414,North Broadway Avenue,59715,45.6843548,-111.0238078
508,North Broadway Avenue,59715,45.6845853,-111.0238656
512,North Broadway Avenue,59715,45.6846294,-111.0238494
512,North Broadway Avenue,59715,45.6847024,-111.0236777
3,Tai Lane,59715,45.6638675,-111.0542311
7,Tai Lane,59715,45.6637070,-111.0541577
7,Tai Lane,59715,45.6637926,-111.0541668
7,Tai Lane,59715,45.6638666,-111.0541131
1216,West Lincoln Street,59715,45.6636494,-111.0531580
1216,West Lincoln Street,59715,45.6636458,-111.0530254
1607,South 11th Avenue,59715,45.6628696,-111.0527770
1609,South 11th Avenue,59715,45.6627215,-111.0526959
1611,South 11th Avenue,59715,45.6625940,-111.0529132
867,South 29th Avenue,59718,45.6706965,-111.0772463
402 East,Main Street,59715,45.6791674,-111.0316900
2304,North 7th Avenue,59715,45.7027675,-111.0450980
113,East Oak Street,59718,45.6930032,-111.0341300
200,South 23rd Avenue,59718,45.6758356,-111.0662010
2245,West Koch Street,59718,45.6751691,-111.0666596
1924,West Stevens Street,59715,45.6897592,-111.0629170
2777,North 7th Avenue,59715,45.7041600,-111.0469569
225,East Mendenhall Street,59715,45.6799875,-111.0292643
1725,South 11th Avenue,59715,45.6610053,-111.0528461
1919,West Main Street,59718,45.6797512,-111.0628830
1919,West Main,59715,45.6797474,-111.0632503
2165,Durston Road,59715,45.6860854,-111.0652003
2405,West Main Street,59715,45.6765055,-111.0701280
1040,South Fowler Avenue,59715,45.6688034,-111.0822307
200,Highland Boulevard,59715,45.6772879,-111.0185330
2304,North 7th Avenue,59715,45.7023477,-111.0450748
2550,Catron Road,59718,45.7106107,-111.0710055
110,East Olive Street,59715,45.6771464,-111.0354924
1216,West Lincoln Street,59715,45.6636457,-111.0528880
908,West Main Street,59715,45.6790640,-111.0499243
222,E. Main St. Baltimore,59718,45.6789820,-111.0339065
200,South 23rd Avenue,59718,45.6767834,-111.0654366
5,W Mendenhall St,59715,45.6805362,-111.0377312
2905,West Main Street,59718,45.6717686,-111.0785691
1335,Reeves Road East,59715,45.7164893,-111.0602096
233,East Main Street,59715,45.6795249,-111.0334783
806,North 7th Avenue,59715,45.6878228,-111.0457280
515,West Aspen Street,59715,45.6877253,-111.0449760
1404,Gold Avenue,59715,45.6938596,-111.0278972
901,North Rouse Avenue,59715,45.6898764,-111.0320459
300,East Oak Street,59715,45.6908172,-111.0320827
140,East Main Street,59715,45.6789811,-111.0345165
1975,Cattail Street,59718,45.7078801,-111.0662325
3717,Equestrian Lane,59718,45.7024647,-111.0877824
851,Bridger Drive,59715,45.7033552,-111.0261859
707,Bridger Drive,59715,45.7028629,-111.0265921
2246,Boothill Ct,59715,45.7024229,-111.0600200
1627,West Main Street,59715,45.6799186,-111.0593350
730,Boardwalk Avenue,59718,45.6727030,-111.1011981
5,West Mendenhall Street,59715,45.6805855,-111.0378677
33,North Black Avenue,59715,45.6802203,-111.0358620
2168,Boothill Court,59715,45.7012873,-111.0590502
600,North Wallace Avenue,59715,45.6858719,-111.0280447
36,East Main Street,59715-4758,45.6789886,-111.0362628
2855,North19th Street,59718,45.7095822,-111.0673292
1940,West Dickerson Street,59715,45.6729540,-111.0637276
1001,West Oak Street,59715,45.6937879,-111.0498229
1,Bobcat Circle,59717,45.6633515,-111.0506406
1200,East Main Street,59715,45.6785570,-111.0203983
1211,East Main Street,59715,45.6789552,-111.0191368
2505,Catron Street,59718,45.7135166,-111.0708310
2855,North 19th Avenue,59718,45.7096214,-111.0682705
2855,North 19th Avenue,59718-8504,45.7095693,-111.0677253
626,East Main Street,59715,45.6784033,-111.0270981
1500,North 7th Avenue,59715,45.6945384,-111.0420915
1370,North 7th Avenue,59715,45.6936451,-111.0449397
1321,North 7th Avenue,59715,45.6932964,-111.0482956
75,Baxter Lane,59715,45.6960399,-111.0490879
376,Gallatin Park Drive,59715,45.7075446,-111.0425707
346,Gallatin Park Drive,59715,45.7071019,-111.0448445
2023,Commerce Way,59715,45.6994657,-111.0625665
1731,Tschache Lane,59718,45.6981876,-111.0599567
1805,Tschache Street,59718,45.6970001,-111.0610971
1765,North 19th Avenue,59718,45.6968333,-111.0633976
1771,N19th Avenue,59718,45.6974427,-111.0653604
1500,North 19th Avenue,59718,45.6949368,-111.0603958
1550,North 19th,59715,45.6957385,-111.0618176
1707,West Oak Street,59718,45.6941295,-111.0587225
1400,North 19th Avenue,59718,45.6944758,-111.0599255
1735,West Oak Street,59718,45.6941013,-111.0592746
2997,Max Avenue,59718,45.7099057,-111.0711390
2975,Max Avenue,59718,45.7095772,-111.0711038
2550,Catron street,59718,45.7111073,-111.0712895
2855,North 19th Avenue,59718,45.7092433,-111.0665139
2855,North 19th Avenue,59718,45.7088518,-111.0665135
2855,North 19th Avenue,59718,45.7094809,-111.0673551
2515,Catamount Street,59718,45.7151162,-111.0707137
2305,Catron Street,59718,45.7128817,-111.0686150
6195,East Valley Center Road,59718,45.7132850,-111.0668691
1459,North 19th Avenue,59718,45.6941221,-111.0629828
2051,West Oak Street,59718,45.6940434,-111.0642925
2220,Tschache Lane,59718,45.6956106,-111.0651572
1262,Stoneridge Drive,59715,45.6923045,-111.0629414
1336,Stoneridge Drive,59715,45.6927725,-111.0631311
1924,West Stevens Street,59715,45.6897567,-111.0629146
620,Nikles Drive,59715,45.6985494,-111.0454769
612,Nikles Drive,59715,45.6978381,-111.0441644
2010,North 7th Avenue,59715,45.6993092,-111.0451132
2012,North 7th Avenue,59715,45.6994603,-111.0449043
2000,North 7th Avenue,59715,45.6990312,-111.0451260
1735,West Main Street,59715,45.6801828,-111.0603634
1922,West Main Street,59718-3906,45.6788326,-111.0636116
1503,West Main Street,59715-4009,45.6797438,-111.0576506
916,Saxon Way,59718,45.6895283,-111.1182152
915,Highland Boulevard,59715,45.6696479,-111.0198343
302,East Kagy Boulevard,59715,45.6536053,-111.0308969
202,South Willson Avenue,59715,45.6771149,-111.0383738
31,South Willson Avenue,59715,45.6785550,-111.0390308
37,South Willson Avenue,59715,45.6783750,-111.0390322
33,South Willson Avenue,59715,45.6784956,-111.0390312
33,South Bozeman Avenue,59715,45.6788827,-111.0345449
428,East Mendenhall Street,59715,45.6802209,-111.0311002
26,East Mendenhall Street,59715,45.6800716,-111.0363561
901,West Main Street,59715,45.6800434,-111.0495331
1015,West Main Street,59715,45.6799596,-111.0510386
1525,West Main Street,59715,45.6813585,-111.0583373
24,North 15th Avenue,59715,45.6801382,-111.0566159
1122,West Main Street,59715,45.6789073,-111.0527034
1324,West Main Street,59715,45.6789615,-111.0552740
404,North 7th Avenue,59715,45.6832086,-111.0458387
107,North 7th Avenue,59715-3303,45.6806894,-111.0466650
203,North 7th Avenue,59715,45.6815356,-111.0467575
119,North 7th Avenue,59715,45.6809558,-111.0466203
3240,Technology Boulevard,59718,45.6693159,-111.0811734
981,South 29th Avenue,59718,45.6695660,-111.0764473
8695,Huffine Lane,59718-9097,45.6718331,-111.0814771
2817,West Main Street,59718,45.6721151,-111.0761356
2300,West Main Street,59718,45.6780880,-111.0677324
810,North Wallace Avenue,59715,45.6880111,-111.0280451
802,North Wallace Avenue,59715,45.6878542,-111.0280644
820,North Wallace Avenue,59715,45.6882895,-111.0277388
915,Highland Boulevard,59715,45.6695958,-111.0209494
508,South 8th Avenue,59715,45.6739518,-111.0476653
1750,Evergreen Drive,59715,45.6970293,-111.0356575
915,East Main Street,59715,45.6797245,-111.0240780
1201,East Main Street,59715,45.6792952,-111.0202441
1201,East Main Street,59715,45.6794903,-111.0204421
1315,East Main Street,59715,45.6786760,-111.0180706
1325,East Main Street,59715,45.6785475,-111.0177024
1401,East Main Street,59715,45.6781320,-111.0164683
205,Haggerty Lane,59715,45.6764301,-111.0168822
203,Haggerty Lane,59715,45.6770145,-111.0173286
300,Highland Boulevard,59715,45.6764469,-111.0182901
205,Haggerty Lane,59715,45.6761688,-111.0173920
215,Haggerty Lane,59715,45.6761706,-111.0163251
601,Haggerty Lane,59715,45.6733033,-111.0131541
1450,Ellis Street,59715,45.6713261,-111.0156318
1532,Ellis Street,59715,45.6713249,-111.0144899
1600,Ellis Street,59715,45.6717923,-111.0133007
1648,Ellis Street,59715,45.6713834,-111.0126699
1128,East Main Street,59715,45.6788370,-111.0208540
1122,East Main Street,59715,45.6788765,-111.0212963
1104,East Main Street,59715,45.6790134,-111.0219757
1050,East Main Street,59715,45.6789464,-111.0225079
407,South Ferguson Avenue,59718,45.6748725,-111.0942643
822,Wheat Drive,59715-2560,45.6985712,-111.0496192
2020,Wheat Drive,59715,45.6995105,-111.0500493
800,Wheat Drive,59715-2560,45.6985680,-111.0486251
111;113,East Oak Street,59715,45.6930743,-111.0343591
421,East Olive Street,59715,45.6775385,-111.0308959
307,East Olive Street,59715,45.6775380,-111.0324777
403,East Olive Street,59715,45.6775322,-111.0317906
409,East Olive Street,59715,45.6775528,-111.0315107
314,East Olive Street,59715,45.6771520,-111.0322280
227,East Olive Street,59715,45.6775475,-111.0329536
415,East Olive Street,59715,45.6775277,-111.0312398
223,East Olive Street,59715,45.6775106,-111.0331488
303,East Olive Street,59715,45.6775399,-111.0326681
406,East Olive Street,59715,45.6771733,-111.0316907
2104,Maplewood Street,59715,45.6922525,-111.0648169
2108,Maplewood Street,59715,45.6922412,-111.0650684
2112,Maplewood Street,59715,45.6922333,-111.0653238
2105,Maplewood Street,59715,45.6927082,-111.0649699
2109,Maplewood Street,59715,45.6926957,-111.0652183
2115,Maplewood Street,59715,45.6927087,-111.0654775
2127,Maplewood Street,59715,45.6926900,-111.0660199
2201,Maplewood Street,59715,45.6927030,-111.0662861
2205,Maplewood Street,59715,45.6926862,-111.0665564
1304,Woodland Drive,59715,45.6927522,-111.0668654
1218,Woodland Drive,59715,45.6922800,-111.0668259
1214,Woodland Drive,59715,45.6920895,-111.0667904
1208,Woodland Drive,59715,45.6919276,-111.0668036
1204,Woodland Drive,59715,45.6917325,-111.0668441
1128,Woodland Drive,59715,45.6915705,-111.0668735
1124,Woodland Drive,59715,45.6913750,-111.0668859
1118,Woodland Drive,59715,45.6912187,-111.0669379
1114,Woodland Drive,59715,45.6910304,-111.0669587
1106,Woodland Drive,59715,45.6908459,-111.0669976
1100,Woodland Drive,59715,45.6906656,-111.0669580
1024,Woodland Drive,59715,45.6904890,-111.0669084
1018,Woodland Drive,59715,45.6902815,-111.0668668
1014,Woodland Drive,59715,45.6901025,-111.0667777
1006,Woodland Drive,59715,45.6899157,-111.0667132
1000,Woodland Drive,59715,45.6897774,-111.0665503
918,Woodland Drive,59715,45.6896158,-111.0664169
912,Woodland Drive,59715,45.6894856,-111.0662063
902,Woodland Drive,59715,45.6893722,-111.0659924
1301,Woodland Drive,59715,45.6927003,-111.0674341
1225,Woodland Drive,59715,45.6924274,-111.0674291
1215,Woodland Drive,59715,45.6922375,-111.0674556
1209,Woodland Drive,59715,45.6920567,-111.0674710
1203,Woodland Drive,59715,45.6918717,-111.0674944
1129,Woodland Drive,59715,45.6917087,-111.0674870
1123,Woodland Drive,59715,45.6915156,-111.0675092
1119,Woodland Drive,59715,45.6913334,-111.0675421
1115,Woodland Drive,59715,45.6911566,-111.0676181
1109,Woodland Drive,59715,45.6909692,-111.0676464
1105,Woodland Drive,59715,45.6907772,-111.0676460
1101,Woodland Drive,59715,45.6906017,-111.0676251
1023,Woodland Drive,59715,45.6904136,-111.0675903
1017,Woodland Drive,59715,45.6902065,-111.0675421
1013,Woodland Drive,59715,45.6900281,-111.0674984
1009,Woodland Drive,59715,45.6898556,-111.0673905
1005,Woodland Drive,59715,45.6896646,-111.0673027
1001,Woodland Drive,59715,45.6894762,-111.0671641
923,Woodland Drive,59715,45.6893316,-111.0669825
917,Woodland Drive,59715,45.6892280,-111.0668151
911,Woodland Drive,59715,45.6890931,-111.0665576
905,Woodland Drive,59715,45.6890022,-111.0663304
901,Woodland Drive,59715,45.6889118,-111.0661071
802,North 22nd Avenue,59715,45.6875411,-111.0649166
724,North 22nd Avenue,59715,45.6873157,-111.0651211
704,North 22nd Avenue,59715,45.6867756,-111.0652505
2055,North 22nd Avenue,59715,45.6882721,-111.0650315
2011,North 22nd Avenue,59715,45.6885349,-111.0642597
2165,Durston Road,59715,45.6861292,-111.0650673
2123,Durston Road,59715,45.6862743,-111.0636056
2137,Durston Road,59715,45.6860237,-111.0637492
2149,Durston Road,59715,45.6860167,-111.0641481
2115,Durston Road,59715,45.6865901,-111.0638021
2101,Durston Road,59715,45.6864370,-111.0641978
2020,Charlotte Street,59715,45.6867586,-111.0640345
2040,North 22nd Avenue,59715,45.6877129,-111.0646986
2002,North 22nd Avenue,59715,45.6879804,-111.0640877
2015,Charlotte Street,59715,45.6875794,-111.0640482
2075,Charlotte Street,59715,45.6872192,-111.0646833
2135,Charlotte Street,59715,45.6869691,-111.0645149
673,Emily Drive,59718,45.6878179,-111.0654813
671,Emily Drive,59718,45.6877407,-111.0656851
669,Emily Drive,59718,45.6876300,-111.0659541
667,Emily Drive,59718,45.6875632,-111.0661680
611,Emily Drive,59718,45.6861525,-111.0659622
613,Emily Drive,59718,45.6860627,-111.0662097
619,Emily Drive,59718,45.6860838,-111.0668586
617,Emily Drive,59718,45.6861563,-111.0666443
621,Emily Drive,59718,45.6864228,-111.0670344
623,Emily Drive,59718,45.6864923,-111.0668247
629,Emily Drive,59718,45.6867737,-111.0666582
627,Emily Drive,59718,45.6865847,-111.0665965
603,Emily Drive,59718,45.6867536,-111.0659150
633,Emily Drive,59718,45.6868864,-111.0660993
631,Emily Drive,59718,45.6869633,-111.0658950
637,Emily Drive,59718,45.6873510,-111.0658631
639,Emily Drive,59718,45.6872525,-111.0660982
653,Emily Drive,59718,45.6872417,-111.0667843
651,Emily Drive,59718,45.6870782,-111.0667416
659,Emily Drive,59718,45.6873732,-111.0671870
657,Emily Drive,59718,45.6871914,-111.0671002
663,Emily Drive,59718,45.6875431,-111.0669890
661,Emily Drive,59718,45.6876228,-111.0667852
677,Emily Drive,59718,45.6878602,-111.0672264
679,Emily Drive,59718,45.6879388,-111.0670177
689,Emily Drive,59718,45.6880364,-111.0661214
687,Emily Drive,59718,45.6881023,-111.0659084
683,Emily Drive,59718,45.6882003,-111.0665736
681,Emily Drive,59718,45.6880289,-111.0664352
693,Emily Drive,59718,45.6884865,-111.0665790
691,Emily Drive,59718,45.6883764,-111.0663539
699,Emily Drive,59718,45.6886970,-111.0672937
697,Emily Drive,59718,45.6886363,-111.0670726
1039,Stoneridge Drive,59715,45.6896742,-111.0636341
1043,Stoneridge Drive,59715,45.6901529,-111.0635688
1087,Stoneridge Drive,59715,45.6904129,-111.0636533
1091,Stoneridge Drive,59715,45.6907689,-111.0637036
1143,Stoneridge Drive,59715,45.6911239,-111.0638557
1195,Stoneridge Drive,59715,45.6914220,-111.0639950
1281,Stoneridge Drive,59715,45.6920109,-111.0640077
1289,Stoneridge Drive,59715,45.6922151,-111.0639511
1351,Stoneridge Drive,59715,45.6928366,-111.0643392
1212,Brentwood Avenue,59715,45.6921956,-111.0656723
1217,Brentwood Avenue,59715,45.6922621,-111.0662993
1213,Brentwood Avenue,59715,45.6920798,-111.0662880
1205,Brentwood Avenue,59715,45.6918965,-111.0663087
1206,Brentwood Avenue,59715,45.6918930,-111.0656857
1201,Brentwood Avenue,59715,45.6917071,-111.0663703
1125,Brentwood Avenue,59715,45.6915230,-111.0663851
1120,Brentwood Avenue,59715,45.6913726,-111.0658111
1121,Brentwood Avenue,59715,45.6913286,-111.0663737
1113,Brentwood Avenue,59715,45.6911492,-111.0664736
1116,Brentwood Avenue,59715,45.6911495,-111.0657782
1108,Brentwood Avenue,59715,45.6909712,-111.0658285
1107,Brentwood Avenue,59715,45.6909455,-111.0664804
1103,Brentwood Avenue,59715,45.6907539,-111.0665145
1029,Brentwood Avenue,59715,45.6905659,-111.0664474
1102,Brentwood Avenue,59715,45.6907960,-111.0658272
1030,Brentwood Avenue,59715,45.6906161,-111.0658104
1023,Brentwood Avenue,59715,45.6903435,-111.0664246
1022,Brentwood Avenue,59715,45.6904105,-111.0657480
1017,Brentwood Avenue,59715,45.6901548,-111.0663287
1013,Brentwood Avenue,59715,45.6899454,-111.0662268
1016,Brentwood Avenue,59715,45.6902466,-111.0656783
1012,Brentwood Avenue,59715,45.6900804,-111.0655570
1001,Brentwood Avenue,59715,45.6897609,-111.0660022
1006,Brentwood Avenue,59715,45.6899113,-111.0654067
1002,Brentwood Avenue,59715,45.6897266,-111.0653182
926,Brentwood Avenue,59715,45.6895547,-111.0652609
920,Brentwood Avenue,59715,45.6892700,-111.0653659
906,Brentwood Avenue,59715,45.6887993,-111.0655254
2113,Mountain Ash Avenue,59715,45.6917946,-111.0653206
1116,Mountain Ash Avenue,59715,45.6916820,-111.0649623
1112,Mountain Ash Avenue,59715,45.6914845,-111.0647970
1108,Mountain Ash Avenue,59715,45.6912494,-111.0647292
1104,Mountain Ash Avenue,59715,45.6910147,-111.0646910
1020,Mountain Ash Avenue,59715,45.6903183,-111.0644474
1010,Mountain Ash Avenue,59715,45.6900971,-111.0643953
1008,Mountain Ash Avenue,59715,45.6898920,-111.0643067
1002,Mountain Ash Avenue,59715,45.6896712,-111.0642343
928,Mountain Ash Avenue,59715,45.6894297,-111.0642022
1115,Mountain Ash Avenue,59715,45.6913871,-111.0654595
1109,Mountain Ash Avenue,59715,45.6911717,-111.0653095
1105,Mountain Ash Avenue,59715,45.6909371,-111.0653028
1101,Mountain Ash Avenue,59715,45.6907095,-111.0652518
1027,Mountain Ash Avenue,59715,45.6904314,-111.0652305
1021,Mountain Ash Avenue,59715,45.6902204,-111.0651150
1015,Mountain Ash Avenue,59715,45.6900134,-111.0649668
1009,Mountain Ash Avenue,59715,45.6897703,-111.0649018
1003,Mountain Ash Avenue,59715,45.6895722,-111.0648321
929,Mountain Ash Avenue,59715,45.6893783,-111.0648219
2105,Windsor Street,59715,45.6892532,-111.0650902
2106,Windsor Street,59715,45.6888049,-111.0651693
2104,Windsor Street,59715,45.6888682,-111.0648387
2102,Windsor Street,59715,45.6888897,-111.0644760
2020,Windsor Street,59715,45.6889675,-111.0641903
2402,Daws Drive,59715,45.6914338,-111.0683132
2401,Daws Drive,59715,45.6919733,-111.0682408
2420,Daws Drive,59715,45.6914299,-111.0687772
2440,Daws Drive,59715,45.6914263,-111.0691312
2460,Daws Drive,59715,45.6914412,-111.0695927
2480,Daws Drive,59715,45.6914187,-111.0699092
2490,Daws Drive,59715,45.6914412,-111.0703759
2411,Daws Drive,59715,45.6919771,-111.0687450
2431,Daws Drive,59715,45.6919434,-111.0690991
2451,Daws Drive,59715,45.6919470,-111.0695604
2471,Daws Drive,59715,45.6919396,-111.0698984
2402,Wheeler Drive,59715,45.6922365,-111.0682126
2471,Wheeler Drive,59715,45.6927443,-111.0698527
2491,Wheeler Drive,59715,45.6927358,-111.0703972
2481,Rose Street,59715,45.6879202,-111.0695738
2475,Rose Street,59715,45.6879300,-111.0692499
2453,Rose Street,59715,45.6878143,-111.0689750
2448,Rose Street,59715,45.6875731,-111.0690293
2464,Rose Street,59715,45.6874339,-111.0692620
2492,Rose Street,59715,45.6874320,-111.0695960
891,Rogers Way,59715,45.6881853,-111.0696027
883,Rogers Way,59715,45.6881764,-111.0693452
877,Rogers Way,59715,45.6881750,-111.0690817
865,Rogers Way,59715,45.6882069,-111.0688255
853,Rogers Way,59715,45.6881469,-111.0686036
841,Rogers Way,59715,45.6879722,-111.0684701
827,Rogers Way,59715,45.6878030,-111.0684727
819,Rogers Way,59715,45.6875833,-111.0684956
801,Rogers Way,59715,45.6874189,-111.0684547
894,Rogers Way,59715,45.6886232,-111.0696858
886,Rogers Way,59715,45.6886163,-111.0694511
880,Rogers Way,59715,45.6886186,-111.0691889
872,Rogers Way,59715,45.6886172,-111.0689321
868,Rogers Way,59715,45.6886308,-111.0686619
860,Rogers Way,59715,45.6885661,-111.0684493
856,Rogers Way,59715,45.6884809,-111.0682334
848,Rogers Way,59715,45.6883919,-111.0680323
844,Rogers Way,59715,45.6882124,-111.0679028
836,Rogers Way,59715,45.6880069,-111.0678693
820,Rogers Way,59715,45.6878202,-111.0678583
824,Rogers Way,59715,45.6876026,-111.0678753
812,Rogers Way,59715,45.6874475,-111.0678740
796,Rogers Way,59715,45.6872906,-111.0678894
782,Rogers Way,59715,45.6871304,-111.0678250
768,Rogers Way,59715,45.6869753,-111.0678237
760,Rogers Way,59715,45.6867650,-111.0678813
2483,Snapdragon Street,59715,45.6871913,-111.0696583
2461,Snapdragon Street,59715,45.6871936,-111.0694270
2445,Snapdragon Street,59715,45.6871899,-111.0691695
2439,Snapdragon Street,59715,45.6871903,-111.0689086
2427,Snapdragon Street,59715,45.6871955,-111.0686639
2419,Snapdragon Street,59715,45.6871770,-111.0684242
2412,Snapdragon Street,59715,45.6867687,-111.0684305
2424,Snapdragon Street,59715,45.6867636,-111.0686726
2436,Snapdragon Street,59715,45.6867603,-111.0689146
2472,Snapdragon Street,59715,45.6867640,-111.0694484
2496,Snapdragon Street,59715,45.6867575,-111.0697193
2623,Goldenrod Lane,59715,45.6907503,-111.0723727
2619,Goldenrod Lane,59715,45.6907332,-111.0721635
2615,Goldenrod Lane,59715,45.6907495,-111.0719440
2611,Goldenrod Lane,59715,45.6907452,-111.0717300
2607,Goldenrod Lane,59715,45.6907564,-111.0715118
2521,Goldenrod Lane,59715,45.6907740,-111.0712855
2517,Goldenrod Lane,59715,45.6907456,-111.0710772
2513,Goldenrod Lane,59715,45.6907611,-111.0708683
2622,Goldenrod Lane,59715,45.6903080,-111.0723771
2618,Goldenrod Lane,59715,45.6903044,-111.0721521
2614,Goldenrod Lane,59715,45.6903231,-111.0719198
2610,Goldenrod Lane,59715,45.6903058,-111.0716852
2606,Goldenrod Lane,59715,45.6902927,-111.0714534
2602,Goldenrod Lane,59715,45.6903396,-111.0712066
2520,Goldenrod Lane,59715,45.6903325,-111.0709726
2516,Goldenrod Lane,59715,45.6903161,-111.0707560
2623,Daisy Street,59715,45.6900393,-111.0723713
2619,Daisy Street,59715,45.6900362,-111.0721571
2615,Daisy Street,59715,45.6900276,-111.0719503
2611,Daisy Street,59715,45.6900571,-111.0717270
2607,Daisy Street,59715,45.6900266,-111.0715158
2521,Daisy Street,59715,45.6900211,-111.0713079
2517,Daisy Street,59715,45.6900257,-111.0710980
2513,Daisy Street,59715,45.6900562,-111.0708895
2509,Daisy Street,59715,45.6900465,-111.0706760
2622,Daisy Street,59715,45.6896065,-111.0723666
2618,Daisy Street,59715,45.6896051,-111.0721508
2614,Daisy Street,59715,45.6895788,-111.0719328
2610,Daisy Street,59715,45.6896135,-111.0716954
2606,Daisy Street,59715,45.6895966,-111.0714621
2602,Daisy Street,59715,45.6896163,-111.0712362
2520,Daisy Street,59715,45.6896035,-111.0710124
2516,Daisy Street,59715,45.6896177,-111.0707762
2512,Daisy Street,59715,45.6895994,-111.0705578
2619,Lillie Drive,59715,45.6893273,-111.0723587
2615,Lillie Drive,59715,45.6893432,-111.0721440
2611,Lillie Drive,59715,45.6893104,-111.0719429
2607,Lillie Drive,59715,45.6893414,-111.0717418
2603,Lillie Drive,59715,45.6893109,-111.0715231
2521,Lillie Drive,59715,45.6893302,-111.0713140
2517,Lillie Drive,59715,45.6893334,-111.0711071
2513,Lillie Drive,59715,45.6893212,-111.0709022
2509,Lillie Drive,59715,45.6893240,-111.0706870
2505,Lillie Drive,59715,45.6893358,-111.0704813
2618,Lillie Drive,59715,45.6888570,-111.0723768
2614,Lillie Drive,59715,45.6888780,-111.0721454
2610,Lillie Drive,59715,45.6888884,-111.0719308
2606,Lillie Drive,59715,45.6888941,-111.0717021
2602,Lillie Drive,59715,45.6888824,-111.0714768
2520,Lillie Drive,59715,45.6888894,-111.0712542
2516,Lillie Drive,59715,45.6888701,-111.0710384
2512,Lillie Drive,59715,45.6889020,-111.0708023
2508,Lillie Drive,59715,45.6888897,-111.0705829
2504,Annie Street,59715,45.6889057,-111.0703745
2619,Lillie Drive,59715,45.6886116,-111.0723560
2615,Lillie Drive,59715,45.6886134,-111.0721340
2611,Lillie Drive,59715,45.6886054,-111.0719007
2607,Lillie Drive,59715,45.6886055,-111.0716633
2603,Lillie Drive,59715,45.6885980,-111.0714353
2519,Lillie Drive,59715,45.6885984,-111.0712046
2515,Lillie Drive,59715,45.6886054,-111.0709766
2511,Lillie Drive,59715,45.6886256,-111.0707406
2507,Lillie Drive,59715,45.6885994,-111.0705019
2503,Lillie Drive,59715,45.6886284,-111.0702940
2622,Lillie Drive,59715,45.6881574,-111.0723663
2614,Lillie Drive,59715,45.6881568,-111.0721461
2610,Lillie Drive,59715,45.6881436,-111.0719315
2606,Lillie Drive,59715,45.6881815,-111.0717062
2602,Lillie Drive,59715,45.6881613,-111.0714841
2602,Lillie Drive,59715,45.6881783,-111.0712636
2518,Lillie Drive,59715,45.6881469,-111.0710564
2514,Lillie Drive,59715,45.6881844,-111.0708264
2510,Lillie Drive,59715,45.6881834,-111.0706011
2506,Lillie Drive,59715,45.6881811,-111.0703879
2502,Lillie Drive,59715,45.6881600,-111.0701672
2619,Rose Street,59715,45.6879066,-111.0723600
2615,Rose Street,59715,45.6878794,-111.0721334
2611,Rose Street,59715,45.6878883,-111.0719120
2607,Rose Street,59715,45.6879117,-111.0716814
2603,Rose Street,59715,45.6878902,-111.0714635
2523,Rose Street,59715,45.6879052,-111.0712489
2519,Rose Street,59715,45.6879146,-111.0710383
2515,Rose Street,59715,45.6878892,-111.0707922
2511,Rose Street,59715,45.6879220,-111.0705756
2507,Rose Street,59715,45.6878892,-111.0703550
2503,Rose Street,59715,45.6878968,-111.0701230
2622,Rose Street,59715,45.6874602,-111.0723519
2618,Rose Street,59715,45.6874358,-111.0721373
2614,Rose Street,59715,45.6874587,-111.0719282
2610,Rose Street,59715,45.6874471,-111.0717068
2606,Rose Street,59715,45.6874686,-111.0714916
2602,Rose Street,59715,45.6874339,-111.0712636
2518,Rose Street,59715,45.6874686,-111.0710538
2514,Rose Street,59715,45.6874335,-111.0708358
2510,Rose Street,59715,45.6874405,-111.0706031
2506,Rose Street,59715,45.6874710,-111.0703966
2502,Rose Street,59715,45.6874316,-111.0701757
2623,Snapdragon Street,59715,45.6871948,-111.0723439
2619,Snapdragon Street,59715,45.6871960,-111.0721313
2615,Snapdragon Street,59715,45.6871980,-111.0719268
2611,Snapdragon Street,59715,45.6871627,-111.0717109
2607,Snapdragon Street,59715,45.6872044,-111.0715057
2603,Snapdragon Street,59715,45.6871728,-111.0712884
2519,Snapdragon Street,59715,45.6872023,-111.0710842
2515,Snapdragon Street,59715,45.6872126,-111.0708733
2511,Snapdragon Street,59715,45.6871777,-111.0706498
2507,Snapdragon Street,59715,45.6872070,-111.0704462
2503,Snapdragon Street,59715,45.6872117,-111.0702280
2622,Snapdragon Street,59715,45.6867496,-111.0723445
2618,Snapdragon Street,59715,45.6867266,-111.0721313
2614,Snapdragon Street,59715,45.6867533,-111.0719295
2610,Snapdragon Street,59715,45.6867266,-111.0717183
2606,Snapdragon Street,59715,45.6867584,-111.0715158
2602,Snapdragon Street,59715,45.6867641,-111.0713066
2518,Snapdragon Street,59715,45.6867566,-111.0710973
2514,Snapdragon Street,59715,45.6867603,-111.0708827
2510,Snapdragon Street,59715,45.6867425,-111.0706789
2506,Snapdragon Street,59715,45.6867641,-111.0704697
2502,Snapdragon Street,59715,45.6867303,-111.0702619
2623,Daffodil Drive,59715,45.6864644,-111.0723357
2619,Daffodil Drive,59715,45.6864724,-111.0721228
2615,Daffodil Drive,59715,45.6864673,-111.0719151
2611,Daffodil Drive,59715,45.6864681,-111.0717162
2607,Daffodil Drive,59715,45.6864746,-111.0715063
2603,Daffodil Drive,59715,45.6864767,-111.0712954
2519,Daffodil Drive,59715,45.6864729,-111.0710869
2515,Daffodil Drive,59715,45.6864729,-111.0708810
2511,Daffodil Drive,59715,45.6864900,-111.0706756
2507,Daffodil Drive,59715,45.6864760,-111.0704649
2503,Daffodil Drive,59715,45.6864826,-111.0702640
2622,Daffodil Drive,59715,45.6860019,-111.0723311
2618,Daffodil Drive,59715,45.6860029,-111.0721306
2614,Daffodil Drive,59715,45.6860347,-111.0719180
2610,Daffodil Drive,59715,45.6860029,-111.0717162
2606,Daffodil Drive,59715,45.6860066,-111.0714916
2602,Daffodil Drive,59715,45.6860446,-111.0713032
2518,Daffodil Drive,59715,45.6860071,-111.0711007
2514,Daffodil Drive,59715,45.6860123,-111.0708673
2510,Daffodil Drive,59715,45.6860207,-111.0706708
2506,Daffodil Drive,59715,45.6860183,-111.0704569
2502,Daffodil Drive,59715,45.6860530,-111.0702551
1265,North 25th Avenue,59715,45.6927162,-111.0721212
1279,North 25th Avenue,59715,45.6927279,-111.0714667
1287,North 25th Avenue,59715,45.6926012,-111.0710675
1271,North 25th Avenue,59715,45.6923633,-111.0716920
1201,North 25th Avenue,59715,45.6919972,-111.0715704
1245,North 25th Avenue,59715,45.6920384,-111.0718114
1253,North 25th Avenue,59715,45.6922673,-111.0723573
1237,North 25th Avenue,59715,45.6918183,-111.0723911
1293,North 25th Avenue,59715,45.6921241,-111.0710567
1223,North 25th Avenue,59715,45.6917258,-111.0717111
1205,North 25th Avenue,59715,45.6915143,-111.0710473
1215,North 25th Avenue,59715,45.6913742,-111.0715532
1231,North 25th Avenue,59715,45.6913726,-111.0721772
1140,North 27th Avenue,59715,45.6910009,-111.0716887
1140,North 27th Avenue,59715,45.6909982,-111.0722302
422,Plum Avenue,59715,45.6847694,-111.0249941
707,East Peach Street,59715,45.6859135,-111.0261071
610,North Ida Avenue,59715,45.6863101,-111.0262090
626,North Wallace Avenue,59715,45.6864810,-111.0280905
630,East Cottonwood Street,59715,45.6864186,-111.0267732
626,East Cottonwood Street,59715,45.6863681,-111.0270115
527,East Mendenhall Street,59715,45.6807140,-111.0294079
519,East Mendenhall Street,59715,45.6807180,-111.0296594
103,Bridger Center Drive,59715,45.7017936,-111.0295230
105,Bridger Center Drive,59715,45.7020781,-111.0297667
107,Bridger Center Drive,59715,45.7025084,-111.0296247
109,Bridger Center Drive,59715,45.7028023,-111.0296180
109,Commercial Drive,59715,45.7028473,-111.0300733
115,Commercial Drive,59715,45.7036091,-111.0306565
115,Commercial Drive,59715,45.7034762,-111.0302322
107,Commercial Drive,59715,45.7034181,-111.0297915
105,Commercial Drive,59715,45.7034037,-111.0293438
103,Commercial Drive,59715,45.7034157,-111.0288145
101,Commercial Drive,59715,45.7033936,-111.0283362
114,Bridger Center Drive,59715,45.7027787,-111.0284357
703,Bridger Drive,59715,45.7031643,-111.0280315
705,Bridger Drive,59715,45.7032904,-111.0269150
2317,Birdie Drive,59715,45.7034828,-111.0262495
707,Bridger Drive,59715,45.7028489,-111.0265712
851,Bridger Drive,59715,45.7033798,-111.0254255
955,Story Mill Road,59715,45.7030934,-111.0215707
1025,Story Mill Road,59715,45.7044913,-111.0219000
1515,North Rouse Avenue,59715,45.6953448,-111.0318361
1623,North Rouse Avenue,59715,45.6955516,-111.0320110
1715,North Rouse Avenue,59715,45.6971308,-111.0327224
1803,North Rouse Avenue,59715,45.6976112,-111.0316623
2001,North Rouse Avenue,59715,45.6985717,-111.0320098
2005,North Rouse Avenue,59715,45.6987943,-111.0319353
2013,North Rouse Avenue,59715,45.6990790,-111.0319978
1104,North Rouse Avenue,59715,45.6907898,-111.0310333
1010,North Rouse Avenue,59715,45.6899040,-111.0310018
901,North Black Avenue,59715,45.6891710,-111.0376375
903,North Black Avenue,59715,45.6900061,-111.0354449
219,East Tamarack Street,59715,45.6888309,-111.0334292
412,East Tamarack Street,59715,45.6882665,-111.0304834
619,North Church Avenue,59715,45.6864793,-111.0305856
401,North Rouse Avenue,59715,45.6860325,-111.0313786
708,North Rouse Avenue,59715,45.6869970,-111.0312157
722,North Rouse Avenue,59715,45.6873062,-111.0313807
908,North Rouse Avenue,59715,45.6888758,-111.0312411
109,East Oak Street,59715,45.6933111,-111.0348110
1237,North Rouse Avenue,59715,45.6919404,-111.0325917
1203,North Rouse Avenue,59715,45.6917273,-111.0320106
1251,North Rouse Avenue,59715,45.6926830,-111.0318411
1285,North Rouse Avenue,59715,45.6927290,-111.0327543
2430,North 7th Avenue,59715,45.7048548,-111.0453309
2511,North 7th Avenue,59715,45.7038676,-111.0471165
2360,North 7th Avenue,59715,45.7037761,-111.0454168
2304,North 7th Avenue,59715,45.7025829,-111.0452967
2310,North 7th Avenue,59715,45.7028973,-111.0442725
2308,North 7th Avenue,59715,45.7024215,-111.0442830
2306,North 7th Avenue,59715,45.7019857,-111.0443023
2220,North 7th Avenue,59715,45.7015509,-111.0453905
443,West Griffin Drive,59715,45.7008221,-111.0446085
467,West Griffin Drive,59715,45.7003969,-111.0446065
421,West Griffin Drive,59715,45.7004895,-111.0440650
61,West Griffin Drive,59715,45.6997193,-111.0453328
2017,Gilkerson Drive,59715,45.6994645,-111.0432437
2020,Gilkerson Drive,59715,45.6996970,-111.0422343
2014,Gilkerson Drive,59715,45.6994415,-111.0424065
2010,Gilkerson Drive,59715,45.6989115,-111.0423570
2006,Gilkerson Drive,59715,45.6987400,-111.0423311
100,Maus Lane,59715,45.7014018,-111.0430158
2215,Lea Avenue,59715,45.7016788,-111.0427140
2212,Lea Avenue,59715,45.7017270,-111.0419745
2203,Lea Avenue,59715,45.7011533,-111.0426690
2107,Lea Avenue,59715,45.7008686,-111.0426790
2110;2112,Lea Avenue,59715,45.7007864,-111.0419654
2104,Lea Avenue,59715,45.7003018,-111.0419643
2105,Lea Avenue,59715,45.7004158,-111.0426915
10,Evergreen Drive,59715,45.6955680,-111.0352419
1701,Evergreen Drive,59715,45.6966984,-111.0372371
25,Evergreen Drive,59715,45.6961543,-111.0369615
51,Evergreen Drive,59715,45.6961520,-111.0377570
61,Evergreen Drive,59715,45.6965916,-111.0379505
101,Evergreen Drive,59715,45.6966115,-111.0386245
151,Evergreen Drive,59715,45.6966573,-111.0391490
201,Evergreen Drive,59715,45.6968046,-111.0398450
251,Evergreen Drive,59715,45.6968826,-111.0403573
301,Evergreen Drive,59715,45.6968618,-111.0409253
2005,Nikles Drive,59715,45.6982220,-111.0432663
601,Nikles Drive,59715,45.6984611,-111.0438965
915,Highland Boulevard,59715,45.6691572,-111.0185164
1216,West Lincoln Street,59715,45.6636458,-111.0530495
19,Tai Lane,59715,45.6631770,-111.0541150
421,North Broadway Avenue,59715,45.6846293,-111.0244106
700B,North Wallace Avenue,59715,45.6870091,-111.0279049
720,Front Street,59715,45.6871538,-111.0252810
622,East Tamarack Street,59715,45.6884258,-111.0271525
625,East Tamarack Street,59715,45.6888610,-111.0274291
902,North Wallace Avenue,59715,45.6889347,-111.0278348
516,East Tamarack Street,59715,45.6880377,-111.0294361
7,Tai Lane,59715,45.6637276,-111.0541664
2700,Westridge Drive,59715,45.6532891,-111.0456090
703,South 15th Avenue,59715,45.6721761,-111.0575527
321,North 5th Avenue,59715,45.6826825,-111.0443110
221,South 5th Avenue,59715,45.6764783,-111.0442064
304-306,Accola Drive,59715,45.6615966,-111.0332369
216-218,Accola Drive,59715,45.6615689,-111.0335632
312,Accola Drive,59715,45.6616252,-111.0327956
312,Accola Drive,59715,45.6616270,-111.0329189
311,Accola Drive,59715,45.6620342,-111.0328940
303-307,Accola Drive,59715,45.6619822,-111.0332705
1621,South Rouse Avenue,59715,45.6623502,-111.0328204
304,East Mason Street,59715,45.6624366,-111.0335660
9,Faculty Court,59715,45.6630594,-111.0447257
1104,South Montana Avenue,59715,45.6680154,-111.0333081
4001,Renova Lane,59718,45.6897297,-111.0908788
2876,North 27th Avenue,59718,45.7087541,-111.0725144
721,South 9th Avenue,59715,45.6716864,-111.0496786
720,South 10th Avenue,59715,45.6717103,-111.0504585
2245,West Koch Street,59718,45.6750884,-111.0666765
1818,Remington Way,59718,45.6621695,-111.0615872
1225,West Kagy Boulevard,59715,45.6604964,-111.0542964
901,North Black Avenue,59715,45.6901716,-111.0372293
405,West Garfiled Street,59715,45.6675373,-111.0426851
209,Accola Drive,59715,45.6620165,-111.0341667
1624,South Black Avenue,59715,45.6623920,-111.0347177
206,East Mason Street,59715,45.6623837,-111.0343310
210,East Mason Street,59715,45.6624640,-111.0339739
1624,South Black Avenue,59715,45.6620145,-111.0345085
215,Accola Drive,59715,45.6619944,-111.0336842
208-210,Accola Drive,59715,45.6615877,-111.0339579
1502,W Garfield Street,59717,45.6673622,-111.0577577
803,South 7th Avenue,59715,45.6710562,-111.0469903
1335,Reeves Road East,59715,45.7164929,-111.0602157
6101,Blackwood Road,59718,45.6422826,-111.0763854
3334,West Babcock Street,59718,45.6780563,-111.0824601
2615,Langohr Avenue,59715,45.6537060,-111.0427867
411,Spring Creek Drive,59715,45.6536765,-111.0431279
417,Spring Creek Drive,59715,45.6536701,-111.0434374
423,Spring Creek Drive,59715,45.6537113,-111.0437409
505,Spring Creek Drive,59715,45.6536923,-111.0440821
511,Spring Creek Drive,59715,45.6537693,-111.0443598
515,W Spring Creek Drive,59715,45.6536363,-111.0447116
514,Spring Creek Drive,59715,45.6534021,-111.0446859
510,W Spring Creek Drive,59715,45.6532100,-111.0443855
504,Spring Creek Drive,59715,45.6533113,-111.0440519
424,W Spring Creek Drive,59715,45.6533293,-111.0437454
416,Spring Creek Drive,59715,45.6533082,-111.0434434
410,Spring Creek Drive,59715,45.6533335,-111.0431158
2709,Langohr Avenue,59715,45.6532839,-111.0427852
318,Mineral Avenue,59718,45.6832370,-111.0924949
314,Lexington Drive,59715,45.6466667,-111.0422404
322,Lexington Drive,59715,45.6466514,-111.0425379
330,Lexington Drive,59715,45.6466720,-111.0428716
400,Lexington Drive,59715,45.6466716,-111.0432352
416,Lexington Drive,59715,45.6466711,-111.0437138
435,Lexington Drive,59715,45.6466220,-111.0440411
502,Lexington Drive,59715,45.6466341,-111.0443590
515,Lexington Drive,59715,45.6466343,-111.0447063
523,Lexington Drive,59715,45.6466360,-111.0450217
531,Lexington Drive,59715,45.6466338,-111.0453261
607,Lexington Drive,59715,45.6466566,-111.0456296
614,Lexington Drive,59715,45.6466518,-111.0459369
615,Lexington Drive,59715,45.6471203,-111.0459275
607,Lexington Drive,59715,45.6471001,-111.0456241
531,Lexington Drive,59715,45.6471007,-111.0453318
523,Lexington Drive,59715,45.6470954,-111.0450086
515,Lexington Drive,59715,45.6471158,-111.0446898
503,Lexington Drive,59715,45.6471154,-111.0443585
435,Lexington Drive,59715,45.6471088,-111.0440469
417,Lexington Drive,59715,45.6470990,-111.0436887
401,Lexington Drive,59715,45.6471146,-111.0431905
331,Lexington Drive,59715,45.6471296,-111.0428629
323,Lexington Drive,59715,45.6471231,-111.0425328
315,Lexington Drive,59715,45.6471333,-111.0422156
324,Mineral Avenue,59718,45.6834262,-111.0924538
314,Mineral Avenue,59718,45.6830183,-111.0924801
310,Mineral Avenue,59718,45.6828512,-111.0924959
306,Mineral Avenue,59718,45.6826640,-111.0924734
302,Mineral Avenue,59718,45.6824570,-111.0924911
222,Mineral Avenue,59718,45.6822750,-111.0924876
218,Mineral Avenue,59718,45.6820777,-111.0924750
213,Mineral Avenue,59718,45.6818806,-111.0931045
217,Mineral Avenue,59718,45.6820701,-111.0930999
221,Mineral Avenue,59718,45.6822626,-111.0930965
303,Mineral Avenue,59718,45.6824486,-111.0930825
307,Mineral Avenue,59718,45.6826520,-111.0930857
311,Mineral Avenue,59718,45.6828381,-111.0930691
315,Mineral Avenue,59718,45.6830246,-111.0930922
319,Mineral Avenue,59718,45.6832325,-111.0930911
323,Mineral Avenue,59718,45.6834141,-111.0930528
415,Morrow Street,59715,45.6544541,-111.0434326
421`,Morrow Street,59715,45.6544273,-111.0437639
503,Morrow Street,59715,45.6545011,-111.0440639
511,Morrow Street,59715,45.6545078,-111.0443688
515,Morrow Street,59715,45.6544088,-111.0446833
514,Morrow Street,59715,45.6541102,-111.0446953
510,Morrow Street,59715,45.6540142,-111.0443724
504,Morrow Street,59715,45.6540677,-111.0440392
424,Morrow Street,59715,45.6540970,-111.0437369
416,Morrow Street,59715,45.6540892,-111.0434247
410,Morrow Street,59715,45.6540634,-111.0431186
2603,Langohr Avenue,59715,45.6540203,-111.0427768
409,Morrow Street,59715,45.6544562,-111.0430514
405,Morrow Street,59715,45.6544807,-111.0428241
2738,Harris Street,59718,45.6910105,-111.0745993
2736,Harris Street,59718,45.6910249,-111.0743695
2732,Harris Street,59718,45.6910216,-111.0741310
2716,Harris Street,59718,45.6910292,-111.0736543
2714,Harris Street,59718,45.6910065,-111.0734176
2708,Harris Street,59718,45.6910038,-111.0731775
2702,Harris Street,59718,45.6910173,-111.0729458
1102,Buckrake Avenue,59718,45.6907463,-111.0746003
2729,Goldenrod Lane,59718,45.6907259,-111.0743648
2725,Goldenrod Lane,59718,45.6907173,-111.0741248
2721,Goldenrod Lane,59718,45.6907380,-111.0738913
2717,Goldenrod Lane,59718,45.6907411,-111.0736598
2713,Goldenrod Lane,59718,45.6907205,-111.0734064
2709,Goldenrod Lane,59718,45.6907217,-111.0731650
2705,Goldenrod Lane,59718,45.6907536,-111.0729530
2734,Goldenrod Lane,59718,45.6903031,-111.0745950
2730,Goldenrod Lane,59718,45.6903137,-111.0743611
2726,Goldenrod Lane,59718,45.6903099,-111.0741229
2722,Goldenrod Lane,59718,45.6903250,-111.0738932
2718,Goldenrod Lane,59718,45.6903066,-111.0736450
2714,Goldenrod Lane,59718,45.6903104,-111.0734073
2710,Goldenrod Lane,59718,45.6903327,-111.0731693
2706,Goldenrod Lane,59718,45.6903097,-111.0729446
2731,Daisy Drive,59718,45.6900227,-111.0745978
2727,Daisy Drive,59718,45.6900095,-111.0743567
2723,Daisy Drive,59718,45.6900204,-111.0741237
2719,Daisy Drive,59718,45.6900145,-111.0738853
2715,Daisy Drive,59718,45.6899965,-111.0736447
2711,Daisy Drive,59718,45.6900176,-111.0734061
2707,Daisy Drive,59718,45.6900206,-111.0731708
2703,Daisy Drive,59718,45.6900225,-111.0729451
3725,Galloway Street,59718,45.7036382,-111.0863275
3717,Equestrian Lane,59718,45.7024647,-111.0877824
3709,East Baxter Lane,59718,45.7005317,-111.0877579
1083,Rosa Way,59718,45.6907914,-111.1078553
1055,Rosa Way,59718,45.6905764,-111.1078635
1033,Rosa Way,59718,45.6903825,-111.1078700
1015,Rosa Way,59718,45.6901729,-111.1078743
924/926,Rosa Way,59718,45.6895426,-111.1072853
942,Rosa Way,59718,45.6896838,-111.1073283
960,Rosa Way,59718,45.6898285,-111.1073266
980,Rosa Way,59718,45.6899710,-111.1073260
1000/1002,Rosa Way,59718,45.6901094,-111.1073217
1018,Rosa Way,59718,45.6902550,-111.1073206
1020,Rosa Way,59718,45.6903951,-111.1073134
1072,Rosa Way,59718,45.6905367,-111.1073106
1074,Rosa Way,59718,45.6906834,-111.1073061
3779,East Baxter Lane,59718,45.7005386,-111.0884402
3701,Trakker Trail,59718,45.7014347,-111.0879080
1601,East Baxter Lane,59715,45.7006315,-111.0587001
227,South 18th Avenue,59715,45.6760150,-111.0622008
227,South 18th Avenue,59715,45.6762028,-111.0622082
1711,West Koch Street,59715,45.6755757,-111.0606053
1611,West Koch Street,59715,45.6755930,-111.0598066
1611,West Koch Street,59715,45.6759356,-111.0599132
1711,West Koch Street,59715,45.6759215,-111.0605528
811,Mandeville Drive,59715,45.7010145,-111.0492872
1062,West Oak Street,59715,45.6919711,-111.0506894
601,Haggerty Lane,59715,45.6731244,-111.0127950
620,East Cottonwood Street,59715,45.6863907,-111.0275422
109,Highland Boulevard,59715,45.6779325,-111.0192226
111,Highland Boulevard,59715,45.6777780,-111.0194283
2777,North 7th Avenue,59715,45.7041101,-111.0472697
510,South 23rd Avenue,59718,45.6737852,-111.0669089
5516,May Fly Street,59718,45.6757396,-111.1177341
2505,Catamount Street,59718,45.7152587,-111.0696403
5997,East Valley Center Road,59715,45.7159794,-111.0673822
30,Venture Way,59718,45.7195828,-111.0651195
110,East Olive Street,59715,45.6770838,-111.0352259
1369,Bora Way,59718,45.6934526,-111.0825395
815,East Main Street,59715,45.6798662,-111.0243833
200,Highland Boulevard,59715,45.6770877,-111.0183881
2911,West Main Street,59718,45.6715719,-111.0794619
1711,South 11th Avenue,59715,45.6617143,-111.0534881
26,West Main Street,59715,45.6789771,-111.0380455
600,West Kagy Boulevard,59717,45.6587077,-111.0456145
2726,Harris Street,59718,45.6910281,-111.0738933
950,West Grant Street,59715,45.6644340,-111.0499164
2710,McIlhattan Road,59715,45.7102638,-111.0289170
