House number,Street name,Postal code,Latitude,Longitude
171,Heritage Way,59901,48.2186820,-114.3275803
185,Crestline Avenue,59901,48.2109788,-114.3226040
900,West Idaho Street,59901,48.1996186,-114.3293974
1645,Highway 93 South,59901,48.1838911,-114.3060077
2407,Highway 93 North,59901,48.2375890,-114.3263202
115,West Monture Court,59901,48.2740753,-114.3381228
2286,93 North,59901,48.2325020,-114.3313149
900,West Idaho Street,59901,48.1997423,-114.3290295
2365,Highway 93 North,59901,48.2359924,-114.3265064
2387,Highway 93 North,59901,48.2365115,-114.3263226
19,Appleway Drive,59901,48.1967808,-114.3324896
2415,US-93 North,59901,48.2381425,-114.3293336
300,1st Avenue West,59901,48.1953681,-114.3146643
170,Hutton Ranch Road,59901,48.2314874,-114.3267708
1414,Woodland Avenue,59901,48.1889808,-114.2949041
150,Hutton Ranch Road,59901,48.2327187,-114.3281861
150,Hutton Ranch Road,59901,48.2325943,-114.3282013
195,3rd Avenue East North,59901,48.2017115,-114.3095889
55,North Main Street,59901,48.2004564,-114.3138543
60,North Main,59901,48.2005490,-114.3148802
2244,Highway 93 North,59901,48.2305464,-114.3312270
2280,Highway 93 North,59901,48.2321726,-114.3335903
65,Treeline Road,59901,48.2393663,-114.3322595
145,Treeline Road,59901,48.2387589,-114.3337673
155,Treeline Road,59901,48.2386272,-114.3340748
135,West Idaho Street,59901,48.2020067,-114.3179163
235,West Idaho,59901,48.2017248,-114.3192804
335,East Idaho Street,59901,48.2033101,-114.3096077
1210,US Highway 2 West,59901,48.1996042,-114.3336715
15,Commons Way,59901,48.2200673,-114.3299053
817,West Center Street,59901,48.1969194,-114.3262414
575,Sunset Boulevard,59901,48.2056236,-114.3169290
10,North Main Street,59901,48.1988452,-114.3144098
19,East Idaho Street,59901-4009,48.2025405,-114.3141952
520,East Idaho Street,59901,48.2031644,-114.3071933
535,East Idaho,59901,48.2037480,-114.3068466
130,North Meridian Road,59901-3848,48.1982766,-114.3308598
175,Timberwolf Parkway,59901,48.2382591,-114.3402889
1680,Highway 93 South,59901,48.1833666,-114.3067950
201,18th Street East,59901,48.1827371,-114.3044172
1110,Highway 2 West,59901-3410,48.1999108,-114.3323239
2455,Highway 93 North,59901,48.2390160,-114.3264797
2445,Highway 93 North,59901,48.2386242,-114.3281766
2310,US Highway 93 North,59901,48.2336574,-114.3312447
2254,Highway 93 North,59901,48.2310131,-114.3311830
2240,Highway 93 North,59901,48.2295882,-114.3312567
2298,Highway 93 North,59901,48.2326899,-114.3335286
2360,Highway 93 North,59901,48.2359862,-114.3339551
35,Treeline Road,59901,48.2380772,-114.3311937
2365,Highway 93 North,59901-2558,48.2356289,-114.3259674
2264,Highway 93 North,59901,48.2315554,-114.3313949
2435,Highway 93N,59901,48.2389964,-114.3291914
20,Four Mile Drive,59901,48.2254569,-114.3311222
1140,Highway 2 West,59901,48.1987784,-114.3327125
1341,1st Avenue East,59901-5801,48.1856713,-114.3069530
649,West Idaho Street,59901,48.2008575,-114.3253070
2292,Highway 93 North,59901,48.2327565,-114.3321700
110,Hutton Ranch Road,59901,48.2322211,-114.3299223
490,East Montana Street,59901,48.2020783,-114.3078044
2330,US 93 North,59901,48.2340338,-114.3336000
170,Hutton Ranch Road,59901,48.2317433,-114.3261365
602,South Main Street,59901,48.1925311,-114.3127114
1176,North Main Street,59901,48.2161986,-114.3156739
2330,US 93 North,59901,48.2338425,-114.3320935
1880,U.S. 93 S,59901,48.1796332,-114.3047142
644,4th Avenue West,59901,48.1910811,-114.3177779
160,Heritage Way,59901,48.2176242,-114.3283277
400,Liberty Street,59901,48.2096065,-114.3352869
83,Sunset Court,59901,48.2144930,-114.3383041
525,Crestview Road,59901,48.2205304,-114.3343154
182,Glenwood Drive,59901,48.2081622,-114.3338339
2425,Highway 93 North,59901,48.2385600,-114.3293021
2659,US-93 N,59901,48.2459774,-114.3283886
920,South Main Street,59901,48.1895185,-114.3110431
1701,US Highway 93 South,59901,48.1840405,-114.3045547
1830,US Highway 93 South,59901,48.1814430,-114.3053544
2210,Hwy 93 South,59901,48.1775786,-114.3015274
2205,Hwy 93 South,59901,48.1780893,-114.3002227
2243,Kelly Road,59901,48.1776556,-114.2999345
1226,Whitefish Stage Road,59901,48.2223233,-114.3084060
55,Commons Way,59901,48.2200671,-114.3297668
250,Old Reserve Drive,59901,48.2327104,-114.3354220
1-149,6th Avenue W North,59901,48.2022082,-114.3241065
835,Parkway Drive,59901,48.2295576,-114.3364258
2000,US Highway 93 S,59901,48.1803040,-114.3025612
1176,N Main Street,59901,48.2127260,-114.3119939
1151,North Meridian Road,59901,48.2115452,-114.3293210
1550,Sunset Boulevard,59901,48.2159559,-114.3296161
1840,Highway 93 South,59901,48.1806177,-114.3044817
1221,8th Avenue East,59901,48.1885584,-114.2970818
115,Kelly Road,59901,48.1781623,-114.2983204
100,Kelly Road,59901,48.1772245,-114.2979836
249,East Center Street,59901,48.1997931,-114.3098694
1835,Airport Road,59901,48.1803710,-114.3084210
505,6th Avenue East,59901,48.1952020,-114.3026480
175,Timberwolf Parkway,59901,48.2382403,-114.3402525
2048,Airport Road,59901,48.1741825,-114.3099579
2050,Airport Road,59901,48.1736506,-114.3097306
777,Grandview Drive,59901,48.2309045,-114.3232092
2205,US 93 North,59901,48.2301746,-114.3291381
1000,Basecamp Drive,59901,48.1523265,-114.2938127
32,1st Avenue West,59901,48.1978355,-114.3155459
3230,Highway 93 North,59901,48.2603965,-114.3384349
500,Palmer Drive,59901,48.2326257,-114.2987494
20,North Main Street,59901,48.1989198,-114.3178439
