House number,Street name,Postal code,Latitude,Longitude
506,South 5th Street,59044,45.6621434,-108.7779833
201,1st Avenue,59044,45.6707546,-108.7710816
101,West 1st Street,59044,45.6704611,-108.7719570
720,1st Avenue,59044,45.6764084,-108.7719279
520,West Main Street,59044,45.6678588,-108.7786205
309,South 1st Avenue,59044,45.6659479,-108.7704202
119,Southeast 4th Street,59044,45.6655740,-108.7705807
401,1st Avenue South,59044,45.6651683,-108.7707694
400,Southeast 4th Street,59044,45.6645027,-108.7669584
415,Southeast 4th Street,59044-3314,45.6660669,-108.7658038
331,South Washington Avenue,59044,45.6655128,-108.7621247
301,South Washington Avenue,59044,45.6661172,-108.7619439
211,Bernhardt Road,59044,45.6663384,-108.7609024
1303,6th Street,59044,45.6750421,-108.7530506
1013,1st Avenue,59044,45.6798615,-108.7709669
1011,1st Avenue,59044,45.6798268,-108.7712912
1011,1st Avenue,59044,45.6798288,-108.7713314
1013,1st Avenue,59044,45.6797946,-108.7709678
614,East 1st Street,59044,45.6722048,-108.7630566
102,8th Avenue,59044,45.6698302,-108.7825013
1016,Montana Avenue,59044,45.6799463,-108.7705059
401,East Main Street,59044,45.6705221,-108.7671005
1055,Montana Avenue,59044,45.6807774,-108.7699468
16,1st Avenue,59044,45.6698460,-108.7719445
104,East 1st Street,59044,45.6702617,-108.7713138
1103,East Main Street,59044,45.6733942,-108.7548511
12,3rd Avenue,59044,45.6690285,-108.7749614
107,East Main Street,59044,45.6695302,-108.7709121
525,Woodland Avenue,59044,45.6618970,-108.7747116
1053,Montana Avenue,59044,45.6807242,-108.7699465
415 1/2,Washington Avenue,59044,45.6731233,-108.7638191
303,South 8th Avenue,59044,45.6646566,-108.7813433
215,East Main Street,59044,45.6700776,-108.7692997
17,1st Avenue,59044,45.6700529,-108.7715883
5,1st Avenue,59044,45.6696213,-108.7713738
1001,Montana Avenue,59044,45.6793370,-108.7700033
1007,West 6th Street,59044,45.6747124,-108.7853166
415,Washington Avenue,59044,45.6731236,-108.7639277
225,South 8th Avenue,59044,45.6648528,-108.7812902
203,West 2nd Street,59044,45.6705268,-108.7736043
116,3rd Avenue,59044,45.6699377,-108.7749507
13,Colorado Avenue,59044,45.6706109,-108.7686830
215,South 4th Street,59044,45.6638244,-108.7733932
8,5th Avenue,59044,45.6686736,-108.7779192
618,2nd Avenue,59044,45.6753259,-108.7733576
308,Cedar Avenue,59044,45.6641975,-108.7741055
516,Elm Avenue,59044,45.6740641,-108.7555420
705,East 6th Street,59044,45.6746497,-108.7622738
400,East 8th Street,59044,45.6767731,-108.7671334
333,South 8th Avenue,59044,45.6638999,-108.7815710
22,1st Avenue,59044,45.6699606,-108.7719998
501,Woodland Avenue,59044,45.6624572,-108.7746797
508,Woodland Avenue,59044,45.6623319,-108.7755589
417,West Main Street,59044,45.6685923,-108.7772003
520,Woodland Avenue,59044,45.6616860,-108.7755607
1005,Sunhaven Drive,59044,45.6760833,-108.7576517
341,South 8th Avenue,59044,45.6640131,-108.7812874
204,South Washington Avenue,59044,45.6674935,-108.7646047
412,West Main Street,59044,45.6680881,-108.7767625
207,Woodland Avenue,59044,45.6652529,-108.7748774
204,South Washington Avenue,59044,45.6672158,-108.7640126
419,Idaho Avenue,59044,45.6732991,-108.7623845
13 1/2,Colorado Avenue,59044,45.6707653,-108.7687044
403,East Main Street,59044,45.6704939,-108.7669733
302,Cedar Avenue,59044,45.6647225,-108.7741019
204,South Washington Avenue,59044,45.6672106,-108.7636601
204,South Washington Avenue,59044,45.6674905,-108.7643622
107,West Main Street,59044,45.6694839,-108.7720353
521,Yellowstone Avenue,59044,45.6615820,-108.7763560
619,East Main Street,59044,45.6714564,-108.7635637
215,East 1st Street,59044,45.6711133,-108.7690783
525,Yellowstone Avenue,59044,45.6613502,-108.7763276
12,3rd Avenue,59044,45.6690424,-108.7748967
518,Woodland Avenue,59044,45.6617850,-108.7755633
504,Woodland Avenue,59044,45.6623284,-108.7757340
719,West 1st Street,59044,45.6694916,-108.7816397
319 1/2,7th Avenue,59044,45.6722756,-108.7800985
613,Elm Avenue,59044,45.6751594,-108.7549786
522,Woodland Avenue,59044,45.6615786,-108.7755621
100,East 1st Street,59044,45.6702078,-108.7715456
1013,Montana Avenue,59044,45.6799304,-108.7699450
1055,Milwaukee Road,59044,45.6795823,-108.7298762
221,West Main Street,59044,45.6689926,-108.7742074
204,South Washington Avenue,59044,45.6674876,-108.7637698
511,Woodland Avenue,59044,45.6621641,-108.7748553
823,West 4th Street,59044,45.6726853,-108.7834874
331,South 8th Avenue,59044,45.6639611,-108.7815662
204,South Washington Avenue,59044,45.6674929,-108.7647208
106 1/2,7th Avenue,59044,45.6696842,-108.7810383
405,East Main Street,59044,45.6705104,-108.7668942
1001,West 4th Street,59044,45.6727700,-108.7851871
520,West Main Street,59044,45.6680195,-108.7785239
9,2nd Avenue,59044,45.6693934,-108.7728236
501 1/2,7th Avenue,59044,45.6736746,-108.7802210
15,Colorado Avenue,59044,45.6707889,-108.7686101
520,East 8th Street,59044,45.6768335,-108.7644899
101,West Main Street,59044,45.6693704,-108.7716661
613 1/2,East Main Street,59044,45.6714541,-108.7638884
607,3rd Avenue,59044,45.6749793,-108.7742502
209,South 1st Avenue,59044,45.6664305,-108.7705494
219,South 8th Avenue,59044,45.6648463,-108.7815547
406,South 1st Street,59044,45.6633602,-108.7718000
321,South 8th Avenue,59044,45.6643176,-108.7812898
514,Elm Avenue,59044,45.6740173,-108.7555448
707,East 1st Street,59044,45.6727966,-108.7621971
119,East Main Street,59044,45.6696934,-108.7702549
105,West Main Street,59044,45.6693169,-108.7718730
615,West 1st Street,59044,45.6694599,-108.7800741
219,West Main Street,59044,45.6688581,-108.7741041
614,Idaho Avenue,59044,45.6751299,-108.7628992
606,West 1st Street,59044,45.6691653,-108.7795025
323,South 8th Avenue,59044,45.6642164,-108.7814440
204,South Washington Avenue,59044,45.6672153,-108.7645934
110,7th Avenue,59044,45.6698404,-108.7808736
122,South 1st Avenue,59044,45.6668110,-108.7729880
405,Maple Avenue,59044,45.6633693,-108.7721978
319,Woodland Avenue,59044,45.6638022,-108.7750399
201,East Main Street,59044,45.6697788,-108.7698742
302,East 1st Street,59044,45.6708604,-108.7687229
405,Southeast 4th Street,59044,45.6661716,-108.7670059
331,South Washington Avenue,59044,45.6655705,-108.7627055
1103,East Main Street,59044,45.6733931,-108.7547719
603,East Main Street,59044,45.6712893,-108.7641096
403,Maple Avenue,59044,45.6634604,-108.7721974
1044,Montana Avenue,59044,45.6806796,-108.7704529
706,West 1st Street,59044,45.6691652,-108.7809192
513,Woodland Avenue,59044,45.6619596,-108.7750009
611,East 4th Street,59044,45.6726796,-108.7634503
315,Cedar Avenue,59044,45.6639918,-108.7735120
16,Idaho Avenue,59044,45.6718925,-108.7637617
204,South Washington Avenue,59044,45.6674860,-108.7635396
210,1st Avenue,59044,45.6708311,-108.7718100
212,1st Avenue,59044,45.6709157,-108.7718112
1001,West 4th Street,59044,45.6726711,-108.7851854
23,3rd Avenue,59044,45.6693611,-108.7741821
1017,Montana Avenue,59044,45.6801550,-108.7699125
229,South 8th Avenue,59044,45.6647384,-108.7812921
112,3rd Avenue,59044,45.6698811,-108.7747884
527,Yellowstone Avenue,59044,45.6612840,-108.7763290
1009,Montana Avenue,59044,45.6796205,-108.7699436
1103,East Main Street,59044,45.6733952,-108.7549656
823,West 4th Street,59044,45.6727788,-108.7834970
609,3rd Avenue,59044,45.6750591,-108.7742577
112,8th Avenue,59044,45.6699649,-108.7822843
204,South Washington Avenue,59044,45.6672078,-108.7634482
301,East Main Street,59044,45.6701269,-108.7684705
401,South 1st Avenue,59044,45.6650931,-108.7708178
703,East 6th Street,59044,45.6746937,-108.7623546
204,South Washington Avenue,59044,45.6672121,-108.7638945
607,Elm Avenue,59044,45.6748727,-108.7549685
1045,Montana Avenue,59044,45.6804894,-108.7699471
520,West Main Street,59044,45.6677302,-108.7783724
514,Woodland Avenue,59044,45.6619837,-108.7755676
401,South 1st Avenue,59044,45.6651021,-108.7707211
202,West 1st Street,59044,45.6697366,-108.7734913
507,Woodland Avenue,59044,45.6623059,-108.7749924
308,East 1st Street,59044,45.6709467,-108.7684936
112,8th Avenue,59044,45.6700663,-108.7822818
1348,East Railroad Street,59044,45.6674724,-108.7525781
207 1/2,East 1st Street,59044,45.6711737,-108.7695749
301,South 8th Avenue,59044,45.6646555,-108.7814466
304,East 1st Street,59044,45.6709142,-108.7686747
204,South Washington Avenue,59044,45.6674839,-108.7634357
202,5th Avenue,59044,45.6705296,-108.7778146
204,South Washington Avenue,59044,45.6672189,-108.7647116
506,Woodland Avenue,59044,45.6624405,-108.7755507
114,3rd Avenue,59044,45.6699737,-108.7747836
217,South 8th Avenue,59044,45.6649661,-108.7814064
527,Woodland Avenue,59044,45.6618018,-108.7747129
227,South 8th Avenue,59044,45.6647923,-108.7812925
204,South Washington Avenue,59044,45.6672157,-108.7637783
207,West 2nd Street,59044,45.6705280,-108.7736949
213,Woodland Avenue,59044,45.6650755,-108.7750683
307,South 8th Avenue,59044,45.6645430,-108.7813473
12,3rd Avenue,59044,45.6690684,-108.7747576
21,1st Avenue,59044,45.6701049,-108.7716191
1019,Montana Avenue,59044,45.6801547,-108.7696967
204,South Washington Avenue,59044,45.6674926,-108.7642480
1051,Montana Avenue,59044,45.6806635,-108.7699666
517,Woodland Avenue,59044,45.6618070,-108.7749986
219,East Main Street,59044,45.6701381,-108.7690649
219,East 1st Street,59044,45.6711533,-108.7689373
115 1/2,8th Avenue,59044,45.6700317,-108.7817398
20 1/2,5th Avenue,59044,45.6691273,-108.7779037
507,West 2nd Street,59044,45.6705455,-108.7780173
7,Montana Avenue,59044,45.6699621,-108.7699765
401,South 1st Avenue,59044,45.6649935,-108.7708070
1041,Montana Avenue,59044,45.6803772,-108.7699612
1103,East Main Street,59044,45.6733923,-108.7549561
112,South 1st Avenue,59044,45.6670411,-108.7719494
325,South 8th Avenue,59044,45.6642158,-108.7813472
315,South 8th Avenue,59044,45.6642748,-108.7815494
419,East 5th Street,59044,45.6736743,-108.7658843
215,West Main Street,59044,45.6688064,-108.7738429
102,8th Avenue,59044,45.6695442,-108.7826574
319,South 8th Avenue,59044,45.6643760,-108.7812930
617,West 1st Street,59044,45.6694616,-108.7801760
407,East Main Street,59044,45.6705379,-108.7667660
112,South 1st Avenue,59044,45.6670647,-108.7718491
501,7th Avenue,59044,45.6736619,-108.7801007
306,East 1st Street,59044,45.6709304,-108.7685964
1011,Montana Avenue,59044,45.6797569,-108.7699397
20,5th Avenue,59044,45.6690965,-108.7777812
524,Woodland Avenue,59044,45.6614997,-108.7755612
311,South 8th Avenue,59044,45.6644083,-108.7815476
705,East 1st Street,59044,45.6727516,-108.7623263
305,East Main Street,59044,45.6701893,-108.7681987
204,South Washington Avenue,59044,45.6672188,-108.7644772
511,West Main Street,59044,45.6685568,-108.7783070
12,3rd Avenue,59044,45.6690823,-108.7746963
102,8th Avenue,59044,45.6698332,-108.7826381
305,South 8th Avenue,59044,45.6645464,-108.7814470
15 1/2,Colorado Avenue,59044,45.6708056,-108.7685335
1049,Montana Avenue,59044,45.6806062,-108.7699593
115,8th Avenue,59044,45.6699698,-108.7817368
505,Woodland Avenue,59044,45.6624524,-108.7750040
516,Woodland Avenue,59044,45.6618938,-108.7755648
207,East 1st Street,59044,45.6710370,-108.7695809
331,South Washington Avenue,59044,45.6655409,-108.7621190
529,Woodland Avenue,59044,45.6617214,-108.7747131
339,South 8th Avenue,59044,45.6639571,-108.7812822
105,East Main Street,59044,45.6695098,-108.7709996
208 1/2,1st Avenue,59044,45.6707404,-108.7718315
608,West 1st Street,59044,45.6691669,-108.7796031
617,Idaho Avenue,59044,45.6751730,-108.7623650
504,West 1st Street,59044,45.6690966,-108.7780419
1103,East Main Street,59044,45.6733945,-108.7548618
510,Wyoming Avenue,59044,45.6738000,-108.7658631
515,Woodland Avenue,59044,45.6618850,-108.7750025
119,West Main Street,59044,45.6691126,-108.7726816
2204,Atchison Drive,59044,45.6803369,-108.7387831
509,Woodland Avenue,59044,45.6621710,-108.7749627
343,South 8th Avenue,59044,45.6637861,-108.7814751
112,South 1st Avenue,59044,45.6670151,-108.7720655
12,3rd Avenue,59044,45.6689952,-108.7750485
615,Idaho Avenue,59044,45.6751084,-108.7623662
204,South Washington Avenue,59044,45.6672109,-108.7641472
302,East 1st Street,59044,45.6708497,-108.7687745
610,Juniper Avenue,59044,45.6749644,-108.7512161
12,5th Avenue,59044,45.6688837,-108.7778131
12,1st Avenue,59044,45.6697374,-108.7718735
21,3rd Avenue,59044,45.6692922,-108.7741320
313,South 8th Avenue,59044,45.6643443,-108.7815485
309,South 8th Avenue,59044,45.6644723,-108.7815468
502,Woodland Avenue,59044,45.6624417,-108.7757325
116,3rd Avenue,59044,45.6699380,-108.7750732
404,South 1st Street,59044,45.6634610,-108.7718059
1018,Montana Avenue,59044,45.6800681,-108.7705135
308,Cedar Avenue,59044,45.6643078,-108.7741252
317,South 8th Avenue,59044,45.6644317,-108.7812923
6,Montana Avenue,59044,45.6699371,-108.7703781
512,Woodland Avenue,59044,45.6620751,-108.7755731
122,South 1st Avenue,59044,45.6667131,-108.7729452
204,South Washington Avenue,59044,45.6674840,-108.7636578
204,South Washington Avenue,59044,45.6674855,-108.7638962
420 1/2,1st Avenue,59044,45.6733076,-108.7720647
420,1st Avenue,59044,45.6732979,-108.7718835
215,South 8th Avenue,59044,45.6649668,-108.7815135
13 1/2,Colorado Avenue,59044,45.6707715,-108.7686705
331,South Washington Avenue,59044,45.6655559,-108.7622941
520,East Maryland Lane,59044,45.6789773,-108.7644979
25,3rd Avenue,59044,45.6694155,-108.7741997
1043,Montana Avenue,59044,45.6804246,-108.7699618
9,1st Avenue,59044,45.6697054,-108.7714096
102,8th Avenue,59044,45.6698303,-108.7823585
511,Yellowstone Avenue,59044,45.6617536,-108.7763532
519,Woodland Avenue,59044,45.6617252,-108.7749985
102,8th Avenue,59044,45.6695476,-108.7823497
208,1st Avenue,59044,45.6707405,-108.7717967
717,West 1st Street,59044,45.6695036,-108.7814941
24,1st Avenue,59044,45.6700044,-108.7720221
401,South 1st Avenue,59044,45.6651905,-108.7708379
10,5th Avenue,59044,45.6688229,-108.7778083
703,East 1st Street,59044,45.6727340,-108.7624287
617,East Main Street,59044,45.6714838,-108.7637395
204,South Washington Avenue,59044,45.6674913,-108.7644783
609,Elm Avenue,59044,45.6749341,-108.7549706
204,South Washington Avenue,59044,45.6674849,-108.7640124
701,East 6th Street,59044,45.6746546,-108.7624342
604,West 1st Street,59044,45.6691687,-108.7794011
103,East Main Street,59044,45.6695045,-108.7711745
101 1/2,West Main Street,59044,45.6694139,-108.7717139
20,7th Avenue,59044,45.6691342,-108.7807217
223,South 8th Avenue,59044,45.6649197,-108.7812918
302,Cedar Avenue,59044,45.6646123,-108.7740822
319,7th Avenue,59044,45.6722491,-108.7802448
117,West Main Street,59044,45.6691501,-108.7725288
204,South Washington Avenue,59044,45.6672138,-108.7643591
205,South 1st Avenue,59044,45.6667348,-108.7706128
105,East Main Street,59044,45.6694954,-108.7710544
221,South 8th Avenue,59044,45.6647796,-108.7815595
331,South Washington Avenue,59044,45.6655569,-108.7624503
518,East Maryland Lane,59044,45.6789782,-108.7646952
102,8th Avenue,59044,45.6695453,-108.7824965
106,7th Avenue,59044,45.6696803,-108.7808427
1103,East Main Street,59044,45.6734524,-108.7548445
217,West Main Street,59044,45.6687755,-108.7740847
419,West Main Street,59044,45.6685931,-108.7773784
616,Idaho Avenue,59044,45.6752618,-108.7628953
416,1st Avenue,59044,45.6732075,-108.7720741
204,South Washington Avenue,59044,45.6674918,-108.7641258
1003,Montana Avenue,59044,45.6794805,-108.7700040
1015,Montana Avenue,59044,45.6799342,-108.7697127
1044,Montana Avenue,59044,45.6806747,-108.7705207
1034,Montana Avenue,59044,45.6803426,-108.7705075
609,East 4th Street,59044,45.6725963,-108.7634493
331,South Washington Avenue,59044,45.6655559,-108.7623735
203,East Main Street,59044,45.6698325,-108.7696864
331,South Washington Avenue,59044,45.6655432,-108.7625293
117 1/2,West Main Street,59044,45.6691369,-108.7725824
119,West 1st Street,59044,45.6702046,-108.7727894
1104,Locomotive Circle,59044,45.6809094,-108.7317899
110 1/2,7th Avenue,59044,45.6698433,-108.7810482
611,Elm Avenue,59044,45.6750807,-108.7549749
345,South 8th Avenue,59044,45.6637874,-108.7813908
115,East Main Street,59044,45.6696412,-108.7704753
205,Woodland Avenue,59044,45.6652939,-108.7749903
204,South Washington Avenue,59044,45.6672116,-108.7642430
103,East Main Street,59044,45.6694851,-108.7711129
619,West 1st Street,59044,45.6694623,-108.7802795
327,South 8th Avenue,59044,45.6641095,-108.7814454
204,South Washington Avenue,59044,45.6672084,-108.7635440
19,3rd Avenue,59044,45.6692405,-108.7741042
523,Yellowstone Avenue,59044,45.6614782,-108.7763513
112,South 1st Avenue,59044,45.6669956,-108.7721513
507,West Main Street,59044,45.6684894,-108.7780551
117,East Main Street,59044,45.6696545,-108.7704069
16,2nd Avenue,59044,45.6695552,-108.7733208
1034,Montana Avenue,59044,45.6803474,-108.7704396
407,Southeast 4th Street,59044,45.6661696,-108.7668600
102,East 1st Street,59044,45.6702291,-108.7714832
4,Idaho Avenue,59044,45.6715227,-108.7633584
105,East Main Street,59044,45.6694952,-108.7710547
7,2nd Avenue,59044,45.6692716,-108.7727763
518,East 8th Street,59044,45.6768345,-108.7647189
319 1/2,Woodland Avenue,59044,45.6637597,-108.7749113
410,West Main Street,59044,45.6680927,-108.7766444
331,South Washington Avenue,59044,45.6655832,-108.7628154
616,East 1st Street,59044,45.6722369,-108.7629415
20,1st Avenue,59044,45.6698871,-108.7719589
329,South 8th Avenue,59044,45.6641081,-108.7813511
419 1/2,Idaho Avenue,59044,45.6732459,-108.7623599
115,West 1st Street,59044,45.6703082,-108.7724847
511,Yellowstone Avenue,59044,45.6617484,-108.7760458
901,East 4th Street,59044,45.6725818,-108.7594797
337,South 8th Avenue,59044,45.6638927,-108.7812836
804,Date Avenue,59044,45.6770648,-108.7570793
331,South Washington Avenue,59044,45.6655563,-108.7622159
6,5th Avenue,59044,45.6685447,-108.7779189
602,West 1st Street,59044,45.6691648,-108.7792839
335,South 8th Avenue,59044,45.6638313,-108.7812843
16 1/2,Idaho Avenue,59044,45.6718609,-108.7639041
101,East Main Street,59044,45.6694825,-108.7713054
13 1/2,Colorado Avenue,59044,45.6707536,-108.7687640
905,East 4th Street,59044,45.6725815,-108.7592567
613,West 1st Street,59044,45.6694607,-108.7799796
1047,Montana Avenue,59044,45.6805415,-108.7699492
331,South Washington Avenue,59044,45.6655427,-108.7626088
503,Woodland Avenue,59044,45.6623440,-108.7746835
903,East 4th Street,59044,45.6725804,-108.7593672
620,2nd Avenue,59044,45.6754257,-108.7732856
211,Woodland Avenue,59044,45.6651184,-108.7750637
511,Yellowstone Avenue,59044,45.6617495,-108.7762041
523,Woodland Avenue,59044,45.6619757,-108.7747120
611,West 1st Street,59044,45.6694637,-108.7798883
1103,East Main Street,59044,45.6733942,-108.7547443
213,West Main Street,59044,45.6688733,-108.7735917
510,Woodland Avenue,59044,45.6621837,-108.7755649
112,South 1st Avenue,59044,45.6670932,-108.7717420
20,7th Avenue,59044,45.6691046,-108.7807202
12,3rd Avenue,59044,45.6690539,-108.7748388
116,3rd Avenue,59044,45.6699387,-108.7751794
725,Washington Avenue,59044,45.6765586,-108.7626812
1009,East 6th Street,59044,45.6748399,-108.7578122
419,East Main Street,59044,45.6708834,-108.7661699
415,East Main Street,59044,45.6707447,-108.7664400
101,West 1st Street,59044,45.6704495,-108.7719596
109,West 1st Street,59044,45.6703755,-108.7722277
206,1st Avenue,59044,45.6706375,-108.7719686
704,1st Avenue,59044,45.6759574,-108.7724029
109,East Main Street,59044,45.6696606,-108.7708872
111,East Main Street,59044,45.6696728,-108.7707706
113,East Main Street,59044,45.6696807,-108.7706512
14,Montana Avenue,59044,45.6701167,-108.7706861
20,Montana Avenue,59044,45.6703293,-108.7707060
210,East Main Street,59044,45.6694210,-108.7694290
204,East Main Street,59044,45.6693172,-108.7698723
108,East Main Street,59044,45.6691645,-108.7705395
120,3rd Avenue,59044,45.6701685,-108.7749780
119 1/2,4th Avenue,59044,45.6701540,-108.7754375
119,4th Avenue,59044,45.6701615,-108.7757095
115,4th Avenue,59044,45.6700330,-108.7757085
113,4th Avenue,59044,45.6698790,-108.7757385
201,2nd Avenue,59044,45.6704596,-108.7728148
606,West Main Street,59044,45.6680290,-108.7794445
603,West Main Street,59044,45.6685910,-108.7794165
605,West Main Street,59044,45.6684780,-108.7798150
615,West Main Street,59044,45.6685585,-108.7799720
707,West Main Street,59044,45.6685645,-108.7814065
716,West Main Street,59044,45.6679981,-108.7815185
620,West Main Street,59044,45.6680060,-108.7803260
20,South 7th Avenue,59044,45.6675765,-108.7810015
220,1st Avenue,59044,45.6711204,-108.7719886
213,1st Avenue,59044,45.6711975,-108.7712090
217,2nd Avenue,59044,45.6711040,-108.7727795
219,2nd Avenue,59044,45.6712315,-108.7727460
1007,West 4th Street,59044,45.6727520,-108.7856606
1019,West 4th Street,59044,45.6726935,-108.7864725
1021,West 4th Street,59044,45.6727030,-108.7868275
116,8th Avenue,59044,45.6701690,-108.7824485
720,West 2nd Street,59044,45.6701440,-108.7816205
109,8th Avenue,59044,45.6698425,-108.7817115
107,8th Avenue,59044,45.6696780,-108.7816790
19,8th Avenue,59044,45.6690115,-108.7816590
16,7th Avenue,59044,45.6689340,-108.7809170
19,7th Avenue,59044,45.6691125,-108.7802495
614,West 1st Street,59044,45.6691173,-108.7800720
14,6th Avenue,59044,45.6688690,-108.7794905
17,7th Avenue,59044,45.6690035,-108.7802465
15,7th Avenue,59044,45.6688385,-108.7802540
213,East 1st Street,59044,45.6711795,-108.7692075
209,East 1st Street,59044,45.6711640,-108.7693615
215,Montana Avenue,59044,45.6711195,-108.7698185
201,East 1st Street,59044,45.6709765,-108.7698315
219,Montana Avenue,59044,45.6712165,-108.7698115
19,Pennsylvania Avenue,59044,45.6712045,-108.7673135
210,South Washington Avenue,59044,45.6667500,-108.7643200
2714,Lackawanna Lane,59044,45.6797530,-108.7304775
2712,Lackawanna Lane,59044,45.6796980,-108.7307455
2708,Lackawanna Lane,59044,45.6796575,-108.7309750
2706,Lackawanna Lane,59044,45.6795735,-108.7311820
2704,Lackawanna Lane,59044,45.6795420,-108.7314065
1091,Milwaukee Road,59044,45.6802625,-108.7300075
1093,Milwaukee Road,59044,45.6804375,-108.7300035
1095,Milwaukee Road,59044,45.6805750,-108.7299945
1097,Milwaukee Road,59044,45.6807095,-108.7300225
2715,Lackawanna Lane,59044,45.6801830,-108.7306005
2713,Lackawanna Lane,59044,45.6801900,-108.7307385
2711,Lackawanna Lane,59044,45.6801290,-108.7309170
2716,Topeka Drive,59044,45.6805475,-108.7306185
2714,Topeka Drive,59044,45.6805400,-108.7308300
2712,Topeka Drive,59044,45.6804985,-108.7310265
2710,Topeka Drive,59044,45.6804665,-108.7312265
2708,Topeka Drive,59044,45.6803970,-108.7313650
2706,Topeka Drive,59044,45.6803515,-108.7315820
2707,Lackawanna Lane,59044,45.6800355,-108.7312785
2705,Lackawanna Lane,59044,45.6799900,-108.7314735
2709,Lackawanna Lane,59044,45.6800835,-108.7310975
2702,Lackawanna Lane,59044,45.6794865,-108.7316020
2622,Lackawanna Lane,59044,45.6794265,-108.7318420
2620,Lackawanna Lane,59044,45.6793715,-108.7320575
2618,Lackawanna Lane,59044,45.6793055,-108.7322850
2614,Lackawanna Lane,59044,45.6792095,-108.7326585
2610,Lackawanna Lane,59044,45.6791655,-108.7329505
2608,Lackawanna Lane,59044,45.6791150,-108.7331820
2606,Lackawanna Lane,59044,45.6790455,-108.7333675
2619,Lackawanna Lane,59044,45.6797715,-108.7323950
2621,Lackawanna Lane,59044,45.6798130,-108.7322055
2623,Lackawanna Lane,59044,45.6798555,-108.7320475
2701,Lackawanna Lane,59044,45.6799085,-108.7318445
2704,Topeka Drive,59044,45.6803215,-108.7317805
2702,Topeka Drive,59044,45.6802720,-108.7319530
2700,Topeka Drive,59044,45.6802325,-108.7321230
2626,Topeka Drive,59044,45.6801925,-108.7323305
2624,Topeka Drive,59044,45.6801510,-108.7325250
2622,Topeka Drive,59044,45.6800665,-108.7326815
2620,Topeka Drive,59044,45.6799995,-108.7328615
2618,Topeka Drive,59044,45.6799935,-108.7330665
2616,Topeka Drive,59044,45.6799485,-108.7332485
2614,Topeka Drive,59044,45.6799265,-108.7334405
2612,Topeka Drive,59044,45.6798750,-108.7336155
2611,Lackawanna Lane,59044,45.6795770,-108.7331550
2613,Lackawanna Lane,59044,45.6796355,-108.7329500
2615,Lackawanna Lane,59044,45.6796755,-108.7327630
2617,Lackawanna Lane,59044,45.6797280,-108.7325775
2609,Lackawanna Lane,59044,45.6795455,-108.7333124
2607,Lackawanna Lane,59044,45.6795025,-108.7334990
2605,Lackawanna Lane,59044,45.6794720,-108.7336935
2603,Lackawanna Lane,59044,45.6794305,-108.7339085
2606,Topeka Drive,59044,45.6797345,-108.7341215
2608,Topeka Drive,59044,45.6797930,-108.7339725
2610,Topeka Drive,59044,45.6798305,-108.7337760
2601,Lackawanna Lane,59044,45.6793815,-108.7340690
2511,Lackawanna Lane,59044,45.6793335,-108.7342500
2602,Lackawanna Lane,59044,45.6789530,-108.7338385
2510,Lackawanna Lane,59044,45.6788960,-108.7340630
2508,Lackawanna Lane,59044,45.6788460,-108.7342835
2506,Lackawanna Lane,59044,45.6787895,-108.7345030
2504,Lackawanna Lane,59044,45.6787325,-108.7347245
2502,Lackawanna Lane,59044,45.6786740,-108.7349395
2414,Lackawanna Lane,59044,45.6786240,-108.7351640
2412,Lackawanna Lane,59044,45.6785800,-108.7353820
2410,Lackawanna Lane,59044,45.6785050,-108.7355910
2408,Lackawanna Lane,59044,45.6784590,-108.7357165
2406,East Maryland Lane,59044,45.6787188,-108.7366655
2408,East Maryland Lane,59044,45.6786270,-108.7366085
2411,East Maryland Lane,59044,45.6788855,-108.7361665
2402,Topeka Drive,59044,45.6790980,-108.7363825
2404,Topeka Drive,59044,45.6791350,-108.7362245
2406,Topeka Drive,59044,45.6792140,-108.7360450
2408,Topeka Drive,59044,45.6793150,-108.7358570
2409,Lackawanna Lane,59044,45.6789670,-108.7357045
2502,Topeka Drive,59044,45.6793395,-108.7356450
2413,Lackawanna Lane,59044,45.6790640,-108.7353515
2501,Lackawanna Lane,59044,45.6790935,-108.7351610
2504,Topeka Drive,59044,45.6793915,-108.7354545
2508,Topeka Drive,59044,45.6795005,-108.7350695
2506,Topeka Drive,59044,45.6794655,-108.7352675
2507,Lackawanna Lane,59044,45.6792270,-108.7346100
2509,Lackawanna Lane,59044,45.6792860,-108.7344440
2505,Lackawanna Lane,59044,45.6791835,-108.7348940
2510,Topeka Drive,59044,45.6795360,-108.7349125
2604,Topeka Drive,59044,45.6796690,-108.7343455
2602,Topeka Drive,59044,45.6796170,-108.7345285
2512,Topeka Drive,59044,45.6795896,-108.7347195
2402,East Maryland Lane,59044,45.6789690,-108.7369405
2312,East Maryland Lane,59044,45.6790825,-108.7370435
2310,East Maryland Lane,59044,45.6791890,-108.7371480
2308,East Maryland Lane,59044,45.6793030,-108.7373020
2306,East Maryland Lane,59044,45.6793790,-108.7374435
2304,East Maryland Lane,59044,45.6794495,-108.7376085
2302,East Maryland Lane,59044,45.6795545,-108.7376975
2212,East Maryland Lane,59044,45.6794865,-108.7379685
2210,East Maryland Lane,59044,45.6795065,-108.7381725
2208,East Maryland Lane,59044,45.6795105,-108.7383975
2206,East Maryland Lane,59044,45.6795105,-108.7386405
2204,East Maryland Lane,59044,45.6795085,-108.7388350
2202,East Maryland Lane,59044,45.6794960,-108.7390175
2401,East Maryland Lane,59044,45.6795290,-108.7367025
1003,Penn Circle,59044,45.6797775,-108.7356420
1005,Penn Circle,59044,45.6798750,-108.7358165
1007,Penn Circle,59044,45.6800405,-108.7357000
1004,Reading Circle,59044,45.6798920,-108.7351040
1008,Reading Circle,59044,45.6800850,-108.7353035
1010,Reading Circle,59044,45.6803495,-108.7351875
1012,Reading Circle,59044,45.6804310,-108.7350155
1009,Reading Circle,59044,45.6804475,-108.7347355
1007,Reading Circle,59044,45.6803410,-108.7344785
1005,Reading Circle,59044,45.6802130,-108.7344150
1003,Reading Circle,59044,45.6801050,-108.7343675
2611,Topeka Drive,59044,45.6803715,-108.7341405
1011,Penn Circle,59044,45.6803515,-108.7361370
1009,Penn Circle,59044,45.6802555,-108.7358370
1015,Penn Circle,59044,45.6803075,-108.7365620
1012,Penn Circle,59044,45.6799705,-108.7367780
1014,Penn Circle,59044,45.6801960,-108.7368645
2317,East Maryland Lane,59044,45.6798430,-108.7370015
2315,East Maryland Lane,59044,45.6798825,-108.7371865
2313,East Maryland Lane,59044,45.6799550,-108.7373540
2311,East Maryland Lane,59044,45.6801795,-108.7374580
2309,East Maryland Lane,59044,45.6800180,-108.7377085
2307,East Maryland Lane,59044,45.6799895,-108.7379085
2305,East Maryland Lane,59044,45.6800035,-108.7381780
2303,East Maryland Lane,59044,45.6800070,-108.7383105
2213,East Maryland Lane,59044,45.6800135,-108.7385050
2211,East Maryland Lane,59044,45.6799810,-108.7386860
2106,Atchison Drive,59044,45.6799125,-108.7391285
2108,Atchison Drive,59044,45.6800930,-108.7390650
2202,Atchison Drive,59044,45.6802130,-108.7389080
2206,Atchison Drive,59044,45.6803740,-108.7385830
2208,Atchison Drive,59044,45.6803980,-108.7383870
2302,Atchison Drive,59044,45.6804810,-108.7380150
2304,Atchison Drive,59044,45.6805005,-108.7378645
2306,Atchison Drive,59044,45.6805261,-108.7376955
2308,Atchison Drive,59044,45.6805395,-108.7374835
2310,Atchison Drive,59044,45.6805435,-108.7372990
2312,Atchison Drive,59044,45.6805455,-108.7371235
2404,Atchison Drive,59044,45.6806000,-108.7367255
2402,Atchison Drive,59044,45.6805420,-108.7369170
2406,Atchison Drive,59044,45.6805990,-108.7365335
2408,Atchison Drive,59044,45.6806155,-108.7363255
2410,Atchison Drive,59044,45.6806350,-108.7361405
2412,Atchison Drive,59044,45.6806520,-108.7359505
2502,Atchison Drive,59044,45.6806675,-108.7357570
2504,Atchison Drive,59044,45.6808110,-108.7354955
2506,Atchison Drive,59044,45.6806720,-108.7353685
2508,Atchison Drive,59044,45.6806915,-108.7351660
2510,Atchison Drive,59044,45.6807120,-108.7349750
2512,Atchison Drive,59044,45.6807305,-108.7347835
2602,Atchison Drive,59044,45.6807440,-108.7345945
2604,Atchison Drive,59044,45.6807440,-108.7343850
2606,Atchison Drive,59044,45.6807635,-108.7341965
2615,Topeka Drive,59044,45.6803660,-108.7336930
2617,Topeka Drive,59044,45.6804205,-108.7335185
2619,Topeka Drive,59044,45.6804415,-108.7333255
2621,Topeka Drive,59044,45.6804385,-108.7331665
2706,Atchison Drive,59044,45.6805040,-108.7327320
2704,Atchison Drive,59044,45.6805975,-108.7329210
2702,Atchison Drive,59044,45.6807220,-108.7330520
2616,Atchison Drive,59044,45.6807705,-108.7332025
2610,Atchison Drive,59044,45.6807945,-108.7338075
2608,Atchison Drive,59044,45.6807930,-108.7340050
2612,Atchison Drive,59044,45.6808075,-108.7336100
2614,Atchison Drive,59044,45.6807940,-108.7333835
2709,Atchison Drive,59044,45.6806375,-108.7321390
2707,Atchison Drive,59044,45.6807550,-108.7322295
2705,Atchison Drive,59044,45.6808865,-108.7323485
1106,Locomotive Circle,59044,45.6809965,-108.7319130
1108,Locomotive Circle,59044,45.6811755,-108.7319285
1112,Locomotive Circle,59044,45.6814500,-108.7317740
1110,Locomotive Circle,59044,45.6813585,-108.7319815
1113,Locomotive Circle,59044,45.6814685,-108.7314935
1111,Locomotive Circle,59044,45.6814580,-108.7312165
1109,Locomotive Circle,59044,45.6813040,-108.7311190
1105,Locomotive Circle,59044,45.6810925,-108.7310255
1103,Locomotive Circle,59044,45.6808855,-108.7310620
1100,Milwaukee Road,59044,45.6809970,-108.7306865
1102,Milwaukee Road,59044,45.6811540,-108.7306575
1104,Milwaukee Road,59044,45.6813095,-108.7306780
1106,Milwaukee Road,59044,45.6814595,-108.7306715
1109,Milwaukee Road,59044,45.6815335,-108.7299970
1107,Milwaukee Road,59044,45.6813955,-108.7300225
1105,Milwaukee Road,59044,45.6812545,-108.7300160
1103,Milwaukee Road,59044,45.6811205,-108.7300210
1101,Milwaukee Road,59044,45.6809865,-108.7300360
1099,Milwaukee Road,59044,45.6808613,-108.7299960
2703,Atchison Drive,59044,45.6810860,-108.7324765
2701,Atchison Drive,59044,45.6811765,-108.7326230
2615,Atchison Drive,59044,45.6812660,-108.7330060
2613,Atchison Drive,59044,45.6812765,-108.7332495
2611,Atchison Drive,59044,45.6812870,-108.7334130
2609,Atchison Drive,59044,45.6812860,-108.7336835
2607,Atchison Drive,59044,45.6812520,-108.7339105
2603,Atchison Drive,59044,45.6812135,-108.7343270
2513,Atchison Drive,59044,45.6812160,-108.7345565
2605,Atchison Drive,59044,45.6812460,-108.7341270
2511,Atchison Drive,59044,45.6812035,-108.7347815
2509,Atchison Drive,59044,45.6811820,-108.7350450
2507,Atchison Drive,59044,45.6811600,-108.7351940
2505,Atchison Drive,59044,45.6811720,-108.7354265
2503,Atchison Drive,59044,45.6811415,-108.7356565
2413,Atchison Drive,59044,45.6811335,-108.7358520
2411,Atchison Drive,59044,45.6810955,-108.7360755
2409,Atchison Drive,59044,45.6811005,-108.7363025
2407,Atchison Drive,59044,45.6810725,-108.7365690
2405,Atchison Drive,59044,45.6810650,-108.7367005
2403,Atchison Drive,59044,45.6810525,-108.7369315
2313,Atchison Drive,59044,45.6810315,-108.7371320
2311,Atchison Drive,59044,45.6810105,-108.7373345
2309,Atchison Drive,59044,45.6810055,-108.7375595
2305,Atchison Drive,59044,45.6809440,-108.7380390
2307,Atchison Drive,59044,45.6809910,-108.7378320
2303,Atchison Drive,59044,45.6809170,-108.7382115
2209,Atchison Drive,59044,45.6808215,-108.7386125
2207,Atchison Drive,59044,45.6807595,-108.7388065
2203,Atchison Drive,59044,45.6806115,-108.7392750
2117,Atchison Drive,59044,45.6806200,-108.7394355
2115,Atchison Drive,59044,45.6805365,-108.7397235
2111,Atchison Drive,59044,45.6802890,-108.7400190
2109,Atchison Drive,59044,45.6801425,-108.7397540
2107,Atchison Drive,59044,45.6799375,-108.7398330
2105,East Maryland Lane,59044,45.6799980,-108.7400950
2110,East Maryland Lane,59044,45.6795265,-108.7392480
2108,East Maryland Lane,59044,45.6795320,-108.7394800
2106,East Maryland Lane,59044,45.6795220,-108.7397160
2104,East Maryland Lane,59044,45.6795320,-108.7399535
2102,East Maryland Lane,59044,45.6795075,-108.7402345
801,East Main Street,59044,45.6719173,-108.7609550
2113,Atchison Drive,59044,45.6804652,-108.7399498
2205,Atchison Drive,59044,45.6806440,-108.7389753
2210,Atchison Drive,59044,45.6805769,-108.7382383
1008,Penn Circle,59044,45.6797273,-108.7363858
2613,Topeka Drive,59044,45.6803428,-108.7339314
2404,East Maryland Lane,59044,45.6788565,-108.7368542
2604,Lackawanna Lane,59044,45.6790051,-108.7336290
2616,Lackawanna Lane,59044,45.6792817,-108.7325144
2703,Lackawanna Lane,59044,45.6799539,-108.7316563
1102,Locomotive Circle,59044,45.6807685,-108.7316905
1108,Milwaukee Road,59044,45.6815874,-108.7307281
2617,Atchison Drive,59044,45.6811946,-108.7328366
2411,Lackawanna Lane,59044,45.6790279,-108.7355553
1006,Penn Circle,59044,45.6795810,-108.7363584
708,Mulberry Avenue,59044,45.6759886,-108.7481809
706,Mulberry Avenue,59044,45.6758459,-108.7481825
702,Mulberry Avenue,59044,45.6757260,-108.7482801
1612,East 8th Street,59044,45.6763917,-108.7481948
719,Locust Avenue,59044,45.6762555,-108.7490371
715,Locust Avenue,59044,45.6761190,-108.7490194
711,Locust Avenue,59044,45.6759809,-108.7490372
707,Locust Avenue,59044,45.6758442,-108.7490144
703,Locust Avenue,59044,45.6757104,-108.7490365
1515,East Main Street,59044,45.6747082,-108.7499200
616,Locust Avenue,59044,45.6748865,-108.7496839
618,Locust Avenue,59044,45.6750250,-108.7496640
622,Locust Avenue,59044,45.6751618,-108.7496394
628,Locust Avenue,59044,45.6753606,-108.7496576
702,Locust Avenue,59044,45.6757120,-108.7496877
706,Locust Avenue,59044,45.6758513,-108.7496714
710,Locust Avenue,59044,45.6759885,-108.7497204
714,Locust Avenue,59044,45.6761152,-108.7496564
718,Locust Avenue,59044,45.6762622,-108.7496761
722,Locust Avenue,59044,45.6763852,-108.7496862
523,Juniper Avenue,59044,45.6744963,-108.7503380
519,Juniper Avenue,59044,45.6743791,-108.7504413
605,Juniper Avenue,59044,45.6747908,-108.7504441
615,Juniper Avenue,59044,45.6749686,-108.7503677
619,Juniper Avenue,59044,45.6753513,-108.7504616
703,Juniper Avenue,59044,45.6757130,-108.7504821
707,Juniper Avenue,59044,45.6758411,-108.7504378
711,Juniper Avenue,59044,45.6759787,-108.7504768
715,Juniper Avenue,59044,45.6761155,-108.7504621
719,Juniper Avenue,59044,45.6762639,-108.7504812
723,Juniper Avenue,59044,45.6763889,-108.7504459
618,Juniper Avenue,59044,45.6752711,-108.7511668
614,Juniper Avenue,59044,45.6750695,-108.7513699
1415,East 6th Street,59044,45.6746353,-108.7514829
608,Juniper Avenue,59044,45.6747863,-108.7511875
602,Juniper Avenue,59044,45.6746517,-108.7510927
603,Hazel Avenue,59044,45.6746704,-108.7518858
607,Hazel Avenue,59044,45.6748653,-108.7518441
615,Hazel Avenue,59044,45.6750732,-108.7518580
619,Hazel Avenue,59044,45.6752771,-108.7519362
524,Juniper Avenue,59044,45.6742671,-108.7511373
524 1/2,Juniper Avenue,59044,45.6743398,-108.7514817
1412,East 6th Street,59044,45.6743185,-108.7516742
1404,East 6th Street,59044,45.6743073,-108.7519909
1403,East Main Street,59044,45.6741029,-108.7518528
503,Fir Avenue,59044,45.6736869,-108.7534554
1313,East Main Street,59044,45.6737562,-108.7531518
509 1/2,Fir Avenue,59044,45.6738663,-108.7531369
515,Fir Avenue,59044,45.6740357,-108.7534362
509,Fir Avenue,59044,45.6738929,-108.7534732
512,Hazel Avenue,59044,45.6739011,-108.7526292
518,Hazel Avenue,59044,45.6741912,-108.7526717
520,Hazel Avenue,59044,45.6743180,-108.7529217
519,Fir Avenue,59044,45.6741836,-108.7534646
1209,East 6th Street,59044,45.6746590,-108.7542137
502,Fir Avenue,59044,45.6735156,-108.7541157
504,Fir Avenue,59044,45.6736297,-108.7541863
510,Fir Avenue,59044,45.6739216,-108.7541711
506,Fir Avenue,59044,45.6737888,-108.7541245
518,Fir Avenue,59044,45.6740614,-108.7540916
520,Fir Avenue,59044,45.6741781,-108.7540921
524,Fir Avenue,59044,45.6743149,-108.7541154
701,Pine Avenue,59044,45.6757885,-108.7543783
704,Fir Avenue,59044,45.6758644,-108.7541128
706,Fir Avenue,59044,45.6759744,-108.7541123
703,Pine Avenue,59044,45.6760862,-108.7544028
708,Fir Avenue,59044,45.6760834,-108.7541174
710,Fir Avenue,59044,45.6761995,-108.7541157
712,Fir Avenue,59044,45.6762813,-108.7541192
714,Fir Avenue,59044,45.6763987,-108.7541221
705,Pine Avenue,59044,45.6763526,-108.7544022
704,Pine Avenue,59044,45.6763761,-108.7547093
715,Elm Avenue,59044,45.6763916,-108.7549198
713,Elm Avenue,59044,45.6762764,-108.7549282
711,Elm Avenue,59044,45.6761750,-108.7549646
709,Elm Avenue,59044,45.6760550,-108.7549594
707,Elm Avenue,59044,45.6759450,-108.7549614
705,Elm Avenue,59044,45.6758374,-108.7549639
703,Elm Avenue,59044,45.6757146,-108.7549652
702,Pine Avenue,59044,45.6757466,-108.7546932
1203,East 6th Street,59044,45.6747183,-108.7548999
617,Elm Avenue,59044,45.6752704,-108.7549442
623,Elm Avenue,59044,45.6753736,-108.7549300
501,Elm Avenue,59044,45.6735734,-108.7549166
505,Elm Avenue,59044,45.6737466,-108.7549403
505 1/2,Elm Avenue,59044,45.6738032,-108.7546439
509,Elm Avenue,59044,45.6739250,-108.7549470
513,Elm Avenue,59044,45.6740155,-108.7549016
519,Elm Avenue,59044,45.6741894,-108.7548909
523,Elm Avenue,59044,45.6743332,-108.7549478
424,Elm Avenue,59044,45.6732568,-108.7556062
502,Elm Avenue,59044,45.6736436,-108.7556094
510,Elm Avenue,59044,45.6739209,-108.7556111
518,Elm Avenue,59044,45.6741978,-108.7556177
524,Elm Avenue,59044,45.6743108,-108.7556158
503,Date Avenue,59044,45.6736363,-108.7563933
505,Date Avenue,59044,45.6737909,-108.7564291
513,Date Avenue,59044,45.6740234,-108.7564237
523,Date Avenue,59044,45.6743358,-108.7564244
608,Elm Avenue,59044,45.6748424,-108.7556404
610,Elm Avenue,59044,45.6749635,-108.7555995
618,Elm Avenue,59044,45.6751904,-108.7556215
622,Elm Avenue,59044,45.6753692,-108.7556011
623,Date Avenue,59044,45.6753592,-108.7564335
615,Date Avenue,59044,45.6751201,-108.7564549
611,Date Avenue,59044,45.6749491,-108.7564777
605,Date Avenue,59044,45.6748216,-108.7564555
1105,East 6th Street,59044,45.6746799,-108.7564513
413,Date Avenue,59044,45.6729559,-108.7564253
417,Date Avenue,59044,45.6730822,-108.7564297
413 1/2,Date Avenue,59044,45.6729718,-108.7561347
421,Date Avenue,59044,45.6732480,-108.7564304
602,Date Avenue,59044,45.6746552,-108.7571047
608,Date Avenue,59044,45.6748028,-108.7570564
610,Date Avenue,59044,45.6749536,-108.7570966
614,Date Avenue,59044,45.6750841,-108.7570666
618,Date Avenue,59044,45.6752170,-108.7570592
622,Date Avenue,59044,45.6753555,-108.7571045
502,Date Avenue,59044,45.6736437,-108.7570932
506,Date Avenue,59044,45.6737885,-108.7571109
510,Date Avenue,59044,45.6739268,-108.7570815
514,Date Avenue,59044,45.6740375,-108.7571444
518,Date Avenue,59044,45.6742008,-108.7570987
520,Date Avenue,59044,45.6743118,-108.7571095
416 1/2,Date Avenue,59044,45.6730428,-108.7573352
416,Date Avenue,59044,45.6730213,-108.7571664
418,Date Avenue,59044,45.6731377,-108.7571541
1020,East 5th Street,59044,45.6732746,-108.7571668
410,Date Avenue,59044,45.6728606,-108.7571023
406,Date Avenue,59044,45.6727397,-108.7570969
1009,East Main Street,59044,45.6726566,-108.7576770
401,Cottonwood Avenue,59044,45.6725830,-108.7579797
411,Cottonwood Avenue,59044,45.6728297,-108.7578386
415,Cottonwood Avenue,59044,45.6730034,-108.7578609
417,Cottonwood Avenue,59044,45.6731512,-108.7579303
421,Cottonwood Avenue,59044,45.6732709,-108.7579039
501,Cottonwood Avenue,59044,45.6736608,-108.7578644
509,Cottonwood Avenue,59044,45.6738623,-108.7576801
511,Cottonwood Avenue,59044,45.6739979,-108.7579498
515,Cottonwood Avenue,59044,45.6741398,-108.7579583
1008,East 6th Street,59044,45.6742978,-108.7576179
519,Cottonwood Avenue,59044,45.6743185,-108.7579296
1114,Sunhaven Drive,59044,45.6757280,-108.7555452
1112,Sunhaven Drive,59044,45.6757380,-108.7557138
1110,Sunhaven Drive,59044,45.6757351,-108.7558677
1115,Sunhaven Drive,59044,45.6761376,-108.7554986
1109,Sunhaven Drive,59044,45.6761183,-108.7557987
1108,Sunhaven Drive,59044,45.6757151,-108.7560342
1106,Sunhaven Drive,59044,45.6757478,-108.7561815
1102,Sunhaven Drive,59044,45.6757612,-108.7564037
1107,Sunhaven Drive,59044,45.6761185,-108.7559739
1105,Sunhaven Drive,59044,45.6761097,-108.7561375
1110,East 8th Street,59044,45.6763369,-108.7558788
1112,East 8th Street,59044,45.6763348,-108.7556829
1114,East 8th Street,59044,45.6763310,-108.7555381
1106,East 8th Street,59044,45.6763298,-108.7562305
1102,East 8th Street,59044,45.6763467,-108.7565871
1104,East 8th Street,59044,45.6763436,-108.7563942
1017,Sunhaven Drive,59044,45.6762868,-108.7567650
1101,Sunhaven Drive,59044,45.6761508,-108.7565024
1103,Sunhaven Drive,59044,45.6761178,-108.7563224
1018,Sunhaven Drive,59044,45.6757517,-108.7566671
1016,Sunhaven Drive,59044,45.6757686,-108.7568319
1014,Sunhaven Drive,59044,45.6757511,-108.7569984
1012,Sunhaven Drive,59044,45.6757628,-108.7571654
1010,Sunhaven Drive,59044,45.6757501,-108.7573465
1006,Sunhaven Drive,59044,45.6757639,-108.7576770
1008,Sunhaven Drive,59044,45.6757479,-108.7575409
1004,Sunhaven Drive,59044,45.6757769,-108.7578723
1002,Sunhaven Drive,59044,45.6757645,-108.7579956
1015,Sunhaven Drive,59044,45.6761324,-108.7569791
1014,East 8th Street,59044,45.6763392,-108.7570071
1012,East 8th Street,59044,45.6763705,-108.7571411
1011,Sunhaven Drive,59044,45.6761393,-108.7571782
1009,Sunhaven Drive,59044,45.6761118,-108.7573031
1007,Sunhaven Drive,59044,45.6761331,-108.7574864
1010,East 8th Street,59044,45.6763427,-108.7573441
1008,East 8th Street,59044,45.6763274,-108.7575413
1006,East 8th Street,59044,45.6763330,-108.7576816
1004,East 8th Street,59044,45.6763497,-108.7578522
1002,East 8th Street,59044,45.6763358,-108.7580076
1001,Sunhaven Drive,59044,45.6761329,-108.7579803
1003,Sunhaven Drive,59044,45.6761279,-108.7578281
907,Bristol Way,59044,45.6783903,-108.7554811
909,Bristol Way,59044,45.6785010,-108.7554815
911,Bristol Way,59044,45.6786147,-108.7554804
913,Bristol Way,59044,45.6787386,-108.7554801
915,Bristol Way,59044,45.6788367,-108.7554783
917,Bristol Way,59044,45.6789554,-108.7554755
1019,East 8th Street,59044,45.6767504,-108.7570803
802,Date Avenue,59044,45.6769402,-108.7571533
806,Date Avenue,59044,45.6771550,-108.7571582
808,Date Avenue,59044,45.6772751,-108.7571552
810,Date Avenue,59044,45.6773805,-108.7571580
812,Date Avenue,59044,45.6774773,-108.7571579
814,Date Avenue,59044,45.6775787,-108.7571672
816,Date Avenue,59044,45.6776792,-108.7571595
809,Cottonwood Avenue,59044,45.6770214,-108.7579184
811,Cottonwood Avenue,59044,45.6771750,-108.7579226
813,Cottonwood Avenue,59044,45.6773850,-108.7579474
821,Cottonwood Avenue,59044,45.6775813,-108.7578917
825,Cottonwood Avenue,59044,45.6778437,-108.7578594
902,Date Avenue,59044,45.6781876,-108.7571208
906,Date Avenue,59044,45.6783424,-108.7571448
901,Cottonwood Avenue,59044,45.6782031,-108.7579243
909,Cottonwood Avenue,59044,45.6784762,-108.7579950
910,Date Avenue,59044,45.6785328,-108.7570625
916,Date Avenue,59044,45.6787043,-108.7571512
917,Cottonwood Avenue,59044,45.6789577,-108.7579134
918,Date Avenue,59044,45.6789042,-108.7571152
921,East 4th Street,59044,45.6726996,-108.7586332
911,East 4th Street,59044,45.6726032,-108.7590425
409,Birch Avenue,59044,45.6727457,-108.7595326
907,East 4th Street,59044,45.6728288,-108.7591829
416,Cottonwood Avenue,59044,45.6731372,-108.7585539
419,Birch Avenue,59044,45.6731477,-108.7593910
413,Birch Avenue,59044,45.6730272,-108.7593760
423,Birch Avenue,59044,45.6733021,-108.7593797
501,Birch Avenue,59044,45.6736222,-108.7594032
505,Birch Avenue,59044,45.6737782,-108.7593853
504,Cottonwood Avenue,59044,45.6736424,-108.7586328
508,Cottonwood Avenue,59044,45.6739395,-108.7586139
509,Birch Avenue,59044,45.6739046,-108.7594122
515,Birch Avenue,59044,45.6740538,-108.7593914
517,Birch Avenue,59044,45.6742067,-108.7593845
521,Birch Avenue,59044,45.6743176,-108.7594186
520,Cottonwood Avenue,59044,45.6743321,-108.7585927
518,Cottonwood Avenue,59044,45.6741969,-108.7586008
514,Cottonwood Avenue,59044,45.6740585,-108.7585867
917,East 6th Street,59044,45.6746895,-108.7586306
604,Cottonwood Avenue,59044,45.6748393,-108.7586371
610,Cottonwood Avenue,59044,45.6749706,-108.7585990
616,Cottonwood Avenue,59044,45.6751695,-108.7585920
601,Birch Avenue,59044,45.6746935,-108.7593957
605,Birch Avenue,59044,45.6748168,-108.7594228
609,Birch Avenue,59044,45.6749658,-108.7594589
611,Birch Avenue,59044,45.6751047,-108.7594392
619,Birch Avenue,59044,45.6752283,-108.7594047
623,Birch Avenue,59044,45.6753812,-108.7594614
624 1/2,Cottonwood Avenue,59044,45.6753945,-108.7589247
624,Cottonwood Avenue,59044,45.6753561,-108.7585976
523,Alder Avenue,59044,45.6743478,-108.7607479
517,Alder Avenue,59044,45.6740958,-108.7608752
520,Birch Avenue,59044,45.6743413,-108.7600799
516,Birch Avenue,59044,45.6742025,-108.7600784
514,Birch Avenue,59044,45.6740675,-108.7600633
510,Birch Avenue,59044,45.6739200,-108.7600366
506,Birch Avenue,59044,45.6737935,-108.7600786
502,Birch Avenue,59044,45.6736345,-108.7600722
501,Alder Avenue,59044,45.6736605,-108.7608866
509,Alder Avenue,59044,45.6738922,-108.7608753
815,East Main Street,59044,45.6720992,-108.7605336
819,East 4th Street,59044,45.6726685,-108.7599906
817,East 4th Street,59044,45.6726735,-108.7601822
813,East 4th Street,59044,45.6726639,-108.7603760
805,East 4th Street,59044,45.6726580,-108.7607533
801,East 4th Street,59044,45.6726714,-108.7609465
413,Alder Avenue,59044,45.6730055,-108.7609067
417,Alder Avenue,59044,45.6731282,-108.7608905
423,Alder Avenue,59044,45.6733017,-108.7609082
424 1/2,Birch Avenue,59044,45.6732712,-108.7604016
412,Birch Avenue,59044,45.6729858,-108.7600426
418,Birch Avenue,59044,45.6731205,-108.7600418
424,Birch Avenue,59044,45.6732973,-108.7600779
800,East Main Street,59044,45.6720092,-108.7615028
16,Ohio Avenue,59044,45.6722060,-108.7622069
20,Ohio Avenue,59044,45.6723847,-108.7623533
15,Idaho Avenue,59044,45.6720924,-108.7630377
11,Idaho Avenue,59044,45.6719567,-108.7629587
709,East Main Street,59044,45.6717719,-108.7625855
701,East Main Street,59044,45.6716407,-108.7628316
711,East Main Street,59044,45.6717547,-108.7623433
711,East Main Street,59044,45.6719790,-108.7622105
711,East Main Street,59044,45.6718972,-108.7619250
714,East 5th Street,59044,45.6732052,-108.7617767
717,East 5th Street,59044,45.6736821,-108.7615420
506,Alder Avenue,59044,45.6738155,-108.7614687
713,East 5th Street,59044,45.6736880,-108.7617918
709,East 5th Street,59044,45.6736610,-108.7620588
705,East 5th Street,59044,45.6736915,-108.7622401
510,Alder Avenue,59044,45.6740441,-108.7614851
514,Alder Avenue,59044,45.6741998,-108.7617219
520,Alder Avenue,59044,45.6743397,-108.7616781
515,Idaho Avenue,59044,45.6741231,-108.7622252
411,Idaho Avenue,59044,45.6728592,-108.7624497
413,Idaho Avenue,59044,45.6730094,-108.7623395
415,Idaho Avenue,59044,45.6731687,-108.7622621
517,Idaho Avenue,59044,45.6742794,-108.7623844
707,East 6th Street,59044,45.6747475,-108.7620493
711,East 6th Street,59044,45.6747201,-108.7618515
715,East 6th Street,59044,45.6747115,-108.7616052
719,East 6th Street,59044,45.6747637,-108.7614300
610,Alder Avenue,59044,45.6751112,-108.7615382
614,Alder Avenue,59044,45.6752758,-108.7615276
619,Idaho Avenue,59044,45.6753066,-108.7623423
725,Washington Avenue,59044,45.6765951,-108.7626745
619,Washington Avenue,59044,45.6752393,-108.7638129
611,Washington Avenue,59044,45.6750458,-108.7638386
605,Washington Avenue,59044,45.6749113,-108.7639077
601,East 6th Street,59044,45.6747266,-108.7639041
607,East 6th Street,59044,45.6747017,-108.7634953
605,East 6th Street,59044,45.6747220,-108.7637357
615,East 6th Street,59044,45.6746964,-108.7631738
619,East 6th Street,59044,45.6746951,-108.7629379
708,East Maryland Lane,59044,45.6785736,-108.7621898
917,Washington Avenue,59044,45.6786709,-108.7633670
619,East 5th Street,59044,45.6736940,-108.7629414
615,East 5th Street,59044,45.6736973,-108.7631577
605,East 5th Street,59044,45.6736867,-108.7636986
601,East 5th Street,59044,45.6737256,-108.7638773
611,East 5th Street,59044,45.6737002,-108.7633459
512,Idaho Avenue,59044,45.6740672,-108.7629758
514,Idaho Avenue,59044,45.6742147,-108.7630582
518,Idaho Avenue,59044,45.6743325,-108.7630076
511,Washington Avenue,59044,45.6740359,-108.7638788
515,Washington Avenue,59044,45.6742096,-108.7638769
519,Washington Avenue,59044,45.6743463,-108.7638698
619,East 1st Street,59044,45.6726410,-108.7628907
613,East 4th Street,59044,45.6726500,-108.7632275
605,East 4th Street,59044,45.6726485,-108.7636891
601,East 4th Street,59044,45.6726706,-108.7638941
416,Idaho Avenue,59044,45.6730086,-108.7629984
418,Idaho Avenue,59044,45.6731508,-108.7630324
420,Idaho Avenue,59044,45.6732747,-108.7630366
610,East 5th Street,59044,45.6732543,-108.7635382
411,Washington Avenue,59044,45.6729946,-108.7638539
20,Idaho Avenue,59044,45.6720740,-108.7637257
12,Idaho Avenue,59044,45.6717228,-108.7638514
613,East Main Street,59044,45.6713144,-108.7637357
13,Washington Avenue,59044,45.6716379,-108.7642684
15,Washington Avenue,59044,45.6717422,-108.7644127
17,Washington Avenue,59044,45.6718603,-108.7645174
507,East 1st Street,59044,45.6721541,-108.7650048
501,East 1st Street,59044,45.6720417,-108.7654417
505,East 1st Street,59044,45.6721339,-108.7652445
319,Wyoming Avenue,59044,45.6722582,-108.7653970
519,East 4th Street,59044,45.6726644,-108.7644481
515,East 4th Street,59044,45.6726538,-108.7646621
509,East 4th Street,59044,45.6726654,-108.7650376
501,East 4th Street,59044,45.6726704,-108.7653928
507,East 4th Street,59044,45.6726637,-108.7652028
413,Wyoming Avenue,59044,45.6730197,-108.7653054
415,Wyoming Avenue,59044,45.6731371,-108.7652907
419,Wyoming Avenue,59044,45.6732897,-108.7652869
420,Washington Avenue,59044,45.6732648,-108.7645070
412,Washington Avenue,59044,45.6730085,-108.7646357
519,East 5th Street,59044,45.6736968,-108.7644333
515 1/2,East 5th Street,59044,45.6738476,-108.7646216
515,East 5th Street,59044,45.6737035,-108.7646984
507,East 5th Street,59044,45.6736748,-108.7649476
501,East 5th Street,59044,45.6737108,-108.7653962
505,East 5th Street,59044,45.6737105,-108.7651772
511,Wyoming Avenue,59044,45.6740239,-108.7653447
513,Wyoming Avenue,59044,45.6741184,-108.7653356
515,Wyoming Avenue,59044,45.6742014,-108.7653397
517,Wyoming Avenue,59044,45.6742845,-108.7653540
519,Wyoming Avenue,59044,45.6743661,-108.7653287
520,Washington Avenue,59044,45.6743599,-108.7645026
516,Washington Avenue,59044,45.6742114,-108.7645217
519,East 6th Street,59044,45.6747366,-108.7644511
515,East 6th Street,59044,45.6747864,-108.7646683
511,East 6th Street,59044,45.6747339,-108.7649143
509,East 6th Street,59044,45.6746680,-108.7651355
509 1/2,East 6th Street,59044,45.6747530,-108.7651342
507,East 6th Street,59044,45.6748384,-108.7651316
507 1/2,East 6th Street,59044,45.6749231,-108.7651312
501,East 6th Street,59044,45.6747849,-108.7653781
610,Washington Avenue,59044,45.6751005,-108.7645468
612,Washington Avenue,59044,45.6752153,-108.7645602
620,Washington Avenue,59044,45.6753644,-108.7645305
611,Wyoming Avenue,59044,45.6750811,-108.7653066
613,Wyoming Avenue,59044,45.6752415,-108.7653047
504,East 7th Street,59044,45.6753413,-108.7652667
519,East 7th Street,59044,45.6757088,-108.7645367
708,Washington Avenue,59044,45.6758610,-108.7645468
706,Washington Avenue,59044,45.6760167,-108.7645311
503,East 7th Street,59044,45.6756978,-108.7652790
705,Wyoming Avenue,59044,45.6758590,-108.7653193
711,Wyoming Avenue,59044,45.6760225,-108.7652940
718,Washington Avenue,59044,45.6763478,-108.7645301
714,Washington Avenue,59044,45.6762071,-108.7645356
715,Wyoming Avenue,59044,45.6761812,-108.7652915
719,Wyoming Avenue,59044,45.6763454,-108.7653095
721,Wyoming Avenue,59044,45.6765087,-108.7652918
722,Washington Avenue,59044,45.6765128,-108.7645176
728,Washington Avenue,59044,45.6766844,-108.7645380
729,Wyoming Avenue,59044,45.6768437,-108.7653150
725,Wyoming Avenue,59044,45.6766832,-108.7652832
16,Washington Avenue,59044,45.6716239,-108.7650431
20,Washington Avenue,59044,45.6717468,-108.7651253
512,East 1st Street,59044,45.6716974,-108.7653357
14,Washington Avenue,59044,45.6715145,-108.7649850
11,Wyoming Avenue,59044,45.6712632,-108.7657910
15,Wyoming Avenue,59044,45.6713951,-108.7658359
19,Wyoming Avenue,59044,45.6715334,-108.7659139
501,East Main Street,59044,45.6710020,-108.7656062
411,East 1st Street,59044,45.6718597,-108.7662783
412,East 4th Street,59044,45.6722203,-108.7663328
320,Wyoming Avenue,59044,45.6722379,-108.7660370
314,Wyoming Avenue,59044,45.6721010,-108.7659857
308,Wyoming Avenue,59044,45.6719366,-108.7659868
401,East 1st Street,59044,45.6717909,-108.7668387
403,East 1st Street,59044,45.6717488,-108.7666942
409,East 1st Street,59044,45.6718384,-108.7664615
313,Pennsylvania Avenue,59044,45.6720575,-108.7667955
319,Pennsylvania Avenue,59044,45.6722431,-108.7667852
20,Wyoming Avenue,59044,45.6713812,-108.7665390
16,Wyoming Avenue,59044,45.6712778,-108.7664189
12,Wyoming Avenue,59044,45.6711413,-108.7664616
12 1/2,Wyoming Avenue,59044,45.6710257,-108.7667004
15,Pennsylvania Avenue,59044,45.6711223,-108.7669968
13,Pennsylvania Avenue,59044,45.6709725,-108.7672418
315,East 3rd Street,59044,45.6717534,-108.7676364
318,East 4th Street,59044,45.6722038,-108.7675343
419,East 4th Street,59044,45.6726618,-108.7659188
413,East 4th Street,59044,45.6726560,-108.7661482
411,East 4th Street,59044,45.6726608,-108.7663793
405,East 4th Street,59044,45.6726680,-108.7666402
401,East 4th Street,59044,45.6726741,-108.7668713
414,Wyoming Avenue,59044,45.6731028,-108.7659560
418,East 5th Street,59044,45.6732576,-108.7660649
408,East 5th Street,59044,45.6732675,-108.7665470
419,Pennsylvania Avenue,59044,45.6732814,-108.7668000
415,East 5th Street,59044,45.6736892,-108.7660834
411,East 5th Street,59044,45.6737091,-108.7662902
407,East 5th Street,59044,45.6737224,-108.7666074
403,East 5th Street,59044,45.6736921,-108.7668403
409,East 5th Street,59044,45.6737145,-108.7664594
512,Wyoming Avenue,59044,45.6740658,-108.7659948
520,Wyoming Avenue,59044,45.6742574,-108.7659547
412,East 6th Street,59044,45.6743278,-108.7661870
511,Pennsylvania Avenue,59044,45.6740880,-108.7667771
519,Pennsylvania Avenue,59044,45.6743472,-108.7668733
402,East 6th Street,59044,45.6743520,-108.7667224
516,Pennsylvania Avenue,59044,45.6741858,-108.7674799
520,Pennsylvania Avenue,59044,45.6743239,-108.7674363
312,East 6th Street,59044,45.6743366,-108.7676967
512 1/2,Pennsylvania Avenue,59044,45.6740690,-108.7677738
512,Pennsylvania Avenue,59044,45.6740312,-108.7674631
511,Colorado Avenue,59044,45.6740346,-108.7683069
515,Colorado Avenue,59044,45.6741734,-108.7682981
517,Colorado Avenue,59044,45.6742829,-108.7682815
302,East 6th Street,59044,45.6743599,-108.7683095
301,East 5th Street,59044,45.6736964,-108.7683580
309,East 5th Street,59044,45.6737095,-108.7679091
305,East 5th Street,59044,45.6737028,-108.7681084
313,East 5th Street,59044,45.6737479,-108.7677191
319,East 5th Street,59044,45.6737168,-108.7674396
420,Pennsylvania Avenue,59044,45.6732972,-108.7674628
414,Pennsylvania Avenue,59044,45.6731546,-108.7674507
415,Colorado Avenue,59044,45.6731422,-108.7682767
419,Colorado Avenue,59044,45.6732839,-108.7683241
411,Colorado Avenue,59044,45.6730086,-108.7683132
412,Pennsylvania Avenue,59044,45.6730178,-108.7674932
417,East 6th Street,59044,45.6751218,-108.7663984
601,1st Avenue,59044,45.6753608,-108.7711729
203,East 8th Street,59044,45.6773055,-108.7700690
300,East Maryland Lane,59044,45.6788874,-108.7682531
911,1st Avenue,59044,45.6781041,-108.7712522
929,1st Avenue,59044,45.6787426,-108.7712677
106,East Maryland Lane,59044,45.6789476,-108.7712184
110,East Maryland Lane,59044,45.6789285,-108.7709166
112,East Maryland Lane,59044,45.6789349,-108.7706356
118,East Maryland Lane,59044,45.6789477,-108.7703896
120,East Maryland Lane,59044,45.6789513,-108.7699192
206,East Maryland Lane,59044,45.6789455,-108.7696417
208,East Maryland Lane,59044,45.6789494,-108.7694231
210,East Maryland Lane,59044,45.6789316,-108.7691605
520,Colorado Avenue,59044,45.6743453,-108.7689951
516,Colorado Avenue,59044,45.6742157,-108.7689642
514,Colorado Avenue,59044,45.6740985,-108.7689419
519 1/2,Montana Avenue,59044,45.6742895,-108.7694646
519,Montana Avenue,59044,45.6743149,-108.7697455
513,Montana Avenue,59044,45.6740819,-108.7697396
201,East 5th Street,59044,45.6736832,-108.7698264
205,East 5th Street,59044,45.6737103,-108.7696141
209,East 5th Street,59044,45.6738564,-108.7693170
215,East 5th Street,59044,45.6737528,-108.7691406
219,East 5th Street,59044,45.6737312,-108.7688840
305,East 4th Street,59044,45.6726768,-108.7682056
301,East 4th Street,59044,45.6726544,-108.7683795
307,East 4th Street,59044,45.6726855,-108.7679660
311,East 4th Street,59044,45.6726385,-108.7676813
410,Pennsylvania Avenue,59044,45.6728303,-108.7674879
315,East 4th Street,59044,45.6726228,-108.7674262
301,East 3rd Street,59044,45.6715901,-108.7682939
311,Colorado Avenue,59044,45.6718804,-108.7683287
313,Colorado Avenue,59044,45.6720371,-108.7683131
306,East 4th Street,59044,45.6722215,-108.7682621
309,East 3rd Street,59044,45.6715819,-108.7680008
304,Colorado Avenue,59044,45.6715858,-108.7689440
215,East 3rd Street,59044,45.6715756,-108.7692292
308,Colorado Avenue,59044,45.6718291,-108.7689282
312,Colorado Avenue,59044,45.6719803,-108.7689654
316,Colorado Avenue,59044,45.6720928,-108.7689413
320,Colorado Avenue,59044,45.6722483,-108.7690006
319,Montana Avenue,59044,45.6722477,-108.7697904
313,Montana Avenue,59044,45.6720899,-108.7697700
311,Montana Avenue,59044,45.6719241,-108.7698013
303,Montana Avenue,59044,45.6717581,-108.7697675
301,Montana Avenue,59044,45.6715801,-108.7698290
410,Colorado Avenue,59044,45.6729530,-108.7691141
12,Pennsylvania Avenue,59044,45.6708428,-108.7679816
310,East 1st Street,59044,45.6709972,-108.7681574
20,Pennsylvania Avenue,59044,45.6710317,-108.7679131
317,East Main Street,59044,45.6705405,-108.7676224
309,East Main Street,59044,45.6704046,-108.7679280
121,East 1st Street,59044,45.6710686,-108.7705968
304,Montana Avenue,59044,45.6716172,-108.7704970
306,Montana Avenue,59044,45.6717416,-108.7704606
312,Montana Avenue,59044,45.6719561,-108.7704986
320,Montana Avenue,59044,45.6722475,-108.7704736
314,Montana Avenue,59044,45.6720901,-108.7704630
319,1st Avenue,59044,45.6722312,-108.7712320
313,1st Avenue,59044,45.6720430,-108.7712797
309,1st Avenue,59044,45.6718911,-108.7712691
301,1st Avenue,59044,45.6716090,-108.7712437
20,Colorado Avenue,59044,45.6706853,-108.7693470
212,East 1st Street,59044,45.6706090,-108.7696185
15,Montana Avenue,59044,45.6703744,-108.7698688
11,Montana Avenue,59044,45.6702064,-108.7700239
19,Montana Avenue,59044,45.6705214,-108.7701158
209,East Main Street,59044,45.6699497,-108.7694637
9,Montana Avenue,59044,45.6700706,-108.7700119
119,East 4th Street,59044,45.6726734,-108.7703849
113,East 4th Street,59044,45.6726714,-108.7707016
109,East 4th Street,59044,45.6726805,-108.7708454
105,East 4th Street,59044,45.6726734,-108.7711227
101,East 4th Street,59044,45.6727029,-108.7713268
415,1st Avenue,59044,45.6730505,-108.7713078
417,1st Avenue,59044,45.6732040,-108.7712844
419,1st Avenue,59044,45.6733246,-108.7712693
110,East 5th Street,59044,45.6733012,-108.7707521
412,Montana Avenue,59044,45.6730438,-108.7704119
416,Montana Avenue,59044,45.6731808,-108.7704420
420,Montana Avenue,59044,45.6733063,-108.7704675
119,East 5th Street,59044,45.6737026,-108.7703801
115,East 5th Street,59044,45.6736912,-108.7706051
113,East 5th Street,59044,45.6736823,-108.7707932
107,East 5th Street,59044,45.6737434,-108.7710693
103,East 5th Street,59044,45.6736941,-108.7713006
507,1st Avenue,59044,45.6739015,-108.7713205
513,1st Avenue,59044,45.6740750,-108.7712655
102,East 6th Street,59044,45.6742967,-108.7712908
106,East 6th Street,59044,45.6742980,-108.7710573
112,East 6th Street,59044,45.6742714,-108.7707261
512,Montana Avenue,59044,45.6740363,-108.7705536
514,Montana Avenue,59044,45.6741233,-108.7704308
116,East 6th Street,59044,45.6743080,-108.7704176
109,West Main Street,59044,45.6692941,-108.7721633
111,West Main Street,59044,45.6692525,-108.7722626
113,West Main Street,59044,45.6692348,-108.7723848
201,West 2nd Street,59044,45.6705503,-108.7733875
211,West 2nd Street,59044,45.6705499,-108.7739586
201,3rd Avenue,59044,45.6705174,-108.7742917
205,3rd Avenue,59044,45.6706598,-108.7742822
209,3rd Avenue,59044,45.6708362,-108.7742408
211,3rd Avenue,59044,45.6709585,-108.7742831
218,West 3rd Street,59044,45.6711864,-108.7740526
220,2nd Avenue,59044,45.6711549,-108.7734046
210,2nd Avenue,59044,45.6709543,-108.7734356
206,2nd Avenue,59044,45.6707876,-108.7734356
207,West Main Street,59044,45.6689811,-108.7734535
201,West Main Street,59044,45.6690965,-108.7733207
222,West 1st Street,59044,45.6694917,-108.7743643
215,West 1st Street,59044,45.6700585,-108.7741123
220,West Main Street,59044,45.6683839,-108.7738515
302,1st Avenue,59044,45.6715875,-108.7719830
301,2nd Avenue,59044,45.6715789,-108.7727787
305,2nd Avenue,59044,45.6716993,-108.7727851
307,2nd Avenue,59044,45.6717902,-108.7727931
309,2nd Avenue,59044,45.6718747,-108.7727732
311,2nd Avenue,59044,45.6719572,-108.7727720
306,1st Avenue,59044,45.6717493,-108.7719790
310,1st Avenue,59044,45.6719222,-108.7719551
314,1st Avenue,59044,45.6720840,-108.7719686
320,1st Avenue,59044,45.6722282,-108.7720098
317,2nd Avenue,59044,45.6721593,-108.7727178
319,2nd Avenue,59044,45.6722580,-108.7728005
101,West 4th Street,59044,45.6726157,-108.7719231
109,West 4th Street,59044,45.6726241,-108.7722044
408,1st Avenue,59044,45.6728277,-108.7719345
410,1st Avenue,59044,45.6729612,-108.7719339
401,2nd Avenue,59044,45.6726336,-108.7727385
407,2nd Avenue,59044,45.6728550,-108.7727900
411,2nd Avenue,59044,45.6729798,-108.7727667
413,2nd Avenue,59044,45.6730818,-108.7728105
419,2nd Avenue,59044,45.6732866,-108.7727915
502,1st Avenue,59044,45.6737040,-108.7719987
508,1st Avenue,59044,45.6739052,-108.7719867
512,1st Avenue,59044,45.6740326,-108.7719384
516,1st Avenue,59044,45.6741742,-108.7719771
520,1st Avenue,59044,45.6743371,-108.7720113
519,2nd Avenue,59044,45.6743304,-108.7727847
511,2nd Avenue,59044,45.6740489,-108.7728065
509,2nd Avenue,59044,45.6739543,-108.7728135
507,2nd Avenue,59044,45.6738754,-108.7727436
505,2nd Avenue,59044,45.6737995,-108.7727640
501,2nd Avenue,59044,45.6736694,-108.7727587
601,2nd Avenue,59044,45.6747337,-108.7727575
605,2nd Avenue,59044,45.6748681,-108.7727551
609,2nd Avenue,59044,45.6750428,-108.7727442
613,2nd Avenue,59044,45.6751764,-108.7727300
617,2nd Avenue,59044,45.6753164,-108.7727843
614,1st Avenue,59044,45.6751768,-108.7721336
720,1st Avenue,59044,45.6764109,-108.7720080
802,Washington Avenue,59044,45.6772298,-108.7645694
806,Washington Avenue,59044,45.6773791,-108.7645214
810,Washington Avenue,59044,45.6775427,-108.7645140
814,Washington Avenue,59044,45.6777120,-108.7645145
820,Washington Avenue,59044,45.6778794,-108.7645727
819,Wyoming Avenue,59044,45.6778632,-108.7653090
813,Wyoming Avenue,59044,45.6777106,-108.7653089
811,Wyoming Avenue,59044,45.6775764,-108.7653303
805,Wyoming Avenue,59044,45.6773851,-108.7653024
801,Wyoming Avenue,59044,45.6772322,-108.7653272
804,Wyoming Avenue,59044,45.6772278,-108.7660421
806,Wyoming Avenue,59044,45.6773908,-108.7660248
810,Wyoming Avenue,59044,45.6775763,-108.7659706
814,Wyoming Avenue,59044,45.6777198,-108.7659815
820,Wyoming Avenue,59044,45.6778636,-108.7659998
803,Pennsylvania Avenue,59044,45.6772503,-108.7667631
805,Pennsylvania Avenue,59044,45.6773891,-108.7667302
809,Pennsylvania Avenue,59044,45.6775769,-108.7668185
815,Pennsylvania Avenue,59044,45.6777204,-108.7667928
404,East 9th Street,59044,45.6778806,-108.7667181
820,Pennsylvania Avenue,59044,45.6778843,-108.7674437
814,Pennsylvania Avenue,59044,45.6777231,-108.7674488
810,Pennsylvania Avenue,59044,45.6775565,-108.7674743
804,Pennsylvania Avenue,59044,45.6772617,-108.7675234
806,Pennsylvania Avenue,59044,45.6773927,-108.7674851
902,Pennsylvania Avenue,59044,45.6782891,-108.7674605
908,Pennsylvania Avenue,59044,45.6784896,-108.7674638
912,Pennsylvania Avenue,59044,45.6786553,-108.7674469
916,Pennsylvania Avenue,59044,45.6788205,-108.7674468
318,East Maryland Lane,59044,45.6789659,-108.7674988
915,Pennsylvania Avenue,59044,45.6788195,-108.7667849
406,East Maryland Lane,59044,45.6789530,-108.7667350
911,Pennsylvania Avenue,59044,45.6786540,-108.7667984
907,Pennsylvania Avenue,59044,45.6784667,-108.7667841
901,Pennsylvania Avenue,59044,45.6782567,-108.7667790
902,Wyoming Avenue,59044,45.6782487,-108.7660128
908,Wyoming Avenue,59044,45.6783999,-108.7659668
912,Wyoming Avenue,59044,45.6785671,-108.7660457
914,Wyoming Avenue,59044,45.6787157,-108.7659635
920,Wyoming Avenue,59044,45.6789196,-108.7659608
902,Washington Avenue,59044,45.6782460,-108.7645354
908,Washington Avenue,59044,45.6784251,-108.7644916
912,Washington Avenue,59044,45.6786194,-108.7644829
916,Washington Avenue,59044,45.6788026,-108.7644923
919,Wyoming Avenue,59044,45.6789553,-108.7652337
901,Wyoming Avenue,59044,45.6782537,-108.7652480
907,Wyoming Avenue,59044,45.6784042,-108.7652669
911,Wyoming Avenue,59044,45.6785686,-108.7652598
913,Wyoming Avenue,59044,45.6787133,-108.7653272
802,1st Avenue,59044,45.6768022,-108.7719321
801,2nd Avenue,59044,45.6768084,-108.7727162
805,2nd Avenue,59044,45.6769597,-108.7727010
811,2nd Avenue,59044,45.6771261,-108.7727422
815,2nd Avenue,59044,45.6772657,-108.7727046
819,2nd Avenue,59044,45.6774167,-108.7727074
820,1st Avenue,59044,45.6774586,-108.7720074
814,1st Avenue,59044,45.6772850,-108.7719429
810,1st Avenue,59044,45.6771100,-108.7720288
806,1st Avenue,59044,45.6769434,-108.7720030
902,West 9th Street,59044,45.6778463,-108.7719393
906,1st Avenue,59044,45.6780033,-108.7719857
912,1st Avenue,59044,45.6781715,-108.7719253
914,1st Avenue,59044,45.6783226,-108.7719747
119,West 9th Street,59044,45.6778518,-108.7727183
907,2nd Avenue,59044,45.6780025,-108.7727429
911,2nd Avenue,59044,45.6781688,-108.7727523
915,2nd Avenue,59044,45.6783051,-108.7727285
919,2nd Avenue,59044,45.6784593,-108.7727345
923,2nd Avenue,59044,45.6786725,-108.7727675
927,2nd Avenue,59044,45.6788234,-108.7727525
118,West Maryland Lane,59044,45.6789958,-108.7726646
932,1st Avenue,59044,45.6789703,-108.7719350
924,1st Avenue,59044,45.6786930,-108.7719265
920,1st Avenue,59044,45.6784684,-108.7719324
215,East Maryland Lane,59044,45.6796601,-108.7684242
215,East Maryland Lane,59044,45.6793823,-108.7687575
115,East Maryland Lane,59044,45.6794335,-108.7705206
103,East Maryland Lane,59044,45.6793931,-108.7712642
1007,1st Avenue,59044,45.6795996,-108.7711848
1015,1st Avenue,59044,45.6800784,-108.7711950
1006,Montana Avenue,59044,45.6796567,-108.7706039
1035,1st Avenue,59044,45.6803678,-108.7711809
1103,Montana Avenue,59044,45.6811964,-108.7699427
1107,Montana Avenue,59044,45.6813658,-108.7699505
1111,Montana Avenue,59044,45.6815268,-108.7699375
1115,Montana Avenue,59044,45.6819567,-108.7695322
201,East 12th Street,59044,45.6825436,-108.7699251
1131,Colorado Avenue,59044,45.6821949,-108.7686658
1102,Montana Avenue,59044,45.6811922,-108.7705205
1106,Montana Avenue,59044,45.6813480,-108.7705129
1103,1st Avenue,59044,45.6811915,-108.7711913
1107,1st Avenue,59044,45.6813526,-108.7711408
1109,1st Avenue,59044,45.6815210,-108.7711915
1119,1st Avenue,59044,45.6818476,-108.7711494
1108,Montana Avenue,59044,45.6815290,-108.7704942
1112,Montana Avenue,59044,45.6817538,-108.7704704
1116,Montana Avenue,59044,45.6819354,-108.7704990
1120,Montana Avenue,59044,45.6821109,-108.7704967
1121,1st Avenue,59044,45.6820829,-108.7711608
1125,1st Avenue,59044,45.6823702,-108.7711331
102,East 12th Street,59044,45.6826042,-108.7710734
117,East 12th Street,59044,45.6825311,-108.7705139
103,Mountain View Lane,59044,45.6811261,-108.7719711
1108,1st Avenue,59044,45.6813555,-108.7719603
1112,1st Avenue,59044,45.6816008,-108.7719197
1116,1st Avenue,59044,45.6817962,-108.7719207
1107,2nd Avenue,59044,45.6811211,-108.7726170
1111,2nd Avenue,59044,45.6813636,-108.7726715
1115,2nd Avenue,59044,45.6815524,-108.7726677
1119,2nd Avenue,59044,45.6818217,-108.7726711
118,West 12th Street,59044,45.6820626,-108.7724022
120,West 12th Street,59044,45.6825558,-108.7727619
201,Laurmac Lane,59044,45.6820639,-108.7730715
201,West 11th Street,59044,45.6813108,-108.7733714
217,West 11th Street,59044,45.6813009,-108.7741390
225,West 11th Street,59044,45.6812888,-108.7745029
301,West 11th Street,59044,45.6812828,-108.7748529
309,West 11th Street,59044,45.6812776,-108.7751961
315,West 11th Street,59044,45.6812842,-108.7755341
316,Laurmac Lane,59044,45.6816744,-108.7755375
310,Laurmac Lane,59044,45.6816687,-108.7752076
302,Laurmac Lane,59044,45.6816754,-108.7748656
226,Laurmac Lane,59044,45.6816736,-108.7745282
222,Laurmac Lane,59044,45.6816755,-108.7741965
210,Laurmac Lane,59044,45.6816112,-108.7735353
216,Laurmac Lane,59044,45.6816800,-108.7738624
1108,2nd Avenue,59044,45.6816346,-108.7731926
211,Laurmac Lane,59044,45.6820738,-108.7736947
217,Laurmac Lane,59044,45.6820793,-108.7739912
221,Laurmac Lane,59044,45.6821110,-108.7743302
301,Laurmac Lane,59044,45.6820676,-108.7746215
307,Laurmac Lane,59044,45.6820888,-108.7749935
313,Laurmac Lane,59044,45.6821183,-108.7752876
1115,4th Avenue,59044,45.6821322,-108.7756035
320,West 12th Street,59044,45.6826169,-108.7755605
224,West 12th Street,59044,45.6826168,-108.7738663
208,West 12th Street,59044,45.6825924,-108.7735749
1029,2nd Avenue,59044,45.6805378,-108.7727273
1025,2nd Avenue,59044,45.6803594,-108.7727528
1021,2nd Avenue,59044,45.6801801,-108.7727526
1034,1st Avenue,59044,45.6806198,-108.7719804
1030,1st Avenue,59044,45.6804372,-108.7719061
1026,1st Avenue,59044,45.6802745,-108.7719134
1020,1st Avenue,59044,45.6801075,-108.7719220
1019,2nd Avenue,59044,45.6800117,-108.7727632
1015,2nd Avenue,59044,45.6798477,-108.7727632
1011,2nd Avenue,59044,45.6796952,-108.7727433
119,West Maryland Lane,59044,45.6793896,-108.7727229
1007,2nd Avenue,59044,45.6795175,-108.7727399
1002,1st Avenue,59044,45.6793864,-108.7719196
1006,1st Avenue,59044,45.6795144,-108.7719066
1012,1st Avenue,59044,45.6797396,-108.7719454
1016,1st Avenue,59044,45.6799446,-108.7719159
304,2nd Avenue,59044,45.6716359,-108.7734234
217,West 3rd Street,59044,45.6715904,-108.7739725
309,3rd Avenue,59044,45.6717554,-108.7742567
311,3rd Avenue,59044,45.6719155,-108.7743026
315,3rd Avenue,59044,45.6720825,-108.7742946
319,3rd Avenue,59044,45.6722826,-108.7742796
320,2nd Avenue,59044,45.6722506,-108.7734216
316,2nd Avenue,59044,45.6720853,-108.7734322
310,2nd Avenue,59044,45.6718966,-108.7734611
306,2nd Avenue,59044,45.6717690,-108.7734159
301,3rd Avenue,59044,45.6715821,-108.7742742
402,2nd Avenue,59044,45.6726290,-108.7734490
401,3rd Avenue,59044,45.6726580,-108.7741839
405,3rd Avenue,59044,45.6727801,-108.7742253
409,3rd Avenue,59044,45.6729885,-108.7742253
415,3rd Avenue,59044,45.6731386,-108.7742040
417,3rd Avenue,59044,45.6732747,-108.7742580
412,2nd Avenue,59044,45.6730273,-108.7734941
406,2nd Avenue,59044,45.6729004,-108.7734199
404,2nd Avenue,59044,45.6727703,-108.7733927
420,2nd Avenue,59044,45.6732763,-108.7734605
414,2nd Avenue,59044,45.6731614,-108.7733692
502,2nd Avenue,59044,45.6736863,-108.7734527
504,2nd Avenue,59044,45.6738396,-108.7734284
501,3rd Avenue,59044,45.6737153,-108.7741128
505,3rd Avenue,59044,45.6739503,-108.7739670
512,2nd Avenue,59044,45.6740195,-108.7734076
518,2nd Avenue,59044,45.6741871,-108.7734890
520,2nd Avenue,59044,45.6743345,-108.7734569
519,3rd Avenue,59044,45.6743340,-108.7742524
517,3rd Avenue,59044,45.6741635,-108.7742303
511,3rd Avenue,59044,45.6740497,-108.7743065
602,2nd Avenue,59044,45.6747242,-108.7734522
606,2nd Avenue,59044,45.6748671,-108.7734238
209,West 6th Street,59044,45.6747138,-108.7737389
601,3rd Avenue,59044,45.6747343,-108.7742749
612,2nd Avenue,59044,45.6751420,-108.7733971
615,3rd Avenue,59044,45.6753327,-108.7741815
702,2nd Avenue,59044,45.6757659,-108.7734549
701,3rd Avenue,59044,45.6757992,-108.7741410
711,3rd Avenue,59044,45.6760914,-108.7742461
715,3rd Avenue,59044,45.6762517,-108.7742149
719,3rd Avenue,59044,45.6764215,-108.7742293
720,2nd Avenue,59044,45.6764036,-108.7734182
714,2nd Avenue,59044,45.6762424,-108.7734191
712,2nd Avenue,59044,45.6760653,-108.7734106
706,2nd Avenue,59044,45.6759072,-108.7734211
802,2nd Avenue,59044,45.6767877,-108.7735225
806,2nd Avenue,59044,45.6769618,-108.7735099
812,2nd Avenue,59044,45.6771301,-108.7734452
820,2nd Avenue,59044,45.6773871,-108.7734152
219,West 8th Street,59044,45.6767982,-108.7741356
807,3rd Avenue,59044,45.6769962,-108.7742579
813,3rd Avenue,59044,45.6772382,-108.7742427
218,West 9th Street,59044,45.6774362,-108.7741617
902,2nd Avenue,59044,45.6778474,-108.7734145
906,2nd Avenue,59044,45.6780012,-108.7734027
910,2nd Avenue,59044,45.6781630,-108.7734018
914,2nd Avenue,59044,45.6783367,-108.7734334
918,2nd Avenue,59044,45.6785088,-108.7733906
922,2nd Avenue,59044,45.6786510,-108.7734397
926,2nd Avenue,59044,45.6788194,-108.7734079
202,West Maryland Lane,59044,45.6790110,-108.7734487
218,West Maryland Lane,59044,45.6790109,-108.7741651
925,3rd Avenue,59044,45.6788387,-108.7742549
921,3rd Avenue,59044,45.6786835,-108.7742517
917,3rd Avenue,59044,45.6784730,-108.7742032
913,3rd Avenue,59044,45.6782774,-108.7742301
909,3rd Avenue,59044,45.6780413,-108.7742253
219,West 9th Street,59044,45.6778508,-108.7741612
1002,2nd Avenue,59044,45.6793826,-108.7734056
1006,2nd Avenue,59044,45.6795477,-108.7734137
1012,2nd Avenue,59044,45.6797009,-108.7734047
1014,2nd Avenue,59044,45.6798867,-108.7733692
1018,2nd Avenue,59044,45.6800328,-108.7733811
1022,2nd Avenue,59044,45.6801933,-108.7733732
1026,2nd Avenue,59044,45.6803650,-108.7734098
1030,2nd Avenue,59044,45.6805226,-108.7733810
1029,3rd Avenue,59044,45.6804530,-108.7742422
1025,3rd Avenue,59044,45.6802769,-108.7741819
1019,3rd Avenue,59044,45.6801122,-108.7742312
1015,3rd Avenue,59044,45.6799297,-108.7742556
1011,3rd Avenue,59044,45.6797829,-108.7742488
1007,3rd Avenue,59044,45.6796216,-108.7742522
1005,3rd Avenue,59044,45.6794870,-108.7741951
219,West Maryland Lane,59044,45.6793658,-108.7740113
1002,3rd Avenue,59044,45.6794581,-108.7749778
1016,3rd Avenue,59044,45.6799494,-108.7748649
1020,3rd Avenue,59044,45.6800984,-108.7748730
1026,3rd Avenue,59044,45.6802650,-108.7748737
304,Mountain View Lane,59044,45.6804338,-108.7748851
1021,4th Avenue,59044,45.6803103,-108.7757231
1019,4th Avenue,59044,45.6800919,-108.7757315
1015,4th Avenue,59044,45.6799017,-108.7757214
1011,4th Avenue,59044,45.6797179,-108.7757141
1007,4th Avenue,59044,45.6795475,-108.7757172
315,West Maryland Lane,59044,45.6793791,-108.7757245
930,3rd Avenue,59044,45.6789539,-108.7748729
316,West Maryland Lane,59044,45.6789703,-108.7756918
924,3rd Avenue,59044,45.6787431,-108.7748947
922,3rd Avenue,59044,45.6785933,-108.7748880
916,3rd Avenue,59044,45.6784110,-108.7749037
912,3rd Avenue,59044,45.6782462,-108.7748868
908,3rd Avenue,59044,45.6780822,-108.7749095
902,3rd Avenue,59044,45.6778869,-108.7749148
315,West 9th Street,59044,45.6778494,-108.7756739
907,4th Avenue,59044,45.6780843,-108.7757340
913,4th Avenue,59044,45.6783030,-108.7757417
917,4th Avenue,59044,45.6785095,-108.7757261
921,4th Avenue,59044,45.6786600,-108.7757291
925,4th Avenue,59044,45.6788218,-108.7756098
820,3rd Avenue,59044,45.6770833,-108.7753369
700,3rd Avenue,59044,45.6759165,-108.7750883
317,West 7th Street,59044,45.6758113,-108.7756725
612,3rd Avenue,59044,45.6752148,-108.7749070
611,4th Avenue,59044,45.6753636,-108.7757266
609,4th Avenue,59044,45.6750923,-108.7756730
315,West 6th Street,59044,45.6747617,-108.7755134
319,West 6th Street,59044,45.6747301,-108.7758133
602,3rd Avenue,59044,45.6747278,-108.7749053
608,3rd Avenue,59044,45.6748914,-108.7749079
520,3rd Avenue,59044,45.6743595,-108.7749239
519,4th Avenue,59044,45.6743549,-108.7757585
515,4th Avenue,59044,45.6741072,-108.7757227
511,4th Avenue,59044,45.6739901,-108.7757608
512,3rd Avenue,59044,45.6740672,-108.7749290
516,3rd Avenue,59044,45.6742170,-108.7749049
506,3rd Avenue,59044,45.6738455,-108.7749008
505,4th Avenue,59044,45.6738175,-108.7755987
501,4th Avenue,59044,45.6736851,-108.7757283
502,3rd Avenue,59044,45.6736889,-108.7749471
420,3rd Avenue,59044,45.6732947,-108.7749333
414,3rd Avenue,59044,45.6731196,-108.7749387
419,4th Avenue,59044,45.6732836,-108.7757102
415,4th Avenue,59044,45.6731206,-108.7757049
411,4th Avenue,59044,45.6729814,-108.7757423
405,4th Avenue,59044,45.6728148,-108.7757510
401,4th Avenue,59044,45.6726348,-108.7757219
311,West 4th Street,59044,45.6726582,-108.7754288
406,3rd Avenue,59044,45.6727562,-108.7750326
319,4th Avenue,59044,45.6722537,-108.7756960
313,4th Avenue,59044,45.6720787,-108.7756750
311,4th Avenue,59044,45.6719354,-108.7757435
307,4th Avenue,59044,45.6717496,-108.7757216
320,3rd Avenue,59044,45.6722678,-108.7749341
316,3rd Avenue,59044,45.6721036,-108.7749325
308,3rd Avenue,59044,45.6718525,-108.7749038
306,3rd Avenue,59044,45.6717160,-108.7749569
302,3rd Avenue,59044,45.6715815,-108.7749134
319,West 3rd Street,59044,45.6716021,-108.7756854
220,3rd Avenue,59044,45.6712244,-108.7750049
219,4th Avenue,59044,45.6712043,-108.7757002
215,4th Avenue,59044,45.6710422,-108.7757498
216,3rd Avenue,59044,45.6710586,-108.7749312
212,3rd Avenue,59044,45.6709213,-108.7749120
211,4th Avenue,59044,45.6708936,-108.7757512
209,4th Avenue,59044,45.6707340,-108.7757577
201,4th Avenue,59044,45.6705851,-108.7757630
206,3rd Avenue,59044,45.6706601,-108.7749136
208,3rd Avenue,59044,45.6707801,-108.7749373
202,3rd Avenue,59044,45.6705092,-108.7749066
118,3rd Avenue,59044,45.6700644,-108.7749710
301,West 1st Street,59044,45.6697208,-108.7748388
305,West 1st Street,59044,45.6697046,-108.7749838
314,West 1st Street,59044,45.6691646,-108.7754187
305,West Main Street,59044,45.6687529,-108.7747504
301,West Main Street,59044,45.6687262,-108.7745273
309,West Main Street,59044,45.6686588,-108.7749862
313,West Main Street,59044,45.6686057,-108.7752045
11,4th Avenue,59044,45.6688401,-108.7757097
15,4th Avenue,59044,45.6689677,-108.7758072
19,4th Avenue,59044,45.6690972,-108.7757986
310,West Main Street,59044,45.6681800,-108.7754770
320,West Main Street,59044,45.6680765,-108.7761057
11,South 5th Avenue,59044,45.6678569,-108.7772867
401,West Main Street,59044,45.6685181,-108.7764346
8,4th Avenue,59044,45.6686689,-108.7763794
409,West Main Street,59044,45.6685193,-108.7768100
14,4th Avenue,59044,45.6688719,-108.7764011
18,4th Avenue,59044,45.6690441,-108.7763647
20,4th Avenue,59044,45.6691664,-108.7763988
11,5th Avenue,59044,45.6688619,-108.7772381
420,West 1st Street,59044,45.6691299,-108.7772021
102,4th Avenue,59044,45.6695238,-108.7764562
101,5th Avenue,59044,45.6695241,-108.7772462
105,5th Avenue,59044,45.6696766,-108.7772252
109,5th Avenue,59044,45.6698504,-108.7772485
115,5th Avenue,59044,45.6700082,-108.7772778
420,West 2nd Street,59044,45.6701443,-108.7771779
108,4th Avenue,59044,45.6696887,-108.7764020
110,4th Avenue,59044,45.6698505,-108.7764346
116,4th Avenue,59044,45.6699995,-108.7764125
408,West 2nd Street,59044,45.6701169,-108.7766926
120,4th Avenue,59044,45.6701480,-108.7764004
202,4th Avenue,59044,45.6705611,-108.7763958
201,5th Avenue,59044,45.6705448,-108.7772530
207,5th Avenue,59044,45.6707380,-108.7772640
211,5th Avenue,59044,45.6708954,-108.7772430
215,5th Avenue,59044,45.6710583,-108.7772272
219,5th Avenue,59044,45.6712129,-108.7772495
519,West Main Street,59044,45.6686590,-108.7787296
17,6th Avenue,59044,45.6689966,-108.7787093
15,6th Avenue,59044,45.6688760,-108.7786761
19,6th Avenue,59044,45.6691253,-108.7786400
506,West 1st Street,59044,45.6690825,-108.7781834
102,5th Avenue,59044,45.6694900,-108.7779262
106,5th Avenue,59044,45.6696253,-108.7778778
103,6th Avenue,59044,45.6695496,-108.7786457
107,6th Avenue,59044,45.6696910,-108.7787014
111,6th Avenue,59044,45.6698527,-108.7787273
115,6th Avenue,59044,45.6700214,-108.7787266
119,6th Avenue,59044,45.6701517,-108.7786123
118,5th Avenue,59044,45.6700388,-108.7781597
120,5th Avenue,59044,45.6701738,-108.7779403
116,5th Avenue,59044,45.6699047,-108.7779037
110,5th Avenue,59044,45.6697926,-108.7778570
208,4th Avenue,59044,45.6708083,-108.7763911
212,4th Avenue,59044,45.6709783,-108.7764039
216,4th Avenue,59044,45.6710896,-108.7764102
220,4th Avenue,59044,45.6712280,-108.7764213
102,6th Avenue,59044,45.6695261,-108.7794304
107,7th Avenue,59044,45.6697811,-108.7799096
115,7th Avenue,59044,45.6699603,-108.7802149
620,West 2nd Street,59044,45.6701570,-108.7802011
302,4th Avenue,59044,45.6715703,-108.7763843
306,4th Avenue,59044,45.6717136,-108.7764073
310,4th Avenue,59044,45.6718302,-108.7764102
312,4th Avenue,59044,45.6720043,-108.7764112
316,4th Avenue,59044,45.6721518,-108.7764170
320,4th Avenue,59044,45.6722668,-108.7764567
319,5th Avenue,59044,45.6722437,-108.7772800
315,5th Avenue,59044,45.6721044,-108.7772617
309,5th Avenue,59044,45.6719298,-108.7772665
307,5th Avenue,59044,45.6717856,-108.7772589
305,5th Avenue,59044,45.6717038,-108.7771147
419,West 3rd Street,59044,45.6715983,-108.7772816
307 1/2,5th Avenue,59044,45.6717948,-108.7769799
402,4th Avenue,59044,45.6726278,-108.7763954
406,4th Avenue,59044,45.6727491,-108.7764438
410,4th Avenue,59044,45.6729068,-108.7764188
412,4th Avenue,59044,45.6730166,-108.7765412
416,4th Avenue,59044,45.6731736,-108.7764084
408,West 5th Street,59044,45.6732903,-108.7766453
420,4th Avenue,59044,45.6733253,-108.7763212
419,West 5th Street,59044,45.6732878,-108.7771566
413,5th Avenue,59044,45.6730942,-108.7772361
409,5th Avenue,59044,45.6729564,-108.7772528
407,5th Avenue,59044,45.6728027,-108.7772413
401,5th Avenue,59044,45.6726412,-108.7772382
108,6th Avenue,59044,45.6696826,-108.7793962
110,6th Avenue,59044,45.6698306,-108.7793954
116,6th Avenue,59044,45.6700043,-108.7793783
120,6th Avenue,59044,45.6701626,-108.7793682
216,5th Avenue,59044,45.6710390,-108.7781791
220,5th Avenue,59044,45.6712014,-108.7779036
704,West Main Street,59044,45.6680126,-108.7808266
705,West 1st Street,59044,45.6695267,-108.7809026
116,7th Avenue,59044,45.6700242,-108.7808658
120,7th Avenue,59044,45.6701733,-108.7808936
208,5th Avenue,59044,45.6707512,-108.7778711
212,5th Avenue,59044,45.6708890,-108.7778585
517,West 2nd Street,59044,45.6705710,-108.7786554
205,6th Avenue,59044,45.6707186,-108.7787026
209,6th Avenue,59044,45.6708881,-108.7786868
215,6th Avenue,59044,45.6710567,-108.7786919
219,6th Avenue,59044,45.6712166,-108.7786856
302,5th Avenue,59044,45.6715984,-108.7778904
308,5th Avenue,59044,45.6717715,-108.7778929
310,5th Avenue,59044,45.6719136,-108.7779328
316,5th Avenue,59044,45.6721054,-108.7778592
508,West 4th Street,59044,45.6722344,-108.7781887
320,5th Avenue,59044,45.6722698,-108.7779156
319,6th Avenue,59044,45.6722772,-108.7786561
317,6th Avenue,59044,45.6721555,-108.7786659
311,6th Avenue,59044,45.6720058,-108.7786851
307,6th Avenue,59044,45.6718322,-108.7786871
501,6th Avenue,59044,45.6715863,-108.7786930
402,5th Avenue,59044,45.6726456,-108.7778716
408,5th Avenue,59044,45.6728025,-108.7779184
412,5th Avenue,59044,45.6729681,-108.7779221
416,5th Avenue,59044,45.6731316,-108.7779168
420,5th Avenue,59044,45.6732883,-108.7779116
520,West 5th Street,59044,45.6733093,-108.7786917
413,6th Avenue,59044,45.6731627,-108.7786894
409,6th Avenue,59044,45.6729877,-108.7786745
407,6th Avenue,59044,45.6728081,-108.7786994
519,West 4th Street,59044,45.6726169,-108.7787247
502,4th Avenue,59044,45.6736712,-108.7764332
409,West 5th Street,59044,45.6737161,-108.7766761
508,4th Avenue,59044,45.6738809,-108.7763921
512,4th Avenue,59044,45.6740118,-108.7763865
516,4th Avenue,59044,45.6741713,-108.7763637
520,4th Avenue,59044,45.6743167,-108.7764194
519,5th Avenue,59044,45.6743354,-108.7772322
515,5th Avenue,59044,45.6741708,-108.7772439
511,5th Avenue,59044,45.6740076,-108.7772500
507,5th Avenue,59044,45.6738440,-108.7772532
501,5th Avenue,59044,45.6736779,-108.7772551
602,4th Avenue,59044,45.6747360,-108.7764097
608,4th Avenue,59044,45.6749103,-108.7764038
612,4th Avenue,59044,45.6750595,-108.7764173
620,4th Avenue,59044,45.6753734,-108.7764392
420,West 7th Street,59044,45.6753770,-108.7771893
613,5th Avenue,59044,45.6752068,-108.7772345
609,5th Avenue,59044,45.6750557,-108.7772346
616,4th Avenue,59044,45.6752258,-108.7763870
605,5th Avenue,59044,45.6748736,-108.7772122
603,5th Avenue,59044,45.6747180,-108.7771921
525,West 5th Street,59044,45.6737302,-108.7786542
525 1/2,West 5th Street,59044,45.6738826,-108.7785388
511,6th Avenue,59044,45.6740041,-108.7787222
515,6th Avenue,59044,45.6741904,-108.7787201
519,6th Avenue,59044,45.6743272,-108.7787046
520,5th Avenue,59044,45.6743371,-108.7778557
510,5th Avenue,59044,45.6740075,-108.7778933
514,5th Avenue,59044,45.6741610,-108.7778912
502,5th Avenue,59044,45.6736930,-108.7778723
508,5th Avenue,59044,45.6738510,-108.7778460
602,5th Avenue,59044,45.6747042,-108.7778675
608,5th Avenue,59044,45.6748802,-108.7778471
612,5th Avenue,59044,45.6750344,-108.7778844
614,5th Avenue,59044,45.6752008,-108.7779063
620,5th Avenue,59044,45.6753655,-108.7778699
518,West 7th Street,59044,45.6753798,-108.7786299
613,6th Avenue,59044,45.6752123,-108.7787079
609,6th Avenue,59044,45.6750084,-108.7787368
607,6th Avenue,59044,45.6748659,-108.7786918
519,West 6th Street,59044,45.6747089,-108.7787132
405,West 7th Street,59044,45.6757540,-108.7764423
708,4th Avenue,59044,45.6759624,-108.7763860
714,4th Avenue,59044,45.6762426,-108.7764025
406,West 8th Street,59044,45.6764247,-108.7764707
415,West 7th Street,59044,45.6757581,-108.7771639
707,5th Avenue,59044,45.6759235,-108.7772202
711,5th Avenue,59044,45.6760865,-108.7771771
715,5th Avenue,59044,45.6762517,-108.7772098
420,West 8th Street,59044,45.6764238,-108.7771465
405,West 8th Street,59044,45.6767836,-108.7764325
806,4th Avenue,59044,45.6769595,-108.7764494
812,4th Avenue,59044,45.6771571,-108.7763863
816,4th Avenue,59044,45.6773221,-108.7764040
406,West 9th Street,59044,45.6774686,-108.7764149
420,West 9th Street,59044,45.6774705,-108.7771456
815,5th Avenue,59044,45.6772763,-108.7772114
809,5th Avenue,59044,45.6770683,-108.7771231
715,4th Avenue,59044,45.6762569,-108.7755649
505,West 7th Street,59044,45.6757638,-108.7779407
710,5th Avenue,59044,45.6760800,-108.7778932
708,5th Avenue,59044,45.6759281,-108.7778847
716,5th Avenue,59044,45.6762618,-108.7778706
504,West 8th Street,59044,45.6764260,-108.7779059
719,6th Avenue,59044,45.6763904,-108.7786678
711,6th Avenue,59044,45.6761951,-108.7787089
709,6th Avenue,59044,45.6759979,-108.7786967
517,West 7th Street,59044,45.6757821,-108.7787430
419,West 8th Street,59044,45.6768283,-108.7770973
802,5th Avenue,59044,45.6768349,-108.7779060
808,5th Avenue,59044,45.6770517,-108.7778770
814,5th Avenue,59044,45.6772518,-108.7778737
820,5th Avenue,59044,45.6774417,-108.7778619
819,6th Avenue,59044,45.6774125,-108.7787197
815,6th Avenue,59044,45.6772142,-108.7787139
807,6th Avenue,59044,45.6770546,-108.7787235
803,6th Avenue,59044,45.6768320,-108.7787129
902,4th Avenue,59044,45.6778792,-108.7764359
910,4th Avenue,59044,45.6781294,-108.7764036
916,4th Avenue,59044,45.6783537,-108.7764007
920,4th Avenue,59044,45.6785596,-108.7763917
924,4th Avenue,59044,45.6787611,-108.7763964
928,4th Avenue,59044,45.6789337,-108.7764426
925,5th Avenue,59044,45.6788282,-108.7771613
929,5th Avenue,59044,45.6789875,-108.7772279
921,5th Avenue,59044,45.6786914,-108.7772162
417,West 9th Street,59044,45.6780210,-108.7770797
405,West Maryland Lane,59044,45.6793598,-108.7764037
1008,4th Avenue,59044,45.6795369,-108.7763463
1012,4th Avenue,59044,45.6797108,-108.7763802
1016,4th Avenue,59044,45.6798919,-108.7763477
419,West Maryland Lane,59044,45.6793792,-108.7771927
1007,5th Avenue,59044,45.6795412,-108.7771340
1011,5th Avenue,59044,45.6797119,-108.7772165
1015,5th Avenue,59044,45.6798901,-108.7772029
1017,5th Avenue,59044,45.6800964,-108.7771953
416,Mountain View Lane,59044,45.6802588,-108.7771220
404,Mountain View Lane,59044,45.6802785,-108.7763722
1020,4th Avenue,59044,45.6801097,-108.7763817
401,West 11th Street,59044,45.6812779,-108.7760958
407,West 11th Street,59044,45.6812727,-108.7763743
411,West 11th Street,59044,45.6812683,-108.7766306
413,West 11th Street,59044,45.6812898,-108.7769811
417,West 11th Street,59044,45.6812909,-108.7777555
415,West 11th Street,59044,45.6812726,-108.7773343
505,West 11th Street,59044,45.6812673,-108.7780950
511,West 11th Street,59044,45.6812841,-108.7784171
519,West 11th Street,59044,45.6812837,-108.7786790
518,Laurmac Lane,59044,45.6816664,-108.7786720
512,Laurmac Lane,59044,45.6816935,-108.7783999
506,Laurmac Lane,59044,45.6816987,-108.7780475
418,Laurmac Lane,59044,45.6816759,-108.7777497
416,Laurmac Lane,59044,45.6816740,-108.7773479
414,Laurmac Lane,59044,45.6816622,-108.7770022
410,Laurmac Lane,59044,45.6816794,-108.7766613
404,Laurmac Lane,59044,45.6816740,-108.7763655
1108,4th Avenue,59044,45.6816567,-108.7760900
401,Laurmac Lane,59044,45.6820891,-108.7760895
405,Laurmac Lane,59044,45.6820809,-108.7763677
413,Laurmac Lane,59044,45.6820947,-108.7769847
415,Laurmac Lane,59044,45.6820873,-108.7773342
417,Laurmac Lane,59044,45.6820858,-108.7777541
505,Laurmac Lane,59044,45.6820987,-108.7780577
511,Laurmac Lane,59044,45.6820908,-108.7783937
519,Laurmac Lane,59044,45.6821147,-108.7786947
518,West 12th Street,59044,45.6826183,-108.7786971
512,West 12th Street,59044,45.6826332,-108.7783857
506,West 12th Street,59044,45.6826299,-108.7780711
418,West 12th Street,59044,45.6826142,-108.7777271
412,West 12th Street,59044,45.6826232,-108.7773382
406,West 12th Street,59044,45.6825992,-108.7769769
404,West 12th Street,59044,45.6826109,-108.7764601
1126,4th Avenue,59044,45.6826248,-108.7760876
504,West 11th Street,59044,45.6805399,-108.7782003
505,West Maryland Lane,59044,45.6793873,-108.7779233
517,West Maryland Lane,59044,45.6794170,-108.7786104
1009,6th Avenue,59044,45.6796058,-108.7786546
1011,6th Avenue,59044,45.6798132,-108.7786728
1017,6th Avenue,59044,45.6800299,-108.7787137
1014,5th Avenue,59044,45.6797638,-108.7778264
1018,5th Avenue,59044,45.6800204,-108.7778643
1006,5th Avenue,59044,45.6795628,-108.7778666
902,5th Avenue,59044,45.6778666,-108.7778602
908,5th Avenue,59044,45.6780660,-108.7778750
916,5th Avenue,59044,45.6784087,-108.7778749
912,5th Avenue,59044,45.6782435,-108.7778459
924,5th Avenue,59044,45.6785854,-108.7778684
926,5th Avenue,59044,45.6787893,-108.7778546
504,West Maryland Lane,59044,45.6789921,-108.7779120
520,West Maryland Lane,59044,45.6789457,-108.7786129
921,6th Avenue,59044,45.6787039,-108.7786778
919,6th Avenue,59044,45.6785446,-108.7786734
917,6th Avenue,59044,45.6783643,-108.7786706
913,6th Avenue,59044,45.6781717,-108.7786797
903,6th Avenue,59044,45.6778908,-108.7786401
202,6th Avenue,59044,45.6705562,-108.7793898
208,6th Avenue,59044,45.6707008,-108.7793848
210,6th Avenue,59044,45.6708983,-108.7795016
216,6th Avenue,59044,45.6710621,-108.7793775
220,6th Avenue,59044,45.6712001,-108.7793951
219,7th Avenue,59044,45.6711833,-108.7802224
213,7th Avenue,59044,45.6709660,-108.7801630
209,7th Avenue,59044,45.6708311,-108.7802114
205,7th Avenue,59044,45.6706742,-108.7801672
615,West 2nd Street,59044,45.6705529,-108.7801454
302,6th Avenue,59044,45.6715690,-108.7793530
306,6th Avenue,59044,45.6717368,-108.7793917
615,West 3rd Street,59044,45.6715960,-108.7800984
307,7th Avenue,59044,45.6718435,-108.7801618
315,7th Avenue,59044,45.6719978,-108.7802312
320 1/2,6th Avenue,59044,45.6722599,-108.7796857
316,6th Avenue,59044,45.6721289,-108.7793866
310,6th Avenue,59044,45.6719226,-108.7793834
320,6th Avenue,59044,45.6722593,-108.7793752
402,6th Avenue,59044,45.6726202,-108.7794050
406,6th Avenue,59044,45.6727781,-108.7793619
410,6th Avenue,59044,45.6729087,-108.7793690
414,6th Avenue,59044,45.6730547,-108.7793745
416,6th Avenue,59044,45.6731780,-108.7793901
420,6th Avenue,59044,45.6733194,-108.7793398
413,7th Avenue,59044,45.6731252,-108.7802353
419,7th Avenue,59044,45.6733184,-108.7802133
409,7th Avenue,59044,45.6730126,-108.7802080
405,7th Avenue,59044,45.6728255,-108.7801606
401,7th Avenue,59044,45.6726232,-108.7801690
502,6th Avenue,59044,45.6736929,-108.7793634
507,7th Avenue,59044,45.6738468,-108.7801410
511 1/2,7th Avenue,59044,45.6740069,-108.7799180
511,7th Avenue,59044,45.6740115,-108.7801859
515,7th Avenue,59044,45.6742050,-108.7802080
519,7th Avenue,59044,45.6743536,-108.7802100
520,6th Avenue,59044,45.6743446,-108.7793729
516,6th Avenue,59044,45.6741734,-108.7793829
510,6th Avenue,59044,45.6739824,-108.7793560
508,6th Avenue,59044,45.6738584,-108.7793707
602,6th Avenue,59044,45.6747245,-108.7793536
605,7th Avenue,59044,45.6747512,-108.7800739
607,7th Avenue,59044,45.6749509,-108.7802043
611,7th Avenue,59044,45.6751462,-108.7802159
617,7th Avenue,59044,45.6753082,-108.7802115
619,7th Avenue,59044,45.6754289,-108.7801261
620,6th Avenue,59044,45.6753868,-108.7794289
616,6th Avenue,59044,45.6752213,-108.7793412
610,6th Avenue,59044,45.6750176,-108.7793473
702,6th Avenue,59044,45.6758241,-108.7792414
708,6th Avenue,59044,45.6760096,-108.7793440
712,6th Avenue,59044,45.6761371,-108.7793551
716,6th Avenue,59044,45.6762763,-108.7793375
602,West 8th Street,59044,45.6764263,-108.7793734
620,West 8th Street,59044,45.6764102,-108.7802026
711,7th Avenue,59044,45.6761835,-108.7801916
707,7th Avenue,59044,45.6760050,-108.7802198
619,West 7th Street,59044,45.6757414,-108.7801840
819,7th Avenue,59044,45.6774142,-108.7801438
815,7th Avenue,59044,45.6772003,-108.7802068
807,7th Avenue,59044,45.6769915,-108.7802164
619,West 8th Street,59044,45.6767895,-108.7801321
601,West 8th Street,59044,45.6767825,-108.7793881
806,6th Avenue,59044,45.6769609,-108.7793610
810,6th Avenue,59044,45.6771252,-108.7793316
816,6th Avenue,59044,45.6772900,-108.7793296
818,6th Avenue,59044,45.6774556,-108.7793339
902,6th Avenue,59044,45.6778445,-108.7793359
906,6th Avenue,59044,45.6780028,-108.7793453
910,6th Avenue,59044,45.6781735,-108.7793227
914,6th Avenue,59044,45.6783284,-108.7793303
918,6th Avenue,59044,45.6784851,-108.7793278
922,6th Avenue,59044,45.6786597,-108.7793213
926,6th Avenue,59044,45.6788236,-108.7793200
602,West Maryland Lane,59044,45.6789700,-108.7793850
901,7th Avenue,59044,45.6778514,-108.7802108
907,7th Avenue,59044,45.6780243,-108.7802081
909,7th Avenue,59044,45.6781818,-108.7802047
913,7th Avenue,59044,45.6783468,-108.7801778
917,7th Avenue,59044,45.6785116,-108.7801937
921,7th Avenue,59044,45.6786785,-108.7801851
925,7th Avenue,59044,45.6788411,-108.7801993
620,West Maryland Lane,59044,45.6789788,-108.7801444
601,West Maryland Lane,59044,45.6793691,-108.7794313
619,West Maryland Lane,59044,45.6793687,-108.7801682
1005,7th Avenue,59044,45.6795484,-108.7802038
1009,7th Avenue,59044,45.6797124,-108.7801899
1006,6th Avenue,59044,45.6795535,-108.7793533
1010,6th Avenue,59044,45.6796997,-108.7793221
1013,7th Avenue,59044,45.6798746,-108.7801993
1017,7th Avenue,59044,45.6800372,-108.7802028
1014,6th Avenue,59044,45.6798629,-108.7793158
1018,6th Avenue,59044,45.6800272,-108.7793134
1022,6th Avenue,59044,45.6802037,-108.7793101
1026,6th Avenue,59044,45.6803573,-108.7793149
1021,7th Avenue,59044,45.6802085,-108.7801583
1025,7th Avenue,59044,45.6803510,-108.7801573
1029,7th Avenue,59044,45.6805356,-108.7801959
1033,7th Avenue,59044,45.6807005,-108.7801964
1037,7th Avenue,59044,45.6808897,-108.7801969
1030,6th Avenue,59044,45.6805231,-108.7793153
1034,6th Avenue,59044,45.6807046,-108.7793157
602,West 11th Street,59044,45.6809181,-108.7793452
601,West 11th Street,59044,45.6812195,-108.7794014
1106,6th Avenue,59044,45.6813816,-108.7793328
1110,6th Avenue,59044,45.6815477,-108.7793243
1114,6th Avenue,59044,45.6817110,-108.7793056
1118,6th Avenue,59044,45.6818753,-108.7793037
619,West 11th Street,59044,45.6812060,-108.7801113
1105,7th Avenue,59044,45.6813916,-108.7801900
1109,7th Avenue,59044,45.6815598,-108.7801899
1113,7th Avenue,59044,45.6817222,-108.7801657
1117,7th Avenue,59044,45.6818878,-108.7801874
1121,7th Avenue,59044,45.6820530,-108.7801843
1122,6th Avenue,59044,45.6820394,-108.7793020
1126,6th Avenue,59044,45.6822054,-108.7793007
1130,6th Avenue,59044,45.6824267,-108.7793254
602,West 12th Street,59044,45.6826973,-108.7793352
1125,7th Avenue,59044,45.6822839,-108.7801888
1131,7th Avenue,59044,45.6824640,-108.7801584
1135,7th Avenue,59044,45.6826683,-108.7801587
501,West 12th Street,59044,45.6830557,-108.7777241
517,Fairview Lane,59044,45.6830847,-108.7780883
525,Fairview Lane,59044,45.6834434,-108.7783129
532,Fairview Lane,59044,45.6831235,-108.7787104
542,Fairview Lane,59044,45.6831191,-108.7790315
604,Fairview Lane,59044,45.6831270,-108.7793769
1203,Beartooth Drive,59044,45.6831198,-108.7797697
535,Fairview Lane,59044,45.6835408,-108.7788598
541,Fairview Lane,59044,45.6835648,-108.7791309
605,Fairview Lane,59044,45.6835451,-108.7793847
1219,Beartooth Drive,59044,45.6835767,-108.7798536
1223,Briar Circle,59044,45.6837735,-108.7795781
1229,Briar Circle,59044,45.6841263,-108.7801104
1233,Beartooth Drive,59044,45.6839082,-108.7803767
1241,Beartooth Drive,59044,45.6840777,-108.7806529
1208,Beartooth Drive,59044,45.6830788,-108.7803930
1205,12th Street Circle,59044,45.6830939,-108.7808791
1215,12th Street Circle,59044,45.6834061,-108.7809392
1216,12th Street Circle,59044,45.6835579,-108.7812559
1212,12th Street Circle,59044,45.6834102,-108.7815907
1206,12th Street Circle,59044,45.6831290,-108.7816160
1218,Beartooth Drive,59044,45.6834642,-108.7804527
1230,Beartooth Drive,59044,45.6836455,-108.7807507
1238,Beartooth Drive,59044,45.6838481,-108.7810462
1135,8th Avenue,59044,45.6826579,-108.7816683
1131,8th Avenue,59044,45.6824623,-108.7816728
1127,8th Avenue,59044,45.6822990,-108.7816754
1132,7th Avenue,59044,45.6824582,-108.7807857
702,West 12th Street,59044,45.6826857,-108.7808241
1128,7th Avenue,59044,45.6822934,-108.7808010
1122,7th Avenue,59044,45.6820592,-108.7808092
1119,8th Avenue,59044,45.6819687,-108.7816452
1123,8th Avenue,59044,45.6821341,-108.7816733
1115,8th Avenue,59044,45.6818043,-108.7816414
1109,8th Avenue,59044,45.6816423,-108.7816552
1105,8th Avenue,59044,45.6813911,-108.7816753
719,West 11th Street,59044,45.6811960,-108.7816423
1102,7th Avenue,59044,45.6812428,-108.7808026
1106,7th Avenue,59044,45.6813814,-108.7808135
1110,7th Avenue,59044,45.6815446,-108.7807912
1114,7th Avenue,59044,45.6817110,-108.7807910
1118,7th Avenue,59044,45.6818765,-108.7807902
1038,7th Avenue,59044,45.6808587,-108.7807959
1037,8th Avenue,59044,45.6808856,-108.7816786
1033,8th Avenue,59044,45.6806955,-108.7816816
1029,8th Avenue,59044,45.6805324,-108.7816828
1034,7th Avenue,59044,45.6806942,-108.7807910
1030,7th Avenue,59044,45.6805273,-108.7807978
1025,8th Avenue,59044,45.6803682,-108.7816828
1021,8th Avenue,59044,45.6802027,-108.7816829
1017,8th Avenue,59044,45.6800404,-108.7816853
1026,7th Avenue,59044,45.6803567,-108.7808258
1022,7th Avenue,59044,45.6801911,-108.7808171
1018,7th Avenue,59044,45.6800264,-108.7808188
1014,7th Avenue,59044,45.6798602,-108.7808247
1013,8th Avenue,59044,45.6797156,-108.7816782
1010,7th Avenue,59044,45.6796987,-108.7808169
1006,7th Avenue,59044,45.6795323,-108.7808033
701,West Maryland Lane,59044,45.6793818,-108.7808390
931,8th Avenue,59044,45.6789880,-108.7816856
927,8th Avenue,59044,45.6788471,-108.7816883
702,West Maryland Lane,59044,45.6789712,-108.7808661
926,7th Avenue,59044,45.6788277,-108.7808108
922,7th Avenue,59044,45.6786790,-108.7808515
923,8th Avenue,59044,45.6786795,-108.7816686
919,8th Avenue,59044,45.6785172,-108.7816923
915,8th Avenue,59044,45.6783508,-108.7816695
918,7th Avenue,59044,45.6784972,-108.7808113
914,7th Avenue,59044,45.6783298,-108.7808148
910,7th Avenue,59044,45.6781828,-108.7808128
906,7th Avenue,59044,45.6779991,-108.7808357
703,West 9th Street,59044,45.6778398,-108.7808768
911,8th Avenue,59044,45.6781869,-108.7816744
907,8th Avenue,59044,45.6780246,-108.7816951
903,8th Avenue,59044,45.6778578,-108.7816969
802,West 8th Street,59044,45.6767928,-108.7808710
806,7th Avenue,59044,45.6769616,-108.7808203
801,8th Avenue,59044,45.6768169,-108.7816887
805,8th Avenue,59044,45.6769516,-108.7816704
809,8th Avenue,59044,45.6771463,-108.7816792
815,8th Avenue,59044,45.6773103,-108.7816863
819,8th Avenue,59044,45.6774543,-108.7816793
820,7th Avenue,59044,45.6774573,-108.7808190
814,7th Avenue,59044,45.6772908,-108.7808147
810,7th Avenue,59044,45.6771441,-108.7808167
719,8th Avenue,59044,45.6764142,-108.7816827
715,8th Avenue,59044,45.6762734,-108.7816957
720,7th Avenue,59044,45.6764157,-108.7808252
714,7th Avenue,59044,45.6762493,-108.7808183
710,7th Avenue,59044,45.6760843,-108.7808291
706,7th Avenue,59044,45.6759436,-108.7808318
709,8th Avenue,59044,45.6761083,-108.7816979
705,8th Avenue,59044,45.6759434,-108.7817004
701,8th Avenue,59044,45.6757808,-108.7816849
701,West 7th Street,59044,45.6757425,-108.7808583
620,7th Avenue,59044,45.6753597,-108.7808435
720,West 7th Street,59044,45.6754060,-108.7813809
722,West 7th Street,59044,45.6753924,-108.7816265
615,8th Avenue,59044,45.6752350,-108.7816988
612,7th Avenue,59044,45.6751539,-108.7808418
604,7th Avenue,59044,45.6749510,-108.7808269
607,8th Avenue,59044,45.6749818,-108.7816672
719,West 6th Street,59044,45.6747603,-108.7816605
715,West 6th Street,59044,45.6747437,-108.7814474
602,7th Avenue,59044,45.6747263,-108.7808012
520 1/2,7th Avenue,59044,45.6743750,-108.7810061
520,7th Avenue,59044,45.6743637,-108.7808522
519,8th Avenue,59044,45.6743522,-108.7816347
515,8th Avenue,59044,45.6741870,-108.7816742
511,8th Avenue,59044,45.6740434,-108.7816664
514,7th Avenue,59044,45.6741775,-108.7808353
512,7th Avenue,59044,45.6740100,-108.7809516
507,8th Avenue,59044,45.6738490,-108.7816653
717,West 5th Street,59044,45.6736925,-108.7815790
703,West 5th Street,59044,45.6737122,-108.7808644
508,7th Avenue,59044,45.6738538,-108.7808377
412,7th Avenue,59044,45.6730722,-108.7808417
416,7th Avenue,59044,45.6731849,-108.7808972
420,7th Avenue,59044,45.6733300,-108.7809010
419,8th Avenue,59044,45.6732933,-108.7817035
415,8th Avenue,59044,45.6731451,-108.7817094
407,8th Avenue,59044,45.6728163,-108.7817087
411,8th Avenue,59044,45.6729823,-108.7817055
400,7th Avenue,59044,45.6727613,-108.7809879
320,7th Avenue,59044,45.6721714,-108.7808746
707,West 3rd Street,59044,45.6717671,-108.7810027
209,8th Avenue,59044,45.6707015,-108.7816408
715,West 2nd Street,59044,45.6705639,-108.7815378
204,7th Avenue,59044,45.6705970,-108.7808726
210,7th Avenue,59044,45.6708279,-108.7808768
214,7th Avenue,59044,45.6710293,-108.7808544
220,7th Avenue,59044,45.6712154,-108.7809083
720,West 3rd Street,59044,45.6711081,-108.7815629
202,8th Avenue,59044,45.6704776,-108.7822530
18,8th Avenue,59044,45.6690938,-108.7828792
817,West Main Street,59044,45.6686433,-108.7827986
808,West Main Street,59044,45.6679845,-108.7825523
20,South 8th Avenue,59044,45.6674948,-108.7823657
908,West Main Street,59044,45.6674208,-108.7842601
803,West 4th Street,59044,45.6726960,-108.7823160
807,West 4th Street,59044,45.6726933,-108.7825481
811,West 4th Street,59044,45.6726827,-108.7828088
815,West 4th Street,59044,45.6726526,-108.7830695
819,West 4th Street,59044,45.6726630,-108.7832971
831,West 4th Street,59044,45.6727739,-108.7837832
905,West 4th Street,59044,45.6726723,-108.7839909
939,West 4th Street,59044,45.6726635,-108.7844404
943,West 4th Street,59044,45.6726590,-108.7846667
502,8th Avenue,59044,45.6738658,-108.7827745
606,8th Avenue,59044,45.6747914,-108.7822978
610,8th Avenue,59044,45.6749910,-108.7823319
616,8th Avenue,59044,45.6752312,-108.7823126
802,West 7th Street,59044,45.6753766,-108.7823472
804,West 7th Street,59044,45.6753527,-108.7827420
806,West 7th Street,59044,45.6753531,-108.7830335
810,West 7th Street,59044,45.6752892,-108.7832348
812,West 7th Street,59044,45.6752388,-108.7835735
816,West 7th Street,59044,45.6752618,-108.7839646
901,West 6th Street,59044,45.6747587,-108.7838208
815,West 6th Street,59044,45.6747959,-108.7835013
811,West 6th Street,59044,45.6747968,-108.7832615
704,8th Avenue,59044,45.6756865,-108.7823421
1015,West 4th Street,59044,45.6727112,-108.7862409
1113,West 4th Street,59044,45.6728382,-108.7877428
712,8th Avenue,59044,45.6757970,-108.7833416
712,8th Avenue,59044,45.6757294,-108.7840870
712,8th Avenue,59044,45.6760446,-108.7838771
712,8th Avenue,59044,45.6760460,-108.7842951
712,8th Avenue,59044,45.6763618,-108.7839358
712,8th Avenue,59044,45.6762327,-108.7833368
712,8th Avenue,59044,45.6761024,-108.7827744
712,8th Avenue,59044,45.6763616,-108.7828078
712,8th Avenue,59044,45.6762320,-108.7822053
804,8th Avenue,59044,45.6766162,-108.7824812
808,8th Avenue,59044,45.6769153,-108.7824643
812,8th Avenue,59044,45.6772122,-108.7824633
802,West 9th Street,59044,45.6774599,-108.7823431
814,West 9th Street,59044,45.6774767,-108.7827344
1100,West 9th Street,59044,45.6763594,-108.7859460
820,West 9th Street,59044,45.6770398,-108.7839654
903,Casa Linda Circle,59044,45.6778530,-108.7823212
909,Casa Linda Circle,59044,45.6781017,-108.7824461
915,Casa Linda Circle,59044,45.6782812,-108.7822996
921,Casa Linda Circle,59044,45.6784892,-108.7824810
927,Casa Linda Circle,59044,45.6785643,-108.7827338
922,Casa Linda Circle,59044,45.6785056,-108.7830155
916,Casa Linda Circle,59044,45.6782677,-108.7830013
910,Casa Linda Circle,59044,45.6780529,-108.7829626
815,West 9th Street,59044,45.6778400,-108.7830822
905,10th Avenue,59044,45.6778335,-108.7836978
903,10th Avenue,59044,45.6776632,-108.7836419
907,10th Avenue,59044,45.6779629,-108.7836533
909,10th Avenue,59044,45.6781549,-108.7836764
911,10th Avenue,59044,45.6782927,-108.7836619
913,10th Avenue,59044,45.6784934,-108.7836901
915,10th Avenue,59044,45.6786415,-108.7836442
926,8th Avenue,59044,45.6787999,-108.7822775
919,10th Avenue,59044,45.6788549,-108.7828546
921,10th Avenue,59044,45.6790459,-108.7829282
924,10th Avenue,59044,45.6790524,-108.7835240
922,10th Avenue,59044,45.6790259,-108.7838230
920,10th Avenue,59044,45.6790179,-108.7840926
918,10th Avenue,59044,45.6789299,-108.7843142
916,10th Avenue,59044,45.6787397,-108.7842933
902,10th Avenue,59044,45.6776101,-108.7842317
904,10th Avenue,59044,45.6777554,-108.7843022
903,12th Avenue,59044,45.6776247,-108.7848854
905,12th Avenue,59044,45.6777785,-108.7848989
907,12th Avenue,59044,45.6779412,-108.7849073
909,12th Avenue,59044,45.6780983,-108.7848911
906,10th Avenue,59044,45.6779461,-108.7842888
908,10th Avenue,59044,45.6781000,-108.7843025
910,10th Avenue,59044,45.6782544,-108.7842513
911,12th Avenue,59044,45.6782688,-108.7848729
913,12th Avenue,59044,45.6784043,-108.7848530
915,12th Avenue,59044,45.6785732,-108.7849293
917,12th Avenue,59044,45.6787397,-108.7848181
912,10th Avenue,59044,45.6784438,-108.7842552
914,10th Avenue,59044,45.6785799,-108.7842744
902,12th Avenue,59044,45.6776352,-108.7855182
904,12th Avenue,59044,45.6777948,-108.7855257
906,12th Avenue,59044,45.6779675,-108.7855038
908,12th Avenue,59044,45.6781357,-108.7854866
910,12th Avenue,59044,45.6783053,-108.7855118
912,12th Avenue,59044,45.6785032,-108.7855447
914,12th Avenue,59044,45.6786468,-108.7855180
921,12th Avenue,59044,45.6790198,-108.7851266
923,12th Avenue,59044,45.6790472,-108.7853943
925,12th Avenue,59044,45.6790164,-108.7856340
927,12th Avenue,59044,45.6790285,-108.7861212
920,12th Avenue,59044,45.6788612,-108.7867643
922,12th Avenue,59044,45.6790678,-108.7867429
804,West Maryland Lane,59044,45.6793291,-108.7822451
810,West Maryland Lane,59044,45.6793537,-108.7826023
816,West Maryland Lane,59044,45.6793574,-108.7829383
902,West Maryland Lane,59044,45.6793601,-108.7833155
908,West Maryland Lane,59044,45.6793811,-108.7836585
912,West Maryland Lane,59044,45.6793961,-108.7839393
1002,West Maryland Lane,59044,45.6794024,-108.7842986
1008,West Maryland Lane,59044,45.6793940,-108.7846156
1014,West Maryland Lane,59044,45.6793818,-108.7849304
1102,West Maryland Lane,59044,45.6794017,-108.7852429
1106,West Maryland Lane,59044,45.6794083,-108.7855411
1114,West Maryland Lane,59044,45.6794090,-108.7861446
1110,West Maryland Lane,59044,45.6793915,-108.7858720
1202,West Maryland Lane,59044,45.6793924,-108.7868055
803,West Maryland Lane,59044,45.6797481,-108.7822951
1012,8th Avenue,59044,45.6799883,-108.7822280
1018,8th Avenue,59044,45.6802058,-108.7822284
1024,8th Avenue,59044,45.6803849,-108.7822092
1028,8th Avenue,59044,45.6805934,-108.7822068
1007,9th Avenue,59044,45.6797595,-108.7827571
1013,9th Avenue,59044,45.6799980,-108.7827581
1019,9th Avenue,59044,45.6802396,-108.7828190
1025,9th Avenue,59044,45.6804124,-108.7827907
1029,9th Avenue,59044,45.6806231,-108.7828172
1035,9th Avenue,59044,45.6808383,-108.7827911
1101,9th Avenue,59044,45.6810725,-108.7828143
1107,9th Avenue,59044,45.6812810,-108.7828153
1036,8th Avenue,59044,45.6808644,-108.7822734
1102,8th Avenue,59044,45.6810424,-108.7822705
1108,8th Avenue,59044,45.6812407,-108.7821996
1112,8th Avenue,59044,45.6814267,-108.7821933
1118,8th Avenue,59044,45.6816352,-108.7821997
1113,9th Avenue,59044,45.6814891,-108.7828118
1119,9th Avenue,59044,45.6816672,-108.7828102
1125,9th Avenue,59044,45.6819042,-108.7828125
1129,9th Avenue,59044,45.6820819,-108.7828076
1135,9th Avenue,59044,45.6822875,-108.7828559
810,West 12th Street,59044,45.6824933,-108.7827099
1138,8th Avenue,59044,45.6826202,-108.7822095
1134,8th Avenue,59044,45.6823491,-108.7822448
1128,8th Avenue,59044,45.6821027,-108.7822210
1124,8th Avenue,59044,45.6818753,-108.7822740
813,West 12th Street,59044,45.6826796,-108.7831666
819,West 12th Street,59044,45.6825383,-108.7835168
902,West 12th Street,59044,45.6821654,-108.7834469
1128,9th Avenue,59044,45.6819685,-108.7833344
1122,9th Avenue,59044,45.6817496,-108.7834067
1114,9th Avenue,59044,45.6815333,-108.7833760
1108,9th Avenue,59044,45.6813144,-108.7833423
1102,9th Avenue,59044,45.6810942,-108.7834038
1036,9th Avenue,59044,45.6809017,-108.7833671
1030,9th Avenue,59044,45.6806488,-108.7833993
1024,9th Avenue,59044,45.6804363,-108.7833730
903,West Maryland Lane,59044,45.6797663,-108.7834349
907,West Maryland Lane,59044,45.6797536,-108.7838360
1011,10th Avenue,59044,45.6799903,-108.7839067
1017,10th Avenue,59044,45.6802184,-108.7838895
1012,9th Avenue,59044,45.6800308,-108.7833442
1018,9th Avenue,59044,45.6802182,-108.7833601
1023,10th Avenue,59044,45.6804347,-108.7838821
1029,10th Avenue,59044,45.6806589,-108.7838973
1035,10th Avenue,59044,45.6808768,-108.7838584
1103,10th Avenue,59044,45.6810947,-108.7838528
1109,10th Avenue,59044,45.6812952,-108.7839018
1115,10th Avenue,59044,45.6815356,-108.7838905
1121,10th Avenue,59044,45.6817538,-108.7838489
1127,10th Avenue,59044,45.6820031,-108.7838667
903,West 12th Street,59044,45.6824388,-108.7838854
909,West 12th Street,59044,45.6824481,-108.7842458
1003,West 12th Street,59044,45.6824989,-108.7844883
1130,10th Avenue,59044,45.6820452,-108.7844330
1124,10th Avenue,59044,45.6818299,-108.7844585
1118,10th Avenue,59044,45.6816332,-108.7844573
1112,10th Avenue,59044,45.6813973,-108.7845042
1106,10th Avenue,59044,45.6811996,-108.7844895
1102,10th Avenue,59044,45.6810091,-108.7844909
1036,10th Avenue,59044,45.6808000,-108.7844604
1030,10th Avenue,59044,45.6806052,-108.7844734
1024,10th Avenue,59044,45.6803917,-108.7844478
1018,10th Avenue,59044,45.6801757,-108.7845113
1012,10th Avenue,59044,45.6799981,-108.7844869
1003,West Maryland Lane,59044,45.6797515,-108.7845400
1007,West Maryland Lane,59044,45.6797524,-108.7849711
1011,11th Avenue,59044,45.6799753,-108.7850228
1017,11th Avenue,59044,45.6801820,-108.7850248
1023,11th Avenue,59044,45.6803926,-108.7850354
1029,11th Avenue,59044,45.6805866,-108.7850121
1035,11th Avenue,59044,45.6807819,-108.7850422
1101,11th Avenue,59044,45.6810260,-108.7850468
1107,11th Avenue,59044,45.6811898,-108.7850466
1113,11th Avenue,59044,45.6814200,-108.7850151
1119,11th Avenue,59044,45.6816357,-108.7850422
1125,11th Avenue,59044,45.6818299,-108.7850241
1129,11th Avenue,59044,45.6820316,-108.7850016
1008,West 12th Street,59044,45.6822445,-108.7849834
1009,West 12th Street,59044,45.6825743,-108.7847921
1013,West 12th Street,59044,45.6826385,-108.7850816
1101,West 12th Street,59044,45.6826772,-108.7854308
1111,West 12th Street,59044,45.6826452,-108.7859744
1205,West 12th Street,59044,45.6826502,-108.7868921
1201,West 12th Street,59044,45.6826499,-108.7865860
1117,West 12th Street,59044,45.6826480,-108.7862610
1106,West 12th Street,59044,45.6822534,-108.7856567
1130,11th Avenue,59044,45.6820468,-108.7856178
1124,11th Avenue,59044,45.6818337,-108.7855670
1118,11th Avenue,59044,45.6816346,-108.7855756
1112,11th Avenue,59044,45.6814536,-108.7855893
1106,11th Avenue,59044,45.6812175,-108.7855813
1102,11th Avenue,59044,45.6810128,-108.7856118
1036,11th Avenue,59044,45.6808103,-108.7855692
1030,11th Avenue,59044,45.6806007,-108.7855795
1024,11th Avenue,59044,45.6803968,-108.7855747
1018,11th Avenue,59044,45.6801635,-108.7855735
1012,11th Avenue,59044,45.6800092,-108.7856186
1105,West Maryland Lane,59044,45.6797915,-108.7856216
1107,West Maryland Lane,59044,45.6797542,-108.7860966
1011,12th Avenue,59044,45.6799888,-108.7861869
1017,12th Avenue,59044,45.6801977,-108.7861435
1023,12th Avenue,59044,45.6803943,-108.7861546
1029,12th Avenue,59044,45.6806036,-108.7861841
1035,12th Avenue,59044,45.6808141,-108.7861365
1101,12th Avenue,59044,45.6810061,-108.7861724
1107,12th Avenue,59044,45.6812269,-108.7861338
1113,12th Avenue,59044,45.6814273,-108.7861496
1119,12th Avenue,59044,45.6816328,-108.7861342
1125,12th Avenue,59044,45.6818373,-108.7861680
1129,12th Avenue,59044,45.6820373,-108.7861439
1135,12th Avenue,59044,45.6822205,-108.7861328
1136,12th Avenue,59044,45.6822332,-108.7867290
1130,12th Avenue,59044,45.6820537,-108.7867425
1124,12th Avenue,59044,45.6818308,-108.7867447
1118,12th Avenue,59044,45.6816512,-108.7867313
1112,12th Avenue,59044,45.6814273,-108.7867029
1106,12th Avenue,59044,45.6811950,-108.7867349
1102,12th Avenue,59044,45.6810189,-108.7867184
1036,12th Avenue,59044,45.6808119,-108.7867471
1030,12th Avenue,59044,45.6806057,-108.7867065
1024,12th Avenue,59044,45.6804214,-108.7867079
1018,12th Avenue,59044,45.6801961,-108.7867301
1012,12th Avenue,59044,45.6799871,-108.7867034
1006,12th Avenue,59044,45.6797992,-108.7867595
1308,West Maryland Lane,59044,45.6794149,-108.7879945
1302,West Maryland Lane,59044,45.6794166,-108.7876892
1210,West Maryland Lane,59044,45.6794164,-108.7873127
1209,West Maryland Lane,59044,45.6797893,-108.7872468
1013,13th Avenue,59044,45.6800252,-108.7872970
1019,13th Avenue,59044,45.6802211,-108.7873193
1025,13th Avenue,59044,45.6804403,-108.7873171
1031,13th Avenue,59044,45.6806423,-108.7873207
1037,13th Avenue,59044,45.6808542,-108.7872924
1103,13th Avenue,59044,45.6810617,-108.7873091
1107,13th Avenue,59044,45.6812683,-108.7873140
1113,13th Avenue,59044,45.6814377,-108.7873174
1119,13th Avenue,59044,45.6816834,-108.7873103
1125,13th Avenue,59044,45.6818567,-108.7873068
1131,13th Avenue,59044,45.6821672,-108.7872384
1302,West 12th Street,59044,45.6822837,-108.7878363
1130,13th Avenue,59044,45.6820743,-108.7878238
1124,13th Avenue,59044,45.6818814,-108.7878740
1118,13th Avenue,59044,45.6816757,-108.7878664
1112,13th Avenue,59044,45.6814772,-108.7878564
1106,13th Avenue,59044,45.6812623,-108.7878510
1102,13th Avenue,59044,45.6810450,-108.7878458
1036,13th Avenue,59044,45.6808572,-108.7878473
1030,13th Avenue,59044,45.6806304,-108.7878698
1024,13th Avenue,59044,45.6804547,-108.7878590
1018,13th Avenue,59044,45.6802196,-108.7878829
1012,13th Avenue,59044,45.6800175,-108.7878667
1301,West Maryland Lane,59044,45.6798090,-108.7879444
1311,West Maryland Lane,59044,45.6798150,-108.7884825
1013,Ann's Place,59044,45.6800235,-108.7885145
1019,Ann's Place,59044,45.6802604,-108.7885354
1025,Ann's Place,59044,45.6804350,-108.7884347
1031,Ann's Place,59044,45.6806560,-108.7883504
1035,Ann's Place,59044,45.6808907,-108.7884255
1037,Ann's Place,59044,45.6809951,-108.7886742
1036,Ann's Place,59044,45.6808599,-108.7890022
1030,Ann's Place,59044,45.6806200,-108.7890608
1024,Ann's Place,59044,45.6804476,-108.7890292
1018,Ann's Place,59044,45.6802021,-108.7890573
1312,West Maryland Lane,59044,45.6794121,-108.7883493
1402,West Maryland Lane,59044,45.6793936,-108.7887832
1408,West Maryland Lane,59044,45.6793934,-108.7891330
1412,West Maryland Lane,59044,45.6794183,-108.7895927
1416,West Maryland Lane,59044,45.6794190,-108.7899311
1502,West Maryland Lane,59044,45.6793898,-108.7902995
1006,Betty Avenue,59044,45.6798358,-108.7902502
1020,Betty Avenue,59044,45.6800197,-108.7902840
1411,West Maryland Lane,59044,45.6797896,-108.7896059
1401,West Maryland Lane,59044,45.6798129,-108.7891417
1012,Ann's Place,59044,45.6800247,-108.7890842
1021,Betty Avenue,59044,45.6800645,-108.7896229
1022,Betty Avenue,59044,45.6801966,-108.7903626
1105,Cherry Hills Drive,59044,45.6811397,-108.7891977
1107,Cherry Hills Drive,59044,45.6814448,-108.7889671
1109,Cherry Hills Drive,59044,45.6813321,-108.7887147
1113,Cherry Hills Drive,59044,45.6816969,-108.7883557
1111,Cherry Hills Drive,59044,45.6815168,-108.7884215
1115,Cherry Hills Drive,59044,45.6819469,-108.7883915
1117,Cherry Hills Drive,59044,45.6819904,-108.7886826
1121,Cherry Hills Drive,59044,45.6824641,-108.7884189
1119,Cherry Hills Drive,59044,45.6822635,-108.7885601
1129,West 9th Street,59044,45.6777696,-108.7877059
101,West Railroad Street,59044,45.6680666,-108.7720465
102,South 1st Avenue,59044,45.6674213,-108.7718763
118,West Railroad Street,59044,45.6674538,-108.7723831
124,West Railroad Street,59044,45.6673003,-108.7729749
226,South 1st Avenue,59044,45.6664822,-108.7722834
216,South 1st Avenue,59044,45.6660531,-108.7722813
310,South 1st Avenue,59044,45.6657954,-108.7729742
306,South 1st Avenue,59044,45.6654891,-108.7718950
315,South 1st Avenue,59044,45.6656181,-108.7709346
119,Southeast 4th Street,59044,45.6655739,-108.7705682
309,South 1st Avenue,59044,45.6659545,-108.7704112
305,South 1st Avenue,59044,45.6660015,-108.7711463
411,South 1st Avenue,59044,45.6647405,-108.7707499
203,Southeast 4th Street,59044,45.6656636,-108.7695333
205,Southeast 4th Street,59044,45.6657295,-108.7690197
203,East Railroad Street,59044,45.6670082,-108.7685560
301,Southeast 4th Street,59044,45.6657525,-108.7682913
307,Southeast 4th Street,59044,45.6659679,-108.7674737
401,Southeast 4th Street,59044,45.6657278,-108.7669465
415,Southeast 4th Street,59044,45.6660681,-108.7660468
411,Southeast 4th Street,59044,45.6655463,-108.7661840
617,Southeast 4th Street,59044,45.6656175,-108.7646470
500,Southeast 4th Street,59044,45.6647027,-108.7657673
400,Southeast 4th Street,59044,45.6645186,-108.7669666
202,Southeast 4th Street,59044,45.6649056,-108.7686382
415,South 1st Avenue,59044,45.6644466,-108.7701386
312,South 1st Avenue,59044,45.6647670,-108.7719705
220,South 1st Avenue,59044,45.6658329,-108.7720754
1248,Beartooth Drive,59044,45.6841152,-108.7815057
1254,Beartooth Drive,59044,45.6843168,-108.7815570
1260,Beartooth Drive,59044,45.6845418,-108.7815486
1266,Beartooth Drive,59044,45.6847552,-108.7815472
1257,Beartooth Drive,59044,45.6845050,-108.7809387
710,West 13th Street,59044,45.6846540,-108.7808012
626,West 13th Street,59044,45.6846294,-108.7804156
618,West 13th Street,59044,45.6845733,-108.7799940
610,West 13th Street,59044,45.6845557,-108.7795890
602,West 13th Street,59044,45.6845792,-108.7792783
1304,Beartooth Drive,59044,45.6849785,-108.7815610
1310,Beartooth Drive,59044,45.6852085,-108.7815385
1316,Beartooth Drive,59044,45.6854419,-108.7815334
1322,Beartooth Drive,59044,45.6856744,-108.7815778
1328,Beartooth Drive,59044,45.6858753,-108.7815491
1334,Beartooth Drive,59044,45.6861243,-108.7815779
1305,Beartooth Drive,59044,45.6851460,-108.7809660
1313,Beartooth Drive,59044,45.6853748,-108.7809873
703,West 13th Street,59044,45.6850713,-108.7806288
605,West 13th Street,59044,45.6850236,-108.7802161
1304,Nez Perce Drive,59044,45.6852576,-108.7802042
1320,Nez Perce Drive,59044,45.6855116,-108.7802013
1326,Nez Perce Drive,59044,45.6857547,-108.7802399
713,Beartooth Circle,59044,45.6854757,-108.7805892
717,Beartooth Circle,59044,45.6858426,-108.7805374
719,Beartooth Circle,59044,45.6858931,-108.7809532
1333,Beartooth Drive,59044,45.6861079,-108.7809328
620,West 14th Street,59044,45.6861327,-108.7804186
1331,Nez Perce Drive,59044,45.6859176,-108.7798457
610,West 14th Street,59044,45.6861244,-108.7799023
1325,Nez Perce Drive,59044,45.6857280,-108.7795082
1305,Nez Perce Drive,59044,45.6854720,-108.7795489
1303,Nez Perce Drive,59044,45.6852539,-108.7795608
603,West 13th Street,59044,45.6850064,-108.7794873
601,West 13th Street,59044,45.6850935,-108.7790734
1310,Meadow Circle,59044,45.6854419,-108.7789979
1318,Meadow Circle,59044,45.6857519,-108.7790752
602,West 14th Street,59044,45.6861124,-108.7793940
1321,Meadow Circle,59044,45.6858891,-108.7786924
1305,Meadow Circle,59044,45.6851280,-108.7783242
1311,Meadow Circle,59044,45.6854564,-108.7783885
1319,Meadow Circle,59044,45.6857329,-108.7783630
501,West 13th Street,59044,45.6851756,-108.7779120
1310,5th Avenue,59044,45.6854295,-108.7778215
1316,5th Avenue,59044,45.6856650,-108.7778193
1322,5th Avenue,59044,45.6858982,-108.7778035
1328,5th Avenue,59044,45.6861152,-108.7778454
512,West 14th Street,59044,45.6861205,-108.7783578
520,West 14th Street,59044,45.6861355,-108.7787844
409,Grandview Boulevard,59044,45.6833876,-108.7771114
403,Grandview Boulevard,59044,45.6833943,-108.7764524
1208,4th Avenue,59044,45.6836427,-108.7763700
1214,4th Avenue,59044,45.6838733,-108.7763793
1215,5th Avenue,59044,45.6838460,-108.7771766
1219,5th Avenue,59044,45.6840696,-108.7772064
1209,5th Avenue,59044,45.6836315,-108.7771782
1220,4th Avenue,59044,45.6840761,-108.7763848
1226,4th Avenue,59044,45.6843071,-108.7763691
1232,4th Avenue,59044,45.6845528,-108.7764003
1238,4th Avenue,59044,45.6847915,-108.7763661
1237,5th Avenue,59044,45.6847766,-108.7771604
1231,5th Avenue,59044,45.6845633,-108.7771814
1225,5th Avenue,59044,45.6843109,-108.7771748
318,West 13th Street,59044,45.6847506,-108.7757354
312,West 13th Street,59044,45.6848515,-108.7755090
306,West 13th Street,59044,45.6849227,-108.7751834
304,West 13th Street,59044,45.6850057,-108.7748390
401,West 13th Street,59044,45.6851847,-108.7764371
1308,4th Avenue,59044,45.6853906,-108.7763839
1314,4th Avenue,59044,45.6856207,-108.7763687
1320,4th Avenue,59044,45.6858701,-108.7763968
1328,4th Avenue,59044,45.6861082,-108.7763944
1325,5th Avenue,59044,45.6860813,-108.7771142
1319,5th Avenue,59044,45.6858306,-108.7771964
1315,5th Avenue,59044,45.6855831,-108.7771841
1303,5th Avenue,59044,45.6852670,-108.7770780
411,West 14th Street,59044,45.6866251,-108.7772423
501,West 14th Street,59044,45.6866319,-108.7777935
513,West 14th Street,59044,45.6866636,-108.7783922
605,West 14th Street,59044,45.6865088,-108.7789775
1409,Beartooth Drive,59044,45.6867396,-108.7791216
1415,Beartooth Drive,59044,45.6870088,-108.7791136
1406,Beartooth Drive,59044,45.6865371,-108.7797475
1412,Beartooth Drive,59044,45.6867589,-108.7797460
1416,Beartooth Drive,59044,45.6869885,-108.7797192
1420,Beartooth Drive,59044,45.6871919,-108.7797278
1405,Willow Drive,59044,45.6865377,-108.7803069
1411,Willow Drive,59044,45.6867599,-108.7803627
1419,Willow Drive,59044,45.6872231,-108.7803109
1423,Willow Drive,59044,45.6872653,-108.7807863
1425,Willow Drive,59044,45.6872295,-108.7810587
1422,Willow Drive,59044,45.6870782,-108.7816044
1418,Willow Drive,59044,45.6868668,-108.7815809
1414,Willow Drive,59044,45.6868439,-108.7809798
705,West 14th Street,59044,45.6865321,-108.7809648
713,West 14th Street,59044,45.6865289,-108.7813388
721,West 14th Street,59044,45.6865171,-108.7816913
603,West Railroad Street,59044,45.6660747,-108.7798503
205,South 8th Avenue,59044,45.6652074,-108.7814799
205 1/2,South 8th Avenue,59044,45.6653779,-108.7812117
202,West Avenue,59044,45.6654453,-108.7807444
208,West Avenue,59044,45.6652037,-108.7807345
212,West Avenue,59044,45.6650854,-108.7808226
214,West Avenue,59044,45.6649065,-108.7807328
222,West Avenue,59044,45.6647156,-108.7807947
218,West Avenue,59044,45.6647994,-108.7807842
219,West Avenue,59044,45.6647642,-108.7802409
213,West Avenue,59044,45.6649477,-108.7802333
209,West Avenue,59044,45.6650844,-108.7802248
205,West Avenue,59044,45.6652542,-108.7802182
201,West Avenue,59044,45.6654341,-108.7802452
220,Forrest Avenue,59044,45.6647299,-108.7795099
212,Forrest Avenue,59044,45.6650615,-108.7794978
208,Forrest Avenue,59044,45.6652021,-108.7795144
216,Forrest Avenue,59044,45.6648403,-108.7795292
206,Forrest Avenue,59044,45.6653228,-108.7795307
202,Forrest Avenue,59044,45.6654589,-108.7795323
120,Forrest Avenue,59044,45.6657261,-108.7795179
320,West Avenue,59044,45.6637845,-108.7807471
310,West Avenue,59044,45.6639576,-108.7807615
308,West Avenue,59044,45.6641401,-108.7807660
304,West Avenue,59044,45.6642837,-108.7807596
302,West Avenue,59044,45.6644601,-108.7808066
319,West Avenue,59044,45.6637496,-108.7802045
315,West Avenue,59044,45.6639425,-108.7802135
309,West Avenue,59044,45.6641293,-108.7802152
303,West Avenue,59044,45.6642881,-108.7802183
301,West Avenue,59044,45.6644574,-108.7802044
402,West Avenue,59044,45.6634681,-108.7807842
406,West Avenue,59044,45.6632700,-108.7808507
720,South 4th Street,59044,45.6633952,-108.7814619
420,West Avenue,59044,45.6627788,-108.7807458
416,West Avenue,59044,45.6629400,-108.7807399
412,West Avenue,59044,45.6631081,-108.7807486
419,West Avenue,59044,45.6627703,-108.7801695
415,West Avenue,59044,45.6629383,-108.7802113
413,West Avenue,59044,45.6630639,-108.7802226
411,West Avenue,59044,45.6631941,-108.7802038
405,West Avenue,59044,45.6633238,-108.7801760
401,West Avenue,59044,45.6634564,-108.7802270
606,South 5th Street,59044,45.6619291,-108.7794638
420,Forrest Avenue,59044,45.6628089,-108.7794985
418,Forrest Avenue,59044,45.6629802,-108.7794799
410,Forrest Avenue,59044,45.6631778,-108.7794906
406,Forrest Avenue,59044,45.6633182,-108.7794337
402,Forrest Avenue,59044,45.6634640,-108.7794796
320,Forrest Avenue,59044,45.6637507,-108.7794926
316,Forrest Avenue,59044,45.6638535,-108.7795115
314,Forrest Avenue,59044,45.6639814,-108.7795217
310,Forrest Avenue,59044,45.6641252,-108.7795389
308,Forrest Avenue,59044,45.6642618,-108.7795041
304,Forrest Avenue,59044,45.6643782,-108.7795110
302,Forrest Avenue,59044,45.6644761,-108.7794993
109,Forrest Avenue,59044,45.6657307,-108.7789912
107,Forrest Avenue,59044,45.6658978,-108.7789508
112,Durland Avenue,59044,45.6657208,-108.7782612
110,Durland Avenue,59044,45.6658740,-108.7782755
108,Durland Avenue,59044,45.6659627,-108.7782740
204,Durland Avenue,59044,45.6652824,-108.7782914
202,Durland Avenue,59044,45.6654375,-108.7783050
201,Forrest Avenue,59044,45.6654516,-108.7790005
207,Forrest Avenue,59044,45.6652211,-108.7790044
209,Forrest Avenue,59044,45.6651317,-108.7789778
213,Forrest Avenue,59044,45.6649732,-108.7789510
212,Durland Avenue,59044,45.6650615,-108.7782957
214,Durland Avenue,59044,45.6648934,-108.7782495
218,Durland Avenue,59044,45.6647598,-108.7782486
218 1/2,Durland Avenue,59044,45.6647246,-108.7784817
219,Forrest Avenue,59044,45.6647418,-108.7789666
215,Forrest Avenue,59044,45.6648787,-108.7789581
301,Forrest Avenue,59044,45.6644637,-108.7789936
305,Forrest Avenue,59044,45.6643356,-108.7790019
307,Forrest Avenue,59044,45.6642293,-108.7789887
309,Forrest Avenue,59044,45.6641280,-108.7789848
313,Forrest Avenue,59044,45.6639977,-108.7789958
315,Forrest Avenue,59044,45.6638775,-108.7789084
319,Forrest Avenue,59044,45.6637706,-108.7789795
616,South 4th Street,59044,45.6634344,-108.7789396
407,Forrest Avenue,59044,45.6632491,-108.7789503
409,Forrest Avenue,59044,45.6631524,-108.7789655
413,Forrest Avenue,59044,45.6630160,-108.7789085
419,Forrest Avenue,59044,45.6628100,-108.7789611
416,Durland Avenue,59044,45.6629375,-108.7782232
410,Durland Avenue,59044,45.6630842,-108.7782818
406,Durland Avenue,59044,45.6632580,-108.7782378
606,South 4th Street,59044,45.6634495,-108.7782869
320,Durland Avenue,59044,45.6637566,-108.7782295
316,Durland Avenue,59044,45.6639593,-108.7782267
314,Durland Avenue,59044,45.6641480,-108.7782427
306,Durland Avenue,59044,45.6643235,-108.7782447
302,Durland Avenue,59044,45.6644463,-108.7782528
420,Durland Avenue,59044,45.6627646,-108.7782140
419,Durland Avenue,59044,45.6627517,-108.7777607
415,Durland Avenue,59044,45.6628539,-108.7777743
413,Durland Avenue,59044,45.6630035,-108.7777423
409,Durland Avenue,59044,45.6631639,-108.7777413
401,Durland Avenue,59044,45.6634252,-108.7776685
319,Durland Avenue,59044,45.6637739,-108.7777243
315,Durland Avenue,59044,45.6638970,-108.7777587
313,Durland Avenue,59044,45.6640086,-108.7776395
309,Durland Avenue,59044,45.6641527,-108.7777164
305,Durland Avenue,59044,45.6642447,-108.7777368
307,Durland Avenue,59044,45.6643248,-108.7776871
301,Durland Avenue,59044,45.6644475,-108.7776511
320,Yellowstone Avenue,59044,45.6637609,-108.7769268
312,Yellowstone Avenue,59044,45.6640244,-108.7769344
310,Yellowstone Avenue,59044,45.6641788,-108.7769208
306,Yellowstone Avenue,59044,45.6644646,-108.7769446
219,Durland Avenue,59044,45.6647461,-108.7777442
217,Durland Avenue,59044,45.6648716,-108.7777366
213,Durland Avenue,59044,45.6649927,-108.7777162
209,Durland Avenue,59044,45.6651203,-108.7777376
205,Durland Avenue,59044,45.6653041,-108.7777859
201,Durland Avenue,59044,45.6654398,-108.7777568
205 1/2,Durland Avenue,59044,45.6653070,-108.7775191
220,Yellowstone Avenue,59044,45.6647662,-108.7769578
216,Yellowstone Avenue,59044,45.6649396,-108.7769401
210,Yellowstone Avenue,59044,45.6650632,-108.7769693
202,Yellowstone Avenue,59044,45.6654391,-108.7769503
412 1/2,Yellowstone Avenue,59044,45.6630232,-108.7772131
420,Yellowstone Avenue,59044,45.6627740,-108.7769453
416,Yellowstone Avenue,59044,45.6628992,-108.7769179
412,Yellowstone Avenue,59044,45.6630770,-108.7769365
410,Yellowstone Avenue,59044,45.6631914,-108.7768819
406,Yellowstone Avenue,59044,45.6633244,-108.7769372
402,Yellowstone Avenue,59044,45.6634807,-108.7769047
206,Yellowstone Avenue,59044,45.6652850,-108.7769555
120,Yellowstone Avenue,59044,45.6657661,-108.7769604
116,Yellowstone Avenue,59044,45.6659172,-108.7769263
115,Durland Avenue,59044,45.6657500,-108.7777469
111,Durland Avenue,59044,45.6658574,-108.7777521
107,Durland Avenue,59044,45.6659674,-108.7777378
105,Durland Avenue,59044,45.6661182,-108.7777664
101,Durland Avenue,59044,45.6662168,-108.7777217
110,Yellowstone Avenue,59044,45.6661286,-108.7769549
106,Yellowstone Avenue,59044,45.6662341,-108.7769384
102,Yellowstone Avenue,59044,45.6664064,-108.7769594
507,Yellowstone Avenue,59044,45.6621189,-108.7762697
501,Yellowstone Avenue,59044,45.6624740,-108.7763087
420,Woodland Avenue,59044,45.6628171,-108.7754918
402,South 4th Street,59044,45.6634565,-108.7755895
408,Woodland Avenue,59044,45.6632969,-108.7755456
410,Woodland Avenue,59044,45.6631059,-108.7755579
421,Yellowstone Avenue,59044,45.6628737,-108.7762326
409,Yellowstone Avenue,59044,45.6631807,-108.7763997
405,Yellowstone Avenue,59044,45.6633346,-108.7763988
401,Yellowstone Avenue,59044,45.6634834,-108.7763767
320,Woodland Avenue,59044,45.6637622,-108.7755350
314,Woodland Avenue,59044,45.6639462,-108.7755011
319,Yellowstone Avenue,59044,45.6637968,-108.7763726
315,Yellowstone Avenue,59044,45.6639770,-108.7764116
311,Yellowstone Avenue,59044,45.6641370,-108.7763963
309,Yellowstone Avenue,59044,45.6643012,-108.7763885
301,Yellowstone Avenue,59044,45.6644440,-108.7764231
310,South 3rd Street,59044,45.6644880,-108.7761043
306,Woodland Avenue,59044,45.6642706,-108.7755230
302,Woodland Avenue,59044,45.6644649,-108.7755620
310,Woodland Avenue,59044,45.6641240,-108.7754836
220,Woodland Avenue,59044,45.6647526,-108.7757158
219,Yellowstone Avenue,59044,45.6648299,-108.7762460
216,Woodland Avenue,59044,45.6649009,-108.7755127
211,Yellowstone Avenue,59044,45.6650348,-108.7763950
207,Yellowstone Avenue,59044,45.6651907,-108.7763931
201,Yellowstone Avenue,59044,45.6654101,-108.7764054
212,Woodland Avenue,59044,45.6650585,-108.7754884
208,Woodland Avenue,59044,45.6651871,-108.7755243
206,Woodland Avenue,59044,45.6653250,-108.7755034
202,Woodland Avenue,59044,45.6654774,-108.7755129
119,Yellowstone Avenue,59044,45.6657667,-108.7763712
117,Yellowstone Avenue,59044,45.6659100,-108.7763564
111,Yellowstone Avenue,59044,45.6660619,-108.7764071
114,Woodland Avenue,59044,45.6659324,-108.7755131
110,Woodland Avenue,59044,45.6660554,-108.7756753
108,Woodland Avenue,59044,45.6661704,-108.7755196
103,Yellowstone Avenue,59044,45.6664253,-108.7763662
101,Yellowstone Avenue,59044,45.6665460,-108.7763303
302,South 5th Street,59044,45.6624492,-108.7740898
420,Cedar Avenue,59044,45.6628060,-108.7741717
416,Cedar Avenue,59044,45.6629726,-108.7742264
410,Cedar Avenue,59044,45.6631563,-108.7741759
406,Cedar Avenue,59044,45.6632826,-108.7742201
419,Woodland Avenue,59044,45.6628348,-108.7749560
411,Woodland Avenue,59044,45.6630135,-108.7749678
407,Woodland Avenue,59044,45.6632273,-108.7749926
401,Woodland Avenue,59044,45.6634723,-108.7749805
402,Cedar Avenue,59044,45.6634732,-108.7741466
307,South 4th Street,59044,45.6637960,-108.7742183
316,Cedar Avenue,59044,45.6639584,-108.7742608
304,Cedar Avenue,59044,45.6644530,-108.7742634
315,Woodland Avenue,59044,45.6639699,-108.7749695
309,Woodland Avenue,59044,45.6641462,-108.7749999
305,Woodland Avenue,59044,45.6642869,-108.7749957
301 1/2,Woodland Avenue,59044,45.6644222,-108.7748031
301,Woodland Avenue,59044,45.6644878,-108.7750113
219,Woodland Avenue,59044,45.6647714,-108.7750186
215,Woodland Avenue,59044,45.6649515,-108.7749777
201 1/2,Woodland Avenue,59044,45.6654314,-108.7747608
201,Woodland Avenue,59044,45.6654704,-108.7750571
117,Woodland Avenue,59044,45.6657942,-108.7750445
115,Woodland Avenue,59044,45.6659147,-108.7750074
109,Woodland Avenue,59044,45.6660805,-108.7749572
105,Woodland Avenue,59044,45.6662622,-108.7749356
103,Woodland Avenue,59044,45.6663967,-108.7750357
120,Cedar Avenue,59044,45.6658148,-108.7743894
204,Cedar Avenue,59044,45.6654226,-108.7742679
210,Cedar Avenue,59044,45.6651574,-108.7742980
214,Cedar Avenue,59044,45.6649470,-108.7742635
419,Cedar Avenue,59044,45.6628350,-108.7735603
415,Cedar Avenue,59044,45.6629829,-108.7735440
411,Cedar Avenue,59044,45.6631399,-108.7735299
405,Cedar Avenue,59044,45.6633053,-108.7735846
401,Cedar Avenue,59044,45.6634655,-108.7735971
420,Maple Avenue,59044,45.6628145,-108.7727604
416,Maple Avenue,59044,45.6630828,-108.7727912
410,Maple Avenue,59044,45.6632984,-108.7727594
402,Maple Avenue,59044,45.6634568,-108.7727129
207,South 4th Street,59044,45.6638649,-108.7729283
312,Maple Avenue,59044,45.6641520,-108.7728236
301,Cedar Avenue,59044,45.6646863,-108.7734411
207 1/2,South 4th Street,59044,45.6645120,-108.7728690
101,South 4th Street,59044,45.6638377,-108.7721781
409,Maple Avenue,59044,45.6632017,-108.7721811
410,South 1st Avenue,59044,45.6632164,-108.7718441
419,Maple Avenue,59044,45.6628527,-108.7721826
420,South 1st Avenue,59044,45.6628471,-108.7717756
417,South 1st Avenue,59044,45.6629351,-108.7712739
419,South 1st Avenue,59044,45.6627014,-108.7713044
620,Southeast 4th Street,59044,45.6649971,-108.7635423
633,Southeast 4th Street,59044,45.6655979,-108.7635586
210 1/2,South Washington Avenue,59044,45.6670200,-108.7648280
600,East Railroad Street,59044,45.6681277,-108.7653045
607,East Railroad Street,59044,45.6688982,-108.7655417
706,Southeast 4th Street,59044,45.6649446,-108.7621539
219,South Washington Avenue,59044,45.6668589,-108.7627469
205,South Washington Avenue,59044,45.6671872,-108.7626764
119,South Washington Avenue,59044,45.6678483,-108.7625182
321,Bernhardt Road,59044,45.6655288,-108.7605889
211,Bernhardt Road,59044,45.6663458,-108.7608898
101,Bernhardt Road,59044,45.6674903,-108.7591257
1202,East Railroad Street,59044,45.6674056,-108.7548940
1210,East Railroad Street,59044,45.6671556,-108.7540958
1410,East Railroad Street,59044,45.6675011,-108.7514552
