House number,Street name,Postal code,Latitude,Longitude
405,University Avenue,59801,46.8597939,-113.9919176
102,Mc Leod Avenue,59801,46.8593118,-113.9971650
202,Brooks Street,59801,46.8618514,-113.9983240
4616,Gharrett Street,59803,46.8299255,-114.0418422
5425,Gharrett Street,59803,46.8207939,-114.0434120
2651,South Avenue West,59804,46.8480908,-114.0453825
1301,East Broadway Street,59802,46.8639883,-113.9739605
500,West Broadway Street,59807,46.8745710,-114.0001816
2815,Old Fort Road,59804,46.8468502,-114.0449771
1600,South 3rd Street West,59801,46.8676559,-114.0203150
223,West Broadway St,59802,46.8726692,-113.9965225
602,Myrtle Street,59801,46.8655785,-113.9987260
201,North Higgins Avenue,59801,46.8714127,-113.9947089
211,North Higgins Avenue,59801,46.8715397,-113.9946235
223,North Higgins Avenue,59801,46.8720832,-113.9951195
206,West Main Street,59802,46.8718073,-113.9962667
136,East Broadway Street,59802,46.8718987,-113.9927110
2615,Connery Way,59808,46.8899973,-114.0470225
2205,Oxford Street,59801,46.8510311,-114.0178037
5055,North Reserve Street,59808,46.9122654,-114.0352152
3015,Paxson Street,59801,46.8430219,-114.0313330
5450,Momont Road,59808,46.9228876,-114.0792920
4620,Expressway Road,59808,46.9145590,-114.0609192
231,West Front Street,59802,46.8709917,-113.9973025
1507,Montana Street,59801,46.8725436,-114.0201837
229,East Front Street,59802,46.8694278,-113.9927957
128,West Alder Street,59802,46.8754459,-113.9930974
701,Orange Street,59801,46.8642527,-114.0040896
428,North Higgins Avenue,59802,46.8737134,-113.9927410
4950,North Reserve Street,59808,46.9113244,-114.0341470
2995,North Reserve Street,59808,46.8923125,-114.0398724
2995,North Reserve Street,59808,46.8921698,-114.0398590
208,North Higgins Avenue,59802,46.8713488,-113.9942562
214,North Higgins Avenue,59802,46.8714141,-113.9942310
201,East Front Street,59802,46.8696243,-113.9936974
304,North Higgins Avenue,59802,46.8722770,-113.9936860
304,North Higgins Avenue,59802,46.8722217,-113.9933950
2300,West Broadway Street,59808,46.8862029,-114.0253968
1130,West Broadway Street,59802,46.8772115,-114.0095911
425,North 5th Street West,59802,46.8802163,-113.9940504
425,North 5th Street West,59802,46.8801522,-113.9941639
425,North 5th Street West,59802,46.8800643,-113.9942488
314,North 1st Street West,59802,46.8776613,-113.9942488
306,West Railroad Street,59802,46.8767587,-113.9946362
306,West Railroad Street,59802,46.8768873,-113.9949387
306,West Railroad Street,59802,46.8769168,-113.9949975
306,West Railroad Street,59802,46.8770295,-113.9952221
306,West Railroad Street,59802,46.8770612,-113.9952851
306,West Railroad Street,59802,46.8771811,-113.9955240
306,West Railroad Street,59802,46.8772083,-113.9955782
306,West Railroad Street,59802,46.8772299,-113.9955560
306,West Railroad Street,59802,46.8767869,-113.9946017
201,West Railroad Street,59802,46.8758301,-113.9937714
400,West Broadway Street,59802,46.8736778,-113.9987230
400,West Broadway Street,59802,46.8736422,-113.9986008
400,West Broadway Street,59802,46.8736271,-113.9985368
400,West Broadway Street,59802,46.8736071,-113.9984640
101,West Alder Street,59802,46.8752237,-113.9923321
101,West Alder Street,59802,46.8752665,-113.9925999
101,West Railroad Street,59820,46.8754076,-113.9924950
420,North Higgins Avenue,59802,46.8733122,-113.9928360
1450,Cedar Street,59802,46.8773947,-114.0173238
420,North Higgins Avenue,59802,46.8732257,-113.9925663
420,North Higgins Avenue,59802,46.8732494,-113.9926555
428,North Higgins Avenue,59802,46.8736475,-113.9927852
129,West Front Street,59802,46.8703294,-113.9962218
114,North Higgins Avenue,59802,46.8704937,-113.9947752
241,West Main Street,59802,46.8718367,-113.9974570
130,W Pine St,59802,46.8736756,-113.9942158
525,North Higgins Avenue,59802,46.8748906,-113.9925920
3662,Brooks Avenue,59801,46.8358372,-114.0378986
3624,Brooks Street,59801,46.8371989,-114.0362685
3306,Brooks Street,59801,46.8403034,-114.0292599
3100,Brooks Street,59801,46.8422831,-114.0268479
2501,Brooks Street,59801,46.8479822,-114.0215221
2301,Brooks Street,59801-7959,46.8502990,-114.0178353
2307,Stephens Avenue,59801,46.8494881,-114.0133310
1900,Brooks Street,59801,46.8519169,-114.0109900
2850,North Reserve Street,59808,46.8910658,-114.0367675
2850,North Reserve Street,59808-1318,46.8913824,-114.0367610
3275,North Reserve Street,59808,46.8949167,-114.0411695
3275,North Reserve Street,59808,46.8953284,-114.0411740
3275,North Reserve Street,59808,46.8960533,-114.0410167
903,East Broadway Street,59802,46.8679664,-113.9828121
905,East Broadway Street,59802,46.8679256,-113.9825916
1003,East Broadway Street,59802,46.8677171,-113.9816769
1003,East Broadway Street,59802,46.8676222,-113.9812200
1000,East Broadway Street,59802,46.8682162,-113.9801789
915,Toole Ave,59802,46.8777536,-114.0038930
736,South Higgins Avenue,59801,46.8643000,-113.9972060
447,Hill Street,59801,46.8571693,-113.9980199
217,Tremont Street,59801,46.8622175,-114.0014622
301,South 6th Street West,59801,46.8638500,-114.0007897
1345,Broadway,59802,46.8777338,-114.0151390
432,West Spruce Street,59802,46.8758199,-113.9978807
432,West Spruce Street,59802,46.8758581,-113.9980120
125,North Pattee Street,59802,46.8699452,-113.9940290
812,Toole Avenue,59802,46.8781691,-114.0019810
812,Toole Avenue,59802,46.8781674,-114.0020887
812,Toole Avenue,59801,46.8781685,-114.0022265
812,Toole Avenue,59801,46.8781690,-114.0023861
812,Toole Avenue,59801,46.8781700,-114.0025620
3450,Tina Avenue,59808,46.8966295,-114.0423180
4901,N.Reserve Street,59808,46.9108238,-114.0360190
235,South 5th Street West,59801,46.8646748,-113.9993328
129,North Higgins Avenue,59802,46.8709484,-113.9950490
690,Southwest Higgins Avenue,59801,46.8377541,-114.0089353
199,West Pine Street,59802,46.8735069,-113.9952320
225,West Broadway Street,59802,46.8728460,-113.9968710
801,East Broadway Street,59802,46.8687192,-113.9840687
801,East Broadway Street,59802,46.8688500,-113.9840017
875,Wyoming Street,59801,46.8659423,-114.0080656
945,Wyoming Street,59801,46.8717176,-114.0099469
2315,"McDonald Ave, Suite 310",59801,46.8394614,-114.0348430
1035,Ronan Street,59801,46.8596693,-114.0183070
5145,Airway Blvd,59808,46.9210515,-114.0713560
312,North Higgins Avenue,59802,46.8724281,-113.9935777
314,North Higgins Avenue,59802,46.8724771,-113.9935447
945,Wyoming Street,59801,46.8713727,-114.0103850
205,Hickory Street,59801,46.8692950,-114.0078386
2880,North Reserve Street,59808,46.8910476,-114.0386408
300,East Main Street,59802,46.8704973,-113.9910988
2531,Eaton Street,59801,46.8524146,-114.0342420
1012,West Pine Street,59802,46.8773770,-114.0069246
3302,North Hallmark Lane,59801,46.8401182,-114.0089020
951,Ronald Avenue,59801,46.8624537,-113.9945245
1101,Arthur Avenue,59801,46.8607033,-113.9894795
951,Ronald Avenue,59801,46.8624681,-113.9944078
951,Ronald Avenue,59801,46.8622219,-113.9944313
951,Ronald Avenue,59801,46.8622178,-113.9947950
243,Eddy Avenue,59801,46.8626936,-113.9947442
815,Ronald Avenue,59801,46.8635814,-113.9944646
951,Ronald Avenue,59801,46.8622191,-113.9945219
540,Connell Avenue,59801,46.8622777,-113.9895114
951,Ronald Avenue,59801,46.8623094,-113.9947435
440,Daly Avenue,59801,46.8612706,-113.9911593
951,Ronald Avenue,59801,46.8623093,-113.9947996
525,South 6th Street East,59801,46.8638036,-113.9900824
400,University Avenue,59801,46.8603251,-113.9922531
235,South 6th Street East,59801,46.8637899,-113.9947333
263,Eddy Avenue,59801,46.8626058,-113.9944468
951,Ronald Avenue,59801,46.8622194,-113.9946269
951,Ronald Avenue,59801,46.8622173,-113.9948752
813,Ronald Avenue,59801,46.8636374,-113.9944609
231,South 6th Street East,59801,46.8637819,-113.9948862
225,Eddy Avenue,59801,46.8626701,-113.9952485
100,Daly Avenue,59801,46.8612457,-113.9971667
201,Eddy Avenue,59801,46.8628110,-113.9954826
1420,Ronald Avenue,59801,46.8575131,-113.9939008
951,Ronald Avenue,59801,46.8622167,-113.9949221
951,Ronald Avenue,59801,46.8623080,-113.9944118
403,Eddy Avenue,59801,46.8628230,-113.9922491
902,Hilda Avenue,59801,46.8627424,-113.9923092
539,Daly Avenue,59801,46.8608378,-113.9895729
951,Ronald Avenue,59801,46.8623099,-113.9948806
439,Eddy Avenue,59801,46.8628078,-113.9911820
1105,Arthur Avenue,59801,46.8606685,-113.9895018
241,South 6th Street East,59801,46.8637971,-113.9944595
402,University Avenue,59801,46.8602785,-113.9922489
951,Ronald Avenue,59801,46.8623100,-113.9946358
800,Ronald Avenue,59801,46.8638038,-113.9939072
333,Eddy Avenue,59801,46.8628121,-113.9931028
251,Eddy Avenue,59801,46.8627869,-113.9946384
540,Daly Avenue,59801,46.8612921,-113.9895137
404,McLeod Avenue,59801,46.8593281,-113.9920051
236,Eddy Avenue,59801,46.8632101,-113.9944814
951,Ronald Avenue,59801,46.8622201,-113.9943868
341,Keith Avenue,59801,46.8578300,-113.9928164
906,Hilda Avenue,59801,46.8626645,-113.9922212
951,Ronald Avenue,59801,46.8624530,-113.9945570
304,Daly Avenue,59801,46.8613000,-113.9938548
811,Hilda Avenue,59801,46.8637115,-113.9928994
527,Daly Avenue,59801,46.8606933,-113.9897520
245,Eddy Avenue,59801,46.8627512,-113.9948256
436,Daly Avenue,59801,46.8613168,-113.9912439
407,South 6th Street East,59801,46.8638158,-113.9922132
261,Eddy Avenue,59801,46.8626920,-113.9944540
951,Ronald Avenue,59801,46.8622192,-113.9946156
951,Ronald Avenue,59801,46.8623091,-113.9946118
951,Ronald Avenue,59801,46.8623237,-113.9943762
803,Gerald Avenue,59801,46.8637961,-113.9962985
203,Eddy Avenue,59801,46.8627046,-113.9954714
239,South 6th Street East,59801,46.8637941,-113.9945365
951,Ronald Avenue,59801,46.8622197,-113.9945576
211,Eddy Avenue,59801,46.8628321,-113.9952266
951,Ronald Avenue,59801,46.8623026,-113.9943896
435,University Avenue,59801,46.8598634,-113.9914456
951,Ronald Avenue,59801,46.8624181,-113.9944127
951,Ronald Avenue,59801,46.8623095,-113.9948923
405,South 6th Street East,59801,46.8638167,-113.9922857
951,Ronald Avenue,59801,46.8624529,-113.9945153
221,Eddy Avenue,59801,46.8627124,-113.9952521
247,Eddy Avenue,59801,46.8626410,-113.9947400
517,South 6th Street East,59801,46.8637972,-113.9901494
329,McLeod Avenue,59801,46.8588635,-113.9932443
951,Ronald Avenue,59801,46.8623086,-113.9949453
1221,Helen Avenue,59801,46.8595056,-113.9910673
237,South 6th Street East,59801,46.8637928,-113.9946342
951,Ronald Avenue,59801,46.8622183,-113.9946403
102,Daly Avenue,59801,46.8612554,-113.9970172
207,Eddy Avenue,59801,46.8627051,-113.9954176
951,Ronald Avenue,59801,46.8622169,-113.9948877
343,Keith Avenue,59801,46.8577864,-113.9928237
951,Ronald Avenue,59801,46.8623331,-113.9945421
951,Ronald Avenue,59801,46.8622185,-113.9947834
951,Ronald Avenue,59801,46.8622175,-113.9948168
951,Ronald Avenue,59801,46.8623098,-113.9947553
253,Eddy Avenue,59801,46.8628142,-113.9945250
951,Ronald Avenue,59801,46.8623096,-113.9949041
951,Ronald Avenue,59801,46.8623099,-113.9947305
951,Ronald Avenue,59801,46.8623078,-113.9946234
1223,Helen Avenue,59801,46.8594086,-113.9911983
335,Eddy Avenue,59801,46.8628178,-113.9930302
951,Ronald Avenue,59801,46.8622158,-113.9948985
537,Daly Avenue,59801,46.8607981,-113.9895782
951,Ronald Avenue,59801,46.8624439,-113.9943771
951,Ronald Avenue,59801,46.8622172,-113.9947715
951,Ronald Avenue,59801,46.8623682,-113.9945364
827,Ronald Avenue,59801,46.8633065,-113.9944687
951,Ronald Avenue,59801,46.8622209,-113.9943743
437,University Avenue,59801,46.8598700,-113.9913835
536,Connell Avenue,59801,46.8622650,-113.9896775
802,Ronald Avenue,59801,46.8637063,-113.9939095
813,Hilda Avenue,59801,46.8636598,-113.9929035
437,Eddy Avenue,59801,46.8628094,-113.9912510
327,McLeod Avenue,59801,46.8588608,-113.9933372
951,Ronald Avenue,59801,46.8624383,-113.9945519
951,Ronald Avenue,59801,46.8623680,-113.9945568
1010,Ronald Avenue,59801,46.8614503,-113.9938528
233,South 6th Street East,59801,46.8637870,-113.9948090
525,Daly Avenue,59801,46.8607993,-113.9897419
255,Eddy Avenue,59801,46.8628271,-113.9946360
265,Eddy Avenue,59801,46.8626906,-113.9945284
205,Eddy Avenue,59801,46.8628072,-113.9954336
215,Eddy Avenue,59801,46.8627998,-113.9952285
951,Ronald Avenue,59801,46.8622186,-113.9945101
223,Eddy Avenue,59801,46.8627119,-113.9951455
1023,Arthur Avenue,59801,46.8613829,-113.9894945
951,Ronald Avenue,59801,46.8624077,-113.9943893
241,Eddy Avenue,59801,46.8627537,-113.9947823
951,Ronald Avenue,59801,46.8623096,-113.9946679
220,Daly Avenue,59801,46.8612944,-113.9950836
267,Eddy Avenue,59801,46.8626052,-113.9945430
951,Ronald Avenue,59801,46.8622767,-113.9943879
406,McLeod Avenue,59801,46.8594766,-113.9919441
904,Hilda Avenue,59801,46.8626831,-113.9923125
951,Ronald Avenue,59801,46.8622189,-113.9946856
622,Maurice Avenue,59801,46.8488931,-113.9865249
321,Bannack Court,59801,46.8506855,-113.9865518
928,Rimini Court,59801,46.8481646,-113.9884730
307,Bannack Court,59801,46.8509090,-113.9865555
730,Pioneer Court North,59801,46.8481847,-113.9866479
921,Rimini Court,59801,46.8482898,-113.9892258
711,Hastings Avenue,59801,46.8549311,-113.9862669
206,Helena Court South,59801,46.8519781,-113.9851073
328,Bannack Court,59801,46.8504765,-113.9863494
531,Garnet Court,59801,46.8497608,-113.9865673
334,Bannack Court,59801,46.8504798,-113.9865855
213,Helena Court South,59801,46.8519005,-113.9847976
116,Helena Court North,59801,46.8523061,-113.9850878
914,Rimini Court,59801,46.8484802,-113.9885140
616,Maurice Avenue,59801,46.8488964,-113.9863891
823,Ophir Court,59801,46.8482655,-113.9880886
2020,South Higgins Avenue,59801,46.8519196,-113.9970947
117,Helena Court North,59801,46.8523100,-113.9847869
915,East Beckwith Avenue,59801,46.8569210,-113.9830717
322,Bannack Court,59801,46.8506457,-113.9862440
612,Maurice Avenue,59801,46.8488952,-113.9862939
216,Helena Court South,59801,46.8518517,-113.9851144
920,Rimini Court,59801,46.8482910,-113.9884753
315,Bannack Court,59801,46.8507921,-113.9865506
521,Garnet Court,59801,46.8495684,-113.9865427
2205,Gerald Avenue,59801,46.8503385,-113.9959972
400,Bannack Court,59801,46.8501882,-113.9862107
112,Helena Court North,59801,46.8523801,-113.9850887
118,Helena Court North,59801,46.8522709,-113.9850931
908,Rimini Court,59801,46.8485985,-113.9884943
1050,Yreka Court,59801,46.8475605,-113.9897216
526,Garnet Court,59801,46.8490629,-113.9859682
438,Bannack Court,59801,46.8497407,-113.9856409
600,South Avenue East,59801,46.8490664,-113.9888430
607,Pioneer Court North,59801,46.8486229,-113.9864724
515,Garnet Court,59801,46.8493534,-113.9865632
145,East Central Avenue,59801,46.8504609,-113.9960381
933,Rimini Court,59801,46.8482117,-113.9892347
220,Helena Court South,59801,46.8518104,-113.9851130
110,Helena Court North,59801,46.8524222,-113.9850881
408,Bannack Court,59801,46.8500142,-113.9861997
108,Helena Court North,59801,46.8524619,-113.9850914
935,Rimini Court,59801,46.8481856,-113.9892376
909,East Beckwith Avenue,59801,46.8568890,-113.9832764
421,Bannack Court,59801,46.8499402,-113.9865651
1020,Yreka Court,59801,46.8484751,-113.9896100
109,Helena Court North,59801,46.8524416,-113.9847927
332,Bannack Court,59801,46.8504775,-113.9864973
603,Pioneer Court North,59801,46.8486237,-113.9864008
323,Bannack Court,59801,46.8506544,-113.9865519
419,Bannack Court,59801,46.8499702,-113.9865652
513,Garnet Court,59801,46.8493504,-113.9865237
310,Bannack Court,59801,46.8508852,-113.9862438
218,Helena Court South,59801,46.8518296,-113.9851157
2326,South Higgins Avenue,59801,46.8491786,-113.9971933
634,Evans Avenue,59801,46.8564872,-113.9878843
300,Bannack Court,59801,46.8510073,-113.9862490
701,East Beckwith Avenue,59801,46.8568751,-113.9865293
306,Bannack Court,59801,46.8509174,-113.9862435
716,Pioneer Court North,59801,46.8482071,-113.9863045
235,East Central Avenue,59801,46.8504364,-113.9945498
1034,Yreka Court,59801,46.8479298,-113.9893861
107,Helena Court North,59801,46.8524837,-113.9847900
702,Pioneer Court North,59801,46.8478881,-113.9863204
428,Bannack Court,59801,46.8497493,-113.9858928
1730,Mansfield Avenue,59801,46.8545428,-113.9851553
207,Helena Court South,59801,46.8519894,-113.9848009
502,Garnet Court,59801,46.8495530,-113.9860228
424,Bannack Court,59801,46.8497572,-113.9859815
320,South Avenue East,59801,46.8490022,-113.9932495
104,Helena Court North,59801,46.8525331,-113.9850932
504,Garnet Court,59801,46.8495510,-113.9859798
609,Pioneer Court North,59801,46.8486225,-113.9865075
208,Helena Court South,59801,46.8519488,-113.9851080
407,Bannack Court,59801,46.8502251,-113.9865189
502,East Kent Avenue,59801,46.8518930,-113.9905338
221,Helena Court South,59801,46.8518116,-113.9847933
819 A,East Beckwith Avenue,59801,46.8568384,-113.9846087
313,Bannack Court,59801,46.8508195,-113.9865515
1032,Yreka Court,59801,46.8479294,-113.9893059
203,Helena Court South,59801,46.8520344,-113.9847984
450,Beverly Avenue,59801,46.8543479,-113.9912228
605,Pioneer Court North,59801,46.8486234,-113.9864359
217,Helena Court South,59801,46.8518494,-113.9847933
520,Garnet Court,59801,46.8492401,-113.9859625
218,South Avenue East,59801,46.8490256,-113.9949699
540,East Sussex Avenue,59801,46.8499593,-113.9894681
219,Helena Court South,59801,46.8518309,-113.9847907
305,Bannack Court,59801,46.8509395,-113.9865566
222,Helena Court South,59801,46.8517883,-113.9851153
1600,Ronald Avenue,59801,46.8551690,-113.9933316
618,East Sussex Avenue,59801,46.8501160,-113.9884932
303,Bannack Court,59801,46.8509657,-113.9865587
730,Evans Avenue,59801,46.8564096,-113.9861598
107,East Kent Avenue,59801,46.8513829,-113.9971312
1512,Maurice Avenue,59801,46.8567464,-113.9865300
956,Rimini Court,59801,46.8479152,-113.9884472
706,Pioneer Court North,59801,46.8479524,-113.9863214
930,Rimini Court,59801,46.8481225,-113.9884722
326,Bannack Court,59801,46.8504784,-113.9862494
511,Garnet Court,59801,46.8493518,-113.9864518
304,Bannack Court,59801,46.8509479,-113.9862446
402,Bannack Court,59801,46.8501617,-113.9862059
210,Helena Court South,59801,46.8519181,-113.9851106
301,Bannack Court,59801,46.8510014,-113.9865603
232 1,South Avenue East,59801,46.8492386,-113.9943393
324,Bannack Court,59801,46.8504776,-113.9861838
102,Helena Court North,59801,46.8525679,-113.9850951
2330,South Higgins Avenue,59801,46.8490825,-113.9971870
232,Hastings Avenue,59801,46.8553180,-113.9945543
432,Bannack Court,59801,46.8497475,-113.9857159
601,Pioneer Court North,59801,46.8486230,-113.9863686
123,Helena Court North,59801,46.8522317,-113.9847856
1725,Helen Avenue,59801,46.8544112,-113.9911351
410,Bannack Court,59801,46.8500442,-113.9861998
700,Pioneer Court South,59801,46.8478621,-113.9863278
704,Pioneer Court North,59801,46.8479210,-113.9863157
937,Rimini Court,59801,46.8481596,-113.9892405
614,Maurice Avenue,59801,46.8488963,-113.9863408
121,Helena Court North,59801,46.8522667,-113.9847844
817,Ophir Court,59801,46.8483005,-113.9880915
909,East Beckwith Avenue,59801,46.8568756,-113.9831840
409,Bannack Court,59801,46.8501343,-113.9865159
509,Garnet Court,59801,46.8493518,-113.9864049
823,Hastings Avenue,59801,46.8549095,-113.9843664
320,Bannack Court,59801,46.8506939,-113.9862398
525,Garnet Court,59801,46.8496647,-113.9865620
714,Pioneer Court North,59801,46.8480976,-113.9863129
909,Rimini Court,59801,46.8485870,-113.9892672
205,Beverly Avenue,59801,46.8539182,-113.9954464
318,Bannack Court,59801,46.8507291,-113.9862385
708,Pioneer Court North,59801,46.8479853,-113.9863168
913,East Beckwith Avenue,59801,46.8569637,-113.9830609
819 B,East Beckwith Avenue,59801,46.8568364,-113.9847087
506,Garnet Court,59801,46.8495502,-113.9859369
1044,Yreka Court,59801,46.8477271,-113.9897204
1605,Madeline Avenue,59801,46.8559024,-113.9841905
923,Rimini Court,59801,46.8482638,-113.9892288
608,Pioneer Court North,59801,46.8487383,-113.9861612
120,Helena Court North,59801,46.8522468,-113.9850911
312,Bannack Court,59801,46.8508279,-113.9862395
611,Pioneer Court North,59801,46.8486196,-113.9865556
602,Pioneer Court North,59801,46.8485777,-113.9861618
519,Garnet Court,59801,46.8495389,-113.9865421
865,Evans Avenue,59801,46.8559357,-113.9843592
401,Bannack Court,59801,46.8503087,-113.9865239
936,Rimini Court,59801,46.8479158,-113.9883716
1036,Yreka Court,59801,46.8479302,-113.9894664
803,Ophir Court,59801,46.8486110,-113.9881446
314,Bannack Court,59801,46.8508006,-113.9862387
143,East Central Avenue,59801,46.8504572,-113.9961292
214,East Sussex Avenue,59801,46.8500608,-113.9953112
1046,Yreka Court,59801,46.8476723,-113.9897158
500,Garnet Court,59801,46.8495549,-113.9860714
336,South Avenue East,59801,46.8490067,-113.9929964
214,Helena Court South,59801,46.8518738,-113.9851131
201,Beverly Avenue,59801,46.8539098,-113.9955591
200,Helena Court South,59801,46.8520669,-113.9851137
724,Pioneer Court North,59801,46.8481960,-113.9864850
411,Bannack Court,59801,46.8501643,-113.9865160
924,Rimini Court,59801,46.8482489,-113.9884745
709,Hastings Avenue,59801,46.8549264,-113.9863847
1000,Yreka Court,59801,46.8486363,-113.9896297
703,Pioneer Court North,59801,46.8479036,-113.9866329
720,Pioneer Court North,59801,46.8482046,-113.9863921
106,Helena Court North,59801,46.8524996,-113.9850925
319,Bannack Court,59801,46.8507207,-113.9865504
726,Pioneer Court North,59801,46.8481883,-113.9865531
212,Helena Court South,59801,46.8518937,-113.9851148
510,Garnet Court,59801,46.8495556,-113.9858020
1048,Yreka Court,59801,46.8476171,-113.9897198
710,Pioneer Court North,59801,46.8480327,-113.9863195
309,Bannack Court,59801,46.8508468,-113.9865556
1024,Yreka Court,59801,46.8482734,-113.9896001
430,Bannack Court,59801,46.8497489,-113.9858482
413,Bannack Court,59801,46.8501070,-113.9865118
542,East Sussex Avenue,59801,46.8499669,-113.9894169
707,Pioneer Court North,59801,46.8479679,-113.9866340
1621,Ronald Avenue,59801,46.8554495,-113.9944853
833,Ophir Court,59801,46.8477247,-113.9880464
101,Helena Court North,59801,46.8526008,-113.9847895
712,Pioneer Court North,59801,46.8480656,-113.9863148
106,South Avenue East,59801,46.8490093,-113.9970481
1730,Maurice Avenue,59801,46.8545202,-113.9865909
613,Pioneer Court North,59801,46.8486192,-113.9865921
701,Pioneer Court South,59801,46.8478695,-113.9866339
102,South Avenue East,59801,46.8489878,-113.9970536
405,Bannack Court,59801,46.8502557,-113.9865199
527,Garnet Court,59801,46.8496897,-113.9865641
918,Rimini Court,59801,46.8483331,-113.9884761
210,East Sussex Avenue,59801,46.8499309,-113.9953202
524,Garnet Court,59801,46.8491290,-113.9859641
114,Helena Court North,59801,46.8523418,-113.9850855
877,Evans Avenue,59801,46.8559564,-113.9841975
205,Helena Court South,59801,46.8520117,-113.9847965
415,Bannack Court,59801,46.8500765,-113.9865091
529,Garnet Court,59801,46.8497256,-113.9865634
912,Rimini Court,59801,46.8485154,-113.9885130
403,Bannack Court,59801,46.8502818,-113.9865221
1738,Maurice Avenue,59801,46.8544168,-113.9865947
311,Bannack Court,59801,46.8508768,-113.9865557
813,Ophir Court,59801,46.8484938,-113.9881318
517,Garnet Court,59801,46.8495118,-113.9865418
1038,Yreka Court,59801,46.8479306,-113.9895466
506,Evans Avenue,59801,46.8563311,-113.9905883
1042,Yreka Court,59801,46.8479314,-113.9897071
661,East Sussex Avenue,59801,46.8495813,-113.9870834
851,Evans Avenue,59801,46.8559381,-113.9844811
1040,Yreka Court,59801,46.8479310,-113.9896269
514,Garnet Court,59801,46.8495617,-113.9857165
938,Rimini Court,59801,46.8479163,-113.9882959
202,Helena Court South,59801,46.8520391,-113.9851124
901,Rimini Court,59801,46.8486598,-113.9892714
728,Pioneer Court North,59801,46.8481874,-113.9866013
516,Garnet Court,59801,46.8493556,-113.9859651
316,Bannack Court,59801,46.8507668,-113.9862397
308,Bannack Court,59801,46.8508552,-113.9862437
423,Bannack Court,59801,46.8499042,-113.9865703
436,Bannack Court,59801,46.8497493,-113.9856759
620,Maurice Avenue,59801,46.8488931,-113.9864752
417,Bannack Court,59801,46.8500021,-113.9865624
943,Rimini Court,59801,46.8481074,-113.9892464
412,Bannack Court,59801,46.8499869,-113.9861955
600,Pioneer Court North,59801,46.8485030,-113.9861605
105,Helena Court North,59801,46.8525301,-113.9847887
700,Beverly Avenue,59801,46.8543374,-113.9864739
1016,Yreka Court,59801,46.8485450,-113.9896169
1601,Cinnabar Drive,59801,46.8484155,-113.9930800
926,Rimini Court,59801,46.8482068,-113.9884738
129,East Sussex Avenue,59801,46.8493725,-113.9961954
810 A,Hastings Avenue,59801,46.8553479,-113.9848878
925,Rimini Court,59801,46.8482377,-113.9892317
705,Pioneer Court North,59801,46.8479365,-113.9866282
100,Helena Court North,59801,46.8525928,-113.9850954
209,Helena Court South,59801,46.8519559,-113.9848022
512,Garnet Court,59801,46.8495522,-113.9857498
103,Helena Court North,59801,46.8525679,-113.9847888
945,Rimini Court,59801,46.8480814,-113.9892494
330,Bannack Court,59801,46.8504773,-113.9864150
434,Bannack Court,59801,46.8497485,-113.9857595
618,Maurice Avenue,59801,46.8488929,-113.9864269
624,Maurice Avenue,59801,46.8488896,-113.9865627
211,Helena Court South,59801,46.8519268,-113.9847988
414,Bannack Court,59801,46.8499609,-113.9861895
932,Rimini Court,59801,46.8479141,-113.9885986
115,Helena Court North,59801,46.8523371,-113.9847882
1526,Helen Avenue,59801,46.8564497,-113.9905775
954,Rimini Court,59801,46.8479146,-113.9885229
2301,Maurice Avenue,59801,46.8494795,-113.9871025
915,Rimini Court,59801,46.8484973,-113.9892479
615,Pioneer Court North,59801,46.8486188,-113.9866272
2100,South Higgins Avenue,59801,46.8513293,-113.9972109
122,Helena Court North,59801,46.8522280,-113.9850978
610,Pioneer Court North,59801,46.8487974,-113.9861647
100,South Avenue East,59801,46.8490013,-113.9971626
2207,Gerald Avenue,59801,46.8503102,-113.9959996
223,Helena Court South,59801,46.8517877,-113.9848027
1627,Ronald Avenue,59801,46.8553636,-113.9944851
910,Rimini Court,59801,46.8485603,-113.9885049
406,Bannack Court,59801,46.8501050,-113.9862026
919,Rimini Court,59801,46.8483159,-113.9892229
113,Helena Court North,59801,46.8523621,-113.9847851
626,Maurice Avenue,59801,46.8488897,-113.9866109
508,Garnet Court,59801,46.8495563,-113.9858385
119,Helena Court North,59801,46.8522880,-113.9847872
518,Garnet Court,59801,46.8492886,-113.9859650
805,Ophir Court,59801,46.8485387,-113.9881416
317,Bannack Court,59801,46.8507584,-113.9865517
237,East Central Avenue,59801,46.8504409,-113.9944177
606,Pioneer Court North,59801,46.8486861,-113.9861625
837,Ophir Court,59801,46.8476645,-113.9880504
1501,Cinnabar Drive,59801,46.8484607,-113.9929081
111,Helena Court North,59801,46.8523976,-113.9847880
426,Bannack Court,59801,46.8497488,-113.9859309
810 B,Hastings Avenue,59801,46.8554244,-113.9849144
204,Helena Court South,59801,46.8520093,-113.9851109
2025,Ronald Avenue,59801,46.8521225,-113.9943533
911,Rimini Court,59801,46.8485256,-113.9892483
302,Bannack Court,59801,46.8509741,-113.9862468
602,South Avenue East,59801,46.8491150,-113.9888313
523,Garnet Court,59801,46.8495979,-113.9865452
215,Helena Court South,59801,46.8518748,-113.9847986
1026,Yreka Court,59801,46.8481930,-113.9896221
404,Bannack Court,59801,46.8501355,-113.9862037
939,Rimini Court,59801,46.8481335,-113.9892435
604,Pioneer Court North,59801,46.8486299,-113.9861620
942,Rimini Court,59801,46.8476872,-113.9886359
201,Helena Court South,59801,46.8520671,-113.9848011
1028,Yreka Court,59801,46.8481287,-113.9896087
720,Evans Avenue,59801,46.8564081,-113.9862289
522,Garnet Court,59801,46.8491727,-113.9859639
944,Rimini Court,59801,46.8477011,-113.9884697
940,Rimini Court,59801,46.8479169,-113.9882203
722,Pioneer Court North,59801,46.8481969,-113.9864368
2335,Hilda Avenue,59801,46.8491592,-113.9927757
243,North Avenue East,59801,46.8522349,-113.9943758
215,South Avenue East,59801,46.8483319,-113.9950032
949,Rimini Court,59801,46.8480553,-113.9892523
718,Pioneer Court North,59801,46.8482092,-113.9863429
1014,Yreka Court,59801,46.8485919,-113.9896241
310,South 5th Street West,59801,46.8652470,-114.0009507
4175,Rattlesnake Drive,59802,46.9032109,-113.9630031
4805,North Reserve Street,59808,46.9086083,-114.0376203
2775,North Reserve Street,59808,46.8903424,-114.0398845
3680,Brooks Street,59801,46.8368775,-114.0375200
103,W Spruce St,59802,46.8740306,-113.9934974
100,Madison Street,59802,46.8677172,-113.9868908
501,South Russell Street,59801,46.8666054,-114.0190571
5845,Sandpiper Drive,59808,46.9278941,-114.0836819
2525,Palmer Street,59808,46.8866807,-114.0277574
1604,Missoula Avenue,59802,46.8780022,-113.9708092
1604,Missoula Avenue,59802,46.8780865,-113.9708114
1604,Missoula Avenue,59802,46.8781736,-113.9708059
1604,Missoula Avenue,59802,46.8782524,-113.9708031
2305,Raymond Avenue,59802,46.8850324,-113.9688084
2303,Raymond Avenue,59802,46.8849494,-113.9688095
835,Anglers Bend Way,59802,46.8745991,-113.9253910
847,Anglers Bend Way,59802,46.8744257,-113.9259233
857,Anglers Bend Way,59802,46.8743769,-113.9265088
825,Anglers Bend Way,59802,46.8748601,-113.9249911
831,Anglers Bend Way,59802,46.8747139,-113.9251829
841,Anglers Bend Way,59802,46.8744922,-113.9256562
851,Anglers Bend Way,59802,46.8743831,-113.9262232
861,Anglers Bend Way,59802,46.8744012,-113.9268009
873,Anglers Bend Way,59802,46.8745267,-113.9273617
811,Anglers Bend Way,59802,46.8751648,-113.9246432
820,Anglers Bend Way,59802,46.8752409,-113.9254935
870,Anglers Bend Way,59802,46.8749778,-113.9268976
890,Anglers Bend Way,59802,46.8752712,-113.9273630
904,Anglers Bend Way,59802,46.8754233,-113.9275105
920,Anglers Bend Way,59802,46.8758056,-113.9277586
931,Anglers Bend Way,59802,46.8759505,-113.9286692
937,Anglers Bend Way,59802,46.8761219,-113.9287122
959,Anglers Bend Way,59802,46.8765656,-113.9288248
967,Anglers Bend Way,59802,46.8767508,-113.9288731
979,Anglers Bend Way,59802,46.8771193,-113.9290287
1002,Coachman Way,59802,46.8806789,-113.9183441
5567,Canyon River Road,59802,46.8804057,-113.9197522
5525,Canyon River Road,59802,46.8799034,-113.9207661
5511,Canyon River Road,59802,46.8797897,-113.9210987
5482,Canyon River Road,59802,46.8790087,-113.9216673
5422,Canyon River Road,59802,46.8787529,-113.9234376
5433,Canyon River Road,59802,46.8793258,-113.9231640
1128,Bandmann Trail,59802,46.8823537,-113.9151064
1146,Bandmann Trail,59802,46.8825828,-113.9153861
1164,Bandmann Trail,59802,46.8828119,-113.9157034
1,Campus Drive,59812,46.8640033,-113.9814776
35,Campus Drive,59812,46.8592255,-113.9820412
3555,Mullan Road,59808,46.8836278,-114.0420058
4000,Highway 93 South,59804,46.8315534,-114.0471497
2725,Radio Way,59808,46.8899158,-114.0438573
3100,North Reserve Street,59808,46.8929896,-114.0368290
125,Bank Street,59802,46.8691851,-113.9945150
128,West Main Street,59802,46.8717065,-113.9953390
131,South Higgins Avenue,59802,46.8696519,-113.9961036
711,Toole Avenue,59801,46.8777201,-114.0006827
100,East Broadway Street,59802,46.8721496,-113.9935295
3220,North Reserve Street,59808,46.8942626,-114.0387403
220,West Broadway Street,59802,46.8732681,-113.9959293
910,McLeod Avenue,59812,46.8593250,-113.9828978
500,West Broadway Street,59802,46.8751383,-114.0002698
125,North Pattee Street,59802,46.8702363,-113.9943512
32,Campus Drive,59812,46.8635313,-113.9851420
1900,Maurice Avenue,59801,46.8526395,-113.9860859
2000,Maurice Avenue,59801,46.8516369,-113.9860849
328,McLeod Avenue,59801,46.8593160,-113.9932663
101,Carousel Drive,59802,46.8705407,-113.9977500
228,West Main Street,59801,46.8721461,-113.9968315
222,West Main Street,59801,46.8720966,-113.9966662
126,East Broadway Street,59802,46.8720869,-113.9928539
335,North Pattee Street,59802,46.8724152,-113.9924467
330,North Higgins Avenue,59802,46.8727659,-113.9931432
304,North Higgins Avenue,59802,46.8722647,-113.9935292
306,West Railroad Street,59802,46.8771518,-113.9952822
313,N. 1st St W,59802,46.8779045,-113.9952751
4953,North Reserve Street,59808,46.9113666,-114.0366127
5210,Grant Creek Road,59808,46.9139518,-114.0330375
2929,Expo Parkway,59808,46.9151679,-114.0354560
2775,Expo Parkway,59808,46.9153555,-114.0343341
326,North 1st Street West,59802,46.8778806,-113.9944728
100,Madison Street,59802,46.8679641,-113.9864118
150,East Pine Street,59802,46.8730724,-113.9921751
200,North Adams Street,59802,46.8703850,-113.9895188
800,West Broadway Street,59802,46.8759927,-114.0050371
500,Brooks Street,59801,46.8591852,-114.0022231
4320,Duncan Drive,59802,46.9060537,-113.9709936
1901,South 10th Street West,59801,46.8600108,-114.0272225
2420,North Reserve Street,59808,46.8880275,-114.0365333
2615,Connery Way,59808,46.8899531,-114.0470383
4650,North Reserve Street,59808,46.9072648,-114.0371679
527,West Alder Street,59802,46.8768575,-113.9994904
1101,South Avenue West,59801,46.8473619,-114.0177037
2350,South Reserve Street,59801,46.8495787,-114.0375339
1615,Wyoming Street,59801,46.8712209,-114.0217617
125,South 3rd Street West,59801,46.8666726,-113.9984788
3801,South Reserve Street,59801,46.8348411,-114.0413773
1507,Montana Street,59801,46.8725946,-114.0202245
1515,Wyoming Street,59801,46.8715849,-114.0189370
1601,South 3rd Street West,59801,46.8673086,-114.0221446
951,Ronald Avenue,59801,46.8623271,-113.9946967
1221,North Russell Street,59808,46.8833719,-114.0193085
4210,South Reserve Street,59803,46.8324188,-114.0391859
1000,East Beckwith Avenue,59812,46.8571281,-113.9827160
25,Campus Drive,59812,46.8605594,-113.9820954
24,Campus Drive,59812,46.8614808,-113.9809624
32,Campus Drive,59812,46.8631543,-113.9794761
32,Campus Drive,59812,46.8638952,-113.9834456
634,Eddy Avenue,59812,46.8632972,-113.9876589
3943,Brooks Street,59804,46.8355076,-114.0449991
5001,Grizzly Ct,59808,46.9182543,-114.0716721
601,West Spruce Street,59802,46.8759422,-114.0017320
1700,South Avenue West,59801,46.8497605,-114.0228657
3100,South Avenue West,59804,46.8505734,-114.0580732
2827,Fort Missoula Road,59804,46.8467018,-114.0481751
1137,Montana Street,59801,46.8726501,-114.0136315
255,South Russell Street,59801,46.8697303,-114.0188338
1545,Milwaukee Way,59801,46.8698273,-114.0194216
337,Stephens Avenue,59801,46.8631216,-114.0043497
1535,Liberty Lane,59808,46.8772515,-114.0198400
1515,Liberty Lane,59808,46.8770690,-114.0191765
3662,Brooks Street,59801,46.8357020,-114.0380336
3640,Brooks Street,59801,46.8356603,-114.0362290
3690,Brooks Street,59801,46.8366344,-114.0381985
3700,Brooks Street,59801,46.8362666,-114.0389339
3820,South Reserve Street,59801,46.8358155,-114.0391458
3850,South Reserve Street,59801,46.8355608,-114.0391999
3850,South Reserve Street,59801,46.8354586,-114.0391644
3850,South Reserve Street,59801,46.8353435,-114.0391469
435,South 2nd Street West,59801,46.8677196,-114.0030325
2820,South Higgins Avenue,59802,46.8449398,-113.9969677
210,North California Street,59801,46.8721035,-114.0136050
3115,North Reserve Street,59801,46.8937257,-114.0399819
2720,North Reserve,59808,46.8902989,-114.0385866
2340,Mullan Road,59808,46.8828111,-114.0271522
539,South 3rd Street West,59801,46.8667197,-114.0047527
435,Ryman Street,59802,46.8744467,-113.9951001
1720,Wyoming Street,59801,46.8722276,-114.0229125
2500,South Higgins Avenue,59801,46.8479038,-113.9967800
1221,Shakespeare Street,59802,46.8839829,-114.0100508
2230,North Reserve Street,59808,46.8859171,-114.0362922
2230,North Reserve Street,59808,46.8854549,-114.0362674
2230,North Reserve Street,59808,46.8851129,-114.0365442
2230,Reserve Street,59808,46.8850140,-114.0368702
2601,North Reserve Street,59808-1311,46.8895209,-114.0400578
2640,North Reserve Street,59808,46.8891978,-114.0365398
1690,Milwaukee Way,59801,46.8699127,-114.0218530
301,South 6th Street West,59801,46.8638645,-114.0007859
1615,Milwaukee Way,59801,46.8693593,-114.0207715
1550,Milwaukee Way,59801,46.8705107,-114.0194757
1575,Milwaukee Way,59801,46.8695137,-114.0201435
1620,Milwaukee Way,59801,46.8701057,-114.0208998
1555,Milwaukee Way,59801,46.8693656,-114.0194268
555,South Catlin Street,59801,46.8662863,-114.0233703
500,West Broadway Street,59802,46.8754828,-113.9999087
425,North 5th Street West,59802,46.8802641,-113.9941344
601,E. Broadway Street,59802-4611,46.8695370,-113.9866154
651,E. Broadway St.,59802,46.8693262,-113.9861234
923,North Orange Street,59802,46.8794434,-113.9942439
420,West Pine Street,59802,46.8748935,-113.9977930
900,North Orange Street,59802,46.8783560,-113.9925946
435,Eddy Avenue,59801,46.8625826,-113.9914115
425,Eddy Avenue,59801,46.8627700,-113.9916116
419,Eddy Avenue,59801,46.8627598,-113.9918069
413,Eddy Avenue,59801,46.8627556,-113.9920062
309,Eddy Avenue,59801,46.8627228,-113.9937044
341,Eddy Avenue,59801,46.8627722,-113.9928295
501,Eddy Avenue,59801,46.8627455,-113.9905895
511,Eddy Avenue,59801,46.8627474,-113.9903734
521,Eddy Avenue,59801,46.8627557,-113.9901088
334,North 3rd Street West,59802,46.8794026,-113.9929826
801,North Orange St.,59802,46.8788553,-113.9951406
901,North Orange Street,59802,46.8790852,-113.9942841
305,North 1st Street West,59802,46.8774222,-113.9943026
235,North 1st Street West,59802,46.8771200,-113.9936548
314,North 1st Street West,59802,46.8777490,-113.9941577
6,Campus Drive,59812,46.8642629,-113.9795700
16,Campus Drive,59812,46.8635505,-113.9790560
225,North 2nd Street West,59802,46.8777847,-113.9930008
14,Campus Drive,59812,46.8633346,-113.9782512
6,Campus Drive,59812,46.8638976,-113.9786713
401,West Railroad Street,59802,46.8770681,-113.9966302
1110,West Broadway Street,59802,46.8768041,-114.0090242
100,West Railroad Street,59802,46.8752853,-113.9917167
811,Woody Street,59802,46.8777392,-113.9937461
300,North 1st Street West,59802,46.8775661,-113.9939445
610,West Broadway Street,59802,46.8749682,-114.0023781
527,West Alder Street,59802,46.8765036,-113.9997991
307,West Railroad Street,59802,46.8766152,-113.9951478
331,West Railroad Street,59802,46.8767795,-113.9955273
209,East Spruce Street,59802,46.8731861,-113.9906880
200,West Pine Street,59802,46.8738414,-113.9950660
610,Woody Street,59802,46.8760813,-113.9946390
629,Woody Street,59802,46.8763760,-113.9951737
603,Woody Street,59802,46.8762433,-113.9953022
310,West Alder Street,59802,46.8761614,-113.9953667
201,West Railroad Street,59802,46.8758457,-113.9937993
1520,North Russell Street,59802,46.8865890,-114.0169986
420,West Broadway Street,59802,46.8740054,-113.9995581
420,West Broadway Street,59802,46.8739372,-113.9992079
400,West Broadway Street,59802,46.8736894,-113.9985503
400,West Broadway Street,59802,46.8738690,-113.9984486
414,West Broadway Street,59802,46.8738166,-113.9988156
414,West Broadway Street,59802,46.8739802,-113.9987198
310,West Spruce Street,59802,46.8752798,-113.9958629
316,West Spruce Street,59802,46.8753756,-113.9961708
310,West Spruce Street,59802,46.8754711,-113.9958296
322,West Spruce Street,59802,46.8754261,-113.9963858
336,West Spruce Street,59802,46.8755283,-113.9967128
330,West Spruce Street,59802,46.8754785,-113.9965495
530,North Orange Street,59802,46.8756771,-113.9965726
322,West Spruce Street,59802,46.8755974,-113.9962641
301,West Alder Street,59802,46.8757355,-113.9956108
301,West Alder Street,59802,46.8758319,-113.9959373
323,West Alder Street,59802,46.8759211,-113.9963478
301,West Spruce Street,59802,46.8756049,-113.9958740
535,Ryman Street,59802,46.8752527,-113.9943831
223,West Alder Street,59802,46.8754094,-113.9946731
320,West Broadway Street,59802,46.8735371,-113.9976906
5417,Trumpeter Way,59808,46.9224685,-114.0731665
5145,Airway Boulevard,59808,46.9212840,-114.0717656
2827,Fort Missoula Road,59804,46.8473853,-114.0473870
101,West Alder Street,59802,46.8753508,-113.9925382
127,West Alder Street,59802,46.8750268,-113.9932332
501,North Higgins Avenue,59802,46.8745172,-113.9929526
501,North Higgins Avenue,59802,46.8743532,-113.9930679
123,West Alder Street,59802,46.8750606,-113.9933257
125,West Alder Street,59802,46.8750896,-113.9934561
338,West Alder Street,59802,46.8764499,-113.9961311
334,West Alder Street,59802,46.8764132,-113.9959339
324,West Alder Street,59802,46.8763494,-113.9957883
136,West Alder Street,59802,46.8756319,-113.9932757
420,North Higgins Avenue,59802,46.8733399,-113.9927182
110,East Pine Street,59802,46.8731643,-113.9928537
138,East Pine Street,59802,46.8731554,-113.9924230
2530,South 3rd Street West,59804,46.8679446,-114.0402969
625,University Avenue,59812,46.8596482,-113.9880273
1300,Clark Fork Drive,59808,46.8825862,-114.0392045
3305,Clark Fork Way,59808,46.8822217,-114.0401380
5150,Bigfork Road,59803,46.8169217,-114.0698304
3615,Clark Fork Way,59808,46.8825205,-114.0420873
4266,Expressway Road,59808,46.9082437,-114.0515970
4242,Expressway Road,59808,46.9078686,-114.0510231
4200,Expressway Road,59808,46.9088859,-114.0514022
2640,North Reserve Street,59808,46.8896179,-114.0365474
718,South Higgins Avenue,59801,46.8644328,-113.9970362
337,North Higgins Avenue,59802,46.8730454,-113.9938296
436,North Higgins Avenue,59802,46.8737175,-113.9925214
428,North Higgins Avenue,59802,46.8736182,-113.9925797
424,North Higgins Avenue,59802,46.8735154,-113.9926463
436,North Higgins Avenue,59802,46.8737804,-113.9924871
111,East Spruce Street,59802,46.8734818,-113.9919940
150,East Pine Street,59802,46.8732046,-113.9920531
120,East Broadway Street,59802,46.8721712,-113.9930940
304,North Higgins Avenue,59802,46.8721925,-113.9932879
3400,Capt Rawn Way,59804,46.8438157,-114.0629012
318,North Higgins Avenue,59802,46.8725706,-113.9933329
332,North Higgins Avenue,59802,46.8726347,-113.9932282
140,East Broadway Street,59802,46.8720388,-113.9926242
310,North Higgins Avenue,59802,46.8723385,-113.9934545
314,North Higgins Avenue,59802,46.8724184,-113.9934044
101,Carousel Drive,59802,46.8703190,-113.9980624
5600,Longview Drive,59803,46.8187939,-114.0311722
134,West Front Street,59802,46.8707018,-113.9961031
124,North Higgins Avenue,59802,46.8708048,-113.9944152
300,East Main Street,59802,46.8704833,-113.9910950
451,North Higgins Avenue,59802,46.8739508,-113.9932526
150,East Spruce Street,59802,46.8740444,-113.9916108
218,East Main Street,59802,46.8706885,-113.9919256
4041,Highway 93 South,59801,46.8340911,-114.0484910
3901,South Brooks Street,59804-7395,46.8356439,-114.0437663
3901,Brooks Street,59804,46.8360476,-114.0440744
3851,Brooks Street,59804,46.8358312,-114.0428350
3521,Brooks Street,59801,46.8390631,-114.0340461
2205,34th Street,59801,46.8374038,-114.0321421
3400,Brooks Street,59801,46.8392434,-114.0311872
3310,Brooks Street,59801-8290,46.8400565,-114.0297108
2901,Brooks Street,59801,46.8442889,-114.0282993
3011,Brooks Avenue,59801,46.8431130,-114.0268654
3021,Brooks Street,59801,46.8427902,-114.0273710
2900,Brooks Street,59801,46.8440985,-114.0243480
1515,Dearborn Avenue,59801-7810,46.8468747,-114.0196918
2502,Brooks Street,59801,46.8472146,-114.0198483
2121,Brooks Street,59801,46.8510217,-114.0153177
1901,Stephens Avenue,59801,46.8530639,-114.0133273
1920,Stephens Avenue,59801,46.8530853,-114.0127876
1925,Brooks Street,59801,46.8530919,-114.0122177
1880,Brooks Street,59801,46.8535140,-114.0104944
2510,South Reserve Street,59801,46.8476944,-114.0376170
2504,South Reserve Street,59801,46.8485196,-114.0388997
3800,Russell Street,59801,46.8361278,-114.0154007
1235,34th Street,59801,46.8371963,-114.0163712
542,Eddy Avenue,59801,46.8632327,-113.9895082
821,Arthur Avenue,59801,46.8634531,-113.9895290
815,Arthur Avenue,59801,46.8635812,-113.9895190
543,South 6th Street East,59801,46.8637946,-113.9895305
533,South 6th Street East,59801,46.8637715,-113.9897055
538,Eddy Avenue,59801,46.8632365,-113.9897357
529,South 6th Street East,59801,46.8637892,-113.9898402
505,South 6th Street East,59801,46.8637748,-113.9904715
503,South 6th Street East,59801,46.8637820,-113.9906471
534,Eddy Avenue,59801,46.8632303,-113.9899292
506,Eddy Avenue,59801,46.8632358,-113.9902075
504,Eddy Avenue,59801,46.8632455,-113.9903930
500,Eddy Avenue,59801,46.8632674,-113.9906000
541,Eddy Avenue,59801,46.8627761,-113.9895169
533,Eddy Avenue,59801,46.8627602,-113.9897403
527,Eddy Avenue,59801,46.8627676,-113.9899119
531,Eddy Avenue,59801,46.8625941,-113.9898778
530,Connell Avenue,59801,46.8622756,-113.9898605
526,Connell Avenue,59801,46.8623111,-113.9900364
512,Connell Avenue,59801,46.8622690,-113.9903018
502,Connell Avenue,59801,46.8623176,-113.9905940
704,Southwest Higgins Avenue,59803,46.8370082,-114.0111471
830,South Avenue West,59801,46.8491654,-114.0108980
800,South Avenue West,59801,46.8491241,-114.0100259
3640,Mullan Road,59801,46.8873013,-114.0434139
3001,Bancroft Street,59801,46.8424593,-114.0090348
900,South Higgins Avenue,59801,46.8630142,-113.9966187
535,Connell Avenue,59801,46.8617563,-113.9894927
533,Connell Avenue,59801,46.8617365,-113.9897654
1025,Arthur Avenue,59801,46.8613440,-113.9895108
528,Daly Avenue,59801,46.8612761,-113.9898233
503,Connell Avenue,59801,46.8617929,-113.9906402
509,Connell Avenue,59801,46.8617856,-113.9904368
520,Daly Avenue,59801,46.8612666,-113.9900809
514,Daly Avenue,59801,46.8612888,-113.9902659
517,Connell Avenue,59801,46.8617603,-113.9902019
525,Connell Avenue,59801,46.8617467,-113.9899907
508,Daly Avenue,59801,46.8612880,-113.9904480
500,Daly Avenue,59801,46.8612548,-113.9906358
521,Daly Avenue,59801,46.8607747,-113.9898928
519,Daly Avenue,59801,46.8607786,-113.9901289
538,University Avenue,59801,46.8603143,-113.9895073
532,University Avenue,59801,46.8603387,-113.9899176
516,University Avenue,59801,46.8603637,-113.9902089
500,University Avenue,59801,46.8602684,-113.9905435
1125,Helen Avenue,59801,46.8604280,-113.9905234
509,Daly Avenue,59801,46.8607663,-113.9904379
501,Daly Avenue,59801,46.8607690,-113.9906305
539,University Avenue,59801,46.8597797,-113.9895332
521,University Avenue,59801,46.8597897,-113.9897328
517,University Avenue,59801,46.8597875,-113.9899661
515,University Avenue,59801,46.8597793,-113.9902053
501,University Avenue,59801,46.8597433,-113.9905343
1221,Arthur Avenue,59801,46.8593607,-113.9894977
530,McLeod Avenue,59801,46.8593288,-113.9898702
524,McLeod Avenue,59801,46.8593191,-113.9900937
510,McLeod Avenue,59801,46.8593214,-113.9903364
1222,Helen Avenue,59801,46.8594432,-113.9906065
515,McLeod Avenue,59801,46.8587844,-113.9902603
525,McLeod Avenue,59801,46.8588099,-113.9898857
541,McLeod Avenue,59801,46.8588186,-113.9895873
500,Keith Avenue,59801,46.8583826,-113.9905909
512,Keith Avenue,59801,46.8583661,-113.9903703
520,Keith Avenue,59801,46.8583312,-113.9901380
530,Keith Avenue,59801,46.8583391,-113.9899018
1327,Arthur Avenue,59801,46.8584980,-113.9895598
535,Keith Avenue,59801,46.8578221,-113.9895290
533,Keith Avenue,59801,46.8578413,-113.9897453
525,Keith Avenue,59801,46.8578074,-113.9899565
521,Keith Avenue,59801,46.8578330,-113.9901519
513,Keith Avenue,59801,46.8578411,-113.9903397
501,Keith Avenue,59801,46.8578378,-113.9905724
538,East Beckwith Avenue,59801,46.8573475,-113.9895035
530,East Beckwith Avenue,59801,46.8573030,-113.9897269
514,East Beckwith Avenue,59801,46.8573194,-113.9899383
510,East Beckwith Avenue,59801,46.8573292,-113.9901366
506,East Beckwith Avenue,59801,46.8573148,-113.9903446
500,East Beckwith Avenue,59801,46.8573545,-113.9905725
2320,North Reserve,59808,46.8863889,-114.0387078
3055,Stockyard Road,59808,46.9011548,-114.0381091
3918,North Reserve,59803,46.9044873,-114.0383263
3720,North Reserve Street,59808,46.9048786,-114.0371712
4750,North Reserve Street,59808,46.9082511,-114.0362545
150,Expressway,59808,46.9062193,-114.0406859
3753,North Reserve Street,59808-1517,46.9060844,-114.0393469
4559,North Reserve Street,59808,46.9073702,-114.0401714
4703,North Reserve Street,59808-1407,46.9081824,-114.0382140
301,East Broadway Street,59802,46.8708575,-113.9907717
337,East Broadway Street,59802,46.8706251,-113.9901591
540,East Broadway Street,59802,46.8704816,-113.9872426
540,East Broadway Street,59802,46.8703103,-113.9872495
502,East Broadway Street,59802,46.8706324,-113.9879425
204,East Spruce Street,59807,46.8737787,-113.9909792
410,West Spruce Street,59802,46.8756902,-113.9973883
517,North Orange Street,59802,46.8758009,-113.9971131
418,West Spruce Street,59802,46.8757660,-113.9975236
422,West Spruce Street,59802,46.8758014,-113.9977262
432,West Spruce Street,59802,46.8759090,-113.9979043
438,West Spruce Street,59802,46.8759543,-113.9981226
500,Owen Street,59802,46.8760114,-113.9982895
445,West Alder Street,59802,46.8764573,-113.9979607
438,West Alder Street,59802,46.8763946,-113.9977871
431,West Alder Street,59802,46.8763565,-113.9976281
421,West Alder Street,59802,46.8762777,-113.9974258
415,West Alder Street,59802,46.8762878,-113.9972853
411,West Alder Street,59802,46.8762084,-113.9970910
405,West Alder Street,59802,46.8761978,-113.9969442
521,North Orange Street,59802,46.8759738,-113.9969784
412,West Alder Street,59802,46.8766402,-113.9966259
412,West Alder Street,59802,46.8767117,-113.9968270
422,West Alder Street,59802,46.8767621,-113.9970593
426,West Alder Street,59802,46.8768223,-113.9972116
430,West Alder Street,59802,46.8768936,-113.9973688
442,West Alder Street,59802,46.8769301,-113.9975480
444,West Alder Street,59802,46.8769456,-113.9977018
502,West Spruce Street,59802,46.8761282,-113.9987888
510,West Spruce Street,59802,46.8762044,-113.9989764
514,West Spruce Street,59802,46.8762454,-113.9991462
516,West Spruce Street,59802,46.8762775,-113.9992936
501,West Alder Street,59802,46.8765945,-113.9985153
507,West Alder Street,59802,46.8766792,-113.9987173
509,West Alder Street,59802,46.8767414,-113.9988703
701,East Broadway,59802-4609,46.8691381,-113.9854595
630,East Broadway Street,59802,46.8703825,-113.9862375
630,East Broadway Street,59802,46.8701746,-113.9857098
630,East Broadway Street,59802,46.8699201,-113.9858456
700,East Broadway Street,59802,46.8699050,-113.9851008
625,East Pine Street,59802,46.8705636,-113.9858938
720,East Broadway,59802-4610,46.8698629,-113.9845459
744,East Broadway Street,59802,46.8697189,-113.9841038
820,East Broadway,59801,46.8694033,-113.9830097
1021,East Broadway Street,59702,46.8667835,-113.9793406
1205,East Broadway Street,59802,46.8647276,-113.9758915
1140,East Broadway Street,59802,46.8665258,-113.9768817
1150,East Broadway Street,59802,46.8659278,-113.9757110
502,West Alder Street,59802,46.8770804,-113.9981684
506,West Alder Street,59802,46.8771187,-113.9983487
508,West Alder Street,59802,46.8771929,-113.9984971
510,West Alder Street,59802,46.8772353,-113.9986823
631,Owen Street,59802,46.8773931,-113.9979719
633,Owen Street,59802,46.8774732,-113.9979163
635,Owen Street,59802,46.8775574,-113.9978558
637,Owen Street,59802,46.8776484,-113.9977994
514,West Alder Street,59802,46.8772974,-113.9989020
516,West Alder Street,59802,46.8773849,-113.9990253
518,West Alder Street,59802,46.8774175,-113.9992365
509,Toole Avenue,59802,46.8777374,-113.9983626
505,Toole Avenue,59802,46.8776991,-113.9982067
513,Toole Avenue,59802,46.8777814,-113.9986102
520,West Alder Street,59802,46.8774632,-113.9993579
601,McCormick Street,59802,46.8774656,-113.9995990
602,McCormick Street,59802,46.8775719,-113.9995387
606,McCormick Street,59802,46.8776818,-113.9994764
517,Toole Avenue,59802,46.8778150,-113.9987763
523,Toole Avenue,59802,46.8778310,-113.9992434
525,Toole Avenue,59802,46.8778379,-113.9993918
506,Toole Avenue,59802,46.8781885,-113.9981024
506,Toole Avenue,59802,46.8781905,-113.9984269
600,Toole Avenue,59802,46.8782503,-113.9987780
604,Toole Avenue,59802,46.8782820,-113.9989235
608,Toole Avenue,59802,46.8782953,-113.9990567
612,Toole Avenue,59802,46.8782874,-113.9991747
614,Toole Avenue,59802,46.8782552,-113.9992938
622,Toole Avenue,59802,46.8782032,-113.9995330
628,Toole Avenue,59802,46.8782650,-113.9997742
632,Toole Avenue,59802,46.8782481,-113.9998892
636,Toole Avenue,59802,46.8782695,-114.0000199
730,Holmes Street,59802,46.8786865,-113.9998221
516,Toole Avenue,59802,46.8785829,-113.9993195
734,Holmes Street,59802,46.8789997,-113.9998091
704,Toole Avenue,59802,46.8782564,-114.0004430
708,Toole Avenue,59802,46.8782688,-114.0005710
718,Toole Avenue,59802,46.8782842,-114.0009307
714,Toole Avenue,59802,46.8782522,-114.0007918
710,Toole Avenue,59802,46.8782358,-114.0006988
724,Toole Avenue,59802,46.8782633,-114.0010480
725,Holmes Street,59802,46.8786359,-114.0004659
727,Holmes Street,59802,46.8788000,-114.0005240
713,Cooper Street,59802,46.8788232,-114.0007112
715,Cooper Street,59802,46.8787874,-114.0008285
717,Cooper Street,59802,46.8787576,-114.0009295
721,Cooper Street,59802,46.8787774,-114.0010491
727,Cooper Street,59802,46.8787753,-114.0011622
731,Cooper Street,59802,46.8787828,-114.0012891
733,Cooper Street,59802,46.8787766,-114.0014676
812,Toole Avenue,59802,46.8782618,-114.0022733
812,South Higgins Avenue,59801,46.8636238,-113.9969928
802,South Higgins Avenue,59801,46.8637859,-113.9970571
440,Eddy Avenue,59801,46.8632655,-113.9911466
432,Eddy Avenue,59801,46.8632926,-113.9913405
424,Eddy Avenue,59801,46.8632513,-113.9915767
441,South 6th Street East,59801,46.8638095,-113.9911711
435,South 6th Street East,59801,46.8637686,-113.9913851
433,South 6th Street East,59801,46.8637819,-113.9915544
417,South 6th Street East,59801,46.8638282,-113.9918742
415,South 6th Street East,59801,46.8637967,-113.9920560
816,Hilda Avenue,59801,46.8635725,-113.9921157
414,Eddy Avenue,59801,46.8632484,-113.9918519
412,Eddy Avenue,59801,46.8632410,-113.9920342
820,Hilda Avenue,59801,46.8634311,-113.9921898
402,Eddy Avenue,59801,46.8632655,-113.9922230
342,Eddy Avenue,59801,46.8632744,-113.9928484
823,Hilda Avenue,59801,46.8634453,-113.9928989
817,Hilda Avenue,59801,46.8635505,-113.9928667
805,Hilda Avenue,59801,46.8638182,-113.9928928
330,Eddy Avenue,59801,46.8632631,-113.9932211
828,Ronald Avenue,59801,46.8632643,-113.9937702
820,Ronald Avenue,59801,46.8634524,-113.9937565
317,South 6th Street East,59801,46.8637921,-113.9934694
311,South 6th Street East,59801,46.8637842,-113.9936623
825,Ronald Avenue,59801,46.8634554,-113.9944944
228,Eddy Avenue,59801,46.8632811,-113.9947412
802,Gerald Avenue,59801,46.8637842,-113.9954434
812,Gerald Avenue,59801,46.8636630,-113.9954553
820,Gerald Avenue,59801,46.8634772,-113.9954480
200,Eddy Avenue,59801,46.8633026,-113.9953200
921,Helen Avenue,59801,46.8624314,-113.9911333
440,Connell Avenue,59801,46.8622849,-113.9911487
430,Connell Avenue,59801,46.8622985,-113.9914069
424,Connell Avenue,59801,46.8622798,-113.9916315
416,Connell Avenue,59801,46.8622967,-113.9918900
408,Connell Avenue,59801,46.8623230,-113.9920806
400,Connell Avenue,59801,46.8623247,-113.9922679
336,Connell Avenue,59801,46.8622871,-113.9928257
330,Connell Avenue,59801,46.8622904,-113.9932295
323,Eddy Avenue,59801,46.8627599,-113.9932978
327,Eddy Avenue,59801,46.8625905,-113.9932395
314,Connell Avenue,59801,46.8623235,-113.9935594
300,Connell Avenue,59801,46.8623008,-113.9938079
910,Ronald Avenue,59801,46.8624476,-113.9938404
200,Connell Avenue,59801,46.8623796,-113.9952526
422,Daly Avenue,59801,46.8614443,-113.9914759
418,Daly Avenue,59801,46.8613221,-113.9917562
408,Daly Avenue,59801,46.8613477,-113.9920294
400,Daly Avenue,59801,46.8612844,-113.9922592
439,Connell Avenue,59801,46.8617868,-113.9911422
437,Connell Avenue,59801,46.8617940,-113.9913160
425,Connell Avenue,59801,46.8617638,-113.9915322
419,Connell Avenue,59801,46.8617998,-113.9917734
415,Connell Avenue,59801,46.8617577,-113.9919949
403,Connell Avenue,59801,46.8617850,-113.9922166
340,Daly Avenue,59801,46.8613129,-113.9928173
1019,Hilda Avenue,59801,46.8614725,-113.9928259
330,Daly Avenue,59801,46.8613180,-113.9930619
345,Connell Avenue,59801,46.8618043,-113.9928023
1017,Hilda Avenue,59801,46.8616272,-113.9928442
333,Connell Avenue,59801,46.8617925,-113.9930288
329,Connell Avenue,59801,46.8617813,-113.9932531
324,Daly Avenue,59801,46.8613194,-113.9932552
316,Daly Avenue,59801,46.8613213,-113.9934277
315,Connell Avenue,59801,46.8617686,-113.9934520
305,Connell Avenue,59801,46.8617828,-113.9938150
310,Daly Avenue,59801,46.8614544,-113.9936715
240,Daly Avenue,59801,46.8613629,-113.9945261
245,Connell Avenue,59801,46.8617818,-113.9945271
230,Daly Avenue,59801,46.8612821,-113.9948103
234,Daly Avenue,59801,46.8614606,-113.9948464
227,Connell Avenue,59801,46.8617810,-113.9948121
1020,Gerald Avenue,59801,46.8613371,-113.9954449
1006,Gerald Avenue,59801,46.8617104,-113.9953503
134,Daly Avenue,59801,46.8612971,-113.9960781
128,Daly Avenue,59801,46.8612881,-113.9963142
122,Daly Avenue,59801,46.8613000,-113.9965428
1005,Gerald Avenue,59801,46.8616260,-113.9963766
105,Connell Avenue,59801,46.8616466,-113.9969871
119,Daly Avenue,59801,46.8607332,-113.9966524
1107,Gerald Avenue,59801,46.8607372,-113.9962134
1104,South Higgins Avenue,59801,46.8604544,-113.9971067
1130,South Higgins Avenue,59801,46.8602805,-113.9971346
112,University Avenue,59801,46.8603270,-113.9967977
124,University Avenue,59801,46.8603090,-113.9965462
132,University Avenue,59801,46.8603040,-113.9963273
140,University Avenue,59801,46.8603606,-113.9960667
1110,Gerald Avenue,59801,46.8607445,-113.9952309
221,Daly Avenue,59801,46.8607156,-113.9947348
1120,Gerald Avenue,59801,46.8603648,-113.9953121
216,University Avenue,59801,46.8604055,-113.9950087
220,University Avenue,59801,46.8603137,-113.9948618
230,University Avenue,59801,46.8603210,-113.9946903
240,University Avenue,59801,46.8603460,-113.9944038
345,Daly Avenue,59801,46.8607760,-113.9928115
333,Daly Avenue,59801,46.8607801,-113.9930135
325,Daly Avenue,59801,46.8607933,-113.9931904
321,Daly Avenue,59801,46.8607801,-113.9933996
315,Daly Avenue,59801,46.8607969,-113.9936172
1106,Ronald Avenue,59801,46.8608402,-113.9938552
1110,Ronald Avenue,59801,46.8606790,-113.9938650
300,University Avenue,59801,46.8603293,-113.9938475
314,University Avenue,59801,46.8603215,-113.9936371
322,University Avenue,59801,46.8603276,-113.9933879
330,University Avenue,59801,46.8603363,-113.9931692
340,University Avenue,59801,46.8603279,-113.9928556
438,University Avenue,59801,46.8603154,-113.9912250
441,Daly Avenue,59801,46.8607959,-113.9911565
431,Daly Avenue,59801,46.8607985,-113.9913583
429,Daly Avenue,59801,46.8607991,-113.9915432
430,University Avenue,59801,46.8603103,-113.9915118
420,University Avenue,59801,46.8603433,-113.9917631
412,University Avenue,59801,46.8603178,-113.9920032
421,Daly Avenue,59801,46.8607560,-113.9917499
413,Daly Avenue,59801,46.8607983,-113.9919984
401,Daly Avenue,59801,46.8607811,-113.9922301
439,University Avenue,59801,46.8597494,-113.9911760
1227,Helen Avenue,59801,46.8593081,-113.9911406
434,McLeod Avenue,59801,46.8593353,-113.9913732
426,McLeod Avenue,59801,46.8593301,-113.9915554
420,McLeod Avenue,59801,46.8593932,-113.9917265
400,McLeod Avenue,59801,46.8593684,-113.9922173
340,McLeod Avenue,59801,46.8593381,-113.9928091
341,University Avenue,59801,46.8597875,-113.9927726
333,University Avenue,59801,46.8597786,-113.9930276
325,University Avenue,59801,46.8597920,-113.9932870
327,University Avenue,59801,46.8596548,-113.9932285
330,McLeod Avenue,59801,46.8593042,-113.9930303
318,McLeod Avenue,59801,46.8592946,-113.9934529
310,McLeod Avenue,59801,46.8593050,-113.9936594
319,University Avenue,59801,46.8597985,-113.9935239
307,University Avenue,59801,46.8598442,-113.9938072
300,McLeod Avenue,59801,46.8593100,-113.9938682
241,University Avenue,59801,46.8598074,-113.9944306
233,University Avenue,59801,46.8598080,-113.9946700
225,University Avenue,59801,46.8598046,-113.9948878
1229,Ronald Avenue,59801,46.8594638,-113.9944239
238,McLeod Avenue,59801,46.8593307,-113.9944397
234,McLeod Avenue,59801,46.8593465,-113.9946473
230,McLeod Avenue,59801,46.8593213,-113.9949122
228,McLeod Avenue,59801,46.8594893,-113.9949069
201,University Avenue,59801,46.8597453,-113.9953747
219,University Avenue,59801,46.8598280,-113.9950845
1232,Gerald Avenue,59801,46.8593556,-113.9953598
1205,Gerald Avenue,59801,46.8597857,-113.9960956
135,University Avenue,59801,46.8598107,-113.9963122
125,University Avenue,59801,46.8598154,-113.9965346
115,University Avenue,59801,46.8598212,-113.9968229
105,University Avenue,59801,46.8598069,-113.9971523
1231,Gerald Avenue,59801,46.8593715,-113.9961624
126,McLeod Avenue,59801,46.8593051,-113.9964286
116,McLeod Avenue,59801,46.8592931,-113.9966581
112,McLeod Avenue,59801,46.8593316,-113.9968957
102,McLeod Avenue,59801,46.8593132,-113.9971418
436,Keith Avenue,59801,46.8583670,-113.9911355
432,Keith Avenue,59801,46.8583444,-113.9913047
420,Keith Avenue,59801,46.8584039,-113.9915703
408,Keith Avenue,59801,46.8583699,-113.9918689
404,Keith Avenue,59801,46.8583658,-113.9921956
435,McLeod Avenue,59801,46.8588229,-113.9911746
433,McLeod Avenue,59801,46.8588371,-113.9913911
415,McLeod Avenue,59801,46.8588646,-113.9917540
409,McLeod Avenue,59801,46.8588540,-113.9920512
401,McLeod Avenue,59801,46.8588510,-113.9922551
335,McLeod Avenue,59801,46.8588450,-113.9927887
331,McLeod Avenue,59801,46.8588395,-113.9930346
380,Keith Avenue,59801,46.8583722,-113.9928938
317,McLeod Avenue,59801,46.8588473,-113.9935143
309,McLeod Avenue,59801,46.8588525,-113.9937221
320,Keith Avenue,59801,46.8584285,-113.9933827
318,Keith Avenue,59801,46.8583755,-113.9936198
300,Keith Avenue,59801,46.8583273,-113.9938691
1360,Ronald Avenue,59801,46.8585034,-113.9938552
301,McLeod Avenue,59801,46.8588453,-113.9939004
240,Keith Avenue,59801,46.8583727,-113.9944400
243,McLeod Avenue,59801,46.8588235,-113.9944491
235,McLeod Avenue,59801,46.8588349,-113.9946718
230,Keith Avenue,59801,46.8584195,-113.9948059
233,McLeod Avenue,59801,46.8588557,-113.9949563
1330,Gerald Avenue,59801,46.8583735,-113.9953080
1310,Gerald Avenue,59801,46.8587552,-113.9952454
1325,Gerald Avenue,59801,46.8583627,-113.9962597
1305,Gerald Avenue,59801,46.8588356,-113.9962220
125,McLeod Avenue,59801,46.8588117,-113.9967300
113,McLeod Avenue,59801,46.8588510,-113.9969458
101,McLeod Avenue,59801,46.8588278,-113.9971683
100,Keith Avenue,59801,46.8583208,-113.9970947
440,East Beckwith Avenue,59801,46.8573461,-113.9911202
434,East Beckwith Avenue,59801,46.8573607,-113.9912927
441,Keith Avenue,59801,46.8578167,-113.9911269
435,Keith Avenue,59801,46.8578302,-113.9912954
433,Keith Avenue,59801,46.8578318,-113.9915175
415,Keith Avenue,59801,46.8578333,-113.9917593
411,Keith Avenue,59801,46.8577753,-113.9919652
401,Keith Avenue,59801,46.8578030,-113.9922025
420,East Beckwith Avenue,59801,46.8573426,-113.9914773
416,East Beckwith Avenue,59801,46.8573617,-113.9917614
410,East Beckwith Avenue,59801,46.8573947,-113.9919792
402,East Beckwith Avenue,59801,46.8573902,-113.9922232
340,East Beckwith Avenue,59801,46.8573755,-113.9927623
330,East Beckwith Avenue,59801,46.8573671,-113.9931395
322,East Beckwith Avenue,59801,46.8573320,-113.9933757
318,East Beckwith Avenue,59801,46.8573368,-113.9936298
302,East Beckwith Avenue,59801,46.8573382,-113.9938621
325,Keith Avenue,59801,46.8578397,-113.9932694
315,Keith Avenue,59801,46.8577792,-113.9935023
301,Keith Avenue,59801,46.8578290,-113.9938779
242,East Beckwith Avenue,59801,46.8573680,-113.9943950
241,Keith Avenue,59801,46.8578284,-113.9944400
234,East Beckwith Avenue,59801,46.8573693,-113.9945915
222,East Beckwith Avenue,59801,46.8573341,-113.9947908
233,Keith Avenue,59801,46.8578519,-113.9946440
229,Keith Avenue,59801,46.8578438,-113.9948086
1434,Gerald Avenue,59801,46.8573337,-113.9952774
1400,Gerald Avenue,59801,46.8577619,-113.9952610
1401,Gerald Avenue,59801,46.8578250,-113.9962447
1405,Gerald Avenue,59801,46.8576671,-113.9962055
1409,Gerald Avenue,59801,46.8574719,-113.9961977
1435,Gerald Avenue,59801,46.8573019,-113.9962177
101,Keith Avenue,59801,46.8578926,-113.9970733
1402,South Higgins Avenue,59801,46.8577116,-113.9968809
1406,South Higgins Avenue,59801,46.8575264,-113.9968831
101,Evans Avenue,59801,46.8556257,-113.9967071
1528,South Higgins Avenue,59801,46.8567517,-113.9969432
123,East Beckwith Avenue,59801,46.8567358,-113.9965724
125,East Beckwith Avenue,59801,46.8568579,-113.9963009
145,East Beckwith Avenue,59801,46.8568596,-113.9960660
120,Evans Avenue,59801,46.8563393,-113.9964932
1521,Gerald Avenue,59801,46.8564976,-113.9960916
1525,Gerald Avenue,59801,46.8563372,-113.9961636
1407,South Higgins Avenue,59801,46.8577821,-113.9977436
201,East Beckwith Avenue,59801,46.8568579,-113.9953527
217,East Beckwith Avenue,59801,46.8568818,-113.9950683
233,East Beckwith Avenue,59801,46.8568504,-113.9948246
235,East Beckwith Avenue,59801,46.8568435,-113.9946495
241,East Beckwith Avenue,59801,46.8568578,-113.9944176
200,Evans Avenue,59801,46.8563686,-113.9955013
212,Evans Avenue,59801,46.8563518,-113.9952675
218,Evans Avenue,59801,46.8563532,-113.9950558
220,Evans Avenue,59801,46.8564916,-113.9950746
222,Evans Avenue,59801,46.8563645,-113.9948740
232,Evans Avenue,59801,46.8563641,-113.9946706
238,Evans Avenue,59801,46.8565361,-113.9944120
301,East Beckwith Avenue,59801,46.8568433,-113.9938716
323,East Beckwith Avenue,59801,46.8568633,-113.9933847
313,East Beckwith Avenue,59801,46.8566846,-113.9935790
333,East Beckwith Avenue,59801,46.8568896,-113.9931246
300,Evans Avenue,59801,46.8563510,-113.9938801
310,Evans Avenue,59801,46.8563494,-113.9936455
314,Evans Avenue,59801,46.8563606,-113.9934642
322,Evans Avenue,59801,46.8563627,-113.9932606
339,East Beckwith Avenue,59801,46.8568877,-113.9928457
1525,Hilda Avenue,59801,46.8566833,-113.9928473
330,Evans Avenue,59801,46.8563503,-113.9929922
1529,Hilda Avenue,59801,46.8565427,-113.9927461
340,Evans Avenue,59801,46.8563330,-113.9928092
401,East Beckwith Avenue,59801,46.8568585,-113.9922217
415,East Beckwith Avenue,59801,46.8568774,-113.9919881
419,East Beckwith Avenue,59801,46.8568791,-113.9917469
427,East Beckwith Avenue,59801,46.8568584,-113.9915567
435,East Beckwith Avenue,59801,46.8568839,-113.9913433
439,East Beckwith Avenue,59801,46.8568783,-113.9911393
1509,Helen Avenue,59801,46.8567141,-113.9911574
1530,Hilda Avenue,59801,46.8565013,-113.9922131
400,Evans Avenue,59801,46.8563420,-113.9921880
416,Evans Avenue,59801,46.8564022,-113.9919536
418,Evans Avenue,59801,46.8563378,-113.9917779
424,Evans Avenue,59801,46.8563493,-113.9915993
430,Evans Avenue,59801,46.8563563,-113.9914027
440,Evans Avenue,59801,46.8563642,-113.9911644
505,East Beckwith Avenue,59801,46.8568707,-113.9905836
511,East Beckwith Avenue,59801,46.8568298,-113.9903522
517,East Beckwith Avenue,59801,46.8568389,-113.9901344
525,East Beckwith Avenue,59801,46.8568707,-113.9898927
533,East Beckwith Avenue,59801,46.8568590,-113.9897269
541,East Beckwith Avenue,59801,46.8568525,-113.9895145
518,Evans Avenue,59801,46.8563611,-113.9902299
536,Evans Avenue,59801,46.8563547,-113.9899853
538,Evans Avenue,59801,46.8563662,-113.9897438
540,Evans Avenue,59801,46.8563469,-113.9895186
601,East Beckwith Avenue,59801,46.8568844,-113.9888912
609,East Beckwith Avenue,59801,46.8569120,-113.9886731
619,East Beckwith Avenue,59801,46.8568906,-113.9884966
629,East Beckwith Avenue,59801,46.8568902,-113.9882756
633,East Beckwith Avenue,59801,46.8568815,-113.9880707
643,East Beckwith Avenue,59801,46.8568789,-113.9878712
655,East Beckwith Avenue,59801,46.8568631,-113.9874717
667,East Beckwith Avenue,59801,46.8568879,-113.9871465
600,Evans Avenue,59801,46.8563757,-113.9888612
614,Evans Avenue,59801,46.8563705,-113.9885932
620,Evans Avenue,59801,46.8564033,-113.9883483
630,Evans Avenue,59801,46.8563818,-113.9880998
636,Evans Avenue,59801,46.8563537,-113.9878743
640,Evans Avenue,59801,46.8563673,-113.9876456
656,Evans Avenue,59801,46.8563580,-113.9873880
660,Evans Avenue,59801,46.8563546,-113.9871354
715,East Beckwith Avenue,59801,46.8569043,-113.9861735
717,East Beckwith Avenue,59801,46.8567310,-113.9861942
725,East Beckwith Avenue,59801,46.8568731,-113.9859436
725 1,East Beckwith Avenue,59801,46.8566854,-113.9859804
731,East Beckwith Avenue,59801,46.8568736,-113.9857664
737,East Beckwith Avenue,59801,46.8568910,-113.9855882
1520,Maurice Avenue,59801,46.8565295,-113.9865445
1530,Maurice Avenue,59801,46.8564161,-113.9865192
1534,Maurice Avenue,59801,46.8563041,-113.9865319
740,Evans Avenue,59801,46.8563559,-113.9859723
1529,Mansfield Avenue,59801,46.8565214,-113.9855891
1531,Mansfield Avenue,59801,46.8564084,-113.9856721
1533,Mansfield Avenue,59801,46.8562997,-113.9855971
801,East Beckwith Avenue,59801,46.8568796,-113.9851467
805,East Beckwith Avenue,59801,46.8569135,-113.9848933
831,East Beckwith Avenue,59801,46.8568956,-113.9844109
835,East Beckwith Avenue,59801,46.8568918,-113.9841754
1534,Mansfield Avenue,59801,46.8563565,-113.9850929
810,Evans Avenue,59801,46.8563891,-113.9848290
830,Evans Avenue,59801,46.8563705,-113.9845320
888,Evans Avenue,59801,46.8564050,-113.9842391
921,East Beckwith Avenue,59801,46.8569667,-113.9827897
923,East Beckwith Avenue,59801,46.8568607,-113.9828099
917,East Beckwith Avenue,59801,46.8566910,-113.9832426
927,East Beckwith Avenue,59801,46.8566527,-113.9828626
919,East Beckwith Avenue,59801,46.8566024,-113.9830736
910,Evans Avenue,59801,46.8564789,-113.9833962
1530,Madeline Avenue,59812,46.8564879,-113.9835539
920,Evans Avenue,59801,46.8563969,-113.9830689
1600,Gerald Avenue,59801,46.8558242,-113.9955094
205,Evans Avenue,59801,46.8558083,-113.9952040
1620,Gerald Avenue,59801,46.8554554,-113.9954884
212,Hastings Avenue,59801,46.8553909,-113.9952639
214,Hastings Avenue,59801,46.8553618,-113.9950451
1601,Ronald Avenue,59801,46.8559196,-113.9945280
1611,Ronald Avenue,59801,46.8557566,-113.9945346
1617,Ronald Avenue,59801,46.8556149,-113.9945288
224,Hastings Avenue,59801,46.8553450,-113.9947787
403,Evans Avenue,59801,46.8558832,-113.9921994
409,Evans Avenue,59801,46.8558796,-113.9918433
411,Evans Avenue,59801,46.8559063,-113.9916242
413,Evans Avenue,59801,46.8558431,-113.9913886
1601,Helen Avenue,59801,46.8558670,-113.9911738
1620,Hilda Avenue,59801,46.8555285,-113.9921739
1624,Hilda Avenue,59801,46.8553483,-113.9921630
420,Hastings Avenue,59801,46.8554489,-113.9917490
424,Hastings Avenue,59801,46.8553857,-113.9915065
436,Hastings Avenue,59801,46.8553937,-113.9912960
434,Hastings Avenue,59801,46.8555587,-113.9913328
440,Hastings Avenue,59801,46.8553915,-113.9911101
501,Evans Avenue,59801,46.8558508,-113.9905710
511,Evans Avenue,59801,46.8559019,-113.9903779
519,Evans Avenue,59801,46.8558878,-113.9900930
525,Evans Avenue,59801,46.8558629,-113.9898710
541,Evans Avenue,59801,46.8558675,-113.9895281
1630,Helen Avenue,59801,46.8553854,-113.9905151
1620,Helen Avenue,59801,46.8555408,-113.9905847
506,Hastings Avenue,59801,46.8553665,-113.9902345
510,Hastings Avenue,59801,46.8553603,-113.9899851
530,Hastings Avenue,59801,46.8553851,-113.9897330
544,Hastings Avenue,59801,46.8554380,-113.9895262
1600,Arthur Avenue,59801,46.8558316,-113.9889481
605,Evans Avenue,59801,46.8558692,-113.9887025
615,Evans Avenue,59801,46.8558200,-113.9884643
625,Evans Avenue,59801,46.8558896,-113.9882244
633,Evans Avenue,59801,46.8559064,-113.9880343
645,Evans Avenue,59801,46.8558949,-113.9877027
655,Evans Avenue,59801,46.8558907,-113.9873939
665,Evans Avenue,59801,46.8558675,-113.9871739
1620,Arthur Avenue,59801,46.8553867,-113.9889691
610,Hastings Avenue,59801,46.8553550,-113.9887300
620,Hastings Avenue,59801,46.8554494,-113.9884407
634,Hastings Avenue,59801,46.8553646,-113.9882525
636,Hastings Avenue,59801,46.8553702,-113.9880112
640,Hastings Avenue,59801,46.8553754,-113.9877625
650,Hastings Avenue,59801,46.8553564,-113.9875313
660,Hastings Avenue,59801,46.8553637,-113.9873171
678,Hastings Avenue,59801,46.8553761,-113.9871081
1600,Maurice Avenue,59801,46.8558216,-113.9865820
1616,Maurice Avenue,59801,46.8554261,-113.9865375
719,Evans Avenue,59801,46.8557260,-113.9860783
725,Evans Avenue,59801,46.8559144,-113.9858466
737,Evans Avenue,59801,46.8559049,-113.9856257
718,Hastings Avenue,59801,46.8554053,-113.9863241
724,Hastings Avenue,59801,46.8553692,-113.9861093
730,Hastings Avenue,59801,46.8553822,-113.9858557
1639,Mansfield Avenue,59801,46.8554043,-113.9856154
805,Evans Avenue,59801,46.8558742,-113.9850261
839,Evans Avenue,59801,46.8559050,-113.9846555
1609,Madeline Avenue,59801,46.8557620,-113.9842638
800,Hastings Avenue,59801,46.8553546,-113.9851202
820,Hastings Avenue,59801,46.8553905,-113.9846381
1625,Madeline Avenue,59801,46.8554556,-113.9843447
905,Evans Avenue,59801,46.8559262,-113.9835269
1610,Madeline Avenue,59801,46.8556739,-113.9834826
1650,Madeline Avenue,59801,46.8553093,-113.9836241
1700,Madeline Avenue,59801,46.8549450,-113.9837041
1710,Madeline Avenue,59801,46.8547697,-113.9837400
1740,Madeline Avenue,59801,46.8543398,-113.9837416
1800,Madeline Avenue,59801,46.8541771,-113.9837611
1702,South Higgins Avenue,59801,46.8549263,-113.9970696
1730,South Higgins Avenue,59801,46.8547344,-113.9970342
127,Hastings Avenue,59801,46.8548802,-113.9965531
141,Hastings Avenue,59801,46.8548922,-113.9960363
1715,Gerald Avenue,59801,46.8547106,-113.9960175
133,Hastings Avenue,59801,46.8548928,-113.9962832
1736,South Higgins Avenue,59801,46.8545056,-113.9970815
1740,South Higgins Avenue,59801,46.8543565,-113.9970652
118,Beverly Avenue,59801,46.8543218,-113.9968049
130,Beverly Avenue,59801,46.8543557,-113.9962620
120,Beverly Avenue,59801,46.8543968,-113.9965352
1735,Gerald Avenue,59801,46.8544125,-113.9960650
201,Hastings Avenue,59801,46.8548899,-113.9955111
211,Hastings Avenue,59801,46.8548993,-113.9952967
217,Hastings Avenue,59801,46.8549013,-113.9951124
225,Hastings Avenue,59801,46.8548698,-113.9948790
1715,Ronald Avenue,59801,46.8548294,-113.9944589
204,Beverly Avenue,59801,46.8543522,-113.9954735
222,Beverly Avenue,59801,46.8543828,-113.9951353
226,Beverly Avenue,59801,46.8544040,-113.9948938
234,Beverly Avenue,59801,46.8543847,-113.9946810
1745,Ronald Avenue,59801,46.8544466,-113.9944402
403,Hastings Avenue,59801,46.8548983,-113.9922079
415,Hastings Avenue,59801,46.8548925,-113.9920104
419,Hastings Avenue,59801,46.8549034,-113.9918304
425,Hastings Avenue,59801,46.8549145,-113.9916215
435,Hastings Avenue,59801,46.8549011,-113.9913468
445,Hastings Avenue,59801,46.8548657,-113.9911248
1720,Hilda Avenue,59801,46.8545228,-113.9921745
1724,Hilda Avenue,59801,46.8543547,-113.9921207
412,Beverly Avenue,59801,46.8544077,-113.9917471
430,Beverly Avenue,59801,46.8543866,-113.9914950
432,Beverly Avenue,59801,46.8545642,-113.9914589
1721,Helen Avenue,59801,46.8545380,-113.9911197
501,Hastings Avenue,59801,46.8548922,-113.9905909
509,Hastings Avenue,59801,46.8549122,-113.9903401
1730,Helen Avenue,59801,46.8544218,-113.9905824
510,Beverly Avenue,59801,46.8543768,-113.9903336
511,Hastings Avenue,59801,46.8548947,-113.9901200
520,Beverly Avenue,59801,46.8544153,-113.9900932
515,Hastings Avenue,59801,46.8549119,-113.9898543
519,Hastings Avenue,59801,46.8549237,-113.9895756
524,Beverly Avenue,59801,46.8543571,-113.9898953
526,Beverly Avenue,59801,46.8543843,-113.9896696
540,Beverly Avenue,59801,46.8543824,-113.9894872
1700,Arthur Avenue,59801,46.8548172,-113.9889127
600,Beverly Avenue,59801,46.8544448,-113.9888750
615,Hastings Avenue,59801,46.8548482,-113.9886294
625,Hastings Avenue,59801,46.8548782,-113.9883987
620,Beverly Avenue,59801,46.8543907,-113.9884415
631,Hastings Avenue,59801,46.8548673,-113.9881481
640,Beverly Avenue,59801,46.8544379,-113.9880302
635,Hastings Avenue,59801,46.8548613,-113.9879078
644,Beverly Avenue,59801,46.8544654,-113.9876538
660,Beverly Avenue,59801,46.8544387,-113.9872802
645,Hastings Avenue,59801,46.8548832,-113.9876702
665,Hastings Avenue,59801,46.8548720,-113.9874127
1701,Maurice Avenue,59801,46.8548782,-113.9871232
1703,Maurice Avenue,59801,46.8547290,-113.9871394
1720,Maurice Avenue,59801,46.8548422,-113.9865570
714,Beverly Avenue,59801,46.8543849,-113.9862346
720,Beverly Avenue,59801,46.8543966,-113.9860585
724,Beverly Avenue,59801,46.8544945,-113.9858605
719,Hastings Avenue,59801,46.8549208,-113.9861045
723,Hastings Avenue,59801,46.8549242,-113.9858446
735,Hastings Avenue,59801,46.8548655,-113.9855942
1737,Mansfield Avenue,59801,46.8544107,-113.9856005
801,Hastings Avenue,59801,46.8548793,-113.9851124
811,Hastings Avenue,59801,46.8549198,-113.9847138
831,Hastings Avenue,59801,46.8549330,-113.9841965
800,Beverly Avenue,59801,46.8543972,-113.9851588
808,Beverly Avenue,59801,46.8543780,-113.9849408
810,Beverly Avenue,59801,46.8544063,-113.9847175
824,Beverly Avenue,59801,46.8543603,-113.9845020
840,Beverly Avenue,59801,46.8543566,-113.9841645
1800,South Higgins Avenue,59801,46.8539003,-113.9971290
119,Beverly Avenue,59801,46.8539293,-113.9968289
1818,South Higgins Avenue,59801,46.8536593,-113.9970868
1824,South Higgins Avenue,59801,46.8535037,-113.9970739
1840,South Higgins Avenue,59801,46.8533587,-113.9970311
125,Beverly Avenue,59801,46.8539160,-113.9965542
129,Beverly Avenue,59801,46.8539062,-113.9962833
118,Woodworth Avenue,59801,46.8534065,-113.9965453
131,Beverly Avenue,59801,46.8538849,-113.9960354
120,Woodworth Avenue,59801,46.8533991,-113.9962995
130,Woodworth Avenue,59801,46.8533888,-113.9960543
211,Beverly Avenue,59801,46.8539141,-113.9952689
200,Woodworth Avenue,59801,46.8534329,-113.9954773
216,Woodworth Avenue,59801,46.8534133,-113.9951363
214,Woodworth Avenue,59801,46.8535821,-113.9951782
225,Beverly Avenue,59801,46.8538777,-113.9950083
222,Woodworth Avenue,59801,46.8534117,-113.9949113
231,Beverly Avenue,59801,46.8539095,-113.9946604
240,Woodworth Avenue,59801,46.8534138,-113.9946572
241,Beverly Avenue,59801,46.8538960,-113.9944254
1825,Ronald Avenue,59801,46.8534732,-113.9943958
1800,Ronald Avenue,59801,46.8538142,-113.9938730
309,Beverly Avenue,59801,46.8539024,-113.9936381
1830,Ronald Avenue,59801,46.8534166,-113.9938745
310,Woodworth Avenue,59801,46.8533936,-113.9936174
317,Beverly Avenue,59801,46.8539042,-113.9934335
325,Beverly Avenue,59801,46.8539145,-113.9932348
320,Woodworth Avenue,59801,46.8534124,-113.9933738
332,Woodworth Avenue,59801,46.8534083,-113.9930983
333,Beverly Avenue,59801,46.8538876,-113.9930030
340,Woodworth Avenue,59801,46.8533920,-113.9927765
341,Beverly Avenue,59801,46.8539042,-113.9927759
1802,Hilda Avenue,59801,46.8538931,-113.9922509
409,Beverly Avenue,59801,46.8539290,-113.9920556
402,Woodworth Avenue,59801,46.8533954,-113.9922167
410,Woodworth Avenue,59801,46.8533720,-113.9919754
417,Beverly Avenue,59801,46.8539394,-113.9918219
425,Beverly Avenue,59801,46.8539236,-113.9916247
420,Woodworth Avenue,59801,46.8533694,-113.9917286
424,Woodworth Avenue,59801,46.8534030,-113.9914494
435,Beverly Avenue,59801,46.8539290,-113.9913859
437,Beverly Avenue,59801,46.8539203,-113.9911258
440,Woodworth Avenue,59801,46.8534329,-113.9911254
501,Beverly Avenue,59801,46.8539174,-113.9905730
511,Beverly Avenue,59801,46.8539267,-113.9903361
500,Woodworth Avenue,59801,46.8533948,-113.9905768
510,Woodworth Avenue,59801,46.8534271,-113.9903289
514,Woodworth Avenue,59801,46.8533901,-113.9900898
521,Beverly Avenue,59801,46.8539124,-113.9901076
525,Beverly Avenue,59801,46.8539339,-113.9898337
530,Woodworth Avenue,59801,46.8533669,-113.9898506
545,Beverly Avenue,59801,46.8539379,-113.9895739
1801,Arthur Avenue,59801,46.8537676,-113.9895111
534,Woodworth Avenue,59801,46.8533933,-113.9896346
546,Woodworth Avenue,59801,46.8533694,-113.9894651
601,Beverly Avenue,59801,46.8539031,-113.9888373
619,Beverly Avenue,59801,46.8539156,-113.9884297
1820,Arthur Avenue,59801,46.8534554,-113.9889361
614,Woodworth Avenue,59801,46.8534100,-113.9886311
620,Woodworth Avenue,59801,46.8534812,-113.9883950
630,Woodworth Avenue,59801,46.8534099,-113.9881514
629,Beverly Avenue,59801,46.8538783,-113.9880507
645,Beverly Avenue,59801,46.8539165,-113.9876998
640,Woodworth Avenue,59801,46.8534290,-113.9879144
644,Woodworth Avenue,59801,46.8534243,-113.9876007
1805,Maurice Avenue,59801,46.8534980,-113.9871860
655,Beverly Avenue,59801,46.8538825,-113.9874185
1801,Maurice Avenue,59801,46.8538688,-113.9871786
701,Beverly Avenue,59801,46.8539121,-113.9865377
725,Beverly Avenue,59801,46.8538966,-113.9859825
715,Beverly Avenue,59801,46.8539208,-113.9862107
737,Beverly Avenue,59801,46.8538884,-113.9856483
1810,Maurice Avenue,59801,46.8535658,-113.9865296
700,Woodworth Avenue,59801,46.8533847,-113.9864807
720,Woodworth Avenue,59801,46.8533911,-113.9861634
730,Woodworth Avenue,59801,46.8533823,-113.9858693
1839,Mansfield Avenue,59801,46.8533782,-113.9856183
803,Beverly Avenue,59801,46.8538868,-113.9851153
809,Beverly Avenue,59801,46.8539093,-113.9848908
855,Beverly Avenue,59801,46.8539011,-113.9842152
800,Woodworth Avenue,59801,46.8534732,-113.9851017
810,Woodworth Avenue,59801,46.8534286,-113.9848659
820,Woodworth Avenue,59801,46.8534912,-113.9846486
856,Woodworth Avenue,59801,46.8534780,-113.9843015
1900,South Higgins Avenue,59801,46.8529191,-113.9971398
103,Woodworth Avenue,59801,46.8529532,-113.9969442
111,Woodworth Avenue,59801,46.8529196,-113.9967492
1920,South Higgins Avenue,59801,46.8526035,-113.9971318
104,North Avenue East,59801,46.8526219,-113.9969402
110,North Avenue East,59801,46.8526260,-113.9967520
116,North Avenue East,59801,46.8526093,-113.9965663
125,Woodworth Avenue,59801,46.8529371,-113.9965360
143,Woodworth Avenue,59801,46.8529295,-113.9963078
120,North Avenue East,59801,46.8526086,-113.9963634
130,North Avenue East,59801,46.8525976,-113.9961982
145,Woodworth Avenue,59801,46.8529655,-113.9960397
140,North Avenue East,59801,46.8526030,-113.9960203
205,Woodworth Avenue,59801,46.8529085,-113.9954708
217,Woodworth Avenue,59801,46.8529186,-113.9950573
212,North Avenue East,59801,46.8526158,-113.9952334
218,North Avenue East,59801,46.8526160,-113.9950128
227,Woodworth Avenue,59801,46.8529320,-113.9947775
220,North Avenue East,59801,46.8526259,-113.9947767
1900,Ronald Avenue,59801,46.8529288,-113.9945025
232,North Avenue East,59801,46.8526356,-113.9945453
240,North Avenue East,59801,46.8526542,-113.9943724
200,North Avenue East,59801,46.8526508,-113.9955071
301,Woodworth Avenue,59801,46.8529256,-113.9938659
313,Woodworth Avenue,59801,46.8529338,-113.9936160
321,Woodworth Avenue,59801,46.8529133,-113.9933570
302,North Avenue East,59801,46.8526211,-113.9938406
308,North Avenue East,59801,46.8526277,-113.9935759
312,North Avenue East,59801,46.8526322,-113.9933146
330,North Avenue East,59801,46.8526676,-113.9930189
325,Woodworth Avenue,59801,46.8529030,-113.9931040
333,Woodworth Avenue,59801,46.8529183,-113.9928104
340,North Avenue East,59801,46.8526622,-113.9927704
401,Woodworth Avenue,59801,46.8529122,-113.9922102
411,Woodworth Avenue,59801,46.8529051,-113.9919788
421,Woodworth Avenue,59801,46.8529055,-113.9917509
431,Woodworth Avenue,59801,46.8528964,-113.9914797
441,Woodworth Avenue,59801,46.8529236,-113.9911724
400,North Avenue East,59801,46.8526557,-113.9921799
408,North Avenue East,59801,46.8526260,-113.9919592
412,North Avenue East,59801,46.8526356,-113.9917221
422,North Avenue East,59801,46.8526491,-113.9914677
440,North Avenue East,59801,46.8526269,-113.9912595
501,Woodworth Avenue,59801,46.8529321,-113.9905698
500,North Avenue East,59801,46.8526223,-113.9905828
508,North Avenue East,59801,46.8526180,-113.9902974
511,Woodworth Avenue,59801,46.8529419,-113.9903429
519,Woodworth Avenue,59801,46.8529171,-113.9901017
521,Woodworth Avenue,59801,46.8529043,-113.9898598
516,North Avenue East,59801,46.8526227,-113.9900914
520,North Avenue East,59801,46.8526239,-113.9898462
540,North Avenue East,59801,46.8526291,-113.9895691
541,Woodworth Avenue,59801,46.8529295,-113.9895489
601,Woodworth Avenue,59801,46.8529283,-113.9889185
600,North Avenue East,59801,46.8526277,-113.9889150
611,Woodworth Avenue,59801,46.8529208,-113.9886240
620,North Avenue East,59801,46.8526307,-113.9885831
630,North Avenue East,59801,46.8526202,-113.9883109
621,Woodworth Avenue,59801,46.8529278,-113.9883377
625,Woodworth Avenue,59801,46.8529399,-113.9881142
640,North Avenue East,59801,46.8526464,-113.9880817
635,Woodworth Avenue,59801,46.8529407,-113.9878676
650,North Avenue East,59801,46.8526432,-113.9878561
645,Woodworth Avenue,59801,46.8528988,-113.9876648
660 A,North Avenue East,59801,46.8526478,-113.9875457
655,Woodworth Avenue,59801,46.8529372,-113.9874523
670,North Avenue East,59801,46.8526445,-113.9871854
665,Woodworth Avenue,59801,46.8529880,-113.9871546
527,West Alder Street,59802,46.8766873,-113.9996537
217,Tremont Street,59801,46.8622176,-114.0014503
237,Blaine Street,59801,46.8613416,-113.9985054
1151,West Broadway Street,59802,46.8764491,-114.0096079
610,North California Street,59802,46.8773267,-114.0130989
501,North California Street,59802,46.8767574,-114.0138675
827,Woody Street,59802,46.8780266,-113.9934181
307,North 2nd Street West,59802,46.8780893,-113.9935803
317,North 2nd Street West,59802,46.8781910,-113.9937929
321,North 2nd Street West,59802,46.8782842,-113.9939280
329,North 2nd Street West,59802,46.8783603,-113.9940921
333,North 2nd Street West,59802,46.8784168,-113.9941904
716,North Dickens Street,59802,46.8783102,-114.0029273
825,Cooper Street,59802,46.8787216,-114.0027672
722,North Dickens Street,59802,46.8786220,-114.0029897
734,North Dickens Street,59802,46.8787739,-114.0029966
904,Toole Avenue,59802,46.8782492,-114.0035169
914,Toole Avenue,59802,46.8782442,-114.0037410
916,Toole Avenue,59802,46.8782801,-114.0039205
924,Toole Avenue,59802,46.8782918,-114.0040759
930,Toole Avenue,59802,46.8782676,-114.0042639
934,Toole Avenue,59802,46.8782608,-114.0044599
905,Cooper Street,59802,46.8787322,-114.0034931
907,Cooper Street,59802,46.8787884,-114.0036055
911,Cooper Street,59802,46.8788010,-114.0037198
915,Cooper Street,59802,46.8787886,-114.0038451
919,Cooper Street,59802,46.8787890,-114.0039578
927,Cooper Street,59802,46.8788007,-114.0041152
935,Cooper Street,59802,46.8787845,-114.0044226
937,Cooper Street,59802,46.8787153,-114.0045512
512,West Alder Street,59802,46.8772675,-113.9987933
521,Toole Avenue,59802,46.8778234,-113.9990323
626,Toole Avenue,59802,46.8782514,-113.9996364
620,Toole Avenue,59802,46.8783063,-113.9995312
616,Toole Avenue,59802,46.8782023,-113.9994157
618,Toole Avenue,59802,46.8783052,-113.9994135
506,Toole Avenue,59802,46.8780005,-113.9975939
1565,Liberty Lane,59808,46.8782431,-114.0206103
455,East Main Street,59802,46.8696947,-113.9897793
1609,West Broadway Street,59808,46.8795242,-114.0220379
1609,West Broadway Street,59808,46.8796153,-114.0224677
2855,Mullan Road,59808,46.8832808,-114.0331195
1735,South Higgins Avenue,59801-5765,46.8543009,-113.9976583
111,South Avenue West,59801,46.8485180,-113.9982400
2325,Higgins Avenue,59801,46.8491417,-113.9977775
226,East Sussex Avenue,59801,46.8499625,-113.9949415
500,East Central Avenue,59801,46.8508650,-113.9905560
127,East Sussex Avenue,59801,46.8495140,-113.9961735
115,North Avenue East,59801,46.8521895,-113.9967035
236,East Sussex Avenue,59801,46.8499285,-113.9945535
125,North Avenue East,59801,46.8521960,-113.9964915
216,East Kent Avenue,59801,46.8517500,-113.9950340
2230,Gerald Avenue,59801,46.8499815,-113.9955195
106,East Kent Avenue,59801,46.8517405,-113.9966820
340,East Kent Avenue,59801,46.8518050,-113.9927955
640,South Avenue East,59801,46.8490535,-113.9876860
401,North Avenue East,59801,46.8522405,-113.9921435
141,North Avenue East,59801,46.8521905,-113.9960575
620,East Sussex Avenue,59801,46.8499435,-113.9882860
116,South Avenue East,59801,46.8489910,-113.9966510
410,East Kent Avenue,59801,46.8517530,-113.9919465
639,East Sussex Avenue,59801,46.8495150,-113.9874985
600,East Central Avenue,59801,46.8509130,-113.9889175
434,East Kent Avenue,59801,46.8518060,-113.9913825
600,East Sussex Avenue,59801,46.8499515,-113.9889385
318,East Central Avenue,59801,46.8508740,-113.9936265
340,East Central Avenue,59801,46.8508675,-113.9927445
105,East Sussex Avenue,59801,46.8495340,-113.9968630
431,East Sussex Avenue,59801,46.8495550,-113.9913515
102,East Kent Avenue,59801,46.8517795,-113.9971360
233,East Central Avenue,59801,46.8504090,-113.9947280
115,East Sussex Avenue,59801,46.8495250,-113.9966385
112,East Central Avenue,59801,46.8508640,-113.9967895
201,North Avenue East,59801,46.8521975,-113.9954855
333,East Kent Avenue,59801,46.8513285,-113.9927395
531,East Sussex Avenue,59801,46.8495525,-113.9899525
120,South Avenue East,59801,46.8489855,-113.9964820
502,East Sussex Avenue,59801,46.8499675,-113.9905455
501,East Sussex Avenue,59801,46.8495290,-113.9905665
135,East Central Avenue,59801,46.8504295,-113.9963105
300,East Kent Avenue,59801,46.8517945,-113.9938665
520,South Avenue East,59801,46.8491570,-113.9901980
332,East Central Avenue,59801,46.8508785,-113.9929715
616,South Avenue East,59801,46.8490490,-113.9883780
329,East Kent Avenue,59801,46.8513210,-113.9929660
119,East Kent Avenue,59801,46.8513225,-113.9962460
648,East Sussex Avenue,59801,46.8499650,-113.9872725
324,South Avenue East,59801,46.8492215,-113.9932665
607,East Kent Avenue,59801,46.8513610,-113.9884980
216,East Central Avenue,59801,46.8509970,-113.9950660
220,East Central Avenue,59801,46.8508705,-113.9945735
500,South Avenue East,59801,46.8490410,-113.9905425
2210,Hilda Avenue,59801,46.8503395,-113.9921730
310,South Avenue East,59801,46.8490105,-113.9935840
421,North Avenue East,59801,46.8522445,-113.9916085
111,East Kent Avenue,59801,46.8513265,-113.9966660
201,East Central Avenue,59801,46.8504170,-113.9954580
521,East Kent Avenue,59801,46.8513465,-113.9899805
120,East Central Avenue,59801,46.8509200,-113.9965990
310,East Sussex Avenue,59801,46.8499500,-113.9935665
511,North Avenue East,59801,46.8522525,-113.9900975
2200,Ronald Avenue,59801,46.8503890,-113.9938630
317,East Kent Avenue,59801,46.8513235,-113.9936320
2118,Gerald Avenue,59801,46.8511775,-113.9954710
125,East Sussex Avenue,59801,46.8495185,-113.9964140
675,North Avenue East,59801,46.8522550,-113.9871390
328,East Central Avenue,59801,46.8508685,-113.9931820
501,North Avenue East,59801,46.8522045,-113.9905685
540,East Central Avenue,59801,46.8508780,-113.9894640
219,North Avenue East,59801,46.8522105,-113.9949000
303,East Kent Avenue,59801,46.8513200,-113.9938590
2021,Maurice Avenue,59801,46.8517875,-113.9871210
333,North Avenue East,59801,46.8522115,-113.9932985
616,East Central Avenue,59801,46.8508815,-113.9880765
321,East Kent Avenue,59801,46.8513275,-113.9933480
325,East Central Avenue,59801,46.8503400,-113.9934030
518,East Central Avenue,59801,46.8508735,-113.9903025
646,East Sussex Avenue,59801,46.8499425,-113.9874645
302,East Sussex Avenue,59801,46.8499365,-113.9938455
212,East Kent Avenue,59801,46.8518940,-113.9952710
326,East Kent Avenue,59801,46.8517625,-113.9932335
2118,South Higgins Avenue,59801,46.8510280,-113.9971470
634,East Kent Avenue,59801,46.8517710,-113.9878640
137,North Avenue East,59801,46.8521995,-113.9963160
324,East Central Avenue,59801,46.8508760,-113.9933975
625,East Kent Avenue,59801,46.8513525,-113.9881930
417,East Central Avenue,59801,46.8504375,-113.9918220
435,East Kent Avenue,59801,46.8513780,-113.9913515
515,East Sussex Avenue,59801,46.8495535,-113.9903720
130,East Sussex Avenue,59801,46.8499810,-113.9960745
607,East Central Avenue,59801,46.8504140,-113.9885035
415,East Sussex Avenue,59801,46.8495195,-113.9918330
335,North Avenue East,59801,46.8522195,-113.9930475
517,East Sussex Avenue,59801,46.8495175,-113.9901805
104,East Kent Avenue,59801,46.8517565,-113.9968420
645,East Central Avenue,59801,46.8504220,-113.9877085
115,East Central Avenue,59801,46.8504245,-113.9967745
415,East Kent Avenue,59801,46.8513695,-113.9918140
507,North Avenue East,59801,46.8522480,-113.9903200
240,East Kent Avenue,59801,46.8517730,-113.9944745
520,East Sussex Avenue,59801,46.8499745,-113.9899240
223,East Central Avenue,59801,46.8504085,-113.9952175
2301,Hilda Avenue,59801,46.8495560,-113.9927525
231,East Kent Avenue,59801,46.8513595,-113.9945535
329,East Central Avenue,59801,46.8503870,-113.9931105
541,East Sussex Avenue,59801,46.8495565,-113.9895970
425,East Kent Avenue,59801,46.8513695,-113.9915925
532,South Avenue East,59801,46.8490440,-113.9898625
316,East Kent Avenue,59801,46.8517900,-113.9934535
516,East Sussex Avenue,59801,46.8499455,-113.9902410
430,East Sussex Avenue,59801,46.8499340,-113.9913445
228,South Avenue East,59801,46.8490050,-113.9947735
643,East Kent Avenue,59801,46.8513480,-113.9879605
545,North Avenue East,59801,46.8522520,-113.9895690
136,East Kent Avenue,59801,46.8517245,-113.9962980
207,East Kent Avenue,59801,46.8513445,-113.9950590
219,East Sussex Avenue,59801,46.8495295,-113.9950820
523,East Central Avenue,59801,46.8504320,-113.9901225
102,East Sussex Avenue,59801,46.8499185,-113.9971150
325,North Avenue East,59801,46.8522035,-113.9935415
416,East Central Avenue,59801,46.8508815,-113.9918245
440,East Kent Avenue,59801,46.8517580,-113.9911135
425,East Sussex Avenue,59801,46.8495635,-113.9915830
221,North Avenue East,59801,46.8522160,-113.9947185
2321,Gerald Avenue,59801,46.8492270,-113.9960100
635,East Sussex Avenue,59801,46.8495580,-113.9877690
615,East Sussex Avenue,59801,46.8494755,-113.9882875
315,East Sussex Avenue,59801,46.8495040,-113.9929965
109,East Kent Avenue,59801,46.8513275,-113.9968775
2011,Arthur Avenue,59801,46.8519090,-113.9894280
424,East Sussex Avenue,59801,46.8499440,-113.9915765
675,East Central Avenue,59801,46.8504490,-113.9871845
230,South Avenue East,59801,46.8490195,-113.9946005
2205,Hilda Avenue,59801,46.8504320,-113.9928370
619,East Sussex Avenue,59801,46.8495625,-113.9880575
2217,Hilda Avenue,59801,46.8502650,-113.9928130
655,East Sussex Avenue,59801,46.8495345,-113.9873175
630,East Central Avenue,59801,46.8508810,-113.9873455
400,East Kent Avenue,59801,46.8518300,-113.9922020
410,South Avenue East,59801,46.8490675,-113.9921385
648,South Avenue East,59801,46.8490705,-113.9872390
450,East Central Avenue,59801,46.8508970,-113.9910775
638,East Kent Avenue,59801,46.8517955,-113.9876000
523,East Kent Avenue,59801,46.8511945,-113.9898410
216,South Avenue East,59801,46.8491730,-113.9952580
520,East Kent Avenue,59801,46.8517375,-113.9898180
2106,Hilda Avenue,59801,46.8513325,-113.9921465
440,South Avenue East,59801,46.8490820,-113.9911035
101,East Sussex Avenue,59801,46.8495390,-113.9971105
205,North Avenue East,59801,46.8521955,-113.9952720
445,East Kent Avenue,59801,46.8513305,-113.9911045
531,East Kent Avenue,59801,46.8513785,-113.9895270
425,East Central Avenue,59801,46.8504460,-113.9915830
307,East Sussex Avenue,59801,46.8495260,-113.9935865
426,East Central Avenue,59801,46.8508735,-113.9915240
221,East Sussex Avenue,59801,46.8495365,-113.9948300
110,East Kent Avenue,59801,46.8517280,-113.9964980
121,East Central Avenue,59801,46.8504150,-113.9965315
545,East Central Avenue,59801,46.8504240,-113.9895175
205,East Kent Avenue,59801,46.8511860,-113.9952605
408,East Sussex Avenue,59801,46.8499305,-113.9918085
627,North Avenue East,59801,46.8522110,-113.9884415
302,South Avenue East,59801,46.8489910,-113.9938445
540,East Kent Avenue,59801,46.8517540,-113.9894715
316,East Sussex Avenue,59801,46.8499155,-113.9929925
237,North Avenue East,59801,46.8522085,-113.9945460
105,North Avenue East,59801,46.8521891,-113.9969012
2101,Arthur Avenue,59801,46.8512165,-113.9894470
223,East Sussex Avenue,59801,46.8495310,-113.9946310
232,South Avenue East,59801,46.8489995,-113.9944170
312,East Sussex Avenue,59801,46.8500925,-113.9931830
624,South Avenue East,59801,46.8490335,-113.9881495
630,East Sussex Avenue,59801,46.8500270,-113.9880075
126,East Central Avenue,59801,46.8508830,-113.9963855
2105,Gerald Avenue,59801,46.8512825,-113.9960385
204,South Avenue East,59801,46.8490085,-113.9954615
116,East Sussex Avenue,59801,46.8499375,-113.9966310
212,South Avenue East,59801,46.8489725,-113.9951855
2012,Hilda Avenue,59801,46.8520765,-113.9922110
202,East Kent Avenue,59801,46.8518125,-113.9954765
532,East Central Avenue,59801,46.8508760,-113.9897040
602,East Kent Avenue,59801,46.8517705,-113.9889170
610,East Sussex Avenue,59801,46.8499505,-113.9887480
655,North Avenue East,59801,46.8522460,-113.9876980
665,North Avenue East,59801,46.8522420,-113.9874645
647,East Central Avenue,59801,46.8504495,-113.9874325
342,South Avenue East,59801,46.8489710,-113.9927765
501,East Central Avenue,59801,46.8504030,-113.9904905
2108,Hilda Avenue,59801,46.8509880,-113.9921955
635,East Central Avenue,59801,46.8504395,-113.9879410
139,East Sussex Avenue,59801,46.8494740,-113.9959860
420,East Kent Avenue,59801,46.8517630,-113.9916705
610,East Central Avenue,59801,46.8508665,-113.9883055
222,East Sussex Avenue,59801,46.8499685,-113.9951005
630,East Kent Avenue,59801,46.8517995,-113.9882255
2105,Ronald Avenue,59801,46.8509310,-113.9943635
500,East Kent Avenue,59801,46.8517750,-113.9905775
647,East Kent Avenue,59801,46.8513595,-113.9875610
2219,Hilda Avenue,59801,46.8500570,-113.9927820
640,East Kent Avenue,59801,46.8517885,-113.9873490
416,South Avenue East,59801,46.8490230,-113.9918545
140,East Kent Avenue,59801,46.8517445,-113.9960475
645,East Kent Avenue,59801,46.8513575,-113.9877425
2209,Maurice Avenue,59801,46.8502940,-113.9870505
201,East Sussex Avenue,59801,46.8495085,-113.9955125
430,East Central Avenue,59801,46.8508850,-113.9912545
650,South Avenue East,59801,46.8490610,-113.9870500
665,East Kent Avenue,59801,46.8513445,-113.9873575
301,East Sussex Avenue,59801,46.8495225,-113.9938535
235,East Sussex Avenue,59801,46.8495115,-113.9943925
604,East Central Avenue,59801,46.8509015,-113.9885860
601,East Central Avenue,59801,46.8504190,-113.9888865
2300,Hilda Avenue,59801,46.8495215,-113.9922115
220,South Avenue East,59801,46.8492150,-113.9949440
675,East Kent Avenue,59801,46.8513655,-113.9871000
238,East Sussex Avenue,59801,46.8499440,-113.9943725
120,East Sussex Avenue,59801,46.8499405,-113.9964085
413,North Avenue East,59801,46.8522400,-113.9918445
207,East Sussex Avenue,59801,46.8495115,-113.9953345
341,North Avenue East,59801,46.8521865,-113.9927705
312,East Kent Avenue,59801,46.8517470,-113.9936280
2001,Helen Avenue,59801,46.8521920,-113.9911280
108,East Central Avenue,59801,46.8508850,-113.9969675
632,East Kent Avenue,59801,46.8517900,-113.9880505
505,East Kent Avenue,59801,46.8513620,-113.9905640
601,East Kent Avenue,59801,46.8513605,-113.9889155
2215,Maurice Avenue,59801,46.8499865,-113.9870665
550,South Avenue East,59801,46.8490190,-113.9895220
624,East Central Avenue,59801,46.8508885,-113.9877125
515,East Kent Avenue,59801,46.8513660,-113.9902380
218,East Central Avenue,59801,46.8508730,-113.9947960
313,East Sussex Avenue,59801,46.8495480,-113.9933350
435,East Sussex Avenue,59801,46.8495175,-113.9910910
332,East Kent Avenue,59801,46.8517545,-113.9930180
231,East Central Avenue,59801,46.8504115,-113.9949965
140,East Central Avenue,59801,46.8508850,-113.9961190
609,East Central Avenue,59801,46.8504275,-113.9881875
525,East Central Avenue,59801,46.8504075,-113.9898195
110,East Sussex Avenue,59801,46.8499220,-113.9968670
2301,Arthur Avenue,59801,46.8495020,-113.9894200
2315,Hilda Avenue,59801,46.8492470,-113.9927995
601,North Avenue East,59801,46.8522280,-113.9889020
2103,Ronald Avenue,59801,46.8511915,-113.9943645
110,South Avenue East,59801,46.8489845,-113.9968535
225,East Kent Avenue,59801,46.8511740,-113.9948720
610,East Kent Avenue,59801,46.8519015,-113.9886545
420,South Avenue East,59801,46.8490170,-113.9915725
200,East Central Avenue,59801,46.8508750,-113.9954640
636,East Central Avenue,59801,46.8508815,-113.9871200
435,East Central Avenue,59801,46.8504375,-113.9913420
217,North Avenue East,59801,46.8522200,-113.9950795
115,East Kent Avenue,59801,46.8513395,-113.9964555
601,East Sussex Avenue,59801,46.8495505,-113.9888955
109,East Central Avenue,59801,46.8504365,-113.9969325
128,South Avenue East,59801,46.8490050,-113.9962465
214,East Kent Avenue,59801,46.8517345,-113.9952350
102,East Central Avenue,59801,46.8508800,-113.9971630
230,East Sussex Avenue,59801,46.8499405,-113.9947360
423,North Avenue East,59801,46.8522380,-113.9913575
644,South Avenue East,59801,46.8490840,-113.9874445
301,North Avenue East,59801,46.8522050,-113.9938540
220,East Kent Avenue,59801,46.8517590,-113.9947815
2335,Gerald Avenue,59801,46.8490010,-113.9959995
2108,Ronald Avenue,59801,46.8509145,-113.9938495
510,East Kent Avenue,59801,46.8517500,-113.9903185
533,East Sussex Avenue,59801,46.8493850,-113.9897920
636,South Avenue East,59801,46.8490425,-113.9879190
525,East Kent Avenue,59801,46.8513715,-113.9898020
430,South Avenue East,59801,46.8490445,-113.9913190
323,East Central Avenue,59801,46.8504130,-113.9936660
645,North Avenue East,59801,46.8522420,-113.9879220
625,North Avenue East,59801,46.8522485,-113.9886690
635,North Avenue East,59801,46.8522465,-113.9881885
515,North Avenue East,59801,46.8522445,-113.9898340
2232,Hilda Avenue,59801,46.8499920,-113.9920865
516,East Kent Avenue,59801,46.8517460,-113.9900705
530,East Central Avenue,59801,46.8508715,-113.9899845
101,East Central Avenue,59801,46.8503980,-113.9971085
610,South Avenue East,59801,46.8490655,-113.9885590
440,East Sussex Avenue,59801,46.8499485,-113.9910940
607,East Sussex Avenue,59801,46.8495695,-113.9885365
616,East Sussex Avenue,59801,46.8499445,-113.9885350
445,East Central Avenue,59801,46.8504065,-113.9910975
620,East Kent Avenue,59801,46.8517685,-113.9884540
2009,Maurice Avenue,59801,46.8520840,-113.9871270
644,East Sussex Avenue,59801,46.8499510,-113.9877610
1861,South 12th Street West,59801,46.8583055,-114.0260335
1526,South Reserve Street,59801,46.8568058,-114.0389650
516,South Orange Street,59801,46.8665520,-114.0032535
235,South 5th Street West,59801,46.8646750,-113.9993335
1220,Pineview Drive,59802,46.8918590,-113.9671936
1221,South Higgins Avenue,59801,46.8588189,-113.9977864
3,Elkhorn Court,59801,46.8483695,-113.9874610
515,South Avenue East,59801,46.8476380,-113.9902715
1111,Coloma Drive,59801,46.8479240,-113.9916475
1101,Coloma Drive,59801,46.8483240,-113.9918480
1201,Coloma Drive,59801,46.8481805,-113.9918925
1305,Granite Court,59801,46.8479245,-113.9922165
1205,Coloma Drive,59801,46.8480210,-113.9918945
1401,Granite Court,59801,46.8483070,-113.9926530
1501,Granite Court,59801,46.8481765,-113.9928840
1609,Cinnabar Drive,59801,46.8479145,-113.9931105
1709,Cinnabar Drive,59801,46.8476340,-113.9929155
1408,Granite Court,59801,46.8479150,-113.9926520
1801,Emigrant Court,59801,46.8474070,-113.9929255
1809,Emigrant Court,59801,46.8472350,-113.9926145
1813,Emigrant Court,59801,46.8470610,-113.9929645
1901,Jardine Court,59801,46.8468645,-113.9929520
1909,Jardine Court,59801,46.8466730,-113.9926830
1913,Jardine Court,59801,46.8464945,-113.9929435
2001,Laurin Court,59801,46.8462805,-113.9929420
2009,Laurin Court,59801,46.8460925,-113.9926610
2013,Laurin Court,59801,46.8458875,-113.9929295
2301,Robar Court,59801,46.8456010,-113.9936500
2305,Robar Court,59801,46.8454405,-113.9939705
2309,Robar Court,59801,46.8452835,-113.9936480
2109,Pardee Court,59801,46.8453900,-113.9926820
2101,Pardee Court,59801,46.8455850,-113.9929315
2201,Landusky Court,59801,46.8448790,-113.9929230
2113,Pardee Court,59801,46.8451850,-113.9929275
2209,Landusky Court,59801,46.8446875,-113.9926790
2213,Landusky Court,59801,46.8444820,-113.9929260
2600,South Higgins Avenue,59801,46.8461750,-113.9969930
3000,South Higgins Avenue,59801,46.8447715,-113.9967005
3000,South Higgins Avenue,59801,46.8445784,-113.9961720
3000,South Higgins Avenue,59801,46.8445040,-113.9958590
3000,South Higgins Avenue,59801,46.8439360,-113.9964000
3000,South Higgins Avenue,59801,46.8439270,-113.9967380
3000,South Higgins Avenue,59801,46.8439120,-113.9958330
3000,South Higgins Avenue,59801,46.8431695,-113.9958285
3000,South Higgins Avenue,59801,46.8432289,-113.9963764
3000,South Higgins Avenue,59801,46.8425815,-113.9959140
3000,South Higgins Avenue,59801,46.8423650,-113.9966560
3000,South Higgins Avenue,59801,46.8432258,-113.9967069
509,Southwest Higgins Avenue,59801,46.8384307,-114.0046570
521,Southwest Higgins Avenue,59801,46.8381807,-114.0054460
4104,Hillview Way,59803,46.8333555,-114.0178985
101,Disney Court,59803,46.8327091,-114.0178546
105,Disney Court,59803,46.8327845,-114.0174294
109,Disney Court,59803,46.8330233,-114.0171695
1501,39th Street,59803,46.8339598,-114.0189079
1660,West Broadway Street,59808,46.8795515,-114.0203245
3309,West Broadway Street,59808,46.8967808,-114.0361082
1029,Harrison Street,59802,46.8726643,-113.9763655
1421,North Van Buren Street,59802,46.8763041,-113.9732253
1425,North Van Buren Street,59802,46.8763925,-113.9730142
1427,North Van Buren Street,59802,46.8764630,-113.9728690
1429,North Van Buren Street,59802,46.8765566,-113.9727320
1439,North Van Buren Street,59802,46.8767693,-113.9727927
1500,Harrison Street,59802,46.8762174,-113.9714891
1502,Harrison Street,59802,46.8763130,-113.9713205
1510,Harrison Street,59802,46.8764938,-113.9712735
818,Holly Street,59802,46.8768889,-113.9723759
1511,North Van Buren Street,59802,46.8769681,-113.9722062
1515,North Van Buren Street,59802,46.8770790,-113.9720683
1525,North Van Buren Street,59802,46.8772023,-113.9718999
1533,North Van Buren Street,59802,46.8773185,-113.9717158
1537,North Van Buren Street,59802,46.8774227,-113.9715138
1547,North Van Buren Street,59802,46.8776202,-113.9714622
1601,Missoula Avenue,59802,46.8778739,-113.9712683
1604,Missoula Avenue,59802,46.8781252,-113.9707245
1800,Rattlesnake Drive,59802,46.8791069,-113.9695440
1003,Richard Street,59802,46.8800105,-113.9694316
1011,Richard Street,59802,46.8799516,-113.9689885
1007,Richard Street,59802,46.8796535,-113.9690882
1000,Richard Street,59802,46.8803943,-113.9694274
3018,Rattlesnake Drive,59802,46.8933636,-113.9650929
3718,Rattlesnake Drive,59802,46.8991224,-113.9639206
4915,Lower Miller Creek Road,59803,46.8203743,-114.0601754
303,Mansion Heights Drive,59803,46.8213280,-113.9998471
305,Mansion Heights Drive,59803,46.8214234,-113.9991183
311,Mansion Heights Drive,59803,46.8215460,-113.9982144
309,Mansion Heights Drive,59803,46.8214986,-113.9986446
315,Mansion Heights Drive,59803,46.8216241,-113.9977614
310,Mansion Heights Drive,59803,46.8219792,-113.9989228
330,Mansion Heights Drive,59803,46.8222751,-113.9968209
334,Mansion Heights Drive,59803,46.8223446,-113.9964296
310,Spanish Peaks Drive,59803,46.8217075,-113.9964497
4875,North Reserve Street,59808,46.9105699,-114.0363321
2000,South Higgins Avenue,59801,46.8520851,-113.9970560
7500,Mullan Road,59808,46.8914684,-114.0998856
2942,Campsite Plaza,59808,46.9024329,-114.1131966
1111,Anglers Bend Way,59802,46.8807611,-113.9283861
1106,Anglers Bend Way,59802,46.8802690,-113.9278867
1100,Anglers Bend Way,59802,46.8801179,-113.9280629
1094,Anglers Bend Way,59802,46.8799949,-113.9281868
1093,Anglers Bend Way,59802,46.8803705,-113.9288288
1099,Anglers Bend Way,59802,46.8804990,-113.9287262
1087,Anglers Bend Way,59802,46.8802172,-113.9289897
1081,Anglers Bend Way,59802,46.8800840,-113.9291124
1088,Anglers Bend Way,59802,46.8798259,-113.9283425
1076,Anglers Bend Way,59802,46.8796885,-113.9284540
1069,Anglers Bend Way,59802,46.8797791,-113.9293039
1075,Anglers Bend Way,59802,46.8799243,-113.9292287
1070,Anglers Bend Way,59802,46.8795062,-113.9285363
1058,Anglers Bend Way,59802,46.8791752,-113.9286810
1064,Anglers Bend Way,59802,46.8793687,-113.9286149
1063,Anglers Bend Way,59802,46.8796130,-113.9293712
1057,Anglers Bend Way,59802,46.8794688,-113.9294551
1051,Anglers Bend Way,59802,46.8792954,-113.9295328
1045,Anglers Bend Way,59802,46.8791420,-113.9295783
1052,Anglers Bend Way,59802,46.8790135,-113.9287274
1046,Anglers Bend Way,59802,46.8788292,-113.9287798
1039,Anglers Bend Way,59802,46.8789586,-113.9296241
1033,Anglers Bend Way,59802,46.8787969,-113.9296203
1040,Anglers Bend Way,59802,46.8786657,-113.9288018
1027,Anglers Bend Way,59802,46.8786059,-113.9296014
1034,Anglers Bend Way,59802,46.8784568,-113.9287343
1021,Anglers Bend Way,59802,46.8784469,-113.9296004
1028,Anglers Bend Way,59802,46.8783018,-113.9287068
1015,Anglers Bend Way,59802,46.8782415,-113.9295406
1009,Anglers Bend Way,59802,46.8780888,-113.9295332
1022,Anglers Bend Way,59802,46.8780971,-113.9286482
1003,Anglers Bend Way,59802,46.8778794,-113.9294466
1016,Anglers Bend Way,59802,46.8779506,-113.9285727
1008,Anglers Bend Way,59802,46.8777520,-113.9284315
997,Anglers Bend Way,59802,46.8777166,-113.9293580
4855,Deer Creek Road,59802,46.8796665,-113.9320467
1311,East Broadway Street,59802,46.8634576,-113.9726413
4050,West Broadway Street,59808,46.9109126,-114.0616944
5765,West Broadway Street,59808,46.9259121,-114.0916208
5252,Airway Boulevard,59808,46.9210369,-114.0691717
327,East Broadway Street,59802,46.8707870,-113.9903900
112,North Pattee Street,59802,46.8699697,-113.9932818
1135,West Broadway Street,59802,46.8767558,-114.0106623
3050,South Higgins Avenue,59801,46.8420878,-113.9933314
3290,Palmer Street,59808,46.8871800,-114.0373600
218,McLeod Avenue,59801,46.8593200,-113.9950915
312,Daly Avenue,59801,46.8613405,-113.9936010
2410,North Reserve Street,59808,46.8872974,-114.0386893
7050,Grant Creek Road,59808,46.9365789,-114.0200478
903,Charlo Street,59802,46.8880077,-114.0039632
903,Charlo Street,59802,46.8880063,-114.0038420
903,Charlo Street,59802,46.8880092,-114.0037248
903,Charlo Street,59802,46.8880085,-114.0036055
3220,North Reserve Street,59808,46.8957680,-114.0376129
336,Mansion Heights Drive,59803,46.8224559,-113.9960023
905,Charlo Street,59802,46.8878240,-114.0039523
905,Charlo Street,59802,46.8878234,-114.0038306
905,Charlo Street,59802,46.8878227,-114.0037176
2355,Arthur Avenue,59801,46.8492029,-113.9894903
815,Beverly Avenue,59801,46.8538529,-113.9846585
6385,US Highway 10 West,59808,46.9296796,-114.1041727
2901,Brooks Street,59801,46.8440195,-114.0276573
5385,Elyn Loop,59808,46.9170061,-114.0369216
5410,Canyon River Road,59802,46.8787934,-113.9237911
5402,Canyon River Road,59802,46.8788472,-113.9242448
561,Cahill Rise,59802,46.8821561,-113.9203463
569,Cahill Rise,59802,46.8820044,-113.9200848
577,Cahill Rise,59802,46.8819338,-113.9197211
433,Cahill Rise,59802,46.8830437,-113.9245165
425,Cahill Rise,59802,46.8830286,-113.9247903
417,Cahill Rise,59802,46.8829770,-113.9250834
409,Cahill Rise,59802,46.8829382,-113.9254169
553,Cahill Rise,59802,46.8822545,-113.9205149
545,Cahill Rise,59802,46.8823997,-113.9207670
537,Cahill Rise,59802,46.8824803,-113.9209788
529,Cahill Rise,59802,46.8826052,-113.9212433
521,Cahill Rise,59802,46.8826756,-113.9214599
513,Cahill Rise,59802,46.8827922,-113.9217208
505,Cahill Rise,59802,46.8828298,-113.9219833
497,Cahill Rise,59802,46.8829295,-113.9222597
489,Cahill Rise,59802,46.8829388,-113.9225415
481,Cahill Rise,59802,46.8830239,-113.9228155
473,Cahill Rise,59802,46.8830348,-113.9231002
465,Cahill Rise,59802,46.8830869,-113.9233848
457,Cahill Rise,59802,46.8830898,-113.9236622
449,Cahill Rise,59802,46.8830779,-113.9239524
441,Cahill Rise,59802,46.8830616,-113.9242216
401,Cahill Rise,59802,46.8829664,-113.9258440
1212,Bandmann Trail,59802,46.8829781,-113.9160819
910,Bandmann Trail,59802,46.8797846,-113.9127017
928,Bandmann Trail,59802,46.8800803,-113.9130822
946,Bandmann Trail,59802,46.8803223,-113.9132800
964,Bandmann Trail,59802,46.8806261,-113.9136418
1012,Bandmann Trail,59802,46.8808573,-113.9138644
1056,Bandmann Trail,59802,46.8814434,-113.9142977
1078,Bandmann Trail,59802,46.8817565,-113.9144993
1110,Bandmann Trail,59802,46.8820604,-113.9147673
5430,Canyon River Road,59802,46.8787877,-113.9229426
5496,Canyon River Road,59802,46.8791237,-113.9212472
5468,Canyon River Road,59802,46.8789252,-113.9220901
5454,Canyon River Road,59802,46.8788404,-113.9224554
5512,Canyon River Road,59802,46.8792997,-113.9209212
5526,Canyon River Road,59802,46.8794239,-113.9206021
5540,Canyon River Road,59802,46.8795401,-113.9202336
5554,Canyon River Road,59802,46.8797029,-113.9199272
5568,Canyon River Road,59802,46.8798836,-113.9195839
5582,Canyon River Road,59802,46.8800200,-113.9191743
5553,Canyon River Road,59802,46.8803094,-113.9201199
5539,Canyon River Road,59802,46.8800964,-113.9204788
5481,Canyon River Road,59802,46.8795690,-113.9218733
5495,Canyon River Road,59802,46.8796713,-113.9214901
5467,Canyon River Road,59802,46.8794207,-113.9222999
5453,Canyon River Road,59802,46.8793464,-113.9227285
5419,Canyon River Road,59802,46.8793445,-113.9236064
5401,Canyon River Road,59802,46.8793931,-113.9240559
5391,Canyon River Road,59802,46.8795721,-113.9249071
5353,Canyon River Road,59802,46.8797236,-113.9253303
5315,Canyon River Road,59802,46.8799111,-113.9257305
5277,Canyon River Road,59802,46.8801794,-113.9261006
5241,Canyon River Road,59802,46.8803539,-113.9263151
5583,Canyon River Road,59802,46.8807089,-113.9193608
5595,Canyon River Road,59802,46.8809912,-113.9190114
756,Anglers Bend Way,59802,46.8761586,-113.9240572
750,Anglers Bend Way,59802,46.8763199,-113.9240786
744,Anglers Bend Way,59802,46.8765061,-113.9241071
738,Anglers Bend Way,59802,46.8766655,-113.9241290
732,Anglers Bend Way,59802,46.8768468,-113.9241139
726,Anglers Bend Way,59802,46.8770076,-113.9241459
720,Anglers Bend Way,59802,46.8771848,-113.9241275
762,Anglers Bend Way,59802,46.8759293,-113.9241311
768,Anglers Bend Way,59802,46.8757790,-113.9241509
774,Anglers Bend Way,59802,46.8755248,-113.9243055
780,Anglers Bend Way,59802,46.8753931,-113.9243699
714,Anglers Bend Way,59802,46.8773458,-113.9241686
708,Anglers Bend Way,59802,46.8775474,-113.9241775
702,Anglers Bend Way,59802,46.8777004,-113.9241983
717,Anglers Bend Way,59802,46.8773013,-113.9249883
709,Anglers Bend Way,59802,46.8775064,-113.9249972
701,Anglers Bend Way,59802,46.8776503,-113.9250507
689,Anglers Bend Way,59802,46.8778461,-113.9251138
677,Anglers Bend Way,59802,46.8779915,-113.9251536
665,Anglers Bend Way,59802,46.8781765,-113.9252277
725,Anglers Bend Way,59802,46.8771414,-113.9249849
733,Anglers Bend Way,59802,46.8769628,-113.9249626
741,Anglers Bend Way,59802,46.8768037,-113.9249770
653,Anglers Bend Way,59802,46.8783284,-113.9252367
641,Anglers Bend Way,59802,46.8785103,-113.9253365
629,Anglers Bend Way,59802,46.8786594,-113.9253885
671,Anglers Bend Way,59802,46.8788454,-113.9254422
605,Anglers Bend Way,59802,46.8790415,-113.9254103
749,Anglers Bend Way,59802,46.8766211,-113.9249578
757,Anglers Bend Way,59802,46.8764629,-113.9249593
765,Anglers Bend Way,59802,46.8762836,-113.9249322
773,Anglers Bend Way,59802,46.8761220,-113.9249378
781,Anglers Bend Way,59802,46.8758967,-113.9250390
789,Anglers Bend Way,59802,46.8757475,-113.9250996
819,Anglers Bend Way,59802,46.8750130,-113.9247727
830,Anglers Bend Way,59802,46.8750843,-113.9257540
840,Anglers Bend Way,59802,46.8750026,-113.9259062
850,Anglers Bend Way,59802,46.8749159,-113.9263035
860,Anglers Bend Way,59802,46.8749220,-113.9265364
869,Anglers Bend Way,59802,46.8744253,-113.9271241
880,Anglers Bend Way,59802,46.8750860,-113.9270884
810,Anglers Bend Way,59802,46.8754051,-113.9253786
944,Anglers Bend Way,59802,46.8763545,-113.9279490
1112,Anglers Bend Way,59802,46.8803927,-113.9277546
1105,Anglers Bend Way,59802,46.8806440,-113.9285363
1000,Anglers Bend Way,59802,46.8776022,-113.9283782
991,Anglers Bend Way,59802,46.8774795,-113.9292457
936,Anglers Bend Way,59802,46.8762013,-113.9279232
928,Anglers Bend Way,59802,46.8759824,-113.9278494
917,Anglers Bend Way,59802,46.8754618,-113.9285187
973,Anglers Bend Way,59802,46.8769497,-113.9289553
985,Anglers Bend Way,59802,46.8773233,-113.9291733
992,Anglers Bend Way,59802,46.8774025,-113.9282659
984,Anglers Bend Way,59802,46.8772685,-113.9282301
976,Anglers Bend Way,59802,46.8770649,-113.9281125
968,Anglers Bend Way,59802,46.8769147,-113.9280902
960,Anglers Bend Way,59802,46.8767122,-113.9280058
952,Anglers Bend Way,59802,46.8765595,-113.9279834
951,Anglers Bend Way,59802,46.8763229,-113.9287406
923,Anglers Bend Way,59802,46.8757267,-113.9286380
912,Anglers Bend Way,59802,46.8756153,-113.9276543
6425,Lower Miller Creek Road,59803,46.8146607,-114.0782598
1501,39th Street,59803,46.8337880,-114.0189029
1101,West Greenough Drive,59802,46.8773022,-113.9807412
3450,Tina Avenue,59808,46.8986310,-114.0435007
201,East Main Street,59802,46.8703338,-113.9929810
200,East Broadway Street,59802,46.8720457,-113.9917981
925,Gerald Avenue,59801,46.8628035,-113.9966019
100,East Railroad Street,59802,46.8756858,-113.9924948
700,West Broadway Street,59802,46.8755976,-114.0036474
610,West Broadway Street,59802,46.8753410,-114.0021373
218,West Pine Street,59802,46.8742446,-113.9954110
316,West Spruce Street,59802,46.8754570,-113.9960431
111,West Alder Street,59802,46.8753935,-113.9942703
1220,Pineview Drive,59802,46.8918596,-113.9672149
415,West Broadway Street,59802,46.8733454,-113.9994739
1100,South Higgins Avenue,59801,46.8607510,-113.9970191
1609,West Broadway Street,59808,46.8794582,-114.0216401
1268,Bandmann Trail,59802,46.8799066,-113.9213643
1268,Bandmann Trail,59802,46.8828931,-113.9172270
5075,Expressway Road,59808,46.9151751,-114.0663178
4645,Harlequin Court,59808,46.9169228,-114.0687756
791,Bandmann Trail,59802,46.8790599,-113.9144614
361,Deer Creek Road,59802,46.8828514,-113.9275511
5237,Ginger Quill Road,59802,46.8742082,-113.9284201
5237,Ginger Quill Road,59802,46.8743035,-113.9282867
5221,Ginger Quill Road,59802,46.8744580,-113.9281281
5221,Ginger Quill Road,59802,46.8745533,-113.9279913
8501,Ranch Club Road,59808,46.8997351,-114.1147610
