House number,Street name,Postal code,Latitude,Longitude
230,South Main Street,95222,38.0792929,-120.5562715
222,South Main Street,95222,38.0795210,-120.5565230
260,South Main Street,95222,38.0786638,-120.5556600
148,Monte Verda Street,95221,38.0806121,-120.5573459
41,North Main Street,95222,38.0824477,-120.5606473
27,North Main Street,95222,38.0821524,-120.5599452
218,South Main Street,95222,38.0797474,-120.5555221
1277,South Main Street,95222,38.0687502,-120.5394046
1262,South Main Street,95222,38.0688438,-120.5397887
1260,South Main Street,95222,38.0689084,-120.5398397
1257,South Main Street,95222,38.0690600,-120.5396492
1287,South Main Street,95222,38.0686603,-120.5390879
1239,South Main Street,95222,38.0692794,-120.5398053
123,Selkirk Ranch Road,95222,38.0701342,-120.5548682
200,South Main,95221,38.0799217,-120.5557676
1404,Vallecito Road,95222,38.0689462,-120.5373431
709,Main Street,95222,38.0759837,-120.5463434
1186,Suzanne Drive,95222,38.0744549,-120.5395352
247,Blair Mine Road,95222,38.0710825,-120.5639771
249,Blair Mine Road,95222,38.0711090,-120.5642641
1700,Mt View,95222,38.0629009,-120.5368587
1649,Main Street,95222,38.0630777,-120.5368778
1580,Mt View,95222,38.0641793,-120.5369771
1329,Birds Way,95222,38.0689921,-120.5386581
1305,Birds Way,95222,38.0689287,-120.5387171
1358,Birds Way,95222,38.0693074,-120.5381511
1182,Suzanne Drive,95222,38.0746804,-120.5396197
1051,Bret Harte Road,95222,38.0741058,-120.5403088
1060,Henry Place,95222,38.0733762,-120.5410748
1260,Suzanne Drive,95222,38.0741749,-120.5374483
1400,Foothill Village Drive,95222,38.0769520,-120.5349596
251,Main Street,95222,38.0798197,-120.5547440
263,Main Street,95222,38.0798420,-120.5545652
677,Gardner Lane,95222,38.0840212,-120.5530670
689,Gardner Lane,95222,38.0841489,-120.5531227
944,Country Lane,95222,38.0870616,-120.5571394
1311,Main Street,95222,38.0684316,-120.5387628
1329,Main Street,95222,38.0680207,-120.5385777
1246,Summit Road,95222,38.0708645,-120.5403093
1030,Deveggio Lane,95222,38.0751221,-120.5378087
232,Clifton Lane,95222,38.0850137,-120.5603542
658,Murphys Grade Road,95222,38.0807386,-120.5474464
770,Kids Court,95222,38.0776446,-120.5444984
1050,Suzanne Drive,95222,38.0762765,-120.5377572
1060,Deveggio Lane,95222,38.0756539,-120.5383030
1175,Suzanne Drive,95222,38.0751564,-120.5390537
809,Main Street,95222,38.0751753,-120.5446328
1300,Kurt Drive,95222,38.0749337,-120.5362445
843,Main Street,95222,38.0746431,-120.5443964
1225,Suzanne Court,95222,38.0741347,-120.5395142
1639,Depot Road,95222,38.0722593,-120.5363740
1242,Summit Road,95222,38.0709973,-120.5403091
1184,Church Street,95222,38.0705464,-120.5400853
1385,Birds Way,95222,38.0697748,-120.5380316
1219,Main Street,95222,38.0696904,-120.5400408
1275,South Main Street,95222,38.0690801,-120.5394164
1799,Main Street,95222,38.0608632,-120.5357451
1755,Main Street,95222,38.0614150,-120.5366024
1721,Main Street,95222,38.0619533,-120.5367042
1731,Main Street,95222,38.0619934,-120.5354837
1665,Sonora Street,95222,38.0621845,-120.5361028
1699,Main Street,95222,38.0623217,-120.5367802
1690,Martina Street,95222,38.0626460,-120.5365932
1705,Martina Street,95222,38.0629355,-120.5364125
1729,Martina Street,95222,38.0631995,-120.5364167
1629,Mt View,95222,38.0633610,-120.5365435
1625,Main Street,95222,38.0634313,-120.5372215
1615,Main Street,95222,38.0635985,-120.5372478
1598,Sonora Street,95222,38.0637430,-120.5367035
1605,Main Street,95222,38.0637633,-120.5373503
1596,Sonora Street,95222,38.0638898,-120.5367481
1583,Main Street,95222,38.0640876,-120.5373788
1575,Main Street,95222,38.0642393,-120.5374583
1563,Main Street,95222,38.0644165,-120.5373790
1555,Mt View,95222,38.0645955,-120.5369305
1553,Main Street,95222,38.0645959,-120.5372577
1541,Main Street,95222,38.0648010,-120.5372365
1519,Sonora Street,95222,38.0652420,-120.5369206
1491,Main Street,95222,38.0656499,-120.5371284
1479,Main Street,95222,38.0658715,-120.5371059
1463,Main Street,95222,38.0661518,-120.5372527
1445,Main Street,95222,38.0664064,-120.5375308
1425,Main Street,95222,38.0666392,-120.5377614
1411,Main Street,95222,38.0668239,-120.5379364
1403,Main Street,95222,38.0669223,-120.5380988
1389,Main Street,95222,38.0670345,-120.5382518
1349,Main Street,95222,38.0676611,-120.5383990
1335,Main Street,95222,38.0679065,-120.5385101
1655,Tryon Road,95222,38.0684228,-120.5339664
1301,South Main Street,95222,38.0684934,-120.5389953
1545,Tryon Road,95222,38.0685770,-120.5352443
1394,Vallecito Road,95222,38.0687420,-120.5373311
1316,Birds Way,95222,38.0688129,-120.5384531
1443,Tryon Road,95222,38.0690415,-120.5368624
1339,Birds Way,95222,38.0690966,-120.5385407
1340,Birds Way,95222,38.0691343,-120.5382221
1347,Birds Way,95222,38.0693248,-120.5383685
1424,Vallecito Road,95222,38.0693804,-120.5372016
1361,Birds Way,95222,38.0694999,-120.5382699
1386,Birds Way,95222,38.0696046,-120.5378733
1448,Vallecito Road,95222,38.0696999,-120.5371208
1200,Raspberry Lane,95222,38.0699386,-120.5402513
1177,South Main Street,95222,38.0701820,-120.5406539
1244,Rasberry Lane,95222,38.0700343,-120.5394387
1163,Main Street,95222,38.0702381,-120.5403832
1769,Moose Trail Road,95222,38.0702418,-120.5348818
1472,Vallecito Road,95222,38.0702500,-120.5372182
1241,Rasberry Lane,95222,38.0703727,-120.5399318
1161,Main Street,95222,38.0703591,-120.5402900
1638,Moose Trail Road,95222,38.0704107,-120.5344697
1703,Tryon Court,95222,38.0704609,-120.5366020
1695,Tryon Court,95222,38.0704356,-120.5363904
1689,Tryon Court,95222,38.0704649,-120.5360317
1141,Main Street,95222,38.0706457,-120.5410806
1492,Vallecito Road,95222,38.0705465,-120.5373502
1702,Tryon Court,95222,38.0706072,-120.5368138
1683,Tryon Court,95222,38.0706323,-120.5359180
1779,Moose Trail Road,95222,38.0706201,-120.5353467
1256,Summit Road,95222,38.0708130,-120.5401208
1694,Tryon Court,95222,38.0708154,-120.5369227
1512,Vallecito Road,95222,38.0708453,-120.5374407
1673,Tryon Court,95222,38.0708686,-120.5359672
1259,Summit Road,95222,38.0710143,-120.5398221
1234,Summit Road,95222,38.0710261,-120.5405319
1690,Tryon Court,95222,38.0709599,-120.5368420
1789,Moose Trail Road,95222,38.0709416,-120.5355289
1666,Tryon Court,95222,38.0710100,-120.5365269
1253,Summit Road,95222,38.0710896,-120.5399680
1222,Summit Road,95222,38.0711266,-120.5406314
1731,Moose Trail Road,95222,38.0710069,-120.5340663
1522,Vallecito Road,95222,38.0710538,-120.5374674
1245,Summit Road,95222,38.0711364,-120.5401064
1663,Tryon Court,95222,38.0710899,-120.5360333
1241,Summit Road,95222,38.0712752,-120.5402730
1652,Tryon Court,95222,38.0712142,-120.5365153
1719,Moose Trail Road,95222,38.0711862,-120.5341617
1204,Summit Road,95222,38.0713291,-120.5410744
1538,Vallecito Road,95222,38.0712583,-120.5374901
1586,Depot Road,95222,38.0713189,-120.5371254
1653,Tryon Court,95222,38.0713222,-120.5359464
1600,Depot Road,95222,38.0713588,-120.5368737
1614,Depot Road,95222,38.0714302,-120.5365335
1071,Main Street,95222,38.0715996,-120.5415775
1219,Rasberry Lane,95222,38.0715599,-120.5392511
1664,Depot Road,95222,38.0715400,-120.5359843
1197,Bret Harte Road,95222,38.0717444,-120.5411974
1568,Old Vallecito Road,95222,38.0717068,-120.5374710
1185,Summit Road,95222,38.0718709,-120.5406498
1202,Bret Harte Road,95222,38.0719687,-120.5416115
1185,Bret Harte Road,95222,38.0718908,-120.5410405
1194,Bret Harte Road,95222,38.0720212,-120.5414663
1555,Depot Road,95222,38.0720843,-120.5370041
1580,Old Vallecito Road,95222,38.0719620,-120.5374147
1246,Booster Way,95222,38.0721064,-120.5388502
1168,Booster Way,95222,38.0723230,-120.5395568
1674,Depot Road,95222,38.0722017,-120.5352673
1600,Old Vallecito Road,95222,38.0722986,-120.5374150
1190,Bret Harte Road,95222,38.0724457,-120.5409062
1148,Booster Way,95222,38.0723773,-120.5402119
1034,Summit Road,95222,38.0724589,-120.5414592
1614,Old Vallecito Road,95222,38.0725597,-120.5367205
1024,Summit Road,95222,38.0726177,-120.5416675
1038,Bragg Street,95222,38.0726080,-120.5411886
1620,Old Vallecito Road,95222,38.0726033,-120.5373633
1700,Depot Road,95222,38.0726305,-120.5348728
1000,Summit Road,95222,38.0728165,-120.5419219
1055,Bragg Street,95222,38.0728221,-120.5414531
1630,Old Vallecito Road,95222,38.0727347,-120.5373546
1054,Bragg Street,95222,38.0729265,-120.5411584
1640,Old Vallecito Road,95222,38.0729163,-120.5369259
1191,Booster Way,95222,38.0729558,-120.5391230
1733,Depot Road,95222,38.0730210,-120.5356446
1157,Booster Way,95222,38.0731304,-120.5402813
951,Main Street,95222,38.0732392,-120.5427384
966,Bragg Street,95222,38.0732979,-120.5422767
1095,Bret Harte Road,95222,38.0732748,-120.5402275
969,Summit Road,95222,38.0733866,-120.5418544
954,Summit Road,95222,38.0734777,-120.5427385
1087,Bret Harte Road,95222,38.0734177,-120.5403006
1084,Bret Harte Road,95222,38.0734729,-120.5406165
967,Bragg Street,95222,38.0736218,-120.5422090
1079,Bret Harte Road,95222,38.0735434,-120.5403117
1240,Suzanne Drive,95222,38.0735516,-120.5388984
1045,Henry Place,95222,38.0736104,-120.5408257
931,Main Street,95222,38.0736021,-120.5430106
1104,Bragg Street,95222,38.0736557,-120.5417270
1246,Suzanne Drive,95222,38.0736716,-120.5381407
1069,Bret Harte Road,95222,38.0737027,-120.5402431
1230,Suzanne Court,95222,38.0737486,-120.5391535
1062,Bret Harte Road,95222,38.0738168,-120.5406818
1004,Bret Harte Road,95222,38.0738872,-120.5417209
1050,Bret Harte Road,95222,38.0738706,-120.5408652
1250,Suzanne Drive,95222,38.0738324,-120.5379068
901,Main Street,95222,38.0739471,-120.5434506
1059,Bret Harte Road,95222,38.0738867,-120.5402719
1042,Bret Harte Road,95222,38.0739413,-120.5409552
970,Bret Harte Road,95222,38.0739592,-120.5420165
941,Bret Harte Road,95222,38.0740088,-120.5427502
913,Bragg Street,95222,38.0740691,-120.5430215
1236,Suzanne Court,95222,38.0740281,-120.5387396
984,Baker Street,95222,38.0741665,-120.5424709
1786,Depot Road,95222,38.0740263,-120.5353194
907,Bret Harte Road,95222,38.0741783,-120.5433374
1035,Bret Harte Road,95222,38.0742888,-120.5409595
1245,Suzanne Drive,95222,38.0742170,-120.5382127
908,Stork Road,95222,38.0743145,-120.5435507
974,Baker Street,95222,38.0743503,-120.5426436
1235,Suzanne Drive,95222,38.0743728,-120.5383981
1017,Purdy Road,95222,38.0744165,-120.5406895
1200,Suzanne Drive,95222,38.0744081,-120.5390613
859,Main Street,95222,38.0745291,-120.5442572
1030,Stork Road,95222,38.0745605,-120.5429462
1265,Suzanne Drive,95222,38.0744396,-120.5379124
1205,Suzanne Drive,95222,38.0745586,-120.5385747
1190,Suzanne Drive,95222,38.0745656,-120.5392439
1025,Deveggio Lane,95222,38.0745776,-120.5380106
1244,Annalee Drive,95222,38.0746323,-120.5400112
987,Purdy Road,95222,38.0746996,-120.5409377
1236,Annalee Drive,95222,38.0746701,-120.5402240
1010,Deveggio Lane,95222,38.0746858,-120.5374626
1035,Deveggio Lane,95222,38.0747321,-120.5382717
996,Stork Road,95222,38.0748493,-120.5434032
1195,Suzanne Drive,95222,38.0747895,-120.5387333
947,Baker Street,95222,38.0748897,-120.5422974
973,Purdy Road,95222,38.0748671,-120.5412920
1180,Suzanne Drive,95222,38.0748789,-120.5394279
1245,Annalee Drive,95222,38.0749407,-120.5400748
1225,Annalee Drive,95222,38.0749728,-120.5402314
967,Purdy Road,95222,38.0749450,-120.5414222
950,Baker Street,95222,38.0749811,-120.5426996
948,Purdy Road,95222,38.0749794,-120.5419083
1020,Deveggio Lane,95222,38.0749352,-120.5376232
1045,Deveggio Lane,95222,38.0749650,-120.5383878
1170,Suzanne Drive,95222,38.0750656,-120.5396238
1017,Stork Road,95222,38.0751781,-120.5428543
977,Stork Road,95222,38.0751967,-120.5433628
1265,Annalee Drive,95222,38.0751968,-120.5400734
1205,Annalee Drive,95222,38.0752270,-120.5402299
938,Baker Street,95222,38.0752486,-120.5425109
941,Purdy Road,95222,38.0752469,-120.5417853
971,Stork Road,95222,38.0753134,-120.5437844
1040,Deveggio Lane,95222,38.0752649,-120.5379634
1065,Deveggio Lane,95222,38.0753215,-120.5387074
1165,Suzanne Drive,95222,38.0753548,-120.5391485
973,Stork Road,95222,38.0754142,-120.5431899
1050,Deveggio Lane,95222,38.0754532,-120.5381101
1150,Annalee Court,95222,38.0755181,-120.5403023
1155,Annalee Court,95222,38.0755245,-120.5400410
1150,Suzanne Drive,95222,38.0755409,-120.5396901
1075,Deveggio Lane,95222,38.0755028,-120.5388455
1135,Annalee Court,95222,38.0757751,-120.5401569
1140,Suzanne Drive,95222,38.0758013,-120.5397033
1073,Suzanne Drive,95222,38.0758125,-120.5384090
1065,Suzanne Drive,95222,38.0758517,-120.5380421
910,Purdy Road,95222,38.0759665,-120.5441306
1045,Suzanne Drive,95222,38.0758463,-120.5374795
1055,Suzanne Drive,95222,38.0758402,-120.5377434
1035,Stelte Court,95222,38.0758490,-120.5368777
735,Main Street,95222,38.0761673,-120.5456673
1015,Stelte Court,95222,38.0758589,-120.5363378
1025,Stelte Court,95222,38.0758611,-120.5366169
1005,Stelte Court,95222,38.0758213,-120.5360424
1115,Annalee Court,95222,38.0759494,-120.5402955
1130,Suzanne Drive,95222,38.0760145,-120.5397934
1003,Stelte Court,95222,38.0759866,-120.5357486
667,Main Street,95222,38.0762871,-120.5474118
753,Main Street,95222,38.0764102,-120.5454180
1120,Suzanne Drive,95222,38.0762257,-120.5399051
1100,Suzanne Drive,95222,38.0762816,-120.5391767
1080,Suzanne Drive,95222,38.0762713,-120.5385812
1090,Suzanne Drive,95222,38.0762883,-120.5388671
1070,Suzanne Drive,95222,38.0762842,-120.5383087
1060,Suzanne Drive,95222,38.0762684,-120.5380325
1040,Suzanne Drive,95222,38.0763238,-120.5374686
1110,Suzanne Drive,95222,38.0763192,-120.5394225
1030,Stelte Court,95222,38.0762996,-120.5369276
1020,Stelte Court,95222,38.0762934,-120.5366218
1010,Stelte Court,95222,38.0763256,-120.5363335
850,Purdy Road,95222,38.0764449,-120.5429707
1000,Stelte Court,95222,38.0763475,-120.5361121
1002,Stelte Court,95222,38.0763299,-120.5357942
598,Sultana Lane,95222,38.0767762,-120.5483154
825,Purdy Road,95222,38.0768152,-120.5425087
784,Dads Road,95222,38.0767948,-120.5446718
782,Dads Road,95222,38.0768757,-120.5448188
835,Purdy Road,95222,38.0768923,-120.5413094
815,Dads Road,95222,38.0774141,-120.5437252
572,Sultana Lane,95222,38.0775237,-120.5488424
761,Dads Road,95222,38.0775377,-120.5454139
501,South Main Street,95222,38.0777840,-120.5504358
827,Purdy Road,95222,38.0776502,-120.5421309
445,Main Street,95222,38.0781936,-120.5510834
747,Kids Court,95222,38.0780335,-120.5438901
744,Purdy Road,95222,38.0781116,-120.5433933
780,Dads Road,95222,38.0785771,-120.5477135
488,Lee Lane,95222,38.0788129,-120.5502719
482,Lee Lane,95222,38.0790194,-120.5509359
512,Lee Lane,95222,38.0791666,-120.5492870
323,Main Street,95222,38.0794219,-120.5533879
301,South Main Street,95222,38.0795447,-120.5537898
329,Main Street,95222,38.0796309,-120.5532224
273,Main Street,95222,38.0796970,-120.5543873
552,Lee Lane,95222,38.0796969,-120.5503058
311,Murphys Grade Road,95222,38.0799328,-120.5541381
330,Murphys Grade Road,95222,38.0800097,-120.5534956
1108,Murphys Grade Road,95222,38.0799458,-120.5501600
594,Purdy Road,95222,38.0798879,-120.5445534
323,Murphys Grade Road,95222,38.0801182,-120.5540677
715,Purdy Road,95222,38.0799237,-120.5420524
229,Main Street,95222,38.0803095,-120.5551081
333,Murphys Grade Road,95222,38.0802275,-120.5539203
343,Murphys Grade Road,95222,38.0803609,-120.5538214
588,Murphys Grade Road,95222,38.0803320,-120.5480620
387,Murphys Grade Road,95222,38.0807478,-120.5538782
660,Murphys Grade Road,95222,38.0805218,-120.5466137
361,Murphys Grade Road,95222,38.0806635,-120.5537047
137,Main Street,95222,38.0810081,-120.5566235
87,Main Street,95222,38.0816180,-120.5573369
642,Murphys Grade Road,95222,38.0814765,-120.5476590
79,Main Street,95222,38.0816623,-120.5575149
433,Murphys Grade Road,95222,38.0816624,-120.5525823
633,Holly Street,95222,38.0820018,-120.5527543
545,Gardner Lane,95222,38.0820467,-120.5517437
623,Holly Street,95222,38.0821136,-120.5525970
615,Holly Street,95222,38.0821881,-120.5524134
603,Holly Street,95222,38.0822624,-120.5522384
565,Gardner Lane,95222,38.0823098,-120.5519520
629,Casey Street,95222,38.0824181,-120.5529662
639,Casey Street,95222,38.0825476,-120.5530922
630,Casey Street,95222,38.0826065,-120.5525199
554,Gardner Lane,95222,38.0826531,-120.5507421
593,Gardner Lane,95222,38.0827339,-120.5522293
649,Casey Street,95222,38.0827371,-120.5531697
580,Gardner Lane,95222,38.0827552,-120.5515772
640,Casey Street,95222,38.0827571,-120.5526387
661,Casey Street,95222,38.0828767,-120.5532917
605,Gardner Lane,95222,38.0828743,-120.5523603
650,Casey Street,95222,38.0829416,-120.5527192
671,Casey Street,95222,38.0830177,-120.5533940
617,Gardner Lane,95222,38.0830178,-120.5524560
600,Gardner Lane,95222,38.0830669,-120.5518093
660,Casey Street,95222,38.0830739,-120.5528450
60,Main Street,95222,38.0833119,-120.5595577
685,Casey Street,95222,38.0832078,-120.5535198
627,Gardner Lane,95222,38.0832035,-120.5525822
672,Casey Street,95222,38.0832202,-120.5529175
693,Casey Street,95222,38.0833073,-120.5536539
68,Main Street,95222,38.0834290,-120.5596770
73,Dogtown Road,95222,38.0834596,-120.5591343
682,Casey Street,95222,38.0833697,-120.5530561
624,Gardner Lane,95222,38.0833684,-120.5520818
636,Gardner Lane,95222,38.0834884,-120.5522601
699,Casey Street,95222,38.0835279,-120.5538066
694,Casey Street,95222,38.0835268,-120.5531349
96,Main Street,95222,38.0837423,-120.5600711
99,Dogtown Road,95222,38.0837950,-120.5588556
715,Casey Street,95222,38.0837249,-120.5538140
710,Casey Street,95222,38.0837331,-120.5532864
85,Dogtown Road,95222,38.0838082,-120.5591500
667,Gardner Lane,95222,38.0837691,-120.5528590
674,Kirby Street,95222,38.0837166,-120.5518421
650,Gardner Lane,95222,38.0837293,-120.5521974
725,Casey Street,95222,38.0838782,-120.5539253
98,Main Street,95222,38.0840009,-120.5596467
720,Casey Street,95222,38.0839022,-120.5533753
680,Kirby Street,95222,38.0838627,-120.5518576
13,Avey Ridge Trail,95222,38.0838476,-120.5499040
664,Gardner Lane,95222,38.0839424,-120.5523829
140,Main Street,95222,38.0842156,-120.5607920
735,Casey Street,95222,38.0840359,-120.5540043
117,Dogtown Road,95222,38.0841176,-120.5586017
690,Kirby Street,95222,38.0839884,-120.5519658
730,Casey Street,95222,38.0840767,-120.5534883
129,Dogtown Road,95222,38.0841499,-120.5583818
116,Main Street,95222,38.0842779,-120.5601475
745,Casey Street,95222,38.0841779,-120.5540869
158,Main Street,95222,38.0843950,-120.5610503
139,Dogtown Road,95222,38.0842734,-120.5582649
740,Casey Street,95222,38.0842394,-120.5535553
700,Kirby Street,95222,38.0841839,-120.5519779
685,Easy Street,95222,38.0842657,-120.5526220
151,Dogtown Road,95222,38.0843927,-120.5580882
755,Casey Street,95222,38.0843277,-120.5541741
699,Gardner Lane,95222,38.0843468,-120.5532410
190,Dogtown Road,95222,38.0845086,-120.5569302
710,Kirby Street,95222,38.0843336,-120.5521566
750,Casey Street,95222,38.0844205,-120.5536462
178,Main Street,95222,38.0845799,-120.5614581
398,Easy Street,95222,38.0844060,-120.5515369
765,Casey Street,95222,38.0844767,-120.5542539
725,Gardner Lane,95222,38.0845599,-120.5533908
167,Dogtown Road,95222,38.0846090,-120.5578743
700,Gardner Lane,95222,38.0844965,-120.5528099
194,Main Street,95222,38.0847208,-120.5617061
760,Casey Street,95222,38.0845946,-120.5537581
728,Kirby Street,95222,38.0845599,-120.5522811
775,Casey Street,95222,38.0846805,-120.5543337
714,Gardner Lane,95222,38.0846583,-120.5528794
206,Main Street,95222,38.0849040,-120.5619364
790,Casey Street,95222,38.0847593,-120.5538273
810,Casey Street,95222,38.0849283,-120.5535492
200,Dogtown Road,95222,38.0850590,-120.5567702
817,Easy Street,95222,38.0849300,-120.5524866
250,Clifton Lane,95222,38.0852244,-120.5601170
252,Main Street,95222,38.0852738,-120.5627611
207,Dogtown Road,95222,38.0853166,-120.5576258
262,Clifton Lane,95222,38.0854818,-120.5598727
280,Clifton Lane,95222,38.0856172,-120.5597495
300,Main Street,95222,38.0857860,-120.5638819
1108,Murphys Grade Road,95222,38.0854130,-120.5388999
330,Main Street,95222,38.0858904,-120.5645994
380,Main Street,95222,38.0860701,-120.5654169
292,Clifton Lane,95222,38.0858185,-120.5596300
990,Country Lane,95222,38.0858360,-120.5570671
310,Main Street,95222,38.0861394,-120.5642302
988,Country Lane,95222,38.0859029,-120.5572665
416,Main Street,95222,38.0861455,-120.5663495
220,Dogtown Road,95222,38.0859399,-120.5560405
986,Country Lane,95222,38.0859454,-120.5574366
984,Country Lane,95222,38.0860014,-120.5576144
834,Gardner Lane,95222,38.0859372,-120.5522050
494,Main Street,95222,38.0864151,-120.5669905
982,Country Lane,95222,38.0860517,-120.5577803
304,Clifton Lane,95222,38.0861127,-120.5594547
980,Country Lane,95222,38.0861078,-120.5579405
282,Elderberry Lane,95222,38.0860868,-120.5567066
978,Country Lane,95222,38.0861605,-120.5580968
976,Country Lane,95222,38.0862213,-120.5582607
292,Elderberry Lane,95222,38.0861948,-120.5565651
277,Elderberry Lane,95222,38.0862087,-120.5570695
974,Country Lane,95222,38.0862751,-120.5584205
530,Main Street,95222,38.0865633,-120.5680535
972,Country Lane,95222,38.0863140,-120.5585811
983,Country Lane,95222,38.0863305,-120.5575178
970,Country Lane,95222,38.0863706,-120.5587430
287,Elderberry Lane,95222,38.0863487,-120.5569352
981,Country Lane,95222,38.0863630,-120.5577005
302,Elderberry Lane,95222,38.0863466,-120.5564843
979,Country Lane,95222,38.0864115,-120.5578563
977,Country Lane,95222,38.0864739,-120.5580080
297,Elderberry Lane,95222,38.0864904,-120.5568259
975,Country Lane,95222,38.0865224,-120.5581746
308,Elderberry Lane,95222,38.0865073,-120.5563959
536,Main Street,95222,38.0868950,-120.5682758
968,Country Lane,95222,38.0865674,-120.5587785
967,Country Lane,95222,38.0866235,-120.5583896
314,Elderberry Lane,95222,38.0866464,-120.5563456
307,Elderberry Lane,95222,38.0866558,-120.5567602
966,Country Lane,95222,38.0867052,-120.5587777
955,Country Lane,95222,38.0867636,-120.5581474
943,Country Lane,95222,38.0867574,-120.5571364
951,Country Lane,95222,38.0867643,-120.5577931
947,Country Lane,95222,38.0867641,-120.5574513
953,Country Lane,95222,38.0867663,-120.5579645
965,Country Lane,95222,38.0867648,-120.5583893
945,Country Lane,95222,38.0867660,-120.5572943
941,Country Lane,95222,38.0867669,-120.5569813
949,Country Lane,95222,38.0867681,-120.5576210
570,Main Street,95222,38.0871380,-120.5686827
1128,Murphys Grade Road,95222,38.0865395,-120.5390797
317,Elderberry Lane,95222,38.0867794,-120.5567230
320,Elderberry Lane,95222,38.0867999,-120.5563145
964,Country Lane,95222,38.0868404,-120.5587791
566,Main Street,95222,38.0873676,-120.5683510
1134,Murphys Grade Road,95222,38.0870246,-120.5387441
926,Brunner Hill Drive,95222,38.0892500,-120.5685899
813,Brunner Hill Drive,95222,38.0901527,-120.5716892
1179,Brunner Hill Drive,95222,38.0928810,-120.5718691
624,Springhouse Road,95222,38.0655584,-120.5569506
544,Springhouse Road,95222,38.0656917,-120.5597467
1332,Bush Street,95222,38.0683989,-120.5405811
1276,South Main Street,95222,38.0687454,-120.5398205
1282,Minna Street,95222,38.0693926,-120.5450722
1208,South Main Street,95222,38.0694630,-120.5405070
1156,Echo Street,95222,38.0702136,-120.5438187
630,Live Oak Drive,95222,38.0727821,-120.5651934
738,Tuolumne Avenue,95222,38.0733842,-120.5557055
652,Amador Avenue,95222,38.0741127,-120.5535884
643,Placer Street,95222,38.0743501,-120.5566315
344,Smith Flat Road,95222,38.0676402,-120.5628967
292,Mary Belle Way,95222,38.0689203,-120.5651089
292,Blair Mine Road,95222,38.0698725,-120.5678779
1477,Sycamore Street,95222,38.0654746,-120.5389936
1191,Main Street,95222,38.0702928,-120.5401019
1071,Brunner Hill Drive,95222,38.0919330,-120.5705543
1159,Minard,95222,38.0705559,-120.5425054
1153,Minard,95222,38.0705994,-120.5423604
1168,Bush Street,95222,38.0706054,-120.5421596
1128,Bush Street,95222,38.0707653,-120.5426935
1090,Utica Lane,95222,38.0712927,-120.5430621
1082,Utica Lane,95222,38.0716326,-120.5432792
1092,Main Street,95222,38.0711336,-120.5419079
1082,Main Street,95222,38.0712691,-120.5419486
1056,Main Street,95222,38.0715784,-120.5421463
1075,Utica Lane,95222,38.0725628,-120.5429412
2267,HWY 49,95222,38.0505845,-120.5335554
2190,HWY 49,95222,38.0524937,-120.5376149
2066,Big Bonanza Lane,95222,38.0529926,-120.5369026
1896,Main Street,95222,38.0588884,-120.5362688
1884,Main Street,95222,38.0591109,-120.5362473
2002,Centennial Street,95222,38.0594417,-120.5395770
1984,Centennial Street,95222,38.0597099,-120.5398703
1959,Centennial,95222,38.0598899,-120.5390044
1972,Centennial Street,95222,38.0599182,-120.5399136
1895,Centennial Road,95222,38.0599802,-120.5382233
1960,Centennial Street,95222,38.0600805,-120.5400423
1834,Main Street,95222,38.0600325,-120.5368112
1925,Centennial Road,95222,38.0602678,-120.5394299
1820,Main Street,95222,38.0603514,-120.5368649
1919,Centennial Street,95222,38.0605990,-120.5395648
1917,Centenial Street,95222,38.0609953,-120.5398675
1892,Centenial Street,95222,38.0610427,-120.5394193
1872,Centennial Street,95222,38.0611238,-120.5388581
1951,Ramorini Lane,95222,38.0611366,-120.5382850
1770,Main Street,95222,38.0611181,-120.5370936
1906,Centennial Street,95222,38.0612881,-120.5400747
1902,Centenial Street,95222,38.0613292,-120.5396839
1760,Main Street,95222,38.0612690,-120.5370947
1979,Ramorini Lane,95222,38.0613942,-120.5376486
1750,Main Street,95222,38.0614238,-120.5371205
1882,Centennial Street,95222,38.0615906,-120.5409539
570,Lightner Place,95222,38.0620498,-120.5593968
610,Smith Flat Road,95222,38.0619731,-120.5579930
568,Lightner Place,95222,38.0620628,-120.5597977
640,Smith Flat Road,95222,38.0620149,-120.5569063
620,Smith Flat Road,95222,38.0620444,-120.5575785
630,Smith Flat Road,95222,38.0620383,-120.5572061
574,Smith Flat Road,95222,38.0622574,-120.5591653
729,Smith Flat Road,95222,38.0621576,-120.5539786
1792,Ramorini Lane,95222,38.0618517,-120.5382269
1758,Ramorini Lane,95222,38.0618648,-120.5377131
566,Lightner Place,95222,38.0623535,-120.5598871
689,Smith Flat Road,95222,38.0622748,-120.5551670
787,Smith Flat Road,95222,38.0622293,-120.5519935
1720,Main Street,95222,38.0619196,-120.5372396
797,Smith Flat Road,95222,38.0622404,-120.5517305
807,Smith Flat Road,95222,38.0623156,-120.5514477
602,Alawa Place,95222,38.0625397,-120.5586181
562,Lightner Place,95222,38.0625638,-120.5596708
625,Smith Flat Road,95222,38.0625333,-120.5573059
663,Smith Flat Road,95222,38.0625927,-120.5560013
622,Miwuk Way,95222,38.0626242,-120.5576789
857,Selkirk Ranch Road,95222,38.0625279,-120.5539303
556,Smith Flat Road,95222,38.0627616,-120.5599361
835,Pioneer Mine Court,95222,38.0626384,-120.5536103
847,Selkirk Ranch Road,95222,38.0626706,-120.5538538
643,Miwuk Way,95222,38.0627802,-120.5563346
598,Alawa Place,95222,38.0629746,-120.5588555
833,Pioneer Mine Court,95222,38.0628148,-120.5535133
837,Selkirk Ranch Road,95222,38.0628452,-120.5538389
831,Pioneer Mine Court,95222,38.0628312,-120.5531932
639,Miwuk Way,95222,38.0629309,-120.5566793
1678,Main Street,95222,38.0625411,-120.5373126
534,Smith Flat Road,95222,38.0631139,-120.5603105
631,Miwuk Way,95222,38.0630091,-120.5570712
586,Miwuk Way,95222,38.0630944,-120.5590548
576,Sasa Place,95222,38.0631123,-120.5596133
817,Grinding Rock Road,95222,38.0629967,-120.5543426
829,Pioneer Mine Court,95222,38.0630190,-120.5532539
827,Selkirk Ranch Road,95222,38.0630248,-120.5538265
811,Grinding Rock Road,95222,38.0630659,-120.5546553
825,Triple Lode Drive,95222,38.0630802,-120.5534877
805,Grinding Rock Road,95222,38.0631896,-120.5549575
819,Triple Lode Drive,95222,38.0632447,-120.5531937
1650,Main Street,95222,38.0629706,-120.5374190
817,Selkirk Ranch Road,95222,38.0633199,-120.5538398
591,Miwuk Way,95222,38.0634401,-120.5587020
798,Triple Lode Drive,95222,38.0633506,-120.5536066
813,Triple Lode Drive,95222,38.0634055,-120.5531342
1860,Finnegan Lane,95222,38.0633286,-120.5454571
807,Selkirk Ranch Road,95222,38.0634769,-120.5538320
792,Triple Lode Drive,95222,38.0635119,-120.5534844
569,Miwuk Way,95222,38.0637149,-120.5593981
807,Triple Lode Drive,95222,38.0635614,-120.5531017
555,Miwuk Way,95222,38.0637369,-120.5598834
1634,Main Street,95222,38.0632692,-120.5377220
797,Selkirk Ranch Road,95222,38.0636214,-120.5538488
1647,Mayo,95222,38.0633076,-120.5381405
786,Triple Lode Drive,95222,38.0637006,-120.5536104
777,Grinding Rock Road,95222,38.0637984,-120.5561988
801,Triple Lode Drive,95222,38.0637151,-120.5531826
780,Triple Lode Drive,95222,38.0637811,-120.5538437
501,Rosebush Court,95222,38.0638978,-120.5551660
795,Triple Lode Drive,95222,38.0638642,-120.5532880
775,Grinding Rock Road,95222,38.0640063,-120.5558075
1614,Park Avenue,95222,38.0637214,-120.5382178
789,Triple Lode Drive,95222,38.0640637,-120.5537104
783,Triple Lode Drive,95222,38.0640756,-120.5539035
617,Smokehouse Court,95222,38.0641278,-120.5544518
1595,Park Avenue,95222,38.0637611,-120.5378186
781,Quartz Mine Court,95222,38.0641831,-120.5534887
515,Rosebush Court,95222,38.0643949,-120.5554449
775,Quartz Mine Court,95222,38.0643305,-120.5535618
769,Quartz Mine Court,95222,38.0643965,-120.5538613
767,Quartz Mine Court,95222,38.0644293,-120.5540786
1580,Main Street,95222,38.0641286,-120.5378457
1572,Main Street,95222,38.0643326,-120.5380018
727,Grinding Rock Road,95222,38.0647793,-120.5547081
739,Grinding Rock Road,95222,38.0647850,-120.5552545
1570,Finnegan Lane,95222,38.0645272,-120.5413507
757,Selkirk Ranch Road,95222,38.0648281,-120.5538992
1556,Main Street,95222,38.0646043,-120.5377905
1563,Finnegan Lane,95222,38.0646655,-120.5408557
1560,Finnegan Lane,95222,38.0646967,-120.5412020
1566,Park Avenue,95222,38.0646513,-120.5382744
749,Selkirk Ranch Road,95222,38.0651137,-120.5538704
1552,Finnegan Lane,95222,38.0648177,-120.5411812
1544,Main Street,95222,38.0648135,-120.5376584
710,Pilot Knob Court,95222,38.0651933,-120.5544553
1548,Park Avenue,95222,38.0649028,-120.5381687
706,Greenstone Way,95222,38.0652688,-120.5548310
1540,Finnegan Lane,95222,38.0650298,-120.5415317
698,Madison Court,95222,38.0652813,-120.5551689
690,Empire Court,95222,38.0654032,-120.5554920
608,Springhouse Road,95222,38.0654955,-120.5576469
694,Greenstone Way,95222,38.0654503,-120.5552590
600,Springhouse Road,95222,38.0655019,-120.5579393
733,Selkirk Ranch Road,95222,38.0654574,-120.5538296
714,Pilot Knob Court,95222,38.0654266,-120.5543948
592,Springhouse Road,95222,38.0655369,-120.5582096
718,Greenstone Way,95222,38.0654559,-120.5548797
576,Springhouse Road,95222,38.0656037,-120.5587675
568,Springhouse Road,95222,38.0656263,-120.5590301
560,Springhouse Road,95222,38.0656424,-120.5593023
640,Springhouse Road,95222,38.0656591,-120.5563233
536,Springhouse Road,95222,38.0657038,-120.5601239
678,Greenstone Way,95222,38.0656326,-120.5557655
1507,Finnegan Lane,95222,38.0653239,-120.5405823
528,Springhouse Road,95222,38.0657545,-120.5603693
1526,Finnegan Lane,95222,38.0653727,-120.5411729
711,North Star Loop,95222,38.0657052,-120.5543540
1497,Finnegan Lane,95222,38.0654571,-120.5404482
691,Greenstone Way,95222,38.0657395,-120.5553082
1512,Finnegan Lane,95222,38.0655085,-120.5409540
674,Greenstone Way,95222,38.0658621,-120.5558714
612,Selkirk Ranch Road,95222,38.0659108,-120.5579252
1486,Sycamore Street,95222,38.0655523,-120.5396037
671,Greenstone Way,95222,38.0659289,-120.5552009
695,North Star Loop,95222,38.0658844,-120.5544066
679,North Star Loop,95222,38.0658972,-120.5550106
656,Selkirk Ranch Road,95222,38.0659797,-120.5563796
1475,Finnegan Lane,95222,38.0656400,-120.5401823
1496,Park Avenue,95222,38.0655531,-120.5375479
584,Chimney Hill Court,95222,38.0660758,-120.5588822
1498,Finnegan Lane,95222,38.0656736,-120.5407593
687,North Star Loop,95222,38.0659637,-120.5547087
670,Greenstone Way,95222,38.0659912,-120.5555593
648,Selkirk Ranch Road,95222,38.0660810,-120.5567243
1478,Myrtle Street,95222,38.0657267,-120.5389170
1471,Finnegan Lane,95222,38.0657236,-120.5400339
1488,Main Street,95222,38.0656900,-120.5374960
624,Selkirk Ranch Road,95222,38.0661327,-120.5574979
707,Mc Cauley Ranch Road,95222,38.0660740,-120.5537559
1488,Finnegan Lane,95222,38.0658054,-120.5406380
600,Selkirk Ranch Road,95222,38.0662153,-120.5581932
1470,Sycamore Street,95222,38.0658057,-120.5398922
1464,Main Street,95222,38.0658638,-120.5376073
1476,Finnegan Lane,95222,38.0659246,-120.5404043
592,Chimney Hill Court,95222,38.0663521,-120.5584201
580,Chimney Hill Court,95222,38.0664305,-120.5592041
711,Mc Cauley Ranch Road,95222,38.0663206,-120.5542790
701,Selkirk Ranch Road,95222,38.0663156,-120.5545571
681,Selkirk Ranch Road,95222,38.0663545,-120.5553008
1470,Harris Street,95222,38.0660036,-120.5393412
1447,Finnegan Lane,95222,38.0660522,-120.5397496
661,Selkirk Ranch Road,95222,38.0664386,-120.5561617
1454,Main Street,95222,38.0660328,-120.5377194
1463,Myrtle Street,95222,38.0661257,-120.5389557
655,Selkirk Ranch Road,95222,38.0664806,-120.5564193
619,Lindsay Court,95222,38.0664917,-120.5572811
575,Springhouse Road,95222,38.0665724,-120.5593958
647,Selkirk Ranch Road,95222,38.0665248,-120.5567098
1439,Finnegan Lane,95222,38.0661431,-120.5396116
637,Selkirk Ranch Road,95222,38.0665513,-120.5569646
609,Lindsay Court,95222,38.0666056,-120.5578508
576,Chimney Hill Court,95222,38.0666308,-120.5588421
1429,Finnegan Lane,95222,38.0662411,-120.5394659
591,Stone Corral Court,95222,38.0667012,-120.5581371
1413,Finnegan Lane,95222,38.0663056,-120.5391954
560,Selkirk Ranch Road,95222,38.0667951,-120.5591637
611,Lindsay Court,95222,38.0667928,-120.5577683
1434,Finnegan Lane,95222,38.0664574,-120.5398274
615,Lindsay Court,95222,38.0668452,-120.5573420
587,Stone Corral Court,95222,38.0669039,-120.5579772
577,Selkirk Ranch Road,95222,38.0669162,-120.5585195
613,Lindsay Court,95222,38.0670161,-120.5575634
1376,Main Street,95222,38.0666636,-120.5385415
585,Stone Corral Court,95222,38.0671145,-120.5577581
1403,Finnegan Lane,95222,38.0666923,-120.5391772
561,Selkirk Ranch Road,95222,38.0671965,-120.5589111
579,Stone Corral Court,95222,38.0672025,-120.5584481
1404,Finnegan Lane,95222,38.0667812,-120.5397411
1380,Fairview Place,95222,38.0668657,-120.5419054
1260,Gold Cliff Road,95222,38.0670439,-120.5470827
1370,Fairview Place,95222,38.0669434,-120.5420820
583,Stone Corral Court,95222,38.0672906,-120.5579489
1384,Main Street,95222,38.0669712,-120.5386630
581,Stone Corral Court,95222,38.0673713,-120.5581666
1418,Bush Street,95222,38.0671095,-120.5396852
1365,Finnegan Lane,95222,38.0672210,-120.5391117
1350,Fairview Place,95222,38.0672151,-120.5423607
1380,Finnegan Lane,95222,38.0671581,-120.5393343
541,Rock Forge Loop,95222,38.0675801,-120.5589285
537,Rock Forge Loop,95222,38.0677083,-120.5586455
1336,Fairview Drive,95222,38.0673135,-120.5425492
1330,Fairview Drive,95222,38.0674154,-120.5426900
1352,Finnegan Lane,95222,38.0673390,-120.5393506
522,Selkirk Ranch Road,95222,38.0678476,-120.5598440
1400,Bush Street,95222,38.0674357,-120.5397350
1320,Fairview Drive,95222,38.0675170,-120.5428151
525,Selkirk Ranch Road,95222,38.0679740,-120.5592567
1392,Bush Street,95222,38.0675801,-120.5398591
1310,Fairview Drive,95222,38.0676513,-120.5429927
529,Rock Forge Loop,95222,38.0680058,-120.5587455
1370,Fairview Drive,95222,38.0675799,-120.5408539
1180,Gold Cliff Road,95222,38.0677836,-120.5491994
1355,Finnegan Lane,95222,38.0675530,-120.5391910
1346,Finnegan Lane,95222,38.0676135,-120.5394951
1348,Main Street,95222,38.0676082,-120.5387809
1325,Fairview Drive,95222,38.0676953,-120.5424485
1300,Fairview Drive,95222,38.0677400,-120.5431226
1362,Bush Street,95222,38.0677009,-120.5404001
1269,Gold Cliff Road,95222,38.0678511,-120.5468207
1345,Finnegan Lane,95222,38.0676892,-120.5392226
1315,Fairview Drive,95222,38.0678130,-120.5425720
517,Selkirk Ranch Road,95222,38.0681665,-120.5593937
1372,Bush Street,95222,38.0677768,-120.5400613
1290,Fairview Drive,95222,38.0678659,-120.5433057
524,Rock Forge Loop,95222,38.0681903,-120.5590896
521,Rock Forge Loop,95222,38.0682038,-120.5585813
506,Selkirk Ranch Road,95222,38.0682594,-120.5600403
1417,Fairview Drive,95222,38.0678588,-120.5410299
1296,Oak Place,95222,38.0679424,-120.5428257
1251,Gold Cliff Road,95222,38.0680280,-120.5470888
1280,Fairview Drive,95222,38.0679712,-120.5434647
1342,Oak Place,95222,38.0679980,-120.5423356
1409,Fairview Drive,95222,38.0679799,-120.5411512
1270,Oak Court,95222,38.0680498,-120.5436127
509,Selkirk Ranch Road,95222,38.0683968,-120.5594972
1304,Oak Place,95222,38.0680270,-120.5427102
516,Rock Forge Loop,95222,38.0683827,-120.5591065
498,Selkirk Ranch Road,95222,38.0684374,-120.5601370
1371,Bush Street,95222,38.0680310,-120.5396560
505,Rock Forge Loop,95222,38.0685093,-120.5585404
1352,Bush Street,95222,38.0680986,-120.5402831
508,Rock Forge Loop,95222,38.0684916,-120.5592616
1401,Fairview Drive,95222,38.0681249,-120.5412098
1306,Main Street,95222,38.0681874,-120.5393927
1330,Oak Place,95222,38.0681951,-120.5425055
1303,Oak Place,95222,38.0682522,-120.5429652
1394,Fairview Drive,95222,38.0682389,-120.5412969
500,Rock Forge Loop,95222,38.0686254,-120.5595134
1253,Oak Court,95222,38.0682972,-120.5437147
1264,Fairview Drive,95222,38.0683163,-120.5433612
490,Selkirk Ranch Road,95222,38.0686805,-120.5601673
1315,Oak Place,95222,38.0683535,-120.5428055
1340,Bush Street,95222,38.0682898,-120.5403560
497,Rock Forge Loop,95222,38.0687365,-120.5588226
1362,Mark Twain Road,95222,38.0683626,-120.5414104
1243,Oak Court,95222,38.0684158,-120.5438473
1254,Fairview Drive,95222,38.0684483,-120.5434867
1321,Oak Place,95222,38.0684394,-120.5426537
1215,Gold Cliff Road,95222,38.0686107,-120.5474832
489,Rock Forge Loop,95222,38.0688404,-120.5589501
1356,Mark Twain Road,95222,38.0684403,-120.5415186
482,Selkirk Ranch Road,95222,38.0688904,-120.5600941
1339,Bush Street,95222,38.0684694,-120.5401005
1244,Fairview Drive,95222,38.0685768,-120.5436204
1369,Mark Twain Road,95222,38.0684940,-120.5409497
1348,Mark Twain Road,95222,38.0685319,-120.5416565
481,Rock Forge Loop,95222,38.0689823,-120.5591558
1340,Mark Twain Road,95222,38.0686391,-120.5417853
1220,Fairview Drive,95222,38.0688192,-120.5441918
1170,Gold Cliff Road,95222,38.0689158,-120.5507567
1253,Fairview Street,95222,38.0688210,-120.5431670
474,Fiddlers Court,95222,38.0690910,-120.5602423
476,Fiddlers Court,95222,38.0690843,-120.5599377
1312,Bush Street,95222,38.0686552,-120.5406804
1328,Mark Twain Road,95222,38.0687227,-120.5419753
1355,Mark Twain Road,95222,38.0687033,-120.5412497
465,Selkirk Ranch Road,95222,38.0692040,-120.5593281
1318,Mark Twain Road,95222,38.0688229,-120.5421423
1303,Bush Street,95222,38.0688671,-120.5404199
1166,Gold Cliff Road,95222,38.0690767,-120.5482889
1308,Mark Twain Road,95222,38.0689543,-120.5422710
1267,Hardscrabble Street,95222,38.0689858,-120.5414112
1221,Fairview Street,95222,38.0690814,-120.5434359
1257,Hardscrabble Street,95222,38.0690441,-120.5412151
1290,Bush Street,95222,38.0690497,-120.5408825
457,Selkirk Ranch Road,95222,38.0694870,-120.5592725
1292,Mark Twain Road,95222,38.0690884,-120.5424718
466,Fiddlers Court,95222,38.0695374,-120.5597578
1144,Gold Cliff Road,95222,38.0693660,-120.5484946
1280,Bush Street,95222,38.0692279,-120.5409445
1274,Mark Twain Road,95222,38.0692370,-120.5427819
1305,Mark Twain Road,95222,38.0692409,-120.5420330
468,Fiddlers Court,95222,38.0696361,-120.5600139
1335,Love Street,95222,38.0692756,-120.5416663
458,Selkirk Ranch Road,95222,38.0697825,-120.5596764
1264,Bush Street,95222,38.0693727,-120.5411313
1212,Mark Twain Road,95222,38.0694072,-120.5433572
1182,Mark Twain Road,95222,38.0694678,-120.5445103
1325,Love Street,95222,38.0694687,-120.5418815
1275,Mark Twain Road,95222,38.0695453,-120.5425053
1116,Mark Twain Road,95222,38.0697102,-120.5452757
1192,South Main Street,95222,38.0696332,-120.5406703
1131,Gold Cliff Road,95222,38.0697912,-120.5480510
1251,Bush Street,95222,38.0696200,-120.5411588
450,Selkirk Ranch Road,95222,38.0701032,-120.5595779
1241,Bush Street,95222,38.0697013,-120.5413046
1233,Love Street,95222,38.0697451,-120.5429648
1230,Bush Street,95222,38.0697210,-120.5416682
1215,Mark Twain Road,95222,38.0697766,-120.5432320
1281,Love Street,95222,38.0698307,-120.5422937
1161,Echo Street,95222,38.0698528,-120.5435819
1245,Love Street,95222,38.0698844,-120.5427134
1159,Mark Twain Road,95222,38.0699526,-120.5442180
1216,Bush Street,95222,38.0698983,-120.5418410
1162,Main Street,95222,38.0699374,-120.5413618
1170,Echo Street,95222,38.0699988,-120.5440329
1123,Mark Twain Road,95222,38.0701880,-120.5449972
1143,Mark Twain Road,95222,38.0702040,-120.5446137
1186,Bush Street,95222,38.0701636,-120.5421728
1152,Main Street,95222,38.0701871,-120.5414061
1143,Echo Street,95222,38.0701971,-120.5430300
1179,Minard,95222,38.0702559,-120.5427741
1151,Mark Twain Road,95222,38.0702637,-120.5442632
1194,Bush Street,95222,38.0702645,-120.5419432
1071,Mark Twain Road,95222,38.0704266,-120.5458565
1054,Mark Twain Road,95222,38.0704211,-120.5463291
1134,Main Street,95222,38.0703832,-120.5414287
1173,Minard,95222,38.0704061,-120.5427061
1180,Bush Street,95222,38.0703956,-120.5422496
1212,Minna Street,95222,38.0705151,-120.5454448
1185,Minna Street,95222,38.0705428,-120.5447188
1118,Echo Street,95222,38.0705093,-120.5438036
1171,Minna Street,95222,38.0705926,-120.5444679
1053,Mark Twain Road,95222,38.0706980,-120.5455771
1034,Mark Twain Road,95222,38.0706477,-120.5464638
1157,Minna Street,95222,38.0706749,-120.5442625
1033,West Street,95222,38.0707356,-120.5448137
245,Blair Mine Road,95222,38.0711409,-120.5636124
1026,Mark Twain Road,95222,38.0707848,-120.5465737
1041,Mark Twain Road,95222,38.0707925,-120.5460176
1100,Echo Street,95222,38.0707377,-120.5439451
250,Smith Flat Road,95222,38.0711901,-120.5631991
1101,Echo Street,95222,38.0708145,-120.5435009
1016,Mark Twain Road,95222,38.0708746,-120.5467487
255,Blair Mine Road,95222,38.0713976,-120.5655983
1002,Mark Twain Road,95222,38.0709594,-120.5469332
1002,West Street,95222,38.0709424,-120.5454475
1037,Mark Twain Road,95222,38.0709900,-120.5461112
1088,Echo Street,95222,38.0709781,-120.5441304
1025,Mark Twain Road,95222,38.0710537,-120.5463244
1015,Hillcrest Street,95222,38.0710701,-120.5473176
248,Blair Mine Road,95222,38.0714624,-120.5644181
257,Blair Mine Road,95222,38.0716144,-120.5658856
246,Blair Mine Road,95222,38.0715534,-120.5639736
1080,Echo Street,95222,38.0711129,-120.5441736
1013,Mark Twain Road,95222,38.0711616,-120.5465136
1094,Bush Street,95222,38.0711043,-120.5435682
988,Mark Twain Road,95222,38.0711848,-120.5471335
980,West Street,95222,38.0712148,-120.5457093
1040,Highland Al,95222,38.0712043,-120.5446692
244,Blair Mine Road,95222,38.0716185,-120.5636357
1070,Echo Street,95222,38.0712144,-120.5442709
1015,West Street,95222,38.0712187,-120.5450288
997,Mark Twain Road,95222,38.0713127,-120.5467175
1090,Bush Street,95222,38.0712187,-120.5436933
259,Blair Mine Road,95222,38.0717817,-120.5661174
1002,Hillcrest Street,95222,38.0713538,-120.5476627
231,Smith Flat Road,95222,38.0716943,-120.5625147
251,El Dorado Court,95222,38.0717102,-120.5645426
249,El Dorado Court,95222,38.0718030,-120.5642361
1088,Bush Street,95222,38.0713661,-120.5439064
234,Smith Flat Road,95222,38.0718193,-120.5630683
980,Hillcrest Court,95222,38.0715028,-120.5478294
265,Blair Mine Road,95222,38.0719103,-120.5667947
984,Hillcrest Street,95222,38.0714832,-120.5473499
959,West Street,95222,38.0714969,-120.5451088
261,Blair Mine Road,95222,38.0719476,-120.5663765
1050,Echo Street,95222,38.0714993,-120.5443286
221,Smith Flat Road,95222,38.0719162,-120.5621929
963,West Street,95222,38.0715292,-120.5456142
943,Mark Twain Road,95222,38.0715632,-120.5462790
245,El Dorado Court,95222,38.0719953,-120.5635429
974,Mark Twain Road,95222,38.0716225,-120.5471754
157,Smith Flat Road,95222,38.0719414,-120.5604295
960,Hillcrest Court,95222,38.0716845,-120.5481979
193,Smith Flat Road,95222,38.0719609,-120.5615021
1035,Bush Street,95222,38.0716710,-120.5435870
951,West Street,95222,38.0717129,-120.5458270
226,Smith Flat Road,95222,38.0721365,-120.5627936
268,Blair Mine Road,95222,38.0722964,-120.5672807
940,Hillcrest Court,95222,38.0718618,-120.5479053
962,Mark Twain Road,95222,38.0718509,-120.5470704
1038,Bush Street,95222,38.0718150,-120.5443179
937,Gold Cliff Road,95222,38.0719450,-120.5490494
947,Hillcrest Court,95222,38.0719694,-120.5474413
1062,Utica Lane,95222,38.0718883,-120.5435825
933,Mark Twain Road,95222,38.0719525,-120.5459948
963,East Street,95222,38.0719527,-120.5451787
908,Mark Twain Road,95222,38.0720496,-120.5467825
248,El Dorado Court,95222,38.0724195,-120.5646891
260,Blair Mine Road,95222,38.0724396,-120.5655736
1032,Bush Street,95222,38.0719595,-120.5443571
244,El Dorado Court,95222,38.0724458,-120.5639732
254,El Dorado Court,95222,38.0724545,-120.5651501
1022,Bush Street,95222,38.0720441,-120.5444375
1056,Utica Lane,95222,38.0720648,-120.5433650
210,Smith Flat Road,95222,38.0724642,-120.5621009
218,Smith Flat Road,95222,38.0724864,-120.5623657
186,Smith Flat Road,95222,38.0724721,-120.5612665
202,Smith Flat Road,95222,38.0725188,-120.5618283
892,Mark Twain Road,95222,38.0722526,-120.5470165
928,Hillcrest Court,95222,38.0722159,-120.5476963
1026,Tuolumne Avenue,95222,38.0723327,-120.5501765
1014,Bush Street,95222,38.0721891,-120.5445347
1050,Utica Lane,95222,38.0721917,-120.5434957
906,Crystal Street,95222,38.0722842,-120.5464176
544,Live Oak Drive,95222,38.0727445,-120.5671844
857,Gold Cliff Road,95222,38.0724095,-120.5480161
556,Live Oak Drive,95222,38.0727768,-120.5668783
874,Mark Twain Road,95222,38.0724305,-120.5474057
644,Live Oak Drive,95222,38.0727965,-120.5648752
568,Live Oak Drive,95222,38.0728050,-120.5665999
616,Live Oak Drive,95222,38.0728177,-120.5654665
859,Gold Cliff Road,95222,38.0724845,-120.5486254
580,Live Oak Drive,95222,38.0728580,-120.5663292
592,Live Oak Drive,95222,38.0728436,-120.5660416
520,Live Oak Drive,95222,38.0729200,-120.5678837
604,Live Oak Drive,95222,38.0728508,-120.5657616
978,Tuolumne Avenue,95222,38.0725701,-120.5509503
658,Live Oak Drive,95222,38.0728646,-120.5645726
772,Live Oak Drive,95222,38.0728461,-120.5619061
930,Crystal Street,95222,38.0725047,-120.5458121
748,Live Oak Drive,95222,38.0729228,-120.5625354
1013,Crystal Street,95222,38.0725673,-120.5447228
844,Live Oak Drive,95222,38.0728684,-120.5601227
832,Live Oak Drive,95222,38.0728613,-120.5604036
1015,Tuolumne Avenue,95222,38.0726778,-120.5498936
796,Live Oak Drive,95222,38.0729226,-120.5613218
724,Live Oak Drive,95222,38.0729818,-120.5631092
855,Gold Cliff Road,95222,38.0727368,-120.5482339
974,Crystal Street,95222,38.0727350,-120.5451537
508,Live Oak Drive,95222,38.0732221,-120.5679636
917,Crystal Street,95222,38.0727200,-120.5463154
909,Crystal Street,95222,38.0727354,-120.5465890
892,Tuolumne Avenue,95222,38.0728823,-120.5525485
557,Live Oak Drive,95222,38.0732297,-120.5672975
968,Tuolumne Avenue,95222,38.0728852,-120.5509415
906,Tuolumne Avenue,95222,38.0728869,-120.5522184
856,Tuolumne Avenue,95222,38.0729512,-120.5533462
816,Tuolumne Avenue,95222,38.0729224,-120.5540054
856,Live Oak Drive,95222,38.0730760,-120.5598612
918,Tuolumne Avenue,95222,38.0728782,-120.5519319
832,Tuolumne Avenue,95222,38.0729430,-120.5536939
954,Tuolumne Avenue,95222,38.0729194,-120.5512412
857,Mark Twain Road,95222,38.0728465,-120.5468866
936,Tuolumne Avenue,95222,38.0728942,-120.5515519
862,Tuolumne Avenue,95222,38.0729336,-120.5530737
794,Tuolumne Avenue,95222,38.0730056,-120.5545673
627,Live Oak Drive,95222,38.0732405,-120.5653544
947,Crystal Street,95222,38.0728449,-120.5457127
933,Crystal Street,95222,38.0728602,-120.5460717
787,Stanislaus Avenue,95222,38.0729151,-120.5491521
876,Tuolumne Avenue,95222,38.0729422,-120.5528143
806,Tuolumne Avenue,95222,38.0729793,-120.5542920
589,Live Oak Drive,95222,38.0732914,-120.5664139
816,Oneida Street,95222,38.0728860,-120.5485945
786,Stanislaus Avenue,95222,38.0729415,-120.5497514
844,Mark Twain Road,95222,38.0729841,-120.5477069
778,Tuolumne Avenue,95222,38.0730722,-120.5548275
607,Live Oak Drive,95222,38.0733417,-120.5661281
770,Tuolumne Avenue,95222,38.0731474,-120.5550561
661,Live Oak Drive,95222,38.0734035,-120.5647286
771,Live Oak Drive,95222,38.0733495,-120.5621173
617,Live Oak Drive,95222,38.0734180,-120.5657758
496,Live Oak Drive,95222,38.0734875,-120.5679334
868,Live Oak Drive,95222,38.0733292,-120.5599454
849,Mark Twain Road,95222,38.0730884,-120.5470249
760,Tuolumne Avenue,95222,38.0732567,-120.5552899
779,Stanislaus Avenue,95222,38.0731019,-120.5492303
784,Stanislaus Avenue,95222,38.0731398,-120.5498455
747,Live Oak Drive,95222,38.0734198,-120.5626638
631,Lakeview Court,95222,38.0734982,-120.5653307
723,Live Oak Drive,95222,38.0734794,-120.5632562
735,Live Oak Drive,95222,38.0735038,-120.5629524
725,Amador Avenue,95222,38.0733049,-120.5523291
925,Tuolumne Avenue,95222,38.0733144,-120.5518713
771,Stanislaus Avenue,95222,38.0732438,-120.5491971
831,Tuolumne Avenue,95222,38.0733520,-120.5537396
790,Oneida Street,95222,38.0732531,-120.5487015
871,Tuolumne Avenue,95222,38.0733085,-120.5530165
553,Live Oak Drive,95222,38.0736383,-120.5673680
961,Tuolumne Avenue,95222,38.0733324,-120.5511045
711,Live Oak Drive,95222,38.0735782,-120.5635779
549,Live Oak Court,95222,38.0736481,-120.5669979
826,Mark Twain Road,95222,38.0733491,-120.5477776
863,Tuolumne Avenue,95222,38.0733609,-120.5534485
545,Live Oak Court,95222,38.0736687,-120.5666934
834,Gold Cliff Road,95222,38.0733019,-120.5483750
831,Live Oak Drive,95222,38.0735727,-120.5606943
484,Live Oak Drive,95222,38.0737186,-120.5679167
541,Live Oak Court,95222,38.0737183,-120.5663986
813,Tuolumne Avenue,95222,38.0734401,-120.5540575
843,Live Oak Drive,95222,38.0736130,-120.5604031
803,Tuolumne Avenue,95222,38.0734640,-120.5543014
756,Stanislaus Avenue,95222,38.0733822,-120.5498877
785,Tuolumne Avenue,95222,38.0735076,-120.5545540
755,Stanislaus Avenue,95222,38.0734394,-120.5493076
361,Acorn Drive,95222,38.0736135,-120.5593152
741,Alpine Avenue,95222,38.0734631,-120.5512427
236,Rocky Ridge Lane,95222,38.0737072,-120.5621797
224,Rocky Ridge Lane,95222,38.0737387,-120.5624930
537,Live Oak Court,95222,38.0737923,-120.5657748
539,Live Oak Court,95222,38.0737927,-120.5660602
771,Tuolumne Avenue,95222,38.0735713,-120.5548415
716,Alpine Avenue,95222,38.0735461,-120.5519660
240,Rocky Ridge Court,95222,38.0737234,-120.5617251
753,Tuolumne Avenue,95222,38.0736410,-120.5550895
855,Live Oak Drive,95222,38.0737589,-120.5601986
198,Rocky Ridge Lane,95222,38.0738389,-120.5630752
777,Oneida Street,95222,38.0735702,-120.5483900
690,Amador Avenue,95222,38.0736537,-120.5532346
260,Mistletoe Court,95222,38.0738175,-120.5611053
640,Placer Street,95222,38.0737201,-120.5559705
472,Live Oak Drive,95222,38.0739657,-120.5679404
186,Rocky Ridge Lane,95222,38.0738915,-120.5633514
174,Rocky Ridge Lane,95222,38.0739325,-120.5636249
729,Alpine Avenue,95222,38.0736522,-120.5514124
535,Live Oak Court,95222,38.0739817,-120.5655685
653,Lakeview Court,95222,38.0739559,-120.5645602
702,Alpine Avenue,95222,38.0737380,-120.5521579
676,Amador Avenue,95222,38.0737570,-120.5535465
503,Live Oak Drive,95222,38.0740388,-120.5673656
349,Acorn Drive,95222,38.0738987,-120.5590617
737,Tuolumne Avenue,95222,38.0737940,-120.5553123
697,Amador Avenue,95222,38.0737175,-120.5525118
738,Stanislaus Avenue,95222,38.0736766,-120.5498539
649,Lakeview Court,95222,38.0740455,-120.5650592
675,Hillside Court,95222,38.0738367,-120.5537655
270,Mistletoe Court,95222,38.0739565,-120.5607107
507,Live Oak Court,95222,38.0740699,-120.5669438
162,Rocky Ridge Lane,95222,38.0740130,-120.5638841
739,Stanislaus Avenue,95222,38.0737545,-120.5493125
801,Mark Twain Road,95222,38.0737256,-120.5472895
676,Hillside Court,95222,38.0738630,-120.5543824
250,Mistletoe Court,95222,38.0740140,-120.5613303
511,Live Oak Court,95222,38.0741364,-120.5666826
764,Oneida Street,95222,38.0737288,-120.5488197
715,Alpine Avenue,95222,38.0738335,-120.5515397
235,Rocky Ridge Court,95222,38.0740647,-120.5619983
460,Live Oak Drive,95222,38.0741937,-120.5679373
761,Oneida Street,95222,38.0738684,-120.5484937
150,Rocky Ridge Lane,95222,38.0741741,-120.5640451
515,Live Oak Court,95222,38.0742328,-120.5663837
759,Placer Street,95222,38.0740469,-120.5587388
677,Amador Avenue,95222,38.0739544,-120.5527570
644,Placer Street,95222,38.0740869,-120.5572421
531,Live Oak Court,95222,38.0742455,-120.5654923
684,Alpine Avenue,95222,38.0739863,-120.5523658
338,Acorn Drive,95222,38.0741471,-120.5596925
234,Mistletoe Court,95222,38.0741945,-120.5615870
685,Tuolumne Avenue,95222,38.0740385,-120.5549137
705,Alpine Avenue,95222,38.0739729,-120.5517450
519,Live Oak Court,95222,38.0743125,-120.5661216
138,Rocky Ridge Lane,95222,38.0742705,-120.5643449
491,Live Oak Drive,95222,38.0743358,-120.5673474
722,Stanislaus Avenue,95222,38.0739464,-120.5499405
337,Acorn Drive,95222,38.0741889,-120.5590832
195,Rocky Ridge Court,95222,38.0742678,-120.5628146
231,Rocky Ridge Court,95222,38.0742538,-120.5621644
259,Mistletoe Court,95222,38.0742179,-120.5606975
657,Hillside Court,95222,38.0741393,-120.5539929
879,Pacific Street,95222,38.0740113,-120.5494410
787,Mark Twain Road,95222,38.0739908,-120.5473397
655,Tuolumne Avenue,95222,38.0741514,-120.5544690
448,Live Oak Drive,95222,38.0744259,-120.5679159
670,Alpine Avenue,95222,38.0741367,-120.5525286
219,Rocky Ridge Court,95222,38.0743336,-120.5624753
126,Rocky Ridge Lane,95222,38.0744160,-120.5646069
479,Live Oak Drive,95222,38.0744466,-120.5670717
523,Live Oak Court,95222,38.0744253,-120.5658494
693,Alpine Avenue,95222,38.0741224,-120.5518926
173,Rocky Ridge Lane,95222,38.0743604,-120.5633213
114,Rocky Ridge Lane,95222,38.0744579,-120.5650030
740,Oneida Street,95222,38.0741031,-120.5489297
220,Mistletoe Court,95222,38.0743748,-120.5617600
876,Main Street,95222,38.0740277,-120.5442267
641,Placer Street,95222,38.0742915,-120.5563749
249,Mistletoe Court,95222,38.0744075,-120.5609365
467,Live Oak Drive,95222,38.0745308,-120.5667931
692,Tuolumne Avenue,95222,38.0742892,-120.5554265
804,Pacific Street,95222,38.0741480,-120.5478713
455,Live Oak Drive,95222,38.0745859,-120.5665110
161,Rocky Ridge Lane,95222,38.0745103,-120.5635673
834,Main Street,95222,38.0741651,-120.5450022
527,Live Oak Court,95222,38.0746080,-120.5655288
775,Mark Twain Road,95222,38.0742022,-120.5473596
675,Alpine Avenue,95222,38.0743116,-120.5520458
647,Amador Avenue,95222,38.0743269,-120.5529766
680,Tuolumne Avenue,95222,38.0743939,-120.5551943
190,Mistletoe Court,95222,38.0745413,-120.5620231
436,Live Oak Drive,95222,38.0746718,-120.5678190
654,Alpine Avenue,95222,38.0743432,-120.5527168
646,Placer Street,95222,38.0744337,-120.5557913
314,Acorn Drive,95222,38.0745201,-120.5597293
325,Acorn Drive,95222,38.0745100,-120.5590789
147,Rocky Ridge Lane,95222,38.0746077,-120.5638168
233,Mistletoe Court,95222,38.0745565,-120.5611326
866,Main Street,95222,38.0742063,-120.5445027
639,Placer Street,95222,38.0744205,-120.5560856
832,Pacific Street,95222,38.0742747,-120.5485054
645,Placer Street,95222,38.0744990,-120.5570640
102,Rocky Ridge Lane,95222,38.0746607,-120.5651095
701,Stanislaus Avenue,95222,38.0743192,-120.5495709
170,Mistletoe Court,95222,38.0746112,-120.5623260
766,Mark Twain Road,95222,38.0742957,-120.5478484
664,Tuolumne Avenue,95222,38.0744963,-120.5549659
443,Live Oak Drive,95222,38.0747343,-120.5662630
130,Mistletoe Lane,95222,38.0746691,-120.5630402
424,Live Oak Drive,95222,38.0747870,-120.5675082
722,Oneida Street,95222,38.0743682,-120.5490415
665,Alpine Avenue,95222,38.0744897,-120.5522129
842,Main Street,95222,38.0743315,-120.5447707
615,Tuolumne Avenue,95222,38.0745695,-120.5537196
133,Rocky Ridge Lane,95222,38.0747429,-120.5640906
431,Live Oak Drive,95222,38.0748004,-120.5659839
217,Mistletoe Court,95222,38.0747224,-120.5613480
302,Acorn Drive,95222,38.0746893,-120.5599941
116,Mistletoe Lane,95222,38.0747994,-120.5633088
637,Amador Avenue,95222,38.0745883,-120.5531476
668,Stanislaus Avenue,95222,38.0744822,-120.5495429
656,Tuolumne Avenue,95222,38.0746381,-120.5547264
719,Oneida Street,95222,38.0745122,-120.5485873
412,Live Oak Drive,95222,38.0749015,-120.5671562
640,Alpine Avenue,95222,38.0746158,-120.5528841
640,Tuolumne Avenue,95222,38.0746599,-120.5543956
313,Acorn Drive,95222,38.0747876,-120.5591820
682,Stanislaus Avenue,95222,38.0745978,-120.5501477
820,Main Street,95222,38.0745094,-120.5450601
808,Main Street,95222,38.0746022,-120.5454171
400,Live Oak Drive,95222,38.0749852,-120.5668996
201,Mistletoe Court,95222,38.0748477,-120.5615753
272,Acorn Drive,95222,38.0748421,-120.5602172
649,Placer Street,95222,38.0748148,-120.5585675
119,Rocky Ridge Lane,95222,38.0749271,-120.5643063
706,Bush Street,95222,38.0746095,-120.5478964
765,Bush Street,95222,38.0746161,-120.5481843
685,Stanislaus Avenue,95222,38.0746441,-120.5495885
102,Mistletoe Lane,95222,38.0749396,-120.5635537
708,Oneida Street,95222,38.0746069,-120.5490466
608,Tuolumne Avenue,95222,38.0748020,-120.5542018
301,Acorn Drive,95222,38.0749323,-120.5594008
345,Live Oak Drive,95222,38.0750650,-120.5653436
641,Alpine Avenue,95222,38.0747882,-120.5525258
105,Rocky Ridge Lane,95222,38.0750653,-120.5645627
185,Mistletoe Court,95222,38.0749823,-120.5618436
88,Mistletoe Lane,95222,38.0750510,-120.5638087
388,Live Oak Drive,95222,38.0751104,-120.5666521
701,Oneida Street,95222,38.0747638,-120.5486937
624,Alpine Avenue,95222,38.0748480,-120.5531308
169,Mistletoe Court,95222,38.0750319,-120.5621340
153,Mistletoe Court,95222,38.0750541,-120.5624375
260,Acorn Drive,95222,38.0750354,-120.5604282
740,Main Street,95222,38.0747975,-120.5455855
376,Live Oak Drive,95222,38.0752054,-120.5664029
695,Stanislaus Avenue,95222,38.0748138,-120.5501780
777,Bush Street,95222,38.0748376,-120.5483971
631,Alpine Avenue,95222,38.0749274,-120.5526931
137,Mistletoe Lane,95222,38.0751329,-120.5627224
284,Leaf Court,95222,38.0750856,-120.5595840
582,Avey Place,95222,38.0750489,-120.5545357
74,Mistletoe Lane,95222,38.0752114,-120.5641841
121,Mistletoe Lane,95222,38.0751954,-120.5629790
248,Acorn Drive,95222,38.0751867,-120.5607351
311,Live Oak Drive,95222,38.0752547,-120.5647979
364,Live Oak Drive,95222,38.0753096,-120.5661770
663,Stanislaus Avenue,95222,38.0749698,-120.5496667
105,Mistletoe Lane,95222,38.0752914,-120.5632698
682,Oneida Street,95222,38.0749417,-120.5491994
597,Amador Avenue,95222,38.0751058,-120.5536294
272,Leaf Court,95222,38.0752691,-120.5598198
295,Leaf Court,95222,38.0752418,-120.5591974
687,Oneida Street,95222,38.0750392,-120.5486726
305,Live Oak Drive,95222,38.0753424,-120.5644541
613,Alpine Avenue,95222,38.0751273,-120.5528003
700,Mark Twain Road,95222,38.0750679,-120.5479737
646,Stanislaus Avenue,95222,38.0751664,-120.5507770
720,Main Street,95222,38.0752001,-120.5466782
224,Acorn Drive,95222,38.0753693,-120.5609623
89,Mistletoe Lane,95222,38.0754319,-120.5635446
73,Mistletoe Lane,95222,38.0755463,-120.5637622
583,Alpine Avenue,95222,38.0753270,-120.5526770
580,Avey Place,95222,38.0753459,-120.5542109
328,Live Oak Drive,95222,38.0755945,-120.5653115
569,Amador Avenue,95222,38.0753795,-120.5536130
200,Acorn Drive,95222,38.0755269,-120.5611784
283,Leaf Court,95222,38.0755130,-120.5591893
600,Alpine Avenue,95222,38.0754154,-120.5532018
637,Stanislaus Avenue,95222,38.0753560,-120.5497781
260,Leaf Court,95222,38.0755916,-120.5598289
103,Acorn Drive,95222,38.0756261,-120.5624263
160,Acorn Drive,95222,38.0756644,-120.5619025
573,Alpine Avenue,95222,38.0754681,-120.5524945
115,Acorn Drive,95222,38.0757143,-120.5628030
248,Leaf Court,95222,38.0756636,-120.5601942
549,Amador Avenue,95222,38.0755319,-120.5534010
180,Acorn Drive,95222,38.0756822,-120.5615385
292,Live Oak Drive,95222,38.0757709,-120.5644887
584,Alpine Avenue,95222,38.0755372,-120.5530335
668,Mark Twain Road,95222,38.0754627,-120.5481524
559,Alpine Avenue,95222,38.0756159,-120.5523567
280,Live Oak Drive,95222,38.0758720,-120.5642320
271,Leaf Court,95222,38.0757699,-120.5592801
572,Alpine Avenue,95222,38.0756863,-120.5528782
539,Amador Avenue,95222,38.0757045,-120.5532925
558,Amador Avenue,95222,38.0757398,-120.5538394
127,Acorn Drive,95222,38.0759817,-120.5628650
551,Alpine Avenue,95222,38.0757672,-120.5521720
564,San Joaquin Avenue,95222,38.0757505,-120.5515161
560,Alpine Avenue,95222,38.0758302,-120.5527146
199,Acorn Drive,95222,38.0759882,-120.5609642
529,Amador Avenue,95222,38.0758740,-120.5531022
612,Stanislaus Avenue,95222,38.0758688,-120.5507659
540,Amador Avenue,95222,38.0759102,-120.5536635
187,Acorn Drive,95222,38.0760564,-120.5612357
211,Leaf Court,95222,38.0760931,-120.5606470
548,San Joaquin Avenue,95222,38.0758862,-120.5517374
151,Acorn Drive,95222,38.0761157,-120.5621387
139,Acorn Drive,95222,38.0761457,-120.5625061
163,Acorn Drive,95222,38.0761239,-120.5618453
537,Alpine Avenue,95222,38.0759362,-120.5520103
577,San Joaquin Avenue,95222,38.0759432,-120.5509831
223,Leaf Court,95222,38.0761356,-120.5603295
175,Acorn Drive,95222,38.0761550,-120.5615248
247,Leaf Court,95222,38.0761429,-120.5597340
235,Leaf Court,95222,38.0761258,-120.5600595
552,Alpine Avenue,95222,38.0759744,-120.5525503
517,Amador Avenue,95222,38.0760066,-120.5529517
259,Leaf Court,95222,38.0761885,-120.5591603
530,Amador Avenue,95222,38.0760868,-120.5534523
563,San Joaquin Avenue,95222,38.0760389,-120.5511998
503,Amador Avenue,95222,38.0761646,-120.5528206
538,Alpine Avenue,95222,38.0761579,-120.5523917
545,San Joaquin Avenue,95222,38.0761852,-120.5515168
516,Amador Avenue,95222,38.0762400,-120.5532897
571,Stanislaus Avenue,95222,38.0762665,-120.5499444
498,San Joaquin Avenue,95222,38.0762927,-120.5526322
531,San Joaquin Avenue,95222,38.0763073,-120.5517468
521,San Joaquin Avenue,95222,38.0763858,-120.5519598
584,Main Street,95222,38.0763528,-120.5493048
502,Amador Avenue,95222,38.0764633,-120.5530814
513,San Joaquin Avenue,95222,38.0764782,-120.5521569
314,Main Street,95222,38.0766292,-120.5551761
464,San Joaquin Avenue,95222,38.0766057,-120.5532418
497,San Joaquin Avenue,95222,38.0765706,-120.5523807
580,Main Street,95222,38.0766933,-120.5497249
489,San Joaquin Avenue,95222,38.0766848,-120.5525810
473,San Joaquin Avenue,95222,38.0767769,-120.5527785
463,San Joaquin Avenue,95222,38.0768593,-120.5530060
447,HWY 4,95222,38.0771117,-120.5608723
444,Main Street,95222,38.0774956,-120.5518101
474,Main Street,95222,38.0774400,-120.5511821
464,Main Street,95222,38.0775895,-120.5514396
432,Main Street,95222,38.0778094,-120.5520309
374,Main Street,95222,38.0782722,-120.5537345
329,Stockton Road,95222,38.0783806,-120.5573940
326,Main Street,95222,38.0783488,-120.5539362
348,Main Street,95222,38.0785454,-120.5533315
301,Demarest Road,95222,38.0785183,-120.5548683
333,Stockton Road,95222,38.0785591,-120.5579182
299,HWY 4,95222,38.0785915,-120.5571855
321,HWY 4,95222,38.0787053,-120.5575876
324,Main Street,95222,38.0788103,-120.5538758
334,Main Street,95222,38.0787335,-120.5536388
289,HWY 4,95222,38.0790728,-120.5571122
294,Main Street,95222,38.0790501,-120.5543201
241,Monte Verda Street,95222,38.0790919,-120.5579313
281,HWY 4,95222,38.0791760,-120.5569603
308,HWY 4,95222,38.0792243,-120.5577476
292,HWY 4,95222,38.0793683,-120.5574669
231,Monte Verda Street,95222,38.0794531,-120.5579506
221,Monte Verda Street,95222,38.0796443,-120.5578694
276,HWY 4,95222,38.0797247,-120.5571524
182,Main Street,95222,38.0800449,-120.5564370
192,Monte Verda Street,95222,38.0802446,-120.5583826
172,Main Street,95222,38.0803043,-120.5564049
183,Peri Street,95222,38.0803563,-120.5570508
173,Peri Street,95222,38.0804468,-120.5572509
148,Main Street,95222,38.0805929,-120.5567424
130,Main Street,95222,38.0807396,-120.5571041
350,Wilson Street,95222,38.0821222,-120.5632358
343,Wilson Street,95222,38.0823958,-120.5629552
335,Wilson Street,95222,38.0826376,-120.5628506
332,Wilson Street,95222,38.0827761,-120.5632938
313,Wilson Street,95222,38.0829345,-120.5627177
316,Wilson Street,95222,38.0830437,-120.5632133
295,Wilson Street,95222,38.0832168,-120.5626842
302,Wilson Street,95222,38.0832223,-120.5631498
99,Main Street,95222,38.0833429,-120.5605728
265,Bennett Street,95222,38.0834232,-120.5621989
273,Wilson Street,95222,38.0835816,-120.5625739
272,Wilson Street,95222,38.0836674,-120.5630213
311,Bennett Street,95222,38.0837011,-120.5636094
381,Bennett Street,95222,38.0837580,-120.5651439
355,Bennett Street,95222,38.0837534,-120.5645726
345,Bennett Street,95222,38.0837717,-120.5642839
327,Bennett Street,95222,38.0837990,-120.5639841
133,Main Street,95222,38.0837911,-120.5613275
293,Bennett Street,95222,38.0838212,-120.5633454
169,Main Street,95222,38.0840738,-120.5617214
356,Bennett Street,95222,38.0841586,-120.5645550
340,Bennett Street,95222,38.0841456,-120.5642721
328,Bennett Street,95222,38.0841620,-120.5639941
312,Bennett Street,95222,38.0841779,-120.5636498
284,Francis Street,95222,38.0842329,-120.5633686
183,Main Street,95222,38.0841974,-120.5619867
217,Main Street,95222,38.0843121,-120.5626769
268,Francis Street,95222,38.0844784,-120.5631680
253,Baker Street,95222,38.0846340,-120.5632740
273,Baker Street,95222,38.0847551,-120.5635184
675,Copello Drive,95222,38.0849377,-120.5699594
303,Baker Street,95222,38.0848791,-120.5642653
329,Main Street,95222,38.0850496,-120.5650313
445,Main Street,95222,38.0854896,-120.5670161
685,Copello Drive,95222,38.0857636,-120.5714093
525,Main Street,95222,38.0861234,-120.5686118
651,Copello Drive,95222,38.0862613,-120.5707909
700,Copello Drive,95222,38.0864055,-120.5714316
575,Main Street,95222,38.0865219,-120.5694344
409,Albasio Court,95222,38.0635566,-120.5622967
490,Smith Flat Road,95222,38.0638903,-120.5614125
408,Albasio Court,95222,38.0640079,-120.5627744
1167,Stockton Road,95222,38.0640656,-120.5641618
476,Smith Flat Road,95222,38.0644418,-120.5614233
400,Albasio Court,95222,38.0644693,-120.5624711
428,Smith Flat Road,95222,38.0647543,-120.5630851
463,Smith Flat Road,95222,38.0648340,-120.5613565
481,Cornnelia,95222,38.0648608,-120.5607174
408,Corral Loop,95222,38.0649664,-120.5652927
420,Smith Flat Road,95222,38.0649968,-120.5631555
441,Olivia Place,95222,38.0650684,-120.5622214
477,Cornelia Place,95222,38.0650319,-120.5609549
449,Olivia Place,95222,38.0652131,-120.5618724
412,Corral Loop,95222,38.0654096,-120.5649317
425,Perlina Terr,95222,38.0654553,-120.5627377
387,Perlina Terr,95222,38.0655228,-120.5624899
410,Corral Loop,95222,38.0655939,-120.5651778
416,Corral Loop,95222,38.0655563,-120.5643082
411,Perlina Terr,95222,38.0656031,-120.5629355
418,Corral Loop,95222,38.0657108,-120.5640327
399,Perlina Terr,95222,38.0658778,-120.5629239
394,Blair Mine Road,95222,38.0659441,-120.5644309
391,Perlina Terr,95222,38.0660560,-120.5626969
388,Blair Mine Road,95222,38.0661803,-120.5647819
397,Blair Mine Road,95222,38.0663562,-120.5641145
396,Smith Flat Road,95222,38.0663337,-120.5632691
388,Smith Flat Road,95222,38.0664594,-120.5628840
389,Blair Mine Road,95222,38.0666305,-120.5644024
370,Smith Flat Road,95222,38.0667890,-120.5622719
379,Blair Mine Road,95222,38.0669106,-120.5651871
365,Blair Mine Road,95222,38.0671459,-120.5663986
360,Smith Flat Road,95222,38.0671054,-120.5623249
375,Blair Mine Road,95222,38.0671584,-120.5658791
349,Smith Flat Road,95222,38.0677831,-120.5623560
316,Catalpa,95222,38.0679957,-120.5650533
312,Catalpa Lane,95222,38.0681818,-120.5653147
313,Mary Belle Way,95222,38.0682721,-120.5640595
302,Mary Belle Way,95222,38.0683296,-120.5636734
298,Mary Belle Way,95222,38.0683410,-120.5644063
320,Blair Mine Road,95222,38.0685972,-120.5669891
325,Smith Flat Road,95222,38.0685487,-120.5630805
301,Mill Road,95222,38.0689160,-120.5672152
306,Mary Belle Way,95222,38.0688564,-120.5637107
301,Blair Mine Road,95222,38.0691952,-120.5666686
300,Blair Mine Road,95222,38.0692372,-120.5675740
296,Catalpa Lane,95222,38.0693165,-120.5656508
293,Smith Flat Road,95222,38.0693054,-120.5631727
296,Blair Mine Road,95222,38.0694965,-120.5677883
292,Catalpa Lane,95222,38.0696322,-120.5655543
288,Catalpa,95222,38.0699360,-120.5655182
271,Catalpa Lane,95222,38.0699662,-120.5639105
290,Blair Mine Road,95222,38.0701349,-120.5678772
263,Catalpa Lane,95222,38.0701234,-120.5633668
288,Blair Mine Road,95222,38.0703908,-120.5679028
253,Pointe Drive,95222,38.0703283,-120.5607528
600,South Main Street,95221,38.0874987,-120.5694353
407,North Main Street,95222,38.0849429,-120.5662942
