House number,Street name,Postal code,Latitude,Longitude
1005,11th Street,95521,40.8709944,-124.0885264
1690,Janes Road,95521,40.8786752,-124.1007332
1125,16th Street,95521,40.8751275,-124.0878400
736,F Street,95521,40.8671743,-124.0845480
420,E. California Avenue,95521,40.8833272,-124.0797925
1593,G Street,95521,40.8742912,-124.0838811
5000,Valley West Boulevard,95521,40.9042990,-124.0822071
1116,11th Street,95521,40.8715054,-124.0895406
773,8th Street,95521,40.8680999,-124.0868391
761,8th Street,95521,40.8680433,-124.0866034
761,8th Street,95521,40.8680614,-124.0866846
752,18th Street,95521,40.8762031,-124.0836459
768,18th Street,95521,40.8762294,-124.0838949
708,9th Street,95521,40.8690765,-124.0858525
708,9th Street,95521,40.8689669,-124.0860202
708,9th Street,95521,40.8689441,-124.0858917
851,Bayside Road,95521,40.8592358,-124.0724596
100,Alliance,95503,40.8844162,-124.0909244
1731,G Street,95521,40.8755850,-124.0836377
5000,Valley West Boulevard,95521,40.9024985,-124.0821033
1700,Union Street,95521,40.8740094,-124.0752953
1602,Old Arcata Road,95524,40.8473044,-124.0669240
1101,H Street #3,95521,40.8708405,-124.0865555
420,E. California Avenue,95521,40.8832558,-124.0797969
326,South G Street,95521,40.8588677,-124.0891617
324,South G Street,95521,40.8589617,-124.0891241
322,South G Street,95521,40.8590787,-124.0890772
16,G Street,95521,40.8618189,-124.0881343
141,G Street,95521,40.8623207,-124.0884010
46,G Street,95521,40.8619892,-124.0880619
80,G Street,95521,40.8622125,-124.0879331
20,South G Street,95521,40.8614437,-124.0881933
686,F Street,95521,40.8667688,-124.0852400
692,14th Street,95521,40.8729167,-124.0840938
1296,11th Street,95521,40.8718116,-124.0912793
88,Sunny Brae Center,95521,40.8583631,-124.0713231
86,Sunnybrae Center,95521,40.8580024,-124.0711868
550,South G Street,95521,40.8567195,-124.0889128
930,Samoa Boulevard,95521,40.8655868,-124.0897812
401,I Street,95521,40.8655223,-124.0895279
856,10th Street,95521,40.8701494,-124.0872389
1551,Giuntoli Lane,95521,40.9046108,-124.0821060
5251,Mad River Parkway,95521,40.9053343,-124.0804609
1730,Janes Road,95521,40.8795337,-124.1005230
1710,Janes Road,95521,40.8789667,-124.1000400
700,Union Street,95521,40.8653377,-124.0775492
5232,Mad River Parkway,95521,40.9052838,-124.0793778
830,G Street,95521,40.8683004,-124.0858756
826,G Street,95521,40.8682390,-124.0859085
808,G Street,95521,40.8681482,-124.0859386
1309,11th Street,95521,40.8716471,-124.0921367
1309,11th Street,95521,40.8716274,-124.0920328
1309,11th Street,95521,40.8716141,-124.0919694
1220,5th Street,95521,40.8668897,-124.0924401
1309,11th Street,95521,40.8715968,-124.0918883
1309,11th Street,95521,40.8714994,-124.0917283
1309,10th Street,95521,40.8711972,-124.0918424
420,South G Street,95521,40.8580330,-124.0893611
700,South G Street,95521,40.8562412,-124.0889190
700,South G Street,95521,40.8562020,-124.0890490
145,South G Street,95521,40.8624246,-124.0883494
145,South G Street,95521,40.8624620,-124.0884517
1251,9th Street,95521,40.8699529,-124.0917600
839,9th Street,95521,40.8690592,-124.0872631
839,9th Street,95521,40.8690719,-124.0873270
822,G Street,95521,40.8681852,-124.0859410
815,9th Street,95521,40.8690386,-124.0871612
825,H Street,95521,40.8685436,-124.0871578
830,G Street,95521,40.8683230,-124.0858702
850,G Street,95521,40.8683970,-124.0858231
813,H Street,95521,40.8683880,-124.0872171
817,H Street,95521,40.8684373,-124.0871982
850,G Street,95521,40.8683882,-124.0857688
645,7th Street,95521,40.8670155,-124.0858847
811,I Street,95521,40.8690422,-124.0887834
1,Harpst Street,95521,40.8744982,-124.0792274
1125,16th Street,95521,40.8751089,-124.0879479
1210,G Street,95521,40.8712867,-124.0845802
631,9th Street,95521,40.8685098,-124.0850842
799,H Street,95521,40.8679786,-124.0874555
876,G Street,95521,40.8676119,-124.0865627
697,8th Street,95521,40.8678170,-124.0858226
1,Harpst Street,95521,40.8755517,-124.0773865
736,F STreet,95521,40.8753204,-124.0979486
736,Sandra Court,95521,40.8740192,-124.1037238
1330,Q Street,95521,40.8751721,-124.0938041
3235,Janes Road,95521,40.8988329,-124.0918933
3800,Janes Road,95521,40.8960998,-124.0913378
3001,Janes Road,95521,40.8943763,-124.0925062
2985,Janes Creek Drive,95521,40.8882845,-124.0828871
942,G Street,95521,40.8690961,-124.0855174
989,G Street,95521,40.8686820,-124.0856282
732,9th Street,95521,40.8691325,-124.0861024
744,9th Street,95521,40.8691485,-124.0861788
764,9th Street,95521,40.8691616,-124.0863578
774,9th Street,95521,40.8692072,-124.0864483
784,9th Street,95521,40.8692252,-124.0865347
786,9th Street,95521,40.8692479,-124.0866250
708,9th Street,95521,40.8690998,-124.0859339
791,G Street,95521,40.8678809,-124.0863843
501,9th Street,95521,40.8683716,-124.0835584
736,F Street,95521,40.8671938,-124.0847298
500,7th Street,95521,40.8670219,-124.0837532
839,9th Street,95521,40.8690323,-124.0873005
893,H Street,95521,40.8689686,-124.0870537
883,H Street,95521,40.8688834,-124.0871723
863,H Street,95521,40.8688201,-124.0872371
833,H Street,95521,40.8686163,-124.0873136
823,H Street,95521,40.8685549,-124.0873342
884,9th Street,95521,40.8694263,-124.0875505
71,7th Street,95521,40.8657779,-124.0782464
785,Bayside Road,95521,40.8583521,-124.0728571
700,Bayside Road,95521,40.8584753,-124.0719271
959,H Street,95521,40.8696499,-124.0869037
957,H Street,95521,40.8695659,-124.0868897
933,H Street,95521,40.8693713,-124.0869024
923,H Street,95521,40.8693226,-124.0869232
915,H Street,95521,40.8692588,-124.0869466
905,H Street,95521,40.8691953,-124.0869747
865,9th Street,95521,40.8689649,-124.0875185
1041,H Street,95521,40.8702263,-124.0865987
985,G Street,95521,40.8694818,-124.0859588
600,F Street,95521,40.8657241,-124.0852648
600,F Street,95521,40.8659090,-124.0839548
600,F Street,95521,40.8656296,-124.0841420
600,F Street,95521,40.8662503,-124.0838528
725,8th Street,95521,40.8679476,-124.0864514
735,8th Street,95521,40.8679872,-124.0865289
1033,G Street,95521,40.8699006,-124.0856364
1000,H Street,95521,40.8699745,-124.0863227
1040,H Street,95521,40.8701478,-124.0862193
1091,H Street,95521,40.8705790,-124.0864433
1087,H Street,95521,40.8705139,-124.0864648
1073,H Street,95521,40.8704495,-124.0864914
1063,H Street,95521,40.8703900,-124.0865146
1057,H Street,95521,40.8703405,-124.0865852
1080,G Street,95521,40.8701581,-124.0850205
1090,G Street,95521,40.8702589,-124.0850512
1030,G Street,95521,40.8697819,-124.0852104
650,10th Street,95521,40.8696358,-124.0848271
1242,G Street,95521,40.8715205,-124.0844860
1360,G Street,95521,40.8724138,-124.0841808
837,H Street,95521,40.8686679,-124.0872930
853,H Street,95521,40.8687630,-124.0872581
853,H Street,95521,40.8687174,-124.0872751
959,H Street,95521,40.8697121,-124.0868186
987,H Street,95521,40.8697895,-124.0867900
120,G Street,95521,40.8697253,-124.0852314
1010,G Street,95521,40.8696709,-124.0852508
1049,Samoa Boulevard,95521,40.8655438,-124.0911259
1055,Samoa Boulevard,95521,40.8650029,-124.0907086
350,I Street,95521,40.8648626,-124.0894928
901,Samoa Boulevard,95521,40.8651712,-124.0895458
421,Samoa Boulevard,95521,40.8658427,-124.0906722
421,Samoa Boulevard,95521,40.8659700,-124.0906466
1076,Samoa Boulevard,95521,40.8659529,-124.0909494
440,K Street,95521,40.8659632,-124.0911789
1008,F Street,95521,40.8694509,-124.0839296
1016,F Street,95521,40.8696073,-124.0839056
1018,F Street,95521,40.8699391,-124.0839848
1041,F Street,95521,40.8697336,-124.0845557
1300,G Street,95521,40.8721750,-124.0842357
1315,G Street,95521,40.8722992,-124.0847898
575,H Street,95521,40.8665436,-124.0880394
645,7th Street,95521,40.8669762,-124.0858661
980,6th Street,95521,40.8671029,-124.0891204
3501,Janes Road,95521,40.9022468,-124.0897083
700,Union Street,95521,40.8653600,-124.0774606
1300,9th Street,95521,40.8706430,-124.0919365
1335,10th Street,95521,40.8709050,-124.0921835
1285,11th Street,95521,40.8714360,-124.0913795
1386,10th Street,95521,40.8713365,-124.0925555
1690,Janes Road,95521,40.8783325,-124.1002553
1690,Janes Road,95521,40.8786006,-124.1006554
1710,Janes Road,95521,40.8793032,-124.1000213
1730,Janes Road,95521,40.8796375,-124.1002420
1603,G Street,95521,40.8746995,-124.0838214
1655,Heindon Road,95521,40.9024690,-124.0878281
2450,Alliance Road,95521,40.8837853,-124.0897100
5000,Valley West Boulevard,95521,40.9026080,-124.0816842
4900,Valley West Boulevard,95521-8301,40.9024613,-124.0830405
4827,Valley West Boulevard,95521-4693,40.9020874,-124.0838196
4887,Valley West Boulevard,95521-4693,40.9025269,-124.0841851
4901,Valley West Boulevard,95521-4638,40.9027851,-124.0839459
4750,Valley West Boulevard,95521,40.9016185,-124.0825169
4700,Valley West Boulevard,95521,40.9013307,-124.0828132
350,Union Street,95521,40.8625870,-124.0762884
724,G Street,95521,40.8673663,-124.0860754
3535,Janes Road,95521,40.9028284,-124.0903313
1288,9th Street,95521,40.8702207,-124.0917107
569,G Street,95521,40.8581961,-124.0929486
