House number,Street name,Postal code,Latitude,Longitude
2300,College Avenue,94704,37.8691109,-122.2548636
1920,Shattuck Avenue,94704,37.8734190,-122.2687460
2451,Shattuck Avenue,94704,37.8647961,-122.2671401
2441,Shattuck Avenue,94704,37.8650305,-122.2671120
2409,Shattuck Avenue,94704,37.8656869,-122.2672122
2255,Shattuck Avenue,94704,37.8684190,-122.2675560
2255,Hearst Avenue,94709,37.8733273,-122.2648839
1800,University Avenue,94703,37.8709518,-122.2748450
1578,Hopkins Street,94702,37.8782020,-122.2887297
3290,Adeline Street,94703,37.8488430,-122.2717542
1400,Shattuck Avenue,94709,37.8817265,-122.2698100
1463,Shattuck Avenue,94709,37.8809246,-122.2690658
1511,Shattuck Avenue,94709,37.8798261,-122.2688892
1511,Shattuck Avenue,94704,37.8798563,-122.2690130
1513,Shattuck Avenue,94709,37.8797331,-122.2690000
1515,Shattuck Avenue,94709,37.8796544,-122.2690441
1517,Shattuck Avenue,94709,37.8795958,-122.2689700
1504,Shattuck Avenue,94709,37.8799793,-122.2694793
1602,Shattuck Avenue,94709,37.8779258,-122.2692410
1690,Shattuck Avenue,94709,37.8767090,-122.2691070
1700,Shattuck Avenue,94709,37.8763927,-122.2690620
1730,Shattuck Avenue,94709,37.8760111,-122.2690487
1849,Shattuck Avenue,94709,37.8740710,-122.2683760
1900,Shattuck Avenue,94704,37.8737120,-122.2687720
1986,Shattuck Avenue,94704,37.8725460,-122.2686471
1998,Shattuck Avenue,94704,37.8723030,-122.2686290
1543,Shattuck Avenue,94709,37.8786643,-122.2689270
1510G,Walnut Street,94709,37.8799090,-122.2685970
1832,Euclid Avenue,94709,37.8755667,-122.2606291
2490,Hearst Avenue,94709,37.8752789,-122.2596780
1805,Euclid Avenue,94709,37.8758562,-122.2601773
1807,Euclid Avenue,94709,37.8757872,-122.2601636
1829,Euclid Avenue,94709,37.8756900,-122.2601440
1814,Euclid Avenue,94709,37.8758027,-122.2604332
2161,University Avenue,94704,37.8725510,-122.2665090
1888,Solano Avenue,94707,37.8913208,-122.2775340
1853,Solano Avenue,94707,37.8915568,-122.2785848
1825,Solano Avenue,94707,37.8915215,-122.2792168
1801,Solano Avenue,94707,37.8915444,-122.2796465
1799,Solano Avenue,94707,37.8914770,-122.2800130
1695,Solano Avenue,94707,37.8913239,-122.2827535
1615,Solano Avenue,94707,37.8912462,-122.2840802
1591,Solano Avenue,94707,37.8912088,-122.2848120
1736,Solano Avenue,94707,37.8911252,-122.2815990
1820,Solano Avenue,94707,37.8912169,-122.2794208
1250,Addison Street,94702,37.8683150,-122.2867924
2126,Center Street,94704,37.8702867,-122.2671958
2132,Center Street,94704,37.8703222,-122.2669174
2142,Center Street,94704,37.8703381,-122.2667928
2152,Center Street,94704,37.8703741,-122.2665106
2154,Center Street,94704,37.8703844,-122.2664298
2151,Shattuck Avenue,94704,37.8702011,-122.2676247
1831,Solano Avenue,94707,37.8915356,-122.2789640
2235,Sacramento Street,94702,37.8662168,-122.2812450
2728,Durant Avenue,94704,37.8683834,-122.2531671
100,Seawall Drive,94710,37.8636500,-122.3179870
2355,Telegraph Avenue,94704,37.8676865,-122.2588201
2311,Telegraph Avenue,94704,37.8683710,-122.2589578
2340,Telegraph Avenue,94704,37.8680186,-122.2591660
2100,Ward Street,94705,37.8593252,-122.2668457
2505,Dwight Way,94704,37.8652686,-122.2581872
1600,Shattuck Avenue,94709,37.8782219,-122.2692730
2175,Allston Way,94704,37.8697594,-122.2660271
2504,San Pablo Avenue,94702,37.8608629,-122.2897290
1610,San Pablo Avenue,94702,37.8749191,-122.2942927
2984,Russell Street,94705,37.8588105,-122.2450520
2887,College Avenue,94705-2113,37.8587670,-122.2530550
2024,Shattuck Avenue,94704,37.8714890,-122.2685200
2300,Shattuck Avenue,94704,37.8674090,-122.2680890
2237,Shattuck Avenue,94704,37.8686607,-122.2675890
1907,Center Street,94704,37.8698739,-122.2722648
1775,San Pablo Avenue,94702,37.8718677,-122.2928112
2049,San Pablo Avenue,94702,37.8684055,-122.2916730
1885,University Avenue,94703,37.8717025,-122.2732154
1642,Martin Luther King Jr Way,94709,37.8762719,-122.2736782
1930,Martin Luther King Jr Way,94704,37.8722506,-122.2732676
80,Shattuck Square,94704,37.8714525,-122.2679134
81,Shattuck Square,94704,37.8714274,-122.2680967
2000,Kala Bagai Way,94704,37.8720196,-122.2679645
1908,University Avenue,94704,37.8714524,-122.2726460
2936,College Avenue,94705,37.8576561,-122.2532665
1870,Euclid Avenue,94709,37.8752461,-122.2603210
1866,Euclid Avenue,94709,37.8753063,-122.2603330
50,McCone Hall,94720,37.8740281,-122.2596570
2601,Telegraph Avenue,94704,37.8630178,-122.2584230
2110,Vine Street,94709,37.8800330,-122.2687337
2136,Oxford Street,94704,37.8701783,-122.2660389
2130,Center Street,94704,37.8702988,-122.2671012
2148,Center Street,94704,37.8703653,-122.2665799
2197,San Pablo Avenue,94702,37.8667360,-122.2910420
1054,University Avenue,94704,37.8687460,-122.2929670
2115,San Pablo Avenue,94702,37.8676540,-122.2914816
2086,Allston Way,94704,37.8691529,-122.2686622
2015,Shattuck Avenue,94704,37.8718740,-122.2675790
1025,University Avenue,94702,37.8690771,-122.2930870
1105,University Avenue,94702,37.8694470,-122.2917566
1600,Shattuck Avenue,94709,37.8782363,-122.2696639
1752,Shattuck Avenue,94709,37.8753467,-122.2691450
1650,Shattuck Avenue,94709,37.8776660,-122.2692822
1281,Gilman Street,94706,37.8816735,-122.2904073
1272,Gilman Street,94706,37.8814170,-122.2907080
2120,Vine Street,94709,37.8802199,-122.2685104
2114,Vine Street,94709,37.8802121,-122.2686103
2033,Martin Luther King Junior Way,94704,37.8711070,-122.2727810
1807,Fourth Street,94710,37.8698008,-122.3004280
1581,Le Roy Avenue,94708,37.8805767,-122.2587583
2342,Shattuck Avenue,94704,37.8669210,-122.2680090
1500,Josephine Street,94703,37.8793272,-122.2751845
2570,9th Street,94710,37.8589712,-122.2915050
941,Carleton Street,94710,37.8575904,-122.2910760
2748,Adeline Street,94703,37.8586729,-122.2680124
2415,Russell Street,94705,37.8578970,-122.2581450
2224,Shattuck Avenue,94704,37.8688395,-122.2682300
2929,Fifth Street,94710,37.8515606,-122.2935653
2629,Telegraph Avenue,94704,37.8624963,-122.2586140
2120,Dwight Way,94704,37.8639627,-122.2666710
92,Shattuck Square,94704,37.8713221,-122.2678920
1238,Fifth Street,94710,37.8795942,-122.3028910
1444,Shattuck Place,94709,37.8809073,-122.2696792
1878,Euclid Avenue,94709,37.8751784,-122.2603090
1842,Euclid Avenue,94709,37.8754788,-122.2603679
1834,Euclid Avenue,94709,37.8754816,-122.2605508
1824,Euclid Avenue,94709,37.8756980,-122.2604121
1816,Euclid Avenue,94709,37.8757514,-122.2604228
1816,Euclid Avenue,94709,37.8757785,-122.2604283
2020,Kittredge Street,94704,37.8681989,-122.2692560
1783,Solano Avenue,94707,37.8914531,-122.2804403
2201,Shattuck Avenue,94704,37.8692876,-122.2676398
2233,Shattuck Avenue,94704,37.8687560,-122.2676070
1338,San Pablo Avenue,94702,37.8790601,-122.2960430
1954,University Avenue,94704,37.8715749,-122.2716142
2045,Allston Way,94704,37.8693192,-122.2692941
1950,Shattuck Avenue,94704,37.8728589,-122.2686784
1600,Cedar Street,94709,37.8781167,-122.2695299
1235,San Pablo Avenue,94706,37.8810660,-122.2956844
1050,Gilman Street,94710,37.8796761,-122.2964520
1050,Gilman Street,94710,37.8794183,-122.2961370
3350,Adeline Street,94703,37.8476144,-122.2722247
2122,Shattuck Avenue,94704,37.8705505,-122.2684210
2415,Shattuck Avenue,94704,37.8655710,-122.2672860
2071,University Avenue,94704,37.8722391,-122.2689930
2327,Shattuck Avenue,94704,37.8670956,-122.2674325
2399,Shattuck Avenue,94704,37.8659350,-122.2673270
2420,Shattuck Avenue,94704,37.8654680,-122.2678480
2121,Bonar Street,94702,37.8682029,-122.2870547
1786,Fourth Street,94710,37.8701314,-122.3013572
1786,Fourth Street,94710,37.8700382,-122.3014417
139,Berkeley Square,94704,37.8706976,-122.2679711
2930,Shattuck Avenue,94705,37.8557207,-122.2669137
2108,Vine Street,94709,37.8801800,-122.2688690
2999,College Avenue,94705,37.8561255,-122.2528360
2250,Bancroft Way,94704,37.8679791,-122.2639916
1504,Alcatraz Avenue,94703,37.8478300,-122.2773415
1819,Solano Avenue,94707,37.8915117,-122.2793915
1559,Solano Avenue,94707,37.8911607,-122.2858424
1831,Solano Avenue,94707,37.8915267,-122.2791246
1820,Solano Avenue,94707,37.8911986,-122.2797546
889,Ensenada Avenue,94707,37.8916289,-122.2813652
1741,Alcatraz Avenue,94703,37.8487494,-122.2724019
2521,Durant Avenue,94704,37.8680755,-122.2580060
1516,Alcatraz Avenue,94703,37.8478168,-122.2771037
924,Gilman Street,94710,37.8796457,-122.2993500
2115,Allston Way,94704,37.8696285,-122.2671714
3124,Shattuck Avenue,94705,37.8526100,-122.2663194
3126,Shattuck Avenue,94705,37.8525570,-122.2663121
2075,Allston Way,94704,37.8695535,-122.2688354
2566B,Telegraph Avenue,94704,37.8637026,-122.2588600
2055,Center Street,94704,37.8702975,-122.2691555
1763,Alcatraz Avenue,94703,37.8487711,-122.2721810
2900,Shattuck Avenue,94705-1809,37.8565669,-122.2668480
2999,Shattuck Avenue,94705,37.8554366,-122.2663893
3130,Shattuck Avenue,94705,37.8524897,-122.2663225
2150,Allston Way,94704,37.8693615,-122.2666219
2921,Adeline Street,94703,37.8558152,-122.2683904
2829,Shattuck Avenue,94703,37.8574220,-122.2666000
2181,Shattuck Avenue,94704,37.8697889,-122.2676799
2177,Shattuck Avenue,94704,37.8698541,-122.2676710
2175,Shattuck Avenue,94704,37.8699530,-122.2676507
3105,Shattuck Avenue,94705,37.8528896,-122.2660257
1621,San Pablo Avenue,94702,37.8744690,-122.2935904
2213,Shattuck Avenue,94704,37.8690591,-122.2676332
2187,Shattuck Avenue,94704,37.8695816,-122.2676870
2518,Durant Avenue,94704,37.8678100,-122.2580770
2826,Telegraph Avenue,94705,37.8589942,-122.2594876
2140,Oxford Street,94704,37.8699971,-122.2660080
2138,Oxford Street,94704,37.8700438,-122.2660110
2142,Oxford Street,94704,37.8699516,-122.2660030
2120,University Avenue,94704,37.8721058,-122.2675326
1938,Shattuck Avenue,94704,37.8731324,-122.2686900
2081,Center Street,94704,37.8703256,-122.2688817
2271,Shattuck Avenue,94701,37.8681385,-122.2675479
2015,Center Street,94704,37.8701632,-122.2701076
2055 A,Center Street,94704,37.8702718,-122.2693662
2055,Center Street,94704,37.8702893,-122.2692840
2430,Shattuck Avenue,94704,37.8652871,-122.2678183
1300,10th Street,94710,37.8800546,-122.2970940
1318,Tenth Street,94710,37.8796679,-122.2973980
1324,10th Street,94710,37.8795442,-122.2972500
1326,10th Street,94710,37.8794618,-122.2973020
1330,10th Street,94710,37.8793317,-122.2968690
1495,Shattuck Avenue,94709,37.8803780,-122.2690054
1533,Shattuck Avenue,94709,37.8789677,-122.2688981
2468,Telegraph Avenue,94704,37.8656685,-122.2587045
1019,Camelia Street,94710,37.8786460,-122.2967075
1313,Ninth Street,94710,37.8794019,-122.2976610
1313,Ninth Street,94710,37.8796345,-122.2977080
3136,Sacramento Street,94702,37.8505318,-122.2788060
1920,Martin Luther King Jr Way,94703,37.8727664,-122.2733400
2173,Allston Way,94704,37.8697246,-122.2661862
2177,Kittredge Street,94703,37.8688101,-122.2664360
1988,Martin Luther King Jr Way,94704,37.8721117,-122.2732085
1922B,Martin Luther King Jr Way,94704,37.8727298,-122.2733050
1847,Berkeley Way,94704,37.8725757,-122.2733434
2036,University Avenue,94704,37.8718055,-122.2698143
2036,University Avenue,94704,37.8718334,-122.2698226
1823,University Avenue,94703,37.8715502,-122.2742615
3155,College Avenue,94618,37.8518169,-122.2523195
2829,Shattuck Avenue,94703,37.8574850,-122.2665830
2995,College Avenue,94705,37.8562473,-122.2528470
61,Shattuck Square,94704,37.8716983,-122.2679420
1823,Solano Avenue,94707,37.8915182,-122.2792767
2520,Durant Avenue,94704,37.8677666,-122.2579221
2519F,Durant Avenue,94704,37.8683107,-122.2581173
2517,Durant Avenue,94704,37.8681342,-122.2582963
950,Gilman Street,94710,37.8796438,-122.2989402
3102,Shattuck Avenue,94705,37.8528883,-122.2663653
1443,San Pablo Avenue,94702,37.8773507,-122.2945359
1445,San Pablo Avenue,94702,37.8772406,-122.2945121
2020,Milvia Street,94704-1291,37.8711511,-122.2708585
2850,Telegraph Avenue,94705,37.8580359,-122.2599084
1198,San Pablo Avenue,94706-2245,37.8825037,-122.2968470
1600,Sacramento Street,94702,37.8763732,-122.2832523
2366,San Pablo Avenue,94710,37.8633265,-122.2904641
1474,University Avenue,94702,37.8700045,-122.2825370
1843,Solano Avenue,94707,37.8915420,-122.2788501
1947,Center Street,94704,37.8701324,-122.2711960
1226,Shattuck Avenue,94709,37.8844876,-122.2701081
1284,San Pablo Avenue,94710,37.8807063,-122.2964107
1041,Gilman Street,94710,37.8805407,-122.2963870
1160,Sixth Street,94710,37.8812874,-122.3022568
820,Gilman Street,94710,37.8790636,-122.3015853
1328,6th Street,94710,37.8780858,-122.3011175
2017,Shattuck Avenue,94704,37.8717749,-122.2675907
2417,Shattuck Avenue,94704,37.8654693,-122.2672237
1510,Walnut Street,94709,37.8799273,-122.2683090
2126,Dwight Way,94704,37.8639968,-122.2664371
200,Marina Boulevard,94710,37.8683312,-122.3143460
2136,Center Street,94704,37.8703297,-122.2668584
1201,The Alameda,94703,37.8854527,-122.2744894
2407,Dana Street,94704,37.8662837,-122.2600270
760,Hearst Avenue,94710,37.8688825,-122.2994920
1911,Fourth Street,94710,37.8683647,-122.2999903
2079,University Avenue,94704,37.8722518,-122.2688850
2225,Shattuck Avenue,94704,37.8688587,-122.2676390
2050,Berkeley Way,94704,37.8728299,-122.2689226
2644,Ashby Avenue,94705,37.8568538,-122.2534410
1821,Catalina Avenue,94707,37.8922786,-122.2795983
2709,California Street,94703,37.8584993,-122.2777212
1741,Solano Avenue,94707,37.8914057,-122.2812887
64D,Shattuck Square,94704,37.8715927,-122.2679273
2282,Fulton Street,94704,37.8681954,-122.2662330
64,Shattuck Square,94704,37.8717624,-122.2681610
1510,Walnut Street,94709,37.8801086,-122.2682970
2112,Berkeley Way,94704,37.8730028,-122.2679960
2263,Fifth Street,94710,37.8638765,-122.2972146
1469,University Avenue,94702,37.8705637,-122.2829475
1471,University Avenue,94702,37.8705510,-122.2829422
1473,University Avenue,94702,37.8705319,-122.2829395
1475,University Avenue,94702,37.8704896,-122.2829261
1477,University Avenue,94702,37.8705827,-122.2828161
1479,University Avenue,94702,37.8705679,-122.2828080
1481,University Avenue,94702,37.8705467,-122.2828027
1483,University Avenue,94702,37.8705192,-122.2827946
1485,University Avenue,94702,37.8706018,-122.2826498
1487,University Avenue,94702,37.8705870,-122.2826498
1489,University Avenue,94702,37.8705679,-122.2826444
1491,University Avenue,94702,37.8705488,-122.2826444
1935B,Addison Street,94704,37.8708743,-122.2713856
1269,University Avenue,94702,37.8698988,-122.2875004
760,Hearst Avenue,94710,37.8686380,-122.2994028
2750,Adeline Street,94703,37.8584716,-122.2680829
2384,Telegraph Avenue,94704,37.8671647,-122.2589836
1750,Sacramento Street,94702,37.8739663,-122.2834392
2160,Shattuck Avenue,94704,37.8701007,-122.2681380
2475,Shattuck Avenue,94704,37.8643626,-122.2671133
2370,San Pablo Avenue,94702,37.8570287,-122.2884580
3121,Sacramento Street,94702,37.8509388,-122.2782411
2905,College Avenue,94705,37.8581943,-122.2530395
3084,Claremont Avenue,94705,37.8546347,-122.2483032
2410,Channing Way,94704,37.8665929,-122.2600071
2985,College Avenue,94705,37.8564665,-122.2528691
912,Gilman Street,94710,37.8794788,-122.2998510
2499,Telegraph Avenue,94704,37.8652560,-122.2583437
2517,Durant Avenue,94704,37.8680838,-122.2582110
2468-A,Telegraph Avenue,94704,37.8656165,-122.2586933
2121,Bonar Street,94702,37.8681471,-122.2870122
2491,Telegraph Avenue,94704,37.8654252,-122.2583759
1785,Fourth Street,94710,37.8706897,-122.3007414
1725,University Avenue,94703,37.8712823,-122.2766730
2485,Telegraph Avenue,94704,37.8655219,-122.2583932
2210,Prince Street,94705,37.8532508,-122.2635552
2012,Prince Street,94703,37.8527391,-122.2674559
1275,Gilman Street,94706,37.8817001,-122.2906600
1200,Tenth Street,94710,37.8818919,-122.2976575
2979,Sacramento Street,94702,37.8537073,-122.2789017
1919,Shattuck Avenue,94704,37.8733004,-122.2682760
1022B,Hearst Avenue,94710,37.8701483,-122.2934748
1022A,Hearst Avenue,94710,37.8701305,-122.2935615
1250,Hearst Avenue,94710,37.8709450,-122.2887207
1273,Hearst Avenue,94710,37.8713226,-122.2877427
1822,Chestnut Street,94710,37.8712514,-122.2883638
1113,Hearst Avenue,94710,37.8705926,-122.2918503
1210,Hearst Avenue,94710,37.8708007,-122.2893070
1825,Chestnut Street,94710,37.8712395,-122.2881485
1280,Hearst Avenue,94710,37.8710944,-122.2873095
1261,Hearst Avenue,94710,37.8711669,-122.2883827
1277,Hearst Avenue,94710,37.8713223,-122.2873495
1271,Hearst Avenue,94710,37.8712749,-122.2878509
1900,Chestnut Street,94710,37.8709933,-122.2882896
1904,Chestnut Street,94710,37.8709250,-122.2883271
1211,Hearst Avenue,94710,37.8710664,-122.2893505
1141,Hearst Avenue,94710,37.8707126,-122.2907922
1242,Hearst Avenue,94710,37.8708867,-122.2889931
1905,Chestnut Street,94710,37.8709439,-122.2880900
1528,Hearst Avenue,94710,37.8721628,-122.2809132
1511,Hearst Avenue,94710,37.8723621,-122.2816208
1537,Hearst Avenue,94710,37.8725182,-122.2805670
1503,Hearst Avenue,94710,37.8723379,-122.2817727
1519,Hearst Avenue,94710,37.8724286,-122.2813315
1515,Hearst Avenue,94710,37.8723836,-122.2814439
1546,Hearst Avenue,94710,37.8722129,-122.2801170
1521,Hearst Avenue,94710,37.8724653,-122.2811195
1506,Hearst Avenue,94710,37.8720569,-122.2816401
1544,Hearst Avenue,94710,37.8721923,-122.2802882
1903,Sacramento Street,94710,37.8720402,-122.2818584
1533,Hearst Avenue,94710,37.8724997,-122.2808328
1386,Hearst Avenue,94710,37.8714904,-122.2845981
1337,Hearst Avenue,94710,37.8714424,-122.2863207
1424,Hearst Avenue,94710,37.8716059,-122.2834229
1411,Hearst Avenue,94710,37.8717755,-122.2839512
1435,Hearst Avenue,94710,37.8720502,-122.2827576
1400,Hearst Avenue,94710,37.8715243,-122.2843897
1431,Hearst Avenue,94710,37.8718965,-122.2830413
1405,Hearst Avenue,94710,37.8717350,-122.2842955
1382,Hearst Avenue,94710,37.8714706,-122.2847195
1428,Hearst Avenue,94710,37.8716202,-122.2831840
1338,Hearst Avenue,94710,37.8712609,-122.2863629
1421,Hearst Avenue,94710,37.8718346,-122.2835366
1439,Hearst Avenue,94710,37.8720022,-122.2824648
1399,Hearst Avenue,94710,37.8716735,-122.2846577
1362,Hearst Avenue,94710,37.8713722,-122.2853373
1300,Hearst Avenue,94710,37.8712456,-122.2865272
1401,Hearst Avenue,94710,37.8716791,-122.2844114
1433,Hearst Avenue,94710,37.8719619,-122.2828811
1301,Hearst Avenue,94710,37.8714286,-122.2864989
1430,Hearst Avenue,94710,37.8715674,-122.2830428
1359,Hearst Avenue,94710,37.8715471,-122.2855447
1290,Hearst Avenue,94710,37.8712086,-122.2869080
1351,Hearst Avenue,94710,37.8715534,-122.2857857
1352,Hearst Avenue,94710,37.8713470,-122.2857344
1402,Hearst Avenue,94710,37.8715040,-122.2842576
1393,Hearst Avenue,94710,37.8716480,-122.2848020
1299,Hearst Avenue,94710,37.8713827,-122.2869525
1339,Hearst Avenue,94710,37.8714707,-122.2862380
1901,Chestnut Street,94710,37.8710076,-122.2881293
1145,Hearst Avenue,94710,37.8707468,-122.2906480
1131,Hearst Avenue,94710,37.8706512,-122.2913500
1123,Hearst Avenue,94710,37.8706201,-122.2917326
1173,Hearst Avenue,94710,37.8708147,-122.2902216
1198,Hearst Avenue,94710,37.8706784,-122.2897888
1241,Hearst Avenue,94710,37.8710818,-122.2891998
1164,Hearst Avenue,94710,37.8706440,-122.2901554
1275,Hearst Avenue,94710,37.8712986,-122.2876163
1238,Hearst Avenue,94710,37.8708538,-122.2891584
1281,Hearst Avenue,94710,37.8713910,-122.2872456
1270,Hearst Avenue,94710,37.8710700,-122.2875880
1129,Hearst Avenue,94710,37.8706417,-122.2915523
1901,Curtis Street,94710,37.8708317,-122.2895946
1638,Hearst Avenue,94710,37.8722707,-122.2791299
1624,Hearst Avenue,94710,37.8722358,-122.2794847
1622,Hearst Avenue,94710,37.8722523,-122.2796667
2369,Le Conte Avenue,94709,37.8758716,-122.2631561
2317,Le Conte Avenue,94709,37.8753103,-122.2634822
2340,Le Conte Avenue,94709,37.8752533,-122.2631570
2321,Le Conte Avenue,94709,37.8754316,-122.2633715
2320,Le Conte Avenue,94709,37.8749503,-122.2634982
2357,Le Conte Avenue,94709,37.8756508,-122.2633433
2326,Le Conte Avenue,94709,37.8750402,-122.2634183
2365,Le Conte Avenue,94709,37.8757728,-122.2631242
1459,University Avenue,94702,37.8703804,-122.2834461
893,Neilson Street,94707,37.8912282,-122.2865109
1313,Ninth Street,94710,37.8795285,-122.2977033
1313,Gilman Street,94706,37.8814239,-122.2892627
895,Colusa Avenue,94707,37.8918726,-122.2798134
898,Colusa Avenue,94707,37.8914923,-122.2799993
884,Colusa Avenue,94707,37.8917645,-122.2800636
1850,Catalina Avenue,94707,37.8923716,-122.2783915
1868,Catalina Avenue,94707,37.8925454,-122.2779598
1611,Solano Avenue,94707,37.8913341,-122.2843470
1535,Solano Avenue,94707,37.8911163,-122.2864528
1519,Solano Avenue,94707,37.8910813,-122.2869977
1700,Solano Avenue,94707,37.8910557,-122.2822550
1740,Solano Avenue,94707,37.8910890,-122.2815268
1629,Blake Street,94703,37.8619377,-122.2772440
1631,Blake Street,94703,37.8620170,-122.2772280
2430,Shattuck Avenue,94704,37.8651962,-122.2678295
1788,Fourth Street,94710,37.8700138,-122.3014402
2435,Durant Avenue,94704,37.8678468,-122.2597154
2465,Telegraph Avenue,94704,37.8657214,-122.2584266
2493,Telegraph Avenue,94704,37.8653768,-122.2583688
2721,California Street,94703,37.8583547,-122.2776556
2707,California Street,94703,37.8586005,-122.2776534
2705,California Street,94703,37.8586809,-122.2777506
2850,Buena Vista Way,94708,37.8826560,-122.2563871
1708,Martin Luther King Junior Way,94709,37.8757113,-122.2736314
2506,San Pablo Avenue,94702,37.8607356,-122.2896880
1966,University Avenue,94704,37.8716034,-122.2713920
2838,Sacramento Street,94703,37.8563431,-122.2798961
1428,San Pablo Avenue,94702,37.8776371,-122.2951710
2979,College Avenue,94705,37.8565645,-122.2528786
2977,College Avenue,94705,37.8566263,-122.2528847
2391,Telegraph Avenue,94704,37.8671395,-122.2587080
2455,Telegraph Avenue,94704,37.8658675,-122.2584290
2401,Telegraph Avenue,94704,37.8666729,-122.2585762
2590,Telegraph Avenue,94704,37.8634857,-122.2589014
6640,Telegraph Avenue,94609,37.8528610,-122.2599517
3115,Telegraph Avenue,94705,37.8531372,-122.2598306
2398,Telegraph Avenue,94704,37.8670015,-122.2589730
2121,San Pablo Avenue,94702,37.8674269,-122.2913030
2000,San Pablo Avenue,94702,37.8688781,-122.2923144
1549,Hopkins Street,94707,37.8817505,-122.2823201
2503,Hearst Avenue,94709,37.8752639,-122.2597825
2086,Allston Way,94704,37.8691827,-122.2684876
1533,Solano Avenue,94707,37.8911099,-122.2865070
1653,Solano Avenue,94707,37.8912972,-122.2832494
1831,Second Street,94710,37.8686451,-122.3024208
795,Potter Street,94710,37.8515721,-122.2926050
1385,Shattuck Avenue,94709,37.8822502,-122.2693789
237,Ellsworth St.,94704,37.8665240,-122.2636012
2322,Fifth Street,94710,37.8625124,-122.2972822
3100,San Pablo Avenue,94702,37.8506249,-122.2865062
2987,Sacramento Street,94702,37.8536369,-122.2788510
2288,Fulton Street,94704,37.8681555,-122.2662953
2505,Hearst Avenue,94709,37.8754163,-122.2598550
2528,Durant Avenue,94704,37.8678724,-122.2576541
1508,Walnut Street,94709,37.8800073,-122.2683432
2085,Vine Street,94709,37.8802598,-122.2698877
2095,Rose Street,94709,37.8820886,-122.2701020
1241,Sixth Street,94710,37.8799419,-122.3011770
2360,Telegraph Avenue,94704,37.8674436,-122.2591296
2727,California Street,94703,37.8580268,-122.2776872
1336,Channing Way,94702,37.8634855,-122.2845592
1779,Solano Avenue,94707,37.8914472,-122.2805452
2445;2447;2449,Dwight Way,94704,37.8651976,-122.2587417
2482,Telegraph Avenue,94704,37.8653181,-122.2586277
849,University Avenue,94710,37.8684661,-122.2969410
926,Gilman Street,94710,37.8796057,-122.2992513
1481,Greenwood Terrace,94708,37.8824543,-122.2590472
1795,Fourth Street,94710,37.8703910,-122.3005135
1841,Euclid Avenue,94709,37.8755488,-122.2601164
2369,Telegraph Avenue,94704,37.8674458,-122.2587696
2383,Telegraph Avenue,94704,37.8672234,-122.2587157
2390,Telegraph Avenue,94704,37.8670870,-122.2589749
2382,Telegraph Avenue,94704,37.8672105,-122.2589867
2374,Telegraph Avenue,94704,37.8673473,-122.2590220
3000,Colby Street,94705,37.8551899,-122.2578480
2099,Martin Luther King Junior Way,94704,37.8710137,-122.2727834
2039,Shattuck Avenue,94704,37.8713192,-122.2680936
2927A,Shattuck Avenue,94705,37.8561228,-122.2662198
3015,San Pablo Avenue,94702,37.8520592,-122.2864360
2026,University Avenue,94704,37.8717833,-122.2699870
1407,San Pablo Ave,94702,37.8783744,-122.2948683
1401,University Avenue,94702,37.8703709,-122.2841399
729,Heinz Avenue,94710,37.8535452,-122.2950930
2110,Ashby Avenue,94705,37.8552067,-122.2659159
2930,Domingo Avenue,94705,37.8582773,-122.2440717
2930,Shattuck Avenue,94705,37.8560042,-122.2667493
2996,Telegraph Avenue,94705,37.8567060,-122.2601030
1854,Euclid Avenue,94709,37.8754199,-122.2603560
746,Folger Avenue,94710,37.8492687,-122.2930073
2116,Vine Street,94709,37.8802170,-122.2685680
2235,Fifth Street,94710,37.8638405,-122.2974449
1718,University Avenue,94703,37.8708198,-122.2771690
3264,Adeline Street,94703,37.8492881,-122.2715970
2930,Shattuck Avenue,94705,37.8559622,-122.2669756
2145,University Avenue,94704,37.8725011,-122.2670710
2108,Allston Way,94720,37.8693697,-122.2673740
2116,Shattuck Avenue,94704,37.8706743,-122.2684388
1350,Fifth Street,94710,37.8777615,-122.3026210
1287,Gilman Street,94706,37.8816216,-122.2903341
1335,Fourth Street,94710,37.8778581,-122.3030713
3218,Alcatraz Avenue,94703,37.8502102,-122.2712910
1225,Sixth Street,94710,37.8807735,-122.3014810
1346,San Pablo Avenue,94702,37.8788255,-122.2955404
1521,University Avenue,94703,37.8706818,-122.2812016
2928,Domingo Avenue,94705,37.8584369,-122.2440545
2985,College Avenue,94705,37.8564444,-122.2528699
11,Spinnaker Way,94710,37.8718159,-122.3196122
2630,Bancroft Way,94704,37.8686771,-122.2559132
2495,Bancroft Way,94704,37.8691085,-122.2596872
1,Centennial Drive,94720,37.8792009,-122.2466936
1444,Shattuck Avenue,94709,37.8807728,-122.2700148
1480,Shattuck Avenue,94709,37.8803932,-122.2695955
1930,Allston Way,94704,37.8684818,-122.2715428
2100,Martin Luther King Jr Way,94703,37.8701966,-122.2733246
2090,Kittredge Street,94704,37.8679625,-122.2686573
1505,Shattuck Avenue,94709,37.8799361,-122.2690214
1538,Shattuck Avenue,94709,37.8793261,-122.2696060
2085,Vine Street,94709,37.8803188,-122.2698936
2000,Allston Way,94704,37.8686847,-122.2700315
1170,The Alameda,94703,37.8854469,-122.2754364
2128,Oxford Street,94704,37.8702925,-122.2661926
1850,Solano Avenue,94707,37.8910963,-122.2786502
1653,Solano Avenue,94707,37.8913558,-122.2832607
840,Colusa Avenue,94707,37.8924002,-122.2811588
1309,Allston Way,94702,37.8675216,-122.2856362
1125,University Avenue,94702,37.8695498,-122.2909499
199,Seawall Drive,94710,37.8592704,-122.3158202
1550,Hopkins Street,94707,37.8811645,-122.2822834
2000,Shattuck Avenue,94704,37.8718844,-122.2687184
2190,Shattuck Avenue,94704,37.8694832,-122.2686711
2180,Milvia Street,94704,37.8694628,-122.2709155
2121,Allston Way,93710,37.8698004,-122.2668851
2113,Kittredge Street,94704,37.8688235,-122.2671903
2401,Telegraph Avenue,94704,37.8666983,-122.2585194
2455,Telegraph Avenue,94704,37.8658883,-122.2583170
2476,Telegraph Avenue,94704,37.8654950,-122.2588152
3000,Telegraph Avenue,94705,37.8554943,-122.2604953
2650,Durant Avenue,94720,37.8678206,-122.2552281
2515,Durant Avenue,94704,37.8681877,-122.2585173
2400,Durant Avenue,94720,37.8671655,-122.2603744
2367,Shattuck Avenue,94704,37.8663511,-122.2672032
2727,California Street,94703,37.8579994,-122.2776201
2119,University Avenue,94704,37.8726021,-122.2676571
1799,University Avenue,94703,37.8714892,-122.2755084
1909,University Avenue,94704,37.8718906,-122.2727027
1915,University Avenue,94704,37.8719096,-122.2725488
1865,University Avenue,94703,37.8717788,-122.2738214
2703,California Street,94703,37.8588493,-122.2777675
2105,Martin Luther King Jr Way,94704,37.8703117,-122.2724487
2101,Martin Luther King Jr Way,94704,37.8704720,-122.2725625
2111,Martin Luther King Jr Way,94704,37.8699818,-122.2726107
1907,Center Street,94704,37.8699977,-122.2722779
1931,Center Street,94704,37.8700853,-122.2718247
2001,Allston Way,94704,37.8693964,-122.2699783
2001,Center Street,94704,37.8702094,-122.2703288
2001,Addison Street,94704,37.8711486,-122.2703899
2125,Milvia Street,94704,37.8703778,-122.2703638
2101,Milvia Street,94704,37.8706573,-122.2703322
2134,Martin Luther King Jr Way,94703,37.8692253,-122.2732996
2120,Martin Luther King Jr Way,94703,37.8697718,-122.2732612
2018,Allston Way,94704,37.8689646,-122.2695516
2210,Harold Way,94704,37.8687451,-122.2695044
740;750,Hearst Avenue,94710,37.8687251,-122.2996432
2404,Telegraph Avenue,94704,37.8665522,-122.2590206
2026,Shattuck Avenue,94704,37.8714251,-122.2688297
2020,Addison Street,94704,37.8707468,-122.2695281
2030,Addison Street,94704,37.8707991,-122.2692689
2040,Addison Street,94704,37.8708240,-122.2690980
2055,Center Street,94704,37.8704168,-122.2693058
2118;2116,Shattuck Avenue,94704,37.8706445,-122.2685807
2120,Shattuck Avenue,94704,37.8705596,-122.2685862
2222,Harold Way,94704,37.8685055,-122.2694831
2070,Allston Way,94704,37.8689928,-122.2690449
2116,Bancroft Way,94704,37.8672781,-122.2668202
2071,University Avenue,94704,37.8723187,-122.2689613
2051;2057,University Avenue,94704,37.8723146,-122.2693365
2031-2039,University Avenue,94704,37.8721812,-122.2698688
2013-2021,University Avenue,94704,37.8721532,-122.2701708
2011,University Avenue,94704,37.8721892,-122.2703671
2001,University Avenue,94704,37.8721731,-122.2704938
1995,University Avenue,94704,37.8720722,-122.2712758
1923,University Avenue,94704,37.8718680,-122.2723977
1929,University Avenue,94704,37.8719003,-122.2722475
1945,Milvia Street,94704,37.8724940,-122.2704874
2025,Durant Avenue,94704,37.8669641,-122.2693001
2000,San Pablo Avenue,94702,37.8688419,-122.2923971
2020,San Pablo Avenue,94702,37.8687076,-122.2923774
1199,University Avenue,94702,37.8696265,-122.2897141
1111,Addison Street,94702,37.8684630,-122.2913299
1025,Ashby Avenue,94710,37.8522372,-122.2882357
920,Heinz Avenue,94710,37.8533226,-122.2902289
1781,Rose Street,94703,37.8824256,-122.2778062
1925,Martin Luther King Jr Way,94704,37.8723339,-122.2728322
1935,Martin Luther King Jr Way,94704,37.8720903,-122.2727854
1901,Hearst Avenue,94709,37.8736922,-122.2728293
1929,Martin Luther King Jr Way,94704,37.8722084,-122.2727323
2727,Milvia Street,94703,37.8596800,-122.2687358
2721,Shattuck Avenue,94705,37.8596855,-122.2666802
2701,Martin Luther King Jr Way,94703,37.8594527,-122.2708593
1414,University Avenue,94702,37.8696594,-122.2839130
1549,Hopkins Street,94707,37.8817568,-122.2823297
2425,Stuart Street,94705,37.8605690,-122.2580985
1900,Essex Street,94703,37.8532939,-122.2691607
1730,Oregon Street,94703,37.8565285,-122.2735447
1951,Oxford Street,94720,37.8729941,-122.2654292
2612,Haste Street,94720,37.8657901,-122.2548863
901,Gilman Street,94710,37.8805734,-122.3000851
1,Seawall Drive,94710,37.8662052,-122.3174887
2286,Cedar Street,94709,37.8787675,-122.2649253
1255,Eastshore Highway,94710,37.8794438,-122.3065574
824,Ashby Avenue,94710,37.8503555,-122.2921228
800,Potter Street,94710,37.8508318,-122.2925232
1709,Shattuck Avenue,94709,37.8761466,-122.2685276
1780,Tacoma Avenue,94707,37.8923051,-122.2816798
2315,College Avenue,94704,37.8688770,-122.2542414
700,University Avenue,94710,37.8669742,-122.3005867
1505,Hopkins Street,94707,37.8813747,-122.2831966
1824,University Avenue,94703,37.8711189,-122.2739809
1709,La Loma Avenue,94709,37.8779052,-122.2567677
2450,Ashby Avenue,94705,37.8554582,-122.2576518
1512,University Avenue,94703,37.8701890,-122.2812342
2095,Rose Street,94709,37.8822395,-122.2699427
1986-1998,Shattuck Avenue,94704,37.8724010,-122.2687504
1581,Le Roy Avenue,94708,37.8807489,-122.2592375
2220,Cedar Street,94709,37.8785470,-122.2660574
1601,Walnut Street,94709,37.8784500,-122.2675207
2520,College Avenue,94704,37.8648123,-122.2541774
1343,Hopkins Street,94702,37.8792601,-122.2869715
1917,Martin Luther King Jr Way,94704,37.8726817,-122.2729610
1905,Berkeley Way,94704,37.8726597,-122.2728126
1909,Berkeley Way,94704,37.8727161,-122.2726634
1913,Berkeley Way,94704,37.8727168,-122.2724979
1918,Bonita Avenue,94704,37.8727734,-122.2721772
1917,Berkeley Way,94704,37.8726766,-122.2723478
2029,Berkeley Way,94704,37.8731480,-122.2693426
1849,University Avenue,94703,37.8716819,-122.2740586
2748,Adeline Street,94703,37.8586626,-122.2681457
1629,Hopkins Street,94707,37.8824503,-122.2808572
1515,Hopkins Street,94707,37.8813932,-122.2829730
1619,Hopkins Street,94707,37.8824155,-122.2810559
1645,Hopkins Street,94707,37.8825385,-122.2806645
1547,Hopkins Street,94707,37.8816488,-122.2825892
1599,Hopkins Street,94707,37.8820305,-122.2815691
1615,Hopkins Street,94707,37.8822883,-122.2811587
1330,Sacramento Street,94702,37.8805658,-122.2835222
1541,Hopkins Street,94707,37.8815201,-122.2827045
1611,Hopkins Street,94707,37.8822197,-122.2812368
1575,Hopkins Street,94707,37.8820889,-122.2817481
1607,Hopkins Street,94707,37.8822718,-122.2814225
1761;1763,Alcatraz Avenue,94703,37.8488048,-122.2721781
1757;1759,Alcatraz Avenue,94703,37.8487778,-122.2722858
38,Mosswood Road,94704,37.8701558,-122.2475009
1901,Fourth Street,94710,37.8686715,-122.2999733
1308,Delaware Street,94702,37.8723216,-122.2863416
2739,Channing Way,94704,37.8679037,-122.2524594
2068,Center Street,94704,37.8699631,-122.2690479
1149,Francisco Street,94702,37.8730020,-122.2911019
3001,Telegraph Avenue,94705,37.8559331,-122.2594024
2600,Durant Avenue,94704,37.8678835,-122.2563014
150,Panoramic Way,94704,37.8683381,-122.2465822
2590,Durant Avenue,94704,37.8678749,-122.2568818
3105,Shattuck Avenue,94705,37.8528242,-122.2658929
235,University Avenue,94109,37.8641700,-122.3134559
201,University Avenue,94710,37.8642734,-122.3141770
2235;2237;2241,Fifth Street,94710,37.8638738,-122.2972284
1025,Gilman Street,94710,37.8808159,-122.2977075
2927,Harper Street,94703,37.8549598,-122.2720135
3023,Shattuck Avenue,94705,37.8542949,-122.2660925
2311,Channing Way,94704,37.8665982,-122.2629639
1727,Euclid Avenue,94709,37.8773821,-122.2602775
2407,Dana Street,94704,37.8662671,-122.2602977
1960,San Antonio Avenue,94707,37.8984746,-122.2754167
"3202, 3204",Shattuck Avenue,94705,37.8521094,-122.2663462
6006,Genoa Street,94608,37.8468658,-122.2706276
1550,Shattuck Avenue,94709,37.8787957,-122.2699679
2331,Prince Street,94705,37.8539996,-122.2603469
3089,Telegraph Avenue,94705,37.8540681,-122.2597396
2051,Ashby Avenue,94703,37.8554427,-122.2672145
3001,Shattuck Avenue,94705,37.8551312,-122.2661868
2903,Newbury Street,94703,37.8565186,-122.2673846
2905,Newbury Street,94703,37.8564299,-122.2673525
2907,Newbury Street,94703,37.8563462,-122.2673823
1940,Virginia Street,94709,37.8760413,-122.2716134
1606,Bonita Avenue,94709,37.8774787,-122.2727701
1924,Cedar Street,94709,37.8777922,-122.2727620
2847,Shattuck Avenue,94705,37.8569088,-122.2664602
2124,Oregon Street,94705,37.8575595,-122.2659201
2821,Shattuck Avenue,94705,37.8581017,-122.2665159
2813,Shattuck Avenue,94705,37.8581932,-122.2665552
2807,Shattuck Avenue,94705,37.8582995,-122.2666126
3101,Shattuck Avenue,94705,37.8529920,-122.2659383
2906,Newbury Street,94703,37.8562358,-122.2678110
2901;2903,Adeline Street,94703,37.8563819,-122.2680929
2106,Russell Street,94705,37.8566700,-122.2662404
2108,Russell Street,94705,37.8566467,-122.2660063
1834,University Avenue,94703,37.8712621,-122.2736982
2060,Martin Luther King Jr Way,94703,37.8709570,-122.2731380
2070,Martin Luther King Jr Way,94703,37.8708631,-122.2731503
2080,Martin Luther King Jr Way,94703,37.8707134,-122.2731413
1155A,Francisco Street,94702,37.8732024,-122.2909676
2079,Delaware Street,94709,37.8751106,-122.2692519
2425,Warring Street,94704,37.8671397,-122.2503740
2523,Ridge Road,94709,37.8763991,-122.2595644
2121,Russell Street,94705,37.8570464,-122.2659638
725,Gilman Street,94710,37.8792102,-122.3038348
1300,Fourth Street,94710,37.8787272,-122.3036433
707,Gilman Street,94710,37.8793127,-122.3042851
1619,University Avenue,94703,37.8710947,-122.2790545
1761,University Avenue,94703,37.8714494,-122.2762897
1475,Rose Street,94702,37.8791669,-122.2835088
2390,Fourth Street,94710,37.8613493,-122.2985662
2155,Center Street,94704,37.8709547,-122.2664344
2027,7th Street,94710,37.8672103,-122.2959091
2023,8th Street,94710,37.8674911,-122.2948622
1800,University Avenue,94703,37.8709996,-122.2748457
1820,University Avenue,94703,37.8710827,-122.2742674
1790,University Avenue,94703,37.8709722,-122.2756615
1798,University Avenue,94703,37.8709672,-122.2754471
2317,Browning Street,94702,37.8644882,-122.2872378
1924,University Avenue,94704,37.8713885,-122.2723316
1926,University Avenue,94704,37.8714851,-122.2723328
1894,University Avenue,94703,37.8711909,-122.2733434
1894,University Avenue,94703,37.8712041,-122.2733338
1500,University Avenue,94703,37.8701359,-122.2815721
1501,University Avenue,94703,37.8708161,-122.2815952
1250,University Avenue,94702,37.8694471,-122.2870574
1255,Allston Way,94702,37.8672832,-122.2866599
1,Bolivar Drive,94710,37.8664853,-122.3027555
2139,Essex Street,94705,37.8542326,-122.2646137
1469,San Pablo Avenue,94702,37.8771388,-122.2944488
1475;1477;1479;1481;1483,San Pablo Avenue,94702,37.8770076,-122.2944055
1491;1493,San Pablo Avenue,94702,37.8767263,-122.2943042
1499,San Pablo Avenue,94702,37.8765711,-122.2942397
2121,Berkeley Way,94720,37.8735407,-122.2679391
2580,Bancroft Way,94709,37.8686394,-122.2576901
2009,Hearst Avenue,94709,37.8738711,-122.2705349
2005,Hearst Avenue,94709,37.8738439,-122.2706457
2016,6th Street,94710,37.8675423,-122.2969606
1598,University Avenue,94703,37.8703914,-122.2799262
2530,Ridge Road,94720,37.8760321,-122.2588133
2955,Telegraph Avenue,94705,37.8567860,-122.2592593
1061,Miller Avenue,94708,37.8927662,-122.2581047
1812,University Avenue,94703,37.8710341,-122.2746218
1721,University Avenue,94703,37.8713924,-122.2766929
1139,Hearst Avenue,94710,37.8708152,-122.2909796
1033,Hearst Avenue,94710,37.8707994,-122.2911816
1161,Hearst Avenue,94710,37.8708753,-122.2903526
1537,Euclid Avenue,94708,37.8806072,-122.2613584
2111,Martin Luther King Jr Way,94704,37.8700036,-122.2725439
3339,Martin Luther King Jr. Way,94703,37.8474015,-122.2706805
2800,Buena Vista Way,94708,37.8807381,-122.2561323
43,Del Mar Avenue,94708,37.8833070,-122.2542785
1333,Del Mar Avenue,94708,37.8831086,-122.2534769
1444,Glendale Avenue,94708,37.8828272,-122.2537793
51,Del Mar Avenue,94708,37.8829459,-122.2540718
47,Del Mar Avenue,94708,37.8831427,-122.2541771
2638;2640,Warring Street,94704,37.8626235,-122.2504432
2746,California Street,94703,37.8574899,-122.2779473
2752,California Street,94703,37.8573035,-122.2779044
2748,California Street,94703,37.8574016,-122.2779012
1461,University Avenue,94702,37.8706610,-122.2833773
1469;1471;1473;1475,University Avenue,94702,37.8705149,-122.2829644
1477;1479;1481;1483,University Avenue,94702,37.8705382,-122.2827741
1485;1487;1489;1491,University Avenue,94702,37.8705592,-122.2826218
2910,Seventh Street,94710,37.8524997,-122.2922166
3000,Colby Street,94705,37.8551633,-122.2579846
2131,Prince Street,94705,37.8534671,-122.2647802
3045,Shattuck Avenue,94705,37.8536945,-122.2660358
2307,Prince Street,94705,37.8539062,-122.2616190
3033;3039,Shattuck Avenue,94705,37.8540426,-122.2660583
2215,Prince Street,94705,37.8536828,-122.2634266
2210,Prince Street,94705,37.8532414,-122.2635542
1826,Alcatraz Avenue,94703,37.8486058,-122.2705036
6117,Martin Luther King Junior Way,94608,37.8463782,-122.2715034
3408,Martin Luther King Jr Way,94703,37.8465038,-122.2715265
1601,Stuart Street,94703,37.8573828,-122.2774912
3010,Martin Luther King Junior Way,94703,37.8537872,-122.2715382
3010,Martin Luther King Junior Way,94703,37.8538197,-122.2712966
3010,Martin Luther King Junior Way,94703,37.8538432,-122.2714110
1249,Eighth Street,94710,37.8802197,-122.2989364
1225,Eighth Street,94710,37.8804411,-122.2990084
1223,Eighth Street,94710,37.8805811,-122.2990544
1221,Eighth Street,94710,37.8807316,-122.2991038
920,Gilman Street,94710,37.8795401,-122.2995115
900 & 912,Gilman Street,94710,37.8794660,-122.2998747
1201,Eighth Street,94710,37.8810305,-122.2991825
999,Harrison Street,94710,37.8822299,-122.2993887
1101,Eighth Street,94710,37.8826879,-122.2995966
2401,Durant Avenue,94704,37.8680276,-122.2610691
599,Colusa Avenue,94707,37.8967808,-122.2851343
505,Colusa Avenue,94707,37.8983216,-122.2854053
1553,San Lorenzo Avenue,94707,37.8930061,-122.2863560
1510,San Lorenzo Avenue,94707,37.8926420,-122.2869774
1497,Hopkins Street,94702,37.8812008,-122.2834544
1491,Hopkins Street,94702,37.8810955,-122.2835854
1485,Hopkins Street,94702,37.8810184,-122.2836939
1479,Hopkins Street,94702,37.8809558,-122.2837919
1475,Hopkins Street,94702,37.8809031,-122.2838947
1471,Hopkins Street,94702,37.8808471,-122.2840178
1463,Hopkins Street,94702,37.8807255,-122.2841069
1468,Hopkins Street,94702,37.8804273,-122.2837222
1447,Ada Street,94702,37.8799979,-122.2835513
1437,Ada Street,94702,37.8799303,-122.2837204
1458,Hopkins Street,94702,37.8804116,-122.2838824
1454,Hopkins Street,94702,37.8803421,-122.2840359
1448,Hopkins Street,94702,37.8802686,-122.2841755
1442,Hopkins Street,94702,37.8801907,-122.2843189
1433,Ada Street,94702,37.8798084,-122.2838176
1429,Ada Street,94702,37.8797735,-122.2839795
1425,Ada Street,94702,37.8797172,-122.2841100
1432,Hopkins Street,94702,37.8800747,-122.2844788
1424,Hopkins Street,94702,37.8800300,-122.2845976
1420,Hopkins Street,94702,37.8799430,-122.2847430
1418,Hopkins Street,94702,37.8798711,-122.2848807
1410,Hopkins Street,94702,37.8798190,-122.2850093
1400,Hopkins Street,94702,37.8797744,-122.2851751
1423,Ada Street,94702,37.8796287,-122.2842859
1421,Ada Street,94702,37.8795692,-122.2844090
1417,Ada Street,94702,37.8795304,-122.2845514
1415,Ada Street,94702,37.8794520,-122.2847123
1429,Acton Street,94702,37.8795087,-122.2851446
1411,Acton Street,94702,37.8793822,-122.2848094
1409,Ada Street,94702,37.8793600,-122.2849628
1401,Ada Street,94702,37.8792945,-122.2851233
1415,Hopkins Street,94702,37.8796502,-122.2851320
1430,Acton Street,94702,37.8792992,-122.2855460
1368,Hopkins Street,94702,37.8793200,-122.2859745
1372,Hopkins Street,94702,37.8794083,-122.2858167
1376,Hopkins Street,94702,37.8794607,-122.2856895
1380,Hopkins Street,94702,37.8794977,-122.2855311
1401,Hopkins Street,94702,37.8799807,-122.2855177
1405,Hopkins Street,94702,37.8800570,-122.2853564
1409,Hopkins Street,94702,37.8801386,-122.2852180
1429,Hopkins Street,94702,37.8804132,-122.2848130
1433,Hopkins Street,94702,37.8804648,-122.2847178
1443,Hopkins Street,94702,37.8805346,-122.2845715
1347,Hopkins Street,94702,37.8793280,-122.2867163
1351,Hopkins Street,94702,37.8795269,-122.2864718
1357,Hopkins Street,94702,37.8795547,-122.2863257
1219,Peralta Avenue,94706,37.8817116,-122.2871927
1215,Peralta Avenue,94706,37.8817973,-122.2871456
1213,Peralta Avenue,94706,37.8818970,-122.2871262
2311,Le Conte Avenue,94709,37.8751766,-122.2637543
2701,Shattuck Avenue,94705,37.8601241,-122.2667046
2711,Shattuck Avenue,94705,37.8598660,-122.2667534
2741,California Street,94703,37.8575992,-122.2775213
2733,California Street,94703,37.8577407,-122.2775281
2731,California Street,94703,37.8578851,-122.2775818
1591,La Vereda Road,94708,37.8802382,-122.2566949
1595,La Vereda Road,94708,37.8802498,-122.2564664
1589,La Vereda Road,94708,37.8804506,-122.2564687
1585,La Vereda Road,94708,37.8804692,-122.2568228
1570,La Vereda Road,94708,37.8804220,-122.2572484
1590,La Vereda Road,94708,37.8801144,-122.2572223
1726A,Berkeley Way,94703,37.8716956,-122.2763641
1314,Cornell Avenue,94702,37.8803683,-122.2932238
1312,Cornell Avenue,94702,37.8804624,-122.2932406
1316,Cornell Avenue,94702,37.8802204,-122.2931745
1484,University Avenue,94702,37.8700956,-122.2823164
1420,University Avenue,94702,37.8698766,-122.2836161
1622,Berkeley Way,94703,37.8714917,-122.2790141
1903,Sacramento Street,94710,37.8719876,-122.2818811
1506,Hearst Avenue,94710,37.8720330,-122.2817059
1503,Hearst Avenue,94710,37.8724672,-122.2817866
898,Peralta Avenue,94707,37.8913076,-122.2858743
702,Channing Way,94710,37.8609654,-122.2985212
963,Tulare Avenue,94707,37.8882888,-122.2813295
1109,Parker Street,94702,37.8596623,-122.2885663
1105,Parker Street,94702,37.8596108,-122.2886774
2590,Telegraph Avenue,94704,37.8634955,-122.2589526
2237,Carleton Street,94704,37.8620135,-122.2631155
2218,Carleton Street,94704,37.8615152,-122.2637333
2220,Carleton Street,94704,37.8613207,-122.2636474
2334,Stuart Street,94705,37.8591313,-122.2602942
2200,Parker Street,94704,37.8623532,-122.2645624
2419,Oregon Street,94705,37.8589592,-122.2584108
1412,Ninth Street,94710,37.8776362,-122.2975895
1416,Ninth Street,94710,37.8776034,-122.2977757
935,Hearst Avenue,94710,37.8700949,-122.2953580
933,Hearst Avenue,94710,37.8700626,-122.2954544
931,Hearst Avenue,94710,37.8700286,-122.2956300
905,Hearst Avenue,94710,37.8697714,-122.2968379
909,Hearst Avenue,94710,37.8697790,-122.2966588
926,Hearst Avenue,94710,37.8695675,-122.2957033
950,Hearst Avenue,94710,37.8697792,-122.2950152
839,Hearst Avenue,94710,37.8696870,-122.2972916
914,Hearst Avenue,94710,37.8694969,-122.2963378
1030,Hearst Avenue,94710,37.8701246,-122.2931846
1029,Hearst Avenue,94710,37.8704296,-122.2936493
1018,Hearst Avenue,94710,37.8699451,-122.2938964
1025,Hearst Avenue,94710,37.8703450,-122.2939892
1005,Hearst Avenue,94710,37.8702315,-122.2945470
850,Hearst Avenue,94710,37.8692033,-122.2972793
1364,Tomlee Drive,94702,37.8769713,-122.2858782
1826,Hearst Avenue,94710,37.8729919,-122.2741336
1337;1339,Hearst Avenue,94702,37.8715543,-122.2862745
1534,Milvia Street,94709,37.8793983,-122.2717985
2031,Sixth Street,94710,37.8671537,-122.2970657
2228,San Pablo Avenue,94702,37.8653843,-122.2912386
1715,Ward Street,94703,37.8586954,-122.2749328
2742,California Street,94703,37.8575898,-122.2779636
2732,California Street,94703,37.8578600,-122.2780152
2740,California Street,94703,37.8576802,-122.2779887
2734,California Street,94703,37.8577633,-122.2780087
2720,California Street,94703,37.8579467,-122.2780319
1811,Derby Street,94703,37.8597817,-122.2730710
2368,Le Conte Avenue,94709,37.8754876,-122.2628603
2555,Le Conte Avenue,94709,37.8773329,-122.2595285
1718;1720,Le Roy Avenue,94709,37.8775201,-122.2589917
2597;2599,Le Conte Avenue,94709,37.8773274,-122.2589394
2255,Hearst Avenue,94709,37.8745563,-122.2650915
1750,Arch Street,94709,37.8766548,-122.2645742
1700,Le Roy Avenue,94709,37.8777611,-122.2591125
1220,Spruce Street,94709,37.8852731,-122.2667102
1420,La Loma Avenue,94708,37.8824930,-122.2585214
890,Cragmont Avenue,94708,37.8943921,-122.2663556
1060,Keith Avenue,94708,37.8898404,-122.2635885
1058,Keith Avenue,94708,37.8897209,-122.2636315
1058,Keith Avenue,94708,37.8896144,-122.2633723
1810,Bonita Avenue,94709,37.8738529,-122.2724655
2667-2669,Le Conte Avenue,94709,37.8776083,-122.2576477
2663,La Conte,94709,37.8776755,-122.2578391
1922,Walnut Street,94704,37.8724941,-122.2680708
200,Marina Boulevard,94710,37.8691676,-122.3144814
3035,Colby Street,94705,37.8541130,-122.2572997
2631,Durant Avenue,94704,37.8685843,-122.2553420
2121,Center Street,94704,37.8707509,-122.2671923
3100,San Pablo Avenue,94702,37.8502359,-122.2875437
2367,Shattuck Avenue,94704,37.8664719,-122.2670997
2067,University Avenue,94704,37.8723460,-122.2691555
2352,Shattuck Avenue,94704,37.8660091,-122.2680689
2029,Durant Avenue,94704,37.8668330,-122.2688381
1,Tunnel Road,94705,37.8584911,-122.2432289
2210A,Prince Street,94705,37.8530317,-122.2635488
3201,Shattuck Avenue,94705,37.8522762,-122.2657892
2218,Carleton Street,94704,37.8615228,-122.2636802
1404,Fourth Street,94710,37.8769228,-122.3031304
235,University Avenue,94109,37.8642175,-122.3134559
2234,Ninth Street,94710,37.8646451,-122.2935046
2031,6th Street,94710,37.8671278,-122.2970179
1750,Arch Street,94709,37.8765786,-122.2645816
890,Cragmont Avenue,94708,37.8943873,-122.2665978
2740,Telegraph Avenue,94705,37.8599403,-122.2595865
2299,Piedmont Avenue,94720,37.8696951,-122.2514987
2829,Shattuck Avenue,94705,37.8574220,-122.2663215
2927,Newbury Street,94703,37.8556385,-122.2672062
1901,Russell Street,94703,37.8563563,-122.2709931
1901,Russell Street,94703,37.8565045,-122.2709506
1749,Sacramento Street,94703,37.8733445,-122.2817849
2150,Allston Way,94704,37.8693851,-122.2664118
2728,Durant Avenue,94704,37.8682487,-122.2531246
1821,Catalina Avenue,94707,37.8925072,-122.2796045
2001,Dwight Way,94704,37.8636401,-122.2700260
2501,Grizzly Peak Boulevard,94563,37.8957607,-122.2428254
1572,Capistrano Avenue,94707,37.8914012,-122.2852679
1414,Walnut Street,94709,37.8816755,-122.2686597
