House number,Street name,Postal code,Latitude,Longitude
3750,W Empire Avenue,91505,34.1929507,-118.3535050
1011,North San Fernando Boulevard,91504,34.1869185,-118.3187822
1115,North San Fernando Boulevard,91504,34.1882058,-118.3191305
416,N Varney St,91502,34.1797031,-118.3162257
418,N Varney St,91502,34.1798736,-118.3162857
422,N Varney St,91502,34.1800733,-118.3160876
420,N Varney St,91502,34.1802437,-118.3159245
424,N Varney St,91502,34.1799651,-118.3163346
430,N Varney St,91502,34.1801071,-118.3164633
421,N Varney St,91502,34.1794610,-118.3165921
425,N Varney St,91502,34.1798458,-118.3165253
450,N Varney St,91502,34.1803819,-118.3168342
435,N Varney St,91502,34.1801426,-118.3166607
437,N Varney St,91502,34.1802306,-118.3167255
455,N Varney St,91502,34.1804494,-118.3171261
461,N Varney St,91502,34.1806042,-118.3171414
465,N Varney St,91502,34.1807728,-118.3173076
120,W Cypress St,91502,34.1805190,-118.3176220
455,N Moss St,91502,34.1801624,-118.3177761
146 Unit 101,W Cypress Street,91502,34.1800432,-118.3181456
146 Unit 104,W Cypress St,91502,34.1797450,-118.3184288
146 Unit 103,W Cypress St,91502,34.1796314,-118.3182400
150 A,W Cypress St,91502,34.1797237,-118.3181198
150 D,W Cypress St,91502,34.1795249,-118.3180254
150 C,W Cypress St,91502,34.1795959,-118.3180512
150 F,W Cypress St,91502,34.1794397,-118.3179825
150 G,W Cypress St,91502,34.1793616,-118.3179396
150 H,W Cypress St,91502,34.1792906,-118.3179138
150 I,W Cypress St,91502,34.1792267,-118.3178795
154,W Cypress St,91502,34.1791415,-118.3179997
156,W Cypress St,91502,34.1790989,-118.3181542
135,W Magnolia Blvd,91502,34.1791237,-118.3162064
413,N Moss Ave,91502,34.1787467,-118.3170668
417,N Moss Ave,91502,34.1788561,-118.3171004
425,N Moss Ave,91502,34.1790563,-118.3173216
439,N Moss Ave,91502,34.1795110,-118.3175008
437,N Moss Ave,91502,34.1793758,-118.3175619
421,N Moss Ave,91502,34.1790352,-118.3171909
414,N Moss Ave,91502,34.1792054,-118.3167980
417,N Varney St,91502,34.1794965,-118.3164118
441,N Varney St,91502,34.1796385,-118.3175276
1634,North San Fernando Boulevard,91504,34.1919444,-118.3247222
269,E Providencia Ave,91502,34.1784751,-118.3032474
724,Glenoaks Boulevard,91502,34.1785778,-118.2992120
320,East Angeleno Avenue,91502,34.1816086,-118.3058628
438,East Harvard Road,91501,34.1883333,-118.3108333
3323,Victory Boulevard,91505,34.1850055,-118.3475786
347,North Pass Avenue,91505,34.1556488,-118.3469910
2701,West Alameda Avenue,91505,34.1577954,-118.3304240
524,South Flower Street,91502,34.1748278,-118.3073540
2109,West Magnolia Boulevard,91506,34.1733692,-118.3311095
2400,Magnolia Boulevard,91506,34.1720398,-118.3337783
2018,Burbank Boulevard,91506,34.1800138,-118.3336458
265,West Olive Avenue,91502-1825,34.1741334,-118.3163101
101,North Victory Boulevard,91502,34.1735213,-118.3167934
1541,North Victory Place,91506,34.1901763,-118.3270985
2600,West Victory Boulevard,91505,34.1840627,-118.3395852
1711,North Victory Place,91502,34.1914724,-118.3289189
900,North San Fernando Boulevard,91504,34.1865650,-118.3162034
901,North San Fernando Boulevard,91504,34.1862628,-118.3164948
913,North San Fernando Boulevard,91504,34.1866921,-118.3170859
800,North San Fernando Boulevard,91502,34.1858224,-118.3150680
3315,West Magnolia Boulevard,91505,34.1691797,-118.3436380
3413,West Magnolia Boulevard,91505,34.1689253,-118.3443726
3311,West Magnolia Boulevard,91505,34.1692210,-118.3435023
3317,West Magnolia Boulevard,91505,34.1691309,-118.3437560
900,West Burbank Boulevard,91506,34.1838338,-118.3218124
3771,West Magnolia Boulevard,91505,34.1680476,-118.3473140
401,Glenoaks Boulevard,91502,34.1805110,-118.3033226
1516,West Magnolia Boulevard,91506,34.1750073,-118.3251980
3400,West Magnolia Boulevard,91505,34.1686479,-118.3440534
3320,West Magnolia Boulevard,91505,34.1687981,-118.3436521
3614,West Magnolia Boulevard,91505,34.1677640,-118.3465998
4128,West Magnolia Boulevard,91505,34.1673822,-118.3475990
1030,North Hollywood Way,91505,34.1690356,-118.3472918
1038,North Hollywood Way,91505,34.1692617,-118.3473840
1040,North Hollywood Way,91505,34.1694507,-118.3474714
200,3rd Street,91502,34.1833238,-118.3086656
1015,North San Fernando Boulevard,91504,34.1872072,-118.3192011
3520,Burbank Boulevard,91505,34.1747370,-118.3489216
4011,Riverside Drive,91505,34.1520571,-118.3434830
4002,Riverside Drive,91505,34.1517752,-118.3429742
4207,Riverside Drive,91505,34.1525355,-118.3457830
107,South First Street,91502,34.1788003,-118.3094417
329,North Victory Boulevard,91502,34.1766098,-118.3184194
237,E Palm Ave,91502,34.1831092,-118.3105461
697,North Victory Boulevard,91502,34.1804117,-118.3202005
301,North Victory Boulevard,91502,34.1754154,-118.3176962
345,E Verdugo Ave,91502,34.1806895,-118.3041794
4000,Warner Blvd,91522,34.1465112,-118.3400280
4000,Warner Boulevard,91522,34.1464202,-118.3403040
3401,West Magnolia Boulevard,91505,34.1690023,-118.3441618
3407,West Magnolia Boulevard,91505,34.1689460,-118.3442950
3419,West Magnolia Boulevard,91505,34.1688782,-118.3445290
3425,West Magnolia Boulevard,91505,34.1688234,-118.3446810
3435,West Magnolia Boulevard,91505,34.1687432,-118.3449210
3412,West Magnolia Boulevard,91505,34.1685613,-118.3444506
3414,West Magnolia Boulevard,91505,34.1685506,-118.3444862
3416,West Magnolia Boulevard,91505,34.1685240,-118.3445654
3418,West Magnolia Boulevard,91505,34.1685086,-118.3446119
3103,West Magnolia Boulevard,91505,34.1700223,-118.3412550
2900,West Magnolia Boulevard,91503,34.1703025,-118.3389488
1010,West Alameda Avenue,91506,34.1628831,-118.3132210
2101,Empire Avenue,91504,34.1920188,-118.3333572
201,Magnolia Boulevard,91502,34.1836616,-118.3121443
4021,W Alameda Ave,91505,34.1530943,-118.3442786
4005,Riverside Drive,91505,34.1520579,-118.3432069
4006,Riverside Drive,91505,34.1517346,-118.3431510
916,Burbank Boulevard,91506,34.1836691,-118.3222711
1220,Burbank Boulevard,91506,34.1826945,-118.3256267
2714,Burbank Boulevard,91505,34.1777190,-118.3406264
3900,Riverside Drive,91505,34.1520650,-118.3418870
3913,Riverside Drive,91505,34.1522582,-118.3424944
4017,Riverside Drive,91505,34.1520758,-118.3437657
1100,Victory Boulevard,91506,34.1835265,-118.3244861
1126,Burbank Boulevard,91506,34.1828898,-118.3251302
2500,Burbank Boulevard,91505-2301,34.1784073,-118.3381360
2523,Burbank Boulevard,91505,34.1786564,-118.3392083
3523,Burbank Boulevard,91505-2236,34.1754951,-118.3489753
3400,Warner Boulevard,91505,34.1523107,-118.3367614
4013,Riverside Drive,91505,34.1520634,-118.3436041
761,North San Fernando Boulevard,91502,34.1849835,-118.3151240
916,Burbank Boulevard,91506,34.1836254,-118.3225640
1630,Wilson Avenue,91504,34.1926683,-118.3311252
2019,W Parkside Avenue,91506,34.1578424,-118.3225782
300,North San Fernando Boulevard,91502,34.1825305,-118.3107376
316,North San Fernando Boulevard,91502,34.1828222,-118.3111650
340,North San Fernando Boulevard,91502,34.1830164,-118.3114350
201,East Magnolia Boulevard,91502,34.1833026,-118.3117287
325,North San Fernando Boulevard,91502,34.1825485,-118.3112729
349,North San Fernando Boulevard,91502,34.1828100,-118.3116335
116,East Palm Avenue,91502,34.1814998,-118.3113850
135,East Palm Avenue,91502,34.1819408,-118.3113691
114,North San Fernando Boulevard,91502,34.1811332,-118.3088605
119,North San Fernando Boulevard,91502,34.1810649,-118.3092340
130,North San Fernando Boulevard,91502,34.1814004,-118.3092202
164,Palm Avenue,91502,34.1819269,-118.3104171
164,East Palm Avenue,91502,34.1818399,-118.3105190
164,East Palm Avenue,91502,34.1820900,-118.3106930
150,South San Fernando Boulevard,91502,34.1803926,-118.3077720
130,South San Fernando Boulevard,91502,34.1805335,-118.3079293
150,South San Fernando Boulevard,91502,34.1806488,-118.3081318
116,South San Fernando Boulevard,91502,34.1807321,-118.3082870
114,South San Fernando Boulevard,91502,34.1807676,-118.3083290
216,East Olive Avenue,91502,34.1810849,-118.3082458
214,East Olive Avenue,91502,34.1810371,-118.3082950
100,South San Fernando Boulevard,91502,34.1808665,-118.3084682
3915,Riverside Drive,91505,34.1522248,-118.3425895
4007,Riverside Drive,91505,34.1520450,-118.3433177
4007,Riverside Drive,91505,34.1520505,-118.3432659
4001,Riverside Drive,91505,34.1520822,-118.3430790
113,East Alameda Avenue,91502,34.1745355,-118.3007048
101,East Alameda Avenue,91502,34.1742010,-118.3006480
103,East Alameda Avenue,91502,34.1743802,-118.3004520
1501,North Victory Place,91502,34.1885144,-118.3277359
1100,San Fernando Boulevard,91504,34.1886955,-118.3179979
3500,W Olive Ave,91505,34.1525465,-118.3379417
3723,West Magnolia Boulevard,91505,34.1678154,-118.3477795
3711,West Magnolia Boulevard,91505,34.1678812,-118.3475716
3715,West Magnolia Boulevard,91505,34.1678477,-118.3476887
3727,West Magnolia Boulevard,91505,34.1677716,-118.3479528
3503,West Magnolia Boulevard,91505,34.1686446,-118.3452154
3501,West Magnolia Boulevard,91505,34.1686618,-118.3451591
3303,West Magnolia Boulevard,91505,34.1694856,-118.3433708
3301,West Magnolia Boulevard,91505,34.1695175,-118.3432599
3210,West Magnolia Boulevard,91505,34.1692450,-118.3423291
3204,West Magnolia Boulevard,91505,34.1693266,-118.3420284
242 1/2,West Cedar Avenue,91502,34.1700694,-118.3096396
242 1/2,Cedar Avenue,91502,34.1758556,-118.3043751
3325,North Glenoaks Boulevard,91504,34.2061217,-118.3412604
4001,W Alameda Ave,91505,34.1532509,-118.3437858
700,South Flower Street,91502,34.1732727,-118.3053190
1781,Victory Place,91504,34.1912385,-118.3295440
1728,West Verdugo Avenue,91506,34.1672145,-118.3238617
1730,West Verdugo Avenue,91506,34.1671523,-118.3238228
4301,West Magnolia Boulevard,91505,34.1660017,-118.3533140
1033,North Hollywood Way,91505-2540,34.1688440,-118.3479300
770,North First Street,91502,34.1848094,-118.3153197
100,South Glenoaks Boulevard,91502,34.1832017,-118.3057940
1551,North Victory Place,91502-1647,34.1887587,-118.3283729
1601,Victory Place,91502,34.1889386,-118.3288140
1651,Victory Place,91502,34.1891101,-118.3292856
1701,Victory Place,91504,34.1892564,-118.3296210
3401,West Olive Avenue,91505,34.1541437,-118.3372797
2575,North Hollywood Way,91505,34.1950849,-118.3502810
1105,Riverside Drive,91506,34.1596203,-118.3130790
1009,West Alameda Avenue,91506,34.1638210,-118.3131885
1150,West Alameda Avenue,91506,34.1626441,-118.3139900
1190,Alameda Avenue,91506,34.1624720,-118.3145937
2922,West Magnolia Boulevard,91505,34.1701060,-118.3396341
687,North Victory Boulevard,91502,34.1800597,-118.3213364
900,West Alameda Avenue,91506,34.1632011,-118.3118520
3818,Burbank Boulevard,91515,34.1739242,-118.3520304
2128,Glenoaks Boulevard,91502,34.1985240,-118.3265515
3525,West Victory Boulevard,91505,34.1850581,-118.3497889
2000,North Hollywood Way,91505-1520,34.1850869,-118.3488474
2015,North Hollywood Way,91505,34.1855258,-118.3496131
2017,North Hollywood Way,91505,34.1855191,-118.3495299
2011,Hollywood Way,91505,34.1853239,-118.3497552
1333,Hollywood Way,91505,34.1741981,-118.3495568
1311,North Hollywood Way,91505,34.1736567,-118.3495943
1107,South Flower Street,91502,34.1700181,-118.3014210
1737,North Victory Place,91502,34.1911540,-118.3288599
1827,West Verdugo Avenue,91506,34.1674582,-118.3251808
137,North Victory Boulevard,91502,34.1746097,-118.3172486
3812,West Magnolia Boulevard,91505,34.1671616,-118.3485399
1529,North San Fernando Boulevard,91501,34.1912727,-118.3234586
940,North Lima Street,91505,34.1685708,-118.3436850
200,North San Fernando Boulevard,91502,34.1818449,-118.3097709
326,North Victory Boulevard,91502,34.1767427,-118.3178116
509,Glenoaks Boulevard,91502,34.1800190,-118.3022430
1723,Victory Place,91502,34.1909276,-118.3290177
100,North First Street,91502,34.1800604,-118.3101824
120,East Olive Avenue,91502,34.1798905,-118.3095063
218,E Orange Grove Ave,91502,34.1818852,-118.3092546
372,East Olive Avenue,91502,34.1829599,-118.3062246
102,Magnolia Boulevard,91502,34.1818887,-118.3125270
303,Glenoaks Boulevard,91502,34.1813808,-118.3041220
142,East Olive Avenue,91502,34.1801116,-118.3091949
211,East Olive Avenue,91502,34.1811573,-118.3087124
118,North San Fernando Boulevard,91502,34.1811877,-118.3089263
3401,Empire Avenue,91504,34.1929140,-118.3482679
108,North San Fernando Boulevard,91502,34.1811208,-118.3088306
1028,South San Fernando Boulevard,91502,34.1744661,-118.2986880
1200,South Chavez Street,91506,34.1632359,-118.3085334
1311,South Victory Boulevard,91502,34.1641846,-118.3049753
3413,W Pacific Avenue,91505,34.1888183,-118.3484370
435,Glenoaks Boulevard,91502,34.1858085,-118.3101266
433,Glenoaks Boulevard,91502,34.1856516,-118.3099933
3116,West Magnolia Boulevard,91505,34.1702302,-118.3394399
3606,West Magnolia Boulevard,91505,34.1679508,-118.3461492
3508,West Magnolia Boulevard,91505,34.1682802,-118.3452876
2514,West Magnolia Boulevard,91505,34.1716194,-118.3352506
2320,West Magnolia Boulevard,91506,34.1722189,-118.3335177
2306,West Magnolia Boulevard,91506,34.1724157,-118.3329424
2214,West Magnolia Boulevard,91506,34.1726537,-118.3322167
2206,West Magnolia Boulevard,91506,34.1727554,-118.3319016
2120,West Magnolia Boulevard,91506,34.1727932,-118.3313498
2120,West Magnolia Boulevard,91506,34.1728879,-118.3314744
2110,West Magnolia Boulevard,91506,34.1730506,-118.3310408
2022,West Magnolia Boulevard,91506,34.1732482,-118.3304452
2019,West Magnolia Boulevard,91506,34.1735803,-118.3304289
1723,West Magnolia Boulevard,91506,34.1745667,-118.3275445
1707,West Magnolia Boulevard,91506,34.1747172,-118.3270261
1701,West Magnolia Boulevard,91506,34.1748216,-118.3268646
1614,West Magnolia Boulevard,91506,34.1746900,-118.3261199
334,North Victory Boulevard,91502,34.1769813,-118.3179615
335,North Victory Boulevard,91502,34.1769014,-118.3183233
405,North Victory Boulevard,91502,34.1776237,-118.3189597
403,North Victory Boulevard,91502,34.1775883,-118.3189375
1800,West Magnolia Boulevard,91506,34.1739590,-118.3281400
2905,North Glenoaks Boulevard,91504,34.2036658,-118.3360142
334,South Glenoaks Boulevard,91502,34.1813941,-118.3035216
222,Glenoaks Boulevard,91502,34.1822564,-118.3046456
904,Glenoaks Boulevard,91502,34.1774687,-118.2980000
2517,Victory Boulevard,91505,34.1848344,-118.3392840
1001,North San Fernando Boulevard,91504,34.1870969,-118.3176251
1001,North San Fernando Boulevard,91504,34.1870349,-118.3177837
1001,North San Fernando Boulevard,91504,34.1869814,-118.3178649
1050,North San Fernando Boulevard,91504,34.1869310,-118.3179106
822,South San Fernando Boulevard,91502,34.1754999,-118.3010464
1514,North San Fernando Boulevard,91504,34.1911014,-118.3232033
221,3rd Street,91502,34.1830185,-118.3090664
1511,North San Fernando Boulevard,91504,34.1909701,-118.3230248
910,North San Fernando Boulevard,91504,34.1867180,-118.3163797
1121,San Fernando Boulevard,91504,34.1881369,-118.3194032
444,Glenoaks Boulevard,91502,34.1806858,-118.3023520
520,Glenoaks Boulevard,91502,34.1801707,-118.3017790
500,Glenoaks Boulevard,91502,34.1804855,-118.3019265
600,Glenoaks Boulevard,91502,34.1796504,-118.3009026
449,Glenoaks Boulevard,91502,34.1803342,-118.3025836
530,Glenoaks Boulevard,91502,34.1800695,-118.3015613
250,North First Street,91502,34.1811829,-118.3117552
250,East Olive Avenue,91502,34.1815973,-118.3076987
417,Irving Drive,91504,34.1997502,-118.3278898
321,North San Fernando Boulevard,91502,34.1824985,-118.3112012
313,North San Fernando Boulevard,91502,34.1824672,-118.3111538
101,East Alameda Avenue,91502,34.1740190,-118.3008980
1823,West Verdugo Avenue,91506,34.1673395,-118.3251540
407,North Victory Boulevard,91502,34.1776629,-118.3189801
1601,West Verdugo Avenue,91506,34.1684864,-118.3225780
509,North Hollywood Way,91505,34.1599943,-118.3433973
3800,West Verdugo Avenue,91505,34.1603177,-118.3450389
513,North Hollywood Way,91505,34.1598302,-118.3440029
521,North Hollywood Way,91505,34.1597484,-118.3442990
227,East Palm Avenue,91502,34.1829243,-118.3103174
201,Magnolia Boulevard,91502,34.1830641,-118.3120474
311,East Orange Grove Avenue,91502,34.1833554,-118.3083868
151,Glenoaks Boulevard,91502,34.1824211,-118.3054753
130,Glenoaks Boulevard,91502,34.1828989,-118.3056159
321,East Alameda Avenue,91502,34.1764594,-118.2983010
321,East Alameda Avenue,91502,34.1765556,-118.2982030
120,East Alameda Avenue,91502,34.1733637,-118.3003512
926,South San Fernando Boulevard,91502,34.1746478,-118.2998777
344,South Glenoaks Boulevard,91502,34.1813496,-118.3034685
346,South Glenoaks Boulevard,91502,34.1813018,-118.3034040
348,South Glenoaks Boulevard,91502,34.1812769,-118.3033636
350,South Glenoaks Boulevard,91502,34.1812343,-118.3032740
453,Glenoaks Boulevard,91502,34.1802804,-118.3025419
401,South Glenoaks Boulevard,91502,34.1803903,-118.3034247
2407,West Victory Boulevard,91506,34.1848362,-118.3375197
730,North Victory Boulevard,91502,34.1815263,-118.3201362
404,South Glenoaks Boulevard,91502,34.1809906,-118.3029485
4005,Riverside Drive,91505,34.1520641,-118.3431645
1701,West Verdugo Avenue,91506,34.1679528,-118.3235018
3517,Burbank Boulevard,91505,34.1753799,-118.3487420
137,South Glenoaks Boulevard,91502,34.1825905,-118.3057067
149,South Glenoaks Boulevard,91502,34.1824539,-118.3055032
145,South Glenoaks Boulevard,91502,34.1824908,-118.3055628
406,South Glenoaks Boulevard,91502,34.1809476,-118.3028924
400,South Glenoaks Boulevard,91502,34.1810503,-118.3030391
4310,Riverside Drive,91505,34.1518439,-118.3467408
4314,Riverside Drive,91505,34.1518451,-118.3469660
4301,Riverside Drive,91505,34.1524154,-118.3467730
150,Glenoaks Boulevard,91502,34.1826845,-118.3052550
401,North Glenoaks Boulevard,91502,34.1852620,-118.3096144
360,Magnolia Boulevard,91502,34.1850390,-118.3092778
345,East Angeleno Avenue,91502,34.1819463,-118.3055470
144,South Glenoaks Boulevard,91502,34.1827385,-118.3053076
356,East Olive Avenue,91502,34.1826522,-118.3065350
360,East Olive Avenue,91502,34.1828026,-118.3064100
345,East Orange Grove Avenue,91502,34.1834103,-118.3075432
132,South Glenoaks Boulevard,91502,34.1828704,-118.3055729
3122,Burbank Boulevard,91505,34.1761940,-118.3449889
1317,N San Fernando Boulevard,91504,34.1895554,-118.3208426
1319,North San Fernando Boulevard,91504,34.1896191,-118.3209323
1323,N San Fernando Boulevard,91504,34.1896823,-118.3210217
551,South Glenoaks Boulevard,91502,34.1796992,-118.3017853
445,South Glenoaks Boulevard,91502,34.1804089,-118.3027073
447,South Glenoaks Boulevard,91502,34.1803843,-118.3026473
533,South Glenoaks Boulevard,91502,34.1796957,-118.3019749
533,South Glenoaks Boulevard,91502,34.1797071,-118.3020851
401,South Glenoaks Boulevard,91502,34.1806620,-118.3031554
401,South Glenoaks Boulevard,91502,34.1806110,-118.3032174
401,South Glenoaks Boulevard,91502,34.1804721,-118.3033651
401,South Glenoaks Boulevard,91502,34.1804252,-118.3034004
3000,West Empire Avenue,91504,34.1803883,-118.3034633
401,South Glenoaks Boulevard,91502,34.1804180,-118.3034968
401,South Glenoaks Boulevard,91502,34.1804943,-118.3035826
401,South Glenoaks Boulevard,91502,34.1804768,-118.3035588
401,South Glenoaks Boulevard,91502,34.1805431,-118.3032549
401,South Glenoaks Boulevard,91502,34.1805954,-118.3031969
701,South Glenoaks Boulevard,91502,34.1786335,-118.3003927
516,South Glenoaks Boulevard,91502,34.1802586,-118.3016945
1720,West Magnolia Boulevard,91506,34.1742116,-118.3273421
409,North Victory Boulevard,91502,34.1778369,-118.3189967
409,North Victory Boulevard,91502,34.1778679,-118.3188443
503,North Victory Boulevard,91502,34.1782732,-118.3190668
245,East Olive Avenue,91502,34.1816527,-118.3081967
245,East Olive Avenue,91502,34.1816311,-118.3081989
1627,North San Fernando Boulevard,91504,34.1913106,-118.3246941
928,North San Fernando Boulevard,91504,34.1871596,-118.3168986
1617,North San Fernando Boulevard,91504,34.1914100,-118.3243437
1509,North San Fernando Boulevard,91504,34.1908877,-118.3227472
1303,North San Fernando Boulevard,91504,34.1892289,-118.3204066
201,Magnolia Boulevard,91502,34.1840097,-118.3116558
928,North San Fernando Boulevard,91502,34.1873392,-118.3166995
546,South San Fernando Boulevard,91501,34.1778379,-118.3039398
116,East Alameda Avenue,91502,34.1732742,-118.3004297
400,North Glenoaks Boulevard,91502,34.1855963,-118.3092344
312,Glenoaks Boulevard,91502,34.1851495,-118.3085265
536,North Glenoaks Boulevard,91502,34.1866827,-118.3107420
416,North Glenoaks Boulevard,91502,34.1857371,-118.3094471
418,North Glenoaks Boulevard,91502,34.1857656,-118.3095059
420,North Glenoaks Boulevard,91502,34.1859320,-118.3094236
422,North Glenoaks Boulevard,91502,34.1860505,-118.3095606
440,North Glenoaks Boulevard,91502,34.1860070,-118.3097922
539,North Glenoaks Boulevard,91502,34.1863609,-118.3112364
539,North Glenoaks Boulevard,91502,34.1863960,-118.3109781
539,North Glenoaks Boulevard,91502,34.1863029,-118.3111613
525,North Glenoaks Boulevard,91502,34.1862572,-118.3107428
521,North Glenoaks Boulevard,91502,34.1861938,-118.3106478
519,North Glenoaks Boulevard,91502,34.1861403,-118.3105968
517,North Glenoaks Boulevard,91502,34.1861013,-118.3105398
511,North Glenoaks Boulevard,91502,34.1860620,-118.3104689
501,North Glenoaks Boulevard,91502,34.1860239,-118.3104118
357,Magnolia Boulevard,91502,34.1850675,-118.3097926
411,East Palm Avenue,91501,34.1849955,-118.3081763
2801,North Glenoaks Boulevard,91504,34.2031747,-118.3348646
225,South Glenoaks Boulevard,91502,34.1820023,-118.3049608
1419,West Verdugo Avenue,91506,34.1693751,-118.3213347
1420,West Olive Avenue,91506,34.1689549,-118.3208462
503,East Tujunga Avenue,91501,34.1832259,-118.3030752
1421,West Verdugo Avenue,91506,34.1694466,-118.3213638
1431,West Verdugo Avenue,91506,34.1694649,-118.3214158
117,North Victory Boulevard,91502,34.1741556,-118.3170499
1201,South Victory Boulevard,91502,34.1651638,-118.3061748
443,South Glenoaks Boulevard,91506,34.1804464,-118.3027757
117,North San Fernando Boulevard,91502,34.1808934,-118.3092600
100,East Tujunga Avenue,91502,34.1782523,-118.3076251
851,North San Fernando Boulevard,91502,34.1857116,-118.3159694
204,North Orchard Drive,91506,34.1678756,-118.3243233
1725,West Verdugo Avenue,91506,34.1676905,-118.3242137
1723,West Verdugo Avenue,91506,34.1677047,-118.3241178
1719,West Verdugo Avenue,91506,34.1677373,-118.3240245
1715,West Verdugo Avenue,91506,34.1677743,-118.3239103
1713,West Verdugo Avenue,91506,34.1677894,-118.3238579
1720,West Verdugo Avenue,91506,34.1674227,-118.3239545
1821,W Olive Ave,91506,34.1662430,-118.3245865
1723,West Verdugo Avenue,91506,34.1673644,-118.3239226
1724,West Verdugo Avenue,91506,34.1673160,-118.3238989
1726,West Verdugo Avenue,91506,34.1672666,-118.3238898
1900,W Olive Ave,91506,34.1654422,-118.3247041
1611,West Verdugo Avenue,91506,34.1684506,-118.3227607
261,West Olive Avenue,91502,34.1742483,-118.3162299
1130,West Olive Avenue,91506,34.1710084,-118.3188558
531,North Hollywood Way,91505,34.1596428,-118.3446901
924,South San Fernando Boulevard,91502,34.1746684,-118.2999323
353,North Pass Avenue,91505,34.1558989,-118.3463318
3013,North Hollywood Way,91505,34.2036002,-118.3491592
1739,North Victory Place,91502,34.1911008,-118.3287896
3083,North Lima Street,91504,34.2059981,-118.3468726
2320,Victory Boulevard,91506,34.1844073,-118.3369977
1212,North San Fernando Boulevard,91504,34.1893933,-118.3197119
10950,Sherman Way,91505,34.2006423,-118.3687637
3000,West Empire Avenue,91504,34.1914827,-118.3430340
912,North San Fernando Boulevard,91504,34.1867602,-118.3164047
1212,North San Fernando Boulevard,91504,34.1892744,-118.3195592
2211,West Olive Avenue,91506,34.1631571,-118.3276954
1710,West Magnolia Boulevard,91506,34.1743839,-118.3269699
2106,West Magnolia Boulevard,91506,34.1730943,-118.3308669
2600,North Glenoaks Boulevard,91504,34.2022333,-118.3325065
321,Magnolia Boulevard,91502,34.1846481,-118.3104655
322,North Pass Avenue,91505,34.1558859,-118.3455038
207,West Alameda Avenue,91502,34.1689466,-118.3062501
3408,Burbank Blvd,91505,34.1753506,-118.3476179
2600,West Olive Avenue,91505,34.1597353,-118.3304074
1518,West Magnolia Boulevard,91506,34.1749430,-118.3252206
4500,Lakeside Drive,91505,34.1445193,-118.3507996
1249,Lockheed View Drive,91501,34.2065267,-118.3102089
228,Burbank Boulevard,91502,34.1867187,-118.3144968
111,Magnolia Boulevard,91502,34.1825831,-118.3131648
245,East Magnolia Boulevard,91502,34.1843073,-118.3113149
201,Magnolia Boulevard,91502,34.1834478,-118.3121981
1100,North San Fernando Boulevard,91504,34.1890499,-118.3182813
1200,North San Fernando Boulevard,91504,34.1889099,-118.3192983
1300,North San Fernando Boulevard,91504,34.1896287,-118.3202122
1310,North San Fernando Boulevard,91504,34.1897260,-118.3204458
1320,North San Fernando Road,91504,34.1900877,-118.3206356
249,Amherst Drive,91504,34.1921947,-118.3208516
1515,North Glenoaks Boulevard,91504,34.1932241,-118.3208052
801,North San Fernando Boulevard,91502,34.1854631,-118.3155865
761,First Street,91502,34.1849762,-118.3160926
610,North First Street,91502,34.1838658,-118.3149680
521,North First Street,91502,34.1827868,-118.3146868
200,North Third Street,91502,34.1834766,-118.3084697
110,North Glenoaks Boulevard,91502,34.1839150,-118.3064904
1051,Burbank Boulevard,91506,34.1860134,-118.3243367
901,North San Fernando Boulevard,91504,34.1862185,-118.3166969
4100,Riverside Drive,91505,34.1516611,-118.3441460
300,North Buena Vista Street,91505,34.1640893,-118.3303234
300,North Buena Vista Street,91505,34.1641363,-118.3303549
303,North Glenoaks Boulevard,91502,34.1842447,-118.3091895
1800,West Magnolia Boulevard,91506,34.1738494,-118.3281502
720,East Cypress Avenue,91501,34.1903289,-118.3065656
3800,West Alameda Avenue,91505,34.1530069,-118.3415543
3601,West Olive Avenue,91505,34.1525258,-118.3391702
3300,West Olive Avenue,91505,34.1542277,-118.3360255
3400,West Olive Avenue,91505,34.1535210,-118.3362530
201,South Buena Vista Street,91505,34.1585254,-118.3286686
511,South Buena Vista Street,91505,34.1543986,-118.3268466
3400,West Olive Avenue,91505,34.1524644,-118.3378915
3300,Riverside Drive,91505,34.1520134,-118.3354000
1911,W Olive Ave,91506,34.1657453,-118.3251998
4000,Warner Boulevard,91522,34.1488173,-118.3376774
2600,West Olive Avenue,91505,34.1595742,-118.3302661
1615,West Verdugo Avenue,91506,34.1682298,-118.3230604
1611,West Olive Avenue,91506-2431,34.1676952,-118.3230784
4540,Valerio Street,91505,34.2043637,-118.3617424
1111,West Olive Avenue,91506,34.1715924,-118.3198807
1110,West Alameda Ave,91506,34.1613051,-118.3136320
250,East Olive Avenue,91502,34.1815790,-118.3074954
1500,East Walnut Avenue,91501,34.2070055,-118.3020368
2900,West Alameda Avenue,91505,34.1564584,-118.3312250
125,East Palm Avenue,91502,34.1819195,-118.3120039
133,N 5th St,91501,34.1847268,-118.3061306
164,East Palm Avenue,91502,34.1819754,-118.3106009
221,San Fernando Boulevard,91501,34.1817182,-118.3102951
221,San Fernando Boulevard,91501,34.1815693,-118.3101075
108,East Palm Avenue,91502,34.1814172,-118.3111871
240,Glenoaks Boulevard,91502,34.1845868,-118.3077704
3020,West Empire Avenue,91504,34.1915338,-118.3440760
2500,North Hollywood Way,91505,34.1940078,-118.3480446
275,Olive Avenue,91502,34.1820351,-118.3080847
1500,East Walnut Avenue,91501,34.2066432,-118.3046510
3349,Durham Court,91504,34.2142081,-118.3341941
3313,Durham Court,91504,34.2144970,-118.3342708
3339,Durham Court,91504,34.2142882,-118.3339382
3319,Clifden Lane,91504,34.2148022,-118.3341365
3339,Durham Court,91504,34.2144141,-118.3337210
3335,Durham Court,91504,34.2145277,-118.3334306
3323,Clifden Lane,91504,34.2151099,-118.3340995
3318,Durham Court,91504,34.2147842,-118.3321102
333,Andover Drive,91504,34.1938021,-118.3219558
235,Ikea Way,91502,34.1781773,-118.3087604
107,First Street,91502,34.1788008,-118.3094573
101,First Street,91502,34.1792217,-118.3099124
2800,Empire Avenue,91504,34.1911648,-118.3410142
1215,North San Fernando Boulevard,91504,34.1888839,-118.3201490
1120,Scott Road,91504,34.1878490,-118.3199714
1211,North San Fernando Boulevard,91504,34.1886987,-118.3200030
1127,North San Fernando Boulevard,91504,34.1885572,-118.3197203
1221,North San Fernando Boulevard,91504,34.1890303,-118.3203298
906,West Alameda Avenue,91506,34.1635160,-118.3118030
2300,Riverside Drive,91505,34.1548664,-118.3244495
3901,West Magnolia Boulevard,91505,34.1674005,-118.3493250
2300,Walnut Avenue,91501,34.2138950,-118.3069307
3530,West Victory Boulevard,91505,34.1844975,-118.3501333
3301,North Glenoaks Boulevard,91504,34.2057887,-118.3402745
2980,San Fernando Boulevard,91504,34.2017842,-118.3414145
2980,San Fernando Boulevard,91504,34.2021456,-118.3419424
3227,Glenoaks Boulevard,91504-2009,34.2053150,-118.3395814
3901,Riverside Drive,91505,34.1524434,-118.3422336
4300,Riverside Drive,91505,34.1520158,-118.3465737
4211,Riverside Drive,91505,34.1524853,-118.3460862
4000,Riverside Drive,91505,34.1526416,-118.3437584
3919,Riverside Drive,91505,34.1522852,-118.3427945
301,North Pass Avenue,91505,34.1547937,-118.3465562
322,North Pass Avenue,91505,34.1558636,-118.3455001
4000,Riverside Drive,91505,34.1516842,-118.3428592
4012,Riverside Drive,91505,34.1516176,-118.3433589
3910,Riverside Drive,91505,34.1518553,-118.3422843
3817,Olive Avenue,91505,34.1507612,-118.3409034
3520,West Valhalla Drive,91505,34.1897601,-118.3505543
2311,North Hollywood Way,91505,34.1906725,-118.3503300
2033,North Rose Street,91505,34.1862288,-118.3567723
3160,North Damon Way,91505,34.2066398,-118.3612015
2565,Hollywood Way,91505-1018,34.1946406,-118.3492543
10970,Sherman Way,91505,34.2009051,-118.3695849
10960,Sherman Way,91505,34.2005922,-118.3699790
10750,Sherman Way,91505,34.2006052,-118.3644062
10950,Sherman Way,91505,34.2005200,-118.3681011
3325,North Glenoaks Boulevard,91504,34.2061545,-118.3416477
150,East Angeleno Avenue,91502,34.1791332,-118.3080117
1625,North Valley Street,91505,34.1785181,-118.3582211
3400,Warner Boulevard,91505,34.1510376,-118.3359285
2025,West Magnolia Boulevard,91605,34.1735682,-118.3305993
1901,W Burbank Boulevard,91506,34.1811278,-118.3318208
1304,Burbank Boulevard,91506,34.1825238,-118.3260590
422,East Tujunga Avenue,91501,34.1818412,-118.3036060
420,East Tujunga Avenue,91501,34.1819418,-118.3037480
401,Glenoaks Boulevard,91502,34.1804441,-118.3033224
431,East Verdugo Avenue,91501,34.1816691,-118.3031209
426,East Tujunga Avenue,91501,34.1819238,-118.3035190
322,East Verdugo Avenue,91501,34.1815006,-118.3031709
324,Glenoaks Boulevard,91501,34.1816891,-118.3036719
416,East Verdugo Avenue,91501,34.1811286,-118.3027958
349,South Glenoaks Boulevard,91502,34.1810287,-118.3038482
311,South 5th Street,91501,34.1825740,-118.3028689
434,East Tujunga Avenue,91501,34.1820625,-118.3034074
512,East Tujunga Avenue,91501,34.1830139,-118.3025940
480,Verdugo Avenue,91501,34.1819481,-118.3018996
468,Verdugo Avenue,91501,34.1817927,-118.3019458
458,East Verdugo Avenue,91501,34.1817049,-118.3020682
501,East Verdugo Avenue,91501,34.1824845,-118.3021847
473,East Verdugo Avenue,91501,34.1822284,-118.3024015
322,South 5th Street,91501,34.1827213,-118.3024769
434,East Verdugo Avenue,91501,34.1813072,-118.3024228
520,East Tujunga Avenue,91501,34.1830073,-118.3024009
"467,469",East Verdugo Avenue,91501,34.1821366,-118.3024942
316,South 5th Street,91501,34.1828008,-118.3025492
317,South 5th Street,91501,34.1823980,-118.3025794
416,South Glenoaks Boulevard,91502,34.1810212,-118.3026048
508,East Tujunga Avenue,91501,34.1829573,-118.3026806
430,East Verdugo Avenue,91501,34.1811873,-118.3025705
504,East Tujunga Avenue,91501,34.1828657,-118.3027365
550,Glenoaks Boulevard,91502,34.1799183,-118.3013025
555,Glenoaks Boulevard,91501,34.1795740,-118.3016285
505,South Sixth Street,91501,34.1823744,-118.2998043
544,East Tujunga Avenue,91501,34.1833265,-118.3020812
509,North Victory Boulevard,91502,34.1784059,-118.3192035
500,North Victory Boulevard,91502,34.1784134,-118.3184702
510,North Victory Boulevard,91502,34.1786551,-118.3185886
1201,West Magnolia Boulevard,91506,34.1765163,-118.3217674
810,Lake Street,91502,34.1829365,-118.3195185
545,North Victory Boulevard,91502,34.1793341,-118.3196689
171,West Magnolia Boulevard,91502,34.1781987,-118.3172737
205,West Magnolia Boulevard,91502,34.1781865,-118.3177449
173,West Magnolia Boulevard,91502,34.1783744,-118.3175625
1124,West Magnolia Boulevard,91506,34.1762493,-118.3212328
1206,West Magnolia Boulevard,91506,34.1760552,-118.3218153
110,West Magnolia Boulevard,91502,34.1780209,-118.3155402
164,West Magnolia Boulevard,91502,34.1778284,-118.3167055
200,West Magnolia Boulevard,91502,34.1774974,-118.3174145
604,Verdugo Avenue,91501,34.1832968,-118.3003492
610,Verdugo Avenue,91501,34.1834516,-118.3001924
703,Magnolia Boulevard,91501,34.1892238,-118.3056680
156,W Verdugo Ave,91502,34.1737901,-118.3104092
512,South Verdugo Drive,91502,34.1702447,-118.3122714
3301,Burbank Boulevard,91505,34.1763593,-118.3460730
3321,Burbank Boulevard,91505,34.1761480,-118.3467078
3305,Burbank Boulevard,91505,34.1762536,-118.3462465
3303,Burbank Boulevard,91505,34.1763213,-118.3461889
1017,East San Jose Avenue,91501,34.1937416,-118.3027992
1019,East San Jose Avenue,91501,34.1936526,-118.3026081
1520,West Olive Avenue,91506,34.1680067,-118.3219568
1600,West Olive Avenue,91506,34.1677146,-118.3222330
1700,West Olive Avenue,91506,34.1668058,-118.3230004
1701,West Verdugo Avenue,91506-2433,34.1673775,-118.3234562
1721,West Olive Avenue,91506,34.1670931,-118.3237215
1112,North Hollywood Way,91505,34.1702615,-118.3477436
3221,West Magnolia Boulevard,91505,34.1696814,-118.3425779
3117,West Magnolia Boulevard,91505,34.1699100,-118.3418688
2130,North Glenoaks Boulevard,91504,34.1986657,-118.3270734
3302,Burbank Boulevard,91505,34.1757668,-118.3463757
3304,Burbank Boulevard,91505,34.1757412,-118.3464563
3306,Burbank Boulevard,91505,34.1757209,-118.3465312
3608 and 3610,Burbank Boulevard,91505,34.1756130,-118.3466562
3218 and 3220,Burbank Boulevard,91505,34.1758448,-118.3459175
3216,Burbank Boulevard,91505,34.1759047,-118.3458000
3300,Burbank Boulevard,91505,34.1758087,-118.3462908
1401,North Buena Vista Street,91505,34.1811184,-118.3387953
1419,North San Fernando Boulevard,91504,34.1905455,-118.3224616
1505,North San Fernando Boulevard,91504,34.1908205,-118.3226555
1520,North San Fernando Boulevard,91504,34.1914647,-118.3228896
1311,North Buena Vista Street,91505,34.1798422,-118.3388449
1329,North Buena Vista Street,91505,34.1805293,-118.3387807
1333,North Buena Vista Street,91505,34.1806664,-118.3387776
1301,North Buena Vista Street,91505,34.1794283,-118.3387515
1305,North Buena Vista Street,91505,34.1795655,-118.3388327
1325,North Buena Vista Street,91505,34.1803934,-118.3387857
1321,North Buena Vista Street,91505,34.1802540,-118.3387871
1319,North Buena Vista Street,91505,34.1801153,-118.3388393
1315,North Buena Vista Street,91505,34.1799792,-118.3387928
1623,North San Fernando Boulevard,91504,34.1913308,-118.3246040
1309,North Buena Vista Street,91505,34.1797061,-118.3388479
1655,North San Fernando Boulevard,91504,34.1914430,-118.3251829
1405,North San Fernando Boulevard,91504,34.1902288,-118.3219614
1420,North San Fernando Boulevard,91504,34.1909689,-118.3221151
911,North San Fernando Boulevard,91504,34.1866802,-118.3169862
1337,North Buena Vista Street,91505,34.1807978,-118.3387747
2525,Burbank Boulevard,91505,34.1786265,-118.3393501
1222,North Frederic Street,91505,34.1789842,-118.3393882
2510,Burbank Boulevard,91505,34.1788584,-118.3386047
2517,Burbank Boulevard,91505,34.1787064,-118.3390147
2527,Burbank Boulevard,91505,34.1785921,-118.3394757
1304,North Buena Vista Street,91505,34.1795582,-118.3380801
1308,North Buena Vista Street,91505,34.1796929,-118.3381036
2315,Victory Boulevard,91506,34.1847789,-118.3366842
2400,Monterey Place,91505,34.1858356,-118.3373638
2314,Monterey Place,91505,34.1857887,-118.3366779
1920,West Clark Avenue,91506,34.1693394,-118.3276064
2425,West Magnolia Boulevard,91506,34.1723014,-118.3346606
924,West Olive Avenue,91506,34.1727432,-118.3169613
107,South Victory Boulevard,91502,34.1730015,-118.3166246
308,West Verdugo Avenue,91502,34.1706493,-118.3140816
3201,West Verdugo Avenue,91505,34.1632776,-118.3393270
610,North Hollywood Way,91505,34.1615275,-118.3435325
126,East Alameda Avenue,91502,34.1737188,-118.3002209
25,East Alameda Avenue,91502,34.1730831,-118.3020985
306,East Alameda Avenue,91502,34.1755419,-118.2981608
214,East Alameda Avenue,91502,34.1750061,-118.2988227
300,East Alameda Avenue,91502,34.1755279,-118.2984046
1200,Flower Street,91502,34.1698019,-118.2990755
811,South San Fernando Boulevard,91501,34.1748990,-118.3012878
601,South San Fernando Boulevard,91502,34.1769081,-118.3037298
1028,San Fernando Road,91502,34.1744555,-118.2986928
551,North Hollywood Way,91505,34.1605058,-118.3439590
3714,West Verdugo Avenue,91505,34.1605116,-118.3442817
603,North Hollywood Way,91505,34.1610822,-118.3441682
1169,East Providencia Avenue,91501,34.1894779,-118.2914014
2517,Victory Boulevard,91505,34.1848549,-118.3392662
233,South Sixth Street,91501,34.1842000,-118.3022962
403,East Palm Avenue,91501,34.1849324,-118.3083155
300,East Angeleno Avenue,91502,34.1812836,-118.3058352
150,3rd Street,91502,34.1828972,-118.3079376
550,East Olive Avenue,91501,34.1849068,-118.3039774
544,East Olive Avenue,91501,34.1847606,-118.3040453
249,South Glenoaks Boulevard,91502,34.1817187,-118.3047718
418,East Olive Avenue,91501,34.1833658,-118.3056755
465,East Tujunga Avenue,91501,34.1829828,-118.3034446
419,East Tujunga Avenue,91501,34.1822578,-118.3041855
455,East Angeleno Avenue,91501,34.1834917,-118.3046981
503,East Tujunga Avenue,91501,34.1831725,-118.3031248
421,Verdugo Avenue,91501,34.1829994,-118.3051911
465,East Tujunga Avenue,91501,34.1828804,-118.3036474
465,East Tujunga Avenue,91501,34.1827494,-118.3034681
453,East Tujunga Avenue,91501,34.1826807,-118.3037537
445,East Tujunga Avenue,91501,34.1825786,-118.3038645
437,East Tujunga Avenue,91501,34.1824745,-118.3039722
200,Glenoaks Boulevard,91501,34.1824777,-118.3048162
429,East Tujunga Avenue,91501,34.1823748,-118.3040781
201,Glenoaks Boulevard,91502,34.1821158,-118.3051646
569,East Tujunga Avenue,91501,34.1840396,-118.3023133
575,East Tujunga Avenue,91501,34.1840955,-118.3021295
549,East Tujunga Avenue,91501,34.1838538,-118.3027589
557,East Tujunga Avenue,91501,34.1839342,-118.3024170
547,Tujunga Ave,91501,34.1837751,-118.3026354
557,East Tujunga Avenue,91501,34.1838326,-118.3025282
543 A-B,Tujunga Ave,91501,34.1836523,-118.3025442
531,Tujunga Ave,91501,34.1834325,-118.3027627
437,East Fairmount Road,91501,34.1901535,-118.3132932
432,East Fairmount Road,91501,34.1897904,-118.3128198
912,North San Fernando Blvd,91504,34.1867691,-118.3163366
1090,North San Fernando Boulevard,91504,34.1880978,-118.3180377
503,East Fairmount Road,91501,34.1904196,-118.3129613
201,East Verdugo Avenue,91502,34.1791796,-118.3056964
237,East Olive Avenue,91502,34.1815353,-118.3084432
240,East Verdugo Avenue,91502,34.1789999,-118.3049143
325,North 3rd Street,91502,34.1834097,-118.3103588
321,South Ikea way,91502,34.1775064,-118.3077181
151,East Verdugo Avenue,91502,34.1786270,-118.3063291
280,East Palm Avenue,91502,34.1831039,-118.3094982
135,East Olive Avenue,91502,34.1805113,-118.3097073
1110,South Victory Boulevard,91502,34.1659155,-118.3062773
3001,Thorton Avenue,91504,34.1959969,-118.3436179
3203,West Alameda Avenue,91505,34.1560208,-118.3355476
3113,West Olive Avenue,91505,34.1564232,-118.3350400
191,South Buena Vista Street,91505,34.1584803,-118.3290803
2825,West Olive Avenue,91505,34.1584075,-118.3328069
2635,West Olive Avenue,91505,34.1599008,-118.3311734
2701,West Alameda Avenue,91505,34.1577990,-118.3305039
2000,Empire Avenue,91504,34.1895254,-118.3325076
1900,Empire Avenue,91504,34.1913957,-118.3324423
2511,North San Fernando Boulevard,91504,34.1977470,-118.3382974
1828,North Keystone Street,91504,34.1929220,-118.3337923
1631,Maria Street,91504,34.1930855,-118.3324303
1800,Empire Avenue,91504,34.1891424,-118.3307533
2080,Empire Avenue,91504,34.1898655,-118.3336092
1919,West Empire Avenue,91504,34.1922900,-118.3325445
2300,West Empire Avenue,91504,34.1912659,-118.3351476
2100,Empire Avenue,91504,34.1912239,-118.3339139
1301,North Victory Boulevard,91502,34.1882118,-118.3251378
1575,North Victory Place,91502,34.1905671,-118.3278227
2050,West Empire Avenue,91504,34.1908056,-118.3327139
1741,Victory Place,91504,34.1906345,-118.3290224
1623,Maria Street,91504,34.1928197,-118.3324270
1761,Victory Place,91504,34.1907208,-118.3295662
2255,North Buena Vista Street,91504-3309,34.1975831,-118.3384657
1351,North Victory Place,91502,34.1883473,-118.3268333
910,West Magnolia Boulevard,91506,34.1769439,-118.3189414
501,South Buena Vista Street,91505,34.1560682,-118.3285481
1922,Grismer Avenue,91504,34.1964330,-118.3254974
600,South Ikea Way,91502,34.1744754,-118.3030930
511,South Buena Vista Street,91505,34.1546128,-118.3274991
3201,West Verdugo Avenue,91505,34.1642141,-118.3395961
610,North Whitnall Highway,91505,34.1630343,-118.3433105
401,South San Fernando Boulevard,91502,34.1781463,-118.3057804
1335,Lockheed View Drive,91504,34.2056282,-118.3091401
601,North San Fernando Boulevard,91502,34.1844791,-118.3141021
10980,Sherman Way,91505,34.2003435,-118.3699672
349,South Glenoaks Boulevard,91502,34.1810563,-118.3037611
740,Lake Street,91502,34.1833353,-118.3189830
10701,Wildwood Canyon Road,91501,34.2094544,-118.2928357
325,North First Street,91502,34.1809680,-118.3126726
2880,North Ontario Street,91504,34.2043564,-118.3428477
3000,San Fernando Boulevard,91504,34.2022483,-118.3423554
411,North Hollywood Way,91505,34.1582713,-118.3448441
1202,North Whitnall Highway,91505,34.1711302,-118.3551622
1111,Kenneth Road,91504,34.1945711,-118.3126026
550,North Hollywood Way,91505,34.1608294,-118.3431532
720,East Providencia Avenue,91501,34.1828208,-118.2969596
1750,West Olive Avenue,91506,34.1664579,-118.3235096
549,South San Fernando Boulevard,91502,34.1774270,-118.3045437
2625,West Alameda Avenue,91505,34.1579580,-118.3299119
2601,West Alameda Avenue,91505,34.1581651,-118.3295497
181,South Buena Vista Street,91505,34.1594639,-118.3291008
501,South Buena Vista Street,91505,34.1577455,-118.3282833
240,East Alameda Avenue,91502,34.1753425,-118.2986333
201,West Alameda Avenue,91502,34.1690965,-118.3060011
310,North San Fernando Boulevard,91501,34.1827883,-118.3107431
924,West Olive Avenue,91506,34.1726222,-118.3168621
3020,West Olive Avenue,91505,34.1565532,-118.3339873
404,East Palm Avenue,91502,34.1847189,-118.3079929
465,East Tujunga Avenue,91501,34.1828695,-118.3035335
503,East Tujunga Avenue,91501,34.1832734,-118.3031248
245,East Olive Avenue,91502,34.1817083,-118.3082902
1638,North San Fernando Boulevard,91504,34.1919803,-118.3250292
140,East Alameda Avenue,91502,34.1740353,-118.2999140
150,South Glenoaks Boulevard,91502,34.1826864,-118.3052536
224,East Olive Avenue,91502,34.1810421,-118.3081756
100,South California Street,91505,34.1532618,-118.3333671
175,West Verdugo Avenue,91502,34.1740176,-118.3115052
3501,North San Fernando Boulevard,91505,34.2054311,-118.3495470
411,North Hollywood Way,91505,34.1591288,-118.3428800
1041,Main Street,91506,34.1625942,-118.3117562
2400,West Alameda Avenue,91505,34.1577775,-118.3272332
2900,North San Fernando Boulevard,91504,34.2008214,-118.3403537
4421,W Kling Street,91505,34.1562997,-118.3505229
720,East Providencia avenue,91501,34.1829408,-118.2970763
458,East Tujunga Avenue,91501,34.1824272,-118.3030321
444,East Tujunga Avenue,91501,34.1822169,-118.3032458
536,East Tujunga Avenue,91501,34.1831704,-118.3022477
444,East Verdugo Avenue,91501,34.1814799,-118.3022718
600,Olive Avenue,91501,34.1856687,-118.3030835
1219,North Buena Vista Street,91505,34.1792213,-118.3388090
211,West Verdugo Avenue,91502,34.1731869,-118.3120439
555,East Olive Avenue,91501,34.1854469,-118.3044858
450,East Olive Avenue,91501,34.1837028,-118.3051564
221,6th Street,91501,34.1843613,-118.3027141
900,North Glenoaks Boulevard,91502,34.1896506,-118.3141938
201,East Angeleno Avenue,91502,34.1811073,-118.3072872
240,East Palm Avenue,91502,34.1824874,-118.3101032
350,S San Fernando Boulevard,91502,34.1801487,-118.3060915
750,South San Fernando Boulevard,91502,34.1764198,-118.3020642
1820,West Verdugo Avenue,91506,34.1668809,-118.3247995
2901,Haven Way,91504,34.2108718,-118.3293688
3425,West Olive Avenue,91505,34.1543391,-118.3378913
