House number,Street name,Postal code,Latitude,Longitude
785,Oak Grove Road,94518,37.9377015,-122.0256327
5412,Ygnacio Valley Road,94521,37.9489185,-121.9587844
5442,Ygnacio Valley Road,94521,37.9509733,-121.9580030
5442,Ygnacio Valley Road,94521,37.9507700,-121.9576271
1488,Washington Blvd,94521,37.9507319,-121.9559615
5100,Clayton Road,94521,37.9548540,-121.9682700
4451,Clayton Road,94521-2845,37.9643998,-121.9882034
4401,Clayton Road,94521,37.9638036,-121.9888675
785,Oak Grove Road,94518,37.9373537,-122.0254532
1701,Willow Pass Road,94520,37.9738722,-122.0414820
1990,Monument Boulevard,94520,37.9553730,-122.0389768
790,Oak Grove Road,94518,37.9383855,-122.0242294
785,Oak Grove Road,94518,37.9378109,-122.0258394
4804,Clayton Road,94521,37.9598502,-121.9798457
1980,Galindo Street,94520,37.9766196,-122.0354319
1096,Oak Grove Road,94518,37.9562997,-122.0385946
2933,Salvio Street,94519,37.9823372,-122.0250770
2151,Salvio Street,94520,37.9779353,-122.0340110
1848,Willow Pass Road,94520,37.9747725,-122.0371300
1950-A,Grant Street,94520,37.9777106,-122.0331836
1985,Willow Pass Road,94520,37.9760621,-122.0356844
2151,Salvio Street,94520,37.9780232,-122.0337840
2072,Salvio Street,94520,37.9772905,-122.0347824
2118,Willow Pass Road,94520,37.9765304,-122.0338356
1975,Diamond Boulevard,94520,37.9685513,-122.0564310
1160,Erickson Road,94520,37.9594450,-122.0389568
2995,Monument Boulevard,94520-3011,37.9682703,-122.0325330
2140,Olivera Court,94520,37.9969683,-122.0401447
1900,Grant Street,94520,37.9774406,-122.0327060
1975,Diamond Boulevard,94520,37.9693483,-122.0566180
1975,Diamond Boulevard,94520,37.9698961,-122.0567900
1975,Diamond Boulevard,94520,37.9701504,-122.0564050
1255,Willow Pass Road,94520,37.9684755,-122.0530860
1955,Mount Diablo Street,94520,37.9769978,-122.0345500
1001,Sunvalley Boulevard,94520,37.9658139,-122.0606129
1611,Monument Boulevard,94520-4101,37.9538308,-122.0431554
1701,Monument Boulevard,94520,37.9549854,-122.0414661
2118,Mount Diablo Street,94520,37.9786592,-122.0354760
2115,Pacheco Street,94520,37.9786544,-122.0350709
1990,Grant Street,94520,37.9779382,-122.0333587
1924,Grant Street,94520,37.9774267,-122.0329909
1100,Contra Costa Boulevard,94523,37.9613391,-122.0610970
1851,Sutter Street,94520,37.9740732,-122.0386382
1657,Willow Pass Road,94520,37.9727921,-122.0437422
1669,Willow Pass Road,94520,37.9729600,-122.0433801
1701,Willow Pass Road,94520,37.9741817,-122.0417539
1751,Willow Pass Road,94520,37.9743172,-122.0404960
1675,"Willow Pass Road, Park",94520-2649,37.9732862,-122.0426550
2068,Salvio Street,94520,37.9771829,-122.0350074
2015,Diamond Boulevard,94520,37.9712824,-122.0566544
2085,Diamond Boulevard,94520,37.9740558,-122.0587970
1150,Concord Avenue,94520,37.9793010,-122.0561587
1100,Concord Avenue,94520,37.9786732,-122.0582364
484,Sun Valley Mall,94520,37.9696169,-122.0612620
11006,Contra Costa Boulevard,94520,37.9612905,-122.0610890
1120,Contra Costa Boulevard,94523,37.9612434,-122.0610810
1108,Contra Costa Boulevard,94523,37.9611855,-122.0610710
1110,Contra Costa Boulevard,94523,37.9611249,-122.0610600
1200,Contra Costa Boulevard,94523,37.9604409,-122.0608470
1200,Contra Costa Boulevard,94523,37.9599053,-122.0610810
1090,Concord Avenue,94520,37.9781956,-122.0590920
5100,Clayton Road,94521,37.9542617,-121.9674059
1551,Matheson Road,94521,37.9610041,-121.9802896
2001,Diamond Boulevard,94520,37.9702201,-122.0584926
936,Detroit Avenue,94518,37.9498568,-122.0273926
3529,Clayton Rd,94519,37.9709498,-122.0113950
3241,Monument Way,94518,37.9612375,-122.0308590
5434,Ygnacio Valley Rd,94521,37.9502440,-121.9585348
5442,Ygnacio Valley Road,94521,37.9507698,-121.9582110
5358,Clayton Road,94521,37.9527677,-121.9605324
5442,Ygnacio Valley Road,94521,37.9507503,-121.9580747
3413,Chestnut Avenue,94519,37.9717960,-122.0143991
5424,Ygnacio Valley Road,94521,37.9489553,-121.9572748
1850,Mount Diablo Street,94520,37.9760586,-122.0334626
2002,Salvio Street,94520,37.9768914,-122.0356276
1844,Grant Street,94520,37.9767481,-122.0322867
4498,Treat Boulevard,94521,37.9638901,-121.9922130
4701,Clayton Road,94521,37.9612390,-121.9820130
901,Sunvalley Boulevard,94520,37.9634289,-122.0610647
625,Contra Costa Boulevard,94523,37.9741720,-122.0636332
627,Contra Costa Boulevard,94523,37.9746445,-122.0637925
715,Contra Costa Boulevard,94523,37.9700540,-122.0625374
1975,Diamond Boulevard,94520,37.9697685,-122.0585947
1170,Concord Avenue,94520,37.9798570,-122.0563018
2201,John Glenn Drive,94520,37.9787179,-122.0555535
2098,Market Street,94520,37.9765740,-122.0427596
1500,Monument Boulevard,94520,37.9520758,-122.0430223
1112,Meadow Lane,94520,37.9571735,-122.0393451
4125,Concord Boulevard,94519,37.9781071,-121.9928784
1820,Arnold Industrial Way,94520,38.0028041,-122.0493023
1033,Shary Circle,94518,37.9526849,-122.0318577
1990,Olivera Road,94520,37.9977317,-122.0484951
5442,Ygnacio Valley Road,94521,37.9504968,-121.9578930
1855,Gateway Boulevard,94520,37.9710809,-122.0437382
2118,Willow Pass Road,94520,37.9764863,-122.0336864
2250,Monument Boulevard,94520,37.9575768,-122.0358115
2030,Diamond Boulevard,94520,37.9733578,-122.0556524
301,Sun Valley Mall,94520,37.9663950,-122.0611788
2001,Diamond Boulevard,94520,37.9725851,-122.0576343
1975,Diamond Blvd,94520,37.9690949,-122.0566118
1395,Galindo Street,94520,37.9714985,-122.0333950
3550,Clayton Road,94519,37.9702806,-122.0110752
3373,Port Chicago Highway,94520,37.9939778,-122.0320624
3399,Port Chicago Highway,94520-1601,37.9951391,-122.0312424
2475,Olivera Road,94520,37.9953953,-122.0319102
2455,Olivera Road,94520-1661,37.9953292,-122.0324868
3375,Port Chicago Highway,94520,37.9940888,-122.0322501
1505,Willow Pass Road,94520,37.9713696,-122.0486892
2151,Salvio Street,94520,37.9776220,-122.0346480
1823,Broadway Street,94520,37.9763961,-122.0390442
1800,Adobe Street,94520,37.9769800,-122.0386235
2035,Salvio Street,94520,37.9772646,-122.0354973
2031,Salvio Street,94520,37.9771893,-122.0356534
1691B,Willow Pass Road,94520,37.9737932,-122.0421704
1687,Willow Pass Road,94520,37.9735669,-122.0421462
1691,Willow Pass Road,94520,37.9736367,-122.0420577
1950,Market Street,94520,37.9735903,-122.0441363
1950,Market Street,94520,37.9736765,-122.0439893
1950,Market Street,94520,37.9738136,-122.0437167
1651,Willow Pass Road,94520,37.9726078,-122.0441614
1645,Willow Pass Road,94520,37.9728622,-122.0444197
1647,Willow Pass Road,94520,37.9727463,-122.0443085
4367,Concord Boulevard,94520,37.9758889,-121.9845162
1025,Galaxy Way,94520,37.9743693,-122.0596729
1001,Galaxy Way,94520,37.9739472,-122.0611031
1001,Galaxy Way,94520,37.9739732,-122.0611242
2280,Diamond Boulevard,94520,37.9770178,-122.0599806
2280,Diamond Boulevard,94520,37.9771246,-122.0595434
2280,Diamond Boulevard,94520,37.9774058,-122.0597097
2280,Diamond Boulevard,94520,37.9773434,-122.0600718
1092,Concord Avenue,94520,37.9782124,-122.0589740
1070,Concord Avenue,94520,37.9780551,-122.0601104
1090,Concord Avenue,94520,37.9780051,-122.0592462
2290,Diamond Boulevard,94520,37.9779323,-122.0607509
2280,Diamond Boulevard,94520,37.9772157,-122.0598696
2285,Diamond Boulevard,94520,37.9767863,-122.0612830
2177,Diamond Boulevard,94520,37.9761580,-122.0602765
1001,Burnett Avenue,94520,37.9760392,-122.0623438
1050,Burnett Avenue,94520,37.9756631,-122.0606397
605,Contra Costa Boulevard,94523,37.9751102,-122.0642210
1000,Burnett Avenue,94520,37.9748233,-122.0615660
2121,Diamond Boulevard,94520,37.9748194,-122.0599901
627,Contra Costa Boulevard,94523,37.9746581,-122.0637613
625,Contra Costa Boulevard,94523,37.9741539,-122.0636579
1001,Galaxy Way,94520,37.9739984,-122.0611495
2003,Diamond Boulevard,94520,37.9721031,-122.0592968
715,Contra Costa Boulevard,94523,37.9699359,-122.0625101
484,Sunvalley Mall,94520,37.9696546,-122.0612562
486,Sunvalley Mall,94520,37.9696447,-122.0619350
282,Sunvalley Mall,94520,37.9690874,-122.0614925
385,Sunvalley Mall,94520,37.9690601,-122.0617457
278,Sunvalley Mall,94520,37.9690295,-122.0609958
476,Sunvalley Mall,94520,37.9688957,-122.0605207
472,Sunvalley Mall,94520,37.9687182,-122.0606653
292,Sunvalley Mall,94520,37.9685865,-122.0610603
359,Sunvalley Mall,94520,37.9684554,-122.0617245
115,Sunvalley Mall,94520,37.9681764,-122.0604614
242,Sunvalley Mall,94520,37.9681333,-122.0607931
341,Sunvalley Mall,94520,37.9677076,-122.0612677
1847,Willow Pass Road,94520,37.9752101,-122.0383420
1909,Salvio Street,94520,37.9764962,-122.0371029
3606,Willow Pass Road,94519,37.9862245,-122.0101433
755,Oak Grove Road,94518,37.9343722,-122.0256203
1266,San Carlos Avenue,94518,37.9682151,-122.0271171
1400,Dina Drive,94518,37.9682033,-122.0130785
4050,Port Chicago Hwy,94520,38.0149909,-122.0202817
1130,Winton Drive,94518,37.9347604,-122.0304537
2450,Grant Street,94520,37.9817699,-122.0380426
3966,Chestnut Avenue,94519,37.9713266,-122.0013538
1985,Willow Pass Road,94520,37.9761961,-122.0362477
1950,Parkside Drive,94519,37.9817234,-122.0242124
2900,Salvio Street,94519,37.9815988,-122.0252564
2925,Willow Pass Road,94519,37.9806338,-122.0238502
1755,Concord Boulevard,94520,37.9754187,-122.0325581
1850,Gateway Boulevard,94520,37.9719328,-122.0428041
1855,Gateway Boulevard,94520,37.9712027,-122.0434908
2090,Meridan Park Boulevard,94520,37.9756390,-122.0541719
2400,Monument Boulevard,94520-3105,37.9576392,-122.0322994
1461,Concord Avenue,94520,37.9800517,-122.0455108
2030,Diamond Blvd,94520,37.9736219,-122.0554687
1800,Sutter Street,94520,37.9737909,-122.0374072
1695,Willow Pass Road,94520,37.9749481,-122.0424224
2060,Monument Boulevard,94520,37.9562510,-122.0373067
1840,Willow Pass Road,94520,37.9742856,-122.0376850
3501,Cowell Road,94518,37.9654829,-122.0138775
4804,Clayton Road,94521,37.9597716,-121.9798639
5400,Ygnacio Valley Road,94521-3840,37.9512601,-121.9575076
5446,Ygnacio Valley Road,94521,37.9502362,-121.9572285
1698,Monument Boulevard,94520,37.9541399,-122.0416857
1710,Monument Boulevard,94520,37.9546049,-122.0409925
1691,Monument Boulevard,94520-4101,37.9547444,-122.0420830
2160,Monument Boulevard,94520,37.9572629,-122.0370185
1313,Willow Pass Road,94520,37.9690469,-122.0523881
2700,Grant Street,94520,37.9846884,-122.0360626
1350,Galindo Street,94520,37.9708596,-122.0317038
2600,Willow Pass Road,94520,37.9782896,-122.0282450
4309,Clayton Road,94521,37.9661682,-121.9906967
2945,Treat Boulevard,94518,37.9382826,-122.0288571
2945,Treat Boulevard,94518,37.9377126,-122.0285689
2955,Treat Boulevard,94518,37.9379061,-122.0272202
2975,Treat Boulevard,94518,37.9383231,-122.0265417
2991,Treat Boulevard,94518,37.9388181,-122.0256246
3950,Clayton Road,94521,37.9673127,-122.0030097
5294,Clayton Road,94521,37.9525549,-121.9622887
2299,Pike Court,94520,38.0111876,-122.0346483
2295,Arnold Industrial Way,94520,38.0085750,-122.0341823
5141,Commercial Circle,94520,38.0186606,-122.0281720
1935,Arnold Industrial Way,94520,38.0056990,-122.0437053
4530,Clayton Road,94521,37.9623916,-121.9868625
4550,Clayton Road,94521-2850,37.9621442,-121.9866171
4050,Port Chicago Highway,94520,38.0136181,-122.0235071
4702,Clayton Road,94521,37.9610562,-121.9829120
4673,Clayton Road,94521,37.9627542,-121.9828730
2731,Systron Drive,94518,37.9652981,-122.0292697
1253,Morning Glory Drive,94521,37.9567535,-121.9889598
1241,Morning Glory Drive,94521,37.9562720,-121.9887848
1257,Morning Glory Drive,94521,37.9569384,-121.9889175
1245,Morning Glory Drive,94521,37.9563862,-121.9889064
1249,Morning Glory Drive,94521,37.9565723,-121.9889521
1237,Morning Glory Drive,94521,37.9561262,-121.9886466
1229,Morning Glory Drive,94521,37.9558049,-121.9884435
1225,Morning Glory Drive,94521,37.9556669,-121.9883499
1233,Morning Glory Drive,94521,37.9559907,-121.9885276
1287,Waterfall Way,94521,37.9591787,-121.9887728
1314,Waterfall Way,94521,37.9595701,-121.9904135
1294,Waterfall Way,94521,37.9595340,-121.9892839
1299,Waterfall Way,94521,37.9591542,-121.9894647
1298,Waterfall Way,94521,37.9595101,-121.9895037
1286,Waterfall Way,94521,37.9595250,-121.9888312
1291,Waterfall Way,94521,37.9591912,-121.9889969
1310,Waterfall Way,94521,37.9594991,-121.9901872
1306,Waterfall Way,94521,37.9595139,-121.9899496
1302,Waterfall Way,94521,37.9595191,-121.9897376
1290,Waterfall Way,94521,37.9595191,-121.9890386
1318,Waterfall Way,94521,37.9596546,-121.9906431
1295,Waterfall Way,94521,37.9591711,-121.9892422
1226,Morning Glory Drive,94521,37.9558371,-121.9879170
1234,Morning Glory Drive,94521,37.9561607,-121.9881290
1248,Morning Glory Drive,94521,37.9566256,-121.9885130
1238,Morning Glory Drive,94521,37.9563098,-121.9882430
1230,Morning Glory Drive,94521,37.9560012,-121.9880439
1242,Morning Glory Drive,94521,37.9564460,-121.9883470
2817,Hilltop Road,94520,37.9952497,-122.0511579
2813,Hilltop Road,94520,37.9951617,-122.0513147
2810,Hilltop Road,94520,37.9948986,-122.0509896
2816,Hilltop Road,94520,37.9949900,-122.0508559
2823,Hilltop Road,94520,37.9953678,-122.0510177
2822,Hilltop Road,94520,37.9950745,-122.0506850
2829,Hilltop Road,94520,37.9954601,-122.0508914
2828,Hilltop Road,94520,37.9951868,-122.0505671
2808,Hilltop Road,94520,37.9946738,-122.0513027
2805,Hilltop Road,94520,37.9950298,-122.0516200
2809,Hilltop Road,94520,37.9950841,-122.0514701
2801,Hilltop Road,94520,37.9949114,-122.0517777
1799,Solano Way,94520,37.9947754,-122.0520291
1845,Solano Way,94520,37.9944525,-122.0517315
2804,Hilltop Road,94520,37.9945750,-122.0514937
1819,Overhill Road,94520,37.9947210,-122.0507591
2140,Minert Road,94518,37.9405957,-122.0321302
1935,Mount Diablo Street,94520,37.9767626,-122.0346191
2295,Willow Pass Road,94520,37.9776925,-122.0322479
2300,Clayton Road,94520,37.9754104,-122.0300027
1970,Grant Street,94520,37.9778819,-122.0330934
1644,Beckner Court,94521,37.9715405,-121.9905798
1645,Beckner Court,94521,37.9717211,-121.9908559
1648,Beckner Court,94521,37.9717158,-121.9903507
1649,Beckner Court,94521,37.9719827,-121.9909813
1652,Beckner Court,94521,37.9718863,-121.9901846
1655,Beckner Court,94521,37.9721223,-121.9907137
1656,Beckner Court,94521,37.9720173,-121.9899704
1660,Beckner Court,94521,37.9722443,-121.9897238
1661,Beckner Court,94521,37.9722700,-121.9905006
1664,Beckner Court,94521,37.9724364,-121.9899225
1666,Mendocino Drive,94521,37.9724426,-121.9907254
1668,Beckner Court,94521,37.9725476,-121.9902164
1674,Mendocino Drive,94521,37.9727316,-121.9903680
1678,Pepperwood Court,94521,37.9725497,-121.9897166
1682,Mendocino Drive,94521,37.9728899,-121.9901565
1686,Pepperwood Court,94521,37.9724842,-121.9893788
1688,Mendocino Drive,94521,37.9730140,-121.9899151
1689,Pepperwood Court,94521,37.9727637,-121.9897985
1694,Mendocino Drive,94521,37.9731820,-121.9897429
1694,Pepperwood Court,94521,37.9726752,-121.9891624
1695,Pepperwood Court,94521,37.9729783,-121.9895668
1700,Mendocino Drive,94521,37.9733321,-121.9895622
1700,Pepperwood Court,94521,37.9728679,-121.9889961
1701,Mendocino Drive,94521,37.9736834,-121.9900382
1701,Pepperwood Court,94521,37.9731395,-121.9893485
1706,Mendocino Drive,94521,37.9734857,-121.9893986
1706,Pepperwood Court,94521,37.9730258,-121.9887984
1707,Mendocino Drive,94521,37.9738742,-121.9898329
1707,Pepperwood Court,94521,37.9732840,-121.9891431
1712,Mendocino Drive,94521,37.9736439,-121.9891966
1712,Pepperwood Court,94521,37.9731746,-121.9885742
1713,Mendocino Drive,94521,37.9740545,-121.9895944
1713,Pepperwood Court,94521,37.9734890,-121.9890099
1718,Mendocino Drive,94521,37.9737815,-121.9889930
1718,Pepperwood Court,94521,37.9733474,-121.9884003
1719,Mendocino Drive,94521,37.9742250,-121.9894014
1719,Pepperwood Court,94521,37.9736523,-121.9887990
1725,Mendocino Drive,94521,37.9744280,-121.9891779
1731,Mendocino Drive,94521,37.9745598,-121.9889383
1736,Mendocino Drive,94521,37.9742835,-121.9884843
1737,Mendocino Drive,94521,37.9748096,-121.9887471
1742,Mendocino Drive,94521,37.9745420,-121.9882899
1754,Mendocino Drive,94521,37.9750901,-121.9882621
1766,Mendocino Drive,94521,37.9755047,-121.9878853
4039,Roland Drive,94521,37.9735210,-121.9903033
4244,Rosewood Drive,94521,37.9739615,-121.9888201
4245,Orangewood Court,94521,37.9749358,-121.9879950
4250,Orangewood Court,94521,37.9743888,-121.9881197
4250,Rosewood Drive,94521,37.9738039,-121.9885857
4251,Orangewood Court,94521,37.9747634,-121.9877800
4256,Orangewood Court,94521,37.9742284,-121.9879064
4257,Orangewood Court,94521,37.9746178,-121.9875794
4262,Orangewood Court,94521,37.9740969,-121.9877151
4262,Rosewood Drive,94521,37.9734863,-121.9881959
4263,Orangewood Court,94521,37.9744760,-121.9873288
4268,Orangewood Court,94521,37.9739541,-121.9874875
4269,Orangewood Court,94521,37.9743191,-121.9871609
4274,Orangewood Court,94521,37.9737858,-121.9873116
4275,Orangewood Court,94521,37.9741712,-121.9869524
4280,Orangewood Court,94521,37.9736001,-121.9871108
4281,Orangewood Court,94521,37.9740279,-121.9867005
4286,Orangewood Court,94521,37.9735850,-121.9867694
4287,Orangewood Court,94521,37.9737997,-121.9865667
4100,Clayton Road,94521,37.9664896,-121.9982464
2925,Monument Boulevard,94520,37.9669699,-122.0336683
1721,Amador Avenue,94520,37.9733912,-122.0347552
2185,Pacheco Street,94520,37.9790562,-122.0347493
1062,Mohr Lane,94518,37.9463781,-122.0480688
4901,Marsh Drive,94520,37.9986601,-122.0548502
1849,Clayton Road,94520,37.9739295,-122.0361113
1801,Sutter Street,94520,37.9733157,-122.0382522
1825,Sutter Street,94520,37.9737530,-122.0383748
1851,Sutter Street,94520,37.9740415,-122.0387846
1875,Willow Pass Road,94520,37.9754052,-122.0372432
1855,Willow Pass Road,94520,37.9756125,-122.0379749
1849,Willow Pass Road,94520,37.9754952,-122.0381931
4905,Marsh Drive,94520,37.9989517,-122.0552899
2836,Clayton Road,94519,37.9743901,-122.0255173
2924,Clayton Road,94519,37.9740460,-122.0246584
2924,Clayton Road,94519,37.9740786,-122.0247602
935,Detroit Avenue,94518,37.9507916,-122.0282794
1390,Rising Dawn Lane,94521,37.9549253,-121.9888754
1381,Rising Dawn Lane,94521,37.9547572,-121.9893254
1380,Rising Dawn Lane,94521,37.9547509,-121.9888213
1370,Rising Dawn Lane,94521,37.9545823,-121.9887972
1373,Rising Dawn Lane,94521,37.9545611,-121.9892526
1360,Rising Dawn Lane,94521,37.9544102,-121.9887985
1365,Rising Dawn Lane,94521,37.9543587,-121.9893529
1356,Rising Dawn Lane,94521,37.9541055,-121.9890312
1352,Rising Dawn Lane,94521,37.9539721,-121.9891948
1372,Water Lily Way,94521,37.9541919,-121.9895148
1376,Water Lily Way,94521,37.9546335,-121.9895962
1380,Water Lily Way,94521,37.9546586,-121.9898380
1387,Water Lily Way,94521,37.9546076,-121.9900633
1383,Water Lily Way,94521,37.9543814,-121.9900815
1379,Water Lily Way,94521,37.9542011,-121.9900151
1375,Water Lily Way,94521,37.9540321,-121.9899760
1371,Water Lily Way,94521,37.9539196,-121.9898424
1340,Rising Dawn Lane,94521,37.9535711,-121.9900442
4461,Pinon Court,94521,37.9535200,-121.9895725
4463,Pinon Court,94521,37.9535310,-121.9893663
4465,Pinon Court,94521,37.9535312,-121.9891427
4467,Pinon Court,94521,37.9535382,-121.9889311
4466,Pinon Court,94521,37.9530993,-121.9889266
4464,Pinon Court,94521,37.9531611,-121.9891551
4462,Pinon Court,94521,37.9531601,-121.9893859
4460,Pinon Court,94521,37.9531465,-121.9896122
1330,Rising Dawn Lane,94521,37.9533970,-121.9900834
1320,Rising Dawn Lane,94521,37.9532261,-121.9900636
1310,Rising Dawn Lane,94521,37.9530771,-121.9900630
4400,Pinon Court,94521,37.9527265,-121.9900267
4401,Pinon Court,94521,37.9527525,-121.9895703
4402,Pinon Court,94521,37.9525623,-121.9900332
4404,Pinon Court,94521,37.9523938,-121.9899957
4405,Pinon Court,94521,37.9524086,-121.9895324
4406,Pinon Court,94521,37.9522298,-121.9899669
4407,Pinon Court,94521,37.9522338,-121.9894843
4408,Pinon Court,94521,37.9520411,-121.9899360
4409,Pinon Court,94521,37.9520495,-121.9894276
4410,Pinon Court,94521,37.9518705,-121.9898376
4412,Pinon Court,94521,37.9517035,-121.9897685
4411,Pinon Court,94521,37.9518510,-121.9893683
4413,Pinon Court,94521,37.9517039,-121.9892502
4414,Pinon Court,94521,37.9515602,-121.9896754
4416,Pinon Court,94521,37.9514078,-121.9895634
4415,Pinon Court,94521,37.9515394,-121.9891097
4416,Pinon Court,94521,37.9512735,-121.9894544
4417,Pinon Court,94521,37.9513857,-121.9889763
4419,Pinon Court,94521,37.9512565,-121.9888552
4420,Pinon Court,94521,37.9511244,-121.9893121
4422,Pinon Court,94521,37.9510143,-121.9892046
4424,Pinon Court,94521,37.9508736,-121.9891122
4426,Pinon Court,94521,37.9507076,-121.9889648
4428,Pinon Court,94521,37.9505903,-121.9888529
4403,Pinon Court,94521,37.9525896,-121.9895499
1350,Fern Hill Lane,94521,37.9543826,-121.9883586
1360,Fern Hill Lane,94521,37.9545660,-121.9883753
1370,Fern Hill Lane,94521,37.9547553,-121.9883941
1380,Fern Hill Lane,94521,37.9549546,-121.9884330
1390,Fern Hill Lane,94521,37.9551307,-121.9882922
1391,Fern Hill Lane,94521,37.9552676,-121.9879153
1381,Fern Hill Lane,94521,37.9550799,-121.9878322
1371,Fern Hill Lane,94521,37.9548864,-121.9877577
1361,Fern Hill Lane,94521,37.9546866,-121.9878322
4525,Tuolumne Way,94521,37.9544370,-121.9879267
4533,Tuolumne Way,94521,37.9544296,-121.9876846
4541,Tuolumne Way,94521,37.9544439,-121.9874607
4549,Tuolumne Way,94521,37.9544693,-121.9872474
1358,Shade Oak Lane,94521,37.9547247,-121.9873144
1366,Shade Oak Lane,94521,37.9549197,-121.9873319
1374,Shade Oak Lane,94521,37.9551185,-121.9873802
1382,Shade Oak Lane,94521,37.9553374,-121.9874627
1390,Shade Oak Lane,94521,37.9554971,-121.9872755
1391,Shade Oak Lane,94521,37.9555341,-121.9870295
1383,Shade Oak Lane,94521,37.9553291,-121.9868335
1375,Shade Oak Lane,94521,37.9551370,-121.9868183
1367,Shade Oak Lane,94521,37.9549334,-121.9868551
1359,Shade Oak Lane,94521,37.9547516,-121.9868625
4555,Tuolumne Way,94521,37.9544946,-121.9868518
4592,Deer Creek Lane,94521,37.9544729,-121.9853826
4590,Deer Creek Lane,94521,37.9545919,-121.9854275
4588,Deer Creek Lane,94521,37.9547690,-121.9854584
4586,Deer Creek Lane,94521,37.9549070,-121.9854604
4584,Deer Creek Lane,94521,37.9550281,-121.9853913
4580,Deer Creek Lane,94521,37.9551407,-121.9853102
4576,Deer Creek Lane,94521,37.9552591,-121.9852720
1382,Swallow Tail Road,94521,37.9555405,-121.9824086
1378,Swallow Tail Road,94521,37.9554142,-121.9823147
1374,Swallow Tail Road,94521,37.9552973,-121.9822110
1370,Swallow Tail Road,94521,37.9551658,-121.9821475
1366,Swallow Tail Road,94521,37.9550364,-121.9820890
1379,Swallow Tail Road,94521,37.9552412,-121.9828045
1375,Swallow Tail Road,94521,37.9551157,-121.9826826
4575,Deer Creek Lane,94521,37.9550952,-121.9847773
4579,Deer Creek Lane,94521,37.9549971,-121.9848425
4583,Deer Creek Lane,94521,37.9548786,-121.9848965
4587,Deer Creek Lane,94521,37.9547458,-121.9849431
4591,Deer Creek Lane,94521,37.9546173,-121.9848708
4599,Deer Creek Lane,94521,37.9544917,-121.9845703
4605,Deer Creek Lane,94521,37.9544832,-121.9844104
4611,Deer Creek Lane,94521,37.9545028,-121.9840207
4615,Deer Creek Lane,94521,37.9545104,-121.9838744
4619,Deer Creek Lane,94521,37.9545090,-121.9837183
4627,Deer Creek Lane,94521,37.9545108,-121.9834065
1351,Swallow Tail Road,94521,37.9544732,-121.9825537
1355,Swallow Tail Road,94521,37.9545930,-121.9825604
1359,Swallow Tail Road,94521,37.9547191,-121.9825457
1363,Swallow Tail Road,94521,37.9548498,-121.9825751
1367,Swallow Tail Road,94521,37.9549851,-121.9826168
1362,Swallow Tail Road,94521,37.9548975,-121.9820539
1358,Swallow Tail Road,94521,37.9547589,-121.9820340
1354,Swallow Tail Road,94521,37.9546225,-121.9820382
1350,Swallow Tail Road,94521,37.9545003,-121.9820458
4672,Deer Creek Lane,94521,37.9541553,-121.9815519
4668,Deer Creek Lane,94521,37.9541170,-121.9817469
4664,Deer Creek Lane,94521,37.9541282,-121.9819117
4660,Deer Creek Lane,94521,37.9541220,-121.9820735
4656,Deer Creek Lane,94521,37.9541217,-121.9822654
4652,Deer Creek Lane,94521,37.9541248,-121.9824436
4648,Deer Creek Lane,94521,37.9541323,-121.9826067
4644,Deer Creek Lane,94521,37.9541244,-121.9827688
4640,Deer Creek Lane,94521,37.9541311,-121.9829337
4636,Deer Creek Lane,94521,37.9541238,-121.9831012
4632,Deer Creek Lane,94521,37.9541111,-121.9832657
4628,Deer Creek Lane,94521,37.9541164,-121.9834267
4624,Deer Creek Lane,94521,37.9541085,-121.9835903
4612,Deer Creek Lane,94521,37.9541001,-121.9840807
4608,Deer Creek Lane,94521,37.9540903,-121.9842433
4604,Deer Creek Lane,94521,37.9540824,-121.9844221
4600,Deer Creek Lane,94521,37.9540755,-121.9846293
4594,Deer Creek Lane,94521,37.9542271,-121.9851504
1150,Contra Costa Boulevard,94523,37.9607154,-122.0611166
1130,Contra Costa Boulevard,94523,37.9608836,-122.0610405
1050,Contra Costa Boulevard,94523,37.9617777,-122.0612325
1000,Sunvalley Boulevard,94523,37.9623694,-122.0610560
1090,Contra Costa Boulevard,94523,37.9615950,-122.0612598
1312,Craig Drive,94518,37.9674311,-122.0171090
1307,Craig Drive,94518,37.9673549,-122.0176102
1260,Craig Drive,94518,37.9668388,-122.0173784
1242,Craig Drive,94518,37.9662620,-122.0176352
1243,Craig Drive,94518,37.9663643,-122.0180548
1237,Craig Drive,94518,37.9661743,-122.0181301
1212,Craig Drive,94518,37.9652414,-122.0181007
1212,Grove Way,94518,37.9654997,-122.0189987
1255,Craig Drive,94518,37.9667611,-122.0178705
1301,Glenwood Drive,94518,37.9669157,-122.0168048
1307,Glenwood Drive,94518,37.9670927,-122.0167340
1306,Glenwood Drive,94518,37.9669459,-122.0162885
1300,Glenwood Drive,94518,37.9667755,-122.0163515
1260,Glenwood Drive,94518,37.9665521,-122.0164645
1248,Hale Drive,94518,37.9659051,-122.0157566
1224,Hale Drive,94518,37.9651296,-122.0160887
1212,Hale Drive,94518,37.9647533,-122.0162621
1206,Hale Drive,94518,37.9645319,-122.0163693
2035,Diamond Boulevard,94520,37.9706584,-122.0587403
2425,Olivera Road,94520,37.9955902,-122.0332526
2000,Kirker Pass Road,94521,37.9599454,-121.9408639
4398,North Sugar Maple Court,94521,37.9532834,-121.9831466
3241,Monument Way,94518,37.9611489,-122.0309987
4667,Melody Drive,94521,37.9604558,-121.9841756
4675,Melody Drive,94521,37.9602045,-121.9835079
4680,Melody Drive,94521,37.9597553,-121.9835427
4684,Melody Drive,94521,37.9596830,-121.9831692
4688,Melody Drive,94521,37.9599611,-121.9828955
4692,Melody Drive,94521,37.9602746,-121.9828151
1240,Willow Pass Road,94520,37.9668816,-122.0537787
3503,Honeysuckle Way,94518,37.9433209,-122.0103601
3534,Honeysuckle Way,94518,37.9435369,-122.0086146
3522,Honeysuckle Way,94518,37.9432759,-122.0091873
3514,Honeysuckle Way,94518,37.9431340,-122.0096098
3526,Honeysuckle Way,94518,37.9433279,-122.0089767
3511,Honeysuckle Way,94518,37.9434143,-122.0099277
3518,Honeysuckle Way,94518,37.9432084,-122.0094090
3527,Honeysuckle Way,94518,37.9437080,-122.0090589
3506,Honeysuckle Way,94518,37.9429784,-122.0100404
3515,Honeysuckle Way,94518,37.9435072,-122.0096939
3523,Honeysuckle Way,94518,37.9436295,-122.0092700
3507,Honeysuckle Way,94518,37.9433477,-122.0101517
3502,Honeysuckle Way,94518,37.9429425,-122.0102505
3519,Honeysuckle Way,94518,37.9435936,-122.0094722
3531,Honeysuckle Way,94518,37.9438215,-122.0088859
3530,Honeysuckle Way,94518,37.9434290,-122.0087915
3510,Honeysuckle Way,94518,37.9430691,-122.0098317
737,Sunflower Court,94518,37.9440596,-122.0098570
747,Sunflower Court,94518,37.9447193,-122.0103685
748,Sunflower Court,94518,37.9447067,-122.0106612
738,Navaronne Way,94518,37.9437087,-122.0105729
733,Sunflower Court,94518,37.9438647,-122.0097949
738,Sunflower Court,94518,37.9438103,-122.0103184
754,Navaronne Way,94518,37.9446498,-122.0110813
734,Navaronne Way,94518,37.9435352,-122.0104428
743,Sunflower Court,94518,37.9445031,-122.0102266
750,Navaronne Way,94518,37.9444423,-122.0109577
740,Sunflower Court,94518,37.9441949,-122.0105481
734,Sunflower Court,94518,37.9436691,-122.0100437
741,Sunflower Court,94518,37.9442463,-122.0100054
744,Sunflower Court,94518,37.9443431,-122.0106313
3526,Wildflower Way,94518,37.9426843,-122.0088236
717,Navaronne Way,94518,37.9420981,-122.0105256
3503,Wildflower Way,94518,37.9426638,-122.0101627
709,Windmill Court,94518,37.9420145,-122.0095514
701,Navaronne Way,94518,37.9408198,-122.0096691
701,Windmill Court,94518,37.9414165,-122.0090452
702,Windmill Court,94518,37.9416784,-122.0086708
3519,Wildflower Way,94518,37.9429301,-122.0092822
3534,Wildflower Way,94518,37.9428737,-122.0083798
702,Navaronne Way,94518,37.9411570,-122.0092253
3524,Windmill Way,94518,37.9419925,-122.0087112
3518,Wildflower Way,94518,37.9425604,-122.0092421
3535,Wildflower Way,94518,37.9432852,-122.0084521
713,Navaronne Way,94518,37.9417539,-122.0104149
3510,Wildflower Way,94518,37.9424070,-122.0096233
3530,Wildflower Way,94518,37.9427593,-122.0085530
3547,Windmill Way,94518,37.9427556,-122.0078526
3525,Windmill Way,94518,37.9423273,-122.0089392
704,Windmill Court,94518,37.9418181,-122.0088753
3543,Windmill Way,94518,37.9426577,-122.0080409
707,Windmill Court,94518,37.9418118,-122.0094643
705,Windmill Court,94518,37.9416369,-122.0093726
3506,Wildflower Way,94518,37.9423461,-122.0098425
3532,Windmill Way,94518,37.9421391,-122.0082236
731,Navaronne Way,94518,37.9433014,-122.0109147
3531,Wildflower Way,94518,37.9431751,-122.0086276
723,Navaronne Way,94518,37.9426192,-122.0106747
3511,Wildflower Way,94518,37.9427825,-122.0097205
3521,Windmill Way,94518,37.9422989,-122.0091656
711,Navaronne Way,94518,37.9415722,-122.0103304
3523,Wildflower Way,94518,37.9429938,-122.0090646
700,Windmill Court,94518,37.9415106,-122.0088306
729,Navaronne Way,94518,37.9431345,-122.0108226
3527,Wildflower Way,94518,37.9430868,-122.0088555
727,Navaronne Way,94518,37.9429525,-122.0107723
725,Navaronne Way,94518,37.9427782,-122.0107070
711,Windmill Court,94518,37.9421879,-122.0095740
719,Navaronne Way,94518,37.9422759,-122.0105644
3548,Windmill Way,94518,37.9426124,-122.0073399
707,Navaronne Way,94518,37.9412580,-122.0101286
705,Navaronne Way,94518,37.9411009,-122.0099656
706,Navaronne Way,94518,37.9414256,-122.0095763
703,Windmill Court,94518,37.9414954,-122.0092653
3515,Wildflower Way,94518,37.9428456,-122.0095162
714,Navaronne Way,94518,37.9420774,-122.0099363
712,Navaronne Way,94518,37.9419095,-122.0098783
3533,Windmill Way,94518,37.9424403,-122.0084694
3507,Wildflower Way,94518,37.9427238,-122.0099526
708,Navaronne Way,94518,37.9415702,-122.0097060
3538,Wildflower Way,94518,37.9429817,-122.0081933
3522,Wildflower Way,94518,37.9426184,-122.0090335
706,Windmill Court,94518,37.9419713,-122.0090368
721,Navaronne Way,94518,37.9424519,-122.0106125
3536,Windmill Way,94518,37.9421761,-122.0079928
709,Navaronne Way,94518,37.9414052,-122.0102298
3540,Windmill Way,94518,37.9423003,-122.0078008
3537,Windmill Way,94518,37.9425202,-122.0082474
3529,Windmill Way,94518,37.9423865,-122.0087078
703,Navaronne Way,94518,37.9409585,-122.0098048
704,Navaronne Way,94518,37.9412806,-122.0094330
3544,Windmill Way,94518,37.9424286,-122.0075788
3528,Windmill Way,94518,37.9420711,-122.0084479
715,Navaronne Way,94518,37.9419098,-122.0104551
710,Navaronne Way,94518,37.9417388,-122.0098175
3502,Wildflower Way,94518,37.9422964,-122.0100518
3514,Halfmoon Lane,94518,37.9449644,-122.0106406
716,Daffodil Way,94518,37.9431843,-122.0078429
734,Daffodil Way,94518,37.9442796,-122.0089658
3527,Halfmoon Lane,94518,37.9453431,-122.0101897
730,Daffodil Way,94518,37.9440319,-122.0086319
745,Daffodil Way,94518,37.9446911,-122.0099544
3522,Halfmoon Lane,94518,37.9449793,-122.0101561
722,Daffodil Way,94518,37.9434494,-122.0081280
738,Daffodil Way,94518,37.9444589,-122.0093399
726,Daffodil Way,94518,37.9437071,-122.0083177
3518,Halfmoon Lane,94518,37.9449737,-122.0103994
742,Daffodil Way,94518,37.9447655,-122.0095216
746,Daffodil Way,94518,37.9450052,-122.0097359
3519,Halfmoon Lane,94518,37.9453244,-122.0106830
3523,Halfmoon Lane,94518,37.9453185,-122.0104515
3510,Halfmoon Lane,94518,37.9449589,-122.0108862
3502,Halfmoon Lane,94518,37.9448251,-122.0113509
3506,Halfmoon Lane,94518,37.9449001,-122.0111726
712,Daffodil Way,94518,37.9429702,-122.0075396
3471,Turner Court,94518,37.9437543,-122.0114495
3470,Turner Court,94518,37.9434123,-122.0111964
3491,Turner Court,94518,37.9438385,-122.0112459
741,Daffodil Way,94518,37.9444500,-122.0097253
733,Daffodil Way,94518,37.9440163,-122.0092454
3490,Turner Court,94518,37.9434914,-122.0110114
737,Daffodil Way,94518,37.9441260,-122.0095019
3466,Torino Court,94518,37.9459881,-122.0132228
3478,Torino Court,94518,37.9454643,-122.0131042
3475,Torino Court,94518,37.9456969,-122.0127260
3490,Torino Court,94518,37.9451031,-122.0126305
3490,Silver Spur Court,94518,37.9440285,-122.0113844
3470,Silver Spur Court,94518,37.9439545,-122.0115772
3491,Halfmoon Court,94518,37.9449309,-122.0120300
3494,Torino Court,94518,37.9450754,-122.0123279
3482,Torino Court,94518,37.9453074,-122.0129341
3487,Torino Court,94518,37.9454562,-122.0124484
3491,Silver Spur Court,94518,37.9443927,-122.0116251
3470,Torino Court,94518,37.9457995,-122.0132286
3483,Torino Court,94518,37.9455695,-122.0125858
3463,Torino Court,94518,37.9458997,-122.0126523
3454,Torino Court,94518,37.9463732,-122.0126766
3458,Torino Court,94518,37.9462620,-122.0129753
3459,Torino Court,94518,37.9461803,-122.0126260
3490,Halfmoon Court,94518,37.9445895,-122.0117660
3486,Torino Court,94518,37.9452217,-122.0127921
3462,Torino Court,94518,37.9461570,-122.0131956
3471,Silver Spur Court,94518,37.9443059,-122.0118152
3474,Torino Court,94518,37.9456395,-122.0132022
3471,Halfmoon Court,94518,37.9448722,-122.0121910
3498,Torino Court,94518,37.9451480,-122.0121706
742,Navaronne Way,94518,37.9440421,-122.0108110
746,Navaronne Way,94518,37.9441817,-122.0108934
3515,Halfmoon Lane,94518,37.9452999,-122.0109388
3511,Halfmoon Lane,94518,37.9452658,-122.0111783
3513,Halfmoon Lane,94518,37.9453898,-122.0097957
3507,Halfmoon Lane,94518,37.9452342,-122.0113927
3502,Torino Way,94518,37.9453570,-122.0117766
3503,Halfmoon Lane,94518,37.9451246,-122.0116082
3514,Torino Way,94518,37.9455999,-122.0111285
3510,Torino Way,94518,37.9455538,-122.0113683
3506,Torino Way,94518,37.9454528,-122.0116268
3534,Torino Way,94518,37.9456710,-122.0099570
3522,Torino Way,94518,37.9456148,-122.0106915
3530,Torino Way,94518,37.9456462,-122.0102499
3518,Torino Way,94518,37.9456123,-122.0109280
3526,Torino Way,94518,37.9456436,-122.0104704
3538,Torino Way,94518,37.9457299,-122.0095457
775,Terrapin Court,94518,37.9459998,-122.0121141
3529,Torino Way,94518,37.9459971,-122.0103510
789,Terrapin Court,94518,37.9466719,-122.0111349
3568,Torino Way,94518,37.9463591,-122.0100168
3550,Torino Way,94518,37.9463998,-122.0093017
3562,Torino Way,94518,37.9468678,-122.0097339
3546,Torino Way,94518,37.9462039,-122.0092135
774,Terrapin Court,94518,37.9460238,-122.0116627
785,Terrapin Court,94518,37.9466211,-122.0115821
790,Terrapin Court,94518,37.9462743,-122.0109746
787,Terrapin Court,94518,37.9466350,-122.0113583
3564,Torino Way,94518,37.9463981,-122.0098052
3541,Torino Way,94518,37.9461166,-122.0096663
3558,Torino Way,94518,37.9467945,-122.0094822
771,Terrapin Court,94518,37.9456772,-122.0120043
788,Terrapin Court,94518,37.9462594,-122.0112168
3533,Torino Way,94518,37.9460505,-122.0101032
3570,Torino Way,94518,37.9467706,-122.0101639
783,Terrapin Court,94518,37.9466014,-122.0118182
781,Terrapin Court,94518,37.9465525,-122.0120775
772,Terrapin Court,94518,37.9458541,-122.0115759
3517,Torino Way,94518,37.9459825,-122.0110756
3574,Torino Way,94518,37.9466271,-122.0103323
779,Terrapin Court,94518,37.9463293,-122.0121259
3554,Torino Way,94518,37.9465792,-122.0093873
3513,Torino Way,94518,37.9459665,-122.0112998
784,Terrapin Court,94518,37.9462384,-122.0116647
773,Terrapin Court,94518,37.9458353,-122.0120963
786,Terrapin Court,94518,37.9462396,-122.0114427
777,Terrapin Court,94518,37.9461668,-122.0121026
793,Terrapin Court,94518,37.9465728,-122.0107153
3537,Torino Way,94518,37.9460839,-122.0098866
3521,Torino Way,94518,37.9459864,-122.0108434
792,Terrapin Court,94518,37.9463492,-122.0106937
3572,Torino Way,94518,37.9463815,-122.0102761
3566,Torino Way,94518,37.9468222,-122.0099453
791,Terrapin Court,94518,37.9466856,-122.0108945
3525,Torino Way,94518,37.9460076,-122.0105741
3470,Halfmoon Court,94518,37.9445112,-122.0119697
3124,San Gabriel Drive,94518,37.9379065,-122.0191274
5050,Crystal Ranch Parkway,94521,37.9451560,-121.9840612
769,Ygnacio Woods Court,94518,37.9442353,-122.0132049
2400,Willow Pass Road,94520,37.9779129,-122.0298665
2801,Main Avenue,94519,37.9756312,-122.0260342
2020,Galindo Street,94520,37.9784331,-122.0335812
3915,La Vista Avenue,94521,37.9613510,-122.0069328
2210,Willow Pass Road,94520,37.9770493,-122.0325183
2290,Willow Pass Road,94520,37.9772818,-122.0319032
1310,Monument Boulevard,94520,37.9496995,-122.0462539
1101,Carey Drive,94520,37.9487959,-122.0503552
1097,Mohr Lane,94518-3757,37.9474055,-122.0507670
2238,Mount Diablo Street,94520,37.9797218,-122.0361211
2000,Kirker Pass Rd,94521,37.9593232,-121.9382347
2151,Salvio St,94520,37.9779963,-122.0345202
1050,Burnett Avenue,94520,37.9753944,-122.0607693
5370,Clayton Road,94521,37.9521848,-121.9592457
4290,Clayton Road,94521,37.9646372,-121.9930912
4740,Clayton Road,94521,37.9605800,-121.9817383
1425,Gasoline Alley,94520,37.9822489,-122.0461183
1435,Gasoline Alley,94520,37.9822010,-122.0455931
1455,Gasoline Alley,94520,37.9823069,-122.0449490
2401,Bisso Lane,94520,37.9824071,-122.0469506
2411,Bisso Lane,94520,37.9833151,-122.0472480
1480,Gasoline Alley,94520,37.9812356,-122.0455147
1490,Gasoline Alley,94520,37.9812989,-122.0447123
2333,Bisso Lane,94520,37.9813258,-122.0474637
1331,Concord Avenue,94520,37.9806354,-122.0483421
2372,Stanwell Circle,94520,37.9831568,-122.0486533
2336,Stanwell Circle,94520,37.9814111,-122.0486213
3020,Grant Street,94520,37.9942846,-122.0410663
3606,Clayton Road,94521,37.9692887,-122.0087444
3555,Clayton Road,94519,37.9708544,-122.0108920
2280,Monument Boulevard,94520,37.9582674,-122.0357192
1611,Clayton Road,94520,37.9705840,-122.0450035
3484,Moretti Drive,94519,37.9936414,-122.0255085
3367,Esperanza Drive,94519,37.9935118,-122.0250926
3478,Moretti Drive,94519,37.9935873,-122.0253006
3497,Moretti Drive,94519,37.9932709,-122.0256419
3490,Moretti Drive,94519,37.9936950,-122.0257003
3361,Esperanza Drive,94519,37.9931744,-122.0253717
3355,Esperanza Drive,94519,37.9930305,-122.0254528
730,Ygnacio Woods Court,94518,37.9426143,-122.0117321
734,Ygnacio Woods Court,94518,37.9427958,-122.0117885
726,Ygnacio Woods Court,94518,37.9424304,-122.0116641
713,Ygnacio Woods Court,94518,37.9417459,-122.0117985
701,Ygnacio Woods Court,94518,37.9412667,-122.0111159
709,Ygnacio Woods Court,94518,37.9415635,-122.0115690
705,Ygnacio Woods Court,94518,37.9413958,-122.0113935
714,Ygnacio Woods Court,94518,37.9418215,-122.0113191
717,Ygnacio Woods Court,94518,37.9419214,-122.0119851
718,Ygnacio Woods Court,94518,37.9420548,-122.0115361
722,Ygnacio Woods Court,94518,37.9422497,-122.0116029
738,Ygnacio Woods Court,94518,37.9429663,-122.0118631
742,Ygnacio Woods Court,94518,37.9431242,-122.0119970
746,Ygnacio Woods Court,94518,37.9433249,-122.0120374
750,Ygnacio Woods Court,94518,37.9436020,-122.0122881
754,Ygnacio Woods Court,94518,37.9437939,-122.0123584
758,Ygnacio Woods Court,94518,37.9439677,-122.0124797
762,Ygnacio Woods Court,94518,37.9441451,-122.0125732
766,Ygnacio Woods Court,94518,37.9443088,-122.0127038
770,Ygnacio Woods Court,94518,37.9444562,-122.0128605
774,Ygnacio Woods Court,94518,37.9445839,-122.0130409
778,Ygnacio Woods Court,94518,37.9447182,-122.0132152
782,Ygnacio Woods Court,94518,37.9448821,-122.0133998
769,Ygnacio Woods Court,94518,37.9443559,-122.0133263
1060,Santa Lucia Drive,94523,37.9617299,-122.0608309
3165,Treat Boulevard,94518,37.9425145,-122.0207629
1785,Pine Street,94520,37.9701080,-122.0458114
1070,San Miguel Road,94518,37.9614452,-122.0276195
4600,Clayton Road,94521-7644,37.9615319,-121.9856845
1091,Mi Casa Court,94520,37.9536279,-122.0411214
2540,East Street,94520,37.9834871,-122.0347187
5500,Lowry Court,94521,37.9578719,-121.9408959
1800,Concord Avenue,94520,37.9775835,-122.0385443
1910,Concord Avenue,94520,37.9774558,-122.0378337
1776,Grant Street,94520,37.9760361,-122.0315764
1254,Glenwood Drive,94518,37.9663734,-122.0164903
1248,Glenwood Drive,94518,37.9661612,-122.0166475
1242,Glenwood Drive,94518,37.9659842,-122.0166730
1236,Glenwood Drive,94518,37.9657680,-122.0168084
1230,Glenwood Drive,94518,37.9655462,-122.0168902
1224,Glenwood Drive,94518,37.9653627,-122.0169440
1218,Glenwood Drive,94518,37.9651766,-122.0171019
1219,Glenwood Drive,94518,37.9653146,-122.0175500
1225,Glenwood Drive,94518,37.9655053,-122.0174534
1231,Glenwood Drive,94518,37.9657367,-122.0173992
1237,Glenwood Drive,94518,37.9659155,-122.0172592
1243,Glenwood Drive,94518,37.9661037,-122.0171680
1249,Glenwood Drive,94518,37.9662956,-122.0171105
1255,Glenwood Drive,94518,37.9665367,-122.0169896
1261,Glenwood Drive,94518,37.9666958,-122.0169422
1313,Glenwood Drive,94518,37.9673057,-122.0166645
3398,Reed Way,94518,37.9675188,-122.0165986
1312,Glenwood Drive,94518,37.9671762,-122.0161704
3400,Reed Way,94518,37.9673587,-122.0160419
3401,Reed Way,94518,37.9677461,-122.0160615
3399,Reed Way,94518,37.9678272,-122.0162845
3393,Reed Way,94518,37.9678955,-122.0165183
3161,Reed Way,94518,37.9679156,-122.0167570
3155,Reed Way,94518,37.9680087,-122.0170121
3149,Reed Way,94518,37.9680683,-122.0172691
3143,Reed Way,94518,37.9681224,-122.0175114
3160,Reed Way,94518,37.9676432,-122.0170011
3407,Reed Way,94518,37.9676894,-122.0158198
3413,Reed Way,94518,37.9676377,-122.0156108
3419,Reed Way,94518,37.9675597,-122.0153689
3425,Reed Way,94518,37.9675081,-122.0151573
3431,Reed Way,94518,37.9674165,-122.0149411
1300,Craig Drive,94518,37.9670292,-122.0172707
1306,Craig Drive,94518,37.9672366,-122.0171933
1313,Craig Drive,94518,37.9675542,-122.0174996
1301,Craig Drive,94518,37.9671590,-122.0176863
1261,Craig Drive,94518,37.9669723,-122.0177886
1249,Craig Drive,94518,37.9665738,-122.0179888
1231,Craig Drive,94518,37.9659456,-122.0182423
1225,Craig Drive,94518,37.9657593,-122.0183624
1219,Craig Drive,94518,37.9655574,-122.0184258
1213,Craig Drive,94518,37.9653719,-122.0185357
1207,Craig Drive,94518,37.9651640,-122.0186055
1206,Craig Drive,94518,37.9650549,-122.0181944
1218,Craig Drive,94518,37.9654470,-122.0180176
1224,Craig Drive,94518,37.9656386,-122.0178671
1230,Craig Drive,94518,37.9658148,-122.0178371
1236,Craig Drive,94518,37.9660540,-122.0177398
1248,Craig Drive,94518,37.9664498,-122.0175025
1254,Craig Drive,94518,37.9666491,-122.0174275
3148,Reed Way,94518,37.9677747,-122.0174625
3383,Cowell Road,94518,37.9649779,-122.0177828
3401,Cowell Road,94518,37.9649740,-122.0175000
3405,Cowell Road,94518,37.9647748,-122.0172026
3367,Cowell Road,94518,37.9648134,-122.0181837
3373,Cowell Road,94518,37.9647336,-122.0178470
3403,Cowell Road,94518,37.9645767,-122.0172764
3407,Cowell Road,94518,37.9644806,-122.0169523
3425,Cowell Road,94518,37.9643227,-122.0164205
1218,Hale Drive,94518,37.9649033,-122.0162142
1230,Hale Drive,94518,37.9652896,-122.0160245
1236,Hale Drive,94518,37.9654946,-122.0159177
1242,Hale Drive,94518,37.9657344,-122.0158086
1254,Hale Drive,94518,37.9661103,-122.0156235
1260,Hale Drive,94518,37.9663216,-122.0155948
1300,Hale Drive,94518,37.9665077,-122.0154777
1306,Hale Drive,94518,37.9667039,-122.0153809
1312,Hale Drive,94518,37.9669339,-122.0152419
1318,Hale Drive,94518,37.9671120,-122.0151939
1319,Hale Drive,94518,37.9672412,-122.0156570
3405,Clayton Road,94519,37.9717977,-122.0146663
3399,Clayton Road,94519,37.9720489,-122.0151879
1965,Colfax Street,94520,37.9780630,-122.0325593
1825,Galindo Street,94520,37.9753407,-122.0354421
3039,Willow Pass Road,94519,37.9812362,-122.0224654
