House number,Street name,Postal code,Latitude,Longitude
12320,Paramount Boulevard,90242,33.9267485,-118.1484235
12348,Paramount Boulevard,90242,33.9273701,-118.1483309
10010,Paramount Boulevard,90240,33.9543328,-118.1290890
8136,Telegraph Boulevard,90240,33.9673059,-118.1166172
8201,4th St,90241,33.9436675,-118.1326386
7940 1/2,2nd Street,90241,33.9441552,-118.1390406
8221 #101,3rd Street,90241,33.9425275,-118.1328566
7340,Firestone Boulevard,90241,33.9461862,-118.1502870
8060,Florence Avenue,90240,33.9524124,-118.1283650
7356,Stewart and Gray Road,90241,33.9401707,-118.1547180
8132,Firestone Blvd PH-4,92041,33.9413019,-118.1357914
8422,Telegraph Road,90240,33.9627710,-118.1123580
7840,Firestone Boulevard,90241,33.9439956,-118.1407665
9001,Apollo Way,90242,33.9243299,-118.1288772
7400,Florence Avenue,90240,33.9580707,-118.1405977
8626,Firestone Boulevard,90241,33.9360482,-118.1271470
8588,Firestone Boulevard,90241,33.9372228,-118.1284290
8500,Firestone Boulevard,90241,33.9378024,-118.1295240
8510,Firestone Boulevard,90241,33.9377316,-118.1293750
12140,Lakewood Blvd,90242,33.9254439,-118.1307651
12149,Downey Avenue,90242,33.9283848,-118.1419323
8133,Firestone Boulevard,90241,33.9416441,-118.1355924
11445,Paramount Boulevard,90241,33.9406619,-118.1398840
8335,Firestone Blvd,90241,33.9397261,-118.1319390
10335,Lakewood Boulevard,90241,33.9454232,-118.1189013
12808,Woodruff Avenue,90242,33.9151899,-118.1153534
9090,Apollo Way,90242,33.9221222,-118.1278326
10227,Lakewood Boulevard,90241-2741,33.9471664,-118.1181842
12145,Woodruff Avenue,90241,33.9232277,-118.1175768
12145,Woodruff Avenue,90241,33.9231528,-118.1170677
12145,Woodruff Avenue,90241,33.9232999,-118.1181258
8901,Apollo Way,90242,33.9229473,-118.1313602
9125,Imperial Highway,90242,33.9178966,-118.1337205
9066,Firestone Boulevard,90241,33.9337403,-118.1230406
8333,Iowa Street,90241,33.9375878,-118.1338147
8333,Iowa Street,90241,33.9377442,-118.1337013
9655,Firestone Boulevard,90241,33.9293314,-118.1107746
9655,Firestone Boulevard,90241,33.9292299,-118.1106113
9655,Firestone Boulevard,90241,33.9291284,-118.1104479
9655,Firestone Boulevard,90241,33.9290268,-118.1102845
9715,Firestone Boulevard,90241,33.9287674,-118.1097347
9715,Firestone Boulevard,90241,33.9288576,-118.1099075
10208,Lakewood Boulevard,90241,33.9471152,-118.1170576
7839,Firestone Boulevard,90241,33.9448733,-118.1410855
7841,Firestone Boulevard,90241,33.9447742,-118.1409354
7363,Florence Avenue,90240,33.9594027,-118.1407078
7371,Florence Avenue,90240,33.9592848,-118.1404718
7355,Florence Avenue,90240,33.9593109,-118.1405262
7433,Florence Avenue,90240,33.9587009,-118.1394303
10014,Paramount Boulevard,90240-3808,33.9541366,-118.1292613
7840,Imperial Highway,90242,33.9254299,-118.1551647
12018,Lakewood Boulevard,90242,33.9276044,-118.1288634
12020,Lakewood Boulevard,90242,33.9276537,-118.1290684
8900,Apollo Way,90242,33.9224945,-118.1308043
8890,Apollo Way,90242,33.9222290,-118.1315477
8896,Apollo Way,90242,33.9221261,-118.1315359
9073,Gardendale Street,90242,33.9101740,-118.1409106
12830,Columbia Way,90242,33.9145642,-118.1328128
11985,Old River School Road,90242,33.9392989,-118.1578507
251,Stonewood Street,90241,33.9357606,-118.1198138
10627,Old River School Road,90241,33.9553227,-118.1488833
7801,East Imperial Highway,90242,33.9291815,-118.1578705
9150,East Imperial Highway,90242,33.9161947,-118.1319744
9300,Imperial Highway,90242,33.9162509,-118.1290366
9501,East Imperial Highway,90242,33.9173219,-118.1248135
7295,Quill Drive,90242,33.9372767,-118.1613149
12400,Columbia Way,90242,33.9195225,-118.1324271
8613,Alameda Street,90242,33.9257937,-118.1350642
12500,Birchdale Avenue,90242,33.9202011,-118.1379807
10419,Rives Avenue,90241,33.9533915,-118.1374982
7731,Muller Street,90241,33.9517267,-118.1387087
11655,Lakewood Boulevard,90241,33.9307103,-118.1280850
11500,Brookshire Avenue,90241,33.9350593,-118.1306052
12256,Paramount Boulevard,90242,33.9287675,-118.1479114
12270,Paramount Boulevard,90242,33.9281422,-118.1477398
10207,Lakewood Boulevard,90240,33.9474108,-118.1178761
7447,Firestone Boulevard,90241,33.9477095,-118.1471109
1111,Brookshire Avenue,90241,33.9404180,-118.1285324
11040,Brookshire Avenue,90241,33.9394523,-118.1258777
8425,Firestone Boulevard,90241,33.9396048,-118.1303705
11102,Lakewood Boulevard,90241,33.9361528,-118.1231791
9125,Arrington Avenue,90240,33.9561846,-118.1112199
11856,Old River School Road,90241,33.9403315,-118.1536501
11856,Old River School Road,90241,33.9405477,-118.1535021
12222,Paramount Boulevard,90242,33.9293850,-118.1474464
7740,Firestone Boulevard,90241,33.9449320,-118.1426894
7510,Firestone Boulevard,90241,33.9465735,-118.1464290
7550,Firestone Boulevard,90241,33.9460885,-118.1455184
7676,Firestone Boulevard,90241,33.9455481,-118.1444764
8320,Iowa Street,90241,33.9372359,-118.1341176
8327,Davis Street,90241,33.9364559,-118.1339436
8332,Iowa Street,90241,33.9368986,-118.1335180
11525,Brookshire Avenue,90241,33.9356163,-118.1321362
11846,Downey Avenue,90241,33.9320874,-118.1382289
11627,Brookshire Avenue,90241,33.9349531,-118.1328411
11510,Downey Avenue,90241,33.9372356,-118.1345960
8317,Davis Street,90241,33.9367430,-118.1343867
11411,Brookshire Avenue,90241,33.9364783,-118.1313399
11516,Downey Avenue,90241,33.9371097,-118.1347131
7200,Firestone Boulevard,90241,33.9472872,-118.1543326
7230,Firestone Boulevard,90241,33.9464558,-118.1540272
7360,Firestone Boulevard,90241,33.9467970,-118.1497911
7322,Firestone Boulevard,90241,33.9468443,-118.1508849
7360,Firestone Boulevard,90241,33.9465620,-118.1498165
7905,East Imperial Highway,90242,33.9253717,-118.1540306
7911,Imperial Highway,90242,33.9252835,-118.1534194
7957,Imperial Highway,90242-3434,33.9248931,-118.1527935
7948,Quill Drive,90242,33.9272555,-118.1511483
7840,Firestone Boulevard,90241,33.9437144,-118.1410288
7814,Firestone Boulevard,90241,33.9440134,-118.1420269
11625,Paramount Boulevard,90241,33.9384503,-118.1414333
11555,Paramount Boulevard,90241,33.9392039,-118.1408486
11405,Paramount Boulevard,90241,33.9416658,-118.1391632
8502,Alameda Street,90242,33.9260323,-118.1385229
11905,Paramount Boulevard,90242,33.9346148,-118.1443094
12161,Paramount Boulevard,90242,33.9304689,-118.1474376
12215,Paramount Boulevard,90242,33.9300501,-118.1478335
12110,Pomering Road,90242,33.9352943,-118.1550776
12110,Pomering Road,90242,33.9354364,-118.1554509
7400,Stewart and Gray Road,90241,33.9397675,-118.1539954
12056,Paramount Boulevard,90242,33.9319850,-118.1454513
8130,Stewart and Gray Road,90241,33.9333614,-118.1420500
11946,Paramount Boulevard,90242,33.9334698,-118.1444916
10601,Paramount Boulevard,90241,33.9482881,-118.1342248
10841,Paramount Boulevard,90241,33.9456458,-118.1361860
10631,Paramount Boulevard,90241,33.9477619,-118.1346726
7955,Firestone Boulevard,90241,33.9433023,-118.1384929
10805,Paramount Boulevard,90241,33.9465031,-118.1355960
10711,Paramount Boulevard,90241,33.9473215,-118.1349783
10821,Paramount Boulevard,90241,33.9461183,-118.1359054
11025,Paramount Boulevard,90241,33.9440053,-118.1373679
11025,Paramount Boulevard,90241,33.9438858,-118.1374917
7811,Firestone Boulevard,90241,33.9449775,-118.1416634
8301,Imperial Highway,90242,33.9215478,-118.1464149
8321,Imperial Highway,90242,33.9213815,-118.1458970
12382,Downey Avenue,90242,33.9237829,-118.1440145
8417,Imperial Highway,90242,33.9205846,-118.1445344
11853,Downey Avenue,90241-5169,33.9325445,-118.1387962
8008,Firestone Boulevard,90241,33.9418562,-118.1379316
11531,Downey Avenue,90241,33.9370388,-118.1357476
8028,Firestone Boulevard,90241,33.9419366,-118.1371013
8150,Nance Street,90241,33.9402627,-118.1356632
11414,Paramount Boulevard,90241,33.9410847,-118.1387820
11858,Paramount Boulevard,90242,33.9349750,-118.1433112
8104,Firestone Boulevard,90241,33.9416940,-118.1366489
7665,Firestone Boulevard,90241,33.9458529,-118.1432707
7737,Firestone Boulevard,90241,33.9453504,-118.1422246
11022,Old River School Road,90241,33.9490006,-118.1470618
7651,Firestone Boulevard,90241,33.9459820,-118.1434852
7407,Firestone Boulevard,90241,33.9476918,-118.1482915
7707,Firestone Boulevard,90241,33.9456783,-118.1429175
7649,Firestone Boulevard,90241,33.9461316,-118.1436386
7539,Firestone Boulevard,90241,33.9472016,-118.1453418
7414,Florence Avenue,90240,33.9583088,-118.1402524
7502,Florence Avenue,90240,33.9572390,-118.1389487
7410,Florence Avenue,90240,33.9584970,-118.1405237
10335,Paramount Boulevard,90241,33.9516227,-118.1319147
10551,Paramount Boulevard,90241,33.9488549,-118.1337876
10535,Paramount Boulevard,90241,33.9492183,-118.1335100
10229,Paramount Boulevard,90241,33.9529638,-118.1309421
10323,Paramount Boulevard,90241,33.9518826,-118.1315822
10727,Downey Avenue,90241,33.9444759,-118.1305693
8041,Firestone Boulevard,90241,33.9424469,-118.1366284
13235,Woodruff Avenue,90242,33.9106463,-118.1170815
7401,Florence Avenue,90240,33.9591017,-118.1400561
7439,Florence Avenue,90240,33.9586079,-118.1391168
7865,East Florence Avenue,90240,33.9548600,-118.1320870
7707,Florence Avenue,90240,33.9566211,-118.1351009
7877,Florence Avenue,90240,33.9547675,-118.1318589
9813,Paramount Boulevard,90240,33.9566887,-118.1281785
7915,Florence Avenue,90240,33.9550478,-118.1307591
7947,Florence Avenue,90240,33.9539241,-118.1301347
8022,Florence Avenue,90240,33.9529026,-118.1294013
10200,Paramount Boulevard,90241,33.9531494,-118.1298269
10230,Paramount Boulevard,90241,33.9524923,-118.1302829
10544,Downey Avenue,90241,33.9462478,-118.1285109
9026,Florence Avenue,90241,33.9468305,-118.1165559
10226,Lakewood Boulevard,90241,33.9464832,-118.1172347
10207,Vultee Avenue,90241,33.9467884,-118.1163787
10208,Lakewood Boulevard,90241,33.9469568,-118.1170196
9706,Telegraph Road,90240,33.9512705,-118.0967100
9020,Telegraph Road,90240,33.9603286,-118.1096890
9706,Telegraph Road,90240,33.9514443,-118.0965692
9000,Telegraph Road,90240,33.9604356,-118.1099163
12820,Woodruff Avenue,90242,33.9147053,-118.1160677
12808,Woodruff Avenue,90242,33.9156932,-118.1152501
14305,Lakewood Boulevard,90723,33.9033864,-118.1433310
8852,Rosecrans Avenue,90723,33.9034518,-118.1444348
8830,Rosecrans Avenue,90723,33.9035293,-118.1448850
8852,Rosecrans Avenue,90723,33.9035080,-118.1447540
8855,Rosecrans Avenue,90242,33.9041664,-118.1436273
14329,Lakewood Boulevard,90723,33.9029368,-118.1432905
9565,Firestone Boulevard,90241,33.9301576,-118.1119752
12428,Benedict Avenue,90242,33.9179780,-118.1186732
9070,Firestone Boulevard,90241,33.9341934,-118.1222973
9002,Firestone Boulevard,90241,33.9352108,-118.1238490
12254,Bellflower Boulevard,90242,33.9214458,-118.1246559
12200,Bellflower Boulevard,90242,33.9224789,-118.1245704
9777,Seaaca Street,90241,33.9223877,-118.1123543
9438,E. Firestone Blvd.,90241,33.9310444,-118.1156859
11269,Regentview Avenue,90241,33.9279078,-118.1126646
12147,Lakewood Boulevard,90242,33.9241593,-118.1328448
8580,Firestone Boulevard,90241,33.9366474,-118.1285747
11420,Brookshire Avenue,90241,33.9362712,-118.1298079
11480,Brookshire Avenue,90241,33.9358125,-118.1303448
9200,Lakewood Boulevard,90240,33.9555250,-118.1122112
9001,Paramount Boulevard,90240,33.9634618,-118.1228408
10037,Lakewood Boulevard,90240,33.9479290,-118.1174604
9551,Lakewood Boulevard,90240,33.9534893,-118.1144249
8801,Lakewood Boulevard,90240,33.9610858,-118.1107636
8140,Telegraph Road,90240,33.9671957,-118.1167170
8036,Telegraph Road,90240,33.9684608,-118.1176225
8140,Telegraph Road,90240,33.9670553,-118.1163456
8863,Lakewood Boulevard,90240,33.9594607,-118.1112589
8114,Telegraph Road,90240,33.9675648,-118.1168739
8100,Telegraph Road,90240,33.9678464,-118.1170815
13200,Columbia Way,90242,33.9117755,-118.1337074
12801,Bellflower Boulevard,90242,33.9154556,-118.1257079
9110,Imperial Highway,90242,33.9167983,-118.1336681
10801,Fairford Avenue,90241,33.9350800,-118.0952829
9341,Firestone Boulevard,90241,33.9323070,-118.1164785
9475,Firestone Boulevard,90241,33.9310240,-118.1139521
9305,Firestone Boulevard,90241,33.9326854,-118.1173022
9435,Firestone Boulevard,90241,33.9317181,-118.1152247
300,Stonewood Street,90241,33.9363851,-118.1186831
9323,Firestone Boulevard,90241,33.9324493,-118.1167092
9305,Firestone Boulevard,90241,33.9326018,-118.1170770
9030,Cecilia Street,90241,33.9380464,-118.1206740
7075,Firestone Boulevard,90241,33.9486031,-118.1569286
7127,East Firestone Boulevard,90241,33.9482309,-118.1555296
7121,Firestone Boulevard,90241,33.9498684,-118.1555150
7171,Firestone Boulevard,90241,33.9485256,-118.1548645
11258,Garfield Avenue,90242,33.9249921,-118.1689369
7500,Flores Street,90242,33.9257625,-118.1622329
7373,Flores Street,90242,33.9259534,-118.1672190
7500,Imperial Highway,90242,33.9273578,-118.1600583
7400,Imperial Highway,90242,33.9278489,-118.1615542
7475,Flores Street,90242,33.9265890,-118.1657586
8613,Firestone Boulevard,90241,33.9375414,-118.1269957
8767,Firestone Boulevard,90241,33.9360892,-118.1242637
12400,Columbia Way,90242,33.9198282,-118.1336438
11500,Lakewood Boulevard,90241,33.9326526,-118.1257594
11611,Bellflower Boulevard,90241,33.9308070,-118.1258438
12118,Lakewood Boulevard,90242,33.9255662,-118.1292328
12126,Lakewood Boulevard,90242,33.9254998,-118.1298277
12351,Bellflower Boulevard,90242,33.9192066,-118.1260783
9111,Imperial Highway,90242,33.9173941,-118.1337731
12323,Bellflower Boulevard,90242,33.9203488,-118.1260599
11610,Lakewood Boulevard,90241,33.9312724,-118.1258067
9093,Imperial Highway,90242,33.9173780,-118.1344922
12365,Bellflower Boulevard,90242,33.9203356,-118.1270152
10999,Little Lake Road,90241,33.9360953,-118.1019455
9612,Ardine Street,90241,33.9311487,-118.1090972
7000,Dinwiddie Street,90241,33.9520864,-118.1573655
9300,South Bluff Rd,90240,33.9678578,-118.1309103
9300,Bluff Road,90240,33.9677996,-118.1310081
9300,Bluff Road,90240,33.9667366,-118.1334478
9300,Bluff Road,90240,33.9667050,-118.1332925
9633,Tweedy Lane,90240,33.9593794,-118.1306293
9525,Tweedy Lane,90240,33.9605496,-118.1288100
9236,Lakewood Boulevard,90240,33.9548248,-118.1129732
9250,Lakewood Boulevard,90240,33.9543855,-118.1131376
9588,Lakewood Boulevard,90240,33.9530532,-118.1134645
8800,Apollo Way,90242,33.9220352,-118.1334131
8801,Apollo Way,90242,33.9227774,-118.1329095
9001,Apollo Way,90242,33.9244630,-118.1285984
9333,East Imperial Highway,90242,33.9192450,-118.1280685
12214,Lakewood Boulevard,90242,33.9228296,-118.1306841
7285,Quill Drive,90242,33.9376521,-118.1634625
9511,Firestone Boulevard,90241,33.9308249,-118.1134428
9001,Lindsey Avenue,90240,33.9560331,-118.1078316
9513,Brookshire Avenue,90240,33.9557332,-118.1180297
10301,Woodruff Avenue,90241,33.9422932,-118.1128796
9338,Gotham Street,90241,33.9377085,-118.1122271
8141,De Palma Street,90241,33.9370725,-118.1400672
8955,Apollo Way,90242,33.9244662,-118.1299435
10839,La Reina Avenue,90241,33.9441717,-118.1328733
8133,Imperial Highway,90242,33.9231937,-118.1479401
7851,Gardendale Street,90242,33.9191876,-118.1594553
7321,Firestone Boulevard,90241,33.9480461,-118.1518986
11215,Lakewood Boulevard,90241-5204,33.9348151,-118.1252029
13220,Bellflower Boulevard,90242,33.9107267,-118.1242410
9506,Imperial Highway,90242,33.9166501,-118.1251057
13210-13228,Woodruff Avenue,90242,33.9111142,-118.1160719
7954,Imperial Highway,90242,33.9242255,-118.1528277
9724,Spry Street,90242,33.9196983,-118.1199179
10000,Imperial Highway,90242,33.9156776,-118.1134158
7530,Arnett Street,90241,33.9440386,-118.1488124
10441,Downey Avenue,90241,33.9489020,-118.1282556
7651,Gardendale Street,90242,33.9206269,-118.1624012
11136,Dollison Drive,90241,33.9345646,-118.0960362
10645,Studebaker Road,90241,33.9365175,-118.0976062
11111,Florence Avenue,90241,33.9375875,-118.0959725
9999,Imperial Highway,90242,33.9182805,-118.1134617
11995,Old River School Road,90242,33.9377255,-118.1571102
7301,Florence Avenue,90240,33.9603747,-118.1423003
7300,Flores Street,90242,33.9245959,-118.1661444
7117,Stewart and Gray Road,90241,33.9438525,-118.1599023
7011,Stewart and Gray Road,90241,33.9452202,-118.1624690
9060,Imperial Highway,90242,33.9164672,-118.1353393
13032,Columbia Way,90242,33.9124106,-118.1328270
12848-12906,Lakewood Boulevard,90242,33.9120646,-118.1405919
10040,Imperial Highway,90242,33.9156382,-118.1121978
10050,Imperial Highway,90242,33.9156510,-118.1117675
12145,Woodruff Avenue,90241,33.9232929,-118.1178731
12245,Woodruff Avenue,90241,33.9215219,-118.1178553
12302,Bellflower Boulevard,90242,33.9203387,-118.1247283
12535,Brookshire Avenue,90242,33.9210511,-118.1434436
8150,Nance Street,90241,33.9398939,-118.1349073
9612,Ardine Street,90241,33.9299283,-118.1083092
11115,Pangborn Avenue,90241,33.9312509,-118.1139817
7515,Firestone Boulevard,90241,33.9473308,-118.1459057
7878,Telegraph Road,90240,33.9711782,-118.1210682
8900,Imperial Highway,90242,33.9166446,-118.1384334
9000,Telegraph Road,90240,33.9604611,-118.1099885
12425,Orizaba Avenue,90242,33.9247515,-118.1485653
12565,Downey Avenue,90242,33.9219707,-118.1471501
11500,Dolan Avenue,90241,33.9363748,-118.1330501
7207,Stewart and Gray Road,90241,33.9426227,-118.1578547
7157,Stewart and Gray Road,90241,33.9428376,-118.1582704
7137,Stewart and Gray Road,90241,33.9432791,-118.1591056
7147,Stewart and Gray Road,90241,33.9430584,-118.1586873
10511,Paramount Boulevard,90241,33.9500917,-118.1333758
10354,Downey Avenue,90241,33.9490682,-118.1266688
9300,Telegraph Road,90240,33.9566839,-118.1047935
9403,Firestone Boulevard,90241,33.9321121,-118.1160487
9415,Firestone Boulevard,90241,33.9318938,-118.1155926
10911,Brookshire Avenue,90241,33.9409813,-118.1285908
10025,Imperial Highway,90242,33.9184325,-118.1126525
