House number,Street name,Postal code,Latitude,Longitude
100,Civic Plaza,94568,37.7041487,-121.9175203
7100,Dougherty Road,94568,37.7189461,-121.9105733
7120,Dublin Boulevard,94568,37.7055739,-121.9228300
7840,Amador Valley Boulevard,94568,37.7058214,-121.9343846
4895,Hacienda Drive,94568,37.7049114,-121.8875280
6400,Dublin Boulevard,94568,37.7044468,-121.9097562
6401,Dublin Boulevard,94568,37.7048559,-121.9103352
5933,Dougherty Road,94568,37.7054824,-121.9095650
6955,Village Parkway,94568,37.7080334,-121.9248540
4800,Fallon Road,94568,37.7149472,-121.8544339
7194,Village Parkway,94568,37.7097202,-121.9272150
2820,Dublin Boulevard,94568,37.7037066,-121.8535993
3620,Fallon Road,94538,37.7027118,-121.8516307
4620,Tassajara Road,94568,37.7080160,-121.8724680
4640,Tassajara Road,94568,37.7079929,-121.8731456
4480,Tassajara Road,94568,37.7078159,-121.8738480
4200,John Monego Court,94568,37.7022950,-121.8776245
7001,Dublin Boulevard,94568,37.7057854,-121.9191122
4520,Dublin Boulevard,94568,37.7054184,-121.8803542
4800,Tassajara Road,94568,37.7088430,-121.8733424
7499,Dublin Boulevard,94568,37.7055000,-121.9264410
3712,Dublin Boulevard,94568,37.7049944,-121.8661050
7410,Amador Valley Boulevard,94568,37.7095572,-121.9279946
6300,Dublin Boulevard,94568,37.7048551,-121.9078936
6450,Dublin Court,94568,37.7027075,-121.9111873
6867,Dublin Boulevard,94568,37.7052402,-121.9178765
4400,Tassajara Road,94568,37.7059679,-121.8725941
4400,John Monego Court,94568,37.7047172,-121.8773425
4550,Tassajara Road,94568,37.7074407,-121.8729620
3662,Fallon Road,94568,37.7032166,-121.8514120
4300,John Monego Court,94568,37.7033208,-121.8772931
7121,Dublin Boulevard,94568,37.7061959,-121.9222600
6601,Dublin Boulevard,94568,37.7044660,-121.9116030
3740,Fallon Road,94568,37.7039256,-121.8512310
3762,Fallon Road,94568,37.7043858,-121.8514421
3772,Fallon Road,94568,37.7043850,-121.8517332
3734,Fallon Road,94568,37.7037414,-121.8512015
7373,Village Parkway,94568-2031,37.7116879,-121.9264149
4101,Dublin Boulevard,94568,37.7061677,-121.8742682
6091,Dublin Boulevard,94568,37.7063130,-121.9056314
6701,Amador Plaza Road,94568,37.7031830,-121.9253270
7557,Amador Valley Boulevard,94568,37.7097126,-121.9297874
7557,Amador Valley Boulevard,94568,37.7096654,-121.9300041
6599 Ste N,Dublin Boulevard,94568,37.7047938,-121.9111028
4460,Tassajara Road,94568,37.7072015,-121.8738682
11501,Dublin Avenue,94568,37.6991156,-121.9440022
6457,Dublin Court,94568,37.7036673,-121.9094620
5945,Dougherty Road,94568,37.7059686,-121.9095703
4460,Tassajara Road,94568,37.7072853,-121.8738500
6117,Dougherty Road,94568,37.7073918,-121.9096626
6800,Sierra Court,94568,37.7106703,-121.9144413
3328,Ridgefield Way,94568,37.7121839,-121.8647074
4907,Grayhawk Court,94568,37.7161712,-121.8553065
4950,Grayhawk Court,94568,37.7167177,-121.8553838
5008,Grayhawk Lane,94568,37.7170878,-121.8550456
5022,Grayhawk Lane,94568,37.7172503,-121.8549524
5058,Grayhawk Lane,94568,37.7176031,-121.8549844
5059,Grayhawk Lane,94568,37.7176861,-121.8546026
5148,Grayhawk Lane,94568,37.7182833,-121.8553619
2898,Southwind Lane,94568,37.7186638,-121.8549524
2833,Poppy Hills Lane,94568,37.7185796,-121.8539409
2827,Southwind Lane,94568,37.7193186,-121.8542062
5080,Royal Pines Way,94568,37.7177564,-121.8540094
5107,Royal Pines Way,94568,37.7180089,-121.8536057
5037,Royal Pines Way,94568,37.7171973,-121.8536086
5013,Royal Pines Way,94568,37.7169045,-121.8536961
4969,Royal Pines Court,94568,37.7163142,-121.8540750
4936,Royal Pines Court,94568,37.7162173,-121.8546215
4902,Royal Pines Court,94568,37.7159631,-121.8548562
4771,Piper Glen Terrace,94568,37.7152583,-121.8514341
4785,Piper Glen Terrace,94568,37.7153907,-121.8513650
4827,Piper Glen Terrace,94568,37.7157908,-121.8511903
4855,Piper Glen Terrace,94568,37.7160786,-121.8511685
4869,Piper Glen Terrace,94568,37.7162225,-121.8512012
4897,Piper Glen Terrace,94568,37.7164931,-121.8513104
4943,Piper Glen Terrace,94568,37.7169191,-121.8514487
4983,Piper Glen Terrace,94568,37.7173249,-121.8515797
5007,Piper Glen Terrace,94568,37.7176013,-121.8516888
5045,Piper Glen Terrace,94568,37.7179812,-121.8519290
5081,Piper Glen Terrace,94568,37.7183065,-121.8524275
5089,Piper Glen Terrace,94568,37.7182892,-121.8526276
5090,Piper Glen Terrace,94568,37.7180301,-121.8526676
5074,Piper Glen Terrace,94568,37.7180273,-121.8523474
5034,Piper Glen Terrace,94568,37.7178114,-121.8521509
2735,Eagles Landing Court,94568,37.7177106,-121.8528387
2683,Kilbride Lane North,94568,37.7170975,-121.8518708
4926,Stonehaven Lane,94568,37.7165852,-121.8529114
4873,Landmark Way,94568,37.7161045,-121.8522164
4889,Landmark Way,94568,37.7162715,-121.8522346
4916,Piper Glen Terrace,94568,37.7165679,-121.8516779
4808,Piper Glen Terrace,94568,37.7156325,-121.8515542
4820,Landmark Way,94568,37.7155116,-121.8521837
5670,Cog Hill Terrace West,94568,37.7229953,-121.8570437
5662,Cog Hill Terrace West,94568,37.7228511,-121.8570470
5656,Cog Hill Terrace West,94568,37.7226991,-121.8570567
5632,Castle Pines Terrace West,94568,37.7225626,-121.8570567
2982,Castle Pines Terrace West,94568,37.7224003,-121.8567962
2976,Castle Pines Terrace West,94568,37.7224209,-121.8566138
2968,Castle Pines Terrace West,94568,37.7224106,-121.8564249
2956,Castle Pines Terrace West,94568,37.7224003,-121.8562491
2938,Castle Pines Terrace West,94568,37.7223848,-121.8560765
2926,Castle Pines Terrace West,94568,37.7223694,-121.8558811
2912,Castle Pines Terrace West,94568,37.7223642,-121.8557117
2900,Castle Pines Terrace West,94568,37.7223539,-121.8555196
2981,Cog Hill Terrace West,94568,37.7227429,-121.8566562
2969,Castle Pines Terrace West,94568,37.7227094,-121.8564640
2957,Castle Pines Terrace West,94568,37.7227094,-121.8562836
2939,Castle Pines Terrace West,94568,37.7226914,-121.8561025
2927,Castle Pines Terrace West,94568,37.7226810,-121.8559267
2913,Castle Pines Terrace West,94568,37.7226604,-121.8557508
5574,Signal Hill Drive,94568,37.7226604,-121.8553828
5610,Signal Hill Drive,94568,37.7228562,-121.8553470
5626,Signal Hill Drive,94568,37.7230005,-121.8553424
2925,Innisbrook Way,94568,37.7219160,-121.8557834
2937,Innisbrook Way,94568,37.7219314,-121.8559918
2951,Innisbrook Way,94568,37.7219520,-121.8561807
2973,Innisbrook Way,94568,37.7219598,-121.8563728
2987,Innisbrook Way,94568,37.7219829,-121.8565747
2999,Innisbrook Way,94568,37.7219984,-121.8567701
3003,Innisbrook Way,94568,37.7220396,-121.8569525
5536,Eaglebrook Terrace,94568,37.7219531,-121.8572218
5522,Eaglebrook Terrace,94568,37.7218011,-121.8572641
5516,Eaglebrook Terrace,94568,37.7216568,-121.8573390
5508,Eaglebrook Terrace,94568,37.7214945,-121.8574230
5500,Eaglebrook Terrace,94568,37.7213529,-121.8574986
5488,Eaglebrook Terrace,94568,37.7212034,-121.8575800
5476,Eaglebrook Terrace,94568,37.7210695,-121.8576614
5452,Eaglebrook Terrace,94568,37.7209201,-121.8577559
5428,Eaglebrook Terrace,94568,37.7207758,-121.8578308
5406,Eaglebrook Terrace,94568,37.7206496,-121.8578927
5382,Eaglebrook Terrace,94568,37.7204770,-121.8579448
5370,Eaglebrook Terrace,94568,37.7203276,-121.8579285
5362,Eaglebrook Terrace,94568,37.7201576,-121.8578829
5340,Eaglebrook Terrace,94568,37.7200133,-121.8578015
5326,Eaglebrook Terrace,94568,37.7198871,-121.8577038
5312,Eaglebrook Terrace,94568,37.7197505,-121.8575637
5300,Eaglebrook Terrace,94568,37.7196217,-121.8574237
3018,Sugar Hill Terrace West,94568,37.7195728,-121.8572478
3012,Sugar Hill Terrace West,94568,37.7196372,-121.8570101
3006,Sugar Hill Terrace West,94568,37.7197196,-121.8568277
2998,Sugar Hill Terrace West,94568,37.7197892,-121.8565802
3986,Sugar Hill Terrace West,94568,37.7198072,-121.8563197
3009,Sugar Hill Terrace West,94568,37.7199489,-121.8570264
3015,Sugar Hill Terrace West,94568,37.7198922,-121.8571957
5327,Eaglebrook Terrace,94568,37.7200957,-121.8574791
5369,Eaglebrook Terrace,94568,37.7202580,-121.8575800
5387,Eaglebrook Terrace,94568,37.7205156,-121.8576061
5425,Eaglebrook Terrace,94568,37.7206728,-121.8575279
5453,Eaglebrook Terrace,94568,37.7208222,-121.8574302
5475,Eaglebrook Terrace,94568,37.7209664,-121.8573586
5487,Eaglebrook Terrace,94568,37.7211004,-121.8572804
5380,Hazeltine Lane,94568,37.7210824,-121.8569287
5376,Hazeltine Lane,94568,37.7210515,-121.8567235
5338,Hazeltine Lane,94568,37.7209716,-121.8564174
5332,Hazeltine Lane,94568,37.7208119,-121.8563457
5328,Hazeltine Lane,94568,37.7206393,-121.8563099
5316,Hazeltine Lane,94568,37.7204950,-121.8562643
5310,Hazeltine Lane,94568,37.7203199,-121.8562317
5302,Hazeltine Lane,94568,37.7201344,-121.8561894
5337,Blairmore Place,94568,37.7201009,-121.8566974
5355,Blairmore Place,94568,37.7202761,-121.8566974
5367,Blairmore Place,94568,37.7204280,-121.8567105
5385,Blairmore Place,94568,37.7205826,-121.8567430
5399,Blairmore Place,94568,37.7206985,-121.8568863
5398,Blairmore Place,94568,37.7206985,-121.8570524
5386,Blairmore Place,94568,37.7205053,-121.8571957
5360,Blairmore Place,94568,37.7203250,-121.8570622
3000,Innisbrook Way,94568,37.7217058,-121.8569059
5389,Hazeltine Lane,94568,37.7213786,-121.8570589
5381,Hazeltine Lane,94568,37.7213503,-121.8568570
5373,Hazeltine Lane,94568,37.7213194,-121.8566356
5365,Hazeltine Lane,94568,37.7213013,-121.8564532
5357,Hazeltine Lane,94568,37.7212782,-121.8562448
5351,Hazeltine Lane,94568,37.7211700,-121.8561015
5339,Hazeltine Lane,94568,37.7210231,-121.8560819
5333,Hazeltine Lane,94568,37.7208325,-121.8560494
5325,Hazeltine Lane,94568,37.7206805,-121.8559972
5317,Hazeltine Lane,94568,37.7205105,-121.8559517
5309,Hazeltine Lane,94568,37.7203379,-121.8559061
2955,Sugar Hill Terrace West,94568,37.7200571,-121.8557660
2929,Sugar Hill Terrace West,94568,37.7200829,-121.8555674
2903,Sugar Hill Terrace West,94568,37.7201189,-121.8553622
5336,Signal Hill Drive,94568,37.7204306,-121.8553882
5358,Signal Hill Drive,94568,37.7205775,-121.8554534
5372,Signal Hill Drive,94568,37.7207449,-121.8554990
5396,Signal Hill Drive,94568,37.7209124,-121.8555348
5408,Signal Hill Drive,94568,37.7210824,-121.8555706
5426,Signal Hill Drive,94568,37.7212550,-121.8555674
5438,Signal Hill Drive,94568,37.7214018,-121.8555902
5450,Signal Hill Drive,94568,37.7215486,-121.8555999
2928,Innisbrook Way,94568,37.7216568,-121.8558930
2950,Innisbrook Way,94568,37.7216594,-121.8561047
2966,Innisbrook Way,94568,37.7216800,-121.8563066
2980,Innisbrook Way,94568,37.7216903,-121.8564890
2992,Innisbrook Way,94568,37.7217109,-121.8567137
2902,Sable Oaks Way,94568,37.7208749,-121.8550478
2853,Sugar Hill Terrace East,94568,37.7204087,-121.8547840
2835,Sugar Hill Terrace East,94568,37.7205040,-121.8545723
2831,Sugar Hill Terrace East,94568,37.7206689,-121.8542499
2823,Sugar Hill Terrace East,94568,37.7207874,-121.8540317
2819,Sugar Hill Terrace East,94568,37.7209162,-121.8538396
2811,Sugar Hill Terrace East,94568,37.7210295,-121.8536572
2797,Sugar Hill Terrace East,94568,37.7211841,-121.8534813
2789,Sugar Hill Terrace East,94568,37.7213206,-121.8532990
2783,Sugar Hill Terrace East,94568,37.7214752,-121.8531361
2775,Sugar Hill Terrace East,94568,37.7216735,-121.8530221
2767,Sugar Hill Terrace East,94568,37.7218770,-121.8530156
2758,Sugar Hill Terrace East,94568,37.7220625,-121.8530286
2751,Sugar Hill Terrace East,94568,37.7222480,-121.8530742
2739,Sugar Hill Terrace East,94568,37.7224257,-121.8531101
2729,Sugar Hill Terrace East,94568,37.7225880,-121.8531589
2806,Sable Oaks Way,94568,37.7224644,-121.8536670
2818,Sable Oaks Way,94568,37.7223201,-121.8536246
2822,Sable Oaks Way,94568,37.7221681,-121.8535953
2840,Sable Oaks Way,94568,37.7219801,-121.8535855
2846,Sable Oaks Way,94568,37.7218255,-121.8536539
2854,Sable Oaks Way,94568,37.7216632,-121.8537451
2858,Sable Oaks Way,94568,37.7215190,-121.8538363
2864,Sable Oaks Way,94568,37.7214185,-121.8539990
2868,Sable Oaks Way,94568,37.7213077,-121.8541587
2870,Sable Oaks Way,94568,37.7211944,-121.8543118
2882,Sable Oaks Way,94568,37.7210836,-121.8544811
2890,Sable Oaks Way,94568,37.7209780,-121.8546603
2896,Sable Oaks Way,94568,37.7209084,-121.8548524
5427,Signal Hill Drive,94568,37.7212249,-121.8551065
5439,Signal Hill Drive,94568,37.7214233,-121.8551488
5451,Signal Hill Drive,94568,37.7215984,-121.8551456
5469,Signal Hill Drive,94568,37.7217865,-121.8551618
5481,Signal Hill Drive,94568,37.7219436,-121.8551097
5501,Signal Hill Drive,94568,37.7221214,-121.8550674
5523,Signal Hill Drive,94568,37.7222708,-121.8550251
2872,Castle Pines Terrace East,94568,37.7222759,-121.8546603
2866,Castle Pines Terrace East,94568,37.7222966,-121.8544389
2860,Castle Pines Terrace East,94568,37.7223532,-121.8542500
2856,Castle Pines Terrace East,94568,37.7223738,-121.8540578
2829,Sable Oaks Way,94568,37.7220802,-121.8539764
2855,Sable Oaks Way,94568,37.7218509,-121.8540318
2861,Sable Oaks Way,94568,37.7216783,-121.8542011
2867,Sable Oaks Way,94568,37.7215469,-121.8543835
2871,Sable Oaks Way,94568,37.7214284,-121.8545366
2885,Sable Oaks Way,94568,37.7213408,-121.8547124
2883,Castle Pines Terrace East,94568,37.7226066,-121.8548612
2892,Lochgreen Way,94568,37.7230316,-121.8548156
2877,Castle Pines Terrace East,94568,37.7225988,-121.8546365
2865,Castle Pines Terrace East,94568,37.7226169,-121.8544020
2859,Castle Pines Terrace East,94568,37.7226606,-121.8541871
2849,Castle Pines Terrace East,94568,37.7227250,-121.8540015
2837,Castle Pines Terrace East,94568,37.7227791,-121.8537930
2825,Castle Pines Terrace East,94568,37.7228358,-121.8536041
2817,Castle Pines Terrace East,94568,37.7228719,-121.8533892
2809,Castle Pines Terrace East,94568,37.7229054,-121.8531938
2801,Castle Pines Terrace East,94568,37.7229440,-121.8529951
2722,Sugar Hill Terrace East,94568,37.7227379,-121.8528062
2734,Sugar Hill Terrace East,94568,37.7225782,-121.8528062
2742,Sugar Hill Terrace East,94568,37.7223876,-121.8527802
2758,Sugar Hill Terrace East,94568,37.7221970,-121.8527411
2762,Sugar Hill Terrace East,94568,37.7220476,-121.8527053
2770,Sugar Hill Terrace East,94568,37.7218647,-121.8527020
2876,Lochgreen Way,94568,37.7230574,-121.8545421
2852,Lochgreen Way,94568,37.7231037,-121.8542359
2834,Lochgreen Way,94568,37.7231810,-121.8539233
2828,Lochgreen Way,94568,37.7232660,-121.8536790
2812,Lochgreen Way,94568,37.7233356,-121.8534055
2800,Lochgreen Way,94568,37.7233227,-121.8530993
2691,Forino Court,94568,37.7208465,-121.8519812
2675,Forino Court,94568,37.7208310,-121.8518097
2667,Forino Court,94568,37.7208279,-121.8516135
2653,Forino Court,94568,37.7208310,-121.8514482
2700,Forino Court,94568,37.7204872,-121.8522212
2698,Forino Court,94568,37.7205054,-121.8520520
2676,Forino Court,94568,37.7205237,-121.8518982
2660,Forino Court,94568,37.7205328,-121.8517097
2652,Forino Court,94568,37.7205359,-121.8515328
2653,Forino Court,94568,37.7208310,-121.8512635
2625,Forino Drive,94568,37.7208218,-121.8510597
2609,Forino Drive,94568,37.7208492,-121.8508674
2601,Forino Drive,94568,37.7208340,-121.8506712
2581,Forino Drive,94568,37.7208249,-121.8504712
2567,Forino Drive,94568,37.7208310,-121.8503058
2555,Forino Drive,94568,37.7208127,-121.8501481
2620,Forino Drive,94568,37.7205146,-121.8510251
2616,Forino Drive,94568,37.7205176,-121.8508520
2590,Forino Drive,94568,37.7205298,-121.8506674
2657,Palatino Court,94568,37.7200552,-121.8515097
2669,Palatino Court,94568,37.7200521,-121.8516789
2677,Palatino Court,94568,37.7200582,-121.8518520
2685,Palatino Court,94568,37.7200430,-121.8520328
2699,Palatino Court,94568,37.7200460,-121.8522020
2715,Palatino Court,94568,37.7200369,-121.8523828
2723,Palatino Court,94568,37.7201343,-121.8525405
2678,Palatino Court,94568,37.7197662,-121.8518635
2713,Montelena Court,94568,37.7192398,-121.8523443
5175,Cerreto Street,94568,37.7199031,-121.8510982
5189,Cerreto Street,94568,37.7200369,-121.8511097
5189,Cerreto Street,94568,37.7201799,-121.8511058
5202,Salerno Drive,94568,37.7204751,-121.8502328
5196,Salerno Drive,94568,37.7203360,-121.8502914
5172,Salerno Drive,94568,37.7201969,-121.8503142
5166,Salerno Drive,94568,37.7200603,-121.8503598
5150,Salerno Drive,94568,37.7199135,-121.8503598
5199,Salerno Drive,94568,37.7204364,-121.8498518
5187,Salerno Drive,94568,37.7203051,-121.8499137
5171,Salerno Drive,94568,37.7201608,-121.8499495
5165,Salerno Drive,94568,37.7200088,-121.8499788
5137,Salerno Drive,94568,37.7198542,-121.8499983
5051,Salerno Drive,94568,37.7192514,-121.8498941
4986,Cerreto Street,94568,37.7181875,-121.8508418
4966,Cerreto Street,94568,37.7179350,-121.8506073
2560,Calabra Court,94568,37.7181334,-121.8495619
2562,Calabra Court,94568,37.7180509,-121.8496857
2570,Calabra Court,94568,37.7179041,-121.8498127
2576,Calabra Court,94568,37.7177933,-121.8499365
2499,Cantalise Court,94568,37.7187708,-121.8495537
2493,Cantalise Court,94568,37.7188520,-121.8493739
2485,Cantalise Court,94568,37.7188742,-121.8491848
2477,Cantalise Court,94568,37.7189407,-121.8490564
2500,Cantalise Court,94568,37.7184272,-121.8492128
2492,Cantalise Court,94568,37.7185620,-121.8490891
2484,Cantalise Court,94568,37.7186747,-121.8489186
2476,Cantalise Court,94568,37.7187782,-121.8487482
5112,Montiano Lane,94568,37.7194579,-121.8492850
5122,Montiano Lane,94568,37.7195929,-121.8493105
5126,Montiano Lane,94568,37.7197333,-121.8493289
5130,Montiano Lane,94568,37.7198830,-121.8493206
5138,Montiano Lane,94568,37.7200326,-121.8493172
5152,Montiano Lane,94568,37.7201849,-121.8493222
5156,Montiano Lane,94568,37.7203028,-121.8493038
5153,Montiano Lane,94568,37.7201571,-121.8489288
5139,Montiano Lane,94568,37.7200220,-121.8489439
5131,Montiano Lane,94568,37.7198419,-121.8489606
5123,Montiano Lane,94568,37.7196592,-121.8489489
5111,Montiano Lane,94568,37.7194883,-121.8488903
5162,Montiano Lane,94568,37.7206365,-121.8491180
5170,Montiano Lane,94568,37.7207755,-121.8490192
5178,Montiano Lane,94568,37.7208881,-121.8489087
5186,Montiano Lane,94568,37.7210112,-121.8488099
5198,Montiano Lane,94568,37.7211092,-121.8486861
5210,Montiano Lane,94568,37.7212099,-121.8485354
5216,Montiano Lane,94568,37.7212880,-121.8483696
5331,Salerno Drive,94568,37.7222282,-121.8486062
5271,Salerno Drive,94568,37.7215322,-121.8490945
5259,Salerno Drive,94568,37.7213821,-121.8491974
5251,Salerno Drive,94568,37.7212648,-121.8493219
5235,Salerno Drive,94568,37.7211178,-121.8494307
5223,Salerno Drive,94568,37.7209676,-121.8495611
5211,Salerno Drive,94568,37.7208159,-121.8496837
5239,Montiano Lane,94568,37.7212837,-121.8473703
5233,Montiano Lane,94568,37.7212793,-121.8475247
5225,Montiano Lane,94568,37.7212270,-121.8477205
5217,Montiano Lane,94568,37.7211899,-121.8479025
5213,Montiano Lane,94568,37.7211114,-121.8480955
5209,Montiano Lane,94568,37.7210154,-121.8482499
5205,Montiano Lane,94568,37.7207624,-121.8485064
2475,Forino Drive,94568,37.7204854,-121.8486718
2461,Forino Drive,94568,37.7204679,-121.8484319
2453,Forino Drive,94568,37.7204832,-121.8482444
2439,Forino Drive,94568,37.7204919,-121.8480734
2427,Forino Drive,94568,37.7205442,-121.8478832
2419,Forino Drive,94568,37.7205791,-121.8477067
2407,Forino Drive,94568,37.7206293,-121.8475550
2462,Forino Drive,94568,37.7201647,-121.8485284
2456,Forino Drive,94568,37.7201865,-121.8483437
2452,Forino Drive,94568,37.7201887,-121.8481672
2440,Forino Drive,94568,37.7202192,-121.8479990
2432,Forino Drive,94568,37.7202410,-121.8478390
2422,Forino Drive,94568,37.7202781,-121.8476846
2369,Cantalise Drive,94568,37.7200033,-121.8475192
2375,Cantalise Drive,94568,37.7198419,-121.8474199
2421,Cantalise Drive,94568,37.7196412,-121.8477949
2435,Cantalise Drive,94568,37.7195539,-121.8479659
2443,Cantalise Drive,94568,37.7194754,-121.8481534
2451,Cantalise Drive,94568,37.7193773,-121.8483134
2459,Cantalise Drive,94568,37.7192856,-121.8484788
2465,Cantalise Drive,94568,37.7191962,-121.8486388
2390,Cantalise Drive,94568,37.7194492,-121.8474806
2420,Cantalise Drive,94568,37.7193838,-121.8476433
2430,Cantalise Drive,94568,37.7192856,-121.8478032
2438,Cantalise Drive,94568,37.7192137,-121.8479659
2446,Cantalise Drive,94568,37.7191417,-121.8481176
2454,Cantalise Drive,94568,37.7190610,-121.8482747
2460,Cantalise Drive,94568,37.7189781,-121.8484292
2468,Cantalise Drive,94568,37.7188755,-121.8486001
2281,Forino Drive,94568,37.7210787,-121.8457161
2260,Brandini Drive,94568,37.7220014,-121.8455837
5272,Montiano Court,94568,37.7219687,-121.8464827
5283,Montiano Court,94568,37.7217636,-121.8460139
2338,Brandini Drive,94568,37.7229481,-121.8472052
2396,Brandini Drive,94568,37.7233101,-121.8479498
2506,Brandini Drive,94568,37.7239841,-121.8495326
5577,Avelina Drive,94568,37.7237878,-121.8508590
2561,Amantea Way,94568,37.7234650,-121.8501255
2491,Amantea Way,94568,37.7232927,-121.8491686
2483,Amantea Way,94568,37.7232011,-121.8489977
2349,Amantea Way,94568,37.7224246,-121.8472879
2528,Amantea Way,94568,37.7231279,-121.8497301
2488,Amantea Way,94568,37.7230120,-121.8492970
5525,Avelina Drive,94568,37.7222186,-121.8508255
5509,Avelina Drive,94568,37.7219153,-121.8507812
5501,Avelina Drive,94568,37.7217667,-121.8507264
2571,Ravello Way,94568,37.7216924,-121.8503220
2563,Ravello Way,94568,37.7216635,-121.8501368
2549,Ravello Way,94568,37.7216387,-121.8499411
2546,Cipriani Way,94568,37.7222661,-121.8498968
2542,Ravello Way,94568,37.7213152,-121.8499080
2556,Ravello Way,94568,37.7213606,-121.8501245
2568,Ravello Way,94568,37.7213895,-121.8503332
2592,Ravello Way,94568,37.7214163,-121.8505341
2580,Ravello Way,94568,37.7214060,-121.8507480
2366,Haggerty Drive,94568,37.7203842,-121.8462635
2338,Haggerty Drive,94568,37.7201675,-121.8461513
2203,Haggerty Drive,94568,37.7203532,-121.8445912
2215,Haggerty Drive,94568,37.7203553,-121.8447243
2253,Haggerty Drive,94568,37.7203223,-121.8451965
2269,Haggerty Drive,94568,37.7202728,-121.8454913
2389,Haggerty Drive,94568,37.7206814,-121.8460157
2201,Brandini Drive,94568,37.7212294,-121.8451539
2259,Brandini Drive,94568,37.7219630,-121.8451970
2279,Brandini Drive,94568,37.7223529,-121.8454189
2299,Brandini Drive,94568,37.7227940,-121.8461306
2276,Valentano Drive,94568,37.7228817,-121.8451847
2270,Valentano Drive,94568,37.7227453,-121.8450306
2262,Valentano Drive,94568,37.7226112,-121.8449043
2232,Valentano Drive,94568,37.7220141,-121.8446240
5298,Palazzo Drive,94568,37.7233131,-121.8443497
5282,Palazzo Drive,94568,37.7231815,-121.8441803
5270,Palazzo Drive,94568,37.7230694,-121.8440355
5256,Palazzo Drive,94568,37.7228939,-121.8438876
5238,Palazzo Drive,94568,37.7227477,-121.8438167
5230,Palazzo Drive,94568,37.7225625,-121.8437150
5218,Palazzo Drive,94568,37.7223919,-121.8436627
5200,Palazzo Drive,94568,37.7221506,-121.8436688
2233,Valentano Drive,94568,37.7220848,-121.8442419
2239,Valentano Drive,94568,37.7222700,-121.8443035
2249,Valentano Drive,94568,37.7224211,-121.8443713
2255,Valentano Drive,94568,37.7225722,-121.8444453
2261,Valentano Drive,94568,37.7227038,-121.8445592
2265,Valentano Drive,94568,37.7228549,-121.8446763
2373,Valentano Drive,94568,37.7229719,-121.8448119
2372,Valentano Drive,94568,37.7238785,-121.8472644
2361,Brandini Drive,94568,37.7233765,-121.8473599
2400,Valentano Drive,94568,37.7242099,-121.8478806
2408,Valentano Drive,94568,37.7243098,-121.8480655
2438,Valentano Drive,94568,37.7245219,-121.8484321
2526,Valentano Drive,94568,37.7248119,-121.8497077
2513,Brandini Drive,94568,37.7242952,-121.8495567
5670,Avelina Drive,94568,37.7249386,-121.8505426
5682,Avelina Drive,94568,37.7251701,-121.8505180
5700,Avelina Drive,94568,37.7253821,-121.8505396
5712,Avelina Drive,94568,37.7256039,-121.8506104
5726,Avelina Drive,94568,37.7257355,-121.8507275
5738,Avelina Drive,94568,37.7258817,-121.8507860
5750,Avelina Drive,94568,37.7260303,-121.8508754
5758,Avelina Drive,94568,37.7262204,-121.8509309
5772,Avelina Drive,94568,37.7263739,-121.8509617
5786,Avelina Drive,94568,37.7265640,-121.8509493
5798,Avelina Drive,94568,37.7267151,-121.8509339
5806,Avelina Drive,94568,37.7268711,-121.8508384
5820,Avelina Drive,94568,37.7270124,-121.8507737
5832,Avelina Drive,94568,37.7271489,-121.8506228
5838,Avelina Drive,94568,37.7272537,-121.8504779
5856,Avelina Drive,94568,37.7273585,-121.8503054
5868,Avelina Drive,94568,37.7274730,-121.8501452
5880,Avelina Drive,94568,37.7276046,-121.8499788
6892,Avelina Drive,94568,37.7277240,-121.8497940
5898,Ducale Way,94568,37.7277118,-121.8495875
2529,Valentano Drive,94568,37.7251408,-121.8497785
2471,Valentano Drive,94568,37.7250068,-121.8489436
2482,Encanto Way,94568,37.7255283,-121.8489744
2350,Encanto Way,94568,37.7247729,-121.8471935
5616,Atella Court,94568,37.7255397,-121.8477280
5635,Atella Court,94568,37.7257541,-121.8471488
5627,Atella Court,94568,37.7255908,-121.8471334
5538,Castello Court,94568,37.7251522,-121.8464709
2155,Montese Court,94568,37.7236120,-121.8441078
2137,Montese Court,94568,37.7237168,-121.8439198
2131,Montese Court,94568,37.7238265,-121.8437750
2117,Montese Court,94568,37.7239361,-121.8436025
2109,Montese Court,94568,37.7240409,-121.8434515
2101,Montese Court,94568,37.7241676,-121.8432728
2102,Montese Court,94568,37.7238191,-121.8430387
2116,Montese Court,94568,37.7237558,-121.8433190
2130,Montese Court,94568,37.7236656,-121.8434854
2138,Montese Court,94568,37.7235559,-121.8436518
2156,Montese Court,94568,37.7234341,-121.8438243
5259,Palazzo Drive,94568,37.7231148,-121.8435686
5253,Palazzo Drive,94568,37.7229662,-121.8434792
5239,Palazzo Drive,94568,37.7228151,-121.8433683
5231,Palazzo Drive,94568,37.7226274,-121.8432913
5227,Palazzo Drive,94568,37.7224300,-121.8432328
5215,Palazzo Drive,94568,37.7222619,-121.8432235
5203,Palazzo Drive,94568,37.7220742,-121.8432451
5206,Fortezza Court,94568,37.7221351,-121.8426566
5220,Fortezza Court,94568,37.7223618,-121.8426658
5228,Fortezza Court,94568,37.7225811,-121.8427059
5236,Fortezza Court,94568,37.7227712,-121.8427460
5250,Fortezza Court,94568,37.7229516,-121.8428014
5258,Fortezza Court,94568,37.7231075,-121.8428538
5266,Fortezza Court,94568,37.7232781,-121.8429770
5272,Fortezza Court,94568,37.7234268,-121.8428045
5251,Fortezza Court,94568,37.7229979,-121.8424687
5237,Fortezza Court,94568,37.7228395,-121.8424194
2009,Contrada Court,94568,37.7228687,-121.8419418
2002,Contrada Court,94568,37.7226737,-121.8415474
2008,Contrada Court,94568,37.7226494,-121.8417754
2016,Contrada Court,94568,37.7226031,-121.8420127
2022,Contrada Court,94568,37.7225860,-121.8422314
2065,Fortezza Court,94568,37.7220693,-121.8422715
2035,Avanti Avenue,94568,37.7220693,-121.8420743
2035,Avanti Avenue,94568,37.7220742,-121.8418740
2023,Avanti Avenue,94568,37.7220767,-121.8416368
2023,Avanti Avenue,94568,37.7220669,-121.8414119
2011,Avanti Avenue,94568,37.7220230,-121.8411993
2531,Encanto Way,94568,37.7258979,-121.8495849
2517,Molinaro Way,94568,37.7266116,-121.8487953
2613,Ducale Court,94568,37.7276246,-121.8477437
2601,Ducale Court,94568,37.7276160,-121.8475035
5795,Ducale Court,94568,37.7270951,-121.8480239
5751,Moorjani Street,94568,37.7264360,-121.8481585
2439,Valentano Drive,94568,37.7247927,-121.8482422
2178,Avanti Avenue,94568,37.7217676,-121.8440766
2166,Avanti Avenue,94568,37.7217676,-121.8438627
2150,Avanti Avenue,94568,37.7217697,-121.8436305
2136,Avanti Avenue,94568,37.7217759,-121.8434218
2122,Avanti Avenue,94568,37.7217738,-121.8431740
2108,Avanti Avenue,94568,37.7217800,-121.8429522
2092,Avanti Avenue,94568,37.7217717,-121.8427279
2080,Avanti Avenue,94568,37.7217759,-121.8425087
2066,Avanti Avenue,94568,37.7217779,-121.8423026
2052,Avanti Avenue,94568,37.7217821,-121.8421122
2036,Avanti Avenue,94568,37.7217862,-121.8419061
2024,Avanti Avenue,94568,37.7217821,-121.8416843
2010,Avanti Avenue,94568,37.7217614,-121.8414730
1996,Avanti Avenue,94568,37.7216644,-121.8412225
1982,Avanti Avenue,94568,37.7213219,-121.8409982
1968,Avanti Avenue,94568,37.7210722,-121.8410008
1987,Forino Drive,94568,37.7210660,-121.8414391
1987,Forino Drive,94568,37.7211031,-121.8416321
2015,Forino Drive,94568,37.7211362,-121.8418148
2027,Forino Drive,94568,37.7211609,-121.8419791
2039,Forino Drive,94568,37.7211754,-121.8421591
2057,Forino Drive,94568,37.7211898,-121.8423261
2071,Forino Drive,94568,37.7212043,-121.8424957
2085,Forino Drive,94568,37.7212104,-121.8426731
2099,Forino Drive,94568,37.7212208,-121.8428557
2113,Forino Drive,94568,37.7212249,-121.8430409
2127,Forino Drive,94568,37.7212290,-121.8432209
2139,Forino Drive,94568,37.7212311,-121.8433983
2155,Forino Drive,94568,37.7212249,-121.8435836
2169,Forino Drive,94568,37.7212146,-121.8437871
2183,Forino Drive,94568,37.7212290,-121.8439488
2197,Forino Drive,94568,37.7212331,-121.8441184
1972,Forino Drive,94568,37.7207373,-121.8412092
1986,Forino Drive,94568,37.7207712,-121.8413983
2000,Forino Drive,94568,37.7208126,-121.8415820
2012,Forino Drive,94568,37.7208349,-121.8417832
2026,Forino Drive,94568,37.7208709,-121.8419535
2038,Forino Drive,94568,37.7208890,-121.8421466
2056,Forino Drive,94568,37.7209081,-121.8423142
2070,Forino Drive,94568,37.7209102,-121.8424993
2086,Forino Drive,94568,37.7209229,-121.8426696
2100,Forino Drive,94568,37.7209155,-121.8428708
2112,Forino Drive,94568,37.7209293,-121.8430653
2130,Forino Drive,94568,37.7209261,-121.8432758
2152,Forino Drive,94568,37.7209219,-121.8434743
2168,Forino Drive,94568,37.7209219,-121.8436781
2182,Forino Drive,94568,37.7209187,-121.8438766
2196,Forino Drive,94568,37.7209197,-121.8440711
2189,Haggerty Drive,94568,37.7203883,-121.8440966
2171,Haggerty Drive,94568,37.7203787,-121.8439490
2157,Haggerty Drive,94568,37.7203862,-121.8437854
2151,Haggerty Drive,94568,37.7203809,-121.8436392
2129,Haggerty Drive,94568,37.7203840,-121.8434837
2123,Haggerty Drive,94568,37.7203819,-121.8433415
2117,Haggerty Drive,94568,37.7203755,-121.8431980
2105,Haggerty Drive,94568,37.7203777,-121.8430411
2093,Haggerty Drive,94568,37.7203798,-121.8428963
2075,Haggerty Drive,94568,37.7203851,-121.8427461
2069,Haggerty Drive,94568,37.7203851,-121.8425918
2061,Haggerty Drive,94568,37.7203787,-121.8424376
2053,Haggerty Drive,94568,37.7203596,-121.8422914
2037,Haggerty Drive,94568,37.7203405,-121.8421506
2031,Haggerty Drive,94568,37.7203289,-121.8419951
2019,Haggerty Drive,94568,37.7203066,-121.8418435
2005,Haggerty Drive,94568,37.7202811,-121.8416853
1999,Haggerty Drive,94568,37.7202546,-121.8415310
1991,Haggerty Drive,94568,37.7202228,-121.8413781
1992,Haggerty Drive,94568,37.7199536,-121.8415326
2004,Haggerty Drive,94568,37.7199854,-121.8416976
2018,Haggerty Drive,94568,37.7200088,-121.8418531
2030,Haggerty Drive,94568,37.7200300,-121.8420087
2038,Haggerty Drive,94568,37.7200533,-121.8421589
2052,Haggerty Drive,94568,37.7200618,-121.8423172
2060,Haggerty Drive,94568,37.7200820,-121.8424593
2068,Haggerty Drive,94568,37.7200883,-121.8426095
2076,Haggerty Drive,94568,37.7200947,-121.8427664
2092,Haggerty Drive,94568,37.7200926,-121.8429153
2106,Haggerty Drive,94568,37.7200968,-121.8430695
2118,Haggerty Drive,94568,37.7200936,-121.8432318
2126,Haggerty Drive,94568,37.7201011,-121.8433833
2132,Haggerty Drive,94568,37.7200947,-121.8435537
2150,Haggerty Drive,94568,37.7200947,-121.8437226
2157,Haggerty Drive,94568,37.7200852,-121.8438876
2192,Haggerty Drive,94568,37.7200841,-121.8440432
7916,Dublin Boulevard,94568,37.7021438,-121.9341123
7940,Dublin Boulevard,94568,37.7018870,-121.9351477
11976,Dublin Boulevard,94568,37.7021634,-121.9368830
6570,Donlon Way,94568,37.6989769,-121.9377816
7007,San Ramon Road,94568,37.7027860,-121.9355490
7122,Regional Street,94568,37.7033571,-121.9345535
7181,Regional Street,94568,37.7044686,-121.9340667
7885,Dublin Boulevard,94568,37.7040638,-121.9323756
7265,Regional Street,94568,37.7060331,-121.9330817
7257,Regional Street,94568,37.7059609,-121.9330508
7209,Regional Street,94568,37.7056538,-121.9332144
7217,Regional Street,94568,37.7057031,-121.9332346
7233,Regional Street,94568,37.7058166,-121.9330595
7225,Regional Street,94568,37.7057593,-121.9332607
7333,Regional Street,94568,37.7063174,-121.9330991
7704,Dublin Boulevard,94568,37.7035687,-121.9304430
4500,Tassajara Road,94568,37.7070548,-121.8725240
3668,Fallon Road,94568,37.7033540,-121.8514085
4920,Dublin Boulevard,94568,37.7036622,-121.8843359
4920,Dublin Boulevard,94568,37.7036606,-121.8844680
7867,Amador Valley Boulevard,94568,37.7070352,-121.9354175
7992,Amador Valley Boulevard,94568,37.7051728,-121.9359540
7099,Amador Plaza Road,94568,37.7067694,-121.9278890
7177,Amador Plaza Road,94568-2903,37.7079015,-121.9287490
7153,Amador Plaza Road,94568,37.7076702,-121.9291380
6960,Amador Plaza Road,94568,37.7056819,-121.9289283
7020,Amador Plaza Road,94568,37.7063673,-121.9290879
7030,Amador Plaza Road,94568,37.7064628,-121.9291380
7200,Amador Plaza Road,94568-2320,37.7066580,-121.9318096
6900,Amador Plaza Road,94568-2391,37.7050994,-121.9309460
7886,Dublin Boulevard,94568,37.7020700,-121.9314355
7890,Dublin Boulevard,94568-2924,37.7019607,-121.9318016
7896,Dublin Boulevard,94568,37.7017719,-121.9324172
7222,San Ramon Road,94568,37.7044362,-121.9383750
7106,Dublin Boulevard,94568,37.7051912,-121.9222290
6372,Clark Avenue,94568,37.7042276,-121.9214093
5875,Arnold Road,94568,37.7120962,-121.8926660
2880,Dublin Boulevard,94568,37.7054074,-121.8536058
2860,Dublin Boulevard,94568,37.7049032,-121.8536423
2840,Dublin Boulevard,94568,37.7045493,-121.8536299
3746,Fallon Road,94568,37.7041375,-121.8511961
2700,Dublin Boulevard,94568,37.7061523,-121.8520041
2696,Dublin Boulevard,94568,37.7062225,-121.8518015
3882,Fallon Road,94568,37.7054444,-121.8512016
3860,Dublin Boulevard,94568,37.7049863,-121.8515913
3858,Fallon Road,94568,37.7049926,-121.8516437
3856,Fallon Road,94568,37.7049917,-121.8517211
4064,Grafton Street,94568,37.7032817,-121.8659020
4112,Grafton Street,94568,37.7047497,-121.8656995
3700,Dublin Boulevard,94568,37.7049109,-121.8656351
4100,Grafton Street,94568,37.7043921,-121.8658819
4104,Grafton Street,94568,37.7045534,-121.8659087
6601,Dublin Boulevard,94568,37.7044267,-121.9120848
2820,Dublin Boulevard,94568,37.7039573,-121.8536360
3100,Dublin Boulevard,94568,37.7033003,-121.8586530
4075,Grafton Street,94568,37.7034297,-121.8647450
4500,Tassajara Road,94568,37.7074560,-121.8725390
4140,Dublin Boulevard,94568,37.7028499,-121.8744051
4120,Dublin Boulevard,94568,37.7035511,-121.8736265
6601,Dublin Boulevard,94568,37.7043523,-121.9116345
2500,Positano Parkway,94568,37.7173026,-121.8490453
6398,Dougherty Road,94568,37.7088699,-121.9107884
2400,Central Parkway,94568,37.7091245,-121.8477328
4288,Dublin Boulevard,94588,37.7046807,-121.8760696
3819,Branding Iron Place,94568,37.7322094,-121.8694711
3821,Branding Iron Place,94568,37.7321304,-121.8695402
3823,Branding Iron Place,94568,37.7320806,-121.8696113
3825,Branding Iron Place,94568,37.7321955,-121.8697556
3827,Branding Iron Place,94568,37.7322502,-121.8697013
3829,Branding Iron Place,94568,37.7323161,-121.8696159
3813,Branding Iron Place,94568,37.7323219,-121.8692907
3811,Branding Iron Place,94568,37.7323810,-121.8691951
3809,Branding Iron Place,94568,37.7324240,-121.8691148
3807,Branding Iron Place,94568,37.7325450,-121.8692551
3805,Branding Iron Place,94568,37.7325108,-121.8693288
3803,Branding Iron Place,94568,37.7324642,-121.8694162
3763,Branding Iron Place,94568,37.7325595,-121.8688016
3765,Branding Iron Place,94568,37.7325171,-121.8688908
3767,Branding Iron Place,94568,37.7324879,-121.8689753
3769,Branding Iron Place,94568,37.7326311,-121.8690537
3771,Branding Iron Place,94568,37.7326671,-121.8689592
3773,Branding Iron Place,94568,37.7326968,-121.8688841
3717,Branding Iron Place,94568,37.7328769,-121.8678024
3747,Branding Iron Place,94568,37.7327789,-121.8686474
3749,Branding Iron Place,94568,37.7328038,-121.8685596
3751,Branding Iron Place,94568,37.7328209,-121.8684549
3753,Branding Iron Place,94568,37.7326680,-121.8684056
3755,Branding Iron Place,94568,37.7326448,-121.8684972
3757,Branding Iron Place,94568,37.7326260,-121.8685827
3729,Branding Iron Place,94568,37.7327045,-121.8681729
3727,Branding Iron Place,94568,37.7327904,-121.8682184
3725,Branding Iron Place,94568,37.7328855,-121.8682469
3723,Branding Iron Place,94568,37.7329354,-121.8680559
3721,Branding Iron Place,94568,37.7328410,-121.8680104
3719,Branding Iron Place,94568,37.7327582,-121.8679835
3685,Branding Iron Place,94568,37.7326713,-121.8674923
3687,Branding Iron Place,94568,37.7327345,-121.8674083
3689,Branding Iron Place,94568,37.7328125,-121.8673260
3691,Branding Iron Place,94568,37.7329150,-121.8674720
3693,Branding Iron Place,94568,37.7328451,-121.8675667
3695,Branding Iron Place,94568,37.7327817,-121.8676322
3647,Branding Iron Place,94568,37.7323214,-121.8669257
3649,Branding Iron Place,94568,37.7322629,-121.8668471
3651,Branding Iron Place,94568,37.7322264,-121.8667778
3653,Branding Iron Place,94568,37.7323488,-121.8666584
3655,Branding Iron Place,94568,37.7324079,-121.8667254
3657,Branding Iron Place,94568,37.7324457,-121.8668009
3677,Branding Iron Place,94568,37.7324483,-121.8671077
3675,Branding Iron Place,94568,37.7325173,-121.8672183
3673,Branding Iron Place,94568,37.7325691,-121.8672935
3671,Branding Iron Place,94568,37.7326943,-121.8671572
3669,Branding Iron Place,94568,37.7326279,-121.8670440
3667,Branding Iron Place,94568,37.7325740,-121.8669617
6904,Village Pkwy,94568,37.7068659,-121.9253627
11820,Dublin Boulevard,94568,37.7013237,-121.9392360
3818,Branding Iron Place,94568,37.7320595,-121.8692297
3816,Branding Iron Place,94568,37.7320080,-121.8691891
3814,Branding Iron Place,94568,37.7319460,-121.8691271
3812,Branding Iron Place,94568,37.7318821,-121.8690650
3810,Branding Iron Place,94568,37.7319914,-121.8689031
3808,Branding Iron Place,94568,37.7320622,-121.8689712
3806,Branding Iron Place,94568,37.7320974,-121.8690099
3804,Branding Iron Place,94568,37.7321497,-121.8690608
3790,Branding Iron Place,94568,37.7322482,-121.8688723
3788,Branding Iron Place,94568,37.7322027,-121.8688433
3786,Branding Iron Place,94568,37.7321380,-121.8688029
3784,Branding Iron Place,94568,37.7320578,-121.8687508
3782,Branding Iron Place,94568,37.7321258,-121.8685782
3780,Branding Iron Place,94568,37.7321999,-121.8686250
3778,Branding Iron Place,94568,37.7322731,-121.8686642
3776,Branding Iron Place,94568,37.7323233,-121.8686956
3744,Branding Iron Place,94568,37.7323517,-121.8684153
3742,Branding Iron Place,94568,37.7323072,-121.8684057
3740,Branding Iron Place,94568,37.7322470,-121.8683933
3738,Branding Iron Place,94568,37.7321580,-121.8683768
3736,Branding Iron Place,94568,37.7321804,-121.8681887
3734,Branding Iron Place,94568,37.7322584,-121.8682036
3732,Branding Iron Place,94568,37.7323223,-121.8682165
3730,Branding Iron Place,94568,37.7323717,-121.8682258
7106,Village Parkway,94568,37.7086935,-121.9270396
7040,Dublin Blvd,94568,37.7052048,-121.9207557
6483,Sierra Lane,94568,37.7069315,-121.9126985
6747,Sierra Court,94568,37.7087988,-121.9137698
4460,Tassajara Road,94568,37.7072480,-121.8738234
7841,Amador Valley Boulevard,94568,37.7064421,-121.9351034
6841,Dublin Boulevard,94568,37.7051158,-121.9173109
6575,Trinity Court,94568,37.7102728,-121.9122550
6575,Trinity Court,94568,37.7102428,-121.9123094
4288,Dublin Boulevard,94568,37.7045914,-121.8751147
4288,Dublin Boulevard,94568,37.7045181,-121.8751586
4288,Dublin Boulevard,94568,37.7045732,-121.8752196
4288,Dublin Boulevard,94568,37.7045507,-121.8752455
4288,Dublin Boulevard,94568,37.7046190,-121.8753065
4288,Dublin Boulevard,94568,37.7046307,-121.8754063
4288,Dublin Boulevard,94568,37.7046356,-121.8755043
4288,Dublin Boulevard,94568,37.7046117,-121.8756066
4288,Dublin Boulevard,94568,37.7045810,-121.8756066
4288,Dublin Boulevard,94588,37.7045678,-121.8759215
4288,Dublin Boulevard,94588,37.7048061,-121.8761456
4288,Dublin Boulevard,94568,37.7049283,-121.8761961
4288,Dublin Boulevard,94568,37.7050467,-121.8762790
4288,Dublin Boulevard,94568,37.7051676,-121.8763205
8151,Village Parkway,94568,37.7209028,-121.9236052
8435,Davona Drive,94568,37.7223781,-121.9332760
6700,Dublin Boulevard,94568,37.7032078,-121.9148724
5000,Dublin Boulevard,94568,37.7028610,-121.8855487
4940,Dublin Boulevard,94568,37.7036559,-121.8852714
4805,Hacienda Drive,94568,37.7043280,-121.8874179
4775,Hacienda Drive,94568,37.7040156,-121.8874746
4808,Dublin Boulevard,94568,37.7022671,-121.8824314
4950,Hacienda Drive,94568,37.7057207,-121.8873687
5050,Hacienda Drive,94568,37.7101919,-121.8865526
3601,Kohnen Way,94568,37.7159211,-121.8674741
7500,Inspiration Drive,94568,37.7020212,-121.9544430
6233,Dougherty Road,94568,37.7082892,-121.9087617
4500,Dublin Boulevard,94568,37.7050499,-121.8795795
4321,Toyota Drive,94568,37.7029083,-121.8804442
3,Park Place,94568,37.7070868,-121.8889564
5160,Hacienda Drive,94568,37.7127342,-121.8895800
7145,Dublin Boulevard,94568,37.7062114,-121.9242953
7123,Village Parkway,94568,37.7095709,-121.9261799
200,Civic Plaza,94568,37.7028689,-121.9189624
8850,Davona Drive,94568,37.7238404,-121.9372576
6701,Amador Plaza Road,94568,37.7027445,-121.9249880
6694,Amador Plaza Road,94568,37.7025309,-121.9266628
6921,Regional Street,94568-2921,37.7025735,-121.9332045
6511,Golden Gate Drive,94568,37.7020666,-121.9274686
7143,Dublin Boulevard,94568,37.7063482,-121.9232623
7265,Village Parkway,94568,37.7110556,-121.9269646
6797,Village Parkway,94568,37.7066002,-121.9234644
6301,Scarlett Court,94568,37.7034971,-121.9059093
6261,Scarlett Court,94568,37.7032960,-121.9052051
6379,Dublin Boulevard,94568,37.7058140,-121.9090638
6440,Dublin Court,94568,37.7025660,-121.9101244
6450,Dublin Boulevard,94568,37.7040500,-121.9097822
6200,Madigan Drive,94568,37.7151859,-121.8838079
7494,Donohue Drive,94568,37.7088692,-121.9333285
4999,Gleason Drive,94568,37.7143992,-121.8838285
7500,Saint Patrick Way,94568,37.7025362,-121.9277814
6275,Dublin Boulevard,94568,37.7062016,-121.9080217
7449,Dublin Boulevard,94568,37.7062036,-121.9273123
4440,Tassajara Road,94568,37.7066667,-121.8740568
4595,Gleason Drive,94568,37.7133577,-121.8792582
2800,Dublin Boulevard,94568,37.7028450,-121.8536891
4250,Dublin Boulevard,94568,37.7051606,-121.8751624
3750,Dublin Boulevard,94568,37.7030071,-121.8678523
4086,Grafton Street,94568,37.7040897,-121.8659094
4104,Grafton Street,94568,37.7046660,-121.8657257
11557,Shannon Avenue,94568,37.7126771,-121.9406041
6363,Scarlett Court,94568,37.7039310,-121.9073775
6085,Scarlett Court,94568,37.7026835,-121.9038469
6015,Scarlett Court,94568,37.7026303,-121.9026859
6180,Bay Hill Court,94568,37.7276462,-121.8619126
6162,Bay Hill Court,94568,37.7274427,-121.8619990
6163,Bay Hill Court,94568,37.7273772,-121.8613457
6146,Bay Hill Court,94568,37.7271732,-121.8619534
6137,Bay Hill Court,94568,37.7271051,-121.8614468
6119,Bay Hill Court,94568,37.7268382,-121.8614444
6128,Bay Hill Court,94568,37.7269268,-121.8619672
6101,Bay Hill Court,94568,37.7266200,-121.8614544
6110,Bay Hill Court,94568,37.7267040,-121.8619712
6156,Turnberry Court,94568,37.7272087,-121.8608329
6148,Turnberry Court,94568,37.7269649,-121.8609302
6153,Turnberry Court,94568,37.7269213,-121.8602767
6135,Turnberry Court,94568,37.7267129,-121.8603964
6126,Turnberry Court,94568,37.7267244,-121.8609109
6100,Turnberry Court,94568,37.7264938,-121.8609600
6111,Turnberry Court,94568,37.7264691,-121.8604552
6086,Kingsmill Terrace,94568,37.7263995,-121.8600421
6092,Kingsmill Terrace,94568,37.7264026,-121.8597257
6098,Kingsmill Terrace,94568,37.7263724,-121.8593824
5982,Annandale Way,94568,37.7259423,-121.8600837
5835,Signal Hill Drive,94568,37.7252982,-121.8557809
5827,Signal Hill Drive,94568,37.7250343,-121.8556373
2863,Cog Hill Terrace East,94568,37.7248396,-121.8555028
2851,Cog Hill Terrace East,94568,37.7249133,-121.8551911
6067,Turnberry Drive,94568,37.7260212,-121.8605913
6066,Turnberry Drive,94568,37.7261302,-121.8610953
6079,Kingsmill Terrace,94568,37.7262130,-121.8614716
5983,Annandale Way,94568,37.7259268,-121.8595371
5730,Cog Hill Terrace West,94568,37.7241694,-121.8567235
5722,Cog Hill Terrace West,94568,37.7240602,-121.8567974
5752,Signal Hill Drive,94568,37.7242331,-121.8558412
5739,Cog Hill Terrace West,94568,37.7240984,-121.8560474
6076,Kingsmill Terrace,94568,37.7264542,-121.8621530
6071,Kingsmill Terrace,94568,37.7261141,-121.8618207
6068,Kingsmill Terrace,94568,37.7263131,-121.8623635
6063,Kingsmill Terrace,94568,37.7259526,-121.8621152
5736,Signal Hill Drive,94568,37.7241194,-121.8557536
5718,Signal Hill Drive,94568,37.7239711,-121.8556806
5704,Signal Hill Drive,94568,37.7238164,-121.8556502
5749,Signal Hill Drive,94568,37.7244241,-121.8552698
2848,Cog Hill Terrace East,94568,37.7245384,-121.8549637
2839,Cog Hill Terrace East,94568,37.7249971,-121.8549325
2836,Cog Hill Terrace East,94568,37.7246356,-121.8546942
2827,Cog Hill Terrace East,94568,37.7250769,-121.8546195
5727,Signal Hill Drive,94568,37.7242297,-121.8552027
5711,Signal Hill Drive,94568,37.7240426,-121.8550977
6060,Kingsmill Terrace,94568,37.7261961,-121.8626110
6055,Kingsmill Terrace,94568,37.7258089,-121.8623220
6046,Turnberry Drive,94568,37.7258727,-121.8612334
6049,Turnberry Drive,94568,37.7257959,-121.8607095
5970,Annandale Way,94568,37.7257343,-121.8601556
5975,Annandale Way,94568,37.7257272,-121.8595519
2824,Cog Hill Terrace East,94568,37.7246902,-121.8544410
2805,Cog Hill Terrace East,94568,37.7251177,-121.8543195
2796,Cog Hill Terrace East,94568,37.7247246,-121.8541599
5731,Cog Hill Terrace West,94568,37.7239880,-121.8562123
5723,Cog Hill Terrace West,94568,37.7238697,-121.8563336
5716,Cog Hill Terrace West,94568,37.7239055,-121.8568827
5715,Cog Hill Terrace West,94568,37.7237288,-121.8564185
5710,Cog Hill Terrace West,94568,37.7237589,-121.8569454
5707,Cog Hill Terrace West,94568,37.7235699,-121.8564817
5702,Cog Hill Terrace West,94568,37.7236228,-121.8569897
6052,Kingsmill Terrace,94568,37.7260304,-121.8627944
6047,Kingsmill Terrace,94568,37.7256497,-121.8625483
6044,Kingsmill Terrace,94568,37.7259054,-121.8630137
6039,Kingsmill Terrace,94568,37.7254949,-121.8627903
6036,Kingsmill Terrace,94568,37.7257277,-121.8632578
5685,Signal Hill Drive,94568,37.7238166,-121.8549965
5686,Signal Hill Drive,94568,37.7236618,-121.8555477
2977,Glen Abbey Court,94568,37.7236042,-121.8561786
2965,Glen Abbey Court,94568,37.7235838,-121.8559889
2953,Glen Abbey Court,94568,37.7234184,-121.8558539
5696,Cog Hill Terrace West,94568,37.7234510,-121.8569960
5691,Cog Hill Terrace West,94568,37.7232709,-121.8565019
5683,Cog Hill Terrace West,94568,37.7231300,-121.8565646
2978,Glen Abbey Court,94568,37.7230854,-121.8562706
2952,Glen Abbey Court,94568,37.7232049,-121.8558712
2964,Glen Abbey Court,94568,37.7230784,-121.8560882
5660,Signal Hill Drive,94568,37.7234821,-121.8554907
5661,Signal Hill Drive,94568,37.7236180,-121.8549031
5652,Signal Hill Drive,94568,37.7233163,-121.8554510
5653,Signal Hill Drive,94568,37.7233825,-121.8548667
2782,Cog Hill Terrace East,94568,37.7247416,-121.8538869
2787,Cog Hill Terrace East,94568,37.7251382,-121.8540400
2768,Cog Hill Terrace East,94568,37.7247642,-121.8536113
2771,Cog Hill Terrace East,94568,37.7251789,-121.8537860
2757,Cog Hill Terrace East,94568,37.7251930,-121.8534856
2731,Cog Hill Terrace East,94568,37.7252425,-121.8531914
2752,Cog Hill Terrace East,94568,37.7248005,-121.8533509
2725,Cog Hill Terrace East,94568,37.7251735,-121.8528793
5690,Cog Hill Terrace West,94568,37.7233073,-121.8570399
5682,Cog Hill Terrace West,94568,37.7231527,-121.8570139
5638,Signal Hill Drive,94568,37.7231697,-121.8554556
5675,Cog Hill Terrace West,94568,37.7229923,-121.8565461
5258,Dublin Boulevard,94568,37.7056475,-121.8911471
5138,Dublin Boulevard,94568,37.7056088,-121.8888028
5253,Dublin Blvd,94566,37.7056460,-121.8910431
5240,Dublin Boulevard,94568,37.7056460,-121.8908409
5350,Dublin Boulevard,94568,37.7057479,-121.8928362
5130,Dublin Boulevard,94568,37.7056064,-121.8886358
5200,Dublin Boulevard,94568,37.7057751,-121.8898710
7243,Tamarack Drive,94568,37.7157850,-121.9225160
6800,Penn Drive,94568,37.7115399,-121.9195378
6851,Amador Plaza Road,94568,37.7057920,-121.9276539
6698,Amador Plaza Road,94568,37.7034294,-121.9272558
6750,Amador Plaza Road,94568,37.7040430,-121.9276646
6700,Amador Plaza Road,94568,37.7037787,-121.9274895
6766,Amador Plaza Road,94568,37.7042480,-121.9278036
6694,Amador Plaza Road,94568,37.7026002,-121.9268325
6694,Amador Plaza Road,94568,37.7027915,-121.9269383
6698,Amador Plaza Road,94568,37.7032920,-121.9271861
6780,Amador Plaza Road,94568,37.7043604,-121.9278633
6694,Amador Plaza Road,94568,37.7029018,-121.9269975
6694,Amador Plaza Road,94568,37.7024936,-121.9262636
6450,Dublin Court,94568,37.7028798,-121.9111504
6289,Madigan Drive,94568,37.7163267,-121.8822660
4584,Dublin Boulevard,94568,37.7053944,-121.8817229
4580,Dublin Boulevard,94568,37.7052217,-121.8816931
4582,Dublin Boulevard,94568,37.7053169,-121.8817095
4590,Dublin Boulevard,94568,37.7055803,-121.8817530
4588,Dublin Boulevard,94568,37.7054707,-121.8817360
6421,Golden Gate Drive,94568,37.7016119,-121.9268819
6429,Golden Gate Drive,94568,37.7017685,-121.9268717
6405,Golden Gate Drive,94568,37.7013948,-121.9276186
6409,Golden Gate Drive,94568,37.7014788,-121.9273507
6411,Golden Gate Drive,94568,37.7014963,-121.9272708
6413,Golden Gate Drive,94568,37.7015197,-121.9271959
6415,Golden Gate Drive,94568,37.7015438,-121.9271189
6419,Golden Gate Drive,94568,37.7015880,-121.9269580
6423,Golden Gate Drive,94568,37.7016359,-121.9268053
6425,Golden Gate Drive,94568,37.7016600,-121.9267284
6427,Golden Gate Drive,94568,37.7017926,-121.9267947
6431,Golden Gate Drive,94568,37.7017446,-121.9269482
6433,Golden Gate Drive,94568,37.7017208,-121.9270244
6437,Golden Gate Drive,94568,37.7016711,-121.9271826
6439,Golden Gate Drive,94568,37.7016471,-121.9272596
6441,Golden Gate Drive,94568,37.7016236,-121.9273345
6443,Golden Gate Drive,94568,37.7015996,-121.9274111
6445,Golden Gate Drive,94568,37.7015752,-121.9274890
6407,Golden Gate Drive,94568,37.7014544,-121.9274286
6417,Golden Gate Drive,94568,37.7015689,-121.9270389
6435,Golden Gate Drive,94568,37.7016962,-121.9271026
6447,Golden Gate Drive,94568,37.7015518,-121.9275641
6449,Golden Gate Drive,94568,37.7015043,-121.9277153
5200,Iron Horse Parkway,94568,37.7033672,-121.8985754
5300,Iron Horse Parkway,94568,37.7051692,-121.8978984
4906,Dublin Boulevard,94568,37.7056001,-121.8834500
4972,Dublin Boulevard,94568,37.7055953,-121.8847756
4962,Dublin Boulevard,94568,37.7055864,-121.8843160
4948,Dublin Boulevard,94568,37.7055658,-121.8840074
4906,Dublin Boulevard,94568,37.7056035,-121.8837551
4870,Dublin Boulevard,94568,37.7049512,-121.8825585
4882,Dublin Boulevard,94568,37.7053646,-121.8828636
4820,Dublin Boulevard,94568,37.7037360,-121.8824068
4860,Dublin Boulevard,94568,37.7047077,-121.8824685
5000,Dublin Boulevard,94568,37.7043697,-121.8824035
4930,Dublin Boulevard,94568,37.7041638,-121.8851467
4930,Dublin Boulevard,94568,37.7039948,-121.8849285
7581,Amador Valley Boulevard,94568,37.7092885,-121.9316635
6680,Regional Street,94568,37.7000848,-121.9333084
2760,Dublin Boulevard,94568,37.7059907,-121.8525049
2760,Dublin Boulevard,94568,37.7058551,-121.8528046
2710,Dublin Boulevard,94568,37.7061259,-121.8521227
3850,Fallon Road,94568,37.7049887,-121.8519107
3898,Fallon Road,94568,37.7056170,-121.8512326
3862,Fallon Road,94568,37.7049820,-121.8515040
6351,Dublin Boulevard,94568,37.7063340,-121.9088737
2755,Highland Meadows Court,94568,37.7242962,-121.8545749
2733,Highland Meadows Court,94568,37.7244240,-121.8541873
2721,Highland Meadows Court,94568,37.7244161,-121.8539157
2709,Highland Meadows Court,94568,37.7244622,-121.8536414
2701,Highland Meadows Court,94568,37.7244596,-121.8533223
2750,Highland Meadows Court,94568,37.7239251,-121.8544600
2738,Highland Meadows Court,94568,37.7239432,-121.8541298
2726,Highland Meadows Court,94568,37.7240256,-121.8538786
2712,Highland Meadows Court,94568,37.7240639,-121.8536026
2700,Highland Meadows Court,94568,37.7240623,-121.8533245
2873,Lochgreen Way,94568,37.7234262,-121.8544561
2847,Lochgreen Way,94568,37.7235392,-121.8541161
2833,Lochgreen Way,94568,37.7236087,-121.8538617
2815,Lochgreen Way,94568,37.7236799,-121.8535918
2807,Lochgreen Way,94568,37.7237157,-121.8533107
5695,Saddle Creek Terrace,94568,37.7248875,-121.8527891
5681,Saddle Creek Terrace,94568,37.7246623,-121.8528027
5673,Saddle Creek Terrace,94568,37.7244535,-121.8527801
5655,Saddle Creek Terrace,94568,37.7242112,-121.8527933
5619,Saddle Creek Terrace,94568,37.7239997,-121.8527883
5619,Saddle Creek Terrace,94568,37.7237621,-121.8527888
5601,Saddle Creek Terrace,94568,37.7235506,-121.8527668
4809,Perugia Street,94568,37.7109337,-121.8651694
5701,8th Street,94568,37.7183803,-121.8967245
5325,Broder Boulevard,94568,37.7179790,-121.8879970
8073,Via Zapata,94568,37.7155549,-121.9436424
11992,Carsten Court,94568,37.7012474,-121.9361634
3057,Vittoria Loop,94568,37.7142510,-121.8582878
6363,Tassajara Road,94568,37.7277390,-121.8698768
2400,Central Parkway,94568,37.7088572,-121.8478531
2400,Central Parkway,94568,37.7088234,-121.8472645
2400,Central Parkway,94568,37.7091942,-121.8471622
2400,Central Parkway,94568,37.7093647,-121.8475911
2400,Central Parkway,94568,37.7095550,-121.8471049
2400,Central Parkway,94568,37.7093060,-121.8465312
2400,Central Parkway,94568,37.7094324,-121.8459990
2400,Central Parkway,94568,37.7089715,-121.8464100
5151,Gleason Drive,94568,37.7151651,-121.8887948
2899,Southwind Lane,94568,37.7190088,-121.8552466
3707,Branding Iron Place,94568,37.7328806,-121.8678115
3731,Silvera Ranch Drive,94568,37.7320606,-121.8679168
3729,Silvera Ranch Drive,94568,37.7320105,-121.8677357
3709,Silvera Ranch Drive,94568,37.7319422,-121.8675821
3705,Silvera Ranch Drive,94568,37.7318565,-121.8674422
3701,Silvera Ranch Drive,94568,37.7317635,-121.8673073
5378,Tassajara Road,94588,37.7217556,-121.8728411
5378,Tassajara Road,94588,37.7223674,-121.8730992
3903,Branding Iron Court,94568,37.7320731,-121.8700498
3899,Branding Iron Court,94568,37.7320239,-121.8699589
3895,Branding Iron Court,94568,37.7319693,-121.8698653
3891,Branding Iron Court,94568,37.7319038,-121.8697658
3831,Silvera Ranch Drive,94568,37.7316060,-121.8695046
3839,Silvera Ranch Drive,94568,37.7314737,-121.8696295
3851,Silvera Ranch Drive,94568,37.7313506,-121.8697431
3857,Silvera Ranch Drive,94568,37.7312126,-121.8698208
3865,Silvera Ranch Drive,94568,37.7310569,-121.8699229
3897,Silvera Ranch Drive,94568,37.7304720,-121.8700685
3889,Silvera Ranch Drive,94568,37.7306196,-121.8700325
3881,Silvera Ranch Drive,94568,37.7307732,-121.8700024
3873,Silvera Ranch Drive,94568,37.7309053,-121.8699583
4101,Dublin Boulevard,94568,37.7061994,-121.8741440
4480,Tassajara Road,94568,37.7076123,-121.8738740
2400,Central Parkway,94568,37.7092930,-121.8467998
4912,Stonehaven Lane,94568,37.7164571,-121.8530289
4927,Stonehaven Lane,94568,37.7165158,-121.8525815
4913,Stonehaven Lane,94568,37.7163627,-121.8526077
4955,Stonehaven Lane,94568,37.7166704,-121.8525388
4940,Stonehaven Lane,94568,37.7167470,-121.8529908
4956,Stonehaven Lane,94568,37.7169059,-121.8529628
2753,Kilbride Lane North,94568,37.7170115,-121.8528189
2745,Kilbride Lane North,94568,37.7170415,-121.8526040
2737,Kilbride Lane North,94568,37.7170425,-121.8524139
2715,Kilbride Lane North,94568,37.7170723,-121.8522450
2697,Kilbride Lane North,94568,37.7171065,-121.8520784
4971,Piper Glen Terrace,94568,37.7172105,-121.8515239
4957,Piper Glen Terrace,94568,37.7170635,-121.8514804
4929,Piper Glen Terrace,94568,37.7167885,-121.8513889
4915,Piper Glen Terrace,94568,37.7166600,-121.8513235
4944,Piper Glen Terrace,94568,37.7168117,-121.8518708
4930,Piper Glen Terrace,94568,37.7166761,-121.8517913
2706,Kilbride Lane North,94568,37.7167446,-121.8520931
2730,Kilbride Lane North,94568,37.7167180,-121.8522749
4895,Landmark Way,94568,37.7164565,-121.8522148
4899,Landmark Way,94568,37.7164925,-121.8520250
4909,Stonehaven Lane,94568,37.7162120,-121.8526385
4891,Stonehaven Lane,94568,37.7160662,-121.8526915
4851,Landmark Way,94568,37.7159418,-121.8523382
4877,Stonehaven Lane,94568,37.7159168,-121.8527760
4865,Stonehaven Lane,94568,37.7157948,-121.8528702
4857,Stonehaven Lane,94568,37.7156516,-121.8529476
4823,Landmark Way,94568,37.7156634,-121.8525118
4839,Landmark Way,94568,37.7157979,-121.8524331
4809,Landmark Way,94568,37.7155248,-121.8526030
4836,Landmark Way,94568,37.7156074,-121.8520570
4806,Landmark Way,94568,37.7153548,-121.8522063
4772,Piper Glen Terrace,94568,37.7153716,-121.8518233
4786,Piper Glen Terrace,94568,37.7155153,-121.8517381
4848,Landmark Way,94568,37.7157484,-121.8519730
4856,Landmark Way,94568,37.7158905,-121.8519007
4816,Piper Glen Terrace,94568,37.7158139,-121.8516008
4832,Piper Glen Terrace,94568,37.7159653,-121.8515754
4868,Piper Glen Terrace,94568,37.7161148,-121.8515810
4870,Landmark Way,94568,37.7160341,-121.8518627
4888,Landmark Way,94568,37.7161790,-121.8518754
4882,Piper Glen Terrace,94568,37.7162563,-121.8516070
4883,Piper Glen Terrace,94568,37.7163826,-121.8512054
4841,Piper Glen Terrace,94568,37.7159298,-121.8511436
4813,Piper Glen Terrace,94568,37.7156370,-121.8512128
4799,Piper Glen Terrace,94568,37.7154977,-121.8512657
4756,Piper Glen Terrace,94568,37.7152374,-121.8518907
4757,Piper Glen Terrace,94568,37.7150950,-121.8514840
4743,Piper Glen Terrace,94568,37.7149668,-121.8515449
2672,Kilbride Lane South,94568,37.7148411,-121.8518536
2686,Kilbride Lane South,94568,37.7149203,-121.8520435
2694,Kilbride Lane South,94568,37.7149810,-121.8521988
2718,Kilbride Lane South,94568,37.7150485,-121.8523525
2732,Kilbride Lane South,94568,37.7151124,-121.8525114
2748,Kilbride Lane South,94568,37.7151765,-121.8526600
2756,Kilbride Lane South,94568,37.7152446,-121.8528189
2764,Kilbride Lane South,94568,37.7152988,-121.8529713
2772,Kilbride Lane South,94568,37.7153650,-121.8531269
2780,Kilbride Lane South,94568,37.7154163,-121.8532905
4830,Stonehaven Lane,94568,37.7155972,-121.8534761
4844,Stonehaven Lane,94568,37.7157555,-121.8534427
4858,Stonehaven Lane,94568,37.7158610,-121.8533240
4872,Stonehaven Lane,94568,37.7159912,-121.8532293
4886,Stonehaven Lane,94568,37.7161134,-121.8531409
4921,Royal Pines Court,94568,37.7159130,-121.8542893
4937,Royal Pines Court,94568,37.7160316,-121.8542250
4953,Royal Pines Court,94568,37.7161547,-121.8541386
4985,Royal Pines Court,94568,37.7164136,-121.8539635
4920,Royal Pines Court,94568,37.7161316,-121.8548195
4952,Royal Pines Court,94568,37.7163595,-121.8545909
4968,Royal Pines Court,94568,37.7164898,-121.8544893
4984,Royal Pines Court,94568,37.7166201,-121.8544054
4987,Grayhawk Court,94568,37.7167702,-121.8547970
4973,Grayhawk Court,94568,37.7166509,-121.8549042
4951,Grayhawk Court,94568,37.7165340,-121.8549918
4939,Grayhawk Court,94568,37.7164042,-121.8551226
4923,Grayhawk Court,94568,37.7162821,-121.8551800
5001,Royal Pines Way,94568,37.7167273,-121.8537264
5002,Royal Pines Way,94568,37.7168959,-121.8542171
5014,Royal Pines Way,94568,37.7170066,-121.8541313
5026,Royal Pines Way,94568,37.7171898,-121.8540588
5038,Royal Pines Way,94568,37.7173324,-121.8540785
5056,Royal Pines Way,94568,37.7174758,-121.8540910
5031,Grayhawk Lane,94568,37.7173841,-121.8545046
5023,Grayhawk Lane,94568,37.7172274,-121.8545306
5009,Grayhawk Lane,94568,37.7170625,-121.8545836
5047,Grayhawk Lane,94568,37.7175409,-121.8545337
5025,Royal Pines Way,94568,37.7170425,-121.8535892
5055,Royal Pines Way,94568,37.7173662,-121.8535621
5067,Royal Pines Way,94568,37.7175275,-121.8535690
5079,Royal Pines Way,94568,37.7176843,-121.8535544
5091,Royal Pines Way,94568,37.7178443,-121.8535709
5068,Royal Pines Way,94568,37.7176189,-121.8540827
5092,Royal Pines Way,94568,37.7179051,-121.8540838
5108,Royal Pines Way,94568,37.7180475,-121.8540879
5120,Royal Pines Way,94568,37.7181903,-121.8540713
2878,Poppy Hills Lane,94568,37.7180297,-121.8544136
2888,Poppy Hills Lane,94568,37.7179724,-121.8545876
2894,Poppy Hills Lane,94568,37.7179045,-121.8547386
2798,Poppy Hills Court,94568,37.7182696,-121.8536484
2786,Poppy Hills Court,94568,37.7182658,-121.8534414
5097,Piper Glen Terrace,94568,37.7183464,-121.8528243
5098,Piper Glen Terrace,94568,37.7179978,-121.8528726
2777,Poppy Hills Court,94568,37.7187911,-121.8534437
2785,Poppy Hills Court,94568,37.7187827,-121.8536431
2799,Poppy Hills Court,94568,37.7186803,-121.8538074
2845,Poppy Hills Lane,94568,37.7185935,-121.8541857
2857,Poppy Hills Lane,94568,37.7185301,-121.8543449
2869,Poppy Hills Lane,94568,37.7184517,-121.8545046
2881,Poppy Hills Lane,94568,37.7183990,-121.8546731
2889,Poppy Hills Lane,94568,37.7183442,-121.8548252
2895,Poppy Hills Lane,94568,37.7182860,-121.8549888
2904,Southwind Lane,94568,37.7185681,-121.8551420
2886,Southwind Lane,94568,37.7186997,-121.8548182
2874,Southwind Lane,94568,37.7187558,-121.8546645
2862,Southwind Lane,94568,37.7188145,-121.8544934
2850,Southwind Lane,94568,37.7188878,-121.8543454
2838,Southwind Lane,94568,37.7189483,-121.8541662
2826,Southwind Lane,94568,37.7190168,-121.8540135
2814,Southwind Lane,94568,37.7190787,-121.8538610
2802,Southwind Lane,94568,37.7191414,-121.8536921
2790,Southwind Lane,94568,37.7192051,-121.8535284
2791,Southwind Lane,94568,37.7195598,-121.8537955
2803,Southwind Lane,94568,37.7195041,-121.8539509
2815,Southwind Lane,94568,37.7194187,-121.8541166
2839,Southwind Lane,94568,37.7193208,-121.8544362
2851,Southwind Lane,94568,37.7192484,-121.8546105
2863,Southwind Lane,94568,37.7191665,-121.8547634
2875,Southwind Lane,94568,37.7191061,-121.8549294
2887,Southwind Lane,94568,37.7190531,-121.8550864
2905,Southwind Lane,94568,37.7189453,-121.8554038
2917,Southwind Lane,94568,37.7188555,-121.8555927
5196,Grayhawk Lane,94568,37.7187021,-121.8557151
5172,Grayhawk Lane,94568,37.7185005,-121.8556324
5160,Grayhawk Lane,94568,37.7183864,-121.8555629
5136,Grayhawk Lane,94568,37.7181221,-121.8553769
5112,Grayhawk Lane,94568,37.7179993,-121.8553321
5096,Grayhawk Lane,94568,37.7178645,-121.8552193
5072,Grayhawk Lane,94568,37.7177348,-121.8551566
5036,Grayhawk Lane,94568,37.7174339,-121.8550485
4986,Grayhawk Court,94568,37.7169711,-121.8552425
4972,Grayhawk Court,94568,37.7168449,-121.8553471
4938,Grayhawk Court,94568,37.7166220,-121.8555726
4922,Grayhawk Court,94568,37.7165153,-121.8557671
4906,Grayhawk Court,94568,37.7163856,-121.8558461
5057,Piper Glen Terrace,94568,37.7181425,-121.8520005
5065,Piper Glen Terrace,94568,37.7182780,-121.8520716
5073,Piper Glen Terrace,94568,37.7183982,-121.8522560
5048,Piper Glen Terrace,94568,37.7179005,-121.8523324
5028,Piper Glen Terrace,94568,37.7176630,-121.8521638
2707,Eagles Landing Court,94568,37.7176227,-121.8524774
2723,Eagles Landing Court,94568,37.7176774,-121.8526504
5033,Piper Glen Terrace,94568,37.7178915,-121.8518170
5021,Piper Glen Terrace,94568,37.7177615,-121.8517511
4999,Piper Glen Terrace,94568,37.7174854,-121.8516197
2684,Eagles Landing Court,94568,37.7173655,-121.8520118
2698,Eagles Landing Court,94568,37.7173209,-121.8521827
2708,Eagles Landing Court,94568,37.7172935,-121.8523727
2716,Eagles Landing Court,94568,37.7172789,-121.8525557
2724,Eagles Landing Court,94568,37.7172770,-121.8527378
2736,Eagles Landing Court,94568,37.7172760,-121.8529229
2708,Montelena Court,94568,37.7188820,-121.8522478
2690,Montelena Court,94568,37.7188953,-121.8520728
2688,Montelena Court,94568,37.7188887,-121.8519022
2672,Montelena Court,94568,37.7188809,-121.8517322
2668,Montelena Court,94568,37.7188962,-121.8515537
2650,Montelena Court,94568,37.7188921,-121.8513704
5048,Cerreto Street,94568,37.7186635,-121.8512951
5036,Cerreto Street,94568,37.7185316,-121.8512138
5020,Cerreto Street,94568,37.7183879,-121.8511182
5012,Cerreto Street,94568,37.7182591,-121.8510290
5029,Cerreto Street,94568,37.7186178,-121.8506844
5017,Cerreto Street,94568,37.7184794,-121.8505999
5005,Cerreto Street,94568,37.7183463,-121.8505005
4973,Cerreto Street,94568,37.7182183,-121.8503549
4950,Cerreto Street,94568,37.7180919,-121.8502529
2565,Calabria Court,94568,37.7183400,-121.8501672
2559,Calabria Court,94568,37.7184369,-121.8500375
2572,Vannucci Way,94568,37.7187137,-121.8503300
2550,Vannucci Way,94568,37.7187327,-121.8501643
5050,Salerno Drive,94568,37.7191373,-121.8503594
5062,Salerno Drive,94568,37.7192887,-121.8504005
5090,Salerno Drive,94568,37.7194506,-121.8504300
5116,Salerno Drive,94568,37.7196057,-121.8504646
5063,Salerno Drive,94568,37.7193973,-121.8499156
5087,Salerno Drive,94568,37.7195451,-121.8499373
5117,Salerno Drive,94568,37.7196955,-121.8499647
5055,Cerreto Street,94568,37.7189874,-121.8508782
5079,Cerreto Street,94568,37.7191426,-121.8509237
5107,Cerreto Street,94568,37.7192938,-121.8509768
5133,Cerreto Street,94568,37.7194552,-121.8510088
5151,Cerreto Street,94568,37.7196066,-121.8510103
5163,Cerreto Street,94568,37.7197579,-121.8510588
5132,Salerno Drive,94568,37.7197626,-121.8504700
2658,Palatino Court,94568,37.7197031,-121.8515460
2662,Palatino Court,94568,37.7196968,-121.8517242
2692,Palatino Court,94568,37.7196851,-121.8520622
2706,Palatino Court,94568,37.7196893,-121.8522446
2712,Palatino Court,94568,37.7196962,-121.8524144
2720,Palatino Court,94568,37.7196791,-121.8525903
2728,Palatino Court,94568,37.7196807,-121.8527648
2725,Montelena Court,94568,37.7192903,-121.8525566
2695,Montelena Court,94568,37.7192879,-121.8522078
2689,Montelena Court,94568,37.7192756,-121.8520314
2671,Montelena Court,94568,37.7192836,-121.8516836
2655,Montelena Court,94568,37.7192934,-121.8515130
2683,Montelena Court,94568,37.7192936,-121.8518517
2399,Forino Drive,94568,37.7207023,-121.8474269
2385,Forino Drive,94568,37.7207626,-121.8472687
2348,Cantalise Drive,94568,37.7203715,-121.8472532
2356,Cantalise Drive,94568,37.7202478,-121.8471780
2364,Cantalise Drive,94568,37.7201067,-121.8471239
2402,Cantalise Drive,94568,37.7194314,-121.8472802
2390,Cantalise Drive,94568,37.7196541,-121.8469874
2372,Cantalise Drive,94568,37.7199777,-121.8470458
2390,Haggerty Drive,94568,37.7205941,-121.8464462
2378,Haggerty Drive,94568,37.7204806,-121.8464123
2352,Haggerty Drive,94568,37.7202594,-121.8463036
2326,Haggerty Drive,94568,37.7200303,-121.8461602
2312,Haggerty Drive,94568,37.7199171,-121.8460199
2300,Haggerty Drive,94568,37.7198898,-121.8458115
2286,Haggerty Drive,94568,37.7199137,-121.8456366
2272,Haggerty Drive,94568,37.7199406,-121.8454983
2260,Haggerty Drive,94568,37.7199608,-121.8453467
2252,Haggerty Drive,94568,37.7199854,-121.8451979
2236,Haggerty Drive,94568,37.7199980,-121.8450466
2230,Haggerty Drive,94568,37.7200155,-121.8448920
2216,Haggerty Drive,94568,37.7200195,-121.8447458
2200,Haggerty Drive,94568,37.7200385,-121.8445950
2229,Haggerty Drive,94568,37.7203825,-121.8449183
2235,Haggerty Drive,94568,37.7203759,-121.8450739
2257,Haggerty Drive,94568,37.7203378,-121.8453697
2337,Haggerty Drive,94568,37.7202513,-121.8457910
2351,Haggerty Drive,94568,37.7203614,-121.8458475
2363,Haggerty Drive,94568,37.7204792,-121.8458806
2377,Haggerty Drive,94568,37.7205766,-121.8459413
2278,Forino Drive,94568,37.7207502,-121.8455649
2266,Forino Drive,94568,37.7207944,-121.8454020
2250,Forino Drive,94568,37.7208157,-121.8452461
2238,Forino Drive,94568,37.7208357,-121.8450948
2226,Forino Drive,94568,37.7208514,-121.8449473
2218,Forino Drive,94568,37.7208635,-121.8447938
2210,Forino Drive,94568,37.7208706,-121.8446417
2267,Forino Drive,94568,37.7211777,-121.8455556
2295,Forino Drive,94568,37.7210823,-121.8459691
2309,Forino Drive,94568,37.7210532,-121.8461712
2335,Forino Drive,94568,37.7209481,-121.8465600
2351,Forino Drive,94568,37.7208997,-121.8467658
5251,Montiano Court,94568,37.7212824,-121.8468457
5259,Montiano Court,94568,37.7212879,-121.8466626
5267,Montiano Court,94568,37.7213501,-121.8463858
5275,Montiano Court,94568,37.7214791,-121.8461549
5260,Montiano Court,94568,37.7217148,-121.8466633
5268,Montiano Court,94568,37.7218328,-121.8465542
5280,Montiano Court,94568,37.7221161,-121.8464954
5292,Montiano Court,94568,37.7222682,-121.8464355
2296,Brandini Drive,94568,37.7225106,-121.8463814
2290,Brandini Drive,94568,37.7224323,-121.8462219
2286,Brandini Drive,94568,37.7223365,-121.8460408
2280,Brandini Drive,94568,37.7222206,-121.8458720
2272,Brandini Drive,94568,37.7220972,-121.8457655
2252,Brandini Drive,94568,37.7218038,-121.8456392
2236,Brandini Drive,94568,37.7216364,-121.8456281
2222,Brandini Drive,94568,37.7214915,-121.8456077
2207,Brandini Drive,94568,37.7213809,-121.8450818
2219,Brandini Drive,94568,37.7215276,-121.8450889
2237,Brandini Drive,94568,37.7216716,-121.8451160
2251,Brandini Drive,94568,37.7218266,-121.8450979
2263,Brandini Drive,94568,37.7221220,-121.8451994
2271,Brandini Drive,94568,37.7222588,-121.8452643
2285,Brandini Drive,94568,37.7225095,-121.8454892
2289,Brandini Drive,94568,37.7226152,-121.8456368
2291,Brandini Drive,94568,37.7227063,-121.8458093
2295,Brandini Drive,94568,37.7227934,-121.8459687
2298,Valentano Drive,94568,37.7231330,-121.8459174
2292,Valentano Drive,94568,37.7230687,-121.8457671
2288,Valentano Drive,94568,37.7229812,-121.8456000
2282,Valentano Drive,94568,37.7229063,-121.8454298
2303,Brandini Drive,94568,37.7230454,-121.8465444
2311,Brandini Drive,94568,37.7231475,-121.8467520
2323,Brandini Drive,94568,37.7232248,-121.8469336
2302,Valentano Drive,94568,37.7233275,-121.8463559
2310,Brandini Drive,94568,37.7227059,-121.8468608
2322,Brandini Drive,94568,37.7228024,-121.8470530
2354,Brandini Drive,94568,37.7229641,-121.8474278
2362,Brandini Drive,94568,37.7230633,-121.8476208
2341,Amantea Way,94568,37.7224248,-121.8470995
2363,Amantea Way,94568,37.7225414,-121.8474804
2381,Amantea Way,94568,37.7226294,-121.8476850
2395,Amantea Way,94568,37.7227160,-121.8478468
2411,Amantea Way,94568,37.7227934,-121.8480187
2425,Amantea Way,94568,37.7228592,-121.8481881
2380,Brandini Drive,94568,37.7231390,-121.8478061
2410,Brandini Drive,94568,37.7233207,-121.8481879
2424,Brandini Drive,94568,37.7234136,-121.8483906
2441,Amantea Way,94568,37.7230011,-121.8484505
2457,Amantea Way,94568,37.7230739,-121.8486446
2469,Amantea Way,94568,37.7231702,-121.8488183
2442,Amantea Way,94568,37.7226932,-121.8488252
2458,Amantea Way,94568,37.7227740,-121.8490008
2472,Amantea Way,94568,37.7228553,-121.8491608
2510,Amantea Way,94568,37.7230110,-121.8495529
2501,Cipriani Way,94568,37.7223501,-121.8490895
2515,Cipriani Way,94568,37.7224350,-121.8492533
2527,Cipriani Way,94568,37.7225081,-121.8494352
2533,Cipriani Way,94568,37.7225491,-121.8496412
2545,Cipriani Way,94568,37.7225971,-121.8498344
2557,Cipriani Way,94568,37.7226230,-121.8500275
2508,Cipriani Way,94568,37.7219832,-121.8493569
2522,Cipriani Way,94568,37.7220594,-121.8495565
2530,Cipriani Way,94568,37.7221480,-121.8497648
2566,Cipriani Way,94568,37.7222376,-121.8501734
2582,Cipriani Way,94568,37.7222386,-121.8503884
2573,Cipriani Way,94568,37.7226578,-121.8502343
2585,Cipriani Way,94568,37.7226419,-121.8504456
5551,Avellina Drive,94568,37.7226574,-121.8507833
5557,Avellina Drive,94568,37.7228246,-121.8507843
2552,Amantea Way,94568,37.7230913,-121.8499667
2558,Amantea Way,94568,37.7230894,-121.8501569
2574,Amantea Way,94568,37.7231175,-121.8503496
2592,Amantea Way,94568,37.7231428,-121.8505414
2600,Amantea Way,94568,37.7231324,-121.8507642
2593,Amantea Way,94568,37.7235420,-121.8505432
2579,Amantea Way,94568,37.7235288,-121.8503500
2553,Amantea Way,94568,37.7234915,-121.8499600
2537,Amantea Way,94568,37.7234744,-121.8497686
2525,Amantea Way,94568,37.7234341,-121.8495710
2509,Amantea Way,94568,37.7233955,-121.8493721
5565,Avellina Drive,94568,37.7235742,-121.8508462
5589,Avellina Drive,94568,37.7239330,-121.8507472
5601,Avellina Drive,94568,37.7240690,-121.8506751
2548,Brandini Drive,94568,37.7239837,-121.8502757
2534,Brandini Drive,94568,37.7239768,-121.8500541
2520,Brandini Drive,94568,37.7239455,-121.8498017
2490,Brandini Drive,94568,37.7238625,-121.8493920
2478,Brandini Drive,94568,37.7238234,-121.8491624
2466,Brandini Drive,94568,37.7237304,-121.8489283
2450,Brandini Drive,94568,37.7236417,-121.8487409
2436,Brandini Drive,94568,37.7235164,-121.8485487
2429,Brandini Drive,94568,37.7238288,-121.8481787
2437,Brandini Drive,94568,37.7239197,-121.8483509
2455,Brandini Drive,94568,37.7240334,-121.8485350
2467,Brandini Drive,94568,37.7241225,-121.8487172
2426,Valentano Drive,94568,37.7243558,-121.8483237
2473,Brandini Drive,94568,37.7242120,-121.8489595
2481,Brandini Drive,94568,37.7242628,-121.8491522
2456,Valentano Drive,94568,37.7245499,-121.8487107
2470,Valentano Drive,94568,37.7246042,-121.8489433
2497,Brandini Drive,94568,37.7243093,-121.8493726
2486,Valentano Drive,94568,37.7246508,-121.8491390
2498,Valentano Drive,94568,37.7246821,-121.8493403
2512,Valentano Drive,94568,37.7247048,-121.8495660
2523,Brandini Drive,94568,37.7243762,-121.8497940
2539,Brandini Drive,94568,37.7243842,-121.8500258
5639,Avellina Drive,94568,37.7244598,-121.8504160
5669,Avellina Drive,94568,37.7248048,-121.8501453
5600,Avellina Drive,94568,37.7241596,-121.8512093
5608,Avellina Drive,94568,37.7243308,-121.8511220
5622,Avellina Drive,94568,37.7245036,-121.8510208
5636,Avellina Drive,94568,37.7246415,-121.8508965
5652,Avellina Drive,94568,37.7247984,-121.8507705
2576,Encanto Way,94568,37.7255818,-121.8501046
2560,Encanto Way,94568,37.7255534,-121.8498951
2538,Encanto Way,94568,37.7255255,-121.8496775
2522,Encanto Way,94568,37.7255055,-121.8494558
2551,Valentano Drive,94568,37.7252215,-121.8500576
2521,Valentano Drive,94568,37.7251380,-121.8496012
2511,Valentano Drive,94568,37.7251018,-121.8493744
2495,Valentano Drive,94568,37.7250840,-121.8491436
2500,Encanto Way,94568,37.7254676,-121.8492502
2468,Encanto Way,94568,37.7254231,-121.8488453
2452,Encanto Way,94568,37.7252998,-121.8483160
2430,Encanto Way,94568,37.7251900,-121.8480744
2406,Encanto Way,94568,37.7250889,-121.8478878
2392,Encanto Way,94568,37.7249468,-121.8477125
2378,Encanto Way,94568,37.7248198,-121.8474807
2433,Valentano Drive,94568,37.7247212,-121.8480311
2453,Valentano Drive,94568,37.7249243,-121.8484327
2421,Valentano Drive,94568,37.7245793,-121.8478372
2405,Valentano Drive,94568,37.7244749,-121.8476346
2399,Valentano Drive,94568,37.7243762,-121.8474439
2391,Valentano Drive,94568,37.7242586,-121.8472223
2336,Encanto Way,94568,37.7246143,-121.8470450
5516,Lattari Street,94568,37.7244160,-121.8466489
5510,Lattari Street,94568,37.7242449,-121.8467467
5502,Lattari Street,94568,37.7240692,-121.8468619
2386,Valentano Drive,94568,37.7239131,-121.8474976
2397,Brandini Drive,94568,37.7235989,-121.8477305
2373,Brandini Drive,94568,37.7235108,-121.8475366
2347,Brandini Drive,94568,37.7233244,-121.8471293
2360,Valentano Drive,94568,37.7237184,-121.8471274
2346,Valentano Drive,94568,37.7236169,-121.8469347
2330,Valentano Drive,94568,37.7235448,-121.8467660
2318,Valentano Drive,94568,37.7234383,-121.8465550
2309,Encanto Way,94568,37.7248527,-121.8466209
2335,Encanto Way,94568,37.7249810,-121.8468464
2351,Encanto Way,94568,37.7250626,-121.8470176
5603,Atella Court,94568,37.7252851,-121.8474036
5615,Atella Court,94568,37.7254230,-121.8472871
5552,Castello Court,94568,37.7253427,-121.8464721
5566,Castello Court,94568,37.7255280,-121.8463645
5582,Castello Court,94568,37.7257826,-121.8464471
5597,Castello Court,94568,37.7259518,-121.8458255
5585,Castello Court,94568,37.7257698,-121.8457818
5573,Castello Court,94568,37.7255753,-121.8458184
5561,Castello Court,94568,37.7253749,-121.8459254
5555,Castello Court,94568,37.7252205,-121.8460274
5537,Castello Court,94568,37.7250341,-121.8460853
5525,Castello Court,94568,37.7248395,-121.8461074
5628,Atella Court,94568,37.7257236,-121.8477878
5701,Moorjani Street,94568,37.7257333,-121.8482691
5713,Moorjani Street,94568,37.7259179,-121.8482176
5723,Moorjani Street,94568,37.7260744,-121.8481775
5735,Moorjani Street,94568,37.7262544,-121.8481561
2502,Molinaro Way,94568,37.7262288,-121.8487016
2516,Molinaro Way,94568,37.7262456,-121.8488971
2532,Molinaro Way,94568,37.7262887,-121.8491139
2503,Encanto Way,94568,37.7258530,-121.8491851
2483,Encanto Way,94568,37.7258410,-121.8489696
2465,Encanto Way,94568,37.7258092,-121.8487646
2519,Encanto Way,94568,37.7259138,-121.8493982
2550,Molinaro Way,94568,37.7263000,-121.8493452
2562,Molinaro Way,94568,37.7263296,-121.8495617
2578,Molinaro Way,94568,37.7263769,-121.8497921
2590,Molinaro Way,94568,37.7264303,-121.8499957
2575,Encanto Way,94568,37.7259901,-121.8500552
2559,Encanto Way,94568,37.7259542,-121.8498221
5739,Avellina Drive,94568,37.7259845,-121.8504013
5753,Avellina Drive,94568,37.7261712,-121.8504772
5767,Avellina Drive,94568,37.7263505,-121.8505325
5785,Avellina Drive,94568,37.7265209,-121.8504687
5831,Avellina Drive,94568,37.7269300,-121.8502941
2591,Molinaro Way,94568,37.7268310,-121.8498781
2577,Molinaro Way,94568,37.7267570,-121.8496545
2563,Molinaro Way,94568,37.7267284,-121.8494437
2555,Molinaro Way,94568,37.7266934,-121.8492396
2533,Molinaro Way,94568,37.7266870,-121.8490329
5839,Avellina Drive,94568,37.7270787,-121.8501360
5863,Avellina Drive,94568,37.7271957,-121.8499380
5879,Avellina Drive,94568,37.7272984,-121.8497822
2696,Ducale Way,94568,37.7271335,-121.8494585
2682,Ducale Way,94568,37.7270810,-121.8492170
2670,Ducale Way,94568,37.7270553,-121.8489788
2658,Ducale Way,94568,37.7270342,-121.8487679
2650,Ducale Way,94568,37.7269978,-121.8485455
2505,Molinaro Way,94568,37.7266383,-121.8486070
5759,Moorjani Street,94568,37.7265936,-121.8480893
5771,Moorjani Street,94568,37.7267603,-121.8480613
5783,Moorjani Street,94568,37.7269388,-121.8480313
2637,Ducale Court,94568,37.7274876,-121.8482286
2625,Ducale Court,94568,37.7275831,-121.8480219
2406,Lorenzo Court,94568,37.7216839,-121.8483065
2412,Lorenzo Court,94568,37.7218489,-121.8481791
2411,Lorenzo Court,94568,37.7219295,-121.8480004
2405,Lorenzo Court,94568,37.7218492,-121.8477605
5230,Montiano Lane,94568,37.7216009,-121.8475752
5238,Montiano Lane,94568,37.7216354,-121.8473503
2342,Amantea Way,94568,37.7220320,-121.8472674
2350,Amantea Way,94568,37.7220970,-121.8474753
2358,Amantea Way,94568,37.7221700,-121.8476819
2370,Amantea Way,94568,37.7222496,-121.8478825
2394,Amantea Way,94568,37.7223324,-121.8480780
5355,Salerno Drive,94568,37.7224742,-121.8483463
5343,Salerno Drive,94568,37.7223439,-121.8484698
5319,Salerno Drive,94568,37.7220563,-121.8486731
5307,Salerno Drive,94568,37.7219130,-121.8487577
5295,Salerno Drive,94568,37.7217533,-121.8488293
5283,Salerno Drive,94568,37.7216176,-121.8489529
5222,Montiano Lane,94568,37.7214273,-121.8483047
2535,Ravello Way,94568,37.7215840,-121.8495561
2543,Ravello Way,94568,37.7216430,-121.8497758
5517,Avellina Drive,94568,37.7220851,-121.8507768
4980,Cerreto Street,94568,37.7179980,-121.8508282
2238,Valentano Drive,94568,37.7221648,-121.8447627
2250,Valentano Drive,94568,37.7223226,-121.8448317
2256,Valentano Drive,94568,37.7224671,-121.8449075
2226,Valentano Drive,94568,37.7218276,-121.8447159
2220,Valentano Drive,94568,37.7216796,-121.8447000
2216,Valentano Drive,94568,37.7215286,-121.8446837
2208,Valentano Drive,94568,37.7213811,-121.8447005
2202,Valentano Drive,94568,37.7212338,-121.8446857
6382,Dove Avenue,94568,37.7104591,-121.9091287
6386,Dove Avenue,94568,37.7105203,-121.9090600
6390,Dove Avenue,94568,37.7105662,-121.9090010
6392,Dove Avenue,94568,37.7105995,-121.9089207
6398,Dove Avenue,94568,37.7106315,-121.9089697
7243,Tamarack Drive,94568,37.7158892,-121.9225160
5900,Signal Hill Drive,94568,37.7224931,-121.8584505
5300,Iron Horse Parkway,94568,37.7051663,-121.8979056
