House number,Street name,Postal code,Latitude,Longitude
9961,Elk Grove-Florin Road,95624,38.3958053,-121.3709146
3033,Buckminster Drive,95758,38.4182430,-121.4699537
9664,9664 Bruceville Road,95757,38.4065135,-121.4182810
7101,Elk Grove Boulevard,95758,38.4100083,-121.4200614
7211,Elk Grove Boulevard,95757,38.4099380,-121.4185919
9650,Bruceville Road,95757,38.4074279,-121.4199611
9674,Bruceville Road,95757,38.4062372,-121.4202990
9670,Bruceville Road,95757,38.4065756,-121.4202938
9624,Bruceville Road,95757,38.4081367,-121.4182140
7701,Laguna Boulevard,95758,38.4238711,-121.4137512
7427,Laguna Boulevard,95758,38.4243566,-121.4150172
7715,Laguna Boulevard,95758,38.4247141,-121.4127856
7611,Laguna Boulevard,95758,38.4259507,-121.4143735
7601,Laguna Boulevard,95758,38.4261524,-121.4146537
8211,Laguna Boulevard,95758,38.4235558,-121.4061363
8215,Laguna Boulevard,95758,38.4236816,-121.4056294
8145,Elk Grove Boulevard,95758,38.4095631,-121.4064340
5010,Elk Grove Boulevard,95758,38.4083517,-121.4479934
4720,Elk Grove Boulevard,95758,38.4078297,-121.4495820
9160,West Stockton Boulevard,95758,38.4238402,-121.4018513
8519,Bond Road,95624,38.4245857,-121.3875705
8519,Bond Road,95624,38.4249287,-121.3876308
8517,Bond Road,95624,38.4254082,-121.3876382
9175,East Stockton Boulevard,95624,38.4265041,-121.3909310
9135,East Stockton Boulevard,95624,38.4267428,-121.3945605
9972,Parklake Way,94624,38.3951367,-121.3683639
2733,Elk Grove Boulevard,95758,38.4089069,-121.4766383
10075,Bruceville Road,95757,38.3931510,-121.4168650
9750,Elk Grove Florin Road,95624,38.4036580,-121.3719503
9754,Elk Grove Florin Road,95624,38.4034890,-121.3719470
9742,Elk Grove Florin Road,95624,38.4039014,-121.3720918
9746,Elk Grove Florin Road,95624,38.4037982,-121.3719720
9742,Elk Grove Florin Road,95624,38.4039843,-121.3719369
8963,El Mirador Drive,95624,38.4051577,-121.3682431
8967,El Mirador Drive,95624,38.4051267,-121.3679868
8959,El Mirador Drive,95624,38.4051467,-121.3684759
8931,El Mirador Drive,95624,38.4051546,-121.3700040
8943,El Mirador Drive,95624,38.4051533,-121.3693620
8947,El Mirador Drive,95624,38.4051546,-121.3691363
9508,Emerald Park Drive,95624,38.4054418,-121.3695478
9512,Emerald Park Drive,95624,38.4054524,-121.3693617
2300,Longport Court,95758,38.4251980,-121.4823163
2330,Longport Court,95758,38.4250530,-121.4813874
2330,Longport Court,95758,38.4249880,-121.4811370
9146,Harbour Point Drive,95758,38.4256841,-121.4810420
9100,Harbour Point Drive,95758,38.4271726,-121.4811950
2323,Laguna Boulevard,95758,38.4281040,-121.4813340
5060,Laguna Boulevard,95758,38.4228753,-121.4464010
8755,Elk Grove Boulevard,95624,38.4094151,-121.3781453
8795,Elk Grove Boulevard,95624,38.4100559,-121.3765068
8767,Elk Grove Boulevard,95624,38.4096764,-121.3781485
8585,Elk Grove Boulevard,95624,38.4103349,-121.3854117
8539,Elk Grove Boulevard,95624,38.4102344,-121.3869853
8607,Elk Grove Boulevard,95624,38.4094459,-121.3850580
9603,East Stockton Boulevard,95624,38.4086510,-121.3842870
9182,Survey Road,95624,38.3754235,-121.3580410
9565,Crisswell Drive,95624,38.4153293,-121.3405433
8180,Sheldon Road,95758,38.4376210,-121.4057151
8461,Elk Grove Florin Road,95624,38.4502047,-121.3699360
5100,Laguna Boulevard,95758,38.4220022,-121.4454761
8520,Bradshaw Road,95624,38.4480020,-121.3359937
8700,Bradshaw Road,95624,38.4413262,-121.3366293
8700,Bradshaw Road,95624,38.4403144,-121.3354814
9825,Waterman Road,95624,38.4011645,-121.3523774
8871,Bond Road,95624,38.4237658,-121.3732020
8234,Laguna Boulevard,95758,38.4220253,-121.4018470
8335,Elk Grove Boulevard,95758,38.4098705,-121.3965660
9105,Bruceville Road,95758,38.4264497,-121.4168700
9059,Bruceville Rd,95758,38.4285221,-121.4172458
8848,Calvine Road,95624,38.4522361,-121.3742530
8447,Elk Grove Florin Road,95624,38.4509858,-121.3711410
8361,Sheldon Road,95624,38.4387414,-121.3966911
9163,East Stockton Boulevard,95624,38.4265184,-121.3927834
8234,Laguna Boulevard,95758,38.4219203,-121.4017304
8361,Sheldon Road,95624,38.4387519,-121.3963600
8447,Elk Grove Florin Road,95624-9519,38.4509885,-121.3713244
8417,Elk Grove Florin Road,95624,38.4519712,-121.3703004
9165,Elk Grove Florin Road,95624,38.4255630,-121.3710610
9045,Bruceville Road,95758,38.4299335,-121.4169980
8751,Elk Grove Boulevard,95624,38.4101221,-121.3778543
9059,Bruceville Road,95758,38.4286928,-121.4172426
9045,Bruceville Road,95758,38.4301100,-121.4170025
9291,Bendel Place,95624,38.4002749,-121.3541702
10064,Bruceville Road,95757,38.3936383,-121.4181769
9248,Survey Road,95624,38.3776842,-121.3570946
9248,Survey Road,95624,38.3777877,-121.3569341
3147,Dwight Road,95758,38.4267334,-121.4603135
7803,Laguna Boulevard,95758,38.4249515,-121.4128397
2733,Elk Grove Boulevard,95757,38.4086830,-121.4760100
9263,Bendel Place,95624,38.4000071,-121.3535837
6616,Laguna Boulevard,95758,38.4227020,-121.4263980
6608,Laguna Boulevard,94758,38.4229050,-121.4267460
6628,Laguna Boulevard,95758,38.4226612,-121.4255866
8841,Upbeat Way,95757,38.3817087,-121.3757593
8845,Upbeat Way,95757,38.3817078,-121.3756105
8849,Upbeat Way,95757,38.3817067,-121.3754447
8853,Upbeat Way,95757,38.3817057,-121.3752789
8857,Upbeat Way,95757,38.3817045,-121.3751030
8852,Upbeat Way,95757,38.3813435,-121.3753433
8848,Upbeat Way,95757,38.3813418,-121.3755065
8844,Upbeat Way,95757,38.3812874,-121.3756519
8840,Upbeat Way,95757,38.3813384,-121.3758239
8836,Upbeat Way,95757,38.3813365,-121.3760092
8832,Upbeat Way,95757,38.3813347,-121.3761747
8828,Upbeat Way,95757,38.3812719,-121.3763189
8824,Upbeat Way,95757,38.3812820,-121.3764913
8820,Upbeat Way,95757,38.3812734,-121.3766680
8816,Upbeat Way,95757,38.3812774,-121.3768370
8812,Upbeat Way,95757,38.3812867,-121.3770071
8808,Upbeat Way,95757,38.3812657,-121.3771772
8804,Upbeat Way,95757,38.3812529,-121.3773322
8800,Upbeat Way,95757,38.3812692,-121.3775080
10357,Ensemble Way,95757,38.3820133,-121.3757595
10301,Ensemble Way,95757,38.3836218,-121.3752204
10340,Ensemble Way,95757,38.3823392,-121.3756710
10300,Ensemble Way,95757,38.3836407,-121.3756791
10341,Dynamic Way,95757,38.3823413,-121.3760546
10301,Dynamic Way,95757,38.3836302,-121.3760680
10329,Philharmonic Way,95757,38.3824296,-121.3793859
10301,Philharmonic Way,95757,38.3835881,-121.3793966
10301,Tempo Way,95757,38.3835755,-121.3802469
10337,Tempo Way,95757,38.3821058,-121.3802871
10340,Tempo Way,95757,38.3821227,-121.3794985
10300,Tempo Way,95757,38.3835902,-121.3798875
8781,Maestro Way,95757,38.3857347,-121.3765481
8761,Maestro Way,95757,38.3857305,-121.3775727
8780,Maestro Way,95757,38.3854089,-121.3765883
8760,Maestro Way,95757,38.3854089,-121.3775754
8753,Maestro Way,95757,38.3857432,-121.3779563
8737,Maestro Way,95757,38.3857390,-121.3787743
8752,Maestro Way,95757,38.3854173,-121.3779563
8732,Maestro Way,95757,38.3854173,-121.3790292
10724,Maestro Way,95757,38.3854183,-121.3795133
10716,Maestro Way,95757,38.3854204,-121.3799170
8748,Flute Circle,95757,38.3847697,-121.3781360
8732,Flute Circle,95757,38.3847697,-121.3789728
8733,Flute Circle,95757,38.3850893,-121.3789836
8753,Flute Circle,95757,38.3850998,-121.3779643
8824,Piano Circle,95757,38.3847950,-121.3765535
8808,Piano Circle,95757,38.3847928,-121.3773957
8805,Piano Circle,95757,38.3850819,-121.3775566
8825,Piano Circle,95757,38.3850777,-121.3765642
10293,Baritone Way,95757,38.3840722,-121.3760861
10253,Baritone Way,95757,38.3854572,-121.3760935
10212,Charles Morris Way,95757,38.3867460,-121.3799143
10188,Charles Morris Way,95757,38.3857495,-121.3799089
10178,Charles Morris Way,95757,38.3851902,-121.3798821
10150,Charles Morris Way,95757,38.3840969,-121.3798499
10217,Charles Morris Way,95757,38.3867965,-121.3803408
10153,Charles Morris Way,95757,38.3843198,-121.3803166
8829,Aria Way,95757,38.3774990,-121.3763040
8801,Aria Way,95757,38.3774906,-121.3775861
8836,Aria Way,95757,38.3772362,-121.3760224
8800,Aria Way,95757,38.3771731,-121.3775915
8841,Allegra Drive,95757,38.3768367,-121.3757703
8801,Allegra Drive,95757,38.3768388,-121.3775888
8780,Minor Court,95757,38.3860859,-121.3765562
8760,Minor Court,95757,38.3860880,-121.3775432
8781,Minor Court,95757,38.3864096,-121.3765562
8765,Minor Court,95757,38.3864117,-121.3773260
8752,Presto Court,95757,38.3860859,-121.3779697
8736,Presto Court,95757,38.3860838,-121.3787636
8749,Presto Court,95757,38.3864054,-121.3781735
8737,Presto Court,95757,38.3864012,-121.3787663
10292,Charles Morris Way,95757,38.3867565,-121.3765374
10268,Charles Morris Way,95757,38.3867439,-121.3776076
10260,Charles Morris Way,95757,38.3867523,-121.3779724
10244,Charles Morris Way,95757,38.3867439,-121.3787770
10245,Baritone Way,95757,38.3857474,-121.3761404
10217,Baritone Way,95757,38.3867565,-121.3761404
10364,Charles Morris Way,95757,38.3857390,-121.3756201
10336,Charles Morris Way,95757,38.3867544,-121.3756308
10412,Charles Morris Way,95757,38.3840822,-121.3756026
10372,Charles Morris Way,95757,38.3854478,-121.3756147
8804,Piano Circle,95757,38.3841579,-121.3775486
8780,Piano Circle,95757,38.3841600,-121.3765213
8772,Flute Circle,95757,38.3841264,-121.3789272
8752,Flute Circle,95757,38.3841369,-121.3779670
8801,Piano Circle,95757,38.3843850,-121.3773957
8781,Piano Circle,95757,38.3843850,-121.3765454
8773,Flute Circle,95757,38.3843850,-121.3789380
8757,Flute Circle,95757,38.3843850,-121.3781360
10278,Soprano Way,95757,38.3840654,-121.3793886
10250,Soprano Way,95757,38.3851860,-121.3794851
10240,Soprano Way,95757,38.3857516,-121.3794583
10216,Soprano Way,95757,38.3867250,-121.3794583
10241,Soprano Way,95757,38.3857705,-121.3790882
10233,Soprano Way,95757,38.3860669,-121.3790935
10225,Soprano Way,95757,38.3863970,-121.3790882
10217,Soprano Way,95757,38.3867376,-121.3790828
10417,Charles Morris Way,95757,38.3840827,-121.3752539
10333,Charles Morris Way,95757,38.3868364,-121.3752459
10321,Charles Morris Way,95757,38.3870509,-121.3755128
10269,Charles Morris Way,95757,38.3870256,-121.3776156
10261,Charles Morris Way,95757,38.3870467,-121.3779831
10241,Charles Morris Way,95757,38.3870425,-121.3790694
10237,Charles Morris Way,95757,38.3870824,-121.3794905
10225,Charles Morris Way,95757,38.3870719,-121.3800752
8813,Polka Way,95757,38.3781424,-121.3772133
8801,Polka Way,95757,38.3781403,-121.3775942
8808,Polka Way,95757,38.3778102,-121.3774037
8800,Polka Way,95757,38.3778102,-121.3775915
10457,Oboe Way,95757,38.3788258,-121.3751051
10437,Oboe Way,95757,38.3788258,-121.3759366
8874,Aria Way,95757,38.3783905,-121.3758722
8842,Aria Way,95757,38.3773350,-121.3758910
8511,Elk Grove Boulevard,95624,38.4096419,-121.3876222
9385,Elk Grove Boulevard,95624,38.4092914,-121.3527267
9691,Gruwell Way,95624,38.4062542,-121.3533288
9691,Gruwell Way,95624,38.4062277,-121.3533816
9691,Gruwell Way,95624,38.4062445,-121.3533097
8509,Bond Road,95624-9457,38.4262576,-121.3889426
7440,Laguna Boulevard,95758,38.4231666,-121.4155364
7440,Laguna Boulevard,95758-5070,38.4230377,-121.4155312
7440,Laguna Boulevard,95758-5070,38.4224519,-121.4155810
7440,Laguna Boulevard,95758-5070,38.4224278,-121.4160927
7440,Laguna Boulevard,95758-5070,38.4230874,-121.4155287
7440,Laguna Boulevard,95758-5070,38.4229512,-121.4155870
7440,Laguna Boulevard,95758-5070,38.4228402,-121.4155254
7440,Laguna Boulevard,95758-5070,38.4227306,-121.4155157
7440,Laguna Boulevard,95758-5070,38.4224381,-121.4158985
7440,Laguna Boulevard,95758-5070,38.4224205,-121.4163316
7440,Laguna Boulevard,95758-5070,38.4224120,-121.4164744
7440,Laguna Boulevard,95758-5070,38.4224445,-121.4168042
10301,Beckley Way,95757,38.3830922,-121.4408608
10297,Beckley Way,95757,38.3832596,-121.4408608
10293,Beckley Way,95757,38.3834106,-121.4408608
10289,Beckley Way,95757,38.3835616,-121.4408608
10285,Beckley Way,95757,38.3837127,-121.4408608
10281,Beckley Way,95757,38.3838637,-121.4408608
10277,Beckley Way,95757,38.3840147,-121.4408608
10273,Beckley Way,95757,38.3841873,-121.4408607
10272,Beckley Way,95757,38.3841472,-121.4413666
10276,Beckley Way,95757,38.3839681,-121.4413666
10280,Beckley Way,95757,38.3837847,-121.4413666
5313,Kungsting Way,95757,38.3838194,-121.4416559
5309,Kungsting Way,95757,38.3838079,-121.4418590
5305,Kungsting Way,95757,38.3838089,-121.4420508
5301,Kungsting Way,95757,38.3838099,-121.4422427
5221,Kungsting Way,95757,38.3838108,-121.4424346
5217,Kungsting Way,95757,38.3838118,-121.4426264
5213,Kungsting Way,95757,38.3838128,-121.4428183
5209,Kungsting Way,95757,38.3838137,-121.4430102
5205,Kungsting Way,95757,38.3838172,-121.4432020
5201,Kungsting Way,95757,38.3838361,-121.4434245
5204,Dorcey Drive,95757,38.3841368,-121.4433014
5208,Dorcey Drive,95757,38.3841084,-121.4430701
5212,Dorcey Drive,95757,38.3841012,-121.4428376
5216,Dorcey Drive,95757,38.3841002,-121.4426415
5220,Dorcey Drive,95757,38.3840992,-121.4424497
5300,Dorcey Drive,95757,38.3840983,-121.4422578
5308,Dorcey Drive,95757,38.3840963,-121.4418653
5312,Dorcey Drive,95757,38.3841021,-121.4416547
5304,Dorcey Drive,95757,38.3840973,-121.4420659
5200,Kungsting Way,95757,38.3834177,-121.4434421
5201,Matina Drive,95757,38.3831294,-121.4434436
5205,Matina Drive,95757,38.3831284,-121.4432335
5209,Matina Drive,95757,38.3831274,-121.4430416
5204,Kungsting Way,95757,38.3834167,-121.4432311
5208,Kungsting Way,95757,38.3834157,-121.4430393
5212,Kungsting Way,95757,38.3834148,-121.4428474
5216,Kungsting Way,95757,38.3834138,-121.4426555
5220,Kungsting Way,95757,38.3834128,-121.4424637
5300,Kungsting Way,95757,38.3834119,-121.4422718
5304,Kungsting Way,95757,38.3834109,-121.4420799
5308,Kungsting Way,95757,38.3834099,-121.4418881
5312,Kungsting Way,95757,38.3834153,-121.4416962
5316,Kungsting Way,95757,38.3834375,-121.4415041
5320,Kungsting Way,95757,38.3834450,-121.4412952
5321,Matina Drive,95757,38.3831558,-121.4412967
5317,Matina Drive,95757,38.3831416,-121.4415065
5313,Matina Drive,95757,38.3831250,-121.4416985
5309,Matina Drive,95757,38.3831216,-121.4418904
5305,Matina Drive,95757,38.3831226,-121.4420823
5301,Matina Drive,95757,38.3831235,-121.4422742
5221,Matina Drive,95757,38.3831245,-121.4424660
5217,Matina Drive,95757,38.3831255,-121.4426579
5213,Matina Drive,95757,38.3831264,-121.4428498
5125,Matina Drive,95757,38.3830002,-121.4439641
10300,Gilliam Drive,95757,38.3831081,-121.4439563
10290,Gilliam Drive,95757,38.3832770,-121.4439561
10286,Gilliam Drive,95757,38.3834417,-121.4439559
10282,Gilliam Drive,95757,38.3836096,-121.4439557
10278,Gilliam Drive,95757,38.3837720,-121.4439478
10274,Gilliam Drive,95757,38.3839324,-121.4439307
10270,Gilliam Drive,95757,38.3841034,-121.4439054
10266,Gilliam Drive,95757,38.3842479,-121.4438231
10262,Gilliam Drive,95757,38.3843862,-121.4437364
10258,Gilliam Drive,95757,38.3845250,-121.4436527
10254,Gilliam Drive,95757,38.3846799,-121.4435876
10250,Gilliam Drive,95757,38.3848416,-121.4435594
10246,Gilliam Drive,95757,38.3849989,-121.4435404
10242,Gilliam Drive,95757,38.3851504,-121.4435376
10238,Gilliam Drive,95757,38.3853015,-121.4435343
10234,Gilliam Drive,95757,38.3854524,-121.4435120
10230,Gilliam Drive,95757,38.3856149,-121.4434965
10200,Shoech Way,95757,38.3859504,-121.4432722
10204,Shoech Way,95757,38.3859561,-121.4434924
10208,Shoech Way,95757,38.3859554,-121.4436842
10212,Shoech Way,95757,38.3859546,-121.4438761
10216,Shoech Way,95757,38.3859668,-121.4441099
10220,Shoech Way,95757,38.3859554,-121.4443471
10224,Shoech Way,95757,38.3857681,-121.4444137
10228,Shoech Way,95757,38.3855962,-121.4444098
10232,Shoech Way,95757,38.3854452,-121.4444099
10236,Shoech Way,95757,38.3852942,-121.4444101
10240,Shoech Way,95757,38.3851380,-121.4444147
10244,Shoech Way,95757,38.3849764,-121.4444371
10248,Shoech Way,95757,38.3848175,-121.4444865
10252,Shoech Way,95757,38.3846608,-121.4445622
10256,Shoech Way,95757,38.3845364,-121.4446816
10264,Shoech Way,95757,38.3843981,-121.4447861
10268,Shoech Way,95757,38.3842876,-121.4449053
10276,Shoech Way,95757,38.3841628,-121.4450082
10280,Shoech Way,95757,38.3840463,-121.4451395
10284,Shoech Way,95757,38.3839960,-121.4453035
10288,Shoech Way,95757,38.3839915,-121.4454750
10292,Shoech Way,95757,38.3839728,-121.4456557
10296,Shoech Way,95757,38.3839455,-121.4458277
10300,Shoech Way,95757,38.3839153,-121.4459994
10304,Shoech Way,95757,38.3838819,-121.4461699
10308,Shoech Way,95757,38.3838453,-121.4463391
10312,Shoech Way,95757,38.3838064,-121.4465071
10316,Shoech Way,95757,38.3837675,-121.4466744
10320,Shoech Way,95757,38.3837287,-121.4468417
10324,Shoech Way,95757,38.3836898,-121.4470090
10328,Shoech Way,95757,38.3836509,-121.4471763
10334,Shoech Court,95757,38.3835888,-121.4474440
10338,Shoech Court,95757,38.3835499,-121.4476113
10342,Shoech Court,95757,38.3835110,-121.4477786
10350,Shoech Court,95757,38.3834333,-121.4481132
10354,Shoech Court,95757,38.3833944,-121.4482804
10346,Shoech Court,95757,38.3834722,-121.4479459
10358,Shoech Court,95757,38.3833542,-121.4484477
10362,Shoech Court,95757,38.3833102,-121.4486092
10359,Shoech Court,95757,38.3828502,-121.4483465
10355,Shoech Court,95757,38.3829581,-121.4481867
10351,Shoech Court,95757,38.3830108,-121.4480414
10347,Shoech Court,95757,38.3830600,-121.4478785
10343,Shoech Court,95757,38.3831063,-121.4477127
10339,Shoech Court,95757,38.3831492,-121.4475459
10335,Shoech Court,95757,38.3831914,-121.4473629
10327,Shoech Way,95757,38.3832732,-121.4470154
10323,Shoech Way,95757,38.3833166,-121.4468285
10319,Shoech Way,95757,38.3833574,-121.4466528
10315,Shoech Way,95757,38.3833963,-121.4464853
10311,Shoech Way,95757,38.3834343,-121.4463168
10305,Shoech Way,95757,38.3834644,-121.4461455
10301,Shoech Way,95757,38.3834851,-121.4459678
10297,Shoech Way,95757,38.3834954,-121.4457895
10293,Shoech Way,95757,38.3834958,-121.4455967
10289,Shoech Way,95757,38.3834885,-121.4454081
10285,Shoech Way,95757,38.3835680,-121.4451868
10281,Shoech Way,95757,38.3836710,-121.4449270
10282,Stoecker Way,95757,38.3834566,-121.4448310
10294,Stoecker Way,95757,38.3832452,-121.4448623
10297,Stoecker Way,95757,38.3831067,-121.4443376
10293,Stoecker Way,95757,38.3832553,-121.4443177
10289,Stoecker Way,95757,38.3834064,-121.4443222
10285,Stoecker Way,95757,38.3835303,-121.4443760
10281,Stoecker Way,95757,38.3836673,-121.4444540
10277,Shoech Way,95757,38.3838187,-121.4446062
10273,Shoech Way,95757,38.3839528,-121.4444635
10269,Shoech Way,95757,38.3840758,-121.4443690
10265,Shoech Way,95757,38.3842431,-121.4443290
10261,Shoech Way,95757,38.3843853,-121.4441895
10257,Shoech Way,95757,38.3845205,-121.4440828
10253,Shoech Way,95757,38.3846696,-121.4440022
10249,Shoech Way,95757,38.3848295,-121.4439488
10245,Shoech Way,95757,38.3849885,-121.4439191
10241,Shoech Way,95757,38.3851424,-121.4439037
10237,Shoech Way,95757,38.3853020,-121.4439025
10233,Shoech Way,95757,38.3854530,-121.4439023
10229,Shoech Way,95757,38.3856150,-121.4439022
5400,Claudied Way,95757,38.3842019,-121.4405031
5404,Claudied Way,95757,38.3840236,-121.4405032
5408,Claudied Way,95757,38.3838588,-121.4405032
5412,Claudied Way,95757,38.3836941,-121.4405065
5416,Claudied Way,95757,38.3834831,-121.4404931
5420,Claudied Way,95757,38.3833469,-121.4403804
5424,Claudied Way,95757,38.3833441,-121.4400379
5428,Claudied Way,95757,38.3833030,-121.4398136
5500,Claudied Way,95757,38.3831805,-121.4396688
5407,Matina Drive,95757,38.3831237,-121.4405433
5411,Matina Drive,95757,38.3830851,-121.4403230
5415,Matina Drive,95757,38.3830380,-121.4401065
5419,Matina Drive,95757,38.3829769,-121.4399168
5423,Matina Drive,95757,38.3828522,-121.4397473
5501,Matina Drive,95757,38.3827222,-121.4396034
5505,Matina Drive,95757,38.3825862,-121.4394690
5509,Matina Drive,95757,38.3824982,-121.4392993
5513,Matina Drive,95757,38.3824398,-121.4391109
5517,Matina Drive,95757,38.3823892,-121.4389093
5521,Matina Drive,95757,38.3823657,-121.4386822
5524,Claudied Way,95757,38.3826412,-121.4386858
5520,Claudied Way,95757,38.3826762,-121.4389108
5512,Claudied Way,95757,38.3828159,-121.4392724
5516,Claudied Way,95757,38.3827273,-121.4391058
5508,Claudied Way,95757,38.3829525,-121.4394031
5504,Claudied Way,95757,38.3830633,-121.4395335
5525,Claudied Way,95757,38.3830255,-121.4387156
5520,Borce Court,95757,38.3832945,-121.4387657
5511,Borce Court,95757,38.3836321,-121.4391362
5515,Borce Court,95757,38.3837300,-121.4389593
5504,Batoon Court,95757,38.3838355,-121.4393322
5508,Batoon Court,95757,38.3839599,-121.4391345
5512,Batoon Court,95757,38.3840074,-121.4389100
5516,Batoon Court,95757,38.3839953,-121.4386790
5519,Borce Court,95757,38.3837007,-121.4386659
5521,Batoon Court,95757,38.3843725,-121.4386221
5517,Batoon Court,95757,38.3844070,-121.4388667
5513,Batoon Court,95757,38.3843886,-121.4390998
5509,Batoon Court,95757,38.3843577,-121.4393092
5505,Batoon Court,95757,38.3843367,-121.4395190
5501,Batoon Court,95757,38.3841757,-121.4396584
5500,Batoon Court,95757,38.3839240,-121.4396302
5517,Claudied Way,95757,38.3830855,-121.4389366
5513,Claudied Way,95757,38.3832310,-121.4390576
5505,Claudied Way,95757,38.3834578,-121.4393216
5509,Claudied Way,95757,38.3833460,-121.4391823
5429,Claudied Way,95757,38.3836564,-121.4396391
5501,Claudied Way,95757,38.3835888,-121.4394633
5425,Claudied Way,95757,38.3837226,-121.4398339
5421,Claudied Way,95757,38.3837447,-121.4400539
5409,Claudied Way,95757,38.3839589,-121.4400147
5420,Dorcey Drive,95757,38.3843030,-121.4400299
5405,Claudied Way,95757,38.3841099,-121.4400147
5424,Dorcey Drive,95757,38.3844132,-121.4398846
5428,Dorcey Drive,95757,38.3845517,-121.4397491
5500,Dorcey Drive,95757,38.3846082,-121.4395600
5504,Dorcey Drive,95757,38.3846468,-121.4393225
5508,Dorcey Drive,95757,38.3846674,-121.4391324
5512,Dorcey Drive,95757,38.3846870,-121.4389396
5600,Dorcey Drive,95757,38.3846173,-121.4385093
5516,Dorcey Drive,95757,38.3846740,-121.4387202
5520,Dorcey Drive,95757,38.3846715,-121.4386808
5605,Dorcey Drive,95757,38.3849519,-121.4382446
5601,Dorcey Drive,95757,38.3850388,-121.4384449
5517,Dorcey Drive,95757,38.3851202,-121.4386397
10234,Bolo Court,95757,38.3851218,-121.4380435
10230,Bolo Court,95757,38.3852431,-121.4382063
10226,Bolo Court,95757,38.3853542,-121.4383522
10222,Bolo Court,95757,38.3854694,-121.4384771
10218,Bolo Court,95757,38.3856252,-121.4385317
10491,East Stockton Boulevard,95624,38.3791672,-121.3586800
10491,East Stockton Boulevard,95624,38.3792721,-121.3585270
10481,East Stockton Boulevard,95624,38.3799117,-121.3600534
10481,East Stockton Boulevard,95624,38.3795761,-121.3595120
10471,Grant Line Road,95624,38.3766712,-121.3595660
10471,Grant Line Road,95624,38.3768273,-121.3596050
10471,Grant Line Road,95624,38.3769927,-121.3596890
10471,Grant Line Road,95624,38.3771113,-121.3597600
10471,Grant Line Road,95624,38.3773018,-121.3595490
10461,Grant Line Road,95624,38.3777960,-121.3589044
10461,Grant Line Road,95624,38.3776962,-121.3590546
10461,Grant Line Road,95624,38.3776044,-121.3592115
10463,Grant Line Rd,95624,38.3768463,-121.3584219
10481,Grant Line Road,95624,38.3761095,-121.3595780
10481,Grant Line Road,95624,38.3761934,-121.3594610
10481,Grant Line Road,95624,38.3763001,-121.3593100
10481,Grant Line Road,95624,38.3763449,-121.3591530
10481,Grant Line Road,95624,38.3763873,-121.3590900
10481,Grant Line Road,95624,38.3764810,-121.3589480
10481,Grant Line Road,95624,38.3765168,-121.3589080
10481,Grant Line Road,95624,38.3766023,-121.3587710
10481,Grant Line Road,95624,38.3767500,-121.3589060
10481,Grant Line Road,95624,38.3768014,-121.3589750
10481,Grant Line Road,95624,38.3768282,-121.3590170
10481,Grant Line Road,95624,38.3769031,-121.3591030
10481,Grant Line Road,95624,38.3768852,-121.3590760
10481,Grant Line Road,95624,38.3770355,-121.3591740
10481,Grant Line Road,95624,38.3770833,-121.3592090
10481,East Stockton Boulevard,95624,38.3802597,-121.3594668
9149,Union Park Way,95624,38.3882290,-121.3610068
9149,Union Park Way,95624,38.3880254,-121.3613289
9090,Union Park Way,95624,38.3862971,-121.3628719
7460,Elk Grove Boulevard,95757,38.4073552,-121.4171074
7620,Elk Grove Boulevard,95757,38.4086698,-121.4128061
7580,Elk Grove Boulevard,95757,38.4086447,-121.4142610
7431,Laguna Boulevard,95758,38.4257592,-121.4172406
7431,Laguna Boulevard,95758-5085,38.4255113,-121.4172697
9110,Union Park Way,95624,38.3868040,-121.3621630
9110,Union Park Way,95624,38.3867515,-121.3620947
9110,Union Park Way,95624,38.3867252,-121.3620651
9110,Union Park Way,95624,38.3866496,-121.3620000
9110,Union Park Way,95624,38.3865750,-121.3619238
9110,Union Park Way,95624,38.3865263,-121.3618641
9110,Union Park Way,95624,38.3864205,-121.3617473
9110,Union Park Way,95624,38.3860882,-121.3613772
9110,Union Park Way,95624,38.3859452,-121.3615783
9110,Union Park Way,95624,38.3860566,-121.3617084
9110,Union Park Way,95624,38.3861081,-121.3617607
9110,Union Park Way,95624,38.3862128,-121.3618703
9110,Union Park Way,95624,38.3862668,-121.3619330
9110,Union Park Way,95624,38.3863484,-121.3620248
9110,Union Park Way,95624,38.3864061,-121.3620910
9110,Union Park Way,95624,38.3864748,-121.3621507
9110,Union Park Way,95624,38.3865214,-121.3621943
9110,Union Park Way,95624,38.3866596,-121.3623248
9090,Union Park Way,95624,38.3864557,-121.3627006
9090,Union Park Way,95624,38.3863475,-121.3625792
9090,Union Park Way,95624,38.3863057,-121.3625350
9090,Union Park Way,95624,38.3862105,-121.3624431
9090,Union Park Way,95624,38.3861283,-121.3623382
9090,Union Park Way,95624,38.3860980,-121.3622849
9090,Union Park Way,95624,38.3860245,-121.3622241
9090,Union Park Way,95624,38.3858409,-121.3620175
9090,Union Park Way,95624,38.3856126,-121.3620967
9090,Union Park Way,95624,38.3857730,-121.3622906
9090,Union Park Way,95624,38.3858507,-121.3623876
9090,Union Park Way,95624,38.3859808,-121.3625061
9090,Union Park Way,95624,38.3861412,-121.3626935
8535,Elk Grove Boulevard,95624,38.4101347,-121.3875040
9766,Waterman Road,95624,38.4031780,-121.3537709
9955,Penion Court,95757,38.3960983,-121.4017695
9951,Penion Court,95757,38.3962948,-121.4018068
8254,Morum Court,95757,38.3965357,-121.4018661
9944,Dove Shell Way,95757,38.3964737,-121.4014138
9948,Dove Shell Way,95757,38.3962827,-121.4013863
9952,Dove Shell Way,95757,38.3960917,-121.4013588
9940,Dove Shell Way,95757,38.3966764,-121.4014358
9950,Penion Court,95757,38.3963755,-121.4022558
9954,Penion Court,95757,38.3961386,-121.4024077
9958,Penion Court,95757,38.3958994,-121.4023283
9966,Penion Court,95757,38.3955225,-121.4022690
9973,Carinata Drive,95757,38.3952820,-121.4026645
9969,Carinata Drive,95757,38.3954800,-121.4026962
9965,Carinata Drive,95757,38.3956709,-121.4027238
8272,Bonito Circle,95757,38.3963349,-121.4028933
8276,Bonito Circle,95757,38.3965076,-121.4026608
8280,Bonito Circle,95757,38.3967043,-121.4025199
8284,Bonito Circle,95757,38.3969381,-121.4024703
8250,Morum Court,95757,38.3967697,-121.4021149
9962,Penion Court,95757,38.3957087,-121.4023008
9961,Carinata Drive,95757,38.3958619,-121.4027513
9957,Carinata Drive,95757,38.3960868,-121.4027616
8255,Morum Court,95757,38.3970258,-121.4019267
8248,Hopewell Drive,95757,38.3973188,-121.4019397
8288,Bonito Circle,95757,38.3971796,-121.4024957
8244,Hopewell Drive,95757,38.3972470,-121.4021847
9924,Dove Shell Way,95757,38.3974550,-121.4016308
9928,Dove Shell Way,95757,38.3972511,-121.4015551
9932,Dove Shell Way,95757,38.3970295,-121.4014977
9920,Bluefin Way,95757,38.3981851,-121.4017791
9916,Bluefin Way,95757,38.3981331,-121.4019669
9912,Bluefin Way,95757,38.3980837,-121.4021482
9908,Bluefin Way,95757,38.3980343,-121.4023296
9904,Bluefin Way,95757,38.3979793,-121.4025062
9900,Bluefin Way,95757,38.3979131,-121.4027197
8241,Hopewell Drive,95757,38.3976555,-121.4025132
8245,Hopewell Drive,95757,38.3977141,-121.4023161
8249,Hopewell Drive,95757,38.3977693,-121.4021182
8253,Hopewell Drive,95757,38.3978232,-121.4019204
8257,Hopewell Drive,95757,38.3978863,-121.4017051
9917,Dove Shell Way,95757,38.3979458,-121.4012157
9913,Dove Shell Way,95757,38.3981049,-121.4012713
9909,Dove Shell Way,95757,38.3982543,-121.4013204
9905,Dove Shell Way,95757,38.3984055,-121.4013918
9904,Winkle Circle,95757,38.3985389,-121.4010519
9908,Winkle Circle,95757,38.3983806,-121.4009554
9912,Winkle Circle,95757,38.3982248,-121.4008915
9921,Winkle Circle,95757,38.3982231,-121.4003258
9917,Winkle Circle,95757,38.3983671,-121.4003835
9913,Winkle Circle,95757,38.3985181,-121.4004589
9924,Winkle Circle,95757,38.3977124,-121.4006908
9925,Winkle Circle,95757,38.3978234,-121.4001483
9929,Winkle Circle,95757,38.3976393,-121.4000805
9933,Winkle Circle,95757,38.3974484,-121.4000226
9937,Winkle Circle,95757,38.3972559,-121.3999740
9932,Winkle Circle,95757,38.3973248,-121.4005676
9929,Dove Shell Way,95757,38.3973853,-121.4010212
9925,Dove Shell Way,95757,38.3975949,-121.4010912
9928,Winkle Circle,95757,38.3975154,-121.4006242
9936,Winkle Circle,95757,38.3971325,-121.4005211
9933,Dove Shell Way,95757,38.3971835,-121.4009651
9937,Dove Shell Way,95757,38.3969799,-121.4009212
9940,Winkle Circle,95757,38.3969386,-121.4004847
9941,Winkle Circle,95757,38.3970621,-121.3999348
9949,Winkle Circle,95757,38.3966746,-121.3998767
9945,Winkle Circle,95757,38.3968664,-121.3999043
9944,Winkle Circle,95757,38.3967436,-121.4004555
9948,Winkle Circle,95757,38.3965526,-121.4004280
9945,Dove Shell Way,95757,38.3965703,-121.4008589
9941,Dove Shell Way,95757,38.3967724,-121.4008881
9953,Winkle Circle,95757,38.3964836,-121.3998491
9957,Winkle Circle,95757,38.3962926,-121.3998216
9961,Winkle Circle,95757,38.3961016,-121.3997940
9965,Winkle Circle,95757,38.3959107,-121.3997665
9969,Winkle Circle,95757,38.3957194,-121.3997389
9964,Winkle Circle,95757,38.3957887,-121.4003178
9960,Winkle Circle,95757,38.3959797,-121.4003453
9956,Winkle Circle,95757,38.3961707,-121.4003729
9952,Winkle Circle,95757,38.3963617,-121.4004004
9949,Dove Shell Way,95757,38.3963712,-121.4008302
9953,Dove Shell Way,95757,38.3961720,-121.4008015
9957,Dove Shell Way,95757,38.3959728,-121.4007727
9961,Dove Shell Way,95757,38.3957737,-121.4007440
9968,Winkle Circle,95757,38.3955866,-121.4002886
9965,Dove Shell Way,95757,38.3955624,-121.4007092
9970,Winkle Circle,95757,38.3952010,-121.4003521
9974,Winkle Circle,95757,38.3951786,-121.4006050
9978,Winkle Circle,95757,38.3951614,-121.4008520
9986,Winkle Circle,95757,38.3951163,-121.4013371
9982,Winkle Circle,95757,38.3951388,-121.4010946
9990,Winkle Circle,95757,38.3950937,-121.4015792
9967,Penion Court,95757,38.3954699,-121.4016972
9963,Penion Court,95757,38.3956879,-121.4017289
9959,Penion Court,95757,38.3958989,-121.4017594
9956,Dove Shell Way,95757,38.3959007,-121.4013312
9960,Dove Shell Way,95757,38.3957097,-121.4013037
9964,Dove Shell Way,95757,38.3955085,-121.4012746
9994,Winkle Circle,95757,38.3950340,-121.4019004
9970,Penion Court,95757,38.3952717,-121.4022592
9977,Carinata Drive,95757,38.3950530,-121.4027022
9900,Winkle Circle,95757,38.3986865,-121.4011452
9901,Dove Shell Way,95757,38.3985464,-121.4014899
9897,Dove Shell Way,95757,38.3986814,-121.4015900
9896,Winkle Circle,95757,38.3988301,-121.4012592
9892,Winkle Circle,95757,38.3989721,-121.4013737
9888,Winkle Circle,95757,38.3991088,-121.4014899
9889,Dove Shell Way,95757,38.3989398,-121.4018129
9893,Dove Shell Way,95757,38.3988129,-121.4016973
9909,Winkle Circle,95757,38.3986666,-121.4005431
9905,Winkle Circle,95757,38.3988040,-121.4006367
9901,Winkle Circle,95757,38.3989414,-121.4007342
9897,Winkle Circle,95757,38.3990773,-121.4008304
9893,Winkle Circle,95757,38.3992097,-121.4009392
9889,Winkle Circle,95757,38.3993429,-121.4010581
9884,Winkle Circle,95757,38.3992277,-121.4016177
9880,Winkle Circle,95757,38.3993435,-121.4017408
9885,Dove Shell Way,95757,38.3990595,-121.4019360
9881,Dove Shell Way,95757,38.3991755,-121.4020626
9877,Dove Shell Way,95757,38.3992911,-121.4021893
9873,Dove Shell Way,95757,38.3994101,-121.4023131
9885,Winkle Circle,95757,38.3994636,-121.4011905
9881,Winkle Circle,95757,38.3995812,-121.4013178
9877,Winkle Circle,95757,38.3996987,-121.4014444
9873,Winkle Circle,95757,38.3998176,-121.4015756
9876,Winkle Circle,95757,38.3994594,-121.4018639
9872,Winkle Circle,95757,38.3995814,-121.4019996
9868,Winkle Circle,95757,38.3997101,-121.4021159
9864,Winkle Circle,95757,38.3998298,-121.4022329
9860,Winkle Circle,95757,38.3999639,-121.4023633
9861,Dove Shell Way,95757,38.3997857,-121.4026796
9865,Dove Shell Way,95757,38.3996521,-121.4025433
9869,Dove Shell Way,95757,38.3995323,-121.4024264
9869,Winkle Circle,95757,38.3999415,-121.4016884
9865,Winkle Circle,95757,38.4000612,-121.4018053
9861,Winkle Circle,95757,38.4001788,-121.4019291
9921,Bluefin Way,95757,38.3985569,-121.4020229
9917,Bluefin Way,95757,38.3984938,-121.4022426
9913,Bluefin Way,95757,38.3984399,-121.4024405
9909,Bluefin Way,95757,38.3983845,-121.4026542
9885,Bluefin Way,95757,38.3986318,-121.4026824
9881,Bluefin Way,95757,38.3987802,-121.4028265
9877,Bluefin Way,95757,38.3989122,-121.4029701
9876,Dove Shell Way,95757,38.3990120,-121.4025803
9880,Dove Shell Way,95757,38.3988784,-121.4024415
9884,Dove Shell Way,95757,38.3987479,-121.4022891
9873,Bluefin Way,95757,38.3990394,-121.4030892
9869,Bluefin Way,95757,38.3991591,-121.4032061
9865,Bluefin Way,95757,38.3992784,-121.4033309
9861,Bluefin Way,95757,38.3994173,-121.4034557
9860,Dove Shell Way,95757,38.3995635,-121.4031147
9190,East Stockton Boulevard,95624,38.4239454,-121.3906152
10481,Hite Circle,95757,38.3821869,-121.4484890
10485,Hite Circle,95757,38.3822831,-121.4482640
10489,Hite Circle,95757,38.3823879,-121.4480781
10493,Hite Circle,95757,38.3824680,-121.4478739
10497,Hite Circle,95757,38.3825481,-121.4476611
10501,Hite Circle,95757,38.3826167,-121.4474410
10505,Hite Circle,95757,38.3826751,-121.4472054
10477,Hite Circle,95757,38.3819099,-121.4484390
10473,Hite Circle,95757,38.3817791,-121.4482490
10469,Hite Circle,95757,38.3816330,-121.4481186
10465,Hite Circle,95757,38.3814870,-121.4479882
10461,Hite Circle,95757,38.3813410,-121.4478514
10457,Hite Circle,95757,38.3811904,-121.4477292
10453,Hite Circle,95757,38.3810365,-121.4476032
10449,Hite Circle,95757,38.3808648,-121.4474971
10305,Hite Circle,95757,38.3827669,-121.4468100
10474,Hite Circle,95757,38.3820560,-121.4478383
10470,Hite Circle,95757,38.3818881,-121.4477068
10466,Hite Circle,95757,38.3817305,-121.4475575
4905,Werre Court,95757,38.3818884,-121.4473279
10492,Hite Circle,95757,38.3821402,-121.4475511
10496,Hite Circle,95757,38.3822182,-121.4472999
10500,Hite Circle,95757,38.3822811,-121.4470526
10300,Hite Circle,95757,38.3823357,-121.4468175
10304,Hite Circle,95757,38.3823901,-121.4465833
4909,Werre Court,95757,38.3819613,-121.4470678
4913,Werre Court,95757,38.3820183,-121.4468183
4917,Werre Court,95757,38.3820633,-121.4465729
10312,Hite Circle,95757,38.3824362,-121.4463591
4921,Werre Court,95757,38.3821177,-121.4463417
10332,Hite Circle,95757,38.3825591,-121.4460057
10336,Hite Circle,95757,38.3823497,-121.4460059
10340,Hite Circle,95757,38.3821575,-121.4460061
10344,Hite Circle,95757,38.3819653,-121.4460063
10348,Hite Circle,95757,38.3817765,-121.4460065
10352,Hite Circle,95757,38.3815929,-121.4460067
10356,Hite Circle,95757,38.3814128,-121.4460069
4920,Werre Court,95757,38.3815810,-121.4463119
4916,Werre Court,95757,38.3815877,-121.4465666
4912,Werre Court,95757,38.3815552,-121.4467987
4908,Werre Court,95757,38.3815133,-121.4470283
10456,Hite Circle,95757,38.3814622,-121.4473283
10452,Hite Circle,95757,38.3812980,-121.4472122
4909,Warmerdam Court,95757,38.3810758,-121.4470914
4913,Warmerdam Court,95757,38.3811710,-121.4468421
4917,Warmerdam Court,95757,38.3812189,-121.4465941
4921,Warmerdam Court,95757,38.3812223,-121.4463207
10360,Hite Circle,95757,38.3812344,-121.4460071
10364,Hite Circle,95757,38.3810559,-121.4460073
10368,Hite Circle,95757,38.3808774,-121.4460075
4912,Warmerdam Court,95757,38.3806875,-121.4468428
4916,Warmerdam Court,95757,38.3807026,-121.4465397
4920,Warmerdam Court,95757,38.3806758,-121.4463129
10372,Hite Circle,95757,38.3806989,-121.4460076
5525,Jilson Way,95757,38.3796025,-121.4422093
5521,Jilson Way,95757,38.3796037,-121.4419826
5517,Jilson Way,95757,38.3796049,-121.4417558
5513,Jilson Way,95757,38.3796062,-121.4415291
5509,Jilson Way,95757,38.3796069,-121.4413023
5505,Jilson Way,95757,38.3795773,-121.4409341
5501,Jilson Way,95757,38.3797740,-121.4408643
5429,Jilson Way,95757,38.3799881,-121.4408610
5425,Jilson Way,95757,38.3801665,-121.4408610
5421,Jilson Way,95757,38.3803450,-121.4408610
5417,Jilson Way,95757,38.3805372,-121.4408610
5428,Jilson Way,95757,38.3799692,-121.4413668
5424,Jilson Way,95757,38.3801607,-121.4413668
5420,Jilson Way,95757,38.3803392,-121.4413668
10371,Aldinger Way,95757,38.3803392,-121.4417331
10375,Aldinger Way,95757,38.3801607,-121.4417331
10379,Aldinger Way,95757,38.3799685,-121.4417331
10367,Aldinger Way,95757,38.3805277,-121.4417244
5416,Jilson Way,95757,38.3805176,-121.4413668
5412,Jilson Way,95757,38.3806961,-121.4413668
10363,Aldinger Way,95757,38.3806961,-121.4417331
10359,Aldinger Way,95757,38.3808746,-121.4417331
5408,Jilson Way,95757,38.3808746,-121.4413668
5404,Jilson Way,95757,38.3810531,-121.4413668
10355,Aldinger Way,95757,38.3810531,-121.4417331
5310,Jilson Way,95757,38.3812880,-121.4417895
5314,Jilson Way,95757,38.3812874,-121.4415499
5318,Jilson Way,95757,38.3812868,-121.4413101
5400,Rowser Way,95757,38.3805307,-121.4404773
5404,Rowser Way,95757,38.3803351,-121.4404773
5408,Rowser Way,95757,38.3801559,-121.4404773
5412,Rowser Way,95757,38.3799767,-121.4404826
5416,Rowser Way,95757,38.3796744,-121.4404458
5422,Rowser Way,95757,38.3796630,-121.4401392
5426,Rowser Way,95757,38.3796780,-121.4399131
5500,Rowser Way,95757,38.3796792,-121.4396864
5523,Bilby Road,95757,38.3796546,-121.4392003
5513,Rowser Way,95757,38.3801650,-121.4389413
5509,Rowser Way,95757,38.3801637,-121.4391850
5505,Rowser Way,95757,38.3801624,-121.4394118
5501,Rowser Way,95757,38.3801612,-121.4396385
5409,Rowser Way,95757,38.3801118,-121.4399443
5405,Rowser Way,95757,38.3803174,-121.4399452
5401,Rowser Way,95757,38.3805233,-121.4399461
5500,Mariolyn Way,95757,38.3804770,-121.4396413
5504,Mariolyn Way,95757,38.3804782,-121.4394145
5508,Mariolyn Way,95757,38.3804794,-121.4391878
5512,Mariolyn Way,95757,38.3804809,-121.4389218
10421,Hite Circle,95757,38.3797543,-121.4467865
10417,Hite Circle,95757,38.3795035,-121.4466986
10413,Hite Circle,95757,38.3795022,-121.4465071
10409,Hite Circle,95757,38.3795147,-121.4462198
10405,Hite Circle,95757,38.3795161,-121.4459966
10401,Hite Circle,95757,38.3795177,-121.4457734
10381,Hite Circle,95757,38.3803763,-121.4454847
10385,Hite Circle,95757,38.3801772,-121.4454849
10389,Hite Circle,95757,38.3799987,-121.4454851
10393,Hite Circle,95757,38.3798202,-121.4454829
5021,Bilby Road,95757,38.3795588,-121.4454719
10384,Stoecker Court,95757,38.3798069,-121.4451767
10378,Stoecker Court,95757,38.3799596,-121.4451043
10374,Stoecker Court,95757,38.3801145,-121.4451031
10370,Stoecker Court,95757,38.3802552,-121.4451020
10366,Stoecker Court,95757,38.3804101,-121.4451187
10382,Stoecker Court,95757,38.3797544,-121.4450573
10386,Stoecker Court,95757,38.3796224,-121.4448463
10390,Stoecker Court,95757,38.3796013,-121.4446243
10394,Stoecker Court,95757,38.3795810,-121.4444323
10398,Stoecker Court,95757,38.3796332,-121.4442627
10399,Stoecker Court,95757,38.3800185,-121.4442614
10395,Stoecker Court,95757,38.3800705,-121.4444305
10391,Stoecker Court,95757,38.3800468,-121.4446570
5100,Luttig Way,95757,38.3803483,-121.4446564
5104,Luttig Way,95757,38.3803481,-121.4444301
5108,Luttig Way,95757,38.3803480,-121.4442382
5120,Luttig Way,95757,38.3803410,-121.4440289
5192,Quick Court,95757,38.3796053,-121.4439261
5189,Quick Court,95757,38.3798953,-121.4439523
5193,Quick Court,95757,38.3800953,-121.4439004
5197,Quick Court,95757,38.3800426,-121.4435330
5196,Quick Court,95757,38.3795805,-121.4436800
5200,Quick Court,95757,38.3795962,-121.4433961
5204,Quick Court,95757,38.3795972,-121.4431563
10374,Gilliam Drive,95757,38.3799810,-121.4431928
10370,Gilliam Drive,95757,38.3801651,-121.4432420
5200,Luttig Way,95757,38.3804086,-121.4432942
5128,Luttig Way,95757,38.3803476,-121.4435351
5124,Luttig Way,95757,38.3803409,-121.4438022
5101,Luttig Way,95757,38.3807396,-121.4446561
5107,Luttig Way,95757,38.3807394,-121.4444297
5113,Luttig Way,95757,38.3807393,-121.4442378
5121,Luttig Way,95757,38.3807529,-121.4440372
5125,Luttig Way,95757,38.3807588,-121.4437923
5129,Luttig Way,95757,38.3807856,-121.4435724
5100,Lenzi Court,95757,38.3810279,-121.4446557
5104,Lenzi Court,95757,38.3810277,-121.4444294
5108,Lenzi Court,95757,38.3810400,-121.4442374
10354,Gilliam Drive,95757,38.3809991,-121.4438650
10350,Gilliam Drive,95757,38.3811547,-121.4439022
10346,Gilliam Drive,95757,38.3813138,-121.4439297
10342,Gilliam Drive,95757,38.3814788,-121.4439477
5101,Lenzi Court,95757,38.3814663,-121.4446638
5105,Lenzi Court,95757,38.3814992,-121.4444424
5109,Lenzi Court,95757,38.3815188,-121.4442416
10338,Gilliam Drive,95757,38.3816379,-121.4439578
10334,Gilliam Drive,95757,38.3817940,-121.4439576
5108,Simoes Court,95757,38.3818246,-121.4442415
5104,Simoes Court,95757,38.3818097,-121.4444420
5100,Simoes Court,95757,38.3818058,-121.4446633
5107,Bilby Road,95757,38.3819019,-121.4447449
10330,Gilliam Drive,95757,38.3819450,-121.4439575
10326,Gilliam Drive,95757,38.3820960,-121.4439573
10322,Gilliam Drive,95757,38.3822470,-121.4439572
5109,Simoes Court,95757,38.3823137,-121.4442411
5105,Simoes Court,95757,38.3822969,-121.4444439
5101,Simoes Court,95757,38.3822693,-121.4446640
10309,Stoecker Way,95757,38.3825460,-121.4444456
10301,Stoecker Way,95757,38.3827133,-121.4444253
10310,Gilliam Drive,95757,38.3827043,-121.4439567
10314,Gilliam Drive,95757,38.3825491,-121.4439568
10318,Gilliam Drive,95757,38.3823981,-121.4439570
5200,Matina Drive,95757,38.3826709,-121.4434437
10372,Beckley Way,95757,38.3823825,-121.4434452
10368,Beckley Way,95757,38.3823815,-121.4432360
5208,Matina Drive,95757,38.3826688,-121.4430418
5204,Matina Drive,95757,38.3826698,-121.4432337
5212,Matina Drive,95757,38.3826679,-121.4428500
10364,Beckley Way,95757,38.3823805,-121.4430442
10360,Beckley Way,95757,38.3823796,-121.4428523
10356,Beckley Way,95757,38.3823786,-121.4426604
5216,Matina Drive,95757,38.3826669,-121.4426581
5220,Matina Drive,95757,38.3826659,-121.4424662
5300,Matina Drive,95757,38.3826650,-121.4422744
5304,Matina Drive,95757,38.3826640,-121.4420825
5308,Matina Drive,95757,38.3826630,-121.4418906
5312,Matina Drive,95757,38.3826627,-121.4416988
5316,Matina Drive,95757,38.3826690,-121.4415068
5320,Matina Drive,95757,38.3826780,-121.4412966
10328,Beckley Way,95757,38.3823717,-121.4412981
10332,Beckley Way,95757,38.3823728,-121.4415093
10336,Beckley Way,95757,38.3823738,-121.4417011
10340,Beckley Way,95757,38.3823747,-121.4418930
10344,Beckley Way,95757,38.3823757,-121.4420848
10348,Beckley Way,95757,38.3823767,-121.4422767
10352,Beckley Way,95757,38.3823776,-121.4424686
10373,Beckley Way,95757,38.3819844,-121.4434455
5201,Jilson Way,95757,38.3816960,-121.4434306
10369,Beckley Way,95757,38.3819833,-121.4432279
10309,Hite Circle,95757,38.3828211,-121.4465769
10313,Hite Circle,95757,38.3828717,-121.4463591
10317,Hite Circle,95757,38.3829159,-121.4461461
10321,Hite Circle,95757,38.3829415,-121.4458887
10325,Hite Circle,95757,38.3829181,-121.4455282
10300,Stoecker Way,95757,38.3828588,-121.4450297
10329,Hite Circle,95757,38.3826931,-121.4454799
10333,Hite Circle,95757,38.3824975,-121.4454825
10337,Hite Circle,95757,38.3823190,-121.4454827
10316,Stoecker Way,95757,38.3822628,-121.4451036
10312,Stoecker Way,95757,38.3824109,-121.4450933
10308,Stoecker Way,95757,38.3825586,-121.4450774
10304,Stoecker Way,95757,38.3827099,-121.4450564
10341,Hite Circle,95757,38.3821405,-121.4454829
10345,Hite Circle,95757,38.3819620,-121.4454831
10349,Hite Circle,95757,38.3817835,-121.4454833
10353,Hite Circle,95757,38.3816051,-121.4454834
10320,Stoecker Way,95757,38.3821169,-121.4451079
10324,Stoecker Way,95757,38.3819741,-121.4451080
10328,Stoecker Way,95757,38.3818314,-121.4451082
10332,Stoecker Way,95757,38.3816886,-121.4451083
10336,Stoecker Way,95757,38.3815458,-121.4451085
10340,Stoecker Way,95757,38.3814030,-121.4451086
10344,Stoecker Way,95757,38.3812602,-121.4451088
10357,Hite Circle,95757,38.3814266,-121.4454836
10361,Hite Circle,95757,38.3812481,-121.4454838
10365,Hite Circle,95757,38.3810696,-121.4454840
10348,Stoecker Way,95757,38.3811174,-121.4451089
10369,Hite Circle,95757,38.3808911,-121.4454842
10373,Hite Circle,95757,38.3806991,-121.4454844
10360,Stoecker Way,95757,38.3806781,-121.4451094
10356,Stoecker Way,95757,38.3808318,-121.4451092
10352,Stoecker Way,95757,38.3809746,-121.4451091
10376,Hite Circle,95757,38.3805204,-121.4460078
10434,Hite Circle,95757,38.3804109,-121.4465358
10430,Hite Circle,95757,38.3802324,-121.4464787
10410,Hite Circle,95757,38.3800051,-121.4463483
10388,Hite Circle,95757,38.3799438,-121.4460084
10384,Hite Circle,95757,38.3801429,-121.4460082
10380,Hite Circle,95757,38.3803351,-121.4460080
10441,Hite Circle,95757,38.3805690,-121.4472835
10437,Hite Circle,95757,38.3803986,-121.4471776
10433,Hite Circle,95757,38.3802392,-121.4470756
10429,Hite Circle,95757,38.3800799,-121.4469735
10425,Hite Circle,95757,38.3799205,-121.4468715
10365,Beckley Way,95757,38.3819822,-121.4430186
5205,Jilson Way,95757,38.3816948,-121.4431885
5209,Jilson Way,95757,38.3816936,-121.4429618
10361,Beckley Way,95757,38.3819812,-121.4428180
5213,Jilson Way,95757,38.3816925,-121.4427350
10357,Beckley Way,95757,38.3819803,-121.4426261
10353,Beckley Way,95757,38.3819793,-121.4424343
5217,Jilson Way,95757,38.3816913,-121.4425083
5301,Jilson Way,95757,38.3816902,-121.4422816
10349,Beckley Way,95757,38.3819783,-121.4422424
10345,Beckley Way,95757,38.3819774,-121.4420505
10341,Beckley Way,95757,38.3819764,-121.4418587
10337,Beckley Way,95757,38.3819754,-121.4416668
5307,Jilson Way,95757,38.3816891,-121.4420548
5311,Jilson Way,95757,38.3816879,-121.4418281
5315,Jilson Way,95757,38.3816868,-121.4416013
5319,Jilson Way,95757,38.3816856,-121.4413746
10333,Beckley Way,95757,38.3819744,-121.4414711
10329,Beckley Way,95757,38.3819651,-121.4412542
10325,Beckley Way,95757,38.3819370,-121.4409230
10321,Beckley Way,95757,38.3821211,-121.4408642
5323,Jilson Way,95757,38.3817032,-121.4410658
5327,Jilson Way,95757,38.3816540,-121.4408837
5331,Jilson Way,95757,38.3814044,-121.4408602
5401,Jilson Way,95757,38.3812168,-121.4408610
5405,Jilson Way,95757,38.3810383,-121.4408610
5409,Jilson Way,95757,38.3808497,-121.4408610
5200,Jilson Way,95757,38.3812628,-121.4433724
5204,Jilson Way,95757,38.3812931,-121.4431030
5208,Jilson Way,95757,38.3812950,-121.4428762
5212,Jilson Way,95757,38.3812939,-121.4426495
5216,Jilson Way,95757,38.3812927,-121.4424227
5220,Jilson Way,95757,38.3812915,-121.4421820
10354,Aldinger Way,95757,38.3810577,-121.4422389
10358,Aldinger Way,95757,38.3808794,-121.4422389
5230,Luttig Court,95757,38.3809592,-121.4426271
5227,Luttig Court,95757,38.3810083,-121.4428498
5223,Luttig Court,95757,38.3809685,-121.4431803
5226,Luttig Court,95757,38.3807079,-121.4426322
10365,Gilliam Drive,95757,38.3805196,-121.4427434
10369,Gilliam Drive,95757,38.3803276,-121.4426744
10373,Gilliam Drive,95757,38.3801493,-121.4426405
10362,Aldinger Way,95757,38.3807009,-121.4422389
10366,Aldinger Way,95757,38.3805224,-121.4422389
10370,Aldinger Way,95757,38.3803439,-121.4422389
10374,Aldinger Way,95757,38.3801654,-121.4422389
10378,Aldinger Way,95757,38.3799692,-121.4422389
10377,Gilliam Drive,95757,38.3799610,-121.4426174
5533,Jilson Way,95757,38.3795999,-121.4426798
5529,Jilson Way,95757,38.3796012,-121.4424360
5516,Matina Drive,95757,38.3819368,-121.4388753
5520,Matina Drive,95757,38.3819377,-121.4386659
10235,Bolo Court,95757,38.3853774,-121.4375934
10231,Bolo Court,95757,38.3854838,-121.4377592
10227,Bolo Court,95757,38.3855978,-121.4378862
10223,Bolo Court,95757,38.3857184,-121.4380016
10219,Bolo Court,95757,38.3858393,-121.4381167
10215,Bolo Court,95757,38.3859610,-121.4382303
10211,Bolo Court,95757,38.3861151,-121.4383530
10210,Amyjan Court,95757,38.3861342,-121.4379193
10214,Amyjan Court,95757,38.3859852,-121.4378087
10218,Amyjan Court,95757,38.3858648,-121.4376917
10222,Amyjan Court,95757,38.3857432,-121.4375771
10226,Amyjan Court,95757,38.3856148,-121.4374482
10230,Amyjan Court,95757,38.3855014,-121.4372755
10240,Melbenji Court,95757,38.3847722,-121.4378343
10246,Melbenji Court,95757,38.3846565,-121.4376747
5627,Loyalty Way,95757,38.3844677,-121.4374452
5623,Loyalty Way,95757,38.3844198,-121.4376537
5615,Loyalty Way,95757,38.3843868,-121.4378452
5611,Loyalty Way,95757,38.3844045,-121.4381118
10241,Melbenji Court,95757,38.3850669,-121.4373197
10245,Melbenji Court,95757,38.3849232,-121.4371687
10249,Melbenji Court,95757,38.3847611,-121.4371223
5705,Loyalty Way,95757,38.3845245,-121.4370549
10256,Marlaw Court,95757,38.3845037,-121.4367297
10252,Marlaw Court,95757,38.3846707,-121.4367296
10248,Marlaw Court,95757,38.3848317,-121.4367594
10244,Marlaw Court,95757,38.3850044,-121.4367961
10240,Marlaw Court,95757,38.3851728,-121.4368805
10241,Marlaw Court,95757,38.3852767,-121.4362917
10245,Marlaw Court,95757,38.3851191,-121.4362581
10249,Marlaw Court,95757,38.3849680,-121.4362581
10253,Marlaw Court,95757,38.3848170,-121.4362413
10257,Marlaw Court,95757,38.3846660,-121.4362412
10261,Marlaw Court,95757,38.3845150,-121.4362410
10265,Marlaw Way,95757,38.3843640,-121.4362409
10269,Marlaw Way,95757,38.3842129,-121.4362408
10200,Jennick Way,95757,38.3853599,-121.4358753
10204,Jennick Way,95757,38.3851766,-121.4358753
10208,Jennick Way,95757,38.3850119,-121.4358752
10212,Jennick Way,95757,38.3848471,-121.4358750
10216,Jennick Way,95757,38.3846824,-121.4358749
10220,Jennick Way,95757,38.3845176,-121.4358748
10224,Jennick Way,95757,38.3843529,-121.4358746
10228,Jennick Way,95757,38.3841881,-121.4358744
10281,Marlaw Way,95757,38.3837599,-121.4362404
10240,Jennick Way,95757,38.3836938,-121.4358740
10244,Jennick Way,95757,38.3835291,-121.4358739
10285,Marlaw Way,95757,38.3836088,-121.4362402
10289,Marlaw Way,95757,38.3834578,-121.4362401
10248,Jennick Way,95757,38.3833643,-121.4358737
10317,Beckley Way,95757,38.3823105,-121.4408590
10313,Beckley Way,95757,38.3824615,-121.4408609
10309,Beckley Way,95757,38.3826125,-121.4408609
10305,Beckley Way,95757,38.3827778,-121.4408608
10300,Danichris Way,95757,38.3827319,-121.4404744
10304,Danichris Way,95757,38.3825547,-121.4404943
10308,Danichris Way,95757,38.3823985,-121.4405033
10312,Danichris Way,95757,38.3822475,-121.4405033
10316,Danichris Way,95757,38.3820965,-121.4405033
10301,Danichris Way,95757,38.3824842,-121.4400142
10322,Jefron Court,95757,38.3822501,-121.4396348
10313,Danichris Way,95757,38.3822470,-121.4400149
10317,Danichris Way,95757,38.3820960,-121.4400149
10320,Danichris Way,95757,38.3819454,-121.4405033
10324,Danichris Way,95757,38.3817944,-121.4405033
10328,Danichris Way,95757,38.3816434,-121.4405034
10332,Danichris Way,95757,38.3814883,-121.4405039
10336,Danichris Way,95757,38.3812758,-121.4404881
10340,Danichris Way,95757,38.3811606,-121.4403640
5411,Mariolyn Way,95757,38.3809071,-121.4405533
5415,Mariolyn Way,95757,38.3808965,-121.4403081
5419,Mariolyn Way,95757,38.3808955,-121.4400638
10344,Danichris Way,95757,38.3811899,-121.4400734
10348,Danichris Way,95757,38.3811935,-121.4398818
10352,Danichris Way,95757,38.3811975,-121.4396899
10356,Danichris Way,95757,38.3811985,-121.4394981
10360,Danichris Way,95757,38.3811996,-121.4393062
10364,Danichris Way,95757,38.3812006,-121.4391144
5423,Mariolyn Way,95757,38.3809006,-121.4398196
5501,Mariolyn Way,95757,38.3809029,-121.4395755
5505,Mariolyn Way,95757,38.3809043,-121.4393305
5509,Mariolyn Way,95757,38.3809057,-121.4391091
5511,Mariolyn Way,95757,38.3809054,-121.4390376
5513,Mariolyn Way,95757,38.3809072,-121.4387941
10368,Danichris Way,95757,38.3812024,-121.4389225
10372,Danichris Way,95757,38.3812196,-121.4386946
10373,Danichris Way,95757,38.3816378,-121.4386661
10369,Danichris Way,95757,38.3816126,-121.4388752
10365,Danichris Way,95757,38.3815933,-121.4390700
10361,Danichris Way,95757,38.3815843,-121.4392637
10357,Danichris Way,95757,38.3815832,-121.4394556
10353,Danichris Way,95757,38.3815821,-121.4396518
10349,Danichris Way,95757,38.3815810,-121.4398568
10345,Danichris Way,95757,38.3815798,-121.4400748
10321,Danichris Way,95757,38.3819450,-121.4400149
10325,Danichris Way,95757,38.3817930,-121.4400149
10326,Jefron Court,95757,38.3820298,-121.4396613
10330,Jefron Court,95757,38.3818348,-121.4396102
10331,Jefron Court,95757,38.3818708,-121.4392406
5512,Matina Drive,95757,38.3819410,-121.4390682
10232,Jennick Way,95757,38.3840234,-121.4358743
10273,Marlaw Way,95757,38.3840619,-121.4362406
10236,Jennick Way,95757,38.3838586,-121.4358742
10277,Marlaw Way,95757,38.3839109,-121.4362405
10293,Marlaw Way,95757,38.3833068,-121.4362399
10297,Marlaw Way,95757,38.3831558,-121.4362398
10301,Marlaw Way,95757,38.3830047,-121.4362397
10305,Marlaw Way,95757,38.3828537,-121.4362395
10309,Marlaw Way,95757,38.3827027,-121.4362564
10252,Jennick Way,95757,38.3831996,-121.4358736
10256,Jennick Way,95757,38.3830062,-121.4358779
10260,Jennick Way,95757,38.3828083,-121.4358186
10264,Jennick Way,95757,38.3827789,-121.4355073
10313,Marlaw Way,95757,38.3825397,-121.4362616
5819,Matina Drive,95757,38.3825531,-121.4359101
5823,Matina Drive,95757,38.3825101,-121.4356886
5827,Matina Drive,95757,38.3824675,-121.4354684
5901,Matina Drive,95757,38.3824248,-121.4352482
5905,Matina Drive,95757,38.3823821,-121.4350281
10268,Jennick Way,95757,38.3827467,-121.4353040
10272,Jennick Way,95757,38.3827073,-121.4351008
10276,Jennick Way,95757,38.3826679,-121.4348975
5909,Matina Drive,95757,38.3823394,-121.4348079
5913,Matina Drive,95757,38.3822971,-121.4345895
5917,Matina Drive,95757,38.3822538,-121.4343660
10288,Jennick Way,95757,38.3825484,-121.4342814
10284,Jennick Way,95757,38.3825891,-121.4344911
10280,Jennick Way,95757,38.3826285,-121.4346943
10268,Marlaw Way,95757,38.3842070,-121.4367368
10272,Marlaw Way,95757,38.3840244,-121.4367290
10276,Marlaw Way,95757,38.3838450,-121.4367291
5705,Mingee Way,95757,38.3838589,-121.4370253
5701,Mingee Way,95757,38.3838287,-121.4372150
5617,Mingee Way,95757,38.3837886,-121.4374067
5613,Mingee Way,95757,38.3837412,-121.4375885
5609,Mingee Way,95757,38.3837010,-121.4377627
5605,Mingee Way,95757,38.3836815,-121.4379978
5601,Mingee Way,95757,38.3836794,-121.4382052
5610,Loyalty Way,95757,38.3839530,-121.4382048
5614,Loyalty Way,95757,38.3839609,-121.4379757
5618,Loyalty Way,95757,38.3839893,-121.4377761
5622,Loyalty Way,95757,38.3840318,-121.4375942
5626,Loyalty Way,95757,38.3840748,-121.4374098
5700,Loyalty Way,95757,38.3841111,-121.4372167
5704,Loyalty Way,95757,38.3841386,-121.4370245
10284,Marlaw Way,95757,38.3835397,-121.4367462
10288,Marlaw Way,95757,38.3833594,-121.4367284
10292,Marlaw Way,95757,38.3831807,-121.4367285
10262,Izzy Way,95757,38.3844371,-121.4349676
10231,Jennick Way,95757,38.3841005,-121.4353511
10235,Jennick Way,95757,38.3839357,-121.4353509
10239,Jennick Way,95757,38.3837710,-121.4353508
10266,Izzy Way,95757,38.3842586,-121.4349675
10270,Izzy Way,95757,38.3840801,-121.4349673
10274,Izzy Way,95757,38.3839016,-121.4349672
10278,Izzy Way,95757,38.3837232,-121.4349671
10243,Jennick Way,95757,38.3836062,-121.4353506
10247,Jennick Way,95757,38.3834297,-121.4353503
10282,Izzy Way,95757,38.3834935,-121.4349579
10265,Jennick Way,95757,38.3831875,-121.4353897
10269,Jennick Way,95757,38.3831466,-121.4351789
10273,Jennick Way,95757,38.3831072,-121.4349756
10277,Jennick Way,95757,38.3830678,-121.4347724
10281,Jennick Way,95757,38.3830284,-121.4345692
10285,Jennick Way,95757,38.3829890,-121.4343659
10289,Jennick Way,95757,38.3829470,-121.4341491
10298,Izzy Way,95757,38.3832433,-121.4340730
10294,Izzy Way,95757,38.3832872,-121.4342996
10290,Izzy Way,95757,38.3833299,-121.4345197
10286,Izzy Way,95757,38.3833512,-121.4348188
10241,Izzy Way,95757,38.3846704,-121.4340083
10245,Izzy Way,95757,38.3845649,-121.4342104
10249,Izzy Way,95757,38.3844949,-121.4344328
10267,Izzy Way,95757,38.3842494,-121.4344442
10271,Izzy Way,95757,38.3840709,-121.4344440
10270,Karno Court,95757,38.3840745,-121.4340538
10266,Karno Court,95757,38.3843454,-121.4339944
10260,Karno Court,95757,38.3844773,-121.4337953
10269,Karno Court,95757,38.3839281,-121.4338688
10275,Izzy Way,95757,38.3838925,-121.4343959
10279,Izzy Way,95757,38.3836896,-121.4344022
10295,Izzy Way,95757,38.3836710,-121.4340910
10299,Izzy Way,95757,38.3836282,-121.4338703
10301,Izzy Way,95757,38.3835839,-121.4336416
10315,Izzy Way,95757,38.3834712,-121.4333533
10319,Izzy Way,95757,38.3836474,-121.4332899
10321,Izzy Way,95757,38.3838104,-121.4332109
10325,Izzy Way,95757,38.3839946,-121.4331151
10261,Karno Court,95757,38.3841558,-121.4333867
10265,Karno Court,95757,38.3839171,-121.4335256
10217,Gilliam Drive,95757,38.3854174,-121.4425358
5401,Dorcey Drive,95757,38.3849206,-121.4417974
10321,Marlaw Way,95757,38.3822099,-121.4362407
10320,Christo Way,95757,38.3821223,-121.4358498
10325,Marlaw Way,95757,38.3820201,-121.4362388
10324,Christo Way,95757,38.3819042,-121.4358633
10328,Christo Way,95757,38.3817120,-121.4358624
10329,Marlaw Way,95757,38.3818622,-121.4362386
10333,Marlaw Way,95757,38.3817112,-121.4362385
10337,Marlaw Way,95757,38.3815514,-121.4362456
10332,Christo Way,95757,38.3815198,-121.4358615
10336,Christo Way,95757,38.3813276,-121.4358605
10341,Marlaw Way,95757,38.3813814,-121.4362722
10405,Danichris Way,95757,38.3811783,-121.4363458
10340,Christo Way,95757,38.3811354,-121.4358596
10409,Danichris Way,95757,38.3809539,-121.4362931
10344,Christo Way,95757,38.3809432,-121.4358587
10413,Danichris Way,95757,38.3807558,-121.4362679
10417,Danichris Way,95757,38.3805651,-121.4362652
10421,Danichris Way,95757,38.3803689,-121.4362868
10383,Nicanor Court,95757,38.3801625,-121.4364105
10348,Christo Way,95757,38.3807510,-121.4358577
10352,Christo Way,95757,38.3805588,-121.4358568
10356,Christo Way,95757,38.3803665,-121.4358559
10360,Christo Way,95757,38.3801743,-121.4358549
10364,Christo Way,95757,38.3799736,-121.4358549
10387,Nicanor Court,95757,38.3799817,-121.4362732
10390,Nicanor Court,95757,38.3796592,-121.4363050
10368,Christo Way,95757,38.3796861,-121.4358207
10386,Nicanor Court,95757,38.3796275,-121.4367191
10382,Nicanor Court,95757,38.3797818,-121.4368924
10435,Danichris Way,95757,38.3796539,-121.4371496
10439,Danichris Way,95757,38.3796357,-121.4374121
10443,Danichris Way,95757,38.3796343,-121.4376388
10447,Danichris Way,95757,38.3796321,-121.4378653
10451,Danichris Way,95757,38.3795862,-121.4382165
10455,Danichris Way,95757,38.3797478,-121.4383078
10459,Danichris Way,95757,38.3799644,-121.4383255
10463,Danichris Way,95757,38.3801429,-121.4383197
10467,Danichris Way,95757,38.3803215,-121.4382937
10471,Danichris Way,95757,38.3805138,-121.4382806
10470,Danichris Way,95757,38.3805187,-121.4377123
10466,Danichris Way,95757,38.3803065,-121.4377415
10448,Danichris Way,95757,38.3800588,-121.4378475
10444,Danichris Way,95757,38.3800602,-121.4376038
5614,Mariolyn Court,95757,38.3803824,-121.4372931
10440,Danichris Way,95757,38.3800728,-121.4373246
10430,Danichris Way,95757,38.3801201,-121.4370719
10424,Danichris Way,95757,38.3802684,-121.4368940
10420,Danichris Way,95757,38.3804924,-121.4368175
5618,Mariolyn Court,95757,38.3806131,-121.4372057
10410,Danichris Way,95757,38.3806992,-121.4368063
5909,Corrin Way,95757,38.3815649,-121.4348606
5905,Corrin Way,95757,38.3816108,-121.4350977
5901,Corrin Way,95757,38.3816591,-121.4353467
5900,Matina Drive,95757,38.3819854,-121.4353522
5904,Matina Drive,95757,38.3819383,-121.4351092
5900,Corrin Way,95757,38.3812212,-121.4353486
5906,Corrin Way,95757,38.3811743,-121.4351067
5910,Corrin Way,95757,38.3811283,-121.4348696
5914,Corrin Way,95757,38.3810788,-121.4346140
10354,Katie Court,95757,38.3808140,-121.4347260
10358,Katie Court,95757,38.3805805,-121.4347261
10362,Katie Court,95757,38.3803579,-121.4346870
5900,Owen Thomas Court,95757,38.3803964,-121.4353733
5908,Owen Thomas Court,95757,38.3804406,-121.4350972
5909,Owen Thomas Court,95757,38.3808244,-121.4351014
5901,Owen Thomas Court,95757,38.3808915,-121.4353783
10351,Katie Court,95757,38.3810056,-121.4341191
10355,Katie Court,95757,38.3807629,-121.4341198
10359,Katie Court,95757,38.3805573,-121.4341115
10363,Katie Court,95757,38.3803509,-121.4341499
10417,Christo Way,95757,38.3803465,-121.4336845
10421,Christo Way,95757,38.3805387,-121.4336862
10425,Christo Way,95757,38.3807309,-121.4336879
10429,Christo Way,95757,38.3809441,-121.4336854
10401,Christo Way,95757,38.3800928,-121.4336262
10397,Christo Way,95757,38.3800914,-121.4338918
10393,Christo Way,95757,38.3800901,-121.4341359
10389,Christo Way,95757,38.3800887,-121.4343801
10385,Christo Way,95757,38.3800874,-121.4346243
10381,Christo Way,95757,38.3800861,-121.4348685
10377,Christo Way,95757,38.3800847,-121.4351127
5617,Mariolyn Court,95757,38.3808842,-121.4372557
10400,Danichris Way,95757,38.3809140,-121.4368429
10396,Danichris Way,95757,38.3811209,-121.4369737
10392,Danichris Way,95757,38.3811993,-121.4371933
10388,Danichris Way,95757,38.3812291,-121.4374786
10384,Danichris Way,95757,38.3812289,-121.4377269
5613,Mariolyn Court,95757,38.3809193,-121.4375477
5609,Mariolyn Court,95757,38.3809117,-121.4378090
5605,Mariolyn Court,95757,38.3809111,-121.4380358
5601,Mariolyn Court,95757,38.3808972,-121.4383046
10376,Danichris Way,95757,38.3812290,-121.4382203
10380,Danichris Way,95757,38.3812289,-121.4379537
10372,Christo Way,95757,38.3796460,-121.4355569
10376,Christo Way,95757,38.3796584,-121.4352459
10380,Christo Way,95757,38.3796597,-121.4350017
10384,Christo Way,95757,38.3796610,-121.4347575
10388,Christo Way,95757,38.3796624,-121.4345134
10390,Christo Way,95757,38.3796637,-121.4342692
10394,Christo Way,95757,38.3796650,-121.4340250
10398,Christo Way,95757,38.3796664,-121.4337808
10400,Christo Way,95757,38.3796545,-121.4334957
10404,Christo Way,95757,38.3796770,-121.4331848
10408,Christo Way,95757,38.3799401,-121.4331397
10412,Christo Way,95757,38.3801475,-121.4331421
10416,Christo Way,95757,38.3803397,-121.4331438
10420,Christo Way,95757,38.3805313,-121.4331455
6010,Corrin Way,95757,38.3807981,-121.4332080
6014,Corrin Way,95757,38.3807665,-121.4329435
6018,Corrin Way,95757,38.3807404,-121.4326816
10362,Jillson Way,95757,38.3804860,-121.4327441
10366,Jillson Way,95757,38.3802879,-121.4327421
10370,Jillson Way,95757,38.3800957,-121.4327405
10374,Jillson Way,95757,38.3798539,-121.4327357
10378,Jillson Way,95757,38.3796438,-121.4326441
10382,Jillson Way,95757,38.3796748,-121.4322325
10386,Jillson Way,95757,38.3796761,-121.4319885
10390,Jillson Way,95757,38.3796775,-121.4317305
10391,Jillson Way,95757,38.3800963,-121.4317345
10387,Jillson Way,95757,38.3800948,-121.4319992
10383,Jillson Way,95757,38.3800934,-121.4322643
10365,Jillson Way,95757,38.3803409,-121.4322019
10374,Stathos Drive,95757,38.3803430,-121.4318007
10370,Stathos Drive,95757,38.3805353,-121.4318024
10361,Jillson Way,95757,38.3805331,-121.4322036
10357,Jillson Way,95757,38.3807253,-121.4322053
10366,Stathos Drive,95757,38.3807275,-121.4318041
10353,Jillson Way,95757,38.3809175,-121.4322070
10362,Stathos Drive,95757,38.3809197,-121.4318058
10349,Jillson Way,95757,38.3811097,-121.4322086
10358,Stathos Drive,95757,38.3811119,-121.4318075
5704,Mingee Way,95757,38.3834652,-121.4370325
5700,Mingee Way,95757,38.3834284,-121.4372245
5616,Mingee Way,95757,38.3833812,-121.4374072
5612,Mingee Way,95757,38.3833299,-121.4375843
5608,Mingee Way,95757,38.3832988,-121.4377821
5604,Mingee Way,95757,38.3832949,-121.4380011
5600,Mingee Way,95757,38.3832949,-121.4382059
5601,Claudied Way,95757,38.3830203,-121.4382061
5605,Claudied Way,95757,38.3830203,-121.4380012
5609,Claudied Way,95757,38.3830207,-121.4377978
5613,Claudied Way,95757,38.3830419,-121.4375695
5617,Claudied Way,95757,38.3830892,-121.4373943
5701,Claudied Way,95757,38.3831420,-121.4372155
5705,Claudied Way,95757,38.3831833,-121.4370281
5708,Claudied Way,95757,38.3828386,-121.4366977
5704,Claudied Way,95757,38.3828084,-121.4369222
10324,Izzy Way,95757,38.3837651,-121.4326515
10351,Jennick Way,95757,38.3836240,-121.4323252
10347,Jennick Way,95757,38.3834412,-121.4323964
10320,Izzy Way,95757,38.3835801,-121.4327569
10316,Izzy Way,95757,38.3833835,-121.4328178
10343,Jennick Way,95757,38.3832814,-121.4324626
10339,Jennick Way,95757,38.3831196,-121.4325233
10335,Jennick Way,95757,38.3829566,-121.4325729
6207,Bilby Road,95757,38.3829539,-121.4326593
10331,Jennick Way,95757,38.3827913,-121.4326162
10327,Jennick Way,95757,38.3826117,-121.4326583
10305,Jennick Way,95757,38.3827231,-121.4329443
10301,Jennick Way,95757,38.3827553,-121.4331601
10299,Jennick Way,95757,38.3827947,-121.4333633
10295,Jennick Way,95757,38.3828340,-121.4335665
10291,Jennick Way,95757,38.3828747,-121.4337762
10300,Izzy Way,95757,38.3831677,-121.4336831
10304,Izzy Way,95757,38.3831229,-121.4334519
10308,Izzy Way,95757,38.3830595,-121.4331543
10312,Izzy Way,95757,38.3830943,-121.4328991
6113,Tom Way,95757,38.3841095,-121.4324947
6109,Tom Way,95757,38.3841948,-121.4326936
6105,Tom Way,95757,38.3842990,-121.4328844
6101,Tom Way,95757,38.3844149,-121.4330668
6025,Tom Way,95757,38.3845389,-121.4332400
6021,Tom Way,95757,38.3846707,-121.4334034
6017,Tom Way,95757,38.3848098,-121.4335566
6013,Tom Way,95757,38.3849558,-121.4336989
6009,Tom Way,95757,38.3851081,-121.4338297
6005,Tom Way,95757,38.3852654,-121.4339464
6001,Tom Way,95757,38.3854435,-121.4340412
5925,Tom Way,95757,38.3856887,-121.4341615
5921,Tom Way,95757,38.3856422,-121.4345141
5917,Tom Way,95757,38.3855821,-121.4347313
5913,Tom Way,95757,38.3855291,-121.4349479
5905,Tom Way,95757,38.3854762,-121.4351644
5901,Tom Way,95757,38.3854244,-121.4353946
5900,Tom Way,95757,38.3850088,-121.4353785
5904,Tom Way,95757,38.3850498,-121.4351357
5908,Tom Way,95757,38.3851043,-121.4349213
5912,Tom Way,95757,38.3851593,-121.4346965
5918,Tom Way,95757,38.3852226,-121.4344283
6006,Tom Way,95757,38.3849496,-121.4343563
10248,Izzy Way,95757,38.3848777,-121.4346142
10254,Izzy Way,95757,38.3848334,-121.4348990
10215,Jennick Way,95757,38.3847684,-121.4353516
10219,Jennick Way,95757,38.3845948,-121.4353515
10223,Jennick Way,95757,38.3844300,-121.4353514
10227,Jennick Way,95757,38.3842653,-121.4353512
10258,Izzy Way,95757,38.3846367,-121.4349732
5700,Claudied Way,95757,38.3827570,-121.4371299
5616,Claudied Way,95757,38.3826961,-121.4373194
5612,Claudied Way,95757,38.3826500,-121.4375327
5608,Claudied Way,95757,38.3826359,-121.4377630
5604,Claudied Way,95757,38.3826359,-121.4379838
5600,Claudied Way,95757,38.3826359,-121.4382016
5611,Matina Drive,95757,38.3823613,-121.4382018
5615,Matina Drive,95757,38.3823613,-121.4379838
5619,Matina Drive,95757,38.3823613,-121.4377745
5623,Matina Drive,95757,38.3823672,-121.4375385
5627,Matina Drive,95757,38.3824014,-121.4373174
5701,Matina Drive,95757,38.3824571,-121.4371354
5705,Matina Drive,95757,38.3825137,-121.4369582
5709,Matina Drive,95757,38.3825603,-121.4367348
10320,Marlaw Way,95757,38.3821783,-121.4367296
10324,Marlaw Way,95757,38.3819830,-121.4367271
10328,Marlaw Way,95757,38.3818045,-121.4367270
10336,Marlaw Way,95757,38.3816246,-121.4367304
10397,Danichris Way,95757,38.3816197,-121.4370251
5704,Matina Drive,95757,38.3820075,-121.4370064
5700,Matina Drive,95757,38.3819765,-121.4372076
5626,Matina Drive,95757,38.3819584,-121.4373995
5622,Matina Drive,95757,38.3819507,-121.4375914
5618,Matina Drive,95757,38.3819503,-121.4377833
5614,Matina Drive,95757,38.3819503,-121.4379838
5610,Matina Drive,95757,38.3819503,-121.4382016
10393,Danichris Way,95757,38.3816494,-121.4372599
10389,Danichris Way,95757,38.3816560,-121.4374868
10385,Danichris Way,95757,38.3816560,-121.4377135
10381,Danichris Way,95757,38.3816560,-121.4379403
10377,Danichris Way,95757,38.3816560,-121.4381845
10344,Marlaw Way,95757,38.3814227,-121.4367872
10345,Jillson Way,95757,38.3813019,-121.4322103
10354,Stathos Drive,95757,38.3813041,-121.4318092
10350,Stathos Drive,95757,38.3815137,-121.4318110
10341,Jillson Way,95757,38.3815120,-121.4322122
10344,Stathos Drive,95757,38.3818588,-121.4318053
6105,Matina Drive,95757,38.3819306,-121.4321112
10340,Stathos Drive,95757,38.3820386,-121.4318061
10336,Stathos Drive,95757,38.3822092,-121.4317971
10332,Stathos Drive,95757,38.3823717,-121.4317308
10328,Stathos Drive,95757,38.3825451,-121.4317492
10326,Jennick Way,95757,38.3825417,-121.4321346
10322,Jennick Way,95757,38.3823031,-121.4321750
10318,Jennick Way,95757,38.3822064,-121.4323617
10314,Jennick Way,95757,38.3822384,-121.4326679
6101,Matina Drive,95757,38.3819136,-121.4323292
6021,Matina Drive,95757,38.3819178,-121.4325601
6017,Matina Drive,95757,38.3819450,-121.4327715
6013,Matina Drive,95757,38.3819832,-121.4329705
6009,Matina Drive,95757,38.3820226,-121.4331737
6005,Matina Drive,95757,38.3820620,-121.4333769
6001,Matina Drive,95757,38.3821014,-121.4335802
10310,Jennick Way,95757,38.3822768,-121.4328799
10306,Jennick Way,95757,38.3823159,-121.4330819
10302,Jennick Way,95757,38.3823553,-121.4332852
10298,Jennick Way,95757,38.3823947,-121.4334884
10294,Jennick Way,95757,38.3824341,-121.4336917
10290,Jennick Way,95757,38.3824761,-121.4339084
5921,Matina Drive,95757,38.3821815,-121.4339930
5925,Matina Drive,95757,38.3821408,-121.4337834
6016,Matina Drive,95757,38.3814865,-121.4327211
6012,Matina Drive,95757,38.3815250,-121.4329763
6008,Matina Drive,95757,38.3815706,-121.4332124
6004,Matina Drive,95757,38.3816166,-121.4334495
6000,Matina Drive,95757,38.3816625,-121.4336866
6001,Corrin Way,95757,38.3813351,-121.4336751
6005,Corrin Way,95757,38.3812891,-121.4334380
6009,Corrin Way,95757,38.3812431,-121.4332008
6013,Corrin Way,95757,38.3811994,-121.4329680
6017,Corrin Way,95757,38.3811686,-121.4327069
5925,Corrin Way,95757,38.3813810,-121.4339122
5924,Matina Drive,95757,38.3817085,-121.4339237
5920,Matina Drive,95757,38.3817544,-121.4341608
5921,Corrin Way,95757,38.3814270,-121.4341493
5917,Corrin Way,95757,38.3814730,-121.4343864
5916,Matina Drive,95757,38.3818004,-121.4343979
5913,Corrin Way,95757,38.3815189,-121.4346235
5912,Matina Drive,95757,38.3818464,-121.4346350
5908,Matina Drive,95757,38.3818923,-121.4348721
10373,Christo Way,95757,38.3800833,-121.4353708
10325,Stathos Drive,95757,38.3831802,-121.4301747
10330,Jennick Way,95757,38.3827113,-121.4321021
10324,Stathos Drive,95757,38.3827114,-121.4317112
10320,Stathos Drive,95757,38.3828763,-121.4316642
10316,Stathos Drive,95757,38.3830394,-121.4316079
10312,Stathos Drive,95757,38.3832003,-121.4315424
10308,Stathos Drive,95757,38.3833588,-121.4314677
10336,Jennick Way,95757,38.3828753,-121.4320589
10340,Jennick Way,95757,38.3830378,-121.4320073
10344,Jennick Way,95757,38.3831986,-121.4319472
10348,Jennick Way,95757,38.3833572,-121.4318789
10352,Jennick Way,95757,38.3835136,-121.4318023
10304,Stathos Drive,95757,38.3835146,-121.4313842
10356,Jennick Way,95757,38.3836673,-121.4317176
10360,Jennick Way,95757,38.3838188,-121.4316246
10300,Stathos Drive,95757,38.3836713,-121.4312895
6121,Tom Way,95757,38.3839351,-121.4320755
6117,Tom Way,95757,38.3840219,-121.4322898
8525,Bond Road,95624,38.4238403,-121.3887566
10065,Bruceville Road,95757,38.3931453,-121.4161820
10065,Bruceville Road,95757,38.3931549,-121.4160126
10065,Bruceville Road,95757,38.3931593,-121.4160410
10061,Bruceville Road,95757,38.3937969,-121.4155089
10047,Bruceville Road,95757,38.3938001,-121.4165703
10043,Bruceville Road,95757,38.3936927,-121.4172161
10043,Bruceville Road,95757,38.3935836,-121.4172100
10075,Bruceville Road,95757,38.3916023,-121.4156130
4810,Elk Grove Boulevard,95758,38.4074410,-121.4490934
4730,Elk Grove Boulevard,95758,38.4083305,-121.4494447
4720,Elk Grove Boulevard,95758,38.4079003,-121.4495907
4720,Elk Grove Boulevard,95758,38.4080411,-121.4495627
4720,Elk Grove Boulevard,95758,38.4081601,-121.4495650
4720,Elk Grove Boulevard,95758,38.4081025,-121.4495497
4730,Elk Grove Boulevard,95758,38.4083105,-121.4492616
8829,Wild Duck Court,95624,38.4446178,-121.3755082
8825,Wild Duck Court,95624,38.4446201,-121.3757079
8821,Wild Duck Court,95624,38.4446220,-121.3758992
8817,Wild Duck Court,95624,38.4446318,-121.3760947
8813,Wild Duck Court,95624,38.4446531,-121.3762882
8809,Wild Duck Court,95624,38.4447323,-121.3765602
8805,Wild Duck Court,95624,38.4447193,-121.3767817
8800,Wild Duck Court,95624,38.4444712,-121.3768155
8804,Wild Duck Court,95624,38.4442340,-121.3767267
8808,Wild Duck Court,95624,38.4441955,-121.3765614
8812,Wild Duck Court,95624,38.4442293,-121.3762939
8816,Wild Duck Court,95624,38.4442313,-121.3761018
8820,Wild Duck Court,95624,38.4442332,-121.3759098
8824,Wild Duck Court,95624,38.4442351,-121.3757177
8828,Wild Duck Court,95624,38.4442372,-121.3755075
8825,Flying Hawk Court,95624,38.4439697,-121.3754869
8821,Flying Hawk Court,95624,38.4439594,-121.3756898
8817,Flying Hawk Court,95624,38.4439496,-121.3758814
8813,Flying Hawk Court,95624,38.4439398,-121.3760731
8809,Flying Hawk Court,95624,38.4439300,-121.3762648
8805,Flying Hawk Court,95624,38.4439417,-121.3764820
8801,Flying Hawk Court,95624,38.4438854,-121.3766740
8800,Flying Hawk Court,95624,38.4434398,-121.3765086
8808,Flying Hawk Court,95624,38.4435152,-121.3762670
8812,Flying Hawk Court,95624,38.4435460,-121.3760581
8816,Flying Hawk Court,95624,38.4435547,-121.3758488
8820,Flying Hawk Court,95624,38.4435637,-121.3756405
8824,Flying Hawk Court,95624,38.4435899,-121.3754044
8821,Barn Owl Court,95624,38.4433093,-121.3753185
8817,Barn Owl Court,95624,38.4432776,-121.3755132
8813,Barn Owl Court,95624,38.4432557,-121.3757151
8809,Barn Owl Court,95624,38.4432706,-121.3759071
8805,Barn Owl Court,95624,38.4432971,-121.3761826
8801,Barn Owl Court,95624,38.4429370,-121.3764929
8800,Barn Owl Court,95624,38.4427875,-121.3762057
8804,Barn Owl Court,95624,38.4427801,-121.3760304
8808,Barn Owl Court,95624,38.4428361,-121.3757690
8812,Barn Owl Court,95624,38.4428584,-121.3755646
8816,Barn Owl Court,95624,38.4428799,-121.3753633
8820,Barn Owl Court,95624,38.4429071,-121.3751699
8821,Ring Dove Court,95624,38.4425938,-121.3751105
8817,Ring Dove Court,95624,38.4425805,-121.3753261
8813,Ring Dove Court,95624,38.4425653,-121.3755303
8809,Ring Dove Court,95624,38.4425635,-121.3757430
8805,Ring Dove Court,95624,38.4425426,-121.3760302
8800,Ring Dove Court,95624,38.4422522,-121.3761849
8804,Ring Dove Court,95624,38.4420377,-121.3759351
8808,Ring Dove Court,95624,38.4421030,-121.3755993
8812,Ring Dove Court,95624,38.4421336,-121.3754092
8678,Aviary Woods Way,95624,38.4422333,-121.3751508
8682,Aviary Woods Way,95624,38.4420474,-121.3751416
8825,Alder Grove Place,95624,38.4418091,-121.3750922
8821,Alder Grove Place,95624,38.4418146,-121.3752838
8817,Alder Grove Place,95624,38.4418103,-121.3754411
8813,Alder Grove Place,95624,38.4418045,-121.3755981
8809,Alder Grove Place,95624,38.4418128,-121.3757550
8805,Alder Grove Place,95624,38.4417090,-121.3761848
8808,Alder Grove Place,95624,38.4413467,-121.3760054
8812,Alder Grove Place,95624,38.4414102,-121.3755765
8816,Alder Grove Place,95624,38.4414258,-121.3754210
8820,Alder Grove Place,95624,38.4414294,-121.3752459
8823,Kestrel Court,95624,38.4411571,-121.3752393
8819,Kestrel Court,95624,38.4411520,-121.3754068
8815,Kestrel Court,95624,38.4410141,-121.3758595
8818,Kestrel Court,95624,38.4405767,-121.3756609
8822,Kestrel Court,95624,38.4407491,-121.3752256
8730,Aviary Woods Way,95624,38.4405152,-121.3753630
8734,Aviary Woods Way,95624,38.4403893,-121.3753479
8738,Aviary Woods Way,95624,38.4402665,-121.3753218
8742,Aviary Woods Way,95624,38.4401368,-121.3752953
8750,Aviary Woods Way,95624,38.4398026,-121.3754491
8824,Avalon Hills Way,95624,38.4393189,-121.3752604
8828,Avalon Hills Way,95624,38.4393411,-121.3748259
8832,Avalon Hills Way,95624,38.4393459,-121.3746729
8836,Avalon Hills Way,95624,38.4393514,-121.3745102
8840,Avalon Hills Way,95624,38.4393576,-121.3743224
8776,Sequoia Wood Court,95624,38.4390163,-121.3743222
8780,Sequoia Wood Court,95624,38.4390944,-121.3745650
8784,Sequoia Wood Court,95624,38.4390880,-121.3749090
8788,Sequoia Wood Court,95624,38.4388684,-121.3750249
8789,Sequoia Wood Court,95624,38.4385992,-121.3749330
8785,Sequoia Wood Court,95624,38.4385600,-121.3746377
8781,Sequoia Wood Court,95624,38.4385891,-121.3743313
8777,Sequoia Wood Court,95624,38.4385230,-121.3740261
8773,Sequoia Wood Court,95624,38.4385958,-121.3738904
8769,Sequoia Wood Court,95624,38.4387939,-121.3738665
8819,Silverberry Avenue,95624,38.4492548,-121.3758891
8815,Silverberry Avenue,95624,38.4492534,-121.3761026
8811,Silverberry Avenue,95624,38.4492522,-121.3762947
8807,Silverberry Avenue,95624,38.4492510,-121.3764867
8803,Silverberry Avenue,95624,38.4492498,-121.3766787
8799,Silverberry Avenue,95624,38.4492486,-121.3768708
8795,Silverberry Avenue,95624,38.4492474,-121.3770646
8791,Silverberry Avenue,95624,38.4492462,-121.3772601
8787,Silverberry Avenue,95624,38.4492449,-121.3774556
8489,Black Kite Drive,95624,38.4492024,-121.3777478
8485,Black Kite Drive,95624,38.4493792,-121.3777346
8481,Black Kite Drive,95624,38.4495594,-121.3777022
8776,Twinberry Way,95624,38.4495199,-121.3774358
8780,Twinberry Way,95624,38.4495212,-121.3772237
8784,Twinberry Way,95624,38.4495224,-121.3770299
8788,Twinberry Way,95624,38.4495235,-121.3768361
8792,Twinberry Way,95624,38.4495247,-121.3766414
8796,Twinberry Way,95624,38.4495259,-121.3764476
8800,Twinberry Way,95624,38.4495270,-121.3762556
8804,Twinberry Way,95624,38.4495282,-121.3760636
8808,Twinberry Way,95624,38.4495294,-121.3758552
8809,Twinberry Way,95624,38.4499140,-121.3758549
8805,Twinberry Way,95624,38.4499128,-121.3760639
8801,Twinberry Way,95624,38.4499117,-121.3762594
8797,Twinberry Way,95624,38.4499106,-121.3764550
8793,Twinberry Way,95624,38.4499095,-121.3766505
8789,Twinberry Way,95624,38.4499083,-121.3768443
8785,Twinberry Way,95624,38.4499072,-121.3770416
8781,Twinberry Way,95624,38.4499060,-121.3772476
8777,Twinberry Way,95624,38.4499048,-121.3774571
8773,Twinberry Way,95624,38.4499035,-121.3776962
8772,Boysenberry Way,95624,38.4501781,-121.3776587
8776,Boysenberry Way,95624,38.4501794,-121.3774264
8780,Boysenberry Way,95624,38.4501806,-121.3772309
8784,Boysenberry Way,95624,38.4501817,-121.3770389
8788,Boysenberry Way,95624,38.4501828,-121.3768468
8792,Boysenberry Way,95624,38.4501839,-121.3766530
8796,Boysenberry Way,95624,38.4501850,-121.3764575
8800,Boysenberry Way,95624,38.4501861,-121.3762619
8804,Boysenberry Way,95624,38.4501873,-121.3760664
8808,Boysenberry Way,95624,38.4501885,-121.3758569
8827,Silverberry Avenue,95624,38.4492616,-121.3755392
8493,Raspberry Way,95624,38.4494757,-121.3754307
8489,Raspberry Way,95624,38.4496277,-121.3754279
8485,Raspberry Way,95624,38.4497791,-121.3754299
8481,Raspberry Way,95624,38.4499270,-121.3754319
8477,Raspberry Way,95624,38.4500802,-121.3754339
8473,Raspberry Way,95624,38.4502428,-121.3754360
8824,Boysenberry Way,95624,38.4501935,-121.3751184
8480,Sun Berry Court,95624,38.4499009,-121.3751164
8484,Sun Berry Court,95624,38.4496021,-121.3750958
8488,Sun Berry Court,95624,38.4495871,-121.3748482
8831,Silverberry Avenue,95624,38.4492699,-121.3753293
8835,Silverberry Avenue,95624,38.4493062,-121.3751348
8839,Silverberry Avenue,95624,38.4493131,-121.3749451
8843,Silverberry Avenue,95624,38.4493149,-121.3747527
8489,Sun Berry Court,95624,38.4496037,-121.3746504
8481,Sun Berry Court,95624,38.4499032,-121.3746484
8485,Sun Berry Court,95624,38.4498870,-121.3743274
8487,Sun Berry Court,95624,38.4495826,-121.3742713
8847,Silverberry Avenue,95624,38.4493165,-121.3745603
8851,Silverberry Avenue,95624,38.4493181,-121.3743644
8855,Silverberry Avenue,95624,38.4493197,-121.3741717
8859,Silverberry Avenue,95624,38.4493213,-121.3739809
8863,Silverberry Avenue,95624,38.4493211,-121.3737902
8867,Silverberry Avenue,95624,38.4493209,-121.3735976
8871,Silverberry Avenue,95624,38.4493215,-121.3733999
8898,Apricot Tree Court,95624,38.4471239,-121.3721280
8894,Apricot Tree Court,95624,38.4469632,-121.3721226
8890,Apricot Tree Court,95624,38.4468537,-121.3722129
8886,Apricot Tree Court,95624,38.4468765,-121.3724654
8882,Apricot Tree Court,95624,38.4469037,-121.3726328
8878,Apricot Tree Court,95624,38.4469055,-121.3727900
8874,Apricot Tree Court,95624,38.4469048,-121.3729578
8875,Cherry Plum Court,95624,38.4466188,-121.3729527
8879,Cherry Plum Court,95624,38.4466192,-121.3727751
8883,Cherry Plum Court,95624,38.4466161,-121.3726075
8887,Cherry Plum Court,95624,38.4466134,-121.3724382
8891,Cherry Plum Court,95624,38.4466226,-121.3722480
8895,Cherry Plum Court,95624,38.4466536,-121.3720383
8894,Cherry Plum Court,95624,38.4461865,-121.3720349
8890,Cherry Plum Court,95624,38.4462238,-121.3722446
8886,Cherry Plum Court,95624,38.4462337,-121.3724350
8882,Cherry Plum Court,95624,38.4462260,-121.3726044
8878,Cherry Plum Court,95624,38.4462213,-121.3727719
8874,Cherry Plum Court,95624,38.4462209,-121.3729497
8875,Apple Pear Court,95624,38.4459397,-121.3729573
8879,Apple Pear Court,95624,38.4459400,-121.3727850
8883,Apple Pear Court,95624,38.4459438,-121.3726278
8887,Apple Pear Court,95624,38.4459661,-121.3724709
8891,Apple Pear Court,95624,38.4459937,-121.3722377
8895,Apple Pear Court,95624,38.4459122,-121.3721101
8899,Apple Pear Court,95624,38.4457239,-121.3720894
8896,Apple Pear Court,95624,38.4455443,-121.3720920
8892,Apple Pear Court,95624,38.4454932,-121.3722937
8888,Apple Pear Court,95624,38.4455341,-121.3725079
8884,Apple Pear Court,95624,38.4455400,-121.3726650
8880,Apple Pear Court,95624,38.4455397,-121.3728221
8876,Apple Pear Court,95624,38.4455394,-121.3729889
8596,Harvest House Way,95624,38.4454236,-121.3733811
8592,Harvest House Way,95624,38.4455645,-121.3733825
8588,Harvest House Way,95624,38.4456923,-121.3733853
8584,Harvest House Way,95624,38.4458186,-121.3733714
8580,Harvest House Way,95624,38.4459449,-121.3733562
8576,Harvest House Way,95624,38.4460712,-121.3733526
8572,Harvest House Way,95624,38.4461975,-121.3733531
8568,Harvest House Way,95624,38.4463238,-121.3733537
8564,Harvest House Way,95624,38.4464502,-121.3733542
8560,Harvest House Way,95624,38.4465765,-121.3733547
8556,Harvest House Way,95624,38.4467028,-121.3733552
8552,Harvest House Way,95624,38.4468291,-121.3733557
8548,Harvest House Way,95624,38.4469681,-121.3733563
8880,Apricot Woods Way,95624,38.4469704,-121.3737055
8876,Apricot Woods Way,95624,38.4468365,-121.3737055
8872,Apricot Woods Way,95624,38.4467129,-121.3737050
8868,Apricot Woods Way,95624,38.4465893,-121.3737044
8864,Apricot Woods Way,95624,38.4464658,-121.3737038
8860,Apricot Woods Way,95624,38.4463422,-121.3737032
8856,Apricot Woods Way,95624,38.4462186,-121.3737027
8852,Apricot Woods Way,95624,38.4460952,-121.3737013
8848,Apricot Woods Way,95624,38.4459554,-121.3736975
8844,Apricot Woods Way,95624,38.4457695,-121.3737441
8840,Apricot Woods Way,95624,38.4457349,-121.3739055
8836,Apricot Woods Way,95624,38.4457563,-121.3741334
8681,Aviary Woods Way,95624,38.4421201,-121.3746611
8677,Aviary Woods Way,95624,38.4422856,-121.3746692
8673,Aviary Woods Way,95624,38.4424405,-121.3746768
8669,Aviary Woods Way,95624,38.4425993,-121.3746903
8665,Aviary Woods Way,95624,38.4427590,-121.3747127
8661,Aviary Woods Way,95624,38.4429170,-121.3747463
8657,Aviary Woods Way,95624,38.4430739,-121.3747907
8653,Aviary Woods Way,95624,38.4432223,-121.3748421
8649,Aviary Woods Way,95624,38.4433672,-121.3748967
8645,Aviary Woods Way,95624,38.4435116,-121.3749492
8641,Aviary Woods Way,95624,38.4436831,-121.3749903
8831,Ibis Way,95624,38.4440045,-121.3751150
8625,Aviary Woods Way,95624,38.4442287,-121.3750890
8621,Aviary Woods Way,95624,38.4443812,-121.3750965
8835,Ibis Way,95624,38.4440314,-121.3748975
8617,Aviary Woods Way,95624,38.4445322,-121.3750940
8613,Aviary Woods Way,95624,38.4446832,-121.3750914
8609,Aviary Woods Way,95624,38.4448402,-121.3750372
8630,Black Kite Drive,95624,38.4450508,-121.3751667
8634,Black Kite Drive,95624,38.4450513,-121.3749972
8638,Black Kite Drive,95624,38.4450519,-121.3748349
8642,Black Kite Drive,95624,38.4450524,-121.3746725
8646,Black Kite Drive,95624,38.4450530,-121.3745102
8650,Black Kite Drive,95624,38.4450535,-121.3743478
8654,Black Kite Drive,95624,38.4450540,-121.3741855
8658,Black Kite Drive,95624,38.4450546,-121.3740231
8662,Black Kite Drive,95624,38.4450552,-121.3738608
8666,Black Kite Drive,95624,38.4450556,-121.3736984
8670,Black Kite Drive,95624,38.4450559,-121.3735360
8674,Black Kite Drive,95624,38.4450563,-121.3733737
8678,Black Kite Drive,95624,38.4450567,-121.3732113
8682,Black Kite Drive,95624,38.4450571,-121.3730490
8686,Black Kite Drive,95624,38.4450574,-121.3728866
8690,Black Kite Drive,95624,38.4450578,-121.3727243
8694,Black Kite Drive,95624,38.4450559,-121.3725442
8624,Spring House Way,95624,38.4447841,-121.3725532
8628,Spring House Way,95624,38.4447836,-121.3727580
8632,Spring House Way,95624,38.4447831,-121.3729500
8601,Spring House Way,95624,38.4451021,-121.3721159
8605,Spring House Way,95624,38.4449402,-121.3721148
8609,Spring House Way,95624,38.4447891,-121.3721144
8613,Spring House Way,95624,38.4446216,-121.3720973
8617,Spring House Way,95624,38.4444049,-121.3721385
8621,Spring House Way,95624,38.4443528,-121.3723003
8625,Spring House Way,95624,38.4443915,-121.3725650
8533,Black Kite Drive,95624,38.4476820,-121.3773343
8527,Black Kite Drive,95624,38.4478489,-121.3773668
8780,Loganberry Place,95624,38.4480509,-121.3775378
8784,Loganberry Place,95624,38.4480680,-121.3773062
8788,Loganberry Place,95624,38.4481504,-121.3771430
8793,Loganberry Place,95624,38.4483866,-121.3771334
8789,Loganberry Place,95624,38.4485775,-121.3771974
8785,Loganberry Place,95624,38.4485240,-121.3775230
8781,Loganberry Place,95624,38.4484594,-121.3777178
8505,Black Kite Drive,95624,38.4487039,-121.3777263
8501,Black Kite Drive,95624,38.4488830,-121.3777596
8786,Silverberry Avenue,95624,38.4488238,-121.3774521
8790,Silverberry Avenue,95624,38.4488340,-121.3772513
8794,Silverberry Avenue,95624,38.4488250,-121.3770589
8832,Apricot Woods Way,95624,38.4457570,-121.3742970
8828,Apricot Woods Way,95624,38.4457566,-121.3744541
8824,Apricot Woods Way,95624,38.4457562,-121.3746113
8820,Apricot Woods Way,95624,38.4457558,-121.3747684
8816,Apricot Woods Way,95624,38.4457555,-121.3749255
8812,Apricot Woods Way,95624,38.4457551,-121.3750826
8669,Black Kite Drive,95624,38.4455077,-121.3736250
8665,Black Kite Drive,95624,38.4454896,-121.3737837
8661,Black Kite Drive,95624,38.4454834,-121.3739435
8657,Black Kite Drive,95624,38.4454830,-121.3741059
8653,Black Kite Drive,95624,38.4454826,-121.3742656
8649,Black Kite Drive,95624,38.4454822,-121.3744227
8645,Black Kite Drive,95624,38.4454818,-121.3745798
8641,Black Kite Drive,95624,38.4454814,-121.3747370
8637,Black Kite Drive,95624,38.4454810,-121.3748941
8633,Black Kite Drive,95624,38.4454807,-121.3750512
8629,Black Kite Drive,95624,38.4454803,-121.3752101
8625,Black Kite Drive,95624,38.4454824,-121.3753846
8621,Black Kite Drive,95624,38.4454992,-121.3755543
8617,Black Kite Drive,95624,38.4455288,-121.3757190
8613,Black Kite Drive,95624,38.4455661,-121.3758810
8609,Black Kite Drive,95624,38.4456106,-121.3760316
8605,Black Kite Drive,95624,38.4456880,-121.3761719
8601,Black Kite Drive,95624,38.4457782,-121.3763022
8599,Black Kite Drive,95624,38.4458811,-121.3764246
8595,Black Kite Drive,95624,38.4459903,-121.3765252
8808,Apricot Woods Way,95624,38.4457547,-121.3752423
8804,Apricot Woods Way,95624,38.4457601,-121.3754211
8800,Apricot Woods Way,95624,38.4457877,-121.3755917
8796,Apricot Woods Way,95624,38.4458215,-121.3757541
8792,Apricot Woods Way,95624,38.4458691,-121.3759065
8788,Apricot Woods Way,95624,38.4459559,-121.3760455
8784,Apricot Woods Way,95624,38.4460647,-121.3761691
8591,Black Kite Drive,95624,38.4461071,-121.3766098
8587,Black Kite Drive,95624,38.4462218,-121.3766757
8583,Black Kite Drive,95624,38.4463471,-121.3767288
8579,Black Kite Drive,95624,38.4464654,-121.3767815
8575,Black Kite Drive,95624,38.4465819,-121.3768323
8571,Black Kite Drive,95624,38.4466987,-121.3768843
8780,Apricot Woods Way,95624,38.4461800,-121.3762675
8776,Apricot Woods Way,95624,38.4463053,-121.3763446
8772,Apricot Woods Way,95624,38.4464394,-121.3764058
8768,Apricot Woods Way,95624,38.4465753,-121.3764501
8764,Apricot Woods Way,95624,38.4467036,-121.3764789
8750,Apricot Woods Way,95624,38.4469019,-121.3763232
8746,Apricot Woods Way,95624,38.4469009,-121.3764968
8742,Apricot Woods Way,95624,38.4468998,-121.3766878
8567,Black Kite Drive,95624,38.4468154,-121.3769357
8563,Black Kite Drive,95624,38.4469515,-121.3769868
8809,Wild Plum Court,95624,38.4470341,-121.3760175
8813,Wild Plum Court,95624,38.4470352,-121.3757802
8817,Wild Plum Court,95624,38.4470283,-121.3756118
8821,Wild Plum Court,95624,38.4470230,-121.3753786
8540,Black Cherry Court,95624,38.4471115,-121.3751242
8544,Black Cherry Court,95624,38.4469844,-121.3751050
8548,Black Cherry Court,95624,38.4468582,-121.3750712
8552,Black Cherry Court,95624,38.4467291,-121.3750380
8556,Black Cherry Court,95624,38.4466027,-121.3750304
8560,Black Cherry Court,95624,38.4464764,-121.3750298
8564,Black Cherry Court,95624,38.4463447,-121.3750291
8820,Wild Plum Court,95624,38.4465585,-121.3752766
8816,Wild Plum Court,95624,38.4465145,-121.3754404
8812,Wild Plum Court,95624,38.4466012,-121.3756284
8765,Apricot Woods Way,95624,38.4467184,-121.3759126
8771,Apricot Woods Way,95624,38.4465813,-121.3758951
8779,Apricot Woods Way,95624,38.4464213,-121.3758711
8787,Apricot Woods Way,95624,38.4462931,-121.3757540
8793,Apricot Woods Way,95624,38.4461881,-121.3756209
8801,Apricot Woods Way,95624,38.4461570,-121.3754708
8807,Apricot Woods Way,95624,38.4461654,-121.3752805
8813,Apricot Woods Way,95624,38.4461384,-121.3751101
8817,Apricot Woods Way,95624,38.4461388,-121.3749452
8573,Black Cherry Court,95624,38.4460784,-121.3745488
8569,Black Cherry Court,95624,38.4462176,-121.3745496
8565,Black Cherry Court,95624,38.4463453,-121.3745503
8561,Black Cherry Court,95624,38.4464730,-121.3745510
8853,Apricot Woods Way,95624,38.4460789,-121.3742005
8857,Apricot Woods Way,95624,38.4462183,-121.3742011
8861,Apricot Woods Way,95624,38.4463460,-121.3742017
8865,Apricot Woods Way,95624,38.4464736,-121.3742023
8869,Apricot Woods Way,95624,38.4466013,-121.3742029
8873,Apricot Woods Way,95624,38.4467290,-121.3742035
8877,Apricot Woods Way,95624,38.4468567,-121.3742041
8881,Apricot Woods Way,95624,38.4469870,-121.3741971
8885,Apricot Woods Way,95624,38.4471156,-121.3741334
8541,Black Cherry Court,95624,38.4471140,-121.3746128
8545,Black Cherry Court,95624,38.4469837,-121.3745537
8549,Black Cherry Court,95624,38.4468560,-121.3745530
8553,Black Cherry Court,95624,38.4467283,-121.3745523
8557,Black Cherry Court,95624,38.4466006,-121.3745516
8620,Black Kite Drive,95624,38.4450369,-121.3760350
8790,Owlet Court,95624,38.4454601,-121.3765384
8786,Owlet Court,95624,38.4453430,-121.3766344
8782,Owlet Court,95624,38.4451578,-121.3767309
8778,Owlet Court,95624,38.4451945,-121.3771142
8781,Owlet Court,95624,38.4456082,-121.3771970
8785,Owlet Court,95624,38.4456746,-121.3770250
8789,Owlet Court,95624,38.4457788,-121.3769028
8594,Black Kite Drive,95624,38.4458681,-121.3771499
8590,Black Kite Drive,95624,38.4460072,-121.3771910
8586,Black Kite Drive,95624,38.4461255,-121.3772504
8582,Black Kite Drive,95624,38.4462463,-121.3772997
8578,Black Kite Drive,95624,38.4463628,-121.3773511
8574,Black Kite Drive,95624,38.4464800,-121.3774029
8570,Black Kite Drive,95624,38.4465973,-121.3774546
8566,Black Kite Drive,95624,38.4467137,-121.3775060
8562,Black Kite Drive,95624,38.4468328,-121.3775579
8558,Black Kite Drive,95624,38.4469457,-121.3776133
8554,Black Kite Drive,95624,38.4470810,-121.3776801
8500,Hollyberry Way,95624,38.4488909,-121.3767938
8504,Hollyberry Way,95624,38.4487315,-121.3767922
8508,Hollyberry Way,95624,38.4485805,-121.3767907
8512,Hollyberry Way,95624,38.4484295,-121.3767891
8516,Foxberry Court,95624,38.4482785,-121.3767876
8520,Foxberry Court,95624,38.4481274,-121.3767860
8524,Foxberry Court,95624,38.4479758,-121.3768653
8528,Foxberry Court,95624,38.4478228,-121.3768879
8532,Foxberry Court,95624,38.4476717,-121.3769460
8533,Foxberry Court,95624,38.4476860,-121.3763710
8529,Foxberry Court,95624,38.4478371,-121.3763542
8525,Foxberry Court,95624,38.4479906,-121.3762974
8800,Coral Berry Way,95624,38.4481964,-121.3763514
8804,Coral Berry Way,95624,38.4481972,-121.3761198
8808,Coral Berry Way,95624,38.4481981,-121.3758974
8524,Blueberry Court,95624,38.4479910,-121.3759486
8528,Blueberry Court,95624,38.4478375,-121.3759841
8532,Blueberry Court,95624,38.4476864,-121.3760137
8533,Blueberry Court,95624,38.4476658,-121.3754686
8529,Blueberry Court,95624,38.4478306,-121.3754561
8525,Blueberry Court,95624,38.4479815,-121.3754582
8816,Coral Berry Way,95624,38.4481954,-121.3755128
8820,Coral Berry Way,95624,38.4481979,-121.3752806
8824,Coral Berry Way,95624,38.4482023,-121.3750577
8567,Blackberry Way,95624,38.4479819,-121.3751074
8563,Blackberry Way,95624,38.4478309,-121.3751066
8559,Blackberry Way,95624,38.4476680,-121.3750986
8564,Blackberry Way,95624,38.4478332,-121.3746221
8568,Blackberry Way,95624,38.4480003,-121.3746241
8572,Blackberry Way,95624,38.4481568,-121.3746259
8576,Blackberry Way,95624,38.4483141,-121.3746277
8580,Blackberry Way,95624,38.4484731,-121.3746296
8584,Blackberry Way,95624,38.4486296,-121.3746314
8588,Blackberry Way,95624,38.4487861,-121.3746332
8592,Blackberry Way,95624,38.4489523,-121.3746352
8500,Blackberry Way,95624,38.4489528,-121.3742862
8504,Blackberry Way,95624,38.4487857,-121.3742841
8508,Blackberry Way,95624,38.4486292,-121.3742822
8512,Blackberry Way,95624,38.4484727,-121.3742802
8516,Blackberry Way,95624,38.4483154,-121.3742783
8520,Blackberry Way,95624,38.4481598,-121.3742764
8524,Blackberry Way,95624,38.4480033,-121.3742745
8528,Blackberry Way,95624,38.4478351,-121.3742724
8533,Blackberry Way,95624,38.4476758,-121.3737801
8529,Blackberry Way,95624,38.4478360,-121.3737846
8525,Blackberry Way,95624,38.4479867,-121.3737876
8521,Blackberry Way,95624,38.4481378,-121.3737897
8517,Blackberry Way,95624,38.4482989,-121.3737920
8561,Dewberry Way,95624,38.4483014,-121.3734433
8557,Dewberry Way,95624,38.4481415,-121.3734414
8549,Dewberry Way,95624,38.4478394,-121.3734381
8545,Dewberry Way,95624,38.4476798,-121.3734166
8553,Dewberry Way,95624,38.4479905,-121.3734395
8548,Dewberry Way,95624,38.4478307,-121.3729495
8552,Dewberry Way,95624,38.4479913,-121.3729515
8556,Dewberry Way,95624,38.4481423,-121.3729533
8560,Dewberry Way,95624,38.4482933,-121.3729546
8512,Dewberry Way,95624,38.4482969,-121.3726062
8516,Dewberry Way,95624,38.4481461,-121.3726041
8520,Dewberry Way,95624,38.4479950,-121.3726020
8524,Dewberry Way,95624,38.4478332,-121.3725997
8529,Dewberry Way,95624,38.4477106,-121.3721041
8525,Dewberry Way,95624,38.4478727,-121.3721110
8521,Dewberry Way,95624,38.4480235,-121.3721123
8517,Dewberry Way,95624,38.4481746,-121.3721136
8513,Dewberry Way,95624,38.4483256,-121.3721149
8509,Dewberry Way,95624,38.4484766,-121.3721162
8505,Dewberry Way,95624,38.4486292,-121.3721175
8501,Dewberry Way,95624,38.4488156,-121.3721136
8888,Silverberry Avenue,95624,38.4487034,-121.3727996
8568,Dewberry Way,95624,38.4486499,-121.3732687
8572,Dewberry Way,95624,38.4486352,-121.3734659
8576,Dewberry Way,95624,38.4486343,-121.3736580
8580,Dewberry Way,95624,38.4486333,-121.3738603
8862,Silverberry Avenue,95624,38.4489077,-121.3738620
8866,Silverberry Avenue,95624,38.4489086,-121.3736595
8870,Silverberry Avenue,95624,38.4489095,-121.3734675
8874,Silverberry Avenue,95624,38.4489103,-121.3732754
8825,Coral Berry Way,95624,38.4486051,-121.3750487
8821,Coral Berry Way,95624,38.4485926,-121.3752495
8817,Coral Berry Way,95624,38.4485813,-121.3754414
8813,Coral Berry Way,95624,38.4485761,-121.3756335
8809,Coral Berry Way,95624,38.4485752,-121.3758256
8805,Coral Berry Way,95624,38.4485742,-121.3760220
8509,Hollyberry Way,95624,38.4485338,-121.3763016
8505,Hollyberry Way,95624,38.4487123,-121.3763029
8501,Hollyberry Way,95624,38.4488873,-121.3763042
8816,Silverberry Avenue,95624,38.4488446,-121.3760236
8820,Silverberry Avenue,95624,38.4488456,-121.3758272
8824,Silverberry Avenue,95624,38.4488465,-121.3756351
8828,Silverberry Avenue,95624,38.4488542,-121.3754432
8832,Silverberry Avenue,95624,38.4488724,-121.3752512
8836,Silverberry Avenue,95624,38.4488926,-121.3750505
8759,Winterfest Way,95624,38.4397115,-121.3721452
8755,Winterfest Way,95624,38.4398705,-121.3721499
8751,Winterfest Way,95624,38.4400132,-121.3721542
8747,Winterfest Way,95624,38.4401727,-121.3721571
8743,Winterfest Way,95624,38.4403439,-121.3721501
8739,Winterfest Way,95624,38.4405086,-121.3721497
8735,Winterfest Way,95624,38.4406733,-121.3721546
8731,Winterfest Way,95624,38.4408380,-121.3721595
8727,Winterfest Way,95624,38.4410028,-121.3721644
8723,Winterfest Way,95624,38.4411565,-121.3721689
8719,Winterfest Way,95624,38.4412993,-121.3721724
8715,Winterfest Way,95624,38.4414422,-121.3721561
8711,Winterfest Way,95624,38.4415859,-121.3721242
8707,Winterfest Way,95624,38.4418111,-121.3721099
8698,Winterfest Way,95624,38.4418711,-121.3725774
8702,Winterfest Way,95624,38.4417114,-121.3725891
8706,Winterfest Way,95624,38.4415672,-121.3726465
8710,Winterfest Way,95624,38.4414228,-121.3727024
8714,Winterfest Way,95624,38.4412790,-121.3727230
8718,Winterfest Way,95624,38.4411361,-121.3727163
8722,Winterfest Way,95624,38.4409934,-121.3727094
8726,Winterfest Way,95624,38.4408507,-121.3727025
8730,Winterfest Way,95624,38.4407081,-121.3726956
8734,Winterfest Way,95624,38.4405654,-121.3726887
8738,Winterfest Way,95624,38.4404227,-121.3726818
8742,Winterfest Way,95624,38.4402800,-121.3726749
8746,Winterfest Way,95624,38.4401368,-121.3726680
8750,Winterfest Way,95624,38.4399944,-121.3726609
8754,Winterfest Way,95624,38.4398517,-121.3726535
8758,Winterfest Way,95624,38.4396920,-121.3726453
8759,Summer Sun Way,95624,38.4396812,-121.3730133
8755,Summer Sun Way,95624,38.4398399,-121.3730214
8751,Summer Sun Way,95624,38.4399825,-121.3730288
8747,Summer Sun Way,95624,38.4401257,-121.3730359
8743,Summer Sun Way,95624,38.4402696,-121.3730428
8739,Summer Sun Way,95624,38.4404123,-121.3730497
8735,Summer Sun Way,95624,38.4405549,-121.3730566
8731,Summer Sun Way,95624,38.4406976,-121.3730634
8727,Summer Sun Way,95624,38.4408403,-121.3730703
8723,Summer Sun Way,95624,38.4409830,-121.3730772
8719,Summer Sun Way,95624,38.4411257,-121.3730840
8715,Summer Sun Way,95624,38.4412684,-121.3730909
8711,Summer Sun Way,95624,38.4414114,-121.3730792
8707,Summer Sun Way,95624,38.4415554,-121.3730277
8703,Summer Sun Way,95624,38.4417001,-121.3729588
8699,Summer Sun Way,95624,38.4418611,-121.3729367
8698,Summer Sun Way,95624,38.4418360,-121.3735546
8702,Summer Sun Way,95624,38.4416732,-121.3735751
8706,Summer Sun Way,95624,38.4415294,-121.3736113
8710,Summer Sun Way,95624,38.4413857,-121.3736249
8714,Summer Sun Way,95624,38.4412426,-121.3736202
8718,Summer Sun Way,95624,38.4410999,-121.3736132
8722,Summer Sun Way,95624,38.4409573,-121.3736063
8726,Summer Sun Way,95624,38.4408146,-121.3735993
8730,Summer Sun Way,95624,38.4406719,-121.3735924
8734,Summer Sun Way,95624,38.4405292,-121.3735855
8738,Summer Sun Way,95624,38.4403865,-121.3735785
8742,Summer Sun Way,95624,38.4402438,-121.3735716
8746,Summer Sun Way,95624,38.4401006,-121.3735646
8750,Summer Sun Way,95624,38.4399581,-121.3735577
8855,Avalon Hills Way,95624,38.4397408,-121.3734517
8851,Avalon Hills Way,95624,38.4397520,-121.3736580
8769,Redwood Grove Way,95624,38.4396925,-121.3739249
8765,Redwood Grove Way,95624,38.4398358,-121.3739317
8761,Redwood Grove Way,95624,38.4399662,-121.3739379
8757,Redwood Grove Way,95624,38.4400896,-121.3739438
8753,Redwood Grove Way,95624,38.4402131,-121.3739496
8749,Redwood Grove Way,95624,38.4403366,-121.3739555
8745,Redwood Grove Way,95624,38.4404601,-121.3739614
8741,Redwood Grove Way,95624,38.4405836,-121.3739672
8737,Redwood Grove Way,95624,38.4407070,-121.3739731
8733,Redwood Grove Way,95624,38.4408305,-121.3739790
8729,Redwood Grove Way,95624,38.4409540,-121.3739848
8725,Redwood Grove Way,95624,38.4410843,-121.3739910
8721,Redwood Grove Way,95624,38.4412147,-121.3739972
8717,Redwood Grove Way,95624,38.4413382,-121.3740031
8711,Redwood Grove Way,95624,38.4415058,-121.3740009
8848,Four Seasons Drive,95624,38.4417632,-121.3739798
8838,Four Seasons Drive,95624,38.4417642,-121.3743213
8708,Redwood Grove Way,95624,38.4415625,-121.3744577
8712,Redwood Grove Way,95624,38.4414319,-121.3744960
8716,Redwood Grove Way,95624,38.4413078,-121.3744915
8720,Redwood Grove Way,95624,38.4411840,-121.3744857
8724,Redwood Grove Way,95624,38.4410605,-121.3744798
8728,Redwood Grove Way,95624,38.4409370,-121.3744740
8736,Redwood Grove Way,95624,38.4406901,-121.3744624
8732,Redwood Grove Way,95624,38.4408135,-121.3744682
8740,Redwood Grove Way,95624,38.4405666,-121.3744565
8748,Redwood Grove Way,95624,38.4403196,-121.3744449
8744,Redwood Grove Way,95624,38.4404431,-121.3744507
8752,Redwood Grove Way,95624,38.4401961,-121.3744391
8756,Redwood Grove Way,95624,38.4400727,-121.3744332
8875,Silverberry Avenue,95624,38.4493214,-121.3731983
8879,Silverberry Avenue,95624,38.4493213,-121.3730019
8883,Silverberry Avenue,95624,38.4493192,-121.3728097
8484,Elk Grove Florin Road,95624,38.4496704,-121.3729169
8490,Elk Grove Florin Road,95624,38.4497285,-121.3729113
8887,Silverberry Avenue,95624,38.4493098,-121.3726173
8891,Silverberry Avenue,95624,38.4492924,-121.3724248
8895,Silverberry Avenue,95624,38.4492673,-121.3722323
8899,Silverberry Avenue,95624,38.4492481,-121.3720409
8480,Elk Grove Florin Road,95624,38.4500610,-121.3730177
8430,Elk Grove Florin Road,95624,38.4506406,-121.3721968
8827,Boysenberry Way,95624,38.4505810,-121.3749318
8823,Boysenberry Way,95624,38.4505798,-121.3751495
8819,Boysenberry Way,95624,38.4505787,-121.3753550
8815,Boysenberry Way,95624,38.4505776,-121.3755556
8811,Boysenberry Way,95624,38.4505765,-121.3757564
8807,Boysenberry Way,95624,38.4505753,-121.3759572
8803,Boysenberry Way,95624,38.4505742,-121.3761579
8799,Boysenberry Way,95624,38.4505731,-121.3763587
8795,Boysenberry Way,95624,38.4505720,-121.3765595
8791,Boysenberry Way,95624,38.4505709,-121.3767603
8787,Boysenberry Way,95624,38.4505698,-121.3769610
8783,Boysenberry Way,95624,38.4505687,-121.3771618
8779,Boysenberry Way,95624,38.4505675,-121.3773628
8775,Boysenberry Way,95624,38.4505651,-121.3775883
8765,Sequoia Wood Court,95624,38.4389302,-121.3738831
8761,Sequoia Wood Court,95624,38.4390542,-121.3738910
8757,Sequoia Wood Court,95624,38.4391777,-121.3738973
8749,Sequoia Wood Court,95624,38.4394356,-121.3739105
8753,Sequoia Wood Court,95624,38.4393025,-121.3739037
8764,Summer Sun Court,95624,38.4393985,-121.3735419
8768,Summer Sun Court,95624,38.4392280,-121.3735453
8772,Summer Sun Court,95624,38.4390788,-121.3735260
8773,Summer Sun Court,95624,38.4390993,-121.3729831
8769,Summer Sun Court,95624,38.4392477,-121.3729855
8765,Summer Sun Court,95624,38.4393997,-121.3729976
8829,Sheldon Road,95624,38.4388748,-121.3729607
8821,Sheldon Road,95624,38.4387771,-121.3735351
8821,Sheldon Road,95624,38.4387824,-121.3734360
8829,Sheldon Road,95624,38.4387757,-121.3731965
8829,Sheldon Road,95624,38.4387731,-121.3731093
8829,Sheldon Road,95624,38.4387772,-121.3730145
8829,Sheldon Road,95624,38.4387837,-121.3729224
8829,Sheldon Road,95624,38.4387871,-121.3728425
8829,Sheldon Road,95624,38.4387874,-121.3727573
8829,Sheldon Road,95624,38.4387872,-121.3726762
8835,Sheldon Road,95624,38.4389639,-121.3721826
8835,Sheldon Road,95624,38.4388104,-121.3723587
8835,Sheldon Road,95624,38.4388201,-121.3722053
8835,Sheldon Road,95624,38.4388260,-121.3720930
8835,Sheldon Road,95624,38.4388254,-121.3719806
8774,Winter Sun Court,95624,38.4391195,-121.3725532
8770,Winter Sun Court,95624,38.4392602,-121.3726146
8766,Winter Sun Court,95624,38.4394112,-121.3726244
8769,Winter Sun Court,95624,38.4393455,-121.3721132
8773,Winter Sun Court,95624,38.4391343,-121.3721412
8760,Redwood Grove Way,95624,38.4399492,-121.3744274
8764,Redwood Grove Way,95624,38.4398184,-121.3744279
8768,Redwood Grove Way,95624,38.4396740,-121.3744364
8759,Aviary Woods Way,95624,38.4396644,-121.3748206
8755,Aviary Woods Way,95624,38.4398080,-121.3747916
8751,Aviary Woods Way,95624,38.4399390,-121.3747769
8747,Aviary Woods Way,95624,38.4400627,-121.3747822
8743,Aviary Woods Way,95624,38.4401862,-121.3747881
8739,Aviary Woods Way,95624,38.4403096,-121.3747940
8735,Aviary Woods Way,95624,38.4404331,-121.3747998
8731,Aviary Woods Way,95624,38.4405566,-121.3748057
8727,Aviary Woods Way,95624,38.4406801,-121.3748116
8723,Aviary Woods Way,95624,38.4408036,-121.3748175
8719,Aviary Woods Way,95624,38.4409270,-121.3748234
8715,Aviary Woods Way,95624,38.4410505,-121.3748293
8711,Aviary Woods Way,95624,38.4411740,-121.3748352
8707,Aviary Woods Way,95624,38.4412978,-121.3748411
8703,Aviary Woods Way,95624,38.4414217,-121.3748443
8699,Aviary Woods Way,95624,38.4415508,-121.3748229
8695,Aviary Woods Way,95624,38.4416797,-121.3747037
8691,Aviary Woods Way,95624,38.4418187,-121.3746697
8629,Spring House Way,95624,38.4443885,-121.3727570
8633,Spring House Way,95624,38.4443825,-121.3729490
8637,Spring House Way,95624,38.4443766,-121.3731410
8636,Spring House Way,95624,38.4447826,-121.3731420
8640,Spring House Way,95624,38.4447821,-121.3733341
8644,Spring House Way,95624,38.4447816,-121.3735261
8648,Spring House Way,95624,38.4447811,-121.3737181
8652,Spring House Way,95624,38.4447807,-121.3739102
8656,Spring House Way,95624,38.4447799,-121.3741037
8660,Spring House Way,95624,38.4447792,-121.3742966
8664,Spring House Way,95624,38.4448071,-121.3745383
8668,Spring House Way,95624,38.4447881,-121.3747037
8672,Spring House Way,95624,38.4445935,-121.3747417
8676,Spring House Way,95624,38.4444304,-121.3747450
8680,Spring House Way,95624,38.4442771,-121.3747365
8839,Ibis Way,95624,38.4440612,-121.3746777
8692,Spring House Way,95624,38.4437216,-121.3746504
8696,Spring House Way,95624,38.4435511,-121.3746003
8700,Spring House Way,95624,38.4434031,-121.3745459
8704,Spring House Way,95624,38.4432536,-121.3744904
8708,Spring House Way,95624,38.4430996,-121.3744390
8714,Spring House Way,95624,38.4429410,-121.3743966
8720,Spring House Way,95624,38.4427803,-121.3743619
8724,Spring House Way,95624,38.4426184,-121.3743392
8730,Spring House Way,95624,38.4424545,-121.3743234
8734,Spring House Way,95624,38.4422982,-121.3743149
8738,Spring House Way,95624,38.4421310,-121.3743059
8737,Spring House Way,95624,38.4421467,-121.3738103
8733,Spring House Way,95624,38.4423082,-121.3738188
8682,Summer Sun Way,95624,38.4421573,-121.3734525
8678,Summer Sun Way,95624,38.4423202,-121.3734613
8674,Summer Sun Way,95624,38.4424751,-121.3734699
8670,Summer Sun Way,95624,38.4426290,-121.3734823
8725,Spring House Way,95624,38.4426161,-121.3738390
8729,Spring House Way,95624,38.4424612,-121.3738269
8666,Summer Sun Way,95624,38.4427819,-121.3735045
8662,Summer Sun Way,95624,38.4429336,-121.3735334
8658,Summer Sun Way,95624,38.4430847,-121.3735709
8654,Summer Sun Way,95624,38.4432340,-121.3736139
8709,Spring House Way,95624,38.4432300,-121.3739737
8713,Spring House Way,95624,38.4430764,-121.3739284
8717,Spring House Way,95624,38.4429228,-121.3738901
8721,Spring House Way,95624,38.4427696,-121.3738605
8650,Summer Sun Way,95624,38.4433811,-121.3736645
8646,Summer Sun Way,95624,38.4435254,-121.3737182
8642,Summer Sun Way,95624,38.4436701,-121.3737722
8638,Summer Sun Way,95624,38.4438152,-121.3738232
8634,Summer Sun Way,95624,38.4439685,-121.3738625
8687,Spring House Way,95624,38.4439686,-121.3742159
8691,Spring House Way,95624,38.4438154,-121.3741808
8695,Spring House Way,95624,38.4436664,-121.3741328
8701,Spring House Way,95624,38.4435225,-121.3740796
8705,Spring House Way,95624,38.4433779,-121.3740257
8630,Summer Sun Way,95624,38.4441236,-121.3738889
8626,Summer Sun Way,95624,38.4442800,-121.3739009
8622,Summer Sun Way,95624,38.4444472,-121.3739038
8675,Spring House Way,95624,38.4444460,-121.3742534
8679,Spring House Way,95624,38.4442788,-121.3742503
8683,Spring House Way,95624,38.4441233,-121.3742396
8623,Summer Sun Way,95624,38.4444465,-121.3734119
8627,Summer Sun Way,95624,38.4442753,-121.3734100
8631,Summer Sun Way,95624,38.4441243,-121.3733909
8637,Summer Sun Way,95624,38.4439548,-121.3733586
8875,Autumn Gold Court,95624,38.4440665,-121.3731095
8879,Autumn Gold Court,95624,38.4440856,-121.3729194
8883,Autumn Gold Court,95624,38.4440994,-121.3727175
8887,Autumn Gold Court,95624,38.4441028,-121.3725150
8891,Autumn Gold Court,95624,38.4441404,-121.3722362
8895,Autumn Gold Court,95624,38.4440710,-121.3721062
8898,Autumn Gold Court,95624,38.4438749,-121.3720752
8894,Autumn Gold Court,95624,38.4436761,-121.3721075
8890,Autumn Gold Court,95624,38.4436208,-121.3722486
8886,Autumn Gold Court,95624,38.4436768,-121.3725164
8882,Autumn Gold Court,95624,38.4436893,-121.3727215
8878,Autumn Gold Court,95624,38.4436852,-121.3729196
8874,Autumn Gold Court,95624,38.4436554,-121.3731173
8870,Autumn Gold Court,95624,38.4436146,-121.3733009
8651,Summer Sun Way,95624,38.4434320,-121.3730732
8655,Summer Sun Way,95624,38.4432689,-121.3730722
8659,Summer Sun Way,95624,38.4431173,-121.3730643
8663,Summer Sun Way,95624,38.4429632,-121.3730292
8667,Summer Sun Way,95624,38.4428082,-121.3730022
8671,Summer Sun Way,95624,38.4426501,-121.3729866
8675,Summer Sun Way,95624,38.4424880,-121.3729745
8679,Summer Sun Way,95624,38.4423371,-121.3729661
8683,Summer Sun Way,95624,38.4421752,-121.3729573
8682,Winterfest Court,95624,38.4421858,-121.3725985
8678,Winterfest Court,95624,38.4423490,-121.3726075
8674,Winterfest Court,95624,38.4424999,-121.3726158
8670,Winterfest Court,95624,38.4426508,-121.3726241
8666,Winterfest Court,95624,38.4428017,-121.3726324
8662,Winterfest Court,95624,38.4429525,-121.3726479
8658,Winterfest Court,95624,38.4430998,-121.3726836
8654,Winterfest Court,95624,38.4433004,-121.3726937
8650,Winterfest Court,95624,38.4434221,-121.3725989
8651,Winterfest Court,95624,38.4434216,-121.3722337
8655,Winterfest Court,95624,38.4433250,-121.3721164
8659,Winterfest Court,95624,38.4431160,-121.3721157
8663,Winterfest Court,95624,38.4429678,-121.3721173
8667,Winterfest Court,95624,38.4428168,-121.3721126
8671,Winterfest Court,95624,38.4426658,-121.3721079
8675,Winterfest Court,95624,38.4425148,-121.3721031
8679,Winterfest Court,95624,38.4423638,-121.3720984
8683,Winterfest Court,95624,38.4422028,-121.3720934
9257,Laguna Springs Drive,95758,38.4218323,-121.3985859
9257,Laguna Springs Drive,95758,38.4217781,-121.3984658
9257,Laguna Springs Drive,95758,38.4217304,-121.3983751
9109,Laguna Main Street,95758,38.4266488,-121.4697570
9024,Franklin Boulevard,95758,38.4293129,-121.4474655
9101,Laguna Main Street,95758,38.4290329,-121.4711000
9385,Elk Grove Boulevard,95624,38.4093606,-121.3522023
9385,Elk Grove Boulevard,95624,38.4093642,-121.3523394
8455,Elk Grove Boulevard,95758,38.4101035,-121.3917949
9160 #130,East Stockton Boulevard,95624,38.4246754,-121.3918648
10461,Grant Line Road,95624,38.3777039,-121.3590333
10471,Grant Line Road,95624,38.3769741,-121.3595994
10481,Grant Line Road,95624,38.3765506,-121.3590703
10651,East Stockton Boulevard,95624,38.3686990,-121.3524401
9183,Survey Road,95624,38.3758402,-121.3586781
10491,East Stockton Boulevard,95624,38.3793508,-121.3586306
9850,Fire Poppy Drive,95757,38.4003122,-121.4418863
9760,Fire Poppy Drive,95757,38.4019785,-121.4418034
9595,Franklin Boulevard,95758,38.4125043,-121.4413557
3433,Laguna Boulevard,95758,38.4283961,-121.4642093
8565,Shasta Lily Drive,95624,38.4433338,-121.3854323
9461,Soaring Oaks Drive,95758,38.4159413,-121.4119233
9433,Trenholm Drive,95758,38.4166522,-121.4100393
8469,Elk Grove Boulevard,95758,38.4107561,-121.3912509
8710,Elk Grove Boulevard,95624,38.4085346,-121.3803527
8722,Elk Grove Boulevard,95624,38.4085937,-121.3798116
8750,Elk Grove Boulevard,95624,38.4086128,-121.3792070
8788,Elk Grove Boulevard,95624,38.4086027,-121.3767856
9660,East Stockton Boulevard,95624,38.4077694,-121.3857295
10421,Grant Line Road,95624,38.3783205,-121.3575830
10421,Grant Line Road,95624,38.3785140,-121.3578427
10421,Grant Line Road,95624,38.3784661,-121.3574266
10481,East Stockton Boulevard,95624,38.3798817,-121.3595506
9255,Disposal Lane,95624,38.3788332,-121.3563737
10268,Waterman Road,95624,38.3846431,-121.3543563
8580,Laguna Grove Drive,95757,38.4027563,-121.3894428
8586,Laguna Grove Drive,95757,38.4021070,-121.3876873
8590,Laguna Grove Drive,95757,38.4020831,-121.3854886
8585,Laguna Grove Drive,95757,38.4031872,-121.3865914
8575,Laguna Grove Drive,95757,38.4035172,-121.3880866
9776,West Stockton Boulevard,95757,38.4040701,-121.3866177
7700,Del Webb Boulevard,95757,38.3974284,-121.4136074
7410,Laguna Boulevard,95757,38.4231253,-121.4167153
7527,Laguna Boulevard,95758,38.4240095,-121.4146976
7519,Laguna Boulevard,95758,38.4240246,-121.4149934
7915,Laguna Boulevard,95758,38.4242445,-121.4122559
7505,Laguna Boulevard,95758,38.4267134,-121.4156260
4900,Elk Grove Boulevard,95758,38.4072917,-121.4484517
9160,West Stockton Boulevard,95758,38.4239625,-121.4022000
9150,West Stockton Boulevard,95758,38.4248294,-121.4023748
9170,West Stockton Boulevard,95758,38.4230228,-121.4020983
9198,West Stockton Boulevard,95758,38.4233053,-121.4005621
9195,West Stockton Boulevard,95758,38.4235736,-121.3996599
9175,West Stockton Boulevard,95758,38.4239799,-121.3987218
9155,West Stockton Boulevard,95758,38.4247311,-121.3983778
9145,West Stockton Boulevard,95758,38.4251170,-121.3983309
9141,West Stockton Boulevard,95758,38.4251577,-121.3998778
9139,West Stockton Boulevard,95758,38.4256507,-121.3995278
9135,West Stockton Boulevard,95758,38.4254838,-121.3983698
9131,West Stockton Boulevard,95758,38.4258622,-121.3979590
9105,West Stockton Boulevard,95758,38.4270635,-121.3980210
8282,Laguna Boulevard,95758,38.4222805,-121.4006872
8850,Southside Avenue,95624,38.4065251,-121.3737842
9615,Black Swan Drive,95624,38.4085009,-121.3480526
9580,Baypoint Way,95624,38.4107118,-121.3492601
9105,East Stockton Boulevard,95624,38.4268773,-121.3958956
9146,East Stockton Boulevard,95624,38.4246471,-121.3939875
9188,East Stockton Boulevard,95624,38.4241094,-121.3914858
9181,East Stockton Boulevard,95624-9509,38.4250495,-121.3904675
9241,Laguna Springs Drive,95758,38.4228407,-121.3977687
5021,Laguna Boulevard,95758,38.4242674,-121.4465539
5001,Laguna Boulevard,95758,38.4236004,-121.4474563
8450,Laguna Grove Drive,95757,38.4056298,-121.3925012
8480,Laguna Grove Drive,95757,38.4054634,-121.3911714
8581,Laguna Grove Drive,95757,38.4029693,-121.3874593
9640,West Stockton Boulevard,95757,38.4069643,-121.3894807
9650,Auto Center Drive,95757,38.4072278,-121.3907943
8588,Laguna Grove Drive,95757,38.4021165,-121.3863219
10075,Bruceville Road,95757,38.3913382,-121.4162933
10046,Bruceville Road,95757,38.3938327,-121.4195794
7700,Del Webb Boulevard,95757,38.3975136,-121.4135717
9590,Harbour Point Drive,95758,38.4093840,-121.4777395
8500,Elk Grove Boulevard,95758,38.4087045,-121.3898663
8500,Elk Grove Boulevard,95758,38.4085513,-121.3898408
9215,Elk Grove Florin Road,95624,38.4231491,-121.3710795
9215,Elk Grove Florin Road,95624,38.4229415,-121.3708962
9215,Elk Grove Florin Road,95624,38.4227804,-121.3710521
9179,Elk Grove Florin Road,95624,38.4238959,-121.3710665
9170,East Stockton Boulevard,95624,38.4248987,-121.3913900
9161,East Stockton Boulevard,95624,38.4256474,-121.3922805
9154,East Stockton,95624,38.4249844,-121.3924045
9700,Elk Grove Florin Road,95624,38.4055051,-121.3719217
9720,Elk Grove Florin Road,95624,38.4044861,-121.3720214
9716,Elk Grove Florin Road,95624,38.4048941,-121.3719354
8725,Elk Grove Boulevard,95624,38.4094101,-121.3797196
8707,Elk Grove Boulevard,95624,38.4093706,-121.3805068
2201,Longport Court,95758,38.4254526,-121.4840899
2305,Longport Court,95758,38.4267663,-121.4822114
9170,Klagge Court,95758,38.4248401,-121.4823318
9180,Franklin Boulevard,95758,38.4241908,-121.4485978
5000,Laguna Boulevard,95758,38.4228328,-121.4474953
5120,Laguna Boulevard,95758,38.4229092,-121.4448488
8637,Elk Grove Boulevard,95624,38.4094062,-121.3841781
8579,Elk Grove Boulevard,95624,38.4094980,-121.3858895
5111,Dorcey Drive,95757,38.3854688,-121.4395455
9586,Sea Cliff Way,95758,38.4114771,-121.4798315
8430,Bond Road,95624,38.4233779,-121.3930606
8471,Elk Grove Florin Road,95624,38.4498129,-121.3712412
8810,Calvine Road,95828,38.4513210,-121.3765895
8400,Elk Grove Florin Road,95624,38.4521983,-121.3729959
8430,Elk Grove Florin Road,95624,38.4506004,-121.3722091
8993,Bradshaw Road,95624,38.4333869,-121.3340879
3020,Renwick Avenue,95758,38.4250045,-121.4705177
9800,Denali Circle,95757,38.4010300,-121.4074394
9880,Denali Circle,95757,38.3995674,-121.4064803
8610,Elk Grove Boulevard,95624,38.4087002,-121.3849202
9565,Laguna Springs Drive,95758,38.4106783,-121.3947849
8466,Elk Grove Boulevard,95758,38.4117677,-121.3916320
8151,Civic Center Drive,95757,38.4062283,-121.4070622
9611,Auto Center Drive,95757,38.4086162,-121.3929859
9611,Auto Center Drive,95757,38.4083201,-121.3932747
9611,Auto Center Drive,95757,38.4082282,-121.3929102
9382,Cedarview Way,95758,38.4162257,-121.4656640
9080,Laguna Main Street,95758,38.4276182,-121.4707064
8841,Sheldon Road,95624,38.4383064,-121.3723194
8280,Geneva Pointe Drive,95624,38.4516274,-121.4008335
8280,Geneva Pointe Drive,95624,38.4523183,-121.4014027
8280,Geneva Pointe Drive,95624,38.4522355,-121.4005593
8280,Geneva Pointe Drive,95624,38.4518776,-121.4014531
8280,Geneva Pointe Drive,95624,38.4518994,-121.4010320
8280,Geneva Pointe Drive,95624,38.4519803,-121.3998341
8280,Geneva Pointe Drive,95624,38.4518315,-121.4004084
8280,Geneva Pointe Drive,95624,38.4515871,-121.4005713
8280,Geneva Pointe Drive,95624,38.4512244,-121.4003905
8280,Geneva Pointe Drive,95624,38.4511950,-121.3998279
8280,Geneva Pointe Drive,95624,38.4515541,-121.3998430
8401,Elk Grove Florin Road,95624,38.4521478,-121.3712545
8451,Elk Grove Florin Road,95624,38.4505745,-121.3712090
8160,Sheldon Road,95758,38.4359120,-121.4058428
8142,Sheldon Road,95758,38.4360284,-121.4067659
8140,Sheldon Road,95758,38.4376565,-121.4065861
8142,Sheldon Road,95758,38.4375834,-121.4059656
8361,Sheldon Road,95624,38.4384167,-121.3965908
8238,Laguna Boulevard,95758,38.4217084,-121.4014892
7400,Elk Grove Boulevard,95757-6299,38.4060828,-121.4138917
7400,Elk Grove Boulevard,95757,38.4077247,-121.4143431
7400,Elk Grove Boulevard,95757,38.4071065,-121.4148404
7299,Laguna Boulevard,95758,38.4242825,-121.4187012
7221,Laguna Boulevard,95758,38.4240394,-121.4194984
6704,Laguna Boulevard,95758,38.4230550,-121.4252219
9059,Bruceville Road,95758,38.4284904,-121.4172427
8871,East Stockton Boulevard,95624,38.4352945,-121.3980347
8440,Auto Passage Drive,95757,38.4030569,-121.3929787
8960,Calvine Road,95829,38.4522688,-121.3685709
10054,Bruceville Road,95757,38.3935047,-121.4186579
10057,Bruceville Road,95757,38.3935094,-121.4160904
9941,East Stockton Boulevard,95624,38.3968144,-121.3798999
8986,Elk Grove Boulevard,95624,38.4087496,-121.3675876
8996,Elk Grove Boulevard,95624,38.4086946,-121.3673180
9961,Elk Grove Florin Road,95624,38.3957796,-121.3709188
10305,Promenade Parkway,95757,38.3845506,-121.3713364
8861,Solo Way,95757,38.3810572,-121.3760192
8859,Solo Way,95757,38.3810232,-121.3761334
8857,Solo Way,95757,38.3808880,-121.3760809
8855,Solo Way,95757,38.3808039,-121.3760810
8869,Solo Way,95757,38.3808050,-121.3758222
8865,Solo Way,95757,38.3810242,-121.3757704
8863,Solo Way,95757,38.3810579,-121.3758853
8867,Solo Way,95757,38.3808887,-121.3758220
8854,Solo Way,95757,38.3805519,-121.3760768
8856,Solo Way,95757,38.3804679,-121.3760769
8858,Solo Way,95757,38.3803252,-121.3761240
8860,Solo Way,95757,38.3802970,-121.3760107
8862,Solo Way,95757,38.3802968,-121.3758820
8864,Solo Way,95757,38.3803259,-121.3757692
8866,Solo Way,95757,38.3804689,-121.3758181
8868,Solo Way,95757,38.3805526,-121.3758179
8872,Solo Way,95757,38.3805525,-121.3755999
8874,Solo Way,95757,38.3804684,-121.3756000
8876,Solo Way,95757,38.3803257,-121.3756471
8878,Solo Way,95757,38.3802975,-121.3755337
8880,Solo Way,95757,38.3802974,-121.3754051
8882,Solo Way,95757,38.3803264,-121.3752922
8884,Solo Way,95757,38.3804694,-121.3753412
8886,Solo Way,95757,38.3805531,-121.3753410
8887,Solo Way,95757,38.3808055,-121.3753453
8885,Solo Way,95757,38.3808892,-121.3753451
8883,Solo Way,95757,38.3810247,-121.3752935
8881,Solo Way,95757,38.3810584,-121.3754084
8879,Solo Way,95757,38.3810578,-121.3755423
8873,Solo Way,95757,38.3808044,-121.3756041
8875,Solo Way,95757,38.3808885,-121.3756039
8877,Solo Way,95757,38.3810237,-121.3756565
8901,Upbeat Way,95757,38.3798968,-121.3753365
8915,Upbeat Way,95757,38.3798958,-121.3755953
8913,Upbeat Way,95757,38.3799799,-121.3755951
8911,Upbeat Way,95757,38.3801150,-121.3756476
8909,Upbeat Way,95757,38.3801491,-121.3755335
8907,Upbeat Way,95757,38.3801498,-121.3753995
8905,Upbeat Way,95757,38.3801160,-121.3752846
8903,Upbeat Way,95757,38.3799805,-121.3753363
8919,Upbeat Way,95757,38.3798952,-121.3758132
8933,Upbeat Way,95757,38.3798942,-121.3760721
8931,Upbeat Way,95757,38.3799783,-121.3760719
8929,Upbeat Way,95757,38.3801134,-121.3761244
8927,Upbeat Way,95757,38.3801475,-121.3760103
8925,Upbeat Way,95757,38.3801482,-121.3758763
8923,Upbeat Way,95757,38.3801145,-121.3757614
8921,Upbeat Way,95757,38.3799789,-121.3758130
8924,Upbeat Way,95757,38.3793897,-121.3756587
8922,Upbeat Way,95757,38.3794162,-121.3755456
8920,Upbeat Way,95757,38.3795576,-121.3755946
8936,Upbeat Way,95757,38.3796395,-121.3763133
8938,Upbeat Way,95757,38.3795558,-121.3763135
8940,Upbeat Way,95757,38.3794128,-121.3762645
8942,Upbeat Way,95757,38.3793838,-121.3763774
8944,Upbeat Way,95757,38.3793838,-121.3765060
8946,Upbeat Way,95757,38.3794122,-121.3766194
8948,Upbeat Way,95757,38.3795548,-121.3765723
8950,Upbeat Way,95757,38.3796389,-121.3765722
8973,Upbeat Way,95757,38.3798930,-121.3762907
8951,Upbeat Way,95757,38.3798919,-121.3765496
8949,Upbeat Way,95757,38.3799760,-121.3765494
8939,Upbeat Way,95757,38.3799767,-121.3762906
8941,Upbeat Way,95757,38.3801122,-121.3762390
8943,Upbeat Way,95757,38.3801459,-121.3763539
8945,Upbeat Way,95757,38.3801452,-121.3764877
8947,Upbeat Way,95757,38.3801111,-121.3766019
8958,Upbeat Way,95757,38.3794111,-121.3767292
8960,Upbeat Way,95757,38.3793821,-121.3768420
8962,Upbeat Way,95757,38.3793821,-121.3769707
8964,Upbeat Way,95757,38.3794104,-121.3770841
8966,Upbeat Way,95757,38.3795531,-121.3770370
8956,Upbeat Way,95757,38.3795541,-121.3767782
8954,Upbeat Way,95757,38.3796378,-121.3767780
8968,Upbeat Way,95757,38.3796372,-121.3770368
8969,Upbeat Way,95757,38.3798902,-121.3770304
8967,Upbeat Way,95757,38.3799743,-121.3770302
8955,Upbeat Way,95757,38.3798913,-121.3767716
8957,Upbeat Way,95757,38.3799750,-121.3767713
8959,Upbeat Way,95757,38.3801105,-121.3767197
8961,Upbeat Way,95757,38.3801442,-121.3768347
8963,Upbeat Way,95757,38.3801435,-121.3769686
8965,Upbeat Way,95757,38.3801095,-121.3770827
8978,Upbeat Way,95757,38.3793803,-121.3773018
8980,Upbeat Way,95757,38.3793803,-121.3774304
8976,Upbeat Way,95757,38.3794093,-121.3771889
8982,Upbeat Way,95757,38.3794086,-121.3775438
8974,Upbeat Way,95757,38.3795523,-121.3772379
8984,Upbeat Way,95757,38.3795513,-121.3774967
8986,Upbeat Way,95757,38.3796354,-121.3774966
8972,Upbeat Way,95757,38.3796360,-121.3772377
8973,Upbeat Way,95757,38.3798892,-121.3772497
8987,Upbeat Way,95757,38.3798881,-121.3775085
8985,Upbeat Way,95757,38.3799722,-121.3775083
8975,Upbeat Way,95757,38.3799729,-121.3772495
8977,Upbeat Way,95757,38.3801084,-121.3771979
8983,Upbeat Way,95757,38.3801074,-121.3775609
8981,Upbeat Way,95757,38.3801415,-121.3774467
8979,Upbeat Way,95757,38.3801421,-121.3773128
10391,East Stockton Boulevard,95624,38.3810339,-121.3653141
9104,Elkmont Way,95624,38.3831572,-121.3616910
9124,Elkmont Way,95624,38.3836942,-121.3608988
10291,East Stockton Boulevard,95624,38.3848857,-121.3686517
9320,East Stockton Boulevard,95624,38.4190308,-121.3923495
8230,Civic Center Drive,95757,38.4061512,-121.4022414
9701,Big Horn Boulevard,95757,38.4049877,-121.4020564
8230,Civic Center Drive,95757,38.4036604,-121.4020193
9885,Silvergate Lane,95624-3992,38.4194372,-121.3263409
9130,Nolan Street,95758,38.4249496,-121.4731319
8679,Elk Grove Boulevard,95624,38.4094541,-121.3813072
9685,East Stockton Boulevard,95624,38.4061869,-121.3856090
1,Sky River Parkway,95757,38.3803523,-121.3694771
10500,Allegra Drive,95757,38.3758005,-121.3777182
9539,Racquet Ct,95758,38.4113456,-121.4262288
8700,Bradshaw Road,95624,38.4413984,-121.3366590
9092,Stockton Boulevard,95624,38.3829994,-121.3625132
7415,Laguna Boulevard,95758,38.4240724,-121.4173072
9710,Elk Grove Florin Rd,95624,38.4051592,-121.3719300
9624,Melrose Avenue,95624,38.4074970,-121.3731184
9620,Melrose Avenue,95624,38.4077361,-121.3732342
9584,Fetlock Way,95624,38.4129125,-121.3399730
9580,Fetlock Way,95624,38.4128977,-121.3401693
9576,Fetlock Way,95624,38.4128856,-121.3403872
9592,Fetlock Way,95624,38.4129009,-121.3395713
9596,Fetlock Way,95624,38.4129078,-121.3393531
9585,Fetlock Way,95624,38.4132552,-121.3400020
9597,Fetlock Way,95624,38.4132592,-121.3394272
9577,Fetlock Way,95624,38.4132428,-121.3403909
9589,Fetlock Way,95624,38.4132605,-121.3398145
9593,Fetlock Way,95624,38.4132606,-121.3396219
9581,Fetlock Way,95624,38.4132637,-121.3401847
9588,Fetlock Way,95624,38.4129064,-121.3397683
9683,Soaring Oaks Drive,95758,38.4110479,-121.4172265
9677,Soaring Oaks Drive,95758,38.4110538,-121.4169936
9671,Soaring Oaks Drive,95758,38.4110758,-121.4167657
9665,Soaring Oaks Drive,95758,38.4110737,-121.4165150
9659,Soaring Oaks Drive,95758,38.4111064,-121.4162740
9653,Soaring Oaks Drive,95758,38.4111377,-121.4160368
9641,Soaring Oaks Drive,95758,38.4112301,-121.4158106
7437,Grenfell Court,95758,38.4109594,-121.4155654
7431,Grenfell Court,95758,38.4108744,-121.4158034
7419,Grenfell Court,95758,38.4107683,-121.4163287
7412,Grenfell Court,95758,38.4107321,-121.4166151
7407,Grenfell Court,95758,38.4107413,-121.4169221
7401,Grenfell Court,95758,38.4105538,-121.4171246
7400,Grenfell Court,95758,38.4103299,-121.4170586
7406,Grenfell Court,95758,38.4102578,-121.4168176
7412,Grenfell Court,95758,38.4103261,-121.4166143
7418,Grenfell Court,95758,38.4103436,-121.4163863
7437,Foyt Court,95758,38.4100595,-121.4162724
7433,Foyt Court,95758,38.4100329,-121.4164400
7429,Foyt Court,95758,38.4100010,-121.4165994
7425,Foyt Court,95758,38.4099714,-121.4167551
7421,Foyt Court,95758,38.4099585,-121.4169197
7417,Foyt Court,95758,38.4098700,-121.4171384
7413,Foyt Court,95758,38.4096908,-121.4171805
7409,Foyt Court,95758,38.4095595,-121.4171076
7405,Foyt Court,95758,38.4094303,-121.4171618
7400,Foyt Court,95758,38.4093085,-121.4165470
7408,Foyt Court,95758,38.4096311,-121.4166191
7404,Foyt Court,95758,38.4094505,-121.4165484
9582,Gurney Court,95758,38.4096945,-121.4162377
9586,Gurney Court,95758,38.4095756,-121.4161992
9590,Gurney Court,95758,38.4094467,-121.4161452
9594,Gurney Court,95758,38.4092957,-121.4161238
7500,Unser Way,95758,38.4097343,-121.4157849
7508,Unser Way,95758,38.4097949,-121.4154843
9589,Gurney Court,95758,38.4095594,-121.4155878
9591,Gurney Court,95758,38.4094278,-121.4155205
9595,Gurney Court,95758,38.4092891,-121.4155147
7504,Unser Way,95758,38.4097606,-121.4156397
7512,Unser Way,95758,38.4098087,-121.4153301
7520,Brabham Way,95758,38.4094988,-121.4150795
7524,Brabham Way,95758,38.4094507,-121.4148739
7600,Brabham Way,95758,38.4093991,-121.4147152
7604,Brabham Way,95758,38.4094033,-121.4145156
7612,Brabham Way,95758,38.4093713,-121.4141777
7622,Brabham Way,95758,38.4093843,-121.4137761
7626,Brabham Way,95758,38.4093990,-121.4136017
7630,Brabham Way,95758,38.4093889,-121.4134386
7702,Brabham Way,95758,38.4093959,-121.4132709
7706,Brabham Way,95758,38.4093931,-121.4130993
7710,Brabham Way,95758,38.4094063,-121.4129148
7714,Brabham Way,95758,38.4093970,-121.4127599
7720,Brabham Way,95758,38.4094010,-121.4125777
9594,Prost Court,95758,38.4093309,-121.4122758
9595,Prost Court,95758,38.4093414,-121.4116669
9587,Prost Court,95758,38.4096160,-121.4117835
9583,Andretti Way,95758,38.4097490,-121.4118854
9582,Andretti Way,95758,38.4097732,-121.4124259
9578,Andretti Way,95758,38.4099366,-121.4124393
9574,Andretti Way,95758,38.4100942,-121.4124554
7718,Killdeer Way,95758,38.4100986,-121.4127398
7706,Killdeer Way,95758,38.4101226,-121.4131073
7700,Killdeer Way,95758,38.4101237,-121.4133066
7626,Killdeer Way,95758,38.4101165,-121.4134718
7622,Killdeer Way,95758,38.4100744,-121.4136719
7618,Killdeer Way,95758,38.4100678,-121.4138460
7614,Killdeer Way,95758,38.4100672,-121.4140483
7610,Killdeer Way,95758,38.4100778,-121.4142357
7606,Killdeer Way,95758,38.4101086,-121.4144543
7602,Killdeer Way,95758,38.4101775,-121.4146464
7525,Unser Way,95758,38.4104363,-121.4150105
7434,Grenfell Court,95758,38.4105764,-121.4154249
7434,Grenfell Court,95758,38.4106434,-121.4152517
7521,Killdeer Way,95758,38.4108824,-121.4148836
7527,Killdeer Way,95758,38.4107147,-121.4147425
7601,Killdeer Way,95758,38.4105852,-121.4145589
7607,Killdeer Way,95758,38.4105022,-121.4143268
7613,Killdeer Way,95758,38.4104431,-121.4140726
7619,Killdeer Way,95758,38.4104629,-121.4138234
7625,Killdeer Way,95758,38.4104794,-121.4135991
7701,Killdeer Way,95758,38.4105222,-121.4133585
7612,Mendham Court,95758,38.4107892,-121.4138919
7616,Mendham Court,95758,38.4107992,-121.4136368
7620,Mendham Court,95758,38.4108433,-121.4133783
7600,Mendham Court,95758,38.4110806,-121.4145800
7601,Glenbain Way,95758,38.4111840,-121.4151458
7605,Glenbain Way,95758,38.4113181,-121.4149357
7609,Glenbain Way,95758,38.4114538,-121.4147622
9631,Soaring Oaks Drive,95758,38.4114755,-121.4153213
9625,Soaring Oaks Drive,95758,38.4116363,-121.4151403
9619,Soaring Oaks Drive,95758,38.4117836,-121.4149469
9613,Soaring Oaks Drive,95758,38.4119095,-121.4147361
7613,Glenbain Way,95758,38.4115998,-121.4145611
9684,Soaring Oaks Drive,95758,38.4115045,-121.4172309
9672,Soaring Oaks Drive,95758,38.4114985,-121.4167958
9666,Soaring Oaks Drive,95758,38.4115066,-121.4165845
9658,Soaring Oaks Drive,95758,38.4115330,-121.4163655
9638,Soaring Oaks Drive,95758,38.4116429,-121.4159540
9612,Soaring Oaks Drive,95758,38.4122260,-121.4150662
9618,Soaring Oaks Drive,95758,38.4121089,-121.4153139
9622,Soaring Oaks Drive,95758,38.4120097,-121.4154457
9632,Soaring Oaks Drive,95758,38.4117567,-121.4157545
9606,Soaring Oaks Drive,95758,38.4124561,-121.4146154
9502,Soaring Oaks Drive,95758,38.4149941,-121.4136139
9508,Soaring Oaks Drive,95758,38.4147832,-121.4135390
9514,Soaring Oaks Drive,95758,38.4144362,-121.4134676
9518,Soaring Oaks Drive,95758,38.4142453,-121.4134287
9522,Soaring Oaks Drive,95758,38.4140796,-121.4133846
9526,Soaring Oaks Drive,95758,38.4139148,-121.4133389
9530,Soaring Oaks Drive,95758,38.4137335,-121.4132978
9542,Soaring Oaks Drive,95758,38.4134222,-121.4133214
9546,Soaring Oaks Drive,95758,38.4132750,-121.4134164
9550,Soaring Oaks Drive,95758,38.4131212,-121.4134919
9554,Soaring Oaks Drive,95758,38.4129909,-121.4135559
9558,Soaring Oaks Drive,95758,38.4128549,-121.4137354
9562,Soaring Oaks Drive,95758,38.4127603,-121.4138459
9566,Soaring Oaks Drive,95758,38.4126616,-121.4140466
9600,Soaring Oaks Drive,95758,38.4125816,-121.4142126
9507,Soaring Oaks Drive,95758,38.4120234,-121.4144777
9501,Soaring Oaks Drive,95758,38.4121138,-121.4142334
7617,Glenbain Way,95758,38.4117297,-121.4143445
7621,Glenbain Way,95758,38.4118326,-121.4141106
7701,Hazenmore Court,95758,38.4119440,-121.4136738
9567,Soaring Oaks Drive,95758,38.4123586,-121.4136041
9561,Soaring Oaks Drive,95758,38.4124666,-121.4134083
9573,Soaring Oaks Drive,95758,38.4122536,-121.4138234
7709,Hazenmore Court,95758,38.4119851,-121.4132048
7705,Hazenmore Court,95758,38.4119719,-121.4134287
7601,Mendham Court,95758,38.4113533,-121.4142108
7607,Mendham Court,95758,38.4112226,-121.4140205
7622,Glenbain Way,95758,38.4114902,-121.4138741
7621,Mendham Court,95758,38.4112626,-121.4135154
7625,Mendham Court,95758,38.4113180,-121.4132951
7710,Hazenmore Court,95758,38.4116012,-121.4131542
7624,Mendham Court,95758,38.4108550,-121.4131099
7628,Mendham Court,95758,38.4110515,-121.4129552
7629,Mendham Court,95758,38.4112544,-121.4130306
7707,Killdeer Way,95758,38.4105341,-121.4131207
7713,Killdeer Way,95758,38.4104941,-121.4128820
7719,Killdeer Way,95758,38.4104743,-121.4126609
7725,Killdeer Way,95758,38.4104465,-121.4124310
7807,Killdeer Way,95758,38.4103793,-121.4119676
7815,Killdeer Way,95758,38.4104006,-121.4116819
7821,Killdeer Way,95758,38.4105410,-121.4114288
7818,Bardswell Court,95758,38.4106699,-121.4117597
7812,Bardswell Court,95758,38.4107182,-121.4120013
7808,Bardswell Court,95758,38.4107209,-121.4122364
7804,Bardswell Court,95758,38.4107583,-121.4124904
7800,Bardswell Court,95758,38.4109521,-121.4126197
7801,Bardswell Court,95758,38.4111830,-121.4124749
7807,Bardswell Court,95758,38.4112098,-121.4121809
7811,Bardswell Court,95758,38.4110972,-121.4119788
7815,Bardswell Court,95758,38.4110620,-121.4117638
7819,Bardswell Court,95758,38.4110160,-121.4115301
7823,Bardswell Court,95758,38.4109221,-121.4113263
7827,Bardswell Court,95758,38.4107918,-121.4111098
7828,Chaplin Court,95758,38.4110272,-121.4108399
7824,Chaplin Court,95758,38.4111788,-121.4110132
7818,Chaplin Court,95758,38.4113160,-121.4112308
7810,Chaplin Court,95758,38.4113562,-121.4114840
7804,Chaplin Court,95758,38.4113430,-121.4117231
7805,Chaplin Court,95758,38.4118208,-121.4117338
7813,Chaplin Court,95758,38.4117367,-121.4112413
7801,Chaplin Court,95758,38.4117075,-121.4119721
7725,Hazenmore Court,95758,38.4117171,-121.4123484
7724,Hazenmore Court,95758,38.4114951,-121.4124433
7721,Hazenmore Court,95758,38.4119041,-121.4124999
7717,Hazenmore Court,95758,38.4119412,-121.4127379
7817,Chaplin Court,95758,38.4116508,-121.4110274
7821,Chaplin Court,95758,38.4115839,-121.4108191
7825,Chaplin Court,95758,38.4114350,-121.4106111
7829,Chaplin Court,95758,38.4112799,-121.4104987
7924,Wymark Drive,95758,38.4114329,-121.4101635
7914,Killdeer Way,95758,38.4109318,-121.4102823
8000,Wymark Drive,95758,38.4110299,-121.4099924
7908,Killdeer Way,95758,38.4108131,-121.4104959
7900,Dyment Court,95758,38.4105325,-121.4108386
7908,Dyment Court,95758,38.4101807,-121.4105526
7913,Dyment Court,95758,38.4102128,-121.4102696
7909,Dyment Court,95758,38.4104304,-121.4101454
7905,Dyment Court,95758,38.4106104,-121.4102624
8006,Wymark Drive,95758,38.4108632,-121.4099128
8010,Wymark Drive,95758,38.4106768,-121.4098422
8014,Wymark Drive,95758,38.4104856,-121.4097536
8018,Wymark Drive,95758,38.4103117,-121.4096785
8001,Mansell Way,95758,38.4100485,-121.4096587
7925,Mansell Way,95758,38.4099789,-121.4097925
7913,Mansell Way,95758,38.4098354,-121.4102010
7909,Mansell Way,95758,38.4098494,-121.4103579
7901,Mansell Way,95758,38.4098339,-121.4105403
7817,Mansell Way,95758,38.4097960,-121.4108418
7813,Mansell Way,95758,38.4099413,-121.4109157
7809,Mansell Way,95758,38.4100457,-121.4109916
7805,Mansell Way,95758,38.4101659,-121.4110749
7801,Mansell Way,95758,38.4102567,-121.4111604
7800,Killdeer Way,95758,38.4100490,-121.4115867
7804,Mansell Way,95758,38.4099188,-121.4114998
7812,Mansell Way,95758,38.4097041,-121.4113387
7816,Mansell Way,95758,38.4095776,-121.4113135
7820,Mansell Way,95758,38.4094635,-121.4111997
7824,Mansell Way,95758,38.4094038,-121.4109835
7828,Mansell Way,95758,38.4094151,-121.4108013
7902,Mansell Way,95758,38.4094372,-121.4106274
7906,Mansell Way,95758,38.4094410,-121.4104690
7910,Mansell Way,95758,38.4094429,-121.4103129
7918,Mansell Way,95758,38.4094565,-121.4100021
7922,Mansell Way,95758,38.4094689,-121.4098422
7926,Mansell Way,95758,38.4095276,-121.4096797
8100,Wymark Drive,95758,38.4097093,-121.4094369
8110,Wymark Drive,95758,38.4095672,-121.4093738
8116,Wymark Drive,95758,38.4094008,-121.4093687
8117,Wymark Drive,95758,38.4093854,-121.4087600
8113,Wymark Drive,95758,38.4095278,-121.4087694
8109,Wymark Drive,95758,38.4096598,-121.4088265
8105,Wymark Drive,95758,38.4097845,-121.4088532
8101,Wymark Drive,95758,38.4099001,-121.4089103
8020,Dreyfus Way,95758,38.4099482,-121.4086315
8024,Dreyfus Way,95758,38.4099665,-121.4084881
9584,Amon Court,95758,38.4096352,-121.4083977
9588,Amon Court,95758,38.4095183,-121.4082882
9594,Amon Court,95758,38.4093838,-121.4082699
9591,Amon Court,95758,38.4095343,-121.4076602
9587,Amon Court,95758,38.4096669,-121.4077496
8108,Fangio Court,95758,38.4100370,-121.4078133
8112,Fangio Court,95758,38.4100807,-121.4076570
9583,Amon Court,95758,38.4098073,-121.4078389
8100,Fangio Court,95758,38.4100643,-121.4081479
8113,Fangio Court,95758,38.4105634,-121.4078676
8109,Fangio Court,95758,38.4105003,-121.4080312
8101,Fangio Court,95758,38.4104332,-121.4083545
8027,Dreyfus Way,95758,38.4103854,-121.4085029
8023,Dreyfus Way,95758,38.4103468,-121.4086662
8109,Dreyfus Way,95758,38.4103118,-121.4088112
8015,Dreyfus Way,95758,38.4102493,-121.4089791
8011,Dreyfus Way,95758,38.4102161,-121.4091315
8017,Wymark Drive,95758,38.4104619,-121.4091580
8013,Wymark Drive,95758,38.4106498,-121.4092447
9546,Roblin Court,95758,38.4108052,-121.4087720
9542,Roblin Court,95758,38.4110674,-121.4084058
9547,Roblin Court,95758,38.4109341,-121.4082377
9539,Roblin Court,95758,38.4113000,-121.4085587
9538,Roblin Court,95758,38.4114486,-121.4086984
9533,Royston Way,95758,38.4113274,-121.4091634
8005,Wymark Drive,95758,38.4110113,-121.4094089
9531,Roblin Court,95758,38.4115979,-121.4088637
9521,Royston Way,95758,38.4118657,-121.4087308
9524,Royston Way,95758,38.4118781,-121.4093032
9532,Royston Way,95758,38.4117135,-121.4093940
9540,Royston Way,95758,38.4116168,-121.4096857
7921,Wymark Drive,95758,38.4118376,-121.4098260
9516,Royston Way,95758,38.4121409,-121.4091820
9510,Royston Way,95758,38.4123323,-121.4092418
9524,Wadena Way,95758,38.4125563,-121.4093778
9520,Wadena Way,95758,38.4124842,-121.4096401
9513,Royston Way,95758,38.4122705,-121.4087480
9509,Royston Way,95758,38.4124681,-121.4088057
9505,Royston Way,95758,38.4126553,-121.4089022
9578,Village Tree Drive,95758,38.4107257,-121.4077065
9574,Village Tree Drive,95758,38.4108619,-121.4077326
9570,Village Tree Drive,95758,38.4109710,-121.4077642
9566,Village Tree Drive,95758,38.4110991,-121.4078316
9562,Village Tree Drive,95758,38.4112036,-121.4078668
9558,Village Tree Drive,95758,38.4113348,-121.4079342
9554,Village Tree Drive,95758,38.4114350,-121.4079633
9550,Village Tree Drive,95758,38.4115677,-121.4080220
9565,Village Tree Drive,95758,38.4112325,-121.4073959
9561,Village Tree Drive,95758,38.4113617,-121.4074352
9557,Village Tree Drive,95758,38.4114670,-121.4074917
9597,Village Tree Drive,95758,38.4109411,-121.4071425
9603,Village Tree Drive,95758,38.4110039,-121.4069668
9607,Village Tree Drive,95758,38.4110378,-121.4068170
9586,Village Tree Drive,95758,38.4104899,-121.4074842
9590,Village Tree Drive,95758,38.4104929,-121.4072776
9598,Village Tree Drive,95758,38.4105980,-121.4069777
9602,Village Tree Drive,95758,38.4106385,-121.4068232
9606,Village Tree Drive,95758,38.4106821,-121.4066868
9615,Village Tree Drive,95758,38.4111238,-121.4064594
9546,Little Rapids Way,95758,38.4113028,-121.4066341
9542,Little Rapids Way,95758,38.4114161,-121.4066667
9538,Little Rapids Way,95758,38.4115351,-121.4067527
9534,Little Rapids Way,95758,38.4116423,-121.4068052
9530,Little Rapids Way,95758,38.4117632,-121.4068867
9634,Village Tree Drive,95758,38.4112878,-121.4060899
9630,Village Tree Drive,95758,38.4111678,-121.4059933
9626,Village Tree Drive,95758,38.4110098,-121.4059787
9622,Village Tree Drive,95758,38.4108565,-121.4060500
9618,Village Tree Drive,95758,38.4107666,-121.4062246
9614,Village Tree Drive,95758,38.4107546,-121.4063786
9543,Little Rapids Way,95758,38.4115882,-121.4062428
9539,Little Rapids Way,95758,38.4117071,-121.4063124
9531,Little Rapids Way,95758,38.4119534,-121.4064638
9527,Little Rapids Way,95758,38.4120764,-121.4065636
9526,Little Rapids Way,95758,38.4118692,-121.4069537
8132,Village Brook Way,95758,38.4120694,-121.4070313
8124,Village Brook Way,95758,38.4119687,-121.4073810
8120,Village Brook Way,95758,38.4119237,-121.4075383
8116,Village Brook Way,95758,38.4119025,-121.4076947
9549,Village Tree Drive,95758,38.4117013,-121.4075774
8115,Village Brook Way,95758,38.4122448,-121.4078513
8119,Village Brook Way,95758,38.4122735,-121.4077120
8123,Village Brook Way,95758,38.4123236,-121.4075414
8127,Village Brook Way,95758,38.4123864,-121.4073604
8131,Village Brook Way,95758,38.4124094,-121.4072028
9515,Little Rapids Way,95758,38.4124099,-121.4067487
9511,Little Rapids Way,95758,38.4125384,-121.4068015
9507,Little Rapids Way,95758,38.4126452,-121.4068630
9503,Little Rapids Way,95758,38.4127770,-121.4069216
9506,Little Rapids Way,95758,38.4125966,-121.4073376
9502,Little Rapids Way,95758,38.4127082,-121.4073692
9498,Little Rapids Way,95758,38.4128303,-121.4074316
9523,Village Tree Drive,95758,38.4124501,-121.4079137
9519,Village Tree Drive,95758,38.4125605,-121.4079564
9515,Village Tree Drive,95758,38.4126933,-121.4080239
9509,Village Tree Drive,95758,38.4128161,-121.4080264
9505,Village Tree Drive,95758,38.4129538,-121.4080115
9501,Village Tree Drive,95758,38.4130745,-121.4080296
9497,Village Tree Drive,95758,38.4131987,-121.4080510
9493,Village Tree Drive,95758,38.4133214,-121.4080423
9482,Little Rapids Way,95758,38.4133184,-121.4076073
9490,Little Rapids Way,95758,38.4130748,-121.4075206
9495,Little Rapids Way,95758,38.4130138,-121.4069980
9491,Little Rapids Way,95758,38.4131196,-121.4070538
9487,Little Rapids Way,95758,38.4132543,-121.4071097
9479,Little Rapids Way,95758,38.4135005,-121.4071776
9475,Little Rapids Way,95758,38.4136041,-121.4071752
9471,Little Rapids Way,95758,38.4137336,-121.4072083
9467,Little Rapids Way,95758,38.4138483,-121.4072376
9476,Village Tree Drive,95758,38.4134284,-121.4076336
9485,Village Tree Drive,95758,38.4134454,-121.4080577
9479,Village Tree Drive,95758,38.4136656,-121.4080668
9452,Little Rapids Way,95758,38.4137932,-121.4078139
9459,Little Rapids Way,95758,38.4141298,-121.4073267
9455,Little Rapids Way,95758,38.4141952,-121.4075045
9465,Village Tree Drive,95758,38.4141473,-121.4079585
9461,Village Tree Drive,95758,38.4142949,-121.4079296
9433,Village Tree Drive,95758,38.4144941,-121.4079496
9429,Village Tree Drive,95758,38.4144931,-121.4077633
9421,Village Tree Drive,95758,38.4144780,-121.4073754
9417,Village Tree Drive,95758,38.4145024,-121.4072156
9458,Village Tree Drive,95758,38.4143979,-121.4084241
9462,Village Tree Drive,95758,38.4142718,-121.4084289
9466,Village Tree Drive,95758,38.4141498,-121.4084493
9470,Village Tree Drive,95758,38.4140058,-121.4085046
9474,Village Tree Drive,95758,38.4138711,-121.4085359
9478,Village Tree Drive,95758,38.4137437,-121.4085356
9482,Village Tree Drive,95758,38.4136221,-121.4085463
9490,Village Tree Drive,95758,38.4133728,-121.4085255
9494,Village Tree Drive,95758,38.4132509,-121.4085238
9498,Village Tree Drive,95758,38.4131263,-121.4085102
9502,Village Tree Drive,95758,38.4130007,-121.4085008
9506,Village Tree Drive,95758,38.4128832,-121.4084977
9510,Village Tree Drive,95758,38.4127466,-121.4085097
9514,Village Tree Drive,95758,38.4126321,-121.4084853
9522,Village Tree Drive,95758,38.4123920,-121.4083816
9526,Village Tree Drive,95758,38.4122644,-121.4083204
9534,Village Tree Drive,95758,38.4120323,-121.4082193
9542,Village Tree Drive,95758,38.4118043,-121.4081243
9546,Village Tree Drive,95758,38.4116823,-121.4080560
9501,Royston Way,95758,38.4128257,-121.4090417
9523,Wadena Way,95758,38.4128839,-121.4096872
9533,Wadena Way,95758,38.4130044,-121.4094819
9539,Wadena Way,95758,38.4132492,-121.4093999
8008,Gladmar Court,95758,38.4132337,-121.4096587
8004,Gladmar Court,95758,38.4131688,-121.4099476
9536,Wadena Way,95758,38.4130870,-121.4089154
9550,Wadena Way,95758,38.4132864,-121.4089253
9544,Wadena Way,95758,38.4134815,-121.4089146
9548,Wadena Way,95758,38.4136392,-121.4088587
9552,Wadena Way,95758,38.4137918,-121.4089363
8013,Gladmar Court,95758,38.4136144,-121.4093801
8009,Gladmar Court,95758,38.4136046,-121.4096101
8005,Gladmar Court,95758,38.4136565,-121.4098585
8001,Gladmar Court,95758,38.4135640,-121.4101716
8000,Gladmar Court,95758,38.4133189,-121.4102167
9553,Wadena Way,95758,38.4138844,-121.4094202
7916,Baldur Court,95758,38.4140565,-121.4098440
7917,Baldur Court,95758,38.4142714,-121.4098179
9563,Wadena Way,95758,38.4142650,-121.4094420
9556,Wadena Way,95758,38.4139779,-121.4089337
9560,Wadena Way,95758,38.4141656,-121.4089551
9564,Wadena Way,95758,38.4143612,-121.4089525
9568,Wadena Way,95758,38.4145515,-121.4089513
9418,Village Tree Drive,95758,38.4149041,-121.4072512
9422,Village Tree Drive,95758,38.4148993,-121.4074102
9426,Village Tree Drive,95758,38.4148900,-121.4075650
9430,Village Tree Drive,95758,38.4148837,-121.4077269
9434,Village Tree Drive,95758,38.4149210,-121.4078809
9438,Village Tree Drive,95758,38.4149100,-121.4080414
9442,Village Tree Drive,95758,38.4148922,-121.4082018
9572,Wadena Way,95758,38.4147430,-121.4089713
8008,Melfort Way,95758,38.4147214,-121.4094299
9569,Wadena Way,95758,38.4144688,-121.4094628
8004,Melfort Way,95758,38.4147115,-121.4096699
9422,Quesnel Circle,95758,38.4150865,-121.4094721
9576,Wadena Way,95758,38.4149338,-121.4089823
9421,Quesnel Circle,95758,38.4151228,-121.4089987
9417,Quesnel Circle,95758,38.4153146,-121.4089989
9413,Quesnel Circle,95758,38.4155002,-121.4090098
9405,Quesnel Circle,95758,38.4158799,-121.4090277
9348,Quesnel Circle,95758,38.4158873,-121.4094897
9409,Quesnel Circle,95758,38.4156912,-121.4090186
9410,Quesnel Circle,95758,38.4156409,-121.4095018
9414,Quesnel Circle,95758,38.4154575,-121.4095141
9418,Quesnel Circle,95758,38.4152703,-121.4094868
9300,Quesnel Circle,95758,38.4150756,-121.4098599
9304,Quesnel Circle,95758,38.4152726,-121.4098682
9306,Quesnel Circle,95758,38.4154782,-121.4099285
9312,Quesnel Circle,95758,38.4156610,-121.4099849
9318,Quesnel Circle,95758,38.4158646,-121.4100436
9344,Quesnel Circle,95758,38.4158725,-121.4097097
9401,Quesnel Circle,95758,38.4160629,-121.4090008
9321,Quesnel Circle,95758,38.4159722,-121.4105852
9317,Quesnel Circle,95758,38.4157926,-121.4105331
9313,Quesnel Circle,95758,38.4156073,-121.4104630
9309,Quesnel Circle,95758,38.4154299,-121.4104163
9305,Quesnel Circle,95758,38.4152488,-121.4103665
9301,Quesnel Circle,95758,38.4150643,-121.4103392
7909,Melfort Way,95758,38.4150281,-121.4106646
7916,Melfort Way,95758,38.4147045,-121.4101322
7912,Melfort Way,95758,38.4146982,-121.4103765
7908,Melfort Way,95758,38.4146336,-121.4106249
7904,Melfort Way,95758,38.4145893,-121.4108418
9441,Medstead Way,95758,38.4145277,-121.4111400
7905,Melfort Way,95758,38.4149597,-121.4109012
7901,Melfort Way,95758,38.4149227,-121.4111366
7829,Melfort Way,95758,38.4148886,-121.4113772
7825,Melfort Way,95758,38.4148727,-121.4116259
9445,Medstead Way,95758,38.4143636,-121.4110458
9449,Medstead Way,95758,38.4142123,-121.4109088
7905,Baldur Court,95758,38.4143380,-121.4106082
7909,Baldur Court,95758,38.4143599,-121.4103572
7913,Baldur Court,95758,38.4143999,-121.4100941
9478,Medstead Way,95758,38.4133464,-121.4110781
7828,Instow Court,95758,38.4136120,-121.4110296
7824,Instow Court,95758,38.4135577,-121.4113008
7802,Instow Court,95758,38.4136899,-121.4115469
7825,Instow Court,95758,38.4139198,-121.4115313
9455,Wadena Way,95758,38.4139297,-121.4119296
9457,Wadena Way,95758,38.4137415,-121.4119091
9463,Wadena Way,95758,38.4135427,-121.4118430
9467,Wadena Way,95758,38.4133696,-121.4116520
9471,Wadena Way,95758,38.4132506,-121.4114449
9482,Medstead Way,95758,38.4131640,-121.4111435
9477,Medstead Way,95758,38.4133190,-121.4105808
9473,Medstead Way,95758,38.4135086,-121.4105704
9465,Medstead Way,95758,38.4138954,-121.4106669
7908,Baldur Court,95758,38.4139442,-121.4103723
9501,Wadena Way,95758,38.4130802,-121.4107092
9505,Wadena Way,95758,38.4130421,-121.4104711
9505,Wadena Way,95758,38.4129351,-121.4102344
9513,Wadena Way,95758,38.4128619,-121.4100229
9516,Wadena Way,95758,38.4124611,-121.4099113
9512,Wadena Way,95758,38.4124989,-121.4102009
9508,Wadena Way,95758,38.4126008,-121.4104547
9504,Wadena Way,95758,38.4126478,-121.4106652
9500,Wadena Way,95758,38.4127393,-121.4108981
9480,Wadena Way,95758,38.4127878,-121.4111307
9476,Wadena Way,95758,38.4128228,-121.4113883
7913,Wymark Drive,95758,38.4121181,-121.4101689
7909,Wymark Drive,95758,38.4122318,-121.4103815
7905,Wymark Drive,95758,38.4123168,-121.4105821
7817,Wymark Drive,95758,38.4124494,-121.4110185
7813,Wymark Drive,95758,38.4124938,-121.4112350
7809,Wymark Drive,95758,38.4125250,-121.4114567
7805,Wymark Drive,95758,38.4125643,-121.4116946
7801,Wymark Drive,95758,38.4125840,-121.4119269
7719,Wymark Drive,95758,38.4126153,-121.4121605
7711,Wymark Drive,95758,38.4126765,-121.4126172
7705,Wymark Drive,95758,38.4127359,-121.4128637
7701,Wymark Drive,95758,38.4128098,-121.4130829
9549,Soaring Oaks Drive,95758,38.4130251,-121.4129346
7800,Flintoft Court,95758,38.4129778,-121.4124228
9472,Wadena Way,95758,38.4128876,-121.4116194
7804,Flintoft Court,95758,38.4129039,-121.4121123
9543,Soaring Oaks Drive,95758,38.4132184,-121.4128347
9537,Soaring Oaks Drive,95758,38.4134103,-121.4127828
9533,Soaring Oaks Drive,95758,38.4135991,-121.4127605
9529,Soaring Oaks Drive,95758,38.4137844,-121.4127599
9525,Soaring Oaks Drive,95758,38.4139720,-121.4128053
9521,Soaring Oaks Drive,95758,38.4141645,-121.4128604
9444,Wadena Way,95758,38.4142293,-121.4125013
9450,Wadena Way,95758,38.4140277,-121.4124374
9454,Wadena Way,95758,38.4138391,-121.4124112
9458,Wadena Way,95758,38.4136312,-121.4123834
9449,Wadena Way,95758,38.4141249,-121.4119543
9445,Wadena Way,95758,38.4143062,-121.4120145
9441,Wadena Way,95758,38.4145115,-121.4120555
9440,Medstead Way,95758,38.4144748,-121.4116269
9444,Medstead Way,95758,38.4142569,-121.4115512
7821,Melfort Way,95758,38.4148716,-121.4118775
7813,Melfort Way,95758,38.4148991,-121.4123532
7809,Melfort Way,95758,38.4149252,-121.4125836
7805,Melfort Way,95758,38.4149403,-121.4128147
7801,Melfort Way,95758,38.4149649,-121.4130728
7812,Melfort Way,95758,38.4145154,-121.4125260
9517,Soaring Oaks Drive,95758,38.4143464,-121.4128983
9551,Roblin Court,95758,38.4107690,-121.4081586
9538,Roblin Court,95758,38.4111306,-121.4090023
9542,Roblin Court,95758,38.4109725,-121.4088766
9550,Roblin Court,95758,38.4106162,-121.4087124
8105,Fangio Court,95758,38.4104764,-121.4081894
8009,Wymark Drive,95758,38.4108354,-121.4093253
8001,Wymark Drive,95758,38.4112040,-121.4094898
9582,Village Tree Drive,95758,38.4106166,-121.4076545
9593,Village Tree Drive,95758,38.4109107,-121.4072899
9569,Village Tree Drive,95758,38.4111171,-121.4073327
9553,Village Tree Drive,95758,38.4115932,-121.4075556
8128,Village Brook Way,95758,38.4120240,-121.4071875
9517,Royston Way,95758,38.4120949,-121.4087025
8005,Mansell Way,95758,38.4100955,-121.4095183
9580,Amon Court,95758,38.4097497,-121.4084651
9595,Amon Court,95758,38.4093798,-121.4076283
8104,Fangio Court,95758,38.4100380,-121.4079730
7917,Wymark Drive,95758,38.4119801,-121.4100057
7909,Wymark Drive,95758,38.4124026,-121.4107956
7715,Wymark Drive,95758,38.4126184,-121.4123929
9513,Soaring Oaks Drive,95758,38.4145293,-121.4129259
9461,Batey Avenue,95624,38.4132402,-121.3599268
9075,Elk Grove Boulevard,95624,38.4092930,-121.3636882
9129,Elk Grove Boulevard,95624,38.4091978,-121.3612347
10065,Atkins Drive,95757,38.3913813,-121.4368103
10349,Dynamic Way,95757,38.3820030,-121.3760292
10353,Dynamic Way,95757,38.3818781,-121.3760432
10361,Dynamic Way,95757,38.3816266,-121.3760309
9678,Soaring Oaks Drive,95758,38.4114994,-121.4170162
9644,Soaring Oaks Drive,95758,38.4115809,-121.4161508
9626,Soaring Oaks Drive,95758,38.4118700,-121.4156268
7604,Mendham Court,95758,38.4109500,-121.4143834
7615,Mendham Court,95758,38.4111600,-121.4137536
7700,Hazenmore Court,95758,38.4115531,-121.4136321
7704,Hazenmore Court,95758,38.4115964,-121.4133912
7713,Hazenmore Court,95758,38.4119597,-121.4129583
7714,Hazenmore Court,95758,38.4115460,-121.4129344
7720,Hazenmore Court,95758,38.4114481,-121.4127170
7704,Wymark Drive,95758,38.4123463,-121.4131086
7708,Wymark Drive,95758,38.4122721,-121.4128859
7712,Wymark Drive,95758,38.4122383,-121.4126444
7716,Wymark Drive,95758,38.4122120,-121.4124088
7720,Wymark Drive,95758,38.4121869,-121.4121902
7804,Wymark Drive,95758,38.4121331,-121.4117553
7800,Wymark Drive,95758,38.4121531,-121.4119769
7808,Wymark Drive,95758,38.4120994,-121.4115275
7809,Chaplin Court,95758,38.4117695,-121.4114799
7812,Wymark Drive,95758,38.4120819,-121.4112981
7818,Wymark Drive,95758,38.4120308,-121.4110772
7904,Wymark Drive,95758,38.4119600,-121.4108416
7910,Wymark Drive,95758,38.4118425,-121.4106355
7916,Wymark Drive,95758,38.4117294,-121.4104488
7920,Wymark Drive,95758,38.4115990,-121.4103017
7805,Flintoft Court,95758,38.4132098,-121.4124652
7808,Flintoft Court,95758,38.4130207,-121.4118825
9469,Medstead Way,95758,38.4137139,-121.4105834
7829,Instow Court,95758,38.4140627,-121.4113368
7817,Melfort Way,95758,38.4148775,-121.4121135
9120,Harbour Point Drive,95758,38.4267119,-121.4809252
9594,Village Tree Drive,95758,38.4105656,-121.4071159
9610,Village Tree Drive,95758,38.4107152,-121.4065329
9538,Village Tree Drive,95758,38.4119118,-121.4081714
9530,Village Tree Drive,95758,38.4121510,-121.4083064
9518,Village Tree Drive,95758,38.4124975,-121.4084213
9486,Village Tree Drive,95758,38.4134959,-121.4085466
9454,Village Tree Drive,95758,38.4145288,-121.4084708
9450,Village Tree Drive,95758,38.4146498,-121.4084738
9446,Village Tree Drive,95758,38.4148066,-121.4083911
9425,Village Tree Drive,95758,38.4144870,-121.4075888
9451,Little Rapids Way,95758,38.4142052,-121.4076771
9436,Little Rapids Way,95758,38.4139787,-121.4072297
9456,Little Rapids Way,95758,38.4138013,-121.4076453
9611,Village Tree Drive,95758,38.4110936,-121.4066341
9535,Little Rapids Way,95758,38.4118324,-121.4064201
9523,Little Rapids Way,95758,38.4121928,-121.4066118
9519,Little Rapids Way,95758,38.4122996,-121.4066773
9499,Little Rapids Way,95758,38.4128829,-121.4069655
9483,Little Rapids Way,95758,38.4133691,-121.4071178
9486,Little Rapids Way,95758,38.4131869,-121.4075614
9494,Little Rapids Way,95758,38.4129454,-121.4074730
9559,Wadena Way,95758,38.4140803,-121.4094401
7919,Mansell Way,95758,38.4099621,-121.4100577
7914,Mansell Way,95758,38.4094469,-121.4101627
9591,Prost Court,95758,38.4094694,-121.4117033
9579,Andretti Way,95758,38.4098909,-121.4119353
7801,Killdeer Way,95758,38.4104143,-121.4122057
7809,Flintoft Court,95758,38.4133772,-121.4122920
7904,Dyment Court,95758,38.4103295,-121.4107544
7608,Brabham Way,95758,38.4093858,-121.4143614
7516,Brabham Way,95758,38.4095896,-121.4151973
8000,Melfort Way,95758,38.4147120,-121.4099257
7712,Killdeer Way,95758,38.4101124,-121.4129477
9538,Soaring Oaks Drive,95758,38.4135762,-121.4133720
