House number,Street name,Postal code,Latitude,Longitude
1586,Gateway Boulevard,94533,38.2616184,-122.0584748
5121,"Business Center Drive, Green Valley Crossing",94534,38.2137141,-122.1439117
2951,Markeley Lane,94533,38.2829437,-121.9616422
3334,North Texas Street,94533,38.2890956,-122.0336268
1370,Holiday Lane,94534,38.2575714,-122.0641780
1595,Holiday Lane,94534,38.2578111,-122.0640050
2860,Cordelia Road,94534,38.2275206,-122.0884571
1350,Gateway Boulevard,94533,38.2640861,-122.0531990
420,Union Avenue,94533,38.2462035,-122.0401580
1547,Solano Mall,94533,38.2605519,-122.0563730
1750,Travis Boulevard,94533,38.2588665,-122.0599080
1640,Gateway Boulevard,94533,38.2592309,-122.0585940
1740,Travis Boulevard,94533,38.2585569,-122.0600580
1630,Gateway Boulevard,94533,38.2594942,-122.0588380
1630,Gateway Boulevard,94533,38.2596648,-122.0588140
1650,Gateway Boulevard,94533,38.2594710,-122.0577490
1574,Gateway Boulevard,94533,38.2622043,-122.0580440
1570,Gateway Boulevard,94533,38.2623759,-122.0578580
1595,Holiday Lane,94534,38.2629274,-122.0595740
1545,Holiday Lane,94534,38.2603159,-122.0617030
1500,Oliver Road,94534,38.2598636,-122.0687766
1500,Oliver Road,94534,38.2598056,-122.0689456
3069,Travis Boulevard,94534,38.2576917,-122.0673953
1471,Holiday Lane,94534,38.2592566,-122.0657672
3089,Travis Boulevard,94534,38.2576555,-122.0669876
1350,Holiday Lane,94534,38.2559432,-122.0653944
1363,Oliver Road,94534,38.2573761,-122.0684681
1200,Oliver Road,94534,38.2545454,-122.0665047
1250,Oliver Road,94534,38.2551899,-122.0664510
1051,Oliver Road,94534,38.2537248,-122.0674088
1955,West Texas Street,94533,38.2479744,-122.0642653
1985,West Texas Street,94533,38.2478901,-122.0659282
1955,West Texas Street,94533,38.2474478,-122.0644047
420,Gregory Street,94533,38.2467366,-122.0553818
1601,West Texas Street,94533,38.2490635,-122.0564043
1371,Oliver Road,94534,38.2576546,-122.0685333
4921,Vanden Road,94533,38.2854467,-121.9679746
5253,"Business Center Dr, Suite B",94534,38.2756712,-122.0505570
1525,Holiday Lane,94534,38.2597342,-122.0625835
3152,Muse Way,94533,38.2840381,-122.0004608
3347,North Texas Street,94533,38.2906693,-122.0344482
2775,De Ronde Drive,94533,38.2798694,-121.9613272
499,Edison Court,94534,38.2054258,-122.1421686
2590,North Texas Street,94533,38.2759784,-122.0333303
2059,Cadenasso Drive,94533,38.2467597,-122.0689930
2401,Waterman Boulevard,94534,38.2717856,-122.0531961
2401,Waterman Boulevard,94534,38.2726681,-122.0530988
4437,Central Place,94534,38.2218166,-122.1253560
2700,Dover Avenue,94533,38.2790812,-122.0240629
1050,North Texas Street,94533,38.2538019,-122.0336920
710,Jackson Street,94533,38.2496151,-122.0443938
1451,Gateway Boulevard,94533,38.2607305,-122.0535518
5287,Waterleaf Lane,94534,38.2022591,-122.1522026
5283,Waterleaf Lane,94534,38.2021605,-122.1523426
5279,Waterleaf Lane,94534,38.2020761,-122.1524547
5275,Waterleaf Lane,94534,38.2019880,-122.1525854
5271,Waterleaf Lane,94534,38.2019110,-122.1526835
5267,Waterleaf Lane,94534,38.2019518,-122.1514230
5263,Waterleaf Lane,94534,38.2017201,-122.1529357
5259,Waterleaf Lane,94534,38.2016137,-122.1530898
5255,Waterleaf Lane,94534,38.2015220,-122.1531972
5251,Waterleaf Lane,94534,38.2014339,-122.1533139
5247,Waterleaf Lane,94534,38.2013532,-122.1534400
5243,Waterleaf Lane,94534,38.2012504,-122.1535708
5239,Waterleaf Lane,94534,38.2011513,-122.1537202
5235,Waterleaf Lane,94534,38.2010706,-122.1538370
5231,Waterleaf Lane,94534,38.2009862,-122.1539537
5227,Waterleaf Lane,94534,38.2008871,-122.1541032
5224,Waterleaf Lane,94534,38.2009788,-122.1542386
5228,Waterleaf Lane,94534,38.2010999,-122.1540705
5232,Waterleaf Lane,94534,38.2011843,-122.1539537
5236,Waterleaf Lane,94534,38.2012651,-122.1538276
5240,Waterleaf Lane,94534,38.2013715,-122.1537016
5244,Waterleaf Lane,94534,38.2014706,-122.1535755
5248,Waterleaf Lane,94534,38.2015587,-122.1534447
5252,Waterleaf Lane,94534,38.2016431,-122.1533326
5256,Waterleaf Lane,94534,38.2017165,-122.1532112
5260,Waterleaf Lane,94534,38.2018266,-122.1530804
5264,Waterleaf Lane,94534,38.2019293,-122.1529263
5268,Waterleaf Lane,94534,38.2020247,-122.1528096
5272,Waterleaf Lane,94534,38.2020981,-122.1527068
5276,Waterleaf Lane,94534,38.2021862,-122.1525808
5280,Waterleaf Lane,94534,38.2022780,-122.1524640
5284,Waterleaf Lane,94534,38.2023770,-122.1523332
5288,Waterleaf Lane,94534,38.2024651,-122.1522212
5292,Waterleaf Lane,94534,38.2025128,-122.1520857
5296,Waterleaf Lane,94534,38.2024614,-122.1519783
1350,Travis Boulevard,94533,38.2598909,-122.0588525
2477,Courage Drive,94533,38.2340772,-122.0808857
4625,Central Way,94534,38.2183430,-122.1318462
4490,Central Way,94534,38.2213923,-122.1289512
2701,North Texas Street,94533,38.2789799,-122.0348742
1349,Oliver Road,94534,38.2565790,-122.0681602
1955,West Texas Street,94533,38.2472894,-122.0646235
1349,West Texas Street,94533,38.2490589,-122.0522244
251,Pittman Road,94534,38.2201732,-122.1278290
251,Pittman Road,94534,38.2201070,-122.1277091
251,Pittman Road,94534,38.2201455,-122.1277734
1310,Gateway Boulevard,94533-6903,38.2642917,-122.0507106
5121,Business Center Drive,94534,38.2135419,-122.1442623
2855,Auto Mall Parkway,94533,38.2423565,-122.0811644
2575,Auto Mall Parkway,94533,38.2440020,-122.0800784
1500,Oliver Road,94534,38.2598541,-122.0682517
2263,North Texas Street,94533,38.2697843,-122.0344364
2380,North Texas Street,94533,38.2721311,-122.0336503
1652,West Texas Street,94533,38.2496686,-122.0578182
1309,West Texas Street,94533,38.2490718,-122.0505323
2825,Cordelia Road,94534,38.2274096,-122.0853008
2850,Cordelia Road,94534,38.2284175,-122.0864479
3334,North Texas Street,94533,38.2888765,-122.0336213
2001,Meyer Way,94534,38.2371523,-122.0629737
1975,Blossom Avenue,94533,38.2640138,-122.0165811
3101,Busch Drive,94534,38.2365693,-122.0914075
1,Jelly Belly Lane,94533,38.2387529,-122.0773555
5101,Business Center Drive,94534-1624,38.2152499,-122.1454834
1741,West Texas Street,94533,38.2472137,-122.0612588
1965,West Texas Street,94533,38.2489546,-122.0651801
4300,Central Place,94534,38.2245333,-122.1241212
4000,Suisun Valley Road,94534,38.2351791,-122.1210164
700,Oakbrook Drive,94534,38.1918683,-122.1434475
5051,Business Center Drive,94533,38.2169550,-122.1411395
5113,Business Center Drive,94534,38.2142013,-122.1429680
5075,Business Center Drive,94534,38.2167218,-122.1430889
2950,Auto Mall Parkway,94534,38.2421813,-122.0847155
2499,Auto Mall Parkway,94533,38.2448490,-122.0783167
2121,Cadenasso Drive,94533,38.2470801,-122.0700555
2059,Cadenasso Drive,94533,38.2464498,-122.0688390
1400,Gateway Boulevard,94533,38.2639786,-122.0539500
1350,Gateway Boulevard,94533,38.2641075,-122.0530017
1600,Gateway Boulevard,94533,38.2608524,-122.0590557
1590,Gateway Boulevard,94533,38.2612814,-122.0588563
2701,North Texas Street,94533,38.2791081,-122.0353714
3400,North Texas Street,94533,38.2918138,-122.0312658
2401,Waterman Boulevard,94533,38.2716298,-122.0529763
598,Parker Road,94533,38.2723919,-121.9562543
1200,B Gale Wilson Boulevard,94533,38.2622081,-122.0475872
2200,The Courtyard,94533,38.2601788,-122.0594569
360,Campus Lane,94534,38.2296080,-122.1253391
4665,Business Center Drive,94534,38.2214294,-122.1336776
1350,Travis Boulevard,94533,38.2602015,-122.0538135
1350,Holiday Lane,94534,38.2559350,-122.0653414
2700,Camrose Avenue,94533,38.2800596,-122.0298672
2001,Winston Drive,94534,38.2675686,-122.0608754
3070,Travis Boulevard,94534,38.2587991,-122.0670899
1473,Holiday Lane,94534,38.2594019,-122.0647876
3060,Travis Boulevard,94534,38.2595715,-122.0668031
2980,Holiday Lane,94534,38.2588431,-122.0642210
1475,Holiday Lane,94534,38.2595793,-122.0639322
3050,Travis Boulevard,94534,38.2588583,-122.0661236
3080,Travis Boulevard,94533-3443,38.2588227,-122.0673859
2025,Fieldcrest Avenue,94534,38.2908581,-122.0418856
101,Oakwood Drive,94534,38.2328016,-122.1282515
1950,Dover Avenue,94533,38.2665438,-122.0234041
1069,Meadowlark Drive,94533,38.2673990,-122.0136286
301,East Alaska Avenue,94533,38.2715381,-122.0298018
1975,Pennsylvania Avenue,94533,38.2656257,-122.0513432
1100,Civic Center Drive,94533,38.2536866,-122.0473037
830,1st Street,94533,38.2515058,-122.0512250
824,Washington Street,94533,38.2516269,-122.0367059
1050,North Texas Street,94533,38.2535721,-122.0324362
570,Vintage Valley Drive,94534,38.2183506,-122.1459003
4078,Shaker Run Circle,94533,38.2972890,-122.0179287
4074,Shaker Run Circle,94533,38.2972824,-122.0177006
1768,Doncaster Court,94533,38.2970203,-122.0163759
4050,Shaker Run Circle,94533,38.2973143,-122.0164033
4054,Shaker Run Circle,94533,38.2972959,-122.0166320
4058,Shaker Run Circle,94533,38.2972989,-122.0168406
4062,Shaker Run Circle,94533,38.2972795,-122.0170670
4066,Shaker Run Circle,94533,38.2972994,-122.0172730
4070,Shaker Run Circle,94533,38.2972884,-122.0175012
4770,Canyon Hills Drive,94534,38.1699981,-122.1325894
3301,Cherry Hills Court,94534,38.2714256,-122.0811634
1600,Kidder Avenue,94533,38.2592516,-122.0290733
205,East Atlantic Avenue,94533,38.2748552,-122.0296139
900,Travis Boulevard,94533,38.2597352,-122.0431217
900,Travis Boulevard,94533,38.2598261,-122.0436721
1600,Kidder Avenue,94533,38.2600581,-122.0298322
230,Atlantic Avenue,94533,38.2768615,-122.0389575
230,Atlantic Avenue,94533,38.2773973,-122.0387904
830,1st Street,94533,38.2521026,-122.0518953
1350,Gold Hill Road,94534,38.1757170,-122.1386277
2900,Gulf Drive,94533,38.2817492,-122.0169510
5000,Red Top Road,94534,38.1996357,-122.1447632
1901,Woolner Avenue,94533,38.2442979,-122.0636618
2525,North Watney Way,94533,38.2364446,-122.0775545
1000,Kentucky Street,94533,38.2520875,-122.0461961
1000,Webster Street,94533,38.2526147,-122.0454431
1150,Kentucky Street,94533,38.2521043,-122.0479004
1000,Webster Street,94533,38.2522099,-122.0447295
4736,Sweetwater Place,94534,38.1618631,-122.1350086
4732,Sweetwater Place,94534,38.1620178,-122.1350621
4728,Sweetwater Place,94534,38.1621823,-122.1348993
4724,Sweetwater Place,94534,38.1622490,-122.1347283
4720,Sweetwater Place,94534,38.1623125,-122.1345742
4716,Sweetwater Place,94534,38.1623932,-122.1343966
2169,Lariat Drive,94534,38.1626134,-122.1323967
2165,Lariat Drive,94534,38.1625000,-122.1326754
2161,Lariat Drive,94534,38.1626081,-122.1328410
4712,Sweetwater Place,94534,38.1624423,-122.1341824
4708,Sweetwater Place,94534,38.1624614,-122.1339974
4704,Sweetwater Place,94534,38.1624630,-122.1338114
4700,Sweetwater Drive,94534,38.1625104,-122.1336236
2153,Sweetwater Drive,94534,38.1627033,-122.1336669
4701,Stetson Drive,94534,38.1628824,-122.1337772
4705,Stetson Drive,94534,38.1628043,-122.1339527
4709,Stetson Drive,94534,38.1627216,-122.1341455
4713,Stetson Drive,94534,38.1626509,-122.1343269
1550,Gateway Boulevard,94533,38.2635154,-122.0559973
2641,North Texas Street,94533,38.2770704,-122.0359323
3003,Muse Way,94533,38.2849041,-122.0033657
3500,Nelson Road,94533,38.2934688,-122.0308010
3340,North Texas Street,94533,38.2914405,-122.0333667
3346,North Texas Street,94533,38.2920653,-122.0328128
1327,West Texas Street,94533,38.2490289,-122.0519854
1340,Gateway Boulevard,94533,38.2625773,-122.0540132
1300,Gateway Boulevard,94533,38.2630070,-122.0505619
1450,Travis Boulevard,94533,38.2586120,-122.0539579
1525,Travis Boulevard,94533,38.2583875,-122.0576860
1019,Oliver Road,94534,38.2518447,-122.0693809
1027,Oliver Road,94534,38.2522737,-122.0687798
3201,Hartford Avenue,94534,38.2543678,-122.0673198
1549,Gateway Boulevard,94533,38.2605125,-122.0562615
2590,North Texas Street,94533,38.2760707,-122.0332029
2415,North Texas Street,94533-1603,38.2737970,-122.0347520
2487,Oakmont Court,94534,38.2771862,-122.0732794
2489,Oakmont Court,94534,38.2773672,-122.0732868
2485,Oakmont Court,94534,38.2769357,-122.0733738
2488,Oakmont Court,94534,38.2774342,-122.0727064
2486,Oakmont Court,94534,38.2771932,-122.0727103
2484,Oakmont Court,94534,38.2769581,-122.0726827
1420,West Texas Street,94533,38.2495670,-122.0530804
1440,West Texas Street,94533,38.2496727,-122.0538300
1513,West Texas Street,94533,38.2490466,-122.0558198
699,Beck Avenue,94533,38.2490450,-122.0670236
1364,Holiday Lane,94534,38.2573010,-122.0646902
2212,No Texas Street,94533-2102,38.2692327,-122.0337582
2045,North Texas,94533,38.2672630,-122.0345813
206,East Tabor Avenue,94533-3967,38.2658960,-122.0322500
609,Beck Avenue,94533,38.2481453,-122.0672292
425,Beck Avenue,94533,38.2462382,-122.0671844
160,Serrano Drive,94533,38.2466898,-122.0729722
1234,Empire Street,94533,38.2511340,-122.0491088
675,Texas Street,94533,38.2481853,-122.0412289
834,Texas Street,94533,38.2495114,-122.0441253
315,Pittman Road,94534,38.2199194,-122.1284648
316,Pittman Road,94534,38.2192564,-122.1272494
4373,Central Place,94534,38.2226359,-122.1249596
4625,Central Way,94534,38.2183460,-122.1318510
721,Texas Street,94533,38.2490114,-122.0423432
5350,One Lake Drive,94533,38.2933903,-121.9590289
639,Jade Way,94534,38.2304125,-122.1300555
643,Jade Way,94534,38.2305245,-122.1300000
647,Jade Way,94534,38.2306130,-122.1299570
651,Jade Way,94534,38.2307125,-122.1299120
4565,Stellata Lane,94534,38.2318605,-122.1291975
640,Jade Way,94534,38.2302760,-122.1296405
644,Jade Way,94534,38.2303895,-122.1295870
648,Jade Way,94534,38.2304820,-122.1295250
652,Jade Way,94534,38.2305825,-122.1294710
653,Granite Lane,94534,38.2305230,-122.1292335
649,Granite Lane,94534,38.2304110,-122.1292840
645,Granite Lane,94534,38.2303100,-122.1293265
641,Granite Lane,94534,38.2302055,-122.1293980
644,Granite Lane,94534,38.2301360,-122.1290185
648,Granite Lane,94534,38.2302395,-122.1289625
652,Granite Lane,94534,38.2304365,-122.1288560
656,Granite Lane,94534,38.2305355,-122.1288140
660,Granite Lane,94534,38.2306370,-122.1287550
664,Granite Lane,94534,38.2307330,-122.1287065
668,Granite Lane,94534,38.2308335,-122.1286555
672,Granite Lane,94534,38.2309349,-122.1285801
676,Granite Lane,94534,38.2310837,-122.1285141
680,Granite Lane,94534,38.2312010,-122.1284495
684,Granite Lane,94534,38.2313085,-122.1283880
688,Granite Lane,94534,38.2314190,-122.1283365
692,Granite Lane,94534,38.2315270,-122.1282795
696,Granite Lane,94534,38.2316375,-122.1282285
700,Granite Lane,94534,38.2317446,-122.1281675
689,Granite Lane,94534,38.2316875,-122.1286430
688,Jade Way,94534,38.2317270,-122.1288915
684,Jade Way,94534,38.2316175,-122.1289600
680,Jade Way,94534,38.2315080,-122.1290045
676,Jade Way,94534,38.2314015,-122.1290625
672,Jade Way,94534,38.2312845,-122.1291225
668,Jade Way,94534,38.2311765,-122.1291800
669,Granite Lane,94534,38.2311515,-122.1289185
673,Granite Lane,94534,38.2312625,-122.1288675
677,Granite Lane,94534,38.2313625,-122.1288160
681,Granite Lane,94534,38.2314700,-122.1287540
685,Granite Lane,94534,38.2315800,-122.1287060
4565,Alba Place,94534,38.2314105,-122.1294285
4569,Alba Place,94534,38.2314504,-122.1295669
4573,Alba Place,94534,38.2314915,-122.1296985
663,Jade Way,94534,38.2312865,-122.1295955
659,Jade Way,94534,38.2310700,-122.1297305
655,Jade Way,94534,38.2309575,-122.1297860
656,Jade Way,94534,38.2307905,-122.1293690
660,Jade Way,94534,38.2309065,-122.1293075
664,Jade Way,94534,38.2310139,-122.1292645
661,Granite Lane,94534,38.2308388,-122.1290635
657,Granite Lane,94534,38.2307275,-122.1291215
600,Lopes Road,94534,38.1976769,-122.1405897
5140,Business Center Drive,94534,38.2170650,-122.1466100
249,Lopes Road,94534,38.2108380,-122.1387880
4441,Central Place,94534,38.2212920,-122.1252500
4445,Central Place,94534,38.2210670,-122.1257150
4447,Central Place,94534,38.2207985,-122.1261903
4455,Central Way,94534,38.2205234,-122.1281522
4475,Central Way,94534,38.2207895,-122.1286690
190,Pittman Road,94534-1654,38.2214275,-122.1266445
4400,Central Place,94533,38.2221413,-122.1262064
4400,Central Place,94534,38.2226155,-122.1261810
507,Meadow Valley Circle,94534,38.2176010,-122.1297830
511,Meadow Valley Circle,94534,38.2174805,-122.1298655
503,Meadow Valley Circle,94534,38.2177770,-122.1296840
4422,Meadow Valley Circle,94534,38.2178490,-122.1294975
510,Meadow Valley Circle,94534,38.2173265,-122.1294445
515,Meadow Valley Circle,94534,38.2173315,-122.1299500
519,Meadow Valley Circle,94534,38.2171795,-122.1299925
523,Meadow Valley Circle,94534,38.2170315,-122.1300395
527,Meadow Valley Circle,94534,38.2168855,-122.1300560
531,Meadow Valley Circle,94534,38.2166897,-122.1300279
4431,Meadow Valley Circle,94534,38.2165800,-122.1298510
4435,Meadow Valley Circle,94534,38.2166130,-122.1296565
4439,Meadow Valley Circle,94534,38.2165760,-122.1294890
4443,Meadow Valley Circle,94534,38.2165235,-122.1293240
4447,Meadow Valley Circle,94534,38.2164870,-122.1291605
514,Meadow Valley Circle,94534,38.2170140,-122.1295575
4451,Meadow Valley Circle,94534,38.2164330,-122.1289970
4455,Meadow Valley Circle,94534,38.2163900,-122.1288345
4448,Meadow Valley Circle,94534,38.2168045,-122.1288980
509,East Meadows Lane,94534,38.2167605,-122.1286960
505,East Meadows Lane,94534,38.2170140,-122.1286075
4401,East Meadows Lane,94534,38.2170720,-122.1287990
4405,East Meadows Lane,94534,38.2171315,-122.1289610
4409,Meadow Valley Circle,94534,38.2171885,-122.1291355
4444,Meadow Valley Circle,94534,38.2168605,-122.1290680
4440,Meadow Valley Circle,94534,38.2169020,-122.1292420
4436,Meadow Valley Circle,94534,38.2169490,-122.1294050
4413,Meadow Valley Circle,94534,38.2172585,-122.1292925
501,East Meadows Lane,94534,38.2174215,-122.1284545
4402,Meadow Valley Circle,94534,38.2174590,-122.1286255
4406,Meadow Valley Circle,94534,38.2175175,-122.1287940
4410,Meadow Valley Circle,94534,38.2175665,-122.1289710
4414,Meadow Valley Circle,94534,38.2176375,-122.1291305
4418,Meadow Valley Circle,94534,38.2177575,-122.1292475
530,Starwood Court,94534,38.2190960,-122.1263275
534,Starwood Court,94534,38.2192160,-122.1262750
538,Starwood Court,94534,38.2193310,-122.1262155
542,Starwood Court,94534,38.2195780,-122.1260665
546,Starwood Court,94534,38.2197015,-122.1260155
549,Starwood Court,94534,38.2197100,-122.1263060
541,Starwood Court,94534,38.2196720,-122.1265375
537,Starwood Court,94534,38.2194455,-122.1265925
533,Starwood Court,94534,38.2193245,-122.1266340
510,Starwood Court,94534,38.2183760,-122.1267005
514,Starwood Court,94534,38.2184920,-122.1266215
518,Starwood Court,94534,38.2186285,-122.1265740
522,Starwood Court,94534,38.2187680,-122.1265175
526,Starwood Court,94534,38.2188945,-122.1264350
529,Starwood Court,94534,38.2190835,-122.1267260
525,Starwood Court,94534,38.2189690,-122.1267860
521,Starwood Court,94534,38.2188555,-122.1268560
517,Starwood Court,94534,38.2187460,-122.1269105
513,Starwood Court,94534,38.2186275,-122.1269760
509,Starwood Court,94534,38.2185125,-122.1270420
505,Starwood Court,94534,38.2184030,-122.1271225
501,Starwood Court,94534,38.2182240,-122.1272835
497,Starwood Court,94534,38.2181810,-122.1271295
493,Starwood Court,94534,38.2181245,-122.1269685
489,Starwood Court,94534,38.2180795,-122.1268225
485,Starwood Court,94534,38.2180425,-122.1266700
481,Starwood Court,94534,38.2177560,-122.1267115
477,Starwood Court,94534,38.2176285,-122.1267615
506,East Meadows Lane,94534,38.2169310,-122.1281990
4301,Spring Creek Court,94534,38.2169020,-122.1280310
4305,Spring Creek Court,94534,38.2168595,-122.1278655
4309,Spring Creek Court,94534,38.2168145,-122.1277015
4313,Spring Creek Court,94534,38.2167805,-122.1275315
4317,Spring Creek Court,94534,38.2167395,-122.1273715
4321,Spring Creek Court,94534,38.2167025,-122.1271995
4325,Spring Creek Court,94534,38.2166245,-122.1270525
4329,Spring Creek Court,94534,38.2164885,-122.1268410
4330,Spring Creek Court,94534,38.2169935,-122.1266695
4326,Spring Creek Court,94534,38.2170483,-122.1268602
4322,Spring Creek Court,94534,38.2170810,-122.1270170
4318,Spring Creek Court,94534,38.2171345,-122.1272105
4314,Spring Creek Court,94534,38.2171545,-122.1273709
4310,Spring Creek Court,94534,38.2172080,-122.1275385
4306,Spring Creek Court,94534,38.2172331,-122.1276956
4302,Spring Creek Court,94534,38.2172865,-122.1278695
502,East Meadows Lane,94534,38.2173140,-122.1280520
4593,Central Way,94534,38.2190045,-122.1307315
104,Commerce Court,94534,38.2186052,-122.1327309
2105,Percheron Drive,94534,38.1662390,-122.1268620
2109,Percheron Drive,94534,38.1661350,-122.1267795
2113,Percheron Drive,94534,38.1660330,-122.1266885
2117,Percheron Drive,94534,38.1659270,-122.1265980
2121,Percheron Drive,94534,38.1658265,-122.1265170
2125,Percheron Drive,94534,38.1657300,-122.1264190
2131,Percheron Drive,94534,38.1656225,-122.1263415
2135,Percheron Drive,94534,38.1655240,-122.1262475
2139,Percheron Drive,94534,38.1654165,-122.1261620
2143,Percheron Drive,94534,38.1653175,-122.1260750
2147,Percheron Drive,94534,38.1652115,-122.1259895
2151,Percheron Drive,94534,38.1651105,-122.1258995
4779,Summerset Drive,94534,38.1694195,-122.1275560
4775,Summerset Drive,94534,38.1693005,-122.1276505
1942,Bramblewood Court,94534,38.1691590,-122.1274420
1950,Bramblewood Court,94534,38.1689125,-122.1272020
1954,Bramblewood Court,94534,38.1687760,-122.1272075
1958,Bramblewood Court,94534,38.1685875,-122.1273285
1957,Bramblewood Court,94534,38.1685185,-122.1275015
1953,Bramblewood Court,94534,38.1686025,-122.1277360
1949,Bramblewood Court,94534,38.1686955,-122.1278435
4771,Summerset Drive,94534,38.1689880,-122.1279180
4767,Summerset Drive,94534,38.1688650,-122.1280310
4763,Summerset Drive,94534,38.1687615,-122.1281310
4759,Summerset Drive,94534,38.1686530,-122.1282520
4755,Summerset Drive,94534,38.1685775,-122.1283860
1942,Leaning Oak Court,94534,38.1684440,-122.1281465
1946,Leaning Oak Court,94534,38.1683550,-122.1280075
1950,Leaning Oak Court,94534,38.1681945,-122.1278500
1954,Leaning Oak Court,94534,38.1680435,-122.1279400
1955,Leaning Oak Court,94534,38.1678940,-122.1281335
1951,Leaning Oak Court,94534,38.1679150,-122.1283240
1947,Leaning Oak Court,94534,38.1680285,-122.1285155
1943,Leaning Oak Court,94534,38.1681405,-122.1285850
1939,Leaning Oak Court,94534,38.1682445,-122.1287095
1935,Leaning Oak Court,94534,38.1683685,-122.1287905
4756,Summerset Drive,94534,38.1689195,-122.1286835
4760,Summerset Drive,94534,38.1690090,-122.1285735
4764,Summerset Drive,94534,38.1690815,-122.1284615
4768,Summerset Drive,94534,38.1691800,-122.1283805
4776,Summerset Drive,94534,38.1694850,-122.1281045
4780,Summerset Drive,94534,38.1696085,-122.1280545
4784,Summerset Drive,94534,38.1696925,-122.1279860
4788,Summerset Drive,94534,38.1698140,-122.1279395
4792,Summerset Drive,94534,38.1699080,-122.1278570
4796,Summerset Drive,94534,38.1700140,-122.1277850
740,5th Street,94533,38.2502560,-122.0605515
730,5th Street,94533,38.2500390,-122.0605060
1746,Indiana Street,94533,38.2505720,-122.0602143
1734,Indiana Street,94533,38.2505680,-122.0599213
1726,Indiana Street,94533,38.2505697,-122.0597662
738,Webster Street,94533,38.2500950,-122.0427505
400,Brennan Circle,94535,38.2702775,-121.9308394
534,Parker Road,94535,38.2725210,-121.9552518
1070,North Texas Street,94533,38.2543110,-122.0337135
2051,Walters Road,94533,38.2653210,-121.9888435
1948,North Texas Street,94533,38.2636653,-122.0336266
1908,North Texas Street,94533,38.2632415,-122.0329385
1000,Webster Street,94533,38.2527275,-122.0449295
510,East Meadows Lane,94534,38.2166635,-122.1282920
5067,Golden Prairie Court,94534,38.2241045,-122.1450725
5082,Grass Valley Court,94534,38.2250625,-122.1457540
5089,Grass Valley Court,94534,38.2250108,-122.1450767
5086,Grass Valley Court,94534,38.2253214,-122.1456046
5090,Grass Valley Court,94534,38.2254043,-122.1453293
657,Renaissance Avenue,94534,38.2252570,-122.1477515
5071,Golden Prairie Court,94534,38.2241340,-122.1448000
5075,Golden Prairie Court,94534,38.2243230,-122.1445565
5080,Golden Prairie Court,94534,38.2247895,-122.1448195
5081,Grass Valley Court,94534,38.2248865,-122.1456130
5079,Golden Prairie Court,94534,38.2245030,-122.1444120
5072,Golden Prairie Court,94534,38.2244830,-122.1452810
5076,Golden Prairie Court,94534,38.2246155,-122.1449675
5068,Golden Prairie Court,94534,38.2242905,-122.1452670
1070,North Texas Street,94533,38.2546730,-122.0337105
1430,North Texas Street,94533,38.2571465,-122.0339305
4550,Cordelia Road,94534,38.2121665,-122.1302620
737,5th Street,94533,38.2500530,-122.0610430
1807-1809,Indiana Street,94533,38.2500980,-122.0612345
1813-1815,Indiana Street,94533,38.2500985,-122.0614490
1806,Indiana Street,94533,38.2504430,-122.0612380
1824,Indiana Street,94533,38.2504495,-122.0618640
1837-1839,Indiana Street,94533,38.2500995,-122.0622855
801,5th Street,94533,38.2504740,-122.0610145
1818,Indiana Street,94533,38.2504555,-122.0616540
1812,Indiana Street,94533,38.2504585,-122.0614455
1836,Indiana Street,94533,38.2504505,-122.0622810
1830,Indiana Street,94533,38.2504570,-122.0620730
1819-1821,Indiana Street,94533,38.2500545,-122.0616510
1843-1845,Indiana Street,94533,38.2500570,-122.0624875
1849-1851,Indiana Street,94533,38.2500570,-122.0627030
1825-1827,Indiana Street,94533,38.2500555,-122.0618665
2600,Huntington Drive,94533,38.2807460,-121.9716545
1615,West Texas Street,94533,38.2490500,-122.0570935
1831-1833,Indiana Street,94533,38.2500990,-122.0620690
1741,West Texas Street,94533,38.2481570,-122.0612465
4501,Business Center Drive,94534,38.2256706,-122.1317356
4501,Business Center Drive,94534,38.2256264,-122.1306306
4501,Business Center Drive,94534,38.2265451,-122.1304777
3700,Lyon Road,94534,38.2985054,-122.0356010
665,Granite Lane,94534,38.2309449,-122.1290189
1946,Bramblewood Court,94534,38.1690561,-122.1273495
4755,Business Center Drive,94534,38.2201958,-122.1371735
2399,Auto Mall Parkway,94533,38.2458304,-122.0751569
4501,Business Center Drive,94534,38.2264432,-122.1314410
4555,Business Center Drive,94534,38.2236152,-122.1316431
4860,Business Center Drive,94534,38.2196024,-122.1404799
4750,Business Center Drive,94534,38.2217931,-122.1378463
4700,Business Center Drive,94534,38.2221948,-122.1359552
2370,North Watney Way,94533,38.2389087,-122.0759108
1695,Sunset Avenue,94533,38.2606050,-122.0219758
1685,Sunset Avenue,94533,38.2601939,-122.0202825
1450,Travis Boulevard,94533,38.2585294,-122.0539569
1450,Travis Boulevard,94533,38.2584191,-122.0539566
2225,Huntington Drive,94533,38.2737394,-121.9792477
3900,Business Center Drive,94534,38.2315259,-122.1187333
4501,Business Center Drive,94534,38.2258874,-122.1311607
3950,Business Center Drive,94534,38.2300095,-122.1203577
450,Pittman Road,94534,38.2138518,-122.1284691
2100,West Texas Street,94533,38.2502017,-122.0647016
2234,North Texas Street,94533,38.2711920,-122.0338673
503,Havenhill Road,94534,38.2011247,-122.1521615
511,Havenhill Road,94534,38.2009437,-122.1519377
549,Havenhill Road,94534,38.1998193,-122.1511861
525,Havenhill Road,94534,38.2006651,-122.1515290
507,Havenhill Road,94534,38.2010243,-122.1520546
521,Havenhill Road,94534,38.2007487,-122.1516543
533,Havenhill Road,94534,38.2004601,-122.1513229
541,Havenhill Road,94534,38.2000752,-122.1512513
502,Havenhill Road,94534,38.2014650,-122.1517281
545,Havenhill Road,94534,38.1999461,-122.1512039
529,Havenhill Road,94534,38.2005783,-122.1514219
1738,Indiana Street,94533,38.2505700,-122.0600579
1722,Indiana Street,94533,38.2505683,-122.0596285
1750,Indiana Street,94533,38.2505710,-122.0603472
2024,Parsons Drive,94533,38.2646881,-121.9911933
2052,Parsons Drive,94533,38.2646787,-121.9900555
2028,Parsons Drive,94533,38.2646876,-121.9910258
2020,Parsons Drive,94533,38.2646907,-121.9913288
2032,Parsons Drive,94533,38.2646850,-121.9908903
2048,Parsons Drive,94533,38.2646841,-121.9902160
2044,Parsons Drive,94533,38.2646867,-121.9903514
2056,Parsons Drive,94533,38.2646761,-121.9899201
2040,Parsons Drive,94533,38.2646859,-121.9905224
2064,Parsons Drive,94533,38.2646588,-121.9896025
2072,Parsons Drive,94533,38.2646532,-121.9892642
2068,Parsons Drive,94533,38.2646561,-121.9894050
2084,Parsons Drive,94533,38.2646464,-121.9888000
2096,Parsons Drive,94533,38.2644846,-121.9883718
2092,Parsons Drive,94533,38.2646420,-121.9885024
2060,Parsons Drive,94533,38.2646669,-121.9897447
2088,Parsons Drive,94533,38.2646434,-121.9886593
2076,Parsons Drive,94533,38.2646512,-121.9891052
2080,Parsons Drive,94533,38.2646555,-121.9889706
5085,Grass Valley Court,94534,38.2248513,-122.1452458
1971,Kalis Street,94533,38.2633742,-121.9909112
1982,Elijah Street,94533,38.2637355,-121.9911284
1975,Kalis Street,94533,38.2634970,-121.9909129
2104,Parsons Drive,94533,38.2642367,-121.9883739
1950,Elijah Street,94533,38.2627903,-121.9911410
1986,Elijah Street,94533,38.2638436,-121.9911283
2003,Kalis Street,94533,38.2643229,-121.9908989
1970,Elijah Street,94533,38.2633683,-121.9911365
2002,Elijah Street,94533,38.2643186,-121.9911234
1999,Kalis Street,94533,38.2642150,-121.9908990
1804,Cope Street,94533,38.2624991,-121.9912308
1978,Elijah Street,94533,38.2636050,-121.9911316
1994,Elijah Street,94533,38.2640773,-121.9911242
1990,Elijah Street,94533,38.2639694,-121.9911244
2112,Parsons Drive,94533,38.2640032,-121.9883715
1958,Elijah Street,94533,38.2630255,-121.9911440
1967,Kalis Street,94533,38.2632662,-121.9909114
1995,Kalis Street,94533,38.2640806,-121.9909102
1812,Cope Street,94533,38.2625001,-121.9909260
1959,Kalis Street,94533,38.2630279,-121.9909203
1963,Kalis Street,94533,38.2631360,-121.9909201
1998,Elijah Street,94533,38.2642107,-121.9911235
1962,Elijah Street,94533,38.2631334,-121.9911438
1800,Cope Street,94533,38.2625158,-121.9913967
1987,Kalis Street,94533,38.2638436,-121.9909051
1816,Cope Street,94533,38.2625000,-121.9907961
1955,Kalis Street,94533,38.2628962,-121.9909217
1951,Kalis Street,94533,38.2627882,-121.9909219
1974,Elijah Street,94533,38.2634970,-121.9911317
1966,Elijah Street,94533,38.2632604,-121.9911367
1991,Kalis Street,94533,38.2639727,-121.9909104
1944,Amelia Lane,94533,38.2628993,-121.9905484
1983,Kalis Street,94533,38.2637356,-121.9909052
1954,Elijah Street,94533,38.2628983,-121.9911408
1808,Cope Street,94533,38.2624990,-121.9911010
2108,Parsons Drive,94533,38.2641112,-121.9883714
2100,Parsons Drive,94533,38.2643446,-121.9883737
1979,Kalis Street,94533,38.2636050,-121.9909128
2004,Amelia Lane,94533,38.2643674,-121.9898855
1960,Amelia Lane,94533,38.2630968,-121.9899019
1976,Kalis Street,94533,38.2635413,-121.9905232
1989,Tamayo Way,94533,38.2638669,-121.9896721
1981,Amelia Lane,94533,38.2636684,-121.9902915
2006,Tamayo Way,94533,38.2643479,-121.9892736
1965,Tamayo Way,94533,38.2637121,-121.9888002
1972,Kalis Street,94533,38.2634311,-121.9905183
1996,Amelia Lane,94533,38.2641378,-121.9898964
1980,Kalis Street,94533,38.2636606,-121.9905122
1969,Tamayo Way,94533,38.2637146,-121.9889681
1964,Amelia Lane,94533,38.2632003,-121.9899078
1969,Amelia Lane,94533,38.2632977,-121.9903044
1988,Kalis Street,94533,38.2638979,-121.9905114
1953,Tamayo Way,94533,38.2637047,-121.9883715
2079,Parsons Drive,94533,38.2643431,-121.9889679
1968,Amelia Lane,94533,38.2633314,-121.9898994
1957,Tamayo Way,94533,38.2637086,-121.9885040
1973,Amelia Lane,94533,38.2634350,-121.9903011
1968,Kalis Street,94533,38.2633002,-121.9905257
1993,Amelia Lane,94533,38.2640034,-121.9903001
1974,Tamayo Way,94533,38.2640278,-121.9890837
1970,Tamayo Way,94533,38.2640231,-121.9889509
2005,Tamayo Way,94533,38.2643425,-121.9896772
2109,Parsons Drive,94533,38.2641146,-121.9887651
1980,Amelia Lane,94533,38.2636644,-121.9899001
1994,Tamayo Way,94533,38.2640092,-121.9892837
2105,Parsons Drive,94533,38.2642458,-121.9887647
1981,Tamayo Way,94533,38.2637257,-121.9894244
1997,Tamayo Way,94533,38.2641061,-121.9896700
1972,Amelia Lane,94533,38.2634349,-121.9899052
1998,Tamayo Way,94533,38.2641136,-121.9892781
2075,Parsons Drive,94533,38.2643453,-121.9890990
1984,Amelia Lane,94533,38.2637929,-121.9898954
1992,Kalis Street,94533,38.2640081,-121.9905163
2000,Amelia Lane,94533,38.2642612,-121.9898947
1977,Amelia Lane,94533,38.2635369,-121.9903018
1964,Kalis Street,94533,38.2631899,-121.9905208
1984,Kalis Street,94533,38.2637709,-121.9905171
1985,Tamayo Way,94533,38.2637650,-121.9896715
1965,Amelia Lane,94533,38.2631958,-121.9903038
1976,Amelia Lane,94533,38.2635608,-121.9898942
1977,Tamayo Way,94533,38.2637167,-121.9892550
1989,Amelia Lane,94533,38.2639015,-121.9902996
1992,Amelia Lane,94533,38.2640342,-121.9898905
2001,Tamayo Way,94533,38.2642406,-121.9896767
1985,Amelia Lane,94533,38.2637703,-121.9902920
2002,Tamayo Way,94533,38.2642440,-121.9892784
1988,Amelia Lane,94533,38.2638964,-121.9899013
2113,Parsons Drive,94533,38.2640106,-121.9887724
2101,Parsons Drive,94533,38.2643500,-121.9887569
1973,Tamayo Way,94533,38.2637180,-121.9891008
1993,Tamayo Way,94533,38.2640042,-121.9896693
1961,Tamayo Way,94533,38.2637094,-121.9886685
2200,North Watney Way,94534,38.2385260,-122.0705716
1942,North Texas Street,94533,38.2636124,-122.0337880
1950,North Texas Street,94533,38.2637635,-122.0331859
1936,North Texas Street,94533,38.2636160,-122.0339549
1206,North Texas Street,94533,38.2553940,-122.0338067
4570,Stellata Lane,94534,38.2321604,-122.1291687
4574,Stellata Lane,94534,38.2322074,-122.1293010
4569,Stellata Lane,94534,38.2319081,-122.1293384
704,Granite Lane,94534,38.2318483,-122.1281021
4570,Alba Place,94534,38.2317180,-122.1294321
4562,Stellata Lane,94534,38.2320957,-122.1288932
4554,Stellata Lane,94534,38.2320179,-122.1285961
4573,Stellata Lane,94534,38.2319630,-122.1294834
4558,Stellata Lane,94534,38.2320409,-122.1287380
4566,Alba Place,94534,38.2316692,-122.1293006
4566,Stellata Lane,94534,38.2321338,-122.1290165
4578,Stellata Lane,94534,38.2322482,-122.1294629
4550,Stellata Lane,94534,38.2319685,-122.1284501
4574,Alba Place,94534,38.2317596,-122.1295651
5256,Comfrey Street,94534,38.2002743,-122.1516778
5248,Comfrey Street,94534,38.2000991,-122.1518985
5232,Comfrey Street,94534,38.1997652,-122.1523609
5252,Comfrey Street,94534,38.2001880,-122.1517776
5236,Comfrey Street,94534,38.1998393,-122.1522500
5243,Comfrey Street,94534,38.1997849,-122.1516539
5239,Comfrey Street,94534,38.1996893,-122.1517855
5260,Comfrey Street,94534,38.2003608,-122.1515626
5235,Comfrey Street,94534,38.1995946,-122.1518994
5247,Comfrey Street,94534,38.1998717,-122.1515372
5244,Comfrey Street,94534,38.2000322,-122.1520120
5240,Comfrey Street,94534,38.1999325,-122.1521322
4132,Cordelia Road,94534,38.2151633,-122.1206701
2700-2720,Low Court,94534,38.2368477,-122.0856036
2780,North Texas Street,94533,38.2792583,-122.0333207
2420-2450,Martin Road,94533,38.2740579,-122.0512019
2801,Dover Avenue,94533,38.2821097,-122.0263205
840,East Travis Boulevard,94533,38.2589590,-122.0218998
1700,East Tabor Avenue,94533,38.2656672,-121.9956399
1961,Walters Road,95688,38.2645854,-121.9873022
1810,East Tabor Avenue,94533,38.2653400,-121.9926104
1837,Blossom Avenue,94533,38.2623970,-122.0156864
4685,Central Way,94534,38.2178410,-122.1348531
2005,Huntington Drive,94533-9704,38.2720921,-121.9875738
530,Union Avenue,94533,38.2474653,-122.0396396
3950,Paradise Valley Drive,94533,38.3018266,-122.0251562
3250,Rancho Solano Parkway,94534,38.2894577,-122.0762316
5350,One Lake Drive,94533,38.2957673,-121.9567421
2400,Village Square Boulevard,94533,38.2913665,-121.9598673
4775,Business Center Drive,94534,38.2200180,-122.1379234
4625,Mangels Boulevard,94534,38.2235687,-122.1366853
