House number,Street name,Postal code,Latitude,Longitude
7650,Tamarind Avenue,92336,34.1141774,-117.4231030
7951,Redwood Ave,92336,34.1092325,-117.4836645
7895,Redwood Ave,92336,34.1103702,-117.4828466
7751,Cherry Ave,92336,34.1129372,-117.4878129
14605,Miller Ave,92336,34.1136561,-117.4857437
14650,Miller Ave,92336,34.1149402,-117.4845024
14750,Miller Avenue,92336,34.1136459,-117.4830834
15050,Hilton Dr,92336,34.1087375,-117.4780820
15030,Hilton Dr,92336,34.1087527,-117.4785572
15020,Hilton Dr,92336,34.1087139,-117.4788425
15000,Hilton Dr,92336,34.1087614,-117.4793523
15060,Hilton Dr,92336,34.1086707,-117.4776842
15080,Hilton Dr,92336,34.1086775,-117.4772039
15090,Hilton Dr,92336,34.1086691,-117.4767736
15100,Hilton Dr,92336,34.1086683,-117.4761697
14980,Hilton Dr,92336,34.1087403,-117.4796501
14900,Hilton Dr,92336,34.1087095,-117.4801349
7875,Hemlock Ave,92336,34.1085899,-117.4750101
7526,Alder Avenue,92336,34.1169416,-117.4190240
14187,Slover Ave,92337,34.0627233,-117.4958563
15352,Duncan Canyon Rd,92336,34.1653120,-117.4696478
16953,Sierra Lakes Pkwy,92336,34.1380331,-117.4347130
16923,Sierra Lakes Parkway,92336,34.1388340,-117.4355345
15953,Sierra Lakes Pkwy,92336,34.1381072,-117.4351028
4400,Sierra Ave,92336,34.1738655,-117.4365498
15270,Summit Avenue,92336,34.1505387,-117.4726390
15953,Sierra Lakes Pkwy,92336,34.1380592,-117.4348390
5714,Hacienda Court,92336,34.1501851,-117.4441937
5713,Hacienda Court,92336,34.1502114,-117.4439761
16655,Foothill Boulevard,92335,34.1062775,-117.4415940
15331,Baseline Avenue,92336,34.1208161,-117.4703000
17914,Foothill Boulevard,92335,34.1068911,-117.4136140
16385,Merrill Ave,92335,34.0920575,-117.4504666
16550,Jurupa Avenue,92336,34.0487147,-117.4426460
6936,Madison way,92336,34.1280058,-117.4422576
15272,Summit Avenue,92336,34.1522117,-117.4728720
17741,Foothill Boulevard,92335,34.1063646,-117.4174270
14189,Foothill Boulevard,92335,34.1060349,-117.4954275
15235,Beartree Street,92336,34.1252835,-117.4725254
7798,Cherry Avenue,92336,34.1122776,-117.4890206
152234,Summit Avenue,92336,34.1510216,-117.4711450
8426,Almeria Avenue,92335,34.1009809,-117.4590926
7641,Sierra Avenue,92336,34.1150035,-117.4347930
16923,Sierra Lakes Parkway,92336,34.1390408,-117.4355281
7093,7093 Mango Ave,92336,34.1251151,-117.4313476
7572,Laurel Avenue,92336,34.1163705,-117.4145924
17312,Foothill Boulevard,92335,34.1070823,-117.4267395
17710,Foothill Boulevard,92335,34.1071758,-117.4180620
17725,Foothill Boulevard,92335,34.1061621,-117.4178230
16925,Foothill Boulevard,92335,34.1062402,-117.4352990
16595,Sierra Lakes Parkway,92336,34.1383911,-117.4414888
16595,Sierra Lakes Parkway,92336,34.1385366,-117.4414929
10654,Juniper Avenue,92337,34.0602021,-117.4407078
16894,Valley Boulevard,92335,34.0707322,-117.4360510
16951,Foothill Boulevard,92335,34.1063247,-117.4345131
16184,Foothill Boulevard,92335,34.1077096,-117.4524079
7875,Tamarind Avenue,92336,34.1106079,-117.4222805
8275,Sierra Avenue,92335,34.1035357,-117.4354166
16701,Arrow Boulevard,92335,34.0988658,-117.4396699
8188,Sierra Avenue,92335,34.1052348,-117.4365010
8188,Sierra Avenue,92335,34.1051955,-117.4361708
8188,Sierra Avenue,92335,34.1052379,-117.4360380
8818,Sierra Avenue,92335,34.1051387,-117.4365248
16970,Foothill Boulevard,92336,34.1078467,-117.4338581
16970,Foothill Boulevard,92335,34.1077421,-117.4338580
16980,Foothill Boulevard,92336,34.1076097,-117.4338470
16980,Foothill Boulevard,92335,34.1074929,-117.4338571
16990,Foothill Boulevard,92335,34.1072010,-117.4338440
16980,Foothill Boulevard,92335,34.1073538,-117.4338480
16960,Foothill Boulevard,92335,34.1079283,-117.4339842
16960,Foothill Boulevard,92335,34.1079316,-117.4341064
16960,Foothill Boulevard,92335,34.1079529,-117.4340298
16960,Foothill Boulevard,92335,34.1079416,-117.4338989
16920,Sierra Avenue,92335,34.1079268,-117.4349048
16920,Sierra Avenue,92335,34.1079306,-117.4350721
16920,Foothill Boulevard,92335,34.1079581,-117.4348360
9610,Sierra Avenue,92335,34.0793725,-117.4361500
10550,Sierra Avenue,92335,34.0616948,-117.4365891
10540,Sierra Avenue,92337,34.0621081,-117.4362418
10540,Sierra Avenue,92337,34.0619276,-117.4362592
10515,Sierra Avenue,92337,34.0627038,-117.4350285
10515,Sierra Avenue,92335,34.0626371,-117.4350410
10067,Sierra Avenue,92335,34.0712701,-117.4353100
10067,Sierra Avenue,92335,34.0712701,-117.4350710
11285,Sierra Avenue,92337,34.0486918,-117.4348780
11285,Sierra Avenue,92337,34.0487006,-117.4347160
8260,Sierra Avenue,92335,34.1037920,-117.4368007
8262,Sierra Avenue,92335,34.1037323,-117.4367986
8266,Sierra Avenue,92335,34.1036877,-117.4368027
8256,Sierra Avenue,92335,34.1038644,-117.4367813
8254,Sierra Avenue,92335,34.1039014,-117.4367813
8252,Sierra Avenue,92335,34.1039351,-117.4367801
8248,Sierra Avenue,92335,34.1039940,-117.4367780
16960,Foothill Boulevard,92336,34.1079014,-117.4338610
16970,Foothill Boulevard,92335,34.1078057,-117.4338548
16980,Foothill Boulevard,92335,34.1072865,-117.4338517
16990,Foothill Boulevard,92335,34.1071284,-117.4338533
16920,Sierra Avenue,92335,34.1079460,-117.4349640
16001,Chase Road,92336,34.1233875,-117.4539132
16001,Chase Road,92336,34.1234501,-117.4539109
16001,Chase Road,92336,34.1234979,-117.4539092
16001,Chase Road,92336,34.1235475,-117.4539098
16001,Chase Road,92336,34.1236078,-117.4539105
16001,Chase Road,92336,34.1236538,-117.4539126
16001,Chase Road,92336,34.1236571,-117.4542665
16001,Chase Road,92336,34.1236143,-117.4542624
16001,Chase Road,92336,34.1235626,-117.4542675
16001,Chase Road,92336,34.1234027,-117.4542680
16001,Chase Road,92336,34.1234598,-117.4542610
16001,Chase Road,92336,34.1235136,-117.4542608
16001,Chase Road,92336,34.1236649,-117.4545170
16001,Chase Road,92336,34.1236605,-117.4548020
16001,Chase Road,92336,34.1236195,-117.4548020
16001,Chase Road,92336,34.1233939,-117.4548000
16001,Chase Road,92336,34.1234584,-117.4547930
16001,Chase Road,92336,34.1235228,-117.4547960
16001,Chase Road,92336,34.1235756,-117.4547994
16001,Chase Road,92336,34.1233925,-117.4550880
16001,Chase Road,92336,34.1236737,-117.4550740
16001,Chase Road,92336,34.1234584,-117.4550830
16001,Chase Road,92336,34.1236356,-117.4550740
16001,Chase Road,92336,34.1235346,-117.4550790
16001,Chase Road,92336,34.1235902,-117.4550740
16001,Chase Road,92336,34.1236723,-117.4553360
16001,Chase Road,92336,34.1236298,-117.4553380
16001,Chase Road,92336,34.1233939,-117.4553450
16001,Chase Road,92336,34.1234598,-117.4553470
16001,16001,92336,34.1235829,-117.4553400
16001,Chase Road,92336,34.1235331,-117.4553440
16001,Chase Road,92336,34.1236034,-117.4556790
16001,Chase Road,92336,34.1236034,-117.4560240
16001,Chase Road,92336,34.1236078,-117.4559620
16001,Chase Road,92336,34.1236122,-117.4558970
16001,Chase Road,92336,34.1236093,-117.4557520
16001,Chase Road,92336,34.1236137,-117.4558260
16001,Chase Road,92336,34.1238319,-117.4556630
16001,Chase Road,92336,34.1238393,-117.4560280
16001,Chase Road,92336,34.1238319,-117.4557200
16001,Chase Road,92336,34.1238334,-117.4559590
16001,Chase Road,92336,34.1238305,-117.4558760
16001,Chase Road,92336,34.1238305,-117.4557850
16001,Chase Road,92336,34.1240546,-117.4560010
16001,Chase Road,92336,34.1240692,-117.4556900
16001,Chase Road,92336,34.1240531,-117.4559310
16001,Chase Road,92336,34.1240634,-117.4557500
16001,Chase Road,92336,34.1240605,-117.4558650
16001,Chase Road,92336,34.1240590,-117.4557980
16001,Chase Road,92336,34.1242802,-117.4559890
16001,Chase Road,92336,34.1242992,-117.4556740
16001,Chase Road,92336,34.1242963,-117.4559270
16001,Chase Road,92336,34.1243007,-117.4557340
16001,Chase Road,92336,34.1243066,-117.4558720
16001,Chase Road,92336,34.1243110,-117.4558070
16001,Chase Road,92336,34.1244878,-117.4560170
16001,Chase Road,92336,34.1244878,-117.4556600
16001,Chase Road,92336,34.1245090,-117.4559470
16001,Chase Road,92336,34.1245110,-117.4557210
16001,Chase Road,92336,34.1245090,-117.4558700
16001,Chase Road,92336,34.1245110,-117.4557890
16001,Chase Road,92336,34.1247507,-117.4556700
16001,Chase Road,92336,34.1247565,-117.4559870
16001,Chase Road,92336,34.1247661,-117.4557280
16001,Chase Road,92336,34.1247700,-117.4559360
16001,Chase Road,92336,34.1247719,-117.4558050
16001,Chase Road,92336,34.1247758,-117.4558700
16001,Chase Road,92336,34.1247523,-117.4549870
16001,Chase Road,92336,34.1247391,-117.4553020
16001,Chase Road,92336,34.1247493,-117.4552560
16001,Chase Road,92336,34.1247493,-117.4550450
16001,Chase Road,92336,34.1247523,-117.4551940
16001,Chase Road,92336,34.1247508,-117.4551110
16001,Chase Road,92336,34.1245062,-117.4550280
16001,Chase Road,92336,34.1245120,-117.4553180
16001,Chase Road,92336,34.1245223,-117.4552670
16001,Chase Road,92336,34.1245106,-117.4550860
16001,Chase Road,92336,34.1245223,-117.4552070
16001,Chase Road,92336,34.1245252,-117.4551450
16001,Chase Road,92336,34.1241912,-117.4553330
16001,Chase Road,92336,34.1241941,-117.4550680
16001,Chase Road,92336,34.1239539,-117.4553400
16001,Chase Road,92336,34.1239524,-117.4550750
16001,Chase Road,92336,34.1241517,-117.4553330
16001,Chase Road,92336,34.1241517,-117.4550700
16001,Chase Road,92336,34.1240110,-117.4553400
16001,Chase Road,92336,34.1240140,-117.4550770
16001,Chase Road,92336,34.1241076,-117.4553350
16001,Chase Road,92336,34.1241121,-117.4550680
16001,Chase Road,92336,34.1240556,-117.4553387
16001,Chase Road,92336,34.1240680,-117.4550676
7261,Citrus Avenue,92336,34.1223889,-117.4532563
5812,Edward Avenue,92336,34.1483471,-117.4573495
5832,Edward Avenue,92336,34.1479476,-117.4573602
5852,Edward Avenue,92336,34.1475746,-117.4573709
5872,Edward Avenue,92336,34.1471751,-117.4574138
5711,Edward Avenue,92336,34.1501939,-117.4564581
5731,Edward Avenue,92336,34.1499187,-117.4564903
5749,Edward Avenue,92336,34.1495724,-117.4564693
5767,Edward Avenue,92336,34.1491639,-117.4564584
5785,Edward Avenue,92336,34.1487733,-117.4564590
5803,Edward Avenue,92336,34.1483649,-117.4564689
5819,Edward Avenue,92336,34.1477878,-117.4565447
5871,Edward Avenue,92336,34.1487200,-117.4555469
5714,Edward Avenue,92336,34.1501495,-117.4573700
5734,Edward Avenue,92336,34.1498832,-117.4573817
5754,Edward Avenue,92336,34.1495902,-117.4573817
5774,Edward Avenue,92336,34.1491640,-117.4573924
5792,Edward Avenue,92336,34.1487467,-117.4574246
15965,Joe Avenue,92336,34.1472905,-117.4565019
15989,Joe Avenue,92336,34.1473704,-117.4561157
16011,Joe Avenue,92336,34.1473882,-117.4556972
16029,Joe Avenue,92336,34.1474059,-117.4552359
16067,Joe Avenue,92336,34.1474237,-117.4547638
16085,Joe Avenue,92336,34.1472905,-117.4542596
16012,Joe Avenue,92336,34.1478936,-117.4556473
16030,Joe Avenue,92336,34.1479639,-117.4551164
16048,Joe Avenue,92336,34.1480283,-117.4545856
8933,Sierra Avenue,92335,34.0914382,-117.4346917
8909,Sierra Avenue,92334,34.0918475,-117.4347031
8491,Sierra Avenue,92335,34.0996125,-117.4352127
8491,Sierra Avenue,92335,34.0995692,-117.4354901
8437,Sierra Avenue,92335,34.1007832,-117.4347335
8437,Sierra Avenue,92335,34.1004260,-117.4347443
8437,Sierra Avenue,92335,34.1004988,-117.4347934
8437,Sierra Avenue,92335,34.1005028,-117.4350029
17039,Valley Boulevard,92335,34.0699199,-117.4326242
9844,Sierra Avenue,92335,34.0750185,-117.4361990
9781,Sierra Avenue,92335,34.0754355,-117.4354182
8188,Sierra Avenue,92335,34.1051941,-117.4363509
8188,Sierra Avenue,92335,34.1052414,-117.4362659
16558,Paine Street,92336,34.1078637,-117.4430955
16558,Paine Street,92336,34.1079487,-117.4430831
16558,Paine Street,92336,34.1080601,-117.4430796
16558,Paine Street,92336,34.1081509,-117.4430707
16558,Paine Street,92336,34.1082637,-117.4430991
16558,Paine Street,92336,34.1083370,-117.4430991
16558,Paine Street,92336,34.1082960,-117.4428442
16558,Paine Street,92336,34.1083091,-117.4427416
16558,Paine Street,92336,34.1083110,-117.4425889
16558,Paine Street,92336,34.1083213,-117.4425102
16558,Paine Street,92336,34.1081450,-117.4424930
16558,Paine Street,92336,34.1081460,-117.4426173
16558,Paine Street,92336,34.1081503,-117.4427796
9030,Sierra Avenue,92335,34.0899285,-117.4360985
8510,Sierra Avenue,92335,34.0990754,-117.4359840
13539,Baseline Avenue,92336,34.1209047,-117.5111392
13539,Baseline Avenue,92336,34.1207104,-117.5111292
5401,Citrus Ave,92336,34.1555760,-117.4516828
16056,Valley Boulevard,92335,34.0708167,-117.4547330
16803,Valley Boulevard,92335,34.0699763,-117.4375050
8930,Citrus Avenue,92335,34.0699345,-117.4541745
16111,Valley Boulevard,92335,34.0699854,-117.4531487
16231,Valley Boulevard,92335,34.0700301,-117.4515712
9961,Sierra Avenue,92335,34.0721044,-117.4321304
9961,Sierra Avenue,92335,34.0726410,-117.4307344
9961,Sierra Avenue,92335,34.0722803,-117.4305802
9961,Sierra Avenue,92335,34.0729692,-117.4307714
9961,Sierra Avenue,92335,34.0726681,-117.4330862
9961,Sierra Avenue,92336,34.0720720,-117.4320018
9885,Sierra Avenue,92335,34.0744925,-117.4353940
16839,Ramona Avenue,92336,34.1155852,-117.4365155
17051,Sierra Lakes Parkway,92336,34.1374923,-117.4330221
16944,South Highland Avenue,92336,34.1348912,-117.4349928
17312,Foothill Boulevard,92335,34.1070836,-117.4266532
14454,Foothill Boulevard,92335-3083,34.1071227,-117.4898227
11251,Sierra Avenue,92337,34.0492195,-117.4338300
9714,Sierra Avenue,92335,34.0772448,-117.4361437
16711,Valley Boulevard,92335,34.0691464,-117.4397585
16711,Valley Boulevard,92335,34.0692122,-117.4395038
16820,Valley Boulevard,92335,34.0708526,-117.4374924
8571,Sierra Avenue,92335,34.0980841,-117.4355209
8528,Sierra Avenue,92335,34.0989028,-117.4359836
8530,Sierra Avenue,92335,34.0987033,-117.4359558
8532,Sierra Avenue,92335,34.0986634,-117.4359545
16889,Arrow Boulevard,92335,34.0990884,-117.4361850
16887,Arrow Boulevard,92335,34.0990998,-117.4362759
8558,Sierra Avenue,92335,34.0982012,-117.4359433
8550,Sierra Avenue,92335,34.0981736,-117.4359446
8562,Sierra Avenue,92335,34.0981431,-117.4359408
8566,Sierra Avenue,92335,34.0980987,-117.4359391
8566,Sierra Avenue,92335,34.0980977,-117.4359896
8572,Sierra Avenue,92335,34.0980078,-117.4359676
9781,Sierra Avenue,92335,34.0754489,-117.4350473
8851,Sierra Avenue,92335,34.0984266,-117.4355218
8557,Sierra Avenue,92335,34.0983103,-117.4355272
8563,Sierra Avenue,92335,34.0982603,-117.4355291
8565,Sierra Avenue,92335,34.0981942,-117.4355268
8569,Sierra Avenue,92335,34.0981450,-117.4355249
8575,Sierra Avenue,92335,34.0980261,-117.4355296
8575,Sierra Avenue,92335,34.0979769,-117.4355285
8575,Sierra Avenue,92335,34.0979269,-117.4355339
7337,East Avenue,92336,34.1205786,-117.5128048
16994,Valley Boulevard,92335,34.0711292,-117.4336698
16994,Valley Boulevard,92335,34.0709709,-117.4336667
16994,Valley Boulevard,92335,34.0707693,-117.4336605
27993,Foothill Boulevard,92335,34.1059024,-117.4123396
10040,Sierra Avenue,92335,34.0713565,-117.4363134
10036,Sierra Avenue,92335,34.0714500,-117.4365631
10036,Sierra Avenue,92335,34.0715418,-117.4365753
10024,Sierra Avenue,92335,34.0716877,-117.4365788
10016,Sierra Avenue,92335,34.0717945,-117.4365716
10012,Sierra Avenue,92335,34.0719064,-117.4365610
10008,Sierra Avenue,92335,34.0720482,-117.4365417
9980,Sierra Avenue,92335,34.0721451,-117.4365540
9938,Sierra Avenue,92335,34.0734992,-117.4367493
9936,Sierra Avenue,92335,34.0735696,-117.4367522
9932,Sierra Avenue,92335,34.0736634,-117.4367460
9930,Sierra Avenue,92335,34.0737412,-117.4367513
9928,Sierra Avenue,92335,34.0738390,-117.4367352
9922,Sierra Avenue,92335,34.0737679,-117.4364053
9906,Sierra Avenue,92335,34.0737523,-117.4362793
10087,Sierra Avenue,92335,34.0709684,-117.4349516
16860,Valley Boulevard,92335,34.0706596,-117.4365716
9800,Sierra Avenue,92335,34.0755728,-117.4361667
9880,Sierra Avenue,92335,34.0741671,-117.4378115
9880,Sierra Avenue,92335,34.0741400,-117.4374623
9880,Sierra Avenue,92335,34.0742024,-117.4374634
9880,Sierra Avenue,92335,34.0742655,-117.4374676
9880,Sierra Avenue,92335,34.0743425,-117.4374589
9830,Sierra Avenue,92335,34.0754353,-117.4374922
9830,Sierra Avenue,92335,34.0754942,-117.4374821
9820,Sierra Avenue,92335,34.0755565,-117.4374699
9820,Sierra Avenue,92335,34.0756373,-117.4373967
9820,Sierra Avenue,92335,34.0756609,-117.4371853
9820,Sierra Avenue,92335,34.0756761,-117.4369312
9820,Sierra Avenue,92335,34.0756357,-117.4368560
9810,Sierra Avenue,92335,34.0756676,-117.4367482
9810,Sierra Avenue,92335,34.0756357,-117.4366660
9810,Sierra Avenue,92335,34.0756306,-117.4365856
9810,Sierra Avenue,92335,34.0756289,-117.4365226
9810,Sierra Avenue,92335,34.0756289,-117.4364630
9810,Sierra Avenue,92335,34.0756373,-117.4364100
9810,Sierra Avenue,92335,34.0756390,-117.4363530
9810,Sierra Avenue,92335,34.0756296,-117.4362940
9800,Sierra Avenue,92335,34.0755995,-117.4362460
9844,Sierra Avenue,92335,34.0751120,-117.4361831
9844,Sierra Avenue,92335,34.0751171,-117.4359473
9844,Sierra Avenue,92335,34.0750026,-117.4360790
9844,Sierra Avenue,92335,34.0749992,-117.4359250
9860,Sierra Avenue,92335,34.0742668,-117.4359860
9870,Sierra Avenue,92335,34.0742887,-117.4360652
9870,Sierra Avenue,92335,34.0743038,-117.4361792
9870,Sierra Avenue,92335,34.0742951,-117.4362951
9885,Sierra Avenue,92335,34.0742931,-117.4353961
9885,Sierra Avenue,92335,34.0741771,-117.4354054
9885,Sierra Avenue,92335,34.0743918,-117.4353560
9781,Sierra Avenue,92335,34.0754543,-117.4352237
15711,Highland Avenue,92336,34.1357354,-117.4620349
6526,Knox Avenue,92336,34.1354320,-117.4620325
15731,Highland Avenue,92336,34.1357504,-117.4616566
15737,Highland Avenue,92336,34.1357504,-117.4615550
15741,Highland Avenue,92336,34.1357655,-117.4614594
15743,Highland Avenue,92336,34.1357571,-117.4613253
6541,Knox Avenue,92336,34.1350805,-117.4616181
6557,Knox Avenue,92336,34.1347751,-117.4616181
6575,Knox Avenue,92336,34.1344350,-117.4614220
3960,Sierra Avenue,92336,34.1815352,-117.4388845
3990,Sierra Avenue,92336,34.1814731,-117.4392961
4012,Sierra Avenue,92336,34.1812974,-117.4395261
4034,Sierra Avenue,92336,34.1809431,-117.4397951
4054,Sierra Avenue,92336,34.1806943,-117.4400712
4076,Sierra Avenue,92336,34.1804278,-117.4402269
4098,Sierra Avenue,92336,34.1800868,-117.4403327
4328,Sierra Avenue,92336,34.1753045,-117.4366779
4852,Sierra Avenue,92336,34.1657063,-117.4371936
6314,Catawba Avenue,92336,34.1393341,-117.4582600
6313,Cooper Avenue,92336,34.1392985,-117.4596655
15749,Sierra Lakes Parkway,92336,34.1393074,-117.4603521
6313,Knox Avenue,92336,34.1392985,-117.4618488
6554,Knox Avenue,92336,34.1349889,-117.4619840
6570,Knox Avenue,92336,34.1346270,-117.4622200
6542,Knox Avenue,92336,34.1353264,-117.4624507
15707,Highland Avenue,92336,34.1356616,-117.4624346
15669,Highland Avenue,92336,34.1356882,-117.4628369
16148,South Highland Avenue,92336,34.1350138,-117.4526232
11683,Cherry Avenue,92337,34.0413685,-117.4839211
11683,Cherry Avenue,92337,34.0414562,-117.4839123
11683,Cherry Avenue,92337,34.0414712,-117.4840253
11275,Sierra Avenue,92337,34.0488263,-117.4337257
11275,Sierra Avenue,92337,34.0489133,-117.4338074
11275,Sierra Avenue,92337,34.0489724,-117.4338162
11251,Sierra Avenue,92337,34.0490426,-117.4338319
11251,Sierra Avenue,92337,34.0491048,-117.4338357
11251,Sierra Avenue,92337,34.0491621,-117.4338215
11251,Sierra Avenue,92337,34.0492766,-117.4338520
11251,Sierra Avenue,92337,34.0493379,-117.4338522
11251,Sierra Avenue,92337,34.0493932,-117.4338982
11251,Sierra Avenue,92337,34.0494565,-117.4339062
11201,Sierra Avenue,92337,34.0502087,-117.4338768
11201,Sierra Avenue,92337,34.0502822,-117.4338477
11201,Sierra Avenue,92337,34.0503547,-117.4337893
11201,Sierra Avenue,92337,34.0504689,-117.4337893
11175,Sierra Avenue,92337,34.0508043,-117.4344823
11175,Sierra Avenue,92337,34.0507710,-117.4344072
11175,Sierra Avenue,92337,34.0507189,-117.4343557
11175,Sierra Avenue,92337,34.0507141,-117.4342367
11683,Cherry Avenue,92337,34.0415104,-117.4840635
11683,Cherry Avenue,92337,34.0415734,-117.4841059
11683,Cherry Avenue,92337,34.0416370,-117.4841540
11683,Cherry Avenue,92337,34.0416612,-117.4842040
11683,Cherry Avenue,92337,34.0416861,-117.4842610
11683,Cherry Avenue,92337,34.0416678,-117.4843349
11667,Cherry Avenue,92337,34.0418539,-117.4849836
11667,Cherry Avenue,92337,34.0418099,-117.4850614
11647,Cherry Avenue,92337,34.0419023,-117.4852561
11623,Cherry Avenue,92337,34.0424419,-117.4856861
11623,Cherry Avenue,92337,34.0424947,-117.4857303
11623,Cherry Avenue,92337,34.0425387,-117.4857693
11623,Cherry Avenue,92337,34.0425944,-117.4858082
11623,Cherry Avenue,92337,34.0426281,-117.4858524
11623,Cherry Avenue,92337,34.0426809,-117.4858896
11623,Cherry Avenue,92337,34.0427439,-117.4858701
11623,Cherry Avenue,92337,34.0427498,-117.4859781
15808,Foothill Boulevard,92335,34.1068588,-117.4600247
16964,South Highland Avenue,92336,34.1351270,-117.4345770
16918,South Highland Avenue,92336,34.1341062,-117.4355578
16938,South Highland Avenue,92336,34.1338891,-117.4350676
16938,South Highland Avenue,92336,34.1338473,-117.4349675
16465,Sierra Lakes Parkway,92336,34.1371630,-117.4454663
16475,Sierra Lakes Parkway,92336,34.1381712,-117.4445007
16475,Sierra Lakes Parkway,92336,34.1382687,-117.4442486
16465,Sierra Lakes Parkway,92336,34.1376970,-117.4455921
17051,Sierra Lakes Parkway,92336,34.1372802,-117.4326521
17051,Sierra Lakes Parkway,92336,34.1373902,-117.4327870
16155,Sierra Lakes Parkway,92336,34.1378393,-117.4530190
16155,Sierra Lakes Parkway,92336,34.1377743,-117.4528588
16155,Sierra Lakes Parkway,92336,34.1377118,-117.4527001
16155,Sierra Lakes Parkway,92336,34.1376557,-117.4525060
16155,Sierra Lakes Parkway,92336,34.1376327,-117.4523073
16155,Sierra Lakes Parkway,92336,34.1375817,-117.4520823
16465,Sierra Lakes Parkway,92336,34.1372362,-117.4455523
6251,Cherry Avenue,92336,34.1405867,-117.4877185
14751,Frontage Road,92336,34.1374519,-117.4820009
17030,Slover Avenue,92337,34.0652771,-117.4331421
17084,Slover Avenue,92337,34.0655139,-117.4320750
17064,Slover Avenue,92337,34.0654417,-117.4326221
17064,Slover Avenue,92337,34.0654576,-117.4324829
11500,Live Oak Avenue,92337,34.0438226,-117.4826376
15248,Summit Avenue,92336,34.1525078,-117.4747179
15234,Summit Avenue,92336,34.1525282,-117.4744630
17025,Sierra Lakes Parkway,92336,34.1382116,-117.4329523
13379,Jurupa Avenue,92337,34.0471449,-117.5140522
9161,Sierra Avenue,92335,34.0874877,-117.4346334
7151,Sierra Ave.,92509,34.0260887,-117.4320464
6101,Cherry Ave,92336,34.1423780,-117.4866356
6198,Citrus Avenue,92336,34.1411250,-117.4547183
16465,Sierra Lakes Pkwy,92336,34.1374226,-117.4454865
13500,Baseline Avenue,92336,34.1228422,-117.5107884
13690,Constitution Wy,92336,34.1124542,-117.5061253
14190,East Constitution Way,92336,34.1117645,-117.4947380
14613,Bar Harbor Road,92336,34.1179858,-117.4859618
14600,Bar Harbor Road,92336,34.1195221,-117.4853287
7623,East Ave,92336,34.1152642,-117.5139575
7625,East Ave,92336,34.1145541,-117.5127935
7543,West Liberty Pky,92336,34.1170187,-117.5076218
16149,Foothill Boulevard,92335,34.1204600,-117.5040858
14041,Slover Ave,92337,34.0618547,-117.4992337
14040,Slover Ave,92337,34.0640175,-117.4989425
10927,Jasmine St,92337,34.0548931,-117.5167971
10943,Jasmine St,92337,34.0545615,-117.5167984
13195,Santa Ana Ave,92337,34.0542907,-117.5176805
11027,Jasmine St,92337,34.0536097,-117.5167967
11109,Jasmine St,92337,34.0527220,-117.5168089
13188,Dahlia St,92337,34.0539666,-117.5186578
11001,Etiwanda Ave,92337,34.0539426,-117.5225670
13850,13850 Victoria Street,92336,34.1289687,-117.5032176
7069,Isabel Ln,92336,34.1259662,-117.4633778
5072,Cherry Avenue,92336,34.1595530,-117.4827387
13473,Foothill Blvd,92335,34.1056959,-117.5117822
7390,Cherry Avenue,92336,34.1198545,-117.4904199
5383,Bridlepath Drive,92336,34.1558372,-117.4842173
5355,Cherry Avenue,92336,34.1549320,-117.4845533
5065,Coyote Canyon Road,92336,34.1637271,-117.4651131
15272,Summit Avenue,92336,34.1526106,-117.4724869
16225,Sierra Lakes Parkway,92336,34.1376872,-117.4505480
16923,Sierra Lakes Parkway,92336,34.1388695,-117.4356332
16953,Sierra Lakes Pkwy,92336,34.1380541,-117.4349244
16927,Sierra Lakes Parkway,92336,34.1381606,-117.4355866
16505,Sierra Lakes Parkway,92336-1256,34.1373615,-117.4433992
16963,Sierra Lakes Pkwy,92336,34.1380063,-117.4340073
16933,Sierra Lakes Parkway,92336,34.1393262,-117.4352434
4580,Mango Ave,92336,34.1704676,-117.4351197
18401,Jurupa Avenue,92316,34.0475280,-117.4031131
15352,Walnut Avenue,92336,34.1300421,-117.4700770
7250,Almeria Avenue,92336,34.1223709,-117.4613176
17160,Cambria Avenue,92336,34.1332269,-117.4305729
7172,North Heritage Circle,92336,34.1223496,-117.5054265
7850,Celeste Avenue,92336,34.1117760,-117.4510904
7792,Juniper Avenue,92336,34.1116304,-117.4423727
8025,Tamarind Avenue,92336,34.1080672,-117.4215787
18006,Miller Avenue,92336,34.1145258,-117.4106650
16669,Seville Avenue,92335,34.1012485,-117.4423659
17004,Arrow Boulevard,92335,34.1003105,-117.4335827
16807,Orange Way,92335,34.0955514,-117.4363257
17255,Merrill Avenue,92335,34.0902970,-117.4292181
16581,Filbert Street,92335,34.0807326,-117.4422433
11415,Rancherias Drive,92337,34.0452840,-117.5000597
14250,Shadow Drive,92337,34.0452715,-117.4938128
14224,Live Oak Avenue,92337,34.0355353,-117.4967548
14501,Live Oak Avenue,92337,34.0398335,-117.4851733
15601,Village Drive East,92337,34.0420090,-117.4647806
11411,Catawba Place,92337,34.0459819,-117.4596542
17127,La Vesu Road,92337,34.0446585,-117.4308872
11075,Mayberry Street,92337,34.0531457,-117.4294517
15092,Summit Avenue,92336,34.1486372,-117.4751811
8353,Sierra Avenue,92335,34.0954591,-117.4385346
7391,East Avenue,92336,34.1196619,-117.5137494
16822,Spring Street,92335,34.1008500,-117.4374623
5075,Coyote Canyon Road,92336,34.1623952,-117.4659832
11700,Industry Avenue,92337,34.0386143,-117.5231515
16783,Santa Ana Avenue,92337,34.0546921,-117.4381315
10918,Sierra Avenue,92337,34.0552705,-117.4361726
16964,Slover Avenue,92337,34.0654242,-117.4343101
17144,Slover Avenue,92337,34.0656217,-117.4308308
17284,Slover Avenue,92337,34.0653612,-117.4278135
17296,Slover Avenue,92337,34.0637422,-117.4271875
16940,Slover Avenue,92337,34.0634249,-117.4346269
10543,Sierra Avenue,92336,34.0620531,-117.4342408
7980,Sierra Avenue,92336,34.1088854,-117.4363270
16851,Sierra Lakes Parkway,92336,34.1376050,-117.4380601
3892,Sierra Avenue,92336,34.1825235,-117.4378388
3910,Sierra Avenue,92336,34.1822326,-117.4379624
3870,Sierra,92336,34.1822882,-117.4389297
3870,Sierra Avenue,92336,34.1827568,-117.4389675
3864,Sierra Avenue,92336,34.1834419,-117.4383890
3840,Sierra Avenue,92336,34.1838727,-117.4383898
11925,Sierra Avenue,92337,34.0403604,-117.4477903
11501,Cypress Avenue,92337,34.0433023,-117.4473079
16005,Sierra Lakes Parkway,92336,34.1385777,-117.4570882
16045,Sierra Lakes Parkway,92336,34.1386277,-117.4546743
13640,West Constitution Way,92336,34.1114884,-117.5061722
17251,Foothill Boulevard,92335,34.1056669,-117.4281189
9961,Sierra Avenue,92335,34.0731694,-117.4317612
15274,Summit Avenue,92336,34.1502660,-117.4731087
15222,Summit Avenue,92336,34.1513396,-117.4755223
15228,Summit Avenue,92336-5489,34.1518396,-117.4754514
15242,Summit Avenue,92336,34.1526643,-117.4750031
15254,Summit Avenue,92336,34.1527158,-117.4740648
15262,Summit Avenue,92336,34.1527701,-117.4735718
13892,Victoria Street,92336,34.1292123,-117.5020491
5565,Sierra Avenue,92336,34.1528543,-117.4337559
16565,Sierra Lakes Parkway,92336,34.1384570,-117.4421502
17051,Sierra Lakes Parkway,92336,34.1374261,-117.4329577
17017,Sierra Lakes Parkway,92336,34.1386201,-117.4335359
16989,South Highland Avenue,92336,34.1353661,-117.4344844
16289,Sierra Lakes Parkway,92336,34.1373151,-117.4496753
5885,Sierra Avenue,92336,34.1485260,-117.4337421
4860,Condor Avenue,92336,34.1665742,-117.4333676
4635,Condor Avenue,92336,34.1698721,-117.4333557
5730,Avenal Place,92336,34.1472079,-117.4521122
14574,Baseline Avenuea,92336,34.1226976,-117.4865757
14570,Baseline Avenue,92336,34.1218014,-117.4871045
9855,Sierra Avenue,92335,34.0749964,-117.4352363
16741,Valley Boulevard,92335,34.0683390,-117.4387858
16795,Valley Boulevard,92335,34.0681862,-117.4378511
16805,Valley Boulevard,92335,34.0682697,-117.4373171
16265,Orchard Street,92336,34.1608301,-117.4502512
16224,Valley Oak Lane,92336,34.1641050,-117.4510458
5395,Strawberry Way,92336,34.1562301,-117.4485157
5401,Strawberry Way,92336,34.1560650,-117.4485270
5411,Strawberry Way,92336,34.1559054,-117.4485262
5419,Strawberry Way,92336,34.1557412,-117.4485163
5431,Strawberry Way,92336,34.1555841,-117.4485401
5428,Pine Leaf Avenue,92336,34.1555816,-117.4479570
5422,Pine Leaf Avenue,92336,34.1557339,-117.4479405
5412,Pine Leaf Avenue,92336,34.1559122,-117.4479941
5404,Pine Leaf Avenue,92336,34.1560648,-117.4479538
5396,Pine Leaf Avenue,92336,34.1562290,-117.4479703
4405,Rima Drive,92336,34.1740144,-117.4352517
16413,Red Willow Street,92336,34.1622986,-117.4468305
16108,Foothill Boulevard,92335,34.1073230,-117.4527612
16108,Foothill Boulevard,92335,34.1071934,-117.4530022
6821,Oleander Avenue,92336,34.1311308,-117.4467641
11155,Almond Avenue,92337,34.0501226,-117.4912379
5376,Heitz Way,92336,34.1563328,-117.4427316
5393,Blue Ridge Way,92336,34.1559702,-117.4381244
16569,Montiviejo Street,92336,34.1531570,-117.4422282
14200,Live Oak Avenue,92337,34.0359731,-117.4956610
14500,Live Oak Avenue,92337,34.0407302,-117.4904494
6988,Juniper Avenue,92336,34.1270828,-117.4405029
7096,Bella Strada Drive,92336,34.1250273,-117.4385667
14300,Shadow Drive,92337,34.0448932,-117.4933543
11645,Elm Avenue,92337,34.0415667,-117.4658351
15920,Village Drive East,92337,34.0441193,-117.4574463
16943,San Jacinto Avenue,92336,34.1171317,-117.4348021
8380,Cypress Avenue,92335,34.1019381,-117.4466919
11263,Oleander Ave,92337,34.0512331,-117.4462855
16270,Jurupa Avenue,92337,34.0511470,-117.4495731
10985,Oleander Avenue,92337,34.0547506,-117.4465249
17434,Miller Avenue,92336,34.1145111,-117.4242326
8425,Mango Avenue,92335,34.1002400,-117.4292322
7450,Mango Avenue,92336,34.1184645,-117.4326519
7358,Cypress Avenue,92336,34.1202647,-117.4457446
17000,Foothill Boulevard,92335,34.1074629,-117.4331648
16950,Foothill Boulevard,92335,34.1081531,-117.4344813
16910,Foothill Boulevard,92335,34.1080812,-117.4353921
16930,Foothill Boulevard,92335,34.1070041,-117.4348987
16990,Foothill Boulevard,92335,34.1069241,-117.4337893
17238,Foothill Boulevard,92335,34.1081746,-117.4287871
17111,Foothill Boulevard,92335,34.1061696,-117.4311531
17140,Foothill Boulevard,92335,34.1072407,-117.4305162
17575,Foothill Boulevard,92336,34.1060564,-117.4210954
16823,Foothill Boulevard,92335,34.1059344,-117.4376431
8134,Sierra Avenue,92335,34.1060998,-117.4363913
8228,Sierra Avenue,92335,34.1043074,-117.4369544
16863,Foothill Boulevard,92335,34.1062912,-117.4366599
17005,Upland Avenue,92335,34.1016682,-117.4337401
16205,Sierra Lakes Parkway,92336,34.1385481,-117.4515665
17020,South Highland Avenue,92336,34.1350310,-117.4336031
16964,South Highland Avenue,92336,34.1352204,-117.4348726
16944,South Highland Avenue,92336,34.1347728,-117.4352255
7977,Sierra Avenue,92336,34.1089219,-117.4340662
16721,Valley Boulevard,92335,34.0689082,-117.4389465
9954,Sierra Avenue,92335,34.0728372,-117.4368784
9850,Sierra Avenue,92335,34.0746219,-117.4376732
16991,Valley Boulevard,92335,34.0684034,-117.4338209
11225,Sierra Avenue,92337,34.0498486,-117.4336524
11647,Cherry Avenue,92337,34.0422249,-117.4852853
11673,Cherry Avenue,92337,34.0418154,-117.4845827
11617,Cherry Avenue,92337,34.0429663,-117.4859885
10700,Oleander Avenue,92337,34.0593994,-117.4512380
10760,Cypress Avenue,92337,34.0576611,-117.4455196
10755,Oleander Avenue,92337,34.0584971,-117.4475485
11036,Mahogany Drive,92337,34.0531115,-117.4274908
7470,Blanchard Avenue,92336,34.1183084,-117.4291657
7480,Blanchard Avenue,92336,34.1181316,-117.4291559
7460,Blanchard Avenue,92336,34.1185044,-117.4291902
7450,Blanchard Avenue,92336,34.1186922,-117.4291879
7440,Blanchard Avenue,92336,34.1188996,-117.4291574
7430,Blanchard Avenue,92336,34.1190850,-117.4291654
7420,Blanchard Avenue,92336,34.1192860,-117.4291654
7410,Blanchard Avenue,92336,34.1194803,-117.4291689
7400,Blanchard Avenue,92336,34.1196607,-117.4291704
7390,Blanchard Avenue,92336,34.1198519,-117.4291666
7380,Blanchard Avenue,92336,34.1200323,-117.4291903
7370,Blanchard Avenue,92336,34.1202153,-117.4291754
7360,Blanchard Avenue,92336,34.1203841,-117.4291789
7350,Blanchard Avenue,92336,34.1205658,-117.4291903
7469,Blanchard Avenue,92336,34.1181320,-117.4286312
7459,Blanchard Avenue,92336,34.1183102,-117.4286236
7449,Blanchard Avenue,92336,34.1185065,-117.4286104
7439,Blanchard Avenue,92336,34.1186939,-117.4286073
7429,Blanchard Avenue,92336,34.1189001,-117.4286077
7419,Blanchard Avenue,92336,34.1190841,-117.4286298
7409,Blanchard Avenue,92336,34.1192841,-117.4286196
7399,Blanchard Avenue,92336,34.1194725,-117.4286386
7389,Blanchard Avenue,92336,34.1196787,-117.4286243
7379,Blanchard Avenue,92336,34.1198678,-117.4286326
7369,Blanchard Avenue,92336,34.1200635,-117.4286331
7359,Blanchard Avenue,92336,34.1202444,-117.4286343
8030,Mango Avenue,92336,34.1078360,-117.4318292
8110,Mango Avenue,92335,34.1055054,-117.4319553
16980,Arrow Boulevard,92335,34.0997676,-117.4339508
17780,Arrow Boulevard,92335,34.1005861,-117.4162439
7650,Tamarind Avenue,92336,34.1143868,-117.4232277
16014,Foothill Boulevard,92335,34.1075839,-117.4556163
7485,Kempster Avenue,92336,34.1181560,-117.4294816
7430,Kempster Avenue,92336,34.1192491,-117.4301143
7450,Kempster Avenue,92336,34.1187797,-117.4300543
7460,Kempster Avenue,92336,34.1185990,-117.4300370
7470,Kempster Avenue,92336,34.1183543,-117.4300463
7480,Kempster Avenue,92336,34.1181767,-117.4300351
7480,Kaiser Avenue,92336,34.1181268,-117.4283105
17291,Wabash Avenue,92336,34.1177068,-117.4273827
17281,Wabash Avenue,92336,34.1177140,-117.4275982
17271,Wabash Avenue,92336,34.1177011,-117.4278388
17261,Wabash Avenue,92336,34.1177205,-117.4280605
17251,Wabash Avenue,92336,34.1176987,-117.4282983
17241,Wabash Avenue,92336,34.1177030,-117.4285058
17231,Wabash Avenue,92336,34.1176961,-117.4287544
17221,Wabash Avenue,92336,34.1177097,-117.4289854
17131,Wabash Avenue,92336,34.1177586,-117.4308648
7495,Mango Avenue,92336,34.1178047,-117.4311325
7497,Mango Avenue,92336,34.1176346,-117.4311295
7480,Ginger Avenue,92336,34.1181825,-117.4309119
7470,Ginger Avenue,92336,34.1183564,-117.4309025
7460,Ginger Avenue,92336,34.1185998,-117.4308846
7430,Ginger Avenue,92336,34.1192034,-117.4309139
7420,Ginger Avenue,92336,34.1193524,-117.4307181
7480,Palmetto Avenue,92336,34.1181279,-117.4274322
16878,Foothill Boulevard,92335-8407,34.1071079,-117.4364101
8138,Sierra Avenue,92335,34.1058461,-117.4360856
16931,Foothill Boulevard,92335,34.1063741,-117.4348480
18140,Arrow Boulevard,92335,34.1009704,-117.4086221
16005,Valley Boulevard,92335,34.0684958,-117.4553164
9906,Sierra Avenue,92335,34.0737993,-117.4360419
10048,Sierra Avenue,92335,34.0713451,-117.4360469
10087,Sierra Avenue,92335,34.0708773,-117.4349059
16984,Valley Boulevard,92335,34.0708310,-117.4341288
16994,Valley Boulevard,92335,34.0709158,-117.4336645
10143,Sierra Avenue,92335-6724,34.0696383,-117.4352218
16873,Valley Boulevard,92335,34.0692601,-117.4362541
10110,Sierra Avenue,92335,34.0699397,-117.4360322
16863,Valley Boulevard,92335,34.0700437,-117.4365358
16833,Valley Boulevard,92335,34.0700126,-117.4369643
8282,Sierra Avenue,92335,34.1032175,-117.4364446
8270,Sierra Avenue,92335,34.1035391,-117.4368958
10195,Sierra Avenue,92335,34.0685921,-117.4350075
16063,Foothill Boulevard,92335-8053,34.1061198,-117.4539882
17405,Baseline Avenue,92336,34.1209966,-117.4247627
8190,Mango Avenue,92335,34.1049903,-117.4320058
8353,Sierra Avenue,92335,34.1021858,-117.4351699
8353,Sierra Avenue,92335,34.1016830,-117.4350634
16816,Arrow Boulevard,92335,34.0996738,-117.4377772
8237,Sierra Avenue,92335,34.1040828,-117.4353689
16839,Ramona Avenue,92336,34.1152581,-117.4370548
7908,Mango Avenue,92336,34.1096177,-117.4326143
8014,Mango Avenue,92336,34.1082942,-117.4326125
8021,Mango Avenue,92336,34.1080179,-117.4308556
8185,Palmetto Avenue,92335,34.1056448,-117.4259170
16838,Ceres Avenue,92335,34.0946877,-117.4369698
16946,Ceres Avenue,92335,34.0947170,-117.4347796
16999,Orange Way,92335,34.0955487,-117.4337666
8684,Sierra Avenue,92335,34.0967080,-117.4363629
9972,Juniper Avenue,92335,34.0727291,-117.4406415
10033,Juniper Avenue,92335,34.0716635,-117.4394008
16707,Marygold Avenue,92335,34.0733272,-117.4393455
16700,Marygold Avenue,92335,34.0749390,-117.4390087
9453,Citrus Avenue,92335,34.0807941,-117.4512432
16224,Mallory Drive,92335,34.0761725,-117.4515622
9851,Catawba Avenue,92335,34.0748244,-117.4559536
16970,Marygold Avenue,92335,34.0747049,-117.4340447
9840,Sierra Avenue,92335,34.0751923,-117.4376342
8595,Sierra Avenue,92335,34.0977262,-117.4352914
16710,Ceres Avenue,92335,34.0945884,-117.4385798
8620,Sierra Avenue,92335,34.0971884,-117.4360844
8624,Sierra Avenue,92335,34.0971060,-117.4360517
8600,Sierra Avenue,92335,34.0973162,-117.4360892
8594,Sierra Avenue,92335,34.0977234,-117.4361012
8528,Sierra Avenue,92335,34.0987503,-117.4361138
8536,Sierra Avenue,92335,34.0985681,-117.4360994
8542,Sierra Avenue,92335,34.0985066,-117.4360054
8646,Sierra Avenue,92335,34.0984226,-117.4360990
8550,Sierra Avenue,92335,34.0983382,-117.4361015
8554,Sierra Avenue,92335,34.0982563,-117.4360278
8580,Sierra Avenue,92335,34.0979157,-117.4360736
8586,Sierra Avenue,92335,34.0978307,-117.4360492
16860,Valencia Avenue,92335,34.0977606,-117.4365862
8585,Sierra Avenue,92335,34.0978499,-117.4354273
8545,Sierra Avenue,92335,34.0985090,-117.4354316
8541,Sierra Avenue,92335,34.0985914,-117.4354724
16867,Arrow Boulevard,92335,34.0990636,-117.4366862
16830,Spring Street,92335,34.1008556,-117.4363681
16822,Spring Street,92335,34.1008079,-117.4369770
16855,Arrow Boulevard,92335,34.0989528,-117.4372537
9112,Oleander Avenue,92335,34.0881641,-117.4492864
11070,Sierra Avenue,92337,34.0526358,-117.4367170
8426,Mango Avenue,92335,34.1007103,-117.4321963
10668,Sierra Avenue,92337,34.0597801,-117.4362663
7695,Sierra Avenue,92336,34.1141826,-117.4355075
9820,Cherry Avenue,92335,34.0736953,-117.4901529
15815,Arrow Boulevard,92335,34.0983198,-117.4592208
8143,Banana Avenue,92335,34.1059063,-117.4970248
9680,Citrus Avenue,92335,34.0794783,-117.4546268
17487,Arrow Boulevard,92335,34.0984485,-117.4234166
17777,Merrill Avenue,92336,34.0916966,-117.4164278
11141,Sierra Avenue,92337,34.0511668,-117.4336226
11255,Sierra Avenue,92337,34.0494275,-117.4349438
11205,Sierra Avenue,92337,34.0503084,-117.4349246
11159,Sierra Avenue,92337,34.0509269,-117.4348914
11121,Sierra Avenue,92337,34.0516036,-117.4346709
11117,Sierra Avenue,92337,34.0517338,-117.4337857
17148,Slover Avenue,92337,34.0634566,-117.4307251
8316,Sierra Avenue,92335,34.1024553,-117.4368330
8316,Sierra Avenue,92335,34.1025567,-117.4363078
16049,Baseline Avenue,92336,34.1207461,-117.4542887
16192,Foothill Boulevard,92335,34.1069395,-117.4518359
16731,Santa Ana Avenue,92337,34.0551520,-117.4394741
7893,Sierra Avenue,92336,34.1104155,-117.4355975
17235,Arrow Boulevard,92335,34.0990928,-117.4286152
8456,Sierra Avenue,92335,34.1000849,-117.4360715
8463,Sierra Avenue,92335,34.0999978,-117.4353440
8491,Sierra Avenue,92335,34.0995920,-117.4353288
16489,Orange Way,92335,34.0956901,-117.4438717
16489,Orange Way,92335,34.0956801,-117.4451100
16454,Orange Way,92335,34.0962340,-117.4458724
9937,Poplar Avenue,92335,34.0729713,-117.4613391
17133,Valley Boulevard,92335-6811,34.0697215,-117.4304258
9773,Sierra Avenue,92335,34.0759053,-117.4340385
9758,Sierra Avenue,92335,34.0764688,-117.4360636
9714,Sierra Avenue,92335,34.0771626,-117.4360579
9535,Sierra Avenue,92335,34.0804774,-117.4352705
16925,Randall Avenue,92335-5860,34.0845290,-117.4350960
9361,Sierra Avenue,92335,34.0838433,-117.4351011
9310,Sierra Avenue,92335,34.0845402,-117.4362890
9288,Sierra Avenue,92335,34.0851334,-117.4362000
9299,Sierra Avenue,92335,34.0850564,-117.4354604
9333,Sierra Avenue,92335,34.0841891,-117.4354943
9340,Sierra Avenue,92335,34.0841937,-117.4361827
9354,Sierra Avenue,92335,34.0838978,-117.4359744
9244,Sierra Avenue,92335,34.0854903,-117.4360722
7716,Sierra Avenue,92336,34.1135660,-117.4362006
7738,Sierra Avenue,92336,34.1132164,-117.4361508
16577,Upland Avenue,92335,34.1026610,-117.4428429
10161,Sierra Avenue,92335,34.0693082,-117.4353479
10056,Sierra Avenue,92335,34.0710474,-117.4360754
16558,Paine Street,92336,34.1079129,-117.4430974
16558,Paine Street,92336,34.1081053,-117.4430987
16558,Paine Street,92336,34.1082994,-117.4430985
16558,Paine Street,92336,34.1083383,-117.4427927
8882,Sierra Avenue,92335,34.0927104,-117.4360217
8868,Sierra Avenue,92335,34.0929463,-117.4361092
9067,Sierra Avenue,92335,34.0892028,-117.4353774
9008,Sierra Avenue,92335,34.0901726,-117.4362703
8924,Sierra Avenue,92335,34.0917249,-117.4362310
9116,Sierra Avenue,92335,34.0883034,-117.4362598
9132,Sierra Avenue,92335,34.0879080,-117.4365946
9146,Sierra Avenue,92335,34.0876503,-117.4362880
16946,Marygold Avenue,92335,34.0743336,-117.4347615
9439,Sierra Avenue,92335,34.0822095,-117.4352752
9244,Sierra Avenue,92335,34.0859196,-117.4360678
16823,Arrow Boulevard,92335,34.0989837,-117.4376178
16803,Arrow Boulevard,92335,34.0990177,-117.4378842
17305,Arrow Boulevard,92335-3950,34.0990477,-117.4266580
13100,Loop Road,92337,34.0663355,-117.5199543
13200,Loop Road,92337,34.0663301,-117.5168269
11663,Cherry Avenue,92337,34.0410405,-117.4860444
17270,Coronado Avenue,92336,34.1355280,-117.4278450
6501,Kaiser Avenue,92336,34.1353689,-117.4276794
6511,Kaiser Avenue,92336,34.1351945,-117.4276833
7110,Citrus Avenue,92336,34.1246859,-117.4540060
18083,Foothill Boulevard,92335,34.1063182,-117.4099854
8026,Hemlock Avenue,92336,34.1079000,-117.4769971
10207,Poplar Avenue,92335,34.0677711,-117.4618726
16090,Valley Boulevard,92335,34.0707766,-117.4540472
16062,Foothill Boulevard,92335,34.1068566,-117.4545846
16860,Slover Avenue,92337,34.0640338,-117.4373665
5303,Napa Valley Road,92336,34.1571957,-117.4403936
16615,Casa Grande Avenue,92336,34.1573982,-117.4397890
5601,Montelena Road,92336,34.1519046,-117.4376862
17459,Slover Avenue,92337,34.0626695,-117.4231822
11500,Live Oak Avenue,92337,34.0439292,-117.4827207
10606,Commerce Way,92337,34.0608764,-117.5140251
10516,Commerce Way,92337,34.0621352,-117.5139456
14338,Foothill Boulevard,92335,34.1073737,-117.4920579
15850,Slover Avenue,92337,34.0637500,-117.4587666
8930,Citrus Avenue,92335,34.0696693,-117.4542736
16111,Valley Boulevard,92335,34.0698981,-117.4534279
16231,Valley Boulevard,92335,34.0696211,-117.4514639
9800,Sierra Avenue,92335,34.0756645,-117.4360458
9885,Sierra Avenue,92335,34.0798170,-117.4352918
7775,Sierra Avenue,92336,34.1131085,-117.4352066
16888,Baseline Avenue,92336,34.1218236,-117.4365583
16953,Sierra Lakes Parkway,92336,34.1380356,-117.4344349
16270,Foothill Boulevard,92336,34.1075868,-117.4500651
8015,Citrus Avenue,92336,34.1081105,-117.4526405
8277,Juniper Avenue,92335,34.1032578,-117.4397987
13592,Slover Avenue,92337,34.0638622,-117.5098105
8069,Summer Place Street,92336,34.1072797,-117.5046058
8081,Summer Place Street,92336,34.1071446,-117.5045889
8059,Summer Place Street,92336,34.1074143,-117.5046029
8047,Summer Place Street,92336,34.1075499,-117.5046033
8037,Summer Place Street,92336,34.1076909,-117.5046026
8025,Summer Place Street,92336,34.1078236,-117.5046178
8015,Summer Place Street,92336,34.1079595,-117.5046113
8003,Summer Place Street,92336,34.1081003,-117.5046176
8082,Summer Place Street,92336,34.1071414,-117.5050593
8070,Summer Place Street,92336,34.1072799,-117.5050613
8060,Summer Place Street,92336,34.1074138,-117.5050744
8048,Summer Place Street,92336,34.1075416,-117.5050641
8038,Summer Place Street,92336,34.1076781,-117.5050674
8026,Summer Place Street,92336,34.1077995,-117.5050825
8016,Summer Place Street,92336,34.1079257,-117.5050669
8004,Summer Place Street,92336,34.1080559,-117.5050716
8001,Park Lawn Court,92336,34.1080327,-117.5053426
8013,Park Lawn Court,92336,34.1079006,-117.5053395
8023,Park Lawn Court,92336,34.1077711,-117.5053774
8035,Park Lawn Court,92336,34.1076438,-117.5053862
8045,Park Lawn Court,92336,34.1075181,-117.5053890
8057,Park Lawn Court,92336,34.1073903,-117.5053896
8067,Park Lawn Court,92336,34.1072664,-117.5053733
8079,Park Lawn Court,92336,34.1071391,-117.5053830
8002,Park Lawn Court,92336,34.1080048,-117.5059088
8014,Park Lawn Court,92336,34.1078764,-117.5059064
8024,Park Lawn Court,92336,34.1077523,-117.5058652
8036,Park Lawn Court,92336,34.1076246,-117.5058541
8046,Park Lawn Court,92336,34.1074988,-117.5058404
8058,Park Lawn Court,92336,34.1073710,-117.5058568
8068,Park Lawn Court,92336,34.1072261,-117.5058681
8080,Park Lawn Court,92336,34.1070998,-117.5058812
8090,Park Lawn Court,92336,34.1069445,-117.5058821
13703,Sunrise Street,92336,34.1068138,-117.5057412
13707,Sunrise Street,92336,34.1067734,-117.5055543
13711,Sunrise Street,92336,34.1067753,-117.5054023
13715,Sunrise Street,92336,34.1068027,-117.5052482
13721,Sunrise Street,92336,34.1068144,-117.5050985
13725,Sunrise Street,92336,34.1067985,-117.5049453
13729,Sunrise Street,92336,34.1068122,-117.5047948
13733,Sunrise Street,92336,34.1068183,-117.5046436
13737,Sunrise Street,92336,34.1068039,-117.5044910
13743,Sunrise Street,92336,34.1068171,-117.5043332
13747,Sunrise Street,92336,34.1068169,-117.5041851
13753,Sunrise Street,92336,34.1068062,-117.5040330
13757,Sunrise Street,92336,34.1068193,-117.5038836
13763,Sunrise Street,92336,34.1068252,-117.5037321
13767,Sunrise Street,92336,34.1068090,-117.5035790
13773,Sunrise Street,92336,34.1068218,-117.5034267
13777,Sunrise Street,92336,34.1068239,-117.5032736
13783,Sunrise Street,92336,34.1068144,-117.5031209
13787,Sunrise Street,92336,34.1068110,-117.5029587
13793,Sunrise Street,92336,34.1067938,-117.5027883
8006,Streamside Court,92336,34.1081628,-117.5043468
8018,Streamside Court,92336,34.1080323,-117.5043328
8028,Streamside Court,92336,34.1079067,-117.5042950
8040,Streamside Court,92336,34.1077826,-117.5042995
8050,Streamside Court,92336,34.1076539,-117.5042806
8062,Streamside Court,92336,34.1075280,-117.5042917
8072,Streamside Court,92336,34.1074026,-117.5042969
8084,Streamside Court,92336,34.1072717,-117.5042717
8094,Streamside Court,92336,34.1071491,-117.5042859
8093,Streamside Court,92336,34.1071561,-117.5038158
8083,Streamside Court,92336,34.1072868,-117.5038228
8071,Streamside Court,92336,34.1074180,-117.5038200
8061,Streamside Court,92336,34.1075492,-117.5038277
8049,Streamside Court,92336,34.1076826,-117.5038282
8039,Streamside Court,92336,34.1078120,-117.5038247
8027,Streamside Court,92336,34.1079474,-117.5038248
8017,Streamside Court,92336,34.1080836,-117.5037785
8005,Streamside Court,92336,34.1082176,-117.5037795
13768,Sunrise Street,92336,34.1072081,-117.5035414
13774,Sunrise Street,92336,34.1072063,-117.5033727
13778,Sunrise Street,92336,34.1072043,-117.5032098
13784,Sunrise Street,92336,34.1072128,-117.5030486
13788,Sunrise Street,92336,34.1072088,-117.5028876
8096,Lomas Court,92336,34.1074568,-117.5028906
8086,Lomas Court,92336,34.1074286,-117.5030469
8074,Lomas Court,92336,34.1074322,-117.5032109
8064,Lomas Court,92336,34.1074555,-117.5033914
8052,Lomas Court,92336,34.1075870,-117.5034795
8042,Lomas Court,92336,34.1077326,-117.5035116
8030,Lomas Court,92336,34.1078627,-117.5034912
8022,Lomas Court,92336,34.1079915,-117.5035106
8012,Lomas Court,92336,34.1081168,-117.5035245
8008,Lomas Court,92336,34.1082641,-117.5034759
8007,Lomas Court,92336,34.1083521,-117.5033140
8011,Lomas Court,92336,34.1083337,-117.5031205
8021,Lomas Court,92336,34.1082115,-117.5029891
8029,Lomas Court,92336,34.1080577,-117.5029668
8041,Lomas Court,92336,34.1079256,-117.5030014
8051,Lomas Court,92336,34.1077933,-117.5029995
8058,Sorrento Street,92336,34.1075273,-117.5024518
8068,Sorrento Street,92336,34.1073929,-117.5024481
8078,Sorrento Street,92336,34.1072713,-117.5024447
8088,Sorrento Street,92336,34.1071399,-117.5024346
8098,Sunrise Street,92336,34.1069414,-117.5024643
8048,Sorrento Street,92336,34.1078583,-117.5024416
8038,Sorrento Street,92336,34.1079802,-117.5024513
8028,Sorrento Street,92336,34.1081115,-117.5024455
8018,Sorrento Street,92336,34.1082350,-117.5024635
8010,Sorrento Street,92336,34.1083611,-117.5024806
8002,Sorrento Street,92336,34.1085246,-117.5024280
13803,Lomas Court,92336,34.1075304,-117.5020275
13811,Lomas Court,92336,34.1075285,-117.5018762
13819,Lomas Court,92336,34.1075328,-117.5017249
13827,Lomas Court,92336,34.1075268,-117.5015705
13837,Lomas Court,92336,34.1075359,-117.5014233
13847,Lomas Court,92336,34.1075730,-117.5012662
13846,Lomas Court,92336,34.1080699,-117.5012922
13836,Lomas Court,92336,34.1080416,-117.5014423
13828,Lomas Court,92336,34.1080320,-117.5015905
13820,Lomas Court,92336,34.1079400,-117.5017396
13812,Lomas Court,92336,34.1079317,-117.5018860
13804,Lomas Court,92336,34.1079254,-117.5020365
13799,Portofino Street,92336,34.1068517,-117.5023484
13801,Portofino Street,92336,34.1068147,-117.5020887
13807,Portofino Street,92336,34.1068391,-117.5019305
13815,Portofino Street,92336,34.1068446,-117.5017845
13823,Portofino Street,92336,34.1068519,-117.5016326
13831,Portofino Street,92336,34.1068438,-117.5014848
13839,Portofino Street,92336,34.1068456,-117.5013361
13845,Portofino Street,92336,34.1068533,-117.5011892
13855,Portofino Street,92336,34.1068505,-117.5010391
13865,Portofino Street,92336,34.1068530,-117.5008920
13875,Portofino Street,92336,34.1068439,-117.5007451
13885,Portofino Street,92336,34.1068499,-117.5005899
13864,Portofino Street,92336,34.1072478,-117.5009842
13856,Portofino Street,92336,34.1072477,-117.5011347
13848,Portofino Street,92336,34.1072467,-117.5012829
13838,Portofino Street,92336,34.1072472,-117.5014336
13830,Portofino Street,92336,34.1072456,-117.5015799
13822,Portofino Street,92336,34.1072418,-117.5017283
13814,Portofino Street,92336,34.1072447,-117.5018759
13806,Portofino Street,92336,34.1072360,-117.5020258
16850,South Highland Avenue,92336,34.1343792,-117.4370794
14485,Foothill Boulevard,92335,34.1060670,-117.4891722
8064,San Remo Court,92336,34.1074644,-117.5010545
8054,San Remo Court,92336,34.1075988,-117.5010529
8044,San Remo Court,92336,34.1077376,-117.5010623
8040,San Remo Court,92336,34.1078733,-117.5011169
8036,San Remo Court,92336,34.1080677,-117.5010829
8030,San Remo Court,92336,34.1081618,-117.5009861
8025,San Remo Court,92336,34.1081785,-117.5007616
8035,San Remo Court,92336,34.1080406,-117.5005503
8041,San Remo Court,92336,34.1078335,-117.5005335
8045,San Remo Court,92336,34.1077121,-117.5005877
8055,San Remo Court,92336,34.1075834,-117.5005738
8065,San Remo Court,92336,34.1074621,-117.5005814
8075,San Remo Court,92336,34.1073270,-117.5005722
8085,San Remo Court,92336,34.1072001,-117.5005674
13802,Marbella Street,92336,34.1086150,-117.5022751
13810,Marbella Street,92336,34.1086440,-117.5021218
13818,Marbella Street,92336,34.1086716,-117.5019587
13826,Marbella Street,92336,34.1086994,-117.5018077
13834,Marbella Street,92336,34.1087204,-117.5016455
13842,Marbella Street,92336,34.1087520,-117.5015030
13850,Marbella Street,92336,34.1087914,-117.5013437
13858,Marbella Street,92336,34.1088035,-117.5011966
13866,Marbella Street,92336,34.1088188,-117.5010276
13876,Marbella Street,92336,34.1088353,-117.5008816
13886,Marbella Street,92336,34.1088432,-117.5007024
13896,Marbella Street,92336,34.1088406,-117.5005513
13809,Marbella Street,92336,34.1082589,-117.5020227
13817,Marbella Street,92336,34.1082789,-117.5018762
13825,Marbella Street,92336,34.1083273,-117.5017185
13833,Marbella Street,92336,34.1083410,-117.5015800
13841,Marbella Street,92336,34.1083721,-117.5014160
13849,Marbella Street,92336,34.1083978,-117.5012803
13859,Marbella Street,92336,34.1084261,-117.5011300
13869,Marbella Street,92336,34.1084378,-117.5009784
13879,Marbella Street,92336,34.1084551,-117.5008145
13889,Marbella Street,92336,34.1084589,-117.5006682
13899,Marbella Street,92336,34.1084537,-117.5005106
13909,Marbella Street,92336,34.1084562,-117.5003639
13919,Marbella Street,92336,34.1084502,-117.5002008
8096,Tuscany Street,92336,34.1069026,-117.5003756
8094,Tuscany Street,92336,34.1067778,-117.5003439
8076,Tuscany Street,92336,34.1072054,-117.5002528
8072,Tuscany Street,92336,34.1073261,-117.5002568
8062,Tuscany Street,92336,34.1074601,-117.5002564
8052,Tuscany Street,92336,34.1075907,-117.5002574
8046,Tuscany Street,92336,34.1077237,-117.5002564
8042,Tuscany Street,92336,34.1078508,-117.5002641
8032,Tuscany Street,92336,34.1079849,-117.5002649
8022,Tuscany Street,92336,34.1081196,-117.5002711
8016,Tuscany Street,92336,34.1082460,-117.5002618
8091,Tuscany Street,92336,34.1067838,-117.4998145
8087,Tuscany Street,92336,34.1069143,-117.4997703
8081,Tuscany Street,92336,34.1070471,-117.4997667
8077,Tuscany Street,92336,34.1071814,-117.4997724
8071,Tuscany Street,92336,34.1073166,-117.4997696
8067,Tuscany Street,92336,34.1074507,-117.4997698
8057,Tuscany Street,92336,34.1075842,-117.4997749
8047,Tuscany Street,92336,34.1077191,-117.4997763
8043,Tuscany Street,92336,34.1078505,-117.4997734
8033,Tuscany Street,92336,34.1079845,-117.4997849
8019,Tuscany Street,92336,34.1081191,-117.4997805
8013,Tuscany Street,92336,34.1082532,-117.4997788
8009,Tuscany Street,92336,34.1083847,-117.4997859
8003,Tuscany Street,92336,34.1085161,-117.4997931
13988,Marbella Street,92336,34.1088587,-117.4995270
13998,Marbella Street,92336,34.1088564,-117.4993731
14002,Marbella Street,92336,34.1088526,-117.4992267
14010,Marbella Street,92336,34.1088411,-117.4990737
14020,Marbella Street,92336,34.1088431,-117.4989244
14032,Marbella Street,92336,34.1088301,-117.4987755
14042,Monaco Street,92336,34.1088166,-117.4986292
14062,Monaco Street,92336,34.1087707,-117.4982768
14072,Marbella Street,92336,34.1087443,-117.4981300
14082,Marbella Street,92336,34.1087617,-117.4979685
14092,Marbella Street,92336,34.1087314,-117.4978106
14086,Marbella Street,92336,34.1082618,-117.4980336
14093,Marbella Street,92336,34.1082601,-117.4978714
14080,Naples Court,92336,34.1080445,-117.4980202
14090,Naples Court,92336,34.1080355,-117.4978653
14091,Naples Court,92336,34.1075779,-117.4978567
14081,Naples Court,92336,34.1075668,-117.4980246
8007,Monaco Street,92336,34.1084015,-117.4982647
8011,Monaco Street,92336,34.1082672,-117.4982600
8017,Monaco Street,92336,34.1081158,-117.4982491
8029,Monaco Street,92336,34.1079838,-117.4982494
8045,Monaco Street,92336,34.1076819,-117.4982495
8055,Monaco Street,92336,34.1075532,-117.4982510
8065,Monaco Street,92336,34.1074109,-117.4982442
8075,Monaco Street,92336,34.1072761,-117.4982478
14084,Capri Court,92336,34.1073231,-117.4980125
14094,Capri Court,92336,34.1072911,-117.4978551
14095,Capri Court,92336,34.1069826,-117.4978496
14083,Capri Court,92336,34.1068498,-117.4980197
14073,Capri Court,92336,34.1068535,-117.4981839
14063,Capri Court,92336,34.1068888,-117.4983309
14053,Capri Court,92336,34.1068951,-117.4984860
14043,Capri Court,92336,34.1068865,-117.4986318
14033,Capri Court,92336,34.1068829,-117.4987784
14021,Capri Court,92336,34.1068797,-117.4989274
14013,Capri Court,92336,34.1068645,-117.4990738
14003,Capri Court,92336,34.1068633,-117.4992268
4121,Lytle Creek Road,92358,34.1771739,-117.4454413
16262,South Highland Avenue,92336,34.1339798,-117.4501410
9630,Sierra Avenue,92335,34.0790800,-117.4372906
6556,Hemlock Avenue,92336,34.1349899,-117.4757273
16975,Sierra Lakes Parkway,92336,34.1384877,-117.4324108
17016,Trufa Way,92336,34.1345983,-117.4329080
4340,Rima Drive,92336,34.1752027,-117.4358400
4300,Rima Drive,92336,34.1759260,-117.4358246
16926,Servando Lane,92336,34.1760249,-117.4356551
4428,Rima Drive,92336,34.1736106,-117.4358381
15966,Arrow Boulevard,92335,34.0999049,-117.4576364
14635,Valley Boulevard,92335,34.0688330,-117.4860042
9976,Sierra Avenue,92335,34.0724947,-117.4366405
9976,Sierra Avenue,92335,34.0722205,-117.4366329
17084,Slover Avenue,92337,34.0656768,-117.4318390
17040,Slover Avenue,92337,34.0655664,-117.4328999
5361,Salt Bush Way,92336,34.1567310,-117.4462927
5371,Salt Bush Way,92336,34.1565760,-117.4462961
5383,Salt Bush Way,92336,34.1563948,-117.4463444
5389,Salt Bush Way,92336,34.1562289,-117.4463439
5397,Salt Bush Way,92336,34.1560626,-117.4463162
5409,Salt Bush Way,92336,34.1558981,-117.4463609
5415,Salt Bush Way,92336,34.1557349,-117.4463403
5427,Salt Bush Way,92336,34.1555746,-117.4463565
5366,Salt Bush Way,92336,34.1567378,-117.4469324
5374,Salt Bush Way,92336,34.1565701,-117.4469443
5384,Salt Bush Way,92336,34.1563939,-117.4469131
5394,Salt Bush Way,92336,34.1562292,-117.4469068
5400,Salt Bush Way,92336,34.1560650,-117.4468780
5410,Salt Bush Way,92336,34.1558992,-117.4469067
5418,Salt Bush Way,92336,34.1557330,-117.4468988
5426,Salt Bush Way,92336,34.1555748,-117.4468973
17565,Valley Boulevard,92316,34.0690194,-117.4215678
11141,Sierra Avenue,92337,34.0510289,-117.4335243
17565,Valley Boulevard,92316,34.0700592,-117.4218559
17618,Arrow Boulevard,92335,34.0999460,-117.4202022
14501,Live Oak Avenue,92337,34.0413719,-117.4831130
7908,Tokay Avenue,92336,34.1095748,-117.4580837
9971,Juniper Avenue,92335,34.0724633,-117.4394023
4800,Citrus Avenue,92336,34.1669824,-117.4551674
16188,South Highland Avenue,92336,34.1353449,-117.4511280
17010,South Highland Avenue,92336,34.1345202,-117.4337806
10530,Sierra Avenue,92337,34.0617187,-117.4375965
17025,Sierra Lakes Parkway,92336,34.1381784,-117.4330150
6304,Knox Avenue,92336,34.1394115,-117.4625316
6525,Knox Avenue,92336,34.1354415,-117.4615616
14750,Live Oak Avenue,92337,34.0421951,-117.4834780
16489,Orange Way,92335,34.0959352,-117.4454755
17010,Sierra Lakes Parkway,92336,34.1393741,-117.4333869
7679,Cherry Avenue,92336,34.1145239,-117.4890563
7784,Edison Avenue,92336,34.1120977,-117.4901420
7780,Edison Avenue,92336,34.1126636,-117.4902604
14725,Foothill Boulevard,92335,34.1061424,-117.4840294
7172,North Heritage Circle,92336,34.1227287,-117.5051442
17651,Baseline Avenue,92336,34.1207712,-117.4196128
11991,Savona Drive,92337,34.0352835,-117.4647086
15185,Bluffview Street,92336,34.1233874,-117.4735501
15195,Bluffview Street,92336,34.1233855,-117.4733245
15205,Bluffview Street,92336,34.1233902,-117.4731282
15245,Bluffview Street,92336,34.1233867,-117.4723353
15235,Bluffview Street,92336,34.1233893,-117.4725308
15215,Bluffview Street,92336,34.1233901,-117.4729334
15080,Summit Avenue,92336,34.1496910,-117.4755089
15058,Summit Avenue,92336,34.1496354,-117.4761504
15042,Summit Avenue,92336,34.1495650,-117.4765501
15022,Summit Avenue,92336,34.1495333,-117.4770271
14960,Summit Avenue,92336,34.1494833,-117.4782910
14940,Summit Avenue,92336,34.1492293,-117.4791303
8353,Sierra Avenue,92335,34.1024617,-117.4354589
16020,Foothill Boulevard,92335,34.1076499,-117.4551210
16858,San Bernardino Avenue,92335,34.0778564,-117.4366682
15551,Summit Ave,92336,34.1482480,-117.4644542
15556,Summit Ave,92336,34.1523421,-117.4644516
13970,Victoria St,92336,34.1295106,-117.5003869
7555,Alder Avenue,92336,34.1171670,-117.4162657
7655,Juniper Avenue,92336,34.1148541,-117.4390671
10050,Juniper Avenue,92335,34.0713403,-117.4422113
8437,Sierra Avenue,92335,34.1006520,-117.4350730
9961,Sierra Avenue,92335,34.0717493,-117.4319662
17400,Foothill Boulevard,92336,34.1072592,-117.4252517
17780,Arrow Boulevard,92335,34.1001053,-117.4161987
11396,Beech Avenue,92337,34.0451562,-117.4749808
