House number,Street name,Postal code,Latitude,Longitude
1572,East Barstow Avenue,93710,36.8165666,-119.7595249
1776,East Roberts Avenue,93710,36.8209414,-119.7551866
5015,East Olive Avenue,93727,36.7580973,-119.7268352
1084,West Bullard Avenue,93711,36.8233287,-119.8101182
5770,North Maroa Avenue,93704,36.8222651,-119.7986157
364,East Barstow Avenue,93710,36.8163681,-119.7822449
3920,North 1st Street,93726,36.7891161,-119.7715336
3673,North 1st Street,93726,36.7842910,-119.7733143
3767,North 1st Street,93726,36.7863727,-119.7728414
4411,North 1st Street,93726,36.7982827,-119.7732004
1343,East Barstow Avenue,93710,36.8153836,-119.7641821
3420,East Dakota Avenue,93726,36.7864322,-119.7673300
3620,North Millbrook Avenue,93726,36.7837418,-119.7629425
1944,North Winery Avenue,93703,36.7681127,-119.7314425
4103,West Cambridge Avenue,93722,36.7690874,-119.8644634
1171,Fulton Street,93721,36.7356188,-119.7922710
2011,Fresno Street,93721,36.7362185,-119.7922000
3020,Tulare Street,93721,36.7412001,-119.7793578
7785,North 1st Street,93720,36.8516600,-119.7751269
1718,West Olive Avenue,93728-2642,36.7579218,-119.8320771
1611,North Blackstone Avenue,93741,36.7653893,-119.7909410
3110,East Tulare Street,93702,36.7428800,-119.7719460
2011,Tuolumne Street,93721,36.7381864,-119.7943400
6701,North Milburn Avenue,93722,36.8347865,-119.8793120
4770,West Herndon Avenue,93722,36.8377481,-119.8778411
1065,North Fulton Street,93728,36.7561205,-119.8004940
1091,East Shields Avenue,93726,36.7803636,-119.7884880
1901,East Shields Avenue,93726,36.7803709,-119.7892760
2041,East Shields Avenue,93726,36.7801267,-119.7865787
2035,East Shields Avenue,93726,36.7801240,-119.7866787
2045,East Hunter Avenue,93726,36.7801303,-119.7864524
4441,East Kings Canyon Road,93702,36.7363044,-119.7509242
2820,Tulare Street,93721,36.7397308,-119.7815140
2590,South East Avenue,93706-5103,36.7072438,-119.7721680
4827,North Parkway Drive,93722,36.8043861,-119.8833426
6515,North Maroa Avenue,93704,36.8322149,-119.7999909
6547,North Maroa Avenue,93704,36.8322130,-119.7998562
5431,North Maroa Avenue,93704,36.8162541,-119.7999935
4982,East Ashlan Avenue,93726,36.7938105,-119.7285447
1444,Fulton Street,93721,36.7388860,-119.7952088
6199,North Carnegie Avenue,93722,36.8252945,-119.8943410
1031,U Street,93721,36.7421148,-119.7795580
1220,East Olive Avenue,93728,36.7575738,-119.7960481
2325,Kern Street,93721,36.7357921,-119.7851880
1444,North Whitney Avenue,93703,36.7622221,-119.7383245
7780,North Blackstone Avenue,93720,36.8487729,-119.7898030
7820,North Via Del Rio,93720,36.8496986,-119.7888520
180,Paseo Del Centro,93720,36.8494907,-119.7881508
1525,"E Shaw Ave., 2nd Floor, Suite F",93710,36.8078709,-119.7603526
894,West Belmont Avenue,93728,36.7521489,-119.8231949
4644,West Jennifer Avenue,93722,36.8108867,-119.8769150
6893,North Golden State Boulevard,93722,36.8347085,-119.9186758
6733,North Riverside Drive,93722,36.8361271,-119.9122882
6623,North Riverside Drive,93722,36.8347045,-119.9106433
2611,East Matoian Way,93740,36.8101591,-119.7440233
5320,North Maple Avenue,93710,36.8145649,-119.7443421
1704,Van Ness Avenue,93721,36.7418582,-119.7967424
4848,East Kings Canyon Road,93727,36.7354579,-119.7335747
4972,East Kings Canyon Road,93727,36.7354956,-119.7290116
5192,East Kings Canyon Road,93727,36.7354397,-119.7191940
3210,East Jensen,93706,36.7064256,-119.7703788
3218,East Jensen,93706,36.7064557,-119.7699952
4952,East Kings Canyon Road,93727,36.7354881,-119.7289129
4853,East McKinley Avenue,93703,36.7655981,-119.7347153
5211,East Kings Canyon Road,93727,36.7362918,-119.7179935
2443,Foundry Park Ave,93706,36.7127376,-119.7763696
4424,West Shaw Avenue,93722,36.8094488,-119.8717740
4416,West Shaw Avenue,93722,36.8094480,-119.8715433
2935,S. Elm Ave.,93706,36.6947735,-119.7901830
6701,North Milburn Avenue,93722,36.8347726,-119.8794761
1280,West Belmont Avenue,93728,36.7505082,-119.8263100
4005,North Blackstone Avenue,93726,36.7906841,-119.7909520
7421,North Maple Avenue,93720,36.8438998,-119.7478900
3898,North Ann Avenue,93720,36.7884465,-119.7274076
920,F Street,93706,36.7298574,-119.7940795
1535,Kern Street,93706,36.7300410,-119.7933057
4710,North Cedar Avenue,93726,36.8034095,-119.7537752
1185,East Champlain Drive,93720,36.8705598,-119.7629587
8464,North Friant Road,93720,36.8576589,-119.7860565
2648,East Ashlan Avenue,93726,36.7939384,-119.7794809
6286,N Blackstone Ave,93710,36.8280929,-119.7893297
3177,North Cedar Avenue,93703,36.7793170,-119.7547961
3177,North Cedar Avenue,93703,36.7791806,-119.7549429
201,North Van Ness Boulevard,93704,36.7765104,-119.8039758
2650,Tulare Street,93721-1325,36.7384048,-119.7826964
5775,North Palm Avenue,93704,36.8223056,-119.8093294
6709,North Riverside Drive,93722,36.8354550,-119.9105800
6073,N Fresno St,93710,36.8240325,-119.7816972
700,Van Ness Avenue,93721,36.7318824,-119.7858771
700,Van Ness Avenue,93721,36.7319257,-119.7859189
2233,Ventura Street,93721,36.7322242,-119.7839010
3912,North Hayston Avenue,93726,36.7888457,-119.7470290
3934,North Hayston Avenue,93726,36.7891598,-119.7475390
4545,East Dakota Avenue,93726,36.7872448,-119.7476760
4803,East McKinley,93703-3532,36.7655573,-119.7360420
3798,West Shields Avenue,93722-6702,36.7794237,-119.8617464
1116,North Fulton Street,93728,36.7570435,-119.8000925
15,East Audubon Drive,93720,36.8608714,-119.7892825
7797,North First Street,93720,36.8516559,-119.7756273
7797,North First Street,93720,36.8516516,-119.7755720
2015,Broadway Street,93721,36.7432096,-119.8024870
2013,Broadway,93721,36.7431922,-119.8025380
6467,North Riverside Drive,93722,36.8309003,-119.9085710
6581,North Riverside Drive,93722,36.8329521,-119.9111752
6591,North Riverside Drive,93722,36.8332614,-119.9115155
6733,North Riverside Drive,93722,36.8362035,-119.9120890
6733,North Riverside Drive,93722,36.8360224,-119.9126687
6709,North Riverside Drive,93722,36.8358566,-119.9107902
6709,North Riverside Drive,93722,36.8357001,-119.9107093
6611,North Riverside Drive,93722,36.8339675,-119.9103379
6569,North Riverside Drive,93722,36.8336472,-119.9100054
6065,North Thesta Street,93710,36.8243618,-119.7839184
1401,North Clovis Avenue,93727,36.7610886,-119.7010219
3443,West Gettysburg Avenue,93722,36.8006862,-119.8574499
6792,North Riverside Drive,93722,36.8364694,-119.9102306
1987,North Gateway Boulevard,93727,36.7689063,-119.7266776
1605,North Cedar Avenue,93703,36.7655508,-119.7550310
3230,West Shaw Avenue,93711,36.8086017,-119.8496568
3687,W Swift Ave,93722,36.7957895,-119.8595413
103,North Sunnyside Avenue,93727,36.7742483,-119.6920940
2505,North Fowler Avenue,93727,36.7732877,-119.6827531
2619,South East Avenue,93706,36.7066391,-119.7755004
2619,South East Avenue,93706,36.7064316,-119.7756687
4224,East Shields Avenue,93726,36.7791766,-119.7532652
6611,North Riverside Drive,93722,36.8338488,-119.9105469
1060,Fulton Mall,93721,36.7349072,-119.7908071
4864,East Kings Canyon Road,93727,36.7335808,-119.7334252
4856,East Kings Canyon Road,93727,36.7343188,-119.7341709
4856,East Kings Canyon Road,93727,36.7343187,-119.7340639
4842,East Kings Canyon Road,93727,36.7343189,-119.7342812
4842,East Kings Canyon Road,93727,36.7343190,-119.7343441
4842,East Kings Canyon Road,93727,36.7343192,-119.7345158
4842,East Kings Canyon Road,93727,36.7343191,-119.7344221
4838,East Kings Canyon Road,93727,36.7343593,-119.7347320
4830,East Kings Canyon Road,93727,36.7342757,-119.7359720
4832,East Kings Canyon Road,93727,36.7342762,-119.7357676
4834,East Kings Canyon Road,93727,36.7342766,-119.7356490
4836,East Kings Canyon Road,93727,36.7342767,-119.7355860
4850,East Kings Canyon Road,93727,36.7343596,-119.7347720
4810,East Kings Canyon Road,93727,36.7352604,-119.7355084
4810,East Kings Canyon Road,93727,36.7352826,-119.7358519
4810,East Kings Canyon Road,93727,36.7353688,-119.7358569
4810,East Kings Canyon Road,93727,36.7354829,-119.7357520
4846,East Kings Canyon Road,93727,36.7356093,-119.7341770
4846,East Kings Canyon Road,93727,36.7355574,-119.7341753
4846,East Kings Canyon Road,93727,36.7354995,-119.7341740
4846,East Kings Canyon Road,93727,36.7354413,-119.7341753
4848,East Kings Canyon Road,93727,36.7355586,-119.7335731
4848,East Kings Canyon Road,93727,36.7356203,-119.7335721
4903,East Kings Canyon Road,93727,36.7374431,-119.7316283
4903,East Kings Canyon Road,93727,36.7374439,-119.7315292
4903,East Kings Canyon Road,93727,36.7374445,-119.7314530
4903,East Kings Canyon Road,93727,36.7374450,-119.7313867
4905,East Kings Canyon Road,93727,36.7374460,-119.7312552
4905,East Kings Canyon Road,93727,36.7374477,-119.7310465
4857,East Kings Canyon Road,93727,36.7371121,-119.7337101
4859,East Kings Canyon Road,93727,36.7371639,-119.7337100
4861,East Kings Canyon Road,93727,36.7372189,-119.7337104
4863,East Kings Canyon Road,93727,36.7372700,-119.7337106
4869,East Kings Canyon Road,93727,36.7373749,-119.7337109
4867,East Kings Canyon Road,93727,36.7373281,-119.7337107
4871,East Kings Canyon Road,93727,36.7374898,-119.7335668
4873,East Kings Canyon Road,93727,36.7374897,-119.7334961
4875,East Kings Canyon Road,93727,36.7374895,-119.7334246
4877,East Kings Canyon Road,93727,36.7374894,-119.7333539
4879,East Kings Canyon Road,93727,36.7374892,-119.7332860
4881,East Kings Canyon Road,93727,36.7374891,-119.7332216
4883,East Kings Canyon Road,93727,36.7374889,-119.7331469
4885,East Kings Canyon Road,93727,36.7374888,-119.7330856
4887,East Kings Canyon Road,93727,36.7374886,-119.7330104
4889,East Kings Canyon Road,93727,36.7374885,-119.7329418
4893,East Kings Canyon Road,93727,36.7374880,-119.7327171
4891,East Kings Canyon Road,93727,36.7374883,-119.7328433
4907,East Kings Canyon Road,93727,36.7373653,-119.7308567
4911,East Kings Canyon Road,93727,36.7373653,-119.7307248
4915,East Kings Canyon Road,93727,36.7372255,-119.7305290
4917,East Kings Canyon Road,93727,36.7371737,-119.7305296
4917,East Kings Canyon Road,93727,36.7371458,-119.7305298
4917,East Kings Canyon Road,93727,36.7371122,-119.7305302
4919,East Kings Canyon Road,93727,36.7370759,-119.7305306
4921,East Kings Canyon Road,93727,36.7370275,-119.7305311
4923,East Kings Canyon Road,93727,36.7368858,-119.7305326
4923,East Kings Canyon Road,93727,36.7369482,-119.7305319
4925,East Kings Canyon Road,93727,36.7368411,-119.7305331
4929,East Kings Canyon Road,93727,36.7366017,-119.7305356
7355,North Blackstone Avenue,93650,36.8436875,-119.7910642
4747,North Woodrow Avenue,93726,36.8036111,-119.7425525
4747,North Woodrow Avenue,93726,36.8036115,-119.7424892
4747,North Woodrow Avenue,93726,36.8036104,-119.7424160
4747,North Woodrow Avenue,93726,36.8036103,-119.7423510
4747,North Woodrow Avenue,93726,36.8036503,-119.7422437
4747,North Woodrow Avenue,93726,36.8036100,-119.7420689
4747,North Woodrow Avenue,93726,36.8036098,-119.7420151
4747,North Woodrow Avenue,93726,36.8036094,-119.7419392
4747,North Woodrow Avenue,93726,36.8036090,-119.7418782
4747,North Woodrow Avenue,93726,36.8036469,-119.7417715
4747,North Woodrow Avenue,93726,36.8035407,-119.7427450
4747,North Woodrow Avenue,93726,36.8036014,-119.7427450
4747,North Woodrow Avenue,93726,36.8036559,-119.7427444
4747,North Woodrow Avenue,93726,36.8037035,-119.7427444
4747,North Woodrow Avenue,93726,36.8037660,-119.7427031
4747,North Woodrow Avenue,93726,36.8038186,-119.7427008
4747,North Woodrow Avenue,93726,36.8038689,-119.7427444
4747,North Woodrow Avenue,93726,36.8039650,-119.7427455
4747,North Woodrow Avenue,93726,36.8040199,-119.7427438
4747,North Woodrow Avenue,93726,36.8040856,-119.7427240
4747,North Woodrow Avenue,93726,36.8041360,-119.7427240
4747,North Woodrow Avenue,93726,36.8041908,-119.7427234
4747,North Woodrow Avenue,93726,36.8040489,-119.7423503
4747,North Woodrow Avenue,93726,36.8040503,-119.7423984
4747,North Woodrow Avenue,93726,36.8040566,-119.7425094
4747,North Woodrow Avenue,93726,36.8040253,-119.7422535
4747,North Woodrow Avenue,93726,36.8040249,-119.7421799
4747,North Woodrow Avenue,93726,36.8040308,-119.7420813
4747,North Woodrow Avenue,93726,36.8035995,-119.7415704
4747,North Woodrow Avenue,93726,36.8036050,-119.7414648
4747,North Woodrow Avenue,93726,36.8036058,-119.7413940
4747,North Woodrow Avenue,93726,36.8036330,-119.7413252
4747,North Woodrow Avenue,93726,36.8036334,-119.7412681
4747,North Woodrow Avenue,93726,36.8035987,-119.7411512
4747,North Woodrow Avenue,93726,36.8032543,-119.7428721
4747,North Woodrow Avenue,93726,36.8032307,-119.7427993
4747,North Woodrow Avenue,93726,36.8032299,-119.7427389
4747,North Woodrow Avenue,93726,36.8032347,-119.7425752
4747,North Woodrow Avenue,93726,36.8032595,-119.7424720
4747,North Woodrow Avenue,93726,36.8032618,-119.7424105
4747,North Woodrow Avenue,93726,36.8032610,-119.7423343
4747,North Woodrow Avenue,93726,36.8032610,-119.7422739
4747,North Woodrow Avenue,93726,36.8032284,-119.7421539
4747,North Woodrow Avenue,93726,36.8032268,-119.7420876
4747,North Woodrow Avenue,93726,36.8032614,-119.7420128
4747,North Woodrow Avenue,93726,36.8032610,-119.7419548
4747,North Woodrow Avenue,93726,36.8032484,-119.7418438
4747,North Woodrow Avenue,93726,36.8032327,-119.7416501
4747,North Woodrow Avenue,93726,36.8032252,-119.7415414
4747,North Woodrow Avenue,93726,36.8032587,-119.7414726
4747,North Woodrow Avenue,93726,36.8032595,-119.7414053
4747,North Woodrow Avenue,93726,36.8032598,-119.7413429
4747,North Woodrow Avenue,93726,36.8032598,-119.7412731
4747,North Woodrow Avenue,93726,36.8032307,-119.7411969
4747,North Woodrow Avenue,93726,36.8032311,-119.7411285
4747,North Woodrow Avenue,93726,36.8032347,-119.7410204
8525,North Cedar Avenue,93720,36.8595865,-119.7575792
7810,North Blackstone Avenue,93720,36.8494569,-119.7897466
6183,"N Fresno St, #101",93710,36.8262468,-119.7825725
2108,North Blackstone Avenue,93703,36.7696862,-119.7903198
5125,East Kings Canyon,93727,36.7380400,-119.7212261
4583,East Home Avenue,93703,36.7634118,-119.7461962
5233,North Blackstone Avenue,93710,36.8129212,-119.7918721
6493,North Riverside Drive,93722,36.8322268,-119.9079477
44,W Herndon,93650,36.8376845,-119.7912410
132,West Nees Avenue,93711,36.8526532,-119.7919928
1925,Broadway St,93721,36.7353075,-119.7939641
8050,North Palm Avenue,93711,36.8522150,-119.8046530
6125,North Fresno Street,93710-5207,36.8249141,-119.7821616
3467,West Shaw Avenue,93711,36.8063112,-119.8547401
1595,North Peach Avenue,93727,36.7643669,-119.7187137
4005,North Blackstone Avenue,93726,36.7906579,-119.7908500
2167,South G Street,93721,36.7194487,-119.7812982
3003,North Blackstone Avenue,93703,36.7779105,-119.7908207
1781,"East Fir Avenue, Suite 201",93720,36.8388076,-119.7505020
7731,North First Street,93720,36.8506654,-119.7757776
3520,North Blackstone Avenue,93726,36.7816199,-119.7897507
3520,North Blackstone Avenue,93726,36.7816188,-119.7901188
3520,North Blackstone Avenue,93726,36.7816172,-119.7899284
1008,West Shaw Avenue,93711,36.8093571,-119.8086749
1008,West Shaw Avenue,93711,36.8093534,-119.8088602
1008,West Shaw Avenue,93711,36.8093590,-119.8090222
702,West Shaw Avenue,93704,36.8088277,-119.8063693
704,West Shaw Avenue,93704,36.8088336,-119.8066236
706,West Shaw Avenue,93704,36.8089374,-119.8066398
708,West Shaw Avenue,93704,36.8089993,-119.8066470
710,West Shaw Avenue,93704,36.8090941,-119.8066540
712,West Shaw Avenue,93704,36.8091739,-119.8066380
718,West Shaw Avenue,93704,36.8094184,-119.8066336
780,West Shaw Avenue,93704,36.8086660,-119.8076532
770,West Shaw Avenue,93704,36.8088286,-119.8076370
5098,North Palm Avenue,93704,36.8102417,-119.8079427
5048,North Palm Avenue,93704,36.8091985,-119.8078325
5046,North Palm Avenue,93704,36.8092129,-119.8080376
5058,North Palm Avenue,93704,36.8094045,-119.8078055
5060,North Palm Avenue,93704,36.8094881,-119.8078343
5068,North Palm Avenue,93704,36.8095847,-119.8079620
5076,North Palm Avenue,93704,36.8097014,-119.8079692
5054,North Palm Avenue,93704,36.8094737,-119.8080340
5084,North Palm Avenue,93704,36.8098894,-119.8079482
5090,North Palm Avenue,93704,36.8100149,-119.8078789
5092,North Palm Avenue,93704,36.8100960,-119.8078705
5128,North Palm Avenue,93704,36.8110168,-119.8081154
5130,North Palm Avenue,93704,36.8111289,-119.8079111
5132,North Palm Avenue,93704,36.8111676,-119.8078442
5132,North Palm Avenue,93704,36.8112022,-119.8078092
5136,North Palm Avenue,93704,36.8112575,-119.8077320
5138,North Palm Avenue,93704,36.8113151,-119.8076506
724,West Shaw Avenue,93704,36.8096839,-119.8067561
722,West Shaw Avenue,93704,36.8097063,-119.8066111
728,West Shaw Avenue,93704,36.8099614,-119.8066770
730,West Shaw Avenue,93704,36.8101262,-119.8067092
734,West Shaw Avenue,93704,36.8103930,-119.8066889
734,West Shaw Avenue,93704,36.8104580,-119.8064424
738,West Shaw Avenue,93704,36.8106195,-119.8064410
740,West Shaw Avenue,93704,36.8108157,-119.8064628
742,West Shaw Avenue,93704,36.8109637,-119.8064462
746,West Shaw Avenue,93704,36.8111430,-119.8065650
752,West Shaw Avenue,93704,36.8111358,-119.8061140
680,West Shaw Avenue,93704,36.8098264,-119.8061215
642,West Shaw Avenue,93704,36.8089044,-119.8055142
632,West Shaw Avenue,93704,36.8086938,-119.8055202
2477,North Burl Avenue,93727,36.7717130,-119.6762724
760,West Shaw Avenue,93704,36.8117869,-119.8057388
760,West Shaw Avenue,93704,36.8117944,-119.8056136
756,West Shaw Avenue,93704,36.8115501,-119.8052818
768,West Shaw Avenue,93704,36.8117424,-119.8065835
768,West Shaw Avenue,93704,36.8117656,-119.8061100
768,West Shaw Avenue,93704,36.8117774,-119.8063880
5180,North Palm Avenue,93704,36.8115676,-119.8081004
5792,North Palm Avenue,93704,36.8225756,-119.8078878
5789,North Palm Avenue,93704,36.8226767,-119.8091747
5785,North Palm Avenue,93704,36.8225167,-119.8091707
5747,North Palm Avenue,93704,36.8218776,-119.8091818
6011,North Palm Avenue,93704,36.8231077,-119.8085331
6011,North Palm Avenue,93704,36.8231225,-119.8086819
6015,North Palm Avenue,93704,36.8231069,-119.8088270
750,West Bullard Avenue,93704,36.8238427,-119.8070202
740,West Bullard Avenue,93704,36.8233921,-119.8068250
742,West Bullard Avenue,93704,36.8235333,-119.8068203
736,West Bullard Avenue,93704,36.8233110,-119.8067847
734,West Bullard Avenue,93704,36.8232327,-119.8067861
732,West Bullard Avenue,93704,36.8231672,-119.8067814
2097,West Bullard Avenue,93711,36.8225260,-119.8279124
2085,West Bullard Avenue,93711,36.8225240,-119.8284210
2046,West Bullard Avenue,93711,36.8235388,-119.8274668
1731,West Bullard Avenue,93711,36.8220583,-119.8260753
2085,West Bullard Avenue,93711,36.8224653,-119.8284441
2075,West Bullard Avenue,93711,36.8223503,-119.8283597
2075,West Bullard Avenue,93711,36.8223022,-119.8283521
2069,West Bullard Avenue,93711,36.8219864,-119.8283232
2063,West Bullard Avenue,93711,36.8219134,-119.8283437
2061,West Bullard Avenue,93711,36.8218714,-119.8282882
2059,West Bullard Avenue,93711,36.8218209,-119.8282061
2057,West Bullard Avenue,93711,36.8217777,-119.8281491
2053,West Bullard Avenue,93711,36.8217789,-119.8280723
2053,West Bullard Avenue,93711,36.8217850,-119.8279393
2047,West Bullard Avenue,93711,36.8217825,-119.8278337
2053,West Bullard Avenue,93711,36.8217503,-119.8280693
2043,West Bullard Avenue,93711,36.8218142,-119.8276771
2041,West Bullard Avenue,93711,36.8218118,-119.8276239
2039,West Bullard Avenue,93711,36.8218156,-119.8275648
2037,West Bullard Avenue,93711,36.8218188,-119.8274588
2033,West Bullard Avenue,93711,36.8217891,-119.8273397
2031,West Bullard Avenue,93711,36.8217972,-119.8272547
2021,West Bullard Avenue,93711,36.8217588,-119.8269410
2013,West Bullard Avenue,93711,36.8217625,-119.8270639
2013,West Bullard Avenue,93711,36.8218739,-119.8268730
2009,West Bullard Avenue,93711,36.8219630,-119.8268653
2007,West Bullard Avenue,93711,36.8220768,-119.8267864
2005,West Bullard Avenue,93711,36.8220786,-119.8267014
1731,West Bullard Avenue,93711,36.8220963,-119.8259381
1731,West Bullard Avenue,93711,36.8220906,-119.8256860
1731,West Bullard Avenue,93711,36.8222009,-119.8249423
173,West Bullard Avenue,93711,36.8221143,-119.8256081
1731,West Bullard Avenue,93711,36.8221182,-119.8254960
1731,West Bullard Avenue,93711,36.8220922,-119.8253239
1731,West Bullard Avenue,93711,36.8221025,-119.8250810
1731,West Bullard Avenue,93711,36.8221544,-119.8249453
1731,West Bullard Avenue,93711,36.8225725,-119.8248764
1731,West Bullard Avenue,93711,36.8225105,-119.8249583
1731,West Bullard Avenue,93711,36.8224567,-119.8249625
1731,West Bullard Avenue,93711,36.8223973,-119.8249289
1784,West Bullard Avenue,93711,36.8235428,-119.8259123
1778,West Bullard Avenue,93711,36.8235149,-119.8257125
1776,West Bullard Avenue,93711,36.8235385,-119.8255355
1772,West Bullard Avenue,93711,36.8235364,-119.8254376
1760,West Bullard Avenue,93711,36.8235331,-119.8252203
1740,West Bullard Avenue,93711,36.8235106,-119.8248890
1728,West Bullard Avenue,93711,36.8233850,-119.8249051
1724,West Bullard Avenue,93711,36.8231563,-119.8248971
1736,West Bullard Avenue,93711,36.8232884,-119.8249065
1732,West Bullard Avenue,93711,36.8235256,-119.8249843
2040,West Bullard Avenue,93711,36.8235382,-119.8273738
2034,West Bullard Avenue,93711,36.8235489,-119.8272679
2026,West Bullard Avenue,93711,36.8235597,-119.8271391
2026,West Bullard Avenue,93711,36.8236144,-119.8271673
2026,West Bullard Avenue,93711,36.8236100,-119.8270913
2020,West Bullard Avenue,93711,36.8235682,-119.8269478
2016,West Bullard Avenue,93711,36.8235649,-119.8268808
2014,West Bullard Avenue,93711,36.8235596,-119.8267668
2012,West Bullard Avenue,93711,36.8235695,-119.8266726
2010,West Bullard Avenue,93711,36.8232682,-119.8268144
2006,West Bullard Avenue,93711,36.8231513,-119.8268171
2004,West Bullard Avenue,93711,36.8230863,-119.8268105
2002,West Bullard Avenue,93711,36.8229910,-119.8268023
2008,West Bullard Avenue,93711,36.8232181,-119.8268093
2066,West Bullard Avenue,93711,36.8231667,-119.8278834
2066,West Bullard Avenue,93711,36.8229900,-119.8278997
5044,North West Avenue,93711,36.8089297,-119.8258848
5040,North West Avenue,93711,36.8089313,-119.8260871
2088,West Shaw Avenue,93711,36.8086173,-119.8282801
2088,West Shaw Avenue,93711,36.8086999,-119.8282701
3419,W Shaw Ave,93711,36.8070051,-119.8541634
3699,West Shaw Avenue,93711,36.8058718,-119.8614444
3675,West Shaw Avenue,93711,36.8059361,-119.8604018
3657,West Shaw Avenue,93711,36.8058782,-119.8596289
4020,West Shaw Avenue,93711,36.8088228,-119.8631299
4020,West Shaw Avenue,93711,36.8087626,-119.8629485
4140,North West Avenue,93705,36.7926558,-119.8248434
4120,North West Avenue,93705,36.7922572,-119.8246784
4116,North West Avenue,93705,36.7916516,-119.8258172
4116,North West Avenue,93705,36.7916559,-119.8259366
4116,North West Avenue,93705,36.7916553,-119.8261237
1987,West Clinton Avenue,93705,36.7716320,-119.8351327
1987,West Clinton Avenue,93705,36.7716289,-119.8349494
1935,West Clinton Avenue,93705,36.7704281,-119.8337970
1937,West Clinton Avenue,93705,36.7704842,-119.8341705
1943,West Clinton Avenue,93705,36.7705540,-119.8343842
1943,West Clinton Avenue,93705,36.7705785,-119.8344168
1943,West Clinton Avenue,93705,36.7706318,-119.8344605
1943,West Clinton Avenue,93705,36.7706932,-119.8345362
1951,West Clinton Avenue,93705,36.7708458,-119.8350155
3092,West Shaw Avenue,93711,36.8085559,-119.8463942
3090,West Shaw Avenue,93711,36.8088056,-119.8463046
3090,West Shaw Avenue,93711,36.8087327,-119.8463029
7530,North Blackstone Avenue,93720,36.8455648,-119.7864456
7512,North Blackstone Avenue,93720,36.8452021,-119.7864671
7502,North Blackstone Avenue,93720,36.8448801,-119.7864188
190,Paseo Del Centro,93720,36.8495949,-119.7881160
170,Paseo Del Centro,93720,36.8494784,-119.7882906
160,Paseo Del Centro,93720,36.8494815,-119.7883712
140,Paseo Del Centro,93720,36.8494981,-119.7885502
134,Terrado Plaza,93720,36.8494992,-119.7886300
130,Paseo Del Centro,93720,36.8495008,-119.7887145
7830,North Via Del Rio,93720,36.8498118,-119.7888782
7840,North Blackstone Avenue,93720,36.8499674,-119.7888594
185,Paseo Del Centro,93720,36.8491765,-119.7881419
165,Terrado Plaza,93720,36.8491937,-119.7883605
145,Paseo Del Centro,93720,36.8491561,-119.7885617
115,Paseo Del Centro,93720,36.8491228,-119.7888272
215,Paseo Del Centro,93720,36.8490789,-119.7881217
235,Paseo Del Centro,93720,36.8489731,-119.7880929
235,Paseo Del Centro,93720,36.8489265,-119.7881686
190,East El Camino,93720,36.8487902,-119.7881405
775,North Via Del Rio,93720,36.8488151,-119.7894766
110,Paseo Del Centro,93720,36.8490072,-119.7894725
7753,North Via Del Rio,93720,36.8491993,-119.7894310
7807,North Via Del Rio,93720,36.8494429,-119.7893733
110,Paseo Del Centro,93720,36.8491274,-119.7894511
7831,North Via Del Rio,93720,36.8496994,-119.7892767
95,East Via Del Oro,93720,36.8499001,-119.7892915
90,East Via Del Oro,93720,36.8503583,-119.7891775
85,East Via Del Oro,93720,36.8499701,-119.7894320
75,East Via Del Oro,93720,36.8500130,-119.7895835
7844,North Blackstone Avenue,93720,36.8498810,-119.7898571
7850,North Via Del Rio,93720,36.8501330,-119.7886587
7880,North Via Del Rio,93720,36.8502156,-119.7885796
175,East Via Del Parque,93720,36.8500101,-119.7881779
230,Paseo Del Centro,93720,36.8497976,-119.7881545
220,Paseo Del Centro,93720,36.8497209,-119.7881431
7855,North Via Del Rio,93720,36.8504281,-119.7889886
7881,North Via Del Rio,93720,36.8504968,-119.7889015
7885,North Via Del Rio,93720,36.8505611,-119.7887821
70,East Via Del Oro,93720,36.8504047,-119.7895482
50,East Via Del Oro,93720,36.8503704,-119.7898459
60,East Via Del Oro,93720,36.8503733,-119.7897611
40,East Via Del Oro,93720,36.8503288,-119.7900280
7876,North Blackstone Avenue,93720,36.8503830,-119.7900890
7786,North Blackstone Avenue,93720,36.8491910,-119.7897749
7784,North Blackstone Avenue,93720,36.8490762,-119.7898044
90,El Camino,93720,36.8483249,-119.7891834
65,East Via La Plata,93720,36.8484146,-119.7895126
45,East Via La Plata,93720,36.8484123,-119.7897051
35,East Via La Plata,93720,36.8482745,-119.7898202
7662,North Blackstone Avenue,93720,36.8479941,-119.7896993
40,El Camino,93720,36.8478461,-119.7892872
50,El Camino,93720,36.8479511,-119.7892760
60,El Camino,93720,36.8480196,-119.7892385
70,El Camino,93720,36.8480631,-119.7892416
80,El Camino,93720,36.8481641,-119.7892097
7654,North Blackstone Avenue,93720,36.8467932,-119.7895279
7656,North Blackstone Avenue,93720,36.8469022,-119.7894468
7656,North Blackstone Avenue,93720,36.8468877,-119.7894079
7658,North Blackstone Avenue,93720,36.8469784,-119.7893395
7628,North Blackstone Avenue,93720,36.8468450,-119.7886887
7622,North Blackstone Avenue,93720,36.8466669,-119.7884969
7400,North Blackstone Avenue,93720,36.8449422,-119.7898649
7418,North Blackstone Avenue,93720,36.8449272,-119.7894679
7440,North Blackstone Avenue,93720,36.8449379,-119.7890522
7464,North Blackstone Avenue,93720,36.8450967,-119.7882716
7675,North Blackstone Avenue,93711,36.8477937,-119.7920505
7675,North Blackstone Avenue,93711,36.8478554,-119.7918140
7675,North Blackstone Avenue,93720,36.8478436,-119.7919883
7675,North Blackstone Avenue,93720,36.8476492,-119.7920955
7675,North Blackstone Avenue,93720,36.8475986,-119.7920769
7685,North Blackstone Avenue,93720,36.8478218,-119.7915774
7685,North Blackstone Avenue,93720,36.8478213,-119.7914287
7685,North Blackstone Avenue,93720,36.8478322,-119.7912112
7639,North Blackstone Avenue,93720,36.8464689,-119.7916622
7641,North Blackstone Avenue,93720,36.8466464,-119.7919983
128,West Nees Avenue,93720,36.8521643,-119.7916820
128,West Nees Avenue,93711,36.8521671,-119.7913960
132,West Nees Avenue,93711,36.8526937,-119.7915571
132,West Nees Avenue,93711,36.8526737,-119.7916536
132,West Nees Avenue,93711,36.8526668,-119.7918103
132,West Nees Avenue,93711,36.8526613,-119.7918870
132,West Nees Avenue,93711,36.8526537,-119.7921152
132,West Nees Avenue,93711,36.8526399,-119.7922332
132,West Nees Avenue,93711,36.8525083,-119.7922668
132,West Nees Avenue,93711,36.8524325,-119.7922806
132,West Nees Avenue,93711,36.8522898,-119.7922849
7983,North Blackstone Avenue,93720,36.8514359,-119.7920572
7975,North Blackstone Avenue,93720,36.8514437,-119.7922010
7973,North Blackstone Avenue,93720,36.8514460,-119.7922602
7971,North Blackstone Avenue,93720,36.8514441,-119.7923141
7969,North Blackstone Avenue,93720,36.8514446,-119.7923768
7967,North Blackstone Avenue,93720,36.8514484,-119.7924692
7959,North Blackstone Avenue,93720,36.8514598,-119.7927016
7955,North Blackstone Avenue,93720,36.8514593,-119.7928491
7949,North Blackstone Avenue,93720,36.8514566,-119.7929691
7945,North Blackstone Avenue,93720,36.8514684,-119.7931200
7925,North Blackstone Avenue,93720,36.8511723,-119.7944086
7923,North Blackstone Avenue,93720,36.8508483,-119.7944158
7917,North Blackstone Avenue,93720,36.8506482,-119.7943348
7911,North Blackstone Avenue,93720,36.8504388,-119.7944014
7901,North Blackstone Avenue,93720,36.8501137,-119.7943522
7899,North Blackstone Avenue,93720,36.8500477,-119.7942640
7897,North Blackstone Avenue,93720,36.8499887,-119.7941700
7895,North Blackstone Avenue,93720,36.8499471,-119.7940225
7891,North Blackstone Avenue,93720,36.8499332,-119.7938621
7883,North Blackstone Avenue,93720,36.8499598,-119.7934659
7871,North Blackstone Avenue,93720,36.8499783,-119.7929483
7863,North Blackstone Avenue,93720,36.8499679,-119.7926606
7855,North Blackstone Avenue,93720,36.8499609,-119.7924018
7849,North Blackstone Avenue,93720,36.8498082,-119.7920793
7825,North Blackstone Avenue,93720,36.8492692,-119.7914628
7825,North Blackstone Avenue,93720,36.8493081,-119.7912948
7735,North Blackstone Avenue,93720,36.8485827,-119.7921667
7735,North Blackstone Avenue,93720,36.8483811,-119.7921113
7735,North Blackstone Avenue,93720,36.8483217,-119.7920433
7735,North Blackstone Avenue,93720,36.8482757,-119.7919806
7723,North Blackstone Avenue,93720,36.8483685,-119.7916115
7723,North Blackstone Avenue,93720,36.8483803,-119.7915060
7723,North Blackstone Avenue,93720,36.8483869,-119.7913397
7723,North Blackstone Avenue,93720,36.8483953,-119.7912320
7357,North Blackstone Avenue,93650,36.8437356,-119.7911287
7359,North Blackstone Avenue,93650,36.8437821,-119.7911306
7361,North Blackstone Avenue,93650,36.8438326,-119.7911287
7369,North Blackstone Avenue,93650,36.8439590,-119.7911123
7335,North Blackstone Avenue,93650,36.8432239,-119.7910347
7335,North Blackstone Avenue,93650,36.8432761,-119.7910202
7335,North Blackstone Avenue,93650,36.8433267,-119.7910243
7339,North Blackstone Avenue,93650,36.8434106,-119.7910046
7370,North Blackstone Avenue,93650,36.8440053,-119.7889885
7374,North Blackstone Avenue,93650,36.8443185,-119.7890721
7173,North Blackstone Avenue,93650,36.8406981,-119.7906923
6680,North Blackstone Avenue,93710,36.8354268,-119.7899100
6680,North Blackstone Avenue,93710,36.8354293,-119.7896806
5700,North Blackstone Avenue,93710,36.8210667,-119.7881552
86,East Shaw Avenue,93710,36.8090047,-119.7886806
84,East Shaw Avenue,93710,36.8089985,-119.7889496
54,East Shaw Avenue,93710,36.8088914,-119.7893398
50,East Shaw Avenue,93710,36.8088851,-119.7894883
40,East Shaw Avenue,93710,36.8088896,-119.7897064
34,East Shaw Avenue,93710,36.8088846,-119.7898272
24,East Shaw Avenue,93710,36.8088796,-119.7900257
5048,North Blackstone Avenue,93710,36.8090810,-119.7901509
5048,North Blackstone Avenue,93710,36.8091171,-119.7899466
5048,North Blackstone Avenue,93710,36.8091118,-119.7895475
5048,North Blackstone Avenue,93710,36.8091080,-119.7894301
5054,North Blackstone Avenue,93710,36.8096659,-119.7902029
5054,North Blackstone Avenue,93710,36.8096689,-119.7900762
5054,North Blackstone Avenue,93710,36.8096583,-119.7899541
5776,North Blackstone Avenue,93710,36.8221987,-119.7901234
5776,North Blackstone Avenue,93710,36.8222030,-119.7899893
5776,North Blackstone Avenue,93710,36.8221841,-119.7896925
5776,North Blackstone Avenue,93710,36.8221919,-119.7898513
3042,East Campus Pointe Drive,93710,36.8124160,-119.7353126
3050,East Campus Pointe Drive,93710,36.8124168,-119.7351998
3052,East Campus Pointe Drive,93710,36.8124168,-119.7351127
3056,East Campus Pointe Drive,93710,36.8124129,-119.7350492
3060,East Campus Pointe Drive,93710,36.8124129,-119.7349588
3108,East Campus Pointe Drive,93710,36.8124234,-119.7343285
3112,East Campus Pointe Drive,93710,36.8124252,-119.7341828
3122,East Campus Pointe Drive,93710,36.8124168,-119.7339353
3142,East Campus Pointe Drive,93710,36.8124098,-119.7336166
3123,East Campus Pointe Drive,93710,36.8120411,-119.7341681
3115,East Campus Pointe Drive,93710,36.8118842,-119.7341641
3085,East Campus Pointe Drive,93710,36.8116680,-119.7346736
3091,East Campus Pointe Drive,93710,36.8116680,-119.7344760
3071,East Campus Pointe Drive,93710,36.8118980,-119.7349302
3053,East Campus Pointe Drive,93710,36.8120572,-119.7348934
3047,East Campus Pointe Drive,93710,36.8120808,-119.7350279
3039,East Campus Pointe Drive,93710,36.8120814,-119.7351654
2633,East Shaw Avenue,93710,36.8079207,-119.7405981
2633,East Shaw Avenue,93710,36.8079235,-119.7404852
2633,East Shaw Avenue,93710,36.8079190,-119.7403616
2633,East Shaw Avenue,93710,36.8079228,-119.7402535
2633,East Shaw Avenue,93710,36.8079196,-119.7401261
4950,North Woodrow Avenue,93726,36.8076880,-119.7406401
4950,North Woodrow Avenue,93726,36.8075700,-119.7406290
2375,East Shaw Avenue,93710,36.8080549,-119.7459455
1732,East Shaw Avenue,93710,36.8094336,-119.7555710
5075,North Cedar Avenue,93710,36.8099178,-119.7559185
4978,North Cedar Avenue,93726,36.8081645,-119.7534141
4968,North Cedar Avenue,93726,36.8080773,-119.7534141
4950,North Cedar Avenue,93726,36.8079172,-119.7539064
4950,North Cedar Avenue,93726,36.8079254,-119.7537803
1418,East Shaw Avenue,93710,36.8090404,-119.7627658
4983,North Blackstone Avenue,93726,36.8082914,-119.7913800
4955,North Blackstone Avenue,93726,36.8081518,-119.7913867
4945,North Blackstone Avenue,93726,36.8079059,-119.7913384
4935,North Blackstone Avenue,93726,36.8074979,-119.7913210
4923,North Blackstone Avenue,93704,36.8073536,-119.7910671
4921,North Blackstone Avenue,93726,36.8073532,-119.7910136
4925,North Blackstone Avenue,93726,36.8073585,-119.7911295
4919,North Blackstone Avenue,93726,36.8073316,-119.7909441
4915,North Blackstone Avenue,93726,36.8073235,-119.7908455
21,East Shaw Avenue,93710,36.8082751,-119.7891322
7010,North Cedar Avenue,93720,36.8378259,-119.7532924
7010,North Cedar Avenue,93720,36.8377158,-119.7532991
6769,North Cedar Avenue,93710,36.8369736,-119.7553027
6761,North Cedar Avenue,93710,36.8368226,-119.7552977
6759,North Cedar Avenue,93710,36.8367283,-119.7552908
6757,North Cedar Avenue,93710,36.8366507,-119.7552993
6767,North Cedar Avenue,93710,36.8369127,-119.7552823
6755,North Cedar Avenue,93710,36.8365736,-119.7553008
6753,North Cedar Avenue,93710,36.8365045,-119.7552993
6749,North Cedar Avenue,93710,36.8364466,-119.7553016
6737,North Cedar Avenue,93710,36.8359482,-119.7550636
6735,North Cedar Avenue,93710,36.8359476,-119.7549437
6733,North Cedar Avenue,93710,36.8359448,-119.7548318
6731,North Cedar Avenue,93710,36.8359472,-119.7547526
6648,North Cedar Avenue,93710,36.8347350,-119.7530992
6650,North Cedar Avenue,93710,36.8347375,-119.7530030
6652,North Cedar Avenue,93710,36.8347377,-119.7529280
6656,North Cedar Avenue,93710,36.8347345,-119.7527382
6670,North Cedar Avenue,93710,36.8351018,-119.7522239
6702,North Cedar Avenue,93710,36.8356471,-119.7522252
6716,North Cedar Avenue,93710,36.8359191,-119.7522826
6728,North Cedar Avenue,93710,36.8361612,-119.7521989
6750,North Cedar Avenue,93710,36.8365854,-119.7522066
802,West Pinedale Avenue,93711,36.8459472,-119.8070501
6729 N,Willow Ave Ste 104,93710,36.8340514,-119.7312122
7094,North Cedar Avenue,93720,36.8380389,-119.7525643
7090,North Cedar Avenue,93720,36.8381153,-119.7524794
7080,North Cedar Avenue,93720,36.8382707,-119.7524782
7076,North Cedar Avenue,93720,36.8383600,-119.7524677
7068,North Cedar Avenue,93720,36.8384578,-119.7524643
7064,North Cedar Avenue,93720,36.8385145,-119.7524631
7062,North Cedar Avenue,93720,36.8385778,-119.7524631
7058,North Cedar Avenue,93720,36.8386420,-119.7524608
7050,North Cedar Avenue,93720,36.8387602,-119.7525352
7044,North Cedar Avenue,93720,36.8388533,-119.7528759
7038,North Cedar Avenue,93720,36.8388747,-119.7529957
7032,North Cedar Avenue,93720,36.8388412,-119.7531004
7028,North Cedar Avenue,93720,36.8388431,-119.7531841
7024,North Cedar Avenue,93720,36.8388524,-119.7532666
7020,North Cedar Avenue,93720,36.8388617,-119.7533690
7033,North Cedar Avenue,93720,36.8378582,-119.7564853
7053,North Cedar Avenue,93720,36.8379575,-119.7564739
7059,North Cedar Avenue,93720,36.8380639,-119.7564782
7065,North Cedar Avenue,93720,36.8381875,-119.7564644
7087,North Cedar Avenue,93720,36.8383056,-119.7564670
6733,North Riverside Drive,93722,36.8360552,-119.9125588
6733,North Riverside Drive,93722,36.8360982,-119.9124152
6733,North Riverside Drive,93722,36.8361767,-119.9121887
6717,North Riverside Drive,93722,36.8361173,-119.9111238
6717,North Riverside Drive,93722,36.8360026,-119.9109723
6611,North Riverside Drive,93722,36.8339288,-119.9103969
6611,North Riverside Drive,93722,36.8338037,-119.9106008
6623,North Riverside Drive,93722,36.8344832,-119.9104021
6569,North Riverside Drive,93722,36.8334861,-119.9102861
6593,North Riverside Drive,93722,36.8333150,-119.9116008
6599,North Riverside Drive,93722,36.8333741,-119.9117121
6587,North Riverside Drive,93722,36.8330778,-119.9113138
6575,North Riverside Drive,93722,36.8328637,-119.9110651
6467,North Riverside Drive,93722,36.8308884,-119.9083895
6467,North Riverside Drive,93722,36.8308369,-119.9082768
6443,North Riverside Drive,93722,36.8300312,-119.9071414
6443,North Riverside Drive,93722,36.8301471,-119.9073224
6467,North Riverside Drive,93722,36.8306477,-119.9079956
6467,North Riverside Drive,93722,36.8307105,-119.9080911
6467,North Riverside Drive,93722,36.8307928,-119.9082118
6467,North Riverside Drive,93722,36.8307609,-119.9081406
6479,North Riverside Drive,93722,36.8318437,-119.9074824
6479,North Riverside Drive,93722,36.8319386,-119.9075875
6493,North Riverside Drive,93722,36.8322804,-119.9080064
6493,North Riverside Drive,93722,36.8323299,-119.9080569
6493,North Riverside Drive,93722,36.8323796,-119.9081105
6525,North Riverside Drive,93722,36.8329874,-119.9087424
6525,North Riverside Drive,93722,36.8327519,-119.9085112
6525,North Riverside Drive,93722,36.8328438,-119.9085956
6525,North Riverside Drive,93722,36.8329170,-119.9086754
6780,West Herndon Avenue,93722,36.8367263,-119.9131439
4260,North Blackstone Avenue,93726,36.7948651,-119.7900249
4250,North Blackstone Avenue,93726,36.7948667,-119.7902821
4146,North Blackstone Avenue,93726,36.7923006,-119.7894201
639,East Shaw Avenue,93710,36.8075091,-119.7765959
639,East Shaw Avenue,93710,36.8075030,-119.7762270
639,East Shaw Avenue,93710,36.8075538,-119.7752664
639,East Shaw Avenue,93710,36.8072732,-119.7761214
4888,North Fresno Street,93710,36.8063313,-119.7797664
555,East Shaw Avenue,93710,36.8065747,-119.7779494
755,East Shaw Avenue,93710,36.8065672,-119.7736974
645,East Shaw Avenue,93710,36.8068822,-119.7786433
521,East Shaw Avenue,93710,36.8067842,-119.7792236
521,East Shaw Avenue,93710,36.8067160,-119.7791698
521,East Shaw Avenue,93710,36.8067168,-119.7791017
521,East Shaw Avenue,93710,36.8067201,-119.7790357
521,East Shaw Avenue,93710,36.8067176,-119.7789706
521,East Shaw Avenue,93710,36.8067152,-119.7788812
489,East Shaw Avenue,93710,36.8065671,-119.7792084
493,East Shaw Avenue,93710,36.8065654,-119.7791159
511,East Shaw Avenue,93710,36.8065663,-119.7788344
511,East Shaw Avenue,93710,36.8065638,-119.7789249
485,East Shaw Avenue,93710,36.8065654,-119.7792969
521,East Shaw Avenue,93710,36.8068592,-119.7792166
535,East Shaw Avenue,93710,36.8065858,-119.7786383
703,East Shaw Avenue,93710,36.8065793,-119.7785569
545,East Shaw Avenue,93710,36.8065817,-119.7784868
549,East Shaw Avenue,93710,36.8065825,-119.7784075
655,East Shaw Avenue,93710,36.8066810,-119.7786403
527,East Shaw Avenue,93710,36.8067591,-119.7786393
645,East Shaw Avenue,93710,36.8068153,-119.7786383
487,East Shaw Avenue,93710,36.8063213,-119.7792735
645,East Shaw Avenue,93710,36.8062620,-119.7785654
537,East Shaw Avenue,93710,36.8062531,-119.7787679
539,East Shaw Avenue,93710,36.8062532,-119.7786723
553,East Shaw Avenue,93710,36.8063045,-119.7783979
547,East Shaw Avenue,93710,36.8062698,-119.7784971
547,East Shaw Avenue,93710,36.8062630,-119.7789207
559,East Shaw Avenue,93710,36.8069196,-119.7772929
563,East Shaw Avenue,93710,36.8063180,-119.7773377
589,East Shaw Avenue,93710,36.8063258,-119.7771492
595,East Shaw Avenue,93710,36.8063322,-119.7770183
713,East Shaw Avenue,93710,36.8064391,-119.7743800
707,East Shaw Avenue,93710,36.8064472,-119.7744960
705,East Shaw Avenue,93710,36.8068105,-119.7745116
705,East Shaw Avenue,93710,36.8068065,-119.7745988
705,East Shaw Avenue,93710,36.8070511,-119.7745907
699,East Shaw Avenue,93710,36.8068258,-119.7747728
645,East Shaw Avenue,93710,36.8067815,-119.7744193
645,East Shaw Avenue,93710,36.8066092,-119.7747790
683,East Shaw Avenue,93710,36.8068231,-119.7751115
677,East Shaw Avenue,93710,36.8068273,-119.7752735
645,East Shaw Avenue,93710,36.8068237,-119.7753947
645,East Shaw Avenue,93710,36.8068273,-119.7755522
653,East Shaw Avenue,93710,36.8067334,-119.7757981
657,East Shaw Avenue,93710,36.8067353,-119.7757181
643,East Shaw Avenue,93710,36.8067400,-119.7756481
645,East Shaw Avenue,93710,36.8068232,-119.7759318
647,East Shaw Avenue,93710,36.8069514,-119.7757729
599,East Shaw Avenue,93710,36.8067966,-119.7768474
605,East Shaw Avenue,93710,36.8068002,-119.7766279
611,East Shaw Avenue,93710,36.8068016,-119.7765165
617,East Shaw Avenue,93710,36.8068044,-119.7763784
621,East Shaw Avenue,93710,36.8067754,-119.7762767
629,East Shaw Avenue,93710,36.8067385,-119.7761413
631,East Shaw Avenue,93710,36.8067371,-119.7760794
633,East Shaw Avenue,93710,36.8068398,-119.7760696
641,East Shaw Avenue,93710,36.8069293,-119.7760791
637,East Shaw Avenue,93710,36.8068953,-119.7760818
645,East Shaw Avenue,93710,36.8070776,-119.7757045
645,East Shaw Avenue,93710,36.8073318,-119.7756882
639,East Shaw Avenue,93710,36.8070610,-119.7760772
639,East Shaw Avenue,93710,36.8071684,-119.7760873
627,East Shaw Avenue,93710,36.8065027,-119.7761747
607,East Shaw Avenue,93710,36.8063351,-119.7767942
609,East Shaw Avenue,93710,36.8063293,-119.7764929
573,East Shaw Avenue,93710,36.8063218,-119.7772366
619,East Shaw Avenue,93710,36.8064961,-119.7762898
4888,North Fresno Street,93726,36.8058253,-119.7759033
661,East Shaw Avenue,93710,36.8065124,-119.7757159
661,East Shaw Avenue,93710,36.8065161,-119.7756388
675,East Shaw Avenue,93710,36.8063483,-119.7754563
679,East Shaw Avenue,93710,36.8063255,-119.7752691
689,East Shaw Avenue,93710,36.8063594,-119.7751428
697,East Shaw Avenue,93710,36.8063730,-119.7748532
845,East Shaw Avenue,93710,36.8063808,-119.7749874
615,East Shaw Avenue,93710,36.8063778,-119.7746750
7487,North Blackstone Avenue,93720,36.8453062,-119.7932528
318,East Shaw Avenue,93710,36.8089224,-119.7835687
5140,North Palm Avenue,93704,36.8114242,-119.8075455
5142,North Palm Avenue,93704,36.8114757,-119.8074681
5148,North Palm Avenue,93704,36.8115268,-119.8074045
5160,North Palm Avenue,93704,36.8115941,-119.8073443
320,East Shaw Avenue,93710,36.8089753,-119.7835516
322,East Shaw Avenue,93710,36.8090322,-119.7835382
5091,North Fresno Street,93710,36.8103575,-119.7822953
5091,North Fresno Street,93710,36.8103002,-119.7822945
5091,North Fresno Street,93710,36.8097747,-119.7823045
335,East Shaw Avenue,93710,36.8082747,-119.7826447
337,East Shaw Avenue,93710,36.8081951,-119.7826375
339,East Shaw Avenue,93710,36.8081052,-119.7826446
343,East Shaw Avenue,93710,36.8080295,-119.7826390
345,East Shaw Avenue,93710,36.8078667,-119.7826411
373,East Shaw Avenue,93710,36.8070290,-119.7824490
349,East Shaw Avenue,93710,36.8077678,-119.7826329
393,East Shaw Avenue,93710,36.8070184,-119.7816871
391,East Shaw Avenue,93710,36.8070164,-119.7817680
389,East Shaw Avenue,93710,36.8070194,-119.7818497
385,East Shaw Avenue,93710,36.8070166,-119.7820557
375,East Shaw Avenue,93710,36.8070268,-119.7823245
379,East Shaw Avenue,93710,36.8070273,-119.7821448
371,East Shaw Avenue,93710,36.8070402,-119.7825049
361,East Shaw Avenue,93710,36.8073639,-119.7826323
365,East Shaw Avenue,93710,36.8072818,-119.7826317
359,East Shaw Avenue,93710,36.8074557,-119.7826343
353,East Shaw Avenue,93710,36.8075196,-119.7826296
351,East Shaw Avenue,93710,36.8076630,-119.7826323
610,East Weldon Avenue,93704,36.7684352,-119.8037515
608,East Weldon Avenue,93704,36.7684362,-119.8038407
1940,North Echo Avenue,93704,36.7684362,-119.8039365
1936,North Echo Avenue,93704,36.7683248,-119.8038756
1930,North Echo Avenue,93704,36.7681966,-119.8038505
1900,North Echo Avenue,93704,36.7677722,-119.8038518
1922,North Echo Avenue,93704,36.7678382,-119.8038547
1916,North Echo Avenue,93704,36.7679503,-119.8038091
1918,North Echo Avenue,93704,36.7680282,-119.8038609
1916,North Echo Avenue,93704,36.7679530,-119.8039041
2003,North Van Ness Boulevard,93704,36.7688325,-119.8043455
1589,North Palm Avenue,93728,36.7646620,-119.8090568
1585,North Palm Avenue,93728,36.7645804,-119.8090556
1581,North Palm Avenue,93728,36.7645174,-119.8090587
1563,North Palm Avenue,93728,36.7642295,-119.8088672
805,East Olive Avenue,93728,36.7578384,-119.8016281
816,East Olive Avenue,93728,36.7575368,-119.8012033
814,East Olive Avenue,93728,36.7575383,-119.8012763
812,East Olive Avenue,93728,36.7575420,-119.8013346
810,East Olive Avenue,93728,36.7575436,-119.8014061
802,East Olive Avenue,93728,36.7575440,-119.8014798
1584,North Van Ness Avenue,93728,36.7646471,-119.7988189
1586,North Van Ness Avenue,93728,36.7647395,-119.7988147
1020,East McKinley Avenue,93728,36.7648147,-119.7986154
1018,East McKinley Avenue,93728,36.7648033,-119.7987390
620,East Olive Avenue,93728,36.7575320,-119.8035911
616,East Olive Avenue,93728,36.7575302,-119.8036856
608,East Olive Avenue,93728,36.7575259,-119.8038214
604,East Olive Avenue,93728,36.7575178,-119.8039260
626,East Olive Avenue,93728,36.7573985,-119.8036000
645,East Olive Avenue,93728,36.7577885,-119.8036730
724,East Olive Avenue,93728,36.7574688,-119.8023143
708,East Olive Avenue,93728,36.7575146,-119.8025957
704,East Olive Avenue,93728,36.7575189,-119.8027298
747,East Olive Avenue,93728,36.7578356,-119.8024728
737,East Olive Avenue,93728,36.7578287,-119.8026527
733,East Olive Avenue,93728,36.7578312,-119.8027401
729,East Olive Avenue,93728,36.7578328,-119.8027757
725,East Olive Avenue,93728,36.7578393,-119.8029165
816,East Fern Avenue,93728,36.7585930,-119.8006725
812,East Fern Avenue,93728,36.7585928,-119.8007120
1153,North Fulton Street,93728,36.7575184,-119.8005251
844,East Olive Avenue,93728,36.7575297,-119.8006230
838,East Olive Avenue,93728,36.7575304,-119.8007230
832,East Olive Avenue,93728,36.7575322,-119.8007938
830,East Olive Avenue,93728,36.7575389,-119.8008668
828,East Olive Avenue,93728,36.7575396,-119.8009194
1135,North Fulton Street,93728,36.7572615,-119.8005240
1130,North Wishon Avenue,93728,36.7572977,-119.8008160
920,East Olive Avenue,93728,36.7575378,-119.7998322
920,East Olive Avenue,93728,36.7574715,-119.7998295
920,East Olive Avenue,93728,36.7574063,-119.7998361
920,East Olive Avenue,93728,36.7573359,-119.7998368
1118,North Fulton Street,93728,36.7571255,-119.8000891
1130,North Fulton Street,93728,36.7572017,-119.8001137
637,East Olive Avenue,93728,36.7577822,-119.8037691
619,East Olive Avenue,93728,36.7578013,-119.8038435
609,East Olive Avenue,93728,36.7578394,-119.8041809
609,East Olive Avenue,93728,36.7579002,-119.8043635
609,East Olive Avenue,93728,36.7578376,-119.8042449
609,East Olive Avenue,93728,36.7578409,-119.8043446
7835,North Palm Avenue,93711,36.8512172,-119.8071417
7835,North Palm Avenue,93711,36.8513386,-119.8071132
7835,North Palm Avenue,93711,36.8515809,-119.8071186
7845,North Palm Avenue,93711,36.8516881,-119.8063691
7845,North Palm Avenue,93711,36.8517054,-119.8066511
7845,North Palm Avenue,93711,36.8516857,-119.8064461
7845,North Palm Avenue,93711,36.8516900,-119.8065763
7845,North Palm Avenue,93711,36.8517379,-119.8064400
7775,North Palm Avenue,93711,36.8503883,-119.8061527
7775,North Palm Avenue,93711,36.8503893,-119.8065619
7775,North Palm Avenue,93711,36.8504007,-119.8063368
7785,North Palm Avenue,93711,36.8503563,-119.8068136
7785,North Palm Avenue,93711,36.8503403,-119.8071113
7029,North Ingram Avenue,93650,36.8375857,-119.8033214
7029,North Ingram Avenue,93650,36.8375889,-119.8032346
7029,North Ingram Avenue,93650,36.8375910,-119.8030771
7029,North Ingram Avenue,93650,36.8375899,-119.8029957
7029,North Ingram Avenue,93650,36.8375970,-119.8031621
780,West Palmdon Drive,93704,36.8366520,-119.8075488
782,West Palmdon Drive,93704,36.8366492,-119.8076200
790,West Palmdon Drive,93704,36.8366454,-119.8078851
786,West Palmdon Drive,93704,36.8366482,-119.8077961
784,West Palmdon Drive,93704,36.8366496,-119.8076928
706,West Herndon Avenue,93650,36.8381843,-119.8078254
7090,North Palm Avenue,93650,36.8383070,-119.8078130
7090,North Palm Avenue,93650,36.8383951,-119.8078065
7090,North Palm Avenue,93650,36.8384945,-119.8078049
7121,North Palm Avenue,93650,36.8392002,-119.8091131
7010,North West Avenue,93711,36.8377045,-119.8255479
7082,North West Avenue,93711,36.8385614,-119.8244970
7078,North West Avenue,93711,36.8385370,-119.8244274
7076,North West Avenue,93711,36.8384797,-119.8244202
7074,North West Avenue,93711,36.8384219,-119.8244213
7070,North West Avenue,93711,36.8383654,-119.8244162
7066,North West Avenue,93711,36.8382991,-119.8244101
7062,North West Avenue,93711,36.8382324,-119.8244091
7058,North West Avenue,93711,36.8381576,-119.8244111
7038,North West Avenue,93711,36.8379717,-119.8245127
7054,North West Avenue,93711,36.8380831,-119.8244370
7010,North Marks Avenue,93711,36.8376404,-119.8470258
7081,North Marks Avenue,93711,36.8387286,-119.8492409
7081,North Marks Avenue,93711,36.8387856,-119.8492282
7081,North Marks Avenue,93711,36.8389084,-119.8492592
7081,North Marks Avenue,93711,36.8388803,-119.8492308
7089,North Marks Avenue,93711,36.8390881,-119.8490314
7089,North Marks Avenue,93711,36.8390834,-119.8485802
7089,North Marks Avenue,93711,36.8390856,-119.8485005
7089,North Marks Avenue,93711,36.8390911,-119.8484470
6770,North Brawley Avenue,93711,36.8367968,-119.8620334
6770,North Brawley Avenue,93711,36.8367898,-119.8619395
6770,North Brawley Avenue,93711,36.8367871,-119.8618611
6770,North Brawley Avenue,93711,36.8367892,-119.8617873
6770,North Brawley Avenue,93711,36.8367860,-119.8616861
6780,North Milburn Avenue,93722,36.8359450,-119.8785799
6780,North Milburn Avenue,93722,36.8357140,-119.8785860
6701,North Milburn Avenue,93722,36.8347736,-119.8795547
6701,North Milburn Avenue,93722,36.8347741,-119.8793889
6761,North Milburn Avenue,93722,36.8359049,-119.8810633
6761,North Milburn Avenue,93722,36.8358467,-119.8810583
6761,North Milburn Avenue,93722,36.8357875,-119.8810583
6761,North Milburn Avenue,93722,36.8356668,-119.8810433
6761,North Milburn Avenue,93722,36.8356004,-119.8810521
6737,North Milburn Avenue,93722,36.8354047,-119.8810598
6737,North Milburn Avenue,93722,36.8353144,-119.8810540
6737,North Milburn Avenue,93722,36.8352534,-119.8810533
6737,North Milburn Avenue,93722,36.8351982,-119.8810533
6737,North Milburn Avenue,93722,36.8350854,-119.8810641
6735,North Milburn Avenue,93722,36.8349401,-119.8810537
6737,North Milburn Avenue,93722,36.8351438,-119.8810688
6721,North Milburn Avenue,93722,36.8347606,-119.8810502
6721,North Milburn Avenue,93722,36.8346736,-119.8810464
5310,West Spruce Avenue,93722,36.8378041,-119.8887732
5374,West Spruce Avenue,93722,36.8384805,-119.8895889
5370,West Spruce Avenue,93722,36.8385429,-119.8894438
5366,West Spruce Avenue,93722,36.8386010,-119.8893296
5362,West Spruce Avenue,93722,36.8386282,-119.8892391
5364,West Spruce Avenue,93722,36.8385756,-119.8893953
5358,West Spruce Avenue,93722,36.8386848,-119.8891406
5356,West Spruce Avenue,93722,36.8386971,-119.8890313
5348,West Spruce Avenue,93722,36.8386586,-119.8889034
5322,West Spruce Avenue,93722,36.8385050,-119.8887257
5322,West Spruce Avenue,93722,36.8384026,-119.8885576
5322,West Spruce Avenue,93722,36.8382431,-119.8883436
3173,East Shields Avenue,93726-6902,36.7807258,-119.7709215
6825,North Willow Avenue,93710,36.8361246,-119.7299591
6825,North Willow Avenue,93710,36.8360545,-119.7299504
6825,North Willow Avenue,93710,36.8358959,-119.7299507
6929,North Willow Avenue,93710,36.8372618,-119.7309231
6929,North Willow Avenue,93710,36.8372345,-119.7310502
6929,North Willow Avenue,93710,36.8372219,-119.7313393
6929,North Willow Avenue,93710,36.8372553,-119.7312646
6929,North Willow Avenue,93710,36.8372516,-119.7314526
7509,North Willow Avenue,93720,36.8450832,-119.7307740
7509,North Willow Avenue,93720,36.8451943,-119.7307735
7509,North Willow Avenue,93720,36.8454925,-119.7307430
7509,North Willow Avenue,93720,36.8452708,-119.7307461
2960,East Nees Avenue,93720,36.8536608,-119.7308163
2960,East Nees Avenue,93720,36.8536479,-119.7310659
2950,East Nees Avenue,93720,36.8536523,-119.7312629
2930,East Nees Avenue,93720,36.8530051,-119.7316256
2930,East Nees Avenue,93720,36.8530656,-119.7316634
2930,East Nees Avenue,93720,36.8531169,-119.7316341
2940,East Nees Avenue,93720,36.8533819,-119.7316880
2940,East Nees Avenue,93720,36.8534639,-119.7316778
2940,East Nees Avenue,93720,36.8535869,-119.7316849
2950,East Nees Avenue,93720,36.8536482,-119.7316043
2950,East Nees Avenue,93720,36.8536772,-119.7315034
2960,East Nees Avenue,93720,36.8536390,-119.7309878
2950,East Nees Avenue,93720,36.8536741,-119.7314225
2950,East Nees Avenue,93720,36.8536666,-119.7313199
2950,North Fowler Avenue,93727,36.7789434,-119.6816025
2928,North Fowler Avenue,93727,36.7783235,-119.6816669
2860,North Fowler Avenue,93727,36.7777808,-119.6816583
2860,North Fowler Avenue,93727,36.7776777,-119.6816690
2860,North Fowler Avenue,93727,36.7775503,-119.6816811
6407,East Shields Avenue,93727,36.7790963,-119.6743777
6451,East Shields Avenue,93727,36.7788749,-119.6736619
1560,East Nees Avenue,93720,36.8522881,-119.7549960
1568,East Nees Avenue,93720,36.8523873,-119.7549966
1540,East Nees Avenue,93720,36.8523448,-119.7551310
8084,North Cedar Avenue,93720,36.8536255,-119.7558557
8080,North Cedar Avenue,93720,36.8536276,-119.7557616
8070,North Cedar Avenue,93720,36.8535823,-119.7554949
1234,East Shaw Avenue,93710,36.8091149,-119.7670957
5618,North Blackstone Avenue,93710,36.8201639,-119.7891191
8029,North Cedar Avenue,93720,36.8525117,-119.7581333
8039,North Cedar Avenue,93720,36.8525545,-119.7583530
7955,North Cedar Avenue,93720,36.8514332,-119.7574220
7955,North Cedar Avenue,93720,36.8514395,-119.7571691
7955,North Cedar Avenue,93720,36.8514253,-119.7572713
7975,North Cedar Avenue,93720,36.8517869,-119.7577627
7975,North Cedar Avenue,93720,36.8517226,-119.7577608
7975,North Cedar Avenue,93720,36.8516589,-119.7577616
7875,North Cedar Avenue,93720,36.8516066,-119.7577639
8068,North Cedar Avenue,93720,36.8533543,-119.7552524
8064,North Cedar Avenue,93720,36.8532890,-119.7552613
8060,North Cedar Avenue,93720,36.8532326,-119.7552564
8056,North Cedar Avenue,93720,36.8531276,-119.7552670
8058,North Cedar Avenue,93720,36.8531921,-119.7552637
8054,North Cedar Avenue,93720,36.8530634,-119.7552706
8048,North Cedar Avenue,93720,36.8529900,-119.7552754
8086,North Cedar Avenue,93720,36.8535969,-119.7564430
8525,North Cedar Avenue,93720,36.8595820,-119.7571200
8525,North Cedar Avenue,93720,36.8595888,-119.7572670
83,East Shaw Avenue,93710,36.8078444,-119.7885370
8955,North Cedar Avenue,93720,36.8654651,-119.7583766
8953,North Cedar Avenue,93720,36.8654172,-119.7583837
8957,North Cedar Avenue,93720,36.8655091,-119.7583734
8959,North Cedar Avenue,93720,36.8655655,-119.7583692
8963,North Cedar Avenue,93720,36.8657712,-119.7583901
8963,North Cedar Avenue,93720,36.8658379,-119.7583862
8965,North Cedar Avenue,93720,36.8659084,-119.7583862
8961,North Cedar Avenue,93720,36.8656461,-119.7583717
8967,North Cedar Avenue,93720,36.8659449,-119.7583882
8967,North Cedar Avenue,93720,36.8659825,-119.7583902
8841,North Cedar Avenue,93720,36.8644398,-119.7583605
8845,North Cedar Avenue,93720,36.8644954,-119.7583594
8839,North Cedar Avenue,93720,36.8644022,-119.7583639
8833,North Cedar Avenue,93720,36.8642770,-119.7583654
8837,North Cedar Avenue,93720,36.8643558,-119.7583629
8831,North Cedar Avenue,93720,36.8642030,-119.7583726
8805,North Cedar Avenue,93720,36.8642830,-119.7571194
8817,North Cedar Avenue,93720,36.8642738,-119.7572429
8821,North Cedar Avenue,93720,36.8642702,-119.7573659
3237,West Shaw Avenue,93711-3225,36.8078638,-119.8499119
4505,East Kings Canyon Road,93702-3708,36.7361927,-119.7495147
1248,North Blackstone Avenue,93703,36.7586940,-119.7902389
1739,Divisadero Street,93701-1920,36.7435535,-119.7897358
1528,East Champlain Drive,93720,36.8669199,-119.7558863
1512,East Champlain Drive,93720,36.8675554,-119.7562913
1512,East Champlain Drive,93720,36.8675951,-119.7563422
1512,East Champlain Drive,93720,36.8676145,-119.7564713
1512,East Champlain Drive,93720,36.8676698,-119.7564776
1512,East Champlain Drive,93720,36.8677248,-119.7565172
1552,East Champlain Drive,93720,36.8678946,-119.7549572
1552,East Champlain Drive,93720,36.8678239,-119.7549142
1552,East Champlain Drive,93720,36.8677577,-119.7547973
1552,East Champlain Drive,93720,36.8675375,-119.7547513
1560,East Champlain Drive,93720,36.8671067,-119.7547437
1568,East Champlain Drive,93720,36.8669532,-119.7549044
1568,East Champlain Drive,93720,36.8669474,-119.7550756
1528,East Champlain Drive,93720,36.8669260,-119.7554006
1528,East Champlain Drive,93720,36.8669566,-119.7555335
1528,East Champlain Drive,93720,36.8669580,-119.7556932
1528,East Champlain Drive,93720,36.8669323,-119.7557973
1528,East Champlain Drive,93720,36.8669552,-119.7555815
1512,East Champlain Drive,93720,36.8678532,-119.7566750
1440,East Champlain Drive,93720,36.8694178,-119.7582850
1440,East Champlain Drive,93720,36.8692769,-119.7579353
1440,East Champlain Drive,93720,36.8693260,-119.7580353
1440,East Champlain Drive,93720,36.8693672,-119.7581364
997,East Champlain Drive,93720,36.8721830,-119.7653243
997,East Champlain Drive,93720,36.8721281,-119.7653877
997,East Champlain Drive,93720,36.8720167,-119.7656019
1083,East Champlain Drive,93720,36.8716922,-119.7648634
1129,East Champlain Drive,93720,36.8699232,-119.7635379
1137,East Champlain Drive,93720,36.8700468,-119.7634094
1145,East Champlain Drive,93720,36.8701677,-119.7632833
1149,East Champlain Drive,93720,36.8702390,-119.7632471
1193,East Champlain Drive,93720,36.8708059,-119.7627374
1189,East Champlain Drive,93720,36.8707580,-119.7627969
1169,East Champlain Drive,93720,36.8704090,-119.7631252
1173,East Champlain Drive,93720,36.8704596,-119.7630669
1175,East Champlain Drive,93720,36.8704995,-119.7630403
1157,East Champlain Drive,93720,36.8702920,-119.7632056
1105,East Champlain Drive,93720,36.8706771,-119.7653715
1103,East Champlain Drive,93720,36.8707098,-119.7654353
1101,East Champlain Drive,93720,36.8707337,-119.7654946
1099,East Champlain Drive,93720,36.8707647,-119.7655666
1095,East Champlain Drive,93720,36.8708357,-119.7656985
1093,East Champlain Drive,93720,36.8708709,-119.7657648
1097,East Champlain Drive,93720,36.8707918,-119.7656185
1091,East Champlain Drive,93720,36.8708911,-119.7658282
1134,East Champlain Drive,93720,36.8722842,-119.7627780
1134,East Champlain Drive,93720,36.8723781,-119.7626074
1144,East Champlain Drive,93720,36.8722081,-119.7623174
1144,East Champlain Drive,93720,36.8721548,-119.7621946
1170,East Champlain Drive,93720,36.8718044,-119.7628413
1170,East Champlain Drive,93720,36.8717109,-119.7627025
1170,East Champlain Drive,93720,36.8716075,-119.7624802
1170,East Champlain Drive,93720,36.8716549,-119.7625897
1102,East Champlain Drive,93720,36.8720683,-119.7638116
1102,East Champlain Drive,93720,36.8720030,-119.7637259
1102,East Champlain Drive,93720,36.8721074,-119.7639149
1102,East Champlain Drive,93720,36.8721635,-119.7639897
1122,East Champlain Drive,93720,36.8727574,-119.7633265
1122,East Champlain Drive,93720,36.8727994,-119.7632647
682,East Nees Avenue,93720,36.8522752,-119.7731089
5588,North Palm Avenue,93704,36.8189198,-119.8080644
2886,East Shepherd Avenue,93720,36.8676314,-119.7311999
2888,East Shepherd Avenue,93720,36.8677940,-119.7310200
2888,East Shepherd Avenue,93720,36.8678613,-119.7309237
2888,East Shepherd Avenue,93720,36.8679269,-119.7308558
2888,East Shepherd Avenue,93720,36.8679806,-119.7308568
2888,East Shepherd Avenue,93720,36.8680378,-119.7308543
2886,East Shepherd Avenue,93720,36.8676004,-119.7312578
2886,East Shepherd Avenue,93720,36.8675132,-119.7313496
2886,East Shepherd Avenue,93720,36.8675658,-119.7313082
2884,East Shepherd Avenue,93720,36.8671233,-119.7316937
2896,East Shepherd Avenue,93720,36.8685009,-119.7304067
8939,North Chestnut Avenue,93720,36.8658170,-119.7403189
8941,North Chestnut Avenue,93720,36.8659240,-119.7403320
8947,North Chestnut Avenue,93720,36.8660086,-119.7403339
8893,North Chestnut Avenue,93720,36.8647218,-119.7402845
8889,North Chestnut Avenue,93720,36.8647189,-119.7401821
8887,North Chestnut Avenue,93720,36.8647225,-119.7400981
8885,North Chestnut Avenue,93720,36.8647225,-119.7400294
8881,North Chestnut Avenue,93720,36.8647218,-119.7399432
8879,North Chestnut Avenue,93720,36.8647218,-119.7398448
8959,North Chestnut Avenue,93720,36.8663564,-119.7407233
8953,North Chestnut Avenue,93720,36.8663659,-119.7408373
682,East Nees Avenue,93720,36.8522727,-119.7728921
682,East Nees Avenue,93720,36.8522727,-119.7727720
682,East Nees Avenue,93720,36.8522835,-119.7729974
7737,North First Street,93720,36.8506584,-119.7766780
7739,North First Street,93720,36.8506589,-119.7767503
7741,North First Street,93720,36.8506663,-119.7768237
7775,North First Street,93720,36.8516937,-119.7769651
7773,North First Street,93720,36.8516002,-119.7769627
7773,North First Street,93720,36.8515417,-119.7769655
7771,North First Street,93720,36.8514716,-119.7769601
7769,North First Street,93720,36.8514407,-119.7769592
7765,North First Street,93720,36.8513973,-119.7769612
7763,North First Street,93720,36.8513470,-119.7769566
7757,North First Street,93720,36.8511448,-119.7769665
7755,North First Street,93720,36.8510874,-119.7769661
7753,North First Street,93720,36.8510400,-119.7769718
7751,North First Street,93720,36.8509990,-119.7769703
7749,North First Street,93720,36.8509416,-119.7769728
7745,North First Street,93720,36.8508570,-119.7769865
7721,North First Street,93720,36.8506495,-119.7754873
7719,North First Street,93720,36.8506557,-119.7754099
7717,North First Street,93720,36.8506457,-119.7753035
7711,North First Street,93720,36.8506207,-119.7750919
7707,North First Street,93720,36.8504895,-119.7750707
7730,North First Street,93720,36.8508404,-119.7739360
7728,North First Street,93720,36.8507790,-119.7739394
7726,North First Street,93720,36.8507166,-119.7739422
7724,North First Street,93720,36.8506621,-119.7739428
7716,North First Street,93720,36.8504821,-119.7739638
7712,North First Street,93720,36.8504241,-119.7739552
673,East Nees Avenue,93720,36.8508037,-119.7728655
671,East Nees Avenue,93720,36.8508037,-119.7729405
679,East Nees Avenue,93720,36.8508022,-119.7727961
683,East Nees Avenue,93720,36.8508033,-119.7726917
689,East Nees Avenue,93720,36.8508037,-119.7726103
7795,North First Street,93720,36.8516507,-119.7754986
5005,East Andersen Avenue,93727,36.7752147,-119.7258944
3034,East Cornell Avenue,93703,36.7768285,-119.7737417
1707,West Jensen Avenue,93706,36.6993552,-119.8313514
5241,North Maple Avenue,93740,36.8195260,-119.7398300
9525,North Fort Washington Road,93730,36.8747005,-119.7737581
2770,East International Avenue,93730,36.8916221,-119.7344292
15,East Audubon Drive,93720,36.8599285,-119.7883106
10272,North Millbrook,93730,36.8847960,-119.7611462
2777,East Nees Avenue,93611,36.8502386,-119.7344496
7892,North Blackstone Avenue,93720,36.8512829,-119.7905459
669,East Nees Avenue,93720,36.8516596,-119.7730291
7825,North Palm Avenue,93711,36.8509956,-119.8075892
7890,North Blackstone Avenue,93720,36.8507977,-119.7896004
7550,North Blackstone Avenue,93720,36.8460618,-119.7862994
7173,North Sharon Avenue,93720,36.8399696,-119.7602071
2672,East Alluvial Avenue,93720,36.8456427,-119.7356683
6161,West Spruce Avenue,93722,36.8400785,-119.9029087
7646,North Blackstone Avenue,93720,36.8457802,-119.7902323
7171,North Cedar Avenue,93720,36.8402368,-119.7576610
7477,North Blackstone Avenue,93720,36.8448480,-119.7933015
7300,North Fresno Street,93720,36.8428162,-119.7814269
3034,East Herndon Avenue,93720,36.8385969,-119.7351391
7457,North Blackstone Avenue,93720,36.8447144,-119.7911727
5425,West Spruce Avenue,93722,36.8380572,-119.8908428
1715,East Alluvial Avenue,93720,36.8438191,-119.7529019
7442,North Millbrook Avenue,93720,36.8437593,-119.7648201
7444,North Cedar Avenue,93720,36.8438176,-119.7560742
7315,North Blackstone Avenue,93650,36.8429224,-119.7908508
4441,West Herndon Avenue,93722,36.8361107,-119.8726224
7660,North Blackstone Avenue,93720,36.8478822,-119.7902395
2690,East Alluvial Avenue,93611,36.8467011,-119.7346733
6587,North Riverside Drive,93722,36.8326047,-119.9094865
1100,East Spruce Avenue,93720,36.8420305,-119.7644156
1303,East Herndon Avenue,93720,36.8354284,-119.7654623
7280,North Blackstone Avenue,93650,36.8424051,-119.7901035
790,West Shaw Avenue,93704,36.8102844,-119.8066719
5680,North Maroa Avenue,93704,36.8202341,-119.7981794
5555,North Fresno Street,93710,36.8176217,-119.7831848
5788,North Blackstone Avenue,93710,36.8226122,-119.7898486
1709,West Bullard Avenue,93711,36.8224873,-119.8244112
6099,West Barstow Avenue,93723,36.8134702,-119.8981783
1898,East Gettysburg Avenue,93726,36.8003568,-119.7874216
1284,East Bullard Avenue,93710,36.8240385,-119.7666013
668,East Bullard Avenue,93710,36.8239902,-119.7754006
6075,North Marks Avenue,93711,36.8240307,-119.8459843
5695,West Bullard Avenue,93722,36.8227214,-119.8952630
4444,North Millbrook Avenue,93726,36.8003127,-119.7621305
2171,West Shaw Avenue,93711,36.8077315,-119.8299188
4950,North Harrison Avenue,93704,36.8068061,-119.8096205
2676 #101,West Fairmont Avenue,93705,36.8069102,-119.8417016
3003,North Mariposa Street,93703,36.7777337,-119.7797728
1784,West Shaw Avenue,93711,36.8086150,-119.8268517
3510,East Shields Avenue,93726,36.7785802,-119.7659144
3408,East Shields Avenue,93726,36.7788537,-119.7677767
2767,West Shaw Avenue,93705,36.8074215,-119.8435844
3151,North Millbrook Avenue,93703,36.7780531,-119.7649062
2055,East Shields Ave,93726,36.7820015,-119.7862623
2025,East Dakota Avenue,93726,36.7877447,-119.7864137
3672,North 1st Street,93726,36.7845970,-119.7717527
2305,East Dakota Avenue,93726,36.7877471,-119.7826266
102,E Clinton Ave,93704,36.7711922,-119.8109120
815,East Olive Avenue,93728,36.7580093,-119.8015223
1247,North Wishon Avenue,93728,36.7584674,-119.8013477
1101,East University Avenue,93741,36.7677918,-119.7955559
2121,North 1st Street,93703,36.7697475,-119.7737029
5007,East McKinley,93727-1967,36.7655367,-119.7273936
2980,East Yale Avenue,93703,36.7700715,-119.7759233
1212,North Van Ness Avenue,93728,36.7580118,-119.7985637
2219,North Orchard Street,93703,36.7709603,-119.7755552
2020,North Weber Avenue,93705,36.7692972,-119.8326936
1257,Broadway Street,93721,36.7357055,-119.7945079
1171,Fulton Street,93721,36.7354938,-119.7924120
508 North Van Ness,North Van Ness Avenue,93728,36.7508312,-119.7984658
5070,East Kings Canyon Road,93727,36.7351698,-119.7240922
1055,Van Ness Avenue,93721,36.7351233,-119.7901639
1296,North Wishon Avenue,93728,36.7593088,-119.8006633
619,North Fulton Street,93728,36.7518082,-119.8007128
2004,North Van Ness Boulevard,93704,36.7688482,-119.8037031
3861,West Clinton Avenue,93722,36.7708203,-119.8599831
577,South Peach Avenue,93727,36.7368910,-119.7171689
540,South Peach Avenue,93727,36.7370004,-119.7190528
222,South Clovis Avenue,93727,36.7413134,-119.7044103
650,North Fulton Street,93728,36.7520770,-119.7999594
2410,North Cedar,93703-2014,36.7726550,-119.7540213
2823,Fresno Street,93721,36.7434359,-119.7843453
1665,M Street,93721,36.7423238,-119.7944775
5265,East Huntington Avenue,93727,36.7399408,-119.7156624
2715,Fresno Street,93721,36.7417407,-119.7854819
380,North Maple Avenue,93702,36.7483958,-119.7449781
1725,Broadway Street,93721,36.7402800,-119.7995457
2615,East Clinton Avenue,93703,36.7732083,-119.7792877
4050,East Hamilton Avenue,93702,36.7241197,-119.7569466
5045,East Butler Avenue,93727,36.7304816,-119.7245255
1233,A Street,93706,36.7292622,-119.8030941
1715,South Cedar Avenue,93702,36.7254981,-119.7540268
5704,East Butler Avenue,93727,36.7258167,-119.6889139
2639,South Second Street,93706,36.7057148,-119.7701996
559,South Arroyo Avenue,93727,36.7280292,-119.6664279
2397,South Chestnut Avenue,93725-1206,36.7144587,-119.7361454
805,Fresno Street,93706,36.7273219,-119.8037414
2772,Martin Luther King Junior Boulevard,93706,36.7003246,-119.8007063
3110,East Jensen,93706-5113,36.7063519,-119.7711929
2508,West Shaw Avenue,93711,36.8087793,-119.8380176
7781,North First Street,93720,36.8510714,-119.7750408
755,East Nees Avenue,93720,36.8511327,-119.7708856
610,East Nees Avenue,93720,36.8525373,-119.7739046
5638,East Kings Canyon Road,93727,36.7344613,-119.6984011
5630,East Kings Canyon Road,93727,36.7345593,-119.6990582
7733,North 1ST,93720,36.8506695,-119.7734044
8949,North Cedar Avenue,93720,36.8649270,-119.7585325
4343,North Blackstone Avenue,93726,36.7970690,-119.7917853
4100,East Heaton Avenue,93702,36.7259165,-119.7558293
10309,North Willow Avenue,93730,36.8858810,-119.7338643
1111,Fulton Street,93721,36.7350093,-119.7916462
1225,M Street,93721,36.7381309,-119.7899037
1325,Broadway Street,93721,36.7362558,-119.7950058
1130,O Street,93721,36.7363451,-119.7891560
2200,Fresno Street,93721,36.7368239,-119.7896569
1713,Tulare Street,93721,36.7324807,-119.7935693
1250,Van Ness Avenue,93721,36.7375551,-119.7919473
2281,Tulare Street,93721,36.7361462,-119.7881220
851,Van Ness Avenue,93721,36.7332005,-119.7880738
3351,West Shaw Avenue,93711,36.8065345,-119.8526528
4500,West Shaw Avenue,93722-6200,36.8099040,-119.8740337
4111,West Swift Avenue,93722,36.7939693,-119.8636001
6720,East Kings Canyon Road,93727,36.7404015,-119.6697925
1405,West Olive Avenue,93708,36.7571624,-119.8280563
2444,Fresno Street,93721,36.7414962,-119.7888822
5125,East Kings Canyon Road,93727,36.7382473,-119.7217907
2600,Fresno Street,93721,36.7396866,-119.7845094
2736,East Divisadero Street,93721,36.7425594,-119.7786395
1445,Van Ness Avenue,93721,36.7390092,-119.7944627
1100,reet,93721,36.7430105,-119.7796744
2650,Tulare Street,93721-1325,36.7384735,-119.7827672
4087,West Clinton Avenue,93722-6883,36.7715872,-119.8643601
4015,West Clinton Avenue,93722,36.7715573,-119.8627202
4309,North Polk Avenue,93722,36.7973850,-119.8898635
2311,N Clovis Ave.,93727,36.7717258,-119.7008929
2370,N Clovis Ave,93727,36.7715660,-119.6997254
4857,East McKinley Avenue,93703,36.7655282,-119.7343980
5375,North Maroa Avenue,93704,36.8153219,-119.7998477
7600,North Blackstone Avenue,93720,36.8475095,-119.7864877
7572,North Blackstone Avenue,93720,36.8466711,-119.7864389
71,East Via La Plata,93720,36.8489748,-119.7883246
71,East Via La Plata,93720,36.8455119,-119.7879559
645,East Shaw Avenue,93710,36.8065852,-119.7767186
2650,East Shaw Avenue,93710,36.8096850,-119.7385104
2220,Tulare Street,93721,36.7356226,-119.7870190
2220,Tulare Street,93721,36.7352787,-119.7875608
5456,West Mission Avenue,93722,36.8135812,-119.8881171
7172,North Cedar Avenue,93720,36.8414237,-119.7533674
2127,Inyo Street,93721,36.7334642,-119.7866373
757,L Street,93721,36.7330680,-119.7859040
2126,Inyo Street,93721,36.7327337,-119.7857605
3812,North First Street,93726,36.7870914,-119.7719082
7855,North Blackstone Avenue,93720,36.8504455,-119.7933020
7663,North Blackstone Avenue,93720,36.8486660,-119.7941859
7655,North Blackstone Avenue,93720,36.8480114,-119.7937963
7651,North Blackstone Avenue,93720,36.8471167,-119.7941130
7603,North Blackstone Avenue,93720,36.8465114,-119.7911532
7809,North Blackstone Avenue,93720,36.8492841,-119.7920919
7837,North Blackstone Avenue,93720,36.8496144,-119.7914614
7937,North Blackstone Avenue,93720,36.8515253,-119.7936280
7985,North Blackstone Avenue,93720,36.8514884,-119.7916424
7965,North Blackstone Avenue,93720,36.8511531,-119.7914856
745,Fulton Street,93721,36.7314712,-119.7881520
2233,Ventura Street,93721,36.7328127,-119.7843271
2233,Ventura Street,93721,36.7322271,-119.7840980
700,M Street,93721,36.7329324,-119.7827502
702,M Street,93721,36.7335575,-119.7834323
828,M Street,93721,36.7341194,-119.7840733
922,Van Ness Avenue,93721,36.7343320,-119.7883094
727,Van Ness Avenue,93721,36.7318982,-119.7866442
717,Van Ness Avenue,93721,36.7317970,-119.7865304
701,Van Ness Avenue,93721,36.7316409,-119.7863715
502,M Street,93721,36.7318147,-119.7817340
5175,East Belmont Avenue,93727,36.7517028,-119.7192675
1825,East Ashlan Avenue,93726,36.7947192,-119.7887503
6622,North Maroa Avenue,93704,36.8342185,-119.7983438
6885,North Willow Avenue,93710,36.8370385,-119.7303391
6855,North Willow Avenue,93710,36.8363082,-119.7311121
2680,West Shaw Lane,93711,36.8094668,-119.8414935
2670,West Shaw Lane,93711,36.8094679,-119.8407508
4245,North Blackstone Avenue,93726,36.7952223,-119.7911363
4295,North Blackstone Avenue,93726,36.7956776,-119.7914110
4280,North Blackstone Avenue,93726,36.7954758,-119.7900149
1804,East Ashlan Avenue,93726,36.7927210,-119.7891694
83,East Shaw Avenue,93710,36.8078249,-119.7885464
21,East Shaw Avenue,93710,36.8077943,-119.7895366
88,East Shaw Avenue,93710,36.8088580,-119.7884951
66,East Shaw Avenue,93710,36.8089285,-119.7891673
20,West Shaw Avenue,93704,36.8089609,-119.7909589
1071,West Shaw Avenue,93711,36.8080595,-119.8100908
2011,West Shaw Avenue,93711,36.8076703,-119.8270319
2097,West Shaw Avenue,93711,36.8073687,-119.8289684
4302,North Blackstone Avenue,93726,36.7961312,-119.7899153
4545,East Church Avenue,93725,36.7158159,-119.7497889
4545,East Church Avenue,93725,36.7157928,-119.7493793
4545,East Church Avenue,93725,36.7157500,-119.7487765
4545,East Church Avenue,93725,36.7160285,-119.7485256
4545,East Church Avenue,93725,36.7160876,-119.7492491
4545,East Church Avenue,93725,36.7161204,-119.7499377
4545,East Church Avenue,93725,36.7155114,-119.7496748
4968,East Kings Canyon Road,93727,36.7355621,-119.7294999
4948,East Kings Canyon,93727,36.7355644,-119.7307397
4902,East Kings Canyon Road,93727,36.7356226,-119.7315783
4950,East Kings Canyon Road,93727,36.7342019,-119.7303931
4864,East Kings Canyon Road,93727,36.7338013,-119.7332979
4842,East Kings Canyon Road,93727,36.7343373,-119.7344085
4901,East Kings Canyon Road,93727,36.7362287,-119.7316792
4865,East Kings Canyon Road,93727,36.7363408,-119.7334034
5150,East Kings Canyon Road,93727,36.7354184,-119.7205004
5590,N Blackstone,93710,36.8190820,-119.7897731
7100,North Abby Street,93720,36.8406024,-119.7887056
7100,North Abby Street,93720,36.8389961,-119.7874082
7150,North Abby Street,93720,36.8407257,-119.7864036
195,East Auto Center Drive,93710,36.8218662,-119.7864569
4898,East Kings Canyon Road,93727,36.7355522,-119.7322191
4838,East Kings Canyon Road,93727,36.7341065,-119.7350583
4824,East Kings Canyon Road,93727,36.7348752,-119.7357118
4810,East Kings Canyon Road,93727,36.7353502,-119.7356692
4818,East Kings Canyon Road,93727,36.7355632,-119.7349548
7095,North Cedar Avenue,93720,36.8390892,-119.7560075
5499,N Blackstone Ave,93710,36.8174394,-119.7914181
5580,North Blackstone Avenue,93710,36.8185981,-119.7896982
5106,West Shaw Avenue,93722,36.8084920,-119.8831928
8975,North Chestnut Avenue,93720,36.8661013,-119.7395519
8873,North Chestnut Avenue,93720,36.8647674,-119.7393007
2980,East Nees Avenue,93720,36.8531717,-119.7303185
2970,East Nees Avenue,93720,36.8537977,-119.7303281
1600,Willow Avenue,93740,36.8117945,-119.7294014
5740,North Blackstone Avenue,93710,36.8216761,-119.7878804
5244,North Jackson Avenue,93740,36.8112532,-119.7474869
3010,East Campus Pointe Drive,93710,36.8127822,-119.7345518
4764,East Weldon Avenue,93710,36.7684010,-119.7380107
3820,North Cedar Avenue,93726-5263,36.7871582,-119.7538948
650,West Shaw Avenue,93740,36.8090992,-119.8054408
5126,North Palm Avenue,93704,36.8106351,-119.8079584
731,West San Jose Avenue,93704,36.8116743,-119.8070879
5180,North Palm Avenue,93704,36.8116931,-119.8079694
7067,North Mariposa St.,93720,36.8389315,-119.7796081
1979,East Amaryllis Avenue,93730-7021,36.9074492,-119.7475357
1967,East Amaryllis Avenue,93730-7021,36.9075582,-119.7476230
1955,East Amaryllis Avenue,93730-7021,36.9076733,-119.7477176
1943,East Amaryllis Avenue,93730-7021,36.9077727,-119.7478385
2203,East Berkeley Avenue,93703,36.7704363,-119.7849269
2660,South 2nd Street,93706,36.7043018,-119.7706993
5007,East Andersen Avenue,93727,36.7752604,-119.7252618
3131,North Cedar Avenue,93703,36.7789529,-119.7562426
7065,North Ingram Avenue,93650,36.8391793,-119.8032897
3680,West Shaw Avenue,93711,36.8105849,-119.8603564
327,East Fir Avenue,93720,36.8384432,-119.7825780
3912,North Hayston Avenue,93726,36.7888430,-119.7464920
4055,North Chestnut Diagonal,93726,36.7912340,-119.7297818
3590,West Shaw Avenue,93711,36.8086204,-119.8577873
4188,North Blackstone Avenue,93726,36.7937697,-119.7902309
303,West Bedford Avenue,93711,36.8459525,-119.7957877
6783,N Milburn Ave,93722,36.8364601,-119.8821323
8010,North Blackstone Avenue,93720,36.8522428,-119.7905024
8040,North Blackstone Avenue,93720,36.8528294,-119.7904920
8680-,North Cedar Avenue,93720,36.8620310,-119.7550889
8628,North Cedar Avenue,93720,36.8617581,-119.7547440
8666,North Cedar Avenue,93720,36.8623397,-119.7547420
8678,North Cedar Avenue,93720,36.8623946,-119.7550964
8614,North Cedar Avenue,93720,36.8616896,-119.7550913
8682,North Cedar Avenue,93720,36.8622791,-119.7557284
8612,North Cedar Avenue,93720,36.8617961,-119.7557225
7634,North Blackstone Avenue,93720,36.8465570,-119.7890505
8062,North Blackstone Avenue,93720,36.8532427,-119.7894018
8042,North Blackstone Avenue,93720,36.8528067,-119.7891235
7191,West Kathryn Avenue,93722,36.8342358,-119.9187830
1710,West Shaw Avenue,93711,36.8092335,-119.8246616
6793,North Weber Avenue,93722,36.8350279,-119.9139564
6655,North Riverside Drive,93722,36.8341621,-119.9127463
6607,North Riverside Drive,93722,36.8334625,-119.9119778
6557,North Riverside Drive,93722,36.8326394,-119.9108226
6549,North Riverside Drive,93722,36.8323698,-119.9105952
6541,North Riverside Drive,93722,36.8321520,-119.9102218
6509,North Riverside Drive,93722,36.8317621,-119.9098512
6485,North Riverside Drive,93722,36.8311042,-119.9090868
6455,North Riverside Drive,93722,36.8301596,-119.9079224
6563,North Riverside Drive,93722,36.8338416,-119.9096519
6741,North Riverside Drive,93722,36.8358354,-119.9129214
6725,North Riverside Drive,93722,36.8363273,-119.9111932
6717,North Riverside Drive,93722,36.8361432,-119.9100466
2657,South 2nd Street,93706,36.7048132,-119.7702515
4961,N Cedar Ave,93726,36.8073629,-119.7550027
2640,South Second Street,93706,36.7053374,-119.7712235
1087,North Parkway Drive,93728,36.7563782,-119.8299651
1087,North Parkway Drive,93728,36.7560500,-119.8296821
1087,North Parkway Drive,93728,36.7558032,-119.8297660
1101,North Parkway Drive,93728,36.7560728,-119.8306377
1240,North Crystal Avenue,93728-1139,36.7583912,-119.8310006
4278,West Ashlan Avenue,93722,36.7943164,-119.8684722
5455,West Shaw Avenue,93722,36.8075905,-119.8881949
5021,North Barcus Avenue,93722,36.8088214,-119.8861045
5021,N Barcus Ave,93722,36.8088429,-119.8855922
7194,Kathryn Avenue,93722,36.8337139,-119.9175064
1309,West Shaw Avenue,93711,36.8078581,-119.8155784
1309,West Shaw Avenue,93711,36.8075478,-119.8156455
480,East Shaw Avenue,93710,36.8092186,-119.7802597
4141,North Blackstone Avenue,93726,36.7927105,-119.7909961
3876,North Blackstone Avenue,93726,36.7882944,-119.7894187
3110,North Blackstone Avenue,93703,36.7790970,-119.7890217
3110,North Blackstone Avenue,93703,36.7788319,-119.7898620
3110,North Blackstone Avenue,93703,36.7788582,-119.7889066
2425,Merced Street,93721,36.7405513,-119.7890728
2655,East Shaw Avenue,93710,36.8078566,-119.7395875
1804,West Olive Avenue,93728,36.7583757,-119.8324372
4949,N Forestiere Ave,93722,36.8070480,-119.8830041
4949,N Forestiere Ave,93722,36.8067416,-119.8829733
4949,N Forestiere Ave,93722,36.8066812,-119.8832231
4949,N Forestiere Ave,93722,36.8066778,-119.8835290
4949,N Forestiere Ave,93722,36.8069020,-119.8833656
4949,N Forestiere Ave,93722,36.8068999,-119.8835763
4061,N Blackstone Ave,93726,36.7916027,-119.7915406
102,East Herndon Avenue,93720,36.8380399,-119.7878664
6051,North Thesta Ave,93710,36.8239450,-119.7838114
5113,East McKinley Avenue,93727,36.7657623,-119.7218396
5113,East McKinley Avenue,93727,36.7655819,-119.7221073
4141,"N. Blackstone Ave., Building A",93726,36.7925068,-119.7913371
5046,North Barcus Avenue,93722,36.8091928,-119.8846651
5077,N Cornelia Avenue,93722,36.8098434,-119.8811028
3737,N Blackstone Ave,93726,36.7859174,-119.7924479
3460;3060,West Shaw Avenue,93711,36.8103763,-119.8547594
6065,North Thesta Street,93710,36.8243633,-119.7839157
6090,North Blackstone Avenue,93710,36.8244723,-119.7898976
330,East Fir Avenue,93720,36.8395687,-119.7831988
1941,North Gateway Boulevard,93727,36.7681876,-119.7270572
1959,North Gateway Boulevard,93727,36.7684071,-119.7269975
1975,North Gateway Boulevard,93727,36.7687415,-119.7268531
1987,North Gateway Boulevard,93727,36.7689360,-119.7267230
833,East Fern Avenue,93728,36.7589717,-119.8002015
3380,West Shaw Avenue,93711,36.8101039,-119.8524545
3272,West Shaw Avenue,93711,36.8101052,-119.8507358
3220,West Shaw Avenue,93711,36.8099505,-119.8493458
1380,West Shaw Avenue,93711,36.8087050,-119.8168613
555,East Olive Avenue,93728,36.7578293,-119.8047928
1264,North Wishon Avenue,93728,36.7588692,-119.8007497
7099,North Cedar Avenue,93720,36.8390953,-119.7549351
7089,North Cedar Avenue,93720,36.8386079,-119.7546361
160,West Nees Avenue,93720,36.8523222,-119.7930532
5624,East Kings Canyon Road,93727,36.7343863,-119.6990411
765,South Clovis Avenue,93727,36.7350742,-119.6996549
5625,East Kings Canyon Road,93727-4641,36.7361870,-119.6985702
5651,East Kings Canyon Road,93727,36.7374875,-119.6995908
5645,East Kings Canyon Road,93727-4641,36.7363681,-119.6975413
3966,North Blackstone Avenue,93726,36.7898464,-119.7901037
4224,East Shields Avenue,93726,36.7791902,-119.7534811
4856,East Kings Canyon Road,93727,36.7342760,-119.7341170
4846,East Kings Canyon Road,93727,36.7355082,-119.7341982
4848,East Kings Canyon Road,93727,36.7355045,-119.7335468
4937,East Kings Canyon Road,93727,36.7361804,-119.7310072
4903,East Kings Canyon Road,93727,36.7374474,-119.7313210
4939,East Kings Canyon Road,93727,36.7361952,-119.7305707
4897,East Kings Canyon Road,93727,36.7364160,-119.7326272
4895,East Kings Canyon Road,93727,36.7374284,-119.7323623
4855,East Kings Canyon Road,93727,36.7368626,-119.7337618
4897,East Kings Canyon Road,93727,36.7362552,-119.7323638
4853,East Kings Canyon Road,93727,36.7363134,-119.7337052
1778,East Shaw Avenue,93710,36.8089584,-119.7547192
1450,East Teague Avenue,93720,36.8595442,-119.7581562
8686,North Cedar Avenue,93720,36.8624184,-119.7563601
8684,North Cedar Avenue,93720,36.8621135,-119.7562521
8608,North Cedar Avenue,93720,36.8617827,-119.7564569
8602,North Cedar Avenue,93720,36.8612649,-119.7564542
8606,North Cedar Avenue,93720,36.8615996,-119.7561836
8604,North Cedar Avenue,93720,36.8611848,-119.7560929
8618,North Cedar Avenue,93720,36.8611883,-119.7556881
8616,North Cedar Avenue,93720,36.8614316,-119.7555336
8620,North Cedar Avenue,93720,36.8612033,-119.7552192
8622,North Cedar Avenue,93720,36.8612066,-119.7546822
8688,North Cedar Avenue,93720,36.8628362,-119.7561642
8674,North Cedar Avenue,93720,36.8628438,-119.7552560
8676,North Cedar Avenue,93720,36.8626210,-119.7555361
8672,North Cedar Avenue,93720,36.8628472,-119.7547143
8670,North Cedar Avenue,93720,36.8627785,-119.7543083
8668,North Cedar Avenue,93720,36.8624047,-119.7544075
9664,North Cedar Avenue,93720,36.8621430,-119.7543994
8630,North Cedar Avenue,93720,36.8619332,-119.7544010
8626,North Cedar Avenue,93720,36.8616545,-119.7544031
8624,North Cedar Avenue,93720,36.8612810,-119.7543050
8995,North Cedar Avenue,93720,36.8659256,-119.7572620
8995,North Cedar Avenue,93720,36.8661766,-119.7573220
8555,North Cedar Avenue,93720,36.8602072,-119.7574048
1520,East Champlain Drive,93720,36.8669321,-119.7562851
1460,East Champlain Drive,93720,36.8695711,-119.7564955
1570,East Nees Avenue,93720,36.8528709,-119.7546871
8008,North Cedar Avenue,93720,36.8528443,-119.7561254
1530,East Nees Avenue,93720,36.8523210,-119.7555373
8004,North Cedar Avenue,93720,36.8526270,-119.7561968
8027,North Cedar Avenue,93720,36.8526327,-119.7575182
8087,North Cedar Avenue,93720,36.8536148,-119.7571811
8043,North Cedar Avenue,93720,36.8530620,-119.7572589
8636,North Cedar Avenue,93720,36.8616568,-119.7537138
8638,North Cedar Avenue,93720,36.8612871,-119.7538334
8640,North Cedar Avenue,93720,36.8612168,-119.7534546
8642,North Cedar Avenue,93720,36.8613580,-119.7529617
8644,North Cedar Avenue,93720,36.8616729,-119.7525630
8646,North Cedar Avenue,93720,36.8620778,-119.7524541
8650,North Cedar Avenue,93720,36.8626571,-119.7524576
8652,North Cedar Avenue,93720,36.8628630,-119.7529171
8654,North Cedar Avenue,93720,36.8628562,-119.7534581
8656,North Cedar Avenue,93720,36.8627810,-119.7538383
8658,North Cedar Avenue,93720,36.8624046,-119.7537128
8662,North Cedar Avenue,93720,36.8621719,-119.7536705
8632,North Cedar Avenue,93720,36.8618866,-119.7536678
8634,North Cedar Avenue,93720,36.8617506,-119.7532590
8660,North Cedar Avenue,93720,36.8623141,-119.7532453
6844,North Fresno Street,93710,36.8365274,-119.7781197
1535,North Peach Avenue,93727,36.7641807,-119.7204814
1060,Fulton Street,93721,36.7348731,-119.7908444
2500,Tulare Street,93721,36.7372906,-119.7837851
1001,Fulton Street,93721,36.7339353,-119.7905152
1240,Broadway Street,93721,36.7356529,-119.7934286
2823,Fresno Street,93721,36.7428653,-119.7848657
2014,Tulare Street,93721,36.7339342,-119.7896659
140,East Shaw Avenue,93710,36.8113459,-119.7865920
4781,East Tulare Street,93702,36.7434823,-119.7374384
1250,East Ashlan Avenue,93704,36.7935987,-119.7955694
420,West Sierra Avenue,93704,36.8305737,-119.7997663
1101,F Street,93706,36.7315088,-119.7964920
1101,F Street,93706,36.7315169,-119.7967443
6035,North Marks Avenue,93711,36.8238213,-119.8453025
2684,South Cherry Avenue,93706,36.7036572,-119.7822032
1102,Fresno Street,93706,36.7296311,-119.8006044
2222,Ventura Street,93721,36.7312396,-119.7829770
6417,North Riverside Drive,93722,36.8293044,-119.9063355
2270,West Shaw Avenue,93711,36.8085469,-119.8320527
1773,West Bullard Avenue,93711,36.8225815,-119.8257245
1755,West Bullard Avenue,93711,36.8224817,-119.8259414
450,East Newport Drive,93730,36.8873719,-119.7768122
4080,West Shaw Avenue,93722,36.8109437,-119.8642423
2894,East Shepherd Avenue,93720,36.8673608,-119.7304212
6622,E Fedora Ave,93727,36.7845164,-119.6708945
7031,North Blythe Avenue,93722,36.8376013,-119.8718244
7020,North Blythe Avenue,93722,36.8376434,-119.8706380
7032,North Blythe Avenue,93722,36.8376279,-119.8698726
2006,South Mary Street,93721,36.7224547,-119.7767013
7010,N Marks Ave,93711,36.8377899,-119.8470387
7010,N Marks Ave,93711,36.8376903,-119.8470566
7010,N Marks Ave,93711,36.8375915,-119.8470594
7020,North Marks Avenue,93711,36.8376841,-119.8461794
2988,North Burl Avenue,93727,36.7789229,-119.6755531
550,East Shaw Avenue,93710,36.8092970,-119.7783928
3071,West Bullard Avenue,93711,36.8211949,-119.8458714
825,N Clovis Ave,93727,36.7544403,-119.7032101
5368,North Chestnut Avenue,93740,36.8138743,-119.7356072
6780,West Herndon Avenue,93722,36.8366615,-119.9131161
6780,West Herndon Avenue,93722,36.8365763,-119.9135274
2307,N Clovis Ave,93727,36.7717269,-119.7021197
1515,North Peach Avenue,93727,36.7634721,-119.7202880
7333,North Fresno Street,93720,36.8431979,-119.7841588
324,East Shaw,93710,36.8100389,-119.7831712
4181,East Ashlan Avenue,93726,36.7945073,-119.7554818
3150,West Shaw Avenue,93711,36.8096289,-119.8479239
3130,West Shaw Avenue,93711,36.8086922,-119.8474773
917,East Olive Avenue,93728,36.7583717,-119.8000683
777,East Olive Avenue,93728,36.7579495,-119.8021152
1250,North Wishon Avenue,93728,36.7585835,-119.8008031
1226,North Wishon Avenue,93728,36.7582123,-119.8008035
824,East Fern Avenue,93728,36.7584751,-119.8004909
1596,North Palm Avenue,93728,36.7645311,-119.8081711
7171,North Palm Avenue,93650,36.8401746,-119.8090481
7121,North Palm Avenue,93650,36.8391659,-119.8091292
7180,North Palm Avenue,93650,36.8394232,-119.8068909
7250,North Palm Avenue,93711,36.8414480,-119.8073393
706,West Herndon Avenue,93650,36.8381056,-119.8066526
777,West Palmdon Drive,93704,36.8362025,-119.8065775
711,West Palmdon Drive,93704,36.8361906,-119.8056860
601,West Univision Plaza,93704,36.8362410,-119.8034983
6768,North Cedar Avenue,93710,36.8367308,-119.7536832
6777,North Cedar Avenue,93710,36.8368917,-119.7546253
3520,North Blackstone Avenue,93726,36.7816156,-119.7899282
3120,North Blackstone Avenue,93703,36.7792248,-119.7901279
3004,North Blackstone Avenue,93703,36.7779727,-119.7902781
2005,North Blackstone Avenue,93703,36.7688958,-119.7909832
2031,North Blackstone Avenue,93703,36.7692597,-119.7909972
1612,North Blackstone Avenue,93703,36.7652585,-119.7900506
1831,East McKinley Avenue,93703,36.7652469,-119.7889235
1016,West Shaw Avenue,93711,36.8089231,-119.8092744
1008,West Shaw Avenue,93711,36.8093478,-119.8088567
380,North Maple Avenue,93702,36.7484493,-119.7451284
4176,East Dakota Avenue,93726,36.7864809,-119.7554788
368,East Shaw Avenue,93710,36.8089123,-119.7824592
7025,North Ingram Avenue,93650,36.8376027,-119.8023587
30,East Herndon Avenue,93720,36.8377693,-119.7895065
46,East Herndon Avenue,93720,36.8377544,-119.7890114
7031,North Blackstone Avenue,93650,36.8376133,-119.7906809
7037,North Blackstone Avenue,93720,36.8381332,-119.7906915
7152,North Blackstone Avenue,93650,36.8401140,-119.7898594
7164,North Blackstone Avenue,93650,36.8404354,-119.7898673
7216,North Blackstone Avenue,93650,36.8410909,-119.7899796
7216,North Blackstone Avenue,93650,36.8412040,-119.7900127
175,East Alluvial Avenue,93720,36.8431773,-119.7860749
7490,North Blackstone Avenue,93720,36.8439506,-119.7877739
6780,North Blackstone Avenue,93720,36.8370478,-119.7897703
6776,North Blackstone Avenue,93710,36.8366382,-119.7897289
6740,North Blackstone Avenue,93710,36.8363143,-119.7897139
6720,North Blackstone Avenue,93710,36.8359305,-119.7897427
5240,North Palm Avenue,93704,36.8129021,-119.8079118
5292,North Palm Avenue,93704,36.8135284,-119.8078163
5210,North Palm Avenue,93704,36.8122831,-119.8079202
5792,North Palm Avenue,93704,36.8225897,-119.8079765
5758,North Palm Avenue,93704,36.8222592,-119.8077729
5783,North Palm Avenue,93704,36.8225571,-119.8087011
788,West Bullard Avenue,93704,36.8233183,-119.8079226
1768,West Shaw Avenue,93711,36.8086771,-119.8257043
1746,West Shaw Avenue,93711,36.8086426,-119.8249919
5040,North West Avenue,93711,36.8094045,-119.8260403
2072,West Shaw Avenue,93711,36.8097522,-119.8281899
2195,West Shaw Avenue,93711,36.8078040,-119.8305766
2040,West Shaw Avenue,93711,36.8086686,-119.8272375
3418,West Shaw Avenue,93711,36.8086018,-119.8538665
3482,West Shaw Avenue,93711,36.8085788,-119.8546530
3585,West Shaw Avenue,93711,36.8078919,-119.8578199
3699,West Shaw Avenue,93711,36.8079309,-119.8586548
3769,West Shaw Avenue,93711,36.8079830,-119.8621788
3757,West Shaw Avenue,93711,36.8079378,-119.8615094
4020,West Shaw Avenue,93711,36.8087265,-119.8634464
4050,West Shaw Avenue,93722,36.8086725,-119.8638633
1785,West Shaw Avenue,93711,36.8080198,-119.8260714
4190,North West Avenue,93705,36.7934948,-119.8260267
4158,North West Avenue,93705,36.7928942,-119.8250838
4010,North West Avenue,93705,36.7904308,-119.8260439
4080,North West Avenue,93705,36.7911020,-119.8247765
4040,North West Avenue,93705,36.7907377,-119.8246112
3846,North West Avenue,93705,36.7872640,-119.8261279
3190,West Shaw Avenue,93711,36.8086291,-119.8484951
244,Paseo Del Centro,93720,36.8495986,-119.7879009
7650,North Blackstone Avenue,93720,36.8464813,-119.7901478
80,East Nees Avenue,93720,36.8521341,-119.7890325
102,East Nees Avenue,93720,36.8521666,-119.7882889
7373,North Blackstone Avenue,93650,36.8440896,-119.7910325
7314,North Blackstone Avenue,93650,36.8429965,-119.7900608
7114,North Blackstone Avenue,93650,36.8395140,-119.7899257
7090,North Blackstone Avenue,93650,36.8389807,-119.7900096
7264,North Blackstone Avenue,93650,36.8420017,-119.7901786
7264,North Blackstone Avenue,93650,36.8421381,-119.7900513
7259,North Blackstone Avenue,93650,36.8420358,-119.7909352
7225,North Blackstone Avenue,93650,36.8415263,-119.7908684
7133,North Blackstone Avenue,93650,36.8398139,-119.7907744
6789,North Blackstone Avenue,93710,36.8369499,-119.7907121
6745,North Blackstone Avenue,93710,36.8364350,-119.7906923
6689,North Blackstone Avenue,93710,36.8355476,-119.7907882
6410,North Blackstone Avenue,93710,36.8305364,-119.7899227
6450,North Blackstone Avenue,93710,36.8310935,-119.7885175
6420,North Blackstone Avenue,93710,36.8304973,-119.7886355
6685,North Blackstone Avenue,93710,36.8350349,-119.7907505
6565,North Blackstone Avenue,93710,36.8333165,-119.7909991
6499,North Blackstone Avenue,93710,36.8322784,-119.7906569
6512,North Blackstone Avenue,93710,36.8323625,-119.7898061
6405,North Blackstone Avenue,93710,36.8303814,-119.7907346
6375,North Blackstone Avenue,93710,36.8298000,-119.7907529
6375,North Blackstone Avenue,93710,36.8297634,-119.7911424
6346,North Blackstone Avenue,93710,36.8294310,-119.7894284
5630,North Blackstone Avenue,93710,36.8202897,-119.7878546
5666,North Blackstone Avenue,93710,36.8204530,-119.7899830
5692,North Blackstone Avenue,93710,36.8208829,-119.7899099
5610,North Blackstone Avenue,93710,36.8196927,-119.7899486
5200,North Blackstone Avenue,93710,36.8126623,-119.7896567
5787,North Blackstone Avenue,93710,36.8225061,-119.7912563
6020,North Blackstone Avenue,93710,36.8232442,-119.7899155
6020,North Blackstone Avenue,93710,36.8235261,-119.7899490
6015,North Blackstone Avenue,93710,36.8232287,-119.7908762
50,West Bullard Avenue,93704,36.8237090,-119.7919055
5735,North Blackstone Avenue,93710,36.8217098,-119.7908726
5735,North Blackstone Avenue,93710,36.8218100,-119.7919165
5665,North Blackstone Avenue,93710,36.8203911,-119.7907759
3090,East Campus Pointe Drive,93710,36.8121780,-119.7345078
3010,East Campus Pointe Drive,93710,36.8125404,-119.7357717
2789,East Shaw Avenue,93710,36.8081849,-119.7366038
3025,East Shaw Avenue,93710,36.8081915,-119.7358888
3065,East Shaw Avenue,93710,36.8081188,-119.7353145
2635,East Shaw Avenue,93710,36.8082185,-119.7401787
2389,East Shaw Avenue,93710,36.8080714,-119.7456720
5135,North Cedar Avenue,93710,36.8105196,-119.7547999
5145,North Cedar Avenue,93710,36.8108643,-119.7547624
1781,East Shaw Avenue,93710,36.8081990,-119.7545914
1695,East Shaw Avenue,93726,36.8081391,-119.7566299
1610,East Shaw Avenue,93710,36.8091020,-119.7583193
1418,East Shaw Avenue,93710,36.8090389,-119.7628182
1418,East Shaw Avenue,93710,36.8090445,-119.7630145
1418,East Shaw Avenue,93710,36.8089157,-119.7627964
1440,East Shaw Avenue,93710,36.8089682,-119.7622381
1460,East Shaw Avenue,93710,36.8090622,-119.7618741
1484,East Shaw Avenue,93710,36.8089779,-119.7613439
1416,East Shaw Avenue,93710,36.8096139,-119.7628401
4940,North Blackstone Avenue,93726,36.8074075,-119.7895652
4631,North Blackstone Avenue,93726,36.8018456,-119.7908132
4616,North Blackstone Avenue,93726,36.8020063,-119.7900547
4687,North Blackstone Avenue,93726,36.8028758,-119.7911465
4661,North Blackstone Avenue,93726,36.8025146,-119.7911163
4610,North Blackstone Avenue,93726,36.8016825,-119.7901892
4592,North Blackstone Avenue,93726,36.8010661,-119.7901862
4582,North Blackstone Avenue,93726,36.8008072,-119.7900693
4550,North Blackstone Avenue,93726,36.7999592,-119.7891500
7014,North Cedar Avenue,93720,36.8388174,-119.7537614
7012,North Cedar Avenue,93720,36.8383230,-119.7536403
7010,North Cedar Avenue,93720,36.8378370,-119.7536633
6777,North Cedar Avenue,93710,36.8370607,-119.7547330
6747,North Cedar Avenue,93710,36.8365356,-119.7546583
6666,North Cedar Avenue,93710,36.8349466,-119.7537581
6642,North Cedar Avenue,93710,36.8346424,-119.7536712
6700,North Cedar Avenue,93710,36.8358058,-119.7538426
6745,North Cedar Avenue,93710,36.8361554,-119.7554137
7006,North Cedar Avenue,93720,36.8377267,-119.7525639
6791,North Weber Avenue,93722,36.8355234,-119.9134597
1831,East Ashlan Avenue,93726,36.7944568,-119.7887583
4206,North Blackstone Avenue,93726,36.7945117,-119.7902239
4206,North Blackstone Avenue,93726,36.7945140,-119.7899783
4191,North Blackstone Avenue,93726,36.7938303,-119.7911610
4144,North Blackstone Avenue,93726,36.7920507,-119.7893802
4081,North Blackstone Avenue,93726,36.7919746,-119.7913844
3983,North Blackstone Avenue,93726,36.7901046,-119.7909134
417,East Shaw Avenue,93710,36.8082898,-119.7810814
639,East Shaw Avenue,93710,36.8080454,-119.7762853
639,East Shaw Avenue,93710,36.8080403,-119.7756667
565,East Shaw Avenue,93710,36.8080254,-119.7773768
467,East Shaw Avenue,93710,36.8079831,-119.7798479
455,East Shaw Avenue,93710,36.8079514,-119.7803266
433,East Shaw Avenue,93710,36.8079510,-119.7806341
690,East Nees Avenue,93720,36.8523371,-119.7718988
701,East Nees Avenue,93720,36.8512866,-119.7722584
715,East Shaw Avenue,93710,36.8079798,-119.7745570
765,East Shaw Avenue,93710,36.8082066,-119.7736134
4987,North Fresno Street,93710,36.8081052,-119.7818587
388,East Shaw Avenue,93710-7610,36.8088118,-119.7818418
388,East Shaw Avenue,93710-7610,36.8089364,-119.7816464
388,East Shaw Avenue,93710,36.8090317,-119.7819252
5091,North Fresno Street,93710,36.8105870,-119.7821131
333,East Shaw Avenue,93710,36.8082311,-119.7832844
1990,East Gettysburg Avenue,93726,36.8006163,-119.7867421
7505,North Willow Avenue,93612,36.8453761,-119.7303520
7505,North Willow Avenue,93612,36.8451412,-119.7301054
4965,East Shaw Avenue,93726,36.8075683,-119.7817559
488,East Shaw Avenue,93710,36.8088703,-119.7794430
452,East Shaw Avenue,93710,36.8088200,-119.7800495
432,East Shaw Avenue,93710,36.8088207,-119.7807057
420,East Shaw Avenue,93710,36.8089646,-119.7809798
590,East Shaw Avenue,93710,36.8091693,-119.7771990
618,East Shaw Avenue,93710,36.8090438,-119.7764805
636,East Shaw Avenue,93710,36.8090923,-119.7760478
678,East Shaw Avenue,93710,36.8091139,-119.7750818
710,East Shaw Avenue,93710,36.8090351,-119.7740812
796,East Shaw Avenue,93710,36.8088805,-119.7726900
245,East McKinley Avenue,93728,36.7652767,-119.8088697
644,East Olive Avenue,93728,36.7573801,-119.8031087
715,East Olive Avenue,93728,36.7579966,-119.8031719
1236,North Wishon Avenue,93728,36.7583472,-119.8008008
1233,North Van Ness Avenue,93728,36.7585626,-119.7993920
935,East Olive Avenue,93728,36.7579049,-119.7994464
1140,North Van Ness Avenue,93728,36.7574183,-119.7986341
601,East Olive Avenue,93728,36.7578444,-119.8044761
568,East Olive Avenue,93728,36.7575038,-119.8043273
552,East Olive Avenue,93728,36.7573278,-119.8045951
799,West Palmdon Drive,93704,36.8356909,-119.8078800
488,West Herndon Avenue,93650,36.8376638,-119.8016446
7213,North Ingram Avenue,93650,36.8411223,-119.8022495
7015,North West Avenue,93711,36.8377783,-119.8270969
7010,North West Avenue,93711,36.8376244,-119.8258539
7010,North West Avenue,93711,36.8376095,-119.8255507
7096,North West Avenue,93711,36.8387423,-119.8255444
7088,North West Avenue,93711,36.8387727,-119.8248598
7025,North West Avenue,93711,36.8377336,-119.8278925
6745,North West Avenue,93711,36.8365823,-119.8269156
6745,North West Avenue,93711,36.8368734,-119.8269155
6745,North West Avenue,93711,36.8368098,-119.8272244
6765,North West Avenue,93711,36.8368133,-119.8275255
7050,North Marks Avenue,93711,36.8382882,-119.8470961
7025,North Marks Avenue,93711,36.8375880,-119.8478201
7035,North Marks Avenue,93711,36.8382396,-119.8479578
7085,North Marks Avenue,93711,36.8387338,-119.8478634
7057,North Marks Avenue,93711,36.8378207,-119.8493433
7075,North Marks Avenue,93711,36.8383771,-119.8493456
6776,North Brawley Avenue,93711,36.8368976,-119.8610819
6784,North Brawley Avenue,93711,36.8368876,-119.8605137
6710,North Brawley Avenue,93711,36.8358015,-119.8605721
6724,North Brawley Avenue,93711,36.8361223,-119.8617723
6702,North Brawley Avenue,93711,36.8356503,-119.8619470
6791,North Brawley Avenue,93711,36.8364706,-119.8630309
7020,North Blythe Avenue,93722,36.8376639,-119.8710216
4343,West Herndon Avenue,93722,36.8362483,-119.8703560
6800,North Milburn Avenue,93722,36.8365353,-119.8783156
6810,North Milburn Avenue,93722,36.8365832,-119.8769103
6759,North Milburn Avenue,93722,36.8356834,-119.8795065
6745,North Milburn Avenue,93722,36.8351388,-119.8796804
6797,North Milburn Avenue,93722,36.8363258,-119.8812579
6655,North Milburn Avenue,93722,36.8343355,-119.8802113
5310,West Spruce Avenue,93722,36.8374737,-119.8889168
5316,West Spruce Avenue,93722,36.8375601,-119.8882648
5310,West Spruce Avenue,93722,36.8377504,-119.8887366
5380,West Spruce Avenue,93722,36.8380507,-119.8891225
2920,East Nees Avenue,93720,36.8525449,-119.7318786
2777,East Nees Avenue,93720,36.8510587,-119.7349120
6431,East Dayton Avenue,93727,36.7823272,-119.6740510
6415,East Dayton Avenue,93727,36.7823376,-119.6743225
6399,East Dayton Avenue,93727,36.7823376,-119.6745758
8004,North Cedar Avenue,93720,36.8527301,-119.7562061
2814,Mariposa Street,93721,36.7405823,-119.7825086
7975,North Cedar Avenue,93720,36.8516490,-119.7570478
7995,North Cedar Avenue,93720,36.8517415,-119.7573572
1285,East Nees Avenue,93720,36.8515672,-119.7604439
1085,East Champlain Drive,93720,36.8714589,-119.7640922
1107,East Champlain Drive,93720,36.8704222,-119.7650585
1109,East Champlain Drive,93720,36.8702885,-119.7645561
1113,East Champlain Drive,93720,36.8700136,-119.7643120
1115,East Champlain Drive,93720,36.8699454,-119.7638525
6290,North Valentine Avenue,93711,36.8281773,-119.8528395
1536,East Champlain Drive,93720,36.8686087,-119.7557570
1544,East Champlain Drive,93720,36.8681991,-119.7551852
1544,East Champlain Drive,93720,36.8680612,-119.7549642
1010,East Perrin Avenue,93720,36.8727845,-119.7646674
1110,East Champlain Drive,93720,36.8724383,-119.7639881
1188,East Champlain Drive,93720,36.8719498,-119.7630822
8921,North Chestnut Avenue,93720,36.8653963,-119.7405814
6010,North Figarden Drive,93722,36.8229514,-119.8698125
7733,North First Street,93720,36.8505950,-119.7762077
2650,E Shaw Ave,93710,36.8103665,-119.7386204
7171,North Sugarpine Avenue,93650,36.8400418,-119.7927662
2220,Tulare Street,93721,36.7351729,-119.7869889
855,M Street,93721,36.7345526,-119.7858942
3502,North First Street,93726,36.7825562,-119.7713579
7894,North Blackstone Avenue,93720,36.8514313,-119.7902581
5115,East McKinley Avenue,93727,36.7661055,-119.7200083
