House number,Street name,Postal code,Latitude,Longitude
82616,Miles Avenue,92201,33.7214105,-116.2230620
79985,US Highway 111,92201,33.7068681,-116.2693021
43-990 Suite-105-A,Golf Center Parkway,92203,33.7299805,-116.1985297
82353,Indio Boulevard,92201,33.7276950,-116.2306767
50045,Vista Montana Court,92201,33.6850593,-116.2202498
50050,Vista Montana Court,92201,33.6850596,-116.2193278
50095,Vista Montana Court,92201,33.6847207,-116.2202454
50135,Vista Montana Court,92201,33.6844478,-116.2202418
50175,Vista Montana Court,92201,33.6841471,-116.2202379
50180,Vista Montana Court,92201,33.6841491,-116.2193317
50235,Vista Montana Court,92201,33.6837488,-116.2197639
40911,Lake View Drive,92203,33.7537816,-116.2041836
40925,Lake View Drive,92203,33.7534142,-116.2045297
40936,Lake View Drive,92203,33.7529995,-116.2040449
40937,Lake View Drive,92203,33.7531252,-116.2049149
40943,Lake View Drive,92203,33.7527792,-116.2051932
40945,Lake Crest Court,92203,33.7524801,-116.2045057
40963,Lake View Drive,92203,33.7523047,-116.2053751
40965,Lake Crest Court,92203,33.7520076,-116.2041347
40980,Lake Crest Court,92203,33.7518163,-116.2048103
40985,Lake View Drive,92203,33.7518017,-116.2055000
40987,Lake Crest Court,92203,33.7514804,-116.2039668
40990,Lake Crest Court,92203,33.7513555,-116.2045838
83001,North Shore Drive,92203,33.7573117,-116.2161109
83003,North Shore Drive,92203,33.7577780,-116.2161021
83004,South Bay Drive,92203,33.7568923,-116.2157053
83005,North Shore Drive,92203,33.7580475,-116.2157741
83015,North Shore Drive,92203,33.7580701,-116.2152479
83016,South Bay Drive,92203,33.7567405,-116.2151834
83031,North Shore Drive,92203,33.7580885,-116.2147119
83034,South Bay Drive,92203,33.7566156,-116.2146550
83043,North Shore Drive,92203,33.7581041,-116.2141984
83054,South Bay Drive,92203,33.7564731,-116.2141337
83055,North Shore Drive,92203,33.7580865,-116.2136576
83066,South Bay Drive,92203,33.7563542,-116.2136353
83073,North Shore Drive,92203,33.7580904,-116.2131402
83078,South Bay Drive,92203,33.7562466,-116.2131028
83085,North Shore Drive,92203,33.7580740,-116.2126121
83090,South Bay Drive,92203,33.7559948,-116.2126246
83095,North Shore Drive,92203,33.7579869,-116.2120409
83105,North Shore Drive,92203,33.7576440,-116.2115716
83125,North Shore Drive,92203,33.7572404,-116.2112033
83145,North Shore Drive,92203,33.7568772,-116.2107039
83207,North Shore Drive,92203,33.7558765,-116.2086848
83227,North Shore Drive,92203,33.7556625,-116.2080712
83241,North Shore Drive,92203,33.7554774,-116.2075624
83260,South Bay Drive,92203,33.7533701,-116.2074542
83261,North Shore Drive,92203,33.7553213,-116.2070285
83270,South Bay Drive,92203,33.7528956,-116.2071203
83280,South Bay Drive,92203,33.7523910,-116.2069919
83283,North Shore Drive,92203,33.7552094,-116.2065648
83290,South Bay Drive,92203,33.7519275,-116.2068881
83295,North Shore Drive,92203,33.7550374,-116.2060727
83300,South Bay Drive,92203,33.7516438,-116.2065768
83314,South Bay Drive,92203,33.7515882,-116.2059487
83317,North Shore Drive,92203,33.7548764,-116.2055558
83333,North Shore Drive,92203,33.7547528,-116.2050922
83353,North Shore Drive,92203,33.7545950,-116.2045939
83369,North Shore Drive,92203,33.7542775,-116.2042157
39002,Camino Las Hoyes,92203,33.7658818,-116.2503623
39007,Camino Las Hoyes,92203,33.7658613,-116.2508235
39010,Camino Las Hoyes,92203,33.7657241,-116.2504189
39017,Camino Las Hoyes,92203,33.7657258,-116.2509435
39020,Camino Las Hoyes,92203,33.7655664,-116.2505149
39027,Camino Las Hoyes,92203,33.7655733,-116.2510532
39030,Camino Las Hoyes,92203,33.7654276,-116.2506332
39041,Camino Las Hoyes,92203,33.7654224,-116.2511269
39052,Camino Piscina,92203,33.7650202,-116.2485465
39054,Camino Las Hoyes,92203,33.7652527,-116.2507343
39061,Camino Las Hoyes,92203,33.7652596,-116.2511612
39082,Camino Piscina,92203,33.7648940,-116.2487657
39085,Camino Las Hoyes,92203,33.7650727,-116.2511663
39086,Camino Las Hoyes,92203,33.7650624,-116.2507566
39109,Camino Las Hoyes,92203,33.7648859,-116.2511594
39110,Camino Las Hoyes,92203,33.7648979,-116.2507480
39122,Camino Piscina,92203,33.7647439,-116.2489549
39131,Camino Las Hoyes,92203,33.7647161,-116.2511526
39134,Camino Las Hoyes,92203,33.7647213,-116.2507360
39137,Camino Piscina,92203,33.7647368,-116.2493327
39155,Camino Las Hoyes,92203,33.7645602,-116.2511474
39156,Camino Las Hoyes,92203,33.7645516,-116.2507275
39157,Camino Piscina,92203,33.7645563,-116.2493804
39164,Camino Piscina,92203,33.7644736,-116.2490330
39175,Camino Piscina,92203,33.7643918,-116.2493964
39177,Camino Las Hoyes,92203,33.7643939,-116.2511423
39178,Camino Las Hoyes,92203,33.7643904,-116.2507223
39197,Camino Piscina,92203,33.7642113,-116.2493560
39198,Camino Piscina,92203,33.7642694,-116.2490330
39199,Camino Las Hoyes,92203,33.7642207,-116.2511286
39200,Camino Las Hoyes,92203,33.7642207,-116.2507137
39218,Camino Manena,92203,33.7642214,-116.2482134
39223,Camino Piscina,92203,33.7640212,-116.2493189
39224,Camino Las Hoyes,92203,33.7640527,-116.2507017
39225,Camino Las Hoyes,92203,33.7640527,-116.2511183
39238,Camino Manena,92203,33.7640473,-116.2480924
39250,Camino Las Hoyes,92203,33.7638899,-116.2507120
39251,Camino Las Hoyes,92203,33.7638933,-116.2511080
39255,Camino Piscina,92203,33.7638226,-116.2492859
39270,Camino Las Hoyes,92203,33.7637236,-116.2507343
39271,Camino Manena,92203,33.7637574,-116.2484035
39273,Camino Las Hoyes,92203,33.7637288,-116.2511286
39274,Camino Piscina,92203,33.7637017,-116.2488901
39283,Camino Piscina,92203,33.7636570,-116.2492753
39290,Camino Las Hoyes,92203,33.7635625,-116.2507566
39293,Camino Las Hoyes,92203,33.7635728,-116.2511423
39295,Camino Manena,92203,33.7635578,-116.2483876
39298,Camino Piscina,92203,33.7635170,-116.2489007
39307,Camino Piscina,92203,33.7634627,-116.2492785
39313,Camino Las Hoyes,92203,33.7634185,-116.2511492
39314,Camino Las Hoyes,92203,33.7633842,-116.2507686
39319,Camino Manena,92203,33.7634314,-116.2483961
39320,Camino Piscina,92203,33.7633759,-116.2489097
39329,Camino Piscina,92203,33.7633225,-116.2492902
39336,Camino Las Hoyes,92203,33.7632196,-116.2507686
39337,Camino Las Hoyes,92203,33.7632436,-116.2511526
39343,Camino Manena,92203,33.7632488,-116.2484109
39344,Camino Piscina,92203,33.7631701,-116.2489742
39353,Camino Piscina,92203,33.7631335,-116.2492934
39361,Camino Las Hoyes,92203,33.7630653,-116.2511577
39362,Camino Las Hoyes,92203,33.7630465,-116.2507669
39367,Camino Manena,92203,33.7630704,-116.2484247
39368,Camino Piscina,92203,33.7630245,-116.2489157
39375,Camino Piscina,92203,33.7630061,-116.2492700
39385,Camino Las Hoyes,92203,33.7628871,-116.2511646
39386,Camino Las Hoyes,92203,33.7628803,-116.2507539
39394,Camino Piscina,92203,33.7628218,-116.2489202
39397,Camino Manena,92203,33.7628634,-116.2484088
39398,Camino Manena,92203,33.7630046,-116.2480722
39399,Camino Piscina,92203,33.7627948,-116.2492997
39407,Camino Las Hoyes,92203,33.7627259,-116.2511612
39408,Camino Las Hoyes,92203,33.7626963,-116.2507479
39409,Camino Manena,92203,33.7627625,-116.2482432
39421,Camino Piscina,92203,33.7626366,-116.2493019
39428,Camino Manena,92203,33.7628963,-116.2478556
39429,Camino Las Hoyes,92203,33.7625425,-116.2511560
39430,Camino Las Hoyes,92203,33.7625357,-116.2507479
39431,Camino Manena,92203,33.7626340,-116.2480563
39451,Camino Piscina,92203,33.7624370,-116.2493252
39453,Camino Las Hoyes,92203,33.7623762,-116.2511560
39454,Camino Las Hoyes,92203,33.7623585,-116.2507547
39468,Camino Piscina,92203,33.7622571,-116.2490041
39475,Camino Las Hoyes,92203,33.7622138,-116.2511320
39479,Camino Piscina,92203,33.7622671,-116.2493879
39480,Camino Las Hoyes,92203,33.7621955,-116.2507637
39492,Camino Piscina,92203,33.7620575,-116.2491145
39499,Camino Las Hoyes,92203,33.7620322,-116.2511182
39501,Corte Chimborazo,92203,33.7620656,-116.2452699
39503,Camino Piscina,92203,33.7620898,-116.2494516
39513,Camino Las Hoyes,92203,33.7618645,-116.2510482
39514,Camino Arbusto,92203,33.7616118,-116.2439725
39516,Camino Piscina,92203,33.7618929,-116.2491272
39518,Camino Las Hoyes,92203,33.7619898,-116.2506849
39519,Corte Chimborazo,92203,33.7619128,-116.2453523
39528,Corte Chimborazo,92203,33.7616520,-116.2450739
39533,Camino Las Hoyes,92203,33.7617020,-116.2509292
39540,Camino Arbusto,92203,33.7614644,-116.2441131
39541,Corte Chimborazo,92203,33.7616958,-116.2454760
39554,Corte Chimborazo,92203,33.7614618,-116.2451845
39566,Camino Arbusto,92203,33.7613016,-116.2442348
39567,Corte Chimborazo,92203,33.7615577,-116.2455511
39575,Camino Arbusto,92203,33.7614404,-116.2446376
39582,Corte Chimborazo,92203,33.7613066,-116.2452942
39592,Camino Arbusto,92203,33.7611301,-116.2443668
39595,Camino Templado,92203,33.7614147,-116.2510666
39597,Corte Chimborazo,92203,33.7613686,-116.2457378
39603,Camino Arbusto,92203,33.7612998,-116.2447559
39608,Corte Chimborazo,92203,33.7611472,-116.2454219
39617,Camino Templado,92203,33.7612373,-116.2510790
39625,Corte Chimborazo,92203,33.7612183,-116.2458299
39631,Camino Arbusto,92203,33.7611301,-116.2448862
39632,Camino Arbusto,92203,33.7608799,-116.2445793
39634,Corte Chimborazo,92203,33.7609904,-116.2455436
39641,Camino Templado,92203,33.7610642,-116.2510807
39648,Camino Templado,92203,33.7610068,-116.2507247
39651,Corte Chimborazo,92203,33.7610510,-116.2459584
39657,Camino Arbusto,92203,33.7609724,-116.2450113
39658,Corte Chimborazo,92203,33.7608206,-116.2456799
39660,Camino Arbusto,92203,33.7607359,-116.2447148
39663,Camino Templado,92203,33.7608911,-116.2510807
39670,Camino Templado,92203,33.7608618,-116.2507257
39683,Camino Arbusto,92203,33.7608079,-116.2451553
39685,Corte Chimborazo,92203,33.7608631,-116.2461475
39686,Camino Arbusto,92203,33.7605901,-116.2448485
39687,Camino Templado,92203,33.7607232,-116.2510796
39692,Camino Templado,92203,33.7606843,-116.2507236
39711,Camino Arbusto,92203,33.7606399,-116.2453045
39714,Camino Arbusto,92203,33.7604170,-116.2449890
39718,Camino Templado,92203,33.7604960,-116.2507495
39721,Camino Templado,92203,33.7604760,-116.2510832
39743,Camino Templado,92203,33.7603050,-116.2510832
39744,Camino Templado,92203,33.7603244,-116.2507220
39756,Camino Arbusto,92203,33.7602164,-116.2451090
39766,Camino Templado,92203,33.7601491,-116.2507199
39767,Camino Templado,92203,33.7601414,-116.2510832
39790,Calle Coche,92203,33.7598844,-116.2483309
39791,Camino Templado,92203,33.7599741,-116.2510844
39804,Camino Arbusto,92203,33.7598650,-116.2451348
39805,Camino Arbusto,92203,33.7598576,-116.2455483
39806,Calle Coche,92203,33.7597559,-116.2483858
39813,Camino Templado,92203,33.7598178,-116.2510869
39822,Calle Coche,92203,33.7596462,-116.2484424
39823,Corte Velado,92203,33.7597432,-116.2478605
39826,Corte Velado,92203,33.7596366,-116.2475259
39830,Camino Arbusto,92203,33.7596765,-116.2451399
39831,Camino Arbusto,92203,33.7596708,-116.2455483
39833,Camino Templado,92203,33.7596638,-116.2510904
39838,Calle Coche,92203,33.7595210,-116.2485212
39841,Corte Velado,92203,33.7596341,-116.2479089
39844,Corte Velado,92203,33.7595250,-116.2475792
39849,Camino Templado,92203,33.7595317,-116.2510853
39856,Calle Coche,92203,33.7594199,-116.2485778
39857,Camino Arbusto,92203,33.7594719,-116.2455466
39858,Camino Arbusto,92203,33.7594930,-116.2451399
39859,Corte Velado,92203,33.7595105,-116.2479695
39862,Corte Velado,92203,33.7593990,-116.2476374
39869,Corte De Moda,92203,33.7594523,-116.2470313
39870,Corte De Moda,92203,33.7593262,-116.2466677
39873,Camino Templado,92203,33.7593986,-116.2510673
39874,Calle Coche,92203,33.7592982,-116.2486515
39875,Corte Velado,92203,33.7594038,-116.2480253
39880,Corte Velado,92203,33.7592584,-116.2477077
39887,Corte De Moda,92203,33.7593335,-116.2471017
39888,Corte De Moda,92203,33.7591978,-116.2467162
39891,Corte Velado,92203,33.7592923,-116.2481005
39905,Corte De Moda,92203,33.7592123,-116.2471865
39910,Corte De Moda,92203,33.7590378,-116.2467429
39911,Corte Velado,92203,33.7591711,-116.2481877
39914,Corte Velado,92203,33.7590232,-116.2477344
39929,Corte De Moda,92203,33.7590329,-116.2471550
39935,Corte Velado,92203,33.7590038,-116.2481538
81027,Avenida Vidrio,92203,33.7592105,-116.2509766
81039,Avenida Vidrio,92203,33.7591826,-116.2508202
81046,Avenida Vidrio,92203,33.7594750,-116.2507668
81047,Avenida Colonias,92203,33.7598185,-116.2507644
81049,Avenida Vidrio,92203,33.7591632,-116.2507232
81054,Avenida Vidrio,92203,33.7594750,-116.2505971
81057,Avenida Colonias,92203,33.7598511,-116.2505570
81059,Avenida Vidrio,92203,33.7591850,-116.2505365
81064,Avenida Vidrio,92203,33.7594784,-116.2504463
81065,Avenida Neblina,92203,33.7615109,-116.2506300
81066,Avenida Colonias,92203,33.7601819,-116.2504250
81067,Avenida Vidrio,92203,33.7591402,-116.2504141
81069,Avenida Colonias,92203,33.7598631,-116.2503513
81072,Avenida Vidrio,92203,33.7594784,-116.2502937
81075,Avenida Vidrio,92203,33.7591571,-116.2502420
81077,Avenida Neblina,92203,33.7613952,-116.2503454
81078,Avenida Colonias,92203,33.7602025,-116.2502193
81080,Avenida Vidrio,92203,33.7594801,-116.2501326
81081,Avenida Colonias,92203,33.7598665,-116.2501627
81083,Avenida Vidrio,92203,33.7591559,-116.2500897
81087,Avenida Neblina,92203,33.7613967,-116.2501555
81088,Avenida Vidrio,92203,33.7594801,-116.2499920
81090,Avenida Colonias,92203,33.7601905,-116.2500222
81091,Avenida Colonias,92203,33.7598699,-116.2499690
81093,Avenida Vidrio,92203,33.7591593,-116.2499423
81098,Avenida Vidrio,92203,33.7594818,-116.2498309
81099,Avenida Neblina,92203,33.7613457,-116.2498717
81100,Avenida Colonias,92203,33.7601734,-116.2497890
81101,Avenida Vidrio,92203,33.7591559,-116.2497880
81103,Avenida Colonias,92203,33.7598682,-116.2497685
81108,Avenida Vidrio,92203,33.7594818,-116.2496732
81109,Avenida Vidrio,92203,33.7591542,-116.2496475
81112,Avenida Colonias,92203,33.7601991,-116.2496365
81113,Avenida Neblina,92203,33.7613337,-116.2496765
81115,Avenida Colonias,92203,33.7598699,-116.2495713
81116,Avenida Vidrio,92203,33.7594801,-116.2495309
81117,Avenida Vidrio,92203,33.7591559,-116.2494949
81122,Avenida Colonias,92203,33.7602042,-116.2494136
81123,Avenida Neblina,92203,33.7613389,-116.2494152
81124,Avenida Vidrio,92203,33.7594784,-116.2493697
81125,Avenida Colonias,92203,33.7598734,-116.2493690
81127,Avenida Vidrio,92203,33.7591559,-116.2493458
81132,Avenida Vidrio,92203,33.7594767,-116.2492189
81133,Corte Pato,92203,33.7650664,-116.2493664
81134,Corte Pato,92203,33.7654635,-116.2491668
81135,Avenida Vidrio,92203,33.7591576,-116.2491983
81136,Avenida Colonias,92203,33.7602111,-116.2492336
81137,Avenida Colonias,92203,33.7598768,-116.2491788
81138,Avenida Neblina,92203,33.7616133,-116.2492367
81139,Avenida Neblina,92203,33.7612871,-116.2492380
81142,Avenida Vidrio,92203,33.7594835,-116.2490663
81143,Avenida Vidrio,92203,33.7591559,-116.2490543
81146,Corte Pato,92203,33.7653371,-116.2489810
81147,Corte Pato,92203,33.7649878,-116.2491477
81148,Avenida Colonias,92203,33.7602111,-116.2490365
81149,Corte Del Olma,92203,33.7639741,-116.2489772
81150,Avenida Graneros,92203,33.7625244,-116.2489755
81151,Avenida Colonias,92203,33.7598802,-116.2489593
81152,Avenida Neblina,92203,33.7615945,-116.2489710
81153,Avenida Neblina,92203,33.7612864,-116.2489587
81154,Avenida Vidrio,92203,33.7594784,-116.2489120
81155,Avenida Vidrio,92203,33.7591508,-116.2489018
81156,Corte Pato,92203,33.7652033,-116.2488472
81158,Avenida Colonias,92203,33.7602162,-116.2488376
81160,Avenida Graneros,92203,33.7624756,-116.2487186
81161,Corte Del Olma,92203,33.7640038,-116.2487606
81163,Avenida Colonias,92203,33.7598802,-116.2487468
81165,Avenida Vidrio,92203,33.7591936,-116.2487492
81167,Avenida Neblina,92203,33.7612638,-116.2487267
81168,Avenida Colonias,92203,33.7602059,-116.2486199
81170,Avenida Neblina,92203,33.7615945,-116.2487089
81171,Corte Del Olma,92203,33.7640866,-116.2485419
81174,Avenida Graneros,92203,33.7624236,-116.2485710
81175,Avenida Graneros,92203,33.7621259,-116.2486311
81178,Corte Del Olma,92203,33.7643942,-116.2486086
81179,Avenida Neblina,92203,33.7613397,-116.2485015
81182,Avenida Colonias,92203,33.7601751,-116.2483662
81183,Avenida Neblina,92203,33.7614358,-116.2482199
81184,Avenida Graneros,92203,33.7623248,-116.2483119
81186,Avenida Neblina,92203,33.7617086,-116.2484431
81190,Corte Del Olma,92203,33.7645216,-116.2484111
81191,Avenida Neblina,92203,33.7615529,-116.2480803
81194,Avenida Colonias,92203,33.7601374,-116.2481674
81196,Corte Del Olma,92203,33.7646193,-116.2482996
81197,Avenida Neblina,92203,33.7617511,-116.2479023
81198,Avenida Neblina,92203,33.7619331,-116.2482209
81202,Corte Tolon,92203,33.7637209,-116.2480383
81203,Corte Tolon,92203,33.7634278,-116.2480723
81204,Avenida Colonias,92203,33.7600794,-116.2479492
81205,Avenida Neblina,92203,33.7618825,-116.2479203
81210,Avenida Neblina,92203,33.7621502,-116.2480478
81213,Avenida Neblina,92203,33.7620867,-116.2476771
81216,Avenida Colonias,92203,33.7600236,-116.2477820
81217,Corte Tolon,92203,33.7633705,-116.2478546
81218,Avenida Neblina,92203,33.7623583,-116.2479044
81220,Corte Tolon,92203,33.7637878,-116.2478535
81223,Avenida Neblina,92203,33.7621881,-116.2475584
81226,Avenida Colonias,92203,33.7599654,-116.2475929
81228,Avenida Neblina,92203,33.7624868,-116.2477876
81229,Corte Tolon,92203,33.7633758,-116.2476305
81231,Avenida Neblina,92203,33.7623946,-116.2474075
81238,Avenida Colonias,92203,33.7598927,-116.2474086
81239,Avenida Neblina,92203,33.7625545,-116.2473024
81240,Avenida Neblina,92203,33.7627233,-116.2475771
81248,Avenida Neblina,92203,33.7628862,-116.2474450
81249,Avenida Neblina,92203,33.7627031,-116.2472446
81250,Avenida Colonias,92203,33.7598321,-116.2472389
81256,Avenida Neblina,92203,33.7630634,-116.2472625
81257,Avenida Neblina,92203,33.7628631,-116.2469646
81260,Avenida Colonias,92203,33.7597690,-116.2470692
81272,Avenida Colonias,92203,33.7596987,-116.2468607
81284,Avenida Colonias,92203,33.7596309,-116.2466789
81298,Avenida Colonias,92203,33.7595775,-116.2464729
81310,Avenida Colonias,92203,33.7595339,-116.2462813
81311,Avenida Colonias,92203,33.7591654,-116.2463298
81321,Calle Atocha,92203,33.7606692,-116.2460724
81323,Avenida Colonias,92203,33.7591533,-116.2461262
81324,Avenida Colonias,92203,33.7594975,-116.2460728
81333,Avenida Colonias,92203,33.7591460,-116.2459201
81336,Avenida Colonias,92203,33.7594878,-116.2458619
81337,Calle Atocha,92203,33.7605346,-116.2458736
81345,Avenida Colonias,92203,33.7591484,-116.2457019
81349,Calle Atocha,92203,33.7604231,-116.2456723
81359,Avenida Colonias,92203,33.7591533,-116.2454571
81363,Calle Atocha,92203,33.7603273,-116.2454626
81369,Corte Trigo,92203,33.7591582,-116.2452586
81377,Corte Trigo,92203,33.7591617,-116.2450169
81384,Calle Cebolla,92203,33.7618723,-116.2448729
81389,Corte Trigo,92203,33.7591599,-116.2447837
81390,Corte Trigo,92203,33.7595045,-116.2447992
81398,Calle Cebolla,92203,33.7617746,-116.2446192
81402,Corte Trigo,92203,33.7595062,-116.2445540
81403,Corte Trigo,92203,33.7591617,-116.2445506
81412,Calle Cebolla,92203,33.7616752,-116.2444049
81415,Corte Trigo,92203,33.7591651,-116.2443243
81416,Corte Trigo,92203,33.7595096,-116.2443209
81427,Corte Pipilla,92203,33.7607299,-116.2443126
81429,Corte Trigo,92203,33.7591651,-116.2440963
81430,Corte Trigo,92203,33.7595079,-116.2441049
81438,Corte Pipilla,92203,33.7610333,-116.2439954
81439,Corte Pipilla,92203,33.7606630,-116.2440212
81442,Corte Trigo,92203,33.7595165,-116.2438803
81443,Corte Trigo,92203,33.7591702,-116.2438495
81451,Corte Pipilla,92203,33.7606750,-116.2437932
81455,Corte Trigo,92203,33.7591736,-116.2436386
81456,Corte Trigo,92203,33.7595422,-116.2436404
81458,Corte Pipilla,92203,33.7610316,-116.2437194
81463,Corte Pipilla,92203,33.7606836,-116.2435223
81469,Corte Trigo,92203,33.7591445,-116.2433986
81470,Corte Trigo,92203,33.7595834,-116.2434141
81474,Corte Pipilla,92203,33.7611156,-116.2434675
81477,Corte Pipilla,92203,33.7607127,-116.2432892
39618,Camino Michanito,92203,33.7611506,-116.2354391
39644,Camino Michanito,92203,33.7610529,-116.2353071
39660,Camino Michanito,92203,33.7609500,-116.2352060
39676,Camino Michanito,92203,33.7608437,-116.2351186
39691,Camino Michanito,92203,33.7606089,-116.2353449
39692,Camino Michanito,92203,33.7607409,-116.2350414
39708,Camino Michanito,92203,33.7606209,-116.2349814
39713,Camino Michanito,92203,33.7604700,-116.2352557
39724,Camino Michanito,92203,33.7605009,-116.2349180
39735,Camino Michanito,92203,33.7603415,-116.2351871
39740,Camino Michanito,92203,33.7603792,-116.2348700
39756,Camino Michanito,92203,33.7602557,-116.2348272
39757,Camino Michanito,92203,33.7601958,-116.2351340
39772,Camino Michanito,92203,33.7601375,-116.2347946
39776,Camino Mistral,92203,33.7600962,-116.2399860
39777,Camino Mistral,92203,33.7600997,-116.2403528
39779,Camino Michanito,92203,33.7600483,-116.2350997
39788,Camino Michanito,92203,33.7600089,-116.2347723
39798,Camino Mistral,92203,33.7599214,-116.2399894
39799,Camino Mistral,92203,33.7599282,-116.2403563
39801,Camino Michanito,92203,33.7599026,-116.2350843
39804,Camino Michanito,92203,33.7598752,-116.2347672
39819,Camino Michanito,92203,33.7597672,-116.2350791
39820,Camino Mistral,92203,33.7597585,-116.2399911
39821,Camino Mistral,92203,33.7597671,-116.2403545
39837,Camino Michanito,92203,33.7596318,-116.2350757
39855,Camino Michanito,92203,33.7595066,-116.2350791
81550,Corte Valdemoro,92203,33.7595915,-116.2419781
81562,Corte Valdemoro,92203,33.7595675,-116.2417878
81574,Corte Valdemoro,92203,33.7595315,-116.2415941
81584,Corte Valdemoro,92203,33.7595195,-116.2413815
81596,Corte Valdemoro,92203,33.7595126,-116.2412050
81608,Corte Valdemoro,92203,33.7595109,-116.2409924
81618,Corte Valdemoro,92203,33.7595075,-116.2407987
81634,Corte Valdemoro,92203,33.7595006,-116.2405364
81646,Corte Valdemoro,92203,33.7594972,-116.2403221
81662,Corte Valdemoro,92203,33.7595006,-116.2400050
81674,Corte Valdemoro,92203,33.7594989,-116.2398113
81688,Corte Valdemoro,92203,33.7595006,-116.2396004
81700,Corte Valdemoro,92203,33.7595040,-116.2394153
81710,Avenida Estuco,92203,33.7630007,-116.2392674
81712,Corte Valdemoro,92203,33.7595092,-116.2392096
81715,Avenida Estuco,92203,33.7627112,-116.2391548
81720,Avenida Estuco,92203,33.7630110,-116.2390565
81722,Corte Valdemoro,92203,33.7595126,-116.2390142
81728,Avenida Estuco,92203,33.7629887,-116.2388371
81733,Avenida Estuco,92203,33.7626940,-116.2388891
81734,Corte Valdemoro,92203,33.7595212,-116.2388170
81738,Avenida Estuco,92203,33.7629253,-116.2386537
81744,Corte Valdemoro,92203,33.7595332,-116.2386250
81749,Avenida Estuco,92203,33.7626049,-116.2386680
81750,Avenida Estuco,92203,33.7628396,-116.2384719
81756,Corte Valdemoro,92203,33.7595349,-116.2384108
81757,Avenida Estuco,92203,33.7625243,-116.2384965
81760,Avenida Estuco,92203,33.7627590,-116.2383022
81766,Corte Valdemoro,92203,33.7595349,-116.2382308
81767,Avenida Estuco,92203,33.7624420,-116.2383268
81768,Avenida Estuco,92203,33.7626767,-116.2381428
81776,Corte Valdemoro,92203,33.7595418,-116.2380268
81777,Avenida Estuco,92203,33.7623615,-116.2381520
81778,Avenida Estuco,92203,33.7625893,-116.2379662
81786,Corte Valdemoro,92203,33.7595452,-116.2378211
81787,Avenida Estuco,92203,33.7622809,-116.2379840
81788,Avenida Estuco,92203,33.7625139,-116.2377828
81797,Avenida Estuco,92203,33.7621969,-116.2378160
81798,Avenida Estuco,92203,33.7624333,-116.2376148
81800,Corte Valdemoro,92203,33.7595366,-116.2376085
81807,Avenida Estuco,92203,33.7621163,-116.2376394
81808,Avenida Estuco,92203,33.7623493,-116.2374451
81812,Corte Valdemoro,92203,33.7595143,-116.2373994
81817,Avenida Estuco,92203,33.7620221,-116.2374629
81818,Avenida Estuco,92203,33.7622567,-116.2372737
81824,Corte Valdemoro,92203,33.7594972,-116.2372039
81825,Avenida Estuco,92203,33.7619415,-116.2373034
81826,Avenida Estuco,92203,33.7621796,-116.2371074
81834,Avenida Estuco,92203,33.7620956,-116.2369291
81836,Corte Valdemoro,92203,33.7594920,-116.2370068
81837,Avenida Estuco,92203,33.7618489,-116.2371200
81840,Avenida Estuco,92203,33.7619979,-116.2367663
81841,Avenida Estuco,92203,33.7617426,-116.2369452
81844,Avenida Estuco,92203,33.7618830,-116.2366171
81845,Avenida Estuco,92203,33.7616175,-116.2367960
81846,Corte Valdemoro,92203,33.7594920,-116.2368045
81849,Avenida Estuco,92203,33.7614838,-116.2366983
81853,Avenida Estuco,92203,33.7613586,-116.2366263
81854,Avenida Estuco,92203,33.7613996,-116.2362812
81857,Avenida Estuco,92203,33.7612335,-116.2365577
81858,Avenida Estuco,92203,33.7612710,-116.2362074
81860,Corte Valdemoro,92203,33.7594920,-116.2366108
81861,Avenida Estuco,92203,33.7611238,-116.2364995
81862,Avenida Estuco,92203,33.7611665,-116.2361543
81864,Corte Tellez,92203,33.7616445,-116.2364471
81865,Avenida Estuco,92203,33.7609918,-116.2364326
81866,Avenida Estuco,92203,33.7610551,-116.2360909
81868,Corte Valdemoro,92203,33.7595023,-116.2364154
81869,Avenida Estuco,92203,33.7608838,-116.2363777
81870,Avenida Estuco,92203,33.7609385,-116.2360343
81873,Avenida Estuco,92203,33.7607638,-116.2363212
81877,Avenida Estuco,92203,33.7606438,-116.2362543
81878,Corte Tellez,92203,33.7617096,-116.2363117
81881,Avenida Estuco,92203,33.7605375,-116.2362046
81884,Corte Valdemoro,92203,33.7595023,-116.2361548
81885,Avenida Estuco,92203,33.7604227,-116.2361532
81886,Avenida Estuco,92203,33.7604398,-116.2358120
81889,Avenida Estuco,92203,33.7603044,-116.2360880
81890,Avenida Estuco,92203,33.7603010,-116.2357486
81891,Corte Tellez,92203,33.7614679,-116.2359569
81893,Avenida Estuco,92203,33.7601827,-116.2360297
81894,Avenida Estuco,92203,33.7601775,-116.2356869
81896,Corte Tellez,92203,33.7618125,-116.2361557
81897,Avenida Estuco,92203,33.7600455,-116.2359732
81898,Avenida Estuco,92203,33.7600421,-116.2356406
81899,Calle Torbellino,92203,33.7606741,-116.2359332
81900,Corte Valdemoro,92203,33.7595006,-116.2359388
81901,Avenida Estuco,92203,33.7598947,-116.2359372
81902,Avenida Estuco,92203,33.7599067,-116.2356252
81903,Calle Torbellino,92203,33.7607408,-116.2357817
81905,Avenida Estuco,92203,33.7597610,-116.2359338
81906,Avenida Estuco,92203,33.7597661,-116.2356149
81907,Corte Tellez,92203,33.7615451,-116.2358283
81910,Avenida Estuco,92203,33.7596393,-116.2356080
81911,Corte Tellez,92203,33.7616363,-116.2356905
81913,Calle Torbellino,92203,33.7607978,-116.2356556
81914,Avenida Estuco,92203,33.7594833,-116.2355978
81918,Calle Torbellino,92203,33.7610862,-116.2357429
81923,Calle Torbellino,92203,33.7608547,-116.2355211
81928,Calle Torbellino,92203,33.7611359,-116.2356023
81964,Corte Valdemoro,92203,33.7595966,-116.2347971
81974,Corte Valdemoro,92203,33.7596052,-116.2346429
81982,Corte Valdemoro,92203,33.7596155,-116.2344886
39529,Camino Sabroso,92203,33.7617455,-116.2399986
39530,Camino Sabroso,92203,33.7619197,-116.2396773
39538,Calle Zavala,92203,33.7618506,-116.2412690
39539,Calle Zavala,92203,33.7618026,-116.2416383
39552,Camino Sabroso,92203,33.7617635,-116.2394941
39562,Calle Zavala,92203,33.7616314,-116.2412389
39574,Camino Sabroso,92203,33.7616494,-116.2393049
39575,Calle Zavala,92203,33.7615623,-116.2416203
39586,Calle Zavala,92203,33.7614302,-116.2412539
39587,Camino Sabroso,92203,33.7613070,-116.2393709
39592,Camino Sabroso,92203,33.7615353,-116.2391066
39607,Calle Zavala,92203,33.7613431,-116.2416534
39610,Camino Sabroso,92203,33.7614211,-116.2388904
39612,Calle Zavala,92203,33.7612410,-116.2412810
39616,Camino Sabroso,92203,33.7612079,-116.2387673
39635,Calle Zavala,92203,33.7611449,-116.2416984
39640,Calle Zavala,92203,33.7610337,-116.2413200
39641,Camino Sabroso,92203,33.7610968,-116.2391187
39648,Camino Sabroso,92203,33.7610277,-116.2387823
39704,Camino Mistral,92203,33.7605965,-116.2398882
39717,Camino Mistral,92203,33.7605965,-116.2402351
39728,Camino Mistral,92203,33.7603807,-116.2399209
39743,Camino Mistral,92203,33.7603860,-116.2402742
81503,Avenida Estuco,92203,33.7614880,-116.2425746
81517,Avenida Estuco,92203,33.7615962,-116.2423763
81526,Corte Monteleon,92203,33.7610942,-116.2424587
81529,Corte Monteleon,92203,33.7607515,-116.2422091
81531,Avenida Estuco,92203,33.7616727,-116.2421751
81532,Avenida Estuco,92203,33.7619676,-116.2423142
81536,Corte Monteleon,92203,33.7611767,-116.2422535
81544,Avenida Estuco,92203,33.7620271,-116.2421189
81545,Avenida Estuco,92203,33.7617373,-116.2419664
81548,Corte Monteleon,92203,33.7611894,-116.2420441
81549,Corte Monteleon,92203,33.7608488,-116.2419806
81554,Avenida Estuco,92203,33.7620738,-116.2419023
81566,Avenida Estuco,92203,33.7621014,-116.2416941
81569,Corte Monteleon,92203,33.7608023,-116.2417416
81578,Avenida Estuco,92203,33.7621311,-116.2414882
81583,Corte Monteleon,92203,33.7607367,-116.2415427
81590,Avenida Estuco,92203,33.7621609,-116.2412631
81593,Corte Monteleon,92203,33.7607007,-116.2413312
81605,Corte Monteleon,92203,33.7606648,-116.2410942
81606,Avenida Estuco,92203,33.7621906,-116.2410358
81609,Avenida Estuco,92203,33.7618890,-116.2409138
81616,Camino Cosetita,92203,33.7609689,-116.2409030
81617,Corte Monteleon,92203,33.7606330,-116.2408700
81620,Avenida Estuco,92203,33.7622225,-116.2408001
81621,Camino Cosetita,92203,33.7609208,-116.2404735
81623,Avenida Estuco,92203,33.7619130,-116.2406930
81624,Camino Cosetita,92203,33.7611520,-116.2408699
81627,Camino Cosetita,92203,33.7611911,-116.2404405
81628,Camino Cosetita,92203,33.7613803,-116.2408008
81631,Corte Monteleon,92203,33.7605928,-116.2406288
81632,Camino Cosetita,92203,33.7615214,-116.2406116
81636,Avenida Estuco,92203,33.7622671,-116.2405559
81637,Avenida Estuco,92203,33.7619370,-116.2404408
81648,Camino Cosetita,92203,33.7615815,-116.2403414
81649,Avenida Estuco,92203,33.7620121,-116.2401990
81652,Avenida Estuco,92203,33.7623180,-116.2402947
81653,Camino Cosetita,92203,33.7612812,-116.2401311
81660,Corte Monteleon,92203,33.7608967,-116.2400918
81663,Avenida Estuco,92203,33.7621768,-116.2398610
81664,Avenida Estuco,92203,33.7624561,-116.2400654
81665,Camino Cosetita,92203,33.7613352,-116.2399059
81671,Avenida Estuco,92203,33.7623244,-116.2396847
81676,Corte Monteleon,92203,33.7609369,-116.2398443
81677,Camino Cosetita,92203,33.7614704,-116.2396716
81678,Avenida Estuco,92203,33.7626344,-116.2399422
81681,Avenida Estuco,92203,33.7624879,-116.2395722
81687,Corte Monteleon,92203,33.7606760,-116.2395235
81692,Corte Monteleon,92203,33.7609961,-116.2395841
81703,Corte Monteleon,92203,33.7607134,-116.2393051
81721,Corte Monteleon,92203,33.7607403,-116.2390478
81735,Corte Monteleon,92203,33.7606924,-116.2388085
81747,Corte Monteleon,92203,33.7606775,-116.2385945
81754,Corte Monteleon,92203,33.7609856,-116.2384509
81761,Corte Monteleon,92203,33.7606700,-116.2383731
81770,Corte Monteleon,92203,33.7609677,-116.2381892
81773,Corte Monteleon,92203,33.7606580,-116.2381323
81785,Corte Monteleon,92203,33.7606535,-116.2379034
81801,Corte Monteleon,92203,33.7606685,-116.2376641
40367,Gransville Lane,92203,33.7556978,-116.2251818
40394,Amador Drive,92203,33.7555668,-116.2221483
40397,Gransville Lane,92203,33.7555457,-116.2251933
40427,Gransville Lane,92203,33.7554290,-116.2251895
40428,Amador Drive,92203,33.7553615,-116.2220451
40451,Gransville Lane,92203,33.7551633,-116.2251511
40454,Amador Drive,92203,33.7552008,-116.2220473
40473,Amador Drive,92203,33.7550173,-116.2223796
40474,Pine Grove Street,92203,33.7550019,-116.2229599
40477,Gransville Lane,92203,33.7550289,-116.2251872
40480,Amador Drive,92203,33.7549575,-116.2220408
40501,Amador Drive,92203,33.7547740,-116.2224350
40504,Pine Grove Street,92203,33.7548042,-116.2229533
40506,Amador Drive,92203,33.7547761,-116.2220299
40522,Pine Grove Street,92203,33.7546087,-116.2229533
40523,Gransville Lane,92203,33.7547992,-116.2251672
40525,Amador Drive,92203,33.7546882,-116.2224100
40530,Amador Drive,92203,33.7545513,-116.2220451
40552,Pine Grove Street,92203,33.7544132,-116.2229447
40553,Amador Drive,92203,33.7544840,-116.2224100
40579,Amador Drive,92203,33.7542331,-116.2223579
40580,Pine Grove Street,92203,33.7542286,-116.2229490
40599,Amador Drive,92203,33.7541549,-116.2223481
40604,Pine Grove Street,92203,33.7540374,-116.2229490
40621,Amador Drive,92203,33.7539453,-116.2220484
40632,Pine Grove Street,92203,33.7538528,-116.2229381
40735,Bearsmouth Lane,92203,33.7531062,-116.2238424
40758,Amador Drive,92203,33.7530051,-116.2202223
40761,Amador Drive,92203,33.7529903,-116.2208246
40765,Bearsmouth Lane,92203,33.7529295,-116.2238194
40773,Amador Drive,92203,33.7527918,-116.2206213
40780,Treasure City Lane,92203,33.7527490,-116.2211498
40784,Amador Drive,92203,33.7528042,-116.2201376
40791,Bearsmouth Lane,92203,33.7526669,-116.2237933
40797,Treasure City Lane,92203,33.7526936,-116.2216635
40802,Amador Drive,92203,33.7526142,-116.2200866
40803,Amador Drive,92203,33.7526691,-116.2205778
40804,Treasure City Lane,92203,33.7526383,-116.2210315
40815,Treasure City Lane,92203,33.7525264,-116.2214583
40824,Amador Drive,92203,33.7524328,-116.2200746
40825,Amador Drive,92203,33.7523889,-116.2204768
40826,Treasure City Lane,92203,33.7524102,-116.2209500
40837,Bearsmouth Lane,92203,33.7523582,-116.2238209
40839,Treasure City Lane,92203,33.7523027,-116.2213692
40848,Amador Drive,92203,33.7522688,-116.2201039
40852,Treasure City Lane,92203,33.7522951,-116.2209739
40853,Amador Drive,92203,33.7522857,-116.2205018
40863,Bearsmouth Lane,92203,33.7521646,-116.2238302
40865,Treasure City Lane,92203,33.7522027,-116.2213334
40878,Treasure City Lane,92203,33.7520605,-116.2209848
40879,Amador Drive,92203,33.7520305,-116.2205040
40889,Treasure City Lane,92203,33.7519747,-116.2213855
40891,Bearsmouth Lane,92203,33.7519388,-116.2238010
40902,Treasure City Lane,92203,33.7519291,-116.2209174
40905,Amador Drive,92203,33.7518709,-116.2205398
40936,Treasure City Lane,92203,33.7517382,-116.2209646
82508,Tremetina Lane,92203,33.7541784,-116.2251166
82511,Tremetina Lane,92203,33.7540263,-116.2251036
82515,Grass Flat Lane,92203,33.7546618,-116.2251350
82518,Tremetina Lane,92203,33.7542978,-116.2249472
82520,Yuba River Court,92203,33.7527118,-116.2250384
82521,Yuba River Court,92203,33.7523247,-116.2250446
82522,Belfort Court,92203,33.7519978,-116.2250790
82523,Tremetina Lane,92203,33.7539068,-116.2249364
82526,Cray Mill Drive,92203,33.7558460,-116.2249414
82530,Cray Mill Drive,92203,33.7558107,-116.2246611
82531,Grass Flat Lane,92203,33.7546280,-116.2248838
82532,Tremetina Lane,92203,33.7542848,-116.2247300
82533,Cray Mill Drive,92203,33.7554857,-116.2248001
82534,Grass Flat Lane,92203,33.7549944,-116.2248092
82536,Yuba River Court,92203,33.7526657,-116.2247697
82537,Yuba River Court,92203,33.7523477,-116.2248050
82538,Belfort Court,92203,33.7519772,-116.2247912
82539,Tremetina Lane,92203,33.7539438,-116.2246388
82540,Lordsburg Drive,92203,33.7535546,-116.2247172
82542,Belfort Court,92203,33.7519707,-116.2246652
82543,Grass Flat Lane,92203,33.7546587,-116.2246627
82544,Yuba River Court,92203,33.7526870,-116.2245796
82545,Cray Mill Drive,92203,33.7555102,-116.2245674
82546,Grass Flat Lane,92203,33.7549922,-116.2245670
82547,Lordsburg Drive,92203,33.7531192,-116.2246642
82548,Tremetina Lane,92203,33.7542696,-116.2245085
82549,Yuba River Court,92203,33.7523524,-116.2245823
82550,Grass Flat Lane,92203,33.7549890,-116.2243650
82551,Cray Mill Drive,92203,33.7554903,-116.2244276
82552,Cray Mill Drive,92203,33.7558191,-116.2245290
82553,Tremetina Lane,92203,33.7539394,-116.2244346
82554,Yuba River Court,92203,33.7526824,-116.2243754
82555,Grass Flat Lane,92203,33.7546734,-116.2244300
82556,Belfort Court,92203,33.7519598,-116.2243318
82557,Lordsburg Drive,92203,33.7531361,-116.2243885
82558,Tremetina Lane,92203,33.7542718,-116.2243021
82559,Yuba River Court,92203,33.7523524,-116.2243657
82560,Lordsburg Drive,92203,33.7535653,-116.2244361
82565,Tremetina Lane,92203,33.7539459,-116.2242152
82566,Cray Mill Drive,92203,33.7557984,-116.2241980
82567,Grass Flat Lane,92203,33.7546688,-116.2242272
82568,Lordsburg Drive,92203,33.7535001,-116.2241972
82569,Cray Mill Drive,92203,33.7554872,-116.2241588
82570,Grass Flat Lane,92203,33.7549846,-116.2241608
82571,Lordsburg Drive,92203,33.7531138,-116.2241381
82572,Tremetina Lane,92203,33.7542718,-116.2240871
82573,Yuba River Court,92203,33.7523554,-116.2241476
82574,Yuba River Court,92203,33.7526778,-116.2241542
82575,Tremetina Lane,92203,33.7539416,-116.2239741
82576,Belfort Court,92203,33.7519456,-116.2241520
82577,Belfort Court,92203,33.7517046,-116.2241363
82578,Lordsburg Drive,92203,33.7535538,-116.2240690
82579,Grass Flat Lane,92203,33.7546696,-116.2240168
82580,Cray Mill Drive,92203,33.7557746,-116.2240498
82581,Cray Mill Drive,92203,33.7554527,-116.2240270
82582,Grass Flat Lane,92203,33.7549857,-116.2239533
82584,Tremetina Lane,92203,33.7542674,-116.2238590
82589,Tremetina Lane,92203,33.7539373,-116.2237612
82590,Cray Mill Drive,92203,33.7557615,-116.2238087
82591,Grass Flat Lane,92203,33.7546727,-116.2238002
82592,Lordsburg Drive,92203,33.7535531,-116.2237196
82593,Cray Mill Drive,92203,33.7554413,-116.2236936
82594,Grass Flat Lane,92203,33.7549825,-116.2237568
82596,Tremetina Lane,92203,33.7542696,-116.2236309
82597,Tremetina Lane,92203,33.7539373,-116.2235592
82599,Belfort Court,92203,33.7516557,-116.2238985
82600,Lordsburg Drive,92203,33.7535508,-116.2236366
82601,Belfort Court,92203,33.7516253,-116.2236574
82602,Cray Mill Drive,92203,33.7557577,-116.2236443
82603,Grass Flat Lane,92203,33.7546757,-116.2235921
82605,Cray Mill Drive,92203,33.7554092,-116.2235383
82606,Grass Flat Lane,92203,33.7549814,-116.2235352
82607,Castleton Drive,92203,33.7523640,-116.2234293
82609,Belfort Court,92203,33.7516720,-116.2234206
82611,Lordsburg Drive,92203,33.7531103,-116.2234812
82612,Belfort Court,92203,33.7519759,-116.2234302
82614,Cray Mill Drive,92203,33.7557070,-116.2233709
82615,Grass Flat Lane,92203,33.7546796,-116.2233732
82616,Lordsburg Drive,92203,33.7535016,-116.2233340
82617,Cray Mill Drive,92203,33.7553756,-116.2233297
82618,Grass Flat Lane,92203,33.7549868,-116.2233267
82620,Castleton Drive,92203,33.7526886,-116.2234298
82621,Belfort Court,92203,33.7516079,-116.2232881
82622,Belfort Court,92203,33.7519857,-116.2232141
82623,Tremetina Lane,92203,33.7539373,-116.2233420
82624,Castleton Drive,92203,33.7526886,-116.2231529
82625,Lordsburg Drive,92203,33.7531169,-116.2231739
82626,Castleton Drive,92203,33.7526397,-116.2230247
82627,Castleton Drive,92203,33.7523630,-116.2232099
82630,Cray Mill Drive,92203,33.7556893,-116.2231859
82634,Belfort Court,92203,33.7519748,-116.2230729
82635,Belfort Court,92203,33.7516742,-116.2229427
82637,Lordsburg Drive,92203,33.7530778,-116.2230761
82639,Castleton Drive,92203,33.7523727,-116.2229232
82640,Cray Mill Drive,92203,33.7556578,-116.2229240
82641,Cray Mill Drive,92203,33.7552993,-116.2230026
82642,Lordsburg Drive,92203,33.7535643,-116.2229404
82646,Cray Mill Drive,92203,33.7556448,-116.2226813
82648,Belfort Court,92203,33.7519900,-116.2227851
82649,Lordsburg Drive,92203,33.7530789,-116.2227014
82650,Castleton Drive,92203,33.7526940,-116.2227304
82651,Castleton Drive,92203,33.7524216,-116.2228059
82652,Lordsburg Drive,92203,33.7535502,-116.2226927
82653,Cray Mill Drive,92203,33.7553508,-116.2226209
82657,Belfort Court,92203,33.7516090,-116.2228461
82658,Belfort Court,92203,33.7519792,-116.2226352
82660,Castleton Drive,92203,33.7527375,-116.2226511
82661,Belfort Court,92203,33.7516828,-116.2225029
82662,Lordsburg Drive,92203,33.7536197,-116.2225222
82663,Lordsburg Drive,92203,33.7531266,-116.2226352
82664,Cray Mill Drive,92203,33.7556240,-116.2225408
82665,Castleton Drive,92203,33.7523760,-116.2224953
82667,Cray Mill Drive,92203,33.7552970,-116.2224105
82669,Lordsburg Drive,92203,33.7531961,-116.2222713
82673,Belfort Court,92203,33.7516568,-116.2223834
82674,Belfort Court,92203,33.7519803,-116.2222747
82675,Castleton Drive,92203,33.7524173,-116.2223682
82676,Castleton Drive,92203,33.7526897,-116.2223275
82678,Lordsburg Drive,92203,33.7537739,-116.2223061
82680,Cray Mill Drive,92203,33.7556233,-116.2222428
82681,Lordsburg Drive,92203,33.7532700,-116.2222116
82686,Castleton Drive,92203,33.7527733,-116.2221168
82687,Lordsburg Drive,92203,33.7534709,-116.2220129
82688,Belfort Court,92203,33.7519575,-116.2221433
82689,Castleton Drive,92203,33.7523662,-116.2220098
82698,Belfort Court,92203,33.7519759,-116.2219945
82701,Castleton Drive,92203,33.7525671,-116.2219294
82702,Castleton Drive,92203,33.7529351,-116.2219126
82705,Lordsburg Drive,92203,33.7535307,-116.2219032
82710,Belfort Court,92203,33.7519553,-116.2217023
82711,Lordsburg Drive,92203,33.7537120,-116.2217153
82712,Castleton Drive,92203,33.7529927,-116.2218528
82717,Belfort Court,92203,33.7516133,-116.2215243
82722,Castleton Drive,92203,33.7532132,-116.2216128
82723,Castleton Drive,92203,33.7529494,-116.2214646
82726,Castleton Drive,92203,33.7533076,-116.2215238
82727,Castleton Drive,92203,33.7530200,-116.2212973
82729,Belfort Court,92203,33.7516351,-116.2213886
82731,Castleton Drive,92203,33.7531960,-116.2211051
82732,Castleton Drive,92203,33.7534597,-116.2213435
82743,Belfort Court,92203,33.7516166,-116.2211703
40422,Twin River Lane,92203,33.7553251,-116.2172025
40458,Twin River Lane,92203,33.7551383,-116.2171536
40481,Alabama Hills Drive,92203,33.7549501,-116.2215902
40482,Twin River Lane,92203,33.7549407,-116.2171808
40484,Alabama Hills Drive,92203,33.7549511,-116.2211698
40503,Alabama Hills Drive,92203,33.7548333,-116.2215679
40508,Twin River Lane,92203,33.7547853,-116.2171525
40512,Alabama Hills Drive,92203,33.7547222,-116.2211583
40521,Alabama Hills Drive,92203,33.7545976,-116.2215188
40532,Twin River Lane,92203,33.7545909,-116.2171895
40550,Alabama Hills Drive,92203,33.7544995,-116.2209701
40570,Alabama Hills Drive,92203,33.7543667,-116.2207490
40600,Alabama Hills Drive,92203,33.7541102,-116.2203802
40618,Alabama Hills Drive,92203,33.7539331,-116.2202357
40640,Alabama Hills Drive,92203,33.7537851,-116.2200679
40660,Ophir Canyon Street,92203,33.7536083,-116.2171433
40682,Waucoba Street,92203,33.7535404,-116.2186608
40690,Ophir Canyon Street,92203,33.7534508,-116.2171596
40708,Waucoba Street,92203,33.7533683,-116.2186332
40714,Ophir Canyon Street,92203,33.7532510,-116.2172258
40732,Waucoba Street,92203,33.7531272,-116.2186439
40738,May Lundy Street,92203,33.7530670,-116.2180685
40739,Ophir Canyon Street,92203,33.7531214,-116.2175515
40740,Ophir Canyon Street,92203,33.7530772,-116.2171520
40743,Queen City Street,92203,33.7529556,-116.2198007
40766,May Lundy Street,92203,33.7528842,-116.2180002
40767,Ophir Canyon Street,92203,33.7528887,-116.2175331
40768,Ophir Canyon Street,92203,33.7529121,-116.2171520
40770,Queen City Street,92203,33.7528405,-116.2192490
40773,May Lundy Street,92203,33.7528167,-116.2183488
40779,Queen City Street,92203,33.7528144,-116.2196780
40788,Ophir Canyon Street,92203,33.7527427,-116.2171911
40790,May Lundy Street,92203,33.7526600,-116.2180355
40793,Ophir Canyon Street,92203,33.7526921,-116.2175277
40799,Queen City Street,92203,33.7525603,-116.2196476
40800,Queen City Street,92203,33.7525744,-116.2192892
40805,May Lundy Street,92203,33.7525709,-116.2184134
40812,Ophir Canyon Street,92203,33.7524907,-116.2171618
40816,May Lundy Street,92203,33.7524603,-116.2180294
40817,Ophir Canyon Street,92203,33.7525677,-116.2175492
40823,May Lundy Street,92203,33.7524480,-116.2183442
40827,Queen City Street,92203,33.7523909,-116.2196400
40828,Queen City Street,92203,33.7524930,-116.2192490
40838,Ophir Canyon Street,92203,33.7523767,-116.2171911
40840,May Lundy Street,92203,33.7523421,-116.2180079
40843,Ophir Canyon Street,92203,33.7523250,-116.2175331
40846,Queen City Street,92203,33.7522595,-116.2192327
40847,May Lundy Street,92203,33.7522115,-116.2184164
40849,Queen City Street,92203,33.7522062,-116.2196432
40862,Ophir Canyon Street,92203,33.7521953,-116.2171476
40866,May Lundy Street,92203,33.7522269,-116.2180248
40867,Ophir Canyon Street,92203,33.7522168,-116.2175554
40875,May Lundy Street,92203,33.7520871,-116.2183458
40876,Queen City Street,92203,33.7521335,-116.2192381
40886,Ophir Canyon Street,92203,33.7520161,-116.2171585
40890,May Lundy Street,92203,33.7519826,-116.2180063
40893,Ophir Canyon Street,92203,33.7519764,-116.2175715
40914,Ophir Canyon Street,92203,33.7517696,-116.2171433
82770,Mount Riley Drive,92203,33.7554369,-116.2206434
82773,Mount Riley Drive,92203,33.7551139,-116.2206081
82774,Rustic Valley Drive,92203,33.7546321,-116.2205518
82784,Mount Riley Drive,92203,33.7554054,-116.2204827
82785,Mount Riley Drive,92203,33.7550857,-116.2204322
82787,Angels Camp Drive,92203,33.7530781,-116.2204790
82790,Rustic Valley Drive,92203,33.7546538,-116.2203041
82791,Conway Ranch Lane,92203,33.7517041,-116.2205518
82793,Angels Camp Drive,92203,33.7532779,-116.2203269
82795,Conway Ranch Lane,92203,33.7516319,-116.2202722
82796,Mount Riley Drive,92203,33.7553934,-116.2201916
82797,Mount Riley Drive,92203,33.7550400,-116.2202139
82800,Rustic Valley Drive,92203,33.7546343,-116.2200913
82801,Angels Camp Drive,92203,33.7534083,-116.2201738
82804,Conway Ranch Lane,92203,33.7519824,-116.2201256
82806,Mount Riley Drive,92203,33.7553489,-116.2199874
82807,Conway Ranch Lane,92203,33.7516442,-116.2200157
82809,Mount Riley Drive,92203,33.7550585,-116.2200586
82811,Rustic Valley Drive,92203,33.7542481,-116.2199785
82813,Angels Camp Drive,92203,33.7535006,-116.2199468
82816,Rustic Valley Drive,92203,33.7546364,-116.2198599
82818,Conway Ranch Lane,92203,33.7519922,-116.2198932
82820,Mount Riley Drive,92203,33.7553924,-116.2197463
82821,Mount Riley Drive,92203,33.7550846,-116.2197436
82823,Rustic Valley Drive,92203,33.7542281,-116.2198141
82824,Angels Camp Drive,92203,33.7538560,-116.2197234
82825,Angels Camp Drive,92203,33.7535234,-116.2197937
82827,Conway Ranch Lane,92203,33.7516518,-116.2198499
82828,Rustic Valley Drive,92203,33.7546755,-116.2196601
82830,Conway Ranch Lane,92203,33.7519542,-116.2196108
82832,Mount Riley Drive,92203,33.7553880,-116.2195367
82833,Mount Riley Drive,92203,33.7554069,-116.2297102
82834,Randsburg Lane,92203,33.7531044,-116.2195216
82835,Rustic Valley Drive,92203,33.7542650,-116.2194992
82837,Angels Camp Drive,92203,33.7535049,-116.2195146
82838,Angels Camp Drive,92203,33.7538514,-116.2195099
82839,Conway Ranch Lane,92203,33.7516303,-116.2195826
82840,Rustic Valley Drive,92203,33.7546408,-116.2194309
82844,Mount Riley Drive,92203,33.7553761,-116.2192620
82847,Mount Riley Drive,92203,33.7550855,-116.2193062
82848,Randsburg Lane,92203,33.7531229,-116.2193120
82849,Rustic Valley Drive,92203,33.7542296,-116.2193042
82850,Angels Camp Drive,92203,33.7538368,-116.2193594
82851,Angels Camp Drive,92203,33.7535429,-116.2193506
82852,Rustic Valley Drive,92203,33.7546364,-116.2192604
82853,Conway Ranch Lane,92203,33.7516856,-116.2193430
82858,Mount Riley Drive,92203,33.7554021,-116.2191034
82859,Mount Riley Drive,92203,33.7550518,-116.2191327
82861,Rustic Valley Drive,92203,33.7542450,-116.2190968
82862,Angels Camp Drive,92203,33.7537923,-116.2190414
82863,Angels Camp Drive,92203,33.7535147,-116.2190182
82866,Randsburg Lane,92203,33.7531240,-116.2190090
82882,Mount Riley Drive,92203,33.7553630,-116.2187374
82886,Rustic Valley Drive,92203,33.7546227,-116.2186421
82888,Port Wine Lane,92203,33.7538342,-116.2186431
82889,Rustic Valley Drive,92203,33.7542435,-116.2186479
82890,Port Wine Lane,92203,33.7538255,-116.2184216
82891,Mount Riley Drive,92203,33.7550671,-116.2185797
82892,Mount Riley Drive,92203,33.7553826,-116.2185995
82900,Rustic Valley Drive,92203,33.7546466,-116.2183940
82901,Mount Riley Drive,92203,33.7550410,-116.2184108
82903,Rustic Valley Drive,92203,33.7542058,-116.2183822
82904,Mount Riley Drive,92203,33.7553706,-116.2182921
82905,Bennetville Lane,92203,33.7516962,-116.2183564
82908,Randsburg Lane,92203,33.7531490,-116.2183443
82909,Port Wine Lane,92203,33.7534839,-116.2182478
82912,Rustic Valley Drive,92203,33.7546496,-116.2181895
82913,Mount Riley Drive,92203,33.7551239,-116.2182157
82914,Port Wine Lane,92203,33.7537516,-116.2182424
82915,Rustic Valley Drive,92203,33.7542450,-116.2181871
82917,Bennetville Lane,92203,33.7516516,-116.2181012
82918,Mount Riley Drive,92203,33.7553706,-116.2180760
82923,Port Wine Lane,92203,33.7534532,-116.2180220
82924,Rustic Valley Drive,92203,33.7545996,-116.2179484
82925,Mount Riley Drive,92203,33.7550594,-116.2179899
82926,Port Wine Lane,92203,33.7537267,-116.2179665
82927,Rustic Valley Drive,92203,33.7541767,-116.2179467
82929,Bennetville Lane,92203,33.7516592,-116.2179654
82932,Mount Riley Drive,92203,33.7554021,-116.2178577
82935,Port Wine Lane,92203,33.7533933,-116.2178016
82936,Rustic Valley Drive,92203,33.7545942,-116.2177561
82937,Mount Riley Drive,92203,33.7550518,-116.2177749
82938,Port Wine Lane,92203,33.7537136,-116.2177917
82939,Rustic Valley Drive,92203,33.7541851,-116.2177570
82941,Bennetville Lane,92203,33.7516462,-116.2176896
82946,Mount Riley Drive,92203,33.7553913,-116.2176611
82948,Rustic Valley Drive,92203,33.7545605,-116.2175563
82949,Mount Riley Drive,92203,33.7550610,-116.2175660
82951,Port Wine Lane,92203,33.7534041,-116.2175198
82952,Port Wine Lane,92203,33.7537419,-116.2174930
82953,Rustic Valley Drive,92203,33.7541114,-116.2175052
82955,Bennetville Lane,92203,33.7516527,-116.2174919
82960,Mount Riley Drive,92203,33.7553989,-116.2173918
82965,Rustic Valley Drive,92203,33.7541444,-116.2172556
82966,Port Wine Lane,92203,33.7537408,-116.2173453
82969,Bennetville Lane,92203,33.7516332,-116.2173149
82894,Highway 111,92253,33.7151288,-116.2184390
82210,Highway 111,92201,33.7151399,-116.2311072
45794,Salton St,92201,33.7161756,-116.2124290
82210,Highway 111,92201,33.7152829,-116.2306796
47915,Oasis Street,92201,33.7008613,-116.2215382
46900,Monroe Street,92201,33.7077583,-116.2321752
80225,Highway 111,92201,33.7068035,-116.2668715
82041,Avenue 42,92203,33.7422777,-116.2333137
42625,Jackson Street,92203,33.7397126,-116.2179930
42425,Jackson Street,92203,33.7417715,-116.2190116
42225,Jackson Street,92203,33.7424928,-116.2190197
79985,US Highway 111,92201,33.7068023,-116.2696517
82151,Ave 42,92203,33.7436360,-116.2325165
80925,Highway 111,92201,33.7066391,-116.2522654
82491,Avenue 42,92203,33.7406769,-116.2292393
82491,Avenue 42,92203,33.7406716,-116.2293175
82491,Avenue 42,92203,33.7404661,-116.2299329
82491,Avenue 42,92203,33.7404810,-116.2285354
84481,Cabazon Avenue,92201,33.7008591,-116.1903951
82297,Indio Boulevard,92201,33.7272851,-116.2295461
82275,Indio Boulevard,92201,33.7274655,-116.2299701
82111,Avenue 42,92203,33.7425206,-116.2325405
42213,Jackson Street,92203,33.7437088,-116.2171547
82-900,Avenue 42,92201,33.7454790,-116.2182182
44105,Jackson Street,92201,33.7287703,-116.2171847
45805,Fargo Street,92201,33.7158314,-116.2172549
42800,Jackson Street,92203,33.7386259,-116.2131681
42700,Jackson Street,92203,33.7389377,-116.2132194
42900,Jackson Street,92203,33.7371883,-116.2128458
42600,Jackson Street,92203,33.7395576,-116.2130085
42500,Jackson Street,92203,33.7403212,-116.2130626
42100,Jackson Street,92203,33.7427249,-116.2129835
42150,Jackson Street,92203,33.7424598,-116.2147562
41850,Jackson Street,92203,33.7450468,-116.2161852
42250,Jackson Street,92203,33.7416249,-116.2153230
42250,Jackson Street,92203,33.7418804,-116.2157763
42250,Jackson Street,92203,33.7416279,-116.2162286
42750,Jackson Street,92203,33.7386532,-116.2150877
42550,Jackson Street,92203,33.7403512,-116.2161018
42550,Jackson Street,92203,33.7392343,-116.2157311
42250,Jackson Street,92203,33.7415123,-116.2162280
42250,Jackson Street,92203,33.7414727,-116.2153225
42750,Jackson Street,92203,33.7382395,-116.2147064
42250,Jackson Street,92203,33.7416061,-116.2153230
42250,Jackson Street,92203,33.7407720,-116.2160625
42150,Jackson Street,92203,33.7424129,-116.2162016
42250,Jackson Street,92203,33.7416429,-116.2162280
42250,Jackson Street,92203,33.7416689,-116.2153231
42250,Jackson Street,92203,33.7415433,-116.2153227
42250,Jackson Street,92203,33.7417584,-116.2153230
42250,Jackson Street,92203,33.7417584,-116.2162286
42150,Jackson Street,92203,33.7433926,-116.2159567
42150,Jackson Street,92203,33.7436760,-116.2154240
42150,Jackson Street,92203,33.7436755,-116.2156058
42150,Jackson Street,92203,33.7436763,-116.2153149
42150,Jackson Street,92203,33.7436758,-116.2154606
42150,Jackson Street,92203,33.7436760,-116.2153879
42150,Jackson Street,92203,33.7436765,-116.2152422
42150,Jackson Street,92203,33.7436756,-116.2155334
42250,Jackson Street,92203,33.7418799,-116.2158328
42250,Jackson Street,92203,33.7418804,-116.2160844
42250,Jackson Street,92203,33.7418794,-116.2155269
42250,Jackson Street,92203,33.7418797,-116.2157136
42250,Jackson Street,92203,33.7418801,-116.2159529
42150,Jackson Street,92203,33.7423947,-116.2155820
42150,Jackson Street,92203,33.7423962,-116.2152968
42150,Jackson Street,92203,33.7423941,-116.2157441
42150,Jackson Street,92203,33.7423953,-116.2155403
42150,Jackson Street,92203,33.7423935,-116.2158425
42150,Jackson Street,92203,33.7423956,-116.2154761
42150,Jackson Street,92203,33.7423948,-116.2156087
42150,Jackson Street,92203,33.7423944,-116.2156772
42150,Jackson Street,92203,33.7423956,-116.2154178
42150,Jackson Street,92203,33.7423958,-116.2153638
42425,Jackson Street,92203,33.7412211,-116.2170369
42225,Jackson Street,92203,33.7430146,-116.2190231
42225,Jackson Street,92203,33.7432399,-116.2191236
42425,Jackson Street,92203,33.7418539,-116.2171491
42425,Jackson Street,92203,33.7414263,-116.2191174
42225,Jackson Street,92203,33.7435086,-116.2190034
42425,Jackson Street,92203,33.7409984,-116.2194001
42425,Jackson Street,92203,33.7409446,-116.2193992
42425,Jackson Street,92203,33.7407253,-116.2193954
42425,Jackson Street,92203,33.7406698,-116.2193944
42225,Jackson Street,92203,33.7427809,-116.2189776
42425,Jackson Street,92203,33.7414688,-116.2190536
42425,Jackson Street,92203,33.7407942,-116.2193961
42425,Jackson Street,92203,33.7411333,-116.2194018
42425,Jackson Street,92203,33.7408896,-116.2193982
42425,Jackson Street,92203,33.7410497,-116.2194011
42425,Jackson Street,92203,33.7408340,-116.2193973
42425,Jackson Street,92203,33.7407798,-116.2193963
42425,Jackson Street,92203,33.7414499,-116.2192748
42425,Jackson Street,92203,33.7414501,-116.2191950
42425,Jackson Street,92203,33.7405192,-116.2193918
42225,Jackson Street,92203,33.7428976,-116.2189734
42425,Jackson Street,92203,33.7417928,-116.2190870
42225,Jackson Street,92203,33.7424996,-116.2190542
42425,Jackson Street,92203,33.7414029,-116.2189365
42625,Jackson Street,92203,33.7396722,-116.2180143
42225,Jackson Street,92203,33.7423847,-116.2177095
42425,Jackson Street,92203,33.7415190,-116.2189588
42250,Spectrum Street,92203,33.7411897,-116.2248945
42750,Aegean Street,92203,33.7404712,-116.2197855
42270,Spectrum Street,92203,33.7403959,-116.2248878
82585,Showcase Boulevard,92203,33.7408272,-116.2234313
42602,Caspian Street,92203,33.7413808,-116.2209480
42550,Aegean Street,92203,33.7415348,-116.2198321
42700,Aegean Street,92203,33.7408287,-116.2198164
82545,Showcase Parkway,92203,33.7416220,-116.2244184
82625,Showcase Boulevard,92203,33.7416972,-116.2229422
82680,Showcase Parkway,92203,33.7425132,-116.2219037
82750,Atlantic Avenue,92203,33.7405564,-116.2204757
82740,Atlantic Avenue,92203,33.7405475,-116.2208934
42604,Aegean Street,92203,33.7413792,-116.2198280
42660,Aegean Street,92203,33.7409864,-116.2198196
42510,Aegean Street,92203,33.7418950,-116.2198396
83246,Avenue 50,92201,33.6858032,-116.2126125
84800,Avenue 48,92236,33.7005890,-116.1851295
46200,Harrison Place,92236,33.7125659,-116.1833286
84245,Indio Springs Drive,92203,33.7211648,-116.1938940
84096,Indio Springs Drive,92203,33.7237649,-116.1977581
81940,Highway 111,92201,33.7144791,-116.2354443
47522,Van Buren Street,92201,33.7036058,-116.1986293
47552,Van Buren Street,92201,33.7034786,-116.1986448
47570,Van Buren Street,92201,33.7033782,-116.1986982
47518,Van Buren Street,92201,33.7037433,-116.1985191
47201,Bataan Street,92201,33.7010133,-116.1948678
47644,Van Buren Street,92201,33.7028837,-116.1987581
47672,Van Buren Street,92201,33.7027333,-116.1986871
47680,Van Buren Street,92201,33.7026246,-116.1987099
47698,Van Buren Street,92201,33.7025305,-116.1986770
47714,Van Buren Street,92201,33.7024482,-116.1985687
47902,Luzon Street,92201,33.7012148,-116.1966091
47912,Luzon Street,92201,33.7010977,-116.1965919
47922,Luzon Street,92201,33.7009652,-116.1964739
84030,Avenue 48,92201,33.7007683,-116.1984997
84038,Avenue 48,92201,33.7006248,-116.1983151
84044,Avenue 48,92201,33.7006205,-116.1981535
84072,Avenue 48,92201,33.7005775,-116.1976681
84056,Avenue 48,92201,33.7006157,-116.1979772
84138,Avenue 48,92201,33.7005953,-116.1966451
84148,Avenue 48,92201,33.7006110,-116.1964762
84153,Lingayan Avenue,92201,33.7011711,-116.1962898
84155,Lingayan Avenue,92201,33.7011756,-116.1961404
84158,Avenue 48,92201,33.7005978,-116.1963258
84166,Avenue 48,92201,33.7005965,-116.1961392
84172,Avenue 48,92201,33.7006156,-116.1959766
84173,Lingayan Avenue,92201,33.7011704,-116.1959910
84175,Lingayan Avenue,92201,33.7010365,-116.1958111
84186,Avenue 48,92201,33.7006118,-116.1958101
84189,Lingayan Avenue,92201,33.7011493,-116.1956617
84201,Lingayan Avenue,92201,33.7011259,-116.1954975
84220,Avenue 48,92201,33.7006033,-116.1953041
84221,Lingayan Avenue,92201,33.7009756,-116.1952634
84229,Avenue 48,92201,33.7005957,-116.1949944
84241,Lingayan Avenue,92201,33.7011818,-116.1948785
84155,Corregidor Avenue,92201,33.7020798,-116.1963089
47939,Luzon Street,92201,33.7007757,-116.1970302
84088,Avenue 48,92201,33.7007498,-116.1974748
84100,Avenue 48,92201,33.7007954,-116.1973196
84019,Lingayan Avenue,92201,33.7011948,-116.1986350
84023,Lingayan Avenue,92201,33.7011689,-116.1984768
84039,Lingayan Avenue,92201,33.7011829,-116.1983197
84057,Lingayan Avenue,92201,33.7011648,-116.1979598
84075,Lingayan Avenue,92201,33.7011826,-116.1976765
84093,Lingayan Avenue,92201,33.7011651,-116.1973141
84115,Lingayan Avenue,92201,33.7010704,-116.1971502
840??,Lingayan Avenue,92201,33.7011550,-116.1975151
84065,Lingayan Avenue,92201,33.7011889,-116.1978166
84047,Lingayan Avenue,92201,33.7010980,-116.1981484
49980,Jefferson Street,92201,33.6857910,-116.2671032
49950,Jefferson Street,92201,33.6862332,-116.2672136
49906,Jefferson Street,92201,33.6870753,-116.2683171
49950,Jefferson Street,92201,33.6861698,-116.2672136
49990,Jefferson Street,92201,33.6856511,-116.2681192
49990,Jefferson Street,92201,33.6856519,-116.2683598
49906,Jefferson Street,92201,33.6870745,-116.2681521
49950,Jefferson Street,92201,33.6860867,-116.2671485
49908,Jefferson Street,92201,33.6867368,-116.2671132
49950,Jefferson Street,92201,33.6860053,-116.2671482
49990,Jefferson Street,92201,33.6856515,-116.2682354
48630,Monroe Street,92201,33.6969478,-116.2324373
47550,Madison Street,92201,33.7034254,-116.2504015
80925,Highway 111,92201,33.7067375,-116.2520722
49370,Redford Way,92201,33.6901111,-116.2172802
49383,Barrymore Street,92201,33.6903207,-116.2177359
49393,Redford Way,92201,33.6901702,-116.2177843
82075,Country Club Drive,92201,33.6960611,-116.2327284
82075,Country Club Drive,92201,33.6958846,-116.2328626
82075,Country Club Drive,92201,33.6956825,-116.2335830
82075,Country Club Drive,92201,33.6955212,-116.2331277
82075,Country Club Drive,92201,33.6958542,-116.2332253
82075,Country Club Drive,92201,33.6958635,-116.2316589
82075,Country Club Drive,92201,33.6956136,-116.2328535
82075,Country Club Drive,92201,33.6958665,-116.2323992
82075,Country Club Drive,92201,33.6959537,-116.2335923
82075,Country Club Drive,92201,33.6960300,-116.2332266
82075,Country Club Drive,92201,33.6958752,-116.2320173
82075,Country Club Drive,92201,33.6958934,-116.2327396
82075,Country Club Drive,92201,33.6960502,-116.2325078
82075,Country Club Drive,92201,33.6960422,-116.2320208
82075,Country Club Drive,92201,33.6955103,-116.2329072
82075,Country Club Drive,92201,33.6960536,-116.2316689
82075,Country Club Drive,92201,33.6958435,-116.2334459
82075,Country Club Drive,92201,33.6957637,-116.2335822
82075,Country Club Drive,92201,33.6955203,-116.2332300
82075,Country Club Drive,92201,33.6960194,-116.2334471
82075,Country Club Drive,92201,33.6954925,-116.2335932
82075,Country Club Drive,92201,33.6960746,-116.2328524
82075,Country Club Drive,92201,33.6960565,-116.2323890
82075,Country Club Drive,92201,33.6958826,-116.2325190
82075,Country Club Drive,92201,33.6958036,-116.2328636
82075,Country Club Drive,92201,33.6958859,-116.2317967
82075,Country Club Drive,92201,33.6955096,-116.2334506
82075,Country Club Drive,92201,33.6960529,-116.2318002
82075,Country Club Drive,92201,33.6960298,-116.2332986
82075,Country Club Drive,92201,33.6956797,-116.2328534
82075,Country Club Drive,92201,33.6959271,-116.2323992
82075,Country Club Drive,92201,33.6958932,-116.2335923
82075,Country Club Drive,92201,33.6958540,-116.2332974
82075,Country Club Drive,92201,33.6958931,-116.2326675
82075,Country Club Drive,92201,33.6959452,-116.2328625
82075,Country Club Drive,92201,33.6960197,-116.2333722
82075,Country Club Drive,92201,33.6955529,-116.2335932
82075,Country Club Drive,92201,33.6958755,-116.2319423
82075,Country Club Drive,92201,33.6960086,-116.2328524
82075,Country Club Drive,92201,33.6958438,-116.2333709
82075,Country Club Drive,92201,33.6958298,-116.2335822
82075,Country Club Drive,92201,33.6960425,-116.2319457
82075,Country Club Drive,92201,33.6955200,-116.2333020
82075,Country Club Drive,92201,33.6960608,-116.2326563
82075,Country Club Drive,92201,33.6958829,-116.2325939
82075,Country Club Drive,92201,33.6957431,-116.2328636
82075,Country Club Drive,92201,33.6958856,-116.2318688
82075,Country Club Drive,92201,33.6960506,-116.2325828
82075,Country Club Drive,92201,33.6955107,-116.2329821
82075,Country Club Drive,92201,33.6959930,-116.2316690
82075,Country Club Drive,92201,33.6956164,-116.2335830
82075,Country Club Drive,92201,33.6960526,-116.2318723
82075,Country Club Drive,92201,33.6955209,-116.2330556
82075,Country Club Drive,92201,33.6955099,-116.2333756
82075,Country Club Drive,92201,33.6959296,-116.2316589
82075,Country Club Drive,92201,33.6959904,-116.2323890
82610,Delano Drive,92201,33.6868639,-116.2247950
82614,Redford Way,92201,33.6868763,-116.2246135
82955,Avenue 50,92201,33.6851226,-116.2180547
50100,Vista Montana Court,92201,33.6847509,-116.2193330
50140,Vista Montana Court,92201,33.6844532,-116.2194229
50225,Vista Montana Court,92201,33.6838260,-116.2202723
50230,Vista Montana Court,92201,33.6838365,-116.2192882
50700,Los Palos Drive,92201,33.6813885,-116.2211477
50800,Los Palos Drive,92201,33.6784512,-116.2211534
51053,Sorrel Court,92201,33.6777000,-116.2177444
51062,Sorrel Court,92201,33.6776619,-116.2174389
51075,Sorrel Court,92201,33.6775486,-116.2179420
51088,Sorrel Court,92201,33.6774611,-116.2173467
51120,Mystic Tyme Drive,92201,33.6771945,-116.2171900
51142,Mystic Tyme Drive,92201,33.6770492,-116.2170706
51164,Mystic Tyme Drive,92201,33.6769059,-116.2169913
51188,Mystic Tyme Drive,92201,33.6767549,-116.2169328
51204,Mystic Tyme Drive,92201,33.6766055,-116.2169483
51230,Mystic Tyme Drive,92201,33.6764675,-116.2169498
51248,Mystic Tyme Drive,92201,33.6763317,-116.2169449
51264,Mystic Tyme Drive,92201,33.6761932,-116.2169555
51276,Mystic Tyme Drive,92201,33.6760563,-116.2169254
51304,Mystic Tyme Drive,92201,33.6759193,-116.2169210
51322,Mystic Tyme Drive,92201,33.6757833,-116.2169196
51344,Mystic Tyme Drive,92201,33.6756446,-116.2169116
51358,Mystic Tyme Drive,92201,33.6755059,-116.2168882
82605,Zenda Drive,92201,33.6795849,-116.2245838
82620,Zenda Drive,92201,33.6803347,-116.2237348
82650,Zenda Drive,92201,33.6801921,-116.2228207
82877,Spirit Mountain Drive,92201,33.6750731,-116.2186095
82889,Spirit Mountain Drive,92201,33.6751399,-116.2184542
82891,Avenue 50,92201,33.6843218,-116.2184106
82903,Spirit Mountain Drive,92201,33.6751749,-116.2182888
82909,Spirit Mountain Drive,92201,33.6752080,-116.2181222
82913,Spirit Mountain Drive,92201,33.6752515,-116.2179511
82914,Spirit Mountain Drive,92201,33.6756446,-116.2180496
82921,Spirit Mountain Drive,92201,33.6752679,-116.2177863
82922,Spirit Mountain Drive,92201,33.6756725,-116.2178837
82932,Spirit Mountain Drive,92201,33.6756816,-116.2177085
82937,Spirit Mountain Drive,92201,33.6752718,-116.2176112
82944,Spirit Mountain Drive,92201,33.6757017,-116.2175392
82956,Spirit Mountain Drive,92201,33.6757002,-116.2173705
50994,Monroe Street,92201,33.6786525,-116.2324047
50200,Avenue 50,92201,33.6842671,-116.2336650
50420,Monroe Street,92201,33.6820353,-116.2336321
82021,Avenue 50,92201,33.6850289,-116.2335997
82033,Avenue 50,92201,33.6850057,-116.2332640
82045,Avenue 50,92201,33.6850501,-116.2330615
82059,Avenue 50,92201,33.6850107,-116.2328422
82079,Avenue 50,92201,33.6849638,-116.2326216
82091,Avenue 50,92201,33.6850142,-116.2323475
82109,Avenue 50,92201,33.6849983,-116.2320886
82295,Avenue 50,92201,33.6849481,-116.2292251
82301,Avenue 50,92201,33.6850461,-116.2288241
82311,Avenue 50,92201,33.6840247,-116.2279490
82355,Avenue 50,92201,33.6849896,-116.2271494
38000,Monroe Street,92203,33.7685466,-116.2397277
82491,Avenue 42,92203,33.7402342,-116.2292959
41910,Jackson Street,92203,33.7443870,-116.2158965
42100,Jackson Street,92203,33.7412578,-116.2149700
41790,Jackson Street,92203,33.7456570,-116.2150292
41630,Jackson Street,92203,33.7473776,-116.2161817
41632,Jackson Street,92203,33.7474039,-116.2159092
41634,Jackson Street,92203,33.7474035,-116.2156502
41636,Jackson Street,92203,33.7473757,-116.2153854
41648,Jackson Street,92203,33.7470137,-116.2161843
41650,Jackson Street,92203,33.7469893,-116.2159075
41700,Jackson Street,92203,33.7462601,-116.2162941
83040,Avenue 42,92203,33.7448510,-116.2133189
42-151,Worldmark Way,92203,33.7435161,-116.1870034
82266,Highway 111,92201,33.7166325,-116.2300976
82025,Highway 111,92201,33.7132298,-116.2326569
81959,Highway 111,92201,33.7137697,-116.2342549
44100,Jefferson Street,92201,33.7285718,-116.2666167
79650,Varner Road,92203,33.7518241,-116.2732154
42801,Burr Street,92201,33.7377691,-116.2607183
47111,Monroe Street,92201,33.7064476,-116.2361254
82675,Highway 111,92201,33.7139066,-116.2217210
84-000,Terra Lago Parkway,92203,33.7412838,-116.1869339
44911,Golf Center Parkway,92201,33.7234359,-116.2074354
82123,Highway 111,92201,33.7143874,-116.2317503
80225,Highway 111,92201,33.7064007,-116.2664324
82120,Highway 111,92201,33.7150273,-116.2330262
81539,Highway 111,92201,33.7074867,-116.2420222
42225,Jackson Street,92203,33.7424479,-116.2170583
42225,Jackson Street,92203,33.7431958,-116.2172359
41-633,Gore Street,92203,33.7467315,-116.2268145
82043,Highway 111,92201,33.7142574,-116.2331067
83-255,Highway 111,92201,33.7147018,-116.2112492
81800,Avenue 51,92201,33.6784532,-116.2371788
78550,Varner Road,92203,33.7587542,-116.2941699
86560,Varner Road,92203,33.7580234,-116.2923165
78960,Varner Road,92203,33.7577448,-116.2909059
78970,Varner Road,92203,33.7575865,-116.2894397
78980,Varner Road,92203,33.7575060,-116.2881200
78990,Varner Road,92203,33.7570571,-116.2872008
79050,Varner Road,92203,33.7560917,-116.2854851
79200,Varner Road,92203,33.7555769,-116.2836140
82451,Highway 111,92201,33.7145974,-116.2261044
35905,Dillon Road,92202,33.7910827,-116.1855590
82333,Indio Boulevard,92201,33.7265783,-116.2285763
44199,Monroe Street,92201,33.7277171,-116.2354776
200,Civic Center Mall,92201,33.7189884,-116.2188197
82940,Dillon Road,92241,33.8061046,-116.1943167
81701,Corte Valdemoro,92203,33.7591400,-116.2393522
81713,Corte Valdemoro,92203,33.7591694,-116.2391637
81723,Corte Valdemoro,92203,33.7591776,-116.2389639
81737,Corte Valdemoro,92203,33.7591845,-116.2387676
81745,Corte Valdemoro,92203,33.7591797,-116.2385680
81759,Corte Valdemoro,92203,33.7591926,-116.2383718
81769,Corte Valdemoro,92203,33.7592004,-116.2381736
81781,Corte Valdemoro,92203,33.7592052,-116.2379756
81793,Corte Valdemoro,92203,33.7591934,-116.2377728
81805,Corte Valdemoro,92203,33.7591625,-116.2375799
81815,Corte Valdemoro,92203,33.7591676,-116.2373800
81827,Corte Valdemoro,92203,33.7591520,-116.2371859
81839,Corte Valdemoro,92203,33.7591479,-116.2369895
81851,Corte Valdemoro,92203,33.7591545,-116.2367934
81863,Corte Valdemoro,92203,33.7591595,-116.2365929
81875,Corte Valdemoro,92203,33.7591558,-116.2363951
81883,Corte Valdemoro,92203,33.7591528,-116.2362006
81895,Corte Valdemoro,92203,33.7591614,-116.2360026
81909,Corte Valdemoro,92203,33.7591709,-116.2358265
81915,Corte Valdemoro,92203,33.7591561,-116.2356792
81921,Corte Valdemoro,92203,33.7591822,-116.2355284
81929,Corte Valdemoro,92203,33.7591650,-116.2353824
81937,Corte Valdemoro,92203,33.7591829,-116.2352346
81947,Corte Valdemoro,92203,33.7591912,-116.2350859
81955,Corte Valdemoro,92203,33.7591990,-116.2349341
81963,Corte Valdemoro,92203,33.7592104,-116.2347906
81971,Corte Valdemoro,92203,33.7591700,-116.2346405
81981,Corte Valdemoro,92203,33.7591714,-116.2344784
81551,Corte Valdemoro,92203,33.7591329,-116.2419938
81563,Corte Valdemoro,92203,33.7591664,-116.2417971
81573,Corte Valdemoro,92203,33.7591795,-116.2416006
81585,Corte Valdemoro,92203,33.7591604,-116.2414057
81597,Corte Valdemoro,92203,33.7591648,-116.2412042
81607,Corte Valdemoro,92203,33.7591497,-116.2410105
81619,Corte Valdemoro,92203,33.7591438,-116.2408107
81633,Corte Valdemoro,92203,33.7591216,-116.2405470
81645,Corte Valdemoro,92203,33.7591448,-116.2403476
81657,Corte Valdemoro,92203,33.7591499,-116.2401503
81667,Corte Valdemoro,92203,33.7591419,-116.2399526
81679,Corte Valdemoro,92203,33.7591440,-116.2397499
81689,Corte Valdemoro,92203,33.7591545,-116.2395562
39529,Camino Piscina,92203,33.7619514,-116.2495943
81118,Avenida Neblina,92203,33.7616945,-116.2496086
81074,Avenida Neblina,92203,33.7617756,-116.2503003
81092,Avenida Neblina,92203,33.7617295,-116.2500598
81104,Avenida Neblina,92203,33.7617079,-116.2498269
82734,Mount Riley Drive,92203,33.7555536,-116.2212828
82760,Mount Riley Drive,92203,33.7554933,-116.2208464
82746,Mount Riley Drive,92203,33.7555216,-116.2210881
82761,Mount Riley Drive,92203,33.7550759,-116.2208602
40456,Alabama Hills Drive,92203,33.7551410,-116.2211446
40459,Alabama Hills Drive,92203,33.7551342,-116.2216394
40429,Alabama Hills Drive,92203,33.7553228,-116.2216733
40401,Alabama Hills Drive,92203,33.7555131,-116.2215505
42261,Spectrum Street,92203,33.7404444,-116.2258562
81753,Highway 111,92201,33.7107532,-116.2371098
42350,Jefferson Street,92201,33.7397550,-116.2651761
44100,Jefferson Street,92201,33.7283476,-116.2682202
81-544,Highway 111,92201-5411,33.7083854,-116.2418246
47-110,Calhoun Street,92201,33.7072040,-116.2070945
47-110,Calhoun Street,92201,33.7072486,-116.2071186
82561,Belfort Court,92203,33.7516129,-116.2243609
82541,Belfort Court,92203,33.7516039,-116.2245696
82529,Belfort Court,92203,33.7515967,-116.2247948
82519,Belfort Court,92203,33.7515814,-116.2250662
84-245,Indio Springs Pkwy,92203,33.7207435,-116.1845010
47250,Dillon Road,92236,33.7054433,-116.1836199
83997,Indio Boulevard,92201,33.7085626,-116.1996415
84250,Indio Springs Drive,92203,33.7240309,-116.1924926
47470,Van Buren Street,92201,33.7045295,-116.1979414
49990,Jefferson Street,92201,33.6856516,-116.2682437
49950,Jefferson Street,92201,33.6861235,-116.2671810
49906,Jefferson Street,92201,33.6870749,-116.2682316
47800,Madison Street,92201,33.7018832,-116.2492625
47382,Madison Street,92201,33.7045174,-116.2492826
80755,Highway 111,92201,33.7064911,-116.2552022
80883,Highway 111,92201,33.7068128,-116.2536561
47230,Youngs Lane,92201,33.7055346,-116.2552024
81420,North Sun City Boulevard,92203,33.7632821,-116.2441947
41910,Jackson Street,92203,33.7444337,-116.2159051
80500,Avenue 46,92201,33.7152148,-116.2599886
80394,Avenue 48,92201,33.7030204,-116.2622612
80875,Avenue 40,92203,33.7527033,-116.2512173
