House number,Street name,Postal code,Latitude,Longitude
5420,La Palma Avenue,90623,33.8456190,-118.0387260
5600,Orangethorpe Avenue,90623,33.8574080,-118.0356666
5600,Orangethorpe Avenue,90623,33.8573665,-118.0356646
5600,Orangethorpe Avenue,90623,33.8573949,-118.0358550
5600,Orangethorpe Avenue,90623,33.8573542,-118.0358503
5600,Orangethorpe Avenue,90623,33.8572309,-118.0356693
5600,Orangethorpe Avenue,90623,33.8572298,-118.0357417
5600,Orangethorpe Avenue,90623,33.8571006,-118.0356653
5600,Orangethorpe Avenue,90623,33.8570995,-118.0357484
5600,Orangethorpe Avenue,90623,33.8570249,-118.0356613
5600,Orangethorpe Avenue,90623,33.8570238,-118.0357444
5600,Orangethorpe Avenue,90623,33.8569124,-118.0356572
5600,Orangethorpe Avenue,90623,33.8569102,-118.0357417
5600,Orangethorpe Avenue,90623,33.8575886,-118.0357263
5600,Orangethorpe Avenue,90623,33.8575240,-118.0357444
5600,Orangethorpe Avenue,90623,33.8576177,-118.0359003
5600,Orangethorpe Avenue,90623,33.8576242,-118.0358664
5432,Orangethorpe Avenue,90623-1005,33.8584199,-118.0388045
5501,Orangethorpe Avenue,90623,33.8591249,-118.0373335
10,Centerpointe Drive,90623,33.8609947,-118.0295365
6,Centerpointe Drive,90623,33.8596634,-118.0292530
5031,"La Palma Ave, Ste B",90623,33.8466359,-118.0453542
5600,Orangethorpe Avenue,90623,33.8575288,-118.0352634
5600,Orangethorpe Avenue,90623,33.8571930,-118.0360138
5600,Orangethorpe Avenue,90623,33.8576909,-118.0360242
5600,Orangethorpe Avenue,90623,33.8569927,-118.0359602
5600,Orangethorpe Avenue,90623,33.8570182,-118.0362507
5600,Orangethorpe Avenue,90623,33.8573314,-118.0363792
5600,Orangethorpe Avenue,90623,33.8576746,-118.0355848
5600,Orangethorpe Avenue,90623,33.8567679,-118.0359169
5600,Orangethorpe Avenue,90623,33.8567643,-118.0364872
5600,Orangethorpe Avenue,90623,33.8570131,-118.0365354
5600,Orangethorpe Avenue,90623,33.8577023,-118.0362986
5600,Orangethorpe Avenue,90623,33.8575293,-118.0366524
5600,Orangethorpe Avenue,90623,33.8577177,-118.0367701
5600,Orangethorpe Avenue,90623,33.8572078,-118.0368240
5600,Orangethorpe Avenue,90623,33.8569443,-118.0370027
5600,Orangethorpe Avenue,90623,33.8572838,-118.0371967
5600,Orangethorpe Avenue,90623,33.8575112,-118.0369694
5600,Orangethorpe Avenue,90623,33.8576707,-118.0372121
5600,Orangethorpe Avenue,90623,33.8570960,-118.0334512
5600,Orangethorpe Avenue,90623,33.8567803,-118.0340930
5600,Orangethorpe Avenue,90623,33.8579336,-118.0340678
5600,Orangethorpe Avenue,90623,33.8574630,-118.0347916
5600,Orangethorpe Avenue,90623,33.8572543,-118.0347698
5600,Orangethorpe Avenue,90623,33.8573041,-118.0344475
5502,Orangethorpe Avenue,90623,33.8583811,-118.0371290
5600,Orangethorpe Avenue,90623,33.8584479,-118.0352106
5600,Orangethorpe Avenue,90623,33.8581152,-118.0352784
5600,Orangethorpe Avenue,90623,33.8583199,-118.0350032
5600,Orangethorpe Avenue,90623,33.8574499,-118.0350660
5600,Orangethorpe Ave,90623,33.8567688,-118.0336718
5600,Orangethorpe Avenue,90623,33.8569265,-118.0348373
5600,Orangethorpe Avenue,90623,33.8569348,-118.0345437
5600,Orangethorpe Avenue,90623,33.8570304,-118.0340860
5600,Orangethorpe Avenue,90623,33.8577640,-118.0346615
5600,Orangethorpe Avenue,90623,33.8577597,-118.0342577
5600,Orangethorpe Avenue,90623,33.8576480,-118.0339829
5600,Orangethorpe Avenue,90623,33.8576573,-118.0337185
5600,Orangethorpe Avenue,90623,33.8575425,-118.0334751
5600,Orangethorpe Avenue,90623,33.8571185,-118.0337216
5600,Orangethorpe Avenue,90623,33.8575621,-118.0344101
8212,La Granada Circle,90623,33.8429355,-118.0447728
8462,Moody Street,90623-2240,33.8394842,-118.0453930
5012,Moody Street,90623,33.8458825,-118.0455263
5961,La Palma Avenue,90623,33.8468797,-118.0291647
7842,Walker Street,90623,33.8486038,-118.0368639
5062,Orangethorpe Avenue,90623,33.8583673,-118.0449725
7901,Walker Street,90623,33.8474962,-118.0388334
7342,Aspen Circle,90623,33.8559121,-118.0362839
3,Centerpointe Drive,90623,33.8603961,-118.0315851
7811,Valley View St.,90623,33.8480468,-118.0289317
4751,El Rancho Verde Drive,90623,33.8509108,-118.0501628
7671,Barbi Lane,90623,33.8511024,-118.0502302
7661,Barbi Lane,90623,33.8512408,-118.0502403
7651,Barbi Lane,90623,33.8513815,-118.0502439
7641,Barbi Lane,90623,33.8515205,-118.0502519
7631,Barbi Lane,90623,33.8516553,-118.0502160
7621,Barbi Lane,90623,33.8517954,-118.0502595
7611,Barbi Lane,90623,33.8519333,-118.0502508
7601,Barbi Lane,90623,33.8520712,-118.0502439
7591,Barbi Lane,90623,33.8522066,-118.0502501
7571,Barbi Lane,90623,33.8525118,-118.0502375
7561,Barbi Lane,90623,33.8526484,-118.0502557
7551,Barbi Lane,90623,33.8527871,-118.0502571
7541,Barbi Lane,90623,33.8529269,-118.0502676
7531,Barbi Lane,90623,33.8530840,-118.0502341
4752,El Rancho Verde Drive,90623,33.8505135,-118.0501560
5981,Priest Drive,90623,33.8452334,-118.0288322
5982,Priest Drive,90623,33.8447686,-118.0288121
5992,Wesenberg Circle,90623,33.8457447,-118.0288711
5982,Wesenberg Circle,90623,33.8455319,-118.0289010
5984,Thelma Avenue,90623,33.8506468,-118.0288487
5974,Thelma Avenue,90623,33.8506726,-118.0289946
10,Centerpointe Drive,90623,33.8612890,-118.0294521
8,Centerpointe Drive,90623,33.8604036,-118.0292359
6,Centerpointe Drive,90623,33.8596585,-118.0292567
4,Centerpointe Drive,90623,33.8592991,-118.0294136
2,Centerpointe Drive,90623,33.8594794,-118.0308706
1,Centerpointe Drive,90623,33.8601721,-118.0303226
50,Centerpointe Drive,90623,33.8594900,-118.0314762
5964,Thelma Avenue,90623,33.8506717,-118.0291619
5954,Thelma Avenue,90623,33.8506416,-118.0293353
5944,Thelma Avenue,90623,33.8506694,-118.0295121
5924,Thelma Avenue,90623,33.8506646,-118.0296759
5914,Thelma Avenue,90623,33.8506676,-118.0298480
5904,Thelma Avenue,90623,33.8506627,-118.0300174
5894,Thelma Avenue,90623,33.8506633,-118.0301875
5872,Thelma Avenue,90623,33.8506461,-118.0303957
5862,Thelma Avenue,90623,33.8506293,-118.0306575
5854,Thelma Avenue,90623,33.8506645,-118.0308651
5844,Thelma Avenue,90623,33.8506607,-118.0310519
5832,Thelma Avenue,90623,33.8506589,-118.0312292
5822,Thelma Avenue,90623,33.8506534,-118.0314127
5812,Thelma Avenue,90623,33.8505949,-118.0315914
5841,Warwick Circle,90623,33.8498806,-118.0313197
5831,Warwick Circle,90623,33.8499044,-118.0314865
5821,Warwick Circle,90623,33.8498802,-118.0316500
5842,Warwick Circle,90623,33.8494594,-118.0313158
5832,Warwick Circle,90623,33.8494665,-118.0315088
5841,Calaveras Circle,90623,33.8491878,-118.0313387
5831,Calaveras Circle,90623,33.8491876,-118.0315239
5842,Calaveras Circle,90623,33.8487560,-118.0313394
5832,Calaveras Circle,90623,33.8487575,-118.0315230
5841,Shasta Circle,90623,33.8484552,-118.0313120
5831,Shasta Circle,90623,33.8484811,-118.0315054
5842,Shasta Circle,90623,33.8480503,-118.0313091
5832,Shasta Circle,90623,33.8480440,-118.0314976
5821,Crestview Circle,90623,33.8477916,-118.0316251
5831,Crestview Circle,90623,33.8477321,-118.0314303
5842,Crestview Circle,90623,33.8475682,-118.0313351
7911,Rose Street,90623,33.8475641,-118.0310567
7901,Rose Street,90623,33.8477005,-118.0310585
7891,Rose Street,90623,33.8478388,-118.0310452
7881,Rose Street,90623,33.8479748,-118.0310773
7871,Rose Street,90623,33.8481295,-118.0310643
7872,Rose Street,90623,33.8481458,-118.0305418
7882,Rose Street,90623,33.8479784,-118.0305460
7892,Rose Street,90623,33.8478408,-118.0305576
7902,Rose Street,90623,33.8477039,-118.0305607
7912,Rose Street,90623,33.8475673,-118.0305664
7911,Sunflower Lane,90623,33.8475709,-118.0301965
7901,Sunflower Lane,90623,33.8477065,-118.0302233
7891,Sunflower Lane,90623,33.8478446,-118.0302301
7881,Sunflower Lane,90623,33.8479805,-118.0302320
7871,Sunflower Lane,90623,33.8481480,-118.0302229
7872,Sunflower Lane,90623,33.8481504,-118.0297267
7882,Sunflower Lane,90623,33.8479798,-118.0297122
7892,Sunflower Lane,90623,33.8478297,-118.0297269
7902,Sunflower Lane,90623,33.8476904,-118.0297217
7912,Sunflower Lane,90623,33.8475539,-118.0297273
7922,Sunflower Lane,90623,33.8474186,-118.0297364
7932,Sunflower Lane,90623,33.8472796,-118.0297187
7942,Sunflower Lane,90623,33.8471415,-118.0297224
7952,Sunflower Lane,90623,33.8470048,-118.0297139
5882,Iris Circle,90623,33.8468136,-118.0297032
5872,Iris Circle,90623,33.8466800,-118.0298617
5862,Iris Circle,90623,33.8466802,-118.0300825
5852,Iris Circle,90623,33.8466928,-118.0302473
5842,Iris Circle,90623,33.8466671,-118.0304287
5831,Iris Circle,90623,33.8470811,-118.0305518
5841,Iris Circle,90623,33.8470986,-118.0303545
5851,Iris Circle,90623,33.8470933,-118.0301533
7931,Sunflower Lane,90623,33.8472945,-118.0302018
7921,Sunflower Lane,90623,33.8474321,-118.0302075
7922,Rose Street,90623,33.8474288,-118.0305525
7932,Rose Street,90623,33.8472922,-118.0305561
7921,Rose Street,90623,33.8474254,-118.0310381
7931,Rose Street,90623,33.8472897,-118.0310422
5821,Iris Circle,90623,33.8470690,-118.0309495
5811,Iris Circle,90623,33.8470906,-118.0311148
5801,Iris Circle,90623,33.8471010,-118.0313847
5791,Iris Circle,90623,33.8469589,-118.0315317
5792,Iris Circle,90623,33.8467914,-118.0315085
5802,Iris Circle,90623,33.8466561,-118.0313943
5812,Iris Circle,90623,33.8466447,-118.0311717
5822,Iris Circle,90623,33.8466631,-118.0309915
5832,Iris Circle,90623,33.8466843,-118.0308263
5811,Park West Circle,90623,33.8461567,-118.0316520
5821,Park West Circle,90623,33.8461000,-118.0314892
8001,Rose Street,90623,33.8461797,-118.0308346
8011,Rose Street,90623,33.8460167,-118.0308211
5851,Crocus Circle,90623,33.8458308,-118.0307616
5841,Crocus Circle,90623,33.8458128,-118.0309437
5831,Crocus Circle,90623,33.8458946,-118.0311583
5812,Crocus Circle,90623,33.8454670,-118.0314548
5822,Crocus Circle,90623,33.8454086,-118.0313086
5832,Crocus Circle,90623,33.8454335,-118.0311306
5842,Crocus Circle,90623,33.8454291,-118.0309533
5852,Crocus Circle,90623,33.8454227,-118.0307705
8002,Rose Street,90623,33.8461662,-118.0303493
8012,Rose Street,90623,33.8460183,-118.0303386
8022,Rose Street,90623,33.8458762,-118.0303474
8032,Rose Street,90623,33.8457252,-118.0303466
8042,Rose Street,90623,33.8455782,-118.0303334
8052,Rose Street,90623,33.8454365,-118.0303308
8062,Rose Street,90623,33.8452866,-118.0303201
8061,Frese Lane,90623,33.8453593,-118.0299994
8051,Frese Lane,90623,33.8454950,-118.0299825
8041,Frese Lane,90623,33.8456330,-118.0299774
8031,Frese Lane,90623,33.8457697,-118.0299869
8021,Frese Lane,90623,33.8459071,-118.0299686
8011,Frese Lane,90623,33.8460437,-118.0299692
8001,Frese Lane,90623,33.8461821,-118.0299812
8002,Frese Lane,90623,33.8461875,-118.0293704
8012,Frese Lane,90623,33.8460500,-118.0293856
8022,Frese Lane,90623,33.8459126,-118.0294584
8032,Frese Lane,90623,33.8457747,-118.0294871
5972,Wesenberg Circle,90623,33.8454630,-118.0290411
5962,Wesenberg Circle,90623,33.8454330,-118.0292346
5952,Wesenberg Circle,90623,33.8454197,-118.0293973
5942,Wesenberg Circle,90623,33.8454375,-118.0295626
5832,Crestview Circle,90623,33.8473889,-118.0314111
5822,Crestview Circle,90623,33.8473140,-118.0316194
5971,Priest Drive,90623,33.8451940,-118.0290382
5961,Priest Drive,90623,33.8451500,-118.0292255
5951,Priest Drive,90623,33.8451525,-118.0293903
5941,Priest Drive,90623,33.8451588,-118.0295559
8071,Frese Lane,90623,33.8452195,-118.0299895
8081,Frese Lane,90623,33.8450835,-118.0299983
8091,Frese Lane,90623,33.8448911,-118.0299836
5922,Priest Drive,90623,33.8447530,-118.0298843
5932,Priest Drive,90623,33.8447342,-118.0296512
5942,Priest Drive,90623,33.8447142,-118.0294703
5952,Priest Drive,90623,33.8447355,-118.0293057
5962,Priest Drive,90623,33.8447417,-118.0291404
5972,Priest Drive,90623,33.8447799,-118.0289770
8072,Rose Street,90623,33.8451325,-118.0303045
8082,Rose Street,90623,33.8449854,-118.0302911
8092,Rose Street,90623,33.8448177,-118.0303675
5862,Daisy Circle,90623,33.8447147,-118.0305314
5852,Daisy Circle,90623,33.8447094,-118.0307285
5842,Daisy Circle,90623,33.8447130,-118.0309068
5832,Daisy Circle,90623,33.8447362,-118.0310802
5822,Daisy Circle,90623,33.8447166,-118.0312502
5812,Daisy Circle,90623,33.8447328,-118.0314163
5802,Daisy Circle,90623,33.8447136,-118.0315928
5851,Daisy Circle,90623,33.8451261,-118.0307662
5841,Daisy Circle,90623,33.8451203,-118.0309473
5831,Daisy Circle,90623,33.8451452,-118.0311273
5821,Daisy Circle,90623,33.8451325,-118.0313022
5811,Daisy Circle,90623,33.8451328,-118.0314791
5801,Daisy Circle,90623,33.8451308,-118.0316816
8229,Los Altos Drive,90620,33.8431653,-118.0327067
5792,Daisy Circle,90623,33.8447061,-118.0317893
5782,Daisy Circle,90623,33.8447079,-118.0320134
5772,Daisy Circle,90623,33.8447879,-118.0321880
5822,Vinevale Circle,90623,33.8453412,-118.0321222
5812,Vinevale Circle,90623,33.8452146,-118.0322395
5802,Vinevale Circle,90623,33.8451589,-118.0323731
5792,Vinevale Circle,90623,33.8450646,-118.0325218
5782,Vinevale Circle,90623,33.8450076,-118.0326557
5752,Vinevale Circle,90623,33.8449102,-118.0328110
5742,Vinevale Circle,90623,33.8448548,-118.0329665
5732,Vinevale Circle,90623,33.8447928,-118.0331106
5722,Vinevale Circle,90623,33.8447629,-118.0332630
5712,Vinevale Circle,90623,33.8447261,-118.0334471
5702,Vinevale Circle,90623,33.8447276,-118.0336086
5692,Vinevale Circle,90623,33.8447014,-118.0337794
5682,Vinevale Circle,90623,33.8446751,-118.0339417
5672,Vinevale Circle,90623,33.8446833,-118.0341107
5662,Vinevale Circle,90623,33.8446883,-118.0342735
8072,Woodglen Circle,90623,33.8450460,-118.0343738
8062,Woodglen Circle,90623,33.8451831,-118.0344075
8052,Woodglen Circle,90623,33.8453199,-118.0343972
8051,Sundance Lane,90623,33.8453232,-118.0340317
8061,Sundance Lane,90623,33.8451850,-118.0340442
8071,Sundance Lane,90623,33.8450501,-118.0340303
8072,Sundance Lane,90623,33.8450738,-118.0335537
8062,Sundance Lane,90623,33.8452080,-118.0335682
8052,Sundance Lane,90623,33.8453465,-118.0335530
5731,Vinevale Circle,90623,33.8451739,-118.0333137
5741,Vinevale Circle,90623,33.8452429,-118.0331549
5751,Vinevale Circle,90623,33.8453119,-118.0330223
5761,Vinevale Circle,90623,33.8453849,-118.0328605
5812,Crestview Circle,90623,33.8473416,-118.0318047
5802,Crestview Circle,90623,33.8473546,-118.0319790
5792,Crestview Circle,90623,33.8473487,-118.0321477
5782,Crestview Circle,90623,33.8473498,-118.0323123
5781,San Simeon Drive,90623,33.8470917,-118.0323070
5791,San Simeon Drive,90623,33.8470985,-118.0321424
5801,San Simeon Drive,90623,33.8470621,-118.0319635
7962,Westra Lane,90623,33.8469017,-118.0318436
7972,Westra Lane,90623,33.8467490,-118.0318320
7982,Westra Lane,90623,33.8466112,-118.0318432
5782,San Simeon Drive,90623,33.8466775,-118.0322705
5772,San Simeon Drive,90623,33.8466637,-118.0324343
5762,San Simeon Drive,90623,33.8466628,-118.0325981
5752,San Simeon Drive,90623,33.8466582,-118.0327617
5742,San Simeon Drive,90623,33.8466622,-118.0329270
5732,San Simeon Drive,90623,33.8466516,-118.0330929
5722,San Simeon Drive,90623,33.8466575,-118.0332573
5712,San Simeon Drive,90623,33.8466609,-118.0334229
5702,San Simeon Drive,90623,33.8466650,-118.0335870
5692,San Simeon Drive,90623,33.8466434,-118.0337527
5682,San Simeon Drive,90623,33.8466656,-118.0339168
7941,Westra Lane,90623,33.8471566,-118.0327384
7931,Westra Lane,90623,33.8472948,-118.0327386
7921,Westra Lane,90623,33.8474301,-118.0327365
7911,Westra Lane,90623,33.8475689,-118.0327474
7951,Westra Lane,90623,33.8470109,-118.0327265
7942,Camden Circle,90623,33.8471537,-118.0330655
7922,Camden Circle,90623,33.8474276,-118.0330946
7912,Camden Circle,90623,33.8475652,-118.0330909
7932,Camden Circle,90623,33.8472901,-118.0330862
7952,Camden Circle,90623,33.8470162,-118.0330672
7911,Camden Circle,90623,33.8475630,-118.0335496
7941,Camden Circle,90623,33.8471505,-118.0335297
7931,Camden Circle,90623,33.8472885,-118.0335609
7951,Camden Circle,90623,33.8470130,-118.0335436
7921,Camden Circle,90623,33.8474214,-118.0335530
7942,Comstock Circle,90623,33.8471477,-118.0338771
7932,Comstock Circle,90623,33.8472849,-118.0338752
7922,Comstock Circle,90623,33.8474225,-118.0338971
7912,Comstock Circle,90623,33.8475606,-118.0338797
7952,Comstock Circle,90623,33.8470121,-118.0338875
7931,Comstock Circle,90623,33.8472827,-118.0343580
7941,Comstock Circle,90623,33.8471451,-118.0343732
7911,Comstock Circle,90623,33.8475574,-118.0343486
7921,Comstock Circle,90623,33.8474205,-118.0343466
7951,Comstock Circle,90623,33.8470078,-118.0343615
8042,Woodglen Circle,90623,33.8454583,-118.0343952
8012,Woodglen Circle,90623,33.8458682,-118.0343633
7971,Comstock Circle,90623,33.8467333,-118.0343478
7961,Comstock Circle,90623,33.8468698,-118.0343498
8022,Woodglen Circle,90623,33.8457336,-118.0343529
8006,Woodglen Circle,90623,33.8460584,-118.0343690
8032,Woodglen Circle,90623,33.8455953,-118.0343823
7981,Comstock Circle,90623,33.8465949,-118.0343443
8031,Sundance Lane,90623,33.8455985,-118.0340589
5701,Park West Circle,90623,33.8461370,-118.0336832
5711,Park West Circle,90623,33.8461127,-118.0335202
8021,Sundance Lane,90623,33.8457372,-118.0340495
5691,Park West Circle,90623,33.8461045,-118.0338929
8001,Sundance Lane,90623,33.8460577,-118.0340415
8041,Sundance Lane,90623,33.8454627,-118.0340525
8011,Sundance Lane,90623,33.8458720,-118.0340910
5721,Park West Circle,90623,33.8461118,-118.0333470
5731,Park West Circle,90623,33.8461309,-118.0331848
5751,Park West Circle,90623,33.8460968,-118.0326553
5741,Park West Circle,90623,33.8461111,-118.0328203
5761,Park West Circle,90623,33.8461012,-118.0324905
5781,Park West Circle,90623,33.8461016,-118.0321593
5801,Park West Circle,90623,33.8461168,-118.0318334
5791,Park West Circle,90623,33.8461190,-118.0319956
5771,Park West Circle,90623,33.8461126,-118.0323263
5792,Park West Circle,90623,33.8457003,-118.0321184
5832,Vinevale Circle,90623,33.8454908,-118.0320664
5812,Park West Circle,90623,33.8456626,-118.0317666
5802,Park West Circle,90623,33.8456945,-118.0319466
5712,Park West Circle,90623,33.8456969,-118.0334348
5702,Park West Circle,90623,33.8456825,-118.0335951
5772,Park West Circle,90623,33.8456981,-118.0324456
5762,Park West Circle,90623,33.8456993,-118.0326075
5732,Park West Circle,90623,33.8457088,-118.0331029
5752,Park West Circle,90623,33.8456964,-118.0327735
5722,Park West Circle,90623,33.8456857,-118.0332677
5782,Park West Circle,90623,33.8456851,-118.0322790
5742,Park West Circle,90623,33.8456789,-118.0329387
8042,Sundance Lane,90623,33.8454848,-118.0335321
5771,Vinevale Circle,90623,33.8454371,-118.0327007
7871,Comstock Circle,90623,33.8481157,-118.0343860
7881,Comstock Circle,90623,33.8479695,-118.0344158
7891,Comstock Circle,90623,33.8478313,-118.0343724
7901,Comstock Circle,90623,33.8476938,-118.0343776
7902,Comstock Circle,90623,33.8476953,-118.0338884
7892,Comstock Circle,90623,33.8478347,-118.0338986
7882,Comstock Circle,90623,33.8479774,-118.0338503
7872,Comstock Circle,90623,33.8481171,-118.0338811
7891,Camden Circle,90623,33.8478384,-118.0335601
7881,Camden Circle,90623,33.8479750,-118.0335872
7871,Camden Circle,90623,33.8481203,-118.0335628
7901,Camden Circle,90623,33.8476993,-118.0335546
7872,Camden Circle,90623,33.8481242,-118.0330766
7902,Camden Circle,90623,33.8477024,-118.0330642
7892,Camden Circle,90623,33.8478401,-118.0330795
7882,Camden Circle,90623,33.8479774,-118.0330652
7871,Westra Lane,90623,33.8481185,-118.0327447
7861,Westra Lane,90623,33.8482562,-118.0327596
7891,Westra Lane,90623,33.8478442,-118.0327241
7901,Westra Lane,90623,33.8477046,-118.0327520
7881,Westra Lane,90623,33.8479814,-118.0327396
7811,Westra Lane,90623,33.8489436,-118.0327610
7801,Westra Lane,90623,33.8490822,-118.0327716
7841,Westra Lane,90623,33.8485308,-118.0327647
7851,Westra Lane,90623,33.8483942,-118.0327516
7831,Westra Lane,90623,33.8486688,-118.0327574
7821,Westra Lane,90623,33.8488058,-118.0327703
7781,Westra Lane,90623,33.8493554,-118.0327820
7771,Westra Lane,90623,33.8494924,-118.0327899
7791,Westra Lane,90623,33.8492169,-118.0327678
5771,Warwick Circle,90623,33.8498567,-118.0324703
5781,Warwick Circle,90623,33.8498564,-118.0323089
5751,Warwick Circle,90623,33.8498564,-118.0328165
5761,Warwick Circle,90623,33.8498702,-118.0326383
5801,Warwick Circle,90623,33.8498779,-118.0319796
5791,Warwick Circle,90623,33.8498662,-118.0321435
5811,Warwick Circle,90623,33.8498702,-118.0318140
5822,Warwick Circle,90623,33.8494716,-118.0316970
5812,Warwick Circle,90623,33.8494711,-118.0318643
5792,Warwick Circle,90623,33.8494716,-118.0321936
5802,Warwick Circle,90623,33.8494653,-118.0320272
5782,Warwick Circle,90623,33.8494678,-118.0323583
5781,Calaveras Circle,90623,33.8491586,-118.0323657
5801,Calaveras Circle,90623,33.8491667,-118.0320207
5811,Calaveras Circle,90623,33.8491499,-118.0318590
5791,Calaveras Circle,90623,33.8491613,-118.0321907
5821,Calaveras Circle,90623,33.8491658,-118.0316929
5792,Calaveras Circle,90623,33.8487529,-118.0321800
5782,Calaveras Circle,90623,33.8487577,-118.0323423
5822,Calaveras Circle,90623,33.8487641,-118.0316854
5802,Calaveras Circle,90623,33.8487546,-118.0320105
5812,Calaveras Circle,90623,33.8487825,-118.0318491
5821,Shasta Circle,90623,33.8484546,-118.0316782
5791,Shasta Circle,90623,33.8484616,-118.0321731
5801,Shasta Circle,90623,33.8484504,-118.0320038
5781,Shasta Circle,90623,33.8484406,-118.0323374
5811,Shasta Circle,90623,33.8484512,-118.0318432
5822,Shasta Circle,90623,33.8480563,-118.0316692
5792,Shasta Circle,90623,33.8480537,-118.0321629
5812,Shasta Circle,90623,33.8480537,-118.0318350
5802,Shasta Circle,90623,33.8480553,-118.0319986
5782,Shasta Circle,90623,33.8480418,-118.0323257
5811,Crestview Circle,90623,33.8477464,-118.0318227
5801,Crestview Circle,90623,33.8477382,-118.0319913
5781,Crestview Circle,90623,33.8477470,-118.0323213
5791,Crestview Circle,90623,33.8477484,-118.0321572
5782,Thelma Avenue,90623,33.8506377,-118.0320848
5742,Thelma Avenue,90623,33.8506085,-118.0327173
5762,Thelma Avenue,90623,33.8506171,-118.0324727
5772,Thelma Avenue,90623,33.8506206,-118.0323106
5802,Thelma Avenue,90623,33.8505964,-118.0317798
5722,Thelma Avenue,90623,33.8506166,-118.0335968
5712,Thelma Avenue,90623,33.8506343,-118.0337770
5732,Thelma Avenue,90623,33.8506336,-118.0332469
5702,Thelma Avenue,90623,33.8506013,-118.0339799
5692,Thelma Avenue,90623,33.8506392,-118.0342002
5702,Oak Drive,90623,33.8538223,-118.0337870
5692,Oak Drive,90623,33.8538323,-118.0339515
5712,Oak Drive,90623,33.8538267,-118.0336229
5722,Oak Drive,90623,33.8538057,-118.0334279
5682,Oak Drive,90623,33.8538262,-118.0341157
5732,Oak Drive,90623,33.8538641,-118.0332660
5672,Oak Drive,90623,33.8538242,-118.0342804
7442,Brian Lane,90623,33.8544458,-118.0332701
7462,Brian Lane,90623,33.8541734,-118.0332200
7452,Brian Lane,90623,33.8543112,-118.0332144
7472,Brian Lane,90623,33.8540349,-118.0331819
7462,Darlene Circle,90623,33.8541680,-118.0340768
7441,Brian Lane,90623,33.8544449,-118.0337311
7442,Darlene Circle,90623,33.8544428,-118.0340418
7461,Brian Lane,90623,33.8541705,-118.0337623
7451,Brian Lane,90623,33.8543066,-118.0337353
7452,Darlene Circle,90623,33.8543052,-118.0340954
7331,Colombia Drive,90620,33.8566470,-118.0329787
7351,Colombia Drive,90620,33.8563172,-118.0329744
7362,Brian Lane,90623,33.8555792,-118.0332459
7402,Brian Lane,90623,33.8550099,-118.0332467
7392,Brian Lane,90623,33.8551522,-118.0332681
7372,Brian Lane,90623,33.8554423,-118.0332598
7352,Brian Lane,90623,33.8557150,-118.0332658
7382,Brian Lane,90623,33.8552981,-118.0332492
7412,Brian Lane,90623,33.8548631,-118.0332369
7422,Brian Lane,90623,33.8547195,-118.0332515
7432,Brian Lane,90623,33.8545832,-118.0332396
7342,Brian Lane,90623,33.8558539,-118.0332705
7332,Brian Lane,90623,33.8559922,-118.0332714
7301,Brian Lane,90623,33.8564022,-118.0335014
7322,Brian Lane,90623,33.8561519,-118.0332444
7312,Brian Lane,90623,33.8563533,-118.0332861
7371,Brian Lane,90623,33.8554332,-118.0337358
7311,Brian Lane,90623,33.8563741,-118.0337183
7341,Brian Lane,90623,33.8558667,-118.0337237
7381,Brian Lane,90623,33.8552948,-118.0337306
7321,Brian Lane,90623,33.8561723,-118.0337690
7361,Brian Lane,90623,33.8555853,-118.0337425
7331,Brian Lane,90623,33.8560058,-118.0337217
7351,Brian Lane,90623,33.8557228,-118.0337409
7302,Spruce Circle,90623,33.8564156,-118.0342901
7382,Spruce Circle,90623,33.8553004,-118.0340191
7322,Spruce Circle,90623,33.8561700,-118.0339919
7362,Spruce Circle,90623,33.8555832,-118.0340364
7312,Spruce Circle,90623,33.8563498,-118.0340448
7352,Spruce Circle,90623,33.8557210,-118.0340279
7372,Spruce Circle,90623,33.8554387,-118.0340053
7342,Spruce Circle,90623,33.8558645,-118.0340231
7332,Spruce Circle,90623,33.8560053,-118.0340212
7421,Brian Lane,90623,33.8547194,-118.0337400
7431,Brian Lane,90623,33.8545818,-118.0337418
5712,Conifer Drive,90623,33.8549201,-118.0336958
7422,Darlene Circle,90623,33.8547056,-118.0342510
7432,Darlene Circle,90623,33.8546110,-118.0340919
5702,Conifer Drive,90623,33.8549225,-118.0338699
5672,Conifer Drive,90623,33.8549200,-118.0343965
5682,Conifer Drive,90623,33.8549180,-118.0342186
5692,Conifer Drive,90623,33.8549346,-118.0340470
6911,Marlin Circle,90623,33.8595953,-118.0338147
38,Centerpointe Drive,90623,33.8594751,-118.0320470
30,Centerpointe Drive,90623,33.8597069,-118.0328622
28,Centerpointe Drive,90623,33.8602757,-118.0327833
26,Centerpointe Drive,90623,33.8607539,-118.0327884
24,Centerpointe Drive,90623,33.8611946,-118.0328272
6892,Marlin Circle,90623,33.8607258,-118.0339585
6907,Marlin Circle,90623,33.8600188,-118.0348326
5572,Fresca Drive,90623,33.8613900,-118.0356521
6901,Marlin Circle,90623,33.8606615,-118.0362279
6940,Walker Street,90623,33.8594555,-118.0371095
5551,Orangethorpe Avenue,90623,33.8590262,-118.0360262
5511,Orangethorpe Avenue,90623,33.8591541,-118.0367928
5501,Orangethorpe Avenue,90623,33.8592526,-118.0371058
7361,Redwood Circle,90623,33.8555656,-118.0360274
5531,Conifer Drive,90623,33.8553247,-118.0368790
7341,Redwood Circle,90623,33.8558496,-118.0360086
7372,Aspen Circle,90623,33.8554316,-118.0362988
5521,Conifer Drive,90623,33.8553362,-118.0370408
7351,Redwood Circle,90623,33.8557075,-118.0360237
7371,Redwood Circle,90623,33.8554235,-118.0360033
7381,Redwood Circle,90623,33.8552844,-118.0360180
7382,Aspen Circle,90623,33.8552923,-118.0362972
5541,Conifer Drive,90623,33.8553300,-118.0367136
7331,Redwood Circle,90623,33.8559884,-118.0360136
7312,Redwood Circle,90623,33.8563458,-118.0355546
7321,Redwood Circle,90623,33.8561505,-118.0360391
7302,Redwood Circle,90623,33.8564063,-118.0357873
7311,Redwood Circle,90623,33.8563778,-118.0359940
7322,Redwood Circle,90623,33.8561576,-118.0355180
7342,Redwood Circle,90623,33.8558502,-118.0355355
7352,Redwood Circle,90623,33.8557113,-118.0355522
7362,Redwood Circle,90623,33.8555682,-118.0355421
7372,Redwood Circle,90623,33.8554290,-118.0355580
7382,Redwood Circle,90623,33.8552851,-118.0355301
7332,Redwood Circle,90623,33.8559926,-118.0355604
7321,Douglas Circle,90623,33.8561623,-118.0352900
7371,Douglas Circle,90623,33.8554312,-118.0352490
7351,Douglas Circle,90623,33.8557134,-118.0352694
7331,Douglas Circle,90623,33.8559945,-118.0352542
7381,Douglas Circle,90623,33.8552871,-118.0352477
7341,Douglas Circle,90623,33.8558556,-118.0352521
7361,Douglas Circle,90623,33.8555763,-118.0352515
7311,Douglas Circle,90623,33.8563779,-118.0352355
7301,Douglas Circle,90623,33.8564158,-118.0349985
7342,Douglas Circle,90623,33.8558617,-118.0347757
7372,Douglas Circle,90623,33.8554326,-118.0347998
7332,Douglas Circle,90623,33.8559990,-118.0347797
7322,Douglas Circle,90623,33.8561676,-118.0347614
7312,Douglas Circle,90623,33.8563690,-118.0347871
7352,Douglas Circle,90623,33.8557163,-118.0347960
7362,Douglas Circle,90623,33.8555787,-118.0347746
7382,Douglas Circle,90623,33.8552910,-118.0347708
7311,Spruce Circle,90623,33.8563758,-118.0344814
7341,Spruce Circle,90623,33.8558622,-118.0345085
7351,Spruce Circle,90623,33.8557167,-118.0344803
7371,Spruce Circle,90623,33.8554357,-118.0345006
7381,Spruce Circle,90623,33.8552976,-118.0344726
7321,Spruce Circle,90623,33.8561726,-118.0345284
7331,Spruce Circle,90623,33.8560017,-118.0344957
7361,Spruce Circle,90623,33.8555785,-118.0344904
5522,Conifer Drive,90623,33.8549042,-118.0370090
5542,Conifer Drive,90623,33.8549044,-118.0366635
5592,Conifer Drive,90623,33.8549111,-118.0357892
5582,Conifer Drive,90623,33.8549298,-118.0359671
5532,Conifer Drive,90623,33.8549059,-118.0368370
5572,Conifer Drive,90623,33.8549283,-118.0361451
5562,Conifer Drive,90623,33.8549113,-118.0363167
5552,Conifer Drive,90623,33.8549089,-118.0364874
5632,Conifer Drive,90623,33.8549108,-118.0350952
5602,Conifer Drive,90623,33.8549164,-118.0356166
5612,Conifer Drive,90623,33.8549096,-118.0354410
5662,Conifer Drive,90623,33.8549263,-118.0345705
5622,Conifer Drive,90623,33.8549211,-118.0352677
5642,Conifer Drive,90623,33.8549093,-118.0349183
5652,Conifer Drive,90623,33.8549135,-118.0347466
7432,Susan Circle,90623,33.8546014,-118.0366059
7422,Susan Circle,90623,33.8546901,-118.0367798
7431,Susan Circle,90623,33.8546144,-118.0371370
7421,Susan Circle,90623,33.8546923,-118.0369649
7442,Susan Circle,90623,33.8544281,-118.0365913
7432,Warren Circle,90623,33.8545978,-118.0357757
7422,Warren Circle,90623,33.8546977,-118.0359371
7431,Warren Circle,90623,33.8546067,-118.0362985
7421,Warren Circle,90623,33.8546840,-118.0361160
7441,Warren Circle,90623,33.8544312,-118.0363208
7442,Puerto Rico Drive,90623,33.8544378,-118.0348914
7422,Puerto Rico Drive,90623,33.8546890,-118.0350952
7432,Puerto Rico Drive,90623,33.8546069,-118.0349322
7421,Puerto Rico Drive,90623,33.8546875,-118.0352743
7431,Puerto Rico Drive,90623,33.8546006,-118.0354320
7441,Puerto Rico Drive,90623,33.8544332,-118.0354857
7442,Warren Circle,90623,33.8544368,-118.0357470
7431,Darlene Circle,90623,33.8545950,-118.0345979
7421,Darlene Circle,90623,33.8547042,-118.0344329
7441,Darlene Circle,90623,33.8544414,-118.0346333
7461,Susan Circle,90623,33.8541464,-118.0371006
7452,Susan Circle,90623,33.8542890,-118.0366349
7451,Susan Circle,90623,33.8542864,-118.0371048
7462,Susan Circle,90623,33.8541543,-118.0366130
7452,Warren Circle,90623,33.8542955,-118.0358052
7461,Puerto Rico Drive,90623,33.8541619,-118.0354168
7451,Warren Circle,90623,33.8542930,-118.0362368
7462,Warren Circle,90623,33.8541562,-118.0357676
7451,Puerto Rico Drive,90623,33.8542974,-118.0354028
7461,Warren Circle,90623,33.8541575,-118.0362679
7452,Puerto Rico Drive,90623,33.8543000,-118.0349636
7462,Puerto Rico Drive,90623,33.8541644,-118.0349423
7461,Darlene Circle,90623,33.8541636,-118.0345785
7451,Darlene Circle,90623,33.8542997,-118.0345770
5662,Oak Drive,90623,33.8538303,-118.0344444
5632,Oak Drive,90623,33.8538268,-118.0349409
5622,Oak Drive,90623,33.8538032,-118.0351035
5652,Oak Drive,90623,33.8538211,-118.0346096
5642,Oak Drive,90623,33.8538237,-118.0347748
5552,Oak Drive,90623,33.8537944,-118.0363367
5582,Oak Drive,90623,33.8538156,-118.0358140
5592,Oak Drive,90623,33.8538065,-118.0356403
5602,Oak Drive,90623,33.8537877,-118.0354716
5572,Oak Drive,90623,33.8538139,-118.0359859
5562,Oak Drive,90623,33.8538038,-118.0361561
5542,Oak Drive,90623,33.8537887,-118.0365058
5532,Oak Drive,90623,33.8538174,-118.0366729
5512,Oak Drive,90623,33.8538037,-118.0370131
5522,Oak Drive,90623,33.8538088,-118.0368416
5522,Thelma Avenue,90623,33.8505935,-118.0367553
5512,Thelma Avenue,90623,33.8505865,-118.0369179
5572,Thelma Avenue,90623,33.8506028,-118.0360563
5502,Thelma Avenue,90623,33.8506082,-118.0371043
5532,Thelma Avenue,90623,33.8505967,-118.0365696
5542,Thelma Avenue,90623,33.8506076,-118.0363943
5562,Thelma Avenue,90623,33.8505978,-118.0362191
5682,Thelma Avenue,90623,33.8506025,-118.0344573
5652,Thelma Avenue,90623,33.8506162,-118.0346241
5602,Thelma Avenue,90623,33.8505956,-118.0355234
5632,Thelma Avenue,90623,33.8505968,-118.0349884
5592,Thelma Avenue,90623,33.8505901,-118.0356972
5622,Thelma Avenue,90623,33.8506002,-118.0351644
5582,Thelma Avenue,90623,33.8505992,-118.0358715
5612,Thelma Avenue,90623,33.8506153,-118.0353529
5642,Thelma Avenue,90623,33.8505969,-118.0348004
7752,Bouma Circle,90623,33.8499220,-118.0352816
5582,Byrne Drive,90623,33.8497141,-118.0357160
5562,Byrne Drive,90623,33.8496830,-118.0360419
5572,Byrne Drive,90623,33.8496986,-118.0358792
5552,Byrne Drive,90623,33.8497127,-118.0362074
5542,Byrne Drive,90623,33.8497144,-118.0363703
5522,Byrne Drive,90623,33.8496920,-118.0367183
5532,Byrne Drive,90623,33.8497072,-118.0365518
5502,Byrne Drive,90623,33.8496903,-118.0370638
5512,Byrne Drive,90623,33.8497112,-118.0369003
7801,Bouma Circle,90623,33.8492379,-118.0357970
7841,Bouma Circle,90623,33.8486873,-118.0357609
7781,Bouma Circle,90623,33.8495143,-118.0357724
7821,Bouma Circle,90623,33.8489610,-118.0357435
7791,Bouma Circle,90623,33.8493726,-118.0357619
7831,Bouma Circle,90623,33.8488236,-118.0357661
7811,Bouma Circle,90623,33.8490982,-118.0357663
7851,Bouma Circle,90623,33.8485288,-118.0358059
7872,Bouma Circle,90623,33.8482943,-118.0355153
7842,Bouma Circle,90623,33.8486817,-118.0352705
7862,Bouma Circle,90623,33.8483432,-118.0353088
7861,Bouma Circle,90623,33.8483329,-118.0357346
7852,Bouma Circle,90623,33.8485292,-118.0352176
7822,Bouma Circle,90623,33.8489548,-118.0353014
7772,Bouma Circle,90623,33.8496423,-118.0352794
7782,Bouma Circle,90623,33.8495013,-118.0352900
7792,Bouma Circle,90623,33.8493670,-118.0352816
7802,Bouma Circle,90623,33.8492276,-118.0352928
7762,Bouma Circle,90623,33.8497824,-118.0352971
7812,Bouma Circle,90623,33.8490946,-118.0352882
7832,Bouma Circle,90623,33.8488176,-118.0352857
7892,Lemonwood Circle,90623,33.8481168,-118.0347323
7912,Lemonwood Circle,90623,33.8478148,-118.0347154
7922,Lemonwood Circle,90623,33.8476785,-118.0347062
7902,Lemonwood Circle,90623,33.8479667,-118.0347026
5591,Maplewood Avenue,90623,33.8477593,-118.0354962
7901,Lemonwood Circle,90623,33.8479764,-118.0353214
5601,Maplewood Avenue,90623,33.8477749,-118.0353060
5571,Maplewood Avenue,90623,33.8477518,-118.0358595
7891,Lemonwood Circle,90623,33.8481134,-118.0353134
5581,Maplewood Avenue,90623,33.8477593,-118.0356790
5611,Maplewood Avenue,90623,33.8477576,-118.0351257
7902,Birchwood Circle,90623,33.8479684,-118.0357106
7892,Birchwood Circle,90623,33.8481081,-118.0356565
7921,Birchwood Circle,90623,33.8476439,-118.0362696
7911,Birchwood Circle,90623,33.8477952,-118.0362747
7881,Birchwood Circle,90623,33.8483387,-118.0361834
7891,Birchwood Circle,90623,33.8481479,-118.0363163
7901,Birchwood Circle,90623,33.8479599,-118.0362974
7871,Birchwood Circle,90623,33.8483462,-118.0360035
7972,Lemonwood Circle,90623,33.8469283,-118.0346492
7962,Lemonwood Circle,90623,33.8471000,-118.0346957
5592,Driftwood Avenue,90623,33.8466663,-118.0353805
5622,Driftwood Avenue,90623,33.8466360,-118.0348523
7942,Lemonwood Circle,90623,33.8473888,-118.0347011
5602,Driftwood Avenue,90623,33.8466759,-118.0352161
5612,Driftwood Avenue,90623,33.8466527,-118.0350503
7952,Lemonwood Circle,90623,33.8472387,-118.0346991
7982,Lemonwood Circle,90623,33.8467348,-118.0346653
7932,Lemonwood Circle,90623,33.8475427,-118.0346992
5572,Maplewood Avenue,90623,33.8473734,-118.0358540
5612,Maplewood Avenue,90623,33.8473666,-118.0351117
5582,Maplewood Avenue,90623,33.8473714,-118.0356716
5592,Maplewood Avenue,90623,33.8473784,-118.0354923
5602,Maplewood Avenue,90623,33.8473769,-118.0352946
5591,Driftwood Avenue,90623,33.8470891,-118.0354853
5581,Driftwood Avenue,90623,33.8470809,-118.0356648
5611,Driftwood Avenue,90623,33.8470860,-118.0351060
5601,Driftwood Avenue,90623,33.8470993,-118.0352870
5571,Driftwood Avenue,90623,33.8470755,-118.0358464
7961,Birchwood Circle,90623,33.8470663,-118.0362662
5552,Driftwood Avenue,90623,33.8466405,-118.0360961
5572,Driftwood Avenue,90623,33.8466510,-118.0357432
7931,Birchwood Circle,90623,33.8475064,-118.0362823
7951,Birchwood Circle,90623,33.8472036,-118.0362607
7971,Birchwood Circle,90623,33.8469230,-118.0362838
7981,Birchwood Circle,90623,33.8467415,-118.0362687
7941,Birchwood Circle,90623,33.8473570,-118.0362652
5562,Driftwood Avenue,90623,33.8466381,-118.0359076
8011,Woodglen Circle,90623,33.8458545,-118.0349150
8041,Woodglen Circle,90623,33.8454459,-118.0348800
8021,Woodglen Circle,90623,33.8457190,-118.0348926
8003,Woodglen Circle,90623,33.8461194,-118.0347613
8031,Woodglen Circle,90623,33.8455839,-118.0348714
8002,Woodglen Circle,90623,33.8461069,-118.0345288
8005,Woodglen Circle,90623,33.8460533,-118.0348987
8012,Yorktown Place,90623,33.8457665,-118.0355471
5601,Pineridge Drive,90623,33.8454934,-118.0353006
8011,Yorktown Place,90623,33.8457607,-118.0358412
8021,Yorktown Place,90623,33.8457431,-118.0356943
8022,Crest Circle,90623,33.8457918,-118.0353602
5611,Pineridge Drive,90623,33.8454944,-118.0351327
8002,Yorktown Place,90623,33.8461029,-118.0355656
5532,La Palma Avenue,90623,33.8460674,-118.0363052
5612,Crest Circle,90623,33.8460425,-118.0352520
5510,La Palma Avenue,90623,33.8459864,-118.0368167
8001,Yorktown Place,90623,33.8461017,-118.0358315
5531,Pineridge Drive,90623,33.8455803,-118.0364751
5521,Pineridge Drive,90623,33.8456489,-118.0366584
5541,Pineridge Drive,90623,33.8455346,-118.0363119
5501,Pineridge Drive,90623,33.8456544,-118.0369946
5511,Pineridge Drive,90623,33.8456593,-118.0368314
5561,Pineridge Drive,90623,33.8455025,-118.0359818
5551,Pineridge Drive,90623,33.8455009,-118.0361451
5571,Pineridge Drive,90623,33.8454888,-118.0358161
5581,Pineridge Drive,90623,33.8454898,-118.0356427
8092,Walker Street,90623,33.8446957,-118.0364043
5582,Pineridge Drive,90623,33.8450630,-118.0356472
5592,Pineridge Drive,90623,33.8450566,-118.0354677
5602,Pineridge Drive,90623,33.8450662,-118.0353032
5572,Pineridge Drive,90623,33.8450664,-118.0358106
8091,Woodglen Circle,90623,33.8446662,-118.0348104
5652,Vinevale Circle,90623,33.8446678,-118.0344369
5642,Vinevale Circle,90623,33.8446616,-118.0346457
8081,Woodglen Circle,90623,33.8448578,-118.0349101
5612,Pineridge Drive,90623,33.8450750,-118.0351311
8061,Woodglen Circle,90623,33.8451408,-118.0348965
8071,Woodglen Circle,90623,33.8450059,-118.0349156
8380,Walker Street,90623,33.8405532,-118.0356037
8374,Walker Street,90623,33.8405462,-118.0365168
8376,Walker Street,90623,33.8405482,-118.0362127
8372,Walker Street,90623,33.8405452,-118.0368204
8378,Walker Street,90623,33.8405507,-118.0359079
8386,Walker Street,90623,33.8403892,-118.0362114
8390,Walker Street,90623,33.8403939,-118.0356015
8384,Walker Street,90623,33.8403862,-118.0365156
8388,Walker Street,90623,33.8403925,-118.0359066
8382,Walker Street,90623,33.8403829,-118.0368209
8400,Walker Street,90623,33.8402618,-118.0355532
8396,Walker Street,90623,33.8402676,-118.0361386
8398,Walker Street,90623,33.8402704,-118.0358347
8402,Walker Street,90623,33.8402640,-118.0352962
8392,Walker Street,90623,33.8402442,-118.0367988
8394,Walker Street,90623,33.8402640,-118.0364440
8406,Walker Street,90623,33.8400060,-118.0365105
8414,Walker Street,90623,33.8400173,-118.0352780
8404,Walker Street,90623,33.8400038,-118.0368144
8408,Walker Street,90623,33.8400084,-118.0362057
8412,Walker Street,90623,33.8400147,-118.0355964
8410,Walker Street,90623,33.8400113,-118.0359012
5516,Matalon Lane,90630,33.8397489,-118.0367501
5572,Matalon Lane,90630,33.8398290,-118.0361992
8442,Kington Way,90630,33.8395593,-118.0351991
8451,Kington Way,90630,33.8395227,-118.0354983
8442,Walker Street,90623,33.8394279,-118.0366145
8460,Walker Street,90623,33.8393544,-118.0368644
5567,Crescent Avenue,90630,33.8392986,-118.0361439
5555,Crescent Avenue,90630,33.8394775,-118.0363974
5559,Crescent Avenue,90630,33.8396606,-118.0361522
5551,Crescent Avenue,90630,33.8392973,-118.0363938
5565,Crescent Avenue,90630,33.8394800,-118.0361465
5581,Crescent Avenue,90630,33.8394135,-118.0357094
5482,La Luna Drive,90623,33.8435753,-118.0376054
5472,La Luna Drive,90623,33.8435666,-118.0377928
5432,La Luna Drive,90623,33.8435670,-118.0384529
5462,La Luna Drive,90623,33.8435541,-118.0379513
5492,La Luna Drive,90623,33.8435519,-118.0374450
5452,La Luna Drive,90623,33.8435735,-118.0381239
5442,La Luna Drive,90623,33.8435707,-118.0382829
5362,La Luna Drive,90623,33.8435335,-118.0396293
5352,La Luna Drive,90623,33.8435437,-118.0397996
5392,La Luna Drive,90623,33.8435523,-118.0391268
5402,La Luna Drive,90623,33.8435546,-118.0389526
5422,La Luna Drive,90623,33.8435414,-118.0386096
5372,La Luna Drive,90623,33.8435721,-118.0394705
5412,La Luna Drive,90623,33.8435631,-118.0387958
5382,La Luna Drive,90623,33.8435451,-118.0393002
5401,La Luna Drive,90623,33.8439752,-118.0389666
5381,La Luna Drive,90623,33.8439841,-118.0392951
5371,La Luna Drive,90623,33.8439902,-118.0394763
5411,La Luna Drive,90623,33.8439916,-118.0387995
5351,La Luna Drive,90623,33.8439932,-118.0398054
5391,La Luna Drive,90623,33.8439951,-118.0391284
5361,La Luna Drive,90623,33.8439986,-118.0396397
5451,La Luna Drive,90623,33.8440003,-118.0381271
5461,La Luna Drive,90623,33.8440029,-118.0379541
5431,La Luna Drive,90623,33.8439965,-118.0384708
5421,La Luna Drive,90623,33.8439748,-118.0386288
5441,La Luna Drive,90623,33.8440061,-118.0382877
5481,La Luna Drive,90623,33.8440185,-118.0376076
5491,La Luna Drive,90623,33.8440451,-118.0374525
5471,La Luna Drive,90623,33.8440167,-118.0377908
5382,Verner Drive,90623,33.8444291,-118.0391978
5372,Verner Drive,90623,33.8444345,-118.0393679
5362,Verner Drive,90623,33.8444479,-118.0395489
5352,Verner Drive,90623,33.8444321,-118.0397169
5392,Verner Drive,90623,33.8444394,-118.0390219
5342,Verner Drive,90623,33.8444375,-118.0398962
5402,Verner Drive,90623,33.8444434,-118.0388535
5412,Verner Drive,90623,33.8444855,-118.0386774
8071,de Vries Lane,90623,33.8451067,-118.0397685
8061,de Vries Lane,90623,33.8452546,-118.0397778
8091,de Vries Lane,90623,33.8448129,-118.0397651
8081,de Vries Lane,90623,33.8449605,-118.0397693
8082,de Vries Lane,90623,33.8449641,-118.0392803
8092,de Vries Lane,90623,33.8448178,-118.0392672
8062,de Vries Lane,90623,33.8452545,-118.0392685
8072,de Vries Lane,90623,33.8451122,-118.0392832
5391,Verner Drive,90623,33.8449688,-118.0390250
5411,Verner Drive,90623,33.8449828,-118.0386850
5401,Verner Drive,90623,33.8449911,-118.0388563
8001,de Vries Lane,90623,33.8461277,-118.0397852
8011,de Vries Lane,90623,33.8459791,-118.0397919
8051,de Vries Lane,90623,33.8453991,-118.0397810
8041,de Vries Lane,90623,33.8455411,-118.0397658
8031,de Vries Lane,90623,33.8456892,-118.0397681
8021,de Vries Lane,90623,33.8458331,-118.0397840
8052,de Vries Lane,90623,33.8453997,-118.0392762
8012,de Vries Lane,90623,33.8459851,-118.0392639
8002,de Vries Lane,90623,33.8461278,-118.0392867
8032,de Vries Lane,90623,33.8456938,-118.0392907
8042,de Vries Lane,90623,33.8455448,-118.0392729
8022,de Vries Lane,90623,33.8458360,-118.0392754
5451,La Palma Avenue,90623,33.8471569,-118.0389139
5482,La Palma Avenue,90623,33.8459924,-118.0376534
5362,Bridgewood Drive,90623,33.8478758,-118.0395334
5342,Bridgewood Drive,90623,33.8478972,-118.0398936
5352,Bridgewood Drive,90623,33.8478961,-118.0397157
5352,Duke Drive,90623,33.8486660,-118.0397698
5351,Bridgewood Drive,90623,33.8482844,-118.0396937
5341,Bridgewood Drive,90623,33.8482994,-118.0398750
5351,Duke Drive,90623,33.8491024,-118.0398660
5361,Duke Drive,90623,33.8490734,-118.0397029
5362,Polis Drive,90623,33.8494010,-118.0397071
5352,Polis Drive,90623,33.8494006,-118.0398701
5351,Polis Drive,90623,33.8498201,-118.0398826
5361,Polis Drive,90623,33.8498052,-118.0397191
5472,Pembury Drive,90623,33.8505927,-118.0377299
5422,Pembury Drive,90623,33.8506046,-118.0385545
5432,Pembury Drive,90623,33.8505863,-118.0383880
5462,Pembury Drive,90623,33.8506072,-118.0378951
5452,Pembury Drive,90623,33.8506018,-118.0380601
5482,Pembury Drive,90623,33.8506138,-118.0375653
5442,Pembury Drive,90623,33.8506001,-118.0382257
5382,Pembury Drive,90623,33.8505860,-118.0392629
5392,Pembury Drive,90623,33.8506004,-118.0390843
5352,Pembury Drive,90623,33.8505677,-118.0397943
5402,Pembury Drive,90623,33.8505980,-118.0389064
5362,Pembury Drive,90623,33.8505862,-118.0396129
5372,Pembury Drive,90623,33.8505959,-118.0394373
5412,Pembury Drive,90623,33.8506126,-118.0387257
5381,Pembury Drive,90623,33.8509699,-118.0392581
5401,Pembury Drive,90623,33.8509918,-118.0388967
5371,Pembury Drive,90623,33.8509805,-118.0394345
5351,Pembury Drive,90623,33.8509817,-118.0397907
5391,Pembury Drive,90623,33.8509917,-118.0390781
5361,Pembury Drive,90623,33.8509719,-118.0396123
5352,Marview Drive,90623,33.8512696,-118.0397965
5402,Marview Drive,90623,33.8512754,-118.0389003
5382,Marview Drive,90623,33.8512886,-118.0392617
5392,Marview Drive,90623,33.8512640,-118.0390807
5372,Marview Drive,90623,33.8512853,-118.0394385
5362,Marview Drive,90623,33.8512615,-118.0396145
5411,Marview Drive,90623,33.8516769,-118.0388456
5401,Marview Drive,90623,33.8516590,-118.0390248
5361,Marview Drive,90623,33.8516502,-118.0397339
5371,Marview Drive,90623,33.8516597,-118.0395574
5391,Marview Drive,90623,33.8516571,-118.0392039
5381,Marview Drive,90623,33.8516731,-118.0393792
5421,Marview Drive,90623,33.8516842,-118.0386683
5481,Marview Drive,90623,33.8516980,-118.0375854
5461,Marview Drive,90623,33.8516624,-118.0379521
5451,Marview Drive,90623,33.8516706,-118.0381343
5431,Marview Drive,90623,33.8516803,-118.0384900
5441,Marview Drive,90623,33.8516687,-118.0383140
5471,Marview Drive,90623,33.8516873,-118.0377796
5482,Marview Drive,90623,33.8512919,-118.0375945
5472,Marview Drive,90623,33.8512985,-118.0377734
5452,Marview Drive,90623,33.8512784,-118.0381421
5442,Marview Drive,90623,33.8512772,-118.0383317
5462,Marview Drive,90623,33.8512819,-118.0379655
5432,Marview Drive,90623,33.8512785,-118.0385181
5441,Pembury Drive,90623,33.8509926,-118.0382044
5481,Pembury Drive,90623,33.8510255,-118.0375966
5451,Pembury Drive,90623,33.8510001,-118.0380406
5431,Pembury Drive,90623,33.8509885,-118.0383695
5421,Pembury Drive,90623,33.8509919,-118.0385358
5461,Pembury Drive,90623,33.8510227,-118.0378753
5368,Andrew Drive,90623,33.8519521,-118.0397742
5448,Andrew Drive,90623,33.8519748,-118.0384499
5408,Andrew Drive,90623,33.8519515,-118.0391025
5418,Andrew Drive,90623,33.8519730,-118.0389385
5438,Andrew Drive,90623,33.8519643,-118.0386089
5398,Andrew Drive,90623,33.8519466,-118.0392721
5378,Andrew Drive,90623,33.8519446,-118.0396054
5388,Andrew Drive,90623,33.8519499,-118.0394338
5428,Andrew Drive,90623,33.8519525,-118.0387766
5498,Dirk Circle,90623,33.8527147,-118.0381187
5518,Dirk Circle,90623,33.8524417,-118.0381431
5508,Dirk Circle,90623,33.8525802,-118.0381167
5479,Dirk Circle,90623,33.8530533,-118.0377820
5489,Dirk Circle,90623,33.8529589,-118.0376670
5509,Dirk Circle,90623,33.8525932,-118.0376709
5519,Dirk Circle,90623,33.8524577,-118.0376352
5499,Dirk Circle,90623,33.8527527,-118.0376496
5469,Dirk Circle,90623,33.8530602,-118.0380564
5459,Dirk Circle,90623,33.8530593,-118.0382222
5439,Dirk Circle,90623,33.8530499,-118.0385771
5419,Dirk Circle,90623,33.8530428,-118.0389469
5429,Dirk Circle,90623,33.8530451,-118.0387832
5449,Dirk Circle,90623,33.8530408,-118.0384150
5438,Houston Avenue,90623,33.8532979,-118.0385880
5428,Houston Avenue,90623,33.8533435,-118.0387867
5458,Houston Avenue,90623,33.8533110,-118.0382364
5448,Houston Avenue,90623,33.8533208,-118.0384131
5418,Houston Avenue,90623,33.8533157,-118.0389474
5468,Houston Avenue,90623,33.8533251,-118.0380798
5498,Houston Avenue,90623,33.8533297,-118.0376083
5478,Houston Avenue,90623,33.8533241,-118.0379234
5488,Houston Avenue,90623,33.8533196,-118.0377670
7381,Dallas Drive,90623,33.8543538,-118.0376969
7492,Dallas Drive,90623,33.8538596,-118.0382793
7361,Dallas Drive,90623,33.8539918,-118.0376912
7341,Dallas Drive,90623,33.8539143,-118.0380300
7482,Dallas Drive,90623,33.8539976,-118.0382762
7462,Dallas Drive,90623,33.8542003,-118.0381834
7371,Dallas Drive,90623,33.8542180,-118.0376667
7351,Dallas Drive,90623,33.8539100,-118.0378019
7472,Dallas Drive,90623,33.8541973,-118.0383446
7461,Dallas Drive,90623,33.8542840,-118.0387607
7481,Dallas Drive,90623,33.8539943,-118.0387626
7471,Dallas Drive,90623,33.8541473,-118.0387572
7451,Dallas Drive,90623,33.8544749,-118.0387714
7491,Dallas Drive,90623,33.8538573,-118.0387439
5381,Athens Circle,90623,33.8542839,-118.0393796
7302,Tiara Lane,90623,33.8544799,-118.0397032
5361,Athens Circle,90623,33.8542933,-118.0397406
5391,Athens Circle,90623,33.8543014,-118.0392106
5411,Athens Circle,90623,33.8542993,-118.0390053
5371,Athens Circle,90623,33.8542822,-118.0395619
5372,Athens Circle,90623,33.8539090,-118.0395597
5392,Athens Circle,90623,33.8538814,-118.0392006
5362,Athens Circle,90623,33.8538913,-118.0397291
5412,Athens Circle,90623,33.8539112,-118.0390030
5382,Athens Circle,90623,33.8539057,-118.0393728
7525,Kevin Lane,90623,33.8530746,-118.0393768
7505,Kevin Lane,90623,33.8533505,-118.0394021
5366,Houston Avenue,90623,33.8533353,-118.0398296
7537,Kevin Lane,90623,33.8529370,-118.0393887
7515,Kevin Lane,90623,33.8532114,-118.0394057
5374,Houston Avenue,90623,33.8533197,-118.0396640
7559,Kevin Lane,90623,33.8526345,-118.0393974
7563,Kevin Lane,90623,33.8524568,-118.0393682
7545,Kevin Lane,90623,33.8527702,-118.0393701
7575,Kevin Lane,90623,33.8523234,-118.0393866
5368,Achilles Circle,90623,33.8526324,-118.0397230
5367,Andrew Drive,90623,33.8523614,-118.0398116
5377,Andrew Drive,90623,33.8523457,-118.0396468
5371,Achilles Circle,90623,33.8528352,-118.0396928
5369,Achilles Circle,90623,33.8530255,-118.0397376
5418,Dirk Circle,90623,33.8526463,-118.0389277
5428,Dirk Circle,90623,33.8526438,-118.0387649
5448,Dirk Circle,90623,33.8526478,-118.0384073
5438,Dirk Circle,90623,33.8526391,-118.0385682
5449,Andrew Drive,90623,33.8523833,-118.0384439
5419,Andrew Drive,90623,33.8523625,-118.0389387
5429,Andrew Drive,90623,33.8523822,-118.0387748
5439,Andrew Drive,90623,33.8523580,-118.0386063
7441,Dallas Drive,90623,33.8545831,-118.0386798
7401,Dallas Drive,90623,33.8546037,-118.0378839
7411,Dallas Drive,90623,33.8545907,-118.0381023
7391,Dallas Drive,90623,33.8545679,-118.0377416
7431,Dallas Drive,90623,33.8545959,-118.0384347
7421,Dallas Drive,90623,33.8545821,-118.0382723
5462,Festival Circle,90623,33.8548513,-118.0381891
5472,Festival Circle,90623,33.8548466,-118.0380141
5492,Festival Circle,90623,33.8548395,-118.0376684
5452,Festival Circle,90623,33.8548561,-118.0383641
5482,Festival Circle,90623,33.8548281,-118.0378456
7291,Diamond Circle,90623,33.8545721,-118.0394639
5432,Festival Circle,90623,33.8548404,-118.0387124
5422,Festival Circle,90623,33.8548500,-118.0388832
7292,Diamond Circle,90623,33.8546154,-118.0390717
7302,Diamond Circle,90623,33.8545330,-118.0392720
5442,Festival Circle,90623,33.8548563,-118.0385406
5412,Festival Circle,90623,33.8548373,-118.0390589
7292,Tiara Lane,90623,33.8546282,-118.0396956
5381,Festival Circle,90623,33.8552319,-118.0394149
5361,Festival Circle,90623,33.8552310,-118.0397672
5371,Festival Circle,90623,33.8552490,-118.0395929
5362,Festival Circle,90623,33.8548399,-118.0397635
5391,Festival Circle,90623,33.8552297,-118.0392446
5372,Festival Circle,90623,33.8548404,-118.0395783
5461,Festival Circle,90623,33.8552364,-118.0381957
5421,Festival Circle,90623,33.8552461,-118.0388985
5451,Festival Circle,90623,33.8552509,-118.0383698
5431,Festival Circle,90623,33.8552331,-118.0387127
5411,Festival Circle,90623,33.8552303,-118.0390740
5441,Festival Circle,90623,33.8552373,-118.0385414
5481,Festival Circle,90623,33.8552595,-118.0378527
5511,Conifer Drive,90623,33.8553303,-118.0372167
5491,Festival Circle,90623,33.8552387,-118.0376606
5471,Festival Circle,90623,33.8552509,-118.0380206
5512,Conifer Drive,90623,33.8549041,-118.0371966
5482,Montclair Circle,90623,33.8554776,-118.0378594
5472,Montclair Circle,90623,33.8554936,-118.0380277
5452,Montclair Circle,90623,33.8554854,-118.0383766
5442,Montclair Circle,90623,33.8554901,-118.0385499
5492,Montclair Circle,90623,33.8554951,-118.0376660
5512,Fir Circle,90623,33.8558016,-118.0372075
5462,Montclair Circle,90623,33.8554867,-118.0381980
5432,Montclair Circle,90623,33.8554878,-118.0387298
5522,Fir Circle,90623,33.8556064,-118.0371396
5382,Montclair Circle,90623,33.8554922,-118.0394211
5372,Montclair Circle,90623,33.8554797,-118.0395941
5392,Montclair Circle,90623,33.8554849,-118.0392480
5422,Montclair Circle,90623,33.8555008,-118.0389037
5362,Montclair Circle,90623,33.8554933,-118.0397714
5412,Montclair Circle,90623,33.8555051,-118.0390674
5411,Montclair Circle,90623,33.8558853,-118.0390852
5431,Montclair Circle,90623,33.8558841,-118.0387387
5381,Montclair Circle,90623,33.8558752,-118.0394330
5371,Montclair Circle,90623,33.8558776,-118.0396035
5391,Montclair Circle,90623,33.8558988,-118.0392605
5421,Montclair Circle,90623,33.8558805,-118.0389145
5361,Montclair Circle,90623,33.8558743,-118.0397791
5471,Montclair Circle,90623,33.8558918,-118.0380431
5441,Montclair Circle,90623,33.8558842,-118.0385611
5451,Montclair Circle,90623,33.8558925,-118.0383911
5481,Montclair Circle,90623,33.8559271,-118.0378732
5491,Montclair Circle,90623,33.8558953,-118.0376809
5461,Montclair Circle,90623,33.8559005,-118.0382178
5482,Bransford Drive,90623,33.8561544,-118.0378696
5472,Bransford Drive,90623,33.8561417,-118.0380339
5452,Bransford Drive,90623,33.8561286,-118.0383814
5492,Bransford Drive,90623,33.8561411,-118.0376900
5462,Bransford Drive,90623,33.8561293,-118.0382072
5432,Bransford Drive,90623,33.8561632,-118.0387268
5442,Bransford Drive,90623,33.8561540,-118.0385618
7141,Caprice Circle,90623,33.8567849,-118.0394409
5382,Bransford Drive,90623,33.8561548,-118.0394377
5412,Bransford Drive,90623,33.8561563,-118.0389158
7182,Tiara Lane,90623,33.8561428,-118.0397810
7162,Tiara Lane,90623,33.8564912,-118.0397596
7151,Caprice Circle,90623,33.8566373,-118.0394384
7161,Caprice Circle,90623,33.8564966,-118.0394663
5402,Bransford Drive,90623,33.8561302,-118.0390860
5372,Bransford Drive,90623,33.8561413,-118.0396158
7142,Tiara Lane,90623,33.8567749,-118.0397807
5392,Bransford Drive,90623,33.8561492,-118.0392646
7152,Tiara Lane,90623,33.8566316,-118.0397702
7151,Bon Villa Circle,90623,33.8566462,-118.0386967
5411,Bransford Drive,90623,33.8564939,-118.0389811
7142,Caprice Circle,90623,33.8567846,-118.0390019
7161,Bon Villa Circle,90623,33.8565033,-118.0386740
7152,Caprice Circle,90623,33.8566362,-118.0389776
7152,Bon Villa Circle,90623,33.8566416,-118.0382029
7151,Walker Street,90623,33.8566491,-118.0378912
7161,Walker Street,90623,33.8565057,-118.0379129
5461,Bransford Drive,90623,33.8565005,-118.0382097
7121,Walker Street,90623,33.8571035,-118.0379545
7131,Walker Street,90623,33.8569478,-118.0378968
7141,Walker Street,90623,33.8567964,-118.0378748
7111,Walker Street,90623,33.8573505,-118.0378807
7112,Bon Villa Circle,90623,33.8572476,-118.0382044
7142,Bon Villa Circle,90623,33.8567913,-118.0382033
7122,Bon Villa Circle,90623,33.8570945,-118.0381996
7102,Bon Villa Circle,90623,33.8573198,-118.0383528
7101,Bon Villa Circle,90623,33.8573132,-118.0385624
7132,Bon Villa Circle,90623,33.8569299,-118.0381984
7121,Bon Villa Circle,90623,33.8570894,-118.0387334
7111,Bon Villa Circle,90623,33.8572629,-118.0387147
7131,Bon Villa Circle,90623,33.8569341,-118.0387124
7141,Bon Villa Circle,90623,33.8567893,-118.0386653
7112,Caprice Circle,90623,33.8572528,-118.0389926
7101,Caprice Circle,90623,33.8573155,-118.0393372
7131,Caprice Circle,90623,33.8569273,-118.0394725
7122,Caprice Circle,90623,33.8570911,-118.0389703
7102,Caprice Circle,90623,33.8573091,-118.0391475
7132,Caprice Circle,90623,33.8569267,-118.0389890
7121,Caprice Circle,90623,33.8570851,-118.0394998
7111,Caprice Circle,90623,33.8572553,-118.0394764
7112,Tiara Lane,90623,33.8572359,-118.0397497
7102,Tiara Lane,90623,33.8573076,-118.0399015
7132,Tiara Lane,90623,33.8569240,-118.0397732
7122,Tiara Lane,90623,33.8570748,-118.0397256
7061,Walker Street,90623,33.8575738,-118.0379106
7051,Walker Street,90623,33.8577994,-118.0381379
7051,Walker Street,90623,33.8577324,-118.0385357
5350,Orangethorpe Avenue,90623,33.8583514,-118.0400114
5350,Orangethorpe Avenue,90623,33.8576058,-118.0399961
5400,Orangethorpe Avenue,90623,33.8579871,-118.0392179
5400,Orangethorpe Avenue,90623,33.8579955,-118.0394065
5350,Orangethorpe Avenue,90623,33.8579838,-118.0398167
5350,Orangethorpe Avenue,90623,33.8584992,-118.0400157
5400,Orangethorpe Avenue,90623,33.8576094,-118.0393946
5400,Orangethorpe Avenue,90623,33.8579819,-118.0395955
5400,Orangethorpe Avenue,90623,33.8583549,-118.0394172
5400,Orangethorpe Avenue,90623,33.8585008,-118.0394225
6951,Walker Street,90623,33.8612481,-118.0384197
5471,Orangethorpe Avenue,90623,33.8591140,-118.0378843
6811,Walker Street,90623,33.8619177,-118.0379855
5555,Fresca Drive,90623,33.8620319,-118.0370215
6585,Montaire Place,90623,33.8658572,-118.0373325
6635,Montaire Place,90623,33.8650925,-118.0373162
6675,Montaire Place,90623,33.8644527,-118.0372463
6605,Montaire Place,90623,33.8655014,-118.0373595
6595,Montaire Place,90623,33.8656605,-118.0373464
6575,Montaire Place,90623,33.8658773,-118.0371440
6665,Montaire Place,90623,33.8646381,-118.0373037
6625,Montaire Place,90623,33.8652291,-118.0373181
6655,Montaire Place,90623,33.8648026,-118.0372966
6615,Montaire Place,90623,33.8653661,-118.0373308
7012,Somerset Circle,90623,33.8583437,-118.0405827
5350,Orangethorpe Avenue,90623,33.8579803,-118.0401933
7022,Somerset Circle,90623,33.8582058,-118.0405736
7032,Somerset Circle,90623,33.8580590,-118.0405849
5350,Orangethorpe Avenue,90623,33.8579915,-118.0400043
7002,Somerset Circle,90623,33.8584964,-118.0405537
7042,Somerset Circle,90623,33.8579175,-118.0405788
7072,Somerset Circle,90623,33.8574848,-118.0405852
7062,Somerset Circle,90623,33.8576336,-118.0405673
7052,Somerset Circle,90623,33.8577725,-118.0405789
7021,Coventry Circle,90623,33.8582028,-118.0417444
5301,Windermere Way,90623,33.8584394,-118.0409978
5281,Windermere Way,90623,33.8584398,-118.0413241
5291,Windermere Way,90623,33.8584434,-118.0411613
5271,Windermere Way,90623,33.8584510,-118.0414987
7011,Coventry Circle,90623,33.8583593,-118.0417039
7031,Coventry Circle,90623,33.8580637,-118.0417008
7041,Coventry Circle,90623,33.8579224,-118.0417139
7061,Coventry Circle,90623,33.8576261,-118.0417248
7051,Coventry Circle,90623,33.8577731,-118.0417026
7071,Coventry Circle,90623,33.8574751,-118.0417139
7032,Coventry Circle,90623,33.8580768,-118.0412142
7052,Coventry Circle,90623,33.8577887,-118.0412032
7071,Somerset Circle,90623,33.8574805,-118.0410871
5302,Windermere Way,90623,33.8580292,-118.0409950
7061,Somerset Circle,90623,33.8577676,-118.0409920
7062,Coventry Circle,90623,33.8576510,-118.0411969
7042,Coventry Circle,90623,33.8579411,-118.0412194
7151,Rampart Lane,90623,33.8584063,-118.0422128
7181,Rampart Lane,90623,33.8581431,-118.0426644
7171,Rampart Lane,90623,33.8582264,-118.0425366
7172,Rampart Lane,90623,33.8578642,-118.0422870
7162,Rampart Lane,90623,33.8579074,-118.0421219
7152,Rampart Lane,90623,33.8579706,-118.0420128
7142,Rampart Lane,90623,33.8583694,-118.0420161
7222,Bourbon Lane,90623,33.8575129,-118.0420416
7272,Bourbon Lane,90623,33.8568175,-118.0419936
7262,Bourbon Lane,90623,33.8569498,-118.0419983
7252,Bourbon Lane,90623,33.8570919,-118.0419882
7242,Bourbon Lane,90623,33.8572249,-118.0420035
7232,Bourbon Lane,90623,33.8573819,-118.0420150
7212,Bourbon Lane,90623,33.8576702,-118.0420795
7251,Bourbon Lane,90623,33.8571871,-118.0424919
7281,Bourbon Lane,90623,33.8567758,-118.0424862
7271,Bourbon Lane,90623,33.8569118,-118.0424927
7261,Bourbon Lane,90623,33.8570506,-118.0424926
7221,Bourbon Lane,90623,33.8574737,-118.0425590
7231,Bourbon Lane,90623,33.8573331,-118.0425121
7211,Bourbon Lane,90623,33.8576137,-118.0426151
7131,Tiara Lane,90623,33.8569188,-118.0402302
7141,Tiara Lane,90623,33.8567819,-118.0402086
7121,Tiara Lane,90623,33.8570663,-118.0402854
7111,Tiara Lane,90623,33.8572331,-118.0402521
7101,Tiara Lane,90623,33.8573102,-118.0401178
5321,Seville Circle,90623,33.8573018,-118.0406578
5291,Seville Circle,90623,33.8572890,-118.0411801
5281,Seville Circle,90623,33.8573001,-118.0413542
5331,Seville Circle,90623,33.8572722,-118.0404751
5311,Seville Circle,90623,33.8572817,-118.0408350
5301,Seville Circle,90623,33.8572945,-118.0410092
5271,Seville Circle,90623,33.8572901,-118.0415651
7121,La Paz Lane,90623,33.8569941,-118.0417159
7141,La Paz Lane,90623,33.8567021,-118.0416730
7111,La Paz Lane,90623,33.8571683,-118.0417053
7131,La Paz Lane,90623,33.8568531,-118.0416795
5312,Seville Circle,90623,33.8568635,-118.0408182
5322,Seville Circle,90623,33.8568075,-118.0406426
5332,Seville Circle,90623,33.8568571,-118.0404650
7122,La Paz Lane,90623,33.8569409,-118.0412222
7132,La Paz Lane,90623,33.8567953,-118.0412186
5302,Seville Circle,90623,33.8568985,-118.0409908
5211,Bransford Drive,90623,33.8562994,-118.0425716
7301,Bourbon Lane,90623,33.8565035,-118.0424767
7291,Bourbon Lane,90623,33.8566375,-118.0424800
5221,Bransford Drive,90623,33.8563193,-118.0424061
5221,Decatur Drive,90623,33.8556145,-118.0423984
5222,Bransford Drive,90623,33.8558911,-118.0424012
5211,Decatur Drive,90623,33.8556225,-118.0425584
5212,Bransford Drive,90623,33.8558958,-118.0425650
5222,Decatur Drive,90623,33.8552347,-118.0423885
5212,Decatur Drive,90623,33.8552254,-118.0425578
5211,Dumaine Drive,90623,33.8549499,-118.0425587
5221,Dumaine Drive,90623,33.8549473,-118.0423954
5222,Dumaine Drive,90623,33.8545647,-118.0423883
7422,Bourbon Lane,90623,33.8547287,-118.0419364
5212,Dumaine Drive,90623,33.8545605,-118.0425525
7432,Bourbon Lane,90623,33.8545875,-118.0419404
7442,Bourbon Lane,90623,33.8544547,-118.0419477
7412,Bourbon Lane,90623,33.8548636,-118.0419457
7362,Bourbon Lane,90623,33.8555517,-118.0419625
7342,Bourbon Lane,90623,33.8558261,-118.0419702
7382,Bourbon Lane,90623,33.8552743,-118.0419579
7392,Bourbon Lane,90623,33.8551391,-118.0419522
7332,Bourbon Lane,90623,33.8559628,-118.0419887
7402,Bourbon Lane,90623,33.8550037,-118.0419555
7372,Bourbon Lane,90623,33.8554153,-118.0419605
7352,Bourbon Lane,90623,33.8556896,-118.0419639
7312,Bourbon Lane,90623,33.8562598,-118.0419696
7161,La Paz Lane,90623,33.8564218,-118.0416666
7302,Bourbon Lane,90623,33.8564013,-118.0419840
7282,Bourbon Lane,90623,33.8566755,-118.0420051
7292,Bourbon Lane,90623,33.8565408,-118.0419866
7151,La Paz Lane,90623,33.8565651,-118.0416718
7171,La Paz Lane,90623,33.8562692,-118.0416904
7142,La Paz Lane,90623,33.8566557,-118.0412168
7162,La Paz Lane,90623,33.8563688,-118.0412228
5301,Bransford Drive,90623,33.8565128,-118.0409771
7152,La Paz Lane,90623,33.8565072,-118.0412060
5311,Bransford Drive,90623,33.8565240,-118.0408065
5321,Bransford Drive,90623,33.8565405,-118.0406316
7151,Tiara Lane,90623,33.8566315,-118.0402079
5341,Bransford Drive,90623,33.8564907,-118.0402190
5331,Bransford Drive,90623,33.8565161,-118.0404558
7241,Tiara Lane,90623,33.8554315,-118.0402077
7221,Tiara Lane,90623,33.8557201,-118.0402101
7191,Tiara Lane,90623,33.8560113,-118.0402021
5342,Bransford Drive,90623,33.8561702,-118.0401987
7231,Tiara Lane,90623,33.8555741,-118.0402201
7211,Tiara Lane,90623,33.8558627,-118.0402220
7301,Tiara Lane,90623,33.8545726,-118.0401885
7261,Tiara Lane,90623,33.8551516,-118.0401857
7251,Tiara Lane,90623,33.8552901,-118.0401827
7291,Tiara Lane,90623,33.8547163,-118.0401976
7281,Tiara Lane,90623,33.8548641,-118.0402043
7311,Tiara Lane,90623,33.8544275,-118.0401788
7271,Tiara Lane,90623,33.8550074,-118.0402100
7282,Monterey Lane,90623,33.8547354,-118.0404789
7252,Monterey Lane,90623,33.8551641,-118.0404901
7262,Monterey Lane,90623,33.8550201,-118.0404798
7272,Monterey Lane,90623,33.8548776,-118.0404808
7292,Monterey Lane,90623,33.8545903,-118.0404635
7302,Monterey Lane,90623,33.8544502,-118.0404851
7242,Monterey Lane,90623,33.8553068,-118.0404879
7222,Monterey Lane,90623,33.8555919,-118.0404983
7212,Monterey Lane,90623,33.8557362,-118.0404950
7182,Monterey Lane,90623,33.8561799,-118.0405136
7192,Monterey Lane,90623,33.8560262,-118.0404848
7232,Monterey Lane,90623,33.8554498,-118.0404854
7202,Monterey Lane,90623,33.8558795,-118.0405095
5271,Barcelona Circle,90623,33.8556379,-118.0415806
7191,Monterey Lane,90623,33.8560860,-118.0409964
5281,Barcelona Circle,90623,33.8556658,-118.0413699
7201,Monterey Lane,90623,33.8559483,-118.0409763
7231,Monterey Lane,90623,33.8555187,-118.0409671
5261,Barcelona Circle,90623,33.8555257,-118.0416518
5291,Barcelona Circle,90623,33.8556186,-118.0412034
7211,Monterey Lane,90623,33.8558026,-118.0409749
7221,Monterey Lane,90623,33.8556606,-118.0409765
5281,Sorrento Circle,90623,33.8549476,-118.0412573
5302,Barcelona Circle,90623,33.8551832,-118.0409172
5271,Sorrento Circle,90623,33.8549506,-118.0414694
5301,Sorrento Circle,90623,33.8549391,-118.0409066
5261,Sorrento Circle,90623,33.8548672,-118.0416236
5262,Barcelona Circle,90623,33.8552652,-118.0416378
5292,Barcelona Circle,90623,33.8551748,-118.0410941
5291,Sorrento Circle,90623,33.8549190,-118.0410883
5272,Barcelona Circle,90623,33.8551776,-118.0414435
5282,Barcelona Circle,90623,33.8551688,-118.0412688
5262,Sorrento Circle,90623,33.8546020,-118.0416364
5302,Sorrento Circle,90623,33.8545320,-118.0409051
5272,Sorrento Circle,90623,33.8545200,-118.0414756
5292,Sorrento Circle,90623,33.8545405,-118.0410741
5282,Sorrento Circle,90623,33.8545339,-118.0412554
5262,Bransford Drive,90623,33.8559198,-118.0417224
5292,Bransford Drive,90623,33.8559589,-118.0412123
5282,Bransford Drive,90623,33.8559314,-118.0413825
5272,Bransford Drive,90623,33.8559271,-118.0415467
7331,Tiara Lane,90623,33.8541416,-118.0401741
7351,Tiara Lane,90623,33.8538529,-118.0401611
7341,Tiara Lane,90623,33.8539981,-118.0401734
7321,Tiara Lane,90623,33.8542836,-118.0401726
7312,Monterey Lane,90623,33.8543014,-118.0404743
7332,Monterey Lane,90623,33.8539551,-118.0404492
5312,Niguel Drive,90623,33.8538802,-118.0406017
5292,Niguel Drive,90623,33.8538834,-118.0409992
5302,Niguel Drive,90623,33.8538780,-118.0408248
5282,Niguel Drive,90623,33.8539016,-118.0411713
7322,Monterey Lane,90623,33.8541560,-118.0404379
5291,Niguel Drive,90623,33.8542974,-118.0410691
5301,Niguel Drive,90623,33.8543002,-118.0408973
7321,del Mar Lane,90623,33.8542136,-118.0416166
7331,del Mar Lane,90623,33.8539933,-118.0416218
7341,del Mar Lane,90623,33.8538473,-118.0416039
5271,Niguel Drive,90623,33.8543045,-118.0415431
5281,Niguel Drive,90623,33.8543032,-118.0412444
7472,Bourbon Lane,90623,33.8539811,-118.0419411
5232,Toulouse Drive,90623,33.8538863,-118.0420983
7452,Bourbon Lane,90623,33.8543159,-118.0419185
7462,Bourbon Lane,90623,33.8541588,-118.0419068
5212,Toulouse Drive,90623,33.8538681,-118.0424714
5221,Toulouse Drive,90623,33.8542998,-118.0423866
5222,Toulouse Drive,90623,33.8538484,-118.0423055
5211,Toulouse Drive,90623,33.8542809,-118.0425496
5286,Houston Avenue,90623,33.8532965,-118.0411423
5358,Houston Avenue,90623,33.8533124,-118.0399948
5344,Houston Avenue,90623,33.8533168,-118.0401595
5306,Houston Avenue,90623,33.8532991,-118.0408139
5326,Houston Avenue,90623,33.8533195,-118.0404842
5336,Houston Avenue,90623,33.8532971,-118.0403239
5320,Houston Avenue,90623,33.8532925,-118.0406524
5296,Houston Avenue,90623,33.8533116,-118.0409842
5335,Achilles Circle,90623,33.8530338,-118.0403199
5317,Achilles Circle,90623,33.8530137,-118.0406459
5327,Achilles Circle,90623,33.8530262,-118.0404855
5287,Achilles Circle,90623,33.8530278,-118.0411443
5297,Achilles Circle,90623,33.8530120,-118.0409782
5307,Achilles Circle,90623,33.8530240,-118.0408149
5357,Achilles Circle,90623,33.8530643,-118.0399820
5347,Achilles Circle,90623,33.8530463,-118.0401573
5338,Achilles Circle,90623,33.8526324,-118.0403081
5326,Achilles Circle,90623,33.8526288,-118.0404712
5348,Achilles Circle,90623,33.8526380,-118.0401441
5358,Achilles Circle,90623,33.8525845,-118.0399627
5286,Achilles Circle,90623,33.8526406,-118.0411287
5305,Andrew Drive,90623,33.8523572,-118.0407966
5320,Achilles Circle,90623,33.8526284,-118.0406368
5295,Andrew Drive,90623,33.8523375,-118.0409645
5287,Andrew Drive,90623,33.8523534,-118.0411263
5306,Achilles Circle,90623,33.8526345,-118.0407996
5298,Achilles Circle,90623,33.8526334,-118.0409670
5319,Andrew Drive,90623,33.8523579,-118.0406355
5337,Andrew Drive,90623,33.8523774,-118.0403062
5327,Andrew Drive,90623,33.8523509,-118.0404690
5357,Andrew Drive,90623,33.8523453,-118.0399766
5347,Andrew Drive,90623,33.8523500,-118.0401399
5334,Andrew Drive,90623,33.8519452,-118.0402810
5358,Andrew Drive,90623,33.8519528,-118.0399415
5348,Andrew Drive,90623,33.8519616,-118.0401163
5314,Andrew Drive,90623,33.8519431,-118.0406179
5326,Andrew Drive,90623,33.8519474,-118.0404502
5306,Andrew Drive,90623,33.8519442,-118.0407838
5276,Andrew Drive,90623,33.8519468,-118.0412899
5260,Andrew Drive,90623,33.8519733,-118.0416280
5288,Andrew Drive,90623,33.8519385,-118.0411182
5268,Andrew Drive,90623,33.8519544,-118.0414547
5296,Andrew Drive,90623,33.8519341,-118.0409514
5252,Andrew Drive,90623,33.8519810,-118.0417988
5202,Andrew Drive,90623,33.8519606,-118.0426433
5232,Andrew Drive,90623,33.8519549,-118.0421401
5212,Andrew Drive,90623,33.8519541,-118.0424777
5222,Andrew Drive,90623,33.8519772,-118.0423053
5242,Andrew Drive,90623,33.8519637,-118.0419706
5251,Marview Drive,90623,33.8516525,-118.0416923
5201,Marview Drive,90623,33.8516722,-118.0425503
5221,Marview Drive,90623,33.8516895,-118.0422108
5211,Marview Drive,90623,33.8516642,-118.0423843
5231,Marview Drive,90623,33.8516674,-118.0420411
5241,Marview Drive,90623,33.8516676,-118.0418703
5261,Marview Drive,90623,33.8516410,-118.0415145
5301,Marview Drive,90623,33.8516681,-118.0408024
5351,Marview Drive,90623,33.8516661,-118.0399156
5321,Marview Drive,90623,33.8516653,-118.0404452
5331,Marview Drive,90623,33.8516472,-118.0402701
5311,Marview Drive,90623,33.8516476,-118.0406220
5341,Marview Drive,90623,33.8516772,-118.0400929
5271,Marview Drive,90623,33.8516609,-118.0413348
5291,Marview Drive,90623,33.8516821,-118.0409805
5281,Marview Drive,90623,33.8516434,-118.0411594
5332,Marview Drive,90623,33.8512739,-118.0401492
5282,Marview Drive,90623,33.8512597,-118.0410402
5302,Marview Drive,90623,33.8512607,-118.0406824
5292,Marview Drive,90623,33.8512684,-118.0408599
5312,Marview Drive,90623,33.8512610,-118.0405064
5342,Marview Drive,90623,33.8512441,-118.0399745
5322,Marview Drive,90623,33.8512678,-118.0403262
5321,Pembury Drive,90623,33.8509673,-118.0403231
5311,Pembury Drive,90623,33.8509569,-118.0405001
5341,Pembury Drive,90623,33.8509923,-118.0399663
5281,Pembury Drive,90623,33.8509887,-118.0410400
5331,Pembury Drive,90623,33.8509650,-118.0401432
5291,Pembury Drive,90623,33.8509729,-118.0408588
5301,Pembury Drive,90623,33.8509604,-118.0406797
5332,Pembury Drive,90623,33.8505831,-118.0401521
5292,Pembury Drive,90623,33.8505709,-118.0408625
5302,Pembury Drive,90623,33.8505803,-118.0406854
7701,Nearfield Lane,90623,33.8506289,-118.0414111
5272,Pembury Drive,90623,33.8505744,-118.0412692
7691,Nearfield Lane,90623,33.8508331,-118.0414837
5322,Pembury Drive,90623,33.8505875,-118.0403306
5282,Pembury Drive,90623,33.8505633,-118.0410447
5342,Pembury Drive,90623,33.8505927,-118.0399751
5312,Pembury Drive,90623,33.8505912,-118.0405071
5252,Marview Drive,90623,33.8512550,-118.0416925
7682,Laurelwood Lane,90623,33.8510484,-118.0417862
7671,Nearfield Lane,90623,33.8511448,-118.0414622
7692,Laurelwood Lane,90623,33.8509120,-118.0417964
7722,Laurelwood Lane,90623,33.8504969,-118.0417995
7712,Laurelwood Lane,90623,33.8506360,-118.0417634
7702,Laurelwood Lane,90623,33.8507747,-118.0418073
7661,Nearfield Lane,90623,33.8512965,-118.0414661
7681,Nearfield Lane,90623,33.8509909,-118.0414572
5242,Marview Drive,90623,33.8512634,-118.0418621
7661,Laurelwood Lane,90623,33.8513235,-118.0422845
7681,Laurelwood Lane,90623,33.8510535,-118.0422809
7711,Laurelwood Lane,90623,33.8506358,-118.0422565
7671,Laurelwood Lane,90623,33.8511880,-118.0422951
7701,Laurelwood Lane,90623,33.8507707,-118.0422545
7691,Laurelwood Lane,90623,33.8509124,-118.0422898
7721,Laurelwood Lane,90623,33.8504959,-118.0422648
7682,Tracy Lane,90623,33.8510410,-118.0425955
7662,Tracy Lane,90623,33.8513210,-118.0426401
7672,Tracy Lane,90623,33.8511821,-118.0426097
7702,Tracy Lane,90623,33.8507337,-118.0426237
7692,Tracy Lane,90623,33.8508976,-118.0425731
5331,Polis Drive,90623,33.8498148,-118.0402135
5271,Polis Drive,90623,33.8498247,-118.0412012
5311,Polis Drive,90623,33.8497950,-118.0405409
5321,Polis Drive,90623,33.8497966,-118.0403765
5261,Polis Drive,90623,33.8498151,-118.0413906
5281,Polis Drive,90623,33.8497936,-118.0410370
5341,Polis Drive,90623,33.8498125,-118.0400477
5301,Polis Drive,90623,33.8497969,-118.0407057
5291,Polis Drive,90623,33.8497921,-118.0408729
5292,Duke Drive,90623,33.8486332,-118.0407885
7751,Herman Lane,90623,33.8495538,-118.0415148
7781,Herman Lane,90623,33.8494160,-118.0414546
7821,Herman Lane,90623,33.8488142,-118.0415016
7831,Herman Lane,90623,33.8486633,-118.0414660
7801,Herman Lane,90623,33.8491428,-118.0414638
7811,Herman Lane,90623,33.8490045,-118.0414715
5262,Duke Drive,90623,33.8486145,-118.0413152
5282,Duke Drive,90623,33.8486396,-118.0409549
7761,Herman Lane,90623,33.8497376,-118.0415107
7791,Herman Lane,90623,33.8492799,-118.0414511
5272,Duke Drive,90623,33.8486401,-118.0411201
5312,Duke Drive,90623,33.8486495,-118.0404446
5302,Duke Drive,90623,33.8486623,-118.0406094
5322,Duke Drive,90623,33.8486667,-118.0402802
5332,Duke Drive,90623,33.8486458,-118.0401157
5342,Duke Drive,90623,33.8486529,-118.0399334
5332,Polis Drive,90623,33.8493817,-118.0402010
5302,Polis Drive,90623,33.8493780,-118.0407126
5292,Polis Drive,90623,33.8493816,-118.0408779
5322,Polis Drive,90623,33.8493870,-118.0403666
5312,Polis Drive,90623,33.8493916,-118.0405286
5282,Polis Drive,90623,33.8493769,-118.0410409
5342,Polis Drive,90623,33.8494023,-118.0400376
5341,Duke Drive,90623,33.8490811,-118.0400310
5301,Duke Drive,90623,33.8490759,-118.0407055
5311,Duke Drive,90623,33.8490820,-118.0405237
5321,Duke Drive,90623,33.8490777,-118.0403594
5331,Duke Drive,90623,33.8490782,-118.0401951
5281,Duke Drive,90623,33.8490746,-118.0410352
5291,Duke Drive,90623,33.8490799,-118.0408712
5291,Bridgewood Drive,90623,33.8483638,-118.0408011
5281,Bridgewood Drive,90623,33.8483669,-118.0409848
5311,Bridgewood Drive,90623,33.8483679,-118.0404323
5261,Bridgewood Drive,90623,33.8483785,-118.0413464
5321,Bridgewood Drive,90623,33.8483777,-118.0402522
5251,Bridgewood Drive,90623,33.8483471,-118.0415276
5271,Bridgewood Drive,90623,33.8483701,-118.0411637
5331,Bridgewood Drive,90623,33.8483629,-118.0400725
5301,Bridgewood Drive,90623,33.8483651,-118.0406144
5201,Bridgewood Drive,90623,33.8484018,-118.0423833
5211,Bridgewood Drive,90623,33.8484161,-118.0422167
5221,Bridgewood Drive,90623,33.8484077,-118.0420491
5191,Bridgewood Drive,90623,33.8484142,-118.0425503
5241,Bridgewood Drive,90623,33.8484079,-118.0417150
5231,Bridgewood Drive,90623,33.8484084,-118.0418816
5232,Glenwood Circle,90623,33.8486647,-118.0418959
5192,Glenwood Circle,90623,33.8486880,-118.0425557
5212,Glenwood Circle,90623,33.8486963,-118.0422242
5202,Glenwood Circle,90623,33.8486839,-118.0423881
5222,Glenwood Circle,90623,33.8487001,-118.0420581
5242,Glenwood Circle,90623,33.8486801,-118.0417190
5221,Glenwood Circle,90623,33.8491062,-118.0420681
5191,Glenwood Circle,90623,33.8491225,-118.0425662
5211,Glenwood Circle,90623,33.8491037,-118.0422329
5231,Glenwood Circle,90623,33.8491236,-118.0419064
5241,Glenwood Circle,90623,33.8491410,-118.0417300
5201,Glenwood Circle,90623,33.8491098,-118.0424019
5202,Blairwood Drive,90623,33.8493683,-118.0424027
5222,Blairwood Drive,90623,33.8493422,-118.0420345
7782,Laurelwood Lane,90623,33.8494049,-118.0418309
7772,Laurelwood Lane,90623,33.8495704,-118.0417829
5212,Blairwood Drive,90623,33.8493696,-118.0422373
5192,Blairwood Drive,90623,33.8493872,-118.0425701
7752,Laurelwood Lane,90623,33.8498806,-118.0418453
7762,Laurelwood Lane,90623,33.8497433,-118.0418446
5201,Blairwood Drive,90623,33.8497979,-118.0424481
5211,Blairwood Drive,90623,33.8498179,-118.0422861
5191,Blairwood Drive,90623,33.8498212,-118.0426160
7922,Collins Lane,90623,33.8475690,-118.0404712
5332,Bridgewood Drive,90623,33.8479010,-118.0400549
7892,Collins Lane,90623,33.8480229,-118.0404725
7912,Collins Lane,90623,33.8477338,-118.0404794
7902,Collins Lane,90623,33.8478854,-118.0404807
5322,Bridgewood Drive,90623,33.8479661,-118.0402318
5261,Van Dyke Circle,90623,33.8476839,-118.0413760
5251,Van Dyke Circle,90623,33.8475865,-118.0414458
5271,Van Dyke Circle,90623,33.8476899,-118.0410525
5281,Van Dyke Circle,90623,33.8476920,-118.0408902
5252,Bridgewood Drive,90623,33.8479425,-118.0415170
5282,Bridgewood Drive,90623,33.8479689,-118.0409098
5232,Bridgewood Drive,90623,33.8479778,-118.0418686
5272,Bridgewood Drive,90623,33.8479391,-118.0411074
5242,Bridgewood Drive,90623,33.8479735,-118.0417029
5222,Bridgewood Drive,90623,33.8479990,-118.0420375
5262,Bridgewood Drive,90623,33.8479539,-118.0413047
5212,Bridgewood Drive,90623,33.8479804,-118.0422047
5201,Huntswood Circle,90623,33.8477003,-118.0423450
5191,Huntswood Circle,90623,33.8477016,-118.0425098
5192,Bridgewood Drive,90623,33.8479914,-118.0425423
5231,Huntswood Circle,90623,33.8476422,-118.0417767
5211,Huntswood Circle,90623,33.8477181,-118.0421628
5221,Huntswood Circle,90623,33.8477218,-118.0418748
5202,Bridgewood Drive,90623,33.8479762,-118.0423730
7932,Collins Lane,90623,33.8474055,-118.0404703
7952,Collins Lane,90623,33.8471033,-118.0404673
5262,Van Dyke Circle,90623,33.8472672,-118.0413616
7962,Collins Lane,90623,33.8469515,-118.0404711
5282,Van Dyke Circle,90623,33.8472893,-118.0408752
5252,Van Dyke Circle,90623,33.8473683,-118.0414315
5272,Van Dyke Circle,90623,33.8472648,-118.0410362
7942,Collins Lane,90623,33.8472554,-118.0404605
5292,Ivywood Drive,90623,33.8466059,-118.0407427
5282,Ivywood Drive,90623,33.8466052,-118.0409353
5312,Ivywood Drive,90623,33.8466040,-118.0403697
5302,Ivywood Drive,90623,33.8466114,-118.0405480
5251,Ivywood Drive,90623,33.8470237,-118.0414993
5261,Ivywood Drive,90623,33.8469961,-118.0412884
5281,Ivywood Drive,90623,33.8469952,-118.0408937
5271,Ivywood Drive,90623,33.8470122,-118.0410935
5221,Ivywood Drive,90623,33.8470058,-118.0420195
5241,Ivywood Drive,90623,33.8470127,-118.0416805
5231,Ivywood Drive,90623,33.8470080,-118.0418518
5202,Huntswood Circle,90623,33.8473005,-118.0423366
5212,Huntswood Circle,90623,33.8472823,-118.0421664
5192,Huntswood Circle,90623,33.8473042,-118.0425020
5222,Huntswood Circle,90623,33.8472804,-118.0418761
5232,Huntswood Circle,90623,33.8474353,-118.0417912
5211,Ivywood Drive,90623,33.8470115,-118.0421824
5201,Ivywood Drive,90623,33.8470062,-118.0423483
5191,Ivywood Drive,90623,33.8470108,-118.0425175
5262,Ivywood Drive,90623,33.8465997,-118.0413034
5242,Ivywood Drive,90623,33.8466117,-118.0416727
5212,Ivywood Drive,90623,33.8465928,-118.0421745
5232,Ivywood Drive,90623,33.8465941,-118.0418423
5192,Ivywood Drive,90623,33.8465892,-118.0425123
5252,Ivywood Drive,90623,33.8465851,-118.0414868
5202,Ivywood Drive,90623,33.8466024,-118.0423411
5222,Ivywood Drive,90623,33.8465929,-118.0420084
8032,Janeen Circle,90623,33.8456874,-118.0401034
8012,Janeen Circle,90623,33.8459764,-118.0400790
8042,Janeen Circle,90623,33.8455392,-118.0400977
8002,Janeen Circle,90623,33.8461202,-118.0400992
8022,Janeen Circle,90623,33.8458301,-118.0401025
8052,Janeen Circle,90623,33.8453971,-118.0400961
8041,Janeen Circle,90623,33.8455345,-118.0405875
8031,Janeen Circle,90623,33.8456817,-118.0405971
8001,Janeen Circle,90623,33.8461181,-118.0406082
8011,Janeen Circle,90623,33.8459722,-118.0406377
8051,Janeen Circle,90623,33.8453908,-118.0405923
8021,Janeen Circle,90623,33.8458233,-118.0406174
8002,Joan Circle,90623,33.8461136,-118.0409093
8022,Joan Circle,90623,33.8458235,-118.0409186
8032,Joan Circle,90623,33.8456799,-118.0409342
8052,Joan Circle,90623,33.8453851,-118.0409293
8012,Joan Circle,90623,33.8459695,-118.0408839
8042,Joan Circle,90623,33.8455293,-118.0409217
8021,Joan Circle,90623,33.8458150,-118.0414152
8011,Joan Circle,90623,33.8459627,-118.0414436
8031,Joan Circle,90623,33.8456727,-118.0413971
8041,Joan Circle,90623,33.8455216,-118.0413944
8051,Joan Circle,90623,33.8453827,-118.0414122
8001,Joan Circle,90623,33.8461097,-118.0414241
8052,Andre Lane,90623,33.8454130,-118.0417241
8002,Andre Lane,90623,33.8460998,-118.0417464
8012,Andre Lane,90623,33.8459614,-118.0417596
8032,Andre Lane,90623,33.8456896,-118.0417367
8062,Andre Lane,90623,33.8452443,-118.0417240
8042,Andre Lane,90623,33.8455493,-118.0417479
8022,Andre Lane,90623,33.8458230,-118.0417562
8011,Andre Lane,90623,33.8460650,-118.0422386
8021,Andre Lane,90623,33.8459085,-118.0422322
5211,Lena Drive,90623,33.8455188,-118.0421636
8031,Andre Lane,90623,33.8457250,-118.0422164
8022,Dawn Circle,90623,33.8460186,-118.0426087
5191,Lena Drive,90623,33.8455031,-118.0424922
8032,Dawn Circle,90623,33.8457212,-118.0425834
5201,Lena Drive,90623,33.8455058,-118.0423286
8072,Janeen Circle,90623,33.8451039,-118.0400988
8062,Janeen Circle,90623,33.8452504,-118.0401094
8082,Janeen Circle,90623,33.8449550,-118.0401083
8092,Janeen Circle,90623,33.8448099,-118.0400955
8092,Joan Circle,90623,33.8448018,-118.0409107
8082,Joan Circle,90623,33.8449468,-118.0409157
8081,Janeen Circle,90623,33.8449521,-118.0405930
8071,Janeen Circle,90623,33.8450991,-118.0405887
8091,Janeen Circle,90623,33.8448066,-118.0405796
8072,Joan Circle,90623,33.8450974,-118.0409126
8061,Janeen Circle,90623,33.8452403,-118.0406115
8062,Joan Circle,90623,33.8452407,-118.0408968
5192,Lena Drive,90623,33.8451051,-118.0425094
5212,Lena Drive,90623,33.8451096,-118.0421807
5232,Lena Drive,90623,33.8451313,-118.0418005
8081,Joan Circle,90623,33.8449454,-118.0414027
8061,Joan Circle,90623,33.8452323,-118.0414164
8091,Joan Circle,90623,33.8447981,-118.0413947
5222,Lena Drive,90623,33.8450954,-118.0420163
5202,Lena Drive,90623,33.8451183,-118.0423439
8071,Joan Circle,90623,33.8450911,-118.0414204
5241,Verner Drive,90623,33.8448440,-118.0416483
5201,Verner Drive,90623,33.8448176,-118.0423215
5231,Verner Drive,90623,33.8448229,-118.0418187
5211,Verner Drive,90623,33.8448207,-118.0421535
5191,Verner Drive,90623,33.8448151,-118.0424898
5221,Verner Drive,90623,33.8448328,-118.0419828
5252,Verner Drive,90623,33.8444181,-118.0414560
5192,Verner Drive,90623,33.8444286,-118.0424649
5222,Verner Drive,90623,33.8444183,-118.0419667
5232,Verner Drive,90623,33.8444228,-118.0418073
5262,Verner Drive,90623,33.8444102,-118.0412845
5202,Verner Drive,90623,33.8444197,-118.0422983
5242,Verner Drive,90623,33.8444323,-118.0416404
5182,Verner Drive,90623,33.8444173,-118.0426280
5212,Verner Drive,90623,33.8444127,-118.0421358
5332,Verner Drive,90623,33.8444304,-118.0400655
5282,Verner Drive,90623,33.8444158,-118.0409403
5272,Verner Drive,90623,33.8444355,-118.0411096
5312,Verner Drive,90623,33.8444279,-118.0404128
5322,Verner Drive,90623,33.8444355,-118.0402422
5292,Verner Drive,90623,33.8444083,-118.0407630
5302,Verner Drive,90623,33.8444414,-118.0405906
5291,La Luna Drive,90623,33.8439744,-118.0407927
5311,La Luna Drive,90623,33.8439785,-118.0404602
5301,La Luna Drive,90623,33.8439781,-118.0406241
5331,La Luna Drive,90623,33.8439699,-118.0401317
5281,La Luna Drive,90623,33.8439364,-118.0409547
5271,La Luna Drive,90623,33.8439720,-118.0411206
5341,La Luna Drive,90623,33.8439809,-118.0399666
5321,La Luna Drive,90623,33.8439597,-118.0402904
5241,La Luna Drive,90623,33.8439764,-118.0416505
5201,La Luna Drive,90623,33.8439535,-118.0423154
5221,La Luna Drive,90623,33.8439426,-118.0419747
5181,La Luna Drive,90623,33.8439439,-118.0426442
5211,La Luna Drive,90623,33.8439409,-118.0421439
5261,La Luna Drive,90623,33.8439750,-118.0412851
5191,La Luna Drive,90623,33.8439565,-118.0424737
5251,La Luna Drive,90623,33.8439762,-118.0414650
5231,La Luna Drive,90623,33.8439504,-118.0418128
5302,La Luna Drive,90623,33.8435451,-118.0406225
5272,La Luna Drive,90623,33.8435165,-118.0411198
5252,La Luna Drive,90623,33.8435414,-118.0414659
5342,La Luna Drive,90623,33.8435203,-118.0399659
5292,La Luna Drive,90623,33.8435297,-118.0407893
5262,La Luna Drive,90623,33.8435263,-118.0412775
5322,La Luna Drive,90623,33.8435489,-118.0402883
5332,La Luna Drive,90623,33.8435197,-118.0401234
5282,La Luna Drive,90623,33.8435323,-118.0409472
5312,La Luna Drive,90623,33.8435323,-118.0404612
8202,del Oro Lane,90623,33.8433159,-118.0423522
5222,La Luna Drive,90623,33.8435656,-118.0419556
8182,del Oro Lane,90623,33.8435855,-118.0423788
5232,La Luna Drive,90623,33.8435682,-118.0417891
5242,La Luna Drive,90623,33.8435506,-118.0416244
5212,La Luna Drive,90623,33.8435391,-118.0421235
8192,del Oro Lane,90623,33.8434504,-118.0423690
5231,Los Encantos Circle,90623,33.8432386,-118.0417300
5221,Los Encantos Circle,90623,33.8432702,-118.0419011
5191,Los Encantos Circle,90623,33.8431016,-118.0424187
5201,Los Encantos Circle,90623,33.8430802,-118.0422533
5241,Los Encantos Circle,90623,33.8430089,-118.0416604
5211,Los Encantos Circle,90623,33.8432696,-118.0421076
5242,Los Encantos Circle,90623,33.8428549,-118.0416690
5192,Los Encantos Circle,90623,33.8426490,-118.0424366
5202,Los Encantos Circle,90623,33.8426761,-118.0422716
5182,Los Encantos Circle,90623,33.8426546,-118.0426430
5232,Los Encantos Circle,90623,33.8426886,-118.0417183
5212,Los Encantos Circle,90623,33.8426598,-118.0421088
5222,Los Encantos Circle,90623,33.8426433,-118.0419394
5191,del Serra Circle,90623,33.8423961,-118.0425374
5211,del Serra Circle,90623,33.8423874,-118.0422121
5231,del Serra Circle,90623,33.8424222,-118.0417558
5221,del Serra Circle,90623,33.8424190,-118.0420479
5241,del Serra Circle,90623,33.8423369,-118.0416681
5201,del Serra Circle,90623,33.8424006,-118.0423790
5232,del Serra Circle,90623,33.8419851,-118.0417452
5212,del Serra Circle,90623,33.8420046,-118.0421999
5222,del Serra Circle,90623,33.8419829,-118.0420418
5202,del Serra Circle,90623,33.8420203,-118.0423707
5192,del Serra Circle,90623,33.8419927,-118.0425303
5242,del Serra Circle,90623,33.8420925,-118.0416762
5211,del Sol Circle,90623,33.8417124,-118.0421977
5241,del Sol Circle,90623,33.8416376,-118.0416691
5231,del Sol Circle,90623,33.8417351,-118.0417344
5191,del Sol Circle,90623,33.8417121,-118.0425265
5221,del Sol Circle,90623,33.8417476,-118.0420377
5201,del Sol Circle,90623,33.8417304,-118.0423661
5232,del Este Circle,90623,33.8406106,-118.0416865
5232,del Sol Circle,90623,33.8413046,-118.0417241
5242,del Sol Circle,90623,33.8414029,-118.0416536
5231,del Este Circle,90623,33.8410453,-118.0417225
5241,del Este Circle,90623,33.8409534,-118.0416581
5242,del Este Circle,90623,33.8407176,-118.0416545
5222,del Sol Circle,90623,33.8412913,-118.0420298
5212,del Sol Circle,90623,33.8413078,-118.0421956
5221,del Este Circle,90623,33.8410449,-118.0420276
5211,del Este Circle,90623,33.8410408,-118.0421895
5201,del Este Circle,90623,33.8410124,-118.0423567
5192,del Sol Circle,90623,33.8413173,-118.0425231
5202,del Sol Circle,90623,33.8413095,-118.0423627
5191,del Este Circle,90623,33.8410412,-118.0425186
5241,del Sur Circle,90623,33.8402624,-118.0416505
5211,del Sur Circle,90623,33.8403355,-118.0421803
5221,del Sur Circle,90623,33.8403779,-118.0420187
5192,del Este Circle,90623,33.8406230,-118.0425154
5191,del Sur Circle,90623,33.8403375,-118.0425125
5231,del Sur Circle,90623,33.8403662,-118.0417057
5222,del Este Circle,90623,33.8406029,-118.0420231
5201,del Sur Circle,90623,33.8403413,-118.0423455
5212,del Este Circle,90623,33.8406434,-118.0421841
5202,del Este Circle,90623,33.8406318,-118.0423540
5212,del Sur Circle,90623,33.8399282,-118.0421736
5232,del Sur Circle,90623,33.8399295,-118.0417222
5222,del Sur Circle,90623,33.8399130,-118.0420138
5242,del Sur Circle,90623,33.8400312,-118.0416420
5192,del Sur Circle,90623,33.8399371,-118.0425028
5202,del Sur Circle,90623,33.8399312,-118.0423420
5201,del Norte Circle,90623,33.8396638,-118.0423356
5211,del Norte Circle,90623,33.8396537,-118.0421742
5231,del Norte Circle,90623,33.8396673,-118.0417053
5241,del Norte Circle,90623,33.8395773,-118.0416247
5221,del Norte Circle,90623,33.8396917,-118.0420091
5191,del Norte Circle,90623,33.8396536,-118.0425003
5242,del Norte Circle,90623,33.8393432,-118.0416360
5202,del Norte Circle,90623,33.8392474,-118.0423327
5192,del Norte Circle,90623,33.8392706,-118.0424957
5232,del Norte Circle,90623,33.8392436,-118.0417244
5212,del Norte Circle,90623,33.8392566,-118.0421665
5222,del Norte Circle,90623,33.8392268,-118.0419780
5205,Banbury Circle,90623,33.8387589,-118.0424584
5236,Banbury Circle,90623,33.8384941,-118.0417233
5175,Banbury Circle,90623,33.8386530,-118.0424298
5186,Banbury Circle,90623,33.8384996,-118.0424279
5225,Banbury Circle,90623,33.8387770,-118.0417414
8546,Salisbury Lane,90623,33.8381111,-118.0419518
5165,Dover Drive,90623,33.8378657,-118.0426964
5171,Dover Drive,90623,33.8379791,-118.0426652
5230,Banbury Circle,90623,33.8383698,-118.0417362
5210,Banbury Circle,90623,33.8383715,-118.0424538
8545,Salisbury Lane,90623,33.8380440,-118.0421473
8562,Salisbury Lane,90623,33.8381265,-118.0418191
8571,Salisbury Lane,90623,33.8380598,-118.0422768
5226,Salisbury Circle,90623,33.8375878,-118.0417835
5237,Salisbury Circle,90623,33.8378849,-118.0417221
5210,Dover Drive,90623,33.8377040,-118.0423397
5234,Salisbury Circle,90623,33.8374626,-118.0417920
5196,Dover Drive,90623,33.8375771,-118.0423668
8622,Devon Circle,90623,33.8371820,-118.0419331
8621,Devon Circle,90623,33.8370974,-118.0421420
8626,Devon Circle,90623,33.8371748,-118.0418048
8615,Devon Circle,90623,33.8370759,-118.0422799
8660,Santa Margarita Lane,90623,33.8368939,-118.0417168
8671,Windsor Circle,90623,33.8364320,-118.0424339
8616,Santa Margarita Lane,90623,33.8370919,-118.0427540
8632,Santa Margarita Lane,90623,33.8372033,-118.0426929
8648,Santa Margarita Lane,90623,33.8367738,-118.0417298
8643,Santa Margarita Lane,90623,33.8364545,-118.0418682
8685,Santa Margarita Lane,90623,33.8360872,-118.0417886
8653,Santa Margarita Lane,90623,33.8365797,-118.0418927
8692,Windsor Circle,90623,33.8361387,-118.0420750
8696,Windsor Circle,90623,33.8361958,-118.0422056
8711,Santa Margarita Lane,90623,33.8361029,-118.0416417
8656,Avon Circle,90623,33.8366308,-118.0427893
8632,York Circle,90623,33.8370082,-118.0434029
8647,Avon Circle,90623,33.8368134,-118.0430477
8666,Avon Circle,90623,33.8365656,-118.0426643
8642,York Circle,90623,33.8369432,-118.0432760
8602,Santa Margarita Lane,90623,33.8375504,-118.0432243
5108,Cornwall Drive,90623,33.8378513,-118.0438326
8621,York Circle,90623,33.8371869,-118.0436794
5166,Dover Drive,90623,33.8376991,-118.0427907
5176,Dover Drive,90623,33.8375731,-118.0427717
5100,Cornwall Drive,90623,33.8377245,-118.0438003
8606,Santa Margarita Lane,90623,33.8375236,-118.0430725
8596,Cornwall Circle,90623,33.8374085,-118.0438875
5125,Cornwall Drive,90623,33.8381264,-118.0438835
5145,Dover Drive,90623,33.8379874,-118.0431199
5166,Banbury Circle,90623,33.8383280,-118.0430183
5097,Cornwall Drive,90623,33.8380037,-118.0439147
5074,Stratford Circle,90623,33.8383477,-118.0441930
5095,Via Brenda,90623,33.8376650,-118.0444420
8547,Via Tina,90623,33.8384192,-118.0448090
5038,Via Helena,90623,33.8382953,-118.0451354
8551,Via Tina,90623,33.8381433,-118.0448073
5067,Via Brenda,90623,33.8378315,-118.0447947
5094,Via Maria,90623,33.8379133,-118.0444263
5037,Via Brenda,90623,33.8380647,-118.0451762
5081,Stratford Circle,90623,33.8387613,-118.0442882
8501,Via Tina,90623,33.8386974,-118.0448316
5151,Banbury Circle,90623,33.8387599,-118.0430085
5115,Stratford Circle,90623,33.8387506,-118.0437384
5035,Via Helena,90623,33.8386442,-118.0451171
5172,del Norte Circle,90623,33.8392423,-118.0428290
5182,del Sur Circle,90623,33.8399442,-118.0426679
5182,del Norte Circle,90623,33.8392522,-118.0426621
5151,del Norte Circle,90623,33.8396501,-118.0431586
5161,del Norte Circle,90623,33.8396584,-118.0429931
5152,del Norte Circle,90623,33.8392487,-118.0431568
5171,del Norte Circle,90623,33.8396497,-118.0428305
5162,del Norte Circle,90623,33.8392480,-118.0429880
5181,del Norte Circle,90623,33.8396601,-118.0426633
5172,del Sur Circle,90623,33.8399379,-118.0428336
5171,del Sur Circle,90623,33.8403469,-118.0428416
5161,del Sur Circle,90623,33.8403340,-118.0430023
5152,del Sur Circle,90623,33.8399282,-118.0431613
5181,del Sur Circle,90623,33.8403568,-118.0426771
5162,del Sur Circle,90623,33.8399357,-118.0430007
5151,del Sur Circle,90623,33.8403456,-118.0431706
8381,Santa Margarita Lane,90623,33.8406965,-118.0436141
8401,Santa Margarita Lane,90623,33.8404201,-118.0436189
5172,del Este Circle,90623,33.8406171,-118.0428414
8391,Santa Margarita Lane,90623,33.8405597,-118.0436088
5162,del Este Circle,90623,33.8406041,-118.0430082
5182,del Este Circle,90623,33.8406193,-118.0426766
5152,del Este Circle,90623,33.8406134,-118.0431745
8411,Santa Margarita Lane,90623,33.8402814,-118.0435757
8471,Santa Margarita Lane,90623,33.8394567,-118.0435815
8431,Santa Margarita Lane,90623,33.8400070,-118.0435896
8441,Santa Margarita Lane,90623,33.8398690,-118.0435867
8421,Santa Margarita Lane,90623,33.8401468,-118.0436142
8451,Santa Margarita Lane,90623,33.8397316,-118.0435842
8461,Santa Margarita Lane,90623,33.8395971,-118.0435911
8491,Santa Margarita Lane,90623,33.8391854,-118.0436040
8481,Santa Margarita Lane,90623,33.8393177,-118.0435943
5071,Malaga Drive,90623,33.8403483,-118.0445174
5041,Malaga Drive,90623,33.8403405,-118.0450106
5081,Malaga Drive,90623,33.8403589,-118.0443576
5051,Malaga Drive,90623,33.8403304,-118.0448474
5031,Malaga Drive,90623,33.8403377,-118.0451786
5021,Malaga Drive,90623,33.8403359,-118.0453442
5061,Malaga Drive,90623,33.8403324,-118.0446876
5062,Cordoba Circle,90623,33.8406357,-118.0446920
5052,Cordoba Circle,90623,33.8406395,-118.0448520
5072,Cordoba Circle,90623,33.8406350,-118.0445222
5022,Cordoba Circle,90623,33.8406126,-118.0453490
5082,Cordoba Circle,90623,33.8406304,-118.0443643
5042,Cordoba Circle,90623,33.8406288,-118.0450182
5032,Cordoba Circle,90623,33.8406278,-118.0451872
8402,El Pescador Lane,90623,33.8403562,-118.0439459
8432,El Pescador Lane,90623,33.8399404,-118.0439371
8382,El Pescador Lane,90623,33.8406278,-118.0439311
8412,El Pescador Lane,90623,33.8402188,-118.0439324
8392,El Pescador Lane,90623,33.8404884,-118.0439640
8442,El Pescador Lane,90623,33.8398082,-118.0439432
8372,El Pescador Lane,90623,33.8407646,-118.0439420
8422,El Pescador Lane,90623,33.8400821,-118.0439214
8452,El Pescador Lane,90623,33.8396668,-118.0439220
5082,Cadiz Circle,90623,33.8392192,-118.0442536
5072,Cadiz Circle,90623,33.8392326,-118.0444241
8462,El Pescador Lane,90623,33.8395199,-118.0438896
5092,Cadiz Circle,90623,33.8392221,-118.0440411
8472,El Pescador Lane,90623,33.8392996,-118.0438869
5062,Cadiz Circle,90623,33.8392329,-118.0445931
5071,Cadiz Circle,90623,33.8396378,-118.0445112
5042,Cadiz Circle,90623,33.8392118,-118.0450225
5051,Cadiz Circle,90623,33.8396799,-118.0448745
5061,Cadiz Circle,90623,33.8396491,-118.0446784
5041,Cadiz Circle,90623,33.8395787,-118.0450946
5032,Cadiz Circle,90623,33.8393889,-118.0451137
5052,Cadiz Circle,90623,33.8391977,-118.0447609
5081,Cadiz Circle,90623,33.8396371,-118.0443461
5072,Malaga Drive,90623,33.8399509,-118.0445132
5062,Malaga Drive,90623,33.8399247,-118.0446798
5082,Malaga Drive,90623,33.8399488,-118.0443523
5032,Malaga Drive,90623,33.8399012,-118.0451768
5042,Malaga Drive,90623,33.8399360,-118.0450057
5052,Malaga Drive,90623,33.8399280,-118.0448455
5022,Malaga Drive,90623,33.8399310,-118.0453340
8211,del Oro Lane,90623,33.8430881,-118.0428362
8242,Santa Margarita Lane,90623,33.8426057,-118.0431238
8232,Santa Margarita Lane,90623,33.8427745,-118.0431580
8222,Santa Margarita Lane,90623,33.8429272,-118.0431635
8221,del Oro Lane,90623,33.8428733,-118.0428750
8231,del Oro Lane,90623,33.8426994,-118.0427861
8212,Santa Margarita Lane,90623,33.8430770,-118.0431608
5161,del Serra Circle,90623,33.8424029,-118.0430375
5151,del Serra Circle,90623,33.8424055,-118.0431962
5181,del Serra Circle,90623,33.8424145,-118.0427069
5171,del Serra Circle,90623,33.8423971,-118.0428700
5152,del Serra Circle,90623,33.8419851,-118.0431928
5162,del Serra Circle,90623,33.8419997,-118.0430268
5172,del Serra Circle,90623,33.8419910,-118.0428603
5182,del Serra Circle,90623,33.8419965,-118.0427008
5162,del Sol Circle,90623,33.8412920,-118.0430205
5172,del Sol Circle,90623,33.8413040,-118.0428487
5182,del Sol Circle,90623,33.8413097,-118.0426901
5161,del Sol Circle,90623,33.8417193,-118.0430228
5171,del Sol Circle,90623,33.8417216,-118.0428608
5152,del Sol Circle,90623,33.8413111,-118.0431787
5181,del Sol Circle,90623,33.8417208,-118.0426955
5151,del Sol Circle,90623,33.8417190,-118.0431847
8371,Santa Margarita Lane,90623,33.8408314,-118.0436079
8351,Santa Margarita Lane,90623,33.8411085,-118.0436082
5171,del Este Circle,90623,33.8410215,-118.0428546
5161,del Este Circle,90623,33.8410061,-118.0430146
8331,Santa Margarita Lane,90623,33.8413826,-118.0436102
8361,Santa Margarita Lane,90623,33.8409685,-118.0435983
8341,Santa Margarita Lane,90623,33.8412485,-118.0436002
5181,del Este Circle,90623,33.8410356,-118.0426857
5151,del Este Circle,90623,33.8410313,-118.0431767
8321,Santa Margarita Lane,90623,33.8415188,-118.0436077
8271,Santa Margarita Lane,90623,33.8422049,-118.0436201
8301,Santa Margarita Lane,90623,33.8417953,-118.0436084
8311,Santa Margarita Lane,90623,33.8416548,-118.0436314
8291,Santa Margarita Lane,90623,33.8419307,-118.0436121
8281,Santa Margarita Lane,90623,33.8420701,-118.0436173
8261,Santa Margarita Lane,90623,33.8423405,-118.0436334
8241,Santa Margarita Lane,90623,33.8426195,-118.0436299
8251,Santa Margarita Lane,90623,33.8424828,-118.0436200
8231,Santa Margarita Lane,90623,33.8427545,-118.0436244
8221,Santa Margarita Lane,90623,33.8428950,-118.0436198
8211,Santa Margarita Lane,90623,33.8430288,-118.0436267
8262,El Pescador Lane,90623,33.8422753,-118.0439555
8222,El Pescador Lane,90623,33.8428246,-118.0439770
8232,El Pescador Lane,90623,33.8426887,-118.0439774
8242,El Pescador Lane,90623,33.8425533,-118.0439731
8252,El Pescador Lane,90623,33.8424166,-118.0439898
8212,El Pescador Lane,90623,33.8429675,-118.0439719
8282,El Pescador Lane,90623,33.8420003,-118.0439631
8302,El Pescador Lane,90623,33.8417246,-118.0439501
8272,El Pescador Lane,90623,33.8421414,-118.0439557
8292,El Pescador Lane,90623,33.8418677,-118.0439483
8312,El Pescador Lane,90623,33.8415909,-118.0439463
8342,El Pescador Lane,90623,33.8411801,-118.0439601
8352,El Pescador Lane,90623,33.8410448,-118.0439459
8362,El Pescador Lane,90623,33.8409038,-118.0439312
8322,El Pescador Lane,90623,33.8414539,-118.0439422
8332,El Pescador Lane,90623,33.8413141,-118.0439495
5071,Cordoba Circle,90623,33.8410372,-118.0445264
5061,Cordoba Circle,90623,33.8410413,-118.0446947
5081,Cordoba Circle,90623,33.8410534,-118.0443640
5051,Cordoba Circle,90623,33.8410394,-118.0448555
5031,Cordoba Circle,90623,33.8410194,-118.0451929
5041,Cordoba Circle,90623,33.8410587,-118.0450202
5021,Cordoba Circle,90623,33.8410472,-118.0453524
5052,Cartagena Circle,90623,33.8413385,-118.0448670
5032,Cartagena Circle,90623,33.8413282,-118.0451940
5042,Cartagena Circle,90623,33.8413151,-118.0450268
5022,Cartagena Circle,90623,33.8413313,-118.0453542
5072,Cartagena Circle,90623,33.8413156,-118.0445357
5082,Cartagena Circle,90623,33.8413147,-118.0443694
5062,Cartagena Circle,90623,33.8413436,-118.0446958
5081,Cartagena Circle,90623,33.8417610,-118.0443766
5061,Cartagena Circle,90623,33.8417514,-118.0447042
5021,Cartagena Circle,90623,33.8417497,-118.0453656
5051,Cartagena Circle,90623,33.8417497,-118.0448680
5071,Cartagena Circle,90623,33.8417641,-118.0445386
5041,Cartagena Circle,90623,33.8417484,-118.0450299
5031,Cartagena Circle,90623,33.8417452,-118.0451992
5042,Sausalito Circle,90623,33.8420531,-118.0450354
5062,Sausalito Circle,90623,33.8420310,-118.0447080
5052,Sausalito Circle,90623,33.8420254,-118.0448736
5082,Sausalito Circle,90623,33.8420427,-118.0443808
5032,Sausalito Circle,90623,33.8420407,-118.0452044
5022,Sausalito Circle,90623,33.8420068,-118.0453696
5072,Sausalito Circle,90623,33.8420272,-118.0445467
5081,Sausalito Circle,90623,33.8424612,-118.0443865
5051,Sausalito Circle,90623,33.8424499,-118.0448772
5021,Sausalito Circle,90623,33.8424469,-118.0453749
5031,Sausalito Circle,90623,33.8424426,-118.0452079
5041,Sausalito Circle,90623,33.8424467,-118.0450405
8122,Moody Street,90623,33.8445062,-118.0451001
5081,La Luna Drive,90623,33.8436023,-118.0444921
5071,La Luna Drive,90623,33.8435615,-118.0446316
5021,La Luna Drive,90623,33.8432851,-118.0453918
5061,La Luna Drive,90623,33.8435224,-118.0448172
5031,La Luna Drive,90623,33.8433266,-118.0452551
5091,La Luna Drive,90623,33.8436554,-118.0443307
5121,La Luna Drive,90623,33.8437828,-118.0438331
5131,La Luna Drive,90623,33.8438079,-118.0436883
5171,La Luna Drive,90623,33.8439410,-118.0428180
5111,La Luna Drive,90623,33.8437458,-118.0440227
5101,La Luna Drive,90623,33.8437098,-118.0441571
5141,La Luna Drive,90623,33.8438268,-118.0434848
5161,La Luna Drive,90623,33.8439092,-118.0429906
5151,La Luna Drive,90623,33.8438572,-118.0433167
5155,La Luna Drive,90623,33.8439129,-118.0431454
8202,El Pescador Lane,90623,33.8431020,-118.0439678
5132,La Luna Drive,90623,33.8433797,-118.0436041
8201,Santa Margarita Lane,90623,33.8431700,-118.0436175
5102,La Luna Drive,90623,33.8432951,-118.0440890
5122,La Luna Drive,90623,33.8433609,-118.0437546
5112,La Luna Drive,90623,33.8433335,-118.0439338
8182,Santa Margarita Lane,90623,33.8435189,-118.0431857
8202,Santa Margarita Lane,90623,33.8432357,-118.0431691
8191,del Oro Lane,90623,33.8433889,-118.0428549
8201,del Oro Lane,90623,33.8432439,-118.0428452
8192,Santa Margarita Lane,90623,33.8433808,-118.0431613
8181,del Oro Lane,90623,33.8435530,-118.0428537
8091,Dawn Circle,90623,33.8448644,-118.0432645
8081,Dawn Circle,90623,33.8450026,-118.0432506
5152,Verner Drive,90623,33.8444141,-118.0431815
5182,Lena Drive,90623,33.8451096,-118.0426738
8061,Dawn Circle,90623,33.8452770,-118.0432703
5181,Verner Drive,90623,33.8448134,-118.0426572
8101,Dawn Circle,90623,33.8447283,-118.0432952
8071,Dawn Circle,90623,33.8451387,-118.0432682
8111,Dawn Circle,90623,33.8445328,-118.0432570
5172,Lena Drive,90623,33.8451235,-118.0428408
5171,Verner Drive,90623,33.8448261,-118.0428370
5162,Verner Drive,90623,33.8443719,-118.0429555
5172,Verner Drive,90623,33.8444101,-118.0427906
5171,Ivywood Drive,90623,33.8469892,-118.0428525
5172,Huntswood Circle,90623,33.8473003,-118.0428426
5182,Huntswood Circle,90623,33.8472971,-118.0426814
5151,Ivywood Drive,90623,33.8470107,-118.0431833
5161,Ivywood Drive,90623,33.8470248,-118.0430166
5152,Huntswood Circle,90623,33.8472961,-118.0431903
5181,Ivywood Drive,90623,33.8470063,-118.0426801
5162,Huntswood Circle,90623,33.8472917,-118.0430211
5182,Ivywood Drive,90623,33.8465788,-118.0426759
7921,Inwood Lane,90623,33.8474997,-118.0436453
5152,Ivywood Drive,90623,33.8465834,-118.0431729
7961,Inwood Lane,90623,33.8469418,-118.0436268
7951,Inwood Lane,90623,33.8470784,-118.0436476
7981,Inwood Lane,90623,33.8466619,-118.0436151
5172,Ivywood Drive,90623,33.8465947,-118.0428466
7991,Inwood Lane,90623,33.8465250,-118.0436097
7931,Inwood Lane,90623,33.8473592,-118.0436393
7941,Inwood Lane,90623,33.8472199,-118.0436150
7911,Inwood Lane,90623,33.8476356,-118.0436447
7971,Inwood Lane,90623,33.8468020,-118.0436260
5162,Ivywood Drive,90623,33.8465902,-118.0430113
5031,Alder Lane,90623,33.8471010,-118.0452698
7992,Holly Drive,90623,33.8465203,-118.0439876
5051,Alder Lane,90623,33.8470864,-118.0449272
7972,Holly Drive,90623,33.8468159,-118.0439726
5091,Alder Lane,90623,33.8470321,-118.0442542
7962,Holly Drive,90623,33.8469702,-118.0440491
5041,Alder Lane,90623,33.8471189,-118.0451112
5081,Alder Lane,90623,33.8470165,-118.0444320
7982,Holly Drive,90623,33.8466650,-118.0439671
5071,Alder Lane,90623,33.8470133,-118.0445969
5061,Alder Lane,90623,33.8470436,-118.0447640
5052,La Palma Avenue,90623,33.8459445,-118.0452044
5072,Alder Lane,90623,33.8465765,-118.0445893
5082,Alder Lane,90623,33.8465664,-118.0444322
5062,La Palma Avenue,90623,33.8459896,-118.0449095
5062,Alder Lane,90623,33.8465985,-118.0447567
5052,Alder Lane,90623,33.8466047,-118.0449255
5042,Alder Lane,90623,33.8466394,-118.0451038
5096,La Palma Avenue,90623,33.8458678,-118.0441703
5090,La Palma Avenue,90623,33.8458684,-118.0443366
5084,La Palma Avenue,90623,33.8458664,-118.0445007
5078,La Palma Avenue,90623,33.8458647,-118.0446649
5072,La Palma Avenue,90623,33.8460435,-118.0446658
5102,La Palma Avenue,90623,33.8460462,-118.0441771
5126,La Palma Avenue,90623,33.8459558,-118.0435085
5122,La Palma Avenue,90623,33.8459556,-118.0436708
8012,Dawn Circle,90623,33.8460230,-118.0428541
8021,Dawn Circle,90623,33.8458581,-118.0432649
5112,La Palma Avenue,90623,33.8459827,-118.0438903
8011,Dawn Circle,90623,33.8460283,-118.0430176
5132,La Palma Avenue,90623,33.8460346,-118.0432622
8041,Dawn Circle,90623,33.8455479,-118.0432633
5181,Lena Drive,90623,33.8455006,-118.0426597
8031,Dawn Circle,90623,33.8456889,-118.0432598
5171,Lena Drive,90623,33.8455112,-118.0428198
8051,Dawn Circle,90623,33.8454123,-118.0432751
5062,Cottonwood Lane,90623,33.8473248,-118.0447678
5102,Cottonwood Lane,90623,33.8473123,-118.0440650
5082,Cottonwood Lane,90623,33.8472964,-118.0444406
7922,Willow Lane,90623,33.8474865,-118.0439494
5042,Cottonwood Lane,90623,33.8473690,-118.0451131
5052,Cottonwood Lane,90623,33.8473354,-118.0449324
5032,Cottonwood Lane,90623,33.8473527,-118.0452770
5092,Cottonwood Lane,90623,33.8472778,-118.0442593
5072,Cottonwood Lane,90623,33.8472971,-118.0446023
7912,Willow Lane,90623,33.8476358,-118.0439995
5171,Huntswood Circle,90623,33.8476784,-118.0428540
5162,Bridgewood Drive,90623,33.8479905,-118.0430417
5152,Bridgewood Drive,90623,33.8479842,-118.0432109
5182,Bridgewood Drive,90623,33.8479702,-118.0427090
5181,Huntswood Circle,90623,33.8477127,-118.0426896
5172,Bridgewood Drive,90623,33.8479869,-118.0428740
5161,Huntswood Circle,90623,33.8477062,-118.0430311
5151,Huntswood Circle,90623,33.8477103,-118.0431983
5162,Glenwood Circle,90623,33.8486933,-118.0430600
5151,Bridgewood Drive,90623,33.8484107,-118.0432202
5172,Glenwood Circle,90623,33.8486938,-118.0428902
5152,Glenwood Circle,90623,33.8486775,-118.0432231
5181,Bridgewood Drive,90623,33.8484040,-118.0427177
5182,Glenwood Circle,90623,33.8486759,-118.0427221
5171,Bridgewood Drive,90623,33.8483996,-118.0428843
5161,Bridgewood Drive,90623,33.8483962,-118.0430515
5162,Blairwood Drive,90623,33.8493635,-118.0430741
5171,Glenwood Circle,90623,33.8491067,-118.0428996
5182,Blairwood Drive,90623,33.8493792,-118.0427371
5152,Blairwood Drive,90623,33.8493808,-118.0432400
5181,Glenwood Circle,90623,33.8490922,-118.0427313
5161,Blairwood Drive,90623,33.8497924,-118.0431171
5172,Blairwood Drive,90623,33.8493807,-118.0429046
5181,Blairwood Drive,90623,33.8497942,-118.0427832
5161,Glenwood Circle,90623,33.8490860,-118.0430669
5171,Blairwood Drive,90623,33.8498114,-118.0429500
5151,Glenwood Circle,90623,33.8490872,-118.0432316
5131,Blairwood Drive,90623,33.8497939,-118.0436743
5141,Blairwood Drive,90623,33.8498358,-118.0434889
7861,Inwood Lane,90623,33.8483345,-118.0436762
7821,Inwood Lane,90623,33.8488938,-118.0436720
7791,Inwood Lane,90623,33.8493099,-118.0436850
7811,Inwood Lane,90623,33.8490326,-118.0436872
5151,Blairwood Drive,90623,33.8498089,-118.0432828
7771,Inwood Lane,90623,33.8496296,-118.0437492
7841,Inwood Lane,90623,33.8486136,-118.0436697
7831,Inwood Lane,90623,33.8487522,-118.0436832
7851,Inwood Lane,90623,33.8484744,-118.0436791
7781,Inwood Lane,90623,33.8494489,-118.0437058
7801,Inwood Lane,90623,33.8491695,-118.0437016
7822,Willow Lane,90623,33.8488714,-118.0440237
7891,Inwood Lane,90623,33.8479192,-118.0436701
7832,Willow Lane,90623,33.8487357,-118.0440090
7902,Willow Lane,90623,33.8477717,-118.0439943
7842,Willow Lane,90623,33.8485989,-118.0440184
7872,Willow Lane,90623,33.8481851,-118.0439850
7852,Willow Lane,90623,33.8484615,-118.0439990
7892,Willow Lane,90623,33.8479121,-118.0439877
7901,Inwood Lane,90623,33.8477790,-118.0436399
7862,Willow Lane,90623,33.8483262,-118.0439961
7882,Willow Lane,90623,33.8480457,-118.0440128
7871,Inwood Lane,90623,33.8481971,-118.0436687
7881,Inwood Lane,90623,33.8480614,-118.0436760
7792,Willow Lane,90623,33.8493006,-118.0440023
7812,Willow Lane,90623,33.8490143,-118.0440196
7772,Willow Lane,90623,33.8496319,-118.0439936
7802,Willow Lane,90623,33.8491552,-118.0440071
7782,Willow Lane,90623,33.8494653,-118.0440214
5101,Sharon Drive,90623,33.8497909,-118.0440940
5071,Sharon Drive,90623,33.8497838,-118.0446601
5061,Sharon Drive,90623,33.8497985,-118.0448227
5051,Sharon Drive,90623,33.8497824,-118.0449888
5031,Sharon Drive,90623,33.8497852,-118.0453198
5091,Sharon Drive,90623,33.8498182,-118.0443247
5041,Sharon Drive,90623,33.8497816,-118.0451517
5081,Sharon Drive,90623,33.8497882,-118.0444947
5042,Sharon Drive,90623,33.8493792,-118.0451206
5062,Sharon Drive,90623,33.8493838,-118.0447765
5072,Sharon Drive,90623,33.8493826,-118.0446046
5032,Sharon Drive,90623,33.8493755,-118.0452924
5052,Sharon Drive,90623,33.8493694,-118.0449565
5082,Sharon Drive,90623,33.8493840,-118.0444406
5062,Pine Circle,90623,33.8487013,-118.0447706
5042,Pine Circle,90623,33.8487039,-118.0451002
5031,Pine Circle,90623,33.8491010,-118.0452730
5072,Pine Circle,90623,33.8487017,-118.0446040
5041,Pine Circle,90623,33.8491085,-118.0451130
5081,Pine Circle,90623,33.8491120,-118.0444511
5052,Pine Circle,90623,33.8487086,-118.0449341
5032,Pine Circle,90623,33.8487092,-118.0452647
5082,Pine Circle,90623,33.8487132,-118.0444411
5031,Juniper Circle,90623,33.8484480,-118.0452600
5061,Juniper Circle,90623,33.8484415,-118.0447685
5041,Juniper Circle,90623,33.8484358,-118.0450957
5081,Juniper Circle,90623,33.8484343,-118.0444368
5051,Juniper Circle,90623,33.8484402,-118.0449307
5071,Juniper Circle,90623,33.8484352,-118.0446022
7901,Willow Lane,90623,33.8478038,-118.0445050
5052,Juniper Circle,90623,33.8480387,-118.0449018
5042,Juniper Circle,90623,33.8480188,-118.0450807
5032,Juniper Circle,90623,33.8480359,-118.0452438
7891,Willow Lane,90623,33.8479525,-118.0444765
7881,Willow Lane,90623,33.8480895,-118.0445122
5062,Juniper Circle,90623,33.8480359,-118.0447397
7911,Willow Lane,90623,33.8476665,-118.0444852
5031,Cottonwood Lane,90623,33.8477676,-118.0452286
5061,Cottonwood Lane,90623,33.8477674,-118.0447265
5051,Cottonwood Lane,90623,33.8477755,-118.0448918
5021,Cottonwood Lane,90623,33.8477787,-118.0453938
5041,Cottonwood Lane,90623,33.8477883,-118.0450546
5062,Shirley Drive,90623,33.8505571,-118.0449879
5082,Shirley Drive,90623,33.8505538,-118.0446526
5042,Shirley Drive,90623,33.8505396,-118.0453235
5052,Shirley Drive,90623,33.8505416,-118.0451560
5072,Shirley Drive,90623,33.8505489,-118.0448178
5092,Shirley Drive,90623,33.8505564,-118.0444830
5162,Shirley Drive,90623,33.8505612,-118.0432902
5152,Shirley Drive,90623,33.8505788,-118.0434626
5102,Shirley Drive,90623,33.8505455,-118.0443102
5122,Shirley Drive,90623,33.8505765,-118.0439705
5112,Shirley Drive,90623,33.8505533,-118.0441445
5192,Shirley Drive,90623,33.8506023,-118.0427381
5132,Shirley Drive,90623,33.8505624,-118.0438034
5182,Shirley Drive,90623,33.8505551,-118.0429512
5172,Shirley Drive,90623,33.8505638,-118.0431219
5142,Shirley Drive,90623,33.8505654,-118.0436301
5181,Marview Drive,90623,33.8516693,-118.0429541
5191,Marview Drive,90623,33.8516956,-118.0427274
7681,Tracy Lane,90623,33.8510659,-118.0430836
7671,Tracy Lane,90623,33.8512164,-118.0431149
7691,Tracy Lane,90623,33.8509241,-118.0430816
7661,Tracy Lane,90623,33.8513625,-118.0431096
7651,Tracy Lane,90623,33.8515363,-118.0431254
7672,Cory Circle,90623,33.8511970,-118.0434709
7692,Cory Circle,90623,33.8509216,-118.0434451
7652,Cory Circle,90623,33.8514800,-118.0433977
7662,Cory Circle,90623,33.8513358,-118.0434547
7682,Cory Circle,90623,33.8510571,-118.0434396
7642,Cory Circle,90623,33.8516339,-118.0434879
7631,Cory Circle,90623,33.8516882,-118.0436892
7651,Cory Circle,90623,33.8514713,-118.0439869
7661,Cory Circle,90623,33.8513316,-118.0439413
7641,Cory Circle,90623,33.8516508,-118.0438931
7671,Cory Circle,90623,33.8511975,-118.0439245
7681,Cory Circle,90623,33.8510548,-118.0439319
7691,Cory Circle,90623,33.8509178,-118.0439372
7662,Indigo Lane,90623,33.8513305,-118.0442719
7632,Indigo Lane,90623,33.8517454,-118.0442622
7692,Indigo Lane,90623,33.8509157,-118.0442597
7652,Indigo Lane,90623,33.8514685,-118.0442752
7682,Indigo Lane,90623,33.8510505,-118.0442641
7672,Indigo Lane,90623,33.8511911,-118.0442654
7642,Indigo Lane,90623,33.8516069,-118.0442755
5112,Andrew Drive,90623,33.8519558,-118.0441682
5142,Andrew Drive,90623,33.8519594,-118.0436635
5122,Andrew Drive,90623,33.8519454,-118.0439990
5132,Andrew Drive,90623,33.8519462,-118.0438266
5162,Andrew Drive,90623,33.8519610,-118.0433201
5182,Andrew Drive,90623,33.8519726,-118.0429812
5102,Andrew Drive,90623,33.8519508,-118.0443364
5152,Andrew Drive,90623,33.8519536,-118.0434903
5172,Andrew Drive,90623,33.8519479,-118.0431500
5192,Andrew Drive,90623,33.8519679,-118.0428172
5052,Andrew Drive,90623,33.8518896,-118.0451959
5082,Andrew Drive,90623,33.8518962,-118.0447023
5072,Andrew Drive,90623,33.8518850,-118.0448681
5062,Andrew Drive,90623,33.8518997,-118.0450327
5042,Andrew Drive,90623,33.8518578,-118.0453656
5051,Lynn Circle,90623,33.8516399,-118.0451914
5072,Lynn Circle,90623,33.8512215,-118.0448571
5042,Lynn Circle,90623,33.8511937,-118.0453524
5081,Lynn Circle,90623,33.8516405,-118.0446977
5062,Lynn Circle,90623,33.8512226,-118.0450201
5061,Lynn Circle,90623,33.8516259,-118.0450264
5071,Lynn Circle,90623,33.8516281,-118.0448596
5082,Lynn Circle,90623,33.8512354,-118.0446913
5052,Lynn Circle,90623,33.8512303,-118.0451843
5041,Lynn Circle,90623,33.8516393,-118.0453607
5081,Shirley Drive,90623,33.8509688,-118.0446817
5051,Shirley Drive,90623,33.8509349,-118.0451750
5041,Shirley Drive,90623,33.8509610,-118.0453407
5071,Shirley Drive,90623,33.8509540,-118.0448470
5061,Shirley Drive,90623,33.8509498,-118.0450111
5081,Andrew Drive,90623,33.8523130,-118.0447068
5061,Andrew Drive,90623,33.8523185,-118.0450383
5071,Andrew Drive,90623,33.8523071,-118.0448705
5041,Andrew Drive,90623,33.8523146,-118.0453691
5051,Andrew Drive,90623,33.8523031,-118.0452021
5052,Scott Circle,90623,33.8525643,-118.0452073
5082,Scott Circle,90623,33.8525712,-118.0447140
5062,Scott Circle,90623,33.8525881,-118.0450461
5042,Scott Circle,90623,33.8525435,-118.0453754
5072,Scott Circle,90623,33.8525844,-118.0448777
5071,Scott Circle,90623,33.8529681,-118.0448838
5061,Scott Circle,90623,33.8529697,-118.0450520
5051,Scott Circle,90623,33.8529601,-118.0452160
5081,Scott Circle,90623,33.8529775,-118.0447224
5041,Scott Circle,90623,33.8529847,-118.0453802
5042,Houston Avenue,90623,33.8532885,-118.0453927
5052,Houston Avenue,90623,33.8532590,-118.0452227
5062,Houston Avenue,90623,33.8532496,-118.0450558
5082,Houston Avenue,90623,33.8532842,-118.0447252
5072,Houston Avenue,90623,33.8532601,-118.0448869
5122,Toulouse Drive,90623,33.8538823,-118.0440052
5112,Toulouse Drive,90623,33.8538534,-118.0441660
5052,Toulouse Drive,90623,33.8538687,-118.0451954
5082,Toulouse Drive,90623,33.8538724,-118.0446656
5072,Toulouse Drive,90623,33.8538642,-118.0448236
5042,Toulouse Drive,90623,33.8538470,-118.0453700
5092,Toulouse Drive,90623,33.8538691,-118.0444952
5102,Toulouse Drive,90623,33.8538673,-118.0443353
5132,Toulouse Drive,90623,33.8538959,-118.0438358
5172,Toulouse Drive,90623,33.8538821,-118.0431769
5152,Toulouse Drive,90623,33.8538683,-118.0435068
5142,Toulouse Drive,90623,33.8538725,-118.0436773
5192,Toulouse Drive,90623,33.8538894,-118.0428524
5162,Toulouse Drive,90623,33.8538802,-118.0433469
5182,Toulouse Drive,90623,33.8538828,-118.0430176
5181,Toulouse Drive,90623,33.8542675,-118.0430466
5201,Toulouse Drive,90623,33.8542705,-118.0427153
5151,Toulouse Drive,90623,33.8542787,-118.0435401
5191,Toulouse Drive,90623,33.8542906,-118.0428778
5171,Toulouse Drive,90623,33.8542762,-118.0432086
5161,Toulouse Drive,90623,33.8542708,-118.0433751
5071,Toulouse Drive,90623,33.8542573,-118.0448602
5141,Toulouse Drive,90623,33.8542682,-118.0437021
5081,Toulouse Drive,90623,33.8542718,-118.0446912
5131,Toulouse Drive,90623,33.8542751,-118.0438710
5091,Toulouse Drive,90623,33.8542658,-118.0445293
5101,Toulouse Drive,90623,33.8542842,-118.0443627
5121,Toulouse Drive,90623,33.8542896,-118.0440332
5041,Toulouse Drive,90623,33.8542646,-118.0453497
5051,Toulouse Drive,90623,33.8542551,-118.0451862
5111,Toulouse Drive,90623,33.8542772,-118.0441965
5061,Toulouse Drive,90623,33.8542485,-118.0450206
5102,Dumaine Drive,90623,33.8545254,-118.0443680
5042,Dumaine Drive,90623,33.8545277,-118.0453633
5062,Dumaine Drive,90623,33.8545446,-118.0450254
5112,Dumaine Drive,90623,33.8545395,-118.0442002
5152,Dumaine Drive,90623,33.8545431,-118.0435405
5052,Dumaine Drive,90623,33.8545359,-118.0451891
5122,Dumaine Drive,90623,33.8545528,-118.0440380
5182,Dumaine Drive,90623,33.8545455,-118.0430514
5072,Dumaine Drive,90623,33.8545360,-118.0448570
5132,Dumaine Drive,90623,33.8545510,-118.0438714
5142,Dumaine Drive,90623,33.8545445,-118.0437091
5092,Dumaine Drive,90623,33.8545376,-118.0445294
5162,Dumaine Drive,90623,33.8545404,-118.0433795
5172,Dumaine Drive,90623,33.8545479,-118.0432124
5082,Dumaine Drive,90623,33.8545301,-118.0446970
5181,Dumaine Drive,90623,33.8549546,-118.0430500
5131,Dumaine Drive,90623,33.8549334,-118.0438773
5201,Dumaine Drive,90623,33.8549579,-118.0427227
5171,Dumaine Drive,90623,33.8549669,-118.0432183
5151,Dumaine Drive,90623,33.8549480,-118.0435457
5091,Dumaine Drive,90623,33.8549272,-118.0445357
5101,Dumaine Drive,90623,33.8549546,-118.0443667
5111,Dumaine Drive,90623,33.8549349,-118.0442050
5191,Dumaine Drive,90623,33.8549466,-118.0428893
5202,Dumaine Drive,90623,33.8545641,-118.0427225
5141,Dumaine Drive,90623,33.8549431,-118.0437088
5161,Dumaine Drive,90623,33.8549587,-118.0433785
5071,Dumaine Drive,90623,33.8549404,-118.0448663
5121,Dumaine Drive,90623,33.8549466,-118.0440394
5192,Dumaine Drive,90623,33.8545620,-118.0428807
5081,Dumaine Drive,90623,33.8549348,-118.0447042
5052,Decatur Drive,90623,33.8552172,-118.0451987
5041,Dumaine Drive,90623,33.8549368,-118.0453555
5102,Decatur Drive,90623,33.8552194,-118.0443701
5062,Decatur Drive,90623,33.8552099,-118.0450307
5112,Decatur Drive,90623,33.8552240,-118.0442087
5072,Decatur Drive,90623,33.8552058,-118.0448692
5082,Decatur Drive,90623,33.8552147,-118.0446993
5061,Dumaine Drive,90623,33.8549195,-118.0450271
5051,Dumaine Drive,90623,33.8549382,-118.0451942
5092,Decatur Drive,90623,33.8552159,-118.0445409
5042,Decatur Drive,90623,33.8552030,-118.0453585
5122,Decatur Drive,90623,33.8552338,-118.0440407
5152,Decatur Drive,90623,33.8551978,-118.0435528
5142,Decatur Drive,90623,33.8552267,-118.0437127
5132,Decatur Drive,90623,33.8552204,-118.0438815
5202,Decatur Drive,90623,33.8552253,-118.0427258
5182,Decatur Drive,90623,33.8552308,-118.0430528
5172,Decatur Drive,90623,33.8552227,-118.0432175
5192,Decatur Drive,90623,33.8552224,-118.0428887
5162,Decatur Drive,90623,33.8552198,-118.0433810
5131,Decatur Drive,90623,33.8556042,-118.0438790
5071,Decatur Drive,90623,33.8556057,-118.0448695
5181,Decatur Drive,90623,33.8556210,-118.0430571
5191,Decatur Drive,90623,33.8556204,-118.0428885
5111,Decatur Drive,90623,33.8556102,-118.0442048
5081,Decatur Drive,90623,33.8556087,-118.0447009
5101,Decatur Drive,90623,33.8556099,-118.0443752
5201,Decatur Drive,90623,33.8556380,-118.0427259
5171,Decatur Drive,90623,33.8556395,-118.0432141
5091,Decatur Drive,90623,33.8556055,-118.0445393
5161,Decatur Drive,90623,33.8556202,-118.0433806
5141,Decatur Drive,90623,33.8556141,-118.0437122
5151,Decatur Drive,90623,33.8556155,-118.0435516
5121,Decatur Drive,90623,33.8556136,-118.0440425
7312,Rampart Lane,90623,33.8561119,-118.0448659
7326,Rampart Lane,90623,33.8559159,-118.0450903
5051,Decatur Drive,90623,33.8556044,-118.0451982
5061,Decatur Drive,90623,33.8556050,-118.0450299
5041,Decatur Drive,90623,33.8555971,-118.0453580
7322,Rampart Lane,90623,33.8560263,-118.0449810
7332,Rampart Lane,90623,33.8558289,-118.0452617
5092,Bransford Drive,90623,33.8558750,-118.0445953
5082,Bransford Drive,90623,33.8558960,-118.0447697
5122,Bransford Drive,90623,33.8558837,-118.0440458
5102,Bransford Drive,90623,33.8558731,-118.0443767
5142,Bransford Drive,90623,33.8558889,-118.0437150
5132,Bransford Drive,90623,33.8558952,-118.0438850
5112,Bransford Drive,90623,33.8558845,-118.0442087
5151,Bransford Drive,90623,33.8562779,-118.0435566
5192,Bransford Drive,90623,33.8559067,-118.0428924
5182,Bransford Drive,90623,33.8558903,-118.0430603
5181,Bransford Drive,90623,33.8563135,-118.0430674
5111,Bransford Drive,90623,33.8562733,-118.0442183
5131,Bransford Drive,90623,33.8562843,-118.0438866
5171,Bransford Drive,90623,33.8563025,-118.0432304
5162,Bransford Drive,90623,33.8558909,-118.0433908
5172,Bransford Drive,90623,33.8558807,-118.0432239
5201,Bransford Drive,90623,33.8563070,-118.0427369
5191,Bransford Drive,90623,33.8562919,-118.0428989
5152,Bransford Drive,90623,33.8558905,-118.0435512
5202,Bransford Drive,90623,33.8558951,-118.0427315
5161,Bransford Drive,90623,33.8563062,-118.0433955
5141,Bransford Drive,90623,33.8562936,-118.0437251
5121,Bransford Drive,90623,33.8562830,-118.0440545
7282,Rampart Lane,90623,33.8564786,-118.0443286
5252,Iberville Circle,90623,33.8565250,-118.0435009
5232,Iberville Circle,90623,33.8567131,-118.0438358
7272,Rampart Lane,90623,33.8565732,-118.0441818
5242,Iberville Circle,90623,33.8565938,-118.0437061
7292,Rampart Lane,90623,33.8563996,-118.0444380
7302,Rampart Lane,90623,33.8563106,-118.0445696
7262,Rampart Lane,90623,33.8566454,-118.0440602
5262,Iberville Circle,90623,33.8565551,-118.0433332
5272,Iberville Circle,90623,33.8565312,-118.0431745
5292,Iberville Circle,90623,33.8566296,-118.0428039
5282,Iberville Circle,90623,33.8565420,-118.0428886
7311,Rampart Lane,90623,33.8563849,-118.0452525
7291,Rampart Lane,90623,33.8566794,-118.0448116
7285,Rampart Lane,90623,33.8567610,-118.0447146
7295,Rampart Lane,90623,33.8565858,-118.0449566
7315,Rampart Lane,90623,33.8563046,-118.0453577
7301,Rampart Lane,90623,33.8564886,-118.0451010
7215,Rampart Lane,90623,33.8577071,-118.0432838
7261,Rampart Lane,90623,33.8570300,-118.0443081
7271,Rampart Lane,90623,33.8569303,-118.0444533
7221,Rampart Lane,90623,33.8576150,-118.0434377
7235,Rampart Lane,90623,33.8573760,-118.0437985
7251,Rampart Lane,90623,33.8570952,-118.0441938
7281,Rampart Lane,90623,33.8568419,-118.0445653
5222,Iberville Circle,90623,33.8568239,-118.0439120
7245,Rampart Lane,90623,33.8571884,-118.0440512
7231,Rampart Lane,90623,33.8574524,-118.0436749
7225,Rampart Lane,90623,33.8575465,-118.0435397
7241,Rampart Lane,90623,33.8572817,-118.0439429
7201,Rampart Lane,90623,33.8578787,-118.0430279
7191,Rampart Lane,90623,33.8580662,-118.0427766
7216,Rampart Lane,90623,33.8573338,-118.0430467
7195,Rampart Lane,90623,33.8579713,-118.0429176
7202,Rampart Lane,90623,33.8574874,-118.0428098
7211,Rampart Lane,90623,33.8577944,-118.0431581
7212,Rampart Lane,90623,33.8574268,-118.0429357
5221,Iberville Circle,90623,33.8570726,-118.0435112
5281,Iberville Circle,90623,33.8570130,-118.0430181
5291,Iberville Circle,90623,33.8569132,-118.0428314
7226,Rampart Lane,90623,33.8571653,-118.0433096
5271,Iberville Circle,90623,33.8569624,-118.0433362
7222,Rampart Lane,90623,33.8572462,-118.0431918
7321,Rampart Lane,90623,33.8562217,-118.0454929
7361,Rampart Lane,90623,33.8555474,-118.0458162
7325,Rampart Lane,90623,33.8561261,-118.0456041
7331,Rampart Lane,90623,33.8559800,-118.0457266
7351,Rampart Lane,90623,33.8556828,-118.0458275
7341,Rampart Lane,90623,33.8558512,-118.0457820
7441,Rampart Lane,90623,33.8544471,-118.0457855
7401,Rampart Lane,90623,33.8549944,-118.0458151
7431,Rampart Lane,90623,33.8545796,-118.0457980
7411,Rampart Lane,90623,33.8548557,-118.0458055
7421,Rampart Lane,90623,33.8547223,-118.0458183
7371,Rampart Lane,90623,33.8554060,-118.0458417
7381,Rampart Lane,90623,33.8552709,-118.0458183
7391,Rampart Lane,90623,33.8551293,-118.0458139
7471,Rampart Lane,90623,33.8539188,-118.0457701
7451,Rampart Lane,90623,33.8543060,-118.0458080
5032,Toulouse Drive,90623,33.8538248,-118.0455300
7461,Rampart Lane,90623,33.8541685,-118.0458278
5031,Scott Circle,90623,33.8529994,-118.0455487
5032,Houston Avenue,90623,33.8532523,-118.0455625
5021,Scott Circle,90623,33.8529643,-118.0457577
5012,Scott Circle,90623,33.8526882,-118.0458402
5022,Houston Avenue,90623,33.8532150,-118.0457200
5011,Scott Circle,90623,33.8528283,-118.0458464
5012,Houston Avenue,90623,33.8531951,-118.0458877
5031,Andrew Drive,90623,33.8523357,-118.0455355
5022,Scott Circle,90623,33.8525622,-118.0457536
5011,Andrew Drive,90623,33.8521560,-118.0458254
5032,Scott Circle,90623,33.8525154,-118.0455399
5021,Andrew Drive,90623,33.8522972,-118.0457082
7562,Silverado Lane,90623,33.8526623,-118.0464744
4972,Santiago Drive,90623,33.8521716,-118.0465044
4962,Santiago Drive,90623,33.8521467,-118.0467080
4892,Santiago Drive,90623,33.8521782,-118.0478820
7522,Silverado Lane,90623,33.8532401,-118.0464756
4882,Santiago Drive,90623,33.8521659,-118.0480491
7542,Silverado Lane,90623,33.8529673,-118.0464845
7572,Silverado Lane,90623,33.8525251,-118.0464673
4942,Santiago Drive,90623,33.8521671,-118.0470415
4922,Santiago Drive,90623,33.8521804,-118.0473674
4902,Santiago Drive,90623,33.8521464,-118.0477185
7502,Silverado Lane,90623,33.8535341,-118.0464641
7512,Silverado Lane,90623,33.8533785,-118.0464590
7582,Silverado Lane,90623,33.8523889,-118.0464117
4952,Santiago Drive,90623,33.8521771,-118.0468740
7532,Silverado Lane,90623,33.8531030,-118.0464746
7501,Silverado Lane,90623,33.8535174,-118.0470144
7531,Silverado Lane,90623,33.8530763,-118.0469585
7511,Silverado Lane,90623,33.8533508,-118.0469790
7571,Silverado Lane,90623,33.8525303,-118.0469829
7541,Silverado Lane,90623,33.8529404,-118.0469500
7561,Silverado Lane,90623,33.8526651,-118.0469660
7521,Silverado Lane,90623,33.8532144,-118.0469595
7551,Silverado Lane,90623,33.8528022,-118.0469596
7512,Black Star Lane,90623,33.8533496,-118.0472834
7542,Black Star Lane,90623,33.8529389,-118.0473088
7522,Black Star Lane,90623,33.8532119,-118.0473118
7532,Black Star Lane,90623,33.8530744,-118.0473310
7502,Black Star Lane,90623,33.8535151,-118.0472899
7571,Black Star Lane,90623,33.8525215,-118.0477820
7521,Black Star Lane,90623,33.8532072,-118.0477892
7561,Black Star Lane,90623,33.8526551,-118.0477869
7531,Black Star Lane,90623,33.8530716,-118.0478018
7551,Black Star Lane,90623,33.8527947,-118.0477863
7511,Black Star Lane,90623,33.8533421,-118.0478285
7541,Black Star Lane,90623,33.8529338,-118.0477900
7501,Black Star Lane,90623,33.8535095,-118.0478393
7522,Trabuco Lane,90623,33.8532044,-118.0481255
7552,Trabuco Lane,90623,33.8527923,-118.0481121
7512,Trabuco Lane,90623,33.8533421,-118.0481372
7532,Trabuco Lane,90623,33.8530674,-118.0481444
7542,Trabuco Lane,90623,33.8529300,-118.0481253
7502,Trabuco Lane,90623,33.8534804,-118.0481521
7562,Trabuco Lane,90623,33.8526549,-118.0481259
7572,Trabuco Lane,90623,33.8525168,-118.0481050
5032,Andrew Drive,90623,33.8518630,-118.0455276
5021,Lynn Circle,90623,33.8515990,-118.0457368
5031,Lynn Circle,90623,33.8516710,-118.0455452
5012,Andrew Drive,90623,33.8520173,-118.0458393
5011,Lynn Circle,90623,33.8514052,-118.0458034
5022,Andrew Drive,90623,33.8518900,-118.0457589
5012,Shirley Drive,90623,33.8505356,-118.0458247
5032,Shirley Drive,90623,33.8505266,-118.0454883
5032,Lynn Circle,90623,33.8511847,-118.0455204
5022,Lynn Circle,90623,33.8512389,-118.0457311
5011,Shirley Drive,90623,33.8509556,-118.0458355
5031,Shirley Drive,90623,33.8509508,-118.0455066
5022,Shirley Drive,90623,33.8505408,-118.0456602
5021,Shirley Drive,90623,33.8509522,-118.0456743
4922,El Rancho Verde Drive,90623,33.8505246,-118.0473145
4882,El Rancho Verde Drive,90623,33.8505264,-118.0479756
4952,El Rancho Verde Drive,90623,33.8505114,-118.0468136
4962,El Rancho Verde Drive,90623,33.8504938,-118.0465957
4892,El Rancho Verde Drive,90623,33.8505228,-118.0478126
4941,El Rancho Verde Drive,90623,33.8509300,-118.0469892
4942,El Rancho Verde Drive,90623,33.8505305,-118.0469858
4912,El Rancho Verde Drive,90623,33.8505106,-118.0474820
4902,El Rancho Verde Drive,90623,33.8505320,-118.0476437
4972,El Rancho Verde Drive,90623,33.8506041,-118.0464406
4961,El Rancho Verde Drive,90623,33.8509538,-118.0465340
4872,El Rancho Verde Drive,90623,33.8505016,-118.0481432
4971,El Rancho Verde Drive,90623,33.8508517,-118.0464020
4951,El Rancho Verde Drive,90623,33.8509323,-118.0468280
4932,El Rancho Verde Drive,90623,33.8505137,-118.0471520
4931,El Rancho Verde Drive,90623,33.8509381,-118.0471585
7642,Carbon Circle,90623,33.8515638,-118.0480696
7662,Carbon Circle,90623,33.8512882,-118.0481027
4901,El Rancho Verde Drive,90623,33.8509202,-118.0476845
4921,El Rancho Verde Drive,90623,33.8509227,-118.0473246
7672,Carbon Circle,90623,33.8511515,-118.0481156
7652,Carbon Circle,90623,33.8514283,-118.0480987
7682,Carbon Circle,90623,33.8510114,-118.0481180
7692,Carbon Circle,90623,33.8508726,-118.0481010
4891,El Rancho Verde Drive,90623,33.8509329,-118.0478458
7651,Black Star Lane,90623,33.8514085,-118.0477550
7641,Black Star Lane,90623,33.8515431,-118.0477664
7631,Black Star Lane,90623,33.8516841,-118.0477731
7621,Black Star Lane,90623,33.8518165,-118.0477927
7661,Black Star Lane,90623,33.8512649,-118.0477463
7671,Black Star Lane,90623,33.8511308,-118.0477773
7632,Carbon Circle,90623,33.8517893,-118.0480818
7611,Black Star Lane,90623,33.8519535,-118.0477820
4971,Borrego Drive,90623,33.8519092,-118.0465404
4931,Borrego Drive,90623,33.8519038,-118.0472005
7672,Black Star Lane,90623,33.8511352,-118.0472553
7662,Black Star Lane,90623,33.8512707,-118.0472603
4941,Borrego Drive,90623,33.8518910,-118.0470347
4961,Borrego Drive,90623,33.8518940,-118.0467053
7642,Black Star Lane,90623,33.8515466,-118.0472676
4951,Borrego Drive,90623,33.8518972,-118.0468718
7652,Black Star Lane,90623,33.8514113,-118.0472429
4921,Borrego Drive,90623,33.8518915,-118.0473638
4981,Borrego Drive,90623,33.8519130,-118.0463764
7641,Sierra Circle,90623,33.8515493,-118.0469257
7671,Sierra Circle,90623,33.8511370,-118.0469610
7651,Sierra Circle,90623,33.8514122,-118.0469310
7661,Sierra Circle,90623,33.8512708,-118.0469760
7662,Sierra Circle,90623,33.8512774,-118.0464013
7642,Sierra Circle,90623,33.8515526,-118.0464471
7652,Sierra Circle,90623,33.8514162,-118.0464190
7672,Sierra Circle,90623,33.8511396,-118.0463889
5011,Pine Circle,90623,33.8491222,-118.0456051
5011,Sharon Drive,90623,33.8498013,-118.0456498
5022,Sharon Drive,90623,33.8493661,-118.0454621
5012,Sharon Drive,90623,33.8493760,-118.0456411
5001,Sharon Drive,90623,33.8497927,-118.0458131
5021,Sharon Drive,90623,33.8497773,-118.0454838
5002,Sharon Drive,90623,33.8493721,-118.0458052
5021,Pine Circle,90623,33.8491176,-118.0454399
5001,Pine Circle,90623,33.8491054,-118.0458017
5011,Cottonwood Lane,90623,33.8477689,-118.0456237
5002,Pine Circle,90623,33.8486792,-118.0457948
5002,Juniper Circle,90623,33.8479925,-118.0457831
5012,Pine Circle,90623,33.8486962,-118.0455980
5022,Pine Circle,90623,33.8486991,-118.0454294
5021,Juniper Circle,90623,33.8484170,-118.0454263
5022,Juniper Circle,90623,33.8480320,-118.0454236
5011,Juniper Circle,90623,33.8484477,-118.0455939
5001,Juniper Circle,90623,33.8484380,-118.0457952
5012,Juniper Circle,90623,33.8480081,-118.0455890
4992,Berton Circle,90623,33.8477682,-118.0463045
4982,Berton Circle,90623,33.8477860,-118.0464691
4972,Berton Circle,90623,33.8477649,-118.0466349
4962,Berton Circle,90623,33.8477695,-118.0467972
4952,Berton Circle,90623,33.8477899,-118.0469650
7911,Ash Lane,90623,33.8476628,-118.0457225
4942,Berton Circle,90623,33.8477713,-118.0471290
4892,Sandy Circle,90623,33.8477256,-118.0478102
4902,Sandy Circle,90623,33.8477423,-118.0476266
4882,Sandy Circle,90623,33.8477953,-118.0479818
4922,Berton Circle,90623,33.8477433,-118.0474615
4932,Berton Circle,90623,33.8477496,-118.0472922
4961,Berton Circle,90623,33.8482129,-118.0468082
4921,Berton Circle,90623,33.8482108,-118.0474663
4891,Sandy Circle,90623,33.8482169,-118.0478029
4991,Berton Circle,90623,33.8482176,-118.0463136
4901,Sandy Circle,90623,33.8481884,-118.0476344
7822,Norann Circle,90623,33.8489810,-118.0480767
4971,Berton Circle,90623,33.8482061,-118.0466448
4881,Sandy Circle,90623,33.8482174,-118.0479711
4981,Berton Circle,90623,33.8481800,-118.0464748
7852,Norann Circle,90623,33.8485413,-118.0480455
4931,Berton Circle,90623,33.8482143,-118.0473029
7832,Norann Circle,90623,33.8488451,-118.0480632
7842,Norann Circle,90623,33.8487078,-118.0480141
4951,Berton Circle,90623,33.8481892,-118.0469720
4941,Berton Circle,90623,33.8481803,-118.0471360
4871,Sandy Circle,90623,33.8482129,-118.0481353
7792,Norann Circle,90623,33.8493937,-118.0480860
7831,Jennifer Circle,90623,33.8488473,-118.0477348
7812,Norann Circle,90623,33.8491187,-118.0480681
7801,Jennifer Circle,90623,33.8492606,-118.0477355
7811,Jennifer Circle,90623,33.8491196,-118.0477417
7841,Jennifer Circle,90623,33.8487099,-118.0477772
7791,Jennifer Circle,90623,33.8493982,-118.0477141
7802,Norann Circle,90623,33.8492557,-118.0480722
7851,Jennifer Circle,90623,33.8485382,-118.0477364
7821,Jennifer Circle,90623,33.8489868,-118.0477460
7861,Jennifer Circle,90623,33.8484619,-118.0475708
7842,Jennifer Circle,90623,33.8487172,-118.0471796
7811,Nancy Circle,90623,33.8491295,-118.0468896
7791,Nancy Circle,90623,33.8494024,-118.0469032
7801,Nancy Circle,90623,33.8492680,-118.0468842
7862,Jennifer Circle,90623,33.8484569,-118.0474004
7822,Jennifer Circle,90623,33.8489893,-118.0472521
7852,Jennifer Circle,90623,33.8485193,-118.0472362
7792,Jennifer Circle,90623,33.8494008,-118.0472516
7831,Nancy Circle,90623,33.8488539,-118.0469109
7812,Jennifer Circle,90623,33.8491254,-118.0472475
7802,Jennifer Circle,90623,33.8492638,-118.0472481
7832,Jennifer Circle,90623,33.8488519,-118.0472203
7821,Nancy Circle,90623,33.8489912,-118.0468860
7852,Nancy Circle,90623,33.8485237,-118.0463752
7861,Nancy Circle,90623,33.8484733,-118.0467241
7832,Nancy Circle,90623,33.8488606,-118.0463587
7862,Nancy Circle,90623,33.8484823,-118.0465462
7841,Nancy Circle,90623,33.8487174,-118.0469380
7792,Nancy Circle,90623,33.8494057,-118.0464002
7822,Nancy Circle,90623,33.8489953,-118.0464090
7851,Nancy Circle,90623,33.8485386,-118.0469116
7842,Nancy Circle,90623,33.8487236,-118.0463501
7802,Nancy Circle,90623,33.8492696,-118.0463883
7812,Nancy Circle,90623,33.8491330,-118.0464044
4891,Sharon Drive,90623,33.8497568,-118.0479734
4971,Sharon Drive,90623,33.8497562,-118.0466596
4881,Sharon Drive,90623,33.8497466,-118.0481386
4931,Sharon Drive,90623,33.8497757,-118.0473145
4911,Sharon Drive,90623,33.8497533,-118.0476434
4921,Sharon Drive,90623,33.8497583,-118.0474820
4991,Sharon Drive,90623,33.8497631,-118.0463251
4901,Sharon Drive,90623,33.8497664,-118.0478073
4961,Sharon Drive,90623,33.8497602,-118.0468200
4941,Sharon Drive,90623,33.8497573,-118.0471493
4981,Sharon Drive,90623,33.8497634,-118.0464942
4951,Sharon Drive,90623,33.8497699,-118.0469844
7931,Ash Lane,90623,33.8473301,-118.0457067
7921,Ash Lane,90623,33.8474698,-118.0457341
7951,Ash Lane,90623,33.8470565,-118.0457291
7961,Ash Lane,90623,33.8469186,-118.0457148
7941,Ash Lane,90623,33.8471941,-118.0457114
4942,La Palma Avenue,90623,33.8456656,-118.0467837
8001,Yorkshire Circle,90623,33.8460527,-118.0478077
8011,Yorkshire Circle,90623,33.8459116,-118.0478336
8021,Yorkshire Circle,90623,33.8457688,-118.0477816
8041,Yorkshire Circle,90623,33.8454845,-118.0477330
8031,Yorkshire Circle,90623,33.8456245,-118.0477236
8052,Yorkshire Circle,90623,33.8453532,-118.0472500
8022,Yorkshire Circle,90623,33.8457711,-118.0472638
4982,La Palma Avenue,90623,33.8458118,-118.0464737
8042,Yorkshire Circle,90623,33.8454895,-118.0472582
8012,Yorkshire Circle,90623,33.8459122,-118.0472326
8032,Yorkshire Circle,90623,33.8456288,-118.0472594
8002,Yorkshire Circle,90623,33.8460600,-118.0472624
8051,Yorkshire Circle,90623,33.8453453,-118.0477440
8002,Louise Lane,90623,33.8460542,-118.0481428
8012,Louise Lane,90623,33.8459085,-118.0481543
8022,Louise Lane,90623,33.8457601,-118.0481075
8032,Louise Lane,90623,33.8456251,-118.0481070
8042,Louise Lane,90623,33.8454833,-118.0480827
8052,Louise Lane,90623,33.8453443,-118.0480602
5002,Elben Drive,90623,33.8449782,-118.0463597
4931,Elben Drive,90623,33.8446311,-118.0469012
4972,Elben Drive,90623,33.8445082,-118.0463392
4962,Elben Drive,90623,33.8443478,-118.0463390
5001,Elben Drive,90623,33.8449740,-118.0468685
4992,Elben Drive,90623,33.8448127,-118.0463762
4982,Elben Drive,90623,33.8446633,-118.0463386
8071,Yorkshire Circle,90623,33.8450621,-118.0477186
8062,Yorkshire Circle,90623,33.8452091,-118.0472554
8081,Yorkshire Circle,90623,33.8449282,-118.0477439
8072,Yorkshire Circle,90623,33.8450694,-118.0472660
8082,Yorkshire Circle,90623,33.8449291,-118.0472525
8061,Yorkshire Circle,90623,33.8452090,-118.0477557
4922,Elben Drive,90623,33.8445661,-118.0471704
4882,Elben Drive,90623,33.8445643,-118.0478423
8072,Louise Lane,90623,33.8450598,-118.0480538
4941,Elben Drive,90623,33.8444940,-118.0469153
4872,Elben Drive,90623,33.8445762,-118.0480085
4892,Elben Drive,90623,33.8445654,-118.0476735
4902,Elben Drive,90623,33.8445678,-118.0475085
8082,Louise Lane,90623,33.8449249,-118.0480549
8062,Louise Lane,90623,33.8452022,-118.0480578
4912,Elben Drive,90623,33.8445679,-118.0473395
4921,Windsong Avenue,90623,33.8441630,-118.0472138
4901,Windsong Avenue,90623,33.8442885,-118.0475524
4911,Windsong Avenue,90623,33.8442540,-118.0473610
4871,Windsong Avenue,90623,33.8442891,-118.0479452
4941,Windsong Avenue,90623,33.8441226,-118.0467992
4861,Windsong Avenue,90623,33.8442898,-118.0481346
4881,Windsong Avenue,90623,33.8442867,-118.0477529
4931,Windsong Avenue,90623,33.8441183,-118.0469783
4952,Windsong Avenue,90623,33.8437384,-118.0466129
4971,Windsong Avenue,90623,33.8441401,-118.0462530
4972,Windsong Avenue,90623,33.8437163,-118.0462483
4951,Windsong Avenue,90623,33.8441294,-118.0466144
4932,Windsong Avenue,90623,33.8437313,-118.0469782
4942,Windsong Avenue,90623,33.8437343,-118.0467914
4961,Windsong Avenue,90623,33.8441339,-118.0464409
4962,Windsong Avenue,90623,33.8437299,-118.0464354
8172,Suffield Street,90623,33.8431367,-118.0472398
8162,Suffield Street,90623,33.8432949,-118.0472077
8152,Suffield Street,90623,33.8434544,-118.0472240
8142,Suffield Street,90623,33.8436100,-118.0472384
8132,Suffield Street,90623,33.8437854,-118.0472252
8162,Bellhaven Street,90623,33.8432338,-118.0480405
8171,Suffield Street,90623,33.8432072,-118.0476945
8172,Bellhaven Street,90623,33.8430708,-118.0481167
8161,Suffield Street,90623,33.8433635,-118.0476962
8141,Suffield Street,90623,33.8436632,-118.0476955
8151,Suffield Street,90623,33.8435124,-118.0476986
8152,Bellhaven Street,90623,33.8433949,-118.0479892
8181,Suffield Street,90623,33.8430421,-118.0477645
8142,Bellhaven Street,90623,33.8435541,-118.0479937
8132,Bellhaven Street,90623,33.8437088,-118.0479968
4882,Windsong Avenue,90623,33.8438738,-118.0476382
4862,Windsong Avenue,90623,33.8439062,-118.0480285
4872,Windsong Avenue,90623,33.8438908,-118.0478389
5011,La Luna Drive,90623,33.8432267,-118.0455665
8122,Moody Street,90623,33.8444498,-118.0455611
4951,Elben Drive,90623,33.8443438,-118.0469389
8201,Suffield Street,90623,33.8427915,-118.0479786
8191,Suffield Street,90623,33.8429200,-118.0478663
8222,Suffield Street,90623,33.8424648,-118.0476895
8221,Suffield Street,90623,33.8425404,-118.0481776
8192,Suffield Street,90623,33.8428186,-118.0473262
8182,Suffield Street,90623,33.8429680,-118.0472483
8211,Suffield Street,90623,33.8426760,-118.0480785
8202,Suffield Street,90623,33.8426732,-118.0474102
8212,Suffield Street,90623,33.8425605,-118.0475619
8232,Suffield Street,90623,33.8423388,-118.0477817
8252,Suffield Street,90623,33.8421010,-118.0480141
4922,Starling Way,90623,33.8418771,-118.0476037
8262,Suffield Street,90623,33.8419700,-118.0481132
8311,Meadowlark Lane,90623,33.8414786,-118.0477694
4932,Starling Way,90623,33.8418040,-118.0473679
8301,Meadowlark Lane,90623,33.8416184,-118.0476604
8242,Suffield Street,90623,33.8422077,-118.0479174
8251,Sparrow Lane,90623,33.8424630,-118.0467828
4961,Starling Way,90623,33.8421276,-118.0467250
4941,Starling Way,90623,33.8421458,-118.0471639
4951,Starling Way,90623,33.8421219,-118.0469383
8261,Sparrow Lane,90623,33.8423177,-118.0467707
8241,Sparrow Lane,90623,33.8423321,-118.0470773
8312,Meadowlark Lane,90623,33.8414752,-118.0470836
8321,Sparrow Lane,90623,33.8413508,-118.0467688
4952,Starling Way,90623,33.8418103,-118.0469389
4942,Starling Way,90623,33.8418092,-118.0471539
8332,Meadowlark Lane,90623,33.8412664,-118.0473319
4962,Starling Way,90623,33.8418031,-118.0467253
8302,Meadowlark Lane,90623,33.8416230,-118.0471500
8301,Sparrow Lane,90623,33.8416249,-118.0467903
8322,Meadowlark Lane,90623,33.8413260,-118.0471949
8311,Sparrow Lane,90623,33.8414880,-118.0467774
8331,Sparrow Lane,90623,33.8412117,-118.0467704
4921,Quail Drive,90623,33.8410014,-118.0473723
4891,Dove Circle,90623,33.8412753,-118.0477247
4871,Dove Circle,90623,33.8413629,-118.0480807
4931,Quail Drive,90623,33.8410105,-118.0472087
4892,Dove Circle,90623,33.8409050,-118.0477231
4872,Dove Circle,90623,33.8408912,-118.0480667
4951,Quail Drive,90623,33.8410170,-118.0468719
4882,Dove Circle,90623,33.8409019,-118.0478954
4961,Quail Drive,90623,33.8410048,-118.0467039
4941,Quail Drive,90623,33.8410339,-118.0470356
4881,Dove Circle,90623,33.8412736,-118.0478897
8362,Sparrow Lane,90623,33.8407991,-118.0462635
8332,Sparrow Lane,90623,33.8412156,-118.0462894
8312,Sparrow Lane,90623,33.8414927,-118.0462852
8352,Sparrow Lane,90623,33.8409363,-118.0462546
8322,Sparrow Lane,90623,33.8413528,-118.0462818
8342,Sparrow Lane,90623,33.8410824,-118.0462876
8232,Sparrow Lane,90623,33.8426617,-118.0462865
8282,Sparrow Lane,90623,33.8419783,-118.0463458
8262,Sparrow Lane,90623,33.8423355,-118.0463016
8202,Sparrow Lane,90623,33.8428461,-118.0464269
8212,Sparrow Lane,90623,33.8428806,-118.0462161
8292,Sparrow Lane,90623,33.8417912,-118.0463367
8252,Sparrow Lane,90623,33.8425074,-118.0463030
8272,Sparrow Lane,90623,33.8421570,-118.0463241
5011,Cordoba Circle,90623,33.8410717,-118.0455276
5011,Sausalito Circle,90623,33.8424840,-118.0455471
5012,Sausalito Circle,90623,33.8419789,-118.0455391
5011,Cartagena Circle,90623,33.8417713,-118.0455391
5002,Sausalito Circle,90623,33.8420865,-118.0457167
5001,Sausalito Circle,90623,33.8423509,-118.0457190
5002,Cartagena Circle,90623,33.8413782,-118.0457069
5001,Cartagena Circle,90623,33.8416945,-118.0457069
5001,Cordoba Circle,90623,33.8409936,-118.0457022
5012,Cartagena Circle,90623,33.8412811,-118.0455320
5012,Malaga Drive,90623,33.8399101,-118.0455063
5002,Malaga Drive,90623,33.8399093,-118.0456665
5011,Malaga Drive,90623,33.8403446,-118.0455113
5012,Cordoba Circle,90623,33.8405831,-118.0455216
5002,Cordoba Circle,90623,33.8406699,-118.0456975
5001,Malaga Drive,90623,33.8403620,-118.0456698
4972,Quail Drive,90623,33.8405865,-118.0465191
4962,Quail Drive,90623,33.8406127,-118.0466924
4932,Quail Drive,90623,33.8405991,-118.0472012
4942,Quail Drive,90623,33.8406101,-118.0470364
4952,Quail Drive,90623,33.8406096,-118.0468566
4922,Quail Drive,90623,33.8406067,-118.0473727
8372,Sparrow Lane,90623,33.8406184,-118.0463260
8391,Meadowlark Lane,90623,33.8404343,-118.0478418
8371,Meadowlark Lane,90623,33.8407101,-118.0478098
8441,Meadowlark Lane,90623,33.8396456,-118.0478787
8421,Meadowlark Lane,90623,33.8399594,-118.0478709
8431,Meadowlark Lane,90623,33.8398153,-118.0478815
8401,Meadowlark Lane,90623,33.8402984,-118.0478661
8381,Meadowlark Lane,90623,33.8405698,-118.0478403
8411,Meadowlark Lane,90623,33.8401591,-118.0478847
4952,Partridge Circle,90623,33.8391993,-118.0467917
4922,Partridge Circle,90623,33.8392980,-118.0472942
4892,Partridge Circle,90623,33.8395593,-118.0477255
4932,Partridge Circle,90623,33.8392348,-118.0471702
4902,Partridge Circle,90623,33.8394921,-118.0475806
4912,Partridge Circle,90623,33.8394110,-118.0474861
4942,Partridge Circle,90623,33.8391948,-118.0469624
4972,Partridge Circle,90623,33.8391821,-118.0464535
4962,Partridge Circle,90623,33.8391986,-118.0466434
4981,Partridge Circle,90623,33.8396626,-118.0462986
4971,Partridge Circle,90623,33.8397050,-118.0464906
4991,Partridge Circle,90623,33.8395444,-118.0462144
4961,Partridge Circle,90623,33.8396595,-118.0466598
4992,Partridge Circle,90623,33.8393764,-118.0461954
4982,Partridge Circle,90623,33.8392273,-118.0462635
4941,Partridge Circle,90623,33.8396605,-118.0469700
4951,Partridge Circle,90623,33.8396416,-118.0468119
4952,Malaga Drive,90623,33.8399172,-118.0468547
4942,Malaga Drive,90623,33.8399238,-118.0470203
4962,Malaga Drive,90623,33.8399249,-118.0466904
4932,Malaga Drive,90623,33.8399200,-118.0471803
8422,Meadowlark Lane,90623,33.8399804,-118.0473931
8432,Meadowlark Lane,90623,33.8398436,-118.0474114
4931,Partridge Circle,90623,33.8396818,-118.0471355
4941,Malaga Drive,90623,33.8403345,-118.0470559
4972,Malaga Drive,90623,33.8399347,-118.0465252
4971,Malaga Drive,90623,33.8403482,-118.0465472
4982,Malaga Drive,90623,33.8399147,-118.0463610
4931,Malaga Drive,90623,33.8403419,-118.0472397
4921,Malaga Drive,90623,33.8403329,-118.0474006
4991,Malaga Drive,90623,33.8403507,-118.0462026
4961,Malaga Drive,90623,33.8403517,-118.0467136
4992,Malaga Drive,90623,33.8399420,-118.0461933
4951,Malaga Drive,90623,33.8403399,-118.0468949
4981,Malaga Drive,90623,33.8403401,-118.0463672
8511,Moody Street,90630,33.8386600,-118.0463506
5002,Via Helena,90623,33.8382806,-118.0454989
5701,Fresca Drive,90623,33.8634609,-118.0339282
5600,Fresca Drive,90623,33.8620578,-118.0354406
5692,Fresca Drive,90623,33.8619667,-118.0340095
5595,Fresca Drive,90623,33.8632219,-118.0358744
20,Centerpointe Drive,90623,33.8621718,-118.0325571
5901,Fresca Drive,90623,33.8632138,-118.0330396
18,Centerpointe Drive,90623,33.8621666,-118.0312883
22,Centerpointe Drive,90623,33.8616706,-118.0327757
5911,Fresca Drive,90623,33.8633334,-118.0306306
5,Centerpointe Drive,90623,33.8614508,-118.0308447
14,Centerpointe Drive,90623,33.8622582,-118.0297385
6565,Valley View Street,90623,33.8649469,-118.0305590
14000,183rd Street,90623,33.8651012,-118.0333892
6530,Montaire Street,90623,33.8654026,-118.0365145
6520,Montaire Street,90623,33.8653148,-118.0363942
6650,Montaire Street,90623,33.8650033,-118.0367045
6610,Montaire Street,90623,33.8654865,-118.0368214
6640,Montaire Street,90623,33.8651043,-118.0368288
6620,Montaire Street,90623,33.8653517,-118.0368135
6565,Montaire Street,90623,33.8658627,-118.0369271
6555,Montaire Street,90623,33.8658430,-118.0367442
6535,Montaire Street,90623,33.8658447,-118.0364194
6545,Montaire Street,90623,33.8658748,-118.0365838
6505,Montaire Street,90623,33.8658529,-118.0358869
6515,Montaire Street,90623,33.8658746,-118.0360907
6525,Montaire Street,90623,33.8658695,-118.0362538
7521,Trabuco Lane,90623,33.8531999,-118.0486111
7551,Trabuco Lane,90623,33.8527885,-118.0486146
7531,Trabuco Lane,90623,33.8530594,-118.0486199
7511,Trabuco Lane,90623,33.8533368,-118.0486132
7561,Trabuco Lane,90623,33.8526492,-118.0486012
7571,Trabuco Lane,90623,33.8525113,-118.0486116
7501,Trabuco Lane,90623,33.8534774,-118.0486178
7541,Trabuco Lane,90623,33.8529248,-118.0486121
7552,Los Trancos Circle,90623,33.8527852,-118.0489451
7532,Los Trancos Circle,90623,33.8530601,-118.0489500
7572,Los Trancos Circle,90623,33.8525095,-118.0489459
7502,Los Trancos Circle,90623,33.8534882,-118.0489009
7512,Los Trancos Circle,90623,33.8533351,-118.0489295
7542,Los Trancos Circle,90623,33.8529209,-118.0489516
7522,Los Trancos Circle,90623,33.8531979,-118.0489599
7562,Los Trancos Circle,90623,33.8526473,-118.0489443
7511,Los Trancos Circle,90623,33.8533366,-118.0494459
7531,Los Trancos Circle,90623,33.8530617,-118.0494174
7551,Los Trancos Circle,90623,33.8527862,-118.0494084
7541,Los Trancos Circle,90623,33.8529239,-118.0494159
7561,Los Trancos Circle,90623,33.8526478,-118.0494104
7571,Los Trancos Circle,90623,33.8525173,-118.0494312
7521,Los Trancos Circle,90623,33.8531988,-118.0494227
4771,Santiago Drive,90623,33.8525638,-118.0498408
7532,Barbi Lane,90623,33.8530580,-118.0497587
7512,Barbi Lane,90623,33.8533818,-118.0497731
7542,Barbi Lane,90623,33.8529231,-118.0497895
4781,Santiago Drive,90623,33.8525716,-118.0496677
7522,Barbi Lane,90623,33.8532038,-118.0496836
7552,Barbi Lane,90623,33.8527836,-118.0497885
4822,Santiago Drive,90623,33.8521493,-118.0490330
4792,Santiago Drive,90623,33.8521598,-118.0495277
4852,Santiago Drive,90623,33.8521415,-118.0485434
4832,Santiago Drive,90623,33.8521659,-118.0488704
4842,Santiago Drive,90623,33.8521578,-118.0487020
4872,Santiago Drive,90623,33.8521715,-118.0482132
7592,Barbi Lane,90623,33.8522122,-118.0497847
4812,Santiago Drive,90623,33.8521529,-118.0491980
4862,Santiago Drive,90623,33.8521627,-118.0483760
4802,Santiago Drive,90623,33.8521492,-118.0493643
7652,Barbi Lane,90623,33.8513799,-118.0497266
7642,Barbi Lane,90623,33.8515215,-118.0497420
4771,El Rancho Verde Drive,90623,33.8509014,-118.0497982
7602,Barbi Lane,90623,33.8520742,-118.0497551
7612,Barbi Lane,90623,33.8519366,-118.0497558
7672,Barbi Lane,90623,33.8511040,-118.0497395
4781,El Rancho Verde Drive,90623,33.8509006,-118.0496365
7662,Barbi Lane,90623,33.8512424,-118.0497358
7632,Barbi Lane,90623,33.8516593,-118.0497304
7622,Barbi Lane,90623,33.8517982,-118.0497422
7641,Arroyo Circle,90623,33.8515606,-118.0494247
7661,Arroyo Circle,90623,33.8512777,-118.0493833
7681,Arroyo Circle,90623,33.8510038,-118.0493678
7631,Arroyo Circle,90623,33.8517776,-118.0494318
7632,Arroyo Circle,90623,33.8517638,-118.0488880
7622,Arroyo Circle,90623,33.8519031,-118.0490523
7621,Arroyo Circle,90623,33.8518801,-118.0492574
7691,Arroyo Circle,90623,33.8508553,-118.0493860
7651,Arroyo Circle,90623,33.8514156,-118.0493897
7671,Arroyo Circle,90623,33.8511417,-118.0493910
7662,Arroyo Circle,90623,33.8512835,-118.0489104
7672,Arroyo Circle,90623,33.8511455,-118.0489093
7692,Arroyo Circle,90623,33.8508691,-118.0489109
7682,Arroyo Circle,90623,33.8510090,-118.0489060
7652,Arroyo Circle,90623,33.8514235,-118.0488881
7642,Arroyo Circle,90623,33.8515611,-118.0488762
7622,Carbon Circle,90623,33.8518967,-118.0482186
7631,Carbon Circle,90623,33.8517937,-118.0486186
7641,Carbon Circle,90623,33.8515582,-118.0486111
7661,Carbon Circle,90623,33.8512818,-118.0486061
7671,Carbon Circle,90623,33.8511466,-118.0485938
7691,Carbon Circle,90623,33.8508701,-118.0485744
7651,Carbon Circle,90623,33.8514245,-118.0485810
7621,Carbon Circle,90623,33.8518824,-118.0484676
7681,Carbon Circle,90623,33.8510050,-118.0485659
4802,El Rancho Verde Drive,90623,33.8505104,-118.0493031
4782,El Rancho Verde Drive,90623,33.8505099,-118.0496608
4832,El Rancho Verde Drive,90623,33.8505025,-118.0488049
4822,El Rancho Verde Drive,90623,33.8505238,-118.0489687
4842,El Rancho Verde Drive,90623,33.8505072,-118.0486398
4812,El Rancho Verde Drive,90623,33.8505129,-118.0491347
4852,El Rancho Verde Drive,90623,33.8505154,-118.0484654
4762,El Rancho Verde Drive,90623,33.8505044,-118.0499917
4772,El Rancho Verde Drive,90623,33.8505027,-118.0498295
4862,El Rancho Verde Drive,90623,33.8505156,-118.0483073
4511,Sharon Drive,90623,33.8497338,-118.0543392
4552,Sharon Drive,90623,33.8493291,-118.0536772
4541,Sharon Drive,90623,33.8496933,-118.0538097
4521,Sharon Drive,90623,33.8497510,-118.0541413
4551,Sharon Drive,90623,33.8497042,-118.0536473
4502,Sharon Drive,90623,33.8494401,-118.0544636
4512,Sharon Drive,90623,33.8492856,-118.0543677
4531,Sharon Drive,90623,33.8496947,-118.0539744
4532,Sharon Drive,90623,33.8492972,-118.0540088
4522,Sharon Drive,90623,33.8492697,-118.0541702
4542,Sharon Drive,90623,33.8493146,-118.0538393
4501,Sharon Drive,90623,33.8496040,-118.0544664
4531,Maroon Drive,90623,33.8490206,-118.0540019
4521,Maroon Drive,90623,33.8490263,-118.0541654
4551,Maroon Drive,90623,33.8490209,-118.0536748
4501,Maroon Drive,90623,33.8490281,-118.0544954
4511,Maroon Drive,90623,33.8490101,-118.0543334
4541,Maroon Drive,90623,33.8490316,-118.0538374
7812,Denni Street,90623,33.8486977,-118.0545146
4562,Maroon Drive,90623,33.8485939,-118.0535656
4541,Patricia Circle,90623,33.8483149,-118.0539739
4552,Patricia Circle,90623,33.8479123,-118.0536722
4531,Patricia Circle,90623,33.8483407,-118.0542248
4522,Patricia Circle,90623,33.8478863,-118.0542961
4521,Patricia Circle,90623,33.8483199,-118.0544840
4561,Patricia Circle,90623,33.8483004,-118.0535608
4542,Patricia Circle,90623,33.8479105,-118.0538713
4551,Patricia Circle,90623,33.8483161,-118.0537622
4512,Patricia Circle,90623,33.8479124,-118.0544980
4532,Patricia Circle,90623,33.8478965,-118.0540854
4511,Patricia Circle,90623,33.8481133,-118.0545520
4501,Kathy Drive,90623,33.8476399,-118.0545690
4541,Kathy Drive,90623,33.8476306,-118.0538370
4531,Kathy Drive,90623,33.8476296,-118.0540164
4521,Kathy Drive,90623,33.8476406,-118.0541982
4511,Kathy Drive,90623,33.8476274,-118.0543860
4551,Kathy Drive,90623,33.8476322,-118.0536551
4641,Sharon Drive,90623,33.8497180,-118.0521578
4561,Sharon Drive,90623,33.8497094,-118.0534804
4601,Sharon Drive,90623,33.8497170,-118.0528220
4621,Sharon Drive,90623,33.8497283,-118.0524872
4581,Sharon Drive,90623,33.8497141,-118.0531494
4611,Sharon Drive,90623,33.8497056,-118.0526613
4591,Sharon Drive,90623,33.8497103,-118.0529884
4571,Sharon Drive,90623,33.8497124,-118.0533202
4631,Sharon Drive,90623,33.8497163,-118.0523220
4651,Sharon Drive,90623,33.8497157,-118.0519968
4661,Sharon Drive,90623,33.8497231,-118.0518285
4721,Sharon Drive,90623,33.8497143,-118.0508184
4671,Sharon Drive,90623,33.8497349,-118.0516609
4701,Sharon Drive,90623,33.8497396,-118.0511546
4691,Sharon Drive,90623,33.8497212,-118.0513206
4681,Sharon Drive,90623,33.8497289,-118.0514884
4711,Sharon Drive,90623,33.8497279,-118.0509881
4581,Patricia Circle,90623,33.8483031,-118.0531828
4581,Kathy Drive,90623,33.8476329,-118.0531395
4571,Maroon Drive,90623,33.8490250,-118.0533435
4572,Sharon Drive,90623,33.8493275,-118.0533432
4581,Maroon Drive,90623,33.8490134,-118.0531822
4562,Sharon Drive,90623,33.8493313,-118.0535120
4572,Patricia Circle,90623,33.8479232,-118.0533081
4571,Kathy Drive,90623,33.8476134,-118.0533047
4582,Maroon Drive,90623,33.8486167,-118.0531840
4582,Patricia Circle,90623,33.8479184,-118.0531426
4582,Sharon Drive,90623,33.8493084,-118.0531785
4572,Maroon Drive,90623,33.8486230,-118.0533755
4561,Maroon Drive,90623,33.8490153,-118.0535085
4562,Patricia Circle,90623,33.8479336,-118.0534786
4561,Kathy Drive,90623,33.8476174,-118.0534795
4571,Patricia Circle,90623,33.8483443,-118.0533509
7912,Trinity Lane,90623,33.8476858,-118.0527331
7842,Trinity Lane,90623,33.8487059,-118.0527571
7882,Trinity Lane,90623,33.8481197,-118.0527361
7832,Trinity Lane,90623,33.8488446,-118.0527563
7852,Trinity Lane,90623,33.8485706,-118.0527550
7812,Trinity Lane,90623,33.8491150,-118.0527558
7872,Trinity Lane,90623,33.8482870,-118.0527494
7902,Trinity Lane,90623,33.8478323,-118.0527283
7822,Trinity Lane,90623,33.8489790,-118.0527554
7862,Trinity Lane,90623,33.8484307,-118.0527629
7892,Trinity Lane,90623,33.8479751,-118.0527374
4602,Sharon Drive,90623,33.8493214,-118.0528196
4682,Sharon Drive,90623,33.8493024,-118.0514918
4612,Sharon Drive,90623,33.8493038,-118.0526548
4692,Sharon Drive,90623,33.8492996,-118.0513238
4672,Sharon Drive,90623,33.8493181,-118.0516541
7811,Denise Circle,90623,33.8490987,-118.0510568
7821,Denise Circle,90623,33.8489559,-118.0510714
7831,Denise Circle,90623,33.8488225,-118.0510789
7841,Denise Circle,90623,33.8486888,-118.0511229
7861,Denise Circle,90623,33.8484355,-118.0509014
7791,Denise Circle,90623,33.8493696,-118.0510727
7801,Denise Circle,90623,33.8492339,-118.0510627
7851,Denise Circle,90623,33.8484792,-118.0510710
4642,Dana Drive,90623,33.8484507,-118.0521641
7821,Linda Lane,90623,33.8489485,-118.0524063
7791,Linda Lane,90623,33.8493601,-118.0524157
7801,Linda Lane,90623,33.8492199,-118.0524291
7841,Linda Lane,90623,33.8486689,-118.0524312
4632,Dana Drive,90623,33.8484813,-118.0523457
7811,Linda Lane,90623,33.8490831,-118.0523994
4652,Dana Drive,90623,33.8484466,-118.0519806
4662,Dana Drive,90623,33.8484509,-118.0518135
7831,Linda Lane,90623,33.8488059,-118.0524094
7792,Linda Lane,90623,33.8493626,-118.0519044
4671,Dana Drive,90623,33.8489390,-118.0516038
7812,Linda Lane,90623,33.8490890,-118.0519323
4672,Dana Drive,90623,33.8484298,-118.0516427
4692,Dana Drive,90623,33.8485980,-118.0513686
4682,Dana Drive,90623,33.8484636,-118.0514468
4651,Dana Drive,90623,33.8488573,-118.0519763
4661,Dana Drive,90623,33.8488867,-118.0518144
4681,Dana Drive,90623,33.8488953,-118.0514436
7802,Linda Lane,90623,33.8492267,-118.0519183
4691,Dana Drive,90623,33.8487477,-118.0513468
4771,Sharon Drive,90623,33.8497284,-118.0499864
4831,Sharon Drive,90623,33.8497440,-118.0489625
4781,Sharon Drive,90623,33.8497385,-118.0498209
4791,Sharon Drive,90623,33.8497505,-118.0496567
4751,Sharon Drive,90623,33.8497273,-118.0503192
4731,Sharon Drive,90623,33.8497424,-118.0506486
4761,Sharon Drive,90623,33.8497341,-118.0501483
4741,Sharon Drive,90623,33.8497272,-118.0504842
4821,Sharon Drive,90623,33.8497725,-118.0491276
4811,Sharon Drive,90623,33.8497465,-118.0492914
4841,Sharon Drive,90623,33.8497567,-118.0487959
4861,Sharon Drive,90623,33.8497598,-118.0484648
4851,Sharon Drive,90623,33.8497474,-118.0486336
4871,Sharon Drive,90623,33.8497552,-118.0483021
7821,Norann Circle,90623,33.8489772,-118.0485633
7862,Norann Circle,90623,33.8484550,-118.0482056
7791,Norann Circle,90623,33.8493903,-118.0485728
7841,Norann Circle,90623,33.8486910,-118.0486224
7801,Norann Circle,90623,33.8492546,-118.0485815
7831,Norann Circle,90623,33.8488406,-118.0485697
7861,Norann Circle,90623,33.8484386,-118.0484055
7851,Norann Circle,90623,33.8485276,-118.0485709
7811,Norann Circle,90623,33.8491159,-118.0485600
7812,Kelly Circle,90623,33.8491135,-118.0489083
7842,Kelly Circle,90623,33.8487015,-118.0488649
7822,Kelly Circle,90623,33.8489750,-118.0489324
7841,Kelly Circle,90623,33.8486975,-118.0494485
7861,Kelly Circle,90623,33.8484537,-118.0492493
7862,Kelly Circle,90623,33.8484444,-118.0490502
7851,Kelly Circle,90623,33.8485298,-118.0494128
7852,Kelly Circle,90623,33.8485156,-118.0488999
7802,Kelly Circle,90623,33.8492498,-118.0489033
7792,Kelly Circle,90623,33.8493857,-118.0489202
7832,Kelly Circle,90623,33.8488374,-118.0489056
7791,Kelly Circle,90623,33.8493830,-118.0494240
7801,Kelly Circle,90623,33.8492470,-118.0494145
7831,Kelly Circle,90623,33.8488328,-118.0494180
7821,Kelly Circle,90623,33.8489741,-118.0494092
7811,Kelly Circle,90623,33.8491090,-118.0494190
7852,Barbi Lane,90623,33.8485510,-118.0497401
7822,Barbi Lane,90623,33.8489698,-118.0497376
7792,Barbi Lane,90623,33.8493797,-118.0497190
7862,Barbi Lane,90623,33.8484076,-118.0497283
7842,Barbi Lane,90623,33.8486920,-118.0497541
7812,Barbi Lane,90623,33.8491055,-118.0497544
7802,Barbi Lane,90623,33.8492433,-118.0497491
7832,Barbi Lane,90623,33.8488312,-118.0497319
7832,Denise Circle,90623,33.8488253,-118.0505410
7802,Denise Circle,90623,33.8492369,-118.0505848
7852,Denise Circle,90623,33.8485219,-118.0505368
7862,Denise Circle,90623,33.8484366,-118.0507242
7812,Denise Circle,90623,33.8490998,-118.0505668
7842,Denise Circle,90623,33.8486894,-118.0505257
7792,Denise Circle,90623,33.8493732,-118.0505702
7822,Denise Circle,90623,33.8489618,-118.0505622
7841,Barbi Lane,90623,33.8486907,-118.0502426
7801,Barbi Lane,90623,33.8492425,-118.0502358
7811,Barbi Lane,90623,33.8491044,-118.0502297
7851,Barbi Lane,90623,33.8485522,-118.0502292
7821,Barbi Lane,90623,33.8489661,-118.0502297
7791,Barbi Lane,90623,33.8493776,-118.0502386
7861,Barbi Lane,90623,33.8484044,-118.0502963
7831,Barbi Lane,90623,33.8488255,-118.0502281
7882,Barbi Lane,90623,33.8478538,-118.0498831
7875,Barbi Lane,90623,33.8479616,-118.0503585
7892,Barbi Lane,90623,33.8477153,-118.0498776
7881,Barbi Lane,90623,33.8478233,-118.0503457
7891,Barbi Lane,90623,33.8476846,-118.0503527
7871,Barbi Lane,90623,33.8481231,-118.0503367
7865,Barbi Lane,90623,33.8482610,-118.0503672
4791,Karen Circle,90623,33.8482363,-118.0494073
4822,Karen Circle,90623,33.8479811,-118.0490247
4761,Karen Circle,90623,33.8481788,-118.0499052
4811,Karen Circle,90623,33.8481527,-118.0490320
4771,Karen Circle,90623,33.8481896,-118.0497400
4782,Karen Circle,90623,33.8477822,-118.0496133
4812,Karen Circle,90623,33.8478353,-118.0490881
4802,Karen Circle,90623,33.8477567,-118.0492799
4781,Karen Circle,90623,33.8482197,-118.0495706
4792,Karen Circle,90623,33.8477824,-118.0494520
4801,Karen Circle,90623,33.8482332,-118.0492277
4841,Sandy Circle,90623,33.8482016,-118.0486661
7902,Louise Lane,90623,33.8475907,-118.0482493
7891,Louise Lane,90623,33.8477509,-118.0487118
4851,Sandy Circle,90623,33.8482578,-118.0484713
4861,Sandy Circle,90623,33.8482276,-118.0482997
7892,Louise Lane,90623,33.8477254,-118.0482318
7881,Louise Lane,90623,33.8478905,-118.0487384
7882,Louise Lane,90623,33.8478645,-118.0482531
7901,Louise Lane,90623,33.8476129,-118.0487213
7871,Louise Lane,90623,33.8480485,-118.0487690
7961,Barbi Lane,90623,33.8466672,-118.0503394
4752,Donna Drive,90623,33.8465265,-118.0502106
7921,Barbi Lane,90623,33.8472714,-118.0503603
7901,Barbi Lane,90623,33.8475455,-118.0503432
7931,Barbi Lane,90623,33.8471323,-118.0503397
7911,Barbi Lane,90623,33.8474077,-118.0503457
7941,Barbi Lane,90623,33.8469959,-118.0503549
7951,Barbi Lane,90623,33.8468455,-118.0503666
4772,Donna Drive,90623,33.8465498,-118.0497805
4762,Donna Drive,90623,33.8465287,-118.0499435
7942,Barbi Lane,90623,33.8470258,-118.0498511
7951,Carolyn Circle,90623,33.8468933,-118.0494998
7931,Carolyn Circle,90623,33.8471688,-118.0495257
7902,Barbi Lane,90623,33.8475769,-118.0498693
7921,Carolyn Circle,90623,33.8473096,-118.0495756
7922,Barbi Lane,90623,33.8473017,-118.0498547
7912,Barbi Lane,90623,33.8474402,-118.0498502
7932,Barbi Lane,90623,33.8471641,-118.0498444
7952,Barbi Lane,90623,33.8468908,-118.0498654
7941,Carolyn Circle,90623,33.8470298,-118.0495009
7901,Carolyn Circle,90623,33.8475651,-118.0492970
7952,Carolyn Circle,90623,33.8469174,-118.0490253
7932,Carolyn Circle,90623,33.8471918,-118.0489982
7922,Carolyn Circle,90623,33.8473274,-118.0489827
7912,Carolyn Circle,90623,33.8474921,-118.0490913
7911,Carolyn Circle,90623,33.8474947,-118.0495064
7942,Carolyn Circle,90623,33.8470503,-118.0490469
4782,Donna Drive,90623,33.8465566,-118.0496176
4812,Donna Drive,90623,33.8465443,-118.0491200
4822,Donna Drive,90623,33.8465522,-118.0489580
4802,Donna Drive,90623,33.8465204,-118.0492853
4792,Donna Drive,90623,33.8465276,-118.0494501
7971,Louise Lane,90623,33.8466212,-118.0487071
7981,Louise Lane,90623,33.8464847,-118.0487400
7972,Louise Lane,90623,33.8466232,-118.0482324
7952,Louise Lane,90623,33.8468992,-118.0482273
7942,Louise Lane,90623,33.8470397,-118.0482247
7951,Louise Lane,90623,33.8469226,-118.0486992
7982,Louise Lane,90623,33.8464896,-118.0482325
7922,Louise Lane,90623,33.8473135,-118.0482287
7911,Louise Lane,90623,33.8474754,-118.0486942
7921,Louise Lane,90623,33.8473367,-118.0486943
7932,Louise Lane,90623,33.8471759,-118.0482389
7931,Louise Lane,90623,33.8472001,-118.0486870
7912,Louise Lane,90623,33.8474500,-118.0482351
7962,Louise Lane,90623,33.8467652,-118.0482188
7941,Louise Lane,90623,33.8470613,-118.0486979
8021,Louise Lane,90623,33.8457596,-118.0486431
8031,Louise Lane,90623,33.8456141,-118.0486106
8041,Louise Lane,90623,33.8454738,-118.0485787
8011,Louise Lane,90623,33.8459053,-118.0486438
8051,Louise Lane,90623,33.8453389,-118.0485537
8001,Louise Lane,90623,33.8460411,-118.0486534
8042,Hampshire Circle,90623,33.8454724,-118.0488515
8052,Hampshire Circle,90623,33.8453323,-118.0488744
8002,Hampshire Circle,90623,33.8460415,-118.0489021
8022,Hampshire Circle,90623,33.8457590,-118.0489725
8032,Hampshire Circle,90623,33.8456129,-118.0489036
8012,Hampshire Circle,90623,33.8459009,-118.0489128
4791,Kent Circle,90623,33.8456918,-118.0494145
4792,La Palma Avenue,90623,33.8459794,-118.0495022
4781,Kent Circle,90623,33.8457305,-118.0495960
8051,Hampshire Circle,90623,33.8453312,-118.0493489
4771,Kent Circle,90623,33.8456663,-118.0497676
4772,Kent Circle,90623,33.8452539,-118.0497642
8032,Lancashire Circle,90623,33.8456081,-118.0499841
8022,Lancashire Circle,90623,33.8457589,-118.0499928
8042,Lancashire Circle,90623,33.8454640,-118.0500106
8052,Lancashire Circle,90623,33.8453243,-118.0500055
8012,Lancashire Circle,90623,33.8458979,-118.0498642
8002,Lancashire Circle,90623,33.8460387,-118.0498421
8051,Lancashire Circle,90623,33.8453251,-118.0504832
8041,Lancashire Circle,90623,33.8454654,-118.0504880
8001,Lancashire Circle,90623,33.8460339,-118.0504222
8031,Lancashire Circle,90623,33.8455993,-118.0504878
8021,Lancashire Circle,90623,33.8457403,-118.0504807
8011,Lancashire Circle,90623,33.8458952,-118.0504770
8032,Cheshire Circle,90623,33.8456032,-118.0508018
8002,Cheshire Circle,90623,33.8460300,-118.0507646
8012,Cheshire Circle,90623,33.8458923,-118.0507262
8022,Cheshire Circle,90623,33.8457407,-118.0508018
8052,Cheshire Circle,90623,33.8453209,-118.0508008
8042,Cheshire Circle,90623,33.8454592,-118.0507994
8051,Cheshire Circle,90623,33.8453267,-118.0513017
8021,Cheshire Circle,90623,33.8457506,-118.0512949
8031,Cheshire Circle,90623,33.8456071,-118.0512647
8041,Cheshire Circle,90623,33.8454637,-118.0512912
8011,Cheshire Circle,90623,33.8458873,-118.0513117
8001,Cheshire Circle,90623,33.8460305,-118.0513003
7932,Trinity Lane,90623,33.8474011,-118.0527148
7922,Trinity Lane,90623,33.8475441,-118.0527074
4569,La Palma Avenue,90623,33.8472053,-118.0526995
4591,La Palma Avenue,90623,33.8465091,-118.0526773
4585,La Palma Avenue,90623,33.8467239,-118.0526790
4579,La Palma Avenue,90623,33.8469381,-118.0526809
4552,Kathy Drive,90623,33.8472734,-118.0536064
4523,Montecito Drive,90623,33.8470202,-118.0531466
4582,Kathy Drive,90623,33.8472620,-118.0531111
4562,Kathy Drive,90623,33.8472745,-118.0534404
4572,Kathy Drive,90623,33.8472615,-118.0532747
4621,Cambury Drive,90623,33.8459905,-118.0520418
4611,Cambury Drive,90623,33.8459843,-118.0522304
4591,Cambury Drive,90623,33.8459676,-118.0525946
4551,Cambury Drive,90623,33.8459640,-118.0533378
4561,Cambury Drive,90623,33.8459655,-118.0531515
4601,Cambury Drive,90623,33.8459669,-118.0524157
4571,Cambury Drive,90623,33.8459607,-118.0529734
4541,Cambury Drive,90623,33.8459738,-118.0535203
4581,Cambury Drive,90623,33.8459767,-118.0527851
8002,Redford Lane,90623,33.8460160,-118.0516077
8032,Redford Lane,90623,33.8455635,-118.0515985
8012,Redford Lane,90623,33.8458660,-118.0516230
8022,Redford Lane,90623,33.8457147,-118.0516145
8042,Redford Lane,90623,33.8454121,-118.0516080
8051,Madia Circle,90623,33.8453283,-118.0527831
4572,Cambury Drive,90623,33.8455944,-118.0529492
8042,Madia Circle,90623,33.8453508,-118.0525831
8032,Dabny Lane,90623,33.8456090,-118.0531996
8052,Dabny Lane,90623,33.8453085,-118.0532062
8042,Dabny Lane,90623,33.8454606,-118.0531726
4582,Cambury Drive,90623,33.8455816,-118.0527630
4622,Cambury Drive,90623,33.8455985,-118.0520410
4602,Cambury Drive,90623,33.8455961,-118.0524041
4592,Cambury Drive,90623,33.8455977,-118.0525840
8041,Redford Lane,90623,33.8453927,-118.0520771
4612,Cambury Drive,90623,33.8455994,-118.0522218
4542,Kathy Drive,90623,33.8472548,-118.0537722
4502,Kathy Drive,90623,33.8472669,-118.0544355
4532,Kathy Drive,90623,33.8472591,-118.0539378
4500,Kathy Drive,90623,33.8472527,-118.0546015
4522,Kathy Drive,90623,33.8472692,-118.0541056
4512,Kathy Drive,90623,33.8472579,-118.0542703
4500,Montecito Drive,90623,33.8467177,-118.0544362
8031,Dabny Lane,90623,33.8456093,-118.0536793
8051,Dabny Lane,90623,33.8453009,-118.0536467
8042,Ainsworth Lane,90623,33.8454540,-118.0539637
8052,Ainsworth Lane,90623,33.8453025,-118.0539726
8032,Ainsworth Lane,90623,33.8456041,-118.0539747
8041,Dabny Lane,90623,33.8454560,-118.0536502
4501,Cambury Drive,90623,33.8459506,-118.0542992
8041,Ainsworth Lane,90623,33.8455168,-118.0544241
8051,Ainsworth Lane,90623,33.8453667,-118.0544263
4521,Cambury Drive,90623,33.8459794,-118.0538909
4511,Cambury Drive,90623,33.8459864,-118.0540812
8031,Ainsworth Lane,90623,33.8456692,-118.0544703
8021,Ainsworth Lane,90623,33.8458350,-118.0544292
4531,Cambury Drive,90623,33.8459577,-118.0537063
8021,Hummingbird Circle,90623,33.8456759,-118.0554939
8002,Hummingbird Circle,90623,33.8460055,-118.0550167
8011,Hummingbird Circle,90623,33.8458135,-118.0555103
8031,Hummingbird Circle,90623,33.8455369,-118.0555485
8042,Hummingbird Circle,90623,33.8453831,-118.0550257
8022,Hummingbird Circle,90623,33.8456581,-118.0550192
8032,Hummingbird Circle,90623,33.8455196,-118.0550161
8041,Hummingbird Circle,90623,33.8453982,-118.0554816
8012,Hummingbird Circle,90623,33.8457977,-118.0549700
8001,Hummingbird Circle,90623,33.8460117,-118.0554574
8011,Bluebird Lane,90623,33.8458634,-118.0563006
8042,Bluebird Lane,90623,33.8454313,-118.0558075
8031,Bluebird Lane,90623,33.8455742,-118.0563069
8012,Bluebird Lane,90623,33.8458617,-118.0558037
8032,Bluebird Lane,90623,33.8455858,-118.0558033
8041,Bluebird Lane,90623,33.8454338,-118.0563107
8001,Bluebird Lane,90623,33.8459979,-118.0562978
8002,Bluebird Lane,90623,33.8459992,-118.0558230
8021,Bluebird Lane,90623,33.8457230,-118.0562962
8022,Bluebird Lane,90623,33.8457218,-118.0558186
4282,Robin Drive,90623,33.8457314,-118.0577984
4312,Robin Drive,90623,33.8454775,-118.0573630
4302,Robin Drive,90623,33.8455651,-118.0575354
4332,Robin Drive,90623,33.8453074,-118.0571002
4322,Robin Drive,90623,33.8454063,-118.0572518
4292,Robin Drive,90623,33.8456231,-118.0576481
8032,Swan Circle,90623,33.8455110,-118.0566685
8021,Swan Circle,90623,33.8458214,-118.0571968
8001,Swan Circle,90623,33.8459779,-118.0567823
8012,Swan Circle,90623,33.8458598,-118.0565891
8011,Swan Circle,90623,33.8459448,-118.0570412
4281,Robin Drive,90623,33.8460180,-118.0573674
8022,Swan Circle,90623,33.8456697,-118.0566094
4342,Robin Drive,90623,33.8452464,-118.0570047
4352,Robin Drive,90623,33.8451376,-118.0568367
4382,Robin Drive,90623,33.8449227,-118.0564438
4372,Robin Drive,90623,33.8449913,-118.0565679
4392,Robin Drive,90623,33.8448392,-118.0563227
8051,Bluebird Lane,90623,33.8453164,-118.0563695
4362,Robin Drive,90623,33.8450833,-118.0567223
8121,Dabny Lane,90623,33.8442438,-118.0536624
8061,Dabny Lane,90623,33.8451516,-118.0536460
8071,Dabny Lane,90623,33.8450005,-118.0536473
4542,Trafalgar Drive,90623,33.8439002,-118.0535438
8101,Dabny Lane,90623,33.8445483,-118.0536601
8081,Dabny Lane,90623,33.8448510,-118.0536720
8091,Dabny Lane,90623,33.8446966,-118.0536752
8131,Dabny Lane,90623,33.8440599,-118.0536786
8111,Dabny Lane,90623,33.8443955,-118.0536596
8102,Ainsworth Lane,90623,33.8445457,-118.0539542
4511,Amberwood Avenue,90623,33.8437635,-118.0538391
8132,Ainsworth Lane,90623,33.8440918,-118.0539549
8112,Ainsworth Lane,90623,33.8443974,-118.0539658
8062,Ainsworth Lane,90623,33.8451483,-118.0539697
8142,Ainsworth Lane,90623,33.8439339,-118.0539193
4521,Amberwood Avenue,90623,33.8436812,-118.0536702
8092,Ainsworth Lane,90623,33.8446985,-118.0539674
8122,Ainsworth Lane,90623,33.8442447,-118.0539678
8082,Ainsworth Lane,90623,33.8448489,-118.0539711
8072,Ainsworth Lane,90623,33.8449988,-118.0539421
8131,Ainsworth Lane,90623,33.8441239,-118.0544349
8161,Ainsworth Lane,90623,33.8436484,-118.0543897
8141,Ainsworth Lane,90623,33.8439732,-118.0544301
8101,Ainsworth Lane,90623,33.8445767,-118.0544510
4522,Amberwood Avenue,90623,33.8433713,-118.0539560
8151,Ainsworth Lane,90623,33.8438237,-118.0544235
8111,Ainsworth Lane,90623,33.8444287,-118.0544279
4512,Amberwood Avenue,90623,33.8434611,-118.0540968
8121,Ainsworth Lane,90623,33.8442767,-118.0544187
4542,Amberwood Avenue,90623,33.8432112,-118.0536618
4502,Amberwood Avenue,90623,33.8435298,-118.0542588
4532,Amberwood Avenue,90623,33.8432972,-118.0538203
8071,Ainsworth Lane,90623,33.8450646,-118.0544505
8061,Ainsworth Lane,90623,33.8452149,-118.0544186
8081,Ainsworth Lane,90623,33.8449138,-118.0544161
8052,Hummingbird Circle,90623,33.8452459,-118.0549992
8072,Hummingbird Circle,90623,33.8449709,-118.0549874
8092,Hummingbird Circle,90623,33.8446800,-118.0550379
8082,Hummingbird Circle,90623,33.8448267,-118.0550200
8062,Hummingbird Circle,90623,33.8451095,-118.0550138
8102,Hummingbird Circle,90623,33.8445228,-118.0550600
8051,Hummingbird Circle,90623,33.8452629,-118.0554935
4421,Robin Drive,90623,33.8449115,-118.0555753
4401,Robin Drive,90623,33.8450475,-118.0558448
8052,Bluebird Lane,90623,33.8452868,-118.0558352
8061,Hummingbird Circle,90623,33.8450797,-118.0555006
4411,Robin Drive,90623,33.8449631,-118.0556851
4431,Robin Drive,90623,33.8448039,-118.0554411
4391,Robin Drive,90623,33.8451394,-118.0559782
4492,Robin Drive,90623,33.8440068,-118.0549546
4432,Robin Drive,90623,33.8445104,-118.0558044
4452,Robin Drive,90623,33.8443505,-118.0555315
4402,Robin Drive,90623,33.8447457,-118.0561706
4442,Robin Drive,90623,33.8444118,-118.0556421
4412,Robin Drive,90623,33.8446810,-118.0560574
4472,Robin Drive,90623,33.8441710,-118.0552367
4482,Robin Drive,90623,33.8441159,-118.0551050
4422,Robin Drive,90623,33.8445682,-118.0559054
4462,Robin Drive,90623,33.8442585,-118.0553699
8072,Cheshire Circle,90623,33.8450440,-118.0508193
8062,Cheshire Circle,90623,33.8451794,-118.0508078
8081,Cheshire Circle,90623,33.8449148,-118.0512824
8071,Cheshire Circle,90623,33.8450514,-118.0512684
8061,Cheshire Circle,90623,33.8451919,-118.0512943
8082,Cheshire Circle,90623,33.8449007,-118.0508099
4702,Elben Drive,90623,33.8445435,-118.0508660
4672,Elben Drive,90623,33.8445411,-118.0512005
4662,Elben Drive,90623,33.8445467,-118.0513598
4682,Elben Drive,90623,33.8445376,-118.0510373
8052,Redford Lane,90623,33.8452634,-118.0515927
8062,Redford Lane,90623,33.8451099,-118.0516126
8072,Redford Lane,90623,33.8449611,-118.0516138
8092,Redford Lane,90623,33.8446304,-118.0516047
8102,Redford Lane,90623,33.8444795,-118.0516104
4701,Windsong Avenue,90623,33.8442846,-118.0508789
4651,Windsong Avenue,90623,33.8442898,-118.0516238
4681,Windsong Avenue,90623,33.8442746,-118.0510601
4661,Windsong Avenue,90623,33.8442666,-118.0514338
4671,Windsong Avenue,90623,33.8442806,-118.0512475
8151,Wickham Lane,90623,33.8439148,-118.0508681
8191,Wickham Lane,90623,33.8433821,-118.0512260
8221,Wickham Lane,90623,33.8430064,-118.0515504
8171,Wickham Lane,90623,33.8436267,-118.0510134
8211,Wickham Lane,90623,33.8431385,-118.0514304
8201,Wickham Lane,90623,33.8432495,-118.0513158
8181,Wickham Lane,90623,33.8435125,-118.0511450
8161,Wickham Lane,90623,33.8437676,-118.0508981
8212,Wickham Lane,90623,33.8431015,-118.0509077
8202,Wickham Lane,90623,33.8432250,-118.0508018
4672,Windsong Avenue,90623,33.8438835,-118.0511587
4662,Windsong Avenue,90623,33.8438798,-118.0513437
8192,Redford Lane,90623,33.8433044,-118.0516901
8212,Redford Lane,90623,33.8430505,-118.0519035
8172,Redford Lane,90623,33.8436107,-118.0515829
8202,Redford Lane,90623,33.8431723,-118.0517881
8182,Redford Lane,90623,33.8434626,-118.0516360
8162,Redford Lane,90623,33.8437657,-118.0516086
8152,Redford Lane,90623,33.8439171,-118.0516008
4552,Amberwood Avenue,90623,33.8430857,-118.0535105
4562,Amberwood Avenue,90623,33.8430394,-118.0533638
4551,Amberwood Avenue,90623,33.8434061,-118.0532410
4561,Amberwood Avenue,90623,33.8433275,-118.0530825
4531,Amberwood Avenue,90623,33.8436060,-118.0535345
4571,Amberwood Avenue,90623,33.8432289,-118.0529327
4541,Amberwood Avenue,90623,33.8435048,-118.0533717
4575,Amberwood Avenue,90623,33.8431330,-118.0528001
4581,Amberwood Avenue,90623,33.8430443,-118.0526370
4602,Trafalgar Drive,90623,33.8432620,-118.0524478
4582,Trafalgar Drive,90623,33.8434314,-118.0527442
4572,Trafalgar Drive,90623,33.8436364,-118.0530598
4562,Trafalgar Drive,90623,33.8437262,-118.0532018
4612,Trafalgar Drive,90623,33.8431691,-118.0523110
4576,Trafalgar Drive,90623,33.8435329,-118.0528822
4592,Trafalgar Drive,90623,33.8433612,-118.0526116
4552,Trafalgar Drive,90623,33.8437940,-118.0533468
4601,Trafalgar Drive,90623,33.8436459,-118.0523280
4561,Trafalgar Drive,90623,33.8441034,-118.0530810
4581,Trafalgar Drive,90623,33.8438396,-118.0526184
4571,Trafalgar Drive,90623,33.8440284,-118.0529293
4591,Trafalgar Drive,90623,33.8437505,-118.0524684
8161,Redford Lane,90623,33.8435331,-118.0520793
8151,Redford Lane,90623,33.8437091,-118.0520590
8141,Redford Lane,90623,33.8438751,-118.0520689
8051,Redford Lane,90623,33.8452374,-118.0520798
8091,Redford Lane,90623,33.8446308,-118.0520490
8071,Redford Lane,90623,33.8449371,-118.0520695
8111,Redford Lane,90623,33.8443307,-118.0520573
8061,Redford Lane,90623,33.8450837,-118.0520653
8101,Redford Lane,90623,33.8444839,-118.0520723
8081,Redford Lane,90623,33.8447862,-118.0520743
8131,Redford Lane,90623,33.8440270,-118.0520601
8121,Redford Lane,90623,33.8441809,-118.0520647
8112,Madia Circle,90623,33.8443270,-118.0523910
8072,Madia Circle,90623,33.8449325,-118.0523621
8052,Madia Circle,90623,33.8452570,-118.0523915
8102,Madia Circle,90623,33.8444788,-118.0523802
8082,Madia Circle,90623,33.8447836,-118.0523900
8122,Madia Circle,90623,33.8441729,-118.0524204
8132,Madia Circle,90623,33.8440125,-118.0524661
8062,Madia Circle,90623,33.8450958,-118.0523335
8092,Madia Circle,90623,33.8446318,-118.0524113
8091,Madia Circle,90623,33.8447042,-118.0528652
8111,Madia Circle,90623,33.8444012,-118.0528561
8121,Madia Circle,90623,33.8442501,-118.0528650
8061,Madia Circle,90623,33.8451796,-118.0528987
8081,Madia Circle,90623,33.8448563,-118.0528535
8071,Madia Circle,90623,33.8450045,-118.0528973
8101,Madia Circle,90623,33.8445545,-118.0528570
8122,Dabny Lane,90623,33.8442366,-118.0531943
8092,Dabny Lane,90623,33.8447022,-118.0531972
8062,Dabny Lane,90623,33.8451568,-118.0531827
8082,Dabny Lane,90623,33.8448503,-118.0532002
8072,Dabny Lane,90623,33.8450050,-118.0531957
8102,Dabny Lane,90623,33.8445509,-118.0531958
8112,Dabny Lane,90623,33.8443975,-118.0531815
8071,Lancashire Circle,90623,33.8450456,-118.0504759
8082,Lancashire Circle,90623,33.8449060,-118.0500009
8081,Lancashire Circle,90623,33.8449042,-118.0504815
8062,Lancashire Circle,90623,33.8451837,-118.0499895
8072,Lancashire Circle,90623,33.8450504,-118.0500126
8061,Lancashire Circle,90623,33.8451825,-118.0504822
8071,Hampshire Circle,90623,33.8450532,-118.0493471
4782,Kent Circle,90623,33.8452113,-118.0495971
8081,Hampshire Circle,90623,33.8449118,-118.0493210
8061,Hampshire Circle,90623,33.8451952,-118.0493496
4781,Elben Drive,90623,33.8449564,-118.0495954
4771,Elben Drive,90623,33.8449707,-118.0497589
8081,Louise Lane,90623,33.8449173,-118.0485556
8072,Hampshire Circle,90623,33.8450531,-118.0488831
8062,Hampshire Circle,90623,33.8451950,-118.0488586
8061,Louise Lane,90623,33.8451964,-118.0485412
8082,Hampshire Circle,90623,33.8449179,-118.0488729
8071,Louise Lane,90623,33.8450577,-118.0485437
4782,Elben Drive,90623,33.8445719,-118.0495287
4792,Elben Drive,90623,33.8445566,-118.0493568
4742,Elben Drive,90623,33.8445360,-118.0501940
4732,Elben Drive,90623,33.8445466,-118.0503642
4772,Elben Drive,90623,33.8445487,-118.0496921
4762,Elben Drive,90623,33.8445517,-118.0498598
4752,Elben Drive,90623,33.8445479,-118.0500295
4722,Elben Drive,90623,33.8445502,-118.0505323
4802,Elben Drive,90623,33.8445706,-118.0491947
4712,Elben Drive,90623,33.8445379,-118.0507019
4832,Elben Drive,90623,33.8445594,-118.0486854
4822,Elben Drive,90623,33.8445741,-118.0488588
4812,Elben Drive,90623,33.8445570,-118.0490218
4862,Elben Drive,90623,33.8445627,-118.0481764
4842,Elben Drive,90623,33.8445563,-118.0485175
4852,Elben Drive,90623,33.8445750,-118.0483514
4771,Windsong Avenue,90623,33.8442839,-118.0495966
4731,Windsong Avenue,90623,33.8442929,-118.0503281
4801,Windsong Avenue,90623,33.8442996,-118.0492325
4741,Windsong Avenue,90623,33.8442745,-118.0501421
4711,Windsong Avenue,90623,33.8442707,-118.0506939
4751,Windsong Avenue,90623,33.8442886,-118.0499627
4721,Windsong Avenue,90623,33.8442780,-118.0505086
4781,Windsong Avenue,90623,33.8442930,-118.0494164
4811,Windsong Avenue,90623,33.8442917,-118.0490454
4761,Windsong Avenue,90623,33.8442919,-118.0497820
4821,Windsong Avenue,90623,33.8442815,-118.0488654
4831,Windsong Avenue,90623,33.8442865,-118.0486793
4851,Windsong Avenue,90623,33.8442918,-118.0483168
4841,Windsong Avenue,90623,33.8442876,-118.0484977
8171,Bellhaven Street,90623,33.8431649,-118.0485939
8141,Bellhaven Street,90623,33.8436308,-118.0484442
8121,Bellhaven Street,90623,33.8439366,-118.0484778
8181,Bellhaven Street,90623,33.8430508,-118.0486836
8151,Bellhaven Street,90623,33.8434771,-118.0484557
8161,Bellhaven Street,90623,33.8433139,-118.0485091
8131,Bellhaven Street,90623,33.8437850,-118.0484544
8152,Regency Street,90623,33.8434643,-118.0487496
8122,Regency Street,90623,33.8439342,-118.0487663
8172,Regency Street,90623,33.8431976,-118.0489433
8132,Regency Street,90623,33.8437779,-118.0487721
8182,Regency Street,90623,33.8430679,-118.0490501
8142,Regency Street,90623,33.8436296,-118.0487654
8162,Regency Street,90623,33.8433252,-118.0488392
8191,Regency Street,90623,33.8430515,-118.0496247
8181,Regency Street,90623,33.8431805,-118.0495220
8121,Regency Street,90623,33.8439201,-118.0491970
8151,Regency Street,90623,33.8436037,-118.0492213
8161,Regency Street,90623,33.8434300,-118.0493192
8131,Regency Street,90623,33.8437654,-118.0491999
8171,Regency Street,90623,33.8432962,-118.0494151
8182,Somerdale Lane,90623,33.8434603,-118.0496626
8202,Somerdale Lane,90623,33.8432139,-118.0498719
8192,Somerdale Lane,90623,33.8433218,-118.0497791
8212,Somerdale Lane,90623,33.8430837,-118.0499717
8172,Somerdale Lane,90623,33.8436040,-118.0495636
8152,Somerdale Lane,90623,33.8439211,-118.0495115
8162,Somerdale Lane,90623,33.8437732,-118.0495361
8221,Somerdale Lane,90623,33.8430691,-118.0505474
8201,Somerdale Lane,90623,33.8433007,-118.0503525
8191,Somerdale Lane,90623,33.8434208,-118.0502375
8181,Somerdale Lane,90623,33.8435420,-118.0501571
8171,Somerdale Lane,90623,33.8436909,-118.0500170
8211,Somerdale Lane,90623,33.8431933,-118.0504513
4742,Windsong Avenue,90623,33.8439071,-118.0501529
4752,Windsong Avenue,90623,33.8439037,-118.0499657
8162,Wickham Lane,90623,33.8437629,-118.0504199
8192,Wickham Lane,90623,33.8433454,-118.0506944
8152,Wickham Lane,90623,33.8439132,-118.0504112
8172,Wickham Lane,90623,33.8436049,-118.0505081
8182,Wickham Lane,90623,33.8434571,-118.0505931
4852,Dove Circle,90623,33.8409901,-118.0484271
4862,Dove Circle,90623,33.8409015,-118.0482497
8322,Suffield Street,90623,33.8412391,-118.0487798
8362,Suffield Street,90623,33.8407325,-118.0491801
8302,Suffield Street,90623,33.8414890,-118.0485697
8292,Suffield Street,90623,33.8416028,-118.0484581
8282,Suffield Street,90623,33.8417383,-118.0483511
8312,Suffield Street,90623,33.8413736,-118.0486674
8272,Suffield Street,90623,33.8418497,-118.0482144
8352,Suffield Street,90623,33.8408661,-118.0490588
8342,Suffield Street,90623,33.8410014,-118.0489784
8332,Suffield Street,90623,33.8411233,-118.0488898
8281,Suffield Street,90623,33.8418158,-118.0488189
8241,Suffield Street,90623,33.8423045,-118.0484091
8231,Suffield Street,90623,33.8424307,-118.0483015
8331,Suffield Street,90623,33.8412062,-118.0493627
8291,Suffield Street,90623,33.8416895,-118.0489314
8311,Suffield Street,90623,33.8414429,-118.0491449
8341,Suffield Street,90623,33.8410904,-118.0494693
8321,Suffield Street,90623,33.8413327,-118.0492689
8301,Suffield Street,90623,33.8415775,-118.0490390
4702,Amberwood Avenue,90623,33.8415046,-118.0508729
4742,Amberwood Avenue,90623,33.8410502,-118.0501558
4712,Amberwood Avenue,90623,33.8414047,-118.0507404
4762,Amberwood Avenue,90623,33.8408834,-118.0498592
4736,Amberwood Avenue,90623,33.8411527,-118.0503008
4722,Amberwood Avenue,90623,33.8413342,-118.0505896
4772,Amberwood Avenue,90623,33.8407820,-118.0497332
4732,Amberwood Avenue,90623,33.8412395,-118.0504532
4752,Amberwood Avenue,90623,33.8409784,-118.0499975
8282,Bellhaven Street,90623,33.8417273,-118.0493124
8302,Bellhaven Street,90623,33.8414716,-118.0495122
8252,Bellhaven Street,90623,33.8420908,-118.0489803
8242,Bellhaven Street,90623,33.8422204,-118.0488601
8312,Bellhaven Street,90623,33.8413559,-118.0496314
8232,Bellhaven Street,90623,33.8423431,-118.0487753
8292,Bellhaven Street,90623,33.8416126,-118.0494014
8272,Bellhaven Street,90623,33.8418559,-118.0491860
8322,Bellhaven Street,90623,33.8412438,-118.0497240
8262,Bellhaven Street,90623,33.8419778,-118.0490869
8222,Bellhaven Street,90623,33.8424524,-118.0486655
8212,Bellhaven Street,90623,33.8425875,-118.0485386
8182,Bellhaven Street,90623,33.8429503,-118.0482192
8192,Bellhaven Street,90623,33.8428262,-118.0483350
8202,Bellhaven Street,90623,33.8427067,-118.0484119
8311,Bellhaven Street,90623,33.8414541,-118.0500784
8281,Bellhaven Street,90623,33.8418203,-118.0497682
8261,Bellhaven Street,90623,33.8420656,-118.0495480
8301,Bellhaven Street,90623,33.8415898,-118.0499775
8251,Bellhaven Street,90623,33.8421990,-118.0494442
8271,Bellhaven Street,90623,33.8419479,-118.0496466
8291,Bellhaven Street,90623,33.8417052,-118.0498834
8201,Bellhaven Street,90623,33.8427970,-118.0489130
8211,Bellhaven Street,90623,33.8426823,-118.0490118
8241,Bellhaven Street,90623,33.8423152,-118.0493273
8221,Bellhaven Street,90623,33.8425539,-118.0491105
8191,Bellhaven Street,90623,33.8429282,-118.0487928
8231,Bellhaven Street,90623,33.8424414,-118.0492355
8212,Regency Street,90623,33.8427189,-118.0493660
8232,Regency Street,90623,33.8424694,-118.0495725
8202,Regency Street,90623,33.8428393,-118.0492629
8192,Regency Street,90623,33.8429444,-118.0491655
8242,Regency Street,90623,33.8423402,-118.0496847
8222,Regency Street,90623,33.8425826,-118.0494714
8272,Regency Street,90623,33.8419829,-118.0500273
8262,Regency Street,90623,33.8420967,-118.0498998
8282,Regency Street,90623,33.8418501,-118.0501112
8292,Regency Street,90623,33.8417434,-118.0502276
8252,Regency Street,90623,33.8422250,-118.0497875
8302,Regency Street,90623,33.8416151,-118.0503399
8231,Regency Street,90623,33.8425708,-118.0500512
8281,Regency Street,90623,33.8419488,-118.0505974
8271,Regency Street,90623,33.8420752,-118.0504709
8201,Regency Street,90623,33.8429353,-118.0497230
8261,Regency Street,90623,33.8422048,-118.0503668
8221,Regency Street,90623,33.8426823,-118.0499585
8251,Regency Street,90623,33.8423208,-118.0502648
8211,Regency Street,90623,33.8428142,-118.0498262
8241,Regency Street,90623,33.8424337,-118.0501615
8291,Regency Street,90623,33.8418385,-118.0507173
8235,Somerdale Lane,90623,33.8428252,-118.0507642
8222,Somerdale Lane,90623,33.8429541,-118.0500849
8231,Somerdale Lane,90623,33.8429328,-118.0506598
8272,Somerdale Lane,90623,33.8422341,-118.0507454
8242,Somerdale Lane,90623,33.8425949,-118.0504073
8232,Somerdale Lane,90623,33.8428481,-118.0502072
8241,Somerdale Lane,90623,33.8426927,-118.0508967
8262,Somerdale Lane,90623,33.8423481,-118.0506390
8252,Somerdale Lane,90623,33.8424863,-118.0505257
8236,Somerdale Lane,90623,33.8427127,-118.0503033
8282,Somerdale Lane,90623,33.8421074,-118.0508382
8231,Wickham Lane,90623,33.8428803,-118.0516492
4621,Amberwood Avenue,90623,33.8426736,-118.0520275
4591,Amberwood Avenue,90623,33.8429620,-118.0525085
4631,Amberwood Avenue,90623,33.8425868,-118.0518919
4611,Amberwood Avenue,90623,33.8427597,-118.0521716
8222,Redford Lane,90623,33.8429137,-118.0520014
8241,Wickham Lane,90623,33.8427628,-118.0517661
8232,Wickham Lane,90623,33.8428528,-118.0511422
8242,Wickham Lane,90623,33.8426135,-118.0513415
8262,Wickham Lane,90623,33.8423509,-118.0515582
8222,Wickham Lane,90623,33.8429774,-118.0510341
8252,Wickham Lane,90623,33.8424786,-118.0514642
8271,Somerdale Lane,90623,33.8423255,-118.0511978
8281,Somerdale Lane,90623,33.8422113,-118.0513031
8251,Somerdale Lane,90623,33.8425797,-118.0509784
8261,Somerdale Lane,90623,33.8424432,-118.0510996
8292,Somerdale Lane,90623,33.8419940,-118.0509538
4612,Amberwood Avenue,90623,33.8423952,-118.0523519
4572,Amberwood Avenue,90623,33.8429410,-118.0532291
4602,Amberwood Avenue,90623,33.8425807,-118.0526353
4606,Amberwood Avenue,90623,33.8424816,-118.0524823
4582,Amberwood Avenue,90623,33.8427480,-118.0529329
4622,Amberwood Avenue,90623,33.8423177,-118.0521971
4576,Amberwood Avenue,90623,33.8428500,-118.0530831
4592,Amberwood Avenue,90623,33.8426617,-118.0527797
4632,Amberwood Avenue,90623,33.8422232,-118.0520591
4672,Amberwood Avenue,90623,33.8418661,-118.0514648
4692,Amberwood Avenue,90623,33.8415883,-118.0510214
4682,Amberwood Avenue,90623,33.8416906,-118.0511658
4642,Amberwood Avenue,90623,33.8421392,-118.0519031
4662,Amberwood Avenue,90623,33.8419522,-118.0516027
4652,Amberwood Avenue,90623,33.8420417,-118.0517583
4676,Amberwood Avenue,90623,33.8417632,-118.0513131
4782,Amberwood Avenue,90623,33.8406646,-118.0495803
8372,Suffield Street,90623,33.8406174,-118.0493555
4874,Embassy Circle,90623,33.8391873,-118.0483673
4868,Embassy Circle,90623,33.8391821,-118.0487964
4838,Embassy Circle,90623,33.8391749,-118.0496326
4852,Embassy Circle,90623,33.8391800,-118.0492067
4802,Embassy Circle,90623,33.8394897,-118.0487354
4857,Embassy Circle,90623,33.8394165,-118.0491421
4839,Embassy Circle,90623,33.8394283,-118.0495558
4820,Embassy Circle,90623,33.8397104,-118.0491344
4830,Embassy Circle,90623,33.8397819,-118.0495495
5014,Orangethorpe Avenue,90623,33.8584047,-118.0459159
8081,Moody Street,90623,33.8452305,-118.0467618
