House number,Street name,Postal code,Latitude,Longitude
24338,El Toro Road,92637,33.6086184,-117.7316380
24336,El Toro Road,92637,33.6081853,-117.7317358
24100,El Toro Road,92637,33.6124154,-117.7133186
107,Via Estrada,92637,33.6050232,-117.7085261
24102,El Toro Road,92630,33.6119662,-117.7141449
24191,Paseo de Valencia,92630,33.6111424,-117.7141414
898,Ronda Sevilla,92637,33.5958510,-117.7089905
865,Ronda Mendoza,92637,33.5957880,-117.7061278
865,Ronda Mendoza,92637,33.5956257,-117.7065275
897,Ronda Sevilla,92637,33.5951615,-117.7089845
857,Ronda Mendoza,92637,33.5947155,-117.7061668
4015,Calle Sonora Oeste,92637,33.6037730,-117.7333798
3247,San Amadeo,92637,33.6055112,-117.7432955
3245,San Amadeo,92637,33.6050749,-117.7432236
4005,Calle Sonora Oeste,92637,33.6051772,-117.7349073
3104,Via Serena South,92637,33.6148002,-117.7316133
23742,Moulton Parkway,92637,33.6169675,-117.7307018
24270,El Toro Road,92637-3435,33.6095520,-117.7234237
23582,Moulton Parkway,92637,33.6201445,-117.7309740
24191,Paseo de Valencia,92630,33.6108185,-117.7141108
24191,Paseo de Valencia,92630,33.6109451,-117.7141213
24191,Paseo de Valencia,92630,33.6110006,-117.7141273
24191,Paseo de Valencia,92630,33.6108730,-117.7141178
24191,Paseo de Valencia,92630,33.6110574,-117.7141483
24102,El Toro Road,92630,33.6121493,-117.7142597
24102,El Toro Road,92630,33.6121891,-117.7141187
24102,El Toro Road,92630,33.6121415,-117.7144341
24102,El Toro Road,92630,33.6120715,-117.7141235
24102,El Toro Road,92630,33.6121518,-117.7143485
24102,El Toro Road,92630,33.6118948,-117.7141387
24281,Moulton Parkway,92637,33.6096257,-117.7253987
24270,El Toro Road,92653,33.6095872,-117.7231800
24112,Moulton Parkway,92637,33.6157383,-117.7257560
24264,El Toro Road,92637,33.6105200,-117.7234599
24001,Paseo de Valencia,92637,33.6140894,-117.7129409
24001,Paseo de Valencia,92637,33.6140611,-117.7127945
24256,El Toro Road,92637,33.6110308,-117.7226047
24085,El Toro Road,92653,33.6130741,-117.7133343
24100,El Toro Road,92637,33.6123348,-117.7133913
24102,El Toro Road,92630,33.6120313,-117.7142904
24191,Paseo de Valencia,92630,33.6109935,-117.7142045
24165,Paseo de Valencia,92637,33.6115326,-117.7142793
24211,Paseo de Valencia,92637,33.6107333,-117.7134438
24301,Paseo de Valencia,92637,33.6094645,-117.7131189
24055,Paseo del Lago West,92637,33.6134201,-117.7442315
24055,Paseo del Lago West,92637,33.6131132,-117.7452253
116,Via Estrada,92637,33.6049307,-117.7084962
23562,Moulton Parkway,92637,33.6206366,-117.7310833
23572,Moulton Parkway,92637,33.6205586,-117.7302229
23582,Moulton Parkway,92637,33.6201162,-117.7308590
4026,Calle Sonora Este,92637,33.6001237,-117.7342225
24181,Moulton Parkway,92637,33.6102021,-117.7260362
24312,El Toro Road,92637,33.6086855,-117.7262195
933,Avenida Majorca,92637,33.5958512,-117.7105862
934,Avenida Majorca,92637,33.5958377,-117.7109861
935,Avenida Majorca,92637,33.5959883,-117.7112668
936,Avenida Majorca,92637,33.5960883,-117.7115426
937,Avenida Majorca,92637,33.5960994,-117.7118833
938,Avenida Majorca,92637,33.5962281,-117.7121850
940,Avenida Majorca,92637,33.5963336,-117.7117547
736,Avenida Majorca,92637,33.5963037,-117.7125596
932,Avenida Majorca,92637,33.5961698,-117.7108787
931,Avenida Majorca,92637,33.5962275,-117.7104945
907,Ronda Sevilla,92637,33.5960990,-117.7097111
906,Ronda Sevilla,92637,33.5957441,-117.7097295
905,Ronda Sevilla,92637,33.5953576,-117.7097421
902,Ronda Sevilla,92637,33.5952572,-117.7093247
901,Ronda Sevilla,92637,33.5949524,-117.7090808
896,Ronda Sevilla,92637,33.5948341,-117.7086121
897,Ronda Sevilla,92637,33.5952639,-117.7087618
895,Ronda Sevilla,92637,33.5946330,-117.7081779
893,Ronda Sevilla,92637,33.5952348,-117.7083327
894,Ronda Sevilla,92637,33.5952529,-117.7080459
840,Ronda Sevilla,92637,33.5942912,-117.7077933
842,Ronda Sevilla,92637,33.5944867,-117.7074741
841,Ronda Sevilla,92637,33.5947500,-117.7076111
900,Ronda Sevilla,92637,33.5958269,-117.7082231
899,Ronda Sevilla,92637,33.5961087,-117.7083650
898,Ronda Sevilla,92637,33.5958375,-117.7087730
904,Ronda Sevilla,92637,33.5961492,-117.7090412
903,Ronda Sevilla,92637,33.5958497,-117.7093036
882,Via Mendoza,92637,33.5961726,-117.7076958
886,Ronda Sevilla,92637,33.5964299,-117.7085937
887,Ronda Sevilla,92637,33.5964468,-117.7092844
908,Ronda Sevilla,92637,33.5964604,-117.7096949
838,Ronda Sevilla,92637,33.5938195,-117.7075588
846,Ronda Mendoza,92637,33.5951246,-117.7071768
849,Ronda Mendoza,92637,33.5961681,-117.7070425
847,Ronda Mendoza,92637,33.5954688,-117.7073633
848,Ronda Mendoza,92637,33.5958633,-117.7073300
844,Ronda Mendoza,92637,33.5944560,-117.7068009
845,Ronda Mendoza,92637,33.5947733,-117.7070238
839,Ronda Sevilla,92637,33.5940261,-117.7074255
843,Ronda Sevilla,92637,33.5942700,-117.7072199
833,Ronda Mendoza,92637,33.5940481,-117.7058759
834,Ronda Mendoza,92637,33.5941257,-117.7063122
832,Ronda Mendoza,92637,33.5942330,-117.7054653
831,Ronda Mendoza,92637,33.5944676,-117.7050757
856,Ronda Mendoza,92637,33.5944743,-117.7060432
858,Ronda Mendoza,92637,33.5952774,-117.7067919
863,Ronda Mendoza,92637,33.5947641,-117.7053385
857,Ronda Mendoza,92637,33.5947901,-117.7064935
852,Ronda Mendoza,92637,33.5963641,-117.7057107
859,Ronda Mendoza,92637,33.5957860,-117.7067668
860,Ronda Mendoza,92637,33.5960391,-117.7061632
861,Ronda Mendoza,92637,33.5957600,-117.7056688
851,Ronda Mendoza,92637,33.5963995,-117.7061906
854,Ronda Mendoza,92637,33.5957555,-117.7051822
862,Ronda Mendoza,92637,33.5952530,-117.7053595
853,Ronda Mendoza,92637,33.5960708,-117.7054090
855,Ronda Mendoza,92637,33.5953971,-117.7050285
850,Ronda Mendoza,92637,33.5963536,-117.7066411
866,Ronda Mendoza,92637,33.5953768,-117.7058619
864,Ronda Mendoza,92637,33.5951890,-117.7063060
865,Ronda Mendoza,92637,33.5955416,-117.7062407
822,Via Alhambra,92637,33.5961851,-117.7047371
830,Ronda Mendoza,92637,33.5947400,-117.7047732
860,Ronda Mendoza,92637,33.5960139,-117.7058034
856,Ronda Mendoza,92637,33.5946564,-117.7059407
859,Ronda Mendoza,92637,33.5955574,-117.7069611
865,Ronda Mendoza,92637,33.5953895,-117.7064727
805,Ronda Mendoza,92637,33.5960118,-117.7029940
806,Ronda Mendoza,92637,33.5956668,-117.7028798
804,Ronda Mendoza,92637,33.5961870,-117.7033701
801,Ronda Mendoza,92637,33.5956911,-117.7045040
802,Ronda Mendoza,92637,33.5959059,-117.7041597
803,Ronda Mendoza,92637,33.5960700,-117.7037718
811,Ronda Mendoza,92637,33.5953823,-117.7038352
807,Ronda Mendoza,92637,33.5956080,-117.7031588
808,Ronda Mendoza,92637,33.5953566,-117.7033482
809,Ronda Mendoza,92637,33.5956269,-117.7035144
812,Ronda Mendoza,92637,33.5950589,-117.7039858
810,Ronda Mendoza,92637,33.5954390,-117.7042548
795,Via Los Altos,92637,33.5961006,-117.7023425
796,Via Los Altos,92637,33.5958172,-117.7024201
797,Via Los Altos,92637,33.5962425,-117.7027032
836,Ronda Sevilla,92637,33.5935735,-117.7068926
837,Ronda Sevilla,92637,33.5937137,-117.7071510
835,Ronda Sevilla,92637,33.5938091,-117.7064848
25261,Paseo de Valencia,92637,33.5959068,-117.7019054
753,Avenida Majorca,92637,33.5981605,-117.7158574
751,Avenida Majorca,92637,33.5977003,-117.7158257
5306,Cantante,92637,33.6193377,-117.7469358
5309,Cantante,92637,33.6198190,-117.7470296
5307,Cantante,92637,33.6194805,-117.7468986
5310,Cantante,92637,33.6193942,-117.7473698
5311,Cantante,92637,33.6192136,-117.7474890
5305,Cantante,92637,33.6191735,-117.7469488
5308,Cantante,92637,33.6196553,-117.7468935
5046,Avenida del Sol,92637,33.6170518,-117.7489112
5045,Avenida del Sol,92637,33.6169002,-117.7489815
5047,Avenida del Sol,92637,33.6172114,-117.7488269
5048,Avenida del Sol,92637,33.6173657,-117.7487188
5292,Avenida del Sol,92637,33.6190156,-117.7459781
5295,Avenida del Sol,92637,33.6185727,-117.7463707
5296,Avenida del Sol,92637,33.6184607,-117.7465191
5293,Avenida del Sol,92637,33.6188186,-117.7461578
5294,Avenida del Sol,92637,33.6186927,-117.7462545
5297,Avenida del Sol,92637,33.6183417,-117.7467059
5291,Avenida del Sol,92637,33.6191327,-117.7459477
5298,Cantante,92637,33.6182265,-117.7473933
5302,Cantante,92637,33.6187950,-117.7471967
5303,Cantante,92637,33.6189126,-117.7471010
5299,Cantante,92637,33.6183853,-117.7473939
5301,Cantante,92637,33.6186745,-117.7472595
5300,Cantante,92637,33.6185302,-117.7473409
5304,Cantante,92637,33.6190512,-117.7470303
5314,Cantante,92637,33.6188211,-117.7477658
5317,Cantante,92637,33.6183527,-117.7479259
5316,Cantante,92637,33.6185024,-117.7478945
5315,Cantante,92637,33.6186591,-117.7478452
5313,Cantante,92637,33.6189575,-117.7476567
5312,Cantante,92637,33.6190807,-117.7475845
5054,Avenida del Sol,92637,33.6181409,-117.7478422
5049,Avenida del Sol,92637,33.6175059,-117.7485784
5063,Avenida del Sol,92637,33.6168498,-117.7484336
5053,Avenida del Sol,92637,33.6180846,-117.7480648
5061,Avenida del Sol,92637,33.6171566,-117.7482174
5052,Avenida del Sol,92637,33.6179446,-117.7481839
5051,Avenida del Sol,92637,33.6177907,-117.7483139
5060,Avenida del Sol,92637,33.6172817,-117.7481076
5062,Avenida del Sol,92637,33.6169788,-117.7483196
5050,Avenida del Sol,92637,33.6176585,-117.7484651
5136,Brazo,92637,33.6172989,-117.7476502
5134,Brazo,92637,33.6169954,-117.7478514
5059,Avenida del Sol,92637,33.6174177,-117.7479852
5055,Avenida del Sol,92637,33.6178687,-117.7472460
5058,Avenida del Sol,92637,33.6175772,-117.7478298
5139,Brazo,92637,33.6175832,-117.7471971
5133,Brazo,92637,33.6168603,-117.7479477
5138,Brazo,92637,33.6175285,-117.7473710
5135,Brazo,92637,33.6171355,-117.7477383
5137,Brazo,92637,33.6174276,-117.7475161
5056,Avenida del Sol,92637,33.6178242,-117.7474526
5057,Avenida del Sol,92637,33.6177420,-117.7476098
5117,Miembro,92637,33.6168865,-117.7470055
5256,Duenas,92637,33.6170612,-117.7458994
5143,Miembro,92637,33.6168249,-117.7461233
5141,Miembro,92637,33.6170256,-117.7464830
5257,Duenas,92637,33.6171368,-117.7460738
5118,Brazo,92637,33.6171449,-117.7471131
5119,Brazo,92637,33.6170007,-117.7472406
5140,Miembro,92637,33.6171250,-117.7465581
5258,Duenas,92637,33.6172146,-117.7462057
5120,Brazo,92637,33.6168598,-117.7473283
5142,Miembro,92637,33.6169049,-117.7462928
5268,Avenida del Sol,92637,33.6183335,-117.7459149
5267,Avenida del Sol,92637,33.6181816,-117.7460462
5264,Miembro,92637,33.6179447,-117.7467513
5261,Miembro,92637,33.6174767,-117.7465764
5263,Miembro,92637,33.6177887,-117.7467692
5243,Duenas,92637,33.6178091,-117.7459829
5259,Duenas,92637,33.6177371,-117.7462033
5265,Avenida del Sol,92637,33.6179615,-117.7464049
5260,Duenas,92637,33.6176613,-117.7463661
5266,Avenida del Sol,92637,33.6180507,-117.7461791
5262,Miembro,92637,33.6176066,-117.7466707
5064,Avenida del Sol,92637,33.6167290,-117.7485150
5066,Avenida del Sol,92637,33.6164421,-117.7486783
5070,Avenida del Sol,92637,33.6157937,-117.7486892
5068,Avenida del Sol,92637,33.6161283,-117.7488771
5069,Avenida del Sol,92637,33.6159656,-117.7488573
5065,Avenida del Sol,92637,33.6165840,-117.7485965
5067,Avenida del Sol,92637,33.6163128,-117.7487838
5033,Avenida del Sol,92637,33.6152615,-117.7488369
5038,Avenida del Sol,92637,33.6159007,-117.7495931
5034,Avenida del Sol,92637,33.6153920,-117.7489839
5040,Avenida del Sol,92637,33.6162547,-117.7495351
5043,Avenida del Sol,92637,33.6166533,-117.7492009
5036,Avenida del Sol,92637,33.6157233,-117.7492832
5041,Avenida del Sol,92637,33.6162752,-117.7493477
5037,Avenida del Sol,92637,33.6157694,-117.7494501
5035,Avenida del Sol,92637,33.6154980,-117.7491341
5039,Avenida del Sol,92637,33.6160851,-117.7496767
5042,Avenida del Sol,92637,33.6165188,-117.7492782
5032,Avenida del Sol,92637,33.6151797,-117.7487294
5044,Avenida del Sol,92637,33.6167822,-117.7490738
5336,Bahia Blanca West,92637,33.6149802,-117.7498203
5338,Bahia Blanca West,92637,33.6148600,-117.7504005
5334,Bahia Blanca West,92637,33.6148050,-117.7495295
5335,Bahia Blanca West,92637,33.6145792,-117.7498616
5337,Bahia Blanca West,92637,33.6153004,-117.7501491
5129,Brazo,92637,33.6162845,-117.7483165
5128,Brazo,92637,33.6161693,-117.7484194
5131,Brazo,92637,33.6165738,-117.7481308
5121,Brazo,92637,33.6167285,-117.7474145
5132,Brazo,92637,33.6167210,-117.7480530
5123,Brazo,92637,33.6164538,-117.7475745
5130,Brazo,92637,33.6164105,-117.7482209
5122,Brazo,92637,33.6165958,-117.7475117
5125,Brazo,92637,33.6161721,-117.7477543
5126,Brazo,92637,33.6160426,-117.7478611
5124,Brazo,92637,33.6163402,-117.7476841
5127,Brazo,92637,33.6158747,-117.7480019
5145,Miembro,92637,33.6167092,-117.7458434
5109,Miembro,92637,33.6161062,-117.7457914
5112,Miembro,92637,33.6163844,-117.7462411
5115,Miembro,92637,33.6166472,-117.7467200
5114,Miembro,92637,33.6165386,-117.7465630
5111,Miembro,92637,33.6163052,-117.7460541
5110,Miembro,92637,33.6162041,-117.7459148
5144,Miembro,92637,33.6167629,-117.7459999
5116,Miembro,92637,33.6167675,-117.7468792
5113,Miembro,92637,33.6164492,-117.7464112
5085,Ovalo,92637,33.6161724,-117.7467336
5104,Avenida Despacio,92637,33.6156236,-117.7460610
5082,Ovalo,92637,33.6164082,-117.7471153
5105,Avenida Despacio,92637,33.6157059,-117.7459107
5083,Ovalo,92637,33.6163462,-117.7469940
5103,Avenida Despacio,92637,33.6155171,-117.7462215
5084,Ovalo,92637,33.6162430,-117.7468572
5088,Ovalo,92637,33.6159524,-117.7462867
5087,Ovalo,92637,33.6160046,-117.7464407
5089,Ovalo,92637,33.6158268,-117.7461376
5086,Ovalo,92637,33.6160861,-117.7465749
5090,Ovalo,92637,33.6155690,-117.7467004
5091,Ovalo,92637,33.6156973,-117.7468119
5079,Ovalo,92637,33.6158637,-117.7471339
5080,Ovalo,92637,33.6159337,-117.7472894
5081,Ovalo,92637,33.6159980,-117.7474323
5075,Tero,92637,33.6154223,-117.7480218
5078,Tero,92637,33.6156960,-117.7475608
5076,Tero,92637,33.6155404,-117.7478541
5077,Tero,92637,33.6156197,-117.7476838
5074,Tero,92637,33.6152769,-117.7481017
5074,Avenida del Sol,92637,33.6154602,-117.7482835
5073,Avenida del Sol,92637,33.6155689,-117.7484106
5071,Avenida del Sol,92637,33.6156807,-117.7485475
5021,Jardin,92637,33.6147279,-117.7468596
5024,Avenida del Sol,92637,33.6145775,-117.7474261
5030,Avenida del Sol,92637,33.6149526,-117.7484089
5031,Avenida del Sol,92637,33.6150531,-117.7485746
5027,Avenida del Sol,92637,33.6147382,-117.7479190
5026,Avenida del Sol,92637,33.6146737,-117.7477497
5022,Avenida del Sol,92637,33.6145704,-117.7470581
5028,Avenida del Sol,92637,33.6148103,-117.7480748
5029,Avenida del Sol,92637,33.6148832,-117.7482185
5023,Avenida del Sol,92637,33.6145837,-117.7472356
5025,Avenida del Sol,92637,33.6146285,-117.7476036
5019,Jardin,92637,33.6143914,-117.7468357
5018,Jardin,92637,33.6143570,-117.7462304
5017,Jardin,92637,33.6144995,-117.7462537
5015,Jardin,92637,33.6148028,-117.7463468
5016,Jardin,92637,33.6146471,-117.7462977
5020,Jardin,92637,33.6145644,-117.7468000
5094,Tero,92637,33.6153325,-117.7473350
5100,Avenida del Sol,92637,33.6152006,-117.7468110
5101,Avenida del Sol,92637,33.6152926,-117.7466299
5099,Avenida del Sol,92637,33.6151244,-117.7469851
5095,Tero,92637,33.6152047,-117.7475635
5102,Avenida del Sol,92637,33.6153766,-117.7465205
5014,Jardin,92637,33.6149141,-117.7464216
5096,Tero,92637,33.6150982,-117.7476484
5097,Avenida del Sol,92637,33.6150176,-117.7473231
5093,Tero,92637,33.6154066,-117.7471345
5098,Avenida del Sol,92637,33.6150499,-117.7471612
5092,Tero,92637,33.6154840,-117.7469666
4026,Calle Sonora Este,92637,33.6002450,-117.7334893
4025,Calle Sonora Este,92637,33.6007786,-117.7340850
3002,Via Buena Vista,92637,33.6096970,-117.7335260
24301,El Toro Road,92637,33.6093814,-117.7334016
24112,Moulton Parkway,92637,33.6131880,-117.7294430
23542,Moulton Parkway,92637,33.6196464,-117.7263075
5286,Pina,92637,33.6198811,-117.7456456
5276,Pina,92637,33.6199174,-117.7451167
5287,Pina,92637,33.6197283,-117.7456215
5284,Pina,92637,33.6201871,-117.7456170
5288,Avenida del Sol,92637,33.6195767,-117.7457631
5282,Pina,92637,33.6204803,-117.7454444
5290,Avenida del Sol,92637,33.6192854,-117.7458805
5289,Avenida del Sol,92637,33.6194363,-117.7458365
5285,Pina,92637,33.6200337,-117.7456369
5283,Pina,92637,33.6203548,-117.7455490
5278,Pina,92637,33.6202509,-117.7450162
5277,Pina,92637,33.6201014,-117.7450933
5281,Pina,92637,33.6206105,-117.7453559
5280,Pina,92637,33.6207424,-117.7451491
5279,Pina,92637,33.6207479,-117.7449792
5228,Moya,92637,33.6205209,-117.7444572
5231,Moya,92637,33.6200860,-117.7446104
5229,Moya,92637,33.6203775,-117.7444836
5226,Moya,92637,33.6208233,-117.7443099
5225,Moya,92637,33.6207945,-117.7439400
5223,Moya,92637,33.6205063,-117.7438754
5227,Moya,92637,33.6207108,-117.7444325
5232,Moya,92637,33.6199517,-117.7446501
5230,Moya,92637,33.6202250,-117.7445406
5219,Moya,92637,33.6199384,-117.7441154
5220,Moya,92637,33.6200613,-117.7440689
5221,Moya,92637,33.6202086,-117.7439930
5222,Moya,92637,33.6203639,-117.7439296
5224,Moya,92637,33.6206524,-117.7438228
5236,Elvira,92637,33.6191263,-117.7449280
5273,Avenida del Sol,92637,33.6191653,-117.7453438
5275,Avenida del Sol,92637,33.6195295,-117.7450865
5235,Elvira,92637,33.6192710,-117.7448701
5274,Avenida del Sol,92637,33.6193469,-117.7453062
5234,Elvira,92637,33.6194095,-117.7448025
5233,Elvira,92637,33.6195293,-117.7446573
5218,Elvira,92637,33.6194893,-117.7444064
5217,Elvira,92637,33.6193944,-117.7442762
5216,Elvira,92637,33.6191465,-117.7442906
5271,Avenida del Sol,92637,33.6188749,-117.7454658
5270,Avenida del Sol,92637,33.6187303,-117.7455513
5254,Duenas,92637,33.6169129,-117.7456150
5272,Avenida del Sol,92637,33.6190225,-117.7454035
5245,Duenas,92637,33.6174878,-117.7457649
5246,Duenas,92637,33.6174076,-117.7456069
5244,Duenas,92637,33.6176729,-117.7458180
5253,Duenas,92637,33.6168515,-117.7454412
5252,Duenas,92637,33.6167949,-117.7452371
5255,Duenas,92637,33.6169956,-117.7457682
5247,Duenas,92637,33.6173224,-117.7454470
5269,Avenida del Sol,92637,33.6185868,-117.7456405
5182,Duenas,92637,33.6169920,-117.7440774
5183,Duenas,92637,33.6171029,-117.7439484
5180,Duenas,92637,33.6168848,-117.7444843
5181,Duenas,92637,33.6168953,-117.7443061
5250,Duenas,92637,33.6168060,-117.7448612
5251,Duenas,92637,33.6167903,-117.7450370
5242,Avenida Despacio,92637,33.6180952,-117.7456904
5208,Avenida Despacio,92637,33.6179686,-117.7455587
5207,Avenida Despacio,92637,33.6178175,-117.7454749
5206,Avenida Despacio,92637,33.6176775,-117.7453782
5205,Avenida Despacio,92637,33.6175726,-117.7452797
5248,Duenas,92637,33.6172662,-117.7452490
5249,Duenas,92637,33.6172157,-117.7450824
5186,Duenas,92637,33.6175953,-117.7437708
5187,Duenas,92637,33.6177460,-117.7438585
5188,Duenas,92637,33.6179079,-117.7439180
5189,Duenas,92637,33.6180477,-117.7439903
5190,Duenas,92637,33.6182767,-117.7440983
5191,Duenas,92637,33.6183307,-117.7443038
5192,Duenas,92637,33.6182574,-117.7444837
5197,Duenas,92637,33.6175154,-117.7442723
5198,Duenas,92637,33.6172998,-117.7443892
5199,Duenas,92637,33.6172605,-117.7445869
5185,Duenas,92637,33.6174174,-117.7437805
5178,Calzado,92637,33.6168723,-117.7439054
5184,Calzado,92637,33.6174117,-117.7435526
5196,Duenas,92637,33.6176598,-117.7443584
5195,Duenas,92637,33.6177987,-117.7444579
5194,Duenas,92637,33.6179215,-117.7445201
5193,Duenas,92637,33.6180611,-117.7445700
5200,Avenida Despacio,92637,33.6174677,-117.7446398
5209,Avenida Despacio,92637,33.6181273,-117.7450424
5201,Avenida Despacio,92637,33.6176120,-117.7447237
5203,Avenida Despacio,92637,33.6178829,-117.7448634
5202,Avenida Despacio,92637,33.6177436,-117.7447825
5210,Elvira,92637,33.6182695,-117.7447978
5204,Avenida Despacio,92637,33.6179878,-117.7449391
5211,Elvira,92637,33.6183818,-117.7447180
5212,Elvira,92637,33.6185594,-117.7445940
5213,Elvira,92637,33.6187276,-117.7445116
5214,Elvira,92637,33.6188763,-117.7444582
5215,Elvira,92637,33.6190340,-117.7444177
5238,Elvira,92637,33.6188200,-117.7450458
5237,Elvira,92637,33.6189671,-117.7449822
5240,Elvira,92637,33.6185387,-117.7452287
5241,Elvira,92637,33.6183994,-117.7453369
5239,Elvira,92637,33.6186800,-117.7451193
3097,Via Serena North,92637,33.6167758,-117.7364477
3134,Via Serena North,92637,33.6170867,-117.7359410
3135,Via Serena North,92637,33.6168632,-117.7357072
3133,Via Serena North,92637,33.6171824,-117.7355854
3132,Via Serena North,92637,33.6172373,-117.7352523
3131,Via Serena North,92637,33.6169801,-117.7351147
3109,Via Serena North,92637,33.6170332,-117.7330848
3124,Via Serena North,92637,33.6169754,-117.7335375
3108,Via Serena North,92637,33.6168904,-117.7326988
3129,Via Serena North,92637,33.6173193,-117.7347814
3126,Via Serena North,92637,33.6170419,-117.7339646
3128,Via Serena North,92637,33.6172730,-117.7342922
3130,Via Serena North,92637,33.6170405,-117.7347807
3127,Via Serena North,92637,33.6172410,-117.7337916
5176,Calzado,92637,33.6166043,-117.7441167
5173,Calzado,92637,33.6161995,-117.7439307
5170,Belmez,92637,33.6159358,-117.7441745
5169,Belmez,92637,33.6157578,-117.7441673
5177,Calzado,92637,33.6166987,-117.7439935
5179,Avenida Despacio,92637,33.6165921,-117.7444212
5171,Belmez,92637,33.6160796,-117.7442292
5174,Calzado,92637,33.6162734,-117.7440918
5172,Belmez,92637,33.6162124,-117.7444083
5175,Calzado,92637,33.6164019,-117.7442015
5159,Belmez,92637,33.6154578,-117.7446840
5160,Belmez,92637,33.6153018,-117.7446609
5161,Belmez,92637,33.6151358,-117.7447296
5162,Belmez,92637,33.6149559,-117.7446383
5163,Belmez,92637,33.6148643,-117.7444382
5164,Belmez,92637,33.6149236,-117.7441885
5165,Belmez,92637,33.6150763,-117.7440574
5166,Belmez,92637,33.6152660,-117.7440922
5167,Belmez,92637,33.6154086,-117.7441500
5168,Belmez,92637,33.6156180,-117.7441783
5158,Avenida Despacio,92637,33.6158257,-117.7446623
5157,Avenida Despacio,92637,33.6157393,-117.7447796
5156,Avenida Despacio,92637,33.6156430,-117.7449268
5155,Avenida Despacio,92637,33.6155862,-117.7450582
5004,Duverney,92637,33.6150238,-117.7451331
5007,Duverney,92637,33.6145752,-117.7449486
5013,Duverney,92637,33.6152642,-117.7458434
5006,Duverney,92637,33.6147118,-117.7450380
5001,Duverney,92637,33.6154754,-117.7453802
5000,Duverney,92637,33.6153192,-117.7452741
5002,Duverney,92637,33.6152051,-117.7452147
5010,Duverney,92637,33.6147377,-117.7456083
5009,Duverney,92637,33.6145931,-117.7455646
5005,Duverney,92637,33.6148692,-117.7450889
5011,Duverney,92637,33.6149438,-117.7456510
5012,Duverney,92637,33.6150937,-117.7457270
5106,Avenida Despacio,92637,33.6157711,-117.7457409
5152,Avenida Despacio,92637,33.6162327,-117.7449576
5154,Avenida Despacio,92637,33.6160115,-117.7452680
5153,Avenida Despacio,92637,33.6161255,-117.7450847
5150,Avenida Despacio,92637,33.6165731,-117.7448940
5148,Miembro,92637,33.6164599,-117.7453638
5151,Avenida Despacio,92637,33.6164314,-117.7449052
5146,Miembro,92637,33.6166036,-117.7456543
5107,Avenida Despacio,92637,33.6158665,-117.7455583
5149,Miembro,92637,33.6163471,-117.7452463
5147,Miembro,92637,33.6165085,-117.7455166
5108,Avenida Despacio,92637,33.6159350,-117.7454306
5500,Paseo del Lago West,92637,33.6145262,-117.7426653
5499,Paseo del Lago West,92637,33.6149466,-117.7417573
3092,Via Serena North,92637,33.6160118,-117.7376950
3091,Via Serena North,92637,33.6157491,-117.7375657
3089,Via Serena North,92637,33.6155456,-117.7371550
3103,Via Serena North,92637,33.6157940,-117.7365978
3090,Via Serena North,92637,33.6154591,-117.7374767
3096,Via Serena North,92637,33.6165902,-117.7366903
3095,Via Serena North,92637,33.6164584,-117.7369499
3093,Via Serena North,92637,33.6161632,-117.7374539
3094,Via Serena North,92637,33.6163220,-117.7372237
3088,Via Serena North,92637,33.6158065,-117.7372649
3102,Via Serena North,92637,33.6159725,-117.7363311
3101,Via Serena North,92637,33.6161966,-117.7361507
3098,Via Serena North,92637,33.6163942,-117.7363979
3099,Via Serena North,92637,33.6166238,-117.7361962
3100,Via Serena North,92637,33.6164294,-117.7359564
3086,Via Serena North,92637,33.6158650,-117.7355130
3085,Via Serena North,92637,33.6156824,-117.7358114
3120,Via Serena North,92637,33.6164104,-117.7349061
3084,Via Serena North,92637,33.6154363,-117.7356298
3087,Via Serena North,92637,33.6157415,-117.7351874
3080,Via Serena South,92637,33.6154279,-117.7348147
3065,Via Serena South,92637,33.6146517,-117.7353905
3079,Via Serena South,92637,33.6152251,-117.7350048
3064,Via Serena South,92637,33.6148342,-117.7356151
3063,Via Serena South,92637,33.6146083,-117.7358693
3077,Via Serena South,92637,33.6150438,-117.7352858
3076,Via Serena South,92637,33.6148774,-117.7350219
3073,Via Serena North,92637,33.6151713,-117.7360407
3066,Via Serena South,92637,33.6144782,-117.7351223
3072,Via Serena North,92637,33.6153044,-117.7363121
3074,Via Serena North,92637,33.6149502,-117.7362748
3070,Via Serena North,92637,33.6150399,-117.7368366
3068,Via Serena North,92637,33.6146074,-117.7369825
3069,Via Serena North,92637,33.6149007,-117.7370967
3071,Via Serena North,92637,33.6151725,-117.7365668
3110,Via Serena South,92637,33.6167225,-117.7330156
3111,Via Serena South,92637,33.6163047,-117.7330202
3105,Via Serena South,92637,33.6155854,-117.7326356
3044,Via Serena South,92637,33.6144703,-117.7337061
3112,Via Serena South,92637,33.6158377,-117.7329899
3123,Via Serena South,92637,33.6166341,-117.7335109
3125,Via Serena North,92637,33.6167904,-117.7339200
3113,Via Serena South,92637,33.6155567,-117.7330224
3106,Via Serena South,92637,33.6160470,-117.7326468
3107,Via Serena South,92637,33.6164803,-117.7326358
3122,Via Serena North,92637,33.6164130,-117.7342539
3117,Via Serena South,92637,33.6154985,-117.7337823
3104,Via Serena South,92637,33.6151854,-117.7326462
3083,Via Serena South,92637,33.6150844,-117.7339590
3118,Via Serena North,92637,33.6159439,-117.7345325
3114,Via Serena South,92637,33.6160658,-117.7337870
3119,Via Serena North,92637,33.6161325,-117.7347664
3115,Via Serena South,92637,33.6158448,-117.7339321
3116,Via Serena South,92637,33.6156458,-117.7341028
3121,Via Serena North,92637,33.6164812,-117.7346036
3082,Via Serena South,92637,33.6151991,-117.7342441
3081,Via Serena South,92637,33.6153140,-117.7345217
3078,Via Serena South,92637,33.6151005,-117.7347318
3075,Via Serena South,92637,33.6146988,-117.7347542
3045,Via Serena South,92637,33.6146098,-117.7313595
3443,Calle Azul,92637,33.6124158,-117.7521084
3442,Calle Azul,92637,33.6123131,-117.7518623
3443,Calle Azul,92637,33.6122821,-117.7522083
3447,Bahia Blanca West,92637,33.6132225,-117.7525351
3449,Bahia Blanca West,92637,33.6128635,-117.7527372
3455,Bahia Blanca West,92637,33.6124742,-117.7534174
3454,Bahia Blanca West,92637,33.6126794,-117.7531198
3450,Bahia Blanca West,92637,33.6126930,-117.7525707
3456,Bahia Blanca West,92637,33.6122520,-117.7536926
3453,Bahia Blanca West,92637,33.6124270,-117.7527586
3452,Bahia Blanca West,92637,33.6123146,-117.7528901
3448,Bahia Blanca West,92637,33.6129473,-117.7529388
5343,Bahia Blanca West,92637,33.6139383,-117.7514400
5346,Bahia Blanca West,92637,33.6132517,-117.7520757
5345,Bahia Blanca West,92637,33.6135048,-117.7517442
5344,Bahia Blanca West,92637,33.6136192,-117.7515105
3446,Bahia Blanca West,92637,33.6131302,-117.7524442
3445,Bahia Blanca West,92637,33.6129765,-117.7522342
5355,Algarrobo,92637,33.6128191,-117.7513960
5340,Bahia Blanca West,92637,33.6144707,-117.7507431
5359,Algarrobo,92637,33.6121520,-117.7504350
5339,Bahia Blanca West,92637,33.6143906,-117.7503421
5360,Algarrobo,92637,33.6124749,-117.7507631
5356,Algarrobo,92637,33.6124740,-117.7511631
5342,Bahia Blanca West,92637,33.6140231,-117.7510299
5357,Algarrobo,92637,33.6121776,-117.7509008
5341,Bahia Blanca West,92637,33.6141036,-117.7507968
5348,Algarrobo,92637,33.6134559,-117.7488637
5362,Algarrobo,92637,33.6133573,-117.7502450
5353,Algarrobo,92637,33.6133775,-117.7507870
5349,Algarrobo,92637,33.6136368,-117.7492374
5350,Algarrobo,92637,33.6138134,-117.7496201
5351,Algarrobo,92637,33.6138296,-117.7501069
5364,Algarrobo,92637,33.6132148,-117.7491178
5352,Algarrobo,92637,33.6136179,-117.7504642
5354,Algarrobo,92637,33.6131379,-117.7511197
5363,Algarrobo,92637,33.6134405,-117.7495745
5366,Algarrobo,92637,33.6127268,-117.7503066
5365,Algarrobo,92637,33.6130042,-117.7499400
5361,Algarrobo,92637,33.6130766,-117.7506423
5367,Algarrobo,92637,33.6124537,-117.7501328
5369,Algarrobo,92637,33.6125916,-117.7483716
5332,Bahia Blanca West,92637,33.6142200,-117.7492209
5329,Bahia Blanca West,92637,33.6140401,-117.7487825
5331,Bahia Blanca West,92637,33.6144921,-117.7489158
5365,Algarrobo,92637,33.6126355,-117.7495062
5333,Bahia Blanca West,92637,33.6144170,-117.7493916
5330,Bahia Blanca West,92637,33.6142726,-117.7485141
5321,Bahia Blanca West,92637,33.6130595,-117.7458212
5323,Bahia Blanca West,92637,33.6137516,-117.7462292
5325,Bahia Blanca West,92637,33.6138806,-117.7471726
5328,Bahia Blanca West,92637,33.6139249,-117.7485106
5326,Bahia Blanca West,92637,33.6139813,-117.7476147
5322,Bahia Blanca West,92637,33.6133799,-117.7460275
5324,Bahia Blanca West,92637,33.6138390,-117.7467066
5327,Bahia Blanca West,92637,33.6140874,-117.7480707
5347,Algarrobo,92637,33.6133134,-117.7484497
5371,Punta Alta,92637,33.6126676,-117.7467369
5368,Algarrobo,92637,33.6131218,-117.7476568
5370,Punta Alta,92637,33.6123183,-117.7474593
5320,Bahia Blanca West,92637,33.6127800,-117.7456380
5008,Duverney,92637,33.6144543,-117.7455096
5382,Avenida Sosiega,92637,33.6124854,-117.7436278
5381,Avenida Sosiega,92637,33.6122167,-117.7436632
5318,Bahia Blanca West,92637,33.6121824,-117.7457256
5319,Bahia Blanca West,92637,33.6125922,-117.7454621
5383,Avenida Sosiega,92637,33.6127051,-117.7435367
5508,Paseo del Lago West,92637,33.6138616,-117.7430080
5517,Paseo del Lago East,92637,33.6131108,-117.7408619
5512,Paseo del Lago West,92637,33.6123557,-117.7429161
5511,Paseo del Lago West,92637,33.6123781,-117.7421217
5518,Paseo del Lago East,92637,33.6121873,-117.7410316
5505,Paseo del Lago West,92637,33.6131602,-117.7422525
5506,Paseo del Lago West,92637,33.6134535,-117.7418794
5504,Paseo del Lago West,92637,33.6134500,-117.7425759
5507,Paseo del Lago West,92637,33.6137741,-117.7422557
5503,Paseo del Lago West,92637,33.6140901,-117.7420171
5498,Paseo del Lago East,92637,33.6136386,-117.7402728
5497,Paseo del Lago East,92637,33.6140099,-117.7406416
5501,Paseo del Lago West,92637,33.6142240,-117.7412049
5502,Paseo del Lago West,92637,33.6139077,-117.7415400
5494,Paseo del Lago East,92637,33.6138066,-117.7396212
5496,Paseo del Lago East,92637,33.6143941,-117.7401498
5491,Paseo del Lago East,92637,33.6133482,-117.7396856
5495,Paseo del Lago East,92637,33.6142049,-117.7397920
5493,Paseo del Lago East,92637,33.6138407,-117.7393277
5492,Paseo del Lago East,92637,33.6133905,-117.7393820
5457,Calle Pico,92637,33.6128493,-117.7392211
5456,Calle Pico,92637,33.6128022,-117.7394284
5455,Calle Pico,92637,33.6127512,-117.7396211
5458,Calle Pico,92637,33.6128439,-117.7390243
3154,Alta Vista,92637,33.6124309,-117.7383515
5453,Calle Pico,92637,33.6123263,-117.7397334
5459,Alta Vista,92637,33.6124468,-117.7391428
5454,Calle Pico,92637,33.6125614,-117.7397550
3157,Alta Vista,92637,33.6122384,-117.7379845
3152,Alta Vista,92637,33.6128713,-117.7379569
3150,Alta Vista,92637,33.6128994,-117.7375816
3155,Alta Vista,92637,33.6127370,-117.7386017
3153,Alta Vista,92637,33.6128527,-117.7382200
3151,Alta Vista,92637,33.6125368,-117.7377770
3148,Via Vista,92637,33.6130998,-117.7371152
3159,Alta Vista,92637,33.6122046,-117.7376086
3067,Via Serena North,92637,33.6143924,-117.7368057
3149,Via Vista,92637,33.6126966,-117.7371594
3062,Via Serena South,92637,33.6144216,-117.7360885
3160,Alta Vista,92637,33.6124618,-117.7371575
3055,Via Serena South,92637,33.6137663,-117.7349913
3054,Via Serena South,92637,33.6135259,-117.7349095
3147,Via Vista,92637,33.6133507,-117.7367309
3058,Via Serena South,92637,33.6139102,-117.7355452
3057,Via Serena South,92637,33.6140830,-117.7353768
3170,Via Vista,92637,33.6124333,-117.7366251
3061,Via Serena South,92637,33.6142228,-117.7363069
3059,Via Serena South,92637,33.6139146,-117.7358645
3060,Via Serena South,92637,33.6140280,-117.7360955
3146,Via Vista,92637,33.6135738,-117.7364716
3143,Via Vista,92637,33.6128908,-117.7365909
3144,Via Vista,92637,33.6132459,-117.7363935
3137,Via Vista,92637,33.6127704,-117.7350451
3136,Via Vista,92637,33.6131643,-117.7353406
3174,Via Vista,92637,33.6122605,-117.7350050
3145,Via Vista,92637,33.6134173,-117.7359257
3173,Via Vista,92637,33.6121724,-117.7353994
3138,Via Vista,92637,33.6126490,-117.7354263
3141,Via Vista,92637,33.6127569,-117.7361044
3142,Via Vista,92637,33.6129845,-117.7359551
3140,Via Vista,92637,33.6124560,-117.7361040
3139,Via Vista,92637,33.6125734,-117.7357202
3041,Via Serena South,92637,33.6140769,-117.7346538
3052,Via Serena South,92637,33.6133440,-117.7343390
3056,Via Serena South,92637,33.6136341,-117.7346051
3049,Via Serena South,92637,33.6136287,-117.7337170
3053,Via Serena South,92637,33.6133357,-117.7346629
3042,Via Serena South,92637,33.6142043,-117.7344161
3043,Via Serena South,92637,33.6141692,-117.7341356
3051,Via Serena South,92637,33.6133481,-117.7340091
3045,Via Serena South,92637,33.6143904,-117.7326434
3047,Via Serena South,92637,33.6137447,-117.7329053
3046,Via Serena South,92637,33.6140319,-117.7326362
3050,Via Serena South,92637,33.6133742,-117.7336894
3048,Via Serena South,92637,33.6136010,-117.7332963
3033,Via Vista,92637,33.6131760,-117.7332897
3040,Via Vista,92637,33.6126950,-117.7344134
3035,Via Vista,92637,33.6123137,-117.7335067
3038,Via Vista,92637,33.6125897,-117.7341075
3037,Via Vista,92637,33.6125996,-117.7337797
3036,Via Vista,92637,33.6122292,-117.7339695
3025,Calle Sonora,92637,33.6122575,-117.7329687
3039,Via Vista,92637,33.6123708,-117.7343733
3034,Via Vista,92637,33.6127581,-117.7333864
3027,Calle Sonora,92637,33.6125317,-117.7329744
3026,Calle Sonora,92637,33.6124345,-117.7326347
3030,Calle Sonora,92637,33.6130981,-117.7329461
3032,Via Vista,92637,33.6134150,-117.7328727
3031,Calle Sonora,92637,33.6131377,-117.7326348
3029,Calle Sonora,92637,33.6127856,-117.7326350
3028,Calle Sonora,92637,33.6128071,-117.7329666
24111,Moulton Parkway,92637,33.6121429,-117.7308796
3461,Bahia Blanca West,92637,33.6112817,-117.7542757
3465,Bahia Blanca West,92637,33.6111790,-117.7547917
3459,Bahia Blanca West,92637,33.6118401,-117.7541484
3460,Bahia Blanca West,92637,33.6115140,-117.7545826
3464,Bahia Blanca West,92637,33.6111269,-117.7545071
3462,Bahia Blanca West,92637,33.6109314,-117.7541311
3466,Bahia Blanca West,92637,33.6109511,-117.7549470
3463,Bahia Blanca West,92637,33.6109718,-117.7543602
3470,Bahia Blanca West,92637,33.6102370,-117.7541940
3468,Bahia Blanca West,92637,33.6105852,-117.7545344
3469,Bahia Blanca West,92637,33.6104447,-117.7546866
3467,Bahia Blanca West,92637,33.6106684,-117.7549039
3444,Calle Azul,92637,33.6120849,-117.7522999
3439,Calle Azul,92637,33.6117377,-117.7517507
3436,Bahia Blanca West,92637,33.6115393,-117.7530587
3440,Calle Azul,92637,33.6119905,-117.7514539
3438,Bahia Blanca West,92637,33.6117587,-117.7521968
3441,Calle Azul,92637,33.6121636,-117.7516782
3437,Bahia Blanca West,92637,33.6117089,-117.7526472
3430,Bahia Blanca West,92637,33.6099626,-117.7525598
3435,Bahia Blanca West,92637,33.6113335,-117.7534237
3434,Bahia Blanca West,92637,33.6109696,-117.7536258
3420,Calle Azul,92637,33.6101095,-117.7517213
3421,Calle Azul,92637,33.6104085,-117.7511674
3429,Bahia Blanca West,92637,33.6103701,-117.7529361
3428,Bahia Blanca West,92637,33.6107620,-117.7530856
3427,Bahia Blanca West,92637,33.6110927,-117.7528070
3423,Calle Azul,92637,33.6107801,-117.7522801
3425,Bahia Blanca West,92637,33.6113107,-117.7519348
3426,Bahia Blanca West,92637,33.6112806,-117.7524476
3472,Bahia Blanca West,92637,33.6102704,-117.7537239
3451,Bahia Blanca West,92637,33.6121057,-117.7531052
3476,Bahia Blanca West,92637,33.6099393,-117.7534184
3471,Bahia Blanca West,92637,33.6105461,-117.7540054
3473,Bahia Blanca West,92637,33.6100567,-117.7539291
3477,Bahia Blanca West,92637,33.6100427,-117.7533198
3457,Bahia Blanca West,92637,33.6118125,-117.7535625
3458,Bahia Blanca West,92637,33.6116253,-117.7539550
3424,Calle Azul,92637,33.6108444,-117.7518848
3490,Calle Azul,92637,33.6105239,-117.7501943
3488,Calle Azul,92637,33.6110568,-117.7507908
3487,Calle Azul,92637,33.6112660,-117.7511382
3489,Calle Azul,92637,33.6108037,-117.7504225
5358,Algarrobo,92637,33.6118960,-117.7506123
3422,Calle Azul,92637,33.6099612,-117.7506496
3394,Punta Alta,92637,33.6118470,-117.7496134
3393,Punta Alta,92637,33.6116384,-117.7494464
3406,Calle Azul,92637,33.6100366,-117.7497370
3389,Punta Alta,92637,33.6117246,-117.7488563
3392,Punta Alta,92637,33.6117299,-117.7491332
3396,Calle Azul,92637,33.6116443,-117.7500559
3414,Punta Alta,92637,33.6098960,-117.7488460
3391,Punta Alta,92637,33.6120527,-117.7491306
3390,Punta Alta,92637,33.6119993,-117.7488483
3397,Punta Alta,92637,33.6113742,-117.7489293
3398,Punta Alta,92637,33.6112763,-117.7493972
3401,Punta Alta,92637,33.6106810,-117.7492861
3402,Punta Alta,92637,33.6110189,-117.7489851
3400,Punta Alta,92637,33.6107152,-117.7494805
3399,Punta Alta,92637,33.6109613,-117.7495608
3380,Punta Alta,92637,33.6107463,-117.7485082
3404,Calle Azul,92637,33.6104035,-117.7492195
3403,Calle Azul,92637,33.6105726,-117.7489140
3405,Calle Azul,92637,33.6104422,-117.7495415
3381,Punta Alta,92637,33.6110572,-117.7486744
3413,Punta Alta,92637,33.6101869,-117.7485387
3384,Punta Alta,92637,33.6116079,-117.7478921
3386,Punta Alta,92637,33.6118734,-117.7482347
5372,Punta Alta,92637,33.6119675,-117.7464299
3372,Punta Alta,92637,33.6117984,-117.7473852
3387,Punta Alta,92637,33.6116601,-117.7484391
3388,Punta Alta,92637,33.6117030,-117.7486167
3385,Punta Alta,92637,33.6118790,-117.7478535
3373,Punta Alta,92637,33.6116764,-117.7470567
3374,Punta Alta,92637,33.6114647,-117.7467305
3376,Punta Alta,92637,33.6114507,-117.7474747
3375,Punta Alta,92637,33.6112216,-117.7471203
3383,Punta Alta,92637,33.6113437,-117.7480853
3382,Punta Alta,92637,33.6113620,-117.7485058
3379,Punta Alta,92637,33.6108729,-117.7480640
3378,Punta Alta,92637,33.6108279,-117.7474295
3370,Punta Alta,92637,33.6104504,-117.7472450
3377,Punta Alta,92637,33.6111465,-117.7474964
3368,Punta Alta,92637,33.6103513,-117.7481328
3369,Punta Alta,92637,33.6104198,-117.7476724
3371,Punta Alta,92637,33.6107915,-117.7467413
3339,Punta Alta,92637,33.6101952,-117.7462804
3341,Punta Alta,92637,33.6100704,-117.7468784
3340,Punta Alta,92637,33.6099924,-117.7465965
3336,Punta Alta,92637,33.6107343,-117.7456241
3337,Punta Alta,92637,33.6099995,-117.7458034
3326,Bahia Blanca East,92637,33.6121032,-117.7451019
3335,Punta Alta,92637,33.6113796,-117.7456844
3328,Bahia Blanca East,92637,33.6113268,-117.7448658
3327,Bahia Blanca East,92637,33.6117072,-117.7449632
3329,Bahia Blanca East,92637,33.6109602,-117.7448012
3331,Bahia Blanca East,92637,33.6102592,-117.7449369
5379,Avenida Sosiega,92637,33.6116875,-117.7441931
5380,Avenida Sosiega,92637,33.6119221,-117.7439012
3330,Bahia Blanca East,92637,33.6106259,-117.7448955
5513,Paseo del Lago West,92637,33.6108452,-117.7434142
5486,Paseo del Lago West,92637,33.6100123,-117.7431555
5485,Paseo del Lago West,92637,33.6100425,-117.7434919
5376,Avenida Sosiega,92637,33.6102244,-117.7441384
5377,Avenida Sosiega,92637,33.6106226,-117.7440858
5378,Avenida Sosiega,92637,33.6109645,-117.7440676
5490,Paseo del Lago West,92637,33.6104213,-117.7433160
5509,Paseo del Lago West,92637,33.6119234,-117.7431120
5516,Paseo del Lago West,92637,33.6112152,-117.7432681
5514,Paseo del Lago West,92637,33.6108287,-117.7431499
5489,Paseo del Lago West,92637,33.6103435,-117.7428410
5510,Paseo del Lago West,92637,33.6118010,-117.7423809
5487,Paseo del Lago West,92637,33.6103817,-117.7418733
5515,Paseo del Lago West,92637,33.6109595,-117.7424582
5488,Paseo del Lago West,92637,33.6102878,-117.7423635
5487,Paseo del Lago West,92637,33.6105850,-117.7414443
5473,Paseo del Lago East,92637,33.6105051,-117.7406181
5519,Paseo del Lago East,92637,33.6113159,-117.7407305
5460,Paseo del Lago East,92637,33.6101478,-117.7382981
5432,Via Carrizo,92637,33.6099788,-117.7376419
5474,Paseo del Lago East,92637,33.6102455,-117.7396810
5476,Paseo del Lago East,92637,33.6099598,-117.7403201
5472,Paseo del Lago East,92637,33.6107080,-117.7401546
5475,Paseo del Lago East,92637,33.6100455,-117.7399154
5463,Paseo del Lago East,92637,33.6108756,-117.7385185
5462,Paseo del Lago East,92637,33.6107855,-117.7378901
5461,Paseo del Lago East,92637,33.6104603,-117.7380782
5465,Paseo del Lago East,92637,33.6106974,-117.7392128
5464,Paseo del Lago East,92637,33.6105058,-117.7387184
5471,Paseo del Lago East,92637,33.6110809,-117.7395978
5470,Paseo del Lago East,92637,33.6113874,-117.7396035
5468,Paseo del Lago East,92637,33.6111100,-117.7390764
5469,Paseo del Lago East,92637,33.6116708,-117.7396416
5441,Alta Vista,92637,33.6112266,-117.7377852
5442,Alta Vista,92637,33.6112729,-117.7379350
5443,Alta Vista,92637,33.6113338,-117.7381405
5444,Alta Vista,92637,33.6114067,-117.7382753
5445,Alta Vista,92637,33.6114726,-117.7384799
5446,Alta Vista,92637,33.6115579,-117.7386147
5447,Alta Vista,92637,33.6116942,-117.7387586
5448,Alta Vista,92637,33.6118100,-117.7388549
3162,Alta Vista,92637,33.6117512,-117.7376392
3156,Alta Vista,92637,33.6120045,-117.7383498
3158,Alta Vista,92637,33.6118673,-117.7379342
5450,Calle Pico,92637,33.6120163,-117.7392233
5452,Calle Pico,92637,33.6121456,-117.7395819
5449,Calle Pico,92637,33.6119708,-117.7390280
5451,Calle Pico,92637,33.6120839,-117.7393919
3171,Via Vista,92637,33.6122121,-117.7359946
3172,Via Vista,92637,33.6119912,-117.7357134
3166,Alta Vista,92637,33.6114605,-117.7365852
3163,Alta Vista,92637,33.6116889,-117.7372303
3164,Alta Vista,92637,33.6118180,-117.7369173
3165,Alta Vista,92637,33.6114877,-117.7369583
3161,Alta Vista,92637,33.6120861,-117.7371585
5439,Via Carrizo,92637,33.6110773,-117.7373003
5438,Via Carrizo,92637,33.6109231,-117.7373112
5440,Alta Vista,92637,33.6111840,-117.7375790
3168,Via Vista,92637,33.6116269,-117.7363046
3169,Via Vista,92637,33.6119764,-117.7365554
3175,Via Vista,92637,33.6118234,-117.7351928
5437,Via Carrizo,92637,33.6107483,-117.7373539
3021,Via Buena Vista,92637,33.6114263,-117.7349981
5436,Via Carrizo,92637,33.6106040,-117.7373731
3167,Via Vista,92637,33.6115927,-117.7357654
5435,Via Carrizo,92637,33.6104355,-117.7374262
5433,Via Carrizo,92637,33.6101184,-117.7375726
3016,Via Buena Vista,92637,33.6111524,-117.7349493
3183,Alta Vista,92637,33.6108982,-117.7367837
3181,Alta Vista,92637,33.6109682,-117.7361358
5434,Via Carrizo,92637,33.6102970,-117.7374619
3182,Alta Vista,92637,33.6110319,-117.7365403
3179,Alta Vista,92637,33.6112022,-117.7355073
3184,Alta Vista,92637,33.6107040,-117.7364299
3176,Via Buena Vista,92637,33.6105551,-117.7353284
3177,Via Buena Vista,92637,33.6105484,-117.7358167
3178,Via Buena Vista,92637,33.6108311,-117.7355468
3180,Alta Vista,92637,33.6110573,-117.7358744
3185,Via Buena Vista,92637,33.6103727,-117.7368850
3186,Via Buena Vista,92637,33.6102274,-117.7364795
3190,Via Buena Vista,92637,33.6100537,-117.7354921
3188,Via Buena Vista,92637,33.6103157,-117.7359667
3191,Via Buena Vista,92637,33.6101223,-117.7350331
3189,Via Buena Vista,92637,33.6100359,-117.7358321
3187,Via Buena Vista,92637,33.6100878,-117.7362097
3020,Via Buena Vista,92637,33.6116930,-117.7347082
3018,Via Buena Vista,92637,33.6115548,-117.7344146
3023,Calle Sonora,92637,33.6117018,-117.7326827
3019,Via Buena Vista,92637,33.6117944,-117.7343014
3017,Via Buena Vista,92637,33.6113151,-117.7346426
3022,Calle Sonora,92637,33.6119439,-117.7330285
3014,Via Buena Vista,92637,33.6114260,-117.7340892
3024,Calle Sonora,92637,33.6119794,-117.7326851
3012,Via Buena Vista,92637,33.6112872,-117.7336847
3011,Via Buena Vista,92637,33.6115687,-117.7335872
3015,Via Buena Vista,92637,33.6109678,-117.7345707
3009,Via Buena Vista,92637,33.6110646,-117.7334295
3013,Via Buena Vista,92637,33.6109784,-117.7339660
3005,Via Buena Vista,92637,33.6105590,-117.7332427
3006,Via Buena Vista,92637,33.6107468,-117.7328708
3008,Via Buena Vista,92637,33.6108246,-117.7332532
3007,Via Buena Vista,92637,33.6110499,-117.7329900
3010,Via Buena Vista,92637,33.6112759,-117.7332154
3004,Via Buena Vista,92637,33.6104353,-117.7328150
3003,Via Buena Vista,92637,33.6103102,-117.7332214
3002,Via Buena Vista,92637,33.6103049,-117.7336139
3001,Via Buena Vista,92637,33.6102866,-117.7340430
3000,Via Buena Vista,92637,33.6102742,-117.7344662
24361,El Toro Road,92637,33.6096998,-117.7319296
24351,El Toro Road,92637,33.6102650,-117.7310211
24341,El Toro Road,92637,33.6103977,-117.7298243
24151,Moulton Parkway,92637,33.6111356,-117.7289415
24202,Moulton Parkway,92637,33.6107443,-117.7250539
24362,El Toro Road,92637,33.6100631,-117.7245599
3475,Bahia Blanca West,92637,33.6098194,-117.7535661
3480,Bahia Blanca West,92637,33.6091821,-117.7530047
3481,Bahia Blanca West,92637,33.6093179,-117.7528109
3478,Bahia Blanca West,92637,33.6096265,-117.7531404
3479,Bahia Blanca West,92637,33.6094809,-117.7533799
3431,Bahia Blanca West,92637,33.6096780,-117.7525763
3433,Bahia Blanca West,92637,33.6096540,-117.7520950
3474,Bahia Blanca West,92637,33.6097088,-117.7536968
3432,Bahia Blanca West,92637,33.6095738,-117.7524243
3482,Bahia Blanca West,92637,33.6091241,-117.7525533
3483,Bahia Blanca West,92637,33.6089853,-117.7527934
3484,Bahia Blanca West,92637,33.6087417,-117.7524176
3485,Bahia Blanca West,92637,33.6089062,-117.7522109
3486,Bahia Blanca West,92637,33.6083977,-117.7516949
3419,Calle Azul,92637,33.6095853,-117.7513361
3412,Calle Azul,92637,33.6094359,-117.7500785
3418,Calle Azul,92637,33.6094377,-117.7510550
24262,Punta Alta,92637,33.6083881,-117.7483476
3422,Calle Azul,92637,33.6096426,-117.7505848
3407,Calle Azul,92637,33.6099045,-117.7494315
3409,Calle Azul,92637,33.6096514,-117.7497867
3410,Calle Azul,92637,33.6095669,-117.7495932
3408,Calle Azul,92637,33.6097258,-117.7499218
3411,Calle Azul,92637,33.6092765,-117.7500060
3417,Punta Alta,92637,33.6090178,-117.7496553
3495,Monte Hermoso,92637,33.6087161,-117.7503355
3415,Punta Alta,92637,33.6095583,-117.7490789
3416,Punta Alta,92637,33.6092843,-117.7493571
3494,Monte Hermoso,92637,33.6089709,-117.7506398
3496,Monte Hermoso,92637,33.6083865,-117.7500764
3497,Monte Hermoso,92637,33.6080080,-117.7500226
3492,Monte Hermoso,92637,33.6081193,-117.7506386
3493,Monte Hermoso,92637,33.6084994,-117.7507145
3491,Monte Hermoso,92637,33.6077382,-117.7504745
3338,Punta Alta,92637,33.6095078,-117.7465533
3357,Monte Hermoso,92637,33.6084217,-117.7464156
3342,Punta Alta,92637,33.6098539,-117.7468686
3359,Monte Hermoso,92637,33.6091543,-117.7462535
3358,Monte Hermoso,92637,33.6087683,-117.7462845
3363,Monte Hermoso,92637,33.6079563,-117.7476664
3347,Bahia Blanca East,92637,33.6082196,-117.7458815
3356,Monte Hermoso,92637,33.6080713,-117.7465400
3349,Bahia Blanca East,92637,33.6078587,-117.7459736
3355,Monte Hermoso,92637,33.6077116,-117.7466611
3360,Monte Hermoso,92637,33.6083437,-117.7470135
3361,Monte Hermoso,92637,33.6079341,-117.7471282
3367,Punta Alta,92637,33.6097479,-117.7482328
3365,Punta Alta,92637,33.6096912,-117.7475121
3364,Punta Alta,92637,33.6090148,-117.7474079
3366,Punta Alta,92637,33.6090876,-117.7479389
3334,Bahia Blanca East,92637,33.6091425,-117.7451917
3344,Bahia Blanca East,92637,33.6087557,-117.7454580
3332,Bahia Blanca East,92637,33.6098402,-117.7450032
3333,Bahia Blanca East,92637,33.6095156,-117.7450810
3343,Bahia Blanca East,92637,33.6091302,-117.7457342
3348,Bahia Blanca East,92637,33.6081636,-117.7456264
3346,Bahia Blanca East,92637,33.6084483,-117.7457202
3345,Bahia Blanca East,92637,33.6085381,-117.7453991
5374,Avenida Sosiega,92637,33.6093517,-117.7443846
3322,Via Carrizo,92637,33.6079350,-117.7451311
5375,Avenida Sosiega,92637,33.6098237,-117.7442437
3321,Via Carrizo,92637,33.6075452,-117.7453773
5373,Avenida Sosiega,92637,33.6090216,-117.7444855
5395,Paseo del Lago West,92637,33.6081562,-117.7443010
5394,Paseo del Lago West,92637,33.6081964,-117.7447725
3323,Via Carrizo,92637,33.6078267,-117.7446501
5393,Paseo del Lago West,92637,33.6086210,-117.7446342
5390,Paseo del Lago West,92637,33.6089361,-117.7431844
5484,Paseo del Lago West,92637,33.6094774,-117.7435651
5392,Paseo del Lago West,92637,33.6086103,-117.7443587
5483,Paseo del Lago West,92637,33.6095681,-117.7431651
5391,Paseo del Lago West,92637,33.6089081,-117.7436433
5385,Paseo del Lago West,92637,33.6084784,-117.7434306
5397,Via Carrizo,92637,33.6081822,-117.7432543
5384,Paseo del Lago West,92637,33.6084674,-117.7437891
5396,Via Carrizo,92637,33.6080873,-117.7436352
5482,Paseo del Lago West,92637,33.6096723,-117.7428576
5477,Paseo del Lago East,92637,33.6098764,-117.7407108
5481,Paseo del Lago West,92637,33.6097284,-117.7425866
5478,Paseo del Lago West,92637,33.6098856,-117.7414810
5479,Paseo del Lago West,92637,33.6098140,-117.7418567
5480,Paseo del Lago West,92637,33.6097611,-117.7422570
5389,Paseo del Lago West,92637,33.6090800,-117.7428111
5427,Calle Carmenita,92637,33.6092847,-117.7404085
5388,Paseo del Lago West,92637,33.6091787,-117.7424234
5386,Paseo del Lago West,92637,33.6093193,-117.7416092
5428,Calle Carmenita,92637,33.6092827,-117.7405902
5429,Calle Carmenita,92637,33.6092499,-117.7407658
5387,Paseo del Lago West,92637,33.6092370,-117.7419426
5402,Via Carrizo,92637,33.6085875,-117.7411848
5401,Via Carrizo,92637,33.6085631,-117.7413537
5398,Via Carrizo,92637,33.6083101,-117.7428579
5400,Via Carrizo,92637,33.6085288,-117.7419425
5399,Via Carrizo,92637,33.6084277,-117.7424482
3304,Via Carrizo,92637,33.6077111,-117.7430245
5405,Via Carrizo,92637,33.6085988,-117.7405639
5404,Via Carrizo,92637,33.6085956,-117.7408075
5403,Via Carrizo,92637,33.6085937,-117.7410033
3239,San Amadeo,92637,33.6075608,-117.7423185
3230,Via Carrizo,92637,33.6075519,-117.7408858
3232,San Amadeo,92637,33.6081067,-117.7412712
3240,San Amadeo,92637,33.6079161,-117.7420386
3233,San Amadeo,92637,33.6077348,-117.7412750
3231,Via Carrizo,92637,33.6079977,-117.7407578
5419,Calle Carmenita,92637,33.6098182,-117.7390324
5423,Calle Carmenita,92637,33.6094777,-117.7396833
5425,Calle Carmenita,92637,33.6093360,-117.7400502
5421,Calle Carmenita,92637,33.6096296,-117.7393448
5422,Calle Carmenita,92637,33.6095530,-117.7395404
5406,Via Carrizo,92637,33.6086093,-117.7403532
5424,Calle Carmenita,92637,33.6093907,-117.7398812
5431,Via Carrizo,92637,33.6098188,-117.7378085
5430,Via Carrizo,92637,33.6096927,-117.7378959
5426,Calle Carmenita,92637,33.6093098,-117.7402349
5420,Calle Carmenita,92637,33.6097158,-117.7392124
5418,Calle Carmenita,92637,33.6098716,-117.7388687
5417,Via Carrizo,92637,33.6094247,-117.7383661
5416,Via Carrizo,92637,33.6093619,-117.7385239
5415,Via Carrizo,92637,33.6092486,-117.7387024
5414,Via Carrizo,92637,33.6091623,-117.7388623
5413,Via Carrizo,92637,33.6090749,-117.7390308
5412,Via Carrizo,92637,33.6089777,-117.7392366
5411,Via Carrizo,92637,33.6088947,-117.7393762
5410,Via Carrizo,92637,33.6087819,-117.7395508
5409,Via Carrizo,92637,33.6087045,-117.7397537
5408,Via Carrizo,92637,33.6086646,-117.7399356
5407,Via Carrizo,92637,33.6086148,-117.7401351
3224,Via Carrizo,92637,33.6080705,-117.7403296
3225,Via Carrizo,92637,33.6078088,-117.7402814
3221,Via Carrizo,92637,33.6076573,-117.7397615
3222,Via Carrizo,92637,33.6078831,-117.7399058
3223,Via Carrizo,92637,33.6081472,-117.7400035
3217,Via Carrizo,92637,33.6083774,-117.7392282
3218,Via Carrizo,92637,33.6083248,-117.7388242
3220,Via Carrizo,92637,33.6077512,-117.7394394
3219,Via Carrizo,92637,33.6081526,-117.7395738
3216,Via Carrizo,92637,33.6079940,-117.7392143
3215,Via Carrizo,92637,33.6079980,-117.7387676
3213,Via Carrizo,92637,33.6084787,-117.7382401
3212,Via Carrizo,92637,33.6087868,-117.7384075
3209,Via Buena Vista,92637,33.6087468,-117.7377309
3214,Via Carrizo,92637,33.6083385,-117.7379856
3210,Via Buena Vista,92637,33.6091317,-117.7376713
3208,Via Buena Vista,92637,33.6084539,-117.7374842
3206,Via Buena Vista,92637,33.6087507,-117.7369042
3211,Via Buena Vista,92637,33.6091506,-117.7371849
3205,Via Buena Vista,92637,33.6089702,-117.7365740
3207,Via Buena Vista,92637,33.6086668,-117.7371529
3202,Via Buena Vista,92637,33.6094008,-117.7369726
3203,Via Buena Vista,92637,33.6095281,-117.7373089
3204,Via Buena Vista,92637,33.6097381,-117.7368977
3199,Via Buena Vista,92637,33.6093839,-117.7363175
3200,Via Buena Vista,92637,33.6095027,-117.7358224
3197,Via Buena Vista,92637,33.6090977,-117.7357472
3198,Via Buena Vista,92637,33.6089919,-117.7362050
3201,Via Buena Vista,92637,33.6095070,-117.7353522
3196,Via Buena Vista,92637,33.6091780,-117.7352432
3192,Via Buena Vista,92637,33.6096066,-117.7347745
3194,Via Buena Vista,92637,33.6094182,-117.7344077
3195,Via Buena Vista,92637,33.6092743,-117.7348395
3193,Via Buena Vista,92637,33.6098573,-117.7344757
24338,El Toro Road,92637,33.6083041,-117.7317070
24381,El Toro Road,92637,33.6095441,-117.7302877
24331,El Toro Road,92637,33.6096382,-117.7294976
24342,El Toro Road,92637,33.6081481,-117.7301497
24330,El Toro Road,92637,33.6086272,-117.7294208
24365,El Toro Road,92637,33.6094207,-117.7315026
24371,El Toro Road,92637,33.6094566,-117.7308685
24340,El Toro Road,92637,33.6087780,-117.7302343
24330,El Toro Road,92637,33.6079297,-117.7285834
24271,El Toro Road,92637,33.6098303,-117.7268887
24351,Moulton Parkway,92637,33.6084147,-117.7244699
23252,Via Campo Verde,92637,33.6076434,-117.7239009
3507,Bahia Blanca West,92637,33.6061839,-117.7486824
3498,Bahia Blanca West,92637,33.6073781,-117.7496466
3508,Bahia Blanca West,92637,33.6066223,-117.7488241
3499,Bahia Blanca West,92637,33.6072915,-117.7488389
3506,Bahia Blanca West,92637,33.6057978,-117.7486865
3502,Bahia Blanca West,92637,33.6056026,-117.7493893
3501,Bahia Blanca West,92637,33.6063556,-117.7493472
3505,Bahia Blanca West,92637,33.6054203,-117.7488151
3500,Bahia Blanca West,92637,33.6052835,-117.7501503
2404,Via Mariposa West,92637,33.6206651,-117.7220464
2405,Via Mariposa West,92637,33.6205767,-117.7213629
2402,Via Mariposa West,92637,33.6196443,-117.7213678
2403,Via Mariposa West,92637,33.6201141,-117.7219805
2400,Via Mariposa West,92637,33.6192286,-117.7217098
2399,Via Mariposa West,92637,33.6189840,-117.7221390
2398,Via Mariposa West,92637,33.6192918,-117.7225901
2376,Via Mariposa West,92637,33.6206496,-117.7209544
2375,Via Mariposa West,92637,33.6204952,-117.7206187
2377,Via Mariposa West,92637,33.6207516,-117.7205857
2380,Via Mariposa West,92637,33.6206251,-117.7192298
2378,Via Mariposa West,92637,33.6207423,-117.7200635
2379,Via Mariposa West,92637,33.6207468,-117.7196480
2357,Via Mariposa East,92637,33.6201549,-117.7188375
2359,Via Mariposa East,92637,33.6207260,-117.7185281
2382,Via Mariposa West,92637,33.6202470,-117.7196783
2358,Via Mariposa East,92637,33.6207343,-117.7189360
2381,Via Mariposa West,92637,33.6200690,-117.7192732
2356,Via Mariposa East,92637,33.6198692,-117.7188043
2383,Via Mariposa West,92637,33.6199025,-117.7196767
2372,Via Mariposa West,92637,33.6202020,-117.7205400
2371,Via Mariposa West,92637,33.6201929,-117.7202051
2370,Via Mariposa West,92637,33.6198004,-117.7203986
2279,Via Mariposa East,92637,33.6192475,-117.7198403
2277,Via Mariposa East,92637,33.6194275,-117.7190692
2280,Via Mariposa West,92637,33.6193350,-117.7202978
2278,Via Mariposa East,92637,33.6194209,-117.7194839
2276,Via Mariposa East,92637,33.6193980,-117.7186061
2374,Via Mariposa West,92637,33.6203372,-117.7209228
2373,Via Mariposa West,92637,33.6200681,-117.7208518
2227,Via Puerta,92637,33.6191004,-117.7163430
2239,Via Puerta,92637,33.6197438,-117.7159886
2231,Via Puerta,92637,33.6207112,-117.7156390
2238,Via Puerta,92637,33.6194122,-117.7156918
2240,Via Puerta,92637,33.6201321,-117.7158880
2228,Via Puerta,92637,33.6194939,-117.7162896
2229,Via Puerta,92637,33.6199111,-117.7163713
2230,Via Puerta,92637,33.6204989,-117.7161080
2251,Via Mariposa East,92637,33.6206575,-117.7164761
2250,Via Mariposa East,92637,33.6204780,-117.7168483
2248,Via Mariposa East,92637,33.6199885,-117.7169127
2246,Via Mariposa East,92637,33.6197137,-117.7167400
2361,Via Mariposa East,92637,33.6207304,-117.7176045
2362,Via Mariposa East,92637,33.6207234,-117.7171792
2245,Via Mariposa East,92637,33.6193388,-117.7167460
2249,Via Mariposa East,92637,33.6202332,-117.7171781
2363,Via Mariposa East,92637,33.6204856,-117.7174696
2275,Via Mariposa East,92637,33.6193932,-117.7181352
2274,Via Mariposa East,92637,33.6193160,-117.7177843
2273,Via Mariposa East,92637,33.6192316,-117.7175596
2247,Via Mariposa East,92637,33.6196846,-117.7171335
2368,Via Mariposa East,92637,33.6197488,-117.7175733
2367,Via Mariposa East,92637,33.6199543,-117.7175558
2364,Via Mariposa East,92637,33.6202247,-117.7176168
2369,Via Mariposa East,92637,33.6198843,-117.7180982
2360,Via Mariposa East,92637,33.6207365,-117.7180544
2365,Via Mariposa East,92637,33.6202556,-117.7179827
2366,Via Mariposa East,92637,33.6202507,-117.7182998
2287,Via Puerta,92637,33.6191062,-117.7184143
2235,Via Puerta,92637,33.6196063,-117.7143193
2234,Via Puerta,92637,33.6200208,-117.7141624
2232,Via Puerta,92637,33.6207299,-117.7150932
2114,Via Puerta,92637,33.6192577,-117.7138324
2115,Via Puerta,92637,33.6193404,-117.7134028
2113,Via Puerta,92637,33.6190512,-117.7141633
2233,Via Puerta,92637,33.6205377,-117.7144605
2244,Via Puerta,92637,33.6196933,-117.7147147
2241,Via Puerta,92637,33.6204249,-117.7153809
2236,Via Puerta,92637,33.6193893,-117.7145348
2243,Via Puerta,92637,33.6200909,-117.7146361
2242,Via Puerta,92637,33.6203879,-117.7149356
2237,Via Puerta,92637,33.6193724,-117.7151731
2221,Via Puerta,92637,33.6191158,-117.7149452
2401,Via Mariposa West,92637,33.6185881,-117.7214898
2393,Via Mariposa West,92637,33.6167868,-117.7215066
2395,Via Mariposa West,92637,33.6173503,-117.7224275
2397,Via Mariposa West,92637,33.6184745,-117.7224920
2394,Via Mariposa West,92637,33.6174752,-117.7216203
2396,Via Mariposa West,92637,33.6181000,-117.7217587
2326,Via Mariposa West,92637,33.6173706,-117.7208962
2319,Via Puerta,92637,33.6181248,-117.7204918
2320,Via Puerta,92637,33.6177870,-117.7204719
2327,Via Mariposa West,92637,33.6176803,-117.7206833
2328,Via Mariposa West,92637,33.6182218,-117.7208786
2330,Via Mariposa West,92637,33.6189948,-117.7208325
2329,Via Mariposa West,92637,33.6186423,-117.7208631
2327,Via Mariposa West,92637,33.6178190,-117.7208871
2321,Via Puerta,92637,33.6172597,-117.7205261
2324,Via Puerta,92637,33.6168467,-117.7205761
2325,Via Mariposa West,92637,33.6169685,-117.7209085
2281,Via Mariposa West,92637,33.6190065,-117.7204554
2318,Via Puerta,92637,33.6185317,-117.7203832
2314,Via Puerta,92637,33.6169682,-117.7199286
2282,Via Mariposa West,92637,33.6188863,-117.7201285
2322,Via Puerta,92637,33.6170490,-117.7202868
2303,Via Puerta,92637,33.6183529,-117.7197158
2285,Via Puerta,92637,33.6189665,-117.7195062
2283,Via Puerta,92637,33.6186202,-117.7199294
2317,Via Puerta,92637,33.6182080,-117.7200876
2286,Via Puerta,92637,33.6190685,-117.7190610
2316,Via Puerta,92637,33.6177146,-117.7200974
2284,Via Puerta,92637,33.6186540,-117.7194991
2304,Via Puerta,92637,33.6179565,-117.7197934
2305,Via Puerta,92637,33.6175658,-117.7197576
2306,Via Puerta,92637,33.6172054,-117.7196292
2315,Via Puerta,92637,33.6173755,-117.7200563
2299,Via Puerta,92637,33.6170232,-117.7185076
2290,Via Puerta,92637,33.6187806,-117.7187046
2300,Via Puerta,92637,33.6171473,-117.7190940
2291,Via Puerta,92637,33.6184731,-117.7192118
2307,Via Puerta,92637,33.6168377,-117.7196027
2302,Via Puerta,92637,33.6179888,-117.7193787
2301,Via Puerta,92637,33.6175042,-117.7193398
2297,Via Puerta,92637,33.6175127,-117.7189366
2292,Via Puerta,92637,33.6183420,-117.7188575
2294,Via Puerta,92637,33.6179189,-117.7184418
2298,Via Puerta,92637,33.6173142,-117.7185941
2293,Via Puerta,92637,33.6185004,-117.7184150
2296,Via Puerta,92637,33.6179622,-117.7190241
2182,Via Puerta,92637,33.6170331,-117.7162165
2170,Via Puerta,92637,33.6178467,-117.7159315
2224,Via Puerta,92637,33.6185342,-117.7158524
2167,Via Puerta,92637,33.6173300,-117.7159205
2226,Via Puerta,92637,33.6190481,-117.7157828
2225,Via Puerta,92637,33.6188098,-117.7161148
2168,Via Puerta,92637,33.6175862,-117.7157484
2165,Via Mariposa East,92637,33.6170853,-117.7157098
2254,Via Puerta,92637,33.6182263,-117.7162847
2252,Via Puerta,92637,33.6179338,-117.7166687
2180,Via Puerta,92637,33.6168901,-117.7169694
2253,Via Puerta,92637,33.6182289,-117.7166177
2181,Via Puerta,92637,33.6170828,-117.7166357
2169,Via Puerta,92637,33.6175356,-117.7162199
2255,Via Puerta,92637,33.6185117,-117.7165312
2256,Via Puerta,92637,33.6184732,-117.7167918
2288,Via Puerta,92637,33.6189985,-117.7178097
2272,Via Mariposa East,92637,33.6190581,-117.7171069
2257,Via Puerta,92637,33.6187750,-117.7168695
2258,Via Puerta,92637,33.6186739,-117.7173727
2262,Via Puerta,92637,33.6173603,-117.7172120
2263,Via Puerta,92637,33.6171229,-117.7174657
2260,Via Puerta,92637,33.6179213,-117.7170226
2261,Via Puerta,92637,33.6175681,-117.7169823
2259,Via Puerta,92637,33.6183291,-117.7171237
2264,Via Puerta,92637,33.6169275,-117.7177396
2265,Via Puerta,92637,33.6172330,-117.7178852
2267,Via Puerta,92637,33.6180484,-117.7174481
2269,Via Puerta,92637,33.6183132,-117.7179631
2289,Via Puerta,92637,33.6187673,-117.7181197
2266,Via Puerta,92637,33.6176266,-117.7175082
2268,Via Puerta,92637,33.6184926,-117.7176551
23081,Via Campo Verde,92637,33.6071924,-117.7270793
23152,Via Campo Verde,92637,33.6065424,-117.7281933
2270,Via Puerta,92637,33.6179259,-117.7178514
2271,Via Puerta,92637,33.6175536,-117.7179668
2111,Via Puerta,92637,33.6184461,-117.7150238
2110,Via Puerta,92637,33.6181385,-117.7153345
2222,Via Puerta,92637,33.6189184,-117.7153062
2223,Via Puerta,92637,33.6186785,-117.7156016
2112,Via Puerta,92637,33.6187288,-117.7146446
2109,Via Puerta,92637,33.6177658,-117.7151533
2108,Ronda Granada,92637,33.6174492,-117.7148427
2166,Via Puerta,92637,33.6173735,-117.7154593
2162,Via Mariposa East,92637,33.6168979,-117.7150136
2164,Via Mariposa East,92637,33.6171344,-117.7153158
2106,Ronda Granada,92637,33.6167508,-117.7142468
2163,Via Mariposa East,92637,33.6168478,-117.7153991
24334,El Toro Road,92637,33.6066992,-117.7313612
24332,El Toro Road,92637,33.6066923,-117.7304391
2107,Ronda Granada,92637,33.6171076,-117.7145335
2136,Via Puerta,92637,33.6176980,-117.7146445
2139,Ronda Granada,92637,33.6170165,-117.7140153
2117,Via Puerta,92637,33.6188318,-117.7139116
2118,Via Puerta,92637,33.6189743,-117.7133835
2137,Ronda Granada,92637,33.6173845,-117.7143272
2135,Via Puerta,92637,33.6180915,-117.7147736
2134,Via Puerta,92637,33.6184979,-117.7143864
2116,Via Puerta,92637,33.6185640,-117.7136867
2129,Via Puerta,92637,33.6177914,-117.7131643
2119,Via Puerta,92637,33.6188342,-117.7129363
2128,Via Puerta,92637,33.6180871,-117.7133062
2133,Via Puerta,92637,33.6182553,-117.7142070
2132,Via Puerta,92637,33.6176106,-117.7140039
2131,Via Puerta,92637,33.6179435,-117.7136678
2138,Ronda Granada,92637,33.6173565,-117.7138479
4001,Calle Sonora,92637,33.6062146,-117.7330597
4002,Calle Sonora,92637,33.6064453,-117.7338683
2130,Ronda Granada,92637,33.6175020,-117.7134302
2142,Ronda Granada,92637,33.6168173,-117.7133735
2143,Ronda Granada,92637,33.6167941,-117.7129793
2120,Via Puerta,92637,33.6185506,-117.7126004
2126,Via Puerta,92637,33.6182863,-117.7128746
2121,Ronda Granada,92637,33.6182374,-117.7123275
2122,Ronda Granada,92637,33.6178432,-117.7121614
2123,Ronda Granada,92637,33.6174536,-117.7123266
2125,Ronda Granada,92637,33.6179265,-117.7124985
2124,Ronda Granada,92637,33.6171982,-117.7127063
2127,Via Puerta,92637,33.6179116,-117.7127944
2144,Ronda Granada,92637,33.6168049,-117.7125873
2149,Ronda Granada,92637,33.6173294,-117.7118397
2148,Ronda Granada,92637,33.6168909,-117.7119809
2150,Ronda Granada,92637,33.6169142,-117.7116750
3227,Via Carrizo,92637,33.6073243,-117.7404898
3226,Via Carrizo,92637,33.6075338,-117.7401828
3235,San Amadeo,92637,33.6070001,-117.7414795
3234,San Amadeo,92637,33.6073777,-117.7413866
3238,San Amadeo,92637,33.6071164,-117.7423962
3303,Via Carrizo,92637,33.6074172,-117.7430968
3237,San Amadeo,92637,33.6071781,-117.7419955
3236,San Amadeo,92637,33.6075169,-117.7418953
3248,San Amadeo,92637,33.6054380,-117.7428159
3247,San Amadeo,92637,33.6053260,-117.7431529
3244,San Amadeo,92637,33.6060297,-117.7431625
3241,San Amadeo,92637,33.6065522,-117.7428152
3242,San Amadeo,92637,33.6065626,-117.7418544
3243,San Amadeo,92637,33.6060320,-117.7422983
3229,Via Carrizo,92637,33.6067597,-117.7410869
3228,Via Carrizo,92637,33.6070711,-117.7408229
3260,San Amadeo,92637,33.6064259,-117.7412149
3262,San Amadeo,92637,33.6057712,-117.7416283
3261,San Amadeo,92637,33.6061066,-117.7414244
3302,Via Carrizo,92637,33.6071308,-117.7434330
3305,Via Carrizo,92637,33.6075837,-117.7434461
3307,Via Carrizo,92637,33.6070354,-117.7443782
3298,Via Carrizo,92637,33.6055505,-117.7445347
3311,Via Carrizo,92637,33.6055859,-117.7448737
3308,Via Carrizo,92637,33.6066808,-117.7445336
3309,Via Carrizo,92637,33.6063047,-117.7446236
3306,Via Carrizo,92637,33.6073544,-117.7441182
3299,Via Carrizo,92637,33.6060017,-117.7442809
3310,Via Carrizo,92637,33.6059434,-117.7447082
3301,Via Carrizo,92637,33.6069934,-117.7440041
3300,Via Carrizo,92637,33.6065600,-117.7442356
3315,San Amadeo,92637,33.6057659,-117.7458900
3315,San Amadeo,92637,33.6059627,-117.7457868
3317,Via Carrizo,92637,33.6064898,-117.7451382
3325,Via Carrizo,92637,33.6070595,-117.7450844
3324,Via Carrizo,92637,33.6074166,-117.7449214
3320,Via Carrizo,92637,33.6070622,-117.7455686
3350,Bahia Blanca East,92637,33.6075655,-117.7460767
3319,Via Carrizo,92637,33.6063461,-117.7456878
3318,Via Carrizo,92637,33.6061855,-117.7452308
3313,San Amadeo,92637,33.6055965,-117.7454462
3314,San Amadeo,92637,33.6059061,-117.7453225
3316,San Amadeo,92637,33.6054679,-117.7460377
3353,Bahia Blanca East,92637,33.6069501,-117.7465199
3510,Bahia Blanca West,92637,33.6069818,-117.7477744
3511,Bahia Blanca West,92637,33.6063603,-117.7480761
3352,Bahia Blanca East,92637,33.6067577,-117.7462958
3362,Monte Hermoso,92637,33.6075405,-117.7473197
3354,Monte Hermoso,92637,33.6073284,-117.7468863
3509,Bahia Blanca West,92637,33.6066675,-117.7484010
3351,Bahia Blanca East,92637,33.6072084,-117.7462788
3525,Bahia Blanca West,92637,33.6066820,-117.7470900
3522,Bahia Blanca West,92637,33.6057171,-117.7473415
3512,Bahia Blanca West,92637,33.6054513,-117.7480978
3521,Bahia Blanca West,92637,33.6053227,-117.7475521
3524,Bahia Blanca West,92637,33.6063708,-117.7469509
3526,Bahia Blanca West,92637,33.6061623,-117.7475704
3523,Bahia Blanca West,92637,33.6060620,-117.7470972
3527,Bahia Blanca West,92637,33.6059343,-117.7477583
3529,Monte Hermoso,92637,33.6057558,-117.7466204
3530,Monte Hermoso,92637,33.6054871,-117.7467988
3528,Monte Hermoso,92637,33.6060314,-117.7463921
2388,Via Mariposa West,92637,33.6148148,-117.7220534
2392,Via Mariposa West,92637,33.6165590,-117.7223773
2390,Via Mariposa West,92637,33.6154605,-117.7219127
2391,Via Mariposa West,92637,33.6159984,-117.7223752
2389,Via Mariposa West,92637,33.6153939,-117.7224232
2309,Via Puerta,92637,33.6167833,-117.7191863
2323,Via Puerta,92637,33.6166833,-117.7201997
2311,Via Puerta,92637,33.6166550,-117.7184468
2313,Via Puerta,92637,33.6165677,-117.7198082
2353,Via Mariposa West,92637,33.6161648,-117.7208225
2352,Via Mariposa West,92637,33.6161719,-117.7204302
2308,Via Puerta,92637,33.6165221,-117.7194279
2310,Via Puerta,92637,33.6165414,-117.7188535
2351,Via Mariposa West,92637,33.6161011,-117.7201108
2176,Via Puerta,92637,33.6158056,-117.7185113
2177,Via Puerta,92637,33.6162058,-117.7183749
2340,Avenida Sevilla,92637,33.6160039,-117.7197682
2343,Avenida Sevilla,92637,33.6157918,-117.7192525
2175,Via Puerta,92637,33.6153167,-117.7184364
2342,Avenida Sevilla,92637,33.6160689,-117.7191033
2341,Avenida Sevilla,92637,33.6160656,-117.7194140
3500,Bahia Blanca West,92637,33.6050913,-117.7505581
5597,Vista del Mando South,92637,33.6040247,-117.7502010
5596,Vista del Mando South,92637,33.6043394,-117.7502170
5589,Avenida Sosiega West,92637,33.6036418,-117.7493448
5598,Vista del Mando South,92637,33.6036577,-117.7500867
5590,Avenida Sosiega West,92637,33.6032875,-117.7494812
2350,Via Mariposa West,92637,33.6157668,-117.7203035
2174,Via Mariposa East,92637,33.6148593,-117.7184018
2354,Via Mariposa West,92637,33.6154706,-117.7206531
2339,Avenida Sevilla,92637,33.6156573,-117.7198396
2344,Avenida Sevilla,92637,33.6155317,-117.7190052
2338,Avenida Sevilla,92637,33.6153237,-117.7198610
2349,Via Mariposa West,92637,33.6153816,-117.7202285
2331,Avenida Sevilla,92637,33.6150838,-117.7189048
2332,Avenida Sevilla,92637,33.6150969,-117.7192581
2333,Avenida Sevilla,92637,33.6147851,-117.7191868
2334,Avenida Sevilla,92637,33.6145213,-117.7188866
2337,Avenida Sevilla,92637,33.6148951,-117.7198279
2336,Avenida Sevilla,92637,33.6144593,-117.7197180
2345,Via Mariposa West,92637,33.6149110,-117.7202551
3514,Bahia Blanca West,92637,33.6048081,-117.7485481
3503,Bahia Blanca West,92637,33.6049005,-117.7494506
3504,Bahia Blanca West,92637,33.6051212,-117.7490796
3516,Bahia Blanca West,92637,33.6042658,-117.7492279
3515,Bahia Blanca West,92637,33.6045607,-117.7489303
2355,Via Mariposa West,92637,33.6146834,-117.7207067
2346,Via Mariposa West,92637,33.6146360,-117.7202124
2200,Via Mariposa East,92637,33.6159984,-117.7178831
2207,Via Mariposa East,92637,33.6166340,-117.7167521
2178,Via Puerta,92637,33.6163336,-117.7179748
2312,Via Puerta,92637,33.6167137,-117.7181896
2179,Via Puerta,92637,33.6166380,-117.7173463
5581,Via Dicha,92637,33.6032885,-117.7488810
3517,Bahia Blanca West,92637,33.6041138,-117.7487483
5580,Via Dicha,92637,33.6036063,-117.7486831
2208,Via Mariposa East,92637,33.6165847,-117.7162149
2210,Via Mariposa East,92637,33.6162732,-117.7158784
2205,Via Mariposa East,92637,33.6163822,-117.7171264
2212,Via Mariposa East,92637,33.6158156,-117.7159199
2211,Via Mariposa East,92637,33.6159335,-117.7156119
5593,Avenida Sosiega West,92637,33.6022498,-117.7498040
5592,Avenida Sosiega West,92637,33.6025847,-117.7496317
5595,Avenida Sosiega West,92637,33.6016386,-117.7501610
5591,Avenida Sosiega West,92637,33.6029250,-117.7496165
5594,Avenida Sosiega West,92637,33.6019927,-117.7500520
2198,Via Mariposa East,92637,33.6156410,-117.7177808
2209,Via Mariposa East,92637,33.6162778,-117.7162914
2206,Via Mariposa East,92637,33.6163185,-117.7166635
2202,Via Mariposa East,92637,33.6159008,-117.7172002
2201,Via Mariposa East,92637,33.6158452,-117.7175454
2204,Via Mariposa East,92637,33.6160299,-117.7168448
2203,Via Mariposa East,92637,33.6157770,-117.7167932
5588,Via Dicha,92637,33.6010817,-117.7499782
5583,Via Dicha,92637,33.6026497,-117.7490481
5585,Via Dicha,92637,33.6020242,-117.7492903
5582,Via Dicha,92637,33.6029730,-117.7490151
5586,Via Dicha,92637,33.6017837,-117.7495512
5584,Via Dicha,92637,33.6023109,-117.7490979
5587,Via Dicha,92637,33.6014726,-117.7497330
2183,Via Mariposa East,92637,33.6165717,-117.7156672
2195,Via Mariposa East,92637,33.6150513,-117.7176460
2196,Via Mariposa East,92637,33.6150680,-117.7180445
2197,Via Mariposa East,92637,33.6153098,-117.7176766
2194,Via Mariposa East,92637,33.6151124,-117.7172088
2199,Via Mariposa East,92637,33.6156197,-117.7180875
2220,Via Mariposa East,92637,33.6152122,-117.7166414
2214,Via Mariposa East,92637,33.6154801,-117.7157215
2215,Via Mariposa East,92637,33.6151859,-117.7157179
2217,Via Mariposa East,92637,33.6149227,-117.7156442
2218,Via Mariposa East,92637,33.6148510,-117.7161123
2219,Via Mariposa East,92637,33.6148128,-117.7165811
2189,Via Mariposa East,92637,33.6146076,-117.7156466
5575,Luz del Sol,92637,33.6019176,-117.7486638
5577,Luz del Sol,92637,33.6014113,-117.7491692
5567,Via Portora,92637,33.6009582,-117.7487602
5578,Luz del Sol,92637,33.6011017,-117.7492962
5566,Via Portora,92637,33.6012947,-117.7485537
5579,Luz del Sol,92637,33.6008071,-117.7494212
5576,Luz del Sol,92637,33.6016731,-117.7488998
5568,Via Portora,92637,33.6006748,-117.7489188
2190,Via Mariposa East,92637,33.6145518,-117.7161378
2192,Via Mariposa East,92637,33.6148116,-117.7172585
2193,Via Mariposa East,92637,33.6147987,-117.7177206
2173,Via Mariposa East,92637,33.6145201,-117.7180929
2191,Via Mariposa East,92637,33.6145353,-117.7165504
2184,Via Mariposa East,92637,33.6162281,-117.7153532
2186,Via Mariposa East,92637,33.6153414,-117.7147971
2185,Via Mariposa East,92637,33.6158411,-117.7151201
2187,Via Mariposa East,92637,33.6149689,-117.7148601
2216,Via Mariposa East,92637,33.6151825,-117.7153278
2188,Via Mariposa East,92637,33.6147414,-117.7151826
2213,Via Mariposa East,92637,33.6155882,-117.7154146
5522,Via la Mesa,92637,33.6001907,-117.7474933
5555,Rayo del Sol,92637,33.6009151,-117.7481543
5556,Rayo del Sol,92637,33.6006380,-117.7483481
5520,Via la Mesa,92637,33.6004483,-117.7477337
2160,Via Mariposa East,92637,33.6166273,-117.7147633
2159,Via Mariposa East,92637,33.6163003,-117.7149455
2158,Via Mariposa East,92637,33.6163303,-117.7145309
2157,Via Mariposa East,92637,33.6159368,-117.7147827
2155,Via Mariposa East,92637,33.6155777,-117.7145427
2156,Via Mariposa East,92637,33.6159361,-117.7144387
2161,Via Mariposa East,92637,33.6165720,-117.7151749
2045,Via Mariposa East,92637,33.6145840,-117.7146549
2095,Ronda Granada,92637,33.6152094,-117.7137860
2097,Ronda Granada,92637,33.6155652,-117.7139661
2098,Ronda Granada,92637,33.6157716,-117.7136210
2099,Ronda Granada,92637,33.6154943,-117.7136255
2096,Ronda Granada,92637,33.6152099,-117.7141265
2048,Via Mariposa East,92637,33.6146916,-117.7139379
2094,Ronda Granada,92637,33.6149318,-117.7138845
2046,Via Mariposa East,92637,33.6148672,-117.7143423
5525,Via la Mesa,92637,33.6003976,-117.7466126
5527,Via la Mesa,92637,33.6007168,-117.7462915
5524,Via la Mesa,92637,33.6006078,-117.7470298
5521,Via la Mesa,92637,33.6007615,-117.7473155
5523,Via la Mesa,92637,33.6000906,-117.7469840
2100,Ronda Granada,92637,33.6154734,-117.7133017
2104,Ronda Granada,92637,33.6161638,-117.7137494
2101,Ronda Granada,92637,33.6154820,-117.7130128
2102,Ronda Granada,92637,33.6157770,-117.7131779
2091,Ronda Granada,92637,33.6146761,-117.7130559
2105,Ronda Granada,92637,33.6164017,-117.7140687
2093,Ronda Granada,92637,33.6147501,-117.7134576
2103,Ronda Granada,92637,33.6161571,-117.7132327
2140,Ronda Granada,92637,33.6164932,-117.7134677
2140,Ronda Granada,92637,33.6166860,-117.7137179
2141,Ronda Granada,92637,33.6165282,-117.7132197
5526,Via la Mesa,92637,33.6009184,-117.7467445
5543,Avenida Sosiega,92637,33.6010335,-117.7471294
2151,Ronda Granada,92637,33.6165663,-117.7116385
2147,Ronda Granada,92637,33.6165084,-117.7119546
2154,Ronda Granada,92637,33.6161507,-117.7125153
2145,Ronda Granada,92637,33.6164586,-117.7125954
2071,Ronda Granada,92637,33.6157299,-117.7125719
2152,Ronda Granada,92637,33.6162384,-117.7116453
2146,Ronda Granada,92637,33.6164638,-117.7122759
2153,Ronda Granada,92637,33.6162050,-117.7120954
2072,Ronda Granada,92637,33.6154376,-117.7125721
2076,Ronda Granada,92637,33.6153500,-117.7111194
2077,Ronda Granada,92637,33.6151051,-117.7108400
2075,Ronda Granada,92637,33.6156041,-117.7112924
2073,Ronda Granada,92637,33.6155644,-117.7123056
2074,Ronda Granada,92637,33.6157483,-117.7119171
2078,Ronda Granada,92637,33.6149946,-117.7111045
2080,Ronda Granada,92637,33.6151756,-117.7114395
2079,Ronda Granada,92637,33.6148334,-117.7113768
2082,Ronda Granada,92637,33.6153428,-117.7120626
2085,Ronda Granada,92637,33.6144763,-117.7119495
2084,Ronda Granada,92637,33.6147172,-117.7116463
2083,Ronda Granada,92637,33.6150577,-117.7118694
2081,Ronda Granada,92637,33.6154289,-117.7117928
2086,Ronda Granada,92637,33.6147915,-117.7119551
2087,Ronda Granada,92637,33.6146739,-117.7122793
2090,Ronda Granada,92637,33.6147413,-117.7126289
3518,Bahia Blanca West,92637,33.6043615,-117.7482464
3513,Bahia Blanca West,92637,33.6050976,-117.7483006
3520,Bahia Blanca West,92637,33.6049572,-117.7477247
3519,Bahia Blanca West,92637,33.6046160,-117.7479293
3531,Monte Hermoso,92637,33.6051639,-117.7470001
3296,San Amadeo,92637,33.6045092,-117.7460817
3295,San Amadeo,92637,33.6042723,-117.7459849
3294,San Amadeo,92637,33.6038965,-117.7459676
3297,San Amadeo,92637,33.6048889,-117.7462043
3532,Monte Hermoso,92637,33.6049106,-117.7471075
3293,San Amadeo,92637,33.6034205,-117.7460727
5571,Luz del Sol,92637,33.6031781,-117.7483304
3293,San Amadeo,92637,33.6036178,-117.7459901
3292,San Amadeo,92637,33.6031591,-117.7461064
5569,Luz del Sol,92637,33.6038256,-117.7480868
5570,Luz del Sol,92637,33.6034495,-117.7481224
5557,Via Portora,92637,33.6040933,-117.7475951
5545,Rayo del Sol,92637,33.6039775,-117.7469250
5546,Rayo del Sol,92637,33.6036401,-117.7468863
5558,Via Portora,92637,33.6037606,-117.7474871
5559,Via Portora,92637,33.6034152,-117.7475679
5560,Via Portora,92637,33.6031034,-117.7477146
5544,Rayo del Sol,92637,33.6042859,-117.7470026
5547,Rayo del Sol,92637,33.6033072,-117.7469940
2384,Via Mariposa West,92637,33.6135850,-117.7211660
2386,Via Mariposa West,92637,33.6135229,-117.7225364
2387,Via Mariposa West,92637,33.6142335,-117.7224511
2385,Via Mariposa West,92637,33.6132924,-117.7218387
24231,El Toro Road,92637,33.6126375,-117.7223599
5562,Via Portora,92637,33.6024811,-117.7479135
5561,Via Portora,92637,33.6028122,-117.7478744
5572,Luz del Sol,92637,33.6028815,-117.7484463
5574,Luz del Sol,92637,33.6022188,-117.7485245
5563,Via Portora,92637,33.6021413,-117.7479518
5573,Luz del Sol,92637,33.6025676,-117.7484925
2018,Via Mariposa West,92637,33.6139516,-117.7202964
2015,Via Mariposa West,92637,33.6133903,-117.7203649
2348,Via Mariposa West,92637,33.6143361,-117.7203174
2335,Avenida Sevilla,92637,33.6144762,-117.7192965
2014,Via Mariposa West,92637,33.6132998,-117.7206853
2016,Via Mariposa West,92637,33.6136920,-117.7206485
2017,Via Mariposa West,92637,33.6136945,-117.7202803
2347,Via Mariposa West,92637,33.6143689,-117.7200515
2012,Via Mariposa West,92637,33.6128784,-117.7205837
2013,Via Mariposa West,92637,33.6130867,-117.7203527
2011,Via Mariposa West,92637,33.6128486,-117.7200869
2019,Via Mariposa West,92637,33.6138314,-117.7198483
5554,Rayo del Sol,92637,33.6011596,-117.7478952
5564,Via Portora,92637,33.6018576,-117.7481144
5550,Rayo del Sol,92637,33.6023774,-117.7473520
5551,Rayo del Sol,92637,33.6020497,-117.7474174
5565,Via Portora,92637,33.6015382,-117.7482806
5553,Rayo del Sol,92637,33.6014373,-117.7476802
5552,Rayo del Sol,92637,33.6017363,-117.7475520
5540,Avenida Sosiega,92637,33.6019137,-117.7466740
5548,Rayo del Sol,92637,33.6030240,-117.7471410
5549,Rayo del Sol,92637,33.6027189,-117.7473047
5542,Avenida Sosiega,92637,33.6013931,-117.7469684
5541,Avenida Sosiega,92637,33.6017032,-117.7468000
5540,Avenida Sosiega,92637,33.6020895,-117.7466567
5528,Via la Mesa,92637,33.6012118,-117.7462819
5528,Via la Mesa,92637,33.6012156,-117.7464449
5532,Via la Mesa,92637,33.6017162,-117.7459445
5537,Via la Mesa,92637,33.6019423,-117.7462887
5530,Via la Mesa,92637,33.6014727,-117.7461794
5529,Via la Mesa,92637,33.6010320,-117.7459695
5536,Via la Mesa,92637,33.6022636,-117.7458529
5539,Via la Mesa,92637,33.6025637,-117.7465424
5538,Via la Mesa,92637,33.6023515,-117.7461775
3276,San Amadeo,92637,33.6043970,-117.7453298
3312,San Amadeo,92637,33.6052664,-117.7456217
3275,San Amadeo,92637,33.6048232,-117.7452971
3274,San Amadeo,92637,33.6051787,-117.7451473
3273,San Amadeo,92637,33.6040592,-117.7449237
3277,San Amadeo,92637,33.6040269,-117.7452876
3279,San Amadeo,92637,33.6032685,-117.7452376
3280,San Amadeo,92637,33.6030952,-117.7448244
3272,San Amadeo,92637,33.6035938,-117.7449881
3281,San Amadeo,92637,33.6031883,-117.7443842
3278,San Amadeo,92637,33.6036561,-117.7453625
3271,San Amadeo,92637,33.6034378,-117.7445577
3283,San Amadeo,92637,33.6034822,-117.7431315
3282,San Amadeo,92637,33.6034113,-117.7437142
3284,San Amadeo,92637,33.6031766,-117.7433337
3269,San Amadeo,92637,33.6038513,-117.7432084
3254,San Amadeo,92637,33.6047487,-117.7446858
3258,San Amadeo,92637,33.6041776,-117.7434845
3270,San Amadeo,92637,33.6038185,-117.7437571
3255,San Amadeo,92637,33.6044654,-117.7444768
3257,San Amadeo,92637,33.6041756,-117.7437844
3269,San Amadeo,92637,33.6038232,-117.7434155
3256,San Amadeo,92637,33.6042580,-117.7441233
3245,San Amadeo,92637,33.6049944,-117.7439427
3253,San Amadeo,92637,33.6049302,-117.7443581
3246,San Amadeo,92637,33.6049014,-117.7434133
3252,San Amadeo,92637,33.6046385,-117.7440429
3250,San Amadeo,92637,33.6047374,-117.7430814
3259,San Amadeo,92637,33.6043857,-117.7430476
3251,San Amadeo,92637,33.6045517,-117.7435865
3289,San Amadeo,92637,33.6025989,-117.7447360
3291,San Amadeo,92637,33.6029332,-117.7457952
3290,San Amadeo,92637,33.6027431,-117.7453290
3288,San Amadeo,92637,33.6025203,-117.7444167
3287,San Amadeo,92637,33.6025510,-117.7440144
3289,San Amadeo,92637,33.6026334,-117.7449481
3286,San Amadeo,92637,33.6028396,-117.7440062
5531,Via la Mesa,92637,33.6013538,-117.7456582
3285,San Amadeo,92637,33.6029604,-117.7436862
5535,Via la Mesa,92637,33.6021487,-117.7455181
5534,Via la Mesa,92637,33.6019923,-117.7451352
5533,Via la Mesa,92637,33.6016441,-117.7453186
3266,San Amadeo,92637,33.6046722,-117.7423244
3268,San Amadeo,92637,33.6039652,-117.7428850
3249,San Amadeo,92637,33.6050696,-117.7428230
3263,San Amadeo,92637,33.6052635,-117.7423211
3266,San Amadeo,92637,33.6045285,-117.7424496
3265,San Amadeo,92637,33.6049176,-117.7421082
3264,San Amadeo,92637,33.6052635,-117.7419237
3267,San Amadeo,92637,33.6042401,-117.7426014
2001,Via Mariposa West,92637,33.6139968,-117.7193254
2003,Via Mariposa West,92637,33.6138265,-117.7188565
2004,Via Mariposa West,92637,33.6137266,-117.7192712
2005,Via Mariposa West,92637,33.6134973,-117.7188158
2006,Via Mariposa West,92637,33.6131673,-117.7188228
2002,Via Mariposa West,92637,33.6140651,-117.7189276
2009,Via Mariposa West,92637,33.6128835,-117.7196121
2008,Via Mariposa West,92637,33.6130074,-117.7192361
2007,Via Mariposa West,92637,33.6129155,-117.7188828
2010,Via Mariposa West,92637,33.6131005,-117.7199188
242,Calle Aragon,92637,33.6121544,-117.7191408
239,Calle Aragon,92637,33.6122623,-117.7198382
238,Calle Aragon,92637,33.6121421,-117.7202005
243,Calle Aragon,92637,33.6121580,-117.7187831
2038,Via Mariposa East,92637,33.6138210,-117.7182810
2042,Via Mariposa East,92637,33.6138466,-117.7174677
2039,Via Mariposa East,92637,33.6140721,-117.7182849
2172,Via Mariposa East,92637,33.6145158,-117.7176227
2040,Via Mariposa East,92637,33.6140758,-117.7179514
2171,Via Mariposa East,92637,33.6145061,-117.7172095
2041,Via Mariposa East,92637,33.6138264,-117.7179492
2043,Via Mariposa East,92637,33.6141098,-117.7175189
4005,Calle Sonora Oeste,92637,33.6052887,-117.7344413
2044,Via Mariposa East,92637,33.6140775,-117.7171172
2037,Via Mariposa East,92637,33.6135764,-117.7181960
2035,Via Mariposa East,92637,33.6133298,-117.7180213
2032,Via Mariposa East,92637,33.6131912,-117.7176500
2036,Via Mariposa East,92637,33.6135768,-117.7177669
2034,Via Mariposa East,92637,33.6130039,-117.7180148
4003,Calle Sonora Oeste,92637,33.6044946,-117.7329783
4016,Calle Sonora Este,92637,33.6037308,-117.7326464
4004,Calle Sonora Oeste,92637,33.6049176,-117.7336528
4015,Calle Sonora Oeste,92637,33.6034325,-117.7333996
4017,Calle Sonora Este,92637,33.6033016,-117.7326460
2033,Via Mariposa East,92637,33.6129460,-117.7176594
2027,Via Mariposa East,92637,33.6130185,-117.7160305
2030,Via Mariposa East,92637,33.6129696,-117.7168869
2031,Via Mariposa East,92637,33.6130557,-117.7172727
2029,Via Mariposa East,92637,33.6132025,-117.7167012
2028,Via Mariposa East,92637,33.6130722,-117.7163772
4014,Calle Sonora Oeste,92637,33.6027757,-117.7334757
2026,Via Mariposa East,92637,33.6133256,-117.7160348
2024,Via Mariposa East,92637,33.6138929,-117.7160267
2023,Via Mariposa East,92637,33.6141457,-117.7160298
2067,Via Mariposa East,92637,33.6141576,-117.7156691
2020,Via Mariposa East,92637,33.6141378,-117.7165993
2021,Via Mariposa East,92637,33.6138857,-117.7165959
2022,Via Mariposa East,92637,33.6140154,-117.7163119
761,Calle Aragon,92637,33.6123366,-117.7178643
763,Calle Aragon,92637,33.6123839,-117.7169495
764,Calle Aragon,92637,33.6124570,-117.7164375
2025,Via Mariposa East,92637,33.6136317,-117.7160684
762,Calle Aragon,92637,33.6123382,-117.7174967
2065,Via Mariposa East,92637,33.6134204,-117.7156574
765,Calle Aragon,92637,33.6122390,-117.7163962
2070,Via Mariposa East,92637,33.6143165,-117.7152261
2069,Via Mariposa East,92637,33.6140598,-117.7149475
2064,Via Mariposa East,92637,33.6131151,-117.7156471
2068,Via Mariposa East,92637,33.6140111,-117.7152962
2066,Via Mariposa East,92637,33.6137709,-117.7156298
2062,Via Mariposa East,92637,33.6133107,-117.7153040
2063,Via Mariposa East,92637,33.6129831,-117.7152832
2060,Via Mariposa East,92637,33.6129605,-117.7148270
2057,Via Mariposa East,92637,33.6131562,-117.7141981
2058,Via Mariposa East,92637,33.6129888,-117.7139409
2059,Via Mariposa East,92637,33.6129826,-117.7144537
2061,Via Mariposa East,92637,33.6132403,-117.7149421
2054,Via Mariposa East,92637,33.6136057,-117.7139501
2056,Via Mariposa East,92637,33.6133194,-117.7144590
2055,Via Mariposa East,92637,33.6133308,-117.7139423
2052,Via Mariposa East,92637,33.6139342,-117.7140797
2051,Via Mariposa East,92637,33.6138945,-117.7137622
2050,Via Mariposa East,92637,33.6141723,-117.7135332
2053,Via Mariposa East,92637,33.6139953,-117.7144675
2092,Ronda Granada,92637,33.6144552,-117.7133477
2049,Via Mariposa East,92637,33.6143494,-117.7138549
2047,Via Mariposa East,92637,33.6145033,-117.7142744
2088,Ronda Granada,92637,33.6142937,-117.7123854
2089,Ronda Granada,92637,33.6144817,-117.7125918
4012,Calle Sonora Oeste,92637,33.6017500,-117.7342841
4024,Calle Sonora Este,92637,33.6012792,-117.7331873
4013,Calle Sonora Oeste,92637,33.6021217,-117.7337200
4018,Calle Sonora Este,92637,33.6022860,-117.7326350
4019,Calle Sonora Este,92637,33.6018212,-117.7326479
4020,Calle Sonora Este,92637,33.6013779,-117.7326473
949,Calle Aragon,92637,33.6106067,-117.7219532
24268,El Toro Road,92637,33.6108056,-117.7230431
24268,El Toro Road,92637,33.6102352,-117.7233069
956,Calle Aragon,92637,33.6103534,-117.7214181
948,Calle Aragon,92637,33.6102499,-117.7225014
955,Calle Aragon,92637,33.6100781,-117.7218812
957,Calle Aragon,92637,33.6100364,-117.7212112
24252,El Toro Road,92637,33.6117832,-117.7213443
233,Calle Aragon,92637,33.6114425,-117.7197433
235,Calle Aragon,92637,33.6113734,-117.7203305
234,Calle Aragon,92637,33.6114397,-117.7200483
237,Calle Aragon,92637,33.6121670,-117.7205706
236,Calle Aragon,92637,33.6117911,-117.7204847
241,Calle Aragon,92637,33.6121389,-117.7194823
240,Calle Aragon,92637,33.6119897,-117.7198316
246,Calle Aragon,92637,33.6114443,-117.7189401
244,Calle Aragon,92637,33.6116239,-117.7184889
245,Calle Aragon,92637,33.6113156,-117.7185870
253,Calle Aragon,92637,33.6101477,-117.7205626
252,Calle Aragon,92637,33.6103914,-117.7207645
247,Calle Aragon,92637,33.6114416,-117.7192481
251,Calle Aragon,92637,33.6106575,-117.7207703
250,Calle Aragon,92637,33.6106591,-117.7204281
249,Calle Aragon,92637,33.6108835,-117.7200952
255,Calle Aragon,92637,33.6099180,-117.7201294
248,Calle Aragon,92637,33.6108164,-117.7197391
256,Calle Aragon,92637,33.6099206,-117.7198228
259,Calle Aragon,92637,33.6099765,-117.7192613
265,Calle Aragon,92637,33.6106891,-117.7191428
262,Calle Aragon,92637,33.6106445,-117.7187440
260,Calle Aragon,92637,33.6099786,-117.7189183
261,Calle Aragon,92637,33.6103265,-117.7188001
264,Calle Aragon,92637,33.6109196,-117.7191342
263,Calle Aragon,92637,33.6108815,-117.7187454
24299,Paseo de Valencia,92637,33.6100972,-117.7140871
24262,Calle Aragon,92637,33.6101682,-117.7150312
24221,Paseo de Valencia,92637,33.6102679,-117.7133255
24299,Paseo de Valencia,92637,33.6106365,-117.7146484
11,Via Castilla,92637,33.6098931,-117.7156734
24232,Calle Aragon,92637,33.6116196,-117.7154016
3,Via Castilla,92637,33.6101550,-117.7182632
1,Via Castilla,92637,33.6098762,-117.7173035
8,Via Castilla,92637,33.6099741,-117.7162912
10,Via Castilla,92637,33.6101218,-117.7160180
9,Via Castilla,92637,33.6103112,-117.7163511
3,Via Castilla,92637,33.6105428,-117.7181403
773,Calle Aragon,92637,33.6109681,-117.7169650
771,Calle Aragon,92637,33.6110132,-117.7166967
4,Via Castilla,92637,33.6107095,-117.7179747
768,Calle Aragon,92637,33.6113178,-117.7162744
5,Via Castilla,92637,33.6105932,-117.7175584
6,Via Castilla,92637,33.6104905,-117.7170110
770,Calle Aragon,92637,33.6108269,-117.7163126
1,Via Castilla,92637,33.6099986,-117.7175091
769,Calle Aragon,92637,33.6110330,-117.7163235
772,Calle Aragon,92637,33.6112817,-117.7167137
766,Calle Aragon,92637,33.6118036,-117.7163784
767,Calle Aragon,92637,33.6118659,-117.7170574
773,Calle Aragon,92637,33.6112111,-117.7170334
760,Calle Aragon,92637,33.6120279,-117.7179085
759,Calle Aragon,92637,33.6116346,-117.7179386
758,Calle Aragon,92637,33.6115723,-117.7175395
757,Calle Aragon,92637,33.6112021,-117.7179648
946,Avenida Carmel,92637,33.6082494,-117.7218933
946,Avenida Carmel,92637,33.6086866,-117.7220257
947,Avenida Carmel,92637,33.6090662,-117.7225068
24380,Moulton Parkway,92637,33.6080444,-117.7228346
954,Calle Aragon,92637,33.6096851,-117.7219230
953,Avenida Carmel,92637,33.6096822,-117.7222866
952,Avenida Carmel,92637,33.6092504,-117.7219782
960,Calle Aragon,92637,33.6089470,-117.7210822
951,Avenida Carmel,92637,33.6089478,-117.7216095
950,Avenida Carmel,92637,33.6086722,-117.7212582
954,Calle Aragon,92637,33.6094326,-117.7217485
959,Calle Aragon,92637,33.6093405,-117.7214261
958,Calle Aragon,92637,33.6096925,-117.7214968
254,Calle Aragon,92637,33.6097495,-117.7206503
276,Avenida Carmel,92637,33.6080775,-117.7204565
278,Avenida Carmel,92637,33.6084534,-117.7206913
271,Avenida Sevilla,92637,33.6090765,-117.7206408
270,Avenida Sevilla,92637,33.6094137,-117.7206468
279,Avenida Carmel,92637,33.6087351,-117.7207025
277,Avenida Carmel,92637,33.6082491,-117.7206896
285,Avenida Carmel,92637,33.6077395,-117.7197097
275,Avenida Carmel,92637,33.6078871,-117.7202314
286,Avenida Carmel,92637,33.6079951,-117.7194106
288,Avenida Carmel,92637,33.6079920,-117.7197147
281,Avenida Carmel,92637,33.6086143,-117.7201219
287,Avenida Carmel,92637,33.6077427,-117.7194053
284,Avenida Carmel,92637,33.6086102,-117.7193540
283,Avenida Carmel,92637,33.6085720,-117.7196677
282,Avenida Carmel,92637,33.6086167,-117.7198943
280,Avenida Carmel,92637,33.6085651,-117.7203478
273,Avenida Sevilla,92637,33.6089035,-117.7196069
272,Avenida Sevilla,92637,33.6088989,-117.7202862
268,Avenida Sevilla,92637,33.6095635,-117.7198965
258,Calle Aragon,92637,33.6096440,-117.7190360
274,Avenida Sevilla,92637,33.6089289,-117.7192571
267,Avenida Sevilla,92637,33.6095953,-117.7194776
257,Calle Aragon,92637,33.6097994,-117.7194221
269,Avenida Sevilla,92637,33.6095603,-117.7203025
289,Avenida Sevilla,92637,33.6093120,-117.7186377
266,Avenida Sevilla,92637,33.6093798,-117.7191940
290,Avenida Sevilla,92637,33.6095478,-117.7185352
307,Avenida Sevilla,92637,33.6088114,-117.7187682
292,Avenida Sevilla,92637,33.6092289,-117.7183650
304,Avenida Sevilla,92637,33.6085602,-117.7187597
305,Avenida Sevilla,92637,33.6085623,-117.7184633
303,Avenida Sevilla,92637,33.6082322,-117.7188767
310,Avenida Castilla,92637,33.6078853,-117.7187334
302,Avenida Sevilla,92637,33.6082944,-117.7185253
301,Avenida Sevilla,92637,33.6080667,-117.7182772
309,Avenida Castilla,92637,33.6079585,-117.7177398
291,Avenida Sevilla,92637,33.6094698,-117.7182485
2,Via Castilla,92637,33.6098408,-117.7178816
308,Avenida Castilla,92637,33.6076616,-117.7177344
300,Avenida Sevilla,92637,33.6081952,-117.7176195
299,Avenida Sevilla,92637,33.6084028,-117.7176231
298,Avenida Sevilla,92637,33.6085180,-117.7179193
296,Avenida Sevilla,92637,33.6088403,-117.7175417
297,Avenida Sevilla,92637,33.6086346,-117.7175395
295,Avenida Sevilla,92637,33.6089512,-117.7178408
25,Avenida Castilla,92637,33.6079117,-117.7168796
294,Avenida Sevilla,92637,33.6090696,-117.7175227
293,Avenida Sevilla,92637,33.6092772,-117.7175261
382,Avenida Castilla,92637,33.6076578,-117.7170384
24,Avenida Castilla,92637,33.6079170,-117.7162981
27,Avenida Castilla,92637,33.6083517,-117.7170003
26,Avenida Castilla,92637,33.6081433,-117.7168914
384,Avenida Castilla,92637,33.6076550,-117.7157685
28,Avenida Castilla,92637,33.6085730,-117.7168572
383,Avenida Castilla,92637,33.6076809,-117.7162866
21,Avenida Castilla,92637,33.6087163,-117.7157883
23,Avenida Castilla,92637,33.6079867,-117.7157763
22,Avenida Castilla,92637,33.6083485,-117.7157260
20,Avenida Castilla,92637,33.6089084,-117.7167215
19,Via Castilla,92637,33.6091897,-117.7168042
17,Via Castilla,92637,33.6092077,-117.7164748
7,Via Castilla,92637,33.6096523,-117.7169691
18,Via Castilla,92637,33.6094255,-117.7167722
15,Via Castilla,92637,33.6090015,-117.7157029
16,Via Castilla,92637,33.6095714,-117.7160674
12,Via Castilla,92637,33.6095871,-117.7157770
13,Via Castilla,92637,33.6096883,-117.7153515
35,Calle Aragon,92637,33.6078847,-117.7147163
14,Via Castilla,92637,33.6092639,-117.7150564
37,Calle Aragon,92637,33.6079202,-117.7137380
31,Calle Aragon,92637,33.6084508,-117.7144522
34,Calle Aragon,92637,33.6081341,-117.7143142
33,Calle Aragon,92637,33.6082278,-117.7141110
55,Calle Aragon,92637,33.6074756,-117.7132783
32,Calle Aragon,92637,33.6083647,-117.7139555
29,Calle Aragon,92637,33.6087897,-117.7143032
30,Calle Aragon,92637,33.6086872,-117.7147939
962,Calle Aragon,92637,33.6083087,-117.7133178
963,Calle Aragon,92637,33.6079962,-117.7129885
968,Calle Aragon,92637,33.6086101,-117.7131574
961,Calle Aragon,92637,33.6085282,-117.7135155
969,Calle Aragon,92637,33.6091700,-117.7137549
964,Calle Aragon,92637,33.6082070,-117.7125674
966,Calle Aragon,92637,33.6088915,-117.7126528
40,Calle Aragon,92637,33.6079258,-117.7124369
967,Calle Aragon,92637,33.6085179,-117.7127202
965,Calle Aragon,92637,33.6084479,-117.7122564
39,Calle Aragon,92637,33.6076314,-117.7128263
42,Calle Aragon,92637,33.6078469,-117.7117220
41,Calle Aragon,92637,33.6081181,-117.7119705
779,Via Los Altos,92637,33.5987572,-117.7020672
778,Via Los Altos,92637,33.5989463,-117.7021424
788,Via Los Altos,92637,33.5971940,-117.7019271
787,Via Los Altos,92637,33.5974658,-117.7018347
785,Via Los Altos,92637,33.5979908,-117.7018983
786,Via Los Altos,92637,33.5977466,-117.7018402
793,Via Los Altos,92637,33.5966449,-117.7019610
784,Via Los Altos,92637,33.5982067,-117.7019284
792,Via Los Altos,92637,33.5969265,-117.7018977
783,Via Los Altos,92637,33.5984423,-117.7020177
794,Via Los Altos,92637,33.5963728,-117.7019780
782,Via Los Altos,92637,33.5982630,-117.7023157
790,Via Los Altos,92637,33.5974876,-117.7027520
789,Via Los Altos,92637,33.5972880,-117.7023955
800,Via Los Altos,92637,33.5968176,-117.7026418
798,Via Los Altos,92637,33.5964854,-117.7028330
799,Via Los Altos,92637,33.5968124,-117.7029039
675,Via Alhambra,92637,33.5981963,-117.7047063
780,Via Los Altos,92637,33.5986635,-117.7029132
679,Via Alhambra,92637,33.5984013,-117.7044664
681,Via Alhambra,92637,33.5985712,-117.7039776
791,Via Los Altos,92637,33.5978386,-117.7027568
782,Via Los Altos,92637,33.5982891,-117.7027389
680,Via Alhambra,92637,33.5987055,-117.7043232
683,Via Alhambra,92637,33.5986865,-117.7034906
678,Via Alhambra,92637,33.5985331,-117.7047881
813,Via Alhambra,92637,33.5971398,-117.7047865
816,Via Alhambra,92637,33.5977675,-117.7038098
676,Via Alhambra,92637,33.5978350,-117.7049151
814,Via Alhambra,92637,33.5974573,-117.7045887
815,Via Alhambra,92637,33.5976221,-117.7041978
684,Via Alhambra,92637,33.5983904,-117.7034502
675,Via Alhambra,92637,33.5979581,-117.7046563
685,Via Alhambra,92637,33.5982179,-117.7033794
817,Via Alhambra,92637,33.5977655,-117.7033431
829,Via Alhambra,92637,33.5969423,-117.7038053
827,Via Alhambra,92637,33.5972031,-117.7041746
828,Via Alhambra,92637,33.5972938,-117.7037662
818,Via Alhambra,92637,33.5973809,-117.7032658
816,Via Alhambra,92637,33.5975808,-117.7036624
821,Via Alhambra,92637,33.5964411,-117.7044866
823,Via Alhambra,92637,33.5964752,-117.7049329
820,Via Alhambra,92637,33.5967027,-117.7035795
819,Via Alhambra,92637,33.5969352,-117.7033283
774,Via Los Altos,92637,33.5993811,-117.7031056
781,Via Los Altos,92637,33.5990423,-117.7029313
664,Via Los Altos,92637,33.5989746,-117.7045526
662,Via Los Altos,92637,33.5992267,-117.7037553
682,Via Alhambra,92637,33.5988431,-117.7038402
663,Via Los Altos,92637,33.5991151,-117.7041569
777,Via Los Altos,92637,33.5991792,-117.7023805
683,Via Alhambra,92637,33.5989741,-117.7034804
665,Via Los Altos,92637,33.5988177,-117.7049260
647,Avenida Sevilla,92637,33.6002925,-117.7024754
650,Avenida Sevilla,92637,33.6002423,-117.7027658
649,Avenida Sevilla,92637,33.5999820,-117.7026872
648,Avenida Sevilla,92637,33.6000313,-117.7023932
776,Via Los Altos,92637,33.5995526,-117.7022592
775,Via Los Altos,92637,33.5995967,-117.7026651
651,Avenida Sevilla,92637,33.5999593,-117.7030536
652,Avenida Sevilla,92637,33.5998838,-117.7033512
623,Avenida Sevilla,92637,33.5997293,-117.7039110
637,Avenida Sevilla,92637,33.6000142,-117.7041332
633,Avenida Sevilla,92637,33.6004471,-117.7046301
625,Avenida Sevilla,92637,33.5993883,-117.7047469
624,Avenida Sevilla,92637,33.5996231,-117.7043389
636,Avenida Sevilla,92637,33.5998193,-117.7048049
653,Avenida Sevilla,92637,33.6003607,-117.7033617
645,Avenida Sevilla,92637,33.6009975,-117.7025919
654,Avenida Sevilla,92637,33.6006637,-117.7030093
659,Avenida Sevilla,92637,33.6007925,-117.7034412
646,Avenida Sevilla,92637,33.6006282,-117.7025017
640,Avenida Sevilla,92637,33.6017069,-117.7039843
639,Avenida Sevilla,92637,33.6014609,-117.7043022
657,Avenida Sevilla,92637,33.6014837,-117.7038141
656,Avenida Sevilla,92637,33.6015302,-117.7032674
638,Avenida Sevilla,92637,33.6011867,-117.7045917
658,Avenida Sevilla,92637,33.6011324,-117.7042271
661,Avenida Sevilla,92637,33.6010845,-117.7038054
655,Avenida Sevilla,92637,33.6011649,-117.7029442
660,Avenida Sevilla,92637,33.6011342,-117.7033931
169,Avenida Majorca,92637,33.6032027,-117.7032575
641,Avenida Sevilla,92637,33.6018987,-117.7036102
643,Avenida Sevilla,92637,33.6017539,-117.7028232
642,Avenida Sevilla,92637,33.6019470,-117.7031908
172,Avenida Majorca,92637,33.6027223,-117.7045037
644,Avenida Sevilla,92637,33.6014090,-117.7026962
171,Avenida Majorca,92637,33.6028752,-117.7040025
170,Avenida Majorca,92637,33.6030152,-117.7036023
164,Avenida Majorca,92637,33.6037737,-117.7042824
166,Avenida Majorca,92637,33.6034515,-117.7040463
163,Avenida Majorca,92637,33.6034856,-117.7043829
165,Avenida Majorca,92637,33.6037315,-117.7039463
168,Avenida Majorca,92637,33.6035359,-117.7033349
167,Avenida Majorca,92637,33.6036653,-117.7036341
161,Avenida Majorca,92637,33.6040293,-117.7049375
158,Avenida Majorca,92637,33.6044274,-117.7039257
160,Avenida Majorca,92637,33.6040762,-117.7040832
155,Avenida Majorca,92637,33.6049509,-117.7044490
152,Avenida Majorca,92637,33.6046912,-117.7046335
156,Avenida Majorca,92637,33.6046729,-117.7041579
159,Avenida Majorca,92637,33.6041711,-117.7036859
157,Avenida Majorca,92637,33.6043612,-117.7043449
154,Avenida Majorca,92637,33.6051857,-117.7047200
826,Via Alhambra,92637,33.5971044,-117.7053512
677,Via Alhambra,92637,33.5982313,-117.7050324
667,Via Mendoza,92637,33.5982659,-117.7054172
825,Via Alhambra,92637,33.5968927,-117.7050653
674,Via Mendoza,92637,33.5977454,-117.7056400
672,Via Mendoza,92637,33.5975959,-117.7053588
824,Via Alhambra,92637,33.5967220,-117.7052827
674,Via Mendoza,92637,33.5978376,-117.7052364
673,Via Mendoza,92637,33.5974573,-117.7056556
669,Via Mendoza,92637,33.5981070,-117.7057330
671,Via Mendoza,92637,33.5979952,-117.7060125
666,Via Los Altos,92637,33.5986579,-117.7053051
670,Via Mendoza,92637,33.5983276,-117.7061031
668,Via Mendoza,92637,33.5984663,-117.7056737
600,Avenida Sevilla,92637,33.5984245,-117.7070369
601,Avenida Sevilla,92637,33.5982852,-117.7076547
874,Avenida Sevilla,92637,33.5973509,-117.7075436
878,Via Mendoza,92637,33.5970941,-117.7067194
868,Avenida Sevilla,92637,33.5980744,-117.7066831
867,Avenida Sevilla,92637,33.5979418,-117.7070494
877,Avenida Sevilla,92637,33.5977078,-117.7076108
875,Avenida Sevilla,92637,33.5971691,-117.7072222
884,Via Mendoza,92637,33.5968765,-117.7071459
873,Avenida Sevilla,92637,33.5970210,-117.7075768
883,Via Mendoza,92637,33.5966801,-117.7076009
879,Via Mendoza,92637,33.5969044,-117.7061987
881,Via Mendoza,92637,33.5965272,-117.7071224
870,Avenida Sevilla,92637,33.5977103,-117.7066838
880,Via Mendoza,92637,33.5967630,-117.7057961
878,Via Mendoza,92637,33.5972003,-117.7063823
869,Avenida Sevilla,92637,33.5974131,-117.7066976
871,Avenida Sevilla,92637,33.5975564,-117.7063856
626,Avenida Sevilla,92637,33.5992108,-117.7051704
621,Avenida Sevilla,92637,33.5988851,-117.7059507
619,Avenida Sevilla,92637,33.5992109,-117.7057472
627,Avenida Sevilla,92637,33.5994728,-117.7050747
628,Avenida Sevilla,92637,33.5994540,-117.7054394
622,Avenida Sevilla,92637,33.5987255,-117.7063635
620,Avenida Sevilla,92637,33.5990242,-117.7055587
611,Avenida Sevilla,92637,33.6000886,-117.7064199
614,Avenida Sevilla,92637,33.5995694,-117.7069360
612,Avenida Sevilla,92637,33.5993558,-117.7066646
605,Avenida Sevilla,92637,33.5989670,-117.7070983
610,Avenida Sevilla,92637,33.5999316,-117.7068933
604,Avenida Sevilla,92637,33.5988255,-117.7074023
618,Avenida Sevilla,92637,33.5993665,-117.7058612
613,Avenida Sevilla,92637,33.5994947,-117.7063677
609,Avenida Sevilla,92637,33.5995307,-117.7074276
606,Avenida Sevilla,92637,33.5991207,-117.7073886
614,Avenida Sevilla,92637,33.5996625,-117.7066701
630,Avenida Sevilla,92637,33.6001992,-117.7058211
617,Avenida Sevilla,92637,33.5995694,-117.7061094
615,Avenida Sevilla,92637,33.5998576,-117.7061935
629,Avenida Sevilla,92637,33.5997732,-117.7056095
631,Avenida Sevilla,92637,33.6004081,-117.7054507
634,Avenida Sevilla,92637,33.6002711,-117.7050664
635,Avenida Sevilla,92637,33.5999263,-117.7052355
616,Avenida Sevilla,92637,33.5997143,-117.7058729
579,Avenida Majorca,92637,33.6006715,-117.7073508
632,Avenida Sevilla,92637,33.6006033,-117.7050582
197,Avenida Majorca,92637,33.6009615,-117.7070553
193,Avenida Majorca,92637,33.6012439,-117.7066360
198,Avenida Majorca,92637,33.6013372,-117.7073607
192,Avenida Majorca,92637,33.6017497,-117.7066502
195,Avenida Majorca,92637,33.6015106,-117.7070535
196,Avenida Majorca,92637,33.6010761,-117.7068791
191,Avenida Majorca,92637,33.6015378,-117.7061982
578,Avenida Majorca,92637,33.6009681,-117.7077234
190,Avenida Majorca,92637,33.6017206,-117.7059362
181,Avenida Majorca,92637,33.6021006,-117.7054917
194,Avenida Majorca,92637,33.6013300,-117.7064736
177,Avenida Majorca,92637,33.6024218,-117.7049336
178,Avenida Majorca,92637,33.6022673,-117.7052020
182,Avenida Majorca,92637,33.6019412,-117.7057613
189,Avenida Majorca,92637,33.6019196,-117.7063627
183,Avenida Majorca,92637,33.6021633,-117.7059499
180,Avenida Majorca,92637,33.6023264,-117.7056836
200,Avenida Majorca,92637,33.6020572,-117.7075729
186,Avenida Majorca,92637,33.6023011,-117.7071104
179,Avenida Majorca,92637,33.6024892,-117.7053925
176,Avenida Majorca,92637,33.6026533,-117.7051240
174,Avenida Majorca,92637,33.6030788,-117.7057819
187,Avenida Majorca,92637,33.6024446,-117.7068610
173,Avenida Majorca,92637,33.6032120,-117.7051266
184,Avenida Majorca,92637,33.6026048,-117.7062815
185,Avenida Majorca,92637,33.6028247,-117.7062328
175,Avenida Majorca,92637,33.6032026,-117.7055221
188,Avenida Majorca,92637,33.6025909,-117.7066137
219,Avenida Majorca,92637,33.6029650,-117.7070715
220,Avenida Majorca,92637,33.6031497,-117.7068177
222,Avenida Majorca,92637,33.6032467,-117.7073641
215,Avenida Majorca,92637,33.6036340,-117.7066855
217,Avenida Majorca,92637,33.6036559,-117.7061501
216,Avenida Majorca,92637,33.6033531,-117.7064451
224,Avenida Majorca,92637,33.6036374,-117.7075823
221,Avenida Majorca,92637,33.6034298,-117.7071109
153,Avenida Majorca,92637,33.6049706,-117.7049794
162,Avenida Majorca,92637,33.6037012,-117.7049876
151,Avenida Majorca,92637,33.6044790,-117.7052609
218,Avenida Majorca,92637,33.6039522,-117.7057430
148,Avenida Majorca,92637,33.6053872,-117.7050160
147,Avenida Majorca,92637,33.6055159,-117.7051825
136,Avenida Majorca,92637,33.6055325,-117.7068478
139,Avenida Majorca,92637,33.6053776,-117.7063828
149,Avenida Majorca,92637,33.6052827,-117.7053253
146,Avenida Majorca,92637,33.6055374,-117.7056948
137,Avenida Majorca,92637,33.6050535,-117.7059464
138,Avenida Majorca,92637,33.6052159,-117.7061682
150,Avenida Majorca,92637,33.6047600,-117.7055508
209,Avenida Majorca,92637,33.6049454,-117.7068249
211,Avenida Majorca,92637,33.6045274,-117.7066378
208,Avenida Majorca,92637,33.6050577,-117.7071063
210,Avenida Majorca,92637,33.6048341,-117.7065450
202,Avenida Majorca,92637,33.6048603,-117.7077288
201,Avenida Majorca,92637,33.6051546,-117.7077378
214,Avenida Majorca,92637,33.6039513,-117.7065827
213,Avenida Majorca,92637,33.6041383,-117.7066302
212,Avenida Majorca,92637,33.6043387,-117.7065875
207,Avenida Majorca,92637,33.6039477,-117.7069692
206,Avenida Majorca,92637,33.6040977,-117.7072828
204,Avenida Majorca,92637,33.6040874,-117.7076340
205,Avenida Majorca,92637,33.6043845,-117.7076397
143,Avenida Majorca,92637,33.6058960,-117.7058543
126,Avenida Majorca,92637,33.6056897,-117.7077722
144,Avenida Majorca,92637,33.6057877,-117.7055779
145,Avenida Majorca,92637,33.6056594,-117.7054131
142,Avenida Majorca,92637,33.6060213,-117.7060177
140,Avenida Majorca,92637,33.6057751,-117.7061346
134,Avenida Majorca,92637,33.6059753,-117.7066577
131,Avenida Majorca,92637,33.6064268,-117.7071865
133,Avenida Majorca,92637,33.6062544,-117.7065430
127,Avenida Majorca,92637,33.6061583,-117.7075618
132,Avenida Majorca,92637,33.6063440,-117.7068443
135,Avenida Majorca,92637,33.6060746,-117.7069558
141,Avenida Majorca,92637,33.6060784,-117.7062676
130,Avenida Majorca,92637,33.6064434,-117.7075296
120,Via Estrada,92637,33.6057161,-117.7097543
128,Avenida Majorca,92637,33.6061834,-117.7078628
118,Via Estrada,92637,33.6054579,-117.7087653
83,Calle Aragon,92637,33.6056096,-117.7102996
129,Avenida Majorca,92637,33.6064613,-117.7078724
119,Via Estrada,92637,33.6054793,-117.7095659
121,Via Estrada,92637,33.6058953,-117.7097807
125,Via Estrada,92637,33.6060190,-117.7086715
82,Calle Aragon,92637,33.6058449,-117.7105361
122,Via Estrada,92637,33.6061702,-117.7098429
123,Via Estrada,92637,33.6065131,-117.7095760
76,Calle Aragon,92637,33.6067200,-117.7101050
75,Calle Aragon,92637,33.6070879,-117.7104475
124,Via Estrada,92637,33.6066650,-117.7089580
203,Avenida Majorca,92637,33.6043104,-117.7079888
226,Avenida Majorca,92637,33.6038770,-117.7081868
227,Avenida Majorca,92637,33.6034133,-117.7084731
225,Avenida Majorca,92637,33.6036332,-117.7079875
223,Avenida Majorca,92637,33.6033679,-117.7079512
109,Via Estrada,92637,33.6031713,-117.7094184
99,Via Estrada,92637,33.6032277,-117.7103164
98,Via Estrada,92637,33.6031623,-117.7099880
108,Via Estrada,92637,33.6035142,-117.7094139
106,Via Estrada,92637,33.6038294,-117.7092778
107,Via Estrada,92637,33.6035825,-117.7089969
111,Via Estrada,92637,33.6046452,-117.7097680
86,Calle Aragon,92637,33.6043428,-117.7103796
105,Via Estrada,92637,33.6037549,-117.7100305
104,Via Estrada,92637,33.6040070,-117.7100442
110,Via Estrada,92637,33.6041703,-117.7094767
85,Calle Aragon,92637,33.6046162,-117.7101862
114,Via Estrada,92637,33.6051047,-117.7093234
112,Via Estrada,92637,33.6047028,-117.7094445
117,Via Estrada,92637,33.6042226,-117.7086144
115,Via Estrada,92637,33.6051770,-117.7088781
113,Via Estrada,92637,33.6051222,-117.7097579
84,Calle Aragon,92637,33.6051168,-117.7102069
577,Avenida Majorca,92637,33.6010491,-117.7080447
574,Avenida Majorca,92637,33.6014090,-117.7085100
586,Avenida Majorca,92637,33.6010536,-117.7088796
232,Avenida Majorca,92637,33.6025618,-117.7079251
585,Avenida Majorca,92637,33.6007992,-117.7091355
576,Avenida Majorca,92637,33.6012462,-117.7077855
199,Avenida Majorca,92637,33.6018448,-117.7078288
575,Avenida Majorca,92637,33.6016324,-117.7081668
231,Avenida Majorca,92637,33.6023646,-117.7082741
531,Via Estrada,92637,33.6024265,-117.7089410
230,Avenida Majorca,92637,33.6026228,-117.7085862
228,Avenida Majorca,92637,33.6030249,-117.7085958
229,Avenida Majorca,92637,33.6028189,-117.7088025
530,Via Estrada,92637,33.6026744,-117.7092265
532,Via Estrada,92637,33.6020979,-117.7088067
551,Via Estrada,92637,33.6025474,-117.7101364
529,Via Estrada,92637,33.6024843,-117.7095417
537,Via Estrada,92637,33.6017593,-117.7094501
562,Avenida Sevilla,92637,33.6012774,-117.7103025
534,Via Estrada,92637,33.6014985,-117.7091683
536,Via Estrada,92637,33.6015079,-117.7095312
539,Via Estrada,92637,33.6016125,-117.7101488
533,Via Estrada,92637,33.6017972,-117.7089342
563,Avenida Sevilla,92637,33.6012760,-117.7099036
538,Via Estrada,92637,33.6016590,-117.7098468
565,Avenida Sevilla,92637,33.6009854,-117.7100774
564,Avenida Sevilla,92637,33.6010129,-117.7096739
535,Via Estrada,92637,33.6012749,-117.7094836
918,Avenida Majorca,92637,33.5986275,-117.7093981
603,Avenida Sevilla,92637,33.5987859,-117.7078757
915,Avenida Majorca,92637,33.5992182,-117.7104131
608,Avenida Sevilla,92637,33.5993433,-117.7076678
917,Avenida Majorca,92637,33.5988403,-117.7096844
602,Avenida Sevilla,92637,33.5985122,-117.7081973
607,Avenida Sevilla,92637,33.5991027,-117.7078506
583,Avenida Majorca,92637,33.6005316,-117.7086514
566,Avenida Sevilla,92637,33.6007599,-117.7099320
916,Avenida Majorca,92637,33.5991024,-117.7100087
569,Avenida Sevilla,92637,33.6000856,-117.7102642
567,Avenida Sevilla,92637,33.6004814,-117.7100371
568,Avenida Sevilla,92637,33.6003635,-117.7103664
582,Avenida Majorca,92637,33.6004750,-117.7083246
584,Avenida Majorca,92637,33.6007465,-117.7084176
589,Avenida Majorca,92637,33.6003913,-117.7090677
592,Avenida Majorca,92637,33.5999579,-117.7083574
581,Avenida Majorca,92637,33.6001999,-117.7079761
580,Avenida Majorca,92637,33.6005053,-117.7077326
591,Avenida Majorca,92637,33.6001957,-117.7087165
593,Avenida Majorca,92637,33.5996812,-117.7083545
595,Avenida Majorca,92637,33.5992466,-117.7088022
594,Avenida Majorca,92637,33.5994453,-117.7085402
596,Avenida Majorca,92637,33.5990780,-117.7090974
598,Avenida Majorca,92637,33.5994864,-117.7097918
597,Avenida Majorca,92637,33.5992410,-117.7093911
599,Avenida Majorca,92637,33.5997883,-117.7096740
588,Avenida Majorca,92637,33.6005224,-117.7093964
590,Avenida Majorca,92637,33.6000641,-117.7092045
587,Avenida Majorca,92637,33.6001973,-117.7095334
892,Ronda Sevilla,92637,33.5970704,-117.7086886
872,Avenida Sevilla,92637,33.5969910,-117.7079209
891,Ronda Sevilla,92637,33.5974236,-117.7085011
876,Avenida Sevilla,92637,33.5974463,-117.7079559
913,Ronda Sevilla,92637,33.5981380,-117.7086242
885,Ronda Sevilla,92637,33.5964556,-117.7082980
888,Ronda Sevilla,92637,33.5968813,-117.7092742
909,Ronda Sevilla,92637,33.5968136,-117.7096797
910,Ronda Sevilla,92637,33.5971708,-117.7096656
911,Ronda Sevilla,92637,33.5976294,-117.7095553
912,Ronda Sevilla,92637,33.5979826,-117.7090768
889,Ronda Sevilla,92637,33.5973230,-117.7092149
890,Ronda Sevilla,92637,33.5976960,-117.7087894
920,Avenida Majorca,92637,33.5981525,-117.7101314
919,Avenida Majorca,92637,33.5983810,-117.7097799
38,Calle Aragon,92637,33.6072515,-117.7124280
46,Calle Aragon,92637,33.6068050,-117.7127488
43,Calle Aragon,92637,33.6075929,-117.7114443
44,Calle Aragon,92637,33.6073286,-117.7112078
48,Calle Aragon,92637,33.6063825,-117.7131340
47,Calle Aragon,92637,33.6065072,-117.7128903
78,Calle Aragon,92637,33.6060830,-117.7111174
81,Calle Aragon,92637,33.6053525,-117.7110910
77,Calle Aragon,92637,33.6062795,-117.7108459
74,Calle Aragon,92637,33.6066482,-117.7111955
45,Calle Aragon,92637,33.6068993,-117.7118907
73,Calle Aragon,92637,33.6061766,-117.7125076
66,Calle Aragon,92637,33.6055505,-117.7119864
79,Calle Aragon,92637,33.6059028,-117.7114079
80,Calle Aragon,92637,33.6063207,-117.7117489
65,Calle Aragon,92637,33.6058509,-117.7121950
87,Calle Aragon,92637,33.6045210,-117.7108968
101,Via Estrada,92637,33.6037290,-117.7109869
102,Via Estrada,92637,33.6041289,-117.7108552
103,Via Estrada,92637,33.6040097,-117.7104768
100,Via Estrada,92637,33.6032966,-117.7108880
525,Calle Aragon,92637,33.6032131,-117.7127221
524,Calle Aragon,92637,33.6033745,-117.7130417
527,Calle Aragon,92637,33.6031224,-117.7118539
89,Calle Aragon,92637,33.6034278,-117.7118090
91,Calle Aragon,92637,33.6035922,-117.7125185
90,Calle Aragon,92637,33.6035495,-117.7123049
88,Calle Aragon,92637,33.6037279,-117.7117241
92,Calle Aragon,92637,33.6038124,-117.7127531
93,Calle Aragon,92637,33.6042185,-117.7125181
97,Calle Aragon,92637,33.6043035,-117.7114439
470,Calle Cadiz,92637,33.6045645,-117.7131725
96,Calle Aragon,92637,33.6047737,-117.7115383
95,Calle Aragon,92637,33.6049656,-117.7117719
94,Calle Aragon,92637,33.6045130,-117.7123203
67,Calle Aragon,92637,33.6051514,-117.7124336
68,Calle Aragon,92637,33.6049160,-117.7128956
69,Calle Aragon,92637,33.6052938,-117.7129096
560,Avenida Sevilla,92637,33.6013243,-117.7106376
559,Avenida Sevilla,92637,33.6010289,-117.7108151
540,Via Estrada,92637,33.6016950,-117.7104784
561,Avenida Sevilla,92637,33.6009905,-117.7104880
541,Via Estrada,92637,33.6016911,-117.7108456
558,Avenida Sevilla,92637,33.6016310,-117.7115967
557,Avenida Sevilla,92637,33.6013180,-117.7116441
543,Via Estrada,92637,33.6017447,-117.7112447
542,Via Estrada,92637,33.6015379,-117.7112417
544,Via Estrada,92637,33.6019869,-117.7113480
546,Via Estrada,92637,33.6024270,-117.7113377
556,Avenida Sevilla,92637,33.6010909,-117.7117190
555,Avenida Sevilla,92637,33.6008802,-117.7118297
545,Via Estrada,92637,33.6022205,-117.7113321
547,Via Estrada,92637,33.6027394,-117.7112872
549,Via Estrada,92637,33.6028692,-117.7109099
548,Via Estrada,92637,33.6025751,-117.7109497
526,Calle Aragon,92637,33.6030152,-117.7121988
528,Calle Aragon,92637,33.6029163,-117.7118546
550,Via Estrada,92637,33.6026531,-117.7104825
522,Calle Aragon,92637,33.6028945,-117.7129164
516,Calle Aragon,92637,33.6021843,-117.7120055
515,Calle Aragon,92637,33.6024396,-117.7119571
506,Avenida Sevilla,92637,33.6019646,-117.7121594
517,Calle Aragon,92637,33.6022359,-117.7122974
518,Calle Aragon,92637,33.6025199,-117.7123969
505,Avenida Sevilla,92637,33.6017058,-117.7126066
504,Avenida Sevilla,92637,33.6020058,-117.7126125
509,Avenida Sevilla,92637,33.6013218,-117.7123276
511,Avenida Sevilla,92637,33.6010981,-117.7124788
503,Avenida Sevilla,92637,33.6017723,-117.7129489
510,Avenida Sevilla,92637,33.6012225,-117.7127272
508,Avenida Sevilla,92637,33.6015277,-117.7123329
507,Avenida Sevilla,92637,33.6017584,-117.7121573
512,Avenida Sevilla,92637,33.6008855,-117.7126219
513,Avenida Sevilla,92637,33.6010076,-117.7128787
514,Avenida Sevilla,92637,33.6011450,-117.7131369
553,Avenida Sevilla,92637,33.6006043,-117.7117790
552,Avenida Sevilla,92637,33.6007655,-117.7115029
573,Avenida Sevilla,92637,33.6003170,-117.7113375
554,Avenida Sevilla,92637,33.6006826,-117.7120546
572,Avenida Sevilla,92637,33.6002846,-117.7110070
571,Avenida Sevilla,92637,33.6002888,-117.7107132
570,Avenida Sevilla,92637,33.6000122,-117.7106129
689,Avenida Sevilla,92637,33.5996037,-117.7107977
690,Avenida Sevilla,92637,33.5993102,-117.7109175
691,Avenida Sevilla,92637,33.5991018,-117.7112845
914,Avenida Majorca,92637,33.5988721,-117.7105718
921,Avenida Majorca,92637,33.5984432,-117.7107902
718,Avenida Majorca,92637,33.5987918,-117.7130232
719,Avenida Majorca,92637,33.5987357,-117.7126597
720,Avenida Majorca,92637,33.5985560,-117.7123234
693,Avenida Sevilla,92637,33.5987733,-117.7116891
694,Avenida Sevilla,92637,33.5989387,-117.7115742
692,Avenida Sevilla,92637,33.5987254,-117.7113195
695,Avenida Sevilla,92637,33.5989851,-117.7119330
698,Avenida Sevilla,92637,33.5992727,-117.7129180
702,Avenida Sevilla,92637,33.5995385,-117.7127655
696,Avenida Sevilla,92637,33.5990149,-117.7123042
703,Avenida Sevilla,92637,33.5998526,-117.7127801
701,Avenida Sevilla,92637,33.5996637,-117.7130736
697,Avenida Sevilla,92637,33.5992814,-117.7125338
706,Avenida Sevilla,92637,33.6000601,-117.7120699
688,Avenida Sevilla,92637,33.5996475,-117.7111548
686,Avenida Sevilla,92637,33.5999226,-117.7116543
687,Avenida Sevilla,92637,33.5997590,-117.7114241
23822,Avenida Sevilla,92637-0828,33.6004626,-117.7132721
704,Avenida Sevilla,92637,33.6000058,-117.7124657
705,Avenida Sevilla,92637,33.6002503,-117.7123175
930,Avenida Majorca,92637,33.5965259,-117.7107859
928,Avenida Majorca,92637,33.5969581,-117.7104676
926,Avenida Majorca,92637,33.5977009,-117.7104160
927,Avenida Majorca,92637,33.5973395,-117.7104757
929,Avenida Majorca,92637,33.5965902,-117.7104838
922,Avenida Majorca,92637,33.5977348,-117.7114280
923,Avenida Majorca,92637,33.5980554,-117.7112343
924,Avenida Majorca,92637,33.5979206,-117.7109581
925,Avenida Majorca,92637,33.5975936,-117.7111251
738,Avenida Majorca,92637,33.5966273,-117.7132899
737,Avenida Majorca,92637,33.5964291,-117.7128652
939,Avenida Majorca,92637,33.5964542,-117.7120546
734,Avenida Majorca,92637,33.5966578,-117.7127346
735,Avenida Majorca,92637,33.5965340,-117.7124297
944,Avenida Majorca,92637,33.5971756,-117.7113956
942,Avenida Majorca,92637,33.5969988,-117.7117707
943,Avenida Majorca,92637,33.5968894,-117.7114874
941,Avenida Majorca,92637,33.5966437,-117.7117899
945,Avenida Majorca,92637,33.5973243,-117.7117115
731,Avenida Majorca,92637,33.5968623,-117.7122412
730,Avenida Majorca,92637,33.5971877,-117.7122206
728,Avenida Majorca,92637,33.5974009,-117.7131253
732,Avenida Majorca,92637,33.5970826,-117.7125352
733,Avenida Majorca,92637,33.5969100,-117.7126473
729,Avenida Majorca,92637,33.5972902,-117.7128307
721,Avenida Majorca,92637,33.5984726,-117.7119878
722,Avenida Majorca,92637,33.5983374,-117.7116740
724,Avenida Majorca,92637,33.5978700,-117.7120015
727,Avenida Majorca,92637,33.5978016,-117.7127477
726,Avenida Majorca,92637,33.5976537,-117.7122430
725,Avenida Majorca,92637,33.5979655,-117.7122072
723,Avenida Majorca,92637,33.5981814,-117.7119517
740,Avenida Majorca,92637,33.5969136,-117.7140277
739,Avenida Majorca,92637,33.5967750,-117.7137411
744,Avenida Majorca,92637,33.5973208,-117.7143517
745,Avenida Majorca,92637,33.5972273,-117.7141434
746,Avenida Majorca,92637,33.5970103,-117.7143906
743,Avenida Majorca,92637,33.5975380,-117.7140984
742,Avenida Majorca,92637,33.5978820,-117.7142539
741,Avenida Majorca,92637,33.5976789,-117.7137014
747,Avenida Majorca,92637,33.5972387,-117.7147849
748,Avenida Majorca,92637,33.5974395,-117.7151740
754,Avenida Majorca,92637,33.5981870,-117.7155295
752,Avenida Majorca,92637,33.5979345,-117.7156827
750,Avenida Majorca,92637,33.5974632,-117.7155543
749,Avenida Majorca,92637,33.5976604,-117.7154290
756,Avenida Majorca,92637,33.5981669,-117.7148219
755,Avenida Majorca,92637,33.5982133,-117.7151944
708,Avenida Majorca,92637,33.5982267,-117.7137289
716,Avenida Majorca,92637,33.5987018,-117.7134221
709,Avenida Majorca,92637,33.5983326,-117.7139643
715,Avenida Majorca,92637,33.5985439,-117.7136977
707,Avenida Majorca,92637,33.5981487,-117.7133543
24962,Calle Aragon,92637,33.5989444,-117.7153614
700,Avenida Sevilla,92637,33.5996490,-117.7134104
711,Avenida Majorca,92637,33.5994330,-117.7141820
717,Avenida Majorca,92637,33.5989754,-117.7132745
710,Avenida Majorca,92637,33.5991550,-117.7142019
699,Avenida Sevilla,92637,33.5994147,-117.7132377
714,Avenida Majorca,92637,33.5988306,-117.7137235
713,Avenida Majorca,92637,33.5990952,-117.7135806
712,Avenida Majorca,92637,33.5996439,-117.7138163
462,Avenida Sevilla,92637,33.6005785,-117.7156485
457,Avenida Sevilla,92637,33.6004389,-117.7149179
459,Avenida Sevilla,92637,33.6003893,-117.7154382
461,Avenida Sevilla,92637,33.6007779,-117.7153974
460,Avenida Sevilla,92637,33.6005999,-117.7151926
458,Avenida Sevilla,92637,33.6002691,-117.7151225
463,Avenida Sevilla,92637,33.6009240,-117.7156394
502,Avenida Sevilla,92637,33.6018422,-117.7132925
498,Avenida Sevilla,92637,33.6014541,-117.7138741
500,Avenida Sevilla,92637,33.6019761,-117.7137106
497,Avenida Sevilla,92637,33.6013241,-117.7135799
499,Avenida Sevilla,92637,33.6017056,-117.7140940
501,Avenida Sevilla,92637,33.6022186,-117.7134740
521,Calle Aragon,92637,33.6028703,-117.7134476
523,Calle Aragon,92637,33.6031511,-117.7132414
486,Calle Cadiz,92637,33.6028686,-117.7139448
520,Calle Aragon,92637,33.6025813,-117.7135914
519,Calle Aragon,92637,33.6024620,-117.7133002
485,Calle Cadiz,92637,33.6031123,-117.7138230
487,Calle Cadiz,92637,33.6026933,-117.7141759
493,Calle Cadiz,92637,33.6024421,-117.7152931
421,Avenida Castilla,92637,33.6033006,-117.7157322
422,Avenida Castilla,92637,33.6030818,-117.7159630
496,Calle Cadiz,92637,33.6028327,-117.7151870
482,Calle Cadiz,92637,33.6032125,-117.7144971
488,Calle Cadiz,92637,33.6023846,-117.7142396
480,Calle Cadiz,92637,33.6030609,-117.7148322
494,Calle Cadiz,92637,33.6026726,-117.7154732
489,Calle Cadiz,92637,33.6022680,-117.7145388
451,Avenida Sevilla,92637,33.6020362,-117.7155648
495,Calle Cadiz,92637,33.6026199,-117.7150087
492,Calle Cadiz,92637,33.6020947,-117.7148217
450,Avenida Sevilla,92637,33.6019012,-117.7157325
453,Avenida Sevilla,92637,33.6022975,-117.7158636
491,Calle Cadiz,92637,33.6018705,-117.7146220
490,Calle Cadiz,92637,33.6020329,-117.7143380
456,Avenida Sevilla,92637,33.6010656,-117.7148963
455,Avenida Sevilla,92637,33.6013750,-117.7148028
466,Avenida Sevilla,92637,33.6016836,-117.7153250
454,Avenida Sevilla,92637,33.6013092,-117.7151733
474,Calle Cadiz,92637,33.6035500,-117.7139602
472,Calle Cadiz,92637,33.6037217,-117.7136301
471,Calle Cadiz,92637,33.6039914,-117.7134373
70,Calle Aragon,92637,33.6051148,-117.7132171
473,Calle Cadiz,92637,33.6033677,-117.7136441
470,Calle Cadiz,92637,33.6041914,-117.7131978
484,Calle Cadiz,92637,33.6034730,-117.7143128
467,Calle Cadiz,92637,33.6052221,-117.7138561
71,Calle Aragon,92637,33.6054477,-117.7132950
468,Calle Cadiz,92637,33.6050554,-117.7136148
56,Calle Cadiz,92637,33.6056640,-117.7140771
477,Calle Cadiz,92637,33.6042059,-117.7144699
478,Calle Cadiz,92637,33.6044638,-117.7143420
479,Calle Cadiz,92637,33.6046876,-117.7141152
475,Calle Cadiz,92637,33.6038164,-117.7141917
481,Calle Cadiz,92637,33.6034076,-117.7148973
483,Calle Cadiz,92637,33.6036363,-117.7146922
476,Calle Cadiz,92637,33.6039190,-117.7145462
420,Avenida Castilla,92637,33.6035387,-117.7155072
417,Avenida Castilla,92637,33.6043197,-117.7158323
412,Avenida Castilla,92637,33.6046050,-117.7156490
411,Avenida Castilla,92637,33.6046219,-117.7149281
416,Avenida Castilla,92637,33.6040485,-117.7159178
419,Avenida Castilla,92637,33.6038632,-117.7153662
418,Avenida Castilla,92637,33.6041933,-117.7151992
409,Avenida Castilla,92637,33.6050549,-117.7151217
410,Avenida Castilla,92637,33.6048934,-117.7148072
408,Avenida Castilla,92637,33.6051723,-117.7146760
407,Avenida Castilla,92637,33.6053550,-117.7149239
406,Avenida Castilla,92637,33.6055613,-117.7150838
404,Avenida Castilla,92637,33.6054590,-117.7155008
403,Avenida Castilla,92637,33.6052860,-117.7157640
54,Calle Aragon,92637,33.6074983,-117.7136725
50,Calle Aragon,92637,33.6066033,-117.7135897
72,Calle Aragon,92637,33.6057520,-117.7132381
49,Calle Aragon,92637,33.6062636,-117.7133516
64,Calle Cadiz,92637,33.6061633,-117.7137333
51,Calle Aragon,92637,33.6069264,-117.7138397
36,Calle Aragon,92637,33.6075240,-117.7145890
53,Calle Aragon,92637,33.6073710,-117.7139083
62,Calle Cadiz,92637,33.6065713,-117.7141109
52,Calle Aragon,92637,33.6072507,-117.7141245
59,Calle Cadiz,92637,33.6070491,-117.7146503
60,Calle Cadiz,92637,33.6068083,-117.7150745
63,Calle Cadiz,92637,33.6064230,-117.7140000
61,Calle Cadiz,92637,33.6068401,-117.7142312
58,Calle Cadiz,92637,33.6063783,-117.7146476
405,Avenida Castilla,92637,33.6057869,-117.7152903
57,Calle Cadiz,92637,33.6061147,-117.7145108
394,Avenida Castilla,92637,33.6061538,-117.7157911
385,Avenida Castilla,92637,33.6073635,-117.7156245
393,Avenida Castilla,92637,33.6064611,-117.7157119
386,Avenida Castilla,92637,33.6070646,-117.7157536
396,Avenida Castilla,92637,33.6056732,-117.7157863
387,Avenida Castilla,92637,33.6067726,-117.7158580
395,Avenida Castilla,92637,33.6059172,-117.7155870
399,Avenida Castilla,92637,33.6055997,-117.7163498
388,Avenida Castilla,92637,33.6068967,-117.7163384
401,Avenida Castilla,92637,33.6060072,-117.7165173
398,Avenida Castilla,92637,33.6053416,-117.7162895
400,Avenida Castilla,92637,33.6058033,-117.7164203
391,Avenida Castilla,92637,33.6063374,-117.7166683
392,Avenida Castilla,92637,33.6065831,-117.7167218
389,Avenida Castilla,92637,33.6068756,-117.7169158
369,Avenida Castilla,92637,33.6054655,-117.7169942
390,Avenida Castilla,92637,33.6072140,-117.7169672
317,Avenida Castilla,92637,33.6069095,-117.7178770
318,Avenida Castilla,92637,33.6069582,-117.7175281
311,Avenida Castilla,92637,33.6076526,-117.7185161
359,Avenida Castilla,92637,33.6066751,-117.7174238
315,Avenida Castilla,92637,33.6069202,-117.7184204
360,Avenida Castilla,92637,33.6066263,-117.7177754
316,Avenida Castilla,92637,33.6072327,-117.7177267
313,Avenida Castilla,92637,33.6072318,-117.7185082
357,Avenida Castilla,92637,33.6060986,-117.7173877
364,Avenida Castilla,92637,33.6060519,-117.7184174
356,Avenida Castilla,92637,33.6063353,-117.7172110
361,Avenida Castilla,92637,33.6065213,-117.7181736
363,Avenida Castilla,92637,33.6063397,-117.7184947
362,Avenida Castilla,92637,33.6065905,-117.7186344
367,Avenida Castilla,92637,33.6053336,-117.7181091
366,Avenida Castilla,92637,33.6056203,-117.7183402
370,Avenida Castilla,92637,33.6057594,-117.7171280
358,Avenida Castilla,92637,33.6063582,-117.7175623
368,Avenida Castilla,92637,33.6054264,-117.7178163
365,Avenida Castilla,92637,33.6058260,-117.7181678
338,Avenida Sevilla,92637,33.6053823,-117.7194183
337,Avenida Sevilla,92637,33.6052709,-117.7197168
344,Avenida Sevilla,92637,33.6053941,-117.7186445
335,Avenida Sevilla,92637,33.6057253,-117.7197340
336,Avenida Sevilla,92637,33.6055337,-117.7198399
345,Avenida Sevilla,92637,33.6056225,-117.7188598
334,Avenida Sevilla,92637,33.6058578,-117.7200875
333,Avenida Sevilla,92637,33.6061355,-117.7200941
312,Avenida Castilla,92637,33.6074380,-117.7188550
314,Avenida Castilla,92637,33.6069171,-117.7187655
332,Avenida Sevilla,92637,33.6061862,-117.7194951
330,Avenida Sevilla,92637,33.6059876,-117.7191301
331,Avenida Sevilla,92637,33.6062909,-117.7191553
324,Avenida Carmel,92637,33.6066006,-117.7192759
325,Avenida Carmel,92637,33.6067851,-117.7196166
328,Avenida Carmel,92637,33.6069602,-117.7193810
326,Avenida Carmel,92637,33.6069886,-117.7198745
327,Avenida Carmel,92637,33.6071986,-117.7196938
329,Avenida Carmel,92637,33.6072759,-117.7194087
321,Avenida Carmel,92637,33.6066680,-117.7207341
319,Avenida Carmel,92637,33.6074740,-117.7203451
320,Avenida Carmel,92637,33.6072300,-117.7204277
323,Avenida Carmel,92637,33.6064657,-117.7201032
322,Avenida Carmel,92637,33.6063271,-117.7205202
24512,Moulton Parkway,92637,33.6069673,-117.7212394
339,Avenida Sevilla,92637,33.6051412,-117.7193032
341,Avenida Sevilla,92637,33.6048192,-117.7193349
346,Avenida Sevilla,92637,33.6047424,-117.7183678
343,Avenida Sevilla,92637,33.6051169,-117.7187245
340,Avenida Sevilla,92637,33.6050312,-117.7196062
347,Avenida Sevilla,92637,33.6047486,-117.7187074
342,Avenida Sevilla,92637,33.6050273,-117.7184424
348,Avenida Sevilla,92637,33.6045493,-117.7192371
349,Avenida Sevilla,92637,33.6042933,-117.7192375
432,Avenida Sevilla,92637,33.6033404,-117.7185195
351,Avenida Sevilla,92637,33.6038470,-117.7189805
350,Avenida Sevilla,92637,33.6040857,-117.7190258
352,Avenida Sevilla,92637,33.6036378,-117.7188194
354,Avenida Sevilla,92637,33.6043067,-117.7183963
431,Avenida Sevilla,92637,33.6035175,-117.7182638
433,Avenida Sevilla,92637,33.6032217,-117.7179886
434,Avenida Sevilla,92637,33.6030424,-117.7182327
353,Avenida Sevilla,92637,33.6040567,-117.7182087
355,Avenida Sevilla,92637,33.6043301,-117.7180235
428,Avenida Sevilla,92637,33.6036203,-117.7176429
438,Avenida Sevilla,92637,33.6031509,-117.7172054
430,Avenida Sevilla,92637,33.6038554,-117.7179101
437,Avenida Sevilla,92637,33.6030633,-117.7168223
439,Avenida Sevilla,92637,33.6033857,-117.7170629
429,Avenida Sevilla,92637,33.6039907,-117.7177453
427,Avenida Sevilla,92637,33.6037545,-117.7174777
424,Avenida Castilla,92637,33.6034882,-117.7165237
425,Avenida Castilla,92637,33.6037054,-117.7167678
426,Avenida Castilla,92637,33.6038760,-117.7165421
423,Avenida Castilla,92637,33.6036645,-117.7163020
381,Avenida Castilla,92637,33.6040405,-117.7170485
379,Avenida Castilla,92637,33.6044480,-117.7174967
380,Avenida Castilla,92637,33.6042048,-117.7173509
378,Avenida Castilla,92637,33.6046954,-117.7176316
377,Avenida Castilla,92637,33.6049488,-117.7177448
371,Avenida Castilla,92637,33.6045098,-117.7166604
375,Avenida Castilla,92637,33.6052104,-117.7173667
376,Avenida Castilla,92637,33.6051034,-117.7179460
374,Avenida Castilla,92637,33.6051369,-117.7169778
373,Avenida Castilla,92637,33.6051311,-117.7167057
372,Avenida Castilla,92637,33.6048159,-117.7167217
414,Avenida Castilla,92637,33.6041386,-117.7162240
402,Avenida Castilla,92637,33.6051411,-117.7160583
413,Avenida Castilla,92637,33.6046898,-117.7159906
415,Avenida Castilla,92637,33.6044091,-117.7161289
442,Avenida Sevilla,92637,33.6026790,-117.7166849
464,Avenida Sevilla,92637,33.6008078,-117.7159794
452,Avenida Sevilla,92637,33.6021639,-117.7160296
440,Avenida Sevilla,92637,33.6025695,-117.7162615
441,Avenida Sevilla,92637,33.6028475,-117.7164711
465,Avenida Sevilla,92637,33.6010929,-117.7161138
445,Avenida Sevilla,92637,33.6020352,-117.7167989
446,Avenida Sevilla,92637,33.6018966,-117.7166405
449,Avenida Sevilla,92637,33.6014780,-117.7162321
444,Avenida Sevilla,92637,33.6017892,-117.7169434
447,Avenida Sevilla,92637,33.6016245,-117.7165703
448,Avenida Sevilla,92637,33.6012451,-117.7165071
443,Avenida Sevilla,92637,33.6021929,-117.7171020
435,Avenida Sevilla,92637,33.6028021,-117.7177655
436,Avenida Sevilla,92637,33.6025374,-117.7174378
24902,Moulton Parkway,92637,33.6004810,-117.7163125
25002,Moulton Parkway,92637,33.6000490,-117.7160693
4021,Calle Sonora Este,92637,33.6009244,-117.7326968
4022,Calle Sonora Este,92637,33.6004685,-117.7326488
4023,Calle Sonora Este,92637,33.6000137,-117.7327901
24300,El Toro Road,92637,33.6083049,-117.7333775
23501,Via Mariposa West,92637,33.6202231,-117.7231872
24441,Calle Sonora,92637,33.6072074,-117.7335951
4007,Calle Sonora Oeste,92637,33.6045363,-117.7347419
4008,Calle Sonora Oeste,92637,33.6038549,-117.7348733
4010,Calle Sonora Oeste,92637,33.6032382,-117.7351517
4011,Calle Sonora Oeste,92637,33.6023310,-117.7352305
4006,Calle Sonora Oeste,92637,33.6042173,-117.7339791
4009,Calle Sonora Oeste,92637,33.6032104,-117.7344877
24442,Moulton Parkway,92637,33.6077017,-117.7218942
