House number,Street name,Postal code,Latitude,Longitude
4935,Greywood Avenue,90712,33.8481930,-118.1384332
5247,Lakewood Blvd,90712,33.8532754,-118.1431620
3601,Saint Pancratius Place,90712,33.8590728,-118.1492090
5223,Bigelow Street,90712,33.8580752,-118.1309086
6745,Carson Street,90713,33.8326090,-118.1001742
5538,Woodruff Avenue,90713,33.8580479,-118.1157316
4105,South Street,90712,33.8605013,-118.1438205
5457,South Street,90712,33.8606972,-118.1259792
5635,Woodruff Avenue,90713,33.8595091,-118.1182893
5255,Lakewood Boulevard,90712-2415,33.8535698,-118.1433190
5827,Bellflower Boulevard,90713,33.8613943,-118.1254236
6128,Bellflower Boulevard,90712,33.8663598,-118.1249214
6129,Bellflower Boulevard,90712,33.8663657,-118.1254792
6133,Bellflower Boulevard,90712,33.8664998,-118.1254989
6139,Bellflower Boulevard,90712,33.8666340,-118.1254837
6143,Bellflower Boulevard,90712,33.8667687,-118.1254850
6149,Bellflower Boulevard,90712,33.8669119,-118.1254888
6153,Bellflower Boulevard,90712,33.8670635,-118.1254837
6159,Bellflower Boulevard,90712,33.8671899,-118.1254888
6163,Bellflower Boulevard,90712,33.8673289,-118.1255040
6169,Bellflower Boulevard,90712,33.8674721,-118.1254888
6173,Bellflower Boulevard,90712,33.8676237,-118.1254938
6035,Bellflower Boulevard,90712,33.8647159,-118.1254720
6041,Bellflower Boulevard,90712,33.8648544,-118.1254881
6045,Bellflower Boulevard,90712,33.8650003,-118.1254756
6051,Bellflower Boulevard,90712,33.8651313,-118.1254917
6055,Bellflower Boulevard,90712,33.8652698,-118.1254738
6061,Bellflower Boulevard,90712,33.8654023,-118.1254863
6065,Bellflower Boulevard,90712,33.8655423,-118.1254792
6103,Bellflower Boulevard,90712,33.8656778,-118.1254809
6109,Bellflower Boulevard,90712,33.8658178,-118.1254756
6113,Bellflower Boulevard,90712,33.8659637,-118.1254917
6119,Bellflower Boulevard,90712,33.8660858,-118.1254792
6123,Bellflower Boulevard,90712,33.8662317,-118.1254827
6118,Bellflower Boulevard,90712,33.8660471,-118.1249017
6108,Bellflower Boulevard,90712,33.8659533,-118.1247690
6104,Bellflower Boulevard,90712,33.8658118,-118.1247690
5901,Bellflower Boulevard,90712,33.8622171,-118.1254527
5909,Bellflower Boulevard,90712,33.8623561,-118.1254692
5915,Bellflower Boulevard,90712,33.8624898,-118.1254464
5919,Bellflower Boulevard,90712,33.8626277,-118.1254616
5925,Bellflower Boulevard,90712,33.8627593,-118.1254502
5929,Bellflower Boulevard,90712,33.8629088,-118.1254679
5935,Bellflower Boulevard,90712,33.8630405,-118.1254590
5941,Bellflower Boulevard,90712,33.8631773,-118.1254717
5945,Bellflower Boulevard,90712,33.8633258,-118.1254679
5949,Bellflower Boulevard,90712,33.8634532,-118.1254768
5955,Bellflower Boulevard,90712,33.8635890,-118.1254628
5959,Bellflower Boulevard,90712,33.8637270,-118.1254768
6003,Bellflower Boulevard,90712,33.8638691,-118.1254641
6009,Bellflower Boulevard,90712,33.8639776,-118.1254654
6021,Bellflower Boulevard,90712,33.8642975,-118.1254845
6025,Bellflower Boulevard,90712,33.8644404,-118.1254702
6031,Bellflower Boulevard,90712,33.8645789,-118.1254845
6120,Bellflower Boulevard,90712,33.8662690,-118.1249340
6114,Bellflower Boulevard,90712,33.8660486,-118.1247995
6112,Bellflower Boulevard,90712,33.8660054,-118.1247690
6100,Bellflower Boulevard,90712,33.8656912,-118.1247618
5905,South Street,90713,33.8589340,-118.1168360
5825,Bellflower Boulevard,90713,33.8612868,-118.1260321
5815,Bellflower Boulevard,90713,33.8609856,-118.1260165
141,Lakewood Center Mall,90712-2419,33.8526164,-118.1401341
2650,Carson Street,90712,33.8310593,-118.1615117
4625,Candlewood Street,90712,33.8542929,-118.1385791
4993,Candlewood Street,90712,33.8539387,-118.1347090
4995,Candlewood Street,90712,33.8540821,-118.1347950
5538,Del Amo Boulevard,90713,33.8468628,-118.1237994
4111,Lakewood Boulevard,90712,33.8328527,-118.1427730
4171,Woodruff Avenue,90713,33.8344034,-118.1177240
4245,Woodruff Avenue,90713,33.8354240,-118.1177343
4253,Woodruff Avenue,90713,33.8356956,-118.1177450
5870,East Del Amo Boulevard,90713-2344,33.8465782,-118.1167302
20909,Bloomfield Avenue,90715,33.8397240,-118.0636723
20909,Bloomfield Avenue,90715,33.8397344,-118.0637073
20949,Norwalk Boulevard,90715,33.8391269,-118.0722954
5519,South Street,90713,33.8607458,-118.1244280
401,Lakewood Center Mall,90712,33.8503660,-118.1386080
5699,Woodruff Avenue,90713,33.8596517,-118.1173521
5906,Del Amo Boulevard,90713,33.8467200,-118.1161310
11140,Del Amo Boulevard,90715,33.8455235,-118.0958151
5527,South Street,90713,33.8605314,-118.1240870
5523,South Street,90713,33.8605108,-118.1242067
5521,South Street,90713,33.8605141,-118.1242664
5802,Bellflower Boulevard,90713,33.8607870,-118.1248089
5806,Bellflower Boulevard,90713,33.8607803,-118.1247170
5511,South Street,90713,33.8606639,-118.1244294
5507,South Street,90713,33.8605832,-118.1244240
5503,South Street,90713,33.8605286,-118.1244280
5833,Bellflower Boulevard,90713,33.8613917,-118.1255706
5835,Bellflower Boulevard,90713,33.8613911,-118.1256307
5835,Bellflower Boulevard,90713,33.8613922,-118.1257195
5839,Bellflower Boulevard,90713,33.8613933,-118.1258000
5841,Bellflower Boulevard,90713,33.8613933,-118.1258677
5455,South Street,90712,33.8606912,-118.1260749
5453,South Street,90712,33.8606940,-118.1261627
5445,South Street,90712,33.8605542,-118.1262868
5720,Bellflower Boulevard,90713,33.8596471,-118.1246990
5530,South Street,90713,33.8596761,-118.1241766
5532,South Street,90713,33.8596750,-118.1241122
5534,South Street,90713,33.8596638,-118.1240076
5536,South Street,90713,33.8596672,-118.1239432
5544,South Street,90713,33.8597774,-118.1238467
5538,South Street,90713,33.8596705,-118.1238976
5542,South Street,90713,33.8597240,-118.1238480
5546,South Street,90713,33.8598220,-118.1238507
5572,South Street,90713,33.8599579,-118.1238534
5574,South Street,90713,33.8600581,-118.1238520
141,Lakewood Center Mall,90712-2419,33.8526326,-118.1409331
141,Lakewood Center Mall,90712-2419,33.8528230,-118.1402686
5829,Lakewood Boulevard,90712,33.8613239,-118.1432622
2704,Carson Street,90712,33.8318629,-118.1596807
2706,Carson Street,90712,33.8319186,-118.1595975
2718,Carson Street,90712,33.8319053,-118.1592998
4000,Hardwick Street,90712,33.8499150,-118.1451979
20157,South Pioneer Boulevard,90715,33.8463336,-118.0822557
6227,Village Road,90713,33.8340742,-118.1103640
12602,Del Amo Boulevard,90715,33.8457796,-118.0631977
3217,Carson Street,90712,33.8327706,-118.1555559
11733,205th Street,90715,33.8407215,-118.0839862
5720,Clark,90712,33.8582755,-118.1327081
4760,Hackett Avenue,90713,33.8446814,-118.1058247
4705,Silva Street,90712,33.8483364,-118.1379336
4950,Faculty Avenue,90712,33.8483241,-118.1364179
5015,Del Amo Boulevard,90712,33.8477720,-118.1343540
5000,Hardwick Street,90712,33.8489484,-118.1346649
5101,Clark Avenue,90712,33.8515205,-118.1344471
5000,Candlewood Street,90712,33.8534009,-118.1347381
4400,Cherry Avenue,90807,33.8398379,-118.1658276
5500,Woodruff Avenue,90713,33.8568887,-118.1153970
5130,North Clark Avenue,90712,33.8513164,-118.1332015
5220,Clark Street,90712,33.8528214,-118.1334174
4001,Hardwick Street,90712,33.8512175,-118.1450661
4226,Woodruff Avenue,90713,33.8350167,-118.1152263
4226,Woodruff Ave,90713,33.8344770,-118.1160927
340,Whitewood Avenue,90712,33.8504103,-118.1369719
11733,205th Street,90715,33.8440507,-118.0861592
12108,Del Amo Boulevard,90715,33.8442048,-118.0746398
5455,Del Amo Boulevard,90712,33.8472499,-118.1261450
4917,Bellflower Boulevard,90713,33.8476895,-118.1253885
5951,Del Amo Boulevard,90713,33.8479455,-118.1156165
4848,Woodruff Avenue,90713,33.8462904,-118.1159872
5858,Del Amo Boulevard,90713,33.8467325,-118.1171734
5850,Del Amo Boulevard,90713,33.8467167,-118.1175005
5215,Lakewood Boulevard,90712,33.8524474,-118.1432151
4910,Lakewood Boulevard,90712,33.8477387,-118.1421300
3650,South Street,90712,33.8597073,-118.1484402
5310,Lakewood Boulevard,90712,33.8541507,-118.1419606
4833,Candlewood Street,90712,33.8541816,-118.1365322
4895,Candlewood Street,90712,33.8541188,-118.1361937
11525,Del Amo Boulevard,90703,33.8478745,-118.0878349
5601,Woodruff Avenue,90713,33.8585941,-118.1174722
5610,Woodruff Avenue,90713,33.8585309,-118.1168492
4400,Briercrest Avenue,90713,33.8378257,-118.1212215
4101,Lakewood Boulevard,90712,33.8325693,-118.1429030
3975,Pixie Avenue,90712,33.8301820,-118.1631548
2611,Carson Street,90712-4108,33.8326484,-118.1605225
2707,East Carson Street,90712,33.8328055,-118.1595448
11501,Carson Street,90715,33.8317901,-118.0882029
5809,Lakewood Boulevard,90712,33.8605783,-118.1429040
5747,Lakewood Boulevard,90712,33.8598618,-118.1428578
4314,South Street,90712,33.8599501,-118.1416545
5533,South Street,90713,33.8605861,-118.1238319
5520,South Street,90713,33.8600389,-118.1242907
5500,South Street,90713,33.8599979,-118.1247139
5739,Bellflower Boulevard,90713,33.8597383,-118.1255196
5739,Bellflower Boulevard,90712,33.8600466,-118.1255136
5820,Bellflower Boulevard,90712,33.8610094,-118.1246668
6220,Lakewood Blvd,90712,33.8686056,-118.1381829
6419,Del Amo Boulevard,90713-2203,33.8473417,-118.1069974
2501,Country Club Drive,90712,33.8406126,-118.1516058
2430,Carson Street,90712,33.8321484,-118.1628973
5916,Del Amo Boulevard,90713,33.8468096,-118.1156872
5920,Del Amo Boulevard,90713,33.8467409,-118.1154139
5832,Lakewood Boulevard,90712,33.8610849,-118.1420777
11733,205th Street,90715,33.8450828,-118.0835521
6510,South Street,90713,33.8578901,-118.1062595
4210,Woodruff Avenue,90713,33.8344219,-118.1153907
5503,Woodruff Avenue,90713,33.8562593,-118.1174703
6205,Bellflower Boulevard,90712,33.8681259,-118.1254276
6132,Bellflower Boulevard,90712,33.8665438,-118.1248609
6150,Bellflower Boulevard,90712,33.8670478,-118.1247738
3650,Industry Avenue,90712,33.8237288,-118.1646121
4636,Monogram Avenue,90713,33.8424361,-118.1022978
4633,Nipomo Avenue,90713,33.8423070,-118.1019413
6156,Amos Avenue,90712,33.8676210,-118.1260597
6162,Amos Avenue,90712,33.8677564,-118.1260697
6152,Amos Avenue,90712,33.8674964,-118.1260290
6142,Amos Avenue,90712,33.8672226,-118.1260348
6173,Autry Avenue,90712,33.8676395,-118.1255833
6148,Amos Avenue,90712,33.8673598,-118.1260618
6179,Bellflower Boulevard,90712,33.8677625,-118.1255900
5721,Bellflower Boulevard,90712,33.8594533,-118.1253705
5503,Bellflower Boulevard,90713,33.8563667,-118.1255527
5464,South Street,90712,33.8599539,-118.1258308
5384,Cherry Avenue,90712,33.8538964,-118.1670888
6656,Candlewood Street,90713,33.8529145,-118.1026200
5240,Knoxville Avenue,90713,33.8529779,-118.1034363
6640,Candlewood Street,90713,33.8528876,-118.1031914
6652,Candlewood Street,90713,33.8529163,-118.1028265
6646,Candlewood Street,90713,33.8529274,-118.1030223
5343,Knoxville Avenue,90713,33.8545710,-118.1039378
5327,Knoxville Avenue,90713,33.8541581,-118.1039539
6503,Michelson Street,90713,33.8560898,-118.1067203
6538,Michelson Street,90713,33.8556471,-118.1055847
6502,Michelson Street,90713,33.8556307,-118.1067383
6616,Michelson Street,90713,33.8556513,-118.1047622
5352,Knoxville Avenue,90713,33.8548682,-118.1034620
5402,Knoxville Avenue,90713,33.8554244,-118.1036237
5368,Knoxville Avenue,90713,33.8552990,-118.1035920
6506,Michelson Street,90713,33.8556261,-118.1065719
6509,Michelson Street,90713,33.8560692,-118.1065411
5337,Knoxville Avenue,90713,33.8544312,-118.1039565
6441,Michelson Street,90713,33.8560808,-118.1068922
6434,Michelson Street,90713,33.8556228,-118.1070674
6602,Michelson Street,90713,33.8556495,-118.1052557
5348,Knoxville Avenue,90713,33.8547311,-118.1034361
6428,Michelson Street,90713,33.8556111,-118.1072312
6613,Michelson Street,90713,33.8561019,-118.1049427
5317,Knoxville Avenue,90713,33.8538819,-118.1039561
5362,Knoxville Avenue,90713,33.8551470,-118.1035245
6542,Michelson Street,90713,33.8556404,-118.1054221
5328,Knoxville Avenue,90713,33.8541747,-118.1034312
6422,Michelson Street,90713,33.8556050,-118.1073993
6649,Michelson Street,90713,33.8561026,-118.1037444
6633,Michelson Street,90713,33.8560904,-118.1042527
6607,Michelson Street,90713,33.8560924,-118.1051185
6512,Michelson Street,90713,33.8556292,-118.1064108
6518,Michelson Street,90713,33.8556327,-118.1062445
6513,Michelson Street,90713,33.8560846,-118.1063663
6535,Michelson Street,90713,33.8560966,-118.1056691
6629,Michelson Street,90713,33.8560945,-118.1044361
6440,Michelson Street,90713,33.8556354,-118.1069029
6603,Michelson Street,90713,33.8561018,-118.1052954
6663,Michelson Street,90713,33.8561416,-118.1034006
6655,Michelson Street,90713,33.8561255,-118.1035700
6531,Michelson Street,90713,33.8560860,-118.1058413
5338,Knoxville Avenue,90713,33.8544485,-118.1034173
6622,Michelson Street,90713,33.8556524,-118.1045984
6632,Michelson Street,90713,33.8556419,-118.1042635
6423,Michelson Street,90713,33.8560645,-118.1074155
6612,Michelson Street,90713,33.8556346,-118.1049278
5323,Knoxville Avenue,90713,33.8540232,-118.1039531
6623,Michelson Street,90713,33.8561049,-118.1046018
6630,Cardale Street,90713,33.8535457,-118.1035136
6418,Michelson Street,90713,33.8555888,-118.1075711
6519,Michelson Street,90713,33.8560774,-118.1061878
5347,Knoxville Avenue,90713,33.8547083,-118.1039555
5353,Knoxville Avenue,90713,33.8548468,-118.1039593
6525,Michelson Street,90713,33.8560733,-118.1060107
6643,Michelson Street,90713,33.8560980,-118.1039147
6435,Michelson Street,90713,33.8560723,-118.1070718
6617,Michelson Street,90713,33.8560755,-118.1047704
6626,Michelson Street,90713,33.8556549,-118.1044329
6522,Michelson Street,90713,33.8556595,-118.1060814
6429,Michelson Street,90713,33.8560820,-118.1072469
5414,Knoxville Avenue,90713,33.8557204,-118.1036656
6526,Michelson Street,90713,33.8556417,-118.1059128
5332,Knoxville Avenue,90713,33.8543102,-118.1034295
6419,Michelson Street,90713,33.8560608,-118.1075810
5408,Knoxville Avenue,90713,33.8555836,-118.1036429
6532,Michelson Street,90713,33.8556399,-118.1057506
6636,Michelson Street,90713,33.8556559,-118.1041055
5361,Knoxville Avenue,90713,33.8550026,-118.1039994
5303,Knoxville Avenue,90713,33.8534731,-118.1039559
6639,Michelson Street,90713,33.8560955,-118.1040883
11697,Del Amo Boulevard,90715,33.8462430,-118.0843651
11130,Del Amo Boulevard,90715,33.8455170,-118.0961061
2770,Carson Street,90712,33.8303942,-118.1587083
3650,East South Street,90712,33.8596990,-118.1493000
5501,Del Amo Boulevard,90713,33.8475259,-118.1248076
5900,Canehill Avenue,90713,33.8618875,-118.1098389
5832,Lakewood Boulevard,90712,33.8612394,-118.1420787
4626,Shadeway Road,90713,33.8416124,-118.0971586
3101,Carson Street,90712,33.8336593,-118.1519245
5356,Knoxville Avenue,90713,33.8550123,-118.1035186
6606,Michelson Street,90713,33.8556386,-118.1050906
5313,Knoxville Avenue,90713,33.8537470,-118.1039495
5333,Knoxville Avenue,90713,33.8542967,-118.1039464
5318,Knoxville Avenue,90713,33.8539732,-118.1035093
5309,Knoxville Avenue,90713,33.8536090,-118.1039747
5342,Knoxville Avenue,90713,33.8545852,-118.1034190
21100,Pioneer Boulevard,90715,33.8379241,-118.0813459
