House number,Street name,Postal code,Latitude,Longitude
330,Airway Boulevard,94551,37.6957250,-121.8124454
298,Junction Avenue,94551,37.6873855,-121.7665950
220,South Livermore Avenue,94550,37.6814180,-121.7670649
486,South J Street,94510,37.6789826,-121.7673165
951,Rincon Avenue,94551,37.6886898,-121.7837670
1550,North Vasco Road,94551,37.7183271,-121.7246402
2115,First Street,94550,37.6811682,-121.7697842
4550,East Avenue,94550,37.6802128,-121.7393973
2620,First Street,94550,37.6845449,-121.7647357
4040,East Avenue,95660,37.6807370,-121.7475873
945,Bluebell Drive,94550,37.7056288,-121.7395597
2369,First Street,94550,37.6828661,-121.7671460
800,E. Airway Boulevard,94551,37.6983729,-121.7874976
2490,First Street,94550,37.6835894,-121.7672066
1424,First Street,94550,37.6792476,-121.7794890
1122,A East Stanley Boulevard,94550,37.6800597,-121.7817694
1880,Fourth Street,94550-4454,37.6785674,-121.7718860
883,Airway Boulevard,94551,37.6991725,-121.8175409
891,Airway Boulevard,94551,37.6995142,-121.8172339
4429,1st Street,94551,37.6963850,-121.7425780
5883,Southfront Road,94551,37.7073149,-121.7256409
1051,Airway Boulevard,94551,37.7037431,-121.8180190
2086,First Street,94550,37.6814113,-121.7701560
2206,First Street,94550,37.6817303,-121.7690318
2020,First Street,94550,37.6817869,-121.7688400
2181,First Street,94550,37.6813443,-121.7690984
2175,First Street,94550,37.6813342,-121.7691410
2223,First Street,94550,37.6815811,-121.7684020
186,South K Street,94550,37.6807312,-121.7695910
1870,First Street,94550,37.6806934,-121.7732270
7697,Hawthorne Avenue,94550,37.7053051,-121.7010960
930,Springtown Boulevard,94551,37.7049010,-121.7412626
2405,Research Drive,94550,37.6752257,-121.7201915
1472,1st Street,94550,37.6791326,-121.7780531
1843,First Street,94550,37.6801342,-121.7731353
2451,Portola Avenue,94551,37.6900872,-121.7706330
2792,Livermore Outlets Drive,94551,37.6983961,-121.8464193
175,Vineyard Avenue,94550,37.6507437,-121.8033920
101,Vineyard Avenue,94550,37.6507871,-121.8045358
1009,Murrieta Boulevard,94550,37.6758102,-121.7826062
1001,Murrieta Boulevard,94550,37.6757781,-121.7842909
4516,Las Positas Road,94551,37.6995455,-121.7433873
4520,Las Positas Road,94551,37.6994551,-121.7435100
4524,Las Positas Road,94551,37.6993682,-121.7435699
969,East Stanley Boulevard,94550,37.6777580,-121.7850073
2155,Third Street,94550,37.6796622,-121.7685790
1617,College Avenue,94550,37.6742427,-121.7737482
2470,First Street,94550,37.6832954,-121.7673156
2300,First Street,94550,37.6827717,-121.7680840
290,Rickenbacker Cir,94551,37.6917122,-121.8051885
4484,Las Positas Road,94551,37.7009280,-121.7437094
4408,Las Positas Road,94551,37.7013004,-121.7442969
2498,Las Positas Road,94551,37.6999031,-121.7719696
2266,Kitty Hawk Road,94551,37.6996307,-121.8075709
2050,Portola Avenue,94550,37.6914573,-121.7737110
2050,Portola Avenue,94551,37.6914455,-121.7736372
223,South Vasco Road,94551,37.7030498,-121.7219600
2021,Las Positas Court,94551,37.6963513,-121.7772202
1513,Heather Lane,94551,37.7148699,-121.7336569
2617,Old 1st Street,94550,37.6847402,-121.7650812
767,Central Avenue,94551,37.7091293,-121.7268548
6025,Northfront Road,94551,37.7114587,-121.7229287
3086,West Jack London Boulevard,94551,37.6960186,-121.8470501
3070,West Jack London Boulevard,94551,37.6960078,-121.8463348
3056,West Jack London Boulevard,94551,37.6960568,-121.8452005
3010,West Jack London Boulevard,94588,37.6969954,-121.8465668
3090,West Jack London Boulevard,94551,37.6963517,-121.8475688
4323,First Street,94550,37.6969657,-121.7433386
4325,First Street,94550,37.6969987,-121.7432797
4327,First Street,94551,37.6970510,-121.7431252
4333,First Street,94551,37.6971812,-121.7431648
4435,First Street,94551,37.6962092,-121.7423540
4405,First Street,94551,37.6967417,-121.7426370
4371,First Street,94551,37.6969847,-121.7424488
2245,Las Positas Road,94551,37.6974494,-121.7727051
2232,Kitty Hawk Road,94551,37.6995407,-121.8068356
4225,First Street,94551,37.6946019,-121.7462949
4225,First Street,94551,37.6946108,-121.7461899
4227,First Street,94551,37.6946289,-121.7461335
4229,First Street,94551,37.6946565,-121.7460625
2868,Las Positas Road,94551,37.6994929,-121.7651320
2844,Las Positas Road,94551,37.6994060,-121.7654527
2832,Las Positas Road,94551,37.6993728,-121.7657610
4500,Las Positas Road,94551,37.7007339,-121.7431490
4502,Las Positas Road,94551,37.7004106,-121.7428604
1554,First Street,94550,37.6802814,-121.7775475
1593,First Street,94550,37.6792084,-121.7763374
4521,Livermore Outlets Drive,94550,37.6977392,-121.8398095
2780,Constitution Drive,94551,37.7021954,-121.8163602
2476,Las Positas Road,94551,37.6998538,-121.7721197
235,South Vasco Road,94551,37.7028260,-121.7217500
922,Larkspur Drive,94551,37.7057551,-121.7406110
988,Murrieta Boulevard,94550,37.6762451,-121.7847485
862,Hillcrest Avenue,94550,37.6808362,-121.7481211
850,Hillcrest Avenue,94550,37.6809052,-121.7481171
4010,East Avenue,94550,37.6807396,-121.7480983
4014,East Avenue,94550,37.6807396,-121.7479950
4022,East Avenue,94550,37.6807353,-121.7477737
4046,East Avenue,94550,37.6809052,-121.7474532
4068,East Avenue,94550,37.6809179,-121.7473111
4072,East Avenue,94550,37.6809243,-121.7472279
4070,East Avenue,94550,37.6809211,-121.7471595
4076,East Avenue,94550,37.6808956,-121.7469248
4074,East Avenue,94550,37.6809030,-121.7470428
4086,East Avenue,94550,37.6805135,-121.7469905
4088,East Avenue,94550,37.6805146,-121.7468739
4084,East Avenue,94550,37.6805931,-121.7469704
4082,East Avenue,94550,37.6806685,-121.7469785
4080,East Avenue,94550,37.6807566,-121.7469745
4098,East Avenue,94550,37.6802789,-121.7469476
4094,East Avenue,94550,37.6802704,-121.7472065
3998,East Avenue,94550,37.6805503,-121.7490039
981,Alden Lane,94550,37.6551287,-121.7843060
6233,Industrial Way,94551,37.7074869,-121.7183159
747,Enterprise Court,94550,37.7027019,-121.6999416
4455,Raymond Road,94551,37.7301372,-121.7405827
1450,1st Street,94550-4204,37.6797978,-121.7791692
2566,Old First Steet,94550,37.6845741,-121.7660438
239,South Vasco Road,94551,37.7027498,-121.7217046
2958,Pacific Avenue,94550,37.6768833,-121.7587672
6033,Northfront Road,94551,37.7114077,-121.7229540
853,East Stanley Boulevard,94550,37.6773076,-121.7860290
777,Rincon Avenue,94551,37.6875533,-121.7838377
1569,Olivina Avenue,94551,37.6827253,-121.7791112
1565,Olivina Avenue,94551,37.6826852,-121.7790871
2270,Las Positas Road,94551,37.6987858,-121.7731319
1106,East Stanley Boulevard,94550,37.6800536,-121.7825530
1122,East Stanley Boulevard,94550,37.6801272,-121.7815319
186,Maple Street,94550,37.6835119,-121.7659230
2339,First Street,94550,37.6826029,-121.7674950
2466,Eighth Street,94550,37.6769151,-121.7629655
4436,Las Positas Road,94551,37.7001640,-121.7451299
2205,Las Positas Road,94551,37.6973309,-121.7730160
1518,First Street,94550,37.6801547,-121.7777408
1855,Holmes Street,94550,37.6620763,-121.7813341
150,North L Street,94550,37.6834612,-121.7720806
2135,South Vasco Road,94550,37.6768103,-121.7202448
2402,Research Drive,94550,37.6758989,-121.7200255
4691,1st Street,94551,37.6990894,-121.7416534
4685,1st Street,94551,37.6991487,-121.7414977
160,South Livermore Avenue,94550,37.6818277,-121.7678089
2495,First Street,94550,37.6833621,-121.7666072
2271,South Vasco Road,94550,37.6760581,-121.7194282
1444,Concannon Boulevard,94550,37.6619600,-121.7790915
348,North Canyons Parkway,94551,37.7040332,-121.8105897
2499,Constitution Drive,94551,37.7018200,-121.8095560
2630,Shea Center Drive,94551,37.7030033,-121.8035933
2002,Portola Avenue,94551,37.6918830,-121.7746640
682,Terminal Circle,94551,37.6960022,-121.8198162
2011,Second Street,94550,37.6801249,-121.7706355
2966,Fourth Street,94550,37.6842951,-121.7615974
321,North L Street,94551,37.6849593,-121.7732641
1200,Portola Avenue,94551,37.6957127,-121.7835158
1524,North Vasco Road,94551,37.7180223,-121.7246823
1536,North Vasco Road,94551,37.7180942,-121.7246817
4510,Las Positas Road,94551,37.7002096,-121.7425940
4508,Las Positas Road,94551,37.7002563,-121.7426638
2600,Kitty Hawk Road,94551,37.7003026,-121.8124085
1038,Murrieta Boulevard,94550,37.6763934,-121.7829761
4300,Las Positas Road,94551,37.7013165,-121.7468131
2500,Las Positas Road,94551,37.6989277,-121.7702033
2700,Las Positas Road,94551,37.6992494,-121.7680156
2650,Las Positas Road,94551,37.7001767,-121.7696922
2090,Las Positas Court,94550,37.6974649,-121.7767151
3000,Las Positas Road,94551,37.7004175,-121.7632483
1300,South Livermore Avenue,94550,37.6732965,-121.7527933
5905,Charlotte Way,94550,37.6734556,-121.7237551
6475,Las Positas Road,94551,37.7048195,-121.7135324
7600,Southfront Road,94551,37.7157331,-121.7026932
7800,Las Positas Road,94551,37.7132956,-121.6993832
400,Wall Street,94550,37.6749940,-121.7871485
985,East Stanley Boulevard,94550,37.6780549,-121.7847728
875,East Stanley Boulevard,94550,37.6779001,-121.7860788
1119,East Stanley Boulevard,94550,37.6782312,-121.7817332
805,North Vasco Road,94550,37.7108226,-121.7236640
6061,Northfront Road,94550,37.7108228,-121.7229705
951,North Vasco Road,94551,37.7125777,-121.7235977
917,Clubhouse Dr,94551,37.6968152,-121.8285632
4550,East Avenue,94550,37.6802634,-121.7395033
5009,Erica Way,94550,37.6926117,-121.7341623
5011,Erica Way,94550,37.6924334,-121.7339567
5059,Erica Way,94550,37.6919538,-121.7332507
4923,Erica Way,94550,37.6929833,-121.7346198
5035,Erica Way,94550,37.6922775,-121.7338054
5043,Erica Way,94550,37.6921062,-121.7335518
1,Portola Avenue,94551,37.7045201,-121.8049072
4495,First Street,94550,37.6952625,-121.7429529
2800,Independence Drive,94550,37.7028593,-121.8126996
2900,Las Positas Road,94551,37.7003034,-121.7653737
431,Joyce Street,94550,37.6919888,-121.7324366
487,Joyce Street,94550,37.6917704,-121.7324505
4967,Erica Way,94550,37.6927405,-121.7343462
4945,Erica Way,94550,37.6929286,-121.7345621
5057,Erica Way,94550,37.6919980,-121.7333601
1554,First Street,94550,37.6804605,-121.7773443
4495,First Street,94550,37.6955423,-121.7444955
4261,First Street,94550,37.6953056,-121.7450605
4301,First Street,94551,37.6962075,-121.7439313
4341,First Street,94551,37.6975024,-121.7429313
3130,Livermore Outlets Drive,94551,37.6993514,-121.8429803
2774,Livermore Outlets Drive,94551,37.6986819,-121.8441615
2155,3rd Street,94550,37.6796553,-121.7685757
2918,Kiwi Common,94551,37.7081142,-121.8007884
2920,Kiwi Common,94551,37.7082028,-121.8008066
2944,Kiwi Common,94551,37.7083004,-121.8008267
2966,Kiwi Common,94551,37.7083906,-121.8008475
2978,Kiwi Common,94551,37.7084739,-121.8008629
2994,Kiwi Common,94551,37.7085747,-121.8008830
2905,Kiwi Common,94551,37.7081699,-121.8005222
2923,Kiwi Common,94551,37.7082654,-121.8005443
2955,Kiwi Common,94551,37.7083481,-121.8005605
2969,Kiwi Common,94551,37.7084467,-121.8005816
2981,Kiwi Common,94551,37.7085392,-121.8006020
2997,Kiwi Common,94551,37.7086220,-121.8006188
1019,Bluebell Drive,94550,37.7063421,-121.7374251
4644,Pamela Common,94550,37.6896991,-121.7384608
899,Rincon Avenue,94550,37.6881324,-121.7836697
685,Rincon Avenue,94551,37.6866306,-121.7838823
725,Rincon Avenue,94551,37.6868419,-121.7849065
875,Rincon Avenue,94551,37.6881286,-121.7840589
861,Rincon Avenue,94551,37.6882149,-121.7846390
1200,Voyager Street,94551,37.6875724,-121.8102262
2890,Livermore Outlets Drive,94551,37.6991351,-121.8470999
2774,Livermore Outlets Drive,94551,37.6990847,-121.8474306
2840,Livermore Outlets Drive,94551,37.6988157,-121.8473866
2958,Livermore Outlets Drive,94551,37.6991467,-121.8462493
2668,Paragon Outlets Drive,94551,37.6981409,-121.8465324
2752,Paragon Outlets Drive,94551,37.6988336,-121.8458361
3286,Livermore Outlets Drive,94511,37.6989380,-121.8434203
3380,Paragon Outlets Drive,94551,37.6982378,-121.8444863
2782,Paragon Outlet Drive,94551,37.6985439,-121.8458976
3098,Livermore Outlets Drive,94551,37.6993032,-121.8435409
3170,Livermore Outlets Drive,94551,37.6988348,-121.8428800
3076,Paragon Outlets Drive,94551,37.6992547,-121.8439697
3002,Livermore Outlets Drive,94551,37.6992393,-121.8448643
3268,Livermore Outlets Drive,94551,37.6989123,-121.8441947
3248,Livermore Outlets Drive,94551,37.6989190,-121.8448120
3250,Livermore Outlets Drive,94551,37.6988920,-121.8446162
3290,Paragon Outlets Drive,94551,37.6990043,-121.8432804
2762,Livermore Outlets Drive,94551,37.6989030,-121.8452878
3210,Livermore Outlets Drive,94551,37.6986443,-121.8437123
3238,Livermore Outlets Drive,94551,37.6985329,-121.8449268
3202,Livermore Outlets Drive,94551-4203,37.6986610,-121.8433454
3230,Paragon Outlets Drive,94551,37.6986115,-121.8444655
3250,Livermore Outlets Drive,94551,37.6982752,-121.8436869
2774,Livermore Outlets Drive,94551,37.6985165,-121.8452631
3442,Paragon Outlet Drive,94551,37.6986648,-121.8449622
3190,Paragon Outlets Drive,94551,37.6986342,-121.8428650
3314,Paragon Outlets Drive,94551,37.6982880,-121.8434116
4528,Las Positas Road,94550,37.6996283,-121.7424805
4530,Las Positas Road,94551,37.6991297,-121.7429939
6020,Industrial Way,94551,37.7052852,-121.7213880
298,Junction Avenue,94551,37.6879493,-121.7654534
3951,East Avenue,94550,37.6783513,-121.7505343
554,Jackson Avenue,94550,37.6849615,-121.7412082
1817,First Street,94550,37.6799820,-121.7732622
557,Olivina Avenue,94551,37.6822936,-121.7941526
7000,East Avenue,94550,37.6818768,-121.7063343
800,Marylin Avenue,94551,37.6847808,-121.7859740
3000,Campus Hill Drive,94551,37.7125525,-121.7984085
2929,Constitution Drive,94551,37.7036021,-121.8151000
2850,Constitution Drive,94551,37.7025795,-121.8165432
2801,Constitution Drive,94550,37.7030467,-121.8143039
1000,Airway Boulevard,94551,37.7031332,-121.8171871
3666,Livermore Outlets Drive,94551,37.6987408,-121.8417817
3580,Livermore Outlets Drive,94551,37.6983522,-121.8420677
3754,Livermore Outlets Drive,94551,37.6993952,-121.8417375
2774,Livermore Outlets Drive,94551,37.6983380,-121.8423337
3620,Livermore Outlets Drive,94551,37.6990145,-121.8420748
3880,Livermore Outlets Drive,94551,37.6983846,-121.8413693
3674,Livermore Outlets Way,94551,37.6987252,-121.8421039
3720,Livermore Outlets Drive,94551,37.6993650,-121.8422902
3790,Livermore Outlets Drive,94551,37.6994247,-121.8411365
3626,Livermore Outlets Drive,94551-4214,37.6990256,-121.8418444
2774,Livermore Outlets Drive,94551,37.6990702,-121.8408167
1025,Lucille Street,95014,37.6854074,-121.7324958
720,Las Flores Road,94551,37.7041526,-121.7381471
2380,Nissen Drive,94551,37.6987206,-121.8158575
1881,North Livermore Avenue,94550,37.6994023,-121.7732688
2301,Las Positas Road,94551,37.6973675,-121.7722596
1650,North Livermore Avenue,94551,37.6986787,-121.7742349
2266,Kitty Hawk Road,94551,37.6996114,-121.8076602
2860,Kitty Hawk Road,94551,37.7002059,-121.8161593
4904,Southfront Road,94551,37.7008364,-121.7403159
200,North Greenville Road,94551,37.7152730,-121.6994392
11,Rickenbacker Circle,94551,37.6906965,-121.8050995
347,Wright Brothers Avenue,94551,37.6895016,-121.7981674
2950,Collier Canyon Road,94551,37.7082276,-121.8057426
6005,Preston Avenue,94551,37.7061215,-121.7221659
2677,Old First Street,94550,37.6850434,-121.7645831
1188,South Livermore Avenue,94550,37.6741588,-121.7543849
3311,Pacific Avenue,94550,37.6757199,-121.7551518
3064,Pacific Avenue,94550,37.6764330,-121.7573403
3062,Pacific Avenue,94550,37.6766079,-121.7573128
767,Central Avenue,94551,37.7091765,-121.7267902
5888,Northfront Road,94551,37.7091916,-121.7264410
1111-1133,East Stanley Boulevard,94550,37.6776401,-121.7812173
3000,Las Positas Road,94551,37.7005069,-121.7635693
451,Discovery Drive,94551,37.6876099,-121.8113271
800,Atlantis Court,94551,37.6813066,-121.8121469
4514,Kimberley Common,94550,37.6889304,-121.7398036
951,North Vasco Road,94551,37.7123695,-121.7238182
4650,Arroyo Vista,94551,37.6984775,-121.7406712
4355,First Street,94551,37.6976710,-121.7422899
3981,First Street,94551,37.6911355,-121.7505194
1722,First Street,94550,37.6802784,-121.7747992
2625,Constitution Drive,94551,37.7022773,-121.8137642
78,Lindbergh Avenue,94551,37.6970098,-121.8069457
1700,Paseo Laguna Seco,94551,37.6972876,-121.7816220
939,Larkspur Drive,94551,37.7064326,-121.7403184
282,South L Street,94550,37.6796691,-121.7704631
21,South Livermore Avenue,94550,37.6832196,-121.7696972
2160,Railroad Avenue,94550,37.6834950,-121.7700988
2388,Second Street,94550,37.6822686,-121.7671905
4419,Edgewood Way,94550,37.6746049,-121.7412581
4468,Edgewood Way,94550,37.6750867,-121.7414130
4446,Edgewood Way,94550,37.6749849,-121.7418521
4422,Edgewood Way,94550,37.6746270,-121.7418342
4422,Guilford Avenue,94550,37.6746134,-121.7419936
4474,Edgewood Way,94550,37.6751019,-121.7410450
4474,Edgewood Way,94550,37.6751545,-121.7408827
4480,Edgewood Way,94550,37.6750815,-121.7405783
1673,Almond Avenue,94550,37.6751100,-121.7400949
4482,Guilford Place,94550,37.6745818,-121.7408571
4485,Edgewood Way,94550,37.6746326,-121.7404385
4491,Guilford Place,94550,37.6742051,-121.7405744
4465,Guilford Place,94550,37.6740656,-121.7409520
4429,Guilford Place,94550,37.6741157,-121.7414029
4743,East Avenue,94550,37.6784116,-121.7369819
4743,East Avenue,94550,37.6787840,-121.7372352
4743,East Avenue,94550,37.6790610,-121.7371364
4743,East Avenue,94550,37.6791982,-121.7368040
4743,East Avenue,94550,37.6793535,-121.7370032
4743,East Avenue,94550,37.6793953,-121.7368030
4022,East Avenue,94550,37.6809063,-121.7475062
4186,East Avenue,94550,37.6803313,-121.7460014
3998,East Avenue,94550,37.6805272,-121.7490756
4397,Guilford Avenue,94550,37.6741574,-121.7418613
4381,Guilford Avenue,94550,37.6741554,-121.7421997
4375,Guilford Avenue,94550,37.6740841,-121.7424813
4363,Guilford Avenue,94550,37.6740438,-121.7427561
1658,Rutgers Way,94550,37.6735853,-121.7426450
1664,Rutgers Way,94550,37.6732679,-121.7426186
1692,Rutgers Way,94550,37.6728691,-121.7426397
4395,Rutgers Court,94550,37.6729003,-121.7431914
4373,Rutgers Court,94550,37.6727897,-121.7441865
4351,Rutgers Court,94550,37.6734725,-121.7446183
4339,Rutgers Court,94550,37.6735892,-121.7439901
4317,Rutgers Court,94550,37.6735887,-121.7434127
4357,Guilford Avenue,94550,37.6739969,-121.7432748
4345,Guilford Avenue,94550,37.6739999,-121.7435789
4329,Guilford Avenue,94550,37.6739817,-121.7438724
4313,Guilford Avenue,94550,37.6740226,-121.7441833
4251,Guilford Avenue,94550,37.6740135,-121.7444768
4243,Guilford Avenue,94550,37.6740143,-121.7447245
4235,Guilford Avenue,94550,37.6739893,-121.7449974
4227,Guilford Avenue,94550,37.6740325,-121.7453043
4159,Guilford Avenue,94550,37.6740075,-121.7455524
4141,Guilford Avenue,94550,37.6740298,-121.7458465
4133,Guilford Avenue,94550,37.6740079,-121.7461137
1683,Radcliffe Road,94550,37.6736274,-121.7457126
1665,Radcliffe Road,94550,37.6728732,-121.7458245
1637,Radcliffe Road,94550,37.6732391,-121.7464303
1619,Radcliffe Road,94550,37.6735988,-121.7468210
4069,Guilford Avenue,94550,37.6740251,-121.7466118
4051,Guilford Avenue,94550,37.6740059,-121.7468809
4043,Guilford Avenue,94550,37.6740153,-121.7471726
4035,Guilford Avenue,94550,37.6740119,-121.7474250
4027,Guilford Avenue,94550,37.6740134,-121.7477152
4019,Guilford Avenue,94550,37.6740062,-121.7479747
4011,Guilford Avenue,94550,37.6740221,-121.7482486
1821,Almond Avenue,94550,37.6742258,-121.7400712
4493,Edgewood Way,94550,37.6746281,-121.7400573
4592,Country Lane,94550,37.6735242,-121.7401198
4574,Country Lane,94550,37.6735554,-121.7406711
4530,Country Lane,94550,37.6735172,-121.7411824
4518,Country Lane,94550,37.6735357,-121.7417037
4505,Country Lane,94550,37.6729434,-121.7417853
4527,Country Lane,94550,37.6728992,-121.7412258
4559,Country Lane,94550,37.6728911,-121.7406759
4581,Country Lane,94550,37.6729431,-121.7401330
4372,Guilford Avenue,94550,37.6746040,-121.7422793
4368,Guilford Avenue,94550,37.6745010,-121.7428771
4354,Guilford Avenue,94550,37.6744372,-121.7432350
4340,Guilford Avenue,94550,37.6744294,-121.7435391
4332,Guilford Avenue,94550,37.6744391,-121.7438398
4316,Guilford Avenue,94550,37.6744580,-121.7441187
4256,Guilford Avenue,94550,37.6744722,-121.7443921
4240,Guilford Avenue,94550,37.6744477,-121.7446618
4232,Guilford Avenue,94550,37.6744570,-121.7449262
4224,Guilford Avenue,94550,37.6744736,-121.7452163
4162,Guilford Avenue,94550,37.6744760,-121.7454936
4144,Guilford Avenue,94550,37.6744676,-121.7457767
4136,Guilford Avenue,94550,37.6744556,-121.7460563
4128,Guilford Avenue,94550,37.6744574,-121.7463342
4070,Guilford Avenue,94550,37.6744442,-121.7466065
4052,Guilford Avenue,94550,37.6744415,-121.7468837
4046,Guilford Avenue,94550,37.6744622,-121.7471476
4038,Guilford Avenue,94550,37.6744437,-121.7474430
4030,Guilford Avenue,94550,37.6744626,-121.7477004
4022,Guilford Avenue,94550,37.6745098,-121.7479836
4014,Guilford Avenue,94550,37.6744596,-121.7482537
2765,Patcham Common,94550,37.6848722,-121.7637331
2773,Patcham Common,94550,37.6849033,-121.7635007
2781,Patcham Common,94550,37.6849290,-121.7634153
2789,Patcham Common,94550,37.6849543,-121.7633291
2797,Patcham Common,94550,37.6849734,-121.7632449
2805,Patcham Common,94550,37.6850019,-121.7631576
2813,Patcham Common,94550,37.6850260,-121.7630706
2821,Patcham Common,94550,37.6850531,-121.7629846
2829,Patcham Common,94550,37.6850787,-121.7628988
2837,Patcham Common,94550,37.6851034,-121.7628125
2845,Patcham Common,94550,37.6851214,-121.7627267
2853,Patcham Common,94550,37.6851527,-121.7626415
2861,Patcham Common,94550,37.6851925,-121.7625117
2869,Patcham Common,94550,37.6852187,-121.7624268
2877,Patcham Common,94550,37.6852444,-121.7623414
2885,Patcham Common,94550,37.6852699,-121.7622555
2891,Patcham Common,94550,37.6852958,-121.7621697
2895,Patcham Common,94550,37.6853203,-121.7620848
2899,Patcham Common,94550,37.6853459,-121.7619972
2757,Patcham Common,94550,37.6849845,-121.7637376
2749,Patcham Common,94550,37.6850524,-121.7637816
2741,Patcham Common,94550,37.6851199,-121.7638233
2733,Patcham Common,94550,37.6851899,-121.7638630
2725,Patcham Common,94550,37.6852568,-121.7639060
2717,Patcham Common,94550,37.6853240,-121.7639494
2709,Patcham Common,94550,37.6853919,-121.7639918
2701,Patcham Common,94550,37.6854592,-121.7640307
2704,Hollingbury Common,94550,37.6854935,-121.7637795
2712,Hollingbury Common,94550,37.6855320,-121.7636919
2718,Hollingbury Common,94550,37.6855635,-121.7636016
2719,Hollingbury Common,94550,37.6853958,-121.7635007
2713,Hollingbury Common,94550,37.6853636,-121.7635830
2707,Hollingbury Common,94550,37.6853254,-121.7636600
2776,Patcham Common,94550,37.6850975,-121.7635331
2784,Patcham Common,94550,37.6851185,-121.7634467
2792,Patcham Common,94550,37.6851465,-121.7633605
2787,Old First Street,94550,37.6856198,-121.7634163
2817,Old First Street,94550,37.6857062,-121.7632125
2839,Old First Street,94550,37.6857694,-121.7630571
2821,Old First Street,94550,37.6854620,-121.7629151
458,Maple Street,94550,37.6819318,-121.7631540
345,Church Street,94550,37.6827575,-121.7637492
326,Maple Street,94550,37.6823652,-121.7643278
324,Maple Street,94550,37.6824711,-121.7645280
2558,Third Street,94550,37.6830769,-121.7646290
2542,Third Street,94550,37.6829171,-121.7647387
290,Maple Street,94550,37.6827336,-121.7648976
270,Maple Street,94550,37.6827916,-121.7650067
260,Maple Street,94550,37.6828939,-121.7651393
240,Maple Street,94550,37.6830420,-121.7653430
212,Maple Street,94550,37.6831506,-121.7655061
2551,Second Street,94550,37.6833680,-121.7653423
136,Maple Street,94550,37.6835484,-121.7659565
1052,South Livermore Avenue,94550,37.6752384,-121.7560654
3575,Pacific Avenue,94550,37.6759234,-121.7542764
3663,Pacific Avenue,94550,37.6756392,-121.7530397
1054,Dolores Street,94550,37.6763605,-121.7563290
1020,Dolores Street,94550,37.6768536,-121.7563201
3828,East Avenue,94550,37.6801494,-121.7543529
3836,East Avenue,94550,37.6801430,-121.7541028
3844,East Avenue,94550,37.6801484,-121.7538255
3852,East Avenue,94550,37.6801448,-121.7535658
3860,East Avenue,94550,37.6801545,-121.7533035
3868,East Avenue,94550,37.6801713,-121.7530393
3876,East Avenue,94550,37.6801713,-121.7527847
3884,East Avenue,94550,37.6801621,-121.7525108
3892,East Avenue,94550,37.6801500,-121.7522623
875,Estates Street,94550,37.6801874,-121.7519869
837,Estates Street,94550,37.6804660,-121.7519634
3895,Harvard Way,94550,37.6805203,-121.7522495
3885,Harvard Way,94550,37.6805187,-121.7525146
3875,Harvard Way,94550,37.6804983,-121.7527773
3865,Harvard Way,94550,37.6805148,-121.7530373
3855,Harvard Way,94550,37.6805234,-121.7533011
3845,Harvard Way,94550,37.6805002,-121.7535611
3835,Harvard Way,94550,37.6804989,-121.7538237
3825,Harvard Way,94550,37.6805011,-121.7540883
3815,Harvard Way,94550,37.6805178,-121.7543479
878,Estates Street,94550,37.6801732,-121.7515016
834,Estates Street,94550,37.6804518,-121.7514644
3910,East Avenue,94550,37.6801883,-121.7511602
3918,East Avenue,94550,37.6801956,-121.7509523
3926,East Avenue,94550,37.6801959,-121.7507454
3934,East Avenue,94550,37.6801688,-121.7505364
3942,East Avenue,94550,37.6801678,-121.7503139
3921,Harvard Court,94550,37.6804638,-121.7511603
3939,Harvard Court,94550,37.6804726,-121.7509518
3945,Harvard Court,94550,37.6804418,-121.7507095
3957,Harvard Court,94550,37.6804925,-121.7503963
1241,Madison Avenue,94550,37.6762380,-121.7428810
1324,Madison Avenue,94550,37.6749473,-121.7423768
1300,Madison Avenue,94550,37.6753399,-121.7424036
1274,Madison Avenue,94550,37.6755864,-121.7424121
1262,Madison Avenue,94550,37.6758774,-121.7423236
1244,Madison Avenue,94550,37.6761050,-121.7423515
1236,Madison Avenue,94550,37.6763281,-121.7424165
4401,Drake Way,94550,37.6766015,-121.7423749
4402,Drake Way,94550,37.6769842,-121.7423687
1168,Madison Avenue,94550,37.6772468,-121.7423767
1154,Madison Avenue,94550,37.6774547,-121.7423948
1146,Madison Avenue,94550,37.6776853,-121.7424146
1138,Madison Avenue,94550,37.6778830,-121.7423475
1120,Madison Avenue,94550,37.6780780,-121.7423629
1104,Madison Avenue,94550,37.6782726,-121.7423719
1090,Madison Avenue,94550,37.6784757,-121.7423955
1082,Madison Avenue,94550,37.6786801,-121.7423622
1078,Madison Avenue,94550,37.6788501,-121.7423476
1066,Madison Avenue,94550,37.6790158,-121.7423953
1054,Madison Avenue,94550,37.6791961,-121.7423941
1042,Madison Avenue,94550,37.6793470,-121.7423292
1029,Madison Avenue,94550,37.6796293,-121.7428706
1051,Madison Avenue,94550,37.6792295,-121.7428700
1075,Madison Avenue,94550,37.6788116,-121.7428948
1091,Madison Avenue,94550,37.6785481,-121.7428490
1119,Madison Avenue,94550,37.6780865,-121.7428798
1141,Madison Avenue,94550,37.6777938,-121.7428691
1165,Madison Avenue,94550,37.6773253,-121.7428818
1177,Madison Avenue,94550,37.6770491,-121.7428654
1325,Madison Avenue,94550,37.6748298,-121.7428786
4384,East Avenue,94550,37.6801722,-121.7423222
4372,East Avenue,94550,37.6801767,-121.7425796
4360,East Avenue,94550,37.6801729,-121.7428163
4348,East Avenue,94550,37.6801780,-121.7430636
4346,East Avenue,94550,37.6801825,-121.7433012
934,Jefferson Avenue,94550,37.6802094,-121.7435606
4305,Claremont Way,94550,37.6805059,-121.7436201
4317,Claremont Way,94550,37.6805530,-121.7433797
4329,Claremont Way,94550,37.6805532,-121.7431701
4343,Claremont Way,94550,37.6805532,-121.7429551
4363,Claremont Way,94550,37.6805512,-121.7427414
4375,Claremont Way,94550,37.6805512,-121.7425272
4387,Claremont Way,94550,37.6805510,-121.7423158
4390,Claremont Way,94550,37.6809511,-121.7423198
4376,Claremont Way,94550,37.6809473,-121.7425262
4364,Claremont Way,94550,37.6809480,-121.7427351
886,Adams Avenue,94550,37.6809686,-121.7429418
4347,East Avenue,94550,37.6796330,-121.7431133
4325,East Avenue,94550,37.6796316,-121.7433344
4303,East Avenue,94550,37.6796435,-121.7435501
4291,East Avenue,94550,37.6796513,-121.7437719
4277,East Avenue,94550,37.6796590,-121.7439864
4263,East Avenue,94550,37.6796663,-121.7442013
4249,East Avenue,94550,37.6796480,-121.7444163
4235,East Avenue,94550,37.6796239,-121.7446173
4221,East Avenue,94550,37.6796626,-121.7448429
1042,Nielsen Lane,94550,37.6796415,-121.7450456
1064,Nielsen Lane,94550,37.6792938,-121.7450640
4258,Amherst Way,94550,37.6793490,-121.7448511
4270,Amherst Way,94550,37.6792691,-121.7446165
4282,Amherst Way,94550,37.6792466,-121.7443977
4294,Amherst Way,94550,37.6792465,-121.7441963
4322,Amherst Way,94550,37.6792453,-121.7439780
4338,Amherst Way,94550,37.6792447,-121.7437785
4354,Amherst Way,94550,37.6792773,-121.7435685
4370,Amherst Way,94550,37.6792490,-121.7433282
4386,Amherst Way,94550,37.6792592,-121.7431088
1033,Auburn Street,94550,37.6796682,-121.7419452
1045,Auburn Street,94550,37.6794900,-121.7419883
1049,Auburn Street,94550,37.6792392,-121.7419755
1057,Auburn Street,94550,37.6790769,-121.7419711
1065,Auburn Street,94550,37.6789131,-121.7419651
1073,Auburn Street,94550,37.6787473,-121.7419573
1081,Auburn Street,94550,37.6785829,-121.7419641
1089,Auburn Street,94550,37.6784256,-121.7419754
1093,Auburn Street,94550,37.6781689,-121.7419493
4531,Rice Street,94550,37.6781188,-121.7415339
4549,Rice Street,94550,37.6781305,-121.7413186
1088,Auburn Street,94550,37.6785428,-121.7413726
1080,Auburn Street,94550,37.6786978,-121.7413938
1072,Auburn Street,94550,37.6788615,-121.7414018
1064,Auburn Street,94550,37.6790308,-121.7414175
1056,Auburn Street,94550,37.6791916,-121.7414162
1048,Auburn Street,94550,37.6793583,-121.7414035
1032,Auburn Street,94550,37.6796839,-121.7414189
1040,Auburn Street,94550,37.6795254,-121.7414085
622,Hillcrest Avenue,94550,37.6819013,-121.7481465
652,Hillcrest Avenue,94550,37.6816556,-121.7481294
704,Hillcrest Avenue,94550,37.6814110,-121.7480044
2400,Arroyo Road,94550,37.6549281,-121.7671850
933,Bluebell Drive,94551,37.7045658,-121.7396315
450,Charlotte Common,94550,37.6900411,-121.7363740
450,Charlotte Common,94550,37.6895006,-121.7368000
151,Lindbergh Avenue,94551,37.6980564,-121.8088422
170,Lindbergh Avenue,94551,37.6969429,-121.8089434
3031,Pacific Avenue,94550,37.6759861,-121.7558185
1660,Freisman Road,94551,37.6993901,-121.8328872
2253,Fifth Street,94550,37.6779622,-121.7663609
4707,First Street,94551,37.7001639,-121.7407877
4707,First Street,94551,37.7001551,-121.7411535
207,South Vasco Road,94551,37.7032712,-121.7215035
1517,Fontonett Place,94550,37.6615652,-121.7968345
1531,Fontonett Place,94550,37.6612755,-121.7969550
1553,Fontonett Place,94550,37.6611030,-121.7967220
1565,Fontonett Place,94550,37.6610886,-121.7964031
1587,Fontonett Place,94550,37.6616168,-121.7962036
343,Brittany Place,94550,37.6615165,-121.7973328
335,Brittany Place,94550,37.6611642,-121.7974153
327,Brittany Place,94550,37.6611726,-121.7978471
311,Brittany Place,94550,37.6615274,-121.7979409
302,Fontonett Avenue,94550,37.6620065,-121.7982057
316,Fontonett Avenue,94550,37.6619823,-121.7978667
348,Fontonett Avenue,94550,37.6619874,-121.7975562
354,Fontonett Avenue,94550,37.6619888,-121.7972040
370,Fontonett Avenue,94550,37.6619812,-121.7969001
392,Fontonett Avenue,94550,37.6620022,-121.7965230
406,Fontonett Avenue,94550,37.6621077,-121.7961328
408,Fontonett Avenue,94550,37.6620906,-121.7958120
414,Fontonett Avenue,94550,37.6620933,-121.7955781
409,Bell Avenue,94550,37.6616849,-121.7957594
413,Bell Avenue,94550,37.6615224,-121.7957588
425,Bell Avenue,94550,37.6613572,-121.7957564
431,Bell Avenue,94550,37.6611683,-121.7958188
439,Bell Avenue,94550,37.6610083,-121.7957177
449,Bell Avenue,94550,37.6610221,-121.7951877
451,Bell Avenue,94550,37.6610187,-121.7949841
465,Bell Avenue,94550,37.6610187,-121.7947548
487,Bell Avenue,94550,37.6610252,-121.7943178
501,Bell Avenue,94550,37.6610126,-121.7940952
539,Bell Avenue,94550,37.6610278,-121.7934344
541,Bell Avenue,94550,37.6610091,-121.7932290
575,Bell Avenue,94550,37.6615357,-121.7928594
540,Fontonett Avenue,94550,37.6621066,-121.7931789
534,Fontonett Avenue,94550,37.6621096,-121.7934303
512,Fontonett Avenue,94550,37.6620988,-121.7939064
506,Fontonett Avenue,94550,37.6621019,-121.7941373
464,Fontonett Avenue,94550,37.6620982,-121.7943897
458,Fontonett Avenue,94550,37.6620966,-121.7946173
442,Fontonett Avenue,94550,37.6620973,-121.7948674
436,Fontonett Avenue,94550,37.6620953,-121.7950920
420,Fontonett Avenue,94550,37.6620980,-121.7953482
421,Fontonett Avenue,94550,37.6616767,-121.7952457
437,Fontonett Avenue,94550,37.6616762,-121.7950101
443,Fontonett Avenue,94550,37.6616799,-121.7947936
459,Fontonett Avenue,94550,37.6616933,-121.7945374
465,Fontonett Avenue,94550,37.6616686,-121.7943221
507,Fontonett Avenue,94550,37.6616777,-121.7940747
535,Fontonett Avenue,94550,37.6616832,-121.7933902
513,Fontonett Avenue,94550,37.6616965,-121.7938544
529,Fontonett Avenue,94550,37.6616860,-121.7936052
528,Fontonett Avenue,94550,37.6621021,-121.7936596
526,Bell Avenue,94550,37.6614428,-121.7936034
438,Bell Avenue,94550,37.6614374,-121.7952432
457,Bell Avenue,94550,37.6614247,-121.7950061
1375,Calais Avenue,94550,37.6653647,-121.7780298
1381,Calais Avenue,94550,37.6651722,-121.7780125
1371,Calais Avenue,94550,37.6655618,-121.7780542
1351,Calais Avenue,94550,37.6661580,-121.7781663
1460,Calais Court,94550,37.6655114,-121.7772239
1434,Calais Court,94550,37.6660726,-121.7772063
697,Sandalwood Drive,94551,37.7024784,-121.7912711
689,Sandalwood Drive,94551,37.7025048,-121.7915106
601,Sandalwood Drive,94551,37.7027692,-121.7944137
700,Tranquility Circle,94551,37.7024253,-121.7944387
708,Tranquility Circle,94551,37.7024118,-121.7941894
716,Tranquility Circle,94551,37.7023882,-121.7939487
724,Tranquility Circle,94551,37.7023682,-121.7937084
732,Tranquility Circle,94551,37.7023409,-121.7934603
740,Tranquility Circle,94551,37.7023182,-121.7932169
748,Tranquility Circle,94551,37.7022973,-121.7929701
756,Tranquility Circle,94551,37.7022776,-121.7927239
764,Tranquility Circle,94551,37.7022320,-121.7923109
772,Tranquility Circle,94551,37.7022103,-121.7920595
780,Tranquility Circle,94551,37.7021879,-121.7918190
788,Tranquility Circle,94551,37.7021637,-121.7915722
796,Tranquility Circle,94551,37.7021415,-121.7913312
881,Tranquility Circle,94551,37.7016807,-121.7917417
897,Tranquility Circle,94551,37.7016337,-121.7912542
865,Tranquility Circle,94551,37.7017311,-121.7922822
849,Tranquility Circle,94551,37.7017809,-121.7927706
833,Tranquility Circle,94551,37.7018302,-121.7933139
817,Tranquility Circle,94551,37.7018765,-121.7937972
801,Tranquility Circle,94551,37.7019307,-121.7943244
283,North P Street,94550-3013,37.6826661,-121.7781377
5200,Wolf House Drive,94551,37.6977323,-121.8398842
1805,Holmes Street,94550,37.6622807,-121.7807529
1754,North Livermore Avenue,94551,37.6992166,-121.7741300
7200,Southfront Road,94551,37.7155442,-121.7070133
5200,Wolf House Drive,94551,37.6976723,-121.8381743
2550,Las Positas Road,94551,37.7001599,-121.7707032
2200,Arroyo Road,94550,37.6593641,-121.7676431
2200,Arroyo Road,94550,37.6595049,-121.7672563
4904,Southfront Road,94551,37.7005967,-121.7405107
2417,First Street,94550,37.6830219,-121.7668335
1502,North Vasco Road,94551,37.7178906,-121.7246855
5605,Southfront Road,94551,37.7052648,-121.7307001
5605,Southfront Road,94551,37.7051948,-121.7303567
939,Larkspur Lane,94551,37.7113316,-121.7399906
710,El Padro Drive,94550,37.6636477,-121.7941358
