House number,Street name,Postal code,Latitude,Longitude
1039,Prusso Street,95334,37.3807906,-120.7264485
1040,Barcelona Drive,95334,37.3806797,-120.7394626
1009,Mori Court,95334,37.3946791,-120.7106891
1023,Misty Harbour Drive,95334,37.3800396,-120.7343131
1023,North Main Street,95334,37.3954202,-120.7185331
1024,2nd Street,95334,37.3809873,-120.7248405
1024,4th Street,95334,37.3810650,-120.7225462
1001,B Street,95334,37.3864066,-120.7275486
1001,B Street,95334,37.3864084,-120.7262344
1001,B Street,95334,37.3864662,-120.7275488
1001,B Street,95334,37.3864680,-120.7262346
1001,B Street,95334,37.3865257,-120.7275489
1001,B Street,95334,37.3865275,-120.7262347
1001,B Street,95334,37.3865853,-120.7275491
1001,B Street,95334,37.3865871,-120.7262349
1001,B Street,95334,37.3867629,-120.7275393
1001,B Street,95334,37.3868224,-120.7275395
1001,B Street,95334,37.3868820,-120.7275397
1001,B Street,95334,37.3869415,-120.7275399
1001,B Street,95334,37.3869421,-120.7273019
1001,B Street,95334,37.3869422,-120.7272273
1001,B Street,95334,37.3869424,-120.7271526
1001,B Street,95334,37.3869425,-120.7270780
1001,B Street,95334,37.3869430,-120.7268441
1001,B Street,95334,37.3869431,-120.7267695
1001,B Street,95334,37.3869433,-120.7266949
1001,B Street,95334,37.3869434,-120.7266202
1001,B Street,95334,37.3869439,-120.7263898
1001,B Street,95334,37.3869440,-120.7263152
1001,B Street,95334,37.3869441,-120.7262405
1001,B Street,95334,37.3869443,-120.7261659
1001,Fruitbasket Lane,95334,37.3945075,-120.7155956
1001,Golden Leaf Drive,95334,37.3730412,-120.7279922
1000,Front Street,95334,37.3881959,-120.7273733
1000,Front Street,95334,37.3882046,-120.7272038
1000,Front Street,95334,37.3882165,-120.7270184
1000,Front Street,95334,37.3882319,-120.7275456
1000,Misty Harbour Drive,95334,37.3803405,-120.7336183
1000,Orchard Way,95334,37.3944676,-120.7159433
1000,Sunrise Court,95334,37.3804489,-120.7277993
1000,Sunset Court,95334,37.3797339,-120.7278163
1000,Front Street,95334,37.3871052,-120.7265318
1000,Front Street,95334,37.3871066,-120.7271543
1000,Front Street,95334,37.3871640,-120.7270403
1000,Front Street,95334,37.3871674,-120.7264233
1000,Front Street,95334,37.3871719,-120.7276127
1000,Front Street,95334,37.3872210,-120.7262818
1000,Front Street,95334,37.3872234,-120.7269121
1000,Front Street,95334,37.3872452,-120.7266945
1000,Front Street,95334,37.3872466,-120.7274910
1000,Front Street,95334,37.3872621,-120.7265090
1000,Front Street,95334,37.3872625,-120.7271321
1000,Front Street,95334,37.3872934,-120.7273017
1000,Front Street,95334,37.3873097,-120.7268321
1000,Front Street,95334,37.3873241,-120.7276132
1000,Front Street,95334,37.3873277,-120.7269948
1000,Front Street,95334,37.3873329,-120.7263807
1000,Front Street,95334,37.3873497,-120.7266124
1000,Front Street,95334,37.3873586,-120.7271645
1000,Front Street,95334,37.3873977,-120.7273845
1000,Front Street,95334,37.3874086,-120.7267410
1000,Front Street,95334,37.3874571,-120.7272562
1000,Front Street,95334,37.3874656,-120.7268553
1000,Front Street,95334,37.3874790,-120.7266056
1000,Front Street,95334,37.3875016,-120.7260639
1000,Front Street,95334,37.3875145,-120.7271423
1000,Front Street,95334,37.3875460,-120.7261913
1000,Front Street,95334,37.3875512,-120.7275847
1000,Front Street,95334,37.3875604,-120.7275441
1000,Front Street,95334,37.3875849,-120.7274295
1000,Front Street,95334,37.3875940,-120.7273888
1000,Front Street,95334,37.3876592,-120.7261217
1000,Front Street,95334,37.3877210,-120.7262384
1000,Front Street,95334,37.3877369,-120.7263819
1000,Front Street,95334,37.3877571,-120.7260383
1000,Front Street,95334,37.3877987,-120.7264986
1000,Front Street,95334,37.3878160,-120.7261652
1000,Front Street,95334,37.3878348,-120.7262985
1000,Front Street,95334,37.3878456,-120.7275961
1000,Front Street,95334,37.3878548,-120.7275555
1000,Front Street,95334,37.3878937,-120.7264254
1000,Front Street,95334,37.3879063,-120.7269128
1000,Front Street,95334,37.3879263,-120.7261592
1000,Front Street,95334,37.3879296,-120.7272975
1000,Front Street,95334,37.3879396,-120.7263077
1000,Front Street,95334,37.3879455,-120.7270482
1000,Front Street,95334,37.3879603,-120.7273271
1000,Front Street,95334,37.3879841,-120.7268061
1000,Front Street,95334,37.3880682,-120.7269733
1000,Front Street,95334,37.3880696,-120.7273730
1000,Front Street,95334,37.3880820,-120.7271528
1000,Front Street,95334,37.3881056,-120.7275452
1000,Front Street,95334,37.3881324,-120.7268512
1034,Newcastle Drive,95334,37.3714967,-120.7275009
1035,Dallas Drive,95334,37.3798588,-120.7309059
1035,Golden Leaf Drive,95334,37.3730415,-120.7274125
1035,Montelena Avenue,95334,37.3798633,-120.7299765
1035,Patzer Street,95334,37.3808870,-120.7275836
1035,Shoji Court,95334,37.3949173,-120.7128741
1002,Briarwood Drive,95334,37.3803841,-120.7312516
1002,Bridgeport Avenue,95334,37.3804131,-120.7326691
1002,Dallas Drive,95334,37.3803861,-120.7303297
1002,Fruitbasket Lane,95334,37.3945099,-120.7150522
1003,Briarwood Drive,95334,37.3802765,-120.7318191
1003,Misty Harbour Drive,95334,37.3803755,-120.7342204
1001,B Street,95334,37.3862056,-120.7275409
1001,B Street,95334,37.3862057,-120.7274663
1001,B Street,95334,37.3862059,-120.7273917
1001,B Street,95334,37.3862060,-120.7273170
1001,B Street,95334,37.3862064,-120.7270931
1001,B Street,95334,37.3862066,-120.7270185
1001,B Street,95334,37.3862067,-120.7269439
1001,B Street,95334,37.3862069,-120.7268693
1001,B Street,95334,37.3862078,-120.7264048
1001,B Street,95334,37.3862079,-120.7263301
1001,B Street,95334,37.3862081,-120.7262555
1001,B Street,95334,37.3862082,-120.7261809
1004,Olds Avenue,95334,37.3945434,-120.7141490
1005,Bridgeport Avenue,95334,37.3803422,-120.7332424
1005,Dallas Drive,95334,37.3803800,-120.7308964
1005,I Street,95334,37.3805545,-120.7270966
1005,Montelena Avenue,95334,37.3803831,-120.7299671
1006,5th Street,95334,37.3812047,-120.7214145
1006,6th Street,95334,37.3811989,-120.7203128
1007,4th Street,95334,37.3812107,-120.7218962
1007,5th Street,95334,37.3812310,-120.7207941
1007,Narada Way,95334,37.3945508,-120.7137985
1007,Orchard Way,95334,37.3945553,-120.7165473
1008,F Street,95334,37.3819910,-120.7276921
1008,I Street,95334,37.3787855,-120.7277714
1008,J Street,95334,37.3775575,-120.7278514
1008,Newcastle Drive,95334,37.3714966,-120.7280687
1014,Newcastle Drive,95334,37.3714966,-120.7278795
1015,Bridgeport Avenue,95334,37.3801687,-120.7332566
1015,Dallas Drive,95334,37.3802015,-120.7308997
1015,Fruitbasket Lane,95334,37.3946789,-120.7155959
1015,Main Street,95334,37.3812645,-120.7230089
1015,Montelena Avenue,95334,37.3802045,-120.7299703
1011,North Main Street,95334,37.3946706,-120.7188834
1011,Sunrise Court,95334,37.3806646,-120.7277304
1011,Sunset Court,95334,37.3799501,-120.7277490
1012,4th Street,95334,37.3812587,-120.7225424
1012,Briarwood Drive,95334,37.3802056,-120.7312548
1012,Bridgeport Avenue,95334,37.3802487,-120.7326749
1012,Dallas Drive,95334,37.3802076,-120.7303329
1020,5th Street,95334,37.3810290,-120.7214179
1020,6th Street,95334,37.3810259,-120.7203162
1020,Barcelona Drive,95334,37.3808642,-120.7394560
1010,1St Street,95334,37.3811953,-120.7259133
1010,Misty Harbour Drive,95334,37.3801671,-120.7336541
1010,Prusso Street,95334,37.3812565,-120.7271104
1011,1St Street,95334,37.3811939,-120.7252818
1011,2nd Street,95334,37.3811834,-120.7242291
1012,Fernwood Way,95334,37.3808755,-120.7385589
1012,Sunrise Court,95334,37.3802213,-120.7277461
1012,Sunset Court,95334,37.3795066,-120.7277625
1013,Briarwood Drive,95334,37.3800848,-120.7318215
1013,Fernwood Way,95334,37.3808592,-120.7391201
1013,Golden Leaf Drive,95334,37.3730413,-120.7277911
1013,Misty Harbour Drive,95334,37.3802069,-120.7342628
1013,Olds Avenue,95334,37.3946627,-120.7147058
1013,Patzer Street,95334,37.3812570,-120.7275750
1013,Talara Drive,95334,37.3809653,-120.7411420
1037,Sunset Court,95334,37.3799448,-120.7272458
1038,1St Street,95334,37.3807833,-120.7259207
1038,2nd Street,95334,37.3807895,-120.7248448
1039,2nd Street,95334,37.3807895,-120.7242517
1016,Fruitbasket Lane,95334,37.3946807,-120.7150541
1016,Orchard Way,95334,37.3946434,-120.7159443
1018,Olds Avenue,95334,37.3947082,-120.7141483
1018,Peach Avenue,95334,37.3738820,-120.7272083
1019,4th Street,95334,37.3810350,-120.7218997
1019,5th Street,95334,37.3810607,-120.7207974
1019,I Street,95334,37.3792286,-120.7275977
1019,Narada Way,95334,37.3947155,-120.7137960
1019,Shoji Court,95334,37.3947375,-120.7128311
1020,F Street,95334,37.3819908,-120.7274615
1020,I Street,95334,37.3787854,-120.7275349
1020,J Street,95334,37.3775573,-120.7276449
1020,Main Street,95334,37.3810376,-120.7237386
1020,Narada Way,95334,37.3947459,-120.7132317
1020,Prusso Street,95334,37.3810677,-120.7271148
1021,Orchard Way,95334,37.3947525,-120.7165473
1021,Patzer Street,95334,37.3810682,-120.7275794
1024,Newcastle Drive,95334,37.3714967,-120.7276902
1024,Sunrise Court,95334,37.3801911,-120.7274675
1024,Sunset Court,95334,37.3794772,-120.7274838
1025,2nd Street,95334,37.3809872,-120.7242474
1025,Dallas Drive,95334,37.3800267,-120.7309029
1025,Golden Leaf Drive,95334,37.3730414,-120.7276018
1022,Briarwood Drive,95334,37.3800308,-120.7312580
1022,Bridgeport Avenue,95334,37.3800843,-120.7326757
1022,Dallas Drive,95334,37.3800336,-120.7303361
1023,1St Street,95334,37.3809874,-120.7252880
1023,Briarwood Drive,95334,37.3798924,-120.7318266
1027,Olds Avenue,95334,37.3948329,-120.7147067
1028,Shoji Court,95334,37.3948451,-120.7121577
1025,Main Street,95334,37.3810420,-120.7230133
1025,Montelena Avenue,95334,37.3800305,-120.7299735
1025,Prusso Street,95334,37.3809884,-120.7264440
1025,Sunrise Court,95334,37.3806890,-120.7274542
1025,Sunset Court,95334,37.3799742,-120.7274730
1026,1St Street,95334,37.3809811,-120.7259164
1029,5th Street,95334,37.3808905,-120.7208007
1029,Fruitbasket Lane,95334,37.3948437,-120.7155968
1041,Main Street,95334,37.3806908,-120.7229842
1041,Olds Avenue,95334,37.3950032,-120.7147076
1042,Amarone Way,95334,37.3797670,-120.7280756
1042,Briarwood Drive,95334,37.3796982,-120.7312641
1042,Dallas Drive,95334,37.3797013,-120.7303422
1042,Newcastle Drive,95334,37.3714968,-120.7273116
1030,5th Street,95334,37.3808532,-120.7214214
1030,6th Street,95334,37.3808528,-120.7203196
1030,Fruitbasket Lane,95334,37.3948455,-120.7150550
1030,Orchard Way,95334,37.3948219,-120.7159452
1030,Prusso Street,95334,37.3808865,-120.7271190
1031,Fernwood Way,95334,37.3806829,-120.7391212
1031,I Street,95334,37.3792285,-120.7273740
1031,Talara Drive,95334,37.3808005,-120.7411461
1032,Briarwood Drive,95334,37.3798629,-120.7312611
1032,Bridgeport Avenue,95334,37.3799042,-120.7326721
1032,Dallas Drive,95334,37.3798664,-120.7303391
1032,F Street,95334,37.3819905,-120.7272171
1032,Olds Avenue,95334,37.3948730,-120.7141475
1033,4th Street,95334,37.3808620,-120.7219031
1033,J Street,95334,37.3780121,-120.7274454
1033,Main Street,95334,37.3808608,-120.7230168
1033,Misty Harbour Drive,95334,37.3798735,-120.7343544
1033,Narada Way,95334,37.3948803,-120.7137936
1034,4th Street,95334,37.3808893,-120.7225497
1034,I Street,95334,37.3787856,-120.7273023
1034,J Street,95334,37.3775572,-120.7274384
1043,5th Street,95334,37.3807202,-120.7208041
1043,Fruitbasket Lane,95334,37.3950084,-120.7155977
1043,Misty Harbour Drive,95334,37.3797060,-120.7343825
1045,Montelena Avenue,95334,37.3796980,-120.7299799
1045,Narada Way,95334,37.3950451,-120.7137912
1046,F Street,95334,37.3819902,-120.7269743
1044,5th Street,95334,37.3806775,-120.7214248
1044,6th Street,95334,37.3806798,-120.7203230
1044,Fruitbasket Lane,95334,37.3950103,-120.7150558
1036,Sunrise Court,95334,37.3802187,-120.7272382
1036,Sunset Court,95334,37.3795047,-120.7272547
1037,1St Street,95334,37.3807897,-120.7252923
1037,Orchard Way,95334,37.3949503,-120.7165483
1037,Sunrise Court,95334,37.3806588,-120.7272293
1106,5th Street,95334,37.3803273,-120.7214317
1106,6th Street,95334,37.3803256,-120.7203299
1106,Hammatt Avenue,95334,37.3802416,-120.7144694
1107,5th Street,95334,37.3803316,-120.7208117
1100,Olds Avenue,95334,37.3957175,-120.7141438
1100,Prusso Street,95334,37.3806593,-120.7270060
1101,1St Street,95334,37.3803943,-120.7253009
1101,Narada Way,95334,37.3957042,-120.7137814
1044,Orchard Way,95334,37.3950004,-120.7159462
1045,4th Street,95334,37.3806945,-120.7219064
1045,5th Street,95334,37.3805266,-120.7208079
1045,Dallas Drive,95334,37.3796940,-120.7309089
1048,4th Street,95334,37.3806966,-120.7225190
1048,Main Street,95334,37.3806861,-120.7237462
1048,Narada Way,95334,37.3949188,-120.7132297
1048,Ohki Street,95334,37.3950855,-120.7095905
1048,Shoji Court,95334,37.3950581,-120.7122420
1049,Fernwood Way,95334,37.3805178,-120.7391251
1049,I Street,95334,37.3792455,-120.7271054
1049,Talara Drive,95334,37.3806357,-120.7411503
1046,Olds Avenue,95334,37.3950378,-120.7141468
1047,Golden Leaf Drive,95334,37.3730416,-120.7272232
1047,Ohki Street,95334,37.3950846,-120.7101442
1047,Shoji Court,95334,37.3950903,-120.7128744
1051,1St Street,95334,37.3805920,-120.7252966
1051,Main Street,95334,37.3805089,-120.7229893
1052,Amarone Way,95334,37.3795336,-120.7281295
1052,Briarwood Drive,95334,37.3795334,-120.7312671
1052,Dallas Drive,95334,37.3795361,-120.7303461
1053,Briarwood Drive,95334,37.3795338,-120.7318379
1053,Misty Harbour Drive,95334,37.3795386,-120.7343975
1053,Orchard Way,95334,37.3951480,-120.7165494
1054,1St Street,95334,37.3805856,-120.7259250
1055,2nd Street,95334,37.3805918,-120.7242560
1055,4th Street,95334,37.3805160,-120.7219099
1055,Dallas Drive,95334,37.3795293,-120.7309119
1055,Montelena Avenue,95334,37.3795323,-120.7299836
1055,Newcastle Drive,95334,37.3714968,-120.7271224
1055,Olds Avenue,95334,37.3951735,-120.7147085
1055,Prusso Street,95334,37.3805929,-120.7264529
1056,2nd Street,95334,37.3805918,-120.7248491
1056,4th Street,95334,37.3805099,-120.7225227
1056,5th Street,95334,37.3805017,-120.7214283
1056,6th Street,95334,37.3805027,-120.7203265
1066,Main Street,95334,37.3804719,-120.7237509
1067,Fernwood Way,95334,37.3803530,-120.7391303
1067,Talara Drive,95334,37.3804709,-120.7411544
1057,Fruitbasket Lane,95334,37.3951732,-120.7155986
1057,Golden Leaf Drive,95334,37.3730417,-120.7270340
1058,Fruitbasket Lane,95334,37.3951751,-120.7150567
1058,Orchard Way,95334,37.3951789,-120.7159471
1060,Olds Avenue,95334,37.3952026,-120.7141461
1059,Narada Way,95334,37.3952099,-120.7137887
1060,Barcelona Drive,95334,37.3804992,-120.7394658
1062,Amarone Way,95334,37.3793712,-120.7281394
1062,Briarwood Drive,95334,37.3793686,-120.7312701
1062,Dallas Drive,95334,37.3793710,-120.7303497
1063,Briarwood Drive,95334,37.3793558,-120.7318384
1063,Misty Harbour Drive,95334,37.3793708,-120.7344022
1071,Fruitbasket Lane,95334,37.3953511,-120.7156006
1064,Narada Way,95334,37.3950918,-120.7132286
1064,Narada Way,95334,37.3952648,-120.7132274
1064,Ohki Street,95334,37.3952633,-120.7095903
1064,Shoji Court,95334,37.3952371,-120.7122906
1065,Dallas Drive,95334,37.3793645,-120.7309149
1065,Montelena Avenue,95334,37.3793668,-120.7299883
1065,Newcastle Drive,95334,37.3714968,-120.7269331
1065,Ohki Street,95334,37.3952625,-120.7101434
1065,Shoji Court,95334,37.3952634,-120.7128748
1068,Orchard Way,95334,37.3953568,-120.7159469
1069,Golden Leaf Drive,95334,37.3730418,-120.7268361
1069,Olds Avenue,95334,37.3953541,-120.7147106
1069,Orchard Way,95334,37.3953453,-120.7165516
1070,Fruitbasket Lane,95334,37.3953530,-120.7150565
1071,Narada Way,95334,37.3953746,-120.7137863
1072,Amarone Way,95334,37.3791880,-120.7281403
1072,Briarwood Drive,95334,37.3791871,-120.7312734
1072,Dallas Drive,95334,37.3791897,-120.7303526
1072,Olds Avenue,95334,37.3953715,-120.7141453
1073,Briarwood Drive,95334,37.3791778,-120.7318412
1073,Misty Harbour Drive,95334,37.3791930,-120.7344040
1074,Newcastle Drive,95334,37.3714969,-120.7267438
1075,Dallas Drive,95334,37.3791857,-120.7309200
1075,Montelena Avenue,95334,37.3791880,-120.7299934
1077,North Main Street,95334,37.3957135,-120.7183738
1078,Narada Way,95334,37.3954378,-120.7132262
1078,Ohki Street,95334,37.3954281,-120.7095890
1078,Shoji Court,95334,37.3954162,-120.7123184
1079,Golden Leaf Drive,95334,37.3730419,-120.7266296
1079,Ohki Street,95334,37.3954405,-120.7101448
1079,Shoji Court,95334,37.3954364,-120.7128751
1080,Barcelona Drive,95334,37.3803180,-120.7394741
1092,Newcastle Drive,95334,37.3714970,-120.7263653
1097,Shoji Court,95334,37.3956094,-120.7128755
1082,Newcastle Drive,95334,37.3714969,-120.7265546
1085,Fernwood Way,95334,37.3801914,-120.7391359
1085,Narada Way,95334,37.3955394,-120.7137839
1089,North Main Street,95334,37.3961157,-120.7181555
1085,Talara Drive,95334,37.3803062,-120.7411586
1086,Olds Avenue,95334,37.3955445,-120.7141446
1099,Golden Leaf Drive,95334,37.3730421,-120.7262425
1098,Golden Leaf Drive,95334,37.3730420,-120.7264317
1098,Narada Way,95334,37.3956108,-120.7132250
1098,Ohki Street,95334,37.3955929,-120.7095878
1098,Shoji Court,95334,37.3955956,-120.7123340
1103,2nd Street,95334,37.3803940,-120.7242603
1103,Fernwood Way,95334,37.3800299,-120.7391398
1103,Main Street,95334,37.3803705,-120.7230161
1103,Prusso Street,95334,37.3803952,-120.7264573
1103,Talara Drive,95334,37.3801410,-120.7411638
1104,Barcelona Drive,95334,37.3801383,-120.7394817
1104,Newcastle Drive,95334,37.3714970,-120.7261760
1105,4th Street,95334,37.3803292,-120.7219135
1105,8th Street,95334,37.3802621,-120.7161890
1102,1St Street,95334,37.3803879,-120.7259293
1102,2nd Street,95334,37.3803941,-120.7248534
1102,4th Street,95334,37.3803496,-120.7225499
1110,G Street,95334,37.3812025,-120.7264375
1110,J Street,95334,37.3776027,-120.7266669
1112,Narada Way,95334,37.3957839,-120.7132240
1112,Ohki Street,95334,37.3957577,-120.7095866
1112,Shoji Court,95334,37.3957748,-120.7123387
1113,Narada Way,95334,37.3958690,-120.7137790
1107,G Street,95334,37.3816382,-120.7265318
1114,9th Street,95334,37.3802462,-120.7156249
1114,Olds Avenue,95334,37.3958905,-120.7141431
1115,D Street,95334,37.3844875,-120.7262699
1115,Ohki Street,95334,37.3957850,-120.7101506
1116,Newcastle Drive,95334,37.3714970,-120.7259868
1109,Peach Avenue,95334,37.3752071,-120.7267207
1111,Golden Leaf Drive,95334,37.3730437,-120.7260456
1111,Main Street,95334,37.3801892,-120.7230197
1113,Shoji Court,95334,37.3957825,-120.7128757
1118,1St Street,95334,37.3801902,-120.7259336
1118,4th Street,95334,37.3801683,-120.7225535
1118,9th Street,95334,37.3801438,-120.7158610
1118,Hammatt Avenue,95334,37.3800636,-120.7144728
1119,4th Street,95334,37.3801480,-120.7219171
1121,5th Street,95334,37.3801586,-120.7208151
1121,G Street,95334,37.3816333,-120.7262901
1117,1St Street,95334,37.3801966,-120.7253052
1117,2nd Street,95334,37.3801963,-120.7242646
1117,8th Street,95334,37.3800832,-120.7161923
1117,Prusso Street,95334,37.3801975,-120.7264618
1133,5th Street,95334,37.3799856,-120.7208185
1120,5th Street,95334,37.3801543,-120.7214351
1120,6th Street,95334,37.3801526,-120.7203333
1120,B Street,95334,37.3857325,-120.7262254
1122,F Street,95334,37.3820208,-120.7262883
1122,Newcastle Drive,95334,37.3714971,-120.7257975
1126,Shoji Court,95334,37.3959534,-120.7123391
1123,Golden Leaf Drive,95334,37.3730760,-120.7258129
1124,2nd Street,95334,37.3800975,-120.7248599
1124,Barcelona Drive,95334,37.3799586,-120.7394859
1124,Ohki Street,95334,37.3959225,-120.7095853
1125,Fernwood Way,95334,37.3798652,-120.7391431
1125,Shoji Court,95334,37.3959555,-120.7128761
1128,9th Street,95334,37.3799022,-120.7158515
1128,Hammatt Avenue,95334,37.3798851,-120.7144762
1129,8th Street,95334,37.3799065,-120.7161956
1125,Talara Drive,95334,37.3799740,-120.7411719
1126,Narada Way,95334,37.3959568,-120.7132227
1127,Narada Way,95334,37.3960338,-120.7137766
1127,Ohki Street,95334,37.3959629,-120.7101499
1130,Olds Avenue,95334,37.3960635,-120.7141423
1130,Prusso Street,95334,37.3802181,-120.7270163
1130,Talara Drive,95334,37.3798853,-120.7405244
1131,1St Street,95334,37.3799988,-120.7253095
1131,2nd Street,95334,37.3799986,-120.7242689
1131,4th Street,95334,37.3799668,-120.7219207
1131,Prusso Street,95334,37.3799998,-120.7264662
1132,1St Street,95334,37.3799925,-120.7259379
1132,4th Street,95334,37.3799748,-120.7225667
1132,5th Street,95334,37.3799813,-120.7214385
1132,6th Street,95334,37.3799796,-120.7203367
1133,Talara Drive,95334,37.3798084,-120.7411761
1134,Newcastle Drive,95334,37.3714971,-120.7256082
1137,North Main Street,95334,37.3964304,-120.7179847
1137,North Main Street,95334,37.3966367,-120.7178540
1137,Ohki Street,95334,37.3961408,-120.7101513
1137,Shoji Court,95334,37.3961375,-120.7128776
1138,Narada Way,95334,37.3961379,-120.7132199
1135,G Street,95334,37.3816300,-120.7260492
1135,Golden Leaf Drive,95334,37.3730258,-120.7255359
1136,B Street,95334,37.3857323,-120.7259456
1136,F Street,95334,37.3820191,-120.7260543
1136,Ohki Street,95334,37.3960873,-120.7095841
1138,Shoji Court,95334,37.3961376,-120.7123394
1139,9th Street,95334,37.3797631,-120.7153379
1139,B Street,95334,37.3862652,-120.7257697
1139,Barcelona Drive,95334,37.3798849,-120.7400597
114,B Street,95334,37.3855961,-120.7412072
1144,2nd Street,95334,37.3798010,-120.7248664
1144,Barcelona Drive,95334,37.3797790,-120.7394897
1144,Olds Avenue,95334,37.3962365,-120.7141415
1144,Prusso Street,95334,37.3799453,-120.7270226
1144,Talara Drive,95334,37.3797094,-120.7405282
1145,1St Street,95334,37.3798011,-120.7253138
1145,2nd Street,95334,37.3798009,-120.7242733
1145,4th Street,95334,37.3797855,-120.7219242
1145,Main Street,95334,37.3797965,-120.7228036
1145,Prusso Street,95334,37.3798021,-120.7264707
1146,Newcastle Drive,95334,37.3714887,-120.7253961
1158,2nd Street,95334,37.3796032,-120.7248707
1158,5th Street,95334,37.3794623,-120.7214487
1140,9th Street,95334,37.3797258,-120.7158547
1140,Front Street,95334,37.3877951,-120.7257920
1140,Hammatt Avenue,95334,37.3797066,-120.7144797
1141,8th Street,95334,37.3797301,-120.7161989
1141,Main Street,95334,37.3799807,-120.7230332
1141,Narada Way,95334,37.3961957,-120.7137828
1147,Fernwood Way,95334,37.3797004,-120.7391466
1147,Talara Drive,95334,37.3796436,-120.7411795
1148,1St Street,95334,37.3797948,-120.7259422
1148,5th Street,95334,37.3798083,-120.7214419
1148,6th Street,95334,37.3798066,-120.7203401
1148,9th Street,95334,37.3795495,-120.7158580
1148,Hammatt Avenue,95334,37.3795281,-120.7144831
1148,Ohki Street,95334,37.3962521,-120.7095829
1149,5th Street,95334,37.3798126,-120.7208218
1149,8th Street,95334,37.3795537,-120.7162021
1149,9th Street,95334,37.3794922,-120.7153430
1149,G Street,95334,37.3816282,-120.7258095
1150,F Street,95334,37.3820172,-120.7258082
1151,4th Street,95334,37.3796620,-120.7220212
1152,5th Street,95334,37.3796353,-120.7214453
1152,6th Street,95334,37.3796336,-120.7203435
1153,4th Street,95334,37.3795799,-120.7218764
1153,5th Street,95334,37.3796396,-120.7208252
1154,I Street,95334,37.3789896,-120.7264878
1154,Peach Avenue,95334,37.3744609,-120.7261994
1155,4th Street,95334,37.3796623,-120.7218766
1155,I Street,95334,37.3793990,-120.7265177
1159,Prusso Street,95334,37.3796044,-120.7264751
1156,4th Street,95334,37.3796123,-120.7225739
1157,4th Street,95334,37.3795796,-120.7220209
1157,Narada Way,95334,37.3964372,-120.7138175
1158,6th Street,95334,37.3794606,-120.7203469
1158,Olds Avenue,95334,37.3964095,-120.7141408
1159,1St Street,95334,37.3796034,-120.7253181
1159,2nd Street,95334,37.3796032,-120.7242776
1159,5th Street,95334,37.3794666,-120.7208286
1159,Barcelona Drive,95334,37.3797091,-120.7400630
1164,Barcelona Drive,95334,37.3795994,-120.7394934
1164,North Main Street,95334,37.3960984,-120.7171692
1164,North Main Street,95334,37.3961078,-120.7171956
1164,North Main Street,95334,37.3961267,-120.7172484
1164,North Main Street,95334,37.3961362,-120.7172748
1164,North Main Street,95334,37.3962000,-120.7171120
1164,North Main Street,95334,37.3962095,-120.7171385
1164,North Main Street,95334,37.3962109,-120.7169995
1164,North Main Street,95334,37.3962284,-120.7171913
1164,North Main Street,95334,37.3962378,-120.7172177
1164,North Main Street,95334,37.3962819,-120.7170660
1164,North Main Street,95334,37.3962913,-120.7170924
1164,North Main Street,95334,37.3963102,-120.7171453
1164,North Main Street,95334,37.3963197,-120.7171717
1164,North Main Street,95334,37.3963835,-120.7170089
1164,North Main Street,95334,37.3963930,-120.7170353
1164,North Main Street,95334,37.3964119,-120.7170881
1164,North Main Street,95334,37.3964213,-120.7171145
1168,4th Street,95334,37.3794311,-120.7225774
1229,Davis Street,95334,37.3907330,-120.7220014
1229,G Street,95334,37.3816146,-120.7249309
1160,1St Street,95334,37.3795970,-120.7259465
1219,4th Street,95334,37.3792308,-120.7220371
1219,5th Street,95334,37.3792936,-120.7208319
1219,8th Street,95334,37.3792008,-120.7162087
1219,Crowell Street,95334,37.3900083,-120.7227470
1219,Joseph Street,95334,37.3792729,-120.7173157
1160,Prusso Street,95334,37.3795042,-120.7270328
1168,Fernwood Way,95334,37.3795452,-120.7385964
1168,Talara Drive,95334,37.3795336,-120.7405302
1169,Fernwood Way,95334,37.3795357,-120.7391500
1169,Talara Drive,95334,37.3794788,-120.7411829
1169,Vinemaple Way,95334,37.3795452,-120.7382577
1172,Olds Avenue,95334,37.3965942,-120.7141389
1179,Barcelona Drive,95334,37.3795330,-120.7400668
1179,J Street,95334,37.3779692,-120.7261806
1180,I Street,95334,37.3789990,-120.7259491
1180,Talara Drive,95334,37.3793573,-120.7404701
1181,Talara Drive,95334,37.3793146,-120.7411864
1184,Barcelona Drive,95334,37.3794199,-120.7394971
1192,Talara Drive,95334,37.3791447,-120.7404766
1190,Fernwood Way,95334,37.3793740,-120.7386027
1191,Fernwood Way,95334,37.3793709,-120.7391535
1191,Talara Drive,95334,37.3791369,-120.7411441
1191,Vinemaple Way,95334,37.3793740,-120.7382585
1199,Barcelona Drive,95334,37.3793477,-120.7400707
1201,Parkside Way,95334,37.3792789,-120.7372189
1200,F Street,95334,37.3820113,-120.7253180
1200,Vinemaple Way,95334,37.3792787,-120.7376606
1212,E Street,95334,37.3830658,-120.7251242
1212,J Street,95334,37.3775856,-120.7255503
1213,E Street,95334,37.3836519,-120.7251493
1213,Fernwood Way,95334,37.3792061,-120.7391570
1213,Main Street,95334,37.3796182,-120.7230403
1213,Vinemaple Way,95334,37.3792073,-120.7382619
12917,Olive Avenue,95334,37.3960276,-120.7216370
1203,4th Street,95334,37.3795192,-120.7220276
1207,4th Street,95334,37.3794371,-120.7218828
1208,B Street,95334,37.3857629,-120.7252799
1208,Barcelona Drive,95334,37.3792403,-120.7395009
1210,1St Street,95334,37.3793884,-120.7259538
1210,2nd Street,95334,37.3793915,-120.7248776
1203,C Street,95334,37.3854126,-120.7252877
1203,Crowell Street,95334,37.3900938,-120.7229818
1204,9th Street,95334,37.3793731,-120.7158613
1214,C Street,95334,37.3849044,-120.7251267
1215,B Street,95334,37.3862733,-120.7250776
1215,Barcelona Drive,95334,37.3791535,-120.7400748
1205,4th Street,95334,37.3795195,-120.7218831
1205,8th Street,95334,37.3793774,-120.7162054
1205,G Street,95334,37.3816220,-120.7253425
1206,A Street,95334,37.3866653,-120.7252419
1206,D Street,95334,37.3840248,-120.7253159
1206,Hammatt Avenue,95334,37.3793496,-120.7144865
1209,4th Street,95334,37.3794368,-120.7220274
1209,I Street,95334,37.3793917,-120.7253217
1209,Peach Avenue,95334,37.3751966,-120.7256044
1211,2nd Street,95334,37.3793913,-120.7242812
1211,J Street,95334,37.3779686,-120.7255428
1212,B Street,95334,37.3857645,-120.7251078
1210,Fernwood Way,95334,37.3792073,-120.7386061
1217,Davis Street,95334,37.3908185,-120.7222362
1217,G Street,95334,37.3816173,-120.7251373
1218,5th Street,95334,37.3792893,-120.7214521
1218,6th Street,95334,37.3792876,-120.7203503
1218,Front Street,95334,37.3875142,-120.7251528
1216,A Street,95334,37.3866632,-120.7250698
1216,D Street,95334,37.3840227,-120.7251438
1216,Davis Street,95334,37.3903536,-120.7225967
1216,E Street,95334,37.3830634,-120.7249281
1216,F Street,95334,37.3820079,-120.7250771
1217,D Street,95334,37.3845337,-120.7251546
1306,8th Street,95334,37.3783029,-120.7167464
1306,C Street,95334,37.3849735,-120.7240719
1306,D Street,95334,37.3840948,-120.7240892
1307,Davis Street,95334,37.3904902,-120.7213401
1220,8th Street,95334,37.3792667,-120.7168168
1220,9th Street,95334,37.3791951,-120.7158582
1221,4th Street,95334,37.3792311,-120.7218926
1221,C Street,95334,37.3854124,-120.7251156
1222,B Street,95334,37.3857665,-120.7248924
1222,D Street,95334,37.3840205,-120.7249717
1222,Joseph Street,95334,37.3792809,-120.7179523
1223,E Street,95334,37.3836498,-120.7249773
1223,Main Street,95334,37.3794369,-120.7230439
1224,A Street,95334,37.3866610,-120.7248977
1224,C Street,95334,37.3849042,-120.7249546
1220,Hammatt Avenue,95334,37.3791711,-120.7144900
1226,Front Street,95334,37.3874452,-120.7247857
1223,4th Street,95334,37.3793135,-120.7218928
1223,A Street,95334,37.3871691,-120.7248878
1234,8th Street,95334,37.3790860,-120.7168203
1234,9th Street,95334,37.3789863,-120.7157810
1234,A Street,95334,37.3866589,-120.7247256
1234,B Street,95334,37.3857689,-120.7246342
1234,Barcelona Drive,95334,37.3790608,-120.7395046
1234,C Street,95334,37.3849040,-120.7247825
1234,D Street,95334,37.3840186,-120.7248169
1234,E Street,95334,37.3830712,-120.7247317
1234,F Street,95334,37.3820046,-120.7248362
1234,Fernwood Way,95334,37.3790407,-120.7386097
1234,Joseph Street,95334,37.3791002,-120.7179559
1235,4th Street,95334,37.3790782,-120.7218759
1225,4th Street,95334,37.3793132,-120.7220373
1225,B Street,95334,37.3862730,-120.7249055
1225,D Street,95334,37.3845335,-120.7249627
1225,F Street,95334,37.3826049,-120.7249491
1232,Hammatt Avenue,95334,37.3789792,-120.7144936
1228,I Street,95334,37.3789901,-120.7250043
1246,1St Street,95334,37.3788377,-120.7259881
1246,4th Street,95334,37.3789140,-120.7218768
1246,6th Street,95334,37.3789459,-120.7203569
1246,8th Street,95334,37.3789053,-120.7168239
1247,4th Street,95334,37.3789176,-120.7220311
1247,5th Street,95334,37.3789520,-120.7208386
1247,C Street,95334,37.3854118,-120.7245994
1230,Davis Street,95334,37.3902966,-120.7224402
1230,Olive Avenue,95334,37.3960160,-120.7192149
1230,Olive Avenue,95334,37.3965415,-120.7188204
1231,7th Street,95334,37.3791065,-120.7184549
1231,F Street,95334,37.3826024,-120.7247529
1231,Joseph Street,95334,37.3790923,-120.7173193
1232,5th Street,95334,37.3791163,-120.7214555
1232,6th Street,95334,37.3791159,-120.7203536
1233,4th Street,95334,37.3791551,-120.7218761
1233,5th Street,95334,37.3791219,-120.7208353
1233,8th Street,95334,37.3789980,-120.7161781
1233,A Street,95334,37.3871669,-120.7247157
1233,Crowell Street,95334,37.3899085,-120.7224730
1233,D Street,95334,37.3845333,-120.7247906
1233,E Street,95334,37.3836476,-120.7248052
1240,Swan Street,95334,37.3910498,-120.7217729
1238,G Street,95334,37.3811907,-120.7248379
1242,5th Street,95334,37.3789433,-120.7214589
1235,Fernwood Way,95334,37.3790414,-120.7391604
1235,Vinemaple Way,95334,37.3790405,-120.7382655
1236,Davis Street,95334,37.3902253,-120.7222445
1236,Olive Avenue,95334,37.3965535,-120.7184791
1237,1St Street,95334,37.3789374,-120.7254123
1237,4th Street,95334,37.3791181,-120.7220261
1237,C Street,95334,37.3854120,-120.7247714
1239,2nd Street,95334,37.3790032,-120.7243328
1239,9th Street,95334,37.3790320,-120.7152453
1241,G Street,95334,37.3816279,-120.7247278
1245,E Street,95334,37.3836455,-120.7246331
1245,F Street,95334,37.3825999,-120.7245447
1245,Joseph Street,95334,37.3789116,-120.7173228
1245,Peach Avenue,95334,37.3751930,-120.7250882
1245,Prusso Street,95334,37.3788120,-120.7265009
1248,E Street,95334,37.3830688,-120.7245355
1248,Hammatt Avenue,95334,37.3787396,-120.7144474
1248,Prusso Street,95334,37.3787991,-120.7270536
1249,1St Street,95334,37.3786870,-120.7254465
1249,2nd Street,95334,37.3788385,-120.7243364
1249,4th Street,95334,37.3790000,-120.7220314
1244,4th Street,95334,37.3789964,-120.7218771
1244,A Street,95334,37.3866567,-120.7245536
1244,C Street,95334,37.3849038,-120.7246104
1244,F Street,95334,37.3820012,-120.7245954
1244,Swan Street,95334,37.3911353,-120.7220077
1250,2nd Street,95334,37.3788121,-120.7250081
1250,Joseph Street,95334,37.3789195,-120.7179595
1255,9th Street,95334,37.3787524,-120.7151437
1256,Barcelona Drive,95334,37.3788773,-120.7395041
1256,Fernwood Way,95334,37.3788695,-120.7386104
1257,Fernwood Way,95334,37.3788704,-120.7391674
1257,Joseph Street,95334,37.3787309,-120.7173264
1257,Vinemaple Way,95334,37.3788693,-120.7382717
1308,1St Street,95334,37.3786778,-120.7260572
1309,1St Street,95334,37.3784974,-120.7255144
1312,Prusso Street,95334,37.3785646,-120.7272408
1301,2nd Street,95334,37.3786737,-120.7243400
1301,Fernwood Way,95334,37.3784622,-120.7391718
1301,G Street,95334,37.3816403,-120.7244030
1283,Hammatt Avenue,95334,37.3784537,-120.7139720
1331,7th Street,95334,37.3780775,-120.7184751
1331,8th Street,95334,37.3780490,-120.7162040
1300,2nd Street,95334,37.3786473,-120.7250117
1300,E Street,95334,37.3830560,-120.7243396
1302,Queen Way,95334,37.3779572,-120.7320546
1302,Swan Street,95334,37.3908748,-120.7212922
1305,Joseph Street,95334,37.3783996,-120.7173329
1307,Prusso Street,95334,37.3786477,-120.7265188
1330,8th Street,95334,37.3779952,-120.7168418
1330,Joseph Street,95334,37.3780918,-120.7179758
1330,Queen Way,95334,37.3779531,-120.7316842
1310,E Street,95334,37.3830536,-120.7241434
1310,F Street,95334,37.3819979,-120.7243545
1310,Hammatt Avenue,95334,37.3783427,-120.7145309
1311,F Street,95334,37.3825974,-120.7243486
1316,Queen Way,95334,37.3779527,-120.7318873
1317,8th Street,95334,37.3782137,-120.7162007
1314,2nd Street,95334,37.3784825,-120.7250153
1315,2nd Street,95334,37.3785090,-120.7243435
1315,Duke Drive,95334,37.3782188,-120.7323841
1315,Hammatt Avenue,95334,37.3782579,-120.7139753
1315,Joseph Street,95334,37.3782555,-120.7173358
1329,Duke Drive,95334,37.3780709,-120.7323896
1317,Prusso Street,95334,37.3784826,-120.7265493
1318,1St Street,95334,37.3784996,-120.7261133
1319,Davis Street,95334,37.3904582,-120.7212467
1319,F Street,95334,37.3825945,-120.7241197
1320,F Street,95334,37.3819947,-120.7241222
1320,Prusso Street,95334,37.3784005,-120.7272578
1321,2nd Street,95334,37.3783375,-120.7243473
1321,Cabernet Court,95334,37.3780448,-120.7131179
1322,Pinot Drive,95334,37.3780057,-120.7084182
1323,9th Street,95334,37.3781718,-120.7151001
1323,Chablis Court,95334,37.3780395,-120.7113924
1323,Chardonnay Way,95334,37.3780406,-120.7105319
1323,Chianti Drive,95334,37.3780107,-120.7096376
1323,Colombard Way,95334,37.3780457,-120.7122590
1323,Fernwood Way,95334,37.3782964,-120.7391760
1322,9th Street,95334,37.3781754,-120.7157019
1322,Chablis Court,95334,37.3780430,-120.7119149
1322,Chardonnay Way,95334,37.3780381,-120.7110514
1322,Chianti Drive,95334,37.3780278,-120.7101936
1322,Colombard Way,95334,37.3780451,-120.7127776
1324,2nd Street,95334,37.3783178,-120.7250189
1325,Emerald Drive,95334,37.3781032,-120.7312915
1325,F Street,95334,37.3825921,-120.7239236
1325,Joseph Street,95334,37.3781181,-120.7173385
1326,E Street,95334,37.3830511,-120.7239473
1327,Prusso Street,95334,37.3783165,-120.7265919
1328,1St Street,95334,37.3783183,-120.7261508
1326,Swan Street,95334,37.3907893,-120.7210573
1327,1St Street,95334,37.3783189,-120.7255500
1327,Davis Street,95334,37.3903926,-120.7210932
1331,Cabernet Court,95334,37.3778734,-120.7131236
1331,Emerald Drive,95334,37.3780204,-120.7310929
1372,Queen Way,95334,37.3777491,-120.7311876
1332,Hammatt Avenue,95334,37.3781646,-120.7145333
1333,2nd Street,95334,37.3781358,-120.7243517
1333,Chablis Court,95334,37.3778654,-120.7113976
1333,Chardonnay Way,95334,37.3778708,-120.7105376
1333,Chianti Drive,95334,37.3778420,-120.7096427
1333,Colombard Way,95334,37.3778741,-120.7122650
1335,9th Street,95334,37.3780064,-120.7150517
1334,9th Street,95334,37.3780016,-120.7157053
1334,Chianti Drive,95334,37.3778622,-120.7101930
1334,Hammatt Avenue,95334,37.3780005,-120.7145881
1334,Pinot Drive,95334,37.3778347,-120.7084209
1336,Chablis Court,95334,37.3778711,-120.7119176
1336,Chardonnay Way,95334,37.3778621,-120.7110525
1336,Colombard Way,95334,37.3778704,-120.7127804
1336,Prusso Street,95334,37.3782359,-120.7272854
1336,Swan Street,95334,37.3907037,-120.7208225
1414,9th Street,95334,37.3774803,-120.7157156
1414,Queen Way,95334,37.3774256,-120.7307982
1415,9th Street,95334,37.3775121,-120.7150616
1415,Nut Tree Road,95334,37.3947697,-120.7178372
1415,Nut Tree Road,95334,37.3947845,-120.7179625
1415,Nut Tree Road,95334,37.3948004,-120.7178332
1415,Nut Tree Road,95334,37.3948148,-120.7179551
1415,Nut Tree Road,95334,37.3948335,-120.7178276
1415,Nut Tree Road,95334,37.3948483,-120.7179529
1415,Nut Tree Road,95334,37.3948642,-120.7178236
1415,Nut Tree Road,95334,37.3948787,-120.7179455
1337,Emerald Drive,95334,37.3779492,-120.7309058
1337,Joseph Street,95334,37.3779534,-120.7173417
1338,1St Street,95334,37.3781462,-120.7261676
1338,2nd Street,95334,37.3781499,-120.7250226
1338,Main Street,95334,37.3780673,-120.7237691
1338,Main Street,95334,37.3780700,-120.7238493
1338,Main Street,95334,37.3780723,-120.7239363
1338,Main Street,95334,37.3780736,-120.7240273
1338,Main Street,95334,37.3782468,-120.7239482
1338,Main Street,95334,37.3782470,-120.7238563
1338,Main Street,95334,37.3782471,-120.7237644
1338,Main Street,95334,37.3782473,-120.7236747
1345,Fernwood Way,95334,37.3781316,-120.7391795
1339,1St Street,95334,37.3781471,-120.7255390
1339,7th Street,95334,37.3779127,-120.7184784
1339,Prusso Street,95334,37.3781515,-120.7266338
1350,Joseph Street,95334,37.3777499,-120.7179825
1340,Joseph Street,95334,37.3779243,-120.7179790
1348,Prusso Street,95334,37.3780165,-120.7272016
1349,2nd Street,95334,37.3779408,-120.7243559
1349,7th Street,95334,37.3777479,-120.7184816
1349,Joseph Street,95334,37.3777543,-120.7173456
1349,Prusso Street,95334,37.3779719,-120.7266566
1343,8th Street,95334,37.3778842,-120.7162072
1343,Duke Drive,95334,37.3779565,-120.7323773
1344,Queen Way,95334,37.3779010,-120.7314988
1345,Cabernet Court,95334,37.3777072,-120.7131278
1346,9th Street,95334,37.3778278,-120.7157087
1346,Chianti Drive,95334,37.3777112,-120.7101960
1346,Hammett Avenue,95334,37.3778357,-120.7145914
1346,Pinot Drive,95334,37.3776727,-120.7084242
1347,9th Street,95334,37.3778416,-120.7150550
1347,Chablis Court,95334,37.3777007,-120.7114008
1347,Chardonnay Way,95334,37.3777061,-120.7105397
1347,Chianti Drive,95334,37.3776813,-120.7096459
1347,Colombard Way,95334,37.3777038,-120.7122666
1347,Hammatt Avenue,95334,37.3776738,-120.7139892
1350,2nd Street,95334,37.3779684,-120.7250265
1350,8th Street,95334,37.3777480,-120.7168467
1350,Cabernet Court,95334,37.3776695,-120.7136435
1350,Chablis Court,95334,37.3777063,-120.7119209
1350,Chardonnay Way,95334,37.3776930,-120.7110569
1350,Colombard Way,95334,37.3777002,-120.7127837
1353,8th Street,95334,37.3777194,-120.7162105
1357,Duke Drive,95334,37.3778182,-120.7323768
1358,Queen Way,95334,37.3778298,-120.7313432
1367,Fernwood Way,95334,37.3779668,-120.7391829
1371,Duke Drive,95334,37.3776895,-120.7323824
1374,Duke Drive,95334,37.3776378,-120.7320178
1375,Monte Cristo Way,95334,37.3776337,-120.7316772
1385,Duke Drive,95334,37.3775369,-120.7323819
1386,Queen Way,95334,37.3776540,-120.7310320
1388,Duke Drive,95334,37.3775042,-120.7320353
1389,Fernwood Way,95334,37.3778021,-120.7391864
1389,Monte Cristo Way,95334,37.3775001,-120.7316887
1396,Monte Cristo Way,95334,37.3774627,-120.7313301
1399,Duke Drive,95334,37.3773986,-120.7323935
1400,Queen Way,95334,37.3775398,-120.7309121
1401,Brandy Court,95334,37.3777120,-120.7088666
1401,Fernwood Way,95334,37.3776324,-120.7391961
1401,Linden Court,95334,37.3916000,-120.7195160
1405,Emerald Drive,95334,37.3777461,-120.7301775
1405,Linden Court,95334,37.3912226,-120.7195885
1406,Cabernet Court,95334,37.3775059,-120.7136476
1406,Linden Court,95334,37.3912792,-120.7194084
1407,7th Street,95334,37.3775832,-120.7184848
1407,Brandy Court,95334,37.3775433,-120.7087240
1407,Chablis Court,95334,37.3775359,-120.7114041
1407,Chardonnay Way,95334,37.3775404,-120.7105436
1407,Chianti Drive,95334,37.3775207,-120.7096491
1407,Colombard Way,95334,37.3775322,-120.7122708
1407,Hammatt Avenue,95334,37.3775102,-120.7139917
1407,Joseph Street,95334,37.3775689,-120.7173493
1407,Linden Court,95334,37.3914225,-120.7193352
1401,Swan Street,95334,37.3909662,-120.7199472
1402,9th Street,95334,37.3776540,-120.7157121
1402,Davis Street,95334,37.3897184,-120.7208525
1402,Duke Drive,95334,37.3773707,-120.7320468
1402,Hammatt Avenue,95334,37.3776710,-120.7145946
1402,Linden Court,95334,37.3915726,-120.7197071
1402,Swan Street,95334,37.3905533,-120.7202331
1403,9th Street,95334,37.3776768,-120.7150583
1403,Linden Court,95334,37.3914447,-120.7198149
1403,Monte Cristo Way,95334,37.3773619,-120.7316823
1404,8th Street,95334,37.3775627,-120.7168503
1404,Joseph Street,95334,37.3775769,-120.7179859
1404,Linden Court,95334,37.3912923,-120.7197657
1408,1St Street,95334,37.3775718,-120.7261876
1408,Brandy Court,95334,37.3777142,-120.7091997
1408,Chablis Court,95334,37.3775415,-120.7119241
1408,Chardonnay Way,95334,37.3775226,-120.7110602
1408,Chianti Drive,95334,37.3775602,-120.7101990
1408,Colombard Way,95334,37.3775299,-120.7127871
1408,Main Street,95334,37.3776264,-120.7238106
1408,Nut Tree Road,95334,37.3942112,-120.7183170
1408,Prusso Street,95334,37.3775561,-120.7272107
1409,2nd Street,95334,37.3775888,-120.7243627
1409,8th Street,95334,37.3775547,-120.7162137
1409,Cabernet Court,95334,37.3775425,-120.7131310
1410,2nd Street,95334,37.3775718,-120.7250343
1410,Harvest Avenue,95334,37.3953733,-120.7175069
1410,Harvest Avenue,95334,37.3953930,-120.7176487
1410,Harvest Avenue,95334,37.3954180,-120.7174978
1410,Harvest Avenue,95334,37.3954351,-120.7176402
1410,Monte Cristo Way,95334,37.3773149,-120.7313416
1411,Emerald Drive,95334,37.3776413,-120.7299893
1412,Hammatt Avenue,95334,37.3775062,-120.7145979
1412,Harvest Avenue,95334,37.3951658,-120.7176232
1412,Harvest Avenue,95334,37.3951806,-120.7177485
1412,Harvest Avenue,95334,37.3951966,-120.7176192
1412,Harvest Avenue,95334,37.3952110,-120.7177411
1412,Harvest Avenue,95334,37.3952296,-120.7176136
1412,Harvest Avenue,95334,37.3952445,-120.7177389
1412,Harvest Avenue,95334,37.3952604,-120.7176096
1412,Harvest Avenue,95334,37.3952748,-120.7177315
1413,Duke Drive,95334,37.3772556,-120.7323870
1413,Nut Tree Road,95334,37.3945931,-120.7179450
1413,Nut Tree Road,95334,37.3946129,-120.7180802
1413,Nut Tree Road,95334,37.3946461,-120.7179344
1413,Nut Tree Road,95334,37.3946660,-120.7180696
1417,8th Street,95334,37.3773899,-120.7162170
1417,Emerald Drive,95334,37.3775408,-120.7298210
1417,Joseph Street,95334,37.3774042,-120.7173525
1417,Monte Cristo Way,95334,37.3772379,-120.7316820
1417,Nut Tree Road,95334,37.3949851,-120.7177295
1417,Nut Tree Road,95334,37.3950049,-120.7178647
1417,Nut Tree Road,95334,37.3950381,-120.7177189
1417,Nut Tree Road,95334,37.3950579,-120.7178541
1416,8th Street,95334,37.3773979,-120.7168536
1416,Davis Street,95334,37.3896614,-120.7206960
1416,Duke Drive,95334,37.3772372,-120.7320464
1416,Joseph Street,95334,37.3774121,-120.7179891
1418,Nut Tree Road,95334,37.3941667,-120.7180560
1419,7th Street,95334,37.3774184,-120.7184881
1419,Crowell Street,95334,37.3892696,-120.7207173
1419,Davis Street,95334,37.3900979,-120.7202572
1419,Prusso Street,95334,37.3773996,-120.7266740
1420,Cabernet Court,95334,37.3773412,-120.7136523
1420,Main Street,95334,37.3774087,-120.7238168
1421,Brandy Court,95334,37.3773502,-120.7087427
1421,Chablis Court,95334,37.3773708,-120.7114070
1421,Chardonnay Way,95334,37.3773757,-120.7105468
1421,Chianti Drive,95334,37.3773600,-120.7096523
1421,Colombard Way,95334,37.3773606,-120.7122742
1421,Hammatt Avenue,95334,37.3773365,-120.7139944
1422,Brandy Court,95334,37.3775844,-120.7093621
1422,Chablis Court,95334,37.3773754,-120.7119274
1422,Chardonnay Way,95334,37.3773523,-120.7110636
1422,Chianti Drive,95334,37.3774091,-120.7102020
1422,Colombard Way,95334,37.3773596,-120.7127905
1429,Emerald Drive,95334,37.3773125,-120.7294952
1429,Joseph Street,95334,37.3772394,-120.7173558
1429,Lupin Court,95334,37.3772586,-120.7276433
1422,Pinot Drive,95334,37.3775107,-120.7084274
1423,1St Street,95334,37.3773400,-120.7255565
1423,Cabernet Court,95334,37.3773765,-120.7131342
1423,Emerald Drive,95334,37.3774323,-120.7296623
1423,Fernwood Way,95334,37.3774214,-120.7392414
1424,Hammatt Avenue,95334,37.3773414,-120.7146011
1424,Monte Cristo Way,95334,37.3771957,-120.7313472
1424,Prusso Street,95334,37.3772571,-120.7272139
1425,2nd Street,95334,37.3773264,-120.7243693
1426,Swan Street,95334,37.3903862,-120.7199504
1427,9th Street,95334,37.3773473,-120.7150648
1427,D Street,95334,37.3845102,-120.7225594
1427,Davis Street,95334,37.3900408,-120.7201006
1427,Duke Drive,95334,37.3771268,-120.7323926
1427,E Street,95334,37.3836195,-120.7226493
1427,Lupin Court,95334,37.3772551,-120.7274387
1428,8th Street,95334,37.3772331,-120.7168568
1425,Queen Way,95334,37.3771915,-120.7310365
1426,9th Street,95334,37.3773065,-120.7157190
1426,Davis Street,95334,37.3895474,-120.7203828
1426,Harvest Avenue,95334,37.3951604,-120.7173267
1426,Harvest Avenue,95334,37.3951606,-120.7172401
1428,Queen Way,95334,37.3772923,-120.7307202
1430,1St Street,95334,37.3773124,-120.7261940
1430,Cabernet Court,95334,37.3771609,-120.7136949
1430,Duke Drive,95334,37.3771132,-120.7320460
1430,Joseph Street,95334,37.3772474,-120.7179924
1430,Nut Tree Road,95334,37.3941483,-120.7178120
1432,2nd Street,95334,37.3772850,-120.7250414
1432,Chablis Court,95334,37.3771933,-120.7119659
1432,Chardonnay Way,95334,37.3771781,-120.7110678
1432,Colombard Way,95334,37.3771880,-120.7127939
1431,7th Street,95334,37.3772536,-120.7184913
1431,E Street,95334,37.3836178,-120.7225203
1431,Lupin Court,95334,37.3772991,-120.7279000
1431,Monte Cristo Way,95334,37.3770996,-120.7316815
1431,Prusso Street,95334,37.3772005,-120.7266783
1434,Brandy Court,95334,37.3773522,-120.7093367
1434,Chianti Drive,95334,37.3772581,-120.7102050
1434,Pinot Drive,95334,37.3773487,-120.7084306
1433,8th Street,95334,37.3772251,-120.7162202
1433,Crowell Street,95334,37.3893871,-120.7207373
1433,Lupin Court,95334,37.3772246,-120.7282404
1433,Swan Street,95334,37.3908700,-120.7196145
1435,Hammatt Avenue,95334,37.3771629,-120.7139985
1436,Davis Street,95334,37.3894904,-120.7202263
1436,Hammatt Avenue,95334,37.3771760,-120.7145528
1435,Brandy Court,95334,37.3771867,-120.7087787
1435,Chablis Court,95334,37.3771951,-120.7113851
1435,Chardonnay Way,95334,37.3772109,-120.7105501
1435,Chianti Drive,95334,37.3771994,-120.7096554
1435,Colombard Way,95334,37.3771876,-120.7122776
1435,Crowell Street,95334,37.3893322,-120.7205921
1450,Olive Avenue,95334,37.3966108,-120.7168236
1450,Olive Avenue,95334,37.3966110,-120.7166842
1450,Olive Avenue,95334,37.3966113,-120.7165180
1445,Monte Cristo Way,95334,37.3769947,-120.7316872
1445,Prusso Street,95334,37.3770014,-120.7266827
1446,Brandy Court,95334,37.3771847,-120.7093098
1446,Chablis Court,95334,37.3769269,-120.7119536
1446,Chardonnay Way,95334,37.3770067,-120.7110704
1446,Chianti Drive,95334,37.3771071,-120.7102080
1446,Colombard Way,95334,37.3770150,-120.7127973
1446,Harvest Avenue,95334,37.3950752,-120.7170275
1446,Harvest Avenue,95334,37.3950754,-120.7169286
1446,Harvest Avenue,95334,37.3951061,-120.7170276
1446,Harvest Avenue,95334,37.3951063,-120.7169286
1446,Harvest Avenue,95334,37.3951534,-120.7170277
1446,Harvest Avenue,95334,37.3951536,-120.7169288
1446,Harvest Avenue,95334,37.3951843,-120.7170278
1446,Harvest Avenue,95334,37.3951845,-120.7169289
1446,Nut Tree Road,95334,37.3941503,-120.7175818
1446,Pinot Drive,95334,37.3771867,-120.7084338
1436,Lupin Court,95334,37.3769339,-120.7281338
1436,Swan Street,95334,37.3903149,-120.7197546
1437,Cabernet Court,95334,37.3772006,-120.7131124
1437,Crowell Street,95334,37.3892955,-120.7205091
1437,Davis Street,95334,37.3899838,-120.7199440
1438,9th Street,95334,37.3771327,-120.7157224
1438,Lupin Court,95334,37.3767510,-120.7279248
1438,Monte Cristo Way,95334,37.3770526,-120.7313468
1439,9th Street,95334,37.3771832,-120.7151197
1439,Crowell Street,95334,37.3892692,-120.7204275
1439,E Street,95334,37.3836157,-120.7223482
1439,Queen Way,95334,37.3770294,-120.7310181
1440,8th Street,95334,37.3770684,-120.7168601
1440,Cabernet Court,95334,37.3769125,-120.7136712
1440,Joseph Street,95334,37.3770826,-120.7179956
1440,Lupin Court,95334,37.3767830,-120.7276587
1440,Main Street,95334,37.3771615,-120.7238222
1441,8th Street,95334,37.3770604,-120.7162235
1441,Crowell Street,95334,37.3892405,-120.7203411
1441,Duke Drive,95334,37.3770171,-120.7323983
1441,Joseph Street,95334,37.3770746,-120.7173590
1441,Swan Street,95334,37.3907979,-120.7193642
1442,Lupin Court,95334,37.3767882,-120.7274551
1442,Queen Way,95334,37.3771350,-120.7306540
1443,7th Street,95334,37.3770889,-120.7184946
1444,Duke Drive,95334,37.3769797,-120.7320456
1444,Pinecrest Drive,95334,37.3773096,-120.7372673
1445,1St Street,95334,37.3770929,-120.7255619
1448,1St Street,95334,37.3770790,-120.7261991
1448,Hammatt Avenue,95334,37.3769980,-120.7145574
1470,Chianti Drive,95334,37.3768050,-120.7102139
1470,Pinot Drive,95334,37.3768460,-120.7084418
1470,Queen Way,95334,37.3768632,-120.7306651
1471,Chardonnay Way,95334,37.3767166,-120.7105599
1447,Chablis Court,95334,37.3769385,-120.7113790
1447,Chardonnay Way,95334,37.3770461,-120.7105534
1447,Colombard Way,95334,37.3770146,-120.7122810
1447,D Street,95334,37.3845090,-120.7223305
1449,2nd Street,95334,37.3770998,-120.7243742
1449,Brandy Court,95334,37.3770274,-120.7087805
1449,Cabernet Court,95334,37.3769443,-120.7131035
1449,Chianti Drive,95334,37.3770387,-120.7096586
1449,Hammett Avenue,95334,37.3769981,-120.7140018
1449,Nut Tree Road,95334,37.3949175,-120.7173374
1449,Nut Tree Road,95334,37.3949176,-120.7172336
1449,Nut Tree Road,95334,37.3949999,-120.7173376
1449,Nut Tree Road,95334,37.3950000,-120.7172338
1450,2nd Street,95334,37.3769898,-120.7250478
1450,F Street,95334,37.3821150,-120.7224929
1450,Olive Avenue,95334,37.3965163,-120.7169888
1450,Olive Avenue,95334,37.3965166,-120.7168227
1450,Olive Avenue,95334,37.3965169,-120.7166832
1450,Olive Avenue,95334,37.3965172,-120.7165171
1450,Olive Avenue,95334,37.3965399,-120.7169892
1450,Olive Avenue,95334,37.3965402,-120.7168231
1450,Olive Avenue,95334,37.3965404,-120.7166836
1450,Olive Avenue,95334,37.3965407,-120.7165175
1450,Olive Avenue,95334,37.3965869,-120.7169897
1450,Olive Avenue,95334,37.3965872,-120.7168235
1450,Olive Avenue,95334,37.3965875,-120.7166841
1450,Olive Avenue,95334,37.3965878,-120.7165180
1450,Olive Avenue,95334,37.3966105,-120.7169897
1453,Joseph Street,95334,37.3769099,-120.7173623
1453,Queen Way,95334,37.3768816,-120.7310176
1455,Duke Drive,95334,37.3768503,-120.7324037
1452,8th Street,95334,37.3769036,-120.7168633
1452,Cabernet Court,95334,37.3768549,-120.7133614
1452,Monte Cristo Way,95334,37.3769382,-120.7313464
1453,8th Street,95334,37.3768956,-120.7162267
1462,1St Street,95334,37.3768319,-120.7262044
1456,Olive Avenue,95334,37.3959713,-120.7167018
1456,Olive Avenue,95334,37.3960665,-120.7167727
1456,Olive Avenue,95334,37.3960667,-120.7166640
1456,Olive Avenue,95334,37.3961173,-120.7167729
1456,Olive Avenue,95334,37.3961175,-120.7166641
1456,Olive Avenue,95334,37.3961376,-120.7167729
1456,Olive Avenue,95334,37.3961378,-120.7166642
1456,Olive Avenue,95334,37.3962004,-120.7167731
1456,Olive Avenue,95334,37.3962006,-120.7166644
1456,Olive Avenue,95334,37.3962208,-120.7167732
1456,Olive Avenue,95334,37.3962210,-120.7166644
1456,Olive Avenue,95334,37.3962716,-120.7167733
1456,Queen Way,95334,37.3769967,-120.7306595
1458,Brandy Court,95334,37.3770254,-120.7093130
1458,Chardonnay Way,95334,37.3768398,-120.7110737
1458,Chianti Drive,95334,37.3769560,-120.7102109
1458,Colombard Way,95334,37.3768413,-120.7128015
1458,Duke Drive,95334,37.3768510,-120.7320512
1458,Main Street,95334,37.3769418,-120.7238270
1458,Nut Tree Road,95334,37.3941510,-120.7173580
1458,Pinot Drive,95334,37.3770240,-120.7084370
1459,2nd Street,95334,37.3769076,-120.7243784
1459,Chablis Court,95334,37.3768566,-120.7116497
1459,Chardonnay Way,95334,37.3768814,-120.7105566
1459,Colombard Way,95334,37.3768413,-120.7122852
1459,Monte Cristo Way,95334,37.3768230,-120.7316986
1469,Duke Drive,95334,37.3767310,-120.7324093
1461,Harvest Avenue,95334,37.3958259,-120.7174462
1463,1St Street,95334,37.3768457,-120.7255673
1463,Amaretto Way,95334,37.3768312,-120.7064890
1463,Brandy Way,95334,37.3768527,-120.7087819
1463,Chianti Drive,95334,37.3768701,-120.7096600
1463,Hammatt Avenue,95334,37.3768356,-120.7140050
1477,Amaretto Way,95334,37.3766126,-120.7064477
1466,Monte Cristo Way,95334,37.3768047,-120.7313460
1466,Pinecrest Drive,95334,37.3771304,-120.7372743
1467,Nut Tree Road,95334,37.3946047,-120.7172091
1467,Queen Way,95334,37.3767529,-120.7310113
1472,Duke Drive,95334,37.3767079,-120.7320448
1472,Nut Tree Road,95334,37.3941518,-120.7171343
1473,Harvest Avenue,95334,37.3957473,-120.7172163
1470,Brandy Court,95334,37.3768596,-120.7093177
1473,Monte Cristo Way,95334,37.3766800,-120.7316981
1475,Nut Tree Road,95334,37.3949084,-120.7170174
1475,Nut Tree Road,95334,37.3949086,-120.7169308
1480,Monte Cristo Way,95334,37.3766520,-120.7313635
1481,Queen Way,95334,37.3766194,-120.7310109
1482,Chianti Drive,95334,37.3766540,-120.7102169
1483,Chardonnay Way,95334,37.3765518,-120.7105631
1483,Duke Drive,95334,37.3766118,-120.7324089
1484,Queen Way,95334,37.3767297,-120.7306706
1485,Nut Tree Road,95334,37.3946057,-120.7169166
1488,Pinecrest Drive,95334,37.3769574,-120.7372781
1494,Chianti Drive,95334,37.3765029,-120.7102199
1494,Monte Cristo Way,95334,37.3765281,-120.7313631
1495,Amaretto Way,95334,37.3764357,-120.7065022
1486,Duke Drive,95334,37.3765601,-120.7320443
1487,Harvest Avenue,95334,37.3957453,-120.7169829
1487,Monte Cristo Way,95334,37.3765369,-120.7317037
1488,Nut Tree Road,95334,37.3941526,-120.7169105
1636,Main Street,95334,37.3753766,-120.7238611
1500,Duke Drive,95334,37.3764361,-120.7320439
1500,Main Street,95334,37.3767634,-120.7238309
1500,Prusso Street,95334,37.3767871,-120.7272274
1501,Willow Court,95334,37.3914218,-120.7191052
1502,Willow Court,95334,37.3912773,-120.7190368
1495,Chardonnay Way,95334,37.3763871,-120.7105664
1495,Queen Way,95334,37.3764763,-120.7310044
1497,Duke Drive,95334,37.3764449,-120.7324084
1498,Queen Way,95334,37.3765866,-120.7306881
1499,Harvest Avenue,95334,37.3957460,-120.7167763
1500,Swan Street,95334,37.3902419,-120.7193575
1501,Monte Cristo Way,95334,37.3764034,-120.7317033
1508,F Street,95334,37.3820881,-120.7218790
1508,Monte Cristo Way,95334,37.3763946,-120.7313627
1508,Mulberry Court,95334,37.3919228,-120.7189789
1509,Mulberry Court,95334,37.3918824,-120.7183822
1509,Queen Way,95334,37.3763476,-120.7310040
1515,C Street,95334,37.3853659,-120.7217286
1515,D Street,95334,37.3844873,-120.7217545
1515,E Street,95334,37.3836078,-120.7217201
1515,F Street,95334,37.3824376,-120.7218527
1515,Monte Cristo Way,95334,37.3762604,-120.7317028
1515,Sapphire Drive,95334,37.3768646,-120.7303387
1510,2nd Street,95334,37.3767015,-120.7250541
1510,9th Street,95334,37.3765568,-120.7157344
1510,Mulberry Court,95334,37.3917779,-120.7182348
1510,Swan Street,95334,37.3901398,-120.7192740
1511,2nd Street,95334,37.3767154,-120.7243826
1525,C Street,95334,37.3853638,-120.7215566
1525,D Street,95334,37.3844850,-120.7215738
1525,Duke Drive,95334,37.3761827,-120.7324196
1525,Emerald Drive,95334,37.3766293,-120.7287429
1525,Swan Street,95334,37.3906792,-120.7189974
1526,1St Street,95334,37.3763788,-120.7262143
1526,C Street,95334,37.3848502,-120.7215666
1503,Willow Court,95334,37.3912181,-120.7188589
1504,Davis Street,95334,37.3893581,-120.7198630
1504,Nut Tree Road,95334,37.3941533,-120.7166868
1504,Olive Avenue,95334,37.3959718,-120.7164505
1504,Olive Avenue,95334,37.3960685,-120.7165163
1504,Olive Avenue,95334,37.3960688,-120.7163620
1504,Olive Avenue,95334,37.3960937,-120.7165164
1504,Olive Avenue,95334,37.3960940,-120.7163621
1504,Olive Avenue,95334,37.3961440,-120.7165166
1504,Olive Avenue,95334,37.3961443,-120.7163623
1504,Olive Avenue,95334,37.3961692,-120.7165166
1504,Olive Avenue,95334,37.3961695,-120.7163623
1504,Willow Court,95334,37.3912848,-120.7186797
1505,Crowell Street,95334,37.3889843,-120.7199350
1505,D Street,95334,37.3844894,-120.7219266
1505,Willow Court,95334,37.3914365,-120.7186263
1506,8th Street,95334,37.3765635,-120.7168764
1506,Joseph Street,95334,37.3765832,-120.7180118
1506,Willow Court,95334,37.3915663,-120.7187300
1507,7th Street,95334,37.3765895,-120.7185108
1507,Chardonnay Way,95334,37.3762223,-120.7105697
1507,Emerald Drive,95334,37.3770553,-120.7291656
1507,Hammatt Avenue,95334,37.3766662,-120.7140082
1507,Joseph Street,95334,37.3765697,-120.7173754
1507,Prusso Street,95334,37.3768024,-120.7266870
1507,Willow Court,95334,37.3915970,-120.7189199
1528,Poppy Court,95334,37.3760251,-120.7277156
1529,9th Street,95334,37.3762650,-120.7150916
1529,Emerald Drive,95334,37.3764687,-120.7286690
1529,Monte Cristo Way,95334,37.3761364,-120.7317024
1511,Duke Drive,95334,37.3763114,-120.7324140
1511,Harvest Avenue,95334,37.3957467,-120.7165698
1511,Mulberry Court,95334,37.3916142,-120.7182448
1511,Sapphire Drive,95334,37.3770385,-120.7302852
1512,Grapevine Drive,95334,37.3933214,-120.7165075
1512,Queen Way,95334,37.3764483,-120.7306877
1513,Emerald Drive,95334,37.3769290,-120.7289893
1514,1St Street,95334,37.3765985,-120.7262095
1514,Duke Drive,95334,37.3762883,-120.7320435
1514,Main Street,95334,37.3765986,-120.7238345
1516,Davis Street,95334,37.3892726,-120.7196282
1516,Pinecrest Drive,95334,37.3767844,-120.7372818
1517,1St Street,95334,37.3765986,-120.7255727
1517,8th Street,95334,37.3764045,-120.7162428
1517,9th Street,95334,37.3764407,-120.7151398
1518,8th Street,95334,37.3763713,-120.7168802
1515,Vieira Street,95334,37.3768554,-120.7392533
1518,Joseph Street,95334,37.3764020,-120.7180154
1518,Nut Tree Road,95334,37.3941533,-120.7164484
1518,Prusso Street,95334,37.3764882,-120.7272306
1518,Swan Street,95334,37.3900971,-120.7191566
1519,Davis Street,95334,37.3897518,-120.7193068
1519,Emerald Drive,95334,37.3767869,-120.7288421
1519,Prusso Street,95334,37.3766033,-120.7266913
1520,Hammatt Avenue,95334,37.3764579,-120.7145722
1521,7th Street,95334,37.3764082,-120.7185144
1521,Amaretto Way,95334,37.3762771,-120.7065146
1521,Chardonnay Way,95334,37.3760584,-120.7105735
1521,Hammatt Avenue,95334,37.3764946,-120.7140115
1521,Joseph Street,95334,37.3763775,-120.7173791
1521,Poppy Court,95334,37.3765137,-120.7274979
1521,Sapphire Drive,95334,37.3784091,-120.7314312
1523,Harvest Avenue,95334,37.3957474,-120.7163632
1523,Poppy Court,95334,37.3765004,-120.7278442
1523,Queen Way,95334,37.3761855,-120.7310095
1524,Grapevine Drive,95334,37.3932647,-120.7162539
1522,9th Street,95334,37.3763730,-120.7157438
1522,Chianti Drive,95334,37.3763519,-120.7102229
1522,Monte Cristo Way,95334,37.3762467,-120.7313682
1526,Main Street,95334,37.3764338,-120.7238380
1526,Poppy Court,95334,37.3762585,-120.7278414
1526,Queen Way,95334,37.3763148,-120.7306932
1527,2nd Street,95334,37.3764957,-120.7243874
1527,Sapphire Drive,95334,37.3765269,-120.7303297
1528,D Street,95334,37.3839704,-120.7214979
1528,Duke Drive,95334,37.3761548,-120.7320490
1530,2nd Street,95334,37.3764310,-120.7250600
1530,Poppy Court,95334,37.3759942,-120.7274703
1531,1St Street,95334,37.3763789,-120.7255775
1531,8th Street,95334,37.3762397,-120.7162460
1531,E Street,95334,37.3836049,-120.7214878
1532,Swan Street,95334,37.3900401,-120.7190000
1533,7th Street,95334,37.3762270,-120.7185179
1533,Crowell Street,95334,37.3888702,-120.7196218
1533,D Street,95334,37.3844828,-120.7214017
1533,Joseph Street,95334,37.3761853,-120.7173829
1533,Prusso Street,95334,37.3764042,-120.7266956
1533,Sapphire Drive,95334,37.3763621,-120.7303330
1534,9th Street,95334,37.3762082,-120.7157470
1542,Duke Drive,95334,37.3760022,-120.7320426
1543,1St Street,95334,37.3761867,-120.7255816
1543,7th Street,95334,37.3760413,-120.7185221
1532,8th Street,95334,37.3761790,-120.7168840
1532,Hammatt Avenue,95334,37.3762793,-120.7146273
1532,Joseph Street,95334,37.3762207,-120.7180190
1534,Chianti Drive,95334,37.3762008,-120.7102259
1534,Crowell Street,95334,37.3883910,-120.7199432
1534,E Street,95334,37.3831797,-120.7213803
1535,C Street,95334,37.3853616,-120.7213845
1535,Chardonnay Way,95334,37.3758936,-120.7105756
1535,Emerald Drive,95334,37.3763124,-120.7286035
1535,Hammatt Avenue,95334,37.3763299,-120.7140147
1535,Harvest Avenue,95334,37.3957481,-120.7161567
1535,Park Street,95334,37.3787703,-120.7214623
1540,Crowell Street,95334,37.3883198,-120.7197475
1540,Main Street,95334,37.3762691,-120.7238416
1536,Monte Cristo Way,95334,37.3761132,-120.7313797
1537,Amaretto Way,95334,37.3761263,-120.7065255
1537,Davis Street,95334,37.3896619,-120.7190333
1537,Queen Way,95334,37.3760710,-120.7310211
1559,Harvest Avenue,95334,37.3957495,-120.7157436
1561,1St Street,95334,37.3759945,-120.7255858
1538,D Street,95334,37.3839677,-120.7212828
1538,Grapevine Drive,95334,37.3933005,-120.7160174
1539,Duke Drive,95334,37.3760301,-120.7324191
1563,Bay Meadow Lane,95334,37.3779759,-120.7344203
1540,Queen Way,95334,37.3761622,-120.7306987
1541,2nd Street,95334,37.3762898,-120.7243919
1541,8th Street,95334,37.3760749,-120.7162493
1541,9th Street,95334,37.3760900,-120.7150951
1541,Grapevine Drive,95334,37.3937458,-120.7159990
1545,C Street,95334,37.3875473,-120.7239093
1545,E Street,95334,37.3836023,-120.7212727
1545,Prusso Street,95334,37.3762051,-120.7267000
1546,9th Street,95334,37.3760435,-120.7157503
1543,Monte Cristo Way,95334,37.3759933,-120.7317139
1543,Vieira Street,95334,37.3766401,-120.7392173
1546,Swan Street,95334,37.3899545,-120.7187651
1547,Chardonnay Way,95334,37.3757280,-120.7105795
1547,F Street,95334,37.3824445,-120.7213052
1547,Harvest Avenue,95334,37.3957488,-120.7159502
1547,Joseph Street,95334,37.3759870,-120.7173873
1548,2nd Street,95334,37.3761784,-120.7250655
1548,Prusso Street,95334,37.3760186,-120.7272366
1549,8th Street,95334,37.3759102,-120.7162525
1549,Hammatt Avenue,95334,37.3761570,-120.7140189
1543,D Street,95334,37.3844807,-120.7212297
1550,Main Street,95334,37.3761043,-120.7238452
1550,Monte Cristo Way,95334,37.3759607,-120.7313673
1551,Bay Meadow Lane,95334,37.3784298,-120.7344118
1551,Queen Way,95334,37.3759280,-120.7310207
1552,1St Street,95334,37.3761179,-120.7262200
1552,Chianti Drive,95334,37.3760498,-120.7102289
1552,Grapevine Drive,95334,37.3933065,-120.7158141
1552,Montecito Drive,95334,37.3784097,-120.7327435
1544,8th Street,95334,37.3759825,-120.7168884
1544,C Street,95334,37.3848470,-120.7213085
1544,Hammatt Avenue,95334,37.3761002,-120.7146309
1544,Joseph Street,95334,37.3760375,-120.7180226
1544,Pinecrest Drive,95334,37.3766114,-120.7372855
1544,Swan Street,95334,37.3899973,-120.7188826
1553,9th Street,95334,37.3759150,-120.7150986
1553,Amaretto Way,95334,37.3759755,-120.7065364
1553,Duke Drive,95334,37.3758918,-120.7324246
1557,Bay Meadow Lane,95334,37.3781588,-120.7344486
1557,Monte Cristo Way,95334,37.3758551,-120.7317135
1558,2nd Street,95334,37.3761250,-120.7243955
1558,9th Street,95334,37.3758787,-120.7157535
1558,Montecito Drive,95334,37.3781044,-120.7327398
1588,Bay Meadow Lane,95334,37.3770710,-120.7337943
1588,Citrus Court,95334,37.3962896,-120.7153036
1588,Montecito Drive,95334,37.3771741,-120.7327342
1588,Pinecrest Drive,95334,37.3762655,-120.7372927
1554,Queen Way,95334,37.3760383,-120.7306984
1555,Grapevine Drive,95334,37.3937456,-120.7157846
1556,Duke Drive,95334,37.3758639,-120.7320481
1556,Hammatt Avenue,95334,37.3759224,-120.7146344
1575,Vieira Street,95334,37.3764641,-120.7392143
1576,Montecito Drive,95334,37.3775762,-120.7327701
1576,Olive Avenue,95334,37.3959728,-120.7158756
1576,Olive Avenue,95334,37.3960692,-120.7161511
1576,Olive Avenue,95334,37.3960695,-120.7159574
1576,Olive Avenue,95334,37.3960698,-120.7157882
1571,Monte Cristo Way,95334,37.3757120,-120.7317190
1571,Montecito Drive,95334,37.3777220,-120.7333982
1572,Bay Meadow Lane,95334,37.3777218,-120.7338071
1568,Chianti Court,95334,37.3758988,-120.7102319
1568,Queen Way,95334,37.3759047,-120.7307039
1564,Monte Cristo Way,95334,37.3758033,-120.7313728
1564,Montecito Drive,95334,37.3779168,-120.7327669
1565,Queen Way,95334,37.3757849,-120.7310262
1566,Grapevine Drive,95334,37.3933072,-120.7156076
1567,Duke Drive,95334,37.3757631,-120.7324242
1569,Amaretto Way,95334,37.3758247,-120.7065473
1569,Bay Meadow Lane,95334,37.3778082,-120.7344255
1569,Grapevine Drive,95334,37.3937468,-120.7155767
1570,Duke Drive,95334,37.3757352,-120.7320477
1570,Montecito Drive,95334,37.3777465,-120.7327685
1570,Olive Avenue,95334,37.3965189,-120.7162149
1570,Olive Avenue,95334,37.3965192,-120.7160203
1570,Olive Avenue,95334,37.3965195,-120.7158500
1570,Olive Avenue,95334,37.3965198,-120.7156813
1570,Olive Avenue,95334,37.3965318,-120.7155535
1570,Olive Avenue,95334,37.3965424,-120.7162150
1570,Olive Avenue,95334,37.3965427,-120.7160204
1570,Olive Avenue,95334,37.3965431,-120.7158500
1570,Olive Avenue,95334,37.3965434,-120.7156814
1570,Olive Avenue,95334,37.3965895,-120.7162151
1570,Olive Avenue,95334,37.3965898,-120.7160205
1570,Olive Avenue,95334,37.3965901,-120.7158502
1570,Olive Avenue,95334,37.3965904,-120.7156815
1570,Olive Avenue,95334,37.3966024,-120.7155537
1570,Olive Avenue,95334,37.3966130,-120.7162152
1570,Olive Avenue,95334,37.3966134,-120.7160206
1570,Olive Avenue,95334,37.3966137,-120.7158502
1570,Olive Avenue,95334,37.3966140,-120.7156816
1573,Harvest Avenue,95334,37.3957502,-120.7155371
1576,Olive Avenue,95334,37.3960702,-120.7155945
1576,Olive Avenue,95334,37.3960944,-120.7161512
1576,Olive Avenue,95334,37.3960947,-120.7159575
1576,Olive Avenue,95334,37.3960950,-120.7157883
1576,Olive Avenue,95334,37.3960954,-120.7155946
1576,Olive Avenue,95334,37.3961447,-120.7161513
1576,Olive Avenue,95334,37.3961451,-120.7159576
1576,Olive Avenue,95334,37.3961454,-120.7157884
1576,Olive Avenue,95334,37.3961457,-120.7155947
1576,Olive Avenue,95334,37.3961699,-120.7161514
1576,Olive Avenue,95334,37.3961702,-120.7159577
1576,Olive Avenue,95334,37.3961706,-120.7157885
1576,Olive Avenue,95334,37.3961709,-120.7155948
1576,Pinecrest Drive,95334,37.3764384,-120.7372892
1580,Grapevine Drive,95334,37.3933078,-120.7154010
1581,Bay Meadow Lane,95334,37.3774555,-120.7344242
1581,Duke Drive,95334,37.3756153,-120.7324238
1583,Grapevine Drive,95334,37.3937464,-120.7153702
1582,Montecito Drive,95334,37.3774067,-120.7327695
1582,Queen Way,95334,37.3757665,-120.7307035
1584,Chianti Court,95334,37.3757434,-120.7102350
1584,Duke Drive,95334,37.3755826,-120.7320353
1585,Amaretto Way,95334,37.3756739,-120.7065581
1585,Monte Cristo Way,95334,37.3755785,-120.7317186
1587,Bay Meadow Lane,95334,37.3770779,-120.7344110
1587,Harvest Avenue,95334,37.3957509,-120.7153249
1587,Vieira Street,95334,37.3762856,-120.7392181
1593,Bay Meadow Lane,95334,37.3768934,-120.7344096
1597,Vieira Street,95334,37.3761071,-120.7392218
1598,Pinecrest Drive,95334,37.3760742,-120.7372613
1599,Bay Meadow Lane,95334,37.3767261,-120.7344122
1594,Bay Meadow Lane,95334,37.3768558,-120.7337935
1594,Grapevine Drive,95334,37.3933084,-120.7151945
1601,Chianti Court,95334,37.3755069,-120.7096472
1601,Harvest Avenue,95334,37.3957516,-120.7151071
1601,Lambrusco Lane,95334,37.3755259,-120.7087947
1601,Rose Court,95334,37.3757645,-120.7078938
1602,1St Street,95334,37.3758708,-120.7262254
1602,2nd Street,95334,37.3759257,-120.7250710
1595,Duke Drive,95334,37.3754913,-120.7324234
1596,Queen Way,95334,37.3756234,-120.7307031
1597,Grapevine Drive,95334,37.3937477,-120.7151650
1607,Spruce Court,95334,37.3758920,-120.7383346
1607,Swan Street,95334,37.3903761,-120.7177902
1607,Swan Street,95334,37.3903811,-120.7178432
1607,Swan Street,95334,37.3904059,-120.7179285
1607,Swan Street,95334,37.3904138,-120.7180053
1607,Swan Street,95334,37.3904443,-120.7179098
1607,Swan Street,95334,37.3904499,-120.7179860
1607,Swan Street,95334,37.3904509,-120.7181232
1607,Swan Street,95334,37.3904826,-120.7181065
1607,Vieira Street,95334,37.3759286,-120.7392255
1608,8th Street,95334,37.3758052,-120.7168906
1618,Chardonnay Way,95334,37.3753814,-120.7111026
1618,Chianti Court,95334,37.3753152,-120.7102792
1618,Citrus Court,95334,37.3960151,-120.7148972
1618,Joseph Street,95334,37.3756497,-120.7180302
1618,Lambrusco Lane,95334,37.3753886,-120.7093472
1600,Bay Meadow Lane,95334,37.3766411,-120.7337938
1601,1St Street,95334,37.3758022,-120.7255900
1601,2nd Street,95334,37.3759465,-120.7243994
1601,Amaretto Way,95334,37.3755231,-120.7065690
1601,Chardonnay Way,95334,37.3755632,-120.7105827
1602,Chardonnay Way,95334,37.3755596,-120.7111002
1602,Chianti Court,95334,37.3755723,-120.7102696
1602,Citrus Court,95334,37.3960354,-120.7152162
1602,Lambrusco Lane,95334,37.3755409,-120.7093451
1602,Main Street,95334,37.3759395,-120.7238488
1603,Citrus Court,95334,37.3965435,-120.7152184
1603,Emerald Drive,95334,37.3761561,-120.7285379
1603,Swan Street,95334,37.3901901,-120.7181051
1603,Swan Street,95334,37.3902275,-120.7180840
1603,Swan Street,95334,37.3902538,-120.7181647
1603,Swan Street,95334,37.3902807,-120.7182384
1603,Swan Street,95334,37.3902818,-120.7181480
1603,Swan Street,95334,37.3903088,-120.7182216
1603,Swan Street,95334,37.3903355,-120.7183238
1603,Swan Street,95334,37.3903596,-120.7183945
1603,Swan Street,95334,37.3903633,-120.7183041
1603,Swan Street,95334,37.3903873,-120.7183747
1604,C Street,95334,37.3848463,-120.7208094
1604,Joseph Street,95334,37.3758447,-120.7180264
1605,Bay Meadow Lane,95334,37.3765588,-120.7344188
1605,C Street,95334,37.3853543,-120.7207994
1605,Joseph Street,95334,37.3758063,-120.7173897
1605,Sapphire Drive,95334,37.3761974,-120.7303363
1617,Chardonnay Way,95334,37.3753985,-120.7105860
1617,Chianti Court,95334,37.3752614,-120.7097080
1617,Harvest Avenue,95334,37.3957524,-120.7148893
1617,Joseph Street,95334,37.3756498,-120.7173935
1617,Lambrusco Lane,95334,37.3753735,-120.7087967
1617,Rose Court,95334,37.3755939,-120.7078678
1617,Sapphire Drive,95334,37.3758678,-120.7303429
1608,Hammatt Avenue,95334,37.3757446,-120.7146379
1608,Jantz Drive,95334,37.3765361,-120.7327446
1608,Vieira Street,95334,37.3758925,-120.7386729
1609,8th Street,95334,37.3757454,-120.7162558
1609,Duke Drive,95334,37.3753578,-120.7324230
1611,Grapevine Drive,95334,37.3937484,-120.7149585
1611,Sapphire Drive,95334,37.3760326,-120.7303396
1609,Emerald Drive,95334,37.3759999,-120.7284724
1609,Park Street,95334,37.3787784,-120.7208407
1609,Prusso Street,95334,37.3760060,-120.7267043
1610,9th Street,95334,37.3757139,-120.7157568
1610,Crowell Street,95334,37.3880311,-120.7192575
1610,Grapevine Drive,95334,37.3933090,-120.7149879
1610,Queen Way,95334,37.3754804,-120.7307026
1610,Sapphire Drive,95334,37.3760204,-120.7297832
1611,2nd Street,95334,37.3757543,-120.7244036
1611,9th Street,95334,37.3757400,-120.7151021
1611,Bay Meadow Lane,95334,37.3763914,-120.7344291
1613,C Street,95334,37.3853521,-120.7206274
1612,C Street,95334,37.3848441,-120.7206373
1612,Crowell Street,95334,37.3880914,-120.7193307
1612,Main Street,95334,37.3757610,-120.7238527
1614,Jantz Drive,95334,37.3762970,-120.7327833
1615,E Street,95334,37.3835946,-120.7206619
1615,Emerald Drive,95334,37.3758436,-120.7284068
1625,1St Street,95334,37.3756100,-120.7255942
1625,2nd Street,95334,37.3755621,-120.7244077
1625,E Street,95334,37.3835925,-120.7204898
1625,Grapevine Drive,95334,37.3937541,-120.7147066
1628,8th Street,95334,37.3754957,-120.7168974
1616,2nd Street,95334,37.3756731,-120.7250765
1616,8th Street,95334,37.3756508,-120.7168944
1616,D Street,95334,37.3839598,-120.7206547
1616,E Street,95334,37.3831922,-120.7207335
1616,Front Street,95334,37.3856047,-120.7206317
1616,Sapphire Drive,95334,37.3758378,-120.7297738
1617,Amaretto Way,95334,37.3753723,-120.7065799
1617,Bay Meadow Lane,95334,37.3762236,-120.7344383
1618,Prusso Street,95334,37.3757916,-120.7274487
1618,Rose Court,95334,37.3754825,-120.7085071
164,B Street,95334,37.3856530,-120.7395583
1640,1St Street,95334,37.3754225,-120.7262351
1640,2nd Street,95334,37.3754150,-120.7250821
1640,E Street,95334,37.3831655,-120.7202791
1645,Prusso Street,95334,37.3754087,-120.7267173
1646,Crowell Street,95334,37.3874682,-120.7187171
1646,Hammatt Avenue,95334,37.3752042,-120.7146509
1619,Citrus Court,95334,37.3965654,-120.7149008
1619,Prusso Street,95334,37.3758069,-120.7267086
1620,1St Street,95334,37.3756535,-120.7262301
1620,Crowell Street,95334,37.3878555,-120.7192147
1620,Hammatt Avenue,95334,37.3755668,-120.7146414
1620,Jantz Drive,95334,37.3761244,-120.7327839
1622,9th Street,95334,37.3755492,-120.7157600
1622,Sapphire Drive,95334,37.3756601,-120.7297608
1621,8th Street,95334,37.3755806,-120.7162590
1621,Emerald Drive,95334,37.3756656,-120.7283233
1621,Front Street,95334,37.3857811,-120.7201342
1630,Citrus Court,95334,37.3960505,-120.7146609
1624,Grapevine Drive,95334,37.3933111,-120.7147692
1623,9th Street,95334,37.3755650,-120.7151056
1623,Bay Meadow Lane,95334,37.3760558,-120.7344437
1623,C Street,95334,37.3853500,-120.7204553
1623,Duke Drive,95334,37.3752099,-120.7324285
1623,Jantz Drive,95334,37.3759893,-120.7333965
1623,Sapphire Drive,95334,37.3757023,-120.7303429
1626,C Street,95334,37.3848419,-120.7204653
1626,Crowell Street,95334,37.3877576,-120.7190940
1626,D Street,95334,37.3839577,-120.7204827
1626,Jantz Drive,95334,37.3759520,-120.7327856
1626,Main Street,95334,37.3755688,-120.7238569
1629,Sapphire Drive,95334,37.3754893,-120.7303805
1629,Spruce Court,95334,37.3757220,-120.7383349
1629,Vieira Street,95334,37.3757502,-120.7392292
1628,Bay Meadow Lane,95334,37.3759890,-120.7338067
1630,Prusso Street,95334,37.3756266,-120.7274159
1631,Harvest Avenue,95334,37.3957541,-120.7146607
1631,Joseph Street,95334,37.3754549,-120.7173973
1631,Prusso Street,95334,37.3756078,-120.7267130
1632,Chianti Court,95334,37.3752244,-120.7100330
1632,Crowell Street,95334,37.3876597,-120.7189733
1632,Hammatt Avenue,95334,37.3753890,-120.7146449
1632,Jantz Drive,95334,37.3757795,-120.7327872
1632,Joseph Street,95334,37.3754541,-120.7180341
1632,Rose Court,95334,37.3752611,-120.7084269
1632,Vieira Street,95334,37.3757221,-120.7386791
1633,8th Street,95334,37.3754159,-120.7162623
1633,Amaretto Way,95334,37.3752114,-120.7065927
1633,Chardonnay Way,95334,37.3752195,-120.7105891
1633,Citrus Court,95334,37.3965297,-120.7146648
1633,Crowell Street,95334,37.3880854,-120.7184465
1633,Lambrusco Lane,95334,37.3752111,-120.7087994
1633,Park Street,95334,37.3787723,-120.7203615
1633,Rose Court,95334,37.3753612,-120.7078562
1634,9th Street,95334,37.3753844,-120.7157633
1634,Chardonnay Way,95334,37.3752107,-120.7111072
1634,Lambrusco Lane,95334,37.3752183,-120.7093523
1635,9th Street,95334,37.3753909,-120.7151098
1635,Bay Meadow Lane,95334,37.3757204,-120.7344431
1635,C Street,95334,37.3853463,-120.7202839
1635,E Street,95334,37.3835903,-120.7203178
1636,C Street,95334,37.3848387,-120.7202072
1636,D Street,95334,37.3839555,-120.7203106
1638,8th Street,95334,37.3753405,-120.7169005
1638,Crowell Street,95334,37.3875618,-120.7188525
1638,Grapevine Drive,95334,37.3933072,-120.7143278
1638,Jantz Drive,95334,37.3756070,-120.7327889
1639,2nd Street,95334,37.3752915,-120.7242521
1639,2nd Street,95334,37.3753711,-120.7244154
1639,Crowell Street,95334,37.3879680,-120.7183016
1641,1St Street,95334,37.3754021,-120.7255987
1641,Bay Meadow Lane,95334,37.3755195,-120.7344860
1645,6th Street,95334,37.3835882,-120.7201457
1642,Prusso Street,95334,37.3754485,-120.7273805
1649,8th Street,95334,37.3752210,-120.7162671
1649,Rose Court,95334,37.3752339,-120.7080868
1644,D Street,95334,37.3839534,-120.7201385
1644,F Street,95334,37.3820666,-120.7202957
1644,Jantz Drive,95334,37.3754339,-120.7327905
1650,Jantz Drive,95334,37.3752385,-120.7327901
1648,8th Street,95334,37.3751853,-120.7169049
1648,9th Street,95334,37.3752061,-120.7157690
1648,Joseph Street,95334,37.3752296,-120.7180394
1647,9th Street,95334,37.3752062,-120.7151121
1647,Crowell Street,95334,37.3878506,-120.7181682
1647,Joseph Street,95334,37.3752225,-120.7174028
1654,1St Street,95334,37.3752010,-120.7262409
1654,Main Street,95334,37.3751779,-120.7238667
1654,Prusso Street,95334,37.3752358,-120.7273340
1651,Walnut Avenue,95334,37.3897314,-120.7177171
1652,Grapevine Drive,95334,37.3933119,-120.7141004
1653,Spruce Court,95334,37.3755572,-120.7383384
1653,Vieira Street,95334,37.3755717,-120.7392330
1655,2nd Street,95334,37.3751745,-120.7244174
1656,Spruce Court,95334,37.3754124,-120.7378038
1656,Vieira Street,95334,37.3755573,-120.7386826
1702,E Street,95334,37.3831570,-120.7195934
1702,Sun Valley Avenue,95334,37.3747747,-120.7282056
1703,E Street,95334,37.3835805,-120.7197425
1676,Vieira Street,95334,37.3753917,-120.7386860
1675,Bird Street,95334,37.4055151,-120.7280376
1675,Spruce Court,95334,37.3753916,-120.7383418
1675,Vieira Street,95334,37.3753959,-120.7392366
1847,York Avenue,95334,37.3726543,-120.7270060
1708,Crowell Street,95334,37.3872907,-120.7183814
1728,Sun Valley Avenue,95334,37.3743932,-120.7282172
1697,Spruce Court,95334,37.3752112,-120.7383074
1697,Vieira Street,95334,37.3752208,-120.7392437
1698,Vieira Street,95334,37.3752205,-120.7386868
1700,Crowell Street,95334,37.3873737,-120.7185553
1704,C Street,95334,37.3848325,-120.7197133
1706,D Street,95334,37.3839457,-120.7197353
1701,Sun Valley Avenue,95334,37.3747863,-120.7287339
1701,Walnut Avenue,95334,37.3897460,-120.7170323
1720,Hickory Avenue,95334,37.3912692,-120.7172647
1709,Crowell Street,95334,37.3877494,-120.7180161
1709,Hickory Avenue,95334,37.3915720,-120.7177388
1714,Ash Court,95334,37.3900177,-120.7167088
1714,Sun Valley Avenue,95334,37.3745783,-120.7282136
1716,C Street,95334,37.3848303,-120.7195361
1717,Hickory Avenue,95334,37.3916728,-120.7175248
1718,D Street,95334,37.3839435,-120.7195633
1711,Sun Valley Avenue,95334,37.3746187,-120.7287332
1719,Crowell Street,95334,37.3876440,-120.7178574
1725,Crowell Street,95334,37.3875300,-120.7177230
1725,Hickory Avenue,95334,37.3917549,-120.7173048
1726,Ash Court,95334,37.3899914,-120.7163894
1723,E Street,95334,37.3835761,-120.7193984
1723,Sun Valley Avenue,95334,37.3744676,-120.7287361
1724,D Street,95334,37.3839414,-120.7193912
1724,Main Street,95334,37.3732795,-120.7257125
1770,Hickory Avenue,95334,37.3915331,-120.7161728
1773,Hickory Avenue,95334,37.3920102,-120.7160943
1729,Crowell Street,95334,37.3873347,-120.7174965
1730,Hickory Avenue,95334,37.3913503,-120.7170293
1731,E Street,95334,37.3835740,-120.7192263
1731,Walnut Avenue,95334,37.3897480,-120.7168095
1740,Hickory Avenue,95334,37.3913917,-120.7168056
1735,Sun Valley Avenue,95334,37.3743166,-120.7287389
1736,Ash Court,95334,37.3901406,-120.7161956
1736,C Street,95334,37.3848228,-120.7189338
1737,E Street,95334,37.3835718,-120.7190542
1733,Hickory Avenue,95334,37.3918073,-120.7170952
1733,Park Street,95334,37.3788336,-120.7193043
1734,D Street,95334,37.3839392,-120.7192191
1741,Hickory Avenue,95334,37.3918492,-120.7168954
1741,Walnut Avenue,95334,37.3897487,-120.7166030
1745,Sun Valley Avenue,95334,37.3741656,-120.7287418
1746,Ash Court,95334,37.3904545,-120.7162212
1742,Sun Valley Avenue,95334,37.3742090,-120.7282209
1744,D Street,95334,37.3839371,-120.7190471
1749,Hickory Avenue,95334,37.3918877,-120.7166954
1750,E Street,95334,37.3831158,-120.7190520
1751,Park Street,95334,37.3788295,-120.7189774
1751,Walnut Avenue,95334,37.3897493,-120.7163964
1755,Sun Valley Avenue,95334,37.3740141,-120.7287473
1756,Ash Court,95334,37.3905111,-120.7164799
1756,D Street,95334,37.3839349,-120.7188750
1756,Sun Valley Avenue,95334,37.3740252,-120.7282245
1757,Hickory Avenue,95334,37.3919265,-120.7164940
1760,Hickory Avenue,95334,37.3914757,-120.7164018
1761,Walnut Avenue,95334,37.3897506,-120.7161883
1767,Sun Valley Avenue,95334,37.3738635,-120.7287530
1762,Walnut Avenue,95334,37.3893661,-120.7161620
1765,Hickory Avenue,95334,37.3919681,-120.7162942
1821,Wells Avenue,95334,37.3731165,-120.7301908
1822,C Street,95334,37.3849387,-120.7181340
1770,Ash Court,95334,37.3904409,-120.7167934
1802,Hickory Avenue,95334,37.3916903,-120.7153210
1803,F Street,95334,37.3823951,-120.7184810
1777,Sun Valley Avenue,95334,37.3737049,-120.7287631
1780,Hickory Avenue,95334,37.3916123,-120.7158674
1780,Sun Valley Avenue,95334,37.3737759,-120.7282317
1781,Hickory Avenue,95334,37.3920722,-120.7158433
1781,Walnut Avenue,95334,37.3897046,-120.7159141
1789,Wells Avenue,95334,37.3736630,-120.7302329
1801,D Street,95334,37.3848389,-120.7165758
1801,Walnut Avenue,95334,37.3897063,-120.7153607
1801,Wells Avenue,95334,37.3734329,-120.7302055
1808,F Street,95334,37.3819510,-120.7184732
1808,F Street,95334,37.3819889,-120.7184733
1808,F Street,95334,37.3820268,-120.7184734
1808,H Street,95334,37.3793797,-120.7184495
1809,Virginia Avenue,95334,37.3769241,-120.7184978
1804,Sun Valley Avenue,95334,37.3733562,-120.7282521
1807,Crowell Street,95334,37.3868925,-120.7167495
1808,F Street,95334,37.3819128,-120.7184752
1810,Park Street,95334,37.3783246,-120.7184703
1811,Park Street,95334,37.3788332,-120.7184603
1811,Wells Avenue,95334,37.3732717,-120.7301879
1813,F Street,95334,37.3823927,-120.7182289
1818,F Street,95334,37.3819130,-120.7183547
1818,F Street,95334,37.3819512,-120.7183527
1818,F Street,95334,37.3819891,-120.7183528
1818,F Street,95334,37.3820270,-120.7183529
1816,D Street,95334,37.3838200,-120.7179778
1820,Sun Valley Avenue,95334,37.3731790,-120.7282563
1826,D Street,95334,37.3838160,-120.7176599
1826,D Street,95334,37.3840031,-120.7183831
1830,D Street,95334,37.3839102,-120.7176542
1830,Walnut Avenue,95334,37.3892743,-120.7152186
1831,Wells Avenue,95334,37.3729655,-120.7301935
1832,F Street,95334,37.3819081,-120.7180553
1832,F Street,95334,37.3819463,-120.7180532
1832,F Street,95334,37.3819842,-120.7180534
1832,F Street,95334,37.3820221,-120.7180535
1840,Walnut Avenue,95334,37.3893281,-120.7148812
1845,H Street,95334,37.3807096,-120.7176058
1835,F Street,95334,37.3824551,-120.7178328
1836,Sun Valley Avenue,95334,37.3730019,-120.7282539
1838,St Ives Avenue,95334,37.3728409,-120.7254400
1848,Southport Avenue,95334,37.3726543,-120.7273444
1848,St Ives Avenue,95334,37.3726597,-120.7255265
1848,Sun Valley Avenue,95334,37.3726541,-120.7282391
1848,York Avenue,95334,37.3726544,-120.7264496
1841,Virginia Avenue,95334,37.3769178,-120.7179989
1841,Wells Avenue,95334,37.3728144,-120.7301963
1841,Yagi Street,95334,37.3883150,-120.7154376
1842,F Street,95334,37.3819083,-120.7179417
1842,F Street,95334,37.3819465,-120.7179397
1842,F Street,95334,37.3819844,-120.7179398
1842,F Street,95334,37.3820223,-120.7179399
1846,H Street,95334,37.3794616,-120.7179488
1847,Southport Avenue,95334,37.3726542,-120.7279008
1847,St Ives Avenue,95334,37.3726545,-120.7261113
1851,Park Street,95334,37.3787388,-120.7179630
1851,Wells Avenue,95334,37.3726634,-120.7301991
1870,Southport Avenue,95334,37.3723449,-120.7273472
1870,Sun Valley Avenue,95334,37.3723447,-120.7282419
1870,York Avenue,95334,37.3723450,-120.7264525
1850,Park Street,95334,37.3783293,-120.7179711
1855,Yagi Street,95334,37.3882248,-120.7151899
1854,F Street,95334,37.3819343,-120.7176850
1859,Southport Avenue,95334,37.3724959,-120.7278978
1859,St Ives Avenue,95334,37.3724962,-120.7261084
1859,York Avenue,95334,37.3724960,-120.7270031
1860,Southport Avenue,95334,37.3724960,-120.7273472
1860,St Ives Avenue,95334,37.3725079,-120.7255486
1860,Sun Valley Avenue,95334,37.3724958,-120.7282420
1860,York Avenue,95334,37.3724961,-120.7264525
1861,Wells Avenue,95334,37.3725124,-120.7302019
1865,Main Street,95334,37.3725485,-120.7231447
1871,Southport Avenue,95334,37.3723448,-120.7278978
1871,St Ives Avenue,95334,37.3723451,-120.7261083
1871,Wells Avenue,95334,37.3723542,-120.7302048
1871,York Avenue,95334,37.3723450,-120.7270031
1872,St Ives Avenue,95334,37.3723545,-120.7255499
1883,Southport Avenue,95334,37.3721937,-120.7278978
1882,Main Street,95334,37.3727290,-120.7240013
1883,St Ives Avenue,95334,37.3721941,-120.7261083
1883,Wells Avenue,95334,37.3721540,-120.7302325
1883,York Avenue,95334,37.3721939,-120.7270030
1884,Southport Avenue,95334,37.3721938,-120.7273472
1884,St Ives Avenue,95334,37.3722036,-120.7255360
1884,Sun Valley Avenue,95334,37.3721937,-120.7282419
1884,York Avenue,95334,37.3721940,-120.7264524
1895,Southport Avenue,95334,37.3720427,-120.7278977
1895,St Ives Avenue,95334,37.3720430,-120.7261082
1895,York Avenue,95334,37.3720428,-120.7270030
1896,Southport Avenue,95334,37.3720428,-120.7273471
1896,St Ives Avenue,95334,37.3720526,-120.7255223
1896,Sun Valley Avenue,95334,37.3720426,-120.7282419
1896,York Avenue,95334,37.3720429,-120.7264524
1904,D Street,95334,37.3839129,-120.7174477
1909,Southport Avenue,95334,37.3718844,-120.7279006
1909,St Ives Avenue,95334,37.3718847,-120.7261111
1909,York Avenue,95334,37.3718845,-120.7270058
1905,Sun Valley Avenue,95334,37.3719500,-120.7288249
1906,F Street,95334,37.3819317,-120.7174785
1906,Main Street,95334,37.3723478,-120.7239432
1910,H Street,95334,37.3794536,-120.7173122
1910,Southport Avenue,95334,37.3718845,-120.7273442
1910,St Ives Avenue,95334,37.3718905,-120.7255208
1910,Sun Valley Avenue,95334,37.3718839,-120.7282413
1910,York Avenue,95334,37.3718846,-120.7264494
1914,D Street,95334,37.3836568,-120.7173752
1915,Sun Valley Avenue,95334,37.3717939,-120.7288579
1918,F Street,95334,37.3819291,-120.7172720
1920,8th Street,95334,37.3836400,-120.7166674
1928,F Street,95334,37.3823796,-120.7172942
1929,Sun Valley Avenue,95334,37.3715775,-120.7288922
1923,F Street,95334,37.3824482,-120.7172944
1930,F Street,95334,37.3819265,-120.7170655
1934,Park Street,95334,37.3783058,-120.7169615
1925,F Street,95334,37.3823384,-120.7172940
1926,D Street,95334,37.3838091,-120.7171124
1932,D Street,95334,37.3838070,-120.7169438
1940,F Street,95334,37.3819239,-120.7168591
1942,D Street,95334,37.3839452,-120.7167569
1945,Park Street,95334,37.3787246,-120.7168274
1946,Park Street,95334,37.3783785,-120.7161975
1944,H Street,95334,37.3794474,-120.7168132
1950,F Street,95334,37.3819213,-120.7166526
1952,D Street,95334,37.3837967,-120.7167097
2035,F Street,95334,37.3824789,-120.7155623
2035,F Street,95334,37.3825114,-120.7155624
2035,F Street,95334,37.3825440,-120.7155625
2035,Glenmoor Place,95334,37.3923192,-120.7132998
2035,Grapevine Drive,95334,37.3937673,-120.7133067
2035,Kishi Drive,95334,37.3965564,-120.7133647
2035,Park Street,95334,37.3787351,-120.7158043
2035,Virginia Avenue,95334,37.3769341,-120.7157344
2035,Wakami Drive,95334,37.3945227,-120.7132968
2005,Park Street,95334,37.3787484,-120.7163204
2005,Valley Oak Way,95334,37.3916474,-120.7135564
2000,Glenmoor Place,95334,37.3921253,-120.7138870
2026,Virginia Avenue,95334,37.3765692,-120.7162395
2027,Valley Oak Way,95334,37.3916199,-120.7131276
2013,F Street,95334,37.3823410,-120.7161124
2013,Valley Oak Way,95334,37.3916196,-120.7133254
2014,Aspenglen Way,95334,37.3925775,-120.7138025
2014,Glenmoor Place,95334,37.3918842,-120.7138333
2015,Glenmoor Place,95334,37.3923411,-120.7138050
2015,Loma Vista Court,95334,37.3902067,-120.7133731
2016,Valley Oak Way,95334,37.3911759,-120.7133615
2015,Pajaro Court,95334,37.3909058,-120.7133632
2015,Park Street,95334,37.3787463,-120.7161483
2016,Loma Vista Court,95334,37.3897756,-120.7133826
2016,Pajaro Court,95334,37.3904767,-120.7133712
2023,F Street,95334,37.3823307,-120.7158401
2024,Aspenglen Way,95334,37.3925648,-120.7135188
2024,Glenmoor Place,95334,37.3918496,-120.7135537
2039,Valley Oak Way,95334,37.3916203,-120.7129331
2025,Glenmoor Place,95334,37.3923568,-120.7135183
2025,Kishi Drive,95334,37.3965874,-120.7136431
2025,Park Street,95334,37.3787372,-120.7159764
2029,Loma Vista Court,95334,37.3902255,-120.7131428
2029,Pajaro Court,95334,37.3909227,-120.7131374
2034,Aspenglen Way,95334,37.3925924,-120.7132999
2034,Glenmoor Place,95334,37.3918913,-120.7133247
2034,Grapevine Drive,95334,37.3933128,-120.7133008
2034,Park Street,95334,37.3783580,-120.7156994
2034,Wakami Drive,95334,37.3940677,-120.7133048
2035,Aspenglen Way,95334,37.3930376,-120.7133269
2035,F Street,95334,37.3824138,-120.7155621
2035,F Street,95334,37.3824464,-120.7155622
2030,Loma Vista Court,95334,37.3897592,-120.7131552
2030,Pajaro Court,95334,37.3904626,-120.7131421
2030,Valley Oak Way,95334,37.3911790,-120.7131533
2111,Aspenglen Way,95334,37.3930385,-120.7120406
2111,Grapevine Drive,95334,37.3937692,-120.7120425
2037,F Street,95334,37.3824142,-120.7153625
2037,F Street,95334,37.3824467,-120.7153626
2037,F Street,95334,37.3824793,-120.7153627
2037,F Street,95334,37.3825118,-120.7153628
2037,F Street,95334,37.3825444,-120.7153629
2036,D Street,95334,37.3836455,-120.7144525
2040,Valley Oak Way,95334,37.3911794,-120.7129640
2042,D Street,95334,37.3836865,-120.7146892
2042,D Street,95334,37.3836907,-120.7154124
2045,Loma Vista Court,95334,37.3902512,-120.7128459
2045,Pajaro Court,95334,37.3909512,-120.7128366
2045,Park Street,95334,37.3787298,-120.7155991
2050,Loma Vista Court,95334,37.3898615,-120.7126855
2050,Pajaro Court,95334,37.3905634,-120.7126724
2050,Valley Oak Way,95334,37.3911798,-120.7127746
2046,Aspenglen Way,95334,37.3925935,-120.7131101
2046,Glenmoor Place,95334,37.3918945,-120.7131285
2046,Grapevine Drive,95334,37.3933145,-120.7130549
2046,Loma Vista Court,95334,37.3897324,-120.7128556
2046,Pajaro Court,95334,37.3904360,-120.7128422
2047,Aspenglen Way,95334,37.3930364,-120.7131077
2047,Glenmore Place,95334,37.3923189,-120.7131092
2047,Grapevine Drive,95334,37.3937674,-120.7130805
2047,Kishi Drive,95334,37.3965401,-120.7131623
2047,Wakami Drive,95334,37.3945227,-120.7130640
2049,Loma Vista Court,95334,37.3901246,-120.7126822
2049,Pajaro Court,95334,37.3908242,-120.7126688
2049,Valley Oak Way,95334,37.3916214,-120.7127422
2060,Valley Oak Way,95334,37.3911803,-120.7125853
2054,Aspenglen Way,95334,37.3925939,-120.7129208
2054,Glenmoor Place,95334,37.3918949,-120.7129340
2054,Grapevine Drive,95334,37.3933147,-120.7128414
2054,Wakami Drive,95334,37.3940699,-120.7128748
2055,Aspenglen Way,95334,37.3930368,-120.7128943
2055,Glenmoor Place,95334,37.3923193,-120.7129199
2055,Grapevine Drive,95334,37.3937678,-120.7128740
2055,Kishi Drive,95334,37.3965404,-120.7129558
2055,Wakami Drive,95334,37.3945231,-120.7128403
2065,Aspenglen Way,95334,37.3930370,-120.7126809
2065,Glenmoor Place,95334,37.3923204,-120.7127290
2065,Grapevine Drive,95334,37.3937681,-120.7126675
2064,Aspenglen Way,95334,37.3925951,-120.7127269
2064,Glenmoor Place,95334,37.3918961,-120.7127401
2064,Grapevine Drive,95334,37.3933149,-120.7126349
2064,Wakami Drive,95334,37.3940702,-120.7126683
2065,Kishi Drive,95334,37.3965406,-120.7127492
2065,Wakami Drive,95334,37.3945235,-120.7126165
2074,Valley Oak Way,95334,37.3911778,-120.7123924
2075,Kishi Drive,95334,37.3965409,-120.7125427
2085,Grapevine Drive,95334,37.3937685,-120.7124609
2085,Kishi Drive,95334,37.3965411,-120.7123036
2150,Kapreil Way,95334,37.3911848,-120.7109559
2150,Karina Lau Court,95334,37.3918981,-120.7109377
2086,Grapevine Drive,95334,37.3933153,-120.7124284
2086,Valley Oak Way,95334,37.3911428,-120.7121674
2086,Wakami Drive,95334,37.3940707,-120.7124617
2087,Aspenglen Way,95334,37.3930374,-120.7124675
2089,Wakami Drive,95334,37.3945295,-120.7123829
2094,Valley Oak Way,95334,37.3911967,-120.7119207
2099,Aspenglen Way,95334,37.3930381,-120.7122540
2099,Grapevine Drive,95334,37.3937689,-120.7122527
2106,D Street,95334,37.3837478,-120.7150030
2100,Grapevine Drive,95334,37.3933159,-120.7122218
2100,Wakami Drive,95334,37.3940720,-120.7122535
2100,Zinfandel Drive,95334,37.3761518,-120.7136762
2103,Del Dotto Court,95334,37.3802105,-120.7153256
2114,Cardella Court,95334,37.3790063,-120.7148934
2114,Del Dotto Court,95334,37.3797259,-120.7150107
2114,Grapevine Drive,95334,37.3933163,-120.7120153
2114,Wakami Drive,95334,37.3940905,-120.7120490
2115,Cardella Court,95334,37.3795216,-120.7150745
2109,Wakami Drive,95334,37.3945657,-120.7121490
2118,Park Street,95334,37.3783500,-120.7150954
2118,Virginia Avenue,95334,37.3766330,-120.7151315
2117,Park Street,95334,37.3787444,-120.7149011
2117,Virginia Avenue,95334,37.3770018,-120.7151254
2115,Del Dotto Court,95334,37.3802351,-120.7150016
2123,Aspenglen Way,95334,37.3930396,-120.7118291
2123,Grapevine Drive,95334,37.3937711,-120.7118071
2123,Kinoshita Court,95334,37.3958035,-120.7117503
2123,Kishi Drive,95334,37.3965418,-120.7117535
2123,Wakami Drive,95334,37.3946346,-120.7119366
2121,Cardella Court,95334,37.3794640,-120.7148149
2121,Del Dotto Court,95334,37.3801229,-120.7147881
2126,Grapevine Drive,95334,37.3933163,-120.7117991
2126,Kinoshita Court,95334,37.3952259,-120.7116096
2126,Wakami Drive,95334,37.3941211,-120.7118114
2124,Cardella Court,95334,37.3791989,-120.7147992
2124,Del Dotto Court,95334,37.3798327,-120.7147935
2124,Kishi Drive,95334,37.3960973,-120.7117448
2130,Aspenglen Way,95334,37.3925926,-120.7112769
2130,Kapreil Way,95334,37.3911807,-120.7113601
2130,Karina Lau Court,95334,37.3918940,-120.7113434
2131,Park Street,95334,37.3787416,-120.7146785
2133,Kapreil Way,95334,37.3916241,-120.7113456
2133,Karina Lau Court,95334,37.3923217,-120.7113150
2133,Kinoshita Court,95334,37.3958239,-120.7115247
2133,Kishi Drive,95334,37.3965421,-120.7115485
2133,Wakami Drive,95334,37.3948676,-120.7114667
2134,Kishi Drive,95334,37.3960985,-120.7115252
2131,Virginia Avenue,95334,37.3770833,-120.7148386
2132,Park Street,95334,37.3782646,-120.7148153
2132,Virginia Avenue,95334,37.3765516,-120.7148558
2140,Aspenglen Way,95334,37.3925978,-120.7110498
2140,Kapreil Way,95334,37.3911842,-120.7111452
2140,Karina Lau Court,95334,37.3918976,-120.7111271
2142,Kinoshita Court,95334,37.3953296,-120.7113447
2143,Aspenglen Way,95334,37.3930400,-120.7110638
2143,Kapreil Way,95334,37.3916230,-120.7111260
2143,Karina Lau Court,95334,37.3923234,-120.7110912
2143,Kinoshita Court,95334,37.3958242,-120.7113078
2143,Kishi Drive,95334,37.3965423,-120.7113419
2143,Wakami Drive,95334,37.3949451,-120.7112829
2144,Kishi Drive,95334,37.3960988,-120.7113084
2146,Virginia Avenue,95334,37.3766429,-120.7145685
215,Lilac Lane,95334,37.3789193,-120.7410997
2150,Aspenglen Way,95334,37.3925981,-120.7108502
2153,Aspenglen Way,95334,37.3930405,-120.7108743
2153,Kapreil Way,95334,37.3916234,-120.7109367
2153,Karina Lau Court,95334,37.3923239,-120.7109002
2153,Kinoshita Court,95334,37.3958244,-120.7110910
2153,Kishi Drive,95334,37.3965426,-120.7111354
2153,Wakami Drive,95334,37.3950146,-120.7110947
2160,Aspenglen Way,95334,37.3925985,-120.7106505
2160,Kapreil Way,95334,37.3911855,-120.7107666
2160,Karina Lau Court,95334,37.3918770,-120.7107148
2154,Kinoshita Court,95334,37.3953600,-120.7110995
2154,Kishi Drive,95334,37.3960991,-120.7110915
2163,Aspenglen Way,95334,37.3930412,-120.7106851
2163,Kapreil Way,95334,37.3916239,-120.7107474
2163,Karina Lau Court,95334,37.3923511,-120.7106843
2163,Kinoshita Court,95334,37.3958247,-120.7108741
2163,Kishi Drive,95334,37.3965428,-120.7109288
2163,Wakami Drive,95334,37.3950883,-120.7108940
2164,Kinoshita Court,95334,37.3953908,-120.7108783
2164,Kishi Drive,95334,37.3960993,-120.7108746
2173,Aspenglen Way,95334,37.3930411,-120.7104959
2173,Kapreil Way,95334,37.3916243,-120.7105581
2173,Karina Lau Court,95334,37.3923146,-120.7104464
2170,Aspenglen Way,95334,37.3925995,-120.7104512
2170,Kapreil Way,95334,37.3911860,-120.7105772
2170,Karina Lau Court,95334,37.3919083,-120.7104565
2174,Kishi Drive,95334,37.3960996,-120.7106578
2173,Kinoshita Court,95334,37.3958250,-120.7106572
2173,Kishi Drive,95334,37.3965431,-120.7107223
2173,Wakami Drive,95334,37.3951282,-120.7106639
2174,Kinoshita Court,95334,37.3953993,-120.7106514
2193,Aspenglen Way,95334,37.3930415,-120.7101171
2193,Kapreil Way,95334,37.3916279,-120.7101536
2193,Kishi Drive,95334,37.3965436,-120.7103092
2193,Natsu Road,95334,37.3943452,-120.7101673
2180,Kapreil Way,95334,37.3911865,-120.7103879
2183,Aspenglen Way,95334,37.3930412,-120.7103064
2183,Kapreil Way,95334,37.3916248,-120.7103687
2183,Kinoshita Court,95334,37.3958252,-120.7104378
2183,Kishi Drive,95334,37.3965433,-120.7105157
2183,Natsu Road,95334,37.3943449,-120.7103739
2183,Wakami Drive,95334,37.3951248,-120.7104272
220,Franci Street,95334,37.3879229,-120.7194516
2184,Kinoshita Court,95334,37.3953995,-120.7104276
2184,Kishi Drive,95334,37.3960999,-120.7104384
2184,Wakami Drive,95334,37.3946637,-120.7103747
2190,Kapreil Way,95334,37.3911869,-120.7101969
2194,Wakami Drive,95334,37.3946638,-120.7101679
2200,Kapreil Way,95334,37.3911644,-120.7099861
2201,Kishi Drive,95334,37.3965438,-120.7100913
2203,Aspenglen Way,95334,37.3930418,-120.7099278
2203,Natsu Road,95334,37.3943454,-120.7099608
2204,Wakami Drive,95334,37.3946640,-120.7099614
2210,Kapreil Way,95334,37.3911725,-120.7096912
2208,Burgundy Drive,95334,37.3778876,-120.7140346
2208,Johannisburg Drive,95334,37.3755158,-120.7140829
2209,Johannisburg Drive,95334,37.3759296,-120.7140720
2209,Peach Avenue,95334,37.3752447,-120.7140838
2213,Aspenglen Way,95334,37.3930420,-120.7097385
2213,Natsu Road,95334,37.3943457,-120.7097543
2214,Wakami Drive,95334,37.3946643,-120.7097549
2224,Wakami Drive,95334,37.3946652,-120.7095388
2251,Burgundy Drive,95334,37.3784030,-120.7132848
2251,Peach Avenue,95334,37.3752431,-120.7134480
2222,Burgundy Drive,95334,37.3778861,-120.7138114
2222,Johannisburg Drive,95334,37.3755174,-120.7138613
2223,Aspenglen Way,95334,37.3930430,-120.7095476
2223,Burgundy Drive,95334,37.3783552,-120.7136985
2223,Johannisburg Drive,95334,37.3759294,-120.7138480
2223,Natsu Road,95334,37.3943467,-120.7095412
2223,Peach Avenue,95334,37.3752428,-120.7138610
2236,Burgundy Drive,95334,37.3778929,-120.7135859
2236,Johannisburg Drive,95334,37.3755176,-120.7136548
2237,Burgundy Drive,95334,37.3783773,-120.7134926
2237,Johannisburg Drive,95334,37.3759310,-120.7136264
2237,Peach Avenue,95334,37.3752429,-120.7136545
2235,F Street,95334,37.3824762,-120.7135549
225,Lilac Lane,95334,37.3789193,-120.7408675
2250,Johannisburg Drive,95334,37.3755177,-120.7134484
2255,F Street,95334,37.3824743,-120.7134450
2265,Zinfandel Drive,95334,37.3766214,-120.7131840
2264,Johannisburg Drive,95334,37.3755179,-120.7132419
2264,Zinfandel Drive,95334,37.3762030,-120.7132095
2265,Burgundy Drive,95334,37.3784110,-120.7130764
2265,Johannisburg Drive,95334,37.3759302,-120.7132118
2265,Peach Avenue,95334,37.3752432,-120.7132416
2278,Johannisburg Drive,95334,37.3755180,-120.7130354
2278,Zinfandel Drive,95334,37.3762047,-120.7129829
2279,Burgundy Drive,95334,37.3784108,-120.7128698
2279,Johannisburg Drive,95334,37.3759300,-120.7129822
2279,Peach Avenue,95334,37.3752434,-120.7130351
2279,Zinfandel Drive,95334,37.3766167,-120.7129743
229,Madrid Way,95334,37.3820585,-120.7408055
2306,Johannisburg Drive,95334,37.3755183,-120.7126224
2306,Zinfandel Drive,95334,37.3762050,-120.7125544
2307,Burgundy Drive,95334,37.3784098,-120.7124568
2307,Johannisburg Drive,95334,37.3759303,-120.7125537
2307,Peach Avenue,95334,37.3752437,-120.7126221
2292,Johannisburg Drive,95334,37.3755182,-120.7128289
2292,Zinfandel Drive,95334,37.3762048,-120.7127678
2293,Burgundy Drive,95334,37.3784103,-120.7126633
2293,Johannisburg Drive,95334,37.3759302,-120.7127671
2293,Peach Avenue,95334,37.3752435,-120.7128286
2293,Zinfandel Drive,95334,37.3766182,-120.7127528
2348,Zinfandel Drive,95334,37.3762055,-120.7119103
2349,Burgundy Drive,95334,37.3784083,-120.7118373
2349,Johannisburg Drive,95334,37.3759309,-120.7119098
2348,Johannisburg Drive,95334,37.3755188,-120.7120027
232,Madrid Way,95334,37.3815975,-120.7406224
232,Merida Way,95334,37.3801087,-120.7406622
232,Paradise Drive,95334,37.3808243,-120.7406383
2320,Johannisburg Drive,95334,37.3755185,-120.7124159
2320,Zinfandel Drive,95334,37.3762051,-120.7123393
2321,Burgundy Drive,95334,37.3784093,-120.7122503
2321,Johannisburg Drive,95334,37.3759305,-120.7123386
2321,Peach Avenue,95334,37.3752438,-120.7124156
2321,Zinfandel Drive,95334,37.3766175,-120.7123383
2334,Johannisburg Drive,95334,37.3755186,-120.7122094
2334,Zinfandel Drive,95334,37.3762053,-120.7121242
2335,Burgundy Drive,95334,37.3784088,-120.7120438
2335,Johannisburg Drive,95334,37.3759307,-120.7121235
2335,Peach Avenue,95334,37.3752440,-120.7122091
2335,Zinfandel Drive,95334,37.3766173,-120.7121105
2349,Peach Avenue,95334,37.3752510,-120.7120026
2349,Zinfandel Drive,95334,37.3766174,-120.7118964
2402,Zinfandel Drive,95334,37.3762057,-120.7110393
2403,Burgundy Drive,95334,37.3784061,-120.7110113
2403,Johannisburg Drive,95334,37.3759328,-120.7110418
2403,Zinfandel Drive,95334,37.3766195,-120.7110282
235,Lilac Lane,95334,37.3789192,-120.7406610
235,Madrid Way,95334,37.3820225,-120.7405865
235,Merida Way,95334,37.3805534,-120.7406452
235,Paradise Drive,95334,37.3813153,-120.7406296
2351,F Street,95334,37.3824963,-120.7114927
2362,Johannisburg Drive,95334,37.3755189,-120.7117960
2362,Zinfandel Drive,95334,37.3762056,-120.7116963
2363,Burgundy Drive,95334,37.3784077,-120.7116308
2363,Johannisburg Drive,95334,37.3759310,-120.7116960
2363,Peach Avenue,95334,37.3752511,-120.7117961
2363,Zinfandel Drive,95334,37.3766176,-120.7116824
241,Lilac Lane,95334,37.3789192,-120.7404545
241,Madrid Way,95334,37.3820185,-120.7403817
241,Merida Way,95334,37.3805507,-120.7404145
2372,Walnut Avenue,95334,37.3892500,-120.7087973
2376,Johannisburg Drive,95334,37.3755191,-120.7115896
2376,Walnut Avenue,95334,37.3891402,-120.7087970
2376,Zinfandel Drive,95334,37.3762058,-120.7114829
2377,Burgundy Drive,95334,37.3784072,-120.7114243
2377,Johannisburg Drive,95334,37.3759311,-120.7114826
2377,Peach Avenue,95334,37.3752513,-120.7115896
2377,Zinfandel Drive,95334,37.3766177,-120.7114690
2380,Walnut Avenue,95334,37.3890303,-120.7087967
2391,Zinfandel Drive,95334,37.3766179,-120.7112556
2390,Johannisburg Drive,95334,37.3755198,-120.7113791
2390,Zinfandel Drive,95334,37.3762059,-120.7112695
2391,Burgundy Drive,95334,37.3784066,-120.7112178
2391,Johannisburg Drive,95334,37.3759313,-120.7112692
2391,Peach Avenue,95334,37.3752520,-120.7113819
2399,F Street,95334,37.3823173,-120.7105406
240,Madrid Way,95334,37.3815982,-120.7403925
240,Merida Way,95334,37.3801106,-120.7404354
240,Paradise Drive,95334,37.3808253,-120.7404076
2400,Walnut Avenue,95334,37.3891470,-120.7081468
241,Paradise Drive,95334,37.3813123,-120.7404001
2417,Burgundy Drive,95334,37.3784055,-120.7108048
2431,Burgundy Drive,95334,37.3784049,-120.7105983
2449,Burgundy Drive,95334,37.3784044,-120.7103918
246,Madrid Way,95334,37.3815973,-120.7401864
246,Merida Way,95334,37.3801104,-120.7402267
246,Paradise Drive,95334,37.3808246,-120.7402010
2463,Burgundy Drive,95334,37.3784038,-120.7101896
247,Lilac Lane,95334,37.3789192,-120.7402480
247,Madrid Way,95334,37.3820177,-120.7401751
247,Merida Way,95334,37.3805499,-120.7402080
247,Paradise Drive,95334,37.3813112,-120.7401931
2477,Burgundy Drive,95334,37.3784033,-120.7099917
2491,Burgundy Drive,95334,37.3784028,-120.7097938
252,Madrid Way,95334,37.3815951,-120.7399555
252,Merida Way,95334,37.3801083,-120.7399939
252,Paradise Drive,95334,37.3808218,-120.7399704
2520,Bardolino Drive,95334,37.3757596,-120.7095087
2520,Brandy Way,95334,37.3764743,-120.7095152
2521,Bardolino Drive,95334,37.3761998,-120.7095270
2521,Burgundy Drive,95334,37.3784017,-120.7093981
2508,Bardolino Drive,95334,37.3757667,-120.7097326
2508,Brandy Way,95334,37.3764797,-120.7097258
2508,Burgundy Drive,95334,37.3779617,-120.7093588
2507,Bardolino Drive,95334,37.3762071,-120.7097345
2507,Burgundy Drive,95334,37.3784022,-120.7095960
2534,Bardolino Drive,95334,37.3757521,-120.7092875
2534,Brandy Way,95334,37.3764691,-120.7093226
2534,Burgundy Drive,95334,37.3779615,-120.7091391
2535,Bardolino Drive,95334,37.3761946,-120.7093344
2535,Burgundy Drive,95334,37.3784021,-120.7091880
253,Lilac Lane,95334,37.3789223,-120.7400185
253,Madrid Way,95334,37.3820154,-120.7399470
253,Merida Way,95334,37.3805509,-120.7399773
253,Paradise Drive,95334,37.3813128,-120.7399626
2651,Bardolino Drive,95334,37.3761472,-120.7076009
2651,Brandy Way,95334,37.3768555,-120.7073729
2652,Brandy Way,95334,37.3764164,-120.7073965
2548,Bardolino Drive,95334,37.3757411,-120.7088439
2550,Brandy Way,95334,37.3764638,-120.7091300
2551,Bardolino Drive,95334,37.3761893,-120.7091418
2551,Burgundy Drive,95334,37.3784009,-120.7087563
2552,Burgundy Drive,95334,37.3779609,-120.7089189
2565,Burgundy Drive,95334,37.3783994,-120.7085463
2568,Brandy Way,95334,37.3764585,-120.7089374
2570,Bardolino Drive,95334,37.3757355,-120.7086247
2570,Burgundy Drive,95334,37.3779608,-120.7086997
2578,Brandy Way,95334,37.3764533,-120.7087448
2579,Bardolino Drive,95334,37.3761788,-120.7087566
2579,Burgundy Drive,95334,37.3783988,-120.7083484
2592,Brandy Way,95334,37.3764480,-120.7085522
2593,Bardolino Drive,95334,37.3761735,-120.7085640
2593,Burgundy Drive,95334,37.3783983,-120.7081505
2569,Bardolino Drive,95334,37.3761841,-120.7089492
2584,Bardolino Drive,95334,37.3757334,-120.7084028
2600,Brandy Way,95334,37.3764428,-120.7083596
2607,Burgundy Drive,95334,37.3783977,-120.7079526
2607,Claret Circle,95334,37.3776285,-120.7079362
2610,Brandy Way,95334,37.3764375,-120.7081670
2611,Bardolino Drive,95334,37.3761683,-120.7083713
2606,Burgundy Drive,95334,37.3779366,-120.7079304
2606,Claret Circle,95334,37.3771586,-120.7079457
2614,Brandy Way,95334,37.3768607,-120.7075621
2620,Burgundy Drive,95334,37.3779370,-120.7077272
2620,Claret Circle,95334,37.3771541,-120.7077425
2621,Bardolino Drive,95334,37.3761630,-120.7081787
2621,Brandy Way,95334,37.3768730,-120.7079529
2621,Burgundy Drive,95334,37.3783972,-120.7077547
2621,Claret Circle,95334,37.3776245,-120.7077331
2622,Brandy Way,95334,37.3764322,-120.7079743
2631,Bardolino Drive,95334,37.3761577,-120.7079861
2631,Brandy Way,95334,37.3768658,-120.7077513
2632,Brandy Way,95334,37.3764270,-120.7077817
2634,Burgundy Drive,95334,37.3779365,-120.7075379
2634,Claret Circle,95334,37.3771490,-120.7075533
2635,Burgundy Drive,95334,37.3783909,-120.7075489
2635,Claret Circle,95334,37.3776217,-120.7075438
2641,Bardolino Drive,95334,37.3761525,-120.7077935
2642,Brandy Way,95334,37.3764217,-120.7075891
2662,Brandy Way,95334,37.3764112,-120.7072039
2662,Claret Circle,95334,37.3771377,-120.7071457
2663,Claret Circle,95334,37.3775933,-120.7071365
2648,Claret Circle,95334,37.3771444,-120.7073537
2649,Claret Circle,95334,37.3775998,-120.7073447
2871,Black Pine Way,95334,37.3916535,-120.7026294
2871,Elm Street,95334,37.3902414,-120.7027294
2871,Tehama Drive,95334,37.3879391,-120.7031090
2872,Elm Street,95334,37.3898020,-120.7027136
2873,Amber Court,95334,37.3923539,-120.7026054
2873,Birch Street,95334,37.3909512,-120.7026493
2873,Tulare Court,95334,37.3893124,-120.7031021
2874,Amber Court,95334,37.3919281,-120.7026136
2874,Birch Street,95334,37.3905160,-120.7026921
2874,Black Pine Way,95334,37.3912176,-120.7026482
2874,Tulare Court,95334,37.3889004,-120.7031041
2875,Franquette Court,95334,37.3886258,-120.7031055
2876,Evergreen Court,95334,37.3926297,-120.7026146
2876,Franquette Court,95334,37.3882138,-120.7031076
2877,Evergreen Court,95334,37.3930591,-120.7027613
2661,Bardolino Drive,95334,37.3761420,-120.7074083
2661,Brandy Way,95334,37.3768503,-120.7071837
2704,Claret Circle,95334,37.3771136,-120.7065094
2705,Claret Circle,95334,37.3775630,-120.7065004
2671,Bardolino Drive,95334,37.3761367,-120.7072157
2671,Brandy Way,95334,37.3768456,-120.7069914
2672,Brandy Way,95334,37.3764053,-120.7069970
2681,Bardolino Drive,95334,37.3761330,-120.7070126
2681,Brandy Way,95334,37.3768680,-120.7067758
2676,Claret Circle,95334,37.3771320,-120.7069393
2677,Claret Circle,95334,37.3775875,-120.7069302
2690,Claret Circle,95334,37.3771242,-120.7067249
2691,Claret Circle,95334,37.3775779,-120.7067149
2718,Claret Circle,95334,37.3771076,-120.7063029
2719,Claret Circle,95334,37.3775546,-120.7062938
2755,Colleen Court,95334,37.3783027,-120.7061501
2732,Claret Circle,95334,37.3771020,-120.7060965
2733,Claret Circle,95334,37.3775488,-120.7060875
2740,Colleen Court,95334,37.3778818,-120.7063854
2741,Colleen Court,95334,37.3782044,-120.7064727
2745,Colleen Court,95334,37.3777815,-120.7061539
2746,Claret Circle,95334,37.3770963,-120.7058901
2747,Claret Circle,95334,37.3775431,-120.7058811
2774,Claret Circle,95334,37.3770817,-120.7054663
2775,Claret Circle,95334,37.3775326,-120.7054576
2760,Claret Circle,95334,37.3770906,-120.7056838
2761,Claret Circle,95334,37.3775373,-120.7056747
2765,Peach Avenue,95334,37.3760202,-120.7058224
2768,Colleen Court,95334,37.3778117,-120.7058797
2769,Colleen Court,95334,37.3782621,-120.7058710
2782,Colleen Court,95334,37.3778162,-120.7056657
2783,Colleen Court,95334,37.3782504,-120.7056572
2823,Tehama Drive,95334,37.3879435,-120.7044772
2796,Colleen Court,95334,37.3778085,-120.7054501
2797,Colleen Court,95334,37.3782504,-120.7054416
2817,Tehama Drive,95334,37.3879490,-120.7047129
2837,Elm Street,95334,37.3902465,-120.7037589
2837,Franquette Court,95334,37.3886529,-120.7041998
2838,Franquette Court,95334,37.3881936,-120.7042021
2839,Tehama Drive,95334,37.3879424,-120.7040290
2843,Black Pine Way,95334,37.3916556,-120.7034039
2843,Elm Street,95334,37.3902439,-120.7035503
2843,Franquette Court,95334,37.3886284,-120.7039316
2844,Franquette Court,95334,37.3882164,-120.7039337
2845,Tehama Drive,95334,37.3879411,-120.7038053
2827,Franquette Court,95334,37.3884240,-120.7046918
290,B Street,95334,37.3856256,-120.7382850
2900,Black Pine Way,95334,37.3912145,-120.7014727
2900,Evergreen Court,95334,37.3926282,-120.7020363
2827,Tulare Court,95334,37.3893497,-120.7045508
2828,Tulare Court,95334,37.3888970,-120.7045724
2829,Franquette Court,95334,37.3886528,-120.7045942
2830,Franquette Court,95334,37.3881957,-120.7045996
2831,Tehama Drive,95334,37.3879428,-120.7042534
2832,Elm Street,95334,37.3897741,-120.7039828
2835,Tulare Court,95334,37.3893388,-120.7041913
2836,Elm Street,95334,37.3898046,-120.7037401
2836,Tulare Court,95334,37.3888887,-120.7041530
2841,Tulare Court,95334,37.3893150,-120.7039282
2842,Elm Street,95334,37.3898045,-120.7035345
2842,Tulare Court,95334,37.3889030,-120.7039302
2850,Tulare Court,95334,37.3889024,-120.7037237
2851,Black Pine Way,95334,37.3916551,-120.7032077
2851,Elm Street,95334,37.3902431,-120.7033490
2851,Franquette Court,95334,37.3886277,-120.7037251
2852,Franquette Court,95334,37.3882158,-120.7037271
2853,Tehama Drive,95334,37.3879406,-120.7035564
2849,Tulare Court,95334,37.3893144,-120.7037216
2850,Black Pine Way,95334,37.3912624,-120.7033495
2850,Elm Street,95334,37.3898036,-120.7033280
2858,Amber Court,95334,37.3919271,-120.7033224
2858,Elm Street,95334,37.3898030,-120.7031214
2858,Evergreen Court,95334,37.3926358,-120.7033184
2859,Amber Court,95334,37.3921520,-120.7033751
2859,Black Pine Way,95334,37.3916546,-120.7030115
2859,Elm Street,95334,37.3902425,-120.7031425
2859,Evergreen Court,95334,37.3928790,-120.7033657
2859,Tulare Court,95334,37.3893137,-120.7035151
2860,Birch Street,95334,37.3904834,-120.7031232
2860,Tulare Court,95334,37.3889017,-120.7035172
2861,Franquette Court,95334,37.3886271,-120.7035186
2861,Tehama Drive,95334,37.3879398,-120.7033155
2862,Franquette Court,95334,37.3882151,-120.7035206
2864,Amber Court,95334,37.3918888,-120.7030368
2864,Evergreen Court,95334,37.3925900,-120.7030459
2865,Amber Court,95334,37.3923956,-120.7030245
2865,Black Pine Way,95334,37.3916540,-120.7028187
2865,Elm Street,95334,37.3902420,-120.7029360
2865,Evergreen Court,95334,37.3930790,-120.7032789
2865,Tulare Court,95334,37.3893130,-120.7033086
2866,Elm Street,95334,37.3898025,-120.7029149
2866,Tulare Court,95334,37.3889011,-120.7033107
2867,Amber Court,95334,37.3923557,-120.7027956
2867,Birch Street,95334,37.3909539,-120.7028558
2867,Franquette Court,95334,37.3886264,-120.7033120
2868,Amber Court,95334,37.3919267,-120.7028042
2868,Birch Street,95334,37.3905134,-120.7028866
2868,Franquette Court,95334,37.3882144,-120.7033141
2869,Amber Court,95334,37.3923647,-120.7033093
2870,Evergreen Court,95334,37.3926265,-120.7028086
2879,Elm Street,95334,37.3902409,-120.7025229
2880,Elm Street,95334,37.3898014,-120.7025174
2881,Amber Court,95334,37.3923534,-120.7024161
2881,Birch Street,95334,37.3909507,-120.7024548
2881,Evergreen Court,95334,37.3930586,-120.7025688
2881,Tulare Court,95334,37.3893087,-120.7028849
2882,Amber Court,95334,37.3919276,-120.7024243
2882,Birch Street,95334,37.3905155,-120.7024959
2882,Black Pine Way,95334,37.3912171,-120.7024537
2882,Evergreen Court,95334,37.3926292,-120.7024184
2882,Tulare Court,95334,37.3888973,-120.7028824
2883,Franquette Court,95334,37.3886274,-120.7028838
2884,Franquette Court,95334,37.3882107,-120.7028859
2885,Black Pine Way,95334,37.3916530,-120.7024362
2885,Elm Street,95334,37.3902403,-120.7023164
2895,Birch Street,95334,37.3909491,-120.7018662
2895,Black Pine Way,95334,37.3916525,-120.7022396
2895,Evergreen Court,95334,37.3930585,-120.7021902
2896,Elm Street,95334,37.3898001,-120.7019043
2897,Elm Street,95334,37.3902414,-120.7018939
2898,Black Pine Way,95334,37.3912150,-120.7016689
2899,Birch Street,95334,37.3909486,-120.7016700
2899,Black Pine Way,95334,37.3916520,-120.7020468
2891,Amber Court,95334,37.3923524,-120.7020374
2891,Birch Street,95334,37.3909496,-120.7020624
2892,Amber Court,95334,37.3919266,-120.7020457
2892,Birch Street,95334,37.3905144,-120.7021035
2892,Black Pine Way,95334,37.3912160,-120.7020613
2894,Birch Street,95334,37.3905117,-120.7018928
2894,Black Pine Way,95334,37.3912155,-120.7018651
2894,Evergreen Court,95334,37.3926287,-120.7022256
2885,Tehama Drive,95334,37.3879405,-120.7028869
2886,Elm Street,95334,37.3898009,-120.7023212
2887,Amber Court,95334,37.3923529,-120.7022268
2887,Birch Street,95334,37.3909502,-120.7022586
2887,Evergreen Court,95334,37.3930586,-120.7023795
2888,Amber Court,95334,37.3919271,-120.7022350
2888,Birch Street,95334,37.3905150,-120.7022997
2888,Black Pine Way,95334,37.3912166,-120.7022575
2889,Elm Street,95334,37.3902398,-120.7021098
2890,Elm Street,95334,37.3898004,-120.7021222
2906,Evergreen Court,95334,37.3926255,-120.7018291
2901,Birch Street,95334,37.3909481,-120.7014738
2901,Black Pine Way,95334,37.3916502,-120.7011895
2901,Evergreen Court,95334,37.3930585,-120.7020008
2913,Evergreen Way,95334,37.3930583,-120.7016222
2913,Tehama Drive,95334,37.3879386,-120.7024267
2909,Tulare Street,95334,37.3893074,-120.7024157
2910,Tulare Street,95334,37.3888961,-120.7024221
2911,Franquette Street,95334,37.3886257,-120.7024234
2912,Franquette Street,95334,37.3882095,-120.7024254
2917,Tulare Street,95334,37.3893093,-120.7021894
2918,Franquette Street,95334,37.3882107,-120.7021864
2918,Tulare Street,95334,37.3888973,-120.7021829
2919,Evergreen Way,95334,37.3930583,-120.7014329
2919,Franquette Street,95334,37.3886228,-120.7021840
2927,Tehama Drive,95334,37.3879355,-120.7019629
2931,Evergreen Way,95334,37.3930581,-120.7010542
2914,Black Pine Way,95334,37.3912140,-120.7012765
2915,Birch Street,95334,37.3909476,-120.7012776
2948,Franquette Street,95334,37.3882081,-120.7013005
2923,Tulare Street,95334,37.3893088,-120.7019825
2924,Tulare Street,95334,37.3888967,-120.7019588
2925,Evergreen Way,95334,37.3930582,-120.7012436
2925,Franquette Street,95334,37.3886221,-120.7019595
2921,Tehama Drive,95334,37.3879364,-120.7021870
2922,Franquette Street,95334,37.3882101,-120.7019623
2931,Tulare Street,95334,37.3893081,-120.7017761
2932,Tulare Street,95334,37.3888960,-120.7017352
2933,Franquette Street,95334,37.3886214,-120.7017359
2935,Tehama Drive,95334,37.3879348,-120.7017392
2940,Franquette Street,95334,37.3882087,-120.7015151
2941,Franquette Street,95334,37.3886207,-120.7015123
2937,Evergreen Way,95334,37.3930673,-120.7008637
2937,Tulare Street,95334,37.3893075,-120.7015697
2938,Tulare Street,95334,37.3888953,-120.7015117
2943,Evergreen Way,95334,37.3930982,-120.7005988
2943,Tehama Drive,95334,37.3879340,-120.7015157
2945,Tulare Street,95334,37.3893017,-120.7013502
2946,Tulare Street,95334,37.3888948,-120.7012899
2949,Franquette Street,95334,37.3886199,-120.7012908
2959,Tulare Street,95334,37.3893019,-120.7008973
2953,Tulare Street,95334,37.3893081,-120.7011264
2954,Tulare Street,95334,37.3888875,-120.7010616
2949,Tehama Drive,95334,37.3879332,-120.7013011
2955,Franquette Street,95334,37.3886223,-120.7010598
2956,Franquette Street,95334,37.3882054,-120.7010734
2965,Tulare Street,95334,37.3893102,-120.7006058
300,Dosangh Court,95334,37.3815496,-120.7391735
301,Paradise Drive,95334,37.3812601,-120.7391672
301,Dosangh Court,95334,37.3820256,-120.7391487
307,Dosangh Court,95334,37.3820349,-120.7388957
307,Franci Street,95334,37.3887990,-120.7194261
307,Live Oak Way,95334,37.3770266,-120.7391262
307,North Main Street,95334,37.3896209,-120.7219397
307,Paradise Drive,95334,37.3812589,-120.7389492
309,East Avenue,95334,37.3872220,-120.7172729
308,Dosangh Court,95334,37.3815349,-120.7389401
308,Kensington Drive,95334,37.3772397,-120.7391283
310,Dosangh Court,95334,37.3815768,-120.7387346
311,North Main Street,95334,37.3897274,-120.7218587
316,1St Street,95334,37.3876356,-120.7257674
316,Kensington Drive,95334,37.3772536,-120.7388172
315,Dosangh Court,95334,37.3820269,-120.7386834
315,Live Oak Way,95334,37.3770066,-120.7388195
315,Paradise Drive,95334,37.3812680,-120.7387343
323,Dosangh Court,95334,37.3820260,-120.7384770
323,Live Oak Way,95334,37.3769937,-120.7386041
323,North Main Street,95334,37.3898598,-120.7217807
318,2nd Street,95334,37.3871648,-120.7245436
318,East Avenue,95334,37.3870452,-120.7166622
322,1St Street,95334,37.3874980,-120.7257677
322,Paradise Drive,95334,37.3809106,-120.7382703
320,Live Oak Way,95334,37.3765532,-120.7387116
320,Mandarin Court,95334,37.3779795,-120.7386894
320,Simpson Avenue,95334,37.3898373,-120.7195416
320,Tashima Drive,95334,37.3802052,-120.7386446
321,Jasmine Lane,95334,37.3799371,-120.7386458
321,Kensington Drive,95334,37.3777094,-120.7386924
321,Mandarin Court,95334,37.3784101,-120.7386802
321,Redwood Way,95334,37.3762853,-120.7387143
321,Tashima Drive,95334,37.3806455,-120.7386373
327,Franci Street,95334,37.3891297,-120.7192366
327,Hammatt Avenue,95334,37.3891871,-120.7193928
327,Jasmine Lane,95334,37.3799357,-120.7384255
327,Kensington Drive,95334,37.3777077,-120.7384701
327,Mandarin Court,95334,37.3784080,-120.7384663
327,Redwood Way,95334,37.3762837,-120.7384794
324,Kensington Drive,95334,37.3772683,-120.7386038
327,Tashima Drive,95334,37.3806461,-120.7384141
328,Live Oak Way,95334,37.3765556,-120.7384792
328,Mandarin Court,95334,37.3779824,-120.7384753
328,Paradise Drive,95334,37.3809200,-120.7380472
328,Tashima Drive,95334,37.3802074,-120.7384269
329,Dosangh Court,95334,37.3820472,-120.7382567
329,East Avenue,95334,37.3874707,-120.7172931
330,Stefani Avenue,95334,37.3904248,-120.7227925
330,East Avenue,95334,37.3871979,-120.7165749
331,Peach Avenue,95334,37.3792352,-120.7365019
333,Live Oak Way,95334,37.3769936,-120.7383976
334,Kensington Drive,95334,37.3772682,-120.7383974
334,Main Street,95334,37.3867877,-120.7235705
334,Paradise Drive,95334,37.3809195,-120.7378220
335,1St Street,95334,37.3871723,-120.7251459
335,Dosangh Court,95334,37.3820388,-120.7379446
335,Jasmine Lane,95334,37.3799357,-120.7382092
335,Kensington Drive,95334,37.3777076,-120.7382556
335,Mandarin Court,95334,37.3784079,-120.7382598
335,Redwood Way,95334,37.3762836,-120.7382526
335,Tashima Drive,95334,37.3806458,-120.7381894
336,1St Street,95334,37.3873604,-120.7257680
336,Live Oak Way,95334,37.3765555,-120.7382524
336,Mandarin Court,95334,37.3779823,-120.7382688
336,Tashima Drive,95334,37.3802071,-120.7382106
337,Paradise Drive,95334,37.3809196,-120.7376059
339,East Avenue,95334,37.3875956,-120.7172217
339,Live Oak Way,95334,37.3769935,-120.7381911
344,Live Oak Way,95334,37.3765553,-120.7380256
344,Main Street,95334,37.3868426,-120.7235706
344,Mandarin Court,95334,37.3779821,-120.7380623
340,Kensington Drive,95334,37.3772681,-120.7381909
341,2nd Street,95334,37.3868786,-120.7240242
341,North Main Street,95334,37.3900008,-120.7217033
343,Jasmine Lane,95334,37.3799357,-120.7379900
343,Kensington Drive,95334,37.3777075,-120.7380440
343,Mandarin Court,95334,37.3784079,-120.7380533
343,Redwood Way,95334,37.3762834,-120.7380258
343,Tashima Drive,95334,37.3806448,-120.7379609
344,Tashima Drive,95334,37.3802067,-120.7379914
345,Live Oak Way,95334,37.3769934,-120.7379846
346,Kensington Drive,95334,37.3772680,-120.7379844
347,North Main Street,95334,37.3900969,-120.7216570
349,East Avenue,95334,37.3877206,-120.7171503
349,Paradise Drive,95334,37.3809192,-120.7374041
350,East Avenue,95334,37.3874269,-120.7164439
350,Jasmine Lane,95334,37.3794958,-120.7377629
351,Kensington Drive,95334,37.3777074,-120.7378323
351,Mandarin Court,95334,37.3784111,-120.7378459
352,Mandarin Court,95334,37.3779820,-120.7378558
352,Redwood Way,95334,37.3758049,-120.7378489
353,Jasmine Lane,95334,37.3799357,-120.7377708
353,Lilac Lane,95334,37.3789966,-120.7377743
353,Live Oak Way,95334,37.3769960,-120.7377702
353,Redwood Way,95334,37.3762858,-120.7377934
355,Kensington Drive,95334,37.3777073,-120.7376207
355,Mandarin Court,95334,37.3784236,-120.7376313
355,Tashima Drive,95334,37.3806438,-120.7377325
354,Kensington Drive,95334,37.3772663,-120.7377673
354,Live Oak Way,95334,37.3765537,-120.7377906
354,Tashima Drive,95334,37.3802064,-120.7377722
356,Mandarin Court,95334,37.3779819,-120.7376407
358,Jasmine Lane,95334,37.3794986,-120.7375455
359,Jasmine Lane,95334,37.3799357,-120.7375516
359,Lilac Lane,95334,37.3790149,-120.7375528
360,Jasmine Lane,95334,37.3794986,-120.7373308
360,Redwood Way,95334,37.3757766,-120.7375945
361,Paradise Drive,95334,37.3809189,-120.7372057
362,Tashima Drive,95334,37.3802061,-120.7375530
363,Tashima Drive,95334,37.3806429,-120.7375040
467,Paradise Court,95334,37.3809064,-120.7353921
469,Tashima Court,95334,37.3806079,-120.7348646
367,Mandarin Court,95334,37.3784815,-120.7374075
367,Kensington Drive,95334,37.3777072,-120.7374101
368,Mandarin Court,95334,37.3779743,-120.7374209
368,Redwood Way,95334,37.3758126,-120.7373041
368,Tashima Drive,95334,37.3802057,-120.7373338
369,Jasmine Lane,95334,37.3799357,-120.7373324
369,Lilac Lane,95334,37.3790434,-120.7373336
371,Tashima Drive,95334,37.3806419,-120.7372756
373,Kensington Drive,95334,37.3777077,-120.7371976
373,Mandarin Court,95334,37.3784839,-120.7371676
373,Paradise Drive,95334,37.3809186,-120.7370069
377,Tashima Drive,95334,37.3806409,-120.7370445
374,East Avenue,95334,37.3876559,-120.7163128
374,Mandarin Court,95334,37.3779911,-120.7371833
375,Jasmine Lane,95334,37.3799380,-120.7371124
375,Lilac Lane,95334,37.3790602,-120.7371126
376,Jasmine Lane,95334,37.3794965,-120.7371120
376,Tashima Drive,95334,37.3802031,-120.7371139
384,1St Street,95334,37.3871543,-120.7257684
385,Paradise Drive,95334,37.3809182,-120.7368085
385,Tashima Drive,95334,37.3806398,-120.7368135
390,Tashima Court,95334,37.3801942,-120.7366732
398,Tashima Court,95334,37.3801967,-120.7364563
393,Tashima Drive,95334,37.3806413,-120.7365884
399,Paradise Drive,95334,37.3809144,-120.7365935
413,North Main Street,95334,37.3903584,-120.7209727
406,Tashima Court,95334,37.3801985,-120.7362477
404,1St Street,95334,37.3869342,-120.7257804
405,East Avenue,95334,37.3878455,-120.7170789
407,Tashima Court,95334,37.3806356,-120.7361546
414,Paradise Court,95334,37.3813372,-120.7361422
415,East Avenue,95334,37.3879704,-120.7170075
415,Paradise Court,95334,37.3809068,-120.7361570
426,Paradise Court,95334,37.3813350,-120.7359411
427,Paradise Court,95334,37.3809087,-120.7359600
414,1St Street,95334,37.3867820,-120.7257686
414,East Avenue,95334,37.3878086,-120.7162255
430,East Avenue,95334,37.3879613,-120.7161382
420,Franci Street,95334,37.3897311,-120.7181269
420,Franci Street,95334,37.3897489,-120.7181775
420,Franci Street,95334,37.3898141,-120.7180820
420,Franci Street,95334,37.3898315,-120.7181329
420,Franci Street,95334,37.3898421,-120.7179934
420,Franci Street,95334,37.3898607,-120.7180437
420,Franci Street,95334,37.3899242,-120.7179460
420,Franci Street,95334,37.3899424,-120.7179964
423,Peach Avenue,95334,37.3752802,-120.7359954
424,1St Street,95334,37.3866447,-120.7257689
418,Tashima Court,95334,37.3802002,-120.7360416
419,Tashima Court,95334,37.3806326,-120.7359404
425,East Avenue,95334,37.3880954,-120.7169360
433,Industrial Drive,95334,37.3875090,-120.7106637
433,Industrial Drive,95334,37.3875196,-120.7108277
433,Industrial Drive,95334,37.3875772,-120.7106707
433,Industrial Drive,95334,37.3876069,-120.7108296
433,Industrial Drive,95334,37.3876487,-120.7110860
433,Industrial Drive,95334,37.3876538,-120.7112466
433,Industrial Drive,95334,37.3876584,-120.7109801
433,Industrial Drive,95334,37.3876635,-120.7111612
437,Tashima Court,95334,37.3806308,-120.7355205
440,Paradise Court,95334,37.3813345,-120.7357484
428,Cressey Way,95334,37.3904065,-120.7203171
428,Simpson Avenue,95334,37.3900952,-120.7194414
428,Tashima Court,95334,37.3802002,-120.7358351
429,Tashima Court,95334,37.3806317,-120.7357305
432,1St Street,95334,37.3865074,-120.7257692
431,2nd Street,95334,37.3864667,-120.7240323
431,2nd Street,95334,37.3866726,-120.7240283
453,Joseph Gallo Drive,95334,37.3886134,-120.7358097
453,Paradise Court,95334,37.3809072,-120.7355814
454,Tashima Court,95334,37.3801793,-120.7350987
433,Industrial Drive,95334,37.3876658,-120.7106709
433,Industrial Drive,95334,37.3876737,-120.7108315
433,Industrial Drive,95334,37.3876947,-120.7112485
433,Industrial Drive,95334,37.3877170,-120.7109820
433,Industrial Drive,95334,37.3877277,-120.7110862
433,Industrial Drive,95334,37.3877344,-120.7111700
435,1St Street,95334,37.3862736,-120.7252497
435,East Avenue,95334,37.3882203,-120.7168646
434,Stefani Avenue,95334,37.3912351,-120.7222817
436,2nd Street,95334,37.3862725,-120.7246478
444,Tashima Court,95334,37.3802003,-120.7354221
445,East Avenue,95334,37.3883453,-120.7167932
436,Tashima Court,95334,37.3802003,-120.7356286
441,Paradise Court,95334,37.3809080,-120.7357707
442,East Avenue,95334,37.3881140,-120.7160508
447,Tashima Court,95334,37.3806299,-120.7353106
452,Paradise Court,95334,37.3813340,-120.7355591
448,Franci Street,95334,37.3900207,-120.7178321
448,Franci Street,95334,37.3900551,-120.7179294
448,Franci Street,95334,37.3900581,-120.7178110
448,Franci Street,95334,37.3900927,-120.7179088
457,Tashima Court,95334,37.3806384,-120.7350971
507,Sauber Court,95334,37.3862908,-120.7021031
507,Serr Court,95334,37.3862880,-120.7012159
507,Vina Court,95334,37.3862974,-120.7047595
466,Paradise Court,95334,37.3813482,-120.7353686
500,Aldrich Avenue,95334,37.3860166,-120.7023956
500,Chandler Court,95334,37.3860651,-120.7033617
480,F Street,95334,37.3818496,-120.7350602
482,Paradise Court,95334,37.3813658,-120.7351595
483,Paradise Court,95334,37.3808921,-120.7351814
485,Peach Avenue,95334,37.3752503,-120.7350900
521,Briarwood Drive,95334,37.3852881,-120.7318178
521,Seaport Village Drive,95334,37.3799418,-120.7337618
498,Paradise Court,95334,37.3813420,-120.7348592
499,Paradise Court,95334,37.3809112,-120.7348728
502,Aldrich Avenue,95334,37.3862066,-120.7023948
502,Mont Cliff Way,95334,37.3787870,-120.7344672
501,Aldrich Avenue,95334,37.3860194,-120.7029463
501,Sauber Court,95334,37.3860575,-120.7019754
501,Serr Court,95334,37.3860532,-120.7010934
500,Sauber Court,95334,37.3860556,-120.7015840
500,Serr Court,95334,37.3860519,-120.7007048
500,Vina Court,95334,37.3860697,-120.7042363
503,Aldrich Avenue,95334,37.3862083,-120.7029456
501,Vina Court,95334,37.3860702,-120.7046292
534,C Street,95334,37.3853215,-120.7201148
504,Cressey Way,95334,37.3910608,-120.7192527
505,Briarwood Drive,95334,37.3856883,-120.7318097
505,East Avenue,95334,37.3884702,-120.7167218
506,Aldrich Avenue,95334,37.3863714,-120.7023940
506,Sauber Court,95334,37.3862893,-120.7014528
506,Serr Court,95334,37.3862876,-120.7005745
506,Vina Court,95334,37.3862986,-120.7041079
507,Aldrich Avenue,95334,37.3863731,-120.7029447
520,Seaport Village Drive,95334,37.3795026,-120.7338759
512,Aldrich Avenue,95334,37.3865364,-120.7023914
512,Mont Cliff Way,95334,37.3787889,-120.7342252
512,Sauber Court,95334,37.3865310,-120.7014979
512,Serr Court,95334,37.3865264,-120.7006176
512,Vina Court,95334,37.3865395,-120.7041543
513,Aldrich Avenue,95334,37.3865379,-120.7029439
513,Briarwood Drive,95334,37.3854529,-120.7318145
513,Chandler Court,95334,37.3865385,-120.7038261
513,Sauber Court,95334,37.3865324,-120.7020520
513,Serr Court,95334,37.3865301,-120.7011637
513,Vina Court,95334,37.3865417,-120.7047067
515,East Avenue,95334,37.3885951,-120.7166503
519,Aldrich Avenue,95334,37.3867027,-120.7029431
519,Sauber Court,95334,37.3866998,-120.7020378
519,Serr Court,95334,37.3866970,-120.7011486
518,1St Street,95334,37.3857320,-120.7257203
518,Aldrich Avenue,95334,37.3867009,-120.7023889
518,Chandler Court,95334,37.3867038,-120.7032907
518,Sauber Court,95334,37.3866982,-120.7015072
518,Vina Court,95334,37.3867066,-120.7041649
522,Mont Cliff Way,95334,37.3787887,-120.7340118
524,1St Street,95334,37.3855016,-120.7258383
524,Aldrich Avenue,95334,37.3868657,-120.7023881
524,Chandler Court,95334,37.3868686,-120.7032899
527,Mont Cliff Way,95334,37.3792331,-120.7338781
536,Aldrich Avenue,95334,37.3871953,-120.7023864
536,Chandler Court,95334,37.3871982,-120.7032882
536,East Avenue,95334,37.3884321,-120.7158677
536,Sauber Court,95334,37.3871925,-120.7015009
536,Serr Court,95334,37.3871880,-120.7006154
524,Sauber Court,95334,37.3868630,-120.7015051
524,Serr Court,95334,37.3868584,-120.7006221
524,Vina Court,95334,37.3868714,-120.7041641
525,Aldrich Avenue,95334,37.3868675,-120.7029422
525,East Avenue,95334,37.3887201,-120.7165789
525,Prusso Street,95334,37.3855375,-120.7263716
525,Prusso Street,95334,37.3857795,-120.7264491
525,Sauber Court,95334,37.3868646,-120.7020370
525,Serr Court,95334,37.3868618,-120.7011453
525,Vina Court,95334,37.3868737,-120.7046910
532,1St Street,95334,37.3853643,-120.7258413
532,Mont Cliff Way,95334,37.3787885,-120.7337984
529,Briarwood Drive,95334,37.3851233,-120.7318211
530,Aldrich Avenue,95334,37.3870305,-120.7023872
530,Chandler Court,95334,37.3870334,-120.7032891
530,Sauber Court,95334,37.3870278,-120.7015030
530,Seaport Village Drive,95334,37.3795057,-120.7336527
531,Aldrich Avenue,95334,37.3870323,-120.7029414
531,Chandler Court,95334,37.3870350,-120.7038122
531,Sauber Court,95334,37.3870294,-120.7020362
535,4th Street,95334,37.3853681,-120.7219007
535,East Avenue,95334,37.3888450,-120.7165075
539,Prusso Street,95334,37.3853706,-120.7263468
537,Aldrich Avenue,95334,37.3871971,-120.7029406
537,Briarwood Drive,95334,37.3849587,-120.7318243
537,Chandler Court,95334,37.3871998,-120.7038114
537,Mont Cliff Way,95334,37.3792311,-120.7336529
537,Sauber Court,95334,37.3871942,-120.7020353
537,Serr Court,95334,37.3871913,-120.7011386
537,Vina Court,95334,37.3872032,-120.7046867
552,Mont Cliff Way,95334,37.3787880,-120.7333717
536,Vina Court,95334,37.3872010,-120.7041625
542,Mont Cliff Way,95334,37.3787882,-120.7335851
542,Sauber Court,95334,37.3873573,-120.7014989
542,Serr Court,95334,37.3873527,-120.7006121
543,Aldrich Avenue,95334,37.3873618,-120.7029398
548,1St Street,95334,37.3852270,-120.7258442
548,Aldrich Avenue,95334,37.3875373,-120.7023822
548,Chandler Court,95334,37.3873646,-120.7038106
548,East Avenue,95334,37.3886115,-120.7157662
548,Serr Court,95334,37.3875305,-120.7006051
548,Vina Court,95334,37.3875427,-120.7041578
549,Aldrich Avenue,95334,37.3875390,-120.7029414
550,Briarwood Drive,95334,37.3847950,-120.7312046
550,Chandler Court,95334,37.3875399,-120.7032835
550,Sauber Court,95334,37.3875344,-120.7014936
550,Seaport Village Drive,95334,37.3795055,-120.7332397
561,Olds Avenue,95334,37.3886173,-120.7151071
545,Briarwood Drive,95334,37.3847938,-120.7318275
545,East Avenue,95334,37.3889700,-120.7164361
540,Seaport Village Drive,95334,37.3795056,-120.7334462
541,Seaport Village Drive,95334,37.3799450,-120.7334744
542,Aldrich Avenue,95334,37.3873601,-120.7023856
542,Chandler Court,95334,37.3873629,-120.7032874
543,Sauber Court,95334,37.3873589,-120.7020345
543,Serr Court,95334,37.3873561,-120.7011353
543,Vina Court,95334,37.3873679,-120.7046847
547,Mont Cliff Way,95334,37.3792310,-120.7334464
549,Olds Avenue,95334,37.3884674,-120.7151929
549,Prusso Street,95334,37.3852333,-120.7263499
549,Serr Court,95334,37.3875330,-120.7011347
549,Vina Court,95334,37.3875408,-120.7046779
560,East Avenue,95334,37.3887864,-120.7156661
551,Chandler Court,95334,37.3875416,-120.7038127
551,Sauber Court,95334,37.3875359,-120.7020366
551,Seaport Village Drive,95334,37.3799462,-120.7332046
556,Elmwood Way,95334,37.3827729,-120.7343379
560,Seaport Village Drive,95334,37.3795054,-120.7330332
557,F Street,95334,37.3825330,-120.7342634
557,Mont Cliff Way,95334,37.3792309,-120.7332399
562,Mont Cliff Way,95334,37.3787877,-120.7331583
581,Elmwood Way,95334,37.3832116,-120.7338796
581,F Street,95334,37.3825166,-120.7338334
580,Elmwood Way,95334,37.3827912,-120.7338339
580,Seaport Village Drive,95334,37.3795044,-120.7326159
572,Mont Cliff Way,95334,37.3787875,-120.7329449
573,Olds Avenue,95334,37.3887672,-120.7150213
567,Mont Cliff Way,95334,37.3792308,-120.7330334
568,Elmwood Way,95334,37.3827804,-120.7340508
569,F Street,95334,37.3825164,-120.7340399
570,Seaport Village Drive,95334,37.3795053,-120.7328267
576,Briarwood Drive,95334,37.3846169,-120.7311977
577,Mont Cliff Way,95334,37.3792307,-120.7328269
582,Mont Cliff Way,95334,37.3787873,-120.7327316
611,Ravenswood Drive,95334,37.3851560,-120.7329917
585,Olds Avenue,95334,37.3889171,-120.7149355
639,Cherrywood Way,95334,37.3847082,-120.7321367
587,Mont Cliff Way,95334,37.3792312,-120.7326185
592,Elmwood Way,95334,37.3827905,-120.7336178
593,Elmwood Way,95334,37.3832318,-120.7336255
593,F Street,95334,37.3825178,-120.7336173
603,Prusso Street,95334,37.3850960,-120.7263530
597,Olds Avenue,95334,37.3890670,-120.7148496
633,Elmwood Way,95334,37.3832319,-120.7327608
604,1St Street,95334,37.3850897,-120.7258472
601,Ravenswood Court,95334,37.3855605,-120.7324333
602,Ravenswood Court,95334,37.3856247,-120.7321455
602,Serr Avenue,95334,37.3878980,-120.7005992
605,East Avenue,95334,37.3890949,-120.7163646
607,Ravenswood Court,95334,37.3853992,-120.7325970
608,Elmwood Way,95334,37.3827910,-120.7331826
608,Ravenswood Court,95334,37.3850927,-120.7321296
608,Serr Avenue,95334,37.3880818,-120.7005993
610,1St Street,95334,37.3848837,-120.7258517
610,Ravenswood Drive,95334,37.3846739,-120.7327757
609,Elmwood Way,95334,37.3832324,-120.7331834
609,F Street,95334,37.3825183,-120.7331821
609,Olds Avenue,95334,37.3891890,-120.7146665
609,Ravenswood Court,95334,37.3852580,-120.7327696
611,1St Street,95334,37.3849046,-120.7252988
611,Almondwood Drive,95334,37.3844685,-120.7325473
622,Serr Avenue,95334,37.3884113,-120.7005968
612,East Avenue,95334,37.3890072,-120.7155397
683,Ravenswood Drive,95334,37.3846877,-120.7335955
615,East Avenue,95334,37.3892198,-120.7162932
615,Prusso Street,95334,37.3849587,-120.7263561
616,Serr Avenue,95334,37.3882466,-120.7005981
621,Cherrywood Way,95334,37.3849845,-120.7324482
621,Elmwood Way,95334,37.3832317,-120.7329673
621,F Street,95334,37.3825176,-120.7329661
621,Olds Avenue,95334,37.3893599,-120.7145549
621,Prusso Street,95334,37.3848214,-120.7263592
620,East Avenue,95334,37.3893153,-120.7154698
620,Elmwood Way,95334,37.3827922,-120.7329666
625,Briarwood Drive,95334,37.3842581,-120.7317625
624,Briarwood Drive,95334,37.3842685,-120.7312139
628,Ravenswood Drive,95334,37.3845576,-120.7329445
684,Mont Cliff Way,95334,37.3787836,-120.7318319
629,2nd Street,95334,37.3847676,-120.7240760
629,Almondwood Drive,95334,37.3843506,-120.7327183
629,Cherrywood Way,95334,37.3848522,-120.7323070
629,Ravenswood Drive,95334,37.3850133,-120.7331306
630,Serr Avenue,95334,37.3885761,-120.7005951
630,1St Street,95334,37.3846778,-120.7258562
635,1St Street,95334,37.3845339,-120.7253267
635,Prusso Street,95334,37.3846841,-120.7263623
632,Elmwood Way,95334,37.3827925,-120.7327600
632,Oakwood Way,95334,37.3835089,-120.7327618
633,F Street,95334,37.3825178,-120.7327596
646,Ravenswood Drive,95334,37.3844493,-120.7331002
643,Prusso Street,95334,37.3844903,-120.7264957
644,1St Street,95334,37.3844242,-120.7258617
644,Elmwood Way,95334,37.3827927,-120.7325535
644,Oakwood Way,95334,37.3835047,-120.7325548
644,Serr Avenue,95334,37.3889111,-120.7005878
636,1St Street,95334,37.3845510,-120.7258589
636,North Main Street,95334,37.3926007,-120.7173720
636,Serr Avenue,95334,37.3887424,-120.7005886
642,2nd Street,95334,37.3845331,-120.7246185
645,Elmwood Way,95334,37.3832321,-120.7325543
645,F Street,95334,37.3825181,-120.7325531
647,Almondwood Drive,95334,37.3842423,-120.7328740
647,Ravenswood Drive,95334,37.3849043,-120.7332842
650,Briarwood Drive,95334,37.3840851,-120.7312194
650,Mont Cliff Way,95334,37.3787871,-120.7325163
650,Serr Avenue,95334,37.3890974,-120.7005443
651,Briarwood Drive,95334,37.3840802,-120.7317656
656,Calero Court,95334,37.3802929,-120.7323630
656,Elmwood Way,95334,37.3827929,-120.7323470
656,F Street,95334,37.3820070,-120.7323227
656,Miadora Court,95334,37.3811905,-120.7323446
6575,Robin Avenue,95334,37.3851902,-120.7412151
660,Mont Cliff Way,95334,37.3787872,-120.7323036
656,Oakwood Way,95334,37.3835049,-120.7323483
656,Seaport Village Drive,95334,37.3794943,-120.7323775
657,Calero Court,95334,37.3807607,-120.7323534
657,Elmwood Way,95334,37.3832324,-120.7323478
657,F Street,95334,37.3825183,-120.7323465
657,Miadora Court,95334,37.3816561,-120.7323359
657,Mont Cliff Way,95334,37.3792225,-120.7323795
657,Oakwood Way,95334,37.3839355,-120.7325339
657,Seaport Village Drive,95334,37.3799386,-120.7323630
664,Ravenswood Drive,95334,37.3843410,-120.7332558
665,Almondwood Drive,95334,37.3841340,-120.7330296
665,Ravenswood Drive,95334,37.3847960,-120.7334399
668,Calero Court,95334,37.3802293,-120.7321118
668,Elmwood Way,95334,37.3827932,-120.7321405
668,F Street,95334,37.3820058,-120.7320789
668,Miadora Court,95334,37.3811267,-120.7320950
668,Oakwood Way,95334,37.3835051,-120.7321418
668,Seaport Village Drive,95334,37.3794931,-120.7321344
670,Mont Cliff Way,95334,37.3787874,-120.7320954
669,Calero Court,95334,37.3808170,-120.7321006
669,Elmwood Way,95334,37.3832326,-120.7321413
669,F Street,95334,37.3825185,-120.7321400
669,Miadora Court,95334,37.3817140,-120.7320847
669,Mont Cliff Way,95334,37.3792197,-120.7321343
669,Oakwood Way,95334,37.3839424,-120.7322533
669,Seaport Village Drive,95334,37.3799344,-120.7321170
675,Briarwood Drive,95334,37.3839023,-120.7317710
676,Briarwood Drive,95334,37.3839017,-120.7312226
687,Calero Court,95334,37.3806670,-120.7318021
681,Elmwood Way,95334,37.3832328,-120.7319348
681,F Street,95334,37.3825188,-120.7319335
680,Cherrywood Way,95334,37.3842058,-120.7321337
680,Elmwood Way,95334,37.3827934,-120.7319340
680,Miadora Court,95334,37.3812699,-120.7317882
680,Oakwood Way,95334,37.3835054,-120.7319353
681,Oakwood Way,95334,37.3839432,-120.7320453
692,Elmwood Way,95334,37.3827927,-120.7317179
692,Oakwood Way,95334,37.3835047,-120.7317192
693,Elmwood Way,95334,37.3832340,-120.7317187
693,F Street,95334,37.3825200,-120.7317175
701,Celia Drive,95334,37.3897491,-120.7174733
700,8th Street,95334,37.3839037,-120.7165532
702,Cedar Court,95334,37.3897537,-120.7008420
700,Sycamore Street,95334,37.3897520,-120.7014004
702,Olds Avenue,95334,37.3897149,-120.7142872
704,2nd Street,95334,37.3840169,-120.7246439
703,Prusso Street,95334,37.3841528,-120.7263741
705,8th Street,95334,37.3839655,-120.7161703
705,Almond Glen Avenue,95334,37.3897271,-120.7138884
705,Olds Avenue,95334,37.3897059,-120.7149589
707,Almondwood Drive,95334,37.3840260,-120.7331855
707,Prusso Street,95334,37.3837376,-120.7263821
707,Ravenswood Drive,95334,37.3845794,-120.7337512
708,Dwight Way,95334,37.3897618,-120.7046015
709,Prusso Street,95334,37.3839435,-120.7263781
710,1St Street,95334,37.3840809,-120.7258689
709,Cedar Court,95334,37.3898266,-120.7010863
710,Sycamore Street,95334,37.3899181,-120.7014017
711,5th Street,95334,37.3839620,-120.7208268
711,East Avenue,95334,37.3898797,-120.7159087
711,Olds Avenue,95334,37.3898771,-120.7149543
713,Almondwood Drive,95334,37.3839167,-120.7333662
713,Ravenswood Drive,95334,37.3844711,-120.7339068
720,Cherrywood Court,95334,37.3842254,-120.7309396
720,Dwight Way,95334,37.3899258,-120.7046013
720,Elmwood Court,95334,37.3827979,-120.7309497
712,Cedar Court,95334,37.3897853,-120.7005292
712,East Avenue,95334,37.3898786,-120.7153577
712,Maple Avenue,95334,37.3898139,-120.7042605
712,Olds Avenue,95334,37.3898929,-120.7142850
712,Ravenswood Drive,95334,37.3842327,-120.7334115
718,Celia Drive,95334,37.3900098,-120.7169534
718,Ravenswood Drive,95334,37.3841247,-120.7335673
714,5th Street,95334,37.3835968,-120.7208340
714,Main Street,95334,37.3839517,-120.7236273
715,2nd Street,95334,37.3839575,-120.7240919
716,Mont Cliff Way,95334,37.3787899,-120.7312351
717,7th Street,95334,37.3838278,-120.7183866
717,Celia Drive,95334,37.3899742,-120.7175223
719,Almond Glen Avenue,95334,37.3898993,-120.7138814
719,Almondwood Drive,95334,37.3837870,-120.7335246
719,Ravenswood Drive,95334,37.3843628,-120.7340625
720,Cambria Place,95334,37.3752797,-120.7344023
721,Oakwood Court,95334,37.3839446,-120.7309437
720,Oakwood Court,95334,37.3835120,-120.7309509
725,Almondwood Drive,95334,37.3836488,-120.7337075
725,Fairlane Drive,95334,37.3784908,-120.7340633
721,7th Street,95334,37.3836498,-120.7183901
721,Cherrywood Court,95334,37.3846553,-120.7309295
721,Elmwood Court,95334,37.3832305,-120.7309504
721,F Street,95334,37.3825199,-120.7309389
723,East Avenue,95334,37.3900500,-120.7159054
723,Olds Avenue,95334,37.3900419,-120.7149511
724,Ravenswood Drive,95334,37.3840169,-120.7337235
724,Sycamore Street,95334,37.3900746,-120.7014000
722,Cedar Court,95334,37.3899879,-120.7004551
722,Mont Cliff Way,95334,37.3787892,-120.7309218
724,Almondwood Drive,95334,37.3836089,-120.7330158
724,Briarwood Drive,95334,37.3835557,-120.7312252
724,East Avenue,95334,37.3900433,-120.7153544
724,Main Street,95334,37.3838144,-120.7236300
724,Olds Avenue,95334,37.3900576,-120.7142819
725,Ravenswood Drive,95334,37.3842545,-120.7342181
728,Oakhurst Place,95334,37.3762193,-120.7338661
729,Cambria Place,95334,37.3757585,-120.7338611
729,Cedar Court,95334,37.3900640,-120.7010969
729,Celia Drive,95334,37.3901554,-120.7174347
726,Fairlane Drive,95334,37.3779527,-120.7338626
726,Hammatt Avenue,95334,37.3833704,-120.7148180
726,Maple Avenue,95334,37.3900364,-120.7042941
727,2nd Street,95334,37.3838202,-120.7240946
727,Kensington Drive,95334,37.3774910,-120.7338622
728,1St Street,95334,37.3838749,-120.7258729
731,Almond Glen Avenue,95334,37.3900641,-120.7138782
731,Almondwood Drive,95334,37.3834734,-120.7337539
731,Fairlane Drive,95334,37.3784527,-120.7337669
731,Ravenswood Drive,95334,37.3841462,-120.7343738
730,Ravenswood Drive,95334,37.3839091,-120.7338797
735,2nd Street,95334,37.3836829,-120.7240972
735,Cambria Place,95334,37.3757557,-120.7335941
734,Cedar Court,95334,37.3901802,-120.7004997
734,Main Street,95334,37.3836771,-120.7236327
734,Oakhurst Place,95334,37.3762226,-120.7336039
732,Cambria Place,95334,37.3752887,-120.7337710
732,Cherrywood Court,95334,37.3842118,-120.7307161
732,Dwight Way,95334,37.3900768,-120.7045986
732,Elmwood Court,95334,37.3827824,-120.7307358
732,Fairlane Drive,95334,37.3779556,-120.7335962
732,Mont Cliff Way,95334,37.3787894,-120.7307153
732,Oakwood Court,95334,37.3834976,-120.7307297
733,Oakhurst Place,95334,37.3766917,-120.7335135
733,Oakwood Court,95334,37.3839596,-120.7307244
733,Cherrywood Court,95334,37.3846707,-120.7307119
733,Elmwood Court,95334,37.3832465,-120.7307363
733,F Street,95334,37.3825201,-120.7307167
733,Kensington Drive,95334,37.3774883,-120.7335978
742,Cedar Court,95334,37.3903313,-120.7005046
742,Mont Cliff Way,95334,37.3787896,-120.7305088
742,Ravenswood Drive,95334,37.3836505,-120.7342754
743,Ravenswood Drive,95334,37.3839314,-120.7347049
739,Kensington Drive,95334,37.3774902,-120.7333404
739,Oakhurst Place,95334,37.3767119,-120.7332716
735,East Avenue,95334,37.3902202,-120.7159021
735,Olds Avenue,95334,37.3902067,-120.7149478
736,Olds Avenue,95334,37.3902224,-120.7142787
736,Ravenswood Drive,95334,37.3837863,-120.7340577
736,East Avenue,95334,37.3902081,-120.7153512
737,Fairlane Drive,95334,37.3784526,-120.7335569
737,Ravenswood Drive,95334,37.3840379,-120.7345294
738,1St Street,95334,37.3837376,-120.7258756
738,Cambria Place,95334,37.3752888,-120.7335611
738,Fairlane Drive,95334,37.3779537,-120.7333398
738,Kensington Drive,95334,37.3770219,-120.7335134
740,Maple Avenue,95334,37.3902180,-120.7042539
740,Oakhurst Place,95334,37.3762205,-120.7333436
741,Almond Glen Avenue,95334,37.3902288,-120.7138751
741,Cambria Place,95334,37.3757576,-120.7333378
754,Ravenswood Drive,95334,37.3833048,-120.7340733
744,7th Street,95334,37.3835697,-120.7188822
744,Cambria Place,95334,37.3752890,-120.7333299
744,Cherrywood Court,95334,37.3841810,-120.7304149
744,Dwight Way,95334,37.3902279,-120.7045960
744,Dwight Way,95334,37.3924125,-120.7045588
744,Kensington Drive,95334,37.3770038,-120.7332704
744,Oakwood Court,95334,37.3834669,-120.7304294
745,Celia Drive,95334,37.3903280,-120.7173181
745,Cherrywood Court,95334,37.3847009,-120.7304181
745,Elmwood Court,95334,37.3832770,-120.7304445
746,Sycamore Street,95334,37.3902311,-120.7013983
749,1St Street,95334,37.3836541,-120.7253214
745,Oakhurst Place,95334,37.3767299,-120.7329022
745,Oakwood Court,95334,37.3839910,-120.7304300
747,2nd Street,95334,37.3835456,-120.7240999
747,Cedar Court,95334,37.3902439,-120.7010486
747,East Avenue,95334,37.3903905,-120.7158989
747,Olds Avenue,95334,37.3903714,-120.7149446
747,Prusso Street,95334,37.3836003,-120.7263848
752,Celia Drive,95334,37.3906476,-120.7168633
752,Maple Avenue,95334,37.3903737,-120.7042482
752,Mont Cliff Way,95334,37.3787898,-120.7303023
748,East Avenue,95334,37.3903729,-120.7153479
748,Olds Avenue,95334,37.3903872,-120.7142756
748,Pecan Court,95334,37.3911626,-120.7168313
748,Ravenswood Drive,95334,37.3834810,-120.7341552
749,Ravenswood Drive,95334,37.3837797,-120.7349372
750,1St Street,95334,37.3836003,-120.7258783
750,Almondwood Drive,95334,37.3834445,-120.7330894
750,Briarwood Drive,95334,37.3833710,-120.7312260
750,Kensington Drive,95334,37.3769834,-120.7328967
793,Maple Avenue,95334,37.3909461,-120.7036904
770,Cedar Court,95334,37.3906331,-120.7004971
761,Cedar Court,95334,37.3903949,-120.7010457
761,Celia Drive,95334,37.3905085,-120.7173832
761,Ravenswood Drive,95334,37.3834211,-120.7347436
755,Almond Glen Avenue,95334,37.3903936,-120.7138719
755,Ravenswood Drive,95334,37.3835694,-120.7348767
760,Olds Avenue,95334,37.3905519,-120.7142724
760,Sycamore Street,95334,37.3903891,-120.7013955
762,Mont Cliff Way,95334,37.3787901,-120.7300958
762,Pecan Court,95334,37.3909390,-120.7167449
758,Cedar Court,95334,37.3904824,-120.7005020
756,Cherrywood Court,95334,37.3843057,-120.7302362
756,Dwight Way,95334,37.3903789,-120.7045933
756,Oakwood Court,95334,37.3835916,-120.7302507
757,Cherrywood Court,95334,37.3845835,-120.7302326
757,Elmwood Court,95334,37.3831561,-120.7302611
757,Fairlane Drive,95334,37.3784964,-120.7330746
757,Maple Avenue,95334,37.3904600,-120.7036955
757,Oakwood Court,95334,37.3838702,-120.7302466
759,East Avenue,95334,37.3905607,-120.7158956
759,Olds Avenue,95334,37.3905362,-120.7149413
760,Celia Drive,95334,37.3908407,-120.7170133
760,East Avenue,95334,37.3905376,-120.7153447
763,Alder Way,95334,37.3905399,-120.7033670
764,Maple Avenue,95334,37.3905386,-120.7042490
767,Almond Glen Avenue,95334,37.3905584,-120.7138688
767,Ravenswood Drive,95334,37.3832738,-120.7346515
768,Dwight Way,95334,37.3905423,-120.7045877
768,Sycamore Street,95334,37.3905580,-120.7013929
769,Maple Avenue,95334,37.3906208,-120.7036938
772,Celia Drive,95334,37.3909869,-120.7171733
772,East Avenue,95334,37.3907024,-120.7153414
772,Mont Cliff Way,95334,37.3787875,-120.7298891
772,Olds Avenue,95334,37.3907167,-120.7142693
773,Celia Drive,95334,37.3905922,-120.7175692
773,Ravenswood Drive,95334,37.3831261,-120.7345598
771,Cedar Court,95334,37.3905581,-120.7010460
771,East Avenue,95334,37.3907310,-120.7158923
771,Olds Avenue,95334,37.3907010,-120.7149381
776,Briarwood Drive,95334,37.3831862,-120.7312245
776,Cedar Lane,95334,37.3907844,-120.7004923
776,Maple Avenue,95334,37.3908845,-120.7042430
776,Pecan Court,95334,37.3907309,-120.7165189
775,Alder Way,95334,37.3907685,-120.7033877
780,Dwight Way,95334,37.3908882,-120.7045817
781,Maple Avenue,95334,37.3907856,-120.7036921
779,Almond Glen Avenue,95334,37.3907232,-120.7138656
779,Ravenswood Drive,95334,37.3829608,-120.7344836
784,East Avenue,95334,37.3908672,-120.7153381
784,Olds Avenue,95334,37.3908815,-120.7142661
783,East Avenue,95334,37.3909013,-120.7158890
783,Olds Avenue,95334,37.3908657,-120.7149349
789,8th Street,95334,37.3834755,-120.7161001
789,Almond Glen Avenue,95334,37.3908879,-120.7138625
785,Cedar Lane,95334,37.3909059,-120.7010268
785,Celia Drive,95334,37.3906776,-120.7177474
786,Celia Drive,95334,37.3910520,-120.7173756
787,Alder Way,95334,37.3909450,-120.7033480
792,Dwight Way,95334,37.3910517,-120.7045816
812,Cedar Lane,95334,37.3915396,-120.7004788
812,Maple Avenue,95334,37.3913500,-120.7042321
812,North Main Street,95334,37.3933681,-120.7186423
812,Zelkova Way,95334,37.3918674,-120.7013525
813,5th Street,95334,37.3830340,-120.7207395
813,8th Street,95334,37.3831357,-120.7153960
813,8th Street,95334,37.3832088,-120.7159882
813,8th Street,95334,37.3832091,-120.7158161
813,8th Street,95334,37.3832099,-120.7153962
813,8th Street,95334,37.3832555,-120.7159883
813,8th Street,95334,37.3832558,-120.7158162
813,8th Street,95334,37.3832840,-120.7153964
813,8th Street,95334,37.3833021,-120.7159885
813,8th Street,95334,37.3833024,-120.7156567
813,8th Street,95334,37.3833025,-120.7158164
813,8th Street,95334,37.3833026,-120.7155638
813,8th Street,95334,37.3833488,-120.7159886
813,8th Street,95334,37.3833491,-120.7158165
813,8th Street,95334,37.3833582,-120.7153966
813,8th Street,95334,37.3834323,-120.7153968
788,8th Street,95334,37.3834792,-120.7166840
788,Cedar Lane,95334,37.3909354,-120.7004896
788,Maple Avenue,95334,37.3910479,-120.7042374
788,Pecan Court,95334,37.3907979,-120.7162209
795,Cedar Lane,95334,37.3910802,-120.7010223
795,East Avenue,95334,37.3910715,-120.7158857
795,Olds Avenue,95334,37.3910305,-120.7149316
794,Cedar Lane,95334,37.3910865,-120.7004869
801,7th Street,95334,37.3834144,-120.7177465
801,7th Street,95334,37.3834146,-120.7176433
801,7th Street,95334,37.3834250,-120.7180125
801,7th Street,95334,37.3834252,-120.7179093
801,7th Street,95334,37.3834296,-120.7184841
801,7th Street,95334,37.3834298,-120.7184152
801,7th Street,95334,37.3834301,-120.7182604
801,7th Street,95334,37.3834302,-120.7181915
801,7th Street,95334,37.3834968,-120.7177468
801,7th Street,95334,37.3834969,-120.7176435
801,7th Street,95334,37.3835074,-120.7180128
801,7th Street,95334,37.3835076,-120.7179095
801,7th Street,95334,37.3835120,-120.7184843
801,7th Street,95334,37.3835122,-120.7184155
801,7th Street,95334,37.3835125,-120.7182606
801,7th Street,95334,37.3835126,-120.7181918
801,Almond Glen Avenue,95334,37.3910527,-120.7138593
801,Cedar Lane,95334,37.3912545,-120.7010231
801,Zelkova Way,95334,37.3916540,-120.7018426
796,East Avenue,95334,37.3910319,-120.7153349
796,Olds Avenue,95334,37.3910463,-120.7142630
798,Celia Drive,95334,37.3911545,-120.7175522
799,Alder Way,95334,37.3910988,-120.7033475
800,1St Street,95334,37.3833944,-120.7258823
800,4th Street,95334,37.3831250,-120.7224966
800,8th Street,95334,37.3833112,-120.7166378
800,Alder Way,95334,37.3912160,-120.7028547
800,Cedar Lane,95334,37.3912375,-120.7004842
800,Maple Avenue,95334,37.3911989,-120.7042347
800,Zelkova Way,95334,37.3916530,-120.7014080
801,1St Street,95334,37.3830682,-120.7253204
801,4th Street,95334,37.3831168,-120.7218393
801,7th Street,95334,37.3831489,-120.7177525
801,7th Street,95334,37.3831490,-120.7176492
801,7th Street,95334,37.3831499,-120.7179963
806,8th Street,95334,37.3832912,-120.7169891
806,Cedar Lane,95334,37.3913886,-120.7004815
842,8th Street,95334,37.3823190,-120.7169293
842,8th Street,95334,37.3823191,-120.7168433
842,8th Street,95334,37.3823193,-120.7167744
842,8th Street,95334,37.3823383,-120.7166687
842,8th Street,95334,37.3823385,-120.7166067
801,7th Street,95334,37.3831501,-120.7178930
801,7th Street,95334,37.3832312,-120.7177527
801,7th Street,95334,37.3832314,-120.7176495
801,7th Street,95334,37.3832861,-120.7180822
802,Pecan Court,95334,37.3910780,-120.7161890
810,1St Street,95334,37.3831884,-120.7258864
805,Main Street,95334,37.3831997,-120.7229805
805,Maple Avenue,95334,37.3910999,-120.7036885
804,5th Street,95334,37.3830424,-120.7213830
804,8th Street,95334,37.3831665,-120.7167315
804,Dwight Way,95334,37.3912028,-120.7045789
804,Main Street,95334,37.3832194,-120.7236497
808,Olds Avenue,95334,37.3912110,-120.7142598
809,7th Street,95334,37.3831751,-120.7183478
807,5th Street,95334,37.3831438,-120.7207367
807,East Avenue,95334,37.3912418,-120.7158824
807,Olds Avenue,95334,37.3911953,-120.7149284
807,Prusso Street,95334,37.3833257,-120.7263902
808,8th Street,95334,37.3831518,-120.7169771
808,East Avenue,95334,37.3911967,-120.7153317
863,6th Street,95334,37.3823681,-120.7196076
863,Chandon Court,95334,37.3806107,-120.7289929
863,Latour Way,95334,37.3798836,-120.7289976
816,8th Street,95334,37.3826971,-120.7170939
816,8th Street,95334,37.3827492,-120.7174310
816,8th Street,95334,37.3828055,-120.7174312
816,8th Street,95334,37.3828591,-120.7174313
816,8th Street,95334,37.3829247,-120.7169255
816,8th Street,95334,37.3829250,-120.7174315
816,8th Street,95334,37.3829588,-120.7167554
816,8th Street,95334,37.3829589,-120.7167055
816,8th Street,95334,37.3829590,-120.7166504
816,8th Street,95334,37.3829591,-120.7166005
816,8th Street,95334,37.3829714,-120.7172685
816,8th Street,95334,37.3829716,-120.7171842
816,8th Street,95334,37.3829717,-120.7170947
816,8th Street,95334,37.3829785,-120.7174317
816,Dwight Way,95334,37.3913538,-120.7045763
816,Pecan Court,95334,37.3912838,-120.7162476
816,Zelkova Way,95334,37.3920239,-120.7013497
820,Olds Avenue,95334,37.3913758,-120.7142567
813,Prusso Street,95334,37.3831883,-120.7263929
814,6th Street,95334,37.3830282,-120.7202818
814,Jordonolla Way,95334,37.3913733,-120.7096126
814,Main Street,95334,37.3830862,-120.7236523
815,6th Street,95334,37.3830197,-120.7195961
815,Almond Glen Avenue,95334,37.3912180,-120.7138565
815,Main Street,95334,37.3830281,-120.7229839
816,8th Street,95334,37.3826841,-120.7167546
816,8th Street,95334,37.3826842,-120.7167047
816,8th Street,95334,37.3826843,-120.7166496
816,8th Street,95334,37.3826844,-120.7165997
816,8th Street,95334,37.3826957,-120.7174308
816,8th Street,95334,37.3826968,-120.7172677
816,8th Street,95334,37.3826969,-120.7171834
818,Cedar Lane,95334,37.3916906,-120.7004762
827,Zelkova Way,95334,37.3923546,-120.7018320
828,4th Street,95334,37.3827817,-120.7225034
828,7th Street,95334,37.3828687,-120.7190560
828,Dwight Way,95334,37.3915048,-120.7045736
817,Cedar Lane,95334,37.3916517,-120.7009707
817,Maple Avenue,95334,37.3912635,-120.7036842
817,Zelkova Way,95334,37.3919240,-120.7018400
823,6th Street,95334,37.3828823,-120.7195988
823,Prusso Street,95334,37.3830510,-120.7263956
819,East Avenue,95334,37.3914120,-120.7158791
819,Olds Avenue,95334,37.3913600,-120.7149254
828,Wycliffe Drive,95334,37.3914380,-120.7118974
828,Zelkova Way,95334,37.3923370,-120.7013442
832,4th Street,95334,37.3826444,-120.7225061
832,7th Street,95334,37.3826009,-120.7190622
832,7th Street,95334,37.3827383,-120.7190595
832,East Avenue,95334,37.3915262,-120.7153255
832,Main Street,95334,37.3827495,-120.7236589
832,Olds Avenue,95334,37.3915474,-120.7142534
820,1St Street,95334,37.3829824,-120.7258904
820,East Avenue,95334,37.3913615,-120.7153286
822,4th Street,95334,37.3829191,-120.7225007
823,4th Street,95334,37.3829108,-120.7218434
823,5th Street,95334,37.3828967,-120.7207422
821,7th Street,95334,37.3829492,-120.7177669
821,7th Street,95334,37.3829494,-120.7176568
821,7th Street,95334,37.3830261,-120.7177671
821,7th Street,95334,37.3830263,-120.7176570
821,7th Street,95334,37.3830477,-120.7180178
821,7th Street,95334,37.3830478,-120.7179593
821,7th Street,95334,37.3830479,-120.7179008
821,7th Street,95334,37.3830504,-120.7185072
821,7th Street,95334,37.3830505,-120.7184556
821,7th Street,95334,37.3830506,-120.7184040
821,7th Street,95334,37.3830507,-120.7183523
821,7th Street,95334,37.3830508,-120.7183007
824,Briarwood Drive,95334,37.3828417,-120.7312240
824,Cedar Lane,95334,37.3918420,-120.7004735
824,Count Drive,95334,37.3752774,-120.7321001
824,Jordonolla Way,95334,37.3915590,-120.7096495
824,Main Street,95334,37.3829143,-120.7236556
824,Maple Avenue,95334,37.3915013,-120.7042273
824,Zelkova Way,95334,37.3921805,-120.7013470
825,4th Street,95334,37.3827735,-120.7218461
825,Knights Court,95334,37.3785108,-120.7317636
826,5th Street,95334,37.3829051,-120.7213857
826,6th Street,95334,37.3828909,-120.7202845
826,Celia Drive,95334,37.3914367,-120.7179626
827,Almond Glen Avenue,95334,37.3914022,-120.7138923
827,Cedar Lane,95334,37.3918665,-120.7010186
830,7th Street,95334,37.3829511,-120.7190562
830,Cedar Lane,95334,37.3919934,-120.7004708
831,6th Street,95334,37.3827725,-120.7196015
831,Olds Avenue,95334,37.3915248,-120.7149223
833,5th Street,95334,37.3827593,-120.7207449
833,7th Street,95334,37.3827604,-120.7180892
833,Cedar Lane,95334,37.3920230,-120.7010158
833,Main Street,95334,37.3828221,-120.7229879
834,5th Street,95334,37.3827678,-120.7213884
834,Jordonolla Way,95334,37.3917109,-120.7096495
834,Zelkova Way,95334,37.3924935,-120.7013414
835,1St Street,95334,37.3827231,-120.7252290
835,6th Street,95334,37.3826352,-120.7196043
835,8th Street,95334,37.3825505,-120.7161311
835,Wycliffe Drive,95334,37.3915798,-120.7124779
836,1St Street,95334,37.3827078,-120.7258958
836,6th Street,95334,37.3827399,-120.7202887
836,Cedar Lane,95334,37.3921445,-120.7004681
836,Knights Court,95334,37.3782148,-120.7319658
836,Maple Court,95334,37.3916520,-120.7042225
837,Almond Glen Avenue,95334,37.3916184,-120.7138440
838,4th Street,95334,37.3825071,-120.7225088
838,Count Drive,95334,37.3752777,-120.7319208
839,6th Street,95334,37.3827176,-120.7196014
839,Cedar Lane,95334,37.3921795,-120.7010130
839,Chandon Court,95334,37.3806105,-120.7294471
839,Knights Court,95334,37.3785105,-120.7319607
839,Latour Way,95334,37.3798834,-120.7294604
849,1St Street,95334,37.3824938,-120.7252335
849,7th Street,95334,37.3825633,-120.7182130
849,7th Street,95334,37.3825831,-120.7184467
860,Cedar Lane,95334,37.3927497,-120.7004393
860,East Avenue,95334,37.3920355,-120.7153119
860,Maple Court,95334,37.3919541,-120.7042172
850,Briarwood Drive,95334,37.3826603,-120.7312248
850,Knights Court,95334,37.3782152,-120.7317806
852,Chandon Court,95334,37.3801717,-120.7292218
852,Count Drive,95334,37.3752780,-120.7317535
852,Dwight Way,95334,37.3918069,-120.7045683
852,Vine Cliff Way,95334,37.3808981,-120.7292085
853,Knights Court,95334,37.3785244,-120.7321580
853,Maple Court,95334,37.3917773,-120.7036779
840,Chandon Court,95334,37.3801700,-120.7294581
840,Dwight Way,95334,37.3916559,-120.7045710
840,Vine Cliff Way,95334,37.3808968,-120.7294452
840,Zelkova Way,95334,37.3926597,-120.7013357
841,8th Street,95334,37.3823430,-120.7162759
841,Main Street,95334,37.3826505,-120.7229913
841,Maple Court,95334,37.3916104,-120.7036771
847,Prusso Street,95334,37.3824472,-120.7264082
847,Prusso Street,95334,37.3827764,-120.7264010
848,Cedar Lane,95334,37.3924466,-120.7004627
853,Wycliffe Drive,95334,37.3917596,-120.7124713
854,Cedar Lane,95334,37.3925977,-120.7004600
858,Wycliffe Drive,95334,37.3918357,-120.7119187
842,8th Street,95334,37.3823684,-120.7169295
842,8th Street,95334,37.3823686,-120.7168434
842,8th Street,95334,37.3823687,-120.7167746
842,8th Street,95334,37.3823933,-120.7166688
842,8th Street,95334,37.3823934,-120.7166069
842,8th Street,95334,37.3824757,-120.7166690
842,8th Street,95334,37.3824758,-120.7166071
842,8th Street,95334,37.3825306,-120.7166692
842,8th Street,95334,37.3825307,-120.7166073
842,Cedar Lane,95334,37.3922955,-120.7004654
843,6th Street,95334,37.3824231,-120.7196078
843,Olds Avenue,95334,37.3916891,-120.7149206
844,4th Street,95334,37.3823909,-120.7225111
844,7th Street,95334,37.3824642,-120.7189230
844,Olds Avenue,95334,37.3917191,-120.7142501
845,5th Street,95334,37.3826495,-120.7207476
845,6th Street,95334,37.3825803,-120.7196041
845,Cedar Lane,95334,37.3923361,-120.7010102
845,Jordonolla Way,95334,37.3918394,-120.7101988
845,Main Street,95334,37.3824656,-120.7229949
846,1St Street,95334,37.3824469,-120.7259017
846,5th Street,95334,37.3826305,-120.7213911
846,6th Street,95334,37.3826163,-120.7202883
846,Jordonolla Way,95334,37.3918620,-120.7096466
846,Wycliffe Drive,95334,37.3916428,-120.7119225
847,4th Street,95334,37.3826225,-120.7218491
847,5th Street,95334,37.3825946,-120.7207475
848,Maple Court,95334,37.3918030,-120.7042199
851,6th Street,95334,37.3824780,-120.7196080
851,Cedar Lane,95334,37.3924926,-120.7010074
851,Chandon Court,95334,37.3806104,-120.7292080
851,Latour Way,95334,37.3798833,-120.7292213
867,Jordonolla Way,95334,37.3921496,-120.7101918
867,Olds Avenue,95334,37.3920195,-120.7149143
868,Jordonolla Way,95334,37.3921641,-120.7096407
868,Olds Avenue,95334,37.3920623,-120.7142435
856,Olds Avenue,95334,37.3918907,-120.7142468
857,Cedar Lane,95334,37.3926587,-120.7010073
861,5th Street,95334,37.3823797,-120.7207523
855,5th Street,95334,37.3824957,-120.7207500
855,Jordonolla Way,95334,37.3919917,-120.7101949
856,5th Street,95334,37.3824470,-120.7215066
856,Jordonolla Way,95334,37.3920130,-120.7096437
892,Olds Avenue,95334,37.3923990,-120.7142371
892,Wycliffe Drive,95334,37.3924399,-120.7119070
893,Chandon Court,95334,37.3806586,-120.7282453
893,Latour Way,95334,37.3799203,-120.7282480
894,Chandon Court,95334,37.3801247,-120.7282486
894,Count Drive,95334,37.3752701,-120.7309230
864,6th Street,95334,37.3824316,-120.7202935
864,7th Street,95334,37.3823610,-120.7189407
864,Chandon Court,95334,37.3801719,-120.7289981
864,Dwight Way,95334,37.3919580,-120.7045657
864,Knights Court,95334,37.3782156,-120.7315894
864,Vine Cliff Way,95334,37.3808974,-120.7289940
865,Maple Court,95334,37.3919339,-120.7036754
865,Wycliffe Drive,95334,37.3919381,-120.7124703
866,Cedar Lane,95334,37.3929808,-120.7004078
866,Count Drive,95334,37.3752784,-120.7315743
875,Chandon Court,95334,37.3806109,-120.7287778
875,Latour Way,95334,37.3798838,-120.7287739
876,Briarwood Drive,95334,37.3824790,-120.7312233
876,Chandon Court,95334,37.3801722,-120.7287744
876,Dwight Way,95334,37.3921090,-120.7045630
876,Vine Cliff Way,95334,37.3808654,-120.7287562
872,Maple Court,95334,37.3921051,-120.7042146
872,Wycliffe Drive,95334,37.3920279,-120.7119150
877,Count Drive,95334,37.3755987,-120.7311690
877,Jordonolla Way,95334,37.3923075,-120.7101887
877,Maple Court,95334,37.3920904,-120.7036726
880,Wycliffe Drive,95334,37.3922339,-120.7119110
878,Jordonolla Way,95334,37.3923151,-120.7096378
888,Chandon Court,95334,37.3801556,-120.7285564
888,Dwight Way,95334,37.3922614,-120.7045594
888,Jordonolla Way,95334,37.3924661,-120.7096348
888,Vine Cliff Way,95334,37.3809026,-120.7284978
889,Jordonolla Way,95334,37.3924585,-120.7101858
889,Maple Court,95334,37.3922454,-120.7036653
889,Wycliffe Drive,95334,37.3924587,-120.7124581
896,Maple Court,95334,37.3924404,-120.7042672
879,Olds Avenue,95334,37.3921839,-120.7149099
879,Wycliffe Drive,95334,37.3922790,-120.7124652
880,Count Drive,95334,37.3752788,-120.7313891
880,East Avenue,95334,37.3922480,-120.7152972
880,Olds Avenue,95334,37.3922271,-120.7142404
902,Bridgeport Avenue,95334,37.3820739,-120.7326297
902,Chastanet Court,95334,37.3820610,-120.7285022
902,Dallas Court,95334,37.3820589,-120.7303284
902,Main Street,95334,37.3820577,-120.7237164
902,Montelena Court,95334,37.3820599,-120.7294164
904,Olds Avenue,95334,37.3925780,-120.7142337
904,Turquoise Court,95334,37.3772802,-120.7303693
901,Chastanet Court,95334,37.3820603,-120.7290367
884,Maple Court,95334,37.3922573,-120.7042180
887,Chandon Court,95334,37.3806275,-120.7285599
887,Count Drive,95334,37.3754212,-120.7311561
887,Latour Way,95334,37.3798965,-120.7285537
891,Olds Avenue,95334,37.3923491,-120.7149072
903,Briarwood Drive,95334,37.3820449,-120.7317863
903,Dallas Court,95334,37.3820583,-120.7308608
903,Main Street,95334,37.3821209,-120.7229592
903,Montelena Court,95334,37.3820593,-120.7299488
910,J Street,95334,37.3775101,-120.7287083
910,Misty Harbour Drive,95334,37.3818926,-120.7335858
910,North Main Street,95334,37.3937174,-120.7185016
910,Turquoise Court,95334,37.3774144,-120.7301195
899,Jordonolla Way,95334,37.3926334,-120.7101842
900,Misty Harbour Drive,95334,37.3820776,-120.7335913
897,Chandon Court,95334,37.3805248,-120.7280605
898,Chandon Court,95334,37.3802587,-120.7280645
898,Jordonolla Way,95334,37.3926376,-120.7096284
898,Wycliffe Drive,95334,37.3926334,-120.7119001
905,Narada Way,95334,37.3927613,-120.7138752
906,Topaz Way,95334,37.3752699,-120.7303015
901,Maple Court,95334,37.3924259,-120.7036058
901,Misty Harbour Drive,95334,37.3820730,-120.7341987
901,Turquoise Court,95334,37.3777137,-120.7307202
912,Montelena Court,95334,37.3818570,-120.7293919
912,Topaz Way,95334,37.3752430,-120.7300235
905,5th Street,95334,37.3820864,-120.7207773
906,5th Street,95334,37.3820821,-120.7213972
906,Peach Avenue,95334,37.3744295,-120.7291190
908,Maple Court,95334,37.3926441,-120.7042131
907,Turquoise Court,95334,37.3779232,-120.7306070
909,Prusso Street,95334,37.3820225,-120.7265259
909,Spring Brook Drive,95334,37.3737895,-120.7300561
924,Golden Leaf Drive,95334,37.3726014,-120.7297179
924,Spring Brook Drive,95334,37.3733127,-120.7297030
924,Topaz Way,95334,37.3752607,-120.7298030
912,Auburn Court,95334,37.3819873,-120.7355191
912,Bridgeport Avenue,95334,37.3818886,-120.7326404
912,Chastanet Court,95334,37.3818582,-120.7284798
912,Dallas Court,95334,37.3818560,-120.7303039
912,Dosangh Court,95334,37.3818273,-120.7378685
912,Dwight Way,95334,37.3925621,-120.7045551
912,Main Street,95334,37.3818312,-120.7237213
913,Maple Court,95334,37.3926334,-120.7036494
913,Misty Harbour Drive,95334,37.3818819,-120.7341803
913,Narada Way,95334,37.3929454,-120.7138311
914,4th Street,95334,37.3819605,-120.7224374
920,6th Street,95334,37.3818909,-120.7202992
920,Auburn Court,95334,37.3820522,-120.7357681
920,Maple Court,95334,37.3926900,-120.7039269
920,Misty Harbour Drive,95334,37.3817195,-120.7335745
920,North Main Street,95334,37.3938460,-120.7181586
922,Bridgeport Avenue,95334,37.3817243,-120.7326451
922,Chastanet Court,95334,37.3816818,-120.7284964
915,Auburn Court,95334,37.3816228,-120.7355547
915,Briarwood Drive,95334,37.3818521,-120.7317894
915,Bridgeport Avenue,95334,37.3818920,-120.7332119
915,Chastanet Court,95334,37.3818574,-120.7290605
915,Dallas Court,95334,37.3818554,-120.7308846
915,Hilltop Avenue,95334,37.3820715,-120.7369808
915,Main Street,95334,37.3819663,-120.7229037
915,Montelena Court,95334,37.3818564,-120.7299726
915,Olds Avenue,95334,37.3926827,-120.7149006
915,Talara Drive,95334,37.3820196,-120.7410832
916,Barcelona Drive,95334,37.3820719,-120.7394277
916,Hilltop Avenue,95334,37.3820716,-120.7375583
916,Olds Avenue,95334,37.3927500,-120.7142304
919,Ruby Way,95334,37.3771096,-120.7299802
921,Opal Court,95334,37.3764111,-120.7298262
921,Spring Brook Drive,95334,37.3737691,-120.7297835
922,Briarwood Drive,95334,37.3816785,-120.7312264
920,5th Street,95334,37.3819064,-120.7214007
921,4th Street,95334,37.3819124,-120.7218825
921,5th Street,95334,37.3819120,-120.7207807
922,Dallas Court,95334,37.3816797,-120.7303186
922,J Street,95334,37.3775182,-120.7284707
922,Main Street,95334,37.3816115,-120.7237261
922,Montelena Court,95334,37.3816807,-120.7294066
926,Cambria Place,95334,37.3752606,-120.7340210
926,Ruby Way,95334,37.3766730,-120.7297753
923,Dosangh Court,95334,37.3816453,-120.7384570
923,Golden Leaf Drive,95334,37.3730430,-120.7297052
923,Misty Harbour Drive,95334,37.3817140,-120.7341645
923,Park View Drive,95334,37.3723351,-120.7297201
924,Dosangh Court,95334,37.3816355,-120.7379180
924,Dwight Way,95334,37.3927143,-120.7045524
925,Montelena Court,95334,37.3816801,-120.7299573
925,Narada Way,95334,37.3930983,-120.7138193
925,Auburn Court,95334,37.3815822,-120.7358861
925,Briarwood Drive,95334,37.3816605,-120.7317940
925,Bridgeport Avenue,95334,37.3817186,-120.7332148
925,Chastanet Court,95334,37.3816811,-120.7290452
925,Dallas Court,95334,37.3816790,-120.7308693
931,Hilltop Avenue,95334,37.3819087,-120.7369870
931,Main Street,95334,37.3817708,-120.7229730
931,Mori Court,95334,37.3932577,-120.7111746
931,Spring Brook Drive,95334,37.3737793,-120.7295912
931,Talara Drive,95334,37.3818040,-120.7411425
927,Olds Avenue,95334,37.3928633,-120.7149048
927,Ruby Way,95334,37.3772106,-120.7297683
935,Opal Court,95334,37.3765327,-120.7293522
935,Park View Drive,95334,37.3723334,-120.7295099
935,Patzer Street,95334,37.3816648,-120.7275655
936,Auburn Court,95334,37.3820315,-120.7361887
929,Opal Court,95334,37.3764206,-120.7295901
929,Orchard Way,95334,37.3935936,-120.7165212
928,4th Street,95334,37.3817870,-120.7225062
928,Auburn Court,95334,37.3820233,-120.7359940
928,Olds Avenue,95334,37.3929138,-120.7142089
929,4th Street,95334,37.3817380,-120.7218859
965,Mori Court,95334,37.3937603,-120.7111973
965,Narada Way,95334,37.3940564,-120.7138057
930,Misty Harbour Drive,95334,37.3815461,-120.7335677
930,Topaz Way,95334,37.3752574,-120.7295940
932,Barcelona Drive,95334,37.3818957,-120.7394363
932,Bridgeport Avenue,95334,37.3815597,-120.7326449
932,Hilltop Avenue,95334,37.3819075,-120.7375598
932,Main Street,95334,37.3813918,-120.7237309
932,Mori Court,95334,37.3932569,-120.7105151
932,Prusso Street,95334,37.3816643,-120.7271009
932,Ruby Way,95334,37.3767532,-120.7295188
933,5th Street,95334,37.3817418,-120.7207840
933,Auburn Court,95334,37.3815999,-120.7361299
933,Misty Harbour Drive,95334,37.3815467,-120.7341583
936,Golden Leaf Drive,95334,37.3726041,-120.7295100
933,Topaz Way,95334,37.3752498,-120.7283551
933,Topaz Way,95334,37.3756948,-120.7294734
934,5th Street,95334,37.3817320,-120.7214041
934,6th Street,95334,37.3817179,-120.7203026
934,J Street,95334,37.3775463,-120.7282668
934,Opal Court,95334,37.3759766,-120.7294976
935,Bridgeport Avenue,95334,37.3815453,-120.7332128
935,Chastanet Court,95334,37.3815025,-120.7290449
935,Dallas Court,95334,37.3815005,-120.7308690
935,Golden Leaf Drive,95334,37.3730414,-120.7294948
935,Kishi Drive,95334,37.3933535,-120.7138173
935,Montelena Court,95334,37.3815015,-120.7299569
945,5th Street,95334,37.3815715,-120.7207874
936,Spring Brook Drive,95334,37.3733161,-120.7294949
936,Topaz Way,95334,37.3752561,-120.7293875
938,Briarwood Drive,95334,37.3815000,-120.7312279
938,Chastanet Court,95334,37.3815033,-120.7284980
938,Dallas Court,95334,37.3815011,-120.7303183
938,Dosangh Court,95334,37.3814691,-120.7379241
938,Montelena Court,95334,37.3815021,-120.7294063
938,Ruby Way,95334,37.3768447,-120.7293084
946,5th Street,95334,37.3815562,-120.7214076
946,6th Street,95334,37.3815449,-120.7203060
946,Golden Leaf Drive,95334,37.3726041,-120.7293173
946,J Street,95334,37.3775576,-120.7280579
946,Opal Court,95334,37.3762651,-120.7289061
946,Spring Brook Drive,95334,37.3733161,-120.7293056
947,Hilltop Avenue,95334,37.3817577,-120.7369898
940,Misty Harbour Drive,95334,37.3813727,-120.7335661
940,Olds Avenue,95334,37.3930918,-120.7141991
940,Opal Court,95334,37.3759464,-120.7292280
939,Dosangh Court,95334,37.3814704,-120.7384584
939,Olds Avenue,95334,37.3930710,-120.7149217
939,Topaz Way,95334,37.3756949,-120.7292669
941,Mori Court,95334,37.3934308,-120.7112037
941,Opal Court,95334,37.3765370,-120.7290885
941,Spring Brook Drive,95334,37.3737795,-120.7294018
942,4th Street,95334,37.3816057,-120.7225098
942,Bridgeport Avenue,95334,37.3813946,-120.7326452
942,Mori Court,95334,37.3934320,-120.7105265
942,Topaz Way,95334,37.3752549,-120.7291811
943,4th Street,95334,37.3815623,-120.7218893
943,Main Street,95334,37.3815896,-120.7229767
943,Misty Harbour Drive,95334,37.3813794,-120.7341583
943,Orchard Way,95334,37.3937696,-120.7164905
944,Olds Avenue,95334,37.3937035,-120.7141689
944,Opal Court,95334,37.3760001,-120.7289098
951,Chastanet Court,95334,37.3813109,-120.7290456
951,Dallas Court,95334,37.3813088,-120.7308697
951,Dosangh Court,95334,37.3812728,-120.7384752
951,Montelena Court,95334,37.3813099,-120.7299577
952,Briarwood Drive,95334,37.3813083,-120.7312284
952,Bridgeport Avenue,95334,37.3812295,-120.7326503
952,Chastanet Court,95334,37.3813252,-120.7284988
945,Bridgeport Avenue,95334,37.3813727,-120.7332119
945,Golden Leaf Drive,95334,37.3730415,-120.7293055
945,Narada Way,95334,37.3937127,-120.7138125
945,Park View Drive,95334,37.3723335,-120.7293172
945,Topaz Way,95334,37.3756950,-120.7290604
947,Talara Drive,95334,37.3816243,-120.7411283
948,Auburn Court,95334,37.3820562,-120.7364811
948,Barcelona Drive,95334,37.3817309,-120.7394402
948,Hilltop Avenue,95334,37.3817565,-120.7375630
948,Prusso Street,95334,37.3814528,-120.7271058
948,Topaz Way,95334,37.3752536,-120.7289746
949,Patzer Street,95334,37.3814533,-120.7275705
950,Dosangh Court,95334,37.3812983,-120.7379252
950,Misty Harbour Drive,95334,37.3811997,-120.7335662
950,Olds Avenue,95334,37.3938789,-120.7141554
951,Spring Brook Drive,95334,37.3737796,-120.7292125
951,Topaz Way,95334,37.3757019,-120.7288524
954,Mori Court,95334,37.3935942,-120.7106228
954,Topaz Way,95334,37.3752524,-120.7287681
952,Dallas Court,95334,37.3813095,-120.7303169
952,Montelena Court,95334,37.3813105,-120.7294049
953,Misty Harbour Drive,95334,37.3812119,-120.7341599
955,Bridgeport Avenue,95334,37.3812000,-120.7332165
955,Main Street,95334,37.3814457,-120.7230054
955,Mori Court,95334,37.3935955,-120.7112005
955,Narada Way,95334,37.3938917,-120.7138082
956,4th Street,95334,37.3814399,-120.7225389
957,5th Street,95334,37.3814012,-120.7207907
957,Golden Leaf Drive,95334,37.3730415,-120.7291162
957,Orchard Way,95334,37.3939343,-120.7164913
957,Park View Drive,95334,37.3723335,-120.7291245
957,Topaz Way,95334,37.3756979,-120.7286384
958,Golden Leaf Drive,95334,37.3726041,-120.7291246
958,Orchard Way,95334,37.3939669,-120.7159407
958,Spring Brook Drive,95334,37.3733161,-120.7291163
959,2nd Street,95334,37.3814622,-120.7241928
959,4th Street,95334,37.3813865,-120.7218928
960,Topaz Way,95334,37.3752511,-120.7285616
964,Mori Court,95334,37.3937620,-120.7106464
964,Olds Avenue,95334,37.3940479,-120.7141505
960,5th Street,95334,37.3813805,-120.7214110
960,6th Street,95334,37.3813719,-120.7203094
960,Auburn Court,95334,37.3819143,-120.7366622
960,Misty Harbour Drive,95334,37.3810266,-120.7335664
962,Bridgeport Avenue,95334,37.3810649,-120.7326574
962,Chastanet Court,95334,37.3811259,-120.7284557
961,Olds Avenue,95334,37.3939768,-120.7147028
961,Spring Brook Drive,95334,37.3737796,-120.7290233
963,Hilltop Avenue,95334,37.3816066,-120.7369926
963,Misty Harbour Drive,95334,37.3810444,-120.7341616
963,Talara Drive,95334,37.3814598,-120.7411293
964,Barcelona Drive,95334,37.3815661,-120.7394441
964,Hilltop Avenue,95334,37.3816054,-120.7375660
965,Briarwood Drive,95334,37.3810578,-120.7318022
965,Bridgeport Avenue,95334,37.3810267,-120.7332214
966,Fruitbasket Lane,95334,37.3939913,-120.7153212
967,Golden Leaf Drive,95334,37.3730415,-120.7289270
967,Park View Drive,95334,37.3723335,-120.7289318
968,Auburn Court,95334,37.3816740,-120.7366278
968,Golden Leaf Drive,95334,37.3726042,-120.7289319
968,Spring Brook Drive,95334,37.3733162,-120.7289270
970,Fruitbasket Lane,95334,37.3940601,-120.7150255
970,Misty Harbour Drive,95334,37.3808533,-120.7335681
971,Fruitbasket Lane,95334,37.3940581,-120.7156179
972,Briarwood Drive,95334,37.3809342,-120.7312387
972,Bridgeport Avenue,95334,37.3809006,-120.7326601
972,Dallas Drive,95334,37.3809357,-120.7303170
972,I Street,95334,37.3787759,-120.7283271
972,Orchard Way,95334,37.3941339,-120.7159416
972,Topaz Way,95334,37.3752434,-120.7281296
973,Misty Harbour Drive,95334,37.3808774,-120.7341642
973,Olds Avenue,95334,37.3941518,-120.7147030
974,Mori Court,95334,37.3939319,-120.7106412
975,Briarwood Drive,95334,37.3808793,-120.7318065
975,Bridgeport Avenue,95334,37.3808532,-120.7332211
975,Dallas Drive,95334,37.3809328,-120.7308857
975,Montelena Avenue,95334,37.3809344,-120.7299579
975,Mori Court,95334,37.3939251,-120.7111941
976,Auburn Court,95334,37.3814894,-120.7366227
976,Olds Avenue,95334,37.3942138,-120.7141505
978,Golden Leaf Drive,95334,37.3726019,-120.7287297
978,Newcastle Drive,95334,37.3714604,-120.7287241
978,Spring Brook Drive,95334,37.3733140,-120.7287281
977,Golden Leaf Drive,95334,37.3730439,-120.7287282
977,Narada Way,95334,37.3942212,-120.7138033
977,Park View Drive,95334,37.3723358,-120.7287296
979,Hilltop Avenue,95334,37.3814556,-120.7369954
979,Talara Drive,95334,37.3812949,-120.7411327
980,Barcelona Drive,95334,37.3814012,-120.7394480
980,Hilltop Avenue,95334,37.3814541,-120.7375693
980,Misty Harbour Drive,95334,37.3806799,-120.7335738
982,Briarwood Drive,95334,37.3807411,-120.7312451
982,Bridgeport Avenue,95334,37.3807358,-120.7326591
982,Dallas Drive,95334,37.3807432,-120.7303231
983,Misty Harbour Drive,95334,37.3807106,-120.7341721
983,Mori Court,95334,37.3940987,-120.7111899
985,Bridgeport Avenue,95334,37.3806804,-120.7332188
985,Dallas Drive,95334,37.3807370,-120.7308899
985,Montelena Avenue,95334,37.3807401,-120.7299606
985,Olds Avenue,95334,37.3943221,-120.7147040
986,Mori Court,95334,37.3942855,-120.7106461
986,Orchard Way,95334,37.3942987,-120.7159424
987,Fruitbasket Lane,95334,37.3943142,-120.7156368
988,Auburn Court,95334,37.3813024,-120.7366299
988,Fruitbasket Lane,95334,37.3943171,-120.7150100
988,Newcastle Drive,95334,37.3714784,-120.7284550
989,Mori Court,95334,37.3942754,-120.7112058
996,Hilltop Avenue,95334,37.3812937,-120.7375762
997,Olds Avenue,95334,37.3944924,-120.7147049
990,I Street,95334,37.3787764,-120.7280809
990,Misty Harbour Drive,95334,37.3805103,-120.7335866
990,Olds Avenue,95334,37.3943786,-120.7141497
992,Briarwood Drive,95334,37.3805626,-120.7312483
992,Dallas Drive,95334,37.3805647,-120.7303264
993,Misty Harbour Drive,95334,37.3805430,-120.7341903
994,Barcelona Drive,95334,37.3812239,-120.7394497
994,Mori Court,95334,37.3944766,-120.7106646
995,Bridgeport Avenue,95334,37.3805115,-120.7332221
995,Dallas Drive,95334,37.3805585,-120.7308932
995,Hilltop Avenue,95334,37.3812946,-120.7369964
995,Montelena Avenue,95334,37.3805616,-120.7299638
995,Talara Drive,95334,37.3811302,-120.7411373
999,Mori Court,95334,37.3944612,-120.7112378
999,Narada Way,95334,37.3943860,-120.7138009
999,Newcastle Drive,95334,37.3714965,-120.7282580
435,Winton Parkway,95334-9809,37.3874225,-120.7380152
435,Winton Parkway,95334,37.3874986,-120.7380128
1627,Main Street,95334,37.3768290,-120.7211458
1845,H Street,95334,37.3806999,-120.7179091
1212,Main Street,95334,37.3794260,-120.7236711
1651,7th Street,95334,37.3752709,-120.7185803
500,Main Street,95334,37.3855343,-120.7239636
714,Prusso Street,95334,37.3847008,-120.7284620
1605,7th Street,95334,37.3757512,-120.7184913
690,Hammatt Avenue,95334,37.3891388,-120.7116677
2370,Walnut Avenue,95334,37.3885927,-120.7091266
816,Hammett Avenue,95334,37.3830131,-120.7150723
2220,D Street,95334,37.3838961,-120.7158151
511,Main Street,95334,37.3856615,-120.7230081
517,5th Street,95334,37.3856165,-120.7207982
1647,Front Street,95334,37.3855565,-120.7195493
443,Joseph Gallo Drive,95334,37.3884511,-120.7359948
521,Industrial Drive,95334,37.3881314,-120.7109205
604,Main Street,95334,37.3849900,-120.7235937
225,Franci Street,95334,37.3880740,-120.7198776
381,Joseph Gallo Drive,95334,37.3885494,-120.7376026
1329,F Street,95334,37.3824762,-120.7235396
639,2nd Street,95334,37.3844765,-120.7240171
641,Main Street,95334,37.3847522,-120.7229727
632,Main Street,95334,37.3844361,-120.7235814
2295,F Street,95334,37.3825429,-120.7125662
549,Main Street,95334,37.3853221,-120.7229816
523,Main Street,95334,37.3855947,-120.7230094
1448,D Street,95334,37.3840652,-120.7223459
1310,Main Street,95334,37.3784337,-120.7238069
1317,B Street,95334,37.3862007,-120.7240514
723,Main Street,95334,37.3838480,-120.7229037
2275,F Street,95334,37.3826498,-120.7131021
1112,Main Street,95334,37.3802591,-120.7236444
1425,C Street,95334,37.3853718,-120.7226391
221,Stefani Avenue,95334,37.3896204,-120.7240479
420,Industrial Drive,95334,37.3872105,-120.7091625
227,Franci Street,95334,37.3881536,-120.7200996
1227,C Street,95334,37.3853525,-120.7249219
1312,Court Street,95334,37.3875206,-120.7233416
1001,B Street,95334,37.3864808,-120.7265967
2275,F Street,95334,37.3822824,-120.7131011
1005,8th Street,95334,37.3812154,-120.7159584
1334,I Street,95334,37.3790060,-120.7238885
1338,Main Street,95334,37.3779825,-120.7236714
1471,B Street,95334,37.3862186,-120.7229871
1472,B Street,95334,37.3857203,-120.7216226
1705,C Street,95334,37.3852837,-120.7197159
1724,Main Street,95334,37.3746987,-120.7242925
1745,C Street,95334,37.3853606,-120.7189454
2008,Alameda Court,95334,37.3817635,-120.7162282
2009,Castellana Court,95334,37.3809012,-120.7162451
2010,Alameda Court,95334,37.3816798,-120.7162232
2012,Alameda Court,95334,37.3816105,-120.7162156
2013,Castellana Court,95334,37.3809054,-120.7161374
2018,Castellana Court,95334,37.3805504,-120.7160956
2019,Castellana Court,95334,37.3809370,-120.7160550
2021,Alameda Court,95334,37.3819861,-120.7160518
2022,Castellana Court,95334,37.3805405,-120.7160103
2023,Alameda Court,95334,37.3819941,-120.7159486
2023,Castellana Court,95334,37.3810070,-120.7159732
2027,Alameda Court,95334,37.3819757,-120.7158713
2027,Castellana Court,95334,37.3810208,-120.7158683
2028,Alameda Court,95334,37.3814568,-120.7159235
2028,Castellana Court,95334,37.3805387,-120.7159242
2032,Alameda Court,95334,37.3814431,-120.7158213
2032,Castellana Court,95334,37.3805005,-120.7158438
2033,Alameda Court,95334,37.3819287,-120.7157877
2036,Castellana Court,95334,37.3804999,-120.7157631
2037,Alameda Court,95334,37.3819288,-120.7156990
2038,Alameda Court,95334,37.3814754,-120.7157378
2042,Alameda Court,95334,37.3815335,-120.7156543
2042,Castellana Court,95334,37.3805059,-120.7156574
2043,Alameda Court,95334,37.3819052,-120.7156229
2043,Castellana Court,95334,37.3808827,-120.7155667
2046,Alameda Court,95334,37.3815290,-120.7155513
2047,Castellana Court,95334,37.3808174,-120.7155130
2049,Castellana Court,95334,37.3807326,-120.7155281
2109,Balmoral Court,95334,37.3809410,-120.7151026
2111,Balmoral Court,95334,37.3808744,-120.7151635
2112,Alameda Court,95334,37.3816097,-120.7151601
2113,Alameda Court,95334,37.3818936,-120.7151118
2113,Balmoral Court,95334,37.3808046,-120.7151627
2114,Alameda Court,95334,37.3815090,-120.7151617
2115,Balmoral Court,95334,37.3807391,-120.7151358
2117,Alameda Court,95334,37.3818884,-120.7150056
2117,Balmoral Court,95334,37.3806742,-120.7151319
2119,Balmoral Court,95334,37.3805917,-120.7151374
2123,Alameda Court,95334,37.3819237,-120.7149233
2124,Alameda Court,95334,37.3813712,-120.7149814
2127,Alameda Court,95334,37.3819287,-120.7148433
2128,Alameda Court,95334,37.3813610,-120.7148772
2131,Alameda Court,95334,37.3819182,-120.7147386
2131,Balmoral Court,95334,37.3804885,-120.7148165
2132,Alameda Court,95334,37.3813514,-120.7147698
2134,Balmoral Court,95334,37.3810526,-120.7148065
2135,Balmoral Court,95334,37.3804969,-120.7147356
2137,F Street,95334,37.3823539,-120.7146877
2138,Balmoral Court,95334,37.3810451,-120.7147026
2141,Balmoral Court,95334,37.3805061,-120.7146331
2142,Balmoral Court,95334,37.3810875,-120.7146176
2145,Alameda Court,95334,37.3817954,-120.7144706
2147,Alameda Court,95334,37.3817285,-120.7144323
2148,Balmoral Court,95334,37.3810325,-120.7145369
2149,Alameda Court,95334,37.3816605,-120.7144330
2151,Alameda Court,95334,37.3815944,-120.7144580
2152,Balmoral Court,95334,37.3810175,-120.7144356
2153,Alameda Court,95334,37.3815307,-120.7144617
2154,Balmoral Court,95334,37.3807111,-120.7144474
2155,Alameda Court,95334,37.3814487,-120.7144705
2156,Balmoral Court,95334,37.3806251,-120.7144543
2275,F Street,95334,37.3823740,-120.7131013
2335,F Street,95334,37.3823394,-120.7121567
240,Simpson Avenue,95334,37.3884867,-120.7201604
380,Joseph Gallo Drive,95334,37.3889098,-120.7376603
435,Winton PKWY,95334,37.3875586,-120.7383669
444,Main Street,95334,37.3861880,-120.7235727
536,4th Street,95334,37.3854848,-120.7223056
619,North Main Street,95334,37.3920440,-120.7209730
723,8th Street,95334,37.3836639,-120.7161953
746,Main Street,95334,37.3835429,-120.7235979
801,8th Street,95334,37.3832981,-120.7162012
810,Hammatt Avenue,95334,37.3831121,-120.7144084
833,8th Street,95334,37.3827285,-120.7161421
843,Davis Street,95334,37.3941203,-120.7262362
843,Davis Street,95334,37.3914326,-120.7262079
848,Prusso Street,95334,37.3828243,-120.7273199
864,B Street,95334,37.3856696,-120.7302093
900,Davis Street,95334,37.3901886,-120.7249432
400,Joseph Gallo Drive,95334,37.3879239,-120.7366566
424,Main Street,95334,37.3865049,-120.7235381
711,Main Street,95334,37.3840515,-120.7228181
1405,Davis Street,95334,37.3902784,-120.7204401
242,North Main Street,95334,37.3889635,-120.7212320
416,Main Street,95334,37.3865590,-120.7234662
497,Winton PKWY,95334,37.3862298,-120.7379124
2275,F Street,95334,37.3825573,-120.7131018
462,Industrial Drive,95334,37.3878522,-120.7098839
1140,Main Street,95334,37.3799190,-120.7237615
642,6th Street,95334,37.3844598,-120.7205249
641,6th Street,95334,37.3844634,-120.7193002
606,4th Street,95334,37.3849293,-120.7226333
743,Main Street,95334,37.3835694,-120.7228964
1290,Court Street,95334,37.3877174,-120.7238266
1236,Crowell Street,95334,37.3894282,-120.7226818
235,North Main Street,95334,37.3891258,-120.7217856
475,Winton PKWY,95334,37.3864314,-120.7379151
1611,Swan Street,95334,37.3901289,-120.7179845
1456,Olive Avenue,95334,37.3962717,-120.7166645
1429,Nut Tree Road,95334,37.3947169,-120.7176397
1505,E Street,95334,37.3835715,-120.7219370
1237,Main Street,95334,37.3792116,-120.7227746
645,Industrial Drive,95334,37.3890296,-120.7110833
1446,C Street,95334,37.3848682,-120.7219622
428,Main Street,95334,37.3864368,-120.7234956
436,Main Street,95334,37.3863140,-120.7234746
401,Joseph Gallo Drive,95334,37.3887684,-120.7363378
2275,F Street,95334,37.3824657,-120.7131016
703,4th Street,95334,37.3839007,-120.7218204
568,Industrial Drive,95334,37.3883256,-120.7100751
507,Main Street,95334,37.3858114,-120.7230551
453,Joseph Gallo Drive,95334,37.3888374,-120.7358806
483,Joseph Gallo Drive,95334,37.3886260,-120.7351899
1438,D Street,95334,37.3840694,-120.7224869
1507,Park Street,95334,37.3788066,-120.7219816
1201,North Hwy 99,95334,37.3896706,-120.7231140
321,2nd Street,95334,37.3872104,-120.7240379
1444,B Street,95334,37.3858048,-120.7223613
706,Main Street,95334,37.3840854,-120.7235577
1334,Court Street,95334,37.3872375,-120.7225668
2600,Walnut Avenue,95334,37.3891074,-120.7061712
2550,Walnut Avenue,95334,37.3886698,-120.7066016
503,Main Street,95334,37.3858788,-120.7230538
339,Joseph Gallo Drive,95334,37.3884516,-120.7384894
1521,Davis Street,95334,37.3898194,-120.7191957
412,Winton Parkway,95334,37.3873311,-120.7367574
2844,Franquette Court,95334,37.3882570,-120.7039918
460,Winton Pwky,95334,37.3862137,-120.7357086
