House number,Street name,Postal code,Latitude,Longitude
2410,Janna Avenue,95350,37.6773524,-121.0282950
1320,Maze Boulevard,95351,37.6376168,-121.0276586
1402,I Street,95354,37.6424304,-120.9949338
801,11th Street,95354,37.6394139,-120.9978034
605,Sylvan Avenue,95350,37.6894257,-120.9856430
1203,McHenry Avenue,95356,37.6602311,-120.9943276
3501,McHenry Blvd,95456-1575,37.6896072,-120.9946816
2118,McHenry Avenue,95350-3213,37.6747573,-120.9937669
3250,Dale Road,95356,37.6871337,-121.0494090
2101,Sylvan Avenue,95355,37.6894281,-120.9594500
2101,Sylvan Avenue,95355,37.6899246,-120.9584040
2508,Oakdale Road,95350,37.6773414,-120.9571700
2813,vestrella dr,95356,37.7007284,-121.0495597
4120,Dale Road,95356-9240,37.6999517,-121.0493773
1300,Standiford Avenue,95350,37.6890596,-121.0129200
2517,Oakdale Road,95350,37.6777456,-120.9582410
2508,Oakdale Road,95350,37.6778645,-120.9572541
1600,Oakdale Road,95355-3008,37.6674975,-120.9570560
1717,"Oakdale Road, Ste.#J",95355,37.6682841,-120.9584297
801,Oakdale Road,95355,37.6532538,-120.9578560
801,Oakdale Road,95355,37.6533525,-120.9578560
2509,Oakdale Road,95350,37.6775909,-120.9582402
1612,Oakdale Road,95355,37.6679641,-120.9569750
3507,Tully Road,95356,37.6904857,-121.0132675
1320,Standiford Avenue,95350,37.6890124,-121.0144980
3507,Tully Road,95356,37.6896820,-121.0140526
2301,Crows Landing Road,95351,37.5963749,-120.9940730
2425,McHenry Avenue,95350,37.6778049,-120.9953534
2401,McHenry Avenue,95350,37.6773786,-120.9953595
1111,I Street,95354,37.6404643,-120.9982335
3250,Dale Road,95356,37.6865851,-121.0492960
500,Vintage Faire Mall,95356,37.6893487,-121.0529790
901 N,Carpenter Road,95351,37.6476001,-121.0314285
3900,Pelendale Avenue,95356,37.6998616,-121.0669772
3900,Sisk Road,95356-3225,37.6956116,-121.0652035
3900,Sisk Road,95356,37.6960105,-121.0661639
1940,Crows Landing Road,95358,37.6007497,-120.9920071
1616,Oakdale Road Suite,95355,37.6679272,-120.9564563
1717,Oakdale Road,95355,37.6682613,-120.9590380
1717,"Oakdale Road, Ste. # A",95355,37.6684851,-120.9579403
1717,Oakdale Road,95355,37.6688682,-120.9593863
1717,"Oakdale Road, Ste.#N",95355,37.6689128,-120.9594265
1717,"Oakdale Road, Ste.#L2",95355,37.6686474,-120.9592840
1717,"Oakdale Road, Ste.#D",95355,37.6684584,-120.9580660
1717,"Oakdale Road, Ste.#H",95355,37.6683378,-120.9583393
2401,East Orangeburg Ave #675-173,95355,37.6647945,-120.9557850
825,West Roseburg Avenue,95350,37.6611058,-121.0035720
3900,Sisk Road,95356,37.6925517,-121.0612430
1021,10th Street,95354,37.6409508,-121.0011528
1021,10th Street,95354,37.6411511,-121.0013268
1302,9th Street,95354,37.6430794,-121.0046651
940,11th Street,95354,37.6409507,-120.9988221
938,11th Street,95354,37.6408837,-120.9987335
2100,Standiford Avenue,95350,37.6889286,-121.0340530
1416,Rose Avenue,95355,37.6621823,-120.9668144
400,Andover Lane,95350,37.6804096,-120.9989420
1700,Held Drive,95355,37.6690127,-120.9127736
3421,Tully Road,95350,37.6884933,-121.0129935
2601,Oakdale Road,95355,37.6784253,-120.9581260
1309,Doker Drive,95351,37.6484951,-121.0269676
819,Sunset Avenue,95351,37.6184097,-121.0030945
819,Sunset Avenue,95351,37.6180423,-121.0042584
521,Winmoore Way,95358,37.6058696,-120.9870747
1340,McHenry Avenue,95350,37.6632499,-120.9934537
3801,Yosemite Boulevard,95355,37.6386287,-120.9247369
3900,Sisk Road,95356,37.6938934,-121.0628580
1600,Sisk Road,95350,37.6681625,-121.0324510
1600,Sisk Road,95350,37.6679437,-121.0323420
715,Kearney Avenue,95352,37.6554587,-121.0172560
1700,McHenry Avenue,95350,37.6699751,-120.9928752
926,McHenry Avenue,95350,37.6566016,-120.9935490
2017,Monticello Avenue,95350,37.6733737,-121.0106553
719,5th Street,95351,37.6344664,-121.0024890
931,"10th St, Suite 91305",95354,37.6398431,-121.0000091
3401,Dale Road,95356,37.6879979,-121.0528225
2400,Coffee Road,95355,37.6772849,-120.9744488
3500,Sisk Road,95356,37.6894184,-121.0582492
3500,Sisk Road,95356,37.6895548,-121.0584437
601,I Street,95354,37.6370419,-121.0031556
3242,Carver Road,95350,37.6862598,-121.0218728
2410,Janna Avenue,95350,37.6773724,-121.0277706
1012,11th Street,95350,37.6415756,-120.9994805
1501,Claus Road,95355-9711,37.6658240,-120.9222319
1303,Mable Avenue,95355,37.6970277,-120.9757853
2401,E Orangeburg Ave,95355,37.6648491,-120.9535345
2401,East Orangeburg Avenue,95355,37.6639113,-120.9538639
2401,East Orangeburg Avenue,95355,37.6639248,-120.9542702
2401,East Orangeburg Avenue,95355,37.6638918,-120.9545240
1717,Oakdale Road,95355,37.6683467,-120.9582786
1728,Oakdale Road,95355,37.6692795,-120.9568766
1728,Oakdale Road,95355,37.6691889,-120.9567804
1612,Oakdale Road,95355,37.6679953,-120.9567937
2401,East Orangeburg Avenue,95355,37.6646844,-120.9570262
2401,East Orangeburg Avenue,95355,37.6648809,-120.9570530
2401,East Orangeburg Avenue,95355,37.6646815,-120.9567475
2401,East Orangeburg Avenue,95355,37.6647281,-120.9555316
2401,East Orangeburg Avenue,95355,37.6645606,-120.9534799
2401,East Orangeburg Avenue,95355,37.6644987,-120.9534779
2401,East Orangeburg Avenue,95355,37.6639987,-120.9534232
2401,East Orangeburg Avenue,95355,37.6639009,-120.9546341
2401,East Orangeburg Avenue,95355,37.6638975,-120.9550090
2401,East Orangeburg Avenue,95355,37.6639032,-120.9548109
2401,East Orangeburg Avenue,95355,37.6647787,-120.9570340
1427,Standiford Avenue,95350,37.6897094,-121.0161557
1407,Standiford Avenue,95350,37.6896806,-121.0151291
1369,Standiford Avenue,95355,37.6903165,-121.0144752
931,10th Street,95354,37.6398561,-121.0000640
1616,Oakdale Road,95355,37.6678358,-120.9565257
1616,Oakdale Road,95355,37.6679859,-120.9563010
1624,Oakdale Road,95355,37.6678094,-120.9558518
1608,Oakdale Road,95355,37.6677705,-120.9553288
2307,Oakdale Road,95355,37.6745323,-120.9581263
2307,Oakdale Road,95355,37.6745962,-120.9587721
2307,Oakdale Road,95355,37.6747337,-120.9587791
2307,Oakdale Road,95355,37.6750999,-120.9581347
2307,Oakdale Road,95355,37.6752844,-120.9580842
2307,Oakdale Road,95355,37.6751672,-120.9580784
2307,Oakdale Road,95355,37.6753826,-120.9581370
2307,Oakdale Road,95355,37.6754062,-120.9583230
2601,Oakdale Road,95355,37.6788358,-120.9581762
2601,Oakdale Road,95355,37.6789423,-120.9582061
2601,Oakdale Road,95355,37.6783057,-120.9592443
2601,Oakdale Road,95355,37.6785107,-120.9592473
2601,Oakdale Road,95355,37.6791592,-120.9592603
2601,Oakdale Road,95355,37.6792722,-120.9592511
2601,Oakdale Road,95355,37.6792171,-120.9581974
2601,Oakdale Road,95355,37.6798662,-120.9581716
3401,Oakdale Road,95355,37.6875516,-120.9596618
3401,Oakdale Road,95355,37.6876760,-120.9596775
3401,Oakdale Road,95355,37.6878953,-120.9596690
3401,Oakdale Road,95355,37.6880970,-120.9597249
3401,Oakdale Road,95355,37.6882442,-120.9597407
3401,Oakdale Road,95355,37.6883372,-120.9597354
3460,Oakdale Road,95355,37.6886053,-120.9574976
3460,Oakdale Road,95355,37.6883734,-120.9575714
2101,Sylvan Avenue,95355,37.6893211,-120.9598431
2101,Sylvan Avenue,95355,37.6893251,-120.9600630
2101,Sylvan Avenue,95355,37.6895034,-120.9597892
2101,Sylvan Avenue,95355,37.6900050,-120.9593371
3609,Oakdale Road,95357,37.6905346,-120.9585199
3460,Oakdale Road,95355,37.6886231,-120.9568863
3500,Coffee Road,95355,37.6901341,-120.9757339
3500,Coffee Road,95355,37.6901494,-120.9755057
3500,Coffee Road,95355,37.6902313,-120.9752653
1300,Sylvan Avenue,95355,37.6885433,-120.9757884
2204,McHenry Avenue,95350,37.6748310,-120.9936900
1606,Locke Road,95355,37.6539005,-120.9688523
1333,Locke Road,95355,37.6541189,-120.9734050
1316,Coffee Road,95355,37.6623478,-120.9754289
813,West Roseburg Avenue,95350,37.6609673,-121.0035703
805,West Roseburg Avenue,95350,37.6605761,-121.0035897
801,West Roseburg Avenue,95350,37.6604535,-121.0034330
835,West Roseburg Avenue,95350,37.6615585,-121.0037276
900,Kansas Avenue,95351,37.6456729,-121.0198192
822,9th Street,95354,37.6385270,-120.9995177
2320,McHenry Avenue,95355,37.6766256,-120.9937310
2500,McHenry Avenue,95350,37.6780913,-120.9936895
2700,McHenry Avenue,95350,37.6787627,-120.9931354
1101,Sylvan Avenue,95355,37.6893944,-120.9779941
3460,"Oakdale Rd, #N",95355,37.6885378,-120.9576236
1201,North Carpenter Road,95351,37.6517411,-121.0316056
1017,J Street,95354,37.6409780,-120.9999362
801,11th Street,95354,37.6391759,-120.9975048
1202,H Street,95354,37.6401055,-120.9955281
1202,H Street,95354,37.6400317,-120.9956320
1202,H Street,95354,37.6399170,-120.9957762
1021,I Street,95354,37.6401212,-120.9988856
1021,I Street,95354,37.6400614,-120.9988078
915,11th Street,95354,37.6405203,-120.9987629
416,6th Street,95354,37.6326019,-120.9973074
416,6th Street,95354,37.6325711,-120.9973486
416,6th Street,95354,37.6325367,-120.9973946
416,6th Street,95354,37.6325061,-120.9974356
416,6th Street,95354,37.6324735,-120.9974792
416,6th Street,95354,37.6324418,-120.9975216
416,6th Street,95354,37.6324077,-120.9975673
416,6th Street,95354,37.6325198,-120.9972124
416,6th Street,95354,37.6324876,-120.9972552
416,6th Street,95354,37.6324543,-120.9972993
416,6th Street,95354,37.6324238,-120.9973398
416,6th Street,95354,37.6323908,-120.9973835
416,6th Street,95354,37.6323589,-120.9974258
416,6th Street,95354,37.6323257,-120.9974700
601,D Street,95354,37.6321390,-120.9971271
603,D Street,95354,37.6321811,-120.9970708
605,D Street,95354,37.6322441,-120.9969864
609,C Street,95354,37.6311198,-120.9960273
609,C Street,95354,37.6311726,-120.9959575
609,C Street,95354,37.6312163,-120.9958996
609,C Street,95354,37.6312689,-120.9958300
609,C Street,95354,37.6313076,-120.9957788
401,Paradise Road,95351,37.6279809,-121.0147766
401,Paradise Road,95351,37.6279980,-121.0144669
1006,H Street,95354,37.6386398,-120.9975221
801,10th Street,95354,37.6384869,-120.9983820
801,10th Street,95354,37.6385475,-120.9983136
725,8th Street,95354,37.6367941,-120.9997128
721,8th Street,95354,37.6366974,-120.9995951
418,I Street,95351,37.6355707,-121.0041508
416,I Street,95351,37.6355244,-121.0042113
401,H Street,95351,37.6344870,-121.0036436
405,H Street,95351,37.6345364,-121.0035772
917,J Street,95354,37.6402860,-121.0008665
707,I Street,95354,37.6377312,-121.0018539
705,I Street,95354,37.6376938,-121.0018996
950,10th Street,95354,37.6405166,-121.0001036
1008,J Street,95354,37.6406844,-120.9998756
950,10th Street,95354,37.6403870,-120.9999400
950,10th Street,95354,37.6402463,-120.9997864
950,10th Street,95354,37.6401184,-120.9996215
928,10th Street,95354,37.6400488,-120.9995397
704,I Street,95354,37.6373908,-121.0017291
704,I Street,95354,37.6374188,-121.0016914
603,H Street,95354,37.6359221,-121.0017299
601,H Street,95354,37.6358787,-121.0017866
1009,J Street,95354,37.6408327,-121.0001881
1015,J Street,95354,37.6409059,-121.0000895
1025,J Street,95354,37.6412359,-120.9996677
1010,10th Street,95354,37.6411004,-121.0002731
401,Needham Street,95354,37.6467694,-120.9983122
200,Norwegian Avenue,95350,37.6706280,-120.9904673
200,West Briggsmore Avenue,95350,37.6699588,-120.9955283
1707,McHenry Avenue,95350,37.6698925,-120.9947886
1707,McHenry Avenue,95350,37.6690660,-120.9945295
1700,McHenry Avenue,95350,37.6694806,-120.9931687
1700,McHenry Avenue,95350,37.6687186,-120.9931563
1700,McHenry Avenue,95350,37.6686219,-120.9931900
1700,McHenry Avenue,95350,37.6683852,-120.9931793
1700,McHenry Avenue,95350,37.6687330,-120.9928107
1700,McHenry Avenue,95350,37.6687422,-120.9926659
4319,McHenry Avenue,95350,37.6687607,-120.9925001
1700,McHenry Avenue,95350,37.6686368,-120.9921195
4327,McHenry Avenue,95350,37.6685112,-120.9920611
1700,McHenry Avenue,95350,37.6683818,-120.9920425
1700,McHenry Avenue,95350,37.6682672,-120.9920658
1700,McHenry Avenue,95350,37.6680879,-120.9922456
1700,McHenry Avenue,95350,37.6680269,-120.9931469
1700,McHenry Avenue,95350,37.6676074,-120.9923779
1700,McHenry Avenue,95350,37.6676116,-120.9922236
1700,McHenry Ave,95350,37.6695543,-120.9912795
1410,Carver Road,95350,37.6646946,-121.0217230
1412,Carver Road,95350,37.6647633,-121.0217248
1414,Carver Road,95350,37.6648079,-121.0217248
1416,Carver Road,95350,37.6649039,-121.0217234
1717,Las Vegas Street,95358,37.6045068,-121.0049689
1649,Las Vegas Street,95358,37.6061360,-121.0031647
3801,Pelandale Avenue,95356-8300,37.7026345,-121.0668042
3801,Pelandale Avenue,95356,37.7027594,-121.0649797
3405,McHenry Avenue,95350-1445,37.6873429,-120.9960041
901,North Carpenter Road,95351-1182,37.6465830,-121.0306620
3801,Yosemite Boulevard,95357,37.6386926,-120.9262441
1800,Prescott Road,95350,37.6730657,-121.0305779
1800,Prescott Road,95350,37.6731037,-121.0301086
1800,Prescott Road,95350,37.6722868,-121.0289956
2020,Coffee Road,95355,37.6725991,-120.9753300
3507,Tully Road,95356,37.6904875,-121.0133696
920,South Sunset Avenue,95351,37.6141490,-121.0046279
1441,Florida Avenue,95350,37.6655543,-120.9973655
1811,Teresa Street,95350,37.6659424,-121.0253341
707,South Emerald Avenue,95351,37.6325391,-121.0229811
705,South Washington Street,95351,37.6319158,-121.0082134
601,South Martin Luther King Drive,95351,37.6324863,-121.0131301
18,H Street,95351,37.6299822,-121.0073077
400,Tuolumne Blvd,95351,37.6253363,-121.0019686
701,Lincoln Avenue,95354,37.6489351,-120.9392499
4601,Dale Road,95356,37.7062152,-121.0524204
3020,"Floyd Avenue, Ste.#139",95355,37.6763505,-120.9381711
906,15th Street,95354,37.6435361,-120.9944018
1500,I Street,95354,37.6431650,-120.9935474
3401,Dale Road,95356,37.6871122,-121.0533262
3401,Dale Road,95356,37.6871085,-121.0528169
3401,Dale Road,95356,37.6887363,-121.0541314
1800,Oakdale Road Building A,95355,37.6701221,-120.9561944
1737,Oakdale Road,95355,37.6691651,-120.9581382
1736,Oakdale Road,95355,37.6695640,-120.9570124
1800,Oakdale Road,95355,37.6695928,-120.9565332
3020,"Floyd Avenue, Ste.#189",95355,37.6760693,-120.9391337
3020,"Floyd Avenue, Ste.#189",95355,37.6764109,-120.9391586
3020,Floyd Avenue,95355,37.6768640,-120.9383752
3020,"Floyd Avenue, Ste.#601",95355,37.6777995,-120.9377348
2401,East Orangeburg Avenue,95355,37.6639361,-120.9554863
2401,East Orangeburg Avenue # 10,95355,37.6638838,-120.9568603
801,Oakdale Road,95355,37.6544720,-120.9578513
801,Oakdale Road,95355,37.6552334,-120.9578119
1800,Oakdale Road Building J,95355,37.6705884,-120.9572081
2001,McHenry Avenue,95350,37.6719631,-120.9958462
2044,West Orangeburg Avenue,95350,37.6657481,-121.0297401
1165,Scenic Drive,95350,37.6487291,-120.9777095
1165,Scenic Drive,95350,37.6488294,-120.9772945
1165,Scenic Drive,95350,37.6493240,-120.9775125
1416,Maze Boulevard,95351,37.6379084,-121.0288850
619,Sierra Drive,95351,37.6321605,-121.0017749
1320,Standiford Avenue,95350,37.6888713,-121.0140287
3421,Tully Road,95350,37.6883974,-121.0131626
900,9th Street,95354,37.6391441,-121.0001314
825,9th Street,95354,37.6383781,-121.0002256
801,9th Street,95354,37.6377718,-120.9995426
833,10th Street,95354,37.6391608,-120.9992295
801,10th Street,95354,37.6385504,-120.9985384
600,10th Street,95354,37.6375570,-120.9962892
906,J Street,95354,37.6398983,-121.0007668
901,H Street,95354,37.6383519,-120.9990777
1700,McHenry Avenue,95350,37.6700678,-120.9930533
1700,McHenry Avenue,95350,37.6685348,-120.9936216
500,Kansas Avenue,95351,37.6451859,-121.0137347
1404,G Street,95354,37.6404668,-120.9925709
3900,Pelandale Avenue,95356,37.6997987,-121.0676026
3900,Pelandale Avenue,95356,37.6992716,-121.0684060
4125,Sisk Avenue,95356-3210,37.6995406,-121.0693361
3900,Sisk Road,95356,37.6950203,-121.0646214
1924,Coral Oak Court,95355,37.6720713,-120.9447093
1920,Coral Oak Court,95355,37.6719040,-120.9447121
1916,Coral Oak Court,95355,37.6717304,-120.9447086
1912,Coral Oak Court,95355,37.6715513,-120.9446313
1908,Coral Oak Court,95355,37.6713366,-120.9447035
1905,Coral Oak Court,95355,37.6712919,-120.9449103
1909,Coral Oak Court,95355,37.6713287,-120.9451979
1917,Coral Oak Court,95355,37.6717289,-120.9451799
1921,Coral Oak Court,95355,37.6719018,-120.9452214
2708,Coral Oak Drive,95355,37.6720876,-120.9452433
1800,Wisdom Way,95355,37.6700212,-120.9550175
1800,Wisdom Way,95355,37.6700306,-120.9539765
1540,Oakdale Road,95355,37.6667775,-120.9570758
1533,Oakdale Road,95355,37.6666889,-120.9580003
1533,Oakdale Road,95355,37.6662920,-120.9580097
1501,Oakdale Road,95355,37.6652791,-120.9580984
1421,Oakdale Road,95355,37.6648015,-120.9585201
1401,Oakdale Road,95355,37.6640633,-120.9581783
1800,Oakdale Road Building B,95355,37.6688690,-120.9561111
1728,Oakdale Road,95355,37.6691895,-120.9571914
1924,Canyon Oak Drive,95355,37.6720737,-120.9455790
1920,Canyon Oak Drive,95355,37.6718925,-120.9455735
1916,Canyon Oak Drive,95355,37.6717182,-120.9456007
1912,Canyon Oak Drive,95355,37.6715439,-120.9455755
1908,Canyon Oak Drive,95355,37.6713441,-120.9455710
1904,Canyon Oak Drive,95355,37.6711763,-120.9455627
2701,Merle Avenue,95355,37.6709752,-120.9455329
2705,Merle Avenue,95355,37.6710250,-120.9452642
2709,Merle Avenue,95355,37.6710298,-120.9450406
2713,Merle Avenue,95355,37.6710299,-120.9448175
2717,Merle Avenue,95355,37.6710288,-120.9446075
1901,Temescal Drive,95355,37.6710009,-120.9442993
1905,Temescal Drive,95355,37.6711754,-120.9443045
1909,Temescal Drive,95355,37.6713616,-120.9443276
1913,Temescal Drive,95355,37.6715330,-120.9443301
1917,Temescal Drive,95355,37.6717256,-120.9443119
1921,Temescal Drive,95355,37.6719061,-120.9443139
2724,Coral Oak Drive,95355,37.6720746,-120.9443510
3020,"Floyd Avenue, Ste.#601",95355,37.6777855,-120.9390411
3020,"Floyd Avenue, Ste.#207",95355,37.6777892,-120.9388383
3020,"Floyd Avenue, Ste.#103",95355,37.6775789,-120.9392342
2600,Lincoln Oak Court,95355,37.6713161,-120.9478869
2604,Lincoln Oak Court,95355,37.6713303,-120.9476742
2608,Lincoln Oak Court,95355,37.6713246,-120.9474446
2612,Lincoln Oak Court,95355,37.6713202,-120.9472336
2616,Lincoln Oak Court,95355,37.6713223,-120.9470181
2620,Lincoln Oak Court,95355,37.6712702,-120.9467967
2624,Lincoln Oak Court,95355,37.6713189,-120.9465035
2628,Lincoln Oak Court,95355,37.6715039,-120.9464163
2625,Lincoln Oak Court,95355,37.6717192,-120.9465062
2621,Lincoln Oak Court,95355,37.6717702,-120.9468115
2617,Lincoln Oak Court,95355,37.6717126,-120.9470283
2613,Lincoln Oak Court,95355,37.6717088,-120.9472382
2609,Lincoln Oak Court,95355,37.6717153,-120.9474677
2605,Lincoln Oak Court,95355,37.6717116,-120.9476708
2601,Lincoln Oak Court,95355,37.6717123,-120.9478955
2600,Coral Oak Drive,95355,37.6720255,-120.9478945
2604,Coral Oak Drive,95355,37.6720220,-120.9476814
2608,Coral Oak Drive,95355,37.6720273,-120.9474649
2612,Coral Oak Drive,95355,37.6720236,-120.9472382
2616,Coral Oak Drive,95355,37.6720236,-120.9470283
2620,Coral Oak Drive,95355,37.6720278,-120.9468023
2624,Coral Oak Drive,95355,37.6720416,-120.9465915
2628,Coral Oak Drive,95355,37.6720136,-120.9463746
1925,Canyon Oak Drive,95355,37.6720725,-120.9460830
1921,Canyon Oak Drive,95355,37.6719076,-120.9460787
1917,Canyon Oak Drive,95355,37.6717103,-120.9460720
1913,Canyon Oak Drive,95355,37.6715449,-120.9460636
1909,Canyon Oak Drive,95355,37.6713474,-120.9460633
1905,Canyon Oak Drive,95355,37.6711782,-120.9460666
1901,Canyon Oak Drive,95355,37.6710046,-120.9460454
2629,Merle Avenue,95355,37.6710170,-120.9463675
2625,Merle Avenue,95355,37.6710181,-120.9465804
2621,Merle Avenue,95355,37.6710168,-120.9467982
2617,Merle Avenue,95355,37.6710139,-120.9470140
2613,Merle Avenue,95355,37.6710186,-120.9472300
2609,Merle Avenue,95355,37.6710144,-120.9474534
2605,Merle Avenue,95355,37.6710180,-120.9476634
2601,Merle Avenue,95355,37.6710187,-120.9478793
2728,Majestic Oak Drive,95355,37.6727582,-120.9443153
2724,Majestic Oak Drive,95355,37.6727633,-120.9445331
2720,Majestic Oak Drive,95355,37.6727528,-120.9447430
2716,Majestic Oak Drive,95355,37.6727518,-120.9449622
2712,Majestic Oak Drive,95355,37.6727483,-120.9451739
2709,Coral Oak Drive,95355,37.6724488,-120.9451744
2713,Coral Oak Drive,95355,37.6724522,-120.9449657
2717,Coral Oak Drive,95355,37.6724447,-120.9447369
2721,Coral Oak Drive,95355,37.6724458,-120.9445277
2725,Coral Oak Drive,95355,37.6724447,-120.9443061
2708,Majestic Oak Drive,95355,37.6727561,-120.9454042
2704,Majestic Oak Drive,95355,37.6727598,-120.9456214
2700,Majestic Oak Drive,95355,37.6727499,-120.9458386
2632,Majestic Oak Drive,95355,37.6727466,-120.9460549
2628,Majestic Oak Drive,95355,37.6727612,-120.9462799
2629,Coral Oak Drive,95355,37.6724804,-120.9462764
2633,Coral Oak Drive,95355,37.6724490,-120.9460520
2637,Coral Oak Drive,95355,37.6724456,-120.9458383
2701,Coral Oak Drive,95355,37.6724482,-120.9456191
2705,Coral Oak Drive,95355,37.6724458,-120.9454023
2300,Sylvan Avenue,95355,37.6882068,-120.9557999
3460,Oakdale Road,95355,37.6884894,-120.9571521
1100,H Street,95354,37.6393767,-120.9962465
720,12th Street,95354,37.6398925,-120.9954390
1825,Cheyenne Way,95356,37.6934075,-121.0253256
1700,Coffee Road,95355,37.6687640,-120.9738463
1200,Maze Boulevard,95351,37.6376477,-121.0254507
3101,Fine Avenue,95355,37.6826059,-120.9268556
321,North Santa Ana Avenue,95354,37.6428036,-120.9768687
1605,J Street,95354,37.6452210,-120.9945699
3412,Bellevue Dr.,95350,37.6876437,-121.0199065
1544,Lenox Drive,95350,37.6881417,-121.0197192
3420,Bellevue Dr.,95350,37.6880972,-121.0199825
3413,Bellevue Dr.,95350,37.6878549,-121.0204035
3416,Bellevue Drive,95350,37.6878484,-121.0199335
3405,Bellevue Dr.,95350,37.6873848,-121.0204016
3401,Bellevue Dr.,95350,37.6871106,-121.0203905
1605,Montclair Dr.,95350,37.6870744,-121.0199018
3404,Bellevue Dr.,95350,37.6872733,-121.0198951
3408,Bellevue Dr.,95350,37.6874561,-121.0198975
1545,Switzer Court,95350,37.6877132,-121.0195929
1604,Bellevue Ct.,95350,37.6873912,-121.0206324
1605,Bellevue Ct.,95350,37.6878328,-121.0206308
1608,Bellevue Ct.,95350,37.6874026,-121.0208667
1609,Bellevue Ct.,95350,37.6878320,-121.0208631
1612,Bellevue Ct.,95350,37.6874083,-121.0211041
1613,Bellevue Ct.,95350,37.6878402,-121.0210950
1616,Bellevue Ct.,95350,37.6873747,-121.0213858
1617,Bellevue Ct.,95350,37.6878891,-121.0213928
1620,Bellevue Ct.,95350,37.6874938,-121.0216573
1621,Bellevue Ct.,95350,37.6877630,-121.0216429
1620,Standiford Avenue,95350,37.6890195,-121.0216365
1700,Standiford Avenue,95350,37.6885743,-121.0232570
1001,10th Street,95354,37.6405165,-121.0007289
917,J Street,95354,37.6404112,-121.0009283
911,J Street,95354,37.6402181,-121.0011350
1150,9th Street,95354,37.6419034,-121.0021487
1010,10th Street,95354,37.6411526,-121.0000820
1021,I Street,95354,37.6402463,-120.9987564
1014-1032,J Street,95354,37.6408996,-120.9994444
928,10th Street,95354,37.6402056,-120.9995541
950,10th Street,95354,37.6403953,-120.9996598
950,10th Street,95354,37.6405452,-120.9998394
918,10th Street,95354,37.6400579,-120.9992814
948,11th Street,95354,37.6412358,-120.9988549
938-940,11th Street,95354,37.6409774,-120.9986505
930,11th Street,95354,37.6408864,-120.9985012
912,11th Street,95354,37.6407871,-120.9983782
1111,11th Street,95354,37.6406570,-120.9981792
1124,J Street,95354,37.6416059,-120.9984430
3421,Bellevue Dr.,95350,37.6883041,-121.0204520
3417,Bellevue Dr.,95350,37.6880958,-121.0204239
3433,Bellevue Dr.,95350,37.6889117,-121.0205019
3429,Bellevue Dr.,95350,37.6886766,-121.0204507
3425,Bellevue Dr.,95350,37.6884903,-121.0204511
3437,Bellevue Dr.,95350,37.6891715,-121.0203263
3436,Bellevue Dr.,95350,37.6889491,-121.0198646
3440,Bellevue Dr.,95350,37.6891730,-121.0200366
1545,Lenox Drive,95350,37.6885519,-121.0196035
1544,Standiford Ave,95350,37.6890310,-121.0193943
1601,Standiford Ave,95350,37.6897786,-121.0219891
1020,Tully Road,95356,37.6996009,-121.0066843
4040,Tully Road,95356,37.6979237,-121.0108705
4040,Tully Road,95356,37.6975049,-121.0113463
4040,Tully Road,95356,37.6973619,-121.0105554
1421,Oakdale Road,95355,37.6644610,-120.9584011
1700,Coffee Road,95355,37.6691108,-120.9733772
4701,Via Fiori,95357,37.6668307,-120.9087842
4705,Via Fiori,95357,37.6668442,-120.9085702
4709,Via Fiori,95357,37.6668603,-120.9083597
4713,Via Fiori,95357,37.6668642,-120.9081499
4717,Via Fiori,95357,37.6668871,-120.9079389
4721,Via Fiori,95357,37.6669024,-120.9077270
4725,Via Fiori,95357,37.6669179,-120.9075242
4700,Via Fiori,95357,37.6664564,-120.9087825
4704,Via Fiori,95357,37.6664632,-120.9085762
4708,Via Fiori,95357,37.6664685,-120.9083664
4712,Via Fiori,95357,37.6664882,-120.9081544
4716,Via Fiori,95357,37.6664891,-120.9079397
4720,Via Fiori,95357,37.6664453,-120.9077315
4724,Via Fiori,95357,37.6664567,-120.9075195
4625,Via Fiori,95357,37.6668238,-120.9093505
4621,Via Fiori,95357,37.6668222,-120.9095635
4617,Via Fiori,95357,37.6668092,-120.9097682
4613,Via Fiori,95357,37.6668219,-120.9099832
4609,Via Fiori,95357,37.6668427,-120.9101935
4605,Via Fiori,95357,37.6668507,-120.9104037
4601,Via Fiori,95357,37.6668297,-120.9106369
4604,Via Fiori,95357,37.6664153,-120.9104288
4608,Via Fiori,95357,37.6664260,-120.9102236
4612,Via Fiori,95357,37.6664456,-120.9099954
4616,Via Fiori,95357,37.6664341,-120.9097663
4620,Via Fiori,95357,37.6664478,-120.9095487
4624,Via Fiori,95357,37.6664510,-120.9093441
4108,Discovery Court,95356,37.6979006,-120.9884557
4104,Discovery Court,95356,37.6977258,-120.9884516
4100,Discovery Court,95356,37.6975594,-120.9884730
169,Clipper Lane,95356,37.6975638,-120.9889999
4109,Discovery Court,95356,37.6977799,-120.9890767
4701,Via Brezza,95357,37.6661808,-120.9088633
4705,Via Brezza,95357,37.6661813,-120.9086438
4709,Via Brezza,95357,37.6661850,-120.9084184
4713,Via Brezza,95357,37.6661834,-120.9081899
4717,Via Brezza,95357,37.6661990,-120.9079757
4721,Via Brezza,95357,37.6662172,-120.9077630
4725,Via Brezza,95357,37.6662208,-120.9075316
4724,Via Brezza,95357,37.6657876,-120.9075403
4720,Via Brezza,95357,37.6657991,-120.9077754
4716,Via Brezza,95357,37.6657962,-120.9079873
4712,Via Brezza,95357,37.6658041,-120.9082152
4708,Via Brezza,95357,37.6658034,-120.9084428
4704,Via Brezza,95357,37.6658150,-120.9086540
4700,Via Brezza,95357,37.6658185,-120.9088597
4621,Via Brezza,95357,37.6661748,-120.9093429
4617,Via Brezza,95357,37.6661684,-120.9095478
4613,Via Brezza,95357,37.6661700,-120.9097599
4609,Via Brezza,95357,37.6661671,-120.9099724
4605,Via Brezza,95357,37.6661908,-120.9101807
4601,Via Brezza,95357,37.6661731,-120.9104170
4600,Via Brezza,95357,37.6657960,-120.9103815
4604,Via Brezza,95357,37.6657756,-120.9101840
4608,Via Brezza,95357,37.6657896,-120.9099638
4612,Via Brezza,95357,37.6658056,-120.9097574
4616,Via Brezza,95357,37.6657921,-120.9095479
4620,Via Brezza,95357,37.6657990,-120.9093318
4617,Via Giardiano,95357,37.6654968,-120.9093586
4613,Via Giardiano,95357,37.6654803,-120.9095607
4609,Via Giardiano,95357,37.6654824,-120.9097809
4605,Via Giardiano,95357,37.6654974,-120.9099991
4601,Via Giardiano,95357,37.6654437,-120.9102101
4600,Via Giardiano,95357,37.6649997,-120.9100883
4604,Via Giardiano,95357,37.6650132,-120.9098747
4608,Via Giardiano,95357,37.6650702,-120.9096799
4612,Via Giardiano,95357,37.6650916,-120.9094661
4616,Via Giardiano,95357,37.6651246,-120.9092689
4701,Via Giardiano,95357,37.6655493,-120.9088583
4705,Via Giardiano,95357,37.6655383,-120.9086488
4709,Via Giardiano,95357,37.6655322,-120.9084319
4713,Via Giardiano,95357,37.6655191,-120.9082057
4717,Via Giardiano,95357,37.6655475,-120.9079780
4721,Via Giardiano,95357,37.6655803,-120.9077551
4725,Via Giardiano,95357,37.6655770,-120.9075132
4724,Via Giardiano,95357,37.6651350,-120.9075079
4720,Via Giardiano,95357,37.6651203,-120.9077134
4716,Via Giardiano,95357,37.6651526,-120.9079337
4712,Via Giardiano,95357,37.6651598,-120.9081444
4708,Via Giardiano,95357,37.6651535,-120.9083528
4704,Via Giardiano,95357,37.6651536,-120.9085653
4700,Via Giardiano,95357,37.6651593,-120.9087792
4601,Via Terreno,95357,37.6647214,-120.9100052
4605,Via Terreno,95357,37.6647722,-120.9098087
4609,Via Terreno,95357,37.6647868,-120.9095940
4613,Via Terreno,95357,37.6647914,-120.9093845
4617,Via Terreno,95357,37.6648258,-120.9091803
4600,Via Terreno,95357,37.6643064,-120.9098939
4604,Via Terreno,95357,37.6643309,-120.9096691
4608,Via Terreno,95357,37.6643952,-120.9094687
4612,Via Terreno,95357,37.6644041,-120.9092570
4616,Via Terreno,95357,37.6644828,-120.9090567
4701,Via Terreno,95357,37.6648901,-120.9086896
4705,Via Terreno,95357,37.6648931,-120.9084386
4709,Via Terreno,95357,37.6648852,-120.9082095
4713,Via Terreno,95357,37.6648970,-120.9079821
4717,Via Terreno,95357,37.6649297,-120.9077642
4721,Via Terreno,95357,37.6649216,-120.9075208
4720,Via Terreno,95357,37.6644906,-120.9075086
4716,Via Terreno,95357,37.6644727,-120.9077192
4712,Via Terreno,95357,37.6645157,-120.9079304
4708,Via Terreno,95357,37.6645135,-120.9081418
4704,Via Terreno,95357,37.6645094,-120.9083493
4700,Via Terreno,95357,37.6644946,-120.9085620
4621,Via Altura,95357,37.6641872,-120.9089661
4617,Via Altura,95357,37.6641554,-120.9091737
4613,Via Altura,95357,37.6641051,-120.9093816
4609,Via Altura,95357,37.6640864,-120.9096053
4605,Via Altura,95357,37.6640949,-120.9098138
4601,Via Altura,95357,37.6640453,-120.9100325
4600,Via Altura,95357,37.6636213,-120.9099024
4604,Via Altura,95357,37.6636354,-120.9097000
4608,Via Altura,95357,37.6637134,-120.9094913
4612,Via Altura,95357,37.6637614,-120.9092749
4616,Via Altura,95357,37.6637864,-120.9090730
4620,Via Altura,95357,37.6638313,-120.9088549
4701,Via Altura,95357,37.6642305,-120.9084682
4705,Via Altura,95357,37.6642397,-120.9082246
4709,Via Altura,95357,37.6642353,-120.9079794
4713,Via Altura,95357,37.6642830,-120.9077492
4717,Via Altura,95357,37.6642675,-120.9075443
4716,Via Altura,95357,37.6638484,-120.9075019
4712,Via Altura,95357,37.6638381,-120.9077163
4708,Via Altura,95357,37.6638475,-120.9079284
4704,Via Altura,95357,37.6638618,-120.9081340
4700,Via Altura,95357,37.6638612,-120.9083663
4621,Via Verde,95357,37.6635371,-120.9087711
4617,Via Verde,95357,37.6634746,-120.9089494
4613,Via Verde,95357,37.6634228,-120.9091847
4609,Via Verde,95357,37.6633789,-120.9093886
4605,Via Verde,95357,37.6633758,-120.9096015
4601,Via Verde,95357,37.6633099,-120.9098036
4600,Via Verde,95357,37.6628764,-120.9097180
4604,Via Verde,95357,37.6629008,-120.9095145
4608,Via Verde,95357,37.6629651,-120.9093138
4612,Via Verde,95357,37.6630368,-120.9091240
4616,Via Verde,95357,37.6630943,-120.9089156
1404,Via Fonte,95357,37.6634550,-120.9080566
1408,Via Fonte,95357,37.6634801,-120.9078121
1412,Via Fonte,95357,37.6635878,-120.9075659
1115,H Street,95350,37.6400249,-120.9965732
1200,I Street,95354,37.6406739,-120.9964145
1421,Coffee Road,95355,37.6645714,-120.9765890
3848,McHenry Avenue,95356,37.6945781,-120.9917665
2225,Plaza Parkway,95350,37.6733499,-121.0371311
448,Paradise Road,95351,37.6263517,-121.0127140
3250,Dale Road,95356,37.6879632,-121.0494206
1241,Standiford,95350,37.6897793,-121.0122048
3430,Tully Road,95350-0815,37.6890252,-121.0121546
2243,West Rumble Road,95350,37.6841999,-121.0350165
1524,McHenry Avenue,95350,37.6661959,-120.9926042
819,Sunset Avenue,95351,37.6182334,-121.0031790
819,Sunset Avenue,95351,37.6184566,-121.0037177
819,Sunset Avenue,95351,37.6179978,-121.0043411
1401,Lakewood Avenue,95355,37.6644502,-120.9400375
801,5th Street,95351,37.6349622,-121.0032714
801,5th Street,95351,37.6350313,-121.0031305
811,5th Street,95351,37.6352115,-121.0035449
420,H Street,95351,37.6345817,-121.0027616
420,North Riverside Drive,95354,37.6453824,-120.9467027
1333,Leonard Avenue,95350,37.6550948,-121.0132888
1016,H Street,95354,37.6387932,-120.9972393
1307,J Street,95354,37.6430931,-120.9974663
1204,McHenry Avenue,95350,37.6603070,-120.9934090
2901,Health Care Way,95356,37.7091944,-121.0485858
1901,West Orangeburg Avenue,95350,37.6645582,-121.0265903
208,Campus Way,95350,37.6479622,-121.0092734
910,12th Street,95354,37.6415035,-120.9974397
811,McHenry Avenue,95350,37.6552929,-120.9941260
705,McHenry Avenue,95350,37.6536584,-120.9943523
1401,McHenry Avenue,95350,37.6640298,-120.9944935
919,McHenry Avenue,95350,37.6560336,-120.9941966
1920,West Orangeburg Avenue,95350,37.6635468,-121.0267466
807,Needham Street,95354,37.6461017,-121.0031413
1121,Needham Street,95354,37.6462655,-121.0075742
936,McHenry Avenue,95350,37.6567524,-120.9932216
2025,West Orangeburg Avenue,95350,37.6656514,-121.0285980
3700,McHenry Avenue,95350,37.6921591,-120.9931351
2001,West Orangeburg Avenue,95350,37.6651233,-121.0275493
1616,Sisk Road,95350,37.6694708,-121.0356450
3416,Dale Rd,95356,37.6886047,-121.0494168
2045,West Briggsmore Avenue,95350,37.6688239,-121.0317876
2200,Plaza Pkwy,95350,37.6710651,-121.0376712
898,8th Sreet,95354,37.6375616,-121.0001223
500,7th Street,95354,37.6344730,-120.9975678
3948,Sylvan Avenue,95355,37.6880051,-120.9220612
3507,Tully Road #330,95356,37.6897134,-121.0132758
4342,Dale Road,95356,37.7032439,-121.0495844
909,16th Street,95354,37.6438840,-120.9941400
909,16th Street,95354,37.6440895,-120.9940162
909,16th Street,95354,37.6442043,-120.9944154
602,McHenry Avenue,95350,37.6531999,-120.9934411
1025,13th Street,95354,37.6430444,-120.9984314
1525,McHenry Avenue,95350,37.6664053,-120.9948383
2100,Standiford Avenue,95350,37.6894043,-121.0333799
3705,Oakdale Road,95357,37.6915195,-120.9584984
1717,Amesbury Place,95358,37.6048562,-121.0093321
1713,Amesbury Place,95358,37.6049992,-121.0093371
601,I Street,95354,37.6370125,-121.0030183
825,7th Street,95354,37.6369226,-121.0019139
1700,Held Drive,95355,37.6690198,-120.9127804
2513,Apache Court,95350,37.6783995,-121.0257184
2509,Apache Court,95350,37.6782161,-121.0257950
2508,Apache Court,95350,37.6784907,-121.0254906
2505,Apache Court,95350,37.6779929,-121.0257003
2504,Apache Court,95350,37.6784502,-121.0252465
2500,Apache Court,95350,37.6781388,-121.0251540
2501,Apache Court,95350,37.6778965,-121.0254491
2432,Apache Lane,95350,37.6779476,-121.0247151
2417,Apache Lane,95350,37.6775854,-121.0250025
2428,Apache Lane,95350,37.6778348,-121.0245195
2413,Apache Lane,95350,37.6774879,-121.0247976
2424,Apache Lane,95350,37.6778098,-121.0243038
2409,Apache Lane,95350,37.6774178,-121.0245711
2405,Apache Lane,95350,37.6774307,-121.0242799
2420,Apache Lane,95350,37.6778350,-121.0241032
2416,Apache Lane,95350,37.6778100,-121.0237902
2412,Apache Lane,95350,37.6775908,-121.0237267
2408,Apache Lane,95350,37.6774281,-121.0237772
2404,Apache Lane,95350,37.6772691,-121.0237886
2401,Apache Lane,95350,37.6772043,-121.0242390
2400,Apache Lane,95350,37.6771055,-121.0237651
2324,Apache Lane,95350,37.6769306,-121.0237723
1813,Mount Vernon Drive,95350,37.6769530,-121.0242325
1821,Silvaire Drive,95350,37.6782786,-121.0249999
1817,Silvaire Drive,95350,37.6784202,-121.0248720
1813,Silvaire Drive,95350,37.6785671,-121.0247359
1816,Bonanza Way,95350,37.6781493,-121.0244100
1813,Bonanza Way,95350,37.6784865,-121.0241020
1812,Bonanza Way,95350,37.6780586,-121.0241706
1808,Bonanza Way,95350,37.6781414,-121.0239246
1805,Bonanza Way,95350,37.6785050,-121.0238809
1804,Bonanza Way,95350,37.6780805,-121.0237118
1805,Bonanza Way,95350,37.6785011,-121.0236400
1801,Bonanza Way,95350,37.6784928,-121.0234033
1713,Bonanza Way,95350,37.6784914,-121.0231837
1709,Bonanza Way,95350,37.6784961,-121.0229697
1705,Bonanza Way,95350,37.6784849,-121.0227518
1701,Bonanza Way,95350,37.6784816,-121.0225171
1700,Bonanza Way,95350,37.6781077,-121.0225764
2504,Queenaire Lane,95350,37.6780957,-121.0228967
2505,Queenaire Lane,95350,37.6781132,-121.0234305
2501,Queenaire Lane,95350,37.6779380,-121.0234061
2500,Queenaire Lane,95350,37.6779209,-121.0228935
2417,Queenaire Lane,95350,37.6777747,-121.0234274
2414,Queenaire Lane,95350,37.6776008,-121.0234283
2416,Queenaire Lane,95350,37.6777520,-121.0228988
2412,Queenaire Lane,95350,37.6775882,-121.0228975
2409,Queenaire Lane,95350,37.6774325,-121.0233908
2405,Queenaire Lane,95350,37.6772649,-121.0234177
2401,Queenaire Lane,95350,37.6771088,-121.0233934
2408,Queenaire Lane,95350,37.6774220,-121.0228891
2404,Queenaire Lane,95350,37.6772554,-121.0228878
2400,Queenaire Lane,95350,37.6770980,-121.0228984
2325,Queenaire Lane,95350,37.6769348,-121.0233982
2324,Queenaire Lane,95350,37.6769241,-121.0228962
1701,Mount Vernon Drive,95350,37.6769204,-121.0225760
2401,Carver Road,95350,37.6770904,-121.0224884
2405,Carver Road,95350,37.6772586,-121.0225562
2405,Carver Road,95350,37.6774200,-121.0225466
2413,Carver Road,95350,37.6775971,-121.0225510
2417,Carver Road,95350,37.6777627,-121.0225578
2501,Carver Road,95350,37.6779217,-121.0225584
1700,Robbie Avenue,95350,37.6787519,-121.0225340
1704,Robbie Avenue,95350,37.6787552,-121.0227599
1708,Robbie Avenue,95350,37.6787590,-121.0229655
1712,Robbie Avenue,95350,37.6787641,-121.0231822
1716,Robbie Avenue,95350,37.6787641,-121.0233968
1720,Robbie Avenue,95350,37.6787550,-121.0236339
1724,Robbie Avenue,95350,37.6788161,-121.0239108
1801,Silvaire Drive,95350,37.6790617,-121.0243744
1805,Silvaire Drive,95350,37.6789074,-121.0245006
1809,Silvaire Drive,95350,37.6787412,-121.0245759
1844,Hunt Avenue,95350,37.6791705,-121.0246658
1848,Hunt Avenue,95350,37.6790343,-121.0248107
1852,Hunt Avenue,95350,37.6789316,-121.0249773
1856,Hunt Avenue,95350,37.6788132,-121.0251432
1900,Hunt Avenue,95350,37.6787964,-121.0253632
1904,Hunt Avenue,95350,37.6788067,-121.0255834
1908,Hunt Avenue,95350,37.6787938,-121.0257840
1912,Hunt Avenue,95350,37.6788140,-121.0259885
1916,Hunt Avenue,95350,37.6788172,-121.0262037
1965,Debonaire Drive,95350,37.6785747,-121.0261883
1961,Debonaire Drive,95350,37.6784102,-121.0261717
1957,Debonaire Drive,95350,37.6782453,-121.0261762
1953,Debonaire Drive,95350,37.6780800,-121.0261712
1949,Debonaire Drive,95350,37.6779140,-121.0261639
1945,Debonaire Drive,95350,37.6777509,-121.0261574
1941,Debonaire Drive,95350,37.6775845,-121.0261708
1913,Silvaire Drive,95350,37.6773915,-121.0261797
1909,Silvaire Drive,95350,37.6775851,-121.0257105
1905,Silvaire Drive,95350,37.6777326,-121.0255816
2405,Silvaire Court,95350,37.6773553,-121.0251814
2401,Silvaire Court,95350,37.6771520,-121.0251549
2400,Silvaire Court,95350,37.6770542,-121.0257895
1929,Debonaire Drive,95350,37.6769836,-121.0261146
1925,Debonaire Drive,95350,37.6767771,-121.0261582
1921,Mount Vernon Drive,95350,37.6765250,-121.0260938
1917,Mount Vernon Drive,95350,37.6766303,-121.0259348
1913,Mount Vernon Drive,95350,37.6767122,-121.0257364
1909,Mount Vernon Drive,95350,37.6767826,-121.0255494
1905,Mount Vernon Drive,95350,37.6768357,-121.0253411
1901,Mount Vernon Drive,95350,37.6768963,-121.0251344
1825,Mount Vernon Drive,95350,37.6769210,-121.0249266
1821,Mount Vernon Drive,95350,37.6769525,-121.0247072
1817,Mount Vernon Drive,95350,37.6769486,-121.0245028
1701,Robbie Avenue,95350,37.6791769,-121.0225435
1705,Robbie Avenue,95350,37.6791711,-121.0227543
1709,Robbie Avenue,95350,37.6791391,-121.0229806
1713,Robbie Avenue,95350,37.6791769,-121.0231670
1717,Robbie Avenue,95350,37.6791803,-121.0233793
1721,Robbie Avenue,95350,37.6791885,-121.0235868
1720,Anita Court,95350,37.6794174,-121.0234228
1716,Anita Court,95350,37.6794394,-121.0230907
1712,Anita Court,95350,37.6796691,-121.0229508
1708,Anita Court,95350,37.6799012,-121.0230461
1704,Silvaire Drive,95350,37.6801630,-121.0229257
1700,Silvaire Drive,95350,37.6801578,-121.0225678
2709,Carver Road,95350,37.6799199,-121.0225947
2705,Carver Road,95350,37.6797548,-121.0225999
2701,Carver Road,95350,37.6795748,-121.0225787
2609,Carver Road,95350,37.6793881,-121.0225789
1701,Silvaire Drive,95350,37.6805337,-121.0227056
1705,Silvaire Drive,95350,37.6803582,-121.0234096
1709,Silvaire Drive,95350,37.6802201,-121.0235502
1713,Silvaire Drive,95350,37.6800890,-121.0236233
1717,Silvaire Drive,95350,37.6799455,-121.0237209
1721,Silvaire Drive,95350,37.6797907,-121.0238528
1725,Silvaire Drive,95350,37.6796561,-121.0239315
1729,Silvaire Drive,95350,37.6795112,-121.0240353
1733,Silvaire Drive,95350,37.6793717,-121.0241542
1840,Hunt Avenue,95350,37.6795037,-121.0244605
1836,Hunt Avenue,95350,37.6796627,-121.0244103
1832,Hunt Avenue,95350,37.6798333,-121.0242509
1828,Hunt Avenue,95350,37.6799755,-121.0240891
1824,Hunt Avenue,95350,37.6801636,-121.0240331
1820,Hunt Avenue,95350,37.6803552,-121.0239357
1720,Applegate Drive,95350,37.6805890,-121.0239758
1716,Applegate Drive,95350,37.6806210,-121.0237075
1712,Applegate Drive,95350,37.6806173,-121.0234538
1708,Applegate Drive,95350,37.6805830,-121.0231661
1704,Applegate Drive,95350,37.6805945,-121.0229813
1700,Applegate Drive,95350,37.6806840,-121.0227016
1701,Applegate Drive,95350,37.6810526,-121.0226517
1705,Applegate Drive,95350,37.6809682,-121.0229887
2812,Santa Lucia Court,95350,37.6811701,-121.0229378
2816,Santa Lucia Court,95350,37.6813606,-121.0231213
2816,Santa Lucia Court,95350,37.6813512,-121.0233978
2813,Santa Lucia Court,95350,37.6811201,-121.0236061
2809,Santa Lucia Court,95350,37.6809582,-121.0235731
1721,Applegate Drive,95350,37.6809527,-121.0238864
2810,Hunt Avenue,95350,37.6811295,-121.0239115
1808,Hunt Avenue,95350,37.6812872,-121.0239385
1804,Hunt Avenue,95350,37.6814519,-121.0239388
1802,Hunt Avenue,95350,37.6815984,-121.0239188
1800,Hunt Avenue,95350,37.6816551,-121.0239176
1718,West Rumble Road,95350,37.6815890,-121.0236761
1716,West Rumble Road,95350,37.6816009,-121.0235707
1714,West Rumble Road,95350,37.6816011,-121.0234394
1712,West Rumble Road,95350,37.6815861,-121.0233401
1710,West Rumble Road,95350,37.6815791,-121.0232022
1708,West Rumble Road,95350,37.6815923,-121.0231017
1706,West Rumble Road,95350,37.6815698,-121.0229629
1704,West Rumble Road,95350,37.6815516,-121.0228661
2827,Carver Road,95350,37.6815840,-121.0226209
2825,Carver Road,95350,37.6815218,-121.0226208
2823,Carver Road,95350,37.6814232,-121.0226105
2821,Carver Road,95350,37.6813581,-121.0226098
2819,Carver Road,95350,37.6812572,-121.0226122
2817,Carver Road,95350,37.6811963,-121.0226122
1703,Carver Road,95350,37.6820136,-121.0227405
1701,Carver Road,95350,37.6820139,-121.0226435
3001,Carver Road,95350,37.6820146,-121.0225435
3005,Carver Road,95350,37.6821925,-121.0226361
3007,Carver Road,95350,37.6822671,-121.0226372
3011,Carver Road,95350,37.6824425,-121.0226401
3009,Carver Road,95350,37.6823695,-121.0226394
3013,Carver Road,95350,37.6825545,-121.0226447
3015,Carver Road,95350,37.6826284,-121.0226450
3017,Carver Road,95350,37.6827309,-121.0226448
3019,Carver Road,95350,37.6828045,-121.0226451
3021,Carver Road,95350,37.6829095,-121.0226468
3023,Carver Road,95350,37.6829826,-121.0226478
3027,Carver Road,95350,37.6831667,-121.0226548
3025,Carver Road,95350,37.6830923,-121.0226537
3029,Carver Road,95350,37.6832751,-121.0226593
3031,Carver Road,95350,37.6833475,-121.0226591
1704,Abbotts Lane,95350,37.6833288,-121.0230077
3024,Radnor Way,95350,37.6831278,-121.0230030
3020,Radnor Way,95350,37.6829428,-121.0229985
3016,Radnor Way,95350,37.6827630,-121.0230075
3012,Radnor Way,95350,37.6825877,-121.0229971
3008,Radnor Way,95350,37.6824014,-121.0229883
3004,Radnor Way,95350,37.6822268,-121.0229877
1705,Carver Road,95350,37.6820156,-121.0230532
1705,Carver Road,95350,37.6820154,-121.0229625
1705,Carver Road,95350,37.6820155,-121.0228658
1637,West Rumble Road,95350,37.6818571,-121.0219958
1639,West Rumble Road,95350,37.6818430,-121.0221397
3000,Carver Road,95350,37.6819454,-121.0221279
3006,Carver Road,95350,37.6820970,-121.0219657
3004,Carver Road,95350,37.6820973,-121.0220688
3008,Carver Road,95350,37.6822730,-121.0220694
3010,Carver Road,95350,37.6822729,-121.0219665
3012,Carver Road,95350,37.6824325,-121.0220719
3014,Carver Road,95350,37.6824327,-121.0219708
3016,Carver Road,95350,37.6826048,-121.0220730
3018,Carver Road,95350,37.6826050,-121.0219745
3020,Carver Road,95350,37.6827639,-121.0220739
3022,Carver Road,95350,37.6827644,-121.0219741
3024,Carver Road,95350,37.6829339,-121.0220773
3026,Carver Road,95350,37.6829349,-121.0219776
3028,Carver Road,95350,37.6830914,-121.0220814
3030,Carver Road,95350,37.6830916,-121.0219799
3100,Carver Road,95350,37.6832647,-121.0220869
3102,Carver Road,95350,37.6832660,-121.0219870
3104,Carver Road,95350,37.6834207,-121.0220864
3106,Carver Road,95350,37.6834206,-121.0219854
3108,Carver Road,95350,37.6835922,-121.0220908
3110,Carver Road,95350,37.6835923,-121.0219887
1638,Delphine Avenue,95350,37.6837690,-121.0221545
1636,Delphine Avenue,95350,37.6837693,-121.0220120
3101,Carver Road,95350,37.6837070,-121.0226186
1701,Abbotts Lane,95350,37.6837108,-121.0227568
3105,Carver Road,95350,37.6839351,-121.0231528
1705,Abbotts Lane,95350,37.6836576,-121.0229759
1637,Delphine Avenue,95350,37.6840967,-121.0220223
1639,Delphine Avenue,95350,37.6840965,-121.0221636
3124,Carver Road,95350,37.6842750,-121.0221037
3126,Carver Road,95350,37.6842759,-121.0220043
3128,Carver Road,95350,37.6844468,-121.0221064
3130,Carver Road,95350,37.6844476,-121.0220022
3132,Carver Road,95350,37.6846044,-121.0221042
3134,Carver Road,95350,37.6846048,-121.0220065
3200,Carver Road,95350,37.6847736,-121.0221102
3202,Carver Road,95350,37.6847743,-121.0220075
3204,Carver Road,95350,37.6849334,-121.0221082
3206,Carver Road,95350,37.6849336,-121.0220080
3208,Carver Road,95350,37.6850945,-121.0221110
3210,Carver Road,95350,37.6850948,-121.0220096
1636,Sheldon Drive,95350,37.6852353,-121.0221049
3209,Carver Road,95350,37.6852179,-121.0226635
3205,Carver Road,95350,37.6850558,-121.0226678
3201,Carver Road,95350,37.6848611,-121.0226558
3121,Carver Road,95350,37.6846968,-121.0226617
3117,Carver Road,95350,37.6844981,-121.0226600
3113,Carver Road,95350,37.6843339,-121.0226531
3109,Carver Road,95350,37.6841477,-121.0226634
3217,Carver Road,95350,37.6855758,-121.0226899
3219,Carver Road,95350,37.6856608,-121.0226897
3221,Carver Road,95350,37.6857628,-121.0226919
3223,Carver Road,95350,37.6858482,-121.0226917
3233,Carver Road,95350,37.6859913,-121.0226857
3245,Carver Road,95350,37.6865110,-121.0226973
3249,Carver Road,95350,37.6866805,-121.0226945
3309,Carver Road,95350,37.6868813,-121.0227481
3313,Carver Road,95350,37.6869044,-121.0230150
3321,Carver Road,95350,37.6872019,-121.0230260
3317,Carver Road,95350,37.6872226,-121.0227563
3309-3321,Carver Road,95350,37.6870490,-121.0228988
3216,Carver Road,95350,37.6856088,-121.0221213
3218,Carver Road,95350,37.6856089,-121.0220205
3220,Carver Road,95350,37.6857823,-121.0221285
3222,Carver Road,95350,37.6857840,-121.0220255
3242,Carver Road,95350,37.6862610,-121.0218713
1640,Montclair Drive,95350,37.6866708,-121.0221704
1656,Montclair Drive,95350,37.6866680,-121.0218826
1632,Montclair Drive,95350,37.6866702,-121.0216537
1628,Montclair Drive,95350,37.6866613,-121.0214151
1624,Montclair Drive,95350,37.6866566,-121.0212050
1622,Montclair Drive,95350,37.6865751,-121.0209871
1620,Montclair Drive,95350,37.6866215,-121.0208648
1618,Montclair Drive,95350,37.6866214,-121.0207202
1616,Montclair Drive,95350,37.6865730,-121.0206034
1614,Montclair Drive,95350,37.6865881,-121.0204550
1612,Montclair Drive,95350,37.6866383,-121.0203337
1610,Montclair Drive,95350,37.6866363,-121.0201804
1608,Montclair Drive,95350,37.6865836,-121.0200575
1606,Montclair Drive,95350,37.6865833,-121.0199137
1604,Montclair Drive,95350,37.6866306,-121.0197928
3300,Carver Road,95350,37.6870952,-121.0221858
1645,Montclair Drive,95350,37.6870636,-121.0220062
1641,Montclair Drive,95350,37.6870955,-121.0217820
1637,Montclair Drive,95350,37.6870930,-121.0215826
1633,Montclair Drive,95350,37.6870730,-121.0213832
1629,Montclair Drive,95350,37.6870679,-121.0211895
1625,Montclair Drive,95350,37.6870584,-121.0209210
1621,Montclair Drive,95350,37.6871006,-121.0206451
1545,Lenox Drive,95350,37.6885639,-121.0193939
1541,Lenox Drive,95350,37.6885437,-121.0191683
1533,Lenox Drive,95350,37.6885458,-121.0189414
1529,Lenox Drive,95350,37.6885408,-121.0187083
1525,Lenox Drive,95350,37.6885314,-121.0184776
1521,Lenox Drive,95350,37.6885324,-121.0182428
1517,Lenox Drive,95350,37.6885346,-121.0180103
1513,Lenox Drive,95350,37.6885234,-121.0177678
1509,Lenox Drive,95350,37.6885466,-121.0175158
1505,Lenox Drive,95350,37.6883409,-121.0173015
1508,Lenox Drive,95350,37.6881177,-121.0173553
1512,Lenox Drive,95350,37.6880654,-121.0177114
1516,Lenox Drive,95350,37.6880841,-121.0179502
3420,Switzer Avenue,95350,37.6880644,-121.0182026
1540,Lenox Drive,95350,37.6881408,-121.0194224
1536,Lenox Drive,95350,37.6881523,-121.0191201
1532,Lenox Drive,95350,37.6881130,-121.0188719
3417,Switzer Avenue,95350,37.6880806,-121.0186309
3413,Switzer Avenue,95350,37.6878188,-121.0186317
1533,Switzer Court,95350,37.6877979,-121.0188802
1537,Switzer Court,95350,37.6878028,-121.0191167
1541,Switzer Court,95350,37.6878327,-121.0194020
1544,Switzer Court,95350,37.6874612,-121.0196003
1540,Switzer Court,95350,37.6873439,-121.0193965
1536,Switzer Court,95350,37.6873698,-121.0191271
1532,Switzer Court,95350,37.6873816,-121.0188868
3405,Switzer Avenue,95350,37.6873609,-121.0186397
1531,Montclair Drive,95350,37.6871280,-121.0187121
1535,Montclair Drive,95350,37.6870709,-121.0190208
1539,Montclair Drive,95350,37.6870460,-121.0193440
1601,Montclair Drive,95350,37.6871064,-121.0196010
1600,Standiford Avenue,95350,37.6886590,-121.0215024
1700,Standiford Avenue,95350,37.6886512,-121.0238892
1700,Standiford Avenue,95350,37.6891886,-121.0242862
1700,Standiford Avenue,95350,37.6891286,-121.0227807
3401,Carver Road,95350,37.6879982,-121.0228894
3333,Carver Road,95350,37.6876065,-121.0228257
3333,Carver Road,95350,37.6874090,-121.0229308
3333,Carver Road,95350,37.6875999,-121.0228992
1600,Standiford Avenue,95350,37.6891490,-121.0210385
1600,Standiford Avenue,95350,37.6891198,-121.0212155
1600,Standiford Avenue,95350,37.6888947,-121.0207544
1600,Standiford Avenue,95350,37.6885898,-121.0207532
1600,Standiford Avenue,95350,37.6882884,-121.0207499
1600,Standiford Avenue,95350,37.6880632,-121.0208584
1600,Standiford Avenue,95350,37.6880713,-121.0212552
1600,Standiford Avenue,95350,37.6880731,-121.0216418
1600,Standiford Avenue,95350,37.6886822,-121.0216429
1600,Standiford Avenue,95350,37.6885908,-121.0212552
1600,Standiford Avenue,95350,37.6884206,-121.0212583
1600,Standiford Avenue,95350,37.6883708,-121.0216380
1600,Standiford Avenue,95350,37.6888012,-121.0221906
1600,Standiford Avenue,95350,37.6885008,-121.0221968
1600,Standiford Avenue,95350,37.6886683,-121.0221956
1600,Standiford Avenue,95350,37.6885310,-121.0217460
1600,Standiford Avenue,95350,37.6881153,-121.0221888
1600,Standiford Avenue,95350,37.6881131,-121.0219522
1600,Standiford Avenue,95350,37.6882479,-121.0219995
1600,Standiford Avenue,95350,37.6882454,-121.0222007
3332,Carver Road,95350,37.6877825,-121.0221104
3328,Carver Road,95350,37.6875753,-121.0221069
3320,Carver Road,95350,37.6872728,-121.0220008
3317,Otis Avenue,95350,37.6866241,-121.0196040
3313,Otis Avenue,95350,37.6863513,-121.0196023
1605,Landes Court,95350,37.6863340,-121.0198337
1609,Landes Court,95350,37.6863396,-121.0200586
1613,Landes Court,95350,37.6863283,-121.0202829
1617,Landes Court,95350,37.6863896,-121.0205225
1621,Landes Court,95350,37.6863620,-121.0208195
1625,Landes Court,95350,37.6861411,-121.0209188
1620,Landes Court,95350,37.6859072,-121.0208235
1616,Landes Court,95350,37.6858664,-121.0205782
1612,Landes Court,95350,37.6859152,-121.0202881
1608,Landes Court,95350,37.6858998,-121.0200636
1604,Landes Court,95350,37.6859087,-121.0198412
3305,Otis Avenue,95350,37.6858779,-121.0196223
1641,Sheldon Drive,95350,37.6856487,-121.0218443
1637,Sheldon Drive,95350,37.6856348,-121.0216246
1633,Sheldon Drive,95350,37.6856382,-121.0213962
1629,Sheldon Drive,95350,37.6856344,-121.0211876
1625,Sheldon Drive,95350,37.6856204,-121.0209434
1621,Sheldon Drive,95350,37.6856036,-121.0207394
1617,Sheldon Drive,95350,37.6855973,-121.0205076
1613,Sheldon Drive,95350,37.6856092,-121.0202965
1609,Sheldon Drive,95350,37.6856132,-121.0200503
1605,Sheldon Drive,95350,37.6856066,-121.0198542
1601,Sheldon Drive,95350,37.6856252,-121.0196165
3205,Otis Avenue,95350,37.6851939,-121.0196334
1604,Sheldon Drive,95350,37.6852095,-121.0198405
1608,Sheldon Drive,95350,37.6852074,-121.0201175
1612,Sheldon Drive,95350,37.6852184,-121.0203219
1616,Sheldon Drive,95350,37.6852086,-121.0205946
1620,Sheldon Drive,95350,37.6852251,-121.0207997
1624,Sheldon Drive,95350,37.6852376,-121.0210926
1632,Sheldon Drive,95350,37.6852468,-121.0218045
1628,Sheldon Drive,95350,37.6852009,-121.0212944
3205,Lisa Drive,95350,37.6850630,-121.0217562
3201,Lisa Drive,95350,37.6848733,-121.0217488
3141,Lisa Drive,95350,37.6846844,-121.0217576
3137,Lisa Drive,95350,37.6844879,-121.0217459
3133,Lisa Drive,95350,37.6843086,-121.0217443
1633,Delphine Avenue,95350,37.6840942,-121.0217719
3200,Lisa Drive,95350,37.6848922,-121.0213093
1625,Marty Court,95350,37.6848800,-121.0210644
1621,Marty Court,95350,37.6848735,-121.0208406
1617,Marty Court,95350,37.6848659,-121.0206183
1613,Marty Court,95350,37.6849152,-121.0203808
1605,Marty Court,95350,37.6846757,-121.0200273
1608,Marty Court,95350,37.6844615,-121.0201188
1612,Marty Court,95350,37.6844202,-121.0203712
1616,Marty Court,95350,37.6844873,-121.0206074
1620,Marty Court,95350,37.6844557,-121.0208380
1624,Marty Court,95350,37.6844842,-121.0210572
3128,Lisa Drive,95350,37.6844812,-121.0212929
3124,Lisa Drive,95350,37.6841311,-121.0212663
2243,West Rumble Road,95350,37.6831985,-121.0348054
1400,Standiford Avenue,95350,37.6890134,-121.0151269
1412,Stembridge Court,95350,37.6873449,-121.0143107
1625,Delphine Avenue,95350,37.6841308,-121.0210365
1621,Delphine Avenue,95350,37.6841282,-121.0208054
1617,Delphine Avenue,95350,37.6841254,-121.0205804
1613,Delphine Avenue,95350,37.6841367,-121.0203453
1609,Delphine Avenue,95350,37.6841287,-121.0201065
1605,Delphine Avenue,95350,37.6841172,-121.0198817
3121,Otis Avenue,95350,37.6841288,-121.0196430
3125,Otis Avenue,95350,37.6843734,-121.0196632
3129,Otis Avenue,95350,37.6845603,-121.0196902
3133,Otis Avenue,95350,37.6847521,-121.0196708
3201,Otis Avenue,95350,37.6849509,-121.0196773
1632,Delphine Avenue,95350,37.6837654,-121.0217186
3117,Lisa Court,95350,37.6835799,-121.0216979
3113,Lisa Court,95350,37.6833961,-121.0216877
3109,Lisa Court,95350,37.6832157,-121.0217075
3105,Lisa Court,95350,37.6829952,-121.0216865
3101,Lisa Court,95350,37.6829020,-121.0214074
3100,Lisa Court,95350,37.6830077,-121.0211435
3104,Lisa Court,95350,37.6832312,-121.0210785
3108,Lisa Court,95350,37.6834090,-121.0211914
3112,Lisa Court,95350,37.6835796,-121.0212067
1624,Delphine Avenue,95350,37.6837539,-121.0212073
1620,Delphine Avenue,95350,37.6837336,-121.0208698
3113,Jeanette Drive,95350,37.6836894,-121.0206313
3109,Jeanette Drive,95350,37.6834313,-121.0206486
3105,Jeanette Drive,95350,37.6832407,-121.0206802
1616,De Ve Avenue,95350,37.6830277,-121.0207070
1612,De Ve Avenue,95350,37.6829041,-121.0204579
1608,De Ve Avenue,95350,37.6829248,-121.0201778
3013,India Way,95350,37.6829377,-121.0199375
3009,India Way,95350,37.6825865,-121.0199237
1605,Marsha Avenue,95350,37.6825567,-121.0202038
1609,Marsha Avenue,95350,37.6826006,-121.0204777
1613,Marsha Avenue,95350,37.6825951,-121.0207538
1617,Marsha Court,95350,37.6826260,-121.0209967
1621,Marsha Court,95350,37.6826174,-121.0212003
1625,Marsha Court,95350,37.6826598,-121.0214357
1629,Marsha Court,95350,37.6825659,-121.0216631
1632,Marsha Court,95350,37.6823583,-121.0217525
1628,Marsha Court,95350,37.6821609,-121.0216479
1624,Marsha Court,95350,37.6821594,-121.0213612
3005,Nicks Way,95350,37.6821952,-121.0211174
1612,Marsha Avenue,95350,37.6821780,-121.0206445
1608,Marsha Avenue,95350,37.6822022,-121.0203901
1604,Marsha Avenue,95350,37.6821867,-121.0201020
1600,Marsha Avenue,95350,37.6821710,-121.0198214
3003,Nicks Way,95350,37.6819055,-121.0211171
3001,Nicks Way,95350,37.6817931,-121.0211180
1613,West Rumble Road,95350,37.6817966,-121.0206523
3000,Nicks Way,95350,37.6819124,-121.0206898
1635,West Rumble Road,95350,37.6818714,-121.0218043
1633,West Rumble Road,95350,37.6818720,-121.0217224
1631,West Rumble Road,95350,37.6818673,-121.0216061
1629,West Rumble Road,95350,37.6818678,-121.0215242
1627,West Rumble Road,95350,37.6819069,-121.0213480
1625,West Rumble Road,95350,37.6818063,-121.0213033
1801,Hunt Avenue,95350,37.6816555,-121.0244205
1803,Hunt Avenue,95350,37.6815948,-121.0244212
1805,Hunt Avenue,95350,37.6814610,-121.0244224
1809,Hunt Avenue,95350,37.6812999,-121.0244092
1813,Hunt Avenue,95350,37.6811314,-121.0244147
1801,Applegate Drive,95350,37.6809432,-121.0244249
1800,Applegate Drive,95350,37.6805954,-121.0244016
1825,Hunt Avenue,95350,37.6803275,-121.0244559
1829,Hunt Avenue,95350,37.6801655,-121.0245853
1833,Hunt Avenue,95350,37.6800128,-121.0247057
1837,Hunt Avenue,95350,37.6798442,-121.0248151
1809,Robbie Avenue,95350,37.6796781,-121.0248898
1808,Robbie Avenue,95350,37.6793624,-121.0251277
1849,Hunt Avenue,95350,37.6792322,-121.0253426
1901,Hunt Avenue,95350,37.6791787,-121.0255500
1905,Hunt Avenue,95350,37.6792074,-121.0257760
1909,Hunt Avenue,95350,37.6791932,-121.0259930
1913,Hunt Avenue,95350,37.6792082,-121.0262028
1917,Hunt Avenue,95350,37.6792043,-121.0264046
1921,Hunt Avenue,95350,37.6792270,-121.0266160
1925,Hunt Avenue,95350,37.6792180,-121.0268311
2001,Hunt Avenue,95350,37.6792220,-121.0270445
2005,Hunt Avenue,95350,37.6792277,-121.0272451
2009,Hunt Avenue,95350,37.6792262,-121.0274574
2013,Hunt Avenue,95350,37.6792273,-121.0276693
2017,Hunt Avenue,95350,37.6792357,-121.0279059
2604,Jennifer Drive,95350,37.6792319,-121.0281004
2609,Jennifer Drive,95350,37.6792803,-121.0285617
2605,Jennifer Drive,95350,37.6791026,-121.0285442
2601,Jennifer Drive,95350,37.6788927,-121.0285665
2024,Hunt Avenue,95350,37.6787918,-121.0283783
2020,Hunt Avenue,95350,37.6788108,-121.0281524
2016,Hunt Avenue,95350,37.6788143,-121.0279274
2012,Hunt Avenue,95350,37.6788375,-121.0277175
2008,Hunt Avenue,95350,37.6788162,-121.0274993
2004,Hunt Avenue,95350,37.6788277,-121.0272988
2000,Hunt Avenue,95350,37.6788203,-121.0270709
1924,Hunt Avenue,95350,37.6788207,-121.0268600
1920,Hunt Avenue,95350,37.6788102,-121.0266431
1968,Debonaire Drive,95350,37.6785809,-121.0266660
1964,Debonaire Drive,95350,37.6784152,-121.0266621
1960,Debonaire Drive,95350,37.6782480,-121.0266844
1956,Debonaire Drive,95350,37.6780849,-121.0266416
1952,Debonaire Drive,95350,37.6779193,-121.0266729
1948,Debonaire Drive,95350,37.6777542,-121.0266714
1944,Debonaire Drive,95350,37.6775904,-121.0266343
1940,Debonaire Drive,95350,37.6774079,-121.0266473
1921,Silvaire Drive,95350,37.6772334,-121.0266187
1941,Silvaire Drive,95350,37.6771366,-121.0270278
2501,Janna Avenue,95350,37.6784844,-121.0284839
1932,Debonaire Drive,95350,37.6767751,-121.0266577
1928,Debonaire Drive,95350,37.6766299,-121.0266258
1924,Debonaire Drive,95350,37.6764486,-121.0265710
1923,Mount Vernon Drive,95350,37.6762547,-121.0264815
1927,Mount Vernon Drive,95350,37.6761535,-121.0266462
2300,Irvin Avenue,95350,37.6759166,-121.0269956
2304,Irvin Avenue,95350,37.6760764,-121.0270919
2308,Irvin Avenue,95350,37.6762700,-121.0270675
2312,Irvin Avenue,95350,37.6764345,-121.0270498
2316,Irvin Avenue,95350,37.6765963,-121.0270297
2313,Irvin Avenue,95350,37.6764108,-121.0275536
2004,Silvaire Drive,95350,37.6763341,-121.0279326
2005,Renchler Lane,95350,37.6762267,-121.0277638
2009,Renchler Lane,95350,37.6761286,-121.0279119
2013,Renchler Lane,95350,37.6759840,-121.0280738
2017,Renchler Lane,95350,37.6758872,-121.0282036
2021,Renchler Lane,95350,37.6757779,-121.0283737
2025,Renchler Lane,95350,37.6756750,-121.0285025
2029,Renchler Lane,95350,37.6754722,-121.0287582
2208,Janna Avenue,95350,37.6756028,-121.0288689
2304,Janna Avenue,95350,37.6761039,-121.0289154
2020,Silvaire Drive,95350,37.6763536,-121.0288975
2016,Silvaire Drive,95350,37.6763619,-121.0286318
2400,Janna Avenue,95350,37.6767249,-121.0289242
2017,Silvaire Drive,95350,37.6767567,-121.0286855
2013,Silvaire Drive,95350,37.6767272,-121.0284918
2009,Silvaire Drive,95350,37.6767215,-121.0283177
2005,Silvaire Drive,95350,37.6767316,-121.0280844
2001,Silvaire Drive,95350,37.6767861,-121.0278539
2000,Renchler Lane,95350,37.6759146,-121.0275699
2004,Renchler Lane,95350,37.6757354,-121.0277037
2008,Renchler Lane,95350,37.6755953,-121.0278593
2012,Renchler Lane,95350,37.6754992,-121.0280015
2016,Renchler Lane,95350,37.6753592,-121.0281638
2020,Renchler Lane,95350,37.6752925,-121.0283137
2024,Renchler Lane,95350,37.6751733,-121.0285070
2024,Janna Avenue,95350,37.6750032,-121.0282774
2020,Janna Avenue,95350,37.6749048,-121.0281295
2017,Mount Vernon Drive,95350,37.6751918,-121.0279033
2013,Mount Vernon Drive,95350,37.6753320,-121.0277770
2009,Mount Vernon Drive,95350,37.6754805,-121.0275611
2005,Mount Vernon Drive,95350,37.6756253,-121.0273967
2020,Blanche Street,95350,37.6792791,-121.0288843
2608,Janna Avenue,95350,37.6791236,-121.0289098
2604,Janna Avenue,95350,37.6789568,-121.0289003
2600,Janna Avenue,95350,37.6787966,-121.0288869
2617,Jennifer Drive,95350,37.6796570,-121.0285128
2701,Jennifer Drive,95350,37.6798813,-121.0285534
2004,Robbie Avenue,95350,37.6795163,-121.0272568
2000,Robbie Avenue,95350,37.6795120,-121.0270335
2017,Blanche Street,95350,37.6796370,-121.0287406
2021,Blanche Street,95350,37.6796829,-121.0289838
2020,Robbie Avenue,95350,37.6795137,-121.0281129
2016,Robbie Avenue,95350,37.6795130,-121.0278968
2012,Robbie Avenue,95350,37.6795185,-121.0276809
2008,Robbie Avenue,95350,37.6795070,-121.0274538
1920,Robbie Avenue,95350,37.6795082,-121.0268258
1916,Robbie Avenue,95350,37.6794919,-121.0266189
1912,Robbie Avenue,95350,37.6794961,-121.0264054
1908,Robbie Avenue,95350,37.6794894,-121.0261980
1904,Robbie Avenue,95350,37.6794752,-121.0259852
1900,Robbie Avenue,95350,37.6794979,-121.0257735
1816,Robbie Avenue,95350,37.6794715,-121.0255648
1812,Robbie Avenue,95350,37.6794528,-121.0253615
1813,Robbie Avenue,95350,37.6798080,-121.0252181
2704,Charline Court,95350,37.6799911,-121.0252024
2708,Charline Court,95350,37.6801740,-121.0251428
2712,Charline Court,95350,37.6803398,-121.0252923
2713,Charline Court,95350,37.6803763,-121.0255255
2709,Charline Court,95350,37.6802210,-121.0258156
2705,Charline Court,95350,37.6800412,-121.0257940
1901,Robbie Avenue,95350,37.6798677,-121.0258339
1909,Robbie Avenue,95350,37.6798490,-121.0261904
1316,12th Street,95354,37.6454124,-121.0020535
1433,11th Street,95354,37.6455831,-121.0051470
3500,Coffee Road,95355,37.6894366,-120.9755061
3424,Oakdale Road,95355,37.6878591,-120.9575185
3416,Oakdale Road,95355,37.6876117,-120.9574877
3737,McHenry Avenue,95356,37.6923100,-120.9951273
1302,J Street,95354,37.6426129,-120.9971035
3330,Oakdale Road,95355,37.6863400,-120.9575807
3401,Oakdale Road,95355,37.6855395,-120.9588964
1533,Oakdale Road,95355,37.6667108,-120.9590325
3401,Oakdale Road,95355,37.6868468,-120.9584902
1528,Oakdale Road,95355,37.6657749,-120.9565829
3601,Litt Road,95357,37.6932608,-120.9316848
1233,Oakdale Road,95355,37.6611811,-120.9579835
1021,Oakdale Road,95355,37.6569549,-120.9579496
1045,Oakdale Road,95355,37.6578449,-120.9579934
3416,Switzer Avenue,95350,37.6878406,-121.0181539
3412,Switzer Avenue,95350,37.6876328,-121.0181431
3408,Switzer Avenue,95350,37.6874169,-121.0181702
3404,Switzer Avenue,95350,37.6872271,-121.0181524
1517,Montclair Drive,95350,37.6870456,-121.0181503
1513,Montclair Drive,95350,37.6870406,-121.0178398
3405,Montclair Circle,95350,37.6872195,-121.0178159
3409,Montclair Circle,95350,37.6874455,-121.0178521
3412,Montclair Circle,95350,37.6877080,-121.0173002
3408,Montclair Circle,95350,37.6874347,-121.0172470
3404,Montclair Circle,95350,37.6872137,-121.0172725
1505,Montclair Drive,95350,37.6870276,-121.0172573
1513,Montclair Drive,95350,37.6870246,-121.0168864
3329,Royalton Avenue,95350,37.6872040,-121.0168680
3401,Royalton Avenue,95350,37.6873959,-121.0168853
3405,Royalton Avenue,95350,37.6875858,-121.0168941
3409,Royalton Avenue,95350,37.6877729,-121.0168855
3413,Royalton Avenue,95350,37.6879527,-121.0168981
3417,Royalton Avenue,95350,37.6881664,-121.0169092
3421,Royalton Avenue,95350,37.6883974,-121.0168610
1449,Warfield Avenue,95350,37.6884481,-121.0166040
1445,Warfield Avenue,95350,37.6884472,-121.0163434
1441,Warfield Avenue,95350,37.6884560,-121.0161173
1437,Warfield Avenue,95350,37.6884769,-121.0158729
1433,Warfield Avenue,95350,37.6884927,-121.0156446
1429,Warfield Avenue,95350,37.6885089,-121.0154117
3505,Chancellor Avenue,95350,37.6886810,-121.0151126
1425,Warfield Avenue,95350,37.6884962,-121.0151515
3504,Chancellor Avenue,95350,37.6886745,-121.0146005
1417,Warfield Avenue,95350,37.6884742,-121.0145849
1413,Warfield Avenue,95350,37.6884742,-121.0142804
1409,Warfield Avenue,95350,37.6884641,-121.0140325
1405,Warfield Avenue,95350,37.6884582,-121.0138053
3420,Stembridge Avenue,95350,37.6883033,-121.0136110
3416,Stembridge Avenue,95350,37.6880728,-121.0136125
3413,Stembridge Avenue,95350,37.6880251,-121.0141203
1412,Warfield Avenue,95350,37.6880524,-121.0143436
3409,Stembridge Avenue,95350,37.6877804,-121.0140890
1413,Stembridge Court,95350,37.6877627,-121.0143194
1417,Stembridge Court,95350,37.6878109,-121.0145751
1421,Stembridge Court,95350,37.6877538,-121.0148404
1424,Stembridge Court,95350,37.6875476,-121.0149582
1428,Royalton Court,95350,37.6875497,-121.0152904
1432,Royalton Court,95350,37.6873457,-121.0153752
1433,Royalton Court,95350,37.6877825,-121.0153868
1437,Royalton Court,95350,37.6877997,-121.0156864
1416,Warfield Avenue,95350,37.6880794,-121.0145665
1420,Warfield Avenue,95350,37.6881073,-121.0147980
1424,Warfield Avenue,95350,37.6880853,-121.0150250
1428,Warfield Avenue,95350,37.6880853,-121.0152564
1432,Warfield Avenue,95350,37.6880672,-121.0154806
1436,Warfield Avenue,95350,37.6880610,-121.0157045
1440,Warfield Avenue,95350,37.6880418,-121.0159383
1444,Warfield Avenue,95350,37.6880313,-121.0161543
3412,Royalton Avenue,95350,37.6879965,-121.0163920
3408,Royalton Avenue,95350,37.6877501,-121.0163898
1445,Royalton Court,95350,37.6877653,-121.0161877
1441,Royalton Court,95350,37.6877556,-121.0159360
3400,Royalton Avenue,95350,37.6873143,-121.0163850
1444,Royalton Court,95350,37.6873197,-121.0161580
1440,Royalton Court,95350,37.6873260,-121.0159392
1436,Royalton Court,95350,37.6873029,-121.0156803
3320,Royalton Avenue,95350,37.6870638,-121.0163777
1420,Stembridge Court,95350,37.6873192,-121.0148212
1416,Stembridge Court,95350,37.6872729,-121.0145611
3321,Stembridge Avenue,95350,37.6870384,-121.0140966
3412,Stembridge Avenue,95350,37.6878902,-121.0136096
3408,Stembridge Avenue,95350,37.6877121,-121.0136028
3404,Stembridge Avenue,95350,37.6875270,-121.0136042
3400,Stembridge Avenue,95350,37.6873473,-121.0135896
3324,Stembridge Avenue,95350,37.6871607,-121.0135987
1401,Montclair Drive,95350,37.6869788,-121.0135863
3401,Tully Road,95350,37.6871403,-121.0130720
3405,Tully Road,95350,37.6874910,-121.0130258
3405,Tully Road,95350,37.6875000,-121.0127808
3417,Tully Road,95350,37.6878832,-121.0130837
3417,Tully Road,95350,37.6880853,-121.0127941
3417,Tully Road,95350,37.6878279,-121.0127882
3304,Benton Circle,95350,37.6858584,-121.0185000
2101,Sylvan Avenue,95355,37.6903645,-120.9586550
3350,Oakdale Road,95355,37.6869890,-120.9574944
3424,Oakdale Road,95355,37.6880750,-120.9575250
1433,Sylvan Avenue,95355,37.6892495,-120.9720389
3500,Coffee Road,95355,37.6892328,-120.9744594
1228,Tully Road,95350,37.6612333,-121.0118273
1210,Tully Road,95350,37.6608617,-121.0118375
1720,Sisk Road,95350,37.6702842,-121.0363315
3225,McHenry Avenue,95350,37.6851389,-120.9947631
3413,Montclair Circle,95350,37.6877199,-121.0178261
3416,Montclair Circle,95350,37.6877970,-121.0175379
1501,Standiford Avenue,95350,37.6891346,-121.0168168
1500,Standiford Avenue,95350,37.6890923,-121.0173067
1500,Standiford Avenue,95350,37.6891787,-121.0177293
1500,Standiford Avenue,95350,37.6891454,-121.0175218
1500,Standiford Avenue,95350,37.6889582,-121.0176027
1520,Standiford Avenue,95350,37.6890534,-121.0180517
1532,Standiford Avenue,95350,37.6891377,-121.0191204
3401,Tully Road,95350,37.6875330,-121.0130401
3401,Tully Road,95350,37.6871570,-121.0127868
3417,Tully Road,95350,37.6881219,-121.0130890
3417,Tully Road,95350,37.6880712,-121.0133534
1617,North Carpenter Road,95351,37.6594751,-121.0334108
1516,Montclair Drive,95350,37.6866588,-121.0181441
3308,Benton Circle,95350,37.6859673,-121.0181800
3305,Montclair Court,95350,37.6859541,-121.0177954
3305,Montclair Court,95350,37.6859940,-121.0179213
3304,Benton Circle,95350,37.6858398,-121.0183209
3305,Montclair Court,95350,37.6857707,-121.0177824
3308,Montclair Court,95350,37.6859337,-121.0172752
3308,Montclair Court,95350,37.6857831,-121.0171036
1429,Rosemead Court,95350,37.6856398,-121.0157155
1429,Rosemead Court,95350,37.6856479,-121.0158920
1425,Rosemead Court,95350,37.6856138,-121.0154184
1400,Rosemead Court,95350,37.6852341,-121.0140426
1400,Rosemead Court,95350,37.6852860,-121.0142251
1330,College Avenue,95350,37.6635939,-121.0050416
1330,College Avenue,95350,37.6629880,-121.0071339
1135,Tully Road,95350,37.6601609,-121.0123832
1304,West Roseburg Avenue,95350,37.6601850,-121.0125497
1624,J Street,95354,37.6451880,-120.9936546
702,Kearney Avenue,95350,37.6548574,-121.0162778
716,Kearney Avenue,95350,37.6552088,-121.0162506
435,College Avenue,95350,37.6513090,-121.0097548
1319-1321,Leonard Avenue,95350,37.6548288,-121.0129471
1317,Leonard Avenue,95350,37.6549667,-121.0128543
1313,Leonard Avenue,95350,37.6548135,-121.0127211
1313 1/2,Leonard Avenue,95350,37.6549334,-121.0127602
703,Tully Road,95350,37.6548241,-121.0123313
320,Madonia Avenue,95350,37.6485797,-121.0105257
1324,J Street,95354,37.6431267,-120.9965453
900,17th Street,95354,37.6450581,-120.9926029
1001,J Street,95354,37.6407557,-121.0003195
1000,I Street,95354,37.6392824,-120.9982338
801,11th Street,95354,37.6393178,-120.9977107
825,12th Street,95354,37.6403603,-120.9968962
1200,H Street,95354,37.6400009,-120.9958146
1202,H Street,95354,37.6399893,-120.9956232
1213,I Street,95354,37.6415382,-120.9968543
1119,12th Street,95354,37.6432969,-121.0005408
1117,7th Street,95354,37.6395900,-121.0052438
625,7th Street,95354,37.6349329,-120.9997259
615,7th Street,95354,37.6347749,-120.9992807
609,7th Street,95354,37.6346197,-120.9992313
607,7th Street,95354,37.6345678,-120.9990599
432,6th Street,95354,37.6328691,-120.9978478
416,6th Street,95354,37.6325291,-120.9974703
416,6th Street,95354,37.6323994,-120.9973110
408,6th Street,95354,37.6322714,-120.9972937
601-605,D Street,95354,37.6322127,-120.9971076
301,9th Street,95354,37.6334233,-120.9946099
301,9th Street,95354,37.6325693,-120.9947890
301,9th Street,95354,37.6323803,-120.9933051
609,C Street,95354,37.6312859,-120.9960244
609,C Street,95354,37.6312436,-120.9959459
615,Sierra Drive,95351,37.6315057,-121.0019682
339,Paradise Road,95351,37.6284431,-121.0114876
400,Paradise Road,95351,37.6274094,-121.0120613
408,Paradise Road,95351,37.6271477,-121.0121984
409,Paradise Road,95351,37.6272155,-121.0135633
401,Paradise Road,95351,37.6280668,-121.0138788
415,Paradise Road,95351,37.6282432,-121.0131624
401,Paradise Road,95351,37.6282389,-121.0123707
401,Paradise Road,95351,37.6281932,-121.0146184
1114,6th Street,95354,37.6391890,-121.0055057
621,9th Street,95354,37.6360033,-120.9975675
402,9th Street,95354,37.6347636,-120.9946640
1024,G Street,95354,37.6379132,-120.9958501
1024,G Street,95354,37.6378148,-120.9959524
601,11th Street,95354,37.6374678,-120.9952960
1020,H Street,95354,37.6388354,-120.9970105
711,11th Street,95354,37.6384327,-120.9965847
701,11th Street,95354,37.6382833,-120.9964963
710,10th Street,95354,37.6380073,-120.9968418
712,10th Street,95354,37.6381543,-120.9970176
716,10th Street,95354,37.6382310,-120.9971025
718,10th Street,95354,37.6383168,-120.9972441
724,10th Street,95354,37.6383712,-120.9974234
726,10th Street,95354,37.6384186,-120.9975420
1006,H Street,95354,37.6385494,-120.9975843
1021,I Street,95354,37.6400350,-120.9988709
601,9th Street,95354,37.6355523,-120.9972642
601,9th Street,95354,37.6353997,-120.9970351
509,9th Street,95354,37.6351061,-120.9964671
501,9th Street,95354,37.6347824,-120.9959453
401,9th Street,95354,37.6340547,-120.9950356
820,H Street,95354,37.6372777,-120.9989774
709,9th Street,95354,37.6369689,-120.9982655
709,9th Street,95354,37.6367475,-120.9985284
715,G Street,95354,37.6362583,-120.9992459
710,7th Street,95354,37.6359132,-120.9997705
720,7th Street,95354,37.6361752,-121.0000491
722,7th Street,95354,37.6362323,-121.0001931
726,7th Street,95354,37.6362827,-121.0003252
700,H Street,95354,37.6364054,-121.0004169
714,H Street,95354,37.6366922,-121.0001221
730,H Street,95354,37.6368550,-120.9999112
721-725,8th Street,95354,37.6366216,-120.9998121
717,8th Street,95354,37.6364739,-120.9996283
821,5th Street,95351,37.6353256,-121.0037125
1030,4th Street,95351,37.6371716,-121.0068677
1028,4th Street,95351,37.6371490,-121.0066139
1024,4th Street,95351,37.6369672,-121.0065617
829,5th Street,95351,37.6354741,-121.0039058
829,5th Street,95351,37.6354977,-121.0036797
416-418,I Street,95351,37.6354538,-121.0040755
400,I Street,95351,37.6352632,-121.0042471
810,4th Street,95351,37.6348387,-121.0038670
401-405,H Street,95351,37.6345460,-121.0036778
411,H Street,95351,37.6347060,-121.0034967
903,5th Street,95351,37.6359893,-121.0044048
903,5th Street,95351,37.6360125,-121.0046991
913,5th Street,95351,37.6360978,-121.0048163
921,5th Street,95351,37.6364085,-121.0049148
923,5th Street,95351,37.6365306,-121.0049687
923 1/2,5th Street,95351,37.6364576,-121.0050673
927-927 1/2,5th Street,95351,37.6365805,-121.0050802
931,5th Street,95351,37.6366673,-121.0051336
420,J Street,95351,37.6365875,-121.0052390
416,J Street,95351,37.6365107,-121.0053416
412 1/2,J Street,95351,37.6362132,-121.0052879
412,J Street,95351,37.6363676,-121.0054425
408,J Street,95351,37.6362584,-121.0055913
408 1/2,J Street,95351,37.6361232,-121.0054650
404,J Street,95351,37.6361787,-121.0057077
926,4th Street,95351,37.6360440,-121.0055201
924,4th Street,95351,37.6359620,-121.0054201
922,4th Street,95351,37.6360430,-121.0053106
920,4th Street,95351,37.6359497,-121.0051902
916,4th Street,95351,37.6357835,-121.0051498
910,4th Street,95351,37.6357076,-121.0050603
411,I Street,95351,37.6357009,-121.0046358
409,I Street,95351,37.6356426,-121.0047144
1001,5th Street,95351,37.6368462,-121.0054980
1011,5th Street,95351,37.6371195,-121.0058107
1015,5th Street,95351,37.6372613,-121.0058384
1016,4th Street,95351,37.6368648,-121.0064134
1014,4th Street,95351,37.6367518,-121.0063375
1012-1012 1/2,4th Street,95351,37.6367839,-121.0062461
1010,4th Street,95351,37.6366558,-121.0062299
411,J Street,95351,37.6366759,-121.0058318
405,J Street,95351,37.6366136,-121.0059743
403,J Street,95351,37.6364752,-121.0060627
719,I Street,95354,37.6380341,-121.0015877
921,8th Street,95354,37.6383307,-121.0020136
935,8th Street,95354,37.6385517,-121.0023226
935,8th Street,95354,37.6386533,-121.0024425
918,7th Street,95354,37.6381246,-121.0024289
914,7th Street,95354,37.6379483,-121.0022357
701,I Street,95354,37.6377406,-121.0021158
705-707,I Street,95354,37.6378166,-121.0020125
711,I Street,95354,37.6378831,-121.0018615
709,J Street,95354,37.6387478,-121.0032679
709,J Street,95354,37.6388697,-121.0031088
709,J Street,95354,37.6392472,-121.0034600
1001,8th Street,95354,37.6390098,-121.0026539
1029,8th Street,95354,37.6394895,-121.0031366
1029,8th Street,95354,37.6397618,-121.0034155
722,I Street,95354,37.6376714,-121.0009947
722,I Street,95354,37.6376581,-121.0012558
821,8th Street,95354,37.6375106,-121.0008630
813,8th Street,95354,37.6373541,-121.0006299
809,8th Street,95354,37.6372939,-121.0005867
801,8th Street,95354,37.6371347,-121.0004204
701,H Street,95354,37.6367890,-121.0009141
812,7th Street,95354,37.6368765,-121.0011153
820,7th Street,95354,37.6372681,-121.0013448
820,7th Street,95354,37.6371994,-121.0011368
704,I Street,95354,37.6373483,-121.0015587
714,I Street,95354,37.6374797,-121.0013888
801,7th Street,95354,37.6364013,-121.0011834
801,7th Street,95354,37.6363366,-121.0013845
623,H Street,95354,37.6362577,-121.0014424
605,H Street,95354,37.6360946,-121.0016473
605,H Street,95354,37.6360217,-121.0017270
601-603,H Street,95354,37.6359676,-121.0018322
808,6th Street,95354,37.6361265,-121.0019353
810,H Street,95354,37.6361714,-121.0017768
810,6th Street,95354,37.6362371,-121.0018615
812,6th Street,95354,37.6362320,-121.0020614
1800,Prescott Road,95350,37.6712504,-121.0300415
1800,Prescott Road,95350,37.6722359,-121.0308223
1800,Prescott Road,95350,37.6723058,-121.0289734
1800,Prescott Road,95350,37.6730195,-121.0300297
1516,Carver Road,95350,37.6666998,-121.0217042
1811,Teresa Street,95350,37.6652619,-121.0255703
1811,Teresa Street,95350,37.6652934,-121.0243381
1811,Teresa Street,95350,37.6656223,-121.0246456
1811,Teresa Street,95350,37.6651140,-121.0262583
1811,Teresa Street,95350,37.6651115,-121.0261234
1811,Teresa Street,95350,37.6651107,-121.0259731
1649,West Orangeburg Avenue,95350,37.6643892,-121.0217789
1645,West Orangeburg Avenue,95350,37.6643478,-121.0215179
1410-1416,Carver Road,95350,37.6648105,-121.0215865
1411,Carver Road,95350,37.6648062,-121.0224116
1411,Carver Road,95350,37.6646051,-121.0226516
1220,Fire Science Lane,95351,37.6615920,-121.0295536
1725,Las Vegas Street,95358,37.6039475,-121.0039455
909,Glenn Avenue,95358,37.6029183,-121.0058067
2017,Salazar Circle,95358,37.6027433,-121.0236670
2201,Blue Gum Avenue,95358,37.6609295,-121.0386863
3401,Dale Road,95356,37.6879416,-121.0533110
3401,Dale Road,95356,37.6878318,-121.0533522
3401,Dale Road,95356,37.6876793,-121.0534269
3401,Dale Road,95356,37.6876799,-121.0532415
3401,Dale Road,95356,37.6876919,-121.0525487
3401,Dale Road,95356,37.6877413,-121.0526423
3401,Dale Road,95356,37.6881486,-121.0528192
3401,Dale Road,95356,37.6886737,-121.0519782
3401,Dale Rd,95356,37.6887830,-121.0562067
500,Vintage Faire Mall,95356,37.6891449,-121.0549858
1612,Claus Road,95355,37.6676896,-120.9202310
1612,Claus Road,95355,37.6677153,-120.9206378
1612,Claus Road,95355,37.6680688,-120.9200643
1612,Claus Road,95355,37.6683367,-120.9208584
3101,Fine Avenue,95355,37.6827687,-120.9272984
3101,Fine Avenue,95355,37.6826642,-120.9268007
3105,McHenry Avenue,95350,37.6834678,-120.9947285
1800,Prescott Road,95350,37.6719601,-121.0297403
3105,Carver Road,95350,37.6839341,-121.0231609
4500,Dale Road,95356,37.7047216,-121.0495995
4500,Dale Road,95356,37.7045847,-121.0495995
1700,McHenry Ave,95350,37.6690786,-120.9910871
1221,Sutter Avenue,95351,37.6099290,-121.0156062
1650,Hillside Drive,95354,37.6252297,-120.9699261
3432,Bellevue Dr.,95350,37.6887103,-121.0199142
1549,Lenox Drive,95350,37.6885238,-121.0198663
1339,Leonard Avenue,95350,37.6550323,-121.0137517
1312,McHenry Avenue,95350,37.6622782,-120.9924307
2404,Apache Lane,95350,37.6772628,-121.0237477
2404,Apache Lane,95350,37.6772628,-121.0237477
1808,Bonanza Way,95350,37.6780988,-121.0239292
2401,Carver Road,95350,37.6770969,-121.0225281
1330,College Avenue,95350,37.6633392,-121.0062299
1150,9th Street,95354,37.6419034,-121.0023059
707,South Emerald Avenue,95351,37.6319608,-121.0223710
3237,Carver Road,95350,37.6860304,-121.0233268
