House number,Street name,Postal code,Latitude,Longitude
790,North Shoreline Boulevard,94043,37.4060647,-122.0784260
201,Castro Street,94041,37.3936438,-122.0788638
2410,East Charleston Road,94043,37.4218076,-122.0964180
1030,North Rengstorff Avenue,94043-1716,37.4194476,-122.0960880
1350,Grant Road,94040,37.3776640,-122.0765770
143,East El Camino Real,94040,37.3786706,-122.0714464
1041,North El Monte Avenue,94040,37.3900939,-122.0947033
1037,El Monte Avenue,94040,37.3908308,-122.0947122
2210,Woodberry Lane,94043,37.4135251,-122.0954798
1380,Pear Avenue,94043,37.4157646,-122.0776812
1380,Pear Avenue,94043,37.4159790,-122.0771488
750,"Castro St, Park Place South",94041,37.3874972,-122.0830990
122,North Rengstorff Avenue,94043,37.4043631,-122.0975553
2400,East Charleston Road,94043,37.4218129,-122.0965490
205,East Middlefield Road,94043,37.3969471,-122.0616569
2534,Old Middlefield Way,94043,37.4156034,-122.1011086
108,North Rengstorff Avenue,94043,37.4040957,-122.0980999
2430,East Charleston Road,94043,37.4220491,-122.0964020
1943,West El Camino Real,94040,37.3934044,-122.0980720
1933,West El Camino Real,94040,37.3931967,-122.0974990
1919,El Camino Real,94040,37.3930805,-122.0973420
2033,West El Camino Real,94040,37.3945958,-122.1003790
857,Villa Street,94041,37.3939275,-122.0797200
377,San Antonio Road,94040,37.4051109,-122.1108591
1951,Old Middlefield Way,94043-2543,37.4140197,-122.0896190
2105,Old Middlefield Way,94043,37.4141396,-122.0934540
2675,Del Medio Avenue,94040,37.4042547,-122.1144597
2532,Old Middlefield Way,94043,37.4155817,-122.1009831
2501,West Middlefield Road,94043,37.4130099,-122.0993605
548,Victory Avenue,94043,37.4128636,-122.0994810
1250,Grant Road,94040,37.3783433,-122.0763504
1297,West El Camino Real,94040-2401,37.3880689,-122.0890930
750,West Evelyn Avenue,94041,37.3949747,-122.0778440
1288,West El Camino Real,94043,37.3884709,-122.0885060
310,North Whisman Road,94043,37.3975505,-122.0597444
67,East Evelyn Avenue,94041,37.3905011,-122.0673694
2312,Central Expressway,94043,37.4038826,-122.0981330
590,Showers Drive,94040,37.4021760,-122.1105250
580,North Rengstorff Avenue,94043,37.4114625,-122.0943406
2424,East Charleston Road,94043,37.4219774,-122.0964095
1712 Suite A,Miramonte Avenue,94040,37.3727968,-122.0876771
650,Castro Street,94041,37.3880607,-122.0827510
650,Castro Street,94041,37.3878033,-122.0829330
650,Castro Street,94041,37.3877352,-122.0829930
650,Castro Street,94041,37.3879864,-122.0827900
160,North Rengstorff Avenue,94043,37.4053344,-122.0964118
1039,North El Monte Avenue,94040,37.3906739,-122.0943882
912,Rich Avenue,94040,37.3896766,-122.0939698
1711,West El Camino Real,94040,37.3903733,-122.0940320
1935,West El Camino Real,94040,37.3931683,-122.0976750
1949A,West El Camino Real,94040,37.3933814,-122.0981049
1407,West El Camino Real,94040,37.3889488,-122.0908415
1405,West El Camino Real,94040,37.3888892,-122.0907548
2409,Leghorn Street,94043,37.4189344,-122.0973393
407,Bella Corte,94043,37.4100419,-122.0948194
408,Bella Corte,94043,37.4098597,-122.0949600
411,Bella Corte,94043,37.4100810,-122.0949095
412,Bella Corte,94043,37.4099031,-122.0950597
416,Bella Corte,94043,37.4099725,-122.0952591
420,Bella Corte,94043,37.4100029,-122.0953520
424,Bella Corte,94043,37.4101938,-122.0952427
428,Bella Corte,94043,37.4102589,-122.0952072
432,Bella Corte,94043,37.4103294,-122.0949518
433,Bella Corte,94043,37.4102046,-122.0947292
436,Bella Corte,94043,37.4103901,-122.0949122
437,Bella Corte,94043,37.4102665,-122.0946910
440,Bella Corte,94043,37.4105333,-122.0948330
441,Bella Corte,94043,37.4104335,-122.0945927
444,Bella Corte,94043,37.4106060,-122.0947921
445,Bella Corte,94043,37.4104964,-122.0945476
2680,Bayshore Parkway,94043,37.4297150,-122.0998860
580,North Rengstorff Avenue,94043,37.4107090,-122.0937824
153,Castro Street,94041,37.3943113,-122.0784664
147,Castro Street,94041,37.3944133,-122.0784014
826,West Dana Street,94041,37.3927967,-122.0800580
845,Villa Street,94041,37.3939017,-122.0795550
211,Hope Street,94041,37.3931009,-122.0777784
400,Moffett Boulevard,94043,37.3992903,-122.0755080
400,Moffett Boulevard,94043,37.3993607,-122.0754340
821,Castro Street,94041,37.3867499,-122.0830980
571,W El Camino Real,94040,37.3843040,-122.0814570
595,West El Camino Real,94040,37.3843631,-122.0817880
1249,West El Camino Real,94040,37.3879979,-122.0889300
1390,Pear Avenue,94043,37.4160222,-122.0775930
1600,Amphitheatre Parkway,94043,37.4217636,-122.0846140
1250,Grant Road,94040,37.3785400,-122.0759195
485,Castro Street,94041,37.3902968,-122.0808760
459,Castro Street,94041,37.3906693,-122.0806670
762,West Dana Street,94041,37.3924420,-122.0791805
705,West Dana Street,94041,37.3920559,-122.0790333
500,Castro Street,94039,37.3897097,-122.0820180
817,Castro Street,94041,37.3867786,-122.0830801
825,Castro Street,94041,37.3867012,-122.0831283
845,Castro Street,94041,37.3866397,-122.0831660
881,Castro Street,94041,37.3865087,-122.0832480
565,San Antonio Road,94040,37.4027348,-122.1123653
1580,West El Camino Real,94040,37.3901027,-122.0920885
1040,Grant Road,94040,37.3796848,-122.0749315
569,West El Camino Real,94040,37.3841879,-122.0812237
2580,West El Camino Real,94040,37.4008779,-122.1121905
1040 #310,Grant Road,94040,37.3795761,-122.0743191
1220,Pear Avenue,94043,37.4164109,-122.0737283
2576,Alvin Street,94043,37.4146300,-122.1011204
2578,Alvin Street,94043,37.4146685,-122.1010563
2580,Alvin Street,94043,37.4147012,-122.1009916
2574,Alvin Street,94043,37.4145891,-122.1011672
2572,Alvin Street,94043,37.4145448,-122.1012390
2570,Alvin Street,94043,37.4145052,-122.1012998
2595,Middlefield Road,94043,37.4150117,-122.1014745
2555,Middlefield Road,94043,37.4148735,-122.1011712
137,East El Camino Real,94040,37.3789728,-122.0721370
1350,Grant Road,94040,37.3770913,-122.0766170
141,East El Camino Real,94040,37.3789660,-122.0720018
1040,Grant Road,94040,37.3793035,-122.0752040
141,East El Camino Real,94040,37.3787670,-122.0715874
123,East El Camino Real,94040,37.3791220,-122.0725264
1350,Grant Road,94040,37.3770207,-122.0764740
1049,North El Monte Avenue,94040,37.3899273,-122.0952901
1049,North El Monte Avenue,94040,37.3899122,-122.0950299
1039,North El Monte Avenue,94040,37.3905690,-122.0943440
1039,North El Monte Avenue,94040,37.3905059,-122.0943429
1039,West El Camino Real,94040,37.3902576,-122.0944777
1037,El Monte Avenue,94040,37.3909749,-122.0949077
1049,North El Monte Avenue,94040-2399,37.3899059,-122.0951282
1035,El Monte Avenue,94040,37.3912482,-122.0952301
1037,El Monte Avenue,94040,37.3909282,-122.0948520
1039,North El Monte Avenue,94040,37.3903043,-122.0944190
1039,North El Monte Avenue,94040,37.3904290,-122.0943492
1039,North El Monte Avenue,94040,37.3903433,-122.0943841
2500,Hospital Drive,94040,37.3690774,-122.0824800
1712,Miramonte Avenue,94040,37.3727980,-122.0875360
1712,Miramonte Avenue,94040,37.3727951,-122.0876060
1477,Plymouth Street,94043,37.4161577,-122.0794260
241,Polaris Avenue,94043,37.3985855,-122.0836084
1111,Villa Street,94041,37.3925765,-122.0753675
705,East El Camino Real,94086,37.3756158,-122.0637900
2552,Saffron Way,94043,37.4144752,-122.1017443
2554,Saffron Way,94043,37.4145359,-122.1016911
2556,Saffron Way,94043,37.4145768,-122.1016508
2558,Saffron Way,94043,37.4146189,-122.1016045
2560,Saffron Way,94043,37.4146562,-122.1015716
2562,Saffron Way,94043,37.4146933,-122.1015249
2564,Saffron Way,94043,37.4146922,-122.1014284
2565,Middlefield Road,94043,37.4149124,-122.1012527
2568,Saffron Way,94043,37.4148097,-122.1012623
2575,Middlefield Road,94043,37.4149321,-122.1013197
2585,Middlefield Road,94043,37.4149749,-122.1013798
2591,Fairview Drive,94043,37.4148908,-122.1016437
2605,Middlefield Road,94043,37.4150454,-122.1015333
2611,Fairview Drive,94043,37.4148565,-122.1016844
2615,Middlefield Road,94043,37.4150692,-122.1016012
2621,Fairview Drive,94043,37.4148100,-122.1017326
2625,Middlefield Road,94043,37.4151044,-122.1016591
2631,Fairview Drive,94043,37.4147759,-122.1017808
2635,Middlefield Road,94043,37.4151339,-122.1017211
2641,Fairview Drive,94043,37.4147364,-122.1018410
2645,Middlefield Road,94043,37.4151547,-122.1017794
2655,Middlefield Road,94043,37.4151835,-122.1018297
2571,Fairview Drive,94043,37.4147595,-122.1015095
108,Minaret Avenue,94043,37.3917321,-122.0656150
110,Minaret Avenue,94043,37.3917186,-122.0655573
112,Minaret Avenue,94043,37.3917018,-122.0654831
114,Minaret Avenue,94043,37.3916859,-122.0654098
116,Minaret Avenue,94043,37.3916707,-122.0653356
118,Minaret Avenue,94043,37.3916532,-122.0652649
120,Minaret Avenue,94043,37.3916197,-122.0651576
122,Minaret Avenue,94043,37.3916030,-122.0650834
126,Minaret Avenue,94043,37.3915871,-122.0650101
128,Minaret Avenue,94043,37.3915719,-122.0649359
130,Minaret Avenue,94043,37.3915400,-122.0647885
132,Minaret Avenue,94043,37.3915241,-122.0647172
136,Minaret Avenue,94043,37.3915098,-122.0646530
138,Minaret Avenue,94043,37.3914954,-122.0645939
143,Ada Avenue,94043,37.3921286,-122.0662697
145,Ada Avenue,94043,37.3921940,-122.0662484
128,Ada Avenue,94043,37.3921334,-122.0664995
165,Ada Avenue,94043,37.3928550,-122.0659076
178,Ada Avenue,94043,37.3937874,-122.0659032
181,Ada Avenue,94043,37.3932696,-122.0658040
201,Ada Avenue,94043,37.3939415,-122.0655742
227,Ada Avenue,94043,37.3953787,-122.0650192
389,North Whisman Road,94043,37.3993854,-122.0570760
468,Ellis Street,94043,37.3999245,-122.0554587
2025,Garcia Avenue,94043,37.4241349,-122.0916400
1585,Charleston Road,94043,37.4203746,-122.0823290
650,Castro Street,94041,37.3882784,-122.0827910
650,Castro Street,94041,37.3882323,-122.0826980
282,Castro Street,94041,37.3928397,-122.0797960
135,Avellino Way,94043,37.3918011,-122.0645733
137,Avellino Way,94043,37.3917844,-122.0644949
111,Avellino Way,94043,37.3920513,-122.0656985
121,Avellino Way,94043,37.3919097,-122.0650723
127,Avellino Way,94043,37.3918669,-122.0648660
115,Avellino Way,94043,37.3919652,-122.0653445
123,Avellino Way,94043,37.3918973,-122.0650014
131,Avellino Way,94043,37.3918300,-122.0647284
117,Avellino Way,94043,37.3919493,-122.0652708
109,Avellino Way,94043,37.3920689,-122.0658529
119,Avellino Way,94043,37.3919377,-122.0651969
113,Avellino Way,94043,37.3919781,-122.0654128
125,Avellino Way,94043,37.3918758,-122.0649315
133,Avellino Way,94043,37.3918172,-122.0646528
2590,West El Camino Real,94040,37.4011495,-122.1128960
3811,Minaret Avenue,94043,37.3912381,-122.0648723
3611,Minaret Avenue,94043,37.3911058,-122.0643126
3814,Minaret Avenue,94043,37.3912749,-122.0650049
3618,Minaret Avenue,94043,37.3911715,-122.0645998
4316,Minaret Avenue,94043,37.3914799,-122.0658652
4611,Minaret Avenue,94043,37.3914960,-122.0660093
4614,Minaret Avenue,94043,37.3915392,-122.0661497
703,East El Camino Real,94040,37.3756404,-122.0638584
707,East El Camino Real,94040,37.3755944,-122.0637360
711,East El Camino Real,94040,37.3755588,-122.0636530
545,San Antonio Road,94040,37.4032180,-122.1115538
699,Calderon Avenue,94041,37.3850110,-122.0753673
1041,North Shoreline Boulevard,94043,37.4144315,-122.0775410
1477,Plymouth Street,94043,37.4162606,-122.0794240
1380,Pear Avenue,94043,37.4159747,-122.0770125
1390,Pear Avenue,94043,37.4158353,-122.0775830
225-2,East Middlefield Road,94043,37.3966659,-122.0615780
235,East Middlefield Road,94043,37.3973350,-122.0611786
555,San Antonio Road,94040,37.4026396,-122.1115350
67,East Evelyn Avenue,94041,37.3904649,-122.0672350
2423,Old Middlefield Way,94043,37.4144970,-122.0980240
225-1B,East Middlefield Road,94043,37.3966190,-122.0613691
1077,Independence Avenue,94043,37.4193286,-122.0966398
820,East El Camino Real,94040,37.3771965,-122.0626128
590,West El Camino Real,94040,37.3848217,-122.0814180
490,West El Camino Real,94040,37.3843049,-122.0803594
202,Montebello Avenue,94043,37.4049855,-122.0939680
1477,Plymouth Street,94043,37.4163022,-122.0794242
1764 A,Miramonte Avenue,94040,37.3718202,-122.0883050
701,Astor Court,94043,37.4126841,-122.0926793
702,Astor Court,94043,37.4127054,-122.0931681
703,Astor Court,94043,37.4126949,-122.0928849
704,Astor Court,94043,37.4127153,-122.0933582
712,Astor Court,94043,37.4129133,-122.0933535
720,Cottage Court,94043,37.4127655,-122.0940330
721,Cottage Court,94043,37.4129442,-122.0937307
722,Cottage Court,94043,37.4127712,-122.0941701
723,Cottage Court,94043,37.4129584,-122.0935615
724,Cottage Court,94043,37.4129196,-122.0941899
725,Cottage Court,94043,37.4131122,-122.0935818
726,Cottage Court,94043,37.4129343,-122.0940162
727,Cottage Court,94043,37.4130931,-122.0937530
728,Cottage Court,94043,37.4129948,-122.0940280
729,Cottage Court,94043,37.4131568,-122.0937621
730,Cottage Court,94043,37.4129825,-122.0941981
731,Cottage Court,94043,37.4131708,-122.0935930
732,Cottage Court,94043,37.4131556,-122.0942051
733,Cottage Court,94043,37.4133195,-122.0936124
734,Cottage Court,94043,37.4131466,-122.0940462
735,Cottage Court,94043,37.4133061,-122.0937846
736,Cottage Court,94043,37.4132073,-122.0940548
737,Cottage Court,94043,37.4133675,-122.0937942
738,Cottage Court,94043,37.4131715,-122.0942073
739,Cottage Court,94043,37.4133817,-122.0936250
740,Cottage Court,94043,37.4133444,-122.0942478
741,Cottage Court,94043,37.4135344,-122.0936451
742,Cottage Court,94043,37.4133587,-122.0940781
743,Cottage Court,94043,37.4135181,-122.0938168
744,Cottage Court,94043,37.4134198,-122.0940859
746,Cottage Court,94043,37.4134039,-122.0942594
748,Cottage Court,94043,37.4135538,-122.0942819
750,Cottage Court,94043,37.4135703,-122.0941085
761,Bryn Mawr Court,94043,37.4127866,-122.0943902
763,Bryn Mawr Court,94043,37.4127807,-122.0942485
765,Bryn Mawr Court,94043,37.4129488,-122.0942393
767,Bryn Mawr Court,94043,37.4129350,-122.0944092
769,Bryn Mawr Court,94043,37.4129970,-122.0944186
771,Bryn Mawr Court,94043,37.4130132,-122.0942501
773,Bryn Mawr Court,94043,37.4131831,-122.0942936
775,Bryn Mawr Court,94043,37.4131484,-122.0944409
777,Bryn Mawr Court,94043,37.4132086,-122.0944508
779,Bryn Mawr Court,94043,37.4132002,-122.0942950
781,Bryn Mawr Court,94043,37.4133702,-122.0943017
783,Bryn Mawr Court,94043,37.4133601,-122.0944721
785,Bryn Mawr Court,94043,37.4134204,-122.0944817
787,Bryn Mawr Court,94043,37.4134348,-122.0943119
789,Bryn Mawr Court,94043,37.4135855,-122.0943322
791,Bryn Mawr Court,94043,37.4135709,-122.0945038
1010,Asbury Way,94043,37.3996584,-122.0815447
1012,Asbury Way,94043,37.3996720,-122.0814162
1014,Asbury Way,94043,37.3996507,-122.0813120
2580,West El Camino Real,94040,37.4009224,-122.1122907
1090,Wentworth Street,94043,37.3991095,-122.0856987
167,Granada Drive,94043,37.3992216,-122.0858635
630,San Antonio Road,94040,37.4027805,-122.1137526
660,San Antonio Road,94040,37.4021668,-122.1136050
1001,Asbury Way,94043,37.3995006,-122.0821431
1002,Asbury Way,94043,37.3997159,-122.0820016
1003,Asbury Way,94043,37.3994025,-122.0820917
1005,Asbury Way,94043,37.3993578,-122.0819771
1007,Asbury Way,94043,37.3993506,-122.0819587
1009,Asbury Way,94043,37.3992832,-122.0818258
1013,Asbury Way,94043,37.3991955,-122.0816314
1019,Asbury Way,94043,37.3994049,-122.0814333
250,Polaris Avenue,94043,37.3990468,-122.0840634
254,Polaris Avenue,94043,37.3990718,-122.0840478
570,North Shoreline Boulevard,94043,37.4025923,-122.0795150
570,North Shoreline Boulevard,94043,37.4024559,-122.0796030
570,North Shoreline Boulevard,94043,37.4025236,-122.0797961
570,North Shoreline Boulevard,94043,37.4025412,-122.0798531
570,North Shoreline Boulevard,94043,37.4025300,-122.0795561
570,North Shoreline Boulevard,94043,37.4024799,-122.0796694
570,North Shoreline Boulevard,94043,37.4025028,-122.0797345
570,North Shoreline Boulevard,94043,37.4028027,-122.0793791
570,North Shoreline Boulevard,94043,37.4027436,-122.0794147
570,North Shoreline Boulevard,94043,37.4026474,-122.0794834
570,North Shoreline Boulevard,94043,37.4026914,-122.0794500
1805,West El Camino Real,94040-2107,37.3941693,-122.0961707
401,Mountain Laurel Court,94043,37.4001165,-122.0816891
402,Mountain Laurel Court,94043,37.4001156,-122.0821187
403,Mountain Laurel Court,94043,37.4000216,-122.0816239
404,Mountain Laurel Court,94043,37.4001258,-122.0822510
405,Mountain Laurel Court,94043,37.4000030,-122.0814985
410,Mountain Laurel Court,94043,37.4001684,-122.0824929
411,Mountain Laurel Court,94043,37.3999670,-122.0812474
412,Mountain Laurel Court,94043,37.4001818,-122.0826178
413,Mountain Laurel Court,94043,37.3999326,-122.0811215
111,North Rengstorff Avenue,94043,37.4042918,-122.0948310
221,North Rengstorff Avenue,94043,37.4057156,-122.0957560
2434,East Charleston Road,94043,37.4221696,-122.0963994
2420,East Charleston Road,94043,37.4218986,-122.0964160
999,Independence Avenue,94043,37.4182061,-122.0968350
1077,Independence Avenue,94043,37.4199374,-122.0965742
645,Ellis Street,94043,37.4028110,-122.0507310
2500d,West El Camino Real,94040,37.3998958,-122.1099850
2500,West El Camino Real,94040,37.3998734,-122.1100400
2500,West El Camino Real,94040,37.3998627,-122.1101198
2486,West El Camino Real,94040,37.3993368,-122.1095024
565,San Antonio Road,94040,37.4025007,-122.1115490
565,San Antonio Road,94040,37.4024283,-122.1116008
545,San Antonio Road,94040,37.4032710,-122.1117430
545,San Antonio Road,94040,37.4033341,-122.1119599
565,San Antonio Road,94040,37.4026041,-122.1120689
565,San Antonio Road,94040,37.4026307,-122.1121350
565,San Antonio Road,94040,37.4027010,-122.1122848
685,San Antonio Road,94040,37.4015914,-122.1129218
685,San Antonio Road,94040,37.4014668,-122.1130960
2590,West El Camino Real,94040,37.4012889,-122.1129808
2580,West El Camino Real,94040,37.4010921,-122.1126270
355,Pioneer Way,94041,37.3856595,-122.0667931
355,Pioneer Way,94041,37.3858556,-122.0667395
300,Pioneer Way,94041,37.3871458,-122.0679736
601,Showers Drive,94040,37.4001322,-122.1088008
2465,Latham Street,94040,37.3999552,-122.1084227
580,North Rengstorff Avenue,94043,37.4109301,-122.0943744
580,North Rengstorff Avenue,94043,37.4108215,-122.0940914
580,North Rengstorff Avenue,94043,37.4107934,-122.0940142
580,North Rengstorff Avenue,94043,37.4107653,-122.0939369
580,North Rengstorff Avenue,94043,37.4107371,-122.0938597
805,East El Camino Real,94040,37.3756015,-122.0622001
505,South Drive,94040,37.3668845,-122.0828610
736,West Dana Street,94041,37.3923820,-122.0789194
744,West Dana Street,94041,37.3924139,-122.0790294
860,Villa Street,94041,37.3942002,-122.0796440
990,Villa Street,94041,37.3947689,-122.0809650
134,San Antonio Circle,94040,37.4089008,-122.1101605
180,East El Camino Real,94040,37.3796133,-122.0701921
112,North Rengstorff Avenue,94043,37.4043048,-122.0979070
555,Castro Street,94041,37.3894785,-122.0812464
555,Castro Street,94041,37.3895445,-122.0813504
700,East El Camino Real,94040,37.3774633,-122.0643379
1910,West El Camino Real,94040,37.3941737,-122.0969210
1910,West El Camino Real,94040,37.3941550,-122.0968740
2520-G,Wyandotte Street,94043,37.4179521,-122.0994720
1035,El Monte Avenue,94040,37.3910679,-122.0950474
175,East El Camino Real,94040,37.3788408,-122.0707830
580,North Rengstorff Avenue,94043,37.4111910,-122.0944654
689,Calderon Avenue,94041,37.3852456,-122.0752060
677,Calderon Avenue,94041,37.3853948,-122.0753260
400,Moffett Boulevard,94043,37.3995499,-122.0751650
400,Moffett Boulevard,94043,37.3996276,-122.0749750
400,Moffett Boulevard,94043,37.3995919,-122.0751040
400,Moffett Boulevard,94043,37.3995014,-122.0752260
400,Moffett Boulevard,94043,37.3994407,-122.0753120
400,Moffett Boulevard,94043,37.3993906,-122.0753870
830,Leong Drive,94043,37.4050950,-122.0670230
1010,North Rengstorff Avenue,94043,37.4202594,-122.0958800
1901,Old Middlefield Way,94043,37.4136161,-122.0870720
1150,West El Camino Real,94040,37.3880304,-122.0878364
1247,West El Camino Real,94040,37.3879361,-122.0889710
990,Villa Street,94041,37.3947938,-122.0809289
175,East El Camino Real,94040,37.3787267,-122.0708400
169,East El Camino Real,94041,37.3785559,-122.0709686
1988,Old Middlefield Way,94043,37.4147399,-122.0910260
1988,Old Middlefield Way,94043,37.4146461,-122.0908680
805,East El Camino Real,94040,37.3755397,-122.0619799
1077,Independence Avenue,94043,37.4201548,-122.0965622
2037,Old Middlefield Way,94043,37.4141370,-122.0915553
2218,Old Middlefield Way,94043,37.4152456,-122.0946480
2218,Old Middlefield Way,94043,37.4149039,-122.0945940
2166,Old Middlefield Way,94043,37.4153065,-122.0942960
2150,Old Middlefield Way,94043,37.4148954,-122.0942480
2224,Old Middlefield Way,94043,37.4154407,-122.0950650
2224,Old Middlefield Way,94043,37.4152969,-122.0951370
2224,Old Middlefield Way,94043,37.4151681,-122.0951180
1401,North Shoreline Boulevard,94043,37.4143088,-122.0776259
2330,Old Middlefield Way,94043,37.4155590,-122.0962580
2330,Old Middlefield Way,94043,37.4152735,-122.0962713
2284,Old Middlefield Way,94043,37.4150019,-122.0958890
444,Castro Street,94041,37.3903785,-122.0817900
580,North Rengstorff Avenue,94043,37.4108870,-122.0942335
293,Castro Street,94041,37.3926857,-122.0795020
1931,Old Middlefield Way,94043,37.4135297,-122.0888115
1931,Old Middlefield Way,94043,37.4138517,-122.0886248
889,Castro Street,94041,37.3864687,-122.0832720
80,West El Camino Real,94040,37.3818145,-122.0749245
1350,West Middlefield Road,94043,37.4091982,-122.0830749
685,East Middlefield Road,94043,37.3928391,-122.0518622
675,East Middlefield Road,94043,37.3938075,-122.0523759
409,San Antonio Road,94040,37.4038921,-122.1103971
2500,California Street,94040,37.4035919,-122.1063080
2525,East Charleston Road,94043,37.4213793,-122.0987460
700,East El Camino Real,94040,37.3775411,-122.0643861
650,Castro Street,94041,37.3879023,-122.0830510
189,North Bernardo Avenue,94043,37.3863227,-122.0512876
900,Villa Street,94041,37.3945037,-122.0801730
112,Evandale Avenue,94043,37.4054346,-122.0618177
106,Evandale Avenue,94043,37.4054689,-122.0619755
565,Piazza Drive,94043,37.4047476,-122.0613899
569,Piazza Drive,94043,37.4048048,-122.0613693
120,Evandale Avenue,94043,37.4053821,-122.0615805
104,Evandale Avenue,94043,37.4054879,-122.0620630
108,Evandale Avenue,94043,37.4054624,-122.0619454
109,Evandale Avenue,94043,37.4050976,-122.0618365
103,Evandale Avenue,94043,37.4051149,-122.0621586
122,Evandale Avenue,94043,37.4053727,-122.0615376
110,Evandale Avenue,94043,37.4054447,-122.0618640
111,Evandale Avenue,94043,37.4050321,-122.0617571
575,Piazza Drive,94043,37.4049837,-122.0613021
101,Evandale Avenue,94043,37.4051828,-122.0621599
113,Evandale Avenue,94043,37.4050787,-122.0617038
579,Piazza Drive,94043,37.4050420,-122.0612806
561,Piazza Drive,94043,37.4046772,-122.0614153
116,Evandale Avenue,94043,37.4054042,-122.0616813
571,Piazza Drive,94043,37.4049164,-122.0613269
118,Evandale Avenue,94043,37.4053943,-122.0616376
107,Evandale Avenue,94043,37.4051429,-122.0620328
104,Evandale Avenue,94043,37.4054965,-122.0621027
635,Tyrella Avenue,94043,37.4058601,-122.0618796
641,Tyrella Avenue,94043,37.4059259,-122.0618548
625,Tyrella Avenue,94043,37.4057709,-122.0619132
645,Tyrella Avenue,94043,37.4059620,-122.0618412
621,Tyrella Avenue,94043,37.4057347,-122.0619268
631,Tyrella Avenue,94043,37.4058372,-122.0618882
101,Fairchild Drive,94043,37.4062246,-122.0618365
103,Fairchild Drive,94043,37.4062142,-122.0617917
105,Fairchild Drive,94043,37.4061954,-122.0617101
107,Fairchild Drive,94043,37.4061882,-122.0616788
109,Fairchild Drive,94043,37.4061696,-122.0615985
111,Fairchild Drive,94043,37.4061591,-122.0615528
115,Fairchild Drive,94043,37.4061289,-122.0614144
117,Fairchild Drive,94043,37.4061183,-122.0613687
119,Fairchild Drive,94043,37.4061085,-122.0613265
121,Fairchild Drive,94043,37.4060889,-122.0612420
123,Fairchild Drive,94043,37.4060787,-122.0611981
125,Fairchild Drive,94043,37.4060323,-122.0610194
127,Fairchild Drive,94043,37.4060223,-122.0609770
129,Fairchild Drive,94043,37.4060018,-122.0608895
135,Fairchild Drive,94043,37.4059955,-122.0608623
137,Fairchild Drive,94043,37.4059761,-122.0607796
139,Fairchild Drive,94043,37.4059659,-122.0607361
105,South Drive,94040,37.3670422,-122.0782110
2011,Showers Drive,94040,37.4065513,-122.1067780
846,Independence Avenue,94043,37.4164818,-122.0976473
650,Castro Street,94041,37.3879664,-122.0828960
2672,Bayshore Parkway,94043,37.4293985,-122.0999203
334,San Antonio Road,94040,37.4057258,-122.1115206
334,San Antonio Road,94040,37.4058206,-122.1115353
830,Leong Drive,94043,37.4052778,-122.0669911
830,Leong Drive,94043,37.4052160,-122.0670662
221,Bryant Avenue,94040,37.3607886,-122.0765975
221,Bryant Avenue,94040,37.3610433,-122.0765996
790,North Shoreline Boulevard,94043,37.4059857,-122.0785460
790,North Shoreline Boulevard,94043,37.4058984,-122.0785440
2415,Old Middlefield Way,94043,37.4145002,-122.0978129
777,Cuesta Drive,94040,37.3734132,-122.0864104
2235,Old Middlefield Way,94043,37.4139910,-122.0950833
677,Leong Drive,94043,37.4036804,-122.0681566
675,Leong Drive,94043,37.4036197,-122.0682331
671,Leong Drive,94043,37.4035506,-122.0683327
669,Leong Drive,94043,37.4034760,-122.0684225
2500,Hospital Drive,94040,37.3687909,-122.0824053
2500,Hospital Drive,94040,37.3687621,-122.0824054
2500,Hospital Drive,94040,37.3683015,-122.0824452
2500,Hospital Drive,94040,37.3685530,-122.0824237
2500,Hospital Drive,94040,37.3675162,-122.0823469
2500,Hospital Drive,94040,37.3690898,-122.0823776
2500,Hospital Drive,94040,37.3679982,-122.0824984
2500,Hospital Drive,94040,37.3680474,-122.0824086
2500,Hospital Drive,94040,37.3676045,-122.0824691
2500,Hospital Drive,94040,37.3683121,-122.0821823
2500,Hospital Drive,94040,37.3690410,-122.0823740
2218,Old Middlefield Way,94043,37.4149994,-122.0946091
2330,Old Middlefield Way,94043,37.4153413,-122.0962668
2330,Old Middlefield Way,94043,37.4150765,-122.0962837
2330,Old Middlefield Way,94043,37.4151777,-122.0962797
305,South Drive,94040,37.3670365,-122.0817982
305,South Drive,94040,37.3670359,-122.0815806
305,South Drive,94040,37.3670357,-122.0815080
1000,North Rengstorff Avenue,94043,37.4206876,-122.0950417
2500,California Street,94040,37.4034821,-122.1062370
776,Winston Place,94043,37.4047500,-122.0662939
1602,Spring Street,94043,37.4129934,-122.0818270
801,West El Camino Real,94040,37.3857145,-122.0845163
1100,West El Camino Real,94040,37.3876281,-122.0872058
250,Bryant Street,94041,37.3934038,-122.0812488
1174,Castro Street,94040,37.3824424,-122.0866494
1174,Castro Street,94040,37.3824412,-122.0866000
1174,Castro Street,94040,37.3824424,-122.0865490
1174,Castro Street,94040,37.3824114,-122.0866494
1174,Castro Street,94040,37.3824126,-122.0866000
525,South Drive,94040,37.3668202,-122.0847215
525,South Drive,94040,37.3668756,-122.0847778
525,South Drive,94040,37.3668223,-122.0847778
525,South Drive,94040,37.3668735,-122.0846571
525,South Drive,94040,37.3668735,-122.0847215
525,South Drive,94040,37.3668202,-122.0846571
2495,Hospital Drive,94040,37.3689330,-122.0804218
2495,Hospital Drive,94040,37.3690308,-122.0803844
2495,Hospital Drive,94040,37.3690180,-122.0806277
295,North Bernardo Avenue,94043,37.3867952,-122.0501458
2444,Old Middlefield Way,94043,37.4151359,-122.0981226
2444,Old Middlefield Way,94043,37.4156569,-122.0980764
2500,Old Middlefield Way,94043,37.4155380,-122.1002020
411,Clyde Avenue,94043,37.3958730,-122.0469254
1299,Bryant Avenue,94040,37.3609671,-122.0642199
2105,Old Middlefield Way,94043,37.4141325,-122.0933571
2483,Old Middlefield Way,94043,37.4146053,-122.0992848
1200,Villa Street,94041,37.3965202,-122.0839951
1200,Villa Street,94041,37.3966832,-122.0839093
1704,Miramonte Avenue,94040,37.3738608,-122.0876084
1704,Miramonte Avenue,94040,37.3739082,-122.0877579
1704,Miramonte Avenue,94040,37.3736157,-122.0876594
1855,Miramonte Avenue,94040,37.3706875,-122.0859280
3565,Grant Road,94040,37.3604901,-122.0775457
110,Pioneer Way,94041,37.3887813,-122.0675473
585,Franklin Street,94043,37.3903223,-122.0836197
2500,Hospital Drive,94040,37.3680415,-122.0821474
205,South Drive,94040,37.3671036,-122.0797760
897,Independence Avenue,94043,37.4173963,-122.0958179
897,Independence Avenue,94043,37.4176327,-122.0968290
897,Independence Avenue,94043,37.4176615,-122.0955350
897,Independence Avenue,94043,37.4176711,-122.0957890
897,Independence Avenue,94043,37.4176700,-122.0962256
897,Independence Avenue,94043,37.4175049,-122.0955269
2440,East Charleston Road,94043,37.4230532,-122.0962212
549,West El Camino Real,94040,37.3840237,-122.0811434
1915,Latham Street,94040,37.3942411,-122.0963174
630,Clyde Court,94043,37.4008450,-122.0487339
185,East Dana Street,94041,37.3862074,-122.0654728
135,Castro Street,94041,37.3944916,-122.0782847
1711,West El Camino Real,94040,37.3904061,-122.0940844
565,San Antonio Road,94040,37.4025667,-122.1118805
1734,West El Camino Real,94040,37.3916047,-122.0946236
401,San Antonio Road,94040,37.4040113,-122.1115160
833,Villa Street,94041,37.3938807,-122.0794340
101,East El Camino Real,94040,37.3799793,-122.0728809
101,East El Camino Real,94040,37.3798418,-122.0728160
101,East El Camino Real,94040,37.3797655,-122.0728681
1980,West El Camino Real,94040,37.3948047,-122.0991486
1980,West El Camino Real,94040,37.3948396,-122.0992341
210,Hope Street,94041,37.3933378,-122.0780541
2612,North Shoreline Boulevard,94043,37.4283524,-122.0799238
339,North Bernardo Avenue,94043,37.3879110,-122.0507799
695,Calderon Avenue,94041,37.3851287,-122.0752806
681,Calderon Avenue,94041,37.3853174,-122.0752273
530,Showers Drive,94040,37.4020084,-122.1077007
2495,Old Middlefield Way,94043,37.4146145,-122.0999660
948,Bay Street,94040,37.3809971,-122.0751882
1040,Grant Road,94040,37.3792695,-122.0752976
82,Oak Lane,94040,37.3803498,-122.0747384
800,West El Camino Real,94040,37.3865561,-122.0842188
805,East El Camino Real,94040,37.3754899,-122.0618430
571,West El Camino Real,94040,37.3841730,-122.0815510
170,South Whisman Road,94041,37.3877102,-122.0650773
1968,West El Camino Real,94040,37.3946011,-122.0984711
1030,Castro Street,94040,37.3853646,-122.0845387
951,West Dana Street,94041,37.3930996,-122.0815537
2495,Hospital Drive,94040,37.3691587,-122.0811824
954,Villa Street,94041,37.3946569,-122.0806921
196,Castro Street,94041,37.3939800,-122.0790496
254,Tyrella Avenue,94043,37.3966050,-122.0656658
199,East Middlefield Road,94043,37.3968840,-122.0622725
855,Maude Avenue,94043,37.3962356,-122.0491779
857,Maude Avenue,94043,37.3960331,-122.0493467
855,Maude Avenue,94043,37.3961886,-122.0490934
857,Maude Avenue,94043,37.3960301,-122.0491833
140,South Whisman Road,94041,37.3871363,-122.0637472
140,South Whisman Road,94041,37.3871685,-122.0638902
140,South Whisman Road,94041,37.3872001,-122.0640306
140,South Whisman Road,94041,37.3872344,-122.0641830
2490,Hospital Drive,94040,37.3696215,-122.0823172
1711,West El Camino Real,94040,37.3904349,-122.0941239
2590,California Street,94040,37.4060982,-122.1098380
2464,West El Camino Real,94040,37.3991581,-122.1086138
311,Moffett Boulevard,94043,37.3976951,-122.0759166
655,Castro Street,94041,37.3878692,-122.0822993
655,Castro Street,94041,37.3878388,-122.0823137
990,North Rengstorff Avenue,94043,37.4186405,-122.0936978
401,San Antonio Road,94040,37.4040520,-122.1111731
605,Ellis Street,94043,37.4019209,-122.0510593
778,Yuba Drive,94041,37.3816179,-122.0701591
280,North Bernardo Avenue,94043,37.3873017,-122.0527840
2050,California Street,94040,37.3989171,-122.0991444
2580,West El Camino Real,94040,37.4009883,-122.1124032
391,San Antonio Road,94040,37.4048186,-122.1108683
615,Cuesta Drive,94040,37.3722402,-122.0814687
1,Amphitheatre Parkway,94043,37.4268739,-122.0808071
1200,Crittenden Lane,94043,37.4258573,-122.0722708
1500,Crittenden Lane,94043,37.4270822,-122.0720811
1300,Crittenden Lane,94043,37.4259829,-122.0709849
2051,Stierlin Court,94043,37.4239460,-122.0708305
2029,Stierlin Court,94043,37.4232893,-122.0706632
2011,Stierlin Court,94043,37.4224939,-122.0767705
2015,Stierlin Court,94043,37.4225523,-122.0756481
2061,Stierlin Court,94043,37.4239601,-122.0720810
1300,Charleston Road,94043,37.4211330,-122.0758517
1220,Charleston Road,94043,37.4213239,-122.0715105
1500,Salado Drive,94043,37.4241719,-122.0942676
2350,Bayshore Parkway,94043,37.4243198,-122.0949111
2375,Garcia Avenue,94043,37.4248613,-122.0945624
1965,Charleston Road,94043,37.4218314,-122.0902837
1945,Charleston Road,94043,37.4225489,-122.0905038
2000,Charleston Road,94043,37.4228005,-122.0885935
1600,Amphitheatre Parkway,94043,37.4224816,-122.0855690
1250,West Middlefield Road,94043,37.4079462,-122.0802511
1625,San Luis Avenue,94043,37.4052776,-122.0842100
1600,Plymouth Street,94043,37.4174109,-122.0841340
1875,Charleston Road,94043,37.4208782,-122.0885289
1505,Salado Drive,94043,37.4231437,-122.0924431
3535,Truman Avenue,94040,37.3590488,-122.0664155
715,West El Camino Real,94040,37.3752344,-122.0633237
401,Ellis Street,94043,37.3981285,-122.0522672
2555,Charleston Road,94043,37.4209446,-122.0998302
1550,Plymouth Street,94043,37.4173119,-122.0821292
1500,Plymouth Street,94043,37.4172576,-122.0812758
1350,Charleston Road,94043,37.4211241,-122.0772467
1250,Charleston Road,94043,37.4211452,-122.0743877
1400,Crittenden Lane,94043,37.4269623,-122.0711324
420,Thompson Avenue,94043,37.4088985,-122.0990247
1300,Terra Bella Avenue,94043,37.4104833,-122.0808422
2400,Grant Road,94040,37.3705519,-122.0792371
2050,Miramonte Avenue,94041,37.3661484,-122.0881157
600,Showers Drive,94040,37.4008484,-122.1096709
2540,West El Camino Real,94040,37.4003682,-122.1110343
2440,East Charleston Road,94043,37.4229589,-122.0961171
2470,Hospital Drive,94040,37.3706188,-122.0829753
555,West Middlefield Road,94043,37.3992873,-122.0718974
590,Showers Drive,94040,37.4021076,-122.1107065
550,Showers Drive,94040,37.4025368,-122.1096342
350,Showers Drive,94040,37.4031953,-122.1079914
2535,California Street,94040,37.4037166,-122.1085022
2675,Coast Avenue,94043,37.4312166,-122.0979691
900,Miramonte Avenue,94040,37.3872021,-122.0887216
53,West El Camino Real,94040,37.3804081,-122.0740362
701,East El Camino Real,94040,37.3761640,-122.0655721
1401,North Shoreline Boulevard,94043,37.4143116,-122.0773109
1060,North Rengstorff Avenue,94043,37.4193375,-122.0936088
1159,North Rengstorff Avenue,94043,37.4209661,-122.0933306
910,North El Monte Avenue,94040,37.3921500,-122.0967924
952,North El Monte Avenue,94040,37.3914083,-122.0964299
804,East El Camino Real,94041,37.3768357,-122.0630434
351,East Evelyn Avenue,94041,37.3870996,-122.0616622
381,East Evelyn Avenue,94041,37.3868284,-122.0608477
331,East Evelyn Avenue,94041,37.3873686,-122.0602627
301,East Evelyn Avenue,94041,37.3877904,-122.0616193
555,Showers Drive,94040-1432,37.4007893,-122.1060974
191,East El Camino Real,94040,37.3769965,-122.0708790
2500,Old Middlefield Way,94043,37.4155024,-122.1002141
2444,Old Middlefield Way,94043,37.4153940,-122.0980960
1344,Terra Bella Avenue,94043,37.4105874,-122.0831958
1330,Terra Bella Avenue,94043,37.4108578,-122.0823375
1350,West Middlefield Road,94043,37.4090442,-122.0827568
1274,Terra Bella Avenue,94043,37.4101184,-122.0794026
850;900,North Shoreline Boulevard,94043,37.4075261,-122.0787180
1215,Terra Bella Avenue,94043,37.4082935,-122.0789837
570,North Shoreline Boulevard,94043,37.4030922,-122.0793193
510,North Shoreline Boulevard,94043,37.4021487,-122.0788836
220,North Whisman Road,94043,37.3943002,-122.0615313
140,South Whisman Road,94041,37.3871773,-122.0639660
240,South Whisman Road,94041,37.3869164,-122.0649772
110,Pioneer Way,94041,37.3887741,-122.0675471
2644,Bayshore Parkway,94043,37.4284179,-122.0993907
2637,Marine Way,94043,37.4286267,-122.0985443
2750,Coast Avenue,94043,37.4298409,-122.0962868
2700,Coast Avenue,94043,37.4306233,-122.0960953
2650,Casey Avenue,94043,37.4315963,-122.0960911
2600,Casey Avenue,94043,37.4322400,-122.0960410
2700,Broderick Way,94043,37.4327034,-122.0972508
2593,Coast Avenue,94043,37.4301690,-122.0975787
2475,Garcia Avenue,94043,37.4263375,-122.0960735
2525,Garcia Avenue,94043,37.4267701,-122.0958058
2535,Garcia Avenue,94043,37.4270132,-122.0965467
2550,Garcia Avenue,94043,37.4286034,-122.0966501
2500,Garcia Avenue,94043,37.4284441,-122.0961284
525,Hans Avenue,94040,37.3781858,-122.0818278
2500,Grant Road,94040,37.3688517,-122.0798626
2690,North Shoreline Boulevard,94043,37.4303981,-122.0860710
546,Vernon Avenue,94043,37.4099987,-122.0658512
700,Moffett Boulevard,94043,37.4049970,-122.0685428
1325,Bryant Avenue,94040,37.3603851,-122.0637483
1299,Bryant Avenue,94040,37.3607066,-122.0645978
830,Leong Drive,94043,37.4052434,-122.0670207
615,Rengstorff Street,94040-2105,37.3964663,-122.1008639
2098,El Camino Real,94040,37.3960273,-122.1015201
455,East Middlefield Road,94043,37.3957484,-122.0554796
460,East Middlefield Road,94043,37.3967988,-122.0561604
350-380,Ellis Street,94043,37.3976109,-122.0538864
555,Ellis Street,94043,37.4014388,-122.0509682
450,National Avenue,94043,37.4017181,-122.0530181
615,National Avenue,94043,37.4018174,-122.0538727
455,National Avenue,94043,37.4008968,-122.0530568
605,Ellis Street,94043,37.4019122,-122.0510465
500,Ellis Street,94043,37.4014232,-122.0521763
313,Fairchild Drive,94043,37.4044239,-122.0560730
323,Fairchild Drive,94043,37.4040089,-122.0551335
645,National Avenue,94043,37.4030299,-122.0533740
515,Ellis Street,94043,37.4009380,-122.0512074
465,Fairchild Drive,94043,37.4027207,-122.0522888
625-627,National Avenue,94043,37.4025592,-122.0535662
425,National Avenue,94043,37.4009073,-122.0539247
501,Ellis Street,94043,37.4003606,-122.0514986
480-488,Ellis Street,94043,37.4007002,-122.0524365
465,Fairchild Drive,94043,37.4030361,-122.0527362
295,East Middlefield Road,94043,37.3970583,-122.0599730
209,East Middlefield Road,94043,37.3971613,-122.0605885
276,North Whisman Road,94043,37.3966785,-122.0601980
199,East Middlefield Road,94043,37.3970688,-122.0621025
620,Clyde Avenue,94043,37.4000629,-122.0481226
441,Logue Avenue,94043,37.3981084,-122.0491571
411,Clyde Avenue,94043,37.3958707,-122.0469244
590,East Middlefield Road,94043,37.3951555,-122.0514356
600,Clyde Avenue,94043,37.4000000,-122.0471256
1225,Charleston Road,94043,37.4200970,-122.0727911
1230,Charleston Road,94043,37.4210260,-122.0722812
1210,Charleston Road,94043,37.4211957,-122.0706567
1365,Shorebird Way,94043,37.4182614,-122.0733385
1200,Charleston Road,94043,37.4205505,-122.0702815
2465,Latham Street,94040,37.3999038,-122.1084144
1854,West El Camino Real,94040,37.3927129,-122.0950913
1955,West El Camino Real,94040,37.3939115,-122.0987778
2585,California Street,94040,37.4052748,-122.1102115
2522,Leghorn Street,94043,37.4195867,-122.0989890
2485,East Charleston Road,94043,37.4210109,-122.0979414
2415,Charleston Road,94043,37.4210859,-122.0974948
1177,Independence Avenue,94043,37.4204503,-122.0965287
1077,Independence Avenue,94043,37.4194692,-122.0966214
1077b;1077c,Independence Avenue,94043,37.4200692,-122.0965654
334,San Antonio Road,94040,37.4057771,-122.1115316
334,San Antonio Road,94040,37.4056340,-122.1113491
2672,Bayshore Parkway,94043,37.4294684,-122.0999422
2680,Bayshore Parkway,94043,37.4298349,-122.0998978
2462,Wyandotte Street,94043,37.4172799,-122.0981707
2609,East Charleston Road,94043,37.4214472,-122.1005136
897,Independence Avenue,94043,37.4175368,-122.0957960
897,Independence Avenue,94043,37.4175855,-122.0968437
897,Independence Avenue,94043,37.4175870,-122.0962465
2423,Old Middlefield Way,94043,37.4141955,-122.0980669
1900,Charleston Road,94043,37.4228006,-122.0875332
1950,Charleston Road,94043,37.4219588,-122.0875768
1395,Charleston Road,94043,37.4198385,-122.0769089
1380,Shorebird Way,94043,37.4189672,-122.0763771
1350,Shorebird Way,94043,37.4193578,-122.0750774
1245,Charleston Road,94043,37.4201175,-122.0742861
1295,Charleston Road,94043,37.4200346,-122.0750635
1310,Shorebird Way,94043,37.4193463,-122.0742928
1375,Shorebird Way,94043,37.4179740,-122.0756459
1300,Space Park Way,94043,37.4173929,-122.0758201
1220,Pear Avenue,94043,37.4160464,-122.0738750
2025,Stierlin Court,94043,37.4227710,-122.0725949
2027,Stierlin Court,94043,37.4229811,-122.0720547
2460,West El Camino Real,94040,37.3991102,-122.1083430
2510,West El Camino Real,94040,37.3998738,-122.1103643
890,Showers Drive,94040,37.4000434,-122.1099974
2519,Alvin Street,94043,37.4127137,-122.1012635
2507,Alvin Street,94043,37.4122792,-122.1011677
522,Victory Avenue,94043,37.4125842,-122.1001784
2522,Alvin Street,94043,37.4128899,-122.1007996
2515,Nedson Court,94043,37.4128669,-122.1003003
2519,Nedson Court,94043,37.4132267,-122.1004746
530,Victory Avenue,94043,37.4127314,-122.0998563
508,Victory Avenue,94043,37.4124587,-122.1003348
2534,Alvin Street,94043,37.4133272,-122.1008643
2521,Nedson Court,94043,37.4133328,-122.1004217
2535,Claire Court,94043,37.4136923,-122.1003315
2513,Nedson Court,94043,37.4129448,-122.1000227
534,Victory Avenue,94043,37.4128499,-122.0997086
2565,Alvin Street,94043,37.4142763,-122.1008076
2542,Alvin Street,94043,37.4136206,-122.1009392
2517,Nedson Court,94043,37.4130043,-122.1004143
2523,Nedson Court,94043,37.4134041,-122.1002155
2515,Alvin Street,94043,37.4125471,-122.1012261
2531,Alvin Street,94043,37.4131484,-122.1013470
2527,Alvin Street,94043,37.4130092,-122.1013161
2530,Alvin Street,94043,37.4132067,-122.1008342
2511,Alvin Street,94043,37.4124128,-122.1011954
2526,Alvin Street,94043,37.4130713,-122.1008058
2538,Alvin Street,94043,37.4134787,-122.1008898
2503,Alvin Street,94043,37.4121445,-122.1011432
2551,Alvin Street,94043,37.4138739,-122.1014989
2523,Alvin Street,94043,37.4128726,-122.1012930
2514,Alvin Street,94043,37.4126154,-122.1007144
2546,Alvin Street,94043,37.4138038,-122.1009527
2510,Alvin Street,94043,37.4124760,-122.1006891
2550,Alvin Street,94043,37.4139269,-122.1009839
2535,Alvin Street,94043,37.4132805,-122.1013775
2539,Alvin Street,94043,37.4134141,-122.1014064
2529,Nedson Court,94043,37.4135527,-122.0999474
2545,Claire Court,94043,37.4141697,-122.1004531
2511,Nedson Court,94043,37.4130670,-122.0998967
2518,Alvin Street,94043,37.4127455,-122.1007412
2533,Claire Court,94043,37.4137749,-122.1000995
526,Victory Avenue,94043,37.4126598,-122.1000450
2561,Alvin Street,94043,37.4142075,-122.1009572
2505,West Middlefield Road,94043,37.4130933,-122.0996066
2569,Alvin Street,94043,37.4143553,-122.1006667
2537,Claire Court,94043,37.4137184,-122.1005686
2543,Alvin Street,94043,37.4135826,-122.1014065
2509,Nedson Court,94043,37.4132576,-122.0996970
2554,Alvin Street,94043,37.4141277,-122.1010599
2506,Alvin Street,94043,37.4123457,-122.1006105
2525,Nedson Court,94043,37.4134698,-122.1000940
2539,Claire Court,94043,37.4138691,-122.1006753
2547,Alvin Street,94043,37.4137433,-122.1014747
2541,Claire Court,94043,37.4140486,-122.1005933
2557,Mardell Way,94043,37.4122909,-122.1020008
2565,Mardell Way,94043,37.4119609,-122.1014375
2559,Mardell Way,94043,37.4122263,-122.1018548
2561,Mardell Way,94043,37.4121385,-122.1017142
2553,Mardell Way,94043,37.4124804,-122.1022536
2523,Mardell Way,94043,37.4120347,-122.1038013
2554,Mardell Way,94043,37.4120687,-122.1024318
2552,Mardell Way,94043,37.4121427,-122.1025786
2525,Mardell Way,94043,37.4121232,-122.1039703
2503,Mardell Way,94043,37.4111762,-122.1024316
2562,Mardell Way,94043,37.4117114,-122.1019032
2539,Mardell Way,94043,37.4130684,-122.1033657
2527,Mardell Way,94043,37.4123252,-122.1040902
2510,Mardell Way,94043,37.4118459,-122.1026459
2544,Mardell Way,94043,37.4124775,-122.1031071
2515,Mardell Way,94043,37.4116848,-122.1032380
2542,Mardell Way,94043,37.4125578,-122.1032569
2541,Mardell Way,94043,37.4130121,-122.1030593
2547,Mardell Way,94043,37.4127220,-122.1026754
2549,Mardell Way,94043,37.4126352,-122.1025259
2533,Mardell Way,94043,37.4127146,-122.1037179
2558,Mardell Way,94043,37.4118928,-122.1021851
2509,Mardell Way,94043,37.4114356,-122.1028458
2546,Mardell Way,94043,37.4123911,-122.1029788
2501,Mardell Way,94043,37.4110910,-122.1022964
2550,Mardell Way,94043,37.4122239,-122.1027055
2522,Mardell Way,94043,37.4123568,-122.1034487
2555,Mardell Way,94043,37.4123857,-122.1021120
2516,Mardell Way,94043,37.4121120,-122.1030583
2556,Mardell Way,94043,37.4119758,-122.1023153
2537,Mardell Way,94043,37.4130138,-122.1034978
2504,Mardell Way,94043,37.4116048,-122.1022440
2563,Mardell Way,94043,37.4120471,-122.1015706
2508,Mardell Way,94043,37.4117642,-122.1025047
2507,Mardell Way,94043,37.4113549,-122.1027183
2505,Mardell Way,94043,37.4112594,-122.1025715
2564,Mardell Way,94043,37.4116315,-122.1017884
2506,Mardell Way,94043,37.4116868,-122.1023848
2517,Mardell Way,94043,37.4117710,-122.1033788
2529,Mardell Way,94043,37.4124843,-122.1039741
2535,Mardell Way,94043,37.4128418,-122.1035890
2521,Mardell Way,94043,37.4119372,-122.1036507
2512,Mardell Way,94043,37.4119338,-122.1027752
2548,Mardell Way,94043,37.4123058,-122.1028463
2513,Mardell Way,94043,37.4116075,-122.1031241
2519,Mardell Way,94043,37.4118532,-122.1035148
2518,Mardell Way,94043,37.4121885,-122.1031782
2520,Mardell Way,94043,37.4122792,-122.1033259
2500,Mardell Way,94043,37.4114208,-122.1019667
2514,Mardell Way,94043,37.4120301,-122.1029258
2531,Mardell Way,94043,37.4125961,-122.1038320
2543,Mardell Way,94043,37.4128972,-122.1029175
2502,Mardell Way,94043,37.4115228,-122.1021074
2545,Mardell Way,94043,37.4128093,-122.1027830
2551,Mardell Way,94043,37.4125558,-122.1023760
2560,Mardell Way,94043,37.4118003,-122.1020314
2511,Mardell Way,94043,37.4115120,-122.1029759
2516,Dell Avenue,94043,37.4110631,-122.1027823
2540,Dell Avenue,94043,37.4113837,-122.1033319
2570,Dell Avenue,94043,37.4118137,-122.1040076
2534,Dell Avenue,94043,37.4113082,-122.1031987
2528,Dell Avenue,94043,37.4112158,-122.1030396
2508,Dell Avenue,94043,37.4109750,-122.1026524
432,Victory Avenue,94043,37.4108793,-122.1025068
2588,Dell Avenue,94043,37.4120973,-122.1044161
2558,Dell Avenue,94043,37.4116483,-122.1037180
2552,Dell Avenue,94043,37.4115643,-122.1035914
2546,Dell Avenue,94043,37.4114856,-122.1034739
2576,Dell Avenue,94043,37.4119053,-122.1041193
2522,Dell Avenue,94043,37.4111362,-122.1029061
2564,Dell Avenue,94043,37.4117369,-122.1038484
2582,Dell Avenue,94043,37.4120039,-122.1042791
341,Aldean Avenue,94043,37.4109980,-122.1045538
324,Aldean Avenue,94043,37.4106885,-122.1054084
339,Nita Avenue,94043,37.4106351,-122.1037480
326,Aldean Avenue,94043,37.4108997,-122.1054457
348,Nita Avenue,94043,37.4110165,-122.1040281
306,Nita Avenue,94043,37.4102547,-122.1048013
336,Nita Avenue,94043,37.4108174,-122.1042391
345,Nita Avenue,94043,37.4107466,-122.1036466
327,Aldean Avenue,94043,37.4105802,-122.1049077
331,Aldean Avenue,94043,37.4107620,-122.1047899
2555,Dell Avenue,94043,37.4112471,-122.1039699
353,Aldean Avenue,94043,37.4112046,-122.1043600
2525,Dell Avenue,94043,37.4108756,-122.1033886
350,Aldean Avenue,94043,37.4114927,-122.1047564
323,Aldean Avenue,94043,37.4105356,-122.1051758
338,Aldean Avenue,94043,37.4112762,-122.1049805
330,Nita Avenue,94043,37.4106974,-122.1043679
2561,Dell Avenue,94043,37.4113347,-122.1041102
344,Aldean Avenue,94043,37.4113835,-122.1048729
332,Aldean Avenue,94043,37.4111446,-122.1051034
324,Nita Avenue,94043,37.4105911,-122.1044729
2531,Dell Avenue,94043,37.4109414,-122.1035104
347,Aldean Avenue,94043,37.4111172,-122.1044546
335,Aldean Avenue,94043,37.4109093,-122.1046753
2549,Dell Avenue,94043,37.4111582,-122.1038484
2579,Dell Avenue,94043,37.4116178,-122.1045685
342,Nita Avenue,94043,37.4109220,-122.1041427
2538,Betlo Avenue,94043,37.4104050,-122.1040575
328,Aldean Avenue,94043,37.4110546,-122.1052284
2585,Dell Avenue,94043,37.4117118,-122.1047081
318,Nita Avenue,94043,37.4103865,-122.1046738
324,Nita Avenue,94043,37.4104860,-122.1045806
2519,Dell Avenue,94043,37.4107688,-122.1032395
2567,Dell Avenue,94043,37.4114032,-122.1042367
333,Nita Avenue,94043,37.4105373,-122.1038741
2489,West Middlefield Road,94043,37.4125109,-122.0990862
2479,Richard Court,94043,37.4120257,-122.0994817
510,Emmons Drive,94043,37.4107568,-122.0970748
2458,Alvin Street,94043,37.4114975,-122.0993531
2478,Alvin Street,94043,37.4119958,-122.1001019
2481,Richard Court,94043,37.4121808,-122.0993856
525,Victory Avenue,94043,37.4122531,-122.0997945
2465,Richard Court,94043,37.4118243,-122.0984194
2423,Thaddeus Drive,94043,37.4109573,-122.0972346
2473,Richard Court,94043,37.4119319,-122.0988725
2459,Thaddeus Drive,94043,37.4115803,-122.0988196
2485,West Middlefield Road,94043,37.4123717,-122.0989512
2457,Thaddeus Drive,94043,37.4114206,-122.0986669
2475,Richard Court,94043,37.4117963,-122.0990393
2430,Alvin Street,94043,37.4108703,-122.0982147
2442,Alvin Street,94043,37.4111688,-122.0987793
514,Emmons Drive,94043,37.4108891,-122.0969467
2470,Alvin Street,94043,37.4117887,-122.0998119
2466,Alvin Street,94043,37.4117148,-122.0996394
533,Victory Avenue,94043,37.4124046,-122.0995137
2412,Alvin Street,94043,37.4106308,-122.0975002
2446,Alvin Street,94043,37.4112539,-122.0989146
541,Victory Avenue,94043,37.4126384,-122.0992006
537,Victory Avenue,94043,37.4124860,-122.0993729
2422,Alvin Street,94043,37.4107755,-122.0978703
2450,Alvin Street,94043,37.4113395,-122.0990492
2461,Thaddeus Drive,94043,37.4117213,-122.0986784
506,Emmons Drive,94043,37.4106580,-122.0971670
2434,Alvin Street,94043,37.4109952,-122.0984399
2474,Alvin Street,94043,37.4119216,-122.0999608
2483,Richard Court,94043,37.4122800,-122.0991755
2426,Alvin Street,94043,37.4108216,-122.0980330
2454,Alvin Street,94043,37.4114258,-122.0991815
521,Victory Avenue,94043,37.4121732,-122.0999252
2408,Alvin Street,94043,37.4105312,-122.0972778
2440,Alvin Street,94043,37.4110845,-122.0986295
503,Victory Avenue,94043,37.4120936,-122.1002377
2462,Alvin Street,94043,37.4116303,-122.0995079
2477,Richard Court,94043,37.4118127,-122.0993170
2471,Richard Court,94043,37.4121010,-122.0987127
529,Victory Avenue,94043,37.4123246,-122.0996555
2418,Alvin Street,94043,37.4106478,-122.0977051
2469,Richard Court,94043,37.4119604,-122.0985769
2509,Devri Court,94043,37.4103671,-122.1035630
2511,Devri Court,94043,37.4104617,-122.1034269
2513,Devri Court,94043,37.4105691,-122.1032999
2515,Devri Court,94043,37.4106934,-122.1031034
580,North Rengstorff Avenue,94043,37.4105603,-122.0934869
2444,Elka Avenue,94043,37.4101779,-122.1000107
2448,Elka Avenue,94043,37.4102472,-122.1001244
2452,Elka Avenue,94043,37.4103493,-122.1002812
2455,Elka Avenue,94043,37.4100332,-122.1006326
2456,Elka Avenue,94043,37.4104380,-122.1004260
2459,Elka Avenue,94043,37.4101169,-122.1007674
2460,Elka Avenue,94043,37.4105301,-122.1005597
2463,Elka Avenue,94043,37.4102247,-122.1009162
2467,Elka Avenue,94043,37.4102914,-122.1010378
2468,Elka Avenue,94043,37.4107001,-122.1008252
2472,Elka Avenue,94043,37.4107733,-122.1009445
2481,Dell Avenue,94043,37.4102394,-122.1023927
2482,Dell Avenue,94043,37.4105709,-122.1020482
2487,Dell Avenue,94043,37.4103203,-122.1025006
2488,Dell Avenue,94043,37.4106631,-122.1021492
2493,Dell Avenue,94043,37.4104154,-122.1026468
2501,Devri Court,94043,37.4104941,-122.1027788
423,Dell Avenue,94043,37.4102233,-122.1014308
424,Dell Avenue,94043,37.4105230,-122.1018543
429,Dell Avenue,94043,37.4103425,-122.1013154
430,Dell Avenue,94043,37.4106317,-122.1017408
435,Dell Avenue,94043,37.4104475,-122.1012153
436,Dell Avenue,94043,37.4107455,-122.1016371
442,Dell Avenue,94043,37.4108644,-122.1015062
448,Dell Avenue,94043,37.4109725,-122.1014110
454,Dell Avenue,94043,37.4110668,-122.1013084
460,Dell Avenue,94043,37.4111940,-122.1011893
461,Dell Avenue,94043,37.4109073,-122.1007470
464,Dell Avenue,94043,37.4112930,-122.1010888
465,Dell Avenue,94043,37.4110068,-122.1006481
468,Dell Avenue,94043,37.4114017,-122.1009816
469,Dell Avenue,94043,37.4111200,-122.1005402
472,Dell Avenue,94043,37.4115111,-122.1008722
473,Dell Avenue,94043,37.4112287,-122.1004291
476,Dell Avenue,94043,37.4116218,-122.1007655
477,Dell Avenue,94043,37.4113363,-122.1003199
483,Dell Avenue,94043,37.4115474,-122.1002046
2231,West Middlefield Road,94043,37.4114523,-122.0959006
2255,West Middlefield Road,94043,37.4114556,-122.0963401
2261,West Middlefield Road,94043,37.4114444,-122.0965420
2271,West Middlefield Road,94043,37.4115520,-122.0967672
2235,West Middlefield Road,94043,37.4114139,-122.0960722
2400,Alvin Street,94043,37.4101760,-122.0965485
2403,Alvin Street,94043,37.4099396,-122.0969729
2406,Alvin Street,94043,37.4102949,-122.0968394
2409,Alvin Street,94043,37.4101782,-122.0975925
2413,Alvin Street,94043,37.4102457,-122.0977597
2417,Alvin Street,94043,37.4103109,-122.0979298
2421,Alvin Street,94043,37.4103715,-122.0980860
2425,Alvin Street,94043,37.4104652,-122.0982487
2425,West Middlefield Road,94043,37.4114395,-122.0957098
2427,Alvin Street,94043,37.4105165,-122.0984570
2431,Alvin Street,94043,37.4105777,-122.0986088
2435,Alvin Street,94043,37.4106341,-122.0987465
2439,Alvin Street,94043,37.4107485,-122.0989331
2443,Alvin Street,94043,37.4108429,-122.0991262
2447,Alvin Street,94043,37.4109295,-122.0992481
2451,Alvin Street,94043,37.4110162,-122.0993992
2463,Alvin Street,94043,37.4113401,-122.0998560
2467,Alvin Street,94043,37.4114341,-122.1000527
2481,Alvin Street,94043,37.4117838,-122.1006064
490,Thompson Avenue,94043,37.4098757,-122.0967994
508,Thompson Avenue,94043,37.4103037,-122.0964298
512,Thompson Avenue,94043,37.4104106,-122.0963178
516,Thompson Avenue,94043,37.4105174,-122.0962184
520,Thompson Avenue,94043,37.4106441,-122.0960993
524,Thompson Avenue,94043,37.4107376,-122.0960086
528,Thompson Avenue,94043,37.4108419,-122.0959110
532,Thompson Avenue,94043,37.4109485,-122.0958009
538,Thompson Avenue,94043,37.4112265,-122.0959811
544,Thompson Avenue,94043,37.4111286,-122.0955990
550,Thompson Avenue,94043,37.4112789,-122.0954727
560,Thompson Avenue,94043,37.4114530,-122.0954293
435,Victory Avenue,94043,37.4108179,-122.1019496
441,Victory Avenue,94043,37.4109304,-122.1018366
447,Victory Avenue,94043,37.4110469,-122.1017130
453,Victory Avenue,94043,37.4111635,-122.1015962
459,Victory Avenue,94043,37.4112784,-122.1014838
465,Victory Avenue,94043,37.4113968,-122.1013670
471,Victory Avenue,94043,37.4114835,-122.1012794
477,Victory Avenue,94043,37.4116371,-122.1011273
483,Victory Avenue,94043,37.4117195,-122.1010360
487,Victory Avenue,94043,37.4119036,-122.1008291
2402,Thaddeus Drive,94043,37.4109332,-122.0962680
2406,Thaddeus Drive,94043,37.4110852,-122.0963613
2410,Thaddeus Drive,94043,37.4111832,-122.0965268
2414,Thaddeus Drive,94043,37.4112361,-122.0966832
2418,Thaddeus Drive,94043,37.4112983,-122.0968417
2422,Thaddeus Drive,94043,37.4113564,-122.0970114
2426,Thaddeus Drive,94043,37.4113864,-122.0971703
2427,Thaddeus Drive,94043,37.4110078,-122.0973625
2430,Thaddeus Drive,94043,37.4114299,-122.0973717
2431,Thaddeus Drive,94043,37.4110283,-122.0975681
2434,Thaddeus Drive,94043,37.4114587,-122.0975432
2435,Thaddeus Drive,94043,37.4110570,-122.0977143
2438,Thaddeus Drive,94043,37.4114780,-122.0977110
2439,Thaddeus Drive,94043,37.4110787,-122.0979114
2442,Thaddeus Drive,94043,37.4114966,-122.0978828
2443,Thaddeus Drive,94043,37.4111376,-122.0980642
2446,Thaddeus Drive,94043,37.4115920,-122.0980403
2447,Thaddeus Drive,94043,37.4111831,-122.0982229
2451,Thaddeus Drive,94043,37.4112751,-122.0983940
2455,Thaddeus Drive,94043,37.4113714,-122.0985031
507,Emmons Drive,94043,37.4103952,-122.0967421
511,Emmons Drive,94043,37.4105122,-122.0966356
515,Emmons Drive,94043,37.4106210,-122.0965219
519,Emmons Drive,94043,37.4107214,-122.0964130
257,Castro Street,94041,37.3929881,-122.0790863
585,Franklin Street,94041,37.3903045,-122.0834382
2446,Benjamin Drive,94043,37.4105861,-122.0992842
485,Quincy Drive,94043,37.4111115,-122.0995441
2434,Benjamin Drive,94043,37.4103635,-122.0988061
2454,Benjamin Drive,94043,37.4107567,-122.0995703
2442,Benjamin Drive,94043,37.4105069,-122.0991433
479,Quincy Drive,94043,37.4108777,-122.0997296
2438,Benjamin Drive,94043,37.4104300,-122.0989736
2450,Benjamin Drive,94043,37.4106824,-122.0994176
2405,Benjamin Drive,94043,37.4094802,-122.0976620
2409,Benjamin Drive,94043,37.4095284,-122.0978552
2410,Benjamin Drive,94043,37.4099527,-122.0977704
2411,Benjamin Drive,94043,37.4095917,-122.0980232
2414,Benjamin Drive,94043,37.4100131,-122.0979291
2415,Benjamin Drive,94043,37.4096778,-122.0982183
2418,Benjamin Drive,94043,37.4100683,-122.0981076
2419,Benjamin Drive,94043,37.4097293,-122.0983959
2422,Benjamin Drive,94043,37.4101623,-122.0982958
2423,Benjamin Drive,94043,37.4098264,-122.0985525
2426,Benjamin Drive,94043,37.4102231,-122.0984560
2427,Benjamin Drive,94043,37.4098771,-122.0987672
2430,Benjamin Drive,94043,37.4102834,-122.0986030
2431,Benjamin Drive,94043,37.4099407,-122.0989108
2437,Benjamin Drive,94043,37.4100196,-122.0990764
2441,Benjamin Drive,94043,37.4100923,-122.0993145
2443,Benjamin Drive,94043,37.4101958,-122.0994722
2447,Benjamin Drive,94043,37.4102905,-122.0996646
2451,Benjamin Drive,94043,37.4103753,-122.0998138
2455,Benjamin Drive,94043,37.4104945,-122.0999144
2459,Benjamin Drive,94043,37.4105796,-122.1000929
2461,Benjamin Drive,94043,37.4106838,-122.1002670
2465,Benjamin Drive,94043,37.4108388,-122.1003762
489,Emmons Drive,94043,37.4100121,-122.0971579
474,Quincy Drive,94043,37.4109609,-122.1002682
477,Emmons Drive,94043,37.4096280,-122.0974986
478,Quincy Drive,94043,37.4110827,-122.1001522
479,Emmons Drive,94043,37.4097307,-122.0973834
480,Quincy Drive,94043,37.4111733,-122.1000587
485,Emmons Drive,94043,37.4098289,-122.0972924
2482,Betlo Avenue,94043,37.4096363,-122.1028446
2458,Betlo Avenue,94043,37.4092938,-122.1023140
2488,Betlo Avenue,94043,37.4097054,-122.1029653
2514,Betlo Avenue,94043,37.4100641,-122.1035279
2532,Betlo Avenue,94043,37.4103020,-122.1039085
2476,Betlo Avenue,94043,37.4095536,-122.1027106
2520,Betlo Avenue,94043,37.4101514,-122.1036563
2494,Betlo Avenue,94043,37.4098108,-122.1031179
2508,Betlo Avenue,94043,37.4099757,-122.1033680
2452,Betlo Avenue,94043,37.4092034,-122.1021625
2464,Betlo Avenue,94043,37.4093785,-122.1024383
2526,Betlo Avenue,94043,37.4102254,-122.1037754
2470,Betlo Avenue,94043,37.4094692,-122.1025721
2502,Betlo Avenue,94043,37.4098840,-122.1032369
1500,North Shoreline Boulevard,94043,37.4146530,-122.0808655
372,Anna Avenue,94043,37.4096221,-122.1007493
2488,Whitney Drive,94043,37.4088495,-122.1030595
2486,Whitney Drive,94043,37.4087585,-122.1028864
2492,Whitney Drive,94043,37.4090691,-122.1034039
2494,Whitney Drive,94043,37.4091632,-122.1035763
369,Ruth Avenue,94043,37.4097951,-122.1009756
2490,Whitney Drive,94043,37.4089598,-122.1032331
399,Anna Avenue,94043,37.4099057,-122.0997496
384,Anna Avenue,94043,37.4098205,-122.1005282
2427,Marcelyn Avenue,94043,37.4100093,-122.1018222
2529,Betlo Avenue,94043,37.4099152,-122.1041032
2445,Marjorie Court,94043,37.4098344,-122.1021922
348,Anna Avenue,94043,37.4091825,-122.1011632
327,Anna Avenue,94043,37.4086053,-122.1010749
2467,Betlo Avenue,94043,37.4090395,-122.1027542
381,Anna Avenue,94043,37.4095618,-122.1001415
2497,Betlo Avenue,94043,37.4094796,-122.1034299
2503,Devri Court,94043,37.4103118,-122.1028929
351,Ruth Avenue,94043,37.4094459,-122.1013476
387,Anna Avenue,94043,37.4096706,-122.1000373
318,Anna Avenue,94043,37.4086268,-122.1017049
339,Anna Avenue,94043,37.4088010,-122.1008829
336,Anna Avenue,94043,37.4089711,-122.1013778
315,Ruth Avenue,94043,37.4087733,-122.1019538
346,Ruth Avenue,94043,37.4096201,-122.1018298
2458,Whitney Drive,94043,37.4079434,-122.1015797
2449,Betlo Avenue,94043,37.4087754,-122.1023756
309,Anna Avenue,94043,37.4082781,-122.1013927
2485,Betlo Avenue,94043,37.4093161,-122.1031847
2462,Whitney Drive,94043,37.4080149,-122.1017206
363,Ruth Avenue,94043,37.4096634,-122.1010841
366,Anna Avenue,94043,37.4095016,-122.1008460
2464,Elka Avenue,94043,37.4105921,-122.1006804
2480,Whitney Drive,94043,37.4085323,-122.1025257
3357,Anna Avenue,94043,37.4091262,-122.1005631
3363,Anna Avenue,94043,37.4092480,-122.1004595
2468,Whitney Drive,94043,37.4082304,-122.1020520
2517,Betlo Avenue,94043,37.4097407,-122.1038577
2472,Whitney Drive,94043,37.4083622,-122.1021977
2475,Marjorie Court,94043,37.4101108,-122.1025652
2440,Elka Avenue,94043,37.4101192,-122.0998397
306,Anna Avenue,94043,37.4084307,-122.1019007
2414,Marcelyn Avenue,94043,37.4100153,-122.1010830
2505,Devri Court,94043,37.4101653,-122.1030104
339,Ruth Avenue,94043,37.4092462,-122.1015314
2469,Marjorie Court,94043,37.4099876,-122.1027134
312,Anna Avenue,94043,37.4085374,-122.1018009
327,Ruth Avenue,94043,37.4090077,-122.1017562
2420,Marcelyn Avenue,94043,37.4100796,-122.1012285
2507,Devri Court,94043,37.4100720,-122.1031398
333,Anna Avenue,94043,37.4087060,-122.1009664
378,Anna Avenue,94043,37.4097162,-122.1006548
3369,Anna Avenue,94043,37.4093606,-122.1003376
2461,Betlo Avenue,94043,37.4089709,-122.1026550
2455,Betlo Avenue,94043,37.4088789,-122.1025001
345,Ruth Avenue,94043,37.4093496,-122.1014277
2463,Marjorie Court,94043,37.4098715,-122.1028190
342,Anna Avenue,94043,37.4090682,-122.1012906
321,Anna Avenue,94043,37.4084912,-122.1011765
333,Ruth Avenue,94043,37.4091316,-122.1016361
2491,Betlo Avenue,94043,37.4093823,-122.1033034
393,Anna Avenue,94043,37.4097729,-122.0998937
2541,Betlo Avenue,94043,37.4100696,-122.1044001
375,Anna Avenue,94043,37.4094531,-122.1002375
345,Anna Avenue,94043,37.4089214,-122.1007644
2451,Marjorie Court,94043,37.4096975,-122.1022645
357,Ruth Avenue,94043,37.4095650,-122.1012169
352,Ruth Avenue,94043,37.4097139,-122.1017471
2535,Betlo Avenue,94043,37.4099881,-122.1042550
321,Ruth Avenue,94043,37.4089119,-122.1018501
2482,Whitney Drive,94043,37.4086440,-122.1027062
351,Anna Avenue,94043,37.4090408,-122.1006539
2443,Betlo Avenue,94043,37.4086968,-122.1021977
354,Anna Avenue,94043,37.4092862,-122.1010808
324,Anna Avenue,94043,37.4087545,-122.1015921
358,Ruth Avenue,94043,37.4098381,-122.1016231
2457,Marjorie Court,94043,37.4095889,-122.1023509
2433,Marcelyn Avenue,94043,37.4101126,-122.1019596
303,Anna Avenue,94043,37.4081694,-122.1014981
360,Anna Avenue,94043,37.4094063,-122.1009588
315,Anna Avenue,94043,37.4083813,-122.1012842
2479,Betlo Avenue,94043,37.4092089,-122.1030338
2473,Betlo Avenue,94043,37.4091335,-122.1029105
334,Ruth Avenue,94043,37.4093897,-122.1020661
2476,Whitney Drive,94043,37.4084419,-122.1023718
340,Ruth Avenue,94043,37.4094986,-122.1019582
2439,Marjorie Court,94043,37.4099375,-122.1020692
2511,Betlo Avenue,94043,37.4096471,-122.1037238
2505,Betlo Avenue,94043,37.4095516,-122.1035735
2523,Betlo Avenue,94043,37.4098184,-122.1039918
330,Anna Avenue,94043,37.4088600,-122.1015094
390,Anna Avenue,94043,37.4099372,-122.1004408
486,Thompson Avenue,94043,37.4097116,-122.0969726
2402,Laura Lane,94043,37.4077432,-122.0988049
470,Thompson Avenue,94043,37.4092883,-122.0973998
478,Thompson Avenue,94043,37.4094936,-122.0971985
474,Thompson Avenue,94043,37.4093836,-122.0973050
482,Thompson Avenue,94043,37.4096020,-122.0970951
2404,Laura Lane,94043,37.4078095,-122.0989722
180,North Rengstorff Avenue,94043,37.4057180,-122.0966044
160,North Rengstorff Avenue,94043,37.4053805,-122.0966104
800,California Street,94041,37.3916270,-122.0807325
360,Castro Street,94041,37.3919812,-122.0804069
380,Castro Street,94041,37.3917213,-122.0805667
372,Castro Street,94041,37.3918023,-122.0804792
331,Castro Street,94041,37.3919872,-122.0797085
650,Castro Street,94041,37.3880409,-122.0830576
93,West El Camino Real,94040,37.3811729,-122.0760293
918,North Rengstorff Avenue,94043,37.4180150,-122.0937771
555,Castro Street,94041,37.3893632,-122.0813516
565,Castro Street,94041,37.3889099,-122.0815971
2378,Jane Lane,94043,37.4095736,-122.0964910
2300,Jane Lane,94043,37.4087519,-122.0944394
2306,Jane Lane,94043,37.4088088,-122.0945833
2312,Jane Lane,94043,37.4088750,-122.0947359
2318,Jane Lane,94043,37.4089230,-122.0948980
2324,Jane Lane,94043,37.4089991,-122.0950741
2330,Jane Lane,94043,37.4090519,-122.0952214
2336,Jane Lane,94043,37.4091312,-122.0953942
2342,Jane Lane,94043,37.4091835,-122.0955407
2348,Jane Lane,94043,37.4092561,-122.0956974
2354,Jane Lane,94043,37.4093227,-122.0958593
2360,Jane Lane,94043,37.4093834,-122.0960236
2366,Jane Lane,94043,37.4094491,-122.0961743
2372,Jane Lane,94043,37.4095071,-122.0963416
445,Thompson Avenue,94043,37.4085540,-122.0974312
2321,Jane Lane,94043,37.4085612,-122.0949844
2323,Thompson Court,94043,37.4082969,-122.0961131
2329,Thompson Court,94043,37.4081501,-122.0961531
2332,Thompson Court,94043,37.4084555,-122.0960024
2335,Thompson Court,94043,37.4080500,-122.0963249
2337,Jane Lane,94043,37.4087325,-122.0955628
2338,Thompson Court,94043,37.4085962,-122.0960344
2340,Craig Court,94043,37.4084259,-122.0975779
2341,Thompson Court,94043,37.4081161,-122.0965994
2343,Craig Court,94043,37.4081365,-122.0977917
2343,Jane Lane,94043,37.4087927,-122.0957296
2344,Thompson Court,94043,37.4087083,-122.0962433
2349,Jane Lane,94043,37.4088744,-122.0958866
2346,Craig Court,94043,37.4083598,-122.0973097
2347,Thompson Court,94043,37.4082891,-122.0966976
2348,Craig Court,94043,37.4083095,-122.0971137
2350,Craig Court,94043,37.4081202,-122.0970140
2350,Thompson Court,94043,37.4087611,-122.0964076
2352,Craig Court,94043,37.4079715,-122.0969613
2353,Thompson Court,94043,37.4084651,-122.0966421
2355,Jane Lane,94043,37.4089158,-122.0960406
2356,Craig Court,94043,37.4077931,-122.0969532
2356,Thompson Court,94043,37.4088164,-122.0965465
2357,Craig Court,94043,37.4079967,-122.0975036
2359,Thompson Court,94043,37.4084999,-122.0969100
2360,Craig Court,94043,37.4076734,-122.0970795
2361,Jane Lane,94043,37.4089786,-122.0961817
2362,Thompson Court,94043,37.4088742,-122.0967141
2363,Craig Court,94043,37.4078633,-122.0975686
2364,Craig Court,94043,37.4075285,-122.0971165
2365,Craig Court,94043,37.4077266,-122.0977315
2365,Thompson Court,94043,37.4085531,-122.0970859
2367,Jane Lane,94043,37.4090442,-122.0963412
2368,Craig Court,94043,37.4074442,-122.0973525
2368,Thompson Court,94043,37.4089472,-122.0968764
2369,Craig Court,94043,37.4075459,-122.0975913
2371,Thompson Court,94043,37.4086834,-122.0973130
2373,Jane Lane,94043,37.4091096,-122.0965118
2374,Thompson Court,94043,37.4090049,-122.0970362
2379,Jane Lane,94043,37.4091552,-122.0966615
374,Fay Way,94043,37.4086838,-122.0954228
378,North Rengstorff Avenue,94043,37.4084140,-122.0946370
479,Thompson Avenue,94043,37.4092198,-122.0968350
120,Thompson Avenue,94043,37.4050968,-122.1014292
128,Thompson Avenue,94043,37.4051973,-122.1012950
136,Thompson Avenue,94043,37.4053245,-122.1012080
144,Thompson Avenue,94043,37.4054312,-122.1010889
152,Thompson Avenue,94043,37.4055683,-122.1009857
160,Thompson Avenue,94043,37.4056795,-122.1008718
168,Thompson Avenue,94043,37.4057765,-122.1007850
176,Thompson Avenue,94043,37.4058873,-122.1006634
202,Thompson Avenue,94043,37.4061940,-122.1003728
206,Thompson Avenue,94043,37.4063153,-122.1002673
218,Thompson Avenue,94043,37.4064034,-122.1001674
226,Thompson Avenue,94043,37.4065451,-122.1000387
234,Thompson Avenue,94043,37.4066445,-122.0999570
242,Thompson Avenue,94043,37.4067531,-122.0998493
250,Thompson Avenue,94043,37.4068917,-122.0997076
258,Thompson Avenue,94043,37.4069907,-122.0996044
266,Thompson Avenue,94043,37.4071197,-122.0994909
274,Thompson Avenue,94043,37.4072144,-122.0993929
295,Thompson Avenue,94043,37.4072234,-122.0987628
319,Thompson Avenue,94043,37.4076375,-122.0982815
319,Thompson Avenue,94043,37.4075020,-122.0984134
325,Thompson Avenue,94043,37.4077584,-122.0981632
331,Thompson Avenue,94043,37.4078686,-122.0980508
337,Thompson Avenue,94043,37.4079885,-122.0979100
2408,Laura Lane,94043,37.4078621,-122.0991286
2412,Laura Lane,94043,37.4079122,-122.0992835
2416,Laura Lane,94043,37.4079919,-122.0994328
2420,Laura Lane,94043,37.4080431,-122.0995899
2424,Laura Lane,94043,37.4081130,-122.0997393
2428,Laura Lane,94043,37.4081685,-122.0999013
2432,Laura Lane,94043,37.4082221,-122.1000375
2436,Laura Lane,94043,37.4082960,-122.1002164
2440,Laura Lane,94043,37.4083684,-122.1003566
2444,Laura Lane,94043,37.4084839,-122.1006304
286,Laura Lane,94043,37.4078720,-122.1013102
290,Laura Lane,94043,37.4079770,-122.1012515
294,Laura Lane,94043,37.4081275,-122.1011373
296,Laura Lane,94043,37.4082347,-122.1010138
298,Laura Lane,94043,37.4083832,-122.1008572
2361,Laura Lane,94043,37.4067757,-122.0976137
2365,Laura Lane,94043,37.4068421,-122.0977952
2367,Laura Lane,94043,37.4069163,-122.0979619
2369,Laura Lane,94043,37.4069710,-122.0981131
2375,Laura Lane,94043,37.4070389,-122.0982696
2381,Laura Lane,94043,37.4070897,-122.0984209
2387,Laura Lane,94043,37.4071625,-122.0985848
2403,Laura Lane,94043,37.4073762,-122.0991488
2405,Laura Lane,94043,37.4074420,-122.0992980
2409,Laura Lane,94043,37.4075353,-122.0994563
2413,Laura Lane,94043,37.4075752,-122.0996406
2417,Laura Lane,94043,37.4076432,-122.0997894
2421,Laura Lane,94043,37.4076864,-122.0999623
2425,Laura Lane,94043,37.4077875,-122.1001256
2429,Laura Lane,94043,37.4078282,-122.1002821
2433,Laura Lane,94043,37.4079010,-122.1004612
297,Laura Lane,94043,37.4079637,-122.1006308
121,Palmer Avenue,94043,37.4041978,-122.0984557
125,Palmer Avenue,94043,37.4043804,-122.0983464
131,Palmer Avenue,94043,37.4045328,-122.0982744
137,Palmer Avenue,94043,37.4046910,-122.0981644
143,Palmer Avenue,94043,37.4048294,-122.0980895
149,Palmer Avenue,94043,37.4050052,-122.0980033
155,Palmer Avenue,94043,37.4051362,-122.0979124
161,Palmer Avenue,94043,37.4053295,-122.0977893
167,Palmer Avenue,94043,37.4054460,-122.0977232
173,Palmer Avenue,94043,37.4056378,-122.0976168
179,Palmer Avenue,94043,37.4057943,-122.0975393
185,Palmer Avenue,94043,37.4059450,-122.0974461
2327,Adele Avenue,94043,37.4040696,-122.0985996
2333,Adele Avenue,94043,37.4041072,-122.0989100
2339,Adele Avenue,94043,37.4041909,-122.0990746
2345,Adele Avenue,94043,37.4042644,-122.0992911
2350,Adele Avenue,94043,37.4046883,-122.0990659
2351,Adele Avenue,94043,37.4043129,-122.0994419
2356,Adele Avenue,94043,37.4047806,-122.0992838
2357,Adele Avenue,94043,37.4044105,-122.0996302
2362,Adele Avenue,94043,37.4048350,-122.0994692
2363,Adele Avenue,94043,37.4044621,-122.0998094
2368,Adele Avenue,94043,37.4049077,-122.0996309
2369,Adele Avenue,94043,37.4045558,-122.0999997
2374,Adele Avenue,94043,37.4049979,-122.0998394
2375,Adele Avenue,94043,37.4046273,-122.1001815
2380,Adele Avenue,94043,37.4050510,-122.1000285
2381,Adele Avenue,94043,37.4047014,-122.1003677
2387,Adele Avenue,94043,37.4047749,-122.1005473
2386,Adele Avenue,94043,37.4051437,-122.1002084
2392,Adele Avenue,94043,37.4052016,-122.1003927
2393,Adele Avenue,94043,37.4048499,-122.1007331
2398,Adele Avenue,94043,37.4052746,-122.1005615
2399,Adele Avenue,94043,37.4049265,-122.1009151
128,Palmer Avenue,94043,37.4045874,-122.0988640
132,Palmer Avenue,94043,37.4047159,-122.0987699
140,Palmer Avenue,94043,37.4048880,-122.0986860
144,Palmer Avenue,94043,37.4050131,-122.0986183
148,Palmer Avenue,94043,37.4051882,-122.0985142
152,Palmer Avenue,94043,37.4053119,-122.0984409
162,Palmer Avenue,94043,37.4056374,-122.0982518
168,Palmer Avenue,94043,37.4057617,-122.0981813
174,Palmer Avenue,94043,37.4059113,-122.0980885
181,Thompson Square,94043,37.4054831,-122.1003630
182,Thompson Square,94043,37.4058339,-122.1000009
183,Thompson Square,94043,37.4054270,-122.1002036
184,Thompson Square,94043,37.4057548,-122.0997813
185,Thompson Square,94043,37.4053528,-122.0999897
187,Thompson Square,94043,37.4052581,-122.0998007
188,Thompson Square,94043,37.4056370,-122.0995202
189,Thompson Square,94043,37.4052009,-122.0996441
190,Thompson Square,94043,37.4055522,-122.0992684
191,Thompson Square,94043,37.4051251,-122.0994306
193,Thompson Square,94043,37.4050300,-122.0991455
195,Thompson Square,94043,37.4050908,-122.0989411
197,Thompson Square,94043,37.4052706,-122.0988076
199,Thompson Square,94043,37.4054359,-122.0987277
201,Thompson Square,94043,37.4056145,-122.0986075
203,Thompson Square,94043,37.4057623,-122.0985287
205,Thompson Square,94043,37.4059918,-122.0985094
208,Thompson Square,94043,37.4057620,-122.0991092
209,Thompson Square,94043,37.4062067,-122.0989281
210,Thompson Square,94043,37.4058470,-122.0993242
211,Thompson Square,94043,37.4062670,-122.0990958
212,Thompson Square,94043,37.4059027,-122.0994899
213,Thompson Square,94043,37.4063567,-122.0993103
214,Thompson Square,94043,37.4059939,-122.0996909
215,Thompson Square,94043,37.4064106,-122.0994719
216,Thompson Square,94043,37.4060512,-122.0998449
2330,Lida Drive,94043,37.4062936,-122.0971897
2336,Lida Drive,94043,37.4063762,-122.0973381
2342,Lida Drive,94043,37.4064635,-122.0975735
2345,Lida Drive,94043,37.4061048,-122.0979476
2348,Lida Drive,94043,37.4065334,-122.0977281
2350,Laura Lane,94043,37.4070632,-122.0973441
2351,Lida Drive,94043,37.4061626,-122.0981176
2354,Lida Drive,94043,37.4066152,-122.0979727
2355,Laura Lane,94043,37.4068437,-122.0974331
2356,Laura Lane,94043,37.4071866,-122.0974486
2357,Lida Drive,94043,37.4062532,-122.0983035
2360,Lida Drive,94043,37.4066868,-122.0981670
2362,Laura Lane,94043,37.4072590,-122.0976720
2363,Lida Drive,94043,37.4063275,-122.0985283
2366,Lida Drive,94043,37.4067645,-122.0983210
2368,Laura Lane,94043,37.4073169,-122.0978174
2369,Lida Drive,94043,37.4063865,-122.0986863
2372,Lida Drive,94043,37.4068443,-122.0985728
2374,Laura Lane,94043,37.4073732,-122.0979688
2375,Lida Drive,94043,37.4064810,-122.0988833
2378,Lida Drive,94043,37.4069252,-122.0987681
2380,Laura Lane,94043,37.4074332,-122.0981090
2381,Lida Drive,94043,37.4065578,-122.0991030
2384,Lida Drive,94043,37.4069938,-122.0989267
2387,Lida Drive,94043,37.4066129,-122.0992630
211,Diablo Avenue,94043,37.4064932,-122.1036493
115,Hamilton Avenue,94043,37.4052670,-122.1017638
123,Hamilton Avenue,94043,37.4053427,-122.1015767
131,Hamilton Avenue,94043,37.4055024,-122.1014258
132,Hamilton Avenue,94043,37.4057916,-122.1018913
139,Hamilton Avenue,94043,37.4056125,-122.1013150
140,Hamilton Avenue,94043,37.4058912,-122.1018046
147,Hamilton Avenue,94043,37.4057076,-122.1012360
148,Hamilton Avenue,94043,37.4060207,-122.1016815
155,Hamilton Avenue,94043,37.4058347,-122.1011113
156,Hamilton Avenue,94043,37.4061061,-122.1015731
163,Hamilton Avenue,94043,37.4059206,-122.1010206
164,Hamilton Avenue,94043,37.4062146,-122.1014851
171,Hamilton Avenue,94043,37.4060374,-122.1009186
172,Hamilton Avenue,94043,37.4063262,-122.1013690
202,Diablo Avenue,94043,37.4064779,-122.1042875
205,Hamilton Avenue,94043,37.4063405,-122.1006253
206,Hamilton Avenue,94043,37.4066233,-122.1011006
208,Diablo Avenue,94043,37.4066754,-122.1041741
212,Lassen Avenue,94043,37.4062611,-122.1027295
212,Lassen Avenue,94043,37.4063790,-122.1033409
213,Hamilton Avenue,94043,37.4064559,-122.1005082
214,Diablo Avenue,94043,37.4067747,-122.1040395
214,Hamilton Avenue,94043,37.4067467,-122.1009805
215,Lassen Avenue,94043,37.4061496,-122.1028397
217,Diablo Avenue,94043,37.4066263,-122.1035241
218,Lassen Avenue,94043,37.4064701,-122.1032325
220,Diablo Avenue,94043,37.4068910,-122.1039640
221,Hamilton Avenue,94043,37.4065538,-122.1004238
222,Hamilton Avenue,94043,37.4068366,-122.1008838
223,Diablo Avenue,94043,37.4067093,-122.1034219
224,Lassen Avenue,94043,37.4066043,-122.1031316
226,Diablo Avenue,94043,37.4070194,-122.1038411
227,Lassen Avenue,94043,37.4063813,-122.1026447
229,Diablo Avenue,94043,37.4068439,-122.1032879
229,Hamilton Avenue,94043,37.4066891,-122.1002903
230,Hamilton Avenue,94043,37.4069717,-122.1007576
230,Lassen Avenue,94043,37.4067128,-122.1030224
232,Diablo Avenue,94043,37.4071261,-122.1037372
233,Lassen Avenue,94043,37.4064783,-122.1025231
235,Diablo Avenue,94043,37.4069823,-122.1032062
2351,Tamalpais Street,94043,37.4058426,-122.1032143
2355,Tamalpais Street,94043,37.4059128,-122.1033885
2359,Tamalpais Street,94043,37.4059652,-122.1035394
236,Lassen Avenue,94043,37.4068215,-122.1029397
2363,Tamalpais Street,94043,37.4060295,-122.1036926
2367,Tamalpais Street,94043,37.4061271,-122.1038579
237,Hamilton Avenue,94043,37.4067836,-122.1002034
2371,Tamalpais Street,94043,37.4061870,-122.1040380
2375,Tamalpais Street,94043,37.4063319,-122.1042587
238,Diablo Avenue,94043,37.4072479,-122.1036290
238,Hamilton Avenue,94043,37.4070678,-122.1006737
239,Lassen Avenue,94043,37.4066119,-122.1023956
241,Diablo Avenue,94043,37.4070834,-122.1030979
2416,Tamalpais Street,94043,37.4059056,-122.1021160
2419,Tamalpais Street,94043,37.4053240,-122.1019764
242,Lassen Avenue,94043,37.4069501,-122.1028218
2420,Whitney Drive,94043,37.4074192,-122.0999807
2422,Parker Street,94043,37.4067967,-122.1012824
2423,Tamalpais Street,94043,37.4053950,-122.1021281
2424,Tamalpais Street,94043,37.4059580,-122.1022784
2424,Whitney Drive,94043,37.4074944,-122.1001814
2427,Parker Court,94043,37.4062025,-122.1018721
2427,Tamalpais Street,94043,37.4054399,-122.1022805
2428,Whitney Drive,94043,37.4075493,-122.1003177
2430,Parker Street,94043,37.4068465,-122.1014220
2431,Parker Court,94043,37.4061756,-122.1021870
2431,Tamalpais Street,94043,37.4055110,-122.1024531
2432,Parker Court,94043,37.4064003,-122.1016498
2432,Tamalpais Street,94043,37.4060090,-122.1024096
2432,Whitney Drive,94043,37.4076252,-122.1004907
2435,Parker Court,94043,37.4063667,-122.1022956
2435,Tamalpais Street,94043,37.4055779,-122.1026084
2435,Whitney Court,94043,37.4072848,-122.1008855
2436,Whitney Drive,94043,37.4076771,-122.1006381
2438,Parker Street,94043,37.4069236,-122.1016163
2439,Parker Street,94043,37.4065728,-122.1021005
2439,Tamalpais Street,94043,37.4056224,-122.1027445
2439,Whitney Court,94043,37.4070703,-122.1010596
244,Diablo Avenue,94043,37.4073587,-122.1035236
2440,Tamalpais Street,94043,37.4060613,-122.1025981
2440,Whitney Drive,94043,37.4077391,-122.1008056
2442,Parker Street,94043,37.4069475,-122.1017921
2443,Tamalpais Street,94043,37.4057101,-122.1029135
2443,Whitney Court,94043,37.4070726,-122.1012721
2447,Tamalpais Street,94043,37.4057550,-122.1030568
2447,Whitney Court,94043,37.4071907,-122.1014783
245,Hamilton Avenue,94043,37.4069048,-122.1000849
245,Lassen Avenue,94043,37.4067332,-122.1023133
2451,Whitney Drive,94043,37.4074330,-122.1013514
246,Hamilton Avenue,94043,37.4071766,-122.1005455
247,Diablo Avenue,94043,37.4071804,-122.1029901
248,Lassen Avenue,94043,37.4070529,-122.1026864
250,Diablo Avenue,94043,37.4074842,-122.1034187
253,Diablo Avenue,94043,37.4073169,-122.1028599
253,Hamilton Avenue,94043,37.4070497,-122.0999601
254,Lassen Avenue,94043,37.4071895,-122.1026006
256,Diablo Avenue,94043,37.4075967,-122.1033102
257,Lassen Avenue,94043,37.4070342,-122.1020560
259,Diablo Avenue,94043,37.4074459,-122.1027807
260,Lassen Avenue,94043,37.4072826,-122.1025130
261,Hamilton Avenue,94043,37.4072197,-122.0998535
262,Diablo Avenue,94043,37.4077225,-122.1032106
263,Lassen Avenue,94043,37.4071445,-122.1019510
265,Diablo Avenue,94043,37.4075556,-122.1026471
266,Lassen Avenue,94043,37.4073994,-122.1023929
268,Diablo Avenue,94043,37.4078436,-122.1030983
269,Lassen Avenue,94043,37.4072413,-122.1018452
271,Diablo Avenue,94043,37.4076509,-122.1025601
272,Lassen Avenue,94043,37.4075128,-122.1022866
273,Diablo Avenue,94043,37.4077932,-122.1024612
274,Diablo Avenue,94043,37.4079558,-122.1029771
275,Lassen Avenue,94043,37.4073761,-122.1017121
278,Lassen Avenue,94043,37.4076561,-122.1021850
280,Diablo Avenue,94043,37.4080834,-122.1028964
281,Lassen Avenue,94043,37.4075038,-122.1016238
283,Diablo Avenue,94043,37.4078868,-122.1023487
284,Lassen Avenue,94043,37.4077527,-122.1021025
286,Diablo Avenue,94043,37.4081914,-122.1027888
2483,Whitney Drive,94043,37.4082324,-122.1030578
2485,Whitney Drive,94043,37.4083117,-122.1032027
2489,Whitney Drive,94043,37.4084591,-122.1034304
2491,Whitney Drive,94043,37.4086523,-122.1037628
2302,Jewell Place,94043,37.4072490,-122.0953694
2307,Jewell Place,94043,37.4069600,-122.0957312
2311,Jewell Place,94043,37.4070311,-122.0959283
254,North Rengstorff Avenue,94043,37.4060925,-122.0960669
257,Fay Way,94043,37.4062100,-122.0963722
260,North Rengstorff Avenue,94043,37.4062239,-122.0959619
263,Fay Way,94043,37.4063248,-122.0962900
266,North Rengstorff Avenue,94043,37.4063401,-122.0958874
269,Fay Way,94043,37.4064731,-122.0962109
272,North Rengstorff Avenue,94043,37.4064772,-122.0958485
275,Fay Way,94043,37.4066019,-122.0961425
278,North Rengstorff Avenue,94043,37.4065901,-122.0957554
281,Fay Way,94043,37.4067101,-122.0960835
284,North Rengstorff Avenue,94043,37.4067194,-122.0956925
287,Fay Way,94043,37.4068361,-122.0960091
290,North Rengstorff Avenue,94043,37.4068906,-122.0955654
334,North Rengstorff Avenue,94043,37.4073913,-122.0952733
340,North Rengstorff Avenue,94043,37.4075197,-122.0952130
346,North Rengstorff Avenue,94043,37.4076370,-122.0951363
352,North Rengstorff Avenue,94043,37.4078031,-122.0950399
356,North Rengstorff Avenue,94043,37.4079129,-122.0949830
364,North Rengstorff Avenue,94043,37.4080531,-122.0948736
370,North Rengstorff Avenue,94043,37.4081782,-122.0948257
374,North Rengstorff Avenue,94043,37.4083099,-122.0947405
2312,Heather Court,94043,37.4069148,-122.0965173
2314,Jewell Place,94043,37.4076139,-122.0960783
2318,Heather Court,94043,37.4069380,-122.0966887
2321,Heather Court,94043,37.4065477,-122.0969180
2324,Heather Court,94043,37.4070344,-122.0968621
2327,Heather Court,94043,37.4065798,-122.0971233
2330,Heather Court,94043,37.4070743,-122.0970420
2333,Heather Court,94043,37.4066576,-122.0972655
260,Fay Way,94043,37.4064620,-122.0967654
288,Fay Way,94043,37.4071633,-122.0963459
325,Fay Way,94043,37.4073571,-122.0956417
333,Fay Way,94043,37.4074976,-122.0955912
337,Fay Way,94043,37.4076364,-122.0955055
338,Fay Way,94043,37.4078389,-122.0959827
343,Fay Way,94043,37.4077577,-122.0954400
344,Fay Way,94043,37.4079604,-122.0959195
349,Fay Way,94043,37.4079080,-122.0953500
350,Fay Way,94043,37.4081120,-122.0958115
355,Fay Way,94043,37.4080276,-122.0952949
356,Fay Way,94043,37.4082496,-122.0957210
361,Fay Way,94043,37.4081551,-122.0952078
362,Fay Way,94043,37.4083587,-122.0956573
367,Fay Way,94043,37.4082997,-122.0951120
368,Fay Way,94043,37.4085057,-122.0955734
375,Fay Way,94043,37.4084162,-122.0950518
2320,Jewell Place,94043,37.4076508,-122.0962569
2321,Jewell Place,94043,37.4072335,-122.0965145
2326,Jewell Place,94043,37.4077049,-122.0964121
2329,Jewell Place,94043,37.4073046,-122.0966720
2332,Jewell Place,94043,37.4077131,-122.0966472
2335,Jewell Place,94043,37.4074363,-122.0968317
481,Thompson Avenue,94043,37.4096787,-122.0961116
487,Thompson Avenue,94043,37.4095707,-122.0958354
493,Thompson Avenue,94043,37.4094914,-122.0955789
499,Thompson Avenue,94043,37.4097794,-122.0953972
505,Thompson Avenue,94043,37.4099001,-122.0956313
511,Thompson Avenue,94043,37.4100111,-122.0959085
517,Thompson Avenue,94043,37.4102263,-122.0958165
523,Thompson Avenue,94043,37.4101250,-122.0955743
529,Thompson Avenue,94043,37.4106122,-122.0954027
535,Thompson Avenue,94043,37.4107555,-122.0952118
744,West Dana Street,94041,37.3924595,-122.0789244
698,West Dana Street,94041,37.3923063,-122.0783092
812,West Dana Street,94041,37.3927546,-122.0799106
1991,West El Camino Real,94040,37.3943967,-122.0997110
2143,Junction Avenue,94043,37.4102503,-122.0940736
2149,Junction Avenue,94043,37.4103149,-122.0943530
444,North Rengstorff Avenue,94043,37.4101393,-122.0936933
430,North Rengstorff Avenue,94043,37.4099750,-122.0941652
436,North Rengstorff Avenue,94043,37.4098558,-122.0938666
2135,Junction Avenue,94043,37.4102149,-122.0939132
580,North Rengstorff Avenue,94043,37.4114141,-122.0936715
151,Calderon Avenue,94041,37.3900301,-122.0708175
1431,Plymouth Street,94043,37.4161549,-122.0786286
1000,Escalon Avenue,94085,37.3879517,-122.0453479
2149,Junction Avenue,94043,37.4099972,-122.0945520
2191,Junction Avenue,94043,37.4106740,-122.0950252
392,North Rengstorff Avenue,94043,37.4089557,-122.0943271
406,North Rengstorff Avenue,94043,37.4094049,-122.0945344
424,North Rengstorff Avenue,94043,37.4095109,-122.0940718
418,North Rengstorff Avenue,94043,37.4096240,-122.0943783
3070,North Shoreline Boulevard,94043,37.4314560,-122.0871130
181,West Evelyn Avenue,94041,37.3914520,-122.0707416
383,Castro Street,94041,37.3913998,-122.0801620
392,Hope Street,94041,37.3910745,-122.0795041
800,West El Camino Real,94040,37.3865270,-122.0841101
390,Moffett Boulevard,94043-4726,37.3987817,-122.0757293
2320,West El Camino Real,94040,37.3979589,-122.1058650
399,West El Camino Real,94040,37.3834597,-122.0799472
799,Castro Street,94041,37.3871346,-122.0827857
696,West El Camino Real,94040,37.3854092,-122.0827348
200,West El Camino Real,94040,37.3830706,-122.0777968
500,West El Camino Real,94040,37.3845289,-122.0808406
461,West El Camino Real,94040,37.3839170,-122.0809139
215,West El Camino Real,94040,37.3825216,-122.0780644
451,El Camino Real West,94040,37.3837677,-122.0806015
399,North Whisman Road,94043,37.3997716,-122.0580197
468,Ellis Street,94043,37.4000673,-122.0551851
379,North Whisman Road,94043,37.3984457,-122.0575730
466,Ellis Street,94043,37.3998257,-122.0541137
369,North Whisman Road,94043,37.3986620,-122.0584816
464,Ellis Street,94043,37.3994711,-122.0530280
389,North Whisman Road,94043,37.3995106,-122.0571231
495,North Whisman Road,94043,37.4014869,-122.0575474
205,Ravendale Drive,94043,37.3882609,-122.0546103
375,Ravendale Drive,94043,37.3899393,-122.0519815
339,North Bernardo Avenue,94043,37.3878716,-122.0505889
465,North Bernardo Avenue,94043,37.3890193,-122.0495004
280,North Bernardo Avenue,94043,37.3873505,-122.0530091
755,Ravendale Drive,94043,37.3900658,-122.0507416
380,North Bernardo Avenue,94043,37.3887547,-122.0519866
297,North Bernardo Avenue,94043,37.3866946,-122.0489378
777,East Middlefield Road,94043,37.3905381,-122.0491282
805,East Middlefield Road,94043,37.3895856,-122.0484776
701,East Middlefield Road,94043,37.3911783,-122.0500396
295,North Bernardo Avenue,94043,37.3868038,-122.0501356
319,North Bernardo Avenue,94043,37.3873310,-122.0484507
161,East Evelyn Avenue,94041,37.3890257,-122.0645405
340,Pioneer Way,94041,37.3861649,-122.0677422
320,Pioneer Way,94041,37.3866946,-122.0679021
360,Pioneer Way,94041,37.3853120,-122.0675697
300,Pioneer Way,94041,37.3872145,-122.0680352
185,East Dana Street,94041,37.3861581,-122.0654102
335,Pioneer Way,94041,37.3862550,-122.0668747
355,Pioneer Way,94041,37.3857729,-122.0667423
981,Bonita Avenue,94040,37.3821791,-122.0804411
136,West Dana Street,94041,37.3897379,-122.0714177
138,West Dana Street,94041,37.3898758,-122.0713273
134,West Dana Street,94041,37.3895838,-122.0715152
132,West Dana Street,94041,37.3894492,-122.0716283
2017,California Street,94040,37.3976098,-122.0978501
2065,California Street,94040,37.3983438,-122.0995011
1941,California Street,94040,37.3971337,-122.0962577
1957,California Street,94040,37.3973054,-122.0966803
1910,Mount Vernon Court,94040,37.3960834,-122.0950370
1911,California Street,94040,37.3966781,-122.0947386
426,Escuela Avenue,94040,37.3963359,-122.0949099
1921,California Street,94040,37.3967409,-122.0954018
1937,California Street,94040,37.3969108,-122.0958296
316,Escuela Avenue,94040,37.3981012,-122.0946397
645,San Antonio Road,94040,37.4017812,-122.1118168
685,San Antonio Road,94040,37.4016290,-122.1130029
2580,West El Camino Real,94040,37.4009718,-122.1123964
2590,West El Camino Real,94040,37.4012444,-122.1129278
2460,East Charleston Road,94043,37.4234059,-122.0970747
272,Evandale Avenue,94043,37.4045340,-122.0573328
250,Evandale Avenue,94043,37.4045399,-122.0575218
615,Pepperwood Court,94043,37.4047058,-122.0584188
190,Evandale Avenue,94043,37.4048506,-122.0590847
186,Evandale Avenue,94043,37.4049201,-122.0592988
184,Evandale Avenue,94043,37.4049430,-122.0593903
182,Evandale Avenue,94043,37.4049629,-122.0594830
180,Evandale Avenue,94043,37.4049859,-122.0595775
170,Evandale Avenue,94043,37.4051156,-122.0601291
172,Evandale Avenue,94043,37.4050941,-122.0600390
174,Evandale Avenue,94043,37.4050713,-122.0599461
176,Evandale Avenue,94043,37.4050472,-122.0598419
1212,Terra Bella Avenue,94043,37.4091099,-122.0787306
1245,Terra Bella Avenue,94043,37.4086908,-122.0799023
1255,Terra Bella Avenue,94043,37.4090803,-122.0802385
1277,Terra Bella Avenue,94043,37.4092771,-122.0808775
1305,Terra Bella Avenue,94043,37.4095559,-122.0815395
1335,Terra Bella Avenue,94043,37.4097288,-122.0820447
1400,Terra Bella Avenue,94043,37.4097453,-122.0833961
808,North Shoreline Boulevard,94043,37.4068803,-122.0785063
790,North Shoreline Boulevard,94043,37.4059223,-122.0785508
975,North Shoreline Boulevard,94043,37.4082604,-122.0776030
2400,Old Middlefield Way,94043,37.4151744,-122.0976115
827,Independence Avenue,94043,37.4156997,-122.0970084
2330,Old Middlefield Way,94043,37.4152924,-122.0962813
2284,Old Middlefield Way,94043,37.4152672,-122.0958640
2224,Old Middlefield Way,94043,37.4152011,-122.0951318
2218,Old Middlefield Way,94043,37.4151703,-122.0946726
2150-2170,Old Middlefield Way,94043,37.4151538,-122.0942860
2134,Old Middlefield Way,94043,37.4151310,-122.0939511
1988,Old Middlefield Way,94043,37.4147665,-122.0909396
55,Fairchild Drive,94043,37.4063468,-122.0637545
164,Evandale Avenue,94043,37.4051514,-122.0603284
156,Evandale Avenue,94043,37.4051881,-122.0604862
148,Evandale Avenue,94043,37.4052434,-122.0607474
225,Evandale Avenue,94043,37.4043430,-122.0585595
231,Evandale Avenue,94043,37.4043174,-122.0584019
58,Devonshire Avenue,94043,37.4037648,-122.0595645
133,Evandale Avenue,94043,37.4046977,-122.0600790
129,Evandale Avenue,94043,37.4047841,-122.0603586
127,Evandale Avenue,94043,37.4046385,-122.0604179
125,Evandale Avenue,94043,37.4046803,-122.0607102
534,North Whisman Road,94043,37.4025485,-122.0579345
1005,Boranda Avenue,94040,37.3827449,-122.0817811
707,Continental Circle,94040,37.3743827,-122.0670100
707,Continental Circle,94040,37.3739099,-122.0666766
707,Continental Circle,94040,37.3738341,-122.0662136
707,Continental Circle,94040,37.3748270,-122.0669330
707,Continental Circle,94040,37.3747554,-122.0653328
707,Continental Circle,94040,37.3751181,-122.0667598
707,Continental Circle,94040,37.3754301,-122.0662867
515,Easy Street,94043,37.4030097,-122.0639915
701,North Shoreline Boulevard,94043,37.4040579,-122.0774603
170,East El Camino Real,94040,37.3799202,-122.0705365
805,Yuba Drive,94041,37.3804416,-122.0699545
500,West Middlefield Road,94043-3421,37.4007157,-122.0712929
1063,West El Camino Real,94040,37.3868930,-122.0867394
45,West El Camino Real,94040,37.3800655,-122.0735774
36,Oak Lane,94040,37.3800017,-122.0741382
50,Oak Lane,94040,37.3802410,-122.0745459
45,West El Camino Real,94040,37.3802117,-122.0736972
59,West El Camino Real,94040,37.3806953,-122.0745869
1033,Crestview Drive,94040,37.3728178,-122.0598714
1031,Crestview Drive,94040,37.3734819,-122.0594080
101,East El Camino Real,94040,37.3797960,-122.0728425
685,Vernon Avenue,94043,37.4097845,-122.0650549
855,East El Camino Real,94040,37.3750542,-122.0613529
861,East El Camino Real,94040,37.3750612,-122.0609113
823,East El Camino Real,94040,37.3755024,-122.0615667
830,East El Camino Real,94040,37.3766869,-122.0621232
141,Del Medio Avenue,94040,37.4086745,-122.1110258
570,North Shoreline Boulevard,94043,37.4026322,-122.0795921
1750,Miramonte Avenue,94040,37.3723356,-122.0884370
2124,West El Camino Real,94040,37.3968438,-122.1032355
1901,Rock Street,94043,37.4113813,-122.0878031
210,Calderon Avenue,94041,37.3906875,-122.0730056
361,Villa Street,94041,37.3909134,-122.0737989
100,North Whisman Road,94043,37.3927401,-122.0640135
100,North Whisman Road,94043,37.3928766,-122.0632561
1645,Mercy Street,94041,37.3936149,-122.0913313
1645,Mercy Street,94041,37.3937679,-122.0912154
1075,North El Monte Avenue,94040,37.3888097,-122.0955483
1580,Latham Street,94041,37.3923600,-122.0906785
551,Mariposa Avenue,94041,37.3927121,-122.0903368
460,Mountain View Avenue,94041,37.3928421,-122.0868315
447,Mountain View Avenue,94041,37.3927818,-122.0862363
1577,Latham Street,94041,37.3920488,-122.0908869
1328,West El Camino Real,94040,37.3888190,-122.0894245
1482,West El Camino Real,94040,37.3895512,-122.0909424
1275B,Latham Street,94041,37.3906718,-122.0873471
352,Bryant Street,94041,37.3925315,-122.0817531
1704,Miramonte Avenue,94040,37.3735945,-122.0876995
210,Pettis Avenue,94041,37.3968232,-122.0870601
1417,Villa Street,94041,37.3964928,-122.0862162
286,Palo Alto Avenue,94041,37.3955455,-122.0865072
201,Mariposa Avenue,94041,37.3971295,-122.0879080
259,Pettis Avenue,94041,37.3960613,-122.0870416
1643,Villa Street,94041,37.3974143,-122.0886458
1433,Villa Street,94041,37.3965749,-122.0864134
1645,Villa Street,94041,37.3974784,-122.0887662
1541,Villa Street,94041,37.3968953,-122.0872295
938,Villa Street,94041,37.3946503,-122.0804260
1000,Villa Street,94041,37.3956350,-122.0814467
510,Front Lane,94041,37.3933679,-122.0754003
570,Front Lane,94041,37.3936044,-122.0760088
505,Front Lane,94041,37.3931690,-122.0754118
580,Front Lane,94041,37.3936507,-122.0761146
550,Front Lane,94041,37.3935348,-122.0758220
500,Front Lane,94041,37.3933275,-122.0753078
560,Front Lane,94041,37.3935668,-122.0759199
520,Front Lane,94041,37.3934033,-122.0755024
230,Bush Street,94041,37.3921690,-122.0760890
205,View Street,94041,37.3926860,-122.0766295
235,View Street,94041,37.3923800,-122.0768238
242;246;248,Bush Street,94041,37.3920342,-122.0761989
520,West Dana Street,94041,37.3916056,-122.0767720
224,Bush Street,94041,37.3922465,-122.0760516
540,West Dana Street,94041,37.3917681,-122.0772118
530,West Dana Street,94041,37.3916786,-122.0769860
500;510,West Dana Street,94041,37.3915102,-122.0765581
206,Bush Street,94041,37.3924214,-122.0759697
217,Bush Street,94041,37.3920801,-122.0756052
555,West Dana Street,94041,37.3914314,-122.0774101
344,Bush Street,94041,37.3909796,-122.0769090
322/20,View Street,94041,37.3914218,-122.0779363
491,Bush Street,94041,37.3922575,-122.0755775
246,Houghton Street,94041,37.3909245,-122.0751833
545,West Dana Street,94041,37.3913232,-122.0769897
505,West Dana Street,94041,37.3911895,-122.0767257
320,Bush Street,94041,37.3910992,-122.0768074
356,Bush Street,94041,37.3906466,-122.0771008
551,West Dana Street,94041,37.3913402,-122.0771785
635,West Dana Street,94041,37.3916969,-122.0780727
379,Hope Street,94041,37.3911557,-122.0789710
222,Houghton Street,94041,37.3915079,-122.0748155
348,Bush Street,94041,37.3908050,-122.0770138
289,Bush Street,94041,37.3911599,-122.0762089
409,West Dana Street,94041,37.3904165,-122.0752409
401,West Dana Street,94041,37.3902740,-122.0749609
315,Bush Street,94041,37.3907689,-122.0764462
407,West Dana Street,94041,37.3903636,-122.0750905
321,Bush Street,94041,37.3906521,-122.0764893
511,Central Avenue,94043,37.3963576,-122.0756987
469,Bush Street,94041,37.3890688,-122.0774346
421,Bush Street,94041,37.3894714,-122.0772518
470,Bush Street,94041,37.3891807,-122.0780812
403,Hope Street,94041,37.3906352,-122.0793101
424,Bush Street,94041,37.3897217,-122.0776660
439,Hope Street,94041,37.3902527,-122.0795021
483,Hope Street,94041,37.3897559,-122.0797886
456,Bush Street,94041,37.3893905,-122.0779022
498,Bush Street,94041,37.3890084,-122.0781002
540,View Street,94041,37.3885076,-122.0797948
531,Hope Street,94041,37.3888909,-122.0803262
548,View Street,94041,37.3883682,-122.0798325
560,Bush Street,94041,37.3877505,-122.0788870
590,Bush Street,94041,37.3870438,-122.0792924
581,Hope Street,94041,37.3881624,-122.0807636
505,Hope Street,94041,37.3893602,-122.0800013
560,View Street,94041,37.3881799,-122.0799947
554,View Street,94041,37.3882741,-122.0799056
556,Bush Street,94041,37.3878725,-122.0787739
571,Hope Street,94041,37.3883040,-122.0807531
568,View Street,94041,37.3880395,-122.0800814
524,Bush Street,94041,37.3883315,-122.0785121
546,Bush Street,94041,37.3879741,-122.0787134
502,Bush Street,94041,37.3886664,-122.0782822
532,Bush Street,94041,37.3881873,-122.0786054
509,View Street,94041,37.3888413,-122.0789673
539,Hope Street,94041,37.3887620,-122.0803933
570,Bush Street,94041,37.3875250,-122.0789958
518,Bush Street,94041,37.3884650,-122.0784776
505,View Street,94041,37.3889464,-122.0788965
582,Bush Street,94041,37.3872058,-122.0791523
540,Bush Street,94041,37.3880721,-122.0786849
576,Bush Street,94041,37.3874055,-122.0791448
514,Bush Street,94041,37.3885682,-122.0784122
1537,Alison Avenue,94040,37.3783193,-122.0857720
1529,Alison Avenue,94040,37.3784837,-122.0857692
445,Central Avenue,94043,37.3957662,-122.0724005
189,Central Avenue,94043,37.3950255,-122.0703651
739,Bush Street,94041,37.3858374,-122.0795097
1570,Grant Road,94040,37.3761198,-122.0767900
914,Mountain View Avenue,94040,37.3872970,-122.0901781
64,West El Camino Real,94040,37.3814476,-122.0741313
96,West El Camino Real,94040,37.3821380,-122.0756888
62,West El Camino Real,94040,37.3814527,-122.0736642
150,East El Camino Real,94040,37.3806936,-122.0717458
770,Yuba Drive,94041,37.3819041,-122.0698955
576 / 572,Hans Avenue,94040,37.3793788,-122.0814684
564,Hans Avenue,94040,37.3793799,-122.0812294
556,Hans Avenue,94040,37.3793769,-122.0809843
550,Hans Avenue,94040,37.3793809,-122.0807654
1174,Castro Street,94040,37.3824253,-122.0866171
1172,Castro Street,94040,37.3819513,-122.0867044
1200,Villa Street,94041,37.3966066,-122.0839291
1106,Boranda Avenue,94040,37.3811732,-122.0825480
1108,Boranda Avenue,94040,37.3811521,-122.0827333
1660,Villa Street,94041,37.3979332,-122.0887073
1630,Villa Street,94041,37.3978951,-122.0882350
1650,Villa Street,94041,37.3978783,-122.0885788
1630,Villa Street,94041,37.3977230,-122.0883336
1620,Villa Street,94041,37.3977665,-122.0881184
1640,Villa Street,94041,37.3978297,-122.0884328
956,Trophy Drive,94040,37.3831169,-122.0892314
260,Chiquita Avenue,94040,37.3973531,-122.0902660
650,Fairmont Avenue,94041,37.3858342,-122.0819659
600,Fairmont Avenue,94041,37.3856616,-122.0814963
622,Fairmont Avenue,94041,37.3857376,-122.0816166
634,Fairmont Avenue,94041,37.3858010,-122.0817813
893,View Street,94041,37.3854696,-122.0811054
807;811,Hope Street,94041,37.3863256,-122.0822318
761,Hope Street,94041,37.3867438,-122.0819681
750,Fairmont Avenue,94041,37.3862633,-122.0828391
715,Hope Street,94041,37.3869780,-122.0818088
609;635,Hope Street,94041,37.3875913,-122.0814327
740,Bush Street,94041,37.3860014,-122.0798522
1804,Orangetree Lane,94040,37.3707758,-122.0944706
586,Escuela Avenue,30188,37.3947875,-122.0956178
117,Easy Street,94043,37.3923642,-122.0674968
176,Ada Avenue,94043,37.3935402,-122.0660820
210,Ada Avenue,94043,37.3946090,-122.0660039
183,Ada Avenue,94043,37.3935148,-122.0654550
181,Ada Avenue,94043,37.3928497,-122.0645550
78,Gladys Avenue,94043,37.3963838,-122.0665441
90-96,Gladys Avenue,94043,37.3963533,-122.0660884
68,Gladys Avenue,94043,37.3963360,-122.0667365
58,Gladys Avenue,94043,37.3963233,-122.0669435
100,Gladys Avenue,94043,37.3963715,-122.0653632
104,Gladys Avenue,94043,37.3963487,-122.0651104
148,Gladys Avenue,94043,37.3959253,-122.0631763
190,Gladys Avenue,94043,37.3958066,-122.0628134
124,Gladys Avenue,94043,37.3960524,-122.0638393
108,Gladys Avenue,94043,37.3962997,-122.0648863
194,Gladys Avenue,94043,37.3957711,-122.0626604
136,Gladys Avenue,94043,37.3960074,-122.0635633
110,Gladys Avenue,94043,37.3962545,-122.0646807
120,Gladys Avenue,94043,37.3961728,-122.0642416
112-114,Gladys Avenue,94043,37.3961835,-122.0644465
198,Gladys Avenue,94043,37.3957977,-122.0624535
214,Gladys Avenue,94043,37.3955597,-122.0619154
218,Gladys Avenue,94043,37.3955590,-122.0616952
146,Kittoe Drive,94043,37.3966589,-122.0628191
1033,Wright Avenue,94043,37.3996442,-122.0824019
1059,Wright Avenue,94043,37.3996895,-122.0827648
275,Polaris Avenue,94043,37.3992686,-122.0830118
265,Polaris Avenue,94043,37.3990627,-122.0831361
253,Polaris Avenue,94043,37.3987987,-122.0833001
241,Polaris Avenue,94043,37.3985347,-122.0834722
280,Polaris Avenue,94043,37.3997681,-122.0836197
260,Polaris Avenue,94043,37.3993864,-122.0839816
240,Polaris Avenue,94043,37.3990096,-122.0843421
230,Polaris Avenue,94043,37.3987912,-122.0844871
1074a,Wentworth Street,94043,37.3989296,-122.0849271
1084,Wentworth Street,94043,37.3991387,-122.0852723
1084,Wentworth Street,94043,37.3992098,-122.0854589
1071,Wright Avenue,94043,37.3999696,-122.0840041
201,Granada Drive,94043,37.3996796,-122.0854808
179,Granada Drive,94043,37.3995071,-122.0855493
173,Granada Drive,94043,37.3993311,-122.0856467
2010,California Street,94040,37.3983673,-122.0972085
2020,California Street,94040,37.3985225,-122.0976556
2030,California Street,94040,37.3986249,-122.0981311
2000,California Street,94040,37.3981598,-122.0967542
2040,California Street,94040,37.3988604,-122.0985289
2050,California Street,94040,37.3990261,-122.0989702
2090,Latham Street,94040,37.3968752,-122.1008242
2050,Latham Street,94040,37.3965175,-122.0999129
2030,Latham Street,94040,37.3963383,-122.0994539
2070,Latham Street,94040,37.3966951,-122.1003682
1943,Mount Vernon Court,94040,37.3965206,-122.0970233
1930,Mount Vernon Court,94040,37.3963206,-122.0956097
1940,Mount Vernon Court,94040,37.3965076,-122.0961947
1945,Mount Vernon Court,94040,37.3962123,-122.0963710
1935,Mount Vernon Court,94040,37.3959075,-122.0958646
1915,Mount Vernon Court,94040,37.3956757,-122.0952947
1920,Latham Street,94040,37.3949578,-122.0963378
331,Fairchild Drive,94043,37.4038901,-122.0539917
707,Continental Circle,94040,37.3741615,-122.0657018
100,Moffett Boulevard,94043,37.3965715,-122.0779452
161,Madera Way,94041,37.3922340,-122.0735418
155,Ada Avenue,94043,37.3923923,-122.0660406
116,Avellino Way,94043,37.3923918,-122.0652356
157,Ada Avenue,94043,37.3924734,-122.0660065
108,Avellino Way,94043,37.3923575,-122.0655194
112,Avellino Way,94043,37.3922144,-122.0653010
114,Avellino Way,94043,37.3923086,-122.0652734
136,Avellino Way,94043,37.3920882,-122.0643615
134,Avellino Way,94043,37.3921804,-122.0643278
104,Avellino Way,94043,37.3925062,-122.0657224
106,Avellino Way,94043,37.3924551,-122.0654864
110,Avellino Way,94043,37.3922768,-122.0655475
100,Avellino Way,94043,37.3923298,-122.0657879
159,Ada Avenue,94043,37.3925695,-122.0659744
138,Avellino Way,94043,37.3920042,-122.0643900
217,Ada Avenue,94043,37.3945767,-122.0641880
1501,Salado Drive,94043,37.4239963,-122.0924748
109,Beverly Street,94043,37.3900265,-122.0614714
855-857,Maude Avenue,94043,37.3961453,-122.0492746
707,Continental Circle,94040,37.3743377,-122.0653228
1949,Grant Road,94040,37.3738252,-122.0771008
530,Showers Drive,94040,37.4021537,-122.1075118
530,Showers Drive,94040,37.4020899,-122.1075606
530,Showers Drive,94040,37.4019933,-122.1076519
530,Showers Drive,94040,37.4019346,-122.1076989
530,Showers Drive,94040,37.4018769,-122.1077541
530,Showers Drive,94040,37.4018133,-122.1078080
530,Showers Drive,94040,37.4017563,-122.1078548
49,Showers Drive,94040,37.4043813,-122.1037551
108,Castro Street,94041,37.3950212,-122.0785784
523,Walker Drive,94043,37.4020955,-122.0660918
2700,Del Medio Court,94040,37.4091923,-122.1119954
126,Ada Avenue,94043,37.3919537,-122.0669286
174,Ada Avenue,94043,37.3934309,-122.0662114
181,Ada Avenue,94043,37.3929138,-122.0647402
130,Avellino Way,94043,37.3921332,-122.0645914
120,Avellino Way,94043,37.3922031,-122.0648863
128,Avellino Way,94043,37.3920525,-122.0646195
132,Avellino Way,94043,37.3922307,-122.0645583
118,Avellino Way,94043,37.3923006,-122.0648533
122,Avellino Way,94043,37.3921224,-122.0649145
400A,Ortega Avenue,94040,37.3995889,-122.1056469
400B,Ortega Avenue,94040,37.4000959,-122.1054029
550,Ortega Avenue,94040,37.3989371,-122.1062638
433,Ortega Avenue,94040,37.3995694,-122.1048871
487,Ortega Avenue,94040,37.3993608,-122.1049824
325,Sylvan Avenue,94041,37.3848854,-122.0589034
981,Bonita Avenue,94040,37.3821842,-122.0803346
433,Sylvan Avenue,94041,37.3831896,-122.0594229
2246,West El Camino Real,94040,37.3969121,-122.1037288
951,Dale Avenue,94040,37.3753097,-122.0620914
2490,Hospital Drive,94040,37.3698412,-122.0823252
2500,Grant Road,94040,37.3691217,-122.0796950
2505,Hospital Drive,94040,37.3676298,-122.0812520
2480,Grant Road,94040,37.3700522,-122.0801172
2485,Hospital Drive,94040,37.3698275,-122.0809958
208,Escuela Avenue,94040,37.3992058,-122.0928362
208,Escuela Avenue,94040,37.3993014,-122.0929464
234,Escuela Avenue,94040,37.3991735,-122.0933247
234,Escuela Avenue,94040,37.3989955,-122.0934342
234,Escuela Avenue,94040,37.3995312,-122.0942280
234,Escuela Avenue,94040,37.3993975,-122.0944539
2656,West El Camino Real,94040,37.4029843,-122.1154739
2650,West El Camino Real,94040,37.4033924,-122.1147457
40,South Rengstorff Avenue,94040,37.4030531,-122.0981666
111,North Rengstorff Avenue,94043,37.4035366,-122.0961874
835,Farley Street,94043,37.4063833,-122.0879965
2019,Stierlin Court,94043,37.4228418,-122.0735169
620,National Avenue,94043,37.4020381,-122.0546542
333,Moffett Boulevard,94043,37.3985498,-122.0750829
529,Taylor Court,94043,37.4018351,-122.0666363
630,Taylor Court,94043,37.4017922,-122.0672803
830,Leong Drive,94043,37.4051282,-122.0669211
200,East El Camino Real,94040,37.3796876,-122.0685735
1010,North El Monte Avenue,94040,37.3905240,-122.0961976
3384,Lubich Drive,94040,37.3623462,-122.0639679
715,Sleeper Avenue,94040,37.3713150,-122.0714899
2244,Sun Mor Avenue,94040,37.3710374,-122.0704645
931,Sleeper Avenue,94040,37.3713019,-122.0711802
"755, 759",Sleeper Avenue,94040,37.3712404,-122.0708582
735,Sleeper Avenue,94040,37.3709242,-122.0711286
2318,Sun Mor Avenue,94040,37.3704125,-122.0704154
2296,Sun Mor Avenue,94040,37.3706151,-122.0704678
2268,Sun Mor Avenue,94040,37.3708242,-122.0704178
2216,Sun Mor Avenue,94040,37.3713315,-122.0705844
2346,Sun Mor Avenue,94040,37.3702072,-122.0704603
2080,Marich Way,94040,37.3935072,-122.1022379
2080,Marich Way,94040,37.3931832,-122.1023377
2080,Marich Way,94040,37.3938627,-122.1019811
2080,Marich Way,94040,37.3942332,-122.1016045
2080,Marich Way,94040,37.3940157,-122.1014579
1969,Latham Street,94040,37.3950993,-122.0980860
1965,Latham Street,94040,37.3951443,-122.0978631
587,Sleeper Avenue,94040,37.3712826,-122.0729216
485,Sleeper Avenue,94040,37.3713442,-122.0740696
547,Sleeper Avenue,94040,37.3707967,-122.0733237
591,Sleeper Avenue,94040,37.3708674,-122.0726557
589,Sleeper Avenue,94040,37.3709027,-122.0729154
679,Sleeper Avenue,94040,37.3713070,-122.0717237
593,Sleeper Avenue,94040,37.3713121,-122.0725932
637,Sleeper Avenue,94040,37.3708987,-122.0720288
627,Sleeper Avenue,94040,37.3713235,-122.0720956
549,Sleeper Avenue,94040,37.3710504,-122.0732251
599,Sleeper Avenue,94040,37.3712303,-122.0723436
460,Sleeper Avenue,94040,37.3717753,-122.0741398
2325,Carol Avenue,94040,37.3709416,-122.0744198
495,Sleeper Avenue,94040,37.3713408,-122.0737941
2319,Carol Avenue,94040,37.3711346,-122.0745026
505,Sleeper Avenue,94040,37.3709685,-122.0737671
440,Sleeper Avenue,94040,37.3717473,-122.0745190
321,Sleeper Avenue,94040,37.3713523,-122.0743590
2313,Carol Avenue,94040,37.3713467,-122.0745868
462,Sleeper Avenue,94040,37.3718409,-122.0739790
550,Sleeper Avenue,94040,37.3718192,-122.0731417
2175,Sunnyview Lane,94040,37.3717666,-122.0735149
580,Sleeper Avenue,94040,37.3718025,-122.0728766
662,Sleeper Avenue,94040,37.3718237,-122.0717598
2059,Tripiano Court,94040,37.3718021,-122.0723805
782,Sleeper Avenue,94040,37.3718494,-122.0708106
2169,Yorkshire Way,94040,37.3718117,-122.0710489
2243,Sun Mor Avenue,94040,37.3710368,-122.0699489
2295,Sun Mor Avenue,94040,37.3706206,-122.0698813
2267,Sun Mor Avenue,94040,37.3708251,-122.0699063
963,Sleeper Avenue,94040,37.3713371,-122.0697678
22526,Sleeper Avenue,94040,37.3713397,-122.0691978
2215,Sun Mor Avenue,94040,37.3713273,-122.0700549
22544,Sleeper Avenue,94040,37.3713535,-122.0694685
22537,Redcliff Court,94040,37.3708139,-122.0694242
2317,Sun Mor Avenue,94040,37.3704124,-122.0699277
2345,Sun Mor Avenue,94040,37.3701986,-122.0698888
22527,Redcliff Court,94040,37.3709602,-122.0692355
22526,Redcliff Court,94040,37.3703900,-122.0692415
22550,Redcliff Court,94040,37.3705789,-122.0694594
13379,Pastel Lane,94040,37.3722397,-122.0692720
13395,Pastel Lane,94040,37.3724846,-122.0692878
13347,Pastel Lane,94040,37.3717858,-122.0693115
914,Sleeper Avenue,94040,37.3717996,-122.0696605
2446,Villa Nueva Way,94040,37.3688512,-122.0743985
2288,Latham Street,94040,37.3991683,-122.1050499
2275,Latham Street,94040,37.3983100,-122.1047269
2272,Latham Street,94040,37.3989902,-122.1043155
2280,Latham Street,94040,37.3991649,-122.1045524
2283,Latham Street,94040,37.3984187,-122.1050138
2272,Latham Street,94040,37.3992715,-122.1041115
191,East El Camino Real,94040,37.3778122,-122.0696224
191,East El Camino Real,94040,37.3755123,-122.0699671
191,East El Camino Real,94040,37.3759065,-122.0702104
191,East El Camino Real,94040,37.3781393,-122.0697899
191,East El Camino Real,94040,37.3767848,-122.0696383
191,East El Camino Real,94040,37.3759363,-122.0699887
191,East El Camino Real,94040,37.3763783,-122.0698574
191,East El Camino Real,94040,37.3759997,-122.0701596
191,East El Camino Real,94040,37.3774710,-122.0696454
191,East El Camino Real,94040,37.3760907,-122.0700545
191,East El Camino Real,94040,37.3758324,-122.0700399
191,East El Camino Real,94040,37.3771028,-122.0696606
191,East El Camino Real,94040,37.3773424,-122.0696526
191,East El Camino Real,94040,37.3762331,-122.0695659
191,East El Camino Real,94040,37.3756928,-122.0703576
191,East El Camino Real,94040,37.3761838,-122.0700040
191,East El Camino Real,94040,37.3758124,-122.0702820
191,East El Camino Real,94040,37.3775782,-122.0696119
191,East El Camino Real,94040,37.3756498,-122.0701779
191,East El Camino Real,94040,37.3755312,-122.0696382
191,East El Camino Real,94040,37.3770006,-122.0696606
191,East El Camino Real,94040,37.3760319,-122.0699065
191,East El Camino Real,94040,37.3756252,-122.0696832
191,East El Camino Real,94040,37.3776864,-122.0696056
191,East El Camino Real,94040,37.3766732,-122.0696138
191,East El Camino Real,94040,37.3772252,-122.0696641
191,East El Camino Real,94040,37.3757179,-122.0700019
191,East El Camino Real,94040,37.3782363,-122.0698445
191,East El Camino Real,94040,37.3762780,-122.0699179
191,East El Camino Real,94040,37.3764568,-122.0695945
191,East El Camino Real,94040,37.3780379,-122.0697378
191,East El Camino Real,94040,37.3756183,-122.0699773
191,East El Camino Real,94040,37.3761405,-122.0698364
191,East El Camino Real,94040,37.3753050,-122.0696171
191,East El Camino Real,94040,37.3760282,-122.0695539
191,East El Camino Real,94040,37.3765775,-122.0696131
191,East El Camino Real,94040,37.3758118,-122.0697071
191,East El Camino Real,94040,37.3779490,-122.0696773
191,East El Camino Real,94040,37.3757252,-122.0697015
191,East El Camino Real,94040,37.3754299,-122.0696815
191,East El Camino Real,94040,37.3768981,-122.0696387
191,East El Camino Real,94040,37.3761288,-122.0695559
191,East El Camino Real,94040,37.3763576,-122.0695803
2482,West El Camino Real,94040,37.3993562,-122.1092776
2496,West El Camino Real,94040,37.3995057,-122.1095113
191,East El Camino Real,94040,37.3765064,-122.0700774
191,East El Camino Real,94040,37.3762908,-122.0704613
191,East El Camino Real,94040,37.3761349,-122.0703559
191,East El Camino Real,94040,37.3764736,-122.0703179
191,East El Camino Real,94040,37.3761028,-122.0706031
191,East El Camino Real,94040,37.3769506,-122.0699431
191,East El Camino Real,94040,37.3768451,-122.0700289
191,East El Camino Real,94040,37.3758464,-122.0705897
191,East El Camino Real,94040,37.3766596,-122.0701755
191,East El Camino Real,94040,37.3767528,-122.0700920
191,East El Camino Real,94040,37.3758849,-122.0707472
191,East El Camino Real,94040,37.3764112,-122.0701451
191,East El Camino Real,94040,37.3760073,-122.0706741
191,East El Camino Real,94040,37.3760409,-122.0704416
191,East El Camino Real,94040,37.3762290,-122.0702983
191,East El Camino Real,94040,37.3759540,-122.0705045
191,East El Camino Real,94040,37.3766923,-122.0699404
191,East El Camino Real,94040,37.3761962,-122.0705471
191,East El Camino Real,94040,37.3763194,-122.0702234
191,East El Camino Real,94040,37.3767979,-122.0698967
191,East El Camino Real,94040,37.3765703,-122.0702451
191,East El Camino Real,94040,37.3766026,-122.0700134
191,East El Camino Real,94040,37.3763824,-122.0703985
191,East El Camino Real,94040,37.3760394,-122.0709944
191,East El Camino Real,94040,37.3760869,-122.0711415
191,East El Camino Real,94040,37.3762313,-122.0708555
191,East El Camino Real,94040,37.3765102,-122.0706244
191,East El Camino Real,94040,37.3763237,-122.0707662
191,East El Camino Real,94040,37.3764180,-122.0706996
191,East El Camino Real,94040,37.3761378,-122.0709005
191,East El Camino Real,94040,37.3766959,-122.0704809
191,East El Camino Real,94040,37.3766057,-122.0705413
191,East El Camino Real,94040,37.3779811,-122.0705863
191,East El Camino Real,94040,37.3776076,-122.0699219
191,East El Camino Real,94040,37.3773797,-122.0699565
191,East El Camino Real,94040,37.3766320,-122.0710935
191,East El Camino Real,94040,37.3762025,-122.0713946
191,East El Camino Real,94040,37.3782374,-122.0701713
191,East El Camino Real,94040,37.3778016,-122.0707222
191,East El Camino Real,94040,37.3771027,-122.0701795
191,East El Camino Real,94040,37.3769508,-122.0704990
191,East El Camino Real,94040,37.3767297,-122.0709797
191,East El Camino Real,94040,37.3776751,-122.0708431
191,East El Camino Real,94040,37.3765535,-122.0717370
191,East El Camino Real,94040,37.3769903,-122.0707718
191,East El Camino Real,94040,37.3780460,-122.0703111
191,East El Camino Real,94040,37.3765755,-122.0707869
191,East El Camino Real,94040,37.3774023,-122.0708786
191,East El Camino Real,94040,37.3768068,-122.0715385
191,East El Camino Real,94040,37.3783643,-122.0702842
191,East El Camino Real,94040,37.3764847,-122.0708561
191,East El Camino Real,94040,37.3773032,-122.0706766
191,East El Camino Real,94040,37.3770393,-122.0709189
191,East El Camino Real,94040,37.3773062,-122.0701451
191,East El Camino Real,94040,37.3780365,-122.0700655
191,East El Camino Real,94040,37.3764001,-122.0718294
191,East El Camino Real,94040,37.3773547,-122.0707743
191,East El Camino Real,94040,37.3774665,-122.0710156
191,East El Camino Real,94040,37.3779401,-122.0702594
191,East El Camino Real,94040,37.3773310,-122.0711179
191,East El Camino Real,94040,37.3763930,-122.0709302
191,East El Camino Real,94040,37.3781418,-122.0703645
191,East El Camino Real,94040,37.3765170,-122.0713310
191,East El Camino Real,94040,37.3768575,-122.0705568
191,East El Camino Real,94040,37.3763684,-122.0712830
191,East El Camino Real,94040,37.3779363,-122.0700238
191,East El Camino Real,94040,37.3776367,-122.0707342
191,East El Camino Real,94040,37.3774254,-122.0701538
191,East El Camino Real,94040,37.3767831,-122.0711344
191,East El Camino Real,94040,37.3765025,-122.0715938
191,East El Camino Real,94040,37.3767609,-122.0706390
191,East El Camino Real,94040,37.3766606,-122.0712821
191,East El Camino Real,94040,37.3771524,-122.0706814
191,East El Camino Real,94040,37.3767898,-122.0704108
191,East El Camino Real,94040,37.3769175,-122.0710933
191,East El Camino Real,94040,37.3771854,-122.0708882
191,East El Camino Real,94040,37.3771598,-122.0712460
191,East El Camino Real,94040,37.3767588,-122.0713864
191,East El Camino Real,94040,37.3777238,-122.0699130
191,East El Camino Real,94040,37.3768783,-122.0712293
191,East El Camino Real,94040,37.3766718,-122.0706981
191,East El Camino Real,94040,37.3776310,-122.0701324
191,East El Camino Real,94040,37.3770641,-122.0713368
191,East El Camino Real,94040,37.3768826,-122.0703340
191,East El Camino Real,94040,37.3782476,-122.0704012
191,East El Camino Real,94040,37.3766456,-122.0716363
191,East El Camino Real,94040,37.3774608,-122.0704322
191,East El Camino Real,94040,37.3775104,-122.0705297
191,East El Camino Real,94040,37.3768841,-122.0708770
191,East El Camino Real,94040,37.3770195,-122.0711885
191,East El Camino Real,94040,37.3772560,-122.0705611
191,East El Camino Real,94040,37.3772626,-122.0710172
191,East El Camino Real,94040,37.3778429,-122.0702193
191,East El Camino Real,94040,37.3774943,-122.0699387
191,East El Camino Real,94040,37.3777466,-122.0701446
191,East El Camino Real,94040,37.3769769,-122.0702597
191,East El Camino Real,94040,37.3770452,-122.0704239
191,East El Camino Real,94040,37.3764722,-122.0711747
191,East El Camino Real,94040,37.3769072,-122.0714315
191,East El Camino Real,94040,37.3764061,-122.0714817
191,East El Camino Real,94040,37.3772711,-122.0699783
191,East El Camino Real,94040,37.3766159,-122.0714298
191,East El Camino Real,94040,37.3762072,-122.0710774
191,East El Camino Real,94040,37.3781324,-122.0701252
191,East El Camino Real,94040,37.3762690,-122.0715055
191,East El Camino Real,94040,37.3778365,-122.0699541
191,East El Camino Real,94040,37.3771515,-122.0703443
191,East El Camino Real,94040,37.3778923,-122.0706500
191,East El Camino Real,94040,37.3771356,-122.0710357
191,East El Camino Real,94040,37.3775213,-122.0701361
191,East El Camino Real,94040,37.3763526,-122.0716316
191,East El Camino Real,94040,37.3762982,-122.0710021
191,East El Camino Real,94040,37.3775642,-122.0706307
191,East El Camino Real,94040,37.3769875,-122.0717196
191,East El Camino Real,94040,37.3759260,-122.0713516
191,East El Camino Real,94040,37.3764202,-122.0721666
191,East El Camino Real,94040,37.3784077,-122.0706103
191,East El Camino Real,94040,37.3754385,-122.0703675
191,East El Camino Real,94040,37.3783048,-122.0706927
191,East El Camino Real,94040,37.3785083,-122.0705296
191,East El Camino Real,94040,37.3780172,-122.0709071
191,East El Camino Real,94040,37.3786127,-122.0704435
191,East El Camino Real,94040,37.3776416,-122.0712066
191,East El Camino Real,94040,37.3787257,-122.0703485
191,East El Camino Real,94040,37.3756668,-122.0708104
191,East El Camino Real,94040,37.3767032,-122.0719442
191,East El Camino Real,94040,37.3760904,-122.0716826
191,East El Camino Real,94040,37.3773523,-122.0714242
191,East El Camino Real,94040,37.3753358,-122.0701525
191,East El Camino Real,94040,37.3781108,-122.0708365
191,East El Camino Real,94040,37.3763204,-122.0722210
191,East El Camino Real,94040,37.3750713,-122.0695848
191,East El Camino Real,94040,37.3777364,-122.0711231
191,East El Camino Real,94040,37.3775474,-122.0712827
191,East El Camino Real,94040,37.3762452,-122.0720289
191,East El Camino Real,94040,37.3784688,-122.0698251
191,East El Camino Real,94040,37.3767983,-122.0718688
191,East El Camino Real,94040,37.3751184,-122.0697080
191,East El Camino Real,94040,37.3759839,-122.0714714
191,East El Camino Real,94040,37.3779235,-122.0709863
191,East El Camino Real,94040,37.3778303,-122.0710555
191,East El Camino Real,94040,37.3768914,-122.0717892
191,East El Camino Real,94040,37.3774569,-122.0713549
191,East El Camino Real,94040,37.3758711,-122.0712456
191,East El Camino Real,94040,37.3770806,-122.0716506
191,East El Camino Real,94040,37.3751717,-122.0698230
191,East El Camino Real,94040,37.3765156,-122.0720929
191,East El Camino Real,94040,37.3755947,-122.0706984
191,East El Camino Real,94040,37.3758180,-122.0711449
191,East El Camino Real,94040,37.3754912,-122.0704767
191,East El Camino Real,94040,37.3760381,-122.0715830
191,East El Camino Real,94040,37.3752388,-122.0699306
191,East El Camino Real,94040,37.3766099,-122.0720187
191,East El Camino Real,94040,37.3772615,-122.0715096
191,East El Camino Real,94040,37.3782126,-122.0707586
191,East El Camino Real,94040,37.3755507,-122.0705875
191,East El Camino Real,94040,37.3753901,-122.0702589
191,East El Camino Real,94040,37.3757100,-122.0709149
191,East El Camino Real,94040,37.3761587,-122.0717961
191,East El Camino Real,94040,37.3761956,-122.0719109
191,East El Camino Real,94040,37.3757688,-122.0710279
191,East El Camino Real,94040,37.3752795,-122.0700391
783,Alice Avenue,94041,37.3809238,-122.0667332
2340,Carol Avenue,94040,37.3703890,-122.0753424
2337,Carol Avenue,94040,37.3705342,-122.0748369
2322,Carol Avenue,94040,37.3709655,-122.0751491
2316,Carol Avenue,94040,37.3711523,-122.0751533
2334,Carol Avenue,94040,37.3705907,-122.0753199
2328,Carol Avenue,94040,37.3707833,-122.0752018
2310,Carol Avenue,94040,37.3713462,-122.0750333
2346,Carol Avenue,94040,37.3701964,-122.0753369
2352,Carol Avenue,94040,37.3700076,-122.0753385
2343,Carol Avenue,94040,37.3702677,-122.0748377
305,South Drive,94040,37.3670338,-122.0815429
13220,Franklin Avenue,94040,37.3699624,-122.0681084
13196,Franklin Avenue,94040,37.3696191,-122.0681431
13221,Franklin Avenue,94040,37.3700727,-122.0685826
22508,Redcliff Court,94040,37.3704673,-122.0688958
2379,Sun Mor Avenue,94040,37.3700099,-122.0698652
13251,Franklin Avenue,94040,37.3704703,-122.0686202
13250,Franklin Avenue,94040,37.3704281,-122.0680933
13115,Franklin Avenue,94040,37.3686611,-122.0686318
13135,Franklin Avenue,94040,37.3689020,-122.0686195
13191,Franklin Avenue,94040,37.3696012,-122.0686642
13175,Franklin Avenue,94040,37.3694052,-122.0686296
13155,Franklin Avenue,94040,37.3691449,-122.0686173
13085,Franklin Avenue,94040,37.3681869,-122.0686248
13095,Franklin Avenue,94040,37.3684143,-122.0686226
2554,Katrina Way,94040,37.3664471,-122.0684633
2566,Katrina Way,94040,37.3662286,-122.0684797
2518,Katrina Way,94040,37.3673038,-122.0684554
2508,Katrina Way,94040,37.3677766,-122.0685485
2578,Katrina Way,94040,37.3660292,-122.0684689
2522,Katrina Way,94040,37.3670867,-122.0684689
2544,Katrina Way,94040,37.3666516,-122.0684505
2536,Katrina Way,94040,37.3668820,-122.0684526
2512,Katrina Way,94040,37.3675475,-122.0684509
2504,Katrina Way,94040,37.3679621,-122.0686169
2505,Katrina Way,94040,37.3677502,-122.0679983
13098,Franklin Avenue,94040,37.3681742,-122.0680891
13152,Franklin Avenue,94040,37.3688389,-122.0680239
2575,Katrina Way,94040,37.3660333,-122.0679287
13116,Franklin Avenue,94040,37.3683892,-122.0680124
2537,Katrina Way,94040,37.3668976,-122.0679684
2541,Katrina Way,94040,37.3667226,-122.0679305
2555,Katrina Way,94040,37.3664364,-122.0679753
2511,Katrina Way,94040,37.3675427,-122.0679406
2567,Katrina Way,94040,37.3662299,-122.0679313
13134,Franklin Avenue,94040,37.3686163,-122.0681085
2503,Katrina Way,94040,37.3679688,-122.0680378
13162,Franklin Avenue,94040,37.3691356,-122.0681361
2525,Katrina Way,94040,37.3671059,-122.0679253
2517,Katrina Way,94040,37.3673331,-122.0679506
270,Apricot Lane,94040,37.3618989,-122.0766713
281,Apricot Lane,94040,37.3623806,-122.0761832
2349,Carol Avenue,94040,37.3700136,-122.0748267
2380,Sun Mor Avenue,94040,37.3700137,-122.0703969
13348,Pastel Lane,94040,37.3718096,-122.0687296
22508,Sleeper Avenue,94040,37.3713326,-122.0688966
13321,Franklin Avenue,94040,37.3713185,-122.0686248
13291,Franklin Avenue,94040,37.3709425,-122.0686250
13366,Pastel Lane,94040,37.3720552,-122.0687442
13400,Pastel Lane,94040,37.3725496,-122.0687431
992,Sleeper Avenue,94040,37.3719982,-122.0684011
13288,Franklin Avenue,94040,37.3709090,-122.0680483
13384,Pastel Lane,94040,37.3722968,-122.0687631
707,Continental Circle,94040,37.3746059,-122.0661477
707,Continental Circle,94040,37.3754393,-122.0668732
707,Continental Circle,94040,37.3755271,-122.0665960
707,Continental Circle,94040,37.3743087,-122.0663278
707,Continental Circle,94040,37.3748689,-122.0657450
707,Continental Circle,94040,37.3739231,-122.0651396
707,Continental Circle,94040,37.3745233,-122.0636522
707,Continental Circle,94040,37.3738466,-122.0644702
707,Continental Circle,94040,37.3731950,-122.0642596
707,Continental Circle,94040,37.3733288,-122.0646510
707,Continental Circle,94040,37.3739276,-122.0639002
707,Continental Circle,94040,37.3744420,-122.0642570
707,Continental Circle,94040,37.3736570,-122.0655650
707,Continental Circle,94040,37.3736025,-122.0641082
102,Gibbs Court,94040,37.3599915,-122.0775254
106,Gibbs Court,94040,37.3599979,-122.0772709
221,Bryant Avenue,94040,37.3609209,-122.0766423
110,Gibbs Court,94040,37.3600270,-122.0770160
840,East El Camino Real,94040,37.3765409,-122.0615843
860,East El Camino Real,94040,37.3762770,-122.0609477
260,Escuela Avenue,94040,37.3993545,-122.0953136
266,Escuela Avenue,94040,37.3988371,-122.0942453
1725,Wright Avenue,94043,37.3999372,-122.0872725
1725,Wright Avenue,94043,37.3999283,-122.0877316
1725,Wright Avenue,94043,37.4003426,-122.0875879
100,Granada Drive,94043,37.3992972,-122.0862436
1734,West El Camino Real,94040,37.3921666,-122.0937581
1734,West El Camino Real,94040,37.3922980,-122.0942190
1734,West El Camino Real,94040,37.3920466,-122.0937884
1605,Villa Street,94041,37.3973374,-122.0883400
120,Granada Drive,94043,37.3997885,-122.0868287
2043,West El Camino Real,94040,37.3940879,-122.1007340
234,Escuela Avenue,94040,37.4001969,-122.0944743
1901,Rock Street,94043,37.4120356,-122.0872324
1901,Rock Street,94043,37.4120179,-122.0869118
1901,Rock Street,94043,37.4120268,-122.0870721
1901,Rock Street,94043,37.4120312,-122.0871523
1901,Rock Street,94043,37.4120223,-122.0869919
1602,Spring Street,94043,37.4129865,-122.0818263
1972,Rock Street,94043,37.4129413,-122.0904368
757,San Clemente Way,94043,37.4046650,-122.0815426
736,Vaquero Drive,94043,37.4042274,-122.0804037
747,San Clemente Way,94043,37.4044827,-122.0815874
787,San Clemente Way,94043,37.4051934,-122.0814149
731,Ormonde Drive,94043,37.4042527,-122.0807335
756,Vaquero Drive,94043,37.4045462,-122.0803014
771,Ormonde Drive,94043,37.4049788,-122.0805659
1341,Ormonde Way,94043,37.4040657,-122.0815408
790,San Clemente Way,94043,37.4051584,-122.0819781
1351,Ormonde Way,94043,37.4040745,-122.0817560
762,Ormonde Drive,94043,37.4048073,-122.0811576
761,Ormonde Drive,94043,37.4047714,-122.0806015
767,San Clemente Way,94043,37.4048477,-122.0814785
772,Ormonde Drive,94043,37.4049709,-122.0811142
1371,Ormonde Way,94043,37.4040992,-122.0821919
1361,Ormonde Way,94043,37.4040902,-122.0819649
741,Ormonde Drive,94043,37.4044304,-122.0806745
721,Ormonde Drive,94043,37.4040629,-122.0808640
777,San Clemente Way,94043,37.4050195,-122.0814519
750,San Clemente Way,94043,37.4045055,-122.0821134
1381,Ormonde Way,94043,37.4041249,-122.0824180
906,Vaquero Drive,94043,37.4050957,-122.0801611
911,Ormonde Drive,94043,37.4051446,-122.0805000
770,San Clemente Way,94043,37.4048301,-122.0820659
760,San Clemente Way,94043,37.4046738,-122.0821040
1388,San Domar Drive,94043,37.4038673,-122.0824957
726,Vaquero Drive,94043,37.4040597,-122.0804438
746,Vaquero Drive,94043,37.4043880,-122.0803477
751,Ormonde Drive,94043,37.4045981,-122.0806701
752,Ormonde Drive,94043,37.4046465,-122.0812034
1331,Ormonde Way,94043,37.4040619,-122.0813242
782,Ormonde Drive,94043,37.4051312,-122.0810562
800,Vaquero Drive,94043,37.4049224,-122.0801991
1391,Ormonde Way,94043,37.4041586,-122.0826417
766,Vaquero Drive,94043,37.4047094,-122.0802652
780,San Clemente Way,94043,37.4049938,-122.0820137
742,Ormonde Drive,94043,37.4044738,-122.0812332
1321,Ormonde Way,94043,37.4040536,-122.0811125
2210,Rock Street,94043,37.4129374,-122.0947483
2210,Rock Street,94043,37.4130925,-122.0947702
2210,Rock Street,94043,37.4131157,-122.0951539
2210,Rock Street,94043,37.4134293,-122.0949736
2210,Rock Street,94043,37.4134175,-122.0947796
2210,Rock Street,94043,37.4132803,-122.0951388
2210,Rock Street,94043,37.4134422,-122.0951794
2210,Rock Street,94043,37.4129622,-122.0951662
2462,Rock Street,94043,37.4132899,-122.0985295
721,Independence Avenue,94043,37.4133880,-122.0972366
2410,Rock Street,94043,37.4130848,-122.0979545
753,Independence Avenue,94043,37.4140401,-122.0972330
2223,Raspberry Lane,94043,37.4129086,-122.0957581
2462,Rock Street,94043,37.4136524,-122.0984948
2434,Rock Street,94043,37.4130443,-122.0982295
745,Independence Avenue,94043,37.4138766,-122.0972451
2434,Rock Street,94043,37.4134318,-122.0981845
1310,San Domar Drive,94043,37.4037722,-122.0807982
1320,San Domar Drive,94043,37.4037851,-122.0810102
1330,San Domar Drive,94043,37.4037855,-122.0812295
1340,San Domar Drive,94043,37.4037998,-122.0814370
1350,San Domar Drive,94043,37.4038058,-122.0816533
1380,San Domar Drive,94043,37.4038612,-122.0822916
706,Vaquero Drive,94043,37.4037271,-122.0805177
1360,San Domar Drive,94043,37.4038135,-122.0818651
716,Vaquero Drive,94043,37.4038958,-122.0804898
1370,San Domar Drive,94043,37.4038237,-122.0820821
2101,Rock Street,94043,37.4123602,-122.0928746
2110b,West Middlefield Road,94043,37.4118846,-122.0928892
2125,Rock Street,94043,37.4122895,-122.0935609
2120a,West Middlefield Road,94043,37.4120427,-122.0934707
2121,Rock Street,94043,37.4123902,-122.0933120
1896,San Ramon Avenue,94043,37.4089118,-122.0867027
1796,San Ramon Avenue,94043,37.4088902,-122.0858068
1224,Burgoyne Street,94043,37.4089240,-122.0853806
1813,West Middlefield Road,94043,37.4093097,-122.0859193
1824,San Ramon Avenue,94043,37.4088724,-122.0860062
1246,Burgoyne Street,94043,37.4090925,-122.0853415
1202,Burgoyne Street,94043,37.4087670,-122.0854494
1229,Farley Street,94043,37.4090715,-122.0868767
1778,San Ramon Avenue,94043,37.4088320,-122.0856629
1873,West Middlefield Road,94043,37.4093836,-122.0867915
1842,San Ramon Avenue,94043,37.4088822,-122.0861759
1878,San Ramon Avenue,94043,37.4089398,-122.0865046
1825,West Middlefield Road,94043,37.4093429,-122.0861762
1801,West Middlefield Road,94043,37.4092647,-122.0853688
1849,West Middlefield Road,94043,37.4093814,-122.0865694
1837,West Middlefield Road,94043,37.4093598,-122.0863835
1841,Burgoyne Street,94043,37.4070203,-122.0870949
1859,San Ramon Avenue,94043,37.4084620,-122.0864844
1127,Farley Street,94043,37.4082740,-122.0872193
959,Farley Street,94043,37.4071949,-122.0876480
1874,Drew Avenue,94043,37.4081997,-122.0867992
932,Burgoyne Street,94043,37.4064665,-122.0860809
1837,Drew Avenue,94043,37.4077083,-122.0865757
1856,Drew Avenue,94043,37.4081724,-122.0866154
1010,Burgoyne Street,94043,37.4071334,-122.0858779
1766,Drew Avenue,94043,37.4080479,-122.0859076
1039,Farley Street,94043,37.4077372,-122.0874343
1877,San Ramon Avenue,94043,37.4084539,-122.0866750
1840,Burgoyne Street,94043,37.4074460,-122.0868871
954,Burgoyne Street,94043,37.4066469,-122.0860402
1782,Burgoyne Street,94043,37.4072798,-122.0863267
1136,Burgoyne Street,94043,37.4080947,-122.0856160
1873,Drew Avenue,94043,37.4077852,-122.0869446
1823,San Ramon Avenue,94043,37.4084186,-122.0861453
1864,Burgoyne Street,94043,37.4075543,-122.0872565
1158,Burgoyne Street,94043,37.4082439,-122.0855717
1820,Drew Avenue,94043,37.4080848,-122.0862658
1829,Burgoyne Street,94043,37.4069755,-122.0869220
1865,Burgoyne Street,94043,37.4071206,-122.0874233
1892,Drew Avenue,94043,37.4082249,-122.0869604
1054,Burgoyne Street,94043,37.4074569,-122.0858086
1785,Burgoyne Street,94043,37.4068736,-122.0865850
1816,Burgoyne Street,94043,37.4073274,-122.0865004
1819,Drew Avenue,94043,37.4076811,-122.0863981
1032,Burgoyne Street,94043,37.4073005,-122.0858494
1783,Drew Avenue,94043,37.4076309,-122.0861923
1180,Burgoyne Street,94043,37.4083897,-122.0855423
1151,Farley Street,94043,37.4084060,-122.0871726
1061,Farley Street,94043,37.4078890,-122.0873725
1765,Drew Avenue,94043,37.4076067,-122.0860249
937,Farley Street,94043,37.4070555,-122.0877194
1828,Burgoyne Street,94043,37.4073980,-122.0866891
1761,Burgoyne Street,94043,37.4068189,-122.0862441
1768,Burgoyne Street,94043,37.4072279,-122.0861049
915,Farley Street,94043,37.4068989,-122.0877538
1838,Drew Avenue,94043,37.4081355,-122.0864483
1853,Burgoyne Street,94043,37.4070598,-122.0872658
1841,San Ramon Avenue,94043,37.4084333,-122.0863227
1775,San Ramon Avenue,94043,37.4083543,-122.0857976
1784,Drew Avenue,94043,37.4080582,-122.0860804
910,Burgoyne Street,94043,37.4063227,-122.0860878
1891,Drew Avenue,94043,37.4078135,-122.0871402
976,Burgoyne Street,94043,37.4067843,-122.0859859
1855,Drew Avenue,94043,37.4077365,-122.0867672
1076,Burgoyne Street,94043,37.4076035,-122.0857587
1817,Burgoyne Street,94043,37.4069524,-122.0867509
1793,San Ramon Avenue,94043,37.4083909,-122.0859938
1852,Burgoyne Street,94043,37.4074801,-122.0870815
752,Burgoyne Street,94043,37.4050748,-122.0864787
813,Farley Street,94043,37.4062323,-122.0880465
836,Burgoyne Street,94043,37.4058071,-122.0862590
739,Farley Street,94043,37.4057184,-122.0882813
711,Farley Street,94043,37.4055500,-122.0883271
1067,Burgoyne Street,94043,37.4073492,-122.0852847
979,Burgoyne Street,94043,37.4066581,-122.0854968
1191,Burgoyne Street,94043,37.4083174,-122.0850066
1045,Burgoyne Street,94043,37.4072150,-122.0853241
1103,Burgoyne Street,94043,37.4077674,-122.0851123
1125,Burgoyne Street,94043,37.4079109,-122.0851320
1227,Burgoyne Street,94043,37.4088056,-122.0848797
1205,Burgoyne Street,94043,37.4086751,-122.0849089
1001,Burgoyne Street,94043,37.4069318,-122.0853924
987,Burgoyne Street,94043,37.4067856,-122.0854269
1023,Burgoyne Street,94043,37.4070595,-122.0853667
957,Burgoyne Street,94043,37.4065150,-122.0855020
935,Burgoyne Street,94043,37.4063654,-122.0855506
1089,Burgoyne Street,94043,37.4074784,-122.0852556
1441,San Marcos Circle,94043,37.4061973,-122.0836566
960,San Marcos Circle,94043,37.4076986,-122.0847819
915,San Marcos Circle,94043,37.4061142,-122.0830252
1447,San Marcos Circle,94043,37.4062552,-122.0838564
910,San Pierre Way,94043,37.4057313,-122.0827125
910,San Marcos Circle,94043,37.4068775,-122.0850641
920,San Marcos Circle,94043,37.4070387,-122.0850143
801,Burgoyne Street,94043,37.4054566,-122.0858228
1454,San Marcos Circle,94043,37.4067355,-122.0841222
1460,San Marcos Circle,94043,37.4067797,-122.0843403
1448,San Marcos Circle,94043,37.4067010,-122.0839138
981,San Marcos Circle,94043,37.4077096,-122.0841587
1466,San Marcos Circle,94043,37.4068226,-122.0845614
1477,San Marcos Circle,94043,37.4064085,-122.0849324
930,San Marcos Circle,94043,37.4072113,-122.0849818
1471,San Marcos Circle,94043,37.4063907,-122.0846692
845,Burgoyne Street,94043,37.4057413,-122.0857231
745,Burgoyne Street,94043,37.4048942,-122.0859722
951,San Marcos Circle,94043,37.4071882,-122.0843974
1465,San Marcos Circle,94043,37.4063424,-122.0844704
950,San Marcos Circle,94043,37.4075424,-122.0848672
920,San Pierre Way,94043,37.4059039,-122.0826682
961,San Marcos Circle,94043,37.4073795,-122.0843529
1435,San Marcos Circle,94043,37.4061751,-122.0834556
980,San Marcos Circle,94043,37.4079804,-122.0845863
1442,San Marcos Circle,94043,37.4066649,-122.0837092
823,Burgoyne Street,94043,37.4055898,-122.0857757
1515,San Ramon Avenue,94043,37.4082186,-122.0847108
793,Burgoyne Street,94043,37.4053152,-122.0858387
991,San Marcos Circle,94043,37.4078242,-122.0840148
902,San Marcos Circle,94043,37.4065103,-122.0851488
971,San Marcos Circle,94043,37.4075389,-122.0842918
1429,San Marcos Circle,94043,37.4061229,-122.0832463
1430,San Marcos Circle,94043,37.4065844,-122.0832743
767,Burgoyne Street,94043,37.4050518,-122.0859289
940,San Marcos Circle,94043,37.4073825,-122.0849211
990,San Marcos Circle,94043,37.4081134,-122.0844488
1459,San Marcos Circle,94043,37.4063287,-122.0842708
906,San Marcos Circle,94043,37.4067191,-122.0851092
970,San Marcos Circle,94043,37.4078512,-122.0846944
1453,San Marcos Circle,94043,37.4062800,-122.0840649
1436,San Marcos Circle,94043,37.4066316,-122.0834903
986,San Ramon Court,94043,37.4076610,-122.0836774
968,San Marcos Circle,94043,37.4071393,-122.0829712
965,San Marcos Circle,94043,37.4068916,-122.0825136
948,San Marcos Circle,94043,37.4068139,-122.0832085
966,San Ramon Court,94043,37.4073846,-122.0839146
976,San Ramon Court,94043,37.4075259,-122.0837685
950,San Pierre Way,94043,37.4063963,-122.0824280
958,San Marcos Circle,94043,37.4069645,-122.0830937
946,San Ramon Court,94043,37.4070239,-122.0839699
985,San Ramon Court,94043,37.4074275,-122.0831798
956,San Ramon Court,94043,37.4072319,-122.0840227
980,San Pierre Way,94043,37.4068973,-122.0820969
925,San Marcos Circle,94043,37.4062588,-122.0828474
935,San Marcos Circle,94043,37.4064500,-122.0827848
970,San Pierre Way,94043,37.4067369,-122.0822319
945,San Marcos Circle,94043,37.4066023,-122.0826791
955,San Ramon Court,94043,37.4069744,-122.0834886
975,San Ramon Court,94043,37.4072853,-122.0832928
978,San Marcos Circle,94043,37.4072690,-122.0828616
930,San Pierre Way,94043,37.4060816,-122.0825860
940,San Pierre Way,94043,37.4062366,-122.0825219
965,San Ramon Court,94043,37.4071352,-122.0833669
960,San Pierre Way,94043,37.4065593,-122.0823364
955,San Marcos Circle,94043,37.4067488,-122.0826100
947,San Clemente Way,94043,37.4058393,-122.0811656
985,San Pierre Way,94043,37.4066840,-122.0816367
945,San Pierre Way,94043,37.4060670,-122.0820212
915,San Pierre Way,94043,37.4055844,-122.0822064
937,San Clemente Way,94043,37.4056695,-122.0812428
965,San Pierre Way,94043,37.4063776,-122.0818481
955,San Pierre Way,94043,37.4062245,-122.0819384
957,San Clemente Way,94043,37.4059965,-122.0810780
907,San Clemente Way,94043,37.4053518,-122.0813592
930,San Clemente Way,94043,37.4057049,-122.0817847
950,San Clemente Way,94043,37.4060444,-122.0816349
940,San Clemente Way,94043,37.4058696,-122.0817583
975,San Pierre Way,94043,37.4065293,-122.0817511
920,San Clemente Way,94043,37.4055386,-122.0818671
967,San Clemente Way,94043,37.4061396,-122.0809872
960,San Clemente Way,94043,37.4061981,-122.0815549
935,San Pierre Way,94043,37.4059032,-122.0820939
927,San Clemente Way,94043,37.4055198,-122.0812993
925,San Pierre Way,94043,37.4057358,-122.0821514
977,San Clemente Way,94043,37.4062842,-122.0808822
970,San Clemente Way,94043,37.4063746,-122.0814429
910,San Clemente Way,94043,37.4053686,-122.0819165
980,San Clemente Way,94043,37.4065257,-122.0813450
926,Vaquero Drive,94043,37.4054425,-122.0800311
946,Vaquero Drive,94043,37.4057656,-122.0798272
951,Ormonde Drive,94043,37.4057735,-122.0802134
941,Ormonde Drive,94043,37.4056182,-122.0803123
961,Ormonde Drive,94043,37.4059265,-122.0801097
932,Ormonde Drive,94043,37.4058138,-122.0807963
931,Ormonde Drive,94043,37.4054668,-122.0803780
916,Vaquero Drive,94043,37.4052774,-122.0800784
922,Ormonde Drive,94043,37.4056475,-122.0808791
912,Ormonde Drive,94043,37.4054831,-122.0809622
942,Ormonde Drive,94043,37.4059951,-122.0806843
902,Ormonde Drive,94043,37.4053194,-122.0809941
952,Ormonde Drive,94043,37.4061464,-122.0805788
157-164,North Shoreline Boulevard,94043,37.4072035,-122.0810287
149-156,North Shoreline Boulevard,94043,37.4071239,-122.0806728
165-172,North Shoreline Boulevard,94043,37.4068442,-122.0810230
133-140,North Shoreline Boulevard,94043,37.4068096,-122.0802125
173-180,North Shoreline Boulevard,94043,37.4069302,-122.0812026
141-148,North Shoreline Boulevard,94043,37.4069276,-122.0804576
335,Stierlin Road,94043,37.3990780,-122.0778615
339,Stierlin Road,94043,37.3992609,-122.0778393
333,Stierlin Road,94043,37.3987267,-122.0777780
860,Jackson Street,94043,37.3976198,-122.0776479
833,Central Avenue,94043,37.3977639,-122.0771823
893,Central Avenue,94043,37.3980641,-122.0779202
841,Jackson Street,94043,37.3972551,-122.0776978
877,Central Avenue,94043,37.3979411,-122.0776319
848,Jackson Street,94043,37.3975647,-122.0775024
865,Central Avenue,94043,37.3978534,-122.0774642
824,Jackson Street,94043,37.3974350,-122.0771917
889,Central Avenue,94043,37.3980098,-122.0777613
821,Central Avenue,94043,37.3976861,-122.0770024
829,Jackson Street,94043,37.3971665,-122.0774987
313,Stierlin Road,94043,37.3979294,-122.0779025
260,Moffett Boulevard,94043,37.3973410,-122.0769468
284a;284b,Moffett Boulevard,94043,37.3976378,-122.0767856
836,Jackson Street,94043,37.3975080,-122.0773748
285,Stierlin Road,94043,37.3973242,-122.0778753
309,Stierlin Road,94043,37.3977955,-122.0779332
250,Stierlin Road,94043,37.3973596,-122.0783268
898,Washington Street,94043,37.3972571,-122.0794124
240,Stierlin Road,94043,37.3974061,-122.0785295
857,Washington Street,94043,37.3968495,-122.0792790
875,Washington Street,94043,37.3969223,-122.0794228
823,Washington Street,94043,37.3966675,-122.0790150
914,Washington Street,94043,37.3974818,-122.0799313
221,Elmwood Street,94043,37.3974910,-122.0792664
196c,Elmwood Street,94043,37.3972020,-122.0800213
813,Washington Street,94043,37.3966015,-122.0788515
163,Elmwood Street,94043,37.3968041,-122.0796800
839,Washington Street,94043,37.3968303,-122.0791043
855,Jackson Street,94043,37.3977235,-122.0787420
285,Elmwood Street,94043,37.3976552,-122.0791055
875,Jackson Street,94043,37.3978361,-122.0790202
862,Jackson Alley,94043,37.3975674,-122.0788678
831,Jackson Street,94043,37.3976705,-122.0785774
838,Jackson Alley,94043,37.3975189,-122.0786602
896,Washington Street,94043,37.3972478,-122.0792488
865,Jackson Street,94043,37.3977789,-122.0788828
868,Washington Street,94043,37.3971112,-122.0789399
196,Elmwood Street,94043,37.3971426,-122.0799316
916;918;920,Washington Street,94043,37.3976412,-122.0800030
174;176;178,Elmwood Street,94043,37.3969707,-122.0800559
278,Stierlin Road,94043,37.3975817,-122.0784022
891,Washington Street,94043,37.3969915,-122.0795772
880,Washington Street,94043,37.3971587,-122.0790840
400,Stierlin Road,94043,37.3995124,-122.0783733
802,Fountain Park Lane,94043,37.3984550,-122.0785701
812,Fountain Park Lane,94043,37.3984202,-122.0794858
928,Wright Avenue,94043,37.3990773,-122.0800111
937,Jackson Street,94043,37.3982130,-122.0800234
931,Jackson Alley,94043,37.3979870,-122.0800300
932,Jackson Street,94043,37.3985657,-122.0797405
810,Fountain Park Lane,94043,37.3986196,-122.0793218
404,Stierlin Road,94043,37.3997373,-122.0786233
298,Elmwood Street,94043,37.3980319,-122.0794528
260,Elmwood Street,94043,37.3977998,-122.0794909
408,Stierlin Road,94043,37.3997494,-122.0783719
927,Jackson Street,94043,37.3980597,-122.0797422
808,Fountain Park Lane,94043,37.3985772,-122.0791206
804,Fountain Park Lane,94043,37.3985067,-122.0787515
931,Jackson Street,94043,37.3981626,-122.0798837
952,Jackson Street,94043,37.3987159,-122.0801130
800,Fountain Park Lane,94043,37.3984126,-122.0783843
942,Jackson Street,94043,37.3986146,-122.0799684
806,Fountain Park Lane,94043,37.3985474,-122.0789423
65-72,North Shoreline Boulevard,94043,37.4057723,-122.0793146
89-96,North Shoreline Boulevard,94043,37.4062589,-122.0789925
81-88,North Shoreline Boulevard,94043,37.4060592,-122.0791503
109-112,North Shoreline Boulevard,94043,37.4065237,-122.0794367
113-120,North Shoreline Boulevard,94043,37.4066621,-122.0796889
105-108,North Shoreline Boulevard,94043,37.4063986,-122.0791818
121-128,North Shoreline Boulevard,94043,37.4063016,-122.0798031
97-104,North Shoreline Boulevard,94043,37.4061139,-122.0794233
73-80,North Shoreline Boulevard,94043,37.4057410,-122.0790415
820,San Lucas Avenue,94043,37.4045980,-122.0732442
737,Vaquero Drive,94043,37.4041118,-122.0798449
735,Vaquero Drive,94043,37.4040332,-122.0798678
717,Vaquero Drive,94043,37.4037480,-122.0799436
715,Vaquero Drive,94043,37.4036674,-122.0799666
725,Vaquero Drive,94043,37.4038470,-122.0799028
727,Vaquero Drive,94043,37.4039250,-122.0798800
745,Vaquero Drive,94043,37.4042154,-122.0798153
747,Vaquero Drive,94043,37.4042934,-122.0797934
711,Vaquero Drive,94043,37.4035095,-122.0799695
1297,Mountain Shadows Drive,94043,37.4044420,-122.0798280
707,Vaquero Drive,94043,37.4032566,-122.0800507
13-20,North Shoreline Boulevard,94043,37.4047904,-122.0785940
41-48,North Shoreline Boulevard,94043,37.4050977,-122.0792019
37-40,North Shoreline Boulevard,94043,37.4050189,-122.0794259
21-28,North Shoreline Boulevard,94043,37.4047310,-122.0789290
29-36,North Shoreline Boulevard,94043,37.4047793,-122.0793405
776,Winston Place,94043,37.4047512,-122.0662931
681,Leong Drive,94043,37.4037672,-122.0680225
888,San Carrizo Way,94043,37.4060863,-122.0723888
768,San Carlos Avenue,94043,37.4050592,-122.0718030
1-4,North Shoreline Boulevard,94043,37.4054031,-122.0784655
5-12,North Shoreline Boulevard,94043,37.4053091,-122.0786747
49-56,North Shoreline Boulevard,94043,37.4054374,-122.0793155
57-64,North Shoreline Boulevard,94043,37.4054579,-122.0789822
319,North Bernardo Avenue,94043,37.3874477,-122.0475809
433,Burgoyne Street,94043,37.4028775,-122.0865246
180,Beatrice Street,94043,37.4008479,-122.0888678
459,Burgoyne Street,94043,37.4030163,-122.0864906
292,Beatrice Street,94043,37.4020982,-122.0885334
723,Burgoyne Street,94043,37.4047628,-122.0860076
153,Bonny Street,94043,37.4007299,-122.0893812
267,Bonny Street,94043,37.4019095,-122.0889596
139,Farley Street,94043,37.4009059,-122.0902887
291,Bonny Street,94043,37.4022244,-122.0888192
1309,San Domar Drive,94043,37.4033705,-122.0806161
1385,San Domar Drive,94043,37.4033559,-122.0825700
141,Bonny Street,94043,37.4005842,-122.0894248
156,Beatrice Street,94043,37.4005619,-122.0889846
245,Farley Street,94043,37.4019074,-122.0898907
491,Burgoyne Street,94043,37.4031507,-122.0864514
1355,San Domar Drive,94043,37.4033037,-122.0819197
409,Burgoyne Street,94043,37.4026044,-122.0866063
357,Burgoyne Street,94043,37.4021925,-122.0867444
243,Bonny Street,94043,37.4015754,-122.0890689
254,Bonny Street,94043,37.4019561,-122.0894906
154,Bonny Street,94043,37.4009016,-122.0898965
127,Farley Street,94043,37.4007778,-122.0903244
535,Burgoyne Street,94043,37.4034217,-122.0864149
255,Bonny Street,94043,37.4017344,-122.0890077
278,Bonny Street,94043,37.4022660,-122.0893820
295,Farley Street,94043,37.4025297,-122.0895837
266,Bonny Street,94043,37.4021021,-122.0894414
389,Burgoyne Street,94043,37.4023332,-122.0866805
645,Burgoyne Street,94043,37.4043448,-122.0861091
165,Bonny Street,94043,37.4008599,-122.0893437
567,Burgoyne Street,94043,37.4035633,-122.0863392
166,Bonny Street,94043,37.4010393,-122.0898547
589,Burgoyne Street,94043,37.4037122,-122.0863061
203,Farley Street,94043,37.4017409,-122.0899081
161,Farley Street,94043,37.4010409,-122.0902243
421,Burgoyne Street,94043,37.4027348,-122.0865725
279,Bonny Street,94043,37.4020625,-122.0888823
623,Burgoyne Street,94043,37.4041959,-122.0861541
1315;1317;1319,San Domar Drive,94043,37.4032532,-122.0808452
191,Bonny Street,94043,37.4011785,-122.0892232
315,Burgoyne Street,94043,37.4020363,-122.0867674
142,Bonny Street,94043,37.4007669,-122.0899510
256,Beatrice Street,94043,37.4016530,-122.0886793
268,Beatrice Street,94043,37.4017964,-122.0886547
1339;1341,San Domar Drive,94043,37.4032948,-122.0814846
1331;1333,San Domar Drive,94043,37.4032843,-122.0812811
1347;1349,San Domar Drive,94043,37.4033009,-122.0816892
1323;1325,San Domar Drive,94043,37.4032748,-122.0810746
626,Burgoyne Street,94043,37.4043486,-122.0866507
281,Farley Street,94043,37.4023786,-122.0896566
1903,Montecito Avenue,94043,37.4043289,-122.0900883
187,Bonny Street,94043,37.4009953,-122.0892829
667,Burgoyne Street,94043,37.4044904,-122.0861029
1309,San Domar Drive,94043,37.4031928,-122.0805946
290,Bonny Street,94043,37.4024163,-122.0893259
128,Bonny Street,94043,37.4006417,-122.0900102
1909,Montecito Avenue,94043,37.4036914,-122.0904018
168,Beatrice Street,94043,37.4007053,-122.0889298
188,Bonny Street,94043,37.4011791,-122.0897619
280,Beatrice Street,94043,37.4019312,-122.0885887
1371,San Domar Drive,94043,37.4033275,-122.0823442
173,Farley Street,94043,37.4011582,-122.0901466
1907,Montecito Avenue,94043,37.4038430,-122.0903426
257,Farley Street,94043,37.4020855,-122.0898004
269,Farley Street,94043,37.4022152,-122.0897279
391,Burgoyne Street,94043,37.4024765,-122.0866633
204,Beatrice Street,94043,37.4011522,-122.0887949
1905,Montecito Avenue,94043,37.4039853,-122.0902473
1365,San Domar Drive,94043,37.4033167,-122.0821391
134,Beatrice Street,94043,37.4004347,-122.0890260
192,Beatrice Street,94043,37.4010061,-122.0888553
2331,Carol Avenue,94040,37.3707994,-122.0745676
271,Sierra Vista Avenue,94043,37.4047197,-122.0913517
1918,Hackett Avenue,94043,37.4036920,-122.0913266
1061,Jackson Street,94043,37.3988749,-122.0819725
1856,Vassar Avenue,94043,37.4032914,-122.0884771
1890,Vassar Avenue,94043,37.4034709,-122.0889585
1516,Wild Rose Way,94043,37.4012385,-122.0856814
1843,Vassar Avenue,94043,37.4027996,-122.0884376
229,Polaris Avenue,94043,37.3984536,-122.0836781
1048,Wright Avenue,94043,37.4003876,-122.0833773
339,Farley Street,94043,37.4030281,-122.0893961
1785,Vassar Avenue,94043,37.4025626,-122.0877791
1102,Wright Avenue,94043,37.4009266,-122.0859916
314,Burgoyne Street,94043,37.4020546,-122.0873160
1059,Jackson Street,94043,37.3989261,-122.0817581
1867,Vassar Avenue,94043,37.4029467,-122.0887848
1104,Wright Avenue,94043,37.4009379,-122.0861977
1559,Lilac Lane,94043,37.4030069,-122.0861203
1793,Vassar Avenue,94043,37.4026110,-122.0879502
1082,Washington Street,94043,37.3986074,-122.0825319
1786,Vassar Avenue,94043,37.4029703,-122.0876473
388,Burgoyne Street,94043,37.4024349,-122.0872342
1509,Canna Court,94043,37.4016609,-122.0853574
1805,Vassar Avenue,94043,37.4026772,-122.0881126
1773,Vassar Avenue,94043,37.4024876,-122.0876260
1508,Wild Rose Way,94043,37.4012483,-122.0853925
317,Farley Street,94043,37.4028356,-122.0894717
1575,Lilac Lane,94043,37.4032923,-122.0860402
356,Burgoyne Street,94043,37.4022219,-122.0872408
1855,Vassar Avenue,94043,37.4028645,-122.0886225
1725,Wright Avenue,94043,37.4005027,-122.0871125
1529,Canna Court,94043,37.4016569,-122.0858108
1554,Canna Court,94043,37.4019947,-122.0863905
403,Farley Street,94043,37.4035049,-122.0891789
1879,Vassar Avenue,94043,37.4029991,-122.0889546
1544,Lilac Lane,94043,37.4035087,-122.0858215
1531,Lilac Lane,94043,37.4026059,-122.0858408
1532,Lilac Lane,94043,37.4033134,-122.0855923
1519,Lilac Lane,94043,37.4025838,-122.0855571
1512,Lilac Lane,94043,37.4030269,-122.0852786
1545,Canna Court,94043,37.4016400,-122.0861788
1534,Canna Court,94043,37.4021240,-122.0859787
1514,Canna Court,94043,37.4021537,-122.0855260
1080,Washington Street,94043,37.3986548,-122.0823445
1844,Vassar Avenue,94043,37.4032338,-122.0882951
1081,Jackson Street,94043,37.3991063,-122.0823561
425,Farley Street,94043,37.4036925,-122.0891476
1864,Hackett Avenue,94043,37.4025982,-122.0887508
1046,Wright Avenue,94043,37.4003740,-122.0830987
1551,Canna Court,94043,37.4015697,-122.0863818
1550,Canna Court,94043,37.4020966,-122.0864162
1069b,Jackson Street,94043,37.3988555,-122.0821823
1547,Lilac Lane,94043,37.4027880,-122.0862583
1832,Vassar Avenue,94043,37.4031711,-122.0881321
436,Burgoyne Street,94043,37.4029494,-122.0870804
1088,Washington Street,94043,37.3986271,-122.0826675
381,Farley Street,94043,37.4031898,-122.0893282
1842,Hackett Avenue,94043,37.4025537,-122.0885713
1046,Wright Avenue,94043,37.4006855,-122.0829934
1890,Hackett Avenue,94043,37.4028210,-122.0892248
1073,Jackson Street,94043,37.3990669,-122.0822205
1784,Hackett Avenue,94043,37.4022052,-122.0877238
1868,Vassar Avenue,94043,37.4033838,-122.0886270
1069a,Jackson Street,94043,37.3990129,-122.0820619
1054,Wright Avenue,94043,37.4004398,-122.0836190
264,Polaris Avenue,94043,37.3995229,-122.0838980
1772,Vassar Avenue,94043,37.4028526,-122.0873380
1770,Hackett Avenue,94043,37.4021223,-122.0875511
229,Polaris Avenue,94043,37.3983683,-122.0834679
1798,Vassar Avenue,94043,37.4030429,-122.0878197
1831,Vassar Avenue,94043,37.4027416,-122.0882930
1788,Hackett Avenue,94043,37.4022777,-122.0878962
1725,Wright Avenue,94043,37.4007485,-122.0875068
1087,Washington Street,94043,37.3982590,-122.0828987
1876,Hackett Avenue,94043,37.4026638,-122.0889060
458,Burgoyne Street,94043,37.4031118,-122.0870020
1784,Vassar Avenue,94043,37.4029100,-122.0874995
1504,Wild Rose Way,94043,37.4012491,-122.0852481
1562,Canna Court,94043,37.4018386,-122.0865037
111,North Rengstorff Avenue,94043,37.4043063,-122.0948868
111,North Rengstorff Avenue,94043,37.4043633,-122.0955619
111,North Rengstorff Avenue,94043,37.4040047,-122.0955007
111,North Rengstorff Avenue,94043,37.4048423,-122.0953765
111,North Rengstorff Avenue,94043,37.4040012,-122.0953135
111,North Rengstorff Avenue,94043,37.4046665,-122.0950064
111,North Rengstorff Avenue,94043,37.4041622,-122.0955317
111,North Rengstorff Avenue,94043,37.4031717,-122.0950974
111,North Rengstorff Avenue,94043,37.4047113,-122.0956735
111,North Rengstorff Avenue,94043,37.4039107,-122.0946306
111,North Rengstorff Avenue,94043,37.4037533,-122.0946087
111,North Rengstorff Avenue,94043,37.4030527,-122.0953890
111,North Rengstorff Avenue,94043,37.4040825,-122.0948972
111,North Rengstorff Avenue,94043,37.4037960,-122.0955199
111,North Rengstorff Avenue,94043,37.4036242,-122.0953075
111,North Rengstorff Avenue,94043,37.4040234,-122.0942826
111,North Rengstorff Avenue,94043,37.4036464,-122.0950640
111,North Rengstorff Avenue,94043,37.4030523,-122.0948480
111,North Rengstorff Avenue,94043,37.4035250,-122.0947410
111,North Rengstorff Avenue,94043,37.4048635,-122.0958672
1669,Hackett Avenue,94043,37.4016600,-122.0867730
271,Sierra Vista Avenue,94043,37.4046020,-122.0910585
259,Beatrice Street,94043,37.4016009,-122.0881208
1681,Hackett Avenue,94043,37.4016407,-122.0869448
1767,Hackett Avenue,94043,37.4016948,-122.0876174
1773,Hackett Avenue,94043,37.4017636,-122.0877835
1745,Hackett Avenue,94043,37.4016472,-122.0873030
1693,Hackett Avenue,94043,37.4016551,-122.0871303
271,Beatrice Street,94043,37.4017523,-122.0880937
567,Farley Street,94043,37.4043573,-122.0888423
1720,Wright Avenue,94043,37.4011508,-122.0872715
1757,Hackett Avenue,94043,37.4016552,-122.0874561
564,Burgoyne Street,94043,37.4036348,-122.0868884
271,Sierra Vista Avenue,94043,37.4045223,-122.0906396
532,Burgoyne Street,94043,37.4034674,-122.0869119
293,Beatrice Street,94043,37.4018897,-122.0880376
831,Independence Avenue,94043,37.4158957,-122.0970444
849,Independence Avenue,94043,37.4163920,-122.0968725
837,Independence Avenue,94043,37.4161086,-122.0969982
1068,Wright Avenue,94043,37.4005384,-122.0838914
1422,Wild Rose Way,94043,37.4012738,-122.0833477
1078,Wright Avenue,94043,37.4007151,-122.0843383
1133,Wright Avenue,94043,37.4006309,-122.0866695
927,Washington Street,94043,37.3971050,-122.0803502
186,Granada Drive,94043,37.3999733,-122.0858574
933,Washington Street,94043,37.3973290,-122.0804229
155,Beatrice Street,94043,37.4003390,-122.0884850
1080,Wright Avenue,94043,37.4006009,-122.0845494
1418,Wild Rose Way,94043,37.4012759,-122.0832145
926,Washington Street,94043,37.3976743,-122.0801971
954,Jackson Street,94043,37.3988223,-122.0802199
181,Beatrice Street,94043,37.4007477,-122.0883439
1458,Wild Rose Way,94043,37.4011940,-122.0843547
205,Beatrice Street,94043,37.4010259,-122.0882749
925,Washington Street,94043,37.3972494,-122.0802323
956,Jackson Street,94043,37.3988791,-122.0804050
1470,Wild Rose Way,94043,37.4011914,-122.0846083
935,Washington Street,94043,37.3971696,-122.0805010
1084,Wright Avenue,94043,37.4006873,-122.0847241
1081,Wright Avenue,94043,37.4002052,-122.0847143
167,Beatrice Street,94043,37.4004835,-122.0884556
1401,Wild Rose Way,94043,37.4009832,-122.0829682
1462,Wild Rose Way,94043,37.4011923,-122.0844420
1088,Wright Avenue,94043,37.4007162,-122.0848892
1121,Wright Avenue,94043,37.4005271,-122.0862114
1442,Wild Rose Way,94043,37.4011950,-122.0839739
939,Washington Street,94043,37.3973268,-122.0806262
144b;114c,Granada Drive,94043,37.3997389,-122.0862105
936,Washington Street,94043,37.3976819,-122.0803743
1076,Wright Avenue,94043,37.4005440,-122.0842261
951,Jackson Street,94043,37.3983693,-122.0803397
144a,Granada Drive,94043,37.3996708,-122.0860698
959,Jackson Street,94043,37.3983952,-122.0805065
1073,Wright Avenue,94043,37.4001233,-122.0842199
943,Jackson Street,94043,37.3982987,-122.0801422
1077,Wright Avenue,94043,37.4001669,-122.0844145
133,Beatrice Street,94043,37.4002129,-122.0885279
193,Beatrice Street,94043,37.4009023,-122.0883313
1095,Wright Avenue,94043,37.4002753,-122.0851599
1137,Wright Avenue,94043,37.4006674,-122.0867972
1080a;1080b,Wright Avenue,94043,37.4008932,-122.0844178
1105,Wright Avenue,94043,37.4003948,-122.0856729
1091,Wright Avenue,94043,37.4002324,-122.0849433
972,Jackson Street,94043,37.3989469,-122.0806917
1430,Wild Rose Way,94043,37.4012692,-122.0836305
265,North Rengstorff Avenue,94043,37.4057928,-122.0951435
2309,Rock Street,94043,37.4121804,-122.0962875
2309,Rock Street,94043,37.4121187,-122.0957658
2309,Rock Street,94043,37.4124017,-122.0960353
2309,Rock Street,94043,37.4120367,-122.0963111
2309,Rock Street,94043,37.4119795,-122.0957820
265,North Rengstorff Avenue,94043,37.4062765,-122.0949235
2139,Rock Street,94043,37.4124198,-122.0939502
2335,Rock Street,94043,37.4125537,-122.0967427
2335b,Rock Street,94043,37.4123954,-122.0967747
632,Midrock Corners,94043,37.4120871,-122.0947604
2167,Rock Street,94043,37.4124433,-122.0943793
2229,Rock Street,94043,37.4125212,-122.0953220
661,Midrock Corners,94043,37.4122388,-122.0942125
2390,West Middlefield Road,94043,37.4124172,-122.0973024
2217,Rock Street,94043,37.4125040,-122.0950025
2224,West Middlefield Road,94043,37.4119677,-122.0951970
2236,West Middlefield Road,94043,37.4119642,-122.0954462
2270,West Middlefield Road,94043,37.4121288,-122.0967277
2309,Rock Street,94043,37.4123761,-122.0958281
2476a,Rock Street,94043,37.4126596,-122.0981491
2476d,Rock Street,94043,37.4125288,-122.0978234
1983,San Luis Avenue,94043,37.4073018,-122.0927257
1983,San Luis Avenue,94043,37.4080227,-122.0923362
1983,San Luis Avenue,94043,37.4078764,-122.0919653
1983,San Luis Avenue,94043,37.4074827,-122.0926262
1983,San Luis Avenue,94043,37.4077072,-122.0923939
1983,San Luis Avenue,94043,37.4072327,-122.0923408
1983,San Luis Avenue,94043,37.4076133,-122.0921165
108,Whits Road,94040,37.4052032,-122.1062613
1004;1006,Asbury Way,94043,37.3996586,-122.0818517
88,Gladys Avenue,94043,37.3960758,-122.0640885
1203,Farley Street,94043,37.4089385,-122.0869501
551,Sleeper Avenue,94040,37.3713451,-122.0731885
743,West Dana Street,94041,37.3921255,-122.0792604
234,Escuela Avenue,94040,37.3996920,-122.0952280
234,Escuela Avenue,94040,37.4003173,-122.0949547
655,Farley Street,94043,37.4050466,-122.0885691
1045,West Dana Street,94041,37.3934287,-122.0824199
900,Villa Street,94041,37.3945777,-122.0801507
1080,Wentworth Street,94043,37.3991336,-122.0848036
1585,Villa Street,94041,37.3970573,-122.0877421
1820,Hackett Avenue,94043,37.4025187,-122.0884181
1924,Hackett Avenue,94043,37.4037958,-122.0916180
1912,Hackett Avenue,94043,37.4035062,-122.0909129
1114,Burgoyne Street,94043,37.4079377,-122.0856366
2030,Montecito Avenue,94043,37.4068517,-122.0934056
301,North Rengstorff Avenue,94043,37.4069446,-122.0946795
2512,California Street,94040,37.4040723,-122.1065148
601,Showers Drive,94040,37.4002146,-122.1087141
912,Independence Avenue,94043,37.4181663,-122.0973398
2600,Marine Way,94043,37.4286599,-122.0976823
1983,San Luis Avenue,94043,37.4080435,-122.0923915
1983,San Luis Avenue,94043,37.4079288,-122.0920660
1983,San Luis Avenue,94043,37.4078523,-122.0919120
1983,San Luis Avenue,94043,37.4079885,-122.0922243
1983,San Luis Avenue,94043,37.4079060,-122.0920125
1983,San Luis Avenue,94043,37.4080109,-122.0922779
195,North Rengstorff Avenue,94043,37.4052086,-122.0955395
271,Sierra Vista Avenue,94043,37.4044743,-122.0906661
271,Sierra Vista Avenue,94043,37.4044320,-122.0906963
271,Sierra Vista Avenue,94043,37.4046964,-122.0912987
271,Sierra Vista Avenue,94043,37.4046755,-122.0912453
271,Sierra Vista Avenue,94043,37.4046550,-122.0911854
271,Sierra Vista Avenue,94043,37.4045798,-122.0910057
271,Sierra Vista Avenue,94043,37.4045590,-122.0909523
271,Sierra Vista Avenue,94043,37.4045356,-122.0908923
414,Burgoyne Street,94043,37.4027484,-122.0871183
2133,Rock Street,94043,37.4124109,-122.0941744
2141,Rock Street,94043,37.4124443,-122.0942415
2159,Rock Street,94043,37.4124363,-122.0943104
2185,Rock Street,94043,37.4124439,-122.0944554
2197,Rock Street,94043,37.4124647,-122.0945783
2203,Rock Street,94043,37.4124649,-122.0946471
2207,Rock Street,94043,37.4124682,-122.0947105
2210,Rock Street,94043,37.4132592,-122.0947945
2211,Raspberry Lane,94043,37.4128966,-122.0955546
2213,Rock Street,94043,37.4125009,-122.0949263
2215,Raspberry Lane,94043,37.4129007,-122.0956225
2219,Raspberry Lane,94043,37.4129047,-122.0956904
2221,Rock Street,94043,37.4125073,-122.0950726
2225,Rock Street,94043,37.4125105,-122.0951470
2235,Rock Street,94043,37.4125263,-122.0953957
2239,Rock Street,94043,37.4125277,-122.0954692
2476b,Rock Street,94043,37.4125883,-122.0980487
2476c,Rock Street,94043,37.4125777,-122.0979110
2434,Rock Street,94043,37.4133979,-122.0982298
2210,Rock Street,94043,37.4132054,-122.0949583
2462,Rock Street,94043,37.4134100,-122.0985465
2309,Rock Street,94043,37.4122756,-122.0960780
1912,San Luis Avenue,94043,37.4073930,-122.0888307
1914,Hackett Avenue,94043,37.4036351,-122.0911746
513,Burgoyne Street,94043,37.4032865,-122.0864139
208,Bonny Street,94043,37.4016096,-122.0896173
1113,Wright Avenue,94043,37.4004688,-122.0859461
1117,Wright Avenue,94043,37.4004901,-122.0860762
1125,Wright Avenue,94043,37.4005478,-122.0863358
1129,Wright Avenue,94043,37.4006111,-122.0865606
295,Polaris Avenue,94043,37.3997841,-122.0829207
1725,Wright Avenue,94043,37.4002779,-122.0876447
300,Granada Drive,94043,37.4008283,-122.0854888
1295,Mountain Shadows Drive,94043,37.4044159,-122.0796934
460,North Shoreline Boulevard,94043,37.4009636,-122.0809082
129-132,North Shoreline Boulevard,94043,37.4063477,-122.0800674
750,North Shoreline Boulevard,94043,37.4060363,-122.0799140
191,East El Camino Real,94040,37.3771740,-122.0715596
191,East El Camino Real,94040,37.3759635,-122.0696189
191,East El Camino Real,94040,37.3758960,-122.0696662
100-118,Granada Drive,94043,37.3994454,-122.0866726
188,Granada Drive,94043,37.4000365,-122.0858052
190,Granada Drive,94043,37.4001043,-122.0857555
192,Granada Drive,94043,37.4001731,-122.0857130
151,East Evelyn Avenue,94041,37.3893725,-122.0646047
151,East Evelyn Avenue,94041,37.3891881,-122.0647242
1074b,Wentworth Street,94043,37.3989914,-122.0850853
2575,California Street,94040,37.4048041,-122.1093372
2566,Leghorn Street #B,94040,37.4198375,-122.0999235
941,San Marcos Circle,94043,37.4070313,-122.0844640
1500,Lilac Lane,94043,37.4028393,-122.0850846
1503,Lilac Lane,94043,37.4025156,-122.0852405
1504,Lilac Lane,94043,37.4029344,-122.0851562
1507,Lilac Lane,94043,37.4025273,-122.0853156
1508,Lilac Lane,94043,37.4029707,-122.0852342
1511,Lilac Lane,94043,37.4025599,-122.0853919
1515,Lilac Lane,94043,37.4025733,-122.0854668
1516,Lilac Lane,94043,37.4030724,-122.0853517
1520,Lilac Lane,94043,37.4031605,-122.0854232
1523,Lilac Lane,94043,37.4026019,-122.0856328
1524,Lilac Lane,94043,37.4032119,-122.0854772
1527,Lilac Lane,94043,37.4026312,-122.0857418
1528,Lilac Lane,94043,37.4032676,-122.0855394
1535,Lilac Lane,94043,37.4026228,-122.0859188
1536,Lilac Lane,94043,37.4033564,-122.0856656
1539,Lilac Lane,94043,37.4025898,-122.0860175
1540,Lilac Lane,94043,37.4034652,-122.0857541
1543,Lilac Lane,94043,37.4025484,-122.0861489
1548,Lilac Lane,94043,37.4035291,-122.0859097
1551,Lilac Lane,94043,37.4028789,-122.0861562
1552,Lilac Lane,94043,37.4035843,-122.0859694
1555,Lilac Lane,94043,37.4029416,-122.0861335
1556,Lilac Lane,94043,37.4036014,-122.0860602
1563,Lilac Lane,94043,37.4031009,-122.0860938
1567,Lilac Lane,94043,37.4031613,-122.0860741
1571,Lilac Lane,94043,37.4032293,-122.0860532
1501,Canna Court,94043,37.4016627,-122.0851880
1502,Canna Court,94043,37.4021340,-122.0852674
1505,Canna Court,94043,37.4016619,-122.0852757
1506,Canna Court,94043,37.4021362,-122.0853546
1510,Canna Court,94043,37.4021542,-122.0854406
1513,Canna Court,94043,37.4016605,-122.0854422
1517,Canna Court,94043,37.4016632,-122.0855552
1518,Canna Court,94043,37.4021349,-122.0856079
1521,Canna Court,94043,37.4016540,-122.0856419
1522,Canna Court,94043,37.4021311,-122.0856914
1525,Canna Court,94043,37.4016530,-122.0857286
1526,Canna Court,94043,37.4021295,-122.0858092
1530,Canna Court,94043,37.4021253,-122.0858947
1533,Canna Court,94043,37.4016616,-122.0858951
1537,Canna Court,94043,37.4016567,-122.0860086
1538,Canna Court,94043,37.4022096,-122.0860513
1541,Canna Court,94043,37.4016402,-122.0860923
1542,Canna Court,94043,37.4022107,-122.0861408
1546,Canna Court,94043,37.4023154,-122.0862596
1549,Canna Court,94043,37.4016371,-122.0862615
1558,Canna Court,94043,37.4019299,-122.0864150
1566,Canna Court,94043,37.4017263,-122.0865353
1405,Wild Rose Way,94043,37.4010497,-122.0829748
1409,Wild Rose Way,94043,37.4011175,-122.0829709
1413,Wild Rose Way,94043,37.4011836,-122.0829674
1426,Wild Rose Way,94043,37.4012765,-122.0834883
1434,Wild Rose Way,94043,37.4011933,-122.0838092
1438,Wild Rose Way,94043,37.4011960,-122.0838936
1446,Wild Rose Way,94043,37.4011949,-122.0840549
1450,Wild Rose Way,94043,37.4012000,-122.0841445
1454,Wild Rose Way,94043,37.4011841,-122.0842798
1466,Wild Rose Way,94043,37.4011953,-122.0845237
1474,Wild Rose Way,94043,37.4011911,-122.0846906
1500,Wild Rose Way,94043,37.4012439,-122.0850979
1512,Wild Rose Way,94043,37.4012527,-122.0855342
1520,Wild Rose Way,94043,37.4012474,-122.0858314
235,South Bernardo Avenue,94086,37.3800281,-122.0565769
874,Jackson Street,94043,37.3976795,-122.0778102
878,Jackson Street,94043,37.3977156,-122.0779147
111,North Rengstorff Avenue,94043,37.4042156,-122.0963197
111,North Rengstorff Avenue,94043,37.4047776,-122.0956341
111,North Rengstorff Avenue,94043,37.4049100,-122.0955554
111,North Rengstorff Avenue,94043,37.4048437,-122.0955948
111,North Rengstorff Avenue,94043,37.4047766,-122.0954155
111,North Rengstorff Avenue,94043,37.4046451,-122.0954936
111,North Rengstorff Avenue,94043,37.4047109,-122.0954546
111,North Rengstorff Avenue,94043,37.4038989,-122.0947226
111,North Rengstorff Avenue,94043,37.4038755,-122.0949066
111,North Rengstorff Avenue,94043,37.4038872,-122.0948146
111,North Rengstorff Avenue,94043,37.4037306,-122.0947863
111,North Rengstorff Avenue,94043,37.4037193,-122.0948750
111,North Rengstorff Avenue,94043,37.4037419,-122.0946976
111,North Rengstorff Avenue,94043,37.4030430,-122.0951738
111,North Rengstorff Avenue,94043,37.4029786,-122.0952119
111,North Rengstorff Avenue,94043,37.4031073,-122.0951357
111,North Rengstorff Avenue,94043,37.4038937,-122.0954660
111,North Rengstorff Avenue,94043,37.4031295,-122.0953435
111,North Rengstorff Avenue,94043,37.4032832,-122.0952525
111,North Rengstorff Avenue,94043,37.4032064,-122.0952980
111,North Rengstorff Avenue,94043,37.4039728,-122.0957640
111,North Rengstorff Avenue,94043,37.4039940,-122.0955885
111,North Rengstorff Avenue,94043,37.4039834,-122.0956762
111,North Rengstorff Avenue,94043,37.4041407,-122.0957086
111,North Rengstorff Avenue,94043,37.4041515,-122.0956202
111,North Rengstorff Avenue,94043,37.4041299,-122.0957970
111,North Rengstorff Avenue,94043,37.4041423,-122.0953423
111,North Rengstorff Avenue,94043,37.4040717,-122.0953279
111,North Rengstorff Avenue,94043,37.4042128,-122.0953566
444,Castro Street,94041,37.3905755,-122.0814710
825,Independence Avenue,94043,37.4153420,-122.0969372
877,Independence Avenue,94043,37.4170864,-122.0965923
2378,Old Middlefield Way,94043,37.4151018,-122.0970749
827,Independence Avenue,94043,37.4155700,-122.0970084
111,Montebello Avenue,94043,37.4031056,-122.0935831
2110a,West Middlefield Road,94043,37.4118794,-122.0928359
2110c,West Middlefield Road,94043,37.4118899,-122.0929424
2110d,West Middlefield Road,94043,37.4118952,-122.0929957
2110e,West Middlefield Road,94043,37.4119004,-122.0930489
2110f,West Middlefield Road,94043,37.4119057,-122.0931021
2110g,West Middlefield Road,94043,37.4119110,-122.0931554
2110h,West Middlefield Road,94043,37.4119163,-122.0932087
2110i,West Middlefield Road,94043,37.4119215,-122.0932619
2120b,West Middlefield Road,94043,37.4120379,-122.0935255
2120c,West Middlefield Road,94043,37.4120331,-122.0935803
2120d,West Middlefield Road,94043,37.4120281,-122.0936350
2212,West Middlefield Road,94043,37.4119536,-122.0949774
2216,West Middlefield Road,94043,37.4119584,-122.0950531
2220,West Middlefield Road,94043,37.4119632,-122.0951232
2228,West Middlefield Road,94043,37.4119573,-122.0953023
2232,West Middlefield Road,94043,37.4119609,-122.0953760
2240,West Middlefield Road,94043,37.4119680,-122.0955222
601,Midrock Corners,94043,37.4119115,-122.0941776
602,Midrock Corners,94043,37.4119199,-122.0947663
611,Midrock Corners,94043,37.4119687,-122.0941764
612,Midrock Corners,94043,37.4119757,-122.0947624
621,Midrock Corners,94043,37.4120231,-122.0941715
622,Midrock Corners,94043,37.4120319,-122.0947652
631,Midrock Corners,94043,37.4120750,-122.0941703
641,Midrock Corners,94043,37.4121274,-122.0941836
642,Midrock Corners,94043,37.4121443,-122.0947485
651,Midrock Corners,94043,37.4121835,-122.0942013
652,Midrock Corners,94043,37.4122007,-122.0947480
671,Midrock Corners,94043,37.4122949,-122.0942150
2005,San Ramon Avenue,94043,37.4096564,-122.0919425
1930,San Luis Avenue,94043,37.4076610,-122.0903635
1932,San Luis Avenue,94043,37.4077160,-122.0903320
1934,San Luis Avenue,94043,37.4077729,-122.0902991
1936,San Luis Avenue,94043,37.4078462,-122.0904852
1938,San Luis Avenue,94043,37.4077919,-122.0905165
1940,San Luis Avenue,94043,37.4077378,-122.0905485
1942,San Luis Avenue,94043,37.4078562,-122.0906963
1944,San Luis Avenue,94043,37.4079134,-122.0906663
1946,San Luis Avenue,94043,37.4079896,-122.0908501
1948,San Luis Avenue,94043,37.4079344,-122.0908821
1950,San Luis Avenue,94043,37.4078809,-122.0909131
1952,San Luis Avenue,94043,37.4079463,-122.0911432
1954,San Luis Avenue,94043,37.4079872,-122.0910860
1956,San Luis Avenue,94043,37.4080320,-122.0910595
1958,San Luis Avenue,94043,37.4080806,-122.0910176
1960,San Luis Avenue,94043,37.4081919,-122.0909789
1962,San Luis Avenue,94043,37.4082148,-122.0910427
1964,San Luis Avenue,94043,37.4082348,-122.0911155
1966,San Luis Avenue,94043,37.4082562,-122.0911774
1968,San Luis Avenue,94043,37.4082947,-122.0912387
1970,San Luis Avenue,94043,37.4083174,-122.0913035
1972,San Luis Avenue,94043,37.4082304,-122.0913748
1974,San Luis Avenue,94043,37.4081698,-122.0914001
1976,San Luis Avenue,94043,37.4081183,-122.0914258
1978,San Luis Avenue,94043,37.4080627,-122.0914272
2409,Leghorn Street,94043,37.4185195,-122.0971384
550,Hans Avenue,94041,37.3793845,-122.0795998
204,Stierlin Road,94043,37.3970224,-122.0785611
432,Stierlin Road,94043,37.4003479,-122.0789624
405,Stierlin Road,94043,37.4000441,-122.0774794
465,Stierlin Road,94043,37.4008799,-122.0774792
928,Wright Avenue,94043,37.3993854,-122.0795090
462,Stierlin Road,94043,37.4009187,-122.0786729
890,Central Avenue,94043,37.3984698,-122.0777576
817,Jackson Street,94043,37.3970992,-122.0773315
50,Centre Street,94041,37.3818728,-122.0710564
3160,North Shoreline Boulevard,94043,37.4327046,-122.0881079
1885,Peacock Avenue,94043,37.4036710,-122.0886527
1880,Peacock Avenue,94043,37.4040411,-122.0883223
1848,Peacock Avenue,94043,37.4038981,-122.0879916
2254,Wyandotte Street,94043,37.4170224,-122.0954155
2230,Latham Street,94040,37.3981264,-122.1027179
2250,Latham Street,94040,37.3986139,-122.1035745
2400,West El Camino Real,94040,37.3989969,-122.1071740
1862,Wagner Avenue,94043,37.4060928,-122.0875121
1773,Burgoyne Street,94043,37.4068447,-122.0864141
789,Burgoyne Street,94043,37.4051877,-122.0858985
418-440,North Rengstorff Avenue,94043,37.4097323,-122.0941151
580,North Rengstorff Avenue,94043,37.4109721,-122.0939696
1200,Dale Avenue,94040,37.3728909,-122.0658507
1905,West El Camino Real,94040,37.3925560,-122.0965762
554,San Antonio Road,94040,37.4036359,-122.1126346
650,Franklin Street,94041,37.3892543,-122.0857369
333,Eunice Avenue,94040,37.3693590,-122.0731449
2450,Garcia Avenue,94043,37.4277170,-122.0942367
297,Andsbury Avenue,94043,37.3959581,-122.0726708
1970,Latham Street,94040,37.3958364,-122.0972642
1984,West El Camino Real,94040,37.3952046,-122.0988593
242,Bonny Street,94043,37.4017758,-122.0895644
2005,California Street,94040,37.3973869,-122.0973330
1371,Shorebird Way,94043,37.4180668,-122.0749157
2270,West El Camino Real,94040,37.3974559,-122.1043243
401,San Antonio Road,94040,37.4040499,-122.1111710
409,San Antonio Road,94040,37.4037038,-122.1101879
1000,North Rengstorff Avenue,94043,37.4209566,-122.0957542
1040,North Rengstorff Avenue,94043,37.4192939,-122.0957829
1040,North Rengstorff Avenue,94043,37.4192919,-122.0956989
1040,North Rengstorff Avenue,94043,37.4192867,-122.0956152
1040,North Rengstorff Avenue,94043,37.4192814,-122.0955339
1040,North Rengstorff Avenue,94043,37.4192766,-122.0954513
1040,North Rengstorff Avenue,94043,37.4192721,-122.0953685
1040,North Rengstorff Avenue,94043,37.4192668,-122.0952848
1040,North Rengstorff Avenue,94043,37.4192621,-122.0952020
1040,North Rengstorff Avenue,94043,37.4192523,-122.0951219
333,North Rengstorff Avenue,94043,37.4076936,-122.0940678
1952,West El Camino Real,94040,37.3945378,-122.0974609
1175,Castro Street,94040,37.3812971,-122.0849905
2640,California Street,94040-1206,37.4067345,-122.1117276
1147,Burgoyne Street,94043,37.4080649,-122.0851221
1095,Burgoyne Street,94043,37.4076345,-122.0852024
800,Moffett Boulevard,94043,37.4070329,-122.0674999
780,Moffett Boulevard,94043,37.4071724,-122.0683394
2000,North Shoreline Boulevard,94043,37.4219688,-122.0795978
839,San Veron Avenue,94043,37.4033456,-122.0741591
175,Evandale Avenue,94043,37.4044076,-122.0593677
38,Devonshire Avenue,94043,37.4039247,-122.0597403
610,Pepperwood Court,94043,37.4047645,-122.0586748
200,Evandale Avenue,94043,37.4048499,-122.0587837
161,Evandale Avenue,94043,37.4045200,-122.0598694
207,Evandale Avenue,94043,37.4042912,-122.0588828
58A,Devonshire Avenue,94043,37.4040358,-122.0594392
1720,Villa Street,94041,37.3987286,-122.0893143
914,North Rengstorff Avenue,94043,37.4178785,-122.0937959
155,Gladys Avenue,94043,37.3951432,-122.0632681
301,Marquetta Circle,94043,37.4066871,-122.0935188
303,Marquetta Circle,94043,37.4067105,-122.0935784
305,Marquetta Circle,94043,37.4067309,-122.0936300
307,Marquetta Circle,94043,37.4067509,-122.0936810
309,Marquetta Circle,94043,37.4067714,-122.0937332
311,Marquetta Circle,94043,37.4067920,-122.0937859
313,Marquetta Circle,94043,37.4068155,-122.0938455
300,Marquetta Circle,94043,37.4066445,-122.0934105
302,Marquetta Circle,94043,37.4066216,-122.0933539
304,Marquetta Circle,94043,37.4066004,-122.0933012
306,Marquetta Circle,94043,37.4065785,-122.0932473
308,Marquetta Circle,94043,37.4065547,-122.0931882
2054,Montecito Avenue,94043,37.4066369,-122.0939827
2050,Montecito Avenue,94043,37.4066135,-122.0939220
2046,Montecito Avenue,94043,37.4065859,-122.0938668
2042,Montecito Avenue,94043,37.4065729,-122.0938130
2038,Montecito Avenue,94043,37.4065379,-122.0937708
2034,Montecito Avenue,94043,37.4065189,-122.0937082
2030,Montecito Avenue,94043,37.4064954,-122.0936475
2024,Montecito Avenue,94043,37.4064513,-122.0935427
2020,Montecito Avenue,94043,37.4064279,-122.0934812
2016,Montecito Avenue,94043,37.4064002,-122.0934232
2012,Montecito Avenue,94043,37.4063949,-122.0933656
2008,Montecito Avenue,94043,37.4063691,-122.0933218
2004,Montecito Avenue,94043,37.4063520,-122.0932581
2000,Montecito Avenue,94043,37.4063206,-122.0932010
320,Marquetta Circle,94043,37.4066818,-122.0931365
322,Marquetta Circle,94043,37.4067266,-122.0931105
324,Marquetta Circle,94043,37.4067699,-122.0930854
326,Marquetta Circle,94043,37.4068100,-122.0930620
328,Marquetta Circle,94043,37.4068500,-122.0930389
330,Marquetta Circle,94043,37.4068944,-122.0930132
332,Marquetta Circle,94043,37.4069451,-122.0929837
341,Marquetta Circle,94043,37.4073200,-122.0935500
343,Marquetta Circle,94043,37.4072975,-122.0934900
345,Marquetta Circle,94043,37.4072769,-122.0934353
347,Marquetta Circle,94043,37.4072574,-122.0933836
349,Marquetta Circle,94043,37.4072383,-122.0933328
351,Marquetta Circle,94043,37.4072187,-122.0932811
353,Marquetta Circle,94043,37.4071968,-122.0932229
348,Marquetta Circle,94043,37.4071512,-122.0931082
346,Marquetta Circle,94043,37.4071242,-122.0930514
344,Marquetta Circle,94043,37.4071033,-122.0929962
342,Marquetta Circle,94043,37.4070838,-122.0929445
340,Marquetta Circle,94043,37.4070619,-122.0928865
2530,California Street,94040,37.4041914,-122.1067673
250,Bryant Street,94041,37.3934582,-122.0810050
1616,West El Camino Real,94040,37.3905877,-122.0926958
1720,West El Camino Real,94040,37.3908980,-122.0935770
1734,West El Camino Real,94040,37.3921986,-122.0942965
1734,West El Camino Real,94040,37.3921079,-122.0939353
1734,West El Camino Real,94040,37.3923998,-122.0941568
1734,West El Camino Real,94040,37.3925045,-122.0940933
2495,Hospital Drive,94040,37.3689204,-122.0807635
1734,West El Camino Real,94040,37.3921772,-122.0941188
1734,West El Camino Real,94040,37.3922179,-122.0940304
1734,West El Camino Real,94040,37.3922742,-122.0937094
1734,West El Camino Real,94040,37.3923440,-122.0937617
1734,West El Camino Real,94040,37.3924050,-122.0939869
1734,West El Camino Real,94040,37.3924137,-122.0938855
346,Bryant Street,94041,37.3925890,-122.0817198
348,Bryant Street,94041,37.3925579,-122.0816387
350,Bryant Street,94041,37.3924997,-122.0816698
1290,Terra Bella Avenue,94043,37.4110940,-122.0803669
850,Leong Drive,94043,37.4056126,-122.0664220
2300,W El Camino Real;West El Camino Real,94040,37.3977466,-122.1052812
1859,Elsie Avenue,94043,37.4049302,-122.0879125
897,Independence Avenue,94043,37.4175630,-122.0964214
897,Independence Avenue,94043,37.4175179,-122.0955292
22481,Sleeper Avenue,94040,37.3719939,-122.0681601
725,Sleeper Avenue,94040,37.3708942,-122.0714527
22509,Redcliff Court,94040,37.3709278,-122.0689089
13270,Franklin Avenue,94040,37.3707215,-122.0680474
605,Mountain View Avenue,94041,37.3907603,-122.0875032
1701,West El Camino Real,94040,37.3902718,-122.0938813
360,South Shoreline Boulevard,94041,37.3939264,-122.0852172
938,Clark Avenue,94040,37.3930273,-122.0999491
2007,Rock Street,94043,37.4122919,-122.0910473
2011,Rock Street,94043,37.4121854,-122.0910295
2015,Rock Street,94043,37.4119863,-122.0910013
2019,Rock Street,94043,37.4118885,-122.0909911
2023,Rock Street,94043,37.4117956,-122.0909807
2027,Rock Street,94043,37.4117060,-122.0909678
2031,Rock Street,94043,37.4116170,-122.0909547
2012,West Middlefield Road,94043,37.4112648,-122.0907208
2014,West Middlefield Road,94043,37.4112862,-122.0907828
2016,West Middlefield Road,94043,37.4113086,-122.0908370
2018,West Middlefield Road,94043,37.4113199,-122.0909049
2026,West Middlefield Road,94043,37.4114139,-122.0912042
2020,West Middlefield Road,94043,37.4113445,-122.0909675
2024,West Middlefield Road,94043,37.4113850,-122.0911031
2022,West Middlefield Road,94043,37.4113672,-122.0910343
458,San Antonio Road,94040,37.4047368,-122.1127619
2080,Marich Way,94040,37.3937119,-122.1018389
207,Thompson Square,94043,37.4061291,-122.0987237
200,Infinity Way,94043,37.3929555,-122.0540616
200,Infinity Way,94043,37.3918945,-122.0530325
950,West El Camino Real,94040,37.3868964,-122.0855454
1101,West El Camino Real,94040,37.3870882,-122.0875042
1000,Miramonte Avenue,94040,37.3865590,-122.0885654
928,Wright Avenue,94043,37.3991143,-122.0802999
333,Apricot Lane,94040,37.3623768,-122.0758833
3366,Filomena Court,94040,37.3620422,-122.0758332
3370,Filomena Court,94040,37.3617189,-122.0758467
338,Bryant Avenue,94040,37.3614999,-122.0757772
2730,Saint Giles Lane,94040,37.3642883,-122.0715687
2744,Levin Court,94040,37.3648325,-122.0720004
2741,Levin Court,94040,37.3648174,-122.0716836
230,RT Jones Road,94043,37.4146869,-122.0662923
546,Vernon Avenue,94043,37.4096985,-122.0652034
222,Escuela Avenue,94040,37.3995449,-122.0936155
222,Escuela Avenue,94040,37.3996248,-122.0933759
222,Escuela Avenue,94040,37.3997789,-122.0932663
222,Escuela Avenue,94040,37.3995267,-122.0930970
222,Escuela Avenue,94040,37.3998351,-122.0940092
1110,Boranda Avenue,94040,37.3811771,-122.0829114
1051,West El Camino Real,94040,37.3868781,-122.0866463
777B,San Lucas Avenue,94043,37.4036738,-122.0724067
2290,Mora Place,94040,37.4035198,-122.1024164
761,West Middlefield Road,94043,37.4016057,-122.0756912
800,East Middlefield Road,94043,37.3905889,-122.0470871
810,East Middlefield Road,94043,37.3896589,-122.0470105
248,Pamela Drive,94040,37.3804310,-122.0760899
2940,N Shoreline Blvd,94043,37.4295510,-122.0861110
2060,California Street,94040,37.3992010,-122.0993950
1960,California Street,94040,37.3978161,-122.0958295
1920,California Street,94040,37.3974713,-122.0949543
1940,California Street,94040,37.3976442,-122.0953885
1980,California Street,94040,37.3979903,-122.0962644
750B,San Pierre Way,94043,37.4035247,-122.0840605
1299,Bryant Avenue,94040,37.3610312,-122.0649457
2295,Latham Street,94040,37.3987913,-122.1052667
2245,Latham Street,94040,37.3981573,-122.1042326
205,South Drive,94040,37.3670268,-122.0797138
2530,Solace Place,94040,37.3664921,-122.0799627
525,South Drive,94040,37.3669215,-122.0847440
2043,West El Camino Real,94040,37.3943756,-122.1005485
945,San Ramon Court,94043,37.4069456,-122.0837551
975,San Marcos Circle,94043,37.4070430,-122.0824078
921,Ormonde Drive,94043,37.4052960,-122.0804555
936,Vaquero Drive,94043,37.4056174,-122.0799230
2255,Showers Drive,94040,37.4072611,-122.1081954
156,Palmer Avenue,94043,37.4054597,-122.0983368
190,East El Camino Real,94040,37.3804343,-122.0685582
2025,California Street,94040,37.3979063,-122.0983591
2035,California Street,94040,37.3980806,-122.0989262
1797,California Street,94041,37.3955708,-122.0926113
183,Del Medio Avenue,94040,37.4078782,-122.1118955
181,Del Medio Avenue,94040,37.4082996,-122.1114731
881,East El Camino Real,94040,37.3747271,-122.0601985
1620,Villa Street,94041,37.3976464,-122.0881793
123,Evandale Avenue,94043,37.4047477,-122.0609913
605,Macara Avenue,94085,37.3983857,-122.0417245
1730,West El Camino Real,94040,37.3915225,-122.0939839
555,San Antonio Road,94040,37.4029438,-122.1118865
