House number,Street name,Postal code,Latitude,Longitude
2000,Trower Avenue,94558,38.3304518,-122.3182790
247,Soscol Avenue,94559,38.2832055,-122.2750211
2007,Redwood Road,94558,38.3203220,-122.3106495
3682,Bel Aire Plaza,94558,38.3232512,-122.3063419
3654,Bel Aire Plaza,94558,38.3227883,-122.3059235
611,Trancas St,94558,38.3241936,-122.2859373
1312,Trancas St,94558,38.3234529,-122.3017830
2101,Russell Street,94559,38.2825142,-122.2617153
1827,Clay Street,94559,38.2981652,-122.2939958
663,Trancas Street,94558,38.3238497,-122.2871996
623,Trancas Street,94558,38.3241654,-122.2865210
2125,1st Street,94559,38.2975539,-122.2964617
1715,Trancas Street,94558,38.3212422,-122.3060291
1725,Trancas Street,94558,38.3207125,-122.3067341
1725,Trancas Street,94558,38.3205387,-122.3064942
1340,Trancas Street,94558,38.3234124,-122.3024003
3325,Jefferson Street,94558,38.3214908,-122.3007498
710,Lincoln Avenue,94559,38.3107973,-122.2857362
2375,California Boulevard,94559,38.3067066,-122.3028902
308,Soscol Avenue,94559,38.2859184,-122.2735123
300,Soscol Avenue,94559,38.2866758,-122.2736009
304,Soscol Avenue,94559,38.2858603,-122.2743070
259,Soscol Avenue,94559,38.2831582,-122.2754250
255,Soscol Avenue,94559,38.2834084,-122.2750456
2906,First Street,94558-5529,38.3012926,-122.3107291
3214,Jefferson Street,94558,38.3193304,-122.2982843
1629,West Imola Avenue,94559,38.2810385,-122.2924381
1745,West Imola Avenue,94559,38.2815580,-122.2926430
902,Main Street,94559,38.2987179,-122.2848610
1006,1st Street,94559,38.2992179,-122.2857848
860,Napa Valley Corporate Way,94558,38.2512374,-122.2735760
530,3rd Street,94559,38.2994968,-122.2783922
629,Factory Stores Drive,94558,38.2960716,-122.3030827
1758,Industrial Way,94558,38.3192456,-122.3040177
1600,Soscol Avenue,94559,38.3050542,-122.2831207
600,Main Street,94559,38.2966731,-122.2831520
3253,Browns Valley Road,94558,38.3041333,-122.3288680
1805,Pueblo Avenue,94558,38.3139097,-122.3061321
1725,Jefferson Street,94559,38.3034193,-122.2945647
1000,Main Street,94559,38.2994495,-122.2852957
4000,Bel Aire Plaza,94558,38.3225432,-122.3076914
304,Soscol Avenue,94559,38.2857871,-122.2743470
304,Soscol Avenue,94559,38.2854007,-122.2743238
205,Soscol Avenue,94559,38.2826293,-122.2772306
796,Soscol Avenue;3rd Street,94559,38.2987750,-122.2818410
1122,Main Street,94559,38.3002195,-122.2861010
603,Lincoln Avenue,94558,38.3098215,-122.2824686
942,Hartle Court,94558,38.2835207,-122.2814849
3375,Jefferson Street,94558,38.3213636,-122.3019259
3375,Jefferson Street,94558,38.3213762,-122.3018589
3375,Jefferson Street,94558,38.3213005,-122.3016229
3375,Jefferson Street,94558,38.3213089,-122.3021030
610,Main Street,94559,38.2968529,-122.2834290
1312,Trancas St,94558,38.3234507,-122.3019592
217,Soscol Avenue,94559,38.2833094,-122.2774295
3090,Jefferson Street,94558,38.3166755,-122.2976330
950,Pearl Street,94559,38.3010115,-122.2861300
603,Lincoln Avenue,94558,38.3099630,-122.2824423
850,Bordeaux Way,94558,38.2470976,-122.2731791
500,1st Street,94559,38.3029688,-122.2801264
644,1st Street,94559,38.3013580,-122.2819610
1021,McKinstry St,94559,38.3011609,-122.2823060
3373,Solano Avenue,94558,38.3193139,-122.3108009
3367,Solano Avenue,94558,38.3191813,-122.3107544
985,Lincoln Avenue,94558-5059,38.3086155,-122.2927376
2020,Redwood Rd,94558,38.3192816,-122.3100993
2119,Jefferson Street,94559,38.3065394,-122.2954893
1729,Action Ave,94559,38.3058305,-122.2875580
1245,Main Street,94559,38.3010916,-122.2872434
2500,Jefferson Street,94558,38.3103609,-122.2960521
4055,Solano Avenue,94558,38.3330385,-122.3205244
3700,Lassen Street,94558,38.3291040,-122.3119564
3700,Lassen Street,94558,38.3290756,-122.3125023
960,Caymus Street,94559,38.3024540,-122.2873011
981,Napa Street,94559,38.3030005,-122.2869940
9,Coombsville Road,94559,38.2996207,-122.2757221
411,Coombsville Road,94559,38.2978514,-122.2679356
2725,Elm Street,94558,38.2895015,-122.3059603
1244,South Freeway Drive,94558,38.2985117,-122.3041294
1800,Pueblo Avenue,94558,38.3146865,-122.3051663
1925,Sierra Avenue,94558,38.3270796,-122.3128757
2295,Streblow Drive,94558,38.2674455,-122.2766470
2295,Streblow Drive,94558,38.2675492,-122.2767730
727,Central Avenue,94558,38.3131832,-122.2870050
1157,La Homa Drive,94558,38.3189653,-122.2908733
1,Windsor Court,94558,38.3188812,-122.2890742
5,Windsor Court,94558,38.3189917,-122.2891418
9,Windsor Court,94558,38.3190904,-122.2891499
27,Windsor Court,94558,38.3193462,-122.2888076
31,Windsor Court,94558,38.3193617,-122.2886632
26,Windsor Court,94558,38.3190009,-122.2887109
32,Windsor Court,94558,38.3190712,-122.2879587
46,Windsor Court,94558,38.3191991,-122.2880006
50,Windsor Court,94558,38.3193115,-122.2880181
47,Windsor Court,94558,38.3194330,-122.2880682
19,Windsor Court,94558,38.3193124,-122.2892582
15,Windsor Court,94558,38.3192119,-122.2892151
1195,La Homa Drive,94558,38.3197517,-122.2891683
2751,Beard Road,94558,38.3177342,-122.2948061
705,Trancas Street,94558,38.3240308,-122.2907941
644,1st Street,94559,38.3014228,-122.2820141
610,1st Street,94559,38.3014987,-122.2813702
610,1st Street,94559,38.3017747,-122.2815549
2880,Jefferson St,94558,38.3148205,-122.2973047
1100 North,Trancas Street,94558,38.3238136,-122.2978438
1100 South,Trancas Street,94558,38.3235606,-122.2978116
1100,Trancas Street,94558,38.3237137,-122.2983660
200,Stanly Crossroad,94559,38.2441635,-122.2991680
1401,Stanly Lane,94559,38.2467158,-122.2995486
1403,Stanly Lane,94559,38.2465823,-122.3000653
1405,Stanly Lane,94559,38.2464698,-122.3006156
1421,Stanly Lane,94559,38.2468492,-122.3008103
1417,Stanly Lane,94559,38.2468798,-122.3003007
1407,Stanly Lane,94559,38.2464851,-122.3010209
1409,Stanly Lane,94559,38.2465726,-122.3015199
1411,Stanly Lane,94559,38.2468950,-122.3015907
220,Stanly Crossroad,94559,38.2446701,-122.3003327
210,Stanly Crossroad,94559,38.2448844,-122.2999899
220,Stanly Crossroad,94559,38.2450604,-122.3001797
240,Stanly Crossroad,94559,38.2453332,-122.3003146
260,Stanly Crossroad,94559,38.2448173,-122.3009028
200,Stanly Crossroad,94559,38.2456201,-122.3012327
1451,Stanly Lane,94559,38.2445583,-122.2936760
100,Vintners Court,94559,38.2427130,-122.3039640
102,Vintners Court,94559,38.2428021,-122.3038190
104,Vintners Court,94559,38.2429157,-122.3035050
108,Vintners Court,94559,38.2432264,-122.3038417
112,Vintners Court,94559,38.2429472,-122.3042200
110,Vintners Court,94559,38.2430620,-122.3040990
300,Vine Row Court,94559,38.2443245,-122.3056110
302,Vine Row Court,94559,38.2444144,-122.3054250
304,Vine Row Court,94559,38.2445174,-122.3051728
308,Vine Row Court,94559,38.2448381,-122.3054792
310,Vine Row Court,94559,38.2446991,-122.3056939
312,Vine Row Court,94559,38.2445912,-122.3058730
202,Auberge Path,94559,38.2434905,-122.3045596
200,Auberge Path,94559,38.2434372,-122.3044358
204,Auberge Path,94559,38.2437272,-122.3042750
206,Auberge Path,94559,38.2438248,-122.3040490
208,Auberge Path,94559,38.2439658,-122.3038060
210,Auberge Path,94559,38.2441718,-122.3039560
212,Auberge Path,94559,38.2442505,-122.3041216
214,Auberge Path,94559,38.2441192,-122.3043410
218,Auberge Path,94559,38.2438172,-122.3047230
216,Auberge Path,94559,38.2440236,-122.3045111
306,Vine Row Court,94559,38.2447063,-122.3052905
106,Vintners Court,94559,38.2430477,-122.3037177
100,Stanly Crossroad,94559,38.2455940,-122.2987318
112,Stanly Crossroad,94559,38.2443368,-122.2989503
110,Stanly Crossroad,94559,38.2443679,-122.2990042
202,Stanly Crossroad,94559,38.2435757,-122.3002403
200,Stanly Crossroad,94559,38.2444939,-122.3017938
101,Stanly Way,94559,38.2425095,-122.3039363
400,Vineyard Circle,94559,38.2451597,-122.3063024
401,Vineyard Circle,94559,38.2454694,-122.3065057
403,Vineyard Circle,94559,38.2457072,-122.3066704
405,Vineyard Circle,94559,38.2458844,-122.3067883
407,Vineyard Circle,94559,38.2459722,-122.3065850
409,Vineyard Circle,94559,38.2460600,-122.3063797
411,Vineyard Circle,94559,38.2461335,-122.3061866
415,Vineyard Circle,94559,38.2462053,-122.3060057
417,Vineyard Circle,94559,38.2460361,-122.3059325
419,Vineyard Circle,94559,38.2459371,-122.3058186
402,Vineyard Circle,94559,38.2454837,-122.3058674
404,Vineyard Circle,94559,38.2456466,-122.3056398
406,Vineyard Circle,94559,38.2457503,-122.3054853
1451,Stanly Lane,94559,38.2446585,-122.2939614
100,Home Hill Road,94559,38.2415323,-122.3024180
200,Home Hill Road,94559,38.2409804,-122.3018348
101,Home Hill Road,94559,38.2408670,-122.3033472
906,Infinity Bend,94559,38.2472624,-122.3024003
904,Infinity Bend,94559,38.2472508,-122.3026766
800,Riperian Circle,94559,38.2466984,-122.3040046
802,Riperian Circle,94559,38.2465567,-122.3038789
804,Riperian Circle,94559,38.2464135,-122.3036701
806,Riperian Circle,94559,38.2465261,-122.3034224
808,Riperian Circle,94559,38.2465998,-122.3032932
810,Riperian Circle,94559,38.2467068,-122.3031392
812,Riperian Circle,94559,38.2468763,-122.3029959
814,Riperian Circle,94559,38.2469972,-122.3031870
816,Riperian Circle,94559,38.2471293,-122.3033250
910,Stanly Way,94559,38.2473141,-122.3032631
907,Stanly Way,94559,38.2476588,-122.3036135
909,Stanly Way,94559,38.2479520,-122.3034613
709,Nichols Trellis,94559,38.2471571,-122.3040222
707,Nichols Trellis,94559,38.2473183,-122.3041090
705,Nichols Trellis,94559,38.2473391,-122.3043939
703,Nichols Trellis,94559,38.2471334,-122.3045301
701,Nichols Trellis,94559,38.2469847,-122.3044222
515,Allen Court,94559,38.2465206,-122.3048610
501,Allen Court,94559,38.2463677,-122.3051406
503,Allen Court,94559,38.2465289,-122.3053105
505,Allen Court,94559,38.2466498,-122.3054096
507,Allen Court,94559,38.2467554,-122.3052680
509,Allen Court,94559,38.2468152,-122.3051070
511,Allen Court,94559,38.2466859,-122.3049938
2747,Napa Valley Corporate Drive,94559,38.2488308,-122.2763550
2747,Napa Valley Corporate Drive,94558,38.2488244,-122.2752220
2751,Napa Valley Corporate Drive,94558,38.2496233,-122.2751480
2731,Napa Valley Corporate Drive,94558,38.2495957,-122.2762790
2721,Napa Valley Corporate Drive,94558,38.2511474,-122.2763060
2569,Napa Valley Corporate Drive,94558,38.2522222,-122.2756740
901,Kaiser Road,94558,38.2571064,-122.2753540
999,Kaiser Road,94558,38.2570959,-122.2763490
994,Kaiser Road,94558,38.2577652,-122.2768480
986,Kaiser Road,94558,38.2577447,-122.2765112
978,Kaiser Road,94558,38.2577821,-122.2761360
962,Kaiser Road,94558,38.2578684,-122.2754470
954,Kaiser Road,94558,38.2578284,-122.2750850
956,Kaiser Road,94558,38.2579339,-122.2750864
958,Kaiser Road,94558,38.2580854,-122.2751090
946,Kaiser Road,94559,38.2581464,-122.2747393
938,Kaiser Road,94558,38.2581591,-122.2743530
860,Latour Court,94559,38.2568364,-122.2740392
840,Latour Court,94558,38.2567564,-122.2731110
871,Latour Court,94558,38.2560066,-122.2741000
841,Latour Court,94558,38.2558149,-122.2731400
831,Latour Court,94558,38.2557454,-122.2723030
830,Latour Court,94558,38.2568027,-122.2721850
2550,Napa Valley Corporate Drive,94558,38.2553915,-122.2741110
2570,Napa Valley Corporate Drive,94558,38.2538224,-122.2735020
2560,Napa Valley Corporate Drive,94558,38.2543174,-122.2734940
2545,Napa Valley Corporate Drive,94558,38.2538750,-122.2754040
2557,Napa Valley Corporate Drive,94558,38.2531378,-122.2755010
2531,Napa Valley Corporate Drive,94558,38.2548039,-122.2754900
2515,Napa Valley Corporate Drive,94558,38.2554716,-122.2750930
2511,Napa Valley Corporate Drive,94558,38.2558212,-122.2762270
2660,Napa Valley Corporate Drive,94558,38.2507481,-122.2739870
860,Napa Valley Corporate Way,94558,38.2502889,-122.2736060
870,Napa Valley Corporate Way,94558,38.2510935,-122.2732410
2656,Napa Valley Corporate Drive,94558,38.2515948,-122.2742790
2654,Napa Valley Corporate Drive,94559,38.2516601,-122.2737673
2700,Napa Valley Corporate Drive,94558,38.2488478,-122.2735660
875,Napa Valley Corporate Way,94558,38.2492065,-122.2728100
851,Napa Valley Corporate Way,94558,38.2490020,-122.2727120
865,Napa Valley Corporate Way,94558,38.2487271,-122.2725920
801,Napa Valley Corporate Way,94558,38.2487305,-122.2722120
855,Bordeaux Way,94558,38.2496927,-122.2718370
961,Anselmo Court,94558,38.2456958,-122.2798790
920,Anselmo Court,94558,38.2466922,-122.2785380
970,Anselmo Court,94558,38.2465848,-122.2800420
2771,Napa Valley Corporate Drive,94559,38.2471156,-122.2761123
2773,Napa Valley Corporate Drive,94558,38.2471997,-122.2761460
2775,Napa Valley Corporate Drive,94558,38.2470456,-122.2761820
2789,Napa Valley Corporate Drive,94558,38.2468706,-122.2769700
2791,Napa Valley Corporate Drive,94558,38.2468144,-122.2770320
2793,Napa Valley Corporate Drive,94558,38.2467976,-122.2771386
2793,Napa Valley Corporate Drive,94559,38.2468136,-122.2772013
2795,Napa Valley Corporate Drive,94559,38.2467427,-122.2772655
2797,Napa Valley Corporate Drive,94559,38.2467575,-122.2773892
2799,Napa Valley Corporate Drive,94559,38.2466918,-122.2774633
2777,Napa Valley Corporate Drive,94558,38.2470476,-122.2763020
2779,Napa Valley Corporate Drive,94558,38.2470002,-122.2763380
2781,Napa Valley Corporate Drive,94558,38.2470100,-122.2764480
2783,Napa Valley Corporate Drive,94558,38.2469536,-122.2765180
2785,Napa Valley Corporate Drive,94558,38.2469548,-122.2766410
2787,Napa Valley Corporate Drive,94558,38.2469012,-122.2767280
865,Napa-Vallejo Highway,94558,38.2464671,-122.2720167
875,Bordeaux Way,94558,38.2459271,-122.2738127
850,Bordeaux Way,94558,38.2471190,-122.2735982
2383,Napa-Vallejo Highway,94558,38.2614012,-122.2723112
2550,Napa Valley Corporate Drive,94558,38.2553655,-122.2740147
2295,Streblow Drive,94558,38.2651976,-122.2759223
1600,Soscol Avenue,94559,38.3050454,-122.2831171
4000,Bel Aire Plaza,94558-2835,38.3224745,-122.3082177
055,School Street,94559,38.2967142,-122.2894871
3331,Jefferson Street,94558,38.3213504,-122.3011331
3375,Jefferson Street,94558,38.3211507,-122.3018190
1133,Coombsville Road,94558,38.2944468,-122.2601518
623,Coombs Street,94559,38.2958154,-122.2851053
1195,3rd Street,94559,38.2955962,-122.2836904
1350,3rd Street,94559,38.2965238,-122.2874903
819,Randolph Street,94559-2910,38.2967987,-122.2871582
3263,Browns Valley Road,94558,38.3043017,-122.3296116
3271,Browns Valley Road,94558,38.3044669,-122.3298271
1001,1001 Buhman Avenue,94558,38.3048850,-122.3405487
34,Jacks Lane,94558,38.2974097,-122.2622819
806,Imola Avenue,94558,38.2810701,-122.2755706
820,West Imola Avenue,94559,38.2811372,-122.2762518
570,Soscol Avenue,94559,38.2941074,-122.2775135
570,Soscol Avenue,94559,38.2942721,-122.2786694
2922,Redwood Road,94558,38.3154418,-122.3385787
3009,Devita Drive,94558,38.2924751,-122.3125635
1539,1st Street,94559,38.2968088,-122.2902341
500,1st Street,94559,38.3029643,-122.2803788
3980,Bel Aire Plaza,94558,38.3231682,-122.3095295
1000,Trancas Street,95678,38.3252983,-122.2965806
1641,Trancas Street,94558,38.3216498,-122.3045929
1450,Trancas Street,94558,38.3227348,-122.3023541
155,Soscol Avenue,94559,38.2814240,-122.2747454
295,Soscol Avenue,94559,38.2847599,-122.2752118
100,Hartle Court,94558,38.2835961,-122.2795502
225,Soscal Avenue,94559,38.2845851,-122.2772892
217,Soscol Avenue,94559,38.2835215,-122.2776254
211,Soscol Avenue,94559,38.2829703,-122.2775957
205,Soscol Avenue,94559,38.2822009,-122.2775837
2550,Napa Valley Corporate Drive,94558,38.2553318,-122.2740517
629,Factory Stores Drive,94558,38.2964211,-122.3034085
2700,Kilburn Avenue,94558,38.2965804,-122.3051165
3284,Jefferson Street,94558,38.3215625,-122.2990647
3246,Jefferson Street,94558,38.3206911,-122.2988260
3224,Jefferson Street,94558-3436,38.3199221,-122.2985034
3177,Jefferson Street,94558,38.3183136,-122.2989223
3000,Jefferson Street,94558,38.3158448,-122.2976173
3025,Jefferson Street,94558-4921,38.3161798,-122.2984042
1631,Imola Avenue,94559,38.2814881,-122.2922440
1700,West Imola Avenue,94559,38.2823118,-122.2931188
1030,Main Street,94559,38.2996769,-122.2855161
920,Yount Street,94559,38.3050363,-122.2892098
1200,Lincoln Avenue,94558,38.3086947,-122.2955580
681,Lincoln Avenue,94558,38.3090089,-122.2832863
1314,McKinstry Street,94559,38.3038800,-122.2834163
1739,Action Avenue,94559,38.3060926,-122.2869879
33,Jacks Lane,94558,38.2967658,-122.2620083
21,Jacks Lane,94558,38.2966379,-122.2622365
11,Jacks Lane,94558,38.2965850,-122.2626627
10,Jacks Lane,94558,38.2967446,-122.2634053
26,Jacks Lane,94558,38.2974428,-122.2629083
42,Jacks Lane,94558,38.2980588,-122.2621227
411,Coombsville Road,94559,38.2978590,-122.2679095
1017,Coombsville Road,94558,38.2972439,-122.2691966
1046,McKinstry Street,94559,38.3016763,-122.2821897
605,1st Street,94558,38.3011725,-122.2810645
1480,El Centro Avenue,94558,38.3376424,-122.3137742
3238,Piedmont Avenue,94558,38.3215535,-122.2969663
3254,Piedmont Avenue,94558,38.3218761,-122.2970595
3206,Piedmont Avenue,94558,38.3209150,-122.2967833
3222,Piedmont Avenue,94558,38.3212348,-122.2968731
3138,Piedmont Avenue,94558,38.3202742,-122.2965922
2974,Piedmont Avenue,94558,38.3195504,-122.2961451
3122,Piedmont Avenue,94558,38.3201218,-122.2965481
3060,Piedmont Avenue,94558,38.3198014,-122.2964313
3154,Piedmont Avenue,94558,38.3204419,-122.2966521
3270,Piedmont Avenue,94558,38.3221982,-122.2971589
3262,Piedmont Avenue,94558,38.3220412,-122.2971055
3278,Piedmont Avenue,94558,38.3223552,-122.2972096
3246,Piedmont Avenue,94558,38.3217193,-122.2970216
1670,Silverado Trail,94559-1412,38.3109907,-122.2760530
325,Lincoln Avenue,94558-3606,38.3102090,-122.2772494
1520,Silverado Trail,94558,38.3055071,-122.2773727
999,Trancas Street,94558,38.3233046,-122.2956147
3010,Beard Road,94558,38.3200694,-122.2946431
1011,Professional Drive,94558,38.3197888,-122.2942891
1001,Professional Drive,94558,38.3198861,-122.2937441
1010,Professional Drive,94558,38.3201639,-122.2941091
1000,Professional Drive,94558,38.3202424,-122.2936502
3030,Beard Road,94558,38.3204759,-122.2941795
3020,Beard Road,94558,38.3203900,-122.2947390
3421,Villa Lane,94558,38.3243595,-122.2941948
4245,Wine Country Court,94558,38.3360798,-122.3237104
4255,Wine Country Court,94558,38.3361818,-122.3237845
4265,Wine Country Court,94558,38.3363051,-122.3238860
4275,Wine Country Court,94558,38.3364227,-122.3239824
1030,Wine Country Avenue,94558,38.3359314,-122.3236473
2110,Waverly Street,94558,38.3087335,-122.3128520
3360,Solano Avenue,94558,38.3195126,-122.3090772
3585,Solano Avenue,94558,38.3241362,-122.3130502
3285,Claremont Way,94558,38.3202695,-122.3032591
1998,Trower Avenue,94558,38.3316721,-122.3172070
967,1st Street,94559,38.2992823,-122.2849072
1116,1st Street,94559,38.2994212,-122.2869801
829,Main Street,94559,38.2981183,-122.2848795
1450,First Street,94559,38.2976340,-122.2892915
930,Seminary Street,94559,38.2967907,-122.2908568
2000,Solano Avenue,94558,38.3304986,-122.3182633
1313,Main Street,94559,38.3014812,-122.2876181
945,Hartle Court,94558,38.2819321,-122.2813953
1300,Clay Street,94559,38.2988969,-122.2888521
3004,Beecham Street,94558,38.3201820,-122.2889570
1195,La Homa Drive,94558,38.3198455,-122.2880945
1195,La Homa Drive,94558,38.3198218,-122.2882746
1195,La Homa Drive,94558,38.3197859,-122.2884330
1195,La Homa Drive,94558,38.3197306,-122.2887449
1195,La Homa Drive,94558,38.3197667,-122.2885799
1195,La Homa Drive,94558,38.3197138,-122.2889129
1195,La Homa Drive,94558,38.3196717,-122.2882242
1195,La Homa Drive,94558,38.3196949,-122.2880632
43,Windsor Court,94558,38.3195413,-122.2880707
30,Windsor Court,94558,38.3190439,-122.2885894
34,Windsor Court,94558,38.3190710,-122.2884427
38,Windsor Court,94558,38.3190805,-122.2883011
718,Pueblo Avenue,94558,38.3185713,-122.2865110
718,Pueblo Avenue,94558,38.3187181,-122.2866427
718,Pueblo Avenue,94558,38.3188950,-122.2866118
39,Windsor Court,94558,38.3194285,-122.2883778
35,Windsor Court,94558,38.3193927,-122.2885176
145,Gasser Lane,94559,38.2814013,-122.2793695
195,Gasser Drive,94558,38.2828772,-122.2799782
9,Coombsville Road,94559,38.2995392,-122.2755578
1556,Polk Street,94559,38.2992127,-122.2920685
2725,Elm Street,94558,38.2891415,-122.3059840
2725,Elm Street,94558,38.2895525,-122.3060683
444,Taylor Street,94559,38.3002341,-122.2782087
875,Bordeaux Way,94558,38.2457985,-122.2737263
865,Bordeaux Way,94558,38.2467937,-122.2720492
500,Silverado Trail,94559,38.2942971,-122.2754372
4066,Howard Ln,94558,38.3419069,-122.3244704
2640,Jefferson Street,94558,38.3124166,-122.2965211
1075,California Boulevard,94559,38.3004307,-122.3015734
800,California Boulevard,94559,38.2968738,-122.3001358
200,South Coombs Street,94559,38.2831290,-122.2884322
100,Soscol Avenue,94559,38.2808091,-122.2734711
1754,2nd Street,94559,38.2966281,-122.2924953
1453,Thomas Drive,94558,38.3145237,-122.3136075
1441,Thomas Drive,94558,38.3143451,-122.3135520
2109,Morlan Drive,94558,38.3115593,-122.3123543
4195,Solano Avenue,94558,38.3354660,-122.3228120
48,Catania Lane,94558,38.3267438,-122.2903160
850,Bordeaux Way,94558,38.2471374,-122.2741031
28,Highland Drive,94558,38.3071263,-122.2752188
28,Highland Drive,94558,38.3072283,-122.2749363
28,Highland Drive,94558,38.3071400,-122.2748411
1815,Silverado Trail,94558,38.3152542,-122.2765040
492,Randolph Street,94559,38.2935025,-122.2859348
983,Napa Street,94559,38.3027633,-122.2877595
960,Caymus Street,94559,38.3024964,-122.2872740
788,Vista Tulocoy Lane,94559,38.2900715,-122.2784894
320,Soscol Avenue,94559,38.2872550,-122.2744140
42,Cercado Court,94558,38.2844725,-122.2918295
1501,Park Avenue,94558,38.3118520,-122.3002400
1501,Park Avenue,94558,38.3118421,-122.2998017
2815,Jefferson Street,94558,38.3141233,-122.2977642
3101,California Boulevard,94558,38.3163465,-122.3059030
1000,Trancas Street,94558,38.3254535,-122.2958675
3443,Villa Lane,94558,38.3258360,-122.2950267
3448,Villa Lane,94558,38.3258250,-122.2939245
3001,Beecham Street,94558,38.3199960,-122.2894625
1188,La Homa Drive,94558,38.3199815,-122.2897360
1180,La Homa Drive,94558,38.3199325,-122.2901085
1176,La Homa Drive,94558,38.3198180,-122.2905280
1172,La Homa Drive,94558,38.3197727,-122.2908216
1166,La Homa Drive,94558,38.3197110,-122.2910944
1168,La Homa Drive,94558,38.3199223,-122.2911772
1170,La Homa Drive,94558,38.3201250,-122.2912170
1158,La Homa Drive,94558,38.3196660,-122.2914390
1150,La Homa Drive,94558,38.3196420,-122.2917895
1146,La Homa Drive,94558,38.3195506,-122.2920658
1138,La Homa Drive,94558,38.3194970,-122.2923960
1132,La Homa Drive,94558,38.3194265,-122.2927140
1126,La Homa Drive,94558,38.3193790,-122.2929955
1120,La Homa Drive,94558,38.3193185,-122.2933295
1116,La Homa Drive,94558,38.3192485,-122.2936780
1110,La Homa Drive,94558,38.3192030,-122.2939765
1104,La Homa Drive,94558,38.3191460,-122.2942260
2880,Beard Road,94558,38.3191550,-122.2944630
1105,La Homa Drive,94558,38.3186985,-122.2942065
1107,La Homa Drive,94558,38.3187930,-122.2938160
1115,La Homa Drive,94558,38.3188405,-122.2935290
1149,La Homa Drive,94558,38.3191395,-122.2919600
1151,La Homa Drive,94558,38.3191990,-122.2916265
1153,La Homa Drive,94558,38.3192820,-122.2913145
1155,La Homa Drive,94558,38.3193075,-122.2909800
1159,La Homa Drive,94558,38.3193960,-122.2906600
1161,La Homa Drive,94558,38.3194235,-122.2903225
1163,La Homa Drive,94558,38.3194480,-122.2900320
1181,La Homa Drive,94558,38.3194625,-122.2896715
1195,La Homa Drive,94558,38.3196241,-122.2893931
1195,La Homa Drive,94558,38.3196593,-122.2892542
1195,La Homa Drive,94558,38.3194610,-122.2893465
1195,La Homa Drive,94558,38.3194865,-122.2891980
842,Windsor Street,94558,38.3186155,-122.2908150
850,Windsor Street,94558,38.3185765,-122.2910195
862,Windsor Street,94558,38.3185240,-122.2911825
830,Windsor Street,94558,38.3186695,-122.2905920
870,Windsor Street,94558,38.3185211,-122.2914149
882,Windsor Street,94558,38.3184685,-122.2916315
890,Windsor Street,94558,38.3184138,-122.2918244
900,Windsor Street,94558,38.3183935,-122.2920455
908,Windsor Street,94558,38.3183570,-122.2922445
916,Windsor Street,94558,38.3183235,-122.2924425
924,Windsor Street,94558,38.3182860,-122.2926550
932,Windsor Street,94558,38.3182705,-122.2928610
940,Windsor Street,94558,38.3182350,-122.2930695
948,Windsor Street,94558,38.3182095,-122.2932650
956,Windsor Street,94558,38.3181850,-122.2934890
964,Windsor Street,94558,38.3181565,-122.2936775
972,Windsor Street,94558,38.3181094,-122.2938866
988,Windsor Street,94558,38.3180965,-122.2940890
969,Windsor Street,94558,38.3177295,-122.2936730
961,Windsor Street,94558,38.3177560,-122.2934675
953,Windsor Street,94558,38.3177900,-122.2932605
945,Windsor Street,94558,38.3178355,-122.2930600
937,Windsor Street,94558,38.3178280,-122.2928450
929,Windsor Street,94558,38.3178625,-122.2926445
921,Windsor Street,94558,38.3178915,-122.2924360
2737,Crocker Street,94558,38.3179730,-122.2921595
2407,Norton Street,94558,38.3135360,-122.2917125
718,Pueblo Avenue,94558,38.3179741,-122.2863565
718,Pueblo Avenue,94558,38.3183420,-122.2864590
2741,Beecham Street,94558,38.3185475,-122.2889730
2738,Azalea Street,94558,38.3184640,-122.2893825
975,1st Street,94559,38.2992431,-122.2850773
1091,5th Street,94559,38.2961303,-122.2835141
3700,Lassen Street,94558,38.3292814,-122.3109427
3700,Lassen Street,94558,38.3290365,-122.3114475
3700,Lassen Street,94558,38.3285987,-122.3112702
3700,Lassen Street,94558,38.3291498,-122.3124503
1000,Trancas Street,94558,38.3248689,-122.2965685
3269,Montclair Avenue,94558,38.3222701,-122.2968141
3261,Montclair Avenue,94558,38.3221115,-122.2967730
3253,Montclair Avenue,94558,38.3219490,-122.2967020
3245,Montclair Avenue,94558,38.3217905,-122.2966815
3237,Montclair Avenue,94558,38.3216315,-122.2966347
3229,Montclair Avenue,94558,38.3214630,-122.2965955
3221,Montclair Avenue,94558,38.3212990,-122.2965255
3213,Montclair Avenue,94558,38.3211433,-122.2964593
3205,Montclair Avenue,94558,38.3209890,-122.2964240
3173,Montclair Avenue,94558,38.3208205,-122.2963770
3157,Montclair Avenue,94558,38.3206540,-122.2963160
3141,Montclair Avenue,94558,38.3205050,-122.2962970
3125,Montclair Avenue,94558,38.3203435,-122.2962642
3109,Montclair Avenue,94558,38.3201680,-122.2961980
3089,Montclair Avenue,94558,38.3200005,-122.2961042
3073,Montclair Avenue,94558,38.3198430,-122.2959840
3057,Montclair Avenue,94558,38.3197275,-122.2958050
3041,Montclair Avenue,94558,38.3196625,-122.2955660
3025,Montclair Avenue,94558,38.3196269,-122.2952949
3009,Montclair Avenue,94558,38.3196569,-122.2950668
3214,Piedmont Avenue,94558,38.3210852,-122.2968399
3230,Piedmont Avenue,94558,38.3214060,-122.2969330
3186,Piedmont Avenue,94558,38.3207660,-122.2967425
3170,Piedmont Avenue,94558,38.3206035,-122.2966885
3106,Piedmont Avenue,94558,38.3199445,-122.2964850
3010,Piedmont Avenue,94558,38.3196710,-122.2963240
2952,Piedmont Avenue,94558,38.3194900,-122.2959560
2930,Piedmont Avenue,94558,38.3194065,-122.2957830
2908,Piedmont Avenue,94558,38.3193315,-122.2956060
2860,Piedmont Avenue,94558,38.3193289,-122.2953682
2832,Piedmont Avenue,94558,38.3193370,-122.2951710
2812,Piedmont Avenue,94558,38.3193860,-122.2949740
2775,Main Street,94558,38.3180925,-122.2961910
2763,Main Street,94558,38.3179540,-122.2961440
2755,Main Street,94558,38.3176613,-122.2960608
1034,Pueblo Avenue,94558,38.3174025,-122.2961310
2770,Main Street,94558,38.3181160,-122.2956825
2751,Beard Road,94558,38.3177620,-122.2948465
2734,Main Street,94558,38.3170160,-122.2950195
2720,Main Street,94558,38.3166505,-122.2952165
881,Windsor Street,94558,38.3180585,-122.2914800
869,Windsor Street,94558,38.3181135,-122.2912760
861,Windsor Street,94558,38.3181471,-122.2910822
849,Windsor Street,94558,38.3181972,-122.2908864
841,Windsor Street,94558,38.3182132,-122.2906707
829,Windsor Street,94558,38.3182600,-122.2904745
821,Windsor Street,94558,38.3182900,-122.2902580
809,Windsor Street,94558,38.3183389,-122.2900520
1141,Pear Tree Lane,94558,38.3210028,-122.2920855
3036,Beard Road,94558,38.3205650,-122.2938270
500,Lincoln Avenue,94558,38.3110570,-122.2787700
1976,Wise Drive,94558,38.3327612,-122.3166729
456,Taylor Street,94559,38.3004506,-122.2784384
2295,Streblow Drive,94558,38.2677605,-122.2768966
1050,Hagen Road,94558,38.3221485,-122.2708475
1,Vista Point Drive,94559,38.2443672,-122.2753511
1938,1st Street,94559,38.2978796,-122.2950363
1042,Easum Drive,94558,38.3031190,-122.3108616
1553,2nd Street,94559,38.2959151,-122.2896085
530,3rd Street,94559,38.2995123,-122.2786369
3684,Jomar Drive,94558,38.3221881,-122.3225267
3700,Lassen Street,94558,38.3291397,-122.3119579
981,Napa Street,94559,38.3029449,-122.2869226
9,Coombsville Road,94559,38.2995750,-122.2756102
9,Coombsville Road,94559,38.2997321,-122.2756384
1000,Trancas Street,94558,38.3258868,-122.2975315
1244,South Freeway Drive,94558,38.2981426,-122.3044104
2000,Trower Avenue,94558,38.3305731,-122.3182475
930,Seminary Street,94559,38.2968237,-122.2908576
1502,Main Street,94559,38.3028781,-122.2882274
1506,Main Street,94559,38.3029327,-122.2883299
2601,Brown Street,94558,38.3139147,-122.2963653
1616,Pine Street,94558,38.2914036,-122.2913455
1805,Pueblo Avenue,94558,38.3137893,-122.3062701
1805,Pueblo Avenue,94558,38.3136609,-122.3060411
1675,Trancas Street,94558,38.3215985,-122.3051369
100,Magnolia Drive,94558,38.2789837,-122.2757335
2295,Streblow Drive,94558,38.2674947,-122.2766940
765,Vista Tulocoy Lane,94559,38.2895693,-122.2796249
765,Vista Tulocoy Lane,94559,38.2893753,-122.2796660
1030,Pueblo Avenue,94558,38.3165626,-122.2958276
1032,Pueblo Avenue,94558,38.3164144,-122.2957201
727,Central Avenue,94558,38.3136025,-122.2869017
727,Central Avenue,94558,38.3129306,-122.2870961
727,Central Avenue,94558,38.3133292,-122.2868459
727,Central Avenue,94558,38.3130924,-122.2865979
727,Central Avenue,94558,38.3129593,-122.2867571
727,Central Avenue,94558,38.3131671,-122.2868970
718,Pueblo Avenue,94558,38.3181602,-122.2864809
1501,Park Avenue,94558,38.3118468,-122.3001363
2951,Soscol Avenue,94558,38.3218833,-122.2864513
2751,Beard Road,94558,38.3175757,-122.2950700
1030,Pueblo Avenue,94558,38.3163049,-122.2957723
3080,Jefferson Street,94558,38.3166520,-122.2979317
1050,Pueblo Avenue,94558,38.3158901,-122.2974919
443,Brown Street,94559,38.2925094,-122.2845666
200,Stanly Crossroad,94559,38.2450305,-122.3002160
200,Stanly Crossroad,94559,38.2451985,-122.3000111
200,Stanly Crossroad,94559,38.2454357,-122.3003367
3425,Solano Avenue,94558,38.3230174,-122.3122718
411,Coombsville Road,94559,38.2989752,-122.2708223
3460,Villa Lane,94558,38.3268363,-122.2942505
980,Trancas Street,94558,38.3242198,-122.2953902
705,Trancas Street,94558,38.3236651,-122.2905392
