House number,Street name,Postal code,Latitude,Longitude
5727,College Avenue,94618,37.8455422,-122.2526120
6058,College Avenue,94618,37.8492825,-122.2521246
1707,Gouldin Road,94611,37.8370896,-122.2099102
460,8th Street,94607,37.8004763,-122.2741200
2432,Telegraph Avenue,94612,37.8143904,-122.2681778
2300,Broadway,94612,37.8122367,-122.2660360
421,40th Street,94609,37.8283848,-122.2607361
2620,Pleasant Street,94601,37.7974277,-122.2169123
1051,55th Street,94608,37.8385380,-122.2799694
3250,Lakeshore Avenue,94610,37.8099099,-122.2443754
3437,Lakeshore Avenue,94610,37.8115287,-122.2425631
6319,College Avenue,94618,37.8506823,-122.2525651
4901,Telegraph Avenue,94609,37.8358590,-122.2628390
4695,Telegraph Avenue,95476,37.8342622,-122.2632790
1,Franklin Street,94607,37.7936968,-122.2763230
401,2nd Street,94607,37.7955009,-122.2754053
1807,Telegraph Avenue,94612,37.8082481,-122.2701322
1,Broadway,94607,37.7945645,-122.2776767
1807,Telegraph Avenue,94612,37.8079937,-122.2701577
5098,Telegraph Avenue,94609,37.8370440,-122.2621460
6323,College Avenue,94618,37.8507946,-122.2525774
5008,Telegraph Avenue,94609,37.8366075,-122.2622684
5741,Thornhill Drive,94611-2144,37.8346561,-122.2124927
3434,High Street,94619,37.7860067,-122.1962680
2442,Webster Street,94612,37.8140749,-122.2643988
3320,Fruitvale Avenue,94602,37.7988894,-122.2156833
3450,MacArthur Boulevard,94602,37.8001817,-122.2160777
3438,Fruitvale Avenue,94602,37.7999125,-122.2161842
3403,Fruitvale Avenue,94602,37.7993451,-122.2167267
3411,Fruitvale Avenue,94602,37.7995507,-122.2166731
2208,MacArthur Boulevard,94602,37.8003766,-122.2158430
1951,Embarcadero,94606,37.7813706,-122.2437620
532,Grand Avenue,94610,37.8088822,-122.2508030
1585,Madison Street,94612,37.8040509,-122.2626780
19,Grand Avenue,94612,37.8113118,-122.2662870
906,Washington Street,94607,37.8015933,-122.2742400
347,14th Street,94612,37.8031879,-122.2687250
340,14th Street,94612,37.8034279,-122.2685097
365,17th Street,94612,37.8057586,-122.2677606
355,19th Street,94612,37.8068275,-122.2669739
351,19th Street,94612,37.8067961,-122.2668720
4184,Piedmont Avenue,94611,37.8270378,-122.2510220
1019,Clay Street,94607,37.8031445,-122.2751360
1007,Clay Street,94607,37.8028075,-122.2753370
3314,Piedmont Avenue,94611,37.8207702,-122.2606614
59,Grand Avenue,94612,37.8112834,-122.2656480
1111,Broadway,94607,37.8029646,-122.2726230
1200,Clay Street,94612,37.8043802,-122.2738572
400,40th Street,94609,37.8285776,-122.2599090
400,15th Street,94612,37.8049835,-122.2694891
464,3rd Street,94607,37.7971044,-122.2762710
4822,Telegraph Avenue,94609,37.8350250,-122.2626820
4401,Piedmont Avenue,94611,37.8304417,-122.2473140
4290,Piedmont Avenue,94611,37.8285330,-122.2493870
2207,MacArthur Boulevard,94602,37.8001844,-122.2159367
4100,MacArthur Boulevard,94619,37.7896020,-122.1966527
1805,Telegraph Avenue,94612,37.8077543,-122.2702489
4012,Broadway,94611,37.8277771,-122.2563339
6334,San Pablo Avenue,94608,37.8468188,-122.2847736
247,4th Street,94607,37.7953644,-122.2705360
2882,Telegraph Avenue,94609,37.8180313,-122.2672580
4659,Telegraph Avenue,94609,37.8340168,-122.2633671
5002,Telegraph Avenue,94609,37.8364650,-122.2622810
6317,College Avenue,94618,37.8506299,-122.2525593
2123,Franklin Street,94612,37.8103166,-122.2667990
5696,San Pablo Avenue,94608,37.8402701,-122.2826233
5412,San Pablo Avenue,94608,37.8379714,-122.2817665
1076,59th Street,94608,37.8422985,-122.2824573
1220,59th Street,94608,37.8422159,-122.2858154
1038,59th Street,94608,37.8425972,-122.2808936
1158,59th Street,94608,37.8423727,-122.2850564
1050,59th Street,94608,37.8425231,-122.2814327
1066,59th Street,94608,37.8424277,-122.2819718
2216,Broadway,94612,37.8112050,-122.2666780
1715,Telegraph Avenue,94612,37.8071296,-122.2703669
1711,Telegraph Avenue,94612,37.8070785,-122.2703767
1068,Webster Street,94607,37.8009551,-122.2701294
960,Arlington Avenue,94608,37.8421720,-122.2771871
498,Wesley Avenue,94606,37.8045741,-122.2495187
528,Lake Park Avenue,94610,37.8103373,-122.2466500
3219,Lakeshore Avenue,94610,37.8103688,-122.2457107
5095,Telegraph Avenue,94609,37.8369028,-122.2634973
9725,East 14th Street,94603-2509,37.7443263,-122.1710747
4045,Piedmont Avenue,94611,37.8262484,-122.2528992
1612,7th Street,94607,37.8062641,-122.2984609
2204,Broadway,94612,37.8110301,-122.2665954
1541,East 12th Street,94606-4414,37.7879818,-122.2462275
3271,Lakeshore Avenue,94610,37.8107228,-122.2446840
3612,Grand Avenue,94610,37.8153622,-122.2453942
630,High Street,94601,37.7674874,-122.2205630
6706,San Pablo Avenue,94608,37.8499400,-122.2857530
530,Grand Avenue,94610,37.8088561,-122.2508732
1915,San Pablo Avenue,94612,37.8092992,-122.2730904
411,26th Street,94612,37.8149932,-122.2666028
2807,Telegraph Avenue,94609,37.8175962,-122.2677651
4207,Park Boulevard,94602,37.8074229,-122.2226562
4209,Park Boulevard,94602,37.8074472,-122.2226087
2999,Glascock Street,94601,37.7711367,-122.2327074
1982,Pleasant Valley Boulevard,94611,37.8334228,-122.2494472
5020,Telegraph Avenue,94609,37.8367960,-122.2622064
4920,Telegraph Avenue,94609,37.8361861,-122.2623612
419,40th Street,94609,37.8283775,-122.2606880
422,29th Avenue,94601,37.7731690,-122.2348257
3943,Piedmont Avenue,94611,37.8253857,-122.2539761
3838,Telegraph Avenue,94609,37.8277787,-122.2646471
1111,Broadway,94607,37.8026413,-122.2728450
504,Wesley Avenue,94606,37.8049159,-122.2488474
1611,2nd Avenue,94606,37.7993565,-122.2546313
4401,San Leandro Street,94601,37.7699326,-122.2164900
3619,Grand Avenue,94610,37.8153352,-122.2461016
831,Broadway,94612,37.8008281,-122.2736320
1423,Broadway,94612,37.8047660,-122.2711320
3617,Grand Avenue,94610,37.8153440,-122.2459730
954,60th Street,94608,37.8441993,-122.2776973
4200,MacArthur Boulevard,94619,37.7883973,-122.1954480
4203,MacArthur Boulevard,94619,37.7883574,-122.1959381
4245,MacArthur Boulevard,94619,37.7877445,-122.1954043
1099,Alcatraz Avenue,94608,37.8468714,-122.2845904
4315,Piedmont Avenue,94611,37.8293276,-122.2488132
2781,Telegraph Avenue,94612,37.8172550,-122.2679432
344,12th Street,94607,37.8020924,-122.2694145
389,Grand Avenue,94610,37.8086190,-122.2543408
178,10th Street,94607,37.7991623,-122.2664057
3355,Lakeshore Avenue,94610,37.8111942,-122.2432930
3333,Lakeshore Avenue,94610,37.8110408,-122.2437200
1446,Leimert Boulevard,94602,37.8117035,-122.2122087
555,12th Street,94607,37.8035578,-122.2749382
3914,MacArthur Boulevard,94619,37.7909847,-122.1978529
3836,MacArthur Boulevard,94613,37.7914023,-122.1981836
6310,College Avenue,94618,37.8506081,-122.2520300
2141,Broadway,94612,37.8107296,-122.2676750
5612,College Avenue,94618,37.8435539,-122.2515165
6000,College Avenue,94618,37.8482631,-122.2520240
5231,College Avenue,94618,37.8365203,-122.2514110
412,22nd Street,94612,37.8109143,-122.2664680
364,Grand Avenue,94610,37.8091778,-122.2562101
357,Grand Avenue,94610,37.8087530,-122.2557720
363,Grand Avenue,94610,37.8087217,-122.2555194
387,Grand Avenue,94610,37.8086486,-122.2544411
815,Broadway,94607,37.8005659,-122.2738043
333,Lancaster Street,94601,37.7706763,-122.2316579
3060,East 9th Street,94601,37.7744523,-122.2302950
3060E,East 9th Street,94601,37.7742928,-122.2299530
3070B,East 9th Street,94601,37.7739466,-122.2287967
4270,Broadway,94611,37.8311350,-122.2542550
1433,Fruitvale Avenue,94601,37.7782233,-122.2257274
4395 Unit A,Piedmont Avenue,94611,37.8301052,-122.2477120
401,13th Street,94607,37.8030940,-122.2706788
341,13th Street,94612,37.8024396,-122.2689899
317,Broadway,94607,37.7972064,-122.2758931
1429,Broadway,94612,37.8052796,-122.2708642
1430,Broadway,94612,37.8047784,-122.2706550
720,High Street,94601,37.7685176,-122.2193573
3431,Louise Street,94608,37.8262940,-122.2855890
1260,7th Street,94607,37.8046930,-122.2907530
1960,Mandela Parkway,94607,37.8147950,-122.2887780
8460,Edgewater Drive,94621,37.7378661,-122.1976380
8460,Edgewater Drive,94621,37.7379797,-122.1974970
4039,Piedmont Avenue,94611,37.8261650,-122.2530160
4000,Piedmont Avenue,94611,37.8254386,-122.2534898
2899,Ford Street,94601,37.7727635,-122.2337510
1960,Mountain Boulevard,94618,37.8280989,-122.2103798
2988,Ford Street,94601,37.7728259,-122.2340389
2899,Ford Street,94601,37.7727792,-122.2338029
2909,Chapman Street,94601,37.7731284,-122.2329922
2909,Chapman Street,94601,37.7732137,-122.2329367
2934,Ford Street,94601,37.7724557,-122.2318656
4721,Tidewater Avenue,94601,37.7618626,-122.2216390
1902,Telegraph Avenue,94612,37.8082904,-122.2696920
451,Hegenberger Road,94621,37.7375380,-122.1972249
1049,55th Street,94608,37.8386443,-122.2798297
4316,Telegraph Avenue,94609,37.8318745,-122.2635400
4235,Terrace Street,94611,37.8309388,-122.2534367
911,Washington Street,94607,37.8017151,-122.2745570
385,22nd Street,94612,37.8108931,-122.2663400
400,21st Street,94612,37.8100185,-122.2668800
288,11th Street,94607,37.8009303,-122.2684973
4238,Broadway,94611,37.8304807,-122.2546392
308,41st Street,94611,37.8286997,-122.2563960
650,14th Street,94612,37.8064001,-122.2760710
1433,Mandela Parkway,94607,37.8115231,-122.2917119
435,13th Street,94612,37.8033436,-122.2712789
382,19th Street,94612,37.8072280,-122.2673584
1707,Telegraph Avenue,94612,37.8070438,-122.2703884
2930,Telegraph Avenue,94609,37.8186752,-122.2670850
336,Water Street,94607,37.7940963,-122.2753635
444,Oak Street,94607,37.7946371,-122.2666940
1741,San Pablo Avenue,94612,37.8076253,-122.2725797
468,3rd Street,94607,37.7971364,-122.2764090
1802,Telegraph Avenue,94612,37.8077414,-122.2698780
1701,Telegraph Avenue,94612,37.8069554,-122.2704133
290,East 18th Street,94606,37.7998493,-122.2518991
238,East 18th Street,94606,37.8002096,-122.2528870
123,Bay Place,94610,37.8118168,-122.2609182
262,Wayne Avenue,94606,37.8021856,-122.2529144
264,Wayne Avenue,94606,37.8022254,-122.2529312
190,Orange Street,94610,37.8150298,-122.2583855
192,Orange Street,94610,37.8149642,-122.2584070
194,Orange Street,94610,37.8149175,-122.2583641
196,Orange Street,94610,37.8150743,-122.2582568
198,Orange Street,94610,37.8150171,-122.2581897
200,Orange Street,94610,37.8149599,-122.2581817
202,Orange Street,94610,37.8150743,-122.2580208
204,Orange Street,94610,37.8150214,-122.2580368
206,Orange Street,94610,37.8149854,-122.2580047
208,Orange Street,94610,37.8149959,-122.2579510
210,Orange Street,94610,37.8149599,-122.2579617
1816,Lakeshore Avenue,94606,37.8009031,-122.2540509
1818,Lakeshore Avenue,94606,37.8009344,-122.2540657
1820,Lakeshore Avenue,94606,37.8009635,-122.2540757
115,Athol Avenue,94606,37.8008684,-122.2537137
117,Athol Avenue,94606,37.8008917,-122.2536909
119,Athol Avenue,94606,37.8009119,-122.2536185
121,Athol Avenue,94606,37.8009023,-122.2535823
2632,Harrison Street,94612,37.8139664,-122.2601083
2634,Harrison Street,94612,37.8139116,-122.2600033
2636,Harrison Street,94612,37.8140105,-122.2600474
2638,Harrison Street,94612,37.8139584,-122.2599559
87,Vernon Street,94610,37.8138429,-122.2592764
275,Vernon Street,94610,37.8147103,-122.2576907
245,Perkins Street,94610,37.8147350,-122.2557537
215,Perkins Street,94610,37.8148819,-122.2559085
425,Lee Street,94610,37.8105439,-122.2568823
340,Lenox Avenue,94610,37.8100091,-122.2577118
299,Jayne Avenue,94610,37.8136458,-122.2560838
297,Jayne Avenue,94610,37.8135824,-122.2560231
295,Jayne Avenue,94610,37.8135097,-122.2559702
208,Oakland Avenue,94611,37.8155933,-122.2582867
210,Oakland Avenue,94611,37.8156384,-122.2582427
254,Oakland Avenue,94611,37.8161408,-122.2574164
256,Oakland Avenue,94611,37.8161039,-122.2573677
258,Oakland Avenue,94611,37.8160702,-122.2573362
310,Oakland Avenue,94611,37.8164366,-122.2568612
444,Oakland Avenue,94611,37.8182512,-122.2543936
442,Oakland Avenue,94611,37.8182237,-122.2544447
446,Oakland Avenue,94611,37.8181134,-122.2543176
448,Oakland Avenue,94611,37.8181479,-122.2542777
418,Oakland Avenue,94611,37.8179382,-122.2547736
424,Oakland Avenue,94611,37.8178801,-122.2547113
3536,Harrison Street,94611,37.8201187,-122.2532299
303,Van Buren Avenue,94610,37.8107071,-122.2561528
402,Lee Street,94610,37.8107156,-122.2563083
404,Lee Street,94610,37.8105715,-122.2563164
406,Lee Street,94610,37.8105440,-122.2562359
456,Lee Street,94610,37.8095501,-122.2567643
372,Adams Street,94610,37.8148667,-122.2547296
374,Adams Street,94610,37.8147799,-122.2546545
293,Euclid Avenue,94610,37.8141835,-122.2531900
276,Lee Street,94610,37.8126451,-122.2567945
280,Lee Street,94610,37.8125052,-122.2565236
296,Lee Street,94610,37.8119988,-122.2561749
294,Lee Street,94610,37.8119352,-122.2561159
329,Perkins Street,94610,37.8118375,-122.2555609
378,Belmont Street,94610,37.8100189,-122.2545391
311,Broadway,94607,37.7971438,-122.2759377
2100,Franklin Street,94612,37.8106675,-122.2664240
1000,Broadway,94607,37.8017983,-122.2724448
2424,Telegraph Avenue,94612,37.8142703,-122.2681876
357,19th Street,94612,37.8068587,-122.2670747
3276,Lakeshore Avenue,94610,37.8105245,-122.2441421
412,14th Street,94612,37.8041334,-122.2702862
1423,Broadway,94612,37.8048475,-122.2710320
1635,Broadway,94612,37.8066129,-122.2699830
468,19th Street,94612,37.8081307,-122.2695930
2318,Telegraph Avenue,94612,37.8128233,-122.2685736
5301,College Avenue,94618,37.8380869,-122.2514995
4063,Piedmont Avenue,94611,37.8262983,-122.2527830
6310,College Avenue,94618,37.8501594,-122.2522190
6309,College Avenue,94618,37.8505446,-122.2525499
444,Harrison Street,94607,37.7964297,-122.2711850
2323,Broadway,94612,37.8126132,-122.2663910
2700,Park Boulevard,94606,37.8022910,-122.2414240
135,12th Street,94607,37.7998622,-122.2646424
380,17th Street,94612,37.8060738,-122.2679758
362,17th Street,94612,37.8059432,-122.2676383
4101,Broadway,94607,37.8286666,-122.2562240
4201,Telegraph Avenue,94609,37.8310226,-122.2641913
2325,Broadway,94612,37.8127327,-122.2666907
439,Water Street,94607,37.7943774,-122.2769202
260,Oak Street,94607,37.7931578,-122.2673506
10,clay Street,94607,37.7953395,-122.2794558
101,Broadway,94607,37.7956054,-122.2769270
333,Broadway,94607,37.7973502,-122.2760210
300,Broadway,94607,37.7967775,-122.2755830
314,Broadway,94607,37.7969935,-122.2755270
310,Broadway,94607,37.7969298,-122.2755664
415,4th Street,94607,37.7970004,-122.2747567
550,2nd Street,94607,37.7972206,-122.2788670
200,Alice Street,94607,37.7943414,-122.2713017
220,Alice Street,94607,37.7945257,-122.2711895
100,Webster Street,94607,37.7945201,-122.2740960
200,Webster Street,94607,37.7955379,-122.2734538
384,Embarcadero West,94607,37.7949563,-122.2752890
39,4th Street,94607,37.7934711,-122.2650247
1960,Mandela Parkway,94607,37.8149944,-122.2894915
721,Washington Street,94607,37.8004427,-122.2753260
388,9th Street,94607,37.8007430,-122.2715490
361,19th Street,94612,37.8068858,-122.2671281
1814,Franklin Street,94612,37.8073066,-122.2675616
25,Grand Avenue,94612,37.8113021,-122.2661680
2228,Broadway,94612,37.8113282,-122.2665880
381,15th Street,94612,37.8045545,-122.2690440
1211,East Embarcadero Cove,94606,37.7876771,-122.2510052
5300,Claremont Avenue,94618,37.8399089,-122.2594145
800,Market Street,94607-3116,37.8031883,-122.2821760
950,Market Street,94607,37.8040764,-122.2821090
546,Grand Avenue,94610,37.8089988,-122.2505266
1302,Broadway,94612,37.8036667,-122.2713480
1540,Broadway,94612,37.8058364,-122.2700086
1009,Clay Street,94607,37.8029170,-122.2752750
10700,MacArthur Boulevard,94605-5206,37.7427342,-122.1509862
7272,International Boulevard,94621,37.7596555,-122.1872923
6300,East 14th Street,94621-3826,37.7638731,-122.1961999
921,Washington Street,94607,37.8019816,-122.2744110
6341,Shattuck Avenue,94609,37.8493378,-122.2658720
285,23rd Street,94612,37.8116642,-122.2640062
2201,Broadway,94612,37.8111513,-122.2671680
3431,San Pablo Avenue,94608,37.8256685,-122.2783700
3630,High Street,94619,37.7870130,-122.1942604
388,19th Street,94612,37.8072767,-122.2674870
1733,Peralta Street,94607,37.8140526,-122.2920090
920,Webster Street,94607,37.8001854,-122.2706127
211,10th Street,94607,37.7992596,-122.2673950
3415,Telegraph Avenue,94609,37.8228287,-122.2664073
2520,East 12th Street,94601-1502,37.7813766,-122.2342330
5812,College Avenue,94618,37.8463581,-122.2518308
10715,MacArthur Boulevard,94605,37.7418003,-122.1514250
3419,Fruitvale Avenue,94602,37.7996496,-122.2166150
3427,Fruitvale Avenue,94602,37.7998209,-122.2165525
3417,Fruitvale Avenue,94602,37.7996076,-122.2166279
3423,Fruitvale Avenue,94602,37.7997432,-122.2165812
3425,Fruitvale Avenue,94602,37.7997831,-122.2165678
3449,Fruitvale Avenue,94602,37.8001576,-122.2163822
2209,MacArthur Boulevard,94602,37.8001649,-122.2158951
2200,MacArthur Boulevard,94602,37.8004331,-122.2159694
2224,MacArthur Boulevard,94602,37.8003119,-122.2154620
2222,MacArthur Boulevard,94602,37.8003235,-122.2155229
2218,MacArthur Boulevard,94602,37.8003374,-122.2155847
2216,MacArthur Boulevard,94602,37.8003454,-122.2156257
2252,MacArthur Boulevard,94602,37.8002238,-122.2150796
2141,MacArthur Boulevard,94602,37.8002956,-122.2164155
2010,MacArthur Boulevard,94602,37.8010041,-122.2181890
2008,MacArthur Boulevard,94602,37.8010151,-122.2182355
3824,Park Boulevard,94602,37.8046317,-122.2280474
5800,College Avenue,94618,37.8461354,-122.2517890
5811,College Avenue,94618,37.8464017,-122.2521361
5817,College Avenue,94618,37.8464488,-122.2521150
5830,College Avenue,94618,37.8467526,-122.2518650
5831,College Avenue,94618,37.8466772,-122.2521430
5833,College Avenue,94618,37.8467238,-122.2521521
5856,College Avenue,94618,37.8469935,-122.2519109
3234,Grand Avenue,94610,37.8119095,-122.2474285
4869,Telegraph Avenue,94609,37.8353327,-122.2630270
426,17th Street,94612,37.8065217,-122.2690810
285,17th Street,94612,37.8050962,-122.2660360
1550,East 12th Street,94606,37.7878081,-122.2450637
1234,23rd Avenue,94606,37.7831424,-122.2360702
2506,International Boulevard,94601,37.7821800,-122.2333424
2424,East International Boulevard,94601,37.7825298,-122.2340103
1204,Fruitvale Avenue,94601,37.7764732,-122.2262450
1034,66th Avenue,94621,37.7583995,-122.1966826
3301,East 12th Street,94601,37.7760558,-122.2246170
3017,Broadway,94611,37.8190851,-122.2623562
377,19th Street,94612,37.8070446,-122.2674515
6321,College Avenue,94618,37.8507546,-122.2525730
4184 C,Piedmont Avenue,94611,37.8270727,-122.2513112
304,Lester Avenue,94606,37.8014678,-122.2511497
375,Newton Avenue,94606,37.8028068,-122.2491131
388,Hanover Avenue,94606,37.8028927,-122.2491440
302,Hanover Avenue,94606,37.8025866,-122.2518541
1591,Madison Street,94612,37.8041118,-122.2626437
1593,Madison Street,94612,37.8041697,-122.2626080
2200,Broadway,94612,37.8109781,-122.2665590
45,Grand Avenue,94612,37.8112916,-122.2657937
408,22nd Street,94612,37.8109068,-122.2664120
9,Grand Avenue,94612,37.8113209,-122.2664190
1951,Telegraph Avenue,94612,37.8094986,-122.2698460
3272,Lakeshore Avenue,94610,37.8105043,-122.2442117
433,Hegenberger Road,94621,37.7369460,-122.1985075
4131,Piedmont Avenue,94611,37.8268969,-122.2520031
4070,Piedmont Avenue,94611,37.8261954,-122.2524918
302,12th Street,94607,37.8018085,-122.2687780
1940,Union Street,94607,37.8146381,-122.2858725
3360,Grand Avenue,94610,37.8136224,-122.2463768
3311,Grand Avenue,94610,37.8130397,-122.2472700
3500,Grand Avenue,94610-2010,37.8141861,-122.2458370
3354,Grand Avenue,94610,37.8135567,-122.2464144
5335,College Avenue,94618,37.8387985,-122.2514980
5254,College Avenue,94618,37.8369302,-122.2511390
2201,Broadway,94612,37.8110944,-122.2675187
715,4th Street,94607,37.7997414,-122.2820450
200,Broadway,94607,37.7961327,-122.2760291
3013,Broadway,94611,37.8189823,-122.2623970
127,41st Street,94611,37.8263085,-122.2518699
4685,Telegraph Avenue,94609,37.8340877,-122.2633224
3800,Piedmont Avenue,94611,37.8239361,-122.2554006
5100,Broadway,94611,37.8347336,-122.2487830
150,Kahn's Alley,94612,37.8053185,-122.2711237
37,Grand Avenue,94612,37.8112948,-122.2658520
478,25th Street,94612,37.8147878,-122.2671806
4201,Market Street,94608,37.8325247,-122.2737166
4150,Redwood Road,94619,37.7966187,-122.1815797
4100,Redwood Road,94619,37.7978550,-122.1822259
4100,Redwood Road,94619,37.7978238,-122.1824654
11889,Skyline Boulevard,94619,37.7987944,-122.1712027
6050,Lowell Street,94608,37.8446904,-122.2767280
8450,Edgewater Drive,94621,37.7376892,-122.1978254
8460,Edgewater Drive,94621,37.7380266,-122.1974112
559,66th Avenue,94621,37.7550584,-122.2065041
6464,Moraga Avenue,94611,37.8266380,-122.2107368
4905,Telegraph Avenue,94609,37.8359536,-122.2628080
11,Rio Vista Avenue,94611,37.8241432,-122.2548435
1246,23rd Avenue,94606,37.7829637,-122.2361385
2121,Harrison Street,94612,37.8094952,-122.2634068
1999,Harrison Street,94612,37.8077827,-122.2651196
3201,Telegraph Avenue,94609,37.8210586,-122.2668470
3801,Telegraph Avenue,94609,37.8268130,-122.2653465
3860,Martin Luther King Jr Way,94609,37.8286124,-122.2685434
2869,Broadway,94612,37.8173661,-122.2632620
2335,Broadway,94612,37.8130474,-122.2664449
406,26th Street,94612,37.8149313,-122.2662715
3009,MacArthur Boulevard,94602,37.7972900,-122.2045360
1111,Broadway,94607,37.8029398,-122.2729765
1111,Broadway,94607,37.8030323,-122.2727801
4327,Piedmont Avenue,94611,37.8293760,-122.2505196
360,40th Street,94609,37.8282826,-122.2579501
3814,Piedmont Avenue,94611,37.8240484,-122.2553384
6310,College Avenue,94618,37.8500964,-122.2522050
1528,Webster Street,94612,37.8049638,-122.2679701
1025,47th Avenue,94601,37.7687394,-122.2140050
308,Jackson Street,94607,37.7944813,-122.2697440
451,Hegenberger Road,94621,37.7374500,-122.1975450
189,98th Avenue,94603,37.7299834,-122.1935530
6432,Shattuck Avenue,94609,37.8502111,-122.2656954
420,14th Street,94612,37.8042842,-122.2702687
1111,Broadway,94607,37.8028087,-122.2730992
1829,Mandela Parkway,94607,37.8141223,-122.2906546
2214,Broadway,94612,37.8111421,-122.2666520
2212,Broadway,94612,37.8110915,-122.2666311
3506,MacArthur Boulevard,94619,37.7936277,-122.2003340
4731,Telegraph Avenue,94609,37.8348177,-122.2631405
5512,Martin Luther King Junior Way,94609,37.8401364,-122.2694930
1900,Embarcadero,94606,37.7832124,-122.2426005
2080,Mountain Boulevard,94611,37.8258631,-122.2093530
6247,College Avenue,94705,37.8500817,-122.2524960
404,14th Street,94612,37.8040777,-122.2700877
5711,College Avenue,94618,37.8455070,-122.2520428
4875,Telegraph Avenue,94609,37.8355072,-122.2629812
1780,Telegraph Avenue,94612,37.8076668,-122.2698930
1955,Broadway,94612,37.8092976,-122.2693620
6623,San Pablo Avenue,94608-1237,37.8492783,-122.2860423
945,Wood Street,94607,37.8103340,-122.3004133
5533,College Avenue,94618-1538,37.8431865,-122.2518390
6124,Telegraph Avenue,94609,37.8478534,-122.2606374
190,4th Street,94607,37.7951231,-122.2691490
2632,International Boulevard,94601,37.7813185,-122.2316486
6311,College Avenue,94618,37.8505797,-122.2525538
4027,Broadway,94611,37.8280332,-122.2566126
1012,Green Avenue,94612,37.8262289,-122.2100170
7,Gauss Way,94720,37.8805970,-122.2446195
520,E. Almanza St.,94603,37.7298176,-122.1778962
6200,Claremont Avenue,94618,37.8495272,-122.2520110
5912,College Avenue,94618,37.8474597,-122.2519095
6510,Telegraph Avenue,94609,37.8513330,-122.2600310
4045,Broadway,94611,37.8283530,-122.2564410
1301,Clay Street,94612,37.8050967,-122.2746345
3535,Hollis Street,94608,37.8282519,-122.2856188
80,Grand Avenue,94612,37.8116333,-122.2661460
1724,Mandela Parkway,94607,37.8134199,-122.2899874
324,23rd Avenue,94606,37.7731045,-122.2355496
360,Grand Avenue,94610,37.8090825,-122.2554480
373,19th Street,94612,37.8070077,-122.2673524
1212,19th Street,94607,37.8138846,-122.2861620
2869,Broadway,94612,37.8173889,-122.2633850
1621,Telegraph Avenue,94612,37.8065374,-122.2705094
1255,26th Street,94607,37.8189247,-122.2852970
5108,Broadway,94611,37.8346799,-122.2498990
528,8th Street,94607,37.8010652,-122.2755671
4442,International Boulevard,94601,37.7717223,-122.2130805
5132,Broadway,94611,37.8337294,-122.2494647
5132,Broadway,94611,37.8338643,-122.2493462
555,10th Street,94607,37.8025663,-122.2760170
570,10th Street,94607,37.8027730,-122.2756240
942,Stanford Avenue,94608,37.8437993,-122.2768030
5101;5179;5199,Telegraph Avenue,94609,37.8374422,-122.2616309
1555,40th Street,94608,37.8287009,-122.2893833
1555,40th Street,94608,37.8281672,-122.2892523
80,Grand Avenue,94612,37.8116578,-122.2663028
2455,Broadway,94612,37.8136662,-122.2656760
5925,College Avenue,94618,37.8475318,-122.2522830
6025,College Avenue,94168,37.8485127,-122.2523406
6021,College Avenue,94168,37.8484629,-122.2523229
6023,College Avenue,94168,37.8484894,-122.2523578
6035,Telegraph Road,94609,37.8470928,-122.2611810
6035,Telegraph Road,94609,37.8470346,-122.2611648
1724,Mandela Parkway,94607,37.8134766,-122.2901660
7305,Edgewater Drive Suite D,94621,37.7446211,-122.2064040
6004,College Avenue,94618,37.8483331,-122.2520460
4158,Piedmont Avenue,94611,37.8267931,-122.2517458
344,Thomas L. Berkley Way,94612,37.8084808,-122.2653700
35,Grand Avenue,94612,37.8112979,-122.2659530
351,15th Street,94612,37.8043373,-122.2684184
359,15th Street,94612,37.8044089,-122.2686085
2519,Telegraph Avenue,94612,37.8147402,-122.2685008
150,Frank H. Ogawa Plaza,94612,37.8046486,-122.2711740
444,Embarcadero West,94607,37.7954143,-122.2764890
4871,Telegraph Avenue,94609,37.8354345,-122.2630022
1011,7th Avenue,94606-3636,37.7925370,-122.2548951
1880,22nd Avenue,94606,37.7877263,-122.2347222
2045,Foothill Boulevard,94606,37.7867226,-122.2377179
1906,Foothill Boulevard,94606,37.7880737,-122.2391050
1901,Harrison Street,94612,37.8067074,-122.2656495
4937,"Telegraph Avenue, Suite A",94609,37.8359413,-122.2629536
405,Hegenberger Road,94621,37.7361298,-122.1979120
8430,Edgewater Drive,94621,37.7378247,-122.1985238
5014,International Boulevard,94601,37.7695407,-122.2081990
2250,East 20th Street,94606,37.7883361,-122.2326870
813,37th Street,94608,37.8266651,-122.2723498
388,9th Street,94607,37.8004416,-122.2718372
3249,Grand Avenue,94610,37.8125903,-122.2475075
3714,MacArthur Boulevard,94619,37.7922772,-122.1991418
718,Douglas Avenue,94603,37.7357942,-122.1802160
4156,MacArthur Boulevard,94615,37.7888355,-122.1959586
312,8th Street,94609,37.7990495,-122.2703185
390,40th Street,94609,37.8067769,-122.2736961
3215,Lakeshore Avenue,94610,37.8103526,-122.2457598
336,Grand Avenue,94610,37.8091821,-122.2565537
2455,Broadway,94612,37.8135532,-122.2657771
460,Santa Clara Avenue,94610,37.8120323,-122.2483326
3955,Whittle Avenue,94602,37.8047074,-122.2104610
307,63rd Street,94618,37.8502315,-122.2526510
3439,International Boulevard,94601,37.7760591,-122.2230004
4299 Suite D,Piedmont Avenue,94611,37.8289482,-122.2493185
505,"14th Street, Suite 1230",94612,37.8047427,-122.2728397
175,98th Avenue,94603,37.7298284,-122.1943594
5004,Telegraph Avenue,94609,37.8364944,-122.2622788
1300,Clay Street,94612,37.8046983,-122.2736050
15,Grand Avenue,94612,37.8113176,-122.2663500
2084,Mountain Boulevard,94611,37.8257400,-122.2093722
1300,Clay Street,94612,37.8044998,-122.2735150
588,14th Street,94612,37.8057949,-122.2745110
1414,Jefferson Street,94612,37.8059277,-122.2744384
386,19th Street,94612,37.8072547,-122.2674235
4054,Piedmont Avenue,94611,37.8260626,-122.2526796
1904,Franklin Street,94612,37.8073478,-122.2675750
1115,Alice Street,94607,37.8008365,-122.2676685
3932,Telegraph Avenue,94609,37.8289183,-122.2643330
5289,College Avenue,94618,37.8376836,-122.2514370
940,Webster Street,94607,37.8004351,-122.2704302
3009,MacArthur Boulevard,94602,37.7971110,-122.2047527
1544,Broadway,94612,37.8059410,-122.2699439
377,2nd St,94607,37.7951850,-122.2745585
10121,Denny Street,94603,37.7359160,-122.1802041
8630,E Street,94621,37.7490376,-122.1824942
3498,School Street,94602,37.7910626,-122.2054440
2515,San Pablo Avenue,94607,37.8159248,-122.2752453
2517,San Pablo Avenue,94607,37.8159696,-122.2752419
2519,San Pablo Avenue,94607,37.8159833,-122.2752610
2408,Market Street,94607,37.8160452,-122.2778710
2554,West Street,94612,37.8162229,-122.2743496
1542,Broadway,94612,37.8059009,-122.2699740
2828,Ford Street,94601,37.7737905,-122.2352436
2828,Ford Street,94601,37.7738770,-122.2354718
5000,MacArthur Boulevard,94613,37.7833129,-122.1818531
4172,Piedmont Avenue,94611,37.8269785,-122.2514756
272,East 12th Street,94606,37.7967166,-122.2564850
555,12th Street,94607,37.8037842,-122.2750956
1727,Telegraph Avenue,94612,37.8073286,-122.2703191
1741,Telegraph Avenue,94612,37.8075176,-122.2702862
633,Hegenberger Road,94621,37.7478803,-122.1975513
330,Adams Street,94610,37.8140921,-122.2558546
8300,Oakport Street,94621,37.7403700,-122.1984000
101,Broadway,94607,37.7956507,-122.2768894
933,Broadway,94607,37.8015372,-122.2732396
500,William Street,94612,37.8093357,-122.2712136
378,Embarcadero West,94607,37.7948095,-122.2748678
4013,Telegraph Avenue,94609,37.8295631,-122.2647892
6536,Telegraph Avenue,94609,37.8517928,-122.2600857
5301,Claremont Avenue,94618,37.8395814,-122.2605065
188,10th Street,94607,37.7992245,-122.2665663
5000,Telegraph Avenue,94609,37.8364420,-122.2622872
6360,Telegraph Avenue,94705,37.8496710,-122.2603071
5484,College Avenue,94618,37.8421334,-122.2514072
6419,Telegraph Avenue,94609,37.8506887,-122.2606583
4319,Piedmont Avenue,94611,37.8294185,-122.2487170
95,Linden Street,94607,37.7995406,-122.2880207
2236,Martin Luther King Junior Way,94612,37.8122750,-122.2724909
422,24th Street,94612,37.8135312,-122.2657844
3843,MacArthur Boulevard,94613,37.7911176,-122.1984108
6230,Hayes Street,94621,37.7670932,-122.1914350
2096,Mountain Boulevard,94611,37.8255038,-122.2087068
747,52nd Street,94609,37.8370683,-122.2676417
1001,Broadway,94607,37.8021143,-122.2731461
100,Bay Place,94610,37.8118960,-122.2602917
3100,Telegraph Avenue,94609,37.8202980,-122.2663060
3700,Mandela Parkway,94608,37.8273801,-122.2867702
3650,Mandela Parkway,94608,37.8272807,-122.2882523
3938,Horton Street,94608,37.8291975,-122.2869455
1555,40th Street,94608,37.8283751,-122.2899339
4400,Shellmound Street,94608,37.8315039,-122.2919692
7000,Coliseum Way,94621,37.7502779,-122.2029328
7000,Coliseum Way,94621,37.7516782,-122.2004802
900,Fallon Street,94607,37.7945749,-122.2609804
1,Centennial Drive,94720,37.8792009,-122.2466936
2020,Wake Avenue,94607,37.8250551,-122.2957320
1314,Franklin Street,94612,37.8032854,-122.2695925
5000,Piedmont Avenue,94611,37.8350624,-122.2360465
2607,Myrtle Street,94607,37.8186686,-122.2789616
245,2nd Street,94607,37.7937733,-122.2714849
5400,Adeline Street,94608,37.8388733,-122.2748959
4917,Mountain Blvd,94619,37.7872523,-122.1785435
4551,Steele Street,94619,37.7867345,-122.1880990
300,Lakeside Drive,94612,37.8087800,-122.2640705
10315,E Street,94603,37.7369728,-122.1744673
8521,A Street,94621,37.7516172,-122.1796959
7929,Ney Avenue,94605,37.7656704,-122.1661927
4803,Lawton Avenue,94609,37.8341980,-122.2584793
4803,Lawton Avenue,94609,37.8341054,-122.2579724
1411,East 31st Street,94602,37.7981756,-122.2314330
350,Hawthorne Avenue,94609,37.8207593,-122.2643458
365,Hawthorne Avenue,94609,37.8205930,-122.2633199
200,Centennial Drive,94720,37.8741573,-122.2380434
550,10th Street,94607,37.8024427,-122.2741177
2534,Mandela Parkway,94608,37.8203034,-122.2887822
2044,Franklin Street,94612,37.8096204,-122.2664842
344,Thomas L. Berkley Way,94612,37.8086185,-122.2653868
1933,Broadway,94612,37.8083348,-122.2691192
1928,Telegraph Avenue,94612-2202,37.8085666,-122.2694894
1401,Lakeside Drive,94612,37.8013854,-122.2631022
1300,Clay Street,94612,37.8048817,-122.2735153
1111,Broadway,94612,37.8028526,-122.2729112
1,Frank H. Ogawa Plaza,94612,37.8053055,-122.2725680
1700,Broadway,94612,37.8066981,-122.2694006
520,Thomas L. Berkley Way,94612,37.8099572,-122.2701320
2323,Valley Street,94612,37.8126702,-122.2678954
509;517,23rd Street,94612,37.8123119,-122.2695916
155,Grand Avenue,94612,37.8107552,-122.2639065
4155,Telegraph Avenue,94609,37.8306198,-122.2644454
5300,Claremont Avenue,94618,37.8395700,-122.2598262
126,Broadway,94607,37.7957075,-122.2761408
1,Franklin Street,94607,37.7936008,-122.2763233
100,Webster Street,94607,37.7945560,-122.2739719
585,2nd Street,94607,37.7969831,-122.2798145
2330,Broadway,94612,37.8128185,-122.2655009
3838,Hollis Street,94608,37.8282919,-122.2837365
685,14th Street,94612,37.8063077,-122.2769258
100,Grand Avenue,94612,37.8116481,-122.2648321
5925,College Avenue,94618,37.8474781,-122.2525195
6235,La Salle Avenue,94611,37.8273476,-122.2091925
150,17th Street,94612,37.8044855,-122.2625690
160,FranklinSt.,94607,37.8069549,-122.2723596
2103,San Pablo Avenue,94612,37.8110352,-122.2740141
1629;1621,Telegraph Avenue,94612,37.8065580,-122.2706549
1727,Telegraph Avenue,94612,37.8073493,-122.2704662
1741,Telegraph Avenue,94612,37.8074737,-122.2704357
2022,Telegraph Avenue,94612,37.8098780,-122.2691759
1645,Telegraph Avenue,94612,37.8067607,-122.2706050
1512,Franklin Street,94612,37.8049411,-122.2688481
1100,Broadway,94612,37.8025466,-122.2718860
1700,Webster Street,94612,37.8058501,-122.2668194
1800,Harrison Street,94612,37.8057711,-122.2652051
659,14th Street,94612,37.8061075,-122.2764578
1389,Jefferson Street,94612,37.8056099,-122.2756063
455,7th Street,94607,37.7993762,-122.2750933
1962,Mountain Boulevard,94618,37.8281096,-122.2103022
570,10th Street,94110,37.8028668,-122.2754317
350,30th Street,94609,37.8193372,-122.2639382
125,12th Street,94612,37.7996359,-122.2643047
2550,Webster Street,94612,37.8144989,-122.2642806
3600,Broadway,94611,37.8244811,-122.2579905
365,45th Street,94609,37.8328112,-122.2571159
4226,Piedmont Avenue,94611,37.8279243,-122.2499776
288,3rd Street,94607,37.7953212,-122.2716329
340,23rd Avenue,94606,37.7733668,-122.2356355
2828,Ford Street,94601,37.7738331,-122.2353409
247,4th Street,94607,37.7952088,-122.2705167
324,23rd Avenue,94606,37.7730898,-122.2355337
229,Harrison Street,94607,37.7952268,-122.2727670
201,2nd Street,94607,37.7936411,-122.2709119
428,Alice Street,94607,37.7957765,-122.2701331
105,Jackson Street,94607,37.7934002,-122.2710623
225,2nd Street,94607,37.7936457,-122.2712929
3400,Telegraph Avenue,94609,37.8227205,-122.2655025
2535,High Street,94601,37.7819689,-122.2052490
5475,Redwood Road,94619,37.7975384,-122.1718393
8,Gauss Way,94720,37.8807520,-122.2438959
3111,International Boulevard,94601,37.7774824,-122.2263823
3100,East 9th Street,94601,37.7756332,-122.2303248
3010,East 9th Street,94601-2937,37.7752726,-122.2297461
3080,East 9th Street,94601,37.7739090,-122.2281221
4000,Alameda Avenue,94601,37.7697572,-122.2238952
4010,Alameda Avenue,94601,37.7683316,-122.2234644
8332,Oakport Street,94621,37.7401207,-122.1986469
4200,International Boulevard,94601-4538,37.7731722,-122.2155422
3550,Fruitvale Avenue,94602,37.8012463,-122.2153331
3565,Fruitvale Avenue,94602,37.8014785,-122.2160748
95,Linden Street,94607,37.7994942,-122.2879076
3400,Fruitvale Avenue,94602,37.7992023,-122.2163594
721;725,Washington Street,94607,37.8005053,-122.2754139
722,Clay Street,94607,37.8007643,-122.2761274
2800,Telegraph Avenue,94609,37.8171668,-122.2673644
514,Shattuck Avenue,94609,37.8369417,-122.2628238
3401,Telegraph Avenue,94609,37.8227481,-122.2666431
210,Burma Road,94607,37.8230128,-122.3148356
5606,San Pablo Avenue,94608,37.8392304,-122.2822245
400,Broadway,94607,37.7975847,-122.2746365
415,Harrison Street,94607,37.7962187,-122.2718287
402,Webster Street,94607,37.7965862,-122.2727872
474,24th Street,94612,37.8139543,-122.2674784
470,Lake Park Avenue,94610,37.8111729,-122.2472705
1200,Lakeshore Avenue,94606,37.7987344,-122.2582522
504,Lake Park Avenue,94610,37.8104610,-122.2467094
1525,Lakeside Drive,94612,37.8026268,-122.2622519
1140,66th Street,94608,37.8491638,-122.2868701
625,3rd Street,94607-3550,37.7982726,-122.2805220
540,Water Street,94607,37.7953385,-122.2801063
440,High Street,94601,37.7652952,-122.2221557
10,Hegenberger Road,94621,37.7274892,-122.2007788
10,Hegenberger Road,94621,37.7274906,-122.2006564
825,Jackson Street,94607,37.7984611,-122.2677961
416,26th Street,94610,37.8154077,-122.2666202
988,Broadway,94607,37.8010535,-122.2727752
176,Ridgeway Avenue,94611,37.8281556,-122.2507327
6127,La Salle Avenue,94611,37.8266886,-122.2099980
4038,Piedmont Avenue,94611,37.8255543,-122.2527901
4424,Broadway,94611-4614,37.8326415,-122.2531426
4100,Broadway,94611-5112,37.8286801,-122.2555775
232,Ridgeway Avenue,94611,37.8296860,-122.2524011
242,Ridgeway Avenue,94611,37.8297820,-122.2525112
234,Ridgeway Avenue,94611,37.8294605,-122.2525639
4328,Howe Street,94611,37.8298070,-122.2490570
4315,Piedmont Avenue,94611,37.8293656,-122.2488595
4203,MacArthur Boulevard,94619,37.7884161,-122.1954106
1631,Telegraph Avenue,94612,37.8066341,-122.2706363
1611,Telegraph Avenue,94612,37.8063702,-122.2707015
1635,Telegraph Avenue,94612,37.8066951,-122.2706213
5211,Broadway,94618,37.8359979,-122.2518120
9255,Edes Avenue,94603,37.7377825,-122.1900189
3961,Greenwood Avenue,94602,37.8064918,-122.2270549
4005,MacArthur Boulevard,94619,37.7904463,-122.1979401
3725,MacArthur Boulevard,94619,37.7917026,-122.1990683
3721,MacArthur Boulevard,94619,37.7917474,-122.1991087
3708-3714,MacArthur Boulevard,94619,37.7923228,-122.1990150
3717,MacArthur Boulevard,94619,37.7918122,-122.1991912
3730,MacArthur Boulevard,94619,37.7921410,-122.1988790
3719,MacArthur Boulevard,94619,37.7917729,-122.1991691
4017,MacArthur Boulevard,94619,37.7900466,-122.1975870
3715,MacArthur Boulevard,94619,37.7918482,-122.1992237
3734,MacArthur Boulevard,94619,37.7919787,-122.1987422
3711,MacArthur Boulevard,94619,37.7918907,-122.1993065
3711,MacArthur Boulevard,94619,37.7919907,-122.1993967
3520,Loma Vista Avenue,94619,37.7918499,-122.1995387
3512,Loma Vista Avenue,94619,37.7918096,-122.1997258
3704,Redding Street,94619,37.7917458,-122.1998852
4108,Redding Street,94619,37.7892654,-122.1976441
3706,Redding Street,94613,37.7916637,-122.1996981
3718,Redding Street,94619,37.7915373,-122.1996191
3639,MacArthur Boulevard,94619,37.7923727,-122.1996348
3724,Redding Street,94619,37.7914287,-122.1996021
3746,Redding Street,94619,37.7913330,-122.1995112
3814,MacArthur Boulevard,94613,37.7917163,-122.1983270
3820;3824,MacArthur Boulevard,94613,37.7915620,-122.1982912
3827,MacArthur Boulevard,94613,37.7914824,-122.1982183
3836,MacArthur Boulevard,94613,37.7914222,-122.1981711
3840,MacArthur Boulevard,94613,37.7913557,-122.1981146
4024,Macarthur Boulevard,94619-1904,37.7902652,-122.1971058
4258,MacArthur Boulevard,94619,37.7878742,-122.1948473
4100,Redwood Road,94619,37.7983550,-122.1824280
3747,Grand Avenue,94610,37.8173636,-122.2456856
4020,Opal Street,94609,37.8287031,-122.2583845
398,Grand Avenue,94610,37.8090093,-122.2540214
567,Oakland Avenue,94611,37.8205452,-122.2519065
750,High Street,94601,37.7687921,-122.2191241
952,Fruitvale Avenue,94601,37.7750106,-122.2268919
4501,Broadway,94611,37.8336001,-122.2541246
3301,International Boulevard,94601,37.7767219,-122.2245330
3658,Foothill Boulevard,94601,37.7802684,-122.2176611
3009,Foothill Boulevard,94601,37.7837452,-122.2235807
3714,Foothill Boulevard,94601,37.7797859,-122.2171546
3509,Foothill Boulevard,94601,37.7817092,-122.2192146
3755,Foothill Boulevard,94601,37.7789127,-122.2171220
3900,Foothill Boulevard,94601,37.7785320,-122.2157332
3464,Foothill Boulevard,94601,37.7827082,-122.2189689
4033,Foothill Boulevard,94601,37.7772388,-122.2150496
3901,International Boulevard,94601,37.7740213,-122.2190562
4000,International Boulevard,94601,37.7739684,-122.2176520
1410,31st Avenue,94601,37.7783011,-122.2262097
1303,3rd Street,94607,37.8013274,-122.2930339
466,42nd Street,94609,37.8311377,-122.2618301
1736,16th Street,94607,37.8146740,-122.2962162
3352,East 12th Street,94601,37.7761575,-122.2240953
3355,Foothill Boulevard,94601,37.7829234,-122.2209236
3912,International Boulevard,94601,37.7744024,-122.2185588
3958,International Boulevard,94601,37.7741674,-122.2179661
4003,International Boulevard,94601,37.7734330,-122.2176407
3240,International Boulevard,94601,37.7775365,-122.2251773
3280,International Boulevard,94601,37.7772761,-122.2246090
3802,International Boulevard,94601,37.7776993,-122.2254858
726,Haddon Place,94610,37.8094952,-122.2425744
283,4th Street,94607,37.7956273,-122.2715822
267,4th Street,94607,37.7955429,-122.2713636
255,4th Street,94607,37.7954509,-122.2711338
205,Alice Street,94607,37.7945605,-122.2718173
301,Broadway,94607,37.7970188,-122.2760870
439,Grand Avenue,94610,37.8083229,-122.2530469
278,Grand Avenue,94610,37.8094771,-122.2578299
66,Bay Place,94610,37.8110731,-122.2601797
300,Grand Avenue,94610,37.8093322,-122.2568103
2000,MacArthur Boulevard,94602,37.8010884,-122.2183781
3917,Grand Avenue,94610,37.8184189,-122.2452198
2114,MacArthur Boulevard,94602,37.8007738,-122.2168194
3600,Alameda Avenue,94601,37.7702982,-122.2269020
720,High Street,94601,37.7684120,-122.2193800
510,Derby Avenue,94601,37.7720538,-122.2312414
400,29th Avenue,94601,37.7727694,-122.2350333
421,23rd Avenue,94607,37.7740511,-122.2365761
421,23rd Avenue,94607,37.7742329,-122.2363592
4239,Park Boulevard,94602,37.8077352,-122.2221414
4219,Park Boulevard,94602,37.8075747,-122.2225116
4225,Park Boulevard,94602,37.8076129,-122.2223906
336,Grand Avenue,94610,37.8092891,-122.2565218
468,Perkins Street,94610,37.8082024,-122.2559623
327,MacArthur Boulevard,94610,37.8136964,-122.2518103
2340,Harrison Street,94612,37.8121256,-122.2612267
2350,Harrison Street,94612-3712,37.8123816,-122.2614033
9957,Medford Avenue,94603,37.7381002,-122.1769637
2100,East 7th Street,94607,37.7757333,-122.2381802
1840,Embarcadero,94606,37.7839046,-122.2423576
2000,Embarcadero,94606,37.7812289,-122.2422480
5987,Telegraph Avenue,94609,37.8463247,-122.2613923
251,Park View Terrace,94610,37.8115990,-122.2593306
140,Montecito Avenue,94610,37.8115101,-122.2594986
124,Montecito Avenue,94610,37.8114139,-122.2598484
270,Grand Avenue,94610,37.8095517,-122.2581634
465,Lee Street,94610,37.8095882,-122.2574065
290,Grand Avenue,94610,37.8093896,-122.2575297
298,Grand Avenue,94610,37.8093448,-122.2573554
451,Lee Street,94610,37.8097296,-122.2573377
447,Lee Street,94610,37.8098418,-122.2571698
316,14th Street,94612,37.8033145,-122.2679298
437,Perkins Street,94610,37.8095433,-122.2562129
433,Perkins Street,94610,37.8097537,-122.2561404
425,Perkins Street,94610,37.8099432,-122.2559986
421,Perkins Street,94610,37.8100676,-122.2559785
450,Lee Street,94610,37.8096717,-122.2566769
444,Lee Street,94610,37.8098032,-122.2566334
438,Lee Street,94610,37.8099422,-122.2565522
434,Lee Street,94610,37.8100633,-122.2564555
426,Lee Street,94610,37.8101588,-122.2564406
420,Lee Street,94610,37.8102562,-122.2563794
414,Lee Street,94610,37.8103904,-122.2563451
415,Perkins Street,94610,37.8101780,-122.2558629
407,Perkins Street,94610,37.8103864,-122.2558216
403,Perkins Street,94610,37.8105537,-122.2556816
441,Lee Street,94610,37.8101716,-122.2571301
431,Lee Street,94610,37.8103345,-122.2569520
443,Lee Street,94610,37.8099840,-122.2572138
336,Lenox Avenue,94610,37.8101621,-122.2577805
332,Lenox Avenue,94610,37.8102926,-122.2577047
328,Lenox Avenue,94610,37.8104017,-122.2576665
326,Lenox Avenue,94610,37.8105254,-122.2576060
320,Lenox Avenue,94610,37.8106168,-122.2575179
316,Lenox Avenue,94610,37.8107615,-122.2574649
405,Lee Street,94610,37.8107350,-122.2567682
306,Lenox Avenue,94610,37.8108798,-122.2573647
302,Lenox Avenue,94610,37.8110406,-122.2574294
285,Van Buren Avenue,94610,37.8109812,-122.2571336
401,Lee Street,94610,37.8108759,-122.2567274
266;268,Grand Avenue,94610,37.8097353,-122.2585397
246,Grand Avenue,94610,37.8099379,-122.2590010
330,Park View Terrace,94610,37.8102827,-122.2588327
377,Lenox Avenue,94610,37.8099742,-122.2584640
345,Lenox Avenue,94610,37.8100956,-122.2584068
341,Lenox Avenue,94610,37.8101973,-122.2583305
337,Lenox Avenue,94610,37.8102943,-122.2583112
333,Lenox Avenue,94610,37.8103933,-122.2582363
325,Lenox Avenue,94610,37.8105877,-122.2582164
320,Park View Terrace,94610,37.8106040,-122.2586657
300,Park View Terrace,94610,37.8108021,-122.2586285
296,Park View Terrace,94610,37.8109110,-122.2585442
321,Lenox Avenue,94610,37.8107945,-122.2580732
319,Lenox Avenue,94610,37.8109065,-122.2580255
290,Park View Terrace,94610,37.8110388,-122.2584925
315,Lenox Avenue,94610,37.8110405,-122.2579334
282,Park View Terrace,94610,37.8111964,-122.2583648
305,Lenox Avenue,94610,37.8111665,-122.2579482
301,Lenox Avenue,94610,37.8113630,-122.2579015
280,Park View Terrace,94610,37.8114070,-122.2584599
295,Lenox Avenue,94610,37.8115560,-122.2580727
281,Lenox Avenue,94610,37.8117151,-122.2581765
274,Park View Terrace,94610,37.8115486,-122.2585881
271,Lenox Avenue,94610,37.8118467,-122.2582833
265,Lenox Avenue,94610,37.8119762,-122.2583681
180,Montecito Avenue,94610,37.8120889,-122.2585678
168,Montecito Avenue,94610,37.8119431,-122.2589661
268,Park View Terrace,94610,37.8116347,-122.2587133
260,Park View Terrace,94610,37.8117702,-122.2587917
256,Park View Terrace,94610,37.8118595,-122.2589057
116,Montecito Avenue,94610,37.8112335,-122.2600076
214,Grand Avenue,94610,37.8108090,-122.2598719
1,Olive Avenue,94611,37.8225358,-122.2487594
7,Olive Avenue,94611,37.8225161,-122.2485942
770,Kingston Avenue,94611,37.8234518,-122.2490160
9,Lake Avenue,94611,37.8229058,-122.2491199
7,Lake Avenue,94611,37.8226801,-122.2489000
105,2nd Street,94607,37.7926889,-122.2684776
125,2nd Street,94607,37.7928165,-122.2689909
805,52nd Street,94608,37.8369117,-122.2695647
2040,Telegraph Avenue,94612,37.8101190,-122.2691778
4799,Shattuck Avenue,94609,37.8350004,-122.2641560
240,Grand Avenue,94610,37.8101924,-122.2594711
333,Park View Terrace,94610,37.8104965,-122.2593570
220,Grand Avenue,94610,37.8105654,-122.2598214
230,Grand Avenue,94610,37.8103921,-122.2596288
325,Park View Terrace,94610,37.8106889,-122.2593409
315,Park View Terrace,94610,37.8108844,-122.2592115
283,Park View Terrace,94610,37.8112117,-122.2589858
277,Park View Terrace,94610,37.8112877,-122.2591038
275,Park View Terrace,94610,37.8113919,-122.2591956
2307,Harrison Street,94612,37.8117542,-122.2623952
121,41st Street,94611,37.8261057,-122.2518080
35,Buena Vista Place,94618,37.8493464,-122.2390864
23,Buena Vista Place,94618,37.8490681,-122.2390861
29,Buena Vista Place,94618,37.8491996,-122.2391673
15,Buena Vista Place,94618,37.8489142,-122.2390624
9,Buena Vista Place,94618,37.8487935,-122.2389105
5,Buena Vista Place,94618,37.8486893,-122.2388310
12,Buena Vista Place,94618,37.8489852,-122.2385292
5616,Buena Vista Avenue,94618,37.8488511,-122.2384339
5632,Buena Vista Avenue,94618,37.8489784,-122.2381591
5638,Buena Vista Avenue,94618,37.8490118,-122.2379528
5625,Buena Vista Avenue,94618,37.8485701,-122.2382007
5637,Buena Vista Avenue,94618,37.8486787,-122.2378749
5649,Buena Vista Avenue,94618,37.8487493,-122.2376866
5723,Buena Vista Avenue,94618,37.8484681,-122.2379576
4715,Telegraph Avenue,94609,37.8347085,-122.2634007
111,Grand Avenue,94612,37.8109116,-122.2649397
400,Perkins Street,94610,37.8103941,-122.2551356
420,Perkins Street,94610,37.8100174,-122.2553717
365,Van Buren Avenue,94610,37.8103771,-122.2548571
375,Van Buren Avenue,94610,37.8103301,-122.2543523
388,Belmont Street,94610,37.8099309,-122.2542629
359,Van Buren Avenue,94610,37.8103750,-122.2539258
409,Staten Avenue,94610,37.8102431,-122.2538945
415,Staten Avenue,94610,37.8101349,-122.2539074
417,Staten Avenue,94610,37.8100134,-122.2539926
421,Staten Avenue,94610,37.8098708,-122.2539882
88,Moraga Avenue,94611,37.8298906,-122.2433457
300,Olive Avenue,94611,37.8196092,-122.2455415
564,Crofton Avenue,94610,37.8181956,-122.2408574
509,Boulevard Way,94610,37.8184219,-122.2419761
571,Crofton Avenue,94610,37.8180573,-122.2402469
494,Boulevard Way,94610,37.8186774,-122.2428533
16,Wildwood Avenue,94610,37.8189354,-122.2438657
604,Boulevard Way,94610,37.8177031,-122.2388440
1102,Warfield Avenue,94610,37.8178233,-122.2389934
337,Moraga Avenue,94611,37.8308787,-122.2366933
325,Moraga Avenue,94611,37.8309428,-122.2369559
331,Moraga Avenue,94611,37.8310424,-122.2367816
1037,Ranleigh Way,94610,37.8173942,-122.2367730
1034,Harvard Road,94610,37.8172456,-122.2361118
1051,Annerley Road,94610,37.8170713,-122.2348533
1190,Harvard Road,94610,37.8166192,-122.2335479
1191,Harvard Road,94610,37.8164549,-122.2330142
1092,Annerley Road,94610,37.8167411,-122.2337613
1082,Annerley Road,94610,37.8167100,-122.2340244
1086,Annerley Road,94610,37.8167334,-122.2338843
1056,Park Lane,94610,37.8161487,-122.2319212
18,Calvert Court,94611,37.8267166,-122.2219341
50,Calvert Court,94611,37.8260800,-122.2214932
816,Blair Place,94611,37.8274093,-122.2222143
42,Calvert Court,94611,37.8262405,-122.2215896
30,Blair Place,94611,37.8270726,-122.2220053
80,Portal Ave;Florada Avenue,94610,37.8153612,-122.2282273
270,Crocker Avenue,94610,37.8146144,-122.2250214
1224,Ashmount Avenue,94610,37.8145727,-122.2245736
1218,Ashmount Avenue,94610,37.8145892,-122.2248167
20,Valant Place,94610,37.8136228,-122.2207930
24,Valant Place,94610,37.8138048,-122.2208775
6861,Estates Drive,94611,37.8197057,-122.2116487
141,Sotelo Avenue,94611,37.8242898,-122.2184024
75,Sotelo Avenue,94611,37.8240600,-122.2187906
2,Somerset Road,94611,37.8215795,-122.2153111
7,Tyson Circle,94611,37.8231163,-122.2173410
11,La Salle Ave;Crest Road,94611,37.8219236,-122.2156564
183,Somerset Road,94611,37.8200171,-122.2125765
1047,55th Street,94608,37.8385383,-122.2797657
1045,55th Street,94608,37.8385726,-122.2796798
1041,55th Street,94608,37.8385932,-122.2795536
1037,55th Street,94608,37.8386041,-122.2794186
1033,55th Street,94608,37.8386195,-122.2793114
1049,54th Street,94608,37.8382673,-122.2796469
1029,55th Street,94608,37.8386371,-122.2791814
1042,55th Street,94608,37.8389161,-122.2796643
1051,55th Street,94608,37.8384231,-122.2800224
99,Somerset Road,94611,37.8209738,-122.2139597
479,42nd Street,94609,37.8307344,-122.2626939
97,Portal Ave;Florada Avenue,94611,37.8156217,-122.2292466
93,Portal Ave;Florada Avenue,94611,37.8155423,-122.2290754
99,Portal Ave;Florada Avenue,94611,37.8156732,-122.2295548
1078,Annerley Road,94610,37.8166857,-122.2341675
"650, 654",14th Street,94612,37.8064658,-122.2760371
670,14th Street,94612,37.8066155,-122.2763952
320,Warwick Avenue,94610,37.8128613,-122.2543282
1811,Trestle Glen Road,94602,37.8131761,-122.2181878
330,Sea View Avenue,94610,37.8141330,-122.2234220
6,Cavendish Lane,94602,37.8129415,-122.2176527
16,Vernon Street,94610,37.8121782,-122.2602010
48,Vernon Street,94610,37.8122511,-122.2600985
54,Vernon Street,94610,37.8123258,-122.2600151
58,Vernon Street,94610,37.8123569,-122.2598346
68,Vernon Street,94610,37.8124995,-122.2596234
72,Vernon Street,94610,37.8126139,-122.2595084
76,Vernon Street,94610,37.8126460,-122.2593478
137,Montecito Avenue,94610,37.8118675,-122.2599369
141,Montecito Avenue,94610,37.8119617,-122.2597884
149,Montecito Avenue,94610,37.8120371,-122.2596438
157,Montecito Avenue,94610,37.8120796,-122.2594586
255,3rd Street,94607,37.7948054,-122.2716645
291,3rd Street,94607,37.7949255,-122.2719728
299,3rd Street,94607,37.7950764,-122.2721697
200,Harrison Street,94607,37.7947082,-122.2722982
330,2nd Street,94607,37.7951310,-122.2733733
309,4th Street,94607,37.7958755,-122.2725372
2952,107th Avenue,94605,37.7447729,-122.1474498
71,Glen Alpine Road,94611,37.8243626,-122.2193484
11,Olive Avenue,94611,37.8222900,-122.2484757
190,Maxwelton Road,94618,37.8324901,-122.2272651
198,Maxwelton Road,94618,37.8327174,-122.2271765
912,Blair Avenue,94611,37.8295140,-122.2234727
918,Blair Avenue,94611,37.8297378,-122.2235373
900,Blair Avenue,94611,37.8291564,-122.2229843
89,Lane Court,94611,37.8291711,-122.2226729
65,Lane Court,94611,37.8290794,-122.2222502
51,Lane Court,94611,37.8289429,-122.2219879
856,Blair Avenue,94611,37.8287626,-122.2222809
844,Blair Avenue,94611,37.8284683,-122.2221939
838,Blair Avenue,94611,37.8283380,-122.2220312
820,Blair Avenue,94611,37.8280526,-122.2219194
6173,Harbord Drive,94611,37.8278166,-122.2220078
45,Lane Court,94611,37.8286735,-122.2218312
33,Lane Court,94611,37.8286196,-122.2215146
6161,Harbord Drive,94611,37.8275429,-122.2216827
6155,Harbord Drive,94611,37.8273327,-122.2214685
7,Marr Avenue,94611,37.8272273,-122.2210618
6170,Harbord Drive,94611,37.8273636,-122.2219773
6150,Harbord Drive,94611,37.8271814,-122.2217389
6140,Harbord Drive,94611,37.8269399,-122.2215093
6130,Harbord Drive,94611,37.8268257,-122.2212410
6120,Harbord Drive,94611,37.8268024,-122.2209862
6120,Harbord Drive,94611,37.8268829,-122.2207502
6110,Harbord Drive,94611,37.8270231,-122.2205929
1120,Florada Avenue,94610,37.8152023,-122.2280932
216,Orange Street,94610,37.8150784,-122.2576234
204,Wayne Avenue,94606,37.8013554,-122.2523135
216,Wayne Avenue,94606,37.8015256,-122.2524013
212,Orange Street,94610,37.8150564,-122.2578050
220,Orange Street,94610,37.8151664,-122.2573714
226,Orange Street,94610,37.8152431,-122.2572277
230,Orange Street,94610,37.8153437,-122.2570501
201,Orange Street,94610,37.8153918,-122.2584902
287,Vernon Street,94610,37.8148492,-122.2574139
275,Vernon Street,94610,37.8146704,-122.2578058
271,Vernon Street,94610,37.8145909,-122.2580041
170,Perkins Street,94610,37.8159172,-122.2562695
230,Wayne Avenue,94606,37.8017727,-122.2525255
246,Wayne Avenue,94606,37.8019486,-122.2526919
252,Wayne Avenue,94606,37.8020247,-122.2527377
258,Wayne Avenue,94606,37.8021275,-122.2527632
270,Wayne Avenue,94606,37.8023378,-122.2529267
282,Wayne Avenue,94606,37.8024542,-122.2529881
77,Vernon Street,94610,37.8131466,-122.2596372
81,Vernon Street,94610,37.8133931,-122.2597083
85,Vernon Street,94610,37.8136071,-122.2595986
357,Vernon Street,94610,37.8156957,-122.2559581
229,MacArthur Boulevard,94610,37.8163902,-122.2527832
433,Adams Street,94610,37.8162298,-122.2530714
359,Vernon Street,94610,37.8158202,-122.2556884
361,Vernon Street,94610,37.8159225,-122.2555079
354,Orange Street,94610,37.8160640,-122.2559537
370,Orange Street,94610,37.8161832,-122.2557562
268,Orange Street,94610,37.8154979,-122.2570063
274,Orange Street,94610,37.8155754,-122.2569204
280,Orange Street,94610,37.8156220,-122.2568052
175,Perkins Street,94610,37.8156329,-122.2566389
182,Orange Street,94610,37.8149060,-122.2585414
2724,Harrison Street,94612,37.8148169,-122.2589898
2720,Harrison Street,94612,37.8147690,-122.2591045
2712,Harrison Street,94612,37.8147127,-122.2592171
2704,Harrison Street,94612,37.8146359,-122.2593581
2696,Harrison Street,94612,37.8145710,-122.2594686
2690,Harrison Street,94612,37.8145040,-122.2595696
170,Orange Street,94610,37.8148117,-122.2588316
269,Vernon Street,94610,37.8144769,-122.2581227
257,Vernon Street,94610,37.8141800,-122.2588808
2654,Harrison Street,94612,37.8142832,-122.2598513
75,Vernon Street,94610,37.8129553,-122.2598277
181,Vernon Terrace,94610,37.8130541,-122.2600081
182,Vernon Terrace,94610,37.8132394,-122.2597995
98,Vernon Street,94610,37.8131192,-122.2587463
245,Lee Street,94610,37.8131891,-122.2584375
255,Lee Street,94610,37.8130630,-122.2581343
80,Vernon Street,94610,37.8127299,-122.2592481
207,Orange Street,94610,37.8154021,-122.2582485
215,Orange Street,94610,37.8154350,-122.2578738
219,Orange Street,94610,37.8154745,-122.2577522
223,Orange Street,94610,37.8155498,-122.2576406
211,Orange Street,94610,37.8154331,-122.2580430
233,Orange Street,94610,37.8158056,-122.2573878
243,Orange Street,94610,37.8159598,-122.2571098
200,Perkins Street,94610,37.8153371,-122.2556807
206,Perkins Street,94610,37.8152570,-122.2556314
210,Perkins Street,94610,37.8151586,-122.2555660
220,Perkins Street,94610,37.8149930,-122.2553851
363,Adams Street,94610,37.8150471,-122.2552090
369,Adams Street,94610,37.8150918,-122.2550844
375,Adams Street,94610,37.8151879,-122.2549654
305,Vernon Street,94610,37.8149560,-122.2571826
325,Vernon Street,94610,37.8151035,-122.2569468
351,Orange Street,94610,37.8160388,-122.2569622
357,Orange Street,94610,37.8161690,-122.2567370
363,Orange Street,94610,37.8162215,-122.2566254
371,Van Buren Avenue,94610,37.8104121,-122.2546737
237,Wayne Avenue,94606,37.8016462,-122.2531860
365,Orange Street,94610,37.8163014,-122.2565161
369,Orange Street,94610,37.8163737,-122.2564184
373,Orange Street,94610,37.8164615,-122.2562620
379,Orange Street,94610,37.8165587,-122.2560820
381,Orange Street,94610,37.8166550,-122.2559210
385,Orange Street,94610,37.8167165,-122.2557559
387,Orange Street,94610,37.8167968,-122.2556166
372,Orange Street,94610,37.8162927,-122.2556186
376,Orange Street,94610,37.8163958,-122.2554353
382,Orange Street,94610,37.8164684,-122.2552918
388,Orange Street,94610,37.8165673,-122.2551165
392,Orange Street,94610,37.8166444,-122.2549834
394,Orange Street,94610,37.8167218,-122.2548407
2666,Harrison Street,94612,37.8144019,-122.2596415
2662,Harrison Street,94612,37.8143395,-122.2597346
2646,Harrison Street,94612,37.8141883,-122.2599415
2642,Harrison Street,94612,37.8141062,-122.2600115
178,Vernon Terrace,94610,37.8133119,-122.2599165
331,Vernon Street,94610,37.8151846,-122.2566957
389,Orange Street,94610,37.8168857,-122.2554575
400,Orange Street,94610,37.8168280,-122.2546180
367,Vernon Street,94610,37.8160260,-122.2553593
371,Vernon Street,94610,37.8160977,-122.2552073
227,Wayne Avenue,94606,37.8015350,-122.2530527
100,Alpine Terrace,94618,37.8446835,-122.2380589
133;135,Athol Avenue,94606,37.8011200,-122.2533232
200,Wayne Avenue,94606,37.8012173,-122.2522531
185,Athol Avenue,94606,37.8011559,-122.2520670
1800,Lakeshore Avenue,94606,37.8007762,-122.2538939
291,Lester Avenue,94606,37.8017152,-122.2519835
523,Boulevard Way,94610,37.8183287,-122.2413767
1035,Ranleigh Way,94610,37.8172582,-122.2367205
1028,Harvard Road,94610,37.8170894,-122.2359912
1,Portsmouth Road,94610,37.8170164,-122.2354787
405,Bellevue Avenue,94610,37.8102697,-122.2528764
5747,Buena Vista Avenue,94618,37.8480983,-122.2373229
5761,Buena Vista Avenue,94618,37.8479361,-122.2368640
5757,Buena Vista Avenue,94618,37.8479859,-122.2370784
5766,Buena Vista Avenue,94618,37.8482298,-122.2366141
225,Athol Avenue,94606,37.8009111,-122.2508714
391,Orange Street,94610,37.8169448,-122.2553808
395,Orange Street,94610,37.8170357,-122.2552931
399,Orange Street,94610,37.8170711,-122.2551337
407,Orange Street,94610,37.8173545,-122.2547996
425,Orange Street,94610,37.8176821,-122.2543006
447,Orange Street,94610,37.8179751,-122.2538317
408,Orange Street,94610,37.8169801,-122.2544545
377,Vernon Street,94610,37.8162054,-122.2550173
389,Vernon Street,94610,37.8163727,-122.2547465
401,Vernon Street,94610,37.8165537,-122.2544184
405,Vernon Street,94610,37.8166123,-122.2542428
407,Vernon Street,94610,37.8167251,-122.2541025
415,Vernon Street,94610,37.8168089,-122.2539052
420,Orange Street,94610,37.8170812,-122.2541928
438,Vernon Street,94610,37.8166475,-122.2531248
430,Vernon Street,94610,37.8165098,-122.2532230
424,Vernon Street,94610,37.8165609,-122.2534514
418,Vernon Street,94610,37.8163979,-122.2534614
414,Vernon Street,94610,37.8164201,-122.2536602
410,Vernon Street,94610,37.8163669,-122.2537867
270,Perkins Street,94610,37.8142190,-122.2549461
306,Jayne Avenue,94610,37.8134155,-122.2554883
273,Adams Street,94610,37.8138414,-122.2573482
269,Perkins Street,94610,37.8138238,-122.2554759
58,Calvert Court,94611,37.8260146,-122.2212512
66,Calvert Court,94611,37.8258549,-122.2209480
129,Calvert Court,94611,37.8258032,-122.2192543
398,Adams Street,94610,37.8153068,-122.2537828
263,Euclid Avenue,94610,37.8151130,-122.2537186
267,Euclid Avenue,94610,37.8150107,-122.2536132
399,Jayne Avenue,94610,37.8149201,-122.2534614
277,Euclid Avenue,94610,37.8145621,-122.2533238
287,Euclid Avenue,94610,37.8143276,-122.2533776
299,Euclid Avenue,94610,37.8140337,-122.2531352
305,Euclid Avenue,94610,37.8136208,-122.2530371
325,Euclid Avenue,94610,37.8134182,-122.2529507
397,Palm Avenue,94610,37.8132587,-122.2527717
396,Jayne Avenue,94610,37.8144931,-122.2534926
145,Athol Avenue,94606,37.8012219,-122.2531156
1830,Lakeshore Avenue,94606,37.8014193,-122.2537981
233,Acton Place,94606,37.8013314,-122.2519037
262,Hanover Avenue,94606,37.8024029,-122.2526713
"266,268",Hanover Avenue,94606,37.8024743,-122.2525866
261,Lester Avenue,94606,37.8023019,-122.2522208
216,Oakland Avenue,94611,37.8156433,-122.2581446
222,Oakland Avenue,94611,37.8157229,-122.2579986
230,Oakland Avenue,94611,37.8157797,-122.2578683
232,Oakland Avenue,94611,37.8158428,-122.2577980
238,Oakland Avenue,94611,37.8158856,-122.2576633
266,Oakland Avenue,94611,37.8162040,-122.2572819
302,Oakland Avenue,94611,37.8162998,-122.2571754
452,Oakland Avenue,94611,37.8182843,-122.2542282
460,Oakland Avenue,94611,37.8183626,-122.2541228
163,Perry Place,94610,37.8182207,-122.2539670
430,Orange Street,94610,37.8175270,-122.2536037
419,Vernon Street,94610,37.8168614,-122.2538265
425,Vernon Street,94610,37.8169907,-122.2536286
427,Adams Street,94610,37.8160946,-122.2532987
415,Adams Street,94610,37.8160949,-122.2534598
409,Adams Street,94610,37.8159818,-122.2535099
385,Adams Street,94610,37.8154547,-122.2545557
404,Vernon Street,94610,37.8162336,-122.2539559
335,Adams Street,94610,37.8146033,-122.2560826
303,Adams Street,94610,37.8142865,-122.2566381
320,Adams Street,94610,37.8140132,-122.2561566
271,Jayne Avenue,94610,37.8132068,-122.2566659
265,Jayne Avenue,94610,37.8131170,-122.2568841
260,Lee Street,94610,37.8131569,-122.2573837
262,Vernon Street,94610,37.8138713,-122.2580533
268,Vernon Street,94610,37.8140110,-122.2578017
220,Lee Street,94610,37.8136232,-122.2581597
266,Adams Street,94610,37.8133354,-122.2573353
"354,356,358,360",Adams Street,94610,37.8147073,-122.2549527
393,Jayne Avenue,94610,37.8147657,-122.2538273
312,Adams Street,94610,37.8139433,-122.2563047
278,Jayne Avenue,94610,37.8128115,-122.2561765
268,Jayne Avenue,94610,37.8127944,-122.2564774
378,Jayne Avenue,94610,37.8140619,-122.2541901
382,Jayne Avenue,94610,37.8141143,-122.2540231
373,Warwick Avenue,94610,37.8139338,-122.2533533
365,Warwick Avenue,94610,37.8139195,-122.2535952
329,Warwick Avenue,94610,37.8133575,-122.2543964
305,Warwick Avenue,94610,37.8128647,-122.2551524
352,Palm Avenue,94610,37.8120824,-122.2540002
365,Bellevue Avenue,94610,37.8121408,-122.2534335
270,Van Buren Avenue,94610,37.8113818,-122.2571217
288,Van Buren Avenue,94610,37.8112785,-122.2568345
290,Lenox Avenue,94610,37.8116584,-122.2573806
296,Lenox Avenue,94610,37.8115186,-122.2571965
286,Lenox Avenue,94610,37.8118715,-122.2574290
280,Lenox Avenue,94610,37.8120426,-122.2576679
303,Lee Street,94610,37.8116343,-122.2567101
305,Perkins Street,94610,37.8121445,-122.2557240
312,Lee Street,94610,37.8113918,-122.2560322
321,Warwick Avenue,94610,37.8132471,-122.2547579
374,Jayne Avenue,94610,37.8139815,-122.2543561
278,Vernon Street,94610,37.8142167,-122.2575060
290,Vernon Street,94610,37.8144018,-122.2571923
390,Jayne Avenue,94610,37.8142859,-122.2537466
394,Jayne Avenue,94610,37.8144377,-122.2536374
384,Palm Avenue,94610,37.8125690,-122.2530145
353,Bellevue Avenue,94610,37.8123461,-122.2535467
360,Palm Avenue,94610,37.8121584,-122.2538071
389,Palm Avenue,94610,37.8130865,-122.2531594
395,Palm Avenue,94610,37.8131749,-122.2528775
388,Palm Avenue,94610,37.8126144,-122.2528905
356,Warwick Avenue,94610,37.8134742,-122.2533766
274,Jayne Avenue,94610,37.8128349,-122.2563654
364,Jayne Avenue,94610,37.8139063,-122.2544696
205,MacArthur Boulevard,94610,37.8168158,-122.2529790
423,Vernon Street,94610,37.8169205,-122.2537538
435,Vernon Street,94610,37.8171862,-122.2533496
279,Adams Street,94610,37.8139386,-122.2572655
267,Adams Street,94610,37.8137479,-122.2574665
251,Adams Street,94610,37.8135133,-122.2579260
330,Adams Street,94610,37.8140929,-122.2558839
251,Perkins Street,94610,37.8143230,-122.2555863
386,Jayne Avenue,94610,37.8142029,-122.2538603
361,Warwick Avenue,94610,37.8137548,-122.2536960
397,Jayne Avenue,94610,37.8148128,-122.2536644
331,Adams Street,94610,37.8144830,-122.2561689
301,Warwick Avenue,94610,37.8127995,-122.2552974
350,Jayne Avenue,94610,37.8136586,-122.2548719
430,Oakland Avenue,94611,37.8180203,-122.2545389
116,Hermosa Avenue,94618,37.8410992,-122.2314921
317,Lee Street,94610,37.8111696,-122.2565972
311,Lee Street,94610,37.8113191,-122.2566005
275,Lee Street,94610,37.8122441,-122.2571808
279,Lee Street,94610,37.8121297,-122.2570430
265,Lee Street,94610,37.8123827,-122.2573758
245,Montecito Avenue,94610,37.8128805,-122.2580660
88,Vernon Street,94610,37.8130414,-122.2589628
2616,Harrison Street,94612,37.8137854,-122.2603178
2606,Harrison Street,94612,37.8135937,-122.2602922
170,Vernon Terrace,94610,37.8134477,-122.2601260
174,Vernon Terrace,94610,37.8133869,-122.2600334
175,Vernon Terrace,94610,37.8131900,-122.2602341
2626,Harrison Street,94612,37.8138860,-122.2601940
274,Vernon Street,94610,37.8141603,-122.2576337
282,Vernon Street,94610,37.8142821,-122.2574110
286,Vernon Street,94610,37.8143414,-122.2573056
294,Vernon Street,94610,37.8144688,-122.2570753
381,Adams Street,94610,37.8153251,-122.2547498
359,Bellevue Avenue,94610,37.8122511,-122.2534808
2710,Harrison Street,94610,37.8145293,-122.2589609
3701,Telegraph Avenue,94609,37.8259444,-122.2657817
2602,Harrison Street,94612,37.8135423,-122.2604123
171,Vernon Terrace,94610,37.8133057,-122.2603017
179,Vernon Terrace,94610,37.8131404,-122.2601183
225,Montecito Avenue,94610,37.8127018,-122.2583426
163,Montecito Avenue,94610,37.8121699,-122.2593175
171,Montecito Avenue,94610,37.8122697,-122.2592344
181,Montecito Avenue,94610,37.8123078,-122.2590766
187,Montecito Avenue,94610,37.8124129,-122.2589795
193,Montecito Avenue,94610,37.8125245,-122.2588293
199,Montecito Avenue,94610,37.8126284,-122.2586219
227,Orange Street,94610,37.8156398,-122.2575528
81,Calvert Court,94611,37.8255567,-122.2211695
85,Calvert Court,94611,37.8254865,-122.2209186
396,Vernon Street,94610,37.8161628,-122.2541068
4425,Telegraph Avenue,94609,37.8327367,-122.2638391
337,Vernon Street,94610,37.8152757,-122.2565773
197,Perkins Street,94610,37.8154116,-122.2563237
191,Perkins Street,94610,37.8154990,-122.2565369
2706,Harrison Street,94612,37.8144024,-122.2592212
259,Adams Street,94610,37.8136205,-122.2577298
263,Adams Street,94610,37.8137088,-122.2576316
285,Adams Street,94610,37.8139685,-122.2571390
291,Adams Street,94610,37.8140358,-122.2570083
297,Adams Street,94610,37.8141027,-122.2569146
325,Adams Street,94610,37.8144501,-122.2563297
201,Perkins Street,94610,37.8150782,-122.2560711
300,Vernon Street,94610,37.8145365,-122.2568790
330,Vernon Street,94610,37.8147967,-122.2565407
424,Orange Street,94610,37.8172067,-122.2539730
426,Orange Street,94610,37.8173999,-122.2537491
438,Orange Street,94610,37.8176203,-122.2535143
448,Orange Street,94610,37.8177554,-122.2533978
185,Perry Place,94610,37.8175835,-122.2533055
195,Perry Place,94610,37.8172294,-122.2531037
429,Vernon Street,94610,37.8170644,-122.2534722
350,Vernon Street,94610,37.8154377,-122.2552996
354,Vernon Street,94610,37.8155801,-122.2550301
380,Vernon Street,94610,37.8159791,-122.2544096
390,Vernon Street,94610,37.8161192,-122.2542870
388,Vernon Street,94610,37.8159694,-122.2541424
403,Adams Street,94610,37.8158768,-122.2537488
"397,399",Adams Street,94610,37.8158277,-122.2538617
395,Adams Street,94610,37.8157421,-122.2539599
393,Adams Street,94610,37.8156678,-122.2540629
391,Adams Street,94610,37.8156041,-122.2541597
389,Adams Street,94610,37.8155401,-122.2542608
387,Adams Street,94610,37.8155140,-122.2543996
284,Van Buren Avenue,94610,37.8112771,-122.2570385
307,Lee Street,94610,37.8114810,-122.2566215
266,Lenox Avenue,94610,37.8122204,-122.2578150
200,Montecito Avenue,94610,37.8123882,-122.2580056
250,Montecito Avenue,94610,37.8125713,-122.2576360
285,Lee Street,94610,37.8119927,-122.2569164
297,Lee Street,94610,37.8118016,-122.2567447
282,Adams Street,94610,37.8138036,-122.2564463
275,Jayne Avenue,94610,37.8132780,-122.2564780
285,Jayne Avenue,94610,37.8134033,-122.2563206
291,Jayne Avenue,94610,37.8134830,-122.2561479
267,Perkins Street,94610,37.8140165,-122.2554887
259,Perkins Street,94610,37.8141706,-122.2555135
307,Jayne Avenue,94610,37.8137243,-122.2556935
301,Jayne Avenue,94610,37.8136834,-122.2558440
255,Jayne Avenue,94610,37.8129059,-122.2571082
264,Lee Street,94610,37.8130185,-122.2572498
1074,Annerley Road,94610,37.8166973,-122.2343116
1070,Annerley Road,94610,37.8167228,-122.2344389
1066,Annerley Road,94610,37.8167001,-122.2345804
1060,Annerley Road,94610,37.8166922,-122.2347190
4163,Lakeshore Avenue,94610,37.8163899,-122.2335453
1092,Park Lane,94610,37.8162600,-122.2324708
242,Oakland Avenue,94611,37.8159603,-122.2575743
248,Oakland Avenue,94611,37.8160443,-122.2574791
306,Oakland Avenue,94611,37.8163873,-122.2570209
316,Oakland Avenue,94611,37.8165336,-122.2567588
320,Oakland Avenue,94611,37.8166559,-122.2566073
324,Oakland Avenue,94611,37.8167087,-122.2565008
350,Oakland Avenue,94611,37.8167560,-122.2563827
360,Oakland Avenue,94611,37.8168845,-122.2563143
366,Oakland Avenue,94611,37.8169009,-122.2560959
370,Oakland Avenue,94611,37.8169654,-122.2560225
386,Oakland Avenue,94611,37.8170283,-122.2559236
390,Oakland Avenue,94611,37.8171382,-122.2558253
392,Oakland Avenue,94611,37.8172321,-122.2557355
155,Pearl Street,94611,37.8172999,-122.2555038
428,Oakland Avenue,94611,37.8179524,-122.2546346
150,Pearl Street,94611,37.8176476,-122.2550146
515,Oakland Avenue,94611,37.8196057,-122.2531869
517,Oakland Avenue,94611,37.8196669,-122.2531094
525,Oakland Avenue,94611,37.8197484,-122.2530084
535,Oakland Avenue,94611,37.8199158,-122.2528451
95,Moss Avenue,94610,37.8201811,-122.2530534
3544,Harrison Street,94611,37.8203289,-122.2531496
3540,Harrison Street,94611,37.8202620,-122.2532198
91,Portal Ave;Florada Avenue,94611,37.8154339,-122.2289236
81,Portal Ave;Florada Avenue,94611,37.8153636,-122.2288007
904,Wawona Avenue,94610,37.8155513,-122.2299713
271,Crocker Avenue,94610,37.8146258,-122.2254598
1163,Ashmount Avenue,94610,37.8146236,-122.2257133
1175,Clarendon Crescent,94610,37.8141275,-122.2237190
392,Adams Street,94610,37.8151721,-122.2540931
382,Adams Street,94610,37.8149977,-122.2542823
380,Adams Street,94610,37.8148618,-122.2544779
368,Adams Street,94610,37.8147586,-122.2547861
350,Adams Street,94610,37.8145946,-122.2551552
260,Perkins Street,94610,37.8144936,-122.2549798
357,Jayne Avenue,94610,37.8142235,-122.2547477
375,Jayne Avenue,94610,37.8144042,-122.2546029
385,Jayne Avenue,94610,37.8146368,-122.2541970
356,Jayne Avenue,94610,37.8136822,-122.2546910
362,Jayne Avenue,94610,37.8138005,-122.2545956
353,Warwick Avenue,94610,37.8136915,-122.2538811
347,Warwick Avenue,94610,37.8136422,-122.2540278
339,Warwick Avenue,94610,37.8135322,-122.2541264
335,Warwick Avenue,94610,37.8134244,-122.2542631
325,Warwick Avenue,94610,37.8133249,-122.2545616
317,Warwick Avenue,94610,37.8131372,-122.2548413
313,Warwick Avenue,94610,37.8130475,-122.2549413
309,Warwick Avenue,94610,37.8129903,-122.2550686
294,Perkins Street,94610,37.8129783,-122.2552483
284,Perkins Street,94610,37.8133660,-122.2550746
280,Perkins Street,94610,37.8135257,-122.2549710
395,Staten Avenue,94610,37.8107779,-122.2539484
105,Calvert Court,94611,37.8252495,-122.2195335
109,Calvert Court,94611,37.8254283,-122.2192184
138,Calvert Court,94611,37.8259714,-122.2201237
120,Calvert Court,94611,37.8259181,-122.2203841
110,Calvert Court,94611,37.8257623,-122.2204720
149,Calvert Court,94611,37.8258127,-122.2199226
143,Calvert Court,94611,37.8254180,-122.2199150
135,Calvert Court,94611,37.8252868,-122.2201902
90,Calvert Court,94611,37.8251551,-122.2206331
70,Sotelo Avenue,94611,37.8249474,-122.2177376
5501,La Salle Avenue,94611,37.8233318,-122.2173536
15,La Salle Ave;Crest Road,94611,37.8221029,-122.2152764
100,La Salle Ave;Crest Road,94611,37.8223275,-122.2156332
102,La Salle Ave;Crest Road,94611,37.8225715,-122.2157907
60,Somerset Road,94611,37.8213468,-122.2146053
38,Somerset Road,94611,37.8216426,-122.2145944
24,Somerset Road,94611,37.8217637,-122.2148483
14,Somerset Road,94611,37.8216978,-122.2150593
22,Valant Place,94610,37.8136246,-122.2213602
21,Valant Place,94610,37.8134045,-122.2212310
1887,Trestle Glen Road,94602,37.8123155,-122.2159229
1877,Cavendish Lane,94602,37.8123275,-122.2160897
1871,Trestle Glen Road,94602,37.8123959,-122.2162758
1867,Trestle Glen Road,94602,37.8124923,-122.2164323
1855,Trestle Glen Road,94602,37.8125891,-122.2168879
1859,Trestle Glen Road,94602,37.8125654,-122.2167608
8,Cavendish Lane,94602,37.8128239,-122.2175358
1835,Trestle Glen Road,94602,37.8129250,-122.2172805
2,Cavendish Lane,94602,37.8129076,-122.2179607
4,Cavendish Lane,94602,37.8130074,-122.2178128
1755,Trestle Glen Road,94602,37.8133958,-122.2195424
1749,Trestle Glen Road,94602,37.8132798,-122.2201597
300,Indian Road,94611,37.8138465,-122.2223333
290,Lee Street,94610,37.8123078,-122.2563266
292,Lee Street,94610,37.8121393,-122.2562158
282,Jayne Avenue,94610,37.8129924,-122.2561389
286,Jayne Avenue,94610,37.8130541,-122.2560200
290,Jayne Avenue,94610,37.8131397,-122.2559064
292,Jayne Avenue,94610,37.8131857,-122.2557919
296,Jayne Avenue,94610,37.8132450,-122.2556728
281,Perkins Street,94610,37.8133004,-122.2555699
303,Perkins Street,94610,37.8122552,-122.2558093
307,Perkins Street,94610,37.8120342,-122.2556804
321,Perkins Street,94610,37.8119287,-122.2556107
335,Perkins Street,94610,37.8117429,-122.2554056
337,Perkins Street,94610,37.8117278,-122.2555083
339,Perkins Street,94610,37.8117130,-122.2556104
345,Perkins Street,94610,37.8116031,-122.2553506
343,Perkins Street,94610,37.8115988,-122.2554414
341,Perkins Street,94610,37.8115940,-122.2555410
293,Perkins Street,94610,37.8127680,-122.2557317
287,Perkins Street,94610,37.8129490,-122.2556836
349,Perkins Street,94610,37.8114882,-122.2555464
347,Perkins Street,94610,37.8114861,-122.2553585
357,Perkins Street,94610,37.8113855,-122.2554209
365,Perkins Street,94610,37.8111992,-122.2555076
375,Perkins Street,94610,37.8110229,-122.2554722
330,Van Buren Avenue,94610,37.8108583,-122.2555373
320,Lee Street,94610,37.8110334,-122.2560049
283,Perkins Street,94610,37.8130541,-122.2555985
310,Lee Street,94610,37.8115399,-122.2559986
201,3rd Street,94607,37.7942939,-122.2703670
416,Perkins Street,94610,37.8101920,-122.2553365
362,Belmont Street,94610,37.8100623,-122.2551165
370,Belmont Street,94610,37.8099929,-122.2549664
66,Airport Access Road,94603,37.7258645,-122.1983571
1330,Jackson Street,94612-4008,37.8017380,-122.2650191
49,4th Street,94607,37.7934228,-122.2657035
759,60th Street,94609,37.8451031,-122.2697634
40,Moss Avenue,94610,37.8195523,-122.2515959
3001;3015;3025;3039,Broadway,94611,37.8192788,-122.2623745
522,2nd Street,94607,37.7970574,-122.2778088
2109,Macarthur Boulevard,94602,37.8003925,-122.2170166
8471,Enterprise Way,94621,37.7420270,-122.1933355
8400,Edes Avenue,94621,37.7420406,-122.1947121
3770,Telegraph Avenue,94609-2429,37.8267845,-122.2646816
544,Chetwood Street,94610,37.8176214,-122.2491907
351,Lester Avenue,94606,37.8022931,-122.2499021
329,Lester Avenue,94606,37.8020671,-122.2504920
"334,336",Hanover Avenue,94606,37.8026048,-122.2507848
350,Hanover Avenue,94606,37.8026273,-122.2501954
126,2nd Street,94607,37.7934265,-122.2683118
5692,Cabot Drive,94611,37.8324111,-122.2125634
32,Linda Avenue,94611,37.8268454,-122.2502583
5238,Coronado Avenue,94618,37.8352842,-122.2522912
350,Hegenberger Road,94621,37.7351377,-122.1966502
401,Jackson Street,94607,37.7954454,-122.2697002
1501,Martin Luther King Junior Way,94612,37.8072243,-122.2757181
1536,23rd Avenue,94606,37.7849933,-122.2340517
499,Lesser Street,94601,37.7648624,-122.2189322
3439,Fruitvale Avenue,94602,37.8000839,-122.2166370
3435,Fruitvale Avenue,94602,37.7999383,-122.2165274
3431,Fruitvale Avenue,94602,37.7998776,-122.2165886
2055,MacArthur Boulevard,94602,37.8005800,-122.2176848
6449,Colby Street,94618,37.8523843,-122.2573181
1009,54th Street,94608,37.8380898,-122.2782017
1001,54th Street,94608,37.8381308,-122.2779513
995,54th Street,94608,37.8381507,-122.2778010
987,54th Street,94608,37.8382092,-122.2775299
2758,Fruitvale Avenue,94601,37.7913272,-122.2193386
1700,28th Avenue,94601,37.7823111,-122.2264302
3031,East 18th Street,94601,37.7823964,-122.2247431
201,4th Street,94607,37.7950272,-122.2700488
2311A,Magnolia Street,94607,37.8170343,-122.2850254
1440,Leimert Boulevard,94602,37.8118580,-122.2122969
4935,Shattuck Avenue,94609,37.8367085,-122.2642533
1930,12th Avenue,94606,37.7940655,-122.2429078
1155;1175,3rd Street,94607,37.8009552,-122.2897953
220,4th Street,94607,37.7955343,-122.2699281
130,4th Street,94607,37.7946221,-122.2677397
333,Broadway,94607,37.7973397,-122.2760204
300,Broadway,94607,37.7968044,-122.2755526
301,Franklin Street,94607,37.7965061,-122.2748821
1103,Embarcadero,94606,37.7880413,-122.2526878
1551,Embarcadero,94606-5223,37.7859885,-122.2466061
378,Embarcadero West,94607,37.7950235,-122.2748006
229,Castro Street,94607,37.7987198,-122.2825252
3915,Broadway,94611,37.8273353,-122.2572947
2035,40th Avenue,94601,37.7802363,-122.2121728
727,66th Avenue,94621,37.7558818,-122.2044477
2236,Martin Luther King Junior Way,94612,37.8122819,-122.2725453
188,10th Street,94607,37.7993465,-122.2665289
8410,Amelia Street,94621,37.7497517,-122.1866352
7300,Bancroft Avenue,94605,37.7682016,-122.1741595
7200,Bancroft Road,94605-2403,37.7674076,-122.1783868
6900,Bancroft Avenue,94605,37.7680515,-122.1790505
1525,Horton Street,94608,37.8291564,-122.2878317
3265,Market Street,94608,37.8236223,-122.2761005
3233,Market Street,94608,37.8231090,-122.2761412
4514;4530;74530,Telegraph Avenue,94609-2020,37.8335205,-122.2629572
305,Center Street,94607,37.8028308,-122.2960604
515,31st Street,94609,37.8198018,-122.2677563
1440,29th Avenue,94601,37.7797625,-122.2281493
8001,South Coliseum Way,94621,37.7467079,-122.1993186
809,East 28th Street,94610,37.8028635,-122.2375788
7221,Ney Avenue,94605,37.7701413,-122.1716587
2105,MacArthur Boulevard,94602,37.8004085,-122.2171355
3530,Fruitvale Avenue,94602,37.8008131,-122.2157482
2411,MacArthur Boulevard,94602-2915,37.7994824,-122.2139797
811,East 28th Street,94610,37.8027670,-122.2377305
3021,Millsbrae Avenue,94605,37.7754835,-122.1867877
3014,57th Avenue,94605,37.7761761,-122.1877147
3006,57th Avenue,94605,37.7761114,-122.1878196
5933,Camden Street,94605,37.7748804,-122.1850169
3051,60th Avenue,94605,37.7747873,-122.1850939
3045,60th Avenue,94605,37.7746920,-122.1851803
3039,60th Avenue,94605,37.7746171,-122.1852879
3033,60th Avenue,94605,37.7745319,-122.1853853
3027,60th Avenue,94605,37.7744696,-122.1855073
3021,60th Avenue,94605,37.7743785,-122.1855783
3015,60th Avenue,94605,37.7742765,-122.1856835
3001,60th Avenue,94605,37.7741277,-122.1858266
5920,Brann Street,94605,37.7742484,-122.1859715
6151,Overdale Avenue,94605,37.7799978,-122.1751877
3531,Pierson Street,94619,37.7838065,-122.1897103
3586,Seminary Avenue,94605,37.7793633,-122.1805257
3562,Seminary Avenue,94605,37.7792752,-122.1806124
3556,Seminary Avenue,94605,37.7791864,-122.1807227
3550,Seminary Avenue,94605,37.7790804,-122.1807578
3542,Seminary Avenue,94605,37.7789590,-122.1808519
3530,Seminary Avenue,94605,37.7788416,-122.1809162
3526,Seminary Avenue,94605,37.7787533,-122.1810102
3520,Seminary Avenue,94605,37.7786652,-122.1810882
592,Jean Street,94610,37.8175115,-122.2476994
546,Chetwood Street,94610,37.8177087,-122.2491115
2257,MacArthur Boulevard,94602,37.7998052,-122.2147480
1763,87th Avenue,94621,37.7540080,-122.1713234
5801,Racine Street,94609,37.8441244,-122.2617478
5644,Telegraph Avenue,94609,37.8421448,-122.2612557
1900,Embarcadero,94606,37.7831210,-122.2426977
614,22nd Street,94612,37.8116955,-122.2718424
1221,3rd Street,94607,37.8010598,-122.2910457
2025,East 12th Street,94606,37.7844493,-122.2404719
945,22nd Avenue,94606,37.7818005,-122.2410891
1950,Peralta Oaks Court,94605,37.7435704,-122.1443769
4242;4244;4252;4266,Broadway,94611,37.8306624,-122.2543520
6230,Claremont Avenue,94618,37.8499434,-122.2515431
7127,San Leandro Street,94577,37.7536053,-122.1974243
"254,256,258,260",Lester Avenue,94606,37.8025153,-122.2518163
306,Hanover Avenue,94606,37.8025239,-122.2516461
346,Hanover Avenue,94606,37.8025898,-122.2504590
311,Lester Avenue,94606,37.8019863,-122.2511277
301,Lester Avenue,94606,37.8018621,-122.2512650
339,Lester Avenue,94606,37.8022048,-122.2501501
"338,340",Hanover Avenue,94606,37.8026124,-122.2506431
"312,314",Hanover Avenue,94606,37.8025474,-122.2514944
"323,325",Lester Avenue,94606,37.8019676,-122.2505708
322,Hanover Avenue,94606,37.8023329,-122.2514780
333,Lester Avenue,94606,37.8021364,-122.2503226
296,Lester Avenue,94606,37.8019423,-122.2514460
364,Lester Avenue,94606,37.8020888,-122.2491971
360,Lester Avenue,94606,37.8020638,-122.2493066
358,Lester Avenue,94606,37.8019998,-122.2493785
352,Lester Avenue,94606,37.8019688,-122.2494844
350,Lester Avenue,94606,37.8019099,-122.2495832
348,Lester Avenue,94606,37.8018402,-122.2496670
342,Lester Avenue,94606,37.8017634,-122.2497688
338,Lester Avenue,94606,37.8017417,-122.2498779
336,Lester Avenue,94606,37.8016816,-122.2499727
"332,334",Lester Avenue,94606,37.8016456,-122.2500965
330,Lester Avenue,94606,37.8016003,-122.2502122
326,Lester Avenue,94606,37.8015542,-122.2503487
324,Lester Avenue,94606,37.8015234,-122.2504485
320,Lester Avenue,94606,37.8014824,-122.2505860
314,Lester Avenue,94606,37.8014472,-122.2507198
312,Lester Avenue,94606,37.8014350,-122.2508478
308,Lester Avenue,94606,37.8014309,-122.2509666
304,Lester Avenue,94606,37.8014103,-122.2511402
335,Newton Avenue,94606,37.8021442,-122.2490062
353,Newton Avenue,94606,37.8025039,-122.2491045
373,Lester Avenue,94606,37.8024626,-122.2492701
367,Lester Avenue,94606,37.8024421,-122.2493864
"361,363,365",Lester Avenue,94606,37.8024286,-122.2495168
"357,359",Lester Avenue,94606,37.8023547,-122.2496108
353,Lester Avenue,94606,37.8023118,-122.2496999
278,Hanover Avenue,94606,37.8025338,-122.2523472
255,Lester Avenue,94606,37.8024438,-122.2522844
285,Lester Avenue,94606,37.8018831,-122.2520176
279,Lester Avenue,94606,37.8019750,-122.2520910
251,Acton Place,94606,37.8016168,-122.2517229
245,Acton Place,94606,37.8015411,-122.2518118
239,Acton Place,94606,37.8014474,-122.2518761
360,Hanover Avenue,94606,37.8026964,-122.2500100
362,Hanover Avenue,94606,37.8027100,-122.2498569
364,Hanover Avenue,94606,37.8027527,-122.2496265
372,Hanover Avenue,94606,37.8027721,-122.2494751
374,Hanover Avenue,94606,37.8027862,-122.2493700
375,Newton Avenue,94606,37.8028216,-122.2491734
367,Newton Avenue,94606,37.8026801,-122.2491506
267,Lester Avenue,94606,37.8021142,-122.2522367
211,Athol Avenue,94606,37.8009773,-122.2513567
215,Athol Avenue,94606,37.8009413,-122.2511622
221,Athol Avenue,94606,37.8008957,-122.2510221
229,Athol Avenue,94606,37.8009619,-122.2507438
235,Athol Avenue,94606,37.8009857,-122.2506352
237,Athol Avenue,94606,37.8009826,-122.2504763
243,Athol Avenue,94606,37.8010917,-122.2502791
"247,249,251",Athol Avenue,94606,37.8011595,-122.2500948
253,Athol Avenue,94606,37.8012173,-122.2499505
257,Athol Avenue,94606,37.8013069,-122.2498681
263,Athol Avenue,94606,37.8013482,-122.2496951
323,Newton Avenue,94606,37.8020164,-122.2489794
319,Newton Avenue,94606,37.8019181,-122.2489812
"311,313,315,317,317B",Newton Avenue,94606,37.8018076,-122.2489289
303,Newton Avenue,94606,37.8016415,-122.2488939
291,Athol Avenue,94606,37.8016044,-122.2490684
287,Athol Avenue,94606,37.8015628,-122.2491847
283,Athol Avenue,94606,37.8015032,-122.2492920
277,Athol Avenue,94606,37.8015046,-122.2494550
"269,271,273,275",Athol Avenue,94606,37.8014145,-122.2495703
385,Hanover Avenue,94606,37.8031825,-122.2492273
379,Hanover Avenue,94606,37.8031961,-122.2493654
365,Hanover Avenue,94606,37.8032128,-122.2497537
373,Hanover Avenue,94606,37.8031695,-122.2495610
361,Hanover Avenue,94606,37.8031289,-122.2498929
357,Hanover Avenue,94606,37.8031036,-122.2500618
345,Hanover Avenue,94606,37.8031047,-122.2504519
339,Hanover Avenue,94606,37.8030818,-122.2506057
331,Hanover Avenue,94606,37.8031251,-122.2509711
323,Hanover Avenue,94606,37.8030350,-122.2511304
6608,Pinehaven Road,94611,37.8459842,-122.2084953
350,Hawthorne Avenue,94609,37.8212430,-122.2635756
1940,Union Street,94607,37.8145644,-122.2862439
1239,19th Street,94607,37.8139132,-122.2861859
8,Eastwood Court,94611,37.8355186,-122.1867960
2608,Myrtle Street,94607,37.8180079,-122.2782478
871,Athens Avenue,94607,37.8151135,-122.2772413
3400,East 12th Street,94601,37.7760241,-122.2237593
8255,San Leandro Street,94621,37.7487490,-122.1919061
5804,Canning Street,94609,37.8447806,-122.2589390
5812,Canning Street,94609,37.8448923,-122.2589470
2521,High Street,94601,37.7817256,-122.2053214
3630,High Street,94619,37.7869529,-122.1940121
2626,High Street,94619,37.7826531,-122.2033984
2601,High Street,94619,37.7826920,-122.2042292
2603 Suite A,High Street,94619,37.7827147,-122.2041890
2550,High Street,94601,37.7819151,-122.2044152
2350,High Street,94601,37.7802147,-122.2060664
2314,High Street,94601,37.7799000,-122.2063706
4675,Tidewater Ave,94601,37.7622621,-122.2230778
4675,Tidewater Ave,94601,37.7627472,-122.2231951
7305,Edgewater Drive,94621,37.7447539,-122.2065101
401,Roland Way,94621,37.7412576,-122.2056850
950,63rd Street,94608,37.8472466,-122.2779678
8099,South Coliseum Way,94621,37.7440134,-122.1978405
532,Hegenberger Road,94621,37.7436647,-122.1956583
7817,Oakport Street,94621,37.7430418,-122.1998998
10516;10518;10520;10526;10528;10530,Acalanes Drive,94603,37.7328316,-122.1781499
673,Capistrano Drive,94603,37.7323266,-122.1784822
630,Hegenberger Road,94621,37.7469006,-122.1956725
640,Hegenberger Road,94621-1914,37.7458931,-122.1955706
580,Hegenberger Road,94621-1320,37.7452970,-122.1955983
9899,MacArthur Boulevard,94605,37.7471733,-122.1575194
1849,98th Avenue,94603,37.7469971,-122.1653963
10400,MacArthur Boulevard,94605,37.7438919,-122.1527768
2621,109th Avenue,94605,37.7416353,-122.1493190
10770,Macarthur Boulevard,94605,37.7420640,-122.1503651
8925,Holly Street,94621,37.7504170,-122.1732901
9920,MacArthur Boulevard,94605,37.7471260,-122.1567275
10000,MacArthur Boulevard,94605,37.7460737,-122.1558978
10150,Foothill Boulevard,94605,37.7453973,-122.1545923
3401,Mandela Parkway,94608,37.8250319,-122.2901006
1650,32nd Street,94608,37.8231419,-122.2896655
3007;3009,Peralta Street,94608,37.8230859,-122.2849470
3001,Peralta Street,94608,37.8229180,-122.2850562
4550,Heafey Road,94605,37.7663087,-122.1336659
2321,International Boulevard,94601,37.7829799,-122.2356511
2344,East 15th Street,94606,37.7839203,-122.2340955
1536,23rd Avenue,94606,37.7846344,-122.2343154
2045,Foothill Boulevard,94606,37.7867953,-122.2377058
2235,East 19th Street,94606,37.7871033,-122.2341127
1880,22nd Avenue,94606,37.7876836,-122.2347241
1900;1906,Foothill Boulevard,94606,37.7881423,-122.2391073
1038,E 21st Street,94606,37.7961424,-122.2423693
3901,International Boulevard,94601,37.7737524,-122.2184596
3901,International Boulevard,94601,37.7739100,-122.2187869
3901,International Boulevard,94601,37.7738352,-122.2186420
3901,International Boulevard,94601,37.7736894,-122.2188965
3901,International Boulevard,94601,37.7739513,-122.2189116
1101,7th Avenue,94606-3636,37.7931778,-122.2541153
1811,11th Avenue,94606,37.7943714,-122.2451276
1216,10th Avenue,94606,37.7913992,-122.2503203
1522,9th Street,94607,37.8078948,-122.2958048
1038,Willow Street,94607,37.8102978,-122.2981954
3031,Chestnut Street,94608,37.8224961,-122.2807907
2450,Mandela Parkway,94607,37.8194261,-122.2886173
2429,Adeline Street,94607,37.8178537,-122.2835132
2855,Mandela Parkway,94608,37.8223624,-122.2898523
50,Alvarado Place,94705,37.8591256,-122.2405526
7301,Bancroft Avenue,94605,37.7653454,-122.1767889
3714,Foothill Boulevard,94601,37.7795967,-122.2163336
2469,Coolidge Avenue,94601-2637,37.7870139,-122.2187386
3400,Foothill Boulevard,94601,37.7830484,-122.2200049
2179,East 27th Street,94606,37.7936190,-122.2283257
2178,East 24th Street,94606,37.7917415,-122.2303202
7201,Oakport Street,94621,37.7488611,-122.2055873
845,66th Avenue,94621,37.7568319,-122.2013672
535,61st Street,94609,37.8469044,-122.2619694
420,McAuley Street,94609,37.8462104,-122.2572274
6116,Telegraph Avenue,94609,37.8476623,-122.2605116
"6126,6124,6122",Telegraph Avenue,94609,37.8478485,-122.2605770
"6200,6202,6204,6206",Telegraph Avenue,94609,37.8481659,-122.2605573
252,Wayne Avenue,94606,37.8020799,-122.2525722
304,Lester Avenue,94606,37.8012972,-122.2511090
364,Lester Avenue,94606,37.8020627,-122.2490955
1521,3rd Avenue,94606,37.7984590,-122.2542943
5668,Buena Vista Avenue,94618,37.8488762,-122.2372764
5646,Buena Vista Avenue,94618,37.8490697,-122.2376478
6508,Dana Street,94609,37.8515790,-122.2577548
6616,Whitney Street,94609,37.8518945,-122.2667850
5303,Claremont Avenue,94618,37.8398037,-122.2604081
5301,Claremont Avenue,94618,37.8396482,-122.2604731
430,East 10th Street,94606,37.7942584,-122.2568837
1022,5th Avenue,94606,37.7938390,-122.2560451
1018,4th Avenue,94606,37.7946889,-122.2567368
6230,Hayes Street,94621,37.7671430,-122.1913843
1048,Leo Way,94611,37.8392197,-122.2203769
412,38th Street,94609,37.8269637,-122.2606894
223,Santa Rosa Avenue,94610,37.8184799,-122.2493669
201,Santa Rosa Avenue,94610,37.8186414,-122.2494790
243,Santa Rosa Avenue,94610,37.8184402,-122.2492594
595,Chetwood Street,94610,37.8183569,-122.2490062
3209,Martin Luther King Junior Way,94609,37.8218985,-122.2707312
2540,San Pablo Avenue,94607,37.8160252,-122.2747639
1218,25th Street,94607,37.8155099,-122.2745147
2505,San Pablo Avenue,94607,37.8157709,-122.2753154
3535,35th Avenue,94619,37.7937450,-122.2011423
1012,Ashmount Avenue,94610,37.8139014,-122.2291217
1012,Ashmount Avenue,94610,37.8140470,-122.2293131
842,33rd Street,94121,37.8237805,-122.2740508
874,West MacArthur Boulevard,94610,37.8282518,-122.2737803
6117,Martin Luther King Junior Way,94608,37.8463782,-122.2715034
5350,Manila Avenue,94618,37.8389258,-122.2518970
5720,Golden Gate Avenue,94618,37.8486762,-122.2390493
5985,Contra Costa Road,94618,37.8465598,-122.2345481
5790,Buena Vista Avenue,94618,37.8480129,-122.2361485
5782,Buena Vista Avenue,94618,37.8480689,-122.2363105
5774,Buena Vista Avenue,94618,37.8481644,-122.2364628
5750,Buena Vista Avenue,94618,37.8483413,-122.2369723
5744,Buena Vista Avenue,94618,37.8484022,-122.2371212
5740,Buena Vista Avenue,94618,37.8484493,-122.2372608
5728,Buena Vista Avenue,94618,37.8484940,-122.2374725
5720,Buena Vista Avenue,94618,37.8486162,-122.2373753
5712,Buena Vista Avenue,94618,37.8487456,-122.2372772
5600,Golden Gate Avenue,94618,37.8479800,-122.2375162
5741,Buena Vista Avenue,94618,37.8481687,-122.2374812
5735,Buena Vista Avenue,94618,37.8482429,-122.2376627
5630,Golden Gate Avenue,94618,37.8480920,-122.2380503
5636,Golden Gate Avenue,94618,37.8482255,-122.2382367
1841,Trestle Glen Road,94602,37.8126673,-122.2170932
1965,Wrenn Street,94602,37.8114104,-122.2073952
2810,Mountain Boulevard,94602,37.8120975,-122.1983732
3431,Fruitvale Avenue,94602,37.7998572,-122.2167832
11889,Skyline Boulevard,94619,37.7984757,-122.1713832
4675,Tidewater Ave,94601,37.7618863,-122.2229895
5110,Telegraph Avenue,94609,37.8375686,-122.2615254
646,50th Avenue,94621,37.7630288,-122.2144359
226,13th Street,94612,37.8018953,-122.2660681
1717,Webster Street,94612,37.8062788,-122.2674456
378,11th Street,94607,37.8017737,-122.2705376
6833,International Boulevard,94621,37.7606593,-122.1909778
3901,Clarke Street,94609,37.8283338,-122.2637912
5701,Dover Street,94609,37.8426268,-122.2682143
200,Burma Road,94607,37.8235533,-122.3098164
200,Burma Road,94607,37.8238086,-122.3079334
394,12th Street,94612,37.8025857,-122.2704225
555,12th Street,94612,37.8036716,-122.2753359
325,27th Street,94612,37.8151090,-122.2638815
2466,Thomas L. Berkley Way,94612,37.8094946,-122.2686742
371,13th Street,94612,37.8027382,-122.2700331
160,Franklin Street,94607,37.7951826,-122.2750860
478,25th Street,94612,37.8147251,-122.2671152
11450,Golf Links Road,94605,37.7419299,-122.1213322
1000,42nd Street,94608,37.8332153,-122.2766108
2300,Valdez Street,94612,37.8123237,-122.2635707
230,Bay Place,94612,37.8130523,-122.2607256
230,Bay Place,94612,37.8130978,-122.2606656
401,Derby Avenue,94601,37.7718805,-122.2323458
4031,Broadway,94611,37.8281457,-122.2567419
4045,Broadway,94611,37.8283096,-122.2566493
1559,Maritime Street,94607,37.8189320,-122.3107980
540,Water Street,94607,37.7956969,-122.2793030
490,West MacArthur Boulevard,94609,37.8265262,-122.2642417
8100,MacArthur Boulevard,94605,37.7636110,-122.1651327
1720,Franklin Street,94612,37.8065287,-122.2680753
10,Hegenberger Road,94621,37.7275736,-122.2006808
3711,Suter St,94619,37.7897700,-122.2037970
"1387,1389,1391,1393,1395,1397,1399",Pullman Way,94607,37.8139685,-122.2999203
3722,MacArthur Boulevard,94619,37.7921962,-122.1989578
195,Hegenberger Road,94621,37.7317345,-122.2007110
2135,San Pablo Avenue,94612,37.8112874,-122.2738878
"1345,1347,1369,1371,1373,1375,1377,1379,1381,1383,1385",Pullman Way,94607,37.8136564,-122.3003478
"1343,1345,1347,1349,1351,1353,1355,1357,1359,1361,1363",Pullman Way,94607,37.8132756,-122.3008629
"1321,1323,1325,1327,1329,1331,1333,1335,1337,1339,1341",Pullman Way,94607,37.8128957,-122.3013768
"1307,1309,1311,1313,1315,1317,1319",Pullman Way,94607,37.8125838,-122.3018039
5132,Broadway,94611,37.8337780,-122.2493490
3706,San Pablo Avenue,94608,37.8280502,-122.2783686
10501,Acalanes Drive,94603,37.7326270,-122.1786502
491,Hardy Street,94618,37.8424969,-122.2575375
491,Hardy Street,94618,37.8421525,-122.2573305
4920,Broadway,94611,37.8337494,-122.2523222
2455,Broadway,94612,37.8138392,-122.2658781
575,Maritime Street,94607,37.8063432,-122.3173556
2325,Valley Street,94612,37.8129125,-122.2678627
6380,Westover Drive,94611,37.8309878,-122.1943316
3100,San Pablo Avenue,94702,37.8502359,-122.2875437
200,Burma Road,94607,37.8233712,-122.3116115
240,Ridgeway Avenue,94611,37.8297596,-122.2524623
50,Entrada Avenue,94611,37.8276395,-122.2492495
262,Grand Avenue,94610,37.8098136,-122.2587329
1807,Linden Street,94607,37.8121489,-122.2831569
1061,21st Street,94607,37.8139396,-122.2826006
1059,21st Street,94607,37.8139053,-122.2824748
6300,Acacia Avenue,94618,37.8458990,-122.2361978
3250,Hollis Street,94608,37.8252436,-122.2837078
344,13th Street,94612,37.8027493,-122.2688607
1,Tunnel Road,94705,37.8584911,-122.2432289
229,Broadway,94607,37.7965833,-122.2765242
6701,Skyview Drive,94605,37.7802172,-122.1625664
6703,Skyview Drive,94605,37.7801520,-122.1626301
6705,Skyview Drive,94605,37.7800859,-122.1626943
6707,Skyview Drive,94605,37.7801508,-122.1624570
6709,Skyview Drive,94605,37.7800856,-122.1625207
6711,Skyview Drive,94605,37.7800187,-122.1625865
6719,Skyview Drive,94605,37.7800017,-122.1621870
6721,Skyview Drive,94605,37.7799360,-122.1622507
6723,Skyview Drive,94605,37.7798691,-122.1623165
6717,Skyview Drive,94605,37.7799362,-122.1624241
6713,Skyview Drive,94605,37.7800675,-122.1622963
6715,Skyview Drive,94605,37.7800023,-122.1623600
6733,Skyview Drive,94605,37.7797774,-122.1620149
6735,Skyview Drive,94605,37.7797137,-122.1620856
6731,Skyview Drive,94605,37.7798402,-122.1619464
6725,Skyview Drive,94605,37.7799109,-122.1620506
6727,Skyview Drive,94605,37.7798488,-122.1621191
6729,Skyview Drive,94605,37.7797858,-122.1621881
6747,Skyview Drive,94605,37.7795372,-122.1618552
6745,Skyview Drive,94605,37.7795981,-122.1617806
6743,Skyview Drive,94605,37.7796580,-122.1617084
6737,Skyview Drive,94605,37.7797329,-122.1618080
6739,Skyview Drive,94605,37.7796734,-122.1618803
6741,Skyview Drive,94605,37.7796134,-122.1619531
6759,Skyview Drive,94605,37.7793675,-122.1616245
6757,Skyview Drive,94605,37.7794284,-122.1615499
6755,Skyview Drive,94605,37.7794883,-122.1614776
6749,Skyview Drive,94605,37.7795632,-122.1615773
6751,Skyview Drive,94605,37.7795038,-122.1616496
6753,Skyview Drive,94605,37.7794437,-122.1617224
6771,Skyview Drive,94605,37.7791934,-122.1614242
6769,Skyview Drive,94605,37.7792493,-122.1613435
6767,Skyview Drive,94605,37.7793041,-122.1612652
6761,Skyview Drive,94605,37.7793853,-122.1613565
6763,Skyview Drive,94605,37.7793308,-122.1614349
6765,Skyview Drive,94605,37.7792759,-122.1615138
6783,Skyview Drive,94605,37.7789770,-122.1612698
6781,Skyview Drive,94605,37.7790143,-122.1611735
6779,Skyview Drive,94605,37.7790510,-122.1610801
6775,Skyview Drive,94605,37.7791120,-122.1612348
6777,Skyview Drive,94605,37.7790757,-122.1613291
6773,Skyview Drive,94605,37.7791485,-122.1611411
6795,Skyview Drive,94605,37.7787323,-122.1612000
6793,Skyview Drive,94605,37.7787455,-122.1610943
6791,Skyview Drive,94605,37.7787586,-122.1609917
6785,Skyview Drive,94605,37.7788662,-122.1610133
6787,Skyview Drive,94605,37.7788532,-122.1611164
6789,Skyview Drive,94605,37.7788409,-122.1612203
6803,Skyview Drive,94605,37.7784760,-122.1609953
6805,Skyview Drive,94605,37.7784817,-122.1610999
6807,Skyview Drive,94605,37.7784876,-122.1612065
6801,Skyview Drive,94605,37.7785954,-122.1611975
6799,Skyview Drive,94605,37.7785901,-122.1610913
6797,Skyview Drive,94605,37.7785848,-122.1609876
6813,Skyview Drive,94605,37.7783659,-122.1612293
6811,Skyview Drive,94605,37.7783604,-122.1611231
6815,Skyview Drive,94605,37.7782460,-122.1610276
6809,Skyview Drive,94605,37.7783547,-122.1610195
6819,Skyview Drive,94605,37.7782582,-122.1612387
6817,Skyview Drive,94605,37.7782520,-122.1611322
4311,MacArthur Boulevard,94619,37.7867698,-122.1948168
4550,Heafey Road,94605,37.7651065,-122.1350325
3213,Burdeck Drive,94602,37.8073042,-122.1927470
3213,Burdeck Drive,94602,37.8077432,-122.1925212
3950,Alameda Avenue,94601,37.7691671,-122.2244453
4356,Coliseum Way,94601,37.7674720,-122.2189393
2455,Church Street,94605,37.7688042,-122.1789986
4655,Steele Street,94619,37.7851527,-122.1876706
2121,Wood Street,94607,37.8181580,-122.2943116
1776,West Grand Avenue,94607,37.8170889,-122.2975124
120,Magnolia Street,94607,37.8004019,-122.2902022
500,William Street,94612,37.8094183,-122.2707468
601,William Street,94612,37.8090250,-122.2721038
600,William Street,94612,37.8096395,-122.2721360
5295,Broadway Terrace #15,94618,37.8378448,-122.2428861
265,Vernon Street,94610,37.8143878,-122.2584033
3665,Telegraph Avenue,94609,37.8254473,-122.2658578
1587,Franklin Street,94612,37.8058944,-122.2691803
328,Hanover Avenue,94606,37.8025023,-122.2509884
1000,Oak Street,94607,37.7986190,-122.2632380
1111,Pine Street,94607,37.8129783,-122.3005730
866,Wood Street,94607,37.8090418,-122.3008748
4001,San Leandro Street,94601,37.7712327,-122.2197647
360,Vernon Street,94610,37.8157643,-122.2546741
301,Perkins Street,94610,37.8124778,-122.2559281
276,Adams Street,94610,37.8135699,-122.2567945
3903,Clarke Street,94609,37.8283178,-122.2636056
155,4th Street,94607,37.7944406,-122.2689377
801,Franklin Street,94607,37.8002916,-122.2729141
2121,Harrison Street,94612,37.8101633,-122.2631989
2501,Grizzly Peak Boulevard,94563,37.8957607,-122.2428254
585,9th Street,94607,37.8017162,-122.2765607
233,Broadway,94607,37.7967537,-122.2770184
10051,Doolittle Drive,94603,37.7196854,-122.1963742
3100,Telegraph Avenue,94609,37.8201956,-122.2650058
306,Lee Street,94610,37.8117381,-122.2560238
50,Martin Luther King Junior Way,94607,37.7965637,-122.2809306
