House number,Street name,Postal code,Latitude,Longitude
201,South California Avenue,94306,37.4282105,-122.1430557
408,South California Avenue,94306,37.4265940,-122.1448665
369,South California Avenue,94306,37.4267498,-122.1442408
213,South California Avenue,94306,37.4281279,-122.1431237
365,South California Avenue,94306,37.4267838,-122.1441329
2675,Middlefield Road,94306,37.4339549,-122.1296405
2717,Middlefield Road,94306,37.4334422,-122.1291020
2710,Middlefield Road,94306,37.4332059,-122.1293976
2615,Middlefield Road,94306,37.4341381,-122.1299470
2625,Middlefield Road,94306,37.4341044,-122.1299090
855,El Camino Real,94301,37.4392130,-122.1583500
559,College Avenue,94306,37.4255661,-122.1479394
2001,El Camino Real,94306,37.4277552,-122.1489373
1401,Stanford Avenue,94306,37.4204590,-122.1551904
550,South California Avenue,94306,37.4245909,-122.1465156
855,El Camino Real,94301,37.4382408,-122.1603973
340,Portage Avenue,94306,37.4234462,-122.1367070
344,South California Avenue,94306,37.4270747,-122.1444724
451,South California Avenue,94306,37.4257266,-122.1451110
395,South California Avenue,94306,37.4265593,-122.1443952
340,South California Avenue,94306,37.4271019,-122.1444480
3990,El Camino Real,94306,37.4155488,-122.1289000
393,South California Avenue,94306,37.4266224,-122.1443531
101,South California Avenue,94306,37.4286236,-122.1427574
405,South California Avenue,94306,37.4263873,-122.1445693
433,South California Avenue,94306,37.4259180,-122.1449504
437,South California Avenue,94306,37.4258473,-122.1450160
439,South California Avenue,94306,37.4258223,-122.1450336
477,South California Avenue,94306,37.4254169,-122.1453891
490,South California Avenue,94306,37.4253274,-122.1458797
460,Cambridge Avenue,94306,37.4264582,-122.1462551
454,Cambridge Avenue,94306,37.4265506,-122.1461993
441,Cambridge Avenue,94306,37.4265282,-122.1457080
447,Cambridge Avenue,94306,37.4264557,-122.1455660
2343,Birch Street,94306,37.4278024,-122.1444320
2323,Birch Street,94306,37.4278592,-122.1445610
2033,El Camino Real,94306,37.4276045,-122.1487500
211,Lambert Avenue,94306,37.4236185,-122.1343240
440,High Street,94301,37.4443448,-122.1640432
330,South California Avenue,94306,37.4271748,-122.1443913
334,South California Avenue,94306,37.4271376,-122.1444229
360,South California Avenue,94306,37.4269583,-122.1445420
364,South California Avenue,94306,37.4269106,-122.1445814
368,South California Avenue,94306,37.4268225,-122.1445976
370,South California Avenue,94306,37.4267706,-122.1446429
855,Town and Country Village,94301,37.4386625,-122.1599250
855,Town and Country Village,94301,37.4385427,-122.1603401
855,Town and Country Village,94301,37.4385075,-122.1604719
472,Everett Avenue,94301,37.4495709,-122.1617850
367,Addison Avenue,94301,37.4429402,-122.1545898
475,South California Avenue,94306,37.4254420,-122.1453704
459,South California Avenue,94306,37.4256122,-122.1452040
461,South California Avenue,94306,37.4255829,-122.1452331
550,South California Avenue,94306,37.4245762,-122.1465274
453,South California Avenue,94306,37.4256918,-122.1451420
415,South California Avenue,94306,37.4262726,-122.1446482
427,South California Avenue,94306,37.4259890,-122.1448856
431,South California Avenue,94306,37.4259832,-122.1448929
435,South California Avenue,94306,37.4258836,-122.1449836
480 #201,South California Avenue,94306,37.4256481,-122.1456217
456,South California Avenue,94306,37.4257910,-122.1455115
"460, #203",South California Avenue,94306,37.4257342,-122.1455681
410,South California Avenue,94306,37.4265529,-122.1448945
950,Page Mill Road,94304,37.4204154,-122.1464428
321,South California Avenue,94306,37.4270819,-122.1439887
320,South California Avenue,94306,37.4272831,-122.1442357
350,South California Avenue,94306,37.4270209,-122.1445077
855,Town and Country Village,94301,37.4386209,-122.1600585
855,Town and Country Village,94301,37.4386797,-122.1598720
4290,El Camino Real,94306,37.4059857,-122.1214160
855,Town and Country Village,94301,37.4387623,-122.1595310
855,Town and Country Village,94301,37.4387449,-122.1596040
855,Town and Country Village,94301,37.4388422,-122.1592454
855,Town and Country Village,94301,37.4388862,-122.1590850
855,Town and Country Village,94301,37.4387904,-122.1594316
855,Town and Country Village,94301,37.4389813,-122.1587270
855,Town and Country Village,94301,37.4389160,-122.1589782
855,Town and Country Village,94301,37.4389671,-122.1587930
855,Town and Country Village,94301,37.4388952,-122.1590356
855,Town and Country Village,94301,37.4389265,-122.1589256
855,Town and Country Village,94301,37.4390012,-122.1586650
109,Town and Country Village,94301,37.4390195,-122.1585960
401,Town and Country Village,94301,37.4392103,-122.1586560
101,South California Avenue,94036,37.4284054,-122.1427237
151,South California Avenue,94036,37.4284709,-122.1424046
101,South California Avenue,94036,37.4284100,-122.1426708
101,South California Avenue,94036,37.4284971,-122.1427524
101,South California Avenue,94306,37.4285233,-122.1426797
267,South California Avenue,94306,37.4276390,-122.1435510
"299, #110",South California Avenue,94306,37.4273472,-122.1435629
670,San Antonio Road,94306,37.4144584,-122.1031131
444,San Antonio Road,94306,37.4121186,-122.1054484
855,El Camino Real,94301,37.4379709,-122.1601367
2450,Park Boulevard,94306,37.4280962,-122.1427980
3445,Alma Street,94306,37.4190516,-122.1245120
3441,Alma Street,94306,37.4191367,-122.1249805
855,Encina Avenue,94301,37.4384860,-122.1597900
855,El Camino Real,94301,37.4384159,-122.1600400
569,San Antonio Avenue,94306,37.4153403,-122.1049716
395,Page Mill Road,94306,37.4251031,-122.1397686
1049,Elwell Court,94303,37.4330776,-122.1031960
1113,San Antonio Road,94303,37.4315019,-122.1005470
1119,San Antonio Road,94303,37.4315793,-122.1007674
3922,Middlefield Road,94303,37.4187525,-122.1098756
3946,Middlefield Road,94303,37.4185401,-122.1092514
3950,Middlefield Road,94303,37.4186510,-122.1091523
3962,Middlefield Road,94303,37.4187087,-122.1091137
3966,Middlefield Road,94303,37.4187992,-122.1090486
4009,Transport Street,94303,37.4260974,-122.0999980
906,Industrial Avenue,94303,37.4222137,-122.0984560
2699,Middlefield Road,94306,37.4342867,-122.1290416
3072,Emerson Street,94306,37.4237618,-122.1311410
3074,Emerson Street,94306,37.4237405,-122.1311643
3076,Emerson Street,94306,37.4236915,-122.1312155
3078,Emerson Street,94306,37.4236675,-122.1312364
3483,El Camino Real,94306,37.4195974,-122.1347145
3485,El Camino Real,94306,37.4195154,-122.1347463
4041,El Camino Way,94306,37.4154882,-122.1272394
2426,Park Boulevard,94306,37.4281525,-122.1428830
415,Lambert Avenue,94306,37.4213134,-122.1359273
3120,Hansen Way,94304,37.4166715,-122.1430270
3398,El Camino Real,94306,37.4194531,-122.1355990
710,University Avenue,94301,37.4507752,-122.1564640
180,El Camino Real,94304,37.4420508,-122.1729440
600,Stanford Shopping Center,94304,37.4425684,-122.1705910
180,El Camino Real,94304,37.4435346,-122.1719020
165,Stanford Shopping Center,94304-1409,37.4426285,-122.1713046
199,Stanford Shopping Center,94304,37.4427090,-122.1711047
232,Stanford Shopping Center,94304,37.4424258,-122.1707780
208,Stanford Shopping Center,94304,37.4426808,-122.1704739
3898,El Camino Real,94306,37.4165500,-122.1302215
3886,El Camino Real,94306,37.4166782,-122.1304940
180,El Camino Real,94304,37.4443621,-122.1708189
2500,El Camino Real,94306,37.4242644,-122.1448182
3163,Middlefield Road,94306,37.4296034,-122.1229550
260,South California Avenue,94306,37.4278108,-122.1438230
458,Cambridge Avenue,94306,37.4264842,-122.1462406
2373,Middlefield Road,94306,37.4334150,-122.1290680
3175,Middlefield Road,94306,37.4295745,-122.1228260
855,Town and Country Village,94301,37.4384645,-122.1606192
855,El Camino Real,94301,37.4390706,-122.1584238
321,Hamilton Avenue,94301,37.4454680,-122.1601890
720,University Avenue,94301,37.4507408,-122.1562027
1730,Embarcadero Road,94303,37.4496523,-122.1181030
1766,Embarcadero Road,94303,37.4502229,-122.1176313
474,Everett Avenue,94301,37.4495603,-122.1617957
2190,West Bayshore Road,94303,37.4479001,-122.1262549
2190,West Bayshore Road,94303,37.4481358,-122.1262577
3412,Ross Road,94303,37.4283121,-122.1164917
3412,Hillview Avenue,94304,37.3980324,-122.1453656
3441,Alma Street,94306,37.4192060,-122.1249070
700,Welch Road,94304,37.4376481,-122.1729804
740,Webster Street,94301,37.4474060,-122.1549182
420,Cambridge Avenue,94306,37.4269991,-122.1458263
2,Palo Alto Square,94306,37.4210018,-122.1421029
3000,El Camino Real,94306,37.4210834,-122.1421129
550,Hamilton Avenue,94301,37.4483140,-122.1568708
921,East Charleston Road,94303,37.4219633,-122.1005004
719,Colorado Avenue,94306,37.4335322,-122.1283980
2675,Middlefield Road,94306,37.4340878,-122.1294905
690,San Antonio Road,94306,37.4150253,-122.1025670
400,Hamilton Avenue,94301,37.4463811,-122.1586610
4131,West El Camino Real,94306,37.4129581,-122.1250816
418,Waverley Street,94301,37.4473920,-122.1615500
180,El Camino Real,94304,37.4439065,-122.1702830
180,El Camino Real,94304,37.4440052,-122.1704373
600,Stanford Shopping Center,94304,37.4442937,-122.1707420
680,Stanford Shopping Center,94304,37.4443260,-122.1707780
180,El Camino Real,94304,37.4433672,-122.1696491
125,University Avenue,94301,37.4440561,-122.1638376
125,University Avenue,94301,37.4439738,-122.1637252
125,University Avenue,94301,37.4441179,-122.1639448
260,Sheridan Avenue,94306,37.4264459,-122.1410869
2786,Middlefield Road,94306,37.4325505,-122.1285253
180,El Camino Real,94304,37.4436354,-122.1685190
180,El Camino Real,94304,37.4433407,-122.1704400
1247,Cowper Street,94301,37.4424722,-122.1493923
3961,East Bayshore Road,94303,37.4304319,-122.1027276
520,Cowper Street,94301,37.4479560,-122.1588980
2180,West Bayshore Road,94303,37.4482782,-122.1261210
456,University Avenue,94301,37.4475169,-122.1594010
744,San Antonio Road,94303,37.4173516,-122.1022500
2209,West El Camino Real,94306,37.4262434,-122.1472025
2479,East Bayshore Road,94303,37.4483648,-122.1185971
2479,East Bayshore Road,94303,37.4483497,-122.1186678
840,San Antonio Avenue,94303,37.4216478,-122.1013826
840,San Antonio Avenue,94303,37.4215035,-122.1013155
840,San Antonio Avenue,94303,37.4215898,-122.1013048
1305,Middlefield Road,94301,37.4442694,-122.1458526
180,El Camino Real,94304,37.4433745,-122.1715383
211,Quarry Road,94304,37.4414742,-122.1688125
2200,El Camino Real,94306,37.4256614,-122.1475260
2200,El Camino Real,94306,37.4257422,-122.1476120
459,Kingsley Avenue,94301,37.4428937,-122.1510664
4261,El Camino Real,94306,37.4078444,-122.1200426
4216,El Camino Real,94306,37.4093914,-122.1229157
2525,East Bayshore Road,94303,37.4474561,-122.1178996
1901,Embarcadero Road,94303,37.4542777,-122.1149196
1901,Embarcadero Road,94303,37.4545461,-122.1152916
3000,El Camino Real,94306,37.4215816,-122.1416410
3000 Ste 200,West El Camino Real,94306,37.4213120,-122.1415667
3601,El Camino Real,94306,37.4188958,-122.1331550
3601,El Camino Real,94306,37.4189341,-122.1332355
3801,Miranda Avenue,94304,37.4034655,-122.1371340
824,Bryant Street,94301,37.4431096,-122.1575243
1515,El Camino Real,94306,37.4325347,-122.1540219
1515,El Camino Real,94306,37.4325926,-122.1539568
1515,El Camino Real,94306,37.4325147,-122.1540540
1515,El Camino Real,94306,37.4327326,-122.1540403
2363,Birch Street,94306,37.4278580,-122.1442605
2701,Middlefield Road,94306,37.4337818,-122.1289305
1875,Embarcadero Road,94303,37.4537040,-122.1161330
3441,Alma Street,94306,37.4192854,-122.1248349
3700,Middlefield Road,94303,37.4221875,-122.1131623
455,East Charleston Road,94306,37.4192624,-122.1135319
3700,Middlefield Road,94303,37.4222510,-122.1130851
4000,Middlefield Road,94306,37.4172463,-122.1090904
4000,Middlefield Road,94306,37.4181202,-122.1080045
4000,Middlefield Road,94306,37.4175603,-122.1094113
3781,El Camino Real,94306,37.4179061,-122.1316958
3024,Bryant Street,94306-2335,37.4244889,-122.1291707
4100,Orme Street,94306-3106,37.4076201,-122.1303522
4100,Orme Street,94306-3106,37.4075758,-122.1303815
4000,Middlefield Road,94303,37.4182105,-122.1081406
2800,West Bayshore Road,94303,37.4426675,-122.1174190
2800,West Bayshore Road,94303,37.4423332,-122.1170489
4157,El Camino Way,94306,37.4124971,-122.1243792
2479,East Bayshore Road,94303,37.4481873,-122.1185450
200,Channing Avenue,94301,37.4416430,-122.1575425
200,Channing Avenue,94301,37.4416328,-122.1575220
3487,El Camino Real,94306,37.4195341,-122.1347854
505,East Charleston Road,94306,37.4195304,-122.1122848
3525,Alma Street,94306,37.4185640,-122.1237387
885,Commercial Street,94303,37.4226341,-122.1005869
3201,East Bayshore Road,94303,37.4387490,-122.1105449
3201,East Bayshore Road,94303,37.4391635,-122.1112419
3201,East Bayshore Road,94303,37.4387975,-122.1104560
3201,East Bayshore Road,94303,37.4387005,-122.1106254
350,Sherman Avenue,94306,37.4266788,-122.1432200
904,Industrial Avenue,94303,37.4221463,-122.0984642
2211,Park Boulevard,94306,37.4301461,-122.1440941
2211,Park Boulevard,94306,37.4301003,-122.1441410
2479,East Bayshore Road,94303,37.4480514,-122.1184812
2479,East Bayshore Road,94303,37.4482750,-122.1185979
2479,East Bayshore Road,94303,37.4482878,-122.1185550
2479,East Bayshore Road,94303,37.4481249,-122.1181044
2479,East Bayshore Road,94303,37.4482591,-122.1185469
2479,East Bayshore Road,94303,37.4480994,-122.1182318
2479,East Bayshore Road,94303,37.4485668,-122.1183377
2479,East Bayshore Road,94303,37.4485391,-122.1184960
2475,Hanover Street,94306,37.4193319,-122.1497724
2475,Hanover Street,94306,37.4192254,-122.1495471
601,South California Avenue,94304-1050,37.4234796,-122.1457494
601,South California Avenue,94304-1050,37.4231322,-122.1460285
1801,Page Mill Road,94304,37.4075405,-122.1540165
1801,Page Mill Road,94304,37.4074048,-122.1541402
1801,Page Mill Road,94304,37.4074495,-122.1537272
2400,Geng Road,94303,37.4514423,-122.1222931
2300,Geng Road,94303,37.4514125,-122.1216708
2500,Faber Place,94303,37.4491739,-122.1165114
4007,Transport Street,94303,37.4261981,-122.1001263
2211,Park Boulevard,94306,37.4302450,-122.1441701
2211,Park Boulevard,94306,37.4301950,-122.1441420
2211,Park Boulevard,94306,37.4301992,-122.1440561
1121,San Antonio Road,94303,37.4310028,-122.1012560
1121,San Antonio Road,94303,37.4309069,-122.1011790
3024,Bryant Street,94306-2335,37.4244050,-122.1292636
1860,Embarcadero Road,94303,37.4518775,-122.1151516
3172,Porter Drive,94304,37.4073682,-122.1498969
3155,Porter Drive,94304,37.4102020,-122.1501629
4030,Fabian Way,94303,37.4209610,-122.1035967
425,Sherman Avenue,94306,37.4255417,-122.1438087
425,Sherman Avenue,94306,37.4255801,-122.1436532
572,College Avenue,94306,37.4255469,-122.1483710
755,Page Mill Road,94304,37.4203955,-122.1427342
437,Webster Street,94301,37.4500937,-122.1583181
2627,Hanover Street,94304,37.4184258,-122.1481660
2627,Hanover Street,94306,37.4184721,-122.1483228
2627,Hanover Street,94304,37.4183902,-122.1482870
606,Stanford Shopping Center,94304,37.4443324,-122.1714626
933,Emerson Street,94301,37.4412596,-122.1570946
4222,El Camino Real,94306,37.4089998,-122.1225296
228,Hamilton Avenue,94301,37.4441182,-122.1611302
748,San Antonio Road,94303,37.4179031,-122.1020104
3921,East Bayshore Road,94303,37.4308927,-122.1033503
530,Lytton Avenue,94301,37.4490187,-122.1600169
855,El Camino Real,94301,37.4386082,-122.1589506
3495,Deer Creek Road,94304,37.3943543,-122.1479404
500,University Avenue,94301,37.4483611,-122.1588864
525,University Avenue,94301,37.4486856,-122.1590908
250,University Avenue,94301,37.4453742,-122.1617886
1436,Emerson Street,94301,37.4370565,-122.1511922
1464,Emerson Street,94301,37.4370356,-122.1511624
101,Addison Avenue,94301,37.4400608,-122.1582380
165,Alma Street,94301-1016,37.4461521,-122.1679070
167,Alma Street,94301-1016,37.4461388,-122.1678846
169,Alma Street,94301-1016,37.4461240,-122.1678563
171,Alma Street,94301-1016,37.4461072,-122.1678315
115,Hawthorne Avenue,94301-1016,37.4461067,-122.1677302
119,Hawthorne Avenue,94301-1016,37.4461233,-122.1677112
121,Hawthorne Avenue,94301-1016,37.4461390,-122.1676942
121A,Hawthorne Avenue,94301-1016,37.4461563,-122.1676781
660,Stanford Shopping Center,94304,37.4447233,-122.1713670
499,Hamilton Avenue,94301,37.4474914,-122.1583092
499,Hamilton Avenue,94301,37.4475386,-122.1583164
2275,East Bayshore Road,94303,37.4502314,-122.1204538
3921,East Bayshore Road,94303,37.4308838,-122.1033247
369,South California Avenue,94306,37.4267659,-122.1442413
2345,Yale Street,94306,37.4246074,-122.1471316
625,Hamilton Avenue,94301,37.4492140,-122.1566548
890,Industrial Avenue,94303,37.4219480,-122.0984605
245,Lytton Avenue,94301,37.4461127,-122.1639075
299,South California Avenue,94306,37.4275075,-122.1436264
250,Lytton Avenue,94301,37.4457872,-122.1634309
1875,Embarcadero Rd,94303,37.4574075,-122.1189138
780,Arastradero Road,94306,37.4026747,-122.1342171
50,Embarcadero Road,94301,37.4358108,-122.1557688
1310,Bryant Street,94301,37.4386585,-122.1518899
2775,Embarcadero Road,94303,37.4596247,-122.1063334
408,Panama Mall,94305,37.4311928,-122.1690520
4100,Orme Street,94306-3106,37.4073357,-122.1297315
4000,Terman Drive,94306,37.4027303,-122.1278672
525,University Avenue,94301,37.4488053,-122.1591576
620,Sand Hill Road,94304,37.4404122,-122.1760906
2501,Embarcadero Way,94303,37.4520574,-122.1110844
4000,Middlefield Road,94303,37.4165031,-122.1083515
795,El Camino Real,94301,37.4400658,-122.1609306
855,El Camino Real,94301,37.4384803,-122.1576888
875,Blake Wilbur Drive,94305,37.4359159,-122.1764107
250,Hamilton Avenue,94301,37.4443977,-122.1600372
560,Waverley Street,94301,37.4463757,-122.1597862
140,University Avenue,94301,37.4438522,-122.1633002
180,University Avenue,94301,37.4443517,-122.1626426
164,University Avenue,94301,37.4442320,-122.1628696
168,University Avenue,94301,37.4442870,-122.1628157
220,University Avenue,94301,37.4448267,-122.1623124
3024,Bryant Street,94306-2335,37.4250652,-122.1300074
660,Stanford Shopping Center,94304,37.4429042,-122.1709508
525-100,Cowper Street,94301,37.4486854,-122.1594664
525,University Avenue,94301,37.4490577,-122.1591076
25,Churchill Avenue,94306,37.4336328,-122.1549577
395,Page Mill Road,94306,37.4253087,-122.1394422
401,Lytton Avenue,94301-1719,37.4480564,-122.1612399
369,Lytton Avenue,94301,37.4476820,-122.1621813
250,Lytton Avenue,94301,37.4457861,-122.1634320
120,Hawthorne Avenue,94301,37.4460691,-122.1670924
330,Emerson Street,94301,37.4460400,-122.1645924
2675,El Camino Real,94306,37.4239159,-122.1430831
2455,El Camino Real,94306,37.4250326,-122.1449635
359,Cowper Street,94301,37.4493185,-122.1604856
720,San Antonio Avenue,94303,37.4172359,-122.1025749
130,Lyton Avenue,94301,37.4443090,-122.1647901
437,Webster Street,94301,37.4500417,-122.1582332
649,University Avenue,94301,37.4506664,-122.1577846
261,University Avenue,94301,37.4456860,-122.1622042
271,University Avenue,94301,37.4457963,-122.1620976
255,University Avenue,94301,37.4456345,-122.1622630
450,Bryant Street,94301,37.4461232,-122.1624217
240,Cambridge Avenue,94306,37.4291222,-122.1441367
650,Clark Way,94304,37.4403296,-122.1784965
900,Blake Wilbur Drive,94304,37.4355296,-122.1774463
725,Welch Road,94304,37.4360795,-122.1750306
428,University Avenue,94301,37.4473281,-122.1598202
375;379,University Avenue,94301,37.4470938,-122.1609044
396,University Avenue,94301,37.4469100,-122.1603370
382;380,University Avenue,94301,37.4467748,-122.1603965
394,University Avenue,94301,37.4468590,-122.1603886
400,University Avenue,94301,37.4471822,-122.1600236
165,Channing Avenue,94301,37.4412070,-122.1585236
432,University Avenue,94301,37.4473998,-122.1597846
383,University Avenue,94301,37.4472010,-122.1607982
435,Hamilton Avenue,94301,37.4470047,-122.1588266
700,High Street,94301,37.4421900,-122.1608185
875,Alma Street,94301,37.4406595,-122.1590960
443,Waverley Street,94301,37.4476624,-122.1606520
567,University Avenue,94301,37.4493212,-122.1586191
200,Channing Avenue,94301,37.4415474,-122.1574982
555,University Avenue,94301,37.4492097,-122.1587378
800,Emerson Street,94301,37.4421346,-122.1590526
581,University Avenue,94301,37.4495073,-122.1583866
632,Emerson Street,94301,37.4433731,-122.1611617
735,Emerson Street,94301,37.4429978,-122.1593165
732,Emerson Street,94301,37.4426019,-122.1598520
185,University Avenue,94301,37.4447246,-122.1631723
162,University Avenue,94301,37.4441981,-122.1630240
169,University Avenue,94301,37.4445707,-122.1633133
151,University Avenue,94301,37.4444039,-122.1635646
642,Ramona Street,94301,37.4438417,-122.1602565
214,Homer Avenue,94301,37.4425049,-122.1585564
230,Homer Avenue,94301,37.4425930,-122.1584845
351,Homer Avenue,94301,37.4444825,-122.1575090
824-828,Bryant Street,94301,37.4430824,-122.1575158
461,Emerson Street,94301,37.4450332,-122.1630414
251,University Avenue,94301,37.4455277,-122.1622872
203,University Avenue,94301,37.4449277,-122.1628611
541,Bryant Street,94301,37.4455158,-122.1606556
209,University Avenue,94301,37.4450563,-122.1628602
165,University Avenue,94301,37.4445516,-122.1633413
235,University Avenue,94301,37.4453678,-122.1625480
529,Bryant Street,94301,37.4458968,-122.1607808
171,University Avenue,94301,37.4446237,-122.1632594
441,Emerson Street,94301,37.4451993,-122.1631970
267,University Avenue,94301,37.4457549,-122.1621370
221,University Avenue,94301,37.4453599,-122.1628822
201,University Avenue,94301,37.4448910,-122.1628987
165,University Avenue,94301,37.4444774,-122.1634159
233,University Avenue,94301,37.4453182,-122.1625961
518,Bryant Street,94301,37.4453656,-122.1613691
219,University Avenue,94301,37.4451375,-122.1627784
301,University Avenue,94301,37.4462300,-122.1616552
578,University Avenue,94301,37.4492116,-122.1579670
475,University Avenue,94301,37.4481876,-122.1597490
405,University Avenue,94301,37.4473739,-122.1605306
419,University Avenue,94301,37.4475086,-122.1603961
477,University Avenue,94301,37.4482335,-122.1597038
367,University Avenue,94301,37.4469573,-122.1609653
321,University Avenue,94301,37.4463604,-122.1615517
464,University Avenue,94301,37.4477486,-122.1594956
463,University Avenue,94301,37.4480522,-122.1598774
472,University Avenue,94301,37.4478040,-122.1594420
540,University Avenue,94301,37.4487631,-122.1584144
498,University Avenue,94301,37.4481485,-122.1592035
452,University Avenue,94301,37.4475929,-122.1596016
444,University Avenue,94301,37.4475295,-122.1596646
468,University Avenue,94301,37.4477753,-122.1594697
480,Cowper Street,94301,37.4484177,-122.1596912
500,University Avenue,94301,37.4504699,-122.1567273
530,University Avenue,94301,37.4486197,-122.1585585
624,University Avenue,94301-2019,37.4498101,-122.1574136
630,University Avenue,94301,37.4498772,-122.1572896
339,University Avenue,94301,37.4465607,-122.1613383
423,University Avenue,94301,37.4475626,-122.1603464
335,University Avenue,94301,37.4464763,-122.1614222
680,University Avenue,94301,37.4503967,-122.1568538
353,University Avenue,94301,37.4467569,-122.1611008
460,University Avenue,94301,37.4477169,-122.1595262
616,University Avenue,94301,37.4496994,-122.1575098
600,University Avenue,94301,37.4495025,-122.1576836
403,University Avenue,94301,37.4473400,-122.1605643
511,University Avenue,94301,37.4500817,-122.1570610
540,University Avenue,94301,37.4486995,-122.1584756
508,University Avenue,94301,37.4483685,-122.1588211
436,University Avenue,94301,37.4474568,-122.1597373
417,University Avenue,94301,37.4474550,-122.1604496
490,University Avenue,94301,37.4480713,-122.1592782
488,University Avenue,94301,37.4479767,-122.1592213
473,University Avenue,94301,37.4481279,-122.1598219
479,University Avenue,94301,37.4482772,-122.1596606
355,University Avenue,94301,37.4468902,-122.1610442
546,University Avenue,94301,37.4488318,-122.1583442
550,University Avenue,94301,37.4489447,-122.1582336
300,University Avenue,94301,37.4459100,-122.1612198
278,University Avenue,94301,37.4456259,-122.1615220
448,University Avenue,94301,37.4475584,-122.1596359
440,University Avenue,94301,37.4474989,-122.1596951
564,University Avenue,94301,37.4490374,-122.1581079
541,Cowper Street,94301,37.4480004,-122.1582678
250,University Avenue,94301,37.4453599,-122.1617692
352,University Avenue,94301,37.4464539,-122.1605536
220,University Avenue,94301,37.4448827,-122.1622559
370,University Avenue,94301,37.4466591,-122.1605105
320,University Avenue,94301,37.4461123,-122.1610375
310;318,University Avenue,94301,37.4460649,-122.1610851
270,University Avenue,94301,37.4454832,-122.1616633
240,University Avenue,94301,37.4450511,-122.1620795
230,University Avenue,94301,37.4449932,-122.1621440
326,University Avenue,94301,37.4462298,-122.1609197
250,University Avenue,94301,37.4452604,-122.1618929
250,University Avenue,94301,37.4452856,-122.1618193
338,University Avenue,94301,37.4462953,-122.1608523
324,University Avenue,94301,37.4461979,-122.1609513
222,University Avenue,94301,37.4449331,-122.1622020
328,University Avenue,94301,37.4462597,-122.1608908
340,University Avenue,94301,37.4463037,-122.1606726
540,Ramona Street,94301,37.4446346,-122.1616064
247,Hamilton Avenue,94301,37.4445014,-122.1611973
236,Hamilton Avenue,94301,37.4441572,-122.1609586
581,Ramona Street,94301,37.4447093,-122.1609769
223,Embarcadero Road,94301,37.4394382,-122.1532898
2588,Dell Avenue,94043,37.4120973,-122.1044161
326,Aldean Avenue,94043,37.4108997,-122.1054457
269,Campus Drive,94305,37.4323225,-122.1774812
774,Emerson Street,94301,37.4423785,-122.1595867
601,South California Avenue,94304-1050,37.4232790,-122.1458937
901,S California Ave,94306,37.4211421,-122.1480825
901,S California Ave,94306,37.4216663,-122.1477924
777,S California Ave,94306,37.4226551,-122.1464432
855,S California Ave,94304,37.4223377,-122.1474908
855,S California Ave,94304,37.4219594,-122.1469090
2401,El Camino Real,94306,37.4251582,-122.1454732
421,South California Avenue,94306,37.4261227,-122.1447035
425,South California Avenue,94306,37.4259948,-122.1446929
2300,Wellesley Street,94306,37.4231990,-122.1488063
2600,Wellesley Avenue,94306,37.4233732,-122.1486797
448,South California Avenue,94306,37.4259854,-122.1454691
454,South California Avenue,94306,37.4258882,-122.1455063
2431,Ash Street,94306,37.4265797,-122.1442767
240,South California Avenue,94306,37.4280675,-122.1437531
220,South California Avenue,94306,37.4283659,-122.1435972
230,South California Avenue,94306,37.4282461,-122.1436954
206,South California Avenue,94306,37.4284516,-122.1434880
249,South California Avenue,94306,37.4278671,-122.1431222
261,South California Avenue,94306,37.4276778,-122.1432875
4119,El Camino Real,94306,37.4139021,-122.1257480
2525,East Bayshore Road,94303,37.4474050,-122.1180646
2470,Embarcadero Way,94303,37.4509357,-122.1122864
2500,Faber Place,94303,37.4491632,-122.1165301
2575,East Bayshore Road,94303,37.4469660,-122.1180296
4120,Middlefield Road,94303-4741,37.4156079,-122.1062088
2011,El Camino Real,94306,37.4277990,-122.1487578
2045,El Camino Real,94306,37.4276337,-122.1486425
3201,East Bayshore Road,94303,37.4387873,-122.1104713
3201,East Bayshore Road,94303,37.4396686,-122.1115971
3201,East Bayshore Road,94303,37.4391388,-122.1112586
3160,West Bayshore Road,94303,37.4384057,-122.1133660
151,Laura Lane,94303-3221,37.4525555,-122.1254402
800,East Charleston Road APT 9,94303,37.4211391,-122.1043679
1755,Embarcadero Road,94303,37.4510049,-122.1185976
2275,East Bayshore Road,94303,37.4502447,-122.1204516
2170,West Bayshore Road,94303,37.4482942,-122.1253984
2800,West Bayshore Road,94303,37.4425109,-122.1172533
950,Amarillo Avenue,94303,37.4392343,-122.1228118
3009,Middlefield Road,94306,37.4315660,-122.1246697
3865,Middlefield Road,94303,37.4214997,-122.1102758
3085,Middlefield Road,94303,37.4313010,-122.1236895
3085,Middlefield Road,94303,37.4314165,-122.1235750
3085,Middlefield Road,94303,37.4311855,-122.1238130
708,Colorado Avenue,94303-3911,37.4331251,-122.1277672
3163,Middlefield Road,94303,37.4297720,-122.1230884
3191,Middlefield Road,94303,37.4295764,-122.1227079
2701,Middlefield Road,94306,37.4337309,-122.1291096
2438,Embarcadero Way,94303,37.4522041,-122.1135093
1903,Embarcadero Road,94303,37.4538691,-122.1142601
2328,Louis Road,94303,37.4411058,-122.1298012
1213,Newell Road,94303,37.4449759,-122.1390729
1408,Harker Avenue,94301,37.4462519,-122.1408025
799,San Antonio Road,94303,37.4203490,-122.1022842
1121,San Antonio Road,94303,37.4310390,-122.1011064
3900,Fabian Way,94303,37.4248425,-122.1045525
3900,Middlefield Road,94303,37.4194519,-122.1102535
4017,Fabian Way,94303,37.4214883,-122.1036459
4030,Fabian Way,94303,37.4209520,-122.1035985
801,San Antonio Avenue,94303,37.4204613,-122.1022798
844,East Charleston Road,94303,37.4216380,-122.1033317
4233,West Middlefield Road,94306,37.4160063,-122.1022271
910,East Charleston Road,94303,37.4215656,-122.1008360
3672,Middlefield Road,94306,37.4233375,-122.1138773
3880,Middlefield Road,94303,37.4205223,-122.1112836
455,East Charleston Road,94306,37.4190900,-122.1133480
525,East Charleston Road,94306,37.4197039,-122.1114948
545,Forest Avenue,94301,37.4475460,-122.1563076
2311,Bryant Street,94301,37.4318145,-122.1387680
2361,Bryant Street,94301,37.4317146,-122.1386257
475,Oregon Avenue,94301,37.4331968,-122.1362166
485,Oregon Avenue,94301,37.4333423,-122.1365088
1446,Emerson Street,94301,37.4368547,-122.1514792
1452,Emerson Street,94301,37.4367843,-122.1513690
223,Embarcadero Road,94301,37.4393922,-122.1533943
235,Embarcadero Rd,94301,37.4396000,-122.1529811
144A,Kingsley Avenue,94301,37.4383691,-122.1541565
1210,Emerson Street,94301,37.4388380,-122.1539116
4256,Ruthelma Avenue,94306,37.4120477,-122.1189441
4345,El Camino Real,94306,37.4047355,-122.1173350
493,West Charleston Road,94306,37.4108725,-122.1224543
4269,West El Camino Real,94306,37.4075600,-122.1205460
4261,El Camino Real,94306,37.4079007,-122.1196241
3601,El Camino Real,94306,37.4188044,-122.1333337
3691,El Camino Real,94306,37.4186176,-122.1327911
3945,El Camino Real,95037,37.4167081,-122.1282944
4041,El Camino Way,94306,37.4158124,-122.1270005
3375,El Camino Real,94306,37.4201360,-122.1358625
1515,El Camino Real,94306,37.4326388,-122.1540821
2211,Park Boulevard,94306,37.4301528,-122.1441157
2701,El Camino Real,94306,37.4238693,-122.1423455
3159,West El Camino Real,94306,37.4214350,-122.1384312
3197,Park Boulevard,94306,37.4247919,-122.1355346
3251,Ash Street,94306,37.4224689,-122.1362996
3295,El Camino Real,94306,37.4208982,-122.1370059
375,Cambridge Avenue,94306,37.4274468,-122.1449634
425,Sherman Avenue,94306,37.4255494,-122.1437359
290,South California Avenue,94306,37.4277218,-122.1441104
3290,Park Boulevard,94306,37.4236842,-122.1347968
420,Cambridge Avenue,94306,37.4270887,-122.1458006
420,Cambridge Avenue,94306,37.4270160,-122.1458599
1801,Page Mill Road,94304,37.4073966,-122.1538312
3128,El Camino Real,94306-2211,37.4211404,-122.1395292
3130,Hansen Way,94304,37.4163822,-122.1422079
3135,Hanover Street,94304,37.4160308,-122.1432564
3140,Hansen Way,94304,37.4160057,-122.1421266
3175,Hanover Street,94304,37.4144867,-122.1418682
3200,Hillview Avenue,94304,37.4083655,-122.1471654
3210,Porter Drive,94304,37.4074088,-122.1473336
3277,Miranda Avenue,94304,37.4060164,-122.1486257
3340,Hillview Avenue,94304,37.4052199,-122.1462805
3351,Miranda Avenue,94304,37.4054267,-122.1475420
3636,El Camino Real,94306,37.4181740,-122.1332091
3740,West El Camino Real,94306,37.4175153,-122.1321180
3834,Magnolia Drive,94306,37.4152359,-122.1330255
4238,El Camino Real,94306,37.4075726,-122.1217342
565,Arastradero Road,94306,37.4086408,-122.1241002
638,Maybell Avenue,94306,37.4071368,-122.1287002
687,Arastradero Road,94306,37.4015289,-122.1290098
911,Hansen Way,94304,37.4168008,-122.1403465
535,Arastradero Road,94306,37.4089857,-122.1234644
4100,Orme Street,94306-3106,37.4073133,-122.1300970
575,Arastradero Road,94306,37.4081496,-122.1243480
724,Arastradero Road,94306,37.4008879,-122.1312245
1791,Arastradero Road,94304,37.3819596,-122.1868898
3400,Hillview Avenue,94304,37.4040445,-122.1475365
3408,Hillview Avenue,94304,37.3999385,-122.1458521
3475,Deer Creek Road,94304,37.3957087,-122.1481324
3500,Deer Creek Road,94304,37.3946531,-122.1505818
3412,Hillview Avenue,94304,37.3978476,-122.1460447
1530,Arastradero Road,94304,37.3870425,-122.1737274
1530,Arastradero Road,94304,37.3871341,-122.1738418
3410,Hillview Avenue,94304,37.3988144,-122.1465099
1530,Arastradero Road,94304,37.3871937,-122.1740281
1791,Arastradero Road,94304,37.3821915,-122.1874240
2627,Hanover Street,94306,37.4184540,-122.1482415
2675,Hanover Street,94306,37.4178700,-122.1474900
2295,Cornell Street,94306,37.4227416,-122.1492147
531,Stanford Avenue,94306,37.4269492,-122.1494584
555,Stanford Avenue,94306,37.4266649,-122.1497435
2280,El Camino Real,94306,37.4254845,-122.1471540
2310,El Camino Real,94306,37.4252732,-122.1468558
2390,California Ave,94306,37.4250353,-122.1463563
2200,El Camino Real,94306,37.4258521,-122.1474855
2000,El Camino Real,94306,37.4273535,-122.1492135
865,Stanford Avenue,94306,37.4242385,-122.1518355
2200,El Camino Real,94306,37.4256792,-122.1475467
801,Welch Road,94304,37.4366175,-122.1768240
700,Welch Road,94304,37.4375240,-122.1730990
2811,Middlefield Road,94306,37.4329178,-122.1272780
3790,El Camino Real,94306,37.4174024,-122.1317326
180,El Camino Real,94304,37.4446074,-122.1703211
3070,Louis Road,94303,37.4351726,-122.1202820
450,San Antonio Road,94306,37.4133453,-122.1041618
720,University Avenue,94301,37.4507455,-122.1562395
560,San Antonio Road,94306,37.4131925,-122.1043103
450,San Antonio Road,94306,37.4127454,-122.1044981
3700,Middlefield Road,94303,37.4219106,-122.1132458
26870,Moody Road,94022,37.3389006,-122.1592514
3700,Middlefield Road,94303,37.4222049,-122.1127347
3085,Middlefield Road,94303,37.4311591,-122.1239487
4216,El Camino Real,94306,37.4092996,-122.1230297
4329,West El Camino Real,94306,37.4056450,-122.1187597
3801,Miranda Avenue,94304,37.4046252,-122.1405315
800,East Charleston Road,94303,37.4214153,-122.1048686
3432,Alma Village Lane,94306,37.4192636,-122.1239982
3428,Alma Village Lane,94306,37.4193142,-122.1240787
3422,Alma Village Lane,94306,37.4193707,-122.1241712
3418,Alma Village Lane,94306,37.4194282,-122.1242638
3412,Alma Village Lane,94306,37.4194814,-122.1243510
3408,Alma Village Lane,94306,37.4195752,-122.1244931
3403,Alma Village Lane,94306,37.4197786,-122.1243791
3407,Alma Village Lane,94306,37.4197189,-122.1242906
3425,Alma Village Circle,94306,37.4199362,-122.1242195
3458,Alma Village Circle,94306,37.4198798,-122.1241390
3411,Alma Village Lane,94306,37.4196486,-122.1241806
3417,Alma Village Lane,94306,37.4195943,-122.1240854
3423,Alma Village Lane,94306,37.4195438,-122.1240067
3429,Alma Village Lane,94306,37.4194852,-122.1239149
3433,Alma Village Lane,94306,37.4194349,-122.1238412
3488,Alma Village Circle,94306,37.4195881,-122.1236694
3478,Alma Village Circle,94306,37.4196413,-122.1237606
3472,Alma Village Circle,94306,37.4196999,-122.1238445
3468,Alma Village Circle,94306,37.4197474,-122.1239354
3462,Alma Village Circle,94306,37.4198050,-122.1240225
3493,Alma Village Circle,94306,37.4197131,-122.1234408
3489,Alma Village Circle,94306,37.4197669,-122.1235346
3483,Alma Village Circle,94306,37.4198264,-122.1236224
3477,Alma Village Circle,94306,37.4198866,-122.1237483
3503,Alma Village Circle,94306,37.4196370,-122.1232177
3507,Alma Village Circle,94306,37.4195698,-122.1232861
3513,Alma Village Circle,94306,37.4195027,-122.1233586
3517,Alma Village Circle,94306,37.4194313,-122.1234270
3523,Alma Village Circle,94306,37.4193622,-122.1234953
3527,Alma Village Circle,94306,37.4192929,-122.1235624
3533,Alma Village Circle,94306,37.4191895,-122.1236643
3537,Alma Village Circle,94306,37.4191235,-122.1237287
3553,Alma Village Circle,94306,37.4190585,-122.1237930
3557,Alma Village Circle,94306,37.4189861,-122.1238628
3885,El Camino Real,94306,37.4174041,-122.1305696
575,Arastradero Road,94306,37.4082823,-122.1245291
3488,Ramona Street,94306,37.4198355,-122.1232147
3468,Ramona Street,94306,37.4199269,-122.1233605
3500,Ramona Street,94306,37.4197606,-122.1230869
525,San Antonio Avenue,94306,37.4148594,-122.1048809
701,East Meadow Drive,94303,37.4247034,-122.1147548
3549,Middlefield Road,94306,37.4252380,-122.1158605
800,East Charleston Road,94303,37.4214850,-122.1047243
3897,West El Camino Real,94306,37.4172347,-122.1301286
850,Webster Street,94301,37.4464672,-122.1541143
85,Churchill Avenue,94306,37.4365508,-122.1545555
3420,Hillview Avenue,94304,37.3970506,-122.1448759
33,Encina Avenue,94301,37.4393287,-122.1608981
2500,West El Camino Real,94306,37.4242011,-122.1450105
925,Alma Street,94301,37.4401429,-122.1582829
129,Lytton Avenue,94301,37.4447934,-122.1651440
3410,Hillview Avenue,94304,37.3987113,-122.1462395
693,Arastradero Road,94306,37.4011783,-122.1291073
535,Everett Avenue,94301,37.4506736,-122.1615472
213,Quarry Road,94304,37.4415778,-122.1693793
1490,Columbia Court,94304,37.4176061,-122.1509899
1470,Columbia Court,94304,37.4176974,-122.1509126
1450,Columbia Court,94304,37.4177834,-122.1508453
1430,Columbia Court,94304,37.4178668,-122.1507696
1410,Columbia Court,94304,37.4179552,-122.1506974
1495,Columbia Court,94304,37.4174393,-122.1506978
1475,Columbia Court,94304,37.4175364,-122.1506237
1455,Columbia Court,94304,37.4176241,-122.1505457
1435,Columbia Court,94304,37.4177106,-122.1504757
1415,Columbia Court,94304,37.4177992,-122.1504000
1480,Columbia Place,94304,37.4177046,-122.1512335
1460,Columbia Place,94304,37.4178093,-122.1511558
1440,Columbia Place,94304,37.4178996,-122.1510773
1420,Columbia Place,94304,37.4179856,-122.1510013
1400,Columbia Place,94304,37.4180704,-122.1509273
1415,California Avenue,94304,37.4182052,-122.1512796
1435,California Avenue,94304,37.4180631,-122.1513766
1455,California Avenue,94304,37.4179474,-122.1514774
1475,California Avenue,94304,37.4178177,-122.1515936
748,San Antonio Road,94303,37.4178904,-122.1020529
2375,Embarcadero Rd,94303,37.4479336,-122.1060349
151,Laura Lane,94303-3221,37.4524763,-122.1251106
565,Hamilton Avenue,94301,37.4486870,-122.1572674
4175,Manuela Avenue,94306,37.3964714,-122.1327922
840,San Antonio Avenue,94303,37.4215451,-122.1013030
2380,Embarcadero Road,94303,37.4499285,-122.1097035
500,Pasteur Drive,94305,37.4346377,-122.1770083
350,Sherman Avenue,94306,37.4265642,-122.1435702
4250,El Camino Real,94306,37.4068177,-122.1219708
3400,West Bayshore Road,94303,37.4354261,-122.1101029
3880,Middlefield Road,94303,37.4204182,-122.1114688
1791,Arastradero Road,94304,37.3828560,-122.1871055
1069,East Meadow Circle,94303,37.4303927,-122.1087041
1141,Colorado Avenue,94303,37.4397613,-122.1179811
630,Los Robles Avenue,94306,37.4139416,-122.1304875
1791,Arastradero Road,94304,37.3820568,-122.1870881
3801,Miranda Avenue,94304,37.4062062,-122.1406410
993,Los Robles Avenue,94306,37.4068679,-122.1337272
4080,El Cerrito Road,94306,37.4058987,-122.1347495
995,Los Robles Avenue,94306,37.4066512,-122.1335491
1501,Page Mill Road,94020,37.4119169,-122.1472477
323,University Avenue,94301,37.4464139,-122.1615030
310,University Avenue,94301,37.4460221,-122.1611334
174,University Avenue,94301,37.4444021,-122.1627391
625,El Camino Real,94301,37.4415767,-122.1636221
300,Pasteur Drive,94305,37.4344063,-122.1751515
670,East Meadow Drive,94306,37.4232620,-122.1151210
1247,Cowper Street,94301,37.4425390,-122.1491979
607,Hansen Way,94304,37.4192835,-122.1381088
3333,Coyote Hill Road,94304,37.4027411,-122.1484498
3353,Alma Street,94306,37.4205518,-122.1253219
3375,Alma Street,94306,37.4199133,-122.1248911
300,Pasteur Drive,94305,37.4326869,-122.1763115
3100,Hansen Way,94304,37.4168448,-122.1433078
4075,El Camino Way,94306,37.4155326,-122.1261772
2465;2471;2479;2483,East Bayshore Road,94303,37.4483403,-122.1182453
520,Cowper Street,94301,37.4477471,-122.1590624
1069,East Meadow Circle,94303,37.4302951,-122.1087217
650,Page Mill Road,94304,37.4214422,-122.1449551
3300,Page Mill Road,94022,37.3517507,-122.1844795
541,Melville Avenue,94301,37.4428140,-122.1490297
1530,Arastradero Road,94304,37.3780784,-122.1825930
2500,Columbia Street,94304,37.4172679,-122.1500378
2600,Columbia Street,94304,37.4165273,-122.1506841
408,Panama Mall,94305,37.4311928,-122.1690520
725,Welch Road,94304,37.4361360,-122.1744513
3351,Alma Street,94306,37.4201621,-122.1258134
