House number,Street name,Postal code,Latitude,Longitude
990,Dolliver Street,93449,35.1425409,-120.6426461
1301,Shell Beach Road,93449,35.1573379,-120.6716940
230,Leeward Avenue,93449,35.1546537,-120.6696190
1527,Shell Beach Road,93449,35.1578420,-120.6730622
1253,Shell Beach Road,93449,35.1571536,-120.6713547
927,Shell Beach Road,93449,35.1565917,-120.6698689
1651,Shell Beach Road,93449,35.1581368,-120.6737290
791,Dolliver Street,93449,35.1410828,-120.6421835
48,Capanna Lane,93449,35.1390470,-120.6259886
2575,Price Street,93449,35.1497283,-120.6542995
1251,Shell Beach Road,93449,35.1570898,-120.6712442
1253,Shell Beach Road,93449,35.1571263,-120.6713259
1255,Shell Beach Road,93449,35.1571805,-120.6714198
601,Shell Beach Road,93449,35.1558209,-120.6679447
581,Dolliver Street,93449,35.1397581,-120.6405603
585,Dolliver Street,93449,35.1397703,-120.6406064
581,Dolliver Street,93449,35.1397220,-120.6405738
2699,Shell Beach Road,93449,35.1632422,-120.6875710
2655,Shell Beach Road,93449,35.1627266,-120.6860100
401,Shell Beach Road,93449,35.1552977,-120.6666890
1717,Shell Beach Road,93449,35.1583007,-120.6742922
1879,Shell Beach Road,93449,35.1587434,-120.6754106
1759,Shell Beach Road,93449,35.1584859,-120.6746355
1739,Shell Beach Road,93449,35.1584150,-120.6744869
1759,Shell Beach Road,93449,35.1584816,-120.6746585
381,Wilmar Avenue,93449,35.1477009,-120.6473791
379,Wilmar Avenue,93449,35.1476199,-120.6474216
861,Dolliver Street,93449,35.1415854,-120.6424312
801,Dolliver Street,93449,35.1413290,-120.6423154
680,Wadsworth Avenue,93449,35.1457850,-120.6391276
2100,Shell Beach Road,93449,35.1594893,-120.6776735
509,Five Cities Drive,93449,35.1356540,-120.6253520
1053,Price Street,93449,35.1436125,-120.6423520
1090,Price Street,93449,35.1438988,-120.6422210
371,Pismo Avenue,93449,35.1428326,-120.6414940
801,Price Street,93449,35.1423268,-120.6409550
891,Price Street,93449,35.1426047,-120.6412599
231,Pomeroy Avenue,93449,35.1403468,-120.6419478
231,Pomeroy Avenue,93449,35.1403704,-120.6419135
231,Pomeroy Avenue,93449,35.1403965,-120.6418807
231,Pomeroy Avenue,93449,35.1404341,-120.6418269
870,Price Street,93449,35.1428032,-120.6408571
860,Price Street,93449,35.1427473,-120.6408235
790,Price Street,93449,35.1423755,-120.6403515
800,Price Street,93449,35.1425817,-120.6405553
558,Price Street,93449,35.1421079,-120.6401959
751,Price Street,93449,35.1418897,-120.6405365
781,Price Street,93449,35.1419692,-120.6406371
781,Price Street,93449,35.1419917,-120.6406660
783,Price Street,93449,35.1420526,-120.6407062
791,Price Street,93449,35.1421030,-120.6407800
354,Main Street,93449,35.1417965,-120.6408919
320,Main Street,93449,35.1414691,-120.6415115
601,Price Street,93449,35.1410068,-120.6394239
1127,Shell Beach Road,93449,35.1568638,-120.6708418
270,Pomeroy Avenue,93449,35.1404791,-120.6413896
350,Five Cities Drive,93449,35.1366771,-120.6262737
550,Frady Lane,93449,35.1413948,-120.6338354
334,Main Street,93449,35.1416199,-120.6413107
601,Price Street,93449,35.1409813,-120.6394536
350,Main Street,93449,35.1417596,-120.6411276
330,Main Street,93449,35.1415209,-120.6414096
751,Price Street,93449,35.1418694,-120.6405448
354,Main Street,93449,35.1418090,-120.6408842
320,Main Street,93449,35.1414458,-120.6415030
780,Bello Street,93449,35.1431113,-120.6391285
778,Bello Street,93449,35.1429428,-120.6387577
490,Dolliver Street,93449,35.1392504,-120.6393597
2705,Spyglass Drive,93449,35.1638312,-120.6887536
2699,Shell Beach Road,93449,35.1630934,-120.6875364
2555,Shell Beach Road,93449,35.1621919,-120.6843895
1901,Shell Beach Road,93449,35.1588616,-120.6757668
1801,Shell Beach Road,93449,35.1586010,-120.6749688
1851,Shell Beach Road,93449,35.1585939,-120.6753226
1879,Shell Beach Road,93449,35.1587285,-120.6754020
1717,Shell Beach Road,93449,35.1583357,-120.6744033
1651,Shell Beach Road,93449,35.1581883,-120.6738519
1601,Shell Beach Road,93449,35.1579122,-120.6735140
1651,Shell Beach Road,93449,35.1580715,-120.6737331
1527,Shell Beach Road,93449,35.1578302,-120.6730740
1475,Shell Beach Road,93449,35.1576957,-120.6725500
102,Wawona Avenue,93449,35.1574393,-120.6723286
890,Tulare,93449,35.1511777,-120.6374666
830,Tulare Street,93449,35.1508402,-120.6367587
800,Tulare Street,93449,35.1506202,-120.6363326
820,Tulare Street,93449,35.1507626,-120.6366173
810,Tulare Street,93449,35.1507026,-120.6364772
860,Tulare Street,93449,35.1510288,-120.6371826
840,Tulare Street,93449,35.1508814,-120.6369183
880,Tulare Street,93449,35.1510989,-120.6373413
850,Tulare Street,93449,35.1509682,-120.6370414
961,Tulare Street,93449,35.1515332,-120.6388652
991,Tulare Street,93449,35.1517428,-120.6392360
999,Taft Street,93449,35.1507567,-120.6402018
940,Visalia Street,93449,35.1511373,-120.6387563
901,Tulare,93449,35.1510878,-120.6379936
920,Visalia Street,93449,35.1509814,-120.6385169
981,Tulare Street,93449,35.1517046,-120.6391366
931,Tulare,93449,35.1512973,-120.6384215
930,Visalia Street,93449,35.1510802,-120.6386184
701,Longview Avenue,93449,35.1508471,-120.6382340
910,Visalia Street,93449,35.1509263,-120.6383505
951,Tulare,93449,35.1514409,-120.6387170
911,Tulare Street,93449,35.1511378,-120.6381392
921,Tulare Street,93449,35.1512259,-120.6383057
960,Visalia Street,93449,35.1513003,-120.6390217
950,Visalia Street,93449,35.1512323,-120.6389142
980,Visalia Street,93449,35.1514698,-120.6393066
941,Tulare Street,93449,35.1513963,-120.6385841
970,Visalia Street,93449,35.1513842,-120.6391847
971,Tulare Street,93449,35.1516161,-120.6389825
910,Tulare Street,93449,35.1514979,-120.6379136
990,Visalia Street,93449,35.1515401,-120.6394696
1301,Shell Beach Road,93449,35.1572901,-120.6717341
991,Taft Street,93449,35.1505544,-120.6400854
951,Taft Street,93449,35.1503509,-120.6396410
921,Taft Street,93449,35.1501140,-120.6392016
941,Taft Street,93449,35.1502238,-120.6395156
981,Taft Street,93449,35.1504870,-120.6398916
971,Taft Street,93449,35.1503934,-120.6397788
931,Taft Street,93449,35.1501683,-120.6393632
911,Taft Street,93449,35.1500187,-120.6390984
901,Taft Street,93449,35.1499479,-120.6389590
900,Bakersfield Street,93449,35.1497096,-120.6391621
940,Bakersfield Street,93449,35.1500025,-120.6397187
960,Bakersfield Street,93449,35.1501783,-120.6399666
920,Bakersfield Street,93449,35.1498557,-120.6394417
910,Bakersfield Street,93449,35.1497691,-120.6393101
930,Bakersfield Street,93449,35.1499266,-120.6395888
950,Bakersfield Street,93449,35.1500872,-120.6398578
970,Bakersfield Street,93449,35.1502573,-120.6401096
861,Visalia Street,93449,35.1500891,-120.6377635
700,Longview Avenue,93449,35.1506313,-120.6379100
821,Taft Street,93449,35.1490327,-120.6378242
870,Bakersfield Street,93449,35.1493728,-120.6385684
851,Taft Street,93449,35.1493478,-120.6382033
841,Taft Street,93449,35.1492238,-120.6381293
821,Visalia Street,93449,35.1499325,-120.6369733
861,Tulare,93449,35.1507226,-120.6374498
850,Taft Street,93449,35.1498775,-120.6379649
820,Visalia,93449,35.1502718,-120.6367646
860,Taft Street,93449,35.1499021,-120.6381282
891,Taft Street,93449,35.1497524,-120.6386624
881,Taft Street,93449,35.1497302,-120.6384809
650,Longview Avenue,93449,35.1503465,-120.6381281
890,Taft Street,93449,35.1501514,-120.6383771
815,Tulare,93449,35.1503672,-120.6366847
881,Tulare Street,93449,35.1507848,-120.6376042
881,Visalia Street,93449,35.1501954,-120.6380697
841,Visalia Street,93449,35.1500652,-120.6373501
831,Taft Street,93449,35.1491007,-120.6380031
890,Taft Street,93449,35.1500677,-120.6384274
880,Visalia,93449,35.1505510,-120.6378032
871,Taft Street,93449,35.1495913,-120.6383862
821,Tulare Street,93449,35.1504280,-120.6368738
870,Visalia,93449,35.1505024,-120.6376422
781,Visalia Street,93449,35.1499806,-120.6363823
791,Visalia Street,93449,35.1498999,-120.6366714
831,Tulare Street,93449,35.1504874,-120.6370291
840,Bakersfield Street,93449,35.1492250,-120.6384070
880,Taft Street,93449,35.1500003,-120.6382459
860,Visalia,93449,35.1504164,-120.6374874
871,Visalia Street,93449,35.1501389,-120.6379086
840,Visalia,93449,35.1503703,-120.6372430
851,Tulare Street,93449,35.1506646,-120.6372836
891,Tulare Street,93449,35.1508774,-120.6377327
790,Tulare Street,93449,35.1503466,-120.6362719
880,Bakersfield Street,93449,35.1494606,-120.6387256
851,Visalia Street,93449,35.1500644,-120.6375392
890,Bakersfield,93449,35.1495394,-120.6388564
841,Tulare,93449,35.1505710,-120.6371832
861,Taft Street,93449,35.1495010,-120.6382667
911,Bakersfield Street,93449,35.1494799,-120.6395661
951,Bakersfield Street,93449,35.1497918,-120.6400965
961,Bakersfield Street,93449,35.1498651,-120.6402259
941,Bakersfield Street,93449,35.1496968,-120.6399514
412,Longview Avenue,93449,35.1492173,-120.6390233
921,Bakersfield Street,93449,35.1495282,-120.6396935
850,Fresno Street,93449,35.1487123,-120.6389205
780,Fresno Street,93449,35.1482442,-120.6381693
920,Fresno Street,93449,35.1492885,-120.6399302
411,Longview Avenue,93449,35.1493728,-120.6394227
401,Longview Avenue,93449,35.1491381,-120.6396327
410,Longview Avenue,93449,35.1491436,-120.6391683
790,Fresno Street,93449,35.1483917,-120.6384003
800,Fresno Street,93449,35.1485623,-120.6384621
940,Fresno Street,93449,35.1494499,-120.6402024
981,Bakersfield Street,93449,35.1500050,-120.6405273
830,Fresno Street,93449,35.1485620,-120.6386567
860,Fresno Street,93449,35.1487602,-120.6390602
930,Fresno Street,93449,35.1493688,-120.6400632
840,Fresno Street,93449,35.1486533,-120.6387902
801,Bakersfield Street,93449,35.1490228,-120.6388760
970,Fresno Street,93449,35.1496839,-120.6406394
991,Bakersfield Street,93449,35.1500359,-120.6406877
831,Bakersfield Street,93449,35.1489634,-120.6384960
910,Fresno Street,93449,35.1492195,-120.6397985
960,Fresno Street,93449,35.1495367,-120.6403835
400,Longview Avenue,93449,35.1489837,-120.6393164
931,Bakersfield Street,93449,35.1496314,-120.6398349
971,Bakersfield Street,93449,35.1499106,-120.6403925
880,Fresno Street,93449,35.1488919,-120.6392180
1127,Shell Beach Road,93449,35.1568666,-120.6708330
1001,Shell Beach Road,93449,35.1566398,-120.6701769
702,Ocean Boulevard,93449,35.1534665,-120.6703808
780,Ocean Boulevard,93449,35.1534471,-120.6708644
728,Ocean Boulevard,93449,35.1534647,-120.6705506
358,Ocean Boulevard,93449,35.1525127,-120.6681631
326,Ocean Boulevard,93449,35.1525895,-120.6678222
927,Shell Beach Road,93449,35.1565511,-120.6698928
352,Windward Avenue,93449,35.1537621,-120.6710259
298,Windward Avenue,93449,35.1543748,-120.6706665
388,Windward Avenue,93449,35.1531673,-120.6714330
388,Windward Avenue,93449,35.1533748,-120.6713340
244,Windward Avenue,93449,35.1548691,-120.6702985
853,Shell Beach Road,93449,35.1563914,-120.6694243
236,Windward Avenue,93449,35.1549628,-120.6702308
376,Windward Avenue,93449,35.1535218,-120.6712068
226,Windward Avenue,93449,35.1550734,-120.6701376
246,Windward Avenue,93449,35.1547252,-120.6703571
288,Windward Avenue,93449,35.1545014,-120.6705151
336,Windward Avenue,93449,35.1538925,-120.6709592
364,Windward Avenue,93449,35.1536444,-120.6711203
316,Windward Avenue,93449,35.1541307,-120.6707923
304,Windward Avenue,93449,35.1542327,-120.6707121
216,Windward Avenue,93449,35.1551912,-120.6700432
324,Windward Avenue,93449,35.1540161,-120.6708478
230,Leeward Avenue,93449,35.1546665,-120.6696525
205,Windward Avenue,93449,35.1550593,-120.6696689
217,Windward Avenue,93449,35.1549381,-120.6697384
601,Shell Beach Road,93449,35.1558066,-120.6679632
653,Shell Beach Road,93449,35.1559218,-120.6682159
680,Ocean Boulevard,93449,35.1534475,-120.6700183
660,Ocean Boulevard,93449,35.1533892,-120.6699219
602,Ocean Boulevard,93449,35.1532804,-120.6697602
390,Palisade Avenue,93449,35.1528507,-120.6692317
341,Pier Avenue,93449,35.1530324,-120.6694988
508,Ocean Boulevard,93449,35.1530306,-120.6693606
555,Shell Beach Road,93449,35.1557102,-120.6675858
501,Shell Beach Road,93449,35.1555979,-120.6673126
401,Shell Beach Road,93449,35.1552903,-120.6666814
325,Palisade Avenue,93449,35.1525892,-120.6689581
434,Ocean Boulevard,93449,35.1525585,-120.6688222
428,Ocean Boulevard,93449,35.1525165,-120.6687075
356,Seaview Avenue,93449,35.1524640,-120.6685776
306,Cliff Avenue,93449,35.1528637,-120.6675770
308,Cliff Avenue,93449,35.1527418,-120.6676942
212,Cliff Avenue,93449,35.1538270,-120.6669605
266,Cliff Avenue,93449,35.1534195,-120.6672615
280,Cliff Avenue,93449,35.1532998,-120.6673419
290,Cliff Avenue,93449,35.1531313,-120.6674235
218,Cliff Avenue,93449,35.1537113,-120.6671322
242,Cliff Avenue,93449,35.1535733,-120.6671081
200,Cliff Avenue,93449,35.1539482,-120.6668761
190,Cliff Avenue,93449,35.1541835,-120.6667044
166,Cliff Avenue,93449,35.1544770,-120.6665212
353,Shell Beach Road,93449,35.1551357,-120.6663311
118,Cliff Avenue,93449,35.1549036,-120.6662256
178,Cliff Avenue,93449,35.1543134,-120.6666302
142,Cliff Avenue,93449,35.1546438,-120.6663683
130,Cliff Avenue,93449,35.1548023,-120.6663115
2181,Costa Brava,93449,35.1618689,-120.6792498
2171,Costa Brava,93449,35.1618864,-120.6790526
2141,Costa Brava,93449,35.1619199,-120.6786887
2184,Costa Brava,93449,35.1621955,-120.6789722
2174,Costa Brava,93449,35.1621522,-120.6794980
2151,Costa Brava,93449,35.1618915,-120.6788764
2128,Costa del Sol,93449,35.1614507,-120.6788108
2170,Costa del Sol,93449,35.1615043,-120.6791060
2098,Costa del Sol,93449,35.1614574,-120.6783062
2014,Costa del Sol,93449,35.1612391,-120.6776259
2101,Costa Brava,93449,35.1618868,-120.6782987
1951,Costa Brava,93449,35.1617316,-120.6766206
2061,Costa Brava,93449,35.1617990,-120.6779410
1961,Costa Brava,93449,35.1617192,-120.6768390
1981,Costa Brava,93449,35.1616844,-120.6770409
2041,Costa Brava,93449,35.1617395,-120.6777659
1991,Costa Brava,93449,35.1616734,-120.6772167
2081,Costa Brava,93449,35.1618416,-120.6781218
2001,Costa Brava,93449,35.1616551,-120.6774079
2021,Costa Brava,93449,35.1617035,-120.6775876
1930,Costa Brava,93449,35.1617723,-120.6760454
1807,Costa Brava,93449,35.1611663,-120.6756149
1810,Costa Brava,93449,35.1614364,-120.6754643
1933,Costa Brava,93449,35.1615987,-120.6763447
1812,Costa del Sol,93449,35.1605780,-120.6760180
1870,Costa Brava,93449,35.1615789,-120.6757613
1879,Costa Brava,93449,35.1613721,-120.6760519
1848,Costa del Sol,93449,35.1607021,-120.6763332
1917,Costa del Sol,93449,35.1608610,-120.6769102
1851,Costa del Sol,93449,35.1604933,-120.6766274
1999,Costa del Sol,93449,35.1608709,-120.6774976
2021,Costa del Sol,93449,35.1609146,-120.6776741
2041,Costa del Sol,93449,35.1609636,-120.6778499
1975,Costa del Sol,93449,35.1608650,-120.6773087
1811,Costa del Sol,93449,35.1603391,-120.6762098
1893,Costa del Sol,93449,35.1607156,-120.6768605
1617,Costa Brava,93449,35.1609626,-120.6744445
1609,Costa Brava,93449,35.1607498,-120.6737569
1605,Costa Brava,93449,35.1606635,-120.6734428
1613,Costa Brava,93449,35.1608471,-120.6740782
1611,Costa Brava,93449,35.1608344,-120.6738905
1603,Costa Brava,93449,35.1605760,-120.6732702
1601,Costa Brava,93449,35.1605084,-120.6731449
1607,Costa Brava,93449,35.1607340,-120.6735706
1615,Costa Brava,93449,35.1609186,-120.6742173
1601,Costa del Sol,93449,35.1599113,-120.6737041
1609,Costa del Sol,93449,35.1601655,-120.6743448
1610,Costa Brava,93449,35.1604385,-120.6741923
1606,Costa Brava,93449,35.1603227,-120.6738594
1602,Costa Brava,93449,35.1601750,-120.6735506
1614,Costa Brava,93449,35.1605505,-120.6745436
1611,Costa del Sol,93449,35.1602333,-120.6744880
1605,Costa del Sol,93449,35.1600596,-120.6740167
1613,Costa del Sol,93449,35.1602970,-120.6746997
1603,Costa del Sol,93449,35.1599953,-120.6738357
1616,Costa Brava,93449,35.1606149,-120.6746648
1608,Costa Brava,93449,35.1603792,-120.6739782
1612,Costa Brava,93449,35.1604817,-120.6743213
1604,Costa Brava,93449,35.1602403,-120.6736695
1615,Costa del Sol,93449,35.1603505,-120.6748477
1607,Costa del Sol,93449,35.1601241,-120.6741627
1602,Costa del Sol,93449,35.1595854,-120.6740247
1610,Costa del Sol,93449,35.1598189,-120.6746275
1614,Costa del Sol,93449,35.1599339,-120.6749797
1606,Costa del Sol,93449,35.1597096,-120.6743221
1604,Costa del Sol,93449,35.1596393,-120.6741502
1608,Costa del Sol,93449,35.1597600,-120.6744444
1612,Costa del Sol,93449,35.1598666,-120.6747603
1291,Costa Brava,93449,35.1586042,-120.6683291
1349,Costa Brava,93449,35.1602044,-120.6721439
1345,Costa Brava,93449,35.1599746,-120.6721845
1341,Costa Brava,93449,35.1598921,-120.6720147
1337,Costa Brava,93449,35.1598036,-120.6718259
1327,Costa Brava,93449,35.1593063,-120.6710229
1333,Costa Brava,93449,35.1596448,-120.6714717
1303,Costa Brava,93449,35.1588013,-120.6687131
1317,Costa Brava,93449,35.1590099,-120.6700721
1325,Costa Brava,93449,35.1591730,-120.6708917
1329,Costa Brava,93449,35.1594320,-120.6711567
1309,Costa Brava,93449,35.1589578,-120.6692767
1335,Costa Brava,93449,35.1597280,-120.6716479
1331,Costa Brava,93449,35.1595458,-120.6713081
1305,Costa Brava,93449,35.1588683,-120.6688945
1311,Costa Brava,93449,35.1589836,-120.6694749
1313,Costa Brava,93449,35.1589871,-120.6696702
1319,Costa Brava,93449,35.1590303,-120.6702819
1353,Costa Brava,93449,35.1601469,-120.6724021
1321,Costa Brava,93449,35.1590329,-120.6704665
1315,Costa Brava,93449,35.1589912,-120.6698645
1323,Costa Brava,93449,35.1590689,-120.6706842
1307,Costa Brava,93449,35.1589125,-120.6690871
1301,Costa Brava,93449,35.1587063,-120.6685393
1342,Costa Brava,93449,35.1595844,-120.6721850
1350,Costa Brava,93449,35.1596976,-120.6724848
1336,Costa Brava,93449,35.1594471,-120.6718870
1338,Costa Brava,93449,35.1595214,-120.6720390
1347,Costa del Sol,93449,35.1594606,-120.6725776
1346,Costa Brava,93449,35.1596492,-120.6723279
1334,Costa Brava,93449,35.1593788,-120.6717596
1354,Costa Brava,93449,35.1597588,-120.6726489
1332,Costa Brava,93449,35.1593051,-120.6716066
1343,Costa del Sol,93449,35.1593450,-120.6724182
1355,Costa del Sol,93449,35.1595583,-120.6727751
1337,Costa del Sol,93449,35.1592059,-120.6722310
1333,Costa del Sol,93449,35.1591031,-120.6720595
1354,Costa del Sol,93449,35.1591286,-120.6731224
1348,Costa del Sol,93449,35.1590790,-120.6727232
1338,Costa del Sol,93449,35.1588989,-120.6724511
1344,Costa del Sol,93449,35.1590098,-120.6725897
1352,Costa del Sol,93449,35.1590852,-120.6729123
1332,Costa del Sol,93449,35.1586867,-120.6720217
1334,Costa del Sol,93449,35.1587543,-120.6721615
1336,Costa del Sol,93449,35.1588267,-120.6723060
1330,Costa del Sol,93449,35.1586224,-120.6718825
1326,Costa del Sol,93449,35.1584739,-120.6716016
1328,Costa del Sol,93449,35.1585463,-120.6717474
1324,Costa del Sol,93449,35.1584232,-120.6714736
1320,Costa Brava,93449,35.1587028,-120.6705635
1304,Costa Brava,93449,35.1585602,-120.6691729
1308,Costa Brava,93449,35.1586288,-120.6695286
1316,Costa Brava,93449,35.1586731,-120.6702315
1305,Costa del Sol,93449,35.1583804,-120.6693767
1321,Costa del Sol,93449,35.1586744,-120.6711118
1303,Costa del Sol,93449,35.1583341,-120.6691626
1324,Costa Brava,93449,35.1588050,-120.6709652
1326,Costa Brava,93449,35.1588983,-120.6711259
1314,Costa Brava,93449,35.1586565,-120.6700662
1317,Costa del Sol,93449,35.1585028,-120.6706247
1302,Costa Brava,93449,35.1585024,-120.6689789
1307,Costa del Sol,93449,35.1583905,-120.6695730
1318,Costa Brava,93449,35.1586871,-120.6704022
1312,Costa Brava,93449,35.1586413,-120.6698864
1328,Costa Brava,93449,35.1589989,-120.6712574
1319,Costa del Sol,93449,35.1585815,-120.6708964
1300,Costa Brava,93449,35.1584577,-120.6688413
1310,Costa Brava,93449,35.1586343,-120.6696974
1322,Costa Brava,93449,35.1587530,-120.6708118
1323,Costa del Sol,93449,35.1587464,-120.6713080
1306,Costa Brava,93449,35.1586166,-120.6693434
1309,Costa del Sol,93449,35.1584146,-120.6697670
1313,Costa del Sol,93449,35.1584203,-120.6702040
1315,Costa del Sol,93449,35.1584428,-120.6704344
1327,Costa del Sol,93449,35.1588254,-120.6715011
1331,Costa del Sol,93449,35.1589157,-120.6716666
1330,Costa Brava,93449,35.1591049,-120.6713726
1301,Costa del Sol,93449,35.1582545,-120.6689506
1311,Costa del Sol,93449,35.1584125,-120.6700198
1304,Costa del Sol,93449,35.1580349,-120.6694607
1306,Costa del Sol,93449,35.1580684,-120.6696347
1302,Costa del Sol,93449,35.1580007,-120.6692964
1316,Costa del Sol,93449,35.1581295,-120.6705676
1308,Costa del Sol,93449,35.1580706,-120.6698105
1320,Costa del Sol,93449,35.1582231,-120.6709390
1310,Costa del Sol,93449,35.1580836,-120.6699772
1322,Costa del Sol,93449,35.1582745,-120.6710663
1300,Costa del Sol,93449,35.1579408,-120.6691251
1314,Costa del Sol,93449,35.1580933,-120.6703406
1312,Costa del Sol,93449,35.1580786,-120.6701747
1318,Costa del Sol,93449,35.1581559,-120.6707170
1288,Costa Brava,93449,35.1580831,-120.6683577
1290,Costa Brava,93449,35.1581864,-120.6685041
1285,Costa Brava,93449,35.1583275,-120.6678772
2651,Price Street,93449,35.1524986,-120.6606262
2575,Price Street,93449,35.1497189,-120.6543239
2555,Price Street,93449,35.1491505,-120.6533271
2411,Price Street,93449,35.1491067,-120.6510652
2411,Price Street,93449,35.1489301,-120.6514823
2411,Price Street,93430,35.1484280,-120.6513423
2241,Price Street,93449,35.1477978,-120.6496989
2351,Price Street,93449,35.1487538,-120.6507368
2121,Price Street,93449,35.1479832,-120.6486507
2131,Price Street,93449,35.1481554,-120.6488203
341,Franklin Drive,93449,35.1472217,-120.6482137
321,Franklin Drive,93449,35.1472117,-120.6484827
381,Franklin Drive,93449,35.1477191,-120.6479185
377,Franklin Drive,93449,35.1475831,-120.6479580
351,Franklin Drive,93449,35.1473387,-120.6481167
371,Franklin Drive,93449,35.1474811,-120.6481201
399,Franklin Drive,93449,35.1478351,-120.6478127
341,Wilmar Avenue,93449,35.1470243,-120.6477733
311,Wilmar Avenue,93449,35.1469110,-120.6478723
305,Wilmar Avenue,93449,35.1468009,-120.6480093
361,Wilmar Avenue,93449,35.1472482,-120.6476019
373,Wilmar Avenue,93449,35.1475096,-120.6474991
351,Wilmar Avenue,93449,35.1471321,-120.6476928
367,Wilmar Avenue,93449,35.1473752,-120.6475142
301,Wilmar Avenue,93449,35.1466512,-120.6482302
360,Wilmar Avenue,93449,35.1471176,-120.6472712
340,Wilmar Avenue,93449,35.1468717,-120.6474611
350,Wilmar Avenue,93449,35.1469567,-120.6473280
310,Wilmar Avenue,93449,35.1467541,-120.6475245
1401,Dolliver Street,93449,35.1461440,-120.6453274
1601,Price Street,93449,35.1449317,-120.6458555
1621,Price Street,93449,35.1454698,-120.6466386
1751,Price Street,93449,35.1460402,-120.6459952
1751,Price Street,93449,35.1463933,-120.6465178
1481,Price Street,93449,35.1455700,-120.6444920
1331,Price Street,93449,35.1453345,-120.6442751
1390,Price Street,93449,35.1456249,-120.6438864
1100,Price Street,93449,35.1442049,-120.6424312
1240,Dolliver Street,93449,35.1439378,-120.6441942
330,Harloe Avenue,93449,35.1442314,-120.6443737
861,Dolliver Street,93449,35.1416189,-120.6424022
280,Wadsworth Avenue,93449,35.1423399,-120.6439333
1053,Price Street,93449,35.1435554,-120.6424434
1020,Cypress Street,93449,35.1416798,-120.6441200
280,Wadsworth Avenue,93449,35.1425475,-120.6434014
371,Pismo Avenue,93449,35.1428060,-120.6416812
990,Dolliver Street,93449,35.1425895,-120.6425777
960,Dolliver Street,93449,35.1424351,-120.6424358
900,Dolliver Street,93449,35.1422003,-120.6422645
750,Price Street,93449,35.1421289,-120.6401367
790,Price Street,93449,35.1423372,-120.6403833
1090,Price Street,93449,35.1439379,-120.6422412
800,Price Street,93449,35.1426035,-120.6405544
891,Price Street,93449,35.1425876,-120.6413179
801,Price Street,93449,35.1422619,-120.6410126
811,Fresno Street,93449,35.1481574,-120.6387753
781,Stratford Street,93449,35.1474012,-120.6388052
811,Fresno Street,93449,35.1480628,-120.6386221
820,Stratford Street,93449,35.1479590,-120.6390898
841,Stratford Street,93449,35.1477480,-120.6395194
800,Stratford Street,93449,35.1477582,-120.6387351
720,Stratford Street,93449,35.1475170,-120.6380359
690,Lemoore Street,93449,35.1470001,-120.6376730
751,Stratford Street,93449,35.1471796,-120.6384225
710,Stratford Street,93449,35.1474970,-120.6378729
650,Lemoore Street,93449,35.1468529,-120.6372069
801,Stratford Street,93449,35.1475740,-120.6391272
791,Fresno Street,93449,35.1480023,-120.6384965
860,Stratford Street,93449,35.1482405,-120.6394131
751,Fresno Street,93449,35.1478548,-120.6381111
971,Stratford Street,93449,35.1488128,-120.6413422
880,Wadsworth Avenue,93449,35.1477752,-120.6401032
810,Stratford Street,93449,35.1478458,-120.6388773
861,Stratford Street,93449,35.1479002,-120.6397543
871,Fresno Street,93449,35.1485471,-120.6394721
670,Lemoore Street,93449,35.1468862,-120.6373732
941,Stratford Street,93449,35.1485945,-120.6409093
820,Wadsworth Avenue,93449,35.1472923,-120.6393388
930,Wadsworth Avenue,93449,35.1482109,-120.6410269
860,Wadsworth Avenue,93449,35.1477050,-120.6399842
310,Longview Avenue,93449,35.1486422,-120.6395981
710,Lemoore Street,93449,35.1470261,-120.6380304
871,Stratford Street,93449,35.1480166,-120.6399268
710,Lemoore,93449,35.1471022,-120.6379696
781,Fresno Street,93449,35.1479022,-120.6383833
841,Fresno Street,93449,35.1483010,-120.6390853
981,Stratford Street,93449,35.1488866,-120.6414653
900,Wadsworth Street,93449,35.1481663,-120.6406185
961,Stratford Street,93449,35.1487474,-120.6412054
970,Wadsworth Street,93449,35.1485198,-120.6415599
791,Stratford Street,93449,35.1474325,-120.6389699
840,Wadsworth Avenue,93449,35.1475167,-120.6397226
300,Longview Avenue,93449,35.1484002,-120.6397788
851,Fresno Street,93449,35.1483797,-120.6391969
700,Lemoore Street,93449,35.1470547,-120.6378519
200,Longview Avenue,93449,35.1478403,-120.6402707
931,Stratford Street,93449,35.1484748,-120.6407477
780,Stratford Street,93449,35.1476372,-120.6383896
870,Stratford Street,93449,35.1483032,-120.6396815
960,Wadsworth Street,93449,35.1484598,-120.6414254
790,Stratford Street,93449,35.1477136,-120.6385351
730,Stratford Street,93449,35.1475138,-120.6382340
980,Wadsworth Street,93449,35.1487569,-120.6417268
830,Wadsworth Avenue,93449,35.1474611,-120.6395679
700,Stratford Street,93449,35.1473584,-120.6377380
840,Stratford Street,93449,35.1480778,-120.6392617
951,Stratford Street,93449,35.1486190,-120.6410617
680,Lemoore Street,93449,35.1469847,-120.6375070
920,Wadsworth Avenue,93449,35.1481354,-120.6408825
900,Wadsworth Avenue,93449,35.1480124,-120.6406124
831,Fresno Street,93449,35.1482479,-120.6389106
861,Fresno Street,93449,35.1484660,-120.6393362
831,Stratford Street,93449,35.1476721,-120.6393376
950,Wadsworth Avenue,93449,35.1483708,-120.6412811
891,Stratford Street,93449,35.1480469,-120.6400840
295,Longview Avenue,93449,35.1482428,-120.6403755
940,Wadsworth Avenue,93449,35.1483162,-120.6411149
741,Stratford Street,93449,35.1471049,-120.6381791
761,Stratford,93449,35.1472343,-120.6386556
901,Wadsworth Avenue,93449,35.1476287,-120.6408900
851,Wadsworth Avenue,93449,35.1471939,-120.6401747
991,Wadsworth Avenue,93449,35.1483859,-120.6421076
961,Wadsworth Avenue,93449,35.1480640,-120.6415880
981,Wadsworth Avenue,93449,35.1482634,-120.6418719
941,Wadsworth Avenue,93449,35.1479557,-120.6414365
110,Longview Avenue,93449,35.1473450,-120.6405670
931,Wadsworth Avenue,93449,35.1479131,-120.6412749
861,Wadsworth Avenue,93449,35.1472746,-120.6403279
911,Wadsworth Avenue,93449,35.1476845,-120.6410314
250,Main Street,93449,35.1406823,-120.6423968
209,Pomeroy Avenue,93449,35.1402948,-120.6422291
180,Main Street,93449,35.1401070,-120.6428867
198,Main Street,93449,35.1403405,-120.6427343
195,Pomeroy Avenue,93449,35.1401051,-120.6424753
170,Main Street,93449,35.1398466,-120.6432545
541,Bay Street,93449,35.1468902,-120.6429161
961,Shaffer Lane,93449,35.1474550,-120.6420504
981,Hanford Street,93449,35.1479415,-120.6421481
941,Shaffer Lane,93449,35.1472640,-120.6417654
500,Baxter Lane,93449,35.1474433,-120.6431477
517,Bay Street,93449,35.1467790,-120.6429945
981,Shaffer Lane,93449,35.1476435,-120.6424440
891,Shaffer,93449,35.1469188,-120.6409943
551,Bay Street,93449,35.1469408,-120.6427699
991,Hanford Street,93449,35.1479779,-120.6423226
881,Hanford,93449,35.1469934,-120.6404741
1410,Bello,93449,35.1467136,-120.6433533
741,Bay Street,93449,35.1465950,-120.6410881
841,Bay Street,93449,35.1461951,-120.6403954
521,Bay Street,93449,35.1469424,-120.6432782
791,Bay Street,93449,35.1465226,-120.6409748
701,Bay Street,93449,35.1466578,-120.6412322
1130,Shaffer Lane,93449,35.1461421,-120.6399327
579,Bay Street,93449,35.1470405,-120.6424538
691,Bay Street,93449,35.1468435,-120.6414772
511,Bay Street,93449,35.1466887,-120.6430777
890,Hanford Street,93449,35.1473430,-120.6409738
795,Bay Street,93449,35.1463930,-120.6405629
951,Shaffer Lane,93449,35.1473610,-120.6419094
931,Shaffer Lane,93449,35.1471528,-120.6416317
887,Hanford,93449,35.1471279,-120.6406342
921,Shaffer Street,93449,35.1470611,-120.6415038
1191,Shaffer Lane,93449,35.1465638,-120.6407119
951,Hanford Street,93449,35.1477541,-120.6418077
971,Shaffer Lane,93449,35.1475316,-120.6422394
871,Shaffer,93449,35.1468497,-120.6408511
561,Bay Street,93449,35.1470761,-120.6426424
889,Hanford Street,93449,35.1471848,-120.6408497
941,Hanford,93449,35.1475781,-120.6416130
911,Shaffer Lane,93449,35.1469828,-120.6413757
600,Baxter Lane,93449,35.1475997,-120.6429568
901,Hanford Street,93449,35.1473145,-120.6411495
400,Baxter Lane,93449,35.1472774,-120.6432765
581,Bay Street,93449,35.1470512,-120.6421860
690,Cypress Street,93449,35.1399440,-120.6419355
1340,Bello Avenue,93449,35.1461648,-120.6426731
531,Harloe Avenue,93449,35.1463739,-120.6423225
1390,Bello,93449,35.1463670,-120.6428941
520,Bay Street,93449,35.1465132,-120.6426695
540,Bay Street,93449,35.1466938,-120.6424067
580,Bay Street,93449,35.1467203,-120.6421691
1350,Bello,93449,35.1462822,-120.6427935
690,Bay Street,93449,35.1466349,-120.6418571
541,Harloe Avenue,93449,35.1464055,-120.6421202
521,Harloe,93449,35.1462397,-120.6423511
530,Bay Street,93449,35.1465644,-120.6425058
551,Harloe Avenue,93449,35.1465334,-120.6419944
541,San Luis Avenue,93449,35.1458699,-120.6415061
1250,Bello Avenue,93449,35.1457504,-120.6421628
560,San Luis Avenue,93449,35.1458299,-120.6409753
550,Harloe Avenue,93449,35.1462493,-120.6417262
510,Harloe Avenue,93449,35.1459087,-120.6421996
541,Wadsworth Avenue,93449,35.1453156,-120.6408565
561,San Luis Avenue,93449,35.1460463,-120.6412512
522,San Luis Avenue,93449,35.1454191,-120.6414806
549,San Luis Avenue,93449,35.1459597,-120.6413417
521,Wadsworth Avenue,93449,35.1451195,-120.6411138
551,Wadsworth Avenue,93449,35.1454636,-120.6407851
570,San Luis Avenue,93449,35.1458566,-120.6408069
574,San Luis Avenue,93449,35.1459967,-120.6406909
571,Wadsworth Avenue,93449,35.1456419,-120.6405962
1240,Bello Avenue,93449,35.1456326,-120.6420630
560,Harloe Avenue,93449,35.1463500,-120.6415621
550,San Luis Avenue,93449,35.1457040,-120.6410496
1140,Bello Avenue,93449,35.1450832,-120.6414489
522,Harloe Avenue,93449,35.1459380,-120.6420018
561,Wadsworth Avenue,93449,35.1455531,-120.6406905
540,Harloe Avenue,93449,35.1461373,-120.6417794
521,San Luis Avenue,93449,35.1456733,-120.6417306
531,San Luis Avenue,93449,35.1457531,-120.6416225
570,Harloe Avenue,93449,35.1464281,-120.6414265
530,San Luis Avenue,93449,35.1455236,-120.6413334
511,San Luis Avenue,93449,35.1455612,-120.6418637
540,San Luis Avenue,93449,35.1455628,-120.6411727
530,Harloe Avenue,93449,35.1460500,-120.6419308
1100,Bello Street,93449,35.1449518,-120.6413023
1290,Bello Street,93449,35.1458165,-120.6423103
571,San Luis Avenue,93449,35.1462237,-120.6410518
117,Ocean View Avenue,93449,35.1370515,-120.6415236
100,Stimson Avenue,93449,35.1374245,-120.6416811
100,Ocean View Avenue,93449,35.1367138,-120.6410163
124,Ocean View Avenue,93449,35.1369124,-120.6409881
132,Ocean View Avenue,93449,35.1371195,-120.6409983
1000,Bello Street,93449,35.1445623,-120.6406755
570,Wadsworth Avenue,93449,35.1453201,-120.6402372
590,Wadsworth Avenue,93449,35.1455342,-120.6399698
990,Bello Street,93449,35.1440861,-120.6403062
580,Wadsworth Avenue,93449,35.1453849,-120.6400694
610,Wadsworth Avenue,93449,35.1456830,-120.6396563
546,Wadsworth Avenue,93449,35.1451827,-120.6405089
620,Wadsworth Avenue,93449,35.1457962,-120.6394499
540,Wadsworth Avenue,93449,35.1450786,-120.6406047
1000,Bello Street,93449,35.1442737,-120.6402600
560,Wadsworth Avenue,93449,35.1452287,-120.6403411
350,Ocean View Avenue,93449,35.1391276,-120.6382727
300,Dolliver Street,93449,35.1384367,-120.6385035
3390,Shell Beach Road,93449,35.1747865,-120.6977062
4000,Shell Beach Road,93449,35.1759982,-120.6980444
3998,Shell Beach Road,93449,35.1757005,-120.6979854
2757,Shell Beach Road,93449,35.1654338,-120.6907588
2850,Shell Beach Road,93449,35.1679336,-120.6913588
140,Addie Street,93449,35.1358101,-120.6402554
86,Villa Court,93449,35.1404559,-120.6269402
56,Capanna Street,93449,35.1393575,-120.6259005
72,Capanna Street,93449,35.1399721,-120.6256872
104,Capanna Lane,93449,35.1412553,-120.6259206
80,Capanna Street,93449,35.1403515,-120.6256695
94,Villa Court,93449,35.1405059,-120.6273817
82,Villa Court,93449,35.1404351,-120.6267682
90,Villa Court,93449,35.1404864,-120.6272013
70,Villa Court,93449,35.1403962,-120.6264460
52,Capanna Street,93449,35.1392120,-120.6259898
87,Capanna Street,93449,35.1403620,-120.6262009
78,Villa Court,93449,35.1406803,-120.6268352
95,Capanna Street,93449,35.1406978,-120.6261992
99,Capanna Lane,93449,35.1408609,-120.6262308
84,Capanna Street,93449,35.1405068,-120.6256777
103,Capanna Lane,93449,35.1409690,-120.6263101
40,Capanna Street,93449,35.1387236,-120.6260360
74,Villa Court,93449,35.1407527,-120.6265486
100,Capanna Lane,93449,35.1411064,-120.6258073
88,Capanna Street,93449,35.1406626,-120.6256736
48,Capanna Lane,93449,35.1390541,-120.6260448
92,Capanna Street,93449,35.1408355,-120.6256981
48,Capanna Lane,93449,35.1395165,-120.6258236
36,Capanna Street,93449,35.1385666,-120.6260477
96,Capanna Street,93449,35.1409991,-120.6257413
68,Capanna Street,93449,35.1398290,-120.6257097
91,Capanna Street,93449,35.1405285,-120.6261972
64,Capanna Street,93449,35.1396768,-120.6257498
44,Capanna Street,93449,35.1388915,-120.6260342
76,Capanna Street,93449,35.1401866,-120.6256881
136,Valley View Drive,93449,35.1433223,-120.6261234
71,Villa Court,93449,35.1399860,-120.6265795
290,Coral Court,93449,35.1420827,-120.6311489
380,Valley View Drive,93449,35.1427275,-120.6299089
340,Valley View Drive,93449,35.1429991,-120.6294243
316,Valley View Drive,93449,35.1430141,-120.6283402
221,Coral Court,93449,35.1415692,-120.6298987
210,Valley View Drive,93449,35.1429482,-120.6279310
95,Coral Circle,93449,35.1392467,-120.6285193
91,Villa Court,93449,35.1400323,-120.6269616
201,Coral Court,93449,35.1412629,-120.6297175
48,Capanna Lane,93449,35.1387099,-120.6266107
51,Capanna Street,93449,35.1393561,-120.6264779
91,Coral Circle,93449,35.1395289,-120.6281620
59,Capanna Street,93449,35.1396861,-120.6263175
150,Coral Court,93449,35.1410102,-120.6291850
400,Valley View Drive,93449,35.1426539,-120.6301150
63,Capanna Street,93449,35.1398331,-120.6262500
90,Coral Circle,93449,35.1396831,-120.6280797
161,Coral Court,93449,35.1408818,-120.6297748
120,Coral Court,93449,35.1403827,-120.6290897
121,Surf Street,93449,35.1408589,-120.6287626
295,Reef Court,93449,35.1408950,-120.6309092
270,Coral Court,93449,35.1421652,-120.6306345
231,Coral Court,93449,35.1416494,-120.6301571
370,Valley View Drive,93449,35.1428231,-120.6297740
280,Reef Court,93449,35.1412970,-120.6305333
296,Reef Court,93449,35.1412347,-120.6311595
99,Coral Circle,93449,35.1393557,-120.6287418
130,Coral Court,93449,35.1406001,-120.6292197
79,Villa Court,93449,35.1396209,-120.6268235
402,Valley View Drive,93449,35.1425553,-120.6302821
261,Reef Court,93449,35.1408419,-120.6301172
250,Coral Court,93449,35.1420950,-120.6298965
94,Coral Circle,93449,35.1398798,-120.6281423
281,Coral Court,93449,35.1418802,-120.6312799
271,Coral Court,93449,35.1416396,-120.6311939
170,Surf Street,93449,35.1418502,-120.6283877
120,Surf Street,93449,35.1411332,-120.6282454
47,Capanna Street,93449,35.1391631,-120.6265526
98,Coral Circle,93449,35.1400650,-120.6282649
55,Capanna Street,93449,35.1395143,-120.6264190
148,Valley View Drive,93449,35.1433092,-120.6263475
126,Valley View Drive,93449,35.1432209,-120.6259559
168,Valley View Drive,93449,35.1433883,-120.6267323
75,Villa Court,93449,35.1397798,-120.6268592
404,Valley View Drive,93449,35.1424071,-120.6304706
176,Valley View Drive,93449,35.1433479,-120.6271843
161,Surf Street,93449,35.1415079,-120.6287748
95,Villa Court,93449,35.1400430,-120.6271736
401,Valley View Drive,93449,35.1423420,-120.6297080
116,Valley View Drive,93449,35.1432364,-120.6257621
150,Surf Street,93449,35.1414864,-120.6282666
317,Valley View Drive,93449,35.1425786,-120.6285466
211,Surf Street,93449,35.1421404,-120.6293164
191,Surf Street,93449,35.1419325,-120.6290223
133,Wave Avenue,93449,35.1413905,-120.6278861
261,Coral Court,93449,35.1415997,-120.6308567
121,Coral Court,93449,35.1400598,-120.6294288
183,Wave Avenue,93449,35.1421666,-120.6281936
113,Wave Avenue,93449,35.1410602,-120.6278668
110,Coral Court,93449,35.1403017,-120.6288500
281,Reef Court,93449,35.1408209,-120.6306290
210,Surf Street,93449,35.1424294,-120.6288770
153,Wave Avenue,93449,35.1417001,-120.6279355
170,Valley View Drive,93449,35.1434430,-120.6269497
100,Surf Street,93449,35.1407379,-120.6281787
260,Coral Court,93449,35.1421354,-120.6304062
210,Coral Court,93449,35.1414365,-120.6291930
160,Surf Street,93449,35.1416798,-120.6283195
190,Valley View Drive,93449,35.1431408,-120.6275174
163,Wave Avenue,93449,35.1418619,-120.6280176
151,Coral Court,93449,35.1406758,-120.6297387
111,Coral Court,93449,35.1399462,-120.6292041
240,Coral Court,93449,35.1419628,-120.6296742
327,Valley View Drive,93449,35.1426543,-120.6287555
173,Wave Avenue,93449,35.1420191,-120.6281024
103,Wave Avenue,93449,35.1408736,-120.6278289
211,Coral Court,93449,35.1414210,-120.6297301
230,Surf Street,93449,35.1426320,-120.6292157
328,Valley View Drive,93449,35.1430783,-120.6287604
143,Wave Avenue,93449,35.1415557,-120.6279169
141,Surf Street,93449,35.1411959,-120.6287449
111,Surf Street,93449,35.1406974,-120.6287828
131,Surf Street,93449,35.1410398,-120.6287495
123,Wave Avenue,93449,35.1412261,-120.6278726
67,Villa Court,93449,35.1399936,-120.6262136
101,Coral Court,93449,35.1398480,-120.6290092
171,Surf Street,93449,35.1416654,-120.6288478
180,Surf Street,93449,35.1420066,-120.6284999
220,Coral Court,93449,35.1416542,-120.6293081
220,Surf Street,93449,35.1425424,-120.6290613
330,Valley View Drive,93449,35.1430768,-120.6289670
178,Valley View Drive,93449,35.1432710,-120.6273918
101,Surf Street,93449,35.1405350,-120.6286830
39,Capanna Street,93449,35.1388671,-120.6266028
221,Surf Street,93449,35.1422660,-120.6294892
336,Valley View Drive,93449,35.1430573,-120.6292125
326,Valley View Drive,93449,35.1430543,-120.6285486
43,Capanna Street,93449,35.1390089,-120.6265920
241,Coral Court,93449,35.1416686,-120.6303957
131,Coral Court,93449,35.1402470,-120.6295909
193,Wave Avenue,93449,35.1423301,-120.6282942
300,Valley View Drive,93449,35.1429475,-120.6281676
200,Valley View Drive,93449,35.1430515,-120.6277098
201,Surf Street,93449,35.1420690,-120.6291644
104,Highland Drive,93449,35.1402794,-120.6286807
271,Reef Court,93449,35.1408676,-120.6303477
200,Surf Street,93449,35.1422942,-120.6287181
141,Coral Court,93449,35.1404205,-120.6296760
110,Surf Street,93449,35.1409247,-120.6281589
181,Surf Street,93449,35.1418125,-120.6289697
350,Valley View Drive,93449,35.1428994,-120.6295937
158,Valley View Drive,93449,35.1434036,-120.6264860
190,Surf Street,93449,35.1421640,-120.6285849
87,Villa Court,93449,35.1400040,-120.6267624
140,Coral Court,93449,35.1407960,-120.6291975
290,Reef Court,93449,35.1413485,-120.6308286
140,Surf Street,93449,35.1413255,-120.6282528
151,Surf Street,93449,35.1413623,-120.6287736
251,Coral Court,93449,35.1416399,-120.6306292
280,Coral Court,93449,35.1421788,-120.6309234
83,Villa Court,93449,35.1394016,-120.6268082
195,Wave Avenue,93449,35.1425877,-120.6282875
230,Coral Court,93449,35.1418364,-120.6294571
117,Capanna Court,93449,35.1415766,-120.6270564
108,Capanna Court,93449,35.1417601,-120.6264381
232,Highland Drive,93449,35.1413114,-120.6266273
242,Highland Drive,93449,35.1412145,-120.6267974
128,Capanna Court,93449,35.1419758,-120.6268716
116,Whitecap Street,93449,35.1424728,-120.6258977
104,Wave Avenue,93449,35.1410228,-120.6273444
166,Whitecap Street,93449,35.1427256,-120.6268606
187,Valley View Drive,93449,35.1428616,-120.6272000
134,Wave Avenue,93449,35.1415365,-120.6273850
106,Whitecap Street,93449,35.1424213,-120.6257049
252,Highland Drive,93449,35.1411349,-120.6269890
147,Valley View Drive,93449,35.1429144,-120.6264249
165,Whitecap Street,93449,35.1423646,-120.6271628
167,Valley View Drive,93449,35.1430030,-120.6268374
174,Wave Avenue,93449,35.1421982,-120.6276427
105,Whitecap Street,93449,35.1420344,-120.6259086
154,Wave Avenue,93449,35.1418787,-120.6274756
145,Whitecap Street,93449,35.1422360,-120.6266911
177,Valley View Drive,93449,35.1429728,-120.6270109
127,Valley View Drive,93449,35.1428439,-120.6260717
156,Whitecap Street,93449,35.1426592,-120.6266627
157,Valley View Drive,93449,35.1429787,-120.6266090
107,Capanna Court,93449,35.1414427,-120.6269005
107,Valley View Drive,93449,35.1427276,-120.6256681
175,Whitecap Street,93449,35.1424304,-120.6273434
164,Wave Avenue,93449,35.1420494,-120.6275520
135,Whitecap Street,93449,35.1422011,-120.6265253
115,Whitecap Street,93449,35.1420743,-120.6260876
144,Wave Avenue,93449,35.1417074,-120.6274226
136,Whitecap Street,93449,35.1425722,-120.6262972
117,Valley View Drive,93449,35.1427676,-120.6258454
114,Wave Avenue,93449,35.1411872,-120.6273656
127,Capanna Court,93449,35.1418098,-120.6270944
202,Highland Drive,93449,35.1418182,-120.6260379
184,Wave Avenue,93449,35.1423702,-120.6277276
125,Whitecap Street,93449,35.1421366,-120.6263184
126,Whitecap Street,93449,35.1425172,-120.6260974
212,Highland Drive,93449,35.1416974,-120.6261540
137,Valley View Drive,93449,35.1428778,-120.6262349
155,Whitecap Street,93449,35.1422788,-120.6269370
124,Wave Avenue,93449,35.1413548,-120.6273815
188,Wave Avenue,93449,35.1425607,-120.6277953
118,Capanna Court,93449,35.1419326,-120.6265484
146,Whitecap Street,93449,35.1426181,-120.6264678
185,Whitecap Street,93449,35.1426393,-120.6275824
222,Highland Drive,93449,35.1415532,-120.6262880
124,El Viento Avenue,93449,35.1443450,-120.6250153
148,El Viento Avenue,93449,35.1434373,-120.6252458
128,El Viento Avenue,93449,35.1442204,-120.6251850
152,El Viento Avenue,93449,35.1432823,-120.6251930
132,El Viento Avenue,93449,35.1441036,-120.6252798
140,El Viento Avenue,93449,35.1437588,-120.6253702
158,El Viento Avenue,93449,35.1431070,-120.6251637
144,El Viento Avenue,93449,35.1435988,-120.6253296
162,El Viento Avenue,93449,35.1429412,-120.6251424
136,El Viento Avenue,93449,35.1439271,-120.6253552
170,El Viento Avenue,93449,35.1426059,-120.6251413
166,El Viento Avenue,93449,35.1427734,-120.6251111
174,El Viento Avenue,93449,35.1424393,-120.6251440
178,El Viento Avenue,93449,35.1422719,-120.6251951
120,El Viento Avenue,93449,35.1443972,-120.6245916
84,El Viento Avenue,93449,35.1438961,-120.6229751
96,El Viento Avenue,93449,35.1441264,-120.6234775
112,El Viento Avenue,93449,35.1444410,-120.6241903
88,El Viento Avenue,93449,35.1439467,-120.6231359
92,El Viento Avenue,93449,35.1440249,-120.6233253
76,El Viento,93449,35.1436800,-120.6226333
80,El Viento Avenue,93449,35.1437667,-120.6227898
116,El Viento Avenue,93449,35.1444634,-120.6244030
104,El Viento Avenue,93449,35.1443323,-120.6237979
108,El Viento Avenue,93449,35.1444004,-120.6239962
100,El Viento Avenue,93449,35.1442158,-120.6236637
40,El Viento Street,93449,35.1426529,-120.6204552
60,El Viento Street,93449,35.1432068,-120.6215961
56,South El Viento Street,93449,35.1430941,-120.6213506
44,El Viento Street,93449,35.1427658,-120.6206622
48,El Viento Street,93449,35.1428920,-120.6208860
72,El Viento Avenue,93449,35.1435028,-120.6222935
68,El Viento Avenue,93449,35.1434320,-120.6221228
52,El Viento Street,93449,35.1429825,-120.6211149
64,El Viento Street,93449,35.1433180,-120.6218633
36,El Viento,93449,35.1424356,-120.6198454
34,El Viento Street,93449,35.1422750,-120.6195846
120,La Colima,93449,35.1398289,-120.6202610
150,La Puesta Del Sol,93449,35.1403637,-120.6218890
140,La Puesta Del Sol,93449,35.1396163,-120.6220053
128,La Colima,93449,35.1395334,-120.6207466
144,La Puesta Del Sol,93449,35.1398895,-120.6219272
90,La Colima,93449,35.1411639,-120.6195749
20,El Viento Street,93449,35.1409586,-120.6186524
148,La Puesta Del Sol,93449,35.1401330,-120.6218792
136,La Colima,93449,35.1395993,-120.6214169
124,La Colima,93449,35.1395805,-120.6203747
106,La Colima,93449,35.1404111,-120.6192234
110,La Colima,93449,35.1402880,-120.6193794
114,La Colima,93449,35.1401747,-120.6196198
132,La Colima,93449,35.1395881,-120.6211064
158,La Puesta Del Sol,93449,35.1407744,-120.6218457
30,El Viento,93449,35.1419991,-120.6190357
24,El Viento Street,93449,35.1414776,-120.6185124
154,La Puesta Del Sol,93449,35.1405615,-120.6218721
162,La Puesta Del Sol,93449,35.1410466,-120.6219271
94,La Colima,93449,35.1410177,-120.6194506
32,El Viento,93449,35.1421693,-120.6192534
98,La Colima Street,93449,35.1408508,-120.6192266
28,El Viento,93449,35.1418510,-120.6188846
102,La Colima Street,93449,35.1406064,-120.6191728
26,El Viento,93449,35.1416725,-120.6186693
131,La Colima,93449,35.1400031,-120.6211289
146,La Floricita Street,93449,35.1403404,-120.6213913
123,La Colima,93449,35.1401319,-120.6205894
127,La Colima,93449,35.1400470,-120.6208678
130,La Floricita Street,93449,35.1406656,-120.6203529
115,La Colima,93449,35.1404077,-120.6201394
138,La Floricita Street,93449,35.1404219,-120.6208380
107,La Colima Street,93449,35.1406319,-120.6197259
119,La Colima,93449,35.1403026,-120.6203725
126,La Floricita Street,93449,35.1407986,-120.6201346
122,La Floricita Street,93449,35.1409206,-120.6199567
111,La Colima Street,93449,35.1405012,-120.6199333
142,La Floricita Street,93449,35.1403475,-120.6211034
135,La Colima,93449,35.1400118,-120.6214015
134,La Floricita Street,93449,35.1405250,-120.6205949
127,La Floricita Street,93449,35.1411279,-120.6204743
115,La Floricita Street,93449,35.1414943,-120.6198515
29,La Gaviota Street,93449,35.1415703,-120.6204084
119,La Floricita Street,93449,35.1413715,-120.6200660
131,La Floricita Street,93449,35.1410037,-120.6206595
135,La Floricita Street,93449,35.1409066,-120.6208624
143,La Floricita Street,93449,35.1407614,-120.6213663
21,La Gaviota Street,93449,35.1417669,-120.6199915
25,La Gaviota Street,93449,35.1416891,-120.6201856
17,La Gaviota Street,93449,35.1419122,-120.6197861
33,La Gaviota,93449,35.1414520,-120.6206366
37,La Gaviota,93449,35.1413460,-120.6208648
45,La Gaviota,93449,35.1411035,-120.6213326
139,La Floricita Street,93449,35.1408370,-120.6211067
123,La Floricita Street,93449,35.1412606,-120.6202568
41,La Gaviota,93449,35.1412639,-120.6211260
107,La Floricita Street,93449,35.1417582,-120.6194480
111,La Floricita Street,93449,35.1416045,-120.6196514
32,La Gaviota Street,93449,35.1419093,-120.6208832
44,La Gaviota Street,93449,35.1415553,-120.6215530
40,La Gaviota Street,93449,35.1416458,-120.6213183
36,La Gaviota Street,93449,35.1417764,-120.6210979
24,La Gaviota Street,93449,35.1421079,-120.6204313
20,La Gaviota Street,93449,35.1421883,-120.6202171
48,La Gaviota Street,93449,35.1414815,-120.6218578
28,La Gaviota Street,93449,35.1419900,-120.6206142
109,El Viento Avenue,93449,35.1439938,-120.6242202
101,El Viento Avenue,93449,35.1438445,-120.6238824
105,El Viento Avenue,93449,35.1439327,-120.6240326
111,El Viento Avenue,93449,35.1440048,-120.6244276
77,El Viento Avenue,93449,35.1433171,-120.6228559
115,El Viento Avenue,93449,35.1439893,-120.6246192
73,El Viento Avenue,93449,35.1432304,-120.6226710
119,El Viento Avenue,93449,35.1439339,-120.6247947
69,El Viento Avenue,93449,35.1431445,-120.6224931
97,El Viento Avenue,93449,35.1437581,-120.6236888
61,El Viento,93449,35.1429349,-120.6220800
53,El Viento Street,93449,35.1427111,-120.6216501
41,El Viento Street,93449,35.1423614,-120.6210665
49,El Viento,93449,35.1425912,-120.6214597
76,Valley View Drive,93449,35.1428526,-120.6228933
80,Valley View Drive,93449,35.1429355,-120.6230690
104,Valley View Drive,93449,35.1434612,-120.6240866
106,Valley View Drive,93449,35.1435464,-120.6242672
108,Valley View Drive,93449,35.1436146,-120.6244457
110,Valley View Drive,93449,35.1436395,-120.6246426
92,Valley View Drive,93449,35.1431963,-120.6235820
68,Valley View Drive,93449,35.1427023,-120.6225339
72,Valley View Drive,93449,35.1427845,-120.6227131
96,Valley View Drive,93449,35.1432912,-120.6237439
100,Valley View Drive,93449,35.1433765,-120.6239179
84,Valley View Drive,93449,35.1430208,-120.6232427
88,Valley View Drive,93449,35.1431186,-120.6234028
112,Valley View Drive,93449,35.1436457,-120.6248367
45,El Viento,93449,35.1424887,-120.6212399
65,El Viento Avenue,93449,35.1430731,-120.6223220
85,El Viento Avenue,93449,35.1434883,-120.6231881
81,El Viento Avenue,93449,35.1434043,-120.6230083
89,El Viento Avenue,93449,35.1435643,-120.6233539
93,El Viento Avenue,93449,35.1436724,-120.6235166
75,Valley View Drive,93449,35.1423951,-120.6228956
59,Valley View Drive,93449,35.1419261,-120.6220448
83,Valley View Drive,93449,35.1425670,-120.6232508
105,Valley View Drive,93449,35.1431417,-120.6243459
161,El Viento Avenue,93449,35.1429155,-120.6246577
87,Valley View Drive,93449,35.1426449,-120.6234362
157,El Viento Avenue,93449,35.1431057,-120.6246752
165,El Viento Avenue,93449,35.1427457,-120.6246449
153,El Viento Avenue,93449,35.1432703,-120.6247075
103,Valley View Drive,93449,35.1430262,-120.6241918
79,Valley View Drive,93449,35.1424763,-120.6231032
71,Valley View Drive,93449,35.1422960,-120.6226988
95,Valley View Drive,93449,35.1428299,-120.6238178
91,Valley View Drive,93449,35.1427633,-120.6236169
99,Valley View Drive,93449,35.1429637,-120.6240249
48,Whitecap Street,93449,35.1411302,-120.6228862
65,La Gaviota,93449,35.1418441,-120.6235391
57,La Gaviota,93449,35.1416591,-120.6232102
56,Whitecap Street,93449,35.1413369,-120.6233775
84,Whitecap Street,93449,35.1420086,-120.6245213
72,Whitecap Street,93449,35.1417181,-120.6240190
52,Whitecap Street,93449,35.1412357,-120.6232167
80,Whitecap Street,93449,35.1419224,-120.6243523
85,La Gaviota,93449,35.1422952,-120.6243656
61,La Gaviota,93449,35.1417267,-120.6233813
64,Whitecap Street,93449,35.1415307,-120.6237178
68,Whitecap Street,93449,35.1416342,-120.6238740
173,El Viento,93449,35.1421537,-120.6247140
53,La Gaviota,93449,35.1415191,-120.6230450
77,La Gaviota,93449,35.1421115,-120.6240394
169,El Viento,93449,35.1423696,-120.6246915
49,La Gaviota Drive,93449,35.1413561,-120.6227495
73,La Gaviota,93449,35.1420300,-120.6238936
60,Whitecap Street,93449,35.1414357,-120.6235612
76,Whitecap Street,93449,35.1418309,-120.6242077
69,La Gaviota,93449,35.1419144,-120.6237084
81,La Gaviota,93449,35.1422205,-120.6242046
83,Whitecap Street,93449,35.1415985,-120.6247384
47,Whitecap Street,93449,35.1407194,-120.6231694
80,La Garza Street,93449,35.1409268,-120.6244196
51,Whitecap Street,93449,35.1408224,-120.6234266
75,Whitecap Street,93449,35.1414269,-120.6244147
79,Whitecap Street,93449,35.1415047,-120.6245627
43,Whitecap Street,93449,35.1406802,-120.6229182
52,La Garza,93449,35.1403331,-120.6229788
60,La Garza Street,93449,35.1404500,-120.6235862
92,La Garza Street,93449,35.1411945,-120.6249555
88,La Garza Street,93449,35.1410900,-120.6247863
64,La Garza Street,93449,35.1405465,-120.6237789
76,La Garza Street,93449,35.1408279,-120.6242577
72,La Garza Street,93449,35.1407281,-120.6240997
55,Whitecap Street,93449,35.1409312,-120.6236141
67,Whitecap Street,93449,35.1412004,-120.6240783
68,La Garza Street,93449,35.1406446,-120.6239407
71,Whitecap Street,93449,35.1413173,-120.6242350
85,Whitecap Street,93449,35.1417010,-120.6249090
84,La Garza Street,93449,35.1410396,-120.6245927
56,La Garza,93449,35.1403997,-120.6233130
63,Whitecap Street,93449,35.1411148,-120.6239246
59,Whitecap Street,93449,35.1410219,-120.6237774
96,La Garza Street,93449,35.1412755,-120.6251348
73,La Garza Street,93449,35.1403908,-120.6243465
57,La Garza,93449,35.1399326,-120.6235979
61,La Garza Street,93449,35.1400999,-120.6238269
69,La Garza Street,93449,35.1402855,-120.6241727
65,La Garza Street,93449,35.1401666,-120.6239918
53,La Garza Street,93449,35.1398649,-120.6233639
77,La Garza,93449,35.1404971,-120.6245317
300,James Way,93449,35.1378386,-120.6256473
320,James Way,93449,35.1386737,-120.6248498
340,James Way,93449,35.1380925,-120.6248709
330,James Way,93449,35.1383108,-120.6248284
310,James Way,93449,35.1383048,-120.6253750
350,James Way,93449,35.1377409,-120.6250675
749,Shamrock Lane,93449,35.1383471,-120.6149991
705,Shamrock Lane,93449,35.1387267,-120.6164300
761,Shamrock Lane,93449,35.1381965,-120.6146643
773,Shamrock Lane,93449,35.1380227,-120.6142964
3,Paseo Ladera Lane,93449,35.1378852,-120.6215044
724,Shamrock Lane,93449,35.1390302,-120.6158399
725,Shamrock Lane,93449,35.1386149,-120.6157473
741,Shamrock Lane,93449,35.1384564,-120.6152378
4,Paseo Ladera Lane,93449,35.1378665,-120.6212520
2,Paseo Ladera Lane,93449,35.1378116,-120.6217452
717,Shamrock Lane,93449,35.1386813,-120.6160175
7,Paseo Ladera Lane,93449,35.1376841,-120.6204379
6,Paseo Ladera Lane,93449,35.1378608,-120.6207185
5,Paseo Ladera Lane,93449,35.1378854,-120.6210205
765,Shamrock Lane,93449,35.1381403,-120.6145264
728,Shamrock Lane,93449,35.1390017,-120.6156393
733,Shamrock Lane,93449,35.1385513,-120.6154867
709,Shamrock Lane,93449,35.1387109,-120.6162913
1,Paseo Ladera Lane,93449,35.1375151,-120.6219466
144,Summit Drive,93449,35.1360138,-120.6091807
849,Dugan Drive,93449,35.1379981,-120.6110000
966,South Skyline Drive,93449,35.1369581,-120.6072451
227,Elaine Way,93449,35.1368700,-120.6100428
148,Summit Drive,93449,35.1362121,-120.6090794
162,Summit Drive,93449,35.1370015,-120.6086744
172,Irish Way,93449,35.1360599,-120.6169341
192,Irish Way,93449,35.1356780,-120.6162108
289,Irish Way,93449,35.1362119,-120.6194866
120,Irish Way,93449,35.1369878,-120.6187601
111,Irish Way,93449,35.1365751,-120.6192132
275,Irish Way,93449,35.1358508,-120.6183521
200,Irish Way,93449,35.1354512,-120.6158734
157,Irish Way,93449,35.1358966,-120.6176659
108,Irish Way,93449,35.1370292,-120.6192810
140,Irish Way,93449,35.1366265,-120.6180250
128,Irish Way,93449,35.1368729,-120.6184488
152,Irish Way,93449,35.1364209,-120.6176016
168,Irish Way,93449,35.1361062,-120.6170539
288,Irish Way,93449,35.1357819,-120.6192728
132,Irish Way,93449,35.1367733,-120.6183091
144,Irish Way,93449,35.1365515,-120.6178929
247,Irish Way,93449,35.1351990,-120.6171747
156,Irish Way,93449,35.1363352,-120.6174788
255,Irish Way,93449,35.1353656,-120.6174745
264,Irish Way,93449,35.1351876,-120.6180741
149,Irish Way,93449,35.1360959,-120.6179736
124,Irish Way,93449,35.1369287,-120.6186111
224,Irish Way,93449,35.1345821,-120.6161995
263,Irish Way,93449,35.1355311,-120.6177508
148,Irish Way,93449,35.1364880,-120.6177500
160,Irish Way,93449,35.1362702,-120.6173305
195,Irish Way,93449,35.1352472,-120.6163825
179,Irish Way,93449,35.1355175,-120.6169402
139,Irish Way,93449,35.1363078,-120.6183952
251,Irish Way,93449,35.1352970,-120.6173369
143,Irish Way,93449,35.1362331,-120.6182516
184,Irish Way,93449,35.1358099,-120.6164581
281,Irish Way,93449,35.1360464,-120.6187596
136,Irish Way,93449,35.1366990,-120.6181741
169,Irish Way,93449,35.1356884,-120.6172404
117,Irish Way,93449,35.1365628,-120.6190153
183,Irish Way,93449,35.1354448,-120.6168042
112,Irish Way,93449,35.1370201,-120.6191027
100,Irish Way,93449,35.1370073,-120.6196561
147,Irish Way,93449,35.1361468,-120.6181150
161,Irish Way,93449,35.1358522,-120.6175381
165,Irish Way,93449,35.1357631,-120.6173793
239,Irish Way,93449,35.1350571,-120.6168845
123,Irish Way,93449,35.1365098,-120.6188362
129,Irish Way,93449,35.1364438,-120.6186928
191,Irish Way,93449,35.1352994,-120.6165186
180,Irish Way,93449,35.1359054,-120.6166417
271,Irish Way,93449,35.1356865,-120.6180279
280,Irish Way,93449,35.1356006,-120.6188625
235,Irish Way,93449,35.1349873,-120.6167448
101,Irish Way,93449,35.1366135,-120.6195859
107,Irish Way,93449,35.1366084,-120.6193791
279,Irish Way,93449,35.1359655,-120.6186299
153,Irish Way,93449,35.1359916,-120.6178038
212,Irish Way,93449,35.1349630,-120.6159789
208,Irish Way,93449,35.1350924,-120.6158817
164,Irish Way,93449,35.1361917,-120.6171996
116,Irish Way,93449,35.1370108,-120.6189386
243,Irish Way,93449,35.1351260,-120.6170241
196,Irish Way,93449,35.1355678,-120.6159911
135,Irish Way,93449,35.1363719,-120.6185339
287,Irish Way,93449,35.1362204,-120.6192691
283,Irish Way,93449,35.1361483,-120.6189003
267,Irish Way,93449,35.1356119,-120.6179111
276,Irish Way,93449,35.1354921,-120.6186620
220,Irish Way,93449,35.1347137,-120.6161431
204,Irish Way,93449,35.1352572,-120.6158319
231,Irish Way,93449,35.1349206,-120.6165958
187,Irish Way,93449,35.1353740,-120.6166514
277,Irish Way,93449,35.1359273,-120.6184976
285,Irish Way,93449,35.1362073,-120.6190894
272,Irish Way,93449,35.1353869,-120.6184657
176,Irish Way,93449,35.1359801,-120.6167789
216,Irish Way,93449,35.1348452,-120.6160751
273,Irish Way,93449,35.1357712,-120.6181979
268,Irish Way,93449,35.1352868,-120.6182647
175,Irish Way,93449,35.1356171,-120.6171099
104,Irish Way,93449,35.1370396,-120.6194579
188,Irish Way,93449,35.1357475,-120.6163414
259,Irish Way,93449,35.1354361,-120.6176161
284,Irish Way,93449,35.1357010,-120.6190533
104,Erna Way,93449,35.1353889,-120.6129993
108,Erna Way,93449,35.1356914,-120.6127812
859,North Oak Park Boulevard,93449,35.1339412,-120.6063755
865,North Oak Park Boulevard,93449,35.1337870,-120.6058175
825,Oak Park Boulevard,93449,35.1324597,-120.6079898
100,Crest Drive,93449,35.1349805,-120.6068779
829,North Oak Park Boulevard,93449,35.1336017,-120.6074929
877,North Oak Park Boulevard,93449,35.1320715,-120.6065066
881,North Oak Park Boulevard,93449,35.1319482,-120.6067812
867,North Oak Park Boulevard,93449,35.1331013,-120.6061467
955,Terry Drive,93449,35.1334306,-120.6130403
601,James Way,93449,35.1366715,-120.6207344
165,South Dolliver Street,93449,35.1340481,-120.6372229
444,South Dolliver Street,93449,35.1316764,-120.6325115
200,South Dolliver Street,93449,35.1347192,-120.6338984
200,Five Cities Drive,93449,35.1371041,-120.6301717
334,Five Cities Drive,93449,35.1370902,-120.6284171
890,North 4th Street,93449,35.1351753,-120.6218258
611,Five Cities Drive,93449,35.1351548,-120.6213891
2928,Shell Beach Road,93449,35.1708496,-120.6941434
2920,Shell Beach Road,93449,35.1691230,-120.6923905
99,South Dolliver Street,93449,35.1366691,-120.6383883
200,South Dolliver Street,93449,35.1331382,-120.6338521
200,South Dolliver Street,93449,35.1332109,-120.6339344
200,South Dolliver Street,93449,35.1332468,-120.6336801
200,South Dolliver Street,93449,35.1332824,-120.6340105
200,South Dolliver Street,93449,35.1333255,-120.6337601
200,South Dolliver Street,93449,35.1331737,-120.6335914
200,South Dolliver Street,93449,35.1330617,-120.6337707
390,Bello Street,93449,35.1433381,-120.6340240
200,South Dolliver Street,93449,35.1330620,-120.6333850
200,South Dolliver Street,93449,35.1329960,-120.6334814
200,South Dolliver Street,93449,35.1329339,-120.6335720
200,South Dolliver Street,93449,35.1338294,-120.6337943
200,South Dolliver Street,93449,35.1341759,-120.6324105
200,South Dolliver Street,93449,35.1341871,-120.6330113
200,South Dolliver Street,93449,35.1342089,-120.6325688
200,South Dolliver Street,93449,35.1345121,-120.6325883
200,South Dolliver Street,93449,35.1338577,-120.6328345
200,South Dolliver Street,93449,35.1342529,-120.6338121
200,South Dolliver Street,93449,35.1344912,-120.6328983
200,South Dolliver Street,93449,35.1343572,-120.6330878
200,South Dolliver Street,93449,35.1341705,-120.6337164
200,South Dolliver Street,93449,35.1344079,-120.6330229
200,South Dolliver Street,93449,35.1338673,-120.6324219
200,South Dolliver Street,93449,35.1341114,-120.6340014
200,South Dolliver Street,93449,35.1338086,-120.6328948
200,South Dolliver Street,93449,35.1340480,-120.6334949
200,South Dolliver Street,93449,35.1342938,-120.6337515
200,South Dolliver Street,93449,35.1348337,-120.6330481
200,South Dolliver Street,93449,35.1346216,-120.6331225
200,South Dolliver Street,93449,35.1341238,-120.6337769
200,South Dolliver Street,93449,35.1338736,-120.6334289
200,South Dolliver Street,93449,35.1350201,-120.6327964
200,South Dolliver Street,93449,35.1338356,-120.6324888
200,South Dolliver Street,93449,35.1345891,-120.6327713
200,South Dolliver Street,93449,35.1350306,-120.6325882
200,South Dolliver Street,93449,35.1339650,-120.6333122
200,South Dolliver Street,93449,35.1349750,-120.6328443
200,South Dolliver Street,93449,35.1344572,-120.6329467
200,South Dolliver Street,93449,35.1338328,-120.6335008
200,South Dolliver Street,93449,35.1342229,-120.6332562
200,South Dolliver Street,93449,35.1341850,-120.6343272
200,South Dolliver Street,93449,35.1335672,-120.6333824
200,South Dolliver Street,93449,35.1340931,-120.6334380
200,South Dolliver Street,93449,35.1342390,-120.6342571
200,South Dolliver Street,93449,35.1339482,-120.6327178
200,South Dolliver Street,93449,35.1341378,-120.6333823
200,South Dolliver Street,93449,35.1341598,-120.6339401
200,South Dolliver Street,93449,35.1349867,-120.6326467
200,South Dolliver Street,93449,35.1336905,-120.6336793
200,South Dolliver Street,93449,35.1341836,-120.6333275
200,South Dolliver Street,93449,35.1342601,-120.6335974
200,South Dolliver Street,93449,35.1343360,-120.6334964
200,South Dolliver Street,93449,35.1340092,-120.6332522
200,South Dolliver Street,93449,35.1351973,-120.6325190
200,South Dolliver Street,93449,35.1340537,-120.6331704
200,South Dolliver Street,93449,35.1347797,-120.6331224
200,South Dolliver Street,93449,35.1339326,-120.6333709
200,South Dolliver Street,93449,35.1343112,-120.6331378
200,South Dolliver Street,93449,35.1336980,-120.6326639
200,South Dolliver Street,93449,35.1351307,-120.6325623
200,South Dolliver Street,93449,35.1337860,-120.6335497
200,South Dolliver Street,93449,35.1340795,-120.6325351
200,South Dolliver Street,93449,35.1337063,-120.6332056
200,South Dolliver Street,93449,35.1338968,-120.6327795
200,South Dolliver Street,93449,35.1339769,-120.6328744
200,South Dolliver Street,93449,35.1339865,-120.6326542
200,South Dolliver Street,93449,35.1342688,-120.6331992
200,South Dolliver Street,93449,35.1335821,-120.6328445
200,South Dolliver Street,93449,35.1337515,-120.6336053
200,South Dolliver Street,93449,35.1345117,-120.6334593
200,South Dolliver Street,93449,35.1344622,-120.6335327
200,South Dolliver Street,93449,35.1344335,-120.6333696
200,South Dolliver Street,93449,35.1346799,-120.6326508
200,South Dolliver Street,93449,35.1347422,-120.6331628
200,South Dolliver Street,93449,35.1347411,-120.6326054
200,South Dolliver Street,93449,35.1346997,-120.6330157
200,South Dolliver Street,93449,35.1340306,-120.6325999
200,South Dolliver Street,93449,35.1346386,-120.6327041
200,South Dolliver Street,93449,35.1339098,-120.6336745
200,South Dolliver Street,93449,35.1338948,-120.6329753
200,South Dolliver Street,93449,35.1343388,-120.6336989
200,South Dolliver Street,93449,35.1337952,-120.6331076
200,South Dolliver Street,93449,35.1341206,-120.6324878
200,South Dolliver Street,93449,35.1341481,-120.6330761
200,South Dolliver Street,93449,35.1337814,-120.6325393
200,South Dolliver Street,93449,35.1346865,-120.6332339
200,South Dolliver Street,93449,35.1337592,-120.6331697
200,South Dolliver Street,93449,35.1336022,-120.6327793
200,South Dolliver Street,93449,35.1346459,-120.6332960
200,South Dolliver Street,93449,35.1334743,-120.6329519
200,South Dolliver Street,93449,35.1343716,-120.6336270
200,South Dolliver Street,93449,35.1348177,-120.6325857
200,South Dolliver Street,93449,35.1341081,-120.6331270
200,South Dolliver Street,93449,35.1334018,-120.6330907
200,South Dolliver Street,93449,35.1332568,-120.6332773
200,South Dolliver Street,93449,35.1349402,-120.6326972
200,South Dolliver Street,93449,35.1337715,-120.6329437
200,South Dolliver Street,93449,35.1347473,-120.6329615
200,South Dolliver Street,93449,35.1342405,-120.6329532
200,South Dolliver Street,93449,35.1332856,-120.6331855
200,South Dolliver Street,93449,35.1340025,-120.6335548
200,South Dolliver Street,93449,35.1345252,-120.6332448
200,South Dolliver Street,93449,35.1342784,-120.6329007
200,South Dolliver Street,93449,35.1344605,-120.6326714
200,South Dolliver Street,93449,35.1337226,-120.6329951
200,South Dolliver Street,93449,35.1342092,-120.6336760
200,South Dolliver Street,93449,35.1340818,-120.6338473
200,South Dolliver Street,93449,35.1344747,-120.6333186
200,South Dolliver Street,93449,35.1343906,-120.6334327
200,South Dolliver Street,93449,35.1341131,-120.6326877
200,South Dolliver Street,93449,35.1333663,-120.6331543
200,South Dolliver Street,93449,35.1336698,-120.6327445
200,South Dolliver Street,93449,35.1337598,-120.6326239
200,South Dolliver Street,93449,35.1346610,-120.6330799
200,South Dolliver Street,93449,35.1338777,-120.6337312
200,South Dolliver Street,93449,35.1339364,-120.6329262
200,South Dolliver Street,93449,35.1345698,-120.6331962
200,South Dolliver Street,93449,35.1336728,-120.6330750
200,South Dolliver Street,93449,35.1340238,-120.6328060
200,South Dolliver Street,93449,35.1340661,-120.6327336
200,South Dolliver Street,93449,35.1334324,-120.6330243
200,South Dolliver Street,93449,35.1341573,-120.6326270
200,South Dolliver Street,93449,35.1342484,-120.6325215
200,South Dolliver Street,93449,35.1350654,-120.6327269
200,South Dolliver Street,93449,35.1336266,-120.6336964
200,South Dolliver Street,93449,35.1336486,-120.6332692
200,South Dolliver Street,93449,35.1344215,-120.6335834
200,South Dolliver Street,93449,35.1346009,-120.6333412
200,South Dolliver Street,93449,35.1343030,-120.6324480
200,South Dolliver Street,93449,35.1351169,-120.6326639
200,South Dolliver Street,93449,35.1339732,-120.6324149
200,South Dolliver Street,93449,35.1339629,-120.6336085
200,South Dolliver Street,93449,35.1345606,-120.6328573
200,South Dolliver Street,93449,35.1348968,-120.6327579
200,South Dolliver Street,93449,35.1344208,-120.6327201
200,South Dolliver Street,93449,35.1335161,-120.6329022
200,South Dolliver Street,93449,35.1343730,-120.6327784
200,South Dolliver Street,93449,35.1344003,-120.6325759
200,South Dolliver Street,93449,35.1345582,-120.6334035
200,South Dolliver Street,93449,35.1338447,-120.6330440
200,South Dolliver Street,93449,35.1343232,-120.6328343
200,South Dolliver Street,93449,35.1345321,-120.6337128
200,South Dolliver Street,93449,35.1346283,-120.6335814
200,South Dolliver Street,93449,35.1347163,-120.6334604
200,South Dolliver Street,93449,35.1347522,-120.6334062
200,South Dolliver Street,93449,35.1347987,-120.6333513
200,South Dolliver Street,93449,35.1348900,-120.6332269
200,South Dolliver Street,93449,35.1349401,-120.6331616
200,South Dolliver Street,93449,35.1349773,-120.6330977
200,South Dolliver Street,93449,35.1350361,-120.6330325
200,South Dolliver Street,93449,35.1350769,-120.6329941
200,South Dolliver Street,93449,35.1351245,-120.6329212
200,South Dolliver Street,93449,35.1351602,-120.6328614
200,South Dolliver Street,93449,35.1352056,-120.6328007
200,South Dolliver Street,93449,35.1352499,-120.6327433
200,South Dolliver Street,93449,35.1352989,-120.6326925
200,South Dolliver Street,93449,35.1342826,-120.6341826
200,South Dolliver Street,93449,35.1343337,-120.6341284
200,South Dolliver Street,93449,35.1343773,-120.6340643
200,South Dolliver Street,93449,35.1344144,-120.6340095
200,South Dolliver Street,93449,35.1344554,-120.6339573
200,South Dolliver Street,93449,35.1345142,-120.6338863
200,South Dolliver Street,93449,35.1345456,-120.6338297
200,South Dolliver Street,93449,35.1346064,-120.6337943
200,South Dolliver Street,93449,35.1346437,-120.6337348
200,South Dolliver Street,93449,35.1346900,-120.6336532
200,South Dolliver Street,93449,35.1347426,-120.6335998
200,South Dolliver Street,93449,35.1347879,-120.6335389
200,South Dolliver Street,93449,35.1348190,-120.6334885
200,South Dolliver Street,93449,35.1348696,-120.6334308
200,South Dolliver Street,93449,35.1349199,-120.6333668
200,South Dolliver Street,93449,35.1349680,-120.6333052
200,South Dolliver Street,93449,35.1350045,-120.6332426
200,South Dolliver Street,93449,35.1350554,-120.6331842
200,South Dolliver Street,93449,35.1351042,-120.6331160
200,South Dolliver Street,93449,35.1351556,-120.6330546
200,South Dolliver Street,93449,35.1351874,-120.6330029
200,South Dolliver Street,93449,35.1352325,-120.6329332
200,South Dolliver Street,93449,35.1352852,-120.6328743
200,South Dolliver Street,93449,35.1353340,-120.6328171
200,South Dolliver Street,93449,35.1353791,-120.6327634
200,South Dolliver Street,93449,35.1354019,-120.6326911
200,South Dolliver Street,93449,35.1344480,-120.6343777
200,South Dolliver Street,93449,35.1349531,-120.6336214
200,South Dolliver Street,93449,35.1349964,-120.6335639
200,South Dolliver Street,93449,35.1350383,-120.6335052
200,South Dolliver Street,93449,35.1350849,-120.6334430
200,South Dolliver Street,93449,35.1351242,-120.6333913
200,South Dolliver Street,93449,35.1351718,-120.6333308
200,South Dolliver Street,93449,35.1352197,-120.6332721
200,South Dolliver Street,93449,35.1352649,-120.6332133
200,South Dolliver Street,93449,35.1353066,-120.6331396
200,South Dolliver Street,93449,35.1353528,-120.6330971
200,South Dolliver Street,93449,35.1353906,-120.6330286
200,South Dolliver Street,93449,35.1354434,-120.6329817
200,South Dolliver Street,93449,35.1355095,-120.6329154
200,South Dolliver Street,93449,35.1355168,-120.6328470
200,South Dolliver Street,93449,35.1355755,-120.6327936
200,South Dolliver Street,93449,35.1356351,-120.6327557
200,South Dolliver Street,93449,35.1344826,-120.6342954
200,South Dolliver Street,93449,35.1345467,-120.6342561
200,South Dolliver Street,93449,35.1345650,-120.6341733
200,South Dolliver Street,93449,35.1346351,-120.6341435
200,South Dolliver Street,93449,35.1346698,-120.6340826
200,South Dolliver Street,93449,35.1347224,-120.6340217
200,South Dolliver Street,93449,35.1347565,-120.6339680
200,South Dolliver Street,93449,35.1347902,-120.6338866
200,South Dolliver Street,93449,35.1348370,-120.6338159
200,South Dolliver Street,93449,35.1349028,-120.6337817
200,South Dolliver Street,93449,35.1349477,-120.6337228
200,South Dolliver Street,93449,35.1357088,-120.6327227
200,South Dolliver Street,93449,35.1345271,-120.6345673
200,South Dolliver Street,93449,35.1345645,-120.6345094
200,South Dolliver Street,93449,35.1346159,-120.6344477
200,South Dolliver Street,93449,35.1346581,-120.6343796
200,South Dolliver Street,93449,35.1347157,-120.6343325
200,South Dolliver Street,93449,35.1347552,-120.6342662
200,South Dolliver Street,93449,35.1347989,-120.6342254
200,South Dolliver Street,93449,35.1348419,-120.6341635
200,South Dolliver Street,93449,35.1348961,-120.6341147
200,South Dolliver Street,93449,35.1349393,-120.6340433
200,South Dolliver Street,93449,35.1349896,-120.6339858
200,South Dolliver Street,93449,35.1350143,-120.6339150
200,South Dolliver Street,93449,35.1350612,-120.6338598
200,South Dolliver Street,93449,35.1351091,-120.6337913
200,South Dolliver Street,93449,35.1351478,-120.6337365
200,South Dolliver Street,93449,35.1351962,-120.6336764
200,South Dolliver Street,93449,35.1352416,-120.6336199
200,South Dolliver Street,93449,35.1352863,-120.6335599
200,South Dolliver Street,93449,35.1353334,-120.6334998
200,South Dolliver Street,93449,35.1353714,-120.6334322
200,South Dolliver Street,93449,35.1354175,-120.6333738
200,South Dolliver Street,93449,35.1355762,-120.6331785
200,South Dolliver Street,93449,35.1356172,-120.6331330
200,South Dolliver Street,93449,35.1356705,-120.6330697
200,South Dolliver Street,93449,35.1357096,-120.6330121
200,South Dolliver Street,93449,35.1357641,-120.6329548
200,South Dolliver Street,93449,35.1357889,-120.6328904
200,South Dolliver Street,93449,35.1358561,-120.6328348
200,South Dolliver Street,93449,35.1358786,-120.6327663
200,South Dolliver Street,93449,35.1345893,-120.6346516
200,South Dolliver Street,93449,35.1346353,-120.6345951
200,South Dolliver Street,93449,35.1346795,-120.6345320
200,South Dolliver Street,93449,35.1347338,-120.6344366
200,South Dolliver Street,93449,35.1350867,-120.6340024
200,South Dolliver Street,93449,35.1351354,-120.6339421
200,South Dolliver Street,93449,35.1351854,-120.6338792
200,South Dolliver Street,93449,35.1352194,-120.6338193
200,South Dolliver Street,93449,35.1352708,-120.6337646
200,South Dolliver Street,93449,35.1353186,-120.6337068
200,South Dolliver Street,93449,35.1353625,-120.6336467
200,South Dolliver Street,93449,35.1354078,-120.6335897
200,South Dolliver Street,93449,35.1354492,-120.6335360
200,South Dolliver Street,93449,35.1354946,-120.6334673
200,South Dolliver Street,93449,35.1359692,-120.6328556
200,South Dolliver Street,93449,35.1360008,-120.6327991
200,South Dolliver Street,93449,35.1360516,-120.6327316
200,South Dolliver Street,93449,35.1360765,-120.6326452
200,South Dolliver Street,93449,35.1361152,-120.6325820
200,South Dolliver Street,93449,35.1361924,-120.6325393
200,South Dolliver Street,93449,35.1345928,-120.6349615
200,South Dolliver Street,93449,35.1346507,-120.6348756
200,South Dolliver Street,93449,35.1347018,-120.6348215
200,South Dolliver Street,93449,35.1347428,-120.6347574
200,South Dolliver Street,93449,35.1347982,-120.6346994
200,South Dolliver Street,93449,35.1349715,-120.6345386
200,South Dolliver Street,93449,35.1350325,-120.6344629
200,South Dolliver Street,93449,35.1350821,-120.6344166
200,South Dolliver Street,93449,35.1351283,-120.6343514
200,South Dolliver Street,93449,35.1351635,-120.6342850
200,South Dolliver Street,93449,35.1352137,-120.6342337
200,South Dolliver Street,93449,35.1352615,-120.6341710
200,South Dolliver Street,93449,35.1353058,-120.6341059
200,South Dolliver Street,93449,35.1353937,-120.6339943
200,South Dolliver Street,93449,35.1354253,-120.6339349
200,South Dolliver Street,93449,35.1354786,-120.6338901
200,South Dolliver Street,93449,35.1355224,-120.6338240
200,South Dolliver Street,93449,35.1355606,-120.6337468
200,South Dolliver Street,93449,35.1356181,-120.6336937
200,South Dolliver Street,93449,35.1356642,-120.6336292
200,South Dolliver Street,93449,35.1357012,-120.6335762
200,South Dolliver Street,93449,35.1357574,-120.6335152
200,South Dolliver Street,93449,35.1358083,-120.6334451
200,South Dolliver Street,93449,35.1358528,-120.6333882
200,South Dolliver Street,93449,35.1358944,-120.6333349
200,South Dolliver Street,93449,35.1359327,-120.6332810
200,South Dolliver Street,93449,35.1359790,-120.6332143
200,South Dolliver Street,93449,35.1360334,-120.6331574
200,South Dolliver Street,93449,35.1360698,-120.6331058
200,South Dolliver Street,93449,35.1361135,-120.6330328
200,South Dolliver Street,93449,35.1361591,-120.6329663
200,South Dolliver Street,93449,35.1361983,-120.6328977
200,South Dolliver Street,93449,35.1362473,-120.6328570
200,South Dolliver Street,93449,35.1362941,-120.6327969
200,South Dolliver Street,93449,35.1363390,-120.6327397
200,South Dolliver Street,93449,35.1363737,-120.6326855
200,South Dolliver Street,93449,35.1339982,-120.6344293
200,South Dolliver Street,93449,35.1339308,-120.6345226
200,South Dolliver Street,93449,35.1338613,-120.6346053
200,South Dolliver Street,93449,35.1337935,-120.6346980
200,South Dolliver Street,93449,35.1337330,-120.6347904
200,South Dolliver Street,93449,35.1337061,-120.6349790
200,South Dolliver Street,93449,35.1337791,-120.6350450
200,South Dolliver Street,93449,35.1338450,-120.6351227
200,South Dolliver Street,93449,35.1339098,-120.6352075
200,South Dolliver Street,93449,35.1339784,-120.6352702
200,South Dolliver Street,93449,35.1340454,-120.6353402
200,South Dolliver Street,93449,35.1341078,-120.6354142
200,South Dolliver Street,93449,35.1342375,-120.6354162
200,South Dolliver Street,93449,35.1343072,-120.6353232
200,South Dolliver Street,93449,35.1343672,-120.6352334
200,South Dolliver Street,93449,35.1344352,-120.6351494
200,South Dolliver Street,93449,35.1344991,-120.6350652
200,South Dolliver Street,93449,35.1343716,-120.6349323
200,South Dolliver Street,93449,35.1342971,-120.6348544
200,South Dolliver Street,93449,35.1342314,-120.6347791
200,South Dolliver Street,93449,35.1341603,-120.6346999
200,South Dolliver Street,93449,35.1340918,-120.6346255
200,South Dolliver Street,93449,35.1339707,-120.6347680
200,South Dolliver Street,93449,35.1340429,-120.6348448
200,South Dolliver Street,93449,35.1341134,-120.6349226
200,South Dolliver Street,93449,35.1341807,-120.6350014
200,South Dolliver Street,93449,35.1342391,-120.6350780
200,South Dolliver Street,93449,35.1341717,-120.6352023
200,South Dolliver Street,93449,35.1340990,-120.6351217
200,South Dolliver Street,93449,35.1340299,-120.6350448
200,South Dolliver Street,93449,35.1339612,-120.6349659
200,South Dolliver Street,93449,35.1338839,-120.6348937
333,Five Cities Drive,93449,35.1356495,-120.6289280
333,Five Cities Drive,93449,35.1358277,-120.6276755
555,Five Cities Drive,93449,35.1354112,-120.6243079
555,Five Cities Drive,93449,35.1351217,-120.6238739
2100,Shell Beach Road,93449,35.1592326,-120.6788157
680,Wadsworth Avenue,93449,35.1446452,-120.6380848
713,Shamrock Lane,93449,35.1386986,-120.6161683
721,Shamrock Lane,93449,35.1386643,-120.6158999
729,Shamrock Lane,93449,35.1385899,-120.6156348
737,Shamrock Lane,93449,35.1385123,-120.6153796
745,Shamrock Lane,93449,35.1384204,-120.6151356
753,Shamrock Lane,93449,35.1383007,-120.6148994
757,Shamrock Lane,93449,35.1382373,-120.6147622
769,Shamrock Lane,93449,35.1380904,-120.6144249
777,Shamrock Lane,93449,35.1379776,-120.6142007
100,Rancho Pismo Drive,93449,35.1453402,-120.6309999
2770,Shell Beach Road,93449,35.1666787,-120.6902980
2701,Price Street,93449,35.1537580,-120.6650079
895,North Oak Park Boulevard,93449,35.1320341,-120.6071346
829,Oak Park Boulevard,93449,35.1332707,-120.6075564
871,North Oak Park Boulevard,93449,35.1322558,-120.6064442
875,North Oak Park Boulevard,93449,35.1321845,-120.6064696
891,North Oak Park Boulevard,93449,35.1320065,-120.6070209
857,North Oak Park Boulevard,93449,35.1339532,-120.6064285
863,North Oak Park Boulevard,93449,35.1339141,-120.6062632
893,North Oak Park Boulevard,93449,35.1320195,-120.6070741
885,North Oak Park Boulevard,93449,35.1319736,-120.6068864
861,North Oak Park Boulevard,93449,35.1339284,-120.6063195
889,North Oak Park Boulevard,93449,35.1319910,-120.6069576
897,North Oak Park Boulevard,93449,35.1320504,-120.6072016
853,North Oak Park Boulevard,93449,35.1339789,-120.6065413
869,North Oak Park Boulevard,93449,35.1323299,-120.6064177
122,Clydell Court,93449,35.1452336,-120.6253796
126,Clydell Court,93449,35.1453498,-120.6256280
202,Cima De Colina Way,93449,35.1441633,-120.6263855
205,Cima De Colina Way,93449,35.1439593,-120.6259511
206,Cima De Colina Way,93449,35.1443025,-120.6263369
209,Cima De Colina Way,93449,35.1441215,-120.6258939
210,Cima De Colina Way,93449,35.1444310,-120.6262761
213,Cima De Colina Way,93449,35.1442769,-120.6258268
217,Cima De Colina Way,93449,35.1444232,-120.6257217
218,Cima De Colina Way,93449,35.1446988,-120.6261475
221,Cima De Colina Way,93449,35.1445803,-120.6256344
222,Cima De Colina Way,93449,35.1448095,-120.6260607
225,Cima De Colina Way,93449,35.1447114,-120.6255037
226,Cima De Colina Way,93449,35.1449197,-120.6259702
230,Cima De Colina Way,93449,35.1450402,-120.6258559
214,Cima De Colina Way,93449,35.1445657,-120.6262148
2051,Costa del Sol,93449,35.1610068,-120.6780747
1275,Costa Brava,93449,35.1579366,-120.6668775
1284,Costa Brava,93449,35.1579284,-120.6680472
1277,Costa Brava,93449,35.1579610,-120.6670918
1282,Costa Brava,93449,35.1578483,-120.6678770
1289,Costa Brava,93449,35.1585030,-120.6681580
1823,Costa Brava,93449,35.1612198,-120.6757143
1825,Costa del Sol,93449,35.1603685,-120.6763052
1832,Costa del Sol,93449,35.1606284,-120.6761453
1836,Costa Brava,93449,35.1614937,-120.6755812
1837,Costa del Sol,93449,35.1604455,-120.6765155
1839,Costa Brava,93449,35.1612552,-120.6757949
1863,Costa Brava,93449,35.1613356,-120.6759425
1867,Costa del Sol,93449,35.1605377,-120.6767034
1870,Costa del Sol,93449,35.1607843,-120.6764336
1885,Costa del Sol,93449,35.1606606,-120.6768011
1896,Costa Brava,93449,35.1616366,-120.6758815
1897,Costa Brava,93449,35.1614155,-120.6761425
1915,Costa Brava,93449,35.1615273,-120.6762715
1937,Costa del Sol,93449,35.1609154,-120.6769751
1943,Costa Brava,93449,35.1616707,-120.6763965
1944,Costa del Sol,93449,35.1612639,-120.6769424
1958,Costa del Sol,93449,35.1612485,-120.6770663
1963,Costa del Sol,93449,35.1608576,-120.6772386
1972,Costa del Sol,93449,35.1612337,-120.6771974
1986,Costa del Sol,93449,35.1612127,-120.6773355
1987,Costa del Sol,93449,35.1608651,-120.6774261
2000,Costa del Sol,93449,35.1612162,-120.6775060
2011,Costa del Sol,93449,35.1609089,-120.6776060
2028,Costa del Sol,93449,35.1612783,-120.6777381
2031,Costa del Sol,93449,35.1609575,-120.6777828
2042,Costa del Sol,93449,35.1613137,-120.6778475
2056,Costa del Sol,93449,35.1613976,-120.6779911
2070,Costa del Sol,93449,35.1613746,-120.6781189
2084,Costa del Sol,93449,35.1613909,-120.6782115
2100,Costa del Sol,93449,35.1614400,-120.6785524
2114,Costa del Sol,93449,35.1614479,-120.6786943
110,Clydell Court,93449,35.1448761,-120.6247157
166,Clydell Court,93449,35.1457817,-120.6286146
214,Vincente Court,93449,35.1454915,-120.6290032
167,Clydell Court,93449,35.1455159,-120.6293099
162,Clydell Court,93449,35.1456876,-120.6284001
215,Santos Way,93449,35.1451275,-120.6270648
211,Santos Way,93449,35.1449521,-120.6271423
207,Santos Way,93449,35.1447782,-120.6272094
203,Santos Way,93449,35.1446302,-120.6272842
218,Santos Way,93449,35.1451583,-120.6275693
214,Santos Way,93449,35.1450127,-120.6276374
210,Santos Way,93449,35.1448714,-120.6276996
206,Santos Way,93449,35.1447450,-120.6277558
209,Miguelito Lane,93449,35.1451315,-120.6278358
205,Miguelito Lane,93449,35.1449470,-120.6279196
201,Miguelito Lane,93449,35.1447959,-120.6279952
114,Clydell Court,93449,35.1449972,-120.6248785
138,Clydell Court,93449,35.1454439,-120.6265757
142,Clydell Court,93449,35.1454873,-120.6268711
146,Clydell Court,93449,35.1455185,-120.6271805
150,Clydell Court,93449,35.1455319,-120.6275280
154,Clydell Court,93449,35.1455668,-120.6278406
158,Clydell Court,93449,35.1455893,-120.6281609
212,Miguelito Lane,93449,35.1452254,-120.6283330
208,Miguelito Lane,93449,35.1450780,-120.6283906
204,Miguelito Lane,93449,35.1449332,-120.6284576
200,Miguelito Lane,93449,35.1448075,-120.6285067
217,Vincente Court,93449,35.1452928,-120.6285530
213,Vincente Court,93449,35.1451206,-120.6286304
209,Vincente Court,93449,35.1449657,-120.6287277
205,Vincente Court,93449,35.1449071,-120.6289757
202,Vincente Court,93449,35.1450236,-120.6292261
206,Vincente Court,93449,35.1452377,-120.6292696
210,Vincente Court,93449,35.1453983,-120.6291380
171,Clydell Court,93449,35.1456070,-120.6294367
175,Clydell Court,93449,35.1456803,-120.6295892
179,Clydell Court,93449,35.1458206,-120.6297072
183,Clydell Court,93449,35.1459925,-120.6297286
1555,Costa del Sol,93449,35.1598088,-120.6734024
1504,Costa del Sol,93449,35.1593453,-120.6735197
1505,Costa del Sol,93449,35.1597448,-120.6732518
1554,Costa del Sol,93449,35.1594079,-120.6736551
1405,Costa del Sol,93449,35.1596138,-120.6729994
1455,Costa del Sol,93449,35.1596762,-120.6731212
1454,Costa del Sol,93449,35.1592796,-120.6733932
1404,Costa del Sol,93449,35.1592216,-120.6732568
207,Princessa Lane,93449,35.1443179,-120.6266479
211,Princessa Lane,93449,35.1445190,-120.6265851
215,Princessa Lane,93449,35.1446920,-120.6265030
1508,Costa Brava,93449,35.1599997,-120.6730939
1558,Costa Brava,93449,35.1600489,-120.6732252
216,Princessa Lane,93449,35.1449621,-120.6268834
208,Princessa Lane,93449,35.1446730,-120.6270154
219,Princessa Lane,93449,35.1448653,-120.6264176
223,Princessa Lane,93449,35.1450460,-120.6262709
204,Princessa Lane,93449,35.1445240,-120.6270808
220,Princessa Lane,93449,35.1450971,-120.6268328
212,Princessa Lane,93449,35.1448166,-120.6269638
1408,Costa Brava,93449,35.1598653,-120.6728250
1458,Costa Brava,93449,35.1599229,-120.6729624
1407,Costa Brava,93449,35.1602454,-120.6725928
1457,Costa Brava,93449,35.1603035,-120.6727322
1507,Costa Brava,93449,35.1603558,-120.6728784
1557,Costa Brava,93449,35.1604031,-120.6730142
870,Price Street,93449,35.1427800,-120.6409043
860,Price Street,93449,35.1427341,-120.6408278
801,Dolliver Street,93449,35.1413512,-120.6424013
197,Pomeroy Avenue,93449,35.1401583,-120.6424100
791,Price Street,93449,35.1420836,-120.6408009
783,Price Street,93449,35.1420312,-120.6407325
781,Price Street,93449,35.1419798,-120.6406823
781,Price Street,93449,35.1419580,-120.6406567
779,Price Street,93449,35.1419274,-120.6406102
601,Price Street,93449,35.1410423,-120.6396594
200,South Dolliver Street,93449,35.1353459,-120.6340564
165,South Dolliver Street,93449,35.1319344,-120.6370942
165,South Dolliver Street,93449,35.1325314,-120.6371463
165,South Dolliver Street,93449,35.1334198,-120.6362088
165,South Dolliver Street,93449,35.1333046,-120.6352150
165,South Dolliver Street,93449,35.1332564,-120.6352768
165,South Dolliver Street,93449,35.1332124,-120.6353304
165,South Dolliver Street,93449,35.1331708,-120.6353907
165,South Dolliver Street,93449,35.1331236,-120.6354618
165,South Dolliver Street,93449,35.1330809,-120.6355167
165,South Dolliver Street,93449,35.1330334,-120.6355882
165,South Dolliver Street,93449,35.1329953,-120.6356388
165,South Dolliver Street,93449,35.1329525,-120.6356992
165,South Dolliver Street,93449,35.1329009,-120.6357756
165,South Dolliver Street,93449,35.1328539,-120.6358440
165,South Dolliver Street,93449,35.1328089,-120.6359004
165,South Dolliver Street,93449,35.1327649,-120.6359607
165,South Dolliver Street,93449,35.1327277,-120.6360224
165,South Dolliver Street,93449,35.1326849,-120.6360814
165,South Dolliver Street,93449,35.1326433,-120.6361434
165,South Dolliver Street,93449,35.1325405,-120.6362783
165,South Dolliver Street,93449,35.1324859,-120.6363536
165,South Dolliver Street,93449,35.1324360,-120.6364033
165,South Dolliver Street,93449,35.1323876,-120.6364636
165,South Dolliver Street,93449,35.1323438,-120.6365172
165,South Dolliver Street,93449,35.1323087,-120.6365803
165,South Dolliver Street,93449,35.1322605,-120.6366366
165,South Dolliver Street,93449,35.1322221,-120.6366903
165,South Dolliver Street,93449,35.1321782,-120.6367519
165,South Dolliver Street,93449,35.1321354,-120.6368123
165,South Dolliver Street,93449,35.1320915,-120.6368807
165,South Dolliver Street,93449,35.1320435,-120.6369263
165,South Dolliver Street,93449,35.1320101,-120.6369826
165,South Dolliver Street,93449,35.1319687,-120.6370403
165,South Dolliver Street,93449,35.1318963,-120.6371449
165,South Dolliver Street,93449,35.1318517,-120.6372099
165,South Dolliver Street,93449,35.1318001,-120.6372760
165,South Dolliver Street,93449,35.1317609,-120.6373437
165,South Dolliver Street,93449,35.1317247,-120.6374511
165,South Dolliver Street,93449,35.1319542,-120.6373920
165,South Dolliver Street,93449,35.1319928,-120.6373277
165,South Dolliver Street,93449,35.1320523,-120.6372519
165,South Dolliver Street,93449,35.1321113,-120.6371731
165,South Dolliver Street,93449,35.1321551,-120.6371194
165,South Dolliver Street,93449,35.1322046,-120.6370551
165,South Dolliver Street,93449,35.1322462,-120.6370014
165,South Dolliver Street,93449,35.1322944,-120.6369417
165,South Dolliver Street,93449,35.1323406,-120.6368626
165,South Dolliver Street,93449,35.1323844,-120.6368016
165,South Dolliver Street,93449,35.1324250,-120.6367372
165,South Dolliver Street,93449,35.1324672,-120.6366886
165,South Dolliver Street,93449,35.1325215,-120.6366433
165,South Dolliver Street,93449,35.1325615,-120.6365706
165,South Dolliver Street,93449,35.1326082,-120.6365159
165,South Dolliver Street,93449,35.1325709,-120.6367640
165,South Dolliver Street,93449,35.1325379,-120.6368230
165,South Dolliver Street,93449,35.1324458,-120.6369571
165,South Dolliver Street,93449,35.1324941,-120.6368928
165,South Dolliver Street,93449,35.1323997,-120.6370175
165,South Dolliver Street,93449,35.1323591,-120.6370725
165,South Dolliver Street,93449,35.1323079,-120.6371275
165,South Dolliver Street,93449,35.1322679,-120.6371945
165,South Dolliver Street,93449,35.1322199,-120.6372576
165,South Dolliver Street,93449,35.1321793,-120.6373246
165,South Dolliver Street,93449,35.1321374,-120.6373887
165,South Dolliver Street,93449,35.1320946,-120.6374610
165,South Dolliver Street,93449,35.1334746,-120.6355181
165,South Dolliver Street,93449,35.1334363,-120.6355731
165,South Dolliver Street,93449,35.1332673,-120.6355892
165,South Dolliver Street,93449,35.1333178,-120.6355276
165,South Dolliver Street,93449,35.1333901,-120.6354041
165,South Dolliver Street,93449,35.1333510,-120.6354585
165,South Dolliver Street,93449,35.1334011,-120.6356281
165,South Dolliver Street,93449,35.1333605,-120.6356924
165,South Dolliver Street,93449,35.1333070,-120.6357417
165,South Dolliver Street,93449,35.1331341,-120.6360066
165,South Dolliver Street,93449,35.1330853,-120.6360643
165,South Dolliver Street,93449,35.1330469,-120.6361538
165,South Dolliver Street,93449,35.1332662,-120.6358145
165,South Dolliver Street,93449,35.1331839,-120.6359245
165,South Dolliver Street,93449,35.1332191,-120.6358601
165,South Dolliver Street,93449,35.1332146,-120.6356522
165,South Dolliver Street,93449,35.1331653,-120.6357166
165,South Dolliver Street,93449,35.1331258,-120.6357783
165,South Dolliver Street,93449,35.1330677,-120.6358494
165,South Dolliver Street,93449,35.1330438,-120.6358980
165,South Dolliver Street,93449,35.1330106,-120.6359667
165,South Dolliver Street,93449,35.1329794,-120.6360381
165,South Dolliver Street,93449,35.1329402,-120.6361002
165,South Dolliver Street,93449,35.1329123,-120.6361702
165,South Dolliver Street,93449,35.1327927,-120.6366417
165,South Dolliver Street,93449,35.1327674,-120.6367087
165,South Dolliver Street,93449,35.1326222,-120.6370212
165,South Dolliver Street,93449,35.1324615,-120.6372830
165,South Dolliver Street,93449,35.1323207,-120.6374712
165,South Dolliver Street,93449,35.1327331,-120.6368069
165,South Dolliver Street,93449,35.1323625,-120.6374185
165,South Dolliver Street,93449,35.1328166,-120.6365468
165,South Dolliver Street,93449,35.1325807,-120.6370940
165,South Dolliver Street,93449,35.1328735,-120.6362437
165,South Dolliver Street,93449,35.1328769,-120.6363107
165,South Dolliver Street,93449,35.1326970,-120.6368861
165,South Dolliver Street,93449,35.1326685,-120.6369504
165,South Dolliver Street,93449,35.1324929,-120.6372079
165,South Dolliver Street,93449,35.1324020,-120.6373474
165,South Dolliver Street,93449,35.1329348,-120.6366121
165,South Dolliver Street,93449,35.1328539,-120.6368284
165,South Dolliver Street,93449,35.1328255,-120.6369041
165,South Dolliver Street,93449,35.1327847,-120.6369773
165,South Dolliver Street,93449,35.1329109,-120.6366862
165,South Dolliver Street,93449,35.1328879,-120.6367640
165,South Dolliver Street,93449,35.1327565,-120.6370520
165,South Dolliver Street,93449,35.1327146,-120.6371100
165,South Dolliver Street,93449,35.1326696,-120.6371731
165,South Dolliver Street,93449,35.1326311,-120.6372334
165,South Dolliver Street,93449,35.1325882,-120.6372955
165,South Dolliver Street,93449,35.1325439,-120.6373592
165,South Dolliver Street,93449,35.1324891,-120.6374319
165,South Dolliver Street,93449,35.1324560,-120.6375094
165,South Dolliver Street,93449,35.1324195,-120.6375673
165,South Dolliver Street,93449,35.1330104,-120.6362216
165,South Dolliver Street,93449,35.1329857,-120.6363017
165,South Dolliver Street,93449,35.1329744,-120.6363804
165,South Dolliver Street,93449,35.1332399,-120.6362169
165,South Dolliver Street,93449,35.1332037,-120.6363161
165,South Dolliver Street,93449,35.1331708,-120.6363952
165,South Dolliver Street,93449,35.1331552,-120.6364898
165,South Dolliver Street,93449,35.1330941,-120.6367164
165,South Dolliver Street,93449,35.1330561,-120.6368368
165,South Dolliver Street,93449,35.1330227,-120.6369404
165,South Dolliver Street,93449,35.1329668,-120.6370376
165,South Dolliver Street,93449,35.1329196,-120.6371342
165,South Dolliver Street,93449,35.1328670,-120.6372334
165,South Dolliver Street,93449,35.1327990,-120.6373233
165,South Dolliver Street,93449,35.1327455,-120.6374131
165,South Dolliver Street,93449,35.1326902,-120.6375016
165,South Dolliver Street,93449,35.1326307,-120.6375905
165,South Dolliver Street,93449,35.1327671,-120.6376505
165,South Dolliver Street,93449,35.1328308,-120.6375593
165,South Dolliver Street,93449,35.1328900,-120.6374677
165,South Dolliver Street,93449,35.1329536,-120.6373675
165,South Dolliver Street,93449,35.1330052,-120.6372844
165,South Dolliver Street,93449,35.1330573,-120.6371922
165,South Dolliver Street,93449,35.1331104,-120.6370725
165,South Dolliver Street,93449,35.1331621,-120.6369598
165,South Dolliver Street,93449,35.1331949,-120.6368499
165,South Dolliver Street,93449,35.1332544,-120.6366188
165,South Dolliver Street,93449,35.1332695,-120.6365159
165,South Dolliver Street,93449,35.1333145,-120.6364140
165,South Dolliver Street,93449,35.1333550,-120.6362973
165,South Dolliver Street,93449,35.1333079,-120.6361122
165,South Dolliver Street,93449,35.1333704,-120.6360264
165,South Dolliver Street,93449,35.1334319,-120.6359325
165,South Dolliver Street,93449,35.1334965,-120.6358454
165,South Dolliver Street,93449,35.1335623,-120.6357649
165,South Dolliver Street,93449,35.1336030,-120.6356791
165,South Dolliver Street,93449,35.1334614,-120.6361364
165,South Dolliver Street,93449,35.1335283,-120.6360398
165,South Dolliver Street,93449,35.1335897,-120.6359634
165,South Dolliver Street,93449,35.1336402,-120.6358802
165,South Dolliver Street,93449,35.1336918,-120.6357937
165,South Dolliver Street,93449,35.1335492,-120.6363845
165,South Dolliver Street,93449,35.1334856,-120.6364811
165,South Dolliver Street,93449,35.1334538,-120.6365776
165,South Dolliver Street,93449,35.1333671,-120.6369290
165,South Dolliver Street,93449,35.1333364,-120.6370336
165,South Dolliver Street,93449,35.1332969,-120.6371436
165,South Dolliver Street,93449,35.1332497,-120.6372468
165,South Dolliver Street,93449,35.1331993,-120.6373421
165,South Dolliver Street,93449,35.1331456,-120.6374373
165,South Dolliver Street,93449,35.1330973,-120.6375352
165,South Dolliver Street,93449,35.1330425,-120.6376169
165,South Dolliver Street,93449,35.1329931,-120.6377148
165,South Dolliver Street,93449,35.1330556,-120.6378610
165,South Dolliver Street,93449,35.1331039,-120.6377685
165,South Dolliver Street,93449,35.1331532,-120.6376840
165,South Dolliver Street,93449,35.1332136,-120.6375928
165,South Dolliver Street,93449,35.1332827,-120.6374922
165,South Dolliver Street,93449,35.1333375,-120.6373890
165,South Dolliver Street,93449,35.1334088,-120.6372576
165,South Dolliver Street,93449,35.1334373,-120.6371677
165,South Dolliver Street,93449,35.1334582,-120.6370671
165,South Dolliver Street,93449,35.1335580,-120.6367292
165,South Dolliver Street,93449,35.1335865,-120.6366299
165,South Dolliver Street,93449,35.1336260,-120.6365146
165,South Dolliver Street,93449,35.1336863,-120.6364247
165,South Dolliver Street,93449,35.1337184,-120.6363403
165,South Dolliver Street,93449,35.1337882,-120.6362463
165,South Dolliver Street,93449,35.1338414,-120.6361622
165,South Dolliver Street,93449,35.1335993,-120.6362799
165,South Dolliver Street,93449,35.1336556,-120.6361773
165,South Dolliver Street,93449,35.1337247,-120.6360978
165,South Dolliver Street,93449,35.1337721,-120.6360294
165,South Dolliver Street,93449,35.1338459,-120.6359318
165,South Dolliver Street,93449,35.1339062,-120.6360667
165,South Dolliver Street,93449,35.1336909,-120.6374044
165,South Dolliver Street,93449,35.1336456,-120.6375184
165,South Dolliver Street,93449,35.1335925,-120.6376163
165,South Dolliver Street,93449,35.1335366,-120.6377229
165,South Dolliver Street,93449,35.1335051,-120.6378003
165,South Dolliver Street,93449,35.1334949,-120.6379063
165,South Dolliver Street,93449,35.1332558,-120.6379747
165,South Dolliver Street,93449,35.1332838,-120.6378775
165,South Dolliver Street,93449,35.1333172,-120.6377990
165,South Dolliver Street,93449,35.1333811,-120.6377132
165,South Dolliver Street,93449,35.1334285,-120.6376314
165,South Dolliver Street,93449,35.1334892,-120.6375201
165,South Dolliver Street,93449,35.1335816,-120.6373126
165,South Dolliver Street,93449,35.1335399,-120.6374134
165,South Dolliver Street,93449,35.1337239,-120.6373210
165,South Dolliver Street,93449,35.1336251,-120.6371993
165,South Dolliver Street,93449,35.1338077,-120.6370279
165,South Dolliver Street,93449,35.1337117,-120.6369112
165,South Dolliver Street,93449,35.1337361,-120.6368203
165,South Dolliver Street,93449,35.1338432,-120.6369122
165,South Dolliver Street,93449,35.1338705,-120.6368083
165,South Dolliver Street,93449,35.1339163,-120.6367017
165,South Dolliver Street,93449,35.1337705,-120.6366980
165,South Dolliver Street,93449,35.1338179,-120.6365907
165,South Dolliver Street,93449,35.1339588,-120.6366262
165,South Dolliver Street,93449,35.1338782,-120.6364901
165,South Dolliver Street,93449,35.1339314,-120.6363989
165,South Dolliver Street,93449,35.1339942,-120.6365357
165,South Dolliver Street,93449,35.1340572,-120.6364466
165,South Dolliver Street,93449,35.1339967,-120.6363060
165,South Dolliver Street,93449,35.1340746,-120.6361951
165,South Dolliver Street,93449,35.1341190,-120.6363714
165,South Dolliver Street,93449,35.1343213,-120.6364468
165,South Dolliver Street,93449,35.1342470,-120.6365484
165,South Dolliver Street,93449,35.1341780,-120.6366430
165,South Dolliver Street,93449,35.1341132,-120.6367459
165,South Dolliver Street,93449,35.1337230,-120.6378513
165,South Dolliver Street,93449,35.1337683,-120.6377367
165,South Dolliver Street,93449,35.1338099,-120.6376377
165,South Dolliver Street,93449,35.1338533,-120.6375302
165,South Dolliver Street,93449,35.1338911,-120.6374469
165,South Dolliver Street,93449,35.1339963,-120.6374708
165,South Dolliver Street,93449,35.1339684,-120.6375623
165,South Dolliver Street,93449,35.1339190,-120.6376629
165,South Dolliver Street,93449,35.1338784,-120.6377577
165,South Dolliver Street,93449,35.1338442,-120.6378581
165,South Dolliver Street,93449,35.1341027,-120.6377611
165,South Dolliver Street,93449,35.1341458,-120.6376747
165,South Dolliver Street,93449,35.1341776,-120.6375798
165,South Dolliver Street,93449,35.1342316,-120.6374732
165,South Dolliver Street,93449,35.1340606,-120.6368605
165,South Dolliver Street,93449,35.1340183,-120.6369669
165,South Dolliver Street,93449,35.1339884,-120.6370919
165,South Dolliver Street,93449,35.1339520,-120.6371888
165,South Dolliver Street,93449,35.1340682,-120.6372159
165,South Dolliver Street,93449,35.1341121,-120.6371050
165,South Dolliver Street,93449,35.1341387,-120.6370041
165,South Dolliver Street,93449,35.1341850,-120.6368985
165,South Dolliver Street,93449,35.1342449,-120.6367932
165,South Dolliver Street,93449,35.1343024,-120.6367016
165,South Dolliver Street,93449,35.1343649,-120.6366168
165,South Dolliver Street,93449,35.1345552,-120.6367080
165,South Dolliver Street,93449,35.1344943,-120.6367986
165,South Dolliver Street,93449,35.1344430,-120.6368858
165,South Dolliver Street,93449,35.1343756,-120.6370010
165,South Dolliver Street,93449,35.1343229,-120.6370926
165,South Dolliver Street,93449,35.1342796,-120.6373102
165,South Dolliver Street,93449,35.1343783,-120.6372193
165,South Dolliver Street,93449,35.1344452,-120.6371489
165,South Dolliver Street,93449,35.1345162,-120.6370497
165,South Dolliver Street,93449,35.1345837,-120.6369491
165,South Dolliver Street,93449,35.1346410,-120.6368596
165,South Dolliver Street,93449,35.1343355,-120.6374986
165,South Dolliver Street,93449,35.1343907,-120.6374701
165,South Dolliver Street,93449,35.1344515,-120.6374225
165,South Dolliver Street,93449,35.1344939,-120.6373501
165,South Dolliver Street,93449,35.1345541,-120.6372937
165,South Dolliver Street,93449,35.1346081,-120.6372247
165,South Dolliver Street,93449,35.1346657,-120.6371536
165,South Dolliver Street,93449,35.1347115,-120.6370936
165,South Dolliver Street,93449,35.1347491,-120.6370225
165,South Dolliver Street,93449,35.1347912,-120.6369642
165,South Dolliver Street,93449,35.1348184,-120.6368750
165,South Dolliver Street,93449,35.1342643,-120.6381984
165,South Dolliver Street,93449,35.1343356,-120.6381229
165,South Dolliver Street,93449,35.1343940,-120.6380645
165,South Dolliver Street,93449,35.1344576,-120.6379951
165,South Dolliver Street,93449,35.1345141,-120.6379147
165,South Dolliver Street,93449,35.1345607,-120.6378318
165,South Dolliver Street,93449,35.1350144,-120.6371811
165,South Dolliver Street,93449,35.1349684,-120.6372293
165,South Dolliver Street,93449,35.1349179,-120.6372831
165,South Dolliver Street,93449,35.1346009,-120.6377002
165,South Dolliver Street,93449,35.1346471,-120.6376451
165,South Dolliver Street,93449,35.1346898,-120.6375820
165,South Dolliver Street,93449,35.1347336,-120.6375257
165,South Dolliver Street,93449,35.1347831,-120.6374681
165,South Dolliver Street,93449,35.1348154,-120.6374111
165,South Dolliver Street,93449,35.1348658,-120.6373497
165,South Dolliver Street,93449,35.1351318,-120.6373129
165,South Dolliver Street,93449,35.1350627,-120.6373990
165,South Dolliver Street,93449,35.1350073,-120.6374752
165,South Dolliver Street,93449,35.1349234,-120.6375577
165,South Dolliver Street,93449,35.1348598,-120.6376495
165,South Dolliver Street,93449,35.1348080,-120.6377296
165,South Dolliver Street,93449,35.1349665,-120.6377088
165,South Dolliver Street,93449,35.1350493,-120.6376411
165,South Dolliver Street,93449,35.1351093,-120.6375603
165,South Dolliver Street,93449,35.1351682,-120.6374771
165,South Dolliver Street,93449,35.1350021,-120.6379449
165,South Dolliver Street,93449,35.1350723,-120.6378869
165,South Dolliver Street,93449,35.1351324,-120.6378172
165,South Dolliver Street,93449,35.1352127,-120.6377541
165,South Dolliver Street,93449,35.1352886,-120.6376867
165,South Dolliver Street,93449,35.1353292,-120.6375872
165,South Dolliver Street,93449,35.1354059,-120.6377464
165,South Dolliver Street,93449,35.1353602,-120.6378316
165,South Dolliver Street,93449,35.1352607,-120.6379218
165,South Dolliver Street,93449,35.1351688,-120.6380046
165,South Dolliver Street,93449,35.1350977,-120.6380634
165,South Dolliver Street,93449,35.1349977,-120.6381260
165,South Dolliver Street,93449,35.1349207,-120.6379908
165,South Dolliver Street,93449,35.1348516,-120.6380441
165,South Dolliver Street,93449,35.1346578,-120.6381071
165,South Dolliver Street,93449,35.1345996,-120.6381611
165,South Dolliver Street,93449,35.1345204,-120.6382218
165,South Dolliver Street,93449,35.1344757,-120.6382932
165,South Dolliver Street,93449,35.1347537,-120.6382352
165,South Dolliver Street,93449,35.1346692,-120.6382915
165,South Dolliver Street,93449,35.1345859,-120.6383573
165,South Dolliver Street,93449,35.1345174,-120.6384398
165,South Dolliver Street,93449,35.1345974,-120.6386553
165,South Dolliver Street,93449,35.1346736,-120.6385775
165,South Dolliver Street,93449,35.1347561,-120.6384948
165,South Dolliver Street,93449,35.1348404,-120.6384287
165,South Dolliver Street,93449,35.1349314,-120.6383784
165,South Dolliver Street,93449,35.1351680,-120.6382725
165,South Dolliver Street,93449,35.1352329,-120.6382037
165,South Dolliver Street,93449,35.1353125,-120.6381447
165,South Dolliver Street,93449,35.1353785,-120.6380773
165,South Dolliver Street,93449,35.1354293,-120.6380233
165,South Dolliver Street,93449,35.1354940,-120.6379486
165,South Dolliver Street,93449,35.1355804,-120.6378453
165,South Dolliver Street,93449,35.1356220,-120.6379837
165,South Dolliver Street,93449,35.1355519,-120.6380783
165,South Dolliver Street,93449,35.1354836,-120.6381591
165,South Dolliver Street,93449,35.1353920,-120.6382389
165,South Dolliver Street,93449,35.1353199,-120.6383130
165,South Dolliver Street,93449,35.1352272,-120.6383875
165,South Dolliver Street,93449,35.1350323,-120.6384937
165,South Dolliver Street,93449,35.1349555,-120.6385356
165,South Dolliver Street,93449,35.1348754,-120.6385910
165,South Dolliver Street,93449,35.1348033,-120.6386486
165,South Dolliver Street,93449,35.1347441,-120.6387069
165,South Dolliver Street,93449,35.1346818,-120.6387870
165,South Dolliver Street,93449,35.1346232,-120.6388685
165,South Dolliver Street,93449,35.1353032,-120.6390339
165,South Dolliver Street,93449,35.1352319,-120.6390865
165,South Dolliver Street,93449,35.1351732,-120.6391408
165,South Dolliver Street,93449,35.1350973,-120.6391985
165,South Dolliver Street,93449,35.1350265,-120.6392421
165,South Dolliver Street,93449,35.1352944,-120.6387988
165,South Dolliver Street,93449,35.1352154,-120.6388381
165,South Dolliver Street,93449,35.1351307,-120.6388850
165,South Dolliver Street,93449,35.1350476,-120.6389356
165,South Dolliver Street,93449,35.1349698,-120.6390063
165,South Dolliver Street,93449,35.1349042,-120.6390650
165,South Dolliver Street,93449,35.1348277,-120.6389323
165,South Dolliver Street,93449,35.1349174,-120.6388471
165,South Dolliver Street,93449,35.1350153,-120.6387864
165,South Dolliver Street,93449,35.1351035,-120.6387345
165,South Dolliver Street,93449,35.1352099,-120.6386740
165,South Dolliver Street,93449,35.1353991,-120.6385523
165,South Dolliver Street,93449,35.1354595,-120.6384970
165,South Dolliver Street,93449,35.1355280,-120.6384300
165,South Dolliver Street,93449,35.1355971,-120.6383619
165,South Dolliver Street,93449,35.1354811,-120.6386728
165,South Dolliver Street,93449,35.1355658,-120.6385933
165,South Dolliver Street,93449,35.1356437,-120.6385316
165,South Dolliver Street,93449,35.1357158,-120.6384501
165,South Dolliver Street,93449,35.1357860,-120.6383673
165,South Dolliver Street,93449,35.1356741,-120.6382822
165,South Dolliver Street,93449,35.1357391,-120.6381973
165,South Dolliver Street,93449,35.1358065,-120.6381189
165,South Dolliver Street,93449,35.1358834,-120.6382268
165,South Dolliver Street,93449,35.1356106,-120.6390037
165,South Dolliver Street,93449,35.1356631,-120.6389621
165,South Dolliver Street,93449,35.1357243,-120.6389118
165,South Dolliver Street,93449,35.1357838,-120.6388672
165,South Dolliver Street,93449,35.1358367,-120.6388129
165,South Dolliver Street,93449,35.1358910,-120.6387515
165,South Dolliver Street,93449,35.1359442,-120.6386926
165,South Dolliver Street,93449,35.1359900,-120.6386291
165,South Dolliver Street,93449,35.1354986,-120.6389195
165,South Dolliver Street,93449,35.1355568,-120.6388733
165,South Dolliver Street,93449,35.1356136,-120.6388270
165,South Dolliver Street,93449,35.1356769,-120.6387824
165,South Dolliver Street,93449,35.1357336,-120.6387415
165,South Dolliver Street,93449,35.1357756,-120.6386902
165,South Dolliver Street,93449,35.1358356,-120.6386288
165,South Dolliver Street,93449,35.1358776,-120.6385758
165,South Dolliver Street,93449,35.1359410,-120.6385232
165,South Dolliver Street,93449,35.1359374,-120.6389467
165,South Dolliver Street,93449,35.1360339,-120.6388826
165,South Dolliver Street,93449,35.1361148,-120.6388008
165,South Dolliver Street,93449,35.1361694,-120.6387136
270,Reef Court,93449,35.1413242,-120.6303161
987,Shaffer Lane,93449,35.1478242,-120.6427073
1272,Costa Brava,93449,35.1575295,-120.6669036
1264,Costa Brava,93449,35.1572820,-120.6661822
1262,Costa Brava,93449,35.1571485,-120.6659284
1281,Costa Brava,93449,35.1581615,-120.6675235
1283,Costa Brava,93449,35.1582245,-120.6676906
1287,Costa Brava,93449,35.1584014,-120.6680291
57,El Viento,93449,35.1428102,-120.6218648
229,Cima De Colina,93449,35.1448387,-120.6254201
118,Clydell Court,93449,35.1451305,-120.6251463
130,Clydell Court,93449,35.1454476,-120.6258708
1267,Costa Brava,93449,35.1577156,-120.6661501
22,El Viento,93449,35.1412269,-120.6184388
850,Wadsworth Street,93449,35.1476127,-120.6398542
980,Bakersfield Street,93449,35.1503302,-120.6402546
140,Morro Avenue,93449,35.1579302,-120.6755562
1286,Costa Brava,93449,35.1580010,-120.6682104
122,Seacliff Drive,93449,35.1614106,-120.6854331
242,Palomar Avenue,93449,35.1565054,-120.6746062
248,Palomar Avenue,93449,35.1563810,-120.6746960
244,Boeker Avenue,93449,35.1549625,-120.6708332
120,Longview Avenue,93449,35.1474841,-120.6404529
134,Clydell Court,93449,35.1454750,-120.6261862
200,Coral Court,93449,35.1412371,-120.6291764
531,Wadsworth Avenue,93449,35.1451763,-120.6410252
535,Wadsworth Avenue,93449,35.1452180,-120.6409675
801,Baxter Lane,93449,35.1481881,-120.6426106
