House number,Street name,Postal code,Latitude,Longitude
651,North Main Street,91768,34.0639927,-117.7524230
215,West Pearl Street,91768,34.0647683,-117.7527500
2200,North Orange Grove Avenue,91767,34.0861111,-117.7438880
1215,South Hamilton Boulevard,91766,34.0478000,-117.7626839
3033,Towne Avenue,91767,34.1025000,-117.7375000
625,South Garey Avenue,91766,34.0539011,-117.7506526
760,East Arrow Highway,91767,34.0897081,-117.7371990
2092,South Garey Avenue,91766,34.0340156,-117.7480271
3044,Temple Avenue,91766,34.0417126,-117.7984192
3052,Temple Avenue,91766,34.0417904,-117.7985373
2201,North White Avenue,91768,34.0908674,-117.7657828
1636,West Mission Boulevard,91766,34.0535744,-117.7767954
450,West Holt Avenue,91768,34.0619729,-117.7559326
40,Rio Rancho Road,91766,34.0302315,-117.7594232
68,Rio Rancho Road,91766,34.0282433,-117.7608197
701,Rio Rancho Road,91766-7018,34.0348920,-117.7558677
723,Rio Rancho Road,91766-7018,34.0351187,-117.7571283
785,Rio Rancho Road,91766,34.0337184,-117.7567702
2063,Rancho Valley Drive,91766,34.0332094,-117.7582320
3423,Pomona Boulevard,91768,34.0474844,-117.8109243
675,East Foothill Boulevard,91767,34.1077867,-117.7386586
141,West Foothill Boulevard,91767,34.1090426,-117.7499632
3176,North Garey Avenue,91767,34.1059802,-117.7482119
3298,North Garey Avenue,91767,34.1069856,-117.7469650
297,West Artesia Street,91768,34.0781284,-117.7554651
301Pomona,W Mission Blvd,91766,34.0552950,-117.7524358
2740,North Garey Avenue,91767,34.0951587,-117.7476684
110,Erie Street,91768,34.0589530,-117.7777368
211,Erie Street,91768,34.0594326,-117.7797321
786,North Garey Avenue,91767,34.0655263,-117.7507030
1045,North Garey Avenue,91767,34.0682200,-117.7532803
1911,Indian Hill Boulevard,91767,34.0783670,-117.7196740
1755,Indian Hill Boulevard,91767,34.0768200,-117.7195900
1335,North Dudley Street,91768,34.0709850,-117.7793880
2085,West Holt Avenue,91768-3329,34.0619559,-117.7872751
3395,Pomona Boulevard,91768,34.0480500,-117.8101000
3560,West Temple Avenue,91768,34.0486797,-117.8108657
2294,North Garey Avenue,91767,34.0897022,-117.7490428
756,East Arrow Highway,91767,34.0897175,-117.7373144
2775,South Reservoir Street,91766,34.0237210,-117.7319920
2063,Rancho Valley Drive,91766,34.0333438,-117.7585310
2098,South Garey Avenue,91766,34.0337430,-117.7487880
1285,South Garey Avenue,91766,34.0483028,-117.7503004
375,East Mission Boulevard,91766,34.0554571,-117.7471528
2710,North Towne Avenue,91767,34.0949062,-117.7362083
2743,Thompson Creek Road,91767,34.0947649,-117.7542406
30,Rio Rancho Road,91767,34.0329737,-117.7553766
2145,Murchison Avenue,91768-1145,34.0719312,-117.7893499
1645,West Holt Avenue,91768,34.0624363,-117.7781613
1641,West Holt Avenue,91768-3341,34.0624271,-117.7779161
200,West 2nd Street,91766,34.0575560,-117.7514534
1875,Fairplex Drive,91768,34.0841434,-117.7800345
3077,West Temple Avenue,91766,34.0438166,-117.8017854
3101,West Temple Avenue,91768,34.0442672,-117.8031488
1300,West Phillips Boulevard,91766,34.0448270,-117.7679367
425,East Harrison Avenue,91767,34.1001838,-117.7439608
601,West McKinley Avenue,91768,34.0796303,-117.7626975
1101,West McKinley Avenue,91768,34.0803127,-117.7640925
2209,North White Avenue,91786,34.0895426,-117.7680085
2200,North White Avenue,91768,34.0893362,-117.7629599
3851,West Temple Avenue,91768,34.0510051,-117.8193068
3801,West Temple Avenue,91768,34.0502096,-117.8147893
100,East Holt Avenue,91767,34.0621149,-117.7498850
655,West 3rd Street,91766,34.0572354,-117.7561413
1105,West Mission Boulevard,91766,34.0551085,-117.7635597
2707,South Towne Avenue,91766,34.0222653,-117.7416574
200,South East End Avenue,91766,34.0586861,-117.7232025
3530,West Pomona Boulevard,91768,34.0447299,-117.8073064
80,Rio Rancho Road,91766,34.0292337,-117.7578841
795,E. Second Street,91766,34.0584817,-117.7422254
517,East Foothill Boulevard,91767,34.1074310,-117.7402709
1421,South Garey Avenue,91766,34.0457462,-117.7500328
1421,South Garey Avenue,91766,34.0454532,-117.7500812
1546,West Mission Boulevard,91766-1232,34.0540626,-117.7730718
101,West Foothill Boulevard,91767,34.1083152,-117.7490869
175,West Foothill Boulevard,91767,34.1086879,-117.7504449
140,East Foothill Boulevard,91767,34.1071709,-117.7477835
2343,North San Antonio Avenue,91767,34.0853100,-117.7371580
1670,West Mission Boulevard,91766,34.0534854,-117.7776804
2200,North Garey Street,91767-2331,34.0881646,-117.7498387
778,East Arrow Highway,91767,34.0885641,-117.7374727
1690,South Garey Avenue,91776,34.0407447,-117.7492380
1908,South Garey Avenue,91766-5724,34.0367192,-117.7489418
2021,North Towne Avenue,91767,34.0790060,-117.7419060
1798,North Garey Avenue,91767,34.0770376,-117.7508229
500,East Holt Avenue,91767,34.0622589,-117.7412144
2505,South Garey Avenue,91766,34.0258020,-117.7494664
751,Rio Rancho Road,91766,34.0345617,-117.7579502
801,Rio Rancho Road,91766,34.0331399,-117.7570832
399,North Garey Avenue,91767,34.0611682,-117.7507194
445,East Holt Avenue,91767,34.0629343,-117.7431366
1851,Indian Hill Boulevard,91767,34.0779201,-117.7195859
1706,Indian Hill Boulevard,91776,34.0760922,-117.7189668
1967,West Holt Avenue,91768,34.0619384,-117.7851978
1605,W Holt Ave,91768,34.0620278,-117.7769340
3200,West Temple Avenue,91768,34.0466079,-117.8036099
500,Humane Way,91766,34.0525121,-117.7900701
2255,Valley Boulevard,91768,34.0628006,-117.7936458
2809,Pomona Boulevard,91768,34.0550602,-117.8000817
730,East Foothill Boulevard,91767-1224,34.1067513,-117.7371852
2720,Barjud Avenue,91768,34.0572194,-117.8029202
100,Diamond Ranch Road,91766,34.0221576,-117.7785724
20,Village Loop Road,91766,34.0359352,-117.7709547
2,Trabuco Place,91766,34.0353412,-117.7851549
255,East Bonita Avenue,91767,34.0975563,-117.7467068
1798,North Garey Avenue,91767,34.0776118,-117.7505944
23,La Sierra Drive,91766,34.0347815,-117.7864156
21,La Sierra Drive,91766,34.0350710,-117.7866709
19,La Sierra Drive,91766,34.0352664,-117.7871578
600,South Dudley Street,91766,34.0532666,-117.7724019
600,East Philadelphia Street,91766,34.0324575,-117.7437338
321,West Lexington Avenue,91766,34.0384338,-117.7516728
550,West Lexington Avenue,91766,34.0358736,-117.7549857
701,North Huntington Street,91768,34.0650670,-117.7625034
635,Lincoln Avenue,91767,34.0711498,-117.7392940
256,South Main Street,91766,34.0570120,-117.7520886
799,E. 2nd Street,91766,34.0584943,-117.7418581
3650,Temple Avenue,91768,34.0521918,-117.8121024
3400,Poly Vista,91768,34.0483103,-117.8151028
3530,Pomona Boulevard,91768,34.0448700,-117.8103470
3530,Pomona Boulevard,91768,34.0381083,-117.8098904
4102,South University Drive,91768,34.0483387,-117.8197038
4105,West University Drive,91768,34.0487996,-117.8257272
1407,West Holt Avenue,91768,34.0621758,-117.7728514
4125,West Valley Boulevard,91789,34.0431505,-117.8269215
2027,Rancho Valley Drive,91766,34.0349245,-117.7606666
533,West Holt Avenue,91768,34.0628171,-117.7582085
1700,East 1st Street,91766,34.0587668,-117.7208470
4125,Valley Boulevard,91789,34.0410718,-117.8213308
2710,North Towne Avenue,91767,34.0946589,-117.7363038
641,Indian Hill Boulevard,91767,34.0647080,-117.7197543
1600,South Garey Avenue,91766,34.0421158,-117.7490385
3801,Temple Ave,91768,34.0470181,-117.8190423
