House number,Street name,Postal code,Latitude,Longitude
9674,Archibald Avenue,91730,34.0779862,-117.5939807
10841,White Oak Avenue,91730,34.1036866,-117.5663150
6649,Amethyst Ave,91701-9998,34.1333922,-117.5978120
9974,19th St,91737,34.1330573,-117.5874215
10090,Jonquil Dr,91701,34.1298933,-117.5849975
6858,Hermosa Ave,91701,34.1298256,-117.5848726
12158,Base Line Rd,91739,34.1222471,-117.5398180
5003,Via Verde,91701,34.1639740,-117.6198286
5001,Via Verde,91701,34.1640093,-117.6199275
5002,Via Verde,91701,34.1639999,-117.6199769
5004,Via Verde,91701,34.1639387,-117.6200545
5008,Via Verde,91701,34.1636949,-117.6200226
5000,Skyline Rd,91701,34.1630101,-117.6260144
4964,Via Verde,91701,34.1640340,-117.6268001
4949,Skyline Rd,91701,34.1641925,-117.6267802
4975,Skyline Rd,91701,34.1642483,-117.6268811
4901,Skyline Rd,91701,34.1650590,-117.6288816
4928,Skyline Rd,91701,34.1648200,-117.6287585
8189,Inspiration Dr,91701,34.1639373,-117.6280199
8150,Inspiration Dr,91701,34.1637709,-117.6286526
8135,Inspiration Dr,91701,34.1633776,-117.6292708
8126,Inspiration Dr,91701,34.1634971,-117.6292674
8117,Inspiration Dr,91701,34.1632198,-117.6296051
8078,Inspiration Dr,91701,34.1630897,-117.6302651
5208,Sapphire St,91701,34.1601704,-117.6255718
7599,Cerrito Rojo Dr,91730,34.1166043,-117.6252363
8269,Calle Del Prado,91730,34.1184886,-117.6246005
7322,Alta Cuesta Dr,91730,34.1209781,-117.6204046
7473,Alta Cuesta Dr,91730,34.1203420,-117.6202308
9650,9th St,91730,34.0957718,-117.5954423
8754,Lion Street,91730,34.0947462,-117.6049744
8753,Lion Street,91730,34.0947462,-117.6048436
8739,Lion Street,91730,34.0950525,-117.6048455
8736,Lion Street,91730,34.0950251,-117.6049714
9153,9th Street,91730,34.0956118,-117.6061924
8755,Flower Road,91730,34.0947807,-117.6075194
8747,Flower Road,91730,34.0950016,-117.6075281
8855,Flower Road,91730,34.0932263,-117.6079572
8833,Flower Road,91730,34.0936034,-117.6078052
8787,Flower Road,91730,34.0940289,-117.6075660
8822,Flower Road,91730,34.0939605,-117.6079418
8840,Flower Road,91730,34.0931042,-117.6083777
8787,Vineyard Avenue,91730,34.0953902,-117.6102985
8949,9th Street,91730,34.0953880,-117.6097417
8722,Lanyard Court,91730,34.0954355,-117.6163467
8732,Lanyard Court,91730,34.0949360,-117.6164106
8762,Lanyard Court,91730,34.0946862,-117.6165965
8782,Lanyard Court,91730,34.0945033,-117.6165617
8757,Lanyard Court,91730,34.0947298,-117.6162974
8737,Lanyard Court,91730,34.0952264,-117.6161870
8727,Lanyard Court,91730,34.0953687,-117.6161957
8767,Lanyard Court,91730,34.0946165,-117.6162847
8777,Lanyard Court,91730,34.0945119,-117.6163660
8647,9th Street,91730,34.0956529,-117.6168842
8651,Madrone Avenue,91730,34.0963827,-117.6175120
8760,8th Street,91730,34.0921943,-117.6139914
8570,Utica Avenue,91730,34.0977982,-117.5734446
8580,Utica Avenue,91730,34.0976104,-117.5734459
8590,Utica Avenue,91730,34.0974380,-117.5734471
8600,Utica Avenue,91730,34.0972464,-117.5734485
8578,Utica Avenue,91730,34.0977963,-117.5736746
8588,Utica Avenue,91730,34.0983540,-117.5733100
8598,Utica Avenue,91730,34.0974437,-117.5736746
8608,Utica Avenue,91730,34.0972540,-117.5736746
8677,Utica Avenue,91730,34.0959278,-117.5728480
8885,White Oak Ave,91730,34.0924695,-117.5652225
9449,Richmond Pl,91730,34.0816075,-117.5522746
9445,Charles Smith Ave,91730,34.0814891,-117.5456040
9455,Charles Smith Ave,91730,34.0811490,-117.5456328
9465,Charles Smith Ave,91730,34.0808256,-117.5457022
9029,Rochester Ave,91730,34.0898846,-117.5465339
9177B,Center Avenue,91730,34.0864614,-117.5801606
9050,Hermosa Avenue,91730,34.0892863,-117.5847766
10540,Base Line Rd,91701,34.1218681,-117.5752257
10540,Base Line Road,91701,34.1218940,-117.5749619
8163,Rochester Ave,91730,34.1051006,-117.5455275
8409,Utica Avenue,91730,34.1008985,-117.5728159
8428,Utica Avenue,91730,34.1005628,-117.5730547
8444,Utica Avenue,91730,34.1002531,-117.5730547
8455,Utica Avenue,91730,34.0999345,-117.5728501
8462,Utica Avenue,91730,34.0994319,-117.5730576
8477,Utica Avenue,91730,34.0994398,-117.5728502
8628,Utica Avenue,91730,34.0965453,-117.5730612
8635,Utica Avenue,91730,34.0968264,-117.5728411
8678,Utica Avenue,91730,34.0960378,-117.5730348
8696,Utica Avenue,91730,34.0956936,-117.5730484
8706,Utica Avenue,91730,34.0952958,-117.5730311
10667,Jersey Blvd,91730,34.0945216,-117.5721771
10863,Jersey Boulevard,91730,34.0944866,-117.5678285
10912,Jersey Boulevard,91730,34.0947410,-117.5679271
8780,Prestige Court,91730,34.0949922,-117.5669166
10981,Jersey Boulevard,91730,34.0944820,-117.5657575
10939,Jersey Boulevard,91730,34.0944761,-117.5664676
11031,Jersey Boulevard,91730,34.0944814,-117.5647271
11061,Jersey Boulevard,91730,34.0944632,-117.5638436
11096,Jersey Boulevard,91730,34.0946877,-117.5631164
11155,Jersey Boulevard,91730,34.0944686,-117.5623371
11246,Jersey Boulevard,91730,34.0947303,-117.5617022
11201,Jersey Boulevard,91730,34.0944857,-117.5609877
11256,Jersey Boulevard,91730,34.0947156,-117.5605678
11251,Jersey Boulevard,91730,34.0944740,-117.5588154
11271,Jersey Boulevard,91730,34.0944420,-117.5580568
9166,Anaheim Pl,91730,34.0889156,-117.5600094
9130,Anaheim Pl,91730,34.0895557,-117.5607121
9280,Haven Avenue,91730,34.0848920,-117.5760440
9121,Haven Avenue,91730,34.0880404,-117.5753744
9120,Haven Avenue,91730,34.0881023,-117.5759391
8885,Haven Ave,91730,34.0924972,-117.5755892
8855,Haven Ave,91730,34.0931098,-117.5755917
8835,Haven Ave,91730,34.0935835,-117.5755941
8805,Haven Ave,91730,34.0941599,-117.5756027
8710,Haven Avenue,91730,34.0954627,-117.5754187
8667,Haven Avenue,91730,34.0962529,-117.5755853
8655,Haven Avenue,91730,34.0965214,-117.5755917
8647,Haven Avenue,91730,34.0968491,-117.5755975
8220,Haven Ave,91730,34.1048218,-117.5762798
10437,Foothill Blvd,91730,34.1059119,-117.5770961
10455,Foothill Blvd,91730,34.1060161,-117.5769150
8160,Haven Ave,91730,34.1054883,-117.5767040
8140,Haven Ave,91730,34.1057168,-117.5763970
10470,Foothill Blvd,91730,34.1065784,-117.5758585
10550,Town Center Dr,91730,34.1109548,-117.5750480
7135,Haven Ave,91701,34.1244733,-117.5752704
6411,Haven Ave,91737,34.1375651,-117.5755392
10477,Lemon Ave,91737,34.1395942,-117.5763900
6389,Barsac Pl,91737,34.1399042,-117.5714160
10695,Concannon St,91737,34.1401219,-117.5717200
10619,Concannon St,91737,34.1401182,-117.5733400
6288,Callaway Pl,91737,34.1402105,-117.5734130
6132,Callaway Pl,91737,34.1420530,-117.5734360
6139,Callaway Pl,91737,34.1420484,-117.5732910
6125,Callaway Pl,91737,34.1424080,-117.5732770
6124,Callaway Pl,91737,34.1423967,-117.5734420
6100,Callaway Pl,91737,34.1428330,-117.5734770
6101,Callaway Pl,91737,34.1428677,-117.5733260
10585,Merlot Ct,91737,34.1432198,-117.5738250
10519,Merlot Ct,91737,34.1432411,-117.5754880
10582,Champagne Rd,91737,34.1422713,-117.5741400
10570,Champagne Rd,91737,34.1422799,-117.5744000
10530,Champagne Rd,91737,34.1422364,-117.5751750
6124,Dakota Ave,91737,34.1421603,-117.5752500
6134,Dakota Ave,91737,34.1419988,-117.5750910
6250,Dakota Ave,91737,34.1405585,-117.5752720
10533,Kingston St,91737,34.1404555,-117.5751970
10567,Kingston St,91737,34.1404534,-117.5745020
6257,Valinda Ave,91737,34.1404845,-117.5741610
6247,Valinda Ave,91737,34.1406734,-117.5741520
6244,Valinda Ave,91737,34.1407616,-117.5743140
6132,Valinda Ave,91737,34.1419809,-117.5743360
6133,Valinda Ave,91737,34.1420149,-117.5741590
6129,Sherry Ct,91737,34.1422511,-117.5724210
6128,Sherry Ct,91737,34.1423284,-117.5725650
6105,Sherry Ct,91737,34.1431392,-117.5724610
6102,Sherry Ct,91737,34.1430913,-117.5726940
10653,Champagne Rd,91737,34.1420131,-117.5725820
6183,Muscat Pl,91737,34.1419753,-117.5716050
6132,Muscat Pl,91737,34.1420348,-117.5717580
6071,Muscat Pl,91737,34.1431449,-117.5715940
6070,Muscat Pl,91737,34.1431405,-117.5717650
6194,Orvieto Ct,91737,34.1417884,-117.5709540
6197,Orvieto Ct,91737,34.1417781,-117.5707740
6116,Orvieto Ct,91737,34.1431540,-117.5709320
6125,Orvieto Ct,91737,34.1430269,-117.5706660
6117,Orvieto Ct,91737,34.1431592,-117.5707420
10731,Champagne Rd,91737,34.1414901,-117.5708840
10723,Champagne Rd,91737,34.1415418,-117.5710950
6199,Cabernet Pl,91737,34.1415175,-117.5699790
6198,Cabernet Pl,91737,34.1415476,-117.5701360
6112,Cabernet Pl,91737,34.1431386,-117.5700320
6113,Cabernet Pl,91737,34.1431285,-117.5698860
10757,Champagne Rd,91737,34.1412823,-117.5701590
6311,Semillon Pl,91737,34.1408497,-117.5693840
6296,Brandy Pl,91737,34.1411509,-117.5694000
6217,Brandy Pl,91737,34.1431438,-117.5689970
6218,Brandy Pl,91737,34.1431596,-117.5692020
10829,Port St,91737,34.1412631,-117.5688210
10879,Port St,91737,34.1412070,-117.5678890
6309,Chandon Pl,91737,34.1411527,-117.5675930
6289,Chandon Pl,91737,34.1414934,-117.5676080
10879,Mirador Dr,91737,34.1418593,-117.5674350
10959,Mirador Dr,91737,34.1416788,-117.5658920
10869,Mirador Dr,91737,34.1418318,-117.5679040
10849,Mirador Dr,91737,34.1418580,-117.5681720
6190,Cantabria Ave,91737,34.1419280,-117.5682450
6110,Cantabria Ave,91737,34.1431746,-117.5682190
6310,Chandon Pl,91737,34.1409975,-117.5677630
6319,Chandon Pl,91737,34.1409652,-117.5676120
6350,Chandon Pl,91737,34.1403817,-117.5677580
6369,Chandon Pl,91737,34.1402307,-117.5675890
10899,Zinfandel St,91737,34.1401602,-117.5676280
6350,Wine Ct,91737,34.1404073,-117.5686510
6349,Wine Ct,91737,34.1404136,-117.5684770
6309,Wine Ct,91737,34.1410202,-117.5684980
6310,Wine Ct,91737,34.1410230,-117.5687540
10839,Zinfandel St,91737,34.1401274,-117.5686570
6351,Semillon Pl,91737,34.1403689,-117.5692920
6332,Semillon Pl,91737,34.1406548,-117.5695180
10798,Zinfandel St,91737,34.1402295,-117.5695590
10799,Zinfandel St,91737,34.1401098,-117.5695930
10739,Zinfandel St,91737,34.1400846,-117.5705430
6370,Traminer Ct,91737,34.1401466,-117.5706350
6351,Traminer Ct,91737,34.1403717,-117.5704890
6321,Traminer Ct,91737,34.1408022,-117.5703980
6310,Traminer Ct,91737,34.1409844,-117.5706070
6368,Barsac Pl,91737,34.1403650,-117.5715910
6359,Barsac Pl,91737,34.1403870,-117.5714250
6349,Barsac Pl,91737,34.1404966,-117.5714260
6339,Barsac Pl,91737,34.1406598,-117.5713870
6329,Barsac Pl,91737,34.1408288,-117.5713310
6319,Barsac Pl,91737,34.1409780,-117.5713080
6309,Barsac Pl,91737,34.1410624,-117.5713640
6308,Barsac Pl,91737,34.1410652,-117.5714600
6318,Barsac Pl,91737,34.1410343,-117.5715560
6328,Barsac Pl,91737,34.1409554,-117.5715700
6338,Barsac Pl,91737,34.1408625,-117.5715780
6348,Barsac Pl,91737,34.1406824,-117.5715870
6358,Barsac Pl,91737,34.1404909,-117.5715950
6272,Gamay Ct,91737,34.1403734,-117.5725200
6273,Gamay Ct,91737,34.1403734,-117.5723570
6211,Gamay Ct,91737,34.1415136,-117.5722870
6202,Gamay Ct,91737,34.1415164,-117.5724530
6210,Gamay Ct,91737,34.1414468,-117.5725050
6295,Terracina Ave,91737,34.1398575,-117.5665560
6290,Terracina Ave,91737,34.1399495,-117.5667550
6235,Terracina Ave,91737,34.1408106,-117.5666780
6220,Terracina Ave,91737,34.1410344,-117.5668310
10920,Belcanto Dr,91737,34.1411188,-117.5667520
10970,Belcanto Drive,91737,34.1410068,-117.5659760
6209,Serena Pl,91737,34.1408554,-117.5655620
6201,Serena Pl,91737,34.1415353,-117.5655570
6219,Serena Pl,91737,34.1407265,-117.5655250
6218,Serena Pl,91737,34.1407213,-117.5657010
6278,Serena Pl,91737,34.1397233,-117.5657740
6299,Serena Pl,91737,34.1395083,-117.5655800
6315,Terracina Ave,91737,34.1394793,-117.5666370
6440,Terracina Ave,91737,34.1374019,-117.5667790
10929,Marbella Dr,91737,34.1373254,-117.5666540
6425,Terracina Ave,91737,34.1376324,-117.5666360
10939,Marbella Dr,91737,34.1373251,-117.5665620
6421,Sonterra Ct,91737,34.1376170,-117.5655880
6420,Sonterra Ct,91737,34.1376355,-117.5657770
6355,Sonterra Ct,91737,34.1385890,-117.5656830
6330,Sonterra Ct,91737,34.1389944,-117.5658180
10979,Marbella Drive,91737,34.1373492,-117.5657430
10999,Marbella Dr,91737,34.1373478,-117.5653670
12273,Highland Ave,91739,34.1342029,-117.5373890
12273,Highland Ave,91739,34.1343702,-117.5373300
12273,Highland Ave,91739,34.1344746,-117.5374018
12273,Highland Ave,91739,34.1345297,-117.5373370
12223,Highland Ave,91739,34.1343516,-117.5385862
12223,Highland Ave,91739,34.1342399,-117.5385525
12223,Highland Ave,91739,34.1343107,-117.5384473
12223,Highland Ave,91739,34.1342088,-117.5383990
12223,Highland Ave,91739,34.1342715,-117.5382880
12223,Highland Ave,91739,34.1341620,-117.5382233
11799,Sebastian Wy,91730,34.1041085,-117.5480585
11819,Sebastian Wy,91730,34.1041068,-117.5477141
11843,Sebastian Wy,91730,34.1040993,-117.5472413
11850,Sebastian Wy,91730,34.1042806,-117.5467171
11879,Sebastian Wy,91730,34.1040897,-117.5460765
8209,Rochester Ave,91730,34.1043481,-117.5455766
8229,Rochester Ave,91730,34.1040714,-117.5455794
9445,Charles Smith Ave,91730,34.0814421,-117.5455817
9450,Buffalo Ave,91730,34.0815888,-117.5503609
10809,Zinfandel St,91737,34.1400919,-117.5691310
10889,Zinfandel St,91737,34.1401157,-117.5677200
10879,Zinfandel St,91737,34.1401139,-117.5678790
10431,Lemon Street,91737,34.1389927,-117.5768260
8736,Baseline Road,91701,34.1219938,-117.6151993
8678,19th Street,91701,34.1331238,-117.6165101
9529,19th St,91701,34.1326087,-117.5975777
9588,Base Line Rd,91701,34.1218566,-117.5959830
7228,Archibald Avenue,91701,34.1229857,-117.5939480
7247,Archibald Avenue,91701,34.1225864,-117.5930150
9750,19th Street,91737,34.1341172,-117.5925666
11750,4th St,91730,34.0778791,-117.5497037
11800,4th St,91730,34.0789588,-117.5481520
12369,Foothill Blvd,91730,34.1059083,-117.5353573
11198,Foothill Boulevard,91730,34.1069250,-117.5593702
11096,Foothill Boulevard,91730,34.1069073,-117.5619043
10831,Foothill Boulevard,91730,34.1060922,-117.5685372
6201,Valinda Ave,91737,34.1398159,-117.5741931
6201,Barsac Pl,91737,34.1398400,-117.5714548
6200,Valinda Ave,91737,34.1398193,-117.5743396
6200,Barsac Pl,91737,34.1398434,-117.5716014
10788,Foothill Boulevard,91730,34.1078520,-117.5692460
10788,Foothill Boulevard,91730-3884,34.1080487,-117.5694018
11080,Foothill Boulevard,91730,34.1078553,-117.5635323
11815,Foothill Boulevard,91730,34.1060853,-117.5474908
11144,Foothill Blvd,91730,34.1068525,-117.5605711
8118,Masi Drive,91730-3902,34.1055320,-117.5497614
11767,Foothill Boulevard,91730,34.1059680,-117.5487062
100-10950,Foothill Boulevard,91730,34.1079987,-117.5645920
10930,Foothill Boulevard,91730,34.1083258,-117.5657730
12240,Foothill Blvd,91730,34.1067929,-117.5385478
12190,Foothill Boulevard,91739,34.1067534,-117.5395131
12479,Foothill Blvd,91739,34.1030095,-117.5337140
12659,Foothill Boulevard,91701,34.1059104,-117.5287210
8199,Foothill Blvd,91730,34.1065423,-117.6282792
8198,Foothill Blvd,91730,34.1067916,-117.6282693
12443,South Mainstreet,91739,34.1106433,-117.5339593
8521,Archibald Avenue,91730,34.0988264,-117.5929670
10920,Foothill Boulevard,91730,34.1082522,-117.5662089
10940,Foothill Boulevard,91730,34.1080298,-117.5649991
120-10950,Foothill Boulevard,91730,34.1079677,-117.5648811
12517,North Mainstreet,91739,34.1119261,-117.5323060
7809,Kew Avenue,91739,34.1113927,-117.5308992
12367,North Mainstreet,91739,34.1118938,-117.5346982
12510,South Mainstreet,91739,34.1109623,-117.5317073
9622,Base Line Road,91730,34.1223831,-117.5952430
9581,Business Center Dr #A,91730,34.0977925,-117.5959284
6709,Carnelian Street,91701,34.1322562,-117.6147960
9770,19th Street,91737,34.1339425,-117.5918498
9740,19th Street,91737,34.1339113,-117.5929663
10431,Lemon Ave #C,91737,34.1458821,-117.5784111
12473,South Mainstreet,91739,34.1119380,-117.5330300
6579,Milliken Avenue,91730,34.1349212,-117.5581108
10681,E Foothill Boulevard,91730,34.1058815,-117.5720035
8880,Foothill Boulevard,91730,34.1072728,-117.6114778
11550,East 4th Street,91730,34.0776342,-117.5524855
7325,Day Creek Boulevard,91739,34.1206157,-117.5352710
8005,Vineyard Avenue,91730,34.1082709,-117.6105720
11450,Church Street,91730,34.1099471,-117.5562877
10788,Civic Center Dr,91730,34.1013143,-117.5698921
8916,Foothill Boulevard,91730,34.1073173,-117.6107191
9494,Jack Rabbit Drive,91730,34.1073662,-117.5978298
8045,Archibald Avenue,91730,34.1075132,-117.5926227
8403,Haven Avenue,91730,34.1016650,-117.5738768
8409,Haven Avenue,91730,34.1014806,-117.5739492
10455,Foothill Boulevard,91730,34.1060868,-117.5768299
10399,E Foothill Blvd,91730,34.1061690,-117.5781844
7879,Monticello Avenue,91739,34.1103354,-117.5354775
7319,Milliken Avenue,91730,34.1208390,-117.5579653
11289,Base Line Road,91730,34.1210111,-117.5591480
11289,Base Line Road,91730,34.1210138,-117.5592683
7369,Milliken Avenue,91730,34.1199104,-117.5570447
12642,Cultural Center Dr.,91739-7511,34.1135968,-117.5294620
9123,Center Avenue,91730,34.0877526,-117.5792540
7360,Milliken Avenue,91730,34.1203288,-117.5592092
7360,Milliken Avenue,91730,34.1203344,-117.5590979
7360,Milliken Avenue,91730,34.1203411,-117.5589584
7385,Milliken Avenue,91730,34.1196765,-117.5580536
7385,Milliken Avenue,91730,34.1195876,-117.5580483
7385,Milliken Avenue,91730,34.1194855,-117.5580389
7379,Milliken Avenue,91730,34.1196676,-117.5575789
7379,Milliken Avenue,91730,34.1197919,-117.5576352
7379,Milliken Avenue,91730,34.1198388,-117.5575346
7369,Milliken Avenue,91730,34.1199443,-117.5571712
7349,Milliken Avenue,91730,34.1202452,-117.5567125
7349,Milliken Avenue,91730,34.1201886,-117.5568332
7339,Milliken Avenue,91730,34.1204184,-117.5563129
7339,Milliken Avenue,91730,34.1204506,-117.5561640
7349,Milliken Avenue,91730,34.1203129,-117.5565744
7319,Milliken Avenue,91730,34.1209108,-117.5579839
10590,Base Line Road,91701,34.1218837,-117.5741974
10590,Base Line Road,91701,34.1218860,-117.5740525
10590,Base Line Road,91701,34.1218860,-117.5739050
7269,Haven Avenue,91730,34.1221568,-117.5753310
7203,Haven Avenue,91701,34.1236001,-117.5749770
7203,Haven Avenue,91701,34.1236046,-117.5748465
7207,Haven Avenue,91701,34.1232970,-117.5737467
7211,Haven Avenue,91701,34.1235890,-117.5741236
7211,Haven Avenue,91701,34.1235890,-117.5742309
7211,Haven Avenue,91701,34.1235502,-117.5740404
7211,Haven Avenue,91701,34.1234347,-117.5739265
7211,Haven Avenue,91701,34.1234969,-117.5739761
7233,Haven Avenue,91701,34.1231572,-117.5736126
7233,Haven Avenue,91701,34.1231194,-117.5735603
7233,Haven Avenue,91701,34.1230595,-117.5735442
7233,Haven Avenue,91701,34.1229851,-117.5735496
7233,Haven Avenue,91701,34.1229218,-117.5735483
7251,Haven Avenue,91701,34.1222545,-117.5735456
7251,Haven Avenue,91701,34.1221668,-117.5735496
7890,Haven Avenue,91730,34.1113213,-117.5764634
7890,Haven Avenue,91730,34.1111336,-117.5766967
7890,Haven Avenue,91730,34.1107428,-117.5769649
7890,Haven Avenue,91730,34.1112035,-117.5766497
7890,Haven Avenue,91730,34.1105784,-117.5770709
7890,Haven Avenue,91730,34.1104752,-117.5771151
7900,Haven Avenue,91730,34.1102620,-117.5764955
7900,Haven Avenue,91730,34.1101132,-117.5763963
7900,Haven Avenue,91730,34.1101865,-117.5765036
7890,Haven Avenue,91730,34.1103597,-117.5771876
7890,Haven Avenue,91730,34.1100288,-117.5773176
7930,Haven Avenue,91730,34.1096157,-117.5771259
7930,Haven Avenue,91730,34.1093337,-117.5770910
7968,Haven Avenue,91730,34.1088484,-117.5762756
7890,Haven Avenue,91730,34.1106561,-117.5770172
7890,Haven Avenue,91730,34.1108438,-117.5768979
7890,Haven Avenue,91730,34.1109271,-117.5768348
7890,Haven Avenue,91730,34.1109981,-117.5767892
7890,Haven Avenue,91730,34.1110825,-117.5767410
7974,Haven Avenue,91730,34.1088340,-117.5767691
7974,Haven Avenue,91730,34.1086508,-117.5768201
8002,Haven Avenue,91730,34.1081755,-117.5777723
7986,Haven Avenue,91730,34.1085697,-117.5773565
8004,Haven Avenue,91730,34.1081017,-117.5776026
8004,Haven Avenue,91730,34.1080539,-117.5775825
8010,Haven Avenue,91730,34.1078885,-117.5776737
8008,Haven Avenue,91730,34.1079185,-117.5778829
8034,Haven Avenue,91730,34.1077403,-117.5763078
8034,Haven Avenue,91730,34.1075692,-117.5764580
8038,Haven Avenue,91730,34.1076026,-117.5769006
8038,Haven Avenue,91730,34.1077447,-117.5768335
10470,Foothill Boulevard,91730,34.1070251,-117.5769059
10470,Foothill Boulevard,91730,34.1070274,-117.5767852
10470,Foothill Boulevard,91730,34.1071584,-117.5769113
10470,Foothill Boulevard,91730,34.1072095,-117.5763453
10470,Foothill Boulevard,91730,34.1069963,-117.5765599
10380,Foothill Boulevard,91730,34.1069052,-117.5782578
10550,Town Center Drive,91730,34.1109604,-117.5754093
10590,Town Center Drive,91730,34.1113512,-117.5743069
7911,Haven Avenue,91730,34.1100032,-117.5751920
7911,Haven Avenue,91730,34.1100099,-117.5749506
7945,Haven Avenue,91730,34.1096302,-117.5752269
7945,Haven Avenue,91730,34.1097867,-117.5752720
7957,Haven Avenue,91730,34.1093614,-117.5752175
10570,Foothill Boulevard,91730,34.1086669,-117.5752347
10570,Foothill Boulevard,91730,34.1085031,-117.5751858
10576,Foothill Boulevard,91730,34.1084315,-117.5745588
10576,Foothill Boulevard,91730,34.1084270,-117.5747734
10582,Foothill Boulevard,91730,34.1087646,-117.5734752
10582,Foothill Boulevard,91730,34.1083959,-117.5735771
10640,Foothill Boulevard,91730,34.1085603,-117.5724506
8327,Orange Street,91701,34.1379730,-117.6213284
8780,19th Street,91701,34.1330926,-117.6145140
9513,Business Center Drive,91730,34.0988444,-117.5976413
11995,E Foothill blvd;East foothill boulevard,91730,34.1059590,-117.5437110
11070,Foothill Boulevard,91730-3821,34.1079371,-117.5638668
9155,Archibald Ave,91730,34.0868079,-117.5920500
12729,Foothill Boulevard,91739,34.1049572,-117.5275897
12729,Foothill Boulevard,91739,34.1049804,-117.5274052
12759,Foothill Boulevard,91739,34.1049920,-117.5267351
12759,Foothill Boulevard,91739,34.1049824,-117.5266183
12769,Foothill Boulevard,91739,34.1049827,-117.5262876
12799,Foothill Boulevard,91739,34.1049516,-117.5260111
12809,Foothill Boulevard,91739,34.1047277,-117.5258800
12839,Foothill Boulevard,91739,34.1049280,-117.5254440
12839,Foothill Boulevard,91739,34.1049811,-117.5254257
12859,Foothill Boulevard,91739,34.1050307,-117.5252460
12859,Foothill Boulevard,91739,34.1050509,-117.5251808
12859,Foothill Boulevard,91739,34.1050618,-117.5251086
12583,Highland Avenue,91739,34.1356451,-117.5304373
9280,Haven Avenue,91730,34.0850723,-117.5762194
9280,Haven Avenue,91730,34.0851156,-117.5765385
12505,Cultural Center Drive,91739,34.1128664,-117.5323121
12505,Cultural Center Drive,91739,34.1129708,-117.5327604
11334,4th Street,91730,34.0776700,-117.5576162
9659,Milliken Avenue,91730,34.0782180,-117.5578022
9635,Milliken Avenue,91730,34.0787304,-117.5578433
10500,Civic Center Drive,91730,34.1032145,-117.5749442
8870,San Bernardino Road,91730,34.1092876,-117.6116386
9694,Baseline Road,91701-5035,34.1223724,-117.5938320
12750,Foothill Boulevard,91739,34.1065640,-117.5269041
10576,Foothill Boulevard,91730,34.1084036,-117.5741825
12549;8230,Foothill Boulevard;Talbert Avenue,92646;91739,34.1034845,-117.5318176
9471,Pittsburgh Avenue,91730,34.0809776,-117.5555737
9955,Sixth St,91730,34.0837532,-117.5883053
9359,Foothill Blvd,91730,34.1054147,-117.6004860
12365,Foothill Boulevard,91739,34.1047939,-117.5355016
7827,Haven Ave,91730,34.1115462,-117.5753772
8680,Monroe Court,91730,34.0958946,-117.5754340
12556,South Mainstreet,91730,34.1109490,-117.5314149
7211,Haven Avenue,91701,34.1236277,-117.5740630
9565,Business Center Drive,91730,34.0979028,-117.5963470
12860,Banyan Street,91739,34.1438873,-117.5242702
8360,Red Oak Street,91730,34.1017965,-117.5695238
8686,Haven Avenue,91730,34.0957808,-117.5767379
6753,Carnelian Street,91701,34.1315870,-117.6148930
11358,Kenyon Way,91701,34.1354126,-117.5574085
8677,Archibald Avenue,91730,34.0969516,-117.5926643
8265,Aspen Street,91730,34.1035662,-117.5700688
7890,Haven Avenue,91730,34.1101391,-117.5773752
8746,Baseline Road,91701,34.1226122,-117.6153407
7212,Archibald Avenue,91701,34.1232449,-117.5945078
10068,Arrow Route,91730,34.0999051,-117.5855970
9670,Haven Avenue,91730,34.0795517,-117.5761192
10500,Civic Center Drive,91730,34.1034563,-117.5751203
8712,Vivero Street,91730,34.1166595,-117.6156871
8722,Vivero Street,91730,34.1165790,-117.6154598
8732,Vivero Street,91730,34.1165227,-117.6153012
8742,Vivero Street,91730,34.1164214,-117.6151289
8752,Vivero Street,91730,34.1163801,-117.6148570
8762,Vivero Street,91730,34.1163876,-117.6146394
8772,Vivero Street,91730,34.1163876,-117.6144059
8782,Vivero Street,91730,34.1164007,-117.6141929
8742,Candlewood Street,91730,34.1171247,-117.6150599
8752,Candlewood Street,91730,34.1171134,-117.6148604
8762,Candlewood Street,91730,34.1171435,-117.6146633
8772,Candlewood Street,91730,34.1171378,-117.6144434
8772,Candlewood Street,91730,34.1171303,-117.6142123
8741,Candlewood Street,91730,34.1166687,-117.6150690
8751,Candlewood Street,91730,34.1166875,-117.6148582
8761,Candlewood Street,91730,34.1166781,-117.6146610
8771,Candlewood Street,91730,34.1167006,-117.6144162
8781,Candlewood Street,91730,34.1167100,-117.6142168
10591,Town Center Drive,91730,34.1106486,-117.5736920
11098,Foothill Boulevard,91730,34.1076386,-117.5625573
11098,Foothill Boulevard,91730,34.1078331,-117.5626304
11098,Foothill Boulevard,91730,34.1077107,-117.5626535
11098,Foothill Boulevard,91730,34.1076692,-117.5628127
11098,Foothill Boulevard,91730,34.1078369,-117.5625190
11098,Foothill Boulevard,91730,34.1077415,-117.5624842
11098,Foothill Boulevard,91730,34.1077428,-117.5622941
11096,Foothill Boulevard,91730,34.1069109,-117.5617808
8816,Foothill Boulevard,91730,34.1075440,-117.6129872
7834,Kew Avenue,91739,34.1111405,-117.5314027
9755,Base Line Road,91730,34.1202629,-117.5922361
5761,Cherry Avenue,91739,34.1498437,-117.4860912
14575,Summit Avenue,91739,34.1499358,-117.4878085
14709,Summit Avenue,91739,34.1492562,-117.4825415
5975,Cherry Avenue,91739,34.1479644,-117.4856333
8110,Milliken Avenue,91730,34.1052342,-117.5583147
8110,Milliken Avenue,91730,34.1053155,-117.5583159
8110,Milliken Avenue,91730,34.1054731,-117.5583133
8110,Milliken Avenue,91730,34.1055664,-117.5583159
8110,Milliken Avenue,91730,34.1053673,-117.5583137
8110,Milliken Avenue,91730,34.1054195,-117.5583120
11897,Foothill Boulevard,91730,34.1058203,-117.5460018
6403,Haven Avenue,91737,34.1373393,-117.5742482
6401,Haven Avenue,91737,34.1378465,-117.5741225
6401,Haven Avenue,91737,34.1376862,-117.5741176
8850,Archibald Avenue,91730,34.0928590,-117.5938580
10700,Jersey Blvd,91730,34.0953118,-117.5714943
5650,East Avenue,91739,34.1513684,-117.5155310
7355,Day Creek Boulevard,91739,34.1198948,-117.5355557
10533,Kingston St,91737,34.1405166,-117.5747120
6288,Callaway Pl,91737,34.1416177,-117.5734151
10950,Emerson St,91701,34.1294485,-117.5650049
5885,Haven Avenue,91737,34.1468376,-117.5704038
6001,Miliken Avenue,91737,34.1454054,-117.5553515
9920,19th St,91737,34.1334978,-117.5887671
6627,Amethyst Ave,91701,34.1337732,-117.5978192
11108,Banyan St,91737,34.1443052,-117.5619398
5840,East Ave,91739,34.1478179,-117.5150977
12270,Firehouse Ct,91739,34.1242365,-117.5376065
11297,Jersey Boulevard,91730,34.0935489,-117.5573902
10510,Civic Center Dr,91730,34.1031152,-117.5744793
9612,San Bernardino Rd,91730,34.1088387,-117.5954301
9944,Highland Ave,91737,34.1370339,-117.5880635
10050,Wilson Ave,91737,34.1513148,-117.5858214
9000,Lemon Ave,91701,34.1409818,-117.6096318
9135,Banyan Street,91737,34.1427843,-117.6067174
5367,Carnelian St,91701,34.1577003,-117.6142047
5131,Carnelian St,91701,34.1612328,-117.6157029
9400,Almond St,91737,34.1635736,-117.5996781
8788,Hidden Farm Rd,91701,34.1607188,-117.6145761
6440,Mayberry Ave,91737,34.1370211,-117.5825931
6599,Haven Ave,91737,34.1349447,-117.5746860
9600,19th St,91737,34.1337000,-117.5963822
6628,Amethyst Ave,91737,34.1341431,-117.5994844
8990,19th St,91701,34.1336402,-117.6100878
7777,Milliken Ave,91730,34.1085999,-117.5558692
9500,Etiwanda Avenue,91739,34.0806839,-117.5279175
10900,Civic Center Dr,91730,34.1027675,-117.5667991
11000,Foothill Blvd,91730,34.1056472,-117.5635127
7171,Etiwanda Ave,91739,34.1233183,-117.5223017
12584,Atwood Ct,91739,34.1237838,-117.5311272
11090,Mountain View,91730,34.1172982,-117.5633595
11660,Church St,91730,34.1128710,-117.5516947
10225,Hamilton St,91701,34.1302797,-117.5815112
10375,Church St,91730,34.1132822,-117.5782190
10333,Palo Alto Street,91730,34.1167603,-117.5793100
10210,Baseline Rd,91701,34.1235461,-117.5824422
9974,19th Street,91737,34.1338307,-117.5876367
6653,Canary Pine Ave,91737,34.1334728,-117.5864998
9800,Base Line Rd,91701,34.1234724,-117.5904628
8033,Ramona Ave,91730,34.1080041,-117.5879228
8020,Pueblo Place,91730,34.1080625,-117.5980782
7477,Vineyard Ave,91730,34.1182870,-117.6096888
7915,Center Ave,91730,34.1112718,-117.5796222
10440,Ashford St,91730,34.1118425,-117.5774772
7923,Cartilla Ave,91730,34.1105539,-117.5783949
10339,Dorset St,91730,34.1094918,-117.5792254
7925,Center Ave,91730,34.1104630,-117.5796316
10319,Dorset St,91730,34.1094875,-117.5799708
10310,Regis Ct,91730,34.1087359,-117.5800677
10309,Regis Ct,91730,34.1080562,-117.5800683
10330,Regis Court,91730,34.1087362,-117.5795170
10329,Regis Ct,91730,34.1080604,-117.5795146
10349,Regis Ct,91730,34.1080341,-117.5791222
10350,Regis Ct,91730,34.1087591,-117.5791218
10370,Regis Ct,91730,34.1087607,-117.5787325
10390,Regis Ct,91730,34.1087603,-117.5784874
10369,Regis Ct,91730,34.1080201,-117.5788556
7484,Vineyard Avenue,91730,34.1177846,-117.6132510
8880,Baseline Road,91701,34.1239698,-117.6118525
9456,Roberds St,91701,34.1223496,-117.5991605
6541,Woodruff Pl,91701,34.1353966,-117.5541190
10730,Church St,91730,34.1135347,-117.5703606
10789,Terra Vista Parkway,91730,34.1154918,-117.5693917
11481,Kenyon Wy,91737,34.1329627,-117.5547743
11801,Lark Drive,91701,34.1305725,-117.5476168
6989,Kenyon Wy,91701,34.1274392,-117.5504339
7139,Kenyon Wy,91737,34.1240827,-117.5499858
6849,Victoria Park Ln,91739,34.1295323,-117.5303044
13070,Vista St,91739,34.1318653,-117.5197072
13080,Vista St,91739,34.1318623,-117.5193693
11343,Mountain View Dr,91730,34.1146062,-117.5567642
10935,Terra Vista Pky,91730,34.1167496,-117.5658788
10987,Terra Vista Pky,91730,34.1175363,-117.5650987
10935,Terra Vista Pky,91730,34.1187491,-117.5666869
10935,Terra Vista Pky,91730,34.1167297,-117.5686294
7889,Elm St,91730,34.1115650,-117.5626055
7085,Amethyst Ave,91701,34.1258402,-117.5965830
7105,Carnelian St,91701,34.1250229,-117.6148154
6881,Jasper St,91701,34.1298004,-117.6195010
10211,Trademark Street,91730,34.0808171,-117.5818461
11376,5th St,91730,34.0814608,-117.5566609
11481,Mission Vista Drive,91730,34.0788539,-117.5544820
10231,Trademark Street,91730,34.0795170,-117.5820540
9500,Cleveland Ave,91730,34.0813058,-117.5691384
11210,4th St,91730,34.0791700,-117.5606145
9359,Charles Smith Avenue,91730,34.0832838,-117.5453948
11559,Jersey Boulevard,91730,34.0936733,-117.5528983
10281,Trademark Street,91730,34.0795105,-117.5810520
11100,4th St,91730,34.0794904,-117.5626048
10221,Trademark Street,91730,34.0802144,-117.5820496
11266,Jersey Boulevard,91730,34.0954682,-117.5593376
10251,Trademark Street,91730,34.0800267,-117.5814722
9500,Haven Avenue,91730,34.0806706,-117.5762553
8090,Cornwall Ct,91739,34.1071844,-117.5205540
9471,Buffalo Ave,91730,34.0807280,-117.5480004
10291,Trademark Street,91730,34.0796793,-117.5805722
10299,Trademark Street,91730,34.0802476,-117.5804719
9435,Charles Smith Ave,91730,34.0819794,-117.5454572
12067,Arrow Rte,91730,34.0984673,-117.5428251
10201,Trademark Street,91730,34.0808220,-117.5810616
9339,Charles Smith Ave,91730,34.0837246,-117.5454847
10801,6th Street,91730,34.0829424,-117.5691829
11599,Arrow Route,91730,34.0972049,-117.5509097
9383,Charles Smith Ave,91730,34.0828680,-117.5453995
8493,Etiwanda Ave,91739,34.1012581,-117.5219137
9660,Haven Avenue,91730,34.0800106,-117.5763466
10241,Trademark Street,91730,34.0795120,-117.5814803
10888,7th Street,91730,34.0891621,-117.5682635
8050,East Ave,91739,34.1077870,-117.5163682
11555,Arrow Route,91730,34.0971440,-117.5529541
11433,Mission Vista Dr,91730,34.0787188,-117.5555370
11525,Mission Vista Drive,91730,34.0787659,-117.5535619
10261,Trademark Street,91730,34.0803694,-117.5812813
10271,Trademark Street,91730,34.0800282,-117.5810967
9409,Charles Smith Ave,91730,34.0824557,-117.5454102
12323,6th St,91739,34.0851653,-117.5361904
12050,Arrow Rte,91739,34.1000674,-117.5419832
11600,Millenium Ct,91730,34.1043529,-117.5510710
6525,Sapphire St,91701,34.1358161,-117.6244170
7727,Valle Vista Dr,91730,34.1142467,-117.6185627
10151,Arrow Route,91730,34.0980218,-117.5835298
10244,Arrow Rte,91730,34.1011373,-117.5811219
8590,Malven Ave,91730,34.0978091,-117.5918078
8692,9th Street,91730,34.0967088,-117.6156463
8250,Vineyard Ave,91730,34.1039009,-117.6125066
8389,Baker Ave,91730,34.1020679,-117.6187032
8498,9th Street,91730,34.0967117,-117.6210024
10022,Feron Boulevard,91730,34.0947679,-117.5866292
10400,Arrow Rte,91730,34.1011491,-117.5787616
8300,Utica Ave,91730,34.1025849,-117.5718001
8535,Utica Ave,91730,34.0987407,-117.5724976
8720,Utica Ave,91730,34.0953093,-117.5734089
8800,Utica Avenue,91730,34.0940305,-117.5735702
8866,Utica Avenue,91730,34.0926995,-117.5737823
8865,Utica Avenue,91730,34.0924675,-117.5714745
11000,Jersey Boulevard,91730,34.0950973,-117.5644997
11040,Tacoma Dr,91730,34.0978969,-117.5631842
11027,Arrow Route,91730,34.0986821,-117.5633840
8576,Red Oak Street,91730,34.0968138,-117.5694793
9405,Fairview View Pl,91730,34.0831378,-117.5588073
11400,Newport Drive,91730,34.0909201,-117.5560903
11650,Mission Park Dr,91730,34.0812963,-117.5513209
9291,Charles Smith Ave,91730,34.0842076,-117.5455076
11698,San Marino St,91730,34.0839062,-117.5493012
9275,Buffalo Ave,91730,34.0849558,-117.5479177
13500,Victoria Street,91739,34.1302116,-117.5109681
9261,Bally Court,91730,34.0855049,-117.5810683
9256,Bally Court,91730,34.0855324,-117.5807463
9237,Bally Court,91730,34.0858205,-117.5810999
9238,Bally Court,91730,34.0857760,-117.5807747
9216,Bally Court,91730,34.0863408,-117.5817876
9215,Bally Court,91730,34.0863370,-117.5813669
9238,Bally Court,91730,34.0858220,-117.5820503
9262,Bally Court,91730,34.0855165,-117.5820916
10222,6th Street,91730,34.0850437,-117.5820542
10256,6th Street,91730,34.0850455,-117.5810743
10282,6th Street,91730,34.0850279,-117.5807493
8956,Cottage Avenue,91730,34.0910653,-117.5914389
8990,Cottage Avenue,91730,34.0904780,-117.5914364
9745,7th St,91730,34.0881599,-117.5924667
9520,7th Street,91730,34.0893959,-117.5975669
9400,7th Street,91730,34.0889939,-117.5990332
9450,7th Street,91730,34.0895597,-117.5990351
9500,7th Street,91730,34.0900229,-117.5990362
9360,7th Street,91730,34.0899901,-117.6006087
9380,7th Street,91730,34.0894134,-117.6003589
9370,7th Street,91730,34.0893829,-117.6007835
9350,7th Street,91730,34.0899924,-117.6015206
9330,7th Street,91730,34.0893748,-117.6017315
9340,7th Street,91730,34.0893753,-117.6013072
9320,7th Street,91730,34.0888620,-117.6015287
9390,7th Street,91730,34.0888811,-117.6005713
9076,Hellman Avenue,91730,34.0888453,-117.6026954
9066,Hellman Avenue,91730,34.0890729,-117.6026954
9028,Hellman Avenue,91730,34.0896550,-117.6026952
9038,Hellman Avenue,91730,34.0894251,-117.6026941
9010,Hellman Avenue,91730,34.0900636,-117.6026962
9021,Rancho Park Court,91730,34.0900191,-117.6032266
9055,Rancho Park Court,91730,34.0892740,-117.6032432
9075,Rancho Park Court,91730,34.0887950,-117.6032383
9070,Rancho Park Court,91730,34.0887837,-117.6040875
9030,Rancho Park Court,91730,34.0895421,-117.6041277
9060,Rancho Park Court,91730,34.0892593,-117.6040796
9020,Rancho Park Court,91730,34.0900765,-117.6040556
9000,Hellman Avenue,91730,34.0910400,-117.6034558
9439,Archibald Avenue,91730,34.0822215,-117.5926304
9440,Dover Way,91730,34.0822196,-117.5924340
9774,Crescent Center Drive,91730,34.0820242,-117.5916464
9804,Crescent Center Drive,91730,34.0820247,-117.5911843
9823,Crescent Center Drive,91730,34.0813088,-117.5905591
9816,Crescent Center Drive,91730,34.0820232,-117.5906817
9852,Crescent Center Drive,91730,34.0820176,-117.5901725
9447,London Way,91730,34.0820262,-117.5892392
9876,Hawthorne Drive,91730,34.0827302,-117.5893236
9774,Hawthorne Drive,91730,34.0827380,-117.5915973
9477,Archibald Avenue,91730,34.0813227,-117.5928148
9749,Crescent Center Drive,91730,34.0813844,-117.5920934
9785,Crescent Center Drive,91730,34.0813820,-117.5912619
9820,Hawthorne Drive,91730,34.0827758,-117.5908069
9838,Hawthorne Drive,91730,34.0827744,-117.5904236
9430,Lucas Ranch Road,91730,34.0826636,-117.5875933
9450,Lucas Ranch Road,91730,34.0821300,-117.5877172
9440,Lucas Ranch Road,91730,34.0824035,-117.5886933
9460,Lucas Ranch Rd,91730,34.0815291,-117.5880727
9500,Lucas Ranch Road,91730,34.0804788,-117.5881773
9608,Lucas Ranch Road,91730,34.0794312,-117.5878412
9638,Lucas Ranch Road,91730,34.0786311,-117.5878371
9614,Lucas Ranch Road,91730,34.0790151,-117.5886721
8575,Haven Ave,91730,34.0987035,-117.5751618
8463,Haven Avenue,91730,34.0996146,-117.5753148
8325,Haven Avenue,91730,34.1012213,-117.5753209
8311,Haven Ave,91730,34.1024652,-117.5753110
8055,Haven Avenue,91730,34.1071644,-117.5754056
7269,Haven Ave,91730,34.1221401,-117.5754019
10540,Haven Ave,91730,34.1218393,-117.5750834
12467,Base Line Rd,91739,34.1205756,-117.5326143
7743,Kew Avenue,91730,34.1127948,-117.5308535
2006,Campus Ave,91786,34.1421967,-117.6359789
10801,Jersey Boulevard,91730,34.0937135,-117.5708393
10700,Jersey Boulevard,91730,34.0954402,-117.5707258
10807,Jersey Boulevard,91730,34.0932613,-117.5694911
9090,Milliken Ave,91730,34.0885784,-117.5587798
9199,Cleveland Ave,91730,34.0862157,-117.5657537
10808,6th St,91730,34.0861709,-117.5691331
9280,Haven Avenue,91730,34.0857325,-117.5764247
8200,Haven Ave,91730,34.1046292,-117.5787456
10399,Foothill Blvd,91730,34.1060933,-117.5781635
8220,Haven Ave,91730,34.1048560,-117.5766720
7235,Haven Avenue,91701,34.1229636,-117.5755293
12263,Highland Ave,91739,34.1346244,-117.5375607
12273,Highland Ave,91739,34.1343124,-117.5373314
12201,Highland Avenue,91739,34.1350280,-117.5393458
12223,Highland Ave,91739,34.1342087,-117.5383968
12240,Highland Avenue,91739,34.1357014,-117.5381783
11818,San Marino St,91730,34.0838856,-117.5465688
9150,Hermosa Ave,91730,34.0874510,-117.5868624
9805,6th St,91730,34.0837603,-117.5911098
8303,Haven Ave,91730,34.1041831,-117.5735241
10500,Civic Center Drive,91730,34.1033512,-117.5750112
11570,4th Street,91730,34.0776341,-117.5506331
8978,Haven Avenue,91730,34.0907783,-117.5776934
10459,8th St,91730,34.0913309,-117.5770191
10789,Arrow Rte,91730,34.0987688,-117.5694259
8680,Haven Avenue,91730,34.0956803,-117.5766286
9260,Haven Avenue,91730,34.0854417,-117.5761627
10590,Base Line Road,91730,34.1218175,-117.5740264
7207,Haven Avenue,91701,34.1233404,-117.5736802
7243,Haven Avenue,91701,34.1225927,-117.5733121
7211,Haven Avenue,91701,34.1235437,-117.5740160
10598,Base Line Road,91701,34.1217759,-117.5733759
7251,Haven Avenue,91730,34.1222092,-117.5734748
7233,Haven Avenue,91701,34.1231042,-117.5735019
7203,Haven Avenue,91701,34.1236528,-117.5749737
10380,Foothill Boulevard,91730,34.1068884,-117.5782916
10970,Arrow Route,91730,34.0994291,-117.5646278
10570,Foothill Boulevard,91730,34.1087134,-117.5751614
10744,Foothill Boulevard,91730,34.1090131,-117.5703542
7911,Haven Avenue,91730,34.1099952,-117.5750848
10640,Foothill Boulevard,91730,34.1086125,-117.5724548
10582,Foothill Boulevard,91730,34.1086094,-117.5733301
7945,Haven Avenue,91730,34.1096965,-117.5751908
10700,Foothill Blvd,91730,34.1089419,-117.5717115
10710,Foothill Blvd,91730,34.1080369,-117.5715895
10740,Foothill Blvd,91730,34.1071288,-117.5709229
10768,Foothill Blvd,91730,34.1086990,-117.5697909
10576,Foothill Boulevard,91730,34.1087783,-117.5742792
10788,Foothill Blvd,91730,34.1082011,-117.5691924
10700,Town Center Dr,91730,34.1113493,-117.5711656
11070,Foothill Blvd,91730,34.1080601,-117.5637916
10950,Foothill Blvd,91730,34.1080971,-117.5647649
10940,Foothill Boulevard,91730,34.1082476,-117.5652438
10920,Foothill Blvd,91730,34.1083457,-117.5658666
12449,Foothill Blvd,91730,34.1030969,-117.5345291
12592,Foothill Blvd,91730,34.1067805,-117.5303701
12649,Foothill Blvd,91739,34.1042495,-117.5291889
7209,RAVENSWOOD PL,91739,34.1231526,-117.5565797
7203,RAVENSWOOD PL,91739,34.1232947,-117.5565737
7191,RAVENSWOOD PL,91739,34.1234347,-117.5565577
7185,RAVENSWOOD PL,91739,34.1235719,-117.5565582
7177,RAVENSWOOD PL,91739,34.1237092,-117.5565668
7171,RAVENSWOOD PL,91739,34.1238464,-117.5565836
7161,RAVENSWOOD PL,91739,34.1239865,-117.5566062
7155,RAVENSWOOD PL,91739,34.1241264,-117.5566153
7145,RAVENSWOOD PL,91739,34.1242637,-117.5566127
7141,RAVENSWOOD PL,91739,34.1244010,-117.5566101
7131,RAVENSWOOD PL,91739,34.1245383,-117.5566070
8778,19TH Street,91701,34.1335491,-117.6145193
6351,Haven Avenue,91737,34.1386544,-117.5740850
6321,Haven Ave,91737,34.1393780,-117.5754279
6381,Haven Avenue,91730,34.1380317,-117.5753692
13931,Youngs Canyon Road,91739,34.1441067,-117.4982745
5885,Haven Avenue,91737,34.1476967,-117.5715634
8629,Hellman Avenue,91730,34.0970992,-117.6015810
5084,Sagewood Drive,91739,34.1615355,-117.5063768
5080,Sagewood Drive,91739,34.1615532,-117.5067108
5088,Sagewood Drive,91739,34.1615169,-117.5060010
5096,Branding Iron Place,91739,34.1614765,-117.5055621
5066,Branding Iron Place,91739,34.1620639,-117.5056138
8840,19th Street,91701,34.1337962,-117.6131965
9206,Garden Street,91701,34.1344217,-117.6047370
6216,Dartmouth Avenue,91737,34.1412091,-117.5867985
6216,Ramona Avenue,91737,34.1412095,-117.5888824
10333,Charwood Court,91737,34.1459065,-117.5794751
10152,Thorpe Court,91737,34.1458498,-117.5833961
6235,Valinda Avenue,91737,34.1408440,-117.5739937
6220,Philips Way,91737,34.1411645,-117.5878366
6067,Burgundy Avenue,91737,34.1441947,-117.5915221
9130,Garden Street,91701,34.1344129,-117.6065704
6230,Gamay Court,91737,34.1410854,-117.5727368
6225,Gamay Court,91737,34.1411601,-117.5721276
9190,Garden Street,91701,34.1344190,-117.6053015
9212,Garden Street,91701,34.1344242,-117.6042413
6234,Granby Avenue,91737,34.1408263,-117.5857775
5936,Villa Drive,91737,34.1459558,-117.5905101
10347,Charwood Court,91737,34.1459051,-117.5791382
10162,Thorpe Court,91737,34.1458501,-117.5831812
6231,Sunnyhills Place,91737,34.1410657,-117.5611074
6221,Filkins Avenue,91737,34.1412128,-117.5836797
8990,19th Street,91701,34.1342760,-117.6113219
10172,Thorpe Court,91737,34.1458513,-117.5829665
6233,Granby Avenue,91737,34.1408265,-117.5851647
10227,Corkwood Court,91737,34.1459150,-117.5817579
6050,Rafael Court,91737,34.1459418,-117.5776358
6239,Archibald Avenue,91737,34.1411084,-117.5927540
6225,Callaway Place,91737,34.1411979,-117.5730893
10182,Thorpe Court,91737,34.1458688,-117.5827426
6241,Filkins Avenue,91737,34.1408270,-117.5836799
5950,Elmhurst Avenue,91737,34.1452959,-117.5858598
6223,Philips Way,91737,34.1410920,-117.5872107
9728,Sunflower Street,91737,34.1459360,-117.5925950
6049,San Rafael Court,91737,34.1459424,-117.5771099
9729,Sunflower Street,91737,34.1452746,-117.5926082
10769,Champagne Road,91737,34.1410221,-117.5699612
10763,Champagne Road,91737,34.1410942,-117.5701095
10339,Charwood Court,91737,34.1459081,-117.5793017
6338,Barsac Place,91737,34.1408105,-117.5718099
5955,Dartmouth Avenue,91737,34.1453251,-117.5865690
6220,Morning Place,91737,34.1410109,-117.5627285
6235,Dartmouth Avenue,91737,34.1408261,-117.5861907
10235,Corkwood Court,91737,34.1459190,-117.5815877
6237,Revere Avenue,91737,34.1408331,-117.5789912
6049,San Martin Court,91730,34.1459401,-117.5779468
11048,Shiloh Court,91737,34.1459501,-117.5630939
6615,Hellman Avenue,91701,34.1343815,-117.6025340
6240,Halsted Avenue,91737,34.1408318,-117.5816013
9831,Coca Street,91737,34.1452317,-117.5901455
6199,Serena Place,91737,34.1410353,-117.5653391
6233,Callaway Place,91737,34.1410523,-117.5730835
5935,Villa Drive,91737,34.1459103,-117.5896928
6245,Archibald Avenue,91737,34.1408501,-117.5927854
6242,Callaway Place,91737,34.1408712,-117.5736346
10307,Charwood Court,91737,34.1459173,-117.5801480
6050,San Felipe Court,91701,34.1459389,-117.5767803
11058,Shiloh Court,91737,34.1459520,-117.5628313
9140,Garden Street,91701,34.1344140,-117.6063590
6235,Halsted Avenue,91737,34.1408326,-117.5810518
8484,Garden Street,91701,34.1342455,-117.6211599
6230,Sunnyhills Place,91737,34.1410036,-117.5617073
6309,Chandon Place,91737,34.1411277,-117.5674575
6224,Cartilla Avenue,91737,34.1410581,-117.5785990
10122,Thorpe Court,91737,34.1458520,-117.5840496
10123,Thorpe Court,91737,34.1453070,-117.5840726
5953,Abajo Court,91737,34.1453251,-117.5880879
10131,Thorpe Court,91737,34.1453139,-117.5838579
8990,19th Street,91701,34.1343320,-117.6088517
8452,Garden Street,91701,34.1342679,-117.6218540
10251,Corkwood Court,91737,34.1459149,-117.5812533
8990,19th Street,91701,34.1343330,-117.6114545
11068,Shiloh Court,91737,34.1459538,-117.5625834
9150,Garden Street,91701,34.1344150,-117.6061474
6236,Mayberry Avenue,91737,34.1408330,-117.5806883
5954,Dartmouth Avenue,91737,34.1453319,-117.5873443
6225,Dakota Avenue,91737,34.1410650,-117.5749091
6223,Cartilla Avenue,91737,34.1410577,-117.5780041
10132,Thorpe Court,91737,34.1458493,-117.5838257
6329,Chandon Place,91737,34.1408256,-117.5674565
10143,Thorpe Court,91737,34.1453142,-117.5836340
10243,Corkwood Court,91737,34.1459223,-117.5814170
8990,19th Street,91701,34.1343333,-117.6113233
6215,Dartmouth Avenue,91737,34.1412108,-117.5861912
9160,Garden Street,91701,34.1344159,-117.6059360
6605,Jasper Street,91701,34.1343029,-117.6204187
10313,Charwood Court,91737,34.1459176,-117.5799823
8474,Garden Street,91701,34.1342529,-117.6213913
6224,Valinda Avenue,91737,34.1410648,-117.5745444
6226,Callaway Place,91737,34.1411599,-117.5736353
6212,Dakota Avenue,91737,34.1410428,-117.5754645
10142,Thorpe Court,91737,34.1458495,-117.5836108
5919,Elmhurst Avenue,91737,34.1459458,-117.5850008
11250,Highview Drive,91737,34.1406564,-117.5600125
6225,Valinda Avenue,91737,34.1410365,-117.5739937
6221,Morning Place Place,91737,34.1410258,-117.5621023
6214,Granby Avenue,91737,34.1412110,-117.5857780
9170,Garden Street,91701,34.1344170,-117.6057245
9200,Garden Street,91701,34.1344200,-117.6050900
8464,Garden Street,91701,34.1342603,-117.6216226
6268,London Avenue,91737,34.1411150,-117.5916476
10325,Charwood Court,91737,34.1459021,-117.5796388
10319,Charwood Court,91737,34.1459115,-117.5798110
6219,Ramona Avenue,91737,34.1411645,-117.5882561
6221,Softwind Place,91737,34.1409867,-117.5590263
9180,Garden Street,91701,34.1344179,-117.6055130
6230,Softwind Place,91737,34.1408934,-117.5596925
11010,Shiloh Court,91737,34.1459542,-117.5645665
6227,Revere Avenue,91737,34.1410355,-117.5789883
11020,Shiloh Court,91737,34.1459430,-117.5642201
6001,Burgundy Avenue,91737,34.1459672,-117.5915428
6235,Gamay Court,91737,34.1410531,-117.5721733
11030,Shiloh Court,91737,34.1459444,-117.5638914
9272,Garden Avenue,91701,34.1344270,-117.6036481
8494,Garden Street,91701,34.1342392,-117.6209295
10194,Thorpe Court,91737,34.1458946,-117.5825025
5938,Abajo Court,91737,34.1458812,-117.5889893
6240,Malvern Street,91737,34.1408593,-117.5833444
6230,Malvern Street,91737,34.1411165,-117.5833511
8242,Garden Court,91701,34.1342889,-117.6264165
6310,Chandon Place,91737,34.1410142,-117.5679887
6231,Kinlock Avenue,91737,34.1411178,-117.5819292
5935,Abajo Court,91737,34.1458994,-117.5880583
6241,Kinlock Avenue,91737,34.1408623,-117.5819363
6220,Filkins Avenue,91737,34.1411361,-117.5845020
11000,Shiloh Court,91737,34.1459050,-117.5648422
6310,Traminer Court,91737,34.1410678,-117.5707303
10301,Charwood Court,91737,34.1459511,-117.5803311
9731,Coca Street,91737,34.1441592,-117.5927186
10203,Southridge Drive,91737,34.1453070,-117.5822793
9714,Sunflower Street,91737,34.1459351,-117.5929684
9715,Sunflower Street,91737,34.1452733,-117.5929764
6218,Serena Place,91701,34.1407595,-117.5659655
11038,Shiloh Court,91737,34.1459482,-117.5633896
9292,Garden Street,91701,34.1344468,-117.6031009
10365,Southridge Drive,91737,34.1453073,-117.5787651
10211,Corkwood Court,91737,34.1459222,-117.5820931
6319,Barsac Place,91737,34.1410798,-117.5711505
9747,Sunflower Street,91737,34.1452757,-117.5922403
8236,Garden Court,91701,34.1341747,-117.6266323
10285,Corkwood Court,91737,34.1459515,-117.5804794
9746,Sunflower Street,91737,34.1459368,-117.5922226
5960,Abajo Court,91737,34.1452251,-117.5889754
6049,San Felipe Court,91701,34.1459667,-117.5762365
6311,Semillon Place,91737,34.1410111,-117.5692741
6609,Amberwood Drive,91701,34.1342280,-117.6185123
10110,Thorpe Court,91737,34.1458140,-117.5843021
6610,Amberwood Drive,91701,34.1342353,-117.6189986
6089,San Felipe Court,91730,34.1452847,-117.5762731
6606,Holly Oak Drive,91701,34.1342881,-117.6199754
6605,Holly Oaks Drive,91701,34.1342366,-117.6194839
6309,Wine Court,91737,34.1410135,-117.5684020
6310,Wine Court,91737,34.1410554,-117.5688849
10110,Kernwood Court,91737,34.1467190,-117.5842792
7600,Calle Casino,91730,34.1153034,-117.6223425
10250,Kernwood Court,91737,34.1468895,-117.5812268
6742,Meriwether Court,91701,34.1319046,-117.5992527
6743,Meriwether Court,91701,34.1319082,-117.5986056
9879,Manzanita Drive,91737,34.1466591,-117.5888509
10234,Kernwood Court,91737,34.1469176,-117.5815611
10416,San Andreas Drive,91730,34.1467010,-117.5782067
8780,Base Line Street,91701,34.1226148,-117.6138632
9679,Tryon Street,91730,34.1104895,-117.5939661
9925,Manzanita Drive,91737,34.1466546,-117.5881858
6009,Cedar Mountain Drive,91737,34.1467990,-117.5614719
6741,Klusman Avenue,91701,34.1322406,-117.5951177
10480,San Andreas Drive,91701,34.1466960,-117.5768347
9993,Manzanita Drive,91737,34.1466440,-117.5868694
9963,Manzanita Drive,91737,34.1466486,-117.5875253
10464,San Andreas Drive,91730,34.1466955,-117.5771685
6740,Pilgrims Court,91701,34.1319213,-117.6047188
6731,Topaz Street,91701,34.1320402,-117.6176358
7561,Buena Vista Drive,91730,34.1167173,-117.6206454
9585,Gala Avenue,91701,34.1318797,-117.5962756
10160,Kernwood Court,91737,34.1467561,-117.5831644
7591,El Arco Drive,91761,34.1165622,-117.6178552
7924,Spinel Avenue,91730,34.1103614,-117.6064481
10170,Kernwood Court,91737,34.1467704,-117.5829472
9560,Effen Street,91730,34.1102530,-117.5964735
9937,Manzanita Drive,91737,34.1466501,-117.5878567
7551,Alta Cuesta Drive,91730,34.1165889,-117.6197688
9565,Gala Avenue,91701,34.1318463,-117.5966765
10432,San Andreas Drive,91730,34.1466947,-117.5778212
7895,Layton Street,91730,34.1105863,-117.5991504
10440,San Andreas Drive,91730,34.1466948,-117.5776593
7882,Selma Avenue,91730,34.1105909,-117.6032595
8200,Haven Avenue,91730,34.1053189,-117.5774437
7575,Buena Vista Drive,91730,34.1165018,-117.6206988
10242,Kernwood Court,91737,34.1468966,-117.5813955
8760,Base Line Street,91701,34.1226279,-117.6150088
10258,Kernwood Court,91737,34.1468964,-117.5810615
7560,Camino Norte,91730,34.1163818,-117.6214735
6730,Topaz Street,91701,34.1320388,-117.6182805
10266,Kernwood Court,91737,34.1469120,-117.5808856
10120,Kernwood Court,91737,34.1467582,-117.5840303
9979,Manzanita Drive,91737,34.1466461,-117.5871963
9595,Gala Avenue,91701,34.1318911,-117.5960771
10140,Kernwood Court,91737,34.1467543,-117.5836006
10488,San Andreas Drive,91701,34.1467048,-117.5766387
9559,Gala Avenue,91701,34.1318294,-117.5969253
6736,Jadeite Avenue,91701,34.1322404,-117.5943329
9570,Effen Street,91730,34.1102467,-117.5962655
9415,Tryon Street,91730,34.1102689,-117.5999094
9865,Manzanita Drive,91737,34.1466610,-117.5891688
6737,Hellman Avenue,91701,34.1319582,-117.6024114
6730,Pilgrims Court,91701,34.1320930,-117.6047237
9816,Hampshire Street,91730,34.1055072,-117.5909607
6730,Amberwood Drive,91701,34.1320306,-117.6193715
9834,Hampshire Street,91730,34.1055077,-117.5905643
10007,Manzanita Drive,91737,34.1466395,-117.5865398
9659,Tryon Street,91730,34.1105027,-117.5943887
10448,San Andreas Drive,91730,34.1466951,-117.5774957
7562,Valle Vista Drive,91730,34.1165323,-117.6193698
10496,San Andreas Drive,91730,34.1466878,-117.5763773
10180,Kernwood Court,91737,34.1468212,-117.5827234
7898,Amethyst Street,91730,34.1105288,-117.5987050
6741,Pilgrims Court,91701,34.1319115,-117.6040778
9866,Highland Avenue,91737,34.1362491,-117.5902593
6743,Amethyst Street,91701,34.1318511,-117.5978205
10130,Kernwood Court,91737,34.1467541,-117.5838155
10150,Kernwood Court,91737,34.1467546,-117.5833825
9550,Effen Street,91730,34.1102592,-117.5966832
7883,Selma Avenue,91730,34.1105664,-117.6026381
10424,San Andreas Drive,91730,34.1466957,-117.5779882
9669,Tryon Street,91730,34.1104959,-117.5941773
9911,Manzanita Drive,91737,34.1466564,-117.5885169
10456,San Andreas Drive,91730,34.1466953,-117.5773321
6731,Pilgrims Court,91701,34.1320900,-117.6040795
9575,Gala Avenue,91701,34.1318625,-117.5964756
9824,Hampshire Street,91730,34.1055074,-117.5907625
6731,Amberwood Drive,91701,34.1320355,-117.6187268
10472,San Andreas Drive,91730,34.1466958,-117.5770016
9649,Tryon Street,91730,34.1105090,-117.5946000
5917,Archibald Avenue,91737,34.1465855,-117.5927228
6009,San Felipe Court,91701,34.1466506,-117.5762653
9535,Gala Avenue,91701,34.1319515,-117.5972084
6118,Cedar Mountain Drive,91737,34.1467932,-117.5621733
6734,Meriwether Court,91701,34.1320831,-117.5992542
9764,Golden Street,91737,34.1466183,-117.5916647
6740,Klusman Avenue,91701,34.1319994,-117.5957384
7241,Topaz Street,91701,34.1226348,-117.6181490
7241,Sierra Vista Street,91701,34.1226311,-117.6190167
9689,Tryon Street,91730,34.1104832,-117.5937502
6733,Jadeite Avenue,91701,34.1320120,-117.5940169
8940,Reeves Court,91730,34.1104802,-117.6103015
7558,Camino Norte,91730,34.1165905,-117.6216382
7595,El Arco Drive,91730,34.1164113,-117.6177034
5915,Villa Drive,91737,34.1467824,-117.5896900
10212,Kernwood Court,91737,34.1469075,-117.5820656
7911,Onyx Court,91730,34.1103316,-117.6001834
5979,Burgundy Avenue,91737,34.1465711,-117.5915436
7922,Summerlin Place,91730,34.1105149,-117.6092959
7575,El Arco Drive,91730,34.1165088,-117.6188368
9545,Gala Avenue,91701,34.1318314,-117.5971593
7242,Topaz Street,91701,34.1226324,-117.6186789
11000,Seven Pines Drive,91737,34.1467735,-117.5648384
9752,Golden Street,91737,34.1466134,-117.5921112
8337,Jade Drive,91701,34.1320206,-117.6241720
7585,Cerrito Rojo,91730,34.1165683,-117.6249234
5873,Elmhurst Avenue,91737,34.1467326,-117.5850956
11200,Base Line Road,91701,34.1235373,-117.5647534
9161,Base Line Road,91730,34.1206214,-117.6047937
11200,Base Line Road,91701,34.1229034,-117.5603477
12188,Foothill Boulevard,91739,34.1077911,-117.5395709
12204,Foothill Boulevard,91739,34.1077096,-117.5392029
12260,Foothill Boulevard,91739,34.1077379,-117.5380396
12218,Foothill Blvd,91739,34.1078302,-117.5388571
12879,Foothill Boulevard,91739,34.1048909,-117.5246272
12729,Foothill Blvd,91739,34.1049359,-117.5274960
12759,Foothill Boulevard,91739,34.1049040,-117.5266398
12689,Foothill Blvd,91739,34.1048333,-117.5278919
12739,Foothill Blvd,91739,34.1048404,-117.5270982
12489,Foothill Boulevard,91739,34.1030612,-117.5330565
12549,Foothill Boulevard,91739,34.1034560,-117.5314022
10540,Foothill Blvd,91730,34.1068248,-117.5366259
8025,Day Creek Boulevard,91739,34.1076855,-117.5366324
8070,Monet Avenue,91739,34.1068382,-117.5359348
8201,Day Creek Boulevard,91739,34.1044849,-117.5362612
8850,Foothill Boulevard,91730,34.1081967,-117.6121924
9080,Foothill Boulevard,91730,34.1082411,-117.6073041
9110,Foothill Boulevard,91730,34.1069809,-117.6064328
9889,Foothill Boulevard,91730,34.1062113,-117.5894755
8810,Hemlock Street,91730,34.1108666,-117.6109195
9860,6th Street,91730,34.0859405,-117.5893562
9850,6th Street,91730,34.0851235,-117.5893806
9866,6th Street,91730,34.0863903,-117.5894790
9846,6th Street,91730,34.0863918,-117.5898770
9840,6th Street,91730,34.0859236,-117.5899616
9836,6th Street,91730,34.0856810,-117.5899533
9826,6th Street,91730,34.0864090,-117.5906971
9820,6th Street,91730,34.0858834,-117.5906575
9830,6th Street,91730,34.0851927,-117.5899663
9910,6th Street,91730,34.0851393,-117.5887867
9810,6th Street,91730,34.0852991,-117.5907249
10299,6th Street,91730,34.0826235,-117.5799689
9859,7th Street,91730,34.0874835,-117.5897363
12599,Foothill Boulevard,91739,34.1058926,-117.5302475
8619,Baker Avenue,91730,34.0971241,-117.6194014
9282,Pittsburgh Avenue,91730,34.0853746,-117.5571154
11399,Foothill Boulevard,91730,34.1045617,-117.5551264
5410,Topaz Street,91701,34.1564489,-117.6197722
9601,Deerbrook Street,91730,34.0858977,-117.5955243
6080,Haven Avenue,91737,34.1428979,-117.5767077
9700,Archibald Avenue,91737,34.1331523,-117.5931867
9756,19th Street,91737,34.1331701,-117.5922570
7497,Mountain View Drive,91730,34.1171085,-117.5508388
8112,Foothill Boulevard,91730,34.1075638,-117.6274468
8112,Foothill Boulevard,91730,34.1071748,-117.6280828
11884,Foothill Boulevard,91730,34.1089978,-117.5466450
8966,Foothill Boulevard,91730,34.1070268,-117.6092686
8840,Foothill Boulevard,91730,34.1070609,-117.6123918
9191,Base Line Road,91730,34.1211404,-117.6045317
9161,Base Line Road,91730,34.1210914,-117.6051464
12155,6th Street,91730,34.0857976,-117.5401694
9325,Santa Anita Avenue,91730,34.0855536,-117.5381299
12645,6th Street,91739,34.0847988,-117.5295395
12170,Santa Margarita Court,91730,34.0889129,-117.5398321
9357,Richmond Place,91730,34.0827359,-117.5518539
11800,4th Street,91730-6129,34.0789323,-117.5481462
10473,Alta Loma Drive,91737,34.1370374,-117.5764207
11416,Mount Johnson Court,91737,34.1423432,-117.5560123
8694,Arrow Route,91730,34.0996070,-117.6156138
9050,Foothill Boulevard,91730,34.1069718,-117.6078664
8140,Vineyard Avenue,91730,34.1059142,-117.6115118
8955,Foothill Boulevard,91730,34.1061842,-117.6096703
10877,Foothill Boulevard,91730,34.1061061,-117.5681171
10895,Foothill Boulevard,91730,34.1061120,-117.5673231
10831,Foothill Boulevard,91730,34.1060875,-117.5685318
10811,Foothill Boulevard,91730,34.1061958,-117.5688615
10757,Foothill Boulevard,91730,34.1060997,-117.5700575
10709,Foothill Boulevard,91730,34.1060684,-117.5709943
8153,Aspen Street,91730,34.1054523,-117.5709480
10801-10803,Foothill Boulevard,91730,34.1055016,-117.5694759
10832,Laurel Street,91730,34.1051308,-117.5683420
9241,Konocti Street,91730,34.1008165,-117.6035602
12811,6th Street,91739,34.0845666,-117.5258630
10801,6th Street,91730,34.0824393,-117.5694518
9494,Jack Rabbit Drive,91730,34.1075587,-117.5980196
8055,Pueblo Place,91730,34.1073860,-117.5974111
8031,Pueblo Place,91730,34.1078490,-117.5974126
9497,Jack Rabbit Drive,91730,34.1070383,-117.5979517
9471,Jack Rabbit Drive,91730,34.1070475,-117.5985002
9445,Jack Rabbit Drive,91730,34.1070698,-117.5990580
8074,Joplin Place,91730,34.1070706,-117.5997919
9468,Jack Rabbit Drive,91730,34.1075204,-117.5985895
8048,Tulsa Place,91730,34.1075369,-117.5997975
9442,Jack Rabbit Drive,91730,34.1074999,-117.5991495
9545,Barstow Drive,91730,34.1083784,-117.5975799
8024,Tulsa Place,91730,34.1079897,-117.5997851
9441,Barstow Drive,91730,34.1080435,-117.5991768
9467,Barstow Drive,91730,34.1080357,-117.5986276
9535,Barstow Drive,91730,34.1083770,-117.5977211
9525,Barstow Drive,91730,34.1083825,-117.5978632
9515,Barstow Drive,91730,34.1083774,-117.5980070
9505,Barstow Drive,91730,34.1083896,-117.5981462
9495,Barstow Drive,91730,34.1083940,-117.5982771
9485,BNars,91730,34.1083829,-117.5984148
8475,Barstow Drive,91730,34.1084014,-117.5985583
9465,Barstow Drive,91730,34.1083973,-117.5986973
9455,Barstow Drive,91730,34.1084113,-117.5988383
9445,Barstow Drive,91730,34.1084164,-117.5989707
9435,Barstow Drive,91730,34.1084107,-117.5991113
9425,Barstow Drive,91730,34.1084254,-117.5992476
9415,Barstow Drive,91730,34.1084187,-117.5993918
9405,Barstow Drive,91730,34.1084364,-117.5995286
9403,Glory Drive,91730,34.1084406,-117.5996723
9401,Glory Drive,91730,34.1084457,-117.5998116
9399,Glory Drive,91730,34.1084478,-117.5999559
9754,Foothill Boulevard,91730,34.1069789,-117.5922905
9035,Haven Avenue,91730,34.0895183,-117.5751734
9045,Haven Avenue,91730,34.0896383,-117.5745694
9065,Haven Avenue,91730,34.0890188,-117.5752857
9055,Haven Avenue,91730,34.0891471,-117.5746876
7955,Archibald Avenue,91730,34.1093994,-117.5923013
9649,Foothill Boulevard,91730-3507,34.1062325,-117.5947877
9324,San Bernardino Road,91730,34.1091850,-117.6017534
8701,Baseline Road,91730,34.1211816,-117.6155545
8770,Base Line Road,91701,34.1226962,-117.6146174
9709,Baseline Road,91730,34.1211987,-117.5930788
7368,Archibald Avenue,91730,34.1201409,-117.5940192
7900,Haven Avenue,91730,34.1101861,-117.5763908
7756,Haven Avenue,91730,34.1106769,-117.5763982
7974,Haven Avenue,91730,34.1087232,-117.5769710
7986,Haven Avenue,91730,34.1085243,-117.5773703
8002,Haven Avenue,91730,34.1081931,-117.5777724
8008,Haven Avenue,91730,34.1079225,-117.5778849
8010,Haven Avenue,91730,34.1078938,-117.5776800
8004,Haven Avenue,91730,34.1081005,-117.5775926
10470,Foothill Boulevard,91730,34.1070909,-117.5766111
8034,Haven Avenue,91730,34.1076489,-117.5763840
8038,Haven Avenue,91730,34.1077098,-117.5767810
10621,Church Street,91730,34.1123565,-117.5721849
12629,Foothill Boulevard,91739,34.1058801,-117.5297851
12659,Foothill Boulevard,91701,34.1058760,-117.5290952
12719,Foothill Boulevard,91730,34.1059134,-117.5275641
10400,Arrow Rte,91730,34.1026224,-117.5778586
10400,Arrow Rte,91730,34.1026235,-117.5784742
10400,Arrow Rte,91730,34.1021516,-117.5785359
10400,Arrow Rte,91730,34.1021505,-117.5777902
10400,Arrow Rte,91730,34.1016352,-117.5781549
10400,Arrow Rte,91730,34.1015019,-117.5778023
10400,Arrow Route,91730,34.1003957,-117.5780959
8409,Utica Avenue,91730,34.1008801,-117.5725625
8423,Haven Avenue,91730,34.1007910,-117.5740644
10400,Arrow Rte,91730,34.1024836,-117.5775944
10400,Arrow Rte,91730,34.1024875,-117.5787263
10400,Arrow Rte,91730,34.1022193,-117.5792956
10400,Arrow Rte,91730,34.1026885,-117.5797871
10400,Arrow Rte,91730,34.1024264,-117.5796617
10400,Arrow Rte,91730,34.1025507,-117.5800519
10400,Arrow Rte,91730,34.1021654,-117.5798226
10400,Arrow Rte,91730,34.1018262,-117.5786231
10400,Arrow Rte,91730,34.1018240,-117.5776890
10400,Arrow Rte,91730,34.1014625,-117.5785030
10400,Arrow Rte,91730,34.1026008,-117.5792259
10400,Arrow Rte,91730,34.1018239,-117.5799856
10400,Arrow Rte,91730,34.1018228,-117.5795303
10400,Arrow Rte,91730,34.1014919,-117.5799574
10400,Arrow Rte,91730,34.1014647,-117.5795605
10400,Arrow Rte,91730,34.1012804,-117.5799534
10400,Arrow Rte,91730,34.1010716,-117.5793921
10400,Arrow Route,91730,34.1006668,-117.5799480
10400,Arrow Route,91730,34.1004442,-117.5799554
10400,Arrow Route,91730,34.1004169,-117.5795538
10400,Arrow Route,91730,34.1001299,-117.5799789
10400,Arrow Route,91730,34.1001338,-117.5795222
10400,Arrow Route,91730,34.0998028,-117.5796182
10400,Arrow Route,91730,34.0995674,-117.5796831
10400,Arrow Route,91730,34.0996990,-117.5793358
10400,Arrow Route,91730,34.1004002,-117.5786016
10400,Arrow Route,91730,34.1001259,-117.5786760
10400,Arrow Route,91730,34.1004791,-117.5778217
10400,Arrow Route,91730,34.0996985,-117.5788088
10400,Arrow Route,91730,34.0995458,-117.5784775
10400,Arrow Route,91730,34.0997961,-117.5783635
10400,Arrow Route,91730,34.0997918,-117.5779712
10400,Arrow Route,91730,34.0996140,-117.5777298
10400,Arrow Route,91730,34.0997840,-117.5774831
10400,Arrow Route,91730,34.1001415,-117.5776735
10400,Arrow Route,91730,34.1008378,-117.5776480
10400,Arrow Rte,91730,34.1011299,-117.5776446
10400,Arrow Rte,91730,34.1011615,-117.5780692
10400,Arrow Route,91730,34.1007817,-117.5793070
10400,Arrow Route,91730,34.1010650,-117.5787196
10400,Arrow Route,91730,34.1007656,-117.5787175
11966,Jack Benny Drive,91739,34.1014581,-117.5442895
9041,Pittsburgh Avenue,91730,34.0890463,-117.5549354
7319,Milliken Avenue,91730,34.1209000,-117.5580873
11343,Base Line Road,91730,34.1210691,-117.5576467
11425,Base Line Road,91730,34.1210942,-117.5557859
7359,Milliken Avenue,91730,34.1203168,-117.5580214
7385,Milliken Avenue,91730,34.1195453,-117.5581054
7360,Milliken Avenue,91730,34.1202655,-117.5590749
11249,Base Line Road,91730,34.1207722,-117.5597644
9411,Haven Avenue,91730,34.0826488,-117.5752796
9441,Haven Avenue,91730,34.0821396,-117.5752790
9421,Haven Avenue,91730,34.0825339,-117.5743992
9431,Haven Avenue,91730,34.0822423,-117.5744019
9133,Center Avenue,91730,34.0875871,-117.5792661
9123,Center Avenue,91730,34.0882385,-117.5799199
7243,Haven Avenue,91701,34.1236472,-117.5754390
11570,6th Street,91730,34.0850449,-117.5531726
11711,Arrow Route,91730,34.0981136,-117.5480501
10130,Foothill Boulevard,91730,34.1076325,-117.5839653
10220,Foothill Boulevard,91730,34.1076590,-117.5819567
7957,Haven Avenue,91730,34.1093506,-117.5752018
10285,Banyan Street,91737,34.1423857,-117.5808605
10480,4th Street,91730,34.0779219,-117.5786423
11780,Arrow Route,91730,34.0995375,-117.5485238
8925,Santa Anita Avenue,91739,34.0915860,-117.5384703
8677,Archibald Avenue,91730,34.0965645,-117.5917400
8265,Aspen Street,91730,34.1035924,-117.5698709
7170,Day Creek Boulevard,91739,34.1233395,-117.5373241
7200,Day Creek Boulevard,91739,34.1229483,-117.5386608
12270,Firehouse Court,91739,34.1242012,-117.5375462
11960,Foothill Boulevard,91739,34.1070064,-117.5429289
11896,Foothill Boulevard,91730,34.1068614,-117.5461685
11738,Foothill Boulevard,91730,34.1068220,-117.5493649
11899,Foothill Boulevard,91730,34.1060259,-117.5460051
12819,Foothill Boulevard,91739,34.1058515,-117.5254468
12899,Foothill Boulevard,91739,34.1059373,-117.5241329
12789,Foothill Boulevard,91739,34.1057788,-117.5261737
12749,Foothill Boulevard,91739,34.1059028,-117.5268124
9625,Milliken Avenue,91730,34.0787586,-117.5569182
9550,Pittsburgh Avenue,91730,34.0794734,-117.5566419
9530,Pittsburgh Avenue,91730,34.0803634,-117.5566236
11370,4th Street,91730,34.0775999,-117.5566142
8108,Milliken Avenue,91730,34.1060122,-117.5582217
9299,Haven Avenue,91730,34.0840583,-117.5746321
4890,Etiwanda Avenue,91739,34.1759040,-117.5287809
9655,Arrow Route,91730,34.0988768,-117.5944968
10895,Foothill Boulevard,91730,34.1061118,-117.5675231
10877,Foothill Boulevard,91730,34.1061067,-117.5678467
10877,Foothill Boulevard,91730,34.1061064,-117.5679818
10877,Foothill Boulevard,91730,34.1061058,-117.5682523
8870,San Bernardino Road,91730,34.1094048,-117.6118632
9812,La Vine Court,91701,34.1260898,-117.5910234
6001,Milliken Avenue,91737,34.1449253,-117.5574370
11669,Foothill Boulevard,91730,34.1058396,-117.5505214
7355,Day Creek Boulevard,91739,34.1199663,-117.5353863
12939,Foothill Boulevard,91739,34.1056948,-117.5224458
7670,Paradise Place,91730,34.1143008,-117.5924107
8141,San Bernardino Road,91730,34.1045024,-117.6274931
7611,Hellman Avenue,91730,34.1159685,-117.6009204
12430,4th Street,91730,34.0802658,-117.5340307
10595,Town Center Drive,91730,34.1106414,-117.5739072
5815,Etiwanda Avenue,91739,34.1484081,-117.5201893
6061,East Avenue,91739,34.1440066,-117.5139938
5959,East Avenue,91739,34.1442641,-117.5124416
6062,East Avenue,91739,34.1442878,-117.5158447
6012,East Avenue,91739,34.1449986,-117.5159998
8316,Red Oak Street,91730,34.1024928,-117.5699700
7555,Hellman Avenue,91730,34.1170071,-117.6018873
1314,Banyan Street,91739,34.1446935,-117.5178621
12860,Banyan Street,91739,34.1440973,-117.5243045
8776,Archibald Avenue,91730,34.0941732,-117.5946397
9350,Rancho Cucamonga,91730,34.0811258,-117.5665092
9775,Base Line Road,91730,34.1200986,-117.5918943
9270,Rancho Street,91737,34.1538963,-117.6036023
6627,Amethyst Avenue,91701,34.1336216,-117.5979419
7040,Archibald Ave,91701,34.1266191,-117.5959123
10801,Lemon Ave,91737,34.1382953,-117.5684878
10757,Lemon Ave,91737,34.1382196,-117.5705077
10655,Lemon Ave,91737,34.1382026,-117.5726499
10900,Mirador Dr,91737-6993,34.1425258,-117.5666377
6001,Milliken Ave,91737,34.1453722,-117.5554372
6230,Haven Ave,91737,34.1406346,-117.5769090
9850,19th St,91737,34.1337197,-117.5903354
12345,Coyote Dr,91739,34.1535498,-117.5347023
10950,Church St,91730,34.1106209,-117.5645042
10850,Church St,91730,34.1110773,-117.5680114
7868,Milliken Ave,91730,34.1109068,-117.5597061
7980,Mayten Ave,91730,34.1087285,-117.5539605
7331,Shelby Pl,91737,34.1198660,-117.5183771
7161,East Ave,91739,34.1237758,-117.5128218
8840,19th St,91701,34.1335422,-117.6129173
9055,E Foothill Boulevard,91730,34.1057371,-117.6077547
1070,Arrow Route,91730,34.0986585,-117.5710423
9350,The Resort Parkway,91730,34.0812593,-117.5640566
