House number,Street name,Postal code,Latitude,Longitude
303,Pacific Coast Highway,90277,33.8459641,-118.3881593
1220,Beryl Street,90277,33.8541696,-118.3797307
1021,North Harbor Drive,90277,33.8516728,-118.3971210
2315,Artesia Boulevard,90278,33.8730962,-118.3686860
100B,Fishermans Wharf,90277,33.8389369,-118.3906710
3901,Inglewood Avenue,90278,33.8929989,-118.3617632
4001,Inglewood Avenue,90278,33.8931514,-118.3622253
615,Anita Street/190th Street,90278,33.8569263,-118.3835131
271,Avenida del Norte,90277,33.8182589,-118.3862135
1735,South Catalina Avenue,90277,33.8173191,-118.3879080
1761,South Elena Avenue,90277,33.8185754,-118.3860940
1718,South Catalina Avenue,90277,33.8177224,-118.3876972
1511,Hawthorne Boulevard,90278,33.8684662,-118.3537360
234,South Pacific Coast Highway,90277,33.8390935,-118.3849698
149,South Elena Avenue,90277,33.8185316,-118.3856790
225,Avenue I,90277,33.8194138,-118.3864012
2907,West 182nd Street,90278,33.8659247,-118.3560263
132,International Boardwalk,90277,33.8414633,-118.3910764
2401,Artesia Boulevard,90278,33.8732269,-118.3680302
2301,Artesia Boulevard,90278,33.8732563,-118.3691590
415,Pacific Coast Highway,90277,33.8479381,-118.3885590
409,Pacific Coast Highway,90277,33.8481269,-118.3893740
1927,Artesia Boulevard,90278,33.8730325,-118.3789280
3613,Inglewood Avenue,90278,33.8879352,-118.3615607
300,North Pacific Coast Highway,90277,33.8453307,-118.3870840
1525,Aviation Blvd.,90278,33.8795369,-118.3799377
130,South International Boardwalk,90277,33.8407002,-118.3906970
209,North Harbor Drive,90277,33.8434248,-118.3923470
247,South Pacific Coast Highway,90277,33.8384828,-118.3860017
1600,South Pacific Coast Highway,90277,33.8197872,-118.3848353
2441,190th Street,90278-5031,33.8585592,-118.3668525
1202,Beryl Street,90277,33.8537404,-118.3807700
2299,190th Street,90278,33.8586458,-118.3701082
630,The Village,90277,33.8401322,-118.3890385
640,The Village,90277,33.8397288,-118.3888196
100,Fishermans Wharf,90277,33.8390407,-118.3907050
1,Diamond Street,90277,33.8434843,-118.3895717
207,Palos Verdes Boulevard,90277,33.8169308,-118.3855287
213,Palos Verdes Boulevard,90277,33.8168347,-118.3856260
211,Palos Verdes Boulevard,90277,33.8168589,-118.3856015
221,Palos Verdes Boulevard,90277,33.8166958,-118.3857667
223,Palos Verdes Boulevard,90277,33.8166337,-118.3858296
201,Palos Verdes Boulevard,90277,33.8169677,-118.3854913
217,Palos Verdes Boulevard,90277,33.8167867,-118.3856747
219,Palos Verdes Boulevard,90277,33.8167386,-118.3857234
1604,Marshallfield Lane,90278,33.8649448,-118.3828515
1606,Marshallfield Lane,90278,33.8649146,-118.3829397
1605,Marshallfield Lane,90278,33.8651103,-118.3830965
1607,Marshallfield Lane,90278,33.8651637,-118.3829819
1601,Havemeyer Lane,90278,33.8609092,-118.3850839
1603,Havemeyer Lane,90278,33.8608790,-118.3850135
1605,Havemeyer Lane,90278,33.8608796,-118.3849268
1607,Havemeyer Lane,90278,33.8608674,-118.3848378
1609,Havemeyer Lane,90278,33.8608655,-118.3847619
1611,Havemeyer Lane,90278,33.8608732,-118.3846729
1613,Havemeyer Lane,90278,33.8608725,-118.3846001
1615,Havemeyer Lane,90278,33.8608655,-118.3845072
1617,Havemeyer Lane,90278,33.8608642,-118.3844337
1619,Havemeyer Lane,90278,33.8608687,-118.3843501
1621,Havemeyer Lane,90278,33.8608668,-118.3842726
1904,Artesia Boulevard,90278,33.8725761,-118.3785630
2215,Artesia Boulevard,90278,33.8730166,-118.3714370
2228,Artesia Boulevard,90278,33.8726720,-118.3708704
4051,Inglewood Avenue,90278,33.8939541,-118.3616560
2105,Artesia Boulevard,90278,33.8730121,-118.3743970
1018,south Pacific Coast Highway,90277,33.8261472,-118.3854100
2601,Artesia Boulevard,90278-3311,33.8732400,-118.3640800
1413,Hawthorne Boulevard,90278,33.8671175,-118.3536370
1601,Kingsdale Avenue,90278,33.8690045,-118.3574680
1888,Pacific Coast Highway,90277,33.8168731,-118.3772075
226,South Prospect Avenue,90277-3521,33.8391735,-118.3757458
409,Pacific Coast Highway,90277,33.8480018,-118.3895120
225,Avenue I,90277,33.8193498,-118.3863812
730,South Pacific Coast Highway,90277,33.8290036,-118.3850873
730,South Pacific Coast Highway,90277,33.8290859,-118.3850671
553,North Pacific Coast Highway,90277,33.8511442,-118.3898311
2651,Manhattan Beach Boulevard,90278,33.8876446,-118.3631714
510,North Prospect Avenue,90277,33.8525454,-118.3789160
245,Palos Verdes Boulevard,90277,33.8163596,-118.3859981
1212,Beryl Street,90277,33.8539396,-118.3802458
4001,Inglewood Avenue,90278,33.8928506,-118.3624576
1601,Kingsdale Avenue,90278-3928,33.8689249,-118.3578497
3801,Inglewood Avenue,90278,33.8921015,-118.3617896
306,South Pacific Coast Highway,90277,33.8379848,-118.3849765
2501,Santa Fe Avenue,90278,33.8904221,-118.3650705
2580,Santa Fe Avenue,90278,33.8893772,-118.3633442
300,North Harbor Drive,90277,33.8452992,-118.3925626
685-696,The Village,90277,33.8386242,-118.3884475
677-684,The Village,90277,33.8386121,-118.3886689
610,The Village,90277,33.8406879,-118.3896320
310,The Village,90277,33.8424137,-118.3894993
340,The Village,90277,33.8416419,-118.3905776
660,The Village,90277,33.8389216,-118.3887610
630,The Village,90277,33.8400089,-118.3893791
661-676,The Village,90277,33.8391182,-118.3893047
330,The Village,90277,33.8421712,-118.3908562
320,The Village,90277,33.8421298,-118.3892232
650,The Village,90277,33.8393205,-118.3887943
620,The Village,90277,33.8403297,-118.3895502
640,The Village,90277,33.8395981,-118.3891595
300,The Village,90277,33.8420919,-118.3903208
350,The Village,90277,33.8412222,-118.3902919
360,The Village Drive,90277,33.8410090,-118.3898170
123,South Catalina Avenue,90277,33.8406558,-118.3888348
319-338,The Village,90277,33.8419551,-118.3897821
301-318,The Village,90277,33.8421949,-118.3901129
335-354,The Village,90277,33.8414578,-118.3897087
210,The Village,90277,33.8428544,-118.3894952
1302,Palos Verdes Boulevard,90277,33.8225757,-118.3776054
1306,Palos Verdes Boulevard,90277,33.8225707,-118.3778637
1303,Palos Verdes Boulevard,90277,33.8230273,-118.3777362
1300,Palos Verdes Boulevard,90277,33.8226126,-118.3774370
1301,Palos Verdes Boulevard,90277,33.8235334,-118.3771471
111,Paseo de la Playa,90277,33.8159360,-118.3886039
110,Paseo de la Playa,90277,33.8154909,-118.3883201
105,Paseo de la Playa,90277,33.8156909,-118.3890294
112;114,Paseo de la Playa,90277,33.8156633,-118.3881118
113;115,Paseo de la Playa,90277,33.8159817,-118.3884365
1701,South Catalina Avenue,90277,33.8190361,-118.3885712
103,Paseo de la Playa,90277,33.8156713,-118.3893544
108,Paseo de la Playa,90277,33.8153569,-118.3885339
200;202;204;206;208,Calle Miramar,90277,33.8151834,-118.3888070
100;102;104;106,Paseo de la Playa,90277,33.8152999,-118.3889616
301,Knob Hill Avenue,90277,33.8292338,-118.3873896
415,Vincent Street,90277,33.8437469,-118.3869610
665,North Harbor Drive,90277,33.8486275,-118.3962959
401,Diamond Street,90277,33.8448777,-118.3883551
260,Portofino Way,90277,33.8453420,-118.3974355
235,North Pacific Coast Highway,90277,33.8444682,-118.3874039
220,The Village,90277,33.8431566,-118.3897156
510-540,The Village,90277,33.8414001,-118.3891189
1054,Palos Verdes Boulevard,90277,33.8224656,-118.3750275
1025,Palos Verdes Boulevard,90277,33.8230323,-118.3759328
1018,Palos Verdes Boulevard,90277,33.8225410,-118.3762109
1036,Palos Verdes Boulevard,90277,33.8224789,-118.3755553
1049,Palos Verdes Boulevard,90277,33.8230152,-118.3751486
1063,Palos Verdes Boulevard,90277,33.8229785,-118.3747748
1020,Palos Verdes Boulevard,90277,33.8225319,-118.3760774
1045,Palos Verdes Boulevard,90277,33.8229968,-118.3752895
1026,Palos Verdes Boulevard,90277,33.8225003,-118.3759347
1030,Palos Verdes Boulevard,90277,33.8225253,-118.3758172
1029,Palos Verdes Boulevard,90277,33.8230399,-118.3758310
1033,Palos Verdes Boulevard,90277,33.8230622,-118.3756814
1021,Palos Verdes Boulevard,90277,33.8230624,-118.3760922
1062,Palos Verdes Boulevard,90277,33.8224132,-118.3747153
1046,Palos Verdes Boulevard,90277,33.8224757,-118.3752906
1037,Palos Verdes Boulevard,90277,33.8230478,-118.3755527
1041,Palos Verdes Boulevard,90277,33.8230573,-118.3754349
1014,Palos Verdes Boulevard,90277,33.8225512,-118.3763407
1071,Palos Verdes Boulevard,90277,33.8229525,-118.3745136
1053,Palos Verdes Boulevard,90277,33.8230010,-118.3750302
1040,Palos Verdes Boulevard,90277,33.8224735,-118.3754258
1013,Palos Verdes Boulevard,90277,33.8231257,-118.3763394
1067,Palos Verdes Boulevard,90277,33.8229842,-118.3746456
1057,Palos Verdes Boulevard,90277,33.8229593,-118.3748988
1068,Palos Verdes Boulevard,90277,33.8224361,-118.3745589
1058,Palos Verdes Boulevard,90277,33.8224480,-118.3749069
1034,Palos Verdes Boulevard,90277,33.8225236,-118.3756848
1017,Palos Verdes Boulevard,90277,33.8230579,-118.3761933
1050,Palos Verdes Boulevard,90277,33.8224913,-118.3751598
5516,Linda Drive,90505,33.8161593,-118.3742682
1512,Aviation Boulevard,90278,33.8684292,-118.3825849
1500,Aviation Boulevard,90278,33.8681056,-118.3827708
1444,Aviation Boulevard,90278,33.8678188,-118.3829650
1520,Aviation Boulevard,90278,33.8687279,-118.3823665
2012,Artesia Boulevard,90278,33.8725225,-118.3758438
2100,Artesia Boulevard,90278,33.8725681,-118.3744455
2102,Aviation Way,90278,33.8740901,-118.3797045
1919,Artesia Boulevard,90278,33.8731072,-118.3794711
2316,Artesia Boulevard,90278,33.8726346,-118.3691672
2201,Artesia Boulevard,90278,33.8731085,-118.3725152
1732,Speyer Lane,90278,33.8624889,-118.3818289
1719,Speyer Lane,90278,33.8629059,-118.3824042
1723,Speyer Lane,90278,33.8628926,-118.3822431
1516,Carmelita Avenue,90278,33.8631025,-118.3824295
1720,Belmont Lane,90278,33.8631445,-118.3814274
1721,Speyer Lane,90278,33.8628919,-118.3823237
1520,Carmelita Avenue,90278,33.8631257,-118.3823239
1743,Speyer Lane,90278,33.8628706,-118.3814015
1710,Speyer Lane,90278,33.8625341,-118.3827678
1715,Speyer Lane,90278,33.8628734,-118.3825704
1700,Speyer Lane,90278,33.8624776,-118.3831462
1725,Speyer Lane,90278,33.8628814,-118.3821189
1733,Speyer Lane,90278,33.8628953,-118.3818325
1704,Speyer Lane,90278,33.8624783,-118.3829813
1726,Speyer Lane,90278,33.8624845,-118.3820751
1735,Speyer Lane,90278,33.8628799,-118.3817480
1700,Belmont Lane,90278,33.8631445,-118.3822419
1724,Speyer Lane,90278,33.8624843,-118.3821583
1718,Belmont Lane,90278,33.8631391,-118.3815416
1706,Belmont Lane,90278,33.8631498,-118.3819945
1730,Speyer Lane,90278,33.8624954,-118.3819114
1736,Speyer Lane,90278,33.8624756,-118.3816653
1722,Speyer Lane,90278,33.8624847,-118.3822406
1720,Speyer Lane,90278,33.8624837,-118.3823228
1731,Speyer Lane,90278,33.8628954,-118.3819117
1738,Speyer Lane,90278,33.8624759,-118.3815825
1702,Speyer Lane,90278,33.8624813,-118.3830631
1703,Speyer Lane,90278,33.8628263,-118.3830655
1712,Belmont Lane,90278,33.8631503,-118.3817483
1701,Speyer Lane,90278,33.8628221,-118.3831470
1713,Speyer Lane,90278,33.8628663,-118.3826526
1707,Belmont Lane,90278,33.8631446,-118.3820780
1728,Speyer Lane,90278,33.8624929,-118.3819946
1705,Speyer Lane,90278,33.8628294,-118.3829833
1746,Speyer Lane,90278,33.8625104,-118.3812525
1711,Speyer Lane,90278,33.8628530,-118.3827343
1714,Belmont Lane,90278,33.8631438,-118.3816525
1709,Speyer Lane,90278,33.8628391,-118.3828178
1706,Speyer Lane,90278,33.8624807,-118.3829001
1707,Speyer Lane,90278,33.8628347,-118.3829002
1718,Speyer Lane,90278,33.8624858,-118.3824071
1714,Speyer Lane,90278,33.8624854,-118.3825706
1708,Belmont Lane,90278,33.8631500,-118.3819130
1740,Speyer Lane,90278,33.8625105,-118.3815000
1702,Belmont Lane,90278,33.8631444,-118.3821595
1739,Speyer Lane,90278,33.8628870,-118.3815163
1742,Speyer Lane,90278,33.8624941,-118.3814168
1747,Speyer Lane,90278,33.8628923,-118.3812707
1716,Speyer Lane,90278,33.8624861,-118.3824877
1710,Belmont Lane,90278,33.8631501,-118.3818306
1712,Speyer Lane,90278,33.8624848,-118.3826514
1737,Speyer Lane,90278,33.8629038,-118.3816422
1734,Speyer Lane,90278,33.8624883,-118.3817468
1717,Speyer Lane,90278,33.8629058,-118.3824882
1744,Speyer Lane,90278,33.8625100,-118.3813350
1729,Speyer Lane,90278,33.8628945,-118.3819941
1724,Belmont Lane,90278,33.8631883,-118.3813033
1512,Carmelita Avenue,90278,33.8630731,-118.3825767
2415,Artesia Boulevard,90278,33.8730287,-118.3671922
1205,Steinhart Avenue,90278,33.8650718,-118.3838454
1100,Ford Avenue,90278,33.8636777,-118.3816250
1103,Steinhart Avenue,90278,33.8634079,-118.3827819
1120,Ford Avenue,90278,33.8649039,-118.3824437
1119,Goodman Avenue,90278,33.8640487,-118.3841063
1112,Steinhart Avenue,90278,33.8642102,-118.3827616
1211,Goodman Avenue,90278,33.8651315,-118.3847786
1207,Ford Avenue,90278,33.8655452,-118.3832477
1403,Clark Lane,90278,33.8656076,-118.3855703
1211,Stanford Avenue,90278,33.8644617,-118.3853294
1617,Clark Lane,90278,33.8667004,-118.3838916
1217,Ford Avenue,90278,33.8661228,-118.3836402
1110,Goodman Avenue,90278,33.8637810,-118.3833861
1514,Clark Lane,90278,33.8658814,-118.3844909
1405,Clark Lane,90278,33.8656516,-118.3855040
1206,Stanford Avenue,90278,33.8647427,-118.3849542
1407,Clark Lane,90278,33.8656932,-118.3854382
1118,Harper Avenue,90278,33.8630467,-118.3847220
1615,Clark Lane,90278,33.8666532,-118.3839572
1215,Steinhart Avenue,90278,33.8656841,-118.3842608
1117,Goodman Avenue,90278,33.8639423,-118.3840316
1214,Steinhart Avenue,90278,33.8658705,-118.3838958
1113,Stanford Avenue,90278,33.8629685,-118.3843530
1107,Stanford Avenue,90278,33.8627869,-118.3842307
1227,Stanford Avenue,90278,33.8649380,-118.3856308
1501,Clark Lane,90278,33.8660008,-118.3849821
1121,Ford Avenue,90278,33.8648223,-118.3828187
1401,Clark Lane,90278,33.8655666,-118.3856349
1102,Stanford Avenue,90278,33.8629387,-118.3838177
1122,Goodman Avenue,90278,33.8644795,-118.3838606
1114,Harper Avenue,90278,33.8629107,-118.3846435
1100,Stanford Avenue,90278,33.8628226,-118.3837088
1146,Harper Avenue,90278,33.8638629,-118.3852658
1104,Harper Avenue,90278,33.8626131,-118.3844385
1223,Stanford Avenue,90278,33.8648217,-118.3855473
1230,Harper Avenue,90278,33.8649426,-118.3859766
1116,Stanford Avenue,90278,33.8637959,-118.3843194
1102,Goodman Avenue,90278,33.8632672,-118.3830837
1110,Goodman Avenue,90278,33.8631527,-118.3829717
1100,Steinhart Avenue,90278,33.8634927,-118.3822802
1105,Goodman Avenue,90278,33.8632178,-118.3835514
1202,Goodman Avenue,90278,33.8648421,-118.3840508
1605,Clark Lane,90278,33.8665041,-118.3842206
1110,Harper Avenue,90278,33.8627907,-118.3845611
1116,Harper Avenue,90278,33.8629708,-118.3846827
1142,Harper Avenue,90278,33.8637716,-118.3852093
1208,Stanford Avenue,90278,33.8648548,-118.3850379
1225,Stanford Avenue,90278,33.8648814,-118.3855873
1224,Harper Avenue,90278,33.8647410,-118.3858866
1219,Goodman Avenue,90278,33.8655213,-118.3850729
1200,Stanford Avenue,90278,33.8643878,-118.3847030
1117,Steinhart Avenue,90278,33.8642521,-118.3833503
1104,Steinhart Avenue,90278,33.8637025,-118.3824818
1120,Steinhart Avenue,90278,33.8646900,-118.3830506
1109,Ford Avenue,90278,33.8640738,-118.3822827
1124,Harper Avenue,90278,33.8632159,-118.3848358
1101,Stanford Avenue,90278,33.8626142,-118.3840962
1108,Goodman Avenue,90278,33.8636435,-118.3832975
1120,Goodman Avenue,90278,33.8643526,-118.3837938
1122,Steinhart Avenue,90278,33.8647986,-118.3831611
1105,Stanford Avenue,90278,33.8627471,-118.3841412
1112,Harper Avenue,90278,33.8628504,-118.3846003
1205,Stanford Avenue,90278,33.8642776,-118.3851894
1114,Stanford Avenue,90278,33.8636776,-118.3842528
1215,Goodman Avenue,90278,33.8653591,-118.3849346
1206,Steinhart Avenue,90278,33.8653904,-118.3835681
1203,Stanford Avenue,90278,33.8642174,-118.3851499
1102,Ford Avenue,90278,33.8639345,-118.3817770
1145,Stanford Avenue,90278,33.8639406,-118.3849663
1209,Steinhart Avenue,90278,33.8653316,-118.3840284
1212,Steinhart Avenue,90278,33.8657456,-118.3837876
1116,Ford Avenue,90278,33.8646551,-118.3822101
1212,Stanford Avenue,90278,33.8651025,-118.3851724
1118,Steinhart Avenue,90278,33.8645899,-118.3830274
1203,Goodman Avenue,90278,33.8646246,-118.3844792
1139,Stanford Avenue,90278,33.8637592,-118.3848505
1205,Ford Avenue,90278,33.8653919,-118.3832007
1102,Steinhart Avenue,90278,33.8635794,-118.3823512
1115,Goodman Avenue,90278,33.8638201,-118.3839564
1119,Ford Avenue,90278,33.8647184,-118.3827237
1103,Ford Avenue,90278,33.8637126,-118.3820977
1112,Stanford Avenue,90278,33.8635357,-118.3841866
1301,Steinhart Avenue,90278,33.8662586,-118.3845545
1203,Steinhart Avenue,90278,33.8649551,-118.3837579
1216,Goodman Avenue,90278,33.8656671,-118.3845883
1120,Stanford Avenue,90278,33.8640371,-118.3844703
1204,Steinhart Avenue,90278,33.8652926,-118.3834593
1415,Clark Lane,90278,33.8658665,-118.3851738
1505,Marshallfield Lane,90278,33.8648330,-118.3837214
1205,Goodman Avenue,90278,33.8647719,-118.3845798
1202,Stanford Avenue,90278,33.8644785,-118.3847764
1115,Ford Avenue,90278,33.8644543,-118.3825681
1211,Steinhart Avenue,90278,33.8654385,-118.3841168
1123,Goodman Avenue,90278,33.8642906,-118.3842485
1129,Stanford Avenue,90278,33.8634589,-118.3846477
1110,Stanford Avenue,90278,33.8634452,-118.3840919
1127,Stanford Avenue,90278,33.8633979,-118.3846073
1106,Stanford Avenue,90278,33.8631766,-118.3839757
1102,Harper Avenue,90278,33.8625553,-118.3843982
1219,Ford Avenue,90278,33.8662240,-118.3837250
1200,Harper Avenue,90278,33.8640618,-118.3853833
1200,Goodman Avenue,90278,33.8647332,-118.3839779
1215,Stanford Avenue,90278,33.8645722,-118.3853838
1218,Goodman Avenue,90278,33.8657974,-118.3846689
1109,Steinhart Avenue,90278,33.8637672,-118.3830191
1209,Goodman Avenue,90278,33.8649978,-118.3847289
1202,Harper Avenue,90278,33.8641419,-118.3854344
1105,Ford Avenue,90278,33.8638396,-118.3821375
1100,Harper Avenue,90278,33.8624926,-118.3843651
1216,Steinhart Avenue,90278,33.8659880,-118.3839244
1212,Goodman Avenue,90278,33.8654378,-118.3844751
1400,Marshallfield Lane,90278,33.8641606,-118.3845659
1213,Ford Avenue,90278,33.8658675,-118.3834970
1131,Stanford Avenue,90278,33.8635187,-118.3846853
1116,Steinhart Avenue,90278,33.8644364,-118.3829291
1112,Goodman Avenue,90278,33.8638911,-118.3834627
1201,Goodman Avenue,90278,33.8645181,-118.3844155
1108,Steinhart Avenue,90278,33.8639447,-118.3826066
1118,Goodman Avenue,90278,33.8642574,-118.3837229
1106,Goodman Avenue,90278,33.8635308,-118.3832212
1121,Goodman Avenue,90278,33.8641780,-118.3841927
1106,Steinhart Avenue,90278,33.8638461,-118.3825536
1200,Steinhart Avenue,90278,33.8650284,-118.3833070
1115,Steinhart Avenue,90278,33.8641374,-118.3832532
1206,Goodman Avenue,90278,33.8650678,-118.3842203
1114,Steinhart Avenue,90278,33.8643273,-118.3828313
1208,Goodman Avenue,90278,33.8651947,-118.3843211
1137,Stanford Avenue,90278,33.8636962,-118.3848093
1119,Stanford Avenue,90278,33.8631552,-118.3844546
1511,Clark Lane,90278,33.8662010,-118.3846491
1121,Stanford Avenue,90278,33.8632165,-118.3844951
1117,Ford Avenue,90278,33.8646108,-118.3826026
1303,Clark Lane,90278,33.8652074,-118.3862006
1118,Ford Avenue,90278,33.8648454,-118.3823149
1111,Stanford Avenue,90278,33.8629107,-118.3843011
1208,Harper Avenue,90278,33.8642778,-118.3855405
1117,Stanford Avenue,90278,33.8630942,-118.3844146
1134,Harper Avenue,90278,33.8635216,-118.3850231
1221,Stanford Avenue,90278,33.8647598,-118.3855070
1509,Clark Lane,90278,33.8661634,-118.3847161
1104,Goodman Avenue,90278,33.8634021,-118.3831510
1210,Steinhart Avenue,90278,33.8656228,-118.3837017
1217,Goodman Avenue,90278,33.8654637,-118.3849958
1101,Ford Avenue,90278,33.8636105,-118.3819994
1207,Stanford Avenue,90278,33.8643361,-118.3852312
1309,Clark Lane,90278,33.8653219,-118.3859991
1219,Stanford Avenue,90278,33.8647009,-118.3854669
1210,Harper Avenue,90278,33.8643366,-118.3855780
1113,Goodman Avenue,90278,33.8636956,-118.3838296
1209,Stanford Avenue,90278,33.8643960,-118.3852711
1503,Clark Lane,90278,33.8660399,-118.3849120
1107,Goodman Avenue,90278,33.8633300,-118.3836471
1115,Stanford Avenue,90278,33.8630339,-118.3843755
1206,Harper Avenue,90278,33.8642161,-118.3854999
1118,Stanford Avenue,90278,33.8639408,-118.3843684
1111,Goodman Avenue,90278,33.8635823,-118.3837896
1113,Ford Avenue,90278,33.8643318,-118.3824767
1202,Ford Avenue,90278,33.8645367,-118.3821659
1107,Steinhart Avenue,90278,33.8636806,-118.3829209
1212,Harper Avenue,90278,33.8643977,-118.3856090
1221,Ford Avenue,90278,33.8663661,-118.3837726
1126,Harper Avenue,90278,33.8632628,-118.3849008
1107,Ford Avenue,90278,33.8639836,-118.3822253
1217,Steinhart Avenue,90278,33.8658191,-118.3843360
1204,Goodman Avenue,90278,33.8649510,-118.3841326
1122,Harper Avenue,90278,33.8631339,-118.3847921
1207,Goodman Avenue,90278,33.8648909,-118.3846164
1201,Stanford Avenue,90278,33.8641576,-118.3851059
1213,Goodman Avenue,90278,33.8652475,-118.3848572
1140,Harper Avenue,90278,33.8637101,-118.3851421
1216,Harper Avenue,90278,33.8645184,-118.3856884
1128,Harper Avenue,90278,33.8633381,-118.3849053
1217,Stanford Avenue,90278,33.8646402,-118.3854250
1228,Harper Avenue,90278,33.8648770,-118.3859293
1305,Clark Lane,90278,33.8652488,-118.3861349
1311,Clark Lane,90278,33.8653523,-118.3859298
1609,Clark Lane,90278,33.8665505,-118.3841312
1507,Clark Lane,90278,33.8661240,-118.3847819
1101,Goodman Avenue,90278,33.8629514,-118.3834562
1204,Stanford Avenue,90278,33.8646310,-118.3848603
1103,Stanford Avenue,90278,33.8626743,-118.3841341
1209,Ford Avenue,90278,33.8656414,-118.3833336
1505,Clark Lane,90278,33.8660842,-118.3848482
1111,Steinhart Avenue,90278,33.8639013,-118.3830728
1203,Ford Avenue,90278,33.8652720,-118.3831222
1207,Steinhart Avenue,90278,33.8651990,-118.3839602
1113,Steinhart Avenue,90278,33.8640267,-118.3831662
1413,Clark Lane,90278,33.8658225,-118.3852414
1214,Harper Avenue,90278,33.8644608,-118.3856495
1103,Goodman Avenue,90278,33.8631183,-118.3834431
1229,Stanford Avenue,90278,33.8649972,-118.3856691
1143,Stanford Avenue,90278,33.8638780,-118.3849286
1116,Goodman Avenue,90278,33.8641008,-118.3836243
1123,Stanford Avenue,90278,33.8632779,-118.3845298
1213,Steinhart Avenue,90278,33.8655849,-118.3841759
1208,Steinhart Avenue,90278,33.8655268,-118.3836431
1114,Goodman Avenue,90278,33.8639995,-118.3835778
1219,Steinhart Avenue,90278,33.8659320,-118.3843867
1108,Stanford Avenue,90278,33.8632972,-118.3840718
1147,Stanford Avenue,90278,33.8640014,-118.3850052
1409,Clark Lane,90278,33.8657370,-118.3853719
1220,Harper Avenue,90278,33.8646454,-118.3857599
1138,Harper Avenue,90278,33.8636336,-118.3851174
1218,Harper Avenue,90278,33.8645762,-118.3857382
1110,Steinhart Avenue,90278,33.8640767,-118.3826873
1123,Steinhart Avenue,90278,33.8646084,-118.3836016
1303,Clark Lane,90278,33.8651599,-118.3862707
1104,Stanford Avenue,90278,33.8630644,-118.3838931
1211,Ford Avenue,90278,33.8657526,-118.3834356
1135,Stanford Avenue,90278,33.8636407,-118.3847672
1233,Stanford Avenue,90278,33.8651000,-118.3856930
1307,Clark Lane,90278,33.8652820,-118.3860626
1109,Stanford Avenue,90278,33.8628504,-118.3842608
1202,Steinhart Avenue,90278,33.8651406,-118.3833997
1136,Harper Avenue,90278,33.8635742,-118.3850780
1141,Stanford Avenue,90278,33.8638173,-118.3848891
1125,Stanford Avenue,90278,33.8633376,-118.3845704
1105,Steinhart Avenue,90278,33.8635490,-118.3828387
1132,Harper Avenue,90278,33.8634538,-118.3849997
1111,Ford Avenue,90278,33.8642061,-118.3823966
1130,Harper Avenue,90278,33.8633953,-118.3849499
1109,Goodman Avenue,90278,33.8634656,-118.3836572
1214,Stanford Avenue,90278,33.8652320,-118.3852763
1313,Clark Lane,90278,33.8654043,-118.3858592
1611,Clark Lane,90278,33.8666160,-118.3840347
1216,Stanford Avenue,90278,33.8653375,-118.3853460
1505,Carmelita Avenue,90278,33.8632949,-118.3826930
1215,Ford Avenue,90278,33.8660337,-118.3835510
1411,Clark Lane,90278,33.8657798,-118.3853070
1121,Steinhart Avenue,90278,33.8645036,-118.3834828
1600,Clark Lane,90278,33.8660899,-118.3840541
1315,Clark Lane,90278,33.8654421,-118.3858060
1602,Clark Lane,90278,33.8661776,-118.3839295
"1435,1437",Aviation Boulevard,90278,33.8675522,-118.3838468
1431,Aviation Boulevard,90278,33.8674588,-118.3840235
1517,Aviation Boulevard,90278,33.8685346,-118.3830450
1453,Aviation Boulevard,90278,33.8679844,-118.3833364
1449,Aviation Boulevard,90278,33.8678589,-118.3834094
1443,Aviation Boulevard,90278,33.8677220,-118.3836692
1535,Aviation Boulevard,90278,33.8689548,-118.3830467
1521,Aviation Boulevard,90278,33.8687373,-118.3830822
1207,Aviation Boulevard,90278,33.8661899,-118.3867916
1629,Carlson Lane,90278,33.8602506,-118.3840127
1640,Spreckels Lane,90278,33.8592009,-118.3833764
1644,Morgan Lane,90278,33.8611689,-118.3833567
1613,Spreckels Lane,90278,33.8595797,-118.3845731
1306,Carmelita Avenue,90278,33.8622878,-118.3841008
1603,Armour Lane,90278,33.8589382,-118.3849963
1635,Haynes Lane,90278,33.8622382,-118.3839353
1607,Haynes Lane,90278,33.8622418,-118.3851063
1633,Haynes Lane,90278,33.8622377,-118.3840139
1605,Haynes Lane,90278,33.8622325,-118.3851875
1616,Carlson Lane,90278,33.8598465,-118.3844242
1620,Havemeyer Lane,90278,33.8605062,-118.3844264
1633,Armour Lane,90278,33.8589118,-118.3836477
1627,Armour Lane,90278,33.8589097,-118.3839124
1304,Carmelita Avenue,90278,33.8622344,-118.3841813
1601,Van Horne Lane,90278,33.8582761,-118.3849438
1634,Van Horne Lane,90278,33.8578677,-118.3833463
1628,Van Horne Lane,90278,33.8578675,-118.3835926
1639,Haynes Lane,90278,33.8622495,-118.3837754
1620,Armour Lane,90278,33.8585398,-118.3841487
1619,Van Horne Lane,90278,33.8582425,-118.3841743
1640,Morgan Lane,90278,33.8611660,-118.3835218
1619,Carlson Lane,90278,33.8602512,-118.3844248
1606,Armour Lane,90278,33.8585149,-118.3847430
1616,Armour Lane,90278,33.8585402,-118.3842777
1635,Spreckels Lane,90278,33.8595696,-118.3836998
1632,Armour Lane,90278,33.8585469,-118.3836335
1641,Havemeyer Lane,90278,33.8609181,-118.3834384
1620,Morgan Lane,90278,33.8611597,-118.3843456
914,North Prospect Avenue,90278,33.8573145,-118.3846868
1621,Spreckels Lane,90278,33.8595675,-118.3843253
1634,Havemeyer Lane,90278,33.8604912,-118.3838487
1614,Van Horne Lane,90278,33.8578635,-118.3841693
1615,Van Horne Lane,90278,33.8582693,-118.3843345
1617,Spreckels Lane,90278,33.8595675,-118.3844499
1600,Haynes Lane,90278,33.8618264,-118.3853413
1639,Armour Lane,90278,33.8589099,-118.3833753
1603,Haynes Lane,90278,33.8622540,-118.3852841
1648,Haynes Lane,90278,33.8618268,-118.3833591
1632,Havemeyer Lane,90278,33.8605049,-118.3839326
1623,Van Horne Lane,90278,33.8582574,-118.3840067
1607,Ripley Avenue,90278,33.8569699,-118.3843303
1300,Carmelita Avenue,90278,33.8622174,-118.3843815
1302,Carmelita Avenue,90278,33.8622421,-118.3842645
1636,Carlson Lane,90278,33.8598482,-118.3836000
1631,Morgan Lane,90278,33.8615704,-118.3840170
1601,Haynes Lane,90278,33.8622930,-118.3853928
1616,Spreckels Lane,90278,33.8591649,-118.3844193
1637,Havemeyer Lane,90278,33.8608819,-118.3836034
1620,Carlson Lane,90278,33.8598461,-118.3842585
1609,Ripley Avenue,90278,33.8569801,-118.3841912
1637,Carlson Lane,90278,33.8602359,-118.3836833
1636,Spreckels Lane,90278,33.8592011,-118.3836465
1629,Morgan Lane,90278,33.8615694,-118.3840992
1605,Ripley Avenue,90278,33.8569630,-118.3844218
1605,Carlson Lane,90278,33.8602535,-118.3849552
1626,Havemeyer Lane,90278,33.8605049,-118.3841783
1628,Havemeyer Lane,90278,33.8605047,-118.3840958
1610,Carlson Lane,90278,33.8598306,-118.3847570
1642,Morgan Lane,90278,33.8611692,-118.3834396
1623,Carlson Lane,90278,33.8602518,-118.3842600
1608,Armour Lane,90278,33.8585266,-118.3846585
1630,Havemeyer Lane,90278,33.8605037,-118.3840129
1314,Carmelita Avenue,90278,33.8624758,-118.3837428
1636,Havemeyer Lane,90278,33.8604955,-118.3837683
1614,Carlson Lane,90278,33.8598464,-118.3845891
1629,Havemeyer Lane,90278,33.8608970,-118.3839334
1612,Morgan Lane,90278,33.8611645,-118.3846746
1610,Van Horne Lane,90278,33.8578767,-118.3843343
1641,Haynes Lane,90278,33.8622517,-118.3836915
1638,Spreckels Lane,90278,33.8591790,-118.3835136
1634,Armour Lane,90278,33.8585506,-118.3835045
1637,Haynes Lane,90278,33.8622440,-118.3838555
1612,Carlson Lane,90278,33.8598285,-118.3846691
1602,Van Horne Lane,90278,33.8579322,-118.3848048
1631,Havemeyer Lane,90278,33.8608844,-118.3838499
1622,Carlson Lane,90278,33.8598464,-118.3841774
1604,Spreckels Lane,90278,33.8591648,-118.3849523
1602,Spreckels Lane,90278,33.8591695,-118.3850365
1600,Spreckels Lane,90278,33.8591672,-118.3851198
1633,Havemeyer Lane,90278,33.8608945,-118.3837679
1639,Havemeyer Lane,90278,33.8608930,-118.3835203
1617,Haynes Lane,90278,33.8622518,-118.3846834
1646,Havemeyer Lane,90278,33.8605325,-118.3833663
1618,Spreckels Lane,90278,33.8591991,-118.3843138
1611,Ripley Avenue,90278,33.8569972,-118.3839259
1630,Carlson Lane,90278,33.8598503,-118.3838476
1638,Havemeyer Lane,90278,33.8605081,-118.3836848
1622,Speyer Lane,90278,33.8624888,-118.3835247
1601,Spreckels Lane,90278,33.8595122,-118.3850357
912,North Prospect Avenue,90278,33.8571766,-118.3846568
1622,Van Horne Lane,90278,33.8578652,-118.3838396
1633,Van Horne Lane,90278,33.8582682,-118.3835134
1632,Carlson Lane,90278,33.8598598,-118.3837641
1609,Carlson Lane,90278,33.8602544,-118.3848355
1613,Haynes Lane,90278,33.8622366,-118.3848586
1624,Speyer Lane,90278,33.8624890,-118.3834426
1630,Van Horne Lane,90278,33.8578723,-118.3835107
1632,Spreckels Lane,90278,33.8591858,-118.3837794
1626,Carlson Lane,90278,33.8598625,-118.3840136
1627,Havemeyer Lane,90278,33.8608958,-118.3840174
1615,Haynes Lane,90278,33.8622468,-118.3847772
1647,Haynes Lane,90278,33.8622284,-118.3834415
1310,Carmelita Avenue,90278,33.8624295,-118.3839357
1645,Haynes Lane,90278,33.8622281,-118.3835241
1638,Carlson Lane,90278,33.8598600,-118.3835171
1625,Carlson Lane,90278,33.8602441,-118.3837683
1649,Haynes Lane,90278,33.8622281,-118.3833599
1626,Speyer Lane,90278,33.8624883,-118.3833606
1634,Morgan Lane,90278,33.8611615,-118.3837695
1626,Van Horne Lane,90278,33.8578732,-118.3836758
1639,Spreckels Lane,90278,33.8595921,-118.3835165
1625,Havemeyer Lane,90278,33.8608965,-118.3840994
1642,Carlson Lane,90278,33.8598461,-118.3833537
1628,Carlson Lane,90278,33.8598495,-118.3839296
1617,Morgan Lane,90278,33.8615647,-118.3845980
1633,Carlson Lane,90278,33.8602456,-118.3838468
1639,Carlson Lane,90278,33.8602569,-118.3836010
1617,Carlson Lane,90278,33.8602486,-118.3845077
1629,Van Horne Lane,90278,33.8582601,-118.3837614
1615,Carlson Lane,90278,33.8602507,-118.3845910
1624,Van Horne Lane,90278,33.8578650,-118.3837575
1643,Havemeyer Lane,90278,33.8609109,-118.3833563
1606,Morgan Lane,90278,33.8611656,-118.3849220
1642,Haynes Lane,90278,33.8618257,-118.3836076
1606,Carlson Lane,90278,33.8598268,-118.3849293
1613,Morgan Lane,90278,33.8615639,-118.3847629
1621,Morgan Lane,90278,33.8615642,-118.3844331
1623,Havemeyer Lane,90278,33.8609095,-118.3841809
1600,Armour Lane,90278,33.8585039,-118.3849911
1604,Armour Lane,90278,33.8585068,-118.3848267
1608,Morgan Lane,90278,33.8611652,-118.3848397
914,North Prospect Avenue,90278,33.8572476,-118.3846757
1641,Spreckels Lane,90278,33.8595878,-118.3834344
1627,Morgan Lane,90278,33.8615653,-118.3841839
1609,Morgan Lane,90278,33.8615634,-118.3849278
1624,Haynes Lane,90278,33.8618315,-118.3843503
1634,Carlson Lane,90278,33.8598530,-118.3836817
1624,Havemeyer Lane,90278,33.8605098,-118.3842619
1632,Morgan Lane,90278,33.8611711,-118.3838511
1618,Van Horne Lane,90278,33.8578664,-118.3840057
1614,Spreckels Lane,90278,33.8591735,-118.3845039
1627,Spreckels Lane,90278,33.8595675,-118.3840752
1630,Morgan Lane,90278,33.8611713,-118.3839327
1640,Carlson Lane,90278,33.8598549,-118.3834356
1620,Haynes Lane,90278,33.8618312,-118.3845170
1618,Morgan Lane,90278,33.8611644,-118.3844277
1641,Morgan Lane,90278,33.8615649,-118.3836046
1602,Armour Lane,90278,33.8585264,-118.3849086
1628,Armour Lane,90278,33.8585267,-118.3838925
1647,Morgan Lane,90278,33.8615650,-118.3833587
1606,Van Horne Lane,90278,33.8578722,-118.3845002
1620,Van Horne Lane,90278,33.8578629,-118.3839208
1605,Van Horne Lane,90278,33.8582832,-118.3847822
1608,Van Horne Lane,90278,33.8578735,-118.3844178
1623,Morgan Lane,90278,33.8615650,-118.3843502
1627,Van Horne Lane,90278,33.8582613,-118.3838433
1608,Carlson Lane,90278,33.8598294,-118.3848414
1602,Morgan Lane,90278,33.8611644,-118.3850867
1616,Haynes Lane,90278,33.8618305,-118.3846822
1611,Morgan Lane,90278,33.8615640,-118.3848454
1614,Havemeyer Lane,90278,33.8605028,-118.3846502
1643,Haynes Lane,90278,33.8622378,-118.3836033
1617,Armour Lane,90278,33.8589096,-118.3843132
1616,Van Horne Lane,90278,33.8578898,-118.3840877
1640,Havemeyer Lane,90278,33.8605080,-118.3836023
1625,Spreckels Lane,90278,33.8595696,-118.3842002
1613,Carlson Lane,90278,33.8602476,-118.3846723
1643,Morgan Lane,90278,33.8615652,-118.3835246
1605,Morgan Lane,90278,33.8615638,-118.3850926
1607,Van Horne Lane,90278,33.8582637,-118.3846962
904,North Prospect Avenue,90278,33.8569489,-118.3846294
1635,Havemeyer Lane,90278,33.8608876,-118.3836855
1602,Carlson Lane,90278,33.8598419,-118.3850962
1621,Van Horne Lane,90278,33.8582628,-118.3840883
1612,Spreckels Lane,90278,33.8591730,-118.3845860
1625,Carlson Lane,90278,33.8602488,-118.3841779
1602,Haynes Lane,90278,33.8618294,-118.3852581
1611,Van Horne Lane,90278,33.8582578,-118.3845020
1612,Havemeyer Lane,90278,33.8605007,-118.3847556
1617,Van Horne Lane,90278,33.8582350,-118.3842514
908,North Prospect Avenue,90278,33.8570401,-118.3846364
1636,Morgan Lane,90278,33.8611625,-118.3836874
1624,Carlson Lane,90278,33.8598621,-118.3840935
1627,Carlson Lane,90278,33.8602479,-118.3840946
1628,Haynes Lane,90278,33.8618321,-118.3841846
1609,Van Horne Lane,90278,33.8582612,-118.3845830
1625,Morgan Lane,90278,33.8615644,-118.3842664
1604,Haynes Lane,90278,33.8618294,-118.3851754
1640,Haynes Lane,90278,33.8618232,-118.3836896
1612,Haynes Lane,90278,33.8618306,-118.3848467
1603,Van Horne Lane,90278,33.8582673,-118.3848620
1616,Morgan Lane,90278,33.8611649,-118.3845106
1645,Morgan Lane,90278,33.8615657,-118.3834412
1613,Van Horne Lane,90278,33.8582629,-118.3844177
1608,Haynes Lane,90278,33.8618296,-118.3850114
1603,Morgan Lane,90278,33.8615644,-118.3851744
1607,Morgan Lane,90278,33.8615641,-118.3850099
1636,Haynes Lane,90278,33.8618312,-118.3838542
1632,Haynes Lane,90278,33.8618308,-118.3840206
1608,Havemeyer Lane,90278,33.8605134,-118.3849409
1641,Carlson Lane,90278,33.8602348,-118.3835197
1637,Van Horne Lane,90278,33.8582670,-118.3833422
1610,Armour Lane,90278,33.8585388,-118.3845365
1604,Carlson Lane,90278,33.8598397,-118.3850147
1644,Haynes Lane,90278,33.8618238,-118.3835236
1631,Spreckels Lane,90278,33.8595681,-118.3839512
1609,Spreckels Lane,90278,33.8595663,-118.3846969
1643,Carlson Lane,90278,33.8602514,-118.3834365
1601,Armour Lane,90278,33.8589374,-118.3850794
1600,Carlson Lane,90278,33.8598206,-118.3851733
1618,Carlson Lane,90278,33.8598456,-118.3843423
1624,Spreckels Lane,90278,33.8591989,-118.3840478
1610,Havemeyer Lane,90278,33.8605016,-118.3848341
1642,Havemeyer Lane,90278,33.8605000,-118.3835189
1611,Armour Lane,90278,33.8589353,-118.3845861
1625,Van Horne Lane,90278,33.8582604,-118.3839239
1621,Carlson Lane,90278,33.8602508,-118.3843429
1610,Spreckels Lane,90278,33.8591722,-118.3846688
910,North Prospect Avenue,90278,33.8571093,-118.3846430
1611,Carlson Lane,90278,33.8602542,-118.3847550
1631,Carlson Lane,90278,33.8602512,-118.3839308
1623,Armour Lane,90278,33.8589084,-118.3840450
1607,Armour Lane,90278,33.8589155,-118.3847840
1637,Armour Lane,90278,33.8589099,-118.3835122
1630,Armour Lane,90278,33.8585468,-118.3837635
1604,Van Horne Lane,90278,33.8578720,-118.3845840
1643,Spreckels Lane,90278,33.8595834,-118.3833475
1606,Haynes Lane,90278,33.8618296,-118.3850927
1637,Spreckels Lane,90278,33.8595833,-118.3835983
1628,Morgan Lane,90278,33.8611641,-118.3840172
1622,Havemeyer Lane,90278,33.8605083,-118.3843433
1631,Van Horne Lane,90278,33.8582751,-118.3835961
1608,Spreckels Lane,90278,33.8591786,-118.3847522
1619,Armour Lane,90278,33.8589082,-118.3841793
1639,Morgan Lane,90278,33.8615712,-118.3836883
1609,Haynes Lane,90278,33.8622624,-118.3850282
1636,Armour Lane,90278,33.8585503,-118.3833765
1615,Armour Lane,90278,33.8589356,-118.3844211
1620,Speyer Lane,90278,33.8624837,-118.3836238
1612,Van Horne Lane,90278,33.8578634,-118.3842508
1609,Armour Lane,90278,33.8589350,-118.3846682
1633,Spreckels Lane,90278,33.8595699,-118.3838275
1631,Armour Lane,90278,33.8589222,-118.3837792
1628,Spreckels Lane,90278,33.8591994,-118.3839140
902,North Prospect Avenue,90278,33.8568085,-118.3845857
1646,Haynes Lane,90278,33.8618255,-118.3834427
1632,Van Horne Lane,90278,33.8578668,-118.3834282
1611,Haynes Lane,90278,33.8622620,-118.3849450
1606,Spreckels Lane,90278,33.8591987,-118.3848567
1610,Haynes Lane,90278,33.8618301,-118.3849283
1622,Morgan Lane,90278,33.8611628,-118.3842634
1605,Armour Lane,90278,33.8589372,-118.3849134
1605,Spreckels Lane,90278,33.8595662,-118.3848224
1635,Morgan Lane,90278,33.8615685,-118.3838523
1645,Carlson Lane,90278,33.8602517,-118.3833540
1604,Havemeyer Lane,90278,33.8605485,-118.3850562
1637,Morgan Lane,90278,33.8615691,-118.3837701
1613,Armour Lane,90278,33.8589348,-118.3845031
1633,Morgan Lane,90278,33.8615726,-118.3839346
1614 1/2,Carlson Lane,90278,33.8598454,-118.3845073
1635,Van Horne Lane,90278,33.8582667,-118.3834262
1612,Armour Lane,90278,33.8585395,-118.3844074
1618,Havemeyer Lane,90278,33.8605064,-118.3845082
1620,Spreckels Lane,90278,33.8591973,-118.3841805
1638,Morgan Lane,90278,33.8611660,-118.3836040
1312,Carmelita Avenue,90278,33.8624168,-118.3838516
1614,Haynes Lane,90278,33.8618305,-118.3847635
1610,Morgan Lane,90278,33.8611621,-118.3847570
1618,Haynes Lane,90278,33.8618313,-118.3845986
1601,Morgan Lane,90278,33.8615844,-118.3852780
1630,Haynes Lane,90278,33.8618306,-118.3841013
1638,Haynes Lane,90278,33.8618314,-118.3837719
1634,Haynes Lane,90278,33.8618315,-118.3839366
1626,Haynes Lane,90278,33.8618322,-118.3842664
1604,Morgan Lane,90278,33.8611627,-118.3850043
1614,Morgan Lane,90278,33.8611649,-118.3845924
1615,Morgan Lane,90278,33.8615646,-118.3846800
1600,Morgan Lane,90278,33.8611689,-118.3851706
1619,Morgan Lane,90278,33.8615643,-118.3845151
1308,Carmelita Avenue,90278,33.8624122,-118.3840182
1622,Haynes Lane,90278,33.8618309,-118.3844340
1406,Diamond Street,90277,33.8519591,-118.3779439
448,North Prospect Avenue,90277,33.8513864,-118.3779728
1408,Diamond Street,90277,33.8520920,-118.3779374
1404,Diamond Street,90277,33.8518540,-118.3780344
5657,Alix Court,90503,33.8482046,-118.3772033
5653,Alix Court,90503,33.8483505,-118.3772321
446,North Prospect Avenue,90277,33.8512826,-118.3778843
5661,Alix Court,90503,33.8480569,-118.3771728
450,North Prospect Avenue,90277,33.8514764,-118.3780211
444,North Prospect Avenue,90277,33.8511772,-118.3778574
1410,Diamond Street,90277,33.8523804,-118.3779538
1402,Diamond Street,90277,33.8517704,-118.3781025
206,Pacific Coast Highway,90277,33.8397394,-118.3851956
21832,Barbara Street,90503,33.8299442,-118.3732835
716,South Pacific Coast Highway,90277,33.8294492,-118.3849977
537,Pacific Coast Highway,90277,33.8504266,-118.3895864
701,North Pacific Coast Highway,90277,33.8524679,-118.3898349
400,North Harbor Drive,90277,33.8467486,-118.3934063
1401,Hawthorne Boulevard,90278,33.8658586,-118.3537266
1505,Hawthorne Boulevard,90278,33.8678169,-118.3539942
1799,Hawthorne Boulevard,90278,33.8701388,-118.3550029
2740,Artesia Boulevard,90278-3314,33.8723864,-118.3597330
1413,Hawthorne Boulevard,90278,33.8669696,-118.3538204
2410,Marine Avenue,90278,33.8938651,-118.3665822
2420,Marine Avenue,90278,33.8929896,-118.3654183
1515,Hawthorne Boulevard,90278,33.8682739,-118.3542974
1513,Hawthorne Boulevard,90278,33.8683569,-118.3539712
1,Sea Hawk Way,90277,33.8461351,-118.3823292
300,The Village,90277,33.8420108,-118.3903714
1,Diamond Street,90277,33.8431621,-118.3906285
1133,Stanford Avenue,90278,33.8635816,-118.3847301
1108,Harper Avenue,90278,33.8627331,-118.3845286
1106,Harper Avenue,90278,33.8626725,-118.3844888
1210,Stanford Avenue,90278,33.8649863,-118.3850933
1210,Goodman Avenue,90278,33.8653124,-118.3844000
1214,Goodman Avenue,90278,33.8655520,-118.3845653
1302,Steinhart Avenue,90278,33.8663954,-118.3843562
1603,Clark Lane,90278,33.8664406,-118.3842928
1624,Armour Lane,90278,33.8585392,-118.3840240
1525,Aviation Boulevard,90278,33.8688154,-118.3830548
1501,Aviation Boulevard,90278,33.8681180,-118.3833862
1505,Aviation Boulevard,90278,33.8682344,-118.3833259
1441,Aviation Boulevard,90278,33.8676654,-118.3836840
2521,Artesia Boulevard,90278,33.8732208,-118.3644836
4402,Redondo Beach Boulevard,90278,33.8731353,-118.3538761
401,Pacific Coast Highway,90277,33.8467652,-118.3887725
405,Pacific Coast Highway,90277,33.8473941,-118.3895284
2430,Marine Avenue,90278,33.8916943,-118.3638129
109,Paseo de la Playa,90277,33.8158889,-118.3888096
625,S Pacific Coast Hwy,90277,33.8311942,-118.3853161
435,South Pacific Coast Highway,90277,33.8353132,-118.3855555
211,Yacht Club Way,90277,33.8516728,-118.3987837
240,The Village,90277,33.8427389,-118.3899803
250,The Village,90277,33.8426576,-118.3905330
1119,Steinhart Avenue,90278,33.8643757,-118.3834134
100,North Pacific Coast Highway,90277,33.8424425,-118.3855017
1850,South Pacific Coast Highway,90277,33.8167083,-118.3787859
711,S Pacific Coast Hwy,90277,33.8301491,-118.3855478
