House number,Street name,Postal code,Latitude,Longitude
831,Casmalia Lane,93001,34.2905210,-119.2894183
1555,Poli Street,93001,34.2816687,-119.2767781
1848,Poli Street,93001,34.2799426,-119.2721543
247,South Hill Road,93003,34.2755585,-119.2092756
10800,Henderson Road,93004,34.2869910,-119.1592022
10770,Henderson Road,93004,34.2865933,-119.1581361
450,East Harbor Boulevard,93001,34.2764567,-119.2934354
505,Poli Street,93001,34.2827125,-119.2933987
100,East Main Street,93001,34.2805141,-119.2992189
2453,Harbor Boulevard,93001,34.2630965,-119.2695040
225,East Main Street,93001,34.2809770,-119.2973126
596,East Main Street,93001,34.2809924,-119.2917269
555,East Main Street,93001,34.2810494,-119.2921787
598,East Main Street,93001,34.2806835,-119.2917068
2352,East Thompson Boulevard,93003,34.2731691,-119.2655699
2705,East Thompson Boulevard,93003,34.2725985,-119.2599239
2427,East Thompson Boulevard,93003,34.2735277,-119.2644394
3553,Telegraph Road,93003,34.2735132,-119.2472770
147,West Main Street,93001,34.2816232,-119.3031930
6120,Telegraph Road,93003,34.2778132,-119.2124309
6128,Telegraph Road,93003,34.2779557,-119.2124782
566,East Main Street,93001,34.2806929,-119.2924562
5920,Telegraph Road,93003,34.2768132,-119.2137448
661,Jasper Avenue,93004,34.2800692,-119.1704070
2099,East Harbor Boulevard,93030,34.2675926,-119.2733056
1722,South Victoria Avenue,93003,34.2588928,-119.2106124
113,East Main Street,93001,34.2810645,-119.2990202
197,North Ashwood Avenue,93003,34.2776293,-119.2402395
1450,East Thompson Boulevard,93001,34.2758967,-119.2794200
950,County Square Drive,93003,34.2664601,-119.2143461
1145,South Victoria Avenue,93003,34.2643218,-119.2125689
103,South Mills Road,93003,34.2714375,-119.2489203
103,South Mills Road,93003,34.2716646,-119.2489720
3330,Telegraph Road,93003,34.2725009,-119.2496390
3301,East Main Street,93003,34.2671851,-119.2487805
1425,South Victoria Avenue,93003,34.2617336,-119.2133825
2035,East Thompson Boulevard,93001,34.2746264,-119.2705834
1559,Spinnaker Drive,93001,34.2407447,-119.2640306
4464,McGrath Street,93003,34.2540059,-119.2333092
4517,Market St #1B,93003,34.2576395,-119.2320650
1084,East Thompson Boulevard,93001,34.2771942,-119.2848435
10337,Telephone Road,93004,34.2784121,-119.1609000
1091,Scandia Avenue,93004,34.2786661,-119.1611234
1087,Scandia Avenue,93004,34.2787740,-119.1611323
60,California Street,93001,34.2790934,-119.2928893
2734,Johnson Dr,93003,34.2504293,-119.1957910
334,Court Avenue,93003,34.2800790,-119.2422604
701,East Santa Clara Street,93001,34.2799152,-119.2897554
6633,Telephone Road,93003,34.2670069,-119.2040983
650,South Petit Avenue,93004,34.2768710,-119.1750130
1794,South Victoria Avenue,93003,34.2577748,-119.2103800
2386,East Main Street,93001,34.2757950,-119.2642510
239,West Main Street,93001,34.2817475,-119.3044405
2427,East Harbor Boulevard,93001,34.2633639,-119.2703452
10225,Telephone Road,93004,34.2774279,-119.1625504
490,North Ventura Avenue,93001,34.2871696,-119.2989034
533,East Main Street,93001,34.2809888,-119.2923948
204,East Thompson Boulevard,93001,34.2779899,-119.2975407
5200,Valentine Road,93003,34.2561556,-119.2193437
151,South Bryn Mawr Street,93003,34.2759915,-119.2218545
1695,Mesa Verde Avenue,93003,34.2578662,-119.2173807
500,High Point Drive,93003,34.2888667,-119.1985129
7770,Telegraph Road,93004,34.2797230,-119.1918130
632,Skyview Terrace,93003,34.2901403,-119.2088976
639,Skyview Terrace,93003,34.2903296,-119.2099388
661,Skyview Terrace,93003,34.2906665,-119.2097122
638,Skyview Terrace,93003,34.2903094,-119.2094089
660,Skyview Terrace,93003,34.2907442,-119.2086421
686,Skyview Terrace,93003,34.2909890,-119.2089488
687,Skyview Terrace,93003,34.2910639,-119.2094543
709,Skyview Terrace,93003,34.2912194,-119.2097366
731,Skyview Terrace,93003,34.2910121,-119.2100956
753,Skyview Terrace,93003,34.2908335,-119.2104407
769,Skyview Terrace,93003,34.2908047,-119.2107056
171,Nob Hill Lane,93003,34.2898763,-119.2096600
752,Skyview Terrace,93003,34.2913618,-119.2102599
730,Skyview Terrace,93003,34.2915367,-119.2099298
770,Topa Topa Court,93003,34.2912011,-119.2208030
667,Topa Topa Court,93003,34.2911451,-119.2210618
5485,Topa Topa Drive,93003,34.2912978,-119.2227502
5513,Crestone Court,93003,34.2907887,-119.2219985
5527,Crestone Court,93003,34.2908142,-119.2217397
5555,Crestone Court,93003,34.2908396,-119.2211912
5569,Crestone Court,93003,34.2909058,-119.2208646
5583,Crestone Court,93003,34.2907887,-119.2205812
5586,Crestone Court,93003,34.2904934,-119.2205442
5558,Crestone Court,93003,34.2904323,-119.2211111
5544,Crestone Court,93003,34.2904171,-119.2213638
5530,Crestone Court,93003,34.2903916,-119.2216164
5516,Crestone Court,93003,34.2903865,-119.2218752
5501,Kailas Street,93003,34.2900352,-119.2220971
5515,Kailas Street,93003,34.2900607,-119.2218136
5529,Kailas Street,93003,34.2900709,-119.2215548
5543,Kailas Street,93003,34.2900760,-119.2212960
5585,Kailas Street,93003,34.2900963,-119.2204456
5584,Kailas Street,93003,34.2896636,-119.2204333
5570,Kailas Street,93003,34.2896738,-119.2207291
5556,Kailas Street,93003,34.2896636,-119.2209756
5542,Kailas Street,93003,34.2896788,-119.2212220
5500,Kailas Street,93003,34.2896228,-119.2220354
741,Alverstone Avenue,93003,34.2899029,-119.2225777
729,Alverstone Avenue,93003,34.2896788,-119.2225407
718,Adirondack Avenue,93003,34.2894243,-119.2228612
705,Adirondack Avenue,93003,34.2891341,-119.2232802
704,Adirondack Avenue,93003,34.2891952,-119.2227995
5505,Rushmore Street,93003,34.2892970,-119.2219985
5519,Rushmore Street,93003,34.2893021,-119.2216780
5533,Rushmore Street,93003,34.2893123,-119.2213884
5547,Rushmore Street,93003,34.2893123,-119.2210865
5561,Rushmore Street,93003,34.2893326,-119.2207661
5573,Rushmore Street,93003,34.2892716,-119.2204333
5572,Rushmore Street,93003,34.2889559,-119.2204271
5560,Rushmore Street,93003,34.2888795,-119.2207537
5544,Rushmore Street,93003,34.2888948,-119.2210618
5502,Rushmore Street,93003,34.2888795,-119.2219122
693,Adirondack Avenue,93003,34.2887624,-119.2232186
690,Skyline Road,93003,34.2887268,-119.2235945
693,Skyline Road,93003,34.2887777,-119.2241121
679,Adirondack Avenue,93003,34.2885333,-119.2232001
670,Adirondack Avenue,93003,34.2884061,-119.2226517
683,Alverstone Avenue,93003,34.2886504,-119.2223374
671,Alverstone Avenue,93003,34.2884264,-119.2223004
5503,Kamet Court,93003,34.2885486,-119.2218321
5527,Kamet Court,93003,34.2885486,-119.2215302
5551,Kamet Court,93003,34.2892654,-119.2215986
5575,Kamet Court,93003,34.2885333,-119.2203963
5564,Kamet Court,93003,34.2881617,-119.2205627
5504,Kamet Court,93003,34.2881464,-119.2217766
665,Alverstone Avenue,93003,34.2882177,-119.2222511
657,Alverstone Avenue,93003,34.2879784,-119.2222450
645,Alverstone Avenue,93003,34.2877493,-119.2222819
644,Adirondack Avenue,93003,34.2877391,-119.2226578
630,Skyline Road,93003,34.2876118,-119.2237423
645,Skyline Road,93003,34.2879478,-119.2242230
633,Skyline Road,93003,34.2877442,-119.2242846
619,Skyline Road,93003,34.2874998,-119.2243955
609,Skyline Road,93003,34.2873013,-119.2244633
5438,Rainier Street,93003,34.2872707,-119.2230091
5440,Rainier Street,93003,34.2873420,-119.2227502
5462,Rainier Street,93003,34.2873522,-119.2225407
5474,Rainier Street,93003,34.2873573,-119.2223066
5500,Rainier Street,93003,34.2873980,-119.2220478
5512,Rainier Street,93003,34.2873929,-119.2217890
5524,Rainier Street,93003,34.2873980,-119.2215302
5536,Rainier Street,93003,34.2873878,-119.2213083
5548,Rainier Street,93003,34.2874082,-119.2210680
5560,Rainier Street,93003,34.2874031,-119.2208646
5572,Rainier Street,93003,34.2873878,-119.2205565
5549,Rainier Street,93003,34.2878155,-119.2210742
5561,Rainier Street,93003,34.2878307,-119.2208585
5573,Rainier Street,93003,34.2878257,-119.2206243
590,Valley View Way,93003,34.2871240,-119.2239258
5398,Grandview Court,93003,34.2866765,-119.2243121
572,Skyline Road,93003,34.2867475,-119.2238366
560,Skyline Road,93003,34.2865401,-119.2238234
552,Skyline Road,93003,34.2863519,-119.2237574
553,Valley View Way,93003,34.2863955,-119.2234139
539,Valley View Way,93003,34.2861991,-119.2233743
536,Skyline Road,93003,34.2861500,-119.2237045
5362,Edgehill Circle,93003,34.2859863,-119.2246126
5336,Edgehill Circle,93003,34.2860654,-119.2251971
5317,Cliffside Circle,93003,34.2857735,-119.2253226
5331,Cliffside Circle,93003,34.2856780,-119.2250188
5348,Cliffside Circle,93003,34.2852823,-119.2246820
528,Skyline Road,93003,34.2859617,-119.2236715
5361,Cliffside Circle,93003,34.2856943,-119.2245367
5414,Cliffside Circle,93003,34.2854406,-119.2233215
5428,Cliffside Circle,93003,34.2854706,-119.2230606
518,Valley View Way,93003,34.2857789,-119.2227271
525,Valley View Way,93003,34.2858198,-119.2232554
526,Valley View Way,93003,34.2859754,-119.2228195
531,Valley View Way,93003,34.2860026,-119.2233248
534,Valley View Way,93003,34.2861691,-119.2228526
596,Andorra Lane,93003,34.2867693,-119.2218388
552,Andorra Lane,93003,34.2864174,-119.2222549
540,Andorra Lane,93003,34.2862291,-119.2221888
528,Andorra Lane,93003,34.2860354,-119.2221657
5450,Foothill Road,93003,34.2848393,-119.2227700
416,Georgetown Avenue,93003,34.2828724,-119.2264045
405,Heidelberg Avenue,93003,34.2827212,-119.2260166
417,Heidelberg Avenue,93003,34.2829108,-119.2260545
418,Heidelberg Avenue,93003,34.2830064,-119.2255481
440,Heidelberg Avenue,93003,34.2832211,-119.2255842
6036,Cobblestone Drive,93003,34.2853753,-119.2147495
6142,Cobblestone Drive,93003,34.2855605,-119.2138436
6174,Cobblestone Drive,93003,34.2855682,-119.2134886
6185,Cobblestone Drive,93003,34.2860621,-119.2132084
3333,Hilltop Drive,93003,34.2819969,-119.2517616
3335,Hilltop Drive,93003,34.2820486,-119.2517573
3343,Hilltop Drive,93003,34.2820113,-119.2516678
3345,Hilltop Drive,93003,34.2820480,-119.2516628
3337,Hilltop Drive,93003,34.2821463,-119.2517153
3339,Hilltop Drive,93003,34.2821964,-119.2517041
3341,Hilltop Drive,93003,34.2821633,-119.2516202
3353,Hilltop Drive,93003,34.2819100,-119.2515057
3355,Hilltop Drive,93003,34.2819426,-119.2515089
3357,Hilltop Drive,93003,34.2819746,-119.2515045
3359,Hilltop Drive,93003,34.2820299,-119.2514989
3361,Hilltop Drive,93003,34.2819028,-119.2514156
3363,Hilltop Drive,93003,34.2819369,-119.2514038
3365,Hilltop Drive,93003,34.2819700,-119.2513988
3367,Hilltop Drive,93003,34.2820320,-119.2513931
25,South Ventura Avenue,93001,34.2805593,-119.3008800
35,South Ventura Avenue,93001,34.2804446,-119.3008782
2,West Main Street,93001,34.2809162,-119.3009663
4129,Foothill Road,93003,34.2828163,-119.2408364
3282,Grove Street,93003,34.2815888,-119.2525580
3284,Grove Street,93003,34.2816023,-119.2524786
3323,Foothill Road,93003,34.2814955,-119.2518999
3321,Foothill Road,93003,34.2815442,-119.2519232
3319,Foothill Road,93003,34.2816130,-119.2519222
3317,Foothill Road,93003,34.2815769,-119.2519720
3315,Foothill Road,93003,34.2816475,-119.2520005
3313,Foothill Road,93003,34.2816223,-119.2520340
3311,Foothill Road,93003,34.2816567,-119.2522363
3309,Foothill Road,93003,34.2816357,-119.2523084
3307,Foothill Road,93003,34.2815685,-119.2522708
3305,Foothill Road,93003,34.2815215,-119.2522485
3303,Foothill Road,93003,34.2814703,-119.2522373
3301,Foothill Road,93003,34.2814199,-119.2522190
3281,Hilltop Drive,93003,34.2820252,-119.2524966
3283,Hilltop Drive,93003,34.2820830,-119.2524948
3285,Hilltop Drive,93003,34.2820261,-119.2524148
3287,Hilltop Drive,93003,34.2820840,-119.2524108
3289,Hilltop Drive,93003,34.2820213,-119.2523325
3291,Hilltop Drive,93003,34.2820797,-119.2523279
3303,Hilltop Drive,93003,34.2820485,-119.2522380
3305,Hilltop Drive,93003,34.2820471,-119.2521895
3307,Hilltop Drive,93003,34.2820543,-119.2521060
3309,Hilltop Drive,93003,34.2821238,-119.2521014
3311,Hilltop Drive,93003,34.2819424,-119.2519817
3313,Hilltop Drive,93003,34.2819776,-119.2519800
3315,Hilltop Drive,93003,34.2820095,-119.2519765
3317,Hilltop Drive,93003,34.2820731,-119.2519683
3319,Hilltop Drive,93003,34.2819381,-119.2518819
3321,Hilltop Drive,93003,34.2819738,-119.2518737
3323,Hilltop Drive,93003,34.2820051,-119.2518685
3325,Hilltop Drive,93003,34.2820664,-119.2518632
628,Whitecap Drive,93003,34.2834685,-119.2526133
3201,Breaker Drive,93003,34.2843522,-119.2533995
3247,Breaker Drive,93003,34.2846315,-119.2528090
3279,Breaker Drive,93003,34.2848336,-119.2526320
3293,Breaker Drive,93003,34.2846887,-119.2524413
3254,Breaker Drive,93003,34.2837216,-119.2521118
3299,Island View Drive,93003,34.2837283,-119.2513588
3298,Breaker Drive,93003,34.2852379,-119.2518952
3276,Breaker Drive,93003,34.2841901,-119.2522477
3036,Seaborg Avenue,93003,34.2449141,-119.2116943
1321,Eastman Avenue,93003,34.2611264,-119.2308679
554,Lincoln Drive,93001,34.2848113,-119.2709818
3400,Telegraph Road,93003,34.2721848,-119.2490780
103,South Mills Road,93003,34.2719147,-119.2490122
103,South Mills Road,93003,34.2717912,-119.2489900
247,East Main Street,93001,34.2810608,-119.2969860
249,East Main Street,93001,34.2810608,-119.2969510
282,Rea Way,93001,34.2819566,-119.3050218
280,Rea Way,93001,34.2819479,-119.3049507
26,South Garden Street,93001,34.2807072,-119.3026284
229,East Main Street,93001,34.2809783,-119.2972511
231,East Main Street,93001,34.2809783,-119.2972062
204,East Main Street,93001,34.2806865,-119.2975863
208,East Main Street,93001,34.2806872,-119.2975098
124,Poli Street,93001,34.2818157,-119.2988510
120,Poli Street,93001,34.2817214,-119.2988076
128,Poli Street,93001,34.2818194,-119.2987695
132,Poli Street,93001,34.2817243,-119.2986758
136,Poli Street,93001,34.2818194,-119.2987227
140,Poli Street,93001,34.2818186,-119.2986368
144,Poli Street,93001,34.2817265,-119.2985448
148,Poli Street,93001,34.2818179,-119.2985873
152,Poli Street,93001,34.2818157,-119.2985015
156,Poli Street,93001,34.2817243,-119.2984103
160,Poli Street,93001,34.2818172,-119.2984590
164,Poli Street,93001,34.2818186,-119.2983687
111,Poli Street,93001,34.2823038,-119.2987343
117,Poli Street,93001,34.2824446,-119.2987522
115,Poli Street,93001,34.2823959,-119.2987458
113,Poli Street,93001,34.2823519,-119.2987400
123,Poli Street,93001,34.2824725,-119.2986760
125,Poli Street,93001,34.2825135,-119.2986811
127,Poli Street,93001,34.2825550,-119.2986847
129,Poli Street,93001,34.2825936,-119.2986890
141,Poli Street,93001,34.2822326,-119.2986408
143,Poli Street,93001,34.2822225,-119.2985905
145,Poli Street,93001,34.2822112,-119.2985323
147,Poli Street,93001,34.2821993,-119.2984748
153,Poli Street,93001,34.2822611,-119.2984432
155,Poli Street,93001,34.2822569,-119.2983915
157,Poli Street,93001,34.2822427,-119.2983383
159,Poli Street,93001,34.2822338,-119.2982880
171,Poli Street,93001,34.2823490,-119.2982686
173,Poli Street,93001,34.2823418,-119.2982197
175,Poli Street,93001,34.2823329,-119.2981658
177,Poli Street,93001,34.2823234,-119.2981126
183,Poli Street,93001,34.2822551,-119.2981148
185,Poli Street,93001,34.2822462,-119.2980630
187,Poli Street,93001,34.2822349,-119.2980005
189,Poli Street,93001,34.2822254,-119.2979488
210,East Main Street,93001,34.2806850,-119.2974381
222,East Main Street,93001,34.2806857,-119.2973584
242,East Main Street,93001,34.2806815,-119.2971054
248,East Main Street,93001,34.2806815,-119.2970677
254,East Main Street,93001,34.2806837,-119.2970297
258,East Main Street,93001,34.2806834,-119.2970030
278,East Main Street,93001,34.2806826,-119.2965976
294,East Main Street,93001,34.2806602,-119.2963319
294,East Main Street,93001,34.2806806,-119.2964402
294,East Main Street,93001,34.2806813,-119.2963964
298,East Main Street,93001,34.2806808,-119.2963370
185,East Santa Clara Street,93001,34.2797275,-119.2979750
158,West Santa Clara Street,93001,34.2793596,-119.3030955
164,West Santa Clara Street,93001,34.2793678,-119.3031666
170,West Santa Clara Street,93001,34.2793695,-119.3032235
176,West Santa Clara Street,93001,34.2793562,-119.3032817
104,West Santa Clara Street,93001,34.2793617,-119.3025651
110,West Santa Clara Street,93001,34.2793756,-119.3026285
116,West Santa Clara Street,93001,34.2793709,-119.3026828
122,West Santa Clara Street,93001,34.2793799,-119.3027437
128,West Santa Clara Street,93001,34.2793736,-119.3027969
134,West Santa Clara Street,93001,34.2793749,-119.3028544
140,West Santa Clara Street,93001,34.2793573,-119.3029216
121,South Garden Street,93001,34.2791886,-119.3025807
127,South Garden Street,93001,34.2791328,-119.3025825
135,South Garden Street,93001,34.2790903,-119.3025792
141,South Garden Street,93001,34.2790449,-119.3025818
147,South Garden Street,93001,34.2789924,-119.3025807
124,Beach Side Court,93001,34.2791665,-119.3027849
130,Beach Side Court,93001,34.2791101,-119.3027930
136,Beach Side Court,93001,34.2790748,-119.3027925
142,Beach Side Court,93001,34.2790250,-119.3027963
148,Beach Side Court,93001,34.2789796,-119.3027911
154,Beach Side Court,93001,34.2791677,-119.3031553
160,Beach Side Court,93001,34.2791178,-119.3031473
166,Beach Side Court,93001,34.2790805,-119.3031466
172,Beach Side Court,93001,34.2790273,-119.3031442
178,Beach Side Court,93001,34.2789831,-119.3031492
138,West Main Street,93001,34.2810417,-119.3028320
4005,East Main Street,93003,34.2639795,-119.2380057
4001,East Main Street,93003,34.2639563,-119.2381749
4009,East Main Street,93003,34.2640136,-119.2378249
4013,East Main Street,93003,34.2640306,-119.2377043
5912,Telegraph Road,93003,34.2768036,-119.2138261
5928,Telegraph Road,93003,34.2768272,-119.2136628
5936,Telegraph Road,93003,34.2768400,-119.2135982
5944,Telegraph Road,93003,34.2768499,-119.2135234
5952,Telegraph Road,93003,34.2768594,-119.2134628
5960,Telegraph Road,93003,34.2768700,-119.2133876
5968,Telegraph Road,93003,34.2768806,-119.2133234
5976,Telegraph Road,93003,34.2768916,-119.2132482
6048,Telegraph Road,93003,34.2770857,-119.2121130
6048,Telegraph Road,93003,34.2771003,-119.2120120
6120,Telegraph Road,93003,34.2778431,-119.2121972
6128,Telegraph Road,93003,34.2778835,-119.2124598
6100,Telegraph Road,93003,34.2776594,-119.2120226
6100,Telegraph Road,93003,34.2775572,-119.2120164
6100,South Brookshire Avenue,93003,34.2775150,-119.2120056
6100,Telegraph Road,93003,34.2774491,-119.2119920
6100,Telegraph Road,93003,34.2773814,-119.2119754
6100,Telegraph Road,93003,34.2773256,-119.2119629
51,South Victoria Avenue,93003,34.2773179,-119.2147045
51,South Victoria Avenue,93003,34.2773849,-119.2147230
11043,Citrus Drive,93004,34.2923623,-119.1573170
11047,Citrus Drive,93004,34.2923561,-119.1572328
11051,Citrus Drive,93004,34.2923716,-119.1571027
11033,Citrus Drive,93004,34.2923127,-119.1575469
11037,Citrus Drive,93004,34.2923220,-119.1574790
11039,Citrus Drive,93004,34.2923282,-119.1574406
708,Skyview Terrace,93003,34.2916557,-119.2095901
810,Caliente Lane,93001,34.2859467,-119.2882169
814,Caliente Lane,93001,34.2859993,-119.2881250
818,Caliente Lane,93001,34.2860254,-119.2880672
822,Caliente Lane,93001,34.2860711,-119.2879789
826,Caliente Lane,93001,34.2860932,-119.2878171
835,Casmalia Lane,93001,34.2858252,-119.2880088
839,Casmalia Lane,93001,34.2858630,-119.2879351
841,Casmalia Lane,93001,34.2858981,-119.2878602
847,Casmalia Lane,93001,34.2859401,-119.2877806
851,Casmalia Lane,93001,34.2859715,-119.2877162
852,Caliente Lane,93001,34.2861720,-119.2875612
856,Caliente Lane,93001,34.2862371,-119.2875450
860,Caliente Lane,93001,34.2863071,-119.2875234
903,Vallecito Drive,93001,34.2861331,-119.2873607
907,Vallecito Drive,93001,34.2861901,-119.2873470
911,Vallecito Drive,93001,34.2862599,-119.2873236
862,Casmalia Lane,93001,34.2859268,-119.2874476
866,Casmalia Lane,93001,34.2859690,-119.2874368
870,Casmalia Lane,93001,34.2860290,-119.2874157
2317,Palma Drive,93003,34.2512442,-119.2275722
652,East Main Street,93001,34.2806879,-119.2907600
654,East Main Street,93001,34.2806892,-119.2906946
998,Church Street,93001,34.2831377,-119.2857119
1029,Pacific View Lane,93001,34.2842486,-119.2849861
238,North Ann Street,93001,34.2839331,-119.2837580
1085,Poli Street,93001,34.2824022,-119.2843557
1089,Poli Street,93001,34.2824194,-119.2842860
1015,Inspiration Way,93001,34.2826363,-119.2849770
1017,Inspiration Way,93001,34.2826417,-119.2848874
1019,Inspiration Way,93001,34.2826419,-119.2848335
1001,Poli Street,93001,34.2824005,-119.2854615
1003,Poli Street,93001,34.2824001,-119.2853880
1005,Poli Street,93001,34.2823924,-119.2853058
985,Inspiration Way,93001,34.2826332,-119.2861571
987,Inspiration Way,93001,34.2826350,-119.2860830
989,Inspiration Way,93001,34.2826237,-119.2860013
993,Inspiration Way,93001,34.2826359,-119.2858237
995,Inspiration Way,93001,34.2826368,-119.2857497
997,Inspiration Way,93001,34.2826404,-119.2856663
999,Inspiration Way,93001,34.2826413,-119.2855830
1007,Inspiration Way,93001,34.2826413,-119.2854000
1009,Inspiration Way,93001,34.2826417,-119.2853172
1011,Inspiration Way,93001,34.2826300,-119.2852328
1013,Inspiration Way,93001,34.2826305,-119.2851587
2308,Hall Canyon Road,93001,34.2823616,-119.2597193
2545,Sunset Drive,93001,34.2807624,-119.2602641
2543,Sunset Drive,93001,34.2807821,-119.2603365
2535,Sunset Drive,93001,34.2809918,-119.2603157
2537,Sunset Drive,93001,34.2809655,-119.2602406
2523,Sunset Drive,93001,34.2811902,-119.2602731
2525,Sunset Drive,93001,34.2811702,-119.2601967
2511,Sunset Drive,93001,34.2814846,-119.2601573
2513,Sunset Drive,93001,34.2813851,-119.2601790
536,Briarwood Terrace,93001,34.2827554,-119.2608557
2561,Sunset Drive,93001,34.2803532,-119.2602589
2559,Sunset Drive,93001,34.2803604,-119.2603515
2551,Sunset Drive,93001,34.2805740,-119.2603411
2553,Sunset Drive,93001,34.2805529,-119.2602679
2530,Sunset Drive,93001,34.2810727,-119.2606795
2532,Sunset Drive,93001,34.2810680,-119.2607737
2464,Fernwood Drive,93001,34.2806705,-119.2617386
2466,Fernwood Drive,93001,34.2806598,-119.2616162
2474,Fernwood Drive,93001,34.2807158,-119.2612655
2476,Fernwood Drive,93001,34.2806568,-119.2612843
2478,Fernwood Drive,93001,34.2806119,-119.2612873
2488,Fernwood Drive,93001,34.2807139,-119.2610824
2486,Fernwood Drive,93001,34.2806579,-119.2610979
2484,Fernwood Drive,93001,34.2806075,-119.2611079
2550,Sunset Drive,93001,34.2806859,-119.2608390
2556,Sunset Drive,93001,34.2805778,-119.2608385
2558,Sunset Drive,93001,34.2805038,-119.2608484
2533,Hall Canyon Road,93001,34.2803087,-119.2608934
2535,Hall Canyon Road,93001,34.2803012,-119.2608038
2523,Hall Canyon Road,93001,34.2803683,-119.2611779
2525,Hall Canyon Road,93001,34.2803651,-119.2611230
2527,Hall Canyon Road,93001,34.2803663,-119.2610564
2503,Hall Canyon Road,93001,34.2803615,-119.2614341
2505,Hall Canyon Road,93001,34.2803562,-119.2613761
2501,Hall Canyon Road,93001,34.2803720,-119.2614831
2462,Fernwood Drive,93001,34.2807623,-119.2617482
2407,Sunset Drive,93001,34.2824811,-119.2626960
2243,Hillcrest Drive,93001,34.2836424,-119.2648818
488,South Mills Road,93003,34.2667949,-119.2460528
1196,Portside Drive,93001,34.2476865,-119.2604724
9372,Telephone Road,93004,34.2708514,-119.1707210
9493,Telephone Road,93004,34.2725384,-119.1705414
5700,Ralston Street,93003,34.2604531,-119.2138620
11370,Mimosa Street,93004,34.2930910,-119.1517940
4667,Telegraph Road,93003,34.2760614,-119.2329858
9286,Telephone Road,93004,34.2709775,-119.1715329
170,South Garden Street,93001,34.2787536,-119.3021988
4705,Telephone Road,93003,34.2603458,-119.2355090
1739,South Victoria Avenue,93003,34.2585896,-119.2128778
3330,Telegraph Road,93003,34.2725228,-119.2494680
4476,Market Street,93003,34.2567615,-119.2334858
2632,East Main Street,93003,34.2742239,-119.2611113
2280,East Main Street,93001,34.2765140,-119.2656885
512,East Main Street,93001,34.2806863,-119.2928078
6048,Telegraph Rd,93003,34.2770929,-119.2120143
11150,Citrus Drive,93004,34.2917031,-119.1548177
11190,Citrus Drive,93004,34.2920708,-119.1541273
801,Seneca Street,93001-1411,34.3080446,-119.2837011
3506,East Main Street,93003,34.2640158,-119.2457313
3530,East Main Street,93003,34.2640753,-119.2453289
3524,East Main Street,93003,34.2640325,-119.2454674
5101,Telegraph Road,93003,34.2765130,-119.2263601
5100,Telegraph Road,93003,34.2760033,-119.2254857
1591,Spinnaker Drive,93001,34.2421567,-119.2648257
1591,Spinnaker Drive,93001,34.2420028,-119.2648535
1560,East Main Street,93001,34.2794474,-119.2764700
2660,East Main Street,93003,34.2737642,-119.2606200
4717,Telephone Road,93003,34.2610943,-119.2349949
4870,Telephone Road,93003,34.2614930,-119.2271717
2055,East Main Street,93001,34.2780537,-119.2695581
1068,East Main Street,93001,34.2807246,-119.2844450
2705,East Thompson Boulevard,93003,34.2725292,-119.2601529
60,California Street,93001,34.2801572,-119.2929558
1885,Knoll Drive,93003,34.2561490,-119.2208192
45,South California Street,93001,34.2802766,-119.2934897
1067,East Thompson Boulevard,93001,34.2777835,-119.2844835
2601,East Main Street,93003,34.2745221,-119.2607492
930,South Mills Road,93003,34.2688486,-119.2465994
3301,East Main Street,93003,34.2685949,-119.2485303
3301,East Main Street,93003,34.2678042,-119.2486701
314,North Kalorama Street,93001,34.2845886,-119.2860346
310,North Kalorama Street,93001,34.2844461,-119.2860636
607,East Main Street,93001,34.2809801,-119.2911667
607,East Main Street,93001,34.2810069,-119.2914261
1076,East Front Street,93001,34.2768939,-119.2843387
5101,Telegraph Road,93003,34.2766324,-119.2261564
3585,Maple Street,93003,34.2693418,-119.2458979
10225,Telephone Road,93004,34.2775981,-119.1623125
840,"County Square Drive, 3rd Floor",93003,34.2695318,-119.2150295
450,East Harbor Boulevard,93001,34.2764752,-119.2935498
501,Poli Street,93001,34.2824601,-119.2934006
505,Poli Street,93001,34.2828174,-119.2933664
800,South Victoria Avenue,93009,34.2673902,-119.2108551
470,East Thompson Boulevard,93001,34.2780665,-119.2939148
410,East Thompson Boulevard,93001,34.2780585,-119.2944425
227,South California Street,93001,34.2778848,-119.2934326
200,South California Street,93001,34.2780348,-119.2927761
487,East Thompson Boulevard,93001,34.2784393,-119.2934039
143,South California Street,93001,34.2789403,-119.2934981
66,South California Street,93001,34.2799770,-119.2928154
555,East Santa Clara Street,93001,34.2799249,-119.2923186
1776,South Victoria Avenue,93003,34.2580349,-119.2089349
1794,South Victoria Avenue,93003,34.2576654,-119.2104583
1788,South Victoria Avenue,93003,34.2581474,-119.2105626
1901,Spinnaker Drive,93001,34.2484964,-119.2665650
1431,Spinnaker Drive,93001,34.2400355,-119.2624889
3301,East Main Street,93003,34.2691143,-119.2486959
3310,Telegraph Road,93003,34.2721925,-119.2506871
3498,Telegraph Road,93003,34.2726660,-119.2481018
3400,Telegraph Road,93003,34.2721232,-119.2492505
3301,East Main Street,93003,34.2682789,-119.2487097
3375,East Main Street,93003,34.2659696,-119.2472652
3449,East Main Street,93003,34.2657283,-119.2466525
333,South Mills Road,93003,34.2699355,-119.2478062
355,South Mills Road,93003,34.2691610,-119.2472439
7050,Ralston Street,93003,34.2598137,-119.1961050
11100,Telegraph Road,93004,34.2944353,-119.1579895
500,South Mills Road,93003,34.2661292,-119.2444737
488,South Mills Road,93003,34.2667848,-119.2460792
480,South Mills Road,93003,34.2671740,-119.2460681
1771,South Victoria Avenue,93003,34.2574621,-119.2111396
1739,South Victoria Avenue,93003,34.2579841,-119.2129077
1745,South Victoria Avenue,93003,34.2579394,-119.2114036
1795,South Victoria Avenue,93003,34.2572576,-119.2117458
100,Day Road,93003,34.2790009,-119.2258140
2611,Thompson Blvd,93003,34.2729495,-119.2616714
21,West Main Street,93001,34.2814198,-119.3010909
175,South Garden Street,93001,34.2785487,-119.3015252
157,Garden Street,93001,34.2786897,-119.3028226
5895,Ventura Ave,93001,34.3435141,-119.2956296
1198,Navigator Drive,93001,34.2467810,-119.2602479
301,West Front Street,93001,34.2778884,-119.3060138
1867,Spinnaker Drive,93001,34.2478065,-119.2663591
6040,Telegraph Road,93003,34.2767719,-119.2124975
2764,East Thompson Boulevard,93003,34.2712377,-119.2592773
2433,Harbor Boulevard,93001,34.2630260,-119.2701607
5688,Telephone Road,93003,34.2642961,-119.2151128
115,West Main Street,93001,34.2823911,-119.3023504
5950,Telegraph Road,93003,34.2777141,-119.2140214
6100,Telegraph Road,93003,34.2774981,-119.2119579
5980,Telegraph Road,93003,34.2778297,-119.2136697
2137,East Harbor Boulevard,93001,34.2665136,-119.2723362
4820,Telephone Road,93003,34.2622411,-119.2288660
4950,Telephone Road,93003,34.2608366,-119.2255659
901,South Kimball Road,93003,34.2702992,-119.1928348
1080,Navigator Drive,93001,34.2463479,-119.2582679
113,East Main Street,93001,34.2810578,-119.2990233
211,East Main Street,93001,34.2810529,-119.2972728
213,East Main Street,93001,34.2813523,-119.2975311
215,West Main Street,93001,34.2816708,-119.3041402
420,East Santa Clara Street,93001,34.2793319,-119.2943731
41,South Wake Forest Avenue,93003,34.2769179,-119.2185634
801,South Victoria Avenue,93003,34.2674633,-119.2135204
801,South Victoria Avenue,93003,34.2676602,-119.2133666
1145,South Victoria Avenue,93003,34.2645390,-119.2126153
1171,South Victoria Avenue,93003,34.2639772,-119.2125228
1197,South Victoria Avenue,93003,34.2636374,-119.2133831
692,East Main Street,93001,34.2806106,-119.2902186
632,East Main Street,93001,34.2806071,-119.2909918
200,East Santa Clara Street,93001,34.2791716,-119.2973451
243,East Main Street,93001,34.2810629,-119.2970465
265,East Main Street,93001,34.2811581,-119.2968250
83,South Palm Street,93001,34.2798932,-119.2964476
33,South Palm Street,93001,34.2803256,-119.2964626
270,East Main Street,93001,34.2804306,-119.2967571
230,East Main Street,93001,34.2805752,-119.2972123
36,Figueroa Street,93001,34.2803489,-119.2973791
73,North Palm Street,93001,34.2817375,-119.2964461
71,North Palm Street,93001,34.2815712,-119.2964487
26,South Chestnut Street,93001,34.2802669,-119.2912928
675,East Santa Clara Street,93001,34.2799447,-119.2903900
1401,South Victoria Avenue,93003,34.2622918,-119.2123120
1929,Johnson Drive,93003,34.2593374,-119.1992463
1295,South Victoria Avenue,93003,34.2630959,-119.2124828
1220,Cypress Point Lane,93003,34.2635217,-119.2145880
1661,South Victoria Avenue,93003,34.2582444,-119.2129436
1300,Saratoga Avenue,93003,34.2624871,-119.2184511
4071,East Main Street,93003,34.2641517,-119.2371952
1425,Dowell Drive,93003,34.2598948,-119.2234533
5838,Telegraph Road,93003,34.2776196,-119.2151618
5555,Walker Street,93003,34.2558660,-119.2146145
4200,East Main Street,93003,34.2612952,-119.2367910
4110,East Main Street,93003,34.2625758,-119.2370610
607,East Main Street,93001,34.2810530,-119.2912945
143,South Ash Street,93001,34.2789704,-119.2887729
2,West Main Street,93001,34.2807015,-119.3009759
199,Figueroa Street,93001,34.2785262,-119.2979662
231,East Thompson Boulevard,93001,34.2784507,-119.2972056
96,Mac Millan Avenue,93001,34.2782362,-119.2752466
250,South Mills Road,93003,34.2704596,-119.2467235
270,South Mills Road,93003,34.2697617,-119.2467464
300,South Mills Road,93003,34.2693220,-119.2466050
472,South Mills Road,93003,34.2675961,-119.2461620
3636,Dean Drive,93003,34.2673517,-119.2449628
8880,Halifax Street,93004,34.2669660,-119.1734915
2706,East Thompson Boulevard,93003,34.2720590,-119.2601575
2,North Catalina Street,93001,34.2790737,-119.2657366
7700,Telegraph Road,93004,34.2809320,-119.1922106
739,East Santa Clara Street,93001,34.2798380,-119.2893133
585,East Thompson Boulevard,93001,34.2785100,-119.2918181
350,East Thompson Boulevard,93001,34.2779155,-119.2955143
185,East Santa Clara Street,93001,34.2800502,-119.2980424
50,West Main Street,93001,34.2808501,-119.3016081
38,West Main Street,93001,34.2808155,-119.3014099
28,West Main Street,93001,34.2808390,-119.3012423
96,West Main Street,93001,34.2809313,-119.3020461
211,East Santa Clara Street,93001,34.2797935,-119.2974234
104,East Thompson Boulevard,93001,34.2780061,-119.2989893
545,East Thompson Boulevard,93001,34.2785079,-119.2923931
567,East Thompson Boulevard,93001,34.2784886,-119.2922295
298,South Chestnut Street,93001,34.2775382,-119.2906363
558,East Thompson Boulevard,93001,34.2779852,-119.2922679
608,East Thompson Boulevard,93001,34.2780607,-119.2913607
620,East Thompson Boulevard,93001,34.2780561,-119.2912001
632,East Thompson Boulevard,93001,34.2780435,-119.2910322
708,East Thompson Boulevard,93001,34.2776480,-119.2896833
670,East Thompson Boulevard,93001,34.2780378,-119.2905258
644,East Thompson Boulevard,93001,34.2780537,-119.2908604
692,East Thompson Boulevard,93001,34.2779964,-119.2902210
682,East Thompson Boulevard,93001,34.2780734,-119.2903671
658,East Thompson Boulevard,93001,34.2780562,-119.2906948
65,West Thompson Boulevard,93001,34.2784931,-119.3016843
170,South Garden Street,93001,34.2786468,-119.3020109
35,West Thompson Boulevard,93001,34.2784912,-119.3013699
175,South Ventura Avenue,93001,34.2785886,-119.3014192
239,West Main Street,93001,34.2817520,-119.3044446
281,West Main Street,93001,34.2817657,-119.3050175
31,Julian Street,93001,34.2821785,-119.3049653
52,Julian Street,93001,34.2822656,-119.3042388
76,Julian Street,93001,34.2828301,-119.3042594
85,Julian Street,93001,34.2829074,-119.3047317
259,West Santa Clara Street,93001,34.2805153,-119.3048941
280,West Main Street,93001,34.2812285,-119.3050722
188,West Santa Clara Street,93001,34.2792793,-119.3036082
88,East Thompson Boulevard,93001,34.2780263,-119.2995146
154,East Thompson Boulevard,93001,34.2780946,-119.2984326
204,East Thompson Boulevard,93001,34.2779857,-119.2975470
306,East Thompson Boulevard,93001,34.2780225,-119.2959776
4121,Telegraph Road,93003,34.2748796,-119.2385135
2662,East Thompson Boulevard,93003,34.2721636,-119.2610440
1787,East Thompson Boulevard,93001,34.2754858,-119.2745135
365,South Seaward Avenue,93001,34.2718498,-119.2672616
2295,Ocean Avenue,93001,34.2719866,-119.2675077
41,South Seaward Avenue,93001,34.2760459,-119.2657735
35,Mac Millan Avenue,93001,34.2789799,-119.2766495
299,South Borchard Drive,93003,34.2716038,-119.2609767
2790,East Thompson Boulevard,93003,34.2718254,-119.2588571
5190,Loma Vista Road,93003,34.2798187,-119.2256549
3100,Foothill Road,93003,34.2802308,-119.2541169
300,Hillmont Avenue,93003,34.2785427,-119.2533557
760,Jazmin Avenue,93004,34.2848110,-119.1591467
640,Jazmin Avenue,93004,34.2860862,-119.1607899
1515,South Saticoy Avenue,93004,34.2736288,-119.1562211
10225,Telephone Road,93004,34.2775637,-119.1624005
10235,Telephone Road,93004,34.2780889,-119.1624341
1098,Cachuma Avenue,93004,34.2778286,-119.1627812
10269,Telephone Road,93004,34.2781825,-119.1616019
10195,Telephone Road,93004,34.2772150,-119.1629726
15,South Petit Avenue,93004,34.2824614,-119.1821870
87,South Petit Avenue,93004,34.2819863,-119.1817655
5654,Ralston Street,77840,34.2598000,-119.2152759
1220,Johnson Drive,93003,34.2656840,-119.1988530
4020,East Main Street,93003,34.2624687,-119.2382791
4040,East Main Street,93003,34.2616725,-119.2382487
4050,East Main Street,93003,34.2617018,-119.2378334
4060,East Main Street,93003,34.2611039,-119.2380665
4393,East Main Street,93003,34.2627881,-119.2331192
4401,East Main Street,93003,34.2623677,-119.2321666
4227,East Main Street,93003,34.2636945,-119.2351702
4255,East Main Street,93003,34.2632434,-119.2341043
4255,East Main Street,93003,34.2629939,-119.2339429
4269,East Main Street,93003,34.2629130,-119.2341698
4231,East Main Street,93003,34.2631776,-119.2350546
10730,Henderson Road,93004,34.2865058,-119.1598665
10797,Darling Road,93004,34.2850845,-119.1568056
1105,South Seaward Avenue,93001,34.2637372,-119.2733261
310,South Wells Road,93004,34.2924834,-119.1581727
2350,South Victoria Avenue,93003,34.2525032,-119.2089811
1776,Mesa Verde Avenue,93003,34.2570603,-119.2159053
1720,Mesa Verde Avenue,93003,34.2576494,-119.2159599
5515,Walker Street,93003,34.2579577,-119.2150285
5400,Ralston Street,93003,34.2594707,-119.2179316
5380,Ralston Street,93003,34.2594721,-119.2185271
1023,Brockton Lane,93001,34.2664397,-119.2760021
4687,Telephone Rd,93003,34.2612149,-119.2348742
4220,East Main Street,93003,34.2621423,-119.2349988
4221,East Main Street,93003,34.2634671,-119.2359000
4115,East Main Street,93003,34.2634321,-119.2363204
4051,East Main Street,93003,34.2635643,-119.2369828
4017,East Main Street,93003,34.2636916,-119.2375406
3955,East Main Street,93003,34.2638816,-119.2395983
3949,East Main Street,93003,34.2639465,-119.2397976
3986,East Main Street,93003,34.2629290,-119.2386449
530,Kalorama Drive,93001,34.2868822,-119.2876839
533,Kalorama Drive,93001,34.2872775,-119.2877891
900,Tioga Drive,93001,34.2848392,-119.2869904
207,North Ann Street,93001,34.2835591,-119.2841734
209,North Ann Street,93001,34.2836685,-119.2841831
1071,Church Street,93001,34.2838574,-119.2843788
237,North Ann Street,93001,34.2839484,-119.2841360
1091,Gillard Lane,93001,34.2843935,-119.2841086
1055,Gillard Lane,93001,34.2843862,-119.2845767
1027,Church Street,93001,34.2839062,-119.2850682
1009,Church Street,93001,34.2838746,-119.2853444
300,North Kalorama Street,93001,34.2842011,-119.2861980
275,North Kalorama Street,93001,34.2839677,-119.2869915
880,Summit Drive,93001,34.2841590,-119.2872987
819,Caliente Lane,93001,34.2863859,-119.2881623
600,Kalorama Drive,93001,34.2887670,-119.2881323
256,North Crimea Street,93001,34.2841109,-119.2806964
276,North Crimea Street,93001,34.2843053,-119.2807224
255,North Crimea Street,93001,34.2842055,-119.2811286
258,North Crimea Street,93001,34.2841237,-119.2805096
183,Nob Hill Lane,93003,34.2897010,-119.2090166
173,Nob Hill Lane,93003,34.2898168,-119.2093278
768,Skyview Terrace,93003,34.2912247,-119.2105651
2200,Hillcrest Drive,93001,34.2834796,-119.2654388
2242,Hillcrest Drive,93001,34.2832645,-119.2649785
2222,Hillcrest Drive,93001,34.2834235,-119.2652017
2229,Sunset Drive,93001,34.2831107,-119.2653415
2205,Sunset Drive,93001,34.2831700,-119.2655905
10949,Telegraph Road,93004,34.2950409,-119.1624740
10883,Telegraph Road,93004,34.2943584,-119.1631977
130,South Wells Road,93004,34.2940954,-119.1596200
200,South Wells Road,93004,34.2934754,-119.1592817
5949,Bridgeview Drive,93003,34.2943234,-119.2151928
5943,Bridgeview Drive,93003,34.2942139,-119.2155464
840,Viewcrest Drive,93003,34.2941375,-119.2157713
5938,Bridgeview Drive,93003,34.2937059,-119.2155885
5942,Bridgeview Drive,93003,34.2938271,-119.2152182
5961,Canon Court,93003,34.2933470,-119.2154642
5973,Canon Court,93003,34.2934408,-119.2152164
5991,Canon Court,93003,34.2933041,-119.2149787
5974,Canon Court,93003,34.2930871,-119.2149553
5958,Canon Court,93003,34.2929090,-119.2153613
5962,Canon Court,93003,34.2929242,-119.2151221
5937,Viewcrest Court,93003,34.2925651,-119.2153230
5953,Viewcrest Court,93003,34.2926560,-119.2150151
5946,Bridgeview Drive,93003,34.2939580,-119.2148374
867,Viewcrest Drive,93003,34.2941838,-119.2163734
847,Viewcrest Drive,93003,34.2939966,-119.2162907
789,Viewcrest Drive,93003,34.2926438,-119.2158323
777,Viewcrest Drive,93003,34.2924488,-119.2158256
5936,Viewcrest Court,93003,34.2921460,-119.2151911
5954,Viewcrest Court,93003,34.2921547,-119.2149540
5971,Viewcrest Court,93003,34.2925209,-119.2148250
5978,Viewcrest Court,93003,34.2923324,-119.2147939
147,North Brent Street,93003,34.2739497,-119.2579031
1500,Palma Drive,93003,34.2597406,-119.2272944
5415,Ralston Street,93003,34.2602387,-119.2184803
1300,Saratoga Avenue,93003,34.2624799,-119.2189229
3940,East Main Street,93003,34.2631579,-119.2399146
3665,Market Street,93003,34.2615259,-119.2456617
605,South Mills Road,93003,34.2646198,-119.2463498
3585,Maple Street,93003,34.2694273,-119.2457409
255,Maple Court,93003,34.2706415,-119.2458565
260,Maple Court,93003,34.2707555,-119.2451688
1220,East Thompson Boulevard,93001,34.2764367,-119.2825460
2107,East Thompson Boulevard,93001,34.2745368,-119.2696194
2406,East Thompson Boulevard,93003,34.2727151,-119.2647463
295,Arcade Drive,93003,34.2727206,-119.2657301
3350,Telegraph Road,93003,34.2720462,-119.2497867
3295,East Main Street,93003,34.2685015,-119.2496936
6004,Cobblestone Drive,93003,34.2854732,-119.2151520
6036,Cobblestone Drive,93003,34.2853962,-119.2147507
6068,Cobblestone Drive,93003,34.2854833,-119.2144092
6110,Cobblestone Drive,93003,34.2855142,-119.2141130
6142,Cobblestone Drive,93003,34.2855315,-119.2138104
6174,Cobblestone Drive,93003,34.2855623,-119.2134185
6185,Cobblestone Drive,93003,34.2861084,-119.2131895
6005,Cobblestone Drive,93003,34.2857860,-119.2150314
6037,Cobblestone Drive,93003,34.2858963,-119.2147306
6069,Cobblestone Drive,93003,34.2859228,-119.2143913
6121,Cobblestone Drive,93003,34.2859857,-119.2140232
6153,Cobblestone Drive,93003,34.2860085,-119.2136627
770,Topa Topa Court,93003,34.2911965,-119.2207045
667,Topa Topa Court,93003,34.2911437,-119.2210707
775,Topa Topa Court,93003,34.2912542,-119.2212612
5575,Topa Topa Drive,93003,34.2921157,-119.2213170
5561,Topa Topa Drive,93003,34.2919884,-119.2215498
5547,Topa Topa Drive,93003,34.2918050,-119.2218257
5560,Topa Topa Drive,93003,34.2915589,-119.2214105
5546,Topa Topa Drive,93003,34.2914388,-119.2216199
5533,Topa Topa Drive,93003,34.2916819,-119.2220803
5505,Topa Topa Drive,93003,34.2914246,-119.2225529
5471,Topa Topa Drive,93003,34.2911693,-119.2229783
5457,Topa Topa Drive,93003,34.2910400,-119.2231673
5443,Topa Topa Drive,93003,34.2909552,-119.2233985
5429,Topa Topa Drive,93003,34.2909133,-119.2236496
5415,Topa Topa Drive,93003,34.2908494,-119.2239037
5401,Topa Topa Drive,93003,34.2907814,-119.2241532
787,Skyline Road,93003,34.2906038,-119.2243519
773,Skyline Road,93003,34.2903674,-119.2243864
774,Skyline Road,93003,34.2904202,-119.2239153
762,Skyline Road,93003,34.2902066,-119.2238869
761,Skyline Road,93003,34.2901381,-119.2243448
749,Skyline Road,93003,34.2899114,-119.2242818
750,Skyline Road,93003,34.2899744,-119.2238366
738,Skyline Road,93003,34.2897758,-119.2237959
737,Skyline Road,93003,34.2896895,-119.2242504
725,Skyline Road,93003,34.2894501,-119.2241844
726,Skyline Road,93003,34.2895169,-119.2237332
590,Los Altos Avenue,93004,34.2867885,-119.1620263
550,South Saticoy Avenue,93004,34.2865086,-119.1632095
261,Los Altos Avenue,93004,34.2894214,-119.1650633
436,Los Altos Avenue,93004,34.2881899,-119.1632188
160,Los Altos Avenue,93004,34.2906406,-119.1653392
7841,Telephone Road,93004,34.2691850,-119.1882717
2757,Johnson Drive,93003,34.2499785,-119.1968521
6762,Northbank Drive,93003,34.2456422,-119.1953918
840,"County Square Drive, 3rd Floor",93003,34.2672634,-119.2147672
714,Skyline Road,93003,34.2892941,-119.2237075
713,Skyline Road,93003,34.2892295,-119.2241360
701,Skyline Road,93003,34.2889995,-119.2241098
702,Skyline Road,93003,34.2890760,-119.2236499
718,Adirondack Avenue,93003,34.2894352,-119.2228347
719,Adirondack Avenue,93003,34.2893649,-119.2232933
727,Adirondack Avenue,93003,34.2895831,-119.2233665
728,Adirondack Avenue,93003,34.2896530,-119.2229219
739,Adirondack Avenue,93003,34.2897887,-119.2234127
740,Adirondack Avenue,93003,34.2898735,-119.2229472
751,Adirondack Avenue,93003,34.2900236,-119.2234219
752,Adirondack Avenue,93003,34.2901184,-119.2229806
764,Adirondack Avenue,93003,34.2903490,-119.2230464
763,Adirondack Avenue,93003,34.2902524,-119.2234909
775,Adirondack Avenue,93003,34.2904895,-119.2235528
778,Adirondack Avenue,93003,34.2906167,-119.2230616
789,Alverstone Avenue,93003,34.2907876,-119.2227260
792,Alverstone Avenue,93003,34.2910645,-119.2222963
780,Alverstone Avenue,93003,34.2907405,-119.2222405
5541,Crestone Court,93003,34.2907832,-119.2214584
5569,Crestone Court,93003,34.2908831,-119.2207872
5583,Crestone Court,93003,34.2908286,-119.2205812
5572,Crestone Court,93003,34.2904115,-119.2208397
5558,Crestone Court,93003,34.2904068,-119.2210902
5516,Crestone Court,93003,34.2903712,-119.2218620
5502,Crestone Court,93003,34.2903689,-119.2221221
777,Alverstone Avenue,93003,34.2905684,-119.2226855
765,Alverstone Avenue,93003,34.2903477,-119.2226657
753,Alverstone Avenue,93003,34.2901090,-119.2225984
5515,Kailas Street,93003,34.2900490,-119.2217923
5529,Kailas Street,93003,34.2900579,-119.2215413
5543,Kailas Street,93003,34.2900708,-119.2212946
5557,Kailas Street,93003,34.2900828,-119.2210576
5571,Kailas Street,93003,34.2900568,-119.2207600
5528,Kailas Street,93003,34.2896655,-119.2214867
5514,Kailas Street,93003,34.2896541,-119.2217495
5500,Kailas Street,93003,34.2896117,-119.2220247
729,Alverstone Avenue,93003,34.2896865,-119.2225291
721,Alverstone Avenue,93003,34.2894338,-119.2224978
5573,Rushmore Street,93003,34.2893088,-119.2204344
5560,Rushmore Street,93003,34.2888892,-119.2206896
5530,Rushmore Street,93003,34.2888943,-119.2213331
5516,Rushmore Street,93003,34.2888927,-119.2216303
5502,Rushmore Street,93003,34.2888436,-119.2218908
695,Alverstone Avenue,93003,34.2888500,-119.2223771
694,Adirondack Avenue,93003,34.2888084,-119.2227517
683,Alverstone Avenue,93003,34.2886367,-119.2223309
682,Adirondack Avenue,93003,34.2886107,-119.2226887
664,Adirondack Avenue,93003,34.2882001,-119.2225853
5527,Kamet Court,93003,34.2885555,-119.2215113
5539,Kamet Court,93003,34.2885559,-119.2212124
5563,Kamet Court,93003,34.2885958,-119.2206783
5575,Kamet Court,93003,34.2885712,-119.2203845
5576,Kamet Court,93003,34.2883315,-119.2203489
5550,Kamet Court,93003,34.2881998,-119.2208988
5538,Kamet Court,93003,34.2881849,-119.2211823
5524,Kamet Court,93003,34.2881692,-119.2214795
5504,Kamet Court,93003,34.2881354,-119.2217664
656,Adirondack Avenue,93003,34.2879669,-119.2226093
5501,Rainier Street,93003,34.2877616,-119.2217829
5523,Rainier Street,93003,34.2877909,-119.2215365
5537,Rainier Street,93003,34.2878104,-119.2213066
5585,Rainier Street,93003,34.2878148,-119.2202796
5474,Rainier Street,93003,34.2873241,-119.2222890
5462,Rainier Street,93003,34.2873146,-119.2225321
5450,Rainier Street,93003,34.2873083,-119.2227587
5438,Rainier Street,93003,34.2872853,-119.2230370
631,Adirondack Avenue,93003,34.2875699,-119.2232507
643,Adirondack Avenue,93003,34.2877824,-119.2231707
659,Adirondack Avenue,93003,34.2880573,-119.2231426
667,Adirondack Avenue,93003,34.2882746,-119.2231149
679,Adirondack Avenue,93003,34.2885162,-119.2231876
618,Skyline Road,93003,34.2873897,-119.2238635
619,Skyline Road,93003,34.2874913,-119.2243900
642,Skyline Road,93003,34.2878180,-119.2237334
654,Skyline Road,93003,34.2880548,-119.2237050
657,Skyline Road,93003,34.2881444,-119.2241408
668,Skyline Road,93003,34.2882467,-119.2236233
669,Skyline Road,93003,34.2883480,-119.2241136
678,Skyline Road,93003,34.2885049,-119.2235643
681,Skyline Road,93003,34.2885635,-119.2240889
601,Skyline Road,93003,34.2870715,-119.2243625
5385,Grandview Court,93003,34.2870474,-119.2245750
5370,Grandview Court,93003,34.2867980,-119.2246953
5384,Grandview Court,93003,34.2866587,-119.2246054
582,Valley View Way,93003,34.2870839,-119.2237092
568,Valley View Way,93003,34.2869631,-119.2232744
565,Valley View Way,93003,34.2866215,-119.2234978
562,Valley View Way,93003,34.2867515,-119.2231241
556,Valley View Way,93003,34.2865686,-119.2230170
536,Skyline Road,93003,34.2861455,-119.2237023
542,Valley View Way,93003,34.2863532,-119.2229397
528,Skyline Road,93003,34.2859557,-119.2236518
524,Skyline Road,93003,34.2857960,-119.2236039
525,Valley View Way,93003,34.2858164,-119.2232825
526,Valley View Way,93003,34.2859744,-119.2227855
5442,Cliffside Circle,93003,34.2855817,-119.2228339
5428,Cliffside Circle,93003,34.2854568,-119.2229928
5414,Cliffside Circle,93003,34.2854254,-119.2233152
5400,Cliffside Circle,93003,34.2854263,-119.2235271
5394,Cliffside Circle,93003,34.2853628,-119.2239624
5380,Cliffside Circle,93003,34.2853299,-119.2241915
5360,Cliffside Circle,93003,34.2853150,-119.2244128
5330,Cliffside Circle,93003,34.2852911,-119.2249524
5316,Cliffside Circle,93003,34.2852723,-119.2251820
5300,Cliffside Circle,93003,34.2852982,-119.2255674
5301,Cliffside Circle,93003,34.2855414,-119.2254812
5349,Cliffside Circle,93003,34.2856550,-119.2247993
5381,Cliffside Circle,93003,34.2857118,-119.2242848
523,Skyline Road,93003,34.2857655,-119.2240663
5396,Edgehill Circle,93003,34.2860489,-119.2241394
5382,Edgehill Circle,93003,34.2860196,-119.2243494
5362,Edgehill Circle,93003,34.2859690,-119.2246013
5350,Edgehill Circle,93003,34.2859307,-119.2248891
5332,Edgehill Circle,93003,34.2860615,-119.2252090
5351,Edgehill Circle,93003,34.2863252,-119.2250255
5363,Edgehill Circle,93003,34.2863719,-119.2247055
5383,Edgehill Circle,93003,34.2863831,-119.2244477
555,Skyline Road,93003,34.2864420,-119.2242152
504,Andorra Lane,93003,34.2855838,-119.2221483
516,Andorra Lane,93003,34.2858034,-119.2221420
564,Andorra Lane,93003,34.2866407,-119.2223855
576,Andorra Lane,93003,34.2868482,-119.2224462
588,Andorra Lane,93003,34.2868230,-119.2220707
515,Vista De Ventura,93003,34.2856795,-119.2209800
569,Vista De Ventura,93003,34.2865209,-119.2209504
581,Vista De Ventura,93003,34.2867658,-119.2209024
716,North Victoria Avenue,93003,34.2914102,-119.2160464
728,North Victoria Avenue,93003,34.2916227,-119.2160876
740,North Victoria Avenue,93003,34.2917952,-119.2161635
752,North Victoria Avenue,93003,34.2919939,-119.2162355
764,North Victoria Avenue,93003,34.2921950,-119.2162730
776,North Victoria Avenue,93003,34.2923830,-119.2163076
788,North Victoria Avenue,93003,34.2925765,-119.2163355
796,North Victoria Avenue,93003,34.2927834,-119.2163982
804,North Victoria Avenue,93003,34.2931344,-119.2164982
816,North Victoria Avenue,93003,34.2933448,-119.2165452
828,North Victoria Avenue,93003,34.2935320,-119.2166869
840,North Victoria Avenue,93003,34.2937474,-119.2167443
862,North Victoria Avenue,93003,34.2939303,-119.2168500
5450,Foothill Road,93003,34.2848258,-119.2227852
416,Georgetown Avenue,93003,34.2828744,-119.2263993
405,Heidelberg Avenue,93003,34.2827141,-119.2260380
417,Heidelberg Avenue,93003,34.2829069,-119.2260626
3451,Foothill Road,93003,34.2822792,-119.2502933
3377,Hilltop Drive,93003,34.2819620,-119.2512054
4949,Foothill Road,93003,34.2839770,-119.2294506
4891,Foothill Road,93003,34.2839723,-119.2301867
4795,Foothill Road,93003,34.2835415,-119.2313561
4775,Foothill Road,93003,34.2839722,-119.2314522
4129,Foothill Road,93003,34.2828307,-119.2408467
4275,Foothill Road,93003,34.2828354,-119.2389261
4235,Foothill Road,93003,34.2828477,-119.2393928
4215,Foothill Road,93003,34.2827063,-119.2396892
4203,Foothill Road,93003,34.2830390,-119.2401153
4149,Foothill Road,93003,34.2829550,-119.2404970
4205,Foothill Road,93003,34.2826751,-119.2401096
4139,Foothill Road,93003,34.2826576,-119.2403744
4469,Vassar Street,93003,34.2828512,-119.2356957
3369,Foothill Road,93003,34.2816198,-119.2513304
3359,Foothill Road,93003,34.2815917,-119.2514848
3339,Foothill Road,93003,34.2815881,-119.2517271
3281,Foothill Road,93003,34.2814111,-119.2524197
3263,Foothill Road,93003,34.2813946,-119.2526799
3245,Foothill Road,93003,34.2812824,-119.2528942
3225,Foothill Road,93003,34.2812314,-119.2531586
3207,Foothill Road,93003,34.2811464,-119.2534066
3187,Foothill Road,93003,34.2810455,-119.2536057
3169,Foothill Road,93003,34.2809934,-119.2538275
3151,Foothill Road,93003,34.2809199,-119.2540579
3133,Foothill Road,93003,34.2808734,-119.2542668
3115,Foothill Road,93003,34.2807694,-119.2544487
3097,Foothill Road,93003,34.2806963,-119.2546778
3079,Foothill Road,93003,34.2806219,-119.2549008
3061,Foothill Road,93003,34.2805545,-119.2550788
3043,Foothill Road,93003,34.2804829,-119.2553233
3025,Foothill Road,93003,34.2804873,-119.2555885
3001,Foothill Road,93003,34.2803552,-119.2557854
2989,Foothill Road,93003,34.2802558,-119.2559648
2971,Foothill Road,93003,34.2802059,-119.2561949
2953,Foothill Road,93003,34.2800972,-119.2563751
2935,Foothill Road,93003,34.2800724,-119.2566098
2917,Foothill Road,93003,34.2799345,-119.2568485
2897,Foothill Road,93003,34.2798747,-119.2570347
2846,Grove Street,93003,34.2798527,-119.2572497
2866,Grove Street,93003,34.2801872,-119.2574197
2884,Grove Street,93003,34.2803090,-119.2572327
2902,Grove Street,93003,34.2803563,-119.2570298
2920,Grove Street,93003,34.2803922,-119.2567595
2938,Grove Street,93003,34.2805039,-119.2566092
2956,Grove Street,93003,34.2805779,-119.2563942
2974,Grove Street,93003,34.2806887,-119.2561589
2992,Grove Street,93003,34.2807678,-119.2559697
3010,Grove Street,93003,34.2808320,-119.2557644
3028,Grove Street,93003,34.2808621,-119.2555020
3048,Grove Street,93003,34.2809827,-119.2553187
3066,Grove Street,93003,34.2810015,-119.2550957
3086,Grove Street,93003,34.2811156,-119.2548757
3104,Grove Street,93003,34.2811361,-119.2546322
3124,Grove Street,93003,34.2812074,-119.2544659
3142,Grove Street,93003,34.2812578,-119.2542207
3162,Grove Street,93003,34.2813522,-119.2540035
3180,Grove Street,93003,34.2814031,-119.2537242
3198,Grove Street,93003,34.2814793,-119.2535727
3220,Grove Street,93003,34.2815701,-119.2532721
3218,Grove Street,93003,34.2815340,-119.2533923
3256,Hilltop Drive,93003,34.2816233,-119.2530692
3258,Hilltop Drive,93003,34.2816389,-119.2528690
3153,Grove Street,93003,34.2817368,-119.2542028
3135,Grove Street,93003,34.2817162,-119.2544757
3117,Grove Street,93003,34.2816384,-119.2547072
3081,Grove Street,93003,34.2815613,-119.2551938
3063,Grove Street,93003,34.2815068,-119.2553952
3045,Grove Street,93003,34.2814036,-119.2556015
3027,Grove Street,93003,34.2813344,-119.2558313
3009,Grove Street,93003,34.2813014,-119.2560527
2991,Grove Street,93003,34.2812211,-119.2562238
2973,Grove Street,93003,34.2812222,-119.2564810
2953,Grove Street,93003,34.2811053,-119.2566994
2935,Grove Street,93003,34.2809925,-119.2568969
2917,Grove Street,93003,34.2808379,-119.2570789
2897,Grove Street,93003,34.2807452,-119.2573344
2883,Grove Street,93003,34.2802598,-119.2579496
2859,Grove Street,93003,34.2799445,-119.2578611
2841,Grove Street,93003,34.2797422,-119.2576606
2823,Foothill Road,93003,34.2796392,-119.2578293
2803,Foothill Road,93003,34.2796166,-119.2580284
2785,Poli Street,93003,34.2802732,-119.2584616
2777,Poli Street,93003,34.2799869,-119.2584927
2751,Poli Street,93003,34.2795835,-119.2584490
2733,Poli Street,93003,34.2795257,-119.2587281
2739,Poli Street,93003,34.2798398,-119.2588687
2727,Poli Street,93003,34.2797768,-119.2591019
2705,Poli Street,93003,34.2796464,-119.2594722
2685,Poli Street,93003,34.2795177,-119.2597759
2665,Poli Street,93003,34.2794873,-119.2600111
2635,Poli Street,93003,34.2795007,-119.2603233
2627,Poli Street,93003,34.2796530,-119.2606286
2621,Poli Street,93003,34.2794423,-119.2606094
2605,Poli Street,93003,34.2794016,-119.2608119
2593,Poli Street,93003,34.2793190,-119.2610045
2581,Poli Street,93003,34.2793172,-119.2611974
2569,Poli Street,93003,34.2792708,-119.2613991
2555,Poli Street,93003,34.2792388,-119.2615837
2543,Poli Street,93003,34.2792196,-119.2617796
2531,Poli Street,93003,34.2791908,-119.2619687
2517,Poli Street,93003,34.2791730,-119.2621842
2505,Poli Street,93003,34.2791239,-119.2623835
2491,Poli Street,93003,34.2790957,-119.2625562
2473,Poli Street,93003,34.2790473,-119.2627345
2453,Poli Street,93003,34.2790325,-119.2629369
2433,Poli Street,93003,34.2789713,-119.2631564
2885,Grove Lane,93003,34.2806639,-119.2577544
2889,Grove Lane,93003,34.2810367,-119.2575672
2891,Grove Lane,93003,34.2812893,-119.2575826
2897,Grove Lane,93003,34.2817418,-119.2574929
3001,Grove Lane,93003,34.2819626,-119.2568720
2893,Grove Lane,93003,34.2819964,-119.2579296
3033,Grove Lane,93003,34.2840995,-119.2563052
3080,Hilltop Drive,93003,34.2818047,-119.2560101
3092,Hilltop Drive,93003,34.2818067,-119.2556381
3064,Hilltop Drive,93003,34.2820549,-119.2559362
3040,Hilltop Drive,93003,34.2822239,-119.2559689
3026,Hilltop Drive,93003,34.2825038,-119.2558754
3051,Hilltop Drive,93003,34.2821973,-119.2552998
3107,Hilltop Drive,93003,34.2821606,-119.2549728
3117,Hilltop Drive,93003,34.2821278,-119.2546787
3135,Hilltop Drive,93003,34.2821703,-119.2544356
3153,Hilltop Drive,93003,34.2821590,-119.2542160
3171,Hilltop Drive,93003,34.2821617,-119.2539961
3189,Hilltop Drive,93003,34.2821628,-119.2537505
3207,Hilltop Drive,93003,34.2821676,-119.2535354
3225,Hilltop Drive,93003,34.2821453,-119.2533187
3245,Hilltop Drive,93003,34.2821116,-119.2530883
3273,Hilltop Drive,93003,34.2822775,-119.2528196
3263,Hilltop Drive,93003,34.2820639,-119.2528023
3272,Island View Drive,93003,34.2825239,-119.2514479
3248,Island View Drive,93003,34.2825175,-119.2518017
3224,Island View Drive,93003,34.2826056,-119.2521546
3200,Island View Drive,93003,34.2826494,-119.2525279
3194,Island View Drive,93003,34.2826227,-119.2529090
3172,Island View Drive,93003,34.2826268,-119.2532207
3160,Island View Drive,93003,34.2826204,-119.2535511
3148,Island View Drive,93003,34.2826180,-119.2538925
3124,Island View Drive,93003,34.2826127,-119.2545294
3112,Island View Drive,93003,34.2826041,-119.2548488
3100,Island View Drive,93003,34.2825890,-119.2552223
3101,Breaker Drive,93003,34.2827700,-119.2557272
3115,Breaker Drive,93003,34.2830126,-119.2554997
3032,Hilltop Drive,93003,34.2827291,-119.2562355
3036,Hilltop Drive,93003,34.2826188,-119.2567399
3101,Island View Drive,93003,34.2829671,-119.2548835
3125,Island View Drive,93003,34.2829819,-119.2544125
3147,Island View Drive,93003,34.2829796,-119.2539960
3169,Island View Drive,93003,34.2830034,-119.2535663
3265,Island View Drive,93003,34.2829435,-119.2516119
3287,Island View Drive,93003,34.2830316,-119.2514403
628,Whitecap Drive,93003,34.2834759,-119.2526055
654,Whitecap Drive,93003,34.2836764,-119.2529554
699,Whitecap Drive,93003,34.2838900,-119.2538396
3185,Breaker Drive,93003,34.2841909,-119.2542714
3171,Breaker Drive,93003,34.2840871,-119.2545746
3154,Breaker Drive,93003,34.2837314,-119.2543420
3157,Breaker Drive,93003,34.2838345,-119.2548515
3143,Breaker Drive,93003,34.2835615,-119.2550854
3148,Breaker Court,93003,34.2834014,-119.2538913
3136,Breaker Court,93003,34.2833678,-119.2542763
3142,Breaker Drive,93003,34.2834113,-119.2546699
3140,Breaker Drive,93003,34.2832654,-119.2547007
3129,Breaker Drive,93003,34.2832835,-119.2552471
3201,Breaker Drive,93003,34.2843811,-119.2534245
3223,Breaker Drive,93003,34.2844317,-119.2529533
3247,Breaker Drive,93003,34.2845960,-119.2528117
3279,Breaker Drive,93003,34.2847944,-119.2526247
3293,Breaker Drive,93003,34.2846984,-119.2523633
3292,Breaker Drive,93003,34.2844322,-119.2522856
3276,Breaker Drive,93003,34.2841655,-119.2522884
3218,Breaker Drive,93003,34.2840969,-119.2527164
3236,Breaker Drive,93003,34.2838874,-119.2524397
3254,Breaker Drive,93003,34.2836916,-119.2521261
6085,King Drive,93003,34.2460302,-119.2058230
245,South Mills Road,93003,34.2699313,-119.2490587
339,Nevada Avenue,93004,34.2964705,-119.1681844
347,Nevada Avenue,93004,34.2965249,-119.1683579
355,Nevada Avenue,93004,34.2965867,-119.1685510
363,Nevada Avenue,93004,34.2966430,-119.1687150
371,Nevada Avenue,93004,34.2967139,-119.1689205
379,Nevada Avenue,93004,34.2967790,-119.1690987
387,Nevada Avenue,93004,34.2968391,-119.1692886
395,Nevada Avenue,93004,34.2968959,-119.1694593
403,Nevada Avenue,93004,34.2969573,-119.1696386
384,Sacramento Drive,93004,34.2966121,-119.1694552
376,Sacramento Drive,93004,34.2964992,-119.1693414
368,Sacramento Drive,93004,34.2963480,-119.1692233
360,Sacramento Drive,93004,34.2962367,-119.1691095
10677,Inyo Street,93004,34.2960144,-119.1689886
10681,Inyo Street,93004,34.2961020,-119.1688216
10685,Inyo Street,93004,34.2962104,-119.1686678
10689,Inyo Street,93004,34.2962793,-119.1685023
10698,Inyo Street,93004,34.2961669,-119.1678519
10694,Inyo Street,93004,34.2960827,-119.1680187
10690,Inyo Street,93004,34.2959805,-119.1681725
10686,Inyo Street,93004,34.2958899,-119.1683246
10682,Inyo Street,93004,34.2957842,-119.1684961
10678,Inyo Street,93004,34.2956903,-119.1686629
10674,Inyo Street,93004,34.2955936,-119.1688423
10670,Inyo Street,93004,34.2955784,-119.1690455
341,Sacramento Drive,93004,34.2956493,-119.1692419
349,Sacramento Drive,93004,34.2957924,-119.1693556
357,Sacramento Drive,93004,34.2959297,-119.1694926
365,Sacramento Drive,93004,34.2960688,-119.1696046
373,Sacramento Drive,93004,34.2961916,-119.1697115
381,Sacramento Drive,93004,34.2963340,-119.1698324
389,Sacramento Drive,93004,34.2964823,-119.1699609
397,Sacramento Drive,93004,34.2966313,-119.1700424
401,Sacramento Drive,93004,34.2967893,-119.1701197
407,Sacramento Drive,93004,34.2969509,-119.1701146
415,Sacramento Drive,93004,34.2971197,-119.1700840
423,Nevada Avenue,93004,34.2970811,-119.1704091
431,Nevada Avenue,93004,34.2972386,-119.1705715
439,Nevada Avenue,93004,34.2974315,-119.1705897
10661,Loma Vista Road,93004,34.2951659,-119.1689406
10667,Loma Vista Road,93004,34.2952668,-119.1687646
10675,Loma Vista Road,93004,34.2953613,-119.1686003
10679,Loma Vista Road,93004,34.2954645,-119.1684369
10683,Loma Vista Road,93004,34.2955460,-119.1682806
10687,Loma Vista Road,93004,34.2956541,-119.1681142
10691,Loma Vista Road,93004,34.2957430,-119.1679585
10695,Loma Vista Road,93004,34.2958595,-119.1677716
10699,Nevada Avenue,93004,34.2959770,-119.1676335
10696,Loma Vista Road,93004,34.2956051,-119.1673316
265,Nevada Avenue,93004,34.2957680,-119.1671936
450,West Harrison Avenue,93001,34.2877809,-119.3059970
995,North Ventura Avenue,93001,34.2922090,-119.2978407
717,North Ventura Avenue,93001,34.2899269,-119.2985924
257,Nevada Avenue,93004,34.2957426,-119.1670103
233,Nevada Avenue,93004,34.2956882,-119.1668182
217,Nevada Avenue,93004,34.2956538,-119.1666177
201,Nevada Avenue,93004,34.2955788,-119.1664392
10755,Fresno Court,93004,34.2954733,-119.1669036
10739,Fresno Court,93004,34.2953294,-119.1668958
10716,Fresno Court,93004,34.2951617,-119.1668325
10732,Fresno Court,93004,34.2950429,-119.1666867
10748,Fresno Court,93004,34.2950748,-119.1664544
10764,Fresno Court,93004,34.2951232,-119.1662831
10780,Fresno Court,93004,34.2952371,-119.1661272
10796,Fresno Court,93004,34.2953308,-119.1659959
10795,Lassen Court,93004,34.2950830,-119.1657048
10779,Lassen Court,93004,34.2949786,-119.1658333
10763,Lassen Court,93004,34.2949335,-119.1660081
10747,Lassen Court,93004,34.2948580,-119.1662262
10731,Lassen Court,93004,34.2947081,-119.1663351
10715,Lassen Court,93004,34.2945179,-119.1662908
10730,Lassen Court,93004,34.2943875,-119.1661147
10746,Lassen Court,93004,34.2944030,-119.1659039
10762,Lassen Court,93004,34.2944968,-119.1657459
10778,Lassen Court,93004,34.2946050,-119.1655971
133,Nevada Avenue,93004,34.2947572,-119.1654168
117,Nevada Avenue,93004,34.2946348,-119.1652617
101,Nevada Avenue,93004,34.2945632,-119.1651199
10765,Modoc Street,93004,34.2943789,-119.1653002
10749,Modoc Street,93004,34.2942841,-119.1654591
10733,Modoc Street,93004,34.2941673,-119.1656038
10717,Modoc Street,93004,34.2940838,-119.1657691
10701,Modoc Street,93004,34.2940141,-119.1659331
83,Modoc Court,93004,34.2937129,-119.1655837
67,Modoc Court,93004,34.2935643,-119.1654460
51,Modoc Court,93004,34.2934056,-119.1653879
35,Modoc Court,93004,34.2931316,-119.1651042
19,Modoc Court,93004,34.2932054,-119.1648718
10807,Telegraph Road,93004,34.2936762,-119.1647210
15,Nevada Avenue,93004,34.2936897,-119.1640558
31,Nevada Avenue,93004,34.2938245,-119.1641525
47,Nevada Avenue,93004,34.2939609,-119.1642519
63,Nevada Avenue,93004,34.2940967,-119.1644007
79,Nevada Avenue,93004,34.2942472,-119.1645435
95,Nevada Avenue,93004,34.2943414,-119.1647143
10774,Modoc Street,93004,34.2941686,-119.1648719
10758,Modoc Street,93004,34.2940323,-119.1650143
10742,Modoc Street,93004,34.2939296,-119.1651762
2151,Alessandro Drive,93001,34.2679380,-119.2705641
551,Lincoln Drive,93001,34.2852184,-119.2709516
518,Lincoln Drive,93001,34.2848460,-119.2715006
473,Lincoln Drive,93001,34.2849460,-119.2722991
2099,East Harbor Boulevard,93030,34.2676558,-119.2734282
576,South Mills Road,93003,34.2654825,-119.2458319
103,South Mills Road,93003,34.2716284,-119.2491605
50,Julian Street,93001,34.2821678,-119.3043270
43,North Olive Street,93001,34.2821276,-119.3036810
39,North Olive Street,93001,34.2818908,-119.3037049
52,East Thompson Boulevard,93001,34.2780110,-119.3001249
42,East Thompson Boulevard,93001,34.2780741,-119.3002480
46,East Thompson Boulevard,93001,34.2779249,-119.3002461
44,East Thompson Boulevard,93001,34.2779897,-119.3002205
78,West Main Street,93001,34.2810330,-119.3019148
183,East Main Street,93001,34.2811727,-119.2980232
211,East Main Street,93001,34.2811543,-119.2977825
204,East Main Street,93001,34.2805768,-119.2975397
143,Figueroa Street,93001,34.2789545,-119.2980015
119,Figueroa Street,93001,34.2791771,-119.2980093
107,Figueroa Street,93001,34.2793392,-119.2979901
138,East Thompson Boulevard,93001,34.2780702,-119.2986356
146,East Thompson Boulevard,93001,34.2780699,-119.2985431
186,East Thompson Boulevard,93001,34.2780626,-119.2979640
225,South Palm Street,93001,34.2778649,-119.2964958
536,East Thompson Boulevard,93001,34.2780359,-119.2925216
157,South Garden Street,93001,34.2788506,-119.3026810
355,Harriet Street,93001,34.2834165,-119.3060855
43,Peking Street,93001,34.2824079,-119.3061938
31,Peking Street,93001,34.2821991,-119.3062744
43,South Olive Street,93001,34.2805412,-119.3041204
255,West Santa Clara Street,93001,34.2798967,-119.3044900
245,West Santa Clara Street,93001,34.2797077,-119.3044387
209,West Santa Clara Street,93001,34.2797945,-119.3042723
235,West Santa Clara Street,93001,34.2797925,-119.3040957
105,South Olive Street,93001,34.2793310,-119.3041490
126,South Olive Street,93001,34.2791361,-119.3036381
176,West Main Street,93001,34.2809770,-119.3035342
150,West Main Street,93001,34.2810242,-119.3033074
230,South Olive Street,93001,34.2777837,-119.3035428
239,South Olive Street,93001,34.2777810,-119.3041056
223,South Olive Street,93001,34.2779107,-119.3040155
201,South Olive Street,93001,34.2780650,-119.3040257
377,South Mills Road,93003,34.2687660,-119.2478380
477,South Mills Road,93003,34.2675572,-119.2479938
290,Maple Court,93003,34.2696917,-119.2448629
4225,East Main Street,93003,34.2631955,-119.2353713
3991,East Main Street,93003,34.2638521,-119.2387931
3959,East Main Street,93003,34.2638838,-119.2390795
3954,East Main Street,93003,34.2631569,-119.2397322
3994,East Main Street,93003,34.2629063,-119.2385078
5900,Telegraph Road,93003,34.2765811,-119.2140291
6000,Telegraph Road,93003,34.2767827,-119.2131257
6120,Telegraph Road,93003,34.2778221,-119.2122988
6128,Telegraph Road,93003,34.2779459,-119.2123199
5898,Telegraph Road,93003,34.2776449,-119.2148916
101,South Victoria Avenue,93003,34.2770285,-119.2148014
11044,Citrus Drive,93004,34.2915707,-119.1569481
359,South Victoria Avenue,93003,34.2718494,-119.2156314
359,South Victoria Avenue,93003,34.2722460,-119.2151798
4095,Telegraph Road,93003,34.2746571,-119.2395382
4111,Telegraph Road,93003,34.2747707,-119.2388726
4111,Telegraph Road,93003,34.2748244,-119.2388666
1780,Hillcrest Drive,93001,34.2845389,-119.2718164
1770,Hillcrest Drive,93001,34.2845541,-119.2721560
459,Lincoln Drive,93001,34.2847916,-119.2723988
441,Lincoln Drive,93001,34.2846378,-119.2725723
165,South Chestnut Street,93001,34.2787015,-119.2918033
74,South California Street,93001,34.2797455,-119.2928114
1045,Church Street,93001,34.2836245,-119.2848221
1083,Buena Vista Street,93001,34.2829124,-119.2841274
1081,Buena Vista Street,93001,34.2829889,-119.2845226
1037,Buena Vista Street,93001,34.2830176,-119.2849304
1039,Buena Vista Street,93001,34.2828838,-119.2847969
1056,Buena Vista Street,93001,34.2826051,-119.2846437
1066,Buena Vista Street,93001,34.2826025,-119.2844788
139,North Ann Street,93001,34.2826681,-119.2841961
123,North Ann Street,93001,34.2825153,-119.2841478
1093,Poli Street,93001,34.2823722,-119.2841467
1081,Poli Street,93001,34.2823178,-119.2843238
1069,Poli Street,93001,34.2823272,-119.2844722
1057,Poli Street,93001,34.2823369,-119.2846619
1047,Poli Street,93001,34.2823415,-119.2848162
1029,Poli Street,93001,34.2823667,-119.2850388
981,Poli Street,93001,34.2823439,-119.2858357
993,Poli Street,93001,34.2823320,-119.2856569
2701,Hall Canyon Road,93001,34.2813534,-119.2594863
2501,Sunset Drive,93001,34.2816515,-119.2602876
2495,Sunset Drive,93001,34.2818057,-119.2605341
2487,Sunset Drive,93001,34.2819537,-119.2607720
500,Briarwood Terrace,93001,34.2821260,-119.2610414
512,Briarwood Terrace,93001,34.2823231,-119.2610017
524,Briarwood Terrace,93001,34.2825348,-119.2609423
548,Briarwood Terrace,93001,34.2829136,-119.2610540
560,Briarwood Terrace,93001,34.2829880,-119.2612903
572,Briarwood Terrace,93001,34.2829934,-119.2615382
584,Briarwood Terrace,93001,34.2830440,-119.2617628
596,Briarwood Terrace,93001,34.2831223,-119.2620003
595,Briarwood Terrace,93001,34.2827173,-119.2620773
583,Briarwood Terrace,93001,34.2827091,-119.2618815
571,Briarwood Terrace,93001,34.2826612,-119.2616455
559,Briarwood Terrace,93001,34.2826046,-119.2614258
505,Briarwood Terrace,93001,34.2823055,-119.2615154
2461,Sunset Drive,93001,34.2823142,-119.2617387
2453,Sunset Drive,93001,34.2823370,-119.2619526
2445,Sunset Drive,93001,34.2823814,-119.2621971
2446,Sunset Drive,93001,34.2819881,-119.2622995
2452,Sunset Drive,93001,34.2819349,-119.2620620
2460,Sunset Drive,93001,34.2819152,-119.2618311
2468,Sunset Drive,93001,34.2818747,-119.2616096
2476,Sunset Drive,93001,34.2818048,-119.2613582
2484,Sunset Drive,93001,34.2816797,-119.2611060
2492,Sunset Drive,93001,34.2815344,-119.2609032
2500,Sunset Drive,93001,34.2814290,-119.2607372
2487,Sherwood Drive,93001,34.2811576,-119.2609530
2479,Sherwood Drive,93001,34.2812883,-119.2610788
2471,Sherwood Drive,93001,34.2814017,-119.2612902
2465,Sherwood Drive,93001,34.2814584,-119.2615136
2459,Sherwood Drive,93001,34.2814905,-119.2617427
2453,Sherwood Drive,93001,34.2815473,-119.2619665
2447,Sherwood Drive,93001,34.2816097,-119.2621663
2441,Sherwood Drive,93001,34.2816649,-119.2623756
2442,Sherwood Drive,93001,34.2812989,-119.2624471
2448,Sherwood Drive,93001,34.2812419,-119.2622052
2456,Sherwood Drive,93001,34.2812016,-119.2619706
2462,Sherwood Drive,93001,34.2811425,-119.2617019
2474,Sherwood Drive,93001,34.2810288,-119.2613790
2465,Hall Canyon Road,93001,34.2802323,-119.2618072
2463,Hall Canyon Road,93001,34.2804487,-119.2619117
334,Fairview Drive,93001,34.2799422,-119.2625086
344,Fairview Drive,93001,34.2800838,-119.2624752
356,Fairview Drive,93001,34.2802128,-119.2624138
364,Fairview Drive,93001,34.2803607,-119.2624297
374,Fairview Drive,93001,34.2804778,-119.2623273
384,Fairview Drive,93001,34.2806185,-119.2623291
396,Fairview Drive,93001,34.2807495,-119.2622445
404,Fairview Drive,93001,34.2808825,-119.2622560
416,Fairview Drive,93001,34.2809640,-119.2619627
414,Fairview Drive,93001,34.2810343,-119.2622630
395,Fairview Drive,93001,34.2807923,-119.2628352
397,Fairview Drive,93001,34.2808600,-119.2631335
2426,Palomar Avenue,93001,34.2810366,-119.2628402
2406,Palomar Avenue,93001,34.2811377,-119.2630500
2380,Palomar Avenue,93001,34.2811357,-119.2632803
2368,Palomar Avenue,93001,34.2811740,-119.2634935
2360,Palomar Avenue,93001,34.2811802,-119.2637557
2330,Palomar Avenue,93001,34.2812797,-119.2639831
2427,Palomar Avenue,93001,34.2813708,-119.2626780
2417,Palomar Avenue,93001,34.2813790,-119.2628299
2407,Palomar Avenue,93001,34.2814075,-119.2630010
2409,Palomar Avenue,93001,34.2816036,-119.2629389
2395,Palomar Avenue,93001,34.2814259,-119.2631569
2383,Palomar Avenue,93001,34.2814609,-119.2633209
2373,Palomar Avenue,93001,34.2815311,-119.2634643
2394,Hyland Avenue,93001,34.2816684,-119.2630869
2412,Hyland Avenue,93001,34.2817274,-119.2628159
2432,Hyland Avenue,93001,34.2818330,-119.2625666
2361,Palomar Avenue,93001,34.2815323,-119.2636395
2360,Hyland Avenue,93001,34.2817513,-119.2635778
2349,Palomar Avenue,93001,34.2815686,-119.2638074
2337,Palomar Avenue,93001,34.2815962,-119.2639441
2329,Palomar Avenue,93001,34.2816329,-119.2641309
2311,Hyland Avenue,93001,34.2820830,-119.2641758
2310,Sunset Drive,93001,34.2824472,-119.2641802
2320,Sunset Drive,93001,34.2823562,-119.2639863
2346,Sunset Drive,93001,34.2823510,-119.2637946
2335,Hyland Avenue,93001,34.2820894,-119.2638975
2347,Hyland Avenue,93001,34.2820554,-119.2636631
2348,Sunset Drive,93001,34.2822327,-119.2636370
2360,Sunset Drive,93001,34.2821983,-119.2634836
2359,Hyland Avenue,93001,34.2820265,-119.2635197
2371,Hyland Avenue,93001,34.2819727,-119.2633649
2372,Sunset Drive,93001,34.2821598,-119.2633130
2384,Sunset Drive,93001,34.2821248,-119.2631447
2381,Hyland Avenue,93001,34.2819464,-119.2632019
2396,Sunset Drive,93001,34.2821209,-119.2629931
2400,Sunset Drive,93001,34.2821405,-119.2628132
2423,Hyland Avenue,93001,34.2821467,-119.2626201
2299,Hillcrest Drive,93001,34.2833739,-119.2638592
2315,Foster Avenue,93001,34.2830278,-119.2639910
2333,Foster Avenue,93001,34.2832341,-119.2636674
2369,Foster Avenue,93001,34.2832693,-119.2632418
2371,Foster Avenue,93001,34.2832001,-119.2629956
2397,Foster Avenue,93001,34.2832415,-119.2627686
2405,Foster Avenue,93001,34.2832500,-119.2625558
2417,Foster Avenue,93001,34.2832571,-119.2623722
2420,Foster Avenue,93001,34.2830410,-119.2623051
2408,Foster Avenue,93001,34.2828998,-119.2625922
2392,Foster Avenue,93001,34.2828617,-119.2627681
2386,Foster Avenue,93001,34.2828624,-119.2629294
2366,Foster Avenue,93001,34.2828448,-119.2633176
2354,Foster Avenue,93001,34.2828615,-119.2634782
2344,Foster Avenue,93001,34.2828259,-119.2636475
2321,Sunset Drive,93001,34.2826836,-119.2639954
2335,Sunset Drive,93001,34.2826358,-119.2637656
2345,Sunset Drive,93001,34.2825505,-119.2635524
2365,Sunset Drive,93001,34.2825099,-119.2633788
2383,Sunset Drive,93001,34.2824823,-119.2631016
2395,Sunset Drive,93001,34.2824163,-119.2629094
2421,Sunset Drive,93001,34.2824589,-119.2624808
2257,Hillcrest Drive,93001,34.2835493,-119.2647211
2279,Hillcrest Drive,93001,34.2835509,-119.2643138
2295,Hillcrest Drive,93001,34.2834685,-119.2641401
2286,Hillcrest Drive,93001,34.2831560,-119.2642467
2272,Hillcrest Drive,93001,34.2831742,-119.2644863
2260,Hillcrest Drive,93001,34.2832727,-119.2647464
2243,Sunset Drive,93001,34.2830145,-119.2650651
566,Alabama Street,93001,34.3067556,-119.2861092
355,Chickasaw Street,93001,34.3071787,-119.2887240
5200,Telegraph Road,93003,34.2761579,-119.2247478
100,South Crocker Avenue,93004-1535,34.2806490,-119.1892396
96,South Olive Street,93001,34.2800365,-119.3033645
2070,Harbor Boulevard,93001,34.2684160,-119.2728992
6700,Eagle Street,93003,34.2645055,-119.2018235
6700,Telephone Road,93003,34.2660685,-119.2021644
6600,Telephone Road,93003,34.2649532,-119.2037535
6500,Telephone Road,93003,34.2647307,-119.2051816
930,Pacific Strand Court,93003,34.2657282,-119.2193290
6250,Telegraph Road,93003,34.2773812,-119.2102423
224,Tuolumne Avenue,93004,34.2955050,-119.1675447
212,Tuolumne Avenue,93004,34.2953212,-119.1674221
200,Tuolumne Avenue,93004,34.2951608,-119.1672751
188,Tuolumne Avenue,93004,34.2949952,-119.1671446
176,Tuolumne Avenue,93004,34.2948283,-119.1669703
164,Tuolumne Avenue,93004,34.2946608,-119.1668570
171,Tuolumne Avenue,93004,34.2945123,-119.1673077
183,Tuolumne Avenue,93004,34.2946997,-119.1674613
182,North Linden Drive,93004,34.2945424,-119.1677181
170,North Linden Drive,93004,34.2943683,-119.1675685
181,North Linden Drive,93004,34.2942571,-119.1680735
193,North Linden Drive,93004,34.2944331,-119.1682333
10663,Yolo Street,93004,34.2946423,-119.1683184
10671,Yolo Street,93004,34.2948143,-119.1681195
10679,Yolo Street,93004,34.2949080,-119.1679132
10687,Yolo Street,93004,34.2950191,-119.1677394
10686,Loma Vista Road,93004,34.2952487,-119.1679518
10678,Loma Vista Road,93004,34.2951239,-119.1681724
10670,Loma Vista Road,93004,34.2949819,-119.1683915
10662,Loma Vista Road,93004,34.2948437,-119.1686098
152,Tuolumne Avenue,93004,34.2945032,-119.1667209
140,Tuolumne Avenue,93004,34.2943385,-119.1665575
128,Tuolumne Avenue,93004,34.2941583,-119.1664231
116,Tuolumne Avenue,93004,34.2940058,-119.1662898
110,Tuolumne Avenue,93004,34.2938689,-119.1661466
10688,Modoc Street,93004,34.2935466,-119.1658444
10680,Modoc Street,93004,34.2934183,-119.1660695
11370,Mimosa Street,93004,34.2927533,-119.1519714
4200,Olivas Park Drive,93001,34.2432171,-119.2424040
1888,East Thompson Boulevard,93001,34.2745971,-119.2730744
251,South Saticoy Avenue,93004,34.2893373,-119.1672147
10450,Telegraph Road,93004,34.2898104,-119.1686888
10672,Modoc Street,93004,34.2933035,-119.1662600
10664,Modoc Street,93004,34.2931811,-119.1664689
10667,Orange Circle,93004,34.2930193,-119.1661898
10675,Orange Circle,93004,34.2931275,-119.1660170
10683,Orange Circle,93004,34.2932561,-119.1657743
10691,Orange Circle,93004,34.2931507,-119.1655537
10682,Orange Circle,93004,34.2929660,-119.1654548
10674,Orange Circle,93004,34.2927855,-119.1655759
10666,Orange Circle,93004,34.2926943,-119.1657690
17,North Linden Drive,93004,34.2924150,-119.1661995
33,North Linden Drive,93004,34.2925734,-119.1663456
51,North Linden Drive,93004,34.2927011,-119.1665305
59,North Linden Drive,93004,34.2928148,-119.1667461
87,North Linden Drive,93004,34.2929733,-119.1669194
107,North Linden Drive,93004,34.2932749,-119.1672219
121,North Linden Drive,93004,34.2934447,-119.1673451
133,North Linden Drive,93004,34.2936076,-119.1674976
145,North Linden Drive,93004,34.2937719,-119.1676334
157,North Linden Drive,93004,34.2939372,-119.1677928
169,North Linden Drive,93004,34.2940995,-119.1679426
158,North Linden Drive,93004,34.2941884,-119.1674245
146,North Linden Drive,93004,34.2940000,-119.1672539
134,North Linden Drive,93004,34.2938229,-119.1670984
118,North Linden Drive,93004,34.2936490,-119.1669468
108,North Linden Drive,93004,34.2934665,-119.1667951
109,Tuolumne Avenue,93004,34.2936168,-119.1665457
121,Tuolumne Avenue,93004,34.2938181,-119.1666780
133,Tuolumne Avenue,93004,34.2939716,-119.1668264
147,Tuolumne Avenue,93004,34.2941708,-119.1669968
159,Tuolumne Avenue,93004,34.2943303,-119.1671620
10655,Telegraph Road,93004,34.2923694,-119.1665213
10609,Telegraph Road,93004,34.2921823,-119.1669287
10618,Modoc Street,93004,34.2928186,-119.1671393
10606,Modoc Street,93004,34.2926838,-119.1673506
10596,Modoc Street,93004,34.2925453,-119.1675703
10580,Modoc Street,93004,34.2924290,-119.1677644
10568,Modoc Street,93004,34.2923495,-119.1679430
10552,Modoc Street,93004,34.2921975,-119.1681535
10536,Modoc Street,93004,34.2921262,-119.1682938
10520,Modoc Street,93004,34.2920205,-119.1685022
10508,Modoc Street,93004,34.2918957,-119.1686823
108,North Saticoy Avenue,93004,34.2922307,-119.1689654
120,North Saticoy Avenue,93004,34.2924078,-119.1691001
134,North Saticoy Avenue,93004,34.2925514,-119.1692482
146,North Saticoy Avenue,93004,34.2926994,-119.1693356
160,North Saticoy Avenue,93004,34.2928541,-119.1695053
172,North Saticoy Avenue,93004,34.2929878,-119.1695839
186,North Saticoy Avenue,93004,34.2931753,-119.1697564
198,North Saticoy Avenue,93004,34.2933027,-119.1698889
212,North Saticoy Avenue,93004,34.2934831,-119.1700209
220,North Saticoy Avenue,93004,34.2936061,-119.1701477
10506,Loma Vista Road,93004,34.2937900,-119.1703552
10518,Loma Vista Road,93004,34.2938662,-119.1701825
10534,Loma Vista Road,93004,34.2939999,-119.1700025
10550,Loma Vista Road,93004,34.2941220,-119.1697680
10566,Loma Vista Road,93004,34.2942276,-119.1696108
10578,Loma Vista Road,93004,34.2943051,-119.1694422
10594,Loma Vista Road,93004,34.2944156,-119.1692586
197,Placer Avenue,93004,34.2941762,-119.1690757
193,Placer Court,93004,34.2939630,-119.1691785
187,Placer Court,93004,34.2939653,-119.1694097
183,Placer Court,93004,34.2938100,-119.1697169
179,Placer Court,93004,34.2935876,-119.1696843
175,Placer Court,93004,34.2934490,-119.1695222
171,Placer Court,93004,34.2934036,-119.1693211
165,Placer Avenue,93004,34.2931692,-119.1693292
157,Placer Avenue,93004,34.2930417,-119.1691998
145,Placer Avenue,93004,34.2928825,-119.1691063
131,Placer Avenue,93004,34.2927226,-119.1689262
119,Placer Avenue,93004,34.2925329,-119.1687834
105,Placer Avenue,93004,34.2924140,-119.1686957
104,Placer Avenue,93004,34.2926914,-119.1682356
118,Placer Avenue,93004,34.2928128,-119.1683608
130,Placer Avenue,93004,34.2929582,-119.1684515
144,Placer Avenue,93004,34.2931471,-119.1686239
156,Placer Avenue,93004,34.2932655,-119.1687309
170,Placer Avenue,93004,34.2934363,-119.1688139
182,Placer Avenue,93004,34.2936468,-119.1688000
196,Placer Avenue,93004,34.2938283,-119.1686913
159,Alpine Avenue,93004,34.2934804,-119.1684723
147,Alpine Avenue,93004,34.2933480,-119.1683946
133,Alpine Avenue,93004,34.2931369,-119.1682049
121,Alpine Avenue,93004,34.2930113,-119.1681058
107,Alpine Avenue,93004,34.2928547,-119.1679405
106,Alpine Avenue,93004,34.2931219,-119.1675014
120,Alpine Avenue,93004,34.2932501,-119.1676006
132,Alpine Avenue,93004,34.2934224,-119.1677696
146,Alpine Avenue,93004,34.2935711,-119.1678747
158,Alpine Avenue,93004,34.2937741,-119.1680602
172,Alpine Avenue,93004,34.2939134,-119.1682024
188,Alpine Avenue,93004,34.2940688,-119.1683368
196,Alpine Avenue,93004,34.2942569,-119.1684767
210,Alpine Avenue,93004,34.2943922,-119.1686160
218,Alpine Avenue,93004,34.2945357,-119.1687038
242,Alpine Avenue,93004,34.2947007,-119.1688794
302,Alpine Avenue,93004,34.2949988,-119.1691374
316,Alpine Avenue,93004,34.2951492,-119.1692625
328,Alpine Avenue,93004,34.2953339,-119.1693983
342,Alpine Avenue,93004,34.2954597,-119.1695297
350,Alpine Avenue,93004,34.2956099,-119.1696680
358,Alpine Avenue,93004,34.2957606,-119.1697955
366,Alpine Avenue,93004,34.2959010,-119.1699088
374,Alpine Avenue,93004,34.2960657,-119.1700546
382,Alpine Avenue,93004,34.2962046,-119.1701727
390,Alpine Avenue,93004,34.2963696,-119.1703184
400,Alpine Avenue,93004,34.2965082,-119.1704340
408,Alpine Avenue,93004,34.2966902,-119.1705966
416,Alpine Avenue,93004,34.2967895,-119.1707260
422,Alpine Avenue,93004,34.2969163,-119.1709201
430,Alpine Avenue,93004,34.2970187,-119.1711015
436,Alpine Court,93004,34.2970570,-119.1713113
438,Alpine Court,93004,34.2973082,-119.1711751
442,Alpine Court,93004,34.2974629,-119.1713761
446,Alpine Court,93004,34.2974863,-119.1715847
458,Alpine Court,93004,34.2973273,-119.1718953
460,Alpine Avenue,93004,34.2971254,-119.1718103
468,Alpine Avenue,93004,34.2971028,-119.1720880
474,Alpine Avenue,93004,34.2970721,-119.1723159
486,Alpine Avenue,93004,34.2970010,-119.1725376
490,Alpine Avenue,93004,34.2969156,-119.1727310
498,Alpine Avenue,93004,34.2968136,-119.1729355
497,Alpine Avenue,93004,34.2964292,-119.1726258
489,Alpine Avenue,93004,34.2965361,-119.1724393
475,Alpine Avenue,93004,34.2965989,-119.1722342
467,Alpine Avenue,93004,34.2966555,-119.1720471
455,Alpine Avenue,93004,34.2966792,-119.1718164
443,Alpine Avenue,93004,34.2966507,-119.1716008
431,Alpine Avenue,93004,34.2966044,-119.1713868
423,Alpine Avenue,93004,34.2965102,-119.1711899
409,Alpine Avenue,93004,34.2963869,-119.1710295
401,Alpine Avenue,93004,34.2962768,-119.1708701
383,Alpine Avenue,93004,34.2959823,-119.1706229
375,Alpine Avenue,93004,34.2958232,-119.1704822
367,Alpine Avenue,93004,34.2956618,-119.1703611
359,Alpine Avenue,93004,34.2955110,-119.1702165
351,Alpine Avenue,93004,34.2953724,-119.1700967
343,Alpine Avenue,93004,34.2952112,-119.1699619
329,Alpine Avenue,93004,34.2950534,-119.1698626
317,Alpine Avenue,93004,34.2948910,-119.1696888
303,Alpine Avenue,93004,34.2947532,-119.1695997
245,South Wells Road,93004,34.2927425,-119.1597378
246,Salinas Walk,93004,34.2926323,-119.1598930
214,Salinas Walk,93004,34.2928758,-119.1601452
213,South Wells Road,93004,34.2929964,-119.1599748
187,South Wells Road,93004,34.2932113,-119.1601673
188,Salinas Walk,93004,34.2930873,-119.1604356
90,Los Altos Avenue,93004,34.2912794,-119.1658350
104,Los Altos Avenue,93004,34.2911498,-119.1657184
118,Los Altos Avenue,93004,34.2910300,-119.1656228
132,Los Altos Avenue,93004,34.2909017,-119.1655000
146,Los Altos Avenue,93004,34.2907781,-119.1654011
174,Los Altos Avenue,93004,34.2905461,-119.1652070
1357,Cypress Point Lane,93003,34.2619004,-119.2159616
11155,Citrus Drive,93004,34.2925866,-119.1553321
450,Pajaro Avenue,93004,34.2930351,-119.1546424
3500,Market Street,93003,34.2607355,-119.2465355
3560,Market Street,93003,34.2608939,-119.2458643
4226,Transport Street,93003,34.2544469,-119.2379772
10904,Telegraph Road,93004,34.2939611,-119.1625157
10926,Telegraph Road,93004,34.2941415,-119.1622148
629,Whitecap Drive,93003,34.2833716,-119.2533585
673,Whitecap Drive,93003,34.2836139,-119.2536144
600,Whitecap Drive,93003,34.2830807,-119.2523575
3136,Island View Drive,93003,34.2826164,-119.2542039
10948,Telegraph Road,93004,34.2943016,-119.1619269
10972,Telegraph Road,93004,34.2944787,-119.1616400
23,South Wells Road,93004,34.2945970,-119.1613688
55,South Wells Road,93004,34.2943320,-119.1611345
10969,Bajo Road,93004,34.2941668,-119.1613685
10947,Bajo Road,93004,34.2939831,-119.1616615
10931,Bajo Road,93004,34.2938531,-119.1618979
38,Salinas Drive,93004,34.2939583,-119.1621323
46,Salinas Drive,93004,34.2941586,-119.1617694
10940,Bajo Road,93004,34.2936556,-119.1613693
10974,Bajo Road,93004,34.2938177,-119.1610544
109,South Wells Road,93004,34.2939343,-119.1607983
131,South Wells Road,93004,34.2936864,-119.1605781
152,Salinas Drive,93004,34.2935356,-119.1607529
144,Salinas Drive,93004,34.2934100,-119.1609418
281,South Wells Road,93004,34.2924515,-119.1594993
282,Salinas Walk,93004,34.2923988,-119.1596890
304,Plumas Avenue,93004,34.2945781,-119.1698742
318,Plumas Avenue,93004,34.2947158,-119.1699932
305,Plumas Avenue,93004,34.2943299,-119.1703357
306,North Saticoy Avenue,93004,34.2941300,-119.1705968
320,North Saticoy Avenue,93004,34.2942833,-119.1706933
319,Plumas Avenue,93004,34.2944310,-119.1704248
330,Plumas Avenue,93004,34.2949012,-119.1701332
331,Plumas Avenue,93004,34.2946217,-119.1705577
332,North Saticoy Avenue,93004,34.2944375,-119.1708613
346,North Saticoy Avenue,93004,34.2945930,-119.1709834
345,Plumas Avenue,93004,34.2947688,-119.1707197
344,Plumas Avenue,93004,34.2950229,-119.1702561
352,Plumas Avenue,93004,34.2951622,-119.1703818
353,Plumas Avenue,93004,34.2949408,-119.1708321
354,North Saticoy Avenue,93004,34.2947431,-119.1711297
362,North Saticoy Avenue,93004,34.2949142,-119.1712640
361,Plumas Avenue,93004,34.2950821,-119.1709508
360,Plumas Avenue,93004,34.2953180,-119.1705161
368,Plumas Avenue,93004,34.2954820,-119.1706552
369,Plumas Avenue,93004,34.2952232,-119.1710695
370,North Saticoy Avenue,93004,34.2950377,-119.1713812
378,North Saticoy Avenue,93004,34.2951928,-119.1714812
377,Plumas Avenue,93004,34.2953910,-119.1712109
376,Plumas Avenue,93004,34.2956494,-119.1708000
384,Plumas Avenue,93004,34.2958018,-119.1709231
385,Plumas Avenue,93004,34.2955374,-119.1713397
386,North Saticoy Avenue,93004,34.2953490,-119.1716507
392,North Saticoy Avenue,93004,34.2955114,-119.1717750
391,Plumas Avenue,93004,34.2956767,-119.1714763
402,Plumas Avenue,93004,34.2960892,-119.1711865
410,Plumas Avenue,93004,34.2961966,-119.1713467
424,Plumas Avenue,93004,34.2962921,-119.1715506
438,Plumas Avenue,93004,34.2963204,-119.1717843
450,Plumas Avenue,93004,34.2963503,-119.1720267
466,Plumas Avenue,93004,34.2962742,-119.1722428
496,Plumas Avenue,93004,34.2962037,-119.1724176
495,Plumas Avenue,93004,34.2958407,-119.1720831
408,North Saticoy Avenue,93004,34.2956549,-119.1719078
407,Plumas Avenue,93004,34.2958194,-119.1716153
451,Plumas Avenue,93004,34.2958933,-119.1718665
10505,Mendocino Court,93004,34.2916522,-119.1685047
10519,Mendocino Court,93004,34.2917473,-119.1683426
10533,Mendocino Court,93004,34.2918752,-119.1681274
10547,Mendocino Court,93004,34.2919756,-119.1679496
10561,Mendocino Court,93004,34.2921185,-119.1677572
10575,Mendocino Court,93004,34.2922724,-119.1674894
10589,Mendocino Court,93004,34.2920687,-119.1673931
10574,Mendocino Court,93004,34.2918964,-119.1671743
10560,Mendocino Court,93004,34.2917283,-119.1674198
10546,Mendocino Court,93004,34.2915981,-119.1676474
10532,Mendocino Court,93004,34.2915160,-119.1678132
10518,Mendocino Court,93004,34.2913824,-119.1680205
10504,Mendocino Court,93004,34.2912876,-119.1681963
2440,Victoria Avenue,93003,34.2511771,-119.2110729
2440,Victoria Avenue,93003,34.2511515,-119.2113892
452,Heidelberg Avenue,93003,34.2834480,-119.2256255
2265,Hillcrest Drive,93001,34.2835855,-119.2644772
2223,Hillcrest Drive,93001,34.2837231,-119.2650981
2201,Hillcrest Drive,93001,34.2838002,-119.2653695
2610,East Main Street,93003,34.2744387,-119.2614753
5415,Ralston Street,93003,34.2605159,-119.2183981
298,South Garden Street,93001,34.2773750,-119.3028675
476,Cedar Street,93001,34.2866073,-119.2972500
34,Los Altos Avenue,93004,34.2917716,-119.1662562
48,Los Altos Avenue,93004,34.2916416,-119.1661356
62,Los Altos Avenue,93004,34.2915222,-119.1660499
76,Los Altos Avenue,93004,34.2913929,-119.1659250
188,Los Altos Avenue,93004,34.2904164,-119.1650861
202,Los Altos Avenue,93004,34.2902977,-119.1649912
216,Los Altos Avenue,93004,34.2901680,-119.1648751
230,Los Altos Avenue,93004,34.2900441,-119.1647648
3550,East Main Street,93003,34.2643387,-119.2449799
3500,East Main Street,93003,34.2642869,-119.2457256
5565,Foothill Road,93003,34.2852112,-119.2211571
537,Vista De Ventura,93003,34.2859152,-119.2210152
5555,Foothill Road,93003,34.2861875,-119.2210311
546,Vista De Ventura,93003,34.2862007,-119.2203485
598,Vista De Ventura,93003,34.2870091,-119.2207864
201,Southview Circle,93003,34.3054590,-119.2110201
4880,Colt Street,93003,34.2492594,-119.2250141
2733,East Main Street,93003,34.2741406,-119.2599493
154,Klamath Street,93001,34.3075598,-119.2912021
209,Alabama Street,93001,34.3081412,-119.2904281
264,South Wells Road,93004,34.2927925,-119.1590893
272,South Wells Road,93004,34.2927414,-119.1590372
280,South Wells Road,93004,34.2926967,-119.1589858
11023,Carlos Street,93004,34.2927356,-119.1587187
11047,Carlos Street,93004,34.2928949,-119.1584457
11059,Carlos Street,93004,34.2929887,-119.1582451
11035,Carlos Street,93004,34.2930794,-119.1585532
794,Topa Topa Court,93003,34.2918359,-119.2209797
786,Topa Topa Court,93003,34.2916294,-119.2208849
778,Topa Topa Court,93003,34.2914096,-119.2207105
5519,Topa Topa Drive,93003,34.2915730,-119.2223297
5530,Topa Topa Drive,93003,34.2913054,-119.2217955
5518,Topa Topa Drive,93003,34.2911507,-119.2220211
2090,East Main Street,93001,34.2775150,-119.2688887
1006,East Main Street,93001,34.2805938,-119.2852636
2094,East Harbor Boulevard,93001,34.2680584,-119.2727917
436,South Seaward Avenue,93003,34.2709609,-119.2668865
438,South Seaward Avenue,93003,34.2708769,-119.2667397
200,South Santa Rosa Street,93001,34.2760332,-119.2726770
202,South Santa Rosa Street,93001,34.2759836,-119.2725164
8303,Telephone Road,93004,34.2703049,-119.1804093
11008,Citrus Drive,93004,34.2915595,-119.1574553
11005,Citrus Drive,93004,34.2920436,-119.1578868
208,South Santa Rosa Street,93001,34.2758804,-119.2726763
1808,Hillcrest Drive,93001,34.2845017,-119.2713764
496,Lincoln Drive,93001,34.2848529,-119.2718056
487,Lincoln Drive,93001,34.2850902,-119.2721227
1824,Hillcrest Drive,93001,34.2844307,-119.2711417
536,Lincoln Drive,93001,34.2848607,-119.2712565
1038,Church Street,93001,34.2832633,-119.2849787
1011,Church Street,93001,34.2835790,-119.2853260
1013,Church Street,93001,34.2836688,-119.2853281
420,Lincoln Drive,93001,34.2842967,-119.2722963
333,North Kalorama Street,93001,34.2848372,-119.2866127
1019,Pacific View Lane,93001,34.2842348,-119.2851663
1041,Gillard Lane,93001,34.2844246,-119.2848123
505,Kalorama Drive,93001,34.2871881,-119.2870736
429,Lincoln Drive,93001,34.2844628,-119.2727166
4469,Vassar Street,93003,34.2828732,-119.2357527
497,Day Road,93003,34.2842861,-119.2280811
11150,Citrus Drive,93004,34.2919606,-119.1548749
11150,Citrus Drive,93004,34.2918918,-119.1546155
11150,Citrus Drive,93004,34.2916995,-119.1544085
11150,Citrus Drive,93004,34.2914917,-119.1546288
11150,Citrus Drive,93004,34.2912843,-119.1551215
11190,Citrus Drive,93004,34.2921322,-119.1544619
11190,Citrus Drive,93004,34.2917902,-119.1541788
11190,Citrus Drive,93004,34.2920978,-119.1538128
11190,Citrus Drive,93004,34.2924453,-119.1540456
11056,Telegraph Road,93004,34.2952670,-119.1600126
606,North Ventura Avenue,93001,34.2886407,-119.2982946
3750,Olivas Park Drive,93001,34.2404821,-119.2477680
1000,County Square Drive,93003,34.2666067,-119.2142309
133,West Santa Clara Street,93001,34.2799396,-119.3028757
181,East Santa Clara Street,93001,34.2798626,-119.2981425
756,East Thompson Boulevard,93001,34.2777216,-119.2890261
4667,Telegraph Road,93003,34.2772563,-119.2327347
2440,Victoria Avenue,93003,34.2511447,-119.2114187
5818,Valentine Road,93003,34.2504457,-119.2113487
2374,Foster Avenue,93001,34.2827622,-119.2631786
3291,Loma Vista Rd,93003,34.2770090,-119.2526421
2055,Harbor Blvd,93001,34.2684799,-119.2741903
