House number,Street name,Postal code,Latitude,Longitude
451,Davis Street,94577,37.7243741,-122.1594102
2180,Merced Street,94577,37.7092081,-122.1709715
1209,Marina Boulevard,94577,37.7116372,-122.1626807
2187,Merced Street,94577,37.7086930,-122.1720119
1934,Davis Street,94577,37.7181634,-122.1820060
1126,Davis Street,94577-2500,37.7220780,-122.1681400
250,Floresta Boulevard,94578,37.7001415,-122.1415490
300,Floresta Boulevard,94578,37.7007611,-122.1432560
467,Marina Boulevard,94577,37.7148552,-122.1536037
400,Estudillo Avenue,94577,37.7263397,-122.1520582
400,Estudillo Avenue,94577,37.7262648,-122.1519938
102,Estudillo Avenue,94577,37.7252094,-122.1555334
15070,Hesperian Boulevard,94578,37.7034784,-122.1294984
1153,Halcyon Drive,94578,37.7016738,-122.1304243
15018,Hesperian Boulevard,94578,37.7049177,-122.1297381
800,Davis Street,94577,37.7232172,-122.1642232
699,Lewelling Boulevard,94579,37.6884389,-122.1362873
699,Lewelling Boulevard,94579,37.6877946,-122.1382950
699,Lewelling Boulevard,94579,37.6875319,-122.1363203
699,Lewelling Boulevard,94579,37.6880712,-122.1362048
130,Doolittle Drive,94577,37.7111711,-122.1837560
384,West Estudillo Avenue,94577,37.7242520,-122.1584231
13808,East 14th Street,94578,37.7148089,-122.1417507
448,Hester Street,94558,37.7223171,-122.1908522
1933,Davis Street,94577,37.7152991,-122.1787210
1919,Davis Street,94577,37.7145756,-122.1777310
14675,East 14th Street,94578,37.7091830,-122.1346148
1946,Republic Avenue,94577,37.7045068,-122.1710235
699,Lewelling Blvd,94579,37.6887766,-122.1384761
699,Lewelling Blvd,94579,37.6888477,-122.1384043
699,Lewelling Blvd,94579,37.6888227,-122.1384428
699,Lewelling Blvd,94579,37.6888815,-122.1385713
2978,Teagarden Street,94577,37.7047179,-122.1559891
15100,Hesperian Boulevard,94578,37.7008926,-122.1283929
2000,Wayne Avenue,94577,37.7135885,-122.1632190
13808,East 14th Street,94578,37.7150240,-122.1414693
1881,Astor Dr.,94577,37.7270445,-122.1269130
1057,MacArthur Boulevard,94577,37.7318599,-122.1397120
"299, suite #C",Juana Avenue,94577,37.7238132,-122.1529278
14273,Washington Avenue,94578,37.7065229,-122.1448588
410,Estudillo Avenue,94577,37.7263356,-122.1519520
1960,Williams St,94577,37.7170014,-122.1618899
420,San Leandro Boulevard,94577,37.7301053,-122.1669730
699,Lewelling Boulevard,94579,37.6886139,-122.1363990
2100,Carden Street,94577,37.7157510,-122.1854220
15500,Washington Avenue,94579,37.6858681,-122.1382506
277,Parrott Street,94577,37.7215581,-122.1553854
1271,Washington Avenue,94577,37.7247605,-122.1573870
1500,East 14th Street,94577,37.7234844,-122.1535168
1540,East 14th Street,94577,37.7233574,-122.1533429
13690,East 14th Street,94578,37.7162538,-122.1437113
2301,Verna Court,94577,37.7071734,-122.1735004
1933,Davis Street,94577-1200,37.7160362,-122.1790242
100,Pelton Center Way,94577,37.7231767,-122.1536244
15100,Hesperian Boulevard,94578-3600,37.7014134,-122.1293907
452,Whitney Street,94577,37.7241350,-122.1916542
2180,Merced Street,94577,37.7093388,-122.1707645
1287,Washington Street,94577-3646,37.7248610,-122.1569918
1505,East 14th Street,94577,37.7234059,-122.1538693
1400,East 14th Street,94577,37.7242549,-122.1543780
599,MacArthur Boulevard,94577,37.7384891,-122.1440720
580,Joaquin Avenue,94577,37.7262787,-122.1481327
1693,Washington Avenue,94577,37.7212391,-122.1542676
15555,East 14th Street,94578,37.6999775,-122.1267341
14400,Washington Avenue,94578,37.7014906,-122.1404355
130,Greenhouse Marketplace,94578,37.6883596,-122.1386912
14823,East 14th Street,94578-2921,37.7078210,-122.1329570
2034,Marina Court,94577,37.7031818,-122.1882183
452,Whitney Street,94577,37.7241630,-122.1917256
1305,Washington Avenue,94577-3646,37.7244921,-122.1568270
1291,Washington Avenue,94577-3646,37.7248095,-122.1569573
1359,Washington Avenue,94577-3646,37.7238509,-122.1564320
1319,Washington Avenue,94577-3646,37.7242796,-122.1567102
1335,Washington Avenue,94577,37.7240974,-122.1565982
1343,Washington Avenue,94577,37.7240048,-122.1565374
1327,Washington Avenue,94577,37.7241908,-122.1566552
145,Pelton Center Way,94577,37.7224846,-122.1538987
137,Pelton Center Way,94577,37.7226637,-122.1538243
129,Pelton Center Way,94577,37.7227068,-122.1536739
109,Pelton Center Way,94577,37.7228557,-122.1535840
1933,Davis Street,94577,37.7156152,-122.1788287
1933,Davis Street,94577,37.7157142,-122.1788604
1515,East 14th Street,94577,37.7232948,-122.1537595
108,Pelton Center Way,94577,37.7230971,-122.1537680
122,Pelton Center Way,94577,37.7229917,-122.1538546
134,Pelton Center Way,94577,37.7229320,-122.1540062
138,Pelton Center Way,94577,37.7229082,-122.1540743
194,Pelton Center Way,94577,37.7228158,-122.1547614
191,Pelton Center Way,94577,37.7226579,-122.1546246
185,Pelton Center Way,94577,37.7227294,-122.1544246
187,Pelton Center Way,94577,37.7227014,-122.1545143
169,Pelton Center Way,94577,37.7226524,-122.1540739
162,Parrott Street,94577,37.7223355,-122.1540734
155,Parrott Street,94577,37.7221656,-122.1535906
1698,Washington Avenue,94577,37.7212397,-122.1537736
699,Lewelling Boulevard,94579,37.6889373,-122.1383319
699,Lewelling Boulevard,94579,37.6895300,-122.1378204
699,Lewelling Boulevard,94579,37.6895795,-122.1377386
699,Lewelling Boulevard,94579,37.6895956,-122.1376931
699,Lewelling Boulevard,94579,37.6894653,-122.1374057
699,Lewelling Boulevard,94579,37.6893899,-122.1373070
699,Lewelling Boulevard,94579,37.6893591,-122.1372413
180,Greenhouse Marketplace,94579,37.6893084,-122.1371711
699,Lewelling Boulevard,94579,37.6891748,-122.1370774
699,Lewelling Boulevard,94579,37.6889853,-122.1369228
699,Lewelling Boulevard,94579,37.6875323,-122.1361846
699,Lewelling Boulevard,94579,37.6875082,-122.1364196
13800,Monarch Bay Drive,94577,37.6866277,-122.1778884
13800,Monarch Bay Drive,94577,37.6960695,-122.1845993
1444,Williams Street,94579,37.7152909,-122.1688381
15555,Lewelling Boulevard,94579,37.6881985,-122.1316393
1955;1965;1977,Davis Street,94577,37.7161757,-122.1829318
1979;1999,Davis Street,94577,37.7141352,-122.1819976
1900,Davis Street,94577,37.7208213,-122.1818535
699,Lewelling Boulevard,94579,37.6878682,-122.1386344
304,Bayfair Drive,94578,37.6991950,-122.1292339
15555,East 14th Street,94578,37.7029438,-122.1259614
15555,East 14th Street,94578,37.6989039,-122.1287565
15555,East 14th Street,94578,37.7012637,-122.1259646
15555,East 14th Street,94578,37.6991982,-122.1263034
2179,East 14th Street,94577,37.7182540,-122.1477078
1499,Washington Avenue,94577,37.7231540,-122.1561517
5,San Leandro Marina,94577,37.6992944,-122.1908181
68,Monarch Bay Drive,94577,37.6971041,-122.1886020
1400,San Leandro Boulevard,94577,37.7218941,-122.1594846
1675,Hays Street,94577,37.7208938,-122.1556399
1598,Washington Avenue,94577,37.7223561,-122.1543901
1598,Washington Avenue,94577,37.7225363,-122.1543851
1812,Washington Avenue,94577,37.7201101,-122.1527551
1904,Washington Avenue,94577,37.7194079,-122.1525616
1935,Washington Avenue,94577,37.7189977,-122.1528967
1935,Washington Avenue,94577,37.7190582,-122.1527664
1849,Washington Avenue,94577,37.7198741,-122.1533203
1805,Washington Avenue,94577,37.7199972,-122.1535181
1692,Washington Avenue,94577,37.7214822,-122.1538391
1696,Thornton Street,94577,37.7212464,-122.1537584
1692,Washington Avenue,94577,37.7214545,-122.1536983
1693,Washington Avenue,94577,37.7213158,-122.1544243
1693,Washington Avenue,94577,37.7212358,-122.1542445
1693,Washington Avenue,94577,37.7211440,-122.1544772
1601,Washington Avenue,94577,37.7217395,-122.1546010
1793,Washington Avenue,94577,37.7203825,-122.1536166
1793,Washington Avenue,94577,37.7203209,-122.1537913
398,Parrott Street,94577,37.7215421,-122.1565842
305,West Juana Avenue,94577,37.7223242,-122.1563132
361,West Juana Avenue,94577,37.7220966,-122.1567640
1511,Clarke Street,94577,37.7217887,-122.1574192
443,West Juana Avenue,94577,37.7217474,-122.1577089
455; 457; 459,West Juana Avenue,94577,37.7216214,-122.1578074
491,West Juana Avenue,94577,37.7215176,-122.1581550
541;543,West Juana Avenue,94577,37.7212790,-122.1587971
559,West Juana Avenue,94577,37.7212126,-122.1589352
1540,San Leandro Boulevard,94577,37.7209302,-122.1591211
1100,San Leandro Boulevard,94577,37.7248435,-122.1615393
1185,San Leandro,94577,37.7240177,-122.1620693
555,Bancroft Avenue,94577,37.7344865,-122.1524737
699,Lewelling Boulevard,94579,37.6893763,-122.1382544
555,Floresta Boulevard,94578,37.7029488,-122.1432827
15070,Hesperian Boulevard,94578,37.7037551,-122.1289402
15135,Hesperian Boulevard,94578,37.7001491,-122.1303377
15399,East 14th Street,94578,37.7034448,-122.1265083
1444,Marina Boulevard,94577,37.7122628,-122.1648036
1302,Marina Boulevard,94577,37.7124383,-122.1640552
1152,Marina Boulevard,94577,37.7127820,-122.1625499
1066,Marina Boulevard,94577,37.7131451,-122.1614845
1111,Marina Boulevard,94577,37.7117160,-122.1608942
2500,Merced Street,94577,37.7060235,-122.1651650
1700,Starview Drive,94577,37.7198708,-122.1263070
15301,Wicks Boulevard,94579,37.6859738,-122.1618106
1500,Dayton Avenue,94579,37.6878827,-122.1572093
2655,Grant Avenue,94580,37.6677497,-122.1582109
2305,Washington Avenue,94577,37.7153170,-122.1504305
14300,Bancroft Avenue,94578,37.7130001,-122.1355236
2200,Bancroft Avenue,94577,37.7185099,-122.1410171
779,Martin Boulevard,94577,37.7233754,-122.1786673
13855,East 14th Street,94578,37.7123249,-122.1434551
13855,East 14th Street,94578,37.7132086,-122.1428300
2800,Benedict Drive,94578,37.7165424,-122.1305936
2501,Davis Street,94577,37.7146412,-122.1902073
338,Herma Court,94577,37.7398237,-122.1476124
296,MacArthur Boulevard,94577,37.7406423,-122.1478315
1501,Doolittle Drive,94577,37.7120213,-122.1868702
1400,Business Center Drive,94577,37.7113149,-122.1894723
1345,Doolittle Drive,94577,37.7139006,-122.1879262
1500,Doolittle Drive,94577,37.7128079,-122.1844215
1609,Graff Avenue,94577,37.7291855,-122.1322629
1686,Graff Avenue,94577,37.7280775,-122.1306619
1500,East Juana Avenue,94577,37.7304328,-122.1333268
1650,Graff Avenue,94577,37.7286835,-122.1308868
1756,View Drive,94577,37.7279125,-122.1296905
1711,View Drive,94577,37.7274278,-122.1304507
1620,Doolittle Drive,94577,37.7104105,-122.1814773
1616,Doolittle Drive,94577,37.7102663,-122.1830499
1618,Doolittle Drive,94577,37.7104722,-122.1825534
1915,Fairway Drive,94577,37.7036804,-122.1689056
1934,Fairway Drive,94577,37.7020092,-122.1700159
1950,Marina Boulevard,94577,37.7084442,-122.1739928
1622,Doolittle Drive,94577,37.7098603,-122.1829925
237,Haas Avenue,94577,37.7287201,-122.1560025
235,Haas Avenue,94577,37.7291406,-122.1560688
1534,Clarke Street,94577,37.7218343,-122.1569232
35,Estabrook Street,94577,37.7187503,-122.1485483
1622,Hays Street,94577,37.7214768,-122.1552492
1690,Hays Street,94577,37.7210730,-122.1549517
1637;1639,Hays Street,94577,37.7211989,-122.1556518
390,Thornton Street,94577,37.7205266,-122.1561091
70,Harlan Street,94577,37.7195831,-122.1505085
1650,Hays Street,94577,37.7212230,-122.1550680
1605,Hays Street,94577,37.7214190,-122.1557636
1601,East 14th Street,94577,37.7224253,-122.1528116
347,Parrott Street,94577,37.7212450,-122.1560353
384,Thornton Street,94577,37.7206688,-122.1558217
1625,Hays Street,94577,37.7213036,-122.1557157
2150,East 14th Street,94577,37.7193472,-122.1470871
2103,East 14th Street,94577,37.7188113,-122.1480595
1990,East 14th Street,94577,37.7200239,-122.1487721
277,Parrott Street,94577,37.7215567,-122.1553876
498,Parrott Street,94577,37.7209801,-122.1577822
1550,San Leandro Boulevard,94577,37.7209220,-122.1588111
1040,Davis Street,94577,37.7222524,-122.1667495
458,Parrott Street,94577,37.7211222,-122.1575348
265,Davis Street,94577,37.7252509,-122.1575196
1571;1575,Clarke Street,94577,37.7213855,-122.1571719
1557,Clarke Street,94577,37.7215709,-122.1572795
1964;1966;1968;1970;1972;1974;1976,Williams Street,94577,37.7124888,-122.1768113
1954,Williams Street,94577,37.7128982,-122.1758445
1950,Williams Street,94577,37.7118244,-122.1751336
1976,Williams Street,94577,37.7114214,-122.1760998
14511,East 14th Street,94578,37.7099089,-122.1356501
14769,Bancroft Avenue,94578,37.7098879,-122.1327638
15575,Hesperian Boulevard,94579,37.6869487,-122.1311232
510,Lewelling Boulevard,94579,37.6858424,-122.1326602
338,Herma Court,94577,37.7398896,-122.1474683
338,Herma Court,94577,37.7398491,-122.1474298
780,Marina Boulevard,94577,37.7146322,-122.1578024
797,Marina Boulevard,94577,37.7139775,-122.1574076
1500,Alvarado Street,94577,37.7217389,-122.1624056
1600,Alvarado Street,94577,37.7210108,-122.1617265
1995,Washington Avenue,94577,37.7186608,-122.1527346
77,Estabrook Street,94577,37.7182988,-122.1490529
1550,East 14th Street,94577,37.7235565,-122.1528728
401,Marina Boulevard,94577,37.7157779,-122.1528017
201,Davis Street,94577,37.7254458,-122.1569998
1800,East 14th Street,94577,37.7211487,-122.1502667
2396,East 14th Street,94577,37.7173246,-122.1447912
1580,East 14th Street,94577,37.7230077,-122.1528183
85,Estabrook Street,94577,37.7177116,-122.1483275
13690,East 14th Street,94578,37.7163439,-122.1436750
528,West Juana Avenue,94577,37.7220936,-122.1590120
14900,Zelma Street,94579,37.6942880,-122.1474738
1601,Washington Avenue,94577,37.7213898,-122.1550301
14054,Catalina Street,94577,37.6982150,-122.1732729
14230,Catalina Street,94577,37.6970404,-122.1723754
14300,Catalina Street,94577,37.6960303,-122.1717043
2055,Burroughs Avenue,94577,37.6981013,-122.1688977
2031,Burroughs Avenue,94577,37.6986692,-122.1675537
1940,Fairway Drive,94577,37.7004584,-122.1726585
1936,Fairway Drive,94577,37.7014140,-122.1715940
1700,Fairway Drive,94577,37.7046673,-122.1620866
1401,Factor Avenue,94577,37.7041570,-122.1601903
1400,Factor Avenue,94577,37.7031163,-122.1596293
2001,Williams Street,94577,37.7100676,-122.1767031
13800,Velarde Drive,94578,37.7200287,-122.1348689
13812,Velarde Drive,94578,37.7198193,-122.1346879
13820,Velarde Drive,94578,37.7197101,-122.1346027
13828,Velarde Drive,94578,37.7195321,-122.1345008
13844,Velarde Drive,94578,37.7194271,-122.1344122
13866,Velarde Drive,94578,37.7192600,-122.1343321
13882,Velarde Drive,94578,37.7191651,-122.1342594
13922,Velarde Drive,94578,37.7189895,-122.1341323
13936,Velarde Drive,94578,37.7188823,-122.1340756
13948,Velarde Drive,94578,37.7187163,-122.1339914
13960,Velarde Drive,94578,37.7186081,-122.1339318
13972,Velarde Drive,94578,37.7183925,-122.1338372
13984,Velarde Drive,94578,37.7182488,-122.1339074
14020,School Street,94578,37.7181176,-122.1340474
14044,School Street,94578,37.7180475,-122.1337984
14068,School Street,94578,37.7179497,-122.1336432
14092,School Street,94578,37.7178277,-122.1335271
13849,Velarde Drive,94578,37.7191193,-122.1348873
13875,Velarde Drive,94578,37.7190143,-122.1348320
13921,Velarde Drive,94578,37.7188732,-122.1347338
13933,Velarde Drive,94578,37.7187133,-122.1345957
13949,Velarde Drive,94578,37.7184929,-122.1344197
13990,School Street,94578,37.7183826,-122.1345061
13952,School Street,94578,37.7185981,-122.1348009
1725,137th Avenue,94578,37.7184965,-122.1373799
1717,137th Avenue,94578,37.7183606,-122.1375316
1709,137th Avenue,94578,37.7182234,-122.1376928
1705,137th Avenue,94578,37.7180774,-122.1378460
1724,136th Avenue,94578,37.7185226,-122.1377097
1710,136th Avenue,94578,37.7183706,-122.1378778
13612,Wake Avenue,94578,37.7182452,-122.1380168
1744,137th Avenue,94578,37.7183294,-122.1366593
1736,137th Avenue,94578,37.7183445,-122.1369858
1726,137th Avenue,94578,37.7182212,-122.1371238
1718,137th Avenue,94578,37.7180952,-122.1372726
1708,137th Avenue,94578,37.7179562,-122.1374045
13710,Wake Avenue,94578,37.7178349,-122.1375280
13720,Wake Avenue,94578,37.7177015,-122.1373455
1715,138th Avenue,94578,37.7177956,-122.1371816
1723,138th Avenue,94578,37.7179232,-122.1370578
1735,138th Avenue,94578,37.7180482,-122.1369016
1741,138th Avenue,94578,37.7181760,-122.1367752
1786,138th Avenue,94578,37.7184364,-122.1358471
1772,138th Avenue,94578,37.7183158,-122.1359968
1768,138th Avenue,94578,37.7182189,-122.1361323
1752,138th Avenue,94578,37.7180933,-122.1362645
1740,138th Avenue,94578,37.7179936,-122.1364043
1734,138th Avenue,94578,37.7178804,-122.1364909
1722,138th Avenue,94578,37.7177695,-122.1366417
1718,138th Avenue,94578,37.7176373,-122.1367413
1712,138th Avenue,94578,37.7175533,-122.1368883
13828,Wake Avenue,94578,37.7174171,-122.1369764
13894,Wake Avenue,94578,37.7172510,-122.1367477
1705,139th Avenue,94578,37.7173325,-122.1365909
1715,139th Avenue,94578,37.7174490,-122.1364531
1721,139th Avenue,94578,37.7175679,-122.1363146
1735,139th Avenue,94578,37.7176712,-122.1361950
1747,139th Avenue,94578,37.7177947,-122.1360623
1753,139th Avenue,94578,37.7179223,-122.1359830
1761,139th Avenue,94578,37.7180890,-122.1358330
1773,139th Avenue,94578,37.7181696,-122.1355808
1770,139th Avenue,94578,37.7180034,-122.1353552
1762,139th Avenue,94578,37.7177875,-122.1354073
1754,139th Avenue,94578,37.7176731,-122.1355787
1742,139th Avenue,94578,37.7175658,-122.1357545
1736,139th Avenue,94578,37.7174445,-122.1359065
1720,139th Avenue,94578,37.7173404,-122.1360265
1716,139th Avenue,94578,37.7172264,-122.1361087
1710,139th Avenue,94578,37.7170859,-122.1362546
13906,Wake Avenue,94578,37.7169592,-122.1363497
1703,140th Avenue,94578,37.7167862,-122.1361386
1709,140th Avenue,94578,37.7168769,-122.1359968
1717,140th Avenue,94578,37.7169907,-122.1358660
1725,140th Avenue,94578,37.7171488,-122.1357523
1729,140th Avenue,94578,37.7172185,-122.1355959
1737,140th Avenue,94578,37.7173199,-122.1355095
1743,140th Avenue,94578,37.7174294,-122.1353622
1749,140th Avenue,94578,37.7175288,-122.1352422
1755,140th Avenue,94578,37.7176763,-122.1351591
1769,140th Avenue,94578,37.7177476,-122.1350173
1779,140th Avenue,94578,37.7178528,-122.1348848
1791,140th Avenue,94578,37.7180271,-122.1347051
13877,School Street,94578,37.7184374,-122.1354382
13881,School Street,94578,37.7183641,-122.1353217
13923,School Street,94578,37.7182685,-122.1351509
13955,School Street,94578,37.7182049,-122.1350355
13971,School Street,94578,37.7181018,-122.1348629
1702,140th Avenue,94578,37.7165574,-122.1357955
1706,140th Avenue,94578,37.7166567,-122.1356844
1712,140th Avenue,94578,37.7167802,-122.1355456
1718,140th Avenue,94578,37.7168755,-122.1354416
1722,140th Avenue,94578,37.7169923,-122.1352945
1726,140th Avenue,94578,37.7170708,-122.1351919
1732,140th Avenue,94578,37.7172143,-122.1350355
1738,140th Avenue,94578,37.7173172,-122.1349559
1746,140th Avenue,94578,37.7174309,-122.1348301
1752,140th Avenue,94578,37.7175160,-122.1347136
1758,140th Avenue,94578,37.7176515,-122.1345864
1790,140th Avenue,94578,37.7178343,-122.1343797
14023,School Street,94578,37.7177573,-122.1342686
14045,School Street,94578,37.7176560,-122.1341027
14067,School Street,94578,37.7175836,-122.1339770
14089,School Street,94578,37.7174854,-122.1337975
1799,141st Avenue,94578,37.7173988,-122.1336281
1795,141st Avenue,94578,37.7172201,-122.1338440
1785,141st Avenue,94578,37.7170632,-122.1340190
1775,141st Avenue,94578,37.7172571,-122.1342436
1765,141st Avenue,94578,37.7172523,-122.1344646
1755,141st Avenue,94578,37.7171229,-122.1346035
1749,141st Avenue,94578,37.7169921,-122.1346776
1743,141st Avenue,94578,37.7168794,-122.1347909
1739,141st Avenue,94578,37.7167887,-122.1350015
1735,141st Avenue,94578,37.7166316,-122.1350482
1725,141st Avenue,94578,37.7165558,-122.1351868
1715,141st Avenue,94578,37.7164051,-122.1353471
1705,141st Avenue,94578,37.7163199,-122.1354689
1762,141st Avenue,94578,37.7167847,-122.1343614
1754,141st Avenue,94578,37.7166709,-122.1345004
1744,141st Avenue,94578,37.7165472,-122.1346252
1734,141st Avenue,94578,37.7164354,-122.1347547
1724,141st Avenue,94578,37.7163198,-122.1348918
1714,141st Avenue,94578,37.7161948,-122.1350293
1704,141st Avenue,94578,37.7160703,-122.1351143
1701,142nd Avenue,94578,37.7158354,-122.1348033
1713,142nd Avenue,94578,37.7159337,-122.1346401
1723,142nd Avenue,94578,37.7160657,-122.1345005
1733,142nd Avenue,94578,37.7161844,-122.1344239
1741,142nd Avenue,94578,37.7162701,-122.1342574
1751,142nd Avenue,94578,37.7163928,-122.1341252
1761,142nd Avenue,94578,37.7165555,-122.1339703
1772,141st Avenue,94578,37.7166969,-122.1341053
1713,Russ Avenue,94578,37.7151025,-122.1331683
1719,Russ Avenue,94578,37.7152308,-122.1330296
1725,Russ Avenue,94578,37.7153577,-122.1329454
1733,Russ Avenue,94578,37.7154881,-122.1327718
1741,Russ Avenue,94578,37.7155752,-122.1326442
1762,143rd Avenue,94578,37.7159569,-122.1328835
1756,143rd Avenue,94578,37.7158276,-122.1330153
1744,143rd Avenue,94578,37.7157259,-122.1331474
1732,143rd Avenue,94578,37.7156080,-122.1332718
1724,143rd Avenue,94578,37.7154858,-122.1333827
1716,143rd Avenue,94578,37.7153767,-122.1334913
14250,Wake Avenue,94578,37.7153887,-122.1341038
1709,143rd Avenue,94578,37.7154799,-122.1339794
1717,143rd Avenue,94578,37.7156066,-122.1338579
1721,143rd Avenue,94578,37.7157063,-122.1337232
1737,143rd Avenue,94578,37.7158252,-122.1336013
1745,143rd Avenue,94578,37.7159365,-122.1334695
1757,143rd Avenue,94578,37.7160551,-122.1333453
1763,143rd Avenue,94578,37.7161961,-122.1332215
1771,143rd Avenue,94578,37.7162858,-122.1330914
1783,143rd Avenue,94578,37.7164384,-122.1329852
14225,School Street,94578,37.7167898,-122.1330899
1798,141st Avenue,94578,37.7171523,-122.1332349
1796;1794;1792,141st Avenue,94578,37.7170544,-122.1333102
1790,141st Avenue,94578,37.7169909,-122.1334646
1780,142nd Avenue,94578,37.7168231,-122.1336826
1778,142nd Avenue,94578,37.7166976,-122.1334413
1774,142nd Avenue,94578,37.7165095,-122.1334078
1770,142nd Avenue,94578,37.7163939,-122.1335498
1760,142nd Avenue,94578,37.7163068,-122.1336921
1750;1746,142nd Avenue,94578,37.7161599,-122.1338011
1736,142nd Avenue,94578,37.7160753,-122.1339223
1730,142nd Avenue,94578,37.7159587,-122.1340491
1720,142nd Avenue,94578,37.7158499,-122.1342013
1710,142nd Avenue,94578,37.7157191,-122.1342923
1700,142nd Avenue,94578,37.7155958,-122.1344153
1629,Russ Avenue,94578,37.7143219,-122.1340369
1621,Russ Avenue,94578,37.7142097,-122.1341724
1615,Russ Avenue,94578,37.7140914,-122.1342940
1609,Russ Avenue,94578,37.7139847,-122.1344706
1607,Russ Avenue,94578,37.7138574,-122.1345500
14366,Lark Street,94578,37.7137695,-122.1346992
14310,Lark Street,94578,37.7139885,-122.1349897
1606,143rd Avenue,94578,37.7140985,-122.1349023
1608,143rd Avenue,94578,37.7142329,-122.1347914
1612,143rd Avenue,94578,37.7143531,-122.1346673
1616,143rd Avenue,94578,37.7144633,-122.1345041
1622,143rd Avenue,94578,37.7145843,-122.1343926
1632,143rd Avenue,94578,37.7146761,-122.1342242
14255,Wake Avenue,94578,37.7151638,-122.1343997
1645,143rd Avenue,94578,37.7150223,-122.1344646
1631,143rd Avenue,94578,37.7149402,-122.1346326
1623,143rd Avenue,94578,37.7147932,-122.1347295
1617,143rd Avenue,94578,37.7147047,-122.1348701
1613,143rd Avenue,94578,37.7145620,-122.1349888
1611,143rd Avenue,94578,37.7144502,-122.1351223
1607,143rd Avenue,94578,37.7143394,-122.1352473
14240,Lark Street,94578,37.7142458,-122.1353690
1600,142nd Avenue,94578,37.7144247,-122.1356551
1610,142nd Avenue,94578,37.7145646,-122.1355694
1620,142nd Avenue,94578,37.7146990,-122.1354640
1630,142nd Avenue,94578,37.7147958,-122.1352971
1640,142nd Avenue,94578,37.7149234,-122.1351901
1650,142nd Avenue,94578,37.7150288,-122.1350867
1660,142nd Avenue,94578,37.7151497,-122.1349426
1670,142nd Avenue,94578,37.7152648,-122.1348295
1680,142nd Avenue,94578,37.7153608,-122.1346587
1580,142nd Avenue,94578,37.7142109,-122.1359206
1570,142nd Avenue,94578,37.7141374,-122.1360509
1560,142nd Avenue,94578,37.7140158,-122.1361962
1550,142nd Avenue,94578,37.7138774,-122.1363532
1540,142nd Avenue,94578,37.7137897,-122.1364602
1530,142nd Avenue,94578,37.7136636,-122.1365885
1520,142nd Avenue,94578,37.7135405,-122.1366963
1510,142nd Avenue,94578,37.7134444,-122.1368305
1500,142nd Avenue,94578,37.7133158,-122.1369828
14300,Bancroft Avenue,94578,37.7126090,-122.1356179
1603,142nd Avenue,94578,37.7146771,-122.1360322
1613,142nd Avenue,94578,37.7147951,-122.1358877
1623,142nd Avenue,94578,37.7149288,-122.1357749
1633,142nd Avenue,94578,37.7150237,-122.1356223
1643,142nd Avenue,94578,37.7151297,-122.1354916
1653,142nd Avenue,94578,37.7152665,-122.1354000
1663,142nd Avenue,94578,37.7153589,-122.1352695
1673,142nd Avenue,94578,37.7154709,-122.1351193
1683,142nd Avenue,94578,37.7155982,-122.1350233
1682,141st Avenue,94578,37.7158573,-122.1353749
1672,141st Avenue,94578,37.7157541,-122.1354832
1662,141st Avenue,94578,37.7156159,-122.1356070
1652,141st Avenue,94578,37.7154963,-122.1357450
1642,141st Avenue,94578,37.7153869,-122.1358609
1632,141st Avenue,94578,37.7152922,-122.1360147
1624,141st Avenue,94578,37.7151820,-122.1361490
1608,141st Avenue,94578,37.7150457,-122.1362465
1604,141st Avenue,94578,37.7149472,-122.1363720
1605,141st Avenue,94578,37.7151897,-122.1367493
1615,141st Avenue,94578,37.7152721,-122.1366131
1625,141st Avenue,94578,37.7154046,-122.1364457
1635,141st Avenue,94578,37.7155515,-122.1363931
1645,141st Avenue,94578,37.7156229,-122.1362167
1655,141st Avenue,94578,37.7157236,-122.1360947
1665,141st Avenue,94578,37.7158514,-122.1359655
1675,141st Avenue,94578,37.7159517,-122.1358259
1685,141st Avenue,94578,37.7160962,-122.1357116
1696,140th Avenue,94578,37.7163230,-122.1360150
1686,140th Avenue,94578,37.7162088,-122.1361763
1676,140th Avenue,94578,37.7160490,-122.1362355
1666,140th Avenue,94578,37.7159784,-122.1364171
1656,140th Avenue,94578,37.7158354,-122.1365529
1646,140th Avenue,94578,37.7157462,-122.1366859
1636,140th Avenue,94578,37.7156182,-122.1367523
1626,140th Avenue,94578,37.7155213,-122.1369270
1616,140th Avenue,94578,37.7154108,-122.1370346
1617,140th Avenue,94578,37.7156310,-122.1373464
1627,140th Avenue,94578,37.7157598,-122.1372504
1637,140th Avenue,94578,37.7158596,-122.1371055
1647,140th Avenue,94578,37.7159767,-122.1369797
1657,140th Avenue,94578,37.7161058,-122.1368647
1667,140th Avenue,94578,37.7162027,-122.1367242
1677,140th Avenue,94578,37.7163121,-122.1365919
1687,140th Avenue,94578,37.7164367,-122.1364579
1697,140th Avenue,94578,37.7165458,-122.1363660
13905,Wake Avenue,94578,37.7167383,-122.1366107
1652,139th Avenue,94578,37.7166495,-122.1367870
1646,139th Avenue,94578,37.7165393,-122.1369080
1638,139th Avenue,94578,37.7163947,-122.1370132
1624,139th Avenue,94578,37.7163130,-122.1371618
1618,139th Avenue,94578,37.7161924,-122.1372977
1614,139th Avenue,94578,37.7160836,-122.1374154
1608,139th Avenue,94578,37.7159571,-122.1375523
13904,Lark Street,94578,37.7158287,-122.1376313
13892,Lark Street,94578,37.7161135,-122.1380171
1609,139th Avenue,94578,37.7161908,-122.1378365
1613,139th Avenue,94578,37.7163081,-122.1377348
1617,139th Avenue,94578,37.7164394,-122.1376059
1623,139th Avenue,94578,37.7165299,-122.1374606
1637,139th Avenue,94578,37.7166716,-122.1373275
1645,139th Avenue,94578,37.7167749,-122.1372054
1651,139th Avenue,94578,37.7168951,-122.1370795
13893,Wake Avenue,94578,37.7170064,-122.1370069
13819,Wake Avenue,94578,37.7171852,-122.1372281
1664,138th Avenue,94578,37.7170869,-122.1373730
1650,138th Avenue,94578,37.7169852,-122.1375082
1642,138th Avenue,94578,37.7168501,-122.1375915
1634,138th Avenue,94578,37.7167587,-122.1377591
1620,138th Avenue,94578,37.7166384,-122.1378727
1616,138th Avenue,94578,37.7165256,-122.1379868
1610,138th Avenue,94578,37.7164157,-122.1381137
13806,Lark Street,94578,37.7162928,-122.1382410
1501,142nd Avenue,94578,37.7135325,-122.1372600
1513,142nd Avenue,94578,37.7136547,-122.1371760
1523,142nd Avenue,94578,37.7137608,-122.1370182
1533,142nd Avenue,94578,37.7138797,-122.1369356
1543,142nd Avenue,94578,37.7140088,-122.1367745
1553,142nd Avenue,94578,37.7141012,-122.1366613
1563,142nd Avenue,94578,37.7142170,-122.1365296
1573,142nd Avenue,94578,37.7143695,-122.1364057
1583,142nd Avenue,94578,37.7144722,-122.1362742
1582,141st Avenue,94578,37.7147056,-122.1366220
1572,141st Avenue,94578,37.7146212,-122.1367709
1562,141st Avenue,94578,37.7144947,-122.1369013
1552,141st Avenue,94578,37.7143871,-122.1370489
1542,141st Avenue,94578,37.7142438,-122.1371542
1528,141st Avenue,94578,37.7141570,-122.1372884
1516,141st Avenue,94578,37.7140440,-122.1374087
1508,141st Avenue,94578,37.7139153,-122.1375331
1504,141st Avenue,94578,37.7137948,-122.1376522
1505,141st Avenue,94578,37.7140346,-122.1379968
1515,141st Avenue,94578,37.7141207,-122.1378456
1525,141st Avenue,94578,37.7142436,-122.1377055
1535,141st Avenue,94578,37.7143805,-122.1376141
1545,141st Avenue,94578,37.7144632,-122.1374480
1555,141st Avenue,94578,37.7145832,-122.1373758
1565,141st Avenue,94578,37.7147354,-122.1372067
1575,141st Avenue,94578,37.7148179,-122.1371149
1585,141st Avenue,94578,37.7149374,-122.1369633
1596,140th Avenue,94578,37.7151863,-122.1373084
1586,140th Avenue,94578,37.7150463,-122.1374449
1576,140th Avenue,94578,37.7149551,-122.1375681
1566,140th Avenue,94578,37.7148355,-122.1376484
1556,140th Avenue,94578,37.7147210,-122.1378021
1546,140th Avenue,94578,37.7146102,-122.1379350
1536,140th Avenue,94578,37.7144956,-122.1380293
1526,140th Avenue,94578,37.7143885,-122.1381917
1516,140th Avenue,94578,37.7142748,-122.1383261
1517,140th Avenue,94578,37.7144996,-122.1386574
1527,140th Avenue,94578,37.7146011,-122.1385085
1537,140th Avenue,94578,37.7147113,-122.1383713
1547,140th Avenue,94578,37.7148312,-122.1382333
1557,140th Avenue,94578,37.7149821,-122.1381387
1567,140th Avenue,94578,37.7150636,-122.1379875
1577,140th Avenue,94578,37.7151689,-122.1378604
1587,140th Avenue,94578,37.7153142,-122.1377647
1597,140th Avenue,94578,37.7154190,-122.1376174
13903,Lark Street,94578,37.7155750,-122.1378852
1556,139th Avenue,94578,37.7155101,-122.1380513
1548,139th Avenue,94578,37.7154010,-122.1381710
1534,139th Avenue,94578,37.7152753,-122.1383073
1526,139th Avenue,94578,37.7151643,-122.1384275
1518,139th Avenue,94578,37.7150344,-122.1385026
1512,139th Avenue,94578,37.7149061,-122.1386602
1506,139th Avenue,94578,37.7148039,-122.1388041
13901,Bancroft Avenue,94578,37.7146906,-122.1388999
13890,Bancroft Avenue,94578,37.7149567,-122.1392703
1511,139th Avenue,94578,37.7150562,-122.1391311
1515,139th Avenue,94578,37.7151615,-122.1389726
1519,139th Avenue,94578,37.7152732,-122.1388540
1527,139th Avenue,94578,37.7153924,-122.1387171
1531,139th Avenue,94578,37.7155122,-122.1386210
1549,139th Avenue,94578,37.7156270,-122.1384645
1557,139th Avenue,94578,37.7157370,-122.1383576
13891,Lark Street,94578,37.7158686,-122.1382727
13811,Lark Street,94578,37.7160480,-122.1385189
1562,138th Avenue,94578,37.7159589,-122.1386277
1550,138th Avenue,94578,37.7158342,-122.1387532
1546,138th Avenue,94578,37.7157321,-122.1389034
1532,138th Avenue,94578,37.7156060,-122.1389967
1520,138th Avenue,94578,37.7155050,-122.1391423
1514,138th Avenue,94578,37.7153785,-122.1392429
13804,Bancroft Avenue,94578,37.7151919,-122.1394808
1503,138th Avenue,94578,37.7153523,-122.1398336
1507,138th Avenue,94578,37.7153936,-122.1397868
1509,138th Avenue,94578,37.7154459,-122.1397411
1511,138th Avenue,94578,37.7154948,-122.1396997
1515,138th Avenue,94578,37.7156047,-122.1396031
1521,138th Avenue,94578,37.7157104,-122.1395225
1533,138th Avenue,94578,37.7158288,-122.1393586
1545,138th Avenue,94578,37.7159354,-122.1392565
1553,138th Avenue,94578,37.7160528,-122.1391094
1563,138th Avenue,94578,37.7161576,-122.1390054
1575,138th Avenue,94578,37.7162724,-122.1388821
1581,138th Avenue,94578,37.7163993,-122.1387527
1609,138th Avenue,94578,37.7165368,-122.1386203
1611,138th Avenue,94578,37.7166420,-122.1384812
1617,138th Avenue,94578,37.7167580,-122.1383296
1623,138th Avenue,94578,37.7168857,-122.1381928
1635,138th Avenue,94578,37.7169983,-122.1380923
1641,138th Avenue,94578,37.7171241,-122.1379273
1653,138th Avenue,94578,37.7172432,-122.1377950
1657,138th Avenue,94578,37.7174093,-122.1375978
13711,Wake Avenue,94578,37.7175052,-122.1377024
1652,137th Avenue,94578,37.7175996,-122.1378284
1648,137th Avenue,94578,37.7174227,-122.1380232
1636,137th Avenue,94578,37.7173011,-122.1381513
1628,137th Avenue,94578,37.7171818,-122.1383094
1622,137th Avenue,94578,37.7170656,-122.1384270
1618,137th Avenue,94578,37.7169360,-122.1385533
1612,137th Avenue,94578,37.7168189,-122.1386624
1608,137th Avenue,94578,37.7167101,-122.1388270
1572,137th Avenue,94578,37.7165882,-122.1389727
1564,137th Avenue,94578,37.7164707,-122.1390954
1552,137th Avenue,94578,37.7163625,-122.1392393
1548,137th Avenue,94578,37.7162580,-122.1393991
1536,137th Avenue,94578,37.7161246,-122.1395264
1528,137th Avenue,94578,37.7160255,-122.1396357
1522,137th Avenue,94578,37.7159195,-122.1397638
1516,137th Avenue,94578,37.7157823,-122.1399130
13710,Bancroft Avenue,94578,37.7156086,-122.1400776
1513,137th Avenue,94578,37.7158822,-122.1404692
1517,137th Avenue,94578,37.7160379,-122.1402296
1523,137th Avenue,94578,37.7161606,-122.1400919
1535,137th Avenue,94578,37.7162529,-122.1399987
1541,137th Avenue,94578,37.7163783,-122.1398378
1545,137th Avenue,94578,37.7164729,-122.1397213
1551,137th Avenue,94578,37.7165854,-122.1395979
1567,137th Avenue,94578,37.7167057,-122.1394856
1573,137th Avenue,94578,37.7168224,-122.1393250
1611,137th Avenue,94578,37.7169421,-122.1391653
1615,137th Avenue,94578,37.7170572,-122.1390419
1619,137th Avenue,94578,37.7171846,-122.1389191
1625,137th Avenue,94578,37.7172993,-122.1387956
1629,137th Avenue,94578,37.7174162,-122.1386212
1631,137th Avenue,94578,37.7175293,-122.1384905
1647,137th Avenue,94578,37.7176565,-122.1383681
1655,137th Avenue,94578,37.7178061,-122.1381521
1510,136th Avenue,94578,37.7161205,-122.1407127
1512,136th Avenue,94578,37.7162590,-122.1404896
1518,136th Avenue,94578,37.7163617,-122.1403653
1526,136th Avenue,94578,37.7164645,-122.1402549
1532,136th Avenue,94578,37.7165738,-122.1401029
1540,136th Avenue,94578,37.7166893,-122.1399880
1550,136th Avenue,94578,37.7167653,-122.1398454
1566,136th Avenue,94578,37.7168971,-122.1397041
1576,136th Avenue,94578,37.7169986,-122.1395724
1604,136th Avenue,94578,37.7171137,-122.1393972
1608,136th Avenue,94578,37.7172372,-122.1392673
1614,136th Avenue,94578,37.7173557,-122.1391133
1624,136th Avenue,94578,37.7174584,-122.1389927
1630,136th Avenue,94578,37.7175968,-122.1388498
1638,136th Avenue,94578,37.7176960,-122.1386923
1644,136th Avenue,94578,37.7178337,-122.1385587
1650,136th Avenue,94578,37.7180058,-122.1383754
13615,Wake Avenue,94578,37.7179202,-122.1382361
1511,136th Avenue,94578,37.7163314,-122.1410427
1517,136th Avenue,94578,37.7165084,-122.1408189
1525,136th Avenue,94578,37.7166044,-122.1406933
1531,136th Avenue,94578,37.7167112,-122.1405518
1549,136th Avenue,94578,37.7168308,-122.1404256
1551,136th Avenue,94578,37.7169265,-122.1403063
1557,136th Avenue,94578,37.7170362,-122.1401829
1563,136th Avenue,94578,37.7171493,-122.1400396
1577,136th Avenue,94578,37.7172451,-122.1399052
1605,136th Avenue,94578,37.7173785,-122.1397588
1609,136th Avenue,94578,37.7174646,-122.1396161
1615,136th Avenue,94578,37.7175704,-122.1394817
1619,136th Avenue,94578,37.7176841,-122.1393427
1627,136th Avenue,94578,37.7178315,-122.1391867
1635,136th Avenue,94578,37.7179534,-122.1390987
1641,136th Avenue,94578,37.7180553,-122.1389113
1653,136th Avenue,94578,37.7181662,-122.1387864
13555,Wake Avenue,94578,37.7182679,-122.1386390
1628,Russ Avenue,94578,37.7140925,-122.1336984
1622,Russ Avenue,94578,37.7139801,-122.1338764
1614,Russ Avenue,94578,37.7138788,-122.1339890
1610,Russ Avenue,94578,37.7137601,-122.1341282
1606,Russ Avenue,94578,37.7136114,-122.1342038
14408,Lark Street,94578,37.7135052,-122.1343250
1603,Graham Way,94578,37.7133002,-122.1340128
1607,Graham Way,94578,37.7134041,-122.1338996
1617,Graham Way,94578,37.7135082,-122.1337848
1621;1625,Graham Way,94578,37.7136310,-122.1336488
1633;1637,Graham Way,94578,37.7137524,-122.1335605
1641;1645,Graham Way,94578,37.7139147,-122.1333212
1653;1657,Graham Way,94578,37.7138051,-122.1330725
1642;1646,Graham Way,94578,37.7136153,-122.1329464
1630;1638,Graham Way,94578,37.7134296,-122.1331052
1622;1626,Graham Way,94578,37.7133393,-122.1332598
1614;1618,Graham Way,94578,37.7132340,-122.1333744
1606;1610,Graham Way,94578,37.7131132,-122.1335109
1602,Graham Way,94578,37.7130168,-122.1336151
14512,Lark Street,94578,37.7128261,-122.1333973
1637,Dilletta Avenue,94578,37.7129491,-122.1331801
1655,Dilletta Avenue,94578,37.7131178,-122.1330942
1667,Dilletta Avenue,94578,37.7132092,-122.1329617
1719,Dilletta Avenue,94578,37.7132989,-122.1327910
1737,Dilletta Avenue,94578,37.7134176,-122.1326448
1763,Dilletta Avenue,94578,37.7135337,-122.1325202
14515,Wake Avenue,94578,37.7136627,-122.1324422
14455,Wake Avenue,94578,37.7138529,-122.1325931
14449,Wake Avenue,94578,37.7139536,-122.1326925
14445,Wake Avenue,94578,37.7140510,-122.1328379
14433,Wake Avenue,94578,37.7141412,-122.1329844
14421,Wake Avenue,94578,37.7142571,-122.1331155
14417,Lark Street,94578,37.7130803,-122.1343722
14421,Lark Street,94578,37.7129974,-122.1342501
14425,Lark Street,94578,37.7127838,-122.1343098
14505,Lark Street,94578,37.7127698,-122.1340020
14511,Lark Street,94578,37.7126895,-122.1338554
14517,Lark Street,94578,37.7125967,-122.1337329
14521,Lark Street,94578,37.7124757,-122.1336206
14533,Lark Street,94578,37.7123563,-122.1335043
14547,Lark Street,94578,37.7122380,-122.1333388
14553,Lark Street,94578,37.7121517,-122.1332443
14565,Lark Street,94578,37.7120461,-122.1330622
14579,Lark Street,94578,37.7119566,-122.1329252
14587,Lark Street,94578,37.7118645,-122.1327881
1587,146th Avenue,94578,37.7117383,-122.1326461
1577,146th Avenue,94578,37.7115228,-122.1328817
1565,146th Avenue,94578,37.7114158,-122.1330200
1553,146th Avenue,94578,37.7113197,-122.1331317
1541,146th Avenue,94578,37.7111774,-122.1332611
1529,146th Avenue,94578,37.7110774,-122.1333936
14590,Bancroft Avenue,94578,37.7109734,-122.1335949
1500;1504;1508;1512,Bancroft Court,94578,37.7112293,-122.1336209
1516;1520;1524;1528,Bancroft Court,94578,37.7116058,-122.1332398
1501;1503;1505;1507,Bancroft Court,94578,37.7114179,-122.1338738
1515;1517;1519;1521,Bancroft Court,94578,37.7117643,-122.1334569
14608,Bancroft Avenue,94578,37.7107009,-122.1331722
14620,Bancroft Avenue,94578,37.7106030,-122.1330143
14634,Bancroft Avenue,94578,37.7105042,-122.1328483
14746,Bancroft Avenue,94578,37.7103703,-122.1326940
14758,Bancroft Avenue,94578,37.7102806,-122.1325471
14762,Bancroft Avenue,94578,37.7101665,-122.1324392
1505,148th Avenue,94578,37.7100228,-122.1322158
1531,148th Avenue,94578,37.7101781,-122.1320655
1545,148th Avenue,94578,37.7103208,-122.1319182
14765,Craft Avenue,94578,37.7104535,-122.1321217
14753,Craft Avenue,94578,37.7105591,-122.1322852
14741,Craft Avenue,94578,37.7106451,-122.1324336
14629,Craft Avenue,94578,37.7107472,-122.1325621
14617,Craft Avenue,94578,37.7108093,-122.1327130
14605,Craft Avenue,94578,37.7109758,-122.1328707
1530,146th Avenue,94578,37.7108608,-122.1330528
1562,146th Avenue,94578,37.7112500,-122.1326327
14620,Craft Avenue,94578,37.7111662,-122.1324995
14632,Craft Avenue,94578,37.7110759,-122.1323412
14740,Craft Avenue,94578,37.7109598,-122.1322136
14754,Craft Avenue,94578,37.7108428,-122.1320685
14766,Craft Avenue,94578,37.7107523,-122.1319333
14788,Craft Avenue,94578,37.7106641,-122.1317885
1563,148th Avenue,94578,37.7105688,-122.1316185
1585,Lark Street,94578,37.7108378,-122.1313372
14777,Lark Street,94578,37.7109458,-122.1314502
14763,Lark Street,94578,37.7110517,-122.1315973
14755,Lark Street,94578,37.7111340,-122.1317451
14743,Lark Street,94578,37.7112513,-122.1318908
14633,Lark Street,94578,37.7113132,-122.1320252
14621,Lark Street,94578,37.7114180,-122.1321638
1588,146th Avenue,94578,37.7115213,-122.1323460
1531,Coral Avenue,94578,37.7100259,-122.1312263
1539,Coral Avenue,94578,37.7100954,-122.1310198
14811,Towers Street,94578,37.7100557,-122.1308090
1532,148th Avenue,94578,37.7099336,-122.1317806
1544,148th Avenue,94578,37.7100332,-122.1316297
1556,148th Avenue,94578,37.7101654,-122.1314923
1564,148th Avenue,94578,37.7102653,-122.1313608
1576,148th Avenue,94578,37.7104025,-122.1312640
1584,148th Avenue,94578,37.7106285,-122.1310084
14819,Lark Street,94578,37.7105005,-122.1308083
14825,Lark Street,94578,37.7104005,-122.1306979
14833,Lark Street,94578,37.7103015,-122.1305212
14839,Lark Street,94578,37.7101842,-122.1304136
14841,Lark Street,94578,37.7101019,-122.1302366
14847,Lark Street,94578,37.7099981,-122.1301353
14544,Lark Street,94578,37.7124995,-122.1330523
14552,Lark Street,94578,37.7123574,-122.1328422
14566,Lark Street,94578,37.7122585,-122.1327081
14574,Lark Street,94578,37.7122100,-122.1325498
14586,Lark Street,94578,37.7120835,-122.1324117
14594,Lark Street,94578,37.7119792,-122.1322709
14602,Lark Street,94578,37.7119281,-122.1321193
14614,Lark Street,94578,37.7117547,-122.1319908
14634,Lark Street,94578,37.7116981,-122.1318327
14648,Lark Street,94578,37.7115728,-122.1316891
14702,Lark Street,94578,37.7114652,-122.1315608
14764,Lark Street,94578,37.7113583,-122.1314234
14778,Lark Street,94578,37.7112726,-122.1312525
14786,Lark Street,94578,37.7110916,-122.1310469
1627,148th Avenue,94578,37.7112252,-122.1309014
14789,Sylvia Way,94578,37.7113282,-122.1307889
14773,Sylvia Way,94578,37.7114582,-122.1310083
14765,Sylvia Way,94578,37.7115938,-122.1311576
14749,Sylvia Way,94578,37.7116592,-122.1313051
14651,Sylvia Way,94578,37.7118275,-122.1314496
14647,Sylvia Way,94578,37.7119393,-122.1315517
14625,Sylvia Way,94578,37.7120499,-122.1317006
14605,Sylvia Way,94578,37.7121603,-122.1317946
14595,Sylvia Way,94578,37.7122535,-122.1319311
14585,Sylvia Way,94578,37.7123594,-122.1320813
14573,Sylvia Way,94578,37.7124592,-122.1322242
14567,Sylvia Way,94578,37.7125746,-122.1323704
14555,Sylvia Way,94578,37.7126492,-122.1325016
14537,Sylvia Way,94578,37.7128152,-122.1327467
1638,Dilletta Avenue,94578,37.7126593,-122.1329075
14530,Sylvia Way,94578,37.7130705,-122.1324558
14554,Sylvia Way,94578,37.7129797,-122.1321990
14568,Sylvia Way,94578,37.7128262,-122.1321127
14570,Sylvia Way,94578,37.7127211,-122.1319541
14582,Sylvia Way,94578,37.7126726,-122.1318105
14594,Sylvia Way,94578,37.7125360,-122.1316776
14604,Sylvia Way,94578,37.7124200,-122.1315407
14626,Sylvia Way,94578,37.7123136,-122.1313909
14648,Sylvia Way,94578,37.7122435,-122.1312255
14654,Sylvia Way,94578,37.7121095,-122.1311357
14742,Sylvia Way,94578,37.7119611,-122.1310020
14764,Sylvia Way,94578,37.7118554,-122.1308963
14776,Sylvia Way,94578,37.7117157,-122.1307211
14788,Sylvia Way,94578,37.7115777,-122.1305214
1725,148th Avenue,94578,37.7116987,-122.1304112
14795,Wake Avenue,94578,37.7118107,-122.1302922
14783,Wake Avenue,94578,37.7119488,-122.1304320
14775,Wake Avenue,94578,37.7121041,-122.1305890
14761,Wake Avenue,94578,37.7122501,-122.1306895
14657,Wake Avenue,94578,37.7124148,-122.1308001
14645,Wake Avenue,94578,37.7125238,-122.1309207
14621,Wake Avenue,94578,37.7126024,-122.1310704
14609,Wake Avenue,94578,37.7127078,-122.1312062
14597,Wake Avenue,94578,37.7127960,-122.1313588
14583,Wake Avenue,94578,37.7129343,-122.1314885
14575,Wake Avenue,94578,37.7130039,-122.1316902
14567,Wake Avenue,94578,37.7131175,-122.1317691
14553,Wake Avenue,94578,37.7132304,-122.1318998
14545,Wake Avenue,94578,37.7133748,-122.1320912
1736,Dilletta Avenue,94578,37.7132278,-122.1322903
14804,Lark Street,94578,37.7108600,-122.1307015
14812,Lark Street,94578,37.7107644,-122.1305309
14822,Lark Street,94578,37.7106242,-122.1303845
14834,Lark Street,94578,37.7105213,-122.1302271
14838,Lark Street,94578,37.7104073,-122.1300515
14844,Lark Street,94578,37.7102991,-122.1299146
14848,Lark Street,94578,37.7101927,-122.1297607
14866,Lark Street,94578,37.7101167,-122.1296209
1613,Sidney Avenue,94578,37.7100691,-122.1293922
14891,Sylvia Way,94578,37.7102817,-122.1290882
14885,Sylvia Way,94578,37.7104228,-122.1292884
14873,Sylvia Way,94578,37.7104926,-122.1294488
14861,Sylvia Way,94578,37.7105959,-122.1296200
14857,Sylvia Way,94578,37.7106422,-122.1297920
14845,Sylvia Way,94578,37.7107561,-122.1299969
14833,Sylvia Way,94578,37.7108349,-122.1301230
14821,Sylvia Way,94578,37.7109672,-122.1303113
14807,Sylvia Way,94578,37.7111041,-122.1304546
1628,148th Avenue,94578,37.7109865,-122.1305709
14806,Sylvia Way,94578,37.7113250,-122.1301794
14818,Sylvia Way,94578,37.7111932,-122.1299875
14830,Sylvia Way,94578,37.7111214,-122.1298538
14842,Sylvia Way,94578,37.7110059,-122.1296895
14856,Sylvia Way,94578,37.7109468,-122.1295185
14868,Sylvia Way,94578,37.7108542,-122.1293347
14872,Sylvia Way,94578,37.7108047,-122.1291897
14884,Sylvia Way,94578,37.7106775,-122.1290409
14890,Sylvia Way,94578,37.7105219,-122.1288253
1743,Sidney Avenue,94578,37.7106786,-122.1286368
14873,Wake Avenue,94578,37.7108950,-122.1284278
14865,Wake Avenue,94578,37.7110145,-122.1287440
14857,Wake Avenue,94578,37.7111153,-122.1289091
14853,Wake Avenue,94578,37.7111504,-122.1290602
14847,Wake Avenue,94578,37.7112279,-122.1292380
14841,Wake Avenue,94578,37.7113389,-122.1294056
14829,Wake Avenue,94578,37.7113976,-122.1295590
14823,Wake Avenue,94578,37.7114901,-122.1297200
14811,Wake Avenue,94578,37.7115869,-122.1299226
1728,148th Avenue,94578,37.7114675,-122.1300496
1667,Halsey Avenue,94578,37.7100057,-122.1282214
1709,Halsey Avenue,94578,37.7101280,-122.1280030
1725,Halsey Avenue,94578,37.7102398,-122.1278851
1743,Halsey Avenue,94578,37.7103751,-122.1277291
14893,Wake Avenue,94578,37.7105060,-122.1276011
1756,Wake Avenue,94578,37.7106959,-122.1280345
1744,Sidney Avenue,94578,37.7105576,-122.1282331
1732,Sidney Avenue,94578,37.7104372,-122.1283706
1718,Sidney Avenue,94578,37.7102941,-122.1284883
1658,Sidney Avenue,94578,37.7101816,-122.1286439
1646,Sidney Avenue,94578,37.7100437,-122.1287821
1716,Russ Avenue,94578,37.7148856,-122.1328372
1718,Russ Avenue,94578,37.7150078,-122.1327434
1724,Russ Avenue,94578,37.7151409,-122.1325729
14401;14403;14405,Kings Court,94578,37.7152148,-122.1323349
14411;14413;14415;14417;14419,Kings Court,94578,37.7149296,-122.1322579
14421;14423;14425;14427,Kings Court,94578,37.7147097,-122.1325183
14441;14443;14445,Kings Court,94578,37.7146581,-122.1319867
14431;14433;14435;14437,Kings Court,94578,37.7144840,-122.1321954
14451;14453;14455;14457;14459;14461,Kings Court,94578,37.7143468,-122.1318378
14473;14475;14477;14479;14481,Kings Court,94578,37.7140783,-122.1316508
14541;14543;14547;14549,Kings Court,94578,37.7138394,-122.1314979
14553;14555;14557;14559,Kings Court,94578,37.7135883,-122.1311856
14424,Wake Avenue,94578,37.7145242,-122.1328333
14438,Wake Avenue,94578,37.7144115,-122.1326725
14448,Wake Avenue,94578,37.7143128,-122.1325445
14452,Wake Avenue,94578,37.7142358,-122.1324291
14456,Wake Avenue,94578,37.7141194,-122.1322944
14510,Wake Avenue,94578,37.7140222,-122.1321174
14516,Wake Avenue,94578,37.7138633,-122.1320391
14534,Wake Avenue,94578,37.7137650,-122.1319288
14550,Wake Avenue,94578,37.7136106,-122.1318264
14562,Wake Avenue,94578,37.7135463,-122.1316358
14564,Wake Avenue,94578,37.7134502,-122.1314961
14578,Wake Avenue,94578,37.7133419,-122.1314048
14582,Wake Avenue,94578,37.7132138,-122.1312603
14596,Wake Avenue,94578,37.7131437,-122.1311129
14606,Wake Avenue,94578,37.7130259,-122.1309552
14622,Wake Avenue,94578,37.7129219,-122.1308367
14638,Wake Avenue,94578,37.7128172,-122.1306802
14646,Wake Avenue,94578,37.7127137,-122.1305478
14750,Wake Avenue,94578,37.7126028,-122.1304096
14762,Wake Avenue,94578,37.7124514,-122.1303044
14778,Wake Avenue,94578,37.7123431,-122.1302042
14784,Wake Avenue,94578,37.7121914,-122.1301211
14792,Wake Avenue,94578,37.7120417,-122.1299684
1810,148th Avenue,94578,37.7118576,-122.1296557
14820,Wake Avenue,94578,37.7117857,-122.1295039
14832,Wake Avenue,94578,37.7117094,-122.1293400
14840,Wake Avenue,94578,37.7116183,-122.1291636
14846,Wake Avenue,94578,37.7115493,-122.1290081
14850,Wake Avenue,94578,37.7114778,-122.1288232
14854,Wake Avenue,94578,37.7113842,-122.1286815
14856,Wake Avenue,94578,37.7113068,-122.1284956
14868,Wake Avenue,94578,37.7112323,-122.1283514
14870,Wake Avenue,94578,37.7111510,-122.1281723
14878,Wake Avenue,94578,37.7110856,-122.1280223
14880,Wake Avenue,94578,37.7110001,-122.1278573
14886,Wake Avenue,94578,37.7109350,-122.1276938
14890,Wake Avenue,94578,37.7108428,-122.1274891
14894,Wake Avenue,94578,37.7107979,-122.1272371
14896,Wake Avenue,94578,37.7106552,-122.1271826
1762,Halsey Avenue,94578,37.7104826,-122.1271355
1754,Halsey Avenue,94578,37.7102560,-122.1271271
1748,Halsey Avenue,94578,37.7102043,-122.1273455
1736,Halsey Avenue,94578,37.7101094,-122.1274454
1728,Halsey Avenue,94578,37.7099792,-122.1276090
14959,Portofino Circle,94578,37.7104505,-122.1264691
14961,Portofino Circle,94578,37.7103726,-122.1265679
14963,Portofino Circle,94578,37.7102788,-122.1266624
14965,Portofino Circle,94578,37.7101997,-122.1267620
14967,Portofino Circle,94578,37.7101051,-122.1268548
14969,Portofino Circle,94578,37.7100266,-122.1269553
14962,Portofino Circle,94578,37.7100206,-122.1263701
14960,Portofino Circle,94578,37.7101138,-122.1262764
14958,Portofino Circle,94578,37.7102005,-122.1261807
14956,Portofino Circle,94578,37.7100698,-122.1260898
14954,Portofino Circle,94578,37.7100276,-122.1259379
14900,East 14th Street,94578,37.7065966,-122.1293369
14964;14966;14968;14970;14972,East 14th Street,94578,37.7062433,-122.1292533
1405,150th Avenue,94578,37.7064197,-122.1289791
1433,150th Avenue,94578,37.7065687,-122.1290985
1455,150th Avenue,94578,37.7066943,-122.1287464
1461,150th Avenue,94578,37.7067578,-122.1286197
1475,150th Avenue,94578,37.7068687,-122.1284772
1483,150th Avenue,94578,37.7070173,-122.1283847
1495,150th Avenue,94578,37.7070909,-122.1280048
1511,150th Avenue,94578,37.7073058,-122.1278381
1553,150th Avenue,94578,37.7074748,-122.1275093
14985,Donald Avenue,94578,37.7075599,-122.1276219
14971,Donald Avenue,94578,37.7076954,-122.1277484
14963,Donald Avenue,94578,37.7078012,-122.1279267
1580,Rake Court,94578,37.7077159,-122.1280871
1572,Rake Court,94578,37.7075842,-122.1282054
1568,Rake Court,94578,37.7074683,-122.1283690
1552,Rake Court,94578,37.7073330,-122.1285120
1546,Rake Court,94578,37.7071595,-122.1286206
1534,Rake Court,94578,37.7070820,-122.1288591
1522,Rake Court,94578,37.7072067,-122.1290709
1510,Rake Court,94578,37.7073056,-122.1291521
1506,Rake Court,94578,37.7074621,-122.1293350
1520,Peters Street,94578,37.7073331,-122.1294874
1512,Peters Street,94578,37.7072151,-122.1296491
1506,Peters Street,94578,37.7071093,-122.1298379
14896,Bancroft Avenue,94578,37.7068274,-122.1298952
14871,Bancroft Avenue,94578,37.7083173,-122.1309685
14863,Bancroft Avenue,94578,37.7085918,-122.1312569
14857,Bancroft Avenue,94578,37.7086892,-122.1313790
14855,Bancroft Avenue,94578,37.7087633,-122.1314872
14823,Bancroft Avenue,94578,37.7091866,-122.1318238
1482,148th Avenue,94578,37.7095319,-122.1322168
1476,148th Avenue,94578,37.7093998,-122.1323436
1464,148th Avenue,94578,37.7092970,-122.1324720
1452,148th Avenue,94578,37.7091924,-122.1325880
1446,148th Avenue,94578,37.7090726,-122.1327172
1430;1414,148th Avenue,94578,37.7088885,-122.1330136
14800,East 14th Street,94578,37.7087668,-122.1331350
14808,East 14th Street,94578,37.7087832,-122.1329128
14812,East 14th Street,94578,37.7084290,-122.1325669
14818,East 14th Street,94578,37.7083054,-122.1325164
14822,East 14th Street,94578,37.7080955,-122.1319551
14830,East 14th Street,94578,37.7083432,-122.1315506
14834,East 14th Street,94578,37.7079900,-122.1313340
14610,Wyman Avenue,94578,37.7101782,-122.1337482
14618,Wyman Avenue,94578,37.7100695,-122.1335586
14632,Wyman Avenue,94578,37.7099675,-122.1334417
1464,146th Avenue,94578,37.7103359,-122.1336503
14615,Bancroft Avenue,94578,37.7104353,-122.1334868
14625,Bancroft Avenue,94578,37.7103107,-122.1333092
14633,Bancroft Avenue,94578,37.7101861,-122.1331622
14745,Bancroft Avenue,94578,37.7100997,-122.1330160
14757,Bancroft Avenue,94578,37.7099891,-122.1329232
14570,East 14th Street,94578,37.7100632,-122.1349015
14550,East 14th Street,94578,37.7103012,-122.1349614
14575,Bancroft Avenue,94578,37.7105405,-122.1346479
14500,East 14th Street,94578,37.7107893,-122.1351795
1433,146th Avenue,94578,37.7100796,-122.1343974
1447,146th Avenue,94578,37.7102207,-122.1343418
1451,146th Avenue,94578,37.7103459,-122.1342038
1463,146th Avenue,94578,37.7104498,-122.1340856
1475,146th Avenue,94578,37.7105484,-122.1339776
14595,Bancroft Avenue,94578,37.7107013,-122.1338906
14593,Bancroft Avenue,94578,37.7108214,-122.1341098
14583,Bancroft Avenue,94578,37.7109319,-122.1342164
14591,Bancroft Avenue,94578,37.7107808,-122.1343562
14400,East 14th Street,94578,37.7111994,-122.1362815
14366,East 14th Street,94578,37.7113374,-122.1368696
14340,East 14th Street,94578,37.7115478,-122.1370636
14341,Bancroft Avenue,94578,37.7122435,-122.1364057
14305,Bancroft Avenue,94578,37.7124656,-122.1366880
14300,East 14th Street,94578,37.7118675,-122.1374321
14288,East 14th Street,94578,37.7119512,-122.1376856
14278,East 14th Street,94578,37.7122680,-122.1380869
14210,East 14th Street,94578,37.7125490,-122.1383149
14235,Bancroft Avenue,94578,37.7126130,-122.1372383
1490,142nd Avenue,94578,37.7130441,-122.1372391
1480,142nd Avenue,94578,37.7129535,-122.1373448
1470,142nd Avenue,94578,37.7128381,-122.1374746
1460,142nd Avenue,94578,37.7126840,-122.1375633
1450,142nd Avenue,94578,37.7125726,-122.1377041
1440,142nd Avenue,94578,37.7125928,-122.1379500
1430,142nd Avenue,94578,37.7127746,-122.1381659
1451,142nd Avenue,94578,37.7130459,-122.1378132
1471,142nd Avenue,94578,37.7131806,-122.1376793
1481,142nd Avenue,94578,37.7133326,-122.1376051
1472,141st Avenue,94578,37.7135239,-122.1378816
1452,141st Avenue,94578,37.7134432,-122.1380194
1442,141st Avenue,94578,37.7133224,-122.1381922
1438,141st Avenue,94578,37.7131343,-122.1380588
1425,141st Avenue,94578,37.7130116,-122.1384883
1435,141st Avenue,94578,37.7131699,-122.1387610
1445,141st Avenue,94578,37.7133418,-122.1387919
1455,141st Avenue,94578,37.7134480,-122.1386322
1465,141st Avenue,94578,37.7135595,-122.1385008
1475,141st Avenue,94578,37.7136479,-122.1383544
1485,141st Avenue,94578,37.7137661,-122.1382503
1426,140th Avenue,94578,37.7134543,-122.1392278
1436,140th Avenue,94578,37.7135628,-122.1390935
1446,140th Avenue,94578,37.7136756,-122.1389865
1456,140th Avenue,94578,37.7137898,-122.1388548
1466,140th Avenue,94578,37.7139086,-122.1386965
1476,140th Avenue,94578,37.7140230,-122.1385940
13990,East 14th Street,94578,37.7136049,-122.1396683
1427,140th Avenue,94578,37.7136707,-122.1395226
1437,140th Avenue,94578,37.7137863,-122.1394047
1447,140th Avenue,94578,37.7139199,-122.1392855
1457,140th Avenue,94578,37.7140069,-122.1391690
1467,140th Avenue,94578,37.7141314,-122.1390188
1477,140th Avenue,94578,37.7142584,-122.1389054
13922,East 14th Street,94578,37.7141227,-122.1406980
1434;1438;1442;1446,138th Avenue,94578,37.7144721,-122.1403311
1450;1454;1458;1462;1466;1470,138th Avenue,94578,37.7147066,-122.1400842
1474,138th Avenue,94578,37.7148660,-122.1399073
13803;13809;13815,Bancroft Avenue,94578,37.7148870,-122.1397912
13701,Bancroft Avenue,94578,37.7151507,-122.1405118
13808,East 14th Street,94578,37.7148956,-122.1415816
1456,136th Avenue,94578,37.7155174,-122.1410441
1469;1471;1473,136th Avenue,94578,37.7158978,-122.1414393
13541;13547;13553,Bancroft Avenue,94578,37.7160453,-122.1413937
1457;1459;1461;1463;1465;1467,136th Avenue,94578,37.7158321,-122.1417052
1449;1451;1453;1455,136th Avenue,94578,37.7155933,-122.1417980
13792,East 14th Street,94578,37.7154588,-122.1420421
13780,East 14th Street,94578,37.7153586,-122.1424119
2224,Estabrook Circle,94577,37.7174894,-122.1490968
2238,Estabrook Circle,94577,37.7173908,-122.1490242
2252,Estabrook Circle,94577,37.7172666,-122.1489048
2272,Estabrook Circle,94577,37.7171608,-122.1488485
2280,Estabrook Circle,94577,37.7170027,-122.1488815
2294,Estabrook Circle,94577,37.7168754,-122.1489949
2285,Estabrook Circle,94577,37.7168142,-122.1491971
155;185,Estabrook Street,94577,37.7177887,-122.1509715
2135,Buena Vista Avenue,94577,37.7176770,-122.1508518
2147,Buena Vista Avenue,94577,37.7175345,-122.1508621
2159,Buena Vista Avenue,94577,37.7174493,-122.1507309
2171,Buena Vista Avenue,94577,37.7173604,-122.1506530
2183,Buena Vista Avenue,94577,37.7172461,-122.1506002
2195,Buena Vista Avenue,94577,37.7171635,-122.1505232
2207,Buena Vista Avenue,94577,37.7170749,-122.1504475
2217,Buena Vista Avenue,94577,37.7169430,-122.1503982
2227,Buena Vista Avenue,94577,37.7168434,-122.1503108
2239,Buena Vista Avenue,94577,37.7167594,-122.1502579
2245,Buena Vista Avenue,94577,37.7166468,-122.1501837
2251,Buena Vista Avenue,94577,37.7165339,-122.1498472
193,Estabrook Street,94577,37.7176511,-122.1511824
2150,Washington Avenue,94577,37.7173251,-122.1510897
2154,Washington Avenue,94577,37.7171158,-122.1510598
2164,Washington Avenue,94577,37.7170216,-122.1508379
2170,Washington Avenue,94577,37.7167666,-122.1507490
2240,Washington Avenue,94577,37.7165311,-122.1505651
2242,Washington Avenue,94577,37.7163729,-122.1503453
2250,Washington Avenue,94577,37.7161768,-122.1503840
2251;2265;2277;2283,Wimbledon Place,94577,37.7155868,-122.1498962
2250;2264;2276,Wimbledon Place,94577,37.7158962,-122.1495824
2322;2348;2360,Wimbledon Place,94577,37.7156763,-122.1493555
83;87;91;99,Cornwall Way,94577,37.7158679,-122.1490476
2213;2225;2231;2243,Heathrow Place,94577,37.7160485,-122.1492458
2204;2222;2230;2244,Heathrow Place,94577,37.7163375,-122.1495574
2252;2264;2298,Heathrow Place,94577,37.7164098,-122.1490356
2316;2358;2390,Heathrow Place,94577,37.7162160,-122.1487459
2315,Blackpool Place,94577,37.7164232,-122.1485400
2203;2245;2279,Blackpool Place,94577,37.7166004,-122.1488365
2200;2246;2278,Blackpool Place,94577,37.7168619,-122.1485246
51;55;63;67,Cornwall Way,94577,37.7166954,-122.1482343
2203;2217;2229;2245,Claridge Place,94577,37.7171015,-122.1483084
2328;2354;2396,Claridge Place,94577,37.7169640,-122.1479115
31;43;49,Cornwall Way,94577,37.7169511,-122.1474883
2335;2351;2367,Croyden Place,94577,37.7171565,-122.1476774
2211;2233;2269,Croyden Place,94577,37.7172963,-122.1480296
2210;2236;2268;2284,Croyden Place,94577,37.7175388,-122.1476657
2352;2366;2380;2398,Croyden Place,94577,37.7172975,-122.1472598
2353;2365;2379;2393,Cheshire Place,94577,37.7175089,-122.1470261
30;36;42;48,Cornwall Way,94577,37.7166387,-122.1470726
2460;2472;2488;2496,Dundee Court,94577,37.7162656,-122.1469441
2463;2475;2487;2499,Dundee Court,94577,37.7160083,-122.1472464
2421;2437;2455,Dundee Court,94577,37.7163526,-122.1474389
2410;2424;2436,Blackpool Lane,94577,37.7163424,-122.1479025
2448;2452;2460,Blackpool Lane,94577,37.7161462,-122.1476503
2478;2482;2490;2498,Blackpool Lane,94577,37.7157852,-122.1474701
2453;2465;2477;2483;2495,Blackpool Lane,94577,37.7156671,-122.1478233
2409;2423;2435;2441;2449,Blackpool Lane,94577,37.7160796,-122.1481426
2402;2414;2426;2438;2444,Heathrow Lane,94577,37.7158877,-122.1483356
2456;2468;2474;2488;2496,Heathrow Lane,94577,37.7154750,-122.1480464
82;86;90;98,Cornwall Way,94577,37.7156822,-122.1487671
2431;2443;2451;2467,Heathrow Lane,94577,37.7154276,-122.1485282
2471;2483;2487;2499,Heathrow Lane,94577,37.7151805,-122.1481733
2404;2410;2426;2432,Wimbledon Lane,94577,37.7154010,-122.1489392
2448;2450;2464,Wimbledon Lane,94577,37.7151725,-122.1486315
2476;2488;2492,Wimbledon Lane,94577,37.7149714,-122.1483654
2431;2443;2449;2455,Wimbledon Lane,94577,37.7150278,-122.1489742
115;123;137;149,Savoy Way,94577,37.7147226,-122.1487740
2405;2411;2417;2423,Limehouse Lane,94577,37.7151778,-122.1494926
2431;2439;2445;2453;2467,Limehouse Lane,94577,37.7147775,-122.1494095
2471;2479;2485;2493,Limehouse Lane,94577,37.7144069,-122.1490881
1075,Coburn Court,94578,37.7136376,-122.1468617
1119,Coburn Court,94578,37.7137361,-122.1467327
1131,Coburn Court,94578,37.7138538,-122.1465965
1143,Coburn Court,94578,37.7139568,-122.1464771
13485,Rose Drive,94578,37.7145240,-122.1466017
13499,Rose Drive,94578,37.7143320,-122.1463835
13501,Rose Drive,94578,37.7142370,-122.1462963
13505,Rose Drive,94578,37.7141060,-122.1461251
1160;1166;1170;1174,Coburn Court,94578,37.7138387,-122.1457531
1116;1120;1124;1128,Coburn Court,94578,37.7135435,-122.1462696
1142;1146;1150;1154,Coburn Court,94578,37.7137024,-122.1459546
13504;13508,Rose Drive,94578,37.7144462,-122.1459339
1212,135th Avenue,94578,37.7145646,-122.1458043
1220,135th Avenue,94578,37.7146684,-122.1456893
1232,135th Avenue,94578,37.7147718,-122.1455683
1316;1318,135th Avenue,94578,37.7154738,-122.1447385
1322;1324,135th Avenue,94578,37.7156016,-122.1445909
1332,135th Avenue,94578,37.7157060,-122.1444867
1342,135th Avenue,94578,37.7157977,-122.1443825
13515,East 14th Street,94578,37.7158876,-122.1440197
13505,135th Avenue,94578,37.7158255,-122.1441989
13484,Rose Drive,94578,37.7147698,-122.1463507
1215;1217,135th Avenue,94578,37.7148387,-122.1462141
1223,135th Avenue,94578,37.7149478,-122.1460650
1233;1237,135th Avenue,94578,37.7150406,-122.1459599
1243;1245,135th Avenue,94578,37.7151552,-122.1458278
1255;1257,135th Avenue,94578,37.7152572,-122.1457166
1261;1263,135th Avenue,94578,37.7153711,-122.1455887
1275;1277,135th Avenue,94578,37.7154561,-122.1455025
1301;1303,135th Avenue,94578,37.7155650,-122.1453923
1305;1309,135th Avenue,94578,37.7156943,-122.1452452
1311;1315;1319,135th Avenue,94578,37.7157888,-122.1451740
1321;1323;1325,135th Avenue,94578,37.7159053,-122.1450289
1331;1335,135th Avenue,94578,37.7159876,-122.1449070
1341;1343,135th Avenue,94578,37.7161019,-122.1447802
13745,East 14th Street,94578,37.7154861,-122.1436760
255,Marina Boulevard,94577,37.7165321,-122.1517263
269,Marina Boulevard,94577,37.7164716,-122.1518573
283,Marina Boulevard,94577,37.7164099,-122.1520181
2212,Cherry Street,94577,37.7162701,-122.1518543
2228,Cherry Street,94577,37.7162235,-122.1516952
2236,Cherry Street,94577,37.7160942,-122.1517372
2244,Cherry Street,94577,37.7159748,-122.1516742
2248,Cherry Street,94577,37.7158843,-122.1516112
2260,Cherry Street,94577,37.7157818,-122.1515537
2268,Cherry Street,94577,37.7156927,-122.1514643
2272;2274,Cherry Street,94577,37.7156371,-122.1513263
2286,Cherry Street,94577,37.7154854,-122.1513394
292,2nd Avenue,94577,37.7154180,-122.1512233
2251,Washington Avenue,94577,37.7161750,-122.1509329
2287,Washington Avenue,94577,37.7156961,-122.1507050
250,2nd Avenue,94577,37.7156191,-122.1509219
2275,Washington Avenue,94577,37.7159753,-122.1507778
2281,Washington Avenue,94577,37.7158690,-122.1507030
2273,Washington Avenue,94577,37.7160738,-122.1508813
2271,Washington Avenue,94577,37.7159854,-122.1510701
308,2nd Avenue,94577,37.7152832,-122.1516386
320,2nd Avenue,94577,37.7152237,-122.1517506
332,2nd Avenue,94577,37.7151718,-122.1518642
342,2nd Avenue,94577,37.7151261,-122.1519799
2273,Cherry Street,94577,37.7154010,-122.1518497
2265;2267,Cherry Street,94577,37.7154835,-122.1519888
2259,Cherry Street,94577,37.7156296,-122.1519636
2251,Cherry Street,94577,37.7157119,-122.1520565
2245,Cherry Street,94577,37.7158233,-122.1520882
2241,Cherry Street,94577,37.7159234,-122.1521387
2227,Cherry Street,94577,37.7160216,-122.1522293
2219,Cherry Street,94577,37.7160839,-122.1522954
2213,Cherry Street,94577,37.7161628,-122.1524242
2201;2203,Cherry Street,94577,37.7162999,-122.1524162
568,Harlan Street,94577,37.7169138,-122.1567271
566,Harlan Street,94577,37.7171499,-122.1568300
554,Harlan Street,94577,37.7171300,-122.1566393
520,Harlan Street,94577,37.7170746,-122.1563943
527,Harlan Street,94577,37.7167616,-122.1559337
563,Harlan Street,94577,37.7163503,-122.1565963
555,Harlan Street,94577,37.7166002,-122.1564608
549,Harlan Street,94577,37.7165328,-122.1562422
560,Estabrook Street,94577,37.7164519,-122.1556671
572,Estabrook Street,94577,37.7161604,-122.1561917
596,Estabrook Street,94577,37.7159537,-122.1562450
620,Marina Boulevard,94577,37.7152525,-122.1563306
575,Marina Boulevard,94577,37.7141456,-122.1539905
577,Estabrook Street,94577,37.7157104,-122.1559058
565,Estabrook Street,94577,37.7156775,-122.1556365
555,Estabrook Street,94577,37.7158605,-122.1555799
545,Estabrook Street,94577,37.7158977,-122.1554414
521,Estabrook Street,94577,37.7160395,-122.1551548
509,Estabrook Street,94577,37.7159777,-122.1548594
572;574,Marina Boulevard,94577,37.7154375,-122.1555844
550,Marina Boulevard,94577,37.7154645,-122.1553628
530,Marina Boulevard,94577,37.7155176,-122.1552096
504;508,Marina Boulevard,94577,37.7157412,-122.1548744
512,Marina Boulevard,94577,37.7157691,-122.1551633
2480,Washington Avenue,94577,37.7130507,-122.1479936
809,Coburn Court,94578,37.7125221,-122.1477692
821,Coburn Court,94578,37.7126900,-122.1478570
867,Coburn Court,94578,37.7128780,-122.1478327
895,Coburn Court,94578,37.7129938,-122.1476771
911,Coburn Court,94578,37.7130748,-122.1475080
2600,San Leandro Boulevard,94578,37.7129032,-122.1459283
1167,136th Avenue,94578,37.7128174,-122.1450373
1175,136th Avenue,94578,37.7130007,-122.1450287
1183,136th Avenue,94578,37.7131420,-122.1449568
13555,Rose Drive,94578,37.7132644,-122.1448291
1162,136th Avenue,94578,37.7126925,-122.1446024
1178,136th Avenue,94578,37.7128758,-122.1446048
13607,Rose Drive,94578,37.7129885,-122.1444400
13608,Rose Drive,94578,37.7131939,-122.1442100
1222,136th Avenue,94578,37.7133421,-122.1440574
1230,136th Avenue,94578,37.7134614,-122.1439773
1244,136th Avenue,94578,37.7135100,-122.1437933
1256,136th Avenue,94578,37.7136898,-122.1437201
1268,136th Avenue,94578,37.7137892,-122.1435951
1312,136th Avenue,94578,37.7139354,-122.1435080
1318,136th Avenue,94578,37.7140457,-122.1433895
1324,136th Avenue,94578,37.7141725,-122.1432454
1330,136th Avenue,94578,37.7142750,-122.1431271
1338,136th Avenue,94578,37.7143990,-122.1429833
1344,136th Avenue,94578,37.7144998,-122.1428690
1348;1352;1356;1374;1382;1390,136th Avenue,94578,37.7147471,-122.1425730
13550,Rose Drive,94578,37.7134561,-122.1445985
1221,136th Avenue,94578,37.7135855,-122.1444242
1233,136th Avenue,94578,37.7136966,-122.1442691
1241,136th Avenue,94578,37.7138065,-122.1441466
1253,136th Avenue,94578,37.7139244,-122.1440093
1267,136th Avenue,94578,37.7140282,-122.1438670
1315,136th Avenue,94578,37.7141317,-122.1437529
1319,136th Avenue,94578,37.7142712,-122.1436487
1325,136th Avenue,94578,37.7143451,-122.1435040
1331,136th Avenue,94578,37.7144617,-122.1433848
1339,136th Avenue,94578,37.7145960,-122.1432799
1345,136th Avenue,94578,37.7147087,-122.1431138
13775,East 14th Street,94578,37.7149115,-122.1428143
14212,Orchid Drive,94578,37.7099851,-122.1423998
14208,Orchid Drive,94578,37.7101275,-122.1425322
1270,Primrose Drive,94578,37.7102419,-122.1424231
14201,Ivy Court,94578,37.7103856,-122.1422577
14211,Ivy Court,94578,37.7102466,-122.1420672
14221,Ivy Court,94578,37.7101378,-122.1419350
14231,Ivy Court,94578,37.7100343,-122.1417903
14244,Ivy Court,94578,37.7100910,-122.1411538
14232,Ivy Court,94578,37.7102261,-122.1413037
14228,Ivy Court,94578,37.7102869,-122.1414962
14222,Ivy Court,94578,37.7104163,-122.1416143
14218,Ivy Court,94578,37.7105294,-122.1417919
1320,Primrose Drive,94578,37.7106089,-122.1419496
14201,Orchid Drive,94578,37.7100511,-122.1432202
1255,Primrose Drive,94578,37.7102186,-122.1431251
1265,Primrose Drive,94578,37.7103498,-122.1429614
1275,Primrose Drive,94578,37.7104384,-122.1428113
1285,Primrose Drive,94578,37.7105658,-122.1426698
1295,Primrose Drive,94578,37.7106676,-122.1425348
1315,Primrose Drive,94578,37.7108207,-122.1423908
1325,Primrose Drive,94578,37.7109248,-122.1422587
1335,Primrose Drive,94578,37.7110419,-122.1421124
14195,Rose Drive,94578,37.7111594,-122.1419882
13905,Rose Drive,94578,37.7113977,-122.1423445
1186,139th Avenue,94578,37.7113244,-122.1424440
1174,139th Avenue,94578,37.7112224,-122.1425652
1162,139th Avenue,94578,37.7111187,-122.1426824
1150;1152,139th Avenue,94578,37.7109631,-122.1427676
1146,139th Avenue,94578,37.7109249,-122.1429507
1142,139th Avenue,94578,37.7108315,-122.1428193
1132;1134,139th Avenue,94578,37.7108210,-122.1430587
1136,139th Avenue,94578,37.7107189,-122.1429299
1124,139th Avenue,94578,37.7106157,-122.1430700
1090,139th Avenue,94578,37.7102234,-122.1435209
13885,Rose Drive,94578,37.7116544,-122.1426984
1187,139th Avenue,94578,37.7115588,-122.1428039
1173,139th Avenue,94578,37.7114629,-122.1429136
1161,139th Avenue,94578,37.7113492,-122.1430454
13834,Rose Drive,94578,37.7116681,-122.1431757
13834,139th Avenue,94578,37.7123428,-122.1423941
14265,Rose Drive,94578,37.7100388,-122.1404605
14255,Rose Drive,94578,37.7101400,-122.1405987
14245,Rose Drive,94578,37.7102585,-122.1407359
14235,Rose Drive,94578,37.7103443,-122.1408884
14225,Rose Drive,94578,37.7104503,-122.1410283
14221,Rose Drive,94578,37.7105293,-122.1412030
14219,Rose Drive,94578,37.7106120,-122.1413714
14215,Rose Drive,94578,37.7107817,-122.1414838
14205,Rose Drive,94578,37.7109054,-122.1416277
1330,Primrose Drive,94578,37.7107719,-122.1417778
13880,Rose Drive,94578,37.7119212,-122.1424042
1217,139th Avenue,94578,37.7120097,-122.1422904
1223,139th Avenue,94578,37.7121141,-122.1421735
1239,139th Avenue,94578,37.7122086,-122.1420391
1245,139th Avenue,94578,37.7123369,-122.1419310
1253,139th Avenue,94578,37.7124095,-122.1418144
1267,139th Avenue,94578,37.7125293,-122.1417017
1279,139th Avenue,94578,37.7126296,-122.1415875
1303,139th Avenue,94578,37.7127120,-122.1414554
1315,139th Avenue,94578,37.7128136,-122.1413523
1329,139th Avenue,94578,37.7129142,-122.1412218
1335,139th Avenue,94578,37.7130368,-122.1411533
1347,139th Avenue,94578,37.7131250,-122.1409966
1395,139th Avenue,94578,37.7132631,-122.1409045
13999,East 14th Street,94578,37.7133875,-122.1408387
13939,East 14th Street,94578,37.7128109,-122.1418420
14290,Rose Drive,94578,37.7101330,-122.1398679
14280,Rose Drive,94578,37.7101996,-122.1400364
14270,Rose Drive,94578,37.7103135,-122.1401664
14260,Rose Drive,94578,37.7104169,-122.1403269
14250,Rose Drive,94578,37.7105241,-122.1404700
14240,Rose Drive,94578,37.7106299,-122.1406068
14230,Rose Drive,94578,37.7107441,-122.1407508
14228,Rose Drive,94578,37.7108367,-122.1408927
14224,Rose Drive,94578,37.7109477,-122.1410440
14220,Rose Drive,94578,37.7110636,-122.1412050
14210,Rose Drive,94578,37.7111644,-122.1413453
14200,Rose Drive,94578,37.7112722,-122.1414738
14190,Rose Drive,94578,37.7113686,-122.1416130
14180,Rose Drive,94578,37.7114960,-122.1417459
13906,139th Avenue,94578,37.7116750,-122.1420376
1210,139th Avenue,94578,37.7117650,-122.1419319
1224,139th Avenue,94578,37.7118581,-122.1418252
1236,139th Avenue,94578,37.7119598,-122.1416873
1242,139th Avenue,94578,37.7120626,-122.1415771
1254,139th Avenue,94578,37.7121547,-122.1414315
1266,139th Avenue,94578,37.7122694,-122.1413488
1278,139th Avenue,94578,37.7123503,-122.1412354
1304,139th Avenue,94578,37.7124691,-122.1410857
1316,139th Avenue,94578,37.7125639,-122.1409680
1330,139th Avenue,94578,37.7126667,-122.1408745
1336,139th Avenue,94578,37.7127732,-122.1407442
1340,139th Avenue,94578,37.7128568,-122.1406545
1350;1352,139th Avenue,94578,37.7129893,-122.1405034
1346;1348,139th Avenue,94578,37.7128715,-122.1403601
14005,East 14th Street,94578,37.7129708,-122.1402245
14075,East 14th Street,94578,37.7128034,-122.1401000
14101,East 14th Street,94578,37.7124782,-122.1399215
14207,East 14th Street,94578,37.7121524,-122.1398005
1195;1197;1199,143rd Avenue,94578,37.7105703,-122.1401002
1191;1193,143rd Avenue,94578,37.7103223,-122.1397533
1211;1213,143rd Avenue,94578,37.7105077,-122.1397412
1229;1233,143rd Avenue,94578,37.7106064,-122.1396266
1235,143rd Avenue,94578,37.7105711,-122.1393469
1245,143rd Avenue,94578,37.7107097,-122.1392572
1249,143rd Avenue,94578,37.7108056,-122.1391613
1263,143rd Avenue,94578,37.7110589,-122.1392970
1301,143rd Avenue,94578,37.7110694,-122.1388676
1295,143rd Avenue,94578,37.7113608,-122.1393653
1371,143rd Avenue,94578,37.7113584,-122.1384522
14285,East 14th Street,94578,37.7115568,-122.1384727
14251,East 14th Street,94578,37.7120463,-122.1386907
14253,East 14th Street,94578,37.7118141,-122.1389722
14263,East 14th Street,94578,37.7116651,-122.1388218
14255,East 14th Street,94578,37.7115352,-122.1391936
14141,East 14th Street,94578,37.7120234,-122.1390691
1336,141st Avenue,94578,37.7117468,-122.1394040
1290,141st Avenue,94578,37.7115962,-122.1396104
1270,141st Avenue,94578,37.7114464,-122.1397817
1250,141st Avenue,94578,37.7113617,-122.1398820
1230,141st Avenue,94578,37.7112120,-122.1400532
1210,141st Avenue,94578,37.7111147,-122.1401375
1200,141st Avenue,94578,37.7109349,-122.1402628
14197,Reed Avenue,94578,37.7109929,-122.1406111
14153;14155,Reed Avenue,94578,37.7111673,-122.1407655
14137;14139,Reed Avenue,94578,37.7112671,-122.1409011
1293,141st Avenue,94578,37.7119141,-122.1399939
1271,141st Avenue,94578,37.7117766,-122.1401435
1251,141st Avenue,94578,37.7116928,-122.1402677
1231;1233;1235;1237,141st Avenue,94578,37.7114861,-122.1404131
14130,Reed Avenue,94578,37.7116178,-122.1405431
14061;14063;14065;14067;14069;14071;14073;14075,Reed Avenue,94578,37.7116733,-122.1413837
14085;14087;14089;14091,Reed Avenue,94578,37.7113983,-122.1411253
14081;14083,Reed Avenue,94578,37.7115424,-122.1410803
14041;14043;14045;14047;14049;14051;14053;14055,Reed Avenue,94578,37.7118677,-122.1411611
14021;14023;14025;14027;14029;14031;14033;14035,Reed Avenue,94578,37.7120630,-122.1409383
14001;14003;14005;14007;14009;14011;14013;14015,Reed Avenue,94578,37.7122574,-122.1407128
14002;14004;14006,Reed Avenue,94578,37.7120769,-122.1403480
14008;14010;14012;14014,Reed Avenue,94578,37.7119845,-122.1404559
14030;14032;14034;14036,Reed Avenue,94578,37.7118823,-122.1405731
14050;14052;14054;14056,Reed Avenue,94578,37.7117887,-122.1407975
14307;140309;14315;14317;14319;14327;14341;14353;14359;14365;14373;14381;14387;14393;14399,East 14th Street,94578,37.7110217,-122.1375907
1320,143rd Avenue,94578,37.7108453,-122.1383170
1268,143rd Avenue,94578,37.7105330,-122.1383376
1260,143rd Avenue,94578,37.7105900,-122.1386903
1244;1248;1250,143rd Avenue,94578,37.7104461,-122.1387611
1232;1236,143rd Avenue,94578,37.7103501,-122.1388826
1240,143rd Avenue,94578,37.7101765,-122.1385286
1363,144th Avenue,94578,37.7105380,-122.1374147
1355,144th Avenue,94578,37.7104183,-122.1375479
1347,144th Avenue,94578,37.7103353,-122.1376657
1333,144th Avenue,94578,37.7101798,-122.1377213
1321,144th Avenue,94578,37.7101005,-122.1378627
1311,144th Avenue,94578,37.7100238,-122.1379402
14405;14417,East 14th Street,94578,37.7105238,-122.1366260
14429,East 14th Street,94578,37.7103165,-122.1361921
1368,144th Avenue,94578,37.7102309,-122.1369726
1360,144th Avenue,94578,37.7101457,-122.1371536
1346,144th Avenue,94578,37.7100419,-122.1372865
1387;1389,145th Avenue,94578,37.7102254,-122.1364699
1375,145th Avenue,94578,37.7101083,-122.1366048
1367,145th Avenue,94578,37.7100122,-122.1367290
1398,145th Avenue,94578,37.7101078,-122.1359809
1392,145th Avenue,94578,37.7099805,-122.1360968
14501,East 14th Street,94578,37.7101581,-122.1359186
14505,East 14th Street,94578,37.7100086,-122.1358193
1750,Scenicview Court,94577,37.7249272,-122.1346453
1724,Scenicview Court,94577,37.7255452,-122.1346540
1712,Scenicview Court,94577,37.7257704,-122.1345865
1465,Scenicview Drive,94577,37.7256859,-122.1339107
1503,Scenicview Drive,94577,37.7257102,-122.1330785
1521,Scenicview Drive,94577,37.7256366,-122.1327414
1545,Scenicview Drive,94577,37.7255343,-122.1324480
1567,Scenicview Drive,94577,37.7254429,-122.1321953
1583,Scenicview Drive,94577,37.7253177,-122.1319377
1615,Scenicview Drive,94577,37.7251872,-122.1314098
1633,Scenicview Drive,94577,37.7250821,-122.1311218
1647,Scenicview Drive,94577,37.7250327,-122.1308272
1671,Scenicview Drive,94577,37.7250088,-122.1305353
1679,Scenicview Drive,94577,37.7249493,-122.1301702
1698,Scenicview Drive,94577,37.7250887,-122.1299600
1680,Scenicview Drive,94577,37.7253376,-122.1301052
1672,Scenicview Drive,94577,37.7253983,-122.1303896
1658,Scenicview Drive,94577,37.7254525,-122.1306496
1634,Scenicview Drive,94577,37.7255095,-122.1309888
1616,Scenicview Drive,94577,37.7255732,-122.1312087
1590,Scenicview Drive,94577,37.7256860,-122.1314611
1584,Scenicview Drive,94577,37.7258058,-122.1317078
1568,Scenicview Drive,94577,37.7258885,-122.1320041
1546,Scenicview Drive,94577,37.7260077,-122.1323011
1522,Scenicview Drive,94577,37.7261050,-122.1325552
1500,Scenicview Drive,94577,37.7261860,-122.1328422
1476,Scenicview Drive,94577,37.7261331,-122.1336039
1452,Scenicview Drive,94577,37.7261075,-122.1339746
1405,Regent Drive,94577,37.7262669,-122.1342691
1408,Regent Drive,94577,37.7264701,-122.1347124
1414,Regent Drive,94577,37.7267176,-122.1344417
1432,Regent Drive,94577,37.7267850,-122.1341475
1450,Regent Drive,94577,37.7267973,-122.1338069
1476,Regent Drive,94577,37.7268153,-122.1334725
1492,Regent Drive,94577,37.7268021,-122.1331414
1441,Regent Drive,94577,37.7263665,-122.1339680
1463,Regent Drive,94577,37.7263830,-122.1336587
1487,Regent Drive,94577,37.7264105,-122.1333206
1515,Regent Drive,94577,37.7263941,-122.1326403
1533,Regent Drive,94577,37.7263980,-122.1323287
1557,Regent Drive,94577,37.7263975,-122.1319932
1571,Regent Drive,94577,37.7264397,-122.1316480
1516,Regent Drive,94577,37.7268260,-122.1323971
1542,Regent Drive,94577,37.7268233,-122.1320599
1568,Regent Drive,94577,37.7268452,-122.1317533
1594,Regent Drive,94577,37.7268634,-122.1314665
1610,Regent Drive,94577,37.7268965,-122.1312056
1622,Regent Drive,94577,37.7269302,-122.1309353
1654,Regent Drive,94577,37.7269826,-122.1306780
1666,Regent Drive,94577,37.7270446,-122.1304148
1680,Regent Drive,94577,37.7270759,-122.1301403
1688,Regent Drive,94577,37.7270400,-122.1297543
1689,Regent Drive,94577,37.7267704,-122.1296904
1681,Regent Drive,94577,37.7266385,-122.1298905
1673,Regent Drive,94577,37.7266149,-122.1301919
1655,Regent Drive,94577,37.7265998,-122.1305624
2800,Benedict Drive,94577,37.7161450,-122.1306261
2724,Benedict Drive,94577,37.7177949,-122.1317960
1213,Sherry Court,94577,37.7179485,-122.1318761
1235,Sherry Court,94577,37.7179500,-122.1315252
1267,Sherry Court,94577,37.7179319,-122.1312948
1289,Sherry Court,94577,37.7180141,-122.1310037
1290,Sherry Court,94577,37.7182952,-122.1309740
1278,Sherry Court,94577,37.7183911,-122.1312242
1256,Sherry Court,94577,37.7184074,-122.1314868
1234,Sherry Court,94577,37.7183861,-122.1317706
1210,Sherry Court,94577,37.7182767,-122.1320309
2646,Benedict Drive,94577,37.7184242,-122.1321234
1205,Vistagrand Drive,94577,37.7186076,-122.1321998
1204,Vistagrand Drive,94577,37.7189451,-122.1323942
2544,Benedict Drive,94577,37.7190903,-122.1324788
2520,Benedict Drive,94577,37.7192409,-122.1325398
1215,Gabriel Court,94577,37.7193904,-122.1326492
1247,Gabriel Court,94577,37.7194572,-122.1323537
1269,Gabriel Court,94577,37.7195031,-122.1321435
1273,Gabriel Court,94577,37.7195503,-122.1318587
1298,Gabriel Court,94577,37.7198801,-122.1318143
1276,Gabriel Court,94577,37.7199997,-122.1321258
1262,Gabriel Court,94577,37.7199441,-122.1323752
1244,Gabriel Court,94577,37.7198808,-122.1325873
1200,Gabriel Court,94577,37.7197168,-122.1328361
2090,Benedict Drive,94577,37.7227316,-122.1348531
2098,Benedict Drive,94577,37.7225906,-122.1347416
2102,Benedict Drive,94577,37.7224809,-122.1346246
2116,Benedict Drive,94577,37.7223068,-122.1345102
2130,Benedict Drive,94577,37.7221675,-122.1344116
2148,Benedict Drive,94577,37.7220193,-122.1343016
2164,Benedict Drive,94577,37.7218858,-122.1342193
1222,Montrose Drive,94577,37.7217614,-122.1341183
2123,Benedict Drive,94577,37.7220058,-122.1348744
2135,Benedict Drive,94577,37.7218107,-122.1347178
2179,Benedict Drive,94577,37.7215748,-122.1345531
2205,Benedict Drive,94577,37.7213357,-122.1343883
1234,Montrose Drive,94577,37.7218587,-122.1338636
1276,Montrose Drive,94577,37.7219520,-122.1336893
1282,Montrose Drive,94577,37.7220020,-122.1334808
1330,Montrose Drive,94577,37.7220823,-122.1332892
1348,Montrose Drive,94577,37.7221908,-122.1331073
1386,Montrose Drive,94577,37.7222520,-122.1328881
1418,Montrose Drive,94577,37.7224126,-122.1324017
1436,Montrose Drive,94577,37.7224767,-122.1322246
1444,Montrose Drive,94577,37.7225993,-122.1319812
1472,Montrose Drive,94577,37.7226914,-122.1317354
1490,Montrose Drive,94577,37.7229374,-122.1315264
2189,Hillside Circle,94577,37.7225334,-122.1330196
2181,Hillside Circle,94577,37.7224967,-122.1332259
2177,Hillside Circle,94577,37.7224613,-122.1334286
2165,Hillside Circle,94577,37.7224268,-122.1336694
2153,Hillside Circle,94577,37.7224894,-122.1339185
2121,Hillside Circle,94577,37.7226821,-122.1340262
2109,Hillside Circle,94577,37.7228291,-122.1341302
2097,Hillside Circle,94577,37.7229796,-122.1342065
2182,Hillside Circle,94577,37.7228978,-122.1333664
2148,Hillside Circle,94577,37.7228709,-122.1335958
2102,Hillside Circle,94577,37.7230527,-122.1336793
2096,Hillside Circle,94577,37.7232099,-122.1337983
2084,Hillside Circle,94577,37.7233466,-122.1338700
2070,Hillside Circle,94577,37.7235088,-122.1339402
2075,Hillside Drive,94577,37.7235972,-122.1337443
2087,Hillside Drive,94577,37.7234289,-122.1335467
2099,Hillside Drive,94577,37.7232964,-122.1334005
2111,Hillside Drive,94577,37.7231985,-122.1332636
2123,Hillside Drive,94577,37.7230838,-122.1331173
2145,Hillside Drive,94577,37.7229272,-122.1330090
2188,Hillside Drive,94577,37.7226724,-122.1324986
2150,Hillside Drive,94577,37.7229097,-122.1324996
2112,Hillside Drive,94577,37.7234003,-122.1328052
2108,Hillside Drive,94577,37.7235204,-122.1329692
2090,Hillside Drive,94577,37.7236234,-122.1331151
2088,Hillside Drive,94577,37.7237369,-122.1332698
2086,Hillside Drive,94577,37.7238430,-122.1334344
2074,Hillside Drive,94577,37.7239540,-122.1335828
2068,Hillside Drive,94577,37.7240639,-122.1337379
2060,Hillside Drive,94577,37.7241734,-122.1339138
1491,Montrose Drive,94577,37.7224379,-122.1309844
1473,Montrose Drive,94577,37.7223640,-122.1313058
1459,Montrose Drive,94577,37.7222343,-122.1314901
1435,Montrose Drive,94577,37.7221886,-122.1317660
1381,Montrose Drive,94577,37.7218737,-122.1326418
1345,Montrose Drive,94577,37.7218048,-122.1328703
1327,Montrose Drive,94577,37.7217264,-122.1330682
1289,Montrose Drive,94577,37.7216437,-122.1332644
1275,Montrose Drive,94577,37.7215512,-122.1334323
1233,Montrose Drive,94577,37.7214783,-122.1336270
1221,Montrose Drive,94577,37.7213945,-122.1338955
2232,Hillside Drive,94577,37.7220443,-122.1319909
2231,Hillside Drive,94577,37.7219279,-122.1323837
2240,Benedict Drive,94577,37.7212620,-122.1338109
1218,Ardmore Drive,94577,37.7211139,-122.1337107
1234,Ardmore Drive,94577,37.7212540,-122.1334527
1260,Ardmore Drive,94577,37.7213026,-122.1332778
1284,Ardmore Drive,94577,37.7213831,-122.1330951
1326,Ardmore Drive,94577,37.7214588,-122.1328889
1362,Ardmore Drive,94577,37.7215252,-122.1327076
1380,Ardmore Drive,94577,37.7216175,-122.1325084
2259,Hillside Drive,94577,37.7216721,-122.1322669
2260,Hillside Drive,94577,37.7217270,-122.1318358
1434,Ardmore Drive,94577,37.7217206,-122.1315458
1458,Ardmore Drive,94577,37.7218082,-122.1313029
1476,Ardmore Drive,94577,37.7218266,-122.1310349
1492,Ardmore Drive,94577,37.7220270,-122.1307153
1494,Ardmore Drive,94577,37.7216912,-122.1302681
1493,Ardmore Drive,94577,37.7214138,-122.1306424
1475,Ardmore Drive,94577,37.7213712,-122.1309137
1459,Ardmore Drive,94577,37.7213597,-122.1312060
1437,Ardmore Drive,94577,37.7213227,-122.1314583
2314,Hillside Drive,94577,37.7212636,-122.1317130
2315,Hillside Drive,94577,37.7212092,-122.1321132
1377,Ardmore Drive,94577,37.7211930,-122.1324118
1343,Ardmore Drive,94577,37.7211296,-122.1326401
1289,Ardmore Drive,94577,37.7210232,-122.1328144
1261,Ardmore Drive,94577,37.7209460,-122.1330349
1235,Ardmore Drive,94577,37.7208608,-122.1331973
1219,Ardmore Drive,94577,37.7207837,-122.1334868
2334,Benedict Drive,94577,37.7206264,-122.1333798
1220,Daily Drive,94577,37.7204866,-122.1333152
1254,Daily Drive,94577,37.7206355,-122.1330646
1276,Daily Drive,94577,37.7207155,-122.1328903
1308,Daily Drive,94577,37.7207716,-122.1326880
1330,Daily Drive,94577,37.7208171,-122.1324611
1356,Daily Drive,94577,37.7208779,-122.1322432
2377,Hillside Drive,94577,37.7209016,-122.1320518
2376,Hillside Drive,94577,37.7209898,-122.1316346
2466,Benedict Drive,94577,37.7198664,-122.1329053
2436,Benedict Drive,94577,37.7200273,-122.1330134
1217,Daily Drive,94577,37.7201718,-122.1331096
1253,Daily Drive,94577,37.7202485,-122.1328085
1279,Daily Drive,94577,37.7203242,-122.1326461
1315,Daily Drive,94577,37.7203817,-122.1324211
1333,Daily Drive,94577,37.7203876,-122.1322116
1371,Daily Drive,94577,37.7204567,-122.1319896
1395,Daily Drive,94577,37.7204828,-122.1317760
1407,Daily Drive,94577,37.7205527,-122.1315727
1421,Daily Drive,94577,37.7205758,-122.1312937
1445,Daily Drive,94577,37.7205408,-122.1310180
1473,Daily Drive,94577,37.7204990,-122.1307430
2501,Humboldt Drive,94577,37.7203394,-122.1304592
1424,Daily Drive,94577,37.7209913,-122.1313629
1446,Daily Drive,94577,37.7210031,-122.1311171
1468,Daily Drive,94577,37.7209620,-122.1308189
1482,Daily Drive,94577,37.7208571,-122.1304959
1500,Daily Drive,94577,37.7207965,-122.1301517
1522,Daily Drive,94577,37.7206977,-122.1297747
1534,Daily Drive,94577,37.7206326,-122.1293684
1548,Daily Drive,94577,37.7205266,-122.1291070
1560,Daily Court,94577,37.7214620,-122.1290909
1574,Daily Court,94577,37.7212296,-122.1287660
1582,Daily Court,94577,37.7206097,-122.1279387
1596,Daily Court,94577,37.7201380,-122.1281619
1610,Daily Court,94577,37.7202074,-122.1289369
1624,Daily Court,94577,37.7200314,-122.1288818
1636,Daily Court,94577,37.7198449,-122.1288044
1652,Daily Court,94577,37.7196527,-122.1286741
1680,Daily Court,94577,37.7190025,-122.1282464
1677,Daily Court,94577,37.7191237,-122.1286248
1669,Daily Court,94577,37.7192756,-122.1289290
1653,Daily Court,94577,37.7194548,-122.1291196
1645,Daily Court,94577,37.7196263,-122.1292365
1631,Daily Court,94577,37.7198093,-122.1293810
1619,Daily Court,94577,37.7199981,-122.1294604
1607,Daily Court,94577,37.7201690,-122.1295095
1515,Daily Drive,94577,37.7201999,-122.1298694
2523,Humboldt Drive,94577,37.7201288,-122.1305943
2545,Humboldt Drive,94577,37.7198851,-122.1305937
2567,Humboldt Drive,94577,37.7196816,-122.1304463
2579,Humboldt Drive,94577,37.7194775,-122.1304295
2585,Humboldt Drive,94577,37.7192793,-122.1302399
2542,Humboldt Drive,94577,37.7199703,-122.1299385
2570,Humboldt Drive,94577,37.7197139,-122.1299347
2586,Humboldt Drive,94577,37.7195046,-122.1298292
2590,Humboldt Drive,94577,37.7193254,-122.1297269
1504,Vistagrand Drive,94577,37.7191445,-122.1296326
1262,Vistagrand Drive,94577,37.7190672,-122.1321314
1280,Vistagrand Drive,94577,37.7191293,-122.1319536
1326,Vistagrand Drive,94577,37.7191344,-122.1316953
1358,Vistagrand Drive,94577,37.7191609,-122.1314703
1382,Vistagrand Drive,94577,37.7191717,-122.1312250
1420,Vistagrand Drive,94577,37.7192138,-122.1309476
1530,Vistagrand Drive,94577,37.7189732,-122.1292002
1552,Vistagrand Drive,94577,37.7187997,-122.1288914
1584,Vistagrand Drive,94577,37.7186642,-122.1285749
1616,Vistagrand Drive,94577,37.7185682,-122.1282808
1632,Vistagrand Drive,94577,37.7185507,-122.1279875
1638,Vistagrand Drive,94577,37.7185284,-122.1276961
1644,Vistagrand Drive,94577,37.7183909,-122.1273840
1650,Vistagrand Drive,94577,37.7182732,-122.1271633
1750,Vistagrand Drive,94577,37.7171556,-122.1263027
1271,Vistagrand Drive,94577,37.7186888,-122.1319121
1293,Vistagrand Drive,94577,37.7186963,-122.1316724
1337,Vistagrand Drive,94577,37.7187254,-122.1314677
1369,Vistagrand Drive,94577,37.7187229,-122.1312501
1395,Vistagrand Drive,94577,37.7187526,-122.1310510
1421,Vistagrand Drive,94577,37.7187674,-122.1308298
1449,Vistagrand Drive,94577,37.7187822,-122.1305760
1473,Vistagrand Drive,94577,37.7188082,-122.1303152
1485,Vistagrand Drive,94577,37.7188099,-122.1299877
1513,Vistagrand Drive,94577,37.7187043,-122.1297256
2601,Vistagrand Court,94577,37.7185698,-122.1294507
2635,Vistagrand Court,94577,37.7184142,-122.1295765
2657,Vistagrand Court,94577,37.7182457,-122.1297967
2673,Vistagrand Court,94577,37.7179766,-122.1297742
2676,Vistagrand Court,94577,37.7178444,-122.1294770
2654,Vistagrand Court,94577,37.7179746,-122.1291930
2630,Vistagrand Court,94577,37.7181651,-122.1290926
2602,Vistagrand Court,94577,37.7183443,-122.1289905
2611,Darius Way,94577,37.7181585,-122.1286504
2633,Darius Way,94577,37.7178764,-122.1287056
2657,Darius Way,94577,37.7176868,-122.1286441
2689,Darius Way,94577,37.7175025,-122.1285189
2715,Darius Way,94577,37.7173018,-122.1284500
2749,Darius Way,94577,37.7171237,-122.1284505
2771,Darius Way,94577,37.7169158,-122.1281585
1564,Darius Court,94577,37.7168183,-122.1284181
1532,Darius Court,94577,37.7168400,-122.1286730
1500,Darius Court,94577,37.7166389,-122.1288765
1501,Darius Court,94577,37.7162838,-122.1287188
1533,Darius Court,94577,37.7163498,-122.1284338
1565,Darius Court,94577,37.7164164,-122.1281965
1587,Darius Court,94577,37.7165011,-122.1279581
2815,Darius Way,94577,37.7162620,-122.1279047
2827,Darius Way,94577,37.7160858,-122.1278636
2839,Darius Way,94577,37.7159058,-122.1277939
2845,Darius Way,94577,37.7158113,-122.1275461
2857,Darius Way,94577,37.7158694,-122.1272560
2869,Darius Way,94577,37.7159070,-122.1269860
2889,Darius Way,94577,37.7159818,-122.1266311
2888,Darius Way,94577,37.7162780,-122.1257391
2862,Darius Way,94577,37.7162630,-122.1273233
2828,Darius Way,94577,37.7164358,-122.1273667
2820,Darius Way,94577,37.7166307,-122.1274267
2816,Darius Way,94577,37.7168051,-122.1275561
2800,Darius Way,94577,37.7169729,-122.1276683
2780,Darius Way,94577,37.7171475,-122.1277621
2768,Darius Way,94577,37.7173242,-122.1278725
2726,Darius Way,94577,37.7175254,-122.1279828
2674,Darius Way,94577,37.7176910,-122.1280483
2642,Darius Way,94577,37.7178874,-122.1281257
2610,Darius Way,94577,37.7180858,-122.1281835
1645,Vistagrand Drive,94577,37.7180178,-122.1275830
1657,Vistagrand Drive,94577,37.7178705,-122.1273776
1673,Vistagrand Drive,94577,37.7176739,-122.1272062
1689,Vistagrand Drive,94577,37.7174779,-122.1271404
1705,Vistagrand Drive,94577,37.7173143,-122.1270397
1711,Vistagrand Drive,94577,37.7171369,-122.1269189
1723,Vistagrand Drive,94577,37.7169617,-122.1268051
1737,Vistagrand Drive,94577,37.7168147,-122.1266939
1749,Vistagrand Drive,94577,37.7167208,-122.1264316
1755,Vistagrand Drive,94577,37.7166683,-122.1262044
1761,Vistagrand Drive,94577,37.7166921,-122.1259768
1777,Vistagrand Drive,94577,37.7167601,-122.1256996
1785,Vistagrand Drive,94577,37.7168979,-122.1255128
1617,Regent Drive,94577,37.7264799,-122.1310912
1662,Clearview Drive,94577,37.7263407,-122.1307760
1684,Clearview Drive,94577,37.7262568,-122.1304837
1746,Clearview Drive,94577,37.7261658,-122.1301605
1758,Clearview Drive,94577,37.7261035,-122.1298854
1772,Clearview Drive,94577,37.7260327,-122.1295652
1790,Clearview Drive,94577,37.7259843,-122.1292357
1635,Clearview Drive,94577,37.7261638,-122.1314965
1657,Clearview Drive,94577,37.7260151,-122.1311893
1673,Clearview Drive,94577,37.7258941,-122.1308815
1689,Clearview Drive,94577,37.7258408,-122.1305881
1743,Clearview Drive,94577,37.7257436,-122.1302758
1751,Clearview Drive,94577,37.7256778,-122.1299834
1777,Clearview Drive,94577,37.7256017,-122.1296439
1795,Clearview Drive,94577,37.7255466,-122.1292549
1729,Edgehill Road,94577,37.7249851,-122.1321079
1876,Marineview Drive,94577,37.7250791,-122.1323705
1852,Marineview Drive,94577,37.7252070,-122.1326831
1814,Marineview Drive,94577,37.7252715,-122.1328985
1800,Marineview Drive,94577,37.7253303,-122.1332359
1801,Marineview Drive,94577,37.7250697,-122.1334154
1815,Marineview Drive,94577,37.7248494,-122.1331958
1857,Marineview Drive,94577,37.7247789,-122.1328947
1879,Marineview Drive,94577,37.7246553,-122.1326337
1893,Marineview Drive,94577,37.7245575,-122.1323555
1615,Edgehill Court,94577,37.7239978,-122.1320463
1623,Edgehill Court,94577,37.7238738,-122.1317236
1637,Edgehill Court,94577,37.7238057,-122.1314527
1659,Edgehill Court,94577,37.7237030,-122.1311740
1671,Edgehill Court,94577,37.7236733,-122.1308571
1745,Edgehill Court,94577,37.7235499,-122.1306345
1863,Edgehill Court,94577,37.7234274,-122.1304338
1999,Edgehill Court,94577,37.7233241,-122.1302386
2027,Edgehill Court,94577,37.7232098,-122.1300284
2155,Edgehill Court,94577,37.7230059,-122.1299480
2201,Edgehill Court,94577,37.7228094,-122.1299403
2333,Edgehill Court,94577,37.7226228,-122.1298831
2375,Edgehill Court,94577,37.7223816,-122.1299351
2419,Edgehill Court,94577,37.7222912,-122.1296009
2026,Edgehill Court,94577,37.7234157,-122.1296128
1998,Edgehill Court,94577,37.7236164,-122.1299034
1862,Edgehill Court,94577,37.7237585,-122.1301805
1937,View Drive,94577,37.7262120,-122.1292161
1811,View Drive,94577,37.7264232,-122.1291082
1805,View Drive,94577,37.7266520,-122.1290893
1789,View Drive,94577,37.7268708,-122.1290446
1777,View Drive,94577,37.7271021,-122.1291672
2035,Longview Drive,94577,37.7252958,-122.1291018
2071,Longview Drive,94577,37.7251352,-122.1289346
1780,Skyview Drive,94577,37.7250391,-122.1286903
1744,Skyview Drive,94577,37.7248228,-122.1289289
1738,Skyview Drive,94577,37.7245904,-122.1290606
1726,Skyview Drive,94577,37.7243218,-122.1291844
2076,Marineview Drive,94577,37.7244032,-122.1295517
2062,Marineview Drive,94577,37.7244932,-122.1298748
2044,Marineview Drive,94577,37.7245338,-122.1301766
2018,Marineview Drive,94577,37.7245546,-122.1304732
1970,Marineview Drive,94577,37.7246143,-122.1307523
1956,Marineview Drive,94577,37.7246634,-122.1310426
1924,Marineview Drive,94577,37.7246961,-122.1313541
1912,Marineview Drive,94577,37.7248034,-122.1315890
1723,Skyview Drive,94577,37.7240380,-122.1287372
2148,Marineview Drive,94577,37.7238428,-122.1284558
2260,Marineview Drive,94577,37.7236501,-122.1283165
2356,Marineview Drive,94577,37.7234335,-122.1281365
2372,Marineview Drive,94577,37.7232021,-122.1280770
2416,Marineview Drive,94577,37.7229551,-122.1280140
2420,Marineview Drive,94577,37.7227296,-122.1280069
2434,Marineview Drive,94577,37.7225052,-122.1279822
2466,Marineview Drive,94577,37.7223015,-122.1278601
2489,Harborview Drive,94577,37.7221639,-122.1277017
2475,Harborview Drive,94577,37.7224455,-122.1275980
2453,Harborview Drive,94577,37.7226465,-122.1275671
2427,Harborview Drive,94577,37.7228601,-122.1275836
2411,Harborview Drive,94577,37.7230759,-122.1275774
2379,Harborview Drive,94577,37.7233110,-122.1276778
2355,Harborview Drive,94577,37.7235205,-122.1277597
2283,Harborview Drive,94577,37.7237182,-122.1278796
2257,Harborview Drive,94577,37.7238944,-122.1280647
2169,Harborview Drive,94577,37.7240426,-122.1282634
1735,Skyview Drive,94577,37.7242402,-122.1286272
2122,Harborview Drive,94577,37.7246174,-122.1283616
2146,Harborview Drive,94577,37.7244999,-122.1281189
2172,Harborview Drive,94577,37.7243639,-122.1278684
2250,Harborview Drive,94577,37.7242095,-122.1276479
2266,Harborview Drive,94577,37.7240063,-122.1275103
2330,Harborview Drive,94577,37.7238262,-122.1273409
1750,Hillview Drive,94577,37.7236149,-122.1272088
1776,Hillview Drive,94577,37.7237008,-122.1268668
2351,Longview Drive,94577,37.7239156,-122.1269949
2333,Longview Drive,94577,37.7241268,-122.1271079
2297,Longview Drive,94577,37.7243029,-122.1272980
2261,Longview Drive,94577,37.7244886,-122.1274637
2175,Longview Drive,94577,37.7246180,-122.1277117
2137,Longview Drive,94577,37.7247414,-122.1279401
1789,Skyview Drive,94577,37.7248670,-122.1282105
2532,Harborview Drive,94577,37.7217625,-122.1273355
2514,Harborview Drive,94577,37.7219827,-122.1271980
2488,Harborview Drive,94577,37.7221962,-122.1271021
2472,Harborview Drive,94577,37.7224066,-122.1270669
2450,Harborview Drive,94577,37.7226123,-122.1270303
2436,Harborview Drive,94577,37.7228362,-122.1270100
2424,Harborview Drive,94577,37.7230302,-122.1270168
1751,Hillview Drive,94577,37.7232397,-122.1270838
1775,Hillview Drive,94577,37.7233315,-122.1267433
2429,Longview Drive,94577,37.7231215,-122.1266645
2435,Longview Drive,94577,37.7229381,-122.1266620
2447,Longview Drive,94577,37.7227572,-122.1266264
2461,Longview Drive,94577,37.7225643,-122.1266510
2479,Longview Drive,94577,37.7223695,-122.1266460
2483,Longview Drive,94577,37.7221822,-122.1267051
2537,Longview Drive,94577,37.7219933,-122.1267746
2555,Longview Drive,94577,37.7218059,-122.1269000
2546,Marineview Drive,94577,37.7216063,-122.1270619
1724,Starview Drive,94577,37.7199488,-122.1260231
1768,Starview Drive,94577,37.7198337,-122.1258253
1782,Starview Drive,94577,37.7196566,-122.1255570
1715,Starview Drive,94577,37.7196777,-122.1264463
1739,Starview Drive,94577,37.7194969,-122.1262447
1753,Starview Drive,94577,37.7193770,-122.1259872
1777,Starview Drive,94577,37.7192905,-122.1256724
2677,Marineview Drive,94577,37.7198709,-122.1254833
2665,Marineview Drive,94577,37.7200784,-122.1255689
2633,Marineview Drive,94577,37.7202642,-122.1257047
2621,Marineview Drive,94577,37.7204365,-122.1258297
2602,Lakeview Drive,94577,37.7206478,-122.1260523
2610,Lakeview Drive,94577,37.7204495,-122.1262292
2624,Lakeview Drive,94577,37.7202980,-122.1263984
2636,Lakeview Drive,94577,37.7201457,-122.1266128
2658,Lakeview Drive,94577,37.7199377,-122.1267835
2692,Lakeview Drive,94577,37.7197076,-122.1268623
2720,Lakeview Drive,94577,37.7195113,-122.1268188
2744,Lakeview Drive,94577,37.7193872,-122.1266109
2762,Lakeview Drive,94577,37.7192419,-122.1264379
2774,Lakeview Drive,94577,37.7191000,-122.1262125
2798,Lakeview Drive,94577,37.7189179,-122.1259704
2743,Marineview Drive,94577,37.7190788,-122.1257743
2592,Marineview Drive,94577,37.7212311,-122.1262681
2573,Lakeview Drive,94577,37.7214287,-122.1260439
2559,Lakeview Drive,94577,37.7216135,-122.1259872
2541,Lakeview Drive,94577,37.7218244,-122.1258621
2525,Lakeview Drive,94577,37.7220075,-122.1258165
2503,Lakeview Drive,94577,37.7222308,-122.1257255
2499,Lakeview Drive,94577,37.7224404,-122.1256798
2477,Lakeview Drive,94577,37.7226506,-122.1256460
2465,Lakeview Drive,94577,37.7228637,-122.1256674
2443,Lakeview Drive,94577,37.7230830,-122.1256882
2421,Lakeview Drive,94577,37.7232938,-122.1257098
1833,Hillview Drive,94577,37.7235347,-122.1258409
2412,Longview Drive,94577,37.7234193,-122.1262208
2426,Longview Drive,94577,37.7232306,-122.1261593
2432,Longview Drive,94577,37.7230292,-122.1261249
2444,Longview Drive,94577,37.7228236,-122.1261060
2460,Longview Drive,94577,37.7226189,-122.1261080
2478,Longview Drive,94577,37.7224200,-122.1261356
2480,Longview Drive,94577,37.7222192,-122.1261656
2524,Longview Drive,94577,37.7220057,-122.1262581
2546,Longview Drive,94577,37.7217975,-122.1263113
2568,Longview Drive,94577,37.7216010,-122.1264484
2574,Marineview Drive,94577,37.7213878,-122.1265701
2128,Longview Drive,94577,37.7252677,-122.1279781
2132,Longview Drive,94577,37.7251377,-122.1276948
2168,Longview Drive,94577,37.7250243,-122.1274628
2240,Longview Drive,94577,37.7248979,-122.1272316
2274,Longview Drive,94577,37.7247438,-122.1270373
2296,Longview Drive,94577,37.7245775,-122.1268663
2330,Longview Drive,94577,37.7244021,-122.1266637
2342,Longview Drive,94577,37.7242169,-122.1265621
2358,Longview Drive,94577,37.7240032,-122.1264302
2372,Longview Drive,94577,37.7238210,-122.1263499
1832,Hillview Drive,94577,37.7238821,-122.1259719
2355,Lakeview Drive,94577,37.7241320,-122.1260416
2331,Lakeview Drive,94577,37.7243296,-122.1261526
2319,Lakeview Drive,94577,37.7245245,-122.1263212
2297,Lakeview Drive,94577,37.7246956,-122.1264258
2273,Lakeview Drive,94577,37.7248623,-122.1266070
2241,Lakeview Drive,94577,37.7250203,-122.1267918
2225,Lakeview Drive,94577,37.7251825,-122.1270076
2177,Lakeview Drive,94577,37.7253185,-122.1272278
2153,Lakeview Drive,94577,37.7254266,-122.1274594
2111,Lakeview Drive,94577,37.7255180,-122.1277546
1849,Astor Drive,94577,37.7267072,-122.1276558
1837,Astor Drive,94577,37.7266447,-122.1279109
1825,Astor Drive,94577,37.7265572,-122.1281490
1801,Astor Drive,94577,37.7265752,-122.1285208
1812,View Drive,94577,37.7263650,-122.1286298
1936,View Drive,94577,37.7261428,-122.1286360
1958,Longview Drive,94577,37.7259271,-122.1286707
2030,Longview Drive,94577,37.7256407,-122.1287045
1800,Skyview Drive,94577,37.7254884,-122.1283973
1822,Skyview Drive,94577,37.7257068,-122.1282872
1834,Skyview Drive,94577,37.7258708,-122.1280461
2112,Lakeview Drive,94577,37.7259410,-122.1277468
2130,Lakeview Drive,94577,37.7259189,-122.1274541
2164,Lakeview Drive,94577,37.7257628,-122.1271844
2188,Lakeview Drive,94577,37.7256352,-122.1269539
2226,Lakeview Drive,94577,37.7254877,-122.1267267
2244,Lakeview Drive,94577,37.7253360,-122.1265090
2272,Lakeview Drive,94577,37.7251681,-122.1263024
2290,Lakeview Drive,94577,37.7249915,-122.1261415
2314,Lakeview Drive,94577,37.7248126,-122.1259536
2328,Lakeview Drive,94577,37.7246129,-122.1258150
2342,Lakeview Drive,94577,37.7243998,-122.1256787
2356,Lakeview Drive,94577,37.7242006,-122.1255765
2370,Lakeview Drive,94577,37.7239850,-122.1254921
2384,Lakeview Drive,94577,37.7237726,-122.1254064
2410,Lakeview Drive,94577,37.7235524,-122.1253310
2422,Lakeview Drive,94577,37.7233310,-122.1252602
2446,Lakeview Drive,94577,37.7231077,-122.1252458
2468,Lakeview Drive,94577,37.7228803,-122.1252086
2474,Lakeview Drive,94577,37.7226599,-122.1252207
2492,Lakeview Drive,94577,37.7224401,-122.1252013
2500,Lakeview Drive,94577,37.7222314,-122.1252073
2518,Lakeview Drive,94577,37.7220174,-122.1252687
1852,Lakeview Court,94577,37.7218043,-122.1253334
1864,Lakeview Court,94577,37.7217698,-122.1250323
1870,Lakeview Court,94577,37.7215903,-122.1248364
1875,Lakeview Court,94577,37.7213014,-122.1248977
1863,Lakeview Court,94577,37.7212753,-122.1252165
2568,Lakeview Drive,94577,37.7214163,-122.1255283
2576,Lakeview Drive,94577,37.7212301,-122.1256085
2598,Lakeview Drive,94577,37.7210201,-122.1257368
2614,Marineview Drive,94577,37.7208433,-122.1254344
2622,Marineview Drive,94577,37.7206780,-122.1253159
2636,Marineview Drive,94577,37.7204772,-122.1251370
2660,Marineview Drive,94577,37.7202667,-122.1250237
2668,Marineview Drive,94577,37.7200275,-122.1249342
2684,Marineview Drive,94577,37.7198139,-122.1249175
2696,Marineview Drive,94577,37.7195955,-122.1249279
1844,Starview Drive,94577,37.7196774,-122.1245699
1850,Starview Drive,94577,37.7197458,-122.1242365
1859,Starview Drive,94577,37.7193561,-122.1239155
1845,Starview Drive,94577,37.7193312,-122.1242348
1837,Starview Drive,94577,37.7192552,-122.1244808
1823,Starview Drive,94577,37.7192014,-122.1247348
2712,Marineview Drive,94577,37.7191501,-122.1250580
2724,Marineview Drive,94577,37.7189580,-122.1252067
2746,Marineview Drive,94577,37.7188042,-122.1253290
2778,Marineview Drive,94577,37.7186607,-122.1254683
2790,Marineview Drive,94577,37.7185054,-122.1255989
2808,Marineview Drive,94577,37.7183177,-122.1256962
2844,Marineview Drive,94577,37.7180698,-122.1257190
2876,Marineview Drive,94577,37.7178360,-122.1256288
2882,Marineview Drive,94577,37.7176414,-122.1255000
2894,Marineview Drive,94577,37.7174378,-122.1253935
2898,Marineview Drive,94577,37.7172188,-122.1253603
1909,Marineview Drive,94577,37.7244059,-122.1318593
1917,Marineview Drive,94577,37.7243179,-122.1316256
1945,Marineview Drive,94577,37.7242313,-122.1313367
1961,Marineview Drive,94577,37.7241671,-122.1310325
1983,Marineview Drive,94577,37.7241380,-122.1307503
2037,Marineview Drive,94577,37.7241087,-122.1304607
2059,Marineview Drive,94577,37.7240697,-122.1301764
2075,Marineview Drive,94577,37.7239955,-122.1298379
2081,Marineview Drive,94577,37.7239182,-122.1295413
2119,Marineview Drive,94577,37.7238243,-122.1292967
2123,Marineview Drive,94577,37.7236474,-122.1290834
2255,Marineview Drive,94577,37.7235374,-122.1288414
2361,Marineview Drive,94577,37.7232741,-122.1286997
2377,Marineview Drive,94577,37.7230247,-122.1286165
2401,Marineview Drive,94577,37.7228078,-122.1285896
2423,Marineview Drive,94577,37.7225841,-122.1285672
2435,Marineview Drive,94577,37.7223551,-122.1285050
2457,Marineview Drive,94577,37.7221488,-122.1284016
2479,Marineview Drive,94577,37.7219209,-122.1282846
2485,Marineview Drive,94577,37.7217953,-122.1280567
2515,Marineview Drive,94577,37.7216180,-122.1278476
2527,Marineview Drive,94577,37.7214386,-122.1276520
2539,Marineview Drive,94577,37.7212910,-122.1274155
2551,Marineview Drive,94577,37.7211813,-122.1271812
2573,Marineview Drive,94577,37.7210410,-122.1269477
2585,Marineview Drive,94577,37.7209338,-122.1267160
2591,Marineview Drive,94577,37.7208210,-122.1264926
2615,Lakeview Drive,94577,37.7206266,-122.1267869
2627,Lakeview Drive,94577,37.7204837,-122.1269630
2639,Lakeview Drive,94577,37.7203596,-122.1271703
2661,Lakeview Drive,94577,37.7201443,-122.1273398
2673,Lakeview Drive,94577,37.7199113,-122.1274089
2695,Lakeview Drive,94577,37.7196822,-122.1274671
2717,Lakeview Drive,94577,37.7194701,-122.1274775
2729,Lakeview Drive,94577,37.7193236,-122.1272666
2741,Lakeview Drive,94577,37.7191195,-122.1270771
2753,Lakeview Drive,94577,37.7189786,-122.1268869
2765,Lakeview Drive,94577,37.7188736,-122.1267150
2789,Lakeview Drive,94577,37.7187213,-122.1265014
2797,Lakeview Drive,94577,37.7186310,-122.1262149
2819,Marineview Drive,94577,37.7183647,-122.1263169
2837,Marineview Drive,94577,37.7181260,-122.1263541
2859,Marineview Drive,94577,37.7178684,-122.1262979
2873,Marineview Drive,94577,37.7176819,-122.1261566
2881,Marineview Drive,94577,37.7174833,-122.1260141
2895,Marineview Drive,94577,37.7172535,-122.1259294
1041,Adason Drive,94578,37.7012285,-122.1324863
1055,Adason Drive,94578,37.7011266,-122.1323200
1067,Adason Drive,94578,37.7010493,-122.1321647
1073,Adason Drive,94578,37.7010060,-122.1319254
1079,Adason Drive,94578,37.7010139,-122.1317241
1081,Adason Drive,94578,37.7009854,-122.1315696
1095,Adason Drive,94578,37.7010101,-122.1313819
1109,Adason Drive,94578,37.7010120,-122.1311713
1125,Adason Drive,94578,37.7010099,-122.1309835
1137,Adason Drive,94578,37.7009833,-122.1308315
1147,Adason Drive,94578,37.7009681,-122.1306258
1151,Adason Drive,94578,37.7010062,-122.1304559
15109,Hesperian Boulevard,94578,37.7009996,-122.1302628
453,Ruth Court,94578,37.7007681,-122.1317536
450;452,Ruth Court,94578,37.7006390,-122.1316874
456;458,Ruth Court,94578,37.7004875,-122.1315251
462;464,Ruth Court,94578,37.7003608,-122.1313313
463;465,Ruth Court,94578,37.7007794,-122.1311159
473;475,Ruth Court,94578,37.7006318,-122.1310440
468,Ruth Court,94578,37.7002346,-122.1311290
474;476,Ruth Court,94578,37.7001947,-122.1309299
15177,Hesperian Boulevard,94578,37.6997051,-122.1303692
15200,Hesperian Boulevard,94578,37.6986406,-122.1296658
505,Olive Court,94578,37.6983485,-122.1294116
509,Olive Court,94578,37.6983291,-122.1292368
513,Olive Court,94578,37.6982161,-122.1290701
512,Olive Court,94578,37.6980150,-122.1290744
508,Olive Court,94578,37.6978928,-122.1292332
504,Olive Court,94578,37.6978797,-122.1294320
15250,Hesperian Boulevard,94578,37.6975792,-122.1296353
15252;15254;15256;15258,Hesperian Boulevard,94578,37.6967971,-122.1296392
15260;15264;15268;15272,Hesperian Boulevard,94578,37.6964151,-122.1296346
15359,Dermody Avenue,94580,37.6949876,-122.1293906
15312,Hesperian Boulevard,94578,37.6958480,-122.1296229
15340;15342,Hesperian Boulevard,94578,37.6955427,-122.1296225
15360;15362,Hesperian Boulevard,94578,37.6952278,-122.1296252
15382;15384;15386,Hesperian Boulevard,94578,37.6948191,-122.1296331
15392;15394;15396;15398,Hesperian Boulevard,94578,37.6944073,-122.1296265
15400;15402,Hesperian Boulevard,94578,37.6938031,-122.1296256
15404;15406,Hesperian Boulevard,94578,37.6935081,-122.1296244
15408;15410,Hesperian Boulevard,94578,37.6932125,-122.1296233
15412,Hesperian Boulevard,94578,37.6927578,-122.1296428
5100,Springlake Drive,94578,37.6926463,-122.1314893
15287;15289;15291;15297;15299;15301,Hesperian Boulevard,94578,37.6936841,-122.1304327
15285,Hesperian Boulevard,94578,37.6943222,-122.1308281
15267,Hesperian Boulevard,94578,37.6950183,-122.1304746
15261,Hesperian Boulevard,94578,37.6963954,-122.1303925
15257,Hesperian Boulevard,94578,37.6967082,-122.1303061
15255,Hesperian Boulevard,94578,37.6970968,-122.1302805
15253,Hesperian Boulevard,94578,37.6974386,-122.1305261
15251,Hesperian Boulevard,94578,37.6979245,-122.1303625
15225,Hesperian Boulevard,94578,37.6988463,-122.1304128
15215,Hesperian Boulevard,94578,37.6990200,-122.1303735
15320,Central Avenue,94578,37.6959408,-122.1321751
15316,Central Avenue,94578,37.6960706,-122.1322774
15310;15312,Central Avenue,94578,37.6962092,-122.1324360
15308,Central Avenue,94578,37.6962830,-122.1325395
15302;15304,Central Avenue,94578,37.6964178,-122.1326921
15296;15298,Central Avenue,94578,37.6964940,-122.1327625
15290;15292,Central Avenue,94578,37.6966321,-122.1329626
412;416,Thornally Drive,94578,37.6968144,-122.1331330
420;424,Thornally Drive,94578,37.6968383,-122.1328886
430;434,Thornally Drive,94578,37.6968412,-122.1326113
15253;15255,Corbett Court,94578,37.6968749,-122.1323756
15257;15259,Corbett Court,94578,37.6967343,-122.1324219
15261;15263,Corbett Court,94578,37.6965149,-122.1323548
15267;15269,Corbett Court,94578,37.6964600,-122.1321845
15262;15264,Corbett Court,94578,37.6965512,-122.1319404
15258;15260,Corbett Court,94578,37.6967250,-122.1318951
452;456,Thornally Drive,94578,37.6969271,-122.1319713
460;465,Thornally Drive,94578,37.6969174,-122.1318224
468;470,Thornally Drive,94578,37.6969385,-122.1315964
472;476,Thornally Drive,94578,37.6969812,-122.1314137
480;484,Thornally Drive,94578,37.6970072,-122.1311468
15267;15271,Upton Avenue,94578,37.6967782,-122.1312846
15275,Upton Avenue,94578,37.6966467,-122.1314383
15277,Upton Avenue,94578,37.6965139,-122.1315943
15281;15283,Upton Avenue,94578,37.6964353,-122.1316567
15285;15287,Upton Avenue,94578,37.6962963,-122.1318038
15289,Upton Avenue,94578,37.6962317,-122.1318878
15293,Upton Avenue,94578,37.6960833,-122.1320399
15272,Central Avenue,94578,37.6971410,-122.1335452
409;411,Thornally Drive,94578,37.6971539,-122.1333200
413;415,Thornally Drive,94578,37.6971536,-122.1332029
419;421,Thornally Drive,94578,37.6971767,-122.1329775
425;427,Thornally Drive,94578,37.6971984,-122.1328609
431;433,Thornally Drive,94578,37.6972203,-122.1326348
437;439,Thornally Drive,94578,37.6972197,-122.1325162
443;445,Thornally Drive,94578,37.6972425,-122.1322901
449;451,Thornally Drive,94578,37.6972651,-122.1321750
455;457,Thornally Drive,94578,37.6972870,-122.1319489
461;463,Thornally Drive,94578,37.6972870,-122.1318306
467;469,Thornally Drive,94578,37.6973093,-122.1316039
473;475,Thornally Drive,94578,37.6973312,-122.1314890
479;481,Thornally Drive,94578,37.6973526,-122.1312619
15247;15249,Upton Avenue,94578,37.6973583,-122.1311254
411,Central Court,94578,37.6975037,-122.1337665
431,Central Court,94578,37.6975019,-122.1329883
435,Central Court,94578,37.6975019,-122.1328334
439,Central Court,94578,37.6975026,-122.1326765
443,Central Court,94578,37.6975128,-122.1325087
447,Central Court,94578,37.6975128,-122.1323291
451;455,Central Court,94578,37.6975324,-122.1320362
15262,Central Avenue,94578,37.6974754,-122.1339450
15258,Central Avenue,94578,37.6974858,-122.1341025
15254,Central Avenue,94578,37.6975003,-122.1342824
15250,Central Avenue,94578,37.6975190,-122.1344595
452,Violet Street,94578,37.6977572,-122.1346745
454,Violet Street,94578,37.6977383,-122.1344378
456,Violet Street,94578,37.6977229,-122.1342220
458,Violet Street,94578,37.6977054,-122.1340279
472,Violet Street,94578,37.6977489,-122.1326647
474,Violet Street,94578,37.6977226,-122.1324565
476,Violet Street,94578,37.6977311,-122.1322597
478,Violet Street,94578,37.6977475,-122.1320715
480,Violet Street,94578,37.6977335,-122.1318982
482,Violet Street,94578,37.6976935,-122.1317024
484,Violet Street,94578,37.6977500,-122.1315076
486,Violet Street,94578,37.6977210,-122.1313202
15241,Upton Avenue,94578,37.6977239,-122.1311033
15308;15310,Upton Avenue,94578,37.6954767,-122.1321393
15306,Upton Avenue,94578,37.6955934,-122.1318969
15300;15302,Upton Avenue,94578,37.6956756,-122.1318439
15296;15298,Upton Avenue,94578,37.6958162,-122.1316994
15292;15294,Upton Avenue,94578,37.6958950,-122.1316357
15288;15290,Upton Avenue,94578,37.6960348,-122.1314892
15284;15286,Upton Avenue,94578,37.6961009,-122.1314057
15280;15282,Upton Avenue,94578,37.6962407,-122.1312599
15276;15278,Upton Avenue,94578,37.6963198,-122.1311969
15272;15274,Upton Avenue,94578,37.6964590,-122.1310527
15268;15270,Upton Avenue,94578,37.6965249,-122.1309672
15264;15266,Upton Avenue,94578,37.6966657,-122.1308230
15260;15262,Upton Avenue,94578,37.6967378,-122.1307486
15256,Upton Avenue,94578,37.6969503,-122.1306799
490;492,Thornally Drive,94578,37.6970507,-122.1306895
15248;15250,Upton Avenue,94578,37.6973984,-122.1307106
15246,Upton Avenue,94578,37.6976643,-122.1307039
15244,Upton Avenue,94578,37.6978065,-122.1307230
15240,Upton Avenue,94578,37.6979613,-122.1306784
15236,Upton Avenue,94578,37.6981009,-122.1307246
15234,Upton Avenue,94578,37.6982487,-122.1307230
492,Olive Street,94578,37.6984055,-122.1306694
15231,Upton Avenue,94578,37.6981142,-122.1311067
487,Violet Street,94578,37.6980593,-122.1313066
485,Violet Street,94578,37.6980940,-122.1314946
483,Violet Street,94578,37.6981081,-122.1316729
481,Violet Street,94578,37.6980907,-122.1318697
479,Violet Street,94578,37.6980894,-122.1320476
477,Violet Street,94578,37.6981123,-122.1322352
475,Violet Street,94578,37.6980662,-122.1324239
473,Violet Street,94578,37.6980913,-122.1326149
15224,Vera Avenue,94578,37.6983493,-122.1327864
472,Olive Street,94578,37.6983966,-122.1326074
474,Olive Street,94578,37.6983655,-122.1324194
476,Olive Street,94578,37.6983841,-122.1322296
478,Olive Street,94578,37.6983738,-122.1320551
480,Olive Street,94578,37.6983673,-122.1318656
482,Olive Street,94578,37.6983738,-122.1316842
484,Olive Street,94578,37.6983551,-122.1314962
486,Olive Street,94578,37.6983714,-122.1313106
15223,Upton Avenue,94578,37.6983722,-122.1311266
15240,Central Avenue,94578,37.6981061,-122.1350982
449,Violet Street,94578,37.6980616,-122.1348826
451,Violet Street,94578,37.6980897,-122.1346858
453,Violet Street,94578,37.6981030,-122.1345118
455,Violet Street,94578,37.6980616,-122.1343136
457,Violet Street,94578,37.6980902,-122.1341262
442,Olive Street,94578,37.6983975,-122.1353335
448,Olive Street,94578,37.6983364,-122.1350804
450,Olive Street,94578,37.6983683,-122.1348749
452,Olive Street,94578,37.6983800,-122.1346888
454,Olive Street,94578,37.6983834,-122.1344970
456,Olive Street,94578,37.6983969,-122.1343227
458,Olive Street,94578,37.6983982,-122.1341249
460,Olive Street,94578,37.6983794,-122.1339506
15325;15327,Central Avenue,94578,37.6955594,-122.1323674
15321;15323,Central Avenue,94578,37.6956419,-122.1324618
15317;15319,Central Avenue,94578,37.6957907,-122.1326042
15313;15315,Central Avenue,94578,37.6958684,-122.1326729
15309,Central Avenue,94578,37.6960013,-122.1328253
15305,Central Avenue,94578,37.6960713,-122.1329062
15301,Central Avenue,94578,37.6962061,-122.1330595
15295,Central Avenue,94578,37.6962667,-122.1331462
15291;15293,Central Avenue,94578,37.6964014,-122.1333018
15287;15289,Central Avenue,94578,37.6964709,-122.1333791
15283,Central Avenue,94578,37.6966068,-122.1335332
15279,Central Avenue,94578,37.6966808,-122.1336014
15275,Central Avenue,94578,37.6968167,-122.1337573
15271,Central Avenue,94578,37.6968777,-122.1338448
15267,Central Avenue,94578,37.6970115,-122.1339973
15263,Central Avenue,94578,37.6970825,-122.1340736
15259,Central Avenue,94578,37.6971431,-122.1342477
15255,Central Avenue,94578,37.6971882,-122.1345699
15251,Central Avenue,94578,37.6972959,-122.1347704
15249,Central Avenue,94578,37.6973647,-122.1348495
15245,Central Avenue,94578,37.6974668,-122.1350446
15243,Central Avenue,94578,37.6976154,-122.1351318
15241,Central Avenue,94578,37.6977361,-122.1352448
15239,Central Avenue,94578,37.6978505,-122.1354092
15237,Central Avenue,94578,37.6979396,-122.1355161
15235,Central Avenue,94578,37.6980677,-122.1356227
15233,Central Avenue,94578,37.6981799,-122.1358041
15231,Central Avenue,94578,37.6982699,-122.1358916
15229,Central Avenue,94578,37.6983849,-122.1360210
15227,Central Avenue,94578,37.6984686,-122.1361414
15225,Central Avenue,94578,37.6985980,-122.1362886
15223,Central Avenue,94578,37.6987325,-122.1363811
15221,Central Avenue,94578,37.6988025,-122.1365256
15219,Central Avenue,94578,37.6989474,-122.1366668
15217,Central Avenue,94578,37.6990477,-122.1367955
15215,Central Avenue,94578,37.6991527,-122.1369306
15213,Central Avenue,94578,37.6992630,-122.1370084
15211,Central Avenue,94578,37.6993893,-122.1371294
15209,Central Avenue,94578,37.6994557,-122.1372837
15224,Central Avenue,94578,37.6987701,-122.1358834
443,Olive Street,94578,37.6987327,-122.1356152
445,Olive Street,94578,37.6987230,-122.1354354
447,Olive Street,94578,37.6987367,-122.1352457
449,Olive Street,94578,37.6987304,-122.1350530
451,Olive Street,94578,37.6987233,-122.1348651
453,Olive Street,94578,37.6987434,-122.1346829
455,Olive Street,94578,37.6987314,-122.1345008
457,Olive Street,94578,37.6987475,-122.1343207
459,Olive Street,94578,37.6987295,-122.1341334
461,Olive Street,94578,37.6987491,-122.1339474
463,Olive Street,94578,37.6987205,-122.1337481
465,Olive Street,94578,37.6987346,-122.1335663
467,Olive Street,94578,37.6987304,-122.1333806
15221,Vera Avenue,94578,37.6987655,-122.1331894
436,Nabor Street,94578,37.6990454,-122.1360734
440,Nabor Street,94578,37.6990189,-122.1358129
442,Nabor Street,94578,37.6990160,-122.1356206
444,Nabor Street,94578,37.6990171,-122.1354391
446,Nabor Street,94578,37.6990153,-122.1352422
448,Nabor Street,94578,37.6990477,-122.1350628
450,Nabor Street,94578,37.6990129,-122.1348759
452,Nabor Street,94578,37.6990149,-122.1346934
454,Nabor Street,94578,37.6990211,-122.1344919
456,Nabor Street,94578,37.6990397,-122.1343148
458,Nabor Street,94578,37.6990474,-122.1341329
460,Nabor Street,94578,37.6990127,-122.1339351
462,Nabor Street,94578,37.6990491,-122.1337596
464,Nabor Street,94578,37.6990270,-122.1335665
466,Nabor Street,94578,37.6990085,-122.1333940
15213,Vera Avenue,94578,37.6989898,-122.1331922
15220,Vera Avenue,94578,37.6987356,-122.1328214
15214,Vera Avenue,94578,37.6990213,-122.1328112
15219,Upton Avenue,94578,37.6987344,-122.1311236
15211,Upton Avenue,94578,37.6989988,-122.1311195
473,Olive Street,94578,37.6987365,-122.1326085
475,Olive Street,94578,37.6987470,-122.1324317
477,Olive Street,94578,37.6987369,-122.1322418
479,Olive Street,94578,37.6987424,-122.1320467
481,Olive Street,94578,37.6987200,-122.1318581
483,Olive Street,94578,37.6987309,-122.1316727
485,Olive Street,94578,37.6987383,-122.1314936
487,Olive Street,94578,37.6987225,-122.1313108
486,Nabor Street,94578,37.6990280,-122.1313071
484,Nabor Street,94578,37.6990161,-122.1314956
482,Nabor Street,94578,37.6990355,-122.1316848
480,Nabor Street,94578,37.6989981,-122.1318701
478,Nabor Street,94578,37.6990480,-122.1320463
476,Nabor Street,94578,37.6990132,-122.1322337
474,Nabor Street,94578,37.6990476,-122.1324290
472,Nabor Street,94578,37.6990289,-122.1326158
491,Olive Street,94578,37.6987018,-122.1306895
15228,Upton Avenue,94578,37.6988559,-122.1306766
15220,Upton Avenue,94578,37.6990068,-122.1306967
15212,Upton Avenue,94578,37.6991780,-122.1307105
15208,Upton Avenue,94578,37.6993505,-122.1308605
489,Nabor Street,94578,37.6993553,-122.1311202
487,Nabor Street,94578,37.6993561,-122.1313079
485,Nabor Street,94578,37.6993715,-122.1314836
483,Nabor Street,94578,37.6993838,-122.1316745
481,Nabor Street,94578,37.6993849,-122.1318601
479,Nabor Street,94578,37.6994052,-122.1320568
477,Nabor Street,94578,37.6993625,-122.1322302
475,Nabor Street,94578,37.6993582,-122.1324296
473,Nabor Street,94578,37.6993621,-122.1326126
15208,Vera Avenue,94578,37.6993837,-122.1328102
15209,Vera Avenue,94578,37.6993838,-122.1331849
467,Nabor Street,94578,37.6993798,-122.1333872
465,Nabor Street,94578,37.6993886,-122.1335729
463,Nabor Street,94578,37.6993824,-122.1337719
461,Nabor Street,94578,37.6993560,-122.1339491
459,Nabor Street,94578,37.6993889,-122.1341391
457,Nabor Street,94578,37.6993971,-122.1343443
455,Nabor Street,94578,37.6993803,-122.1345273
453,Nabor Street,94578,37.6993805,-122.1347103
451,Nabor Street,94578,37.6994145,-122.1348916
449,Nabor Street,94578,37.6993972,-122.1350798
447,Nabor Street,94578,37.6994200,-122.1352757
445,Nabor Street,94578,37.6994034,-122.1354650
443,Nabor Street,94578,37.6993976,-122.1356379
441,Nabor Street,94578,37.6993796,-122.1358282
439,Nabor Street,94578,37.6993911,-122.1360126
437,Nabor Street,94578,37.6994025,-122.1361976
435,Nabor Street,94578,37.6993593,-122.1363883
433,Nabor Street,94578,37.6994311,-122.1365686
15208,Central Avenue,94578,37.6995123,-122.1367616
701,Begonia Drive,94578,37.7011023,-122.1368092
709,Begonia Drive,94578,37.7011107,-122.1366383
715,Begonia Drive,94578,37.7011016,-122.1364636
723,Begonia Drive,94578,37.7011002,-122.1362924
737,Begonia Drive,94578,37.7010873,-122.1361186
741,Begonia Drive,94578,37.7011136,-122.1359460
749,Begonia Drive,94578,37.7011282,-122.1357726
755,Begonia Drive,94578,37.7011055,-122.1356014
767,Begonia Drive,94578,37.7010870,-122.1354284
773,Begonia Drive,94578,37.7011153,-122.1352533
781,Begonia Drive,94578,37.7010992,-122.1350810
704,Crocus Drive,94578,37.7008534,-122.1368090
706,Crocus Drive,94578,37.7008494,-122.1366381
718,Crocus Drive,94578,37.7008393,-122.1364636
722,Crocus Drive,94578,37.7008547,-122.1362917
730,Crocus Drive,94578,37.7008481,-122.1361186
748,Crocus Drive,94578,37.7008531,-122.1359464
754,Crocus Drive,94578,37.7008534,-122.1357728
762,Crocus Drive,94578,37.7008481,-122.1356002
776,Crocus Drive,94578,37.7008383,-122.1354275
788,Crocus Drive,94578,37.7008416,-122.1352549
790,Sunflower Drive,94578,37.7008651,-122.1350813
904,Begonia Drive,94578,37.7012146,-122.1335471
926,Begonia Drive,94578,37.7011266,-122.1334355
930,Begonia Drive,94578,37.7009453,-122.1333587
920,Narcissus Court,94578,37.7007469,-122.1333751
926,Narcissus Court,94578,37.7007560,-122.1332033
932,Narcissus Court,94578,37.7007776,-122.1330268
938,Narcissus Court,94578,37.7007899,-122.1327889
961,Narcissus Court,94578,37.7004750,-122.1323194
955,Narcissus Court,94578,37.7003767,-122.1324411
949,Narcissus Court,94578,37.7003352,-122.1327172
937,Narcissus Court,94578,37.7003511,-122.1328898
933,Narcissus Court,94578,37.7003565,-122.1330623
925,Narcissus Court,94578,37.7003221,-122.1332352
921,Begonia Drive,94578,37.7003349,-122.1334085
461,Begonia Court,94578,37.7011235,-122.1391311
483,Begonia Court,94578,37.7011055,-122.1389584
505,Begonia Court,94578,37.7011048,-122.1387850
527,Begonia Court,94578,37.7011182,-122.1386119
549,Begonia Court,94578,37.7011180,-122.1384385
571,Begonia Court,94578,37.7011092,-122.1382660
595,Begonia Court,94578,37.7010909,-122.1380942
590,Dahlia Court,94578,37.7008375,-122.1380951
578,Dahlia Court,94578,37.7008700,-122.1382674
556,Dahlia Court,94578,37.7008527,-122.1384396
534,Dahlia Court,94578,37.7008708,-122.1386325
502,Dahlia Court,94578,37.7007940,-122.1389133
547,Dahlia Court,94578,37.7004351,-122.1384399
573,Dahlia Court,94578,37.7004177,-122.1382660
591,Dahlia Court,94578,37.7004180,-122.1380938
904,Hollyhock Drive,94578,37.7000860,-122.1334341
926,Hollyhock Drive,94578,37.7000742,-122.1332608
930,Hollyhock Drive,94578,37.7000838,-122.1330882
938,Hollyhock Drive,94578,37.7000901,-122.1329149
952,Hollyhock Drive,94578,37.7000893,-122.1327422
964,Hollyhock Drive,94578,37.7000852,-122.1325709
976,Hollyhock Drive,94578,37.7000905,-122.1323973
988,Hollyhock Drive,94578,37.7001353,-122.1322240
990,Hollyhock Drive,94578,37.7001445,-122.1320228
613,Hollyhock Drive,94578,37.7001782,-122.1381045
625,Hollyhock Drive,94578,37.7000623,-122.1379760
639,Hollyhock Drive,94578,37.6999269,-122.1378295
647,Hollyhock Drive,94578,37.6998510,-122.1377105
651,Hollyhock Drive,94578,37.6997638,-122.1374996
665,Hollyhock Drive,94578,37.6997389,-122.1373360
679,Hollyhock Drive,94578,37.6997291,-122.1371299
683,Hollyhock Drive,94578,37.6997279,-122.1369572
707,Hollyhock Drive,94578,37.6997333,-122.1367855
711,Hollyhock Drive,94578,37.6997282,-122.1366105
715,Hollyhock Drive,94578,37.6997428,-122.1364385
723,Hollyhock Drive,94578,37.6997352,-122.1362668
737,Hollyhock Drive,94578,37.6997269,-122.1360941
741,Hollyhock Drive,94578,37.6997279,-122.1359212
749,Hollyhock Drive,94578,37.6997428,-122.1357475
755,Hollyhock Drive,94578,37.6997332,-122.1355755
767,Hollyhock Drive,94578,37.6997250,-122.1354032
773,Hollyhock Drive,94578,37.6997309,-122.1352299
781,Hollyhock Drive,94578,37.6997255,-122.1350565
809,Hollyhock Drive,94578,37.6997410,-122.1348835
817,Hollyhock Drive,94578,37.6997317,-122.1347112
825,Hollyhock Drive,94578,37.6996916,-122.1345382
833,Hollyhock Drive,94578,37.6996621,-122.1343642
859,Hollyhock Drive,94578,37.6996566,-122.1341911
875,Hollyhock Drive,94578,37.6996577,-122.1340178
887,Hollyhock Drive,94578,37.6996497,-122.1338449
891,Hollyhock Drive,94578,37.6996545,-122.1336719
903,Hollyhock Drive,94578,37.6996492,-122.1335018
919,Hollyhock Drive,94578,37.6996526,-122.1333274
927,Hollyhock Drive,94578,37.6996484,-122.1331548
931,Hollyhock Drive,94578,37.6996558,-122.1329466
945,Hollyhock Drive,94578,37.6996523,-122.1327739
953,Hollyhock Drive,94578,37.6996492,-122.1326006
969,Hollyhock Drive,94578,37.6996508,-122.1324279
977,Hollyhock Drive,94578,37.6996518,-122.1322563
995,Hollyhock Drive,94578,37.6996637,-122.1320745
15205,Hesperian Boulevard,94578,37.6996259,-122.1313244
528,Hollyhock Drive,94578,37.7011553,-122.1376063
554,Hollyhock Drive,94578,37.7010176,-122.1376143
576,Hollyhock Drive,94578,37.7008805,-122.1376063
580,Hollyhock Drive,94578,37.7007431,-122.1376096
592,Hollyhock Drive,94578,37.7006065,-122.1376167
608,Hollyhock Drive,94578,37.7004693,-122.1376270
15015,Zinnia Street,94578,37.7011540,-122.1372958
15021,Zinnia Street,94578,37.7010174,-122.1372803
15027,Zinnia Street,94578,37.7008795,-122.1372968
15033,Zinnia Street,94578,37.7007375,-122.1372981
15039,Zinnia Street,94578,37.7005429,-122.1372888
675,Crocus Drive,94578,37.7004405,-122.1372083
626,Hollyhock Drive,94578,37.7002808,-122.1375120
650,Hollyhock Drive,94578,37.7002054,-122.1373907
674,Hollyhock Drive,94578,37.7001668,-122.1371615
682,Hollyhock Drive,94578,37.7001684,-122.1369884
706,Hollyhock Drive,94578,37.7001609,-122.1368145
710,Hollyhock Drive,94578,37.7001647,-122.1366435
714,Hollyhock Drive,94578,37.7001686,-122.1364702
722,Hollyhock Drive,94578,37.7001623,-122.1362975
736,Hollyhock Drive,94578,37.7001671,-122.1361238
740,Hollyhock Drive,94578,37.7001673,-122.1359521
748,Hollyhock Drive,94578,37.7001674,-122.1357788
754,Hollyhock Drive,94578,37.7001642,-122.1356068
766,Hollyhock Drive,94578,37.7001801,-122.1354321
772,Hollyhock Drive,94578,37.7001666,-122.1352608
780,Hollyhock Drive,94578,37.7001655,-122.1350881
808,Hollyhock Drive,94578,37.7001609,-122.1349148
816,Hollyhock Drive,94578,37.7001663,-122.1347415
824,Hollyhock Drive,94578,37.7001307,-122.1345698
832,Hollyhock Drive,94578,37.7001270,-122.1343783
858,Hollyhock Drive,94578,37.7001106,-122.1341886
987,Begonia Drive,94578,37.7000350,-122.1339348
975,Begonia Drive,94578,37.7001710,-122.1339227
963,Begonia Drive,94578,37.7003108,-122.1339062
951,Begonia Drive,94578,37.7004467,-122.1338942
947,Begonia Drive,94578,37.7006114,-122.1338728
939,Begonia Drive,94578,37.7007475,-122.1338710
911,Begonia Drive,94578,37.7009465,-122.1339707
883,Begonia Drive,94578,37.7010396,-122.1340572
845,Begonia Drive,94578,37.7011096,-122.1343140
829,Begonia Drive,94578,37.7011040,-122.1344879
817,Sunflower Drive,94578,37.7010982,-122.1346593
804,Crocus Drive,94578,37.7008520,-122.1346600
826,Crocus Drive,94578,37.7008507,-122.1344873
830,Crocus Drive,94578,37.7007600,-122.1342268
848,Crocus Drive,94578,37.7006276,-122.1341929
847,Crocus Drive,94578,37.7004326,-122.1342627
821,Crocus Drive,94578,37.7003772,-122.1345151
803,Crocus Drive,94578,37.7004175,-122.1346899
799,Crocus Drive,94578,37.7004124,-122.1348608
791,Crocus Drive,94578,37.7004191,-122.1350328
787,Crocus Drive,94578,37.7004122,-122.1352075
775,Crocus Drive,94578,37.7004252,-122.1353812
763,Crocus Drive,94578,37.7004185,-122.1355535
755,Crocus Drive,94578,37.7004138,-122.1357249
749,Crocus Drive,94578,37.7004135,-122.1358988
731,Crocus Drive,94578,37.7004143,-122.1360701
725,Crocus Drive,94578,37.7004209,-122.1362442
719,Crocus Drive,94578,37.7004135,-122.1364158
707,Crocus Drive,94578,37.7004262,-122.1365895
703,Crocus Drive,94578,37.7004149,-122.1367622
689,Crocus Drive,94578,37.7004138,-122.1369338
556;558,Cape Cod Drive,94578,37.6931145,-122.1364976
560;562,Cape Cod Drive,94578,37.6930962,-122.1363323
574;576,Cape Cod Drive,94578,37.6930861,-122.1361771
588;590,Cape Cod Drive,94578,37.6930901,-122.1360198
592;594,Cape Cod Drive,94578,37.6930845,-122.1358672
606;608,Cape Cod Drive,94578,37.6930914,-122.1357092
620;622,Cape Cod Drive,94578,37.6930904,-122.1355557
634;636,Cape Cod Drive,94578,37.6930896,-122.1354025
648;650,Cape Cod Drive,94578,37.6930902,-122.1351902
467,Cape Cod Drive,94578,37.6931103,-122.1378407
451,Cape Cod Drive,94578,37.6931208,-122.1379908
443,Cape Cod Drive,94578,37.6931300,-122.1381593
427,Cape Cod Drive,94578,37.6930904,-122.1383174
419,Cape Cod Drive,94578,37.6930621,-122.1384734
405,Cape Cod Drive,94578,37.6930754,-122.1386409
401,Cape Cod Drive,94578,37.6931883,-122.1388147
400,Cape Cod Drive,94578,37.6933473,-122.1388253
404,Cape Cod Drive,94578,37.6934727,-122.1387222
416,Cape Cod Drive,94578,37.6935290,-122.1385525
428,Cape Cod Drive,94578,37.6935125,-122.1383747
442,Cape Cod Drive,94578,37.6935221,-122.1382190
450,Cape Cod Drive,94578,37.6934926,-122.1380620
464,Cape Cod Drive,94578,37.6934945,-122.1379005
486,Cape Cod Drive,94578,37.6934643,-122.1377414
492,Cape Cod Drive,94578,37.6934476,-122.1375819
500,Cape Cod Drive,94578,37.6934088,-122.1374291
518,Cape Cod Drive,94578,37.6933625,-122.1372774
522,Cape Cod Drive,94578,37.6932977,-122.1371382
536,Cape Cod Drive,94578,37.6932485,-122.1369951
544,Cape Cod Drive,94578,37.6931851,-122.1368491
14991,Firth Court,94578,37.6929270,-122.1379948
14995,Firth Court,94578,37.6927729,-122.1379372
14999,Firth Court,94578,37.6927061,-122.1377279
14998,Firth Court,94578,37.6927285,-122.1375190
14990,Firth Court,94578,37.6928844,-122.1374025
14986,Firth Court,94578,37.6930327,-122.1374157
537,Cape Cod Drive,94578,37.6928909,-122.1371451
545,Cape Cod Drive,94578,37.6928330,-122.1370015
549,Cape Cod Drive,94578,37.6927669,-122.1368567
553;555,Cape Cod Drive,94578,37.6927652,-122.1366884
557;559,Cape Cod Drive,94578,37.6927373,-122.1365418
561;563,Cape Cod Drive,94578,37.6927253,-122.1363717
575;577,Cape Cod Drive,94578,37.6927140,-122.1362166
589;591,Cape Cod Drive,94578,37.6927188,-122.1360500
593;595,Cape Cod Drive,94578,37.6927146,-122.1358982
607;609,Cape Cod Drive,94578,37.6927221,-122.1357392
621;623,Cape Cod Drive,94578,37.6927170,-122.1355868
635;637,Cape Cod Drive,94578,37.6927230,-122.1354280
639;641,Cape Cod Drive,94578,37.6927223,-122.1352763
653;655,Cape Cod Drive,94578,37.6927267,-122.1351174
667;669,Cape Cod Drive,94578,37.6927244,-122.1349642
671;673,Cape Cod Drive,94578,37.6927429,-122.1347783
685,Cape Cod Drive,94578,37.6928539,-122.1346566
400,Springlake Drive,94578,37.6942988,-122.1384012
14968,Peninsula Street,94578,37.6937662,-122.1370771
14960,Peninsula Street,94578,37.6939073,-122.1370981
14944,Peninsula Street,94578,37.6940332,-122.1370902
14936,Peninsula Street,94578,37.6941588,-122.1371045
14932,Peninsula Street,94578,37.6942829,-122.1370902
14920,Peninsula Street,94578,37.6944127,-122.1371115
14915,Inlet Court,94578,37.6944159,-122.1368036
14919,Inlet Court,94578,37.6942860,-122.1368111
14927,Inlet Court,94578,37.6941631,-122.1368101
14931,Inlet Court,94578,37.6940350,-122.1368100
14943,Inlet Court,94578,37.6939109,-122.1368031
14955,Inlet Court,94578,37.6937559,-122.1367983
14969,Inlet Court,94578,37.6935927,-122.1368759
14970,Inlet Court,94578,37.6934682,-122.1362961
14966,Inlet Court,94578,37.6936845,-122.1363080
14954,Inlet Court,94578,37.6938129,-122.1363416
14938,Inlet Court,94578,37.6939372,-122.1363456
14930,Inlet Court,94578,37.6940574,-122.1363391
14926,Inlet Court,94578,37.6941843,-122.1363509
14918,Inlet Court,94578,37.6943047,-122.1363447
14910,Inlet Court,94578,37.6944311,-122.1363582
14909,Riverdale Street,94578,37.6944332,-122.1360596
14917,Riverdale Street,94578,37.6943117,-122.1360595
14925,Riverdale Street,94578,37.6941885,-122.1360447
14933,Riverdale Street,94578,37.6940637,-122.1360554
14941,Riverdale Street,94578,37.6939407,-122.1360385
14949,Riverdale Street,94578,37.6938140,-122.1360476
14957,Riverdale Street,94578,37.6936942,-122.1360344
14965,Riverdale Street,94578,37.6935668,-122.1360417
14973,Riverdale Street,94578,37.6934427,-122.1360412
14967,Peninsula Street,94578,37.6938618,-122.1375563
14959,Peninsula Street,94578,37.6939904,-122.1375704
14941,Peninsula Street,94578,37.6941150,-122.1375508
14933,Peninsula Street,94578,37.6942341,-122.1375641
14925,Peninsula Street,94578,37.6943606,-122.1375683
14919,Peninsula Street,94578,37.6944853,-122.1375928
14907,Peninsula Street,94578,37.6946262,-122.1375220
490,Millstream Drive,94578,37.6947185,-122.1373657
504,Millstream Drive,94578,37.6947396,-122.1371751
516,Millstream Drive,94578,37.6947438,-122.1370079
528,Millstream Drive,94578,37.6947352,-122.1368522
540,Millstream Drive,94578,37.6947521,-122.1367003
544,Millstream Drive,94578,37.6947406,-122.1365389
552,Millstream Drive,94578,37.6947527,-122.1363861
566,Millstream Drive,94578,37.6947533,-122.1362352
578,Millstream Drive,94578,37.6947573,-122.1360751
580,Millstream Drive,94578,37.6947622,-122.1359217
594,Millstream Drive,94578,37.6947064,-122.1357479
14908,Riverdale Street,94578,37.6946029,-122.1356292
14912,Riverdale Street,94578,37.6944513,-122.1355982
14916,Riverdale Street,94578,37.6943186,-122.1355921
14924,Riverdale Street,94578,37.6941921,-122.1355858
14932,Riverdale Street,94578,37.6940689,-122.1355983
14940,Riverdale Street,94578,37.6939464,-122.1355764
14948,Riverdale Street,94578,37.6938218,-122.1355776
14956,Riverdale Street,94578,37.6936991,-122.1355878
14962,Riverdale Street,94578,37.6935745,-122.1355721
14974,Riverdale Street,94578,37.6934506,-122.1355819
14978,Fjord Street,94578,37.6931677,-122.1343566
14970,Fjord Street,94578,37.6932709,-122.1342366
14964,Fjord Street,94578,37.6933834,-122.1341582
14952,Fjord Street,94578,37.6934967,-122.1340622
14946,Fjord Street,94578,37.6936089,-122.1339878
701,Flume Court,94578,37.6938232,-122.1341361
723,Flume Court,94578,37.6938168,-122.1339770
739,Flume Court,94578,37.6937413,-122.1337472
758,Flume Court,94578,37.6941066,-122.1334127
746,Flume Court,94578,37.6941960,-122.1336305
734,Flume Court,94578,37.6941911,-122.1338333
722,Flume Court,94578,37.6941779,-122.1339886
700,Flume Court,94578,37.6941952,-122.1341415
703,Fountainhead Drive,94578,37.6943999,-122.1341447
709,Fountainhead Drive,94578,37.6944126,-122.1339936
715,Fountainhead Drive,94578,37.6944261,-122.1338377
721,Fountainhead Drive,94578,37.6944202,-122.1336772
737,Fountainhead Drive,94578,37.6944292,-122.1335271
753,Fountainhead Drive,94578,37.6944278,-122.1333284
775,Fountainhead Drive,94578,37.6943444,-122.1331941
14947,Fjord Street,94578,37.6936381,-122.1345922
14941,Fjord Street,94578,37.6938324,-122.1345459
14935,Fjord Street,94578,37.6939629,-122.1345439
14929,Fjord Street,94578,37.6940835,-122.1345496
14921,Fjord Street,94578,37.6942089,-122.1345375
14913,Fjord Street,94578,37.6943322,-122.1345519
14907,Fjord Street,94578,37.6944569,-122.1345413
14906,Ebb Tide Street,94578,37.6944526,-122.1348512
14914,Ebb Tide Street,94578,37.6943275,-122.1348297
14920,Ebb Tide Street,94578,37.6942046,-122.1348320
14928,Ebb Tide Street,94578,37.6940802,-122.1348263
14932,Ebb Tide Street,94578,37.6939576,-122.1348392
14950,Ebb Tide Street,94578,37.6937863,-122.1348237
14977,Ebb Tide Street,94578,37.6933313,-122.1347182
14969,Ebb Tide Street,94578,37.6933815,-122.1348638
14955,Ebb Tide Street,94578,37.6934256,-122.1350071
14951,Ebb Tide Street,94578,37.6934918,-122.1351834
14945,Ebb Tide Street,94578,37.6936023,-122.1352968
14937,Ebb Tide Street,94578,37.6937501,-122.1352926
14933,Ebb Tide Street,94578,37.6938753,-122.1353006
14929,Ebb Tide Street,94578,37.6939970,-122.1352986
14925,Ebb Tide Street,94578,37.6941211,-122.1352884
14917,Ebb Tide Street,94578,37.6942441,-122.1353054
14911,Ebb Tide Street,94578,37.6943695,-122.1353115
14905,Ebb Tide Street,94578,37.6945145,-122.1353074
14903,Ebb Tide Street,94578,37.6946672,-122.1352541
606,Fountainhead Drive,94578,37.6947497,-122.1351023
620,Fountainhead Drive,94578,37.6947626,-122.1349303
632,Fountainhead Drive,94578,37.6947733,-122.1347700
654,Fountainhead Drive,94578,37.6947680,-122.1346204
668,Fountainhead Drive,94578,37.6947888,-122.1344633
676,Fountainhead Drive,94578,37.6947783,-122.1343053
702,Fountainhead Drive,94578,37.6947825,-122.1341546
710,Fountainhead Drive,94578,37.6947751,-122.1339986
714,Fountainhead Drive,94578,37.6947884,-122.1338419
726,Fountainhead Drive,94578,37.6947996,-122.1336845
738,Fountainhead Drive,94578,37.6947823,-122.1335321
750,Fountainhead Drive,94578,37.6947928,-122.1333710
762,Fountainhead Drive,94578,37.6947960,-122.1332211
774,Fountainhead Drive,94578,37.6948057,-122.1330618
786,Fountainhead Drive,94578,37.6947541,-122.1328481
14860,Washington Avenue,94578,37.6949759,-122.1389681
402,Lloyd Avenue,94578,37.6949793,-122.1388082
404,Lloyd Avenue,94578,37.6949769,-122.1386192
406,Lloyd Avenue,94578,37.6949814,-122.1384413
408,Lloyd Avenue,94578,37.6949603,-122.1382742
410,Lloyd Avenue,94578,37.6949854,-122.1380968
412,Lloyd Avenue,94578,37.6949537,-122.1379090
414,Lloyd Avenue,94578,37.6949714,-122.1377287
416,Lloyd Avenue,94578,37.6949924,-122.1375506
418,Lloyd Avenue,94578,37.6949896,-122.1373844
420,Lloyd Avenue,94578,37.6949959,-122.1372049
422,Lloyd Avenue,94578,37.6949997,-122.1370166
426;428,Lloyd Avenue,94578,37.6950029,-122.1368368
430,Lloyd Avenue,94578,37.6949868,-122.1366574
434,Lloyd Avenue,94578,37.6950083,-122.1364906
438,Lloyd Avenue,94578,37.6950099,-122.1363145
442,Lloyd Avenue,94578,37.6950193,-122.1361300
446,Lloyd Avenue,94578,37.6950068,-122.1359351
450,Lloyd Avenue,94578,37.6949963,-122.1357409
454,Lloyd Avenue,94578,37.6950396,-122.1355430
458,Lloyd Avenue,94578,37.6950233,-122.1353602
462,Lloyd Avenue,94578,37.6950312,-122.1351600
466,Lloyd Avenue,94578,37.6949941,-122.1349733
470,Lloyd Avenue,94578,37.6950320,-122.1347832
474,Lloyd Avenue,94578,37.6950405,-122.1345838
478,Lloyd Avenue,94578,37.6950411,-122.1344012
482,Lloyd Avenue,94578,37.6950274,-122.1342005
486,Lloyd Avenue,94578,37.6950413,-122.1340069
14855,Martell Avenue,94578,37.6950568,-122.1337973
14840,Harold Avenue,94578,37.6953800,-122.1370121
14836,Harold Avenue,94578,37.6956431,-122.1370159
427,Lloyd Avenue,94578,37.6953917,-122.1368291
431,Lloyd Avenue,94578,37.6954176,-122.1366358
435,Lloyd Avenue,94578,37.6953863,-122.1364496
439,Lloyd Avenue,94578,37.6953873,-122.1362702
443,Lloyd Avenue,94578,37.6953909,-122.1360842
447,Lloyd Avenue,94578,37.6953936,-122.1358979
451,Lloyd Avenue,94578,37.6954197,-122.1357041
455,Lloyd Avenue,94578,37.6954102,-122.1355186
459,Lloyd Avenue,94578,37.6954147,-122.1353338
463,Lloyd Avenue,94578,37.6954221,-122.1351562
467,Lloyd Avenue,94578,37.6954251,-122.1349611
471,Lloyd Avenue,94578,37.6954327,-122.1347761
475,Lloyd Avenue,94578,37.6954235,-122.1345975
479,Lloyd Avenue,94578,37.6954334,-122.1344120
483,Lloyd Avenue,94578,37.6954028,-122.1342226
428,Linnell Avenue,94578,37.6956430,-122.1368238
432,Linnell Avenue,94578,37.6956300,-122.1366323
436,Linnell Avenue,94578,37.6956491,-122.1364315
440,Linnell Avenue,94578,37.6956574,-122.1362481
444,Linnell Avenue,94578,37.6956522,-122.1360433
448,Linnell Avenue,94578,37.6956507,-122.1358504
452,Linnell Avenue,94578,37.6956608,-122.1356719
456,Linnell Avenue,94578,37.6956687,-122.1354710
460,Linnell Avenue,94578,37.6956830,-122.1352861
464,Linnell Avenue,94578,37.6956416,-122.1350883
468,Linnell Avenue,94578,37.6956697,-122.1349027
472,Linnell Avenue,94578,37.6956788,-122.1347010
14831,Martell Avenue,94578,37.6956549,-122.1344876
14832,Harold Avenue,94578,37.6960349,-122.1370225
14828,Harold Avenue,94578,37.6963207,-122.1370273
429,Linnell Avenue,94578,37.6960399,-122.1368218
433,Linnell Avenue,94578,37.6960229,-122.1366409
437,Linnell Avenue,94578,37.6960262,-122.1364488
441,Linnell Avenue,94578,37.6960273,-122.1362675
445,Linnell Avenue,94578,37.6960601,-122.1360755
449,Linnell Avenue,94578,37.6960326,-122.1358943
453,Linnell Avenue,94578,37.6960402,-122.1356934
457,Linnell Avenue,94578,37.6960370,-122.1355113
461,Linnell Avenue,94578,37.6960269,-122.1353090
465,Linnell Avenue,94578,37.6960308,-122.1351252
469,Linnell Avenue,94578,37.6960306,-122.1349209
422,Bradrick Drive,94578,37.6962968,-122.1368174
424,Bradrick Drive,94578,37.6963226,-122.1366398
426,Bradrick Drive,94578,37.6963215,-122.1364505
428,Bradrick Drive,94578,37.6962972,-122.1362726
430,Bradrick Drive,94578,37.6963370,-122.1360589
432,Bradrick Drive,94578,37.6963696,-122.1358905
434,Bradrick Drive,94578,37.6964462,-122.1356821
14795,Martell Avenue,94578,37.6965604,-122.1355090
14801,Martell Avenue,94578,37.6964011,-122.1353957
14805,Martell Avenue,94578,37.6962803,-122.1352336
14856,Washington Avenue,94578,37.6953909,-122.1389145
405,Lloyd Avenue,94578,37.6953798,-122.1386538
407,Lloyd Avenue,94578,37.6953708,-122.1384805
409,Lloyd Avenue,94578,37.6953652,-122.1382998
411,Lloyd Avenue,94578,37.6953683,-122.1381287
413,Lloyd Avenue,94578,37.6953694,-122.1379554
415,Lloyd Avenue,94578,37.6953859,-122.1377890
417,Lloyd Avenue,94578,37.6953789,-122.1376078
419,Lloyd Avenue,94578,37.6953743,-122.1374157
14845,Harold Avenue,94578,37.6955604,-122.1374371
14841,Harold Avenue,94578,37.6956922,-122.1374371
14837,Harold Avenue,94578,37.6958358,-122.1374438
14833,Harold Avenue,94578,37.6959715,-122.1374486
14829,Harold Avenue,94578,37.6961099,-122.1374471
14825,Harold Avenue,94578,37.6963027,-122.1374511
414,Bradrick Drive,94578,37.6963228,-122.1376599
412,Bradrick Drive,94578,37.6963235,-122.1378459
410,Bradrick Drive,94578,37.6963114,-122.1380384
408,Bradrick Drive,94578,37.6963002,-122.1382263
406,Bradrick Drive,94578,37.6963064,-122.1384183
404,Bradrick Drive,94578,37.6962990,-122.1386055
14798,Washington Avenue,94578,37.6962953,-122.1387771
14798,Washington Avenue,94578,37.6962970,-122.1390065
14800,Washington Avenue,94578,37.6960100,-122.1389371
14830,Washington Avenue,94578,37.6957352,-122.1389159
421,Pagano Court,94578,37.6957829,-122.1386525
429,Pagano Court,94578,37.6957888,-122.1385036
437,Pagano Court,94578,37.6957869,-122.1383534
445,Pagano Court,94578,37.6957837,-122.1381798
453,Pagano Court,94578,37.6957869,-122.1379319
457,Pagano Court,94578,37.6957893,-122.1377663
435;439,Pagano Court,94578,37.6959294,-122.1378190
431;433,Pagano Court,94578,37.6960955,-122.1378186
449;451,Pagano Court,94578,37.6956007,-122.1381858
455,Pagano Court,94578,37.6955972,-122.1379286
459,Pagano Court,94578,37.6956004,-122.1377637
434,Pagano Court,94578,37.6960068,-122.1382076
422;426,Pagano Court,94578,37.6960376,-122.1383669
414;416;418;420,Pagano Court,94578,37.6959373,-122.1385828
401;407,Bradrick Drive,94578,37.6967427,-122.1383758
409,Bradrick Drive,94578,37.6967055,-122.1380886
413,Bradrick Drive,94578,37.6966607,-122.1377818
14787,Harold Avenue,94578,37.6968226,-122.1378478
14783,Harold Avenue,94578,37.6969744,-122.1379292
14779,Harold Avenue,94578,37.6971242,-122.1379263
417,Bradrick Drive,94578,37.6966552,-122.1371299
423,Bradrick Drive,94578,37.6966545,-122.1368389
14795,Ruthelen Court,94578,37.6968116,-122.1369761
14791,Ruthelen Court,94578,37.6969965,-122.1369397
14790,Ruthelen Court,94578,37.6970803,-122.1366862
14794,Ruthelen Court,94578,37.6969935,-122.1364799
14798,Ruthelen Court,94578,37.6968591,-122.1363684
429,Bradrick Drive,94578,37.6966674,-122.1362783
435,Bradrick Drive,94578,37.6967910,-122.1358920
14785,Martell Avenue,94578,37.6969287,-122.1359934
14781,Martell Avenue,94578,37.6970677,-122.1361507
14765,Martell Avenue,94578,37.6971769,-122.1362948
14757,Martell Avenue,94578,37.6972928,-122.1364507
14747,Martell Avenue,94578,37.6973190,-122.1365876
14741,Martell Avenue,94578,37.6973231,-122.1367645
14735,Martell Avenue,94578,37.6973224,-122.1369464
14729,Martell Avenue,94578,37.6973234,-122.1371221
14723,Martell Avenue,94578,37.6973229,-122.1372986
14770,Harold Avenue,94578,37.6973234,-122.1374770
14786,Harold Avenue,94578,37.6969508,-122.1373698
14790,Harold Avenue,94578,37.6968101,-122.1372586
14751,Harold Avenue,94578,37.6974429,-122.1379884
14735,Harold Avenue,94578,37.6975864,-122.1379855
14794,Washington Avenue,94578,37.6967779,-122.1388011
14790,Washington Avenue,94578,37.6972223,-122.1387831
14786,Washington Avenue,94578,37.6972641,-122.1389506
14766,Washington Avenue,94578,37.6977293,-122.1386341
14744,Washington Avenue,94578,37.6982687,-122.1382713
14700,Washington Avenue,94578,37.6988123,-122.1385894
14660,Washington Avenue,94578,37.6998119,-122.1394528
14610,Washington Avenue,94578,37.7000429,-122.1395293
14610,Washington Avenue,94578,37.7001519,-122.1396706
14602,Washington Avenue,94578,37.7003065,-122.1396185
14408,Washington Avenue,94578,37.7009865,-122.1399005
14716,Martell Avenue,94578,37.6977904,-122.1374900
14722,Martell Avenue,94578,37.6977908,-122.1372965
14728,Martell Avenue,94578,37.6977915,-122.1370919
14734,Martell Avenue,94578,37.6977918,-122.1369170
14740,Martell Avenue,94578,37.6977944,-122.1367118
14746,Martell Avenue,94578,37.6977907,-122.1364538
14752,Martell Avenue,94578,37.6977107,-122.1361832
14758,Martell Avenue,94578,37.6975745,-122.1360315
14764,Martell Avenue,94578,37.6974607,-122.1359393
14770,Martell Avenue,94578,37.6973583,-122.1358231
14776,Martell Avenue,94578,37.6972657,-122.1357180
14782,Martell Avenue,94578,37.6971500,-122.1355776
14788,Martell Avenue,94578,37.6970212,-122.1354874
14792,Martell Avenue,94578,37.6969188,-122.1353692
14796,Martell Avenue,94578,37.6968078,-122.1352271
14800,Martell Avenue,94578,37.6966913,-122.1350887
14804,Martell Avenue,94578,37.6965708,-122.1349652
14808,Martell Avenue,94578,37.6964680,-122.1348322
14812,Martell Avenue,94578,37.6963518,-122.1347032
14816,Martell Avenue,94578,37.6962451,-122.1345342
14820,Martell Avenue,94578,37.6961480,-122.1344482
14824,Martell Avenue,94578,37.6960482,-122.1343319
14828,Martell Avenue,94578,37.6959273,-122.1341949
14832,Martell Avenue,94578,37.6958254,-122.1340760
14836,Martell Avenue,94578,37.6957242,-122.1339624
14840,Martell Avenue,94578,37.6956474,-122.1338638
14844,Martell Avenue,94578,37.6955356,-122.1337504
14848,Martell Avenue,94578,37.6954221,-122.1336325
14852,Martell Avenue,94578,37.6953276,-122.1334832
14856,Martell Avenue,94578,37.6952153,-122.1334004
14860,Martell Avenue,94578,37.6951392,-122.1332872
14864,Martell Avenue,94578,37.6950138,-122.1331713
571;573;575;577,Jasmine Way,94578,37.6935343,-122.1409625
579;581;583;585,Jasmine Way,94578,37.6935373,-122.1406091
587;589;591;593,Jasmine Way,94578,37.6935601,-122.1402630
595;597;599,Jasmine Way,94578,37.6935551,-122.1399523
500;502;506;508,Sugar Maple Lane,94578,37.6931618,-122.1403184
501;503;505;507,Sugar Maple Lane,94578,37.6931608,-122.1406815
355,Ian Street,94578,37.6932026,-122.1408728
603;605;607;609,Heather Glenn Lane,94578,37.6931734,-122.1399093
660;662;668;670;672;676,Tierney Way,94578,37.6928313,-122.1400192
616;618;620,Heather Glenn Lane,94578,37.6928766,-122.1394953
600;602;606,Heather Glenn Lane,94578,37.6933442,-122.1395178
608;610;612,Heather Glenn Lane,94578,37.6931110,-122.1395021
346,Aloha Drive,94578,37.6940321,-122.1409935
350,Aloha Drive,94578,37.6940328,-122.1408124
354,Aloha Drive,94578,37.6940434,-122.1406354
358,Aloha Drive,94578,37.6940476,-122.1404658
362,Aloha Drive,94578,37.6940296,-122.1402845
366,Aloha Drive,94578,37.6940302,-122.1400838
370,Aloha Drive,94578,37.6941779,-122.1398956
374,Aloha Drive,94578,37.6943522,-122.1398913
378,Aloha Drive,94578,37.6945057,-122.1399265
382,Aloha Drive,94578,37.6946458,-122.1399344
384,Anza Way,94578,37.6947887,-122.1399245
14947,Washington Avenue,94578,37.6938576,-122.1395364
14895,Washington Avenue,94578,37.6939956,-122.1395421
14889,Washington Avenue,94578,37.6941551,-122.1395233
14883,Washington Avenue,94578,37.6943121,-122.1395179
14877,Washington Avenue,94578,37.6944766,-122.1395217
14871,Washington Avenue,94578,37.6946254,-122.1395246
14865,Washington Avenue,94578,37.6947859,-122.1395462
14801;14811;14815;14821;14825;14837;14843;14851,Washington Avenue,94578,37.6957544,-122.1398330
335,Aloha Drive,94578,37.6944003,-122.1416155
341,Aloha Drive,94578,37.6944056,-122.1414348
345,Aloha Drive,94578,37.6944119,-122.1412492
349,Aloha Drive,94578,37.6944328,-122.1410814
353,Aloha Drive,94578,37.6944218,-122.1408960
357,Aloha Drive,94578,37.6944264,-122.1407276
361,Aloha Drive,94578,37.6944317,-122.1405449
365,Aloha Drive,94578,37.6944426,-122.1403581
380,Aloha Drive,94578,37.6947402,-122.1403744
376,Anza Way,94578,37.6947350,-122.1405668
372,Anza Way,94578,37.6947301,-122.1407326
368,Anza Way,94578,37.6947250,-122.1409197
364,Anza Way,94578,37.6947195,-122.1410869
360,Anza Way,94578,37.6947139,-122.1412711
356,Anza Way,94578,37.6947079,-122.1414398
352,Anza Way,94578,37.6947028,-122.1416243
348,Anza Way,94578,37.6946985,-122.1417926
344,Anza Way,94578,37.6946918,-122.1420428
338,Aloha Drive,94578,37.6940211,-122.1413810
334,Aloha Drive,94578,37.6940080,-122.1415745
330,Aloha Drive,94578,37.6940101,-122.1418003
326,Aloha Drive,94578,37.6940887,-122.1419698
322,Aloha Drive,94578,37.6942161,-122.1420833
318,Aloha Drive,94578,37.6942779,-122.1422598
314,Aloha Drive,94578,37.6943958,-122.1423386
310,Aloha Drive,94578,37.6944953,-122.1424799
306,Aloha Drive,94578,37.6945718,-122.1426091
328,Anza Way,94578,37.6946589,-122.1427327
320,Anza Way,94578,37.6947676,-122.1431181
316,Anza Way,94578,37.6948532,-122.1432415
312,Anza Way,94578,37.6949599,-122.1433949
308,Anza Way,94578,37.6950426,-122.1435183
3899,Anza Way,94578,37.6951385,-122.1436743
3895,Anza Way,94578,37.6952237,-122.1437999
3891,Anza Way,94578,37.6953096,-122.1439216
3885,Anza Way,94578,37.6954314,-122.1440809
3873,Anza Way,94578,37.6955106,-122.1441971
3867,Anza Way,94578,37.6956220,-122.1443429
3861,Anza Way,94578,37.6957118,-122.1444738
3855,Anza Way,94578,37.6957991,-122.1446287
3849,Anza Way,94578,37.6958822,-122.1447591
3843,Anza Way,94578,37.6960058,-122.1449138
3837,Anza Way,94578,37.6960725,-122.1450300
3831,Anza Way,94578,37.6961587,-122.1452043
3825,Anza Way,94578,37.6962779,-122.1453026
3819,Anza Way,94578,37.6963794,-122.1454669
3813,Anza Way,94578,37.6964594,-122.1455801
3801,Anza Way,94578,37.6965737,-122.1457397
3799,Anza Way,94578,37.6966551,-122.1458554
3793,Anza Way,94578,37.6967516,-122.1460240
3787,Anza Way,94578,37.6968604,-122.1461374
3785,Anza Way,94578,37.6969597,-122.1462756
3781,Anza Way,94578,37.6970423,-122.1464108
3779,Anza Way,94578,37.6971344,-122.1465666
3777,Anza Way,94578,37.6972257,-122.1466834
3771,Anza Way,94578,37.6973292,-122.1468458
3769,Anza Way,94578,37.6974142,-122.1469873
3765,Anza Way,94578,37.6975351,-122.1471093
3761,Anza Way,94578,37.6976101,-122.1472348
3755,Anza Way,94578,37.6977253,-122.1473822
3749,Anza Way,94578,37.6978067,-122.1475150
3745,Anza Way,94578,37.6979084,-122.1476609
3741,Anza Way,94578,37.6979983,-122.1477989
3739,Anza Way,94578,37.6981077,-122.1479570
3733,Anza Way,94578,37.6981797,-122.1480941
3729,Anza Way,94578,37.6982780,-122.1482395
3725,Anza Way,94578,37.6984756,-122.1483328
3721,Anza Way,94578,37.6986338,-122.1481673
3717,Anza Way,94578,37.6987362,-122.1480299
3715,Anza Way,94578,37.6988810,-122.1478566
3713,Anza Way,94578,37.6989165,-122.1476924
3709,Anza Way,94578,37.6989921,-122.1475234
3707,Anza Way,94578,37.6990536,-122.1473733
3705,Anza Way,94578,37.6991266,-122.1471957
3701,Monterey Boulevard,94578,37.6993118,-122.1473992
325,Anza Way,94578,37.6951032,-122.1428877
333,Anza Way,94578,37.6950866,-122.1426402
343,Anza Way,94578,37.6950919,-122.1424554
347,Anza Way,94578,37.6950986,-122.1422546
351,Anza Way,94578,37.6951028,-122.1420571
355,Anza Way,94578,37.6951110,-122.1418761
359,Anza Way,94578,37.6951155,-122.1416752
3971,Mission Way,94578,37.6953870,-122.1417123
3965,Mission Way,94578,37.6953538,-122.1418954
3953,Mission Way,94578,37.6953516,-122.1420835
3945,Mission Way,94578,37.6953620,-122.1422713
3939,Mission Way,94578,37.6953391,-122.1424588
3931,Mission Way,94578,37.6953679,-122.1426438
3925,Mission Way,94578,37.6953222,-122.1428295
3917,Mission Way,94578,37.6953293,-122.1430117
3903,Mission Way,94578,37.6953683,-122.1432295
363,Anza Way,94578,37.6951269,-122.1412594
367,Anza Way,94578,37.6951334,-122.1410439
371,Anza Way,94578,37.6951398,-122.1408617
375,Anza Way,94578,37.6951464,-122.1406656
379,Anza Way,94578,37.6951516,-122.1404735
383,Anza Way,94578,37.6951577,-122.1402723
387,Anza Way,94578,37.6951637,-122.1400700
391,Anza Way,94578,37.6951682,-122.1398949
395,Anza Way,94578,37.6951764,-122.1396896
399,Anza Way,94578,37.6951796,-122.1395019
3979,Mission Way,94578,37.6953677,-122.1412620
3987,Mission Way,94578,37.6954087,-122.1410695
3993,Mission Way,94578,37.6953852,-122.1408482
3995,Mission Way,94578,37.6953723,-122.1406441
994,Crespi Drive,94578,37.6954310,-122.1404126
986,Crespi Drive,94578,37.6956105,-122.1403758
972,Crespi Drive,94578,37.6957861,-122.1404035
950,Crespi Drive,94578,37.6959369,-122.1404041
4021,Monterey Boulevard,94578,37.6960890,-122.1403885
916,Serra Drive,94578,37.6960328,-122.1429323
950,Serra Drive,94578,37.6958792,-122.1429284
972,Serra Drive,94578,37.6957272,-122.1429185
3930,Mission Way,94578,37.6957374,-122.1426751
3938,Mission Way,94578,37.6957823,-122.1424947
3942,Mission Way,94578,37.6957741,-122.1422986
3954,Mission Way,94578,37.6957720,-122.1421121
3968,Mission Way,94578,37.6957632,-122.1419221
3970,Mission Way,94578,37.6957649,-122.1417399
3974,Mission Way,94578,37.6958034,-122.1415543
3980,Mission Way,94578,37.6957676,-122.1413629
3986,Mission Way,94578,37.6957833,-122.1411666
975,Crespi Drive,94578,37.6957819,-122.1408970
951,Crespi Drive,94578,37.6959416,-122.1409335
915,Crespi Drive,94578,37.6960947,-122.1409352
3979,Monterey Boulevard,94578,37.6960514,-122.1411792
3973,Monterey Boulevard,94578,37.6960748,-122.1413771
3967,Monterey Boulevard,94578,37.6960768,-122.1415674
3961,Monterey Boulevard,94578,37.6960632,-122.1417545
3955,Monterey Boulevard,94578,37.6960542,-122.1419375
3949,Monterey Boulevard,94578,37.6960531,-122.1421281
3945,Monterey Boulevard,94578,37.6960217,-122.1423090
3937,Monterey Boulevard,94578,37.6960198,-122.1425005
3923,Monterey Boulevard,94578,37.6960052,-122.1426885
989,Serra Drive,94578,37.6956188,-122.1436344
967,Serra Drive,94578,37.6957364,-122.1435244
3880,Anza Way,94578,37.6957992,-122.1438245
3868,Anza Way,94578,37.6958960,-122.1439807
3862,Anza Way,94578,37.6959765,-122.1441025
3854,Anza Way,94578,37.6960855,-122.1442536
3850,Anza Way,94578,37.6961608,-122.1443952
3846,Anza Way,94578,37.6962642,-122.1445471
3840,Anza Way,94578,37.6963558,-122.1446995
3834,Anza Way,94578,37.6964810,-122.1448393
3826,Anza Way,94578,37.6965513,-122.1449736
3818,Anza Way,94578,37.6966726,-122.1451178
3711,Carmel Way,94578,37.6967985,-122.1453287
3733,Carmel Way,94578,37.6969092,-122.1451716
3777,Carmel Way,94578,37.6970291,-122.1450508
3821,Monterey Boulevard,94578,37.6968802,-122.1448683
3825,Monterey Boulevard,94578,37.6967858,-122.1447236
3833,Monterey Boulevard,94578,37.6966862,-122.1445873
3839,Monterey Boulevard,94578,37.6965660,-122.1444564
3847,Monterey Boulevard,94578,37.6964927,-122.1442990
3851,Monterey Boulevard,94578,37.6963905,-122.1441616
3865,Monterey Boulevard,94578,37.6962982,-122.1440173
3873,Monterey Boulevard,94578,37.6961741,-122.1438749
3889,Monterey Boulevard,94578,37.6960674,-122.1436796
3897,Monterey Boulevard,94578,37.6960270,-122.1434613
3710,Carmel Way,94578,37.6970475,-122.1457138
3734,Carmel Way,94578,37.6971632,-122.1455641
3770,Carmel Way,94578,37.6972715,-122.1454294
3795,Monterey Boulevard,94578,37.6974158,-122.1456639
3789,Monterey Boulevard,94578,37.6975192,-122.1457830
3783,Monterey Boulevard,94578,37.6976061,-122.1459277
3777,Monterey Boulevard,94578,37.6977079,-122.1460896
3769,Monterey Boulevard,94578,37.6978012,-122.1462009
3753,Monterey Boulevard,94578,37.6978779,-122.1463573
3745,Monterey Boulevard,94578,37.6980363,-122.1464942
3737,Monterey Boulevard,94578,37.6981689,-122.1465864
3731,Monterey Boulevard,94578,37.6983185,-122.1466968
3729,Monterey Boulevard,94578,37.6984425,-122.1467749
3715,Monterey Boulevard,94578,37.6985908,-122.1468827
3700,Anza Way,94578,37.6987825,-122.1469816
3704,Anza Way,94578,37.6987150,-122.1471681
3712,Anza Way,94578,37.6986461,-122.1473546
3716,Anza Way,94578,37.6985452,-122.1475228
3720,Anza Way,94578,37.6984380,-122.1476959
3742,Anza Way,94578,37.6982967,-122.1474478
3746,Anza Way,94578,37.6981813,-122.1473319
3748,Anza Way,94578,37.6981043,-122.1471740
3750,Anza Way,94578,37.6979801,-122.1470400
3754,Anza Way,94578,37.6978850,-122.1468815
3762,Anza Way,94578,37.6978017,-122.1467268
3766,Anza Way,94578,37.6976923,-122.1465719
3770,Anza Way,94578,37.6975992,-122.1464495
3778,Anza Way,94578,37.6974824,-122.1463165
3782,Anza Way,94578,37.6974071,-122.1461788
3786,Anza Way,94578,37.6972861,-122.1460319
3790,Anza Way,94578,37.6972147,-122.1458921
3810,Monterey Boulevard,94578,37.6973337,-122.1447613
3814,Monterey Boulevard,94578,37.6972192,-122.1446186
3826,Monterey Boulevard,94578,37.6971125,-122.1444703
833,Monterey Court,94578,37.6973409,-122.1443025
855,Monterey Court,94578,37.6974132,-122.1440792
866,Monterey Court,94578,37.6972381,-122.1438615
888,Monterey Court,94578,37.6970302,-122.1438836
3838,Monterey Boulevard,94578,37.6968828,-122.1441466
3846,Monterey Boulevard,94578,37.6967971,-122.1439736
3854,Monterey Boulevard,94578,37.6966702,-122.1438007
899,Serra Drive,94578,37.6964571,-122.1434520
893,Serra Drive,94578,37.6966026,-122.1434565
887,Serra Drive,94578,37.6967602,-122.1434507
871,Serra Drive,94578,37.6969063,-122.1434693
869,Serra Drive,94578,37.6970604,-122.1434629
853,Serra Drive,94578,37.6972086,-122.1434570
849,Serra Drive,94578,37.6973622,-122.1435056
835,Serra Drive,94578,37.6975131,-122.1435096
827,Serra Drive,94578,37.6976698,-122.1434934
811,Serra Drive,94578,37.6978149,-122.1434970
3895,Carmel Way,94578,37.6980504,-122.1434857
3881,Carmel Way,94578,37.6980594,-122.1436718
3867,Carmel Way,94578,37.6979913,-122.1439414
3853,Carmel Way,94578,37.6978946,-122.1441139
3835,Carmel Way,94578,37.6977367,-122.1442844
3827,Carmel Way,94578,37.6976185,-122.1444330
3819,Carmel Way,94578,37.6974903,-122.1445871
3808,Carmel Way,94578,37.6975686,-122.1451436
3816,Carmel Way,94578,37.6976723,-122.1450263
3822,Carmel Way,94578,37.6977877,-122.1448676
3830,Carmel Way,94578,37.6979106,-122.1447257
3838,Carmel Way,94578,37.6980274,-122.1446055
3846,Carmel Way,94578,37.6981630,-122.1444680
3854,Carmel Way,94578,37.6982695,-122.1443220
3862,Carmel Way,94578,37.6983568,-122.1441169
3870,Carmel Way,94578,37.6984448,-122.1439155
3886,Carmel Way,94578,37.6984530,-122.1436831
3894,Carmel Way,94578,37.6984676,-122.1434779
3902,Monterey Boulevard,94578,37.6964046,-122.1429877
3916,Monterey Boulevard,94578,37.6964303,-122.1427929
3934,Monterey Boulevard,94578,37.6964575,-122.1425929
895,Casanova Drive,94578,37.6966548,-122.1426379
871,Casanova Drive,94578,37.6968008,-122.1425988
867,Casanova Drive,94578,37.6969510,-122.1426443
855,Casanova Drive,94578,37.6970965,-122.1426519
849,Casanova Drive,94578,37.6972457,-122.1426438
837,Casanova Drive,94578,37.6973949,-122.1426506
831,Casanova Drive,94578,37.6975444,-122.1426420
823,Casanova Drive,94578,37.6976903,-122.1426461
815,Casanova Drive,94578,37.6978433,-122.1426560
3925,Carmel Way,94578,37.6980426,-122.1426189
3921,Carmel Way,94578,37.6980522,-122.1428166
3905,Carmel Way,94578,37.6980313,-122.1430144
808,Serra Drive,94578,37.6978381,-122.1430020
826,Serra Drive,94578,37.6976866,-122.1429993
832,Serra Drive,94578,37.6975411,-122.1430065
844,Serra Drive,94578,37.6973902,-122.1429626
850,Serra Drive,94578,37.6972439,-122.1429624
868,Serra Drive,94578,37.6970941,-122.1429498
872,Serra Drive,94578,37.6969481,-122.1429511
884,Serra Drive,94578,37.6967985,-122.1429664
896,Serra Drive,94578,37.6966530,-122.1429438
3948,Monterey Boulevard,94578,37.6964308,-122.1421376
3950,Monterey Boulevard,94578,37.6964715,-122.1419433
3962,Monterey Boulevard,94578,37.6964529,-122.1417442
893,Lasuen Drive,94578,37.6966723,-122.1417661
881,Lasuen Drive,94578,37.6968224,-122.1417856
875,Lasuen Drive,94578,37.6969682,-122.1417836
869,Lasuen Drive,94578,37.6971156,-122.1417976
857,Lasuen Drive,94578,37.6972593,-122.1417841
845,Lasuen Drive,94578,37.6974051,-122.1417693
833,Lasuen Drive,94578,37.6975476,-122.1418086
821,Lasuen Drive,94578,37.6976964,-122.1417637
809,Lasuen Drive,94578,37.6978443,-122.1418154
3955,Carmel Way,94578,37.6980704,-122.1417709
3947,Carmel Way,94578,37.6980419,-122.1419671
3943,Carmel Way,94578,37.6980589,-122.1421642
816,Casanova Drive,94578,37.6978409,-122.1421537
824,Casanova Drive,94578,37.6976938,-122.1421179
830,Casanova Drive,94578,37.6975463,-122.1421570
838,Casanova Drive,94578,37.6974010,-122.1421455
844,Casanova Drive,94578,37.6972534,-122.1421146
856,Casanova Drive,94578,37.6971123,-122.1421391
862,Casanova Drive,94578,37.6969646,-122.1421017
870,Casanova Drive,94578,37.6968180,-122.1421448
886,Casanova Drive,94578,37.6966719,-122.1421015
830,Crespi Drive,94578,37.6976333,-122.1404041
824,Crespi Drive,94578,37.6977891,-122.1404320
816,Crespi Drive,94578,37.6979357,-122.1404334
802,Crespi Drive,94578,37.6980822,-122.1404548
815,Carmel Court,94578,37.6980891,-122.1401183
821,Carmel Court,94578,37.6979388,-122.1400856
827,Carmel Court,94578,37.6977921,-122.1401191
833,Carmel Court,94578,37.6976471,-122.1400847
3978,Monterey Boulevard,94578,37.6964561,-122.1412901
3984,Monterey Boulevard,94578,37.6964698,-122.1410934
3996,Monterey Boulevard,94578,37.6964894,-122.1409015
895,Crespi Drive,94578,37.6967103,-122.1409442
873,Crespi Drive,94578,37.6968585,-122.1409188
861,Crespi Drive,94578,37.6970309,-122.1409379
859,Crespi Drive,94578,37.6971894,-122.1409274
847,Crespi Drive,94578,37.6973500,-122.1409503
835,Crespi Drive,94578,37.6975067,-122.1409429
829,Crespi Drive,94578,37.6976731,-122.1409630
817,Crespi Drive,94578,37.6978370,-122.1409745
3985,Carmel Way,94578,37.6980750,-122.1409234
3977,Carmel Way,94578,37.6980375,-122.1411203
3969,Carmel Way,94578,37.6980464,-122.1413155
810,Lasuen Drive,94578,37.6978268,-122.1412766
822,Lasuen Drive,94578,37.6976703,-122.1412682
834,Lasuen Drive,94578,37.6975049,-122.1412811
846,Lasuen Drive,94578,37.6973458,-122.1412586
858,Lasuen Drive,94578,37.6971848,-122.1412532
870,Lasuen Drive,94578,37.6970271,-122.1412979
876,Lasuen Drive,94578,37.6968609,-122.1412567
888,Lasuen Drive,94578,37.6967013,-122.1412923
14799,Washington Avenue,94578,37.6968534,-122.1397200
14795,Washington Avenue,94578,37.6971893,-122.1396185
300,Floresta Boulevard,94578,37.7006827,-122.1432483
250,Floresta Boulevard,94578,37.7002014,-122.1416712
14665,Washington Avenue,94578,37.6986721,-122.1408200
14665,Washington Avenue,94578,37.6989250,-122.1406717
14665,Washington Avenue,94578,37.6986798,-122.1403484
14665,Washington Avenue,94578,37.6986723,-122.1398418
14665,Washington Avenue,94578,37.6988617,-122.1399121
14665,Washington Avenue,94578,37.6990273,-122.1399822
14665,Washington Avenue,94578,37.6988183,-122.1395969
14665,Washington Avenue,94578,37.6992142,-122.1397616
14665,Washington Avenue,94578,37.6988226,-122.1405117
880,Floresta Boulevard,94578,37.6996147,-122.1469944
868,Floresta Boulevard,94578,37.6997055,-122.1468231
844,Floresta Boulevard,94578,37.6997462,-122.1466494
822,Floresta Boulevard,94578,37.6998324,-122.1464651
808,Floresta Boulevard,94578,37.6999117,-122.1463076
792,Floresta Boulevard,94578,37.6999880,-122.1461427
788,Floresta Boulevard,94578,37.7000556,-122.1459656
776,Floresta Boulevard,94578,37.7001306,-122.1457999
750,Floresta Boulevard,94578,37.7001779,-122.1456094
738,Floresta Boulevard,94578,37.7002729,-122.1454511
743,McClure Avenue,94578,37.7003369,-122.1452406
721,McClure Avenue,94578,37.7003871,-122.1450882
669,McClure Avenue,94578,37.7004514,-122.1449192
637,McClure Avenue,94578,37.7005156,-122.1447491
575,McClure Avenue,94578,37.7005784,-122.1445812
533,McClure Avenue,94578,37.7006430,-122.1444111
511,McClure Avenue,94578,37.7007071,-122.1442421
3718,Mortensen Road,94578,37.7004907,-122.1440957
3730,Mortensen Road,94578,37.7003614,-122.1440128
3742,Mortensen Road,94578,37.7002327,-122.1439264
3764,Mortensen Road,94578,37.6999970,-122.1437524
3776,Mortensen Road,94578,37.6998689,-122.1436687
3717,Lamoureux Street,94578,37.6999218,-122.1456824
3731,Lamoureux Street,94578,37.6997624,-122.1455680
3745,Lamoureux Street,94578,37.6996254,-122.1454781
3753,Lamoureux Street,94578,37.6994876,-122.1453887
3767,Lamoureux Street,94578,37.6993518,-122.1452988
3779,Lamoureux Street,94578,37.6992141,-122.1452089
3785,Lamoureux Street,94578,37.6990931,-122.1451482
3768,Lamoureux Street,94578,37.6994928,-122.1449454
3754,Lamoureux Street,94578,37.6996458,-122.1450455
3740,Lamoureux Street,94578,37.6998012,-122.1451481
3726,Lamoureux Street,94578,37.6999608,-122.1452566
3725,Avansino Street,94578,37.7000897,-122.1450568
3733,Avansino Street,94578,37.6999458,-122.1449604
3741,Avansino Street,94578,37.6998095,-122.1448699
3757,Avansino Street,94578,37.6996714,-122.1447812
3769,Avansino Street,94578,37.6995356,-122.1446913
3728,Avansino Street,94578,37.7002426,-122.1447121
3736,Avansino Street,94578,37.7001116,-122.1446235
3744,Avansino Street,94578,37.6999793,-122.1445387
3762,Avansino Street,94578,37.6998471,-122.1444509
3770,Avansino Street,94578,37.6996917,-122.1443404
3747,Mortensen Road,94578,37.7000305,-122.1442460
3735,Mortensen Road,94578,37.7001701,-122.1443385
3721,Mortensen Road,94578,37.7003122,-122.1444359
3759,Mortensen Road,94578,37.6999065,-122.1441721
774,Hamlin Way,94578,37.6991733,-122.1448658
758,Hamlin Way,94578,37.6992441,-122.1446940
732,Hamlin Way,94578,37.6993162,-122.1445211
670,Hamlin Way,94578,37.6993777,-122.1443024
644,Hamlin Way,94578,37.6994489,-122.1441315
628,Hamlin Way,94578,37.6995199,-122.1439599
586,Hamlin Way,94578,37.6995905,-122.1437874
542,Hamlin Way,94578,37.6996626,-122.1436152
500,Hamlin Way,94578,37.6997348,-122.1434428
4022,Monterey Boulevard,94578,37.6965129,-122.1403964
894,Crespi Drive,94578,37.6966733,-122.1404188
888,Crespi Drive,94578,37.6968384,-122.1404013
872,Crespi Drive,94578,37.6969914,-122.1404050
860,Crespi Drive,94578,37.6971365,-122.1404097
854,Crespi Drive,94578,37.6973022,-122.1404244
4057,Crespi Court,94578,37.6972640,-122.1401532
4071,Crespi Court,94578,37.6972622,-122.1399605
850,Carmel Court,94578,37.6973538,-122.1396140
844,Carmel Court,94578,37.6975297,-122.1395582
836,Carmel Court,94578,37.6976729,-122.1395701
828,Carmel Court,94578,37.6978175,-122.1395945
820,Carmel Court,94578,37.6979629,-122.1396002
814,Carmel Court,94578,37.6981172,-122.1395868
806,Carmel Court,94578,37.6982693,-122.1395548
800,Carmel Court,94578,37.6984623,-122.1396406
4092,Carmel Way,94578,37.6984941,-122.1398754
4078,Carmel Way,94578,37.6984745,-122.1400866
4046,Carmel Way,94578,37.6984561,-122.1402713
4020,Carmel Way,94578,37.6984768,-122.1404539
3998,Carmel Way,94578,37.6984755,-122.1406364
3990,Carmel Way,94578,37.6984621,-122.1408171
3984,Carmel Way,94578,37.6984444,-122.1410053
3972,Carmel Way,94578,37.6984755,-122.1411839
3966,Carmel Way,94578,37.6984809,-122.1413740
3960,Carmel Way,94578,37.6984707,-122.1415513
3956,Carmel Way,94578,37.6984707,-122.1417354
3948,Carmel Way,94578,37.6984712,-122.1419181
3944,Carmel Way,94578,37.6984452,-122.1421022
3940,Carmel Way,94578,37.6984441,-122.1422819
3932,Carmel Way,94578,37.6984482,-122.1424681
3924,Carmel Way,94578,37.6984727,-122.1426520
3918,Carmel Way,94578,37.6984367,-122.1428351
3906,Carmel Way,94578,37.6984450,-122.1430194
14595,Washington Avenue,94578,37.7001310,-122.1404378
14601,Washington Avenue,94578,37.7000413,-122.1403041
577,Aladdin Avenue,94577,37.7106117,-122.1523826
2650,Alvarado Street,94577,37.7102965,-122.1547899
661,Aladdin Avenue,94577,37.7101317,-122.1535988
797,Montague Avenue,94577,37.7114326,-122.1558062
785,Montague Avenue,94577,37.7116066,-122.1553731
2450,Alvarado Street,94577,37.7125894,-122.1556900
761,Montague Avenue,94577,37.7119009,-122.1550801
631,Montague Avenue,94577,37.7122827,-122.1538491
595,Montague Avenue,94577,37.7123134,-122.1532074
591,Montague Avenue,94577,37.7121230,-122.1530671
555,Montague Avenue,94577,37.7118864,-122.1523600
600,Montague Avenue,94577,37.7115266,-122.1536420
700,Montague Avenue,94577,37.7112648,-122.1541510
792,Montague Avenue,94577,37.7108718,-122.1552216
2595,Alvarado Street,94577,37.7112413,-122.1563543
13535,Doolittle Drive,94577,37.7012658,-122.1781982
13545,Doolittle Drive,94577,37.7010003,-122.1780342
2211,West Avenue 136,94577,37.7007877,-122.1779200
2249,West Avenue 135,94577,37.7010420,-122.1786475
2217,West Avenue 136,94577,37.7006752,-122.1781328
2229,West Avenue 136,94577,37.7008699,-122.1782353
2257,West Avenue 136,94577,37.7004789,-122.1786062
2251,West Avenue 136,94577,37.7007410,-122.1787982
2271,West Avenue 136,94577,37.7003873,-122.1788351
13560,Doolittle Drive,94577,37.7012358,-122.1774997
13570,Doolittle Drive,94577,37.7010214,-122.1773860
2145,West Avenue 136,94577,37.7011547,-122.1770720
2133,West Avenue 136,94577,37.7012392,-122.1767962
2109,West Avenue 136,94577,37.7014418,-122.1762965
2050,West Avenue 136,94577,37.7011948,-122.1758974
2056,West Avenue 136,94577,37.7010747,-122.1757421
2100,West Avenue 136,94577,37.7010842,-122.1761615
2106,West Avenue 136,94577,37.7010425,-122.1759642
2114,West Avenue 136,94577,37.7010029,-122.1763677
2120,West Avenue 136,94577,37.7007548,-122.1762252
2136,West Avenue 136,94577,37.7008957,-122.1765349
2138;2140,West Avenue 136,94577,37.7007268,-122.1765377
2152,West Avenue 136,94577,37.7008145,-122.1768274
13608,Doolittle Drive,94577,37.7007250,-122.1771252
13614,Doolittle Drive,94577,37.7004860,-122.1770205
13620,Doolittle Drive,94577,37.7002892,-122.1768942
13630,Doolittle Drive,94577,37.7000996,-122.1767342
2161;2169,Fairway Drive,94577,37.7002248,-122.1764765
2155,Fairway Drive,94577,37.7003452,-122.1763183
2123,Fairway Drive,94577,37.7004507,-122.1759723
2107,Fairway Drive,94577,37.7005511,-122.1757888
2115,Fairway Drive,94577,37.7006920,-122.1758739
2093,Fairway Drive,94577,37.7006656,-122.1755426
2095,Fairway Drive,94577,37.7008586,-122.1756719
2031,Fairway Drive,94577,37.7009002,-122.1753532
2027,Fairway Drive,94577,37.7009274,-122.1751206
2013,Fairway Drive,94577,37.7009449,-122.1748221
2015,Fairway Drive,94577,37.7011164,-122.1748673
2011,Fairway Drive,94577,37.7012788,-122.1747192
2315,Fairway Drive,94577,37.6993638,-122.1789251
2297,Fairway Drive,94577,37.6994081,-122.1785217
2299,Fairway Drive,94577,37.6995426,-122.1787295
2273,Fairway Drive,94577,37.6994824,-122.1783363
2255,Fairway Drive,94577,37.6997092,-122.1780872
2233,Fairway Drive,94577,37.6997773,-122.1779044
2217,Fairway Drive,94577,37.6998177,-122.1775548
13655,Doolittle Drive,94577,37.7000314,-122.1773534
13601,Doolittle Drive,94577,37.7002780,-122.1775507
2220,West Avenue 136,94577,37.7003568,-122.1779623
2230,West Avenue 136,94577,37.7002507,-122.1781945
2228,West Avenue 136,94577,37.7000741,-122.1780794
2250,West Avenue 136,94577,37.7001599,-122.1784445
2270,West Avenue 136,94577,37.7000508,-122.1786892
2274,West Avenue 136,94577,37.6999044,-122.1785896
2290,West Avenue 136,94577,37.6999491,-122.1789392
1696,Hays Street,94577,37.7209415,-122.1549121
258,Thornton Street,94577,37.7210593,-122.1547575
277,Parrott Street,94577,37.7216313,-122.1552224
1604,San Leandro Boulevard,94577,37.7201230,-122.1584274
1550,San Leandro Boulevard,94577,37.7206765,-122.1588980
2154,Washington Avenue,94577,37.7171795,-122.1508692
2950,Merced Street,95477,37.7013006,-122.1654148
1933,Davis Street,94577,37.7167278,-122.1797707
100,Thornton Street,94577,37.7216916,-122.1529870
1400,Carpentier Street,94577,37.7223461,-122.1582242
10051,Doolittle Drive,94603,37.7196854,-122.1963742
14365,Bancroft Avenue,94578,37.7117212,-122.1363839
14377,Bancroft Avenue,94578,37.7117341,-122.1356894
14433,Bancroft Avenue,94578,37.7115055,-122.1353578
14444,East 14th Street,94578,37.7109636,-122.1359536
2500,Merced Street,94577,37.7063739,-122.1651660
