House number,Street name,Postal code,Latitude,Longitude
650,Del Rosa Drive,92410,34.1115477,-117.2545644
1541,West Baseline Street,92411,34.1211220,-117.3197660
1168,North Waterman Avenue,92410,34.1206577,-117.2790069
2372,Sterling Avenue,92404,34.1368505,-117.2440190
1001,North Arrowhead Avenue,92410,34.1066120,-117.2898746
467,East Gilbert Street,92404,34.1264585,-117.2753942
1087,West Mill Street,92410,34.0919010,-117.3074656
1335,North Waterman Avenue,92404,34.1242721,-117.2783022
1850,Waterman Avenue,92404,34.1319685,-117.2791055
2564,Kendall Dr,92407,34.1838465,-117.3457914
2588,Kendall Dr,92407,34.1842143,-117.3464885
2604,Kendall Dr,92407,34.1846149,-117.3471661
2640,Kendall Dr,92407,34.1854692,-117.3475043
2652,Shadow Hills Dr,92407,34.1856405,-117.3475824
5510,Valles Dr,92407,34.1815905,-117.3325124
5518,Valles Dr,92407,34.1816991,-117.3327231
5519,Valles Dr,92407,34.1819998,-117.3327634
5527,Valles Dr,92407,34.1820975,-117.3328633
5541,Valles Dr,92407,34.1829812,-117.3338608
1912,Ash St,92407,34.1836577,-117.3337530
3653,East Highland Avenue,92346,34.1354580,-117.2074514
758,West Highland Avenue,92405,34.1362546,-117.2999880
718,West Highland Avenue,92405-3839,34.1363534,-117.2989890
808,West Highland Avenue,92405,34.1362528,-117.3014879
555,S. H Street,92410,34.0897117,-117.3007270
3588,Highland Avenue,92346,34.1360125,-117.2091916
580,Inland Center Drive,92408,34.0916766,-117.2964835
4023,University Parkway,92407,34.1647571,-117.3321680
397,West Baseline Street,92410,34.1210201,-117.2915815
1905,Business Center Drive,92408,34.0675192,-117.2798680
473,East Carnegie Drive,92408,34.0685316,-117.2720200
4001,Hallmark Parkway,92407,34.1655110,-117.3360680
1725,Northpark Boulevard,92407,34.1786477,-117.3279230
1800,Medical Center Drive,92411,34.1315658,-117.3231144
3633,Highland Avenue,92346,34.1343034,-117.2077413
2442,Highland Avenue,92346,34.1361204,-117.2341370
2565,Highland Avenue,92346,34.1350381,-117.2318210
2505,Highland Avenue,92346,34.1355561,-117.2329040
844,East 9th Street,92410,34.1163667,-117.2666811
4140,East Highland Avenue,92346,34.1361288,-117.1970739
4365,University Parkway,92407,34.1679129,-117.3318666
473,E Carnegie Dr #238,92408,34.0693694,-117.2701233
599,West Rialto Avenue,92401,34.0997075,-117.2958883
707,W 2nd Street,92401,34.1024488,-117.2992170
500,Inland Center Drive,92408,34.0841361,-117.2992130
1050,Harriman Place,92408,34.0667825,-117.2643658
1498,South Tippecanoe Avenue,92408,34.0736366,-117.2605340
525,Mount Vernon Avenue,92411,34.1089044,-117.3135507
376,West Court Street,92401,34.1058097,-117.2910135
1136,North Mount Vernon Avenue,92411,34.1204290,-117.3142154
1588,West Base Line Road,92411,34.1220513,-117.3223138
1632,East Gould Street,92354,34.0710195,-117.2516812
1642,East Gould Street,92354,34.0710176,-117.2514996
1605,South Richardson Street,92354,34.0711820,-117.2520859
1656,East Gould Street,92354,34.0710156,-117.2513180
1704,East Gould Street,92354,34.0710080,-117.2505916
1736,East Gould Street,92354,34.0710020,-117.2500467
1694,East Gould Street,92354,34.0710098,-117.2507732
1668,East Gould Street,92354,34.0710138,-117.2511364
1682,East Gould Street,92354,34.0710118,-117.2509548
1657,East Gould Street,92354,34.0704056,-117.2513184
1669,East Gould Street,92354,34.0704037,-117.2511369
1643,East Gould Street,92354,34.0704076,-117.2515001
1665,South Richardson Street,92354,34.0705690,-117.2520796
1631,East Gould Street,92354,34.0704095,-117.2516808
1683,East Gould Street,92354,34.0704018,-117.2509553
1727,East Gould Street,92354,34.0703940,-117.2502289
1737,East Gould Street,92354,34.0703920,-117.2500473
1715,East Gould Street,92354,34.0703960,-117.2504105
1695,East Gould Street,92354,34.0703998,-117.2507737
1705,East Gould Street,92354,34.0703980,-117.2505921
1794,East Gould Street,92354,34.0709923,-117.2491388
1804,East Gould Street,92354,34.0709903,-117.2489572
1782,East Gould Street,92354,34.0709942,-117.2493204
1760,East Gould Street,92354,34.0710051,-117.2496835
1772,East Gould Street,92354,34.0709963,-117.2495019
1814,East Gould Street,92354,34.0709885,-117.2487756
1635,South Richardson Street,92354,34.0708687,-117.2520799
1634,Curtis Street,92354,34.0708281,-117.2484315
1618,Curtis Street,92354,34.0709862,-117.2484322
1604,Curtis Street,92354,34.0711427,-117.2484324
1619,South Richardson Street,92354,34.0710253,-117.2520856
1761,East Gould Street,92354,34.0703882,-117.2496841
1782,East Coulston Street,92354,34.0688260,-117.2493167
1794,East Coulston Street,92354,34.0688244,-117.2491351
1772,East Coulston Street,92354,34.0688278,-117.2494983
1748,East Coulston Street,92354,34.0688312,-117.2498615
1760,East Coulston Street,92354,34.0688295,-117.2496799
1804,East Coulston Street,92354,34.0688226,-117.2489535
1824,East Coulston Street,92354,34.0686611,-117.2484246
1810,Curtis Street,92354,34.0688207,-117.2484248
1814,East Coulston Street,92354,34.0688209,-117.2487719
1804,Curtis Street,92354,34.0689774,-117.2484254
1736,East Coulston Street,92354,34.0688329,-117.2500431
1736,East Davidson Street,92354,34.0699193,-117.2500466
1748,East Davidson Street,92354,34.0699174,-117.2498650
1726,East Davidson Street,92354,34.0699213,-117.2502282
1704,East Davidson Street,92354,34.0699253,-117.2505913
1714,East Davidson Street,92354,34.0699233,-117.2504098
1794,East Davidson Street,92354,34.0698411,-117.2491358
1765,South Richardson Street,92354,34.0694863,-117.2520777
1637,East Davidson Street,92354,34.0693268,-117.2516699
1748,Curtis Street,92354,34.0695558,-117.2484277
1719,South Richardson Street,92354,34.0699426,-117.2520837
1805,East Gould Street,92354,34.0703802,-117.2489577
1815,East Gould Street,92354,34.0703784,-117.2487753
1795,East Gould Street,92354,34.0703822,-117.2491393
1773,East Gould Street,92354,34.0703862,-117.2495025
1783,East Gould Street,92354,34.0703842,-117.2493209
1679,South Richardson Street,92354,34.0703342,-117.2520844
1672,East Davidson Street,92354,34.0699311,-117.2511361
1694,East Davidson Street,92354,34.0699271,-117.2507729
1660,East Davidson Street,92354,34.0699331,-117.2513177
1705,South Richardson Street,92354,34.0700993,-117.2520840
1648,East Davidson Street,92354,34.0699351,-117.2514993
1630,East Coulston Street,92354,34.0688483,-117.2516717
1642,East Coulston Street,92354,34.0688466,-117.2514901
1805,South Richardson Street,92354,34.0690166,-117.2520829
1795,South Richardson Street,92354,34.0691732,-117.2520832
1825,East Davidson Street,92354,34.0691385,-117.2484588
1656,East Coulston Street,92354,34.0688449,-117.2513143
1714,East Coulston Street,92354,34.0688363,-117.2504063
1726,East Coulston Street,92354,34.0688346,-117.2502247
1704,East Coulston Street,92354,34.0688380,-117.2505879
1668,East Coulston Street,92354,34.0688431,-117.2511327
1694,East Coulston Street,92354,34.0688398,-117.2507695
1695,East Davidson Street,92354,34.0693172,-117.2507702
1705,East Davidson Street,92354,34.0693152,-117.2505886
1673,East Davidson Street,92354,34.0693210,-117.2511333
1649,East Davidson Street,92354,34.0693249,-117.2514883
1661,East Davidson Street,92354,34.0693230,-117.2513149
1727,East Davidson Street,92354,34.0693113,-117.2502254
1783,East Davidson Street,92354,34.0692719,-117.2493204
1795,East Davidson Street,92354,34.0691869,-117.2490194
1773,East Davidson Street,92354,34.0692993,-117.2494999
1737,East Davidson Street,92354,34.0693095,-117.2500438
1749,East Davidson Street,92354,34.0693075,-117.2498622
455,West 4th Street,92401,34.1063014,-117.2930808
426,West Court Street,92401,34.1056314,-117.2925132
1258,West 5th Street,92411,34.1087455,-117.3128537
1248,West 5th Street,92411,34.1087936,-117.3126387
1208,West 5th Street,92411,34.1087446,-117.3119375
1222,West 5th Street,92411,34.1087437,-117.3121832
1170,West 3rd Street,92410,34.1042465,-117.3099064
1170,West 3rd Street,92410,34.1042376,-117.3094343
1170,West 3rd Street,92410,34.1042110,-117.3102443
255,South Leland Norton Way,92408,34.0977518,-117.2463157
255,South Leland Norton Way,92408,34.0963686,-117.2464847
3800,North Sierra Way,92405,34.1615463,-117.2858335
3694,E Highland Ave,92346,34.1363977,-117.2067488
290,North D Street,92401,34.1042275,-117.2923722
473,East Carnegie Drive,92408,34.0677540,-117.2746978
1170,West 3rd Street,92415,34.1042376,-117.3092039
777,East Rialto Avenue,92415,34.1007437,-117.2706467
777,East Rialto Avenue,92415,34.1001901,-117.2705418
420,East Hospitality Lane,92408,34.0668650,-117.2758250
1156,N F St,92410,34.1203417,-117.2968552
599,Inland Center Drive,92408,34.0902789,-117.2954407
494,South Mount Vernon Avenue,92410,34.0924443,-117.3140542
1001,North Arrowhead Avenue,92410,34.1066157,-117.2899264
1170,West 3rd Street,92410,34.1042846,-117.3096359
157,West 5th Street,92415,34.1079944,-117.2863843
655,East Third Street,92415,34.1038033,-117.2731692
655,East Third Street,92415,34.1036878,-117.2731692
655,East Third Street,92415,34.1035723,-117.2731585
655,East Third Street,92415,34.1037677,-117.2725119
655,East Third Street,92415,34.1036389,-117.2725201
799,West Baseline Street,92410,34.1210747,-117.3005850
1880,Mountain View Avenue,92354,34.0673415,-117.2439425
2627,South Waterman Avenue,92408,34.0534719,-117.2782960
900,East Gilbert Street,92404,34.1313022,-117.2681736
601,North E Street,92415,34.1107787,-117.2939222
4294,University Pkwy,92407,34.1669286,-117.3326410
599,West Rialto Avenue,92401,34.1002782,-117.2960660
385,East Hospitality Lane,92408,34.0656897,-117.2776991
536,West Baseline Street,92410,34.1218241,-117.2951317
458,South Inland Center Drive,92408,34.0857217,-117.2976989
500,Inland Center Drive,92408,34.0856404,-117.2977674
464,West Fourth Street,92401,34.1067971,-117.2936176
1845,South Business Center Drive,92408,34.0689041,-117.2833556
464,West 4th Street,92401,34.1068071,-117.2934770
464,West Fourth Street,92401,34.1066796,-117.2937286
464,West 4th Street,92401,34.1068144,-117.2937268
464,West Fourth Street,92401,34.1068159,-117.2932844
301,East Vanderbilt Way,92408,34.0683611,-117.2780410
685,East Carnegie Drive,92408,34.0684311,-117.2710870
1601,East 3rd Street,92408,34.1033029,-117.2508725
1601,East Third Street,92408,34.1034032,-117.2508584
1601,East Third Street,92408,34.1035653,-117.2508638
280,South E Street,92401,34.0974202,-117.2954625
2568,East Baseline Street,92346,34.1226543,-117.2314791
1075,East Madrona Street,92376,34.1169604,-117.3490471
430,East Vanderbilt Way,92408,34.0692251,-117.2764021
430,East Vanderbilt Way,92408,34.0693074,-117.2762193
4594,University Parkway,92407,34.1700621,-117.3343000
4308,Highland Avenue,92401,34.1364576,-117.1929190
444,East Baseline Street,92410,34.1221927,-117.2758318
1522,East Highland Avenue,92404,34.1368811,-117.2541087
161,East 40th Street,92404,34.1638030,-117.2827669
977,Kendall Drive,92407,34.1629971,-117.3056380
1150,South East Street,92408,34.0801609,-117.2958894
837,East Brier Drive,92408,34.0709154,-117.2682769
550,East Hospitality Lane,92408,34.0669533,-117.2738535
701,North Mount Vernon Avenue,92410,34.0861287,-117.3119401
1201,East Highland Avenue,92404,34.1345364,-117.2606248
268,West Hospitality Lane,92415,34.0665360,-117.2889163
240,East 40th Street,92404,34.1651443,-117.2811917
568,South Mount Vernon Avenue,92410,34.0917460,-117.3141337
1575,East Highland Avenue,92404,34.1355000,-117.2527415
699,West 2nd Street,92410,34.1024498,-117.2982016
395,North E Street,92401,34.1061940,-117.2938448
701,South Mount Vernon Avenue,92410,34.0870478,-117.3132648
1777,West Baseline Street,92411,34.1210147,-117.3268863
1762,North Waterman Avenue,92404,34.1309130,-117.2793476
105,North Leland Norton Way,92408,34.1007908,-117.2464791
801,North Sierra Way,92410,34.1142466,-117.2843760
211,East 9th Street,92410,34.1139498,-117.2832699
5500,University Parkway,92407,34.1874334,-117.3281166
5500,University Parkway,92407,34.1819191,-117.3222635
3211,Kendall Dr,92407,34.1917731,-117.3605729
1170,West 3rd Street,92410,34.1041982,-117.3098351
194,North Rancho Avenue,92410,34.1029589,-117.3357003
3102,East Highland Avenue,92369,34.1394954,-117.2196468
777,San Manuel Boulevard,92346,34.1506423,-117.2291173
1099,East Hospitality Lane,92408-2813,34.0678217,-117.2624786
1805,Medical Center Drive,92411,34.1317400,-117.3203784
2101,North Waterman Avenue,92404,34.1349946,-117.2756821
570,East Highland Ave,92404,34.1389419,-117.2764385
2500,Pacific Avenue,92346,34.1308828,-117.2326670
280,South E Street,92418,34.0967369,-117.2964062
351,North Arrowhead Avenue,92415,34.1055038,-117.2890359
385,North Arrowhead Avenue,92415,34.1063739,-117.2885143
104,West 4th Street,92415,34.1067745,-117.2856790
401,North Arrowhead Avenue,92415,34.1067334,-117.2892117
464,West 4th Street,92401,34.1067071,-117.2933671
402,North D Street,92401,34.1066602,-117.2923588
710,North D Street,92401,34.1125237,-117.2923923
665,East 3rd Street,92415,34.1037041,-117.2728662
701,South Mount Vernon Avenue,92410,34.0874965,-117.3107323
3433,Parkside Drive,92404,34.1527111,-117.2746566
1310,Waterman Avenue,92404,34.1236506,-117.2791715
4020,Highland Avenue,92346-2637,34.1374634,-117.1985117
4150,East Highland Avenue,92346-2770,34.1362701,-117.1964612
4210,Highland Avenue,92346,34.1376488,-117.1947957
1394,E Street,92405,34.1252108,-117.2944318
1910,East Central Avenue,92401,34.0883492,-117.2460337
2020,East Central Avenue,92401,34.0898801,-117.2413085
1055,Harriman Place,92408,34.0653953,-117.2625638
695,East Hospitality Lane,92408,34.0646710,-117.2708993
888,Harriman Place,92408,34.0667803,-117.2670697
3380,Little Mountain Drive,92405,34.1527897,-117.3242654
599,Inland Center Drive,92408,34.0902474,-117.2954433
293,D Street,92401,34.1041548,-117.2916339
371,West 3rd Street,92415,34.1042821,-117.2909916
303,West 3rd Street,92415,34.1042037,-117.2902508
247,West 3rd Street,92415,34.1042890,-117.2886949
2067,East Highland Avenue,92404,34.1355651,-117.2418951
299,East Baseline Street,92410,34.1209915,-117.2790832
935,North Waterman,92410-3801,34.1163550,-117.2783692
263,East 9th Street,92401,34.1146565,-117.2800086
2384,Arden Avenue,92404,34.1379565,-117.2354055
562,West 4th Street,92401,34.1068016,-117.2954678
4155,University Parkway,92407-4699,34.1660518,-117.3320469
1600,South Camino Real,92408,34.0714599,-117.2967488
1055,West 21st Street,92405,34.1332414,-117.3067341
1085,West Highland Avenue,92405,34.1349855,-117.3081445
625,East Hospitality Lane,92408-3539,34.0647352,-117.2725953
595,East Hospitality Lane,92408,34.0646224,-117.2731145
862,East Hospitality Lane,92408,34.0700610,-117.2674093
685,East Carnegie Drive,92408,34.0686321,-117.2709304
410,Parkcenter Circle North,92408,34.0764237,-117.2765241
450,Parkcenter Circle North,92408,34.0759361,-117.2750694
1365,South Waterman Avenue,92408,34.0760733,-117.2778000
1395,South Waterman Avenue,92408,34.0755197,-117.2777075
359,Parkcenter Circle South,92408,34.0742404,-117.2771553
1505,South Richardson Street,92408,34.0724691,-117.2511097
1679,South Richardson Street,92408,34.0703855,-117.2520726
1605,East Victoria Avenue,92408,34.0738759,-117.2521639
1720,Mountain View Avenue,92354,34.0701010,-117.2448735
350,Parkcenter Circle North,92408,34.0767186,-117.2769817
430,Parkcenter Circle North,92408,34.0760448,-117.2756710
1601,"East Third Street,",92408,34.0962964,-117.2342234
1250,East 9th Street,92410,34.1170251,-117.2578551
2525,Highland Avenue,92346,34.1355397,-117.2322288
2575,Highland Avenue,92346,34.1355225,-117.2308669
2750,West 2nd Street,92410,34.1037321,-117.3493558
2555,Glen Helen Parkway,92407,34.2080678,-117.4044361
5378,North H Street,92407,34.1793716,-117.3012839
111,East Hospitality Lane,92408,34.0655398,-117.2849185
205,East Hospitality Lane,92408,34.0650810,-117.2830101
225,East Hospitality Lane,92408,34.0648787,-117.2823999
285,East Hospitality Lane,92408-3411,34.0653243,-117.2801643
395,East Hospitality Lane,92408,34.0659637,-117.2765212
575,East Hospitality Lane,92408,34.0656254,-117.2730055
294,East Hospitality Lane,92408,34.0665414,-117.2794784
201,East Airport Drive,92408,34.0667201,-117.2840321
228,West Hospitality Lane,92408,34.0665447,-117.2878609
268,West Hospitality Lane,92415,34.0664997,-117.2890370
348,West Hospitality Lane,92415,34.0662430,-117.2908542
222,West Hospitality Lane,92415,34.0680079,-117.2879511
745,East Hospitality Lane,92408,34.0660301,-117.2695117
795,West 5th Street,92410,34.1079083,-117.3006130
1065,E. Harriman Place,92408,34.0664654,-117.2618594
1831,West Northpark Boulevard,92407,34.1800619,-117.3295552
1800,Medical Center Drive,92411,34.1313732,-117.3234713
2208,Arden Avenue,92404,34.1363026,-117.2352204
2050,East Pacific Street,92404,34.1290680,-117.2424253
4424,University Parkway,92407,34.1690683,-117.3333873
4694,University Parkway,92407,34.1705534,-117.3340455
4444,University Parkway,92407,34.1696593,-117.3343440
639,South Crescent Avenue,92410,34.0893059,-117.2982245
600,South G Street,92410,34.0905223,-117.2983170
555,South H Street,92410,34.0901777,-117.3000722
689,South E Street,92408,34.0867586,-117.2918825
1760,West 16th Street,92411,34.1292439,-117.3254891
670,Ramona Avenue,92411,34.1107674,-117.3220821
950,South E Street,92408,34.0841789,-117.2943336
900,N E Street,92410,34.1164721,-117.2948095
395,North H Street,92410,34.1060841,-117.3003439
630,East Rialto Avenue,92415,34.1023993,-117.2732725
900,East Gilbert Street,92415,34.1324939,-117.2685346
1717,West 5th Street,92411,34.1073783,-117.3248177
1250,North Medical Center Drive,92411,34.1227607,-117.3243467
450,North E Street,92401,34.1074573,-117.2949746
4001,Hallmark Parkway,92407,34.1653849,-117.3361201
4020,University Parkway,92407,34.1638671,-117.3341604
1990,Ostrems Way,92407,34.1620390,-117.3343146
4060,North Hallmark Parkway,92407,34.1638440,-117.3374630
2373,Sterling Avenue,92404,34.1379058,-117.2428470
771,South J Street,92410,34.0855475,-117.3043056
555,East Orange Show Road,92408,34.0782445,-117.2732939
900,East Gilbert Street,92415,34.1314056,-117.2680053
900,East Gilbert Street,92415,34.1306444,-117.2688808
900,East Gilbert Street,92415,34.1300099,-117.2680447
900,East Gilbert Street,92415,34.1301826,-117.2672467
860,East Gilbert Street,92415,34.1289858,-117.2681902
740,East Gilbert Street,92415,34.1290128,-117.2710245
820,East Gilbert Street,92415,34.1290822,-117.2697793
840,East Gilbert Street,92415,34.1285060,-117.2696131
720,East Gilbert Street,92415,34.1284072,-117.2711030
700,East Gilbert Street,92415,34.1276112,-117.2710722
780,East Gilbert Street,92415,34.1273626,-117.2696902
670,East Gilbert Street,92415,34.1278199,-117.2722517
1501,Anton Court,92404,34.1276923,-117.2673784
3800,North Sierra Way,92405,34.1607465,-117.2856073
292,North G Street,92410,34.1040160,-117.3006060
390,N H St,92410,34.1061948,-117.3012498
1108,West 2nd Street,92410,34.1032904,-117.3083161
655,West 2nd Street,92415,34.1013402,-117.2973021
655,West Rialto Avenue,92415,34.1005338,-117.2975760
455,West 2nd Street,92401,34.1022580,-117.2935246
255,West 13th Street,92405,34.1223460,-117.2885605
494,East 9th Street,92410,34.1172013,-117.2744547
1050,North Del Rosa Avenue,92410,34.1178909,-117.2545583
2772,North Sterling Avenue,92404,34.1432301,-117.2454305
2525,North Arrowhead Avenue,92405,34.1389871,-117.2892120
777,North F Street,92410,34.1129932,-117.2958122
345,West 7th Street,92401,34.1118190,-117.2906581
646,North D Street,92401,34.1110710,-117.2922767
1480,West 11th Street,92411,34.1204275,-117.3167988
1208,North Mount Vernon Boulevard,92411,34.1216137,-117.3142541
1584,West Baseline Street,92411,34.1223195,-117.3212932
1540,West Baseline Street,92411,34.1223062,-117.3194830
1700,West 5th Street,92411,34.1093037,-117.3248430
2467,West Mill Street,92410,34.0918493,-117.3451588
222,South Rancho Avenue,92410,34.0964564,-117.3354335
222,South Rancho Avenue,92410,34.0965951,-117.3354389
222,South Rancho Avenue,92410,34.0964620,-117.3356231
222,South Rancho Avenue,92410,34.0964649,-117.3357948
222,South Rancho Avenue,92410,34.0964709,-117.3359564
222,South Rancho Avenue,92410,34.0964632,-117.3361236
222,South Rancho Avenue,92410,34.0964587,-117.3362829
222,South Rancho Avenue,92410,34.0964450,-117.3364868
222,South Rancho Avenue,92410,34.0964175,-117.3366305
222,South Rancho Avenue,92410,34.0962851,-117.3367657
222,South Rancho Avenue,92410,34.0963815,-117.3368727
222,South Rancho Avenue,92410,34.0964467,-117.3369937
222,South Rancho Avenue,92410,34.0965570,-117.3368256
222,South Rancho Avenue,92410,34.0966249,-117.3366867
222,South Rancho Avenue,92410,34.0966470,-117.3365316
222,South Rancho Avenue,92410,34.0966586,-117.3363576
222,South Rancho Avenue,92410,34.0966681,-117.3361976
222,South Rancho Avenue,92410,34.0966688,-117.3360653
222,South Rancho Avenue,92410,34.0962133,-117.3353994
222,South Rancho Avenue,92410,34.0962137,-117.3355582
222,South Rancho Avenue,92410,34.0962151,-117.3357042
222,South Rancho Avenue,92410,34.0962295,-117.3358693
222,South Rancho Avenue,92410,34.0962168,-117.3360143
222,South Rancho Avenue,92410,34.0962211,-117.3361589
222,South Rancho Avenue,92410,34.0962095,-117.3363095
222,South Rancho Avenue,92410,34.0961671,-117.3365463
222,South Rancho Avenue,92410,34.0961657,-117.3370355
222,South Rancho Avenue,92410,34.0962277,-117.3372292
222,South Rancho Avenue,92410,34.0961826,-117.3375135
222,South Rancho Avenue,92410,34.0962785,-117.3375143
222,South Rancho Avenue,92410,34.0963854,-117.3375146
222,South Rancho Avenue,92410,34.0965122,-117.3375101
222,South Rancho Avenue,92410,34.0966331,-117.3375156
222,South Rancho Avenue,92410,34.0967519,-117.3374851
222,South Rancho Avenue,92410,34.0968874,-117.3374999
222,South Rancho Avenue,92410,34.0970265,-117.3374990
222,South Rancho Avenue,92410,34.0971664,-117.3375065
222,South Rancho Avenue,92410,34.0972979,-117.3374952
222,South Rancho Avenue,92410,34.0974329,-117.3375101
222,South Rancho Avenue,92410,34.0965596,-117.3372419
222,South Rancho Avenue,92410,34.0966813,-117.3371362
222,South Rancho Avenue,92410,34.0967855,-117.3369928
222,South Rancho Avenue,92410,34.0968472,-117.3368010
222,South Rancho Avenue,92410,34.0968452,-117.3372164
222,South Rancho Avenue,92410,34.0969351,-117.3369139
222,South Rancho Avenue,92410,34.0970117,-117.3370271
222,South Rancho Avenue,92410,34.0970207,-117.3372220
222,South Rancho Avenue,92410,34.0971738,-117.3371959
222,South Rancho Avenue,92410,34.0969097,-117.3359335
222,South Rancho Avenue,92410,34.0970323,-117.3359272
222,South Rancho Avenue,92410,34.0970070,-117.3361635
222,South Rancho Avenue,92410,34.0968943,-117.3361592
222,South Rancho Avenue,92410,34.0968490,-117.3356165
222,South Rancho Avenue,92410,34.0968231,-117.3354636
222,South Rancho Avenue,92410,34.0968152,-117.3353048
222,South Rancho Avenue,92410,34.0970140,-117.3356297
222,South Rancho Avenue,92410,34.0969975,-117.3354210
222,South Rancho Avenue,92410,34.0970151,-117.3352173
222,South Rancho Avenue,92410,34.0970102,-117.3348559
222,South Rancho Avenue,92410,34.0969896,-117.3346645
222,South Rancho Avenue,92410,34.0969933,-117.3345077
222,South Rancho Avenue,92410,34.0970061,-117.3343397
222,South Rancho Avenue,92410,34.0970129,-117.3341693
222,South State Street,92410,34.0969995,-117.3340009
222,South Rancho Avenue,92410,34.0969943,-117.3338333
222,South Rancho Avenue,92410,34.0969887,-117.3336651
222,South Rancho Avenue,92410-2143,34.0969683,-117.3335115
222,South Rancho Avenue,92410,34.0972394,-117.3339388
222,South Rancho Avenue,92410,34.0972451,-117.3341100
222,South Rancho Avenue,92410,34.0972465,-117.3342667
222,South Rancho Avenue,92410,34.0972453,-117.3344290
222,South Rancho Avenue,92410,34.0972491,-117.3346004
222,South Rancho Avenue,92410,34.0972357,-117.3347681
222,South Rancho Avenue,92410,34.0972225,-117.3349295
222,South Rancho Avenue,92410,34.0972450,-117.3350961
222,South Rancho Avenue,92410,34.0972481,-117.3352513
222,South Rancho Avenue,92410,34.0972330,-117.3354272
222,South Rancho Avenue,92410,34.0972500,-117.3355949
222,South Rancho Avenue,92410,34.0972484,-117.3357608
222,South Rancho Avenue,92410,34.0974292,-117.3357582
222,South Rancho Avenue,92410,34.0974406,-117.3355899
222,South Rancho Avenue,92410,34.0974401,-117.3354268
222,South Rancho Avenue,92410,34.0974296,-117.3352583
222,South Rancho Avenue,92410,34.0974296,-117.3351158
222,South Rancho Avenue,92410,34.0974273,-117.3349305
222,South Rancho Avenue,92410,34.0974326,-117.3347648
222,South Rancho Avenue,92410,34.0974305,-117.3345986
222,South Rancho Avenue,92410,34.0974275,-117.3344355
222,South Rancho Avenue,92410,34.0974267,-117.3342681
222,South Rancho Avenue,92410,34.0974304,-117.3341047
222,South Rancho Avenue,92410,34.0974228,-117.3339399
222,South Rancho Avenue,92410,34.0974545,-117.3360734
222,South Rancho Avenue,92410,34.0972801,-117.3360172
222,South Rancho Avenue,92410,34.0972339,-117.3361617
222,South Rancho Avenue,92410,34.0973405,-117.3362541
222,South Rancho Avenue,92410,34.0974437,-117.3364021
222,South Rancho Avenue,92410,34.0975326,-117.3362811
222,South Rancho Avenue,92410,34.0975961,-117.3361611
222,South Rancho Avenue,92410,34.0974201,-117.3372107
222,South Rancho Avenue,92410,34.0974168,-117.3370806
222,South Rancho Avenue,92410,34.0974160,-117.3369551
222,South Rancho Avenue,92410,34.0974194,-117.3368249
222,South Rancho Avenue,92410,34.0973463,-117.3366469
222,South Rancho Avenue,92410,34.0972648,-117.3365493
222,South Rancho Avenue,92410,34.0971496,-117.3364671
222,South Rancho Avenue,92410,34.0969141,-117.3364833
222,South Rancho Avenue,92410,34.0970186,-117.3366331
222,South Rancho Avenue,92410,34.0971179,-117.3367227
222,South Rancho Avenue,92410,34.0972114,-117.3368363
222,South Rancho Avenue,92410,34.0976691,-117.3375424
222,South Rancho Avenue,92410,34.0976708,-117.3374065
222,South Rancho Avenue,92410,34.0976691,-117.3372420
222,South Rancho Avenue,92410,34.0976722,-117.3370610
222,South Rancho Avenue,92410,34.0976653,-117.3369113
222,South Rancho Avenue,92410,34.0976693,-117.3367564
222,South Rancho Avenue,92410,34.0976947,-117.3365923
222,South Rancho Avenue,92410,34.0976978,-117.3364296
222,South Rancho Avenue,92410,34.0976756,-117.3358473
222,South Rancho Avenue,92410,34.0976794,-117.3356825
222,South Rancho Avenue,92410,34.0976753,-117.3355198
222,South Rancho Avenue,92410,34.0976786,-117.3353558
222,South Rancho Avenue,92410,34.0976820,-117.3351881
222,South Rancho Avenue,92410,34.0976874,-117.3350045
222,South Rancho Avenue,92410,34.0976737,-117.3348572
222,South Rancho Avenue,92410,34.0976748,-117.3346969
222,South Rancho Avenue,92410,34.0976845,-117.3345263
222,South Rancho Avenue,92410,34.0976869,-117.3343421
222,South Rancho Avenue,92410,34.0976862,-117.3342024
222,South Rancho Avenue,92410,34.0976788,-117.3340289
222,South Rancho Avenue,92410,34.0976704,-117.3338646
222,South Rancho Avenue,92410,34.0976856,-117.3336998
202,North Meridian Avenue,92410,34.1033834,-117.3488448
2865,West Rialto Avenue,92376,34.0989944,-117.3513721
243,North Meridian Avenue,92410,34.1049170,-117.3417418
542,Mount Vernon Avenue,92411,34.1090906,-117.3142300
542,Mount Vernon Avenue,92411,34.1087244,-117.3142215
501,Mount Vernon Avenue,92411,34.1085752,-117.3135585
1293,West 5th Street,92411,34.1080871,-117.3135119
1087,West Mill Street,92410,34.0918895,-117.3074645
1263,West 5th Street,92411,34.1081331,-117.3128627
1241,West 5th Street,92411,34.1080002,-117.3122642
877,West 40th Street,92407,34.1642918,-117.3020159
596,Mount Vernon Avenue,92411,34.1100702,-117.3140753
602,Mount Vernon Avenue,92411,34.1104124,-117.3142245
444,West 8th Street,92401,34.1142996,-117.2929504
1860,Mountain View Avenue,92354,34.0688898,-117.2441683
794,East Monterey Avenue,92410,34.1078381,-117.2688457
24424,Monterey Avenue,92410,34.1078538,-117.2718814
595,South Eucalyptus Avenue,92376,34.0895095,-117.3551064
4865,North State Street,92407,34.1717305,-117.3303176
777,East Rialto Avenue,92415,34.1005411,-117.2713404
2211,Western Avenue,92411,34.1367266,-117.3176522
1494,South Waterman Avenue,92408,34.0733731,-117.2823063
2400,West Highland Avenue,92407,34.1603913,-117.3622051
1041,E. Harriman Place,92408,34.0650483,-117.2652618
1040,E. Harriman Place,92408,34.0667046,-117.2651565
1386,East Highland Avenue,92404,34.1363156,-117.2577303
1909,Business Center Drive,92408,34.0670086,-117.2796135
320,E Street,92401,34.0956011,-117.2945297
126,East Redlands Boulevard,92408,34.0632810,-117.2846548
100,East Redlands Boulevard,92408,34.0633572,-117.2835606
192,East Redlands Boulevard,92408,34.0633747,-117.2831166
198,East Redlands Boulevard,92408,34.0634072,-117.2822831
1755,South Waterman Avenue,92408,34.0692540,-117.2780856
1685,Santa Fe Way,92410,34.0957720,-117.3221460
2150,Highland Avenue,92404,34.1361212,-117.2411032
450,East Vanderbilt Way,92408,34.0690176,-117.2755403
165,South Leland Norton Way,92408,34.0992879,-117.2466079
2065,East Perimeter Road,92408,34.1059771,-117.2415069
2535,East 3rd Street,92408,34.1051812,-117.2337537
294,South Leland Norton Way,92408,34.0961123,-117.2479085
301,South Tippecanoe Avenue,92408,34.0972108,-117.2585707
301,South Tippecanoe Avenue,92408,34.0961643,-117.2589195
295,North Leland Norton Way,92408,34.1045164,-117.2464781
1601,East 3rd Street,92408,34.1034385,-117.2506977
293,East 40th Street,92404,34.1646497,-117.2794558
292,East 40th Street,92404,34.1652788,-117.2790512
909,West 21st Street,92405,34.1345831,-117.3038909
5990,North Cajon Boulevard,92407,34.1848626,-117.3645666
300,North E Street,92401,34.1042414,-117.2946707
320,North E Street,92401,34.1049055,-117.2946654
499,West Orange Show Road,92408-2029,34.0782622,-117.2922264
2027,Perimeter Road,92408,34.1050508,-117.2458882
105,North Leland Norton Way,92408,34.1015378,-117.2468209
199,North Hangar Way,92415,34.1025122,-117.2286528
2885,U Street,92408,34.1025585,-117.2242025
266,East 3rd Street,92410,34.1050376,-117.2804117
955,East Hardt Street,92408,34.0723783,-117.2645943
711,East Rialto Avenue,92415,34.0994911,-117.2727819
150,South Lena Road,92415,34.1002699,-117.2693742
175,South Lena Road,92415,34.0992793,-117.2683722
250,South Lena Road,92408,34.0974751,-117.2710296
777,San Manuel Boulevard,92346,34.1506967,-117.2282325
1425,South D Street,92408,34.0740045,-117.2915881
825,East Third Street,92415,34.1036308,-117.2688090
5095,Mayfield Avenue,92407,34.1749633,-117.2907215
2728,West Foothill Boulevard,92376,34.1073197,-117.3500126
494,South Mount Vernon Avenue,92410,34.0924518,-117.3140688
1690,South Tippecanoe Avenue,92408,34.0701628,-117.2616603
610,East Olive Street,92410,34.1199437,-117.2756556
601,North E Street,92415,34.1111314,-117.2930420
230,South Waterman Avenue,92408,34.0973804,-117.2803415
244,D Street,92401,34.0968747,-117.2924804
885,East Hospitality Lane,92408,34.0677123,-117.2667096
1056,East Hospitality Lane,92408,34.0693287,-117.2630454
1092,East Hospitality Lane,92408,34.0692686,-117.2620279
200,East 3rd Street,92410,34.1048932,-117.2823389
1201,West 9th Street,92411,34.1155037,-117.3116251
6065,North Palm Avenue,92407,34.1925203,-117.3596833
1200,North E Street,92410,34.1223734,-117.2953006
777,North F Street,92410,34.1129933,-117.2955285
793,North E Street,92410,34.1135423,-117.2935328
1595,East Art Townsend Drive,92408,34.1020551,-117.2519735
1554,East Art Townsend Drive,92404,34.1029683,-117.2529916
606,H Street,92410,34.1106344,-117.3015129
210,North Lena Road,92415,34.1023558,-117.2707445
895,East Hospitality Lane,92408,34.0678647,-117.2659728
2180,North Waterman Avenue,92404,34.1353636,-117.2790429
601,West Highland Avenue,92405,34.1355403,-117.2967111
1381,Kendall Drive,92407,34.1686022,-117.3156136
330,North D Street,92401,34.1049626,-117.2922911
1201,East Highland Avenue,92404,34.1346002,-117.2610316
1181,E Street,92408,34.0803475,-117.2938358
1102,North Waterman Avenue,92410,34.1196770,-117.2790786
1150,North Waterman Avenue,92410,34.1201520,-117.2792075
1425,South Waterman Avenue,92408,34.0749225,-117.2774807
222,South Rancho Avenue,92410,34.0969434,-117.3354833
2151,West Rialto Avenue,92140,34.0985997,-117.3365073
301,South Tippecanoe Avenue,92408,34.0968857,-117.2586189
175,South Lena Road,92415,34.0991177,-117.2683722
200,South Lena Road,92415,34.0987900,-117.2718771
1498,South Tippecanoe Avenue,92408,34.0736221,-117.2605315
847,East Brier Drive,92408,34.0708046,-117.2674484
500,Inland Center Drive,92408,34.0849390,-117.2973803
430,East Vanderbilt Way,92408,34.0692426,-117.2762668
