House number,Street name,Postal code,Latitude,Longitude
1584,Halford Avenue,95051,37.3537997,-121.9996548
1576,Halford Avenue,95051,37.3538012,-121.9999994
3705,El Camino Real,95051,37.3539748,-121.9981140
2369,El Camino Real,95050,37.3526394,-121.9678437
875,Quince Avenue,95051,37.3404974,-121.9857921
1977,Saint Lawrence Drive,95051,37.3589796,-121.9955056
1200,Franklin Mall,95050-9998,37.3485525,-121.9471790
1505,Warburton Avenue,95050,37.3560524,-121.9552357
3119,Mission College Boulevard,95054,37.3891263,-121.9835485
2221,The Alameda,95050,37.3444048,-121.9326560
3955,Freedom Circle,95054,37.3853878,-121.9729086
3551,Homestead Road,95051,37.3384428,-121.9948430
3605,East El Camino Real,95051,37.3529575,-121.9973250
2370,El Camino Real,95050,37.3517995,-121.9677618
2372,El Camino Real,95050,37.3517930,-121.9678626
2070,El Camino Real,95050,37.3500141,-121.9627900
2068,El Camino Real,95050,37.3500206,-121.9625923
2065,El Camino Real,95050,37.3530306,-121.9611027
2495,Lafayette Street,95050,37.3657883,-121.9498120
5237,Stevens Creek Boulevard,95051,37.3238881,-121.9944607
3607,El Camino Real,95051,37.3530670,-121.9973640
3735,El Camino Real,95051,37.3536299,-121.9986540
3701,El Camino Real,95051,37.3538708,-121.9977360
3739,El Camino Real,95051,37.3533830,-121.9989970
3705,El Camino Real,95051,37.3537336,-121.9981120
3737,El Camino Real,95051,37.3533841,-121.9988990
1550,Halford Avenue,95051,37.3533178,-122.0003280
1556,Halford Avenue,95051,37.3534511,-122.0003294
1562,Halford Avenue,95051,37.3536438,-122.0003350
1564,Halford Avenue,95051,37.3537115,-122.0003400
1580,Halford Avenue,95051,37.3537963,-121.9998891
3992,Rivermark Parkway,95054,37.3953350,-121.9476682
4555,Great America Parkway,95054,37.3967491,-121.9771960
3595,Benton Street,95051,37.3457515,-121.9952510
3942,Rivermark Plaza,95054,37.3946060,-121.9463045
2851,Park Avenue,95050,37.3452222,-121.9374060
2605,The Alameda,95050,37.3453203,-121.9367788
3051,Corvin Drive,95051,37.3767977,-121.9873930
5350,Great America Parkway,95054,37.4096365,-121.9781484
2505,Augustine Drive,95054,37.3823601,-121.9707885
2789,El Camino Real,95051,37.3530692,-121.9772310
3932,Rivermark Plaza,95054,37.3944204,-121.9460026
3540,Homestead Road,95051,37.3363568,-121.9941330
3961,Rivermark Parkway,95054,37.3952714,-121.9462940
2585,Cabrillo Avenue,95051,37.3596321,-121.9733648
4694,Wilcox Avenue,95054,37.3996469,-121.9626283
842,Bellomy Street,95050,37.3457605,-121.9398634
3700,Thomas Road,95054,37.3862020,-121.9609157
3700,Thomas Road,95054,37.3862831,-121.9607757
3944,Rivermark Plaza,95054,37.3945343,-121.9462540
801,Martin Avenue,95050,37.3667800,-121.9479581
2480,de La Cruz Road,95050,37.3660891,-121.9417983
5241,Stevens Creek Boulevard,95051,37.3238848,-121.9948319
2700,Mission College Boulevard,95054,37.3907827,-121.9740827
469,El Camino Real,95050,37.3515962,-121.9343632
2131,El Camino Real,95050,37.3529721,-121.9618460
2047,El Camino Real,95050,37.3530211,-121.9606930
2145,El Camino Real,95050,37.3529796,-121.9619610
2165,El Camino Real,95050,37.3529796,-121.9621400
2670,El Camino Real,95051,37.3510132,-121.9757274
2620,El Camino Real,95051,37.3512088,-121.9744420
2610,El Camino Real,95051,37.3511491,-121.9739109
3139,Mission College Boulevard,95054,37.3886307,-121.9840387
3770,Flora Vista Avenue,95051,37.3469795,-121.9921417
3133,Mission College Boulevard,95054,37.3885920,-121.9839060
3155,Mission College Boulevard,95054,37.3895351,-121.9841171
3564,Homestead Road,95051,37.3372567,-121.9942830
2800,Benton Street,95051-3767,37.3461454,-121.9782150
2910,El Camino Real,95051,37.3520662,-121.9793425
3232,El Camino Real,95051,37.3521333,-121.9855590
320,Martin Avenue,95050,37.3612951,-121.9363248
1595,Pomeroy Avenue,95051,37.3518002,-121.9864300
3290,El Camino Real,95051,37.3519995,-121.9864578
1595,Franklin,95050,37.3476490,-121.9515570
1041,Monroe Street,95050,37.3489971,-121.9481259
2800,Bowers Avenue,95051,37.3721621,-121.9778447
2940,Bowers Avenue,95051,37.3748852,-121.9782410
2930,Bowers Avenue,95051,37.3747963,-121.9784642
246,Saratoga Avenue,95050,37.3296364,-121.9668728
200,Saratoga Avenue,95129,37.3283372,-121.9661206
234,Saratoga Avenue,95050,37.3291817,-121.9667860
220,Saratoga Avenue,95050,37.3284131,-121.9662710
240,Saratoga Avenue,95050,37.3295342,-121.9668461
238,Saratoga Avenue,95050,37.3294016,-121.9668070
315,Saratoga Avenue,95050-7002,37.3303479,-121.9634888
298,Saratoga Avenue,95050,37.3296903,-121.9649340
3777,Lafayette Street,95054-2025,37.3881452,-121.9533630
1111,El Camino Real,95050,37.3540617,-121.9490700
3282,El Camino Real,95051,37.3520060,-121.9862750
3078,El Camino Real,95051,37.3519710,-121.9815770
2060,El Camino Real,95050,37.3499772,-121.9622757
495,El Camino Real,95050,37.3523355,-121.9365017
2004,El Camino Real,95050-4051,37.3502894,-121.9609068
495,El Camino Real,95050,37.3521197,-121.9366760
960,Central Expressway,95050,37.3733541,-121.9544622
2271,The Alameda,95050,37.3446039,-121.9333240
2235,The Alameda,95050,37.3444810,-121.9329060
2219,The Alameda,95050,37.3443795,-121.9325690
2421,The Alameda,95050,37.3449582,-121.9343660
36,Washington Street,95050,37.3386373,-121.9386930
2211,The Alameda,95050,37.3443054,-121.9323120
2233,The Alameda,95050,37.3443281,-121.9323900
2215,The Alameda,95050,37.3443529,-121.9324760
3952,Rivermark Plaza,95054,37.3948128,-121.9464066
3971,Rivermark Plaza,95054,37.3954218,-121.9463623
2700,Mission College Boulevard,95054,37.3903428,-121.9747730
1484,Halford Avenue,95051,37.3512474,-121.9999730
2249,The Alameda,95050,37.3445267,-121.9330620
2255,The Alameda,95050,37.3446009,-121.9331760
2245,The Alameda,95050,37.3445087,-121.9329990
1680,Lafayette Street,95050,37.3565401,-121.9469460
2002,El Camino Real,95015,37.3519677,-121.9600502
5239,Stevens Creek Boulevard,95051,37.3238871,-121.9945226
5231,Stevens Creek Boulevard,95051,37.3238839,-121.9943907
3581,Homestead Road,95051,37.3384493,-121.9950660
4655,Great America Parkway,95054,37.3988788,-121.9768910
4557,Great America Parkway,95054,37.3977050,-121.9766200
4555,Great America Parkway,95054,37.3970641,-121.9772200
2211,Tasman Drive,95054,37.4081464,-121.9634132
2215,Tasman Drive,95054,37.4080929,-121.9635436
2209,Tasman Drive,95054,37.4081714,-121.9633459
2207,Tasman Drive,95054,37.4082099,-121.9632659
2213,Tasman Drive,95054,37.4081230,-121.9634805
3934,Rivermark Plaza,95054,37.3945198,-121.9460719
3936,Rivermark Plaza,95054,37.3945891,-121.9461245
1111,El Camino Real,95050,37.3542021,-121.9489727
3060,El Camino Real,95051,37.3514279,-121.9818967
280,Martin Avenue,95050,37.3600077,-121.9348626
830,Kiely Boulevard,95051,37.3392710,-121.9777161
2002,El Camino Real,95050,37.3519965,-121.9601782
1825,Pruneridge Avenue,95050,37.3300606,-121.9505791
3436,El Camino Real,95051,37.3512231,-121.9903420
3565,Stevens Creek Boulevard,95117,37.3234888,-121.9613620
2165,El Camino Real,95050,37.3529806,-121.9622200
2261,The Alameda,95050,37.3446143,-121.9332260
2251,The Alameda,95050,37.3445873,-121.9331260
3503,El Camino Real,95051,37.3530879,-121.9932730
1000,Kiely Boulevard,95051,37.3446095,-121.9781260
3535,North Monroe Street,95051,37.3672040,-121.9933002
3555,Monroe Street,95051,37.3676133,-121.9943627
1347,Coleman Avenue,95050,37.3565551,-121.9358870
3775,Lafayette Street,95054,37.3881195,-121.9533071
2046,El Camino Real,95050,37.3501206,-121.9618510
5201,Patrick Henry Drive,95054,37.4065881,-121.9839861
5350,Great America Parkway,95054,37.4095455,-121.9781363
5350,Great America Parkway,95054,37.4094599,-121.9781147
400,North Winchester Boulevard,95050,37.3332062,-121.9506162
3575,Benton Street,95051,37.3459013,-121.9946619
1460,Halford Avenue,95051,37.3508844,-121.9999400
3517,El Camino Real,95051,37.3535065,-121.9932405
3423,El Camino Real,95051,37.3527036,-121.9899710
3407,El Camino Real,95051,37.3527079,-121.9896950
2249,The Alameda,95050,37.3444742,-121.9330790
2760,Homestead Road,95051,37.3380998,-121.9749043
1825,De La Cruz Boulevard,95050,37.3600025,-121.9402366
2485,Augustine Drive,95054,37.3829605,-121.9703774
3660,Thomas Road,95054,37.3853301,-121.9612040
2366 Suite 1,El Camino Real,95050,37.3520144,-121.9675056
1560,Halford Avenue,95051,37.3535832,-122.0003320
2362,El Camino Real,95050,37.3520937,-121.9675161
3080,El Camino Real,95051,37.3517394,-121.9821166
1509,Warburton Avenue,95050,37.3572245,-121.9555133
3980,Rivermark Plaza,95054,37.3951677,-121.9472107
1171,Homestead Road,95050,37.3483523,-121.9460406
3787,Stevens Creek Boulevard,95051,37.3241488,-121.9687410
3787,Stevens Creek Boulevard,95051,37.3240839,-121.9687188
3787,Stevens Creek Boulevard,95051,37.3240912,-121.9686100
3787,Stevens Creek Boulevard,95051,37.3240336,-121.9685130
1561,Warburton Avenue,95050,37.3566003,-121.9572073
313,West Brokaw Road,95050,37.3580205,-121.9344644
315,West Brokaw Road,95050,37.3578072,-121.9343111
315,West Brokaw Road,95050,37.3578477,-121.9342655
274,Martin Avenue,95050,37.3588857,-121.9336515
2722,Augustine Drive,95054,37.3808619,-121.9750015
3014,El Camino Real,95051,37.3515494,-121.9809936
2245,The Alameda,95050,37.3445087,-121.9330440
1745,El Camino Real,95050,37.3526598,-121.9568840
2755,Augustine Drive,95054,37.3834085,-121.9756917
2565,Augustine Drive,95054,37.3833079,-121.9728034
2515,Augustine Drive,95054,37.3823759,-121.9713373
2485,Augustine Drive,95054,37.3831967,-121.9711839
2445,Augustine Drive,95054,37.3826483,-121.9696860
2010,El Camino Real,95050,37.3502435,-121.9611630
2018,El Camino Real,95050,37.3502456,-121.9612680
2042,El Camino Real,95050,37.3502362,-121.9617121
2118,El Camino Real,95050,37.3508690,-121.9630710
2110,El Camino Real,95050,37.3506255,-121.9631494
3201,Mission College Boulevard,95054,37.3897273,-121.9846348
4677,Old Ironsides Drive,95054,37.3983371,-121.9790070
4201,Burton Drive,95054,37.3919015,-121.9614938
841,Quince Avenue,95051,37.3394249,-121.9861341
843,Quince Avenue,95051,37.3394249,-121.9860234
845,Quince Avenue,95051,37.3394254,-121.9859195
849,Quince Avenue,95051,37.3394238,-121.9858310
2401,Agnew Road,95054,37.3962811,-121.9740855
2401,Agnew Drive,95054,37.3964548,-121.9742169
5245,Stevens Creek Boulevard,95051,37.3238836,-121.9950113
1510,Kiely Boulevard,95051,37.3514344,-121.9780319
2401,Agnew Road,95054,37.3958227,-121.9737598
3966,Rivermark Plaza,95054,37.3948020,-121.9465320
3964,Rivermark Plaza,95054,37.3948321,-121.9466116
3954,Rivermark Plaza,95054,37.3949125,-121.9465177
3969,Rivermark Plaza,95054,37.3953574,-121.9465239
3967,Rivermark Plaza,95054,37.3953603,-121.9463544
3959,Rivermark Plaza,95054,37.3952388,-121.9461842
3957,Rivermark Plaza,95054,37.3952648,-121.9460767
3939,Rivermark Plaza,95054,37.3950286,-121.9457684
3937,Rivermark Plaza,95054,37.3949671,-121.9457218
3935,Rivermark Plaza,95054,37.3949107,-121.9456834
3933,Rivermark Plaza,95054,37.3948568,-121.9456506
3931,Rivermark Plaza,95054,37.3948117,-121.9456213
3921,Rivermark Plaza,95054,37.3947399,-121.9455835
3914,Rivermark Plaza,95054,37.3939027,-121.9460622
3918,Rivermark Plaza,95054,37.3939739,-121.9458882
3906,Rivermark Plaza,95054,37.3940305,-121.9457535
2030,Wyatt Drive,95054,37.3873443,-121.9601550
3985,Stevens Creek Boulevard,95051,37.3235973,-121.9725131
2632,El Camino Real,95051,37.3510417,-121.9747790
2640,El Camino Real,95051,37.3510395,-121.9749376
2644,El Camino Real,95051,37.3510331,-121.9750420
2654,El Camino Real,95051,37.3510224,-121.9755056
2690,El Camino Real,95051,37.3510086,-121.9758640
2720,El Camino Real,95051,37.3510215,-121.9762807
2730,El Camino Real,95051,37.3509828,-121.9763360
2740,El Camino Real,95051,37.3509825,-121.9764400
2744,El Camino Real,95051,37.3509840,-121.9765396
2776,El Camino Real,95051,37.3509909,-121.9768151
2790,El Camino Real,95051,37.3512798,-121.9769400
2799,El Camino Real,95051,37.3531110,-121.9774283
2775,El Camino Real,95051-3005,37.3529879,-121.9766070
2769,El Camino Real,95051,37.3530081,-121.9763140
1950,El Camino Real,95050,37.3521114,-121.9588514
2676,Homestead Road,95051,37.3384683,-121.9737990
2784,Homestead Road,95051,37.3381834,-121.9761040
3480,Homestead Road,95051,37.3374508,-121.9924110
3988,Rivermark Parkway,95054,37.3952802,-121.9475288
3986,Rivermark Parkway,95054,37.3952317,-121.9473890
1331,Coleman Avenue,95050,37.3564091,-121.9355640
2811,Barcells Avenue,95051,37.3368337,-121.9766012
400 N,Saratoga Avenue,95050,37.3316896,-121.9638617
2002,El Camino Real,95050,37.3519926,-121.9604227
2002,El Camino Real,95050,37.3519910,-121.9603167
2002,El Camino Real,95050,37.3517998,-121.9598853
2002,El Camino Real,95050,37.3516784,-121.9598855
505,Chapman Court,95050,37.3443467,-121.9329622
2391,The Alameda,95050,37.3448635,-121.9341078
2391,The Alameda,95050,37.3448038,-121.9340300
1850,Warburton Avenue,95050,37.3555630,-121.9585830
2821,El Camino Real,95051,37.3528507,-121.9782980
2350,Walsh Avenue,95051,37.3673740,-121.9675036
2792,El Camino Real,95051,37.3520160,-121.9769178
298,Saratoga Avenue,95050,37.3295877,-121.9651000
298,Saratoga Avenue,95050,37.3296804,-121.9651570
583,Saratoga Avenue,95050,37.3405809,-121.9551047
3233,De La Cruz Boulevard,95054,37.3827890,-121.9410853
30,Washington Street,95050,37.3382285,-121.9385133
3472,El Camino Real,95051,37.3515932,-121.9925268
3701,Stevens Creek Boulevard,95051,37.3238711,-121.9660813
1400,Coleman Avenue,95050,37.3576920,-121.9356204
1265,El Camino Real,95050,37.3537409,-121.9502785
980,El Camino Real,95050,37.3542555,-121.9468910
2725,Lafayette Street,95050,37.3708614,-121.9492773
1820,Bellomy Street,95050,37.3413614,-121.9515884
36,Washington Street,95050,37.3386690,-121.9389398
36,Washington Street,95050,37.3387319,-121.9389291
2630,Walsh Avenue,95051,37.3721487,-121.9752102
2625,Walsh Avenue,95051,37.3720230,-121.9738551
122,Saratoga Avenue,95051,37.3262013,-121.9679749
122,Saratoga Avenue,95051,37.3261508,-121.9681308
2551,Newhall Street,95050,37.3379097,-121.9508870
2507,Scott Boulevard,95050,37.3667065,-121.9590521
4675,Stevens Creek Boulevard,95051,37.3235964,-121.9842495
3170,De La Cruz Boulevard,95054,37.3806388,-121.9410683
73,Washington Street,95050,37.3396929,-121.9385938
3120,De La Cruz Boulevard,95054,37.3789432,-121.9408353
1823,Pruneridge Avenue,95050,37.3305395,-121.9507809
3587,Homestead Road,95051,37.3386638,-121.9951005
3587,Homestead Road,95051,37.3387075,-121.9950308
2065,Martin Avenue,95050,37.3670870,-121.9612351
1140,Walsh Avenue,95050,37.3685435,-121.9546245
725,Washington Street,95050,37.3472170,-121.9428606
1675,Scott Boulevard,95050,37.3546074,-121.9591239
980,El Camino Real,95050,37.3543506,-121.9466211
900,Lafayette Street,95050,37.3494502,-121.9434550
4701,Patrick Henry Drive,95054,37.3982223,-121.9844574
1998,Homestead Road,95050,37.3434005,-121.9591467
1998,Homestead Road,95050,37.3433683,-121.9591418
2531,Newhall Street,95050,37.3378377,-121.9507753
4475,Stevens Creek Boulevard,95051,37.3237712,-121.9806080
2120,Walsh Avenue,95050,37.3692338,-121.9620875
740,Aldo Avenue,95054,37.3836224,-121.9472416
2620,El Camino Real,95051,37.3511366,-121.9742955
341,Lafayette Street,95050,37.3437438,-121.9406628
341,Lafayette Street,95050,37.3437952,-121.9407057
341,Lafayette Street,95050,37.3438448,-121.9407281
341,Lafayette Street,95050,37.3438816,-121.9407281
341,Lafayette Street,95050,37.3439702,-121.9407408
25,Washington Street,95050,37.3384161,-121.9378485
222,Saratoga Avenue,95050,37.3286028,-121.9665830
3207,Cabrillo Avenue,95051,37.3584353,-121.9850888
57,Washington Street,95050,37.3392561,-121.9383910
2931,El Camino Real,95051,37.3528545,-121.9797490
2752,Augustine Drive,95054,37.3810306,-121.9768574
4495,Stevens Creek Boulevard,95051,37.3237618,-121.9811401
4491,Stevens Creek Boulevard,95051,37.3237719,-121.9810555
4481,Stevens Creek Boulevard,95051,37.3237645,-121.9808100
2103,Scott Boulevard,95050,37.3607134,-121.9590360
3555,Monroe Street,95051,37.3676206,-121.9937995
3520,Tracy Drive,95051,37.3279342,-121.9934368
3876,Pruneridge Avenue,95051,37.3320072,-122.0037651
100,Saratoga Avenue,95051,37.3258903,-121.9681355
3555,Monroe Street,95051,37.3671540,-121.9950318
3379,El Camino Real,95051,37.3528003,-121.9891728
3203,Cabrillo Avenue,95051,37.3584886,-121.9850354
3038,Scott Boulevard,95054,37.3763404,-121.9604748
3350,Scott Boulevard,95054,37.3800684,-121.9860380
3070,Lawrence Expressway,95051,37.3768929,-121.9965751
1998,Homestead Road,95050,37.3435079,-121.9589531
2014,El Camino Real,95050,37.3502374,-121.9612900
2045,Martin Avenue,95050,37.3670405,-121.9605076
2065,Martin Avenue,95050,37.3671473,-121.9612369
2045,Martin Avenue,95050,37.3670466,-121.9608184
2065,Martin Avenue,95050,37.3666916,-121.9612532
2045,Martin Avenue,95050,37.3670396,-121.9606068
2045,Martin Avenue,95050,37.3670431,-121.9609166
2450,Scott Boulevard,95050,37.3669686,-121.9602838
2065,Martin Avenue,95050,37.3668440,-121.9612488
2045,Martin Avenue,95050,37.3670449,-121.9607093
2045,Martin Avenue,95050,37.3670440,-121.9609970
28,Washington Street,95050,37.3381675,-121.9384825
3064,Lawrence Expressway,95051,37.3768010,-121.9965406
3401,Monroe Street,95051,37.3678003,-121.9908132
3421,Monroe Street,95051,37.3675091,-121.9908123
3421,Monroe Street,95051,37.3672437,-121.9917041
983,Laurie Avenue,95054,37.3862989,-121.9509978
1373,Sarita Way,95051,37.3493775,-121.9972268
4995,Stevens Creek Boulevard,95051,37.3233757,-121.9902115
4975,Stevens Creek Boulevard,95051,37.3233767,-121.9900492
4945,Stevens Creek Boulevard,95051,37.3237240,-121.9892100
990,Richard Avenue,95050,37.3640157,-121.9520290
3526,Bassett Street,95054,37.3836023,-121.9521560
3170,De La Cruz Boulevard,95054,37.3799691,-121.9412099
1989,Bellomy Street,95050,37.3405998,-121.9550316
1290,Benton Street,95050,37.3493814,-121.9483976
2525,Scott Boulevard,95050,37.3668649,-121.9590726
5470,Great America Parkway,95054,37.4125777,-121.9784940
363,Cypress Avenue,95050,37.3312197,-121.9596909
61,Washington Street,95050,37.3393850,-121.9384609
1000,Market Street,95050,37.3453211,-121.9437631
1800,Wyatt Drive,95054,37.3885318,-121.9582862
1800,Wyatt Drive,95054,37.3889465,-121.9581063
1800,Wyatt Drive,95054,37.3890248,-121.9579750
1489,Franklin Street,95050,37.3479484,-121.9503652
1840,Benton Street,95050,37.3467404,-121.9549565
1998,Homestead Road,95050,37.3433318,-121.9589277
1998,Homestead Road,95050,37.3433179,-121.9590337
1998,Homestead Road,95050,37.3435001,-121.9590440
1998,Homestead Road,95050,37.3434931,-121.9591569
5155,Stevens Creek Boulevard,95051,37.3233016,-121.9931452
2371,Owen Street,95054,37.3763978,-121.9678698
2499,Homestead Road,95050,37.3416305,-121.9693193
2350,Mission College Boulevard,95054,37.3871735,-121.9669248
500,El Camino Real,95053,37.3483966,-121.9380403
500,El Camino Real,95053,37.3482815,-121.9375361
500,El Camino Real,95053,37.3482388,-121.9378338
650,Martin Avenue,95050,37.3658543,-121.9470785
1840,Benton Street,95050,37.3460392,-121.9573460
3278,El Camino Real,95051,37.3520127,-121.9861344
3284,El Camino Real,95051,37.3520063,-121.9863602
3280,El Camino Real,95051,37.3520138,-121.9862020
3280,El Camino Real,95051,37.3519594,-121.9862033
3258,El Camino Real,95051,37.3521454,-121.9860082
3240,El Camino Real,95051,37.3521559,-121.9858391
1593,Pomeroy Avenue,95051,37.3517440,-121.9864267
1591,Pomeroy Avenue,95051,37.3517003,-121.9864280
3224,El Camino Real,95051,37.3521374,-121.9854766
3220,El Camino Real,95051,37.3521416,-121.9853946
3216,El Camino Real,95051,37.3519961,-121.9851138
3216,El Camino Real,95051,37.3519330,-121.9851158
3216,El Camino Real,95051,37.3518342,-121.9851133
3216,El Camino Real,95051,37.3520402,-121.9851130
3216,El Camino Real,95051,37.3518854,-121.9851168
1810,Martin Avenue,95050,37.3660345,-121.9585431
530,Reed Street,95050,37.3600326,-121.9424674
2549,Scott Boulevard,95050,37.3673409,-121.9588804
69,Washington Street,95050,37.3395435,-121.9385423
67,Washington Street,95050,37.3395126,-121.9385240
65,Washington Street,95050,37.3394776,-121.9385055
63,Washington Street,95050,37.3394444,-121.9384863
59,Washington Street,95050,37.3393064,-121.9384150
71,Washington Street,95050,37.3396164,-121.9386071
400,North Winchester Boulevard,95050,37.3335518,-121.9516027
1825,De La Cruz Boulevard,95050,37.3600592,-121.9402930
1825,De La Cruz Boulevard,95050,37.3600240,-121.9405612
1825,De La Cruz Boulevard,95050,37.3599761,-121.9402903
1288,Scott Boulevard,95050,37.3488106,-121.9597404
3170,De La Cruz Boulevard,95054,37.3805854,-121.9410391
3170,De La Cruz Boulevard,95054,37.3804990,-121.9412900
1840,Benton Street,95050,37.3456741,-121.9546408
1885,De La Cruz Boulevard,95050,37.3605045,-121.9409627
1800,Wyatt Drive,95054,37.3888989,-121.9582107
1800,Wyatt Drive,95054,37.3890570,-121.9578704
1800,Wyatt Drive,95054,37.3884620,-121.9582444
1800,Wyatt Drive,95054,37.3884115,-121.9581179
1800,Wyatt Drive,95054,37.3887835,-121.9583312
1800,Wyatt Drive,95054,37.3886952,-121.9583807
1800,Wyatt Drive,95054,37.3883637,-121.9582621
1800,Wyatt Drive,95054,37.3888736,-121.9582900
1800,Wyatt Drive,95054,37.3886249,-121.9583452
1800,Wyatt Drive,95054,37.3883831,-121.9582092
990,Richard Avenue,95050,37.3640295,-121.9520871
1871,Martin Avenue,95050,37.3667401,-121.9588714
1871,Martin Avenue,95050,37.3666782,-121.9589224
1871,Martin Avenue,95050,37.3666786,-121.9588754
1871,Martin Avenue,95050,37.3666791,-121.9588230
265,Crestview Drive,95050,37.3303945,-121.9532966
261,Crestview Drive,95050,37.3302964,-121.9532939
255,Crestview Drive,95050,37.3301897,-121.9532912
3350,Scott Boulevard,95054,37.3796553,-121.9850420
3350,Scott Boulevard,95054,37.3792419,-121.9854920
3350,Scott Boulevard,95054,37.3789627,-121.9849314
3350,Scott Boulevard,95054,37.3792738,-121.9859480
3350,Scott Boulevard,95054,37.3781932,-121.9856150
3350,Scott Boulevard,95054,37.3787836,-121.9846570
3350,Scott Boulevard,95054,37.3781954,-121.9859327
3350,Scott Boulevard,95054,37.3785492,-121.9850460
3350,Scott Boulevard,95054,37.3782678,-121.9842501
3350,Scott Boulevard,95054,37.3787559,-121.9863470
3350,Scott Boulevard,95054,37.3798855,-121.9846760
3350,Scott Boulevard,95054,37.3799132,-121.9831310
3350,Scott Boulevard,95054,37.3787154,-121.9827996
3350,Scott Boulevard,95054,37.3799878,-121.9828660
3350,Scott Boulevard,95054,37.3785790,-121.9837720
3350,Scott Boulevard,95054,37.3786280,-121.9824120
3350,Scott Boulevard,95054,37.3795509,-121.9831260
3350,Scott Boulevard,95054,37.3798109,-121.9827800
3350,Scott Boulevard,95054,37.3795604,-121.9844070
3350,Scott Boulevard,95054,37.3789337,-121.9854370
3350,Scott Boulevard,95054,37.3787654,-121.9843157
3350,Scott Boulevard,95054,37.3797671,-121.9863420
3350,Scott Boulevard,95054,37.3789423,-121.9855315
3350,Scott Boulevard,95054,37.3781952,-121.9860376
2163,Martin Avenue,95050,37.3666930,-121.9618555
2163,Martin Avenue,95050,37.3670718,-121.9618582
2971,Mead Avenue,95051,37.3721193,-121.9820239
2797,Park Avenue,95050,37.3444322,-121.9370251
2797,Park Avenue,95050,37.3445324,-121.9370063
2797,Park Avenue,95050,37.3445164,-121.9370653
2797,Park Avenue,95050,37.3445847,-121.9370251
2797,Park Avenue,95050,37.3446092,-121.9371109
225,Washington Street,95050,37.3416344,-121.9395888
225,Washington Street,95050,37.3416610,-121.9395110
225,Washington Street,95050,37.3416077,-121.9396652
275,Saratoga Avenue,95050,37.3295314,-121.9640700
275,Saratoga Avenue,95050,37.3295253,-121.9641472
275,Sutter Avenue,95050,37.3293955,-121.9638689
275,Saratoga Avenue,95050,37.3295351,-121.9641590
275,Saratoga Avenue,95050,37.3295454,-121.9638314
1105,Benton Street,95050,37.3503832,-121.9466964
1961,Pruneridge Avenue,95050,37.3301686,-121.9539459
1961,Pruneridge Avenue,95050,37.3301670,-121.9537634
3235,Kifer Road,95051,37.3746825,-121.9855126
3235,Kifer Road,95051,37.3743723,-121.9856226
3235,Kifer Road,95051,37.3746846,-121.9856025
3235,Kifer Road,95051,37.3745023,-121.9855716
1062,Kiely Boulevard,95051,37.3458398,-121.9784245
2358,Pruneridge Avenue,95050,37.3296276,-121.9622508
3004,El Camino Real,95051,37.3515746,-121.9807754
3468,El Camino Real,95051,37.3516118,-121.9923571
2800,Mission College Boulevard,95054,37.3890415,-121.9765139
2800,Mission College Boulevard,95054,37.3893942,-121.9764656
2800,Mission College Boulevard,95054,37.3888828,-121.9765126
2710,El Camino Real,95051,37.3510262,-121.9760949
2696,El Camino Real,95051,37.3509032,-121.9760920
2694,El Camino Real,95051,37.3510017,-121.9759876
2790,El Camino Real,95051,37.3511519,-121.9769373
3194,De La Cruz Boulevard,95054,37.3813724,-121.9414010
500,El Camino Real,95053,37.3499287,-121.9386155
3901,Lick Mill Boulevard,95054,37.3960723,-121.9431851
3901,Lick Mill Boulevard,95054,37.3960783,-121.9431640
3901,Lick Mill Boulevard,95054,37.3960669,-121.9432040
3901,Lick Mill Boulevard,95054,37.3960613,-121.9432237
955,Martin Avenue,95050,37.3666111,-121.9512740
3087,Carleton Place,95051,37.3327697,-121.9849355
20,Washington Street,95050,37.3379781,-121.9383534
24,Washington Street,95050,37.3380649,-121.9384033
26,Washington Street,95050,37.3381083,-121.9384282
22,Washington Street,95050,37.3380215,-121.9383783
785,Lawrence Expressway,95051,37.3370643,-121.9949203
966,Shulman Avenue,95050,37.3630354,-121.9509546
2974,Scott Boulevard,95054,37.3753382,-121.9608383
1841,Pruneridge Avenue,95050,37.3301905,-121.9510829
1833,Pruneridge Avenue,95050,37.3302966,-121.9510720
2120,Walsh Avenue,95051,37.3691190,-121.9619999
1274,Benton Street,95050,37.3494364,-121.9482372
2511,Scott Boulevard,95050,37.3668014,-121.9590930
5029,Stevens Creek Boulevard,95051,37.3234098,-121.9908239
1000,Lafayette Street,95050,37.3505014,-121.9439090
1000,Lafayette Street,95050,37.3504355,-121.9439242
1000,Lafayette Street,95050,37.3503696,-121.9438895
1000,Lafayette Street,95050,37.3503152,-121.9438629
1000,Lafayette Street,95050,37.3502008,-121.9437995
1000,Lafayette Street,95050,37.3501229,-121.9437652
1000,Lafayette Street,95050,37.3504770,-121.9440073
1150,Scott Boulevard,95050,37.3468557,-121.9596349
1150,Scott Boulevard,95050,37.3467394,-121.9596373
1150,Scott Boulevard,95050,37.3472261,-121.9596413
940,Shulman Avenue,95050,37.3632870,-121.9503608
400,Mathew Street,95050,37.3624751,-121.9400000
3233,Coronado Place,95054,37.3805405,-121.9743792
4485,Stevens Creek Boulevard,95051,37.3237696,-121.9809665
4483,Stevens Creek Boulevard,95051,37.3237697,-121.9808900
4477,Stevens Creek Boulevard,95051,37.3237737,-121.9807084
1570,Los Padres Boulevard,95050,37.3517459,-121.9651647
1065,Monroe Street,95050,37.3491618,-121.9480063
2807,El Camino Real,95051,37.3529902,-121.9780691
3002,El Camino Real,95051,37.3514088,-121.9807908
2648,Homestead Road,95051,37.3387874,-121.9732684
5145,Stevens Creek Boulevard,95051,37.3233342,-121.9928935
781,Lawrence Expressway,95051,37.3370266,-121.9952110
5225,Stevens Creek Boulevard,95051,37.3239021,-121.9941979
3597,Homestead Road,95051-8101,37.3388425,-121.9951440
2466,El Camino Real,95051,37.3519897,-121.9699377
1082,Kiely Boulevard,95051,37.3460710,-121.9790823
1171,Homestead Road,95050,37.3484030,-121.9458128
309,Laurelwood Road,95054,37.3835852,-121.9379338
2946,Scott Boulevard,95054,37.3751266,-121.9600381
471,El Camino Real,95050,37.3512586,-121.9337106
2344,El Camino Real,95050,37.3521045,-121.9666950
3100,De La Cruz Boulevard,95054,37.3794932,-121.9399413
1265,El Camino Real,95050,37.3535812,-121.9505653
3535,Homestead Road,95051,37.3390647,-121.9946790
3547,Homestead Road,95051,37.3388685,-121.9948864
3509,Homestead Road,95051,37.3381497,-121.9938630
3559,Homestead Road,95051,37.3385617,-121.9949478
3561,Homestead Road,95051,37.3386647,-121.9948700
3577,Homestead Road,95051,37.3387592,-121.9948783
3591,Homestead Road,95051,37.3387678,-121.9951430
3533,Homestead Road,95051,37.3390672,-121.9945903
3521,Homestead Road,95051,37.3390725,-121.9944544
3442,De La Cruz Boulevard,95054,37.3855993,-121.9436932
900,Lafayette Street,95050,37.3495596,-121.9434464
3480,Homestead Road,95051,37.3374523,-121.9925546
1920,De La Cruz Boulevard,95050,37.3600123,-121.9417345
750,Laurelwood Road,95054,37.3790665,-121.9478300
3130,Alfred Street,95054,37.3792186,-121.9591786
3555,Monroe Street,95051,37.3675979,-121.9945403
3555,Monroe Street,95051,37.3676133,-121.9947514
3555,Monroe Street,95051,37.3676472,-121.9939826
3250,Victor Street,95054,37.3844836,-121.9376542
3275,Stevens Creek Boulevard,95117,37.3235175,-121.9548006
3275,Stevens Creek Boulevard,95117,37.3235156,-121.9547297
3979,Freedom Circle,95054,37.3881699,-121.9738895
590,Martin Avenue,95050,37.3661308,-121.9449313
3275,Stevens Creek Boulevard,95117,37.3252952,-121.9546503
3249;3275,Stevens Creek Boulevard,95117,37.3251959,-121.9543309
3275,Stevens Creek Boulevard,95117,37.3252069,-121.9546482
3245,Stevens Creek Boulevard,95117,37.3235383,-121.9541219
21,Washington Street,95050,37.3381662,-121.9374957
790,Lincoln Street,95050,37.3451669,-121.9507347
55,Cronin Drive,95051,37.3241883,-121.9868046
5021,Stevens Creek Boulevard,95051,37.3234057,-121.9906501
2998,El Camino Real,95051,37.3521094,-121.9803754
5075,Stevens Creek Boulevard,95051,37.3233302,-121.9922281
2905,El Camino Real,95051,37.3526958,-121.9792772
3555,Monroe Street,95051,37.3676258,-121.9936996
1500,Kiely Boulevard,95051,37.3514431,-121.9779055
1391,Franklin Street,95050,37.3484147,-121.9492029
3050,El Camino Real,95051,37.3519895,-121.9821816
1705,El Camino Real,95050,37.3528252,-121.9561701
1713,El Camino Real,95050,37.3528196,-121.9563789
1705,El Camino Real,95050,37.3529440,-121.9561748
1705,El Camino Real,95050,37.3529432,-121.9563886
2904,Scott Boulevard,95054,37.3748335,-121.9613640
2341,El Camino Real,95050,37.3527399,-121.9661140
390,North Winchester Boulevard,95050,37.3325930,-121.9507872
1084-1090,Scott Boulevard,95050,37.3459922,-121.9596610
2762,Augustine Drive,95054,37.3819415,-121.9767960
2762,Augustine Drive,95050,37.3819427,-121.9773250
2752,Augustine Drive,95050,37.3810486,-121.9772090
2712,Augustine Drive,95054,37.3816693,-121.9749050
3343,Coronado Place,95054,37.3818060,-121.9744280
3315,Coronado Place,95054,37.3815107,-121.9743362
2712,Augustine Drive,95050,37.3815542,-121.9749930
2511,Scott Boulevard,95050,37.3667742,-121.9590914
1155,Memorex Drive,95050,37.3630812,-121.9534831
2541,Newhall Street,95050,37.3378682,-121.9508276
1074,Kiely Boulevard,95051,37.3458778,-121.9789850
3194,De La Cruz Boulevard,95054,37.3815268,-121.9415032
2652,Homestead Road,95051,37.3387309,-121.9733140
3330,El Camino Real,95051,37.3519699,-121.9875618
5145,Stevens Creek Boulevard,95051,37.3233342,-121.9930227
860,Civic Center Drive,95050,37.3559815,-121.9456882
3253,Stevens Creek Boulevard,95117,37.3235368,-121.9544141
3956,Rivermark Plaza,95054,37.3949207,-121.9466588
4767,Lafayette Street,95054,37.4011389,-121.9624107
3237,Coronado Place,95054,37.3807094,-121.9743343
2118,El Camino Real,95050,37.3509201,-121.9631085
2057,Agnew Road,95054,37.3943430,-121.9607553
5025,Stevens Creek Boulevard,95051,37.3234130,-121.9907318
2532,Augustine Drive,95054,37.3821014,-121.9743946
807,Aldo Avenue,95054,37.3849076,-121.9489881
4949,Marie P. DeBartolo Way,95054,37.4025520,-121.9678826
4945,Stevens Creek Boulevard,95051,37.3234151,-121.9892049
2722,Augustine Drive,95054,37.3809562,-121.9749997
2722,Augustine Drive,95054,37.3810335,-121.9749401
2722,Augustine Drive,95054,37.3810374,-121.9750545
2520,Augustine Drive,95054,37.3821139,-121.9738094
2526,Augustine Drive,95054,37.3821092,-121.9742312
2348,Walsh Avenue,95051,37.3673130,-121.9670509
508,Robert Avenue,95050,37.3643939,-121.9437977
2040,Walsh Avenue,95050,37.3691086,-121.9606814
2271,Calle de Luna,95054,37.4090874,-121.9645979
2301,Lafayette Street,95050,37.3632834,-121.9487906
3233,Stevens Creek Boulevard,95117,37.3235419,-121.9538878
3543,Homestead Road,95051,37.3389201,-121.9948848
4949,Marie P. DeBartolo Way,95054,37.4028209,-121.9677883
1075,Monroe Street,95050,37.3492483,-121.9481680
980,El Camino Real,95050,37.3542466,-121.9468390
2718,Homestead Road,95050,37.3382253,-121.9744523
2981,El Camino Real,95051,37.3527739,-121.9807728
2118,El Camino Real,95050,37.3509028,-121.9630817
2118,El Camino Real,95050,37.3509414,-121.9632228
2118,El Camino Real,95050,37.3509388,-121.9631302
2118,El Camino Real,95050,37.3508969,-121.9631770
2118,El Camino Real,95050,37.3508402,-121.9631533
2118,El Camino Real,95050,37.3508711,-121.9632169
2118,El Camino Real,95050,37.3508954,-121.9631500
2118,El Camino Real,95050,37.3509180,-121.9631297
2118,El Camino Real,95050,37.3509248,-121.9631546
2118,El Camino Real,95050,37.3508682,-121.9631255
2118,El Camino Real,95050,37.3509223,-121.9631906
2118,El Camino Real,95050,37.3509028,-121.9632246
2118,El Camino Real,95050,37.3508957,-121.9632011
2118,El Camino Real,95050,37.3509494,-121.9631004
2118,El Camino Real,95050,37.3508991,-121.9631230
2118,El Camino Real,95050,37.3508625,-121.9631019
2118,El Camino Real,95050,37.3509565,-121.9631512
2118,El Camino Real,95050,37.3509456,-121.9631711
2118,El Camino Real,95050,37.3509531,-121.9631983
2118,El Camino Real,95050,37.3509247,-121.9632117
2118,El Camino Real,95050,37.3508693,-121.9632452
2118,El Camino Real,95050,37.3508733,-121.9631564
2118,El Camino Real,95050,37.3508931,-121.9631009
2118,El Camino Real,95050,37.3508710,-121.9631745
2118,El Camino Real,95050,37.3509336,-121.9630844
2118,El Camino Real,95050,37.3509438,-121.9632477
2118,El Camino Real,95050,37.3508963,-121.9632486
2118,El Camino Real,95050,37.3508454,-121.9631772
2094,El Camino Real,95050,37.3501517,-121.9632493
2118,El Camino Real,95050,37.3508608,-121.9631953
977,Monroe Street,95050,37.3484463,-121.9476970
1171,Homestead Road,95050,37.3483082,-121.9461235
3056,El Camino Real,95051,37.3516417,-121.9818235
3032,El Camino Real,95051,37.3517752,-121.9815001
980,El Camino Real,95050,37.3543499,-121.9466622
1475,Main Street,95050,37.3538020,-121.9480842
1212,El Camino Real,95050,37.3530720,-121.9498454
1580,Los Padres Boulevard,95050,37.3517903,-121.9651637
2489,El Camino Real,95051,37.3526323,-121.9701092
2452,El Camino Real,95051,37.3518581,-121.9696646
2037,El Camino Real,95050,37.3529510,-121.9603612
2855,Stevens Creek Boulevard,95050,37.3253960,-121.9469840
2855,Stevens Creek Boulevard,95050-6709,37.3254993,-121.9467320
3350,Scott Boulevard,95054,37.3800581,-121.9846779
3350,Scott Boulevard,95054,37.3797645,-121.9850440
3350,Scott Boulevard,95054,37.3800693,-121.9856073
3350,Scott Boulevard,95054,37.3793787,-121.9849300
3350,Scott Boulevard,95054,37.3795503,-121.9846618
3350,Scott Boulevard,95054,37.3795535,-121.9841910
3350,Scott Boulevard,95054,37.3795546,-121.9840838
3350,Scott Boulevard,95054,37.3795418,-121.9837445
3350,Scott Boulevard,95054,37.3795652,-121.9834266
3350,Scott Boulevard,95054,37.3795631,-121.9833059
3350,Scott Boulevard,95054,37.3795439,-121.9836010
3350,Scott Boulevard,95054,37.3789599,-121.9836720
3350,Scott Boulevard,95054,37.3787127,-121.9834481
3350,Scott Boulevard,95054,37.3787042,-121.9832375
3350,Scott Boulevard,95054,37.3787148,-121.9829586
3350,Scott Boulevard,95054,37.3787159,-121.9830444
3350,Scott Boulevard,95054,37.3784090,-121.9842366
3350,Scott Boulevard,95054,37.3784761,-121.9842340
3350,Scott Boulevard,95054,37.3782598,-121.9833354
3350,Scott Boulevard,95054,37.3782608,-121.9829961
3350,Scott Boulevard,95054,37.3782587,-121.9831490
3350,Scott Boulevard,95054,37.3783109,-121.9827950
3350,Scott Boulevard,95054,37.3783322,-121.9825871
3350,Scott Boulevard,95054,37.3783834,-121.9823564
3350,Scott Boulevard,95054,37.3793521,-121.9827574
3350,Scott Boulevard,95054,37.3796484,-121.9827628
3350,Scott Boulevard,95054,37.3799350,-121.9835487
3350,Scott Boulevard,95054,37.3800118,-121.9837726
3350,Scott Boulevard,95054,37.3799670,-121.9837726
3350,Scott Boulevard,95054,37.3799222,-121.9837699
3350,Scott Boulevard,95054,37.3787910,-121.9841348
3350,Scott Boulevard,95054,37.3787644,-121.9844674
3350,Scott Boulevard,95054,37.3790084,-121.9854397
3350,Scott Boulevard,95054,37.3790777,-121.9854384
3350,Scott Boulevard,95054,37.3790180,-121.9855296
3350,Scott Boulevard,95054,37.3789722,-121.9857844
3350,Scott Boulevard,95054,37.3789445,-121.9856824
3350,Scott Boulevard,95054,37.3789999,-121.9856811
3350,Scott Boulevard,95054,37.3789850,-121.9859480
3350,Scott Boulevard,95054,37.3785395,-121.9863450
3350,Scott Boulevard,95054,37.3789477,-121.9863704
3350,Scott Boulevard,95054,37.3793228,-121.9863745
3350,Scott Boulevard,95054,37.3792863,-121.9857321
3350,Scott Boulevard,95054,37.3798457,-121.9856100
3350,Scott Boulevard,95054,37.3798468,-121.9855081
3350,Scott Boulevard,95054,37.3798948,-121.9855537
3350,Scott Boulevard,95054,37.3797956,-121.9858635
3350,Scott Boulevard,95054,37.3797967,-121.9857428
3350,Scott Boulevard,95054,37.3795164,-121.9863611
3350,Scott Boulevard,95054,37.3784991,-121.9850642
3350,Scott Boulevard,95054,37.3786436,-121.9851958
3350,Scott Boulevard,95054,37.3796933,-121.9863409
3350,Scott Boulevard,95054,37.3800727,-121.9859292
3350,Scott Boulevard,95054,37.3800333,-121.9862658
3350,Scott Boulevard,95054,37.3786724,-121.9850548
3350,Scott Boulevard,95054,37.3784582,-121.9846887
3350,Scott Boulevard,95054,37.3782834,-121.9846833
3350,Scott Boulevard,95054,37.3782419,-121.9863597
3350,Scott Boulevard,95054,37.3782397,-121.9861854
3350,Scott Boulevard,95054,37.3785051,-121.9864924
3350,Scott Boulevard,95054,37.3785610,-121.9864917
3350,Scott Boulevard,95054,37.3796976,-121.9864867
3350,Scott Boulevard,95054,37.3797605,-121.9864863
2363,Pruneridge Avenue,95050,37.3301608,-121.9626788
1190,Homestead Road,95050,37.3479068,-121.9461659
1805,Pruneridge Avenue,95050,37.3304954,-121.9505487
2360,Pruneridge Avenue,95050,37.3296289,-121.9622778
770,Kiely Boulevard,95051,37.3376909,-121.9766519
830,Kiely Boulevard,95051,37.3390751,-121.9776687
3977,Stevens Creek Boulevard,95051,37.3236017,-121.9722479
1070,Kiely Boulevard,95051,37.3458184,-121.9789094
1064,Kiely Boulevard,95051,37.3458238,-121.9785903
545,Aldo Avenue,95054,37.3858524,-121.9461804
2695,Walsh Avenue,95051,37.3740202,-121.9748332
2977,El Camino Real,95051,37.3532361,-121.9805628
1500,Coleman Avenue,95050,37.3581758,-121.9372058
3074,Scott Boulevard,95054,37.3769003,-121.9615280
1498,Isabella Street,95050,37.3513826,-121.9555090
3003,Scott Boulevard,95054,37.3768863,-121.9594271
1610,East El Camino Real,95050,37.3520607,-121.9545860
3927,Rivermark Plaza,95054,37.3946434,-121.9455169
4595,Stevens Creek Boulevard,95051,37.3233725,-121.9836385
3194,De La Cruz Boulevard,95054,37.3814855,-121.9414725
2765,Scott Boulevard,95050,37.3703253,-121.9592308
418,Robert Avenue,95050,37.3644389,-121.9420469
1900,Duane Avenue,95054,37.3800452,-121.9592720
1466,Jefferson Street,95050,37.3519143,-121.9532846
2715,Lafayette Street,95050,37.3706047,-121.9494865
1845,Walsh Avenue,95050,37.3698635,-121.9585249
1805,Walsh Avenue,95050,37.3698712,-121.9580450
1745,Walsh Avenue,95050,37.3701739,-121.9578765
1835,Walsh Avenue,95050,37.3707146,-121.9580515
1815,Walsh Avenue,95050,37.3700570,-121.9580456
1829,Walsh Avenue,95050,37.3705650,-121.9580534
1825,Walsh Avenue,95050,37.3703998,-121.9580515
1819,Walsh Avenue,95050,37.3702206,-121.9580436
1869,Walsh Avenue,95050,37.3705712,-121.9585280
100,Saratoga Avenue,95051,37.3258845,-121.9682332
275,Saratoga Avenue,95050,37.3293870,-121.9640819
275,Saratoga Avenue,95050,37.3293952,-121.9638173
275,Saratoga Avenue,95050,37.3294005,-121.9642303
275,Saratoga Avenue,95050,37.3295320,-121.9642230
3283,De La Cruz Boulevard,95054,37.3833213,-121.9416675
2040,Wyatt Drive,95054,37.3874360,-121.9607081
2780,El Camino Real,95051,37.3504734,-121.9769286
3350,Thomas Road,95054,37.3814521,-121.9583748
3131,Jay Street,95054,37.3788333,-121.9604950
2354,Walsh Avenue,95051,37.3675649,-121.9676206
2362,Walsh Avenue,95051,37.3677078,-121.9679515
2786,Homestead Road,95051,37.3381630,-121.9762064
2000,El Camino Real,95050,37.3517350,-121.9598844
2000,El Camino Real,95050,37.3515043,-121.9599022
2732,Augustine Drive,95054,37.3810390,-121.9763617
3253,Coronado Place,95054,37.3810439,-121.9744000
3141,Stevens Creek Boulevard,95117,37.3240775,-121.9516070
3249,Coronado Place,95054,37.3809203,-121.9743904
2908,El Camino Real,95051,37.3515648,-121.9786890
3761,Lafayette Street,95054,37.3881936,-121.9533023
2760,Homestead Road,95051,37.3380615,-121.9752706
986,Bellomy Street,95050,37.3450620,-121.9416741
477,Washington Street,95050,37.3448649,-121.9415577
477,Washington Street,95050,37.3448421,-121.9415458
917,Bellomy Street,95050,37.3455421,-121.9412245
510,Lafayette Street,95050,37.3456354,-121.9410524
3948,Rivermark Plaza,95054,37.3943909,-121.9461498
3938,Rivermark Plaza,95054,37.3946945,-121.9461835
2341,El Camino Real,95050,37.3527146,-121.9661134
2362,El Camino Real,95050,37.3520951,-121.9675464
2270,Martin Avenue,95050,37.3682277,-121.9639622
2390,Mission College Boulevard,95054,37.3885215,-121.9679868
2250,Walsh Avenue,95050,37.3690830,-121.9642293
1043,Di Giulio Avenue,95050,37.3613062,-121.9507416
1043,Di Giulio Avenue,95050,37.3614645,-121.9507387
1043,Di Giulio Avenue,95050,37.3614751,-121.9505643
1043,Di Giulio Avenue,95050,37.3613174,-121.9505670
3787,Stevens Creek Boulevard,95051,37.3240564,-121.9687417
2450,Scott Boulevard,95050,37.3666623,-121.9602893
2855,Stevens Creek Boulevard,95128,37.3240767,-121.9468130
2670,El Camino Real,95051,37.3510296,-121.9757259
2670,El Camino Real,95051,37.3510467,-121.9757279
650,Reed Street,95050,37.3593457,-121.9443575
640,Reed Street,95050,37.3594015,-121.9442079
630,Reed Street,95050,37.3594612,-121.9440550
620,Reed Street,95050,37.3595124,-121.9439075
351,Saratoga Avenue,95050-7002,37.3306561,-121.9633244
353,Saratoga Avenue,95050-7002,37.3306543,-121.9632441
355,Saratoga Avenue,95050-7002,37.3306326,-121.9631832
357,Saratoga Avenue,95050-7002,37.3306042,-121.9631210
3700,Thomas Road,95054,37.3862571,-121.9607531
3700,Thomas Road,95054,37.3863544,-121.9606708
3700,Thomas Road,95054,37.3863245,-121.9606478
3700,Thomas Road,95054,37.3861818,-121.9609016
2005,De La Cruz Boulevard,95050,37.3609414,-121.9409929
3023,Kaiser Drive,95051,37.3431497,-121.9826674
3023,Kaiser Drive,95051,37.3431497,-121.9826179
3023,Kaiser Drive,95051,37.3431498,-121.9825712
3023,Kaiser Drive,95051,37.3431498,-121.9825138
3023,Kaiser Drive,95051,37.3431499,-121.9824613
3023,Kaiser Drive,95051,37.3431500,-121.9824009
3023,Kaiser Drive,95051,37.3431304,-121.9823497
3023,Kaiser Drive,95051,37.3431270,-121.9822897
3023,Kaiser Drive,95051,37.3431091,-121.9822407
3023,Kaiser Drive,95051,37.3431085,-121.9821801
3023,Kaiser Drive,95051,37.3430974,-121.9821265
3023,Kaiser Drive,95051,37.3430946,-121.9820668
3043,Kaiser Drive,95051,37.3436009,-121.9812548
3043,Kaiser Drive,95051,37.3435605,-121.9812543
3043,Kaiser Drive,95051,37.3435148,-121.9812537
3043,Kaiser Drive,95051,37.3434714,-121.9812532
3011,Kaiser Drive,95051,37.3425810,-121.9814950
3011,Kaiser Drive,95051,37.3425327,-121.9814959
3011,Kaiser Drive,95051,37.3424826,-121.9814967
3011,Kaiser Drive,95051,37.3424305,-121.9814976
3011,Kaiser Drive,95051,37.3423762,-121.9814986
3011,Kaiser Drive,95051,37.3423194,-121.9814995
2368,Pruneridge Avenue,95050,37.3295919,-121.9628477
3194,De La Cruz Boulevard,95054,37.3817585,-121.9416361
3194,De La Cruz Boulevard,95054,37.3814365,-121.9414403
3194,De La Cruz Boulevard,95054,37.3815870,-121.9415328
1041,El Camino Real,95050,37.3544199,-121.9480189
3700,Thomas Road,95054,37.3874324,-121.9603776
3561,El Camino Real,95051,37.3536863,-121.9939703
2975,Bowers Avenue,95051,37.3749901,-121.9773811
3071,Stevens Creek Boulevard,95050,37.3241584,-121.9494164
3912,Rivermark Plaza,95054,37.3939351,-121.9459842
2730,Homestead Road,95051,37.3381593,-121.9746517
3330,El Camino Real,95051,37.3521379,-121.9875771
3465,Victor Street,95054,37.3878017,-121.9390897
2855,Stevens Creek Boulevard,95050,37.3253232,-121.9454015
500,El Camino Real,95053,37.3484885,-121.9313801
4321,Lick Mill Boulevard,95054,37.4002706,-121.9468061
4901,Lick Mill Boulevard,95054,37.4061315,-121.9566105
641,Moreland Way,95054,37.3964661,-121.9474303
4176,Lick Mill Boulevard,95054,37.3983294,-121.9467977
3945,Rivermark Plaza,95054,37.3946322,-121.9462532
5001,Great America Parkway,95054,37.4043687,-121.9751004
500,El Camino Real,95053,37.3505126,-121.9366725
2700,Chromite Drive,95051,37.3667628,-121.9744807
3330,Pruneridge Avenue,95051,37.3296896,-121.9880726
1250,Pomeroy Avenue,95051,37.3481829,-121.9882700
3250,Monroe Street,95051,37.3662141,-121.9877806
3360,Cabrillo Avenue,95051,37.3594544,-121.9888502
2582,Cabrillo Avenue,95051,37.3582237,-121.9735248
2550,Cabrillo Avenue,95051,37.3579376,-121.9709142
2755,Barkley Avenue,95051,37.3583320,-121.9753702
2526,West Tasman Drive,95054,37.4048617,-121.9721669
5451,Lafayette Street,95054,37.4148765,-121.9703087
3000,Mission College Boulevard,95054,37.3923250,-121.9826241
555,Los Padres Boulevard,95050,37.3362407,-121.9603274
1111,Bellomy Street,95050,37.3440930,-121.9430646
690,Lawrence Expressway,95051,37.3347820,-121.9975703
4150,Great America Parkway,95054,37.3907812,-121.9768618
3000,Mission College Boulevard,95054,37.3925310,-121.9828226
3000,Mission College Boulevard,95054,37.3926338,-121.9820827
3000,Mission College Boulevard,95054,37.3927657,-121.9813138
3000,Mission College Boulevard,95054,37.3919774,-121.9807771
3000,Mission College Boulevard,95054,37.3921653,-121.9816980
3000,Mission College Boulevard,95054,37.3921197,-121.9811076
3600,Juliette Lane,95054,37.3859162,-121.9664233
3595,Mac Gregor Lane,95054,37.3884020,-121.9456205
2150,Agnew Road,95054,37.3928337,-121.9618526
61,Fuller Street,95054,37.3975457,-121.9649541
4949,Great America Parkway,95054,37.4025256,-121.9766987
3920,Rivermark Plaza,95054,37.3935662,-121.9469232
3001,Mission College Boulevard,95054,37.3880598,-121.9820737
1800,Wyatt Drive,95054,37.3887356,-121.9581462
1950,Wyatt Drive,95054,37.3882682,-121.9589505
2721,San Tomas Expressway,95050,37.3709567,-121.9644760
2711,San Tomas Expressway,95050,37.3707888,-121.9630078
2701,San Tomas Expressway,95050,37.3701975,-121.9640990
2880,Scott Boulevard,95050,37.3727791,-121.9616470
2251,Lawson Lane,95054,37.3767642,-121.9641921
2560,Alhambra Drive,95051,37.3694021,-121.9758907
2720,Sonoma Place,95051-4806,37.3446750,-121.9759124
909,Kiely Boulevard,95050,37.3422619,-121.9752812
615,Hobart Terrace,95051,37.3331307,-121.9768378
220,Blake Avenue,95051,37.3283356,-121.9801295
1995,El Camino Real,95050,37.3527192,-121.9590649
2250,Warburton Avenue,95050-3653,37.3567235,-121.9642045
1490,Don Avenue,95050,37.3567376,-121.9550418
1500,Warburton Avenue,95050,37.3549712,-121.9547059
3755,El Camino Real,95051,37.3526801,-121.9997774
1601,Coleman Avenue,95050-3122,37.3569067,-121.9393309
2734,El Camino Real,95051,37.3520011,-121.9754767
2499,Homestead Road,95050,37.3414626,-121.9692452
2625,Hayward Drive,95050,37.3448420,-121.9737207
2635,Homestead Road,95051,37.3406078,-121.9737013
2985,Stevenson Street,95051,37.3363042,-121.9821336
420,North Winchester Boulevard,95050-6325,37.3346464,-121.9524570
2280,Rosita Avenue,95050,37.3333760,-121.9566307
435,Saratoga Avenue,95050,37.3333156,-121.9600900
2191,Laurelwood Road,95054,37.3848059,-121.9638417
1177,Laurelwood Road,95054,37.3802601,-121.9527643
3223,Kenneth Street,95054,37.3788292,-121.9559257
750,Laurie Avenue,95054,37.3890804,-121.9464299
3120,Scott Boulevard,95054,37.3771652,-121.9634209
3657,Forest Avenue,95050,37.3263618,-121.9648372
460,La Herran Drive,95051,37.3311374,-122.0003657
250,Howard Drive,95051,37.3271065,-122.0036763
710,Lawrence Expressway,95051,37.3358468,-121.9991897
2300-2398,Walsh Avenue,95051,37.3678669,-121.9670864
2800,Kifer Road,95051,37.3731941,-121.9789906
2805,Bowers Avenue,95051,37.3723785,-121.9765052
2710,Walsh Avenue,95051,37.3733395,-121.9754155
2400,Walsh Avenue,95051,37.3686137,-121.9695397
3445,Benton Street,95051,37.3461730,-121.9910542
2051,Calle de Primavera,95054,37.4049101,-121.9617285
4949,Calle de Escuela,95054,37.4057373,-121.9629184
1,Apple Park Way,94087,37.3317933,-122.0093781
4343,Stevens Creek Boulevard,95051,37.3240645,-121.9779841
1425,Lafayette Street,95050,37.3548162,-121.9444781
455,El Camino Real,95050,37.3506333,-121.9341808
481,El Camino Real,95050,37.3523739,-121.9354880
1260,Campbell Avenue,95126,37.3496969,-121.9314454
3250,Monroe Street,95051,37.3650257,-121.9849700
1350,Hope Drive,95054,37.3997999,-121.9547967
3530,De La Cruz Boulevard,95054,37.3865088,-121.9447316
3520,De La Cruz Boulevard,95054,37.3871584,-121.9447652
651,Bucher Avenue,95051,37.3362006,-121.9687463
5301,Stevens Creek Boulevard,95051,37.3249425,-121.9986881
550,Moreland Way,95054,37.3954958,-121.9443722
2320,Walsh Avenue,95051,37.3683296,-121.9662956
2220,Martin Avenue,95050,37.3663034,-121.9642880
2250,Martin Avenue,95050,37.3676477,-121.9642068
2230,Martin Avenue,95050,37.3670302,-121.9642123
5101,Great America Parkway,95054,37.4050623,-121.9764292
5201,Great America Parkway,95054,37.4063072,-121.9765887
888,Reed Street,95050,37.3587063,-121.9471747
1750,Halford Avenue,95051,37.3557167,-121.9987216
1720,Halford Avenue,95051,37.3550947,-121.9987120
1730,Halford Avenue,95051,37.3551133,-122.0000020
1760,Halford Avenue,95051,37.3557043,-122.0000015
1700,Halford Avenue,95051,37.3543777,-121.9997054
3715,El Camino Real,95050,37.3527938,-121.9983357
3725,El Camino Real,95051,37.3527681,-121.9987053
3775,El Camino Real,95051,37.3526972,-122.0003192
4341,East El Camino Real,95051,37.3528099,-122.0013685
4401,Great America Parkway,95054,37.3935352,-121.9764429
4301,Great America Parkway,95054,37.3932055,-121.9756556
2450,Cabrillo Avenue,95051-1880,37.3587639,-121.9697820
425,El Camino Real,95053,37.3459124,-121.9331012
859,El Camino Real,95050,37.3555779,-121.9452015
2800,Mission College Boulevard,95054,37.3884412,-121.9775447
3520,De La Cruz Boulevard,95054,37.3868327,-121.9452138
2400,Agnew Road,95054-1202,37.3895617,-121.9691021
3111,Benton Street,95051,37.3465175,-121.9836141
1045,Los Padres Boulevard,95050,37.3450632,-121.9640926
3300,Olcott Street,95054,37.3820798,-121.9676894
3005,West Tasman Drive;Tasman Drive,95054,37.4042333,-121.9833742
3003,Tasman Drive,95054,37.4042751,-121.9822386
5403,Betsy Ross Drive,95054,37.4097720,-121.9813234
5451,Patrick Henry Drive,95054,37.4100734,-121.9839623
5390,Great America Parkway,95054,37.4100817,-121.9780976
2901,Coronado Drive,95054,37.3751575,-121.9717141
3990,Freedom Circle,95054,37.3885565,-121.9722470
2880,Lakeside Drive,95054,37.3834462,-121.9802387
3000,Mission College Boulevard,95054,37.3913520,-121.9840940
3000,Mission College Boulevard,95054,37.3903821,-121.9822655
3000,Mission College Boulevard,95054,37.3906765,-121.9827379
3000,Mission College Boulevard,95054,37.3904311,-121.9828388
3000,Mission College Boulevard,95054,37.3902766,-121.9820220
3000,Mission College Boulevard,95054,37.3900843,-121.9821391
3000,Mission College Boulevard,95054,37.3907404,-121.9831410
3000,Mission College Boulevard,95054,37.3916201,-121.9838627
4949,Marie P. DeBartolo Way,95054,37.4027926,-121.9678039
4949,Marie P. DeBartolo Way,95054,37.4033900,-121.9667583
1005,Railroad Avenue,95050,37.3530987,-121.9362357
5301,Stevens Creek Boulevard,95051,37.3253908,-121.9992671
1930,Townsend Avenue,95051-2203,37.3582933,-121.9881089
3370,Thomas Road,95054,37.3821264,-121.9587696
2151,Laurelwood Road,95054,37.3837202,-121.9615976
3350,Thomas Road,95054,37.3814521,-121.9583753
4300,Great America Parkway,95054-1231,37.3929602,-121.9773957
3740,El Camino Real,95051,37.3518897,-121.9987812
5155,Stevens Creek Boulevard,95051,37.3233933,-121.9930905
5201,Stevens Creek Boulevard,95051,37.3239536,-121.9936668
3155,Stevens Creek Boulevard,95117,37.3238039,-121.9527343
3575,Stevens Creek Boulevard,95050,37.3235997,-121.9618607
3581,Stevens Creek Boulevard,95117,37.3235834,-121.9624079
3395,Stevens Creek Boulevard,95050,37.3236216,-121.9581724
3615,Stevens Creek Boulevard,95117,37.3235792,-121.9636422
3497,Stevens Creek Boulevard,95117,37.3235591,-121.9595645
3585,Stevens Creek Boulevard,95117,37.3237914,-121.9626284
3615,Stevens Creek Boulevard,95117,37.3235933,-121.9683421
75,Saratoga Avenue,95050,37.3246085,-121.9683166
3895,Stevens Creek Boulevard,95051-7336,37.3236828,-121.9690475
3737,Stevens Creek Boulevard,95051,37.3238364,-121.9675647
270,Saratoga Avenue,95050-6629,37.3293728,-121.9653629
298,Saratoga Avenue,95050,37.3296243,-121.9651297
122,Saratoga Avenue,95051,37.3262094,-121.9681341
160,Saratoga Avenue,95051,37.3270146,-121.9681096
4945,Stevens Creek Boulevard,95051,37.3235487,-121.9892011
4747,Stevens Creek Boulevard,95051,37.3235334,-121.9855045
4425,Stevens Creek Boulevard,95051,37.3235686,-121.9800209
5041,Stevens Creek Boulevard,95051,37.3233647,-121.9909748
4795,Stevens Creek Boulevard,95051,37.3236466,-121.9868526
4855,Stevens Creek Boulevard,95051,37.3237580,-121.9881009
4695,Stevens Creek Boulevard,95051,37.3235314,-121.9846591
3935,Freedom Circle,95054,37.3849366,-121.9708492
5020,Stars and Stripes Drive,95054,37.4048916,-121.9676538
3120,De La Cruz Boulevard,95054,37.3789051,-121.9408629
3140,De La Cruz Boulevard,95054,37.3798269,-121.9414772
3150,De La Cruz Boulevard,95054,37.3802653,-121.9416805
605,Laurelwood Road,95054,37.3808334,-121.9459850
491,Gianni Street,95054,37.3790039,-121.9434689
3351,Keller Street,95054,37.3815158,-121.9475988
3233,De La Cruz Boulevard,95054,37.3828240,-121.9410913
3165,De La Cruz Boulevard,95054,37.3800553,-121.9394934
530,Aldo Avenue,95054,37.3851390,-121.9448470
3170,De La Cruz Boulevard,95054,37.3804644,-121.9412278
382,Laurelwood Road,95054,37.3814232,-121.9395686
3199,De La Cruz Boulevard,95054,37.3818788,-121.9407029
3194,De La Cruz Boulevard,95054,37.3815174,-121.9415798
3266,De La Cruz Boulevard,95054,37.3825691,-121.9431623
3160,De La Cruz Boulevard,95054,37.3801649,-121.9409408
3255,Victor Street,95054,37.3848687,-121.9367551
3170,De La Cruz Boulevard,95054,37.3800205,-121.9412444
3311,Edward Avenue,95054,37.3847051,-121.9404095
423,Nelo Street,95054,37.3888128,-121.9412628
3380,Edward Avenue,95054,37.3854224,-121.9420247
3242,De La Cruz Boulevard,95054,37.3829697,-121.9422885
812,Aldo Avenue,95054,37.3834973,-121.9484341
500,El Camino Real,95053,37.3483649,-121.9379505
500,El Camino Real,95053,37.3511012,-121.9396856
500,El Camino Real,95053,37.3477351,-121.9388452
500,El Camino Real,95053,37.3501981,-121.9426005
500,El Camino Real,95053,37.3490964,-121.9396474
500,El Camino Real,95053,37.3484320,-121.9399795
500,El Camino Real,95053,37.3493477,-121.9416063
725,Washington Street,95050,37.3474861,-121.9430431
1303,Fremont Street,95050-4734,37.3503279,-121.9511736
1250,Hope Drive,95054,37.4007567,-121.9533864
500,El Camino Real,95053,37.3498518,-121.9352351
2900,Bowers Avenue,95051,37.3745414,-121.9783677
3530,El Camino Real,95051,37.3519978,-121.9935596
2885,Lakeside Drive,95054,37.3839038,-121.9785337
3350,Scott Boulevard,95054,37.3786896,-121.9830085
3350,Scott Boulevard,95054,37.3785845,-121.9837740
3350,Scott Boulevard,95054,37.3786865,-121.9832425
3350,Scott Boulevard,95054,37.3786314,-121.9850513
3350,Scott Boulevard,95054,37.3782855,-121.9846823
3350,Scott Boulevard,95054,37.3782762,-121.9842436
3350,Scott Boulevard,95054,37.3787107,-121.9834504
3350,Scott Boulevard,95054,37.3784487,-121.9846858
3350,Scott Boulevard,95054,37.3782555,-121.9833349
3350,Scott Boulevard,95054,37.3782534,-121.9830674
3350,Scott Boulevard,95054,37.3783057,-121.9835394
3350,Scott Boulevard,95054,37.3787123,-121.9827979
3350,Scott Boulevard,95054,37.3784390,-121.9842357
3350,Scott Boulevard,95054,37.3783098,-121.9827956
3350,Scott Boulevard,95054,37.3786161,-121.9824140
3350,Scott Boulevard,95054,37.3783816,-121.9823596
3350,Scott Boulevard,95054,37.3783319,-121.9825893
3350,Scott Boulevard,95054,37.3800725,-121.9856081
3350,Scott Boulevard,95054,37.3800716,-121.9859845
3350,Scott Boulevard,95054,37.3800316,-121.9862653
3350,Scott Boulevard,95054,37.3798534,-121.9855536
3350,Scott Boulevard,95054,37.3797960,-121.9858020
3350,Scott Boulevard,95054,37.3789577,-121.9836733
3350,Scott Boulevard,95054,37.3793493,-121.9827550
3350,Scott Boulevard,95054,37.3795542,-121.9831229
3350,Scott Boulevard,95054,37.3795598,-121.9833649
3350,Scott Boulevard,95054,37.3795518,-121.9836704
3350,Scott Boulevard,95054,37.3799668,-121.9837771
3350,Scott Boulevard,95054,37.3799320,-121.9835421
3350,Scott Boulevard,95054,37.3799101,-121.9833346
3350,Scott Boulevard,95054,37.3799317,-121.9831281
3350,Scott Boulevard,95054,37.3799932,-121.9828516
3350,Scott Boulevard,95054,37.3798206,-121.9827731
3350,Scott Boulevard,95054,37.3796452,-121.9827596
3350,Scott Boulevard,95054,37.3800567,-121.9842436
3350,Scott Boulevard,95054,37.3800580,-121.9846792
3350,Scott Boulevard,95054,37.3798941,-121.9846853
3350,Scott Boulevard,95054,37.3798924,-121.9842368
3350,Scott Boulevard,95054,37.3795516,-121.9841403
3350,Scott Boulevard,95054,37.3795749,-121.9844018
3350,Scott Boulevard,95054,37.3795554,-121.9846608
3350,Scott Boulevard,95054,37.3797147,-121.9850390
3350,Scott Boulevard,95054,37.3793798,-121.9849266
3350,Scott Boulevard,95054,37.3789698,-121.9849298
3350,Scott Boulevard,95054,37.3787939,-121.9846556
3350,Scott Boulevard,95054,37.3787689,-121.9843956
3350,Scott Boulevard,95054,37.3787903,-121.9841366
3350,Scott Boulevard,95054,37.3782420,-121.9862695
3350,Scott Boulevard,95054,37.3782008,-121.9859899
3350,Scott Boulevard,95054,37.3782018,-121.9856133
3350,Scott Boulevard,95054,37.3784167,-121.9855628
3350,Scott Boulevard,95054,37.3784752,-121.9858078
3350,Scott Boulevard,95054,37.3785348,-121.9863498
3350,Scott Boulevard,95054,37.3787513,-121.9863490
3350,Scott Boulevard,95054,37.3789432,-121.9863694
3350,Scott Boulevard,95054,37.3789857,-121.9859500
3350,Scott Boulevard,95054,37.3789752,-121.9857319
3350,Scott Boulevard,95054,37.3790160,-121.9854878
3350,Scott Boulevard,95054,37.3792468,-121.9854979
3350,Scott Boulevard,95054,37.3792850,-121.9857334
3350,Scott Boulevard,95054,37.3792755,-121.9859513
3350,Scott Boulevard,95054,37.3793208,-121.9863753
3350,Scott Boulevard,95054,37.3795150,-121.9863508
3350,Scott Boulevard,95054,37.3797303,-121.9863425
3350,Scott Boulevard,95054,37.3789553,-121.9825667
486,North Winchester Boulevard,95050,37.3264053,-121.9498458
68,North Winchester Boulevard,95050,37.3256186,-121.9505403
3235,Kifer Road,95051,37.3745307,-121.9855855
3250,Central Expressway,95051,37.3764248,-121.9861735
3001,Oakmead Village Drive,95051,37.3764906,-121.9801286
2960,Corvin Drive,95051,37.3754952,-121.9884063
2960,Corvin Drive,95051,37.3761243,-121.9886718
2960,Corvin Drive,95051,37.3765309,-121.9885825
3400,Central Expressway,95051,37.3766381,-121.9904856
2960,Corvin Drive,95051,37.3749843,-121.9884742
3250,Scott Boulevard,95054,37.3788854,-121.9718687
3201,Scott Boulevard,95054,37.3794581,-121.9666816
3101,Jay Street,95054,37.3784209,-121.9609533
3033,Scott Boulevard,95054,37.3776878,-121.9611973
3131,Jay Street,95054,37.3788935,-121.9603843
3101,Scott Boulevard,95054,37.3782775,-121.9625210
3103,Scott Boulevard,95054,37.3787219,-121.9637529
3100,Alfred Street,95054,37.3784820,-121.9592153
3151,Jay Street,95054,37.3793707,-121.9609560
1100,Space Park Drive,95054,37.3758220,-121.9533359
1201,Comstock Street,95054,37.3749966,-121.9540769
1525,Comstock Street,95054,37.3749324,-121.9559987
1725,Comstock Street,95054,37.3750232,-121.9580962
1700,Space Park Drive,95054,37.3756301,-121.9572131
1100,Duane Avenue,95054,37.3782815,-121.9527767
2925,Scott Boulevard,95054,37.3753283,-121.9590842
2215,Lawson Lane,95054,37.3749726,-121.9625601
2805,Lafayette Street,95050,37.3722213,-121.9482625
2765,Lafayette Street,95050,37.3713304,-121.9488739
2845,Lafayette Street,95050,37.3731130,-121.9481867
2825,Lafayette Street,95050,37.3726238,-121.9467960
3205,Bassett Street,95054,37.3797897,-121.9499034
1855,Norman Avenue,95054,37.3844135,-121.9584305
500,El Camino Real,95053,37.3476686,-121.9394526
500,El Camino Real,95053,37.3481261,-121.9390630
1451,Coleman Avenue,95050,37.3568906,-121.9365173
1998,Homestead Road,95050,37.3434014,-121.9590389
900,Lafayette Street,95050,37.3494465,-121.9434641
1098,Lexington Street,95050,37.3473351,-121.9447976
725,Washington Street,95050,37.3473355,-121.9428652
500,El Camino Real,95053,37.3481725,-121.9415742
941,Lexington Street,95050,37.3483365,-121.9431770
500,El Camino Real,95053,37.3496341,-121.9425930
500,El Camino Real,95053,37.3486059,-121.9418825
1871,Martin Avenue,95050,37.3666126,-121.9588797
1000,Walsh Avenue,95050,37.3694139,-121.9525233
1180,Walsh Avenue,95050,37.3694662,-121.9558197
1990,Walsh Avenue,95050,37.3688288,-121.9590954
2163,Martin Avenue,95050,37.3668196,-121.9618537
1810,Martin Avenue,95050,37.3660230,-121.9585524
1800,Richard Avenue,95050,37.3649323,-121.9586887
975,Richard Avenue,95050,37.3653007,-121.9511734
2435,Lafayette Street,95050,37.3652987,-121.9482101
1190,Coleman Avenue,95110,37.3567999,-121.9318746
1545,Berger Drive,95112,37.3575241,-121.9336809
1500,Coleman Avenue,95050,37.3581750,-121.9371925
290,Martin Avenue,95050,37.3594357,-121.9347661
300,Martin Avenue,95050,37.3597429,-121.9353905
1825,De La Cruz Boulevard,95050,37.3600185,-121.9403876
1885,De La Cruz Boulevard,95050,37.3604685,-121.9408181
2005,De La Cruz Boulevard,95050,37.3610742,-121.9407963
601,El Camino Real,95050,37.3537942,-121.9387109
638,El Camino Real,95050,37.3546581,-121.9421127
2600,Homestead Road,95051,37.3393755,-121.9725618
770,Kiely Boulevard,95051,37.3376360,-121.9768412
2605,The Alameda,95050,37.3451893,-121.9364305
2555,The Alameda,95050,37.3451680,-121.9357255
2792,Homestead Road,95051,37.3375687,-121.9756157
2760,Homestead Road,95051,37.3378624,-121.9751080
3970,Rivermark Plaza,95054,37.3947502,-121.9476834
3071,Stevens Creek Boulevard,95050,37.3244198,-121.9494457
955,Teal Drive,95051,37.3425297,-122.0012746
2655,Keystone Avenue,95051,37.3255030,-121.9708359
2625,Keystone Avenue,95051,37.3248392,-121.9707276
1545,Vista Club Circle,95054,37.4030064,-121.9566546
3255,Mission College Boulevard,95054,37.3900576,-121.9854469
3520,Homestead Road,95051,37.3363616,-121.9936373
3586,Homestead Road,95051,37.3375174,-121.9948241
3590,Homestead Road,95051,37.3374616,-121.9951116
3509,Homestead Road,95051,37.3383197,-121.9938756
3521,Homestead Road,95051,37.3392523,-121.9942818
3750,El Camino Real,95051-2613,37.3518634,-121.9997489
1530,Vista Club Circle,95054,37.4017376,-121.9566149
1532,Vista Club Circle,95054,37.4015840,-121.9570391
1534,Vista Club Circle,95054,37.4019098,-121.9571777
1540,Vista Club Circle,95054,37.4020919,-121.9567088
1535,Vista Club Circle,95054,37.4023961,-121.9574985
1537,Vista Club Circle,95054,37.4028302,-121.9575933
1539,Vista Club Circle,95054,37.4025209,-121.9571847
1541,Vista Club Circle,95054,37.4030003,-121.9571624
1543,Vista Club Circle,95054,37.4026432,-121.9566774
1553,Vista Club Circle,95054,37.4028255,-121.9562495
1528,Vista Club Circle,95054,37.4019796,-121.9560827
1550,Vista Club Circle,95054,37.4023074,-121.9561740
1558,Vista Club Circle,95054,37.4021848,-121.9556805
1522,Vista Club Circle,95054,37.4009072,-121.9550848
1524,Vista Club Circle,95054,37.4012225,-121.9553805
1518,Vista Club Circle,95054,37.4014610,-121.9551921
1520,Vista Club Circle,95054,37.4011099,-121.9548712
1555,Vista Club Circle,95054,37.4031937,-121.9561840
1561,Vista Club Circle,95054,37.4032559,-121.9556931
1573,Vista Club Circle,95054,37.4033977,-121.9552290
1575,Vista Club Circle,95054,37.4034515,-121.9547950
1574,Vista Club Circle,95054,37.4031723,-121.9547678
1562,Vista Club Circle,95054,37.4028495,-121.9555120
1578,Vista Club Circle,95054,37.4029742,-121.9544602
1570,Vista Club Circle,95054,37.4028432,-121.9547563
1566,Vista Club Circle,95054,37.4026571,-121.9551833
1560,Vista Club Circle,95054,37.4024026,-121.9553388
1568,Vista Club Circle,95054,37.4024460,-121.9547635
1510,Vista Club Circle,95054,37.4019079,-121.9544111
1526,Vista Club Circle,95054,37.4019837,-121.9550579
1580,Vista Club Circle,95054,37.4026701,-121.9542884
1502,Vista Club Circle,95054,37.4020931,-121.9539221
1504,Vista Club Circle,95054,37.4018279,-121.9536954
1508,Vista Club Circle,95054,37.4017019,-121.9539883
1506,Vista Club Circle,95054,37.4015007,-121.9536740
1514,Vista Club Circle,95054,37.4011927,-121.9544094
1512,Vista Club Circle,95054,37.4015175,-121.9544247
1516,Vista Club Circle,95054,37.4015551,-121.9547644
500,El Camino Real,95053,37.3491716,-121.9352349
500,El Camino Real,95053,37.3494556,-121.9373419
3490,The Alameda,95050,37.3538825,-121.9416403
500,El Camino Real,95053,37.3493723,-121.9403008
777,Benton Street,95050-4926,37.3520883,-121.9422067
500,El Camino Real,95053,37.3462777,-121.9346247
873,Franklin Street,95050,37.3506800,-121.9430431
2797,Park Avenue,95050,37.3445332,-121.9370447
3305,The Alameda,95053,37.3522787,-121.9414994
706,Benton Street,95050-4927,37.3516952,-121.9410256
2905,Park Avenue,95050,37.3455903,-121.9376028
3395,The Alameda,95053,37.3528711,-121.9417103
2391,The Alameda,95050,37.3448206,-121.9340557
2421,The Alameda,95050,37.3449504,-121.9344276
2222,The Alameda,95050,37.3449581,-121.9323031
2185,The Alameda,95126,37.3438082,-121.9316230
500,El Camino Real,95053,37.3505342,-121.9393429
3355,The Alameda,95050,37.3525453,-121.9418027
2234,The Alameda,95050,37.3451505,-121.9326903
500,El Camino Real,95053,37.3512477,-121.9386008
3208,El Camino Real,95051,37.3516371,-121.9847898
3216,El Camino Real,95051,37.3519784,-121.9850437
3725,El Camino Real,95051,37.3526125,-121.9987674
2877,Lakeside Drive,95054,37.3831634,-121.9787941
2800,Augustine Drive,95054,37.3821003,-121.9783649
1855,El Camino Real,95050,37.3527242,-121.9579239
1655,El Camino Real,95050,37.3529676,-121.9554939
1925,El Camino Real,95050-4162,37.3528302,-121.9585295
1971,Saint Lawrence Drive,95051,37.3579952,-121.9947798
4900,Marie P. DeBartolo Way,95054,37.4029927,-121.9700565
3665,Flora Vista Avenue,95051,37.3502165,-121.9940407
3482,Wheeling Drive,95051,37.3328793,-121.9924704
2401,Agnew Road,95054,37.3936762,-121.9695058
4701,Great America Parkway,95054,37.3955906,-121.9720401
3355,Scott Boulevard,95054,37.3813141,-121.9828374
3315,Scott Boulevard,95054,37.3812121,-121.9806296
3315,Scott Boulevard,95054,37.3810725,-121.9816019
1599,Warburton Avenue,95050,37.3566776,-121.9573142
1500,Martin Avenue,95050,37.3655140,-121.9561403
911,El Camino Real,95050,37.3549642,-121.9465321
3546,Flora Vista Avenue,95051,37.3532362,-121.9924955
2800,El Camino Real,95051,37.3518434,-121.9781937
2900,El Camino Real,95051,37.3519957,-121.9785804
2845,Augustine Drive,95054,37.3827741,-121.9783656
2255,Augustine Drive,95054,37.3827101,-121.9789053
2250,El Camino Real,95050,37.3518976,-121.9639658
2236,El Camino Real,95050,37.3518251,-121.9626532
2062,Main Street,95050,37.3593053,-121.9516343
2221,Tasman Drive,95054,37.4078752,-121.9638319
5451,Great America Parkway,95054,37.4113408,-121.9768629
5455,Great America Parkway,95054,37.4123954,-121.9768468
5453,Great America Parkway,95054,37.4118564,-121.9759537
1290,Scott Boulevard,95050,37.3489590,-121.9597035
680,Lawrence Expressway,95051,37.3347849,-121.9963225
3175,Bowers Avenue,95054,37.3798475,-121.9765659
500,El Camino Real,95053,37.3487291,-121.9333741
1700,De La Cruz Boulevard,95050,37.3580258,-121.9419867
695,Moreland Way,95054,37.3957473,-121.9469869
859,El Camino Real,95050,37.3554940,-121.9452035
540,Benton Street,95050,37.3527822,-121.9387573
1962,Bellomy Street,95050,37.3400611,-121.9542422
1717,Bellomy Street,95050,37.3425079,-121.9507656
2200,Monroe Street,95050,37.3605484,-121.9614912
2061,Rockhurst Court,95051,37.3604660,-121.9889891
2071,Rockhurst Court,95051,37.3606143,-121.9887796
2072,Rockhurst Court,95051,37.3605046,-121.9892538
2082,Rockhurst Court,95051,37.3606827,-121.9893700
2092,Rockhurst Court,95051,37.3608497,-121.9893967
2081,Rockhurst Court,95051,37.3608526,-121.9888679
2091,Rockhurst Court,95051,37.3610170,-121.9889258
2102,Rockhurst Court,95051,37.3609981,-121.9894165
2101,Rockhurst Court,95051,37.3611780,-121.9889761
2112,Rockhurst Court,95051,37.3611640,-121.9895142
2122,Rockhurst Court,95051,37.3613127,-121.9895642
2121,Rockhurst Court,95051,37.3614864,-121.9890937
2111,Rockhurst Court,95051,37.3613341,-121.9890353
2132,Rockhurst Court,95051,37.3614802,-121.9896159
3368,Machado Avenue,95051,37.3616736,-121.9891424
3378,Machado Avenue,95051,37.3616691,-121.9896925
3358,Machado Avenue,95051,37.3616606,-121.9887600
2130,Fordham Drive,95051,37.3615019,-121.9886982
2120,Fordham Drive,95051,37.3613438,-121.9886214
2110,Fordham Drive,95051,37.3611865,-121.9885620
2100,Fordham Drive,95051,37.3610224,-121.9885163
2090,Fordham Drive,95051,37.3608674,-121.9884732
2080,Fordham Drive,95051,37.3606963,-121.9884154
2070,Fordham Drive,95051,37.3605294,-121.9883575
2060,Fordham Drive,95051,37.3603844,-121.9883173
690,North Winchester Boulevard,95128,37.3283971,-121.9498103
650,North Winchester Boulevard,95128,37.3281638,-121.9498392
3151,Via Siena Place,95051,37.3405991,-121.9798403
850,Pomeroy Avenue,95051,37.3395761,-121.9879121
2050,Fordham Drive,95051,37.3601685,-121.9882003
3361,Cabrillo Avenue,95051,37.3601553,-121.9884564
3365,Rockhurst Court,95051,37.3601697,-121.9886623
3371,Rockhurst Court,95051,37.3601789,-121.9888648
3375,Rockhurst Court,95051,37.3601769,-121.9890702
3391,Rockhurst Court,95051,37.3601619,-121.9896816
3381,Cabrillo Avenue,95051,37.3601666,-121.9892759
3385,Cabrillo Avenue,95051,37.3601661,-121.9894923
3395,Rockhurst Court,95051,37.3601580,-121.9898920
3405,Cabrillo Avenue,95051,37.3601613,-121.9901215
2051,Nobili Avenue,95051,37.3601295,-121.9904389
2061,Nobili Avenue,95051,37.3602803,-121.9904936
2071,Nobili Avenue,95051,37.3604130,-121.9905543
2081,Nobili Avenue,95051,37.3605484,-121.9906461
2091,Nobili Avenue,95051,37.3606866,-121.9907235
2101,Nobili Avenue,95051,37.3608249,-121.9907842
2111,Nobili Avenue,95051,37.3609660,-121.9908377
2113,Nobili Avenue,95051,37.3610917,-121.9909391
2121,Nobili Avenue,95051,37.3612320,-121.9910129
2131,Nobili Avenue,95051,37.3613662,-121.9910725
2133,Nobili Avenue,95051,37.3615135,-121.9911443
2141,Nobili Avenue,95051,37.3616553,-121.9912082
3428,Machado Avenue,95051,37.3616486,-121.9908614
3408,Machado Avenue,95051,37.3616694,-121.9905691
3388,Machado Avenue,95051,37.3616658,-121.9900455
2134,Xavier Court,95051,37.3614560,-121.9905290
2133,Xavier Court,95051,37.3614871,-121.9900176
2124,Xavier Court,95051,37.3612993,-121.9904824
2123,Xavier Court,95051,37.3613191,-121.9899600
2114,Xavier Court,95051,37.3611386,-121.9904443
2103,Xavier Court,95051,37.3611568,-121.9899090
2103,Xavier Court,95051,37.3612454,-121.9897924
2104,Xavier Court,95051,37.3609709,-121.9903615
2094,Nobili Avenue,95051,37.3608247,-121.9903187
2093,Xavier Court,95051,37.3609938,-121.9898386
2083,Xavier Court,95051,37.3608423,-121.9897887
2084,Xavier Court,95051,37.3606602,-121.9902929
2074,Xavier Court,95051,37.3604488,-121.9901568
2063,Xavier Court,95051,37.3604354,-121.9898861
2073,Xavier Court,95051,37.3606535,-121.9897026
1885,Worthington Circle,95050,37.3268312,-121.9541925
295,Monroe Street,95050,37.3421663,-121.9434454
2006,El Camino Real,95050,37.3519695,-121.9611598
2140,El Camino Real,95050,37.3519185,-121.9615609
1330,Halford Avenue,95051,37.3490916,-121.9995080
3760,Tamarack Lane,95051,37.3564202,-121.9999007
3760,Tamarack Lane,95051,37.3564310,-121.9987397
3760,Tamarack Lane,95051,37.3561901,-121.9996038
3760,Tamarack Lane,95051,37.3561941,-121.9989367
3760,Tamarack Lane,95051,37.3562618,-121.9994028
1405,Civic Center Drive,95050,37.3537933,-121.9531226
3545,Lehigh Drive,95051,37.3351175,-121.9944495
3480,Homestead Road,95051,37.3376086,-121.9925537
815,Bing Drive,95051-5104,37.3385064,-121.9924396
3480,Homestead Road,95051,37.3374472,-121.9924814
3465,Homestead Road,95051,37.3380759,-121.9925728
3520,Tracy Drive,95051,37.3279302,-121.9934320
473,Norwood Circle,95051,37.3304793,-121.9960024
500,Lawrence Expressway,95051,37.3317338,-121.9960274
3665,Benton Street,95051,37.3458826,-121.9968394
2114,Briarwood Drive,95051,37.3608159,-121.9938513
3876,Pruneridge Avenue,95051,37.3319944,-122.0037415
1485,Santa Clara Street,95050,37.3451601,-121.9488374
1065,Lafayette Street,95050,37.3509114,-121.9433400
3760,Tamarack Lane,95051,37.3562349,-121.9996039
3760,Tamarack Lane,95051,37.3563293,-121.9989372
3760,Tamarack Lane,95051,37.3562554,-121.9992470
3760,Tamarack Lane,95051,37.3563244,-121.9996043
3760,Tamarack Lane,95051,37.3562553,-121.9992974
3760,Tamarack Lane,95051,37.3562796,-121.9996041
3760,Tamarack Lane,95051,37.3562617,-121.9994627
3760,Tamarack Lane,95051,37.3562556,-121.9991967
3760,Tamarack Lane,95051,37.3562843,-121.9989370
3760,Tamarack Lane,95051,37.3562392,-121.9989369
3760,Tamarack Lane,95051,37.3562552,-121.9993477
3760,Tamarack Lane,95051,37.3562613,-121.9990818
3760,Tamarack Lane,95051,37.3562612,-121.9991416
3760,Tamarack Lane,95051,37.3563362,-121.9993554
2105,Scott Boulevard,95050-3253,37.3613807,-121.9590696
2055,Don Court,95050,37.3584011,-121.9549822
3915,Rivermark Plaza,95054,37.3945267,-121.9446486
2732,Augustine Drive,95054,37.3808484,-121.9759220
3000,Mission College Boulevard,95054,37.3920592,-121.9832502
2702,Augustine Drive,95054,37.3820235,-121.9749931
2850,Augustine Drive,95054,37.3818180,-121.9788683
1500,Vista Club Circle,95054,37.4023832,-121.9541266
1050,Kiely Boulevard,95051,37.3454939,-121.9783374
1052,Kiely Boulevard,95051,37.3457637,-121.9780605
2800,Benton Street,95051,37.3461195,-121.9782110
2925,Mead Avenue,95051,37.3722702,-121.9796311
550,Mansion Court,95054,37.3989040,-121.9456376
554,Mansion Park Drive,95054,37.3996815,-121.9430179
500,Mansion Court,95054,37.3986946,-121.9450574
4027,Crandall Circle,95054,37.3964065,-121.9455793
1700,Halford Avenue,95051,37.3543150,-122.0003786
3779,De La Cruz Boulevard,95054,37.3907952,-121.9452013
983,Laurie Avenue,95054,37.3862853,-121.9509705
968,Leith Avenue,95054,37.3883158,-121.9504234
2056,Fairway Glen Drive,95054,37.4026753,-121.9605073
4464,Cheeney Street,95054,37.3959892,-121.9627453
4469,Cheeney Street,95054,37.3961782,-121.9620929
2067,Agnew Road,95054,37.3943150,-121.9609011
2017,Agnew Road,95054,37.3947470,-121.9598941
1051,Sherman Street,95050,37.3524403,-121.9393209
500,El Camino Real,95053,37.3474153,-121.9373925
2050,Fordham Drive,95051,37.3602329,-121.9882428
3161,El Camino Real,95051,37.3527971,-121.9845538
2931,El Camino Real,95051,37.3528474,-121.9797617
1821,Bowers Avenue,95051,37.3567698,-121.9774070
2144,Royal Drive,95050,37.3571849,-121.9621368
1882,Amelia Way,95050,37.3572112,-121.9632999
2174,Royal Drive,95050,37.3571874,-121.9626057
1779,Eberhard Street,95050,37.3552454,-121.9621576
1757,Eberhard Street,95050,37.3550627,-121.9621471
1755,Roll Street,95050,37.3550705,-121.9629818
1778,Eberhard Street,95050,37.3552461,-121.9626330
1795,Roll Street,95050,37.3554292,-121.9629783
1786,Eberhard Street,95050,37.3554287,-121.9626416
2164,Warburton Avenue,95050,37.3556035,-121.9626443
2254,Warburton Avenue,95050,37.3556224,-121.9637675
1796,Roll Street,95050,37.3554316,-121.9634634
1756,Roll Street,95050,37.3550704,-121.9634659
1747,Cunningham Street,95050,37.3550693,-121.9637862
1775,Los Padres Boulevard,95050,37.3554458,-121.9646633
2274,Warburton Avenue,95050,37.3556215,-121.9643176
1821,Los Padres Boulevard,95050,37.3559925,-121.9647346
2287,Warburton Avenue,95050,37.3559524,-121.9645130
2277,Warburton Avenue,95050,37.3559719,-121.9642760
2257,Warburton Avenue,95050,37.3559726,-121.9638080
2247,Warburton Avenue,95050,37.3559741,-121.9635785
2183,Warburton Avenue,95050,37.3559817,-121.9631047
2173,Warburton Avenue,95050,37.3559843,-121.9628773
2163,Warburton Avenue,95050,37.3559621,-121.9626375
2153,Warburton Avenue,95050,37.3559742,-121.9624092
2172,Aza Drive,95050,37.3562793,-121.9625258
2142,Aza Drive,95050,37.3562789,-121.9620069
2143,Aza Drive,95050,37.3567631,-121.9621350
2173,Aza Drive,95050,37.3567561,-121.9625263
1831,Amelia Way,95050,37.3567962,-121.9627431
1862,Amelia Way,95050,37.3570303,-121.9632941
1842,Amelia Way,95050,37.3568283,-121.9632613
2182,Aza Drive,95050,37.3562784,-121.9627824
1802,Amelia Way,95050,37.3563496,-121.9632713
2134,Warburton Avenue,95050,37.3556122,-121.9621416
1787,Eberhard Street,95050,37.3554300,-121.9621447
1756,Eberhard Street,95050,37.3550704,-121.9626358
1771,Roll Street,95050,37.3552526,-121.9629848
2174,Warburton Avenue,95050,37.3555963,-121.9629424
2244,Warburton Avenue,95050,37.3556002,-121.9634916
1787,Cunningham Street,95050,37.3554317,-121.9638069
1765,Cunningham Street,95050,37.3552520,-121.9637856
1772,Roll Street,95050,37.3552459,-121.9634608
1744,Cunningham Street,95050,37.3550717,-121.9642918
1757,Los Padres Boulevard,95050,37.3550842,-121.9647148
1762,Cunningham Street,95050,37.3552529,-121.9643017
1763,Los Padres Boulevard,95050,37.3552646,-121.9646625
1784,Cunningham Street,95050,37.3554340,-121.9642666
2294,Warburton Avenue,95050,37.3556096,-121.9646750
2267,Warburton Avenue,95050,37.3559796,-121.9640523
2237,Warburton Avenue,95050,37.3559592,-121.9633451
2143,Warburton Avenue,95050,37.3559519,-121.9621688
2133,Warburton Avenue,95050,37.3559631,-121.9619348
2162,Aza Drive,95050,37.3562808,-121.9622648
2192,Aza Drive,95050,37.3562552,-121.9631591
1822,Amelia Way,95050,37.3565543,-121.9632964
1822,Amelia Way,95050,37.3566728,-121.9632500
1739,Eberhard Street,95050,37.3548832,-121.9621488
1727,Eberhard Street,95050,37.3547014,-121.9621428
1685,Eberhard Street,95050,37.3545224,-121.9621489
1675,Eberhard Street,95050,37.3543411,-121.9621722
1665,Eberhard Street,95050,37.3541580,-121.9621547
1645,Eberhard Street,95050,37.3539775,-121.9621713
1635,Eberhard Street,95050,37.3537994,-121.9621736
2147,Bray Avenue,95050,37.3536060,-121.9621509
2165,Bray Avenue,95050,37.3536165,-121.9626563
1630,Eberhard Street,95050,37.3538055,-121.9626473
1640,Eberhard Street,95050,37.3539815,-121.9626401
1660,Eberhard Street,95050,37.3541642,-121.9626345
1670,Eberhard Street,95050,37.3543447,-121.9626423
1680,Eberhard Street,95050,37.3545235,-121.9626554
1726,Eberhard Street,95050,37.3547073,-121.9626381
1738,Eberhard Street,95050,37.3548828,-121.9626165
1731,Roll Street,95050,37.3548903,-121.9629733
1715,Roll Street,95050,37.3547061,-121.9630058
1687,Roll Street,95050,37.3545240,-121.9629756
1673,Roll Street,95050,37.3543442,-121.9630081
1657,Roll Street,95050,37.3541627,-121.9629689
1633,Roll Street,95050,37.3539822,-121.9630001
1617,Roll Street,95050,37.3538001,-121.9629997
2187,Bray Avenue,95050,37.3536285,-121.9629797
1634,Roll Street,95050,37.3539804,-121.9634344
1618,Roll Street,95050,37.3538007,-121.9634299
2235,Bray Avenue,95050,37.3536153,-121.9634765
2257,Bray Avenue,95050,37.3536292,-121.9637892
1621,Cunningham Street,95050,37.3538015,-121.9638051
1635,Cunningham Street,95050,37.3539864,-121.9638029
1658,Roll Street,95050,37.3541604,-121.9634578
1674,Roll Street,95050,37.3543434,-121.9634495
1651,Cunningham Street,95050,37.3541649,-121.9638214
1675,Cunningham Street,95050,37.3543452,-121.9638056
1688,Roll Street,95050,37.3545248,-121.9634541
1691,Cunningham Street,95050,37.3545307,-121.9638007
1716,Roll Street,95050,37.3547111,-121.9634647
1727,Cunningham Street,95050,37.3547108,-121.9638063
1732,Roll Street,95050,37.3548873,-121.9634734
1735,Cunningham Street,95050,37.3548920,-121.9637966
2275,Bray Avenue,95050,37.3535595,-121.9643268
1628,Cunningham Street,95050,37.3538021,-121.9642844
1636,Cunningham Street,95050,37.3539833,-121.9642636
1650,Cunningham Street,95050,37.3541623,-121.9642622
1676,Cunningham Street,95050,37.3543468,-121.9642681
1690,Cunningham Street,95050,37.3545273,-121.9642960
1724,Cunningham Street,95050,37.3547095,-121.9642955
1732,Cunningham Street,95050,37.3548777,-121.9642656
1749,Los Padres Boulevard,95050,37.3549067,-121.9646713
1737,Los Padres Boulevard,95050,37.3547222,-121.9646788
1725,Los Padres Boulevard,95050,37.3545403,-121.9646764
1693,Los Padres Boulevard,95050,37.3543648,-121.9646989
1681,Los Padres Boulevard,95050,37.3541732,-121.9646527
1679,Los Padres Boulevard,95050,37.3539977,-121.9646828
1667,Los Padres Boulevard,95050,37.3538167,-121.9646543
1655,Los Padres Boulevard,95050,37.3536347,-121.9646773
2295,Bray Avenue,95050,37.3534361,-121.9646647
2190,Bray Avenue,95050,37.3532555,-121.9629412
2198,Bray Avenue,95050,37.3532568,-121.9631251
2228,Bray Avenue,95050,37.3532612,-121.9633368
2238,Bray Avenue,95050,37.3532668,-121.9635650
2248,Bray Avenue,95050,37.3532860,-121.9637853
2268,Bray Avenue,95050,37.3532320,-121.9640131
2278,Bray Avenue,95050,37.3531507,-121.9642530
2288,Bray Avenue,95050,37.3530676,-121.9644953
1637,Los Padres Boulevard,95050,37.3530428,-121.9647064
1890,Scott Boulevard,95050,37.3572273,-121.9599405
2094,Royal Drive,95050,37.3572189,-121.9609988
2104,Royal Drive,95050,37.3571840,-121.9616625
1818,Scott Boulevard,95050-3722,37.3562015,-121.9603082
1840,Scott Boulevard,95050,37.3563876,-121.9599421
1850,Scott Boulevard,95050,37.3565500,-121.9599437
1860,Scott Boulevard,95050,37.3567313,-121.9599401
1880,Scott Boulevard,95050,37.3570664,-121.9599424
1859,Joan Way,95050,37.3570187,-121.9610033
1830,Joan Way,95050,37.3567927,-121.9615290
1839,Joan Way,95050,37.3568112,-121.9609602
1819,Joan Way,95050,37.3566388,-121.9609619
2112,Aza Drive,95050,37.3562606,-121.9614917
2122,Aza Drive,95050,37.3562627,-121.9617486
2095,Warburton Avenue,95050,37.3559599,-121.9614696
2075,Warburton Avenue,95050,37.3559760,-121.9610027
2065,Warburton Avenue,95050,37.3559764,-121.9607669
2055,Warburton Avenue,95050,37.3559954,-121.9605336
2045,Warburton Avenue,95050,37.3559490,-121.9602978
2035,Warburton Avenue,95050,37.3559720,-121.9600621
1808,Scott Boulevard,95050,37.3559748,-121.9598496
2028,Warburton Avenue,95050,37.3555912,-121.9598782
1785,Long Street,95050,37.3554237,-121.9602864
1794,Scott Boulevard,95050,37.3554314,-121.9598682
1775,Long Street,95050,37.3552409,-121.9602628
1764,Scott Boulevard,95050,37.3550601,-121.9598639
1786,Long Street,95050,37.3554254,-121.9607605
1776,Long Street,95050,37.3552454,-121.9607568
1775,Berna Street,95050,37.3552454,-121.9613150
1753,Berna Street,95050,37.3550647,-121.9613112
1772,Berna Street,95050,37.3552527,-121.9618355
1754,Berna Street,95050,37.3550720,-121.9618024
1809,Joan Way,95050,37.3563832,-121.9609688
2038,Warburton Avenue,95050,37.3556147,-121.9602256
1782,Scott Boulevard,95050,37.3552416,-121.9598712
1755,Long Street,95050,37.3550622,-121.9602740
1756,Long Street,95050,37.3550611,-121.9607585
1783,Berna Street,95050,37.3554270,-121.9613144
2068,Warburton Avenue,95050,37.3556128,-121.9607686
2078,Warburton Avenue,95050,37.3555939,-121.9612564
2085,Warburton Avenue,95050,37.3559707,-121.9612334
2102,Aza Drive,95050,37.3562511,-121.9611203
1870,Scott Boulevard,95050,37.3568872,-121.9599421
2123,Aza Drive,95050-3645,37.3567547,-121.9617470
2123,Warburton Avenue,95050,37.3559799,-121.9617027
2124,Warburton Avenue,95050,37.3556086,-121.9618234
1784,Berna Street,95050,37.3554331,-121.9618054
1632,Scott Boulevard,95050,37.3537927,-121.9598344
1654,Scott Boulevard,95050,37.3539724,-121.9598493
1662,Scott Boulevard,95050,37.3541517,-121.9599066
1674,Scott Boulevard,95050,37.3543451,-121.9598818
1682,Scott Boulevard,95050,37.3545156,-121.9598751
1724,Scott Boulevard,95050,37.3546973,-121.9598966
1742,Scott Boulevard,95050,37.3548791,-121.9598865
1735,Long Street,95050,37.3548816,-121.9602513
1725,Long Street,95050,37.3546993,-121.9602764
1687,Long Street,95050,37.3545164,-121.9602644
1671,Long Street,95050,37.3543366,-121.9602978
1667,Long Street,95050,37.3541538,-121.9602701
1651,Long Street,95050,37.3539782,-121.9602666
1637,Long Street,95050,37.3537954,-121.9602574
2023,Bray Avenue,95050,37.3536074,-121.9598822
2049,Bray Avenue,95050,37.3536077,-121.9602402
1610,Long Street,95050,37.3536105,-121.9607774
1630,Long Street,95050,37.3538159,-121.9607413
1650,Long Street,95050,37.3540151,-121.9607639
1660,Long Street,95050,37.3541761,-121.9607587
1670,Long Street,95050,37.3543389,-121.9607380
1690,Long Street,95050,37.3545225,-121.9607405
1726,Long Street,95050,37.3547024,-121.9607616
1736,Long Street,95050,37.3548826,-121.9607623
1735,Berna Street,95050,37.3548921,-121.9613453
1723,Berna Street,95050,37.3547014,-121.9613083
1691,Berna Street,95050,37.3545206,-121.9613085
1681,Berna Street,95050,37.3543410,-121.9612746
1669,Berna Street,95050,37.3541523,-121.9610311
1667,Berna Street,95050,37.3540960,-121.9612739
1633,Berna Street,95050,37.3538306,-121.9610905
2065,Bray Avenue,95050,37.3536305,-121.9611029
1605,Berna Street,95050,37.3536548,-121.9613674
1732,Berna Street,95050,37.3548857,-121.9618269
1724,Berna Street,95050,37.3547085,-121.9617903
1698,Berna Street,95050,37.3545216,-121.9618399
1686,Berna Street,95050,37.3543397,-121.9618286
1668,Berna Street,95050,37.3541602,-121.9618185
1646,Berna Street,95050,37.3539758,-121.9618154
1628,Berna Street,95050,37.3537978,-121.9617863
2125,Bray Avenue,95050,37.3536043,-121.9618244
1691,Triton Court,95050,37.3540859,-121.9566354
1505,Warburton Avenue,95050,37.3562235,-121.9550793
2025,Jackson Street,95050,37.3588185,-121.9526107
1776,Monroe Street,95050,37.3555217,-121.9524670
1776,Monroe Street,95050,37.3553768,-121.9523897
1311,Civic Center Drive,95050,37.3541527,-121.9518348
1321,Civic Center Drive,95050,37.3541041,-121.9519623
1368,Reeve Street,95050,37.3544921,-121.9525199
1353,El Camino Real,95050,37.3533825,-121.9511495
1358,Reeve Street,95050,37.3545614,-121.9523171
1378,Reeve Street,95050,37.3544318,-121.9526770
1212,El Camino Real,95050,37.3530911,-121.9498064
1111,El Camino Real,95050,37.3541472,-121.9489544
1550,Lafayette Street,95050,37.3552859,-121.9464977
980,El Camino Real,95050,37.3543272,-121.9467054
979,El Camino Real,95050,37.3548380,-121.9470073
3130,Membrillo Corte,95051,37.3397744,-121.9861020
3120,Membrillo Corte,95051,37.3397821,-121.9859716
3110,Membrillo Corte,95051,37.3397810,-121.9858393
3131,Membrillo Corte,95051,37.3399444,-121.9861087
3121,Membrillo Corte,95051,37.3399455,-121.9859754
3111,Membrillo Corte,95051,37.3399493,-121.9858436
855,Quince Avenue,95051,37.3395885,-121.9860177
3017,Kaiser Drive,95051,37.3429385,-121.9818809
3017,Kaiser Drive,95051,37.3427782,-121.9818811
3017,Kaiser Drive,95051,37.3426828,-121.9818813
3013,Kaiser Drive,95051,37.3427113,-121.9813977
3013,Kaiser Drive,95051,37.3427109,-121.9815104
3013,Kaiser Drive,95051,37.3427107,-121.9815677
3013,Kaiser Drive,95051,37.3427106,-121.9816259
3013,Kaiser Drive,95051,37.3427104,-121.9816833
3007,Kaiser Drive,95051,37.3421711,-121.9820759
3007,Kaiser Drive,95051,37.3421703,-121.9821311
3007,Kaiser Drive,95051,37.3421970,-121.9819679
3007,Kaiser Drive,95051,37.3421967,-121.9819102
3007,Kaiser Drive,95051,37.3421935,-121.9818532
3005,Kaiser Drive,95051,37.3421946,-121.9817521
3005,Kaiser Drive,95051,37.3421973,-121.9816409
3005,Kaiser Drive,95051,37.3421949,-121.9815847
3005,Kaiser Drive,95051,37.3421680,-121.9815293
3005,Kaiser Drive,95051,37.3421681,-121.9814725
3031,Kaiser Drive,95051,37.3435808,-121.9827818
3031,Kaiser Drive,95051,37.3435802,-121.9828947
3031,Kaiser Drive,95051,37.3435808,-121.9829534
3025,Kaiser Drive,95051,37.3432721,-121.9828113
3025,Kaiser Drive,95051,37.3432727,-121.9828838
3025,Kaiser Drive,95051,37.3433103,-121.9830333
3025,Kaiser Drive,95051,37.3433110,-121.9831096
3025,Kaiser Drive,95051,37.3433112,-121.9831857
3025,Kaiser Drive,95051,37.3433124,-121.9832615
3025,Kaiser Drive,95051,37.3433129,-121.9833371
3027,Kaiser Drive,95051,37.3434611,-121.9834786
3027,Kaiser Drive,95051,37.3434007,-121.9835312
3027,Kaiser Drive,95051,37.3433395,-121.9835316
3029,Kaiser Drive,95051,37.3435220,-121.9830429
3029,Kaiser Drive,95051,37.3435216,-121.9831542
3029,Kaiser Drive,95051,37.3435206,-121.9832099
3029,Kaiser Drive,95051,37.3435216,-121.9832655
3029,Kaiser Drive,95051,37.3435216,-121.9833212
3021,Kaiser Drive,95051,37.3430319,-121.9818303
3021,Kaiser Drive,95051,37.3431351,-121.9818279
3021,Kaiser Drive,95051,37.3431954,-121.9818262
3021,Kaiser Drive,95051,37.3432491,-121.9817928
3021,Kaiser Drive,95051,37.3432950,-121.9817915
3021,Kaiser Drive,95051,37.3433386,-121.9817905
3021,Kaiser Drive,95051,37.3433809,-121.9817893
3041,Kaiser Drive,95051,37.3435293,-121.9818066
3041,Kaiser Drive,95051,37.3435255,-121.9816962
3041,Kaiser Drive,95051,37.3435279,-121.9816410
3041,Kaiser Drive,95051,37.3435255,-121.9815858
3041,Kaiser Drive,95051,37.3435256,-121.9815306
3041,Kaiser Drive,95051,37.3435256,-121.9814755
3041,Kaiser Drive,95051,37.3435256,-121.9814159
3037,Kaiser Drive,95051,37.3435829,-121.9822013
3037,Kaiser Drive,95051,37.3435829,-121.9820924
3037,Kaiser Drive,95051,37.3435829,-121.9820378
3037,Kaiser Drive,95051,37.3435829,-121.9819834
3037,Kaiser Drive,95051,37.3435829,-121.9819289
3033,Kaiser Drive,95051,37.3435273,-121.9826032
3033,Kaiser Drive,95051,37.3434620,-121.9826034
3033,Kaiser Drive,95051,37.3433935,-121.9826007
3035,Kaiser Drive,95051,37.3435231,-121.9824048
3035,Kaiser Drive,95051,37.3433895,-121.9824040
3035,Kaiser Drive,95051,37.3435987,-121.9824048
3039,Kaiser Drive,95051,37.3434231,-121.9820470
3039,Kaiser Drive,95051,37.3433339,-121.9820470
3039,Kaiser Drive,95051,37.3432894,-121.9820470
3005,Kaiser Drive,95051,37.3421967,-121.9816970
3007,Kaiser Drive,95051,37.3422031,-121.9820229
3013,Kaiser Drive,95051,37.3427111,-121.9814547
3023,Kaiser Drive,95051,37.3431424,-121.9823674
3021,Kaiser Drive,95051,37.3430813,-121.9818293
3041,Kaiser Drive,95051,37.3435290,-121.9817514
3035,Kaiser Drive,95051,37.3434581,-121.9824041
3025,Kaiser Drive,95051,37.3433099,-121.9829572
3031,Kaiser Drive,95051,37.3435802,-121.9828383
3029,Kaiser Drive,95051,37.3435220,-121.9830985
3027,Kaiser Drive,95051,37.3435244,-121.9834782
3037,Kaiser Drive,95051,37.3435829,-121.9821468
3033,Kaiser Drive,95051,37.3435969,-121.9826010
3039,Kaiser Drive,95051,37.3433785,-121.9820470
3017,Kaiser Drive,95051,37.3428400,-121.9818810
3011,Kaiser Drive,95051,37.3424502,-121.9814781
3003,Kaiser Drive,95051,37.3423556,-121.9812448
3003,Kaiser Drive,95051,37.3422676,-121.9812443
3003,Kaiser Drive,95051,37.3422236,-121.9812442
980,Kiely Boulevard,95051,37.3432664,-121.9794905
3043,Kaiser Drive,95051,37.3435322,-121.9812505
3003,Kaiser Drive,95051,37.3423116,-121.9812445
2625,Patricia Drive,95050,37.3422420,-121.9735098
982,Las Palmas Drive,95051,37.3435262,-121.9710208
976,Las Palmas Drive,95051,37.3433852,-121.9710750
948,Las Palmas Drive,95051,37.3427841,-121.9716851
938,Las Palmas Drive,95051,37.3426872,-121.9720308
985,Las Palmas Drive,95051,37.3434898,-121.9704702
981,Las Palmas Drive,95051,37.3433514,-121.9705268
975,Las Palmas Drive,95051,37.3430716,-121.9706688
969,Las Palmas Drive,95051,37.3427998,-121.9707775
965,Las Palmas Drive,95051,37.3426732,-121.9709147
961,Las Palmas Drive,95051,37.3425721,-121.9710713
953,Las Palmas Drive,95051,37.3424299,-121.9714138
947,Las Palmas Drive,95051,37.3423637,-121.9715987
937,Las Palmas Drive,95051,37.3422544,-121.9719464
933,Las Palmas Drive,95051,37.3422056,-121.9721133
957,Las Palmas Drive,95051,37.3424809,-121.9712363
958,Las Palmas Drive,95051,37.3429515,-121.9713106
962,Las Palmas Drive,95051,37.3431038,-121.9712152
972,Las Palmas Drive,95051,37.3432438,-121.9711535
986,Las Palmas Drive,95051,37.3436561,-121.9709434
999,Las Palmas Drive,95051,37.3438919,-121.9702686
995,Las Palmas Drive,95051,37.3437657,-121.9703416
991,Las Palmas Drive,95051,37.3436234,-121.9703992
979,Las Palmas Drive,95051,37.3432105,-121.9706039
973,Las Palmas Drive,95051,37.3429429,-121.9707316
952,Las Palmas Drive,95051,37.3428426,-121.9715145
942,Las Palmas Drive,95051,37.3427356,-121.9718597
943,Las Palmas Drive,95051,37.3423169,-121.9717792
925,Las Palmas Drive,95051,37.3420620,-121.9723224
939,White Drive,95051,37.3427103,-121.9723656
979,White Drive,95051,37.3436765,-121.9723568
931,White Drive,95051,37.3425743,-121.9723335
947,White Drive,95051,37.3428538,-121.9723651
949,White Drive,95051,37.3429901,-121.9723551
953,White Drive,95051,37.3431267,-121.9723344
957,White Drive,95051,37.3432655,-121.9723585
971,White Drive,95051,37.3434029,-121.9723622
973,White Drive,95051,37.3435423,-121.9723787
983,White Drive,95051,37.3438156,-121.9723752
2535,Armstrong Place,95050,37.3403778,-121.9691146
2525,Armstrong Place,95050,37.3405283,-121.9690181
2499,Homestead Road,95050,37.3414233,-121.9689517
2484,Brannan Place,95050,37.3391173,-121.9677224
2530,Malone Place,95050,37.3388358,-121.9679729
734,Raney Court,95050,37.3389550,-121.9676296
2532,Malone Place,95050,37.3386756,-121.9679341
2540,Malone Place,95050,37.3384967,-121.9678299
2511,Scanlan Place,95050,37.3381356,-121.9676817
2501,Scanlan Place,95050,37.3381885,-121.9675015
726,Raney Court,95050,37.3387939,-121.9675789
2552,Malone Place,95050,37.3383373,-121.9677546
2520,Malone Place,95050,37.3389874,-121.9680582
2454,Brannan Place,95050,37.3393547,-121.9669314
2424,Brannan Place,95050,37.3395211,-121.9664348
727,Garner Court,95050,37.3392044,-121.9662617
719,Garner Court,95050,37.3390003,-121.9661983
716,Garner Court,95050,37.3388655,-121.9663595
714,Raney Court,95050,37.3385920,-121.9672022
2461,Scanlan Place,95050,37.3384154,-121.9669287
2421,Scanlan Place,95050,37.3386864,-121.9661801
2417,Scanlan Place,95050,37.3387403,-121.9659964
2411,Scanlan Place,95050,37.3387977,-121.9657431
712,Los Olivos Drive,95050,37.3389945,-121.9658038
2412,Brannan Place,95050,37.3396063,-121.9661272
2464,Brannan Place,95050,37.3392659,-121.9672352
733,Raney Court,95050,37.3390951,-121.9671492
736,Garner Court,95050,37.3392049,-121.9668696
728,Garner Court,95050,37.3390392,-121.9667755
725,Raney Court,95050,37.3389522,-121.9670842
723,Raney Court,95050,37.3387439,-121.9670168
724,Raney Court,95050,37.3386208,-121.9674553
720,Garner Court,95050,37.3388785,-121.9666588
735,Garner Court,95050,37.3393442,-121.9663563
738,Los Olivos Drive,95050,37.3394476,-121.9660197
722,Los Olivos Drive,95050,37.3393007,-121.9659776
718,Los Olivos Drive,95050,37.3391352,-121.9658715
2441,Scanlan Place,95050,37.3385357,-121.9665559
2431,Scanlan Place,95050,37.3386030,-121.9663618
2451,Scanlan Place,95050,37.3384656,-121.9667560
2471,Scanlan Place,95050,37.3383318,-121.9671245
2481,Scanlan Place,95050,37.3382612,-121.9673048
565,Robin Drive,95050,37.3376444,-121.9593129
545,Saratoga Avenue,95050,37.3383232,-121.9565834
588,Saratoga Avenue,95050,37.3413673,-121.9550642
1889,Market Street,95050,37.3423417,-121.9535839
1414,North Winchester Boulevard,95128,37.3379537,-121.9497903
466,North Winchester Boulevard,95050,37.3390471,-121.9506701
2561,Newhall Street,95050,37.3379084,-121.9510333
976,Poplar Street,95050,37.3433713,-121.9403947
225,Washington Street,95050,37.3416910,-121.9395769
36,Washington Street,95050,37.3387109,-121.9389278
25,Washington Street,95050,37.3383163,-121.9377175
11,Linden Drive,95050,37.3377644,-121.9350735
14,Linden Drive,95050,37.3377793,-121.9355185
1345,Idaho Street,95126,37.3419335,-121.9320517
1175,Morse Street,95126,37.3425341,-121.9320969
1364,Idaho Street,95126,37.3415148,-121.9319726
1535,Walnut Grove Avenue,95126,37.3381980,-121.9328507
1545,Walnut Grove Avenue,95126,37.3380793,-121.9329986
1555,Walnut Grove Avenue,95126,37.3379521,-121.9331466
1525,Walnut Grove Avenue,95126,37.3382730,-121.9327123
1515,Walnut Grove Avenue,95126,37.3383951,-121.9325478
1495,Walnut Grove Avenue,95126,37.3385358,-121.9324424
1520,Walnut Grove Avenue,95126,37.3380918,-121.9322529
1530,Walnut Grove Avenue,95126,37.3379688,-121.9324148
1510,Walnut Grove Avenue,95126,37.3382080,-121.9321355
1485,Walnut Grove Avenue,95126,37.3386118,-121.9322335
1475,Walnut Grove Avenue,95126,37.3387474,-121.9321606
1465,Walnut Grove Avenue,95126,37.3388829,-121.9320010
2136,Park Avenue,95126,37.3410225,-121.9318468
3050,El Camino Real,95051,37.3518259,-121.9818111
3050,El Camino Real,95051,37.3518241,-121.9821455
2570,El Camino Real,95051,37.3520408,-121.9728925
2505,El Camino Real,95051,37.3527534,-121.9710378
2455,El Camino Real,95051,37.3529266,-121.9693069
2336,El Camino Real,95050,37.3519795,-121.9660128
1555,Los Padres Boulevard,95050-4439,37.3517303,-121.9644595
1499,Lincoln Street,95050,37.3519316,-121.9538666
1680,El Camino Real,95050,37.3520616,-121.9554138
1700,El Camino Real,95050,37.3519998,-121.9561820
500,El Camino Real,95053,37.3507714,-121.9410989
1786,Catherine Street,95050,37.3497934,-121.9554708
1105,Benton Street,95050,37.3504023,-121.9466326
1247,Benton Street,95050,37.3498429,-121.9480759
500,El Camino Real,95053,37.3498807,-121.9388226
1590,Franklin Street,95050-4715,37.3471600,-121.9510906
616,Washington Street,95050,37.3461959,-121.9429481
3445,Benton Street,95051,37.3454957,-121.9908892
2600,Benton Street,95051-4802,37.3454754,-121.9734366
1068,Las Palmas Drive,95051,37.3455912,-121.9703836
1078,Las Palmas Drive,95051,37.3457566,-121.9703909
1088,Las Palmas Drive,95051,37.3459213,-121.9703856
2502,Hayward Drive,95051,37.3450292,-121.9703440
1048,Las Palmas Drive,95051,37.3452635,-121.9703811
1058,Las Palmas Drive,95051,37.3454227,-121.9703836
1005,Las Palmas Drive,95051,37.3440419,-121.9701994
1067,Scott Boulevard,95050,37.3459572,-121.9590951
445,Washington Street,95050,37.3444308,-121.9413123
531,Washington Street,95050,37.3454955,-121.9419037
2179,Stebbins Avenue,95051,37.3621619,-121.9740939
2179,Stebbins Avenue,95051,37.3622495,-121.9742423
2273,Pyle Court,95051,37.3632242,-121.9704423
2516,Parkland Court,95051,37.3693973,-121.9799076
2526,Parkland Court,95051,37.3695364,-121.9799110
2536,Agate Drive,95051,37.3696857,-121.9799411
2525,Parkland Court,95051,37.3695395,-121.9794166
2535,Agate Drive,95051,37.3696873,-121.9794030
2508,Parkland Court,95051,37.3691906,-121.9797655
2503,Parkland Court,95051,37.3691759,-121.9794511
2515,Parkland Court,95051,37.3693788,-121.9793427
2527,Pilot Knob Drive,95051,37.3679241,-121.9773511
2900,Homestead Road,95051,37.3373666,-121.9795218
444,Saratoga Avenue,95050,37.3355193,-121.9631097
444,Saratoga Avenue,95050,37.3352649,-121.9634043
444,Saratoga Avenue,95050,37.3354261,-121.9635084
444,Saratoga Avenue,95050,37.3356225,-121.9625281
444,Saratoga Avenue,95050,37.3358775,-121.9618765
444,Saratoga Avenue,95050,37.3361717,-121.9620300
444,Saratoga Avenue,95050,37.3363961,-121.9624410
444,Saratoga Avenue,95050,37.3360203,-121.9624363
444,Saratoga Avenue,95050,37.3358631,-121.9628414
444,Saratoga Avenue,95050,37.3358049,-121.9634811
444,Saratoga Avenue,95050,37.3361269,-121.9631982
444,Saratoga Avenue,95050,37.3357010,-121.9638717
2386,Forbes Avenue,95050,37.3361734,-121.9640471
2380,Forbes Avenue,95050,37.3362153,-121.9638770
2376,Forbes Avenue,95050,37.3362915,-121.9637121
2370,Forbes Avenue,95050,37.3363302,-121.9635498
2366,Forbes Avenue,95050,37.3363780,-121.9633635
2360,Forbes Avenue,95050,37.3364497,-121.9632302
2356,Forbes Avenue,95050,37.3364864,-121.9630815
2350,Forbes Avenue,95050,37.3365583,-121.9629143
2346,Forbes Avenue,95050,37.3366166,-121.9627612
2340,Forbes Avenue,95050,37.3366714,-121.9625875
2336,Forbes Avenue,95050,37.3367318,-121.9624546
2330,Forbes Avenue,95050,37.3367832,-121.9622955
2226,Forbes Avenue,95050,37.3368407,-121.9621583
590,Los Padres Boulevard,95050,37.3368933,-121.9619663
444,Saratoga Avenue,95050,37.3362533,-121.9618278
444,Saratoga Avenue,95050,37.3354437,-121.9610924
444,Saratoga Avenue,95050,37.3355938,-121.9615547
2335,Bohannon Drive,95050,37.3330258,-121.9588573
2327,Bohannon Drive,95050,37.3331634,-121.9587225
2325,Bohannon Drive,95050,37.3333153,-121.9586344
2317,Bohannon Drive,95050,37.3334244,-121.9584914
2315,Bohannon Drive,95050,37.3335960,-121.9583638
2307,Bohannon Drive,95050,37.3337621,-121.9582341
418,Los Padres Boulevard,95050,37.3338882,-121.9584250
428,Los Padres Boulevard,95050,37.3339741,-121.9586319
438,Los Padres Boulevard,95050,37.3340691,-121.9587801
448,Los Padres Boulevard,95050,37.3342018,-121.9589565
458,Los Padres Boulevard,95050,37.3342631,-121.9591418
444,Saratoga Avenue,95050,37.3341543,-121.9613920
444,Saratoga Avenue,95050,37.3334198,-121.9618119
444,Saratoga Avenue,95050,37.3338437,-121.9614748
444,Saratoga Avenue,95050,37.3340647,-121.9617827
468,Los Padres Boulevard,95050,37.3343577,-121.9593344
478,Los Padres Boulevard,95050,37.3344648,-121.9595008
488,Los Padres Boulevard,95050,37.3345742,-121.9596588
453,Saratoga Avenue,95050,37.3346505,-121.9599218
444,Saratoga Avenue,95050,37.3350929,-121.9606245
444,Saratoga Avenue,95050,37.3350870,-121.9612347
444,Saratoga Avenue,95050,37.3349548,-121.9607814
444,Saratoga Avenue,95050,37.3345262,-121.9608920
444,Saratoga Avenue,95050,37.3347172,-121.9612351
444,Saratoga Avenue,95050,37.3345094,-121.9615383
444,Saratoga Avenue,95050,37.3332151,-121.9621387
444,Saratoga Avenue,95050,37.3352741,-121.9619778
444,Saratoga Avenue,95050,37.3349721,-121.9618146
444,Saratoga Avenue,95050,37.3347916,-121.9625296
444,Saratoga Avenue,95050,37.3349615,-121.9632098
444,Saratoga Avenue,95050,37.3348082,-121.9630911
444,Saratoga Avenue,95050,37.3345215,-121.9628098
444,Saratoga Avenue,95050,37.3344477,-121.9633031
444,Saratoga Avenue,95050,37.3344443,-121.9622547
444,Saratoga Avenue,95050,37.3342276,-121.9625350
444,Saratoga Avenue,95050,37.3339116,-121.9621656
444,Saratoga Avenue,95050,37.3338010,-121.9626093
444,Saratoga Avenue,95050,37.3335703,-121.9626657
444,Saratoga Avenue,95050,37.3338965,-121.9630701
444,Saratoga Avenue,95050,37.3342674,-121.9634159
444,Saratoga Avenue,95050,37.3347413,-121.9637211
560,Los Olivos Drive,95050,37.3352979,-121.9643121
558,Los Olivos Drive,95050,37.3352324,-121.9642968
556,Los Olivos Drive,95050,37.3351623,-121.9642654
550,Los Olivos Drive,95050,37.3349163,-121.9642077
552,Los Olivos Drive,95050,37.3349998,-121.9642311
554,Los Olivos Drive,95050,37.3350624,-121.9642590
649,Hobart Terrace,95051,37.3340247,-121.9782149
630,Hobart Terrace,95051,37.3337475,-121.9787186
626,Hobart Terrace,95051,37.3335757,-121.9787141
620,Hobart Terrace,95051,37.3334119,-121.9787747
616,Hobart Terrace,95051,37.3332596,-121.9788297
606,Hobart Terrace,95051,37.3330962,-121.9788794
640,Hobart Terrace,95051,37.3339194,-121.9786491
2884,Stevenson Street,95051,37.3347383,-121.9794133
2880,Stevenson Street,95051,37.3345986,-121.9792378
2874,Stevenson Street,95051,37.3345298,-121.9790658
601,Woodhams Road,95051,37.3330151,-121.9803242
611,Woodhams Road,95051,37.3331840,-121.9802797
621,Woodhams Road,95051,37.3333361,-121.9802238
631,Woodhams Road,95051,37.3334850,-121.9801774
641,Woodhams Road,95051,37.3336535,-121.9801252
651,Woodhams Road,95051,37.3338096,-121.9800835
661,Woodhams Road,95051,37.3339738,-121.9800453
669,Woodhams Road,95051,37.3341358,-121.9799888
671,Woodhams Road,95051,37.3342861,-121.9799225
681,Woodhams Road,95051,37.3344511,-121.9798884
689,Woodhams Road,95051,37.3346156,-121.9798497
2890,Stevenson Street,95051,37.3348049,-121.9796054
3087,Carleton Place,95051,37.3327572,-121.9849378
2874,Forbes Avenue,95051,37.3322115,-121.9783791
2878,Forbes Avenue,95051,37.3322190,-121.9786142
2886,Forbes Avenue,95051,37.3322019,-121.9792821
596,Hobart Terrace,95051,37.3329396,-121.9789624
590,Hobart Terrace,95051,37.3327762,-121.9789794
2887,Forbes Avenue,95051,37.3326282,-121.9801111
2897,Forbes Avenue,95051,37.3326329,-121.9804194
591,Woodhams Road,95051,37.3328544,-121.9803917
612,Woodhams Road,95051,37.3327951,-121.9809492
2826,Forbes Avenue,95051,37.3321246,-121.9757065
2830,Forbes Avenue,95051,37.3321766,-121.9759303
2834,Forbes Avenue,95051,37.3321278,-121.9761571
2838,Forbes Avenue,95051,37.3321298,-121.9763793
2842,Forbes Avenue,95051,37.3321729,-121.9766020
2846,Forbes Avenue,95051,37.3321564,-121.9768242
2850,Forbes Avenue,95051,37.3321828,-121.9770452
2854,Forbes Avenue,95051,37.3321761,-121.9772756
2858,Forbes Avenue,95051,37.3321849,-121.9774942
2862,Forbes Avenue,95051,37.3322043,-121.9777122
2866,Forbes Avenue,95051,37.3321835,-121.9779405
2870,Forbes Avenue,95051,37.3321790,-121.9781672
2650,Birchtree Lane,95051,37.3315796,-121.9701169
2654,Maplewood Lane,95051,37.3309146,-121.9703285
2648,Lindentree Lane,95051,37.3322264,-121.9698280
451,Tanoak Drive,95051,37.3315398,-121.9695061
461,Tanoak Drive,95051,37.3319721,-121.9693214
471,Tanoak Drive,95051,37.3322123,-121.9692439
2473,Glendenning Avenue,95050,37.3312387,-121.9619210
2477,Glendenning Avenue,95050,37.3313409,-121.9621315
2483,Glendenning Avenue,95050,37.3314352,-121.9622890
363,Cypress Avenue,95050,37.3312158,-121.9596657
414,Fernandez Court,95050,37.3308900,-121.9610937
2453,Glendenning Avenue,95050,37.3309562,-121.9613763
2463,Glendenning Avenue,95050,37.3310507,-121.9615653
2467,Glendenning Avenue,95050,37.3311617,-121.9617585
2433,Glendenning Avenue,95050,37.3308840,-121.9606128
2347,Bohannon Drive,95050,37.3326122,-121.9591951
2355,Bohannon Drive,95050,37.3324818,-121.9593360
2357,Bohannon Drive,95050,37.3323675,-121.9594435
2365,Bohannon Drive,95050,37.3322404,-121.9595875
2377,Bohannon Drive,95050,37.3321374,-121.9597466
2385,Bohannon Drive,95050,37.3320406,-121.9599330
2387,Bohannon Drive,95050,37.3319286,-121.9601120
425,North Cypress Avenue,95050,37.3320117,-121.9603753
435,North Cypress Avenue,95050,37.3320962,-121.9605445
445,North Cypress Avenue,95050,37.3322054,-121.9607146
455,North Cypress Avenue,95050,37.3323171,-121.9608885
465,North Cypress Avenue,95050,37.3323795,-121.9610616
475,North Cypress Avenue,95050,37.3324638,-121.9612364
485,North Cypress Avenue,95050,37.3325565,-121.9613969
495,North Cypress Avenue,95050,37.3326847,-121.9615271
2365,Glendenning Avenue,95050,37.3308588,-121.9586679
2363,Glendenning Avenue,95050,37.3308690,-121.9584627
2361,Glendenning Avenue,95050,37.3308830,-121.9582545
2357,Glendenning Avenue,95050,37.3308681,-121.9580493
2353,Glendenning Avenue,95050,37.3308671,-121.9578421
2351,Glendenning Avenue,95050,37.3308671,-121.9576369
2347,Glendenning Avenue,95050,37.3308670,-121.9574287
2343,Glendenning Avenue,95050,37.3308921,-121.9572246
2341,Glendenning Avenue,95050,37.3308662,-121.9570183
2337,Glendenning Avenue,95050,37.3308777,-121.9568158
2333,Glendenning Avenue,95050,37.3308977,-121.9566059
2337,Bohannon Drive,95050,37.3328854,-121.9589832
2345,Bohannon Drive,95050,37.3327496,-121.9590740
390,Crestview Drive,95050,37.3326783,-121.9538265
380,Crestview Drive,95050,37.3325104,-121.9538347
370,Crestview Drive,95050,37.3323443,-121.9538045
360,Crestview Drive,95050,37.3321746,-121.9538310
350,Crestview Drive,95050,37.3320048,-121.9538403
340,Crestview Drive,95050,37.3318445,-121.9537917
330,Crestview Drive,95050,37.3316756,-121.9538027
320,Crestview Drive,95050,37.3315057,-121.9538092
310,Crestview Drive,95050,37.3313348,-121.9538073
300,Crestview Drive,95050,37.3311721,-121.9538129
296,Crestview Drive,95050,37.3310036,-121.9538357
290,Crestview Drive,95050,37.3308361,-121.9538069
327,Pineview Drive,95050,37.3309108,-121.9542245
329,Pineview Drive,95050,37.3310939,-121.9542237
335,Pineview Drive,95050,37.3312668,-121.9542157
337,Pineview Drive,95050,37.3314472,-121.9541962
339,Pineview Drive,95050,37.3316344,-121.9542079
345,Pineview Drive,95050,37.3318043,-121.9542198
347,Pineview Drive,95050,37.3319748,-121.9542028
349,Pineview Drive,95050,37.3321455,-121.9542386
355,Pineview Drive,95050,37.3323107,-121.9542308
331,Los Padres Boulevard,95050,37.3322296,-121.9551259
327,Los Padres Boulevard,95050,37.3320538,-121.9551058
325,Los Padres Boulevard,95050,37.3318862,-121.9550623
323,Los Padres Boulevard,95050,37.3317213,-121.9550548
321,Los Padres Boulevard,95050,37.3315539,-121.9550498
317,Los Padres Boulevard,95050,37.3313905,-121.9550506
315,Los Padres Boulevard,95050,37.3312222,-121.9550660
313,Los Padres Boulevard,95050,37.3310609,-121.9550668
311,Los Padres Boulevard,95050,37.3308959,-121.9550740
336,Los Padres Boulevard,95050,37.3322568,-121.9556491
328,Los Padres Boulevard,95050,37.3320773,-121.9555655
326,Los Padres Boulevard,95050,37.3319096,-121.9555462
324,Los Padres Boulevard,95050,37.3317416,-121.9555492
322,Los Padres Boulevard,95050,37.3315864,-121.9555888
318,Los Padres Boulevard,95050,37.3314188,-121.9556170
2338,Fosgate Avenue,95050,37.3310931,-121.9560841
316,Los Padres Boulevard,95050,37.3312461,-121.9555810
314,Los Padres Boulevard,95050,37.3310836,-121.9556060
2317,Glendenning Avenue,95050,37.3308610,-121.9555722
2321,Glendenning Avenue,95050,37.3308861,-121.9557718
2323,Glendenning Avenue,95050,37.3308733,-121.9559808
2327,Glendenning Avenue,95050,37.3308588,-121.9561971
2331,Glendenning Avenue,95050,37.3308720,-121.9563988
2319,Talia Avenue,95050,37.3320265,-121.9564217
1945,Woodland Avenue,95050,37.3312310,-121.9532408
315,Crestview Drive,95050,37.3314131,-121.9532991
325,Crestview Drive,95050,37.3315878,-121.9532988
335,Crestview Drive,95050,37.3317756,-121.9532639
345,Crestview Drive,95050,37.3319508,-121.9532920
355,Crestview Drive,95050,37.3321425,-121.9533048
365,Crestview Drive,95050,37.3323158,-121.9533058
375,Crestview Drive,95050,37.3325022,-121.9533102
385,Crestview Drive,95050,37.3326776,-121.9533119
290,North Winchester Boulevard,95050,37.3309222,-121.9505633
280,North Winchester Boulevard,95050,37.3307534,-121.9504817
276,North Winchester Boulevard,95050,37.3307406,-121.9506906
255,Crestview Drive,95050,37.3302926,-121.9532701
280,Crestview Drive,95050,37.3306665,-121.9537986
270,Crestview Drive,95050,37.3304978,-121.9537971
1961,Pruneridge Avenue,95050,37.3302517,-121.9538332
317,Pineview Drive,95050,37.3304089,-121.9542079
319,Pineview Drive,95050,37.3305704,-121.9542210
325,Pineview Drive,95050,37.3307483,-121.9542303
305,Los Padres Boulevard,95050,37.3305611,-121.9550744
303,Los Padres Boulevard,95050,37.3303999,-121.9550754
2001,Pruneridge Avenue,95050,37.3302135,-121.9546993
307,Los Padres Boulevard,95050,37.3307312,-121.9550634
2053,Pruneridge Avenue,95050,37.3302182,-121.9562859
2043,Pruneridge Avenue,95050,37.3301671,-121.9560216
2033,Pruneridge Avenue,95050,37.3302123,-121.9557602
2023,Pruneridge Avenue,95050,37.3302169,-121.9555644
2233,Pruneridge Avenue,95050,37.3302361,-121.9591724
2223,Pruneridge Avenue,95050,37.3302043,-121.9589735
2213,Pruneridge Avenue,95050,37.3302066,-121.9587708
2203,Pruneridge Avenue,95050,37.3302355,-121.9585706
2183,Pruneridge Avenue,95050,37.3302222,-121.9583588
2163,Pruneridge Avenue,95050,37.3302328,-121.9581593
2153,Pruneridge Avenue,95050,37.3302213,-121.9579528
2133,Pruneridge Avenue,95050,37.3302257,-121.9577435
2123,Pruneridge Avenue,95050,37.3302233,-121.9575396
2111,Pruneridge Avenue,95050,37.3302205,-121.9573276
2093,Pruneridge Avenue,95050,37.3302187,-121.9571131
2083,Pruneridge Avenue,95050,37.3302201,-121.9569021
2073,Pruneridge Avenue,95050,37.3302128,-121.9567004
2063,Pruneridge Avenue,95050,37.3302125,-121.9564940
2348,Glendenning Avenue,95050,37.3304832,-121.9574819
2352,Glendenning Avenue,95050,37.3304849,-121.9577021
2354,Glendenning Avenue,95050,37.3304885,-121.9579174
2362,Glendenning Avenue,95050,37.3304795,-121.9583347
2364,Glendenning Avenue,95050,37.3304675,-121.9585316
2368,Glendenning Avenue,95050,37.3304992,-121.9587382
2372,Glendenning Avenue,95050,37.3304825,-121.9589438
2378,Glendenning Avenue,95050,37.3304525,-121.9591495
323,North Cypress Avenue,95050,37.3302233,-121.9596450
2243,Pruneridge Avenue,95050,37.3302278,-121.9593889
2382,Glendenning Avenue,95050,37.3304771,-121.9593602
2317,Pruneridge Avenue,95050,37.3302169,-121.9616172
2311,Pruneridge Avenue,95050,37.3302326,-121.9614026
2307,Pruneridge Avenue,95050,37.3302192,-121.9612046
2303,Pruneridge Avenue,95050,37.3302135,-121.9609969
2293,Pruneridge Avenue,95050,37.3301996,-121.9607961
2283,Pruneridge Avenue,95050,37.3302159,-121.9605937
2273,Pruneridge Avenue,95050,37.3302204,-121.9603780
324,North Cypress Avenue,95050,37.3302214,-121.9601393
275,Saratoga Avenue,95050,37.3294760,-121.9640306
2911,Pruneridge Avenue,95051,37.3301620,-121.9783927
182,Harold Avenue,95050,37.3280461,-121.9622136
3464,Londonderry Drive,95050,37.3274854,-121.9596006
3455,Forest Avenue,95050,37.3272268,-121.9593869
183,Forest Avenue,95050,37.3272346,-121.9596341
3474,Londonderry Drive,95050,37.3274704,-121.9601251
218,North Cypress Avenue,95050,37.3285709,-121.9601411
3475,Forest Avenue,95050,37.3271902,-121.9601451
3495,Forest Avenue,95050,37.3272152,-121.9606040
3511,Forest Avenue,95050,37.3272133,-121.9608254
3531,Forest Avenue,95050,37.3271864,-121.9610516
3541,Forest Avenue,95050,37.3272056,-121.9612777
3561,Forest Avenue,95050,37.3272250,-121.9617287
3571,Forest Avenue,95050,37.3272124,-121.9619522
192,Harold Avenue,95050,37.3284130,-121.9620043
3355,Forest Avenue,95050,37.3272068,-121.9571016
3365,Forest Avenue,95050,37.3272142,-121.9573079
3395,Forest Avenue,95050,37.3272079,-121.9581141
3397,Forest Avenue,95050,37.3271960,-121.9583258
3399,Forest Avenue,95050,37.3271945,-121.9585561
1825,Worthington Circle,95050,37.3268934,-121.9517522
1829,Worthington Circle,95050,37.3268973,-121.9519107
1837,Worthington Circle,95050,37.3268999,-121.9522086
1845,Worthington Circle,95050,37.3269001,-121.9523571
1851,Worthington Circle,95050,37.3268911,-121.9525066
1855,Worthington Circle,95050,37.3268872,-121.9526651
1859,Worthington Circle,95050,37.3268963,-121.9528125
1863,Worthington Circle,95050,37.3268883,-121.9529568
1867,Worthington Circle,95050,37.3268984,-121.9531169
1871,Worthington Circle,95050,37.3268990,-121.9532686
1875,Worthington Circle,95050,37.3268883,-121.9534186
1879,Worthington Circle,95050,37.3268966,-121.9535785
124,Douglane Avenue,95050,37.3264644,-121.9572231
136,Douglane Avenue,95050,37.3263178,-121.9572304
148,Douglane Avenue,95050,37.3261215,-121.9571423
160,Douglane Avenue,95050,37.3259763,-121.9572195
172,Douglane Avenue,95050,37.3257931,-121.9572195
184,Douglane Avenue,95050,37.3256282,-121.9571847
196,Douglane Avenue,95050,37.3254582,-121.9572056
200,Douglane Avenue,95050,37.3252914,-121.9571674
216,Douglane Avenue,95050,37.3251153,-121.9571775
248,Douglane Avenue,95050,37.3247626,-121.9571580
280,Douglane Avenue,95050,37.3243968,-121.9571197
94,Harold Avenue,95050,37.3251066,-121.9619124
3677,Stevens Creek Boulevard,95051,37.3241144,-121.9653494
296,Douglane Avenue,95117,37.3242455,-121.9572948
2000,El Camino Real,95050,37.3517478,-121.9598105
1600,Coleman Avenue,95050,37.3585570,-121.9381744
2625,Patricia Drive,95050,37.3413634,-121.9740408
3585,Monroe Street,95051,37.3679402,-121.9949958
3575,Monroe Street,95051,37.3678514,-121.9945825
3539,Monroe Street,95051,37.3678506,-121.9937520
3549,Monroe Street,95051,37.3685105,-121.9937982
3485,North Monroe Street,95051,37.3679559,-121.9929088
3333,Scott Boulevard,95054,37.3819463,-121.9813964
3057,Stevens Creek Boulevard,95050,37.3237880,-121.9486452
2788,San Tomas Expressway,95051,37.3706408,-121.9670830
2065,White Oak Lane,95051-2012,37.3605649,-121.9963841
3000,Mission College Boulevard,95054,37.3915260,-121.9834331
3000,Mission College Boulevard,95054,37.3922087,-121.9846018
3000,Mission College Boulevard,95054,37.3923463,-121.9838883
3000,Mission College Boulevard,95054,37.3925133,-121.9807331
3000,Mission College Boulevard,95054,37.3922394,-121.9797937
3000,Mission College Boulevard,95054,37.3908841,-121.9810204
3131,Homestead Road,95051,37.3390046,-121.9848018
3740,El Camino Real,95051,37.3518662,-121.9987760
2782,Augustine Drive,95054,37.3820268,-121.9764047
500,El Camino Real,95053,37.3511963,-121.9412978
1590,El Camino Real,95050,37.3520781,-121.9540708
3495,Benton Street,95051-4409,37.3454536,-121.9928517
50,Saratoga Avenue,95051,37.3240862,-121.9704455
2380,Monroe Street,95050,37.3627538,-121.9678648
444,Saratoga Avenue,95050,37.3347060,-121.9622480
1701,Airport Boulevard,95110,37.3632145,-121.9281466
2615,El Camino Real,95051,37.3529080,-121.9744775
5345,Great America Parkway,95054,37.4095902,-121.9774286
3510,Homestead Road,95051,37.3367611,-121.9932613
3750,De La Cruz Boulevard,95054,37.3899606,-121.9457713
1,Feliz Road,95051,37.3751374,-121.9918934
4300,Great America Parkway,95054,37.3932326,-121.9774576
2702,Augustine Drive,95054,37.3820664,-121.9749930
2702,Augustine Drive,95054,37.3819201,-121.9749931
3360,Octavius Drive,95054,37.3805632,-121.9709791
3710,El Camino Real,95051,37.3504042,-121.9979745
2855,Stevens Creek Boulevard,95128,37.3241349,-121.9464398
1880,Pruneridge Avenue,95050-6514,37.3293932,-121.9517698
3498,Toomey Place,95051,37.3773297,-121.9932271
3496,Toomey Place,95051,37.3772238,-121.9932271
3492,Toomey Place,95051,37.3771192,-121.9932286
3490,Toomey Place,95051,37.3770164,-121.9932306
3488,Toomey Place,95051,37.3769096,-121.9932229
3486,Toomey Place,95051,37.3768069,-121.9932288
3482,Toomey Place,95051,37.3767041,-121.9932314
3480,Toomey Place,95051,37.3765994,-121.9932242
3478,Toomey Place,95051,37.3764920,-121.9932288
3479,Toomey Place,95051,37.3764949,-121.9929836
3460,Copper Place,95051,37.3764922,-121.9927900
3462,Copper Place,95051,37.3765984,-121.9927882
3481,Toomey Place,95051,37.3766001,-121.9929800
3483,Toomey Place,95051,37.3767040,-121.9929871
3466,Copper Place,95051,37.3767034,-121.9927902
3487,Toomey Place,95051,37.3768088,-121.9929839
3468,Copper Place,95051,37.3768101,-121.9928003
3075,Copper Place,95051,37.3770129,-121.9929548
3073,Copper Place,95051,37.3770146,-121.9928240
3088,Toomey Place,95051,37.3771635,-121.9929566
3080,Toomey Place,95051,37.3771591,-121.9928251
3089,Toomey Place,95051,37.3773561,-121.9929557
3081,Toomey Place,95051,37.3773541,-121.9928265
4517,Stevens Creek Boulevard,95051,37.3238154,-121.9815710
3740,El Camino Real,95051,37.3516598,-121.9987925
2800,Augustine Drive,95054,37.3820872,-121.9783513
2050,Royal Drive,95050,37.3568209,-121.9604417
680,Hubbard Avenue,95051,37.3347665,-122.0012699
2970,Lakeside Drive,95054,37.3854928,-121.9805554
3100-3180,De La Cruz Boulevard,95054,37.3798372,-121.9410670
1160,Walsh Avenue,95050,37.3690532,-121.9553378
2908,El Camino Real,95051,37.3515132,-121.9788645
190,North Winchester Boulevard,95050,37.3287441,-121.9507961
2550,Michele Jean Way,95050,37.3350718,-121.9655855
2448,Michele Jean Way,95050,37.3350970,-121.9655155
2446,Michele Jean Way,95050,37.3351234,-121.9654465
2444,Michele Jean Way,95050,37.3351469,-121.9653722
2442,Michele Jean Way,95050,37.3351730,-121.9652967
941,Clyde Avenue,95054,37.3904294,-121.9510863
1840,Benton Street,95050-5215,37.3455142,-121.9558709
500,El Camino Real,95053,37.3501287,-121.9355974
3000,Mission College Boulevard,95054,37.3938248,-121.9852094
3000,Mission College Boulevard,95054,37.3940231,-121.9852128
3000,Mission College Boulevard,95054,37.3940204,-121.9849646
1872,Lawrence Road,95051,37.3564780,-121.9952031
3901,Lick Mill Boulevard,95054,37.3959848,-121.9426345
890,Pomeroy Avenue,95051,37.3409592,-121.9895528
3450,Brookdale Drive,95051,37.3417739,-121.9916266
3450,Brookdale Drive,95051,37.3411401,-121.9919566
3345-3365,Lochinvar Avenue,95051,37.3397932,-121.9898965
3000,Mission College Boulevard,95054,37.3946638,-121.9834517
3000,Mission College Boulevard,95054,37.3946958,-121.9833097
500,El Camino Real,95053,37.3487040,-121.9344818
2675,Park Avenue,95050,37.3436319,-121.9362513
3350,Scott Boulevard,95054,37.3791747,-121.9843204
2500,El Camino Real,95051,37.3516578,-121.9709450
1125,Benton Street,95050,37.3502915,-121.9467811
2250,Lawson Lane,95054,37.3754780,-121.9641522
2260,Lawson Lane,95054,37.3753345,-121.9652326
2225,Lawson Lane,95054,37.3758215,-121.9627473
2235,Lawson Lane,95054,37.3757379,-121.9621232
2800,Mission College Boulevard,95054,37.3892635,-121.9771201
266,Douglane Avenue,95050,37.3245998,-121.9571322
232,Douglane Avenue,95050,37.3249439,-121.9571805
500,El Camino Real,95053,37.3489050,-121.9359587
750,Reed Street,95050,37.3586111,-121.9456358
2332,El Camino Real,95050,37.3520510,-121.9658511
575,Pomeroy Avenue,95051,37.3320267,-121.9889759
378,Crestview Drive,95050,37.3324844,-121.9539952
2002,El Camino Real,95050,37.3520349,-121.9602131
1833,Worthington Circle,95050,37.3269009,-121.9520607
2358,Osborne Avenue,95050,37.3320225,-121.9567824
750,Reed Street,95050,37.3582959,-121.9454310
1650,Hope Drive,95054,37.3982931,-121.9558867
3375,Homestead Road,95051,37.3386224,-121.9899344
3102,Scott Boulevard,95054,37.3790144,-121.9629025
390,North Winchester Boulevard,95050,37.3321728,-121.9517077
3360,Octavius Drive,95050,37.3807046,-121.9701728
3520,Toomey Place,95051,37.3772424,-121.9936580
3522,Toomey Place,95051,37.3773494,-121.9936546
3518,Toomey Place,95051,37.3771390,-121.9936537
3516,Toomey Place,95051,37.3770326,-121.9936503
3514,Toomey Place,95051,37.3769285,-121.9936504
3512,Toomey Place,95051,37.3768254,-121.9936494
3510,Toomey Place,95051,37.3767208,-121.9936508
3508,Toomey Place,95051,37.3766158,-121.9936497
3506,Toomey Place,95051,37.3765109,-121.9936497
10,Cabot Avenue,95051,37.3240860,-121.9930485
2,Cabot Avenue,95051,37.3241699,-121.9937136
2590,Walsh Avenue,95051,37.3706431,-121.9744825
2231,Calle Del Mundo,95054,37.4106190,-121.9645127
2737,Walsh Avenue,95051,37.3745713,-121.9766188
2975,Bowers Avenue,95051,37.3750302,-121.9773226
2737,Walsh Avenue,95051,37.3743921,-121.9759201
737,Mathew Street,95051,37.3641309,-121.9469599
641,Walsh Avenue,95050,37.3709241,-121.9472128
3017,Kaiser Drive,95051,37.3428945,-121.9818810
3017,Kaiser Drive,95051,37.3427269,-121.9818812
2515,El Camino Real,95051,37.3529458,-121.9711032
710,Lawrence Expressway,95051,37.3363003,-121.9977713
500,El Camino Real,95053,37.3486123,-121.9366218
3595,Granada Avenue,95051,37.3495365,-121.9951090
1889,Lawrence Road,95051,37.3572299,-121.9953728
5415,Stevens Creek Boulevard,95051,37.3234971,-122.0035671
1475,Santa Clara Street,95050,37.3452614,-121.9486215
2930,El Camino Real,95051,37.3517569,-121.9797195
3901,Lick Mill Boulevard,95054,37.3962128,-121.9432916
3901,Lick Mill Boulevard,95054,37.3959629,-121.9426047
3510,De La Cruz Boulevard,95054,37.3871399,-121.9455687
4750,Lick Mill Boulevard,95054,37.4032972,-121.9591159
2755,Barkley Avenue,95051,37.3578527,-121.9758237
1675,Scott Boulevard,95050,37.3546925,-121.9588347
1400,Coleman Avenue,95050,37.3578195,-121.9356948
283,Brokaw Road,95050,37.3586085,-121.9335102
969,Kiely Boulevard,95050,37.3428605,-121.9765965
1303,Fremont Street,95050,37.3507779,-121.9499719
500,El Camino Real,95053,37.3504328,-121.9408727
2656,Newhall Street,95050,37.3373761,-121.9527723
410,North Winchester Boulevard,95050,37.3343223,-121.9509159
500,El Camino Real,95053,37.3481965,-121.9356542
700,Lawrence Expressway,95051,37.3359157,-121.9992108
500,El Camino Real,95053,37.3469202,-121.9351803
500,El Camino Real,95053,37.3467809,-121.9360705
500,El Camino Real,95053,37.3466594,-121.9368133
2585,El Camino Real,95051,37.3528969,-121.9727922
2700,Mission College Boulevard,95054,37.3902157,-121.9742990
3410,Montgomery Drive,95054,37.3817406,-121.9738499
357,Pineview Drive,95050,37.3324750,-121.9542311
