House number,Street name,Postal code,Latitude,Longitude
350,Mission Street,95060,36.9762656,-122.0327953
1834,Ocean Street,95060,36.9890090,-122.0264340
1520,Pacific Avenue,95060,36.9754743,-122.0262340
1522,Pacific Avenue,95060,36.9755680,-122.0264126
1541B,Pacific Avenue,95060,36.9760776,-122.0268630
1550,Pacific Avenue,95060,36.9763185,-122.0266820
550,River Street,95060,36.9825762,-122.0292988
650,River Street,95060,36.9838459,-122.0284718
420,River Street,95060,36.9819616,-122.0290917
110,Church Street,95060,36.9746064,-122.0269724
710,Front Street,95060,36.9747113,-122.0249860
1520 K2,Pacific Avenue,95060,36.9754634,-122.0264862
1520,Pacific Avenue,95060,36.9752069,-122.0264259
640,Ocean Street,95060,36.9779162,-122.0203409
1205,Soquel Avenue,95062,36.9800104,-122.0104498
335,Mission Street,95060,36.9760263,-122.0322070
1906,Mission Street,95060,36.9636595,-122.0431880
2202,Mission Street,95060,36.9622061,-122.0452790
2429,Mission Street,95060-5225,36.9602021,-122.0490950
1210,Ocean Avenue,95060,36.9830850,-122.0223471
145,Laurel Street,95060,36.9690383,-122.0245870
1405,Pacific Avenue,95060,36.9747866,-122.0265060
1101,Pacific Avenue,95060,36.9717674,-122.0257280
1421,Mission Street,95060-4738,36.9671084,-122.0390643
1218,Mission Street,95060,36.9691329,-122.0378428
2019,North Pacific Avenue,95060,36.9774672,-122.0272770
139,Water Street,95060,36.9778036,-122.0257286
210,Lincoln Street,95060,36.9725385,-122.0275924
1129,Pacific Avenue,95060,36.9724000,-122.0258340
1010,Pacific Avenue,95060,36.9715677,-122.0252430
617,Pacific Avenue,95060,36.9680657,-122.0247771
106,Beach Street,95060,36.9627300,-122.0232302
1636,Seabright Avenue,95062,36.9795231,-122.0096375
2316,Mission Street,95060,36.9616159,-122.0473583
2341,Mission Street,95060,36.9608553,-122.0475290
2215,Mission Street,95060,36.9615444,-122.0457893
300,Soquel Avenue,95062,36.9737198,-122.0212023
2025,Soquel Avenue,95076,36.9822910,-121.9976681
376,Water Street,95060,36.9808203,-122.0159250
1201,Soquel Avenue,95062,36.9799618,-122.0105730
1222,Soquel Avenue,95062,36.9800179,-122.0097967
415C,River Street,95060,36.9817009,-122.0296940
113,Lincoln Street,95060,36.9724628,-122.0263760
555,Soquel Avenue,95062,36.9763174,-122.0175200
231,Cathcart Street,95060,36.9713679,-122.0264559
703,Pacific Avenue,95060,36.9685453,-122.0251033
703,Pacific Avenue,95060,36.9685516,-122.0250062
841,Almar Avenue,95060,36.9611864,-122.0437750
1124,Pacific Avenue,95060,36.9724617,-122.0254840
505,River Street,95060,36.9825593,-122.0298880
550,River Street,95060,36.9828014,-122.0293496
550,River Street,95060,36.9828689,-122.0293396
537,Seabright Avenue,95060,36.9681264,-122.0080490
825,Pacific Avenue,95060,36.9701240,-122.0252386
1319,Pacific Avenue,95060,36.9737575,-122.0262003
1339,Pacific Avenue,95060,36.9737676,-122.0258840
1364,Pacific Avenue,95060,36.9743085,-122.0260234
1531,Pacific Avenue,95060,36.9758054,-122.0268151
101,Cooper Street,95060,36.9751363,-122.0261512
939,Pacific Avenue,95060,36.9707788,-122.0254040
813,Pacific Avenue,95060,36.9698208,-122.0251165
1203,Pacific Avenue,95060,36.9728825,-122.0259667
2391,Mission Street,95060,36.9606955,-122.0480432
1215,Water Street,95062,36.9816485,-122.0086090
343,Soquel Avenue,95062,36.9747351,-122.0196870
104,Bronson Street,95062,36.9680396,-122.0065110
1301,Pacific Avenue,95060,36.9736195,-122.0261581
418,Front Street,95060,36.9709947,-122.0239644
493,Lake Avenue,95062,36.9670943,-122.0017860
1378,Soquel Avenue,95062,36.9810433,-122.0069569
1003,Pacific Avenue,95060,36.9711225,-122.0255103
1537,Pacific Avenue,95060,36.9759626,-122.0268548
615,College Nine Road,95064,37.0007956,-122.0578984
847,Almar Avenue,95060,36.9611531,-122.0441024
843,Almar Avenue,95060,36.9611771,-122.0438783
110,Cooper House,95060,36.9746636,-122.0261460
1201,Pacific Avenue,95060,36.9728172,-122.0259494
911,Cedar Street,95060,36.9748091,-122.0278009
1526,Pacific Avenue,95060,36.9756406,-122.0264330
124,Locust Street,95060,36.9752321,-122.0274339
829,Front Street,95060,36.9757514,-122.0260854
1126,Pacific Avenue,95060,36.9725463,-122.0254991
303,Walnut Avenue,95060,36.9724185,-122.0307554
1130,Pacific Avenue,95060,36.9727011,-122.0255891
1533,Pacific Avenue,95060,36.9758658,-122.0268292
1128,Pacific Avenue,95060,36.9726073,-122.0255640
1106,Pacific Avenue,95060,36.9723100,-122.0251530
1530,Pacific Avenue,95060,36.9757569,-122.0264695
1528,Pacific Avenue,95060,36.9757087,-122.0264762
1532,Pacific Avenue,95060,36.9759073,-122.0265250
1632,Seabright Avenue,95062,36.9794911,-122.0097847
417,Seabright Avenue,95062,36.9668545,-122.0079991
1101,Pacific Avenue,95060,36.9720626,-122.0257303
913,Cedar Street,95060,36.9748975,-122.0278273
2203,Mission Street,95060,36.9616709,-122.0450987
2125,Delaware Avenue,95060,36.9549436,-122.0502242
320A,Cedar Street,95060,36.9698513,-122.0262770
528,Seabright,95062,36.9678879,-122.0077410
543,Center Street,95060,36.9720207,-122.0284370
877,Cedar Street,95062,36.9739980,-122.0275620
131,Front Street,95060,36.9679112,-122.0236945
Suite E,Cedar,95060,36.9696860,-122.0257105
527,Seabright Avenue,95062,36.9678133,-122.0080430
2222,East Cliff Drive,95062,36.9629554,-122.0006967
849,Almar Avenue,95060,36.9611252,-122.0444059
849,Almar Avenue,95060,36.9611366,-122.0442850
1541,Pacific Avenue,95060,36.9759821,-122.0273253
1101,Pacific Avenue,95060,36.9718678,-122.0256759
356,Rachel Carson College Road,95064,36.9916259,-122.0654110
355,Rachel Carson College Road,95064,36.9915647,-122.0644037
520,Cowell-Stevenson Road,95064,36.9970540,-122.0529096
405,Porter-Kresge Road,95064,36.9940046,-122.0651531
199,Stevenson Service Road,95064,36.9973730,-122.0521924
520,Cowell-Stevenson Road,95064,36.9969851,-122.0523061
402,McHenry Road,95064,36.9929760,-122.0609108
334 B,Ingalls Street,95060,36.9589392,-122.0478169
122,Hagar Court,95064,36.9806792,-122.0490808
504,Steinhart Way,95064,36.9978782,-122.0558346
1638,Seabright Avenue,95062,36.9795390,-122.0095440
1209,Soquel Avenue,95062,36.9800804,-122.0102970
414,McHenry Road,95064,36.9960564,-122.0592971
117,Morrissey Boulevard,95062,36.9822959,-122.0078651
2343,Mission Street,95060,36.9607816,-122.0474980
1717,Mission Street,95060,36.9649786,-122.0413639
703,Pacific Avenue,95060,36.9685635,-122.0249032
125,Beach Street,95060,36.9631844,-122.0230666
930,Mission Street,95060,36.9715020,-122.0362530
411,Laurel Street,95060,36.9687142,-122.0276714
543,Center Street,95060,36.9719059,-122.0281990
1616,Soquel Avenue,95062,36.9817813,-122.0034790
1101,Pacific Avenue,95060,36.9719461,-122.0257048
500,Soquel Avenue,95062,36.9748879,-122.0175930
1411,Pacific Avenue,95060,36.9751202,-122.0265918
111 1/2,Cooper Street,95060,36.9752217,-122.0257637
1626,Seabright Avenue,95062,36.9794356,-122.0100330
1628,Seabright Avenue,95062,36.9794576,-122.0099080
1634,Seabright Avenue,95062,36.9795073,-122.0097103
1224,Soquel Avenue,95062,36.9800543,-122.0096819
1207,soqu,95062,36.9800415,-122.0103720
1146,Soquel Avenue,95062,36.9794346,-122.0104880
1123,Soquel Avenue,95062,36.9794959,-122.0114910
1119,Soquel Avenue,95062,36.9794009,-122.0116637
1117,Soquel Avenue,95062,36.9793750,-122.0117175
1114,Soquel Avenue,95060,36.9790740,-122.0116367
1142,Soquel Avenue,95062,36.9795136,-122.0107520
1315,Water Street,95062,36.9815192,-122.0075311
516,Cowell-Stevenson Road,95064,36.9973116,-122.0533453
841,Almar Avenue,95060,36.9611680,-122.0439667
849,Almar Avenue,95060,36.9611065,-122.0446309
2121,Mission Street,95060,36.9620947,-122.0443830
849,Almar Avenue,95060,36.9611430,-122.0441952
101,Church Street,95060,36.9743480,-122.0264504
1221 Mission Street,crossing,95060,36.9689806,-122.0371140
157,Van Ness Avenue,95060,36.9682776,-122.0374393
151A,Van Ness Avenue,95060,36.9682540,-122.0372946
552,Palm Street,95060,36.9646401,-122.0413039
550,Palm Street,95060,36.9645851,-122.0413500
546,Palm Street,95060,36.9644841,-122.0414348
548,Palm Street,95060,36.9645373,-122.0413901
544,Palm Street,95060,36.9644300,-122.0414802
1541 #A,Pacific Avenue,95060,36.9761439,-122.0268916
402,Ingalls Street,95060,36.9588040,-122.0489132
429,Ingalls Street,95060,36.9582702,-122.0486939
417,Ingalls Street,95060,36.9583679,-122.0482955
1001,Center Street,95060,36.9760493,-122.0289990
120 B,Grover Lane,95060,36.9726991,-122.0332371
706,California Street,95060,36.9701694,-122.0344887
1308,Pacific Avenue,95060,36.9738104,-122.0257765
726,Water Street,95060,36.9807349,-122.0163900
501,Upper Park Road,95065,36.9944038,-121.9959111
110,Cooper Street,95060,36.9747713,-122.0261980
820,Swift Street,95060,36.9595996,-122.0490197
745,Ocean Street,95060,36.9792149,-122.0215415
2119,Delaware Avenue,95060,36.9551494,-122.0498043
1314,Ocean Street,95060,36.9835785,-122.0226147
1804,Mission Street,95060,36.9642005,-122.0426696
303,Potrero Street,95060,36.9815408,-122.0311051
104,Bronson Street,95062,36.9686445,-122.0064290
325,Soquel Avenue,95062,36.9744004,-122.0206487
920,Pacific Avenue,95060,36.9708218,-122.0250730
109,Locust Street,95060,36.9751484,-122.0269367
201,River Street,95062,36.9785844,-122.0272822
2030,North Pacific Avenue,95060,36.9785338,-122.0268831
2030,North Pacific Avenue,95060,36.9783265,-122.0269681
2030,North Pacific Avenue,95060,36.9782771,-122.0269724
2015,North Pacific Avenue,95060,36.9773968,-122.0272806
104,Bronson Street,95062,36.9684843,-122.0064200
501,Soquel Avenue,95062,36.9754606,-122.0179410
100,Doyle Street,95062,36.9791374,-122.0125693
100`,Doyle Street,95062,36.9791205,-122.0126363
100,Doyle Street,95062,36.9791319,-122.0126903
100,Doyle Street,95062,36.9791669,-122.0126438
910A,Soquel Avenue,95062,36.9779612,-122.0137445
920,Soquel Avenue,95062,36.9781877,-122.0133281
924,Soquel Avenue,95062,36.9782989,-122.0131468
1116,Soquel Avenue,95062,36.9791061,-122.0115851
1148,Soquel Avenue,95062,36.9796819,-122.0104771
155,Walnut Avenue,95060,36.9731610,-122.0272867
550,River Street,95060,36.9827264,-122.0293387
600,River Street,95060,36.9838192,-122.0288376
333,Soquel Avenue,95062,36.9744056,-122.0201316
585,Pacific Avenue,95060,36.9673278,-122.0246711
320,Pacific Avenue,95060,36.9652319,-122.0255922
607,Soquel Avenue,95062,36.9767251,-122.0167861
609,Soquel Avenue,95062,36.9767727,-122.0167284
619,Soquel Avenue,95062,36.9768952,-122.0163006
705,North Branciforte Avenue,95062,36.9770218,-122.0161472
1535,Pacific Avenue,95060,36.9758917,-122.0268371
115-A,Coral Street,95060,36.9851291,-122.0304720
703,Pacific Avenue,95060,36.9685737,-122.0248455
1543,Pacific Avenue,95060,36.9762120,-122.0273231
131,Center Street,95060,36.9665669,-122.0271225
500,Seabright Avenue,95062,36.9670957,-122.0075222
500,Seabright Avenue,95062,36.9670910,-122.0075459
1108,Pacific Avenue,95060,36.9720929,-122.0253874
907,Cedar Street,95060,36.9747448,-122.0277873
205,Hahn Road,95064,36.9961370,-122.0568194
811,Ocean Street,95060,36.9797516,-122.0219010
198,Stevenson Service Road,95064,36.9973125,-122.0521902
199,Stevenson Service Road,95064,36.9973421,-122.0521932
698,West Cliff Drive,95060,36.9532385,-122.0260906
1129,Soquel Avenue,95062,36.9797334,-122.0112460
415B,River Street,95060,36.9814902,-122.0297443
415A,River Street,95060,36.9813135,-122.0297338
381,Soquel Avenue,95062,36.9747484,-122.0193241
353,Soquel Avenue,95062,36.9749443,-122.0194515
1133,Pacific Avenue,95060,36.9725944,-122.0259040
700,Front Street,95060,36.9745224,-122.0248018
131,Front Street,95060,36.9680147,-122.0237600
1376,Soquel Avenue,95062,36.9810255,-122.0070535
841,Almar Avenue,95060,36.9611010,-122.0445127
504,Steinhart Way,95064,36.9978515,-122.0558413
201,Front Street,95060-4544,36.9690295,-122.0240077
493,Lake Avenue,95062,36.9670540,-122.0018002
316,Main Street,95060,36.9655085,-122.0227945
1001,Center Street,95060,36.9760682,-122.0287930
824,Mission Street,95060,36.9727596,-122.0354858
1010,Pacific Avenue,95060,36.9716121,-122.0251575
1414,Soquel Avenue,95062,36.9809919,-122.0059122
804,Riverside Avenue,95060,36.9719440,-122.0215901
207,Broadway,95060,36.9719778,-122.0214468
412,Front Street,95060,36.9709069,-122.0239512
1024,Cayuga Street,95062,36.9780244,-122.0110530
719,Swift Street,95060,36.9584721,-122.0494250
626,Frederick Street,95062,36.9801327,-122.0039175
544,Porter-Kresge Road,95064,36.9988262,-122.0663130
502,Porter-Kresge Road,95064,36.9976893,-122.0670443
504,Porter-Kresge Road,95064,36.9978389,-122.0669227
401,Upper Park Road,95065,36.9975141,-122.0007526
600,Front Street,95060,36.9740040,-122.0244139
720,Front Street,95060,36.9751140,-122.0250519
111,Ox Team Road,95064,36.9795316,-122.0535098
101,Ox Team Road,95064,36.9804279,-122.0526395
705,Front Street,95060,36.9747523,-122.0255731
122,Arboretum Road,95064,36.9838627,-122.0609111
120,Arboretum Road,95064,36.9836589,-122.0608811
104,Arboretum Road,95064,36.9825128,-122.0613471
352,Rachel Carson College Road,95064,36.9925500,-122.0654674
352,Rachel Carson College Road,95064,36.9922166,-122.0661143
2111,Mission Street,95060,36.9614013,-122.0451890
75,River Street,95060,36.9773999,-122.0253050
74,River Street,95062,36.9766505,-122.0247272
101,Main Street,95060,36.9635127,-122.0223719
1129,Pacific Avenue,95060,36.9731461,-122.0262315
1010,Pacific Avenue,95062,36.9715039,-122.0250005
1011,Pacific Avenue,95060,36.9712739,-122.0259190
1134,Pacific Avenue,95060,36.9729109,-122.0254958
877,Cedar Street,95062,36.9739852,-122.0277428
108,Glenn Coolidge Drive,95064,36.9786797,-122.0540899
220,Front Street,95060,36.9690178,-122.0234693
140,Center Street,95060,36.9667480,-122.0262708
200,Washington Street,95060,36.9664741,-122.0275410
696,Pacific Avenue,95060,36.9683033,-122.0243358
690,Pacific Avenue,95060,36.9681124,-122.0242921
125,Front Street,95060,36.9674645,-122.0239686
512,Pacific Avenue,95060,36.9672217,-122.0241803
303,Potrero Street,95060,36.9821841,-122.0310004
415,River Street,95060,36.9816034,-122.0297747
151,Harvey West Boulevard,95060,36.9830029,-122.0343362
220,Sylvania Avenue,95060,36.9843642,-122.0339828
333,Encinal Street,95060,36.9865890,-122.0354899
425,Encinal Street,95060,36.9873852,-122.0398423
550,River Street,95060,36.9826966,-122.0293740
650,River Street,95060,36.9839621,-122.0284891
510,River Street,95060,36.9833578,-122.0293712
136,River Street,95060,36.9788076,-122.0264871
606,Engineering Loop,95064,37.0003667,-122.0632031
612,Engineering Loop,95064,37.0009838,-122.0630248
911,Soquel Avenue,95062,36.9789999,-122.0145707
590,Steinhart Way,95064,36.9996092,-122.0620301
582,Steinhart Way,95064,36.9987655,-122.0617063
568,Steinhart Way,95064,36.9981435,-122.0620300
562,Steinhart Way,95064,36.9980427,-122.0613384
580,Red Hill Road,95064,36.9991411,-122.0607562
560,Red Hill Road,95064,36.9985487,-122.0604838
550,Red Hill Road,95064,36.9986490,-122.0598729
522,Steinhart Way,95064,36.9979175,-122.0596618
500,Kerr Road,95064,36.9969827,-122.0620172
520,Steinhart Way,95064,36.9979356,-122.0568552
425,East Field Service Road,95064,36.9941743,-122.0544121
451,East Field Service Road,95064,36.9947421,-122.0540763
360,Hagar Drive,95064,36.9916057,-122.0510867
418,Hagar Drive,95064,36.9945616,-122.0548945
405,East Field Service Road,95064,36.9936012,-122.0545551
402,McHenry Road,95064,36.9930476,-122.0607433
2300,Delaware Avenue,95060,36.9562736,-122.0585836
2155,Delaware Avenue,95060,36.9545654,-122.0534795
244,Oakes Field Service Road,95064,36.9882084,-122.0627185
525,McLaughlin Drive,95064,36.9995463,-122.0575773
117,Morrissey Boulevard,95062,36.9820995,-122.0075043
110,Morrissey Boulevard,95062,36.9816482,-122.0064886
120,Morrissey Boulevard,95062,36.9819987,-122.0058577
1261,Soquel Avenue,95062,36.9810004,-122.0089444
94,Ranch View Road,95064,36.9809836,-122.0542678
109,Glenn Coolidge Drive,95064,36.9789286,-122.0545197
113,Glenn Coolidge Drive,95064,36.9797542,-122.0545097
114,Carriage House Road,95064,36.9791818,-122.0521643
109,Ox Team Road,95064,36.9799487,-122.0531759
93,Ranch View Road,95064,36.9809318,-122.0536017
105,Carriage House Road,95064,36.9800627,-122.0520367
117,Carriage House Road,95064,36.9794392,-122.0514910
102,Glenn Coolidge Drive,95064,36.9774771,-122.0522467
101,Coolidge Drive,95064,36.9776314,-122.0543420
1201,Shaffer Road,95060,36.9589386,-122.0630499
605,Baskin Circle,95064,37.0002224,-122.0623810
620,Baskin Circle,95064,37.0008491,-122.0614527
504,Cowell-Stevenson Road,95064,36.9984127,-122.0549097
502,Cowell-Stevenson Road,95064,36.9984376,-122.0545053
506,Cowell-Stevenson Road,95064,36.9979794,-122.0546972
115,McAllister Way,95060,36.9497313,-122.0657547
101,McAllister Way,95060,36.9495916,-122.0664738
100,McAllister Way,95060,36.9491479,-122.0648913
103,McAllister Way,95060,36.9492715,-122.0656231
102,McAllister Way,95060,36.9492339,-122.0661163
502,Steinhart Way,95064,36.9975428,-122.0560176
202,Lincoln Street,95060,36.9726318,-122.0272234
110,McAllister Way,95060,36.9517608,-122.0652189
110,McAllister Way,95060,36.9518811,-122.0648827
153,McAllister Way,95060,36.9535279,-122.0662712
145,McAllister Way,95060,36.9533417,-122.0664125
145,McAllister Way,95060,36.9532595,-122.0664118
151,McAllister Way,95060,36.9537353,-122.0655660
151,McAllister WAy,95060,36.9541133,-122.0655548
2020,North Pacific Avenue,95060,36.9776194,-122.0269255
611,Ocean Street,95060,36.9768244,-122.0208845
1700,Mission Street,95060,36.9655460,-122.0427933
345,Swift Street,95060,36.9554096,-122.0489222
228,Cardiff Place,95060,36.9763619,-122.0499353
218,Cardiff Place,95060,36.9761590,-122.0500800
3004,Mission Street Extension,95060,36.9605044,-122.0598211
2015,Mission Street,95060-5217,36.9628034,-122.0433714
1901,Mission Street,95060,36.9636797,-122.0425625
1640,Mission Street,95060,36.9658039,-122.0414083
1604,Mission Street,95060,36.9666730,-122.0406922
1520,Mission Street,95060,36.9669740,-122.0402583
1521,Mission Street,95060,36.9666133,-122.0400700
1420,Mission Street,95060,36.9673939,-122.0395650
1405,Mission Street,95060,36.9673147,-122.0387666
1130,Mission Street,95060,36.9699285,-122.0375801
815,Mission Street,95060,36.9727741,-122.0346928
1016,Soquel Avenue,95062,36.9785756,-122.0123805
1002,Soquel Avenue,95062,36.9784134,-122.0127954
1141,Soquel Avenue,95062,36.9798695,-122.0108669
1237,Soquel Avenue,95062,36.9805894,-122.0095047
1127,Soquel Avenue,95062,36.9796763,-122.0114277
1302,Soquel Avenue,95062-2109,36.9808831,-122.0074514
1718,Soquel Avenue,95062,36.9806697,-122.0020606
2050,Soquel Avenue,95062,36.9821864,-121.9961981
501,Laurel Street,95060,36.9686881,-122.0284680
149,Josephine Street,95060,36.9818825,-122.0285721
142,River Street,95060,36.9789404,-122.0266822
555,Pacific Avenue,95060,36.9667892,-122.0248482
407,Pacific Avenue,95060,36.9661057,-122.0254552
413,Pacific Avenue,95060,36.9662403,-122.0252516
409,Pacific Avenue,95060,36.9663217,-122.0256363
510,Water Street,95060,36.9796842,-122.0198648
516,Water Street,95060,36.9795861,-122.0196909
738,Water Street,95060,36.9809022,-122.0158188
1047,Water Street,95062,36.9816115,-122.0107634
1114,Water Street,95062,36.9811510,-122.0101604
1219,Soquel Avenue,95062,36.9804632,-122.0100875
1505,Soquel Avenue,95062,36.9817680,-122.0051189
270,Soquel Avenue,95062,36.9736892,-122.0216413
533,Ocean Street,95060,36.9757839,-122.0197502
500,Ocean Street,95060,36.9750897,-122.0185969
522,Ocean Street,95060,36.9754672,-122.0188905
628,Ocean Street,95060,36.9769701,-122.0197680
414,Ocean Street,95060,36.9739576,-122.0181917
501,Broadway,95060,36.9735707,-122.0181977
367,Ocean Street,95060,36.9730140,-122.0185144
347,Ocean Street,95060,36.9723653,-122.0182054
522,Soquel Avenue,95062,36.9754688,-122.0173726
608,Soquel Avenue,95062,36.9764340,-122.0164032
622,Soquel Avenue,95062,36.9765782,-122.0160543
702,Soquel Avenue,95060,36.9768245,-122.0157134
820,Soquel Avenue,95062,36.9777034,-122.0141957
1100,Soquel Avenue,95062,36.9790020,-122.0116793
909,Ocean Street,95060,36.9803942,-122.0219020
1410,Ocean Street,95060,36.9843207,-122.0225531
110,Plymouth Street,95060,36.9848685,-122.0227794
126,Plymouth Street,95060,36.9851853,-122.0227647
130,Plymouth Street,95060,36.9854865,-122.0227147
1505,Ocean Street,95060,36.9847462,-122.0239212
1515,Ocean Street,95060,36.9851034,-122.0241221
1602,Ocean Street,95060,36.9855524,-122.0238993
110,San Lorenzo Boulevard,95060,36.9692171,-122.0179093
338,Riverside Avenue,95060,36.9671018,-122.0183166
337,Riverside Avenue,95060,36.9675620,-122.0189845
510,Leibrandt Avenue,95060,36.9671293,-122.0196722
810,3rd Street,95060,36.9674135,-122.0222171
1101,Fair Avenue,95060,36.9590801,-122.0463823
1214,Soquel Avenue,95062,36.9798256,-122.0099527
1040,River Street,95060,36.9877500,-122.0293443
709,Center Street,95060,36.9732384,-122.0287158
230,Gault Street,95062,36.9791540,-122.0074062
400,McHenry Road,95064,36.9923718,-122.0620073
2218,East Cliff Drive,95062,36.9632357,-122.0013533
100,Glenn Coolidge Drive,95064,36.9773015,-122.0522957
311,College Eight Service Road,95064,36.9913760,-122.0641510
504,Steinhart Way,95064,36.9978623,-122.0559622
500,Steinhart Way,95064,36.9979942,-122.0555260
111,Mission Street,95060,36.9766661,-122.0282291
432,Barson Street,95060,36.9710381,-122.0176531
602,Laurel Street,95060-4907,36.9690359,-122.0297957
604,Merrill Road,95064,36.9991997,-122.0514893
540,Stevenson Service Road,95064,36.9970655,-122.0514816
538,Stevenson Service Road,95064,36.9973563,-122.0513735
536,Stevenson Service Road,95064,36.9975229,-122.0510515
534,Stevenson Service Road,95064,36.9978056,-122.0512428
537,Stevenson Service Road,95064,36.9969979,-122.0507899
547,Stevenson Service Road,95064,36.9965724,-122.0519269
545,Stevenson Service Road,95064,36.9963131,-122.0520072
541,Stevenson Service Road,95064,36.9965028,-122.0514995
543,Stevenson Service Road,95064,36.9961918,-122.0515539
551,Stevenson Service Road,95064,36.9965353,-122.0524109
553,Stevenson Service Road,95064,36.9963481,-122.0524334
553,Stevenson Service Road,95064,36.9961094,-122.0524162
553,Stevenson Service Road,95064,36.9959225,-122.0523705
555,Stevenson Service Road,95064,36.9965923,-122.0526718
555,Stevenson Service Road,95064,36.9964071,-122.0527187
555,Stevenson Service Road,95064,36.9962196,-122.0527381
301,Dakota Avenue,95060,36.9772363,-122.0189271
321,Main Street,95060,36.9654395,-122.0234770
634,Almar Avenue,95060,36.9579121,-122.0426671
508,Woodland Way,95060,36.9535792,-122.0515938
405,Porter-Kresge Road,95064,36.9941326,-122.0651252
411,Porter-Kresge Road,95064,36.9943048,-122.0660317
407,Porter-Kresge Road,95064,36.9948666,-122.0650878
410,Porter-Kresge Road,95064,36.9956170,-122.0650155
414,Porter-Kresge Road,95064,36.9961231,-122.0649885
418,Porter-Kresge Road,95064,36.9964876,-122.0653020
416,Porter-Kresge Road,95064,36.9961788,-122.0653166
412,Porter-Kresge Road,95064,36.9957713,-122.0653219
417,Porter-Kresge Road,95064,36.9964358,-122.0656901
419,Porter-Kresge Road,95064,36.9967275,-122.0660562
410,East Field Service Road,95064,36.9940546,-122.0527470
315,College Eight Service Road,95064,36.9910395,-122.0634236
312,College Eight Service Road,95064,36.9908511,-122.0640058
302,College Eight Service Road,95064,36.9908528,-122.0642938
304,College Eight Service Road,95064,36.9909258,-122.0645632
306,College Eight Service Road,95064,36.9910541,-122.0651941
314,College Eight Service Road,95064,36.9908344,-122.0636865
214,Oakes Road,95064,36.9893849,-122.0650233
216,Oakes Road,95064,36.9892767,-122.0644192
210,Oakes Road,95064,36.9891312,-122.0655224
212,Oakes Road,95064,36.9889105,-122.0649800
301,College Eight Service Road,95064,36.9904676,-122.0645186
303,College Eight Service Road,95064,36.9905362,-122.0647987
305,College Eight Service Road,95064,36.9906177,-122.0652322
307,College Eight Service Road,95064,36.9906874,-122.0655468
313,College Eight Service Road,95064,36.9911822,-122.0636848
350,Rachel Carson College Road,95064,36.9924127,-122.0647323
351,Rachel Carson College Road,95064,36.9923049,-122.0642223
353,Rachel Carson College Road,95064,36.9922016,-122.0638220
355,Rachel Carson College Road,95064,36.9918105,-122.0644774
308,College Eight Service Road,95064,36.9911091,-122.0655072
310,College Eight Service Road,95064,36.9912080,-122.0647390
1410,Mission Street,95060,36.9674940,-122.0394098
201,Koshland Way,95064,36.9909169,-122.0674035
119,Koshland Way,95064,36.9908717,-122.0672450
105,Koshland Way,95064,36.9909351,-122.0667203
501,Koshland Way,95064,36.9910324,-122.0687699
618,Koshland Way,95064,36.9901387,-122.0689316
624,Koshland Way,95064,36.9903787,-122.0690291
210,Koshland Way,95064,36.9903922,-122.0675113
213,Koshland Way,95064,36.9904189,-122.0678329
224,Koshland Way,95064,36.9907369,-122.0677846
407,Koshland Way,95064,36.9902535,-122.0680921
606,Koshland Way,95064,36.9900658,-122.0681229
615,Koshland Way,95064,36.9901300,-122.0686567
611,Koshland Way,95064,36.9901224,-122.0684109
401,Koshland Way,95064,36.9907315,-122.0681261
220,Koshland Way,95064,36.9905301,-122.0679293
630,Koshland Way,95064,36.9905859,-122.0689908
415,Koshland Way,95064,36.9906335,-122.0684414
113,Koshland Way,95064,36.9907174,-122.0672225
108,Koshland Way,95064,36.9907999,-122.0669006
717,Koshland Way,95064,36.9922953,-122.0676998
830,Koshland Way,95064,36.9923670,-122.0672871
308,Koshland Way,95064,36.9914819,-122.0676816
701,Koshland Way,95064,36.9917278,-122.0675976
709,Koshland Way,95064,36.9916773,-122.0680621
530,Koshland Way,95064,36.9916414,-122.0686538
308,Koshland Way,95064,36.9914558,-122.0679710
306,Koshland Way,95064,36.9913256,-122.0680211
301,Koshland Way,95064,36.9911200,-122.0678953
301,Koshland Way,95064,36.9912205,-122.0678831
510,Koshland Way,95064,36.9913988,-122.0685754
506,Koshland Way,95064,36.9912316,-122.0686857
611,Koshland Way,95064,36.9917885,-122.0678922
550,Koshland Way,95064,36.9921198,-122.0681524
540,Koshland Way,95064,36.9917868,-122.0683834
317,Koshland Way,95064,36.9912595,-122.0674806
101,Koshland Way,95064,36.9910992,-122.0668779
611,Koshland Way,95064,36.9920402,-122.0674714
615,Koshland Way,95064,36.9920864,-122.0676310
709,Koshland Way,95064,36.9928129,-122.0678017
705,Koshland Way,95064,36.9925621,-122.0678915
701,Koshland Way,95064,36.9924674,-122.0678504
814,Koshland Way,95064,36.9930094,-122.0675403
819,Koshland Way,95064,36.9928502,-122.0672990
823,Koshland Way,95064,36.9926138,-122.0672290
228,Oakes Road,95064,36.9901358,-122.0637157
230,Oakes Road,95064,36.9898554,-122.0635122
241,Oakes Field Service Road,95064,36.9887486,-122.0636152
222,Oakes Road,95064,36.9900880,-122.0640495
220,Oakes Road,95064,36.9899376,-122.0642850
218,Oakes Road,95064,36.9897226,-122.0643071
249,Oakes Field Service Road,95064,36.9893030,-122.0633362
248,Oakes Field Service Road,95064,36.9892428,-122.0626909
246,Oakes Field Service Road,95064,36.9888189,-122.0624555
245,Oakes Field Service Road,95064,36.9889829,-122.0629595
243,Oakes Field Service Road,95064,36.9887848,-122.0632835
231,Oakes Road,95064,36.9898003,-122.0629031
203,Village Road,95064,36.9855428,-122.0552572
201,Village Road,95064,36.9854934,-122.0554808
241,Village Road,95064,36.9882096,-122.0557101
230,Village Road,95064,36.9876429,-122.0553452
232,Village Road,95064,36.9876715,-122.0551401
228,Village Road,95064,36.9874563,-122.0551760
226,Village Road,95064,36.9874205,-122.0553843
224,Village Road,95064,36.9872411,-122.0552965
222,Village Road,95064,36.9870358,-122.0553579
214,Village Road,95064,36.9866093,-122.0552929
216,Village Road,95064,36.9866087,-122.0550882
212,Village Road,95064,36.9864370,-122.0551375
205,Village Road,95064,36.9857721,-122.0552653
249,Village Road,95064,36.9889449,-122.0556990
245,Village Road,95064,36.9886208,-122.0556117
247,Village Road,95064,36.9887496,-122.0558030
251,Village Road,95064,36.9888043,-122.0555865
253,Village Road,95064,36.9888395,-122.0553562
257,Village Road,95064,36.9888230,-122.0551476
255,Village Road,95064,36.9886755,-122.0552465
260,Village Road,95064,36.9885547,-122.0547909
259,Village Road,95064,36.9886544,-122.0550395
243,Village Road,95064,36.9883246,-122.0556759
341,Ocean Street,95060,36.9721769,-122.0180912
1430,Soquel Avenue,95062,36.9812770,-122.0054837
143,Farm Road,95064,36.9838914,-122.0554900
110,Farm Road,95064,36.9845259,-122.0561595
104,Farm Road,95064,36.9848369,-122.0564316
151,Farm Road,95064,36.9836570,-122.0551055
151,Farm Road,95064,36.9834344,-122.0551703
164,Farm Road,95064,36.9833540,-122.0543282
152,Farm Road,95064,36.9833058,-122.0549226
108,Carriage House Road,95064,36.9797142,-122.0521340
500,Seabright Avenue,95062,36.9671523,-122.0075255
413,Seabright Avenue,95062,36.9666876,-122.0080118
505,Seabright Avenue,95062,36.9671102,-122.0080576
415,Porter-Kresge Road,95064,36.9959407,-122.0659232
2001,Soquel Avenue,95062,36.9819427,-121.9983343
405,Leibrandt Avenue,95060,36.9665183,-122.0196913
124,River Street,95060,36.9785487,-122.0260952
222,River Street,95060,36.9796218,-122.0277328
121,Rincon Street,95060,36.9734043,-122.0313225
620,Water Street,95060,36.9803026,-122.0181738
105,McAllister Way,95060,36.9487264,-122.0657273
104,McAllister Way,95060,36.9492502,-122.0658909
101,McAllister Way,95060,36.9497046,-122.0662796
1733,Seabright Avenue,95062,36.9809237,-122.0109939
1134,Soquel Avenue,95062,36.9794109,-122.0108755
1305,East Cliff Drive,95062,36.9645517,-122.0095893
628,Crown Road,95064,37.0002690,-122.0545477
602,Crown Road,95064,37.0008630,-122.0553910
680,Crown Service Road,95064,36.9997951,-122.0548677
630,Crown Road,95064,37.0001332,-122.0544023
608,Red Hill Road,95064,37.0010484,-122.0608725
575,McLaughlin Drive,95064,36.9997834,-122.0611101
570,Red Hill Road,95064,36.9985099,-122.0611175
512,Cowell-Stevenson Road,95064,36.9973882,-122.0544761
500,Cowell Service Road,95064,36.9957913,-122.0546394
523,Cowell Service Road,95064,36.9968927,-122.0535729
521,Cowell Service Road,95064,36.9967020,-122.0534797
520,Cowell-Stevenson Road,95064,36.9968403,-122.0530330
520,Hagar Drive,95064,36.9967175,-122.0551327
524,Hagar Drive,95064,36.9968665,-122.0548127
517,Cowell Service Road,95064,36.9966535,-122.0538877
513,Cowell Service Road,95064,36.9963975,-122.0541882
526,Hagar Drive,95064,36.9968497,-122.0543007
528,Hagar Drive,95064,36.9970789,-122.0546380
514,Cowell-Stevenson Road,95064,36.9972688,-122.0540874
516,Cowell-Stevenson Road,95064,36.9971024,-122.0530580
126,Front Street,95060,36.9676609,-122.0232778
1301,Mission Street,95076,36.9680953,-122.0379662
701,Chinquapin Road,95064,37.0018373,-122.0556301
633,Crown Road,95064,37.0005357,-122.0539391
631,Crown Road,95064,37.0006884,-122.0541352
1456,High Street,95064,36.9795402,-122.0578516
407,McHenry Road,95064,36.9938805,-122.0605632
117,Arboretum Road,95064,36.9834170,-122.0611991
119,Arboretum Road,95064,36.9834583,-122.0613586
115,Arboretum Road,95064,36.9833124,-122.0613761
90,Ranch View Road,95064,36.9816527,-122.0530953
441,Kerr Road,95064,36.9948170,-122.0623066
521,Cowell-Stevenson Road,95064,36.9979231,-122.0527173
620,Merrill Road,95064,36.9994404,-122.0508617
540,Red Hill Road,95064,36.9981956,-122.0604898
306,Mission Street,95062,36.9773541,-122.0315156
174,West Cliff Drive,95060,36.9625050,-122.0255895
601,Beach Street,95060,36.9648257,-122.0176694
605,Pacific Avenue,95060,36.9677194,-122.0248135
610,Pacific Avenue,95060,36.9679157,-122.0242587
281,Heller Drive,95064,36.9893850,-122.0685885
141,Farm Road,95064,36.9840767,-122.0556253
637,Red Hill Road,95064,37.0019267,-122.0620501
636,Red Hill Road,95064,37.0015592,-122.0616870
624,Crown Road,95064,37.0000417,-122.0548312
620,Crown Road,95064,37.0002516,-122.0548045
655,Crown Service Road,95064,36.9992568,-122.0545676
618,Crown Road,95064,37.0002224,-122.0550501
675,Crown Service Road,95064,36.9996321,-122.0544603
685,Crown Service Road,95064,36.9994869,-122.0548113
625,Crown Service Road,95064,36.9999360,-122.0552110
605,Crown Service Road,95064,37.0003918,-122.0553640
615,Crown Service Road,95064,37.0001138,-122.0555355
670,Crown Service Road,95064,36.9998492,-122.0544436
660,Crown Service Road,95064,36.9991436,-122.0538467
710,East Road,95064,37.0015732,-122.0542659
706,East Road,95064,37.0018866,-122.0544239
714,East Road,95064,37.0016335,-122.0538899
716,East Road,95064,37.0014029,-122.0539644
708,East Road,95064,37.0017570,-122.0541975
630,Crown Road,95064,37.0000696,-122.0538590
635,Merrill Road,95064,36.9993880,-122.0535573
661,Merrill Service Road,95064,37.0001921,-122.0536338
633,Merrill Road,95064,36.9993716,-122.0533263
639,Merrill Road,95064,36.9996810,-122.0535024
641,Merrill Road,95064,36.9996519,-122.0530819
632,Merrill Road,95064,36.9999604,-122.0520595
630,Merrill Road,95064,36.9997273,-122.0522916
634,Merrill Road,95064,37.0000511,-122.0523165
544,Porter-Kresge Road,95064,36.9989792,-122.0662157
534,Porter-Kresge Road,95064,36.9982849,-122.0658852
538,Porter-Kresge Road,95064,36.9984037,-122.0661746
532,Porter-Kresge Road,95064,36.9979843,-122.0660538
518,Porter-Kresge Road,95064,36.9977414,-122.0660243
528,Porter-Kresge Road,95064,36.9977786,-122.0657503
526,Porter-Kresge Road,95064,36.9976745,-122.0655556
520,Porter-Kresge Road,95064,36.9974157,-122.0656828
522,Porter-Kresge Road,95064,36.9972070,-122.0655330
506,Porter-Kresge Road,95064,36.9975882,-122.0667350
514,Porter-Kresge Road,95064,36.9976736,-122.0663323
510,Porter-Kresge Road,95064,36.9973135,-122.0667569
512,Porter-Kresge Road,95064,36.9974148,-122.0661068
516,Porter-Kresge Road,95064,36.9972375,-122.0660396
525,Heller Drive,95064,36.9970219,-122.0640385
535,Heller Drive,95064,36.9974322,-122.0641523
545,Heller Drive,95064,36.9976422,-122.0640987
549,Heller Drive,95064,36.9978519,-122.0640907
555,Heller Drive,95064,36.9979652,-122.0643245
604,College Ten Road,95064,37.0006082,-122.0586489
606,College Ten Road,95064,37.0007165,-122.0582367
602,College Ten Road,95064,37.0002914,-122.0582559
715,College Ten Road,95064,37.0021489,-122.0596506
735,College Ten Road,95064,37.0027871,-122.0588193
702,College Nine Road,95064,37.0022012,-122.0580800
719,College Ten Road,95064,37.0022977,-122.0594172
630,College Nine Road,95064,37.0016985,-122.0572499
620,College Nine Road,95064,37.0015161,-122.0574975
610,College Nine Road,95064,37.0011303,-122.0570666
645,Heller Drive,95064,36.9995415,-122.0646702
645,Heller Drive,95064,36.9998035,-122.0648564
645,Heller Drive,95064,36.9993325,-122.0648644
565,Heller Drive,95064,36.9985552,-122.0647044
404,McHenry Road,95064,36.9933676,-122.0605065
409,Porter-Kresge Road,95064,36.9949254,-122.0656482
604,Red Hill Road,95064,37.0005866,-122.0604457
200,Heller Drive,95064,36.9881150,-122.0682866
701,Leonardo Lane,95064,37.0013264,-122.0661828
530,Porter-Kresge Road,95064,36.9980480,-122.0655213
536,Porter-Kresge Road,95064,36.9981477,-122.0662913
725,College Ten Road,95064,37.0023763,-122.0588590
608,College Nine Road,95064,37.0007590,-122.0571943
535,Stevenson Service Road,95064,36.9978904,-122.0507188
2218,Mission Street,95060,36.9622269,-122.0457713
422,Baskin Arts Service Road,95064,36.9944146,-122.0612560
418,Baskin Arts Service Road,95064,36.9946512,-122.0612846
424,Baskin Arts Service Road,95064,36.9945399,-122.0610070
423,Baskin Arts Service Road,95064,36.9950444,-122.0612484
425,Baskin Arts Service Road,95064,36.9948520,-122.0611461
427,Baskin Arts Service Road,95064,36.9950817,-122.0610202
431,Baskin Arts Service Road,95064,36.9948119,-122.0608512
433,Baskin Arts Service Road,95064,36.9947460,-122.0605821
430,Baskin Arts Service Road,95064,36.9945562,-122.0607189
432,Baskin Arts Service Road,95064,36.9943918,-122.0605612
435,Baskin Arts Service Road,95064,36.9945741,-122.0601265
436,Baskin Arts Service Road,95064,36.9943535,-122.0602555
459,Kerr Road,95064,36.9950092,-122.0626914
421,Baskin Arts Service Road,95064,36.9948117,-122.0613108
453,Kerr Road,95064,36.9952271,-122.0616693
536,Porter-Kresge Road,95064,36.9976177,-122.0658069
510,Cowell-Stevenson Road,95064,36.9976564,-122.0545748
123,Arboretum Road,95064,36.9837542,-122.0614153
125,Arboretum Road,95064,36.9837561,-122.0616125
702,East Road,95064,37.0019535,-122.0547735
645,Heller Drive,95064,36.9997829,-122.0645611
106,Farm Road,95064,36.9833160,-122.0560389
403,East Field Service Road,95064,36.9938305,-122.0548381
2218,East Cliff Drive,95062,36.9636648,-122.0014598
1030,River Street,95060,36.9867198,-122.0289202
256,Meadow Court,95060,36.9825813,-122.0397981
103,Ox Team Road,95064,36.9805953,-122.0526670
103,Ox Team Road,95064,36.9806291,-122.0527267
420,Foundry Road,95064,36.9954684,-122.0623510
1200,Pacific Avenue,95060,36.9733314,-122.0255555
1723,Soquel Avenue,95062,36.9815943,-122.0018806
925,Soquel Avenue,95062,36.9787825,-122.0136098
135,Fifth Ave,95060,36.9673021,-122.0042190
1108,Mission Street,95060,36.9705210,-122.0369425
1534,Pacific Avenue,95060,36.9760705,-122.0265147
1221,Mission Street,95060,36.9688163,-122.0374868
410,McHenry Road,95064,36.9941374,-122.0589264
500,Cowell Service Road,95064,36.9958742,-122.0548684
122,Hagar Court,95064,36.9806903,-122.0490617
508,Porter-Kresge Road,95064,36.9971273,-122.0663928
500,Porter-Kresge Road,95064,36.9975067,-122.0669944
514,Steinhart Way,95064,36.9990209,-122.0560690
512,Steinhart Way,95064,36.9990765,-122.0558202
532,Stevenson Service Road,95064,36.9977426,-122.0517151
451,Kerr Road,95064,36.9946531,-122.0618659
455,Kerr Road,95064,36.9952670,-122.0619635
520,Koshland Way,95064,36.9916512,-122.0687410
177,Farm Fire Road,95064,36.9839062,-122.0577368
175,Farm Fire Road,95064,36.9840347,-122.0575128
181,Farm Fire Road,95064,36.9838888,-122.0578964
179,Farm Fire Road,95064,36.9840029,-122.0578310
171,Farm Fire Road,95064,36.9840496,-122.0573571
185,Farm Fire Road,95064,36.9838574,-122.0582119
183,Farm Fire Road,95064,36.9839744,-122.0581443
187,Farm Fire Road,95064,36.9839534,-122.0583045
173,Farm Fire Road,95064,36.9839346,-122.0574209
121,Wilkes Circle,95060,36.9590097,-122.0372712
348,Plymouth Street,95060,36.9884638,-122.0210985
916,Soquel Avenue,95062,36.9780067,-122.0133487
655,Merrill Service Road,95064,37.0001992,-122.0533822
210,Golf Club Drive,95060,36.9906449,-122.0346358
655,Merrill Service Road,95064,37.0001767,-122.0530912
750,Nobel Drive,95060,36.9770601,-122.0543839
752,Nobel Drive,95060,36.9770411,-122.0541497
744,Nobel Drive,95060,36.9767781,-122.0542822
746,Nobel Drive,95060,36.9768287,-122.0540308
740,Nobel Drive,95060,36.9765835,-122.0542156
742,Nobel Drive,95060,36.9766398,-122.0539684
730,Nobel Drive,95060,36.9762941,-122.0541234
732,Nobel Drive,95060,36.9763480,-122.0538701
724,Nobel Drive,95060,36.9760051,-122.0540273
726,Nobel Drive,95060,36.9760589,-122.0537715
720,Nobel Drive,95060,36.9758141,-122.0539620
722,Nobel Drive,95060,36.9758651,-122.0537094
700,Nobel Drive,95060,36.9756333,-122.0540036
710,Nobel Drive,95060,36.9756305,-122.0536876
702,Nobel Drive,95060,36.9754140,-122.0536015
704,Nobel Drive,95060,36.9752878,-122.0534722
706,Nobel Drive,95060,36.9753513,-122.0532515
708,Nobel Drive,95060,36.9755082,-122.0532721
710,Nobel Drive,95060,36.9757056,-122.0534035
551,Red Hill Road,95064,36.9982146,-122.0590336
630,Red Hill Road,95064,37.0013853,-122.0617696
104,Carriage House Road,95064,36.9800824,-122.0526533
102,Carriage House Road,95064,36.9801115,-122.0525932
106,Carriage House Road,95064,36.9799760,-122.0523297
106,Carriage House Road,95064,36.9798760,-122.0521532
449,Kerr Road,95064,36.9945008,-122.0617781
445,Kerr Road,95064,36.9943939,-122.0620266
443,Kerr Road,95064,36.9945249,-122.0622918
441,Kerr Road,95064,36.9945321,-122.0625249
632,Red Hill Road,95064,37.0016434,-122.0617873
638,Red Hill Road,95064,37.0018775,-122.0617342
634,Red Hill Road,95064,37.0017408,-122.0615748
612,Red Hill Road,95064,37.0012241,-122.0606171
612,Red Hill Road,95064,37.0014243,-122.0607677
612,Red Hill Road,95064,37.0011502,-122.0605216
606,Red Hill Road,95064,37.0007927,-122.0604567
463,Kerr Road,95064,36.9951500,-122.0624002
461,Kerr Road,95064,36.9950635,-122.0624490
447,Kerr Road,95064,36.9945771,-122.0621427
105,Farm Road,95064,36.9849051,-122.0560837
150,Farm Road,95064,36.9834111,-122.0554249
101,Farm Road,95064,36.9849695,-122.0561181
103,Farm Road,95064,36.9849883,-122.0560148
100,McAllister Way,95060,36.9496271,-122.0659689
102,McAllister Way,95060,36.9493448,-122.0663781
104,McAllister Way,95060,36.9490015,-122.0657870
106,McAllister Way,95060,36.9487261,-122.0656544
506,Steinhart Way,95064,36.9982797,-122.0553728
120,Carriage House Road,95064,36.9798041,-122.0528411
104,Carriage House Road,95064,36.9798496,-122.0531580
502,Cowell Service Road,95064,36.9959508,-122.0541488
506,Cowell Service Road,95064,36.9958558,-122.0539486
110,Ox Team Road,95064,36.9799295,-122.0527345
620,Red Hill Road,95064,37.0013927,-122.0608997
614,Red Hill Road,95064,37.0012074,-122.0606993
610,Merrill Road,95064,36.9987361,-122.0538295
1310,Mission Street,95060,36.9684331,-122.0383951
145,Miles Street,95060,36.9730513,-122.0407177
410,Hahn Road,95064,36.9961755,-122.0565243
2956,Mission Street,95060,36.9601219,-122.0586491
1010,Fair Avenue,95060,36.9595102,-122.0455848
429,Baskin Arts Service Road,95064,36.9948879,-122.0609664
3004,Mission Street Extension,95060,36.9603391,-122.0595996
313,Riverside Avenue,95060,36.9669484,-122.0189515
215,Beach Street,95060,36.9640069,-122.0218546
407,Broadway,95060-4619,36.9732921,-122.0193561
100,McAllister Way,95060,36.9529534,-122.0648021
145,McAllister Way,95060,36.9531389,-122.0663822
146,Clay Street,95060-4619,36.9722735,-122.0188632
150,Clay Street,95060-4619,36.9724105,-122.0189028
160,Clay Street,95060-4619,36.9725368,-122.0190245
124,Clay Street,95060-4619,36.9716521,-122.0185978
404,Broadway,95060-4619,36.9727002,-122.0190971
328,Broadway,95060-4619,36.9725760,-122.0194532
153,Clay Street,95060-4619,36.9724242,-122.0194194
149,Clay Street,95060-4619,36.9722778,-122.0193807
145,Clay Street,95060-4619,36.9721267,-122.0194655
141,Clay Street,95060-4619,36.9720811,-122.0192916
137,Clay Street,95060-4619,36.9719042,-122.0194032
135,Clay Street,95060-4619,36.9718321,-122.0191451
133,Clay Street,95060-4619,36.9717217,-122.0191078
119,Clay Street,95060,36.9715323,-122.0191243
117,Clay Street,95060,36.9713063,-122.0189568
325,Barson Street,95060,36.9709145,-122.0186946
415,Barson Street,95060,36.9709985,-122.0183387
112,Clay Street,95060,36.9712400,-122.0184038
120,Clay Street,95060,36.9714774,-122.0184816
320,Broadway,95060,36.9724433,-122.0197004
316,Broadway,95060-4619,36.9723752,-122.0198859
310,Broadway,95060,36.9722979,-122.0200056
306,Broadway,95060,36.9722346,-122.0202395
148,Campbell Street,95060,36.9721637,-122.0204099
144,Campbell Street,95060,36.9720459,-122.0203150
140,Campbell Street,95060,36.9719481,-122.0202050
136,Campbell Street,95060,36.9718159,-122.0201244
132,Campbell Street,95060,36.9717204,-122.0197556
130,Campbell Street,95060,36.9715681,-122.0199736
126,Campbell Street,95060,36.9714686,-122.0197189
126,Campbell Street,95060,36.9714487,-122.0199243
120,Campbell Street,95060,36.9713444,-122.0197327
116,Campbell Street,95060,36.9711782,-122.0197626
110,Campbell Street,95060,36.9710653,-122.0197067
106,Campbell Street,95060,36.9709433,-122.0195767
6,Barson Street,95060,36.9708232,-122.0195113
321,Barson Street,95060,36.9709006,-122.0188340
313,Barson Street,95060,36.9708567,-122.0191432
309,Barson Street,95060,36.9708520,-122.0192897
417,Barson Street,95060,36.9709938,-122.0181818
419,Barson Street,95060,36.9712626,-122.0180800
408,Broadway,95060,36.9727613,-122.0189618
412,Broadway,95060,36.9728485,-122.0188284
418,Broadway,95060,36.9729969,-122.0186885
311,Ocean Street,95060,36.9712015,-122.0175746
315,Ocean Street,95060,36.9713190,-122.0176479
312,Ocean Street,95060,36.9714656,-122.0176990
321a,Ocean Street,95060,36.9715264,-122.0179155
325,Ocean Street,95060,36.9717194,-122.0178329
333,Ocean Street,95060,36.9719656,-122.0179298
337,Ocean Street,95060,36.9720959,-122.0179758
353,Ocean Street,95060,36.9726327,-122.0182660
359,Ocean Street,95060,36.9727479,-122.0182750
363,Ocean Street,95060,36.9729089,-122.0183971
1201,Shaffer Road,95060,36.9600478,-122.0625481
222,Columbia Street,95060,36.9534629,-122.0335304
707,Pelton Avenue,95060,36.9536886,-122.0329812
101,Hiawatha Avenue,95062,36.9669601,-122.0123793
101,Park Avenue,95062,36.9669985,-122.0120165
350,Ocean Street,95060,36.9726592,-122.0173523
1642,Mission Street,95060,36.9655028,-122.0415870
225,Buena Vista Avenue,95062,36.9686411,-122.0125767
301,Beach Street,95060,36.9642507,-122.0211810
1301,Mission Street,95060,36.9679779,-122.0381665
111,McPherson Street,95062,36.9602235,-122.0467786
111B,McPherson Street,95062,36.9601183,-122.0468202
516,Steinhart Way,95064,36.9987979,-122.0566063
645,Heller Drive,95064,36.9995222,-122.0647474
311,College Eight Service Road,95064,36.9915122,-122.0644037
510,Porter-Kresge Road,95064,36.9973987,-122.0664421
411,Porter-Kresge Road,95064,36.9944949,-122.0658040
306,Koshland Way,95064,36.9913379,-122.0681235
522,Steinhart Way,95064,36.9980426,-122.0601392
441,Kerr Road,95064,36.9947443,-122.0626289
457,Kerr Road,95064,36.9951163,-122.0621338
408,McHenry Road,95064,36.9942997,-122.0593554
522,Hagar Drive,95064,36.9965802,-122.0545107
501,Cowell Service Road,95064,36.9962441,-122.0547252
520,Hagar Drive,95064,36.9964201,-122.0550810
500,High,95060,36.9773996,-122.0373993
520,High Street,95060,36.9773637,-122.0379449
490,River Street,95060,36.9824261,-122.0277583
470,River Street,95060,36.9823258,-122.0282481
450,River Street,95060,36.9823009,-122.0286662
317,Leibrandt Avenue,95060,36.9664059,-122.0192084
50,Front Street,95060,36.9639932,-122.0243404
200,North Branciforte Avenue,95062,36.9920689,-122.0112759
415,Seabright Avenue,95062,36.9667712,-122.0080406
413,Lake Avenue,95062,36.9636021,-122.0010243
244,4th Avenue,95062,36.9663260,-122.0047782
127,Minnie Street,95062,36.9780937,-122.0170191
1244,Bay Street,95060,36.9664486,-122.0398430
525,McLaughlin Drive,95064,36.9997037,-122.0574371
525,McLaughlin Drive,95064,36.9996484,-122.0572117
717,Mission Street,95060,36.9734442,-122.0345028
715,Mission Street,95060,36.9735631,-122.0344083
709,Mission Street,95060,36.9737203,-122.0343285
615,Mission Street,95060,36.9742204,-122.0341005
344,Highland Avenue,95060,36.9795705,-122.0326952
350,Highland Avenue,95060,36.9793629,-122.0331851
322,Highland Avenue,95060,36.9785814,-122.0334488
711,Highland Avenue,95060,36.9794426,-122.0406149
654,High Street,95060,36.9780053,-122.0399079
660,High Street,95060,36.9781099,-122.0403687
701,Highland Avenue,95060,36.9787520,-122.0399090
633,Highland Avenue,95060,36.9794200,-122.0400097
653,Highland Avenue,95060,36.9795125,-122.0401112
281,Sheldon Avenue,95060,36.9823240,-122.0420607
250,Meadow Road,95060,36.9823665,-122.0405906
248,Meadow Road,95060,36.9823525,-122.0408734
240,Meadow Road,95060,36.9823724,-122.0411047
218,Meadow Road,95060,36.9823672,-122.0414908
205,Meadow Road,95060,36.9827516,-122.0428634
110,Ortalon Circle,95060,36.9829594,-122.0428928
122,Ortalon Circle,95060,36.9836099,-122.0429932
215,Meadow Road,95060,36.9827621,-122.0425252
221,Meadow Road,95060,36.9827892,-122.0422675
227,Meadow Road,95060,36.9827797,-122.0419775
239,Meadow Road,95060,36.9828023,-122.0415472
283,Meadow Road,95060,36.9832623,-122.0414291
282,Meadow Road,95060,36.9834264,-122.0412072
274,Meadow Road,95060,36.9832409,-122.0409173
266,Meadow Road,95060,36.9830870,-122.0406419
260,Meadow Road,95060,36.9828154,-122.0403918
116,Ross Street,95060,36.9787734,-122.0415361
112,Ross Street,95060,36.9785584,-122.0416080
108,Ross Street,95060,36.9783953,-122.0416564
104,Ross Street,95060,36.9782579,-122.0418384
120,Ross Street,95060,36.9789508,-122.0415300
124,Ross Street,95060,36.9791209,-122.0415283
727,Highland Avenue,95060,36.9793897,-122.0414411
731,Highland Avenue,95060,36.9794091,-122.0416092
214,Ross Street,95060,36.9803012,-122.0419032
210,Ross Street,95060,36.9801784,-122.0417329
206,Ross Street,95060,36.9800364,-122.0415997
798,Highland Avenue,95060,36.9798231,-122.0415181
860,Highland Avenue,95060,36.9798564,-122.0426107
850,Highland Avenue,95060,36.9798322,-122.0423601
201,Ross Street,95060,36.9798639,-122.0420505
710,Highland Avenue,95060,36.9799797,-122.0408111
708,Highland Avenue,95060,36.9799178,-122.0405334
2,Ortalon Avenue,95060,36.9809373,-122.0405595
215,Sheldon Avenue,95060,36.9802913,-122.0403256
203,Sheldon Avenue,95060,36.9798821,-122.0401588
721,Highland Avenue,95060,36.9794514,-122.0411506
718,High Street,95060,36.9780083,-122.0430457
706,High Street,95060,36.9779775,-122.0427634
1314,Laurent Street,95060,36.9781723,-122.0421419
662,High Street,95060,36.9778350,-122.0417882
668,High Street,95060,36.9778183,-122.0420333
112,Quarry Lane,95060,36.9815696,-122.0459665
115,Quarry Court,95060,36.9809037,-122.0462031
111,Quarry Lane,95060,36.9811125,-122.0461029
201,Quarry Lane,95060,36.9813262,-122.0465171
109,Limestone Lane,95060,36.9802556,-122.0467961
109,Ortalon Circle,95060,36.9829566,-122.0434113
125,School Street,95060,36.9779794,-122.0285942
113,School Street,95060,36.9780301,-122.0289819
1013,Nobel Drive,95060,36.9764057,-122.0561770
1015,Nobel Drive,95060,36.9762874,-122.0561512
1011,Nobel Drive,95060,36.9764316,-122.0559968
1017,Nobel Drive,95060,36.9762863,-122.0559822
1023,Nobel Drive,95060,36.9761577,-122.0561622
1025,Nobel Drive,95060,36.9760394,-122.0561364
1021,Nobel Drive,95060,36.9761835,-122.0559821
1027,Nobel Drive,95060,36.9760383,-122.0559675
109,Edgecliff Way,95060,36.9787594,-122.0332478
535,Highland Avenue,95060,36.9783744,-122.0364169
195,Refugio Road,95060,36.9766551,-122.0622714
200,Refugio Road,95060,36.9774020,-122.0618813
306,Spring Street,95060,36.9781030,-122.0433032
346,Spring Street,95060,36.9794637,-122.0438191
331,Spring Street,95060,36.9791189,-122.0442273
112,Kalkar Drive,95060,36.9789647,-122.0446205
325,Spring Street,95060,36.9788934,-122.0441199
108,Kalkar Drive,95060,36.9787283,-122.0445174
100,Kalkar Drive,95060,36.9782673,-122.0444354
104,Kalkar Drive,95060,36.9785163,-122.0444626
323,Spring Street,95060,36.9786626,-122.0440322
311,Spring Street,95060,36.9784480,-122.0440178
303,Spring Street,95060,36.9782064,-122.0439012
10,East Road,95064,37.0021535,-122.0549151
509,Meder Street,95060,36.9744274,-122.0589937
515,Meder Street,95060,36.9743967,-122.0592888
118,Rockridge Lane,95060,36.9837986,-122.0478414
101,Pasture Road,95060,36.9835140,-122.0456729
107,Pasture Road,95060,36.9836705,-122.0454339
114,Rockridge Lane,95060,36.9838718,-122.0473552
697,Meder Street,95060,36.9738124,-122.0645604
410,Alta Vista Drive,95060,36.9687950,-122.0498094
125,Refugio Road,95060,36.9757575,-122.0624739
119,Hillcrest Terrace,95060,36.9798434,-122.0346555
130,Hillcrest Terrace,95060,36.9792818,-122.0345097
101,Hillcrest Terrace,95060,36.9798890,-122.0354652
104,Hillcrest Terrace,95060,36.9795357,-122.0351419
129,Hillcrest Terrace,95060,36.9797590,-122.0342820
139,Hillcrest Terrace,95060,36.9796328,-122.0338961
141,Hillcrest Terrace,95060,36.9795489,-122.0334577
140,Hillcrest Terrace,95060,36.9793003,-122.0338431
136,Hillcrest Terrace,95060,36.9791904,-122.0341545
400,Highland Avenue,95060,36.9790137,-122.0337702
321,Highland Avenue,95060,36.9786174,-122.0338780
317,Highland Avenue,95060,36.9784986,-122.0342606
305,Highland Avenue,95060,36.9782320,-122.0342229
304,Highland Avenue,95060,36.9780794,-122.0338876
117,Manor Avenue,95060,36.9569568,-122.0261803
600,River Street,95060,36.9838244,-122.0288615
1236,soqu,95062,36.9800220,-122.0090256
550,2nd Street,95060,36.9646922,-122.0245750
"1201,1211",Fair Avenue,95060,36.9600175,-122.0465262
550,Water Street,95060,36.9795095,-122.0185034
213,Broadway,95060,36.9721251,-122.0212591
217,Broadway,95060,36.9722110,-122.0211319
1516,Soquel Avenue,95062,36.9812417,-122.0044159
716,Darwin Street,95062,36.9800780,-122.0071652
1024,Water Street,95062,36.9811653,-122.0111098
1901,Mission Street,95060,36.9635973,-122.0423995
208,Lincoln Street,95060,36.9725983,-122.0273817
1003,Hiawatha Avenue,95062,36.9667455,-122.0121831
115,Rockridge Lane,95060,36.9824772,-122.0468446
117,Rockridge Lane,95060,36.9826545,-122.0471021
119,Rockridge Lane,95060,36.9828673,-122.0470827
121,Rockridge Lane,95060,36.9830631,-122.0470266
109,Rockridge Lane,95060,36.9823713,-122.0463754
111,Rockridge Lane,95060,36.9825691,-122.0465822
107,Rockridge Lane,95060,36.9828426,-122.0464741
116,Rockridge Lane,95060,36.9839628,-122.0475722
859,Highland Avenue,95060,36.9794566,-122.0427455
625,Highland Avenue,95060,36.9794869,-122.0395135
532,Highland Avenue,95060,36.9800090,-122.0368941
125,Beach Street,95060,36.9637676,-122.0232001
2424,Mission Street,95060,36.9610410,-122.0489023
200,High Road,95060,36.9564164,-122.0500241
746,Seaside Street,95060,36.9645328,-122.0389945
314,Spring Street,95060,36.9783591,-122.0433884
247,Meadow Road,95060,36.9827943,-122.0410860
268,Sheldon Avenue,95060,36.9820152,-122.0413030
274,Sheldon Avenue,95060,36.9821731,-122.0414528
134,Blaine Street,95060,36.9813119,-122.0235833
138,Blaine Street,95060,36.9810538,-122.0235498
700,Spring Court,95060,36.9857243,-122.0453789
342,Spring Street,95060,36.9792689,-122.0436964
336,Spring Street,95060,36.9791065,-122.0436398
332,Spring Street,95060,36.9789449,-122.0435935
328,Spring Street,95060,36.9787854,-122.0435284
322,Spring Street,95060,36.9785723,-122.0434621
524,Highland Avenue,95060,36.9811890,-122.0370214
526,Highland Avenue,95060,36.9810595,-122.0373709
515,Highland Avenue,95060,36.9788628,-122.0354077
507,Highland Avenue,95060,36.9793827,-122.0358361
501,Highland Avenue,95060,36.9795271,-122.0358873
519,Highland Avenue,95060,36.9793228,-122.0361860
521,Highland Avenue,95060,36.9794994,-122.0363198
531,Highland Avenue,95060,36.9792735,-122.0366542
539,Highland Avenue,95060,36.9794630,-122.0371393
541,Highland Avenue,95060,36.9790872,-122.0373871
545,Highland Avenue,95060,36.9794064,-122.0375196
537,Highland Avenue,95060,36.9781036,-122.0370884
542,Highland Avenue,95060,36.9799086,-122.0374873
548,Highland Avenue,95060,36.9798834,-122.0377351
606,Highland Avenue,95060,36.9799491,-122.0380635
222,Highland Court,95060,36.9802706,-122.0381867
218,Highland Court,95060,36.9805031,-122.0382535
226,Highland Court,95060,36.9802852,-122.0385088
224,Highland Court,95060,36.9806199,-122.0386029
210,Highland Court,95060,36.9807408,-122.0380703
214,Highland Court,95060,36.9806887,-122.0383476
208,Highland Court,95060,36.9808024,-122.0378168
209,Highland Court,95060,36.9804146,-122.0378483
207,Highland Court,95060,36.9804582,-122.0375772
211,Highland Court,95060,36.9802482,-122.0378185
612,Highland Avenue,95060,36.9798855,-122.0383557
607,Highland Avenue,95060,36.9794778,-122.0379298
140,Roger Drive,95060,36.9793119,-122.0378793
138,Roger Drive,95060,36.9791099,-122.0377870
128,Roger Drive,95060,36.9789157,-122.0377418
122,Roger Drive,95060,36.9787339,-122.0376536
116,Roger Drive,95060,36.9785569,-122.0376045
122,Roger Drive,95060,36.9783839,-122.0375369
106,Roger Drive,95060,36.9782056,-122.0374730
101,Longview Drive,95060,36.9779299,-122.0373957
105,Longview Drive,95060,36.9777724,-122.0377477
113,Longview Drive,95060,36.9777189,-122.0381180
121,Longview Drive,95060,36.9776306,-122.0384203
123,Longview Drive,95060,36.9775544,-122.0387435
103,Estates Drive,95060,36.9778234,-122.0389293
109,Estates Drive,95060,36.9780074,-122.0389751
113,Estates Drive,95060,36.9781806,-122.0390298
119,Estates Drive,95060,36.9783731,-122.0391017
125,Estates Drive,95060,36.9785545,-122.0391619
131,Estates Drive,95060,36.9787539,-122.0392300
137,Estates Drive,95060,36.9789306,-122.0392925
145,Estates Drive,95060,36.9791101,-122.0393613
151,Estates Drive,95060,36.9792930,-122.0394423
621,Highland Avenue,95060,36.9794632,-122.0389449
138,Estates Drive,95060,36.9792682,-122.0388459
132,Estates Drive,95060,36.9790713,-122.0387738
126,Estates Drive,95060,36.9788808,-122.0387249
120,Estates Drive,95060,36.9786807,-122.0386163
114,Estates Drive,95060,36.9784927,-122.0385861
108,Estates Drive,95060,36.9782857,-122.0384853
102,Estates Drive,95060,36.9780710,-122.0384706
104,Longview Drive,95060,36.9781184,-122.0382533
100,Longview Drive,95060,36.9781723,-122.0380007
109,Roger Drive,95060,36.9783742,-122.0381230
115,Roger Drive,95060,36.9785637,-122.0381675
121,Roger Drive,95060,36.9787466,-122.0382283
127,Roger Drive,95060,36.9789380,-122.0382952
133,Roger Drive,95060,36.9791166,-122.0383654
139,Roger Drive,95060,36.9793002,-122.0384242
617,Highland Avenue,95060,36.9794985,-122.0385670
616,Highland Avenue,95060,36.9798953,-122.0385787
620,Highland Avenue,95060,36.9799179,-122.0387750
640,Highland Avenue,95060,36.9802131,-122.0388368
642,Highland Avenue,95060,36.9804424,-122.0389606
644,Highland Avenue,95060,36.9806550,-122.0389642
648,Highland Avenue,95060,36.9804746,-122.0394730
646,Highland Avenue,95060,36.9802727,-122.0393704
654,Highland Avenue,95060,36.9798974,-122.0391659
658,Highland Avenue,95060,36.9799094,-122.0393646
652,Sheldon Avenue,95060,36.9809223,-122.0396219
633,Highland Avenue,95060,36.9794207,-122.0398093
845,Highland Avenue,95060,36.9794502,-122.0420482
845,Highland Avenue,95060,36.9794429,-122.0422698
855,Highland Avenue,95060,36.9794368,-122.0425037
1504,Highland Avenue,95060,36.9798374,-122.0428570
865,Highland Avenue,95060,36.9794443,-122.0433321
870,Highland Avenue,95060,36.9798193,-122.0434369
530,High Street,95060,36.9773655,-122.0385433
123,Ross Street,95060,36.9792206,-122.0420560
119,Ross Street,95060,36.9790391,-122.0420736
115,Ross Street,95060,36.9788846,-122.0420576
111,Ross Street,95060,36.9786504,-122.0420814
1400,Laurent Street,95060,36.9786006,-122.0423889
1410,Laurent Street,95060,36.9788128,-122.0425235
1416,Laurent Street,95060,36.9790003,-122.0425563
1422,Laurent Street,95060,36.9791984,-122.0426600
1425,Laurent Street,95060,36.9791747,-122.0431494
1421,Laurent Street,95060,36.9789588,-122.0430693
1415,Laurent Street,95060,36.9787625,-122.0430289
1411,Laurent Street,95060,36.9786126,-122.0429568
1407,Laurent Street,95060,36.9784240,-122.0429053
1401,Laurent Street,95060,36.9782595,-122.0426893
1507,Laurent Street,95060,36.9799777,-122.0434475
1511,Laurent Street,95060,36.9801509,-122.0435162
1515,Laurent Street,95060,36.9803137,-122.0436227
1519,Laurent Street,95060,36.9804744,-122.0436082
1525,Laurent Street,95060,36.9807135,-122.0437153
248,Ross Street,95060,36.9809194,-122.0435674
244,Ross Street,95060,36.9809828,-122.0431830
240,Ross Street,95060,36.9809387,-122.0428884
234,Ross Street,95060,36.9808581,-122.0426942
230,Ross Street,95060,36.9807218,-122.0425387
226,Ross Street,95060,36.9806172,-122.0423827
224,Ross Street,95060,36.9805298,-122.0422253
218,Ross Street,95060,36.9804111,-122.0420611
239,Ross Street,95060,36.9805536,-122.0431198
231,Ross Street,95060,36.9804675,-122.0428727
225,Ross Street,95060,36.9803366,-122.0427284
221,Ross Street,95060,36.9802104,-122.0425725
215,Ross Street,95060,36.9800819,-122.0423438
1518,Laurent Street,95060,36.9803460,-122.0431107
1514,Laurent Street,95060,36.9801731,-122.0430234
1510,Laurent Street,95060,36.9800175,-122.0429623
200,Sheldon Avenue,95060,36.9798666,-122.0396363
206,Sheldon Avenue,95060,36.9800749,-122.0397189
212,Sheldon Avenue,95060,36.9802946,-122.0397944
218,Sheldon Avenue,95060,36.9805017,-122.0398740
224,Sheldon Avenue,95060,36.9806994,-122.0399405
230,Sheldon Avenue,95060,36.9809258,-122.0400247
236,Sheldon Avenue,95060,36.9811150,-122.0400849
240,Sheldon Avenue,95060,36.9813207,-122.0402289
244,Sheldon Avenue,95060,36.9814958,-122.0404338
250,Sheldon Avenue,95060,36.9816120,-122.0406551
256,Sheldon Avenue,95060,36.9817868,-122.0408873
262,Sheldon Avenue,95060,36.9818797,-122.0410971
277,Sheldon Avenue,95060,36.9820212,-122.0419338
269,Sheldon Avenue,95060,36.9818731,-122.0417901
263,Sheldon Avenue,95060,36.9817483,-122.0415928
257,Sheldon Avenue,95060,36.9816238,-122.0414095
251,Sheldon Avenue,95060,36.9814873,-122.0412517
245,Sheldon Avenue,95060,36.9813556,-122.0410505
233q,Sheldon Avenue,95060,36.9811129,-122.0406845
239,Sheldon Avenue,95060,36.9812376,-122.0409078
9,Ortalon Avenue,95060,36.9804694,-122.0407800
12,Ortalon Avenue,95060,36.9808682,-122.0409096
15,Ortalon Avenue,95060,36.9805075,-122.0411103
21,Ortalon Avenue,95060,36.9806211,-122.0413795
25,Ortalon Avenue,95060,36.9807902,-122.0416146
18,Ortalon Avenue,95060,36.9810172,-122.0411479
22,Ortalon Avenue,95060,36.9811636,-122.0413654
30,Ortalon Avenue,95060,36.9812708,-122.0415472
36,Ortalon Avenue,95060,36.9814257,-122.0417681
33,Ortalon Avenue,95060,36.9809964,-122.0419041
39,Ortalon Avenue,95060,36.9811681,-122.0421661
42,Ortalon Avenue,95060,36.9815612,-122.0419765
45,Ortalon Avenue,95060,36.9812886,-122.0423659
48,Ortalon Avenue,95060,36.9817151,-122.0421773
51,Ortalon Avenue,95060,36.9814529,-122.0426537
54,Ortalon Avenue,95060,36.9818483,-122.0423884
58,Ortalon Avenue,95060,36.9819814,-122.0425865
57,Ortalon Avenue,95060,36.9816356,-122.0429208
63,Ortalon Avenue,95060,36.9817605,-122.0430730
64,Ortalon Avenue,95060,36.9821404,-122.0427864
69,Ortalon Avenue,95060,36.9819282,-122.0432445
77,Ortalon Avenue,95060,36.9821237,-122.0433771
83,Ortalon Avenue,95060,36.9823555,-122.0434481
123,Meadow Road,95060,36.9827534,-122.0440364
111,Meadow Road,95060,36.9827576,-122.0445540
107,Meadow Road,95060,36.9827207,-122.0448011
105,Meadow Road,95060,36.9827492,-122.0450319
117,Meadow Road,95060,36.9827369,-122.0442950
120,Meadow Road,95060,36.9822409,-122.0437679
116,Meadow Road,95060,36.9823367,-122.0441324
110,Meadow Road,95060,36.9821830,-122.0444275
530,Spring Street,95060,36.9822457,-122.0447823
115,Ortalon Circle,95060,36.9832169,-122.0436201
10,Rocky Road,95060,36.9835743,-122.0434975
30,Rocky Road,95060,36.9837318,-122.0433738
40,Rocky Road,95060,36.9839865,-122.0431856
50,Rocky Road,95060,36.9841927,-122.0431977
65,Rocky Road,95060,36.9842205,-122.0435170
45,Rocky Road,95060,36.9841983,-122.0438213
15,Rocky Road,95060,36.9837990,-122.0440927
218,Meadow Road,95060,36.9823520,-122.0428593
214,Meadow Road,95060,36.9823686,-122.0424216
610,Spring Street,95060,36.9832290,-122.0445637
612,Spring Street,95060,36.9835156,-122.0444944
620,Spring Street,95060,36.9835040,-122.0440639
616,Spring Street,95060,36.9837202,-122.0443013
100,Pasture Road,95060,36.9832615,-122.0452950
106,Pasture Road,95060,36.9834910,-122.0449822
116,Pasture Road,95060,36.9839497,-122.0445382
118,Pasture Road,95060,36.9843068,-122.0442378
121,Pasture Road,95060,36.9844585,-122.0444941
119,Pasture Road,95060,36.9844931,-122.0448325
115,Pasture Road,95060,36.9841320,-122.0450395
117,Pasture Road,95060,36.9844858,-122.0451037
648,Spring Street,95060,36.9839097,-122.0459927
650,Spring Street,95060,36.9840071,-122.0456099
658,Spring Street,95060,36.9842921,-122.0453232
656,Spring Street,95060,36.9845450,-122.0454559
654,Spring Street,95060,36.9846353,-122.0457201
652,Spring Street,95060,36.9844672,-122.0459781
678,Spring Street,95060,36.9842349,-122.0463678
686,Spring Street,95060,36.9844253,-122.0468462
680,Spring Court,95060,36.9848703,-122.0462877
715,Spring Street,95060,36.9842637,-122.0473433
711,Spring Street,95060,36.9841424,-122.0471933
709,Spring Street,95060,36.9840145,-122.0469777
707,Spring Street,95060,36.9838950,-122.0468087
705,Spring Street,95060,36.9837530,-122.0466630
703,Spring Street,95060,36.9835786,-122.0464863
701,Spring Street,95060,36.9834679,-122.0463181
106,Rockridge Lane,95060,36.9833172,-122.0466138
108,Rockridge Lane,95060,36.9834321,-122.0468714
110,Rockridge Lane,95060,36.9835798,-122.0469872
112,Rockridge Lane,95060,36.9836991,-122.0471486
105,Rockridge Lane,95060,36.9829629,-122.0462871
103,Rockridge Lane,95060,36.9830981,-122.0460822
101,Rockridge Lane,95060,36.9832240,-122.0459293
508,Spring Street,95060,36.9816351,-122.0445507
506,Spring Street,95060,36.9814701,-122.0442244
504,Spring Street,95060,36.9813503,-122.0444874
500,Spring Street,95060,36.9810507,-122.0439887
432,Spring Street,95060,36.9804722,-122.0441908
416,Spring Street,95060,36.9802076,-122.0440794
406,Spring Street,95060,36.9798150,-122.0439320
333,Spring Street,95060,36.9793507,-122.0442585
401,Spring Street,95060,36.9795735,-122.0443489
415,Spring Street,95060,36.9800371,-122.0445718
409,Spring Street,95060,36.9797976,-122.0444871
419,Spring Street,95060,36.9803895,-122.0446520
425,Spring Street,95060,36.9805959,-122.0447842
441,Spring Street,95060,36.9809149,-122.0448747
101,Quarry Lane,95060,36.9812272,-122.0449311
535,Spring Street,95060,36.9820854,-122.0457512
613,Spring Street,95060,36.9829025,-122.0456828
601,Spring Street,95060,36.9826852,-122.0455108
579,Spring Street,95060,36.9824739,-122.0456006
222,Quarry Lane,95060,36.9820163,-122.0487515
220,Quarry Lane,95060,36.9820359,-122.0486150
218,Quarry Lane,95060,36.9820202,-122.0484340
216,Quarry Lane,95060,36.9820066,-122.0482876
215,Quarry Lane,95060,36.9820159,-122.0480087
212,Quarry Lane,95060,36.9820544,-122.0478802
210,Quarry Lane,95060,36.9821406,-122.0476909
211,Quarry Lane,95060,36.9818719,-122.0475118
209,Quarry Lane,95060,36.9817726,-122.0473453
207,Quarry Lane,95060,36.9816624,-122.0471179
205,Quarry Lane,95060,36.9815302,-122.0469425
203,Quarry Lane,95060,36.9814244,-122.0467535
208,Quarry Lane,95060,36.9820458,-122.0469710
206,Quarry Lane,95060,36.9819214,-122.0467990
204,Quarry Lane,95060,36.9818686,-122.0465441
202,Quarry Lane,95060,36.9817340,-122.0463720
200,Quarry Lane,95060,36.9816257,-122.0461849
110,Quarry Lane,95060,36.9814802,-122.0457685
108,Quarry Lane,95060,36.9815381,-122.0454826
100,Quarry Lane,95060,36.9815895,-122.0451814
109,Quarry Lane,95060,36.9810341,-122.0458996
107,Quarry Lane,95060,36.9810734,-122.0456296
105,Quarry Lane,95060,36.9811197,-122.0453958
103,Quarry Lane,95060,36.9811682,-122.0451577
116,Limestone Lane,95060,36.9812509,-122.0483186
118,Limestone Lane,95060,36.9813369,-122.0480204
120,Limestone Lane,95060,36.9813643,-122.0478611
122,Limestone Lane,95060,36.9813335,-122.0475687
124,Limestone Lane,95060,36.9812148,-122.0474945
114,Limestone Lane,95060,36.9809197,-122.0475376
112,Limestone Lane,95060,36.9808086,-122.0474748
117,Limestone Lane,95060,36.9806684,-122.0479192
115,Limestone Lane,95060,36.9805901,-122.0478130
113,Limestone Lane,95060,36.9803288,-122.0475853
111,Limestone Lane,95060,36.9804211,-122.0474978
110,Limestone Lane,95060,36.9805760,-122.0466080
107,Limestone Lane,95060,36.9801330,-122.0464663
105,Limestone Lane,95060,36.9799602,-122.0462112
103,Limestone Lane,95060,36.9797261,-122.0461611
101,Limestone Lane,95060,36.9795022,-122.0460680
201,Kalkar Drive,95060,36.9797052,-122.0454923
203,Kalkar Drive,95060,36.9799169,-122.0455602
205,Kalkar Drive,95060,36.9801509,-122.0456186
207,Kalkar Drive,95060,36.9803748,-122.0457098
106,Limestone Lane,95060,36.9803954,-122.0460699
108,Limestone Lane,95060,36.9805236,-122.0462481
119,Quarry Court,95060,36.9810003,-122.0466730
117,Quarry Court,95060,36.9808598,-122.0465692
209,Kalkar Drive,95060,36.9806662,-122.0458147
210,Kalkar Drive,95060,36.9807914,-122.0455547
208,Kalkar Drive,95060,36.9808102,-122.0452193
204,Kalkar Drive,95060,36.9805263,-122.0451576
202,Kalkar Drive,95060,36.9803019,-122.0451136
128,Kalkar Drive,95060,36.9799157,-122.0449726
124,Kalkar Drive,95060,36.9796366,-122.0448775
120,Kalkar Drive,95060,36.9794134,-122.0448036
116,Kalkar Drive,95060,36.9791758,-122.0446944
126,Sunnyside Avenue,95062,36.9805158,-122.0157553
128,Sunnyside Avenue,95062,36.9804799,-122.0158903
121,Sunnyside Avenue,95062,36.9802781,-122.0153823
825,North Branciforte Avenue,95062,36.9805482,-122.0147513
821,North Branciforte Avenue,95062,36.9804241,-122.0148684
118,Sunnyside Avenue,95062,36.9806211,-122.0153426
813,North Branciforte Avenue,95062,36.9801377,-122.0149361
117,Sunnyside Avenue,95062,36.9801733,-122.0150977
520,Cowell-Stevenson Road,95064,36.9971268,-122.0523426
530,Cowell-Stevenson Road,95064,36.9971846,-122.0518868
619,Riverside Avenue,95060,36.9695992,-122.0202441
1717,Soquel Avenue,95062,36.9820173,-122.0019043
400,Beach Street,95060,36.9645576,-122.0170520
414,McHenry Road,95064,36.9957077,-122.0589582
516,Cowell-Stevenson Road,95064,36.9973389,-122.0534080
710,College Ten Road,95064,37.0016543,-122.0588786
665,Crown Service Road,95064,36.9994209,-122.0541603
532,Stevenson Service Road,95064,36.9975745,-122.0516408
101,Main Street,95060,36.9636524,-122.0226476
400,Hahn Road,95064,36.9960848,-122.0570307
590,Heller Drive,95064,36.9991127,-122.0636439
1231,Bay Street,95060,36.9656405,-122.0398511
104,McAllister Way,95060,36.9489334,-122.0659467
