House number,Street name,Postal code,Latitude,Longitude
225,Ulysses Street,93065,34.2733361,-118.7928712
2300,Heywood Street,93065,34.2697251,-118.7537031
1880,Blackstock Avenue,93065,34.2697251,-118.7345359
900,Crosby Avenue,93065,34.2558368,-118.7495363
1220,Fourth Street,93065,34.2619477,-118.7812042
250,Royal Avenue,93065,34.2634531,-118.7933469
1402,Royal Avenue,93065,34.2635996,-118.7718273
2956,School Street,93065,34.2702807,-118.7384249
601,Royal Avenue,93065,34.2661142,-118.7848154
3347,Tapo Street,93063,34.2961823,-118.7105368
2222,Fitzgerald Road,93065,34.2563421,-118.7537480
828,Gibson Avenue,93065,34.2552814,-118.7642590
2245,North Justin Avenue,93065,34.2763915,-118.7559254
1325,Royal Avenue,93065,34.2663771,-118.7736674
1305,Royal Avenue,93065,34.2647254,-118.7739817
3150,School Street,93065,34.2700029,-118.7359248
2350,East Greensward Street,93065,34.2842039,-118.7512049
2250,Tracy Avenue,93063,34.2774497,-118.7229327
2369,Royal Avenue,93065,34.2611144,-118.7498141
4300,Apricot Road,93063,34.2800024,-118.7109242
4832,Cochran Street,93063,34.2788913,-118.7012017
2201,Alscot Avenue,93063,34.2747247,-118.6673119
137,Strathearn Place,93065,34.2752485,-118.8013819
2345,Erringer Road,93065,34.2779900,-118.7621631
3570,Cochran St,93063,34.2779025,-118.7281554
2423,Galena Avenue,93065,34.2794982,-118.7361917
2991,Cochran Street,93065,34.2793694,-118.7383830
3900,Alamo Street,93063,34.2858643,-118.7195770
737,E Los Angeles Ave,93065,34.2719775,-118.7831400
1742,East Los Angeles Avenue,93065,34.2714222,-118.7648425
1368,Madera Road,93065-4063,34.2638991,-118.7958350
580,East Easy Street,93065,34.2736126,-118.7859179
2918,East Los Angeles Avenue,93065,34.2714388,-118.7390980
986,Wood Ranch Parkway,93065,34.2555410,-118.8139820
2655,1st Street,93065,34.2837085,-118.7797164
110,West Easy Street,93065,34.2791618,-118.8021311
425,Cochran Street,93065-6278,34.2816649,-118.7894810
2204,Tapo Street,93063,34.2757157,-118.7077040
2726,East Los Angeles Avenue,93065,34.2706774,-118.7424440
914,Chambers Lane,93065,34.2777470,-118.7819924
1555,Simi Tower Center Way,93065,34.2849364,-118.7691486
1581,Simi Town Center Way,93065,34.2833363,-118.7684780
2910,Tapo Canyon Road,93063,34.2869121,-118.7170758
2930,Tapo Canyon Road,93063,34.2874464,-118.7165810
2906,Tapo Canyon Road,93063,34.2867361,-118.7168231
2902,Tapo Canyon Road,93063,34.2867432,-118.7162936
2902,Tapo Canyon Road,93063,34.2867182,-118.7164512
2902,Tapo Canyon Road,93063,34.2866822,-118.7163713
2938,Tapo Canyon Road,93063,34.2874550,-118.7156188
2944,Tapo Canyon Road,93063,34.2874678,-118.7158160
2944,Tapo Canyon Road,93063,34.2875069,-118.7159022
2944,Tapo Canyon Road,93063,34.2876224,-118.7161056
2944,Tapo Canyon Road,93063,34.2878541,-118.7161566
2944-G,Tapo Canyon Road,93063,34.2877528,-118.7158167
2930,Tapo Canyon Road,93063,34.2885587,-118.7160030
2938,Tapo Canyon Road,93063,34.2884180,-118.7159986
2970,Tapo Canyon Road,93063,34.2892258,-118.7159621
2916,Tapo Canyon Road,93063,34.2871548,-118.7172414
2790,Tapo Canyon Road,93063,34.2859753,-118.7172553
2780,Tapo Canyon Road,93063,34.2857919,-118.7168104
2780,Tapo Canyon Road,93063,34.2856843,-118.7168206
2780,Tapo Canyon Road,93063,34.2856330,-118.7168206
2780,Tapo Canyon Road,90363,34.2855515,-118.7169549
2780,Tapo Canyon Road,90363,34.2855182,-118.7173105
2780,Tapo Canyon Road,93063,34.2855233,-118.7172266
2780,Tapo Canyon Road,93063,34.2856670,-118.7168221
2780,Tapo Canyon Road,93063,34.2859807,-118.7168183
2760,Tapo Canyon Road,90363,34.2851573,-118.7172738
2760,Tapo Canyon Road,93063,34.2851286,-118.7172728
2760,Tapo Canyon Road,93063,34.2850048,-118.7172495
2760,Tapo Canyon Road,93063,34.2849708,-118.7172495
2760,Tapo Canyon Road,93063,34.2849335,-118.7172503
2760,Tapo Canyon Road,93063,34.2848925,-118.7172549
2680,Tapo Canyon Road,93063,34.2841735,-118.7171742
2650,Tapo Canyon Road,93063,34.2837384,-118.7171772
2650,Tapo Canyon Road,93063,34.2836619,-118.7171801
2795,Tapo Canyon Road,93063,34.2858316,-118.7181820
2717-A,Tapo Canyon Road,93063,34.2848862,-118.7182469
2717,Tapo Canyon Road,93063,34.2847121,-118.7182750
2717,Tapo Canyon Road,93063,34.2846065,-118.7182240
2691,Tapo Canyon Road,93063,34.2843058,-118.7183062
2691,Tapo Canyon Road,93063,34.2842078,-118.7183244
2691,Tapo Canyon Road,93063,34.2841087,-118.7182953
2643,Tapo Canyon Road,93063,34.2833869,-118.7183047
2643,Tapo Canyon Road,93063,34.2833507,-118.7183067
2619,Tapo Canyon Road,93063,34.2825652,-118.7182440
2631,Tapo Canyon Road,93063,34.2829099,-118.7191744
2655,Tapo Canyon Road,93063,34.2834197,-118.7192245
2667,Tapo Canyon Road,93063,34.2836943,-118.7191717
2667,Tapo Canyon Road,93063,34.2837864,-118.7191330
2679A,Tapo Canyon Road,93063,34.2839150,-118.7191630
2679,Tapo Canyon Road,93063,34.2839343,-118.7190378
2679,Tapo Canyon Road,93063,34.2839701,-118.7189480
2679,Tapo Canyon Road,93063,34.2840487,-118.7189553
2500,Tapo Canyon Road,93063,34.2807899,-118.7174220
1555,Simi Town Center Way,93065,34.2841953,-118.7697527
1555,Simi Town Center Way,93065,34.2842369,-118.7717980
1555,Simi Town Center Way,93065,34.2849067,-118.7712384
2907,Cochran Street,93065-2773,34.2802579,-118.7392960
2941,Cochran Street,93065,34.2797360,-118.7397260
5827,East Los Angeles Avenue,93063,34.2729468,-118.6771450
415,Cochran Street,93065,34.2817226,-118.7898020
1117,East Los Angeles Avenue,93065,34.2734982,-118.7775724
1293,East Los Angeles Avenue,93065,34.2729296,-118.7753210
1169,East Los Angeles Avenue,93065,34.2731966,-118.7768408
2050,D First Street,93065,34.2730701,-118.7784830
2090,1st Street,93065,34.2739825,-118.7784494
450,Cochran Street,93065,34.2815670,-118.7889740
2090,1st Street,93065,34.2739821,-118.7785569
1111,East Los Angeles Avenue,93065,34.2735665,-118.7781020
1293,East Los Angeles Avenue,93065,34.2729282,-118.7756229
153,Cochran Street,93065,34.2813571,-118.7929320
1438,Los Angeles Avenue,93065,34.2713665,-118.7711890
2975,Cochran Street,93065,34.2808876,-118.7385710
2360,Tapo Street,93063,34.2787280,-118.7079070
4386,East Los Angeles Avenue,93063,34.2713867,-118.7093821
51,Tierra Rejada Road,93065-2902,34.2735009,-118.7980884
2775,Tapo Street,93063,34.2855080,-118.7095116
2408,Erringer Road,93065,34.2792716,-118.7605150
3963,Cochran Street,93063-2364,34.2801249,-118.7186124
2125,Madera Road,93065,34.2747939,-118.7972183
1960,Sequoia Avenue,93063,34.2714266,-118.7313700
1012,Vallejo Avenue,93065,34.2575042,-118.7581013
940,Enchanted Way,93065,34.2839213,-118.7830540
2665,"First St,",93065,34.2840041,-118.7796310
1197,Presidential Drive,93065,34.2595423,-118.8070309
2874,Cochran Street,93065,34.2780379,-118.7409955
4109A,Guardian Street,93063,34.2653079,-118.7160783
1357,East Los Angeles Avenue,93065,34.2734522,-118.7734285
101,Cochran Street,93065,34.2833887,-118.7993221
5145,East Los Angeles Avenue,93063,34.2726415,-118.6921073
5145,East Los Angeles Avenue,93063,34.2726495,-118.6922791
5135,East Los Angeles Avenue,93063,34.2726593,-118.6927010
5772,East Los Angeles Avenue,93063,34.2705651,-118.6792430
5726,East Los Angeles Avenue,93063,34.2707105,-118.6802510
5820,East Los Angeles Boulevard,93063-4200,34.2713342,-118.6781388
5820,East Los Angeles Avenue,93063,34.2713374,-118.6779440
5830,East Los Angeles Avenue,93063,34.2713289,-118.6777110
1985,Yosemite Avenue,93063,34.2710137,-118.6789548
5145,East Los Angeles Avenue,93063,34.2729722,-118.6920830
2248,Tapo Street,93063,34.2764269,-118.7078620
2800,Cochran Street,93065,34.2780230,-118.7414270
5145,East Los Angeles Avenue,93063,34.2729997,-118.6916590
5145,East Los Angeles Avenue,93063,34.2729820,-118.6918640
5105,East Los Angeles Avenue,93063,34.2722782,-118.6931910
5105,East Los Angeles Avenue,93063,34.2722361,-118.6931870
5105,East Los Angeles Avenue,93063,34.2721761,-118.6931850
5105,East Los Angeles Avenue,93063,34.2721065,-118.6931760
5145,East Los Angeles Avenue,93063,34.2728643,-118.6920880
2091,Madera Road,93065,34.2735700,-118.7972400
2091,Madera Road,93065,34.2732474,-118.7972443
1825,Madera Road,93065,34.2699600,-118.7968600
1494,Madera Road,93065,34.2661900,-118.7957000
1464,Madera Road,93065,34.2657200,-118.7956200
1464,Madera Road,93065,34.2654000,-118.7955200
1494,Madera Road,93065,34.2661900,-118.7957000
2091,Madera Road,93065,34.2731575,-118.7972438
1390,Madera Road,93065,34.2641500,-118.7956300
1352,Madera Road,93065,34.2636600,-118.7947700
1856,Erringer Road,93065,34.2703000,-118.7605600
1368,Madera Road,93065,34.2638800,-118.7958500
1368,Madera Road,93065,34.2637500,-118.7958800
1324,Madera Road,93065,34.2628500,-118.7958800
131,W Easy St,93065,34.2808500,-118.8019400
1208,Madera Road,93065,34.2609600,-118.7958100
590,East Los Angeles Avenue,93065,34.2712300,-118.7859000
525,Country Club Drive,93065,34.2539400,-118.8098000
480,East Los Angeles Avenue,93065,34.2708700,-118.7886200
698,East Los Angeles Avenue,93065,34.2714000,-118.7839400
1197,East Los Angeles Avenue,93065,34.2721600,-118.7778300
2025,1st Street,93065,34.2724900,-118.7793400
1197,East Los Angeles Avenue,93065,34.2721500,-118.7780500
1152,East Los Angeles Street,93065,34.2713600,-118.7774100
135,Macaw Lane,93065,34.2598500,-118.7945800
1200,East Los Angeles Avenue,93065,34.2712500,-118.7763300
660,East Los Angeles Avenue,93065,34.2704400,-118.7865000
690,East Los Angeles Avenue,93065,34.2705100,-118.7840900
660,East Los Angeles Avenue,93065,34.2704000,-118.7854200
1203,East Los Angeles Avenue,93065,34.2720200,-118.7763600
1307,East Los Angeles Avenue,93065,34.2720500,-118.7741300
845,East Los Angeles Avenue,93065,34.2720100,-118.7818800
1227,East Los Angeles Avenue,93065,34.2736200,-118.7759400
1161,Simi Town Center Way,93065,34.2843900,-118.7771700
1157,Swallow Lane,93065,34.2598300,-118.7943600
764,East Los Angeles Avenue,93065,34.2715400,-118.7828700
983,East Easy Street,93065,34.2740300,-118.7805400
1030,East Los Angeles Avenue,93065,34.2715000,-118.7794400
501,East Los Angeles Avenue,93065,34.2722200,-118.7871900
585,East Los Angeles Avenue,93065,34.2722900,-118.7859000
660,East Los Angeles Avenue,93065,34.2704050,-118.7854200
1239,East Los Angeles Avenue,93065,34.2722100,-118.7757800
1357,East Los Angeles Avenue,93065,34.2736000,-118.7735100
1308,East Los Angeles Avenue,93065,34.2713900,-118.7735800
1324,East Los Angeles Avenue,93065,34.2714000,-118.7732400
1263,Simi Town Center Way,93065,34.2841300,-118.7754400
1263,Simi Town Center Way,93065,34.2841500,-118.7753600
1377,East Los Angeles Avenue,93065,34.2722400,-118.7729700
1350,East Los Angeles Avenue,93065,34.2714100,-118.7729000
1407,East Los Angeles Avenue,93065,34.2736200,-118.7724200
1397,East Los Angeles Avenue,93065,34.2720800,-118.7722600
1407,East Los Angeles Avenue,93065,34.2736600,-118.7720300
480,Sinaloa Road,93065,34.2492500,-118.7869900
1408,East Los Angeles Avenue,93065,34.2713300,-118.7718000
1407,East Los Angeles Avenue,93065,34.2735800,-118.7714100
1377,East Los Angeles Avenue,93065,34.2721600,-118.7728900
1475,East Los Angeles Avenue,93065,34.2721900,-118.7708900
1470,East Los Angeles Avenue,93065,34.2715200,-118.7707800
1579,East Los Angeles Avenue,93065,34.2720600,-118.7687800
1595,East Los Angeles Avenue,93065,34.2721200,-118.7682600
1675,East Los Angeles Avenue,93065,34.2719900,-118.7660100
1717,East Los Angeles Avenue,93065,34.2721800,-118.7656700
1720,East Los Angeles Avenue,93065,34.2714000,-118.7653300
1778,East Los Angeles Avenue,93065,34.2710300,-118.7637200
1687,Erringer Road,93065,34.2688900,-118.7623400
1969,Erringer Road,93065,34.2713600,-118.7618400
1883,Erringer Road,93065,34.2707400,-118.7617700
1947,Erringer Road,93065,34.2712500,-118.7618200
2655,Erringer Road,93065,34.2839700,-118.7626900
1836,Erringer Road,93065,34.2701800,-118.7605600
1276,Erringer Road,93065,34.2622000,-118.7607600
2585,Cochran Street,93065,34.2796508,-118.7462168
1244,Sycamore Drive,93065,34.2615800,-118.7474000
2689,Cochran Street,93065,34.2794000,-118.7455000
1515,East Los Angeles Avenue,93065,34.2720900,-118.7700700
1220,Sycamore Drive,93065,34.2611880,-118.7475760
2543,Royal Avenue,93065,34.2611900,-118.7481600
1424,Madera Road,93065,34.2648200,-118.7958500
2003,Royal Avenue,93065,34.2630500,-118.7583700
2513,Sycamore Drive,93065,34.2807600,-118.7448800
2521,Sycamore Drive,93065,34.2807800,-118.7447300
2375,Sycamore Drive,93065,34.2782100,-118.7441100
2375,Sycamore Drive,93065,34.2782664,-118.7445101
665,East Los Angeles Avenue,93065,34.2721600,-118.7841500
1723,East Los Angeles Avenue,93065,34.2720200,-118.7653300
1230,Madera Road,93065,34.2610900,-118.7947400
706,East Los Angeles Avenue,93065,34.2712800,-118.7832000
1542,East Los Angeles Avenue,93065,34.2712800,-118.7688900
2597,Sycamore Drive,93065,34.2807600,-118.7442600
2398,Sycamore Drive,93065,34.2786700,-118.7433800
2695,Cochran Street,93065,34.2801000,-118.7455200
2410,Sycamore Drive,93065,34.2793900,-118.7431700
2460,Sycamore Drive,93065,34.2801800,-118.7433400
2410,Sycamore Drive,93065,34.2793930,-118.7431730
2490,Sycamore Drive,93065,34.2809300,-118.7433400
2845,Cochran Street,93065,34.2813900,-118.7425300
2780,East Los Angeles Avenue,93065,34.2708200,-118.7419400
1692,Sycamore Drive,93065,34.2680500,-118.7448700
2845,Cochran Street,93065,34.2812400,-118.7423800
2790,Cochran Street,93065,34.2788700,-118.7419300
2801,Cochran Street,93065,34.2797300,-118.7416100
2876,Sycamore Drive,93065,34.2879500,-118.7430900
2837,Cochran Street,93065,34.2811700,-118.7415800
2803,Cochran Street,93065,34.2796400,-118.7412000
2825,Cochran Street,93065,34.2808600,-118.7410900
2860,Cochran Street,93065,34.2785400,-118.7401100
2830,Cochran Street,93065,34.2786600,-118.7406800
1197,East Los Angeles Avenue,93065,34.2721500,-118.7778800
2828,Cochran Street,93065,34.2780500,-118.7406700
2837,Cochran Street,93065,34.2811740,-118.7415830
2880,Cochran Street,93065,34.2780700,-118.7399700
1196,East Los Angeles Avenue,93065,34.2712300,-118.7770100
1955,1st Street,93065,34.2713800,-118.7792400
2768,Cochran Street,93065,34.2780600,-118.7425900
1520,East Los Angeles Avenue,93065,34.2712700,-118.7692100
995,East Los Angeles Avenue,93065,34.2725600,-118.7804000
1577,East Los Angeles Avenue,93065,34.2722300,-118.7674700
2941,Cochran Street,93065,34.2799300,-118.7394700
2941,Cochran Street,93065,34.2799100,-118.7397100
2955,Cochran Street,93065,34.2816300,-118.7392100
2955,Cochran Street,93065,34.2816290,-118.7392090
2900,Cochran Street,93065,34.2785200,-118.7387300
2974,Cochran Street,93065,34.2779500,-118.7372400
3013,Cochran Street,93065,34.2792500,-118.7372300
3050,Cochran Street,93065,34.2779600,-118.7366200
2880,Cochran Street,93065,34.2779800,-118.7392800
1308,Madera Road,93065,34.2627200,-118.7950400
1230,Madera Road,93065,34.2610700,-118.7946600
3060,Cochran Street,93065,34.2781037,-118.7363442
605,East Los Angeles Avenue,93065,34.2719700,-118.7854000
1407,East Los Angeles Avenue,93065,34.2736800,-118.7724200
999,East Los Angeles Avenue,93065,34.2721500,-118.7799400
665,East Los Angeles Avenue,93065,34.2721100,-118.7843100
1789,North Emory Avenue,93063,34.2697349,-118.6872326
3090,Cochran Street,93065,34.2785900,-118.7359800
3200,East Los Angeles Avenue,93065,34.2710100,-118.7340800
3200,East Los Angeles Avenue,93065,34.2710090,-118.7340790
1290,Madera Road,93065,34.2621600,-118.7958900
1980,Sequoia Avenue,93063,34.2712800,-118.7300600
3935,Cochran Street,93063,34.2801600,-118.7193900
2944,Tapo Canyon Road,93063,34.2877700,-118.7158800
4370,Eve Road,93063,34.2823400,-118.7094600
3979,Township Avenue,93063,34.2939500,-118.7182800
3998,Cochran Street,93063,34.2786700,-118.7182300
2288,Tapo Street,93063,34.2768900,-118.7077700
2767,Tapo Street,93063,34.2852600,-118.7093700
2568,Sycamore Drive,93065,34.2814100,-118.7433700
4426,East Los Angeles Avenue,93063,34.2713700,-118.7085600
1356,Erringer Road,93065,34.2631200,-118.7609900
540,East Los Angeles Avenue,93065,34.2713400,-118.7867600
120,West Easy Street,93065,34.2793900,-118.8024800
2167,1st Street,93065,34.2747100,-118.7800700
2448,Stearns Street,93063,34.2796600,-118.6907300
4351,Township Avenue,93063,34.2938800,-118.7099100
1860,Erringer Road,93065,34.2709800,-118.7611300
1854,Cochran Street,93065,34.2785400,-118.7624200
5225,Cochran Street,93063,34.2793200,-118.6907300
3885,Cochran Street,93063,34.2798400,-118.7203500
5028,Cochran Street,93063,34.2786700,-118.6950500
4568,East Los Angeles Avenue,93063,34.2714000,-118.7052800
1590,East Los Angeles Avenue,93065,34.2714900,-118.7673300
2345,Erringer Road,93065,34.2780400,-118.7621000
3200,East Los Angeles Avenue,93065,34.2710088,-118.7340793
2432,Erringer Road,93065,34.2796700,-118.7605100
2264,Tapo Street,93063,34.2766700,-118.7077900
2408,Stearns Street,93063,34.2795600,-118.6909900
3907,Cochran Street,93063,34.2795500,-118.7199200
3991,Cochran Street,93063,34.2794900,-118.7182400
4419,Alamo Street,93063,34.2872200,-118.7084700
2531,Royal Avenue,93065,34.2616600,-118.7481400
2242,Tapo Street,93063,34.2761400,-118.7077500
2375,Tapo Street,93063,34.2780700,-118.7094500
2202,Tapo Street,93063,34.2754300,-118.7077800
2161,Tapo Street,93063,34.2748800,-118.7094000
2149,Tapo Street,93063,34.2744066,-118.7093168
4685,Industrial Street,93063,34.2736300,-118.7025100
2428,Stearns Street,93063,34.2796100,-118.6907500
2494,Stearns Street,93063,34.2804400,-118.6907900
2982,East Los Angeles Avenue,93065,34.2713900,-118.7382400
2916,Tapo Canyon Road,93063,34.2869200,-118.7173600
2091,Madera Road,93065,34.2733287,-118.7972506
1877,Royal Avenue,93065,34.2643000,-118.7621100
1850,Cochran Street,93065,34.2786500,-118.7625100
2654,Cochran Street,93065,34.2786400,-118.7445300
185,East Easy Street,93065,34.2788600,-118.7949400
2912,Cochran Street,93065,34.2780400,-118.7384200
2557,Sycamore Drive,93065,34.2807800,-118.7445300
660,East Los Angeles Avenue,93065,34.2704050,-118.7854210
131,Cochran Street,93065,34.2816000,-118.7938700
1970,Sequoia Avenue,93063,34.2709800,-118.7295500
2390,Tapo Street,93063,34.2787300,-118.7083500
3998,Cochran Street,93063,34.2786690,-118.7182270
1230,Madera Road,93065,34.2610100,-118.7947700
2880,Cochran Street,93065,34.2780300,-118.7395300
510,East Los Angeles Avenue,93065,34.2712600,-118.7871700
2605,Stearns Street,93063,34.2828800,-118.6918800
153,Cochran Street,93065,34.2813900,-118.7930200
530,East Los Angeles Avenue,93065,34.2713200,-118.7868500
2790,East Los Angeles Avenue,93065,34.2708100,-118.7417500
2321,Tapo Street,93063,34.2774600,-118.7100300
757,California Avenue,93065,34.2710100,-118.7830600
820,East Los Angeles Avenue,93065,34.2714600,-118.7821000
2019,Donville Avenue,93065,34.2732000,-118.7698700
1611,East Los Angeles Avenue,93065,34.2720500,-118.7666300
2853,Cochran Street,93065,34.2792900,-118.7403000
1103,East Los Angeles Avenue,93065,34.2739000,-118.7779100
1407,East Los Angeles Avenue,93065,34.2733400,-118.7726800
660,East Los Angeles Avenue,93065,34.2704045,-118.7854212
5702,East Los Angeles Avenue,93063,34.2713700,-118.6802600
543,Country Club Drive,93065,34.2540900,-118.8101300
1464,Madera Road,93065,34.2658100,-118.7954800
2683,Cochran Street,93065,34.2794100,-118.7456900
1508,East Los Angeles Avenue,93065,34.2713000,-118.7696600
2383,Sycamore Drive,93065,34.2786000,-118.7443000
3066,Cochran Street,93065,34.2780200,-118.7362500
1407,East Los Angeles Avenue,93065,34.2736560,-118.7720330
2950,Cochran Street,93065,34.2786400,-118.7379200
1492,East Los Angeles Avenue,93065,34.2709400,-118.7704900
2196,Tapo Street,93063,34.2753700,-118.7079600
5760,East Los Angeles Avenue,93063,34.2705600,-118.6796100
480,East Los Angeles Avenue,93065,34.2709400,-118.7884000
5255,Cochran Street,93063,34.2800400,-118.6898800
1645,Royal Avenue,93065,34.2651700,-118.7675300
2585,Sycamore Drive,93065,34.2807700,-118.7443700
2345,Erringer Road,93065,34.2780380,-118.7621020
780,East Easy Street,93065,34.2732500,-118.7825500
1636,Sinaloa Road,93065,34.2684300,-118.7872100
1636,Sinaloa Road,93065,34.2682900,-118.7854200
2311,Tapo Street,93063,34.2774900,-118.7094400
4316,Cochran Street,93063,34.2786600,-118.7106700
2070,Tapo Street,93063,34.2737800,-118.7083100
2159,Tapo Street,93063,34.2747000,-118.7096300
1468,East Los Angeles Avenue,93065,34.2715000,-118.7707800
1407,East Los Angeles Avenue,93065,34.2734700,-118.7713900
1720,East Los Angeles Avenue,93065,34.2709900,-118.7655100
1654,East Los Angeles Avenue,93065,34.2714400,-118.7662900
1603,East Los Angeles Avenue,93065,34.2720400,-118.7667200
1920,Hubbard Street,93065,34.2710300,-118.7695800
995,East Los Angeles Avenue,93065,34.2725300,-118.7804100
660,East Los Angeles Avenue,93065,34.2704044,-118.7854211
1659,East Los Angeles Avenue,93065,34.2723800,-118.7663100
3380,East Los Angeles Avenue,93063,34.2714000,-118.7312200
1706,Erringer Road,93065,34.2687200,-118.7609100
2503,Royal Avenue,93065,34.2611400,-118.7485400
2804,Cochran Street,93065,34.2780600,-118.7410900
1970,Sequoia Avenue,93063,34.2712300,-118.7300400
3310,East Los Angeles Avenue,93063,34.2712800,-118.7326600
1778,Erringer Road,93065,34.2696200,-118.7608300
1416,Madera Road,93065,34.2657400,-118.7955300
1960,Sequoia Avenue,93063,34.2708300,-118.7299100
1115,Simi Town Center Way,93065,34.2849500,-118.7782400
2655,1st Street,93065,34.2840200,-118.7795800
2655,1st Street,93065,34.2839900,-118.7797300
1236,East Los Angeles Avenue,93065,34.2714700,-118.7758000
660,East Los Angeles Avenue,93065,34.2704500,-118.7862000
660,East Los Angeles Avenue,93065,34.2703500,-118.7866300
2091,Madera Road,93065,34.2733920,-118.7972510
875,Cochran Street,93065,34.2795000,-118.7814500
1263,Simi Town Center Way,93065,34.2841200,-118.7750900
2410,Sycamore Drive,93065,34.2792900,-118.7433300
2950,Cochran Street,93065,34.2785200,-118.7379800
2822,Cochran Street,93065,34.2780500,-118.7405700
1317,East Los Angeles Avenue,93065,34.2726500,-118.7741500
2975,Cochran Street,93065,34.2813700,-118.7384900
2780,Cochran Street,93065,34.2780700,-118.7417700
4590,Ish Drive,93063,34.2689500,-118.7051300
665,East Los Angeles Avenue,93065,34.2721100,-118.7843100
4288,East Los Angeles Avenue,93063,34.2714000,-118.7108900
2691,Cochran Street,93065,34.2794500,-118.7454600
4210,East Los Angeles Avenue,93063,34.2711600,-118.7136700
60,West Cochran Street,93065,34.2817200,-118.7981400
4370,Cochran Street,93063,34.2786700,-118.7099000
2819,Cochran Street,93065,34.2803800,-118.7412900
4340,Cochran Street,93063,34.2786900,-118.7102700
2720,Cochran Street,93065,34.2778800,-118.7432600
1317,East Los Angeles Avenue,93065,34.2725900,-118.7741600
5724,East Los Angeles Avenue,93063,34.2708200,-118.6803100
1177,East Los Angeles Avenue,93065,34.2730300,-118.7767400
5750,East Los Angeles Avenue,93063,34.2706700,-118.6802400
1315,East Los Angeles Avenue,93065,34.2730800,-118.7746800
1655,East Los Angeles Avenue,93065,34.2723800,-118.7663600
2315,Kuehner Drive,93063,34.2777200,-118.6628700
1409,Kuehner Drive,93063,34.2651900,-118.6614700
5956,East Los Angeles Avenue,93063,34.2713200,-118.6748800
5830,East Los Angeles Avenue,93063,34.2713100,-118.6777000
5924,East Los Angeles Avenue,93063,34.2712700,-118.6756200
1985,Yosemite Avenue,93063,34.2710000,-118.6787500
5706,East Los Angeles Avenue,93063,34.2713500,-118.6800800
5722,East Los Angeles Avenue,93063,34.2709200,-118.6802500
2458,Stearns Street,93063,34.2801700,-118.6904300
2466,Stearns Street,93063,34.2801100,-118.6904700
2595,Stearns Street,93063,34.2823800,-118.6917900
5040,Barnard Street,93063,34.2823000,-118.6944800
1816,Angus Avenue,93063,34.2706100,-118.7021300
4680,East Los Angeles Avenue,93063,34.2709100,-118.7033300
4685,Industrial Street,93063,34.2736320,-118.7025090
4545,Industrial Street,93063,34.2739000,-118.7051100
4397,Township Avenue,93063,34.2937800,-118.7093000
4369,Township Avenue,93063,34.2941800,-118.7094600
2325,Kuehner Drive,93063,34.2783800,-118.6624600
4361,Township Avenue,93063,34.2941900,-118.7096900
4353,Township Avenue,93063,34.2942000,-118.7098800
2311,Tapo Street,93063,34.2775000,-118.7094440
4560,East Los Angeles Avenue,93063,34.2713500,-118.7072500
2080,Winifred Street,93063,34.2737200,-118.7105900
2650,Stearns Street,93063,34.2836000,-118.6906500
4690,Industrial Street,93063,34.2729100,-118.7028200
2054,Tapo Street,93063,34.2727800,-118.7078200
4435,Cochran Street,93063,34.2792700,-118.7080900
2480,Tapo Street,93063,34.2801300,-118.7086300
2092,Tapo Street,93063,34.2741300,-118.7083400
2110,Tapo Street,93063,34.2744200,-118.7085400
2399,Tapo Street,93063,34.2786900,-118.7091900
2513,Tapo Street,93063,34.2811800,-118.7096300
4385,Valley Fair Street,93063,34.2727700,-118.7093200
2311,Tapo Street,93063,34.2774860,-118.7094360
2311,Tapo Street,93063,34.2774860,-118.7094361
2311,Tapo Street,93063,34.2774859,-118.7094361
2393,Tapo Street,93063,34.2784300,-118.7095000
2295,Tapo Street,93063,34.2772500,-118.7094500
2109,Tapo Street,93063,34.2731300,-118.7094300
2139,Tapo Street,93063,34.2740700,-118.7095400
4390,Cochran Street,93063,34.2786600,-118.7096400
2424,Erringer Road,93065,34.2793800,-118.7604500
2155,Tapo Street,93063,34.2746200,-118.7096300
2151,Tapo Street,93063,34.2745300,-118.7097000
4365,Valley Fair Street,93063,34.2730200,-118.7097300
2381,Tapo Street,93063,34.2781600,-118.7098900
4351,Valley Fair Street,93063,34.2728642,-118.7099342
4364,Eileen Street,93063,34.2750300,-118.7100600
4362,Eileen Street,93063,34.2750600,-118.7100800
5956,East Los Angeles Avenue,93063,34.2710577,-118.6750542
5762,East Los Angeles Avenue,93063,34.2705400,-118.6794800
4355,Township Avenue,93063,34.2937700,-118.7093600
2321,Tapo Street,93063,34.2774200,-118.7102000
4332,Cochran Street,93063,34.2787000,-118.7103600
2136,Winifred Street,93063,34.2741400,-118.7102200
2355,Tapo Street,93063,34.2779400,-118.7106500
2122,Winifred Street,93063,34.2744200,-118.7105400
2355,Tapo Street,93063,34.2778700,-118.7106700
2430,Tapo Street,93063,34.2795000,-118.7085500
2100,1st Street,93065,34.2744400,-118.7782700
2158,Union Place,93065,34.2743800,-118.7988900
2081,1st Street,93065,34.2730100,-118.7794400
2325,1st Street,93065,34.2772200,-118.7797000
2283,1st Street,93065,34.2769600,-118.7793600
2350,1st Street,93065,34.2778000,-118.7782200
4277,Valley Fair Street,93063,34.2729700,-118.7116300
4221,Cochran Street,93063,34.2794900,-118.7126100
4191,Cochran Street,93063,34.2794200,-118.7134000
5708,East Los Angeles Avenue,93063,34.2713700,-118.6800100
2760,Tapo Canyon Road,93063,34.2849720,-118.7172500
2760,Tapo Canyon Road,93063,34.2849700,-118.7172500
2760,Tapo Canyon Road,93063,34.2849630,-118.7172570
3977,Cochran Street,93063,34.2800600,-118.7182300
3977,Cochran Street,93063,34.2802500,-118.7182600
3977,Cochran Street,93063,34.2802506,-118.7182610
3977,Cochran Street,93063,34.2802506,-118.7182609
3998,Cochran Street,93063,34.2786700,-118.7182270
3885,Cochran Street,93063,34.2801100,-118.7203000
3885,Cochran Street,93063,34.2798380,-118.7203505
1960,Sequoia Avenue,93063,34.2712510,-118.7300010
1960,Sequoia Avenue,93063,34.2712500,-118.7300000
3200,East Los Angeles Avenue,93065,34.2710400,-118.7340250
3068,Cochran Street,93065,34.2780560,-118.7361910
3010,East Los Angeles Avenue,93065,34.2714660,-118.7375120
2970,Cochran Street,93065,34.2780640,-118.7377210
2964,Cochran Street,93065,34.2780690,-118.7378900
2950,Cochran Street,93065,34.2785040,-118.7379800
2960,Cochran Street,93065,34.2780880,-118.7380230
2975,Cochran Street,93065,34.2810500,-118.7384680
2955,Cochran Street,93065,34.2815610,-118.7387210
2931,Cochran Street,93065,34.2793360,-118.7396360
2880,Cochran Street,93065,34.2781354,-118.7397160
2868,Cochran Street,93065,34.2781294,-118.7402368
2836,Cochran Street,93065,34.2780690,-118.7405080
2823,Cochran Street,93065,34.2804200,-118.7412540
2820,East Los Angeles Avenue,93065,34.2712500,-118.7409340
2814,East Los Angeles Avenue,93065,34.2709020,-118.7412120
2837,Cochran Street,93065,34.2811735,-118.7415834
1368,Madera Road,93065,34.2639777,-118.7957937
2788,Cochran Street,93065,34.2780690,-118.7414630
2845,Cochran Street,93065,34.2811950,-118.7418760
2792,Cochran Street,93065,34.2781050,-118.7421320
2784,Cochran Street,93065,34.2780690,-118.7415910
2760,Cochran Street,93065,34.2780510,-118.7424480
2756,Cochran Street,93065,34.2780500,-118.7425670
2752,Cochran Street,93065,34.2780270,-118.7427800
2585,Cochran Street,93065,34.2793961,-118.7464213
2569,Sycamore Drive,93065,34.2807850,-118.7444600
2073,Royal Avenue,93065,34.2619370,-118.7571130
1376,Erringer Road,93065,34.2644210,-118.7610590
2476,Erringer Road,93065,34.2800920,-118.7604630
2462,Erringer Road,93065,34.2799170,-118.7604570
1756,Erringer Road,93065,34.2692360,-118.7603440
1786,Erringer Road,93065,34.2697310,-118.7605380
1790,Erringer Road,93065,34.2698490,-118.7605500
1776,Erringer Road,93065,34.2695860,-118.7607610
1706,Erringer Road,93065,34.2687240,-118.7609090
1860,Erringer Road,93065,34.2709790,-118.7611330
1925,Erringer Road,93065,34.2711060,-118.7618420
1790,East Los Angeles Avenue,93065,34.2712880,-118.7636450
1788,East Los Angeles Avenue,93065,34.2713750,-118.7636420
1784,East Los Angeles Avenue,93065,34.2713440,-118.7636570
1782,East Los Angeles Avenue,93065,34.2712970,-118.7636850
1717,Simi Town Center Way,93065,34.2837880,-118.7652780
1717,Simi Town Center Way,93065,34.2837882,-118.7652777
1750,East Los Angeles Avenue,93065,34.2710510,-118.7639480
1737,East Los Angeles Avenue,93065,34.2721560,-118.7650220
1720,East Los Angeles Avenue,93065,34.2709870,-118.7655090
5956,East Los Angeles Avenue,93063,34.2710596,-118.6749446
1555,Simi Town Center Way,93065,34.2848800,-118.7677750
1555,Simi Town Center Way,93065,34.2849850,-118.7679890
1653,Royal Avenue,93065,34.2651670,-118.7674470
1555,Simi Town Center Way,93065,34.2849760,-118.7681620
1555,Simi Town Center Way,93065,34.2842320,-118.7678610
1609,Royal Avenue,93065,34.2647710,-118.7677640
1625,Royal Avenue,93065,34.2650520,-118.7677190
2139,Tapo Street,93063,34.2739270,-118.7095770
1555,Simi Town Center Way,93065,34.2844620,-118.7693200
1555,Simi Town Center Way,93065,34.2849010,-118.7696480
1555,Simi Town Center Way,93065,34.2847110,-118.7705780
1555,Simi Town Center Way,93065,34.2849540,-118.7703880
1555,Simi Town Center Way,93065,34.2844990,-118.7705690
1541,Patricia Avenue,93065,34.2706000,-118.7687350
1555,Simi Town Center Way,93065,34.2849140,-118.7710580
1555,Simi Town Center Way,93065,34.2842350,-118.7707790
2031,Donville Avenue,93065,34.2730860,-118.7688070
1534,East Los Angeles Avenue,93065,34.2714500,-118.7691380
1555,East Los Angeles Avenue,93065,34.2720790,-118.7692030
1530,East Los Angeles Avenue,93065,34.2713690,-118.7691630
1534,East Los Angeles Avenue,93065,34.2711560,-118.7693950
1555,Simi Town Center Way,93065,34.2844960,-118.7721690
1555,Simi Town Center Way,93065,34.2841670,-118.7723790
1486,East Los Angeles Avenue,93065,34.2711790,-118.7705460
1484,East Los Angeles Avenue,93065,34.2712500,-118.7705510
1458,East Los Angeles Avenue,93065,34.2709410,-118.7708010
1407,East Los Angeles Avenue,93065,34.2737440,-118.7720620
1407,East Los Angeles Avenue,93065,34.2736557,-118.7720329
1256,East Los Angeles Avenue,93065,34.2715110,-118.7751190
1317,East Los Angeles Avenue,93065,34.2734230,-118.7736700
1225,Cochran Street,93065,34.2793200,-118.7769880
1197,East Los Angeles Avenue,93065,34.2721430,-118.7778590
2090,1st Street,93065,34.2740350,-118.7784360
2170,1st Street,93065,34.2749780,-118.7785190
1059,Ashland Avenue,93065,34.2689490,-118.7794560
2383,1st Street,93065,34.2779940,-118.7795430
1099,East Los Angeles Avenue,93065,34.2720110,-118.7792770
2135,1st Street,93065,34.2739530,-118.7793770
983,East Easy Street,93065,34.2739910,-118.7805680
1525,East Los Angeles Avenue,93065,34.2720770,-118.7697390
888,East Easy Street,93065,34.2732960,-118.7817530
801,East Los Angeles Avenue,93065,34.2719260,-118.7824400
725,California Avenue,93065,34.2710180,-118.7829260
791,Chambers Lane,93065,34.2786220,-118.7834680
711,East Los Angeles Avenue,93065,34.2719460,-118.7831570
1940,5th Street,93065,34.2710930,-118.7834720
2900,North Madera Road,93065,34.2869440,-118.7890710
725,East Easy Street,93065,34.2740320,-118.7836180
690,East Los Angeles Avenue,93065,34.2703950,-118.7846390
575,Country Club Drive,93065,34.2538322,-118.8105653
603,East Los Angeles Avenue,93065,34.2719710,-118.7854530
575,Country Club Drive,93065,34.2538300,-118.8105700
591,East Los Angeles Avenue,93065,34.2723240,-118.7855170
601,East Los Angeles Avenue,93065,34.2720500,-118.7854680
589,East Los Angeles Avenue,93065,34.2723680,-118.7855300
585,East Los Angeles Avenue,93065,34.2722900,-118.7858960
580,East Easy Street,93065,34.2734690,-118.7858860
280,Royal Avenue,93065,34.2632110,-118.7924480
554,East Easy Street,93065,34.2736760,-118.7867760
1252,Madera Road,93065,34.2613210,-118.7947100
480,East Easy Street,93065,34.2741280,-118.7884580
390,East Easy Street,93065,34.2756140,-118.7905370
2824,Cochran Street,93065,34.2780550,-118.7404540
131,Cochran Street,93065,34.2814370,-118.7937000
131,Cochran Street,93065,34.2815990,-118.7938690
1390,Madera Road,93065,34.2641500,-118.7956280
1464,Madera Road,93065,34.2651820,-118.7956010
1464,Madera Road,93065,34.2658108,-118.7954825
1464,Madera Road,93065,34.2658110,-118.7954830
15,McCoy Place,93065,34.2707450,-118.7969060
50,West Easy Street,93065,34.2784540,-118.7987770
4495,Industrial Street,93063,34.2735600,-118.7067530
445,East Easy Street,93065,34.2760050,-118.7895670
75,West Easy Street,93065,34.2792240,-118.8006390
2463,Tapo Street,93063,34.2801690,-118.7092640
997,Flower Glen Street,93065,34.2854973,-118.7794425
1706,Erringer Road,93065,34.2686680,-118.7609560
2500,Tapo Canyon Road,93063,34.2808090,-118.7173240
2760,Tapo Canyon Road,93063,34.2850150,-118.7172100
1492,Sinaloa Road,93065,34.2659870,-118.7873780
5020,Alamo Street,93063,34.2857489,-118.6944161
1776,Erringer Road,93065,34.2695864,-118.7607611
5165,Cochran Street,93063,34.2797135,-118.6923034
4974,Cochran Street,93063,34.2781546,-118.6962193
1350,Cherry Avenue,93065,34.2632400,-118.7504540
2762,Avenida Simi,93065,34.2896995,-118.7425246
2900,Sycamore Drive,93065,34.2886462,-118.7432814
677,Cochran Street,93065,34.2815385,-118.7838808
2714,East Los Angeles Avenue,93065,34.2708027,-118.7427091
2687,Cochran Street,93065,34.2794429,-118.7455691
1555,Simi Town Center Way,93065,34.2842236,-118.7721554
1555,Simi Town Center Way,93065,34.2844303,-118.7720180
9,West Bonita Drive,93065,34.2677708,-118.7999865
9,West Bonita Drive,93065,34.2677710,-118.8000180
4464,Alamo Street,93063,34.2856957,-118.7073530
3350,East Los Angeles Avenue,93063,34.2714196,-118.7313952
1970,Sequoia Avenue,93063,34.2712305,-118.7300366
1663,East Los Angeles Avenue,93065,34.2722758,-118.7660301
2949,Alamo Street,93063,34.2869925,-118.7381510
2003,Yosemite Avenue,93063,34.2721710,-118.6788410
1080,Country Club Drive West,93065,34.2508520,-118.8230510
85,East Bonita Drive,93065,34.2683139,-118.7967278
1855,Cochran Street,93065,34.2802593,-118.7627413
1717,Simi Town Center Way,93065,34.2837900,-118.7652800
4910,Cochran Street,93063,34.2781591,-118.6979413
2315,Kuehner Drive,93063,34.2777165,-118.6628678
2100,Tapo Street,93063,34.2743984,-118.7085499
1555,Simi Town Center Way,93065,34.2844199,-118.7681691
1555,Simi Town Center Way,93065,34.2844200,-118.7681700
1555,Simi Town Center Way,93065,34.2849319,-118.7710583
2350,Shasta Way,93065,34.2777592,-118.7883436
2969,Tapo Canyon Road,93063,34.2889844,-118.7194846
3570,Cochran Street,93063,34.2778642,-118.7270578
2211,Tapo Street,93063,34.2750663,-118.7094194
940,Enchanted Way,93065,34.2839432,-118.7832203
1120,East Los Angeles Avenue,93065,34.2714041,-118.7784179
94,West Cochran Street,93065,34.2823232,-118.7998906
1302,Madera Road,93065,34.2624302,-118.7948453
2091,Madera Road,93065,34.2734810,-118.7971710
301,Wood Ranch Parkway,93065,34.2475946,-118.8126410
980,Madera Road,93065,34.2572615,-118.7950892
1855,East Cochran Street,93065,34.2804165,-118.7628249
660,East Los Angeles Avenue,93065,34.2703985,-118.7847007
3200,Cochran St,93065,34.2782574,-118.7344475
275,Valley Gate Road,93065,34.2432971,-118.7922214
2801,Cochran Street,93065,34.2797432,-118.7411930
5455,Katherine Street,93063,34.2674635,-118.6852948
455,Circle Knoll Drive,93065,34.2316730,-118.8086321
4100,Guardian Street,93063,34.2638212,-118.7149179
4595,Cochran Street,93062,34.2794683,-118.7046625
130,Cochran Street,93065,34.2811599,-118.7943834
1268,Madera Road,93065,34.2617668,-118.7945946
5400,Cochran Street,93063,34.2766979,-118.6851305
1717,Arcane Street,93065,34.2611286,-118.7639721
1213,Simi Town Center Way,93065,34.2842469,-118.7765629
1275,Simi Town Center Way,93065,34.2856637,-118.7755071
2660,Park Center Drive,93065,34.2841799,-118.7962907
2175,Wisteria Street,93065,34.2740442,-118.7482638
575,Cochran Street,93065,34.2811564,-118.7863670
2380,First Street,93065,34.2785258,-118.7781270
1528,Bodie Avenue,93065,34.2591865,-118.7693527
3302,Fir Avenue,93065,34.2461792,-118.7324704
1173,Simi Town Center Way,93065,34.2857499,-118.7778095
900,Innovators Way,93065,34.2847706,-118.7818401
2910,Tapo Canyon Road,93063,34.2868880,-118.7171168
2920,Tapo Canyon Road,93063,34.2875088,-118.7173472
2930,Tapo Canyon Road,93063,34.2874271,-118.7165284
2969,Tapo Canyon Road,93063,34.2890236,-118.7193717
3900,Avenida Simi,93063,34.2892415,-118.7202723
6800,Smith Road,93063,34.2623846,-118.6561322
1401,Kuehner Drive,93063,34.2656226,-118.6616810
1401,Kuehner Drive,93063,34.2652327,-118.6614086
2551,Galena Avenue,93065-9998,34.2815303,-118.7363619
2825,Bella Court,93065,34.2889106,-118.7399012
2975,Sycamore Drive,93065,34.2889630,-118.7461178
1500,Alexander Street,93065,34.2758740,-118.7696260
2405,Sycamore Drive,93065,34.2794194,-118.7440584
2600,Stearns,93063,34.2830782,-118.6909268
601,Royal Avenue,93065,34.2657186,-118.7853614
601,Royal Avenue,93065,34.2660254,-118.7850062
601,Royal Avenue,93065,34.2660647,-118.7843878
601,Royal Avenue,93065,34.2665253,-118.7843346
255,Cochran Street,93065,34.2820551,-118.7920939
191,Cochran Street,93065,34.2821823,-118.7930647
2127,Timberlane Avenue,93063,34.2746759,-118.6796029
2139,Timberlane Avenue,93063,34.2748584,-118.6796012
2151,Timberlane Avenue,93063,34.2750359,-118.6796044
2163,Timberlane Avenue,93063,34.2752184,-118.6796046
2175,Timberlane Avenue,93063,34.2753978,-118.6796130
2187,Timberlane Avenue,93063,34.2755801,-118.6796286
2209,Timberlane Avenue,93063,34.2757583,-118.6796175
2227,Timberlane Avenue,93063,34.2759444,-118.6796087
2241,Timberlane Avenue,93063,34.2761217,-118.6796060
2255,Timberlane Avenue,93063,34.2763127,-118.6796149
2267,Timberlane Avenue,93063,34.2764898,-118.6795976
2279,Timberlane Avenue,93063,34.2766702,-118.6796101
2285,Timberlane Avenue,93063,34.2768475,-118.6796060
2291,Timberlane Avenue,93063,34.2770307,-118.6796139
2297,Timberlane Avenue,93063,34.2772130,-118.6795986
2298,Timberlane Avenue,93063,34.2772151,-118.6790955
2299,Timberlane Avenue,93063,34.2770328,-118.6791171
2286,Timberlane Avenue,93063,34.2768493,-118.6791097
2280,Timberlane Avenue,93063,34.2766692,-118.6790955
2280,Timberlane Avenue,93063,34.2764864,-118.6791092
2256,Timberlane Avenue,93063,34.2763108,-118.6790942
2242,Timberlane Avenue,93063,34.2761231,-118.6791171
2228,Timberlane Avenue,93063,34.2759441,-118.6791147
2206,Timberlane Avenue,93063,34.2757602,-118.6791084
2164,Timberlane Avenue,93063,34.2755767,-118.6790989
2772,Timberlane Avenue,93063,34.2753990,-118.6791051
2160,Timberlane Avenue,93063,34.2752190,-118.6790935
2148,Timberlane Avenue,93063,34.2750426,-118.6791151
2136,Timberlane Avenue,93063,34.2748600,-118.6791000
2124,Timberlane Avenue,93063,34.2746759,-118.6791006
2125,Ecroyd Avenue,93063,34.2746804,-118.6804575
2137,Ecroyd Avenue,93063,34.2748575,-118.6804523
2149,Ecroyd Avenue,93063,34.2750344,-118.6804656
2161,Ecroyd Avenue,93063,34.2752156,-118.6804445
2173,Ecroyd Avenue,93063,34.2753984,-118.6804526
2185,Ecroyd Avenue,93063,34.2755807,-118.6804597
2207,Ecroyd Avenue,93063,34.2757605,-118.6804439
2225,Ecroyd Avenue,93063,34.2759460,-118.6804948
2237,Ecroyd Avenue,93063,34.2761229,-118.6804552
2253,Ecroyd Avenue,93063,34.2763077,-118.6804560
2265,Ecroyd Avenue,93063,34.2764860,-118.6804460
2277,Ecroyd Avenue,93063,34.2766682,-118.6804709
2283,Ecroyd Avenue,93063,34.2768486,-118.6804474
2289,Ecroyd Avenue,93063,34.2770327,-118.6804638
2296,Ecroyd Avenue,93063,34.2772067,-118.6799604
2296,Ecroyd Avenue,93063,34.2770261,-118.6799578
2290,Ecroyd Avenue,93063,34.2768469,-118.6799429
2278,Ecroyd Avenue,93063,34.2766666,-118.6799647
2266,Ecroyd Avenue,93063,34.2764857,-118.6799607
2254,Ecroyd Avenue,93063,34.2763084,-118.6799589
2240,Ecroyd Avenue,93063,34.2761255,-118.6799592
2240,Ecroyd Avenue,93063,34.2759425,-118.6799527
2208,Ecroyd Avenue,93063,34.2757619,-118.6799538
2186,Ecroyd Avenue,93063,34.2755820,-118.6799439
2174,Ecroyd Avenue,93063,34.2753984,-118.6799592
2162,Ecroyd Avenue,93063,34.2752212,-118.6799410
2150,Ecroyd Avenue,93063,34.2750366,-118.6799546
2138,Ecroyd Avenue,93063,34.2748585,-118.6799534
2126,Ecroyd Avenue,93063,34.2746658,-118.6799273
2124,Connell Avenue,93063,34.2746692,-118.6807787
2136,Connell Avenue,93063,34.2748538,-118.6807978
2148,Connell Avenue,93063,34.2750355,-118.6808080
2160,Connell Avenue,93063,34.2752152,-118.6807912
2172,Connell Avenue,93063,34.2754019,-118.6808011
2184,Connell Avenue,93063,34.2755794,-118.6808080
2208,Connell Avenue,93063,34.2757579,-118.6807890
2224,Connell Avenue,93063,34.2759451,-118.6808007
2238,Connell Avenue,93063,34.2761196,-118.6808103
2252,Connell Avenue,93063,34.2763048,-118.6807967
2266,Connell Avenue,93063,34.2764903,-118.6808014
2280,Connell Avenue,93063,34.2766690,-118.6808118
2286,Connell Avenue,93063,34.2768526,-118.6807952
2282,Connell Avenue,93063,34.2770268,-118.6807992
2298,Connell Avenue,93063,34.2772174,-118.6808143
2297,Connell Avenue,93063,34.2772092,-118.6813010
2291,Connell Avenue,93063,34.2770283,-118.6813025
2285,Connell Avenue,93063,34.2768502,-118.6812925
2279,Connell Avenue,93063,34.2766711,-118.6812999
2265,Connell Avenue,93063,34.2764830,-118.6813376
2251,Connell Avenue,93063,34.2763078,-118.6812914
2237,Connell Avenue,93063,34.2761263,-118.6813002
2223,Connell Avenue,93063,34.2759469,-118.6813032
2209,Connell Avenue,93063,34.2757582,-118.6812992
2187,Connell Avenue,93063,34.2755785,-118.6813072
2175,Connell Avenue,93063,34.2753982,-118.6813028
2163,Connell Avenue,93063,34.2752204,-118.6813013
2151,Connell Avenue,93063,34.2750370,-118.6813050
2139,Connell Avenue,93063,34.2748586,-118.6812910
2127,Connell Avenue,93063,34.2746738,-118.6813171
2126,Emmett Avenue,93063,34.2746683,-118.6816547
2138,Emmett Avenue,93063,34.2748568,-118.6816411
2150,Emmett Avenue,93063,34.2750372,-118.6816467
2162,Emmett Avenue,93063,34.2752178,-118.6816485
2174,Emmett Avenue,93063,34.2753970,-118.6816116
2186,Emmett Avenue,93063,34.2755808,-118.6816460
2208,Emmett Avenue,93063,34.2757600,-118.6816585
2222,Emmett Avenue,93063,34.2759426,-118.6816577
2236,Emmett Avenue,93063,34.2761264,-118.6816455
2250,Emmett Avenue,93063,34.2763062,-118.6816491
2264,Emmett Avenue,93063,34.2764893,-118.6816610
2278,Emmett Avenue,93063,34.2766683,-118.6816524
2284,Emmett Avenue,93063,34.2768508,-118.6816527
2290,Emmett Avenue,93063,34.2770283,-118.6816587
2296,Emmett Avenue,93063,34.2772095,-118.6816529
2295,Emmett Avenue,93063,34.2772175,-118.6821842
2289,Emmett Avenue,93063,34.2770319,-118.6821419
2203,Emmett Avenue,93063,34.2768516,-118.6821786
2277,Emmett Avenue,93063,34.2766695,-118.6821477
2263,Emmett Avenue,93063,34.2764912,-118.6821500
2242,Emmett Avenue,93063,34.2763121,-118.6821632
2235,Emmett Avenue,93063,34.2761277,-118.6821632
2221,Emmett Avenue,93063,34.2759434,-118.6821533
2207,Emmett Avenue,93063,34.2757648,-118.6821551
2185,Emmett Avenue,93063,34.2755852,-118.6821384
2173,Emmett Avenue,93063,34.2754016,-118.6821439
2164,Emmett Avenue,93063,34.2752166,-118.6821548
2149,Emmett Avenue,93063,34.2750356,-118.6821392
2137,Emmett Avenue,93063,34.2748566,-118.6821475
2125,Emmett Avenue,93063,34.2746662,-118.6821611
2124,Stow Street,93063,34.2746752,-118.6824958
2160,Stow Street,93063,34.2752184,-118.6824969
2172,Stow Street,93063,34.2753982,-118.6824921
2184,Stow Street,93063,34.2755800,-118.6824826
2206,Stow Street,93063,34.2757627,-118.6824939
2234,Stow Street,93063,34.2761201,-118.6825057
2248,Stow Street,93063,34.2763084,-118.6824969
2262,Stow Street,93063,34.2764877,-118.6825057
2276,Stow Street,93063,34.2766695,-118.6824969
2288,Stow Street,93063,34.2770255,-118.6825017
2294,Stow Street,93063,34.2772048,-118.6825009
5607,East Pittman Street,93063,34.2776086,-118.6825334
5619,East Pittman Street,93063,34.2776091,-118.6823053
5629,East Pittman Street,93063,34.2776104,-118.6820781
5639,East Pittman Street,93063,34.2776148,-118.6818381
5649,East Pittman Street,93063,34.2776102,-118.6816124
5661,East Pittman Street,93063,34.2776105,-118.6813929
5671,East Pittman Street,93063,34.2776010,-118.6811144
5685,East Pittman Street,93063,34.2776080,-118.6809152
5695,East Pittman Street,93063,34.2776187,-118.6806812
5697,East Pittman Street,93063,34.2776071,-118.6804508
5719,East Pittman Street,93063,34.2775992,-118.6802186
5731,East Pittman Street,93063,34.2775989,-118.6799879
5821,East Los Angeles Avenue,93063,34.2720966,-118.6770156
5820,East Los Angeles Avenue,93063,34.2712772,-118.6780306
5702,East Los Angeles Avenue,93063,34.2713360,-118.6801708
5710,East Los Angeles Avenue,93063,34.2708292,-118.6797828
5786,East Los Angeles Avenue,93063,34.2713335,-118.6792753
5798,East Los Angeles Avenue,93063,34.2713018,-118.6788356
5840,East Los Angeles Avenue,93063,34.2712926,-118.6774915
5830,East Los Angeles Avenue,93063,34.2713057,-118.6777097
5805,East Los Angeles Avenue,93063,34.2732466,-118.6776545
2498,Stearns Street,93063,34.2807332,-118.6899143
2627,Yosemite Avenue,93063,34.2829968,-118.6801167
2605,Yosemite Avenue,93063,34.2824865,-118.6798365
3347,Tapo Street,93063,34.2959307,-118.7112070
4101,Township Avenue,93063,34.2945041,-118.7144135
250,Royal Avenue,93065,34.2632539,-118.7935674
1580,Yosemite Avenue,93063,34.2677156,-118.6780273
277,Morro Way,93065,34.2544087,-118.8028620
277,Morro Way,93065,34.2543704,-118.8027959
277,Morro Way,93065,34.2543283,-118.8027121
298,Morro Way,93065,34.2543169,-118.8032104
298,Morro Way,93065,34.2543560,-118.8032763
298,Morro Way,93065,34.2542691,-118.8031415
290,Morro Way,93065,34.2541505,-118.8029408
290,Morro Way,93065,34.2541038,-118.8028725
290,Morro Way,93065,34.2541891,-118.8030055
263,Morro Way,93065,34.2542415,-118.8024827
263,Morro Way,93065,34.2542820,-118.8025485
263,Morro Way,93065,34.2542027,-118.8024066
274,Morro Way,93065,34.2539271,-118.8027427
274,Morro Way,93065,34.2539029,-118.8026606
258,Morro Way,93065,34.2538682,-118.8022964
258,Morro Way,93065,34.2538592,-118.8023766
258,Morro Way,93065,34.2538408,-118.8024694
242,Morro Way,93065,34.2539640,-118.8019700
242,Morro Way,93065,34.2539548,-118.8020497
242,Morro Way,93065,34.2539359,-118.8021428
224,Morro Way,93065,34.2539906,-118.8016432
224,Morro Way,93065,34.2539890,-118.8017392
224,Morro Way,93065,34.2539801,-118.8018191
208,Morro Way,93065,34.2540547,-118.8011848
208,Morro Way,93065,34.2540642,-118.8011047
208,Morro Way,93065,34.2540627,-118.8010102
207,Morro Way,93065,34.2543265,-118.8009802
207,Morro Way,93065,34.2543171,-118.8010618
207,Morro Way,93065,34.2543165,-118.8011562
221,Morro Way,93065,34.2542814,-118.8013647
221,Morro Way,93065,34.2542817,-118.8014534
235,Morro Way,93065,34.2542532,-118.8016174
235,Morro Way,93065,34.2542442,-118.8016984
235,Morro Way,93065,34.2542438,-118.8017930
249,Morro Way,93065,34.2542137,-118.8019493
249,Morro Way,93065,34.2542051,-118.8020286
249,Morro Way,93065,34.2542057,-118.8021236
1775,Madera Road,93065,34.2693539,-118.7972104
599,Country Club Drive,93065,34.2529685,-118.8114410
402,Country Club Drive,93065,34.2526104,-118.8077226
404,Country Club Drive,93065,34.2526522,-118.8080700
410,Country Club Drive,93065,34.2522689,-118.8078280
412,Country Club Drive,93065,34.2520635,-118.8080712
414,Country Club Drive,93065,34.2519254,-118.8083805
418,Country Club Drive,93065,34.2517679,-118.8087153
422,Country Club Drive,93065,34.2516342,-118.8090267
426,Country Club Drive,93065,34.2514953,-118.8093457
430,Country Club Drive,93065,34.2513618,-118.8096862
432,Country Club Drive,93065,34.2516594,-118.8099238
424,Country Club Drive,93065,34.2519194,-118.8092896
416,Country Club Drive,93065,34.2521493,-118.8086360
428,Country Club Drive,93065,34.2518059,-118.8096159
420,Country Club Drive,93065,34.2520508,-118.8089639
408,Country Club Drive,93065,34.2523439,-118.8082725
406,Country Club Drive,93065,34.2526017,-118.8084252
450,Country Club Drive,93065,34.2527263,-118.8090428
454,Country Club Drive,93065,34.2524147,-118.8093680
452,Country Club Drive,93065,34.2527077,-118.8094904
456,Country Club Drive,93065,34.2522277,-118.8098247
458,Country Club Drive,93065,34.2521699,-118.8102231
462,Country Club Drive,93065,34.2524297,-118.8104168
460,Country Club Drive,93065,34.2525338,-118.8100777
280,Country Club Drive,93065,34.2537059,-118.8040416
232,Country Club Drive,93065,34.2534875,-118.8022615
234,Country Club Drive,93065,34.2533260,-118.8026665
236,Country Club Drive,93065,34.2532175,-118.8030345
238,Country Club Drive,93065,34.2530675,-118.8033670
250,Country Club Drive,93065,34.2529415,-118.8037935
240,Country Club Drive,93065,34.2532180,-118.8038555
260,Country Club Drive,93065,34.2528950,-118.8042365
270,Country Club Drive,93065,34.2532685,-118.8042795
392,Country Club Drive,93065,34.2530990,-118.8061155
388,Country Club Drive,93065,34.2532795,-118.8057625
384,Country Club Drive,93065,34.2534345,-118.8053545
380,Country Club Drive,93065,34.2535525,-118.8049165
221,Country Club Drive,93065,34.2539670,-118.8035655
228,Country Club Drive,93065,34.2535685,-118.8035820
230,Country Club Drive,93065,34.2536180,-118.8031910
1491,Fitzgerald Road,93065,34.2574570,-118.7707817
601,Royal Avenue,93065,34.2660376,-118.7853880
601,Royal Avenue,93065,34.2650964,-118.7843352
601,Royal Avenue,93065,34.2654430,-118.7840187
601,Royal Avenue,93065,34.2657836,-118.7843318
601,Royal Avenue,93065,34.2656019,-118.7843350
601,Royal Avenue,93065,34.2654429,-118.7844708
601,Royal Avenue,93065,34.2654395,-118.7847022
2692,East Los Angeles Avenue,93065,34.2712621,-118.7441611
3570,Cochran Street,93063,34.2777513,-118.7282375
1495,East Los Angeles Avenue,93065,34.2722566,-118.7704339
1543,East Los Angeles Avenue,93065,34.2720999,-118.7693539
1613,East Los Angeles Avenue,93065,34.2721134,-118.7672326
1893,North Hilliard Avenue,93063,34.2703444,-118.6838492
1849,North Hilliard Avenue,93063,34.2701606,-118.6838576
1847,North Hilliard Avenue,93063,34.2699825,-118.6838318
1829,North Hilliard Avenue,93063,34.2697954,-118.6838610
1862,North Hilliard Avenue,93063,34.2700945,-118.6833689
1894,North Hilliard Avenue,93063,34.2702952,-118.6833556
1848,North Hilliard Avenue,93063,34.2699242,-118.6833684
1826,North Hilliard Avenue,93063,34.2697472,-118.6833465
5195,Cochran Street,93063,34.2796891,-118.6918132
1767,North Hilliard Avenue,93063,34.2694233,-118.6838616
1749,North Hilliard Avenue,93063,34.2692313,-118.6838296
1797,North Hilliard Avenue,93063,34.2690657,-118.6838330
1782,North Hilliard Avenue,93063,34.2695639,-118.6833470
1766,North Hilliard Avenue,93063,34.2693777,-118.6833405
1748,North Hilliard Avenue,93063,34.2691891,-118.6833658
1724,North Hilliard Avenue,93063,34.2690173,-118.6833605
1898,North Hilliard Avenue,93063,34.2704790,-118.6833564
1906,North Hilliard Avenue,93063,34.2706429,-118.6833667
1920,North Hilliard Avenue,93063,34.2708266,-118.6833625
1932,North Hilliard Avenue,93063,34.2710665,-118.6833237
1931,North Hilliard Avenue,93063,34.2710667,-118.6839116
1919,North Hilliard Avenue,93063,34.2708813,-118.6838510
1905,North Hilliard Avenue,93063,34.2706955,-118.6838508
1785,North Hilliard Avenue,93063,34.2696001,-118.6838379
5539,East Geoffrey Avenue,93063,34.2707331,-118.6841236
5527,East Geoffrey Avenue,93063,34.2707322,-118.6843411
5538,East Geoffrey Avenue,93063,34.2703216,-118.6841367
5520,East Geoffrey Avenue,93063,34.2703210,-118.6845495
5521,East Geoffrey Avenue,93063,34.2707446,-118.6845660
5509,East Geoffrey Avenue,93063,34.2707300,-118.6847689
5495,East Geoffrey Avenue,93063,34.2707306,-118.6849917
5508,East Geoffrey Avenue,93063,34.2703185,-118.6847736
1798,North Hannah Circle,93063,34.2699975,-118.6843049
5494,East Geoffrey Avenue,93063,34.2703194,-118.6849806
1797,North Hannah Circle,93063,34.2700130,-118.6845453
5484,East Geoffrey Avenue,93063,34.2703213,-118.6852084
5474,East Geoffrey Avenue,93063,34.2703206,-118.6854253
5475,East Geoffrey Avenue,93063,34.2707315,-118.6854165
5465,East Geoffrey Avenue,93063,34.2707270,-118.6856392
5445,EastGeoffrey Avenue,93063,34.2707473,-118.6860979
5464,East Geoffrey Avenue,93063,34.2703175,-118.6856360
1892,North Geoffrey Avenue,93063,34.2703431,-118.6859001
5435,East Geoffrey Avenue,93063,34.2706228,-118.6863490
1891,North Geoffrey Avenue,93063,34.2704307,-118.6864118
1851,North Geoffrey Avenue,93063,34.2702460,-118.6864292
1772,North Hannah Circle,93063,34.2698214,-118.6841655
1766,North Hannah Circle,93063,34.2696228,-118.6841785
1744,North Hannah Circle,93063,34.2694485,-118.6842018
1726,North Hannah Circle,93063,34.2692716,-118.6842245
1714,North Hannah Circle,93063,34.2690928,-118.6842159
1765,North Hannah Circle,93063,34.2696666,-118.6847328
1771,North Hannah Circle,93063,34.2698804,-118.6847249
1743,North Hannah Circle,93063,34.2694912,-118.6846995
1726,North Hannah Circle,93063,34.2693145,-118.6847037
1715,North Hannah Circle,93063,34.2691397,-118.6846996
1933,Stow Street,93063,34.2710699,-118.6830135
5485,East Geoffrey Avenue,93063,34.2707292,-118.6852080
1712,North Grover Circle,93063,34.2691751,-118.6850748
1724,North Grover Circle,93063,34.2693481,-118.6850523
1746,North Grover Circle,93063,34.2695270,-118.6850597
1768,North Grover Circle,93063,34.2697125,-118.6850228
1774,North Grover Circle,93063,34.2699277,-118.6850543
1792,North Grover Circle,93063,34.2700184,-118.6852635
1791,North Grover Circle,93063,34.2699671,-118.6855026
1773,North Grover Circle,93063,34.2697564,-118.6855967
1747,North Grover Circle,93063,34.2695763,-118.6855542
1725,North Grover Circle,93063,34.2693954,-118.6855566
1713,North Grover Circle,93063,34.2692206,-118.6855549
1718,North Geoffrey Avenue,93063,34.2692447,-118.6859326
1744,North Geoffrey Avenue,93063,34.2694406,-118.6859109
1768,North Geoffrey Avenue,93063,34.2695954,-118.6859162
1816,North Geoffrey Avenue,93063,34.2697788,-118.6859093
1842,North Geoffrey Avenue,93063,34.2699673,-118.6858965
1844,North Geoffrey Avenue,93063,34.2701696,-118.6859101
1843,North Geoffrey Avenue,93063,34.2700497,-118.6864155
1817,North Geoffrey Avenue,93063,34.2698752,-118.6864140
1791,North Geoffrey Avenue,93063,34.2696623,-118.6864343
1757,North Geoffrey Avenue,93063,34.2694839,-118.6864173
1723,North Geoffrey Avenue,93063,34.2693033,-118.6864257
5270,East Los Angeles Avenue,93063,34.2712139,-118.6896024
1921,Stow Street,93063,34.2708748,-118.6830089
1907,Stow Street,93063,34.2706807,-118.6830140
1899,Stow Street,93063,34.2704915,-118.6830089
1895,Stow Street,93063,34.2702956,-118.6830085
1863,Stow Street,93063,34.2701221,-118.6829829
1849,Stow Street,93063,34.2699111,-118.6829896
1827,Stow Street,93063,34.2697309,-118.6830109
1783,Stow Street,93063,34.2695340,-118.6829867
1789,Stow Street,93063,34.2693638,-118.6829892
1747,Stow Street,93063,34.2691638,-118.6830131
1725,Stow Street,93063,34.2689863,-118.6830069
1985,Yosemite Avenue,93063,34.2709430,-118.6788008
2402,Erringer Road,93065,34.2794176,-118.7608664
2394,Erringer Road,93065,34.2782793,-118.7605102
2566,Erringer Road,93065,34.2814367,-118.7607228
5462,East Aurelia Street,93063,34.2688252,-118.6856088
1716,North Emory Avenue,93063,34.2693285,-118.6867641
1742,North Emory Avenue,93063,34.2695122,-118.6867557
1764,North Emory Avenue,93063,34.2696929,-118.6867655
1814,North Emory Avenue,93063,34.2698945,-118.6867543
1840,North Emory Avenue,93063,34.2700771,-118.6867651
1850,North Emory Avenue,93063,34.2702580,-118.6867560
1890,North Emory Avenue,93063,34.2704381,-118.6867565
1904,North Emory Avenue,93063,34.2706186,-118.6867596
1910,North Emory Avenue,93063,34.2708024,-118.6867649
5284,East Aurelia Street,93063,34.2691667,-118.6892912
5302,East Aurelia Street,93063,34.2691264,-118.6890886
5314,East Aurelia Street,93063,34.2691203,-118.6888751
5326,East Aurelia Street,93063,34.2691024,-118.6886430
5332,East Aurelia Street,93063,34.2690849,-118.6884565
5344,East Aurelia Street,93063,34.2690507,-118.6882152
5356,East Aurelia Street,93063,34.2690380,-118.6880142
5362,East Aurelia Street,93063,34.2690170,-118.6877992
5374,East Aurelia Street,93063,34.2690062,-118.6875954
5386,East Aurelia Street,93063,34.2689757,-118.6873710
5392,East Aurelia Street,93063,34.2689815,-118.6871432
5404,East Aurelia Street,93063,34.2689516,-118.6869424
5416,East Aurelia Street,93063,34.2689418,-118.6867192
5428,East Aurelia Street,93063,34.2688862,-118.6865117
5434,East Aurelia Street,93063,34.2688828,-118.6862990
5446,East Aurelia Street,93063,34.2688646,-118.6860852
5596,East Aurelia Street,93063,34.2685873,-118.6829782
5584,East Aurelia Street,93063,34.2686232,-118.6831724
5570,East Aurelia Street,93063,34.2686305,-118.6834148
5558,East Aurelia Street,93063,34.2686615,-118.6836167
5542,East Aurelia Street,93063,34.2686667,-118.6838579
5536,East Aurelia Street,93063,34.2686895,-118.6840560
5524,East Aurelia Street,93063,34.2687252,-118.6842874
5318,East Aurelia Street,93063,34.2687081,-118.6845050
5506,East Aurelia Street,93063,34.2687336,-118.6847201
5492,East Aurelia Street,93063,34.2687807,-118.6849462
5484,East Aurelia Street,93063,34.2687960,-118.6851487
5476,East Aurelia Street,93063,34.2687980,-118.6853841
5458,East Aurelia Street,93063,34.2688330,-118.6858041
5396,East Diane Street,93063,34.2703350,-118.6872282
5384,East Diane Street,93063,34.2703273,-118.6874381
5376,East Diane Street,93063,34.2703381,-118.6876423
5368,East Diane Street,93063,34.2703361,-118.6878774
5356,East Diane Street,93063,34.2703281,-118.6880859
5348,East Diane Street,93063,34.2703370,-118.6882884
5340,East Diane Street,93063,34.2703362,-118.6885254
5332,East Diane Street,93063,34.2703259,-118.6887287
5320,East Diane Street,93063,34.2703364,-118.6889327
5312,East Diane Street,93063,34.2703353,-118.6891702
5304,East Diane Street,93063,34.2703469,-118.6893633
1838,North Colleen Avenue,93063,34.2700855,-118.6893389
1812,North Colleen Avenue,93063,34.2699133,-118.6893390
1720,North Colleen Avenue,93063,34.2697371,-118.6893157
1710,North Colleen Avenue,93063,34.2695624,-118.6893491
5250,East Aurelia Street,93063,34.2691918,-118.6895946
1739,North Colleen Avenue,93063,34.2692946,-118.6898230
1761,North Colleen Avenue,93063,34.2694483,-118.6898389
1787,North Colleen Avenue,93063,34.2696454,-118.6898672
1813,North Colleen Avenue,93063,34.2698169,-118.6898231
1839,North Colleen Avenue,93063,34.2700125,-118.6898160
1861,North Colleen Avenue,93063,34.2701867,-118.6898490
1887,North Colleen Avenue,93063,34.2703628,-118.6898243
5287,East Diane Street,93063,34.2707604,-118.6898981
5295,East Diane Street,93063,34.2707615,-118.6896827
5305,East Diane Street,93063,34.2707686,-118.6894405
5313,East Diane Street,93063,34.2707498,-118.6892456
5321,East Diane Street,93063,34.2707447,-118.6890095
5333,East Diane Street,93063,34.2707723,-118.6887842
5341,East Diane Street,93063,34.2707614,-118.6885607
5349,East Diane Street,93063,34.2707487,-118.6883505
5357,East Diane Street,93063,34.2707608,-118.6881184
5369,East Diane Street,93063,34.2707620,-118.6878975
5377,East Diane Street,93063,34.2707669,-118.6876735
5385,East Diane Street,93063,34.2707587,-118.6874512
5397,East Diane Street,93063,34.2707475,-118.6872336
5874,East Los Angeles Avenue,93063,34.2713637,-118.6767777
1721,North Emory Avenue,93063,34.2693741,-118.6872515
1762,North Dulcie Circle,93063,34.2697467,-118.6875773
1714,North Dulcie Circle,93063,34.2694074,-118.6876490
1740,North Dulcie Circle,93063,34.2695872,-118.6876309
1755,North Emory Avenue,93063,34.2695603,-118.6872582
1815,North Emory Avenue,93063,34.2699012,-118.6872674
1719,North Dulcie Circle,93063,34.2694506,-118.6880962
1753,North Dulcie Circle,93063,34.2696264,-118.6881171
1787,North Dulcie Circle,93063,34.2698055,-118.6881590
1788,North Dulcie Circle,93063,34.2700180,-118.6876950
1797,North Dulcie Circle,93063,34.2700305,-118.6879655
1712,North Dawn Circle,93063,34.2694855,-118.6884900
1738,North Dawn Circle,93063,34.2696527,-118.6884496
1760,North Dawn Circle,93063,34.2699300,-118.6884366
1786,North Dawn Circle,93063,34.2700502,-118.6886662
1785,North Dawn Circle,93063,34.2699653,-118.6889394
1751,North Dawn Circle,93063,34.2696917,-118.6889941
1717,North Dawn Circle,93063,34.2695282,-118.6889544
1841,North Emory Avenue,93063,34.2700893,-118.6872677
1898,Suntree Lane,93063,34.2703681,-118.6901951
5794,Katherine Street,93063,34.2659522,-118.6786895
5788,Katherine Street,93063,34.2659163,-118.6789032
5776,Katherine Street,93063,34.2659204,-118.6791417
5764,Katherine Street,93063,34.2659005,-118.6793556
5758,Katherine Street,93063,34.2659127,-118.6795747
5746,Katherine Street,93063,34.2659344,-118.6797911
5734,Katherine Street,93063,34.2659404,-118.6800099
5728,Katherine Street,93063,34.2659459,-118.6802231
5716,Katherine Street,93063,34.2659441,-118.6804409
5704,Katherine Street,93063,34.2659563,-118.6806984
5694,Katherine Street,93063,34.2659630,-118.6809512
5646,Katherine Street,93063,34.2659864,-118.6820264
5634,Katherine Street,93063,34.2660071,-118.6822378
5604,Katherine Street,93063,34.2660196,-118.6826723
5594,Katherine Street,93063,34.2660089,-118.6828864
5588,Katherine Street,93063,34.2660112,-118.6831021
5576,Katherine Street,93063,34.2660099,-118.6833162
5558,Katherine Street,93063,34.2660330,-118.6840122
5546,Katherine Street,93063,34.2660285,-118.6842281
5528,Katherine Street,93063,34.2660347,-118.6844554
5516,Katherine Street,93063,34.2660630,-118.6846633
5476,Katherine Street,93063,34.2661357,-118.6855296
5464,Katherine Street,93063,34.2661784,-118.6857502
5458,Katherine Street,93063,34.2662026,-118.6859544
5446,Katherine Street,93063,34.2662435,-118.6861834
5434,Katherine Street,93063,34.2662763,-118.6863861
5428,Katherine Street,93063,34.2663252,-118.6866012
5404,Katherine Street,93063,34.2664076,-118.6870160
5394,Katherine Street,93063,34.2664588,-118.6872259
5388,Katherine Street,93063,34.2665235,-118.6874494
5376,Katherine Street,93063,34.2665693,-118.6876374
5364,Katherine Street,93063,34.2666405,-118.6878667
5358,Katherine Street,93063,34.2666904,-118.6880483
5346,Katherine Street,93063,34.2667689,-118.6882781
5334,Katherine Street,93063,34.2668433,-118.6885023
5328,Katherine Street,93063,34.2669292,-118.6887119
5316,Katherine Street,93063,34.2669814,-118.6888972
5298,Katherine Street,93063,34.2671659,-118.6893090
5292,Katherine Street,93063,34.2672364,-118.6894796
5284,Katherine Street,93063,34.2673321,-118.6897003
5276,Katherine Street,93063,34.2674159,-118.6898612
5268,Katherine Street,93063,34.2675209,-118.6900718
5260,Katherine Street,93063,34.2675896,-118.6902301
5252,Katherine Street,93063,34.2677198,-118.6904388
5244,Katherine Street,93063,34.2678045,-118.6905982
5236,Katherine Street,93063,34.2679599,-118.6907921
5228,Katherine Street,93063,34.2680665,-118.6909549
5224,Katherine Street,93063,34.2682489,-118.6911285
5212,Katherine Street,93063,34.2684059,-118.6912520
1805,Suntree Lane,93063,34.2695296,-118.6912639
5304,Katherine Street,93063,34.2670855,-118.6891033
5279,Katherine Street,93063,34.2679149,-118.6896442
5267,Katherine Street,93063,34.2679828,-118.6898221
5347,Katherine Street,93063,34.2673277,-118.6883833
1621,Elberta Avenue,93063,34.2674762,-118.6882877
1645,Elberta Avenue,93063,34.2676355,-118.6882430
1653,Elberta Avenue,93063,34.2678044,-118.6881696
1699,Elberta Avenue,93063,34.2679906,-118.6880543
5352,Mildred Street,93063,34.2681621,-118.6880115
5330,Mildred Street,93063,34.2681930,-118.6883792
1650,Ona Circle,93063,34.2680298,-118.6883691
1616,Ona Circle,93063,34.2678114,-118.6885702
1617,Ona Circle,93063,34.2678524,-118.6888174
1651,Ona Circle,93063,34.2679818,-118.6890000
1685,Ona Circle,93063,34.2682454,-118.6889676
5284,Mildred Street,93063,34.2682457,-118.6892184
5250,Mildred Street,93063,34.2682602,-118.6894609
5216,Mildred Street,93063,34.2682868,-118.6896976
5251,Katherine Street,93063,34.2680926,-118.6899886
5491,Mildred Street,93063,34.2683972,-118.6861626
5469,Mildred Street,93063,34.2684291,-118.6864019
5453,Mildred Street,93063,34.2684371,-118.6866170
5431,Mildred Street,93063,34.2684399,-118.6868366
5409,Mildred Street,93063,34.2684616,-118.6870478
5395,Mildred Street,93063,34.2684925,-118.6872650
5389,Mildred Street,93063,34.2684963,-118.6874861
5377,Mildred Street,93063,34.2685215,-118.6876978
5365,Mildred Street,93063,34.2685430,-118.6879393
5359,Mildred Street,93063,34.2685634,-118.6881547
5347,Mildred Street,93063,34.2685780,-118.6883678
5335,Mildred Street,93063,34.2686260,-118.6885836
5329,Mildred Street,93063,34.2686282,-118.6887943
5317,Mildred Street,93063,34.2686378,-118.6890131
5305,Mildred Street,93063,34.2686543,-118.6892198
5291,Mildred Street,93063,34.2686805,-118.6894416
5275,Mildred Street,93063,34.2687034,-118.6896547
5259,Mildred Street,93063,34.2687371,-118.6898975
5243,Mildred Street,93063,34.2686463,-118.6901555
5209,Mildred Street,93063,34.2683397,-118.6904116
5225,Mildred Street,93063,34.2684694,-118.6902875
5219,Katherine Street,93063,34.2685461,-118.6906321
5207,Katherine Street,93063,34.2687047,-118.6907563
1660,Elberta Avenue,93063,34.2678622,-118.6875932
5331,Leland Circle,93063,34.2677767,-118.6874287
5369,Leland Circle,93063,34.2677061,-118.6869737
5391,Leland Circle,93063,34.2675364,-118.6869111
5390,Leland Circle,93063,34.2673549,-118.6869526
5368,Leland Circle,93063,34.2672345,-118.6871695
5352,Leland Circle,93063,34.2673167,-118.6874249
5330,Leland Circle,93063,34.2673896,-118.6876070
5308,Leland Circle,93063,34.2674594,-118.6878248
1612,Elberta Avenue,93063,34.2671951,-118.6879177
5365,Katherine Street,93063,34.2671182,-118.6877412
5377,Katherine Street,93063,34.2670701,-118.6875439
5389,Katherine Street,93063,34.2669957,-118.6873258
5395,Katherine Street,93063,34.2669637,-118.6871290
5417,Katherine Street,93063,34.2669068,-118.6869176
1607,Kirsten Avenue,93063,34.2668586,-118.6867192
1621,Kirsten Avenue,93063,34.2670974,-118.6866838
1635,Kirsten Avenue,93063,34.2672699,-118.6866433
1649,Kirsten Avenue,93063,34.2674655,-118.6865661
1677,Kirsten Avenue,93063,34.2678375,-118.6864413
5484,Mildred Street,93063,34.2680038,-118.6864158
5450,Mildred Street,93063,34.2680191,-118.6867144
5416,Mildred Street,93063,34.2680323,-118.6869471
5390,Mildred Street,93063,34.2680630,-118.6871929
1686,Elberta Avenue,93063,34.2680966,-118.6875223
55329,Katherine Street,93063,34.2674469,-118.6886415
5317,Katherine Street,93063,34.2675130,-118.6888430
5311,Katherine Street,93063,34.2676450,-118.6890535
5307,Katherine Street,93063,34.2677033,-118.6892261
5291,Katherine Street,93063,34.2677857,-118.6894303
1591,Yosemite Avenue,93063,34.2671295,-118.6786944
1569,Yosemite Avenue,93063,34.2669511,-118.6786671
1553,Yosemite Avenue,93063,34.2667692,-118.6786738
1531,Yosemite Avenue,93063,34.2665950,-118.6786666
1509,Yosemite Avenue,93063,34.2664193,-118.6786775
5892,Oak Fern Court,93063,34.2667126,-118.6764991
5884,Oak Fern Court,93063,34.2667166,-118.6766502
5876,Oak Fern Court,93063,34.2667278,-118.6767862
5868,Oak Fern Court,93063,34.2667287,-118.6769529
5860,Oak Fern Court,93063,34.2667281,-118.6770941
5852,Oak Fern Court,93063,34.2667262,-118.6772555
5844,Oak Fern Court,93063,34.2667243,-118.6774109
5836,Oak Fern Court,93063,34.2667070,-118.6775727
5828,Oak Fern Court,93063,34.2666919,-118.6777278
5824,Oak Fern Court,93063,34.2666399,-118.6778895
5812,Oak Fern Court,93063,34.2666083,-118.6780366
5804,Oak Fern Court,93063,34.2666276,-118.6781804
5805,Oak Fern Court,93063,34.2670952,-118.6781836
5813,Oak Fern Court,93063,34.2671118,-118.6780404
5825,Oak Fern Court,93063,34.2670866,-118.6778888
5829,Oak Fern Court,93063,34.2670928,-118.6777159
5837,Oak Fern Court,93063,34.2670999,-118.6775673
5845,Oak Fern Court,93063,34.2671076,-118.6774155
5853,Oak Fern Court,93063,34.2671029,-118.6772649
5861,Oak Fern Court,93063,34.2671079,-118.6771096
5869,Oak Fern Court,93063,34.2670962,-118.6769513
5885,Oak Fern Court,93063,34.2671141,-118.6765269
1684,Stow Street,93063,34.2680883,-118.6825056
5607,Eunice Avenue,93063,34.2679121,-118.6824958
5619,Eunice Avenue,93063,34.2679519,-118.6821956
5631,Eunice Avenue,93063,34.2679198,-118.6819947
5643,Eunice Avenue,93063,34.2678494,-118.6817874
5655,Eunice Avenue,93063,34.2678086,-118.6815776
5667,Eunice Avenue,93063,34.2677477,-118.6813566
5679,Eunice Avenue,93063,34.2676926,-118.6811700
5691,Eunice Avenue,93063,34.2676232,-118.6809527
5705,Eunice Avenue,93063,34.2675717,-118.6807609
5713,Eunice Avenue,93063,34.2675048,-118.6805479
5725,Eunice Avenue,93063,34.2674747,-118.6803480
5729,Eunice Avenue,93063,34.2673881,-118.6801164
5737,Eunice Avenue,93063,34.2673414,-118.6799263
5745,Eunice Avenue,93063,34.2672771,-118.6797089
5753,Eunice Avenue,93063,34.2672226,-118.6795198
5761,Eunice Avenue,93063,34.2671701,-118.6792898
5769,Eunice Avenue,93063,34.2670674,-118.6790745
5777,Eunice Avenue,93063,34.2668078,-118.6790108
5785,Eunice Avenue,93063,34.2665785,-118.6790113
5791,Eunice Avenue,93063,34.2664020,-118.6789989
1506,Sabina Circle,93063,34.2664777,-118.6835540
1520,Sabina Circle,93063,34.2666593,-118.6835488
1534,Sabina Circle,93063,34.2668361,-118.6835180
1548,Sabina Circle,93063,34.2670169,-118.6835337
1562,Sabina Circle,93063,34.2671945,-118.6835047
1576,Sabina Circle,93063,34.2673724,-118.6835019
1590,Sabina Circle,93063,34.2675498,-118.6835154
1616,Sabina Circle,93063,34.2677269,-118.6834804
1650,Sabina Circle,93063,34.2679134,-118.6833664
1684,Sabina Circle,93063,34.2681244,-118.6834248
1687,Sabina Circle,93063,34.2681959,-118.6836474
1661,Sabina Circle,93063,34.2681364,-118.6839273
1639,Sabina Circle,93063,34.2679210,-118.6840015
1613,Sabina Circle,93063,34.2677410,-118.6839915
1591,Sabina Circle,93063,34.2675646,-118.6840001
1577,Sabina Circle,93063,34.2673833,-118.6840054
1565,Sabina Circle,93063,34.2672063,-118.6840074
1549,Sabina Circle,93063,34.2670278,-118.6840249
1535,Sabina Circle,93063,34.2668485,-118.6840196
1521,Sabina Circle,93063,34.2666704,-118.6840652
5517,Katherine Street,93063,34.2664983,-118.6840418
1505,Stow Street,93063,34.2664712,-118.6831860
1519,Stow Street,93063,34.2666491,-118.6831787
1533,Stow Street,93063,34.2668285,-118.6831739
1547,Stow Street,93063,34.2670096,-118.6831928
1561,Stow Street,93063,34.2671858,-118.6831814
1575,Stow Street,93063,34.2673656,-118.6831803
1589,Stow Street,93063,34.2675790,-118.6831348
1617,Stow Street,93063,34.2677551,-118.6830744
1651,Stow Street,93063,34.2679358,-118.6830171
1685,Stow Street,93063,34.2681412,-118.6829976
1504,Stow Street,93063,34.2664593,-118.6826941
1503,Deanna Avenue,93063,34.2664507,-118.6823243
1517,Deanna Avenue,93063,34.2666278,-118.6823232
1518,Stow Street,93063,34.2666375,-118.6826716
1531,Deanna Avenue,93063,34.2668068,-118.6823126
1532,Stow Street,93063,34.2668165,-118.6826765
1546,Stow Street,93063,34.2669961,-118.6826741
1545,Deanna Avenue,93063,34.2669843,-118.6823064
1559,Deanna Avenue,93063,34.2671801,-118.6823177
1560,Stow Street,93063,34.2671886,-118.6826670
1574,Stow Street,93063,34.2673640,-118.6826406
1587,Deanna Avenue,93063,34.2675274,-118.6822379
5608,Eunice Avenue,93063,34.2675462,-118.6825969
5784,Eunice Avenue,93063,34.2667164,-118.6794982
5792,Eunice Avenue,93063,34.2664211,-118.6795059
5763,Katherine Street,93063,34.2664272,-118.6797131
5749,Katherine Street,93063,34.2664351,-118.6799290
5735,Katherine Street,93063,34.2664185,-118.6801478
5721,Katherine Street,93063,34.2664457,-118.6803615
5772,Eunice Avenue,93063,34.2668078,-118.6796773
5717,Katherine Street,93063,34.2667033,-118.6802862
5760,Eunice Avenue,93063,34.2668817,-118.6798909
5748,Eunice Avenue,93063,34.2669242,-118.6800843
5736,Eunice Avenue,93063,34.2669942,-118.6802945
5707,Katherine Street,93063,34.2664361,-118.6806801
5724,Eunice Avenue,93063,34.2667549,-118.6806510
5716,Eunice Avenue,93063,34.2670547,-118.6805510
5704,Eunice Avenue,93063,34.2671302,-118.6807672
5690,Eunice Avenue,93063,34.2671712,-118.6809629
1550,Eloise Circle,93063,34.2669095,-118.6808903
1516,Eloise Circle,93063,34.2667464,-118.6809988
5691,Katherine Street,93063,34.2664362,-118.6809083
5677,Katherine Street,93063,34.2664442,-118.6811229
5663,Katherine Street,93063,34.2664475,-118.6813346
5649,Katherine Street,93063,34.2664560,-118.6815516
1508,Deanna Avenue,93063,34.2664398,-118.6818437
1524,Deanna Avenue,93063,34.2666174,-118.6818165
1513,Eloise Circle,93063,34.2667335,-118.6813230
1542,Deanna Avenue,93063,34.2667967,-118.6817903
1558,Deanna Avenue,93063,34.2669749,-118.6818215
1539,Eloise Circle,93063,34.2668816,-118.6814974
1561,Eloise Circle,93063,34.2670756,-118.6814902
5674,Eunice Avenue,93063,34.2673030,-118.6813780
5658,Eunice Avenue,93063,34.2673581,-118.6815845
5642,Eunice Avenue,93063,34.2674033,-118.6817739
1573,Deanna Avenue,93063,34.2673662,-118.6823009
1408,Hidden Ranch Drive,93063,34.2654618,-118.6854722
1402,Hidden Ranch Drive,93063,34.2649715,-118.6851836
1386,Hidden Ranch Drive,93063,34.2642484,-118.6844138
1380,Hidden Ranch Drive,93063,34.2640896,-118.6842916
5535,California Oak Street,93063,34.2641848,-118.6840038
5547,California Oak Street,93063,34.2642065,-118.6837707
5559,California Oak Street,93063,34.2642189,-118.6835481
5565,California Oak Street,93063,34.2642179,-118.6833069
5577,California Oak Street,93063,34.2642405,-118.6830763
5589,California Oak Street,93063,34.2642518,-118.6828467
5595,California Oak Street,93063,34.2642720,-118.6826116
5649,California Oak Street,93063,34.2642766,-118.6814149
5663,California Oak Street,93063,34.2642620,-118.6809589
5677,California Oak Street,93063,34.2642658,-118.6807305
5691,California Oak Street,93063,34.2642826,-118.6805005
1396,Southern Oak Street,93063,34.2642927,-118.6799376
1388,Southern Oak Street,93063,34.2642933,-118.6797181
1324,Southern Oak Street,93063,34.2633808,-118.6798172
1346,Southern Oak Street,93063,34.2635864,-118.6798627
1364,Southern Oak Street,93063,34.2638375,-118.6797814
1358,Southern Oak Street,93063,34.2638323,-118.6800645
1357,Southern Oak Street,93063,34.2638341,-118.6806024
5662,California Oak Street,93063,34.2638759,-118.6811945
5648,California Oak Street,93063,34.2638812,-118.6814260
5676,California Oak Street,93063,34.2637369,-118.6809180
1376,Vintage Oak Street,93063,34.2636182,-118.6812621
1354,Vintage Oak Street,93063,34.2633907,-118.6811712
1335,Southern Oak Street,93063,34.2633800,-118.6805561
1320,Vintage Oak Street,93063,34.2630285,-118.6806611
1334,Vintage Oak Street,93063,34.2629285,-118.6808653
1317,Southern Oak Street,93063,34.2628334,-118.6804372
1305,Southern Oak Street,93063,34.2627003,-118.6805904
1280,Vintage Oak Street,93063,34.2623723,-118.6801937
1268,Vintage Oak Street,93063,34.2622060,-118.6800433
5721,Velvet Oak Street,93063,34.2620367,-118.6798606
5749,Velvet Oak Street,93063,34.2623170,-118.6798108
5777,Velvet Oak Street,93063,34.2626714,-118.6796814
5791,Velvet Oak Street,93063,34.2630156,-118.6795273
5790,Velvet Oak Street,93063,34.2630707,-118.6792545
5776,Velvet Oak Street,93063,34.2628851,-118.6790967
5762,Velvet Oak Street,93063,34.2624462,-118.6791337
5748,Velvet Oak Street,93063,34.2622016,-118.6791463
5734,Velvet Oak Street,93063,34.2619980,-118.6792315
5720,Velvet Oak Street,93063,34.2618182,-118.6794009
1221,Vintage Oak Street,93063,34.2616155,-118.6796034
1235,Vintage Oak Street,93063,34.2614633,-118.6799649
1249,Vintage Oak Street,93063,34.2616149,-118.6801125
1263,Vintage Oak Street,93063,34.2618159,-118.6802847
1277,Vintage Oak Street,93063,34.2620467,-118.6804782
1291,Vintage Oak Street,93063,34.2621948,-118.6806823
1307,Vintage Oak Street,93063,34.2624462,-118.6810052
1321,Vintage Oak Street,93063,34.2625966,-118.6812211
1335,Vintage Oak Street,93063,34.2627665,-118.6813927
1349,Vintage Oak Street,93063,34.2629726,-118.6814899
1363,Vintage Oak Street,93063,34.2631189,-118.6817363
1377,Vintage Oak Street,93063,34.2634686,-118.6818759
1391,Vintage Oak Street,93063,34.2638595,-118.6819205
1397,Hidden Ranch Drive,93063,34.2642315,-118.6852767
1395,Hidden Ranch Drive,93063,34.2639817,-118.6853251
1381,Hidden Ranch Drive,93063,34.2635741,-118.6853376
1383,Hidden Ranch Drive,93063,34.2636177,-118.6850634
1389,Hidden Ranch Drive,93063,34.2640520,-118.6848919
1385,Hidden Ranch Drive,93063,34.2638569,-118.6846976
1373,Hidden Ranch Drive,93063,34.2635883,-118.6845122
1367,Hidden Ranch Drive,93063,34.2634064,-118.6843487
1287,Hidden Ranch Drive,93063,34.2618971,-118.6823596
1281,Hidden Ranch Drive,93063,34.2618694,-118.6825924
1293,Hidden Ranch Drive,93063,34.2622350,-118.6830729
1353,Hidden Ranch Drive,93063,34.2629248,-118.6836005
1345,Hidden Ranch Drive,93063,34.2629826,-118.6833683
1339,Hidden Ranch Drive,93063,34.2630006,-118.6831378
1331,Hidden Ranch Drive,93063,34.2629702,-118.6828465
1307,Hidden Ranch Drive,93063,34.2629487,-118.6824334
1303,Hidden Ranch Drive,93063,34.2626908,-118.6821876
1330,Hidden Ranch Drive,93063,34.2634213,-118.6829808
1338,Hidden Ranch Drive,93063,34.2634021,-118.6832086
1344,Hidden Ranch Drive,93063,34.2633980,-118.6834384
1358,Hidden Ranch Drive,93063,34.2633539,-118.6836731
1372,Hidden Ranch Drive,93063,34.2637700,-118.6839269
5556,California Oak Street,93063,34.2638010,-118.6836612
5564,California Oak Street,93063,34.2638112,-118.6834292
5576,California Oak Street,93063,34.2638216,-118.6832024
5588,California Oak Street,93063,34.2638462,-118.6829785
6135,Katherine Road,93063,34.2663131,-118.6713681
1355,Kuehner Drive,93063,34.2641932,-118.6609772
6334,Katherine Road,93063,34.2634450,-118.6680628
4648,Runway Street,93063,34.2696463,-118.7040270
4648,Runway Street,93063,34.2696388,-118.7048329
1729,North Warfield Court,93063,34.2687753,-118.6821373
1741,North Warfield Court,93063,34.2689443,-118.6821465
1748,Stow Street,93063,34.2689234,-118.6824704
1770,Stow Street,93063,34.2690654,-118.6824817
1753,North Warfield Court,93063,34.2690993,-118.6821197
1759,North Warfield Court,93063,34.2692385,-118.6821087
1784,Stow Street,93063,34.2692090,-118.6824859
1790,Stow Street,93063,34.2693542,-118.6824838
1796,Stow Street,93063,34.2694946,-118.6824840
1783,North Warfield Court,93063,34.2695117,-118.6821066
5634,East Bloomfield Street,93063,34.2697190,-118.6820498
5628,East Bloomfield Street,93063,34.2697336,-118.6822141
5616,East Bloomfield Street,93063,34.2697274,-118.6823787
5604,East Bloomfield Street,93063,34.2697211,-118.6825466
1772,North Warfield Court,93063,34.2693733,-118.6816474
1773,North Damon Street,93063,34.2693495,-118.6812773
5688,East Bloomfield Street,93063,34.2697183,-118.6812135
5676,East Bloomfield Street,93063,34.2697332,-118.6813767
5664,East Bloomfield Street,93063,34.2697183,-118.6815450
5658,East Bloomfield Street,93063,34.2697194,-118.6817056
1785,North Damon Street,93063,34.2694983,-118.6812767
1784,North Warfield Court,93063,34.2695116,-118.6816295
1761,North Damon Street,93063,34.2692178,-118.6812769
1760,North Warfield Court,93063,34.2692351,-118.6816442
1755,North Damon Street,93063,34.2690595,-118.6812715
1743,North Damon Street,93063,34.2689278,-118.6812747
1731,North Damon Street,93063,34.2687720,-118.6812779
1754,North Warfield Court,93063,34.2691009,-118.6816319
1742,North Warfield Court,93063,34.2689484,-118.6816177
1730,North Warfield Court,93063,34.2687723,-118.6815780
5488,Katherine Street,93063,34.2661124,-118.6853223
5494,Katherine Street,93063,34.2660976,-118.6850966
5504,Katherine Street,93063,34.2660711,-118.6848826
5564,Katherine Street,93063,34.2660277,-118.6837460
5576,Katherine Street,93063,34.2660204,-118.6835320
5616,Katherine Street,93063,34.2660139,-118.6824524
5658,Katherine Street,93063,34.2659841,-118.6818114
5664,Katherine Street,93063,34.2659781,-118.6815940
5676,Katherine Street,93063,34.2659732,-118.6813843
5688,Katherine Street,93063,34.2659461,-118.6811643
1574,Deanna Avenue,93063,34.2671531,-118.6818182
6470,Katherine Road,93063,34.2646821,-118.6639045
6460,Katherine Road,93063,34.2649916,-118.6643402
6456,Katherine Road,93063,34.2650466,-118.6647602
6416,Katherine Road,93063,34.2650336,-118.6651584
6408,Katherine Road,93063,34.2645653,-118.6649992
6408,Katherine Road,93063,34.2645825,-118.6651601
6400,Katherine Road,93063,34.2646180,-118.6653628
6392,Katherine Road,93063,34.2650333,-118.6654434
6378,Katherine Road,93063,34.2650278,-118.6659663
6354,Katherine Road,93063,34.2649840,-118.6663616
1444,Joshua Tree Court,93063,34.2650611,-118.6669701
1436,Joshua Tree Court,93063,34.2649401,-118.6669316
1412,Joshua Tree Court,93063,34.2648084,-118.6669605
1404,Joshua Tree Court,93063,34.2646606,-118.6669359
1405,Joshua Tree Court,93063,34.2646563,-118.6673271
1413,Joshua Tree Court,93063,34.2647328,-118.6676165
6249,Tangelo Place,93063,34.2644724,-118.6678272
1425,Joshua Tree Court,93063,34.2648303,-118.6679965
1429,Joshua Tree Court,93063,34.2649981,-118.6679352
1445,Joshua Tree Court,93063,34.2650613,-118.6675750
1437,Joshua Tree Court,93063,34.2649337,-118.6675908
6242,Tangelo Place,93063,34.2645782,-118.6682476
6242,Tangelo Place,93063,34.2645913,-118.6685374
6238,Tangelo Place,93063,34.2646116,-118.6687654
6234,Tangelo Place,93063,34.2646313,-118.6689387
6235,Tangelo Place,93063,34.2650171,-118.6689462
6230,Tangelo Place,93063,34.2646374,-118.6692221
6228,Tangelo Place,93063,34.2646270,-118.6693702
6224,Tangelo Place,93063,34.2646362,-118.6695132
6229,Tangelo Place,93063,34.2650139,-118.6693683
6223,Tangelo Place,93063,34.2650170,-118.6695105
6219,Tangelo Place,93063,34.2650182,-118.6696669
6213,Tangelo Place,93063,34.2650157,-118.6698213
6209,Tangelo Place,93063,34.2650159,-118.6699593
6203,Tangelo Place,93063,34.2650684,-118.6701875
6212,Tangelo Place,93063,34.2646284,-118.6698135
6208,Tangelo Place,93063,34.2646220,-118.6699555
6204,Tangelo Place,93063,34.2646270,-118.6701120
6202,Tangelo Place,93063,34.2646285,-118.6702954
6216,Tangelo Place,93063,34.2646374,-118.6696589
1443,Katherine Road,93063,34.2650417,-118.6708063
6134,Katherine Road,93063,34.2649824,-118.6720841
1503,Riverwood Court,93063,34.2659458,-118.6706746
1511,Riverwood Court,93063,34.2661446,-118.6706852
1527,Riverwood Court,93063,34.2662719,-118.6707345
1535,Riverwood Court,93063,34.2663919,-118.6707496
1541,Riverwood Court,93063,34.2665219,-118.6707818
1549,Riverwood Court,93063,34.2666355,-118.6708179
1555,Riverwood Court,93063,34.2667584,-118.6708408
1567,Riverwood Court,93063,34.2668963,-118.6708847
1575,Riverwood Court,93063,34.2670109,-118.6709422
6190,Maple Court,93063,34.2671966,-118.6710037
6174,Maple Court,93063,34.2671484,-118.6711438
6158,Maple Court,93063,34.2671017,-118.6712874
6142,Maple Court,93063,34.2670660,-118.6714410
6124,Maple Court,93063,34.2670841,-118.6715885
6108,Maple Court,93063,34.2670737,-118.6717449
6109,Maple Court,93063,34.2675829,-118.6717748
1677,Riverwood Court,93063,34.2679166,-118.6717448
6125,Maple Court,93063,34.2675834,-118.6716180
6143,Maple Court,93063,34.2675490,-118.6714794
6159,Maple Court,93063,34.2675086,-118.6713259
1676,Riverwood Court,93063,34.2681065,-118.6713422
1662,Riverwood Court,93063,34.2680020,-118.6712033
1648,Riverwood Court,93063,34.2678971,-118.6711201
1634,Riverwood Court,93063,34.2678035,-118.6710194
1620,Riverwood Court,93063,34.2677046,-118.6709420
1606,Riverwood Court,93063,34.2676141,-118.6708405
1596,Riverwood Court,93063,34.2675103,-118.6707248
1590,Riverwood Court,93063,34.2673908,-118.6706399
1582,Riverwood Court,93063,34.2672785,-118.6705515
1574,Riverwood Court,93063,34.2671655,-118.6704800
1568,Riverwood Court,93063,34.2670423,-118.6704410
1558,Riverwood Court,93063,34.2669111,-118.6703782
1550,Riverwood Court,93063,34.2667829,-118.6703415
1542,Riverwood Court,93063,34.2666613,-118.6703195
1534,Riverwood Court,93063,34.2665405,-118.6702800
1526,Riverwood Court,93063,34.2664193,-118.6702219
1518,Riverwood Court,93063,34.2662975,-118.6702182
1510,Riverwood Court,93063,34.2661794,-118.6701591
6203,Mulberry Place,93063,34.2659752,-118.6702581
6211,Mulberry Place,93063,34.2659583,-118.6700981
6239,Mulberry Place,93063,34.2660248,-118.6699015
6202,Mulberry Place,93063,34.2655771,-118.6703357
6210,Mulberry Place,93063,34.2655557,-118.6701776
6216,Mulberry Place,93063,34.2655568,-118.6700302
6224,Mulberry Place,93063,34.2655591,-118.6698829
6230,Mulberry Place,93063,34.2655583,-118.6697302
6238,Mulberry Place,93063,34.2655541,-118.6695904
6244,Mulberry Place,93063,34.2655622,-118.6694285
1706,Blazewood Street,93063,34.2691468,-118.6739792
1720,Blazewood Street,93063,34.2692490,-118.6739805
1762,Blazewood Street,93063,34.2695751,-118.6739730
1776,Blazewood Street,93063,34.2696771,-118.6739757
1790,Blazewood Street,93063,34.2697746,-118.6739740
1731,Edgewood Drive,93063,34.2691052,-118.6716957
1753,Edgewood Drive,93063,34.2693148,-118.6716789
1769,Edgewood Drive,93063,34.2694854,-118.6717000
1791,Edgewood Drive,93063,34.2696987,-118.6716829
1811,Edgewood Drive,93063,34.2698746,-118.6716907
1833,Edgewood Drive,93063,34.2700837,-118.6716592
5979,Juniper Court,93063,34.2691638,-118.6742671
5968,Juniper Court,93063,34.2691842,-118.6743854
5952,Juniper Court,93063,34.2691835,-118.6746292
5960,Juniper Court,93063,34.2691849,-118.6745102
5961,Juniper Court,93063,34.2694910,-118.6745128
5977,Juniper Court,93063,34.2694824,-118.6742719
5976,Camphor Street,93063,34.2696822,-118.6742716
5968,Camphor Street,93063,34.2696847,-118.6743922
5969,Juniper Court,93063,34.2694813,-118.6743853
5960,Camphor Street,93063,34.2696834,-118.6745074
5952,Camphor Street,93063,34.2696767,-118.6746256
1763,Locust Street,93063,34.2695686,-118.6749626
1777,Locust Street,93063,34.2696633,-118.6749613
1791,Locust Street,93063,34.2697624,-118.6749561
1805,Locust Street,93063,34.2698635,-118.6749593
1806,Locust Street,93063,34.2699301,-118.6745910
1807,Blazewood Street,93063,34.2699267,-118.6743460
1819,Blazewood Street,93063,34.2700258,-118.6743455
1817,Locust Street,93063,34.2699944,-118.6749595
1825,Locust Street,93063,34.2700936,-118.6749558
1837,Locust Street,93063,34.2701955,-118.6749587
1849,Locust Street,93063,34.2702940,-118.6749639
1861,Locust Street,93063,34.2704258,-118.6749613
1873,Locust Street,93063,34.2705233,-118.6749602
1885,Locust Street,93063,34.2706219,-118.6749545
1818,Locust Street,93063,34.2700282,-118.6745881
1830,Locust Street,93063,34.2701246,-118.6745912
1842,Locust Street,93063,34.2702255,-118.6745879
1831,Blazewood Street,93063,34.2701254,-118.6743405
1806,Blazewood Street,93063,34.2699910,-118.6739800
1820,Blazewood Street,93063,34.2700894,-118.6739777
1834,Blazewood Street,93063,34.2701839,-118.6739736
1848,Blazewood Street,93063,34.2702862,-118.6739757
1862,Blazewood Street,93063,34.2704170,-118.6739732
1890,Blazewood Street,93063,34.2706152,-118.6739717
1876,Blazewood Street,93063,34.2705148,-118.6739797
1893,Locust Street,93063,34.2707214,-118.6749612
5953,Myrtle Court,93063,34.2714087,-118.6746225
5961,Myrtle Court,93063,34.2714023,-118.6745069
5952,Myrtle Court,93063,34.2710875,-118.6746287
5960,Myrtle Court,93063,34.2710992,-118.6745025
1908,Blazewood Street,93063,34.2709136,-118.6739779
1924,Blazewood Street,93063,34.2710123,-118.6739738
1942,Blazewood Street,93063,34.2711086,-118.6739780
1958,Blazewood Street,93063,34.2712405,-118.6739718
1974,Blazewood Street,93063,34.2713394,-118.6739793
1990,Blazewood Street,93063,34.2714580,-118.6739726
5924,East Los Angeles Avenue,93063,34.2712231,-118.6755720
5928,East Los Angeles Avenue,93063,34.2709171,-118.6758412
5928,East Los Angeles Avenue,93063,34.2707474,-118.6757236
1845,Oak Road,93063,34.2701725,-118.6767273
1807,Oak Road,93063,34.2698400,-118.6764730
1801,Oak Road,93063,34.2695472,-118.6764798
1704,North Townley Circle,93063,34.2682426,-118.6799166
5702,East Damon Street,93063,34.2681094,-118.6809434
5704,East Damon Street,93063,34.2680525,-118.6807802
5706,East Damon Street,93063,34.2680113,-118.6806177
5792,East Damon Street,93063,34.2675577,-118.6786177
5784,East Damon Street,93063,34.2675714,-118.6787786
5768,East Damon Street,93063,34.2676016,-118.6791545
5760,East Damon Street,93063,34.2676592,-118.6793309
5752,East Damon Street,93063,34.2677050,-118.6794774
5744,East Damon Street,93063,34.2677436,-118.6796260
5736,East Damon Street,93063,34.2677822,-118.6798118
5728,East Damon Street,93063,34.2678321,-118.6799551
5724,East Damon Street,93063,34.2678824,-118.6801583
5712,East Damon Street,93063,34.2679432,-118.6803180
5708,East Damon Street,93063,34.2679792,-118.6804709
1609,Yosemite Avenue,93063,34.2679446,-118.6786924
1631,Yosemite Avenue,93063,34.2680855,-118.6786909
1653,Yosemite Avenue,93063,34.2682299,-118.6786904
1669,Yosemite Avenue,93063,34.2683719,-118.6786708
1691,Yosemite Avenue,93063,34.2685176,-118.6786738
1711,Yosemite Avenue,93063,34.2686562,-118.6786908
1727,Yosemite Avenue,93063,34.2687958,-118.6786959
1745,Yosemite Avenue,93063,34.2689392,-118.6786753
1761,Yosemite Avenue,93063,34.2690791,-118.6786781
1779,Yosemite Avenue,93063,34.2692218,-118.6786775
1813,Yosemite Avenue,93063,34.2695053,-118.6786743
1839,Yosemite Avenue,93063,34.2696445,-118.6786774
1861,Yosemite Avenue,93063,34.2697890,-118.6786625
1793,Yosemite Avenue,93063,34.2693624,-118.6786764
1887,Yosemite Avenue,93063,34.2699312,-118.6786708
1891,Yosemite Avenue,93063,34.2700704,-118.6786815
1897,Yosemite Avenue,93063,34.2702103,-118.6786853
1608,North Wychoff Avenue,93063,34.2680003,-118.6790501
1630,North Wychoff Avenue,93063,34.2681363,-118.6790546
1652,North Wychoff Avenue,93063,34.2682753,-118.6790517
1668,North Wychoff Avenue,93063,34.2684130,-118.6790527
1690,North Wychoff Avenue,93063,34.2685503,-118.6790458
1710,North Wychoff Avenue,93063,34.2686875,-118.6790391
1726,North Wychoff Avenue,93063,34.2688282,-118.6790544
1744,North Wychoff Avenue,93063,34.2689612,-118.6790519
1760,North Wychoff Avenue,93063,34.2690995,-118.6790562
1778,North Wychoff Avenue,93063,34.2692362,-118.6790551
1792,North Wychoff Avenue,93063,34.2693743,-118.6790320
1812,North Wychoff Avenue,93063,34.2695107,-118.6790386
1838,North Wychoff Avenue,93063,34.2696505,-118.6790402
1860,North Wychoff Avenue,93063,34.2697898,-118.6790203
1886,North Wychoff Avenue,93063,34.2699522,-118.6790628
5779,East Bloomfield Street,93063,34.2701204,-118.6791702
5763,East Bloomfield Street,93063,34.2701644,-118.6793634
5755,East Bloomfield Street,93063,34.2701578,-118.6795635
5753,East Bloomfield Street,93063,34.2701576,-118.6797350
5745,East Bloomfield Street,93063,34.2701448,-118.6798964
5731,East Bloomfield Street,93063,34.2701364,-118.6802313
5739,East Bloomfield Street,93063,34.2701617,-118.6800611
5725,East Bloomfield Street,93063,34.2701459,-118.6803927
5717,East Bloomfield Street,93063,34.2701617,-118.6805605
5711,East Bloomfield Street,93063,34.2701483,-118.6807281
5703,East Bloomfield Street,93063,34.2701593,-118.6808967
5695,East Bloomfield Street,93063,34.2701470,-118.6810591
5689,East Bloomfield Street,93063,34.2701571,-118.6812287
1771,North Warfield Court,93063,34.2693741,-118.6821097
1726,Stow Street,93063,34.2687721,-118.6824931
5677,East Bloomfield Street,93063,34.2701380,-118.6813915
5665,East Bloomfield Street,93063,34.2701446,-118.6815511
5659,East Bloomfield Street,93063,34.2701454,-118.6817201
5647,East Bloomfield Street,93063,34.2701437,-118.6818865
5635,East Bloomfield Street,93063,34.2701456,-118.6820505
5629,East Bloomfield Street,93063,34.2701273,-118.6822131
5617,East Bloomfield Street,93063,34.2701468,-118.6823830
5605,East Bloomfield Street,93063,34.2701609,-118.6825429
1629,North Wychoff Avenue,93063,34.2681334,-118.6795684
1651,North Wychoff Avenue,93063,34.2682705,-118.6795737
1667,North Wychoff Avenue,93063,34.2684086,-118.6795853
1689,North Wychoff Avenue,93063,34.2685453,-118.6795671
1709,North Wychoff Avenue,93063,34.2686844,-118.6795560
1725,North Wychoff Avenue,93063,34.2688200,-118.6795690
1743,North Wychoff Avenue,93063,34.2689594,-118.6795843
1759,North Wychoff Avenue,93063,34.2690952,-118.6795882
1791,North Wychoff Avenue,93063,34.2693714,-118.6795838
1811,North Wychoff Avenue,93063,34.2695085,-118.6795676
5754,East Bloomfield Street,93063,34.2697199,-118.6795028
5752,East Bloomfield Street,93063,34.2697038,-118.6796712
5744,East Bloomfield Street,93063,34.2697069,-118.6798323
5738,East Bloomfield Street,93063,34.2697192,-118.6799979
5730,East Bloomfield Street,93063,34.2697207,-118.6801625
5724,East Bloomfield Street,93063,34.2697090,-118.6803327
5716,East Bloomfield Street,93063,34.2697198,-118.6804951
5710,East Bloomfield Street,93063,34.2697336,-118.6806605
5702,East Bloomfield Street,93063,34.2697214,-118.6808236
1786,North Damon Street,93063,34.2695067,-118.6807637
1773,North Damon Street,93063,34.2693711,-118.6807622
1762,North Damon Street,93063,34.2692211,-118.6807618
1756,North Damon Street,93063,34.2690761,-118.6807636
1744,North Damon Street,93063,34.2689409,-118.6807535
1732,North Damon Street,93063,34.2687829,-118.6807632
1726,North Damon Street,93063,34.2686368,-118.6807637
1714,North Damon Street,93063,34.2684950,-118.6807563
1703,North Townley Circle,93063,34.2683777,-118.6803988
1715,North Townley Circle,93063,34.2685119,-118.6803833
1727,North Townley Circle,93063,34.2686511,-118.6804025
1733,North Townley Circle,93063,34.2687893,-118.6803985
1745,North Townley Circle,93063,34.2689264,-118.6803959
1757,North Townley Circle,93063,34.2690650,-118.6803980
1763,North Townley Circle,93063,34.2692007,-118.6804030
1775,North Townley Circle,93063,34.2693398,-118.6804407
1787,North Townley Circle,93063,34.2695101,-118.6804196
1794,North Townley Circle,93063,34.2695113,-118.6799325
1788,North Townley Circle,93063,34.2693410,-118.6798976
1776,North Townley Circle,93063,34.2692021,-118.6799301
1764,North Townley Circle,93063,34.2690656,-118.6799274
1777,North Wychoff Avenue,93063,34.2692340,-118.6795727
1758,North Townley Circle,93063,34.2689294,-118.6799310
1746,North Townley Circle,93063,34.2687902,-118.6799219
1734,North Townley Circle,93063,34.2686539,-118.6799318
1728,North Townley Circle,93063,34.2685164,-118.6799296
1716,North Townley Circle,93063,34.2683779,-118.6799301
1710,Love Circle,93063,34.2687510,-118.6712289
1722,Love Circle,93063,34.2688824,-118.6709296
1734,Love Circle,93063,34.2690205,-118.6707795
1756,Love Circle,93063,34.2691525,-118.6706458
1772,Love Circle,93063,34.2692994,-118.6705221
1788,Love Circle,93063,34.2695137,-118.6703828
1794,Love Circle,93063,34.2697180,-118.6703076
1814,Love Circle,93063,34.2699378,-118.6703157
1836,Love Circle,93063,34.2701114,-118.6703304
1858,Love Circle,93063,34.2703270,-118.6703162
1874,Love Circle,93063,34.2704967,-118.6703050
1896,Love Circle,93063,34.2707098,-118.6703213
1916,Love Circle,93063,34.2708813,-118.6703339
1960,Love Circle,93063,34.2712712,-118.6703151
1922,Love Circle,93063,34.2714675,-118.6703193
6146,Al Way,93063,34.2714255,-118.6708353
6134,Al Way,93063,34.2714155,-118.6710610
6128,Al Way,93063,34.2714154,-118.6712651
6116,Al Way,93063,34.2714334,-118.6715258
6104,Al Way,93063,34.2714191,-118.6717342
1935,Edgewood Drive,93063,34.2710290,-118.6716931
1913,Edgewood Drive,93063,34.2708574,-118.6716864
1893,Edgewood Drive,93063,34.2706489,-118.6716951
1855,Edgewood Drive,93063,34.2702565,-118.6716916
1936,Edgewood Drive,93063,34.2710287,-118.6711930
1937,Love Circle,93063,34.2710292,-118.6708449
1914,Edgewood Drive,93063,34.2708362,-118.6711898
1894,Edgewood Drive,93063,34.2706646,-118.6711909
1895,Love Circle,93063,34.2706638,-118.6708292
1873,Love Circle,93063,34.2704471,-118.6708365
1871,Edgewood Drive,93063,34.2704665,-118.6716599
1872,Edgewood Drive,93063,34.2704520,-118.6711716
1856,Edgewood Drive,93063,34.2702746,-118.6711758
1857,Love Circle,93063,34.2702751,-118.6708570
1835,Love Circle,93063,34.2700662,-118.6708448
1834,Edgewood Drive,93063,34.2700616,-118.6711763
1812,Edgewood Drive,93063,34.2698941,-118.6711883
1813,Love Circle,93063,34.2698911,-118.6708254
1793,Love Circle,93063,34.2696542,-118.6708531
1792,Edgewood Drive,93063,34.2697002,-118.6711904
1770,Edgewood Drive,93063,34.2695092,-118.6711685
1754,Edgewood Drive,93063,34.2692733,-118.6711753
1938,Love Circle,93063,34.2710889,-118.6703171
1915,Love Circle,93063,34.2708361,-118.6708188
6143,Hope Street,93063,34.2683355,-118.6707051
6159,Hope Street,93063,34.2685199,-118.6705695
6142,Hope Street,93063,34.2681297,-118.6706458
6158,Hope Street,93063,34.2679962,-118.6704455
6174,Hope Street,93063,34.2679344,-118.6702074
6190,Hope Street,93063,34.2679080,-118.6699488
1589,Christine Avenue,93063,34.2677120,-118.6700280
1577,Christine Avenue,93063,34.2675471,-118.6699370
6175,Hope Street,93063,34.2685811,-118.6703085
1565,Christine Avenue,93063,34.2673692,-118.6698785
1463,Christine Avenue,93063,34.2655446,-118.6686460
1471,Christine Avenue,93063,34.2657601,-118.6687706
1487,Christine Avenue,93063,34.2659275,-118.6689387
1495,Christine Avenue,93063,34.2660467,-118.6691459
1503,Christine Avenue,93063,34.2662190,-118.6692619
1515,Christine Avenue,93063,34.2663544,-118.6694547
1521,Christine Avenue,93063,34.2665455,-118.6695403
1539,Christine Avenue,93063,34.2667446,-118.6696273
1547,Christine Avenue,93063,34.2669265,-118.6697574
6524,Stoney View Lane,93063,34.2655678,-118.6628731
6508,Stoney View Lane,93063,34.2655637,-118.6632416
6474,Stoney View Lane,93063,34.2656316,-118.6640139
6490,Stoney View Lane,93063,34.2656033,-118.6636471
6509,Stoney View Lane,93063,34.2658922,-118.6632752
6491,Stoney View Lane,93063,34.2659260,-118.6636650
6475,Stoney View Lane,93063,34.2659586,-118.6640450
6490,Twin Circle Lane,93063,34.2663580,-118.6636595
6474,Twin Circle Lane,93063,34.2663272,-118.6640394
6508,Twin Circle Lane,93063,34.2663918,-118.6632699
6509,Twin Circle Lane,93063,34.2667207,-118.6632405
6491,Twin Circle Lane,93063,34.2666814,-118.6636462
6468,Twin Circle Lane,93063,34.2666475,-118.6640122
6442,Gateway Drive,93063,34.2668708,-118.6647640
6458,Gateway Drive,93063,34.2665424,-118.6647785
6459,Stoney View Lane,93063,34.2658907,-118.6647811
6453,Stoney View Lane,93063,34.2655641,-118.6647681
1458,Dorothy Avenue,93063,34.2654815,-118.6652471
1470,Dorothy Avenue,93063,34.2656852,-118.6652366
1482,Dorothy Avenue,93063,34.2658921,-118.6652430
1494,Dorothy Avenue,93063,34.2661148,-118.6652038
1506,Dorothy Avenue,93063,34.2662984,-118.6652041
1518,Dorothy Avenue,93063,34.2665071,-118.6652213
1528,Dorothy Avenue,93063,34.2667311,-118.6652010
1540,Dorothy Avenue,93063,34.2669334,-118.6652293
6752,Cowboy Court,93063,34.2657302,-118.6583031
6719,Cowboy Street,93063,34.2663767,-118.6587960
1629,Gold Dust Court,93063,34.2663842,-118.6609340
1614,Gold Dust Court,93063,34.2659668,-118.6610831
1733,Bonanza Avenue,93063,34.2681753,-118.6616420
1755,Bonanza Avenue,93063,34.2687325,-118.6616150
1763,Bonanza Avenue,93063,34.2689644,-118.6616575
1744,Bonanza Avenue,93063,34.2683461,-118.6611472
1739,Empty Saddle Avenue,93063,34.2682301,-118.6607726
1757,Empty Saddle Avenue,93063,34.2689233,-118.6607987
1763,Empty Saddle Avenue,93063,34.2690432,-118.6608014
6689,Sasparilla Street,93063,34.2693812,-118.6592321
6719,Sasparilla Street,93063,34.2693793,-118.6585681
6686,Sasparilla Street,93063,34.2689714,-118.6592981
6646,Sasparilla Street,93063,34.2689784,-118.6599322
1745,Chaps Court,93063,34.2683911,-118.6599235
1546,Flowerdale Street,93063,34.2672185,-118.6634553
1538,Flowerdale Street,93063,34.2672119,-118.6636662
1530,Flowerdale Street,93063,34.2671988,-118.6639354
1547,Gateway Drive,93063,34.2672002,-118.6643676
1559,Gateway Drive,93063,34.2672049,-118.6646335
1565,Gateway Drive,93063,34.2672995,-118.6648007
1577,Gateway Drive,93063,34.2675483,-118.6648915
1589,Gateway Drive,93063,34.2677247,-118.6648671
1597,Gateway Drive,93063,34.2679482,-118.6648901
1596,Dorothy Avenue,93063,34.2679617,-118.6651940
1588,Dorothy Avenue,93063,34.2677555,-118.6652009
1576,Dorothy Avenue,93063,34.2675529,-118.6652170
1564,Dorothy Avenue,93063,34.2673653,-118.6652007
1558,Dorothy Avenue,93063,34.2671674,-118.6652158
1517,Gateway Drive,93063,34.2676201,-118.6644149
1525,Gateway Drive,93063,34.2676343,-118.6641705
1531,Gateway Drive,93063,34.2676428,-118.6639531
1539,Flowerdale Street,93063,34.2676225,-118.6637346
1545,Flowerdale Street,93063,34.2676563,-118.6634952
1575,Flowerdale Street,93063,34.2677624,-118.6632788
1631,Flowerdale Street,93063,34.2682011,-118.6629520
6495,Hope Street,93063,34.2681834,-118.6633701
6488,Hope Street,93063,34.2679591,-118.6634742
6476,Hope Street,93063,34.2678875,-118.6637165
6464,Hope Street,93063,34.2679453,-118.6639412
6458,Hope Street,93063,34.2679409,-118.6641781
6466,Hope Street,93063,34.2679365,-118.6644162
6489,Hope Street,93063,34.2683636,-118.6634393
6472,Jimilyn Street,93063,34.2686251,-118.6633825
6462,Jimilyn Street,93063,34.2686155,-118.6636161
6477,Hope Street,93063,34.2683860,-118.6637439
6465,Hope Street,93063,34.2683366,-118.6639493
6459,Hope Street,93063,34.2683416,-118.6642032
6459,Hazel Circle,93063,34.2714194,-118.6632962
6455,Hazel Circle,93063,34.2714159,-118.6635409
6451,Hazel Circle,93063,34.2714030,-118.6637814
6447,Hazel Circle,93063,34.2714184,-118.6640012
6443,Hazel Circle,93063,34.2714475,-118.6642409
6439,Hazel Circle,93063,34.2714397,-118.6644642
6435,Hazel Circle,93063,34.2714339,-118.6647144
6431,Hazel Circle,93063,34.2714243,-118.6649432
6243,Hazel Circle,93063,34.2713358,-118.6653908
6419,Hazel Circle,93063,34.2710648,-118.6653707
1932,Alscot Avenue,93063,34.2708826,-118.6654488
1910,Alscot Avenue,93063,34.2706802,-118.6654196
6411,Hazel Circle,93063,34.2706745,-118.6650909
6415,Hazel Circle,93063,34.2708966,-118.6650804
6436,Hazel Circle,93063,34.2709825,-118.6646224
6440,Hazel Circle,93063,34.2709918,-118.6643915
6444,Hazel Circle,93063,34.2709939,-118.6641681
6448,Hazel Circle,93063,34.2709983,-118.6639244
6456,Hazel Circle,93063,34.2709743,-118.6634687
6452,Hazel Circle,93063,34.2709815,-118.6636999
6449,Danette Street,93063,34.2706959,-118.6634487
6455,Danette Street,93063,34.2705842,-118.6633078
6465,Danette Street,93063,34.2702279,-118.6632463
6445,Danette Street,93063,34.2707221,-118.6636904
6439,Danette Street,93063,34.2707101,-118.6639229
6435,Danette Street,93063,34.2707111,-118.6641426
6429,Danette Street,93063,34.2707218,-118.6643936
6425,Danette Street,93063,34.2707091,-118.6646166
1682,Flowerdale Street,93063,34.2687795,-118.6624390
6473,Jimilyn Street,93063,34.2690466,-118.6633486
6443,Jimilyn Street,93063,34.2690395,-118.6635529
6446,Melia Street,93063,34.2691096,-118.6638946
6452,Melia Street,93063,34.2692319,-118.6637678
6460,Melia Street,93063,34.2693851,-118.6636030
6474,Melia Street,93063,34.2695865,-118.6632517
1559,Christine Avenue,93063,34.2671643,-118.6697626
1613,Christine Avenue,93063,34.2683009,-118.6699774
1639,Christine Avenue,93063,34.2684942,-118.6699780
1661,Christine Avenue,93063,34.2686887,-118.6699778
1687,Christine Avenue,93063,34.2688814,-118.6699763
1717,Christine Avenue,93063,34.2690760,-118.6698568
1751,Christine Avenue,93063,34.2692589,-118.6697831
1785,Christine Avenue,93063,34.2694581,-118.6696994
1813,Christine Avenue,93063,34.2696496,-118.6696970
1839,Christine Avenue,93063,34.2698380,-118.6696891
1849,Christine Avenue,93063,34.2700246,-118.6696800
1861,Christine Avenue,93063,34.2702396,-118.6696486
1887,Christine Avenue,93063,34.2704570,-118.6696615
1907,Christine Avenue,93063,34.2706691,-118.6696798
1931,Christine Avenue,93063,34.2708831,-118.6696594
1953,Christine Avenue,93063,34.2710685,-118.6696741
1969,Christine Avenue,93063,34.2712488,-118.6696703
1991,Christine Avenue,93063,34.2714728,-118.6697051
1990,Christine Avenue,93063,34.2714771,-118.6691517
6243,Jennifer Court,93063,34.2713819,-118.6687472
1968,Christine Avenue,93063,34.2712772,-118.6691665
6231,Jennifer Court,93063,34.2711727,-118.6688276
1952,Christine Avenue,93063,34.2710785,-118.6691306
1930,Christine Avenue,93063,34.2708904,-118.6691659
1906,Christine Avenue,93063,34.2706920,-118.6691277
1886,Christine Avenue,93063,34.2704803,-118.6691402
6231,Cory Street,93063,34.2705303,-118.6688416
6255,Cory Street,93063,34.2706144,-118.6684112
6267,Cory Street,93063,34.2706796,-118.6682293
6243,Cory Street,93063,34.2705217,-118.6686378
6242,Jennifer Court,93063,34.2709332,-118.6687897
6254,Jennifer Court,93063,34.2708842,-118.6685187
6266,Jennifer Court,93063,34.2709757,-118.6682641
6279,Cory Street,93063,34.2708874,-118.6680654
6291,Cory Street,93063,34.2710014,-118.6679066
6255,Jennifer Court,93063,34.2714201,-118.6684989
6267,Jennifer Court,93063,34.2714041,-118.6682589
6317,Cory Street,93063,34.2713012,-118.6673450
6325,Cory Street,93063,34.2713768,-118.6671293
6337,Cory Street,93063,34.2714001,-118.6668837
6349,Cory Street,93063,34.2713864,-118.6666797
6361,Cory Street,93063,34.2713729,-118.6664431
6373,Cory Street,93063,34.2713862,-118.6662165
6385,Cory Street,93063,34.2713911,-118.6659600
6292,Cory Street,93063,34.2705197,-118.6676722
6304,Cory Street,93063,34.2706545,-118.6675643
6316,Cory Street,93063,34.2707873,-118.6673668
6324,Cory Street,93063,34.2708776,-118.6671581
6336,Cory Street,93063,34.2709480,-118.6669718
6348,Cory Street,93063,34.2709382,-118.6667192
6360,Cory Street,93063,34.2709470,-118.6664667
6372,Cory Street,93063,34.2709533,-118.6662581
1955,Alscot Avenue,93063,34.2710004,-118.6659648
1929,Alscot Avenue,93063,34.2707857,-118.6659642
1893,Alscot Avenue,93063,34.2706050,-118.6659574
1851,Belhaven Avenue,93063,34.2702367,-118.6617163
6470,Danette Street,93063,34.2698442,-118.6637250
6466,Danette Street,93063,34.2700322,-118.6638041
6446,Danette Street,93063,34.2702835,-118.6637342
6438,Danette Street,93063,34.2702802,-118.6639747
6430,Danette Street,93063,34.2702784,-118.6642049
6426,Danette Street,93063,34.2702801,-118.6644553
6418,Danette Street,93063,34.2702694,-118.6646679
6412,Danette Street,93063,34.2702814,-118.6648985
6406,Danette Street,93063,34.2702751,-118.6651208
1860,Alscot Avenue,93063,34.2702978,-118.6654194
1840,Alscot Avenue,93063,34.2701170,-118.6653642
1820,Alscot Avenue,93063,34.2699338,-118.6653239
1802,Alscot Avenue,93063,34.2697485,-118.6653205
6429,Cynthia Street,93063,34.2699157,-118.6650336
6437,Cynthia Street,93063,34.2700102,-118.6648240
6445,Cynthia Street,93063,34.2700160,-118.6645618
6448,Cynthia Street,93063,34.2698393,-118.6644200
6453,Melia Street,93063,34.2695747,-118.6641416
6463,Melia Street,93063,34.2696915,-118.6639871
6440,Cynthia Street,93063,34.2696001,-118.6644891
6443,Melia Street,93063,34.2693974,-118.6643220
6433,Melia Street,93063,34.2692869,-118.6644828
6432,Cynthia Street,93063,34.2694846,-118.6647088
6424,Cynthia Street,93063,34.2694512,-118.6649104
6423,Melia Street,93063,34.2691694,-118.6646865
6415,Melia Street,93063,34.2690992,-118.6648598
6407,Melia Street,93063,34.2690707,-118.6651245
6452,Jimilyn Street,93063,34.2686385,-118.6638414
6442,Jimilyn Street,93063,34.2686524,-118.6640647
6432,Melia Street,93063,34.2688422,-118.6642710
6424,Melia Street,93063,34.2687301,-118.6644582
6418,Melia Street,93063,34.2686932,-118.6646596
6435,Hope Street,93063,34.2683489,-118.6646406
6447,Hope Street,93063,34.2683493,-118.6644496
6429,Hope Street,93063,34.2683423,-118.6648819
6412,Melia Street,93063,34.2686582,-118.6649077
6406,Melia Street,93063,34.2686461,-118.6651322
6400,Melia Street,93063,34.2686351,-118.6653648
6386,Melia Street,93063,34.2686810,-118.6656044
6374,Melia Street,93063,34.2686481,-118.6658240
6336,Melia Street,93063,34.2686564,-118.6660540
6354,Melia Street,93063,34.2686542,-118.6662801
6355,Hope Street,93063,34.2683642,-118.6662771
6357,Hope Street,93063,34.2683282,-118.6660587
6379,Hope Street,93063,34.2683318,-118.6658052
6391,Hope Street,93063,34.2683370,-118.6655768
6405,Hope Street,93063,34.2683385,-118.6653650
6417,Hope Street,93063,34.2683408,-118.6651293
6317,Raylene Court,93063,34.2704920,-118.6673564
6329,Raylene Court,93063,34.2705040,-118.6671000
6335,Raylene Court,93063,34.2705066,-118.6668959
6347,Raylene Court,93063,34.2706214,-118.6667087
6359,Raylene Court,93063,34.2706073,-118.6664748
6365,Raylene Court,93063,34.2704903,-118.6662875
6364,Raylene Court,93063,34.2702686,-118.6662828
1871,Alscot Avenue,93063,34.2704138,-118.6659710
1855,Alscot Avenue,93063,34.2701983,-118.6659643
1831,Alscot Avenue,93063,34.2700288,-118.6659099
6375,Cynthia Street,93063,34.2697810,-118.6658116
6365,Cynthia Street,93063,34.2697920,-118.6660616
6355,Cynthia Street,93063,34.2697808,-118.6662779
6343,Cynthia Street,93063,34.2697954,-118.6665136
6331,Cynthia Street,93063,34.2697812,-118.6667496
6319,Cynthia Street,93063,34.2698014,-118.6669848
6334,Raylene Court,93063,34.2700921,-118.6668821
6346,Raylene Court,93063,34.2700643,-118.6666551
6358,Raylene Court,93063,34.2701102,-118.6664090
6328,Raylene Court,93063,34.2700772,-118.6671302
6316,Raylene Court,93063,34.2700684,-118.6673514
6386,Raylene Court,93063,34.2700962,-118.6678264
6304,Raylene Court,93063,34.2700888,-118.6675871
6272,Cory Street,93063,34.2702347,-118.6680477
6260,Cory Street,93063,34.2701400,-118.6682314
6248,Cory Street,93063,34.2701123,-118.6684567
6236,Cory Street,93063,34.2700641,-118.6687085
6216,Cory Street,93063,34.2700787,-118.6691699
6207,Cynthia Street,93063,34.2697821,-118.6691303
6219,Cynthia Street,93063,34.2697990,-118.6688825
6231,Cynthia Street,93063,34.2697622,-118.6686470
6255,Cynthia Street,93063,34.2697915,-118.6681683
6269,Cynthia Street,93063,34.2698009,-118.6679305
6243,Cynthia Street,93063,34.2697896,-118.6684207
6379,Cynthia Street,93063,34.2697618,-118.6676915
6307,Cynthia Street,93063,34.2697818,-118.6672303
6291,Cynthia Street,93063,34.2697946,-118.6674555
6224,Cory Street,93063,34.2700741,-118.6689117
6206,Cynthia Street,93063,34.2693785,-118.6691435
6205,Melia Street,93063,34.2690887,-118.6692782
6217,Melia Street,93063,34.2690798,-118.6690579
6218,Cynthia Street,93063,34.2693806,-118.6689012
6227,Melia Street,93063,34.2690955,-118.6688302
6230,Cynthia Street,93063,34.2693859,-118.6686715
6239,Melia Street,93063,34.2690761,-118.6685986
6249,Melia Street,93063,34.2690955,-118.6683529
6242,Cynthia Street,93063,34.2693614,-118.6684287
6254,Cynthia Street,93063,34.2693858,-118.6681936
6261,Melia Street,93063,34.2690600,-118.6681368
6271,Melia Street,93063,34.2690776,-118.6679027
6266,Cynthia Street,93063,34.2693612,-118.6679499
6278,Cynthia Street,93063,34.2693953,-118.6677174
6290,Cynthia Street,93063,34.2693521,-118.6674675
6306,Cynthia Street,93063,34.2693965,-118.6672344
6318,Cynthia Street,93063,34.2693608,-118.6669973
6330,Cynthia Street,93063,34.2693684,-118.6667519
6342,Cynthia Street,93063,34.2693633,-118.6665199
6354,Cynthia Street,93063,34.2693951,-118.6662814
6293,Melia Street,93063,34.2690937,-118.6674379
6283,Melia Street,93063,34.2690915,-118.6676699
6307,Melia Street,93063,34.2690783,-118.6672031
6319,Melia Street,93063,34.2690905,-118.6669767
6331,Melia Street,93063,34.2690556,-118.6667460
6343,Melia Street,93063,34.2691027,-118.6665124
6355,Melia Street,93063,34.2690940,-118.6662807
6365,Melia Street,93063,34.2691024,-118.6660393
6375,Melia Street,93063,34.2690633,-118.6658052
6366,Cynthia Street,93063,34.2693831,-118.6660476
6374,Cynthia Street,93063,34.2693674,-118.6658345
6400,Cynthia Street,93063,34.2693709,-118.6653588
6386,Cynthia Street,93063,34.2693657,-118.6655732
6387,Melia Street,93063,34.2690786,-118.6655892
6401,Melia Street,93063,34.2690826,-118.6653650
6412,Cynthia Street,93063,34.2693806,-118.6651178
1685,Kay Avenue,93063,34.2686992,-118.6667236
1651,Kay Avenue,93063,34.2685086,-118.6667646
1617,Kay Avenue,93063,34.2683096,-118.6667637
6319,Hope Street,93063,34.2683514,-118.6670526
6318,Melia Street,93063,34.2686955,-118.6670458
6306,Melia Street,93063,34.2686413,-118.6672870
6307,Hope Street,93063,34.2683649,-118.6672930
6293,Hope Street,93063,34.2683471,-118.6675248
6282,Melia Street,93063,34.2686598,-118.6677680
6283,Hope Street,93063,34.2683607,-118.6677625
6270,Melia Street,93063,34.2686729,-118.6680025
6271,Hope Street,93063,34.2683481,-118.6679961
6261,Hope Street,93063,34.2683265,-118.6682395
6260,Melia Street,93063,34.2686776,-118.6682374
6248,Melia Street,93063,34.2686760,-118.6684828
6249,Hope Street,93063,34.2683667,-118.6684794
6239,Hope Street,93063,34.2683488,-118.6687102
6238,Melia Street,93063,34.2686599,-118.6687297
6217,Hope Street,93063,34.2683594,-118.6691847
6205,Hope Street,93063,34.2683400,-118.6694336
6204,Melia Street,93063,34.2686822,-118.6694413
6216,Melia Street,93063,34.2686632,-118.6691928
6226,Melia Street,93063,34.2686977,-118.6689562
6292,Melia Street,93063,34.2686946,-118.6675135
6204,Hope Street,93063,34.2679170,-118.6694499
6216,Hope Street,93063,34.2679295,-118.6692053
6227,Hope Street,93063,34.2683636,-118.6689521
6226,Hope Street,93063,34.2679336,-118.6689712
6238,Hope Street,93063,34.2679089,-118.6687346
6252,Dana Avenue,93063,34.2663403,-118.6686251
6264,Dana Avenue,93063,34.2664452,-118.6684566
6276,Dana Avenue,93063,34.2664721,-118.6682347
6288,Dana Avenue,93063,34.2664931,-118.6680177
6283,Caroline Avenue,93063,34.2661923,-118.6680652
6271,Caroline Avenue,93063,34.2660674,-118.6683512
6272,Caroline Avenue,93063,34.2657436,-118.6681179
6271,Katherine Road,93063,34.2655057,-118.6680346
6293,Katherine Road,93063,34.2655076,-118.6677720
6305,Katherine Road,93063,34.2654699,-118.6675566
6294,Caroline Avenue,93063,34.2658238,-118.6678094
6306,Caroline Avenue,93063,34.2657765,-118.6675451
6317,Katherine Road,93063,34.2654927,-118.6673131
6321,Katherine Road,93063,34.2654956,-118.6670871
6333,Katherine Road,93063,34.2654869,-118.6668568
6345,Katherine Road,93063,34.2655059,-118.6666379
6357,Katherine Road,93063,34.2654711,-118.6663918
6361,Katherine Road,93063,34.2654756,-118.6661628
6395,Katherine Road,93063,34.2654844,-118.6657037
6383,Katherine Road,93063,34.2655098,-118.6659405
6396,Caroline Avenue,93063,34.2657806,-118.6657028
6384,Caroline Avenue,93063,34.2657943,-118.6659321
6362,Caroline Avenue,93063,34.2657857,-118.6661725
6358,Caroline Avenue,93063,34.2658023,-118.6663930
6346,Caroline Avenue,93063,34.2657781,-118.6666240
6334,Caroline Avenue,93063,34.2658002,-118.6668482
6322,Caroline Avenue,93063,34.2658161,-118.6670916
6318,Caroline Avenue,93063,34.2657921,-118.6673240
6295,Caroline Avenue,93063,34.2662092,-118.6678333
6309,Caroline Avenue,93063,34.2661981,-118.6675750
6311,Caroline Avenue,93063,34.2662056,-118.6673293
6323,Caroline Avenue,93063,34.2662061,-118.6671031
6335,Caroline Avenue,93063,34.2661997,-118.6668581
6351,Caroline Avenue,93063,34.2662174,-118.6666255
6361,Caroline Avenue,93063,34.2662037,-118.6663956
6373,Caroline Avenue,93063,34.2661878,-118.6661646
6385,Caroline Avenue,93063,34.2662036,-118.6659406
6399,Caroline Avenue,93063,34.2662019,-118.6657043
6394,Dana Avenue,93063,34.2665390,-118.6656942
6382,Dana Avenue,93063,34.2664961,-118.6659387
6368,Dana Avenue,93063,34.2665327,-118.6661660
6356,Dana Avenue,93063,34.2665139,-118.6663866
6344,Dana Avenue,93063,34.2664949,-118.6666357
6292,Dana Avenue,93063,34.2665166,-118.6677830
6304,Dana Avenue,93063,34.2665160,-118.6675496
6316,Dana Avenue,93063,34.2665142,-118.6673096
6328,Dana Avenue,93063,34.2665172,-118.6670846
6332,Dana Avenue,93063,34.2665121,-118.6668591
1518,Christine Avenue,93063,34.2666292,-118.6689771
1530,Christine Avenue,93063,34.2668040,-118.6690822
1542,Christine Avenue,93063,34.2669810,-118.6691298
6206,Marsha Avenue,93063,34.2672126,-118.6692218
6218,Marsha Avenue,93063,34.2672474,-118.6689717
6263,Dana Avenue,93063,34.2668199,-118.6687274
6275,Dana Avenue,93063,34.2668647,-118.6684946
6230,Marsha Avenue,93063,34.2672270,-118.6687354
6242,Marsha Avenue,93063,34.2672266,-118.6685061
6279,Dana Avenue,93063,34.2669249,-118.6682455
6254,Marsha Avenue,93063,34.2672270,-118.6682615
6266,Marsha Avenue,93063,34.2672330,-118.6680352
6289,Dana Avenue,93063,34.2669240,-118.6679949
6291,Dana Avenue,93063,34.2669318,-118.6677703
6205,Marsha Avenue,93063,34.2676318,-118.6694179
6217,Marsha Avenue,93063,34.2676477,-118.6691729
6227,Marsha Avenue,93063,34.2676477,-118.6689390
6248,Hope Street,93063,34.2679244,-118.6685076
6239,Marsha Avenue,93063,34.2676288,-118.6687110
6249,Marsha Avenue,93063,34.2676526,-118.6684792
6261,Marsha Avenue,93063,34.2676106,-118.6682429
6260,Hope Street,93063,34.2679170,-118.6682725
6270,Hope Street,93063,34.2679223,-118.6680435
6271,Marsha Avenue,93063,34.2676431,-118.6680140
6283,Marsha Avenue,93063,34.2676224,-118.6677801
6293,Marsha Avenue,93063,34.2676406,-118.6675523
6282,Hope Street,93063,34.2679290,-118.6678098
6292,Hope Street,93063,34.2679287,-118.6675810
6306,Hope Street,93063,34.2679079,-118.6673451
6318,Hope Street,93063,34.2679481,-118.6671152
6330,Hope Street,93063,34.2679046,-118.6668787
6342,Hope Street,93063,34.2679202,-118.6666516
6354,Hope Street,93063,34.2679290,-118.6664045
6366,Gateway Drive,93063,34.2679474,-118.6661567
6378,Gateway Drive,93063,34.2679272,-118.6659128
6390,Hope Street,93063,34.2679270,-118.6656838
6391,Marsha Avenue,93063,34.2676383,-118.6656742
6379,Marsha Avenue,93063,34.2676052,-118.6659083
6367,Marsha Avenue,93063,34.2676414,-118.6661473
6355,Marsha Avenue,93063,34.2676089,-118.6663821
6343,Marsha Avenue,93063,34.2676381,-118.6666238
6331,Marsha Avenue,93063,34.2676251,-118.6668534
6319,Marsha Avenue,93063,34.2676388,-118.6670870
6307,Marsha Avenue,93063,34.2676430,-118.6673172
6278,Marsha Avenue,93063,34.2672065,-118.6677918
6290,Marsha Avenue,93063,34.2672103,-118.6675614
6303,Dana Avenue,93063,34.2669070,-118.6675376
6315,Dana Avenue,93063,34.2669178,-118.6673000
6318,Marsha Avenue,93063,34.2672441,-118.6670896
6327,Dana Avenue,93063,34.2669325,-118.6670841
6330,Marsha Avenue,93063,34.2672086,-118.6668522
6342,Marsha Avenue,93063,34.2672373,-118.6666214
6354,Marsha Avenue,93063,34.2672046,-118.6663846
6366,Marsha Avenue,93063,34.2672417,-118.6661520
6378,Marsha Avenue,93063,34.2672075,-118.6659188
6390,Marsha Avenue,93063,34.2672191,-118.6656857
6399,Dana Avenue,93063,34.2669292,-118.6656974
6387,Dana Avenue,93063,34.2669128,-118.6659092
6375,Dana Avenue,93063,34.2669042,-118.6661438
6363,Dana Avenue,93063,34.2669355,-118.6663862
6351,Dana Avenue,93063,34.2669157,-118.6665874
6339,Dana Avenue,93063,34.2669240,-118.6668397
6677,Charing Street,93063,34.2707047,-118.6591409
2021,Belhaven Avenue,93063,34.2724470,-118.6617129
2149,Belhaven Avenue,93063,34.2750106,-118.6616810
2148,Belhaven Avenue,93063,34.2750115,-118.6611817
2150,North Ardenwood Avenue,93063,34.2750306,-118.6598030
6694,North Ardenwood Court,93063,34.2750918,-118.6591142
6693,North Ardenwood Court,93063,34.2748967,-118.6585008
2108,North Ardenwood Avenue,93063,34.2746199,-118.6585908
2078,North Ardenwood Avenue,93063,34.2738469,-118.6580156
2077,North Ardenwood Avenue,93063,34.2737731,-118.6585537
2083,North Ardenwood Avenue,93063,34.2739239,-118.6585996
2101,North Ardenwood Avenue,93063,34.2741969,-118.6588564
2107,North Ardenwood Avenue,93063,34.2743484,-118.6590355
2140,North Tremont Avenue,93063,34.2745885,-118.6594956
2102,North Tremont Avenue,93063,34.2738859,-118.6594928
2119,North Tremont Avenue,93063,34.2742893,-118.6600037
2127,North Tremont Avenue,93063,34.2744901,-118.6600173
2126,North Swindon Avenue,93063,34.2744729,-118.6603655
2124,Belhaven Avenue,93063,34.2744795,-118.6611903
2104,Belhaven Avenue,93063,34.2741220,-118.6611945
2084,Belhaven Avenue,93063,34.2737700,-118.6612052
2098,North Swindon Avenue,93063,34.2739335,-118.6603291
2086,North Swindon Avenue,93063,34.2737684,-118.6603407
6626,Bernal Street,93063,34.2724939,-118.6603845
6585,Whitewood Street,93063,34.2722221,-118.6610249
6626,Whitewood Street,93063,34.2718098,-118.6603808
6666,Whitewood Street,93063,34.2718015,-118.6597405
6688,Whitewood Street,93063,34.2717884,-118.6595211
6635,Tapley Street,93063,34.2715106,-118.6599499
6718,Whitewood Street,93063,34.2718169,-118.6588850
6730,Whitewood Street,93063,34.2718142,-118.6586701
6709,Tapley Street,93063,34.2716070,-118.6583986
6725,Tapley Street,93063,34.2716193,-118.6581920
6735,Whitewood Street,93063,34.2722766,-118.6585677
5763,Velvet Oak Street,93063,34.2624309,-118.6795985
5300,East Los Angeles Avenue,93063,34.2712377,-118.6881432
"1934,1934",Suntree Lane,93063,34.2711746,-118.6901806
"1920,1920",Suntree Lane,93063,34.2709716,-118.6901961
"1906,1906",Suntree Lane,93063,34.2707670,-118.6901993
1892,Suntree Lane,93063,34.2702596,-118.6901994
1886,Suntree Lane,93063,34.2701513,-118.6901982
1880,Suntree Lane,93063,34.2700422,-118.6901959
1874,Suntree Lane,93063,34.2699346,-118.6901997
1868,Suntree Lane,93063,34.2698244,-118.6901971
1862,Suntree Lane,93063,34.2697171,-118.6901971
1856,Suntree Lane,93063,34.2696020,-118.6901783
"1846,1850",Suntree Lane,93063,34.2694463,-118.6902050
"1836,1840",Suntree Lane,93063,34.2692422,-118.6902335
1828,Suntree Lane,93063,34.2692770,-118.6905699
1824,Suntree Lane,93063,34.2692555,-118.6907012
1820,Suntree Lane,93063,34.2692398,-118.6908268
1816,Suntree Lane,93063,34.2692170,-118.6909570
"1804,1808",Suntree Lane,93063,34.2691758,-118.6911718
1809,Suntree Lane,93063,34.2695181,-118.6911325
1815,Suntree Lane,93063,34.2695818,-118.6909998
1819,Suntree Lane,93063,34.2695816,-118.6908651
1855,Suntree Lane,93063,34.2696026,-118.6906197
"1991,1991",Suntree Lane,93063,34.2710104,-118.6911243
"1963,1963",Suntree Lane,93063,34.2711337,-118.6906350
"1990,1990",Suntree Lane,93063,34.2714153,-118.6911218
"1976,1976",Suntree Lane,93063,34.2714338,-118.6908783
"1962,1962",Suntree Lane,93063,34.2714193,-118.6906335
"1948,1948",Suntree Lane,93063,34.2714339,-118.6903865
"5215,5215",East Diane Street,93063,34.2707095,-118.6911593
"5225,5225",East Diane Street,93063,34.2707345,-118.6908961
"5235,5235",East Diane Street,93063,34.2707474,-118.6906342
5214,East Diane Street,93063,34.2702312,-118.6912511
5218,East Diane Street,93063,34.2702560,-118.6910970
5224,East Diane Street,93063,34.2702589,-118.6909621
5228,East Diane Street,93063,34.2702656,-118.6908342
"1897,1891",Suntree Lane,93063,34.2702960,-118.6905430
1885,Suntree Lane,93063,34.2701448,-118.6905365
1879,Suntree Lane,93063,34.2700367,-118.6905524
1873,Suntree Lane,93063,34.2699283,-118.6905388
1867,Suntree Lane,93063,34.2698193,-118.6905336
1861,Suntree Lane,93063,34.2697086,-118.6905996
"5174,5178",Chamise Court,93063,34.2707937,-118.6919190
"5190,5198",Chamise Court,93063,34.2707925,-118.6916442
"5191,5199",Pine Rose Court,93063,34.2705739,-118.6916456
"5175,5179",Pine Rose Court,93063,34.2705757,-118.6919209
5175,Miners Candle Court,93063,34.2699617,-118.6919447
"5191,5199",Miners Candle Court,93063,34.2699695,-118.6916918
"5190,5198",Mesa Mint Court,93063,34.2689598,-118.6916923
5176,Mesa Mint Court,93063,34.2689628,-118.6919448
1596,Hidden Ranch Drive,93063,34.2675069,-118.6918867
1590,Hidden Ranch Drive,93063,34.2674987,-118.6916803
1582,Hidden Ranch Drive,93063,34.2674494,-118.6914614
1574,Hidden Ranch Drive,93063,34.2673680,-118.6912430
1568,Hidden Ranch Drive,93063,34.2672720,-118.6910552
1556,Hidden Ranch Drive,93063,34.2671650,-118.6908671
1550,Hidden Ranch Drive,93063,34.2670682,-118.6906927
1542,Hidden Ranch Drive,93063,34.2669807,-118.6904943
1534,Hidden Ranch Drive,93063,34.2668852,-118.6902979
1575,Hidden Ranch Drive,93063,34.2670261,-118.6915629
1553,Hidden Ranch Drive,93063,34.2667620,-118.6910101
5227,Huckleberry Oak Street,93063,34.2667313,-118.6914182
1567,Hidden Ranch Drive,93063,34.2669689,-118.6913579
1559,Hidden Ranch Drive,93063,34.2668663,-118.6911861
5224,Huckleberry Oak Street,93063,34.2665589,-118.6919355
5230,Huckleberry Oak Street,93063,34.2664353,-118.6917552
5245,Huckleberry Oak Street,93063,34.2665346,-118.6912411
1545,Hidden Ranch Drive,93063,34.2666554,-118.6908172
1537,Hidden Ranch Drive,93063,34.2665719,-118.6906258
5275,Holly Oak Court,93063,34.2664226,-118.6908689
5253,Huckleberry Oak Street,93063,34.2663410,-118.6911213
5238,Huckleberry Oak Street,93063,34.2662820,-118.6916248
5244,Huckleberry Oak Street,93063,34.2661114,-118.6915212
5252,Huckleberry Oak Street,93063,34.2658973,-118.6914047
5258,Huckleberry Oak Street,93063,34.2657169,-118.6912554
5264,Huckleberry Oak Street,93063,34.2655652,-118.6910908
5268,Huckleberry Oak Street,93063,34.2654427,-118.6909103
5272,Huckleberry Oak Street,93063,34.2653628,-118.6907061
5280,Huckleberry Oak Street,93063,34.2652876,-118.6904904
5286,Huckleberry Oak Street,93063,34.2652052,-118.6902735
5298,Huckleberry Oak Street,93063,34.2652687,-118.6897745
1487,Hidden Ranch Drive,93063,34.2656632,-118.6899662
5287,Huckleberry Oak Street,93063,34.2656665,-118.6903110
5273,Huckleberry Oak Street,93063,34.2657196,-118.6905398
5273,Huckleberry Oak Street,93063,34.2658205,-118.6907293
5265,Huckleberry Oak Street,93063,34.2659787,-118.6908873
5257,Huckleberry Oak Street,93063,34.2661550,-118.6910139
5274,Holly Oak Court,93063,34.2661564,-118.6903219
5290,Holly Oak Court,93063,34.2660220,-118.6904599
1525,Hidden Ranch Drive,93063,34.2664059,-118.6902796
1511,Hidden Ranch Drive,93063,34.2662813,-118.6901174
1497,Hidden Ranch Drive,93063,34.2660806,-118.6900016
1493,Hidden Ranch Drive,93063,34.2658608,-118.6899527
1526,Hidden Ranch Drive,93063,34.2667805,-118.6901038
1518,Hidden Ranch Drive,93063,34.2666841,-118.6899185
1502,Hidden Ranch Drive,93063,34.2664255,-118.6895659
5305,Willow Oak Street,93063,34.2663750,-118.6893086
5313,Willow Oak Street,93063,34.2663214,-118.6890635
1510,Hidden Ranch Drive,93063,34.2665678,-118.6897215
1492,Hidden Ranch Drive,93063,34.2659635,-118.6894424
1486,Hidden Ranch Drive,93063,34.2657699,-118.6894396
1480,Hidden Ranch Drive,93063,34.2655453,-118.6893975
1478,Hidden Ranch Drive,93063,34.2653512,-118.6892408
1477,Hidden Ranch Drive,93063,34.2649428,-118.6895150
1473,Hidden Ranch Drive,93063,34.2648368,-118.6892975
1469,Hidden Ranch Drive,93063,34.2648114,-118.6890584
1457,Hidden Ranch Drive,93063,34.2647580,-118.6884012
1453,Hidden Ranch Drive,93063,34.2646991,-118.6881761
1445,Hidden Ranch Drive,93063,34.2646651,-118.6879483
1476,Hidden Ranch Drive,93063,34.2652375,-118.6890454
1464,Hidden Ranch Drive,93063,34.2651970,-118.6888157
1460,Hidden Ranch Drive,93063,34.2651769,-118.6885880
1456,Hidden Ranch Drive,93063,34.2651532,-118.6883742
1452,Hidden Ranch Drive,93063,34.2651357,-118.6881410
1446,Hidden Ranch Drive,93063,34.2650914,-118.6879178
1442,Hidden Ranch Drive,93063,34.2650875,-118.6876714
1438,Hidden Ranch Drive,93063,34.2651461,-118.6874406
1430,Hidden Ranch Drive,93063,34.2652779,-118.6872333
5376,Willow Oak Street,93063,34.2654359,-118.6875064
5368,Willow Oak Street,93063,34.2654931,-118.6877393
5360,Willow Oak Street,93063,34.2655491,-118.6879627
5352,Willow Oak Street,93063,34.2656251,-118.6881832
5346,Willow Oak Street,93063,34.2656786,-118.6884084
5336,Willow Oak Street,93063,34.2655564,-118.6886656
5328,Willow Oak Street,93063,34.2656418,-118.6890357
5312,Willow Oak Street,93063,34.2659270,-118.6891317
5324,Willow Oak Street,93063,34.2658508,-118.6889110
5334,Willow Oak Street,93063,34.2657618,-118.6886185
5325,Willow Oak Street,93063,34.2662557,-118.6888556
5329,Willow Oak Street,93063,34.2661830,-118.6886584
5337,Willow Oak Street,93063,34.2661150,-118.6884070
5345,Willow Oak Street,93063,34.2660257,-118.6881862
5353,Willow Oak Street,93063,34.2659690,-118.6879815
5361,Willow Oak Street,93063,34.2659113,-118.6877814
5369,Willow Oak Street,93063,34.2658584,-118.6875789
5377,Willow Oak Street,93063,34.2658195,-118.6873755
5385,Willow Oak Street,93063,34.2657350,-118.6871880
5393,Willow Oak Street,93063,34.2655934,-118.6869396
1403,Hidden Ranch Drive,93063,34.2646691,-118.6855259
1407,Hidden Ranch Drive,93063,34.2648086,-118.6857344
1411,Hidden Ranch Drive,93063,34.2649668,-118.6858960
1415,Hidden Ranch Drive,93063,34.2650819,-118.6861143
1421,Hidden Ranch Drive,93063,34.2649154,-118.6863845
1425,Hidden Ranch Drive,93063,34.2647082,-118.6861806
1425,Hidden Ranch Drive,93063,34.2646767,-118.6868063
1429,Hidden Ranch Drive,93063,34.2649745,-118.6868358
1419,Hidden Ranch Drive,93063,34.2651118,-118.6865679
1433,Hidden Ranch Drive,93063,34.2648739,-118.6870277
1426,Hidden Ranch Drive,93063,34.2656548,-118.6866413
1422,Hidden Ranch Drive,93063,34.2655800,-118.6864517
1418,Hidden Ranch Drive,93063,34.2655478,-118.6862302
1414,Hidden Ranch Drive,93063,34.2655130,-118.6860037
1410,Hidden Ranch Drive,93063,34.2654968,-118.6857807
1966,North Ardenwood Avenue,93063,34.2716625,-118.6577015
6739,Cowboy Street,93063,34.2663873,-118.6583586
6472,Dowel Drive,93063,34.2720222,-118.6633196
6464,Dowel Drive,93063,34.2720439,-118.6635457
6452,Dowel Drive,93063,34.2720252,-118.6637741
6493,Dowel Drive,93063,34.2724713,-118.6628698
6481,Dowel Drive,93063,34.2724555,-118.6631185
6473,Dowel Drive,93063,34.2724644,-118.6633495
6465,Dowel Drive,93063,34.2724724,-118.6636016
6453,Dowel Drive,93063,34.2724748,-118.6638212
6445,Dowel Drive,93063,34.2724141,-118.6640907
6437,Dowel Drive,93063,34.2722221,-118.6642575
6429,Dowel Drive,93063,34.2720079,-118.6642676
2006,North Cheam Avenue,93063,34.2720192,-118.6647756
2018,North Cheam Avenue,93063,34.2721815,-118.6645861
2026,North Cheam Avenue,93063,34.2724016,-118.6645962
2038,North Cheam Avenue,93063,34.2725819,-118.6645954
2050,North Cheam Avenue,93063,34.2727494,-118.6646116
6430,East Sibley Street,93063,34.2727310,-118.6643026
6438,East Sibley Street,93063,34.2727259,-118.6640756
6446,East Sibley Street,93063,34.2727138,-118.6638223
2004,Alscot Avenue,93063,34.2719897,-118.6654218
2016,Alscot Avenue,93063,34.2721653,-118.6654539
2017,North Cheam Avenue,93063,34.2721170,-118.6651127
6454,East Sibley Street,93063,34.2727359,-118.6636021
6466,East Sibley Street,93063,34.2727302,-118.6633519
6475,East Sibley Street,93063,34.2731541,-118.6633255
6467,East Sibley Street,93063,34.2731230,-118.6635273
6455,East Sibley Street,93063,34.2731383,-118.6637602
6447,East Sibley Street,93063,34.2731390,-118.6639693
6439,East Sibley Street,93063,34.2731380,-118.6641926
6431,East Sibley Street,93063,34.2731239,-118.6643930
6419,East Sibley Street,93063,34.2731439,-118.6646127
6420,Almar Street,93063,34.2734215,-118.6646339
6432,Almar Street,93063,34.2734451,-118.6644120
6440,Almar Street,93063,34.2734282,-118.6641950
6448,Almar Street,93063,34.2734189,-118.6639855
6456,Almar Street,93063,34.2734412,-118.6637786
6476,Almar Street,93063,34.2734199,-118.6633387
6477,Almar Street,93063,34.2738444,-118.6633439
6469,Almar Street,93063,34.2738625,-118.6635553
6457,Almar Street,93063,34.2738574,-118.6637666
6449,Almar Street,93063,34.2738432,-118.6639898
6441,Almar Street,93063,34.2738523,-118.6642072
6433,Almar Street,93063,34.2738630,-118.6644156
6421,Almar Street,93063,34.2738435,-118.6646345
2126,North Cheam Avenue,93063,34.2741733,-118.6644299
2134,North Cheam Avenue,93063,34.2743035,-118.6642471
2191,May Court,93063,34.2744190,-118.6640073
2092,Alscot Avenue,93063,34.2734549,-118.6654172
2093,North Cheam Avenue,93063,34.2734610,-118.6651002
2084,Alscot Avenue,93063,34.2732691,-118.6654556
2085,North Cheam Avenue,93063,34.2732733,-118.6650817
2072,Alscot Avenue,93063,34.2730916,-118.6654396
2073,North Cheam Avenue,93063,34.2730942,-118.6651021
2060,Alscot Avenue,93063,34.2729120,-118.6654131
2061,North Cheam Avenue,93063,34.2729026,-118.6651054
2048,Alscot Avenue,93063,34.2727206,-118.6654481
2049,North Cheam Avenue,93063,34.2727272,-118.6650985
2036,Alscot Avenue,93063,34.2725347,-118.6654559
2037,North Cheam Avenue,93063,34.2725266,-118.6651007
2024,Alscot Avenue,93063,34.2723548,-118.6654368
2025,North Cheam Avenue,93063,34.2723539,-118.6651200
2102,Alscot Avenue,93063,34.2738240,-118.6654303
2114,Alscot Avenue,93063,34.2740193,-118.6654577
2128,Alscot Avenue,93063,34.2741963,-118.6654953
2103,North Cheam Avenue,93063,34.2738214,-118.6650948
2109,North Cheam Avenue,93063,34.2740072,-118.6651115
2113,North Cheam Avenue,93063,34.2742311,-118.6651850
2121,North Cheam Avenue,93063,34.2743966,-118.6650582
2123,North Cheam Avenue,93063,34.2744880,-118.6648780
2127,North Cheam Avenue,93063,34.2745711,-118.6646813
2135,North Cheam Avenue,93063,34.2746603,-118.6644714
2120,North Cheam Avenue,93063,34.2741136,-118.6646508
2179,May Court,93063,34.2742852,-118.6639184
2167,May Court,93063,34.2741427,-118.6637305
2155,May Court,93063,34.2741263,-118.6634614
2154,May Court,93063,34.2741154,-118.6632273
2139,North Cheam Avenue,93063,34.2747569,-118.6642931
2143,North Cheam Avenue,93063,34.2748422,-118.6641008
2147,North Cheam Avenue,93063,34.2749433,-118.6639243
2155,North Cheam Avenue,93063,34.2750295,-118.6637556
2163,North Cheam Avenue,93063,34.2751261,-118.6635417
2169,North Cheam Avenue,93063,34.2752052,-118.6633981
6354,Menlo Street,93063,34.2744614,-118.6657839
6362,Menlo Street,93063,34.2745575,-118.6655896
6376,Menlo Street,93063,34.2746585,-118.6654044
6388,Menlo Street,93063,34.2747752,-118.6652138
6394,Menlo Street,93063,34.2748461,-118.6650278
6408,Menlo Street,93063,34.2749600,-118.6648493
6420,Menlo Street,93063,34.2750455,-118.6646412
6432,Menlo Street,93063,34.2751401,-118.6644737
6444,Menlo Street,93063,34.2752177,-118.6642666
6508,Menlo Street,93063,34.2756767,-118.6633437
6492,Menlo Street,93063,34.2755917,-118.6635547
6480,Menlo Street,93063,34.2755011,-118.6637209
6468,Menlo Street,93063,34.2754028,-118.6639125
6456,Menlo Street,93063,34.2753222,-118.6640876
6491,Menlo Street,93063,34.2760111,-118.6637303
6479,Menlo Street,93063,34.2759030,-118.6639340
6467,Menlo Street,93063,34.2758072,-118.6641054
6455,Menlo Street,93063,34.2757028,-118.6643201
6443,Menlo Street,93063,34.2756182,-118.6644904
6431,Menlo Street,93063,34.2755267,-118.6647133
6419,Menlo Street,93063,34.2754347,-118.6648813
6407,Menlo Street,93063,34.2753299,-118.6650820
6393,Menlo Street,93063,34.2752419,-118.6652614
6387,Menlo Street,93063,34.2751527,-118.6654666
6375,Menlo Street,93063,34.2750478,-118.6656606
6461,Menlo Street,93063,34.2749696,-118.6658383
6353,Menlo Street,93063,34.2748659,-118.6660667
2115,Alscot Avenue,93063,34.2739633,-118.6659829
2103,Alscot Avenue,93063,34.2737374,-118.6659820
2097,Alscot Avenue,93063,34.2735509,-118.6659667
2091,Alscot Avenue,93063,34.2733695,-118.6659509
2086,Finch Court,93063,34.2733680,-118.6662775
2098,Finch Court,93063,34.2736121,-118.6665176
2097,Finch Court,93063,34.2735798,-118.6667589
2089,Finch Court,93063,34.2734163,-118.6669317
2074,Finch Court,93063,34.2731856,-118.6662989
2073,Finch Court,93063,34.2731796,-118.6668120
2085,Alscot Avenue,93063,34.2731833,-118.6659672
2198,May Court,93063,34.2746364,-118.6635803
2154,North Cheam Avenue,93063,34.2746943,-118.6633676
2178,North Cheam Avenue,93063,34.2750010,-118.6626057
6533,Almar Street,93063,34.2738422,-118.6622785
6468,Almar Street,93063,34.2734305,-118.6635578
2073,Alscot Avenue,93063,34.2729944,-118.6659628
2062,Finch Court,93063,34.2729988,-118.6662749
2050,Finch Court,93063,34.2728094,-118.6663169
2501,Finch Court,93063,34.2728136,-118.6668102
2065,Finch Court,93063,34.2729922,-118.6668271
6321,Jill Court,93063,34.2728219,-118.6671549
6313,Jill Court,93063,34.2730218,-118.6671597
6305,Jill Court,93063,34.2732012,-118.6673110
6297,Jill Court,93063,34.2731625,-118.6676113
6293,Jill Court,93063,34.2729904,-118.6677641
6285,Jill Court,93063,34.2728127,-118.6677453
6273,Anastasia Street,93063,34.2728382,-118.6680271
6267,Anastasia Street,93063,34.2728513,-118.6682265
5259,Anastasia Street,93063,34.2728442,-118.6684740
6253,Anastasia Street,93063,34.2728477,-118.6686828
2061,Alscot Avenue,93063,34.2728157,-118.6659585
6245,Anastasia Street,93063,34.2728009,-118.6689314
6239,Anastasia Street,93063,34.2727598,-118.6690982
6231,Anastasia Street,93063,34.2726339,-118.6693126
6225,Anastasia Street,93063,34.2724921,-118.6694796
6217,Anastasia Street,93063,34.2723286,-118.6695801
6211,Anastasia Street,93063,34.2721727,-118.6696476
6203,Anastasia Street,93063,34.2719818,-118.6696819
6204,Anastasia Street,93063,34.2719856,-118.6691728
6218,Anastasia Street,93063,34.2721488,-118.6691044
6230,Anastasia Street,93063,34.2723389,-118.6689137
2035,Tam Court,93063,34.2724099,-118.6686337
2023,Tam Court,93063,34.2721975,-118.6687157
2001,Tam Court,93063,34.2719954,-118.6683596
2011,Tam Court,93063,34.2720096,-118.6685973
2012,Tam Court,93063,34.2720577,-118.6681310
2024,Tam Court,93063,34.2722725,-118.6680614
2036,Tam Court,93063,34.2724402,-118.6681057
2037,Jill Court,93063,34.2724417,-118.6677432
2025,Jill Court,93063,34.2722656,-118.6677582
2013,Jill Court,93063,34.2720750,-118.6677362
2002,Jill Court,93063,34.2719934,-118.6674873
2014,Jill Court,93063,34.2720304,-118.6672707
2026,Jill Court,93063,34.2722673,-118.6671738
2038,Jill Court,93063,34.2724382,-118.6671966
2027,Finch Court,93063,34.2722593,-118.6668911
2039,Finch Court,93063,34.2724423,-118.6668034
2015,Finch Court,93063,34.2720451,-118.6668615
2003,Finch Court,93063,34.2720082,-118.6665902
2014,Finch Court,93063,34.2720635,-118.6663617
2026,Finch Court,93063,34.2722560,-118.6662829
2038,Finch Court,93063,34.2724471,-118.6663019
2025,Alscot Avenue,93063,34.2724226,-118.6659855
2017,Alscot Avenue,93063,34.2722009,-118.6659533
2005,Alscot Avenue,93063,34.2720097,-118.6659589
1843,Blazewood Street,93063,34.2702301,-118.6743460
4835,Alamo Street,93063,34.2853095,-118.6990187
4767,Barnard Street,93063,34.2831599,-118.7009135
4684,Runway Street,93063,34.2697158,-118.7033663
4560,East Los Angeles Avenue,93063,34.2713675,-118.7072716
1925,Tapo Street,93063,34.2711366,-118.7091741
4386,East Los Angeles Avenue,93063,34.2713995,-118.7094800
4426,East Los Angeles Avenue,93063,34.2713534,-118.7085895
4438,East Los Angeles Avenue,93063,34.2713509,-118.7083444
4456,East Los Angeles Avenue,93063,34.2714017,-118.7078149
4300,Shopping Lane,93063,34.2710448,-118.7100552
4348,East Los Angeles Avenue,93063,34.2714302,-118.7098981
4314,East Los Angeles Avenue,93063,34.2714421,-118.7104365
2100,Ravenna Street,93065,34.2760345,-118.7393180
2706,East Los Angeles Avenue,93065,34.2713338,-118.7434016
1910,Church Street,93065,34.2709799,-118.7361990
2245,North Justin Avenue,93065,34.2764065,-118.7559179
2350,East Greensward Street,93065,34.2836290,-118.7513905
2271,Alamo Street,93065,34.2871367,-118.7528633
2925,Fletcher Street,93065,34.2581914,-118.7385221
2222,Fitzgerald Road,93065,34.2560418,-118.7548162
6502,Katherine Road,93063,34.2648316,-118.6631852
1358,Katherine Road,93063,34.2640226,-118.6697483
2340,Kuehner Drive,93063,34.2780377,-118.6616863
1884,Belhaven Avenue,93063,34.2704159,-118.6611941
1817,Belhaven Avenue,93063,34.2700731,-118.6617289
1885,Belhaven Avenue,93063,34.2704286,-118.6617129
1907,Belhaven Avenue,93063,34.2706096,-118.6616987
1919,Belhaven Avenue,93063,34.2707956,-118.6617316
1931,Belhaven Avenue,93063,34.2709767,-118.6616999
1943,Belhaven Avenue,93063,34.2711620,-118.6617142
1955,Belhaven Avenue,93063,34.2713400,-118.6616956
1967,Belhaven Avenue,93063,34.2715220,-118.6617275
1979,Belhaven Avenue,93063,34.2717184,-118.6616894
1991,Belhaven Avenue,93063,34.2718950,-118.6617136
2005,Belhaven Avenue,93063,34.2720773,-118.6617117
2033,Belhaven Avenue,93063,34.2726362,-118.6617108
2041,Belhaven Avenue,93063,34.2728176,-118.6617084
2049,Belhaven Avenue,93063,34.2729999,-118.6617145
2057,Belhaven Avenue,93063,34.2731910,-118.6617141
2069,Belhaven Avenue,93063,34.2733686,-118.6617135
2077,Belhaven Avenue,93063,34.2735532,-118.6617088
2085,Belhaven Avenue,93063,34.2737466,-118.6617056
2013,Belhaven Avenue,93063,34.2722649,-118.6616989
2097,Belhaven Avenue,93063,34.2739250,-118.6616986
2105,Belhaven Avenue,93063,34.2741037,-118.6617121
2117,Belhaven Avenue,93063,34.2742891,-118.6617149
2125,Belhaven Avenue,93063,34.2744792,-118.6617141
2137,Belhaven Avenue,93063,34.2746486,-118.6617244
2331,Cuesta Lane,93063,34.2777105,-118.6618984
2319,Cuesta Lane,93063,34.2775635,-118.6618887
2307,Cuesta Lane,93063,34.2774400,-118.6618721
2330,Cuesta Lane,93063,34.2776720,-118.6615808
6625,Spineflower Court,93063,34.2774754,-118.6615786
6637,Spineflower Court,93063,34.2775111,-118.6614529
6649,Spineflower Court,93063,34.2776251,-118.6613499
6657,Spineflower Court,93063,34.2777212,-118.6612688
6685,Spineflower Court,93063,34.2778137,-118.6610065
6693,Spineflower Court,93063,34.2777402,-118.6608415
2296,Beavertail Lane,93063,34.2776572,-118.6607471
2290,Beavertail Lane,93063,34.2775789,-118.6606327
2274,Beavertail Lane,93063,34.2774385,-118.6605783
2291,Beavertail Lane,93063,34.2773981,-118.6609332
2290,Paintbrush Lane,93063,34.2772859,-118.6610902
2278,Paintbrush Lane,93063,34.2771685,-118.6610251
2277,Paintbrush Lane,93063,34.2771120,-118.6613616
2265,Paintbrush Lane,93063,34.2769986,-118.6613054
2266,Cuesta Lane,93063,34.2769110,-118.6615006
6624,Spineflower Court,93063,34.2770927,-118.6615613
2291,Cuesta Lane,93063,34.2771148,-118.6618464
2279,Cuesta Lane,93063,34.2769859,-118.6618361
2267,Cuesta Lane,93063,34.2768649,-118.6618379
2255,Cuesta Lane,93063,34.2767427,-118.6618117
2197,Belhaven Avenue,93063,34.2768463,-118.6606407
2189,Belhaven Avenue,93063,34.2767776,-118.6608499
2185,Belhaven Avenue,93063,34.2767093,-118.6610398
2181,Belhaven Avenue,93063,34.2766460,-118.6611992
2179,Belhaven Avenue,93063,34.2765743,-118.6613931
2175,Belhaven Avenue,93063,34.2764431,-118.6615388
2171,Belhaven Avenue,93063,34.2762684,-118.6615981
2169,Belhaven Avenue,93063,34.2760528,-118.6615779
2165,Belhaven Avenue,93063,34.2758960,-118.6615263
2161,Belhaven Avenue,93063,34.2756914,-118.6615563
2159,Belhaven Avenue,93063,34.2755485,-118.6616250
2155,Belhaven Avenue,93063,34.2753565,-118.6616806
2151,Belhaven Avenue,93063,34.2751987,-118.6616845
2152,Belhaven Avenue,93063,34.2752087,-118.6612092
2156,Belhaven Avenue,93063,34.2753439,-118.6611149
2160,Belhaven Avenue,93063,34.2755282,-118.6610508
2162,Belhaven Avenue,93063,34.2756782,-118.6609793
2166,Belhaven Avenue,93063,34.2759197,-118.6609464
2170,Belhaven Avenue,93063,34.2760942,-118.6609855
2172,Belhaven Avenue,93063,34.2762487,-118.6609940
2190,Belhaven Avenue,93063,34.2763371,-118.6607397
6590,Menlo Street,93063,34.2760080,-118.6623027
6574,Menlo Street,93063,34.2759878,-118.6625244
6558,Menlo Street,93063,34.2759405,-118.6627486
6542,Menlo Street,93063,34.2758690,-118.6629659
6524,Menlo Street,93063,34.2757669,-118.6631752
2171,North Cheam Avenue,93063,34.2753016,-118.6631717
2177,North Cheam Avenue,93063,34.2753911,-118.6630147
2183,North Cheam Avenue,93063,34.2754900,-118.6628209
2195,North Cheam Avenue,93063,34.2755419,-118.6625787
2194,North Cheam Avenue,93063,34.2755644,-118.6623502
2182,North Cheam Avenue,93063,34.2752880,-118.6623216
2176,North Cheam Avenue,93063,34.2750871,-118.6623936
6698,North Ardenwood Court,93063,34.2752480,-118.6589120
6697,North Ardenwood Court,93063,34.2751272,-118.6586045
2114,North Ardenwood Avenue,93063,34.2747280,-118.6587394
6688,North Ardenwood Court,93063,34.2749555,-118.6592376
2174,North Ardenwood Avenue,93063,34.2750419,-118.6609097
2168,North Ardenwood Avenue,93063,34.2750484,-118.6606967
2162,North Ardenwood Avenue,93063,34.2750312,-118.6604788
2158,North Ardenwood Avenue,93063,34.2750325,-118.6602230
2154,North Ardenwood Avenue,93063,34.2750539,-118.6600245
2146,North Ardenwood Avenue,93063,34.2749968,-118.6595875
2102,North Ardenwood Avenue,93063,34.2744789,-118.6583974
2096,North Ardenwood Avenue,93063,34.2743475,-118.6582618
2090,North Ardenwood Avenue,93063,34.2742207,-118.6581719
2084,North Ardenwood Avenue,93063,34.2740162,-118.6580630
2072,North Ardenwood Avenue,93063,34.2736383,-118.6579897
2066,North Ardenwood Avenue,93063,34.2734778,-118.6580385
2058,North Ardenwood Avenue,93063,34.2732858,-118.6580639
2050,North Ardenwood Avenue,93063,34.2730830,-118.6579924
6755,Bernal Street,93063,34.2730129,-118.6585038
6733,Bernal Street,93063,34.2729806,-118.6586981
6727,Bernal Street,93063,34.2729462,-118.6589009
6715,Bernal Street,93063,34.2729107,-118.6591264
6691,Bernal Street,93063,34.2729171,-118.6593343
6685,Bernal Street,93063,34.2728965,-118.6595418
2072,North Tremont Avenue,93063,34.2733421,-118.6594784
2060,North Tremont Avenue,93063,34.2731323,-118.6594990
2080,North Tremont Avenue,93063,34.2734999,-118.6595162
6690,Tremont Circle,93063,34.2734147,-118.6592280
2057,North Ardenwood Avenue,93063,34.2732234,-118.6585965
2065,North Ardenwood Avenue,93063,34.2734200,-118.6586063
6694,Tremont Circle,93063,34.2734931,-118.6589939
6699,Tremont Circle,93063,34.2736865,-118.6589218
2071,North Ardenwood Avenue,93063,34.2735723,-118.6585694
2095,North Ardenwood Avenue,93063,34.2740982,-118.6587319
6695,Tremont Circle,93063,34.2739089,-118.6589855
2108,North Tremont Avenue,93063,34.2740485,-118.6595120
2120,North Tremont Avenue,93063,34.2742281,-118.6594918
2128,North Tremont Avenue,93063,34.2744385,-118.6594936
2143,North Ardenwood Avenue,93063,34.2744427,-118.6591928
6691,Tremont Circle,93063,34.2739987,-118.6592275
2139,North Tremont Avenue,93063,34.2746483,-118.6600089
2138,North Swindon Avenue,93063,34.2746428,-118.6603171
2136,Belhaven Avenue,93063,34.2746525,-118.6611850
2137,North Swindon Avenue,93063,34.2746607,-118.6608456
2125,North Swindon Avenue,93063,34.2744623,-118.6608462
2117,North Swindon Avenue,93063,34.2743137,-118.6608554
2116,Belhaven Avenue,93063,34.2742973,-118.6612057
2105,North Swindon Avenue,93063,34.2741028,-118.6608698
2118,North Swindon Avenue,93063,34.2742904,-118.6603474
2106,North Swindon Avenue,93063,34.2741215,-118.6603496
2107,North Tremont Avenue,93063,34.2741103,-118.6600064
2099,North Tremont Avenue,93063,34.2739548,-118.6600258
6527,Almar Street,93063,34.2738716,-118.6624820
6497,Almar Street,93063,34.2738702,-118.6629176
6485,Almar Street,93063,34.2738640,-118.6631283
2166,May Court,93063,34.2742944,-118.6631707
2178,May Court,93063,34.2745304,-118.6632014
2162,North Cheam Avenue,93063,34.2748159,-118.6631878
2166,North Cheam Avenue,93063,34.2748890,-118.6629762
6484,Almar Street,93063,34.2734396,-118.6631280
6496,Almar Street,93063,34.2734173,-118.6629141
6483,East Sibley Street,93063,34.2731219,-118.6630861
6495,East Sibley Street,93063,34.2731425,-118.6628810
6526,Almar Street,93063,34.2734242,-118.6624739
6532,Almar Street,93063,34.2734470,-118.6622782
2088,Rohner Avenue,93063,34.2731499,-118.6623526
2064,Rohner Avenue,93063,34.2729641,-118.6623612
6474,East Sibley Street,93063,34.2727319,-118.6631331
6482,East Sibley Street,93063,34.2727166,-118.6628725
6459,Dowel Drive,93063,34.2725434,-118.6623587
6480,Dowel Drive,93063,34.2720242,-118.6630748
6492,Dowel Drive,93063,34.2720216,-118.6628204
2005,Kuehner Drive,93063,34.2720294,-118.6625016
6574,Bernal Street,93063,34.2725001,-118.6612373
6573,Whitewood Street,93063,34.2722137,-118.6612338
6586,Bernal Street,93063,34.2725035,-118.6610337
6590,Bernal Street,93063,34.2724913,-118.6608118
6589,Whitewood Street,93063,34.2722105,-118.6608134
2096,Belhaven Avenue,93063,34.2739451,-118.6611731
2097,North Swindon Avenue,93063,34.2739415,-118.6608680
2085,North Swindon Avenue,93063,34.2737666,-118.6608475
2077,North Swindon Avenue,93063,34.2736031,-118.6608572
2076,Belhaven Avenue,93063,34.2735879,-118.6611913
2068,Belhaven Avenue,93063,34.2734039,-118.6612047
2069,North Swindon Avenue,93063,34.2733877,-118.6608756
2057,North Swindon Avenue,93063,34.2732404,-118.6608533
2056,Belhaven Avenue,93063,34.2732304,-118.6611740
2048,Belhaven Avenue,93063,34.2730575,-118.6612019
2049,North Swindon Avenue,93063,34.2730494,-118.6608461
2040,Belhaven Avenue,93063,34.2728790,-118.6611943
2039,North Swindon Avenue,93063,34.2728782,-118.6608299
2078,North Swindon Avenue,93063,34.2735859,-118.6603506
2087,North Tremont Avenue,93063,34.2737793,-118.6600172
2079,North Tremont Avenue,93063,34.2736070,-118.6600134
2070,North Swindon Avenue,93063,34.2733976,-118.6603422
2071,North Tremont Avenue,93063,34.2733953,-118.6600129
2059,North Tremont Avenue,93063,34.2732510,-118.6600260
2058,North Swindon Avenue,93063,34.2732508,-118.6603430
2050,North Swindon Avenue,93063,34.2730392,-118.6603407
2051,North Tremont Avenue,93063,34.2730490,-118.6600116
2037,North Tremont Avenue,93063,34.2728793,-118.6600031
2038,North Swindon Avenue,93063,34.2728789,-118.6603459
6604,Bernal Street,93063,34.2724830,-118.6605982
6648,Bernal Street,93063,34.2724892,-118.6601756
6605,Whitewood Street,93063,34.2722305,-118.6605999
6627,Whitewood Street,93063,34.2722119,-118.6603808
6649,Whitewood Street,93063,34.2721988,-118.6601626
6653,Whitewood Street,93063,34.2722234,-118.6599497
6652,Bernal Street,93063,34.2724721,-118.6599568
6664,Bernal Street,93063,34.2724855,-118.6597445
6686,Bernal Street,93063,34.2724927,-118.6595250
6692,Bernal Street,93063,34.2724790,-118.6593045
6665,Whitewood Street,93063,34.2722254,-118.6597369
6687,Whitewood Street,93063,34.2722104,-118.6595309
6693,Whitewood Street,93063,34.2722112,-118.6593063
6717,Whitewood Street,93063,34.2722053,-118.6590698
6729,Whitewood Street,93063,34.2722241,-118.6588168
6716,Bernal Street,93063,34.2725114,-118.6590997
6728,Bernal Street,93063,34.2725072,-118.6588556
6734,Bernal Street,93063,34.2725466,-118.6586309
6756,Bernal Street,93063,34.2726044,-118.6584174
6757,Whitewood Street,93063,34.2722919,-118.6583426
2040,North Ardenwood Avenue,93063,34.2728569,-118.6579744
2032,North Ardenwood Avenue,93063,34.2727053,-118.6579531
2020,North Ardenwood Avenue,93063,34.2725281,-118.6579222
2012,North Ardenwood Avenue,93063,34.2723630,-118.6578614
2006,North Ardenwood Avenue,93063,34.2721902,-118.6578172
1990,North Ardenwood Avenue,93063,34.2720055,-118.6577754
1978,North Ardenwood Avenue,93063,34.2718248,-118.6577504
6759,Tapley Street,93063,34.2718120,-118.6574615
6758,Whitewood Street,93063,34.2718945,-118.6582462
1954,North Ardenwood Avenue,93063,34.2713263,-118.6576178
1942,North Ardenwood Avenue,93063,34.2711575,-118.6575959
6758,Tapley Street,93063,34.2712485,-118.6572840
6775,Tapley Street,93063,34.2718532,-118.6572043
6791,Tapley Street,93063,34.2717273,-118.6570101
6790,Tapley Street,93063,34.2715267,-118.6569768
6774,Tapley Street,93063,34.2713335,-118.6571097
1930,North Ardenwood Avenue,93063,34.2709841,-118.6575353
1918,North Ardenwood Avenue,93063,34.2707738,-118.6575097
1906,North Ardenwood Avenue,93063,34.2706121,-118.6574407
6751,Charing Street,93063,34.2709155,-118.6582440
6784,Charing Street,93063,34.2705076,-118.6579355
6750,Charing Street,93063,34.2704767,-118.6581509
6716,Charing Street,93063,34.2704313,-118.6583845
6572,Whitewood Street,93063,34.2717972,-118.6612436
6584,Whitewood Street,93063,34.2718002,-118.6610328
6588,Whitewood Street,93063,34.2718014,-118.6608140
6606,Whitewood Street,93063,34.2717726,-118.6605985
6650,Whitewood Street,93063,34.2717766,-118.6601682
6654,Whitewood Street,93063,34.2717781,-118.6599521
6694,Whitewood Street,93063,34.2717783,-118.6593142
6698,Whitewood Street,93063,34.2717750,-118.6590923
6736,Whitewood Street,93063,34.2718577,-118.6584495
6695,Tapley Street,93063,34.2715401,-118.6586161
6689,Tapley Street,93063,34.2715289,-118.6588625
6677,Tapley Street,93063,34.2715078,-118.6590869
6665,Tapley Street,93063,34.2715075,-118.6593053
6659,Tapley Street,93063,34.2715086,-118.6595217
6647,Tapley Street,93063,34.2714965,-118.6597390
6629,Tapley Street,93063,34.2714931,-118.6601700
6617,Tapley Street,93063,34.2715077,-118.6603840
6605,Tapley Street,93063,34.2715132,-118.6605955
6585,Tapley Street,93063,34.2715222,-118.6608168
6551,Tapley Street,93063,34.2715087,-118.6610291
6517,Tapley Street,93063,34.2715201,-118.6612372
6516,Tapley Street,93063,34.2710877,-118.6612358
6550,Tapley Street,93063,34.2710758,-118.6610293
6584,Tapley Street,93063,34.2710830,-118.6608171
6604,Tapley Street,93063,34.2710707,-118.6606008
6616,Tapley Street,93063,34.2711058,-118.6603931
6628,Tapley Street,93063,34.2711260,-118.6600629
6634,Tapley Court,93063,34.2709512,-118.6600658
6642,Tapley Court,93063,34.2707634,-118.6598654
6509,Denby Court,93063,34.2708042,-118.6612349
6531,Denby Court,93063,34.2708046,-118.6610299
6553,Denby Court,93063,34.2708243,-118.6608119
6569,Denby Court,93063,34.2708325,-118.6606045
6591,Denby Court,93063,34.2707624,-118.6603232
6590,Denby Court,93063,34.2705532,-118.6602403
6648,Tapley Court,93063,34.2707650,-118.6596454
6652,Tapley Court,93063,34.2709166,-118.6594251
6658,Tapley Street,93063,34.2711236,-118.6594292
6664,Tapley Street,93063,34.2710705,-118.6591542
6676,Tapley Street,93063,34.2710852,-118.6589408
6685,Charing Street,93063,34.2707736,-118.6589303
6697,Charing Street,93063,34.2708144,-118.6587039
6717,Charing Street,93063,34.2708713,-118.6584888
6694,Tapley Street,93063,34.2711337,-118.6585142
6688,Tapley Street,93063,34.2711073,-118.6587185
6708,Tapley Street,93063,34.2711719,-118.6582949
6785,Charing Street,93063,34.2709414,-118.6580405
6724,Tapley Street,93063,34.2712043,-118.6580861
6730,Sasparilla Street,93063,34.2694074,-118.6577039
1806,Charing Court,93063,34.2696891,-118.6576074
1813,North Ardenwood Avenue,93063,34.2699761,-118.6575913
1839,North Ardenwood Avenue,93063,34.2700532,-118.6578356
1861,North Ardenwood Avenue,93063,34.2702333,-118.6579521
1831,Charing Court,93063,34.2701372,-118.6583289
1819,Charing Court,93063,34.2699955,-118.6581784
1830,Charing Court,93063,34.2696483,-118.6584303
1818,Charing Court,93063,34.2696884,-118.6581928
1843,Charing Court,93063,34.2701098,-118.6586039
1867,Charing Court,93063,34.2700550,-118.6588098
6676,Charing Street,93063,34.2702638,-118.6590293
6684,Charing Street,93063,34.2703512,-118.6588139
6698,Charing Street,93063,34.2703972,-118.6585975
6669,Charing Street,93063,34.2705897,-118.6593462
6657,Charing Street,93063,34.2705326,-118.6595067
6649,Charing Street,93063,34.2704239,-118.6596868
6641,Charing Street,93063,34.2703017,-118.6598914
6633,Charing Street,93063,34.2702071,-118.6600557
6621,Charing Street,93063,34.2701397,-118.6602573
1794,Tetlow Avenue,93063,34.2699456,-118.6596359
6656,Charing Street,93063,34.2700543,-118.6593521
1786,Tetlow Avenue,93063,34.2697877,-118.6595631
1878,Charing Court,93063,34.2698791,-118.6592449
1774,Tetlow Avenue,93063,34.2696089,-118.6595096
1866,Charing Court,93063,34.2697023,-118.6591153
1854,Charing Court,93063,34.2696796,-118.6588957
1842,Charing Court,93063,34.2696455,-118.6586453
6729,Sasparilla Street,93063,34.2693805,-118.6580569
6725,Sasparilla Street,93063,34.2693879,-118.6582163
6723,Sasparilla Street,93063,34.2693787,-118.6583739
6726,Sasparilla Street,93063,34.2689490,-118.6584352
6718,Sasparilla Street,93063,34.2689762,-118.6586938
6704,Sasparilla Street,93063,34.2689844,-118.6588445
6711,Sasparilla Street,93063,34.2693909,-118.6587412
6703,Sasparilla Street,93063,34.2693830,-118.6589139
6701,Sasparilla Street,93063,34.2693806,-118.6590874
6677,Sasparilla Street,93063,34.2693911,-118.6594093
6669,Sasparilla Street,93063,34.2693891,-118.6595766
6670,Sasparilla Street,93063,34.2689710,-118.6594424
6694,Sasparilla Street,93063,34.2689693,-118.6591446
6700,Sasparilla Street,93063,34.2689815,-118.6590032
1756,Chaps Court,93063,34.2686216,-118.6590209
1748,Chaps Court,93063,34.2685848,-118.6592447
6695,Sandalwood Drive,93063,34.2679299,-118.6593354
6687,Sandalwood Drive,93063,34.2679426,-118.6595082
1750,Chaps Court,93063,34.2687106,-118.6592866
6668,Sasparilla Street,93063,34.2689724,-118.6596139
6654,Sasparilla Street,93063,34.2689719,-118.6597670
1850,Belhaven Avenue,93063,34.2702443,-118.6611947
1816,Belhaven Avenue,93063,34.2700712,-118.6611885
6591,Charing Street,93063,34.2701024,-118.6609134
6603,Charing Street,93063,34.2701035,-118.6606992
6613,Charing Street,93063,34.2701173,-118.6604864
6568,Denby Court,93063,34.2703684,-118.6604296
6552,Denby Court,93063,34.2703766,-118.6606991
6530,Denby Court,93063,34.2703846,-118.6609146
6506,Charing Street,93063,34.2696718,-118.6617634
6528,Charing Street,93063,34.2696707,-118.6615578
6550,Charing Street,93063,34.2696721,-118.6613512
6558,Charing Street,93063,34.2696681,-118.6611274
6590,Charing Street,93063,34.2696733,-118.6609110
6602,Charing Street,93063,34.2696712,-118.6607002
6612,Charing Street,93063,34.2696553,-118.6604808
6620,Charing Street,93063,34.2697001,-118.6602692
6632,Charing Street,93063,34.2696990,-118.6600528
6645,Sasparilla Street,93063,34.2693857,-118.6599541
6639,Sasparilla Street,93063,34.2693863,-118.6600933
6631,Sasparilla Street,93063,34.2693872,-118.6602634
6627,Sasparilla Street,93063,34.2693877,-118.6604512
6623,Sasparilla Street,93063,34.2693980,-118.6605899
6617,Sasparilla Street,93063,34.2694025,-118.6607804
6611,Sasparilla Street,93063,34.2693969,-118.6609247
6603,Sasparilla Street,93063,34.2693757,-118.6610872
1767,Bonanza Avenue,93063,34.2690794,-118.6616481
1757,Bonanza Avenue,93063,34.2688537,-118.6616342
1753,Bonanza Avenue,93063,34.2686229,-118.6616146
1747,Bonanza Avenue,93063,34.2685087,-118.6616066
6464,Hazel Circle,93063,34.2709677,-118.6632388
6472,Hazel Circle,93063,34.2708238,-118.6630526
6463,Hazel Circle,93063,34.2713779,-118.6630777
6467,Hazel Circle,93063,34.2712904,-118.6628362
6471,Hazel Circle,93063,34.2711843,-118.6626782
6475,Hazel Circle,93063,34.2710154,-118.6625370
6479,Hazel Circle,93063,34.2708338,-118.6624345
1745,Bonanza Avenue,93063,34.2683948,-118.6616475
1743,Bonanza Avenue,93063,34.2682876,-118.6616315
1764,Bonanza Avenue,93063,34.2690143,-118.6611459
1758,Bonanza Avenue,93063,34.2689074,-118.6611499
1756,Bonanza Avenue,93063,34.2687963,-118.6611489
1754,Bonanza Avenue,93063,34.2686828,-118.6611314
1750,Bonanza Avenue,93063,34.2685685,-118.6611161
1746,Bonanza Avenue,93063,34.2684596,-118.6611284
1755,Empty Saddle Avenue,93063,34.2688093,-118.6607557
1753,Empty Saddle Avenue,93063,34.2686974,-118.6607482
1749,Empty Saddle Avenue,93063,34.2685763,-118.6607486
6628,Sasparilla Street,93063,34.2689694,-118.6603652
1745,Empty Saddle Avenue,93063,34.2684659,-118.6607544
1741,Empty Saddle Avenue,93063,34.2683438,-118.6607621
1738,Bonanza Avenue,93063,34.2682256,-118.6611592
6634,Sasparilla Street,93063,34.2689547,-118.6602128
6638,Sasparilla Street,93063,34.2689715,-118.6600713
1763,Empty Saddle Avenue,93063,34.2687623,-118.6602798
1768,Chaps Court,93063,34.2687518,-118.6599011
1752,Empty Saddle Avenue,93063,34.2686461,-118.6602390
1753,Chaps Court,93063,34.2686289,-118.6599071
1748,Empty Saddle Avenue,93063,34.2685346,-118.6602652
1749,Chaps Court,93063,34.2685110,-118.6599279
1744,Empty Saddle Avenue,93063,34.2684154,-118.6602793
1745,Chaps Court,93063,34.2682798,-118.6599137
1740,Empty Saddle Avenue,93063,34.2683033,-118.6602827
1741,Chaps Court,93063,34.2681466,-118.6599253
1738,Empty Saddle Avenue,93063,34.2681915,-118.6602959
1732,Empty Saddle Avenue,93063,34.2680794,-118.6602941
1739,Chaps Court,93063,34.2680376,-118.6599542
1728,Empty Saddle Avenue,93063,34.2679654,-118.6602951
1727,Chaps Court,93063,34.2679102,-118.6599431
1724,Empty Saddle Avenue,93063,34.2678561,-118.6602886
1703,Chaps Court,93063,34.2677803,-118.6599479
1706,Empty Saddle Avenue,93063,34.2677354,-118.6602648
1733,Empty Saddle Avenue,93063,34.2681184,-118.6607791
1729,Empty Saddle Avenue,93063,34.2679977,-118.6607952
1725,Empty Saddle Avenue,93063,34.2678760,-118.6608005
1731,Bonanza Avenue,93063,34.2680601,-118.6616535
1727,Bonanza Avenue,93063,34.2679461,-118.6616612
1723,Bonanza Avenue,93063,34.2678297,-118.6616568
1717,Bonanza Avenue,93063,34.2677201,-118.6616723
1715,Bonanza Avenue,93063,34.2675988,-118.6616510
1713,Bonanza Avenue,93063,34.2674890,-118.6616410
1707,Bonanza Avenue,93063,34.2673766,-118.6616270
1732,Bonanza Avenue,93063,34.2681140,-118.6611537
1730,Bonanza Avenue,93063,34.2679994,-118.6611736
1726,Bonanza Avenue,93063,34.2678895,-118.6611744
1720,Bonanza Avenue,93063,34.2677780,-118.6611645
1716,Bonanza Avenue,93063,34.2676706,-118.6611645
1714,Bonanza Avenue,93063,34.2675573,-118.6611581
1706,Bonanza Avenue,93063,34.2674397,-118.6611520
1702,Bonanza Avenue,93063,34.2673314,-118.6611259
1717,Empty Saddle Avenue,93063,34.2677603,-118.6607738
1715,Empty Saddle Avenue,93063,34.2676442,-118.6607245
1703,Empty Saddle Avenue,93063,34.2675172,-118.6606909
1696,Gold Dust Court,93063,34.2669245,-118.6612449
1695,East Bluestone Avenue,93063,34.2670480,-118.6609100
1684,Gold Dust Court,93063,34.2668201,-118.6611846
1689,East Bluestone Avenue,93063,34.2669429,-118.6608400
1677,East Bluestone Avenue,93063,34.2668280,-118.6607875
1672,Gold Dust Court,93063,34.2667038,-118.6611525
1665,East Bluestone Avenue,93063,34.2667038,-118.6607355
1668,Gold Dust Court,93063,34.2665873,-118.6611183
1659,East Bluestone Avenue,93063,34.2665875,-118.6607382
1669,Gold Dust Court,93063,34.2665157,-118.6616083
1653,Gold Dust Court,93063,34.2664049,-118.6616184
1631,Gold Dust Court,93063,34.2662670,-118.6616264
1609,Gold Dust Court,93063,34.2661227,-118.6616075
1608,Gold Dust Court,93063,34.2659698,-118.6612568
1626,Gold Dust Court,93063,34.2659816,-118.6609389
1636,Gold Dust Court,93063,34.2659689,-118.6608063
1644,Gold Dust Court,93063,34.2659626,-118.6606735
1646,Gold Dust Court,93063,34.2659708,-118.6605287
1648,Gold Dust Court,93063,34.2660154,-118.6603930
1647,Gold Dust Court,93063,34.2663782,-118.6606671
1635,Gold Dust Court,93063,34.2663766,-118.6607975
1617,Gold Dust Court,93063,34.2663857,-118.6610682
1605,Gold Dust Court,93063,34.2663774,-118.6612003
6657,Cowboy Street,93063,34.2664767,-118.6597658
6659,Cowboy Street,93063,34.2664374,-118.6596226
6644,Cowboy Street,93063,34.2660414,-118.6600584
6652,Cowboy Street,93063,34.2659891,-118.6599068
6658,Cowboy Street,93063,34.2659672,-118.6597603
6664,Cowboy Street,93063,34.2659686,-118.6596146
6672,Cowboy Street,93063,34.2659748,-118.6594865
6680,Cowboy Street,93063,34.2659745,-118.6593371
6694,Cowboy Street,93063,34.2659713,-118.6591954
6704,Cowboy Street,93063,34.2659631,-118.6590323
6712,Cowboy Street,93063,34.2659691,-118.6589038
6724,Cowboy Street,93063,34.2659799,-118.6587470
6728,Cowboy Street,93063,34.2659752,-118.6586073
6736,Cowboy Street,93063,34.2659831,-118.6584223
6744,Cowboy Street,93063,34.2660387,-118.6581671
6776,Cowboy Street,93063,34.2661597,-118.6576661
6768,Cowboy Court,93063,34.2656192,-118.6580410
6760,Cowboy Court,93063,34.2656553,-118.6581800
6705,Cowboy Street,93063,34.2663810,-118.6589303
6727,Cowboy Street,93063,34.2663885,-118.6586496
6735,Cowboy Street,93063,34.2663689,-118.6585059
6743,Cowboy Street,93063,34.2664013,-118.6582000
6755,Cowboy Street,93063,34.2664405,-118.6580440
6769,Cowboy Street,93063,34.2664699,-118.6579128
6775,Cowboy Street,93063,34.2665118,-118.6577816
6777,Cowboy Street,93063,34.2665450,-118.6576363
6779,Cowboy Street,93063,34.2665892,-118.6574983
6781,Cowboy Street,93063,34.2666231,-118.6573668
6783,Cowboy Street,93063,34.2666717,-118.6572345
6785,Cowboy Street,93063,34.2666959,-118.6571006
6702,Cowgirl Court,93063,34.2667429,-118.6589388
6706,Cowgirl Court,93063,34.2667426,-118.6587938
6714,Cowgirl Court,93063,34.2667186,-118.6586633
6716,Cowgirl Court,93063,34.2667248,-118.6585082
6728,Cowgirl Court,93063,34.2666992,-118.6583699
6736,Cowgirl Court,93063,34.2667236,-118.6581940
6740,Cowgirl Court,93063,34.2667426,-118.6580675
6744,Cowgirl Court,93063,34.2667710,-118.6579241
6748,Cowgirl Court,93063,34.2668016,-118.6577962
6750,Cowgirl Court,93063,34.2668634,-118.6576609
6753,Cowgirl Court,93063,34.2668779,-118.6575168
6701,Cowgirl Court,93063,34.2671422,-118.6589157
6707,Cowgirl Court,93063,34.2671343,-118.6587855
6711,Cowgirl Court,93063,34.2671312,-118.6586333
6719,Cowgirl Court,93063,34.2671239,-118.6584977
6727,Cowgirl Court,93063,34.2671252,-118.6583394
6749,Cowgirl Court,93063,34.2671402,-118.6581982
6702,Sandalwood Drive,93063,34.2675376,-118.6588818
6708,Sandalwood Drive,93063,34.2675346,-118.6587501
6712,Sandalwood Drive,93063,34.2675227,-118.6586056
6716,Sandalwood Drive,93063,34.2675009,-118.6584606
6728,Sandalwood Drive,93063,34.2674718,-118.6582907
6736,Sandalwood Drive,93063,34.2674466,-118.6581594
6748,Sandalwood Drive,93063,34.2674073,-118.6580279
6750,Sandalwood Drive,93063,34.2673638,-118.6578872
1605,Cody Avenue,93063,34.2663147,-118.6593575
1613,Cody Avenue,93063,34.2664268,-118.6593525
1625,Cody Avenue,93063,34.2665358,-118.6593451
1629,Cody Avenue,93063,34.2666582,-118.6593499
1637,Cody Avenue,93063,34.2667659,-118.6593429
1645,Cody Avenue,93063,34.2668835,-118.6593482
1653,Cody Avenue,93063,34.2669931,-118.6593500
1661,Cody Avenue,93063,34.2671140,-118.6593425
1669,Cody Avenue,93063,34.2672218,-118.6593424
1677,Cody Avenue,93063,34.2673446,-118.6593335
1685,Cody Avenue,93063,34.2674556,-118.6593315
1693,Cody Avenue,93063,34.2675630,-118.6593459
6758,Sandalwood Drive,93063,34.2673017,-118.6577428
6762,Sandalwood Drive,93063,34.2672581,-118.6576357
6768,Sandalwood Drive,93063,34.2671836,-118.6574957
6774,Sandalwood Drive,93063,34.2671295,-118.6573885
6778,Sandalwood Drive,93063,34.2670613,-118.6572638
6782,Sandalwood Drive,93063,34.2669986,-118.6571620
6786,Sandalwood Drive,93063,34.2669390,-118.6570500
6790,Sandalwood Drive,93063,34.2668860,-118.6569215
6798,Sandalwood Drive,93063,34.2668295,-118.6568061
6771,Sandalwood Drive,93063,34.2674479,-118.6570515
6779,Sandalwood Drive,93063,34.2673861,-118.6569322
6785,Sandalwood Drive,93063,34.2673369,-118.6568267
6789,Sandalwood Drive,93063,34.2672684,-118.6567181
6793,Sandalwood Drive,93063,34.2672095,-118.6566069
6799,Sandalwood Drive,93063,34.2671616,-118.6564802
6792,Cowboy Street,93063,34.2667111,-118.6563796
6784,Cowboy Street,93063,34.2666185,-118.6564307
6542,Stoney View Lane,93063,34.2655621,-118.6624797
6525,Stoney View Lane,93063,34.2658973,-118.6628875
6543,Stoney View Lane,93063,34.2658920,-118.6624946
6542,Twin Circle Lane,93063,34.2663882,-118.6624930
6524,Twin Circle Lane,93063,34.2663841,-118.6628840
6525,Twin Circle Lane,93063,34.2667022,-118.6628739
6543,Twin Circle Lane,93063,34.2667164,-118.6624763
1552,Faith Avenue,93063,34.2672710,-118.6629767
1558,Faith Avenue,93063,34.2671942,-118.6627233
1566,Faith Avenue,93063,34.2672442,-118.6624585
1550,Faith Avenue,93063,34.2673525,-118.6631773
1572,Faith Avenue,93063,34.2674082,-118.6623480
1580,Faith Avenue,93063,34.2676351,-118.6624080
1586,Faith Avenue,93063,34.2677058,-118.6627591
1594,Flowerdale Street,93063,34.2678441,-118.6625585
1608,Flowerdale Street,93063,34.2680046,-118.6624896
1630,Flowerdale Street,93063,34.2681967,-118.6624471
1652,Flowerdale Street,93063,34.2683776,-118.6624362
1664,Flowerdale Street,93063,34.2685773,-118.6624342
1700,Flowerdale Street,93063,34.2689688,-118.6624745
1714,Flowerdale Street,93063,34.2691607,-118.6624442
1728,Flowerdale Street,93063,34.2693404,-118.6624948
1742,Flowerdale Street,93063,34.2693929,-118.6627358
1727,Flowerdale Street,93063,34.2693618,-118.6629571
1713,Flowerdale Street,93063,34.2692301,-118.6631010
1701,Flowerdale Street,93063,34.2689985,-118.6630386
6482,Jimilyn Street,93063,34.2686275,-118.6631491
6492,Jimilyn Street,93063,34.2686312,-118.6629012
1653,Flowerdale Street,93063,34.2683721,-118.6629682
1609,Flowerdale Street,93063,34.2680329,-118.6630237
1595,Flowerdale Street,93063,34.2678994,-118.6631678
6482,Melia Street,93063,34.2696622,-118.6630205
6490,Melia Street,93063,34.2696757,-118.6628004
6494,Melia Street,93063,34.2696630,-118.6625653
6498,Melia Street,93063,34.2696839,-118.6623431
6495,Hazel Circle,93063,34.2700666,-118.6623800
6492,Hazel Circle,93063,34.2700799,-118.6629094
6469,Danette Street,93063,34.2700411,-118.6631998
6488,Hazel Circle,93063,34.2702760,-118.6628769
6491,Hazel Circle,93063,34.2702634,-118.6623875
6459,Danette Street,93063,34.2704152,-118.6632186
6480,Hazel Circle,93063,34.2706594,-118.6628951
6484,Hazel Circle,93063,34.2704669,-118.6628824
6483,Hazel Circle,93063,34.2706538,-118.6623876
6487,Hazel Circle,93063,34.2704567,-118.6623684
5776,East Damon Street,93063,34.2675696,-118.6789531
"1977,1977",Suntree Lane,93063,34.2710289,-118.6908815
5450,East Los Angeles Avenue,93063,34.2712329,-118.6854794
1371,Kuehner Drive,93063,34.2646970,-118.6607490
1561,Kuehner Drive,93063,34.2653842,-118.6604593
"5175,5179",Mesa Mint Court,93063,34.2691889,-118.6919524
"5191,5199",Mesa Mint Court,93063,34.2691860,-118.6916728
"5190,5198",Bellflower Court,93063,34.2693490,-118.6916662
5178,Bellflower Court,93063,34.2693547,-118.6919204
5175,Chamise Court,93063,34.2710225,-118.6919520
"5189,5197",Chamise Court,93063,34.2710258,-118.6916913
"5174,5178",Pine Rose Court,93063,34.2703354,-118.6919533
"5190,5198",Pine Rose Court,93063,34.2703354,-118.6916652
"5174,5178",Miners Candle Court,93063,34.2697390,-118.6919531
"5191,5199",Miners Candle Court,93063,34.2697418,-118.6916631
"5175,5179",Bellflower Court,93063,34.2695744,-118.6919528
"5191,5199",Bellflower Court,93063,34.2695766,-118.6916684
1860,Hidden Hollow Court,93063,34.2700054,-118.6940278
5065,Hidden Park Court,93063,34.2708449,-118.6939024
5008,Arroyo Lane,93063,34.2696680,-118.6954382
5112,Hidden Vista Court,93063,34.2684488,-118.6928803
4680,East Los Angeles Avenue,93063,34.2707871,-118.7033940
1816,Angus Avenue,93063,34.2707384,-118.7018222
4500,Ish Drive,93063,34.2689383,-118.7046613
4330,East Los Angeles Avenue,93063,34.2714719,-118.7100190
1461,Hidden Ranch Drive,93063,34.2647631,-118.6886215
5294,Huckleberry Oak Street,93063,34.2652092,-118.6899949
5617,Crinklaw Lane,93063,34.2650230,-118.6822508
5586,Island Oak Street,93063,34.2650568,-118.6836958
5643,Crinklaw Lane,93063,34.2650183,-118.6812655
5711,Crinklaw Lane,93063,34.2650153,-118.6803245
5705,Crinklaw Lane,93063,34.2650127,-118.6792169
2279,Beavertail Lane,93063,34.2772939,-118.6608574
2267,Beavertail Lane,93063,34.2772084,-118.6607965
6408,Katherine Road,93063,34.2645672,-118.6650779
6408,Katherine Road,93063,34.2645662,-118.6649979
6400,Katherine Road,93063,34.2646249,-118.6656039
6400,Katherine Road,93063,34.2646226,-118.6655235
6400,Katherine Road,93063,34.2646203,-118.6654432
6416,Katherine Road,93063,34.2650351,-118.6649210
6416,Katherine Road,93063,34.2650346,-118.6650001
6416,Katherine Road,93063,34.2650341,-118.6650793
6392,Katherine Road,93063,34.2650342,-118.6656035
6392,Katherine Road,93063,34.2650338,-118.6655234
5918,East Los Angeles Avenue,93063,34.2714721,-118.6758059
1748,Blazewood Street,93063,34.2694449,-118.6739702
1734,Blazewood Street,93063,34.2693452,-118.6739769
5969,Myrtle Court,93063,34.2714049,-118.6743832
5977,Myrtle Court,93063,34.2714057,-118.6742625
5968,Myrtle Court,93063,34.2710948,-118.6743843
5976,Myrtle Court,93063,34.2710889,-118.6742617
5953,Buckeye Street,93063,34.2709077,-118.6746227
5961,Buckeye Street,93063,34.2708969,-118.6744982
5969,Buckeye Street,93063,34.2708951,-118.6743820
5977,Buckeye Street,93063,34.2708948,-118.6742603
1890,Locust Street,93063,34.2706524,-118.6745851
1878,Locust Street,93063,34.2705530,-118.6745873
1866,Locust Street,93063,34.2704538,-118.6745850
1854,Locust Street,93063,34.2703545,-118.6745855
225,Ulysses Street,93065,34.2739675,-118.7929990
250,Royal Avenue,93065,34.2633063,-118.7935686
6306,Marsha Avenue,93063,34.2672060,-118.6673297
2090,Finch Court,93063,34.2735857,-118.6662837
40,Presidential Drive,93065,34.2596450,-118.8199168
999,Enchanted Way,93065,34.2837068,-118.7812996
3401,Big Springs Avenue,93063,34.2982081,-118.7023449
5416,Katherine Street,93063,34.2663503,-118.6868075
5353,Leland Circle,93063,34.2677974,-118.6871812
1663,Kirsten Avenue,93063,34.2676472,-118.6865306
