House number,Street name,Postal code,Latitude,Longitude
42,Snell Street,95370,37.9874243,-120.3849159
665,South Washington Street,95370,37.9763864,-120.3797350
1291,Sanguinetti Road,95370,37.9737519,-120.3620445
1031,Sanguinetti Road,95370,37.9736867,-120.3649798
119,S Washington St,95370,37.9839168,-120.3820344
31,S Washington St,95370,37.9850531,-120.3827705
824,Mono Way,95370,37.9743137,-120.3706910
770,Mono Way,95370,37.9759526,-120.3694049
9,North Washington Street,95370,37.9855837,-120.3832621
143,South Washington Street,95370,37.9835161,-120.3820272
774,Delnero Drive,95370,37.9786715,-120.3706490
1131,Sanguinetti Road,95370,37.9721893,-120.3643136
1141,Sanguinetti Road,95370,37.9722544,-120.3640587
1191,Sanguinetti Road,95370,37.9725885,-120.3627575
1025,Mono Way,95370,37.9747872,-120.3664454
760,Mono Way,95370,37.9754447,-120.3701360
133,Old Wards Ferry Road,95370,37.9728023,-120.3671495
179,Fairview Lane,95370-4809,37.9796874,-120.3908013
1151,Sanguinetti Road,95370,37.9723206,-120.3637613
1031,Sanguinetti Road,95370,37.9737385,-120.3651120
48,South Stewart Street,95370,37.9854425,-120.3822504
100,South Washington Street,95370,37.9838495,-120.3824069
126,South Washington Street,95370,37.9836144,-120.3823472
177,South Washington Street,95370,37.9830016,-120.3819892
230,North Washington Street,95370,37.9884657,-120.3847533
147,South Washington Street,95370,37.9832222,-120.3820340
1101,Sanguinetti Road,95370,37.9717067,-120.3656774
851,Sanguinetti Road,95370,37.9736722,-120.3673998
900,Mono Way,95370,37.9765353,-120.3683780
1075,Mono Way,95370,37.9755956,-120.3649832
1001,Mono Way,95370,37.9755081,-120.3669982
1171,Sanguinetti Road,95370,37.9722501,-120.3632932
220,Southgate Drive,95370,37.9785890,-120.3893222
275,South Washington Street,95370,37.9814818,-120.3818380
85,Mono Way,95370,37.9762631,-120.3793048
519,South Washington Street,95370,37.9782872,-120.3804334
279,Morning Star Drive,95370,37.9825713,-120.3776058
449,Alpine Lane,95370,37.9860145,-120.3922160
230,South Shepherd Street,95370,37.9826661,-120.3812602
317,South Washington Street,95370,37.9811266,-120.3816643
301,South Washington Street,95370,37.9811881,-120.3817386
290,South Stewart Street,95370,37.9813853,-120.3814897
61,North Washington Street,95370,37.9861006,-120.3837181
35,North Washington Street,95370,37.9858784,-120.3835016
21,North Washington Street,95370,37.9856897,-120.3834019
34,North Washington Street,95370,37.9856806,-120.3839377
24,Yaney Avenue,95370,37.9855938,-120.3840037
32,North Washington Street,95370,37.9856608,-120.3838568
37,South Stewart Street,95370,37.9852794,-120.3821801
11,South Washington Street,95370,37.9853014,-120.3829971
16,South Stewart Street,95370,37.9852290,-120.3830097
18,South Stewart Street,95370,37.9851747,-120.3829763
21,South Washington Street,95370,37.9851505,-120.3829109
26,South Stewart Street,95370,37.9850672,-120.3829527
31,South Washington Street,95370,37.9850648,-120.3827793
35,South Washington Street,95370,37.9849904,-120.3828252
16,South Washington Street,95370,37.9850432,-120.3834519
22,South Washington Street,95370,37.9849662,-120.3833988
26,South Washington Street,95370,37.9849270,-120.3833197
18,South Washington Street,95370,37.9848399,-120.3832915
51,South Green Street,95370,37.9845987,-120.3831264
57,South Green Street,95370,37.9845512,-120.3830935
66,South Washington Street,95370,37.9845364,-120.3829765
70,South Washington Street,95370,37.9843925,-120.3830168
76,South Washington Street,95370,37.9843382,-120.3829318
78,South Washington Street,95370,37.9842427,-120.3829106
84,South Washington Street,95370,37.9841666,-120.3828572
37,East Bradford Street,95370,37.9849356,-120.3825404
59,South Washington Street,95370,37.9847228,-120.3825510
62,South Stewart Street,95370,37.9846748,-120.3825145
68,South Stewart Street,95370,37.9846253,-120.3824810
79,South Washington Street,95370,37.9845260,-120.3824150
81,South Washington Street,95370,37.9843980,-120.3824068
83,South Washington Street,95370,37.9843700,-120.3823125
97,South Washington Street,95370,37.9841801,-120.3821827
105,South Washington Street,95370,37.9841246,-120.3821467
107,South Washington Street,95370,37.9840484,-120.3821022
115,South Washington Street,95370,37.9839747,-120.3820585
119,South Washington Street,95370,37.9839107,-120.3820180
123,South Washington Street,95370,37.9838245,-120.3820142
131,South Washington Street,95370,37.9837134,-120.3819386
117,South Green Street,95370,37.9834485,-120.3824881
119,South Green Street,95370,37.9833689,-120.3824889
126,South Washington Street,95370,37.9835629,-120.3824651
225,South Washington Street,95370,37.9823078,-120.3817511
189,South Washington Street,95370,37.9828377,-120.3818289
195,South Washington Street,95370,37.9827763,-120.3818209
199,South Washington Street,95370,37.9827024,-120.3818117
173,South Washington Street,95370,37.9830983,-120.3818632
161,South Washington Street,95370,37.9832003,-120.3818816
151,South Washington Street,95370,37.9834255,-120.3819663
23,Theall Street,95370,37.9835167,-120.3819104
524,South Stewart Street,95370,37.9784007,-120.3801509
700,Barretta Street,95370,37.9764748,-120.3780427
290,Gerrymander Avenue,95370,37.9776530,-120.3863101
183,West Church Street,95370,37.9801723,-120.3850727
253,Knowles Hill Drive,95370,37.9808039,-120.3840264
335,South Shepherd Street,95370,37.9810432,-120.3800845
293,South Washington Street,95370,37.9813247,-120.3817726
241,Knowles Hill Drive,95370,37.9816478,-120.3840035
39,South Green Street,95370,37.9846823,-120.3831734
39,North Green Street,95370,37.9857158,-120.3839682
377,Alpine Lane,95370,37.9859634,-120.3912242
186,Yaney Court,95370,37.9848688,-120.3869811
93,Oak Street,95370,37.9849914,-120.3870811
349,Knowles Hill Drive,95370,37.9794340,-120.3827255
176,West Bradford Street,95370,37.9838185,-120.3860011
66,South Green Street,95370,37.9843085,-120.3834099
719,Barretta Street,95370,37.9761036,-120.3770582
10,Calaveras Street,95370,37.9736494,-120.3789527
101,Hospital Road,95370,37.9742655,-120.3780695
222,Hill Street,95370,37.9771599,-120.3872334
730,SOUTH WASHINGTON ST.,95370,37.9755047,-120.3800715
584,Maple Street,95370,37.9768548,-120.3814550
576,Maple Street,95370,37.9769607,-120.3814144
570,Olive Street,95370,37.9771575,-120.3810670
582,Olive Street,95370,37.9769478,-120.3808974
590,South Stewart Street,95370,37.9773708,-120.3797197
591,South Washington Street,95370,37.9772932,-120.3799884
569,South Washington Street,95370,37.9774887,-120.3800097
574,South Washington Street,95370,37.9772708,-120.3806428
193,Fairview Lane,95370,37.9798527,-120.3899548
251,Barretta Street,95370,37.9825939,-120.3796748
9,North Washington Street,95370,37.9855912,-120.3832297
48,Yaney Avenue,95370,37.9855981,-120.3844931
76,North Washington Street,95370,37.9860760,-120.3842416
1,South Washington Street,95370,37.9853349,-120.3831057
100,West Church Street,95370,37.9825366,-120.3835937
85,West Church Street,95370,37.9822071,-120.3835810
208,South Green Street,95370,37.9822112,-120.3828182
242,South Washington Street,95370,37.9819192,-120.3823320
299,South Stewart Street,95370,37.9815296,-120.3810585
284,South Stewart Street,95370,37.9817021,-120.3811447
290,Barretta Street,95370,37.9818440,-120.3800018
270,Barretta Street,95370,37.9819933,-120.3800926
313,South Stewart Street,95370,37.9812601,-120.3809340
110,Gold Street,95370,37.9814814,-120.3798943
453,South Stewart Street,95370,37.9795578,-120.3795011
541,South Shepherd Street,95370,37.9783007,-120.3790125
552,Morning Star Drive,95370,37.9858227,-120.3753023
536,Morning Star Drive,95370,37.9859631,-120.3756496
440,Morning Star Court,95370,37.9846462,-120.3774725
452,Morning Star Court,95370,37.9848852,-120.3775411
462,Morning Star Court,95370,37.9850902,-120.3775272
464,Morning Star Drive,95370,37.9852631,-120.3770017
474,Morning Star Court,95370,37.9853094,-120.3774197
476,Morning Star Drive,95370,37.9854491,-120.3769418
486,Morning Star Court,95370,37.9855365,-120.3774090
498,Morning Star Court,95370,37.9857561,-120.3773834
488,Morning Star Drive,95370,37.9856994,-120.3767321
395,Alpine Lane,95370,37.9859784,-120.3915663
144,Upper Sunset Drive,95370,37.9857722,-120.3868804
121,Oak Street,95370,37.9852990,-120.3872674
32,Seco Street,95370,37.9833147,-120.3865982
198,West Bradford Street,95370,37.9834255,-120.3861614
216,West Bradford Street,95370,37.9833778,-120.3863578
334,West Jackson Street,95370,37.9827884,-120.3885360
304,Stockton Street,95370,37.9823037,-120.3873813
310,Stockton Street,95370,37.9823393,-120.3875043
265,Stockton Street,95370,37.9819365,-120.3871214
243,Stockton Street,95370,37.9820200,-120.3869494
69,North Ash Street,95370,37.9836989,-120.3888924
315,Ayba Street,95370,37.9839453,-120.3891268
124,North Poplar Street,95370,37.9845876,-120.3890666
47,Oak Street,95370,37.9845248,-120.3866260
175,Yaney Avenue,95370,37.9841883,-120.3860998
41,West Yaney Avenue,95370,37.9851453,-120.3842092
55,South Norlin Street,95370,37.9843251,-120.3837409
56,West Bradford Street,95370,37.9846754,-120.3839421
2,South Green Street,95370,37.9848862,-120.3839380
101,West Bradford Street,95370,37.9837852,-120.3843117
96,Pine Street,95370,37.9839201,-120.3844874
91,West Bradford Street,95370,37.9839839,-120.3843330
128,South Green Street,95370,37.9833162,-120.3832976
67,West Linoberg Street,95370,37.9836925,-120.3836454
85,West Linoberg Street,95370,37.9836707,-120.3837980
160,South Washington Street,95370,37.9831630,-120.3825035
185,South Washington Street,95370,37.9829705,-120.3818485
37,Theall Street,95370,37.9836064,-120.3814061
119,Brookside Place,95370,37.9846846,-120.3797077
185,Theall Street,95370,37.9843499,-120.3786118
225,Rose Street,95370,37.9857283,-120.3793591
974,Nevada Street,95370,37.9723771,-120.3775281
11,Tuolumne Street,95370,37.9725259,-120.3787926
55,Tuolumne Street,95370,37.9725433,-120.3779249
941,Nevada Street,95370,37.9725864,-120.3772238
933,South Washington Street,95370,37.9728174,-120.3788568
271,Hospital Road,95370,37.9728288,-120.3764841
927,Oregon Street,95370,37.9728069,-120.3780140
929,Nevada Street,95370,37.9728193,-120.3771806
918,Oregon Street,95370,37.9728997,-120.3784031
912,Nevada Street,95370,37.9730263,-120.3776300
917,South Washington Street,95370,37.9730370,-120.3788905
29,Calaveras Street,95370,37.9732520,-120.3784443
486,Symons Lane,95370,37.9733852,-120.3851878
214,East Live Oak Drive,95370,37.9731457,-120.3771794
911,Oregon Street,95370,37.9732590,-120.3781721
204,Live Oak Drive,95370,37.9733061,-120.3769607
75,Calaveras Street,95370,37.9733215,-120.3777154
224,East Live Oak Drive,95370,37.9733647,-120.3772470
182,Live Oak Drive,95370,37.9735609,-120.3767073
555,Sonora Avenue,95370,37.9743962,-120.3902729
201,Hospital Road,95370,37.9741566,-120.3766768
221,Hospital Road,95370,37.9741355,-120.3761761
600,Sonora Avenue,95370,37.9745658,-120.3905122
539,Sonora Avenue,95370,37.9745961,-120.3899696
521,Sonora Avenue,95370,37.9747312,-120.3896430
509,Southgate Drive,95370,37.9748704,-120.3906195
501,Sonora Avenue,95370,37.9748881,-120.3893671
199,Mono Way,95370,37.9747081,-120.3761450
481,Southgate Drive,95370,37.9750177,-120.3902778
781,South Washington Street,95370,37.9749572,-120.3788221
479,Sonora Avenue,95370,37.9751328,-120.3890597
750,Sunset Street,95370,37.9750913,-120.3851971
197,Mono Way,95370,37.9749898,-120.3773589
468,Sonora Avenue,95370,37.9752794,-120.3894870
325,Leighton Lane,95370,37.9751827,-120.3828811
457,Southgate Drive,95370,37.9753824,-120.3898612
800,Sunset Street,95370,37.9753890,-120.3857858
459,Sonora Avenue,95370,37.9754441,-120.3889370
685,SOUTH WASHINGTON ST.,95370,37.9754707,-120.3788234
447,Southgate Drive,95370,37.9755400,-120.3897111
260,Mono Way,95370,37.9752490,-120.3758636
454,Sonora Avenue,95370,37.9756231,-120.3892379
238,Sunset Street,95370,37.9756053,-120.3865514
439,Sonora Avenue,95370,37.9756229,-120.3887365
403,Southgate Drive,95370,37.9757160,-120.3894849
688,Stockton Street,95370,37.9758638,-120.3926921
799,Sunset Street,95370,37.9757903,-120.3857881
350,Southgate Drive,95370,37.9758910,-120.3893106
656,Stockton Street,95370,37.9761465,-120.3925317
409,Sonora Avenue,95370,37.9760063,-120.3883363
406,Sonora Avenue,95370,37.9760871,-120.3889261
642,High Street,95370,37.9759703,-120.3814154
176,Hill Street,95370,37.9761460,-120.3878162
383,Southgate Drive,95370,37.9762085,-120.3891361
387,Sonora Avenue,95370,37.9762586,-120.3881971
415,Sonora Avenue,95370,37.9762632,-120.3887572
252,Sunset Street,95370,37.9762213,-120.3840992
365,Southgate Drive,95370,37.9763945,-120.3889706
258,Mono Way,95370,37.9761117,-120.3765594
378,Sonora Avenue,95370,37.9763938,-120.3886428
182,Hill Street,95370,37.9764186,-120.3875439
620,High Street,95370,37.9762564,-120.3816148
621,High Street,95370,37.9762699,-120.3812001
208,Gerrymander Avenue,95370,37.9764521,-120.3870118
86,Mono Way,95370,37.9762696,-120.3782945
40,Bulwer Street,95370,37.9763961,-120.3807075
665,South Washington Street,95370,37.9763792,-120.3796891
721,Barretta Street,95370,37.9762861,-120.3774880
353,Sonora Avenue,95370,37.9766125,-120.3879766
626,South Washington Street,95370,37.9765013,-120.3803630
167,Sunset Street,95370,37.9765097,-120.3831017
194,Hill Street,95370,37.9766319,-120.3874722
572,Stockton Street,95370,37.9767389,-120.3924352
220,Sunset Street,95370,37.9765900,-120.3838033
602,High Street,95370,37.9765323,-120.3816512
147,Sunset Street,95370,37.9765850,-120.3824539
341,Southgate Drive,95370,37.9767195,-120.3888127
113,Sunset Street,95370,37.9766153,-120.3820673
594,High Street,95370,37.9766599,-120.3817044
325,Southgate Drive,95370,37.9768560,-120.3884961
610,South Washington Street,95370,37.9767534,-120.3804592
621,Olive Street,95370,37.9766815,-120.3805477
202,Sunset Street,95370,37.9768251,-120.3835474
683,Barretta Street,95370,37.9766363,-120.3776965
339,Sonora Avenue,95370,37.9768532,-120.3877394
578,Stockton Street,95370,37.9770443,-120.3918755
18,Cottage Court,95370,37.9770002,-120.3927631
647,South Stewart Street,95370,37.9767340,-120.3788452
202,Gerrymander Avenue,95370,37.9769367,-120.3869248
604,Olive Street,95370,37.9767798,-120.3808480
594,Maple Street,95370,37.9767896,-120.3812353
200,Gerrymander Avenue,95370,37.9769297,-120.3863764
609,Olive Street,95370,37.9768209,-120.3806067
202,Hill Street,95370,37.9769781,-120.3873149
186,Sunset Street,95370,37.9769111,-120.3831737
128,Sunset Street,95370,37.9769185,-120.3824168
552,Olive Street,95370,37.9770017,-120.3810320
574,High Street,95370,37.9769240,-120.3818347
21,Cottage Court,95370,37.9771753,-120.3927526
665,Barretta Street,95370,37.9768332,-120.3778635
311,Southgate Drive,95370,37.9771035,-120.3887075
626,South Stewart Street,95370,37.9769114,-120.3794831
635,Barretta Street,95370,37.9769070,-120.3789575
10,Restano Way,95370,37.9769228,-120.3797084
108,Sunset Street,95370,37.9770178,-120.3821821
599,Olive Street,95370,37.9769487,-120.3806498
403,Gerrymander Avenue,95370,37.9771158,-120.3883029
652,Barretta Street,95370,37.9769064,-120.3782693
35,Cottage Court,95370,37.9773033,-120.3928519
598,South Washington Street,95370,37.9770211,-120.3804080
560,Stockton Street,95370,37.9774058,-120.3915485
67,Pepperwood Lane,95370,37.9773179,-120.3923008
625,South Stewart Street,95370,37.9770289,-120.3790269
615,South Washington Street,95370,37.9770690,-120.3798620
210,Gerrymander Avenue,95370,37.9772236,-120.3864737
643,Barretta Street,95370,37.9770573,-120.3779874
550,High Street,95370,37.9772129,-120.3821271
608,South Stewart Street,95370,37.9771517,-120.3796168
236,Hill Street,95370,37.9773840,-120.3871907
618,South Shepherd Street,95370,37.9772161,-120.3788313
613,South Stewart Street,95370,37.9772152,-120.3791275
631,Barretta Street,95370,37.9771944,-120.3780444
600,South Stewart Street,95370,37.9772339,-120.3796344
542,High Street,95370,37.9773419,-120.3822284
297,Gerrymander Avenue,95370,37.9774429,-120.3885944
97,Pepperwood Lane,95370,37.9775980,-120.3925244
620,Barretta Street,95370,37.9772966,-120.3784576
315,Sonora Avenue,95370,37.9775730,-120.3876131
289,Southgate Drive,95370,37.9775959,-120.3885208
617,Barretta Street,95370,37.9773392,-120.3780888
589,South Stewart Street,95370,37.9774441,-120.3792599
36,West Lytton Street,95370,37.9775147,-120.3812299
599,South Stewart Street,95370,37.9774723,-120.3789773
276,Gerrymander Avenue,95370,37.9776751,-120.3869684
580,South Stewart Street,95370,37.9774994,-120.3797320
599,Barretta Street,95370,37.9774672,-120.3781384
32,West Lytton Street,95370,37.9775875,-120.3810677
390,Gerrymander Avenue,95370,37.9777197,-120.3881603
602,Barretta Street,95370,37.9775398,-120.3785639
277,Southgate Drive,95370,37.9778003,-120.3886038
581,South Stewart Street,95370,37.9775671,-120.3792740
18,West Lytton Street,95370,37.9776461,-120.3809282
550,South Washington Street,95370,37.9776723,-120.3807417
572,South Stewart Street,95370,37.9776332,-120.3797857
116,Ponderosa Drive,95370,37.9779891,-120.3922319
591,Barretta Street,95370,37.9776549,-120.3782403
284,Gerrymander Avenue,95370,37.9778443,-120.3866953
592,Barretta Street,95370,37.9776724,-120.3786083
571,South Stewart Street,95370,37.9777192,-120.3793592
557,South Washington Street,95370,37.9777688,-120.3802319
534,McGowan Street,95370,37.9778521,-120.3815360
335,Gerrymander Avenue,95370,37.9779773,-120.3873070
579,South Shepherd Street,95370,37.9778061,-120.3785769
542,South Washington Street,95370,37.9778570,-120.3807974
558,South Stewart Street,95370,37.9778807,-120.3798751
573,South Shepherd Street,95370,37.9779108,-120.3787291
549,South Washington Street,95370,37.9779431,-120.3803018
520,McGowan Street,95370,37.9779935,-120.3816778
78,East Lytton Street,95370,37.9779731,-120.3794326
530,South Washington Street,95370,37.9779989,-120.3809330
304,Gerrymander Avenue,95370,37.9781338,-120.3868160
285,Sonora Avenue,95370,37.9781863,-120.3876815
567,Barretta Street,95370,37.9780487,-120.3758988
575,Barretta Street,95364,37.9780496,-120.3784158
547,South Stewart Street,95370,37.9781033,-120.3795017
538,Ponderosa Drive,95370,37.9785150,-120.3920294
504,McGowan Street,95370,37.9781709,-120.3817267
518,South Washington Street,95370,37.9781840,-120.3810257
559,South Shepherd Street,95370,37.9781172,-120.3789123
531,South Washington Street,95370,37.9781808,-120.3804003
537,South Stewart Street,95370,37.9782109,-120.3795997
507,McGowan Street,95370,37.9783358,-120.3811700
480,Stockton Street,95370,37.9788721,-120.3902431
540,South Shepherd Street,95370,37.9783193,-120.3793319
478,McGowan Street,95370,37.9783884,-120.3817166
527,South Stewart Street,95370,37.9783582,-120.3796546
480,W Stockton Street,95370,37.9789468,-120.3904213
144,Fairview Lane,95370,37.9787297,-120.3918261
517,South Stewart Street,95370,37.9784706,-120.3797382
494,South Washington Street,95370,37.9785239,-120.3811999
514,South Stewart Street,95370,37.9785275,-120.3802228
508,South Shepherd Street,95370,37.9786765,-120.3794780
527,South Shepherd Street,95370,37.9785215,-120.3791009
219,Southgate Drive,95370,37.9789114,-120.3880858
175,Fairview Lane,95370,37.9790120,-120.3911698
493,South Washington Street,95370,37.9786743,-120.3806374
515,South Shepherd Street,95370,37.9786438,-120.3791596
474,South Washington Street,95370,37.9787169,-120.3811834
497,South Stewart Street,95370,37.9787247,-120.3797910
509,South Shepherd Street,95370,37.9787713,-120.3792313
488,South Stewart Street,95370,37.9788410,-120.3803466
468,South Washington Street,95370,37.9788514,-120.3812600
489,South Stewart Street,95370,37.9788667,-120.3798738
465,South Washington Street,95370,37.9790263,-120.3807781
482,South Stewart Street,95370,37.9789555,-120.3804322
135,Otis Street,95370,37.9790105,-120.3784964
460,South Washington Street,95370,37.9789868,-120.3812870
479,South Stewart Street,95370,37.9790150,-120.3799085
497,Barretta Street,95370,37.9789758,-120.3787498
437,Barretta Street,95370,37.9790933,-120.3773235
470,South Stewart Street,95370,37.9791032,-120.3804725
183,Fairview Lane,95370,37.9794273,-120.3903156
469,South Stewart Street,95370,37.9791275,-120.3800508
440,South Washington Street,95370,37.9791940,-120.3813493
459,South Stewart Street,95370,37.9792827,-120.3800887
179,Fairview Lane,95370,37.9797701,-120.3909857
341,Knowles Hill Drive,95370,37.9793998,-120.3831544
454,Stockton Street,95370,37.9795024,-120.3897705
311,Fairview Lane,95370,37.9796952,-120.3919538
100,Livingston Street,95370,37.9793402,-120.3792830
477,Barretta Street,95370,37.9793536,-120.3788306
181,Fairview Lane,95370,37.9796626,-120.3901498
449,South Stewart Street,95370,37.9794249,-120.3801864
467,Barretta Street,95370,37.9794596,-120.3789354
31,William Street,95370,37.9796556,-120.3808523
331,Knowles Hill Drive,95370,37.9796345,-120.3832674
435,South Stewart Street,95370,37.9795696,-120.3802893
466,Golden Street,95370,37.9795183,-120.3786933
438,South Shepherd Street,95370,37.9796124,-120.3799707
457,Barretta Street,95370,37.9795956,-120.3790099
400,South Washington Street,95370,37.9797079,-120.3818056
458,Golden Street,95370,37.9796644,-120.3786833
425,South Stewart Street,95370,37.9797293,-120.3803396
315,Knowles Hill Drive,95370,37.9798508,-120.3833971
444,Barretta Street,95370,37.9797756,-120.3793739
435,South Shepherd Street,95370,37.9797853,-120.3796067
435,Barretta Street,95370,37.9798749,-120.3790860
350,South Washington Street,95370,37.9801162,-120.3819879
415,South Stewart Street,95370,37.9799546,-120.3801433
438,Golden Street,95370,37.9799036,-120.3788259
80,Forest Road,95370,37.9802364,-120.3898889
423,South Shepherd Street,95370,37.9799970,-120.3794982
301,Knowles Hill Drive,95370,37.9800897,-120.3835886
421,Barretta Street,95370,37.9800071,-120.3791258
400,South Stewart Street,95370,37.9800823,-120.3809933
411,South Shepherd Street,95370,37.9800432,-120.3798704
437,Golden Street,95370,37.9800300,-120.3775299
420,Barretta Street,95370,37.9801175,-120.3795429
275,Knowles Hill Drive,95370,37.9802459,-120.3838956
395,South Washington Street,95370,37.9802299,-120.3813373
74,William Street,95370,37.9802501,-120.3803896
413,Barretta Street,95370,37.9802107,-120.3792222
103,Forest Road,95370,37.9804553,-120.3897125
378,South Stewart Street,95370,37.9802504,-120.3810274
416,Golden Street,95370,37.9802283,-120.3789573
334,South Washington Street,95370,37.9803869,-120.3826962
359,South Washington Street,95370,37.9803771,-120.3814621
555,Cemetery Lane,95370,37.9803531,-120.3770655
362,South Stewart Street,95370,37.9804416,-120.3811013
129,Cemetery Lane,95370,37.9803821,-120.3792601
525,Cemetery Lane,95370,37.9803907,-120.3776402
220,West Church Street,95364,37.9805519,-120.3861197
139,Cemetery Lane,95370,37.9804039,-120.3789732
342,South Washington Street,95370,37.9805532,-120.3819730
375,South Shepherd Street,95370,37.9804888,-120.3800035
87,North Forest Road,95370,37.9808285,-120.3901279
366,South Shepherd Street,95370,37.9806001,-120.3804099
240,West Church Street,95370,37.9807789,-120.3863089
350,South Washington Street,95370,37.9808447,-120.3821856
365,South Shepherd Street,95370,37.9806977,-120.3800328
331,South Washington Street,95370,37.9807514,-120.3814491
364,Barretta Street,95370,37.9807355,-120.3797373
242,June Street,95370,37.9808311,-120.3831133
381,Barretta Street,95370,37.9807162,-120.3792834
356,South Shepherd Street,95370,37.9807401,-120.3804445
575,Cemetery Lane,95370,37.9807458,-120.3769761
568,Corky Lane,95370,37.9807571,-120.3778678
351,South Stewart Street,95370,37.9808395,-120.3808166
142,Cemetery Lane,95370,37.9808497,-120.3790206
369,Barretta Street,95370,37.9808209,-120.3793321
345,South Shepherd Street,95370,37.9808724,-120.3800680
340,South Shepherd Street,95370,37.9809031,-120.3805072
329,South Stewart Street,95370,37.9809728,-120.3808744
352,Barretta Street,95370,37.9809705,-120.3797395
330,South Shepherd Street,95370,37.9810287,-120.3805369
316,South Stewart Street,95370,37.9810956,-120.3813744
595,Cemetery Lane,95370,37.9810053,-120.3769387
357,Barretta Street,95370,37.9810942,-120.3792185
286,South Washington Street,95370,37.9812805,-120.3823868
560,Woods Creek Park Drive,95370,37.9814309,-120.3889196
204,Morning Star Drive,95370,37.9811775,-120.3780125
304,South Stewart Street,95370,37.9812256,-120.3814526
330,Barretta Street,95370,37.9812237,-120.3798358
247,Knowles Hill Drive,95370,37.9813857,-120.3841010
319,South Shepherd Street,95370,37.9813361,-120.3804449
372,Stockton Street,95370,37.9816075,-120.3886312
256,South Washington Street,95370,37.9816780,-120.3818446
84,Gold Street,95370,37.9814224,-120.3801512
233,June Street,95370,37.9815229,-120.3829626
311,South Shepherd Street,95370,37.9814441,-120.3805033
1,Forest Road,95370,37.9817796,-120.3924329
210,June Street,95370,37.9816542,-120.3834634
301,South Shepherd Street,95370,37.9816955,-120.3805221
333,Stockton Street,95370,37.9818166,-120.3873928
219,June Street,95370,37.9817232,-120.3830701
197,Knowles Hill Drive,95370,37.9818248,-120.3845433
4,Solinsky Drive,95370,37.9819446,-120.3888569
600,Woods Creek Park Drive,95370,37.9819710,-120.3899172
287,Wrights Lane,95370,37.9817675,-120.3802563
266,South Shepherd Street,95370,37.9818515,-120.3812153
4,Forest Road,95370,37.9823530,-120.3913745
630,Woods Creek Park Drive,95370,37.9821048,-120.3899999
238,Morning Star Drive,95370,37.9818554,-120.3780717
275,South Shepherd Street,95370,37.9820189,-120.3806489
344,Stockton Street,95370,37.9821369,-120.3880884
237,Stockton Street,95370,37.9821115,-120.3867777
328,Stockton Street,95370,37.9821771,-120.3877794
81,East Church Street,95370,37.9819958,-120.3803561
45,East Church Street,95370,37.9820240,-120.3811132
257,South Stewart Street,95370,37.9820260,-120.3813013
265,South Shepherd Street,95370,37.9820692,-120.3808221
644,Woods Creek Park Drive,95370,37.9823468,-120.3897784
229,South Washington Street,95370,37.9822381,-120.3817413
24,South Poplar Street,95370,37.9824306,-120.3876784
641,Woods Creek Park Drive,95370,37.9825584,-120.3903548
267,Morning Star Drive,95370,37.9822929,-120.3776530
305,West Jackson Street,95370,37.9825066,-120.3878833
204,South Washington Street,95370,37.9824732,-120.3823790
84,East Church Street,95370,37.9823518,-120.3805006
249,South Shepherd Street,95370,37.9823581,-120.3807559
250,Barretta Street,95370,37.9824646,-120.3803027
207,South Washington Street,95370,37.9824895,-120.3818399
341,West Jackson Street,95370,37.9826344,-120.3880740
36,South Poplar Street,95370,37.9825620,-120.3872332
244,South Shepherd Street,95370,37.9825265,-120.3813232
220,Stockton Street,95370,37.9828053,-120.3863484
229,South Shepherd Street,95370,37.9826519,-120.3807482
180,South Washington Street,95370,37.9827234,-120.3824207
16,South Poplar Street,95370,37.9828551,-120.3877059
219,South Stewart Street,95370,37.9826924,-120.3814407
55,Stockton Street,95370,37.9827949,-120.3832966
318,West Jackson Street,95370,37.9829424,-120.3882254
16,North Ash Street,95370,37.9829548,-120.3886138
650,Woods Creek Park Drive,95370,37.9830175,-120.3903044
250,West Bradford Street,95370,37.9829782,-120.3868374
222,South Shepherd Street,95370,37.9828240,-120.3813188
6,North Poplar Street,95370,37.9830288,-120.3879046
271,West Jackson Street,95370,37.9830600,-120.3873101
222,Barretta Street,95370,37.9830084,-120.3803955
323,Yaney Avenue,95370,37.9831378,-120.3883232
339,Morning Star Drive,95370,37.9830044,-120.3771454
240,West Bradford Street,95370,37.9831924,-120.3865946
259,West Jackson Street,95370,37.9831882,-120.3869732
40,North Ash Street,95370,37.9832115,-120.3888379
311,Yaney Avenue,95370,37.9832291,-120.3882249
70,West Stockton Street,95370,37.9832019,-120.3836267
355,Morning Star Drive,95370,37.9830573,-120.3768893
280,West Jackson Street,95370,37.9833141,-120.3876762
183,West Bradford Street,95370,37.9832680,-120.3858005
303,Yaney Avenue,95370,37.9833104,-120.3881051
46,North Ash Street,95370,37.9833325,-120.3889400
268,West Jackson Street,95370,37.9833436,-120.3875259
318,Yaney Avenue,95370,37.9833562,-120.3886271
332,Morning Star Drive,95370,37.9832409,-120.3775404
363,Morning Star Drive,95370,37.9832778,-120.3767212
304,Yaney Avenue,95370,37.9835135,-120.3882780
165,West Bradford Street,95370,37.9834539,-120.3854679
25,North Poplar Street,95370,37.9835351,-120.3876428
346,Morning Star Drive,95370,37.9833462,-120.3773109
259,Yaney Avenue,95370,37.9835585,-120.3873101
188,West Bradford Street,95370,37.9835270,-120.3859642
226,West Jackson Street,95370,37.9836275,-120.3869628
310,Yaney Avenue,95370,37.9835879,-120.3886984
157,West Bradford Street,95370,37.9835589,-120.3850011
215,West Jackson Street,95370,37.9835549,-120.3865057
189,Cemetery Lane,95370,37.9835043,-120.3800655
40,North Forest Road,95370,37.9837806,-120.3910327
360,Morning Star Drive,95370,37.9834711,-120.3771141
37,North Poplar Street,95370,37.9836602,-120.3879826
371,Morning Star Drive,95370,37.9834744,-120.3766069
167,South Shepherd Street,95370,37.9835819,-120.3808724
135,Theall Street,95370,37.9835129,-120.3792959
72,North Poplar Street,95370,37.9837483,-120.3885932
158,West Bradford Street,95370,37.9837609,-120.3856047
119,Theall Street,95370,37.9837103,-120.3796407
12,Seco Street,95370,37.9837597,-120.3871503
60,Pine Street,95370,37.9836888,-120.3846327
137,West Bradford Street,95370,37.9837041,-120.3849965
49,North Poplar Street,95370,37.9838015,-120.3880446
5,Seco Street,95370,37.9837710,-120.3866203
174,Barretta Street,95370,37.9836436,-120.3804996
93,South Washington Street,95370,37.9842288,-120.3822184
115,West Bradford Street,95370,37.9837838,-120.3848024
179,Barretta Street,95370,37.9836699,-120.3800993
252,Yaney Avenue,95370,37.9838779,-120.3875977
207,Yaney Avenue,95370,37.9839142,-120.3867786
57,North Poplar Street,95370,37.9839156,-120.3880846
381,Morning Star Drive,95370,37.9836891,-120.3765557
165,Dodge Lane,95370,37.9837956,-120.3779229
98,South Washington Street,95370,37.9838705,-120.3825253
84,West Linoberg Street,95370,37.9838530,-120.3840604
80,North Poplar Street,95370,37.9839753,-120.3886362
169,Barretta Street,95370,37.9837988,-120.3801428
54,North Elm Street,95370,37.9839913,-120.3878125
378,Morning Star Drive,95370,37.9837796,-120.3770282
680,Woods Creek Park Drive,95370,37.9840851,-120.3902901
236,Yaney Avenue,95370,37.9839999,-120.3873062
66,West Linoberg Street,95370,37.9839715,-120.3838626
153,South Shepherd Street,95370,37.9839124,-120.3806423
149,South Shepherd Street,95370,37.9839152,-120.3810044
60,West Linoberg Street,95370,37.9839851,-120.3835141
224,Yaney Avenue,95370,37.9840991,-120.3871331
159,Barretta Street,95370,37.9839530,-120.3802141
67,North Poplar Street,95370,37.9841060,-120.3881136
69,North Poplar Street,95370,37.9841422,-120.3883568
85,West Bradford Street,95370,37.9840626,-120.3842200
90,North Poplar Street,95370,37.9841372,-120.3887235
393,Morning Star Drive,95370,37.9839129,-120.3765692
72,South Green Street,95370,37.9840714,-120.3833162
116,West Bradford Street,95370,37.9841896,-120.3850887
396,Morning Star Drive,95370,37.9839949,-120.3771066
137,South Shepherd Street,95370,37.9840972,-120.3809926
151,Barretta Street,95370,37.9840612,-120.3802500
38,Oak Street,95370,37.9842217,-120.3869031
30,North Elm Street,95370,37.9842442,-120.3875011
159,Theall Street,95370,37.9840806,-120.3792471
145,Barretta Street,95370,37.9841515,-120.3803212
128,Theall Street,95370,37.9841524,-120.3798802
50,Oak Street,95370,37.9843405,-120.3869808
88,West Bradford Street,95370,37.9843115,-120.3845328
105,South Stewart Street,95370,37.9842739,-120.3815221
137,Barretta Street,95370,37.9842631,-120.3804252
103,South Shepherd Street,95370,37.9844331,-120.3811756
107,North Poplar Street,95370,37.9844469,-120.3886083
408,Morning Star Drive,95370,37.9842117,-120.3771605
45,West Bradford Street,95370,37.9843957,-120.3836231
73,North Elm Street,95370,37.9844235,-120.3876475
84,North Elm Street,95370,37.9844357,-120.3879948
45,South Washington Street,95370,37.9848143,-120.3826238
58,Oak Street,95370,37.9844475,-120.3870955
176,Yaney Avenue,95370,37.9844336,-120.3865033
130,Barretta Street,95370,37.9842963,-120.3808499
97,South Stewart Street,95370,37.9843744,-120.3816037
426,Sundown Lane,95370,37.9842705,-120.3765055
78,West Bradford Street,95370,37.9844374,-120.3842664
131,Barretta Street,95370,37.9843943,-120.3805356
33,West Bradford Street,95370,37.9844648,-120.3834770
83,South Stewart Street,95370,37.9845018,-120.3817223
70,Oak Street,95370,37.9845536,-120.3871810
34,Lower Sunset Drive,95370,37.9845717,-120.3862172
89,Ayba Street,95370,37.9845990,-120.3877430
73,West Jackson Street,95370,37.9846217,-120.3844017
94,West Jackson Street,95370,37.9846692,-120.3853318
422,Morning Star Drive,95370,37.9844237,-120.3771549
65,Oak Street,95370,37.9846743,-120.3867761
78,Oak Street,95370,37.9846812,-120.3872539
160,Dodge Lane,95370,37.9845346,-120.3793397
197,Theall Street,95370,37.9845256,-120.3786859
121,Brookside Place,95370,37.9845734,-120.3801708
436,Sundown Lane,95370,37.9844978,-120.3765409
146,Yaney Avenue,95370,37.9847314,-120.3858996
54,Lower Sunset Drive,95370,37.9847324,-120.3863233
203,Theall Street,95370,37.9845681,-120.3782827
236,Ayba Street,95370,37.9847886,-120.3879204
104,Barretta Street,95370,37.9846411,-120.3810585
98,Oak Street,95370,37.9847921,-120.3873641
611,Daybreak Court,95370,37.9845998,-120.3753852
68,Lower Sunset Drive,95370,37.9848516,-120.3864563
186,Theall Street,95370,37.9846868,-120.3790879
4,South Washington Street,95370,37.9851387,-120.3835217
98,Barretta Street,95370,37.9847465,-120.3810663
446,Sundown Lane,95370,37.9846839,-120.3765355
100,Oak Street,95370,37.9849490,-120.3876169
40,Upper Sunset Drive,95370,37.9849267,-120.3855466
198,Theall Street,95370,37.9847878,-120.3789806
65,Lower Sunset Drive,95370,37.9849693,-120.3860646
80,West Jackson Street,95370,37.9849704,-120.3845333
215,Theall Street,95370,37.9848023,-120.3781157
90,Dodge Lane,95370,37.9849056,-120.3803688
449,Morning Star Court,95370,37.9848249,-120.3770763
118,Dodge Lane,95370,37.9848880,-120.3798005
143,Dodge Lane,95370,37.9848848,-120.3792331
605,Daybreak Court,95370,37.9848098,-120.3755053
94,Lower Sunset Drive,95370,37.9850900,-120.3865880
204,Theall Street,95370,37.9848959,-120.3788594
456,Sundown Lane,95370,37.9848619,-120.3765187
58,Upper Sunset Drive,95370,37.9851062,-120.3857982
133,Dodge Lane,95370,37.9849709,-120.3793128
107,Lyons Street,95370,37.9850206,-120.3808250
216,Theall Street,95370,37.9849857,-120.3787210
79,Lower Sunset Drive,95370,37.9851485,-120.3862080
219,Theall Street,95370,37.9849893,-120.3781594
105,Oak Street,95370,37.9851855,-120.3872175
90,Yaney Avenue,95370,37.9852181,-120.3849106
92,Lyons Street,95370,37.9851352,-120.3812602
461,Morning Star Court,95370,37.9850461,-120.3770905
123,Dodge Lane,95370,37.9850858,-120.3794329
602,Daybreak Court,95370,37.9850586,-120.3753420
68,Upper Sunset Drive,95370,37.9852717,-120.3857987
106,Lower Sunset Drive,95370,37.9852826,-120.3867872
27,South Stewart Street,95370,37.9854825,-120.3822966
305,Bonanza Road,95370,37.9853627,-120.3895168
95,Lower Sunset Drive,95370,37.9853006,-120.3863922
220,Theall Street,95370,37.9851591,-120.3786741
93,West Dodge Street,95370,37.9852976,-120.3853585
102,Lyons Street,95370,37.9851994,-120.3810244
53,South Shepherd Street,95370,37.9852338,-120.3815156
46,North Norlin Street,95370,37.9853394,-120.3849982
133,Oak Street,95370,37.9853798,-120.3874861
118,Lower Sunset Drive,95370,37.9853882,-120.3869012
221,Theall Street,95370,37.9852248,-120.3780024
231,Rose Street,95370,37.9853344,-120.3790330
151,Rose Street,95370,37.9852802,-120.3796855
45,South Shepherd Street,95370,37.9853612,-120.3815681
222,Theall Street,95370,37.9853186,-120.3783119
130,Lower Sunset Drive,95370,37.9854867,-120.3870000
140,Lower Sunset Drive,95370,37.9854955,-120.3872262
155,Oak Street,95370,37.9855198,-120.3877975
95,North Forest Road,95370,37.9856566,-120.3920644
482,Sundown Lane,95370,37.9853111,-120.3764431
100,Hillcrest Street,95370,37.9854330,-120.3808656
60,North Norlin Street,95370,37.9854902,-120.3849829
558,Dusk Lane,95370,37.9853542,-120.3758026
119,Lower Sunset Drive,95370,37.9855542,-120.3866348
299,Bonanza Road,95370,37.9856468,-120.3889491
187,Oak Street,95370,37.9856858,-120.3879938
87,Upper Sunset Drive,95370,37.9856352,-120.3858479
150,Lower Sunset Drive,95370,37.9856583,-120.3872885
148,Lyons Street,95370,37.9855638,-120.3806066
95,Upper Sunset Drive,95370,37.9856943,-120.3860215
27,South Shepherd Street,95370,37.9856058,-120.3816648
151,Lyons Street,95370,37.9855647,-120.3802169
160,Lower Sunset Drive,95370,37.9857692,-120.3874251
574,Dusk Lane,95370,37.9855184,-120.3755830
72,North Norlin Street,95370,37.9856875,-120.3852278
518,Sundown Lane,95370,37.9855536,-120.3762587
98,North Norlin Street,95370,37.9858067,-120.3856765
47,North Washington Street,95370,37.9860391,-120.3835338
305,Live Oak Street,95370,37.9859420,-120.3918764
161,Lyons Street,95370,37.9857218,-120.3801448
154,Lyons Street,95370,37.9857796,-120.3805581
97,East Jackson Street,95370,37.9857917,-120.3813736
10,East Jackson Street,95370,37.9858570,-120.3827217
180,Lower Sunset Drive,95370,37.9859355,-120.3875733
363,Alpine Lane,95370,37.9859982,-120.3909395
94,North Norlin Street,95370,37.9859181,-120.3852873
109,East Jackson Street,95370,37.9858153,-120.3811501
232,Theall Street,95370,37.9857662,-120.3783331
235,Theall Street,95370,37.9858076,-120.3777669
5,South Shepherd Street,95370,37.9858689,-120.3819411
68,North Green Street,95370,37.9859217,-120.3845234
171,Lyons Street,95370,37.9858391,-120.3800588
308,Bonanza Road,95370,37.9860871,-120.3901930
135,Upper Sunset Drive,95370,37.9860013,-120.3865960
351,Alpine Lane,95370,37.9861298,-120.3905587
85,North Norlin Street,95370,37.9860109,-120.3849299
78,North Green Street,95370,37.9860371,-120.3846199
121,Upper Sunset Drive,95370,37.9860887,-120.3861961
35,North Stewart Street,95370,37.9860180,-120.3828544
153,Upper Sunset Drive,95370,37.9861090,-120.3869251
181,Lyons Street,95370,37.9859971,-120.3800006
300,Bonanza Road,95370,37.9862760,-120.3900766
356,Alpine Lane,95370,37.9862775,-120.3911346
900,Greenley Road,95370,37.9766124,-120.3711731
777,East Jackson Street,95370,37.9884735,-120.3713422
91,Truckenmiller Road,95370,37.9748006,-120.3740687
420,Greenley Road,95370,37.9836136,-120.3688890
743,Oakside Drive,95370,37.9882176,-120.3729778
725,Oakside Drive,95370,37.9882146,-120.3732586
786,Bald Mountain Road,95370,37.9908733,-120.3729230
748,Bald Mountain Road,95370,37.9895085,-120.3737436
651,Oakside Drive,95370,37.9881943,-120.3745984
633,Oakside Drive,95370,37.9882709,-120.3749523
480,Greenley Road,95370,37.9825453,-120.3690787
671,Twilight Court,95370,37.9844938,-120.3731424
938,Highlands View Drive,95370,37.9838500,-120.3748599
568,Morning Star Drive,95370,37.9856561,-120.3750634
120,Old Wards Ferry Road,95370,37.9713926,-120.3683970
425,Mono Way,95370,37.9719639,-120.3724979
355,Hospital Road,95370,37.9728724,-120.3741234
323,Hospital Road,95370,37.9729423,-120.3742866
400,Mono Way,95370,37.9736065,-120.3741696
701,Sanguinetti Road,95370,37.9735453,-120.3700058
701,Mono Way,95370,37.9739035,-120.3700391
729,Mono Way,95370,37.9743761,-120.3693959
1230,Sanguinetti Road,95370,37.9747325,-120.3625805
1290,Sanguinetti Road,95370,37.9747313,-120.3619691
1085,Mono Way,95370,37.9749235,-120.3641816
852,Mono Way,95370,37.9755237,-120.3684067
1201,Mono Way,95370,37.9754900,-120.3623470
1241,Mono Way,95370,37.9755048,-120.3620577
1183,Mono Way,95370,37.9755317,-120.3626965
1155,Mono Way,95370,37.9755648,-120.3630608
690,Guzzi Lane,95370,37.9763897,-120.3722418
1030,Greenley Road,95370,37.9765228,-120.3700304
330,Truckenmiller Road,95370,37.9775427,-120.3732919
830,Greenley Road,95370,37.9802646,-120.3701266
995,Cemetery Lane,95370,37.9808329,-120.3742974
999,Cemetery Lane,95370,37.9829526,-120.3741625
902,Highlands View Drive,95370,37.9836057,-120.3739683
914,Highlands View Drive,95370,37.9836069,-120.3742390
926,Highlands View Drive,95370,37.9837188,-120.3746181
645,Twilight Court,95370,37.9838043,-120.3734297
658,Twilight Court,95370,37.9839432,-120.3738466
795,Morning Star Drive,95370,37.9840256,-120.3710418
950,Highlands View Drive,95370,37.9840267,-120.3750248
659,Twilight Court,95370,37.9839950,-120.3732893
633,Twilight Court,95370,37.9840369,-120.3742132
667,Twilight Court,95370,37.9841997,-120.3732100
670,Twilight Court,95370,37.9842730,-120.3738570
622,Twilight Lane,95370,37.9844383,-120.3742076
682,Twilight Court,95370,37.9844520,-120.3737075
679,Twilight Court,95370,37.9844542,-120.3734016
905,Morning Star Drive,95370,37.9844348,-120.3695013
885,Morning Star Drive,95370,37.9844596,-120.3700749
745,Morning Star Drive,95370,37.9844746,-120.3719483
621,Daybreak Court,95370,37.9845246,-120.3750180
624,Daybreak Court,95370,37.9848706,-120.3748126
945,Morning Star Drive,95370,37.9848027,-120.3687041
644,Morning Star Drive,95370,37.9849514,-120.3737535
678,Morning Star Drive,95370,37.9849710,-120.3734351
610,Daybreak Court,95370,37.9850369,-120.3749705
975,Morning Star Drive,95370,37.9849315,-120.3682053
995,Morning Star Drive,95370,37.9850523,-120.3676605
800,Morning Star Drive,95370,37.9851907,-120.3708425
506,Morning Star Drive,95370,37.9852980,-120.3746019
1015,Morning Star Drive,95370,37.9852492,-120.3673467
250,Greenley Road,95370,37.9853723,-120.3697225
580,Morning Star Drive,95370,37.9854901,-120.3748191
701,Old Bald Mountain Road,95370,37.9865493,-120.3716919
801,East Lyons Bald Mountain Road,95370,37.9868490,-120.3708144
200,Greenley Road,95370,37.9866411,-120.3690317
449,Lyons Street,95370,37.9869325,-120.3749043
696,Old Bald Mountain Road,95370,37.9870947,-120.3720516
572,East Jackson Street,95370,37.9873345,-120.3747217
536,Lyons Street,95370,37.9873818,-120.3743688
492,Lyons Street,95370,37.9874036,-120.3750426
556,Lyons Street,95370,37.9874358,-120.3740751
634,Lyons Street,95370,37.9874487,-120.3726626
699,East Jackson Street,95370,37.9875013,-120.3722939
616,Lyons Street,95370,37.9875979,-120.3729960
715,East Jackson Street,95370,37.9876637,-120.3719962
584,East Jackson Street,95370,37.9877636,-120.3743004
702,Lyons Street,95370,37.9877769,-120.3717339
610,East Jackson Street,95370,37.9878327,-120.3740458
564,East Jackson Street,95370,37.9878724,-120.3745751
664,East Jackson Street,95370,37.9878520,-120.3729349
646,East Jackson Street,95370,37.9879091,-120.3732275
722,Lyons Street,95370,37.9879374,-120.3716110
712,East Jackson Street,95370,37.9879953,-120.3720579
757,East Jackson Street,95370,37.9881758,-120.3714872
663,Oakside Drive,95370,37.9882324,-120.3742808
685,Oakside Drive,95370,37.9882166,-120.3739520
791,Oakside Drive,95370,37.9882229,-120.3719133
705,Oakside Drive,95370,37.9882211,-120.3736128
779,Oakside Drive,95370,37.9882288,-120.3722959
821,Oakside Drive,95370,37.9884742,-120.3717757
708,Oakside Drive,95370,37.9885753,-120.3737560
100,Greenley Road,95370,37.9884926,-120.3701630
624,Oakside Drive,95370,37.9886136,-120.3750172
80,Park Lane,95370,37.9886179,-120.3744447
800,Oakside Drive,95370,37.9885915,-120.3723408
772,Oakside Drive,95370,37.9886364,-120.3728583
703,Bald Mountain Road,95370,37.9886269,-120.3733914
795,East Jackson Street,95370,37.9887246,-120.3711842
832,Oakside Drive,95370,37.9887743,-120.3719645
60,Circle Drive,95370,37.9888971,-120.3728479
668,Bald Mountain Road,95370,37.9889020,-120.3741838
715,Bald Mountain Road,95370,37.9889281,-120.3732890
708,Bald Mountain Road,95370,37.9889378,-120.3739082
854,Oakside Drive,95370,37.9889527,-120.3716644
646,Bald Mountain Road,95370,37.9890158,-120.3745709
885,Oakside Drive,95370,37.9889502,-120.3710169
630,Bald Mountain Road,95370,37.9890290,-120.3748260
728,Bald Mountain Road,95370,37.9891947,-120.3737510
882,Oakside Drive,95370,37.9892330,-120.3714515
881,Bald Mountain Road,95370,37.9892850,-120.3717883
743,Bald Mountain Road,95370,37.9893048,-120.3732462
843,Bald Mountain Road,95370,37.9893699,-120.3725040
821,Bald Mountain Road,95370,37.9894741,-120.3728148
757,Bald Mountain Road,95370,37.9896069,-120.3732782
768,Bald Mountain Road,95370,37.9897371,-120.3737224
780,Bald Mountain Road,95370,37.9900039,-120.3737852
428,Bald Mountain Road,95370,37.9908388,-120.3749991
397,Bald Mountain Road,95370,37.9916858,-120.3749104
21,Monte Vista Lane,95370,37.9879471,-120.3810830
690,Golden Gate Court,95370,37.9892868,-120.3945605
90,Columbia Way,95370,37.9912155,-120.3828968
115,Roble Road,95370,38.0020786,-120.3884050
188,Columbia Way,95370,37.9923845,-120.3820111
125,North Washington Street,95370,37.9867775,-120.3841441
91,North Washington Street,95370,37.9865920,-120.3839847
85,North Washington Street,95370,37.9864607,-120.3839900
64,North Stewart Street,95370,37.9861940,-120.3834959
832,Shaws Flat Road,95370,37.9955646,-120.3893887
247,Hillcrest Street,95370,37.9875375,-120.3799314
399,Calaveras Way,95370,37.9880894,-120.3904706
132,Mccormick Drive,95370,37.9958557,-120.3880051
15,Corte Del Encino,95370,38.0001460,-120.3882337
172,Lyons Street,95370,37.9861212,-120.3804828
95,Terrace Avenue,95370,37.9873002,-120.3782681
405,Arbona Circle North,95370,37.9880655,-120.3951757
209,Bourbon,95370,37.9893721,-120.3815081
157,Corte Del Encino,95370,37.9991028,-120.3872061
145,Crooked Lane,95370,37.9675166,-120.3843344
1023,South Washington Street,95370,37.9720616,-120.3776637
152,Truckenmiller Road,95370,37.9768726,-120.3754589
470,Lyons Street,95370,37.9875278,-120.3754347
160,East Jackson Street,95370,37.9869913,-120.3809638
565,Bald Mountain Road,95370,37.9891722,-120.3756760
589,Bald Mountain Road,95370,37.9889380,-120.3755504
491,Bald Mountain Road,95370,37.9903573,-120.3753809
493,Bald Mountain Road,95370,37.9905178,-120.3755711
639,Orchard Avenue,95370,37.9938209,-120.3869592
842,Shaws Flat Road,95370,37.9955432,-120.3902441
41,Ohara Drive,95370,37.9988278,-120.3846558
57,Elk Drive,95370,37.9976866,-120.3869127
282,Reservoir Road,95370,37.9998904,-120.3921447
229,North Stewart Street,95370,37.9885114,-120.3838175
206,North Shepherd Street,95370,37.9885029,-120.3835322
192,North Shepherd Street,95370,37.9883826,-120.3835655
241,North Stewart Street,95370,37.9886657,-120.3838371
162,North Shepherd Street,95370,37.9879795,-120.3835553
153,North Stewart Street,95370,37.9876567,-120.3837414
34,Wyckoff Street,95370,37.9879184,-120.3853143
23,Snell Street,95370,37.9871543,-120.3850652
65,North Washington Street,95370,37.9862902,-120.3838283
77,North Washington Street,95370,37.9863754,-120.3838978
74,North Stewart Street,95370,37.9863743,-120.3836471
494,Snell Street,95370,37.9894053,-120.3912605
201,Snell Street,95370,37.9881435,-120.3877092
47,Arbona Circle South,95370,37.9878888,-120.3914887
418,Calaveras Way,95370,37.9880968,-120.3911031
376,Calaveras Way,95370,37.9875368,-120.3906302
374,Calaveras Way,95370,37.9873637,-120.3904356
359,Calaveras Way,95370,37.9875906,-120.3900340
315,Calaveras Way,95370,37.9870881,-120.3895639
239,Rose Street,95370,37.9861033,-120.3786821
114,Palemone Street,95370,37.9863883,-120.3790122
124,Palemone Street,95370,37.9863036,-120.3788701
199,Lyons Street,95370,37.9862512,-120.3797312
213,Lyons Street,95370,37.9863579,-120.3798038
228,Rose Street,95370,37.9862267,-120.3791716
97,Palemone Street,95370,37.9868256,-120.3790246
359,Lyons Street,95370,37.9874619,-120.3775811
349,Lyons Street,95370,37.9874473,-120.3778365
105,Terrace Avenue,95370,37.9871006,-120.3783749
297,Lyons Street,95370,37.9874729,-120.3788802
256,Hillcrest Street,95370,37.9879073,-120.3797806
305,East Jackson Street,95370,37.9882801,-120.3793481
266,East Jackson Street,95370,37.9884245,-120.3796980
251,Pasadena Avenue,95370,37.9883033,-120.3799027
314,Pasadena Avenue,95370,37.9889896,-120.3795189
330,Pasadena Avenue,95370,37.9891150,-120.3793544
304,Pasadena Avenue,95370,37.9889003,-120.3797365
351,North Washington Street,95370,37.9900171,-120.3842235
478,North Stewart Street,95370,37.9911735,-120.3821780
130,Wall Street,95370,37.9905557,-120.3820389
138,Wall Street,95370,37.9904944,-120.3819008
295,North Washington Street,95370,37.9892832,-120.3843063
305,North Washington Street,95370,37.9894289,-120.3842869
59,Columbia Way,95370,37.9910381,-120.3838010
480,Shaws Flat Road,95370,37.9917187,-120.3881468
547,Shaws Flat Road,95370,37.9925736,-120.3864893
148,Mccormick Drive,95370,37.9957211,-120.3877740
101,Mccormick Drive,95370,37.9964284,-120.3878195
181,Elk Drive,95370,37.9963279,-120.3858205
156,Elk Drive,95370,37.9964774,-120.3864179
276,Mccormick Drive,95370,37.9948448,-120.3862628
280,Mccormick Drive,95370,37.9946861,-120.3860437
282,Elk Drive,95370,37.9946036,-120.3856894
300,Elk Drive,95370,37.9943897,-120.3855524
700,Golden Gate Court,95370,37.9889174,-120.3942187
647,Arbona Circle North,95370,37.9899129,-120.3932667
221,Ridge Road,95370,37.9998731,-120.3906006
121,Crooked Lane,95370,37.9663956,-120.3828403
150,Crooked Lane,95370,37.9668025,-120.3819620
172,Crooked Lane,95370,37.9674641,-120.3821002
194,Crooked Lane,95370,37.9679379,-120.3827683
216,Crooked Lane,95370,37.9686510,-120.3826126
165,Crooked Lane,95370,37.9688278,-120.3848732
1210,South Washington Street,95370,37.9700670,-120.3789603
1170,South Washington Street,95370,37.9702757,-120.3790549
520,Symons Lane,95370,37.9713203,-120.3839689
957,Nevada Street,95370,37.9720928,-120.3768312
975,Nevada Street,95370,37.9722983,-120.3771016
363,Hospital Road,95370,37.9727329,-120.3752482
251,Hospital Road,95370,37.9732903,-120.3754669
805,Stockton Street,95370,37.9746168,-120.3931896
91,Cottage Court,95370,37.9772511,-120.3933995
105,Cottage Court,95370,37.9774003,-120.3934188
51,Cottage Court,95370,37.9774097,-120.3932095
114,Cottage Court,95370,37.9774151,-120.3938321
45,Cottage Court,95370,37.9774489,-120.3929908
113,Woodside Drive,95370,37.9778436,-120.3938967
97,Woodside Drive,95370,37.9778431,-120.3935012
65,Woodside Drive,95370,37.9778524,-120.3933029
169,Woodside Drive,95370,37.9780195,-120.3942408
203,Woodside Drive,95370,37.9782144,-120.3942772
219,Woodside Drive,95370,37.9783693,-120.3942581
235,Woodside Drive,95370,37.9785291,-120.3942341
251,Woodside Drive,95370,37.9786862,-120.3942046
267,Woodside Drive,95370,37.9788440,-120.3941577
283,Woodside Drive,95370,37.9789997,-120.3941282
299,Woodside Drive,95370,37.9791566,-120.3940985
140,Fairview Lane,95370,37.9798062,-120.3929859
106,Sylvan Lane,95370,37.9825812,-120.3934605
206,Sylvan Lane,95370,37.9830995,-120.3935679
60,North Forest Road,95370,37.9833874,-120.3933827
80,North Forest Road,95370,37.9836653,-120.3928125
399,Sylvan Lane,95370,37.9835720,-120.3937904
236,Sylvan Lane,95370,37.9838726,-120.3943086
962,Highlands View Drive,95370,37.9842557,-120.3751683
336,North Forest Road,95370,37.9848168,-120.3936813
475,Alpine Lane,95370,37.9861023,-120.3932442
453,Alpine Lane,95370,37.9860805,-120.3926177
459,Alpine Lane,95370,37.9861123,-120.3928814
487,Alpine Lane,95370,37.9863023,-120.3933732
335,Alpine Lane,95370,37.9863314,-120.3905432
94,North Green Street,95370,37.9861760,-120.3849779
82,East Jackson Street,95370,37.9861067,-120.3821487
126,North Norlin Street,95370,37.9862182,-120.3856252
175,Upper Sunset Drive,95370,37.9862700,-120.3872288
514,Morning Star Court,95370,37.9860753,-120.3768001
136,Hillcrest Street,95370,37.9861380,-120.3809238
56,North Shepherd Street,95370,37.9862078,-120.3829013
96,East Jackson Street,95370,37.9861710,-120.3818244
84,North Washington Street,95370,37.9862595,-120.3843462
195,Lyons Street,95370,37.9861434,-120.3799647
396,Alpine Lane,95370,37.9864171,-120.3916075
188,Lyons Street,95370,37.9861922,-120.3803458
68,North Shepherd Street,95370,37.9862551,-120.3831340
245,Rose Street,95370,37.9861815,-120.3785575
480,Alpine Lane,95370,37.9865232,-120.3926988
142,Hillcrest Street,95370,37.9863067,-120.3808865
505,Alpine Lane,95370,37.9866060,-120.3933100
319,Alpine Lane,95370,37.9865396,-120.3904817
422,Alpine Lane,95370,37.9865477,-120.3919787
69,North Stewart Street,95370,37.9863567,-120.3832019
192,Lyons Street,95370,37.9863505,-120.3801838
165,Arbona Circle South,95370,37.9865791,-120.3912935
539,Alpine Lane,95370,37.9866006,-120.3936345
66,North Shepherd Street,95370,37.9863608,-120.3828673
338,Alpine Lane,95370,37.9866302,-120.3909740
444,Alpine Lane,95370,37.9865980,-120.3924303
126,East Jackson Street,95370,37.9864354,-120.3812764
125,North Norlin Street,95370,37.9864948,-120.3853211
61,North Shepherd Street,95370,37.9864250,-120.3823820
187,Arbona Circle South,95370,37.9866349,-120.3914905
99,North Washington Street,95370,37.9866744,-120.3840776
165,Hillcrest Street,95370,37.9863984,-120.3804510
145,Palemone Street,95370,37.9863643,-120.3782833
104,Palemone Street,95370,37.9864252,-120.3792025
92,North Shepherd Street,95370,37.9864867,-120.3829194
496,Alpine Lane,95370,37.9867667,-120.3928135
284,Bonanza Road,95370,37.9866722,-120.3899551
160,Hillcrest Street,95370,37.9864755,-120.3807630
221,Lyons Street,95370,37.9864705,-120.3797399
299,Alpine Lane,95370,37.9867464,-120.3904080
203,Arbona Circle South,95370,37.9867789,-120.3917409
92,Palemone Street,95370,37.9865284,-120.3793197
219,Arbona Circle South,95370,37.9868225,-120.3919642
144,North Norlin Street,95370,37.9866978,-120.3864633
121,Terrace Avenue,95370,37.9865305,-120.3784895
99,North Stewart Street,95370,37.9867240,-120.3835244
174,Hillcrest Street,95370,37.9866178,-120.3807027
150,North Norlin Street,95370,37.9867657,-120.3858081
237,Arbona Circle South,95370,37.9868926,-120.3922644
227,Lyons Street,95370,37.9866243,-120.3797013
270,Bonanza Road,95370,37.9868596,-120.3898423
126,North Washington Street,95370,37.9867694,-120.3846910
35,Short,95370,37.9866680,-120.3801993
136,North Green Street,95370,37.9868333,-120.3853460
281,Alpine Lane,95370,37.9869208,-120.3902773
87,North Shepherd Street,95370,37.9868043,-120.3827917
275,Snell Street,95370,37.9869171,-120.3884321
526,Alpine Lane,95370,37.9870011,-120.3933084
111,Palemone Street,95370,37.9867091,-120.3789063
132,North Washington Street,95370,37.9868874,-120.3848087
121,Arbona Circle South,95370,37.9869936,-120.3911735
544,Alpine Lane,95370,37.9870468,-120.3936468
253,Arbona Circle South,95370,37.9870332,-120.3925083
231,Lyons Street,95370,37.9867751,-120.3796464
76,Summit Avenue,95370,37.9868407,-120.3820760
314,Calaveras Way,95370,37.9869882,-120.3898909
224,Lyons Street,95370,37.9868207,-120.3801145
151,East Jackson Street,95370,37.9868349,-120.3806084
275,Arbona Circle South,95370,37.9871402,-120.3928198
330,Calaveras Way,95370,37.9870905,-120.3900615
160,Arbona Circle South,95370,37.9871640,-120.3917853
115,Terrace Avenue,95370,37.9868670,-120.3783004
89,Palemone Street,95370,37.9868653,-120.3791622
66,Summit Avenue,95370,37.9869551,-120.3816856
280,Alpine Lane,95370,37.9871605,-120.3906815
151,North Norlin Street,95370,37.9870619,-120.3858947
144,North Washington Street,95370,37.9870026,-120.3849372
107,Arbona Circle South,95370,37.9871884,-120.3910293
230,Lyons Street,95370,37.9869545,-120.3800636
81,Palemone Street,95370,37.9869853,-120.3792801
107,North Shepherd Street,95370,37.9870600,-120.3827045
200,Hillcrest Street,95370,37.9870150,-120.3804949
327,Calaveras Way,95370,37.9872568,-120.3896838
228,Arbona Circle South,95370,37.9873090,-120.3920437
96,Arbona Circle South,95370,37.9873075,-120.3915631
234,Lyons Street,95370,37.9870507,-120.3799895
191,Upper Sunset Drive,95370,37.9871985,-120.3864577
343,Calaveras Way,95370,37.9873992,-120.3898739
210,Bonanza Road,95370,37.9872965,-120.3892843
104,Terrace Avenue,95370,37.9870520,-120.3788814
46,Summit Avenue,95370,37.9871428,-120.3816717
37,Elkin Street,95370,37.9872065,-120.3839305
47,Elkin Street,95370,37.9872381,-120.3836607
243,Lyons Street,95370,37.9871485,-120.3794646
307,Arbona Circle North,95370,37.9874673,-120.3937176
170,East Jackson Street,95370,37.9871694,-120.3808920
96,Summit Avenue,95370,37.9872462,-120.3823760
248,Arbona Circle South,95370,37.9874661,-120.3924305
91,Summit Avenue,95370,37.9872772,-120.3819140
48,Arbona Circle South,95370,37.9874922,-120.3918915
325,Arbona Circle North,95370,37.9875279,-120.3939399
179,East Jackson Street,95370,37.9872203,-120.3804509
147,North Washington Street,95370,37.9873167,-120.3843488
94,Terrace Avenue,95370,37.9871917,-120.3788609
29,Snell Street,95370,37.9873618,-120.3852260
320,Snell Street,95370,37.9874865,-120.3894042
339,Arbona Circle North,95370,37.9876076,-120.3942658
264,Arbona Circle South,95370,37.9875936,-120.3926514
273,Lyons Street,95370,37.9872987,-120.3792317
36,Arbona Circle South,95370,37.9875868,-120.3922063
28,Palemone Street,95370,37.9873618,-120.3801467
259,Snell Street,95370,37.9874909,-120.3879930
189,East Jackson Street,95370,37.9873684,-120.3804377
155,North Washington Street,95370,37.9874547,-120.3843516
246,Lyons Street,95370,37.9873934,-120.3798121
106,Summit Avenue,95370,37.9874949,-120.3825229
61,Snell Street,95370,37.9875283,-120.3857614
184,East Jackson Street,95370,37.9875460,-120.3808782
61,Arbona Circle South,95370,37.9876819,-120.3913128
287,Lyons Street,95370,37.9874107,-120.3790691
30,Alley Way,95370,37.9875484,-120.3817976
286,Arbona Circle North,95370,37.9877228,-120.3929211
331,Snell Street,95370,37.9876694,-120.3895523
171,North Washington Street,95370,37.9876337,-120.3844135
386,Calaveras Way,95370,37.9877662,-120.3907574
18,Monte Vista Lane,95370,37.9875669,-120.3812238
258,Lyons Street,95370,37.9874753,-120.3796678
42,Snell Street,95370,37.9876744,-120.3849943
294,Arbona Circle North,95370,37.9878144,-120.3931578
371,Calaveras Way,95370,37.9877647,-120.3901194
69,Terrace Avenue,95370,37.9875258,-120.3784751
22,Monte Vista Lane,95370,37.9875990,-120.3815006
137,North Shepherd Street,95370,37.9876214,-120.3832860
302,Arbona Circle North,95370,37.9878617,-120.3934558
322,Arbona Circle North,95370,37.9878950,-120.3937759
863,Bald Mountain Road,95370,37.9874935,-120.3763699
268,Lyons Street,95370,37.9875688,-120.3795468
64,Elkin Street,95370,37.9876872,-120.3835347
354,Snell Street,95370,37.9878352,-120.3897299
800,Arbona Circle South,95370,37.9878995,-120.3923937
116,Summit Avenue,95370,37.9876970,-120.3826362
149,Snell Street,95370,37.9877921,-120.3873062
278,Lyons Street,95370,37.9876673,-120.3794339
395,Arbona Circle North,95370,37.9880321,-120.3948478
429,East Jackson Street,95370,37.9876290,-120.3768975
99,Snell Street,95370,37.9878324,-120.3863425
375,Arbona Circle North,95370,37.9880050,-120.3944475
207,Snell Street,95370,37.9878915,-120.3878221
389,Calaveras Way,95370,37.9879216,-120.3903473
242,Hillcrest Street,95370,37.9877335,-120.3800738
790,Arbona Circle North,95370,37.9880267,-120.3925773
181,North Washington Street,95370,37.9878321,-120.3843389
738,Arbona Circle North,95370,37.9880938,-120.3939329
119,Summit Avenue,95370,37.9879084,-120.3822584
366,Snell Street,95370,37.9880065,-120.3898565
175,North Stewart Street,95370,37.9879277,-120.3839185
129,Snell Street,95370,37.9879598,-120.3868686
163,North Shepherd Street,95370,37.9878878,-120.3833207
415,Arbona Circle North,95370,37.9881578,-120.3952886
289,Hillcrest Street,95370,37.9878050,-120.3791596
35,Arbona Circle South,95370,37.9880793,-120.3918222
38,Monte Vista Lane,95370,37.9878822,-120.3815086
120,Summit Avenue,95370,37.9879394,-120.3826813
346,Lyons Street,95370,37.9878305,-120.3778384
20,Wyckoff Street,95370,37.9879853,-120.3850745
15,Arbona Circle South,95370,37.9881526,-120.3920720
370,Lyons Street,95370,37.9878477,-120.3775098
230,East Jackson Street,95370,37.9879545,-120.3805153
760,Arbona Circle North,95370,37.9882110,-120.3929803
94,Snell Street,95370,37.9880536,-120.3862350
320,Lyons Street,95370,37.9879081,-120.3782712
740,Arbona Circle North,95370,37.9882322,-120.3936465
488,East Jackson Street,95370,37.9878548,-120.3758895
385,Arbona Circle North,95370,37.9882512,-120.3948087
384,Snell Street,95370,37.9881762,-120.3900043
169,North Shepherd Street,95370,37.9880193,-120.3830277
518,East Jackson Street,95370,37.9878776,-120.3755171
417,Calaveras Way,95370,37.9882532,-120.3906213
444,East Jackson Street,95370,37.9879069,-120.3764868
128,Snell Street,95370,37.9881572,-120.3864321
49,Monte Vista Lane,95370,37.9880890,-120.3812502
466,East Jackson Street,95370,37.9879186,-120.3761800
54,Monte Vista Lane,95370,37.9880734,-120.3816049
421,Arbona Circle North,95370,37.9883559,-120.3952958
189,North Stewart Street,95370,37.9881164,-120.3838703
191,North Washington Street,95370,37.9880872,-120.3843896
172,North Shepherd Street,95370,37.9881148,-120.3835270
736,Arbona Circle North,95370,37.9883642,-120.3940765
746,Arbona Circle North,95370,37.9883548,-120.3932210
122,Summit Avenue,95370,37.9881580,-120.3826432
155,Snell Street,95370,37.9882123,-120.3872078
738,Arbona Circle North,95370,37.9884290,-120.3938793
424,East Jackson Street,95370,37.9880210,-120.3767913
394,Snell Street,95370,37.9883265,-120.3901837
153,Summit Avenue,95370,37.9881780,-120.3822297
179,North Shepherd Street,95370,37.9881892,-120.3829876
246,East Jackson Street,95370,37.9882401,-120.3801797
211,North Washington Street,95370,37.9882529,-120.3843817
185,Summit Avenue,95370,37.9882641,-120.3817438
775,Arbona Circle North,95370,37.9885146,-120.3924353
218,North Washington Street,95370,37.9883056,-120.3847742
217,North Stewart Street,95370,37.9883234,-120.3838108
414,Snell Street,95370,37.9884948,-120.3903869
201,Summit Avenue,95370,37.9883277,-120.3813597
565,Oakside Drive,95370,37.9882354,-120.3758979
189,North Shepherd Street,95370,37.9883202,-120.3832393
140,Summit Avenue,95370,37.9883494,-120.3825231
381,East Jackson Street,95370,37.9882281,-120.3774766
765,Arbona Circle North,95370,37.9885674,-120.3926357
424,Arbona Circle North,95370,37.9886579,-120.3949241
323,East Jackson Street,95370,37.9883190,-120.3790268
400,East Jackson Street,95370,37.9882794,-120.3770940
585,Oakside Drive,95370,37.9882132,-120.3755408
233,North Washington Street,95370,37.9884207,-120.3843505
154,Snell Street,95370,37.9885135,-120.3871458
230,North Washington Street,95370,37.9884760,-120.3847570
437,Calaveras Way,95370,37.9886164,-120.3909872
31,West Lane,95370,37.9884419,-120.3807037
611,Oakside Drive,95370,37.9882731,-120.3752383
745,Arbona Circle North,95370,37.9887114,-120.3928590
426,Snell Street,95370,37.9886522,-120.3904840
730,Arbona Circle North,95370,37.9887415,-120.3934240
211,North Shepherd Street,95370,37.9885460,-120.3831441
553,Oakside Drive,95370,37.9883723,-120.3762995
240,North Washington Street,95370,37.9885331,-120.3850861
150,Summit Avenue,95370,37.9885264,-120.3823465
247,South Washington Street,95370,37.9885532,-120.3844005
170,Summit Avenue,95370,37.9885777,-120.3819409
725,Arbona Circle North,95370,37.9888413,-120.3929888
250,Pasadena Avenue,95370,37.9885201,-120.3803384
8,Hope Lane,95370,37.9885678,-120.3789006
37,Cowan Street,95370,37.9886669,-120.3836531
188,Summit Avenue,95370,37.9886386,-120.3815418
442,Snell Street,95370,37.9888643,-120.3906359
301,Pasadena Avenue,95370,37.9886298,-120.3795384
270,Pasadena Avenue,95370,37.9886281,-120.3801531
531,Oakside Drive,95370,37.9885987,-120.3764651
229,Summit Avenue,95370,37.9886894,-120.3807342
710,Golden Gate Court,95370,37.9889955,-120.3936166
694,Golden Gate Court,95370,37.9890072,-120.3945581
560,Oakside Drive,95370,37.9886174,-120.3757907
704,Golden Gate Court,95370,37.9890188,-120.3938826
317,Pasadena Avenue,95370,37.9887480,-120.3793180
290,Pasadena Avenue,95370,37.9887483,-120.3799425
597,Bald Mountain Road,95370,37.9886592,-120.3752724
384,East Jackson Street,95370,37.9887068,-120.3774352
709,Arbona Circle North,95370,37.9890686,-120.3931553
426,North Shepherd Street,95370,37.9888427,-120.3826376
263,Summit Avenue,95370,37.9888076,-120.3805372
482,Snell Street,95370,37.9890824,-120.3908653
255,North Stewart Street,95370,37.9889156,-120.3838551
222,Summit Avenue,95370,37.9889441,-120.3813045
267,North Washington Street,95370,37.9889531,-120.3843533
227,North Shepherd Street,95370,37.9889656,-120.3830960
279,Summit Avenue,95370,37.9889351,-120.3803296
264,North Washington Street,95370,37.9889993,-120.3847215
374,East Jackson Street,95370,37.9888746,-120.3775791
715,Arbona Circle North,95370,37.9892396,-120.3928445
530,Oakside Drive,95370,37.9888812,-120.3762624
505,Oakside Drive,95370,37.9888766,-120.3767115
691,Golden Gate Court,95370,37.9893021,-120.3931746
434,Arbona Circle North,95370,37.9893104,-120.3949732
24,Hope Lane,95370,37.9890162,-120.3789060
283,North Washington Street,95370,37.9891198,-120.3843251
364,East Jackson Street,95370,37.9890289,-120.3778158
686,Golden Gate Court,95370,37.9893825,-120.3942936
299,Summit Avenue,95370,37.9890945,-120.3800817
680,Golden Gate Court,95370,37.9893878,-120.3940399
286,North Washington Street,95370,37.9891923,-120.3847993
512,Oakside Drive,95370,37.9890944,-120.3764320
266,Summit Avenue,95370,37.9891693,-120.3807549
430,North Shepherd Street,95370,37.9891943,-120.3829304
356,East Jackson Street,95370,37.9891140,-120.3784668
277,North Shepherd Street,95370,37.9892110,-120.3838628
252,Summit Avenue,95370,37.9891851,-120.3809548
307,Summit Avenue,95370,37.9892285,-120.3798714
610,Bald Mountain Road,95370,37.9891109,-120.3751366
671,Arbona Circle North,95370,37.9895203,-120.3931013
286,Summit Avenue,95370,37.9892976,-120.3805209
447,Oakside Drive,95370,37.9892730,-120.3772908
50,Hope Lane,95370,37.9893979,-120.3788887
277,North Shepherd Street,95370,37.9894208,-120.3831508
291,North Stewart Street,95370,37.9894647,-120.3838108
460,Arbona Circle North,95370,37.9896801,-120.3946850
506,Snell Street,95370,37.9896397,-120.3914231
308,North Washington Street,95370,37.9895382,-120.3849335
111,West School Street,95370,37.9895645,-120.3853112
391,North Shepherd Street,95370,37.9894367,-120.3816620
344,Pasadena Avenue,95370,37.9894006,-120.3790453
300,Summit Avenue,95370,37.9894673,-120.3803689
203,Bourbon,95370,37.9895065,-120.3813442
655,Arbona Circle North,95370,37.9897375,-120.3931601
425,Oakside Drive,95370,37.9894067,-120.3777945
551,Bald Mountain Road,95370,37.9894058,-120.3757254
395,North Shepherd Street,95370,37.9895538,-120.3827936
347,Summit Avenue,95370,37.9894677,-120.3793265
317,North Washington Street,95370,37.9895903,-120.3842185
524,Bald Mountain Road,95370,37.9894295,-120.3752011
379,North Shepherd Street,95370,37.9895665,-120.3833559
316,Summit Avenue,95370,37.9895336,-120.3800878
518,Snell Street,95370,37.9898541,-120.3915956
466,Arbona Circle North,95370,37.9898855,-120.3944763
374,North Shepherd Street,95370,37.9896291,-120.3822779
29,Hope Lane,95370,37.9896559,-120.3783065
290,North Shepherd Street,95370,37.9897630,-120.3836348
480,Oakside Drive,95370,37.9895769,-120.3767437
363,North Shepherd Street,95370,37.9897287,-120.3828728
471,Arbona Circle North,95370,37.9900080,-120.3949916
56,Hope Lane,95370,37.9897164,-120.3789981
537,Bald Mountain Road,95370,37.9896186,-120.3757976
327,North Washington Street,95370,37.9897801,-120.3842547
181,Bourbon,95370,37.9897350,-120.3808475
328,Summit Avenue,95370,37.9897465,-120.3800255
620,Arbona Circle North,95370,37.9900623,-120.3939238
538,Snell Street,95370,37.9900348,-120.3917845
433,Oakside Drive,95370,37.9897122,-120.3777709
631,Arbona Circle North,95370,37.9900984,-120.3933746
336,Summit Avenue,95370,37.9897846,-120.3797618
472,Arbona Circle North,95370,37.9901208,-120.3944270
458,Oakside Drive,95370,37.9897599,-120.3769628
173,Bourbon,95370,37.9898266,-120.3806225
485,Dragoon Circle,95370,37.9901924,-120.3949750
310,North Shepherd Street,95370,37.9900015,-120.3834990
167,Bourbon,95370,37.9899306,-120.3802945
364,Summit Avenue,95370,37.9899227,-120.3793293
600,Arbona Circle North,95370,37.9903180,-120.3940240
535,Bald Mountain Road,95370,37.9898690,-120.3754206
521,Bald Mountain Road,95370,37.9898778,-120.3759257
552,Snell Street,95370,37.9902946,-120.3920440
401,Oakside Drive,95370,37.9899767,-120.3784831
626,Arbona Circle North,95370,37.9903331,-120.3935268
450,Oakside Drive,95370,37.9899790,-120.3772896
409,Oakside Drive,95370,37.9899992,-120.3782603
497,Dragoon Circle,95370,37.9903685,-120.3949107
488,Arbona Circle North,95370,37.9903982,-120.3943374
371,North Washington Street,95370,37.9901568,-120.3841029
153,Bourbon,95370,37.9901153,-120.3801127
326,North Shepherd Street,95370,37.9901761,-120.3833048
376,Summit Avenue,95370,37.9901443,-120.3791671
133,Wall Street,95370,37.9902048,-120.3825595
141,Wall Street,95370,37.9902546,-120.3822441
549,Cielo Vista Way,95370,37.9901100,-120.3754939
6,Columbia Way,95370,37.9902916,-120.3839896
611,Arbona Circle North,95370,37.9905347,-120.3936176
511,Dragoon Circle,95370,37.9905402,-120.3949730
559,Cielo Vista Way,95370,37.9901366,-120.3757798
588,Cielo Vista Way,95370,37.9901902,-120.3765316
403,North Stewart Street,95370,37.9903273,-120.3827946
500,Arbona Circle North,95370,37.9906285,-120.3941610
389,North Stewart Street,95370,37.9903804,-120.3830452
156,Wall Street,95370,37.9904140,-120.3816283
595,Arbona Circle North,95370,37.9906830,-120.3937016
525,Dragoon Circle,95370,37.9907227,-120.3950300
162,Wall Street,95370,37.9904822,-120.3809251
416,Oakside Drive,95370,37.9903604,-120.3778339
85,Hope Lane,95370,37.9904275,-120.3785232
123,Wall Street,95370,37.9904798,-120.3825028
388,North Stewart Street,95370,37.9905586,-120.3832696
18,Columbia Way,95370,37.9906000,-120.3837462
573,Dragoon Circle,95370,37.9909017,-120.3945909
395,North Washington Street,95370,37.9906584,-120.3841903
559,Snell Street,95370,37.9908432,-120.3920941
596,Cielo Vista Way,95370,37.9905714,-120.3767305
433,North Stewart Street,95370,37.9906523,-120.3822679
545,Dragoon Circle,95370,37.9909545,-120.3949985
30,Columbia Way,95370,37.9906886,-120.3835753
585,Arbona Circle North,95370,37.9909308,-120.3937977
424,North Stewart Street,95370,37.9906930,-120.3827603
575,Arbona Circle North,95370,37.9910183,-120.3940467
400,North Washington Street,95370,37.9908168,-120.3847545
477,North Stewart Street,95370,37.9907879,-120.3816453
565,Dragoon Circle,95370,37.9910543,-120.3943799
42,Columbia Way,95370,37.9908081,-120.3834672
447,Bald Mountain Road,95370,37.9906891,-120.3756731
70,Columbia Way,95370,37.9908526,-120.3830828
453,North Stewart Street,95370,37.9908142,-120.3821185
130,Bourbon,95370,37.9908028,-120.3796898
50,Columbia Way,95370,37.9908958,-120.3832338
45,Columbia Way,95370,37.9909203,-120.3839525
464,North Stewart Street,95370,37.9909698,-120.3824918
461,North Stewart Street,95370,37.9909324,-120.3819438
553,Dragoon Circle,95370,37.9912548,-120.3949016
720,Snell Street,95370,37.9912717,-120.3937280
555,Dragoon Circle,95370,37.9913031,-120.3942622
430,North Washington Street,95370,37.9913825,-120.3864554
495,North Stewart Street,95370,37.9910648,-120.3814035
623,Cielo Vista Way,95370,37.9909712,-120.3763915
444,Shaws Flat Road,95370,37.9912652,-120.3877258
100,Hope Lane,95370,37.9910812,-120.3784323
105,Hope Lane,95370,37.9910928,-120.3792148
483,North Stewart Street,95370,37.9911500,-120.3817162
652,Cielo Vista Way,95370,37.9910993,-120.3768139
423,North Washington Street,95370,37.9913907,-120.3850764
699,Cielo Vista Way,95370,37.9912211,-120.3756310
512,North Stewart Street,95370,37.9913468,-120.3825879
409,Bald Mountain Road,95370,37.9912431,-120.3751288
693,Cielo Vista Way,95370,37.9912643,-120.3761669
407,North Washington Street,95370,37.9914409,-120.3845217
95,Columbia Way,95370,37.9914763,-120.3833671
504,North Stewart Street,95370,37.9914759,-120.3820850
110,Columbia Way,95370,37.9915314,-120.3828185
150,Hope Lane,95370,37.9915050,-120.3786552
510,North Stewart Street,95370,37.9915620,-120.3822880
87,Columbia Way,95370,37.9916458,-120.3836199
101,Columbia Way,95370,37.9916343,-120.3832680
499,North Stewart Street,95370,37.9916520,-120.3812044
509,North Stewart Street,95370,37.9917022,-120.3817820
514,North Stewart Street,95370,37.9916698,-120.3824454
136,Columbia Way,95370,37.9918143,-120.3826561
476,STATE HIGHWAY 49,95370,37.9918086,-120.3843855
509,North Stewart Street,95370,37.9917563,-120.3819259
117,Columbia Way,95370,37.9918019,-120.3831526
745,Cielo Vista Way,95370,37.9916641,-120.3756188
519,North Stewart Street,95370,37.9918414,-120.3820784
475,STATE HIGHWAY 49,95370,37.9919672,-120.3837735
133,Columbia Way,95370,37.9919597,-120.3829589
511,North Stewart Street,95370,37.9919593,-120.3817135
158,Columbia Way,95370,37.9919905,-120.3823095
374,Hope Lane,95370,37.9919451,-120.3774294
592,Shaws Flat Road,95370,37.9922095,-120.3882061
594,Shaws Flat Road,95370,37.9922743,-120.3888290
145,Columbia Way,95370,37.9921277,-120.3828553
215,Hope Lane,95370,37.9920506,-120.3796869
498,STATE HIGHWAY 49,95370,37.9922186,-120.3843191
172,Columbia Way,95370,37.9921758,-120.3820476
165,Columbia Way,95370,37.9922550,-120.3827246
636,Shaws Flat Road,95370,37.9924783,-120.3897955
537,Shaws Flat Road,95370,37.9924175,-120.3863735
173,Columbia Way,95370,37.9923878,-120.3825565
533,Orchard Avenue,95370,37.9924861,-120.3857527
149,Steffen Lane,95370,37.9924934,-120.3845837
35,Leonards Addition Road,95370,37.9924568,-120.3812865
523,Orchard Avenue,95370,37.9925681,-120.3855972
531,Orchard Avenue,95370,37.9925842,-120.3858623
582,Shaws Flat Road,95370,37.9926257,-120.3872497
245,Hope Lane,95370,37.9924441,-120.3792781
177,Columbia Way,95370,37.9925590,-120.3824834
376,Hope Lane,95370,37.9924706,-120.3775938
55,Leonards Addition Road,95370,37.9925513,-120.3808753
537,Orchard Avenue,95370,37.9926941,-120.3859282
567,Shaws Flat Road,95370,37.9927195,-120.3866774
51,Ruth Lane,95370,37.9927242,-120.3855263
204,Columbia Way,95370,37.9926392,-120.3818113
699,Shaws Flat Road,95370,37.9928587,-120.3891019
616,Shaws Flat Road,95370,37.9929463,-120.3880882
577,Shaws Flat Road,95370,37.9928754,-120.3868070
570,Orchard Avenue,95370,37.9928601,-120.3865206
10,Pesce Way,95370,37.9930043,-120.3841738
690,Shaws Flat Road,95370,37.9929899,-120.3897935
142,Steffen Lane,95370,37.9929035,-120.3847900
52,Ruth Lane,95370,37.9929457,-120.3853537
58,Leonards Addition Road,95370,37.9928336,-120.3809868
515,STATE HIGHWAY 49,95370,37.9929723,-120.3831905
563,Orchard Avenue,95370,37.9929824,-120.3861486
587,Shaws Flat Road,95370,37.9929972,-120.3868910
626,Shaws Flat Road,95370,37.9930950,-120.3877207
668,Shaws Flat Road,95370,37.9932112,-120.3882674
62,Ruth Lane,95370,37.9930976,-120.3855941
197,Columbia Way,95370,37.9929826,-120.3822629
138,Steffen Lane,95370,37.9930960,-120.3847776
575,Orchard Avenue,95370,37.9931117,-120.3863658
700,Shaws Flat Road,95370,37.9932730,-120.3895229
609,Shaws Flat Road,95370,37.9931998,-120.3870990
67,Leonards Addition Road,95370,37.9930567,-120.3807493
587,Orchard Avenue,95370,37.9932339,-120.3864411
205,Columbia Way,95370,37.9931586,-120.3821656
619,Shaws Flat Road,95370,37.9933320,-120.3871798
154,Steffen Lane,95370,37.9933455,-120.3850493
126,Steffen Lane,95370,37.9933364,-120.3847344
696,Shaws Flat Road,95370,37.9934386,-120.3892653
629,Shaws Flat Road,95370,37.9934355,-120.3873035
440,Hope Lane,95370,37.9932939,-120.3784465
8,Pesce Way,95370,37.9934603,-120.3841144
627,Orchard Avenue,95370,37.9934511,-120.3866764
639,Shaws Flat Road,95370,37.9935253,-120.3874000
246,Columbia Way,95370,37.9934222,-120.3818126
704,Shaws Flat Road,95370,37.9936306,-120.3890320
86,Macomber Avenue,95370,37.9935182,-120.3861748
64,Shangri La Lane,95370,37.9934303,-120.3810802
114,Steffen Lane,95370,37.9935229,-120.3846923
62,Macomber Avenue,95370,37.9936836,-120.3866368
102,Steffen Lane,95370,37.9936774,-120.3846492
647,Shaws Flat Road,95370,37.9937372,-120.3873299
93,Shangri La Lane,95370,37.9936007,-120.3805744
661,Shaws Flat Road,95370,37.9937638,-120.3876048
645,Orchard Avenue,95370,37.9938917,-120.3870580
671,Shaws Flat Road,95370,37.9939007,-120.3876810
720,Shaws Flat Road,95370,37.9939663,-120.3884150
683,Shaws Flat Road,95370,37.9939732,-120.3877923
70,Macomber Avenue,95370,37.9939530,-120.3866771
166,Pesce Way,95370,37.9939582,-120.3846683
310,Elk Drive,95370,37.9940033,-120.3852041
693,Shaws Flat Road,95370,37.9940966,-120.3879003
663,Orchard Avenue,95370,37.9941799,-120.3871907
15,Pesce Way,95370,37.9942123,-120.3841436
178,Pesce Way,95370,37.9942492,-120.3846331
695,Orchard Avenue,95370,37.9944188,-120.3875189
182,Pesce Way,95370,37.9944833,-120.3846905
731,Shaws Flat Road,95370,37.9945802,-120.3882234
688,STATE HIGHWAY 49,95370,37.9945185,-120.3837856
194,Pesce Way,95370,37.9946902,-120.3847511
749,Shaws Flat Road,95370,37.9947670,-120.3885347
309,Elk Drive,95370,37.9948428,-120.3852598
266,Mccormick Drive,95370,37.9949859,-120.3865386
206,Pesce Way,95370,37.9949699,-120.3846116
247,Mccormick Drive,95370,37.9951252,-120.3859677
771,Shaws Flat Road,95370,37.9951154,-120.3887827
264,Mccormick Drive,95370,37.9951413,-120.3867719
796,Shaws Flat Road,95370,37.9952137,-120.3892540
222,Mccormick Drive,95370,37.9952019,-120.3870833
237,Mccormick Drive,95370,37.9952434,-120.3862902
307,Elk Drive,95370,37.9953042,-120.3852890
830,Shaws Flat Road,95370,37.9953465,-120.3900480
704,STATE HIGHWAY 49,95370,37.9952215,-120.3838050
828,Shaws Flat Road,95370,37.9953532,-120.3893956
241,Mccormick Drive,95370,37.9953405,-120.3860315
231,Mccormick Drive,95370,37.9953713,-120.3866143
184,Mccormick Drive,95370,37.9953874,-120.3873748
305,Elk Drive,95370,37.9954194,-120.3855524
197,Mccormick Drive,95370,37.9955187,-120.3868913
836,Shaws Flat Road,95370,37.9956069,-120.3897941
200,Elk Drive,95370,37.9955554,-120.3860620
217,Elk Drive,95370,37.9956805,-120.3856282
175,Mccormick Drive,95370,37.9957266,-120.3872152
190,Elk Drive,95370,37.9958008,-120.3861236
157,Mccormick Drive,95370,37.9958638,-120.3874410
207,Elk Drive,95370,37.9958965,-120.3856673
862,Shaws Flat Road,95370,37.9959773,-120.3896266
137,Mccormick Drive,95370,37.9960259,-120.3876202
852,Shaws Flat Road,95370,37.9961966,-120.3910473
191,Elk Drive,95370,37.9960854,-120.3857858
100,Elk Drive,95370,37.9962309,-120.3869769
788,STATE HIGHWAY 49,95370,37.9960618,-120.3840044
120,Mccormick Drive,95370,37.9961703,-120.3881251
119,Mccormick Drive,95370,37.9962229,-120.3877475
864,Shaws Flat Road,95370,37.9962816,-120.3898724
176,Elk Drive,95370,37.9962461,-120.3862616
108,Mccormick Drive,95370,37.9964122,-120.3881985
866,Shaws Flat Road,95370,37.9965275,-120.3898346
161,Elk Drive,95370,37.9964923,-120.3859201
880,Shaws Flat Road,95370,37.9965322,-120.3892451
951,Shaws Flat Road,95370,37.9966803,-120.3883468
83,Mccormick Drive,95370,37.9966484,-120.3877936
151,Elk Drive,95370,37.9967546,-120.3860635
38,Saratoga Road,95370,37.9968511,-120.3895407
65,Mccormick Drive,95370,37.9968612,-120.3877325
16,Saratoga Road,95370,37.9969622,-120.3891400
971,Shaws Flat Road,95370,37.9969718,-120.3882548
47,Mccormick Drive,95370,37.9970232,-120.3876302
34,Saratoga Road,95370,37.9971076,-120.3895084
101,Elk Drive,95370,37.9971089,-120.3866658
983,Shaws Flat Road,95370,37.9971817,-120.3880561
31,Mccormick Drive,95370,37.9972193,-120.3873809
32,Saratoga Road,95370,37.9973045,-120.3891524
85,Elk Drive,95370,37.9973059,-120.3868056
20720,Saratoga Road,95370,37.9974065,-120.3914137
985,Shaws Flat Road,95370,37.9974145,-120.3880031
73,Elk Drive,95370,37.9975020,-120.3869459
212,Saratoga Road,95370,37.9977636,-120.3909631
41,Elk Drive,95370,37.9976891,-120.3871013
15,Saratoga Road,95370,37.9977646,-120.3887623
24,Elk Drive,95370,37.9977128,-120.3875920
180,Saratoga Road,95370,37.9977987,-120.3913597
20675,West Banner Drive,95370,37.9979556,-120.3921447
23,Elk Drive,95370,37.9978838,-120.3872178
218,Saratoga Road,95370,37.9979915,-120.3915370
214,Saratoga Road,95370,37.9980142,-120.3910786
11,Elk Drive,95370,37.9980564,-120.3873706
18,Banner Drive,95370,37.9980940,-120.3882883
36,Banner Drive,95370,37.9982131,-120.3885945
26,Ohara Drive,95370,37.9982060,-120.3843485
47,Gatewood Drive,95370,37.9981827,-120.3849310
220,Saratoga Road,95370,37.9982776,-120.3914455
62,Banner Drive,95370,37.9983094,-120.3888783
121,Gatewood Drive,95370,37.9982361,-120.3857810
181,Saratoga Road,95370,37.9984198,-120.3906452
94,Banner Drive,95370,37.9985142,-120.3893739
15,Banner Drive,95370,37.9985204,-120.3880401
222,Saratoga Road,95370,37.9986463,-120.3919314
122,Banner Drive,95370,37.9986803,-120.3898645
43,Banner Drive,95370,37.9986330,-120.3883856
65,Gatewood Drive,95370,37.9986411,-120.3854559
198,Banner Drive,95370,37.9987786,-120.3908076
100,Gatewood Drive,95370,37.9987077,-120.3861051
166,Banner Drive,95370,37.9987562,-120.3905302
206,Banner Drive,95370,37.9988406,-120.3914602
103,Banner Drive,95370,37.9988182,-120.3890665
35,Gatewood Drive,95370,37.9990195,-120.3848253
245,Banner Drive,95370,37.9991558,-120.3919315
207,Banner Drive,95370,37.9991641,-120.3911919
170,Corte Del Encino,95370,37.9991195,-120.3870552
1115,Shaws Flat Road,95370,37.9991434,-120.3875118
163,Banner Drive,95370,37.9991885,-120.3904648
195,Banner Drive,95370,37.9991912,-120.3910232
187,Banner Drive,95370,37.9992132,-120.3907935
1110,Shaws Flat Road,95370,37.9992089,-120.3881474
172,Tidwall Street,95370,37.9992672,-120.3915593
28,Gatewood Drive,95370,37.9991536,-120.3864116
133,Banner Drive,95370,37.9993097,-120.3899383
161,Tidwall Street,95370,37.9993380,-120.3912328
311,Saratoga Road,95370,37.9994092,-120.3921856
156,Corte Del Encino,95370,37.9993038,-120.3864267
1121,Shaws Flat Road,95370,37.9993820,-120.3876771
240,Reservoir Road,95370,37.9994654,-120.3917343
1140,Shaws Flat Road,95370,37.9995066,-120.3884709
135,Tidwall Street,95370,37.9995703,-120.3910379
260,Reservoir Road,95370,37.9996116,-120.3918407
137,Corte Del Encino,95370,37.9995669,-120.3873020
33,Briarwood Drive,95370,37.9996268,-120.3851058
1162,Shaws Flat Road,95370,37.9996331,-120.3890651
222,Ridge Road,95370,37.9996750,-120.3908668
136,Corte Del Encino,95370,37.9995844,-120.3865254
1164,Shaws Flat Road,95370,37.9996707,-120.3893886
191,Ridge Road,95370,37.9996814,-120.3902025
1141,Shaws Flat Road,95370,37.9996783,-120.3878496
341,Saratoga Road,95370,37.9997205,-120.3924200
91,Ohara Drive,95370,37.9996314,-120.3841154
70,Briarwood Drive,95370,37.9996572,-120.3858314
1146,Shaws Flat Road,95370,37.9997553,-120.3885796
202,Ridge Road,95370,37.9998015,-120.3903591
117,Corte Del Encino,95370,37.9998213,-120.3873404
144,Ohara Drive,95370,37.9997360,-120.3846453
140,Tidwall Street,95370,37.9998894,-120.3912791
1135,Shaws Flat Road,95370,37.9998902,-120.3880354
1166,Shaws Flat Road,95370,37.9998833,-120.3895074
267,Reservoir Road,95370,37.9999277,-120.3917037
215,Ridge Road,95370,37.9999529,-120.3903445
102,Corte Del Encino,95370,37.9999153,-120.3865797
1160,Shaws Flat Road,95370,37.9999188,-120.3887288
110,Tidwall Street,95370,37.9999429,-120.3909953
365,Saratoga Road,95370,38.0000327,-120.3927713
65,Briarwood Drive,95370,37.9999375,-120.3853871
286,Reservoir Road,95370,38.0001739,-120.3924386
269,Reservoir Road,95370,38.0001593,-120.3918358
1222,Shaws Flat Road,95370,38.0000990,-120.3897931
101,Corte Del Encino,95370,38.0001040,-120.3871380
91,Briarwood Drive,95370,38.0001316,-120.3859532
262,Ridge Road,95370,38.0001974,-120.3913206
96,Corte Del Encino,95370,38.0001766,-120.3865769
53,Corte Del Encino,95370,38.0001582,-120.3874803
37,Corte Del Encino,95370,38.0001748,-120.3878090
1240,Shaws Flat Road,95370,38.0002393,-120.3899589
383,Saratoga Road,95370,38.0003654,-120.3931242
326,Reservoir Road,95370,38.0003948,-120.3927065
168,Ohara Drive,95370,38.0002030,-120.3848272
271,Reservoir Road,95370,38.0003526,-120.3920395
1244,Shaws Flat Road,95370,38.0003491,-120.3902584
20805,Saratoga Road,95370,38.0004031,-120.3933976
267,Ridge Road,95370,38.0004079,-120.3911151
175,Ohara Drive,95370,38.0003167,-120.3842096
1210,Shaws Flat Road,95370,38.0004216,-120.3891916
265,Ridge Road,95370,38.0005662,-120.3916985
325,Reservoir Road,95370,38.0004934,-120.3924392
1248,Shaws Flat Road,95370,38.0005084,-120.3897915
1225,Shaws Flat Road,95370,38.0004892,-120.3885818
86,Corte Del Encino,95370,38.0005350,-120.3866470
15,Roble Road,95370,38.0005880,-120.3877706
52,Corte Del Encino,95370,38.0005668,-120.3873942
24,Roble Road,95370,38.0006058,-120.3882589
76,Corte Del Encino,95370,38.0005740,-120.3870833
1250,Shaws Flat Road,95370,38.0006643,-120.3894436
1270,Shaws Flat Road,95370,38.0007409,-120.3899459
184,Ohara Drive,95370,38.0006138,-120.3853757
199,Ohara Drive,95370,38.0006467,-120.3843157
1235,Shaws Flat Road,95370,38.0007629,-120.3887560
87,Ohara Drive,95370,38.0007109,-120.3861067
202,Ohara Drive,95370,38.0007373,-120.3849212
44,Roble Road,95370,38.0008958,-120.3884625
1298,Shaws Flat Road,95370,38.0009544,-120.3901551
1245,Shaws Flat Road,95370,38.0009752,-120.3889731
275,Ridge Road,95370,38.0010618,-120.3921549
1276,Shaws Flat Road,95370,38.0009855,-120.3896392
1310,Shaws Flat Road,95370,38.0011891,-120.3903850
64,Roble Road,95370,38.0011466,-120.3886244
1292,Shaws Flat Road,95370,38.0011713,-120.3898496
1275,Shaws Flat Road,95370,38.0011828,-120.3892083
223,Ohara Drive,95370,38.0010670,-120.3844445
55,Roble Road,95370,38.0012217,-120.3880789
84,Roble Road,95370,38.0013737,-120.3887965
69,Dossi Way,95370,38.0013066,-120.3850953
1291,Shaws Flat Road,95370,38.0014016,-120.3893877
1320,Shaws Flat Road,95370,38.0014171,-120.3900714
75,Roble Road,95370,38.0015372,-120.3881602
1352,Shaws Flat Road,95370,38.0016014,-120.3908076
1330,Shaws Flat Road,95370,38.0015965,-120.3902111
1315,Shaws Flat Road,95370,38.0016179,-120.3895820
104,Roble Road,95370,38.0016213,-120.3889555
128,Dossi Way,95370,38.0015583,-120.3852653
66,Dossi Way,95370,38.0015061,-120.3844802
124,Roble Road,95370,38.0018093,-120.3892132
1335,Shaws Flat Road,95370,38.0018584,-120.3898084
95,Roble Road,95370,38.0018088,-120.3883580
1194,STATE HIGHWAY 49,95370,38.0018877,-120.3845247
1400,Shaws Flat Road,95370,38.0019875,-120.3913807
184,Roble Road,95370,38.0020365,-120.3894978
1444,Shaws Flat Road,95370,38.0021163,-120.3918034
154,Roble Road,95370,38.0021114,-120.3891146
1486,Shaws Flat Road,95370,38.0021841,-120.3922924
120,Preston Place,95370,38.0021191,-120.3862891
135,Roble Road,95370,38.0023779,-120.3885162
100,Preston Place,95370,38.0023896,-120.3860081
1440,Shaws Flat Road,95370,38.0025813,-120.3918288
155,Roble Road,95370,38.0026857,-120.3886873
1216,STATE HIGHWAY 49,95370,38.0026272,-120.3850379
23,North Washington Street,95370,37.9857588,-120.3834233
430,North Washington Street,95370,37.9905107,-120.3863793
