House number,Street name,Postal code,Latitude,Longitude
33,Arroyo Drive,94080,37.6552027,-122.4368243
112,McLellan Drive,94080,37.6645653,-122.4454490
101,McLellan Drive,94080,37.6637755,-122.4463826
22,Chestnut Avenue,94080,37.6557875,-122.4323842
176,Gateway Boulevard,94080,37.6520463,-122.4020100
176,Gateway Boulevard,94080,37.6522087,-122.4019030
710,El Camino Real,94080,37.6506534,-122.4305072
553,El Camino Real,94080,37.6471840,-122.4289870
56,South Spruce Avenue,94080,37.6525061,-122.4178557
314,Linden Avenue,94080,37.6557343,-122.4097896
316,South Airport Boulevard,94080,37.6454357,-122.4057050
1241,Mission Road,94080,37.6628327,-122.4412356
1243,Mission Road,94080,37.6629186,-122.4413294
113,Grand Avenue,94080,37.6546012,-122.4084539
1461,San Mateo Avenue,94080,37.6486264,-122.4095708
180,South Airport Boulevard,94080,37.6494878,-122.4060215
2278,Westborough Boulevard,94080,37.6448273,-122.4529512
801,Gateway Boulevard,94080,37.6608756,-122.3983027
3961,Callan Boulevard,94080-5130,37.6496499,-122.4689789
2700,Callan Boulevard,94080,37.6459570,-122.4637836
329,Grand Avenue,94080,37.6551894,-122.4108990
400,Oyster Point Boulevard,94080,37.6655378,-122.3825407
216,Cypress Avenue,94080,37.6544998,-122.4085640
599,Railroad Avenue,94080,37.6535220,-122.4203568
248,South Airport Boulevard,94080,37.6481165,-122.4061250
230,South Spruce Avenue,94080,37.6477788,-122.4203804
381,South Airport Boulevard,94080,37.6439763,-122.4036196
121,South Maple Avenue,94080,37.6487714,-122.4143121
1600,El Camino Real,94080,37.6657875,-122.4486602
326,Shaw Road,94080,37.6387385,-122.4072214
529,Railroad Avenue,94080,37.6539274,-122.4194890
333,El Camino Real,94080,37.6444016,-122.4268466
389,Oyster Point Boulevard,94080,37.6675384,-122.3843219
2296,Westborough Boulevard,94080,37.6439650,-122.4528053
2298,Gellert Boulevard,94080-5411,37.6437828,-122.4537040
154,S Spruce Ave,94080,37.6498820,-122.4188980
220,South Linden Avenue,94080,37.6410553,-122.4123903
394,Grand Avenue,94080,37.6557778,-122.4122149
1170,Mission Road,94080,37.6619543,-122.4391645
1166,Mission Road,94080,37.6619204,-122.4388460
1158,Mission Road,94080,37.6617276,-122.4385651
1160,Mission Road,94080,37.6617733,-122.4386485
199,Airport Boulevard,94080,37.6536293,-122.4086821
199,Airport Boulevard,94080,37.6536293,-122.4086821
418,Victory Avenue,94080,37.6474724,-122.4157016
1300,Sneath Lane,94066,37.6356291,-122.4306526
844,WEST ORANGE AVENUE,94080,37.6486657,-122.4410597
1700,El Camino Real,94080,37.6677603,-122.4500230
1320,Mission Road,94080,37.6670827,-122.4411784
1200,El Camino Real,94080,37.6595195,-122.4394713
2255,Gellert Boulevard,94080,37.6466291,-122.4520097
1600,El Camino Real,94080,37.6654487,-122.4491547
301,McLellan Drive,94080,37.6647212,-122.4461117
1040,Miller Avenue,94080,37.6622711,-122.4335026
210,El Camino Real,94080,37.6435338,-122.4248757
928,San Francisco Internation Airport,94128,37.6357925,-122.3834518
33,Arroyo Drive,94080,37.6556071,-122.4366381
1488,El Camino Real,94080,37.6622910,-122.4424526
1,Chestnut Avenue,94080,37.6562255,-122.4335012
608,Dubuque Avenue,94080,37.6574680,-122.4052884
720,Dubuque Avenue,94080,37.6587064,-122.4037847
1,Tower Place,94080,37.6663800,-122.3980973
451,South Airport Boulevard,94080-6909,37.6424711,-122.4006501
900,Dubuque Avenue,94080-1805,37.6610387,-122.4015569
176,Gateway Boulevard,94080,37.6521259,-122.4019556
30,Chestnut Avenue,94080,37.6556069,-122.4316402
353,Point San Bruno Boulevard,94080,37.6534192,-122.3811528
301,DNA Way,94080,37.6539140,-122.3811220
601,DNA Way,94080,37.6533286,-122.3872062
701,DNA Way,94080,37.6523824,-122.3868570
360,Swift Avenue,94080,37.6492822,-122.3897779
345,East Grand Avenue,94080,37.6525362,-122.3888618
435,Forbes Boulevard,94080,37.6570612,-122.3935969
470,Noor Avenue,94080,37.6416936,-122.4223289
587,Elcamino Real,94080-4402,37.6480206,-122.4296271
465,El Camino Real,94080,37.6468268,-122.4287274
1300,Veterans Boulevard,94080,37.6660959,-122.3942557
1350,Veterans Boulevard,94080,37.6669185,-122.3932572
250,Gateway Boulevard,94080,37.6554074,-122.4009199
300,Gateway Boulevard,94080,37.6561035,-122.4007394
401,Linden Avenue,94080,37.6564331,-122.4099187
322,Linden Avenue,94080,37.6558783,-122.4095647
333,Linden Avenue,94080,37.6560472,-122.4101790
305,Walnut Avenue,94080,37.6564151,-122.4138545
400,Grand Avenue,94080,37.6561565,-122.4130649
211,Linden Avenue,94080,37.6546357,-122.4105330
359,Evergreen Drive,94080,37.6681262,-122.4384515
323,Evergreen Drive,94080,37.6675021,-122.4391122
317,Evergreen Drive,94080,37.6674021,-122.4392304
335,Evergreen Drive,94080,37.6677023,-122.4388779
311,Evergreen Drive,94080,37.6673023,-122.4393479
329,Evergreen Drive,94080,37.6676036,-122.4389942
341,Evergreen Drive,94080,37.6678023,-122.4387555
287,Evergreen Drive,94080,37.6666902,-122.4401527
395,Evergreen Drive,94080,37.6687260,-122.4377398
291,Evergreen Drive,94080,37.6667774,-122.4400328
279,Evergreen Drive,94080,37.6664780,-122.4403899
275,Evergreen Drive,94080,37.6663801,-122.4405043
301,Evergreen Drive,94080,37.6671141,-122.4396323
389,Evergreen Drive,94080,37.6686127,-122.4378637
377,Evergreen Drive,94080,37.6684130,-122.4380982
353,Evergreen Drive,94080,37.6680150,-122.4385721
347,Evergreen Drive,94080,37.6679144,-122.4386964
283,Evergreen Drive,94080,37.6665770,-122.4402696
365,Evergreen Drive,94080,37.6682145,-122.4383377
305,Evergreen Drive,94080,37.6672024,-122.4394784
383,Evergreen Drive,94080,37.6685128,-122.4379799
371,Evergreen Drive,94080,37.6683129,-122.4382169
299,Evergreen Drive,94080,37.6670280,-122.4397541
399,Evergreen Drive,94080,37.6688252,-122.4376242
1325,Crestwood Drive,94080,37.6693394,-122.4383441
364,Evergreen Drive,94080,37.6679719,-122.4379227
358,Evergreen Drive,94080,37.6678955,-122.4380276
1317,Crestwood Drive,94080,37.6691464,-122.4380550
300,Evergreen Drive,94080,37.6668835,-122.4392194
1309,Crestwood Drive,94080,37.6689717,-122.4378301
304,Evergreen Drive,94080,37.6669772,-122.4391064
328,Evergreen Drive,94080,37.6673782,-122.4386329
310,Evergreen Drive,94080,37.6670767,-122.4389886
1321,Crestwood Drive,94080,37.6692446,-122.4381997
352,Evergreen Drive,94080,37.6677941,-122.4381594
340,Evergreen Drive,94080,37.6675663,-122.4383957
1313,Crestwood Drive,94080,37.6690577,-122.4379291
334,Evergreen Drive,94080,37.6674905,-122.4385152
316,Evergreen Drive,94080,37.6671767,-122.4388694
322,Evergreen Drive,94080,37.6672740,-122.4387516
346,Evergreen Drive,94080,37.6676884,-122.4382721
383,Ferndale Avenue,94080,37.6681070,-122.4373261
304,Ferndale Avenue,94080,37.6665475,-122.4385039
1277,Crestwood Drive,94080,37.6681374,-122.4366110
370,Ferndale Avenue,94080,37.6676482,-122.4372239
382,Ferndale Avenue,94080,37.6678465,-122.4369828
376,Evergreen Drive,94080,37.6681748,-122.4376905
311,Ferndale Avenue,94080,37.6669005,-122.4387559
335,Ferndale Avenue,94080,37.6672779,-122.4382643
358,Ferndale Avenue,94080,37.6674464,-122.4374532
377,Ferndale Avenue,94080,37.6679836,-122.4374209
341,Ferndale Avenue,94080,37.6674012,-122.4381471
394,Ferndale Avenue,94080,37.6680475,-122.4367458
1276,Miller Avenue,94080,37.6664370,-122.4386109
389,Ferndale Avenue,94080,37.6681844,-122.4371823
395,Ferndale Avenue,94080,37.6682869,-122.4370660
347,Ferndale Avenue,94080,37.6675049,-122.4380320
352,Ferndale Avenue,94080,37.6673460,-122.4375910
316,Ferndale Avenue,94080,37.6667439,-122.4382643
340,Ferndale Avenue,94080,37.6671477,-122.4377946
388,Ferndale Avenue,94080,37.6679490,-122.4368484
371,Ferndale Avenue,94080,37.6678862,-122.4375387
382,Evergreen Drive,94080,37.6682794,-122.4375684
328,Ferndale Avenue,94080,37.6669468,-122.4380306
394,Evergreen Drive,94080,37.6684765,-122.4373309
364,Ferndale Avenue,94080,37.6675486,-122.4373517
376,Ferndale Avenue,94080,37.6677372,-122.4370980
310,Ferndale Avenue,94080,37.6666488,-122.4383875
317,Ferndale Avenue,94080,37.6669747,-122.4386021
353,Ferndale Avenue,94080,37.6675773,-122.4378930
323,Ferndale Avenue,94080,37.6670914,-122.4385099
365,Ferndale Avenue,94080,37.6677762,-122.4376547
398,Evergreen Drive,94080,37.6685909,-122.4372126
346,Ferndale Avenue,94080,37.6672480,-122.4377056
322,Ferndale Avenue,94080,37.6668469,-122.4381813
305,Ferndale Avenue,94080,37.6667868,-122.4388372
329,Ferndale Avenue,94080,37.6671778,-122.4383657
334,Ferndale Avenue,94080,37.6670480,-122.4379417
370,Evergreen Drive,94080,37.6680900,-122.4378080
359,Ferndale Avenue,94080,37.6676770,-122.4377779
317,Gardenside Avenue,94080,37.6665089,-122.4379541
311,Gardenside Avenue,94080,37.6664084,-122.4380828
341,Gardenside Avenue,94080,37.6669050,-122.4374787
1269,Crestwood Drive,94080,37.6679118,-122.4363129
335,Gardenside Avenue,94080,37.6667857,-122.4376020
365,Gardenside Avenue,94080,37.6672876,-122.4370080
329,Gardenside Avenue,94080,37.6666895,-122.4377190
1268,Miller Avenue,94080,37.6662225,-122.4383212
389,Gardenside Avenue,94080,37.6677145,-122.4365447
377,Gardenside Avenue,94080,37.6674856,-122.4367739
371,Gardenside Avenue,94080,37.6673869,-122.4368912
383,Gardenside Avenue,94080,37.6676099,-122.4366675
305,Gardenside Avenue,94080,37.6663059,-122.4381978
353,Gardenside Avenue,94080,37.6671099,-122.4372451
395,Gardenside Avenue,94080,37.6678019,-122.4364186
347,Gardenside Avenue,94080,37.6670130,-122.4373635
323,Gardenside Avenue,94080,37.6666032,-122.4378329
359,Gardenside Avenue,94080,37.6672074,-122.4371250
1443,Crestwood Drive,94080,37.6706803,-122.4372127
1419,Crestwood Drive,94080,37.6700821,-122.4379323
1455,Crestwood Drive,94080,37.6709974,-122.4368903
1447,Crestwood Drive,94080,37.6708017,-122.4371055
1431,Crestwood Drive,94080,37.6703778,-122.4375764
1423,Crestwood Drive,94080,37.6701855,-122.4378138
1467,Crestwood Drive,94080,37.6711464,-122.4363475
1403,Crestwood Drive,94080,37.6696999,-122.4384518
1451,Crestwood Drive,94080,37.6708810,-122.4369777
1463,Crestwood Drive,94080,37.6711760,-122.4365358
1415,Crestwood Drive,94080,37.6699924,-122.4380652
1407,Crestwood Drive,94080,37.6698097,-122.4383471
1459,Crestwood Drive,94080,37.6711123,-122.4367350
1427,Crestwood Drive,94080,37.6702836,-122.4376901
1439,Crestwood Drive,94080,37.6705771,-122.4373316
1411,Crestwood Drive,94080,37.6699024,-122.4381763
1321,Morningside Avenue,94080,37.6707879,-122.4364581
1308,Crestwood Drive,94080,37.6692499,-122.4375456
1309,Morningside Avenue,94080,37.6705458,-122.4360128
467,Evergreen Drive,94080,37.6701769,-122.4359716
1301,Morningside Avenue,94080,37.6704034,-122.4357448
407,Evergreen Drive,94080,37.6691680,-122.4371736
443,Evergreen Drive,94080,37.6697939,-122.4364692
1300,Crestwood Drive,94080,37.6690648,-122.4373191
455,Evergreen Drive,94080,37.6699715,-122.4362171
413,Evergreen Drive,94080,37.6692682,-122.4370517
437,Evergreen Drive,94080,37.6696657,-122.4365690
449,Evergreen Drive,94080,37.6698894,-122.4363420
431,Evergreen Drive,94080,37.6695831,-122.4367106
419,Evergreen Drive,94080,37.6693616,-122.4369322
425,Evergreen Drive,94080,37.6694632,-122.4368100
473,Evergreen Drive,94080,37.6702797,-122.4358449
461,Evergreen Drive,94080,37.6700759,-122.4360871
467,Ferndale Avenue,94080,37.6697114,-122.4353890
443,Ferndale Avenue,94080,37.6693248,-122.4358747
436,Evergreen Drive,94080,37.6693956,-122.4362394
418,Evergreen Drive,94080,37.6691010,-122.4366001
413,Ferndale Avenue,94080,37.6688120,-122.4364439
412,Evergreen Drive,94080,37.6690160,-122.4367510
448,Evergreen Drive,94080,37.6696003,-122.4360251
424,Evergreen Drive,94080,37.6692073,-122.4365037
1289,Morningside Avenue,94080,37.6700358,-122.4350554
1297,Morningside Avenue,94080,37.6701781,-122.4353172
460,Evergreen Drive,94080,37.6698055,-122.4357969
437,Ferndale Avenue,94080,37.6692247,-122.4359802
461,Ferndale Avenue,94080,37.6696175,-122.4355199
449,Ferndale Avenue,94080,37.6694125,-122.4357352
466,Evergreen Drive,94080,37.6699105,-122.4356795
472,Evergreen Drive,94080,37.6700078,-122.4355563
406,Evergreen Drive,94080,37.6689143,-122.4368674
431,Ferndale Avenue,94080,37.6691326,-122.4360938
473,Ferndale Avenue,94080,37.6698231,-122.4352867
419,Ferndale Avenue,94080,37.6688994,-122.4363276
425,Ferndale Avenue,94080,37.6690142,-122.4362280
430,Evergreen Drive,94080,37.6693005,-122.4363623
407,Ferndale Avenue,94080,37.6687177,-122.4365691
479,Ferndale Avenue,94080,37.6699070,-122.4351502
455,Ferndale Avenue,94080,37.6695049,-122.4356348
442,Evergreen Drive,94080,37.6695005,-122.4361428
454,Evergreen Drive,94080,37.6696994,-122.4359020
442,Ferndale Avenue,94080,37.6690883,-122.4355001
448,Ferndale Avenue,94080,37.6691893,-122.4354066
466,Ferndale Avenue,94080,37.6694981,-122.4350223
467,Gardenside Avenue,94080,37.6692259,-122.4347530
473,Gardenside Avenue,94080,37.6693260,-122.4346374
1277,Morningside Avenue,94080,37.6697948,-122.4346562
1276,Crestwood Drive,94080,37.6683622,-122.4363494
443,Gardenside Avenue,94080,37.6688231,-122.4352329
431,Gardenside Avenue,94080,37.6686248,-122.4354673
478,Ferndale Avenue,94080,37.6697008,-122.4348026
430,Ferndale Avenue,94080,37.6688868,-122.4357658
437,Gardenside Avenue,94080,37.6687257,-122.4353330
455,Gardenside Avenue,94080,37.6690182,-122.4349865
424,Ferndale Avenue,94080,37.6687837,-122.4358874
412,Ferndale Avenue,94080,37.6685787,-122.4361273
425,Gardenside Avenue,94080,37.6685260,-122.4355800
454,Ferndale Avenue,94080,37.6692943,-122.4352860
407,Gardenside Avenue,94080,37.6682257,-122.4359235
418,Ferndale Avenue,94080,37.6686812,-122.4360083
485,Gardenside Avenue,94080,37.6695252,-122.4344047
419,Gardenside Avenue,94080,37.6684248,-122.4356869
436,Ferndale Avenue,94080,37.6689901,-122.4356257
449,Gardenside Avenue,94080,37.6689221,-122.4351211
406,Ferndale Avenue,94080,37.6684792,-122.4362483
413,Gardenside Avenue,94080,37.6683267,-122.4358077
460,Ferndale Avenue,94080,37.6693956,-122.4351654
1267,Morningside Avenue,94080,37.6696177,-122.4342975
401,Gardenside Avenue,94080,37.6681313,-122.4360502
472,Ferndale Avenue,94080,37.6695991,-122.4349236
479,Gardenside Avenue,94080,37.6694236,-122.4345035
461,Gardenside Avenue,94080,37.6691219,-122.4348616
1241,Birch Avenue,94080,37.6678622,-122.4350847
1253,Birch Avenue,94080,37.6681195,-122.4354609
1245,Birch Avenue,94080,37.6679453,-122.4352033
1249,Birch Avenue,94080,37.6680232,-122.4353354
1248,Crestwood Drive,94080,37.6677497,-122.4354341
1225,Birch Avenue,94080,37.6674979,-122.4345416
1205,Birch Avenue,94080,37.6670730,-122.4338675
409,Holly Avenue,94080,37.6668773,-122.4336998
1229,Birch Avenue,94080,37.6675885,-122.4346780
1213,Birch Avenue,94080,37.6672444,-122.4341509
1217,Birch Avenue,94080,37.6673323,-122.4342827
1221,Birch Avenue,94080,37.6674159,-122.4344158
1233,Birch Avenue,94080,37.6676877,-122.4348032
401,Holly Avenue,94080,37.6665975,-122.4338069
1201,Birch Avenue,94080,37.6670290,-122.4336434
405,Holly Avenue,94080,37.6667245,-122.4337048
1237,Birch Avenue,94080,37.6677757,-122.4349412
1209,Birch Avenue,94080,37.6671539,-122.4340163
1216,Birch Avenue,94080,37.6675994,-122.4339715
439,Holly Avenue,94080,37.6678128,-122.4337204
1219,Douglas Way,94080,37.6681506,-122.4342487
1240,Birch Avenue,94080,37.6681364,-122.4347367
1237,Douglas Way,94080,37.6684134,-122.4346456
1225,Douglas Way,94080,37.6682354,-122.4343837
435,Holly Avenue,94080,37.6676750,-122.4337144
1247,Douglas Way,94080,37.6685874,-122.4349050
431,Holly Avenue,94080,37.6675381,-122.4336979
443,Holly Avenue,94080,37.6679463,-122.4337165
1243,Douglas Way,94080,37.6685041,-122.4347767
1207,Douglas Way,94080,37.6679915,-122.4339805
1244,Birch Avenue,94080,37.6682244,-122.4348842
1224,Birch Avenue,94080,37.6677764,-122.4342270
1213,Douglas Way,94080,37.6680654,-122.4341198
1228,Birch Avenue,94080,37.6678670,-122.4343475
1248,Birch Avenue,94080,37.6683135,-122.4349957
427,Holly Avenue,94080,37.6674020,-122.4336905
1220,Birch Avenue,94080,37.6676894,-122.4340965
1231,Douglas Way,94080,37.6683246,-122.4345237
1236,Birch Avenue,94080,37.6680458,-122.4346196
1252,Birch Avenue,94080,37.6684001,-122.4351430
1232,Birch Avenue,94080,37.6679567,-122.4344778
459,Holly Avenue,94080,37.6684821,-122.4337204
471,Holly Avenue,94080,37.6689128,-122.4337856
1224,Douglas Way,94080,37.6685347,-122.4340470
467,Holly Avenue,94080,37.6687841,-122.4337608
479,Holly Avenue,94080,37.6692065,-122.4337447
463,Holly Avenue,94080,37.6686439,-122.4337707
1218,Douglas Way,94080,37.6684101,-122.4339401
1200,Douglas Way,94080,37.6683033,-122.4336888
1236,Douglas Way,94080,37.6687010,-122.4343315
475,Holly Avenue,94080,37.6690653,-122.4337704
1168,Morningside Avenue,94080,37.6687428,-122.4320589
1176,Morningside Avenue,94080,37.6689012,-122.4323530
1186,Morningside Avenue,94080,37.6692238,-122.4326680
1144,Morningside Avenue,94080,37.6682589,-122.4312014
1138,Morningside Avenue,94080,37.6680872,-122.4309103
1198,Morningside Avenue,94080,37.6695167,-122.4332067
1164,Morningside Avenue,94080,37.6686482,-122.4319328
1172,Morningside Avenue,94080,37.6688307,-122.4322121
1194,Morningside Avenue,94080,37.6694513,-122.4329134
1160,Morningside Avenue,94080,37.6685687,-122.4317822
1148,Morningside Avenue,94080,37.6683376,-122.4313599
1182,Morningside Avenue,94080,37.6690999,-122.4325922
1152,Morningside Avenue,94080,37.6684157,-122.4315036
1190,Morningside Avenue,94080,37.6693552,-122.4327847
1156,Morningside Avenue,94080,37.6684918,-122.4316398
1140,Morningside Avenue,94080,37.6681818,-122.4310579
1180,Morningside Avenue,94080,37.6689892,-122.4324801
467,Forest View Drive,94080,37.6680531,-122.4328991
407,Forest View Drive,94080,37.6666106,-122.4327944
1154,Crestwood Drive,94080,37.6664389,-122.4331921
449,Forest View Drive,94080,37.6676404,-122.4328784
418,Holly Avenue,94080,37.6671270,-122.4331837
455,Forest View Drive,94080,37.6677790,-122.4328852
491,Forest View Drive,94080,37.6685971,-122.4329122
446,Holly Avenue,94080,37.6680867,-122.4332293
458,Holly Avenue,94080,37.6685026,-122.4332562
419,Forest View Drive,94080,37.6669411,-122.4328424
470,Holly Avenue,94080,37.6689141,-122.4332797
478,Holly Avenue,94080,37.6691886,-122.4332912
443,Forest View Drive,94080,37.6675061,-122.4328636
425,Forest View Drive,94080,37.6670946,-122.4328463
438,Holly Avenue,94080,37.6678122,-122.4332247
466,Holly Avenue,94080,37.6687755,-122.4332732
474,Holly Avenue,94080,37.6690520,-122.4332817
450,Holly Avenue,94080,37.6682295,-122.4332423
437,Forest View Drive,94080,37.6673696,-122.4328594
401,Forest View Drive,94080,37.6664672,-122.4327741
434,Holly Avenue,94080,37.6676788,-122.4332173
413,Forest View Drive,94080,37.6667837,-122.4328242
1146,Crestwood Drive,94080,37.6664442,-122.4330092
430,Holly Avenue,94080,37.6675410,-122.4332150
462,Holly Avenue,94080,37.6686376,-122.4332577
422,Holly Avenue,94080,37.6672682,-122.4331987
414,Holly Avenue,94080,37.6669790,-122.4331973
410,Holly Avenue,94080,37.6668449,-122.4332156
461,Forest View Drive,94080,37.6679193,-122.4328862
442,Holly Avenue,94080,37.6679482,-122.4332345
406,Holly Avenue,94080,37.6667122,-122.4332486
426,Holly Avenue,94080,37.6674048,-122.4332050
473,Forest View Drive,94080,37.6681968,-122.4329004
485,Forest View Drive,94080,37.6684688,-122.4329176
1162,Crestwood Drive,94080,37.6664464,-122.4333944
454,Holly Avenue,94080,37.6683666,-122.4332516
431,Forest View Drive,94080,37.6672337,-122.4328526
479,Forest View Drive,94080,37.6683314,-122.4329124
6,Iris Court,94080,37.6676839,-122.4322717
10,Iris Court,94080,37.6676033,-122.4320949
2,Iris Court,94080,37.6676487,-122.4324318
11,Iris Court,94080,37.6679984,-122.4320876
3,Iris Court,94080,37.6680114,-122.4324514
14,Iris Court,94080,37.6677165,-122.4318771
7,Iris Court,94080,37.6680175,-122.4322858
15,Iris Court,94080,37.6678888,-122.4318636
400,Forest View Drive,94080,37.6665491,-122.4322714
1106,Morningside Avenue,94080,37.6668567,-122.4318393
1136,Morningside Avenue,94080,37.6678696,-122.4307738
1130,Morningside Avenue,94080,37.6676180,-122.4310048
1122,Morningside Avenue,94080,37.6674023,-122.4312148
1114,Morningside Avenue,94080,37.6671840,-122.4314286
1134,Morningside Avenue,94080,37.6677318,-122.4308896
1110,Morningside Avenue,94080,37.6670706,-122.4315341
1104,Morningside Avenue,94080,37.6668420,-122.4320686
412,Forest View Drive,94080,37.6668668,-122.4323511
1126,Morningside Avenue,94080,37.6675106,-122.4311234
406,Forest View Drive,94080,37.6667066,-122.4323136
1118,Morningside Avenue,94080,37.6672921,-122.4313095
1112,Crestwood Drive,94080,37.6665726,-122.4319962
449,Dolores Way,94080,37.6673380,-122.4308236
481,Dolores Way,94080,37.6677654,-122.4304009
1106,Crestwood Drive,94080,37.6665792,-122.4318090
1100,Crestwood Drive,94080,37.6665792,-122.4316216
417,Dolores Way,94080,37.6669187,-122.4312700
465,Dolores Way,94080,37.6675721,-122.4306325
425,Dolores Way,94080,37.6670173,-122.4311654
457,Dolores Way,94080,37.6674579,-122.4307209
473,Dolores Way,94080,37.6676816,-122.4305035
401,Dolores Way,94080,37.6666936,-122.4314714
441,Dolores Way,94080,37.6672221,-122.4309303
433,Dolores Way,94080,37.6671295,-122.4310580
409,Dolores Way,94080,37.6668054,-122.4313725
489,Dolores Way,94080,37.6678925,-122.4303096
448,Dolores Way,94080,37.6671411,-122.4304280
400,Dolores Way,94080,37.6664597,-122.4311475
472,Dolores Way,94080,37.6674816,-122.4301478
432,Dolores Way,94080,37.6669390,-122.4306725
408,Dolores Way,94080,37.6666075,-122.4309751
416,Dolores Way,94080,37.6667214,-122.4308575
480,Dolores Way,94080,37.6675800,-122.4300190
440,Dolores Way,94080,37.6670495,-122.4305631
424,Dolores Way,94080,37.6668286,-122.4307732
464,Dolores Way,94080,37.6673531,-122.4302310
488,Dolores Way,94080,37.6677062,-122.4299243
456,Dolores Way,94080,37.6672525,-122.4303319
1064,Crestwood Drive,94080,37.6656008,-122.4300813
1088,Crestwood Drive,94080,37.6662698,-122.4308166
1092,Crestwood Drive,94080,37.6663608,-122.4309822
1036,Crestwood Drive,94080,37.6646607,-122.4304509
1032,Crestwood Drive,94080,37.6644946,-122.4304719
1052,Crestwood Drive,94080,37.6651862,-122.4302588
1080,Crestwood Drive,94080,37.6660647,-122.4305452
1084,Crestwood Drive,94080,37.6661666,-122.4306809
1060,Crestwood Drive,94080,37.6654539,-122.4301479
1048,Crestwood Drive,94080,37.6650493,-122.4303006
1040,Crestwood Drive,94080,37.6647914,-122.4304054
1068,Crestwood Drive,94080,37.6657917,-122.4301406
1076,Crestwood Drive,94080,37.6659923,-122.4304204
1056,Crestwood Drive,94080,37.6653192,-122.4302112
1044,Crestwood Drive,94080,37.6649231,-122.4303435
1072,Crestwood Drive,94080,37.6658981,-122.4303063
2,Beverly Court,94080,37.6654139,-122.4314063
374,Dolores Way,94080,37.6651366,-122.4314944
1071,Crestwood Drive,94080,37.6656392,-122.4306140
25,Beverly Court,94080,37.6650889,-122.4311512
1047,Crestwood Drive,94080,37.6650956,-122.4307566
1015,Crestwood Drive,94080,37.6648301,-122.4311778
15,Beverly Court,94080,37.6654409,-122.4309983
1007,Crestwood Drive,94080,37.6649074,-122.4315234
19,Beverly Court,94080,37.6652728,-122.4309772
7,Beverly Court,94080,37.6657000,-122.4312106
11,Beverly Court,94080,37.6655878,-122.4310780
370,Dolores Way,94080,37.6649603,-122.4316887
1035,Crestwood Drive,94080,37.6647642,-122.4308422
1043,Crestwood Drive,94080,37.6649642,-122.4308058
1011,Crestwood Drive,94080,37.6648899,-122.4313381
1087,Crestwood Drive,94080,37.6660271,-122.4311272
1019,Crestwood Drive,94080,37.6647894,-122.4310228
1083,Crestwood Drive,94080,37.6659297,-122.4309762
1051,Crestwood Drive,94080,37.6652195,-122.4307092
1079,Crestwood Drive,94080,37.6658303,-122.4308805
1075,Crestwood Drive,94080,37.6657316,-122.4307361
1055,Crestwood Drive,94080,37.6653514,-122.4306607
378,Dolores Way,94080,37.6652705,-122.4314722
1059,Crestwood Drive,94080,37.6654850,-122.4306112
366,Forest View Drive,94080,37.6648756,-122.4326747
395,Dolores Way,94080,37.6659751,-122.4317546
382,Forest View Drive,94080,37.6653784,-122.4323092
379,Dolores Way,94080,37.6654427,-122.4318945
394,Forest View Drive,94080,37.6659413,-122.4321498
396,Forest View Drive,94080,37.6660947,-122.4321591
396,Willow Avenue,94080,37.6647563,-122.4327497
391,Dolores Way,94080,37.6658338,-122.4317552
399,Dolores Way,94080,37.6661703,-122.4316576
370,Forest View Drive,94080,37.6649975,-122.4325772
387,Dolores Way,94080,37.6656993,-122.4317925
386,Forest View Drive,94080,37.6655138,-122.4322457
390,Forest View Drive,94080,37.6656522,-122.4321955
378,Forest View Drive,94080,37.6652468,-122.4323891
374,Forest View Drive,94080,37.6651093,-122.4324423
392,Forest View Drive,94080,37.6657903,-122.4321435
383,Dolores Way,94080,37.6655700,-122.4318549
392,Willow Avenue,94080,37.6646007,-122.4324832
363,Dolores Way,94080,37.6649378,-122.4321728
355,Dolores Way,94080,37.6646918,-122.4323679
367,Dolores Way,94080,37.6650437,-122.4320861
371,Dolores Way,94080,37.6651679,-122.4320100
375,Dolores Way,94080,37.6653064,-122.4319447
359,Dolores Way,94080,37.6648058,-122.4322667
360,Dolores Way,94080,37.6646138,-122.4319374
1016,Crestwood Drive,94080,37.6644752,-122.4312341
1024,Crestwood Drive,94080,37.6643799,-122.4308994
1012,Crestwood Drive,94080,37.6645122,-122.4314007
1004,Crestwood Drive,94080,37.6645721,-122.4317355
1008,Crestwood Drive,94080,37.6645514,-122.4315685
1020,Crestwood Drive,94080,37.6644354,-122.4310669
1028,Crestwood Drive,94080,37.6643349,-122.4306854
370,Gardenside Avenue,94080,37.6671622,-122.4365677
1209,Crestwood Drive,94080,37.6665348,-122.4344023
382,Gardenside Avenue,94080,37.6673602,-122.4363085
388,Gardenside Avenue,94080,37.6674555,-122.4361991
328,Gardenside Avenue,94080,37.6664542,-122.4373713
1205,Crestwood Drive,94080,37.6664609,-122.4343067
352,Gardenside Avenue,94080,37.6668595,-122.4369179
346,Gardenside Avenue,94080,37.6667542,-122.4370345
334,Gardenside Avenue,94080,37.6665592,-122.4372802
1229,Crestwood Drive,94080,37.6670342,-122.4351209
1233,Crestwood Drive,94080,37.6671300,-122.4352623
322,Gardenside Avenue,94080,37.6663607,-122.4375026
1253,Crestwood Drive,94080,37.6676560,-122.4359556
340,Gardenside Avenue,94080,37.6666630,-122.4371372
376,Gardenside Avenue,94080,37.6672585,-122.4364546
364,Gardenside Avenue,94080,37.6670572,-122.4366808
1249,Crestwood Drive,94080,37.6674816,-122.4357842
1241,Crestwood Drive,94080,37.6673207,-122.4355228
358,Gardenside Avenue,94080,37.6669551,-122.4367813
394,Gardenside Avenue,94080,37.6675600,-122.4360995
1221,Crestwood Drive,94080,37.6668216,-122.4348125
1237,Crestwood Drive,94080,37.6672298,-122.4353912
1213,Crestwood Drive,94080,37.6666403,-122.4345716
1245,Crestwood Drive,94080,37.6673899,-122.4356544
1217,Crestwood Drive,94080,37.6667314,-122.4346758
310,Gardenside Avenue,94080,37.6661609,-122.4377559
316,Gardenside Avenue,94080,37.6662606,-122.4376075
1225,Crestwood Drive,94080,37.6669172,-122.4349529
1203,Crestwood Drive,94080,37.6663578,-122.4341338
1150,Miller Avenue,94080,37.6642267,-122.4356642
352,Holly Avenue,94080,37.6651299,-122.4343736
316,Holly Avenue,94080,37.6643881,-122.4349115
358,Holly Avenue,94080,37.6652513,-122.4342854
340,Holly Avenue,94080,37.6648669,-122.4345568
328,Holly Avenue,94080,37.6646526,-122.4347128
310,Holly Avenue,94080,37.6642963,-122.4349701
334,Holly Avenue,94080,37.6647716,-122.4346314
382,Holly Avenue,94080,37.6657123,-122.4338910
364,Holly Avenue,94080,37.6653552,-122.4341864
346,Holly Avenue,94080,37.6649824,-122.4344893
376,Holly Avenue,94080,37.6655698,-122.4340272
300,Holly Avenue,94080,37.6639495,-122.4352643
388,Holly Avenue,94080,37.6658274,-122.4337876
301,Heather Way,94080,37.6636225,-122.4350286
322,Holly Avenue,94080,37.6645098,-122.4348136
370,Holly Avenue,94080,37.6654597,-122.4341130
304,Holly Avenue,94080,37.6640917,-122.4351815
394,Holly Avenue,94080,37.6659150,-122.4337096
355,Heather Way,94080,37.6651080,-122.4339899
389,Heather Way,94080,37.6660412,-122.4333646
367,Heather Way,94080,37.6654609,-122.4336924
347,Heather Way,94080,37.6648641,-122.4341552
307,Heather Way,94080,37.6637744,-122.4348592
335,Heather Way,94080,37.6644985,-122.4343838
371,Heather Way,94080,37.6655673,-122.4335875
379,Heather Way,94080,37.6658510,-122.4334277
311,Heather Way,94080,37.6638593,-122.4347399
321,Heather Way,94080,37.6641150,-122.4346039
325,Heather Way,94080,37.6642328,-122.4345111
343,Heather Way,94080,37.6647336,-122.4342175
375,Heather Way,94080,37.6657011,-122.4335192
317,Heather Way,94080,37.6639845,-122.4346553
331,Heather Way,94080,37.6643650,-122.4344363
339,Heather Way,94080,37.6646188,-122.4343120
359,Heather Way,94080,37.6652246,-122.4338958
351,Heather Way,94080,37.6649818,-122.4340726
363,Heather Way,94080,37.6653488,-122.4337924
317,Forest View Drive,94080,37.6633410,-122.4342269
399,Forest View Drive,94080,37.6661288,-122.4325836
395,Forest View Drive,94080,37.6659229,-122.4326083
341,Forest View Drive,94080,37.6640541,-122.4337274
311,Forest View Drive,94080,37.6631174,-122.4344214
379,Forest View Drive,94080,37.6653860,-122.4327984
325,Forest View Drive,94080,37.6635727,-122.4340347
388,Heather Way,94080,37.6660696,-122.4329659
387,Forest View Drive,94080,37.6656514,-122.4326624
345,Forest View Drive,94080,37.6641955,-122.4336723
307,Forest View Drive,94080,37.6630136,-122.4345357
1141,Crestwood Drive,94080,37.6661057,-122.4327608
333,Forest View Drive,94080,37.6638200,-122.4338872
359,Forest View Drive,94080,37.6648052,-122.4332721
391,Forest View Drive,94080,37.6657883,-122.4326202
383,Forest View Drive,94080,37.6655299,-122.4327186
375,Forest View Drive,94080,37.6652674,-122.4328826
363,Forest View Drive,94080,37.6649227,-122.4331744
347,Forest View Drive,94080,37.6643131,-122.4335847
315,Forest View Drive,94080,37.6632134,-122.4343251
303,Forest View Drive,94080,37.6628768,-122.4346235
337,Forest View Drive,94080,37.6639255,-122.4337970
367,Forest View Drive,94080,37.6650362,-122.4330759
329,Forest View Drive,94080,37.6636786,-122.4339480
355,Forest View Drive,94080,37.6646782,-122.4333625
371,Forest View Drive,94080,37.6651669,-122.4329820
321,Forest View Drive,94080,37.6634406,-122.4341268
349,Forest View Drive,94080,37.6644250,-122.4335067
351,Forest View Drive,94080,37.6645644,-122.4334435
368,Heather Way,94080,37.6653446,-122.4332566
332,Heather Way,94080,37.6642570,-122.4340026
340,Heather Way,94080,37.6645056,-122.4338727
384,Heather Way,94080,37.6658817,-122.4329690
364,Heather Way,94080,37.6652278,-122.4333661
336,Heather Way,94080,37.6643821,-122.4339354
372,Heather Way,94080,37.6654665,-122.4331614
356,Heather Way,94080,37.6650015,-122.4335630
324,Heather Way,94080,37.6640079,-122.4341694
348,Heather Way,94080,37.6647548,-122.4337100
312,Heather Way,94080,37.6636347,-122.4344144
300,Heather Way,94080,37.6633292,-122.4347745
316,Heather Way,94080,37.6637552,-122.4343281
344,Heather Way,94080,37.6646298,-122.4338087
376,Heather Way,94080,37.6655983,-122.4330891
380,Heather Way,94080,37.6657343,-122.4330160
308,Heather Way,94080,37.6635108,-122.4345170
360,Heather Way,94080,37.6651132,-122.4334798
304,Heather Way,94080,37.6634195,-122.4346198
320,Heather Way,94080,37.6638840,-122.4342394
328,Heather Way,94080,37.6641333,-122.4340955
352,Heather Way,94080,37.6648815,-122.4336654
316,Forest View Drive,94080,37.6630164,-122.4339266
352,Forest View Drive,94080,37.6643642,-122.4330318
346,Forest View Drive,94080,37.6641192,-122.4331936
330,Forest View Drive,94080,37.6634887,-122.4335487
318,Forest View Drive,94080,37.6631368,-122.4338487
312,Forest View Drive,94080,37.6629113,-122.4340503
326,Forest View Drive,94080,37.6633723,-122.4336575
308,Forest View Drive,94080,37.6628022,-122.4341659
334,Forest View Drive,94080,37.6636208,-122.4334949
344,Forest View Drive,94080,37.6639954,-122.4332605
393,Willow Avenue,94080,37.6644946,-122.4329445
342,Forest View Drive,94080,37.6638696,-122.4333436
302,Forest View Drive,94080,37.6625637,-122.4343316
348,Forest View Drive,94080,37.6642471,-122.4331212
322,Forest View Drive,94080,37.6632526,-122.4337608
338,Forest View Drive,94080,37.6637472,-122.4334181
304,Forest View Drive,94080,37.6626909,-122.4342584
389,Willow Avenue,94080,37.6641502,-122.4325941
275,Forest View Drive,94080,37.6623662,-122.4351195
257,Forest View Drive,94080,37.6620209,-122.4354417
263,Forest View Drive,94080,37.6621130,-122.4353241
251,Forest View Drive,94080,37.6618967,-122.4355566
269,Forest View Drive,94080,37.6622268,-122.4352092
1151,Miller Avenue,94080,37.6639341,-122.4358773
1159,Miller Avenue,94080,37.6641746,-122.4361983
1155,Miller Avenue,94080,37.6640660,-122.4360920
1165,Miller Avenue,94080,37.6642780,-122.4363812
276,Evergreen Drive,94080,37.6660660,-122.4401984
280,Evergreen Drive,94080,37.6661555,-122.4400840
292,Evergreen Drive,94080,37.6664455,-122.4397127
244,Evergreen Drive,94080,37.6652544,-122.4411449
248,Evergreen Drive,94080,37.6653549,-122.4410242
240,Evergreen Drive,94080,37.6651623,-122.4412521
252,Evergreen Drive,94080,37.6654537,-122.4409068
284,Evergreen Drive,94080,37.6662556,-122.4399629
298,Evergreen Drive,94080,37.6666583,-122.4394918
272,Evergreen Drive,94080,37.6659667,-122.4403171
260,Evergreen Drive,94080,37.6656513,-122.4406686
296,Evergreen Drive,94080,37.6665545,-122.4396070
288,Evergreen Drive,94080,37.6663643,-122.4398428
264,Evergreen Drive,94080,37.6657663,-122.4405512
268,Evergreen Drive,94080,37.6658683,-122.4404324
256,Evergreen Drive,94080,37.6655466,-122.4407900
293,Ferndale Avenue,94080,37.6662715,-122.4394685
261,Ferndale Avenue,94080,37.6654650,-122.4404152
265,Ferndale Avenue,94080,37.6655688,-122.4402952
281,Ferndale Avenue,94080,37.6659662,-122.4398360
253,Ferndale Avenue,94080,37.6652556,-122.4406508
269,Ferndale Avenue,94080,37.6656776,-122.4401953
249,Ferndale Avenue,94080,37.6651777,-122.4407783
277,Ferndale Avenue,94080,37.6658539,-122.4399569
245,Ferndale Avenue,94080,37.6650525,-122.4408789
257,Ferndale Avenue,94080,37.6653603,-122.4405424
273,Ferndale Avenue,94080,37.6657556,-122.4400588
289,Ferndale Avenue,94080,37.6661623,-122.4395901
297,Ferndale Avenue,94080,37.6663667,-122.4393635
285,Ferndale Avenue,94080,37.6660609,-122.4397089
1269,Miller Avenue,94080,37.6659792,-122.4386061
297,Gardenside Avenue,94080,37.6658750,-122.4386969
289,Gardenside Avenue,94080,37.6656763,-122.4389326
1268,Baywood Avenue,94080,37.6644903,-122.4403559
269,Gardenside Avenue,94080,37.6651555,-122.4395115
277,Gardenside Avenue,94080,37.6653778,-122.4392851
281,Gardenside Avenue,94080,37.6654695,-122.4391726
273,Gardenside Avenue,94080,37.6653002,-122.4394054
245,Gardenside Avenue,94080,37.6645776,-122.4402301
285,Gardenside Avenue,94080,37.6655634,-122.4390493
249,Gardenside Avenue,94080,37.6646768,-122.4401132
261,Gardenside Avenue,94080,37.6649829,-122.4397587
293,Gardenside Avenue,94080,37.6657910,-122.4388143
257,Gardenside Avenue,94080,37.6649027,-122.4398873
265,Gardenside Avenue,94080,37.6650815,-122.4396291
244,Gardenside Avenue,94080,37.6643297,-122.4398903
257,Oakcrest Avenue,94080,37.6644465,-122.4392811
248,Gardenside Avenue,94080,37.6644385,-122.4397729
296,Gardenside Avenue,94080,37.6656230,-122.4383486
245,Oakcrest Avenue,94080,37.6641219,-122.4396383
292,Gardenside Avenue,94080,37.6655199,-122.4384706
1240,Baywood Avenue,94080,37.6640682,-122.4397733
280,Gardenside Avenue,94080,37.6652311,-122.4388392
260,Gardenside Avenue,94080,37.6647204,-122.4394110
273,Oakcrest Avenue,94080,37.6648278,-122.4388213
1253,Miller Avenue,94080,37.6657263,-122.4382328
288,Gardenside Avenue,94080,37.6654178,-122.4386026
281,Oakcrest Avenue,94080,37.6650411,-122.4385889
265,Oakcrest Avenue,94080,37.6646401,-122.4390380
1252,Baywood Avenue,94080,37.6642171,-122.4400141
256,Gardenside Avenue,94080,37.6646327,-122.4395382
284,Gardenside Avenue,94080,37.6653268,-122.4387225
289,Oakcrest Avenue,94080,37.6652351,-122.4383377
269,Oakcrest Avenue,94080,37.6647350,-122.4389458
252,Gardenside Avenue,94080,37.6645154,-122.4396565
268,Gardenside Avenue,94080,37.6649294,-122.4392035
249,Oakcrest Avenue,94080,37.6642416,-122.4395373
297,Oakcrest Avenue,94080,37.6654185,-122.4381002
253,Oakcrest Avenue,94080,37.6643420,-122.4394054
285,Oakcrest Avenue,94080,37.6651193,-122.4384534
277,Oakcrest Avenue,94080,37.6649266,-122.4386827
276,Gardenside Avenue,94080,37.6651307,-122.4389623
272,Gardenside Avenue,94080,37.6650322,-122.4390880
293,Oakcrest Avenue,94080,37.6653182,-122.4382170
264,Gardenside Avenue,94080,37.6648381,-122.4393307
261,Oakcrest Avenue,94080,37.6645348,-122.4391534
285,Sequoia Avenue,94080,37.6646534,-122.4377950
264,Oakcrest Avenue,94080,37.6643892,-122.4387320
277,Sequoia Avenue,94080,37.6644194,-122.4380213
1223,Miller Avenue,94080,37.6652599,-122.4376233
245,Sequoia Avenue,94080,37.6636105,-122.4389414
297,Sequoia Avenue,94080,37.6649555,-122.4374631
260,Oakcrest Avenue,94080,37.6642621,-122.4388004
248,Oakcrest Avenue,94080,37.6639869,-122.4391921
249,Sequoia Avenue,94080,37.6637151,-122.4388247
293,Sequoia Avenue,94080,37.6648611,-122.4375898
265,Sequoia Avenue,94080,37.6641215,-122.4383604
268,Oakcrest Avenue,94080,37.6644864,-122.4385999
241,Sequoia Avenue,94080,37.6635139,-122.4390466
269,Sequoia Avenue,94080,37.6642143,-122.4382491
276,Oakcrest Avenue,94080,37.6646870,-122.4383532
1224,Baywood Avenue,94080,37.6637860,-122.4394138
288,Oakcrest Avenue,94080,37.6649875,-122.4380249
261,Sequoia Avenue,94080,37.6640359,-122.4384736
252,Oakcrest Avenue,94080,37.6640906,-122.4390855
273,Sequoia Avenue,94080,37.6643171,-122.4381371
292,Oakcrest Avenue,94080,37.6650858,-122.4378804
281,Sequoia Avenue,94080,37.6645221,-122.4379069
257,Sequoia Avenue,94080,37.6639001,-122.4385849
244,Oakcrest Avenue,94080,37.6638866,-122.4393025
272,Oakcrest Avenue,94080,37.6645890,-122.4384954
1205,Miller Avenue,94080,37.6650635,-122.4373689
253,Sequoia Avenue,94080,37.6638117,-122.4387154
284,Oakcrest Avenue,94080,37.6648843,-122.4381386
296,Oakcrest Avenue,94080,37.6651877,-122.4377864
280,Oakcrest Avenue,94080,37.6647875,-122.4382619
256,Oakcrest Avenue,94080,37.6641665,-122.4389385
289,Sequoia Avenue,94080,37.6647601,-122.4376912
252,Sequoia Avenue,94080,37.6635353,-122.4383585
284,Sequoia Avenue,94080,37.6643768,-122.4374544
280,Sequoia Avenue,94080,37.6642860,-122.4375684
298,Sequoia Avenue,94080,37.6647787,-122.4370039
292,Sequoia Avenue,94080,37.6645989,-122.4372290
248,Sequoia Avenue,94080,37.6634569,-122.4384721
264,Sequoia Avenue,94080,37.6638713,-122.4380204
260,Sequoia Avenue,94080,37.6637394,-122.4381299
288,Sequoia Avenue,94080,37.6644622,-122.4373412
272,Sequoia Avenue,94080,37.6640627,-122.4377857
236,Sequoia Avenue,94080,37.6631260,-122.4388087
244,Sequoia Avenue,94080,37.6633520,-122.4385839
296,Sequoia Avenue,94080,37.6647035,-122.4371148
276,Sequoia Avenue,94080,37.6641602,-122.4376688
268,Sequoia Avenue,94080,37.6639769,-122.4379072
240,Sequoia Avenue,94080,37.6632371,-122.4387017
256,Sequoia Avenue,94080,37.6636643,-122.4382451
1177,Miller Avenue,94080,37.6645472,-122.4366936
1285,Baywood Avenue,94080,37.6646755,-122.4411989
1276,Edgewood Way,94080,37.6642777,-122.4412005
1297,Baywood Avenue,94080,37.6649316,-122.4415930
1292,Edgewood Way,94080,37.6646464,-122.4417152
1280,Edgewood Way,94080,37.6643452,-122.4413440
1293,Baywood Avenue,94080,37.6648651,-122.4414532
1288,Edgewood Way,94080,37.6645549,-122.4415850
1277,Baywood Avenue,94080,37.6644905,-122.4409518
1296,Edgewood Way,94080,37.6647434,-122.4418104
1289,Baywood Avenue,94080,37.6647706,-122.4413316
1284,Edgewood Way,94080,37.6644697,-122.4414541
1281,Baywood Avenue,94080,37.6645672,-122.4410851
1277,Edgewood Way,94080,37.6639980,-122.4415317
1293,Edgewood Way,94080,37.6643947,-122.4420255
1289,Edgewood Way,94080,37.6643000,-122.4419013
1296,Mission Road,94080,37.6642997,-122.4423385
1297,Edgewood Way,94080,37.6644712,-122.4421484
1285,Edgewood Way,94080,37.6642067,-122.4417842
1281,Edgewood Way,94080,37.6640995,-122.4416384
1249,Baywood Avenue,94080,37.6639932,-122.4403200
1231,Baywood Avenue,94080,37.6637115,-122.4399434
1225,Baywood Avenue,94080,37.6636107,-122.4398178
1237,Baywood Avenue,94080,37.6638042,-122.4400612
1243,Baywood Avenue,94080,37.6639003,-122.4402108
1201,Baywood Avenue,94080,37.6632284,-122.4392881
1219,Baywood Avenue,94080,37.6635242,-122.4397066
1255,Baywood Avenue,94080,37.6641147,-122.4404699
1213,Baywood Avenue,94080,37.6634269,-122.4395511
1207,Baywood Avenue,94080,37.6633337,-122.4394301
1212,Mission Road,94080,37.6626531,-122.4404395
1200,Mission Road,94080,37.6624685,-122.4402061
1206,Mission Road,94080,37.6625688,-122.4403273
1230,Mission Road,94080,37.6629390,-122.4408252
1218,Mission Road,94080,37.6627365,-122.4405894
1242,Mission Road,94080,37.6631461,-122.4410408
1224,Mission Road,94080,37.6628605,-122.4407077
1236,Mission Road,94080,37.6630436,-122.4409464
865,Baden Avenue,94080,37.6582974,-122.4298161
121,Eucalyptus Avenue,94080,37.6577203,-122.4271805
843,Baden Avenue,94080,37.6580031,-122.4288855
851,Baden Avenue,94080,37.6580971,-122.4291903
825,Baden Avenue,94080,37.6579033,-122.4281654
879,Baden Avenue,94080,37.6584228,-122.4303606
113,Eucalyptus Avenue,94080,37.6574739,-122.4272722
847,Baden Avenue,94080,37.6580969,-122.4290383
821,Baden Avenue,94080,37.6578997,-122.4279907
829,Baden Avenue,94080,37.6579636,-122.4282888
875,Baden Avenue,94080,37.6583623,-122.4302440
117,Eucalyptus Avenue,94080,37.6576078,-122.4272213
817,Baden Avenue,94080,37.6577616,-122.4278913
861,Baden Avenue,94080,37.6582676,-122.4296788
871,Baden Avenue,94080,37.6583294,-122.4300973
869,Baden Avenue,94080,37.6583196,-122.4299741
835,Baden Avenue,94080,37.6580258,-122.4285534
831,Baden Avenue,94080,37.6579933,-122.4284378
111,Eucalyptus Avenue,94080,37.6573225,-122.4273089
111,Eucalyptus Avenue,94080,37.6572354,-122.4273410
800,Commercial Avenue,94080,37.6571196,-122.4273879
268,Forest View Drive,94080,37.6619832,-122.4349029
274,Forest View Drive,94080,37.6620918,-122.4348047
262,Forest View Drive,94080,37.6618796,-122.4350209
250,Forest View Drive,94080,37.6616705,-122.4352210
256,Forest View Drive,94080,37.6617760,-122.4351338
224,Forest View Drive,94080,37.6612157,-122.4356619
218,Forest View Drive,94080,37.6610558,-122.4356765
206,Forest View Drive,94080,37.6607638,-122.4356729
212,Forest View Drive,94080,37.6609091,-122.4356645
1050,Mission Road,94080,37.6592650,-122.4352753
231,Forest View Drive,94080,37.6614383,-122.4360619
219,Forest View Drive,94080,37.6611657,-122.4361530
225,Forest View Drive,94080,37.6613048,-122.4361132
213,Forest View Drive,94080,37.6610192,-122.4361410
207,Forest View Drive,94080,37.6608608,-122.4360983
1024,Mission Road,94080,37.6583442,-122.4350865
200,San Felipe Avenue,94080,37.6564715,-122.4502679
334,Alta Loma Drive,94080,37.6614629,-122.4438934
635,Orchid Drive,94080,37.6617071,-122.4472574
633,Orchid Drive,94080,37.6617675,-122.4470961
639,Orchid Drive,94080,37.6616341,-122.4474144
631,Orchid Drive,94080,37.6617782,-122.4469304
686,Freesia Drive,94080,37.6631936,-122.4476480
676,Freesia Drive,94080,37.6630431,-122.4469357
668,Orchid Drive,94080,37.6622895,-122.4474828
675,Orchid Drive,94080,37.6627324,-122.4479999
676,Orchid Drive,94080,37.6626908,-122.4475660
655,Freesia Drive,94080,37.6622565,-122.4471178
672,Freesia Drive,94080,37.6628892,-122.4468313
678,Freesia Drive,94080,37.6631037,-122.4471381
659,Orchid Drive,94080,37.6619779,-122.4478229
661,Freesia Drive,94080,37.6623821,-122.4471374
672,Orchid Drive,94080,37.6625541,-122.4475509
679,Orchid Drive,94080,37.6628766,-122.4479950
669,Freesia Drive,94080,37.6625199,-122.4471597
662,Freesia Drive,94080,37.6624879,-122.4467257
700,Freesia Drive,94080,37.6634740,-122.4484825
688,Freesia Drive,94080,37.6632039,-122.4478286
662,Orchid Drive,94080,37.6621511,-122.4474314
668,Freesia Drive,94080,37.6626211,-122.4467615
650,Freesia Drive,94080,37.6622225,-122.4466642
696,Freesia Drive,94080,37.6633162,-122.4481631
680,Freesia Drive,94080,37.6631378,-122.4473042
670,Freesia Drive,94080,37.6627537,-122.4468069
673,Freesia Drive,94080,37.6626552,-122.4472107
669,Orchid Drive,94080,37.6624143,-122.4479256
673,Orchid Drive,94080,37.6625673,-122.4479573
678,Orchid Drive,94080,37.6628456,-122.4475670
667,Orchid Drive,94080,37.6622742,-122.4478855
651,Orchid Drive,94080,37.6618322,-122.4477988
698,Freesia Drive,94080,37.6633945,-122.4483054
651,Freesia Drive,94080,37.6621191,-122.4470557
670,Orchid Drive,94080,37.6624201,-122.4474982
682,Freesia Drive,94080,37.6631469,-122.4474782
652,Freesia Drive,94080,37.6623529,-122.4467117
692,Freesia Drive,94080,37.6632700,-122.4480022
663,Orchid Drive,94080,37.6621253,-122.4478646
660,Orchid Drive,94080,37.6620219,-122.4474070
675,Freesia Drive,94080,37.6627859,-122.4472688
1695,El Camino Real,94080,37.6659324,-122.4515191
100,Hickey Boulevard,94080,37.6670072,-122.4521984
423 1/2,Grand Avenue,94080,37.6557274,-122.4135740
211,Linden Avenue,94080,37.6544894,-122.4105855
351,Baden Avenue,94080,37.6544495,-122.4125931
1461,San Mateo Avenue,94080,37.6485780,-122.4097355
1265,Mission Road,94080,37.6631439,-122.4417457
853,Baden Avenue,94080,37.6581831,-122.4293430
1,West Orange Avenue,94080,37.6550157,-122.4255432
206,Utah Avenue,94080,37.6462063,-122.3987599
299,Country Club Drive,94080,37.6425131,-122.4332124
410,Allerton Avenue,94080,37.6542213,-122.3895796
600,DNA Way,94080,37.6539793,-122.3884677
342,Allerton Avenue,94080,37.6533822,-122.3904336
19,Eucalyptus Avenue,94080,37.6567373,-122.4275434
800,Circle Court,94080,37.6564500,-122.4276554
801,Circle Court,94080,37.6561317,-122.4277434
781,Tennis Drive,94080,37.6544689,-122.4263665
850,Antoinette Lane,94080,37.6550855,-122.4303212
850,Gateway Boulevard,94080,37.6605469,-122.3938759
285,East Grand Avenue,94080,37.6528263,-122.3931231
801,Gateway Boulevard,94080,37.6607185,-122.3983949
333,Corey Way,94080,37.6442213,-122.4011459
245,South Airport Boulevard,94080,37.6482973,-122.4038359
326,Shaw Road,94080,37.6388758,-122.4067019
1415,Hillside Boulevard,94080,37.6674619,-122.4245637
1415,Hillside Boulevard,94080,37.6676188,-122.4243646
1113,Airport Boulevard,94080,37.6636517,-122.4007797
255,South Airport Boulevard,94080,37.6474593,-122.4042785
251,Shaw Road,94080,37.6412171,-122.4069892
326,South Airport Boulevard,94080,37.6441969,-122.4055344
137,South Linden Avenue,94080,37.6442560,-122.4136167
721,Airport Boulevard,94080,37.6592359,-122.4059091
248,South Airport Boulevard,94080,37.6479545,-122.4059060
670,Gateway Boulevard,94080,37.6574486,-122.3976404
724,El Camino Real,94080,37.6508707,-122.4306549
687,El Camino Real,94080,37.6499135,-122.4307678
639,El Camino Real,94080,37.6491395,-122.4302292
665,El Camino Real,94080,37.6495070,-122.4305474
635,El Camino Real,94080,37.6489709,-122.4302684
500,DNA Way,94080,37.6553700,-122.3867049
400,DNA Way,94080,37.6564267,-122.3848957
780,South Airport Boulevard,94128,37.6217472,-122.3789591
794,South Airport Boulevard,94128,37.6357036,-122.4015912
500,East Jamie Court,94083,37.6489471,-122.3822171
2248,Westborough Boulevard,94080,37.6440668,-122.4522893
2238,Westborough Boulevard,94080,37.6444851,-122.4514459
901,Civic Campus Way,94080,37.6560177,-122.4350309
988,El Camino Real,94080,37.6548404,-122.4333089
127,West Harris Avenue,94080,37.6502701,-122.4039007
300,Point San Bruno Boulevard,94080,37.6524530,-122.3804170
131,Terminal Court,94080,37.6442472,-122.4085297
180,South Airport Boulevard,94080,37.6494216,-122.4059342
200,Linden Avenue,94080,37.6543547,-122.4099050
100,Baden Avenue,94080,37.6541485,-122.4085783
550,Gateway Boulevard,94080,37.6570495,-122.3995598
101,McLellan Drive,94080,37.6642941,-122.4469883
100,McLellan Drive,94080,37.6640331,-122.4451821
121,East Grand Avenue,94080,37.6550283,-122.4047594
795,South Airport Boulevard,94128,37.6366545,-122.4005490
555,Guadalupe Canyon Parkway,94005,37.6855661,-122.4243311
195,Belle Air Road,94080,37.6416756,-122.3965670
