House number,Street name,Postal code,Latitude,Longitude
5525,East Imperial Highway,90280,33.9309100,-118.1747318
5818,Imperial Hwy,90280,33.9293285,-118.1663742
3521,Tweedy Boulevard,90280,33.9445285,-118.2068752
5841,Firestone Boulevard,90280,33.9493542,-118.1635876
8616,Garfield Avenue,90280,33.9521043,-118.1635715
5800,Firestone Boulevard,90280,33.9488291,-118.1648620
5830,Firestone Boulevard,90280-3706,33.9480410,-118.1637503
5820,Firestone Boulevard,90280,33.9480720,-118.1642363
5840,Firestone Boulevard,90280,33.9486516,-118.1637340
5840,Firestone Boulevard,90280,33.9486464,-118.1636410
5840,Firestone Boulevard,90280,33.9486372,-118.1635709
5840,Firestone Boulevard,90280,33.9486305,-118.1634925
5840,Firestone Boulevard,90280,33.9486161,-118.1634128
5840,Firestone Boulevard,90280,33.9486079,-118.1633155
5840,Firestone Boulevard,90280,33.9486022,-118.1632410
5700,Firestone Boulevard,90280-3704,33.9481405,-118.1674781
8116,Long Beach Boulevard,90280,33.9642539,-118.2249098
8100,California Avenue,90280,33.9623641,-118.2044676
12100,GARFIELD,90280-8033,33.9168128,-118.1685060
4344,Tweedy Boulevard,90280,33.9432596,-118.1954212
5802,Firestone Boulevard,90280,33.9482981,-118.1650443
5800,Firestone Boulevard,90280,33.9482904,-118.1649195
5820,Firestone Boulevard,90280,33.9480658,-118.1640994
4709,Firestone Boulevard,90280,33.9525849,-118.1856014
4705,Firestone Boulevard,90280,33.9526110,-118.1858565
4707,Firestone Boulevard,90280,33.9525965,-118.1857274
4741,Firestone Boulevard,90280,33.9526198,-118.1852876
4745,Firestone Boulevard,90280,33.9526106,-118.1851820
4757,Firestone Boulevard,90280,33.9525937,-118.1848841
4765,Firestone Boulevard,90280,33.9525256,-118.1846546
4771,Firestone Boulevard,90280,33.9525022,-118.1843457
4775,Firestone Boulevard,90280,33.9524944,-118.1842390
4779,Firestone Boulevard,90280,33.9524845,-118.1841395
4787,Firestone Boulevard,90280,33.9524722,-118.1840153
4791,Firestone Boulevard,90280,33.9524664,-118.1839673
4791,Firestone Boulevard,90280,33.9525248,-118.1838442
4809,Firestone Boulevard,90280,33.9526045,-118.1838577
4803,Firestone Boulevard,90280,33.9526844,-118.1838821
4819,Firestone Boulevard,90280,33.9528332,-118.1839577
4827,Firestone Boulevard,90280,33.9529914,-118.1838997
4861,Firestone Boulevard,90280,33.9532011,-118.1840401
4857,Firestone Boulevard,90280,33.9533961,-118.1844290
4855,Firestone Boulevard,90280,33.9534104,-118.1845870
4853,Firestone Boulevard,90280,33.9534216,-118.1846972
4849,Firestone Boulevard,90280,33.9534643,-118.1850242
4849,Firestone Boulevard,90280,33.9534290,-118.1847700
4783,Firestone Boulevard,90280,33.9524774,-118.1840736
4753,Firestone Boulevard,90280,33.9525885,-118.1849830
4749,Firestone Boulevard,90280,33.9525996,-118.1850787
3506,Tweedy Boulevard,90280,33.9439444,-118.2073979
3522,Tweedy Boulevard,90280,33.9440045,-118.2069950
3538,Tweedy Boulevard,90280,33.9439911,-118.2066490
9853,Long Beach Boulevard,90280,33.9457222,-118.2167720
4687,Firestone Boulevard,90280,33.9540799,-118.1854113
4681,Firestone Boulevard,90280,33.9541488,-118.1857063
4651,Firestone Boulevard,90280,33.9545923,-118.1872647
4070,Tweedy Boulevard,90280,33.9434864,-118.2004270
3265,Tweedy Blvd,90280,33.9453944,-118.2132040
8012,Long Beach Boulevard,90280,33.9656381,-118.2248639
3638,Tweedy Boulevard,90280-6044,33.9439570,-118.2056022
9507,Long Beach Boulevard,90280,33.9493820,-118.2181070
5760,Imperial Highway,90280,33.9294700,-118.1676300
13745,Paramount Boulevard,90280,33.9109520,-118.1608640
10001,Frontage Road West,90280,33.9422376,-118.1723722
4900,Southern Avenue,90280,33.9454060,-118.1853347
9724,Pinehurst Avenue,90280,33.9437495,-118.1818047
4470,Missouri Avenue,90280,33.9441548,-118.1927950
9329,Madison Avenue,90280,33.9506113,-118.2145832
9200,State Street,90280,33.9519097,-118.2120336
9801,Miguel Avenue,90280,33.9451934,-118.2015466
3320,Missouri Avenue,90280,33.9461393,-118.2111345
4100,Firestone Boulevard,90280,33.9517386,-118.1980813
2720,Tweedy Boulevard,90280,33.9440452,-118.2228731
10018,Montara Avenue,90280,33.9444929,-118.2178829
5511,Century Boulevard,90280,33.9182110,-118.1729143
5400,Monroe Avenue,90280,33.9216657,-118.1750821
2833,Illinois Avenue,90280,33.9512867,-118.2209518
3351,Firestone Boulevard,90280,33.9561336,-118.2092800
8435,Victoria Avenue,90280,33.9589591,-118.2101943
2560,Tweedy Boulevard,90280,33.9456686,-118.2260337
9615,Pinehurst Avenue,90280,33.9446852,-118.1835990
9520,Hildreth Avenue,90280,33.9460486,-118.1868934
4940,Southern Avenue,90280,33.9459527,-118.1843873
4855,Tweedy Boulevard,90280,33.9426707,-118.1856745
4900,Southern Avenue,90280,33.9473360,-118.1840826
7295,Quill Drive,90242,33.9372767,-118.1613149
5201,Imperial Highway,90280,33.9314489,-118.1803527
8990,Atlantic Avenue,90280,33.9494454,-118.1810009
2310,Firestone Boulevard,90280,33.9573487,-118.2303863
4040,Tweedy Boulevard,90280-6136,33.9434354,-118.2010911
10840,Garfield Avenue,90280,33.9302838,-118.1675709
3480,Firestone Boulevard,90280,33.9539845,-118.2065099
3504,Firestone Boulevard,90280,33.9539039,-118.2059040
8912,South Gate Avenue,90280,33.9545598,-118.2137623
4383,Tweedy Boulevard,90280-6236,33.9434305,-118.1948770
9420,Long Beach Boulevard,90280,33.9500899,-118.2172298
3170,Southern Avenue,90280,33.9514204,-118.2143861
9703,State Street,90280,33.9472377,-118.2137451
9523,Long Beach Boulevard,90280,33.9490948,-118.2175779
4240,Tweedy Blvd,90280,33.9429995,-118.1968689
3351,Tweedy Boulevard,90280,33.9449934,-118.2102315
3255,Tweedy Boulevard,90280,33.9454313,-118.2133826
3297,Tweedy Boulevard,90280,33.9451839,-118.2123301
3309,Tweedy Boulevard,90280,33.9451261,-118.2115082
8442,State Street,90280,33.9594198,-118.2111714
4601,Firestone Boulevard,90280,33.9527632,-118.1882999
4669,Firestone Boulevard,90280,33.9546189,-118.1864624
4651,Firestone Boulevard,90280,33.9548372,-118.1876187
4701,Firestone Boulevard,90280,33.9527025,-118.1866168
4663,Firestone Boulevard,90280,33.9545302,-118.1867836
4703,Firestone Boulevard,90280,33.9525630,-118.1861232
4675,Firestone Boulevard,90280,33.9544484,-118.1860568
4135,East Firestone Boulevard,90280,33.9535445,-118.1971713
8650,California Avenue,90280,33.9557133,-118.2051236
8680,California Avenue,90280,33.9550062,-118.2055922
8640,California Avenue,90280,33.9562054,-118.2048846
8620,California Avenue,90280,33.9567196,-118.2050310
9775,Otis Street,90280,33.9449101,-118.1981190
4155,Tweedy Boulevard,90280,33.9443522,-118.1990519
8920,Atlantic Avenue,90280,33.9513946,-118.1825588
9420-9430,Burtis Street,90280,33.9467436,-118.1748519
9400,Rayo Avenue,90280,33.9469443,-118.1782235
9480,Burtis Street,90280,33.9456657,-118.1749069
4914,Firestone Boulevard,90280,33.9514810,-118.1822366
5310,Southern Avenue,90280,33.9445817,-118.1755594
9430,Rayo Avenue,90280,33.9465096,-118.1789077
8708,Atlantic Boulevard,90280-3503,33.9520910,-118.1827734
5250,Southern Avenue,90280,33.9454850,-118.1769929
5645,Firestone Boulevard,90280,33.9501903,-118.1665815
8810,South Garfield Avenue,90280,33.9504894,-118.1644364
5871,Firestone Boulevard,90280,33.9498528,-118.1619396
8630,Garfield Avenue,90280,33.9518489,-118.1616327
8821,Garfield Avenue,90280,33.9502160,-118.1654291
5731,Firestone Boulevard,90280,33.9498105,-118.1655667
5730,Firestone Boulevard,90280-3704,33.9488315,-118.1657888
5860,Firestone Boulevard,90280,33.9483494,-118.1624679
8620,Garfield Avenue,90280,33.9522678,-118.1639001
5810,Firestone Boulevard,90280,33.9478563,-118.1648723
2633,Santa Ana Street,90280,33.9650009,-118.2240928
8500,Long Beach Boulevard,90280,33.9605326,-118.2228959
11205,Garfield Avenue,90280,33.9259546,-118.1696857
5740,Imperial Highway,90280,33.9296530,-118.1686244
10930,Garfield Avenue,90280,33.9284437,-118.1680009
8911,S. Atlantic Avenue,90280,33.9510422,-118.1831889
8967,Atlantic Avenue,90280,33.9500266,-118.1828161
11258,Garfield Avenue,90242,33.9249921,-118.1689369
5101,East Imperial Highway,90262,33.9310226,-118.1829364
5141,Imperial Highway,90280,33.9310678,-118.1820194
10352,Atlantic Avenue,90280,33.9365082,-118.1817604
5165,Imperial Highway,90280,33.9313245,-118.1810907
10129,Garfield Avenue,90280,33.9387304,-118.1684930
4635,Firestone Boulevard,90280,33.9538902,-118.1861751
2541,Southern Avenue,90280,33.9534083,-118.2258128
5225,Tweedy Boulevard,90280,33.9408877,-118.1778185
9000,Atlantic Avenue,90280,33.9484319,-118.1799190
2701,Sequoia Drive,90280,33.9424301,-118.2230572
4149,Tweedy Boulevard,90280,33.9439063,-118.1994689
4149,Tweedy Boulevard,90280,33.9439146,-118.1994106
4149,Tweedy Boulevard,90280,33.9439001,-118.1992829
4149,Tweedy Boulevard,90280,33.9439093,-118.1993494
4149,Tweedy Boulevard,90280,33.9438933,-118.1992189
4149,Tweedy Boulevard,90280,33.9438868,-118.1991462
4149,Tweedy Boulevard,90280,33.9438792,-118.1990742
4149,Tweedy Boulevard,90280,33.9438198,-118.1989185
4149,Tweedy Boulevard,90280,33.9438706,-118.1988958
4149,Tweedy Boulevard,90280,33.9438131,-118.1988344
9415,Burtis Street,90280,33.9473174,-118.1762360
5005,Firestone Place,90280,33.9530178,-118.1805245
4570,Ardine Street,90280,33.9566510,-118.1887417
2340,Firestone Boulevard,90280,33.9566590,-118.2298071
9840,Frontage Road East,90280,33.9412513,-118.1697918
5601,Southern Avenue,90280,33.9460953,-118.1698585
8627,Atlantic Avenue,90280,33.9543016,-118.1846890
10930,Garfield Avenue,90280,33.9284623,-118.1679926
10840,Garfield Avenue,90280,33.9303229,-118.1677254
5480,Gardendale Street,90280,33.9247250,-118.1734722
12221,Industrial Avenue,90280,33.9159282,-118.1642748
9520,Hildreth Avenue,90280,33.9464157,-118.1868315
9615,Pinehurst Avenue,90280,33.9439439,-118.1835737
9599,Pinehurst Avenue,90280,33.9461491,-118.1829967
9820,Madison Avenue,90280,33.9457841,-118.2141802
5731,Firestone Boulevard,90280,33.9496506,-118.1655685
5625,Firestone Boulevard,90280,33.9505790,-118.1687470
8601,Garfield Avenue,90280,33.9523735,-118.1672730
7011,Stewart and Gray Road,90241,33.9452202,-118.1624690
8901,Calden Avenue,90280,33.9550517,-118.2295122
2405,Southern Avenue,90280,33.9545586,-118.2296817
8639,Atlantic Avenue,90280,33.9538708,-118.1840691
10740,Lee Lane,90280,33.9369708,-118.1660926
