House number,Street name,Postal code,Latitude,Longitude
2510,North California Street,95204,37.9767296,-121.2909090
6535,Pacific Avenue,95207,38.0091681,-121.3226915
10858,Trinity Park Way,95219,38.0558527,-121.3756325
306,North Hunter Street,95202,37.9563727,-121.2891399
4343,Pacific Avenue,95207,37.9869467,-121.3118440
4343,Pacific Avenue,95207,37.9870345,-121.3115040
2233,Grand Canal Boulevard,95207,37.9848523,-121.3341210
2233,Grand Canal Boulevard,95207,37.9848934,-121.3339657
4663,Pacific Avenue,95207,37.9905752,-121.3127406
5400,Pacific Avenue,95207,37.9994125,-121.3143732
6211,Pacific Avenue,95207,38.0063979,-121.3193899
5410,Pacific Avenue,95207,38.0000786,-121.3145646
5406,Pacific Avenue,95207,37.9997695,-121.3144759
4729,North Pershing Avenue,95207,37.9894221,-121.3224301
110,Doctor M.L.K. Jr Boulevard,95206,37.9386508,-121.2854577
616,West Hammer Lane,95207,38.0206237,-121.3197065
20,North Sutter Street,95202,37.9537079,-121.2857970
1028,North Airport Way,95205,37.9658173,-121.2768126
1030,North Airport Way,95205,37.9659632,-121.2768485
1034,North Airport Way,95205,37.9660929,-121.2768782
1038,North Airport Way,95205,37.9663721,-121.2769348
1036,North Airport Way,95205,37.9662296,-121.2769243
1040,North Airport Way,95205,37.9664911,-121.2770036
1044,North Airport Way,95205,37.9666141,-121.2770342
1045,North Sierra Nevada Street,95205,37.9662359,-121.2759909
1047,North Sierra Nevada Street,95205,37.9663790,-121.2760057
1044,North Airport Way,95205,37.9667536,-121.2770686
1049,North Sierra Nevada Street,95205,37.9665091,-121.2760392
1055,North Sierra Nevada Street,95205,37.9666453,-121.2760796
1338,Roosevelt Street,95205,37.9668921,-121.2763161
1330,Roosevelt Street,95205,37.9668594,-121.2765097
1301,East Acacia Street,95205,37.9654099,-121.2766655
4426,North Ijams Road,95210,37.9955225,-121.2825396
4456,North Ijams Road,95210,37.9956300,-121.2825737
4640,North Ijams Road,95210,37.9977021,-121.2835059
1705,East Fremont Street,95205,37.9615478,-121.2698040
701,Airport Way,95205,37.9624446,-121.2764803
1504,Pacific Avenue,95204,37.9672934,-121.2978560
45,East Harding Way,95204,37.9676835,-121.2943030
1224,West Fremont Street,95203,37.9544940,-121.3087975
3777,A G Spanos Boulevard,95209,38.0510710,-121.3580102
5354,Pacific Avenue,95207,37.9992110,-121.3118649
5416,Pacific Avenue,95207,38.0003444,-121.3147249
702,North Wilson Way,95205-4225,37.9634257,-121.2731886
819,North Wilson Way,95205,37.9640990,-121.2740803
402,East Charter Way,95206,37.9395247,-121.2811100
678,North Wilson Way,95205,37.9634070,-121.2725766
3305,Isabella Lane,95215,37.9142953,-121.3086788
1423,North Center Street,95202-1022,37.9666700,-121.2979004
6045,North El Dorado Street,95207,38.0080914,-121.3100220
110,East Weber Avenue,95202,37.9532817,-121.2896527
46,North Sutter Street,95202,37.9541996,-121.2859779
619,West Charter Way,95206-1709,37.9374941,-121.2961311
733,West Charter Way,95206,37.9367577,-121.2993020
611,West Charter Way,95206-1709,37.9376053,-121.2955275
1617,West Fremont Street,95203,37.9545271,-121.3135780
1617,West Fremont Street,95203,37.9547083,-121.3139180
3250,West Hammer Lane,95209,38.0208220,-121.3571510
3264,West Hammer Lane,95209,38.0208946,-121.3575650
134,East Charter Way,95206,37.9388459,-121.2852163
134,East Charter Way,95206,37.9388797,-121.2850150
3519,East Hammer Lane,95212,38.0214858,-121.2709740
3519,East Hammer Lane,95212,38.0214931,-121.2708009
1049,East March Lane,95210-3544,38.0021134,-121.2922340
5620,North Pershing Avenue,95207,37.9992610,-121.3252778
1789,Charter Way,95206,37.9340032,-121.3116209
3526,Manthey Road,95206,37.9113124,-121.2923744
2444,South Monroe Street,95206,37.9250794,-121.2866457
1145,North California Street,95202,37.9652288,-121.2879852
4578,Feather River Drive,95219,37.9831848,-121.3469175
5637,North Pershing Avenue,95207,37.9987356,-121.3262406
1627,S Center St,95206,37.9355295,-121.2863710
3943,North West Lane,95204,37.9894879,-121.2866601
423,Lincoln Center,95207,38.0108340,-121.3233426
6623,Pacific Avenue,95207,38.0102013,-121.3227739
7647,Pacific Avenue,95207,38.0191104,-121.3242739
7432,Pacific Avenue,95207,38.0171673,-121.3225205
628,West Hammer Lane,95210,38.0198064,-121.3202601
744,West Hammer Lane,95210,38.0198085,-121.3225960
616,West Hammer Lane,95210,38.0203272,-121.3197194
1204,Enterprise Street,95204,37.9896480,-121.2870771
2525,Airport Way,95206,37.9269490,-121.2659565
1102,Aurora Street S,95206,37.9433136,-121.2759431
4205,South B Street,95206,37.9114560,-121.2474150
343,East Main Street,95202,37.9535597,-121.2861743
128,Lincoln Center,95207,38.0112084,-121.3223000
2705,Country Club Boulevard,95204,37.9644084,-121.3364077
906,Tommydon Street,95210,38.0184722,-121.3001529
123,S Commerce St,95202,37.9509678,-121.2925976
2866,West March Lane,95219,37.9838645,-121.3466111
2866,West March Lane,95219,37.9838645,-121.3467282
2233,Grand Canal Boulevard,95207,37.9847443,-121.3345344
2233,Grand Canal Boulevard,95207,37.9847760,-121.3344057
2233,Grand Canal Boulevard,95207,37.9848305,-121.3342050
2233,Grand Canal Boulevard,95207,37.9848717,-121.3340483
2233,Grand Canal Boulevard,95207,37.9850704,-121.3335820
2233,Grand Canal Boulevard,95207,37.9850852,-121.3335078
2233,Grand Canal Boulevard,95207,37.9851137,-121.3334019
2233,Grand Canal Boulevard,95207,37.9849379,-121.3333802
2233,Grand Canal Boulevard,95207,37.9849531,-121.3334986
2233,Grand Canal Boulevard,95207,37.9848598,-121.3337586
2233,Grand Canal Boulevard,95207,37.9847868,-121.3339050
2233,Grand Canal Boulevard,95207,37.9847503,-121.3340713
2233,Grand Canal Boulevard,95207,37.9847219,-121.3341846
2233,Grand Canal Boulevard,95207,37.9846792,-121.3343184
2233,Grand Canal Boulevard,95207,37.9846661,-121.3343890
2233,Grand Canal Boulevard,95207,37.9846549,-121.3344484
2324,Grand Canal Boulevard,95207,37.9839457,-121.3362164
2324,Grand Canal Boulevard,95207,37.9838606,-121.3361614
2324,Grand Canal Boulevard,95207,37.9838257,-121.3361239
2324,Grand Canal Boulevard,95207,37.9837956,-121.3360720
2324,Grand Canal Boulevard,95207,37.9837597,-121.3359560
2324,Grand Canal Boulevard,95207,37.9837512,-121.3358919
2324,Grand Canal Boulevard,95207,37.9837554,-121.3358335
2324,Grand Canal Boulevard,95207,37.9837655,-121.3357685
2324,Grand Canal Boulevard,95207,37.9837834,-121.3357128
2324,Grand Canal Boulevard,95207,37.9838115,-121.3356558
2234,Grand Canal Boulevard,95207,37.9838522,-121.3356062
2324,Grand Canal Boulevard,95207,37.9838889,-121.3354922
2222,Grand Canal Boulevard,95207,37.9843487,-121.3337407
2222,Grand Canal Boulevard,95207,37.9843622,-121.3336272
2222,Grand Canal Boulevard,95207,37.9843475,-121.3335606
2222,Grand Canal Boulevard,95207,37.9843495,-121.3334318
2222,Grand Canal Boulevard,95207,37.9843649,-121.3333610
2222,Grand Canal Boulevard,95207,37.9843952,-121.3332977
2222,Grand Canal Boulevard,95207,37.9844336,-121.3332478
2222,Grand Canal Boulevard,95207,37.9845164,-121.3331761
2222,Grand Canal Boulevard,95207,37.9845759,-121.3331466
2222,Grand Canal Boulevard,95207,37.9846203,-121.3331415
2222,Grand Canal Boulevard,95207,37.9846698,-121.3331428
2453,Grand Canal Boulevard,95207,37.9841417,-121.3377780
1120,Waterloo Road,95205,37.9688623,-121.2700897
1117,West March Lane,95207,37.9908400,-121.3197325
1101 Suite D,East March Lane,95210,38.0025917,-121.2938090
3461,Brookside Road,95219,37.9853153,-121.3554861
10512,Trinity Parkway,95209,38.0525564,-121.3748390
2725,Country Club Boulevard,95204,37.9643520,-121.3370177
2720,Country Club Boulevard,95204,37.9632669,-121.3367508
2705,Country Club Boulevard,95204,37.9645449,-121.3366371
2110,South Sinclair Avenue,95215,37.9420499,-121.2246963
5734,Tevlin Lane,95210,38.0096139,-121.2879419
6625,Pacific Avenue,95207,38.0102573,-121.3209290
878,West Benjamin Holt Drive,95207,38.0102010,-121.3224370
866,West Benjamin Holt Drive,95207,38.0103235,-121.3220660
856,West Benjamin Holt Drive,95207,38.0101746,-121.3217303
6530,Pacific Avenue,95207,38.0101621,-121.3196964
6248,Pacific Avenue,95207,38.0072777,-121.3186700
6252,Pacific Avenue,95207,38.0073462,-121.3186920
8014,North Lower Sacramento Road,95210,38.0224623,-121.3224390
10952,Trinity Parkway,95219,38.0574172,-121.3751673
10952,Trinity Parkway,95219,38.0574117,-121.3753699
10940,Trinity Parkway,95219,38.0571541,-121.3758500
10940,Trinity Parkway,95219,38.0570565,-121.3758450
10710,Trinity Parkway,95219,38.0539598,-121.3746808
10506,Trinity Parkway,95219,38.0521869,-121.3748342
10424,Trinity Parkway,95219,38.0521441,-121.3726712
10742,Trinity Parkway,95219,38.0539556,-121.3729252
10742,Trinity Parkway,95219,38.0539890,-121.3729315
6021,Pacific Avenue,95207,38.0048624,-121.3187116
6015,Pacific Avenue,95207,38.0046225,-121.3186285
7908,West Lane,95210,38.0215937,-121.2923049
7908,West Lane,95210,38.0216745,-121.2924253
8004,West Lane,95210,38.0227801,-121.2931850
1440,East Hammer Lane,95210,38.0205283,-121.2955627
5350,Pacific Avenue,95207,37.9991767,-121.3153847
2041,North Pacific Avenue,95204,37.9707904,-121.3000930
2300,Pacific Avenue,95204,37.9724867,-121.3008995
3706,East Hammer Lane,95212,38.0206808,-121.2693941
3702,East Hammer Lane,95212,38.0187832,-121.2690249
3702,East Hammer Lane,95212,38.0186165,-121.2697740
1916,East March Lane,95210,38.0027610,-121.2849183
1540,East March Lane,95210,38.0022032,-121.2886798
8626,North Lower Sacramento Road,95210,38.0288200,-121.3217710
2398,Pheasant Run Circle,95207,37.9943440,-121.3402870
7720,Lorraine Avenue,95210,38.0205976,-121.2827670
1304,East Hammer Lane,95210,38.0200425,-121.2962150
4895,State Route 99,95215,37.9054940,-121.2221435
4895,"South State Highway 99, East Frontage Road",95215,37.9054951,-121.2220207
7488,Shoreline Dr,95219,38.0184357,-121.3582700
6404,Pacific Avenue,95207,38.0089603,-121.3185838
7840,West Lane,95210,38.0197694,-121.2937141
2025,West March Lane,95207,37.9874863,-121.3310960
141,North El Dorado Street,95202,37.9537022,-121.2910052
1627,S Center St,95206,37.9351787,-121.2862530
501,Lincoln Center,95207,38.0117925,-121.3239217
3131,Auto Center Circle,95212,38.0196938,-121.2760947
110,North San Joaquin Street,95202,37.9542724,-121.2885330
4707,Quail Lakes Dr,95207,37.9868174,-121.3407780
3648,Mary Avenue,95206,37.9112424,-121.2791665
7475,Murray Drive,95210,38.0173867,-121.3024171
201,Lincoln Center,95207,38.0111384,-121.3226571
121,Lincoln Center,95207,38.0112263,-121.3221637
6283,Pacific Avenue,95207,38.0070433,-121.3199721
1021,North Sierra Nevada Street,95205,37.9657271,-121.2757815
2991,Auto Center Circle,95212,38.0178571,-121.2782911
1311,Acacia Street,95205,37.9654356,-121.2765142
1020,Airport Way,95205,37.9656951,-121.2767797
1321,Acacia Street,95205,37.9654608,-121.2763426
1325,Acacia Street,95205,37.9654998,-121.2761338
1335,Acacia Street,95205,37.9655291,-121.2759603
1337,Acacia Street,95205,37.9655473,-121.2757834
1023,North Sierra Nevada Street,95205,37.9658528,-121.2758329
1025,North Sierra Nevada Street,95205,37.9659644,-121.2759533
1035,North Sierra Nevada Street,95205,37.9661039,-121.2759603
1344,East Roosevelt Street,95205,37.9669186,-121.2761656
1069,North Wilson Way,95205,37.9668564,-121.2747664
925,North Wilson Way,95205,37.9652439,-121.2743100
1447,East Poplar Street,95205,37.9647743,-121.2742813
901,North Wilson Way,95205,37.9648047,-121.2741727
903,North Wilson Way,95205,37.9648489,-121.2741844
911,North Wilson Way,95205,37.9649179,-121.2742008
915,North Wilson Way,95205,37.9649556,-121.2742101
919,North Wilson Way,95205,37.9650219,-121.2742276
1437,East Poplar Street,95205,37.9647421,-121.2744658
1439,East Poplar Street,95205,37.9647632,-121.2744484
1441,East Poplar Street,95205,37.9647681,-121.2744166
1443,East Poplar Street,95205,37.9647542,-121.2743865
1431,East Poplar Street,95205,37.9647221,-121.2745988
1421,East Poplar Street,95205,37.9647243,-121.2747681
1415,East Poplar Street,95205,37.9647207,-121.2749407
900,North Sierra Nevada Street,95205,37.9646563,-121.2751409
920,North Sierra Nevada Street,95205,37.9648227,-121.2751779
924,North Sierra Nevada Street,95205,37.9649405,-121.2751856
1420,E Acacia Street,95205,37.9654324,-121.2749807
930,North Sierra Nevada Street,95205,37.9650947,-121.2752426
928,North Sierra Nevada Street,95205,37.9651117,-121.2749114
942,North Sierra Nevada Street,95205,37.9652380,-121.2753165
940,North Sierra Nevada Street,95205,37.9651846,-121.2753011
944,North Sierra Nevada Street,95205,37.9653231,-121.2753366
946,North Sierra Nevada Street,95205,37.9653656,-121.2753443
845,North Wilson Way,95205,37.9639275,-121.2741386
801,North Wilson Way,95205,37.9639299,-121.2740797
4612,North Ijams Road,95210,37.9973139,-121.2834115
4610,North Ijams Road,95210,37.9972579,-121.2833953
4424,North Ijams Road,95210,37.9951775,-121.2824995
322,South Center Street,95203,37.9493913,-121.2893142
3143,West Benjamin Holt Drive,95219,38.0054637,-121.3541267
2415,West Hammer Lane,95209,38.0215641,-121.3445586
572,Carolyn Weston Blvd,95206,37.9127901,-121.2906538
4807,South Airport Way,95206,37.8981871,-121.2548416
1928,Boeing Way,95206,37.9077499,-121.2459710
2001,Arch Airport Road,95206,37.9063446,-121.2431944
2610,Lycoming Street,95206,37.9080208,-121.2356369
2542,Boeing Way,95206,37.9097617,-121.2374237
2414,Boeing Way,95206,37.9096737,-121.2384237
2901,Arch Airport Road,95206,37.9058959,-121.2295680
4819,Fite Court,95215,37.9060635,-121.2100856
6301,West Eight Mile Road,95219,38.0649976,-121.3920964
5758,Lorraine Avenue,95210,38.0119857,-121.2825064
4520,West Eight Mile Road,95209,38.0540689,-121.3660320
4718,New Castle Road,95215,37.9090933,-121.1993370
4718,New Castle Road,95215,37.9116105,-121.1990934
303,North El Dorado Street,95202,37.9558898,-121.2910542
1,Fyffe Avenue,95203,37.9505659,-121.3400246
6445,Pacific Avenue,95207,38.0085185,-121.3211991
6445,Pacific Avenue,95207,38.0085085,-121.3200816
2808,Country Club Boulevard,95204,37.9623172,-121.3375412
2808,Country Club Boulevard,95204,37.9634388,-121.3376977
110,North El Dorado Street,95202,37.9541131,-121.2895003
235,North San Joaquin Street,95202,37.9557253,-121.2883054
237,Channel Street,95202,37.9552533,-121.2881787
240,East Miner Avenue,95202,37.9558564,-121.2883424
248,North Hunter Street,95202,37.9557310,-121.2889404
240,North Hunter Street,95202,37.9555578,-121.2888769
316,North El Dorado Street,95202,37.9560655,-121.2903412
222,North El Dorado Street,95202,37.9552438,-121.2898053
301,East Miner Avenue,95202,37.9565757,-121.2877730
135,East Miner Avenue,95202,37.9561555,-121.2897033
221,East Miner Avenue,95202,37.9563830,-121.2887516
222,North Sutter Street,95202,37.9558084,-121.2861415
230,North California Street,95202,37.9561618,-121.2848684
"235, 237",East Miner Avenue,95202,37.9563594,-121.2884753
242,North Sutter Street,95202,37.9561188,-121.2863248
245,East Miner Avenue,95202,37.9563892,-121.2883044
"533, 535",East Miner Avenue,95202,37.9569602,-121.2845423
3601,North Pacific Avenue,95211,37.9808084,-121.3086171
3400,Wagner Heights Road,95209,38.0307238,-121.3595047
10742,"Trinity Parkway, Eight Mile Rd & I-5",95219,38.0517756,-121.3727788
3293,East Morada Lane,95212,38.0382975,-121.2710344
1801,Cemetery Lane,95204,37.9711841,-121.2885700
525,West Acacia Street,95203,37.9615447,-121.3017327
5615,North Pacific Avenue,95207,38.0011399,-121.3178987
4571,North Pershing Avenue,95207-6705,37.9880912,-121.3219317
4940,Pacific Avenue,95207,37.9946845,-121.3134162
2670,West March Lane,95207,37.9842193,-121.3419561
5202,Pacific Avenue,95207,37.9969522,-121.3145439
10150,Ornella Lane,95212,38.0466186,-121.2719003
10354,Trinity Parkway,95219,38.0505892,-121.3739072
10370,Trinity Parkway,95219,38.0507186,-121.3745984
948,West Charter Way,95206,37.9353814,-121.3008605
10520,Trinity Parkway,95219,38.0526639,-121.3724490
10561,Cornerstone Circle,95209,38.0510412,-121.3390238
10562,Cornerstone Circle,95209,38.0509309,-121.3395460
10567,Cornerstone Circle,95209,38.0508295,-121.3390503
10573,Cornerstone Circle,95209,38.0506263,-121.3390249
10579,Cornerstone Circle,95209,38.0504121,-121.3390467
10585,Cornerstone Circle,95209,38.0502185,-121.3392954
10588,Cornerstone Circle,95209,38.0506846,-121.3395341
10591,Cornerstone Circle,95209,38.0502338,-121.3395778
10596,Cornerstone Circle,95209,38.0506698,-121.3397952
10597,Cornerstone Circle,95209,38.0502504,-121.3398627
10602,Cornerstone Circle,95209,38.0506798,-121.3400246
10603,Cornerstone Circle,95209,38.0502802,-121.3401013
10607,Cornerstone Circle,95209,38.0502580,-121.3403497
10610,Cornerstone Circle,95209,38.0506715,-121.3402814
10613,Cornerstone Circle,95209,38.0502262,-121.3406121
10615,Waterbury Drive,95209,38.0516547,-121.3384684
10619,Cornerstone Circle,95209,38.0504318,-121.3408847
10621,Waterbury Drive,95209,38.0518378,-121.3384180
10625,Cornerstone Circle,95209,38.0506503,-121.3408646
10625,Waterbury Drive,95209,38.0520145,-121.3383184
10631,Cornerstone Circle,95209,38.0508695,-121.3407718
10633,Waterbury Drive,95209,38.0521997,-121.3382256
10637,Cornerstone Circle,95209,38.0510451,-121.3407024
10641,Wellington Circle,95209,38.0522924,-121.3384906
10643,Cornerstone Circle,95209,38.0511979,-121.3404949
10644,Cornerstone Circle,95209,38.0509727,-121.3400132
10649,Cornerstone Circle,95209,38.0513290,-121.3403179
10649,Wellington Circle,95209,38.0523267,-121.3387621
10655,Cornerstone Circle,95209,38.0514483,-121.3401064
10656,Cornerstone Circle,95209,38.0511707,-121.3397868
10657,Wellington Circle,95209,38.0525828,-121.3389482
10663,Cornerstone Circle,95209,38.0516033,-121.3399607
10664,Cornerstone Circle,95209,38.0512612,-121.3395717
10665,Wellington Circle,95209,38.0528042,-121.3389002
10669,Cornerstone Circle,95209,38.0517172,-121.3397628
10672,Wellington Circle,95209,38.0526580,-121.3383328
10673,Wellington Circle,95209,38.0529652,-121.3387178
10679,Cornerstone Circle,95209,38.0515565,-121.3391452
10680,Wellington Circle,95209,38.0528319,-121.3382347
10681,Wellington Circle,95209,38.0531468,-121.3386516
10680,Wellington Circle,95209,38.0530067,-121.3380595
10687,Cornerstone Circle,95209,38.0514495,-121.3388504
10689,Wellington Circle,95209,38.0532932,-121.3384634
10695,Cornerstone Circle,95209,38.0513925,-121.3385477
10697,Wellington Circle,95209,38.0534360,-121.3382974
10698,Wellington Circle,95209,38.0531747,-121.3379157
10703,Waterbury Drive,95209,38.0525536,-121.3380008
10704,Wellington Circle,95209,38.0533090,-121.3377353
10705,Wellington Circle,95209,38.0536108,-121.3381658
10711,Waterbury Drive,95209,38.0527388,-121.3378422
10711,Wellington Circle,95209,38.0537254,-121.3379743
10719,Waterbury Drive,95209,38.0529343,-121.3376970
10727,Waterbury Drive,95209,38.0530985,-121.3374850
10743,Waterbury Drive,95209,38.0534007,-121.3371214
10751,Waterbury Drive,95209,38.0535505,-121.3368968
10730,Siskiyou Lane,95209,38.0540798,-121.3533937
10864,Trinity Parkway,95219,38.0562888,-121.3735286
10970,Trinity Parkway,95219,38.0574701,-121.3749347
110,East Weber Avenue,95202,37.9533843,-121.2896581
1120,West Charter Way,95206,37.9344543,-121.3039172
113,East March Lane,95207-5854,37.9979008,-121.3044553
114,South Hunter Street,95202,37.9517790,-121.2874915
1234,West Charter Way,95206,37.9343069,-121.3045062
1245,West Charter Way,95206,37.9354099,-121.3047768
333,South Hunter Street,95203,37.9491433,-121.2879816
1318,Ryde Avenue,95203,37.9591681,-121.3335645
1528,El Pinal Drive,95206,37.9816764,-121.2780718
1535,East Hammer Lane,95210,38.0213539,-121.2932169
1565,South El Dorado Street,95206,37.9364743,-121.2858011
1614,Douglas Road,95207-4115,38.0042161,-121.3305800
1616,East Hammer Lane,95210-4119,38.0188006,-121.2925038
1627,Tillie Lewis Drive,95206,37.9335736,-121.3197751
1707,West Fremont Street,95203,37.9551765,-121.3157683
1746,Grand Canal Boulevard,95207,37.9861919,-121.3272777
1776,West March Lane,95207,37.9871407,-121.3268678
1810,Grand Canal Boulevard,95207,37.9860117,-121.3278664
1811,Grand Canal Boulevard,95207,37.9867656,-121.3281080
1818,Grand Canal Boulevard,95207,37.9859287,-121.3283002
1903,Wellington Court,95209,38.0539742,-121.3372643
1909,Cornerstone Court,95209,38.0521325,-121.3391783
1912,Wellington Court,95209,38.0537477,-121.3371978
1915,Wellington Court,95209,38.0540672,-121.3376168
1919,Grand Canal Boulevard,95207,37.9861980,-121.3295346
1923,Cornerstone Court,95209,38.0520145,-121.3394230
1924,Wellington Court,95209,38.0535500,-121.3373723
1927,Wellington Court,95209,38.0539171,-121.3378459
1937,Cornerstone Court,95209,38.0518468,-121.3396054
1963,South Argonaut Street,95206,37.9294965,-121.3035802
20,North Sutter Street,95202,37.9536742,-121.2856907
212,East Lafayette Street,95203,37.9498113,-121.2871167
2303,Whistler Way,95209,38.0491530,-121.3433673
242,East Main Street,95202,37.9528516,-121.2875206
2324,Navy Drive,95206,37.9365053,-121.3223748
2388,North California Street,95204,37.9753182,-121.2904804
2407,West March Lane,95207,37.9855657,-121.3374158
2439,West March Lane,95207,37.9854687,-121.3378115
2495,Station Drive,95215,37.9362616,-121.2267015
2592,West March Lane,95207,37.9845813,-121.3393598
2610,West March Lane,95207,37.9843976,-121.3402053
2628,West March Lane,95207,37.9842611,-121.3410798
2654,West March Lane,95207,37.9840972,-121.3413915
2716,West March Lane,95219,37.9839297,-121.3449035
2717,West March Lane,95219,37.9855876,-121.3451180
2737,Pacific Avenue,95204,37.9751020,-121.3035381
2809,West March Lane,95219,37.9847610,-121.3463017
2828,West March Lane,95219,37.9837495,-121.3462825
2866,West March Lane,95219,37.9838071,-121.3466484
2888,West March Lane,95219,37.9839757,-121.3472264
2908,West Benjamin Holt Drive,95207,38.0046091,-121.3501246
3110,Wagner Heights Road,95209,38.0313441,-121.3562774
3120,Monte Diablo Avenue,95203,37.9545249,-121.3436848
3131,Auto Center Circle,95212,38.0196622,-121.2761493
3202,West Hammer Lane,95209,38.0209748,-121.3565584
3214,McVie Drive,95212,38.0263906,-121.2730863
3219,McVie Drive,95212,38.0268232,-121.2730062
3222,McVie Drive,95212,38.0264073,-121.2728779
3225,McVie Drive,95212,38.0268344,-121.2728000
3230,McVie Drive,95212,38.0264225,-121.2726749
3237,McVie Drive,95212,38.0268166,-121.2725918
3238,McVie Drive,95212,38.0264299,-121.2724623
3240,West March Lane,95219,37.9827429,-121.3530673
3252,West March Lane,95219,37.9833225,-121.3541910
3304,McVie Drive,95212,38.0264000,-121.2722536
3309,McVie Drive,95212,38.0268066,-121.2721367
3316,McVie Drive,95212,38.0263979,-121.2720355
3327,McVie Drive,95212,38.0268298,-121.2719153
333,East Washington Street,95202,37.9517496,-121.2863605
3334,McVie Drive,95212,38.0264138,-121.2718220
3334,Wagner Heights Road,95209,38.0313622,-121.3576880
3335,McVie Drive,95212,38.0268096,-121.2717052
3347,McVie Drive,95212,38.0268020,-121.2714838
3350,McVie Drive,95212,38.0263628,-121.2715902
3355,East Hammer Lane,95212,38.0217343,-121.2723231
3412,McVie Drive,95212,38.0263331,-121.2713907
3413,McVie Drive,95212,38.0267520,-121.2712805
3420,McVie Drive,95212,38.0262896,-121.2711502
3423,McVie Drive,95212,38.0267113,-121.2710781
3428,McVie Drive,95212,38.0262546,-121.2709358
3461,Brookside Road,95219,37.9853513,-121.3554639
3700,Pacific Avenue,95204,37.9820446,-121.3078221
3714,East Hammer Lane,95212,38.0208385,-121.2682277
3728,East Hammer Lane,95212,38.0199645,-121.2681568
3810,East Hammer Lane,95212,38.0206475,-121.2672991
3818,East Hammer Lane,95212,38.0200780,-121.2660549
400,West Rose Street,95203,37.9630680,-121.2997584
3550,Wagner Heights Road,95209,38.0318247,-121.3609561
445,West Weber Avenue,95203,37.9527928,-121.2973425
4540,North El Dorado Street,95207,37.9933792,-121.3040326
4612,McGaw Street,95207,37.9865312,-121.3285736
4627,Da Vinci Drive,95207,37.9840278,-121.3403126
4774,West Lane,95210,37.9973804,-121.2879772
4881,South State Route 99 Fr E Road,95215-8254,37.9056396,-121.2213549
4932,Pacific Avenue,95207,37.9940512,-121.3131875
4989,South State Route 99 Fr E Road,95215,37.9036191,-121.2209902
5010,Feather River Drive,95219,37.9869798,-121.3465063
5045,South State Route 99 Fr E Road,95215,37.9021656,-121.2210521
529,North Orange Street,95203,37.9551307,-121.3098444
5313,Pasadena Drive,95219,38.0470865,-121.3799006
532,West Hammer Lane,95210,38.0205919,-121.3190295
5321,Pasadena Drive,95219,38.0469354,-121.3801037
5329,Pasadena Drive,95219,38.0467813,-121.3803062
5345,Pasadena Drive,95219,38.0465521,-121.3807757
535,South San Joaquin Street,95203,37.9475173,-121.2859712
5353,Pasadena Drive,95219,38.0464660,-121.3810375
536,South Aurora Street,95203,37.9490129,-121.2771584
5361,Pasadena Drive,95219,38.0464003,-121.3812634
5369,Pasadena Drive,95219,38.0462671,-121.3814850
5375,Pasadena Drive,95219,38.0462631,-121.3817763
5633,Pacific Avenue,95207,38.0010009,-121.3183327
6,South El Dorado Street,95202,37.9525211,-121.2892425
622,East Hazelton Avenue,95203,37.9477410,-121.2807153
6717,Plymouth Road,95207,38.0061968,-121.3509685
725,West Hammer Lane,95210,38.0212674,-121.3215075
749,North Sierra Nevada Street,95205,37.9632691,-121.2751477
7567,Pacific Avenue,95207,38.0181283,-121.3238762
7810,Thornton Road,95207,38.0201734,-121.3240367
8010,Holman Road,95212,38.0237122,-121.2708794
8020,Lower Sacramento Road,95210-3724,38.0231296,-121.3224374
8023,West Lane,95210,38.0224655,-121.2952538
864,West Charter Way,95206,37.9358273,-121.2995490
920,East Hammer Lane,95210,38.0206582,-121.2994864
924,East Church Street,95203,37.9494186,-121.2772698
2727,West March Lane,95219,37.9847167,-121.3455875
4455,Pacific Avenue,95207,37.9883264,-121.3121400
10850,Trinity Parkway,95219,38.0555182,-121.3732126
10342,Trinity Parkway,95219,38.0501610,-121.3716069
2203,Grand Canal Boulevard,95207,37.9854081,-121.3336850
4515,Pacific Avenue,95207-7694,37.9892875,-121.3124880
2505,West March Lane,95207,37.9853092,-121.3384478
911,West March Lane,95207,37.9916364,-121.3170793
10916,Trinity Parkway,95219,38.0571124,-121.3737816
10904,Trinity Parkway,95219,38.0567277,-121.3736589
10602,Trinity Parkway,95219,38.0530572,-121.3749064
627,North Wilson Way,95205,37.9621786,-121.2735832
10424,Trinity Parkway,95219-7225,38.0519306,-121.3720483
4707,Pacific Avenue,95207-6301,37.9917997,-121.3152570
5302,Pacific Avenue,95207,37.9981342,-121.3149975
1009,North Wilson Way,95205,37.9659420,-121.2746565
10623,Trinity Parkway,95219,38.0533983,-121.3757480
2701,West March Lane,95219,37.9848732,-121.3449471
6200,Pacific Avenue,95207,38.0066418,-121.3184837
1310,West Charter Way,95206,37.9343887,-121.3050989
1040,West Charter Way,95206,37.9350249,-121.3025566
1625,French Camp Turnpike,95206,37.9335973,-121.2954220
2820,Shimizu Drive,95203,37.9596417,-121.3374551
1189,East March Lane,95210,38.0041333,-121.2924476
4966,West Lane,95210,37.9994407,-121.2891495
5010,West Lane,95210,37.9996636,-121.2893180
1502,East March Lane,95210-5663,38.0019564,-121.2897211
2107,West Lane,95205,37.9761455,-121.2812478
3645,East Hammer Lane,95212,38.0227202,-121.2694812
3223,East Hammer Lane,95212,38.0235354,-121.2734841
1050,North Wilson Way,95205,37.9670937,-121.2741433
3077,East Hammer Lane,95212,38.0222786,-121.2753929
1919,Grand Canal Boulevard,95207,37.9863859,-121.3291291
1919,Grand Canal Boulevard,95207,37.9864367,-121.3295708
1330,West Robinhood Drive,95207,37.9984457,-121.3231918
1743,Grand Canal Boulevard,95207,37.9869192,-121.3275713
339,South Wilson Way,95205,37.9519966,-121.2709325
1615,South Stanislaus Street,95206,37.9372514,-121.2777040
1658,South Airport Way,95206,37.9367372,-121.2668933
308,East Hazelton Avenue,95203,37.9469553,-121.2851410
1658,South Airport Way,95206,37.9361097,-121.2677716
2654,West March Lane,95207,37.9836090,-121.3416514
2303,Whistler Way,95209,38.0489861,-121.3435462
5025,South Highway 99,95215,37.9032355,-121.2211185
1629,South Stanislaus Street,95206,37.9368429,-121.2775983
1636,South Stanislaus Street,95206,37.9370733,-121.2771035
1608,South Stanislaus Street,95206,37.9374796,-121.2772045
7760,Lorraine Avenue,95210,38.0201365,-121.2815811
1702,American Street,95206,37.9361391,-121.2781855
2303,Whistler Way,95209,38.0488306,-121.3436539
3806,Duck Creek Drive,95215,37.9342450,-121.2275631
2303,Whistler Way,95209,38.0492763,-121.3429795
2303,Whistler Way,95209,38.0495688,-121.3428590
4772,Frontier Way,95215,37.9075908,-121.2124643
2303,Whistler Way,95209,38.0492938,-121.3432167
527,North Pilgrim Street,95205,37.9606370,-121.2773758
1810,East Hazelton Avenue,95205,37.9503668,-121.2654321
2303,Whistler Way,95209,38.0485463,-121.3432981
2303,Whistler Way,95209,38.0486904,-121.3435130
1639,South Stanislaus Street,95206,37.9366965,-121.2775512
1643,American Street,95206,37.9366428,-121.2788845
1617,South Stanislaus Street,95206,37.9371086,-121.2776561
1635,American Street,95206,37.9367866,-121.2788985
1607,South Stanislaus Street,95206,37.9373658,-121.2777296
1629,American Street,95206,37.9368929,-121.2789663
1658,South Airport Way,95206,37.9362663,-121.2658671
4848,Frontier Way,95215,37.9066986,-121.2124620
2303,Whistler Way,95209,38.0487369,-121.3432825
525,West Acacia Street,95203,37.9617499,-121.3011062
925,North Wilson Way,95205,37.9652309,-121.2745469
2701,West March Lane,95219,37.9850914,-121.3451230
2303,Whistler Way,95209,38.0488764,-121.3427698
7720,Lorraine Avenue,95210,38.0204341,-121.2826690
188,Frank West Circle,95206,37.8966852,-121.2782773
2911,East Fremont Street,95205,37.9678040,-121.2529165
7746,Lorraine Avenue,95210,38.0204434,-121.2821824
1655,American Street,95206,37.9364959,-121.2788376
6940,North El Dorado Street,95207,38.0164743,-121.3097871
5151,Pacific Avenue,95207,37.9953881,-121.3192905
30,S El Dorado Street,95202,37.9520299,-121.2893803
25,South Hunter Street,95202,37.9523072,-121.2885409
15,North El Dorado Street,95202,37.9530770,-121.2905676
22,E Weber Ave,95202,37.9533744,-121.2906610
430,East Market Street,95202,37.9521513,-121.2848880
31,East Channel Street,95202,37.9551734,-121.2911531
6137,North El Dorado Street,95207,38.0092723,-121.3092287
10355,Trinity Parkway,95219,38.0497228,-121.3762841
5779,Pacific Avenue,95207,38.0024925,-121.3179664
1627,Navy Drive,95206,37.9380293,-121.3109606
3235,River Drive,95204,37.9724042,-121.3502678
6649,Embarcadero Drive,95219,37.9996319,-121.3697897
4980,Buckley Cove Way,95219,37.9736386,-121.3733077
4950,Buckley Cove Way,95219,37.9771492,-121.3775097
3550,Wagner Heights Road,95209,38.0324620,-121.3616208
3939,Producers Drive,95206,37.9085988,-121.2714022
400,East Main Street,95202,37.9529425,-121.2851144
5882,Tevlin Lane,95210,38.0111772,-121.2885627
5866,Tevlin Lane,95210,38.0110502,-121.2885122
5850,Tevlin Lane,95210,38.0109289,-121.2884844
5834,Tevlin Lane,95210,38.0107855,-121.2884058
5818,Tevlin Lane,95210,38.0106651,-121.2883612
5802,Tevlin Lane,95210,38.0105416,-121.2882661
5784,Tevlin Lane,95210,38.0104237,-121.2882568
5776,Tevlin Lane,95210,38.0102670,-121.2882056
5768,Tevlin Lane,95210,38.0101415,-121.2881564
5760,Tevlin Lane,95210,38.0100094,-121.2881038
5750,Tevlin Lane,95210,38.0098959,-121.2880434
5742,Tevlin Lane,95210,38.0097444,-121.2880002
5734,Tevlin Lane,95210,38.0096179,-121.2879391
5718,Tevlin Lane,95210,38.0094714,-121.2878819
2209,Atchenson Street,95210,38.0092485,-121.2877809
2021,Atchenson Street,95210,38.0093225,-121.2876775
2027,Atchenson Street,95210,38.0094428,-121.2875150
2033,Atchenson Street,95210,38.0095175,-121.2873954
2039,Atchenson Street,95210,38.0096491,-121.2872234
2045,Atchenson Street,95210,38.0097350,-121.2870971
2051,Atchenson Street,95210,38.0098567,-121.2869307
5701,Tevlin Lane,95210,38.0089637,-121.2881628
5709,Tevlin Lane,95210,38.0090655,-121.2882173
5717,Tevlin Lane,95210,38.0092371,-121.2883135
5725,Tevlin Lane,95210,38.0093696,-121.2883801
5733,Tevlin Lane,95210,38.0095072,-121.2884251
5741,Tevlin Lane,95210,38.0096257,-121.2884688
5749,Tevlin Lane,95210,38.0097734,-121.2885208
5759,Tevlin Lane,95210,38.0098727,-121.2885771
5767,Tevlin Lane,95210,38.0100221,-121.2886405
5775,Tevlin Lane,95210,38.0101425,-121.2886985
5783,Tevlin Lane,95210,38.0102821,-121.2887425
5803,Tevlin Lane,95210,38.0104164,-121.2888024
5819,Tevlin Lane,95210,38.0105546,-121.2888497
5835,Tevlin Lane,95210,38.0106586,-121.2888895
5851,Tevlin Lane,95210,38.0108022,-121.2889626
5867,Tevlin Lane,95210,38.0109317,-121.2890005
5883,Tevlin Lane,95210,38.0110737,-121.2890974
5899,Tevlin Lane,95210,38.0112485,-121.2891464
2007,Livingston Lane,95210,38.0114344,-121.2890332
2013,Livingston Lane,95210,38.0115229,-121.2888940
2019,Livingston Lane,95210,38.0115603,-121.2886492
2025,Livingston Lane,95210,38.0115746,-121.2884710
2031,Livingston Lane,95210,38.0116104,-121.2883242
2037,Livingston Lane,95210,38.0116598,-121.2881420
2043,Livingston Lane,95210,38.0117073,-121.2879734
2049,Livingston Lane,95210,38.0117371,-121.2878288
2055,Livingston Lane,95210,38.0117975,-121.2876486
2061,Livingston Lane,95210,38.0118360,-121.2875079
5832,Gentry Avenue,95210,38.0115914,-121.2869111
5826,Gentry Avenue,95210,38.0114724,-121.2868643
5915,Buckskin Place,95210,38.0117693,-121.2896498
5933,Buckskin Place,95210,38.0119051,-121.2897721
5912,Buckskin Place,95210,38.0117940,-121.2893215
5930,Buckskin Place,95210,38.0118993,-121.2891426
5948,Buckskin Place,95210,38.0121109,-121.2891023
5966,Buckskin Place,95210,38.0122453,-121.2892009
5971,Buckskin Place,95210,38.0122650,-121.2898105
5959,Buckskin Place,95210,38.0121158,-121.2897985
3473,W Hammer Ln,95219,38.0222468,-121.3606951
1055,CA-99,95212,38.0449834,-121.2610844
3100,Monte Diablo Avenue,95203,37.9538114,-121.3426736
3923,South B Street,95206,37.9145424,-121.2522577
4532,Newcastle Road,95215,37.9141077,-121.1975613
3537,Metro Drive,95215,37.9082925,-121.2191868
5996,Mustang Place,95210,38.0122431,-121.2904506
5978,Mustang Place,95210,38.0121037,-121.2904673
5960,Mustang Place,95210,38.0119636,-121.2904778
5942,Mustang Place,95210,38.0118318,-121.2904278
5926,Mustang Place,95210,38.0116243,-121.2903885
5910,Mustang Place,95210,38.0115171,-121.2904947
5907,Mustang Place,95210,38.0114652,-121.2907746
5923,Mustang Place,95210,38.0115105,-121.2909384
5937,Mustang Place,95210,38.0117431,-121.2910333
5955,Mustang Place,95210,38.0118805,-121.2909968
5977,Mustang Place,95210,38.0120242,-121.2910167
5999,Mustang Place,95210,38.0121594,-121.2909977
5994,Arabian Place,95210,38.0120414,-121.2913833
5976,Arabian Place,95210,38.0119154,-121.2913445
5958,Arabian Place,95210,38.0117738,-121.2913030
5940,Arabian Place,95210,38.0116170,-121.2912765
5922,Arabian Place,95210,38.0114290,-121.2912248
5904,Arabian Place,95210,38.0113015,-121.2913437
5909,Arabian Place,95210,38.0112272,-121.2916029
5925,Arabian Place,95210,38.0112996,-121.2918084
5943,Arabian Place,95210,38.0114624,-121.2918992
5961,Arabian Place,95210,38.0116584,-121.2918464
5987,Arabian Place,95210,38.0117863,-121.2918667
5704,Saint Croix Court,95210,38.0075457,-121.2905421
5710,Saint Croix Court,95210,38.0076713,-121.2906852
5722,Saint Croix Court,95210,38.0078285,-121.2907438
5734,Saint Croix Court,95210,38.0080187,-121.2907470
5740,Saint Croix Court,95210,38.0081680,-121.2907309
5746,Saint Croix Court,95210,38.0083331,-121.2907082
5750,Saint Croix Court,95210,38.0084956,-121.2906625
5754,Saint Croix Court,95210,38.0086712,-121.2907129
5760,Saint Croix Court,95210,38.0088208,-121.2908843
5759,Saint Croix Court,95210,38.0087861,-121.2911596
5753,Saint Croix Court,95210,38.0086642,-121.2913485
5747,Saint Croix Court,95210,38.0084619,-121.2913659
5741,Saint Croix Court,95210,38.0083113,-121.2912964
5735,Saint Croix Court,95210,38.0081205,-121.2912878
5729,Saint Croix Court,95210,38.0079804,-121.2912816
5723,Saint Croix Court,95210,38.0077977,-121.2912952
5717,Saint Croix Court,95210,38.0076329,-121.2913375
5711,Saint Croix Court,95210,38.0074846,-121.2911922
5849,Saint Thomas Court,95210,38.0100275,-121.2922981
5845,Saint Thomas Court,95210,38.0098862,-121.2922301
5839,Saint Thomas Court,95210,38.0097507,-121.2920867
5833,Saint Thomas Court,95210,38.0096368,-121.2919462
5827,Saint Thomas Court,95210,38.0095249,-121.2918113
5821,Saint Thomas Court,95210,38.0093880,-121.2917016
5815,Saint Thomas Court,95210,38.0092451,-121.2916498
5809,Saint Thomas Court,95210,38.0090985,-121.2915123
5803,Saint Thomas Court,95210,38.0090737,-121.2912882
5804,Saint Thomas Court,95210,38.0091719,-121.2910592
5810,Saint Thomas Court,95210,38.0093574,-121.2909969
5816,Saint Thomas Court,95210,38.0095462,-121.2911047
5822,Saint Thomas Court,95210,38.0096692,-121.2912010
5828,Saint Thomas Court,95210,38.0097813,-121.2913418
5834,Saint Thomas Court,95210,38.0099157,-121.2914841
5840,Saint Thomas Court,95210,38.0100582,-121.2916241
5846,Saint Thomas Court,95210,38.0101688,-121.2917542
5307,Saint Kitts Court,95210,38.0042351,-121.2901246
5323,Saint Kitts Court,95210,38.0045223,-121.2902411
5331,Saint Kitts Court,95210,38.0046734,-121.2902927
5339,Saint Kitts Court,95210,38.0047989,-121.2903975
5347,Saint Kitts Court,95210,38.0050146,-121.2904583
5351,Saint Kitts Court,95210,38.0051703,-121.2903323
5354,Saint Kitts Court,95210,38.0052302,-121.2900872
5346,Saint Kitts Court,95210,38.0051149,-121.2898619
5338,Saint Kitts Court,95210,38.0049333,-121.2898162
5330,Saint Kitts Court,95210,38.0047826,-121.2898106
5322,Saint Kitts Court,95210,38.0046275,-121.2897574
5305,Saint Barts Court,95210,38.0044531,-121.2892662
5313,Saint Barts Court,95210,38.0045801,-121.2893078
5321,Saint Barts Court,95210,38.0047183,-121.2893907
5329,Saint Barts Court,95210,38.0048648,-121.2894224
5337,Saint Barts Court,95210,38.0050105,-121.2895022
5345,Saint Barts Court,95210,38.0051558,-121.2895417
5353,Saint Barts Court,95210,38.0052968,-121.2896449
5361,Saint Barts Court,95210,38.0054885,-121.2897402
5365,Saint Barts Court,95210,38.0056663,-121.2896152
5368,Saint Barts Court,95210,38.0057266,-121.2893739
5360,Saint Barts Court,95210,38.0056528,-121.2891458
5352,Saint Barts Court,95210,38.0054512,-121.2890617
5344,Saint Barts Court,95210,38.0052979,-121.2890667
5336,Saint Barts Court,95210,38.0051379,-121.2890125
5328,Saint Barts Court,95210,38.0049920,-121.2889430
5320,Saint Barts Court,95210,38.0048539,-121.2888955
5312,Saint Barts Court,95210,38.0047072,-121.2888148
5304,Saint Barts Court,95210,38.0045827,-121.2887825
6632,Pacific Avenue,95207,38.0109580,-121.3193867
6618,Pacific Avenue,95207,38.0105870,-121.3192974
10724,Siskiyou Lane,95209,38.0538209,-121.3533704
10716,Siskiyou Lane,95209,38.0537208,-121.3533557
10664,Siskiyou Lane,95209,38.0536186,-121.3533341
10658,Siskiyou Lane,95209,38.0535148,-121.3533029
10652,Siskiyou Lane,95209,38.0534120,-121.3532954
10648,Siskiyou Lane,95209,38.0533077,-121.3532767
10640,Sellers Circle,95209,38.0532090,-121.3532615
10628,Siskiyou Lane,95209,38.0528050,-121.3532237
10622,Siskiyou Lane,95209,38.0527025,-121.3532180
10616,Siskiyou Lane,95209,38.0526000,-121.3532081
10610,Siskiyou Lane,95209,38.0524984,-121.3531946
10604,Siskiyou Lane,95209,38.0523977,-121.3531830
3129,Lafever Way,95209,38.0538794,-121.3529528
3121,Lafever Way,95209,38.0537686,-121.3529454
3113,Lafever Way,95209,38.0536429,-121.3529315
3105,Lafever Way,95209,38.0535347,-121.3529118
10725,Sellers Circle,95209,38.0532588,-121.3528079
10735,Sellers Circle,95209,38.0531574,-121.3528036
10747,Sellers Circle,95209,38.0530512,-121.3528036
10633,Sellers Circle,95209,38.0529479,-121.3527817
10641,Sellers Circle,95209,38.0528462,-121.3527681
10797,Sellers Circle,95209,38.0532823,-121.3524519
10693,Sellers Circle,95209,38.0531771,-121.3524274
10677,Sellers Circle,95209,38.0530739,-121.3524343
10661,Sellers Circle,95209,38.0529729,-121.3524265
10648,Sellers Circle,95209,38.0528673,-121.3524082
10717,Sellers Circle,95209,38.0532989,-121.3521707
10701,Sellers Circle,95209,38.0531963,-121.3521668
10685,Sellers Circle,95209,38.0530910,-121.3521606
10669,Sellers Circle,95209,38.0529869,-121.3521473
10653,Sellers Circle,95209,38.0528874,-121.3521329
10714,Sellers Circle,95209,38.0534707,-121.3517988
10708,Sellers Circle,95209,38.0533704,-121.3517828
10702,Sellers Circle,95209,38.0532679,-121.3517666
10698,Sellers Circle,95209,38.0531661,-121.3517631
10692,Sellers Circle,95209,38.0530661,-121.3517552
10686,Sellers Circle,95209,38.0529650,-121.3517422
10680,Sellers Circle,95209,38.0528628,-121.3517279
10674,Sellers Circle,95209,38.0527614,-121.3517221
3045,Dusty Court,95209,38.0526600,-121.3517195
3033,Dusty Court,95209,38.0525612,-121.3517044
3021,Dusty Court,95209,38.0524575,-121.3516847
3009,Dusty Court,95209,38.0523575,-121.3516830
3044,Dusty Court,95209,38.0526300,-121.3521334
3032,Dusty Court,95209,38.0525309,-121.3521222
3020,Dusty Court,95209,38.0524305,-121.3520969
3008,Dusty Court,95209,38.0523295,-121.3520955
3254,Ivy Rose Way,95209,38.0546518,-121.3553707
1503,Beck Circle,95209,38.0483311,-121.3335979
1509,Beck Circle,95209,38.0483565,-121.3334232
1515,Beck Circle,95209,38.0483536,-121.3332740
1521,Beck Circle,95209,38.0483461,-121.3331266
1527,Beck Circle,95209,38.0483788,-121.3329272
1533,Beck Circle,95209,38.0484868,-121.3328155
1539,Beck Circle,95209,38.0486573,-121.3328150
1545,Beck Circle,95209,38.0487754,-121.3328211
1561,Beck Circle,95209,38.0488907,-121.3328188
1502,Beck Circle,95209,38.0486631,-121.3335243
1502,Beck Circle,95209,38.0486650,-121.3337173
1654,Beck Circle,95209,38.0487562,-121.3341414
1641,Beck Circle,95209,38.0489953,-121.3346533
139,South Center Street,95202,37.9506031,-121.2911579
1509,East Hammer Lane,95210,38.0212389,-121.2937864
6003,Arabian Place,95210,38.0122453,-121.2919996
6027,Arabian Place,95210,38.0123763,-121.2920472
6049,Arabian Place,95210,38.0125240,-121.2921146
6117,Arabian Place,95210,38.0126621,-121.2920998
6131,Arabian Place,95210,38.0128062,-121.2921239
6163,Arabian Place,95210,38.0129449,-121.2921645
6205,Arabian Place,95210,38.0130935,-121.2921508
6219,Arabian Place,95210,38.0132378,-121.2921869
6247,Arabian Place,95210,38.0134427,-121.2921484
6273,Arabian Place,95210,38.0135246,-121.2919366
6258,Arabian Place,95210,38.0134925,-121.2916366
6224,Arabian Place,95210,38.0133123,-121.2915605
6212,Arabian Place,95210,38.0131468,-121.2915783
6166,Arabian Place,95210,38.0130068,-121.2916304
6134,Arabian Place,95210,38.0128642,-121.2916366
6108,Arabian Place,95210,38.0127360,-121.2915944
6050,Arabian Place,95210,38.0125875,-121.2915972
6022,Arabian Place,95210,38.0124475,-121.2915692
6171,Mustang Place,95210,38.0135579,-121.2912286
6172,Mustang Place,95210,38.0135434,-121.2905267
6007,Buckskin Place,95210,38.0126626,-121.2897784
6019,Buckskin Place,95210,38.0127954,-121.2897670
6031,Buckskin Place,95210,38.0129359,-121.2897181
6043,Buckskin Place,95210,38.0130680,-121.2896969
6111,Buckskin Place,95210,38.0132151,-121.2897440
6157,Buckskin Place,95210,38.0135316,-121.2895363
6129,Buckskin Place,95210,38.0133726,-121.2897018
6158,Buckskin Place,95210,38.0135372,-121.2892508
6134,Buckskin Place,95210,38.0134188,-121.2890920
6110,Buckskin Place,95210,38.0132173,-121.2890728
6046,Buckskin Place,95210,38.0130463,-121.2891822
6034,Buckskin Place,95210,38.0129121,-121.2891828
6020,Buckskin Place,95210,38.0127567,-121.2891992
6006,Buckskin Place,95210,38.0126264,-121.2892162
6016,Gentry Court,95210,38.0128581,-121.2873325
6030,Gentry Court,95210,38.0130139,-121.2873177
6044,Gentry Court,95210,38.0131739,-121.2872158
6058,Gentry Court,95210,38.0133350,-121.2872059
6074,Gentry Court,95210,38.0135236,-121.2873082
6071,Gentry Court,95210,38.0135357,-121.2875835
6059,Gentry Court,95210,38.0134457,-121.2878309
6045,Gentry Court,95210,38.0132384,-121.2878621
6037,Gentry Court,95210,38.0130942,-121.2878324
6029,Gentry Court,95210,38.0129419,-121.2878764
6015,Gentry Court,95210,38.0127887,-121.2878300
4952,Kimball Hill Circle,95210,38.0037950,-121.2813325
4948,Kimball Hill Circle,95210,38.0036193,-121.2813251
4944,Kimball Hill Circle,95210,38.0034665,-121.2813577
4940,Kimball Hill Circle,95210,38.0033298,-121.2814117
4960,Kimball Hill Circle,95210,38.0039007,-121.2817589
4964,Kimball Hill Circle,95210,38.0038458,-121.2819678
4968,Kimball Hill Circle,95210,38.0037759,-121.2821292
4972,Kimball Hill Circle,95210,38.0037492,-121.2822951
4976,Kimball Hill Circle,95210,38.0036989,-121.2824735
4980,Kimball Hill Circle,95210,38.0036762,-121.2826356
4984,Kimball Hill Circle,95210,38.0036473,-121.2828148
4988,Kimball Hill Circle,95210,38.0036248,-121.2829839
4992,Kimball Hill Circle,95210,38.0036001,-121.2831646
4996,Kimball Hill Circle,95210,38.0035641,-121.2833222
5002,Kimball Hill Circle,95210,38.0035233,-121.2834993
5008,Kimball Hill Circle,95210,38.0034909,-121.2836621
5014,Kimball Hill Circle,95210,38.0034706,-121.2838413
5022,Kimball Hill Circle,95210,38.0034088,-121.2840485
5026,Kimball Hill Circle,95210,38.0032959,-121.2842405
5032,Kimball Hill Circle,95210,38.0031115,-121.2842242
5038,Kimball Hill Circle,95210,38.0029610,-121.2841308
5044,Kimball Hill Circle,95210,38.0028132,-121.2840407
5013,Kimball Hill Circle,95210,38.0030660,-121.2836682
5009,Kimball Hill Circle,95210,38.0031064,-121.2834854
5003,Kimball Hill Circle,95210,38.0031324,-121.2833126
5049,Kimball Hill Circle,95210,38.0028633,-121.2835108
5055,Kimball Hill Circle,95210,38.0027298,-121.2834465
5059,Kimball Hill Circle,95210,38.0025655,-121.2834179
5056,Kimball Hill Circle,95210,38.0025121,-121.2839543
5050,Kimball Hill Circle,95210,38.0026762,-121.2839833
5062,Kimball Hill Circle,95210,38.0023812,-121.2838890
5070,Kimball Hill Circle,95210,38.0022149,-121.2838348
5067,Kimball Hill Circle,95210,38.0024349,-121.2833287
5073,Kimball Hill Circle,95210,38.0022742,-121.2832806
5078,Kimball Hill Circle,95210,38.0020845,-121.2838056
5084,Kimball Hill Circle,95210,38.0019263,-121.2837440
4963,Kimball Hill Circle,95210,38.0034120,-121.2818552
4969,Kimball Hill Circle,95210,38.0033765,-121.2820429
4975,Kimball Hill Circle,95210,38.0033452,-121.2822312
4979,Kimball Hill Circle,95210,38.0032980,-121.2824265
4983,Kimball Hill Circle,95210,38.0032598,-121.2826071
4987,Kimball Hill Circle,95210,38.0032417,-121.2827726
4991,Kimball Hill Circle,95210,38.0032062,-121.2829524
4995,Kimball Hill Circle,95210,38.0031872,-121.2831461
4868,North Ijams Road,95210,37.9996139,-121.2842799
4810,North Ijams Road,95210,37.9992332,-121.2841786
4812,North Ijams Road,95210,37.9993229,-121.2839391
4790,North Ijams Road,95210,37.9990528,-121.2840921
4752,North Ijams Road,95210,37.9988852,-121.2840145
4686,North Ijams Road,95210,37.9981587,-121.2836556
4660,North Ijams Road,95210,37.9979082,-121.2835799
4614,North Ijams Road,95210,37.9974738,-121.2834229
4572,Ijams Road,95210,37.9970399,-121.2832676
4544,Ijams Road,95210,37.9967945,-121.2831720
4528,Ijams Road,95210,37.9965819,-121.2830343
1909,Ijams Court,95210,37.9963396,-121.2829306
1917,Ijams Court,95210,37.9963974,-121.2827765
1933,Ijams Court,95210,37.9964815,-121.2824452
1925,Ijams Court,95210,37.9964479,-121.2826090
1902,Ijams Court,95210,37.9959455,-121.2829276
1910,Ijams Court,95210,37.9959901,-121.2827594
1918,Ijams Court,95210,37.9959966,-121.2825805
1934,Ijams Court,95210,37.9960576,-121.2822427
1926,Ijams Court,95210,37.9960446,-121.2824103
1942,Ijams Court,95210,37.9960927,-121.2820746
1950,Ijams Court,95210,37.9962928,-121.2818575
1949,Ijams Court,95210,37.9964719,-121.2819221
1941,Ijams Court,95210,37.9965671,-121.2822109
2013,Le Mans Place,95210,38.0264865,-121.2896300
2019,Le Mans Place,95210,38.0265005,-121.2894470
2007,Le Mans Place,95210,38.0263010,-121.2898295
2008,Le Mans Place,95210,38.0261300,-121.2898005
2014,Le Mans Place,95210,38.0260030,-121.2896145
2020,Le Mans Place,95210,38.0260125,-121.2893650
2026,Le Mans Place,95210,38.0260660,-121.2891910
2025,Le Mans Place,95210,38.0264895,-121.2892275
2031,Le Mans Place,95210,38.0265324,-121.2890528
8231,Chambord Place,95210,38.0253930,-121.2876220
8223,Chambord Place,95210,38.0252210,-121.2875555
8239,Chambord Place,95210,38.0255820,-121.2875025
8247,Chambord Place,95210,38.0256570,-121.2873005
8240,Chambord Place,95210,38.0255710,-121.2870475
8232,Chambord Place,95210,38.0254045,-121.2869545
8224,Chambord Place,95210,38.0252248,-121.2870167
8208,North Lower Sacramento Road;Lower Sacramento Road,95210,38.0244430,-121.3223920
2994,West Eight Mile Road,95209,38.0572365,-121.3514012
601,West March Lane,95207,37.9915235,-121.3133149
1665,pacific Avenue,95204,37.9686273,-121.2990274
3651,Arch Road,95215,37.9058155,-121.2194438
607,East Magnolia Street,95202,37.9660194,-121.2859845
1330,West Robinhood Drive,95207,37.9983052,-121.3233894
1021,North Sierra Nevada Street,95205,37.9657188,-121.2758328
1337,Acacia Street,95205,37.9655794,-121.2758127
1335,Acacia Street,95205,37.9655640,-121.2759669
1023,North Sierra Nevada Street,95205,37.9658498,-121.2758884
1025,North Sierra Nevada Street,95205,37.9659501,-121.2760062
1049,North Sierra Nevada Street,95205,37.9664998,-121.2761026
1344,East Roosevelt Street,95205,37.9668678,-121.2761541
1338,East Roosevelt Street,95205,37.9668507,-121.2763036
1330,East Roosevelt Street,95205,37.9668076,-121.2764924
1047,North Sierra Nevada Street,95205,37.9663680,-121.2761185
1045,North Sierra Nevada Street,95205,37.9662213,-121.2760517
1035,North Sierra Nevada Street,95205,37.9660936,-121.2760275
1325,Acacia Street,95205,37.9655453,-121.2761472
323,North Wilson Way,95205,37.9593557,-121.2728521
1908,Cornerstone Court,95209,38.0520006,-121.3388731
1909,Cornerstone Court,95209,38.0522098,-121.3389961
1920,Cornerstone Court,95209,38.0517884,-121.3387258
1920,Cornerstone Court,95209,38.0517327,-121.3389138
1909,Cornerstone Court,95209,38.0522179,-121.3393818
1321,Acacia Street,95205,37.9655052,-121.2763514
1311,Acacia Street,95205,37.9654793,-121.2765255
1301,Acacia Street,95205,37.9654591,-121.2766770
1020,Airport Way,95205,37.9656882,-121.2767052
1028,Airport Way,95205,37.9658276,-121.2767638
1036,Airport Way,95205,37.9662397,-121.2768720
1038,Airport Way,95205,37.9663682,-121.2768876
1040,Airport Way,95205,37.9665067,-121.2769130
1044,Airport Way,95205,37.9666314,-121.2769651
1048,Airport Way,95205,37.9667773,-121.2769990
1034,Airport Way,95205,37.9661102,-121.2767847
1030,Airport Way,95205,37.9659750,-121.2767998
1420,E Acacia Street,95205,37.9653728,-121.2749505
930,North Sierra Nevada Street,95205,37.9651041,-121.2751794
928,North Sierra Nevada Street,95205,37.9651475,-121.2749286
924,North Sierra Nevada Street,95205,37.9649529,-121.2751213
920,North Sierra Nevada Street,95205,37.9648312,-121.2751344
900,North Sierra Nevada Street,95205,37.9646671,-121.2750883
1415,East Poplar Street,95205,37.9647603,-121.2749461
1421,East Poplar Street,95205,37.9647669,-121.2747844
1431,East Poplar Street,95205,37.9647669,-121.2746101
819,North Wilson Way,95205,37.9640754,-121.2742448
845,North Wilson Way,95205,37.9639217,-121.2741842
1429,Flora Street,95205,37.9638456,-121.2743186
1421,Flora Street,95205,37.9638083,-121.2744965
1409,Flora Street,95205,37.9637607,-121.2746588
1405,E Flora Street,95205,37.9637166,-121.2748826
5340,Pasadena Drive,95219,38.0461897,-121.3803627
4956,Kimball Hill Circle,95210,38.0039961,-121.2813954
1901,Ijams Court,95210,37.9963098,-121.2831102
3601,Pacific Avenue,95211,37.9804605,-121.3128811
230,North Sutter Street,95202,37.9559318,-121.2862477
