House number,Street name,Postal code,Latitude,Longitude
605,East El Camino Real,94087,37.3618682,-122.0243760
332,West El Camino Real,94087,37.3676849,-122.0364597
1032,East El Camino Real,94087,37.3513957,-122.0056924
450,Persian Drive,94089,37.4051796,-122.0145573
324,West El Camino Real,94087,37.3678173,-122.0361235
300,West El Camino Real,94087,37.3683134,-122.0354375
576,East El Camino Real,94086,37.3617299,-122.0269700
575,East Remington Drive,94087,37.3604155,-122.0270548
111,East El Camino Real,94087,37.3675387,-122.0302442
125,East El Camino Real,94087,37.3668914,-122.0287991
127,West Washington Avenue,94086,37.3762279,-122.0308450
111,West Evelyn Avenue,94086,37.3776790,-122.0294190
1234,West El Camino Real,94087,37.3736745,-122.0573726
1201,Wildwood Avenue,94089-2701,37.3921779,-121.9943300
150,East Fremont Avenue,94087,37.3512263,-122.0307410
160,East El Camino Real,94087,37.3645625,-122.0301354
170,East El Camino Real,94087,37.3645491,-122.0296694
103,East Fremont Avenue,94087,37.3529959,-122.0317657
592,East El Camino Real,94087,37.3611919,-122.0260520
464,North Mathilda Avenue,94085,37.3883329,-122.0302567
484,North Mathilda Avenue,94085,37.3884550,-122.0294043
460,North Mathilda Avenue,94085,37.3883501,-122.0303547
773,North Mathilda Avenue,94085-3511,37.3954379,-122.0293185
464,East El Camino Real,94087,37.3634300,-122.0282885
605,East El Camino Real,94087,37.3619393,-122.0244405
560,East El Camino Real,94087,37.3626448,-122.0271210
460,East El Camino Real,94087,37.3634307,-122.0283850
119,East El Camino Real,94087,37.3673385,-122.0292593
121,East El Camino Real,94087,37.3671573,-122.0290170
1234,South Wolfe Road,94086,37.3536940,-122.0135579
190,South Murphy Avenue,94086,37.3761450,-122.0302186
100,South Murphy Avenue,94086,37.3773669,-122.0297470
1177,West El Camino Real,94087,37.3742826,-122.0549470
298,West McKinley Avenue,94086,37.3743394,-122.0325370
757,East El Camino Real,94087,37.3580494,-122.0194110
777,East El Camino Real,94087-2919,37.3576445,-122.0186413
384,East Caribbean Drive,94089,37.4173551,-122.0218885
116,East El Camino Real,94085,37.3666479,-122.0320214
685,East Remington Drive,94087,37.3601534,-122.0261750
1209,Wildwood Avenue,95089,37.3919264,-121.9941968
848,East Evelyn Avenue,94086,37.3702894,-122.0143808
1109,Tasman Drive,94089,37.4041357,-121.9953357
790,East El Camino Real,94087,37.3553958,-122.0181702
201,South Mary Avenue,94086,37.3786145,-122.0465423
251,South Mary Avenue,94086,37.3784643,-122.0466760
1291,West El Camino Real,94087-1028,37.3756832,-122.0598918
1283,West El Camino Real,94087,37.3755713,-122.0594290
548,Lawrence Expressway,94085,37.3848954,-121.9951011
1285,South Mary Avenue,94087,37.3528031,-122.0512432
1291,South Mary Avenue,94087,37.3526406,-122.0513383
1281,South Mary Avenue,94087,37.3529680,-122.0513138
1277,South Mary Avenue,94087,37.3529990,-122.0513136
1265,South Mary Avenue,94087,37.3534132,-122.0512270
576,South Murphy Avenue,94086,37.3689814,-122.0322067
118,East El Camino Real,94087,37.3669649,-122.0317640
1111,West El Camino Real,94087,37.3739091,-122.0535492
1111,West El Camino Real,94087,37.3738842,-122.0532790
1101,West El Camino Real,94087,37.3731537,-122.0523686
1193,West El Camino Real,94087,37.3745036,-122.0557763
1111,West El Camino Real,94087,37.3739263,-122.0536230
1171,West El Camino Real,94087,37.3742169,-122.0546930
1185,West El Camino Real,94087,37.3743412,-122.0552063
1173,West El Camino Real,94087,37.3742442,-122.0547987
161,South Sunnyvale Avenue,94086,37.3765443,-122.0297550
110,East El Camino Real,94087,37.3668062,-122.0319857
1695,Hollenbeck Road,94087,37.3378694,-122.0417966
1695,Hollenbeck Road,94087,37.3378688,-122.0419356
810,West El Camino Real,94087,37.3691635,-122.0416640
812,West El Camino Real,94087,37.3691780,-122.0417480
802,West El Camino Real,94087,37.3691252,-122.0414629
818,West El Camino Real,94087,37.3691381,-122.0421200
1039,Sunnyvale-Saratoga Road,94087-2503,37.3586138,-122.0329432
1189,West El Camino Real,94087,37.3744416,-122.0555659
671,South Bernardo Avenue,94087,37.3719491,-122.0575061
647,South Bernardo Avenue,94087,37.3721612,-122.0580910
649,South Bernardo Avenue,94087,37.3721359,-122.0580169
653,South Bernardo Avenue,94087,37.3721163,-122.0579480
659,South Bernardo Avenue,94087,37.3720797,-122.0578455
667,South Bernardo Avenue,94087,37.3719941,-122.0576350
675,South Bernardo Avenue,94087,37.3719294,-122.0574460
645,South Bernardo Avenue,94087,37.3722076,-122.0582020
643,South Bernardo Avenue,94087,37.3723112,-122.0580940
665,South Bernardo Avenue,94087,37.3720221,-122.0577023
663,South Bernardo Avenue,94087,37.3720488,-122.0577800
669,South Bernardo Avenue,94087,37.3719702,-122.0575750
1320b,South Mary Avenue,94087,37.3513124,-122.0494730
1314,South Mary Avenue,94087,37.3514975,-122.0494105
1358,South Mary Avenue,94087,37.3499142,-122.0495900
1324,South Mary Avenue,94087,37.3512477,-122.0494746
1330,South Mary Avenue,94087,37.3510327,-122.0494746
1348,South Mary Avenue,94087,37.3506338,-122.0494761
1356,South Mary Avenue,94087,37.3501764,-122.0495621
1320a,South Mary Avenue,94087,37.3514106,-122.0494715
1334,South Mary Avenue,94087,37.3509607,-122.0494777
1360,South Mary Avenue,94087,37.3498545,-122.0495900
1340,South Mary Avenue,94087,37.3508028,-122.0494746
1366,South Mary Avenue,94087,37.3497750,-122.0495606
1342,South Mary Avenue,94087,37.3507071,-122.0494740
1326,South Mary Avenue,94087,37.3511781,-122.0494761
1350,South Mary Avenue,94087,37.3505692,-122.0494746
1336,South Mary Avenue,94087,37.3508923,-122.0494769
708,North Fair Oaks Avenue,94085,37.3915044,-122.0139470
1190,Kern Avenue,94085,37.3820795,-121.9966097
704,South Wolfe Road,94086,37.3664760,-122.0130723
903,East Duane Avenue,94085,37.3889495,-122.0046060
889,East El Camino Real,94086,37.3539894,-122.0148499
717,East El Camino Real,94087,37.3591180,-122.0210260
415,North Mary Avenue,94085,37.3900168,-122.0422286
316,West El Camino Real,94087,37.3679656,-122.0358812
415,North Mary Avenue,94085,37.3897835,-122.0423729
415,North Mary Avenue,94085,37.3898973,-122.0423036
140,East El Camino Real,94061,37.3648170,-122.0311600
438,East El Camino Real,94087,37.3641497,-122.0287340
1313,South Wolfe Road,94087,37.3510108,-122.0146320
1241,South Mary Avenue,94087,37.3540099,-122.0512727
144,West El Camino Real,94040,37.3679018,-122.0332409
1219,South Mary Avenue,94087,37.3542714,-122.0512245
241,South Mathilda Avenue,94086,37.3761024,-122.0349420
245,South Mathilda Avenue,94086,37.3759927,-122.0349836
249,South Mathilda Avenue,94086,37.3758282,-122.0350464
243,South Mathilda Avenue,94086,37.3760476,-122.0349648
247,South Mathilda Avenue,94086,37.3759329,-122.0349962
251,South Mathilda Avenue,94086,37.3757584,-122.0350652
808,West El Camino Real,94087,37.3691475,-122.0415730
828,West El Camino Real,94087,37.3695072,-122.0425718
840,West El Camino Real,94087,37.3697343,-122.0424939
832,West El Camino Real,94087,37.3695549,-122.0425558
824,West El Camino Real,94087,37.3693293,-122.0423390
820,West El Camino Real,94087,37.3693031,-122.0422151
840,West El Camino Real,94087,37.3696899,-122.0425110
834,West El Camino Real,94087,37.3696025,-122.0425448
836,West El Camino Real,94087,37.3696470,-122.0425298
826,West El Camino Real,94087,37.3694413,-122.0425848
125,South Murphy Avenue,94086,37.3772252,-122.0301847
121,South Murphy Avenue,94086,37.3772831,-122.0301928
139,South Murphy Avenue,94086,37.3770119,-122.0302629
133,South Murphy Avenue,94086,37.3771426,-122.0302079
141,South Murphy Avenue,94086,37.3769431,-122.0302664
127,South Murphy Avenue,94086,37.3772022,-122.0302359
111,Charles Street,94086,37.3794887,-122.0348107
140,Charles Street,94086,37.3787831,-122.0346537
184,Charles Street,94086,37.3774286,-122.0351166
185,Charles Street,94086,37.3774811,-122.0354820
215,Charles Street,94086,37.3769285,-122.0356821
297,Charles Street,94086,37.3754539,-122.0361705
315,Charles Street,94086,37.3750640,-122.0363032
403,Charles Street,94086,37.3739608,-122.0366569
106,South Pastoria Avenue,94086,37.3802915,-122.0372696
107,Waverly Street,94086,37.3801828,-122.0367208
109,Florence Street,94086,37.3798056,-122.0357989
112,Florence Street,94086,37.3796553,-122.0354091
112,Waverly Street,94086,37.3799548,-122.0363681
115,South Pastoria Avenue,94086,37.3804095,-122.0376470
119,South Pastoria Avenue,94086,37.3801997,-122.0377080
151,South Pastoria Avenue,94086,37.3791170,-122.0380543
163,South Pastoria Avenue,94086,37.3788134,-122.0381586
169,South Pastoria Avenue,94086,37.3784493,-122.0383281
186,South Pastoria Avenue,94086,37.3779312,-122.0380725
191,South Pastoria Avenue,94086,37.3781085,-122.0384146
312,South Pastoria Avenue,94086,37.3755613,-122.0388363
396,South Pastoria Avenue,94086,37.3742283,-122.0392417
803,Sutter Avenue,94086,37.3735611,-122.0399340
185,Florence Street,94086,37.3777009,-122.0364856
185,Waverly Street,94086,37.3779109,-122.0374713
190,Waverly Street,94086,37.3776164,-122.0372065
194,Florence Street,94086,37.3776350,-122.0361322
208,Florence Street,94086,37.3770781,-122.0363071
208,Waverly Street,94086,37.3771168,-122.0373469
225,Florence Street,94086,37.3770318,-122.0366991
280,Waverly Street,94086,37.3759040,-122.0377548
291,Florence Street,94086,37.3757847,-122.0371121
296,Florence Street,94086,37.3756042,-122.0367504
546,West McKinley Avenue,94086,37.3752235,-122.0364829
548,West McKinley Avenue,94086,37.3752449,-122.0365772
319,Waverly Street,94086,37.3754247,-122.0383180
322,Waverly Street,94086,37.3753474,-122.0379776
325,Florence Street,94086,37.3752570,-122.0373861
332,Florence Street,94086,37.3751498,-122.0369853
394,Florence Street,94086,37.3743672,-122.0372398
414,Waverly Street,94086,37.3740746,-122.0383699
415,Waverly Street,94086,37.3741519,-122.0387006
425,Florence Street,94086,37.3739584,-122.0377947
401,Pala Avenue,94086,37.3739840,-122.0434701
401,Peralta Avenue,94086,37.3738406,-122.0426614
401,Purissima Avenue,94086,37.3736330,-122.0418153
402,Pala Avenue,94086,37.3738900,-122.0429724
402,Peralta Avenue,94086,37.3737022,-122.0421326
408,Rincon Avenue,94086,37.3733363,-122.0404902
409,Rincon Avenue,94086,37.3734154,-122.0408821
418,Purissima Avenue,94086,37.3733512,-122.0414047
485,Pala Avenue,94086,37.3725206,-122.0439491
485,Peralta Avenue,94086,37.3723525,-122.0431093
486,Pala Avenue,94086,37.3724267,-122.0434514
496,Purissima Avenue,94086,37.3717246,-122.0419024
496,Rincon Avenue,94086,37.3714922,-122.0410999
497,Purissima Avenue,94086,37.3718532,-122.0423752
497,Rincon Avenue,94086,37.3716109,-122.0414794
498,Peralta Avenue,94086,37.3719026,-122.0427173
897,Sutter Avenue,94086,37.3743446,-122.0434711
618,Hollenbeck Avenue,94087,37.3693019,-122.0407574
616,Hollenbeck Avenue,94087,37.3693253,-122.0407450
620,Hollenbeck Avenue,94087,37.3692599,-122.0407791
622,Hollenbeck Avenue,94087,37.3691835,-122.0408102
1671,Hollenbeck Avenue,94087,37.3386499,-122.0424213
1661,Hollenbeck Avenue,94087,37.3389051,-122.0424370
103,Brahms Way,94087,37.3635151,-122.0317653
105,Brahms Way,94087,37.3635772,-122.0317662
107,Brahms Way,94087,37.3636507,-122.0317673
109,Brahms Way,94087,37.3637094,-122.0317683
113,Brahms Way,94087,37.3634877,-122.0316483
115,Brahms Way,94087,37.3635772,-122.0316520
117,Brahms Way,94087,37.3636473,-122.0316530
119,Brahms Way,94087,37.3637065,-122.0316499
122,Brahms Way,94087,37.3632745,-122.0308859
123,Brahms Way,94087,37.3633976,-122.0311260
124,Brahms Way,94087,37.3630927,-122.0307876
125,Brahms Way,94087,37.3634911,-122.0310720
126,Brahms Way,94087,37.3630335,-122.0307947
127,Brahms Way,94087,37.3636040,-122.0310656
128,Brahms Way,94087,37.3629283,-122.0307911
129,Brahms Way,94087,37.3636943,-122.0310645
141,Brahms Way,94087,37.3634771,-122.0306661
142,Brahms Way,94087,37.3632713,-122.0306600
143,Brahms Way,94087,37.3635900,-122.0306682
144,Brahms Way,94087,37.3630930,-122.0307107
145,Brahms Way,94087,37.3636241,-122.0306690
146,Brahms Way,94087,37.3630276,-122.0307108
147,Brahms Way,94087,37.3637006,-122.0306763
148,Brahms Way,94087,37.3629259,-122.0307233
151,Brahms Way,94087,37.3634273,-122.0300967
152,Brahms Way,94087,37.3633678,-122.0301859
153,Brahms Way,94087,37.3634731,-122.0300960
154,Brahms Way,94087,37.3630855,-122.0301264
155,Brahms Way,94087,37.3635469,-122.0300815
156,Brahms Way,94087,37.3630282,-122.0301384
157,Brahms Way,94087,37.3635900,-122.0300811
159,Brahms Way,94087,37.3636980,-122.0300813
162,Brahms Way,94087,37.3629733,-122.0301443
165,Brahms Way,94087,37.3633091,-122.0299002
167,Brahms Way,94087,37.3634294,-122.0299617
168,Brahms Way,94087,37.3630509,-122.0299899
169,Brahms Way,94087,37.3635336,-122.0299508
171,Brahms Way,94087,37.3635878,-122.0299536
173,Brahms Way,94087,37.3636246,-122.0299606
174,Brahms Way,94087,37.3630519,-122.0298773
175,Brahms Way,94087,37.3637022,-122.0299666
180,Brahms Way,94087,37.3630555,-122.0296351
401,Cumulus Avenue,94087,37.3617468,-122.0296925
410,Cirrus Avenue,94087,37.3624019,-122.0294387
411,Cirrus Avenue,94087,37.3625350,-122.0293993
411,Cumulus Avenue,94087,37.3617339,-122.0296436
412,Cirrus Avenue,94087,37.3623739,-122.0293113
413,Cirrus Avenue,94087,37.3625189,-122.0293069
420,Cirrus Avenue,94087,37.3623517,-122.0292097
421,Cirrus Avenue,94087,37.3624862,-122.0292080
422,Cirrus Avenue,94087,37.3623294,-122.0290936
423,Cirrus Avenue,94087,37.3624696,-122.0291216
430,Cirrus Avenue,94087,37.3623005,-122.0289887
432,Cirrus Avenue,94087,37.3622721,-122.0288780
440,Cirrus Avenue,94087,37.3622493,-122.0287686
442,Cirrus Avenue,94087,37.3622270,-122.0286405
450,Cirrus Avenue,94087,37.3622034,-122.0285261
452,Goya Drive,94087,37.3619527,-122.0284332
817,Cezanne Drive,94087,37.3636393,-122.0293618
819,Cezanne Drive,94087,37.3635813,-122.0293560
821,Azure Street,94087,37.3631884,-122.0316822
821,Cezanne Drive,94087,37.3635250,-122.0293543
823,Azure Street,94087,37.3631813,-122.0317732
823,Cezanne Drive,94087,37.3634629,-122.0293769
825,Azure Street,94087,37.3631770,-122.0318778
825,Cezanne Drive,94087,37.3634131,-122.0293718
827,Azure Street,94087,37.3631783,-122.0319771
827,Cezanne Drive,94087,37.3633049,-122.0294399
831,Azure Street,94087,37.3631230,-122.0316793
832,Azure Street,94087,37.3631566,-122.0314121
833,Azure Street,94087,37.3631273,-122.0317728
834,Azure Street,94087,37.3629377,-122.0313997
835,Azure Street,94087,37.3631282,-122.0318765
836,Azure Street,94087,37.3628334,-122.0315712
837,Azure Street,94087,37.3631178,-122.0319795
838,Azure Street,94087,37.3627037,-122.0315708
110,South Sunnyvale Avenue,94086,37.3768502,-122.0286630
415,North Mary Avenue,94085,37.3901654,-122.0420840
299,West Washington Avenue,94086,37.3765793,-122.0323915
151,West Washington Avenue,94087,37.3762829,-122.0311140
187,West Washington Avenue,94086,37.3762979,-122.0311910
190,South Frances Street,94086,37.3765433,-122.0312250
189,West Washington Avenue,94086,37.3763156,-122.0312834
259,West Washington Avenue,94086,37.3765275,-122.0321398
797,East El Camino Real,94087,37.3564920,-122.0173143
447,De Guigne Drive,94085,37.3835631,-122.0077597
747,South Wolfe Road,94086,37.3654660,-122.0150629
1296,Kifer Road,94086,37.3728755,-121.9893830
546,Lawrence Expressway,94085,37.3845272,-121.9952122
500,Lawrence Expressway,94085,37.3817317,-121.9953438
500,Lawrence Expressway,94086,37.3816776,-121.9953422
500,Lawrence Expressway,94085,37.3818867,-121.9953483
500,Lawrence Expressway,95133,37.3815035,-121.9953371
544,Lawrence Expressway,94085,37.3844085,-121.9952095
500,Lawrence Expressway,94085,37.3815798,-121.9953393
546,Lawrence Expressway,94085,37.3844782,-121.9952129
540,Lawrence Expressway,94085,37.3840774,-121.9953369
1233B,South Mary Avenue,94087,37.3542346,-122.0515182
1233A,South Mary Avenue,94087,37.3542449,-122.0515164
1237,South Mary Avenue,94087,37.3541437,-122.0515172
1229,South Mary Avenue,94087,37.3543628,-122.0515156
1231,South Mary Avenue,94087,37.3543420,-122.0515141
1235,South Mary Avenue,94087,37.3541897,-122.0515172
1251,South Mary Avenue,94087,37.3538572,-122.0512980
708,North Fair Oaks Avenue,94085,37.3914499,-122.0136950
615,Caliente Drive,94085,37.3914051,-122.0135700
617,Caliente Drive,94085,37.3913981,-122.0135260
617,Caliente Drive,94085,37.3913869,-122.0134750
621,Caliente Drive,94085,37.3913560,-122.0133430
615,Caliente Drive,94085,37.3913742,-122.0134240
623,Caliente Drive,94085,37.3913448,-122.0132760
1112,South Bernardo Avenue,94087,37.3591858,-122.0589893
472,North Mathilda Avenue,94085,37.3882342,-122.0298460
478,North Mathilda Avenue,94085,37.3882014,-122.0296790
149,East Washington Avenue,94086,37.3759936,-122.0298697
476,North Mathilda Avenue,94085,37.3882145,-122.0297630
132,East El Camino Real,94087,37.3647988,-122.0314867
320,West El Camino Real,94087,37.3679028,-122.0359821
322,West El Camino Real,94087,37.3678636,-122.0360450
330,West El Camino Real,94087,37.3677428,-122.0362392
1092,East El Camino Real,94087,37.3515939,-122.0013440
1082,East El Camino Real,94087,37.3516651,-122.0025360
308,West El Camino Real,94087,37.3681139,-122.0356428
312,West El Camino Real,94087,37.3680473,-122.0357499
302,West El Camino Real,94087,37.3681920,-122.0355173
310,West El Camino Real,94087,37.3680802,-122.0356970
304,West El Camino Real,94087,37.3681534,-122.0355794
135,North Wolfe Road,94086,37.3761692,-122.0145350
135,North Wolfe Road,94086,37.3761181,-122.0140900
1026,East El Camino Real,94087,37.3514105,-122.0061800
786,Lucerne Drive,94085,37.3791323,-122.0133299
1014-1016,East El Camino Real,94087,37.3515337,-122.0064980
848,East Evelyn Avenue,94086,37.3701270,-122.0142370
864,Old San Francisco Road,94086,37.3662715,-122.0165700
135,North Wolfe Road,94086,37.3758839,-122.0147571
1018,East El Camino Real,94087,37.3514644,-122.0065040
1034,East El Camino Real,94087,37.3513964,-122.0053930
942,East El Camino Real,94087,37.3519868,-122.0118960
938,East El Camino Real,94087,37.3519859,-122.0119790
755,South Wolfe Road,94086,37.3654713,-122.0148030
1030,East El Camino Real,94087,37.3514092,-122.0059970
728,West Fremont Avenue,94087,37.3509492,-122.0430200
486,Mercury Drive,94085,37.3830499,-121.9909944
482,Mercury Drive,94085,37.3828636,-121.9909944
122,East El Camino Real,94087,37.3668260,-122.0317230
108,East El Camino Real,94087,37.3669070,-122.0319851
126,East El Camino Real,94087,37.3666218,-122.0314780
1208,East Arques Avenue,94085,37.3800039,-121.9948990
1208,East Arques Avenue,94085,37.3796988,-121.9950410
1322,South Mary Avenue,94087,37.3513631,-122.0494716
140,South Murphy Avenue,94086,37.3769470,-122.0298300
909,West El Camino Real,94087,37.3713608,-122.0441887
311,West Maude Avenue,94085,37.3891430,-122.0284320
399,East Maude Avenue,94085,37.3873090,-122.0228250
1236,South Wolfe Road,94086,37.3536933,-122.0134815
1253,West El Camino Real,94086,37.3751757,-122.0579381
1253,West El Camino Real,94087,37.3749913,-122.0580354
251,South Mary Avenue,94086,37.3783821,-122.0467120
201,South Mary Avenue,94086,37.3785992,-122.0467117
605,East El Camino Real,94087,37.3619090,-122.0244060
193,South Murphy Avenue,94086,37.3763498,-122.0304921
539,South Murphy Avenue,94086,37.3699340,-122.0325847
562,South Murphy Avenue,94086,37.3694719,-122.0322151
1255,South Mary Avenue,94087,37.3537847,-122.0512965
903,West El Camino Real,94087,37.3713057,-122.0439670
1328,South Mary Avenue,94087,37.3510997,-122.0494778
901,West El Camino Real,94087,37.3712890,-122.0438970
939,West El Camino Real,94087,37.3717231,-122.0459520
928,West El Camino Real,94087,37.3709266,-122.0460599
992,West El Camino Real,94087,37.3710815,-122.0480567
612,South Mary Avenue,94087,37.3710495,-122.0482293
922,West El Camino Real,94087,37.3708898,-122.0459231
958,West El Camino Real,94087,37.3712174,-122.0474432
946,West El Camino Real,94087,37.3710989,-122.0467818
604,South Mary Avenue,94087,37.3710658,-122.0479564
934,West El Camino Real,94087,37.3710688,-122.0465966
950,West El Camino Real,94087,37.3711292,-122.0470183
964,West El Camino Real,94087,37.3712333,-122.0475370
994,West El Camino Real,94087,37.3711008,-122.0481624
952,West El Camino Real,94087,37.3711698,-122.0471970
988,West El Camino Real,94087,37.3710257,-122.0477818
932,West El Camino Real,94087,37.3710069,-122.0463945
962,West El Camino Real,94087,37.3712245,-122.0474785
956,West El Camino Real,94087,37.3712054,-122.0473479
1063,East El Camino Real,94087,37.3525892,-122.0039795
1049,East El Camino Real,94087,37.3526921,-122.0053050
411,East El Camino Real,94087,37.3656463,-122.0279977
313,North Fair Oaks Avenue,94085,37.3822127,-122.0187180
927,East Arques Avenue,94085,37.3811642,-122.0077682
605,West Tasman Drive,94089,37.4036660,-122.0096030
111,West Evelyn Avenue Suite,94086,37.3793495,-122.0339393
1235,Reamwood Avenue,94089,37.4055986,-121.9890413
959,Stewart Drive,94085,37.3848183,-122.0036180
510,South Murphy Avenue,94086,37.3707738,-122.0320404
1669,Hollenbeck Avenue,94087,37.3386957,-122.0424290
1555,Sunnyvale-Saratoga Road,94087,37.3427623,-122.0326940
939,West El Camino Real,94087,37.3716493,-122.0455595
774,Verdi Drive,94087,37.3525903,-122.0192820
1135,West Tasman Drive,94089,37.4037883,-121.9947836
1175,Blair Avenue,94087,37.3721665,-122.0559165
1181,Blair Avenue,94087,37.3722194,-122.0561411
1155,Reed Avenue,94086,37.3671559,-121.9976479
125,South Frances Street,94087,37.3773364,-122.0313144
121,South Frances Street,94087,37.3773895,-122.0314350
1055,East Evelyn Avenue,94086,37.3680732,-122.0036855
175,South Murphy Avenue,94086,37.3765602,-122.0304260
1240,West El Camino Real,94087,37.3742644,-122.0584097
111,Elko Drive,94089,37.4065859,-121.9949493
671,Arbutus Avenue,94086-6406,37.3706723,-122.0193945
673,Arbutus Avenue,94086-6406,37.3707860,-122.0193760
663,Arbutus Avenue,94086-6406,37.3707392,-122.0196462
665,Arbutus Avenue,94086-6406,37.3708200,-122.0196254
683,Arbutus Avenue,94086-6406,37.3706429,-122.0192352
693,Arbutus Avenue,94086,37.3705658,-122.0190562
426,Hawthorne Avenue,94086,37.3704484,-122.0189511
436,Hawthorne Avenue,94086,37.3702777,-122.0189950
678,Arbutus Avenue,94086,37.3703474,-122.0193772
668,Arbutus Avenue,94086,37.3704006,-122.0196566
658,Arbutus Avenue,94086,37.3704364,-122.0198310
657,Arbutus Avenue,94086,37.3707292,-122.0198229
651,Arbutus Avenue,94086,37.3707824,-122.0199891
649,Arbutus Avenue,94086,37.3708071,-122.0200792
645,Arbutus Avenue,94086,37.3708218,-122.0202155
637,Arbutus Avenue,94086,37.3708512,-122.0204037
652,Arbutus Avenue,94086,37.3705007,-122.0200677
646,Arbutus Avenue,94086,37.3705410,-122.0203090
640,Arbutus Avenue,94086,37.3705906,-122.0205133
634,Arbutus Avenue,94086,37.3706411,-122.0207524
629,Arbutus Avenue,94086,37.3708916,-122.0206288
625,Arbutus Avenue,94086,37.3709154,-122.0208159
415,Firloch Avenue,94086,37.3709053,-122.0209694
425,Firloch Avenue,94086,37.3707594,-122.0211022
435,Firloch Avenue,94086,37.3706291,-122.0212015
445,Firloch Avenue,94086,37.3704704,-122.0212488
455,Firloch Avenue,94086,37.3702658,-122.0213112
495,Firloch Avenue,94086,37.3695751,-122.0215410
485,Firloch Avenue,94086,37.3697725,-122.0214989
475,Firloch Avenue,94086,37.3699539,-122.0214335
465,Firloch Avenue,94086,37.3701244,-122.0213676
640,Azara Place,94086,37.3698376,-122.0208549
646,Azara Place,94086,37.3697886,-122.0205813
652,Azara Place,94086,37.3697545,-122.0204043
658,Azara Place,94086,37.3696863,-122.0201870
664,Azara Place,94086,37.3696607,-122.0199161
670,Azara Place,94086,37.3695882,-122.0197230
476,Firloch Avenue,94086,37.3698163,-122.0211607
279,West Washington Avenue,94086,37.3765590,-122.0322571
351,West Washington Avenue,94086,37.3767791,-122.0332720
150,South Taaffe Street,94086,37.3775185,-122.0320629
168,South Murphy Avenue,94086,37.3765311,-122.0300790
172,South Murphy Avenue,94086,37.3764731,-122.0300970
1257,West Tasman Drive,94089,37.4037092,-121.9888855
1189,East Arques Avenue,94085,37.3813860,-121.9964171
1070,Stewart Drive Suite,94085,37.3841611,-121.9992548
1155,Reed Avenue,94086,37.3673248,-121.9967996
1273,South Mary Avenue,94087,37.3530610,-122.0513130
1283,South Mary Avenue,94087,37.3529370,-122.0513141
1275,South Mary Avenue,94087,37.3530300,-122.0513130
20664,Mapletree Place,95014-0449,37.3381121,-122.0384124
510,East El Camino Real,94087,37.3630935,-122.0274810
231,West Washington Ave,94086,37.3764216,-122.0316095
321,West Washington Avenue,94086,37.3766831,-122.0327977
156,South Murphy Avenue,94086,37.3766765,-122.0300390
340,West Maude Avenue,94085;94086,37.3891070,-122.0296050
400,West California Avenue,94086,37.3819277,-122.0342306
685,North Pastoria Avenue,94085,37.3947982,-122.0334030
344,West Maude Avenue,94085,37.3891520,-122.0297400
223,East Maude Avenue,94085,37.3878517,-122.0245210
325,East Maude Avenue,94085,37.3877030,-122.0236490
347,East Maude Avenue,94085,37.3876241,-122.0234060
155,South Murphy Avenue,94086,37.3768092,-122.0303150
574,East El Camino Real,94087,37.3623077,-122.0272015
615,Tasman Drive,94089,37.4035822,-122.0092238
1190,North Fair Oaks Avenue,94089,37.4037948,-122.0095720
1136,West Evelyn Avenue,94086,37.3845113,-122.0502466
584,South Mathilda Avenue,94086,37.3699145,-122.0363430
1238,West El Camino Real,94087,37.3737999,-122.0577846
1647,Hollenbeck Avenue,94087,37.3395770,-122.0424350
456,East El Camino Real,94087,37.3636070,-122.0286580
151,South Murphy Avenue,94086,37.3768802,-122.0302958
413,East El Camino Real,94087,37.3647433,-122.0280437
573,East El Camino Real,94087,37.3633735,-122.0259580
1211,South Mary Avenue,94087,37.3542836,-122.0510162
295,Lawrence Expressway,94085,37.3802422,-121.9963390
1155,Reed Avenue,94086,37.3677969,-121.9968018
1155,Reed Avenue,94086,37.3676796,-121.9968018
1155,Reed Avenue,94086,37.3675667,-121.9967965
1155,Reed Avenue,94086,37.3674494,-121.9967965
1155,Reed Avenue,94086,37.3671933,-121.9968011
939,West El Camino Real,94087,37.3718111,-122.0462762
1250,Borregas Avenue,94089,37.4085965,-122.0183310
877,West Fremont Avenue,94087,37.3527696,-122.0499556
1219,South Mary Avenue,94087,37.3543765,-122.0513520
976,Crestline Terrace,94088-3453,37.3879884,-122.0014511
891,East El Camino Real,94087,37.3539194,-122.0146660
605,East El Camino Real,94087,37.3619519,-122.0244990
753,East El Camino Real,94087,37.3580501,-122.0195080
783,East El Camino Real,94087,37.3574667,-122.0182040
730,East El Camino Real,94087,37.3582749,-122.0215230
751,East El Camino Real,94087,37.3580199,-122.0197715
933,East Duane Avenue,94085,37.3892944,-122.0032630
384,Santa Trinita Avenue,94085,37.3819229,-121.9995842
312,Santa Diana Terrace,94085,37.3818289,-122.0172617
760,Kifer Road,94086,37.3751418,-122.0153820
470 Suite C,Lakeside Drive,94085,37.3827772,-121.9929436
1252,Borregas Avenue,94089,37.4089354,-122.0182210
440,North Wolfe Road,94085,37.3835957,-122.0129481
170,Commercial Street,94086,37.3763134,-122.0080641
1236,West El Camino Real,94087,37.3737367,-122.0575679
590,Old San Francisco Road,94086,37.3670631,-122.0236111
771,North Mathilda Avenue,94085,37.3951532,-122.0295269
771,North Mathilda Avenue,94085,37.3952554,-122.0300472
767,North Mathilda Avenue,94085,37.3948804,-122.0299480
877,West Fremont Avenue,94087,37.3531972,-122.0484626
103,Paperbark Terrace,94086,37.3732805,-122.0143680
603,Old San Francisco Road,94086,37.3674643,-122.0228340
343,Santa Diana Terrace,94085,37.3823371,-122.0173519
345,Santa Diana Terrace,94085,37.3823510,-122.0174209
347,Santa Diana Terrace,94085,37.3823643,-122.0174869
349,Santa Diana Terrace,94085,37.3823783,-122.0175559
351,Santa Diana Terrace,94085,37.3823939,-122.0176329
351,Santa Diana Terrace,94085,37.3824074,-122.0176999
331,Santa Diana Terrace,94085,37.3821669,-122.0174100
333,Santa Diana Terrace,94085,37.3821812,-122.0174780
335,Santa Diana Terrace,94085,37.3821967,-122.0175521
337,Santa Diana Terrace,94085,37.3822124,-122.0176268
339,Santa Diana Terrace,94085,37.3822255,-122.0176890
335,Santa Diana Terrace,94085,37.3819546,-122.0177814
323,Santa Diana Terrace,94085,37.3819416,-122.0177200
321,Santa Diana Terrace,94085,37.3819258,-122.0176450
319,Santa Diana Terrace,94085,37.3819102,-122.0175710
317,Santa Diana Terrace,94085,37.3818958,-122.0175030
303,Santa Diana Terrace,94085,37.3817226,-122.0175506
305,Santa Diana Terrace,94085,37.3817365,-122.0176196
307,Santa Diana Terrace,94085,37.3817498,-122.0176856
309,Santa Diana Terrace,94085,37.3817638,-122.0177546
311,Santa Diana Terrace,94085,37.3817794,-122.0178316
313,Santa Diana Terrace,94085,37.3817929,-122.0178986
306,Santa Diana Terrace,94085,37.3818497,-122.0181059
308,Santa Diana Terrace,94085,37.3819029,-122.0180888
310,Santa Diana Terrace,94085,37.3819640,-122.0180691
312,Santa Diana Terrace,94085,37.3820189,-122.0180514
314,Santa Diana Terrace,94085,37.3820713,-122.0180346
316,Santa Diana Terrace,94085,37.3821261,-122.0180170
322,Santa Diana Terrace,94085,37.3822017,-122.0179903
324,Santa Diana Terrace,94085,37.3822549,-122.0179732
326,Santa Diana Terrace,94085,37.3823161,-122.0179535
328,Santa Diana Terrace,94085,37.3823709,-122.0179358
330,Santa Diana Terrace,94085,37.3824233,-122.0179190
332,Santa Diana Terrace,94085,37.3824781,-122.0179014
314,Santa Diana Terrace,94085,37.3818149,-122.0171933
316,Santa Diana Terrace,94085,37.3818002,-122.0171213
318,Santa Diana Terrace,94085,37.3817872,-122.0170579
322,Santa Diana Terrace,94085,37.3819886,-122.0172092
324,Santa Diana Terrace,94085,37.3819746,-122.0171408
326,Santa Diana Terrace,94085,37.3819599,-122.0170688
328,Santa Diana Terrace,94085,37.3819469,-122.0170054
332,Santa Diana Terrace,94085,37.3821458,-122.0171597
334,Santa Diana Terrace,94085,37.3821319,-122.0170913
336,Santa Diana Terrace,94085,37.3821171,-122.0170193
338,Santa Diana Terrace,94085,37.3821042,-122.0169559
342,Santa Diana Terrace,94085,37.3823073,-122.0171080
344,Santa Diana Terrace,94085,37.3822934,-122.0170396
346,Santa Diana Terrace,94085,37.3822786,-122.0169676
348,Santa Diana Terrace,94085,37.3822657,-122.0169042
352,Santa Diana Terrace,94085,37.3824626,-122.0170548
354,Santa Diana Terrace,94085,37.3824486,-122.0169864
356,Santa Diana Terrace,94085,37.3824339,-122.0169144
358,Santa Diana Terrace,94085,37.3824209,-122.0168510
362,Santa Diana Terrace,94085,37.3826225,-122.0170017
364,Santa Diana Terrace,94085,37.3826085,-122.0169333
366,Santa Diana Terrace,94085,37.3825938,-122.0168613
368,Santa Diana Terrace,94085,37.3825809,-122.0167979
372,Santa Diana Terrace,94085,37.3827776,-122.0169463
374,Santa Diana Terrace,94085,37.3827636,-122.0168779
376,Santa Diana Terrace,94085,37.3827489,-122.0168059
378,Santa Diana Terrace,94085,37.3827359,-122.0167425
382,Santa Diana Terrace,94085,37.3829420,-122.0168939
384,Santa Diana Terrace,94085,37.3829280,-122.0168256
386,Santa Diana Terrace,94085,37.3829133,-122.0167535
388,Santa Diana Terrace,94085,37.3829003,-122.0166902
392,Santa Diana Terrace,94085,37.3830818,-122.0168493
394,Santa Diana Terrace,94085,37.3830678,-122.0167809
396,Santa Diana Terrace,94085,37.3830531,-122.0167089
398,Santa Diana Terrace,94085,37.3830401,-122.0166455
302,Santa Diana Terrace,94085,37.3816681,-122.0173131
304,Santa Diana Terrace,94085,37.3816541,-122.0172447
306,Santa Diana Terrace,94085,37.3816393,-122.0171727
308,Santa Diana Terrace,94085,37.3816264,-122.0171093
377,Santa Diana Terrace,94085,37.3828488,-122.0173813
375,Santa Diana Terrace,94085,37.3828348,-122.0173129
373,Santa Diana Terrace,94085,37.3828200,-122.0172409
371,Santa Diana Terrace,94085,37.3828071,-122.0171775
387,Santa Diana Terrace,94085,37.3830034,-122.0173299
385,Santa Diana Terrace,94085,37.3829894,-122.0172616
383,Santa Diana Terrace,94085,37.3829747,-122.0171895
383,Santa Diana Terrace,94085,37.3829617,-122.0171262
397,Santa Diana Terrace,94085,37.3831597,-122.0172823
395,Santa Diana Terrace,94085,37.3831457,-122.0172139
393,Santa Diana Terrace,94085,37.3831310,-122.0171419
391,Santa Diana Terrace,94085,37.3831180,-122.0170785
999,Hamlin Court,94089,37.4016723,-122.0298576
1305,South Mary Avenue,94087,37.3514635,-122.0502029
848,West Evelyn Avenue,94086,37.3809839,-122.0395811
848,West Evelyn Avenue,94086,37.3809627,-122.0394831
298,South Sunnyvale Avenue,94086,37.3741486,-122.0295990
930,Hamlin Court,94089,37.4006863,-122.0279624
1309,South Mary Avenue,94087,37.3494709,-122.0510351
505,West Olive Avenue,94086,37.3726937,-122.0384299
505,West Olive Avenue,94086,37.3725828,-122.0378693
1001-1005,West El Camino Real,94087,37.3725368,-122.0488190
1001-1005,West El Camino Real,94087,37.3726007,-122.0487490
417,East El Camino Real,94087,37.3656266,-122.0278087
417,East El Camino Real,94087,37.3656224,-122.0277885
1123,Tasman Drive,94089,37.4040251,-121.9949246
655,South Fair Oaks Avenue,94086,37.3662317,-122.0246190
195,Leota Avenue,94086,37.3804275,-122.0506336
211,East Weddell Drive,94089,37.3983124,-122.0220960
912,West Evelyn Avenue,94086,37.3816670,-122.0421668
233,East Weddell Drive,94089,37.3978193,-122.0201530
1290,Kifer Road,94086,37.3719516,-121.9903678
830,Stewart Drive,94085,37.3835447,-122.0097017
999,East Caribbean Drive,94089,37.4135829,-122.0006316
877,West Fremont Avenue,94087,37.3526819,-122.0493724
150,East McKinley Avenue,94086,37.3738568,-122.0308230
570,East Remington Drive,94087,37.3564687,-122.0254814
619,Old San Francisco Road,94086,37.3676945,-122.0221760
487,East California Avenue,94086,37.3805971,-122.0224340
1098,West Remington Drive,94087,37.3583806,-122.0587838
1150,Lime Drive,94087,37.3577686,-122.0536031
1288,Kifer Road,94086,37.3723636,-121.9904736
1288,Kifer Road,94086,37.3723649,-121.9904140
1288,Kifer Road,94086,37.3728764,-121.9904501
553,West Remington Drive,94087,37.3592944,-122.0343574
830,Stewart Drive,94085,37.3835443,-122.0097837
830,Stewart Drive,94085,37.3835464,-122.0094672
830,Stewart Drive,94085,37.3835485,-122.0095396
830,Stewart Drive,94085,37.3835443,-122.0096200
830,Stewart Drive,94085,37.3834036,-122.0097354
525,West Remington Drive,94087,37.3593410,-122.0331026
675,Starbush Drive,94086,37.3644453,-122.0034598
848,Stewart Drive,94085,37.3835664,-122.0081502
1309,South Mary Avenue,94087,37.3493287,-122.0508937
1309,South Mary Avenue,94087,37.3490256,-122.0508886
1309,South Mary Avenue,94087,37.3491829,-122.0508819
1309,South Mary Avenue,94087,37.3496944,-122.0512510
1309,South Mary Avenue,94087,37.3495715,-122.0512793
1309,South Mary Avenue,94087,37.3496931,-122.0513059
1309,South Mary Avenue,94087,37.3493283,-122.0508636
990,West Fremont Avenue,94087,37.3515042,-122.0544666
990,West Fremont Avenue,94087,37.3515042,-122.0544147
990,West Fremont Avenue,94087,37.3515042,-122.0543586
990,West Fremont Avenue,94087,37.3515076,-122.0543067
990,West Fremont Avenue,94087,37.3514647,-122.0544666
990,West Fremont Avenue,94087,37.3514664,-122.0544126
990,West Fremont Avenue,94087,37.3514647,-122.0543586
990,West Fremont Avenue,94087,37.3514664,-122.0543046
990,West Fremont Avenue,94087,37.3514664,-122.0542570
990,West Fremont Avenue,94087,37.3515093,-122.0542592
535,North Mathilda Avenue,94085,37.3912469,-122.0314707
730,East Homestead Road,94087,37.3373429,-122.0220016
790,South Wolfe Road,94086,37.3633681,-122.0138674
375,Stowell Avenue,94085,37.3872016,-122.0275656
525,West Remington Drive,94087,37.3592327,-122.0327459
525,West Remington Drive,94087,37.3593361,-122.0332596
525,West Remington Drive,94087,37.3593405,-122.0329609
525,West Remington Drive,94087,37.3592161,-122.0328606
525,West Remington Drive,94087,37.3592178,-122.0331152
525,West Remington Drive,94087,37.3593344,-122.0328540
525,West Remington Drive,94087,37.3592643,-122.0331648
525,West Remington Drive,94087,37.3592161,-122.0329620
1059,Mango Avenue,94087,37.3608048,-122.0542475
1640,Nightingale Avenue,94087,37.3404678,-122.0121312
910,Ponderosa Avenue,94087,37.3586156,-122.0104850
766,Prestwick Court,94087,37.3370237,-122.0197892
1573,Blackhawk Drive,94087,37.3424029,-122.0296838
1061,Oleander Court,94086,37.3604874,-122.0037598
1395,Hollenbeck Avenue,94087,37.3495449,-122.0425545
860,East Remington Drive,94087-2913,37.3605751,-122.0250028
1191,East Arques Avenue,94085,37.3812189,-121.9964139
614,East Evelyn Avenue,94086,37.3727380,-122.0206165
1309,South Mary Avenue,94087,37.3491593,-122.0508822
1692,South Mary Avenue,94087,37.3377856,-122.0496920
1309,South Mary Avenue,94087,37.3494712,-122.0512729
563,West Fremont Avenue,94087,37.3530737,-122.0364230
124,East Fremont Avenue,94087,37.3511992,-122.0313661
126,East Fremont Avenue,94087,37.3511992,-122.0312963
1290,Kifer Road,94086,37.3718663,-121.9903702
1290,Kifer Road,94086,37.3717800,-121.9903702
1290,Kifer Road,94086,37.3716851,-121.9903702
1290,Kifer Road,94086,37.3716084,-121.9904413
1290,Kifer Road,94086,37.3716116,-121.9902844
1290,Kifer Road,94086,37.3720422,-121.9903689
1290,Kifer Road,94086,37.3721221,-121.9904467
1290,Kifer Road,94086,37.3721232,-121.9902871
1288,Kifer Road,94086,37.3723619,-121.9902857
1288,Kifer Road,94086,37.3724451,-121.9903541
1288,Kifer Road,94086,37.3725303,-121.9903608
1288,Kifer Road,94086,37.3726166,-121.9903608
1288,Kifer Road,94086,37.3727040,-121.9903608
1288,Kifer Road,94086,37.3727946,-121.9903675
1288,Kifer Road,94086,37.3728810,-121.9902804
1286,Kifer Road,94086,37.3731090,-121.9904340
1286,Kifer Road,94086,37.3731112,-121.9902737
1286,Kifer Road,94086,37.3731922,-121.9902777
1286,Kifer Road,94086,37.3731879,-121.9904373
1286,Kifer Road,94086,37.3732678,-121.9902817
1286,Kifer Road,94086,37.3733542,-121.9902810
1286,Kifer Road,94086,37.3734362,-121.9902831
1286,Kifer Road,94086,37.3735204,-121.9902857
1286,Kifer Road,94086,37.3736153,-121.9902911
1286,Kifer Road,94086,37.3736110,-121.9904410
1286,Kifer Road,94086,37.3735194,-121.9904420
1286,Kifer Road,94086,37.3734352,-121.9904400
1286,Kifer Road,94086,37.3733574,-121.9904413
1286,Kifer Road,94086,37.3732700,-121.9904386
1298,Kifer Road,94086,37.3731090,-121.9895669
1298,Kifer Road,94086,37.3731080,-121.9893993
1298,Kifer Road,94086,37.3731826,-121.9895669
1298,Kifer Road,94086,37.3732732,-121.9895656
1298,Kifer Road,94086,37.3733520,-121.9895642
1298,Kifer Road,94086,37.3734309,-121.9895629
1298,Kifer Road,94086,37.3735194,-121.9895669
1298,Kifer Road,94086,37.3736142,-121.9895669
1298,Kifer Road,94086,37.3736206,-121.9894046
1298,Kifer Road,94086,37.3735236,-121.9894046
1298,Kifer Road,94086,37.3734384,-121.9894033
1298,Kifer Road,94086,37.3733574,-121.9894087
1298,Kifer Road,94086,37.3732721,-121.9894100
1298,Kifer Road,94086,37.3731847,-121.9894140
1296,Kifer Road,94086,37.3723577,-121.9895622
1296,Kifer Road,94086,37.3723641,-121.9893959
1296,Kifer Road,94086,37.3724387,-121.9894790
1296,Kifer Road,94086,37.3725261,-121.9894871
1296,Kifer Road,94086,37.3726135,-121.9894871
1296,Kifer Road,94086,37.3726902,-121.9894871
1296,Kifer Road,94086,37.3727904,-121.9894898
1296,Kifer Road,94086,37.3728778,-121.9895783
1294,Kifer Road,94086,37.3715967,-121.9895703
1294,Kifer Road,94086,37.3715988,-121.9893932
1294,Kifer Road,94086,37.3716883,-121.9894871
1294,Kifer Road,94086,37.3717672,-121.9894925
1294,Kifer Road,94086,37.3718589,-121.9894925
1294,Kifer Road,94086,37.3719399,-121.9894925
1294,Kifer Road,94086,37.3720251,-121.9894925
1294,Kifer Road,94086,37.3721211,-121.9894040
1294,Kifer Road,94086,37.3721125,-121.9895783
1292,Kifer Road,94086,37.3713388,-121.9902542
1292,Kifer Road,94086,37.3712066,-121.9902435
1292,Kifer Road,94086,37.3712833,-121.9901416
1292,Kifer Road,94086,37.3712801,-121.9900356
1292,Kifer Road,94086,37.3712823,-121.9899297
1292,Kifer Road,94086,37.3712791,-121.9898197
1292,Kifer Road,94086,37.3712791,-121.9897124
1292,Kifer Road,94086,37.3713558,-121.9895998
1292,Kifer Road,94086,37.3712173,-121.9895998
438,South Murphy Avenue,94086,37.3717868,-122.0315681
438,South Murphy Avenue,94086,37.3718721,-122.0314260
438,South Murphy Avenue,94086,37.3719840,-122.0314917
1290,Lawrence Station Road,94089,37.4086457,-121.9952412
1307,South Mary Avenue,94087,37.3502638,-122.0512471
1307,South Mary Avenue,94087,37.3502902,-122.0509185
1307,South Mary Avenue,94087,37.3502918,-122.0508434
1307,South Mary Avenue,94087,37.3502689,-122.0508782
1307,South Mary Avenue,94087,37.3502329,-122.0509185
1307,South Mary Avenue,94087,37.3502691,-122.0510781
1307,South Mary Avenue,94087,37.3502414,-122.0508380
590,South Murphy Avenue,94086,37.3686192,-122.0324645
1257,Lakeside Drive,94085,37.3883620,-121.9939865
1257,Lakeside Drive,94085,37.3882949,-121.9940508
1629,Hollenbeck Avenue,94087,37.3401110,-122.0427060
1631,Hollenbeck Avenue,94087,37.3401120,-122.0427830
1645,Hollenbeck Avenue,94087,37.3396805,-122.0424314
1637,Hollenbeck Avenue,94087,37.3399662,-122.0424473
158,San Lazaro Avenue,94086,37.3761398,-122.0117464
1159,West Tasman Drive,94089,37.4040701,-121.9938459
1195,West Tasman Drive,94089,37.4038499,-121.9929007
1157,West Tasman Drive,94089,37.4040692,-121.9937224
1153,West Tasman Drive,94089,37.4038412,-121.9937560
1147,West Tasman Drive,94089,37.4038442,-121.9941691
905,Reed Avenue,94086,37.3670071,-122.0130599
860,East Remington Drive,94087-2913,37.3603359,-122.0251680
860,East Remington Drive,94087-2913,37.3601650,-122.0251590
860,East Remington Drive,94087-2913,37.3601885,-122.0252637
860,East Remington Drive,94087-2913,37.3606023,-122.0251175
1180,Miraloma Way,94085,37.3783413,-121.9970541
1287,Forgewood Avenue,94089,37.4095112,-121.9924332
1285,Forgewood Avenue,94089,37.4094106,-121.9924367
1281,Forgewood Avenue,94089,37.4092301,-121.9924454
584,South Murphy Avenue,94086,37.3687554,-122.0324189
1213,Innsbruck Drive,94089,37.4063169,-122.0146765
112,South Sunnyvale Avenue,94086,37.3768110,-122.0286454
915,Hazelnut Court,94087,37.3640717,-122.0549566
1010,West Fremont Avenue,94087,37.3518133,-122.0562145
1021,South Wolfe Road,94086,37.3552819,-122.0146348
781,Pierino Avenue,94086,37.3607742,-122.0204633
1110,Sunnyvale-Saratoga Road,94087,37.3561962,-122.0320656
1021,South Wolfe Road,94086,37.3552797,-122.0148386
1021,South Wolfe Road,94086,37.3552737,-122.0147046
1021,South Wolfe Road,94086,37.3552776,-122.0147716
466,East El Camino Real,94087,37.3634266,-122.0282516
740,Kifer Road,94086,37.3754209,-122.0161743
233,East Weddell Drive,94089,37.3977657,-122.0201469
1560,Sunnyvale-Saratoga Road,94087,37.3428109,-122.0319536
917,East Arques Avenue,94085,37.3813212,-122.0084863
480,Oakmead Parkway,94085,37.3838605,-121.9878301
730,North Pastoria Avenue,94085,37.3955150,-122.0325066
440,North Wolfe Road,94085,37.3835885,-122.0127403
333,West Maude Avenue,94085,37.3897012,-122.0298101
150,East McKinley Avenue,94086,37.3739192,-122.0312241
720,South Wolfe Road,94086,37.3662601,-122.0131945
242,Commercial Street,94085,37.3793130,-122.0074044
222,Commercial Street,94085,37.3785950,-122.0075467
442,Oakmead Parkway,94085,37.3822955,-121.9876163
1203,Lawrence Station Road,94089,37.4055795,-121.9959428
1395,Hollenbeck Avenue,94087,37.3499745,-122.0421815
1105,Kern Avenue,94085,37.3827877,-121.9993159
691,West Tasman Drive,94089,37.4029224,-122.0086413
695,West Tasman Drive,94089,37.4028945,-122.0087319
613,West Tasman Drive,94089,37.4036196,-122.0093655
681,West Tasman Drive,94089,37.4030692,-122.0086715
677,West Tasman Drive,94089,37.4035316,-122.0084597
605,West Tasman Drive,94089,37.4036494,-122.0094926
130,East El Camino Real,94087,37.3656921,-122.0317100
728,South Wolfe Road,94086,37.3661620,-122.0131875
136,East El Camino Real,94087,37.3648227,-122.0312226
138,East El Camino Real,94087,37.3648211,-122.0311883
200,West McKinley Avenue,94086,37.3742542,-122.0321270
200,West McKinley Avenue,94086,37.3742347,-122.0320127
676,North Fair Oaks Avenue,94085,37.3904509,-122.0138190
200,West McKinley Avenue,94086,37.3742486,-122.0320980
1450,Yukon Drive,94087,37.3472399,-122.0335729
522,Castlerock Terrace North,94087,37.3472317,-122.0335321
518,Castlerock Terrace North,94087,37.3472254,-122.0333855
525,Castlerock Terrace South,94087,37.3471617,-122.0334859
625,Castlerock Terrace South,94087,37.3471683,-122.0335919
521,Castlerock Terrace South,94087,37.3471562,-122.0333219
517,Castlerock Terrace South,94087,37.3471215,-122.0332639
514,Castlerock Terrace North,94087,37.3472468,-122.0331699
513,Castlerock Terrace South,94087,37.3471595,-122.0330061
509,Castlerock Terrace South,94087,37.3471256,-122.0329378
506,Castlerock Terrace North,94087,37.3472089,-122.0328079
505,Castlerock Terrace South,94087,37.3472024,-122.0327273
419,East El Camino Real,94087,37.3656049,-122.0277362
215,East Washington Avenue,94086,37.3757490,-122.0287710
330,Cobalt Way,94087,37.3781729,-121.9946383
598,East El Camino Real,94087,37.3614689,-122.0256218
568,East El Camino Real,94087,37.3624209,-122.0272201
1265,Lakeside Drive,94085,37.3889338,-121.9935710
328,West El Camino Real,94087,37.3677809,-122.0361764
200,West McKinley Avenue,94086,37.3742214,-122.0320414
200,West McKinley Avenue,94086,37.3742319,-122.0321140
200,West McKinley Avenue,94086,37.3742443,-122.0320620
200,West McKinley Avenue,94086,37.3742253,-122.0320800
200,West McKinley Avenue,94086,37.3742113,-122.0320601
200,West McKinley Avenue,94086,37.3742401,-122.0321460
200,West McKinley Avenue,94086,37.3742206,-122.0321326
200,West McKinley Avenue,94086,37.3742142,-122.0321566
200,West McKinley Avenue,94086,37.3742163,-122.0320993
200,West McKinley Avenue,94086,37.3742691,-122.0321963
200,West McKinley Avenue,94086,37.3742592,-122.0321667
200,West McKinley Avenue,94086,37.3742380,-122.0321755
200,West McKinley Avenue,94086,37.3742426,-122.0322005
200,West McKinley Avenue,94086,37.3742068,-122.0321161
200,West McKinley Avenue,94086,37.3742202,-122.0321884
200,West McKinley Avenue,94086,37.3742015,-122.0320798
1053,East El Camino Real,94087,37.3529894,-122.0044175
147,South Frances Street,94086,37.3771360,-122.0313774
1645,Hollenbeck Avenue,94087,37.3396797,-122.0425229
895,East Fremont Avenue,94087,37.3525061,-122.0145049
120,San Lucar Court,94086,37.3733427,-122.0112466
100,San Lucar Court,94086,37.3735015,-122.0117241
820,Kifer Road,94086,37.3740512,-122.0108399
820,Kifer Road,94086,37.3741610,-122.0114273
121,San Lucar Court,94086,37.3739986,-122.0132545
120,San Lucar Court,94086,37.3733656,-122.0113743
198,South Murphy Avenue,94086,37.3760827,-122.0301844
198,South Murphy Avenue,94086,37.3760921,-122.0302167
125,West Washington Avenue,94086,37.3762065,-122.0307527
160,South Murphy Avenue,94086,37.3765954,-122.0300596
100,South Murphy Avenue,94086,37.3773463,-122.0297699
1407,Bellingham Way,94087,37.3474552,-122.0612790
917,East Arques Avenue,94085,37.3813467,-122.0085029
917,East Arques Avenue,94085,37.3812865,-122.0084848
917,East Arques Avenue,94085,37.3813653,-122.0085298
917,East Arques Avenue,94085,37.3812886,-122.0085091
917,East Arques Avenue,94085,37.3812579,-122.0085390
917,East Arques Avenue,94085,37.3813622,-122.0085662
917,East Arques Avenue,94085,37.3813419,-122.0085240
917,East Arques Avenue,94085,37.3813553,-122.0084724
917,East Arques Avenue,94085,37.3813173,-122.0085870
917,East Arques Avenue,94085,37.3813434,-122.0085802
917,East Arques Avenue,94085,37.3812924,-122.0085380
917,East Arques Avenue,94085,37.3812954,-122.0085675
917,East Arques Avenue,94085,37.3813214,-122.0085375
917,East Arques Avenue,94085,37.3813701,-122.0085550
917,East Arques Avenue,94085,37.3813591,-122.0084896
917,East Arques Avenue,94085,37.3813284,-122.0085604
917,East Arques Avenue,94085,37.3813071,-122.0084827
1269,West El Camino Real,94087,37.3754241,-122.0589900
1267,West El Camino Real,94087,37.3754140,-122.0589487
450,East El Camino Real,94087,37.3636692,-122.0288583
612,East Evelyn Avenue,94086,37.3727532,-122.0206958
905,Reed Avenue,94086,37.3670062,-122.0131181
510,Lawrence Expressway,94085,37.3824512,-121.9951128
1119,Tasman Drive,94089,37.4041360,-121.9950012
907,East Duane Avenue,94085,37.3890773,-122.0046343
917,East Arques Avenue,94085,37.3812785,-122.0085519
344,Persian Drive,94089,37.4065608,-121.9978490
546,South Murphy Avenue,94086,37.3699788,-122.0322479
300,West McKinley Avenue,94086,37.3744327,-122.0331162
848,West Evelyn Avenue,94086,37.3809137,-122.0392446
848,West Evelyn Avenue,94086,37.3809294,-122.0393236
848,West Evelyn Avenue,94086,37.3809459,-122.0394067
675,East El Camino Real,94087,37.3613196,-122.0229134
861,East El Camino Real,94087,37.3542946,-122.0153712
135,North Wolfe Road,94086,37.3761070,-122.0146654
1035,Lorne Way,94087,37.3387591,-122.0058748
1202,Kifer Road,94086,37.3734781,-121.9953267
1202,Kifer Road,94086,37.3734547,-121.9953604
731,West Fremont Avenue,94087,37.3524337,-122.0430487
733,West Fremont Avenue,94087,37.3523931,-122.0432127
739,West Fremont Avenue,94087,37.3524316,-122.0434519
737,West Fremont Avenue,94087,37.3523898,-122.0433573
735,West Fremont Avenue,94087,37.3523857,-122.0432824
725,West Fremont Avenue,94087,37.3524472,-122.0428360
719,West Fremont Avenue,94087,37.3523730,-122.0423821
717,West Fremont Avenue,94087,37.3523638,-122.0423351
715,West Fremont Avenue,94087,37.3523714,-122.0422918
713,West Fremont Avenue,94087,37.3523912,-122.0421091
723,West Fremont Avenue,94087,37.3524367,-122.0426521
721,West Fremont Avenue,94087,37.3524288,-122.0425090
1299,Riesling Terrace,94087,37.3527930,-122.0436566
1297,Riesling Terrace,94087,37.3527899,-122.0436079
1295,Riesling Terrace,94087,37.3527928,-122.0435681
1293,Riesling Terrace,94087,37.3527892,-122.0434752
1291,Riesling Terrace,94087,37.3527938,-122.0434244
1271,Riesling Terrace,94087,37.3529027,-122.0434284
1273,Riesling Terrace,94087,37.3529087,-122.0434856
1275,Riesling Terrace,94087,37.3529030,-122.0435250
1277,Riesling Terrace,94087,37.3529088,-122.0436198
12793,Riesling Terrace,94087,37.3529060,-122.0436667
1289,Riesling Terrace,94087,37.3526954,-122.0430672
1287,Riesling Terrace,94087,37.3528044,-122.0430286
1285,Riesling Terrace,94087,37.3528630,-122.0430426
1283,Riesling Terrace,94087,37.3528823,-122.0430483
1283,Riesling Terrace,94087,37.3530034,-122.0431231
1290,Riesling Terrace,94087,37.3527420,-122.0425343
1292,Riesling Terrace,94087,37.3527949,-122.0424039
1294,Riesling Terrace,94087,37.3527979,-122.0423860
1296,Riesling Terrace,94087,37.3527934,-122.0422899
1298,Riesling Terrace,94087,37.3528002,-122.0422459
1262,Riesling Terrace,94087,37.3530521,-122.0428264
1268,Riesling Terrace,94087,37.3530515,-122.0425008
1264,Riesling Terrace,94087,37.3529991,-122.0427339
1266,Riesling Terrace,94087,37.3529990,-122.0426929
1280,Riesling Terrace,94087,37.3528808,-122.0423919
1278,Riesling Terrace,94087,37.3529863,-122.0423856
1276,Riesling Terrace,94087,37.3530246,-122.0423849
1274,Riesling Terrace,94087,37.3530630,-122.0423879
1272,Riesling Terrace,94087,37.3531343,-122.0423862
1270,Riesling Terrace,94087,37.3531766,-122.0423934
1256,Riesling Terrace,94087,37.3534524,-122.0428122
1258,Riesling Terrace,94087,37.3533061,-122.0428073
1267,Riesling Terrace,94087,37.3531405,-122.0431541
1265,Riesling Terrace,94087,37.3532242,-122.0430752
1263,Riesling Terrace,94087,37.3532633,-122.0430763
738,Winstead Court,94087,37.3534044,-122.0431387
744,South Wolfe Road,94086,37.3660613,-122.0134230
1330,Orleans Drive,94089,37.4120703,-122.0058980
919,East Duane Avenue,94085,37.3891219,-122.0040041
913,East Duane Avenue,94085,37.3891195,-122.0041735
1601,Tenaka Place,94087,37.3409595,-122.0347663
1236,South Wolfe Road,94086,37.3536667,-122.0133742
1236,South Wolfe Road,94086,37.3536663,-122.0134815
939,West El Camino Real,94087,37.3716167,-122.0455707
939,West El Camino Real,94087,37.3717311,-122.0460983
939,West El Camino Real,94087,37.3717771,-122.0460850
939,West El Camino Real,94087,37.3717716,-122.0462849
852,West El Camino Real,94087,37.3700510,-122.0430810
232,East Caribbean Drive,94089,37.4163019,-122.0153101
230,East Caribbean Drive,94089,37.4164036,-122.0152804
240,East Caribbean Drive,94089,37.4158623,-122.0153627
310,Soquel Way,94085,37.3857173,-122.0333413
940,West Evelyn Avenue,94086,37.3821706,-122.0433399
1269,Forgewood Avenue,94089,37.4082429,-121.9924356
510,Lawrence Expressway,94085,37.3824806,-121.9951410
145,South Frances Street,94086,37.3772500,-122.0313397
440,North Wolfe Road,94085,37.3839037,-122.0133791
283,North Fair Oaks Avenue,94085,37.3813204,-122.0188642
683,East El Camino Real,94087,37.3606235,-122.0225477
1336,South Mary Avenue,94087,37.3508327,-122.0494722
1055,Dunford Way,94087,37.3456832,-122.0063113
1075,Ed Roth Terrace,94086,37.3532231,-122.0008338
1079,Ed Roth Terrace,94086,37.3532246,-122.0007450
1083,Ed Roth Terrace,94086,37.3532257,-122.0006202
1087,Ed Roth Terrace,94086,37.3532262,-122.0005277
1080,Ed Roth Terrace,94086,37.3530622,-122.0008191
1084,Ed Roth Terrace,94086,37.3530644,-122.0006699
1088,Ed Roth Terrace,94086,37.3530620,-122.0005542
848,East El Camino Real,94087,37.3548923,-122.0171739
840,East El Camino Real,94087,37.3550410,-122.0173837
182,South Murphy Avenue,94086,37.3763299,-122.0301690
182,South Murphy Avenue,94086,37.3763450,-122.0301485
701,Juneberry Terrace,94086,37.3669748,-122.0188883
703,Juneberry Terrace,94086,37.3670341,-122.0188898
705,Juneberry Terrace,94086,37.3670957,-122.0188913
707,Juneberry Terrace,94086,37.3670855,-122.0187544
709,Juneberry Terrace,94086,37.3670324,-122.0187542
711,Juneberry Terrace,94086,37.3669737,-122.0187541
301,West McKinley Avenue,94086,37.3750063,-122.0335537
301,West McKinley Avenue,94086,37.3749631,-122.0333324
301,West McKinley Avenue,94086,37.3750606,-122.0337787
877,West Fremont Avenue,94087,37.3529959,-122.0499630
301,West McKinley Avenue,94086,37.3750329,-122.0336442
301,West McKinley Avenue,94086,37.3748984,-122.0329925
300,West Washington Avenue,94086,37.3763069,-122.0328255
300,West Washington Avenue,94086,37.3763321,-122.0329531
300,West Washington Avenue,94086,37.3763672,-122.0331261
300,West Washington Avenue,94086,37.3763937,-122.0332545
300,West Washington Avenue,94086,37.3764203,-122.0333599
300,West McKinley Avenue,94086,37.3744905,-122.0332371
300,West McKinley Avenue,94086,37.3745179,-122.0333564
300,West McKinley Avenue,94086,37.3745490,-122.0334777
300,West McKinley Avenue,94086,37.3745770,-122.0336022
300,West McKinley Avenue,94086,37.3746074,-122.0337314
300,West McKinley Avenue,94086,37.3746280,-122.0338575
155,South Frances Street,94086,37.3765376,-122.0315747
1139,Tasman Drive,94089,37.4037638,-121.9945520
1034,Indian Wells Avenue,94085,37.3861364,-122.0000437
712,South Wolfe Road,94086,37.3664116,-122.0131887
311,South Mathilda Avenue,94086,37.3747947,-122.0354576
1150,Lime Drive,94087,37.3579071,-122.0540151
811,Henderson Avenue,94086,37.3621689,-122.0061886
850,Russet Drive,94087,37.3645104,-122.0381378
636,Harrow Way,94087,37.3421745,-122.0255547
934,Macon Road,94035,37.4228720,-122.0413996
701,1st Avenue,94089,37.4171811,-122.0250729
701,1st Avenue,94089,37.4188211,-122.0256927
1350,North Mathilda Avenue,94089,37.4151141,-122.0243579
805,11th Avenue,94089,37.4029881,-122.0326164
807,11th Avenue,94089,37.4040887,-122.0323252
809,11th Avenue,94089,37.4034415,-122.0333217
803,11th Avenue,94089,37.4036404,-122.0316219
680,Kifer Road,94086,37.3754508,-122.0180906
730,The Dalles Avenue,94087,37.3432389,-122.0433244
575,West Fremont Avenue,94087,37.3540064,-122.0352763
1077,East Arques Avenue,94085,37.3824989,-122.0016555
1601,Hollenbeck Avenue,94087,37.3408855,-122.0421100
1080,Mango Avenue,94087,37.3610142,-122.0522598
1054,Carson Drive,94086,37.3806788,-122.0481915
1000,West Maude Avenue,94085,37.3926809,-122.0420462
950,West Maude Avenue,94085,37.3924612,-122.0407663
811,East Arques Avenue,94085,37.3820622,-122.0105859
740,Kifer Road,94086,37.3753375,-122.0161705
999,East Caribbean Drive,94089,37.4125037,-121.9968741
877,West Fremont Avenue,94087,37.3529125,-122.0493255
1220,North Mathilda Avenue,94089,37.4108857,-122.0257318
1194,North Mathilda Avenue,94089,37.4096585,-122.0261652
1184,North Mathilda Avenue,94089,37.4085437,-122.0264543
169,West Java Drive,94089,37.4127390,-122.0196610
350,West Java Drive,94089,37.4112456,-122.0196103
345,Potrero Avenue,94085,37.3878247,-122.0387667
310,North Mary Avenue,94085,37.3874766,-122.0421355
884,Hermosa Court,94085,37.3866482,-122.0391502
190,Mathilda Place,94086,37.3771364,-122.0336856
150,Mathilda Place,94086,37.3778447,-122.0334433
100,Mathilda Place,94086,37.3785642,-122.0328776
840,West Washington Avenue,94086,37.3772362,-122.0405556
255,South Pastoria Avenue,94086,37.3767178,-122.0391078
605,West El Camino Real,94087,37.3701673,-122.0388072
700,All America Way,94086,37.3704572,-122.0401200
111,East El Camino Real,94087,37.3675448,-122.0302315
125,East El Camino Real,94087,37.3670089,-122.0287435
107,East El Camino Real,94087,37.3677248,-122.0315488
151,East Washington Avenue,94086,37.3760442,-122.0295619
192,South Murphy Avenue,94086,37.3763291,-122.0300462
176,South Murphy Avenue,94086,37.3763840,-122.0299687
146,South Murphy Avenue,94086,37.3768026,-122.0297687
111,South Murphy Avenue,94086,37.3773980,-122.0302389
601,South Bernardo Avenue,94087,37.3734436,-122.0569280
606,South Bernardo Avenue,94087,37.3727979,-122.0561749
1265,West El Camino Real,94087,37.3753239,-122.0587033
1241,West El Camino Real,94087,37.3746437,-122.0571011
1306,Bordeaux Drive,94089,37.4128670,-122.0213412
1330,Geneva Drive,94089,37.4126790,-122.0121834
641,Baltic Way,94089,37.4138894,-122.0052324
632,East Caribbean Drive,94089,37.4146323,-122.0062563
555,East California Avenue,94086,37.3806281,-122.0204281
275,North Fair Oaks Avenue,94085,37.3812554,-122.0190258
810,Kifer Road,94086,37.3743715,-122.0127921
818-824,Kifer Road,94086,37.3740860,-122.0111028
899,Kifer Road,94086,37.3757890,-122.0106994
1329,Moffett Park Drive,94089,37.4109498,-122.0044259
750,Lakechime Drive,94089,37.3973398,-122.0029645
834,Lakechime Drive,94089,37.3974021,-122.0008931
238,Garner Drive,94089,37.3998029,-122.0237943
1326,Kifer Road,94086,37.3718617,-121.9887434
1380,Kifer Road,94086,37.3734695,-121.9878002
260,North Sunnyvale Avenue,94086,37.3819477,-122.0261961
550,East Olive Avenue,94086-6345,37.3691715,-122.0239915
597,Central Avenue,94086,37.3687570,-122.0268252
1085,East El Camino Real,94087,37.3528560,-122.0020835
1051,East El Camino Real,94087,37.3526739,-122.0047564
1565,Quail Avenue,94087,37.3440453,-122.0067701
1380,Rosalia Avenue,94087,37.3482815,-122.0074658
1095,Dunford Way,94087,37.3463364,-122.0038668
620,Iris Avenue,94086,37.3627311,-122.0236973
1010,South Wolfe Road,94086,37.3560156,-122.0114041
1110,Fairwood Avenue,94089,37.3964032,-121.9904299
1178,Sonora Court,94086,37.3712222,-121.9974132
150,Lawrence Station Road,94086,37.3718239,-121.9944864
777,San Miguel Avenue,94085-3411,37.3912696,-122.0093081
1235,Oakmead Parkway,94085,37.3876203,-121.9924789
562,North Britton Avenue,94085,37.3863897,-122.0112782
1288,Kifer Road,94086,37.3726157,-121.9903851
1292,Kifer Road,94086,37.3712784,-121.9899378
401,Old San Francisco Road,94086,37.3682161,-122.0276837
250,West El Camino Real,94087,37.3674321,-122.0353130
411-433,East El Camino Real,94087,37.3650147,-122.0277909
755,Dartshire Way,94087,37.3477300,-122.0186285
1030,Astoria Drive,94087,37.3497302,-122.0574859
1026,Astoria Drive,94087,37.3494259,-122.0568188
825,East Evelyn Avenue,94086,37.3716197,-122.0148272
789,Morse Avenue,94085,37.3953999,-122.0196940
739,Morse Avenue,94085,37.3939324,-122.0202161
900,Hamlin Court,94089,37.4001251,-122.0288867
1196,Lime Drive,94087,37.3566436,-122.0539439
815,Stewart Drive,94086,37.3844211,-122.0105595
1177,Kern Avenue,94085,37.3830734,-121.9967999
1198,East Arques Avenue,94085,37.3793963,-121.9971294
1180,Miraloma Way,94085,37.3783902,-121.9970249
1190,Miraloma Way,94085,37.3783500,-121.9966398
540,North Fair Oaks Avenue,94085,37.3856010,-122.0144840
298,West McKinley Avenue,94086,37.3737445,-122.0323308
690,Grape Avenue,94087,37.3716408,-122.0524762
996,West El Camino Real,94087,37.3714381,-122.0483148
625,South Mary Avenue,94087,37.3712553,-122.0491716
916,West El Camino Real,94087,37.3707464,-122.0455543
806,West El Camino Real,94087,37.3698723,-122.0416958
852,West El Camino Real,94087,37.3699618,-122.0431247
991,West El Camino Real,94087,37.3720796,-122.0475039
804,West El Camino Real,94087,37.3697088,-122.0412755
1279,Sunnyvale Saratoga Road,94087-2535,37.3530044,-122.0332843
575,West Fremont Avenue,94087,37.3526832,-122.0348245
665,West Olive Avenue,94086,37.3719467,-122.0390244
410,South Mathilda Avenue,94086,37.3730802,-122.0351415
170,South Sunnyvale Avenue,94086,37.3761927,-122.0288736
238,Carroll Street,94086,37.3742407,-122.0284178
3775,El Camino Real,95051,37.3526972,-122.0003192
855,East El Camino Real,94087,37.3547989,-122.0154534
1065,East El Camino Real,94087,37.3525962,-122.0037189
1003,East El Camino Real,94087,37.3526246,-122.0078162
4341,East El Camino Real,95051,37.3528099,-122.0013685
440,North Wolfe Road,94085,37.3839304,-122.0128489
604,East El Camino Real,94087,37.3609714,-122.0249637
121,East El Camino Real,94087,37.3671538,-122.0290208
119,East El Camino Real,94087,37.3673207,-122.0292577
610,East Weddell Drive,94089,37.3961175,-122.0109982
650,East El Camino Real,94087,37.3600768,-122.0242693
550,East Remington Drive,94087,37.3577100,-122.0265525
550,East Remington Drive,94088-3707,37.3581866,-122.0248493
150,East McKinley Avenue,94086,37.3738523,-122.0308370
1286,Kifer Road,94086,37.3733710,-121.9903863
1298,Kifer Road,94086,37.3733701,-121.9894995
1290,Kifer Road,94086,37.3718640,-121.9903838
1294,Kifer Road,94086,37.3718645,-121.9894990
1296,Kifer Road,94086,37.3726179,-121.9894988
250,South Mathilda Avenue,94086,37.3754383,-122.0342839
200,South Mathilda Avenue,94086,37.3762478,-122.0340186
1020,Enterprise Way,94089,37.4040053,-122.0349944
1000,Enterprise Way,94089,37.4035245,-122.0360003
1195,Bordeaux Drive,94089,37.4092652,-122.0238893
1215,Bordeaux Drive,94089,37.4103711,-122.0234407
1100,North Mathilda Avenue,94089,37.4048924,-122.0252035
1140,North Mathilda Avenue,94089,37.4075850,-122.0259719
330,Gibraltar Drive,94089,37.4086501,-122.0141001
232,East Java Drive,94089,37.4104552,-122.0161388
1375,Crossman Avenue,94089,37.4140843,-122.0103395
209,East Java Drive,94089,37.4119362,-122.0170534
255,Caspian Drive,94089,37.4145109,-122.0145563
701,Sunnyvale-Saratoga Road,94087,37.3673977,-122.0326280
1238,Birchwood Drive,94089,37.4035246,-121.9919307
1245,Hammerwood Avenue,94089,37.4047659,-121.9905990
1265,Lawrence Station Road,94089,37.4059188,-121.9961600
1273,Hammerwood Avenue,94089,37.4088072,-121.9908652
1257,West Tasman Drive,94089,37.4038338,-121.9890634
1292,Forgewood Avenue,94089,37.4099292,-121.9916324
1280,Persian Drive,94089,37.4070680,-121.9982547
776,North Mathilda Avenue,94085,37.3953297,-122.0283023
806,West Ahwanee Avenue,94085,37.3953834,-122.0275537
696,North Mathilda Avenue,94085,37.3934713,-122.0288209
748,North Mathilda Avenue,94085,37.3946006,-122.0282438
816,West Ahwanee Avenue,94085,37.3962590,-122.0274610
814,West Ahwanee Avenue,94086,37.3961431,-122.0277703
590,North Mathilda Avenue,94086,37.3912861,-122.0296228
800,West Ahwanee Avenue,94086,37.3955134,-122.0280278
736,North Mathilda Avenue,94085,37.3943121,-122.0287770
845,West Maude Avenue,94085,37.3918406,-122.0349975
800,North Mary Avenue,94085,37.3972913,-122.0345741
642,North Pastoria Avenue,94085,37.3937423,-122.0329890
610,North Pastoria Avenue,95128,37.3930660,-122.0332220
611,Vaqueros Avenue,94085,37.3929919,-122.0325524
599,North Mathilda Avenue,94085,37.3919949,-122.0318613
525,Almanor Avenue,94085,37.3977017,-122.0300716
685,North Pastoria Avenue,94085,37.3948403,-122.0334002
1217,Wildwood Avenue,94089-2701,37.3912735,-121.9921669
655,South Fair Oaks Avenue,94086,37.3654246,-122.0267622
475,Potrero Avenue,94085,37.3888607,-122.0381609
880,West Maude Avenue,94085,37.3911846,-122.0374810
485,Potrero Avenue,94085,37.3901471,-122.0378203
680,East El Camino Real,94087,37.3592244,-122.0229189
780,East El Camino Real,94087-2918,37.3555454,-122.0185573
750,East El Camino Real,94087,37.3575127,-122.0208260
510,East El Camino Real,94087,37.3630951,-122.0276343
438-456,East El Camino Real,94087,37.3637119,-122.0284800
556,East El Camino Real,94086,37.3629389,-122.0271948
495,South Mathilda Avenue,94086,37.3719466,-122.0366210
925,West Fremont Avenue,94087,37.3525671,-122.0516614
1050,West Remington Drive,94087,37.3591599,-122.0551075
1195,West El Camino Real,94087,37.3741240,-122.0556805
745,South Bernardo Avenue,94087,37.3713324,-122.0584358
930,De Guigne Drive,94085,37.3862702,-122.0056555
950,De Guigne Drive,94085,37.3860334,-122.0045842
920,De Guigne Drive,94085,37.3857435,-122.0055275
595,East El Camino Real,94087,37.3628329,-122.0254832
610,Grape Avenue,94087,37.3722551,-122.0524511
444,South Mathilda Avenue,94086,37.3723533,-122.0351484
811,Kifer Road,94086,37.3756167,-122.0132439
655,South Fair Oaks Avenue,94086,37.3658811,-122.0253736
1081,Innovation Way,94089,37.4108369,-122.0312340
1310,South Mary Avenue,94087,37.3509781,-122.0502257
1303,South Mary Avenue,94087,37.3514804,-122.0508788
1306,South Mary Avenue,94087,37.3515779,-122.0501499
959,Stewart Drive,94085,37.3850604,-122.0020397
1160,Enterprise Way,94089,37.4110012,-122.0360405
1120,Enterprise Way,94089,37.4094650,-122.0364311
999,East Arques Avenue,94085,37.3811186,-122.0034901
1135;1137,Kern Avenue,94085,37.3829726,-121.9980784
1109,East Arques Avenue,94085,37.3808854,-122.0004886
1145,East Arques Avenue,94085,37.3809259,-121.9988473
830,Stewart Drive,94085,37.3834753,-122.0096207
921,East Arques Avenue,94085,37.3812578,-122.0083361
978,East Arques Avenue,94085,37.3774322,-122.0051730
908,East Arques Avenue,94085,37.3804899,-122.0080983
198,Commercial Street,94085,37.3774868,-122.0078048
930,East Arques Avenue,94085,37.3803195,-122.0063780
904,East Arques Avenue,94085,37.3805065,-122.0086760
750,Lakeway Drive,94085,37.3879726,-121.9884579
717,East El Camino Real,94087,37.3589953,-122.0208880
1000,Escalon Avenue,94085,37.3879517,-122.0453479
1180,North Fair Oaks Avenue,94089,37.4032351,-122.0097362
1263,East Arques Avenue,94085,37.3812765,-121.9896761
550,Lawrence Expressway,94086-4043,37.3854952,-121.9953810
1307,South Mary Avenue,94087,37.3502472,-122.0510910
355,North Wolfe Road,94085,37.3821104,-122.0135758
740,East Arques Avenue,94085,37.3805749,-122.0143456
790,East Duane Avenue,94085,37.3880072,-122.0102728
615-617,North Mary Avenue,94085,37.3934422,-122.0377489
585,North Mary Avenue,94085,37.3926662,-122.0378762
501,Macara Avenue,94085,37.3943579,-122.0422854
355,North Pastoria Avenue,94085,37.3869663,-122.0358740
392;390,Potrero Avenue,94085,37.3882514,-122.0372162
360,North Pastoria Avenue,94085,37.3865569,-122.0347637
375,North Pastoria Avenue,94085,37.3876525,-122.0355901
380,North Pastoria Avenue,94085,37.3874141,-122.0347093
440,Potrero Avenue,94085,37.3889973,-122.0371763
438,West Maude Avenue,94085,37.3896375,-122.0319648
470,Potrero Avenue,94085,37.3898923,-122.0364473
870,West Maude Avenue,94085,37.3910037,-122.0363417
330,Potrero Avenue,94085,37.3864566,-122.0376950
1055,Manet Drive,94087,37.3575194,-122.0275202
560,East Remington Drive,94087,37.3567511,-122.0256238
570,East Remington Drive,94087,37.3564466,-122.0254919
500,East Remington Drive,94087,37.3585707,-122.0281436
950,East El Camino Real,94087,37.3518269,-122.0116675
1090,Kifer Road,94086,37.3731032,-122.0011799
170,North Wolfe Road,94086,37.3769975,-122.0126453
205,South Mathilda Avenue,94086,37.3767041,-122.0348752
844,West El Camino Real,94087,37.3699643,-122.0424892
1050,Kifer Road,94086,37.3730456,-122.0023772
100-120,San Lucar Court,94086,37.3733337,-122.0113397
725,Kifer Road,94086,37.3760420,-122.0153348
1133,Innovation Way,94089,37.4075109,-122.0293750
925,West Fremont Avenue,94087,37.3524101,-122.0515795
395,West El Camino Real,94087,37.3693829,-122.0363842
563,West Washington Avenue,94086,37.3773700,-122.0359881
597,West Washington Avenue,94086,37.3773953,-122.0362409
596,West McKinley Avenue,94086,37.3753069,-122.0369552
432,Florence Street,94086,37.3733855,-122.0374456
434,Waverly Street,94086,37.3735886,-122.0384603
436,Waverly Street,94086,37.3734315,-122.0384928
437,Waverly Street,94086,37.3735523,-122.0390252
798,West Iowa Avenue,94086,37.3738661,-122.0393132
705,West Washington Avenue,94086,37.3777031,-122.0375416
729,West Washington Avenue,94086,37.3777377,-122.0376869
747,West Washington Avenue,94086,37.3777322,-122.0378192
765,West Washington Avenue,94086,37.3777702,-122.0379518
777,West Washington Avenue,94086,37.3778056,-122.0380734
799,West Washington Avenue,94086,37.3778299,-122.0381754
320,Waverly Street,94086,37.3753803,-122.0378537
820,West McKinley Avenue,94086,37.3759262,-122.0399438
656,West Iowa Avenue,94086,37.3737282,-122.0382941
920,East Arques Avenue,94085,37.3806476,-122.0076969
480,South Mathilda Avenue,94086,37.3718267,-122.0356201
400,South Taaffe Street,94086,37.3728978,-122.0334616
920,Mangrove Avenue,94086,37.3580172,-122.0122209
149,East Hendy Avenue,94086,37.3785108,-122.0289164
174,North Sunnyvale Avenue,94086,37.3798578,-122.0272586
438,South Murphy Avenue,94086,37.3718885,-122.0314767
563,South Murphy Avenue,94086,37.3694772,-122.0328288
579,South Murphy Avenue,94086,37.3691020,-122.0330535
1039,Sunnyvale-Saratoga Road,94087,37.3585549,-122.0329087
553,West Remington Drive,94087,37.3592665,-122.0343521
830,West Evelyn Avenue,94086,37.3807586,-122.0386354
810,West Evelyn Avenue,94086,37.3804863,-122.0379934
906,West Evelyn Avenue,94086,37.3817356,-122.0415836
970,West Evelyn Avenue,94086,37.3821911,-122.0439911
135,Brahms Way,94087,37.3635169,-122.0308419
856,Azure Street,94087,37.3623574,-122.0318762
902,Azure Street,94087,37.3615430,-122.0317950
418,Brahms Way,94087,37.3628593,-122.0291541
197,Cirrus Avenue,94087,37.3627063,-122.0295306
185,Cirrus Avenue,94087,37.3626950,-122.0297351
173,Cirrus Avenue,94087,37.3626951,-122.0299504
161,Cirrus Avenue,94087,37.3627168,-122.0301903
149,Cirrus Avenue,94087,37.3627069,-122.0303961
137,Cirrus Avenue,94087,37.3627061,-122.0305944
113,Cirrus Avenue,94087,37.3626970,-122.0310324
843,Azure Street,94087,37.3627165,-122.0312514
855,Azure Street,94087,37.3622477,-122.0313799
114,Cirrus Avenue,94087,37.3622770,-122.0311672
126,Cirrus Avenue,94087,37.3622404,-122.0309647
138,Cirrus Avenue,94087,37.3622396,-122.0307344
150,Cirrus Avenue,94087,37.3622664,-122.0305354
162,Cirrus Avenue,94087,37.3622430,-122.0303399
174,Cirrus Avenue,94087,37.3622444,-122.0301034
186,Cirrus Avenue,94087,37.3622562,-122.0299031
198,Cirrus Avenue,94087,37.3622494,-122.0296968
451,Cumulus Avenue,94087,37.3616995,-122.0286638
441,Cumulus Avenue,94087,37.3617335,-122.0288483
431,Cumulus Avenue,94087,37.3617766,-122.0290318
421,Cumulus Avenue,94087,37.3618614,-122.0293985
197,Cumulus Avenue,94087,37.3619366,-122.0297981
185,Cumulus Avenue,94087,37.3619638,-122.0299892
173,Cumulus Avenue,94087,37.3619664,-122.0301857
161,Cumulus Avenue,94087,37.3619559,-122.0303956
149,Cumulus Avenue,94087,37.3619487,-122.0305853
137,Cumulus Avenue,94087,37.3619682,-122.0307916
125,Cumulus Avenue,94087,37.3619507,-122.0309757
113,Cumulus Avenue,94087,37.3619601,-122.0311703
897,Azure Street,94087,37.3619752,-122.0313867
901,Azure Street,94087,37.3614797,-122.0313035
114,Cumulus Avenue,94087,37.3614926,-122.0310764
126,Cumulus Avenue,94087,37.3614776,-122.0308315
138,Cumulus Avenue,94087,37.3614855,-122.0306305
150,Cumulus Avenue,94087,37.3614871,-122.0303891
162,Cumulus Avenue,94087,37.3614746,-122.0301915
174,Cumulus Avenue,94087,37.3614869,-122.0299567
402,Cumulus Avenue,94087,37.3614467,-122.0297286
424,Cumulus Avenue,94087,37.3614135,-122.0295258
436,Cumulus Avenue,94087,37.3613601,-122.0293333
448,Cumulus Avenue,94087,37.3613248,-122.0291476
454,Cumulus Avenue,94087,37.3612795,-122.0289412
460,Cumulus Avenue,94087,37.3612320,-122.0287275
466,Cumulus Avenue,94087,37.3611709,-122.0284393
470,Cumulus Avenue,94087,37.3611395,-122.0282500
478,Cumulus Avenue,94087,37.3610503,-122.0280466
650,South Bernardo Avenue,94087,37.3719270,-122.0566594
139,South Pastoria Avenue,94086,37.3795149,-122.0380127
129,South Pastoria Avenue,94086,37.3797412,-122.0379213
123,South Pastoria Avenue,94086,37.3799022,-122.0378660
135,South Pastoria Avenue,94086,37.3796382,-122.0379506
1290,Caldwell Court,94087,37.3484589,-122.0611911
1291,Caldwell Court,94087,37.3486624,-122.0611950
1292,Caldwell Court,94087,37.3482800,-122.0613212
1293,Caldwell Court,94087,37.3487513,-122.0614395
1294,Caldwell Court,94087,37.3482488,-122.0615659
1295,Caldwell Court,94087,37.3487321,-122.0616667
1296,Caldwell Court,94087,37.3482810,-122.0618234
1297,Caldwell Court,94087,37.3487127,-122.0619169
1359,Belleville Way,94087,37.3485156,-122.0626777
1369,Belleville Way,94087,37.3483028,-122.0626678
1370,Belleville Way,94087,37.3482943,-122.0621290
1379,Belleville Way,94087,37.3480916,-122.0626553
1382,Belleville Way,94087,37.3480701,-122.0620527
1382,Bellingham Way,94087,37.3482710,-122.0606183
1384,Bellingham Way,94087,37.3482171,-122.0603892
1387,Bellingham Way,94087,37.3482247,-122.0608583
1388,Bellingham Way,94087,37.3480215,-122.0603550
1389,Belleville Way,94087,37.3478976,-122.0625955
1391,Bellingham Way,94087,37.3479768,-122.0609116
1392,Belleville Way,94087,37.3478866,-122.0619890
1395,Bellingham Way,94087,37.3480619,-122.0611368
1397,Bellingham Way,94087,37.3479951,-122.0613888
1399,Bellingham Way,94087,37.3479017,-122.0615920
1401,Belleville Way,94087,37.3476244,-122.0625248
1401,Bellingham Way,94087,37.3476216,-122.0614943
1402,Belleville Way,94087,37.3476425,-122.0619529
1402,Bellingham Way,94087,37.3478505,-122.0603991
1407,Belleville Way,94087,37.3474052,-122.0624310
1408,Belleville Way,94087,37.3474413,-122.0617896
1408,Bellingham Way,94087,37.3476327,-122.0604130
1412,Bellingham Way,94087,37.3474200,-122.0603663
1413,Belleville Way,94087,37.3471916,-122.0622858
1413,Bellingham Way,94087,37.3475158,-122.0609607
1416,Belleville Way,94087,37.3472438,-122.0616825
1416,Bellingham Way,94087,37.3471904,-122.0604155
1417,Bellingham Way,94087,37.3472525,-122.0609739
1419,Belleville Way,94087,37.3469940,-122.0622004
1420,Bellingham Way,94087,37.3469693,-122.0604268
1421,Bellingham Way,94087,37.3470324,-122.0609738
1422,Belleville Way,94087,37.3470441,-122.0615516
1424,Bellingham Way,94087,37.3467572,-122.0603962
1425,Belleville Way,94087,37.3467939,-122.0620474
1425,Bellingham Way,94087,37.3468182,-122.0609946
1428,Bellingham Way,94087,37.3465507,-122.0603894
1429,Bellingham Way,94087,37.3465817,-122.0609843
1430,Belleville Way,94087,37.3468450,-122.0614426
1431,Belleville Way,94087,37.3466057,-122.0619617
1432,Bellingham Way,94087,37.3463248,-122.0603696
1435,Bellingham Way,94087,37.3465869,-122.0613278
1436,Bellingham Way,94087,37.3461019,-122.0606108
1437,Belleville Way,94087,37.3464059,-122.0618187
877,West Fremont Avenue,94087,37.3529995,-122.0499584
1001-1005,West El Camino Real,94087,37.3722933,-122.0489017
1001-1005,West El Camino Real,94087,37.3725570,-122.0487910
819,West Iowa Avenue,94086,37.3748021,-122.0405621
830,West Iowa Avenue,94086,37.3740443,-122.0406746
814,Peach Avenue,94087,37.3669875,-122.0467147
889,Blair Avenue,94087,37.3701781,-122.0453564
883,Blair Avenue,94087,37.3701815,-122.0452164
875,Blair Avenue,94087,37.3701576,-122.0449873
811,11th Avenue,94089,37.4028558,-122.0335664
826,Ticonderoga Drive,94087-2248,37.3548275,-122.0471910
1289,Balboa Court,94086,37.3839715,-122.0560604
150,Acalanes Drive,94086,37.3840161,-122.0563828
235,South Bernardo Avenue,94086,37.3796255,-122.0565156
1028,West Evelyn Avenue,94086,37.3833064,-122.0465399
1024,West Evelyn Avenue,94086,37.3829762,-122.0456740
1002,West Evelyn Avenue,94086-5741,37.3827977,-122.0454408
217,East Washington Avenue,94086,37.3758148,-122.0286732
297,East Washington Avenue,94086,37.3757703,-122.0284586
215,East Washington Avenue,94086,37.3758291,-122.0287394
730-732,East Evelyn Avenue,95086,37.3707036,-122.0171134
860,West Fremont Avenue,94087,37.3518984,-122.0489319
860,West Fremont Avenue,94087,37.3517668,-122.0489173
1257,Lakeside Drive,94085,37.3882751,-121.9939631
150,East El Camino Real,94807,37.3644475,-122.0307176
785,East El Camino Real,94087,37.3573255,-122.0176854
639,South Bernardo Avenue,94807,37.3728406,-122.0580940
550,West El Camino Real,94087,37.3691630,-122.0384443
767,South Wolfe Road,94086,37.3649640,-122.0146673
1198,West El Camino Real,94087,37.3734905,-122.0559649
750,South Bernardo Avenue,94087,37.3706412,-122.0570479
384,Santa Trinita Avenue,94085,37.3820101,-121.9995505
1240,West El Camino Real,94087,37.3742432,-122.0583515
698,North Fair Oaks Avenue,94085,37.3908763,-122.0141338
1112,South Bernardo Avenue,94087,37.3590228,-122.0589611
234-8,South Bernardo Avenue,94086,37.3804075,-122.0572759
235,South Bernardo Avenue,94086,37.3803092,-122.0567825
247,Arriba Drive,94086,37.3801018,-122.0565104
1059,Mango Avenue,94087,37.3607952,-122.0542450
701,Dona Avenue,94087,37.3710003,-122.0530897
702,Dona Avenue,94087,37.3708975,-122.0525810
1030,Astoria Drive,94087,37.3496712,-122.0574394
1002,West Fremont Avenue,94087,37.3516277,-122.0556156
755,Dona Avenue,94087,37.3698916,-122.0534826
756,Dona Avenue,94087,37.3697814,-122.0529796
743,Dona Avenue,94087,37.3702098,-122.0533932
807,Dona Avenue,94087,37.3684633,-122.0539862
781,Dona Avenue,94087,37.3692468,-122.0536710
750,Dona Avenue,94087,37.3699467,-122.0529127
727,Dona Avenue,94087,37.3705171,-122.0532406
802,Dona Avenue,94087,37.3685124,-122.0533907
736,Dona Avenue,94087,37.3702583,-122.0528241
744,Dona Avenue,94087,37.3701069,-122.0528547
749,Dona Avenue,94087,37.3700475,-122.0534068
728,Dona Avenue,94087,37.3704200,-122.0527762
799,Dona Avenue,94087,37.3687722,-122.0538657
703,Dona Avenue,94087,37.3708443,-122.0531623
716,Dona Avenue,94087,37.3705767,-122.0527206
794,Dona Avenue,94087,37.3688284,-122.0533184
715,Dona Avenue,94087,37.3706923,-122.0532214
735,Dona Avenue,94087,37.3703720,-122.0533199
704,Dona Avenue,94087,37.3707395,-122.0526213
1302,Warner Avenue,94087,37.3517745,-122.0481219
725,Cascade Drive,94087,37.3486390,-122.0420596
695,West Homestead Road,94087,37.3378177,-122.0410832
348,West El Camino Real,94087,37.3685856,-122.0356269
1010,East El Camino Real,94087,37.3517905,-122.0066024
522,West Fremont Avenue,94087,37.3518413,-122.0333797
520,West Fremont Avenue,94087,37.3517246,-122.0331570
1255,East Arques Avenue,94085,37.3812248,-121.9908085
295,Lawrence Expressway,94085,37.3801215,-121.9965025
1025,The Dalles Avenue,94087,37.3452705,-122.0556361
1002,South Wolfe Road,94086,37.3559556,-122.0138501
918,Mangrove Avenue,94086,37.3581648,-122.0128823
1137,Innovation Way,94089,37.4082686,-122.0292446
133,Avon Terrace,94087,37.3508403,-122.0310506
1510,Lewiston Drive,94087,37.3430501,-122.0445568
1510,Lewiston Drive,94087,37.3433619,-122.0445585
1510,Lewiston Drive,94087,37.3435178,-122.0443379
1510,Lewiston Drive,94087,37.3432469,-122.0447178
1510,Lewiston Drive,94087,37.3432939,-122.0440837
1510,Lewiston Drive,94087,37.3436382,-122.0447682
1692,South Mary Avenue,94087,37.3377524,-122.0496657
605,East El Camino Real,94087,37.3619240,-122.0244215
603,Old San Francisco Road,94086,37.3676370,-122.0225314
660,South Fair Oaks Avenue,94086,37.3648437,-122.0234765
615,Old San Francisco Road,94086,37.3675504,-122.0221254
1694,Wright Avenue,94087,37.3377426,-122.0546583
21855,Homestead Road,95014-0111,37.3378565,-122.0588138
117,West Maude Avenue,94086,37.3885654,-122.0264792
117,West Maude Avenue,94086,37.3887241,-122.0263763
1325,Sunnyvale-Saratoga Road,94087,37.3511756,-122.0327070
125,East Arques Avenue,94085,37.3837983,-122.0268956
633,South Knickerbocker Drive,94087,37.3735626,-122.0588165
1035,Aster Avenue,94086,37.3701896,-122.0039518
191-193,Locksunart Way,94087,37.3392817,-122.0291663
309,North Pastoria Avenue,94085,37.3860919,-122.0363959
605-695,West Tasman Drive,94089,37.4034231,-122.0087636
1160,Morse Avenue,94089,37.4016935,-122.0152375
1063,Morse Avenue,94089,37.4002963,-122.0178403
505,North Mathilda Avenue,94085,37.3905290,-122.0310229
555,North Mathilda Avenue,94085,37.3915301,-122.0306956
605,West Maude Avenue,94085,37.3909904,-122.0332892
580,North Mary Avenue,94085,37.3921996,-122.0363814
510,North Pastoria Avenue,94085,37.3914369,-122.0323635
220,North Mathilda Avenue,94086,37.3836461,-122.0319261
1010,Morse Avenue,94089,37.3987178,-122.0160943
140,Acalanes Drive,94086,37.3844194,-122.0562687
1260,Ayala Drive,94086,37.3841968,-122.0552954
660,West El Camino Real,94087,37.3694032,-122.0395712
720,North Fair Oaks Avenue,94085,37.3919560,-122.0135756
575,North Britton Avenue,94085,37.3872274,-122.0134804
975,East El Camino Real,94087,37.3528290,-122.0091821
975,East El Camino Real,94087,37.3528026,-122.0091107
975,East El Camino Real,94087,37.3525925,-122.0092594
505,Columbia Avenue,94085,37.3851127,-122.0204997
883,Borregas Avenue,94085,37.3974558,-122.0233453
549,Isla Vista Terrace,94085,37.3911955,-122.0169527
563,North Eden Avenue,94085,37.3910002,-122.0160247
575,North Eden Avenue,94085,37.3908957,-122.0155264
567,North Eden Avenue,94085,37.3909578,-122.0158447
589,North Eden Avenue,94085,37.3907944,-122.0149997
571,North Eden Avenue,94085,37.3909353,-122.0156693
555,North Eden Avenue,94085,37.3910929,-122.0163489
596,North Eden Avenue,94085,37.3903087,-122.0150251
598,North Fair Oaks Avenue,94085,37.3902418,-122.0148650
595,North Eden Avenue,94085,37.3907421,-122.0148651
559,North Eden Avenue,94085,37.3910264,-122.0161803
583,North Eden Avenue,94085,37.3908076,-122.0151957
579,North Eden Avenue,94085,37.3908572,-122.0153433
551,North Eden Avenue,94085,37.3911092,-122.0166067
599,North Fair Oaks Avenue,94085,37.3907330,-122.0146989
1100,Enterprise Way,94089,37.4084055,-122.0363466
834,East Fremont Avenue,94086,37.3516852,-122.0163821
521,East Weddell Drive,94089,37.3973954,-122.0168981
531,East Weddell Drive,94089,37.3972497,-122.0161246
962,Belmont Terrace,94086,37.3837633,-122.0415244
1055,East Evelyn Avenue,94086,37.3682380,-122.0032447
1395,Crossman Avenue,94089,37.4149432,-122.0096669
785,Morse Avenue,94085-3010,37.3949006,-122.0187916
1164,Willow Avenue,94086,37.3678259,-121.9971362
299,East Ferndale Avenue,94085,37.3938249,-122.0221090
442,Madera Avenue,94086,37.3750034,-122.0497190
591,West Fremont Avenue,94087,37.3542889,-122.0375085
999,Belmont Terrace,94086,37.3846952,-122.0433237
649,East Homestead Road,94087,37.3379458,-122.0234612
766,Prestwick Court,94087,37.3370079,-122.0197351
1296,Morningside Drive,94087,37.3673596,-122.0617606
1640,Nightingale Avenue,94087,37.3404386,-122.0121387
590,Old San Francisco Road,94086,37.3670677,-122.0236030
515,Firloch Avenue,94086,37.3690621,-122.0218257
615,East Olive Avenue,94086,37.3692339,-122.0217699
9,Corte Madera Avenue,94085,37.3909036,-122.0435913
8,Corte Madera Avenue,94085,37.3906016,-122.0438978
3,Macara Avenue,94085,37.3903272,-122.0425700
1,Corte Madera Avenue,94085,37.3907085,-122.0426560
2,Macara Avenue,94085,37.3905316,-122.0428401
4,Corte Madera Avenue,94085,37.3902911,-122.0430103
7,Corte Madera Avenue,94085,37.3906708,-122.0435496
6,Corte Madera Avenue,94085,37.3903994,-122.0435406
5,Corte Madera Avenue,94085,37.3903285,-122.0432854
972,Corte Madera Avenue,94085,37.3905857,-122.0432007
535,Old San Francisco Road,94086,37.3678257,-122.0245475
250,West Maude Avenue,94086,37.3885488,-122.0283769
797,East Fremont Avenue,94087,37.3529704,-122.0183059
815,East Fremont Avenue,94087,37.3525794,-122.0174626
1105,Lily Avenue,94086,37.3619963,-122.0007170
907,Tamarack Lane,94086,37.3582330,-122.0013584
911,Tamarack Lane,94086,37.3580776,-122.0013945
776,Henderson Avenue,94086,37.3622536,-122.0047933
1061,Oleander Court,94086,37.3604717,-122.0037538
1019,Lupine Drive,94086,37.3611526,-122.0072105
1515,Partridge Avenue,94087,37.3446309,-122.0091043
1455,Ramon Drive,94087,37.3467694,-122.0123844
1573,Blackhawk Drive,94087,37.3424059,-122.0296445
790,South Wolfe Road,94086,37.3633478,-122.0138690
944,Erica Drive,94086,37.3652575,-122.0116723
793,Blue Sage Drive,94086,37.3682669,-122.0146590
965,East El Camino Real,94087,37.3525268,-122.0098770
965,East El Camino Real,94087,37.3526610,-122.0107614
950,Redwood Avenue,94086,37.3563277,-122.0057068
910,Ponderosa Avenue,94087,37.3586279,-122.0104920
965,East El Camino Real,94087,37.3532619,-122.0098956
965,East El Camino Real,94087,37.3529021,-122.0097403
965,East El Camino Real,94087,37.3529484,-122.0102481
965,East El Camino Real,94087,37.3531374,-122.0107694
905,East El Camino Real,94087,37.3531966,-122.0133285
905,East El Camino Real,94087,37.3533409,-122.0135663
711,East El Camino Real,94087,37.3599164,-122.0215395
665,East El Camino Real,94087,37.3612187,-122.0232009
683,Garland Avenue,94086,37.3645384,-122.0210034
679,Garland Avenue,94086,37.3646183,-122.0213586
685,Garland Avenue,94086,37.3644774,-122.0207949
681,Garland Avenue,94086,37.3645783,-122.0211542
965,East El Camino Real,94087,37.3526920,-122.0103666
107,West Maude Avenue,94085,37.3884454,-122.0260463
755,Lakebird Drive,94089,37.3993450,-122.0031546
389,Greenlake Drive,94089,37.3999131,-122.0076998
425,West Tasman Drive,94089,37.4038829,-122.0130094
1179,East Homestead Road,94087,37.3381964,-121.9970531
1220,North Fair Oaks Avenue,94089,37.4044032,-122.0085559
1220,North Fair Oaks Avenue,94089,37.4046790,-122.0089612
1220,North Fair Oaks Avenue,94089,37.4044979,-122.0079905
1686,Nightingale Avenue,94087,37.3384401,-122.0121349
1035,Lorne Way,94087,37.3387370,-122.0058768
353,North Murphy Avenue,94085,37.3860888,-122.0271077
115,Plaza Drive,94089,37.4029389,-122.0211686
1014,Fulton Avenue,94089,37.4005896,-122.0223742
385,East Weddell Drive,94089,37.3975608,-122.0190348
607,Morse Avenue,94085,37.3901033,-122.0200994
381,East Eaglewood Avenue,94085,37.3910582,-122.0216996
374,Cypress Avenue,94085,37.3892156,-122.0224825
390,Cypress Avenue,94085,37.3890660,-122.0218051
378,Cypress Avenue,94085,37.3891778,-122.0223074
320,Cypress Avenue,94085,37.3894084,-122.0232190
394,Cypress Avenue,94085,37.3890235,-122.0216341
354,Cypress Avenue,94085,37.3892855,-122.0228382
386,Cypress Avenue,94085,37.3891053,-122.0219714
370,Cypress Avenue,94085,37.3892140,-122.0226802
336,Cypress Avenue,94085,37.3893228,-122.0230108
382,Cypress Avenue,94085,37.3891448,-122.0221471
391,Cypress Avenue,94085,37.3894677,-122.0216650
337,Cypress Avenue,94085,37.3896979,-122.0228839
387,Cypress Avenue,94085,37.3894935,-122.0218477
375,Cypress Avenue,94085,37.3896089,-122.0223714
379,Cypress Avenue,94085,37.3895803,-122.0221976
321,Cypress Avenue,94085,37.3897100,-122.0231404
351,Cypress Avenue,94085,37.3896629,-122.0227140
395,Cypress Avenue,94085,37.3894001,-122.0215023
383,Cypress Avenue,94085,37.3895371,-122.0220125
371,Cypress Avenue,94085,37.3896653,-122.0225486
375,Stowell Avenue,94085,37.3872256,-122.0275841
437,South Mary Avenue,94086,37.3747223,-122.0481946
433,South Mary Avenue,94086,37.3749930,-122.0480924
1275,Vicente Drive,94086,37.3780194,-122.0580063
1101,Lawrence Expressway,94089,37.3963623,-121.9962373
709,Lakewood Drive,94089,37.3952300,-122.0055057
125,North Mary Avenue,94086,37.3843457,-122.0463210
125,North Mary Avenue,94086,37.3842289,-122.0459936
125,North Mary Avenue,94086,37.3843949,-122.0457641
125,North Mary Avenue,94086,37.3844376,-122.0465949
125,North Mary Avenue,94086,37.3843864,-122.0464657
125,North Mary Avenue,94086,37.3845302,-122.0468977
125,North Mary Avenue,94086,37.3844904,-122.0467510
125,North Mary Avenue,94086,37.3842868,-122.0461627
125,North Mary Avenue,94086,37.3843374,-122.0459282
895,Lori Avenue,94086,37.3847530,-122.0398101
180,Pasito Terrace,94086,37.3827640,-122.0403955
170,Pasito Terrace,94086,37.3831085,-122.0401630
130,Pasito Terrace,94086,37.3822343,-122.0394328
140,Pasito Terrace,94086,37.3826005,-122.0394393
120,Pasito Terrace,94086,37.3822289,-122.0399305
160,Pasito Terrace,94086,37.3831000,-122.0397003
100,Pasito Terrace,94086,37.3824767,-122.0403851
150,Pasito Terrace,94086,37.3829893,-122.0392184
110,Pasito Terrace,94086,37.3826433,-122.0398901
990,West Fremont Avenue,94087,37.3513386,-122.0546190
990,West Fremont Avenue,94087,37.3517178,-122.0538710
1136;1140;1142,West Evelyn Avenue,94086,37.3844445,-122.0505165
235,South Bernardo Avenue,94086,37.3805841,-122.0580999
235,South Bernardo Avenue,94086,37.3801474,-122.0582124
235,South Bernardo Avenue,94086,37.3803642,-122.0580314
125,North Mary Ave,94086,37.3858353,-122.0479528
1575,Tenaka Place,94087,37.3424605,-122.0351246
235,South Bernardo Avenue,94086,37.3804383,-122.0585496
100,Connemara Way,94087,37.3462473,-122.0320690
106,Connemara Way,94087,37.3462561,-122.0318226
125,Connemara Way,94087,37.3464643,-122.0315676
102,Connemara Way,94087,37.3464213,-122.0320722
125,Connemara Way,94087,37.3462236,-122.0315801
108,Connemara Way,94087,37.3464313,-122.0318256
235,South Bernardo Avenue,94086,37.3797695,-122.0547814
235,South Bernardo Avenue,94086,37.3797179,-122.0559938
235,South Bernardo Avenue,94086,37.3798824,-122.0550789
235,South Bernardo Avenue,94086,37.3796828,-122.0557558
235,South Bernardo Avenue,94086,37.3800242,-122.0571109
237,Arriba Drive,94086,37.3801137,-122.0558222
235,South Bernardo Avenue,94086,37.3799589,-122.0574650
241,Arriba Drive,94086,37.3800586,-122.0562563
235,South Bernardo Avenue,94086,37.3799631,-122.0568661
235,South Bernardo Avenue,94086,37.3794493,-122.0553765
234-9,South Bernardo Avenue,94086,37.3802311,-122.0574516
235,South Bernardo Avenue,94086,37.3798755,-122.0553568
235,South Bernardo Avenue,94086,37.3794188,-122.0548821
1054,Carson Drive,94086,37.3802707,-122.0491406
471,Acalanes Drive,94086,37.3765475,-122.0594546
1670,Ontario Drive,94087,37.3388695,-122.0395230
1674,Ontario Drive,94087,37.3387074,-122.0395264
1676,Ontario Drive,94087,37.3385666,-122.0395408
1228,Brookfield Avenue,94087,37.3701958,-122.0583802
683,Grand Coulee Avenue,94087,37.3423334,-122.0399814
1584,Hollenbeck Avenue,94086,37.3414943,-122.0411060
415,East El Camino Real,94087,37.3644673,-122.0277099
301,Old San Francisco Road,94086,37.3683450,-122.0296920
815,11th Avenue,94089,37.4045476,-122.0331597
798,Dona Avenue,94087,37.3686607,-122.0533469
1326,Floyd Avenue,94087,37.3515838,-122.0256556
593,Central Avenue,94086,37.3679449,-122.0254183
1110,Karby Terrace,94089,37.4048957,-122.0127157
1120,Karby Terrace,94089,37.4050886,-122.0126486
1130,Karby Terrace,94089,37.4053113,-122.0125737
1140,Karby Terrace,94089,37.4055122,-122.0125044
1150,Karby Terrace,94089,37.4057176,-122.0124060
3760,Tamarack Lane,95051,37.3563362,-121.9993554
704,Daffodil Court,94086,37.3638546,-122.0194906
125,North Mary Avenue,94086,37.3841927,-122.0458326
125,North Mary Avenue,94086,37.3842051,-122.0458659
1500,Partridge Avenue,94087,37.3447099,-122.0074065
235,South Bernardo Avenue,94086,37.3800281,-122.0565769
1229,Vicente Drive,94086,37.3769193,-122.0573553
1225,Sandia Avenue,94089,37.3966600,-121.9893846
890,East Arques Avenue,94085,37.3793893,-122.0103850
222,North Wolfe Road,94085,37.3792258,-122.0107276
1070,Innovation Way,94089,37.4047663,-122.0287918
479,North Pastoria Avenue,94085,37.3894291,-122.0350990
401,Willow Avenue,94086,37.3701678,-121.9996859
776,North Mathilda Avenue,94085,37.3951540,-122.0282892
10555,Mary Avenue,95014,37.3307359,-122.0515932
504,Ross Drive,94089,37.4015328,-122.0279833
502,Ross Drive,94089,37.4016625,-122.0274555
1095,West El Camino Real,94087,37.3734022,-122.0512934
1085,West El Camino Real,94087,37.3727206,-122.0508363
1080,Stewart Drive,94086,37.3853707,-121.9970977
301,Old San Francisco Road,94086,37.3684866,-122.0296583
201,Old San Francisco Road,94086,37.3686419,-122.0311610
763,San Juan Drive,94085,37.3921372,-122.0108235
1175,Borregas Avenue,94089,37.4057215,-122.0207437
555,East El Camino Real,94087,37.3640872,-122.0269298
1100,Discovery Way,94089,37.4067651,-122.0337200
905,11th Avenue,94089,37.4071180,-122.0349781
10885,North Stelling Road,95014,37.3359877,-122.0426856
1180,Discovery Way,94089,37.4091485,-122.0332446
1190,Discovery Way,94089,37.4099502,-122.0329937
900,5th Avenue,94089,37.4102970,-122.0340620
815,West Maude Avenue,94085,37.3913437,-122.0344279
808,Julian Terrace,94085,37.3856633,-122.0087843
816,Julian Terrace,94085,37.3856644,-122.0085442
822,Julian Terrace,94085,37.3856623,-122.0083324
828,Julian Terrace,94085,37.3856634,-122.0081031
834,Julian Terrace,94085,37.3856613,-122.0078845
840,Julian Terrace,94085,37.3856559,-122.0076565
845,De Guigne Drive,94085,37.3856516,-122.0074480
531,San Lorenzo Terrace,94085,37.3855598,-122.0092294
533,San Lorenzo Terrace,94085,37.3857613,-122.0092455
535,San Lorenzo Terrace,94085,37.3859466,-122.0092830
537,San Lorenzo Terrace,94085,37.3861246,-122.0092804
936,East Duane Avenue,94085,37.3880548,-122.0044065
195,Leota Avenue,94086,37.3807037,-122.0500239
1169,West El Camino Real,94087,37.3738579,-122.0548552
810,Gridley Terrace,94085,37.3861091,-122.0088646
818,Gridley Terrace,94085,37.3861305,-122.0086299
824,Gridley Terrace,94085,37.3861369,-122.0084180
830,Gridley Terrace,94085,37.3861390,-122.0081846
836,Gridley Terrace,94085,37.3861433,-122.0079808
842,Gridley Terrace,94085,37.3863425,-122.0076683
845,Julian Terrace,94085,37.3861187,-122.0075637
855,De Guigne Drive,94085,37.3860506,-122.0072847
539,San Lorenzo Terrace,94085,37.3863031,-122.0092481
804,Galt Terrace,94085,37.3864672,-122.0092428
812,Galt Terrace,94085,37.3864800,-122.0087532
838,Galt Terrace,94085,37.3864902,-122.0080974
844,Galt Terrace,94085,37.3866293,-122.0076602
849,Galt Terrace,94085,37.3870214,-122.0077983
805,Galt Terrace,94085,37.3868904,-122.0089452
809,Galt Terrace,94085,37.3868995,-122.0087313
813,Galt Terrace,94085,37.3869068,-122.0084933
817,Galt Terrace,94085,37.3869100,-122.0082894
535,San Marcos Terrace,94085,37.3864896,-122.0073982
541,San Marcos Terrace,94085,37.3862822,-122.0071312
544,San Marcos Terrace,94085,37.3867866,-122.0071997
540,San Marcos Terrace,94085,37.3865335,-122.0068269
542,Santa Maria Terrace,94085,37.3868428,-122.0068574
885,De Guigne Drive,94085,37.3867256,-122.0064819
895,De Guigne Drive,94085,37.3869819,-122.0060964
905,De Guigne Drive,94085,37.3871455,-122.0056331
557,Charles Fracker Terrace,94085,37.3872627,-122.0052535
925,De Guigne Drive,94085,37.3872014,-122.0047888
929,De Guigne Drive,94085,37.3872185,-122.0043402
929,Delano Terrace,94085,37.3876026,-122.0041753
919,Delano Terrace,94085,37.3876218,-122.0048961
564,San Martin Terrace,94085,37.3875008,-122.0066121
563,San Martin Terrace,94085,37.3874923,-122.0068508
562,Santa Maria Terrace,94085,37.3874881,-122.0070881
560,Galt Terrace,94085,37.3874827,-122.0073228
552,Galt Terrace,94085,37.3871534,-122.0073141
556,San Martin Terrace,94085,37.3871374,-122.0065919
554,Santa Maria Terrace,94085,37.3871556,-122.0070734
555,San Martin Terrace,94085,37.3871545,-122.0068333
897,Fillmore Terrace,94085,37.3871673,-122.0061715
767,North Mathilda Avenue,94085,37.3949250,-122.0301644
687,North Pastoria Avenue,94085,37.3951543,-122.0333023
771,North Mathilda Avenue,94085,37.3952011,-122.0297602
1235,Bordeaux Drive,94089,37.4122544,-122.0226316
400,West Java Drive,94089,37.4128460,-122.0228265
724,North Mathilda Avenue,94085,37.3941653,-122.0287429
223,North Mathilda Avenue,94086,37.3827098,-122.0336478
1101,Lawrence Expressway,94089,37.3963978,-121.9962702
620,East Arques Avenue,94085,37.3807099,-122.0177819
475,North Wolfe Road,94085,37.3834318,-122.0152490
535,East Maude Avenue,94085,37.3864030,-122.0191494
1035,Indian Wells Avenue,94085,37.3872668,-121.9996191
1020,Delhi Terrace,94085,37.3863393,-122.0006787
1000,Delhi Terrace,94085,37.3862607,-122.0011186
1265,Lawrence Station Road,94089,37.4058562,-121.9961603
597,East El Camino Real,94087,37.3627220,-122.0250009
1255,Orleans Drive,94089,37.4078700,-122.0086424
385,East Weddell Drive,94089,37.3973726,-122.0183659
969,East Caribbean Drive,94089,37.4156375,-122.0000179
258,Carroll Street,94086,37.3741551,-122.0280043
1010,Sunnyvale-Saratoga Road,94087,37.3593713,-122.0316629
1010,Sunnyvale-Saratoga Road,94087,37.3594482,-122.0315818
100,Altair Way,94086,37.3778257,-122.0326295
1283,Sunnyvale-Saratoga Road,94087,37.3537746,-122.0335033
725,Vinemaple Terrace,94086,37.3631075,-121.9973574
709,Valonia Oak Terrace,94086,37.3636106,-121.9967185
709,Vinemaple Terrace,94086,37.3636358,-121.9973588
720,Toyon Avenue,94086,37.3632392,-121.9976283
704,Toyon Avenue,94086,37.3637664,-121.9976310
717,Vinemaple Terrace,94086,37.3633708,-121.9973601
712,Toyon Avenue,94086,37.3635030,-121.9976297
712,Valonia Oak Terrace,94086,37.3635848,-121.9963417
720,Vinemaple Terrace,94086,37.3632131,-121.9969847
700,Valonia Oak Terrace,94086,37.3639805,-121.9963422
704,Vinemaple Terrace,94086,37.3637411,-121.9969857
700,Toyon Avenue,94086,37.3638979,-121.9976056
700,Vinemaple Terrace,94086,37.3638739,-121.9969229
701,Valonia Oak Terrace,94086,37.3638761,-121.9966962
701,Vinemaple Terrace,94086,37.3639000,-121.9973107
708,Vinemaple Terrace,94086,37.3636075,-121.9969840
716,Valonia Oak Terrace,94086,37.3634534,-121.9963409
716,Toyon Avenue,94086,37.3633715,-121.9976298
713,Vinemaple Terrace,94086,37.3635040,-121.9973609
705,Valonia Oak Terrace,94086,37.3637437,-121.9967204
716,Vinemaple Terrace,94086,37.3633463,-121.9969840
704,Valonia Oak Terrace,94086,37.3638484,-121.9963435
740,Valonia Oak Terrace,94085,37.3626609,-121.9963396
724,Toyon Avenue,94086,37.3631054,-121.9976257
708,Toyon Avenue,94086,37.3636358,-121.9976271
721,Vinemaple Terrace,94086,37.3632403,-121.9973608
713,Valonia Oak Terrace,94086,37.3634784,-121.9967178
705,Vinemaple Terrace,94086,37.3637675,-121.9973616
712,Vinemaple Terrace,94086,37.3634774,-121.9969826
708,Valonia Oak Terrace,94086,37.3637162,-121.9963426
1436,Hampton Drive,94087,37.3473420,-122.0128900
824,San Aleso Avenue,94085,37.3966868,-122.0262003
858,East El Camino Real,94087,37.3549532,-122.0172592
830,East El Camino Real,94087,37.3550800,-122.0179976
1487,Barton Drive,94087,37.3452274,-122.0637318
225,Humboldt Court,94089,37.4084414,-122.0156432
227,Humboldt Court,94089,37.4079689,-122.0146813
340,North Pastoria Avenue,94085,37.3862576,-122.0348896
392,Potrero Avenue,94085,37.3880585,-122.0372732
520,Almanor Avenue,94085,37.3964765,-122.0295177
135,South Murphy Avenue,94086,37.3770956,-122.0303138
1265,Borregas Avenue,94089,37.4094203,-122.0195099
625,Palomar Avenue,94085,37.3935657,-122.0345956
600,North Mathilda Avenue,94085,37.3924425,-122.0290590
201,West California Avenue,94085,37.3824342,-122.0292003
865,West El Camino Real,94087,37.3710455,-122.0426494
1575,Tenaka Place,94087,37.3419772,-122.0357887
1100,North Mathilda Avenue,94089,37.4048098,-122.0248108
910,East Fremont Avenue,94087,37.3515565,-122.0136524
771,West Fremont Avenue,94087,37.3528809,-122.0443535
805,East El Camino Real,94087,37.3557950,-122.0167636
1220,North Fair Oaks Avenue,94089,37.4043637,-122.0090321
1220,North Fair Oaks Avenue,94089,37.4041643,-122.0080958
1300,Chesapeake Terrace,94089,37.4094512,-122.0022522
974,East Arques Avenue,94085,37.3794412,-122.0051094
750,Brahms Way,94087,37.3626165,-122.0284723
222,North Wolfe Road,94085,37.3791361,-122.0115247
280,North Wolfe Road,94085,37.3802484,-122.0112315
888,East Arques Avenue,94085,37.3801006,-122.0097969
605,Macara Avenue,94085,37.3983857,-122.0417245
545,Santa Real Avenue,94085,37.3864562,-122.0036907
940,West Weddell Drive,94089,37.3995591,-122.0256942
589,West Fremont Avenue,94087,37.3533507,-122.0375661
1130,Kifer Road,94086,37.3730228,-121.9988431
