House number,Street name,Postal code,Latitude,Longitude
40665,Winchester Road,92591,33.5288349,-117.1560970
31960,Highway 79,92592,33.4819738,-117.1000320
31938,Highway 79 South,92592,33.4808344,-117.1008401
31960,Temecula Parkway,92592,33.4821656,-117.1004202
31829,Highway 79 South,92592,33.4788066,-117.1012450
44260,Redhawk Parkway,92592,33.4800774,-117.1005854
40820,Winchester Road,92591,33.5256873,-117.1538753
40820,Winchester Road,92591,33.5271116,-117.1563212
44535,Bedford Court,92592-2552,33.4788535,-117.1385701
41955,5th Street,92590,33.4952195,-117.1502308
41911,5th Street,92590,33.4957367,-117.1496380
30571,Highway 79 South,92592,33.4753860,-117.1278690
31165,Temecula Parkway,92592,33.4755623,-117.1199500
27636,Ynez Road,92591,33.5050568,-117.1484824
29588,Rancho California Road,92591,33.5055516,-117.1471163
39560,Meadow View Circle,92591,33.5456385,-117.1213667
31245,Mangrove Avenue,92592,33.4716382,-117.1131394
31241,Mangrove Avenue,92592,33.4716551,-117.1132021
31332,Strawberry Tree Lane,92592,33.4727166,-117.1116107
31324,Strawberry Tree Lane,92592,33.4727777,-117.1117192
31249,Mangrove Avenue,92592,33.4716570,-117.1129990
31316,Strawberry Tree Lane,92592,33.4727906,-117.1117922
31237,Mangrove Avenue,92592,33.4716903,-117.1132588
31527,Enfield Ln,92591,33.5375972,-117.1086100
41593,Winchester Road,92590,33.5207011,-117.1663810
28410,Old Town Front Street,92590,33.4965886,-117.1511762
27450,Ynez Road,92591,33.5066965,-117.1496660
42072,5th St,92590,33.4942543,-117.1507690
43154,Via Dos Picos,92590,33.5049767,-117.1614482
43550,Corte Ayala,92591,33.4917466,-117.1039718
28710,Via Montezuma,92590,33.5099279,-117.1602780
26111,Ynez Road,92591,33.5286547,-117.1646979
27315,Jefferson Avenue,92590,33.5216223,-117.1665511
29121,Overland Drive,92591,33.5194577,-117.1535040
43397,Business Park Drive,92590,33.5015988,-117.1624282
32475,Temecula Parkway,92592,33.4815983,-117.0894483
29980,Temecula Parkway,92592,33.4797958,-117.1369430
31093,Temecula Parkway,92592,33.4751673,-117.1205795
31069,Temecula Parkway,92592,33.4750685,-117.1210977
40820,Winchester Road,92591-5525,33.5241559,-117.1525480
41530,Enterprise Circle South,92590,33.5200191,-117.1655806
42149,Zevo Drive,92590,33.5116116,-117.1788985
31525,Jedediah Smith Road,92592,33.4884153,-117.1097600
28069,Diaz Road,92590,33.5021835,-117.1575180
44605,Avenida De Missiones # 206,92592,33.4766553,-117.1120640
41593,Winchester Road,92590,33.5206678,-117.1661796
27453,Jefferson Avenue,92590,33.5179934,-117.1639981
41615,Winchester Road,92590,33.5201423,-117.1669393
31867,Rancho California Road,92591,33.5138724,-117.1025875
30515,Temecula Parkway,92592,33.4750998,-117.1293231
28544,Old Town Front Street,92590,33.4949193,-117.1502060
40710,Winchester Road,92591,33.5263494,-117.1531122
26440,Ynez Road,92591,33.5241214,-117.1589010
26550,Ynez Road,92591,33.5226796,-117.1572825
43537,Ridge Park Drive,92590,33.4955702,-117.1601609
40460,Winchester Road,92591,33.5274347,-117.1513720
40436,Winchester Road,92591,33.5296294,-117.1511020
40432,Winchester Road,92591,33.5297460,-117.1512100
31625,De Portola Road,92592,33.4833040,-117.1045822
26580,Ynez Road,92591,33.5224380,-117.1567360
31045,Temecula Parkway #201,92592,33.4749128,-117.1222429
43191,Rancho Way,92590,33.5036737,-117.1607508
43015,Black Deer Loop #201,92590,33.5123719,-117.1661083
41115,Winchester Road,92591,33.5247587,-117.1606914
27570,Commerce Center Drive,92590,33.5141003,-117.1611853
31560,Rancho Pueblo Road,92592,33.4801727,-117.1095023
32130,Temecula Parkway,92592,33.4829430,-117.0968201
28400,Rancho California Road,92590,33.4983885,-117.1599209
43920,Margarita Road,92592,33.4854577,-117.1029815
27555,Ynez Road,92591,33.5028861,-117.1506339
43537,Ridge Park Drive,92590,33.4955976,-117.1602169
27349,Jefferson Avenue,92590,33.5192802,-117.1649642
41715 Ste 206,Winchester Road,92590,33.5187544,-117.1683680
39738,Winchester Road,92591,33.5389672,-117.1421742
39738,Winchester Road,92591,33.5390776,-117.1421447
39804,Winchester Road,92591,33.5400562,-117.1429668
29738,Rancho California Road,92591,33.5063631,-117.1440824
27715,Jefferson Avenue,92590,33.5124458,-117.1597116
42240,Camino Romo,92592,33.5091910,-117.0993803
40465,Winchester Road,92591,33.5309149,-117.1519804
40570,Winchester Road,92591,33.5280224,-117.1549440
40825,Winchester Road,92591,33.5273443,-117.1573080
40486,Winchester Road,92591,33.5290521,-117.1535351
26440,Ynez Road,92591,33.5240086,-117.1588694
41005,Winchester Road,92591,33.5251012,-117.1603025
26610,Ynez Road,92591-4697,33.5213203,-117.1542296
40390,Winchester Road,92591,33.5309029,-117.1489869
41269 C,Margarita Road,92591,33.5240622,-117.1498850
30660,Rancho California Road,92591,33.5086088,-117.1255426
30534,Rancho California Road,92591-3277,33.5089174,-117.1277078
30580,Rancho California Road,92591,33.5086781,-117.1268800
44239,Margarita Road,92592,33.4806328,-117.1021787
31677,Highway 79 South,92592,33.4792364,-117.1039283
31853,Highway 79 South,92592,33.4794739,-117.1028729
32225,Temecula Parkway,92592,33.4801248,-117.0945378
28645,Old Town Front Street,92530-2703,33.4933972,-117.1491103
28636,Old Town Front Street,92590,33.4936673,-117.1487786
28718,Front Street,92590,33.4920085,-117.1465598
28360,Old Town Front Street,92590,33.4970160,-117.1523456
30777,Rancho California Road,92591,33.5071781,-117.1235895
32055,Temecula Parkway,92592,33.4802195,-117.0999867
32085,Temecula Parkway,92592,33.4787327,-117.0989807
32020,Temecula Parkway,92592,33.4828900,-117.0985616
33385,State Highway 79 South,92592,33.4856985,-117.0764539
29105,Old Town Front Street,92590,33.4819357,-117.1437681
31700,Temecula Parkway,92592,33.4810960,-117.1066934
32110,State Highway 79 South,92592-6801,33.4817905,-117.0971675
41195,Winchester Road,92591,33.5239753,-117.1618179
26705,Ynez Road,92591,33.5145905,-117.1559827
26755,Ynez Road,92591,33.5139027,-117.1559494
33145,Temecula Parkway,92592,33.4843053,-117.0798201
33125,Temecula Parkway,92592,33.4852210,-117.0808003
32937,Temecula Parkway,92592,33.4840947,-117.0810197
44935,Nighthawk Pass,92592,33.4740689,-117.0755503
29345,Rancho California Road,92591,33.5014078,-117.1490964
27691,Ynez Road,92591,33.5034543,-117.1495501
42100,Main Street,92590,33.4927395,-117.1493171
27702,Jefferson Avenue,92590,33.5145379,-117.1587253
27706,Jefferson Avenue,92590,33.5139197,-117.1585027
27672,Jefferson Avenue,92590,33.5153250,-117.1592456
27700,Jefferson Avenue,92590,33.5149985,-117.1589537
27660,Jefferson Avenue,92590,33.5160562,-117.1596211
27443,Jefferson Avenue,92590,33.5181500,-117.1641665
44515,Bedford Court,92592,33.4793267,-117.1390199
41770,Margarita Road,92591,33.5149468,-117.1478183
32650,Avenida Lestonnac,92592,33.5173895,-117.0901607
28069,Diaz Road,92590,33.4999086,-117.1579710
32413,Highway 79,92592,33.4805811,-117.0925295
42101,Moraga Road,92591,33.5086882,-117.1414873
31867,Rancho California Road,92591,33.5134613,-117.1023871
41793,Nicole Lane,92591,33.5195910,-117.1538412
30679,Temecula Parkway,92592,33.4758451,-117.1244182
30697,Temecula Parkway,92592,33.4758842,-117.1236684
27560,Ynez Road,92591,33.5057820,-117.1484488
28210,Jefferson Avenue,92590,33.5021049,-117.1541470
28190,Jefferson Avenue,92590,33.5005747,-117.1533203
28220,Jefferson Avenue,92590,33.5023064,-117.1531392
28100,Jefferson Avenue,92590,33.5039514,-117.1536388
45738,Classic Way,92592,33.4664025,-117.1188570
41680,Enterprise Circle South,92590,33.5178406,-117.1657036
43136,Rancho Way,92590,33.5032328,-117.1599432
41687,Temeku Drive,92591,33.5148180,-117.1168166
31813,Temecula Parkway,92592,33.4783244,-117.1015101
32225,Hwy79 South,92592,33.4807237,-117.0939912
32225,Temecula Parkway,92592,33.4801997,-117.0943595
33195,Highway 79 South,92592,33.4847979,-117.0788467
29676,Rancho California Road,92591-5283,33.5068591,-117.1459364
27540,Ynez Road,92591,33.5060975,-117.1471135
31725,Temecula Parkway,92592,33.4784347,-117.1038578
31725,Temecula Parkway,92592,33.4785625,-117.1039495
32195,Highway 79,92592,33.4808697,-117.0968972
43940,Pacific Sunset Drive,92592,33.4873283,-117.0700431
32120,Highway 79 South,92592,33.4829144,-117.0973327
29530,Rancho California Road,92591,33.5052095,-117.1479007
32155,Temecula Parkway,92592,33.4793869,-117.0967961
32655,Temecula Pkwy,92592,33.4826460,-117.0866243
32785,Temecula Parkway,92592,33.4830586,-117.0853869
32413,Highway 79 South,92592,33.4808551,-117.0917949
32240,Highway 79 South,92592,33.4823329,-117.0947681
31560,Rancho Pueblo Rd,92592,33.4801455,-117.1093694
40474,Winchester Road,92591,33.5282705,-117.1527358
40426,Winchester Road,92591,33.5300146,-117.1515370
40444,Winchester Road,92591,33.5290579,-117.1504841
42690,Margarita Road,92592,33.5039279,-117.1216073
32195,Temecula Parkway,92592,33.4811336,-117.0969854
32195,Temecula Parkway,92592,33.4810627,-117.0969597
27416,Jefferson Avenue,92589,33.5209829,-117.1635318
40531,Margarita Road,92591,33.5265518,-117.1494946
32965,Temecula Parkway,92592,33.4850594,-117.0810342
43352,Business Park Drive,92590,33.5004920,-117.1634901
40140,Village Road,92591,33.5379928,-117.1522901
27411,Ynez Road,92591,33.5056657,-117.1524645
27471,Ynez Road,92591-4612,33.5053204,-117.1522573
42050,DLR Drive,92591,33.5102402,-117.1518510
30530,Rancho California Road,92591,33.5101411,-117.1272110
39606,Winchester Road,92591,33.5413623,-117.1424899
32848,Wolf Store Road,92592,33.4843031,-117.0827048
32844,Wolf Store Road,92592,33.4841341,-117.0826356
32836,Wolf Store Road,92592,33.4838742,-117.0825478
27410,Jefferson Avenue,92590,33.5209647,-117.1644847
40412,Winchester Road,92591,33.5382378,-117.1443395
26799,Ynez Road,92591,33.5132086,-117.1559516
39848,Winchester Road,92591,33.5409251,-117.1436433
42345,Avenida Alvarado,92590,33.5092557,-117.1705885
27338,Jefferson Avenue,92590,33.5233333,-117.1652136
30998,Greensboro Drive,92592,33.4669749,-117.1196911
45660,Palmetto Way,92592,33.4667472,-117.1198210
45680,Palmetto Way,92592,33.4665029,-117.1200116
45700,Palmetto Way,92592,33.4662907,-117.1202411
45720,Palmetto Way,92592,33.4660304,-117.1204412
45740,Palmetto Way,92592,33.4658425,-117.1205737
45760,Palmetto Way,92592,33.4655100,-117.1208662
45780,Palmetto Way,92592,33.4654899,-117.1211556
45771,Palmetto Way,92592,33.4659993,-117.1211200
45781,Palmetto Way,92592,33.4660579,-117.1213399
30951,Sawgrass Court,92592,33.4662429,-117.1208950
30945,Sawgrass Court,92592,33.4664390,-117.1211608
30930,Sawgrass Court,92592,33.4666815,-117.1211334
30946,Sawgrass Court,92592,33.4667974,-117.1208180
30960,Sawgrass Court,92592,33.4667079,-117.1205645
30973,Greensboro Drive,92592,33.4669442,-117.1203211
30957,Greensboro Drive,92592,33.4670448,-117.1205225
30947,Greensboro Drive,92592,33.4671734,-117.1206623
30986,Greensboro Drive,92592,33.4671485,-117.1198079
30974,Greensboro Drive,92592,33.4672701,-117.1199625
30958,Greensboro Drive,92592,33.4673743,-117.1201605
30948,Greensboro Drive,92592,33.4674839,-117.1203182
30932,Greensboro Drive,92592,33.4675918,-117.1204885
30920,Greensboro Drive,92592,33.4677029,-117.1206327
45630,Muirfield Drive,92592,33.4673609,-117.1209128
45644,Muirfield Drive,92592,33.4672293,-117.1210344
45656,Muirfield Drive,92592,33.4670928,-117.1211448
45664,Muirfield Drive,92592,33.4670057,-117.1213441
45670,Muirfield Drive,92592,33.4668325,-117.1215031
45680,Muirfield Drive,92592,33.4667336,-117.1216926
45690,Muirfield Drive,92592,33.4666847,-117.1218810
45850,Clubhouse Drive,92592,33.4663511,-117.1217599
45866,Clubhouse Drive,92592,33.4661062,-117.1217138
45890,Clubhouse Drive,92592,33.4656594,-117.1216792
45910,Clubhouse Drive,92592,33.4652632,-117.1215761
45928,Clubhouse Drive,92592,33.4649623,-117.1215822
45946,Clubhouse Drive,92592,33.4646985,-117.1215907
45960,Clubhouse Drive,92592,33.4645224,-117.1216398
45901,Classic Way,92592,33.4643423,-117.1211083
45881,Classic Way,92592,33.4645224,-117.1209690
45861,Classic Way,92592,33.4648332,-117.1207975
45841,Classic Way,92592,33.4651006,-117.1205706
45821,Classic Way,92592,33.4653897,-117.1204093
45801,Classic Way,92592,33.4656810,-117.1201296
45787,Classic Way,92592,33.4659676,-117.1199122
45771,Classic Way,92592,33.4662222,-117.1196724
45749,Classic Way,92592,33.4664734,-117.1194510
45737,Classic Way,92592,33.4667406,-117.1192085
27540,Ynez Road,92591,33.5060475,-117.1476027
29655,Rancho California Road,92591-5284,33.5061608,-117.1421096
44727,Johnston Drive,92592,33.4774993,-117.0777998
44719,Johnston Drive,92592,33.4776204,-117.0776306
44711,Johnston Drive,92592,33.4777273,-117.0774986
44703,Johnston Drive,92592,33.4778490,-117.0773421
44695,Johnston Drive,92592,33.4779185,-117.0772113
44701,Corte Gutierrez,92592,33.4769953,-117.0774841
44710,Corte Gutierrez,92592,33.4770855,-117.0768919
44704,Corte Gutierrez,92592,33.4772108,-117.0770200
44698,Corte Gutierrez,92592,33.4773186,-117.0771357
44692,Corte Gutierrez,92592,33.4774198,-117.0772250
44838,Longfellow Avenue,92592,33.4752924,-117.0725100
44849,Longfellow Avenue,92592,33.4753170,-117.0730875
44857,Longfellow Avenue,92592,33.4751770,-117.0731908
44865,Longfellow Avenue,92592,33.4750476,-117.0732519
44873,Longfellow Avenue,92592,33.4748743,-117.0733294
44881,Longfellow Avenue,92592,33.4747221,-117.0734024
44501,Rainbow Canyon Rd,92592,33.4672405,-117.1317199
43244,Rancho Way,92590,33.5027406,-117.1603473
40474,Yardley Ct,92591,33.5355201,-117.1123182
41888,Motor Car Parkway,92591,33.5170876,-117.1518983
29920,Temecula Parkway,92592,33.4805438,-117.1376544
30010,Temecula Parkway,92592,33.4790620,-117.1364224
29980,Temecula Parkway,92592,33.4794504,-117.1370330
31845,Temecula Parkway,92592-2871,33.4796189,-117.1020481
43920,Butterfield Stage Road,92592,33.4844929,-117.0771769
41544,Margarita Road,92591,33.5178297,-117.1502758
41554,Margarita Road,92591,33.5182271,-117.1503762
41564,Margarita Road,92591,33.5185551,-117.1497932
41574,Margarita Road,92591,33.5188970,-117.1498293
41584,Margarita Road,92591,33.5187387,-117.1504528
41594,Margarita Road,92591,33.5194287,-117.1499247
41604,Margarita Road,92591,33.5195678,-117.1505101
41614,Margarita Road,92591,33.5200853,-117.1505244
41624,Margarita Road,92591,33.5200491,-117.1499728
41634,Margarita Road,92591,33.5202472,-117.1495292
41644,Margarita Road,92591,33.5197519,-117.1494720
41654,Margarita Road,92591,33.5194565,-117.1493526
41664,Margarita Road,92591,33.5190475,-117.1490803
41674,Margarita Road,92591,33.5187282,-117.1490886
41684,Margarita Road,92591,33.5182670,-117.1489074
41694,Margarita Road,92591,33.5179734,-117.1488083
41704,Margarita Road,92591,33.5175150,-117.1484761
41714,Margarita Road,92591,33.5172300,-117.1490105
41624,Margarita Road,92591,33.5169275,-117.1495930
41634,Margarita Road,92591,33.5176028,-117.1493927
41744,Margarita Road,92591,33.5172567,-117.1499390
416754,Margarita Road,92591,33.5178679,-117.1496710
41745,Brandeis Court,92591,33.5213663,-117.1502986
41755,Brandeis Court,92591,33.5212346,-117.1503641
41735,Brandeis Court,92591,33.5215547,-117.1502758
41765,Brandeis Court,92591,33.5210908,-117.1504801
41740,Brandeis Court,92591,33.5215179,-117.1497302
41750,Brandeis Court,92591,33.5213465,-117.1497490
41760,Brandeis Court,92591,33.5211932,-117.1497666
41770,Brandeis Court,92591,33.5210141,-117.1497585
41780,Brandeis Court,92591,33.5207846,-117.1498149
41788,Brandeis Court,92591,33.5207376,-117.1500454
41775,Brandeis Court,92591,33.5208929,-117.1504987
41781,Brandeis Court,92591,33.5207810,-117.1502564
29426,Georgetown Lane,92591,33.5219685,-117.1502412
29436,Georgetown Lane,92591,33.5219241,-117.1500453
29448,Georgetown Lane,92591,33.5219537,-117.1497327
29462,Georgetown Lane,92591,33.5220378,-117.1495277
29472,Georgetown Lane,92591,33.5221367,-117.1493715
29482,Georgetown Lane,92591,33.5222200,-117.1491985
29492,Georgetown Lane,92591,33.5222989,-117.1490369
29512,Georgetown Lane,92591,33.5224876,-117.1487068
29513,Georgetown Lane,92591,33.5220361,-117.1484856
29523,Georgetown Lane,92591,33.5220774,-117.1482035
29477,Georgetown Lane,92591,33.5217760,-117.1490138
29487,Georgetown Lane,92591,33.5218607,-117.1488425
29497,Georgetown Lane,92591,33.5219590,-117.1486730
29533,Georgetown Lane,92591,33.5222314,-117.1480437
29532,Georgetown Lane,92591,33.5226284,-117.1483013
29538,Georgetown Lane,92591,33.5224855,-117.1480651
29522,Georgetown Lane,92591,33.5225784,-117.1485313
29502,Georgetown Lane,92591,33.5223976,-117.1488687
32423,Sommers Bend,92591,33.5456749,-117.0903543
32101,Sommers Bend,92591,33.5445555,-117.0991325
33964,Lydia Ct,92592,33.4813447,-117.0657231
33976,Lydia Ct,92592,33.4814286,-117.0655436
33988,Lydia Ct,92592,33.4815224,-117.0653909
34000,Lydia Ct,92592,33.4815967,-117.0651883
34012,Lydia Ct,92592,33.4816487,-117.0649848
34024,Lydia Ct,92592,33.4816788,-117.0647848
34036,Lydia Ct,92592,33.4817228,-117.0645957
34048,Lydia Ct,92592,33.4817618,-117.0643455
34060,Lydia Ct,92592,33.4815971,-117.0641509
33955,Abbey Rd,92592,33.4816619,-117.0660833
33967,Abbey Rd,92592,33.4817554,-117.0659189
33979,Abbey Rd,92592,33.4818547,-117.0657600
33991,Abbey Rd,92592,33.4819478,-117.0655781
34003,Abbey Rd,92592,33.4820115,-117.0653846
34015,Abbey Rd,92592,33.4820681,-117.0651987
34027,Abbey Rd,92592,33.4821155,-117.0650122
34039,Abbey Rd,92592,33.4821587,-117.0648212
34051,Abbey Rd,92592,33.4821624,-117.0646197
34063,Abbey Rd,92592,33.4822505,-117.0644252
34075,Abbey Rd,92592,33.4825195,-117.0643911
33986,Abbey Rd,92592,33.4823392,-117.0659013
33998,Abbey Rd,92592,33.4823991,-117.0657125
34010,Abbey Rd,92592,33.4824565,-117.0655215
34022,Abbey Rd,92592,33.4825216,-117.0653435
34034,Abbey Rd,92592,33.4825538,-117.0651476
34046,Abbey Rd,92592,33.4826275,-117.0649724
34058,Abbey Rd,92592,33.4827009,-117.0647885
34070,Abbey Rd,92592,33.4826939,-117.0645191
44356,Nighthawk Pass,92592,33.4829333,-117.0660039
44350,Nighthawk Pass,92592,33.4830033,-117.0658275
44344,Nighthawk Pass,92592,33.4830737,-117.0656410
44338,Nighthawk Pass,92592,33.4831466,-117.0654726
44332,Nighthawk Pass,92592,33.4832032,-117.0652802
44326,Nighthawk Pass,92592,33.4832488,-117.0651032
44320,Nighthawk Pass,92592,33.4832929,-117.0649068
44314,Nighthawk Pass,92592,33.4833193,-117.0647223
44308,Nighthawk Pass,92592,33.4833860,-117.0645328
33933,Lydia Court,92592,33.4813946,-117.0665068
33945,Lydia Court,92592,33.4812539,-117.0663462
33957,Lydia Court,92592,33.4811064,-117.0661988
33969,Lydia Court,92592,33.4809337,-117.0660846
33981,Lydia Court,92592,33.4808108,-117.0659357
44466,Leona Court,92592,33.4811529,-117.0668349
44478,Leona Court,92592,33.4810469,-117.0667032
44490,Leona Court,92592,33.4809383,-117.0665856
44502,Leona Court,92592,33.4808192,-117.0664857
44514,Leona Court,92592,33.4807040,-117.0663670
44526,Leona Court,92592,33.4805783,-117.0662559
44495,Leona Court,92592,33.4806594,-117.0670063
44507,Leona Court,92592,33.4805272,-117.0669520
44519,Leona Court,92592,33.4804026,-117.0668760
33823,Abbey Rd,92592,33.4806142,-117.0677156
33847,Abbey Rd,92592,33.4806960,-117.0675145
33859,Abbey Rd,92592,33.4807924,-117.0673386
33871,Abbey Rd,92592,33.4809022,-117.0671647
44528,Love Ct,92592,33.4804298,-117.0674217
44540,Love Ct,92592,33.4802653,-117.0672848
44509,Love Ct,92592,33.4803883,-117.0681941
44521,Love Ct,92592,33.4802664,-117.0680605
44533,Love Ct,92592,33.4801144,-117.0679650
44545,Love Ct,92592,33.4799759,-117.0678600
33511,Abbey Rd,92592,33.4776631,-117.0701467
33523,Abbey Rd,92592,33.4777804,-117.0700537
33535,Abbey Rd,92592,33.4779286,-117.0699989
33547,Abbey Rd,92592,33.4780529,-117.0699064
33559,Abbey Rd,92592,33.4781762,-117.0698194
33571,Abbey Rd,92592,33.4782930,-117.0697281
33583,Abbey Rd,92592,33.4784290,-117.0696666
33595,Abbey Rd,92592,33.4785620,-117.0695955
33607,Abbey Rd,92592,33.4787377,-117.0695224
33619,Abbey Rd,92592,33.4788747,-117.0694500
33631,Abbey Rd,92592,33.4790011,-117.0693952
33643,Abbey Rd,92592,33.4791418,-117.0693486
33655,Abbey Rd,92592,33.4792793,-117.0692843
33667,Abbey Rd,92592,33.4794126,-117.0692024
33679,Abbey Rd,92592,33.4795618,-117.0691330
33691,Abbey Rd,92592,33.4797014,-117.0690491
33715,Abbey Rd,92592,33.4798426,-117.0689365
33727,Abbey Rd,92592,33.4800053,-117.0687832
33751,Abbey Rd,92592,33.4801185,-117.0686370
33763,Abbey Rd,92592,33.4802376,-117.0684988
33506,Abbey Rd,92592,33.4780032,-117.0706304
33518,Abbey Rd,92592,33.4781503,-117.0705317
33530,Abbey Rd,92592,33.4782783,-117.0703875
33554,Abbey Rd,92592,33.4784402,-117.0702682
33578,Abbey Rd,92592,33.4785880,-117.0702037
33590,Abbey Rd,92592,33.4787331,-117.0701106
33602,Abbey Rd,92592,33.4788899,-117.0700394
33614,Abbey Rd,92592,33.4790082,-117.0699566
33626,Abbey Rd,92592,33.4791411,-117.0699207
33638,Abbey Rd,92592,33.4792701,-117.0698484
33650,Abbey Rd,92592,33.4794072,-117.0698119
33662,Abbey Rd,92592,33.4795299,-117.0697394
33674,Abbey Rd,92592,33.4796615,-117.0696852
33686,Abbey Rd,92592,33.4797893,-117.0695898
33698,Abbey Rd,92592,33.4799238,-117.0695288
33710,Abbey Rd,92592,33.4800350,-117.0694114
33722,Abbey Rd,92592,33.4801568,-117.0693171
33734,Abbey Rd,92592,33.4802670,-117.0691917
33746,Abbey Rd,92592,33.4803842,-117.0690949
33770,Abbey Rd,92592,33.4806094,-117.0687548
33782,Abbey Rd,92592,33.4806928,-117.0686026
33794,Abbey Rd,92592,33.4807808,-117.0684533
33806,Abbey Rd,92592,33.4808584,-117.0682950
33818,Abbey Rd,92592,33.4809334,-117.0681477
33830,Abbey Rd,92592,33.4810064,-117.0679990
33842,Abbey Rd,92592,33.4810755,-117.0678441
33854,Abbey Rd,92592,33.4811581,-117.0677024
33866,Abbey Rd,92592,33.4812252,-117.0675486
33878,Abbey Rd,92592,33.4813157,-117.0673899
33890,Abbey Rd,92592,33.4814251,-117.0672089
33902,Abbey Rd,92592,33.4815378,-117.0670566
33914,Abbey Rd,92592,33.4816637,-117.0669309
33926,Abbey Rd,92592,33.4817631,-117.0667640
33938,Abbey Rd,92592,33.4818738,-117.0666052
33950,Abbey Rd,92592,33.4819786,-117.0664592
33962,Abbey Rd,92592,33.4820827,-117.0663184
44374,Nighthawk Pass,92592,33.4824951,-117.0667002
44380,Nighthawk Pass,92592,33.4823859,-117.0668682
44386,Nighthawk Pass,92592,33.4822833,-117.0670280
44392,Nighthawk Pass,92592,33.4821819,-117.0671872
44398,Nighthawk Pass,92592,33.4820817,-117.0673522
44404,Nighthawk Pass,92592,33.4819950,-117.0675011
44410,Nighthawk Pass,92592,33.4818924,-117.0676706
44416,Nighthawk Pass,92592,33.4817977,-117.0678297
44422,Nighthawk Pass,92592,33.4816920,-117.0679866
44428,Nighthawk Pass,92592,33.4816066,-117.0681407
44434,Nighthawk Pass,92592,33.4814957,-117.0683123
44440,Nighthawk Pass,92592,33.4814173,-117.0684744
44446,Nighthawk Pass,92592,33.4813065,-117.0686202
44452,Nighthawk Pass,92592,33.4812101,-117.0687909
44458,Nighthawk Pass,92592,33.4811182,-117.0689368
44464,Nighthawk Pass,92592,33.4810155,-117.0691182
44375,Katie Court,92592,33.4821061,-117.0697459
44387,Katie Court,92592,33.4819544,-117.0696646
44399,Katie Court,92592,33.4817884,-117.0696040
44411,Katie Court,92592,33.4816336,-117.0694996
44423,Katie Court,92592,33.4814788,-117.0693720
44435,Katie Court,92592,33.4813219,-117.0692436
44378,Katie Court,92592,33.4821315,-117.0691383
44402,Katie Court,92592,33.4819239,-117.0690410
44414,Katie Court,92592,33.4818085,-117.0688697
44426,Katie Court,92592,33.4816612,-117.0687305
44413,Short Court,92592,33.4818878,-117.0684573
44401,Short Court,92592,33.4820273,-117.0685759
44389,Short Court,92592,33.4821840,-117.0686680
44394,Short Court,92592,33.4823966,-117.0681184
44406,Short Court,92592,33.4822208,-117.0679584
33811,Channel Street,92592,33.4825007,-117.0678574
33823,Channel Street,92592,33.4825728,-117.0676869
33835,Channel Street,92592,33.4826393,-117.0675081
33847,Channel Street,92592,33.4826865,-117.0673048
33674,Channel Street,92592,33.4823389,-117.0702796
33686,Channel Street,92592,33.4824127,-117.0700972
33698,Channel Street,92592,33.4824914,-117.0699187
33710,Channel Street,92592,33.4825543,-117.0697006
33722,Channel Street,92592,33.4825802,-117.0695166
33734,Channel Street,92592,33.4825912,-117.0693036
33746,Channel Street,92592,33.4825752,-117.0691080
33758,Channel Street,92592,33.4825983,-117.0689000
33770,Channel Street,92592,33.4826519,-117.0686950
33782,Channel Street,92592,33.4827211,-117.0685131
33794,Channel Street,92592,33.4828184,-117.0683406
33806,Channel Street,92592,33.4828896,-117.0681582
33818,Channel Street,92592,33.4829633,-117.0679848
33830,Channel Street,92592,33.4830275,-117.0677953
33842,Channel Street,92592,33.4830950,-117.0676079
33854,Channel Street,92592,33.4831332,-117.0673943
33866,Channel Street,92592,33.4831482,-117.0671842
33878,Channel Street,92592,33.4831298,-117.0669771
33890,Channel Street,92592,33.4830661,-117.0667575
33902,Channel Street,92592,33.4829726,-117.0665751
33914,Channel Street,92592,33.4828842,-117.0664113
33926,Channel Street,92592,33.4827345,-117.0662720
44453,Chaote Street,92592,33.4806883,-117.0694903
44441,Chaote Street,92592,33.4808166,-117.0696048
44429,Chaote Street,92592,33.4809437,-117.0697114
44417,Chaote Street,92592,33.4810761,-117.0697938
44405,Chaote Street,92592,33.4811868,-117.0698697
44393,Chaote Street,92592,33.4814761,-117.0700580
44381,Chaote Street,92592,33.4816172,-117.0701456
44369,Chaote Street,92592,33.4817421,-117.0702357
44357,Chaote Street,92592,33.4818599,-117.0703160
44352,Kingston Drive,92592,33.4815485,-117.0713315
44358,Kingston Drive,92592,33.4815544,-117.0711717
44364,Kingston Drive,92592,33.4815611,-117.0710014
44370,Kingston Drive,92592,33.4816140,-117.0708202
44376,Kingston Drive,92592,33.4816133,-117.0706079
44382,Kingston Drive,92592,33.4814867,-117.0704482
44388,Kingston Drive,92592,33.4813513,-117.0703741
44400,Kingston Drive,92592,33.4810477,-117.0701992
44406,Kingston Drive,92592,33.4809336,-117.0701243
44412,Kingston Drive,92592,33.4808204,-117.0700318
44418,Kingston Drive,92592,33.4806869,-117.0699375
44424,Kingston Drive,92592,33.4805300,-117.0698876
44430,Kingston Drive,92592,33.4803900,-117.0700111
44436,Kingston Drive,92592,33.4802630,-117.0700891
44442,Kingston Drive,92592,33.4801494,-117.0701804
44448,Kingston Drive,92592,33.4800225,-117.0702552
44454,Kingston Drive,92592,33.4799123,-117.0703410
44460,Kingston Drive,92592,33.4797763,-117.0703884
44466,Kingston Drive,92592,33.4796585,-117.0704731
44472,Kingston Drive,92592,33.4795337,-117.0705406
44478,Kingston Drive,92592,33.4794058,-117.0706020
44484,Kingston Drive,92592,33.4792773,-117.0706684
44490,Kingston Drive,92592,33.4791495,-117.0707347
44496,Kingston Drive,92592,33.4790307,-117.0708144
44502,Kingston Drive,92592,33.4789047,-117.0708966
44508,Kingston Drive,92592,33.4787735,-117.0710558
44514,Kingston Drive,92592,33.4787525,-117.0712579
44520,Kingston Drive,92592,33.4788456,-117.0714519
44526,Kingston Drive,92592,33.4789361,-117.0715760
44532,Kingston Drive,92592,33.4790267,-117.0716996
44538,Kingston Drive,92592,33.4790875,-117.0718504
44544,Kingston Drive,92592,33.4791424,-117.0720063
44550,Kingston Drive,92592,33.4792254,-117.0721263
44556,Kingston Drive,92592,33.4793704,-117.0722083
44349,Kingston Drive,92592,33.4810735,-117.0713548
44355,Kingston Drive,92592,33.4810936,-117.0711905
44361,Kingston Drive,92592,33.4811041,-117.0710226
44367,Kingston Drive,92592,33.4811246,-117.0708557
44397,Kingston Drive,92592,33.4809377,-117.0707547
44403,Kingston Drive,92592,33.4808211,-117.0706698
44409,Kingston Drive,92592,33.4806912,-117.0705964
44415,Kingston Drive,92592,33.4805759,-117.0705180
44439,Kingston Drive,92592,33.4803662,-117.0706479
44469,Kingston Drive,92592,33.4797914,-117.0709848
44475,Kingston Drive,92592,33.4796648,-117.0710526
44481,Kingston Drive,92592,33.4795363,-117.0711226
44487,Kingston Drive,92592,33.4793907,-117.0711999
44493,Kingston Drive,92592,33.4792783,-117.0712869
44535,Kingston Drive,92592,33.4794503,-117.0714630
44541,Kingston Drive,92592,33.4795560,-117.0715787
44547,Kingston Drive,92592,33.4796390,-117.0717039
44553,Kingston Drive,92592,33.4796654,-117.0718741
44420,Penbrook Lane,92592,33.4808888,-117.0712944
44432,Penbrook Lane,92592,33.4807437,-117.0712761
44456,Penbrook Lane,92592,33.4805878,-117.0712232
44468,Penbrook Lane,92592,33.4804462,-117.0711313
44492,Penbrook Lane,92592,33.4803199,-117.0710126
44516,Penbrook Lane,92592,33.4802102,-117.0708599
44528,Penbrook Lane,92592,33.4801412,-117.0707169
44353,Penbrook Lane,92592,33.4816063,-117.0718293
44365,Penbrook Lane,92592,33.4814824,-117.0718305
44377,Penbrook Lane,92592,33.4813408,-117.0718342
44389,Penbrook Lane,92592,33.4812073,-117.0718329
44401,Penbrook Lane,92592,33.4810666,-117.0718375
44413,Penbrook Lane,92592,33.4809349,-117.0718330
44425,Penbrook Lane,92592,33.4807862,-117.0718350
44437,Penbrook Lane,92592,33.4806399,-117.0718099
44449,Penbrook Lane,92592,33.4804953,-117.0717657
44461,Penbrook Lane,92592,33.4803560,-117.0717019
44473,Penbrook Lane,92592,33.4802186,-117.0716370
44485,Penbrook Lane,92592,33.4801058,-117.0715235
44497,Penbrook Lane,92592,33.4799846,-117.0714038
44509,Penbrook Lane,92592,33.4798971,-117.0712661
44498,Dorchester Drive,92592,33.4799867,-117.0724499
44486,Dorchester Drive,92592,33.4800627,-117.0722984
44474,Dorchester Drive,92592,33.4802613,-117.0722052
44462,Dorchester Drive,92592,33.4804005,-117.0721891
44450,Dorchester Drive,92592,33.4805369,-117.0721866
44438,Dorchester Drive,92592,33.4806802,-117.0721866
44426,Dorchester Drive,92592,33.4808207,-117.0721901
44414,Dorchester Drive,92592,33.4809573,-117.0721856
44402,Dorchester Drive,92592,33.4810995,-117.0722002
44390,Dorchester Drive,92592,33.4812362,-117.0722107
44378,Dorchester Drive,92592,33.4813737,-117.0722152
44366,Dorchester Drive,92592,33.4815150,-117.0722002
44354,Dorchester Drive,92592,33.4816433,-117.0721806
33265,Manchester Road,92592,33.4811781,-117.0747525
33279,Manchester Road,92592,33.4810803,-117.0746302
33293,Manchester Road,92592,33.4809840,-117.0745305
33307,Manchester Road,92592,33.4808880,-117.0743897
33321,Manchester Road,92592,33.4807989,-117.0742614
33335,Manchester Road,92592,33.4807187,-117.0741326
33349,Manchester Road,92592,33.4806304,-117.0739827
33363,Manchester Road,92592,33.4805514,-117.0738419
33377,Manchester Road,92592,33.4804900,-117.0736915
33391,Manchester Road,92592,33.4804173,-117.0735522
33405,Manchester Road,92592,33.4803437,-117.0734013
33419,Manchester Road,92592,33.4802743,-117.0732685
33433,Manchester Road,92592,33.4801902,-117.0731306
33447,Manchester Road,92592,33.4801208,-117.0729918
33461,Manchester Road,92592,33.4800130,-117.0728561
33475,Manchester Road,92592,33.4799574,-117.0726896
33384,Manchester Road,92592,33.4808672,-117.0733838
33398,Manchester Road,92592,33.4808011,-117.0732366
33412,Manchester Road,92592,33.4807231,-117.0730998
33426,Manchester Road,92592,33.4806451,-117.0729630
33440,Manchester Road,92592,33.4805729,-117.0728275
33454,Manchester Road,92592,33.4805046,-117.0726997
44395,Dorchester Drive,92592,33.4812161,-117.0727592
44407,Dorchester Drive,92592,33.4810820,-117.0727457
44419,Dorchester Drive,92592,33.4809488,-117.0727428
44431,Dorchester Drive,92592,33.4808093,-117.0727380
33359,Scarborough Lane,92592,33.4809517,-117.0736811
33373,Scarborough Lane,92592,33.4811026,-117.0735174
33415,Scarborough Lane,92592,33.4811275,-117.0733219
33429,Scarborough Lane,92592,33.4811441,-117.0731687
33443,Scarborough Lane,92592,33.4811480,-117.0730026
33300,Manchester Road,92592,33.4812423,-117.0740391
33286,Manchester Road,92592,33.4813259,-117.0741464
33272,Manchester Road,92592,33.4814279,-117.0742639
33380,Scarborough Lane,92592,33.4814953,-117.0738969
33394,Scarborough Lane,92592,33.4815735,-117.0737109
33408,Scarborough Lane,92592,33.4815727,-117.0734980
33422,Scarborough Lane,92592,33.4815856,-117.0733646
33436,Scarborough Lane,92592,33.4815998,-117.0731972
33450,Scarborough Lane,92592,33.4816165,-117.0730338
33464,Scarborough Lane,92592,33.4816350,-117.0728443
33470,Scarborough Lane,92592,33.4816320,-117.0726815
44850,Longfellow Avenue,92592,33.4750744,-117.0726791
44686,Longfellow Avenue,92592,33.4773152,-117.0704750
44694,Longfellow Avenue,92592,33.4771970,-117.0706105
44702,Longfellow Avenue,92592,33.4770931,-117.0707209
44710,Longfellow Avenue,92592,33.4770135,-117.0708609
44718,Longfellow Avenue,92592,33.4769251,-117.0709895
44726,Longfellow Avenue,92592,33.4768336,-117.0711122
44734,Longfellow Avenue,92592,33.4767144,-117.0712015
44742,Longfellow Avenue,92592,33.4766007,-117.0712917
44750,Longfellow Avenue,92592,33.4765035,-117.0714115
44758,Longfellow Avenue,92592,33.4763897,-117.0715194
44766,Longfellow Avenue,92592,33.4762486,-117.0716508
44774,Longfellow Avenue,92592,33.4761580,-117.0717858
44782,Longfellow Avenue,92592,33.4760681,-117.0719097
44790,Longfellow Avenue,92592,33.4759675,-117.0720339
44798,Longfellow Avenue,92592,33.4758501,-117.0721190
44806,Longfellow Avenue,92592,33.4757426,-117.0722269
44822,Longfellow Avenue,92592,33.4756045,-117.0723344
44830,Longfellow Avenue,92592,33.4754813,-117.0724043
44833,Longfellow Avenue,92592,33.4756783,-117.0729029
44825,Longfellow Avenue,92592,33.4758063,-117.0728104
44817,Longfellow Avenue,92592,33.4759269,-117.0727370
44809,Longfellow Avenue,92592,33.4760424,-117.0726284
44801,Longfellow Avenue,92592,33.4761393,-117.0725096
44793,Longfellow Avenue,92592,33.4762475,-117.0723985
44785,Longfellow Avenue,92592,33.4763401,-117.0722797
44777,Longfellow Avenue,92592,33.4764590,-117.0721929
44769,Longfellow Avenue,92592,33.4765468,-117.0720653
44761,Longfellow Avenue,92592,33.4766549,-117.0719596
44753,Longfellow Avenue,92592,33.4767645,-117.0718634
44745,Longfellow Avenue,92592,33.4768629,-117.0717462
44737,Longfellow Avenue,92592,33.4769612,-117.0716298
44729,Longfellow Avenue,92592,33.4770651,-117.0715262
44721,Longfellow Avenue,92592,33.4771770,-117.0714277
44713,Longfellow Avenue,92592,33.4772704,-117.0713043
44705,Longfellow Avenue,92592,33.4773910,-117.0712233
44697,Longfellow Avenue,92592,33.4775055,-117.0711215
44689,Longfellow Avenue,92592,33.4776360,-117.0710064
45254,Helena Court,92592,33.4717995,-117.0727809
45262,Helena Court,92592,33.4716375,-117.0726395
45270,Helena Court,92592,33.4714298,-117.0726765
45251,Helena Court,92592,33.4714568,-117.0732670
45259,Helena Court,92592,33.4713397,-117.0731126
45267,Helena Court,92592,33.4712981,-117.0728977
33355,Twin Hills Way,92592,33.4711522,-117.0737426
33371,Twin Hills Way,92592,33.4712893,-117.0736270
33358,Twin Hills Way,92592,33.4714590,-117.0741560
33382,Twin Hills Way,92592,33.4715942,-117.0740358
33398,Twin Hills Way,92592,33.4717151,-117.0738602
33406,Twin Hills Way,92592,33.4718033,-117.0736619
33414,Twin Hills Way,92592,33.4718943,-117.0734588
33422,Twin Hills Way,92592,33.4720065,-117.0732532
33430,Twin Hills Way,92592,33.4721141,-117.0730819
33438,Twin Hills Way,92592,33.4722184,-117.0729381
33446,Twin Hills Way,92592,33.4723139,-117.0727591
33454,Twin Hills Way,92592,33.4724295,-117.0726311
33462,Twin Hills Way,92592,33.4725338,-117.0724438
45242,Oakville Court,92592,33.4725994,-117.0722278
45250,Oakville Court,92592,33.4724349,-117.0720599
45258,Oakville Court,92592,33.4722635,-117.0719630
45266,Oakville Court,92592,33.4721303,-117.0718409
45274,Oakville Court,92592,33.4719585,-117.0717342
45282,Oakville Court,92592,33.4717700,-117.0717978
45279,Oakville Court,92592,33.4716405,-117.0720161
45271,Oakville Court,92592,33.4716513,-117.0722244
45263,Oakville Court,92592,33.4718486,-117.0723730
45255,Oakville Court,92592,33.4719809,-117.0724833
45249,Amberleaf Way,92592,33.4709919,-117.0743786
45257,Amberleaf Way,92592,33.4709122,-117.0741764
45265,Amberleaf Way,92592,33.4707962,-117.0739909
45273,Amberleaf Way,92592,33.4706552,-117.0738447
45281,Amberleaf Way,92592,33.4705210,-117.0736075
45289,Amberleaf Way,92592,33.4706136,-117.0733510
45284,Amberleaf Way,92592,33.4708589,-117.0732295
45276,Amberleaf Way,92592,33.4710572,-117.0734097
45256,Chateau Court,92592,33.4706377,-117.0749694
45264,Chateau Court,92592,33.4705632,-117.0747992
45272,Chateau Court,92592,33.4704961,-117.0746366
45280,Chateau Court,92592,33.4704105,-117.0744752
45288,Chateau Court,92592,33.4703223,-117.0743272
45253,Chateau Court,92592,33.4702738,-117.0753883
45261,Chateau Court,92592,33.4702060,-117.0751983
45269,Chateau Court,92592,33.4701378,-117.0750361
45277,Chateau Court,92592,33.4700482,-117.0748650
45285,Chateau Court,92592,33.4699743,-117.0746908
45293,Chateau Court,92592,33.4698912,-117.0745153
33304,Barrington Drive,92592,33.4704602,-117.0755664
33312,Barrington Drive,92592,33.4706537,-117.0755414
33320,Barrington Drive,92592,33.4708063,-117.0754832
33328,Barrington Drive,92592,33.4709669,-117.0754221
33336,Barrington Drive,92592,33.4711343,-117.0753696
33344,Barrington Drive,92592,33.4712927,-117.0753350
33352,Barrington Drive,92592,33.4714478,-117.0752879
33360,Barrington Drive,92592,33.4716143,-117.0752543
33368,Barrington Drive,92592,33.4717672,-117.0752068
33376,Barrington Drive,92592,33.4719382,-117.0751267
33325,Barrington Drive,92592,33.4708479,-117.0748961
33333,Barrington Drive,92592,33.4710125,-117.0748618
33341,Barrington Drive,92592,33.4711685,-117.0748109
33357,Barrington Drive,92592,33.4715275,-117.0747048
33365,Barrington Drive,92592,33.4716993,-117.0746625
33381,Barrington Drive,92592,33.4718617,-117.0745418
33389,Barrington Drive,92592,33.4719779,-117.0744132
33397,Barrington Drive,92592,33.4720910,-117.0742614
33405,Barrington Drive,92592,33.4721692,-117.0740770
33413,Barrington Drive,92592,33.4722728,-117.0739169
33421,Barrington Drive,92592,33.4723652,-117.0737482
33429,Barrington Drive,92592,33.4724730,-117.0735980
33437,Barrington Drive,92592,33.4725672,-117.0734517
33445,Barrington Drive,92592,33.4726612,-117.0732989
33453,Barrington Drive,92592,33.4727701,-117.0731363
33461,Barrington Drive,92592,33.4728750,-117.0729969
33469,Barrington Drive,92592,33.4729703,-117.0728166
33477,Barrington Drive,92592,33.4730532,-117.0726352
33485,Barrington Drive,92592,33.4731367,-117.0724649
33488,Barrington Drive,92592,33.4736124,-117.0727988
33480,Barrington Drive,92592,33.4734815,-117.0729798
33472,Barrington Drive,92592,33.4733560,-117.0730985
33464,Barrington Drive,92592,33.4732596,-117.0732692
33456,Barrington Drive,92592,33.4731507,-117.0734286
33448,Barrington Drive,92592,33.4730579,-117.0735788
33440,Barrington Drive,92592,33.4729626,-117.0737264
33432,Barrington Drive,92592,33.4728658,-117.0738887
33424,Barrington Drive,92592,33.4727626,-117.0740393
33418,Barrington Drive,92592,33.4726670,-117.0742019
33408,Barrington Drive,92592,33.4725642,-117.0743613
33400,Barrington Drive,92592,33.4724589,-117.0745262
45077,Stoney Hill Drive,92592,33.4727445,-117.0753878
45085,Stoney Hill Drive,92592,33.4725781,-117.0753035
45093,Stoney Hill Drive,92592,33.4724265,-117.0751682
45101,Stoney Hill Drive,92592,33.4723125,-117.0750301
45109,Stoney Hill Drive,92592,33.4721615,-117.0749178
33399,Biltmore Drive,92592,33.4727368,-117.0747553
33407,Biltmore Drive,92592,33.4728816,-117.0746260
33415,Biltmore Drive,92592,33.4729827,-117.0744701
33423,Biltmore Drive,92592,33.4730844,-117.0743171
33431,Biltmore Drive,92592,33.4731986,-117.0741727
33439,Biltmore Drive,92592,33.4733148,-117.0740287
33447,Biltmore Drive,92592,33.4734253,-117.0738913
33455,Biltmore Drive,92592,33.4735469,-117.0737515
33463,Biltmore Drive,92592,33.4736310,-117.0735946
33471,Biltmore Drive,92592,33.4737560,-117.0734590
33479,Biltmore Drive,92592,33.4738960,-117.0733490
33487,Biltmore Drive,92592,33.4740283,-117.0732249
33394,Biltmore Drive,92592,33.4729567,-117.0753895
33402,Biltmore Drive,92592,33.4730785,-117.0752361
33410,Biltmore Drive,92592,33.4731644,-117.0750599
33418,Biltmore Drive,92592,33.4732650,-117.0748967
33426,Biltmore Drive,92592,33.4733840,-117.0747588
33434,Biltmore Drive,92592,33.4734878,-117.0746090
33442,Biltmore Drive,92592,33.4735890,-117.0744647
33458,Biltmore Drive,92592,33.4739075,-117.0740795
33466,Biltmore Drive,92592,33.4740072,-117.0739390
33474,Biltmore Drive,92592,33.4741564,-117.0738275
33482,Biltmore Drive,92592,33.4742867,-117.0736939
33490,Biltmore Drive,92592,33.4744152,-117.0735905
33498,Biltmore Drive,92592,33.4745559,-117.0735021
33528,Rosewood Circle,92592,33.4789111,-117.0728629
33538,Rosewood Circle,92592,33.4788297,-117.0727455
33548,Rosewood Circle,92592,33.4787420,-117.0726395
33558,Rosewood Circle,92592,33.4786713,-117.0725165
33568,Rosewood Circle,92592,33.4785894,-117.0724058
33578,Rosewood Circle,92592,33.4785004,-117.0723000
33588,Rosewood Circle,92592,33.4784266,-117.0721740
33598,Rosewood Circle,92592,33.4783435,-117.0720725
33608,Rosewood Circle,92592,33.4782684,-117.0719501
33618,Rosewood Circle,92592,33.4781914,-117.0718479
33628,Rosewood Circle,92592,33.4781021,-117.0717356
33638,Rosewood Circle,92592,33.4780299,-117.0716160
33648,Rosewood Circle,92592,33.4779299,-117.0715125
33643,Rosewood Circle,92592,33.4775520,-117.0719005
33633,Rosewood Circle,92592,33.4776192,-117.0720276
33623,Rosewood Circle,92592,33.4777147,-117.0721156
33613,Rosewood Circle,92592,33.4778395,-117.0721927
44596,Crestwood Circle,92592,33.4780687,-117.0723593
44604,Crestwood Circle,92592,33.4779736,-117.0724520
44610,Crestwood Circle,92592,33.4778456,-117.0725022
44616,Crestwood Circle,92592,33.4777563,-117.0726097
44625,Crestwood Circle,92592,33.4778814,-117.0730789
44619,Crestwood Circle,92592,33.4780253,-117.0730856
44613,Crestwood Circle,92592,33.4781581,-117.0729711
44607,Crestwood Circle,92592,33.4782380,-117.0728529
44601,Crestwood Circle,92592,33.4783233,-117.0727309
44575,Brentwood Place,92592,33.4792115,-117.0731558
44581,Brentwood Place,92592,33.4791181,-117.0732512
44587,Brentwood Place,92592,33.4790131,-117.0733388
44593,Brentwood Place,92592,33.4789196,-117.0734411
44599,Brentwood Place,92592,33.4788187,-117.0735325
44605,Brentwood Place,92592,33.4786980,-117.0736209
44611,Brentwood Place,92592,33.4785816,-117.0737017
44617,Brentwood Place,92592,33.4784674,-117.0737651
44623,Brentwood Place,92592,33.4783478,-117.0738146
44629,Brentwood Place,92592,33.4782358,-117.0738760
44635,Brentwood Place,92592,33.4781220,-117.0739351
44641,Brentwood Place,92592,33.4780054,-117.0739831
44647,Brentwood Place,92592,33.4778998,-117.0740659
44653,Brentwood Place,92592,33.4777942,-117.0741700
44659,Brentwood Place,92592,33.4776498,-117.0741569
44638,Brentwood Place,92592,33.4779881,-117.0734607
44630,Brentwood Place,92592,33.4780989,-117.0733977
44622,Brentwood Place,92592,33.4782176,-117.0733497
44614,Brentwood Place,92592,33.4783315,-117.0732890
44606,Brentwood Place,92592,33.4784512,-117.0732005
44598,Brentwood Place,92592,33.4785569,-117.0731248
33546,Maplewood Court,92592,33.4777729,-117.0735990
33556,Maplewood Court,92592,33.4777349,-117.0734589
33566,Maplewood Court,92592,33.4777015,-117.0733206
33576,Maplewood Court,92592,33.4776536,-117.0731781
33586,Maplewood Court,92592,33.4776252,-117.0730397
33596,Maplewood Court,92592,33.4775847,-117.0728949
33606,Maplewood Court,92592,33.4775474,-117.0727523
33616,Maplewood Court,92592,33.4775023,-117.0726193
33626,Maplewood Court,92592,33.4774594,-117.0724527
33636,Maplewood Court,92592,33.4774084,-117.0722975
33646,Maplewood Court,92592,33.4773262,-117.0721450
33631,Maplewood Court,92592,33.4770156,-117.0724867
33621,Maplewood Court,92592,33.4770671,-117.0726533
33621,Maplewood Court,92592,33.4771113,-117.0727919
33601,Maplewood Court,92592,33.4771567,-117.0729343
33591,Maplewood Court,92592,33.4771883,-117.0730815
33581,Maplewood Court,92592,33.4772331,-117.0732196
33571,Maplewood Court,92592,33.4772626,-117.0733637
33561,Maplewood Court,92592,33.4773088,-117.0734975
33551,Maplewood Court,92592,33.4773361,-117.0736435
33541,Maplewood Court,92592,33.4773485,-117.0738068
33531,Maplewood Court,92592,33.4773979,-117.0739667
33521,Maplewood Court,92592,33.4775098,-117.0741009
44693,Corte Sanchez,92592,33.4777378,-117.0755342
44707,Corte Sanchez,92592,33.4775980,-117.0754540
44713,Corte Sanchez,92592,33.4774871,-117.0753709
44719,Corte Sanchez,92592,33.4773692,-117.0752929
44725,Corte Sanchez,92592,33.4772424,-117.0752040
44731,Corte Sanchez,92592,33.4771251,-117.0751358
44737,Corte Sanchez,92592,33.4770136,-117.0750422
44743,Corte Sanchez,92592,33.4769129,-117.0749300
44749,Corte Sanchez,92592,33.4768221,-117.0748007
44755,Corte Sanchez,92592,33.4767382,-117.0746535
44761,Corte Sanchez,92592,33.4766853,-117.0745048
44767,Corte Sanchez,92592,33.4766495,-117.0743336
44773,Corte Sanchez,92592,33.4766014,-117.0741809
44779,Corte Sanchez,92592,33.4765683,-117.0740243
44785,Corte Sanchez,92592,33.4765273,-117.0738621
44791,Corte Sanchez,92592,33.4764869,-117.0737094
44797,Corte Sanchez,92592,33.4764024,-117.0735600
44803,Corte Sanchez,92592,33.4763744,-117.0733914
44809,Corte Sanchez,92592,33.4764191,-117.0731866
44812,Corte Sanchez,92592,33.4765686,-117.0730758
44808,Corte Sanchez,92592,33.4767780,-117.0731064
44802,Corte Sanchez,92592,33.4768859,-117.0732609
44796,Corte Sanchez,92592,33.4768993,-117.0734533
44790,Corte Sanchez,92592,33.4769188,-117.0736220
44780,Corte Sanchez,92592,33.4769570,-117.0737866
44776,Corte Sanchez,92592,33.4769944,-117.0739408
44772,Corte Sanchez,92592,33.4770336,-117.0740945
44764,Corte Sanchez,92592,33.4770688,-117.0742604
44752,Corte Sanchez,92592,33.4771333,-117.0744375
44738,Corte Sanchez,92592,33.4772209,-117.0745766
44730,Corte Sanchez,92592,33.4773423,-117.0746936
44722,Corte Sanchez,92592,33.4774620,-117.0747784
44714,Corte Sanchez,92592,33.4775932,-117.0748429
44708,Corte Sanchez,92592,33.4777033,-117.0749354
44698,Corte Sanchez,92592,33.4778285,-117.0750150
44688,Corte Sanchez,92592,33.4779473,-117.0750931
44679,Corte Sanchez,92592,33.4780452,-117.0757425
44671,Corte Sanchez,92592,33.4781821,-117.0758834
44663,Corte Sanchez,92592,33.4783056,-117.0760219
44867,Corte Rodriguez,92592,33.4750413,-117.0746622
44873,Corte Rodriguez,92592,33.4749134,-117.0747606
44885,Corte Rodriguez,92592,33.4748004,-117.0749494
44891,Corte Rodriguez,92592,33.4745992,-117.0751737
44897,Corte Rodriguez,92592,33.4744288,-117.0751296
44900,Corte Rodriguez,92592,33.4742935,-117.0748701
44894,Corte Rodriguez,92592,33.4743387,-117.0746977
44888,Corte Rodriguez,92592,33.4744785,-117.0745422
44882,Corte Rodriguez,92592,33.4745920,-117.0744295
44876,Corte Rodriguez,92592,33.4747098,-117.0743457
44870,Corte Rodriguez,92592,33.4748276,-117.0742614
44864,Corte Rodriguez,92592,33.4749425,-117.0741785
44858,Corte Rodriguez,92592,33.4750742,-117.0741143
44852,Corte Rodriguez,92592,33.4751965,-117.0740578
44846,Corte Rodriguez,92592,33.4753233,-117.0739835
44840,Corte Rodriguez,92592,33.4754358,-117.0739443
44834,Corte Rodriguez,92592,33.4755622,-117.0738785
44828,Corte Rodriguez,92592,33.4756772,-117.0738042
44693,Corte Gutierrez,92592,33.4771204,-117.0775667
44707,Corte Gutierrez,92592,33.4768711,-117.0773236
44719,Corte Gutierrez,92592,33.4767316,-117.0772585
44725,Corte Gutierrez,92592,33.4765937,-117.0771496
44731,Corte Gutierrez,92592,33.4764437,-117.0770725
44737,Corte Gutierrez,92592,33.4763074,-117.0769483
44743,Corte Gutierrez,92592,33.4761512,-117.0768797
44753,Corte Gutierrez,92592,33.4760267,-117.0767747
44759,Corte Gutierrez,92592,33.4758848,-117.0767012
44765,Corte Gutierrez,92592,33.4757546,-117.0766052
44771,Corte Gutierrez,92592,33.4756105,-117.0765291
44777,Corte Gutierrez,92592,33.4754810,-117.0764679
44783,Corte Gutierrez,92592,33.4753304,-117.0764281
44789,Corte Gutierrez,92592,33.4751956,-117.0763448
44795,Corte Gutierrez,92592,33.4750590,-117.0762951
44801,Corte Gutierrez,92592,33.4749130,-117.0762226
44807,Corte Gutierrez,92592,33.4747506,-117.0761700
44813,Corte Gutierrez,92592,33.4745961,-117.0760894
44819,Corte Gutierrez,92592,33.4744981,-117.0759413
44822,Corte Gutierrez,92592,33.4745319,-117.0756365
44816,Corte Gutierrez,92592,33.4747520,-117.0755510
44774,Corte Gutierrez,92592,33.4757408,-117.0760592
44768,Corte Gutierrez,92592,33.4758786,-117.0761190
44762,Corte Gutierrez,92592,33.4760018,-117.0762006
44756,Corte Gutierrez,92592,33.4761248,-117.0762757
44750,Corte Gutierrez,92592,33.4762473,-117.0763539
44744,Corte Gutierrez,92592,33.4763669,-117.0764395
44738,Corte Gutierrez,92592,33.4764852,-117.0764958
44734,Corte Gutierrez,92592,33.4766061,-117.0766011
44728,Corte Gutierrez,92592,33.4767259,-117.0766684
44722,Corte Gutierrez,92592,33.4768400,-117.0767422
44716,Corte Gutierrez,92592,33.4769623,-117.0768298
33429,Camino Hernandez,92592,33.4750194,-117.0756921
33449,Camino Hernandez,92592,33.4750907,-117.0754932
33465,Camino Hernandez,92592,33.4751122,-117.0752753
33479,Camino Hernandez,92592,33.4751143,-117.0750418
33426,Camino Hernandez,92592,33.4753971,-117.0759121
33434,Camino Hernandez,92592,33.4754492,-117.0757431
33442,Camino Hernandez,92592,33.4754960,-117.0755870
33450,Camino Hernandez,92592,33.4755132,-117.0754344
33458,Camino Hernandez,92592,33.4755295,-117.0752768
33466,Camino Hernandez,92592,33.4755257,-117.0751098
33474,Camino Hernandez,92592,33.4755304,-117.0749517
33482,Camino Hernandez,92592,33.4754895,-117.0747934
33490,Camino Hernandez,92592,33.4754655,-117.0746286
33498,Camino Hernandez,92592,33.4754333,-117.0744163
44817,Calle Banuelos,92592,33.4757980,-117.0742363
44811,Calle Banuelos,92592,33.4758436,-117.0743893
44805,Calle Banuelos,92592,33.4758711,-117.0745547
44797,Calle Banuelos,92592,33.4759042,-117.0746887
44793,Calle Banuelos,92592,33.4759141,-117.0748541
44787,Calle Banuelos,92592,33.4759510,-117.0750051
44781,Calle Banuelos,92592,33.4759356,-117.0751623
44775,Calle Banuelos,92592,33.4760520,-117.0753169
44769,Calle Banuelos,92592,33.4761307,-117.0754575
44763,Calle Banuelos,92592,33.4762188,-117.0755657
44757,Calle Banuelos,92592,33.4763130,-117.0757255
44751,Calle Banuelos,92592,33.4764384,-117.0757698
44745,Calle Banuelos,92592,33.4765687,-117.0758398
44739,Calle Banuelos,92592,33.4766873,-117.0759135
44733,Calle Banuelos,92592,33.4767934,-117.0759955
44727,Calle Banuelos,92592,33.4769138,-117.0760635
44721,Calle Banuelos,92592,33.4770268,-117.0761408
44715,Calle Banuelos,92592,33.4771463,-117.0762356
44709,Calle Banuelos,92592,33.4772645,-117.0762933
44703,Calle Banuelos,92592,33.4773706,-117.0764082
44699,Calle Banuelos,92592,33.4774871,-117.0764752
44695,Calle Banuelos,92592,33.4776681,-117.0764612
44706,Calle Banuelos,92592,33.4775352,-117.0759269
44712,Calle Banuelos,92592,33.4774236,-117.0758476
44718,Calle Banuelos,92592,33.4773066,-117.0757733
44724,Calle Banuelos,92592,33.4771927,-117.0756951
44730,Calle Banuelos,92592,33.4770621,-117.0756131
44736,Calle Banuelos,92592,33.4769469,-117.0755368
44742,Calle Banuelos,92592,33.4768188,-117.0754524
44748,Calle Banuelos,92592,33.4767028,-117.0753823
44754,Calle Banuelos,92592,33.4765769,-117.0752931
44766,Calle Banuelos,92592,33.4764578,-117.0751390
44778,Calle Banuelos,92592,33.4763693,-117.0749814
44790,Calle Banuelos,92592,33.4763293,-117.0748165
44796,Calle Banuelos,92592,33.4763241,-117.0746537
44802,Calle Banuelos,92592,33.4762927,-117.0744847
44808,Calle Banuelos,92592,33.4762468,-117.0743022
44814,Calle Banuelos,92592,33.4762218,-117.0741126
44820,Calle Banuelos,92592,33.4761504,-117.0739534
44826,Calle Banuelos,92592,33.4760783,-117.0738014
44832,Calle Banuelos,92592,33.4760271,-117.0736422
44838,Calle Banuelos,92592,33.4759600,-117.0734773
44691,Camino Gonzales,92592,33.4778067,-117.0763684
44687,Camino Gonzales,92592,33.4778664,-117.0762194
44683,Camino Gonzales,92592,33.4779251,-117.0760822
44659,Camino Gonzales,92592,33.4782607,-117.0753270
44653,Camino Gonzales,92592,33.4783482,-117.0751548
44647,Camino Gonzales,92592,33.4784330,-117.0750393
44641,Camino Gonzales,92592,33.4785238,-117.0749220
44635,Camino Gonzales,92592,33.4786231,-117.0748446
44629,Camino Gonzales,92592,33.4787529,-117.0747929
44623,Camino Gonzales,92592,33.4788494,-117.0747105
44617,Camino Gonzales,92592,33.4789814,-117.0746569
44611,Camino Gonzales,92592,33.4790884,-117.0745457
44605,Camino Gonzales,92592,33.4792046,-117.0744686
44599,Camino Gonzales,92592,33.4793033,-117.0743796
44593,Camino Gonzales,92592,33.4794086,-117.0742762
44656,Camino Gonzales,92592,33.4780365,-117.0747860
44650,Camino Gonzales,92592,33.4781134,-117.0746303
44644,Camino Gonzales,92592,33.4782153,-117.0745518
44638,Camino Gonzales,92592,33.4783316,-117.0744570
44632,Camino Gonzales,92592,33.4784369,-117.0743674
44626,Camino Gonzales,92592,33.4785574,-117.0743079
44620,Camino Gonzales,92592,33.4786687,-117.0742432
44614,Camino Gonzales,92592,33.4787751,-117.0741660
44608,Camino Gonzales,92592,33.4788951,-117.0741025
44602,Camino Gonzales,92592,33.4789900,-117.0740038
44596,Camino Gonzales,92592,33.4790915,-117.0739082
44590,Camino Gonzales,92592,33.4791989,-117.0737768
44584,Camino Gonzales,92592,33.4793517,-117.0737225
33520,Camino Piedra Rojo,92592,33.4795704,-117.0737774
33510,Camino Piedra Rojo,92592,33.4796855,-117.0739181
33490,Camino Piedra Rojo,92592,33.4797919,-117.0741248
33480,Camino Piedra Rojo,92592,33.4798923,-117.0742732
33470,Camino Piedra Rojo,92592,33.4799932,-117.0744184
33460,Camino Piedra Rojo,92592,33.4801149,-117.0745721
33450,Camino Piedra Rojo,92592,33.4802136,-117.0747225
33440,Camino Piedra Rojo,92592,33.4803189,-117.0748729
33430,Camino Piedra Rojo,92592,33.4804285,-117.0750247
33420,Camino Piedra Rojo,92592,33.4805343,-117.0751829
334910,Camino Piedra Rojo,92592,33.4806380,-117.0753268
44743,Johnston Drive,92592,33.4773039,-117.0780832
44735,Johnston Drive,92592,33.4773894,-117.0779409
44599,Johnston Drive,92592,33.4792714,-117.0756221
44607,Johnston Drive,92592,33.4791713,-117.0757292
44615,Johnston Drive,92592,33.4790418,-117.0758479
44623,Johnston Drive,92592,33.4789157,-117.0759857
44631,Johnston Drive,92592,33.4788071,-117.0760776
44639,Johnston Drive,92592,33.4786932,-117.0762127
44647,Johnston Drive,92592,33.4785782,-117.0763305
44655,Johnston Drive,92592,33.4784487,-117.0764639
44663,Johnston Drive,92592,33.4783535,-117.0766009
44671,Johnston Drive,92592,33.4782333,-117.0767637
44679,Johnston Drive,92592,33.4781358,-117.0768765
44562,Johnston Drive,92592,33.4796299,-117.0746250
44570,Johnston Drive,92592,33.4795208,-117.0747355
44578,Johnston Drive,92592,33.4793791,-117.0748534
44586,Johnston Drive,92592,33.4792864,-117.0749732
44590,Johnston Drive,92592,33.4791490,-117.0750796
44594,Johnston Drive,92592,33.4790491,-117.0751939
44602,Johnston Drive,92592,33.4789256,-117.0753390
44610,Johnston Drive,92592,33.4788064,-117.0754321
44618,Johnston Drive,92592,33.4786880,-117.0755795
44626,Johnston Drive,92592,33.4785709,-117.0756827
44588,Jamin Circle,92592,33.4795003,-117.0759353
44596,Jamin Circle,92592,33.4793820,-117.0760525
44604,Jamin Circle,92592,33.4792638,-117.0761602
44612,Jamin Circle,92592,33.4791436,-117.0762821
44620,Jamin Circle,92592,33.4790406,-117.0764025
44628,Jamin Circle,92592,33.4789170,-117.0765190
44636,Jamin Circle,92592,33.4788113,-117.0766789
44644,Jamin Circle,92592,33.4788589,-117.0769355
44593,Jamin Circle,92592,33.4797219,-117.0763739
44601,Jamin Circle,92592,33.4796156,-117.0764798
44609,Jamin Circle,92592,33.4795076,-117.0766100
44617,Jamin Circle,92592,33.4793981,-117.0767493
44625,Jamin Circle,92592,33.4793152,-117.0769189
44633,Jamin Circle,92592,33.4791953,-117.0770496
44641,Jamin Circle,92592,33.4790052,-117.0770874
44597,Brice Circle,92592,33.4794803,-117.0779142
44605,Brice Circle,92592,33.4793512,-117.0777291
44598,Brice Circle,92592,33.4795094,-117.0773320
44606,Brice Circle,92592,33.4793832,-117.0774757
33274,Avenida Bicicleta,92592,33.4792754,-117.0782112
33282,Avenida Bicicleta,92592,33.4791989,-117.0780606
33290,Avenida Bicicleta,92592,33.4790960,-117.0779207
33298,Avenida Bicicleta,92592,33.4790122,-117.0777615
33306,Avenida Bicicleta,92592,33.4789005,-117.0776307
33314,Avenida Bicicleta,92592,33.4788051,-117.0775132
33322,Avenida Bicicleta,92592,33.4786990,-117.0773881
33330,Avenida Bicicleta,92592,33.4785835,-117.0772865
33338,Avenida Bicicleta,92592,33.4784640,-117.0771678
33346,Avenida Bicicleta,92592,33.4783554,-117.0770413
33253,Calle Cantu,92592,33.4793887,-117.0784976
33261,Calle Cantu,92592,33.4795123,-117.0784189
33277,Calle Cantu,92592,33.4796566,-117.0782504
33293,Calle Cantu,92592,33.4797195,-117.0780986
33217,Calle Cantu,92592,33.4797580,-117.0778954
33333,Calle Cantu,92592,33.4797506,-117.0773898
33349,Calle Cantu,92592,33.4797609,-117.0772042
33357,Calle Cantu,92592,33.4797765,-117.0770286
33365,Calle Cantu,92592,33.4797839,-117.0767997
33256,Calle Cantu,92592,33.4796673,-117.0789233
33264,Calle Cantu,92592,33.4797845,-117.0788290
33272,Calle Cantu,92592,33.4799062,-117.0786950
33280,Calle Cantu,92592,33.4799925,-117.0785770
33288,Calle Cantu,92592,33.4800860,-117.0784175
33296,Calle Cantu,92592,33.4801332,-117.0782452
33312,Calle Cantu,92592,33.4801822,-117.0780599
33320,Calle Cantu,92592,33.4801916,-117.0778735
33328,Calle Cantu,92592,33.4802028,-117.0776980
33336,Calle Cantu,92592,33.4801862,-117.0775175
33344,Calle Cantu,92592,33.4802050,-117.0773430
33352,Calle Cantu,92592,33.4801974,-117.0771597
33360,Calle Cantu,92592,33.4802037,-117.0769788
33368,Calle Cantu,92592,33.4801983,-117.0767800
33376,Calle Cantu,92592,33.4801947,-117.0765985
33384,Calle Cantu,92592,33.4801844,-117.0764105
33392,Calle Cantu,92592,33.4801332,-117.0762290
33400,Calle Cantu,92592,33.4800742,-117.0760496
33408,Calle Cantu,92592,33.4799841,-117.0758706
33416,Calle Cantu,92592,33.4798821,-117.0757435
33424,Calle Cantu,92592,33.4797792,-117.0755920
33432,Calle Cantu,92592,33.4796728,-117.0754537
33440,Calle Cantu,92592,33.4795619,-117.0752850
41923,2nd Street,92590,33.4929860,-117.1462290
