House number,Street name,Postal code,Latitude,Longitude
569,Clover Road,95376,37.7622445,-121.4333797
2459,North Naglee Road,95304,37.7560368,-121.4662215
2501,Naglee Road,95304,37.7561810,-121.4657220
2695,North Tracy Boulevard,95376-1716,37.7558276,-121.4358152
2550,Tracy Blvd,95377,37.7124846,-121.4325929
2550,Tracy Blvd,95377,37.7121782,-121.4324914
1988,West 11th Street,95376,37.7375219,-121.4526436
3400,North Macarthur Drive,95376,37.7618524,-121.4142030
2185,West Grant Line Road,95377,37.7557501,-121.4568560
470,West Larch Road,95304,37.7635762,-121.4329615
1555,North Chrisman Road,95304,37.7430048,-121.4047365
475,Darlene Lane,95377,37.7049627,-121.4188102
350,West Grant Line Road,95376,37.7536000,-121.4314678
15,Phillip Court,95376,37.7239471,-121.4269616
2512,Naglee Road,95304,37.7556257,-121.4650800
2512,Naglee Road,95304,37.7555176,-121.4649783
2682,Naglee Road,95304,37.7559415,-121.4636214
1986,West 11th Street,95376,37.7375216,-121.4525814
2483,Naglee Road,95304,37.7582087,-121.4683185
2481,Naglee Road,95304,37.7578641,-121.4683151
2477,Naglee Road,95304,37.7581977,-121.4664742
2475,Naglee Road,95304,37.7578641,-121.4664667
2473,Naglee Road,95304,37.7576586,-121.4664780
2471,Naglee Road,95304,37.7573875,-121.4665269
2940,West Grant Line Road,95304-7901,37.7523489,-121.4698726
2970,West Grant Line Road,95304,37.7535914,-121.4701442
2441,North Naglee Road,95304,37.7556566,-121.4666321
2610,S Tracy Blvd,95376,37.7114858,-121.4342408
2610,South Tracy Boulevard,95376,37.7109260,-121.4339275
2610,S Tracy Boulevard,95376,37.7109468,-121.4336909
344,West Grant Line Road,95376,37.7537393,-121.4313170
392,W Larch Rd,95304,37.7640598,-121.4309399
915,South Tracy Boulevard,95376,37.7235338,-121.4353072
965,South Tracy Boulevard,95376,37.7235354,-121.4358024
810,West Schulte Road,95376,37.7247249,-121.4367659
1857,West 11th Street,95376,37.7396682,-121.4513113
2114,West Grant Line Road,95377,37.7537203,-121.4547931
324,East 11th Street,95376,37.7394281,-121.4205950
68,East 11th Street,95376,37.7393896,-121.4243600
624,North Central Avenue,95376,37.7353412,-121.4256179
620,North Central Avenue,95376,37.7353028,-121.4256158
618,North Central Avenue,95376,37.7352584,-121.4256134
614,North Central Avenue,95376,37.7351506,-121.4256076
600,North Central Avenue,95376,37.7349672,-121.4255914
9,East 6th Street,95376,37.7349769,-121.4254655
11,East 6th Street,95376,37.7349841,-121.4253818
815,South Tracy Boulevard,95376,37.7243909,-121.4367592
793,South Tracy Boulevard,95376,37.7245207,-121.4367607
785,South Tracy Boulevard,95376,37.7245677,-121.4367612
797,South Tracy Boulevard,95376,37.7244363,-121.4367597
795,South Tracy Boulevard,95376,37.7244869,-121.4367603
840,West Schulte Road,95376,37.7247239,-121.4371364
830,West Schulte Road,95376,37.7247242,-121.4370076
875,South Tracy Boulevard,95376,37.7239900,-121.4367455
3400,Macarthur Drive,95376,37.7620907,-121.4140334
475,West Grant Line Road,95376,37.7546807,-121.4329109
370,Arbor Avenue,95376,37.7647266,-121.4196622
85,East 10th Street,95376,37.7386840,-121.4240479
1973,North Tracy Boulevard,95376,37.7505107,-121.4362475
1940,North Tracy Boulevard,95376,37.7503582,-121.4345253
1995,North Tracy Boulevard,95376,37.7506837,-121.4362530
2105,N Tracy Blvd,95376,37.7516721,-121.4364106
2135,North Tracy Boulevard,95376,37.7517149,-121.4364161
2151,North Tracy Boulevard,95376,37.7517709,-121.4358345
2181,North Tracy Boulevard,95376,37.7521309,-121.4354943
2185,North Tracy Boulevard,95376,37.7522454,-121.4355045
2185,North Tracy Boulevard,95376,37.7522186,-121.4356772
2189,North Tracy Boulevard,95376,37.7522577,-121.4357253
2207,North Tracy Boulevard,95376,37.7523828,-121.4360014
2213,North Tracy Boulevard,95376,37.7525725,-121.4359036
2211,North Tracy Boulevard,95376,37.7530088,-121.4352102
2203,North Tracy Boulevard,95376,37.7522648,-121.4360093
2217,North Tracy Boulevard,95376,37.7526225,-121.4359376
2209,North Tracy Boulevard,95376,37.7525015,-121.4359779
2215,North Tracy Boulevard,95376,37.7526178,-121.4360046
2219,North Tracy Boulevard,95376,37.7527507,-121.4359248
2221,North Tracy Boulevard,95376,37.7528636,-121.4359817
2311,North Tracy Boulevard,95376,37.7530415,-121.4356443
2311,North Tracy Boulevard,95376,37.7531583,-121.4358960
2311,North Tracy Boulevard,95376,37.7531921,-121.4356738
2321,North Tracy Boulevard,95376,37.7536563,-121.4360429
2321,North Tracy Boulevard,95376,37.7537778,-121.4360402
651,West Grant Line Road Suite B,95376,37.7545131,-121.4359185
2320,North Tracy Boulevard,95376,37.7535131,-121.4348253
574,West Grant Line Road,95376,37.7538776,-121.4344328
651,West Grant Line Road,95376,37.7544775,-121.4359335
2501,North Tracy Boulevard,95376,37.7549602,-121.4366293
2509,North Tracy Boulevard,95376,37.7552479,-121.4367409
2503,North Tracy Boulevard,95376,37.7550822,-121.4366157
2511,North Tracy Boulevard,95376,37.7552934,-121.4367488
2513,North Tracy Boulevard,95376,37.7553725,-121.4367192
2515,North Tracy Boulevard,95376,37.7554216,-121.4367328
2517,North Tracy Boulevard,95376,37.7554712,-121.4366283
2521,North Tracy Boulevard,95376,37.7555193,-121.4367516
2523,North Tracy Boulevard,95376,37.7556074,-121.4366257
2626,North Tracy Boulevard,95376,37.7553829,-121.4343045
2691,North Tracy Boulevard,95376,37.7560980,-121.4360775
2529,North Tracy Boulevard,95376,37.7557721,-121.4366593
2735,Gomes Court,95376,37.7566317,-121.4366391
543,West Grant Line Road,95376,37.7556227,-121.4338801
3007,North Tracy Boulevard,95376,37.7598582,-121.4356792
3001,North Tracy Boulevard,95376,37.7597782,-121.4355432
3019,North Tracy Boulevard,95376,37.7599002,-121.4355299
3021,North Tracy Boulevard,95376,37.7599776,-121.4357921
3081,North Tracy Boulevard,95376,37.7599461,-121.4363148
3085,North Tracy Boulevard,95376,37.7598490,-121.4364873
3099,North Tracy Boulevard,95376,37.7598858,-121.4365189
3101,North Tracy Boulevard,95376,37.7599946,-121.4366134
3117,North Tracy Boulevard,95376,37.7601138,-121.4366796
3145,North Tracy Boulevard,95376,37.7601837,-121.4365820
3161,North Tracy Boulevard,95376,37.7602248,-121.4365842
3225,North Tracy Boulevard,95376,37.7605612,-121.4369075
3225,North Tracy Boulevard,95376,37.7604003,-121.4364572
584,Pescadero Avenue,95376,37.7610802,-121.4165117
2810,S Tracy Blvd,95377,37.7099913,-121.4339210
2820,SOUTH TRACY BLVD.,95377,37.7095428,-121.4339257
1850,West Kavanagh Avenue,95376,37.7565454,-121.4497094
1750,West Kavanagh Avenue,95376,37.7566041,-121.4475546
1885,North Macarthur Drive,95376,37.7472793,-121.4128118
1700,North Chrisman Road,95304,37.7487873,-121.3970323
2900,North MacArthur Drive,95376,37.7597854,-121.4134088
1565,North MacArthur Drive,95376,37.7463545,-121.4110568
1350,North MacArthur Drive,95376,37.7434248,-121.4086399
955,Crossroads Drive,95377,37.7379394,-121.4668481
1803,Blandford Lane,95377,37.7493926,-121.4726298
2341,West Lowell Avenue,95377,37.7476282,-121.4594293
1600,Joseph Menusa Lane,95377,37.7465272,-121.4563189
1775,West Lowell Avenue,95376,37.7487866,-121.4484954
1801,West 11 Street,95376,37.7400678,-121.4494121
1801,West 11 Street,95376,37.7397724,-121.4523797
1752,Peony Drive,95377,37.7015328,-121.4489382
1780,Whirlaway Lane,95377,37.6968281,-121.4489775
4089,English Oak Avenue,95377,37.7014122,-121.4397288
1005,East Pescadero Avenue,95304,37.7628950,-121.4119178
3200,Naglee Road,95304,37.7595699,-121.4579829
2400,Naglee Road,95376,37.7560206,-121.4619152
2410,Naglee Road,95376,37.7560408,-121.4611549
2550,Naglee Road,95304,37.7564517,-121.4598186
2526,Pavillion Parkway,95304,37.7571673,-121.4649252
3430,Tracy Boulevard,95376-1723,37.7617701,-121.4345046
3320,North Tracy Boulevard,95376,37.7608656,-121.4331286
3220,North Tracy Boulevard,95376,37.7597851,-121.4345353
3511,North Tracy Boulevard,95376,37.7622993,-121.4362171
725,West Clover Street,95376,37.7617141,-121.4360648
745,West Clover Road,95376,37.7617381,-121.4363240
811,Clover Road,95376,37.7617855,-121.4376592
2030,West Grant Line Road,95377,37.7537322,-121.4537854
1191,Valencia Drive,95377,37.7411652,-121.4573960
1204,Crossroads Drive,95377,37.7406182,-121.4635082
900,West Lowell Avenue,95376,37.7475359,-121.4375101
516,Glenbriar Circle,95377,37.7063801,-121.4208962
475,Darlene Lane,95377,37.7054453,-121.4194634
1000,Civic Center Drive,95376,37.7390334,-121.4189439
590,10th Street,95376,37.7376362,-121.4172291
2160,West Grant Line Road,95691,37.7537296,-121.4560276
575,Clover Road,95376,37.7618715,-121.4338024
1401,South Central Avenue,95376,37.7205341,-121.4291176
1701,South Central Avenue,95376,37.7189433,-121.4291146
550,South Central Avenue,95376,37.7256149,-121.4260422
1384,Lankershire Drive,95377,37.7435233,-121.4703101
1904,Thelma Loop,95377,37.7455911,-121.4742380
3164,Antonio Loop,95377,37.7429757,-121.4744510
200,East Eaton Avenue,95376,37.7427965,-121.4234791
200,Mount Eden Circle,95376,37.7270779,-121.4228942
280,East 3rd Street,95376,37.7307233,-121.4218399
1254,Awahnee Court,95304,37.7210343,-121.4154368
1420,North Tracy Boulevard,95376,37.7444966,-121.4340372
1970,West 11th Street,95376,37.7382835,-121.4524812
1820,West 11th Street,95376-3736,37.7389544,-121.4505692
1935,West 11th Street,95376,37.7397706,-121.4518542
1705,North Chrisman Road,95304,37.7489984,-121.3991092
723,n central avenue,95376,37.7358103,-121.4262261
3010,West Grant Line Road,95304,37.7515164,-121.4719577
3250,West Grant Line Road,95304,37.7502669,-121.4753772
2880,West Grant Line Road,95304,37.7536364,-121.4689173
2890,Grantline Road,95304-9453,37.7536966,-121.4695530
3751,Tracy Boulevard,95304,37.7640991,-121.4369199
564,Centre Court Drive,95376,37.7328613,-121.4342685
1390,Franklin Avenue,95376,37.7432712,-121.4169283
2300,North Tracy Boulevard,95376,37.7516956,-121.4340683
2200,Krohn Road,95377,37.7366587,-121.4569543
2264,Barcelona Drive,95377,37.7346964,-121.4581329
405,Jill Drive,95377,37.7323797,-121.4614469
225,Adaire Lane,95377,37.7267427,-121.4562917
2130,Robert Gabriel Drive,95377,37.7241592,-121.4553980
2428,Carol Ann Drive,95377,37.7212375,-121.4606615
1100,Cambridge Place,95377,37.7061946,-121.4391425
71,Fireside Lane,95376,37.7295705,-121.4510420
1893,Golden Leaf Lane,95376,37.7268140,-121.4511131
25,North Central Avenue,95376,37.7304971,-121.4261372
501,Wagtail Drive,95376,37.7335281,-121.4186342
250,Kavanagh Avenue,95376,37.7560225,-121.4293335
705,Fox Hollow Way,95376,37.7361193,-121.4510767
1015,Promontory Parkway,95377,37.7394822,-121.5366035
6551,West Schulte Road,95377,37.7237144,-121.5238842
6451,West Schulte Road,95377,37.7228114,-121.5211022
6451,West Schulte Road,95377,37.7226646,-121.5106375
5902,Hopkins Road,95377,37.7239818,-121.5113973
5395,Hopkins Road,95377,37.7272341,-121.5030173
5731,Promontory Parkway,95377,37.7347453,-121.5157972
6389,Hopkins Road,95377,37.7291929,-121.5189975
6250,Promontory Parkway,95377,37.7307687,-121.5162979
420,Morris Phelps Drive,95376,37.7272727,-121.4371950
4412,Regis Drive,95377,37.6998066,-121.4316902
2265,Ellis Town Drive,95377,37.7023049,-121.4581696
5749,South Tracy Boulevard,95377,37.6889502,-121.4361120
890,Larkspur Drive,95376,37.7227737,-121.4375898
861,Clover Road,95376,37.7620137,-121.4385649
333,Civic Center Drive,95376,37.7386428,-121.4197645
236,East 11th Street,95376,37.7392945,-121.4217599
1260,Eastlake Circle,95304,37.7172437,-121.4108029
5655,Hood Way,95377,37.7305466,-121.5090101
3080,North Naglee Road,95304,37.7577715,-121.4607895
215,South Central Avenue,95376,37.7321217,-121.4258745
489,West Mount Diablo Avenue,95376,37.7294900,-121.4328625
100,South Tracy Boulevard,95376,37.7293756,-121.4343851
50,South Tracy Boulevard,95376,37.7297384,-121.4343433
35,East 6th Street,95376,37.7351333,-121.4248185
47,West 6th Street,95376,37.7350758,-121.4268445
615,C Street,95376,37.7350556,-121.4274631
63,West 6th Street,95376,37.7350497,-121.4276444
69,West 6th Street,95376,37.7350510,-121.4278156
672,West 11th Street,95376,37.7387364,-121.4360397
708,West 11th Street,95376,37.7394191,-121.4366598
720,West 11th Street,95376,37.7393640,-121.4370125
2025,Tahoe Circle,95376,37.7185550,-121.4372650
1685,Tahoe Circle,95376,37.7208744,-121.4372781
1840,Kern Street,95376,37.7168799,-121.4374039
2751,Oxford Lane,95377,37.7480820,-121.4673566
2125,Fieldview Drive,95377,37.7451183,-121.4555717
1421,Claremont Drive,95376,37.7196005,-121.4425160
850,Alden Glen Drive,95376,37.7372612,-121.4467437
1555,North Chrisman Road,95376,37.7451878,-121.4059625
2155,Tammi Court,95377,37.7484946,-121.4560715
2380,West Grant Line Road,95377,37.7537315,-121.4601675
2131,Hillcrest Drive,95377,37.7499474,-121.4551726
2025,West Grant Line Road,95377,37.7545883,-121.4542435
311,Grant Line Road,95376,37.7551365,-121.4301371
125,W 9th St,95376,37.7376145,-121.4286215
15,West 8th Street,95376,37.7367389,-121.4262874
835,Central Avenue,95376,37.7371513,-121.4261681
445,Eaton Avenue,95376,37.7437529,-121.4321769
3225,North Tracy Boulevard,95376,37.7605683,-121.4367820
515,W 11 Street,95376,37.7400245,-121.4334080
1871,Tennis Lane,95376,37.7315894,-121.4508344
2224,Mount Pellier Street,95304,37.7145083,-121.4031071
25,West 7th Street,95376,37.7357125,-121.4264735
2800,Naglee Road,95304-7307,37.7574741,-121.4579050
29,E Grant Line Rd,95376,37.7545674,-121.4253900
1391,Hepburn Court,95376,37.7115709,-121.4422480
2286,Stalsburg Drive,95376,37.7144419,-121.4198239
4901,North Tracy Boulevard,95376,37.7715112,-121.4393704
35,West 7th Street,95376,37.7357397,-121.4267473
803,Central Avenue,95376,37.7365899,-121.4260955
835,Central Avenue,95376,37.7371506,-121.4261681
835,Central Avenue,95376,37.7371374,-121.4263583
924,Central Avenue,95376,37.7378651,-121.4256690
628,Central Avenue,95376,37.7354302,-121.4255191
444,East 11th Street,95376,37.7395067,-121.4181858
1951,Middlefield Drive,95377,37.6990598,-121.4515904
6474,Greymont Drive,95377,37.6860004,-121.4735865
6591,Starcross Drive,95377,37.6841565,-121.4696422
1547,East Grant Line Road,95304,37.7559585,-121.4020230
3765,Sudeley Drive,95377,37.7039145,-121.4364755
1407,Jonathan Place,95377,37.7055683,-121.4422225
1355,Bluegrass Lane,95377,37.7083896,-121.4420177
2505,Russell Street,95376,37.7125289,-121.4361099
2642,Dorset Lane,95377,37.7454256,-121.4610267
2112,Joseph Damon Drive,95377,37.7517532,-121.4562352
1405,Suellen Drive,95376,37.7562841,-121.4418830
105,Henry Court,95376,37.7228705,-121.4285355
1485,Sentinel Drive,95376,37.7199616,-121.4135386
351,Valpico Road,95376,37.7113572,-121.4198661
351,Valpico Rd,95376,37.7110702,-121.4204553
400,West Central Avenue,95376,37.7144119,-121.4311981
400,West Central Avenue,95376,37.7143299,-121.4317525
4600,Corral Hollow Road,95377,37.6977946,-121.4520611
400,West Central Avenue,95376,37.7139162,-121.4310931
6653,Hopkins Road,95377,37.7313263,-121.5237977
6872,Promontory Parkway,95377,37.7323404,-121.5293679
2586,Buthmann Avenue,95376,37.7556216,-121.4314028
925,Bogetti Lane,95376,37.7234623,-121.4425362
1730,Parkside Drive,95376,37.7220922,-121.4465946
600,Sequoia Boulevard,95376,37.7361305,-121.4397328
400,Valpico Road,95376,37.7091070,-121.4314585
