House number,Street name,Postal code,Latitude,Longitude
2813,North Berkeley Avenue,95382,37.5185292,-120.8312122
2619,North Berkeley Avenue,95382,37.5167591,-120.8312122
2901,North Berkeley Avenue,95382,37.5193631,-120.8311478
1619,East Monte Vista Avenue,95382,37.5227118,-120.8299275
247,East Canal Drive,95380,37.5008231,-120.8462198
2700,Geer Road,95382,37.5177872,-120.8485740
2900,Geer Road,95382,37.5190529,-120.8471228
118,East Monte Vista Avenue,95382,37.5217653,-120.8474607
2600,Geer Road,95382,37.5168893,-120.8484478
2595,Geer Road,95382,37.5160404,-120.8504210
1951,Lander Avenue,95380,37.4753817,-120.8495660
1991,Lander Avenue,95380,37.4748985,-120.8496010
420,A Street,95380,37.4903537,-120.8485372
1000,East Monte Vista Avenue,95380,37.5215924,-120.8371220
234,East Main Street,95380,37.4950448,-120.8451673
3106,Geer Road,95382,37.5216399,-120.8480197
942,North Golden State Boulevard,95380,37.5023148,-120.8527311
3090,Countryside Drive,95382,37.5207006,-120.8809560
3080,Countryside Drive,95382,37.5207314,-120.8808380
333,East Canal Drive,95381,37.5010497,-120.8445525
1000,North Golden State Boulevard,95380,37.5025618,-120.8528913
2590,Geer Road,95382,37.5161761,-120.8486033
3151,Geer Road,95382,37.5212133,-120.8500960
3051,Geer Road,95382,37.5200305,-120.8500580
201,Tampa Street,95382,37.5205836,-120.8519360
3851,Crowell Road,95382,37.5268405,-120.8627689
2500,Geer Road,95382-1427,37.5158382,-120.8483725
2050,West Main Street,95380,37.4923743,-120.8725144
2868,West Monte Vista Avenue,95380,37.5215464,-120.8803457
2707,West Monte Vista Avenue,95380,37.5224248,-120.8796118
3210,West Monte Vista Avenue,95380,37.5224868,-120.8801444
2450,Geer Road,95382,37.5149550,-120.8473146
3180,Country Side Drive,95380,37.5213189,-120.8807785
2858,West Monte Vista Avenue,95380,37.5215086,-120.8797214
3100,Countryside Drive,95380,37.5211069,-120.8807880
3050,Hotel Drive,95380,37.5223189,-120.8826340
2870,West Monte Vista Avenue,95380,37.5214844,-120.8804844
3070,Hotel Drive,95380,37.5223088,-120.8829834
2717,Countryside Drive,95380,37.5158401,-120.8811680
3140,Countryside Drive,95380,37.5212102,-120.8807810
3015,North Tegner Road,95380,37.5202284,-120.8894756
1850,Countryside Drive,95380,37.5094144,-120.8756233
2000,West Main Street,95380-9434,37.4923815,-120.8720638
1175,Geer Road,95380,37.5040154,-120.8493327
170,West Monte Vista Avenue,95382,37.5215212,-120.8505123
150,West Monte Vista Avenue,95382,37.5215217,-120.8503147
3161,Geer Road,95382,37.5214926,-120.8500577
130,West Monte Vista Avenue,95382,37.5215220,-120.8501968
557,North Golden State Boulevard,95380,37.4978732,-120.8497458
3210,West Monte Vista Avenue,95380,37.5214569,-120.8836291
3208,West Monte Vista Avenue,95380,37.5214359,-120.8834575
3051,Countryside Drive,95380,37.5211295,-120.8831756
3017,Countryside Drive,95380,37.5203591,-120.8831400
2733,Countryside Drive,95380,37.5163912,-120.8813750
2711,Countryside Drive,95380,37.5154503,-120.8809100
2697,Countryside Drive,95380,37.5151113,-120.8797229
2343,West Main Street,95380,37.4939486,-120.8755378
2709,Countryside Drive,95380,37.5151291,-120.8804719
952,Columbia Avenue,95380,37.4914897,-120.8594162
3100,Hotel Drive,95380,37.5222325,-120.8835826
3110,Hotel Drive,95380,37.5224367,-120.8835700
700,East Monte Vista Avenue,95382,37.5213023,-120.8406227
2705,West Monte Vista Avenue,95380,37.5221803,-120.8788763
244,North Broadway Street,95380,37.4943676,-120.8500129
244,North Broadway Street,95380,37.4942970,-120.8499401
2130,Geer Road,95382,37.5131949,-120.8486410
4441,Grillos Drive,95382,37.5336593,-120.8494627
1302,Paseo Belleza,95382,37.5346379,-120.8640380
160,West Monte Vista Avenue,95382,37.5215214,-120.8504234
140,West Monte Vista Avenue,95382,37.5215219,-120.8502520
120,West Monte Vista Avenue,95382,37.5215222,-120.8501418
116,South Center Street,95380,37.4948596,-120.8449474
132,South Center Street,95380,37.4946562,-120.8447058
136,South Center Street,95380,37.4945985,-120.8446373
138,South Center Street,95380,37.4945597,-120.8445912
140,South Center Street,95380,37.4945195,-120.8445435
228,East Main Street,95380,37.4949811,-120.8452674
222,East Main Street,95380,37.4949426,-120.8453276
220,East Main Street,95380,37.4949033,-120.8453890
208,East Main Street,95380,37.4946707,-120.8456638
210,East Main Street,95380,37.4947761,-120.8455156
208,East Main Street,95380,37.4946594,-120.8455392
1619,East Monte Vista Avenue,95382,37.5222081,-120.8297655
2591,Geer Road,95382,37.5160255,-120.8493490
690,Bell Street,95380-4154,37.4989813,-120.8351629
1400,Lyons Avenue,95380-4124,37.4990226,-120.8351237
4211,Country Walk Lane,95382-7451,37.5319783,-120.8268661
4223,Tapestry Way,95382-7448,37.5320290,-120.8279556
4283,Tapestry Way,95382-7448,37.5325770,-120.8279371
1851,Milestone Way,95382-7453,37.5298700,-120.8269775
4061,Country Walk Lane,95382-7450,37.5301441,-120.8269445
101,Lander Avenue,95380,37.4920947,-120.8494011
1250,East Avenue,95380,37.4924670,-120.8379989
3101,Geer Road,95382,37.5208482,-120.8500831
3102,Geer Road,95382,37.5215515,-120.8480239
1330,West Main Street,95380,37.4914447,-120.8635663
4545,North Kilroy Road,95382,37.5350708,-120.8781649
1110,Flower Street,95380,37.4951201,-120.8614157
893,Lander Avenue,95380,37.4849296,-120.8495591
893,Lander Avenue,95380,37.4853133,-120.8493169
865,Lander Avenue,95380,37.4847917,-120.8503822
965,Lander Avenue,95380,37.4838823,-120.8500641
4091,North Olive Avenue,95382,37.5306463,-120.8411257
4300,Cherry Blossom Lane,95382,37.5329707,-120.8335352
2500,Castleview Drive,95382,37.5117491,-120.8192650
1600,East Canal Drive,95380-4221,37.4982195,-120.8308475
1924,East Canal Drive,95380-4222,37.4989865,-120.8272671
1555,East Canal Drive,95380,37.5015071,-120.8321583
1441,Colorado Avenue,95380,37.5063187,-120.8375726
400,South Avenue,95380,37.4845183,-120.8542906
1,University Circle,95382,37.5256479,-120.8558160
3051,Countryside Drive,95380,37.5213809,-120.8819132
3051,Countryside Drive,95380,37.5209000,-120.8835076
2801,Countryside Drive,95380,37.5185382,-120.8807539
2901,Countryside Drive,95382,37.5193030,-120.8812702
3050,Countryside Drive,95380,37.5202060,-120.8806289
2501,Fulkerth Road,95380,37.5075182,-120.8764582
2955,North Tegner Road,95380-9401,37.5188232,-120.8889876
2900,Countryside Drive,95380,37.5195909,-120.8801935
1845,Countryside Drive,95380,37.5095923,-120.8775608
2800,Countryside Drive,95380,37.5190021,-120.8774505
3071,Countryside Drive,95380,37.5204871,-120.8817418
2705,West Monte Vista Avenue,95380,37.5222242,-120.8789342
3303,Entertainment Way,95380,37.5243548,-120.8855135
3105,West Monte Vista Avenue,95380,37.5223207,-120.8817482
3001,Hotel Drive,95380,37.5233135,-120.8822789
2111,Fulkerth Road,95380,37.5094119,-120.8729397
1901,Auto Mall Drive,95380,37.5095737,-120.8823185
1601,Auto Mall Drive,95380,37.5082612,-120.8824262
2955,North Tegner Road,95380-9401,37.5200759,-120.8879940
3400,West Monte Vista,95380,37.5214875,-120.8871137
3500,West Monte Vista Avenue,95382,37.5215096,-120.8898118
3301,Countryside Drive,95380,37.5239032,-120.8829848
3450,West Monte Vista Avenue,95380,37.5215127,-120.8888594
2840,Countryside Drive,95382,37.5186370,-120.8797445
3000,Countryside Drive,95380,37.5207713,-120.8783606
3180,Hotel Drive,95382,37.5225284,-120.8844441
1600,Auto Mall Drive,95380,37.5082218,-120.8803841
1401,Seasons Park Drive,95382,37.5253869,-120.8724493
2525,W Christoffersen Pkwy;West Christoffersen Parkway,95382,37.5314508,-120.8782987
156,South Broadway Avenue,95380,37.4922456,-120.8471798
2650,Geer Road,95382,37.5172073,-120.8485774
130,3rd Street,95380,37.4914837,-120.8480515
2901,North Berkeley Avenue,95382,37.5193795,-120.8313864
134,South Golden State Boulevard,95380,37.4942133,-120.8449962
2980,Geer Road,95382,37.5198115,-120.8485242
115,South Golden State Boulevard,95380,37.4940861,-120.8457354
420,A Street,95380,37.4903027,-120.8485350
4300,Geer Road,95382,37.5322805,-120.8481683
100,North Golden State Boulevard,95380,37.4950208,-120.8460281
10,East Main Street,95380,37.4938120,-120.8460640
111,North Golden State Boulevard,95380,37.4947840,-120.8465370
223,North Center Street,95380,37.4967885,-120.8464606
226,South Golden State Boulevard,95380,37.4935444,-120.8443458
326,South Center Street,95380-4960,37.4929745,-120.8429510
526,North Golden State Boulevard,95380,37.4992720,-120.8491705
651,West Springer Drive,95382,37.5337926,-120.8566422
1350,Fulkerth Road,95380,37.5046883,-120.8635748
1110,Flower Street,95380,37.4951935,-120.8615500
545,Clover Drive,95380,37.4768085,-120.8436376
3000,Geer Road,95382,37.5203631,-120.8485733
2400,Geer Road,95382,37.5150153,-120.8483715
2901,Geer Road,95382,37.5196415,-120.8493079
3181-3191,Geer Road,95382,37.5214938,-120.8494068
3100,Geer Road,95382,37.5213352,-120.8480467
2480,Geer Road,95382,37.5156184,-120.8470462
2395,Geer Road,95382,37.5142049,-120.8494641
825,Delbon Avenue,95382,37.5119478,-120.8380871
4105,Crowell Road,95382,37.5304840,-120.8629855
3220,Countryside Drive,95380,37.5231405,-120.8811602
4190,North Olive Avenue,95382,37.5316510,-120.8394515
1955,Geer Road,95382,37.5106703,-120.8493718
200,North Avenue,95382,37.5096052,-120.8460807
3000,Fulkerth Road,95380,37.5065855,-120.8821217
3000,Fulkerth Road,95380,37.5065197,-120.8826771
4180,North Olive Avenue,95382,37.5315137,-120.8394383
4160,North Olive Avenue,95382,37.5313747,-120.8394551
4140,North Olive Avenue,95382,37.5312392,-120.8394381
4120,North Olive Avenue,95382,37.5311025,-120.8394605
4100,North Olive Avenue,95382,37.5309646,-120.8394661
4080,North Olive Avenue,95382,37.5308285,-120.8394650
4060,North Olive Avenue,95382,37.5306893,-120.8394873
4040,North Olive Avenue,95382,37.5305532,-120.8394478
4020,North Olive Avenue,95382,37.5304151,-120.8394500
4010,North Olive Avenue,95382,37.5302764,-120.8394662
4000,North Olive Avenue,95382,37.5301384,-120.8394638
825,Andino Court,95382,37.5299746,-120.8392701
805,Andino Court,95382,37.5297946,-120.8394284
816,Andino Court,95382,37.5295682,-120.8393512
425,North Soderquist Road,95380,37.4962820,-120.8634979
201,North Walnut Road,95380,37.4942732,-120.8727973
4013,North Walnut Road,95382,37.5303120,-120.8692359
402,East Main Street,95380-4538,37.4957980,-120.8436708
435,East Main Street,95380,37.4967849,-120.8433677
826,Andino Court,95382,37.5295026,-120.8391259
846,Andino Court,95382,37.5295867,-120.8388590
856,Andino Court,95382,37.5296776,-120.8387557
845,Andino Court,95382,37.5300158,-120.8390372
4033,Heartland Way,95382,37.5302166,-120.8390984
4043,Heartland Way,95382,37.5303852,-120.8391121
4063,Heartland Way,95382,37.5305219,-120.8391237
4083,Heartland Way,95382,37.5306605,-120.8391161
4093,Heartland Way,95382,37.5307973,-120.8391065
4103,Heartland Way,95382,37.5309344,-120.8391002
4123,Heartland Way,95382,37.5310719,-120.8390788
4143,Heartland Way,95382,37.5312080,-120.8390956
4163,Heartland Way,95382,37.5313470,-120.8390759
4183,Heartland Way,95382,37.5314836,-120.8390737
4193,Heartland Way,95382,37.5316220,-120.8391247
4182,Heartland Way,95382,37.5314725,-120.8385957
4162,Heartland Way,95382,37.5313344,-120.8386035
4142,Heartland Way,95382,37.5311840,-120.8386004
4122,Heartland Way,95382,37.5310470,-120.8386009
28,Lander Avenue,95380,37.4936014,-120.8489575
2012,East Canal Drive,95380,37.4994449,-120.8256712
2739,Countryside Drive,95380,37.5162646,-120.8788498
2749,Countryside Drive,95380,37.5170724,-120.8795908
2737,Countryside Drive,95380,37.5165783,-120.8816043
693,North Golden State Boulevard,95380,37.4992184,-120.8500848
699,North Golden State Road,95380,37.4993195,-120.8502848
239,North Broadway Street,95380,37.4948945,-120.8492424
1401,Merritt Street,95380-4248,37.4945671,-120.8350804
2601,Geer Road,95382,37.5166099,-120.8492972
151,North Walnut Road,95380,37.4934882,-120.8720744
100,North Walnut Road,95380-9588,37.4932424,-120.8714881
2125,West Main Street,95380,37.4930960,-120.8728732
2201,West Main Street,95380,37.4931570,-120.8742424
2323,West Main Street,95380,37.4942121,-120.8753126
2687,Countryside Drive,95380,37.5149708,-120.8787812
2671,Countryside Drive,95380,37.5159352,-120.8784792
3100,West Christoffersen Parkway,95382,37.5284396,-120.8841567
316,South Laurel Street,95380,37.4901033,-120.8511798
245,Lander Avenue,95380,37.4895267,-120.8493194
3801,Countryside Drive,95380,37.5264356,-120.8869371
2751,Countryside Drive,95380,37.5175199,-120.8821669
2821,Countryside Drive,95380,37.5181201,-120.8824484
2831,Countryside Drive,95380,37.5184771,-120.8826072
2841,Countryside Drive,95380,37.5187030,-120.8826986
2891,Countryside Drive,95380,37.5192399,-120.8830048
2931,Countryside Drive,95380,37.5196474,-120.8832181
3606,North Golden State Boulevard,95380,37.5258463,-120.8813806
2360,El Camino Drive,95380-3608,37.5009962,-120.8220076
2380,El Camino Drive,95380-3608,37.5009617,-120.8217376
2340,El Camino Drive,95380-3608,37.5010327,-120.8222887
2375,El Camino Drive,95380-3607,37.5014314,-120.8217287
2355,El Camino Drive,95380-3607,37.5014299,-120.8219836
2335,El Camino Drive,95380-3607,37.5014606,-120.8222496
2305,El Camino Drive,95380-3607,37.5014822,-120.8225189
2310,El Camino Drive,95380-3608,37.5010717,-120.8225767
2335,East Canal Drive,95380-4306,37.5006305,-120.8222660
2355,East Canal Drive,95380-4306,37.5006139,-120.8219998
2375,East Canal Drive,95380-4306,37.5006202,-120.8217325
755,Wayside Drive,95380,37.5043423,-120.8401113
735,Wayside Drive,95380,37.5043580,-120.8406303
2323,Colorado Avenue,95380,37.5138460,-120.8361468
2323,Colorado Avenue,95380,37.5136664,-120.8360686
700,East Monte Vista Avenue,95382,37.5209150,-120.8406131
1000,East Monte Vista Avenue,95382,37.5209038,-120.8370754
865,Rosenthal Drive,95382,37.5309398,-120.8382715
885,Rosenthal Drive,95382,37.5309045,-120.8381236
905,Rosenthal Drive,95382,37.5307999,-120.8379459
925,Rosenthal Drive,95382,37.5307680,-120.8377891
945,Rosenthal Drive,95382,37.5306879,-120.8376086
860,East Springer Drive,95382,37.5313288,-120.8382843
880,East Springer Drive,95382,37.5312629,-120.8381672
900,East Springer Drive,95382,37.5311717,-120.8379678
920,East Springer Drive,95382,37.5311139,-120.8378291
940,East Springer Drive,95382,37.5310161,-120.8376416
4082,Heartland Way,95382,37.5306619,-120.8386211
4062,Heartland Way,95382,37.5305307,-120.8386304
4042,Heartland Way,95382,37.5303825,-120.8386407
4032,Heartland Way,95382,37.5302481,-120.8386264
4022,Heartland Way,95382,37.5300775,-120.8385069
4012,Heartland Way,95382,37.5300024,-120.8384215
191,North Tully Road,95380,37.4940949,-120.8694246
185,North Tully Road,95380,37.4935273,-120.8688224
325,North Center Street,95380,37.4974790,-120.8472004
1421,Myrtle Street,95380-4217,37.4935539,-120.8343129
1415,Myrtle Street,95380-4217,37.4935320,-120.8345505
1409,Myrtle Street,95380-4217,37.4935516,-120.8348247
1401,Myrtle Street,95380-4217,37.4935986,-120.8351100
1501,Myrtle Street,95380-4258,37.4935640,-120.8330608
1509,Myrtle Street,95380-4258,37.4935391,-120.8328091
1515,Myrtle Street,95380-4258,37.4935435,-120.8325556
1519,Myrtle Street,95380-4258,37.4935349,-120.8322926
1527,Myrtle Street,95380-4258,37.4935188,-120.8320401
1533,Myrtle Street,95380-4258,37.4935355,-120.8317809
1539,Myrtle Street,95380-4258,37.4935395,-120.8315174
1545,Myrtle Street,95380-4258,37.4935371,-120.8312528
1549,Myrtle Street,95380-4258,37.4935981,-120.8310116
1400,Myrtle Street,95380-4218,37.4931290,-120.8350936
1408,Myrtle Street,95380-4218,37.4931342,-120.8348337
1414,Myrtle Street,95380-4218,37.4931475,-120.8345738
1422,Myrtle Street,95380-4218,37.4931536,-120.8343143
1426,Myrtle Street,95380-4218,37.4931525,-120.8340564
1432,Myrtle Street,95380-4218,37.4931586,-120.8337966
1440,Myrtle Street,95380-4218,37.4931344,-120.8335548
1500,Myrtle Street,95380-4219,37.4931692,-120.8330762
1508,Myrtle Street,95380-4219,37.4931476,-120.8328161
1514,Myrtle Street,95380-4219,37.4931516,-120.8325624
1520,Myrtle Street,95380-4219,37.4931386,-120.8322981
1526,Myrtle Street,95380-4219,37.4931347,-120.8320291
1532,Myrtle Street,95380-4219,37.4931529,-120.8318052
1538,Myrtle Street,95380-4219,37.4931492,-120.8315462
1544,Myrtle Street,95380-4219,37.4931358,-120.8312571
1550,Myrtle Street,95380-4219,37.4931105,-120.8310219
1321,Myrtle Street,95380-4215,37.4935606,-120.8356738
1319,Myrtle Street,95380-4215,37.4935874,-120.8358130
1317,Myrtle Street,95380-4215,37.4936048,-120.8359612
1315,Myrtle Street,95380-4215,37.4935666,-120.8361207
1311,Myrtle Street,95380-4215,37.4935584,-120.8362889
139,Bell Street,95380-4205,37.4937778,-120.8355256
1331,Myrtle Street,95380-4215,37.4935831,-120.8354896
1307,Myrtle Street,95380-4215,37.4935511,-120.8364717
1301,Myrtle Street,95380-4215,37.4936722,-120.8366300
1300,Myrtle Street,95380-4216,37.4931334,-120.8366360
1400,Merritt Street,95380-4247,37.4940318,-120.8350747
1402,Merritt Street,95380-4247,37.4941200,-120.8348244
1414,Merritt Street,95380-4247,37.4940431,-120.8345619
1420,Merritt Street,95380-4247,37.4940717,-120.8343066
1428,Merritt Street,95380-4247,37.4941158,-120.8340482
1432,Merritt Street,95380-4247,37.4940826,-120.8338006
1442,Merritt Street,95380-4247,37.4941144,-120.8335430
1500,Merritt Street,95380-4249,37.4941147,-120.8330453
1409,Merritt Street,95380-4248,37.4945415,-120.8348243
1415,Merritt Street,95380-4248,37.4945448,-120.8345451
1421,Merritt Street,95380-4248,37.4945085,-120.8343076
1427,Merritt Street,95380-4248,37.4945241,-120.8340752
1433,Merritt Street,95380-4248,37.4945319,-120.8337877
1439,Merritt Street,95380-4248,37.4945754,-120.8335445
1312,Myrtle Street,95380-4216,37.4931448,-120.8362037
1308,Myrtle Street,95380-4216,37.4931669,-120.8364386
1501,Merritt Street,95380-4250,37.4945722,-120.8330683
1509,Merritt Street,95380-4250,37.4945748,-120.8328112
1515,Merritt Street,95380-4250,37.4945606,-120.8325564
1521,Merritt Street,95380-4250,37.4945082,-120.8322926
1527,Merritt Street,95380-4250,37.4945316,-120.8320311
1533,Merritt Street,95380-4250,37.4945033,-120.8317794
1539,Merritt Street,95380-4250,37.4945073,-120.8315145
1545,Merritt Street,95380-4250,37.4945089,-120.8312650
1551,Merritt Street,95380-4250,37.4945716,-120.8310247
1508,Merritt Street,95380-4249,37.4941196,-120.8328117
1514,Merritt Street,95380-4249,37.4940779,-120.8325460
1520,Merritt Street,95380-4249,37.4941075,-120.8322868
1526,Merritt Street,95380-4249,37.4941287,-120.8320342
1532,Merritt Street,95380-4249,37.4941052,-120.8317797
1538,Merritt Street,95380-4249,37.4941252,-120.8315270
1544,Merritt Street,95380-4249,37.4940913,-120.8312644
1552,Merritt Street,95380-4249,37.4940668,-120.8310132
1318,Myrtle Street,95380-4216,37.4931330,-120.8358798
1330,Myrtle Street,95380-4216,37.4931648,-120.8356086
1230,Myrtle Street,95380-4934,37.4931476,-120.8370513
1220,Myrtle Street,95380-4934,37.4931616,-120.8372934
1216,Myrtle Street,95380-4934,37.4931464,-120.8375370
1212,Myrtle Street,95380-4934,37.4931608,-120.8376998
1208,Myrtle Street,95380-4934,37.4931565,-120.8378791
1200,Myrtle Street,95380-4934,37.4931567,-120.8381399
1201,Myrtle Street,95380-4933,37.4935806,-120.8381354
1207,Myrtle Street,95380-4933,37.4935878,-120.8379377
1211,Myrtle Street,95380-4933,37.4935808,-120.8377693
1215,Myrtle Street,95380-4933,37.4935677,-120.8375901
1219,Myrtle Street,95380-4933,37.4935538,-120.8373923
1225,Myrtle Street,95380-4933,37.4935709,-120.8371969
1231,Myrtle Street,95380-4933,37.4936198,-120.8369828
1580,Sycamore Street,95380-4152,37.4950508,-120.8309996
1570,Sycamore Street,95380-4152,37.4950816,-120.8312748
1560,Sycamore Street,95380-4152,37.4950761,-120.8315207
1534,Sycamore Street,95380-4152,37.4950785,-120.8317766
1526,Sycamore Street,95380-4152,37.4951085,-120.8320351
1520,Sycamore Street,95380-4152,37.4951156,-120.8322989
1514,Sycamore Street,95380-4152,37.4950939,-120.8325156
1579,East Avenue,95380-4212,37.4928580,-120.8310130
1569,East Avenue,95380-4212,37.4928457,-120.8312629
1565,East Avenue,95380-4212,37.4928570,-120.8315118
1559,East Avenue,95380-4212,37.4928490,-120.8317785
1549,East Avenue,95380-4212,37.4928511,-120.8320381
1539,East Avenue,95380-4212,37.4928501,-120.8322955
1529,East Avenue,95380-4212,37.4928439,-120.8325527
1519,East Avenue,95380-4212,37.4928608,-120.8328186
1501,East Avenue,95380-4212,37.4928573,-120.8330728
1483,East Avenue,95380-4210,37.4928662,-120.8336405
1465,East Avenue,95380-4210,37.4928491,-120.8338864
1455,East Avenue,95380-4210,37.4928556,-120.8341240
1441,East Avenue,95380-4210,37.4928630,-120.8343784
1425,East Avenue,95380-4210,37.4928791,-120.8346586
1421,East Avenue,95380-4210,37.4928848,-120.8348766
52,Bell Street,95380-4284,37.4928767,-120.8351050
1387,East Avenue,95380-4208,37.4928888,-120.8356131
"1375,1377",East Avenue,95380-4208,37.4928813,-120.8357854
"1365,1367",East Avenue,95380-4208,37.4928820,-120.8359875
1361,East Avenue,95380-4208,37.4928940,-120.8362042
1331,East Avenue,95380-4208,37.4928909,-120.8363916
1301,East Avenue,95380-4208,37.4928894,-120.8366194
1287,East Avenue,95380-4924,37.4928901,-120.8370253
1271,East Avenue,95380-4924,37.4928887,-120.8372701
1261,East Avenue,95380-4924,37.4928991,-120.8374681
1241,East Avenue,95380-4924,37.4928983,-120.8376864
1221,East Avenue,95380-4924,37.4928914,-120.8378991
1201,East Avenue,95380-4924,37.4928824,-120.8381150
1500,Sycamore Street,95380-4152,37.4950994,-120.8330809
1508,Sycamore Street,95380-4152,37.4950938,-120.8328100
1595,Sycamore Street,95380-4151,37.4955647,-120.8310021
1575,Sycamore Street,95380-4151,37.4955730,-120.8312566
1555,Sycamore Street,95380-4151,37.4955111,-120.8315152
1533,Sycamore Street,95380-4151,37.4955320,-120.8317694
1527,Sycamore Street,95380-4151,37.4955522,-120.8320053
1521,Sycamore Street,95380-4151,37.4955327,-120.8322852
1515,Sycamore Street,95380-4151,37.4955214,-120.8325498
300,Colorado Avenue,95380-4109,37.4955450,-120.8330919
1441,Sycamore Street,95380-4150,37.4955578,-120.8335393
1433,Sycamore Street,95380-4150,37.4955479,-120.8337886
1425,Sycamore Street,95380-4150,37.4955573,-120.8340496
1419,Sycamore Street,95380-4150,37.4955456,-120.8343012
1415,Sycamore Street,95380-4150,37.4955490,-120.8345778
1407,Sycamore Street,95380-4150,37.4955066,-120.8348485
1401,Sycamore Street,95380-4150,37.4955276,-120.8350698
1400,Sycamore Street,95380-4165,37.4950602,-120.8350758
1408,Sycamore Street,95380-4165,37.4951228,-120.8348193
1414,Sycamore Street,95380-4165,37.4951210,-120.8345626
1422,Sycamore Street,95380-4165,37.4951019,-120.8342997
1426,Sycamore Street,95380-4165,37.4951146,-120.8340313
1432,Sycamore Street,95380-4165,37.4950910,-120.8337835
1438,Sycamore Street,95380-4165,37.4950468,-120.8335250
380,Colorado Avenue,95380-4109,37.4960772,-120.8330884
1516,East Marshall Street,95380-4134,37.4961082,-120.8328186
1518,East Marshall Street,95380-4134,37.4960722,-120.8325406
1520,East Marshall Street,95380-4134,37.4961124,-120.8322883
1528,East Marshall Street,95380-4134,37.4961122,-120.8320361
1532,East Marshall Street,95380-4134,37.4960693,-120.8317695
1538,East Marshall Street,95380-4134,37.4960981,-120.8315188
1544,East Marshall Street,95380-4134,37.4960987,-120.8312494
1550,East Marshall Street,95380-4134,37.4960612,-120.8309943
1444,East Marshall Street,95380-4133,37.4960895,-120.8335405
1432,East Marshall Street,95380-4133,37.4960802,-120.8337952
1426,East Marshall Street,95380-4133,37.4961132,-120.8340415
1420,East Marshall Street,95380-4133,37.4961085,-120.8342881
1412,East Marshall Street,95380-4133,37.4961186,-120.8345736
1406,East Marshall Street,95380-4133,37.4960745,-120.8348330
1400,East Marshall Street,95380-4133,37.4960971,-120.8350964
1509,Sycamore Street,95380-4151,37.4955500,-120.8328054
1437,East Marshall Street,93380-4132,37.4965356,-120.8334850
1433,East Marshall Street,93380-4132,37.4965365,-120.8338111
1425,East Marshall Street,93380-4132,37.4965724,-120.8340647
1421,East Marshall Street,93380-4132,37.4965168,-120.8342965
1415,East Marshall Street,93380-4132,37.4965162,-120.8345077
1409,East Marshall Street,93380-4132,37.4965472,-120.8347356
1401,East Marshall Street,93380-4132,37.4965195,-120.8351214
1446,Cahill Street,95380-4108,37.4969658,-120.8334814
1438,Cahill Street,95380-4108,37.4969037,-120.8336526
1436,Cahill Street,95380-4108,37.4969471,-120.8338370
1434,Cahill Street,95380-4108,37.4969665,-120.8340082
1432,Cahill Street,95380-4108,37.4969397,-120.8341700
1420,Cahill Street,95380-4108,37.4969754,-120.8343539
1416,Cahill Street,95380-4108,37.4969426,-120.8345251
1410,Cahill Street,95380-4108,37.4969032,-120.8347145
1406,Cahill Street,95380-4108,37.4969771,-120.8348561
1400,Cahill Street,95380-4108,37.4969832,-120.8351046
1443,Cahill Street,95380-4107,37.4974002,-120.8334756
1439,Cahill Street,95380-4107,37.4974193,-120.8336442
1435,Cahill Street,95380-4107,37.4974008,-120.8338237
1433,Cahill Street,95380-4107,37.4973643,-120.8340946
1409,Cahill Street,95380-4107,37.4973956,-120.8347749
1413,Cahill Street,95380-4107,37.4973604,-120.8346106
1403,Cahill Street,95380-4107,37.4974147,-120.8349429
550,Bell Street,95380-4153,37.4973894,-120.8351110
1431,Cahill Street,95380-4107,37.4975351,-120.8339907
539,Colorado Avenue,95380-4110,37.4975732,-120.8334924
1400,Cooper Avenue,95380-4116,37.4978783,-120.8351307
1404,Cooper Avenue,95380-4116,37.4979938,-120.8349587
1406,Cooper Avenue,95380-4116,37.4979927,-120.8347876
1408,Cooper Avenue,95380-4116,37.4979921,-120.8346153
1418,Cooper Avenue,95380-4116,37.4979785,-120.8343582
1422,Cooper Avenue,95380-4116,37.4979907,-120.8341817
1432,Cooper Avenue,95380-4116,37.4979795,-120.8338045
1436,Cooper Avenue,95380-4116,37.4979660,-120.8336459
1440,Cooper Avenue,95380-4116,37.4979680,-120.8334919
1417,Cahill Street,95380-4107,37.4973660,-120.8344395
1425,Cahill Street,95380-4107,37.4973636,-120.8342687
1428,Cooper Avenue,95380-4116,37.4979607,-120.8339665
1401,Cooper Avenue,95380-4115,37.4983603,-120.8350600
650,Bell Street,95380-4154,37.4985624,-120.8350789
1407,Cooper Avenue,95380-4115,37.4983775,-120.8347834
1409,Cooper Avenue,95380-4115,37.4983962,-120.8346074
1413,Cooper Avenue,95380-4115,37.4984082,-120.8344277
"1419,1421",Cooper Avenue,95380-4115,37.4983497,-120.8342768
1427,Cooper Avenue,95380,37.4983599,-120.8340894
601,Colorado Avenue,95380-4169,37.4984750,-120.8336591
1320,Cahill Street,95380-4106,37.4969999,-120.8358456
1324,Cahill Street,95380-4106,37.4970074,-120.8356794
1316,Cahill Street,95380-4106,37.4969844,-120.8360566
1300,Cahill Street,95380-4106,37.4969756,-120.8365777
1308,Cahill Street,95380-4106,37.4969934,-120.8363449
1301,East Marshall Street,95380-4130,37.4965969,-120.8365750
1311,East Marshall Street,95380-4130,37.4965551,-120.8363561
1325,East Marshall Street,95380-4130,37.4965239,-120.8356789
1329,East Marshall Street,95380-4130,37.4965523,-120.8355259
1300,East Marshall Street,95380-4131,37.4960979,-120.8366134
1304,East Marshall Street,95380-4131,37.4960953,-120.8364481
1312,East Marshall Street,95380-4131,37.4960969,-120.8362673
1314,East Marshall Street,95380-4131,37.4961172,-120.8360854
1318,East Marshall Street,95380-4131,37.4961134,-120.8359162
1322,East Marshall Street,95380-4131,37.4961040,-120.8356795
1330,Cooper Avenue,95380-4114,37.4979529,-120.8355136
1324,Cooper Avenue,95380-4114,37.4979743,-120.8356726
1320,Cooper Avenue,95380-4114,37.4979788,-120.8358429
1316,Cooper Avenue,95380-4114,37.4979741,-120.8360225
1312,Cooper Avenue,95380-4114,37.4979658,-120.8361698
1302,Cooper Avenue,95380-4114,37.4979736,-120.8363604
1300,Cooper Avenue,95380-4114,37.4979721,-120.8365894
40,North Berkeley Avenue,95380-4206,37.4929374,-120.8305436
1621,East Avenue,95380-4214,37.4929030,-120.8303050
1625,East Avenue,95380-4214,37.4929234,-120.8300889
1655,East Avenue,95380,37.4929729,-120.8299265
1655,East Avenue,95380,37.4930546,-120.8295380
1655,East Avenue,95380,37.4933254,-120.8299246
1655,East Avenue,95380,37.4937980,-120.8295358
1655,East Avenue,95380,37.4937180,-120.8299243
1655,East Avenue,95380,37.4934054,-120.8295383
60,North Berkeley Avenue,95380-4206,37.4931255,-120.8304548
80,North Berkeley Avenue,95380-4206,37.4932909,-120.8304924
100,North Berkeley Avenue,95380-4207,37.4934811,-120.8304141
128,North Berkeley Avenue,95380-4207,37.4936843,-120.8304336
180,North Berkeley Avenue,95380-4201,37.4944161,-120.8304976
1620,Merritt Street,95380-4242,37.4944213,-120.8301893
1626,Merritt Street,95380-4242,37.4944105,-120.8299166
1658,Merritt Street,95380-4242,37.4943622,-120.8297075
1672,Merritt Street,95380-4242,37.4943725,-120.8295185
1700,Merritt Street,95380-4236,37.4943124,-120.8292252
185,Elena Court,95380-4233,37.4940811,-120.8292393
161,Elena Court,95380-4233,37.4938925,-120.8292148
145,Elena Court,95380-4233,37.4937000,-120.8291742
131,Elena Court,95380-4233,37.4935201,-120.8292392
115,Elena Court,95380-4233,37.4933153,-120.8293205
101,Elena Court,95380-4233,37.4931585,-120.8290512
100,Elena Court,95380-4233,37.4931920,-120.8287528
176,North Berkeley Avenue,95380-4201,37.4941721,-120.8302691
132,Elena Court,95380-4233,37.4935476,-120.8286600
148,Elena Court,95380-4233,37.4937346,-120.8287009
164,Elena Court,95380-4233,37.4939265,-120.8287055
180,Elena Court,95380-4233,37.4941196,-120.8287525
1740,Merritt Street,95380-4236,37.4943643,-120.8286590
165,Andrews Court,95380-4230,37.4943971,-120.8282823
145,Andrews Court,95380-4230,37.4942229,-120.8282728
125,Andrews Court,95380-4230,37.4939485,-120.8283254
100,Andrews Court,95380-4230,37.4938364,-120.8280170
120,Andrews Court,95380-4230,37.4939545,-120.8276920
140,Andrews Court,95380-4230,37.4942225,-120.8277476
160,Andrews Court,95380-4230,37.4943970,-120.8277478
165,Fairvale Court,95380-4234,37.4943946,-120.8274235
145,Fairvale Court,95380-4234,37.4942027,-120.8274541
125,Fairvale Court,95380-4234,37.4939422,-120.8274640
100,Fairvale Court,95380-4234,37.4938327,-120.8271703
1200,Fairvale Court,95380-4234,37.4939496,-120.8268530
140,Fairvale Court,95380-4234,37.4942133,-120.8269028
160,Fairvale Court,95380-4234,37.4943914,-120.8268763
1671,Merritt Street,95380-4241,37.4948004,-120.8294370
1657,Merritt Street,95380-4241,37.4948051,-120.8296424
1643,Merritt Street,95380-4241,37.4948158,-120.8298652
1629,Merritt Street,95380-4241,37.4948024,-120.8300542
1619,Merritt Street,95380-4241,37.4948235,-120.8302624
200,North Berkeley Avenue,95380-4202,37.4947623,-120.8305127
266,North Berkeley Avenue,95380-4254,37.4951311,-120.8304540
280,North Berkeley Avenue,95380-4254,37.4953056,-120.8304561
300,North Berkeley Avenue,95380-4257,37.4954335,-120.8304977
330,North Berkeley Avenue,95380-4257,37.4956251,-120.8304975
350,North Berkeley Avenue,95380-4257,37.4958193,-120.8305065
358,North Berkeley Avenue,95380-4257,37.4959985,-120.8304670
1600,East Marshall Street,95380-4238,37.4962118,-120.8305244
1622,East Marshall Street,95380-4238,37.4962535,-120.8303279
1662,East Marshall Street,95380-4238,37.4961755,-120.8300181
215,Villa Court,95380-4245,37.4951121,-120.8295352
225,Villa Court,95380-4245,37.4953488,-120.8296452
229,Villa Court,95380-4245,37.4956481,-120.8296245
231,Villa Court,95380-4245,37.4957874,-120.8294658
233,Villa Court,95380-4245,37.4957549,-120.8291955
235,Villa Court,95380-4245,37.4957206,-120.8288984
243,Villa Court,95380-4245,37.4957045,-120.8285973
255,Villa Court,95380-4245,37.4957616,-120.8283189
263,Villa Court,95380-4245,37.4957141,-120.8280975
265,Villa Court,95380-4245,37.4957353,-120.8278735
267,Villa Court,95380-4245,37.4957698,-120.8276494
269,Villa Court,95380-4245,37.4957908,-120.8274192
271,Villa Court,95380-4245,37.4956232,-120.8272259
275,Villa Court,95380-4245,37.4954284,-120.8272731
1701,Merritt Street,95380-4283,37.4947882,-120.8289760
210,Villa Court,95380-4246,37.4949785,-120.8289760
218,Villa Court,95380-4246,37.4951451,-120.8290072
220,Villa Court,95380-4246,37.4953407,-120.8290697
236,Villa Court,95380-4246,37.4952969,-120.8287506
244,Villa Court,95380-4246,37.4952782,-120.8285473
256,Villa Court,95380-4246,37.4953201,-120.8283207
264,Villa Court,95380-4246,37.4953148,-120.8280966
1795,Merritt Street,95380-4283,37.4948787,-120.8286360
1801,Merritt Street,95380-4243,37.4948562,-120.8281972
284,Villa Court,95380-4246,37.4950708,-120.8277526
277,Villa Court,95380-4245,37.4952278,-120.8272957
285,Villa Court,95380-4245,37.4950239,-120.8273035
1899,Merritt Street,95380-4244,37.4947766,-120.8272516
205,North Johnson Road,95380-4235,37.4948046,-120.8264547
1674,East Marshall Street,95380-4238,37.4961425,-120.8295190
1724,East Marshall Street,95380-4238,37.4961507,-120.8292238
1754,East Marshall Street,95380-4238,37.4961598,-120.8289633
1808,East Marshall Street,95380-4281,37.4961395,-120.8284073
1830,East Marshall Street,95380-4281,37.4961457,-120.8281062
1890,East Marshall Street,95380-4281,37.4961923,-120.8273726
1900,East Marshall Street,95380-4240,37.4961818,-120.8271893
225,North Johnson Road,95380-4235,37.4951501,-120.8264689
353,North Johnson Road,95380-4235,37.4956783,-120.8264138
355,North Johnson Road,95380-4235,37.4959681,-120.8264851
1922,East Marshall Street,95380-4240,37.4956646,-120.8268303
1960,East Marshall Street,95380-4240,37.4962437,-120.8265416
1920,East Marshall Street,95380-4240,37.4961773,-120.8269120
4524,Destiny Drive,95382,37.5342674,-120.8386203
4544,Destiny Drive,95382,37.5344472,-120.8385897
913,Images Court,95382,37.5343674,-120.8382950
923,Images Court,95382,37.5343695,-120.8380494
943,Images Court,95382,37.5341844,-120.8378092
946,Images Court,95382,37.5339884,-120.8378346
926,Images Court,95382,37.5338247,-120.8380587
916,Images Court,95382,37.5338289,-120.8383099
4464,Destiny Drive,95382,37.5339233,-120.8386256
4434,Destiny Drive,95382,37.5337342,-120.8386235
867,Moonbeam Way,95382,37.5335168,-120.8386367
907,Moonbeam Way,95382,37.5334859,-120.8384054
927,Moonbeam Way,95382,37.5335150,-120.8381687
937,Moonbeam Way,95382,37.5334853,-120.8379335
4409,Callisto Lane,95382,37.5334744,-120.8376182
4429,Callisto Lane,95382,37.5336749,-120.8375937
4449,Callisto Lane,95382,37.5338322,-120.8375329
4459,Callisto Lane,95382,37.5340274,-120.8374438
4499,Callisto Lane,95382,37.5341879,-120.8373622
4549,Callisto Lane,95382,37.5343448,-120.8372327
4579,Callisto Lane,95382,37.5345109,-120.8371620
964,Dancer Way,95382,37.5345708,-120.8374306
944,Dancer Way,95382,37.5346258,-120.8376809
934,Dancer Way,95382,37.5346586,-120.8378882
924,Dancer Way,95382,37.5347372,-120.8380788
914,Dancer Way,95382,37.5347652,-120.8383095
4584,Destiny Drive,95382,37.5347779,-120.8386089
4564,Destiny Drive,95382,37.5346000,-120.8386122
4587,Destiny Drive,95382,37.5347879,-120.8391302
4567,Destiny Drive,95382,37.5346269,-120.8390988
4547,Destiny Drive,95382,37.5344747,-120.8391059
4527,Destiny Drive,95382,37.5342983,-120.8391253
4507,Destiny Drive,95382,37.5341230,-120.8391420
4477,Destiny Drive,95382,37.5339533,-120.8391096
4447,Destiny Drive,95382,37.5338059,-120.8391350
4427,Destiny Drive,95382,37.5336288,-120.8391180
4407,Destiny Drive,95382,37.5334747,-120.8391497
4400,North Olive Avenue,95382,37.5334752,-120.8394660
4420,North Olive Avenue,95382,37.5336250,-120.8395034
4440,North Olive Avenue,95382,37.5338155,-120.8395087
4470,North Olive Avenue,95382,37.5339536,-120.8394981
4500,North Olive Avenue,95382,37.5341346,-120.8394734
4520,North Olive Avenue,95382,37.5342889,-120.8394919
4540,North Olive Avenue,95382,37.5344634,-120.8394910
4560,North Olive Avenue,95382,37.5346140,-120.8394634
4580,North Olive Avenue,95382,37.5347812,-120.8394477
2058,East Canal Drive,95381,37.4994525,-120.8251999
1815,East Marshall Street,95380-4239,37.4966735,-120.8281580
1835,East Marshall Street,95380-4239,37.4966494,-120.8279499
1855,East Marshall Street,95380-4239,37.4966396,-120.8276999
1875,East Marshall Street,95380-4239,37.4966365,-120.8274533
1895,East Marshall Street,95380-4239,37.4966787,-120.8272013
1943,East Marshall Street,95380-4239,37.4966823,-120.8269717
401,North Johnson Road,95380-4237,37.4966546,-120.8263561
431,North Johnson Road,95380-4237,37.4968662,-120.8263681
247,North Broadway Street,95380,37.4952824,-120.8495107
244,North Broadway Street,95380,37.4941672,-120.8497871
837,North Tully Road,95380,37.5013501,-120.8723092
801,North Tully Road,95380,37.5007921,-120.8722255
3080,Golden Oak Court,95382-8667,37.5362327,-120.8846246
3070,Golden Oak Court,95382-8667,37.5362203,-120.8844107
3060,Golden Oak Court,95382-8667,37.5362577,-120.8842133
3050,Golden Oak Court,95382-8667,37.5362438,-120.8840139
3040,Golden Oak Court,95382-8667,37.5362425,-120.8838168
3030,Golden Oak Court,95382-8667,37.5362683,-120.8836283
3020,Golden Oak Court,95382-8667,37.5362528,-120.8834292
3081,Red Oak Court,95382-8668,37.5359725,-120.8846343
3071,Red Oak Court,95382-8668,37.5359859,-120.8844132
3061,Red Oak Court,95382-8668,37.5359656,-120.8842157
3051,Red Oak Court,95382-8668,37.5359482,-120.8840172
3041,Red Oak Court,95382-8668,37.5359390,-120.8838180
3031,Red Oak Court,95382-8668,37.5359702,-120.8836278
3021,Red Oak Court,95382-8668,37.5359634,-120.8834296
3022,Red Oak Court,95382-8668,37.5355233,-120.8834299
3032,Red Oak Court,95382-8668,37.5355324,-120.8836385
3042,Red Oak Court,95382-8668,37.5355435,-120.8838351
3052,Red Oak Court,95382-8668,37.5355266,-120.8840334
3062,Red Oak Court,95382-8668,37.5355295,-120.8842334
3072,Red Oak Court,95382-8668,37.5355060,-120.8844355
3082,Red Oak Court,95382-8668,37.5355065,-120.8846457
3012,Red Oak Court,95382-8668,37.5355321,-120.8832313
3010,Golden Oak Court,95382-8667,37.5362511,-120.8832316
3000,Golden Oak Court,95382-8667,37.5362554,-120.8830403
3011,Red Oak Court,95382-8668,37.5359451,-120.8832312
3001,Red Oak Court,95382-8668,37.5359369,-120.8830429
3002,Red Oak Court,95382-8668,37.5355375,-120.8830406
4562,Sugar Oak Drive,95382-8666,37.5363961,-120.8825363
4561,Sunny Oak Court,95382-8665,37.5363998,-120.8822344
4552,Sugar Oak Drive,95382-8666,37.5362227,-120.8825499
4551,Sunny Oak Court,95382-8665,37.5362209,-120.8822165
4541,Sunny Oak Court,95382-8665,37.5360561,-120.8821756
4531,Sunny Oak Court,95382-8665,37.5358889,-120.8822180
4532,Sugar Oak Drive,95382-8666,37.5358916,-120.8825541
4522,Sugar Oak Drive,95382-8666,37.5357274,-120.8825476
4521,Sunny Oak Court,95382-8665,37.5357260,-120.8822077
4512,Sugar Oak Drive,95382-8666,37.5355616,-120.8825550
4511,Sunny Oak Court,95382-8665,37.5355364,-120.8821653
3003,Grand Oak Court,95382-8684,37.5352206,-120.8830429
3013,Grand Oak Court,95382-8684,37.5352494,-120.8832323
3023,Grand Oak Court,95382-8684,37.5352261,-120.8834404
3033,Grand Oak Court,95382-8684,37.5352269,-120.8836391
3043,Grand Oak Court,95382-8684,37.5352515,-120.8838373
4500,Sugar Oak Drive,95382-8666,37.5352455,-120.8825483
2983,Grand Oak Court,95382-8683,37.5351457,-120.8822684
4501,Sunny Oak Court,95382-8665,37.5353619,-120.8820637
3053,Grand Oak Court,95382-8684,37.5352220,-120.8840277
3063,Grand Oak Court,95382-8684,37.5352237,-120.8842336
3073,Grand Oak Court,95382-8684,37.5352800,-120.8844301
3083,Grand Oak Court,95382-8684,37.5352480,-120.8846521
3084,Grand Oak Court,95382-8684,37.5347963,-120.8846837
3074,Grand Oak Court,95382-8684,37.5347980,-120.8844668
3064,Grand Oak Court,95382-8684,37.5348205,-120.8842603
3054,Grand Oak Court,95382-8684,37.5348185,-120.8840578
3044,Grand Oak Court,95382-8684,37.5348206,-120.8838488
3034,Grand Oak Court,95382-8684,37.5348295,-120.8836421
3024,Grand Oak Court,95382-8684,37.5348196,-120.8834319
3014,Grand Oak Court,95382-8684,37.5348069,-120.8832088
3065,Silver Oak Court,95382-8613,37.5345305,-120.8832819
3075,Silver Oak Court,95382-8613,37.5345242,-120.8834820
3085,Silver Oak Court,95382-8613,37.5345102,-120.8836725
3095,Silver Oak Court,95382-8613,37.5345342,-120.8838722
3105,Silver Oak Court,95382-8614,37.5345248,-120.8840690
3115,Silver Oak Court,95382-8614,37.5345160,-120.8842659
3125,Silver Oak Court,95382-8614,37.5345665,-120.8844739
3135,Silver Oak Court,95382-8614,37.5345298,-120.8846961
3136,Silver Oak Court,95382-8614,37.5340817,-120.8847117
3126,Silver Oak Court,95382-8614,37.5340790,-120.8844936
3113,White Oak Court,95382-8612,37.5338371,-120.8847033
3093,White Oak Court,95382-8611,37.5338018,-120.8842857
3083,White Oak Court,95382-8611,37.5338073,-120.8840966
3116,Silver Oak Court,95382-8614,37.5341143,-120.8842596
3106,Silver Oak Court,95382-8614,37.5341260,-120.8840611
3103,White Oak Court,95382-8612,37.5338514,-120.8844976
3096,Silver Oak Court,95382-8613,37.5341004,-120.8838491
3086,Silver Oak Court,95382-8613,37.5341066,-120.8836449
3076,Silver Oak Court,95382-8613,37.5341116,-120.8834415
3066,Silver Oak Court,95382-8613,37.5341253,-120.8832206
3056,Silver Oak Court,95382-8613,37.5340889,-120.8830118
3073,White Oak Court,95382-8611,37.5338055,-120.8838980
3063,White Oak Court,95382-8611,37.5337842,-120.8836940
3053,White Oak Court,95382-8611,37.5337901,-120.8834832
3043,White Oak Court,95382-8611,37.5337853,-120.8832596
3033,White Oak Court,95382-8611,37.5337267,-120.8830447
3046,Silver Oak Court,95382-8613,37.5340387,-120.8828219
3064,White Oak Court,95382-8611,37.5333552,-120.8845161
3054,White Oak Court,95382-8611,37.5333822,-120.8843117
3044,White Oak Court,95382-8611,37.5333658,-120.8840840
3034,White Oak Court,95382-8611,37.5333749,-120.8838569
3024,White Oak Court,95382-8611,37.5334123,-120.8836062
3014,White Oak Court,95382-8611,37.5333797,-120.8833778
3141,Paseo Entrada Road,95382-8610,37.5330776,-120.8846499
3121,Paseo Entrada Road,95382-8610,37.5330943,-120.8844516
3101,Paseo Entrada Road,95382-8610,37.5330754,-120.8842549
3001,Paseo Entrada Road,95382-8609,37.5331334,-120.8832417
2981,Paseo Entrada Road,95382-8345,37.5332346,-120.8830608
3023,White Oak Court,95382-8611,37.5336405,-120.8828529
3013,White Oak Court,95382-8611,37.5335244,-120.8826933
3003,White Oak Court,95382-8611,37.5334113,-120.8825477
3006,Silver Oak Court,95382-8613,37.5335429,-120.8822170
3016,Silver Oak Court,95382-8613,37.5336774,-120.8824009
3026,Silver Oak Court,95382-8613,37.5337954,-120.8825224
3036,Silver Oak Court,95382-8613,37.5339048,-120.8826835
2920,Tanbark Lane,95382-8615,37.5339308,-120.8820149
2921,Paseo Entrada Road,95382-8345,37.5337720,-120.8817389
2901,Paseo Entrada Road,95382-8345,37.5338790,-120.8815646
2881,Paseo Entrada Road,95382-8344,37.5339600,-120.8813565
2900,Tanbark Lane,95382-8615,37.5340390,-120.8818857
2880,Tanbark Lane,95382-8616,37.5341760,-120.8817456
2964,Grand Oak Court,95382-8683,37.5345573,-120.8820983
2974,Grand Oak Court,95382-8683,37.5346352,-120.8822768
2901,Tanbark Lane,95382-8615,37.5343720,-120.8822239
2921,Tanbark Lane,95382-8615,37.5342578,-120.8823596
3035,Silver Oak Court,95382-8613,37.5344155,-120.8826332
3045,Silver Oak Court,95382-8613,37.5344884,-120.8828319
2994,Grand Oak Court,95382-8683,37.5348316,-120.8827119
3004,Grand Oak Court,95382-8684,37.5348053,-120.8830006
2984,Grand Oak Court,95382-8683,37.5347640,-120.8825217
3055,Silver Oak Court,95382-8613,37.5345116,-120.8830819
2870,Blue Oak Court,95382-8663,37.5348661,-120.8818517
2860,Blue Oak Court,95382-8663,37.5349760,-120.8817230
2850,Blue Oak Court,95382-8663,37.5351216,-120.8816369
2840,Blue Oak Court,95382-8662,37.5352529,-120.8814572
2830,Blue Oak Court,95382-8662,37.5353789,-120.8813063
2820,Blue Oak Court,95382-8662,37.5354250,-120.8810501
2810,Blue Oak Court,95382-8662,37.5354208,-120.8808428
2800,Blue Oak Court,95382-8662,37.5353687,-120.8806486
2841,Blue Oak Court,95382-8662,37.5358186,-120.8813193
2831,Blue Oak Court,95382-8662,37.5358659,-120.8811193
2821,Blue Oak Court,95382-8662,37.5358518,-120.8809231
2811,Blue Oak Court,95382-8662,37.5359265,-120.8807231
2801,Blue Oak Court,95382-8662,37.5359347,-120.8805296
4500,Sunny Oak Court,95382-8665,37.5356761,-120.8816930
4520,Sunny Oak Court,95382-8665,37.5358363,-120.8816646
4540,Sunny Oak Court,95382-8665,37.5359875,-120.8816936
2860,Alta Vista Street,95382-8664,37.5362623,-120.8817181
2850,Alta Vista Street,95382-8664,37.5362502,-120.8815192
2840,Alta Vista Street,95382-8664,37.5362473,-120.8813089
2830,Alta Vista Street,95382-8664,37.5362678,-120.8811113
2820,Alta Vista Street,95382-8664,37.5362535,-120.8809097
2810,Alta Vista Street,95382-8664,37.5362631,-120.8807150
2800,Alta Vista Street,95382-8664,37.5362559,-120.8805151
2980,Paseo Entrada Road,95382-8345,37.5328767,-120.8821536
2960,Paseo Entrada Road,95382-8345,37.5329559,-120.8819533
2940,Paseo Entrada Road,95382-8345,37.5330104,-120.8817618
2931,Evergreen Lane,95382-7392,37.5326468,-120.8817167
2971,Evergreen Lane,95382-7392,37.5326425,-120.8825391
2961,Evergreen Lane,95382-7392,37.5326319,-120.8823368
2951,Evergreen Lane,95382-7392,37.5326272,-120.8821245
2941,Evergreen Lane,95382-7392,37.5326333,-120.8819260
4190,Ash Road,95382-8617,37.5330269,-120.8812638
4180,Ash Road,95382-8617,37.5328681,-120.8812421
4170,Ash Road,95382-8617,37.5326887,-120.8812226
4160,Ash Road,95382-8617,37.5325263,-120.8812253
4150,Ash Road,95382-8617,37.5323436,-120.8812671
2920,Paseo Entrada Road,95382-8345,37.5332360,-120.8813415
2900,Paseo Entrada Road,95382-8345,37.5333330,-120.8811804
2880,Paseo Entrada Road,95382-8344,37.5333758,-120.8809944
4211,Mountain View Road,95382-8343,37.5331750,-120.8808903
4201,Mountain View Road,95382-8343,37.5330108,-120.8808783
4191,Mountain View Road,95382-8342,37.5328624,-120.8808449
4181,Mountain View Road,95382-8342,37.5326936,-120.8808698
4171,Mountain View Road,95382-8342,37.5325304,-120.8809054
4161,Mountain View Road,95382-8342,37.5323633,-120.8808919
4151,Mountain View Road,95382-8342,37.5322023,-120.8808884
4141,Mountain View Road,95382-8342,37.5320280,-120.8808690
4131,Mountain View Road,95382-8342,37.5318763,-120.8808892
2913,Orchid Lane,95382-7391,37.5318955,-120.8811843
2923,Orchid Lane,95382-7391,37.5318769,-120.8813610
2933,Orchid Lane,95382-7391,37.5318745,-120.8815730
2943,Orchid Lane,95382-7391,37.5318766,-120.8817415
2953,Orchid Lane,95382-7391,37.5318901,-120.8819515
2963,Orchid Lane,95382-7391,37.5319032,-120.8821448
2973,Orchid Lane,95382-7391,37.5318874,-120.8823575
2960,Evergreen Lane,95382-7392,37.5322259,-120.8821457
2970,Evergreen Lane,95382-7392,37.5322410,-120.8823403
2950,Evergreen Lane,95382-7392,37.5322309,-120.8819515
2940,Evergreen Lane,95382-7392,37.5322056,-120.8817543
2930,Evergreen Lane,95382-7392,37.5321753,-120.8815364
2980,Evergreen Lane,95382-7392,37.5322206,-120.8825353
2983,Orchid Lane,95382-7391,37.5318964,-120.8825351
4020,Persimmon Road,95382-7390,37.5315070,-120.8824906
4010,Persimmon Road,95382-7390,37.5313454,-120.8825042
4000,Persimmon Road,95382-7390,37.5311801,-120.8824927
2981,Sandstone Street,95382-7387,37.5311957,-120.8829847
2962,Orchid Lane,95382-7391,37.5314871,-120.8822117
2952,Orchid Lane,95382-7391,37.5314887,-120.8820128
2942,Orchid Lane,95382-7391,37.5314935,-120.8818117
2932,Orchid Lane,95382-7391,37.5314765,-120.8816117
2922,Orchid Lane,95382-7391,37.5314919,-120.8814118
2991,Sandstone Street,95382-7387,37.5311990,-120.8831860
2961,Sandstone Street,95382-7387,37.5312012,-120.8822092
2951,Sandstone Street,95382-7387,37.5312239,-120.8820125
2941,Sandstone Street,95382-7387,37.5311979,-120.8818110
2931,Sandstone Street,95382-7387,37.5311954,-120.8816355
2921,Sandstone Street,95382-7387,37.5311971,-120.8814110
2912,Orchid Lane,95382-7391,37.5314884,-120.8812096
2911,Sandstone Street,95382-7387,37.5311997,-120.8812096
4121,Mountain View Road,95382-8342,37.5315069,-120.8809115
4111,Mountain View Road,95382-8342,37.5313476,-120.8809195
4101,Mountain View Road,95382-8342,37.5311813,-120.8809236
2930,Sandstone Street,95382-7387,37.5307832,-120.8816507
2940,Sandstone Street,95382-7387,37.5307838,-120.8818405
2950,Sandstone Street,95382-7387,37.5307829,-120.8820302
2960,Sandstone Street,95382-7387,37.5307806,-120.8822205
2970,Sandstone Street,95382-7387,37.5307827,-120.8824096
2980,Sandstone Street,95382-7387,37.5307835,-120.8825998
2920,Sandstone Street,95382-7387,37.5307867,-120.8814586
2990,Sandstone Street,95382-7387,37.5307772,-120.8827902
3000,Sandstone Street,95382-7388,37.5307800,-120.8829778
3010,Sandstone Street,95382-7388,37.5307803,-120.8831677
3020,Sandstone Street,95382-7388,37.5307785,-120.8833588
3030,Sandstone Street,95382-7388,37.5307798,-120.8835491
3040,Sandstone Street,95382-7388,37.5307782,-120.8837381
3050,Sandstone Street,95382-7388,37.5307772,-120.8839285
3060,Sandstone Street,95382-7388,37.5307797,-120.8841319
3001,Sandstone Street,95382-7388,37.5312099,-120.8833935
4012,Limestone Road,95382-7386,37.5314214,-120.8833761
4022,Limestone Road,95382-7386,37.5315807,-120.8833683
4023,Limestone Road,95382-7386,37.5315795,-120.8838880
4013,Limestone Road,95382-7386,37.5314197,-120.8838820
3021,Sandstone Street,95382-7388,37.5311985,-120.8838637
3041,Sandstone Street,95382-7388,37.5311983,-120.8840675
3061,Sandstone Street,95382-7388,37.5311952,-120.8842701
4014,Medeiros Road,95382-7384,37.5314232,-120.8842765
4024,Medeiros Road,95382-7384,37.5315784,-120.8842531
4034,Medeiros Road,95382-7384,37.5317410,-120.8842476
4044,Medeiros Road,95382-7384,37.5318975,-120.8842451
4043,Limestone Road,95382-7386,37.5318972,-120.8838919
4033,Limestone Road,95382-7386,37.5317576,-120.8838766
4032,Limestone Road,95382-7386,37.5317402,-120.8833709
4042,Limestone Road,95382-7386,37.5318954,-120.8833690
4052,Limestone Road,95382-7386,37.5320770,-120.8834014
4053,Limestone Road,95382-7386,37.5320591,-120.8838934
4054,Medeiros Road,95382-7384,37.5320387,-120.8842791
3040,Paseo Entrada Road,95382-8609,37.5324324,-120.8834012
3020,Paseo Entrada Road,95382-8609,37.5324629,-120.8831930
3000,Paseo Entrada Road,95382-8609,37.5324810,-120.8829853
4105,Medeiros Road,95382-7385,37.5324397,-120.8838649
4095,Medeiros Road,95382-7384,37.5324534,-120.8840701
4075,Medeiros Road,95382-7384,37.5324784,-120.8844766
4085,Medeiros Road,95382-7384,37.5324346,-120.8842729
4306,North Tegner Road,95382-9513,37.5323960,-120.8847540
4035,Medeiros Road,95382-7384,37.5318182,-120.8847891
4025,Medeiros Road,95382-7384,37.5315864,-120.8847645
4015,Medeiros Road,95382-7384,37.5314241,-120.8847762
3101,Sandstone Street,95382-7389,37.5311691,-120.8848912
3081,Sandstone Street,95382-7388,37.5311720,-120.8847377
3025,West Christoffersen Parkway,95382,37.5298901,-120.8825655
3025,West Christoffersen Parkway,95382,37.5299896,-120.8830077
3025,West Christoffersen Parkway,95382,37.5299203,-120.8821142
2330,West Christoffersen Parkway,95382,37.5286678,-120.8758680
2000,West Monte Vista Avenue,95382,37.5213645,-120.8719220
2021,Peace Way,95382,37.5112965,-120.8550733
2041,Peace Way,95382,37.5114714,-120.8550728
2061,Peace Way,95382,37.5116365,-120.8550822
2081,Peace Way,95382,37.5118129,-120.8550791
2101,Peace Way,95382,37.5119684,-120.8550743
2121,Peace Way,95382,37.5121420,-120.8550857
2141,Peace Way,95382,37.5123088,-120.8550721
2161,Peace Way,95382,37.5124767,-120.8550785
2181,Peace Way,95382,37.5126375,-120.8550750
2201,Peace Way,95382,37.5128114,-120.8550758
2221,Peace Way,95382,37.5129801,-120.8550742
2241,Peace Way,95382,37.5131456,-120.8550726
2261,Peace Way,95382,37.5133146,-120.8550790
2281,Peace Way,95382,37.5134830,-120.8550841
2301,Peace Way,95382,37.5136510,-120.8550800
2321,Peace Way,95382,37.5138206,-120.8551384
2341,Peace Way,95382,37.5140519,-120.8550802
4000,Colorado Avenue,95382-9292,37.5294069,-120.8348013
4020,Colorado Avenue,95382-9292,37.5295734,-120.8347986
4040,Colorado Avenue,95382-9292,37.5297117,-120.8348367
4050,Colorado Avenue,95382-9292,37.5298656,-120.8348323
4060,Colorado Avenue,95382-9292,37.5300101,-120.8348044
4070,Colorado Avenue,95382-9292,37.5301478,-120.8348014
4021,Enclave Drive,95382-7418,37.5300964,-120.8344579
4017,Enclave Drive,95382-7418,37.5299479,-120.8344743
1028,Putnam Court,95382,37.5298436,-120.8354320
1008,Putnam Court,95382,37.5296125,-120.8354136
1017,Putnam Court,95382,37.5294223,-120.8355782
1027,Putnam Court,95382,37.5294100,-120.8358148
1037,Putnam Court,95382,37.5295495,-120.8360481
1047,Putnam Court,95382,37.5296598,-120.8361605
3883,Heartland Way,95382,37.5295369,-120.8363643
1048,Putnam Court,95382,37.5299904,-120.8358667
1038,Putnam Court,95382,37.5299293,-120.8357012
4021,Colorado Avenue,95382,37.5300115,-120.8353850
4031,Colorado Avenue,95382,37.5301506,-120.8354250
4041,Colorado Avenue,95382,37.5302855,-120.8353862
3853,Heartland Way,95382,37.5301874,-120.8357733
3862,Heartland Way,95382,37.5301296,-120.8363480
3872,Heartland Way,95382,37.5299742,-120.8364522
3892,Heartland Way,95382,37.5298903,-120.8366216
1902,Heartland Way,95382,37.5298589,-120.8368145
3912,Heartland Way,95382,37.5298335,-120.8370084
1024,Rosenthal Drive,95382,37.5301584,-120.8370336
1064,Rosenthal Drive,95382,37.5301373,-120.8368554
1074,Rosenthal Drive,95382,37.5301523,-120.8366783
1004,Rosenthal Drive,95382,37.5301877,-120.8372144
984,Rosenthal Drive,95382,37.5302266,-120.8373920
4046,Avatar Court,95382,37.5303090,-120.8376956
4026,Avatar Court,95382,37.5301319,-120.8378571
3962,Heartland Way,95382,37.5298643,-120.8378723
3952,Heartland Way,95382,37.5298453,-120.8377021
3942,Heartland Way,95382,37.5298523,-120.8375266
3932,Heartland Way,95382,37.5298430,-120.8373572
3922,Heartland Way,95382,37.5298617,-120.8371837
3893,Heartland Way,95382,37.5294724,-120.8365677
3903,Heartland Way,95382,37.5294701,-120.8367640
3913,Heartland Way,95382,37.5294435,-120.8369518
3923,Heartland Way,95382,37.5294435,-120.8371273
3933,Heartland Way,95382,37.5294612,-120.8373086
3943,Heartland Way,95382,37.5294465,-120.8374737
3953,Heartland Way,95382,37.5294614,-120.8376454
3963,Heartland Way,95382,37.5294467,-120.8378207
3973,Heartland Way,95382,37.5294722,-120.8379965
3983,Heartland Way,95382,37.5294732,-120.8381744
4002,Heartland Way,95382,37.5298729,-120.8382364
4003,Heartland Way,95382,37.5295469,-120.8385613
3993,Heartland Way,95382,37.5295229,-120.8384073
3982,Heartland Way,95382,37.5298553,-120.8380691
4025,Avatar Court,95382,37.5303272,-120.8383018
4045,Avatar Court,95382,37.5305115,-120.8382833
4005,Avatar Court,95382,37.5301219,-120.8380836
965,Rosenthal Drive,95382,37.5306650,-120.8374434
985,Rosenthal Drive,95382,37.5306150,-120.8372842
1005,Rosenthal Drive,95382,37.5305867,-120.8371033
1025,Rosenthal Drive,95382,37.5305422,-120.8369277
1045,Rosenthal Drive,95382,37.5305500,-120.8367453
1065,Rosenthal Drive,95382,37.5305362,-120.8365653
1085,Rosenthal Drive,95382,37.5305320,-120.8363881
1095,Rosenthal Drive,95382,37.5305111,-120.8362243
1090,East Springer Drive,95382,37.5308158,-120.8362176
1080,East Springer Drive,95382,37.5308241,-120.8363797
1060,East Springer Drive,95382,37.5307993,-120.8365697
1040,East Springer Drive,95382,37.5308220,-120.8367448
1020,East Springer Drive,95382,37.5308464,-120.8369426
1000,East Springer Drive,95382,37.5308996,-120.8371251
980,East Springer Drive,95382,37.5309201,-120.8373026
960,East Springer Drive,95382,37.5309707,-120.8374783
3843,Heartland Way,95382,37.5303537,-120.8357859
3833,Heartland Way,95382,37.5304869,-120.8357629
3823,Heartland Way,95382,37.5306264,-120.8357608
1100,East Springer Drive,95382,37.5308042,-120.8357965
1140,East Springer Drive,95382,37.5308228,-120.8356260
4091,Colorado Avenue,95382,37.5308380,-120.8353854
4081,Colorado Avenue,95382,37.5307050,-120.8353671
4061,Colorado Avenue,95382,37.5305643,-120.8353986
4051,Colorado Avenue,95382,37.5304280,-120.8353884
1163,East Springer Drive,95382,37.5312614,-120.8353528
1143,East Springer Drive,95382,37.5312441,-120.8355569
1103,East Springer Drive,95382,37.5312644,-120.8357717
4392,Bardini Way,95382,37.5312501,-120.8362372
4382,Bardini Way,95382,37.5314000,-120.8362432
4040,Kalland Court,95382,37.5314336,-120.8366098
4030,Kalland Court,95382,37.5312609,-120.8366309
983,East Springer Drive,95382,37.5313588,-120.8371499
943,East Springer Drive,95382,37.5314267,-120.8373616
923,East Springer Drive,95382,37.5314982,-120.8375849
903,East Springer Drive,95382,37.5315822,-120.8377244
4178,Pernet Court,95382,37.5317725,-120.8375091
4065,Kalland Court,95382,37.5317987,-120.8371566
4055,Kalland Court,95382,37.5316211,-120.8371361
4050,Kalland Court,95382,37.5315965,-120.8366138
4060,Kalland Court,95382,37.5317810,-120.8365712
4362,Bardini Way,95382,37.5317313,-120.8362354
4372,Bardini Way,95382,37.5315658,-120.8362343
4352,Bardini Way,95382,37.5318805,-120.8362393
4080,Kalland Court,95382,37.5320235,-120.8365903
4085,Kalland Court,95382,37.5321347,-120.8368670
4075,Kalland Court,95382,37.5320136,-120.8371517
4188,Pernet Court,95382,37.5320496,-120.8375135
4197,Pernet Court,95382,37.5321314,-120.8377201
4187,Pernet Court,95382,37.5319832,-120.8381253
4177,Pernet Court,95382,37.5318072,-120.8381587
4202,Bardini Way,95382,37.5319490,-120.8385520
4212,Bardini Way,95382,37.5320766,-120.8385411
4222,Bardini Way,95382,37.5322549,-120.8383549
833,East Springer Drive,95382,37.5320573,-120.8390384
846,Ahern Court,95382,37.5323135,-120.8388870
826,Ahern Court,95382,37.5324376,-120.8390949
823,East Springer Drive,95382,37.5320770,-120.8392757
803,East Springer Drive,95382,37.5320910,-120.8394511
4220,North Olive Avenue,95382,37.5323413,-120.8394287
4240,North Olive Avenue,95382,37.5324755,-120.8394402
4260,North Olive Avenue,95382,37.5326971,-120.8394632
4280,North Olive Avenue,95382,37.5328327,-120.8394213
806,Ahern Court,95382,37.5326801,-120.8391156
819,Ahern Court,95382,37.5328195,-120.8389297
829,Ahern Court,95382,37.5328161,-120.8386540
849,Ahern Court,95382,37.5326494,-120.8384879
4233,Bardini Way,95382,37.5327551,-120.8382448
802,Moonbeam Way,95382,37.5330652,-120.8394459
822,Moonbeam Way,95382,37.5330938,-120.8392374
832,Moonbeam Way,95382,37.5330788,-120.8390437
842,Moonbeam Way,95382,37.5330658,-120.8388562
862,Moonbeam Way,95382,37.5330737,-120.8386350
902,Moonbeam Way,95382,37.5331028,-120.8384166
922,Moonbeam Way,95382,37.5330745,-120.8382212
932,Moonbeam Way,95382,37.5330990,-120.8379966
942,Moonbeam Way,95382,37.5330670,-120.8378048
962,Moonbeam Way,95382,37.5330765,-120.8375969
4263,Bardini Way,95382,37.5328066,-120.8376008
4253,Bardini Way,95382,37.5328061,-120.8377953
4243,Bardini Way,95382,37.5327990,-120.8380257
4232,Bardini Way,95382,37.5323236,-120.8381947
4242,Bardini Way,95382,37.5324016,-120.8379783
4252,Bardini Way,95382,37.5323905,-120.8377656
4262,Bardini Way,95382,37.5323912,-120.8375405
4272,Bardini Way,95382,37.5324109,-120.8373529
4282,Bardini Way,95382,37.5323904,-120.8371456
4292,Bardini Way,95382,37.5324100,-120.8369544
4302,Bardini Way,95382,37.5324073,-120.8367042
4322,Bardini Way,95382,37.5323066,-120.8365391
4332,Bardini Way,95382,37.5322094,-120.8363735
4342,Bardini Way,95382,37.5320375,-120.8362464
1060,Button Court,95382,37.5325687,-120.8356616
1070,Button Court,95382,37.5327785,-120.8357488
1063,Button Court,95382,37.5328265,-120.8360128
4323,Bardini Way,95382,37.5327002,-120.8362749
4313,Bardini Way,95382,37.5327668,-120.8364812
4303,Bardini Way,95382,37.5327994,-120.8367352
4293,Bardini Way,95382,37.5328066,-120.8369510
4283,Bardini Way,95382,37.5328063,-120.8371406
1002,Moonbeam Way,95382,37.5330987,-120.8371676
1022,Moonbeam Way,95382,37.5331028,-120.8369293
1032,Moonbeam Way,95382,37.5330898,-120.8366929
1052,Moonbeam Way,95382,37.5331016,-120.8364420
1072,Moonbeam Way,95382,37.5330948,-120.8362437
1077,Moonbeam Way,95382,37.5334798,-120.8362156
1057,Moonbeam Way,95382,37.5334834,-120.8364651
1037,Moonbeam Way,95382,37.5334990,-120.8366887
1027,Moonbeam Way,95382,37.5334852,-120.8368896
1007,Moonbeam Way,95382,37.5334840,-120.8371293
4432,Callisto Lane,95382,37.5337058,-120.8370317
4442,Callisto Lane,95382,37.5338954,-120.8369450
4472,Callisto Lane,95382,37.5340444,-120.8368351
4532,Callisto Lane,95382,37.5342216,-120.8367219
4562,Callisto Lane,95382,37.5343582,-120.8366643
4592,Callisto Lane,95382,37.5345246,-120.8365437
4593,Visions Drive,95382,37.5345394,-120.8361733
4533,Visions Drive,95382,37.5342099,-120.8361668
4563,Visions Drive,95382,37.5343625,-120.8361577
4596,Visions Drive,95382,37.5345344,-120.8356730
4566,Visions Drive,95382,37.5343432,-120.8356735
4536,Visions Drive,95382,37.5341751,-120.8356668
4476,Visions Drive,95382,37.5339795,-120.8356622
4473,Visions Drive,95382,37.5340210,-120.8362076
4443,Visions Drive,95382,37.5338787,-120.8361694
4433,Visions Drive,95382,37.5337033,-120.8362159
4446,Visions Drive,95382,37.5338036,-120.8356922
4426,Visions Drive,95382,37.5336273,-120.8356927
4406,Visions Drive,95382,37.5334599,-120.8356998
4401,Colorado Avenue,95382,37.5334627,-120.8353218
4421,Colorado Avenue,95382,37.5336379,-120.8353035
4441,Colorado Avenue,95382,37.5338140,-120.8352995
4471,Colorado Avenue,95382,37.5339814,-120.8353310
4531,Colorado Avenue,95382,37.5341616,-120.8353150
1102,Moonbeam Way,95382,37.5330927,-120.8359650
1122,Moonbeam Way,95382,37.5331010,-120.8357707
1152,Moonbeam Way,95382,37.5330923,-120.8355120
1172,Moonbeam Way,95382,37.5331005,-120.8352933
4281,Colorado Avenue,95382,37.5328529,-120.8353223
4261,Colorado Avenue,95382,37.5326753,-120.8353507
1202,Moonbeam Way,95382,37.5331056,-120.8347775
4320,Colorado Avenue,95382,37.5328716,-120.8347630
4310,Colorado Avenue,95382,37.5327438,-120.8347856
4300,Colorado Avenue,95382,37.5326122,-120.8347688
4280,Colorado Avenue,95382,37.5324816,-120.8347959
4260,Colorado Avenue,95382,37.5323423,-120.8348114
4251,Colorado Avenue,95382,37.5325127,-120.8353269
4333,Bardini Way,95382,37.5323466,-120.8358680
4343,Bardini Way,95382,37.5321947,-120.8357592
4353,Bardini Way,95382,37.5319920,-120.8357252
4363,Bardini Way,95382,37.5318223,-120.8357284
4181,Colorado Avenue,95382,37.5318259,-120.8353716
4201,Colorado Avenue,95382,37.5319988,-120.8353585
4221,Colorado Avenue,95382,37.5321727,-120.8353445
4231,Colorado Avenue,95382,37.5323372,-120.8353556
4373,Bardini Way,95382,37.5316514,-120.8357484
4383,Bardini Way,95382,37.5314862,-120.8357268
4161,Colorado Avenue,95382,37.5316640,-120.8353531
4141,Colorado Avenue,95382,37.5314811,-120.8353723
1203,East Springer Drive,95382,37.5312334,-120.8348428
1213,East Springer Drive,95382,37.5312289,-120.8346809
1223,East Springer Drive,95382,37.5312329,-120.8345113
4143,Cherry Blossom Lane,95382,37.5314206,-120.8345376
4163,Cherry Blossom Lane,95382,37.5315465,-120.8345356
4183,Cherry Blossom Lane,95382,37.5316832,-120.8345484
4180,Colorado Avenue,95382,37.5316897,-120.8348174
4140,Colorado Avenue,95382,37.5314246,-120.8348127
4160,Colorado Avenue,95382,37.5315513,-120.8348139
4200,Colorado Avenue,95382,37.5318156,-120.8348250
4210,Colorado Avenue,95382,37.5319518,-120.8347987
4220,Colorado Avenue,95382,37.5320773,-120.8348123
4240,Colorado Avenue,95382,37.5322150,-120.8347933
4243,Cherry Blossom Lane,95382,37.5322136,-120.8345230
4223,Cherry Blossom Lane,95382,37.5320809,-120.8345403
4213,Cherry Blossom Lane,95382,37.5319533,-120.8345316
4203,Cherry Blossom Lane,95382,37.5318108,-120.8345329
4202,Cherry Blossom Lane,95382,37.5318705,-120.8340785
1260,Redbud Lane,95382,37.5320561,-120.8340723
1280,Redbud Lane,95382,37.5320374,-120.8339103
1300,Redbud Lane,95382,37.5320415,-120.8337528
4201,Wild Lilac Drive,95382,37.5318655,-120.8337750
4181,Wild Lilac Drive,95382,37.5317296,-120.8337671
4182,Cherry Blossom Lane,95382,37.5317437,-120.8340716
4162,Cherry Blossom Lane,95382,37.5316179,-120.8340892
4152,Cherry Blossom Lane,95382,37.5314915,-120.8340624
4142,Cherry Blossom Lane,95382,37.5313656,-120.8340783
4132,Cherry Blossom Lane,95382,37.5312385,-120.8340616
4131,Wild Lilac Drive,95382,37.5313410,-120.8337784
4151,Wild Lilac Drive,95382,37.5314639,-120.8337764
4161,Wild Lilac Drive,95382,37.5316025,-120.8337788
4133,Arthur Mace Drive,95382,37.5313699,-120.8330655
4153,Arthur Mace Drive,95382,37.5314926,-120.8330290
4163,Arthur Mace Drive,95382,37.5316195,-120.8330340
4183,Arthur Mace Drive,95382,37.5317450,-120.8330179
4203,Arthur Mace Drive,95382,37.5318676,-120.8330165
1400,Redbud Lane,95382,37.5320476,-120.8330191
1380,Redbud Lane,95382,37.5320454,-120.8331745
1360,Redbud Lane,95382,37.5320519,-120.8333282
4200,Wild Lilac Drive,95382,37.5318691,-120.8333013
4180,Wild Lilac Drive,95382,37.5317443,-120.8333074
4160,Wild Lilac Drive,95382,37.5316168,-120.8333004
4150,Wild Lilac Drive,95382,37.5314948,-120.8333268
4130,Wild Lilac Drive,95382,37.5313699,-120.8333349
1403,East Springer Drive,95382,37.5313942,-120.8325789
1423,East Springer Drive,95382,37.5313802,-120.8324070
1443,East Springer Drive,95382,37.5313933,-120.8322310
4165,Silver Lupine Drive,95382,37.5315588,-120.8322119
4195,Silver Lupine Drive,95382,37.5316810,-120.8322111
4205,Silver Lupine Drive,95382,37.5318127,-120.8322099
4225,Silver Lupine Drive,95382,37.5319412,-120.8322366
4245,Silver Lupine Drive,95382,37.5320654,-120.8322596
4265,Silver Lupine Drive,95382,37.5321934,-120.8322688
4262,Arthur Mace Drive,95382,37.5321924,-120.8325726
4242,Arthur Mace Drive,95382,37.5320646,-120.8325612
4222,Arthur Mace Drive,95382,37.5319407,-120.8325511
4202,Arthur Mace Drive,95382,37.5318117,-120.8325577
4162,Arthur Mace Drive,95382,37.5315604,-120.8325695
4192,Arthur Mace Drive,95382,37.5316881,-120.8325635
1473,East Springer Drive,95382,37.5313818,-120.8317727
1493,East Springer Drive,95382,37.5313770,-120.8316190
1513,East Springer Drive,95382,37.5313857,-120.8314607
4161,Purple Sage Lane,95382,37.5315684,-120.8314607
4191,Purple Sage Lane,95382,37.5316899,-120.8314606
4201,Purple Sage Lane,95382,37.5318163,-120.8314591
4221,Purple Sage Lane,95382,37.5319432,-120.8314830
4241,Purple Sage Lane,95382,37.5320705,-120.8314876
4261,Purple Sage Lane,95382,37.5321956,-120.8315032
4281,Purple Sage Lane,95382,37.5323225,-120.8315004
4284,Silver Lupine Drive,95382,37.5323241,-120.8317977
4285,Silver Lupine Drive,95382,37.5323179,-120.8322444
4282,Arthur Mace Drive,95382,37.5323180,-120.8326072
4264,Silver Lupine Drive,95382,37.5321968,-120.8317891
4244,Silver Lupine Drive,95382,37.5320699,-120.8317928
4224,Silver Lupine Drive,95382,37.5319442,-120.8317627
4204,Silver Lupine Drive,95382,37.5318185,-120.8317555
4194,Silver Lupine Drive,95382,37.5316904,-120.8317565
4164,Silver Lupine Drive,95382,37.5315639,-120.8317725
4304,Silver Lupine Drive,95382,37.5324492,-120.8317842
4301,Purple Sage Lane,95382,37.5324490,-120.8315074
4305,Silver Lupine Drive,95382,37.5324462,-120.8322751
4300,Arthur Mace Drive,95382,37.5324460,-120.8326087
1401,Wood Mint Drive,95382,37.5328037,-120.8326890
1402,Moonbeam Way,95382,37.5330803,-120.8326613
1422,Moonbeam Way,95382,37.5330670,-120.8324446
1442,Moonbeam Way,95382,37.5330987,-120.8322251
1462,Moonbeam Way,95382,37.5330809,-120.8320175
1482,Moonbeam Way,95382,37.5330658,-120.8317798
1411,Wood Mint Drive,95382,37.5327841,-120.8325362
1421,Wood Mint Drive,95382,37.5327827,-120.8323771
1441,Wood Mint Drive,95382,37.5328022,-120.8322084
1451,Wood Mint Drive,95382,37.5327908,-120.8320521
1461,Wood Mint Drive,95382,37.5328019,-120.8318899
1471,Wood Mint Drive,95382,37.5328019,-120.8317340
1481,Wood Mint Drive,95382,37.5327832,-120.8315738
1502,Moonbeam Way,95382,37.5330685,-120.8315678
1522,Moonbeam Way,95382,37.5330803,-120.8313394
1501,Wood Mint Drive,95382,37.5328225,-120.8314103
1521,Wood Mint Drive,95382,37.5328246,-120.8312396
1542,Moonbeam Way,95382,37.5330661,-120.8311312
1531,Wood Mint Drive,95382,37.5327131,-120.8310214
4310,Purple Sage Lane,95382,37.5325511,-120.8309976
4300,Purple Sage Lane,95382,37.5324253,-120.8310720
4280,Purple Sage Lane,95382,37.5323021,-120.8310532
4281,North Berkeley Avenue,95382,37.5323109,-120.8307318
4301,North Berkeley Avenue,95382,37.5324567,-120.8307107
4321,North Berkeley Avenue,95382,37.5325907,-120.8307403
1562,Moonbeam Way,95382,37.5330993,-120.8309208
1582,Moonbeam Way,95382,37.5330987,-120.8307043
4361,North Berkeley Avenue,95382,37.5328588,-120.8307169
4341,North Berkeley Avenue,95382,37.5327322,-120.8307230
4261,North Berkeley Avenue,95382,37.5321714,-120.8307186
4220,North Berkeley Avenue,95382-7422,37.5322423,-120.8300249
4210,North Berkeley Avenue,95382-7422,37.5321166,-120.8300457
4241,North Berkeley Avenue,95382,37.5320339,-120.8307420
4260,Purple Sage Lane,95382,37.5321682,-120.8310733
4220,Purple Sage Lane,95382,37.5319050,-120.8310354
4240,Purple Sage Lane,95382,37.5320349,-120.8310206
4221,North Berkeley Avenue,95382,37.5319028,-120.8307656
4201,North Berkeley Avenue,95382,37.5317593,-120.8307372
4181,North Berkeley Avenue,95382,37.5316330,-120.8307551
1583,East Springer Drive,95382,37.5313902,-120.8307997
4130,Purple Sage Lane,95382,37.5313775,-120.8310075
4160,Purple Sage Lane,95382,37.5315015,-120.8310204
4190,Purple Sage Lane,95382,37.5316393,-120.8310103
4200,Purple Sage Lane,95382,37.5317725,-120.8310012
4160,North Berkeley Avenue,95382-7422,37.5314415,-120.8300607
4170,North Berkeley Avenue,95382-7422,37.5315893,-120.8300665
4180,North Berkeley Avenue,95382-7422,37.5317219,-120.8300539
4190,North Berkeley Avenue,95382-7422,37.5318527,-120.8300494
4200,North Berkeley Avenue,95382-7422,37.5319793,-120.8300500
4217,Ivory Lane,95382-7430,37.5319711,-120.8297190
4207,Ivory Lane,95382-7430,37.5318405,-120.8297261
4197,Ivory Lane,95382-7430,37.5317117,-120.8297293
4187,Ivory Lane,95382-7430,37.5315891,-120.8297300
4177,Ivory Lane,95382-7430,37.5314815,-120.8297471
4167,Ivory Lane,95382-7430,37.5313709,-120.8297473
4227,Ivory Lane,95382-7430,37.5321096,-120.8297092
4237,Ivory Lane,95382-7430,37.5322338,-120.8297271
4280,North Berkeley Avenue,95382-7423,37.5325452,-120.8300353
4300,North Berkeley Avenue,95382-7423,37.5326694,-120.8300239
1613,Voumard Ranch Drive,95382-7427,37.5325887,-120.8297984
1623,Voumard Ranch Drive,95382-7427,37.5325833,-120.8296407
1643,Voumard Ranch Drive,95382-7427,37.5325853,-120.8294830
1663,Voumard Ranch Drive,95382-7427,37.5325909,-120.8293235
1652,Moonbeam Way,95382-7470,37.5329411,-120.8295299
1632,Moonbeam Way,95382-7470,37.5330059,-120.8297199
4400,North Berkeley Avenue,95382-7472,37.5331072,-120.8299706
4390,North Berkeley Avenue,95382-7423,37.5329565,-120.8300048
4360,North Berkeley Avenue,95382-7423,37.5328050,-120.8300136
1672,Moonbeam Way,95382-7470,37.5328760,-120.8293415
1683,Voumard Ranch Drive,95382-7427,37.5325816,-120.8291645
1703,Voumard Ranch Drive,95382-7426,37.5325705,-120.8290071
1713,Voumard Ranch Drive,95382-7426,37.5325878,-120.8288483
1733,Voumard Ranch Drive,95382-7426,37.5326180,-120.8286883
1753,Voumard Ranch Drive,95382-7426,37.5325957,-120.8284910
1742,Moonbeam Way,95382-7470,37.5328647,-120.8285494
1692,Moonbeam Way,95382-7470,37.5328554,-120.8291496
1702,Moonbeam Way,95382-7470,37.5328542,-120.8289609
1722,Moonbeam Way,95382-7470,37.5328500,-120.8287713
1762,Moonbeam Way,95382-7470,37.5328578,-120.8282861
4262,Windrose Drive,95382-7443,37.5323891,-120.8283447
4265,Tapestry Way,95382-7448,37.5323051,-120.8279256
1782,Moonbeam Way,95382-7470,37.5328497,-120.8279768
4232,Windrose Drive,95382-7443,37.5321711,-120.8283749
4234,Ivory Lane,95382-7430,37.5322212,-120.8292191
4224,Ivory Lane,95382-7430,37.5320947,-120.8292172
4214,Ivory Lane,95382-7430,37.5319681,-120.8292378
4204,Ivory Lane,95382-7430,37.5318415,-120.8292450
4194,Ivory Lane,95382-7430,37.5317150,-120.8292536
4184,Ivory Lane,95382-7430,37.5315881,-120.8292489
4185,Windrose Drive,95382-7443,37.5316176,-120.8289386
4205,Windrose Drive,95382-7443,37.5318100,-120.8289332
4225,Windrose Drive,95382-7443,37.5320041,-120.8288943
4235,Windrose Drive,95382-7443,37.5322116,-120.8288876
1700,Voumard Ranch Drive,95382-7509,37.5321896,-120.8290473
4222,Windrose Drive,95382-7443,37.5319788,-120.8283829
4202,Windrose Drive,95382-7443,37.5317871,-120.8283974
4182,Windrose Drive,95382-7443,37.5315982,-120.8283823
1753,East Springer Drive,95382-7431,37.5313872,-120.8283899
1793,East Springer Drive,95382-7431,37.5314543,-120.8280494
4203,Tapestry Way,95382-7448,37.5317477,-120.8279916
1701,East Springer Drive,95382-7446,37.5314149,-120.8289019
1681,East Springer Drive,95382-7432,37.5314068,-120.8290963
1651,East Springer Drive,95382-7432,37.5314074,-120.8292907
4124,Ivory Lane,95382-7429,37.5310250,-120.8292754
4114,Ivory Lane,95382-7429,37.5309024,-120.8292781
4104,Ivory Lane,95382-7429,37.5307742,-120.8292857
4115,Windrose Drive,95382-7442,37.5308234,-120.8289722
1702,East Springer Drive,95382-7446,37.5310178,-120.8289746
1752,East Springer Drive,95382-7431,37.5309766,-120.8284433
4105,Windrose Drive,95382-7442,37.5306428,-120.8289841
4095,Windrose Drive,95382-7441,37.5304747,-120.8289813
4094,Ivory Lane,95382-7428,37.5306411,-120.8293020
4084,Ivory Lane,95382-7428,37.5305057,-120.8293278
4074,Ivory Lane,95382-7428,37.5303850,-120.8293326
4077,Ivory Lane,95382-7428,37.5304486,-120.8298003
4087,Ivory Lane,95382-7428,37.5305745,-120.8298049
4097,Ivory Lane,95382-7428,37.5307045,-120.8298015
4107,Ivory Lane,95382-7429,37.5308201,-120.8297660
4117,Ivory Lane,95382-7429,37.5309307,-120.8297680
4127,Ivory Lane,95382-7429,37.5310489,-120.8297580
4120,North Berkeley Avenue,95382-7425,37.5310006,-120.8300857
4110,North Berkeley Avenue,95382-7425,37.5308326,-120.8300835
4100,North Berkeley Avenue,95382-7425,37.5307093,-120.8300994
4090,North Berkeley Avenue,95382-7424,37.5305798,-120.8301002
4080,North Berkeley Avenue,95382-7424,37.5304555,-120.8301090
4060,North Berkeley Avenue,95382-7424,37.5302028,-120.8301191
4070,North Berkeley Avenue,95382-7424,37.5303289,-120.8301098
4067,Ivory Lane,95382-7428,37.5303215,-120.8298257
4057,Ivory Lane,95382-7428,37.5301947,-120.8298120
4047,Ivory Lane,95382-7428,37.5300743,-120.8298004
4081,North Berkeley Avenue,95382-7415,37.5302540,-120.8308383
4071,North Berkeley Avenue,95382-7415,37.5301160,-120.8308340
4061,North Berkeley Avenue,95382-7415,37.5299737,-120.8308430
4110,Enclave Drive,95382-7420,37.5299303,-120.8311494
4114,Enclave Drive,95382-7420,37.5300744,-120.8311528
4118,Enclave Drive,95382-7420,37.5302107,-120.8311652
4122,Enclave Drive,95382-7420,37.5303768,-120.8311958
4091,North Berkeley Avenue,95382-7415,37.5304002,-120.8308116
4101,North Berkeley Avenue,95382-7416,37.5305551,-120.8308286
4051,North Berkeley Avenue,95382-7415,37.5298221,-120.8308581
4050,North Berkeley Avenue,95382-7424,37.5300752,-120.8301172
4040,North Berkeley Avenue,95382-7424,37.5299386,-120.8301220
4030,North Berkeley Avenue,95382-7424,37.5298171,-120.8301208
4020,North Berkeley Avenue,95382-7424,37.5296809,-120.8301325
4017,Ivory Lane,95382-7428,37.5296787,-120.8298444
4027,Ivory Lane,95382-7428,37.5298044,-120.8298128
4037,Ivory Lane,95382-7428,37.5299368,-120.8298106
4064,Ivory Lane,95382-7428,37.5302602,-120.8293354
4054,Ivory Lane,95382-7428,37.5301267,-120.8293211
4044,Ivory Lane,95382-7428,37.5299954,-120.8293167
4034,Ivory Lane,95382-7428,37.5298602,-120.8293190
4024,Ivory Lane,95382-7428,37.5297355,-120.8293289
1701,Milestone Way,95382-7435,37.5297544,-120.8290167
4055,Windrose Drive,95382-7441,37.5299454,-120.8290298
4065,Windrose Drive,95382-7441,37.5301242,-120.8289980
4085,Windrose Drive,95382-7441,37.5303031,-120.8290157
4007,Ivory Lane,95382-7428,37.5295250,-120.8298653
4010,North Berkeley Avenue,95382-7424,37.5295473,-120.8301177
4000,North Berkeley Avenue,95382-7424,37.5293937,-120.8301354
1610,Milestone Way,95382-7433,37.5293921,-120.8297803
1630,Milestone Way,95382-7433,37.5293339,-120.8295588
1650,Milestone Way,95382-7433,37.5293537,-120.8294012
1670,Milestone Way,95382-7433,37.5293670,-120.8292426
1690,Milestone Way,95382-7433,37.5293757,-120.8290813
1700,Milestone Way,95382-7434,37.5293663,-120.8289223
1710,Milestone Way,95382-7434,37.5293646,-120.8287654
1730,Milestone Way,95382-7434,37.5293628,-120.8286123
1750,Milestone Way,95382-7434,37.5293896,-120.8284395
1770,Milestone Way,95382-7434,37.5294072,-120.8282225
1790,Milestone Way,95382-7434,37.5294255,-120.8279816
4032,Windrose Drive,95382-7441,37.5297709,-120.8284877
1751,Milestone Way,95382-7452,37.5297958,-120.8283551
4052,Windrose Drive,95382-7441,37.5299676,-120.8284555
4082,Windrose Drive,95382-7441,37.5301647,-120.8284688
4033,Tapestry Way,95382-7447,37.5299153,-120.8280207
4063,Tapestry Way,95382-7447,37.5301694,-120.8280401
4083,Tapestry Way,95382-7447,37.5304423,-120.8280334
4092,Windrose Drive,95382-7441,37.5303514,-120.8284956
4102,Windrose Drive,95382-7442,37.5305431,-120.8284642
4093,Tapestry Way,95382-7447,37.5307123,-120.8280103
4112,Windrose Drive,95382-7442,37.5307368,-120.8284312
1772,East Springer Drive,95382-7431,37.5309754,-120.8282021
1792,East Springer Drive,95382-7431,37.5309567,-120.8279438
1802,East Springer Drive,95382-7449,37.5309450,-120.8273978
4090,Tapestry Way,95382-7447,37.5305862,-120.8273718
1852,East Springer Drive,95382-7449,37.5309420,-120.8269729
4111,Country Walk Lane,95382-7450,37.5306951,-120.8269037
4101,Country Walk Lane,95382-7450,37.5304191,-120.8269110
4060,Tapestry Way,95382-7447,37.5302338,-120.8274008
1801,Milestone Way,95382-7453,37.5299211,-120.8273925
1800,Milestone Way,95382-7453,37.5294322,-120.8274429
1850,Milestone Way,95382-7453,37.5294042,-120.8270820
1900,Milestone Way,95382-7454,37.5293792,-120.8267119
4001,North Berkeley Avenue,95382-7415,37.5293907,-120.8308926
4011,North Berkeley Avenue,95382-7415,37.5295291,-120.8308866
4041,North Berkeley Avenue,95382-7415,37.5296854,-120.8308595
4106,Enclave Drive,95382-7420,37.5297833,-120.8311973
4102,Enclave Drive,95382-7420,37.5296051,-120.8311944
4098,Enclave Drive,95382-7419,37.5294786,-120.8313088
4094,Enclave Drive,95382-7419,37.5294266,-120.8315228
4090,Enclave Drive,95382-7419,37.5294096,-120.8317028
4086,Enclave Drive,95382-7419,37.5293874,-120.8319148
4082,Enclave Drive,95382-7419,37.5293823,-120.8321166
4085,Enclave Drive,95382-7419,37.5298025,-120.8320189
4133,Enclave Drive,95382-7420,37.5301103,-120.8320290
4129,Enclave Drive,95382-7420,37.5302092,-120.8318225
4111,Enclave Drive,95382-7420,37.5300977,-120.8316911
4101,Enclave Drive,95382-7420,37.5299364,-120.8316875
4093,Enclave Drive,95382-7419,37.5298338,-120.8317895
4137,Enclave Drive,95382-7420,37.5301111,-120.8322454
4141,Enclave Drive,95382-7420,37.5301345,-120.8324142
4077,Enclave Drive,95382-7418,37.5298068,-120.8323635
4081,Enclave Drive,95382-7419,37.5298072,-120.8321931
4073,Enclave Drive,95382-7418,37.5298111,-120.8325329
4069,Enclave Drive,95382-7418,37.5298186,-120.8327182
4059,Enclave Drive,95382-7418,37.5299387,-120.8329030
1334,Macie Way,95382-7417,37.5301312,-120.8329674
1344,Macie Way,95382-7417,37.5302280,-120.8328353
4145,Enclave Drive,95382-7420,37.5302827,-120.8325489
1355,Macie Way,95382-7417,37.5306444,-120.8330351
1345,Macie Way,95382-7417,37.5305297,-120.8332119
4049,Enclave Drive,95382-7418,37.5304651,-120.8334365
4045,Enclave Drive,95382-7418,37.5305245,-120.8336323
4041,Enclave Drive,95382-7418,37.5305178,-120.8338249
4037,Enclave Drive,95382-7418,37.5304978,-120.8339955
4030,Enclave Drive,95382-7418,37.5300766,-120.8338268
4033,Enclave Drive,95382-7418,37.5304871,-120.8341846
4029,Enclave Drive,95382-7418,37.5304194,-120.8343819
4025,Enclave Drive,95382-7418,37.5302512,-120.8344661
4016,Enclave Drive,95382-7418,37.5299362,-120.8339405
4046,Enclave Drive,95382-7418,37.5300973,-120.8335716
4050,Enclave Drive,95382-7418,37.5299716,-120.8334479
4054,Enclave Drive,95382-7418,37.5298156,-120.8333988
4012,Enclave Drive,95382-7418,37.5297803,-120.8337417
4008,Enclave Drive,95382-7418,37.5296208,-120.8337205
4013,Enclave Drive,95382-7418,37.5298050,-120.8344987
4009,Enclave Drive,95382-7418,37.5296663,-120.8344565
4005,Enclave Drive,95382-7418,37.5295031,-120.8344307
4001,Enclave Drive,95382-7418,37.5293924,-120.8342255
4000,Enclave Drive,95382-7418,37.5294015,-120.8340379
4004,Enclave Drive,95382-7418,37.5294324,-120.8337766
4058,Enclave Drive,95382-7418,37.5296666,-120.8333377
4062,Enclave Drive,95382-7418,37.5295340,-120.8332880
4066,Enclave Drive,95382-7418,37.5294152,-120.8331146
4070,Enclave Drive,95382-7418,37.5293949,-120.8329022
4074,Enclave Drive,95382-7418,37.5293950,-120.8327334
4078,Enclave Drive,95382-7418,37.5293905,-120.8325608
4126,Enclave Drive,95382-7420,37.5305138,-120.8312411
4111,North Berkeley Avenue,95382-7416,37.5306941,-120.8308021
1580,East Springer Drive,95382-9297,37.5309542,-120.8307873
1560,East Springer Drive,95382-9297,37.5309628,-120.8310010
1540,East Springer Drive,95382-9297,37.5309432,-120.8311877
1520,East Springer Drive,95382-9297,37.5309692,-120.8313744
1500,East Springer Drive,95382-9297,37.5309441,-120.8315630
1480,East Springer Drive,95382-9296,37.5309154,-120.8317459
1460,East Springer Drive,95382-9296,37.5309210,-120.8319243
1440,East Springer Drive,95382-9296,37.5309268,-120.8321003
1420,East Springer Drive,95382-9296,37.5309731,-120.8322698
4158,Enclave Drive,95382-7421,37.5309864,-120.8325718
4154,Enclave Drive,95382-7421,37.5307921,-120.8324920
4150,Enclave Drive,95382-7421,37.5306990,-120.8323666
4146,Enclave Drive,95382-7420,37.5306266,-120.8321639
4142,Enclave Drive,95382-7420,37.5306529,-120.8319769
4138,Enclave Drive,95382-7420,37.5306437,-120.8318006
4134,Enclave Drive,95382-7420,37.5306557,-120.8316063
4130,Enclave Drive,95382-7420,37.5306205,-120.8313871
4153,Enclave Drive,95382-7421,37.5308289,-120.8330767
4157,Enclave Drive,95382-7421,37.5309659,-120.8331472
1340,East Springer Drive,95382-9293,37.5309380,-120.8334059
1320,East Springer Drive,95382-9293,37.5308879,-120.8335709
1300,East Springer Drive,95382-9293,37.5308337,-120.8337502
1280,East Springer Drive,95382-9291,37.5308108,-120.8339360
1260,East Springer Drive,95382-9291,37.5307702,-120.8341319
1240,East Springer Drive,95382-9291,37.5307825,-120.8343101
1220,East Springer Drive,95382-9291,37.5308019,-120.8344815
4110,Colorado Avenue,95382-9295,37.5307996,-120.8347982
4100,Colorado Avenue,95382-9295,37.5306013,-120.8348357
4090,Colorado Avenue,95382-9292,37.5304361,-120.8348160
4080,Colorado Avenue,95382-9292,37.5302948,-120.8347995
1222,Moonbeam Way,95382,37.5330778,-120.8345681
1242,Moonbeam Way,95382,37.5331090,-120.8343719
4263,Cherry Blossom Lane,95382,37.5323446,-120.8344910
4283,Cherry Blossom Lane,95382,37.5324797,-120.8344497
4303,Cherry Blossom Lane,95382,37.5326075,-120.8344182
4313,Cherry Blossom Lane,95382,37.5327410,-120.8343817
1231,Moonbeam Way,95382,37.5334981,-120.8343815
1201,Moonbeam Way,95382,37.5335041,-120.8347241
4508,Colorado Avenue,95382,37.5337411,-120.8347284
4512,Colorado Avenue,95382,37.5341073,-120.8346120
1204,Dancer Way,95382,37.5344831,-120.8347389
4591,Colorado Avenue,95382,37.5345276,-120.8353186
4561,Colorado Avenue,95382,37.5343448,-120.8352920
1224,Dancer Way,95382,37.5344825,-120.8345388
1244,Dancer Way,95382,37.5345040,-120.8343215
4600,Colorado Avenue,95382,37.5349431,-120.8346936
1173,Dancer Way,95382,37.5349112,-120.8352478
1143,Dancer Way,95382,37.5349075,-120.8354633
1113,Dancer Way,95382,37.5348994,-120.8356896
4626,Visions Drive,95382,37.5351330,-120.8356274
4621,Colorado Avenue,95382,37.5351307,-120.8352872
4631,Colorado Avenue,95382,37.5352958,-120.8352882
4636,Visions Drive,95382,37.5352973,-120.8356210
4603,Visions Drive,95382,37.5348953,-120.8361481
4602,Callisto Lane,95382,37.5348966,-120.8364973
4612,Callisto Lane,95382,37.5350634,-120.8365290
4632,Callisto Lane,95382,37.5352314,-120.8365239
4619,Callisto Lane,95382,37.5350894,-120.8370220
4609,Callisto Lane,95382,37.5349437,-120.8370311
4639,Callisto Lane,95382,37.5352676,-120.8370356
4649,Callisto Lane,95382,37.5354437,-120.8370029
4642,Callisto Lane,95382,37.5353997,-120.8365213
4652,Callisto Lane,95382,37.5355601,-120.8365261
4643,Visions Drive,95382,37.5353913,-120.8361868
4653,Visions Drive,95382,37.5355568,-120.8361211
4633,Visions Drive,95382,37.5352262,-120.8361461
4613,Visions Drive,95382,37.5350572,-120.8361508
4646,Visions Drive,95382,37.5354633,-120.8356446
4656,Visions Drive,95382,37.5356235,-120.8356347
4666,Visions Drive,95382,37.5357928,-120.8356033
4661,Colorado Avenue,95382,37.5357920,-120.8352733
4651,Colorado Avenue,95382,37.5356265,-120.8352596
4641,Colorado Avenue,95382,37.5354739,-120.8352634
4663,Visions Drive,95382,37.5357219,-120.8361527
4662,Callisto Lane,95382,37.5357274,-120.8364845
4672,Callisto Lane,95382,37.5358888,-120.8365071
1038,Inspiration Way,95382,37.5361330,-120.8365212
1048,Inspiration Way,95382,37.5361080,-120.8363121
1068,Inspiration Way,95382,37.5361145,-120.8361045
4673,Visions Drive,95382,37.5358861,-120.8361125
4676,Visions Drive,95382,37.5359581,-120.8356292
4686,Visions Drive,95382,37.5361226,-120.8356198
4696,Visions Drive,95382,37.5362796,-120.8355743
4691,Colorado Avenue,95382,37.5362925,-120.8352728
4681,Colorado Avenue,95382,37.5361316,-120.8352452
4671,Colorado Avenue,95382,37.5359571,-120.8352340
1018,Inspiration Way,95382,37.5361097,-120.8369804
1015,Fantasy Court,95382,37.5358281,-120.8369867
1005,Fantasy Court,95382,37.5358480,-120.8371948
975,Fantasy Court,95382,37.5358253,-120.8374065
945,Fantasy Court,95382,37.5358238,-120.8376276
1008,Inspiration Way,95382,37.5361319,-120.8371742
978,Inspiration Way,95382,37.5361152,-120.8373938
958,Inspiration Way,95382,37.5361433,-120.8376115
938,Inspiration Way,95382,37.5361133,-120.8378498
928,Inspiration Way,95382,37.5361171,-120.8380428
918,Inspiration Way,95382,37.5361152,-120.8382675
4674,Destiny Drive,95382,37.5361402,-120.8385694
4664,Destiny Drive,95382,37.5359634,-120.8385886
4654,Destiny Drive,95382,37.5358114,-120.8385689
4644,Destiny Drive,95382,37.5356446,-120.8386119
926,Fantasy Court,95382,37.5355359,-120.8382237
915,Fantasy Court,95382,37.5357448,-120.8381813
936,Fantasy Court,95382,37.5353736,-120.8380371
946,Fantasy Court,95382,37.5353610,-120.8377285
956,Fantasy Court,95382,37.5354018,-120.8375169
986,Fantasy Court,95382,37.5354019,-120.8373089
963,Dancer Way,95382,37.5349869,-120.8373314
943,Dancer Way,95382,37.5350062,-120.8375836
933,Dancer Way,95382,37.5350867,-120.8378057
923,Dancer Way,95382,37.5351232,-120.8380734
913,Dancer Way,95382,37.5351516,-120.8382902
4614,Destiny Drive,95382,37.5351495,-120.8385767
4624,Destiny Drive,95382,37.5353026,-120.8386013
4634,Destiny Drive,95382,37.5354787,-120.8385787
4617,Destiny Drive,95382,37.5351518,-120.8391214
4627,Destiny Drive,95382,37.5353120,-120.8390853
4637,Destiny Drive,95382,37.5354789,-120.8390937
4647,Destiny Drive,95382,37.5356465,-120.8391112
4657,Destiny Drive,95382,37.5358116,-120.8391157
4667,Destiny Drive,95382,37.5359792,-120.8390883
4677,Destiny Drive,95382,37.5361420,-120.8391283
4670,North Olive Avenue,95382,37.5361415,-120.8394428
4660,North Olive Avenue,95382,37.5359769,-120.8394438
4650,North Olive Avenue,95382,37.5358142,-120.8394682
4640,North Olive Avenue,95382,37.5356466,-120.8394464
4630,North Olive Avenue,95382,37.5354815,-120.8394766
4620,North Olive Avenue,95382,37.5353176,-120.8394695
4610,North Olive Avenue,95382,37.5351656,-120.8394813
4680,Colorado Avenue,95382,37.5361353,-120.8346658
4670,Colorado Avenue,95382,37.5359913,-120.8346621
4660,Colorado Avenue,95382,37.5358330,-120.8346705
4650,Colorado Avenue,95382,37.5356880,-120.8346869
4640,Colorado Avenue,95382,37.5354861,-120.8346819
4637,Cherry Blossom Lane,95382,37.5354713,-120.8343333
4647,Cherry Blossom Lane,95382,37.5356820,-120.8343225
4657,Cherry Blossom Lane,95382,37.5358258,-120.8343268
4667,Cherry Blossom Lane,95382,37.5359849,-120.8343125
4677,Cherry Blossom Lane,95382,37.5361281,-120.8343159
4688,Cherry Blossom Lane,95382,37.5361289,-120.8337840
4678,Cherry Blossom Lane,95382,37.5359857,-120.8337608
4668,Cherry Blossom Lane,95382,37.5358274,-120.8337911
4658,Cherry Blossom Lane,95382,37.5356831,-120.8337997
4627,Cherry Blossom Lane,95382,37.5352717,-120.8343530
4617,Cherry Blossom Lane,95382,37.5351133,-120.8343526
4607,Cherry Blossom Lane,95382,37.5349417,-120.8343625
4610,Colorado Avenue,95382,37.5351298,-120.8346857
4620,Colorado Avenue,95382,37.5352905,-120.8346868
4628,Cherry Blossom Lane,95382,37.5351929,-120.8338072
4638,Cherry Blossom Lane,95382,37.5353635,-120.8338110
4648,Cherry Blossom Lane,95382,37.5355142,-120.8337892
4618,Cherry Blossom Lane,95382,37.5350519,-120.8338302
4608,Cherry Blossom Lane,95382,37.5349032,-120.8338116
4601,Manzanita Way,95382,37.5349011,-120.8334293
4611,Manzanita Way,95382,37.5350513,-120.8333912
4580,Cherry Blossom Lane,95382,37.5345417,-120.8338151
4560,Cherry Blossom Lane,95382,37.5343820,-120.8338340
4551,Manzanita Way,95382,37.5345372,-120.8334233
4531,Manzanita Way,95382,37.5343742,-120.8333989
4621,Manzanita Way,95382,37.5352047,-120.8334037
4631,Manzanita Way,95382,37.5353677,-120.8333843
4641,Manzanita Way,95382,37.5355102,-120.8333717
4651,Manzanita Way,95382,37.5356753,-120.8333787
4661,Manzanita Way,95382,37.5358135,-120.8333565
4671,Manzanita Way,95382,37.5359718,-120.8333642
4681,Manzanita Way,95382,37.5361221,-120.8333607
4650,Manzanita Way,95382,37.5356761,-120.8328197
4660,Manzanita Way,95382,37.5358199,-120.8328293
4670,Manzanita Way,95382,37.5359785,-120.8327920
4680,Manzanita Way,95382,37.5361223,-120.8328183
4683,Fireside Drive,95382,37.5361346,-120.8324196
4673,Fireside Drive,95382,37.5359584,-120.8324147
4663,Fireside Drive,95382,37.5357813,-120.8324231
4640,Manzanita Way,95382,37.5355114,-120.8328652
4630,Manzanita Way,95382,37.5353674,-120.8328441
4620,Manzanita Way,95382,37.5352053,-120.8328231
4610,Manzanita Way,95382,37.5350516,-120.8328571
4600,Manzanita Way,95382,37.5348937,-120.8328241
4613,Fireside Drive,95382,37.5349128,-120.8324376
4623,Fireside Drive,95382,37.5350886,-120.8324286
4633,Fireside Drive,95382,37.5352584,-120.8324115
4643,Fireside Drive,95382,37.5354295,-120.8324181
4653,Fireside Drive,95382,37.5356059,-120.8324264
4662,Fireside Drive,95382,37.5357736,-120.8319021
4652,Fireside Drive,95382,37.5356146,-120.8319231
4642,Fireside Drive,95382,37.5354431,-120.8319154
4632,Fireside Drive,95382,37.5352734,-120.8319246
4622,Fireside Drive,95382,37.5350986,-120.8319263
4612,Fireside Drive,95382,37.5349223,-120.8319598
1501,Dancer Way,95382,37.5349387,-120.8316112
4641,Red Hill Way,95382,37.5355126,-120.8315389
1504,Wildtree Lane,95382,37.5353768,-120.8313051
1534,Wildtree Lane,95382,37.5353987,-120.8310599
1533,Wildtree Lane,95382,37.5358420,-120.8310019
4670,Red Hill Way,95382,37.5360589,-120.8309898
4680,Red Hill Way,95382,37.5362358,-120.8309340
4681,Red Hill Way,95382,37.5361034,-120.8315157
4682,Fireside Drive,95382,37.5361274,-120.8318792
4672,Fireside Drive,95382,37.5359555,-120.8319033
4671,Red Hill Way,95382,37.5359424,-120.8314925
4661,Red Hill Way,95382,37.5357573,-120.8315352
4697,North Berkeley Avenue,95382,37.5362336,-120.8306004
4677,North Berkeley Avenue,95382,37.5360574,-120.8306041
1563,Wildtree Lane,95382,37.5358155,-120.8307975
1593,Wildtree Lane,95382,37.5358252,-120.8305980
4690,North Berkeley Avenue,95382-7510,37.5362601,-120.8298547
4697,Falcon Crest Way,95382-7477,37.5362663,-120.8295659
4680,North Berkeley Avenue,95382-7510,37.5360948,-120.8298597
4670,North Berkeley Avenue,95382-7510,37.5359274,-120.8298652
4660,North Berkeley Avenue,95382-7510,37.5357648,-120.8298745
4667,Falcon Crest Way,95382-7477,37.5358048,-120.8295501
4677,Falcon Crest Way,95382-7477,37.5359582,-120.8295524
4687,Falcon Crest Way,95382-7477,37.5361075,-120.8295362
4694,Falcon Crest Way,95382-7477,37.5361597,-120.8289919
4684,Falcon Crest Way,95382-7477,37.5359996,-120.8290022
4674,Falcon Crest Way,95382-7477,37.5358416,-120.8290079
4664,Falcon Crest Way,95382-7477,37.5356836,-120.8290148
4654,Falcon Crest Way,95382-7477,37.5355314,-120.8290085
4644,Falcon Crest Way,95382-7477,37.5353681,-120.8290260
4637,Falcon Crest Way,95382-7477,37.5353524,-120.8295734
4647,Falcon Crest Way,95382-7477,37.5355033,-120.8295509
4657,Falcon Crest Way,95382-7477,37.5356563,-120.8295613
4650,North Berkeley Avenue,95382-7510,37.5355995,-120.8298759
1564,Wildtree Lane,95382,37.5354186,-120.8308404
1594,Wildtree Lane,95382,37.5354294,-120.8306171
4640,North Berkeley Avenue,95382-7510,37.5354358,-120.8298861
4630,North Berkeley Avenue,95382-7510,37.5352708,-120.8298884
4620,North Berkeley Avenue,95382-7510,37.5351059,-120.8299002
4627,Falcon Crest Way,95382-7477,37.5352015,-120.8295621
4617,Falcon Crest Way,95382-7477,37.5350528,-120.8295874
4607,Falcon Crest Way,95382-7477,37.5348937,-120.8295918
1601,Dancer Way,95382-7467,37.5349215,-120.8299144
4593,North Berkeley Avenue,95382,37.5345248,-120.8306863
4596,Sorenson Way,95382,37.5345205,-120.8310292
4566,Sorenson Way,95382,37.5343601,-120.8310522
4536,Sorenson Way,95382,37.5341769,-120.8310673
4506,Sorenson Way,95382,37.5340090,-120.8310750
4503,North Berkeley Avenue,95382,37.5340077,-120.8306817
4533,North Berkeley Avenue,95382,37.5341781,-120.8306594
4563,North Berkeley Avenue,95382,37.5343477,-120.8306647
4590,North Berkeley Avenue,95382-7473,37.5344628,-120.8299468
4587,Falcon Crest Way,95382-7476,37.5345322,-120.8295993
4557,Falcon Crest Way,95382-7476,37.5343814,-120.8296053
4560,North Berkeley Avenue,95382-7473,37.5343105,-120.8299219
4530,North Berkeley Avenue,95382-7473,37.5341528,-120.8299473
4500,North Berkeley Avenue,95382-7473,37.5339935,-120.8299369
4527,Falcon Crest Way,95382-7476,37.5340756,-120.8296275
4537,Falcon Crest Way,95382-7476,37.5342265,-120.8296191
4477,Falcon Crest Way,95382-7475,37.5339236,-120.8295903
4470,North Berkeley Avenue,95382-7473,37.5338364,-120.8299705
4473,North Berkeley Avenue,95382,37.5338310,-120.8306885
4476,Sorenson Way,95382,37.5338305,-120.8310633
4446,Sorenson Way,95382,37.5336702,-120.8310995
4416,Sorenson Way,95382,37.5335043,-120.8310624
4413,North Berkeley Avenue,95382,37.5334745,-120.8306953
4443,North Berkeley Avenue,95382,37.5336342,-120.8306927
4477,Sorenson Way,95382,37.5338157,-120.8315728
4447,Sorenson Way,95382,37.5336388,-120.8316047
4407,Sorenson Way,95382,37.5334741,-120.8316027
4448,Fireside Drive,95382,37.5336722,-120.8319659
4478,Fireside Drive,95382,37.5338312,-120.8319659
4418,Fireside Drive,95382,37.5335092,-120.8320087
4508,Fireside Drive,95382,37.5340087,-120.8319917
4507,Sorenson Way,95382,37.5339821,-120.8315916
4537,Sorenson Way,95382,37.5341728,-120.8316065
4567,Sorenson Way,95382,37.5343730,-120.8315774
4568,Fireside Drive,95382,37.5343608,-120.8319541
4538,Fireside Drive,95382,37.5341722,-120.8319671
4598,Fireside Drive,95382,37.5345235,-120.8319391
4597,Sorenson Way,95382,37.5345402,-120.8315430
1404,Dancer Way,95382,37.5345048,-120.8324628
1384,Dancer Way,95382,37.5345128,-120.8326869
1364,Dancer Way,95382,37.5344954,-120.8329139
4532,Manzanita Way,95382,37.5342711,-120.8329138
4539,Fireside Drive,95382,37.5342684,-120.8324913
4509,Fireside Drive,95382,37.5340475,-120.8324990
4479,Fireside Drive,95382,37.5338804,-120.8325102
4502,Manzanita Way,95382,37.5341083,-120.8328997
4472,Manzanita Way,95382,37.5339347,-120.8329087
4442,Manzanita Way,95382,37.5337656,-120.8329604
4400,Arthur Mace Drive,95382-7463,37.5335633,-120.8328753
4419,Fireside Drive,95382,37.5335097,-120.8325266
4449,Fireside Drive,95382,37.5336703,-120.8324860
4451,Manzanita Way,95382,37.5338747,-120.8334694
4450,Cherry Blossom Lane,95382,37.5338825,-120.8338622
4470,Cherry Blossom Lane,95382,37.5340415,-120.8338619
4540,Cherry Blossom Lane,95382,37.5342117,-120.8338687
4511,Manzanita Way,95382,37.5342105,-120.8334574
4481,Manzanita Way,95382,37.5340336,-120.8334150
4440,North Berkeley Avenue,95382-7473,37.5336786,-120.8299790
4437,Falcon Crest Way,95382-7475,37.5336210,-120.8296480
4467,Falcon Crest Way,95382-7475,37.5337717,-120.8296118
4410,North Berkeley Avenue,95382-7473,37.5335266,-120.8299500
4407,Falcon Crest Way,95382-7475,37.5334644,-120.8296349
4404,Falcon Crest Way,95382-7475,37.5332935,-120.8291047
4405,Prairie Falcon Way,95382-7479,37.5333086,-120.8287627
4445,Prairie Falcon Way,95382-7479,37.5335354,-120.8287414
4485,Prairie Falcon Way,95382-7479,37.5337751,-120.8287338
4474,Falcon Crest Way,95382-7475,37.5338067,-120.8290874
4464,Falcon Crest Way,95382-7475,37.5336471,-120.8290906
4434,Falcon Crest Way,95382-7475,37.5334576,-120.8290997
4505,Prairie Falcon Way,95382-7478,37.5340056,-120.8287185
4535,Prairie Falcon Way,95382-7478,37.5342438,-120.8287376
4534,Falcon Crest Way,95382-7476,37.5341565,-120.8290701
4504,Falcon Crest Way,95382-7476,37.5339910,-120.8290788
4554,Falcon Crest Way,95382-7476,37.5343363,-120.8290620
4584,Falcon Crest Way,95382-7476,37.5345034,-120.8290487
4555,Prairie Falcon Way,95382-7478,37.5344842,-120.8287162
4614,Falcon Crest Way,95382-7477,37.5348804,-120.8290415
4624,Falcon Crest Way,95382-7477,37.5350440,-120.8290331
4634,Falcon Crest Way,95382-7477,37.5352096,-120.8290308
4635,Prairie Falcon Way,95382-7468,37.5353101,-120.8286962
4625,Prairie Falcon Way,95382-7468,37.5351128,-120.8287032
4615,Prairie Falcon Way,95382-7468,37.5349082,-120.8287201
4655,Prairie Falcon Way,95382-7468,37.5355406,-120.8286929
4675,Prairie Falcon Way,95382-7468,37.5357216,-120.8286816
4685,Prairie Falcon Way,95382-7468,37.5359342,-120.8286722
4695,Prairie Falcon Way,95382-7468,37.5361481,-120.8286641
4692,Prairie Falcon Way,95382-7468,37.5361676,-120.8281196
4682,Prairie Falcon Way,95382-7468,37.5359506,-120.8281241
4693,Tapestry Way,95382-7469,37.5361109,-120.8277515
4673,Tapestry Way,95382-7469,37.5358113,-120.8277530
4672,Prairie Falcon Way,95382-7468,37.5357373,-120.8281410
4652,Prairie Falcon Way,95382-7468,37.5355400,-120.8281456
4632,Prairie Falcon Way,95382-7468,37.5353271,-120.8281597
4622,Prairie Falcon Way,95382-7468,37.5351304,-120.8281535
4633,Tapestry Way,95382-7469,37.5351446,-120.8277634
4653,Tapestry Way,95382-7469,37.5354793,-120.8277740
4670,Tapestry Way,95382-7469,37.5358008,-120.8271217
4671,Country Walk Lane,95382-7484,37.5358178,-120.8267198
4690,Tapestry Way,95382-7469,37.5361193,-120.8271225
4691,Country Walk Lane,95382-7484,37.5361483,-120.8267274
4651,Country Walk Lane,95382-7484,37.5355161,-120.8267411
4631,Country Walk Lane,95382-7484,37.5351629,-120.8267213
4630,Tapestry Way,95382-7469,37.5351469,-120.8271215
4613,Tapestry Way,95382-7469,37.5348605,-120.8277221
4612,Prairie Falcon Way,95382-7468,37.5348969,-120.8281530
4610,Tapestry Way,95382-7469,37.5348797,-120.8271127
4611,Country Walk Lane,95382-7484,37.5348778,-120.8266630
4552,Prairie Falcon Way,95382-7478,37.5344123,-120.8281544
4553,Tapestry Way,95382-7480,37.5343394,-120.8277702
4503,Tapestry Way,95382-7480,37.5340931,-120.8277991
4532,Prairie Falcon Way,95382-7478,37.5341912,-120.8281949
4502,Prairie Falcon Way,95382-7478,37.5339860,-120.8282196
4482,Prairie Falcon Way,95382-7479,37.5337634,-120.8282085
4453,Tapestry Way,95382-7481,37.5337808,-120.8278324
4442,Prairie Falcon Way,95382-7479,37.5335018,-120.8282269
4402,Prairie Falcon Way,95382-7479,37.5333258,-120.8282272
4403,Tapestry Way,95382-7481,37.5334314,-120.8278765
4400,Tapestry Way,95382-7481,37.5333856,-120.8272576
4450,Tapestry Way,95382-7481,37.5336329,-120.8272394
4451,Country Walk Lane,95382-7482,37.5336780,-120.8267734
4401,Country Walk Lane,95382-7482,37.5333855,-120.8267659
4501,Country Walk Lane,95382-7483,37.5340207,-120.8267815
4551,Country Walk Lane,95382-7483,37.5343520,-120.8266882
4550,Tapestry Way,95382-7480,37.5342897,-120.8271332
4500,Tapestry Way,95382-7480,37.5340402,-120.8271843
1882,Moonbeam Way,95382-7471,37.5328451,-120.8268384
1842,Moonbeam Way,95382-7471,37.5328654,-120.8272104
4280,Tapestry Way,95382-7448,37.5325371,-120.8272960
4281,Country Walk Lane,95382-7451,37.5325607,-120.8268147
4241,Country Walk Lane,95382-7451,37.5322741,-120.8268542
4250,Tapestry Way,95382-7448,37.5321640,-120.8272840
4200,Tapestry Way,95382-7448,37.5318329,-120.8273749
4191,Country Walk Lane,95382-7450,37.5316974,-120.8269705
4171,Country Walk Lane,95382-7450,37.5314422,-120.8269753
4170,Tapestry Way,95382-7448,37.5314591,-120.8273964
2001,Geer Road,95382,37.5111127,-120.8493845
1000,El Paseo Street,95380-3533,37.5023639,-120.8275772
1991,El Capitan Drive,95380-3526,37.5024293,-120.8264143
2175,El Camino Drive,95380-3603,37.5016404,-120.8239542
2155,El Camino Drive,95380-3603,37.5015748,-120.8242459
2125,El Camino Drive,95380-3603,37.5015598,-120.8245326
2225,El Camino Drive,95380-3605,37.5016420,-120.8233825
2255,El Camino Drive,95380-3605,37.5015468,-120.8230827
2275,El Camino Drive,95380-3605,37.5015157,-120.8227952
2441,El Camino Drive,95380-3609,37.5014391,-120.8209634
2421,El Camino Drive,95380-3609,37.5014036,-120.8212028
2481,El Camino Drive,95380-3609,37.5014669,-120.8204622
2461,El Camino Drive,95380-3609,37.5014403,-120.8207143
2511,El Camino Drive,95380-3611,37.5014694,-120.8201958
2531,El Camino Drive,95380-3611,37.5014739,-120.8199432
2545,El Camino Drive,95380-3611,37.5014321,-120.8196913
2565,El Camino Drive,95380-3611,37.5014226,-120.8194632
2585,El Camino Drive,95380-3611,37.5014171,-120.8192118
2621,El Camino Drive,95380-3613,37.5014196,-120.8189698
2651,El Camino Drive,95380-3613,37.5014276,-120.8187282
2671,El Camino Drive,95380-3613,37.5014587,-120.8184839
2691,El Camino Drive,95380-3613,37.5014702,-120.8182581
2695,East Canal Drive,95380-4405,37.5006442,-120.8182409
2665,East Canal Drive,95380-4405,37.5006416,-120.8184557
2635,East Canal Drive,95380-4405,37.5006313,-120.8186910
2660,El Camino Drive,95380-3614,37.5010278,-120.8185405
605,North Quincy Road,95380,37.4981382,-120.8217095
2365,Carrigan Street,95380,37.4980884,-120.8219430
2325,Carrigan Street,95380,37.4981379,-120.8221649
2360,Tokay Avenue,95380,37.4984482,-120.8217368
2340,Tokay Avenue,95380,37.4984433,-120.8219474
2365,Tokay Avenue,95380,37.4988871,-120.8217225
2345,Tokay Avenue,95380,37.4988605,-120.8219494
2340,Mission Street,95380,37.4991785,-120.8219506
645,North Quincy Road,95380,37.4991889,-120.8217397
765,North Quincy Road,95380,37.4995960,-120.8217293
640,Old Vineyard Road,95380,37.4991848,-120.8234777
2220,Mission Street,95380,37.4991855,-120.8232430
2240,Mission Street,95380,37.4991828,-120.8230350
2260,Mission Street,95380,37.4991761,-120.8227976
2280,Mission Street,95380,37.4991767,-120.8225985
2300,Mission Street,95380,37.4991878,-120.8223756
2320,Mission Street,95380,37.4991792,-120.8221828
2325,Tokay Avenue,95380,37.4988678,-120.8221636
2305,Tokay Avenue,95380,37.4988838,-120.8223886
2285,Tokay Avenue,95380,37.4988775,-120.8225926
2265,Tokay Avenue,95380,37.4988760,-120.8228243
2245,Tokay Avenue,95380,37.4988570,-120.8230282
2225,Tokay Avenue,95380,37.4988522,-120.8232593
2205,Tokay Avenue,95380,37.4988950,-120.8234683
2205,Mission Street,95380,37.4995932,-120.8234724
2225,Mission Street,95380,37.4996080,-120.8232490
2245,Mission Street,95380,37.4995921,-120.8230357
2265,Mission Street,95380,37.4995943,-120.8228153
2285,Mission Street,95380,37.4995916,-120.8225952
2305,Mission Street,95380,37.4995904,-120.8223784
2325,Mission Street,95380,37.4995866,-120.8221627
2345,Mission Street,95380,37.4995948,-120.8219462
785,North Quincy Road,95380,37.4998965,-120.8217106
2340,East Canal Drive,95380,37.4998988,-120.8219485
2320,East Canal Drive,95380,37.4999075,-120.8221583
2300,East Canal Drive,95380,37.4998940,-120.8223815
2280,East Canal Drive,95380,37.4999068,-120.8226031
2260,East Canal Drive,95380,37.4998970,-120.8228186
2240,East Canal Drive,95380,37.4998966,-120.8230315
2220,East Canal Drive,95380,37.4998899,-120.8232506
780,Old Vineyard Road,95380,37.4998961,-120.8234651
2185,Tokay Avenue,95380-4348,37.4988889,-120.8239565
2165,Tokay Avenue,95380-4348,37.4988799,-120.8241680
2145,Tokay Avenue,95380-4348,37.4988875,-120.8243810
2125,Tokay Avenue,95380-4348,37.4988836,-120.8245996
2105,Tokay Avenue,95380-4348,37.4988861,-120.8248196
2085,Tokay Avenue,95380-4346,37.4988856,-120.8250247
2065,Tokay Avenue,95380-4346,37.4988827,-120.8252444
2045,Tokay Avenue,95380-4346,37.4988625,-120.8254717
2025,Tokay Avenue,95380-4346,37.4988921,-120.8256777
2005,Tokay Avenue,95380-4346,37.4988671,-120.8258899
2000,Tokay Avenue,95380-4345,37.4984317,-120.8259057
2005,Carrigan Street,95380-4308,37.4981420,-120.8258882
2025,Carrigan Street,95380-4308,37.4981061,-120.8256881
2020,Tokay Avenue,95380-4345,37.4984474,-120.8256790
2040,Tokay Avenue,95380-4345,37.4984483,-120.8254703
2060,Tokay Avenue,95380-4345,37.4984331,-120.8252552
2080,Tokay Avenue,95380-4345,37.4984343,-120.8250370
2040,Carrigan Street,95380-4309,37.4976749,-120.8254723
2020,Carrigan Street,95380-4309,37.4977139,-120.8256875
2100,Tokay Avenue,95380-4347,37.4984369,-120.8248208
2120,Tokay Avenue,95380-4347,37.4984274,-120.8245956
2140,Tokay Avenue,95380-4347,37.4984317,-120.8243853
2160,Tokay Avenue,95380-4347,37.4984273,-120.8241603
2180,Tokay Avenue,95380-4347,37.4984525,-120.8239516
2185,Carrigan Street,95380-4310,37.4981174,-120.8239591
2165,Carrigan Street,95380-4310,37.4981058,-120.8241666
2145,Carrigan Street,95380-4310,37.4981061,-120.8243730
2125,Carrigan Street,95380-4310,37.4981055,-120.8246022
2105,Carrigan Street,95380-4310,37.4981188,-120.8248180
2085,Carrigan Street,95380-4308,37.4981169,-120.8250336
2065,Carrigan Street,95380-4308,37.4981064,-120.8252511
2045,Carrigan Street,95380-4308,37.4981064,-120.8254686
2000,Carrigan Street,95380-4309,37.4977164,-120.8258863
2060,Carrigan Street,95380-4309,37.4977035,-120.8252550
2080,Carrigan Street,95380-4309,37.4977135,-120.8250302
2100,Carrigan Street,95380-4311,37.4977125,-120.8248117
2120,Carrigan Street,95380-4311,37.4977141,-120.8245988
2140,Carrigan Street,95380-4311,37.4976927,-120.8243816
2160,Carrigan Street,95380-4311,37.4977136,-120.8241637
2180,Carrigan Street,95380-4311,37.4977146,-120.8239545
2005,Zinfandel Lane,95380-4336,37.4973896,-120.8259028
2025,Zinfandel Lane,95380-4336,37.4973935,-120.8256913
2045,Zinfandel Lane,95380-4336,37.4974210,-120.8254503
2065,Zinfandel Lane,95380-4336,37.4973883,-120.8252510
2085,Zinfandel Lane,95380-4336,37.4973776,-120.8250333
2105,Zinfandel Lane,95380-4338,37.4973856,-120.8248157
2125,Zinfandel Lane,95380-4338,37.4973802,-120.8245993
2145,Zinfandel Lane,95380-4338,37.4973779,-120.8243779
2165,Zinfandel Lane,95380-4338,37.4974064,-120.8241622
2185,Zinfandel Lane,95380-4338,37.4974055,-120.8239453
2000,Zinfandel Lane,95380-4335,37.4969605,-120.8259154
2020,Zinfandel Lane,95380-4335,37.4969573,-120.8256876
2040,Zinfandel Lane,95380-4335,37.4969612,-120.8254702
2060,Zinfandel Lane,95380-4335,37.4969578,-120.8252526
2080,Zinfandel Lane,95380-4335,37.4969598,-120.8250326
2100,Zinfandel Lane,95380-4337,37.4969550,-120.8248156
2120,Zinfandel Lane,95380-4337,37.4969623,-120.8245960
2140,Zinfandel Lane,95380-4337,37.4969569,-120.8243801
2160,Zinfandel Lane,95380-4337,37.4969341,-120.8241620
2180,Zinfandel Lane,95380-4337,37.4969378,-120.8239588
2185,East Marshall Street,95380-4317,37.4966313,-120.8239498
2165,East Marshall Street,95380-4317,37.4966495,-120.8241618
2145,East Marshall Street,95380-4317,37.4966366,-120.8243795
2125,East Marshall Street,95380-4317,37.4966424,-120.8245985
2105,East Marshall Street,95380-4317,37.4966597,-120.8248161
2085,East Marshall Street,95380-4316,37.4966637,-120.8250320
2065,East Marshall Street,95380-4316,37.4966578,-120.8252503
2045,East Marshall Street,95380-4316,37.4966620,-120.8254740
2005,East Marshall Street,95380-4316,37.4966223,-120.8259097
2025,East Marshall Street,95380-4316,37.4966546,-120.8256939
1945,East Marshall Street,95380-4239,37.4968470,-120.8267230
1980,Charles Place,95380-4232,37.4972156,-120.8265815
1998,Charles Place,95380-4232,37.4971848,-120.8263700
"1930,1950",Charles Place,95380-4232,37.4972366,-120.8268479
1900,Charles Place,95380-4232,37.4972171,-120.8271569
1876,Charles Place,95380-4232,37.4972186,-120.8274204
1856,Charles Place,95380-4232,37.4972291,-120.8276590
1836,Charles Place,95380-4232,37.4972317,-120.8279288
1816,Charles Place,95380-4232,37.4972136,-120.8281734
1815,Charles Place,95380-4231,37.4976543,-120.8281716
1835,Charles Place,95380-4231,37.4976610,-120.8279601
1855,Charles Place,95380-4231,37.4976409,-120.8277320
1875,Charles Place,95380-4231,37.4976310,-120.8275024
1895,Charles Place,95380-4231,37.4976034,-120.8272689
1925,Charles Place,95380-4282,37.4976452,-120.8270421
1955,Charles Place,95380-4282,37.4976048,-120.8268080
1975,Charles Place,95380-4282,37.4976124,-120.8265824
1995,Charles Place,95380-4282,37.4976463,-120.8263686
2200,Tokay Avenue,95380,37.4984475,-120.8234588
2220,Tokay Avenue,95380,37.4984293,-120.8232561
2205,Carrigan Street,95380,37.4981142,-120.8234693
2225,Carrigan Street,95380,37.4981449,-120.8232510
2245,Carrigan Street,95380,37.4981286,-120.8230355
2265,Carrigan Street,95380,37.4981092,-120.8228003
2285,Carrigan Street,95380,37.4981150,-120.8225999
2305,Carrigan Street,95380,37.4980955,-120.8223699
2300,Tokay Avenue,95380,37.4984499,-120.8223723
2320,Tokay Avenue,95380,37.4984254,-120.8221711
2280,Tokay Avenue,95380,37.4984374,-120.8225930
2260,Tokay Avenue,95380,37.4984360,-120.8228226
2240,Tokay Avenue,95380,37.4984519,-120.8230289
2570,El Camino Drive,95380-3612,37.5010144,-120.8193754
2550,El Camino Drive,95380-3612,37.5010238,-120.8196604
2541,East Canal Drive,95380-4403,37.5006116,-120.8198653
2555,East Canal Drive,95380-4403,37.5006212,-120.8196343
2565,East Canal Drive,95380-4403,37.5006331,-120.8193979
2575,East Canal Drive,95380-4403,37.5006395,-120.8191653
2605,East Canal Drive,95380-4405,37.5006425,-120.8189260
2590,El Camino Drive,95380-3612,37.5010113,-120.8190903
2630,El Camino Drive,95380-3614,37.5010078,-120.8188147
2521,East Canal Drive,95380-4403,37.5006292,-120.8202826
2481,East Canal Drive,95380-4401,37.5006343,-120.8206343
2420,El Camino Drive,95380-3610,37.5010197,-120.8212333
2440,El Camino Drive,95380-3610,37.5010360,-120.8209683
2460,El Camino Drive,95380-3610,37.5010460,-120.8207094
2421,East Canal Drive,95380-4401,37.5006832,-120.8211986
2441,East Canal Drive,95380-4401,37.5006582,-120.8209248
2305,East Canal Drive,95380-4306,37.5006149,-120.8225316
2285,East Canal Drive,95380-4304,37.5006518,-120.8228031
2255,East Canal Drive,95380-4304,37.5006188,-120.8230737
2205,East Canal Drive,95380-4304,37.5006724,-120.8236026
2225,East Canal Drive,95380-4304,37.5006311,-120.8233436
2030,El Camino Drive,95380-3602,37.5010296,-120.8256056
2060,El Camino Drive,95380-3602,37.5010317,-120.8253189
800,North Johnson Road,95380-3503,37.5006574,-120.8258644
2025,East Canal Drive,95380-4301,37.5006330,-120.8254778
2055,East Canal Drive,95380-4301,37.5006292,-120.8252077
2075,East Canal Drive,95380-4301,37.5006374,-120.8249259
2125,East Canal Drive,95380-4303,37.5006115,-120.8246635
2155,East Canal Drive,95380-4303,37.5006488,-120.8243802
2090,El Camino Drive,95380-3602,37.5010614,-120.8250346
2100,El Camino Drive,95380-3604,37.5011116,-120.8247679
2130,El Camino Drive,95380-3604,37.5011479,-120.8244980
2025,El Camino Drive,95380-3601,37.5014086,-120.8256218
900,North Johnson Road,95380-3514,37.5014425,-120.8258676
2055,El Camino Drive,95380-3601,37.5014329,-120.8253514
2075,El Camino Drive,95380-3601,37.5014733,-120.8250933
2105,El Camino Drive,95380-3603,37.5015274,-120.8248099
875,North Johnson Road,95380-3502,37.5010634,-120.8263345
1953,El Camino Drive,95380-3524,37.5010609,-120.8265928
1960,El Camino Drive,95380-3525,37.5006313,-120.8263664
1948,El Camino Drive,95380-3525,37.5006685,-120.8266082
1924,El Camino Drive,95380-3525,37.5006699,-120.8268529
1932,La Linda Court,95380-3539,37.5013486,-120.8272582
1940,La Linda Court,95380-3539,37.5013445,-120.8270007
1948,La Linda Court,95380-3539,37.5013192,-120.8267808
1956,La Linda Court,95380-3539,37.5013670,-120.8264714
904,El Paseo Street,95380-3531,37.5013048,-120.8277797
934,El Paseo Street,95380-3531,37.5014951,-120.8277633
960,El Paseo Street,95380-3531,37.5016965,-120.8277932
1919,La Linda Court,95380-3542,37.5017371,-120.8273815
1925,La Linda Court,95380-3542,37.5015231,-120.8274210
1931,La Linda Court,95380-3542,37.5017729,-120.8268899
1964,La Linda Court,95380-3539,37.5015148,-120.8263596
1972,La Linda Court,95380-3539,37.5017381,-120.8264064
1950,El Capitan Drive,95380-3527,37.5019413,-120.8263818
1940,El Capitan Drive,95380-3554,37.5019307,-120.8268935
1901,La Linda Court,95380-3542,37.5019400,-120.8273769
990,El Paseo Street,95380-3531,37.5019081,-120.8277646
995,El Paseo Street,95380-3530,37.5019250,-120.8282829
1750,El Capitan Drive,95380-3415,37.5019281,-120.8288122
986,Edwards Drive,95380-3418,37.5017862,-120.8288695
975,El Paseo Street,95380-3530,37.5017042,-120.8282687
935,El Paseo Street,95380-3530,37.5014802,-120.8282669
895,El Paseo Street,95380-3528,37.5012734,-120.8282839
900,Edwards Drive,95380-3418,37.5014558,-120.8288334
940,Edwards Drive,95380-3418,37.5016136,-120.8288563
1717,Kenneth Drive,95380-3421,37.5015243,-120.8293280
991,Edwards Drive,95380-3419,37.5018784,-120.8293465
886,Edwards Drive,95380-3416,37.5011047,-120.8288412
873,El Paseo Street,95380-3528,37.5010595,-120.8282771
874,El Paseo Street,95380-3529,37.5010598,-120.8277597
1871,El Camino Drive,95380-3522,37.5010587,-120.8275012
835,El Paseo Street,95380-3528,37.5008450,-120.8282782
830,Edwards Drive,95380-3416,37.5007731,-120.8288447
860,Edwards Drive,95380-3416,37.5009414,-120.8288515
815,El Paseo Street,95380-3528,37.5006263,-120.8282737
1745,East Canal Drive,95380,37.5005826,-120.8286374
800,Edwards Drive,95380-3416,37.5006101,-120.8288661
1846,El Camino Drive,95380-3523,37.5006181,-120.8278199
1864,El Camino Drive,95380-3523,37.5006822,-120.8275711
1882,El Camino Drive,95380-3523,37.5006753,-120.8273313
1900,El Camino Drive,95380-3525,37.5006595,-120.8270914
1911,El Camino Drive,95380-3524,37.5010480,-120.8270371
1891,El Camino Drive,95380-3522,37.5010302,-120.8272725
1716,Kenneth Drive,95380-3420,37.5010331,-120.8293428
1700,Kenneth Drive,95380-3420,37.5010659,-120.8295370
1684,Kenneth Drive,95380-3420,37.5010303,-120.8297396
1648,Kenneth Drive,95380-3420,37.5010131,-120.8300403
880,North Berkeley Avenue,95380-3423,37.5010399,-120.8303888
820,North Berkeley Avenue,95380-3423,37.5006881,-120.8304223
1675,East Canal Drive,95380-4220,37.5006602,-120.8300581
1683,East Canal Drive,95380-4220,37.5006482,-120.8297343
1687,East Canal Drive,95380-4220,37.5006530,-120.8295341
835,Edwards Drive,95380-3417,37.5006962,-120.8293436
1700,El Capitan Drive,95380-3421,37.5019176,-120.8295276
1697,Kenneth Drive,95380-3421,37.5015013,-120.8295294
1683,Kenneth Drive,95380-3421,37.5014982,-120.8297507
1651,Kenneth Drive,95380-3421,37.5015059,-120.8300361
920,North Berkeley Avenue,95380-3424,37.5014954,-120.8304474
950,North Berkeley Avenue,95380-3424,37.5016999,-120.8303664
976,North Berkeley Avenue,95380-3424,37.5019182,-120.8303953
1680,El Capitan Drive,95380-3421,37.5019247,-120.8300444
1127,Yosemite Street,95380,37.5028534,-120.8311316
1121,Yosemite Street,95380,37.5027459,-120.8313117
1117,Yosemite Street,95380,37.5026667,-120.8314415
1111,Yosemite Street,95380,37.5025480,-120.8315932
1100,Sierra Drive,95380,37.5026926,-120.8323482
1108,Sierra Drive,95380-3434,37.5029378,-120.8320559
1116,Sierra Drive,95380,37.5030440,-120.8318644
1120,Sierra Drive,95380,37.5032065,-120.8316825
1134,Sierra Drive,95380,37.5033684,-120.8314320
1144,Sierra Drive,95380,37.5036244,-120.8311159
1115,East Main Street,95380,37.5037996,-120.8335597
953,Sierra Drive,95380,37.5015623,-120.8349006
945,Sierra Drive,95380,37.5013874,-120.8351823
937,Sierra Drive,95380,37.5012093,-120.8353843
915,Sierra Drive,95380,37.5010266,-120.8355830
915,East Main Street,95380,37.5012291,-120.8373198
1223,East Canal Drive,95380,37.5007617,-120.8368517
907,Sierra Drive,95380,37.5007921,-120.8359361
909,Sierra Drive,95380,37.5009176,-120.8357661
914,Sierra Drive,95380,37.5007102,-120.8352196
936,Sierra Drive,95380,37.5007708,-120.8350791
938,Sierra Drive,95380,37.5008956,-120.8349408
940,Sierra Drive,95380,37.5009997,-120.8347522
946,Sierra Drive,95380,37.5011069,-120.8346172
950,Sierra Drive,95380,37.5012051,-120.8344542
901,Yosemite Street,95380,37.5007813,-120.8340131
821,Colorado Avenue,95380,37.5011444,-120.8336505
1015,Yosemite Street,95380,37.5013012,-120.8333349
1012,Yosemite Street,95380,37.5014597,-120.8331173
801,Colorado Avenue,95380,37.5014965,-120.8340716
1012,Sierra Drive,95380,37.5017296,-120.8337262
1020,Sierra Drive,95380,37.5018680,-120.8335553
1025,Yosemite Street,95380,37.5015956,-120.8329228
1029,Yosemite Street,95380,37.5017211,-120.8328102
1026,Sierra Drive,95380,37.5019946,-120.8333669
1030,Sierra Drive,95380,37.5021943,-120.8331168
1040,Sierra Drive,95380,37.5023087,-120.8328328
1046,Sierra Drive,95380,37.5024539,-120.8327343
1055,Yosemite Street,95380,37.5021032,-120.8323063
1041,Yosemite Street,95380,37.5019489,-120.8324369
1101,Yosemite Street,95380,37.5023450,-120.8319485
3855,Oakview Court,95382,37.5278964,-120.8732342
3875,Oakview Court,95382,37.5280600,-120.8732264
3870,Oakview Court,95382,37.5280588,-120.8726807
3850,Oakview Court,95382,37.5278983,-120.8727084
3890,Oakview Court,95382,37.5282269,-120.8727049
3895,Oakview Court,95382,37.5282239,-120.8732169
3910,Oakview Court,95382,37.5283990,-120.8726965
3930,Oakview Court,95382,37.5285574,-120.8727000
3950,Oakview Court,95382,37.5287194,-120.8726337
3970,Oakview Court,95382,37.5289136,-120.8726437
3975,Oakview Court,95382,37.5288955,-120.8733021
3955,Oakview Court,95382,37.5287187,-120.8732625
3935,Oakview Court,95382,37.5285548,-120.8732311
3915,Oakview Court,95382,37.5283891,-120.8732140
1600,Colorado Avenue,95382,37.5074873,-120.8345819
681,South Minaret Avenue,95380,37.4905454,-120.8376229
501,East F Street,95380,37.4911431,-120.8368671
511,East F Street,95380,37.4912794,-120.8366698
682,Alpha Road,95380,37.4914277,-120.8364663
581,South Minaret Avenue,95380,37.4914763,-120.8387120
589,South Minaret Avenue,95380,37.4913641,-120.8385976
599,South Minaret Avenue,95380,37.4912630,-120.8384619
611,South Minaret Avenue,95380,37.4911612,-120.8383243
621,South Minaret Avenue,95380,37.4910950,-120.8382140
667,South Minaret Avenue,95380,37.4906690,-120.8377702
575,South Minaret Avenue,95380,37.4915884,-120.8387968
561,South Minaret Avenue,95380,37.4917717,-120.8389891
546A,South Rose Street,95380,37.4921385,-120.8385684
546,South Rose Street,95380,37.4921104,-120.8388221
535,South Minaret Avenue,95380,37.4921099,-120.8393893
453,South Center Street,95380-4940,37.4919954,-120.8410347
449,South Center Street,95380-4940,37.4921226,-120.8411590
1030,East Avenue,95380,37.4925158,-120.8403875
440,South Thor Street,95380-4917,37.4929243,-120.8410729
430,South Thor Street,95380-4917,37.4930086,-120.8412974
401,Race Street,95380-4913,37.4931127,-120.8406967
1100,East Avenue,95380,37.4925080,-120.8395611
1110,East Avenue,95380,37.4924860,-120.8393968
1130,East Avenue,95380,37.4924807,-120.8392397
10,North Minaret Avenue,95380-4943,37.4928776,-120.8395405
64,North Minaret Avenue,95380-4943,37.4930583,-120.8395688
86,North Minaret Avenue,95380-4943,37.4932110,-120.8395741
1165,East Avenue,95380-4922,37.4929490,-120.8390843
1118,Myrtle Street,95380-4932,37.4931522,-120.8390764
1124,Myrtle Street,95380-4932,37.4931610,-120.8388798
1138,Myrtle Street,95380-4932,37.4931278,-120.8387119
"75,77,79",North Rose Street,95380-4935,37.4931602,-120.8385439
1193,East Avenue,95380-4922,37.4929355,-120.8385368
"1187,1189",East Avenue,95380-4922,37.4929133,-120.8387157
1165,East Avenue,95380-4922,37.4929104,-120.8388973
1150,East Avenue,95380,37.4924935,-120.8390611
1170,East Avenue,95380,37.4924865,-120.8388685
1190,East Avenue,95380,37.4924027,-120.8385257
1250,East Avenue,95380,37.4924666,-120.8379983
556,Alpha Road,95380,37.4922713,-120.8375676
563,South Rose Street,95380,37.4921724,-120.8379871
577,South Rose Street,95380,37.4920769,-120.8378790
587,South Rose Street,95380,37.4919744,-120.8377881
612,Alpha Road,95380,37.4920132,-120.8371822
603,South Rose Street,95380,37.4918563,-120.8376574
613,South Rose Street,95380,37.4917636,-120.8375226
625,South Rose Street,95380,37.4916636,-120.8374267
626,Alpha Road,95380,37.4919323,-120.8370613
638,Alpha Road,95380,37.4918061,-120.8369378
648,Alpha Road,95380,37.4917153,-120.8367893
666,Alpha Road,95380,37.4915594,-120.8366499
635,South Rose Street,95380,37.4915332,-120.8372950
645,South Rose Street,95380,37.4914201,-120.8371570
655,South Rose Street,95380,37.4912927,-120.8370470
1143,Myrtle Street,95380-4931,37.4935734,-120.8385646
3200,Atherstone Road,95382,37.5318191,-120.8862151
1400,North Tully Road,95380,37.5043438,-120.8694652
3740,North Golden State Boulevard,95382,37.5274833,-120.8829620
833,East Main Street,95380,37.4999188,-120.8391604
450,South Palm Street,95380-4912,37.4935563,-120.8402524
1290,East Avenue,95380-4967,37.4924659,-120.8369439
232,Lander Avenue,95380,37.4907764,-120.8487200
1318,East Canal Drive,95380-4172,37.4998805,-120.8361659
1445,Myrtle Street,95380-4217,37.4935832,-120.8335466
1433,Myrtle Street,95380-4217,37.4935537,-120.8337982
1427,Myrtle Street,95380-4217,37.4935457,-120.8340514
1831,Lander Avenue,95380,37.4755935,-120.8515623
1631,Lander Avenue,95380,37.4771652,-120.8508147
1610,West Main Street,95380,37.4924408,-120.8680338
1600,West Main Street,95380,37.4923570,-120.8677676
1600,West Main Street,95380,37.4924496,-120.8676161
313,Bernell Avenue,95380,37.4837422,-120.8516394
949,Bethany Avenue,95380,37.4839626,-120.8515355
3650,West Taylor Road,95382,37.5358691,-120.8880487
4650,Tapestry Way,95382-7469,37.5354976,-120.8271447
4607,North Berkeley Avenue,95382,37.5350009,-120.8309074
935,Fantasy Court,95382,37.5358709,-120.8379886
602,Alpha Road,95380,37.4921335,-120.8373340
540,East Marshall Street,95380-4904,37.4953608,-120.8404606
255,West Main Street,95380,37.4934189,-120.8501707
241,West Main Street,95380,37.4933353,-120.8494984
275,North Orange Street,95380,37.4943449,-120.8528391
487,North Golden State Boulevard,95380,37.4977885,-120.8487765
417,North Golden State Boulevard,95380,37.4972184,-120.8487187
437,North Golden State Boulevard,95380,37.4974781,-120.8485599
1600,Colorado Avenue,95382,37.5075638,-120.8350809
1600,Colorado Avenue,95382,37.5075012,-120.8348307
4540,Traditions Way,95382,37.5352411,-120.8623297
4200,Mountain View Road,95382,37.5343697,-120.8809378
4235,North Kilroy Road,95382,37.5340229,-120.8754268
1655,East Avenue,95380,37.4933776,-120.8297288
1125,Myrtle Street,95380-4931,37.4935471,-120.8389026
1131,Myrtle Street,95380-4931,37.4935647,-120.8387367
1111,Myrtle Street,95380-4931,37.4935705,-120.8390955
100,North Minaret Avenue,95380-4945,37.4935089,-120.8395503
126,North Minaret Avenue,95380-4945,37.4936569,-120.8395570
142,North Minaret Avenue,95380-4945,37.4937843,-120.8395503
158,North Minaret Avenue,95380-4945,37.4939370,-120.8395688
190,North Minaret Avenue,95380-4945,37.4941956,-120.8395654
1120,Merritt Street,95380-4951,37.4941351,-120.8391020
1122,Merritt Street,95380-4951,37.4941443,-120.8389336
1124,Merritt Street,95380-4951,37.4941276,-120.8387613
1130,Merritt Street,95380-4951,37.4941152,-120.8385645
176,North Minaret Avenue,95380-4945,37.4940743,-120.8395763
"234,236",North Minaret Avenue,95380-4947,37.4947119,-120.8395690
258,North Minaret Avenue,95380-4947,37.4949224,-120.8395431
274,North Minaret Avenue,95380-4947,37.4950523,-120.8395605
292,North Minaret Avenue,95380-4947,37.4951892,-120.8395681
1103,Sycamore Street,95380-4144,37.4955024,-120.8394763
300,North Minaret Avenue,95380-4162,37.4955032,-120.8396037
324,North Minaret Avenue,95380-4162,37.4956286,-120.8395842
344,North Minaret Avenue,95380-4162,37.4957726,-120.8395470
358,North Minaret Avenue,95380-4162,37.4959572,-120.8395859
390,North Minaret Avenue,95380-4162,37.4961814,-120.8395752
1116,East Marshall Street,95380-4127,37.4961872,-120.8393147
1120,East Marshall Street,95380-4168,37.4960364,-120.8391098
1124,East Marshall Street,95380-4127,37.4960794,-120.8389208
1128,East Marshall Street,95380-4127,37.4960972,-120.8387463
1132,East Marshall Street,95380-4127,37.4960916,-120.8385384
1117,Sycamore Street,95380-4144,37.4955671,-120.8390997
1121,Sycamore Street,95380-4144,37.4955852,-120.8389326
1125,Sycamore Street,95380-4144,37.4956105,-120.8387709
1129,Sycamore Street,95380-4144,37.4955626,-120.8385185
1200,East Marshall Street,95380-4129,37.4960959,-120.8380741
1230,Merritt Street,95380-4953,37.4941350,-120.8370536
1222,Merritt Street,95380-4953,37.4941348,-120.8372824
1220,Merritt Street,95380-4953,37.4941336,-120.8374504
1214,Merritt Street,95380-4953,37.4941454,-120.8376276
1210,Merritt Street,95380-4953,37.4941372,-120.8377826
1206,Merritt Street,95380-4953,37.4941280,-120.8379610
1200,Merritt Street,95380-4953,37.4941406,-120.8381469
1300,Merritt Street,95380-4251,37.4941227,-120.8366487
1306,Merritt Street,95380-4251,37.4941411,-120.8363893
1320,Merritt Street,95380-4251,37.4941131,-120.8362131
1322,Merritt Street,95380-4251,37.4941017,-120.8360380
1324,Merritt Street,95380-4251,37.4940911,-120.8358473
1328,Merritt Street,95380-4251,37.4941210,-120.8357007
1332,Merritt Street,95380-4251,37.4941348,-120.8355190
1221,Merritt Street,95380-4954,37.4945614,-120.8373534
1219,Merritt Street,95380-4954,37.4945466,-120.8375234
1209,Merritt Street,95380-4954,37.4945340,-120.8378352
1201,Merritt Street,95380-4954,37.4946006,-120.8381198
1225,Merritt Street,95380-4954,37.4945508,-120.8371827
1229,Merritt Street,95380-4954,37.4945590,-120.8370121
1323,Merritt Street,95380-4252,37.4945503,-120.8359384
1325,Merritt Street,95380-4252,37.4945556,-120.8357811
1333,Merritt Street,95380-4252,37.4945502,-120.8355490
1321,Merritt Street,95380-4252,37.4945340,-120.8361108
1309,Merritt Street,95380-4252,37.4945685,-120.8362908
1305,Merritt Street,95380-4252,37.4945509,-120.8364609
1303,Merritt Street,95380-4252,37.4945829,-120.8366415
1240,Sycamore Street,95380-4147,37.4951247,-120.8370524
1234,Sycamore Street,95380-4147,37.4951147,-120.8372680
1230,Sycamore Street,95380-4147,37.4950958,-120.8374140
1200,Sycamore Street,95380-4147,37.4951140,-120.8380998
1324,Sycamore Street,95380-4149,37.4950561,-120.8358669
1316,Sycamore Street,95380-4149,37.4950952,-120.8360346
1310,Sycamore Street,95380-4149,37.4950923,-120.8361765
1306,Sycamore Street,95380-4149,37.4951114,-120.8363609
"1300,1304",Sycamore Street,95380-4149,37.4951227,-120.8366098
1123,Merritt Street,95380-4952,37.4945585,-120.8387407
1311,Sycamore Street,95380-4148,37.4955382,-120.8362881
1329,Sycamore Street,95380-4148,37.4955216,-120.8355126
1325,Sycamore Street,95380-4148,37.4955193,-120.8356955
1323,Sycamore Street,95380-4148,37.4955546,-120.8359224
1323,Sycamore Street,95380-4148,37.4955457,-120.8361245
1305,Sycamore Street,95380-4148,37.4955748,-120.8364727
1301,Sycamore Street,95380-4148,37.4955513,-120.8366243
1121,Merritt Street,95380-4952,37.4945742,-120.8389190
1141,North Olive Avenue,95380,37.5039474,-120.8401696
555,East Main Street,95380-4500,37.4974473,-120.8427326
501,East Main Street,95380-4517,37.4971955,-120.8431279
502,East Main Street,95380-4518,37.4967353,-120.8426482
433,East Main Street,95380,37.4967178,-120.8435950
433,East Main Street,95380,37.4968868,-120.8435604
100,North Palm Street,95380,37.4969236,-120.8436722
440,East Olive Avenue,95380,37.4971000,-120.8439058
429,East Main Street,95380,37.4965894,-120.8436660
425,East Main Street,95380,37.4965545,-120.8437513
401,East Main Street,95380,37.4962215,-120.8442967
415,East Main Street,95380,37.4963819,-120.8440824
516,East Main Street,95380-4518,37.4968588,-120.8424870
500,East Main Street,95380-4518,37.4965249,-120.8428540
422,East Main Street,95380-4538,37.4961764,-120.8435285
426,East Main Street,95380-4538,37.4961974,-120.8434462
428,East Main Street,95380-4538,37.4962546,-120.8434162
432,East Main Street,95380-4830,37.4962948,-120.8433612
108,South Center Street,95380,37.4948731,-120.8451385
431,East Main Street,95380,37.4966294,-120.8436115
824,North Golden State Boulevard,95380,37.5007988,-120.8508432
651,North Golden State Boulevard,95380,37.4982509,-120.8505589
601,North Golden State Boulevard,95380,37.4979362,-120.8501401
1250,East Avenue,95380,37.4924307,-120.8379166
1574,East Canal Drive,95380-4161,37.4994676,-120.8323252
1117,East Main Street,95380,37.5040042,-120.8334553
1033,Yosemite Street,95380,37.5018261,-120.8326486
830,East Canal Drive,95380,37.4999855,-120.8400340
825,East Main Street,95380,37.4998370,-120.8394392
847,East Main Street,95380,37.5001368,-120.8387039
3181,Geer Road,95382,37.5214261,-120.8494066
3191,Geer Road,95382,37.5215618,-120.8494070
90,Pedras Road,95382,37.5103450,-120.8500137
425,20th Century Boulevard,95380,37.5066120,-120.8536502
561,Colorado Avenue,95380-4110,37.4977439,-120.8334833
1461,Lyons Avenue,95380-4123,37.4993953,-120.8334817
1328,Cahill Street,95380-4106,37.4969686,-120.8355114
262,Oak Street,95380-4204,37.4949005,-120.8365876
742,East Olive Avenue,95380,37.4991480,-120.8411377
1328,East Marshall Street,95380-4131,37.4961146,-120.8354792
1330,East Marshall Street,95380-4131,37.4959850,-120.8354781
1328,Sycamore Street,95380-4149,37.4950890,-120.8355122
1326,Sycamore Street,95380-4149,37.4950922,-120.8356770
1315,East Marshall Street,95380-4130,37.4965215,-120.8360906
1321,East Marshall Street,95380-4130,37.4965325,-120.8358389
1200,Lyons Avenue,95380,37.4987989,-120.8379499
1301,Cooper Avenue,95380-4113,37.4984763,-120.8365577
1225,Cooper Avenue,95380,37.4984890,-120.8375648
1307,Cooper Avenue,95380-4113,37.4983704,-120.8363757
1311,Cooper Avenue,95380-4113,37.4983947,-120.8362048
1315,Cooper Avenue,95380-4113,37.4983416,-120.8360109
1319,Cooper Avenue,95380-4113,37.4983468,-120.8358151
1329,Cooper Avenue,95380-4113,37.4983595,-120.8355477
659,Bell Street,95380-4155,37.4987670,-120.8355049
4013,North Walnut Road,95382,37.5310961,-120.8706031
430,Crane Avenue,95380-4551,37.4955578,-120.8423244
4062,Limestone Road,95382-7386,37.5322170,-120.8833776
3074,White Oak Court,95382-8611,37.5333869,-120.8847327
4542,Sugar Oak Drive,95382-8666,37.5360564,-120.8825756
4502,Sugar Oak Drive,95382-8666,37.5353987,-120.8825833
3025,West Christoffersen Parkway,95382,37.5299328,-120.8828213
3100,West Christoffersen Parkway,95382,37.5284775,-120.8838434
3025,West Christoffersen Parkway,95382,37.5303708,-120.8835783
3025,West Christoffersen Parkway,95382,37.5303735,-120.8828187
3025,West Christoffersen Parkway,95382,37.5303749,-120.8820393
3025,West Christoffersen Parkway,95382,37.5299538,-120.8817250
3025,West Christoffersen Parkway,95382,37.5298351,-120.8836879
3025,West Christoffersen Parkway,95382,37.5294881,-120.8830579
3025,West Christoffersen Parkway,95382,37.5294148,-120.8820674
3025,West Christoffersen Parkway,95382,37.5295328,-120.8839442
1690,El Capitan Drive,95380-3421,37.5018826,-120.8297330
1951,El Capitan Drive,95380-3526,37.5024176,-120.8269741
1929,El Camino Drive,95380-3524,37.5010111,-120.8268152
2000,El Camino Drive,95380-3602,37.5010232,-120.8258721
2160,El Camino Drive,95380-3604,37.5011570,-120.8242354
2190,El Camino Drive,95380-3604,37.5011213,-120.8239777
2280,El Camino Drive,95380-3606,37.5011101,-120.8228474
2480,El Camino Drive,95380-3610,37.5010726,-120.8204492
2510,El Camino Drive,95380-3612,37.5010870,-120.8201910
2530,El Camino Drive,95380-3612,37.5010736,-120.8199392
199,North Minaret Avenue,95380-4944,37.4944260,-120.8401233
500,Mill Street,95380-4909,37.4942988,-120.8402583
417,Race Street,95380-4913,37.4933996,-120.8403266
415,Race Street,95380-4913,37.4933136,-120.8404790
407,Race Street,95380-4913,37.4932136,-120.8405508
439,South Thor Street,95380-4982,37.4932654,-120.8408355
439,South Thor Street,95380-4982,37.4933164,-120.8407648
439,South Thor Street,95380-4982,37.4933632,-120.8407000
406,Mill Street,95380-4907,37.4935012,-120.8409444
412,Mill Street,95380-4907,37.4935478,-120.8408253
401,Mill Street,95380-4906,37.4935851,-120.8412312
408,Mill Street,95380-4907,37.4936622,-120.8411037
410,Mill Street,95380-4907,37.4937268,-120.8410249
416,Mill Street,95380-4907,37.4938035,-120.8408746
420,Mill Street,95380-4907,37.4938595,-120.8407513
432,South Palm Street,95380-4971,37.4939677,-120.8405747
321,South Thor Street,95380-4985,37.4939434,-120.8416159
417,Mill Street,95380-4985,37.4941078,-120.8413549
419,Mill Street,95380-4985,37.4941856,-120.8411976
427,Mill Street,95380-4985,37.4942736,-120.8410772
439,Mill Street,95380-4985,37.4943873,-120.8410005
540,East Marshall Street,95380-4904,37.4952885,-120.8404128
505,Mill Street,95380-4908,37.4947083,-120.8404874
501,Mill Street,95380-4908,37.4946086,-120.8406202
321,South Palm Street,95380-4910,37.4947682,-120.8407981
518,East Marshall Street,95380-4904,37.4951772,-120.8409554
305,South Palm Street,95380-4910,37.4951014,-120.8411378
311,South Palm Street,95380-4910,37.4949930,-120.8410526
317,South Palm Street,95380-4910,37.4948955,-120.8409444
522,East Marshall Street,95380-4904,37.4952803,-120.8408283
308,Mill Street,95380-4905,37.4930523,-120.8418386
310,Mill Street,95380-4905,37.4931685,-120.8418664
312,Mill Street,95380-4905,37.4931796,-120.8417368
400,South Thor Street,95380-4917,37.4933462,-120.8416196
435,South Center Street,95380-4963,37.4929369,-120.8421594
301,South Center Street,95380-4961,37.4938794,-120.8427154
325,South Center Street,95380-4961,37.4935200,-120.8424858
399,South Thor Street,95380-4032,37.4936723,-120.8419612
1320,Lyons Avenue,95380-4122,37.4989471,-120.8358371
1324,Lyons Avenue,95380-4122,37.4989417,-120.8356759
1328,Lyons Avenue,95380-4122,37.4989832,-120.8354944
1316,Lyons Avenue,95380-4122,37.4989541,-120.8360108
1312,Lyons Avenue,95380-4122,37.4989425,-120.8361806
674,Oak Street,95380-4139,37.4988750,-120.8365971
658,Oak Street,95380-4139,37.4987497,-120.8365822
1107,Merritt Street,95380-4952,37.4945240,-120.8393884
200,North Minaret Avenue,95380-4947,37.4945232,-120.8396442
1103,Merritt Street,95380-4952,37.4945183,-120.8395571
1105,Merritt Street,95380-4952,37.4945181,-120.8394837
1115,Merritt Street,95380-4952,37.4945795,-120.8390946
1131,Merritt Street,95380-4952,37.4945684,-120.8385139
257,North Rose Street,95380-4914,37.4949480,-120.8385088
1128,Sycamore Street,95380-4145,37.4951311,-120.8385085
1124,Sycamore Street,95380-4145,37.4951324,-120.8386704
1120,Sycamore Street,95380-4145,37.4950950,-120.8389299
1116,Sycamore Street,95380-4145,37.4951408,-120.8391148
1107,Sycamore Street,95380-4144,37.4954680,-120.8392941
1105,Sycamore Street,95380-4144,37.4955020,-120.8393996
"1117,1119,1121,1123,1125.1127",East Marshall Street,95380-4126,37.4964804,-120.8389812
1129,East Marshall Street,95380-4126,37.4964893,-120.8386628
1131,East Marshall Street,95380-4126,37.4964940,-120.8384990
433,North Rose Street,95380-4141,37.4966907,-120.8385166
1210,Sycamore Street,95380-4147,37.4951028,-120.8378101
1212,Sycamore Street,95380-4147,37.4951152,-120.8376421
1201,Sycamore Street,95380-4146,37.4955714,-120.8380818
381,North Rose Street,95380-4140,37.4958975,-120.8385019
1203,Sycamore Street,95380-4146,37.4955478,-120.8378771
1211,Sycamore Street,95380-4146,37.4955391,-120.8376960
1215,Sycamore Street,95380-4146,37.4955378,-120.8374836
1233,Sycamore Street,95380-4146,37.4955576,-120.8372204
1243,Sycamore Street,95380-4146,37.4955365,-120.8370151
1210,East Marshall Street,95380-4129,37.4960995,-120.8377726
1214,East Marshall Street,95380-4129,37.4960722,-120.8376115
1216,East Marshall Street,95380-4129,37.4960798,-120.8374549
1220,East Marshall Street,95380-4129,37.4961017,-120.8372788
1226,East Marshall Street,95380-4129,37.4960591,-120.8370600
450,North Rose Street,95380-4171,37.4966902,-120.8381133
1201,East Marshall Street,95380-4128,37.4965327,-120.8381064
1207,East Marshall Street,95380-4128,37.4965180,-120.8379394
1209,East Marshall Street,95380-4128,37.4965502,-120.8377878
1215,East Marshall Street,95380-4128,37.4965662,-120.8375681
1221,East Marshall Street,95380-4128,37.4965384,-120.8373636
1227,East Marshall Street,95380-4128,37.4965330,-120.8370789
1200,Cahill Street,95380-4104,37.4969718,-120.8381223
1204,Cahill Street,95380-4104,37.4970032,-120.8379626
1208,Cahill Street,95380-4104,37.4968804,-120.8379392
1210,Cahill Street,95380-4104,37.4969930,-120.8377310
1216,Cahill Street,95380-4104,37.4970123,-120.8375123
1222,Cahill Street,95380-4104,37.4969933,-120.8373403
1228,Cahill Street,95380-4104,37.4969844,-120.8371883
1230,Cahill Street,95380-4104,37.4970022,-120.8369945
550,North Rose Street,95380-4142,37.4976329,-120.8381040
1201,Cahill Street,95380-4103,37.4973940,-120.8380867
1205,Cahill Street,95380-4103,37.4973789,-120.8378642
1211,Cahill Street,95380-4103,37.4973756,-120.8376990
1221,Cahill Street,95380-4103,37.4974515,-120.8375176
1223,Cahill Street,95380-4103,37.4974388,-120.8373476
1225,Cahill Street,95380-4103,37.4973838,-120.8371510
1241,Cahill Street,95380-4103,37.4974199,-120.8370163
1191,Cahill Street,95380-4101,37.4975201,-120.8386755
1301,Cahill Street,95380-4105,37.4974002,-120.8365928
1305,Cahill Street,95380-4105,37.4973728,-120.8364274
1309,Cahill Street,95380-4105,37.4973748,-120.8362380
1315,Cahill Street,95380-4105,37.4974136,-120.8360578
1319,Cahill Street,95380-4105,37.4974101,-120.8358856
1325,Cahill Street,95380-4105,37.4973748,-120.8356906
1333,Cahill Street,95380-4105,37.4973717,-120.8355267
1321,Cahill Street,95380-4105,37.4975710,-120.8358215
1311,Cahill Street,95380-4105,37.4975856,-120.8362167
1414,Lyons Avenue,95380-4124,37.4989912,-120.8349449
1412,Lyons Avenue,95380-4124,37.4988199,-120.8349784
1420,Lyons Avenue,95380-4124,37.4990004,-120.8347611
1422,Lyons Avenue,95380-4124,37.4989554,-120.8346216
1430,Lyons Avenue,95380-4124,37.4989468,-120.8342686
1436,Lyons Avenue,95380-4124,37.4989254,-120.8339744
1442,Lyons Avenue,95380-4124,37.4989713,-120.8337391
1401,Lyons Avenue,95380-4123,37.4993888,-120.8351081
1425,Lyons Avenue,95380-4123,37.4993437,-120.8345931
1427,Lyons Avenue,95380-4123,37.4993826,-120.8344180
1431,Lyons Avenue,95380-4123,37.4993839,-120.8342548
1433,Lyons Avenue,95380-4123,37.4993848,-120.8341109
1437,Lyons Avenue,95380-4123,37.4993678,-120.8339201
1443,Lyons Avenue,95380-4123,37.4993628,-120.8337494
1449,Lyons Avenue,95380-4123,37.4993456,-120.8336211
1403,Lyons Avenue,95380-4123,37.4993772,-120.8349805
1405,Lyons Avenue,95380-4123,37.4993772,-120.8349079
1400,East Canal Drive,95380-4160,37.4999163,-120.8350643
"1424,1426,1428",East Canal Drive,95380-4160,37.4998580,-120.8348101
1436,East Canal Drive,95380-4160,37.4999311,-120.8345851
1438,East Canal Drive,95380-4160,37.4997611,-120.8345569
1444,East Canal Drive,95380-4160,37.4998923,-120.8343484
1448,East Canal Drive,95380-4160,37.4999287,-120.8342304
1450,East Canal Drive,95380-4160,37.4999485,-120.8341725
1466,East Canal Drive,95380-4160,37.4999290,-120.8339612
1476,East Canal Drive,95380-4160,37.4999238,-120.8337365
1490,East Canal Drive,95380-4160,37.4999273,-120.8334996
1392,East Canal Drive,95380-4158,37.4999327,-120.8354989
1329,Lyons Avenue,95380-4121,37.4993422,-120.8355051
1321,Lyons Avenue,95380-4121,37.4993726,-120.8357577
1317,Lyons Avenue,95380-4121,37.4993721,-120.8359305
1315,Lyons Avenue,95380-4121,37.4993485,-120.8361020
1311,Lyons Avenue,95380-4121,37.4993592,-120.8362658
1301,Lyons Avenue,95380-4121,37.4993700,-120.8366221
1305,Lyons Avenue,95380-4121,37.4993633,-120.8364311
1201,Lyons Avenue,95380-4120,37.4993910,-120.8381183
1209,Lyons Avenue,95380-4120,37.4993860,-120.8379643
1217,Lyons Avenue,95380-4120,37.4994303,-120.8377799
1221,Lyons Avenue,95380-4120,37.4993992,-120.8376025
1229,Lyons Avenue,95380-4120,37.4993624,-120.8374364
1235,Lyons Avenue,95380-4120,37.4993760,-120.8372661
1243,Lyons Avenue,95380-4120,37.4993800,-120.8371183
1245,Lyons Avenue,95380-4120,37.4993934,-120.8369792
743,Oak Street,95380-4163,37.4996062,-120.8369737
1220,East Canal Drive,95380-4156,37.4999517,-120.8379491
1232,East Canal Drive,95380-4156,37.4999670,-120.8377896
1246,East Canal Drive,95380-4156,37.4999414,-120.8376126
1260,East Canal Drive,95380-4156,37.4999647,-120.8374318
1274,East Canal Drive,95380-4156,37.4999509,-120.8372678
1290,East Canal Drive,95380-4156,37.4999514,-120.8370295
1127,Cooper Avenue,95380-4111,37.4984293,-120.8389913
1133,Cooper Avenue,95380-4111,37.4984299,-120.8388282
1137,Cooper Avenue,95380-4111,37.4984186,-120.8386817
1141,Cooper Avenue,95380-4111,37.4984023,-120.8384867
1110,Lyons Avenue,95380-4119,37.4990048,-120.8389907
1114,Lyons Avenue,95380-4119,37.4990055,-120.8388150
1148,Lyons Avenue,95380-4119,37.4989535,-120.8386661
1150,Lyons Avenue,95380-4119,37.4989555,-120.8384965
651,North Rose Street,95380-4143,37.4987601,-120.8385015
850,East Main Street,95380,37.4996089,-120.8388992
146,North Berkeley Avenue,95380-4207,37.4938213,-120.8303067
116,Elena Court,95380-4233,37.4933890,-120.8286004
235,North Johnson Road,95380-4235,37.4954302,-120.8264726
1990,East Marshall Street,95380-4240,37.4962666,-120.8263163
501,North Broadway Street,95380,37.4975482,-120.8517570
4323,Cherry Blossom Lane,95382,37.5328697,-120.8343748
101,Lander Avenue,95380,37.4920026,-120.8495307
117,South Palm Street,95380-4527,37.4963002,-120.8425483
501,Crane Avenue,95380-4511,37.4961438,-120.8423630
511,Crane Avenue,95380-4511,37.4962484,-120.8422544
519,Crane Avenue,95380-4511,37.4963549,-120.8421142
527,Crane Avenue,95380-4511,37.4964434,-120.8419828
533,Crane Avenue,95380-4511,37.4965298,-120.8418841
537,Crane Avenue,95380-4511,37.4966050,-120.8417601
500,Crane Avenue,95380-4512,37.4958510,-120.8419514
429,Crane Avenue,95380-4525,37.4959232,-120.8427301
427,Crane Avenue,95380-4525,37.4958182,-120.8428732
417,Crane Avenue,95380-4525,37.4956909,-120.8430498
411,Crane Avenue,95380-4525,37.4955866,-120.8432007
401,Crane Avenue,95380-4551,37.4954345,-120.8432935
175,South Thor Street,95380-4551,37.4954916,-120.8433962
173,South Thor Street,95380-4528,37.4955278,-120.8434376
167,South Thor Street,95380-4597,37.4955917,-120.8435177
1418,North Golden State Boulevard,95380,37.5065627,-120.8592862
677,North Soderquist Road,95380,37.4985678,-120.8638993
2955,North Tegner Road,95380-9401,37.5188293,-120.8859598
3085,North Tegner Road,95380,37.5207369,-120.8885963
931,Bethany Avenue,95380,37.4841538,-120.8515894
191,South Golden State Boulevard,95380,37.4934179,-120.8455278
197,South Golden State Boulevard,95380,37.4932781,-120.8453610
195,South Golden State Boulevard,95380,37.4933183,-120.8454071
193,South Golden State Boulevard,95380,37.4933301,-120.8454560
199,South Golden State Boulevard,95380,37.4932374,-120.8453133
217,South Golden State Boulevard,95380,37.4931391,-120.8452021
203,South Golden State Boulevard,95380,37.4935668,-120.8451308
203,South Golden State Boulevard,95380,37.4935909,-120.8450977
203,South Golden State Boulevard,95380,37.4935426,-120.8451638
266,Villa Court,95380-4246,37.4953060,-120.8278079
1895,Merritt Street,95380-4243,37.4948019,-120.8278304
550,North Minaret Avenue,95380,37.4977552,-120.8394311
2690,El Camino Drive,95380-3614,37.5009951,-120.8182654
