House number,Street name,Postal code,Latitude,Longitude
1791,Marshall Road,95687,38.3458665,-121.9536760
1450,East Monte Vista Avenue,95688,38.3632683,-121.9675079
1017,Alamo Drive,95687,38.3427225,-121.9940220
3000,Harbison Drive,95687-3909,38.3610366,-121.9613315
2021,Harbison Drive,95687,38.3603850,-121.9641310
2071,Harbison Drive,95687,38.3604083,-121.9662639
500,Orange Drive,95687,38.3731802,-121.9502327
100,Nut Tree Parkway,95687,38.3689014,-121.9576632
350,Orange Drive,95687,38.3711811,-121.9528582
817,Leisure Town Road,95687,38.3860219,-121.9329990
321,Nut Tree Road,95687,38.3658059,-121.9583747
321,Nut Tree Road,95687,38.3660673,-121.9570409
601,Orange Drive,95687,38.3780387,-121.9457108
1097,East Monte Vista Avenue,95688,38.3603497,-121.9777320
1377,East Monte Vista Avenue,95688,38.3626002,-121.9708792
1337,East Monte Vista Avenue,95688,38.3622335,-121.9719540
1193,East Monte Vista Avenue,95688,38.3610102,-121.9751670
505,Davis Street,95688,38.3534327,-121.9860094
607,Elmira Road,95687,38.3531424,-121.9524706
800,Merchant Street,95688,38.3492095,-121.9960117
1045,Alamo Drive,95687,38.3434551,-121.9951290
1450,Alamo Drive,95687-6537,38.3355513,-121.9859436
3061,Alamo Drive,95687,38.3366712,-121.9545170
38,Commerce Place,95687,38.3529128,-121.9356575
1240,East Monte Vista Avenue,95688,38.3605526,-121.9736160
289,Orange Drive,95687,38.3690780,-121.9561804
1450,East Monte Vista Avenue,95688,38.3628763,-121.9680470
190,South Orchard Avenue,95688,38.3590168,-122.0052803
2050,Nut Tree Road,95687,38.3505990,-121.9511280
661,Elmira Road,95687,38.3520290,-121.9527643
101,Peabody Road,95687,38.3536826,-121.9757737
11,Town Square Place,95688,38.3567924,-121.9875060
1347,East Monte Vista Avenue,95688,38.3623700,-121.9714470
800,Merchant Street,95688,38.3493246,-121.9961694
11,Town Square Place,95688,38.3570431,-121.9874201
140,Nut Tree Parkway,95687,38.3672010,-121.9594716
150,Nut Tree Parkway,95687,38.3671069,-121.9596738
950,Merchant Street,95688,38.3479489,-121.9976830
112,Nut Tree Parkway,95687,38.3682451,-121.9568972
1019,Alamo Drive,95687,38.3426789,-121.9940739
1015,Alamo Drive,95687,38.3427766,-121.9939479
1009,Alamo Drive,95687,38.3428524,-121.9938652
1005,Alamo Drive,95687,38.3429370,-121.9937605
378,Nut Tree Road,95687,38.3659576,-121.9538278
785,Orange Drive,95687,38.3860730,-121.9352167
11B,Town Square Place,95688,38.3570626,-121.9882660
831,Topaz Circle,95687,38.3274993,-121.9541357
3101,Alamo,95687,38.3357271,-121.9537284
3071,Alamo Drive,95687,38.3365104,-121.9538073
3025,Alamo Drive,95687,38.3360727,-121.9554892
3500,Alamo Drive,95687,38.3351699,-121.9524223
1679,East Monte Vista Avenue,95688,38.3702426,-121.9608163
3333,Vaca Valley Parkway,95688,38.3907296,-121.9397496
3333,Vaca Valley Parkway,95688,38.3916010,-121.9399649
770,Mason Street,95688,38.3538471,-121.9835362
770,Mason Street,95688,38.3538126,-121.9836853
790,Mason Street,95688,38.3546272,-121.9832284
977,Merchant Street,95688,38.3471007,-121.9977760
149,Georgetown Drive,95687,38.3412165,-121.9753043
1751,East Monte Vista Avenue,95688,38.3728543,-121.9585412
1500,Helen Power Drive,95687,38.3636918,-121.9571355
700,Crocker Drive,95688,38.4112154,-121.9492518
129,Elm Street,95688,38.3521588,-121.9901589
100,West Monte Vista Avenue,95688,38.3604814,-121.9954933
999,Leisure Town Rd,95687,38.3739044,-121.9388536
1000,Nut Tree Road,95678,38.3551254,-121.9513321
251,County Airport Road,95688,38.3751942,-121.9577459
300,County Airport Road,95688,38.3743637,-121.9593802
300,County Airport Road,95688,38.3747204,-121.9600545
3333,Vaca Valley Parkway,95688,38.3911736,-121.9397531
3777,Vaca Valley Parkway,95688,38.3911709,-121.9378779
1990,Alamo Drive,95687,38.3350063,-121.9709833
777,Aldridge Road,95688,38.4012558,-121.9557244
600,Eubanks Court,95688,38.3962215,-121.9608037
640,Eubanks Court,95688,38.3953046,-121.9614624
261,Wrentham Drive,95688,38.3815197,-121.9813269
800,Mason Street,95688,38.3541985,-121.9822817
531,Davis Street,95688,38.3531580,-121.9846016
941,Alamo Drive,95687,38.3446478,-121.9958329
2090,Harbison Drive,95688,38.3620483,-121.9616629
1051,Hume Way,95687,38.3505689,-121.9802389
1501,Helen Power Drive,95687,38.3620549,-121.9590515
120,Nut Tree Parkway,95687,38.3679176,-121.9579498
107,Lawrence Drive,95687,38.3721817,-121.9519274
151,Lawrence Drive,95687,38.3717463,-121.9512456
191,Lawrence Drive,95687,38.3714466,-121.9508795
370,Orange Drive,95687,38.3703293,-121.9522797
510,Orange Drive,95687,38.3745394,-121.9481197
570,Orange Drive,95687,38.3754396,-121.9468730
641,Orange Drive,95687,38.3797261,-121.9434338
799,Orange Drive,95687,38.3851138,-121.9350884
1130,Leisure Town Road,95687,38.3858393,-121.9342822
1939,Peabody Road,95687-6283,38.3360104,-121.9699969
2000,Alamo Drive,95687,38.3350020,-121.9700386
151,Bella Vista Road,95687,38.3490651,-121.9868270
541,Davis Street,95688,38.3518413,-121.9853213
1010,Helen Power Drive,95687,38.3653006,-121.9607434
1,Quality Drive,95678,38.3881575,-121.9381250
360,Portsmouth Avenue,95687,38.3532326,-121.9571052
480,Wrentham Drive,95688,38.3879489,-121.9843686
311,Alamo Drive,95688,38.3544704,-122.0080360
290,East Monte Vista Avenue,95688,38.3588467,-121.9901540
1330,East Monte Vista Avenue,95688,38.3614529,-121.9717360
1310,East Monte Vista Avenue,95688,38.3612521,-121.9723187
1350,East Monte Vista Avenue,95688,38.3617376,-121.9701128
1340,East Monte Vista Avenue,95688,38.3614483,-121.9710130
1097,East Monte Vista Avenue,95688,38.3603556,-121.9777367
1377,East Monte Vista Avenue,95688,38.3626133,-121.9708741
1337,East Monte Vista Avenue,95688,38.3622598,-121.9719820
1119,East Monte Vista Avenue,95688,38.3608114,-121.9767206
106,Brown Street,95688,38.3604517,-121.9770448
125,West Kendal Street,95688,38.3573895,-121.9928335
185,Chandler Street,95688,38.3579836,-121.9928745
401,East Monte Vista Avenue,95687,38.3594479,-121.9885753
191,Bella Vista Road,95687,38.3486443,-121.9876494
330,Davis Street,95688,38.3551241,-121.9867397
777,Elmira Road,95687,38.3524246,-121.9420401
180,East Monte Vista Avenue,95688,38.3587389,-121.9912875
120,Parker Street,95688,38.3584805,-121.9901584
313,Kendal Street,95688,38.3577261,-121.9893571
91,Town Square Place,95688,38.3578005,-121.9880408
11,Cernon Street,95688,38.3606185,-121.9900225
201,Main Street,95688,38.3572790,-121.9905557
91,Cernon Street,95688,38.3604094,-121.9904744
218,Dobbins Street,95688,38.3572373,-121.9890110
301,Main Street,95688,38.3569364,-121.9896118
217,Parker Street,95688,38.3573631,-121.9897137
366,Merchant Street,95688,38.3557172,-121.9895414
300,Parker Street,95688,38.3564004,-121.9901196
218,Main Street,95688,38.3564229,-121.9903125
212,Main Street,95688,38.3564136,-121.9905771
100,Main Street,95688,38.3564064,-121.9919391
300,West Street,95688,38.3563748,-121.9924498
213,Buck Avenue,95688,38.3563459,-121.9937441
350,Stinson Avenue,95688,38.3649867,-121.9992024
300,Hemlock Street,95688,38.3650148,-121.9999212
2081,Harbison Drive,95687,38.3613311,-121.9652920
171,Crocker Drive,95688,38.3955691,-121.9517836
1110,Leisure Town Road,95687,38.3848897,-121.9341256
1120,Leisure Town Road,95687,38.3852328,-121.9343827
1680,East Monte Vista Avenue,95688,38.3697803,-121.9589065
718,East Monte Vista Avenue,95688,38.3587393,-121.9846883
718,East Monte Vista Avenue,95688,38.3585061,-121.9847194
720,East Monte Vista Avenue,95688,38.3581997,-121.9851071
101,Allison Court,95688,38.3628212,-121.9718371
181,Depot Street,95688,38.3580783,-121.9807900
293,Orange Drive,95687,38.3695721,-121.9566253
155,Browns Valley Parkway,95688,38.3662566,-121.9669969
1420,East Monte Vista Avenue,95688,38.3625972,-121.9686718
1013,East Monte Vista Avenue,95688,38.3594080,-121.9798099
1092,East Monte Vista Avenue,95688,38.3595978,-121.9774527
1100,East Monte Vista Avenue,95688,38.3596482,-121.9772501
101,West Street,95688,38.3585491,-121.9918334
189,South Orchard Avenue,95688-3635,38.3586802,-122.0043043
120,South Orchard Avenue,95688,38.3575701,-122.0054503
148,South Orchard Avenue,95688,38.3582418,-122.0055754
190,South Orchard Avenue,95688,38.3589557,-122.0053953
170,Nut Tree Parkway,95687,38.3664355,-121.9610442
1011,Ulatis Drive,95687,38.3581643,-121.9615179
630,East Main Street,95688,38.3562838,-121.9853385
309,Beelard Drive,95687,38.3426338,-121.9695544
305,Beelard Drive,95687,38.3424909,-121.9697527
313,Beelard Drive,95687,38.3427236,-121.9694262
313,Beelard Drive,95687,38.3427406,-121.9695443
605,Trinity Drive,95687,38.3428484,-121.9697218
317,Beelard Drive,95687,38.3428643,-121.9692956
317,Beelard Drive,95687,38.3429598,-121.9693886
321,Beelard Drive,95687,38.3430252,-121.9691484
325,Beelard Drive,95687,38.3431654,-121.9690008
329,Beelard Drive,95687,38.3432831,-121.9688215
333,Beelard Drive,95687,38.3433658,-121.9686711
337,Beelard Drive,95687,38.3434673,-121.9684413
341,Beelard Drive,95687,38.3435366,-121.9682232
345,Beelard Drive,95687,38.3435817,-121.9680169
349,Beelard Drive,95687,38.3436833,-121.9677463
353,Beelard Drive,95687,38.3437009,-121.9675208
357,Beelard Drive,95687,38.3437687,-121.9673462
361,Beelard Drive,95687,38.3438283,-121.9671136
373,Beelard Drive,95687,38.3439800,-121.9665345
365,Beelard Drive,95687,38.3438732,-121.9669502
377,Beelard Drive,95687,38.3440455,-121.9663222
397,Beelard Drive,95687,38.3440737,-121.9661397
369,Beelard Drive,95687,38.3439324,-121.9667184
301,Beelard Drive,95687,38.3423904,-121.9698682
301,Adobe Drive,95687,38.3419942,-121.9695815
304,Beelard Drive,95687,38.3421549,-121.9693633
308,Beelard Drive,95687,38.3422681,-121.9692177
312,Beelard Drive,95687,38.3423890,-121.9690945
316,Beelard Drive,95687,38.3425170,-121.9689745
320,Beelard Drive,95687,38.3426475,-121.9688040
324,Beelard Drive,95687,38.3427808,-121.9686608
328,Beelard Drive,95687,38.3428981,-121.9685250
332,Beelard Drive,95687,38.3430292,-121.9683334
336,Beelard Drive,95687,38.3430987,-121.9681300
340,Beelard Drive,95687,38.3431664,-121.9679039
344,Beelard Drive,95687,38.3432590,-121.9676848
361,Beelard Drive,95687,38.3433129,-121.9673741
684,Adobe Drive,95687,38.3434306,-121.9668411
378,Beelard Drive,95687,38.3433805,-121.9665309
378,Beelard Drive,95687,38.3435287,-121.9665634
384,Beelard Drive,95687,38.3435614,-121.9663819
390,Beelard Drive,95687,38.3436308,-121.9661402
396,Beelard Drive,95687,38.3436845,-121.9659542
305,Adobe Drive,95687,38.3418761,-121.9694126
309,Adobe Drive,95687,38.3417498,-121.9693129
317,Adobe Drive,95687,38.3419646,-121.9690992
321,Adobe Drive,95687,38.3420878,-121.9689520
325,Adobe Drive,95687,38.3421912,-121.9688517
329,Adobe Drive,95687,38.3423387,-121.9686804
333,Adobe Drive,95687,38.3424291,-121.9685670
337,Adobe Drive,95687,38.3425761,-121.9684048
341,Adobe Drive,95687,38.3426800,-121.9682461
345,Adobe Drive,95687,38.3427896,-121.9680484
349,Adobe Drive,95687,38.3428531,-121.9678832
349,Adobe Drive,95687,38.3429388,-121.9676636
357,Adobe Drive,95687,38.3430556,-121.9674682
591,Peabody Road,95687,38.3432386,-121.9713088
353,Adobe Drive,95687,38.3430515,-121.9676941
316,Adobe Drive,95687,38.3411939,-121.9691137
320,Adobe Drive,95687,38.3412566,-121.9689393
376,Adobe Drive,95687,38.3430850,-121.9667313
368,Adobe Drive,95687,38.3426337,-121.9668674
290,Beelard Drive,95687,38.3416960,-121.9702812
304,Adobe Drive,95687,38.3415839,-121.9698059
304,Adobe Drive,95687,38.3414430,-121.9696376
312,Adobe Drive,95687,38.3413381,-121.9695069
316,Adobe Drive,95687,38.3413024,-121.9692393
320,Adobe Drive,95687,38.3414047,-121.9689882
324,Adobe Drive,95687,38.3415552,-121.9688866
328,Adobe Drive,95687,38.3416519,-121.9687522
332,Adobe Drive,95687,38.3418053,-121.9685850
336,Adobe Drive,95687,38.3418977,-121.9684702
340,Adobe Drive,95687,38.3420256,-121.9683057
344,Adobe Drive,95687,38.3421423,-121.9682078
348,Adobe Drive,95687,38.3422994,-121.9680159
352,Adobe Drive,95687,38.3423958,-121.9678729
356,Adobe Drive,95687,38.3424876,-121.9676339
360,Adobe Drive,95687,38.3425664,-121.9674868
364,Adobe Drive,95687,38.3426432,-121.9672484
372,Adobe Drive,95687,38.3429049,-121.9669265
376,Adobe Drive,95687,38.3430812,-121.9668882
380,Adobe Drive,95687,38.3432712,-121.9668449
368,Adobe Drive,95687,38.3427407,-121.9671153
1020,Ulatis Drive,95687,38.3555638,-121.9624244
1010,Ulatis Drive,95687,38.3552024,-121.9632777
1000,Ulatis Drive,95688,38.3558430,-121.9635433
1002,Poplar Road,95687,38.3812701,-121.9319742
611,Trinity Drive,95687,38.3426650,-121.9700419
605,Trinity Drive,95687,38.3429098,-121.9698542
601,Trinity Drive,95687,38.3430243,-121.9697571
595,Trinity Drive,95687,38.3431808,-121.9695969
591,Trinity Drive,95687,38.3433312,-121.9694316
585,Trinity Drive,95687,38.3435007,-121.9692564
581,Trinity Drive,95687,38.3436375,-121.9691424
575,Trinity Drive,95687,38.3437278,-121.9689288
571,Trinity Drive,95687,38.3438078,-121.9687206
565,Trinity Drive,95687,38.3438520,-121.9685003
561,Trinity Drive,95687,38.3440641,-121.9683893
555,Trinity Drive,95687,38.3442472,-121.9684334
545,Trinity Drive,95687,38.3444337,-121.9685369
545,Trinity Drive,95687,38.3445983,-121.9685080
541,Trinity Drive,95687,38.3447845,-121.9684949
535,Trinity Drive,95687,38.3449606,-121.9684921
531,Trinity Drive,95687,38.3451412,-121.9684666
219,Parker Street,95688,38.3571866,-121.9897644
333,Wrentham Drive,95688,38.3827654,-121.9821915
21,Town Square Place,95688,38.3568922,-121.9881024
513,Main Street,95688,38.3569309,-121.9872711
300,Main Street,95688,38.3563857,-121.9897151
600,East Main Street,95688,38.3562556,-121.9861552
618,East Main Street,95688,38.3563579,-121.9858979
730,East Main Street,95688,38.3563172,-121.9836193
742,East Main Street,95688,38.3563188,-121.9832055
100,McClellan Street,95688,38.3579892,-121.9840425
3446,Browns Valley Road,95688,38.3890064,-121.9788018
3442,Browns Valley Road,95688,38.3878096,-121.9780359
3442,Browns Valley Road,95688,38.3878759,-121.9782127
4910,Allison Parkway,95688,38.3868769,-121.9694872
1600,California Drive,95696,38.3283509,-121.9790285
5790,Rivera Road,95688,38.3326893,-122.0173949
290,Alamo Drive,95688,38.3542714,-122.0097958
290,Alamo Drive,95688,38.3543466,-122.0093926
350,North Orchard Avenue,95688,38.3659055,-122.0050643
801,Mason Street,95687,38.3556756,-121.9823390
901,Mason Street,95688,38.3556107,-121.9809044
340,Elizabeth Street,95688,38.3555496,-121.9878351
385,Merchant Street,95688,38.3550455,-121.9895771
197,Butcher Road,95687,38.3451012,-121.9986877
1707,California Drive,95687,38.3339248,-121.9759838
855,Davis Street,95688,38.3466011,-121.9841677
855½,Davis Street,95688,38.3479349,-121.9843725
220,Peabody Road,95687,38.3497779,-121.9780344
230,Peabody Road,95687,38.3493681,-121.9766452
653,Merchant Street,95688,38.3511867,-121.9930398
125,McClellan Street,95688,38.3581320,-121.9827906
800,East Monte Vista Avenue,95688,38.3587049,-121.9829725
131,Bush Street,95688,38.3579466,-121.9821471
812,East Monte Vista Avenue,95688,38.3586050,-121.9824763
640,East Main Street,95688,38.3563409,-121.9850934
218½,Dobbins Street,95688,38.3572372,-121.9892598
217,Parker Street,95688,38.3572777,-121.9897191
519,Main Street,95688,38.3569304,-121.9871785
535,Main Street,95688,38.3569286,-121.9869753
537,Main Street,95688,38.3568815,-121.9868302
549,Main Street,95688,38.3568730,-121.9867505
555,Main Street,95688,38.3568786,-121.9866099
308,Main Street,95688,38.3563863,-121.9894858
913,Stillspring Court,95687,38.3165544,-121.9524493
2221,East Monte Vista Avenue,95688,38.3904252,-121.9528742
650,Merchant Street,95688,38.3512811,-121.9943019
660,Merchant Street,95688,38.3504784,-121.9953321
609,Merchant Street,95688,38.3522459,-121.9922339
609,Merchant Street,95688,38.3521929,-121.9923586
615,Merchant Street,95688,38.3520817,-121.9922771
615,Merchant Street,95688,38.3520109,-121.9922771
627,Merchant Street,95688,38.3517114,-121.9922422
645,Merchant Street,95688,38.3513349,-121.9928081
647,Merchant Street,95688,38.3513372,-121.9928987
637,Merchant Street,95688,38.3514052,-121.9926171
641,Merchant Street,95688,38.3513225,-121.9926300
970,Alamo Drive,95687,38.3431546,-121.9958616
970,Alamo Drive,95687,38.3430300,-121.9960332
970,Alamo Drive,95687,38.3428269,-121.9957179
980,Alamo Drive,95687,38.3424955,-121.9951159
990,Alamo Drive,95687,38.3421665,-121.9946444
1110,Alamo Drive,95687,38.3403620,-121.9953236
1100,Alamo Drive,95687,38.3414607,-121.9939954
490,Brown Street,95688,38.3724257,-121.9770484
400,Brown Street,95688,38.3706123,-121.9771756
301,Brown Street,95688,38.3635346,-121.9785785
301,Brown Street,95688,38.3632672,-121.9788080
101,Markham Avenue,95688,38.3698345,-121.9786357
88,Peabody Road,95687,38.3536149,-121.9780383
88,Peabody Road,95687,38.3536148,-121.9778731
136,Peabody Road,95687,38.3525623,-121.9774245
126,Peabody Road,95687,38.3526652,-121.9781045
120,Peabody Road,95687,38.3528580,-121.9784908
116,Peabody Road,95687,38.3528904,-121.9785784
110,Peabody Road,95687,38.3524291,-121.9792666
106,Peabody Road,95687,38.3525829,-121.9791800
98,Peabody Road,95687,38.3531047,-121.9766208
78,Peabody Road,95687,38.3536697,-121.9771481
70,Peabody Road,95687,38.3536768,-121.9765221
102,Peabody Road,95687,38.3531225,-121.9787142
138,Peabody Road,95687,38.3525373,-121.9765245
111,Brown Street,95688,38.3604489,-121.9778429
111,Brown Street,95688,38.3605429,-121.9778663
111,Brown Street,95688,38.3606350,-121.9778909
1300,East Monte Vista Avenue,95688,38.3611364,-121.9727309
777,East Monte Vista Avenue,95688,38.3601823,-121.9829075
779,East Monte Vista Avenue,95688,38.3600673,-121.9823593
779,East Monte Vista Avenue,95688,38.3600628,-121.9821183
767,East Monte Vista Avenue,95688,38.3601156,-121.9836494
771,East Monte Vista Avenue,95688,38.3600870,-121.9835786
773,East Monte Vista Avenue,95688,38.3600857,-121.9835102
775,East Monte Vista Avenue,95688,38.3600838,-121.9834077
763,East Monte Vista Avenue,95688,38.3599234,-121.9837426
761,East Monte Vista Avenue,95688,38.3598681,-121.9837434
759,East Monte Vista Avenue,95688,38.3598132,-121.9837443
757,East Monte Vista Avenue,95688,38.3597588,-121.9837461
755,East Monte Vista Avenue,95688,38.3597060,-121.9837479
751,East Monte Vista Avenue,95688,38.3596504,-121.9837495
751,East Monte Vista Avenue,95688,38.3596015,-121.9837303
747,East Monte Vista Avenue,95688,38.3593229,-121.9836777
745,East Monte Vista Avenue,95688,38.3592686,-121.9836792
743,East Monte Vista Avenue,95688,38.3592174,-121.9836815
741,East Monte Vista Avenue,95688,38.3591593,-121.9836835
791,East Monte Vista Avenue,95688,38.3592214,-121.9821353
128,Browns Valley Parkway,95688,38.3641202,-121.9695118
130,Browns Valley Parkway,95688,38.3646849,-121.9695145
132,Browns Valley Parkway,95688,38.3652668,-121.9693407
132,Browns Valley Parkway,95688,38.3653350,-121.9693416
140,Browns Valley Parkway,95688,38.3655602,-121.9693734
134,Browns Valley Parkway,95688,38.3653922,-121.9693696
144,Browns Valley Parkway,95688,38.3656578,-121.9693759
146,Browns Valley Parkway,95688,38.3657494,-121.9693767
148,Browns Valley Parkway,95688,38.3658402,-121.9692975
152,Browns Valley Parkway,95688,38.3658705,-121.9691995
152,Browns Valley Parkway,95688,38.3660966,-121.9690369
154,Browns Valley Parkway,95688,38.3663686,-121.9686808
1481,East Monte Vista Avenue,95688,38.3636889,-121.9682204
120,Browns Valley Parkway,95688,38.3641664,-121.9677796
1491,East Monte Vista Avenue,95688,38.3638500,-121.9676344
100,Browns Valley Parkway,95688,38.3634430,-121.9684725
102,Browns Valley Parkway,95688,38.3635315,-121.9685413
104,Browns Valley Parkway,95688,38.3635745,-121.9685721
1401,East Monte Vista Avenue,95688,38.3632472,-121.9691330
1385,East Monte Vista Avenue,95688,38.3630916,-121.9699627
1051,Hume Way,95687,38.3518592,-121.9793943
210,Peabody Road,95687,38.3501153,-121.9765357
210,Peabody Road,95687,38.3501155,-121.9766311
210,Peabody Road,95687,38.3501153,-121.9767147
210,Peabody Road,95687,38.3501146,-121.9768233
501,Merchant Street,95688,38.3537621,-121.9909453
401,Merchant Street,95688,38.3547333,-121.9899595
401,Merchant Street,95688,38.3545856,-121.9900191
425,Merchant Street,95688,38.3544074,-121.9902135
330,Merchant Street,95688,38.3561265,-121.9888919
334,Merchant Street,95688,38.3560944,-121.9889709
338,Merchant Street,95688,38.3560797,-121.9890566
340,Merchant Street,95688,38.3560600,-121.9890840
342,Merchant Street,95688,38.3560335,-121.9891186
348,Merchant Street,95688,38.3560345,-121.9891981
348,Merchant Street,95688,38.3560126,-121.9892139
350,Merchant Street,95688,38.3559616,-121.9892513
352,Merchant Street,95688,38.3559102,-121.9892542
354,Merchant Street,95688,38.3558954,-121.9893286
356,Merchant Street,95688,38.3558717,-121.9893981
358,Merchant Street,95688,38.3558449,-121.9894380
360,Merchant Street,95688,38.3558030,-121.9894863
560,Main Street,95688,38.3564753,-121.9866029
560,Main Street,95688,38.3563262,-121.9866038
554,Main Street,95688,38.3563753,-121.9867308
548,Main Street,95688,38.3563814,-121.9868049
542,Main Street,95688,38.3564030,-121.9868782
536,Main Street,95688,38.3564257,-121.9869489
532,Main Street,95688,38.3564263,-121.9870002
536,Main Street,95688,38.3564265,-121.9870536
528,Main Street,95688,38.3564456,-121.9871290
520,Main Street,95688,38.3564569,-121.9872155
506,Main Street,95688,38.3563850,-121.9872856
506,Main Street,95688,38.3563856,-121.9873722
500,Main Street,95688,38.3563865,-121.9874795
401,West Monte Vista Avenue,95688,38.3587395,-122.0019353
595,Buck Avenue,95688,38.3551626,-122.0082088
301,Alamo Drive,95688,38.3550831,-122.0087772
301,Alamo Drive,95688,38.3550297,-122.0090576
601,Buck Avenue,95688,38.3549168,-122.0097205
390,East Monte Vista Avenue,95688,38.3588546,-121.9889977
390,East Monte Vista Avenue,95688,38.3588557,-121.9891475
310,East Monte Vista Avenue,95688,38.3586291,-121.9894940
310,East Monte Vista Avenue,95688,38.3588034,-121.9894924
300,East Monte Vista Avenue,95688,38.3589089,-121.9894915
131,Parker Street,95688,38.3582036,-121.9897409
845,Davis Street,95688,38.3485151,-121.9860642
107,Peabody Road,95687,38.3531442,-121.9751695
107,Peabody Road,95687,38.3529799,-121.9751629
149,Peabody Road,95687,38.3526144,-121.9757597
117,Peabody Road,95687,38.3526590,-121.9748888
119,Peabody Road,95687,38.3525846,-121.9748928
121,Peabody Road,95687,38.3525274,-121.9748930
123,Peabody Road,95687,38.3524520,-121.9748807
125,Peabody Road,95687,38.3523916,-121.9748813
127,Peabody Road,95687,38.3523337,-121.9748823
127,Peabody Road,95687,38.3522854,-121.9748831
129,Peabody Road,95687,38.3522456,-121.9748982
131,Peabody Road,95687,38.3521924,-121.9748989
133,Peabody Road,95687,38.3521309,-121.9748871
135,Peabody Road,95687,38.3520804,-121.9748871
137,Peabody Road,95687,38.3520422,-121.9748876
139,Peabody Road,95687,38.3519900,-121.9748882
141,Peabody Road,95687,38.3519234,-121.9748895
145,Peabody Road,95687,38.3518047,-121.9749043
200,Prairie Court,95687,38.3514619,-121.9748387
151,Peabody Road,95687,38.3519860,-121.9756363
153,Peabody Road,95687,38.3515700,-121.9757647
153,Peabody Road,95687,38.3516641,-121.9756814
153,Peabody Road,95687,38.3516653,-121.9757860
167,Peabody Road,95687,38.3513285,-121.9756682
177,Peabody Road,95687,38.3508115,-121.9758053
395,East Monte Vista Avenue,95688,38.3599284,-121.9897960
395,East Monte Vista Avenue,95688,38.3599262,-121.9895461
806,Alamo Drive,95688,38.3488261,-122.0001267
808,Alamo Drive,95688,38.3487693,-122.0000458
810,Alamo Drive,95688,38.3486819,-121.9999294
812,Alamo Drive,95688,38.3486389,-121.9997538
814,Alamo Drive,95688,38.3485699,-121.9998425
828,Alamo Drive,95688,38.3481922,-122.0006088
850,Alamo Drive,95688,38.3477306,-122.0008071
848,Alamo Drive,95688,38.3476645,-122.0007006
848,Alamo Drive,95688,38.3475952,-122.0006213
848,Alamo Drive,95688,38.3475172,-122.0005336
858,Alamo Drive,95688,38.3475263,-122.0004489
858,Alamo Drive,95688,38.3474890,-122.0003978
860,Alamo Drive,95688,38.3474428,-122.0003377
862,Alamo Drive,95688,38.3473843,-122.0002638
868,Alamo Drive,95688,38.3471766,-122.0001622
868,Alamo Drive,95688,38.3469575,-121.9998311
874,Alamo Drive,95688,38.3468080,-121.9993748
876,Alamo Drive,95688,38.3467536,-121.9992988
878,Alamo Drive,95688,38.3466858,-121.9992070
880,Alamo Drive,95688,38.3465939,-121.9994679
904,Alamo Drive,95688,38.3478665,-121.9984166
902,Alamo Drive,95688,38.3478088,-121.9984963
898,Alamo Drive,95688,38.3477412,-121.9985777
896,Alamo Drive,95688,38.3476706,-121.9986514
888,Alamo Drive,95688,38.3471957,-121.9984797
890,Alamo Drive,95688,38.3472731,-121.9985851
892,Alamo Drive,95688,38.3473167,-121.9986404
970,Merchant Street,95688,38.3474469,-121.9983798
995,Merchant Street,95688,38.3466733,-121.9979625
1005,Merchant Street,95688,38.3463000,-121.9986354
951,Merchant Street,95688,38.3476187,-121.9970469
941,Merchant Street,95688,38.3475324,-121.9960440
941,Merchant Street,95688,38.3477162,-121.9962987
921,Merchant Street,95688,38.3479276,-121.9965372
921,Merchant Street,95688,38.3480148,-121.9966546
909,Merchant Street,95688,38.3476200,-121.9951501
936,Merchant Street,95688,38.3483273,-121.9975491
818,Alamo Drive,95688,38.3484805,-122.0002495
177,Butcher Road,95687,38.3445787,-121.9982013
179,Butcher Road,95687,38.3446527,-121.9982992
187,Butcher Road,95687,38.3449222,-121.9979410
185,Butcher Road,95687,38.3448132,-121.9977996
183,Butcher Road,95687,38.3446376,-121.9975761
181,Butcher Road,95687,38.3445057,-121.9974541
175,Butcher Road,95687,38.3443388,-121.9979096
175,Butcher Road,95687,38.3443012,-121.9978617
173,Butcher Road,95687,38.3442464,-121.9977907
171,Butcher Road,95687,38.3441188,-121.9976223
171,Butcher Road,95687,38.3440406,-121.9977271
161,Butcher Road,95687,38.3441567,-121.9973026
161,Butcher Road,95687,38.3442548,-121.9971515
220,Nut Tree Parkway,95687,38.3607052,-121.9676990
210,Nut Tree Parkway,95687,38.3613862,-121.9677286
200,Nut Tree Parkway,95687,38.3614877,-121.9664108
190,Nut Tree Parkway,95687,38.3618517,-121.9660966
186,Nut Tree Parkway,95687,38.3624176,-121.9655392
182,Nut Tree Parkway,95687,38.3628783,-121.9653419
182,Nut Tree Parkway,95687,38.3629400,-121.9656701
180,Nut Tree Parkway,95687,38.3632560,-121.9650667
196,Nut Tree Parkway,95687,38.3622683,-121.9667216
196,Nut Tree Parkway,95687,38.3621978,-121.9668219
196,Nut Tree Parkway,95687,38.3621660,-121.9668645
196,Nut Tree Parkway,95687,38.3621332,-121.9669068
196,Nut Tree Parkway,95687,38.3620684,-121.9669909
196,Nut Tree Parkway,95687,38.3619915,-121.9670979
196,Nut Tree Parkway,95687,38.3619220,-121.9671917
313,Main Street,95688,38.3569089,-121.9894230
315,Main Street,95688,38.3569084,-121.9893460
317,Main Street,95688,38.3569246,-121.9892625
331,Main Street,95688,38.3569308,-121.9891750
331,Main Street,95688,38.3569301,-121.9890862
331,Main Street,95688,38.3569296,-121.9890029
331,Main Street,95688,38.3569323,-121.9889178
355,Main Street,95688,38.3569240,-121.9888182
233,Dobbins Street,95688,38.3571601,-121.9883708
233,Dobbins Street,95688,38.3571605,-121.9885315
409,Main Street,95688,38.3569709,-121.9883106
409,Main Street,95688,38.3568043,-121.9883120
400,Main Street,95688,38.3564212,-121.9884768
412,Main Street,95688,38.3564728,-121.9882789
354,Main Street,95688,38.3563824,-121.9888201
350,Main Street,95688,38.3563824,-121.9889189
344,Main Street,95688,38.3563832,-121.9890065
318,Main Street,95688,38.3563845,-121.9890914
318,Main Street,95688,38.3563855,-121.9891821
318,Main Street,95688,38.3563857,-121.9892675
318,Main Street,95688,38.3563861,-121.9893452
444,Main Street,95688,38.3564656,-121.9876656
438,Main Street,95688,38.3564460,-121.9877565
438,Merchant Street,95688,38.3563056,-121.9877541
303,Merchant Street,95688,38.3563891,-121.9878426
307,Merchant Street,95688,38.3563503,-121.9879315
309,Merchant Street,95688,38.3563760,-121.9880024
311,Merchant Street,95688,38.3562630,-121.9880242
309,Merchant Street,95688,38.3562628,-121.9881029
321,Merchant Street,95688,38.3562054,-121.9882243
333,Merchant Street,95688,38.3561377,-121.9883358
120,West Street,95688,38.3586466,-121.9926434
100,Buck Avenue,95688,38.3569679,-121.9924779
198,Dobbins Street,95688,38.3576886,-121.9889094
198,Dobbins Street,95688,38.3577943,-121.9889468
198,Dobbins Street,95688,38.3576896,-121.9890226
198,Dobbins Street,95688,38.3576901,-121.9891351
198,Dobbins Street,95688,38.3577951,-121.9891342
621,South Orchard Avenue,95688,38.3525498,-122.0008909
621,South Orchard Avenue,95688,38.3523015,-122.0005731
98,Cernon Street,95688,38.3593596,-121.9913389
1670,East Monte Vista Avenue,95688,38.3688124,-121.9598273
1670,East Monte Vista Avenue,95688,38.3687268,-121.9599462
1670,East Monte Vista Avenue,95688,38.3686893,-121.9599985
1670,East Monte Vista Avenue,95688,38.3686141,-121.9600438
1650,East Monte Vista Avenue,95688,38.3682065,-121.9605476
1650,East Monte Vista Avenue,95688,38.3680973,-121.9606739
1650,East Monte Vista Avenue,95688,38.3680102,-121.9607669
1610,East Monte Vista Avenue,95688,38.3663897,-121.9632936
1610,East Monte Vista Avenue,95688,38.3664630,-121.9633731
1610,East Monte Vista Avenue,95688,38.3665239,-121.9634109
1620,East Monte Vista Avenue,95688,38.3667340,-121.9626846
1620,East Monte Vista Avenue,95688,38.3668227,-121.9625372
1620,East Monte Vista Avenue,95688,38.3668567,-121.9624841
1620,East Monte Vista Avenue,95688,38.3669218,-121.9624029
1630,East Monte Vista Avenue,95688,38.3674539,-121.9620264
1630,East Monte Vista Avenue,95688,38.3674037,-121.9619742
1630,East Monte Vista Avenue,95688,38.3672861,-121.9618737
1640,East Monte Vista Avenue,95688,38.3676456,-121.9613600
1640,East Monte Vista Avenue,95688,38.3677085,-121.9612407
1640,East Monte Vista Avenue,95688,38.3677699,-121.9610961
1611,East Monte Vista Avenue,95688,38.3669709,-121.9662639
1611,East Monte Vista Avenue,95688,38.3671745,-121.9659907
1601,East Monte Vista Avenue,95688,38.3659706,-121.9645060
1621,East Monte Vista Avenue,95688,38.3675296,-121.9654587
1621,East Monte Vista Avenue,95688,38.3678762,-121.9650528
1621,East Monte Vista Avenue,95688,38.3680986,-121.9647921
1621,East Monte Vista Avenue,95688,38.3683207,-121.9645354
1621,East Monte Vista Avenue,95688,38.3683780,-121.9642237
1621,East Monte Vista Avenue,95688,38.3685005,-121.9639944
1631,East Monte Vista Avenue,95688,38.3681879,-121.9635950
1631,East Monte Vista Avenue,95688,38.3681021,-121.9635345
1631,East Monte Vista Avenue,95688,38.3680629,-121.9634650
1631,East Monte Vista Avenue,95688,38.3680248,-121.9634181
1631,East Monte Vista Avenue,95688,38.3679964,-121.9632978
1631,East Monte Vista Avenue,95688,38.3679331,-121.9633855
1633,East Monte Vista Avenue,95688,38.3676864,-121.9631087
1633,East Monte Vista Avenue,95688,38.3677677,-121.9630006
1615,East Monte Vista Avenue,95688,38.3670855,-121.9638491
1615,East Monte Vista Avenue,95688,38.3670147,-121.9639222
1615,East Monte Vista Avenue,95688,38.3669193,-121.9640036
1641,East Monte Vista Avenue,95688,38.3688175,-121.9636183
1641,East Monte Vista Avenue,95688,38.3690652,-121.9634530
1641,East Monte Vista Avenue,95688,38.3692681,-121.9631499
1641,East Monte Vista Avenue,95688,38.3693658,-121.9629252
1641,East Monte Vista Avenue,95688,38.3694591,-121.9626877
1641,East Monte Vista Avenue,95688,38.3695821,-121.9624740
1637,East Monte Vista Avenue,95688,38.3679719,-121.9627355
1637,East Monte Vista Avenue,95688,38.3680655,-121.9626087
1639,East Monte Vista Avenue,95688,38.3682675,-121.9629196
1639,East Monte Vista Avenue,95688,38.3682683,-121.9629987
1639,East Monte Vista Avenue,95688,38.3683303,-121.9630108
1639,East Monte Vista Avenue,95688,38.3683681,-121.9630579
1639,East Monte Vista Avenue,95688,38.3684580,-121.9631680
1651,East Monte Vista Avenue,95688,38.3686325,-121.9613643
1651,East Monte Vista Avenue,95688,38.3687158,-121.9612531
1651,East Monte Vista Avenue,95688,38.3687778,-121.9611770
1669,East Monte Vista Avenue,95688,38.3703964,-121.9613302
1663,East Monte Vista Avenue,95688,38.3703916,-121.9615437
1663,East Monte Vista Avenue,95688,38.3703143,-121.9616247
1661,East Monte Vista Avenue,95688,38.3700524,-121.9616937
1661,East Monte Vista Avenue,95688,38.3700545,-121.9618388
1661,East Monte Vista Avenue,95688,38.3701616,-121.9618261
1661,East Monte Vista Avenue,95688,38.3700097,-121.9618980
1661,East Monte Vista Avenue,95688,38.3699747,-121.9619582
1661,East Monte Vista Avenue,95688,38.3699251,-121.9620225
1661,East Monte Vista Avenue,95688,38.3698839,-121.9620762
1661,East Monte Vista Avenue,95688,38.3698390,-121.9621372
1661,East Monte Vista Avenue,95688,38.3697906,-121.9621988
620,Orange Drive,95687,38.3774923,-121.9448292
91,Cernon Street,95688,38.3605601,-121.9904724
81,Cernon Street,95688,38.3608740,-121.9906247
97,Dobbins Street,95688,38.3608167,-121.9891180
374,Merchant Street,95688,38.3553629,-121.9897801
372,Merchant Street,95688,38.3554350,-121.9897481
368,Merchant Street,95688,38.3555001,-121.9896097
370,Merchant Street,95688,38.3555280,-121.9896667
329,Parker Street,95688,38.3555599,-121.9897782
373,Merchant Street,95688,38.3551638,-121.9894614
371,Merchant Street,95688,38.3552165,-121.9894053
367,Merchant Street,95688,38.3552799,-121.9892519
359,Merchant Street,95688,38.3555654,-121.9889376
357,Merchant Street,95688,38.3557057,-121.9888450
349,Merchant Street,95688,38.3557510,-121.9886800
317,Parker Street,95688,38.3559310,-121.9897050
313,Parker Street,95688,38.3560121,-121.9897041
311,Parker Street,95688,38.3560712,-121.9897376
307,Parker Street,95688,38.3561390,-121.9897490
333,Merchant Street,95688,38.3560544,-121.9882445
301,North Orchard Avenue,95688,38.3652264,-122.0042280
721,Wesley Avenue,95688,38.3629875,-121.9840129
66,Vine Street,95688,38.3645001,-121.9846111
425,Hemlock Street,95688,38.3641219,-122.0020383
401,Fir Street,95688,38.3629856,-122.0019621
1001,Fallen Leaf Place,95687,38.3625614,-121.9345839
2001,North Village Parkway,95688,38.3942308,-121.9412105
650,Eubanks Court,95688,38.3955897,-121.9608361
1050,Orange Drive,95687,38.3873335,-121.9317415
610,Orange Drive,95687,38.3777684,-121.9437966
1571,E Monte Vista Ave,95688,38.3651511,-121.9661473
360,Orange Drive,95687,38.3695202,-121.9529984
1617,East Monte Vista Avenue,95688,38.3695039,-121.9616457
881,Markham Avenue,95688,38.3598431,-121.9812266
883,Markham Avenue,95688,38.3597884,-121.9812389
885,Markham Avenue,95688,38.3597264,-121.9812560
889,Markham Avenue,95688,38.3596196,-121.9812776
891,Markham Avenue,95688,38.3594587,-121.9813197
895,Markham Avenue,95688,38.3592915,-121.9813615
879,Markham Avenue,95688,38.3598876,-121.9812203
877,Markham Avenue,95688,38.3599697,-121.9812088
938,East Monte Vista Avenue,95688,38.3585501,-121.9801293
2001,Allison Drive,95688,38.3637123,-121.9703880
1201,Burton Drive,95687,38.3611647,-121.9585858
167,Bella Vista Road,95687,38.3489871,-121.9885651
201,Bella Vista Road,95687,38.3489175,-121.9883276
201,Bella Vista Road,95687,38.3489917,-121.9888825
901,Sara Court,95687,38.3362040,-121.9641005
172,Stanton Avenue,95687,38.3420295,-121.9727410
167,Stanton Avenue,95687,38.3423180,-121.9731930
173,Stanton Avenue,95687,38.3424050,-121.9730310
166,Hartford Avenue,95687,38.3424950,-121.9735740
155,Georgetown Drive,95687,38.3412917,-121.9754747
148,Hartford Avenue,95687,38.3422520,-121.9741725
154,Hartford Avenue,95687,38.3423140,-121.9739740
179,Stanton Avenue,95687,38.3424900,-121.9728010
185,Stanton Avenue,95687,38.3425870,-121.9726345
112,Hartford Avenue,95687,38.3417090,-121.9753355
106,Hartford Avenue,95687,38.3415630,-121.9754930
190,Hartford Avenue,95687,38.3428180,-121.9728055
184,Hartford Avenue,95687,38.3427530,-121.9729920
208,Andover Drive,95687,38.3419670,-121.9721835
178,Hartford Avenue,95687,38.3426415,-121.9731765
130,Hartford Avenue,95687,38.3420305,-121.9747850
143,Stanton Avenue,95687,38.3419645,-121.9740210
137,Stanton Avenue,95687,38.3418860,-121.9741980
184,Andrea Drive,95687,38.3421935,-121.9723660
160,Hartford Avenue,95687,38.3423945,-121.9737640
136,Hartford Avenue,95687,38.3421135,-121.9745735
155,Stanton Avenue,95687,38.3421450,-121.9736240
107,Stanton Avenue,95687,38.3414035,-121.9751405
178,Stanton Avenue,95687,38.3421325,-121.9725565
125,Stanton Avenue,95687,38.3417540,-121.9746185
142,Hartford Avenue,95687,38.3421573,-121.9743762
118,Hartford Avenue,95687,38.3418110,-121.9751705
161,Georgetown Drive,95687,38.3413630,-121.9756340
119,Stanton Avenue,95687,38.3416530,-121.9748105
161,Stanton Avenue,95687,38.3422164,-121.9734170
131,Stanton Avenue,95687,38.3418060,-121.9744215
149,Stanton Avenue,95687,38.3420585,-121.9737930
124,Hartford Avenue,95687,38.3419470,-121.9749590
172,Hartford Avenue,95687,38.3425795,-121.9733625
612,West Street,95688,38.3530745,-121.9924815
590,Merchant Street,95688,38.3527363,-121.9925035
624,West Street,95688,38.3528535,-121.9924995
104,Walnut Avenue,95688,38.3526415,-121.9925650
606,West Street,95688,38.3531935,-121.9924770
105,Luzena Avenue,95688,38.3533020,-121.9927625
106-108,Walnut Avenue,95688,38.3526145,-121.9927265
618,West Street,95688,38.3529760,-121.9924960
600,West Street,95688,38.3533010,-121.9924635
1035,Alamo Drive,95687,38.3432465,-121.9947700
780,Merchant Street,95688,38.3497600,-121.9956010
730,Westfield Lane,95688,38.3673170,-121.9972055
424,Longwood Place,95688,38.3677935,-121.9981860
654,Eldridge Avenue,95688,38.3664665,-121.9961920
496,Longwood Place,95688,38.3680255,-121.9956555
515,Longwood Place,95688,38.3673485,-121.9962430
642,Eldridge Avenue,95688,38.3664030,-121.9967270
508,Longwood Place,95688,38.3675570,-121.9956750
412,Longwood Place,95688,38.3673425,-121.9981475
478,Longwood Place,95688,38.3683845,-121.9960965
526,Longwood Place,95688,38.3668460,-121.9956360
484,Longwood Place,95688,38.3683890,-121.9958355
618,Eldridge Avenue,95688,38.3664340,-121.9978480
612,Eldridge Avenue,95688,38.3664425,-121.9980915
466,Longwood Place,95688,38.3683870,-121.9966420
713,Westfield Lane,95688,38.3679670,-121.9966330
473,Longwood Place,95688,38.3679640,-121.9962350
520,Longwood Place,95688,38.3671190,-121.9956870
407,Longwood Place,95688,38.3671255,-121.9976175
624,Eldridge Avenue,95688,38.3665040,-121.9975810
502,Longwood Place,95688,38.3678045,-121.9956740
736,Westfield Lane,95688,38.3670880,-121.9972085
413,Longwood Place,95688,38.3673360,-121.9976220
724,Westfield Lane,95688,38.3675425,-121.9971995
401,Longwood Place,95688,38.3669315,-121.9976550
630,Eldridge Avenue,95688,38.3665025,-121.9973365
737,Westfield Lane,95688,38.3671035,-121.9966570
666,Eldridge Avenue,95688,38.3663975,-121.9956140
406,Longwood Place,95688,38.3670915,-121.9981915
725,Westfield Lane,95688,38.3675240,-121.9966480
254,Arbor Street,95688,38.3635195,-121.9982405
648,Eldridge Avenue,95688,38.3664950,-121.9964340
430,Longwood Place,95688,38.3680095,-121.9981720
643,Westfield Lane,95688,38.3668895,-121.9966100
527,Longwood Place,95688,38.3669280,-121.9962525
718,Westfield Lane,95688,38.3677470,-121.9972030
521,Longwood Place,95688,38.3671450,-121.9962615
503,Longwood Place,95688,38.3677555,-121.9962295
712,Westfield Lane,95688,38.3679715,-121.9971970
400,Longwood Place,95688,38.3668870,-121.9981980
660,Eldridge Avenue,95688,38.3664155,-121.9958990
431,Longwood Place,95688,38.3679755,-121.9975910
490,Longwood Place,95688,38.3683760,-121.9955955
636,Eldridge Avenue,95688,38.3664040,-121.9970780
418,Longwood Place,95688,38.3675890,-121.9981975
243,Arbor Street,95688,38.3633230,-121.9977685
472,Longwood Place,95688,38.3683910,-121.9963645
425,Longwood Place,95688,38.3677730,-121.9976135
514,Longwood Place,95688,38.3673230,-121.9956725
249,Arbor Street,95688,38.3634735,-121.9977580
742,Westfield Lane,95688,38.3668965,-121.9972070
448,Longwood Place,95688,38.3683795,-121.9976945
454,Longwood Place,95688,38.3684000,-121.9974320
436,Longwood Place,95688,38.3682420,-121.9981790
442,Longwood Place,95688,38.3684160,-121.9979450
460,Longwood Place,95688,38.3683925,-121.9971720
973,Westgate Drive,95687,38.3206615,-121.9574165
985,Westgate Drive,95687,38.3209495,-121.9573060
991,Westgate Drive,95687,38.3210905,-121.9572710
1045,Westgate Drive,95687,38.3223630,-121.9569210
1033,Westgate Drive,95687,38.3221270,-121.9571020
1003,Westgate Drive,95687,38.3213955,-121.9572215
1009,Westgate Drive,95687,38.3215570,-121.9572060
979,Westgate Drive,95687,38.3207965,-121.9573640
967,Westgate Drive,95687,38.3205270,-121.9574665
1021,Westgate Drive,95687,38.3218505,-121.9571750
1027,Westgate Drive,95687,38.3219920,-121.9571340
997,Westgate Drive,95687,38.3212525,-121.9572425
1015,Westgate Drive,95687,38.3217110,-121.9571905
220,Sawyer Drive,95687,38.3295580,-121.9303835
238,Sawyer Drive,95687,38.3295760,-121.9299135
244,Sawyer Drive,95687,38.3295190,-121.9296695
598,Sawyer Drive,95687,38.3292190,-121.9301175
226,Sawyer Drive,95687,38.3295715,-121.9302300
592,Sawyer Drive,95687,38.3290980,-121.9301520
232,Sawyer Drive,95687,38.3295970,-121.9300725
586,Sawyer Drive,95687,38.3289565,-121.9302145
300,Crocker Drive,95688,38.3993495,-121.9508626
4790,Midway Road,95688,38.4165763,-121.9486449
4800,Midway Road,95688,38.4144041,-121.9491139
2401,East Monte Vista Avenue,95688,38.3916924,-121.9536741
449,Honeysuckle Drive,95687,38.3465290,-121.9257906
815,Elmira Road,95687,38.3521456,-121.9315005
555,Aliki Drive,95688,38.3667678,-122.0026838
300,Crescent Drive,95688,38.3968149,-121.9423354
300,Crescent Drive,95688,38.3960433,-121.9423405
300,Crescent Drive,95688,38.3969598,-121.9417149
300,Crescent Drive,95688,38.3964427,-121.9426836
300,Crescent Drive,95688,38.3965133,-121.9420517
300,Crescent Drive,95688,38.3972373,-121.9421253
300,Crescent Drive,95688,38.3964311,-121.9416167
300,Crescent Drive,95688,38.3967272,-121.9411292
2481,East Monte Vista Avenue,95688,38.3938144,-121.9547608
126,South Orchard Avenue,95688,38.3578984,-122.0055584
122,South Orchard Avenue,95688,38.3577804,-122.0055395
450,West Monte Vista Avenue,95688,38.3597888,-122.0031609
1051,Aviator Drive,95688,38.3926015,-121.9570170
1001,Allison Drive,95687,38.3534378,-121.9640486
1200,Allison Drive,95687,38.3567668,-121.9661728
299,Shasta Drive,95687,38.3498996,-121.9734598
293,Shasta Drive,95687,38.3511530,-121.9734323
3501,Harbison Drive,95687,38.3584998,-121.9636515
3500,Harbison Drive,95687,38.3592874,-121.9617635
719,Westfield Lane,95688,38.3677343,-121.9966240
509,Longwood Place,95688,38.3675280,-121.9962572
731,Westfield Lane,95688,38.3673032,-121.9966285
419,Longwood Place,95688,38.3675422,-121.9976287
102,Vine Street,95688,38.3676746,-121.9870609
4222,Vine Court,95688,38.3693557,-121.9903713
4215,Vine Court,95688,38.3698741,-121.9909244
102,Vine Street,95688,38.3681969,-121.9872159
660,Shaul Circle,95687,38.3385129,-121.9295130
357,Cultivator Drive,95687,38.3388544,-121.9317185
630,Shaul Circle,95687,38.3392661,-121.9303867
348,Cultivator Drive,95687,38.3390988,-121.9322949
636,Shaul Circle,95687,38.3392987,-121.9301668
619,Shaul Circle,95687,38.3388552,-121.9308989
655,Shaul Circle,95687,38.3386979,-121.9300925
327,Cultivator Drive,95687,38.3398987,-121.9317214
631,Shaul Circle,95687,38.3388547,-121.9304013
654,Shaul Circle,95687,38.3387183,-121.9295542
648,Shaul Circle,95687,38.3388967,-121.9295114
333,Cultivator Drive,95687,38.3396399,-121.9317362
336,Cultivator Drive,95687,38.3395465,-121.9322738
345,Cultivator Drive,95687,38.3392578,-121.9317595
339,Cultivator Drive,95687,38.3394713,-121.9317506
649,Shaul Circle,95687,38.3389023,-121.9300548
607,Shaul Circle,95687,38.3388380,-121.9313852
356,Cultivator Drive,95687,38.3389038,-121.9322837
321,Cultivator Drive,95687,38.3400754,-121.9317629
661,Shaul Circle,95687,38.3384984,-121.9300710
625,Shaul Circle,95687,38.3388358,-121.9306794
613,Shaul Circle,95687,38.3388587,-121.9311587
342,Cultivator Drive,95687,38.3393703,-121.9323136
612,West Street,95688,38.3530649,-121.9927488
590,Merchant Street,95688,38.3526305,-121.9924530
606,West Street,95688,38.3531730,-121.9927460
301,Crocker Drive,95688,38.3971374,-121.9500923
251,Crocker Drive,95688,38.3965880,-121.9505690
360,Preserve Lane,95688,38.4000920,-121.9882698
343,Preserve Lane,95688,38.3995144,-121.9873991
336,Preserve Lane,95688,38.3990832,-121.9878153
361,Preserve Lane,95688,38.4001622,-121.9876895
4520,McMurtry Lane,95688,38.3974046,-121.9863285
342,Preserve Lane,95688,38.3993862,-121.9879436
318,Preserve Lane,95688,38.3982879,-121.9875018
378,Preserve Lane,95688,38.4009523,-121.9887490
319,Preserve Lane,95688,38.3982955,-121.9868651
330,Preserve Lane,95688,38.3988616,-121.9877668
354,Preserve Lane,95688,38.3998433,-121.9881417
348,Preserve Lane,95688,38.3996205,-121.9880866
325,Preserve Lane,95688,38.3985904,-121.9870323
300,Preserve Lane,95688,38.3974248,-121.9872065
349,Preserve Lane,95688,38.3997158,-121.9875159
379,Preserve Lane,95688,38.4009517,-121.9880100
337,Preserve Lane,95688,38.3990802,-121.9871998
331,Preserve Lane,95688,38.3988200,-121.9871237
372,Preserve Lane,95688,38.4006318,-121.9885357
306,Preserve Lane,95688,38.3978048,-121.9873082
367,Preserve Lane,95688,38.4004273,-121.9878101
307,Preserve Lane,95688,38.3977886,-121.9866545
313,Preserve Lane,95688,38.3980514,-121.9867977
366,Preserve Lane,95688,38.4003577,-121.9883888
324,Preserve Lane,95688,38.3985982,-121.9876465
312,Preserve Lane,95688,38.3980307,-121.9873745
373,Preserve Lane,95688,38.4007173,-121.9879930
4514,McMurtry Lane,95688,38.3974215,-121.9866183
355,Preserve Lane,95688,38.3999574,-121.9875914
4800,Horse Creek Drive,95688,38.3791650,-121.9512940
100,Summerfield Drive,95687,38.3543658,-121.9543889
321,Nut Tree Road,95687,38.3673005,-121.9567918
2401,East Monte Vista Avenue,95688,38.3925856,-121.9541105
3442,Browns Valley Road,95688,38.3878244,-121.9783622
5900,Cherry Glen Road,95688,38.3370062,-122.0174902
1039,Westgate Drive,95687,38.3222241,-121.9569897
1010,Vaquero Circle,95688,38.3826742,-121.9504242
6801,Leisure Town Road,95688,38.3935828,-121.9316908
5800,Quinn Road,95688,38.3937450,-121.9293550
1781,Marshall Road,95687,38.3454026,-121.9551957
2200,Peabody Road,95687,38.3165185,-121.9713906
6391,Leisure Town Road,95687,38.3671685,-121.9355970
14,Cernon Street,95688,38.3614089,-121.9898802
1101,Burton Drive,95687,38.3600228,-121.9591461
4617,Damiano Lane,95687,38.3600882,-121.9615932
4601,Damiano Lane,95687,38.3601118,-121.9627251
1701,Marshall Road,95687,38.3446342,-121.9574816
2400,East Monte Vista Avenue,95688,38.3919859,-121.9519523
5920,Cherry Glen Road,95688,38.3382299,-122.0168971
301,County Airport Road,95668,38.3801976,-121.9595771
2061,Peabody Road,95687,38.3341667,-121.9689455
1111,Ulatis Drive,95687,38.3583023,-121.9589019
1101,Farmington Drive,95687,38.3343778,-121.9581525
