House number,Street name,Postal code,Latitude,Longitude
1700,Freedom Boulevard,95019,36.9334492,-121.7708750
1610,Freedom Boulevard,95076,36.9325281,-121.7699980
1480,Freedom Boulevard,95076,36.9297252,-121.7672280
1400,West Beach Street,95076,36.8992046,-121.7761790
1080,West Beach Street,95076,36.9024853,-121.7716729
375,Hushbeck Avenue,95076,36.9196532,-121.7474448
1424,Freedom Boulevard,95076,36.9259580,-121.7638980
2010,Freedom Boulevard,95019,36.9386188,-121.7773854
"18, Suite C",Hangar Way,95076,36.9293757,-121.7914640
"18, Suite C",Hangar Way,95076,36.9293757,-121.7913680
100,Aviation Way,95076,36.9342661,-121.7878360
332,East Beach Street,95076,36.9144602,-121.7508060
322,East Beach Street,95076,36.9143963,-121.7504218
128,East Beach Street,95076,36.9117676,-121.7544978
406,Main Street,95076,36.9104820,-121.7568922
1912,Main Street,95076,36.9192993,-121.7805840
24,East Lake Avenue,95076,36.9120743,-121.7574327
2024,Freedom Boulevard,95019,36.9384331,-121.7771422
1986,Freedom Boulevard,95019,36.9383410,-121.7760539
1901,Freedom Boulevard,95019,36.9351404,-121.7740030
1430,Freedom Boulevard,95076,36.9278790,-121.7645954
1415,Main Street,95076,36.9155824,-121.7733553
1810,Freedom Boulevard,95019,36.9350529,-121.7715760
1415,Main Street,95076,36.9154070,-121.7744587
1415,Main Street,95076,36.9153628,-121.7742778
28,Mariposa Avenue,95076,36.9288795,-121.7675765
56,Penny Lane,95076,36.9310119,-121.7782609
1902,Freedom Boulevard,95019,36.9356591,-121.7735115
1902,Freedom Boulevard,95019,36.9354828,-121.7734410
1964,Freedom Boulevard,95019,36.9377938,-121.7762493
300,Main Street,95076,36.9093590,-121.7556893
1404,Freedom Boulevard,95076,36.9257484,-121.7627563
1050,South Green Valley Road,95076-4163,36.9181158,-121.7837076
1060,South Green Valley Road,95076,36.9170031,-121.7834741
1465,Main Street,95076,36.9153905,-121.7767471
20,Ohlone Parkway,95076,36.9160360,-121.7781606
1060,South Green Valley Road,95076,36.9174813,-121.7833024
1598,Freedom Boulevard,95076-3007,36.9321285,-121.7694035
1413,Freedom Boulevard,95076,36.9266040,-121.7659754
1417,Freedom Boulevard,95076,36.9266786,-121.7660971
1433,Freedom Boulevard,95076,36.9267649,-121.7662383
1437,Freedom Boulevard,95076,36.9270895,-121.7668113
1966,Main Street,95076,36.9194268,-121.7817210
1483,Main Street,95076,36.9156942,-121.7772590
1455,Main Street,95076,36.9152528,-121.7760668
1427,Main Street,95076,36.9153951,-121.7750389
1439,Main Street,95076,36.9166004,-121.7750473
101,Ranport Road,95076,36.9244754,-121.8003504
355,South Green Valley Road,95076,36.9326016,-121.7777338
580,Airport Boulevard,95076,36.9309877,-121.7920948
50,Aviation Way,95076,36.9341655,-121.7856660
1702,Freedom Boulevard,95019-3025,36.9341117,-121.7699037
2010,Freedom Boulevard,95019-2834,36.9400788,-121.7754054
1461,Main Street,95076,36.9165924,-121.7766243
1810,Freedom Boulevard,95019,36.9350475,-121.7718153
1620,West Beach Street,95076,36.8991533,-121.7781008
100,East Front Street,95076,36.9071383,-121.7502146
1865,Main Street,95076,36.9169117,-121.7811820
1855,Main Street,95076,36.9167276,-121.7807475
112,Airport Boulevard,95076,36.9371895,-121.7789819
14,Green Valley Road,95019,36.9354145,-121.7724749
1403,Freedom Boulevard,95076-2742,36.9267895,-121.7653324
275,Main Street,95076,36.9084059,-121.7559495
142,Main Street,95076-5002,36.9071309,-121.7528741
20,Ohlone Parkway,95076,36.9161081,-121.7780884
1480,Freedom Boulevard,95076,36.9297356,-121.7672109
740,Freedom Boulevard,95076-3811,36.9157409,-121.7605810
1028,Nuesta Vista Avenue,95076,36.9073339,-121.7735277
105,Lighthouse Drive,95076,36.9053686,-121.7762641
75,Neilson Street,95076,36.9264681,-121.7935449
311,Montecito Avenue,95076,36.9242485,-121.7571081
1415,Main Street,95076,36.9149765,-121.7741728
20,Ohlone Parkway,95076,36.9161845,-121.7781966
1459,Main Street,95076,36.9167969,-121.7757524
24,Monte Vista Avenue,95076,36.9211591,-121.7547940
24,Monte Vista Avenue,95076,36.9211467,-121.7546392
20,Monte Vista Avenue,95076,36.9210218,-121.7546430
20,Monte Vista Avenue,95076,36.9210383,-121.7544708
19,Monte Vista Avenue,95076,36.9207560,-121.7551054
19,Monte Vista Avenue,95076,36.9206312,-121.7552438
17,Monte Vista Avenue,95076,36.9206719,-121.7549761
17,Monte Vista Avenue,95076,36.9205606,-121.7550775
21,Monte Vista Avenue,95076,36.9208723,-121.7552386
25,Monte Vista Avenue,95076,36.9210038,-121.7553181
25,Monte Vista Avenue,95076,36.9208653,-121.7554190
119,Monte Vista Avenue,95076,36.9232779,-121.7571988
119,Monte Vista Avenue,95076,36.9231988,-121.7572751
31,Monte Vista Avenue,95076,36.9211144,-121.7553764
31,Monte Vista Avenue,95076,36.9209950,-121.7555402
35,Monte Vista Avenue,95076,36.9212369,-121.7554808
35,Monte Vista Avenue,95076,36.9211095,-121.7555773
39,Monte Vista Avenue,95076,36.9213583,-121.7555555
39,Monte Vista Avenue,95076,36.9212421,-121.7556371
43,Monte Vista Avenue,95076,36.9214540,-121.7556833
43,Monte Vista Avenue,95076,36.9213382,-121.7558139
47,Monte Vista Avenue,95076,36.9215739,-121.7557857
47,Monte Vista Avenue,95076,36.9214393,-121.7558838
51,Monte Vista Avenue,95076,36.9216828,-121.7558466
51,Monte Vista Avenue,95076,36.9215609,-121.7559874
55,Monte Vista Avenue,95076,36.9217787,-121.7560022
65,Monte Vista Avenue,95076,36.9219445,-121.7561434
65,Monte Vista Avenue,95076,36.9217807,-121.7561921
67,Monte Vista Avenue,95076,36.9221348,-121.7562518
67,Monte Vista Avenue,95076,36.9220147,-121.7563571
75,Monte Vista Avenue,95076,36.9222028,-121.7563753
74,Roosevelt Street,95076,36.9220828,-121.7565831
332,Hushbeck Avenue,95076,36.9190532,-121.7455185
11,Monte Vista Avenue,95076,36.9205393,-121.7548861
11,Monte Vista Avenue,95076,36.9203523,-121.7546468
11,Monte Vista Avenue,95076,36.9204876,-121.7547268
8,Monte Vista Avenue,95076,36.9205287,-121.7543352
12,Monte Vista Avenue,95076,36.9207528,-121.7544275
16,Monte Vista Avenue,95076,36.9208714,-121.7545600
10,Bonita Terrace,95076,36.9223668,-121.7557025
10,Bonita Terrace,95076,36.9223941,-121.7558857
74,Monte Vista Avenue,95076,36.9224935,-121.7559501
74,Monte Vista Avenue,95076,36.9226357,-121.7558587
302,Stanford Street,95076,36.9226896,-121.7560581
302,Stanford Street,95076,36.9225829,-121.7560948
79,Monte Vista Avenue,95076,36.9223961,-121.7564935
79,Monte Vista Avenue,95076,36.9222399,-121.7565796
1,Bonita Terrace,95076,36.9219268,-121.7554614
523,Brewington Avenue,95076,36.9218349,-121.7551030
517,Brewington Avenue,95076,36.9216137,-121.7548983
517,Brewington Avenue,95076,36.9215462,-121.7551974
513,Brewington Avenue,95076,36.9214224,-121.7546601
511,Brewington Avenue,95076,36.9213288,-121.7544479
509,Brewington Avenue,95076,36.9212178,-121.7543306
505,Brewington Avenue,95076,36.9210854,-121.7541854
503,Brewington Avenue,95076,36.9209410,-121.7540622
505,Brewington Avenue,95076,36.9210781,-121.7544108
503,Brewington Avenue,95076,36.9209083,-121.7542536
467,California Street,95076,36.9207809,-121.7538007
467,California Street,95076,36.9209150,-121.7539206
463,California Street,95076,36.9207113,-121.7538986
463,California Street,95076,36.9208235,-121.7540524
459,California Street,95076,36.9206662,-121.7540413
459,California Street,95076,36.9207672,-121.7541920
455,California Street,95076,36.9205798,-121.7541753
455,California Street,95076,36.9207017,-121.7543016
603,Brewington Avenue,95076,36.9223730,-121.7551996
609,Brewington Avenue,95076,36.9225281,-121.7554161
611,Brewington Avenue,95076,36.9226986,-121.7555149
615,Brewington Avenue,95076,36.9228443,-121.7556385
701,Brewington Avenue,95076,36.9231837,-121.7558862
701,Brewington Avenue,95076,36.9230782,-121.7559901
701,Brewington Avenue,95076,36.9231767,-121.7560879
709,Brewington Avenue,95076,36.9233651,-121.7560394
709,Brewington Avenue,95076,36.9233642,-121.7562303
715,Brewington Avenue,95076,36.9235258,-121.7561910
719,Brewington Avenue,95076,36.9236438,-121.7563589
723,Brewington Avenue,95076,36.9237259,-121.7564300
309,Stanford Street,95076,36.9230586,-121.7561725
309,Stanford Street,95076,36.9232019,-121.7562379
305,Stanford Street,95076,36.9230072,-121.7563337
305,Stanford Street,95076,36.9231355,-121.7563637
301,Stanford Street,95076,36.9229405,-121.7564383
301,Stanford Street,95076,36.9230482,-121.7565555
118,Monte Vista Avenue,95076,36.9234209,-121.7567302
715,Brewington Avenue,95076,36.9234295,-121.7564522
126,Monte Vista Avenue,95076,36.9235670,-121.7569291
310,Montecito Avenue,95076,36.9236406,-121.7567734
727,Brewington Avenue,95076,36.9238846,-121.7565274
238,Montecito Avenue,95076,36.9231923,-121.7574622
239,Montecito Avenue,95076,36.9232707,-121.7576405
231,Montecito Avenue,95076,36.9230982,-121.7576853
443,California Street,95076,36.9202605,-121.7547483
443,California Street,95076,36.9202703,-121.7548600
441,California Street,95076,36.9201879,-121.7549267
435,California Street,95076,36.9200985,-121.7550617
431,California Street,95076,36.9200286,-121.7551796
431,California Street,95076,36.9201448,-121.7552914
12,Roosevelt Street,95076,36.9203160,-121.7553305
12,Roosevelt Street,95076,36.9203298,-121.7551812
16,Roosevelt Street,95076,36.9204513,-121.7554243
22,Roosevelt Street,95076,36.9205368,-121.7555390
22,Roosevelt Street,95076,36.9205802,-121.7553304
26,Roosevelt Street,95076,36.9206508,-121.7556554
26,Roosevelt Street,95076,36.9206685,-121.7554686
30,Roosevelt Street,95076,36.9207597,-121.7557261
34,Roosevelt Street,95076,36.9208947,-121.7558104
34,Roosevelt Street,95076,36.9208997,-121.7556672
38,Roosevelt Street,95076,36.9209759,-121.7559246
38,Roosevelt Street,95076,36.9210886,-121.7558071
42,Roosevelt Street,95076,36.9211033,-121.7560067
42,Roosevelt Street,95076,36.9211861,-121.7558386
46,Roosevelt Street,95076,36.9212194,-121.7561033
46,Roosevelt Street,95076,36.9212476,-121.7559384
50,Roosevelt Street,95076,36.9213458,-121.7561876
50,Roosevelt Street,95076,36.9213635,-121.7560259
54,Roosevelt Street,95076,36.9214392,-121.7562593
54,Roosevelt Street,95076,36.9215691,-121.7561452
58,Roosevelt Street,95076,36.9215613,-121.7564037
58,Roosevelt Street,95076,36.9215384,-121.7563196
62,Roosevelt Street,95076,36.9216693,-121.7565007
62,Roosevelt Street,95076,36.9217418,-121.7562928
66,Roosevelt Street,95076,36.9217896,-121.7565697
66,Roosevelt Street,95076,36.9218367,-121.7563817
70,Roosevelt Street,95076,36.9219145,-121.7566525
70,Roosevelt Street,95076,36.9219588,-121.7564613
74,Roosevelt Street,95076,36.9220305,-121.7567597
78,Roosevelt Street,95076,36.9221662,-121.7568316
78,Roosevelt Street,95076,36.9221875,-121.7566705
234,Stanford Street,95076,36.9222499,-121.7569118
234,Stanford Street,95076,36.9223307,-121.7567635
239,Stanford Street,95076,36.9226197,-121.7570091
243,Stanford Street,95076,36.9226913,-121.7568629
243,Stanford Street,95076,36.9228380,-121.7569101
239,Stanford Street,95076,36.9227664,-121.7570563
247,Stanford Street,95076,36.9227678,-121.7567376
247,Stanford Street,95076,36.9228803,-121.7568179
109,Monte Vista Avenue,95076,36.9229578,-121.7569284
109,Monte Vista Avenue,95076,36.9228570,-121.7570488
234,Montecito Avenue,95076,36.9228897,-121.7572086
340,Rodriguez Street,95076,36.9090823,-121.7573616
120,2nd Street,95076,36.9080741,-121.7581894
30,Harkins Slough Road,95076,36.9136616,-121.7706159
215,Union Street,95076,36.9085628,-121.7538399
190,Main Street,95076,36.9077376,-121.7535191
175,Main Street,95076,36.9072084,-121.7540365
200,East Riverside Drive,95076,36.9094245,-121.7501144
555,Walker Street,95076,36.9091817,-121.7650651
37,Sudden Street,95076,36.9144771,-121.7569924
49,9th Street,95076,36.9157342,-121.7649369
550,South Green Valley Road,95076,36.9255821,-121.7788493
1482,Freedom Boulevard,95076,36.9303880,-121.7667951
1482,Freedom Boulevard,95076,36.9300250,-121.7673674
261,East Lake Avenue,95076-4717,36.9151245,-121.7540067
261,East Lake Avenue,95076-4717,36.9149762,-121.7542253
