House number,Street name,Postal code,Latitude,Longitude
444,North Azusa Avenue,91744,34.0255669,-117.9158961
1100,East Cameron Avenue,91790,34.0608433,-117.9225631
2102,Sienna Crest,91790,34.0705280,-117.9511367
2105,Sienna Crest,91790,34.0706416,-117.9511170
2121,Sienna Crest,91790,34.0705295,-117.9506429
2116,Sienna Crest,91790,34.0703508,-117.9506747
2118,Sienna Crest,91790,34.0703720,-117.9505702
2138,Sienna Crest,91790,34.0708324,-117.9503551
2137,Sienna Crest,91790,34.0708309,-117.9504339
375,North Azusa Avenue,91791,34.0771636,-117.9094934
100,N Azusa Avenue,91791,34.0733879,-117.9071877
501,N Azusa Ave,91791,34.0794063,-117.9080191
132,North Grand Avenue,91791,34.0738348,-117.8720788
201,North Grand Avenue,91791,34.0742524,-117.8729103
741,South Orange Avenue,91790,34.0714300,-117.9449435
1111,Plaza Drive,91790,34.0704868,-117.9290126
120,South California Avenue,91790,34.0709941,-117.9272874
1209,West West Covina Parkway,91790,34.0709992,-117.9348280
105,Vincent Avenue,91790,34.0701366,-117.9273018
150,South California Avenue,91790,34.0705850,-117.9272201
1800,Plaza Drive,91790,34.0712715,-117.9308856
130,Vincent Avenue,91790,34.0739546,-117.9260038
116,Vincent Avenue,91790,34.0738060,-117.9259983
100,Vincent Avenue,91790,34.0736529,-117.9259500
1901,West Pacific Avenue,91790,34.0734458,-117.9440949
800,South Glendora Avenue,91790,34.0610072,-117.9316470
100,Vincent Avenue,91790,34.0699244,-117.9264866
1000,Lakes Drive,91790,34.0713719,-117.9237000
1050,Lakes Drive,91790,34.0714815,-117.9228563
1427,West West Covina Parkway,91790,34.0699043,-117.9381813
811,Plaza Drive,91790,34.0710390,-117.9331769
150,South Citrus Avenue,91791,34.0702712,-117.8896184
245,North Citrus,91791-1617,34.0750383,-117.8904960
2626,Garey Avenue,91791,34.0702186,-117.8890215
3662,Nogales,91792,34.0103484,-117.8853246
2831,East Eastland Center Drive,91791-1624,34.0738442,-117.8844871
2851,Eastland Center Drive,91791,34.0737309,-117.8831608
143,North Barranca Street,91791,34.0731955,-117.8821241
2753,Eastland Center Drive,91791,34.0736954,-117.8852864
2753,East Eastland Center Drive,91791,34.0733551,-117.8866804
2753,East Eastland Center Drive,91791,34.0736976,-117.8862494
2753,East Eastland Center Drive,91791,34.0731799,-117.8846150
2753,East Eastland Center Drive,91791,34.0730488,-117.8853079
245,Barranca Avenue,91791,34.0747607,-117.8817090
1012,West West Covina Parkway,91790,34.0675990,-117.9318260
2235,East Garvey Avenue North,91791,34.0733714,-117.8976140
1360,W Garvey ave South,91790,34.0716533,-117.9359552
1108,East Eastland Center Drive,91791,34.0729605,-117.8854869
1829,East Garvey Avenue North,91791,34.0728115,-117.9059040
6670,South Sunset Avenue,91790,34.0691444,-117.9372225
6670,South Sunset Avenue,91790,34.0690941,-117.9371481
430,North Azusa Avenue,91791,34.0785061,-117.9069851
266,South Glendora Avenue,91790,34.0689872,-117.9229340
2753,East Eastland Center Drive,91791,34.0730612,-117.8857974
555,South Glendora Avenue,91790,34.0651596,-117.9283670
538,South California Avenue,91790,34.0675222,-117.9307925
1050,West Covina Parkway,91790,34.0677363,-117.9324690
465,North Azusa Avenue,91791,34.0783783,-117.9080989
3646,Nogales Street,91792,34.0116525,-117.8863537
3620,Nogales Street,91792,34.0118722,-117.8864426
2420,South Azusa Avenue,91792,34.0320602,-117.9136500
1932,East Garvey Avenue South,91791,34.0714215,-117.9041697
100,Barranca Street,91791,34.0731078,-117.8807580
2700,East Workman Street,91791,34.0750000,-117.8874870
403,North Azusa Avenue,91791-1348,34.0774985,-117.9096130
1131,South Glendora Avenue,91790-4955,34.0562640,-117.9384185
1428,South Azusa Avenue,91791,34.0475505,-117.9075868
1410,South Azusa Avenue,91791,34.0490243,-117.9077143
3030,East Garvey Avenue South,91791-2303,34.0710260,-117.8795390
427,Plaza Drive,91790,34.0711073,-117.9327713
857,South Glendora Avenue,91790,34.0600006,-117.9342047
1545,E Amar Rd,91792,34.0315232,-117.9124398
2260,South Azusa,91792,34.0361011,-117.9126305
2260,South Azusa Avenue,91792,34.0361960,-117.9126198
3041,East Garvey Avenue North,91791,34.0729792,-117.8800456
100,South Vincent Avenue,91790,34.0700679,-117.9264088
1525,East Amar Road,91792,34.0317827,-117.9130039
1025,East Amar Road,91792,34.0363794,-117.9250450
2623,Valley Boulevard,91792-3027,34.0035574,-117.8889674
1230,Lakes Drive,91790,34.0701846,-117.9225186
1230,Lakes Drive,91790,34.0703417,-117.9223107
1230,Lakes Drive,91790,34.0704880,-117.9224620
301,South Glendora Avenue,91790,34.0690372,-117.9240260
1609,East Cameron Avenue,91791,34.0625386,-117.9138023
777,South Glendora Avenue,91790,34.0625557,-117.9324218
1941,East Rowland Avenue,91791,34.0804891,-117.9044392
301,South Glendora Avenue,91790,34.0691121,-117.9245356
1500,West Rowland Avenue,91790,34.0783213,-117.9369504
1500,West Rowland Avenue,91790,34.0785597,-117.9373174
645,South Barranca Street,91791,34.0622811,-117.8836768
720,East Herring Avenue,91790,34.0597208,-117.9314802
702,East Herring Avenue,91790,34.0597129,-117.9319702
1414,Marengo Court,91790,34.0501387,-117.9589790
1406,Marengo Court,91790,34.0499769,-117.9587591
1410,Marengo Court,91790,34.0500266,-117.9588887
1416,Marengo Court,91790,34.0502028,-117.9591288
1821,North Hacienda Boulevard,91744,34.0522164,-117.9444185
1807,North Hacienda Boulevard,91744,34.0513407,-117.9453708
1415,South Meeker Avenue,91790,34.0646075,-117.9576778
1227,South Orange Avenue,91790,34.0641040,-117.9520945
730,South Orange Avenue,91790,34.0698250,-117.9423244
2400,South Azusa Avenue,91792,34.0325376,-117.9137772
1901,East Amar Road,91792,34.0281917,-117.9063708
1901,East Amar Road,91792,34.0281602,-117.9057758
1901,East Amar Road,91792,34.0277275,-117.9050019
1901,East Amar Road,91792,34.0280733,-117.9052857
1901,East Amar Road,91792,34.0277318,-117.9054220
1901,East Amar Road,91792,34.0278784,-117.9056331
2300,South Azusa Avenue,91792,34.0353975,-117.9125289
2220,South Azusa Avenue,91792,34.0367083,-117.9108590
2370,South Azusa Avenue,91792-1511,34.0330810,-117.9116878
1026,West West Covina Parkway,91790,34.0681410,-117.9321289
6670,South Sunset Avenue,91790,34.0691067,-117.9371886
1200,Lakes Drive,91790,34.0701303,-117.9234477
461,South Vincent Avenue,91790,34.0670127,-117.9276833
1000,Lakes Drive,91790,34.0714850,-117.9235495
501,South Vincent Avenue,91790,34.0664839,-117.9283213
200,South Vincent Avenue,91790,34.0694360,-117.9265323
1050,Lakes Drive,91790,34.0714909,-117.9228888
629,South Glendora Avenue,91790,34.0648937,-117.9289335
2501,East Cortez Street,91791,34.0652106,-117.8914899
2441,East Cortez Street,91791,34.0649051,-117.8930778
2980,East Workman Avenue,91791,34.0750529,-117.8816987
139,North Barranca Avenue,91791,34.0734107,-117.8822460
101,North Barranca,91791,34.0724122,-117.8818621
1829,East Garvey Avenue North,91791,34.0731617,-117.9058926
2748,East Garvey Avenue South,91791,34.0711828,-117.8860092
2940,East Garvey Avenue South,91791,34.0714203,-117.8819029
3211,East Garvey Avenue North,91791,34.0730508,-117.8764010
3275,East Garvey Avenue North,91791,34.0726517,-117.8746186
3223,East Garvey Avenue North,91791,34.0727862,-117.8757267
3145,East Garvey Avenue North,91791,34.0729615,-117.8769128
2650,Shadow Oak Drive,91792,34.0198481,-117.8905047
3601,East Holt Avenue,91791,34.0702776,-117.8677438
1417,West Badillo Street,91790,34.0871297,-117.9349459
901,North Sunset Avenue,91790,34.0871193,-117.9345395
2453,South Azusa Avenue,91792,34.0323124,-117.9150021
2401,South Azusa Avenue,91792,34.0327871,-117.9146175
3722,South Forecastle Avenue,91792,34.0098928,-117.8740875
3740,South Forecastle Avenue,91792,34.0093452,-117.8741122
3734,South Forecastle Avenue,91792,34.0095375,-117.8741032
3802,South Forecastle Avenue,91792,34.0090014,-117.8741109
3746,South Forecastle Avenue,91792,34.0091719,-117.8741044
3728,South Forecastle Avenue,91792,34.0097154,-117.8741134
3231,East Quinnell Drive,91792,34.0093672,-117.8745787
3646,South Nogales Street,91792,34.0116098,-117.8864061
3644,South Forecastle Avenue,91792,34.0108038,-117.8741414
3638,South Forecastle Avenue,91792,34.0109923,-117.8742015
3712,South Forecastle Avenue,91792,34.0102669,-117.8740909
3700,South Forecastle Avenue,91792,34.0106230,-117.8740985
3706,South Forecastle Avenue,91792,34.0104350,-117.8741177
3634,South Forecastle Avenue,91792,34.0111492,-117.8742434
3718,South Forecastle Avenue,91792,34.0100815,-117.8741015
1540,East Amar Road,91792,34.0297711,-117.9125392
1520,East Amar Road,91792,34.0305600,-117.9140237
2548,South Azusa Avenue,91792,34.0293687,-117.9153343
4032,South Ellesford Avenue,91792,34.0066231,-117.8853089
1821,East Woodgate Drive,91792,34.0243876,-117.9085364
2100,South Azusa Avenue,91792,34.0400918,-117.9105450
350,South Citrus Street,91791,34.0685756,-117.8884036
2800,East Hollingworth Street,91792,34.0061255,-117.8843763
1115,South Sunset Avenue,91790,34.0640007,-117.9454551
725,South Orange Avenue,91790,34.0711997,-117.9447948
845,North Lark Ellen Avenue,91791,34.0872636,-117.9172678
2201,East Aroma Drive,91791,34.0465230,-117.9020487
1901,East Amar Road,91792,34.0280684,-117.9058901
1516,East Amar Road,91792,34.0294053,-117.9141193
1528,East Amar Road,91792,34.0292406,-117.9137227
1512,East Amar Road,91792,34.0295489,-117.9145905
2520,South Azusa Avenue,91792,34.0298031,-117.9149398
2532,South Azusa Avenue,91792,34.0296473,-117.9150521
2547,Temple Avenue,91792,34.0276918,-117.9128017
2600,South Azusa Avenue,91792,34.0281479,-117.9145080
2620,East Workman Avenue,91791,34.0745341,-117.8896839
2620,East Workman Avenue,91791,34.0743927,-117.8892777
2620,East Workman Avenue,91791,34.0744912,-117.8891897
2630,East Workman Avenue,91791,34.0746770,-117.8887196
2648,East Workman Avenue,91791,34.0749426,-117.8883191
2700,East Workman Avenue,91791,34.0750114,-117.8872116
2500,South Azusa Avenue,91792,34.0308766,-117.9146770
2500,South Azusa Avenue,91792,34.0309710,-117.9146207
2500,South Azusa Avenue,91792,34.0307812,-117.9147330
1625,West Durness Street,91790,34.0623767,-117.9507544
500,Tamarind way,91791,34.0793704,-117.9092679
502,Tamarind way,91791,34.0795539,-117.9092639
506,Tamarind way,91791,34.0797002,-117.9092678
508,Tamarind way,91791,34.0798691,-117.9092652
510,Tamarind way,91791,34.0800269,-117.9092705
205,North Citrus Street,91791,34.0741004,-117.8913470
675,South Glendora Avenue,91790,34.0643355,-117.9302568
1431,West Garvey Avenue North,91790,34.0732219,-117.9366573
2804,East Garvey Avenue South,91791,34.0712963,-117.8854975
2655,South Citrus Street,91791,34.0557508,-117.8873893
112,Plaza Drive,91790,34.0707286,-117.9319402
