House number,Street name,Postal code,Latitude,Longitude
8,Депутатская улица,385018,44.6124215,40.0682710
105,Кужорская улица,385007,44.6084005,40.1371077
1,2-я Крестьянская улица,385007,44.6073576,40.1363544
40,Краснооктябрьская улица,385000,44.6118752,40.1058750
21,улица Карла Маркса,385020,44.6115279,40.0887776
222,улица Хакурате,385000,44.6176498,40.1089467
4,Индустриальная улица,385000,44.6302002,40.1190623
370,улица Хакурате,385006,44.6190034,40.0936607
203,Советская улица,385000,44.6057367,40.1054669
36,улица Жуковского,385000,44.6103997,40.1078339
11/1,улица Димитрова,385011,44.6147862,40.0699532
399,Пионерская улица,385011,44.6116080,40.0605895
110,улица Герцена,385009,44.6262117,40.0749971
293,улица Некрасова,352009,44.6155492,40.1067990
201/19,улица Жуковского,385000,44.6056181,40.1061785
36,Краснооктябрьская улица,385000,44.6113234,40.1061057
19,Краснооктябрьская улица,385000,44.6058338,40.1040398
232,Комсомольская улица,385000,44.6028680,40.1042807
33,улица Карла Маркса,385020,44.6133326,40.0890111
165,улица 3-го Интернационала,385008,44.6099648,40.0718756
126,улица 12 Марта,385008,44.6086547,40.0704565
8,Шоссейная улица,385019,44.5788276,40.1350508
4,Шоссейная улица,385019,44.5783914,40.1323225
6,Шоссейная улица,385019,44.5787212,40.1333054
10,Шоссейная улица,385019,44.5788371,40.1340178
3,Тульская улица,385012,44.5950879,40.1197190
173,улица Пушкина,385077,44.5997879,40.1087939
10,Депутатская улица,385018,44.6135929,40.0661100
337,Крестьянская улица,385020,44.6122935,40.0903875
331,Курганная улица,385020,44.6133545,40.0925977
21,улица 8 Марта,385016,44.6132610,40.0910506
112,улица Гоголя,385000,44.6155062,40.1121396
484А,улица Ветеранов,385000,44.6177048,40.0798328
288А,Привокзальная улица,385000,44.6252621,40.0741990
413,улица Свободы,385009,44.6264996,40.0799435
415Б,улица Свободы,385009,44.6277376,40.0811306
417А,улица Свободы,385009,44.6280900,40.0822783
413Б,улица Свободы,385009,44.6271384,40.0803053
417Б,улица Свободы,385009,44.6283482,40.0818641
413А,улица Свободы,385009,44.6268464,40.0808268
415А,улица Свободы,385009,44.6274855,40.0815684
459А,улица Хакурате,385009,44.6194671,40.0802223
12,2-я Крестьянская улица,385007,44.6076290,40.1384513
10,2-я Крестьянская улица,385007,44.6077595,40.1379102
18,2-я Курганная улица,385007,44.6088571,40.1388579
100,Кужорская улица,385007,44.6078482,40.1372628
102,Кужорская улица,385007,44.6086292,40.1375102
123,улица Коммунаров,385007,44.6085282,40.1381528
148Ж,улица Коммунаров,385007,44.6083467,40.1386721
636,улица Хакурате,385000,44.6219954,40.0694584
116,улица Ленина,385006,44.6214552,40.1059043
78,Кооперативная улица,385007,44.6085844,40.1413091
112,Кужорская улица,385007,44.6112746,40.1383718
3,2-я улица Некрасова,385007,44.6124176,40.1382777
76,Кооперативная улица,385007,44.6079443,40.1409663
108,Кужорская улица,385007,44.6098719,40.1383612
1,2-я улица Ветеранов,385007,44.6098965,40.1401236
147,улица Коммунаров,385007,44.6121277,40.1392784
642,улица Хакурате,385021,44.6230854,40.0617924
6,2-я Короткая улица,385017,44.5935535,40.1353376
199,Первомайская улица,385000,44.6040005,40.1048752
20А,улица Гагарина,385000,44.6009272,40.1106873
152,улица Победы,385006,44.6184890,40.1035366
25А,Индустриальная улица,385000,44.6290171,40.1090930
9Г,улица Юннатов,385009,44.6259638,40.0726103
179,улица Титова,385009,44.6200503,40.0854509
544,Курганная улица,385020,44.6146157,40.0877751
33,улица Карла Маркса,385020,44.6133095,40.0890067
114А,улица Ворошилова,385008,44.5997507,40.0717085
3,Глухой переулок,385002,44.5997131,40.0904499
268,Пионерская улица,385000,44.6077502,40.1061680
12,Виноградная улица,385000,44.5907152,40.0564638
120,улица 12 Марта,385002,44.6078572,40.0723488
224,Первомайская улица,385000,44.6046630,40.1030165
16/226,улица Ленина,385000,44.6050609,40.1022502
5,улица Димитрова,385011,44.6141621,40.0705127
16А,Депутатская улица,385018,44.6136762,40.0630109
29,улица Менделеева,385008,44.6040540,40.0535323
5,Краснооктябрьская улица,385000,44.6024958,40.1030283
189,Комсомольская улица,385000,44.6023609,40.1044204
14,Краснооктябрьская улица,385000,44.6039563,40.1041982
128,улица 12 Марта,385011,44.6088838,40.0685673
182,Школьная улица,385020,44.6123482,40.0802447
219,улица 3-го Интернационала,385011,44.6158047,40.0730994
84В,улица Чкалова,385018,44.6144062,40.0656701
230,улица Хакурате,385006,44.6175243,40.1074884
417А,улица Свободы,385009,44.6278249,40.0819816
419,улица Свободы,385009,44.6288848,40.0831918
421,улица Свободы,385009,44.6293193,40.0837138
1,улица Гагарина,385013,44.5937880,40.1079145
1,улица Гагарина,385013,44.5940363,40.1072462
1,улица Гагарина,385013,44.5942889,40.1065866
4,22-й проезд,385008,44.5963271,40.0490176
12,22-й проезд,385008,44.5949603,40.0495406
11,22-й проезд,385008,44.5951745,40.0494951
10,22-й проезд,385008,44.5953001,40.0493891
9,22-й проезд,385008,44.5954911,40.0493079
8,22-й проезд,385008,44.5956558,40.0492041
7,22-й проезд,385008,44.5958210,40.0491532
6,22-й проезд,385008,44.5960111,40.0491306
32,22-й проезд,385008,44.5957839,40.0488261
34,22-й проезд,385008,44.5954230,40.0489856
33,22-й проезд,385008,44.5955778,40.0489118
208,Первомайская улица,385000,44.6045450,40.1101570
51,Краснооктябрьская улица,385006,44.6153056,40.1055092
22,7-й переулок,385019,44.5744469,40.1295814
22,улица Жуковского,385000,44.6064518,40.1078986
190,Степная улица,385009,44.6116365,40.0421853
383А,Пионерская улица,385011,44.6114021,40.0673213
383 к2,Пионерская улица,385011,44.6108433,40.0674346
197,Советская улица,385000,44.6052276,40.1082796
