House number,Street name,Postal code,Latitude,Longitude
600/1,Ally Sykes Rd,34588 DSM,-6.7194192,39.2336394
"House No.2,Plot 105 & 106",off Kinondoni Road/Burundi street,+255 22 2664203,-6.7900683,39.2743414
MNY/KMB/594,Kanazi Street,255,-6.7862538,39.2632478
206,Shekilango Road,25195,-6.7746038,39.2324405
32859,Cape Road,+255,-6.7622033,39.2013435
34B,Manara Road,14110,-6.7830007,39.2689011
1270,Makongo kk,255,-6.7576331,39.1954243
1,Bohari,14129,-6.8301892,39.2725129
G6,Chabruma,255,-6.7819992,39.2742980
19,Palestina Hospital Road,131,-6.7846137,39.2204677
11,Ruhinda Street,11101,-6.7982098,39.2857138
480,Zenuhila,+255,-6.7833528,39.2394879
1821,Haile Selassie Road,5983,-6.7686298,39.2747167
6,Iramba Street,11000,-6.8021997,39.2463219
1st building,"Mwananyamala, mwinyijuma road, kwa mama zakaria.",255,-6.7837814,39.2463887
326,Ruaha street,15118,-6.9171508,39.3212767
673,Haile Selassie Road,2312,-6.7665027,39.2751934
Tancot House,Sokoine Drive and Pamba Road,11101,-6.8166479,39.2913922
245 Mwanamtoti,mbagara,15113,-6.9016577,39.2673729
2109,Umoja,244,-6.7269219,39.2149784
208,Kajenge Road,14113,-6.7783165,39.2414100
1404/6,Datela Street,14022,-6.6394412,39.1762530
Mwarabu road,Mvutamaisha Street,14113,-6.7790263,39.2355688
23,Old Bagamoyo Road,14254,-6.7761894,39.2695468
67XM+HR,Haile Selassie Road,0100,-6.7509372,39.2846883
63154,Migombani Street,+255,-6.7773743,39.2549344
82,Sigara Road,17503,-6.8794089,39.2173894
MKS/KSN/1918,Pagamisa,255,-6.7979300,39.2511751
4,Haile Selassie Road,2585,-6.7690915,39.2743802
7,Pundamilia,14113,-6.7699793,39.2354842
90/20,Tunisia Road,0000,-6.7866459,39.2746133
izgold sweet home,"Msisiri ""B""",11000,-6.7834002,39.2572217
161,Mwaikibaki,00000,-6.7535403,39.2441330
PLOT 1119,MAKONGO JUU,14129,-6.7564412,39.2033134
ilala,Nyerere Road,150,-6.8392213,39.2571560
+255,Olimpiyo Street,00000,-6.8093831,39.2803003
N/A,Kibada/ruaha/street No:5&7,15118,-6.9166194,39.3202408
167,Ruaha street/stree No:5,15118,-6.9162284,39.3198091
166,Ruaha street/stree No:5,15118,-6.9164160,39.3194463
165,kibada street/stree No:4,15118,-6.9161481,39.3196350
156,stree No:4,15118,-6.9159784,39.3194697
154,stree No:4,15118,-6.9159080,39.3195393
162,street no:4,15118,-6.9163206,39.3191487
158,street no:4,15118,-6.9160925,39.3193440
160,street no:4,15118,-6.9161684,39.3192798
328,Ruaha street,15118,-6.9172249,39.3213849
326,Ruaha street,15118,-6.9171982,39.3212994
331,street no:4,15118,-6.9171585,39.3217135
329,street no:4,15118,-6.9171246,39.3216297
323,street no:4,15118,-6.9169265,39.3212228
321,street no:4,15118,-6.9169018,39.3211410
330,Ruaha street,15118,-6.9172950,39.3215694
324,Ruaha street,15118,-6.9171205,39.3211372
332,Ruaha street,15118,-6.9170837,39.3210515
320,Ruaha street,15118,-6.9170094,39.3208915
318,Ruaha street,15118,-6.9169733,39.3208075
327,street no:4,15118,-6.9170479,39.3214667
325,street no:4,15118,-6.9170187,39.3213820
319,street no:4,15118,-6.9168231,39.3209780
317,street no:4,15118,-6.9167923,39.3208925
164,street no:4,15118,-6.9163712,39.3189234
163,street no:4,15118,-6.9162040,39.3189417
161,street no:4,15118,-6.9161365,39.3190077
159,street no:3,15118,-6.9160220,39.3191382
157,street no:3,15118,-6.9159521,39.3192052
155,street no:3,15118,-6.9158321,39.3193393
153,street no:3,15118,-6.9157620,39.3194011
151,street no:3,15118,-6.9163565,39.3186625
149,street no:3,15118,-6.9162615,39.3186604
141,street no:3,15118,-6.9158359,39.3189720
139,street no:3,15118,-6.9157799,39.3190316
413,Victoria street,15118,-6.9176820,39.3219304
408,Victoria street,15118,-6.9176686,39.3217178
407,Victoria street,15118,-6.9175885,39.3217637
406,Victoria street,15118,-6.9174454,39.3218470
405,Victoria street,15118,-6.9173658,39.3218941
412,Victoria street,15118,-6.9175495,39.3220254
410,Victoria street,15118,-6.9174634,39.3220651
410,Victoria street,15118,-6.9173259,39.3221775
409,Victoria street,15118,-6.9172447,39.3222188
404,Victoria street,15118,-6.9172226,39.3220099
403,Victoria street,15118,-6.9171420,39.3220569
402,Victoria street,15118,-6.9170108,39.3222052
401,Victoria street,15118,-6.9169384,39.3222636
518,Victoria St.,15188,-6.9169682,39.3195402
512,Victoria St.,15188,-6.9168478,39.3191309
510,Victoria St.,15188,-6.9168576,39.3190377
508,Victoria St.,15188,-6.9168466,39.3188558
504,Victoria St.,15188,-6.9168455,39.3185876
608,Victoria St.,15188,-6.9177256,39.3206560
607,Victoria St.,15188,-6.9176975,39.3205952
606,Victoria St.,15188,-6.9176069,39.3204005
605,Victoria St.,15188,-6.9175789,39.3203413
604,Victoria St.,15188,-6.9174921,39.3201473
603,Victoria St.,15188,-6.9174637,39.3200868
602,Victoria St.,15188,-6.9173964,39.3198852
601,Victoria St.,15188,-6.9173703,39.3198235
342,Victoria St.,15188,-6.9173441,39.3209736
340,Victoria St.,15188,-6.9173167,39.3208891
338,Victoria St.,15188,-6.9172417,39.3207262
336,Victoria St.,15188,-6.9172024,39.3206421
334,Victoria St.,15188,-6.9171124,39.3204765
332,Victoria St.,15188,-6.9170793,39.3203913
335,Victoria St.,15188,-6.9172942,39.3203965
333,Victoria St.,15188,-6.9172610,39.3203039
337,Victoria St.,15188,-6.9173750,39.3205589
339,Victoria St.,15188,-6.9174062,39.3206487
343,Victoria St.,15188,-6.9175209,39.3208936
341,Victoria St.,15188,-6.9174884,39.3208097
347,Victoria St.,15188,-6.9176327,39.3211420
345,Victoria St.,15188,-6.9176041,39.3210546
344,Victoria St.,15188,-6.9174153,39.3211410
346,Victoria St.,15188,-6.9174542,39.3212204
348,Victoria St.,15188,-6.9175179,39.3213899
350,Victoria St.,15188,-6.9175470,39.3214801
349,Victoria St.,15188,-6.9176892,39.3213253
526,Victoria St.,15188,-6.9171502,39.3200559
524,Victoria St.,15188,-6.9171152,39.3199637
525,Victoria St.,15188,-6.9169718,39.3201283
523,Victoria St.,15188,-6.9169411,39.3200607
522,Victoria St.,15188,-6.9170581,39.3197978
520,Victoria St.,15188,-6.9170248,39.3197125
521,Victoria St.,15188,-6.9168632,39.3198788
519,Victoria St.,15188,-6.9168381,39.3198102
516,Victoria St.,15188,-6.9169352,39.3194560
517,Victoria St.,15188,-6.9167540,39.3196378
515,Victoria St.,15188,-6.9167239,39.3195559
514,Victoria St.,15188,-6.9168821,39.3192917
513,Victoria St.,15188,-6.9166676,39.3193396
511,Victoria St.,15188,-6.9166046,39.3191226
509,Victoria St.,15188,-6.9166079,39.3190307
506,Victoria St.,15188,-6.9168588,39.3187639
507,Victoria St.,15188,-6.9166244,39.3188549
505,Victoria St.,15188,-6.9166322,39.3187594
502,Victoria St.,15188,-6.9168586,39.3184908
503,Victoria St.,15188,-6.9166402,39.3185733
501,Victoria St.,15188,-6.9166505,39.3184823
131,street no:2,15118,-6.9169651,39.3182354
129,street no:2,15118,-6.9168822,39.3182193
127,street no:2,15118,-6.9166794,39.3182246
123,street no:2,15118,-6.9163999,39.3182123
121,street no:2,15118,-6.9163227,39.3181964
119,street no:2,15118,-6.9161353,39.3182061
117,street no:2,15118,-6.9160513,39.3181846
115,street no:2,15118,-6.9158926,39.3182744
133,street no:2,15118,-6.9158316,39.3183231
111,street no:2,15118,-6.9157027,39.3184633
109,street no:1,15118,-6.9156336,39.3185271
107,street no:2,15118,-6.9155144,39.3186668
105,street no:1,15118,-6.9154540,39.3187154
103,street no:2,15118,-6.9153240,39.3188572
101,street no:2,15118,-6.9152658,39.3189060
133,street no:1,15118,-6.9169851,39.3180282
132,street no:1,15118,-6.9169087,39.3180256
130,street no:1,15118,-6.9167046,39.3180323
128,street no:1,15118,-6.9166225,39.3180165
126,street no:1,15118,-6.9164208,39.3180103
124,street no:1,15118,-6.9163419,39.3180066
122,street no:1,15118,-6.9161478,39.3179912
120,street no:1,15118,-6.9160702,39.3179818
118,street no:1,15118,-6.9158841,39.3180031
116,street no:1,15118,-6.9157306,39.3181243
114,street no:1,15118,-6.9156760,39.3181758
112,street no:1,15118,-6.9155485,39.3183212
110,street no:1,15118,-6.9154918,39.3183732
108,street no:1,15118,-6.9153635,39.3185115
106,street no:1,15118,-6.9152915,39.3185712
104,street no:1,15118,-6.9151695,39.3187043
102,street no:1,15118,-6.9151143,39.3187540
134,street no:3,15118,-6.9154362,39.3190771
136,street no:3,15118,-6.9154893,39.3190223
138,street no:3,15118,-6.9156270,39.3188820
140,street no:3,15118,-6.9156827,39.3188279
142,street no:3,15118,-6.9158080,39.3186966
124,street no:3,15118,-6.9158792,39.3186247
146,street no:3,15118,-6.9159837,39.3185170
148,street no:3,15118,-6.9160488,39.3184488
150,street no:3,15118,-6.9162694,39.3184530
152,street no:3,15118,-6.9163618,39.3184574
414,stree No:8,155188,-6.9170486,39.3223450
316,stree No:1,155188,-6.9169545,39.3218920
312,stree No:1,155188,-6.9168563,39.3216197
310,stree No:1,155188,-6.9168119,39.3215409
308,stree No:1,155188,-6.9167436,39.3213736
306,stree No:1,155188,-6.9166973,39.3212961
304,stree No:1,155188,-6.9165997,39.3211134
302,stree No:1,155188,-6.9165687,39.3210239
315,stree No:1,155188,-6.9168078,39.3219690
313,stree No:1,155188,-6.9167694,39.3218770
311,stree No:1,155188,-6.9166852,39.3217142
309,stree No:1,155188,-6.9166455,39.3216362
307,stree No:1,155188,-6.9165769,39.3214660
305,stree No:1,155188,-6.9165324,39.3213860
303,stree No:1,155188,-6.9164392,39.3211814
301,stree No:1,155188,-6.9164040,39.3210965
235,stree No:1,155188,-6.9162673,39.3207891
233,stree No:1,155188,-6.9162263,39.3207118
231,stree No:1,155188,-6.9161286,39.3205310
229,stree No:1,155188,-6.9160764,39.3204578
277,stree No:1,155188,-6.9160054,39.3202941
225,stree No:1,155188,-6.9159478,39.3202236
223,stree No:1,155188,-6.9158167,39.3200908
221,stree No:1,155188,-6.9157623,39.3200180
219,stree No:1,155188,-6.9156254,39.3199091
217,stree No:1,155188,-6.9155703,39.3198326
215,stree No:1,155188,-6.9154252,39.3197206
213,stree No:1,155188,-6.9153642,39.3196468
211,stree No:1,155188,-6.9152240,39.3195317
209,stree No:1,155188,-6.9151687,39.3194714
209,stree No:1,155188,-6.9150333,39.3193326
205,stree No:1,155188,-6.9149869,39.3192763
203,stree No:1,155188,-6.9148303,39.3191477
201,stree No:1,155188,-6.9147845,39.3190915
314,stree No:1,155188,-6.9169179,39.3217954
Plot 18,Msimbazi,11106,-6.8158653,39.2744535
123,Mbagala,123,-6.9108189,39.2607837
3rd Floor,"ZO Spaces, New Bagamoyo Road",14107,-6.7760414,39.2439840
