House number,Street name,Postal code,Latitude,Longitude
18,вуліца Фядзюнінскага,246044,52.4885063,30.9858913
10,Медыцынская вуліца,246144,52.3949047,30.8981592
49,праспект Леніна,246017,52.4294628,30.9978557
29,вуліца Уладзімірава,246034,52.4295926,30.9489351
11,вуліца Яфрэмава,246031,52.4588684,30.9654318
20,вуліца Гагарына,246050,52.4203988,31.0068901
33,вуліца Агарэнкі,246045,52.4687130,31.0227865
77,вуліца Багдана Хмяльніцкага,246027,52.4133206,30.9706151
25,Ірынінская вуліца,246050,52.4280063,31.0022654
1 к1,вуліца Дастаеўскага,246000,52.3869555,31.0221933
10,вуліца Мазурава,246006,52.4480845,31.0212439
331,вуліца Ільіча,246013,52.3566420,31.0291681
331,вуліца Ільіча,246013,52.3565104,31.0291724
11А,Чырвонаармейская вуліца,246000,52.4265902,30.9940636
59 к3,вуліца Мазурава,246053,52.4516209,31.0266138
34,праспект Кастрычніка,246029,52.4070032,30.9517257
1,Прывакзальная плошча,246017,52.4318316,30.9921366
11,Інтэрнацыянальная вуліца,246050,52.4220724,31.0055463
87,Савецкая вуліца,246028,52.4479982,30.9999214
6А,Рэчыцкі праспект,246027,52.4152870,30.9644814
25/2,вуліца Фядзюнінскага,246015,52.4851002,31.0057220
2А,Рагачоўская вуліца,246022,52.4376093,31.0026931
70А,Чачэрская вуліца,246038,52.4678094,31.0418789
109А,вуліца Мазурава,246053,52.4561999,31.0290134
49,вуліца Маісеенкі,246001,52.4164814,31.0033138
28Д,2-я Заводская вуліца,246001,52.4105644,30.9995880
2А,Сталярная вуліца,246017,52.4208438,31.0021910
3,Савецкая вуліца,246050,52.4259794,31.0146801
3,Савецкая вуліца,246050,52.4261163,31.0144864
18,Пралетарская вуліца,246050,52.4174497,31.0082868
16,Пралетарская вуліца,246050,52.4178820,31.0086741
2/1,праспект Леніна,246050,52.4231985,31.0116520
2А,праспект Леніна,246050,52.4232178,31.0121326
2/1,праспект Леніна,246050,52.4231519,31.0117158
2/1,праспект Леніна,246050,52.4231702,31.0118305
3,Чырвонаармейская вуліца,246017,52.4304378,30.9978515
36,вуліца Каменшчыкава,246045,52.4683021,31.0238572
57,вуліца Гагарына,246017,52.4227797,31.0011701
55,вуліца Кірава,246022,52.4359881,31.0024541
35,Падгорная вуліца,246050,52.4394593,31.0149328
1,Прывакзальная плошча,246017,52.4319752,30.9919011
5,Хімзаводская вуліца,246026,52.4306879,30.8761212
2,вуліца Курчатава,246044,52.4330437,30.9927000
5,8-я Іншагародняя вуліца,246025,52.4437871,30.9405511
5,Сялянская вуліца,246050,52.4288098,31.0138366
28-1,вуліца Карповіча,246000,52.4249125,30.9972034
1,вуліца Лепяшынскага,246015,52.4742879,31.0016142
13,Амурская вуліца,246043,52.4249033,30.9556984
15А/4,2-я Гарматная вуліца,246013,52.3596583,31.0332311
44,вуліца Барыса Царыкава,246018,52.4467103,30.9574469
34,праспект Леніна,246050,52.4302568,30.9946655
1,вуліца Лепяшынскага,246015,52.4753923,31.0031451
2А,завулак Спартака,246050,52.4220271,31.0105497
14,праспект Перамогі,246022,52.4329788,31.0001572
9А,Рэчыцкі праспект,246027,52.4152412,30.9554710
9В,Абʼязная вуліца,246027,52.4191005,30.8910183
53,вуліца Косарава,246046,52.4003416,30.9230750
4А,вуліца Братоў Лізюковых,246000,52.4047578,30.9595867
15А,2-я Гарматная вуліца,246050,52.3584976,31.0330544
28/1,вуліца Карповіча,246050,52.4250783,30.9973815
2,вуліца Рэпіна,246021,52.3945257,31.0290050
8,праспект Перамогі,246022,52.4339263,31.0039539
22,Сялянская вуліца,246050,52.4267767,31.0091705
19,Сялянская вуліца,246050,52.4274350,31.0087374
3А,Працоўная вуліца,246050,52.4259338,31.0132790
18,вуліца Кірава,246050,52.4283955,31.0074413
1/1,вуліца Кірава,246050,52.4266196,31.0098027
33,праспект Леніна,246050,52.4273056,31.0038169
16/3,вуліца Барысенкі,246027,52.4218877,30.9237528
32,Сялянская вуліца,246015,52.4255286,31.0031657
2,вуліца Курчатава,246501,52.4328390,30.9928485
21,Гаспадарчая вуліца,246034,52.4365896,30.9524556
1А-2,Рэчыцкая вуліца,246017,52.4232376,30.9978716
112,вуліца Мазурава,246006,52.4616013,31.0233619
46А,вуліца Паўлава,246029,52.4092415,30.9561078
24Б,Украінская вуліца,246008,52.4236078,30.9921688
333,вуліца Ільіча,246013,52.3571402,31.0280160
26А,Савецкая вуліца,246050,52.4296777,31.0111396
135,Рэчыцкі праспект,246012,52.4047511,30.9104976
331,вуліца Ільіча,246013,52.3564520,31.0289009
18,Пралетарская вуліца,246050,52.4174090,31.0086094
14/163,Жамчужная вуліца,246013,52.3585274,31.0237595
18,вуліца Герояў-падпольшчыкаў,246035,52.4681020,30.9744953
17,Палеская вуліца,246022,52.4368280,30.9959692
6,праспект Леніна,246050,52.4246924,31.0096792
4,вуліца Кожара,246028,52.4521111,30.9971659
29,праспект Перамогі,246044,52.4320268,30.9942365
331,вуліца Ільіча,246013,52.3570735,31.0290955
5,праспект Перамогі,246022,52.4351650,31.0055410
331,вуліца Ільіча,246013,52.3568950,31.0290680
59,вуліца Багдана Хмяльніцкага,GOM4,52.4238546,30.9730713
12Б,Тралейбусная вуліца,246144,52.4684852,30.9876597
62А,Рэчыцкі праспект,246000,52.4055425,30.9236317
309,вуліца Барыкіна,246020,52.4269257,30.9142303
3-26,Рэчыцкі праспект,246027,52.4185124,30.9668749
7/1,Рэчыцкі праспект,246027,52.4174291,30.9640347
1,вуліца Пушкіна,246050,52.4303320,31.0131830
25,вуліца Макаёнка,246038,52.4663176,31.0357516
12В-6,Тралейбусная вуліца,246007,52.4687867,30.9919823
331,вуліца Ільіча,246013,52.3568330,31.0288950
331,вуліца Ільіча,246013,52.3565655,31.0289931
4,плошча Леніна,246050,52.4222678,31.0166987
3А,Прывакзальная вуліца,246017,52.4285164,30.9945145
6А,вуліца Барадзіна,246053,52.4597420,31.0298981
6А,вуліца Барадзіна,246053,52.4595574,31.0297190
11,вуліца Жаркоўскага,246017,52.4302422,31.0055072
97 к4,Савецкая вуліца,246032,52.4558425,30.9931544
5,Інтэрнацыянальная вуліца,246050,52.4239736,31.0072565
10Б,вуліца Мазурава,246006,52.4487839,31.0217490
3,вуліца Агарэнкі,246045,52.4766817,31.0247366
17,вуліца Ландышава,246028,52.4456287,31.0027515
11,Новапалеская вуліца,246003,52.4409729,30.9992389
4,вуліца Арцёма,246050,52.4306537,31.0169556
5В,Рэчыцкі праспект,246027,52.4169173,30.9604650
22Б,Чарнігаўская вуліца,246042,52.3729897,31.0342752
10А,вуліца Петчанкі,246017,52.4202914,31.0027410
20,праспект Перамогі,246017,52.4318824,30.9960249
9В,вуліца Шаўчэнкі,246017,52.4346938,30.9913042
268а－2 Каб. 3,вуліца Ільіча,246013,52.3589421,31.0321278
95,праспект Кастрычніка,246029,52.4048331,30.9416647
20,вуліца Кірава,246000,52.4289470,31.0069602
42,Рэчыцкі праспект,246012,52.4065733,30.9285805
40,вуліца Кірава,246022,52.4352766,31.0024226
79,вуліца Мазурава,246149,52.4549842,31.0255510
12А,Падгорная вуліца,246022,52.4420715,31.0145651
13,Чырвонаармейская вуліца,246017,52.4264052,30.9933599
51,вуліца Гагарына,246017,52.4220883,31.0031816
39,Савецкая вуліца,246012,52.4362759,31.0096425
140,вуліца Галавацкага,246053,52.4506583,31.0290809
1А,Валатаўская вуліца,246050,52.4313496,31.0141045
5,Хімзаводская вуліца,246026,52.4339700,30.8675225
44,вуліца Барыса Царыкава,246018,52.4468199,30.9589230
131,Рэчыцкі праспект,246012,52.4053022,30.9122807
1б,7-я Тэхнічная вуліца,246013,52.3632735,31.0243254
1б,7-я Тэхнічная вуліца,246042,52.3632803,31.0241986
1Б/2,7-я Тэхнічная вуліца,246013,52.3634558,31.0244677
21,Федюнинского,246007,52.4859386,31.0066272
87,Савецкая вуліца,246028,52.4482007,30.9997720
26,вуліца Маневіча,246035,52.4676051,30.9632559
67,праспект Касманаўтаў,246010,52.4596813,30.9553037
6,вуліца Народнага Апалчэння,246035,52.4636981,30.9637853
16,вуліца Яфрэмава,246035,52.4617416,30.9667256
61,вуліца Яфрэмава,246035,52.4603787,30.9676468
2,вуліца Багданава,246030,52.4511127,30.9666953
3,вуліца Багданава,246031,52.4516491,30.9692370
44,вуліца Барыса Царыкава,246018,52.4468394,30.9581852
5,вуліца Барыса Царыкава,246018,52.4464028,30.9651871
61,Рэчыцкі праспект,246012,52.4090148,30.9318522
6Б к1,вуліца Фядзюнінскага,246007,52.4763416,30.9810863
13,вуліца Кожара,246028,52.4506834,31.0027013
21,3-я Авіяцыйная вуліца,246028,52.4507439,31.0052782
18,Юбілейная вуліца,246032,52.4581766,31.0052810
14,праспект Кастрычніка,247027,52.4105291,30.9669097
20,вуліца Жукава,247027,52.4104832,30.9611030
8,праспект Кастрычніка,247027,52.4111379,30.9685659
10,праспект Кастрычніка,247027,52.4108420,30.9677774
16,праспект Кастрычніка,247027,52.4108519,30.9657105
28,вуліца Жукава,247027,52.4109627,30.9646890
26,вуліца Жукава,247027,52.4110569,30.9639549
24,вуліца Жукава,247027,52.4109621,30.9631230
22,вуліца Жукава,247027,52.4108634,30.9623118
26 к2,вуліца Жукава,247027,52.4115580,30.9648113
60,Савецкая вуліца,246003,52.4393443,31.0033250
17,вуліца Ландышава,246028,52.4453578,31.0028837
19,вуліца Цялегіна,246003,52.4426179,30.9927523
83А,Савецкая вуліца,246028,52.4462387,30.9999397
59,Савецкая вуліца,246003,52.4402574,31.0056097
59А,Савецкая вуліца,246003,52.4401004,31.0059847
6,вуліца Тэльмана,246003,52.4397078,31.0080340
19,вуліца Ландышава,246028,52.4455873,31.0035188
16А,1-я Тэхнічная вуліца,246013,52.3654407,31.0246863
48/2,праспект Кастрычніка,246746,52.4059878,30.9386553
50,праспект Кастрычніка,246029,52.4060088,30.9344626
14,вуліца Клермон-Феран,247027,52.4134611,30.9651116
4,вуліца Жукава,247027,52.4134313,30.9587375
16,вуліца Клермон-Феран,247027,52.4134866,30.9639856
6,вуліца Жукава,247027,52.4135914,30.9595975
14Б,Рэчыцкі праспект,247027,52.4138668,30.9625744
8,вуліца Жукава,247027,52.4137389,30.9604674
10,вуліца Жукава,247027,52.4127781,30.9587645
4Г,Рэчыцкі праспект,246027,52.4163969,30.9650327
14,вуліца Жукава,247027,52.4122700,30.9595869
10,вуліца Клермон-Феран,247027,52.4137251,30.9669864
12,вуліца Клермон-Феран,247027,52.4135158,30.9659992
71,вуліца Уладзімірава,246020,52.4237572,30.9477761
14,вуліца Гайдара,246020,52.4226027,30.9510531
1,вуліца Талаліхіна,246043,52.4215556,30.9582040
69,вуліца Уладзімірава,246020,52.4233865,30.9496609
6,вуліца Барадзіна,246000,52.4596706,31.0284354
22,Чачэрская вуліца,246038,52.4636498,31.0414253
6А,вуліца Барадзіна,246053,52.4596308,31.0296483
15,Рагачоўская вуліца,246022,52.4368405,30.9975018
42,Сялянская вуліца,240050,52.4237416,30.9990016
3,Савецкая вуліца,246050,52.4260697,31.0146149
20,Сялянская вуліца,246050,52.4274411,31.0101414
26,вуліца Жаркоўскага,246050,52.4290702,31.0019705
4,Прывакзальная вуліца,246017,52.4285419,30.9934163
43,Сялянская вуліца,246050,52.4242737,30.9984671
4,вуліца Камунараў,246050,52.4263253,31.0125170
9,вуліца Курчатава,246022,52.4351472,30.9946821
6,вуліца Камунараў,246050,52.4263779,31.0118399
6,плошча Леніна,246050,52.4240821,31.0174413
126,Савецкая вуліца,246028,52.4500087,30.9951793
27,вуліца Макаёнка,246038,52.4663652,31.0330154
134,вуліца Урыцкага,247046,52.3883379,31.0337562
7А,Старачарнігаўская вуліца,246028,52.4437289,30.9947316
21,бульвар Газеты Гомельская праўда,246053,52.4502907,31.0274613
27,Інтэрнацыянальны праезд,246002,52.4244309,31.0013630
2,праезд Чачына,246050,52.4242028,31.0019478
19Б,Палеская вуліца,246003,52.4387450,30.9969277
5,вуліца Пушкіна,246050,52.4297490,31.0140518
131,вуліца Кірава,246028,52.4502715,30.9915194
135,Рэчыцкі праспект,246012,52.4047384,30.9097698
16А,вуліца Свірыдава,246045,52.4739768,31.0238228
33,вуліца Агарэнкі,246000,52.4689390,31.0226439
53,вуліца Гагарына,246017,52.4223501,31.0025956
51,вуліца Гагарына,246017,52.4221711,31.0030341
47,вуліца Гагарына,246017,52.4219268,31.0037575
22А,вуліца Лепяшынскага,246000,52.4765214,30.9903264
108 к3,вуліца Крупскай,246015,52.4740800,31.0079064
223,вуліца Бочкіна,246034,52.4295537,30.9491634
73,вуліца Багдана Хмяльніцкага,246027,52.4201128,30.9721371
33,вуліца 50 год Заводу Гомсельмаш,246031,52.4499167,30.9566724
42,вуліца Барыса Царыкава,246018,52.4474153,30.9586783
20,вуліца Гагарына,246050,52.4203641,31.0068866
9,вуліца Фрунзэ,246001,52.4134345,31.0058633
1,вуліца Барыкіна,246001,52.4168480,30.9973284
105,Рэчыцкі праспект,246012,52.4071717,30.9218881
8,вуліца Матросава,246027,52.4211251,30.9742004
52,Рэчыцкі праспект,246012,52.4059094,30.9261192
4,вуліца Карповіча,246017,52.4308255,31.0027805
24А,Савецкая вуліца,246050,52.4292876,31.0107408
20А,Сялянская вуліца,246050,52.4269669,31.0102843
22,вуліца Пушкіна,246050,52.4301703,31.0144731
1,вуліца Пушкіна,246050,52.4303950,31.0128440
3,вуліца Пушкіна,246050,52.4301397,31.0135473
99А,вуліца Мазурава,246053,52.4557767,31.0295245
10,Шпітальная вуліца,246000,52.4351888,31.0104455
10А,Шпітальная вуліца,246000,52.4353560,31.0110400
125,вуліца Галавацкага,246053,52.4521761,31.0266501
331,вуліца Ільіча,246013,52.3569875,31.0289184
26,Жамчужная вуліца,246013,52.3580630,31.0276503
286,вуліца Ільіча,246013,52.3559779,31.0351618
288,вуліца Ільіча,246016,52.3555108,31.0389667
28,вуліца Жаркоўскага,246050,52.4288217,31.0015121
87,вуліца Войкава,246047,52.3869908,31.0349594
13А,Алімпійская вуліца,246045,52.4794936,31.0259549
49,вуліца Ільіча,246021,52.3940726,31.0285693
10Л,Падгорная вуліца,246144,52.4413826,31.0198586
10А,Гаспадарчая вуліца,246034,52.4394115,30.9629878
5А,вуліца Барыса Царыкава,246018,52.4459672,30.9638755
13,вуліца Якуба Коласа,246018,52.4453853,30.9639689
1,Даўгалеская вуліца,247030,52.4064298,30.7512445
12А,Рэчыцкі праспект,247027,52.4131816,30.9615503
4,Рэчыцкі праспект,246027,52.4172257,30.9655464
1,вуліца Незалежнасці,247045,52.5336547,30.9143884
8,Базавая вуліца,246050,52.4309231,30.9150616
14Б,вуліца Міхаіла Ламаносава,246030,52.5360357,30.9158683
1 к1,вуліца Дастаеўскага,246000,52.3868564,31.0223163
14,вуліца Братоў Лізюковых,246029,52.4032646,30.9545056
30,праспект Кастрычніка,246029,52.4075145,30.9563707
8А,Мінская вуліца,246034,52.4377351,30.9606436
13,вуліца Валерія Абеля,246030,52.5350690,30.9091830
4А,вуліца Братоў Лізюковых,246000,52.4043815,30.9602408
4А,вуліца Братоў Лізюковых,246000,52.4043443,30.9598818
4А,вуліца Братоў Лізюковых,246000,52.4041571,30.9605018
182,Рэчыцкі праспект,247038,52.3994087,30.9056665
40,вуліца Жукава,246028,52.4071330,30.9673712
46А,вуліца Паўлава,246029,52.4094997,30.9560755
319,вуліца Барыкіна,246027,52.4275923,30.9109755
10А,Міжгародняя вуліца,246012,52.4103268,30.9281527
65,Рэчыцкі праспект,246012,52.4082265,30.9293435
69,Рэчыцкі праспект,246012,52.4095925,30.9283576
91,Рэчыцкі праспект,246012,52.4071966,30.9242145
91А,Рэчыцкі праспект,246012,52.4074272,30.9255238
1,вуліца Косарава,246012,52.4100373,30.9181332
6,Блакітная вуліца,246012,52.4107384,30.9276038
75А,Рэчыцкі праспект,246012,52.4079379,30.9280766
45,Рэчыцкі праспект,246012,52.4096137,30.9347921
13,2-я Грамадзянская вуліца,246015,52.4638641,31.0102574
7,2-я Грамадзянская вуліца,246015,52.4629288,31.0098191
59,Нагорная вуліца,246015,52.4804077,31.0122297
7А,вуліца Шаўчэнкі,246017,52.4334434,30.9922041
45,Валгаградская вуліца,246029,52.4097780,30.9504989
18,вуліца Фядзюнінскага,246044,52.4885124,30.9860862
165А,Савецкая вуліца,246007,52.4769137,30.9778009
106А,вуліца Крупскай,246015,52.4712933,31.0087945
57,Палеская вуліца,246003,52.4389329,30.9920749
8Б,Рэчыцкі праспект,247027,52.4139869,30.9637268
2А,завулак Спартака,246050,52.4220883,31.0106010
44,вуліца Камісарава,246001,52.4151860,31.0086356
17,вуліца Клермон-Феран,247027,52.4131961,30.9683374
23,вуліца Макаёнка,246038,52.4662965,31.0343048
25,вуліца Макаёнка,246038,52.4663712,31.0357356
12А,Гаспадарчая вуліца,246034,52.4390448,30.9612397
7,вуліца Пушкіна,246050,52.4294650,31.0149999
22А,Валатаўская вуліца,246050,52.4304212,31.0151093
6А,3-ы Чырвонаармейскі праезд,246017,52.4261508,30.9959832
109А,вуліца Мазурава,246053,52.4562718,31.0287449
197,праспект Кастрычніка,246046,52.3999917,30.9252534
59 к1,вуліца Кожара,246006,52.4587904,31.0194889
1,вуліца Братоў Лізюковых,246029,52.4044148,30.9635040
21/1,3-я Авіяцыйная вуліца,246028,52.4510262,31.0050422
17,вуліца Кожара,246028,52.4514224,31.0048753
9,вуліца Кожара,246028,52.4499937,31.0008801
13,вуліца Кожара,246028,52.4506183,31.0028187
13,Студэнцкі праезд,246012,52.4046583,30.9304780
30,Жамчужная вуліца,246013,52.3583116,31.0199355
34,Жамчужная вуліца,246013,52.3589512,31.0198001
20А,Жамчужная вуліца,246013,52.3590670,31.0274832
44,Давыдаўская вуліца,246012,52.3939829,30.9129962
2 к5,8-я Іншагародняя вуліца,246025,52.4422896,30.9449610
12,Павятовая вуліца,246013,52.3513204,31.0178079
14,Павятовая вуліца,246013,52.3513009,31.0181808
16,Павятовая вуліца,246013,52.3512882,31.0186288
12А,Павятовая вуліца,246013,52.3513296,31.0174687
7,Рудны завулак,246013,52.3521334,31.0181153
6,Павятовая вуліца,246013,52.3512885,31.0166174
8,Павятовая вуліца,246013,52.3513126,31.0169785
2,Павятовая вуліца,246013,52.3512923,31.0158648
8,Крышталеўская вуліца,246013,52.3520673,31.0186239
4,Павятовая вуліца,246013,52.3512918,31.0162804
4,Крышталеўская вуліца,246013,52.3509526,31.0186334
89,вуліца Гагарына,246017,52.4240822,30.9931070
5,Павятовы завулак,246013,52.3507615,31.0172959
3,Павятовы завулак,246013,52.3507812,31.0163070
1,Павятовы завулак,246013,52.3507746,31.0159336
7 к1,2-я Грамадзянская вуліца,246015,52.4628280,31.0098731
98,праспект Касманаўтаў,246010,52.4572836,30.9525070
92А,праспект Касманаўтаў,246010,52.4562760,30.9536915
16,вуліца Максіма Багдановіча,246010,52.4606753,30.9556290
24Б,Украінская вуліца,246008,52.4234226,30.9920657
72,праспект Кастрычніка,246012,52.4021836,30.9259364
70,праспект Кастрычніка,246012,52.4025393,30.9279146
15,Пралетарская вуліца,246050,52.4211060,31.0110366
21,Пралетарская вуліца,246050,52.4206195,31.0107327
23,Пралетарская вуліца,246050,52.4207126,31.0100949
27,Савецкая вуліца,246050,52.4342792,31.0100293
5,Пралетарская вуліца,246050,52.4220485,31.0120266
25,Жамчужная вуліца,246013,52.3574251,31.0110953
20А,вуліца Яфрэмава,246035,52.4625968,30.9661666
16Б,вуліца Яфрэмава,246035,52.4620913,30.9652933
180,вуліца Крупскай,246015,52.4801506,31.0125541
15,вуліца Барысенкі,246020,52.4215496,30.9121091
4,Добрушская вуліца,246009,52.4016462,31.0560245
39,Пралетарская вуліца,246050,52.4193956,31.0088254
12А,вуліца Мазурава,246006,52.4484750,31.0204504
55,вуліца Пенязькова,246029,52.3956610,30.9577363
1А,Інжынерны праезд,246015,52.4721438,30.9919631
76,вуліца Рыгора Дзенісенкі,246029,52.3947994,30.9557278
16Б,Ірынінская вуліца,240000,52.4285782,31.0064803
3Б,вуліца Кісялёва,246017,52.4290945,30.9918024
23,Жамчужная вуліца,246013,52.3573645,31.0118974
15,Жамчужная вуліца,246013,52.3570194,31.0134197
34,Чарнігаўская вуліца,246042,52.3746594,31.0344147
36,Чарнігаўская вуліца,246042,52.3748653,31.0353062
6,вуліца Шылава,246007,52.4617786,30.9927256
4,вуліца Шылава,246007,52.4613148,30.9919797
13А,вуліца Багдана Хмяльніцкага,246014,52.4351294,30.9761999
45А,праспект Касманаўтаў,246035,52.4518102,30.9649393
2,вуліца Дурагіна,247045,52.5345353,30.9110562
6/3,плошча Леніна,246050,52.4239819,31.0166795
6/2,плошча Леніна,246050,52.4237429,31.0175783
46,завулак Якуба Коласа,246018,52.4442518,30.9496193
131/1,вуліца Кірава,246028,52.4499497,30.9917513
131/2,вуліца Кірава,246028,52.4504615,30.9923694
13А,2-я Грамадзянская вуліца,246015,52.4639713,31.0104327
24,Крышталеўская вуліца,246013,52.3561162,31.0175826
14,Мінская вуліца,246034,52.4339275,30.9557578
9,Рэчыцкі праспект,246027,52.4155451,30.9571114
230Б,вуліца Барыкіна,246044,52.4232081,30.9338031
7А,8-я Іншагародняя вуліца,246025,52.4427581,30.9428216
192Г,Гарматны праезд,246144,52.3584488,31.0417197
25,вуліца Міхаіла Ламаносава,246030,52.5345032,30.9189726
9,8-ы завулак Ілліча,246042,52.3655307,31.0221314
1Ф,вуліца Дастаеўскага,246042,52.3875350,31.0239024
20А,Гаспадарчая вуліца,246034,52.4384605,30.9564023
5,вуліца Хутаранскага,246015,52.4747107,31.0082369
66,вуліца Рыгора Дзенісенкі,246029,52.3936468,30.9568172
13,2-я Грамадзянская вуліца,246015,52.4637876,31.0103697
9,Пралетарская вуліца,246050,52.4216024,31.0117483
178,Бранская вуліца,246038,52.4662517,31.0450979
1А,Светлагорскі завулак,246030,52.5332138,30.9094030
2,вуліца Бяляева,246030,52.5331146,30.9117160
86,вуліца Рыгора Дзенісенкі,246029,52.3954473,30.9556250
78,вуліца Рыгора Дзенісенкі,246029,52.3949630,30.9547078
82,вуліца Рыгора Дзенісенкі,246029,52.3957538,30.9545540
6/4,плошча Леніна,246050,52.4240894,31.0167657
97/5,Савецкая вуліца,246032,52.4563798,30.9932394
59,вуліца Пенязькова,246029,52.3961704,30.9533738
68,вуліца Рыгора Дзенісенкі,246029,52.3943500,30.9565949
56,вуліца Рыгора Дзенісенкі,246029,52.3941846,30.9576189
48,вуліца Рыгора Дзенісенкі,246029,52.3940168,30.9590769
24,вуліца Рыгора Дзенісенкі,246029,52.3953564,30.9618386
34,вуліца Рыгора Дзенісенкі,246029,52.3947893,30.9610431
22,вуліца Рыгора Дзенісенкі,246029,52.3955033,30.9607696
13,вуліца Пенязькова,246029,52.3994539,30.9648579
4,вуліца Рыгора Дзенісенкі,246029,52.3982876,30.9662885
6,вуліца Рыгора Дзенісенкі,246029,52.3975422,30.9662809
21,вуліца Пенязькова,246029,52.3986595,30.9619901
27,Гаспадарчая вуліца,246010,52.4350784,30.9434129
3,Чырвоная вуліца,246003,52.4402065,30.9941671
331,вуліца Ільіча,246013,52.3573594,31.0290450
18,Блакітная вуліца,246012,52.4102176,30.9157093
68,Савецкая вуліца,246003,52.4400550,31.0022088
4,Дуброўны праезд,246013,52.3520712,31.0417574
145,вуліца Крупскай,246015,52.4735358,31.0102850
147,вуліца Крупскай,246015,52.4736596,31.0103414
2,Кастрычніцкая вуліца,246030,52.5318164,30.9169617
13,Першамайская вуліца,246030,52.5375150,30.9100770
12,вуліца Незалежнасці,246030,52.5306918,30.9096445
5,8-я Іншагародняя вуліца,246025,52.4438047,30.9404588
49,вуліца Дакутовіч,246003,52.4402225,30.9932501
6,Рагачоўская вуліца,246022,52.4372071,31.0023195
2,Чачэрская вуліца,246038,52.4619026,31.0396952
19,Жамчужная вуліца,246013,52.3573018,31.0127038
4,Дуброўны праезд,246013,52.3518371,31.0418245
3А,Павятовы завулак,246013,52.3508315,31.0166704
1А,Дрэваапрацовачная вуліца,246042,52.3753618,31.0187412
81,Рэчыцкі праспект,246012,52.4090934,30.9258015
97,Рэчыцкі праспект,246012,52.4085805,30.9232535
7,вуліца Косарава,246012,52.4091184,30.9198599
16В,вуліца Яфрэмава,246035,52.4617971,30.9662392
16А/1,вуліца Яфрэмава,246035,52.4618484,30.9659052
16А,вуліца Яфрэмава,246035,52.4621338,30.9659009
80Б,вуліца Яфрэмава,246035,52.4641031,30.9688627
1А,вуліца Сухога,246035,52.4649772,30.9697267
5А,вуліца Сухога,246035,52.4656688,30.9679424
1Б,вуліца Сухога,246035,52.4652930,30.9689090
21/2,3-я Авіяцыйная вуліца,246028,52.4511036,31.0056879
20,вуліца Пушкіна,246050,52.4304602,31.0139267
24,вуліца Пушкіна,246050,52.4298488,31.0151966
1,плошча Леніна,246050,52.4248420,31.0136700
4,вуліца 60 год СССР,246049,52.4043902,30.9799311
11,Валатаўская вуліца,246050,52.4331477,31.0163055
38,Лебядзёўская вуліца,246007,52.5008981,30.9709127
69,вуліца Багдана Хмяльніцкага,246027,52.4217407,30.9724201
290,вуліца Ільіча,246040,52.3517030,31.0369616
154,вуліца Барыкіна,246043,52.4201670,30.9522792
49,вуліца Хатаевіча,246006,52.4468714,31.0191022
